{
  "ts_utc": "2026-03-02T13:19:31Z",
  "threshold_m": 150,
  "source": "stations_override.txt (ICAO list) + aviationweather.gov (METAR/TAF raw)",
  "station_count": 159,
  "stations": [
    {
      "icao": "BIKF",
      "alert": "OK",
      "vis_m": 9999,
      "fzfg": false,
      "metar_trigger": false,
      "taf_trigger": false,
      "metar": "METAR BIKF 021300Z 35018KT 9999 BKN035 M02/M08 Q1005",
      "taf": "TAF BIKF 021055Z 0212/0312 33017KT 9999 BKN030 TXM00/0309Z TNM08/0300Z"
    },
    {
      "icao": "BKPR",
      "alert": "OK",
      "vis_m": 9999,
      "fzfg": false,
      "metar_trigger": false,
      "taf_trigger": false,
      "metar": "METAR BKPR 021300Z 31007KT 270V020 CAVOK 16/04 Q1024 NOSIG",
      "taf": "TAF BKPR 021130Z 0212/0312 17008KT 9999 SCT050"
    },
    {
      "icao": "EBCI",
      "alert": "OK",
      "vis_m": 9999,
      "fzfg": false,
      "metar_trigger": false,
      "taf_trigger": false,
      "metar": "METAR EBCI 021250Z 19008KT 150V240 CAVOK 16/03 Q1019 NOSIG",
      "taf": "TAF EBCI 021100Z 0212/0318 17010KT CAVOK"
    },
    {
      "icao": "EDDB",
      "alert": "OK",
      "vis_m": 9999,
      "fzfg": false,
      "metar_trigger": false,
      "taf_trigger": false,
      "metar": "METAR EDDB 021250Z AUTO 22011KT CAVOK 15/03 Q1024 NOSIG",
      "taf": "TAF EDDB 021100Z 0212/0312 20005KT CAVOK"
    },
    {
      "icao": "EDDH",
      "alert": "OK",
      "vis_m": 9999,
      "fzfg": false,
      "metar_trigger": false,
      "taf_trigger": false,
      "metar": "METAR EDDH 021250Z AUTO 22009KT 190V250 CAVOK 14/04 Q1022 NOSIG",
      "taf": "TAF EDDH 021100Z 0212/0318 19009KT CAVOK"
    },
    {
      "icao": "EDDK",
      "alert": "OK",
      "vis_m": 9999,
      "fzfg": false,
      "metar_trigger": false,
      "taf_trigger": false,
      "metar": "METAR EDDK 021250Z AUTO 14013KT 110V170 CAVOK 16/03 Q1021 NOSIG",
      "taf": "TAF EDDK 021100Z 0212/0318 14011KT CAVOK"
    },
    {
      "icao": "EDDN",
      "alert": "OK",
      "vis_m": 9999,
      "fzfg": false,
      "metar_trigger": false,
      "taf_trigger": false,
      "metar": "METAR EDDN 021250Z AUTO 14008KT 110V170 CAVOK 13/04 Q1024 NOSIG",
      "taf": "TAF EDDN 021100Z 0212/0312 13004KT 9999 FEW035"
    },
    {
      "icao": "EDDS",
      "alert": "OK",
      "vis_m": 9999,
      "fzfg": false,
      "metar_trigger": false,
      "taf_trigger": false,
      "metar": "METAR EDDS 021250Z AUTO VRB03KT CAVOK 14/04 Q1022 NOSIG",
      "taf": "TAF EDDS 021100Z 0212/0312 VRB03KT CAVOK"
    },
    {
      "icao": "EDFH",
      "alert": "OK",
      "vis_m": 9999,
      "fzfg": false,
      "metar_trigger": false,
      "taf_trigger": false,
      "metar": "METAR EDFH 021250Z 15010KT CAVOK 12/04 Q1021",
      "taf": "TAF EDFH 021100Z 0212/0312 14010KT CAVOK"
    },
    {
      "icao": "EDJA",
      "alert": "OK",
      "vis_m": 9999,
      "fzfg": false,
      "metar_trigger": false,
      "taf_trigger": false,
      "metar": "METAR EDJA 021250Z 03005KT 330V070 CAVOK 10/04 Q1022",
      "taf": "TAF EDJA 021100Z 0212/0221 VRB02KT CAVOK"
    },
    {
      "icao": "EDLW",
      "alert": "OK",
      "vis_m": 9999,
      "fzfg": false,
      "metar_trigger": false,
      "taf_trigger": false,
      "metar": "METAR EDLW 021250Z 17011KT 150V220 CAVOK 16/01 Q1021",
      "taf": "TAF EDLW 021100Z 0212/0312 17007KT CAVOK"
    },
    {
      "icao": "EDNY",
      "alert": "OK",
      "vis_m": 9999,
      "fzfg": false,
      "metar_trigger": false,
      "taf_trigger": false,
      "metar": "METAR EDNY 021250Z VRB02KT 9999 FEW004 07/04 Q1023",
      "taf": "TAF EDNY 021100Z 0212/0221 VRB03KT 3000 BR BKN003"
    },
    {
      "icao": "EDSB",
      "alert": "OK",
      "vis_m": 9999,
      "fzfg": false,
      "metar_trigger": false,
      "taf_trigger": false,
      "metar": "METAR EDSB 021250Z VRB02KT CAVOK 13/02 Q1022",
      "taf": "TAF EDSB 021100Z 0212/0312 VRB03KT CAVOK"
    },
    {
      "icao": "EETN",
      "alert": "OK",
      "vis_m": 9999,
      "fzfg": false,
      "metar_trigger": false,
      "taf_trigger": false,
      "metar": "METAR EETN 021250Z 33008KT 9999 -SN OVC005 01/01 Q1015 TEMPO 5000 SN",
      "taf": "TAF EETN 021130Z 0212/0312 32012KT 9999 BKN005 OVC010"
    },
    {
      "icao": "EFTU",
      "alert": "OK",
      "vis_m": 9999,
      "fzfg": false,
      "metar_trigger": false,
      "taf_trigger": false,
      "metar": "METAR EFTU 021250Z AUTO 36006KT 300V020 9999 OVC007 02/M00 Q1017",
      "taf": "TAF EFTU 021132Z 0212/0312 35010KT 9999 BKN006"
    },
    {
      "icao": "EGBB",
      "alert": "OK",
      "vis_m": 9999,
      "fzfg": false,
      "metar_trigger": false,
      "taf_trigger": false,
      "metar": "METAR EGBB 021250Z 19010KT 170V240 9999 FEW036 15/07 Q1012",
      "taf": "TAF EGBB 021056Z 0212/0312 18012KT 9999 SCT030"
    },
    {
      "icao": "EGGP",
      "alert": "OK",
      "vis_m": 9999,
      "fzfg": false,
      "metar_trigger": false,
      "taf_trigger": false,
      "metar": "METAR EGGP 021250Z 31009KT 9999 VCSH BKN027 09/06 Q1010",
      "taf": "TAF EGGP 021057Z 0212/0312 17012KT 9999 SCT025"
    },
    {
      "icao": "EGGW",
      "alert": "OK",
      "vis_m": 9999,
      "fzfg": false,
      "metar_trigger": false,
      "taf_trigger": false,
      "metar": "METAR EGGW 021250Z AUTO 16010KT 130V190 9999 NCD 14/07 Q1014",
      "taf": "TAF EGGW 021056Z 0212/0312 18010KT 9999 SCT025"
    },
    {
      "icao": "EGKK",
      "alert": "OK",
      "vis_m": 9999,
      "fzfg": false,
      "metar_trigger": false,
      "taf_trigger": false,
      "metar": "METAR EGKK 021250Z 18007KT CAVOK 13/07 Q1015",
      "taf": "TAF EGKK 021054Z 0212/0318 18010KT 9999 FEW030"
    },
    {
      "icao": "EGNM",
      "alert": "OK",
      "vis_m": 9999,
      "fzfg": false,
      "metar_trigger": false,
      "taf_trigger": false,
      "metar": "METAR EGNM 021250Z 21018KT 9999 SCT024 13/07 Q1009",
      "taf": "TAF EGNM 021056Z 0212/0312 18010KT 9999 SCT025"
    },
    {
      "icao": "EGPD",
      "alert": "OK",
      "vis_m": 9999,
      "fzfg": false,
      "metar_trigger": false,
      "taf_trigger": false,
      "metar": "METAR EGPD 021250Z COR AUTO 20018KT 9999 NCD 12/03 Q1004 NOSIG",
      "taf": "TAF EGPD 021054Z 0212/0312 21009KT 9999 FEW040"
    },
    {
      "icao": "EGPF",
      "alert": "OK",
      "vis_m": 9999,
      "fzfg": false,
      "metar_trigger": false,
      "taf_trigger": false,
      "metar": "METAR EGPF 021250Z AUTO 20016KT 9999 NCD 10/04 Q1006",
      "taf": "TAF EGPF 021057Z 0212/0312 21012KT 9999 FEW016 SCT030"
    },
    {
      "icao": "EHBK",
      "alert": "OK",
      "vis_m": 9999,
      "fzfg": false,
      "metar_trigger": false,
      "taf_trigger": false,
      "metar": "METAR EHBK 021255Z AUTO 19010KT 150V230 9999 NCD 16/05 Q1020 NOSIG",
      "taf": "TAF EHBK 021100Z 0212/0318 18011KT CAVOK"
    },
    {
      "icao": "EHEH",
      "alert": "OK",
      "vis_m": 9999,
      "fzfg": false,
      "metar_trigger": false,
      "taf_trigger": false,
      "metar": "METAR EHEH 021255Z AUTO 17010KT 120V220 9999 NCD 16/04 Q1019 BLU NOSIG RMK TREND REMOTE BY EHWX",
      "taf": "TAF EHEH 021111Z 0212/0318 17008KT CAVOK"
    },
    {
      "icao": "EKBI",
      "alert": "OK",
      "vis_m": 9999,
      "fzfg": false,
      "metar_trigger": false,
      "taf_trigger": false,
      "metar": "METAR EKBI 021250Z AUTO 20010KT 9999 FEW028/// 12/06 Q1020",
      "taf": "TAF EKBI 021127Z 0212/0312 21008KT 9999 SCT012"
    },
    {
      "icao": "EKCH",
      "alert": "OK",
      "vis_m": 9999,
      "fzfg": false,
      "metar_trigger": false,
      "taf_trigger": false,
      "metar": "METAR EKCH 021250Z AUTO 23008KT 9999 OVC049/// 10/06 Q1023 NOSIG",
      "taf": "TAF EKCH 021127Z 0212/0312 22010KT 9999 BKN014"
    },
    {
      "icao": "ENAL",
      "alert": "OK",
      "vis_m": 9999,
      "fzfg": false,
      "metar_trigger": false,
      "taf_trigger": false,
      "metar": "METAR ENAL 021250Z 21009KT 9999 -RA FEW050 BKN063 09/04 Q1003",
      "taf": "TAF ENAL 021100Z 0212/0221 18015KT 9999 BKN045"
    },
    {
      "icao": "ENBR",
      "alert": "OK",
      "vis_m": 5000,
      "fzfg": false,
      "metar_trigger": false,
      "taf_trigger": false,
      "metar": "METAR ENBR 021250Z 16023KT 5000 -DZRA BKN007 07/06 Q1009 TEMPO 4000 -RADZ BR SCT007 BKN014 RMK WIND 1200FT 16028G39KT",
      "taf": ""
    },
    {
      "icao": "ENGM",
      "alert": "OK",
      "vis_m": 1200,
      "fzfg": false,
      "metar_trigger": false,
      "taf_trigger": false,
      "metar": "METAR ENGM 021250Z VRB02KT 1200 R19R/P2000N R01R/1300U R19L/1400D R01L/1200D BR BKN002 01/M00 Q1018 TEMPO 2000 BR",
      "taf": "TAF ENGM 021100Z 0212/0312 VRB03KT 9999 -RASN SCT003 BKN012"
    },
    {
      "icao": "ENHD",
      "alert": "OK",
      "vis_m": 8000,
      "fzfg": false,
      "metar_trigger": false,
      "taf_trigger": false,
      "metar": "METAR ENHD 021250Z 16017KT 8000 -DZ OVC004 07/06 Q1011",
      "taf": "TAF ENHD 021100Z 0212/0221 14020KT 8000 FEW006 BKN009"
    },
    {
      "icao": "ENTC",
      "alert": "OK",
      "vis_m": 9999,
      "fzfg": false,
      "metar_trigger": false,
      "taf_trigger": false,
      "metar": "METAR ENTC 021250Z 18009KT 9999 SCT013 BKN034 02/00 Q1015 NOSIG RMK WIND 2600FT 21011KT",
      "taf": "TAF ENTC 021100Z 0212/0312 19012KT 9999 -SHRA FEW025 BKN045"
    },
    {
      "icao": "ENTO",
      "alert": "OK",
      "vis_m": 300,
      "fzfg": false,
      "metar_trigger": false,
      "taf_trigger": false,
      "metar": "METAR ENTO 021250Z VRB02KT 0300 R18/0650N R36/0800N -RA FG VV001 01/01 Q1018 TEMPO 0500 VV001",
      "taf": "TAF ENTO 021100Z 0212/0312 02003KT 0100 -DZ FG VV001"
    },
    {
      "icao": "ENVA",
      "alert": "OK",
      "vis_m": 9999,
      "fzfg": false,
      "metar_trigger": false,
      "taf_trigger": false,
      "metar": "METAR ENVA 021250Z 12008KT 090V150 CAVOK 07/M02 Q1010 NOSIG RMK WIND 670FT 15016KT",
      "taf": ""
    },
    {
      "icao": "ENZV",
      "alert": "OK",
      "vis_m": 9999,
      "fzfg": false,
      "metar_trigger": false,
      "taf_trigger": false,
      "metar": "METAR ENZV 021250Z 17018KT 9999 OVC009 08/06 Q1012 TEMPO 17018G28KT",
      "taf": "TAF ENZV 021100Z 0212/0312 15018KT 9999 SCT007 BKN015"
    },
    {
      "icao": "EPGD",
      "alert": "OK",
      "vis_m": 9999,
      "fzfg": false,
      "metar_trigger": false,
      "taf_trigger": false,
      "metar": "METAR EPGD 021300Z 27006KT CAVOK 10/00 Q1023",
      "taf": "TAF EPGD 021130Z 0212/0312 26007KT CAVOK"
    },
    {
      "icao": "EPKK",
      "alert": "OK",
      "vis_m": 9999,
      "fzfg": false,
      "metar_trigger": false,
      "taf_trigger": false,
      "metar": "METAR EPKK 021300Z 21003KT 160V290 9999 SCT045 11/M00 Q1026",
      "taf": "TAF EPKK 021130Z 0212/0312 04004KT 9999 SCT040"
    },
    {
      "icao": "EPKT",
      "alert": "OK",
      "vis_m": 9999,
      "fzfg": false,
      "metar_trigger": false,
      "taf_trigger": false,
      "metar": "METAR EPKT 021300Z VRB02KT 9999 FEW042 11/M01 Q1026",
      "taf": "TAF EPKT 021130Z 0212/0312 VRB02KT 9999 FEW020"
    },
    {
      "icao": "EPLB",
      "alert": "OK",
      "vis_m": 9999,
      "fzfg": false,
      "metar_trigger": false,
      "taf_trigger": false,
      "metar": "METAR EPLB 021300Z 29010KT CAVOK 10/M00 Q1026",
      "taf": "TAF EPLB 021130Z 0212/0312 27010KT CAVOK"
    },
    {
      "icao": "EPMO",
      "alert": "OK",
      "vis_m": 9999,
      "fzfg": false,
      "metar_trigger": false,
      "taf_trigger": false,
      "metar": "METAR EPMO 021300Z 26012KT CAVOK 10/02 Q1025",
      "taf": "TAF EPMO 021130Z 0212/0312 25010KT CAVOK"
    },
    {
      "icao": "EPPO",
      "alert": "OK",
      "vis_m": 9999,
      "fzfg": false,
      "metar_trigger": false,
      "taf_trigger": false,
      "metar": "METAR EPPO 021300Z 22011KT 190V250 CAVOK 13/02 Q1025",
      "taf": "TAF EPPO 021130Z 0212/0312 20010KT CAVOK"
    },
    {
      "icao": "EPRA",
      "alert": "OK",
      "vis_m": 9999,
      "fzfg": false,
      "metar_trigger": false,
      "taf_trigger": false,
      "metar": "METAR EPRA 021300Z 27007KT CAVOK 11/M01 Q1026",
      "taf": "TAF EPRA 021130Z 0212/0221 26005KT CAVOK"
    },
    {
      "icao": "EPRZ",
      "alert": "OK",
      "vis_m": 9999,
      "fzfg": false,
      "metar_trigger": false,
      "taf_trigger": false,
      "metar": "METAR EPRZ 021300Z VRB01KT 9999 SCT042 09/00 Q1026",
      "taf": "TAF EPRZ 021130Z 0212/0312 34005KT 9999 FEW030"
    },
    {
      "icao": "EPSC",
      "alert": "OK",
      "vis_m": 9999,
      "fzfg": false,
      "metar_trigger": false,
      "taf_trigger": false,
      "metar": "METAR EPSC 021300Z 19006KT CAVOK 12/03 Q1024",
      "taf": "TAF EPSC 021130Z 0212/0312 21006KT CAVOK"
    },
    {
      "icao": "EPSY",
      "alert": "OK",
      "vis_m": 9999,
      "fzfg": false,
      "metar_trigger": false,
      "taf_trigger": false,
      "metar": "METAR EPSY 021300Z 26009KT 230V300 CAVOK 09/M01 Q1024",
      "taf": "TAF EPSY 021130Z 0212/0221 25010KT CAVOK"
    },
    {
      "icao": "EPWA",
      "alert": "OK",
      "vis_m": 9999,
      "fzfg": false,
      "metar_trigger": false,
      "taf_trigger": false,
      "metar": "METAR EPWA 021300Z 29010KT 250V330 9999 FEW047 11/01 Q1025 NOSIG",
      "taf": "TAF EPWA 021130Z 0212/0312 26010KT CAVOK"
    },
    {
      "icao": "EPWR",
      "alert": "OK",
      "vis_m": 9999,
      "fzfg": false,
      "metar_trigger": false,
      "taf_trigger": false,
      "metar": "METAR EPWR 021300Z 19005KT 150V240 CAVOK 13/M01 Q1026",
      "taf": "TAF EPWR 021130Z 0212/0312 20004KT CAVOK"
    },
    {
      "icao": "ESGG",
      "alert": "OK",
      "vis_m": 100,
      "fzfg": false,
      "metar_trigger": false,
      "taf_trigger": false,
      "metar": "METAR ESGG 021250Z 17004KT 0100 R03/0325N R21/0325N FG VV001 05/05 Q1020",
      "taf": ""
    },
    {
      "icao": "ESKN",
      "alert": "OK",
      "vis_m": 9999,
      "fzfg": false,
      "metar_trigger": false,
      "taf_trigger": false,
      "metar": "METAR ESKN 021250Z 29005KT 250V330 CAVOK 04/M01 Q1022",
      "taf": "TAF ESKN 021130Z 0212/0312 28006KT CAVOK"
    },
    {
      "icao": "ESMS",
      "alert": "OK",
      "vis_m": 9999,
      "fzfg": false,
      "metar_trigger": false,
      "taf_trigger": false,
      "metar": "METAR ESMS 021250Z 20005KT 9999 BKN013 07/05 Q1023",
      "taf": "TAF ESMS 021127Z 0212/0312 20006KT 4500 BR BKN008"
    },
    {
      "icao": "ESSA",
      "alert": "OK",
      "vis_m": 9999,
      "fzfg": false,
      "metar_trigger": false,
      "taf_trigger": false,
      "metar": "METAR ESSA 021250Z 27008KT CAVOK 05/M01 Q1021 NOSIG",
      "taf": "TAF ESSA 021130Z 0212/0312 28007KT CAVOK"
    },
    {
      "icao": "EYKA",
      "alert": "OK",
      "vis_m": 9999,
      "fzfg": false,
      "metar_trigger": false,
      "taf_trigger": false,
      "metar": "METAR EYKA 021250Z 27012KT 250V310 9999 BKN030 04/M01 Q1022",
      "taf": "TAF EYKA 021100Z 0212/0312 28010KT 9000 SCT025"
    },
    {
      "icao": "EYPA",
      "alert": "OK",
      "vis_m": 9999,
      "fzfg": false,
      "metar_trigger": false,
      "taf_trigger": false,
      "metar": "METAR EYPA 021250Z 31003KT 260V030 CAVOK 03/01 Q1023",
      "taf": "TAF EYPA 021100Z 0212/0312 VRB02KT 9000 FEW030"
    },
    {
      "icao": "EYVI",
      "alert": "OK",
      "vis_m": 9999,
      "fzfg": false,
      "metar_trigger": false,
      "taf_trigger": false,
      "metar": "METAR EYVI 021250Z 29012KT 260V320 9999 OVC024 03/M01 Q1020 NOSIG",
      "taf": "TAF EYVI 021100Z 0212/0312 29010KT 9000 SCT015"
    },
    {
      "icao": "GCFV",
      "alert": "OK",
      "vis_m": 9999,
      "fzfg": false,
      "metar_trigger": false,
      "taf_trigger": false,
      "metar": "METAR GCFV 021300Z VRB11KT 9999 BKN038 19/09 Q1017",
      "taf": ""
    },
    {
      "icao": "GCLP",
      "alert": "OK",
      "vis_m": 9999,
      "fzfg": false,
      "metar_trigger": false,
      "taf_trigger": false,
      "metar": "METAR GCLP 021300Z 35010KT 300V030 9999 BKN046 21/08 Q1018 BECMG 18008KT",
      "taf": "TAF GCLP 020800Z 0209/0309 35013KT 9999 SCT040 TX22/0214Z TN13/0306Z"
    },
    {
      "icao": "GCTS",
      "alert": "OK",
      "vis_m": 9999,
      "fzfg": false,
      "metar_trigger": false,
      "taf_trigger": false,
      "metar": "METAR GCTS 021300Z 18008KT 150V220 9999 FEW035 BKN050 20/09 Q1019 NOSIG",
      "taf": "TAF GCTS 020800Z 0209/0309 13009KT 9999 SCT035 TX22/0214Z TN12/0306Z"
    },
    {
      "icao": "GMAD",
      "alert": "OK",
      "vis_m": 6000,
      "fzfg": false,
      "metar_trigger": false,
      "taf_trigger": false,
      "metar": "METAR GMAD 021300Z 25011KT 6000 SCT013 BKN100 21/14 Q1012 NOSIG",
      "taf": "TAF GMAD 021100Z 0212/0318 27012KT 8000 SCT020 BKN100"
    },
    {
      "icao": "GMMN",
      "alert": "OK",
      "vis_m": 8000,
      "fzfg": false,
      "metar_trigger": false,
      "taf_trigger": false,
      "metar": "METAR GMMN 021300Z 21009KT 180V250 8000 FEW010 BKN020 16/12 Q1012 NOSIG",
      "taf": "TAF GMMN 021100Z 0212/0318 20011KT 6000 BKN008"
    },
    {
      "icao": "GMMX",
      "alert": "OK",
      "vis_m": 8000,
      "fzfg": false,
      "metar_trigger": false,
      "taf_trigger": false,
      "metar": "METAR GMMX 021300Z 30005KT 240V360 8000 BKN030 17/12 Q1012 NOSIG",
      "taf": "TAF GMMX 021100Z 0212/0318 24008KT 8000 SCT020"
    },
    {
      "icao": "HEGN",
      "alert": "OK",
      "vis_m": 9999,
      "fzfg": false,
      "metar_trigger": false,
      "taf_trigger": false,
      "metar": "METAR HEGN 021200Z 36012KT 9999 SCT025 21/04 Q1015 NOSIG",
      "taf": "TAF HEGN 021100Z 0212/0318 35019KT CAVOK"
    },
    {
      "icao": "HEMA",
      "alert": "OK",
      "vis_m": 9999,
      "fzfg": false,
      "metar_trigger": false,
      "taf_trigger": false,
      "metar": "METAR HEMA 021200Z 36014KT CAVOK 20/05 1013 NOSIG",
      "taf": "TAF HEMA 021100Z 0212/0318 01016KT CAVOK"
    },
    {
      "icao": "HESH",
      "alert": "OK",
      "vis_m": 9999,
      "fzfg": false,
      "metar_trigger": false,
      "taf_trigger": false,
      "metar": "METAR HESH 021200Z 36008KT CAVOK 23/04 Q1014 NOSIG",
      "taf": "TAF HESH 021100Z 0212/0318 02013KT CAVOK"
    },
    {
      "icao": "HESX",
      "alert": "OK",
      "vis_m": 9999,
      "fzfg": false,
      "metar_trigger": false,
      "taf_trigger": false,
      "metar": "METAR HESX 021200Z 04013KT 9999 SCT025 17/05 Q1020 NOSIG",
      "taf": "TAF HESX 021100Z 0212/0318 02012KT 9999 SCT025"
    },
    {
      "icao": "LATI",
      "alert": "OK",
      "vis_m": null,
      "fzfg": false,
      "metar_trigger": false,
      "taf_trigger": false,
      "metar": "",
      "taf": "TAF LATI 021100Z 0212/0312 VRB05KT 9999 SCT035 BKN090 TX19/0312Z TN06/0304Z"
    },
    {
      "icao": "LBPD",
      "alert": "OK",
      "vis_m": 9999,
      "fzfg": false,
      "metar_trigger": false,
      "taf_trigger": false,
      "metar": "METAR LBPD 021300Z AUTO 13005KT 9999 NCD 13/02 Q1024 NOSIG",
      "taf": "TAF LBPD 021100Z 0212/0312 VRB03KT CAVOK"
    },
    {
      "icao": "LBSF",
      "alert": "OK",
      "vis_m": 9999,
      "fzfg": false,
      "metar_trigger": false,
      "taf_trigger": false,
      "metar": "METAR LBSF 021300Z VRB02KT CAVOK 15/00 Q1023 NOSIG",
      "taf": "TAF LBSF 021100Z 0212/0312 VRB04KT CAVOK"
    },
    {
      "icao": "LBWN",
      "alert": "OK",
      "vis_m": 9999,
      "fzfg": false,
      "metar_trigger": false,
      "taf_trigger": false,
      "metar": "METAR LBWN 021300Z 11009KT CAVOK 11/02 Q1024 NOSIG",
      "taf": "TAF LBWN 021100Z 0212/0312 11010KT 9999 SCT045"
    },
    {
      "icao": "LCLK",
      "alert": "OK",
      "vis_m": 9999,
      "fzfg": false,
      "metar_trigger": false,
      "taf_trigger": false,
      "metar": "METAR LCLK 021300Z 34010KT 9999 FEW025 SCT060 20/05 Q1020 NOSIG",
      "taf": "TAF LCLK 021130Z 0212/0312 02012KT 9999 FEW040"
    },
    {
      "icao": "LCPH",
      "alert": "OK",
      "vis_m": 9999,
      "fzfg": false,
      "metar_trigger": false,
      "taf_trigger": false,
      "metar": "METAR LCPH 021300Z AUTO 31019KT 9999 NCD 17/06 Q1020 NOSIG",
      "taf": "TAF LCPH 021130Z 0212/0312 31014KT 9999 FEW040"
    },
    {
      "icao": "LEAL",
      "alert": "OK",
      "vis_m": 9999,
      "fzfg": false,
      "metar_trigger": false,
      "taf_trigger": false,
      "metar": "METAR LEAL 021300Z 07014KT 9999 FEW014 OVC030 16/12 Q1018 NOSIG",
      "taf": "TAF LEAL 021100Z 0212/0312 05015KT 9999 BKN020 TX18/0212Z TN13/0307Z"
    },
    {
      "icao": "LEBB",
      "alert": "OK",
      "vis_m": 9999,
      "fzfg": false,
      "metar_trigger": false,
      "taf_trigger": false,
      "metar": "METAR LEBB 021300Z 11012KT 070V140 9999 FEW030 19/08 Q1012 NOSIG",
      "taf": "TAF LEBB 021100Z 0212/0312 14009KT CAVOK TX19/0215Z TN08/0306Z"
    },
    {
      "icao": "LEBL",
      "alert": "OK",
      "vis_m": 9999,
      "fzfg": false,
      "metar_trigger": false,
      "taf_trigger": false,
      "metar": "METAR LEBL 021300Z 10008KT 9999 FEW049 15/09 Q1020 NOSIG",
      "taf": "TAF LEBL 021100Z 0212/0312 12009KT 9999 BKN040 TX15/0212Z TN12/0306Z"
    },
    {
      "icao": "LECH",
      "alert": "OK",
      "vis_m": 9000,
      "fzfg": false,
      "metar_trigger": false,
      "taf_trigger": false,
      "metar": "METAR LECH 021300Z AUTO VRB02KT 9000 OVC024 13/06 Q1019",
      "taf": ""
    },
    {
      "icao": "LEMD",
      "alert": "OK",
      "vis_m": 9999,
      "fzfg": false,
      "metar_trigger": false,
      "taf_trigger": false,
      "metar": "METAR LEMD 021300Z 12003KT 9999 FEW030 14/05 Q1015 NOSIG",
      "taf": ""
    },
    {
      "icao": "LEMG",
      "alert": "OK",
      "vis_m": 9999,
      "fzfg": false,
      "metar_trigger": false,
      "taf_trigger": false,
      "metar": "METAR LEMG 021300Z 17006KT 070V230 9999 SCT023 15/10 Q1014 NOSIG",
      "taf": "TAF LEMG 021100Z 0212/0312 14010KT 9999 FEW025 TX19/0214Z TN13/0307Z"
    },
    {
      "icao": "LEVC",
      "alert": "OK",
      "vis_m": 9999,
      "fzfg": false,
      "metar_trigger": false,
      "taf_trigger": false,
      "metar": "METAR LEVC 021300Z 10006KT 050V130 9999 FEW024 OVC034 14/08 Q1019 NOSIG",
      "taf": "TAF LEVC 021100Z 0212/0312 09008KT 9999 BKN020 TX16/0212Z TN12/0307Z"
    },
    {
      "icao": "LEXJ",
      "alert": "OK",
      "vis_m": 9999,
      "fzfg": false,
      "metar_trigger": false,
      "taf_trigger": false,
      "metar": "METAR LEXJ 021300Z 21008KT 160V250 CAVOK 18/05 Q1011",
      "taf": "TAF LEXJ 020800Z 0209/0309 20009KT CAVOK TX20/0215Z TN05/0302Z"
    },
    {
      "icao": "LEZG",
      "alert": "OK",
      "vis_m": 9999,
      "fzfg": false,
      "metar_trigger": false,
      "taf_trigger": false,
      "metar": "METAR LEZG 021300Z 10012KT 070V140 9999 FEW030 15/07 Q1017 NOSIG",
      "taf": "TAF LEZG 021100Z 0212/0312 11010KT 9999 BKN015 TX19/0215Z TN08/0306Z"
    },
    {
      "icao": "LEZL",
      "alert": "OK",
      "vis_m": 9999,
      "fzfg": false,
      "metar_trigger": false,
      "taf_trigger": false,
      "metar": "METAR LEZL 021300Z 19005KT 100V250 CAVOK 22/11 Q1010 NOSIG",
      "taf": "TAF LEZL 020800Z 0209/0309 04006KT CAVOK TX22/0215Z TN10/0307Z"
    },
    {
      "icao": "LFBD",
      "alert": "OK",
      "vis_m": 9999,
      "fzfg": false,
      "metar_trigger": false,
      "taf_trigger": false,
      "metar": "METAR LFBD 021300Z AUTO 12011KT CAVOK 19/09 Q1015 NOSIG",
      "taf": "TAF LFBD 021100Z 0212/0318 12010KT CAVOK TX18/0214Z TN06/0305Z"
    },
    {
      "icao": "LFLL",
      "alert": "OK",
      "vis_m": 9999,
      "fzfg": false,
      "metar_trigger": false,
      "taf_trigger": false,
      "metar": "METAR LFLL 021300Z 20017KT 170V230 9999 SCT046 16/04 Q1020 NOSIG",
      "taf": "TAF LFLL 021100Z 0212/0318 15010KT CAVOK"
    },
    {
      "icao": "LFLS",
      "alert": "OK",
      "vis_m": 9999,
      "fzfg": false,
      "metar_trigger": false,
      "taf_trigger": false,
      "metar": "METAR LFLS 021300Z AUTO 22014KT 9999 FEW050 15/05 Q1020 NOSIG",
      "taf": "TAF LFLS 020800Z 0209/0309 08006KT 9999 BKN030"
    },
    {
      "icao": "LFMN",
      "alert": "OK",
      "vis_m": 9999,
      "fzfg": false,
      "metar_trigger": false,
      "taf_trigger": false,
      "metar": "METAR LFMN 021300Z 08014KT 9999 FEW026 16/10 Q1024 NOSIG",
      "taf": "TAF LFMN 020800Z 0209/0315 08012KT 9999 SCT020 BKN060"
    },
    {
      "icao": "LFOB",
      "alert": "OK",
      "vis_m": 9999,
      "fzfg": false,
      "metar_trigger": false,
      "taf_trigger": false,
      "metar": "METAR LFOB 021300Z AUTO 16009KT 130V190 CAVOK 16/07 Q1017 NOSIG",
      "taf": "TAF LFOB 021100Z 0212/0312 15010KT CAVOK"
    },
    {
      "icao": "LFPO",
      "alert": "OK",
      "vis_m": 9999,
      "fzfg": false,
      "metar_trigger": false,
      "taf_trigger": false,
      "metar": "METAR LFPO 021300Z 21005KT 140V260 CAVOK 17/05 Q1018 NOSIG",
      "taf": "TAF LFPO 021100Z 0212/0318 17005KT CAVOK"
    },
    {
      "icao": "LFSB",
      "alert": "OK",
      "vis_m": 9999,
      "fzfg": false,
      "metar_trigger": false,
      "taf_trigger": false,
      "metar": "METAR LFSB 021300Z AUTO VRB03KT CAVOK 17/05 Q1021 NOSIG",
      "taf": "TAF LFSB 021100Z 0212/0312 13006KT CAVOK"
    },
    {
      "icao": "LGAV",
      "alert": "OK",
      "vis_m": 9999,
      "fzfg": false,
      "metar_trigger": false,
      "taf_trigger": false,
      "metar": "METAR LGAV 021250Z COR 04010KT 010V080 CAVOK 15/06 Q1025 NOSIG",
      "taf": "TAF LGAV 021100Z 0212/0312 06010KT 9999 FEW025"
    },
    {
      "icao": "LGTS",
      "alert": "OK",
      "vis_m": 9999,
      "fzfg": false,
      "metar_trigger": false,
      "taf_trigger": false,
      "metar": "METAR LGTS 021250Z 31007KT 9999 FEW030 13/08 Q1025 NOSIG",
      "taf": "TAF LGTS 021100Z 0212/0312 VRB03KT 9999 FEW025"
    },
    {
      "icao": "LHBP",
      "alert": "OK",
      "vis_m": 9999,
      "fzfg": false,
      "metar_trigger": false,
      "taf_trigger": false,
      "metar": "METAR LHBP 021300Z 10004KT 050V160 CAVOK 14/01 Q1025 NOSIG",
      "taf": "TAF LHBP 021115Z 0212/0312 VRB03KT CAVOK"
    },
    {
      "icao": "LHDC",
      "alert": "OK",
      "vis_m": 9999,
      "fzfg": false,
      "metar_trigger": false,
      "taf_trigger": false,
      "metar": "METAR LHDC 021245Z AUTO 00000KT CAVOK 12/03 Q1026 NOSIG",
      "taf": "TAF LHDC 021115Z 0212/0221 VRB02KT 8000 NSC"
    },
    {
      "icao": "LIBD",
      "alert": "OK",
      "vis_m": 9000,
      "fzfg": false,
      "metar_trigger": false,
      "taf_trigger": false,
      "metar": "METAR LIBD 021250Z 03003KT 360V070 9000 SCT040 14/09 Q1026",
      "taf": "TAF LIBD 021100Z 0212/0312 06010KT 9999 SCT030"
    },
    {
      "icao": "LIBG",
      "alert": "OK",
      "vis_m": 9999,
      "fzfg": false,
      "metar_trigger": false,
      "taf_trigger": false,
      "metar": "METAR LIBG 021250Z 18004KT 140V210 9999 SCT015 17/09 Q1025",
      "taf": "TAF LIBG 021100Z 0212/0221 19006KT 9999 FEW015"
    },
    {
      "icao": "LIBP",
      "alert": "OK",
      "vis_m": 6000,
      "fzfg": false,
      "metar_trigger": false,
      "taf_trigger": false,
      "metar": "METAR LIBP 021250Z 06006KT 6000 NSC 14/09 Q1025",
      "taf": "TAF LIBP 021100Z 0212/0312 VRB05KT 6000 FEW040"
    },
    {
      "icao": "LIBR",
      "alert": "OK",
      "vis_m": 9999,
      "fzfg": false,
      "metar_trigger": false,
      "taf_trigger": false,
      "metar": "METAR LIBR 021250Z 12009KT 9999 BKN020 15/11 Q1025",
      "taf": "TAF LIBR 021100Z 0212/0312 17006KT 9999 FEW020"
    },
    {
      "icao": "LICA",
      "alert": "OK",
      "vis_m": 9999,
      "fzfg": false,
      "metar_trigger": false,
      "taf_trigger": false,
      "metar": "METAR LICA 021250Z 26007KT 9999 FEW020 16/12 Q1026",
      "taf": "TAF LICA 021100Z 0212/0312 27012KT 8000 SCT040"
    },
    {
      "icao": "LICC",
      "alert": "OK",
      "vis_m": 9999,
      "fzfg": false,
      "metar_trigger": false,
      "taf_trigger": false,
      "metar": "METAR LICC 021250Z 14008KT 9999 FEW020 16/14 Q1026",
      "taf": "TAF LICC 021100Z 0212/0312 VRB06KT 9999 SCT040"
    },
    {
      "icao": "LICJ",
      "alert": "OK",
      "vis_m": 9999,
      "fzfg": false,
      "metar_trigger": false,
      "taf_trigger": false,
      "metar": "METAR LICJ 021250Z 03008KT CAVOK 16/11 Q1025",
      "taf": "TAF LICJ 021100Z 0212/0312 07010KT 9999 FEW020"
    },
    {
      "icao": "LIMC",
      "alert": "OK",
      "vis_m": 3000,
      "fzfg": false,
      "metar_trigger": false,
      "taf_trigger": false,
      "metar": "METAR LIMC 021250Z 16004KT 130V200 3000 BR BKN005 11/10 Q1025 NOSIG",
      "taf": "TAF LIMC 021100Z 0212/0318 VRB04KT 6000 BKN020"
    },
    {
      "icao": "LIME",
      "alert": "OK",
      "vis_m": 6000,
      "fzfg": false,
      "metar_trigger": false,
      "taf_trigger": false,
      "metar": "METAR LIME 021250Z 19005KT 130V260 6000 BKN020 13/09 Q1025 NOSIG",
      "taf": "TAF LIME 021100Z 0212/0312 VRB05KT 6000 BKN018"
    },
    {
      "icao": "LIMF",
      "alert": "OK",
      "vis_m": 4000,
      "fzfg": false,
      "metar_trigger": false,
      "taf_trigger": false,
      "metar": "METAR LIMF 021250Z 09003KT 040V140 4000 BR SCT010 BKN035 12/07 Q1025",
      "taf": "TAF LIMF 021100Z 0212/0312 VRB04KT 2500 BR BKN010"
    },
    {
      "icao": "LIMJ",
      "alert": "OK",
      "vis_m": 9999,
      "fzfg": false,
      "metar_trigger": false,
      "taf_trigger": false,
      "metar": "METAR LIMJ 021250Z 20002KT 9999 SCT040 BKN080 14/09 Q1025",
      "taf": "TAF LIMJ 021100Z 0212/0312 VRB05KT 9999 SCT020 BKN030"
    },
    {
      "icao": "LIPE",
      "alert": "OK",
      "vis_m": 9999,
      "fzfg": false,
      "metar_trigger": false,
      "taf_trigger": false,
      "metar": "METAR LIPE 021250Z 04007KT 010V080 9999 BKN018 14/10 Q1025",
      "taf": "TAF LIPE 021100Z 0212/0312 VRB04KT 4000 BR BKN010"
    },
    {
      "icao": "LIPH",
      "alert": "OK",
      "vis_m": 7000,
      "fzfg": false,
      "metar_trigger": false,
      "taf_trigger": false,
      "metar": "METAR LIPH 021250Z 04005KT 360V080 7000 SCT015 14/08 Q1025",
      "taf": "TAF LIPH 021100Z 0212/0312 VRB04KT 4000 BR BKN015"
    },
    {
      "icao": "LIPQ",
      "alert": "OK",
      "vis_m": 8000,
      "fzfg": false,
      "metar_trigger": false,
      "taf_trigger": false,
      "metar": "METAR LIPQ 021250Z VRB02KT 8000 BKN025 BKN045 13/10 Q1026",
      "taf": "TAF LIPQ 021100Z 0212/0312 VRB05KT 6000 SCT010"
    },
    {
      "icao": "LIPR",
      "alert": "OK",
      "vis_m": 500,
      "fzfg": false,
      "metar_trigger": false,
      "taf_trigger": false,
      "metar": "METAR LIPR 021250Z 03006KT 360V070 0500 R30/1300U FG BKN001 10/10 Q1025",
      "taf": ""
    },
    {
      "icao": "LIPX",
      "alert": "OK",
      "vis_m": 3500,
      "fzfg": false,
      "metar_trigger": false,
      "taf_trigger": false,
      "metar": "METAR LIPX 021250Z VRB02KT 3500 BR FEW020 BKN040 15/09 Q1025",
      "taf": "TAF LIPX 021100Z 0212/0312 VRB05KT 4000 BR SCT015 BKN050"
    },
    {
      "icao": "LIPY",
      "alert": "OK",
      "vis_m": 6000,
      "fzfg": false,
      "metar_trigger": false,
      "taf_trigger": false,
      "metar": "METAR LIPY 021250Z 03006KT 6000 NSC 14/11 Q1025",
      "taf": "TAF LIPY 021100Z 0212/0312 VRB05KT 6000 NSC"
    },
    {
      "icao": "LIPZ",
      "alert": "OK",
      "vis_m": 9999,
      "fzfg": false,
      "metar_trigger": false,
      "taf_trigger": false,
      "metar": "METAR LIPZ 021250Z 13006KT 110V170 9999 SCT030 13/09 Q1026 NOSIG",
      "taf": "TAF LIPZ 021100Z 0212/0318 VRB05KT 6000 SCT015"
    },
    {
      "icao": "LIRF",
      "alert": "OK",
      "vis_m": 9999,
      "fzfg": false,
      "metar_trigger": false,
      "taf_trigger": false,
      "metar": "METAR LIRF 021250Z 15013KT 9999 FEW020 SCT050 16/11 Q1025 NOSIG",
      "taf": "TAF LIRF 021100Z 0212/0318 14012KT 9999 SCT030"
    },
    {
      "icao": "LIRN",
      "alert": "OK",
      "vis_m": 8000,
      "fzfg": false,
      "metar_trigger": false,
      "taf_trigger": false,
      "metar": "METAR LIRN 021250Z 19003KT 140V230 8000 SCT030 15/09 Q1026 NOSIG",
      "taf": "TAF LIRN 021100Z 0212/0312 VRB04KT 8000 SCT030"
    },
    {
      "icao": "LIRP",
      "alert": "OK",
      "vis_m": 9999,
      "fzfg": false,
      "metar_trigger": false,
      "taf_trigger": false,
      "metar": "METAR LIRP 021245Z 10006KT 9999 SCT025 SCT070 16/07 Q1024 NOSIG",
      "taf": "TAF LIRP 021100Z 0212/0312 VRB04KT 9999 SCT030"
    },
    {
      "icao": "LIRZ",
      "alert": "OK",
      "vis_m": 8000,
      "fzfg": false,
      "metar_trigger": false,
      "taf_trigger": false,
      "metar": "METAR LIRZ 021250Z 26003KT 210V290 8000 FEW025 BKN045 14/07 Q1025",
      "taf": "TAF LIRZ 021100Z 0212/0312 VRB05KT 9999 SCT035"
    },
    {
      "icao": "LJLJ",
      "alert": "OK",
      "vis_m": 9999,
      "fzfg": false,
      "metar_trigger": false,
      "taf_trigger": false,
      "metar": "METAR LJLJ 021300Z 28005KT 9999 FEW033 BKN060 13/05 Q1024 NOSIG",
      "taf": "TAF LJLJ 021100Z 0212/0312 VRB02KT 9999 FEW033 BKN060"
    },
    {
      "icao": "LKMT",
      "alert": "OK",
      "vis_m": 9999,
      "fzfg": false,
      "metar_trigger": false,
      "taf_trigger": false,
      "metar": "METAR LKMT 021300Z 02005KT 9999 FEW034 11/02 Q1026 NOSIG",
      "taf": "TAF LKMT 021100Z 0212/0312 04006KT CAVOK"
    },
    {
      "icao": "LKPR",
      "alert": "OK",
      "vis_m": 4000,
      "fzfg": false,
      "metar_trigger": false,
      "taf_trigger": false,
      "metar": "METAR LKPR 021300Z 04006KT 010V080 4000 1500E BR BCFG SCT002 04/03 Q1026 NOSIG",
      "taf": "TAF LKPR 021100Z 0212/0318 10005KT 2000 BR BKN002"
    },
    {
      "icao": "LLBG",
      "alert": "OK",
      "vis_m": 9999,
      "fzfg": false,
      "metar_trigger": false,
      "taf_trigger": false,
      "metar": "METAR LLBG 021250Z 33019KT CAVOK 19/02 Q1018 NOSIG RMK FEW065",
      "taf": "TAF LLBG 021107Z 0212/0312 33010KT CAVOK TX19/0212Z TN07/0304Z"
    },
    {
      "icao": "LMML",
      "alert": "OK",
      "vis_m": 9999,
      "fzfg": false,
      "metar_trigger": false,
      "taf_trigger": false,
      "metar": "METAR LMML 021315Z 15011KT 120V180 9999 FEW017 17/13 Q1025 NOSIG",
      "taf": "TAF LMML 021100Z 0212/0312 15012KT 9999 SCT017"
    },
    {
      "icao": "LOWW",
      "alert": "OK",
      "vis_m": 9999,
      "fzfg": false,
      "metar_trigger": false,
      "taf_trigger": false,
      "metar": "METAR LOWW 021250Z 01004KT 290V070 CAVOK 12/04 Q1025 NOSIG",
      "taf": ""
    },
    {
      "icao": "LPFR",
      "alert": "OK",
      "vis_m": 9000,
      "fzfg": false,
      "metar_trigger": false,
      "taf_trigger": false,
      "metar": "METAR LPFR 021300Z 12015KT 9000 BKN012 17/14 Q1010",
      "taf": "TAF LPFR 021100Z 0212/0312 13013KT 9999 SCT020"
    },
    {
      "icao": "LPMA",
      "alert": "OK",
      "vis_m": 9999,
      "fzfg": false,
      "metar_trigger": false,
      "taf_trigger": false,
      "metar": "METAR LPMA 021300Z 35014G24KT 290V060 9999 SCT015 FEW018CB 15/07 Q1018",
      "taf": "TAF LPMA 021100Z 0212/0312 36018G30KT 9999 SCT015"
    },
    {
      "icao": "LPPR",
      "alert": "OK",
      "vis_m": 9999,
      "fzfg": false,
      "metar_trigger": false,
      "taf_trigger": false,
      "metar": "METAR LPPR 021300Z 18015KT 9999 FEW020 SCT030 16/09 Q1009",
      "taf": "TAF LPPR 021100Z 0212/0312 17015KT 9999 SCT018 SCT035"
    },
    {
      "icao": "LPPS",
      "alert": "OK",
      "vis_m": 9999,
      "fzfg": false,
      "metar_trigger": false,
      "taf_trigger": false,
      "metar": "METAR LPPS 021300Z 35025KT 9999 SCT014 FEW018TCU 16/05 Q1018",
      "taf": "TAF LPPS 021100Z 0212/0318 34020KT 9999 SCT015 SCT030"
    },
    {
      "icao": "LPPT",
      "alert": "OK",
      "vis_m": 9999,
      "fzfg": false,
      "metar_trigger": false,
      "taf_trigger": false,
      "metar": "METAR LPPT 021300Z 15009G19KT 110V170 9999 FEW015 BKN018 15/11 Q1009",
      "taf": "TAF LPPT 021100Z 0212/0318 16008KT 9999 BKN025"
    },
    {
      "icao": "LQBK",
      "alert": "OK",
      "vis_m": 9999,
      "fzfg": false,
      "metar_trigger": false,
      "taf_trigger": false,
      "metar": "METAR LQBK 021300Z 02003KT 350V060 CAVOK 14/05 Q1025 NOSIG",
      "taf": "TAF LQBK 021100Z 0212/0312 33005KT CAVOK TX15/0214Z TN04/0305Z"
    },
    {
      "icao": "LQSA",
      "alert": "OK",
      "vis_m": 9999,
      "fzfg": false,
      "metar_trigger": false,
      "taf_trigger": false,
      "metar": "METAR LQSA 021300Z VRB01KT 9999 SCT055 12/03 Q1025 NOSIG",
      "taf": "TAF LQSA 021100Z 0212/0312 VRB02KT 9999 SCT055 TX15/0214Z TN02/0305Z"
    },
    {
      "icao": "LQTZ",
      "alert": "OK",
      "vis_m": 9999,
      "fzfg": false,
      "metar_trigger": false,
      "taf_trigger": false,
      "metar": "METAR LQTZ 021300Z 27004KT 220V290 CAVOK 13/05 Q1025",
      "taf": ""
    },
    {
      "icao": "LRBC",
      "alert": "OK",
      "vis_m": 9999,
      "fzfg": false,
      "metar_trigger": false,
      "taf_trigger": false,
      "metar": "METAR LRBC 021300Z 01008KT CAVOK 11/02 Q1025",
      "taf": "TAF LRBC 021100Z 0212/0221 VRB04KT CAVOK"
    },
    {
      "icao": "LRBS",
      "alert": "OK",
      "vis_m": 9999,
      "fzfg": false,
      "metar_trigger": false,
      "taf_trigger": false,
      "metar": "METAR LRBS 021300Z VRB01KT 9999 BKN006 02/02 Q1025 NOSIG",
      "taf": "TAF LRBS 021100Z 0212/0312 24006KT 5000 BR OVC005"
    },
    {
      "icao": "LRBV",
      "alert": "OK",
      "vis_m": 9999,
      "fzfg": false,
      "metar_trigger": false,
      "taf_trigger": false,
      "metar": "METAR LRBV 021300Z 00000KT CAVOK 09/00 Q1024",
      "taf": "TAF LRBV 021100Z 0212/0221 VRB04KT CAVOK"
    },
    {
      "icao": "LRCL",
      "alert": "OK",
      "vis_m": 9999,
      "fzfg": false,
      "metar_trigger": false,
      "taf_trigger": false,
      "metar": "METAR LRCL 021300Z 10001KT 9999 FEW070 09/01 Q1025",
      "taf": "TAF LRCL 021100Z 0212/0221 VRB04KT CAVOK"
    },
    {
      "icao": "LRCV",
      "alert": "OK",
      "vis_m": 8000,
      "fzfg": false,
      "metar_trigger": false,
      "taf_trigger": false,
      "metar": "METAR LRCV 021300Z 25004KT 8000 SCT015 06/02 Q1024",
      "taf": "TAF LRCV 021100Z 0212/0221 VRB04KT 5000 BR BKN005"
    },
    {
      "icao": "LRIA",
      "alert": "OK",
      "vis_m": 9999,
      "fzfg": false,
      "metar_trigger": false,
      "taf_trigger": false,
      "metar": "METAR LRIA 021300Z 29007KT 9999 BKN043 07/01 Q1026",
      "taf": "TAF LRIA 021100Z 0212/0221 VRB04KT CAVOK"
    },
    {
      "icao": "LROP",
      "alert": "OK",
      "vis_m": 6000,
      "fzfg": false,
      "metar_trigger": false,
      "taf_trigger": false,
      "metar": "METAR LROP 021300Z 25003KT 200V290 6000 BKN004 02/02 Q1025 NOSIG",
      "taf": "TAF LROP 021100Z 0212/0312 24006KT 5000 BR OVC005"
    },
    {
      "icao": "LRSB",
      "alert": "OK",
      "vis_m": 9999,
      "fzfg": false,
      "metar_trigger": false,
      "taf_trigger": false,
      "metar": "METAR LRSB 021300Z VRB02KT CAVOK 10/M02 Q1024 NOSIG",
      "taf": "TAF LRSB 021100Z 0212/0312 VRB04KT CAVOK"
    },
    {
      "icao": "LRSM",
      "alert": "OK",
      "vis_m": 9999,
      "fzfg": false,
      "metar_trigger": false,
      "taf_trigger": false,
      "metar": "METAR LRSM 021300Z 25004KT CAVOK 11/03 Q1026",
      "taf": "TAF LRSM 021100Z 0212/0221 VRB04KT CAVOK"
    },
    {
      "icao": "LRSV",
      "alert": "OK",
      "vis_m": 9999,
      "fzfg": false,
      "metar_trigger": false,
      "taf_trigger": false,
      "metar": "METAR LRSV 021300Z 32016KT CAVOK 07/03 Q1025",
      "taf": "TAF LRSV 021100Z 0212/0221 32010KT 9999 SCT040"
    },
    {
      "icao": "LRTM",
      "alert": "OK",
      "vis_m": 9999,
      "fzfg": false,
      "metar_trigger": false,
      "taf_trigger": false,
      "metar": "METAR LRTM 021300Z 23006KT CAVOK 10/01 Q1025",
      "taf": "TAF LRTM 021100Z 0212/0221 VRB04KT CAVOK"
    },
    {
      "icao": "LRTR",
      "alert": "OK",
      "vis_m": 9999,
      "fzfg": false,
      "metar_trigger": false,
      "taf_trigger": false,
      "metar": "METAR LRTR 021300Z 34003KT CAVOK 12/03 Q1025 NOSIG",
      "taf": "TAF LRTR 021100Z 0212/0312 VRB04KT CAVOK"
    },
    {
      "icao": "LTAC",
      "alert": "OK",
      "vis_m": 9999,
      "fzfg": false,
      "metar_trigger": false,
      "taf_trigger": false,
      "metar": "METAR LTAC 021250Z 17008KT 070V230 9999 SCT040 12/M03 Q1023 NOSIG RMK RWY21C 12004KT 050V150 RWY03L VRB04KT RWY21R 09006KT 040V140 RWY03R VRB07KT RWY21L 08004KT 050V120",
      "taf": "TAF LTAC 021040Z 0212/0312 VRB02KT 9999 SCT040"
    },
    {
      "icao": "LTFM",
      "alert": "OK",
      "vis_m": 9999,
      "fzfg": false,
      "metar_trigger": false,
      "taf_trigger": false,
      "metar": "METAR LTFM 021250Z 07008KT 020V100 CAVOK 10/05 Q1025 NOSIG RMK RWY17L 08009KT RWY34L 06007KT RWY16R 08008KT RWY36 07009KT 020V090 RWY18 08009KT",
      "taf": "TAF LTFM 021040Z 0212/0318 06012KT CAVOK"
    },
    {
      "icao": "LUKK",
      "alert": "OK",
      "vis_m": 9999,
      "fzfg": false,
      "metar_trigger": false,
      "taf_trigger": false,
      "metar": "METAR LUKK 021300Z 36005KT 330V050 CAVOK 11/03 Q1024 NOSIG",
      "taf": "TAF LUKK 021106Z 0212/0312 34009KT 9999 SCT030"
    },
    {
      "icao": "LWOH",
      "alert": "OK",
      "vis_m": 9999,
      "fzfg": false,
      "metar_trigger": false,
      "taf_trigger": false,
      "metar": "METAR LWOH 021250Z 17003KT 130V210 9999 FEW040 11/05 Q1025",
      "taf": "TAF LWOH 021120Z 0212/0312 16008KT 9999 FEW040"
    },
    {
      "icao": "LWSK",
      "alert": "OK",
      "vis_m": null,
      "fzfg": false,
      "metar_trigger": false,
      "taf_trigger": false,
      "metar": "",
      "taf": "TAF LWSK 021120Z 0212/0312 VRB02KT CAVOK"
    },
    {
      "icao": "LYBE",
      "alert": "OK",
      "vis_m": 9999,
      "fzfg": false,
      "metar_trigger": false,
      "taf_trigger": false,
      "metar": "METAR LYBE 021300Z 27004KT 230V310 CAVOK 11/04 Q1025 NOSIG",
      "taf": "TAF LYBE 021100Z 0212/0312 36005KT CAVOK TX15/0312Z TN02/0305Z"
    },
    {
      "icao": "LYNI",
      "alert": "OK",
      "vis_m": 9999,
      "fzfg": false,
      "metar_trigger": false,
      "taf_trigger": false,
      "metar": "METAR LYNI 021300Z 31003KT 280V340 CAVOK 15/04 Q1024 NOSIG",
      "taf": "TAF LYNI 021100Z 0212/0312 32005KT CAVOK TX17/0213Z TN04/0305Z"
    },
    {
      "icao": "LYPG",
      "alert": "OK",
      "vis_m": 9999,
      "fzfg": false,
      "metar_trigger": false,
      "taf_trigger": false,
      "metar": "METAR LYPG 021300Z 16005KT 130V200 9999 FEW040 15/08 Q1026 NOSIG",
      "taf": "TAF LYPG 021100Z 0212/0312 16006KT 9999 FEW040 TX17/0312Z TN06/0306Z"
    },
    {
      "icao": "LZIB",
      "alert": "OK",
      "vis_m": 9999,
      "fzfg": false,
      "metar_trigger": false,
      "taf_trigger": false,
      "metar": "METAR LZIB 021300Z 11003KT 080V160 9999 FEW035 14/04 Q1025 NOSIG",
      "taf": "TAF LZIB 021115Z 0212/0312 VRB02KT CAVOK"
    },
    {
      "icao": "LZKZ",
      "alert": "OK",
      "vis_m": 9999,
      "fzfg": false,
      "metar_trigger": false,
      "taf_trigger": false,
      "metar": "METAR LZKZ 021300Z 05006KT 9999 FEW044 12/03 Q1025 NOSIG",
      "taf": "TAF LZKZ 021115Z 0212/0312 01006KT CAVOK"
    },
    {
      "icao": "LZTT",
      "alert": "OK",
      "vis_m": 9999,
      "fzfg": false,
      "metar_trigger": false,
      "taf_trigger": false,
      "metar": "METAR LZTT 021300Z 06007KT 9999 FEW016 BKN023 07/02 Q1025 NOSIG",
      "taf": "TAF LZTT 021115Z 0212/0312 VRB02KT 9999 BKN011"
    },
    {
      "icao": "OEJN",
      "alert": "OK",
      "vis_m": 9999,
      "fzfg": false,
      "metar_trigger": false,
      "taf_trigger": false,
      "metar": "METAR OEJN 021300Z 34014KT CAVOK 27/09 Q1011 NOSIG",
      "taf": "TAF OEJN 021100Z 0212/0318 34013KT 9999 FEW040"
    },
    {
      "icao": "OEMA",
      "alert": "OK",
      "vis_m": 9999,
      "fzfg": false,
      "metar_trigger": false,
      "taf_trigger": false,
      "metar": "METAR OEMA 021300Z 23007KT CAVOK 26/M15 Q1012 NOSIG",
      "taf": "TAF OEMA 021100Z 0212/0318 27012KT 9999 FEW045"
    },
    {
      "icao": "OJAI",
      "alert": "OK",
      "vis_m": 5000,
      "fzfg": false,
      "metar_trigger": false,
      "taf_trigger": false,
      "metar": "METAR OJAI 021200Z 08004KT 5000 HZ NSC 15/M05 Q1019 NOSIG",
      "taf": "TAF OJAI 021100Z 0212/0318 03010KT 5000 HZ FEW030"
    },
    {
      "icao": "OMAA",
      "alert": "OK",
      "vis_m": 9999,
      "fzfg": false,
      "metar_trigger": false,
      "taf_trigger": false,
      "metar": "METAR OMAA 021300Z 34008KT CAVOK 32/12 Q1009 NOSIG",
      "taf": "TAF OMAA 021100Z 0212/0318 32011KT 8000 NSC"
    },
    {
      "icao": "OMDB",
      "alert": "OK",
      "vis_m": 9999,
      "fzfg": false,
      "metar_trigger": false,
      "taf_trigger": false,
      "metar": "METAR OMDB 021300Z 29009KT 260V320 CAVOK 32/07 Q1010 NOSIG",
      "taf": "TAF OMDB 021100Z 0212/0318 30013KT 8000 NSC"
    },
    {
      "icao": "UAAA",
      "alert": "OK",
      "vis_m": 2700,
      "fzfg": false,
      "metar_trigger": false,
      "taf_trigger": false,
      "metar": "METAR UAAA 021300Z 34002MPS 300V020 2700 -SHRA BR BKN044CB OVC100 00/M01 Q1019 NOSIG",
      "taf": "TAF UAAA 021108Z 0212/0312 20003MPS 3100 -SHRA BR BKN020CB OVC050 TX04/0310Z TNM01/0303Z"
    },
    {
      "icao": "UBBB",
      "alert": "OK",
      "vis_m": 9999,
      "fzfg": false,
      "metar_trigger": false,
      "taf_trigger": false,
      "metar": "METAR UBBB 021300Z 17008KT 140V200 CAVOK 08/01 Q1024 NOSIG",
      "taf": "TAF UBBB 021050Z 0212/0312 22005KT 9999 SCT030 TX09/0212Z TN02/0301Z"
    },
    {
      "icao": "UDSG",
      "alert": "OK",
      "vis_m": 9999,
      "fzfg": false,
      "metar_trigger": false,
      "taf_trigger": false,
      "metar": "METAR UDSG 021300Z 16001KT 9999 NSC 01/M07 Q1021 NOSIG",
      "taf": "TAF UDSG 021100Z 0212/0312 VRB06KT 9999 SCT040"
    },
    {
      "icao": "UDYZ",
      "alert": "OK",
      "vis_m": 9999,
      "fzfg": false,
      "metar_trigger": false,
      "taf_trigger": false,
      "metar": "METAR UDYZ 021300Z 29003KT 240V350 9999 SCT043CB 07/M07 Q1020 NOSIG",
      "taf": "TAF UDYZ 021100Z 0212/0312 02006KT 9999 FEW040"
    },
    {
      "icao": "UGKO",
      "alert": "OK",
      "vis_m": 9999,
      "fzfg": false,
      "metar_trigger": false,
      "taf_trigger": false,
      "metar": "METAR UGKO 021300Z 28010KT 9999 SCT031 BKN056 07/04 Q1026 NOSIG",
      "taf": "TAF UGKO 021100Z 0212/0312 28007KT 9999 SCT025 BKN050 TX12/0311Z TN02/0304Z"
    }
  ]
}