{
  "ts_utc": "2026-01-28T00:50:31Z",
  "threshold_m": 150,
  "source": "stations_override.txt (ICAO list) + aviationweather.gov (METAR/TAF raw)",
  "station_count": 159,
  "stations": [
    {
      "icao": "BIKF",
      "alert": "OK",
      "vis_m": 9999,
      "fzfg": false,
      "metar_trigger": false,
      "taf_trigger": false,
      "metar": "METAR BIKF 280030Z 08014KT CAVOK 04/M04 Q1000",
      "taf": "TAF BIKF 272251Z 2800/2900 05012KT CAVOK TX04/2815Z TN02/2807Z"
    },
    {
      "icao": "BKPR",
      "alert": "OK",
      "vis_m": 9999,
      "fzfg": false,
      "metar_trigger": false,
      "taf_trigger": false,
      "metar": "METAR BKPR 280030Z 26002KT CAVOK M02/M02 Q1007 TEMPO 1200 BCFG",
      "taf": "TAF BKPR 272330Z 2800/2824 17005KT CAVOK"
    },
    {
      "icao": "EBCI",
      "alert": "OK",
      "vis_m": 8000,
      "fzfg": false,
      "metar_trigger": false,
      "taf_trigger": false,
      "metar": "METAR EBCI 280020Z 19005KT 8000 SCT007 06/05 Q0993 TEMPO BKN007",
      "taf": ""
    },
    {
      "icao": "EDDB",
      "alert": "OK",
      "vis_m": 9999,
      "fzfg": false,
      "metar_trigger": false,
      "taf_trigger": false,
      "metar": "METAR EDDB 280020Z AUTO 09003KT 9999 OVC013 M01/M02 Q1001 TEMPO BKN015",
      "taf": "TAF EDDB 272300Z 2800/2824 11007KT 7000 SCT004 BKN015"
    },
    {
      "icao": "EDDH",
      "alert": "OK",
      "vis_m": 9999,
      "fzfg": false,
      "metar_trigger": false,
      "taf_trigger": false,
      "metar": "METAR EDDH 280020Z AUTO 09013KT 060V120 9999 OVC010 00/M02 Q1000 BECMG OVC008",
      "taf": ""
    },
    {
      "icao": "EDDK",
      "alert": "OK",
      "vis_m": 4500,
      "fzfg": false,
      "metar_trigger": false,
      "taf_trigger": false,
      "metar": "METAR EDDK 280020Z AUTO 11006KT 070V140 4500 -DZ BR FEW006 BKN019 BKN031 04/03 Q0993 REDZ BECMG 9999",
      "taf": "TAF EDDK 272300Z 2800/2906 10004KT 9999 OVC020"
    },
    {
      "icao": "EDDN",
      "alert": "OK",
      "vis_m": 7000,
      "fzfg": false,
      "metar_trigger": false,
      "taf_trigger": false,
      "metar": "METAR EDDN 280020Z AUTO 12006KT 7000 -RA FEW024 01/00 Q0995",
      "taf": "TAF EDDN 272300Z 2800/2824 09006KT 9999 BKN030"
    },
    {
      "icao": "EDDS",
      "alert": "OK",
      "vis_m": 8000,
      "fzfg": false,
      "metar_trigger": false,
      "taf_trigger": false,
      "metar": "METAR EDDS 280020Z AUTO VRB02KT 8000 -RA BKN038 02/01 Q0993",
      "taf": "TAF EDDS 272300Z 2800/2824 34004KT 9000 SCT015 BKN030"
    },
    {
      "icao": "EDFH",
      "alert": "OK",
      "vis_m": 700,
      "fzfg": false,
      "metar_trigger": false,
      "taf_trigger": false,
      "metar": "METAR EDFH 280020Z 15006KT 0700 R21/0900U FG BKN002 02/01 Q0993",
      "taf": "TAF EDFH 272300Z 2800/2824 14011KT 2000 -RADZ OVC002"
    },
    {
      "icao": "EDJA",
      "alert": "OK",
      "vis_m": 9999,
      "fzfg": false,
      "metar_trigger": false,
      "taf_trigger": false,
      "metar": "METAR EDJA 280020Z AUTO VRB02KT 9999 // OVC045/// 01/M01 Q0993",
      "taf": "TAF EDJA 271700Z 2718/2803 VRB03KT CAVOK"
    },
    {
      "icao": "EDLW",
      "alert": "OK",
      "vis_m": 7000,
      "fzfg": false,
      "metar_trigger": false,
      "taf_trigger": false,
      "metar": "METAR EDLW 280020Z AUTO 09003KT 060V120 7000 // OVC019/// 03/03 Q0993",
      "taf": "TAF EDLW 271700Z 2718/2818 07007KT CAVOK"
    },
    {
      "icao": "EDNY",
      "alert": "OK",
      "vis_m": 9999,
      "fzfg": false,
      "metar_trigger": false,
      "taf_trigger": false,
      "metar": "METAR EDNY 280020Z AUTO VRB02KT 9999 // OVC059/// 02/01 Q0993",
      "taf": "TAF EDNY 271700Z 2718/2803 VRB03KT CAVOK"
    },
    {
      "icao": "EDSB",
      "alert": "OK",
      "vis_m": 2600,
      "fzfg": false,
      "metar_trigger": false,
      "taf_trigger": false,
      "metar": "METAR EDSB 280020Z AUTO VRB02KT 2600 // SCT028/// BKN034/// OVC039/// 04/04 Q0993",
      "taf": "TAF EDSB 272300Z 2800/2824 30004KT 9000 SCT007 BKN015"
    },
    {
      "icao": "EETN",
      "alert": "OK",
      "vis_m": 9999,
      "fzfg": false,
      "metar_trigger": false,
      "taf_trigger": false,
      "metar": "METAR EETN 280020Z 09011KT 9999 OVC008 M08/M10 Q1014",
      "taf": "TAF EETN 272330Z 2800/2824 08010KT 9999 OVC008"
    },
    {
      "icao": "EFTU",
      "alert": "OK",
      "vis_m": 9999,
      "fzfg": false,
      "metar_trigger": false,
      "taf_trigger": false,
      "metar": "METAR EFTU 280020Z AUTO 07006KT 9999 OVC004 M11/M12 Q1015",
      "taf": "TAF EFTU 272326Z 2800/2824 08008KT 9999 OVC003"
    },
    {
      "icao": "EGBB",
      "alert": "OK",
      "vis_m": 9999,
      "fzfg": false,
      "metar_trigger": false,
      "taf_trigger": false,
      "metar": "METAR EGBB 280020Z 17004KT CAVOK 04/02 Q0988",
      "taf": "TAF EGBB 272257Z 2800/2824 18005KT 9999 FEW025"
    },
    {
      "icao": "EGGP",
      "alert": "OK",
      "vis_m": 9999,
      "fzfg": false,
      "metar_trigger": false,
      "taf_trigger": false,
      "metar": "METAR EGGP 280020Z 16007KT 130V190 9999 FEW038 05/02 Q0986",
      "taf": "TAF EGGP 272253Z 2800/2824 17008KT 9999 SCT030"
    },
    {
      "icao": "EGGW",
      "alert": "OK",
      "vis_m": 9999,
      "fzfg": false,
      "metar_trigger": false,
      "taf_trigger": false,
      "metar": "METAR EGGW 280020Z AUTO 21004KT 9999 NCD 03/02 Q0989",
      "taf": "TAF EGGW 272255Z 2800/2824 19010KT 9999 FEW020"
    },
    {
      "icao": "EGKK",
      "alert": "OK",
      "vis_m": 9999,
      "fzfg": false,
      "metar_trigger": false,
      "taf_trigger": false,
      "metar": "METAR EGKK 280020Z 21003KT CAVOK 05/04 Q0990",
      "taf": "TAF EGKK 272254Z 2800/2906 20010KT 9999 FEW030"
    },
    {
      "icao": "EGNM",
      "alert": "OK",
      "vis_m": null,
      "fzfg": false,
      "metar_trigger": false,
      "taf_trigger": false,
      "metar": "",
      "taf": ""
    },
    {
      "icao": "EGPD",
      "alert": "OK",
      "vis_m": 9999,
      "fzfg": false,
      "metar_trigger": false,
      "taf_trigger": false,
      "metar": "METAR EGPD 280020Z AUTO 13020G30KT 9999 -RA BKN010/// OVC031/// //////TCU 05/03 Q0990 RERA TEMPO 4000 RA BKN008",
      "taf": "TAF EGPD 272253Z 2800/2824 12018G35KT 9999 SCT015 BKN025"
    },
    {
      "icao": "EGPF",
      "alert": "OK",
      "vis_m": 9999,
      "fzfg": false,
      "metar_trigger": false,
      "taf_trigger": false,
      "metar": "METAR EGPF 280020Z AUTO 08014KT 9999 -RA OVC022/// //////TCU 06/04 Q0982",
      "taf": "TAF EGPF 272303Z 2800/2824 07017KT 9999 SCT035"
    },
    {
      "icao": "EHBK",
      "alert": "OK",
      "vis_m": 9999,
      "fzfg": false,
      "metar_trigger": false,
      "taf_trigger": false,
      "metar": "METAR EHBK 280025Z AUTO 19003KT 9999 OVC011 06/05 Q0993",
      "taf": "TAF EHBK 272320Z 2800/2906 20006KT 9999 BKN030"
    },
    {
      "icao": "EHEH",
      "alert": "OK",
      "vis_m": null,
      "fzfg": false,
      "metar_trigger": false,
      "taf_trigger": false,
      "metar": "",
      "taf": "TAF EHEH 271637Z 2718/2900 12006KT 7000 -RA SCT011 BKN015"
    },
    {
      "icao": "EKBI",
      "alert": "OK",
      "vis_m": 9999,
      "fzfg": false,
      "metar_trigger": false,
      "taf_trigger": false,
      "metar": "METAR EKBI 280020Z AUTO 08017KT 9999 -SN OVC011/// M01/M03 Q1003",
      "taf": "TAF EKBI 272327Z 2800/2824 08014KT 9999 BKN012"
    },
    {
      "icao": "EKCH",
      "alert": "OK",
      "vis_m": 9999,
      "fzfg": false,
      "metar_trigger": false,
      "taf_trigger": false,
      "metar": "METAR EKCH 280020Z 06015KT 9999 OVC011 M01/M03 Q1005 NOSIG",
      "taf": "TAF EKCH 272327Z 2800/2824 05015KT 9999 OVC012"
    },
    {
      "icao": "ENAL",
      "alert": "OK",
      "vis_m": 9999,
      "fzfg": false,
      "metar_trigger": false,
      "taf_trigger": false,
      "metar": "METAR ENAL 280020Z AUTO 10007KT 060V140 9999 NCD M07/M10 Q1005",
      "taf": "TAF ENAL 272300Z 2800/2809 07008KT CAVOK"
    },
    {
      "icao": "ENBR",
      "alert": "OK",
      "vis_m": 9999,
      "fzfg": false,
      "metar_trigger": false,
      "taf_trigger": false,
      "metar": "METAR ENBR 280020Z AUTO 00000KT 9999 NCD M07/M09 Q1005 RMK WIND 1200FT 32004KT",
      "taf": "TAF ENBR 272300Z 2800/2824 VRB03KT CAVOK"
    },
    {
      "icao": "ENGM",
      "alert": "OK",
      "vis_m": 9999,
      "fzfg": false,
      "metar_trigger": false,
      "taf_trigger": false,
      "metar": "METAR ENGM 280020Z 36007KT 9999 -SN OVC017 M10/M13 Q1013",
      "taf": "TAF ENGM 272300Z 2800/2824 02005KT 9999 -SN BKN015"
    },
    {
      "icao": "ENHD",
      "alert": "OK",
      "vis_m": 9999,
      "fzfg": false,
      "metar_trigger": false,
      "taf_trigger": false,
      "metar": "METAR ENHD 280020Z AUTO 11003KT 9999 NCD M06/M07 Q1005",
      "taf": "TAF ENHD 271400Z 2715/2723 VRB03KT CAVOK"
    },
    {
      "icao": "ENTC",
      "alert": "OK",
      "vis_m": 9999,
      "fzfg": false,
      "metar_trigger": false,
      "taf_trigger": false,
      "metar": "METAR ENTC 280020Z 23012KT CAVOK M06/M09 Q1014 RMK WIND 2600FT 19009KT",
      "taf": "TAF ENTC 272300Z 2800/2824 18008KT 9999 FEW025"
    },
    {
      "icao": "ENTO",
      "alert": "OK",
      "vis_m": 9999,
      "fzfg": false,
      "metar_trigger": false,
      "taf_trigger": false,
      "metar": "METAR ENTO 280020Z AUTO 03009KT 9999 -SN OVC020/// M06/M10 Q1012",
      "taf": "TAF ENTO 272300Z 2800/2824 02008KT 9999 -SN BKN020"
    },
    {
      "icao": "ENVA",
      "alert": "OK",
      "vis_m": 9999,
      "fzfg": false,
      "metar_trigger": false,
      "taf_trigger": false,
      "metar": "METAR ENVA 280020Z 12008KT CAVOK M13/M16 Q1011 RMK WIND 670FT 10011KT",
      "taf": "TAF ENVA 272300Z 2800/2824 12008KT CAVOK"
    },
    {
      "icao": "ENZV",
      "alert": "OK",
      "vis_m": 9999,
      "fzfg": false,
      "metar_trigger": false,
      "taf_trigger": false,
      "metar": "METAR ENZV 280020Z AUTO 11004KT 9999 NCD M04/M13 Q1006",
      "taf": "TAF ENZV 272300Z 2800/2824 11008KT CAVOK"
    },
    {
      "icao": "EPGD",
      "alert": "OK",
      "vis_m": 2900,
      "fzfg": false,
      "metar_trigger": false,
      "taf_trigger": false,
      "metar": "METAR EPGD 280030Z 01006KT 2900 -SN BR OVC002 M02/M02 Q1001",
      "taf": "TAF EPGD 272330Z 2800/2824 03006KT 1800 -SN BR OVC002"
    },
    {
      "icao": "EPKK",
      "alert": "OK",
      "vis_m": 5000,
      "fzfg": false,
      "metar_trigger": false,
      "taf_trigger": false,
      "metar": "METAR EPKK 280030Z 08002KT 5000 BR BKN037 M00/M02 Q0999",
      "taf": "TAF EPKK 272330Z 2800/2824 VRB02KT 6000 BKN040"
    },
    {
      "icao": "EPKT",
      "alert": "OK",
      "vis_m": 5000,
      "fzfg": false,
      "metar_trigger": false,
      "taf_trigger": false,
      "metar": "METAR EPKT 280030Z 07002KT 5000 BR OVC032 M00/M01 Q0999",
      "taf": "TAF EPKT 272330Z 2800/2824 VRB02KT 9999 OVC026"
    },
    {
      "icao": "EPLB",
      "alert": "OK",
      "vis_m": 200,
      "fzfg": true,
      "metar_trigger": false,
      "taf_trigger": false,
      "metar": "METAR EPLB 280030Z 09002KT 0200 R25/0275D FZFG FEW003 M05/M05 Q1001",
      "taf": "TAF EPLB 272330Z 2800/2824 VRB03KT 1200 BR OVC040"
    },
    {
      "icao": "EPMO",
      "alert": "OK",
      "vis_m": 1400,
      "fzfg": false,
      "metar_trigger": false,
      "taf_trigger": false,
      "metar": "METAR EPMO 280030Z VRB01KT 1400 R08/1300D -SN BR FEW008 BKN023 M01/M01 Q1001",
      "taf": "TAF EPMO 272330Z 2800/2824 VRB01KT 2000 -SN BR BKN035"
    },
    {
      "icao": "EPPO",
      "alert": "OK",
      "vis_m": 2900,
      "fzfg": false,
      "metar_trigger": false,
      "taf_trigger": false,
      "metar": "METAR EPPO 280030Z 33003KT 2900 -FZDZ BR OVC002 M01/M02 Q1001",
      "taf": ""
    },
    {
      "icao": "EPRA",
      "alert": "OK",
      "vis_m": 3500,
      "fzfg": false,
      "metar_trigger": false,
      "taf_trigger": false,
      "metar": "METAR EPRA 280030Z 10003KT 3500 -SN BR OVC033 M01/M01 Q1000",
      "taf": "TAF EPRA 272330Z 2800/2809 07005KT 3000 -SN BR OVC030"
    },
    {
      "icao": "EPRZ",
      "alert": "OK",
      "vis_m": 2500,
      "fzfg": false,
      "metar_trigger": false,
      "taf_trigger": false,
      "metar": "METAR EPRZ 280030Z 10006KT 2500 BR NSC M03/M03 Q1000",
      "taf": "TAF EPRZ 272330Z 2800/2824 27006KT 2000 BR NSC"
    },
    {
      "icao": "EPSC",
      "alert": "OK",
      "vis_m": 6000,
      "fzfg": false,
      "metar_trigger": false,
      "taf_trigger": false,
      "metar": "METAR EPSC 280030Z 06004KT 6000 BKN013 M01/M02 Q1002",
      "taf": "TAF EPSC 272330Z 2800/2824 04003KT 6000 BKN015"
    },
    {
      "icao": "EPSY",
      "alert": "OK",
      "vis_m": 1200,
      "fzfg": false,
      "metar_trigger": false,
      "taf_trigger": false,
      "metar": "METAR EPSY 280030Z 35001KT 1200 R01/1200D -SN BR VV001 M00/M00 Q1001",
      "taf": "TAF EPSY 272330Z 2800/2809 VRB02KT 1500 BR BKN003 OVC005"
    },
    {
      "icao": "EPWA",
      "alert": "OK",
      "vis_m": 2600,
      "fzfg": false,
      "metar_trigger": false,
      "taf_trigger": false,
      "metar": "METAR EPWA 280030Z VRB02KT 2600 -SN BR BKN007 M00/M01 Q1001 BECMG 1400 BR",
      "taf": "TAF EPWA 272330Z 2800/2824 VRB02KT 4000 BR BKN030"
    },
    {
      "icao": "EPWR",
      "alert": "OK",
      "vis_m": 4300,
      "fzfg": false,
      "metar_trigger": false,
      "taf_trigger": false,
      "metar": "METAR EPWR 280030Z 05003KT 4300 BR SCT003 BKN020 BKN036 00/M00 Q1000",
      "taf": "TAF EPWR 272330Z 2800/2824 03005KT 4500 BR BKN005 BKN011"
    },
    {
      "icao": "ESGG",
      "alert": "OK",
      "vis_m": 9999,
      "fzfg": false,
      "metar_trigger": false,
      "taf_trigger": false,
      "metar": "METAR ESGG 280020Z 07010KT 9999 BKN021 M04/M09 Q1008",
      "taf": "TAF ESGG 272330Z 2800/2824 07009KT 9999 BKN020"
    },
    {
      "icao": "ESKN",
      "alert": "OK",
      "vis_m": 9999,
      "fzfg": false,
      "metar_trigger": false,
      "taf_trigger": false,
      "metar": "METAR ESKN 280020Z 03010KT 9999 BKN028 M04/M08 Q1011",
      "taf": "TAF ESKN 272330Z 2800/2824 03008KT 9999 BKN030"
    },
    {
      "icao": "ESMS",
      "alert": "OK",
      "vis_m": 9999,
      "fzfg": false,
      "metar_trigger": false,
      "taf_trigger": false,
      "metar": "METAR ESMS 280020Z 07014KT 9999 OVC009 M01/M02 Q1004",
      "taf": "TAF ESMS 272327Z 2800/2824 07012KT 9999 OVC009"
    },
    {
      "icao": "ESSA",
      "alert": "OK",
      "vis_m": 9999,
      "fzfg": false,
      "metar_trigger": false,
      "taf_trigger": false,
      "metar": "METAR ESSA 280020Z 02007KT 9999 SCT019 M09/M10 Q1013 NOSIG",
      "taf": "TAF ESSA 272330Z 2800/2824 03006KT 9999 SCT017"
    },
    {
      "icao": "EYKA",
      "alert": "OK",
      "vis_m": 6000,
      "fzfg": false,
      "metar_trigger": false,
      "taf_trigger": false,
      "metar": "METAR EYKA 280020Z AUTO 01004KT 340V040 6000 -SN OVC015/// M05/M05 Q1002",
      "taf": "TAF EYKA 272300Z 2800/2824 VRB04KT 5000 SN BR OVC015"
    },
    {
      "icao": "EYPA",
      "alert": "OK",
      "vis_m": 9999,
      "fzfg": false,
      "metar_trigger": false,
      "taf_trigger": false,
      "metar": "METAR EYPA 280020Z AUTO 07009KT 9999 OVC033/// M07/M10 Q1004",
      "taf": "TAF EYPA 272300Z 2800/2824 07010KT 8000 OVC020"
    },
    {
      "icao": "EYVI",
      "alert": "OK",
      "vis_m": 2400,
      "fzfg": false,
      "metar_trigger": false,
      "taf_trigger": false,
      "metar": "METAR EYVI 280020Z 05006KT 2400 SN BR OVC029 M04/M05 Q1001 NOSIG",
      "taf": "TAF EYVI 272302Z 2800/2824 VRB04KT 5000 SN BR SCT005 OVC015"
    },
    {
      "icao": "GCFV",
      "alert": "OK",
      "vis_m": 9999,
      "fzfg": false,
      "metar_trigger": false,
      "taf_trigger": false,
      "metar": "METAR GCFV 280030Z AUTO 22005KT 190V250 9999 BKN019 18/13 Q1022",
      "taf": "TAF GCFV 272000Z 2721/2821 28009KT 9999 FEW030 TX22/2814Z TN14/2806Z"
    },
    {
      "icao": "GCLP",
      "alert": "OK",
      "vis_m": 9999,
      "fzfg": false,
      "metar_trigger": false,
      "taf_trigger": false,
      "metar": "METAR GCLP 280030Z 25004KT 9999 FEW030 16/12 Q1022 NOSIG",
      "taf": "TAF GCLP 272000Z 2721/2821 VRB05KT 9999 FEW030 TX22/2814Z TN15/2806Z"
    },
    {
      "icao": "GCTS",
      "alert": "OK",
      "vis_m": 9999,
      "fzfg": false,
      "metar_trigger": false,
      "taf_trigger": false,
      "metar": "METAR GCTS 280030Z 05004KT 9999 FEW030 17/11 Q1023 NOSIG",
      "taf": ""
    },
    {
      "icao": "GMAD",
      "alert": "OK",
      "vis_m": 8000,
      "fzfg": false,
      "metar_trigger": false,
      "taf_trigger": false,
      "metar": "METAR GMAD 280030Z 00000KT 8000 FEW020 BKN083 Q1021 NOSIG",
      "taf": "TAF GMAD 272300Z 2800/2906 22005KT 8000 SCT020 BKN080"
    },
    {
      "icao": "GMMN",
      "alert": "OK",
      "vis_m": 9999,
      "fzfg": false,
      "metar_trigger": false,
      "taf_trigger": false,
      "metar": "METAR GMMN 280030Z 22016KT 9999 SCT010 SCT020 13/12 Q1016 NOSIG",
      "taf": "TAF GMMN 272300Z 2800/2906 22014KT 9999 BKN010 BKN020"
    },
    {
      "icao": "GMMX",
      "alert": "OK",
      "vis_m": 8000,
      "fzfg": false,
      "metar_trigger": false,
      "taf_trigger": false,
      "metar": "METAR GMMX 280030Z 29003KT 260V340 8000 BKN020 13/11 Q1019 NOSIG",
      "taf": "TAF GMMX 271700Z 2718/2824 06006KT 8000 SCT023 SCT080"
    },
    {
      "icao": "HEGN",
      "alert": "OK",
      "vis_m": 9999,
      "fzfg": false,
      "metar_trigger": false,
      "taf_trigger": false,
      "metar": "METAR HEGN 280000Z 30012KT CAVOK 17/M12 Q1016 NOSIG",
      "taf": "TAF HEGN 272300Z 2800/2906 28008KT CAVOK"
    },
    {
      "icao": "HEMA",
      "alert": "OK",
      "vis_m": 9999,
      "fzfg": false,
      "metar_trigger": false,
      "taf_trigger": false,
      "metar": "METAR HEMA 280000Z 25009KT CAVOK 17/M07 Q1016 NOSIG",
      "taf": "TAF HEMA 272300Z 2800/2906 24008KT CAVOK"
    },
    {
      "icao": "HESH",
      "alert": "OK",
      "vis_m": 9999,
      "fzfg": false,
      "metar_trigger": false,
      "taf_trigger": false,
      "metar": "METAR HESH 280000Z 27014KT CAVOK 20/M07 Q1015 NOSIG",
      "taf": "TAF HESH 272300Z 2800/2906 29008KT CAVOK"
    },
    {
      "icao": "HESX",
      "alert": "OK",
      "vis_m": 6000,
      "fzfg": false,
      "metar_trigger": false,
      "taf_trigger": false,
      "metar": "METAR HESX 280000Z 23009KT 6000 NSC 13/00 Q1014 NOSIG",
      "taf": "TAF HESX 272300Z 2800/2906 24009KT 6000 SCT030"
    },
    {
      "icao": "LATI",
      "alert": "OK",
      "vis_m": null,
      "fzfg": false,
      "metar_trigger": false,
      "taf_trigger": false,
      "metar": "",
      "taf": "TAF LATI 272300Z 2800/2824 VRB05KT CAVOK TX15/2812Z TN04/2805Z"
    },
    {
      "icao": "LBPD",
      "alert": "OK",
      "vis_m": 9999,
      "fzfg": false,
      "metar_trigger": false,
      "taf_trigger": false,
      "metar": "METAR LBPD 280030Z AUTO 29010KT 9999 NCD 06/01 Q1006",
      "taf": "TAF LBPD 272300Z 2800/2824 28010KT 9999 BKN040"
    },
    {
      "icao": "LBSF",
      "alert": "OK",
      "vis_m": 3800,
      "fzfg": false,
      "metar_trigger": false,
      "taf_trigger": false,
      "metar": "METAR LBSF 280030Z AUTO 25003KT 3800 BR NCD M01/M01 Q1007 TEMPO 1500 BR",
      "taf": "TAF LBSF 272300Z 2800/2824 VRB04KT 9999 SCT015 BKN030"
    },
    {
      "icao": "LBWN",
      "alert": "OK",
      "vis_m": 9999,
      "fzfg": false,
      "metar_trigger": false,
      "taf_trigger": false,
      "metar": "METAR LBWN 280030Z AUTO 25004KT 180V280 9999 BKN012/// 04/04 Q1006 NOSIG",
      "taf": "TAF LBWN 272300Z 2800/2824 27010KT 9999 SCT008 BKN015"
    },
    {
      "icao": "LCLK",
      "alert": "OK",
      "vis_m": 8000,
      "fzfg": false,
      "metar_trigger": false,
      "taf_trigger": false,
      "metar": "METAR LCLK 280030Z 35005KT 8000 -RA FEW030 BKN050 12/10 Q1011 NOSIG",
      "taf": "TAF LCLK 272330Z 2800/2900 32007KT 9999 FEW020 SCT040"
    },
    {
      "icao": "LCPH",
      "alert": "OK",
      "vis_m": 6000,
      "fzfg": false,
      "metar_trigger": false,
      "taf_trigger": false,
      "metar": "METAR LCPH 280030Z VRB02KT 6000 FEW025 BKN055 16/08 Q1010 NOSIG",
      "taf": "TAF LCPH 272330Z 2800/2900 19010KT 8000 FEW025 SCT050"
    },
    {
      "icao": "LEAL",
      "alert": "OK",
      "vis_m": 9999,
      "fzfg": false,
      "metar_trigger": false,
      "taf_trigger": false,
      "metar": "METAR LEAL 280030Z 26010G21KT 210V300 CAVOK 13/M00 Q1006 NOSIG",
      "taf": "TAF LEAL 272300Z 2800/2824 27015KT 9999 FEW040 TX20/2814Z TN10/2807Z"
    },
    {
      "icao": "LEBB",
      "alert": "OK",
      "vis_m": 9999,
      "fzfg": false,
      "metar_trigger": false,
      "taf_trigger": false,
      "metar": "METAR LEBB 280030Z AUTO 21004KT 140V280 9999 BKN047 BKN056 07/04 Q0999",
      "taf": "TAF LEBB 272300Z 2800/2824 22009KT 9999 FEW030 TX10/2816Z TN04/2806Z"
    },
    {
      "icao": "LEBL",
      "alert": "OK",
      "vis_m": 9999,
      "fzfg": false,
      "metar_trigger": false,
      "taf_trigger": false,
      "metar": "METAR LEBL 280030Z 23015KT 9999 FEW025 10/06 Q0995 NOSIG",
      "taf": "TAF LEBL 272300Z 2800/2824 26012KT 9999 FEW020 TX12/2812Z TN07/2806Z"
    },
    {
      "icao": "LECH",
      "alert": "OK",
      "vis_m": 9999,
      "fzfg": false,
      "metar_trigger": false,
      "taf_trigger": false,
      "metar": "METAR LECH 280030Z AUTO 28012G22KT 240V340 CAVOK 10/M04 Q0999",
      "taf": ""
    },
    {
      "icao": "LEMD",
      "alert": "OK",
      "vis_m": 9999,
      "fzfg": false,
      "metar_trigger": false,
      "taf_trigger": false,
      "metar": "METAR LEMD 280030Z 23013KT 9999 FEW015 04/02 Q1003 NOSIG",
      "taf": "TAF LEMD 272300Z 2800/2906 24010KT 9999 SCT020 TX10/2814Z TN03/2805Z"
    },
    {
      "icao": "LEMG",
      "alert": "OK",
      "vis_m": 9999,
      "fzfg": false,
      "metar_trigger": false,
      "taf_trigger": false,
      "metar": "METAR LEMG 280030Z 00000KT 9999 FEW089 09/07 Q1010 NOSIG",
      "taf": "TAF LEMG 272300Z 2800/2824 VRB02KT 9999 FEW025 TX19/2814Z TN14/2807Z"
    },
    {
      "icao": "LEVC",
      "alert": "OK",
      "vis_m": 9999,
      "fzfg": false,
      "metar_trigger": false,
      "taf_trigger": false,
      "metar": "METAR LEVC 280030Z 27022KT 240V300 CAVOK 11/02 Q1003 NOSIG",
      "taf": "TAF LEVC 272300Z 2800/2824 27018KT 9999 FEW040 TX18/2814Z TN08/2807Z"
    },
    {
      "icao": "LEXJ",
      "alert": "OK",
      "vis_m": 9999,
      "fzfg": false,
      "metar_trigger": false,
      "taf_trigger": false,
      "metar": "METAR LEXJ 280030Z AUTO 22004KT 9999 2700E -RA FEW045 BKN078 07/04 Q0998",
      "taf": "TAF LEXJ 272000Z 2721/2821 19009KT 9999 SCT040 TX11/2815Z TN05/2800Z"
    },
    {
      "icao": "LEZG",
      "alert": "OK",
      "vis_m": 9999,
      "fzfg": false,
      "metar_trigger": false,
      "taf_trigger": false,
      "metar": "METAR LEZG 280030Z 29011KT 260V330 CAVOK 07/01 Q0999 NOSIG",
      "taf": "TAF LEZG 272300Z 2800/2824 26010KT 9999 FEW040 TX08/2813Z TN03/2807Z"
    },
    {
      "icao": "LEZL",
      "alert": "OK",
      "vis_m": 9000,
      "fzfg": false,
      "metar_trigger": false,
      "taf_trigger": false,
      "metar": "METAR LEZL 280030Z AUTO 20006KT 160V240 9000 NSC 13/10 Q1008",
      "taf": "TAF LEZL 272000Z 2721/2821 21010KT 9999 FEW025 TX18/2815Z TN10/2807Z"
    },
    {
      "icao": "LFBD",
      "alert": "OK",
      "vis_m": 7000,
      "fzfg": false,
      "metar_trigger": false,
      "taf_trigger": false,
      "metar": "METAR LFBD 280030Z AUTO 20005KT 7000 -RA FEW029/// OVC040/// ///TCU 06/06 Q0996 TEMPO VRB15G25KT 2000 SHRA BKN010 BKN025CB",
      "taf": "TAF LFBD 272300Z 2800/2906 VRB03KT 9999 BKN030 TX11/2813Z TN05/2806Z"
    },
    {
      "icao": "LFLL",
      "alert": "OK",
      "vis_m": 9999,
      "fzfg": false,
      "metar_trigger": false,
      "taf_trigger": false,
      "metar": "METAR LFLL 280030Z 31005KT 9999 -RA FEW012 BKN023 06/05 Q0993 NOSIG",
      "taf": "TAF LFLL 272300Z 2800/2906 32009KT 8000 -RA FEW004 OVC020"
    },
    {
      "icao": "LFLS",
      "alert": "OK",
      "vis_m": 9999,
      "fzfg": false,
      "metar_trigger": false,
      "taf_trigger": false,
      "metar": "METAR LFLS 280030Z AUTO 36005KT 9999 -RA BKN017/// OVC024/// ///TCU 05/04 Q0992",
      "taf": ""
    },
    {
      "icao": "LFMN",
      "alert": "OK",
      "vis_m": 3000,
      "fzfg": false,
      "metar_trigger": false,
      "taf_trigger": false,
      "metar": "METAR LFMN 280030Z 08010KT 3000 +RA BR BKN006 OVC009 11/10 Q0993 TEMPO 2000 +RA BKN012 SCT020TCU",
      "taf": "TAF LFMN 272000Z 2721/2903 33010KT 9999 RA FEW014 BKN025"
    },
    {
      "icao": "LFOB",
      "alert": "OK",
      "vis_m": 9999,
      "fzfg": false,
      "metar_trigger": false,
      "taf_trigger": false,
      "metar": "METAR LFOB 280030Z AUTO VRB02KT CAVOK 03/03 Q0993 TEMPO 3000 BR OVC004",
      "taf": "TAF LFOB 272300Z 2800/2824 20005KT 9999 SCT030"
    },
    {
      "icao": "LFPO",
      "alert": "OK",
      "vis_m": 9999,
      "fzfg": false,
      "metar_trigger": false,
      "taf_trigger": false,
      "metar": "METAR LFPO 280030Z AUTO 20004KT 9999 4600 NSC 05/05 Q0994 TEMPO 4000 BR",
      "taf": "TAF LFPO 272300Z 2800/2906 24005KT CAVOK"
    },
    {
      "icao": "LFSB",
      "alert": "OK",
      "vis_m": 7000,
      "fzfg": false,
      "metar_trigger": false,
      "taf_trigger": false,
      "metar": "METAR LFSB 280030Z AUTO 17003KT 7000 -RA BKN039/// OVC052/// ///TCU 04/03 Q0993 TEMPO 4000 -RA BR BKN007",
      "taf": "TAF LFSB 272300Z 2800/2824 17004KT 9999 FEW010 BKN040"
    },
    {
      "icao": "LGAV",
      "alert": "OK",
      "vis_m": 9999,
      "fzfg": false,
      "metar_trigger": false,
      "taf_trigger": false,
      "metar": "METAR LGAV 280020Z 00000KT 9999 FEW030 10/06 Q1008 NOSIG",
      "taf": "TAF LGAV 272300Z 2800/2824 27010KT 9999 FEW018 SCT030"
    },
    {
      "icao": "LGTS",
      "alert": "OK",
      "vis_m": 9999,
      "fzfg": false,
      "metar_trigger": false,
      "taf_trigger": false,
      "metar": "METAR LGTS 280020Z 27007KT 9999 FEW025 09/04 Q1007 NOSIG",
      "taf": "TAF LGTS 272300Z 2800/2824 34005KT 9999 FEW020"
    },
    {
      "icao": "LHBP",
      "alert": "OK",
      "vis_m": 9999,
      "fzfg": false,
      "metar_trigger": false,
      "taf_trigger": false,
      "metar": "METAR LHBP 280030Z 13006KT CAVOK M00/M01 Q1001 NOSIG",
      "taf": "TAF LHBP 272315Z 2800/2824 11007KT CAVOK"
    },
    {
      "icao": "LHDC",
      "alert": "OK",
      "vis_m": 900,
      "fzfg": false,
      "metar_trigger": false,
      "taf_trigger": false,
      "metar": "METAR LHDC 280015Z AUTO 18009KT 0900 R04/1100D FG VV002 02/02 Q1004",
      "taf": ""
    },
    {
      "icao": "LIBD",
      "alert": "OK",
      "vis_m": 9999,
      "fzfg": false,
      "metar_trigger": false,
      "taf_trigger": false,
      "metar": "METAR LIBD 280020Z 19005KT CAVOK 07/03 Q1006",
      "taf": "TAF LIBD 272300Z 2800/2824 19006KT CAVOK"
    },
    {
      "icao": "LIBG",
      "alert": "OK",
      "vis_m": null,
      "fzfg": false,
      "metar_trigger": false,
      "taf_trigger": false,
      "metar": "",
      "taf": "TAF LIBG 271700Z 2718/2803 VRB05KT 9999 FEW040"
    },
    {
      "icao": "LIBP",
      "alert": "OK",
      "vis_m": 9999,
      "fzfg": false,
      "metar_trigger": false,
      "taf_trigger": false,
      "metar": "METAR LIBP 280020Z AUTO 06003KT 330V110 9999 FEW074/// OVC091/// 09/05 Q1003",
      "taf": "TAF LIBP 272300Z 2800/2824 23010KT CAVOK"
    },
    {
      "icao": "LIBR",
      "alert": "OK",
      "vis_m": 9999,
      "fzfg": false,
      "metar_trigger": false,
      "taf_trigger": false,
      "metar": "METAR LIBR 272350Z 18006KT CAVOK 08/06 Q1008",
      "taf": "TAF LIBR 272300Z 2800/2824 18006KT 9999 FEW030"
    },
    {
      "icao": "LICA",
      "alert": "OK",
      "vis_m": 9999,
      "fzfg": false,
      "metar_trigger": false,
      "taf_trigger": false,
      "metar": "METAR LICA 280020Z AUTO 04004KT 9999 FEW030/// 07/06 Q1009",
      "taf": "TAF LICA 272300Z 2800/2824 VRB05KT 9999 SCT040"
    },
    {
      "icao": "LICC",
      "alert": "OK",
      "vis_m": 9999,
      "fzfg": false,
      "metar_trigger": false,
      "taf_trigger": false,
      "metar": "METAR LICC 280020Z 24012KT CAVOK 09/06 Q1010",
      "taf": "TAF LICC 272300Z 2800/2824 26010KT 9999 SCT030"
    },
    {
      "icao": "LICJ",
      "alert": "OK",
      "vis_m": 9999,
      "fzfg": false,
      "metar_trigger": false,
      "taf_trigger": false,
      "metar": "METAR LICJ 280020Z 20015KT CAVOK 16/07 Q1006",
      "taf": "TAF LICJ 272300Z 2800/2824 18018G30KT 9999 SCT040"
    },
    {
      "icao": "LIMC",
      "alert": "OK",
      "vis_m": 9999,
      "fzfg": false,
      "metar_trigger": false,
      "taf_trigger": false,
      "metar": "METAR LIMC 280020Z 36008KT 9999 -RA BKN020 05/04 Q0999 NOSIG",
      "taf": "TAF LIMC 272300Z 2800/2906 VRB04KT 3000 RA BKN014"
    },
    {
      "icao": "LIME",
      "alert": "OK",
      "vis_m": 8000,
      "fzfg": false,
      "metar_trigger": false,
      "taf_trigger": false,
      "metar": "METAR LIME 280020Z 07004KT 8000 RA BKN025 05/05 Q0999 NOSIG",
      "taf": "TAF LIME 272300Z 2800/2824 VRB04KT 3000 RA BKN014"
    },
    {
      "icao": "LIMF",
      "alert": "OK",
      "vis_m": 7000,
      "fzfg": false,
      "metar_trigger": false,
      "taf_trigger": false,
      "metar": "METAR LIMF 280020Z 04002KT 7000 -RA OVC010 03/02 Q0999",
      "taf": "TAF LIMF 272300Z 2800/2824 VRB04KT 4000 RA BKN014"
    },
    {
      "icao": "LIMJ",
      "alert": "OK",
      "vis_m": 8000,
      "fzfg": false,
      "metar_trigger": false,
      "taf_trigger": false,
      "metar": "METAR LIMJ 280020Z 04017KT 8000 RA BKN025 06/04 Q0996",
      "taf": "TAF LIMJ 272300Z 2800/2824 02015KT 4000 RA BKN014"
    },
    {
      "icao": "LIPE",
      "alert": "OK",
      "vis_m": 7000,
      "fzfg": false,
      "metar_trigger": false,
      "taf_trigger": false,
      "metar": "METAR LIPE 280020Z 08007KT 7000 RA BKN030 08/06 Q0999",
      "taf": "TAF LIPE 272300Z 2800/2824 09010KT 8000 BKN050"
    },
    {
      "icao": "LIPH",
      "alert": "OK",
      "vis_m": 2200,
      "fzfg": false,
      "metar_trigger": false,
      "taf_trigger": false,
      "metar": "METAR LIPH 280020Z AUTO 04005KT 020V080 2200 -RA BR FEW003/// OVC022/// 06/06 Q1002",
      "taf": "TAF LIPH 272300Z 2800/2824 05010KT 4000 RA BKN015"
    },
    {
      "icao": "LIPQ",
      "alert": "OK",
      "vis_m": 2300,
      "fzfg": false,
      "metar_trigger": false,
      "taf_trigger": false,
      "metar": "METAR LIPQ 280020Z AUTO 06003KT 2300 -RA BR FEW011/// SCT027/// OVC030/// 06/06 Q1003",
      "taf": "TAF LIPQ 272300Z 2800/2824 05007KT 4000 RA BKN030"
    },
    {
      "icao": "LIPR",
      "alert": "OK",
      "vis_m": 9999,
      "fzfg": false,
      "metar_trigger": false,
      "taf_trigger": false,
      "metar": "METAR LIPR 280020Z AUTO 10009KT 9999 BKN035/// BKN110/// 09/06 Q1000",
      "taf": "TAF LIPR 272300Z 2800/2824 13012KT 9999 BKN050"
    },
    {
      "icao": "LIPX",
      "alert": "OK",
      "vis_m": 9999,
      "fzfg": false,
      "metar_trigger": false,
      "taf_trigger": false,
      "metar": "METAR LIPX 280020Z 06007KT 9999 -RA BKN030 06/05 Q1000",
      "taf": "TAF LIPX 272300Z 2800/2824 03007KT 3000 RA BKN014"
    },
    {
      "icao": "LIPY",
      "alert": "OK",
      "vis_m": 9999,
      "fzfg": false,
      "metar_trigger": false,
      "taf_trigger": false,
      "metar": "METAR LIPY 280020Z AUTO VRB02KT 9999 FEW075/// OVC089/// 10/07 Q1002",
      "taf": "TAF LIPY 272300Z 2800/2824 VRB05KT 9999 BKN050"
    },
    {
      "icao": "LIPZ",
      "alert": "OK",
      "vis_m": 2000,
      "fzfg": false,
      "metar_trigger": false,
      "taf_trigger": false,
      "metar": "METAR LIPZ 280020Z 04008KT 2000 -RA BR FEW019 BKN040 05/05 Q1002 NOSIG",
      "taf": "TAF LIPZ 272300Z 2800/2906 04012KT 5000 RA BKN030"
    },
    {
      "icao": "LIRF",
      "alert": "OK",
      "vis_m": 5000,
      "fzfg": false,
      "metar_trigger": false,
      "taf_trigger": false,
      "metar": "METAR LIRF 280020Z 13017G27KT 5000 RA BKN005TCU 11/10 Q1002 BECMG 15018G28KT",
      "taf": "TAF LIRF 272300Z 2800/2906 16020G30KT 9999 RA SCT010 SCT030"
    },
    {
      "icao": "LIRN",
      "alert": "OK",
      "vis_m": 9999,
      "fzfg": false,
      "metar_trigger": false,
      "taf_trigger": false,
      "metar": "METAR LIRN 280020Z 19008KT 140V230 9999 FEW040 13/07 Q1007 NOSIG",
      "taf": "TAF LIRN 272300Z 2800/2824 17012KT 9999 SCT030"
    },
    {
      "icao": "LIRP",
      "alert": "OK",
      "vis_m": 9999,
      "fzfg": false,
      "metar_trigger": false,
      "taf_trigger": false,
      "metar": "METAR LIRP 280015Z 11011KT 9999 SCT020 BKN030 11/10 Q0997 NOSIG",
      "taf": "TAF LIRP 272300Z 2800/2824 09008KT 8000 -RA SCT020 BKN035"
    },
    {
      "icao": "LIRZ",
      "alert": "OK",
      "vis_m": 9999,
      "fzfg": false,
      "metar_trigger": false,
      "taf_trigger": false,
      "metar": "METAR LIRZ 280020Z AUTO 14007KT 9999 BKN031/// BKN040/// 10/04 Q1001",
      "taf": "TAF LIRZ 272300Z 2800/2824 17014KT 7000 RA BKN025"
    },
    {
      "icao": "LJLJ",
      "alert": "OK",
      "vis_m": 9999,
      "fzfg": false,
      "metar_trigger": false,
      "taf_trigger": false,
      "metar": "METAR LJLJ 280030Z VRB02KT 9999 FEW010 BKN035 BKN110 01/01 Q1001 NOSIG",
      "taf": "TAF LJLJ 272300Z 2800/2900 VRB02KT 7000 FEW003 BKN050"
    },
    {
      "icao": "LKMT",
      "alert": "OK",
      "vis_m": 9999,
      "fzfg": false,
      "metar_trigger": false,
      "taf_trigger": false,
      "metar": "METAR LKMT 280030Z VRB01KT 9999 OVC029 M01/M02 Q0999 NOSIG",
      "taf": "TAF LKMT 272300Z 2800/2824 24004KT 8000 BKN015 OVC025"
    },
    {
      "icao": "LKPR",
      "alert": "OK",
      "vis_m": 800,
      "fzfg": true,
      "metar_trigger": false,
      "taf_trigger": false,
      "metar": "METAR LKPR 280030Z 33002KT 0800 0550 R24/P2000N R30/P2000N FZFG FEW001 SCT004 OVC019 M02/M02 Q0997 NOSIG",
      "taf": "TAF LKPR 272300Z 2800/2906 05003KT 2000 BR SCT003 BKN005"
    },
    {
      "icao": "LLBG",
      "alert": "OK",
      "vis_m": 9999,
      "fzfg": false,
      "metar_trigger": false,
      "taf_trigger": false,
      "metar": "METAR LLBG 280020Z 14004KT CAVOK 14/06 Q1013 NOSIG RMK BKN120",
      "taf": "TAF LLBG 272323Z 2800/2824 13005KT CAVOK"
    },
    {
      "icao": "LMML",
      "alert": "OK",
      "vis_m": 9999,
      "fzfg": false,
      "metar_trigger": false,
      "taf_trigger": false,
      "metar": "METAR LMML 280045Z 20007KT 170V230 CAVOK 13/10 Q1011 NOSIG",
      "taf": ""
    },
    {
      "icao": "LOWW",
      "alert": "OK",
      "vis_m": 2500,
      "fzfg": false,
      "metar_trigger": false,
      "taf_trigger": false,
      "metar": "METAR LOWW 280020Z 13003KT 2500 -DZ BR SCT002 BKN003 00/00 Q0998 TEMPO 1200 BCFG",
      "taf": "TAF LOWW 272315Z 2800/2906 13007KT 1800 BCFG OVC002 TX01/2822Z TNM01/2807Z"
    },
    {
      "icao": "LPFR",
      "alert": "OK",
      "vis_m": 9000,
      "fzfg": false,
      "metar_trigger": false,
      "taf_trigger": false,
      "metar": "METAR LPFR 280030Z 25015KT 9000 -RA SCT012 SCT020 13/12 Q1008",
      "taf": "TAF LPFR 272300Z 2800/2824 26018KT 9999 SCT025"
    },
    {
      "icao": "LPMA",
      "alert": "OK",
      "vis_m": 9999,
      "fzfg": false,
      "metar_trigger": false,
      "taf_trigger": false,
      "metar": "METAR LPMA 280030Z VRB05KT 9999 FEW015 18/11 Q1017",
      "taf": "TAF LPMA 272300Z 2800/2824 VRB05KT 9999 FEW015"
    },
    {
      "icao": "LPPR",
      "alert": "OK",
      "vis_m": 9999,
      "fzfg": false,
      "metar_trigger": false,
      "taf_trigger": false,
      "metar": "METAR LPPR 280030Z 18008KT 9999 FEW018 10/07 Q0997",
      "taf": "TAF LPPR 272300Z 2800/2824 16013KT 9999 SCT020"
    },
    {
      "icao": "LPPS",
      "alert": "OK",
      "vis_m": 9999,
      "fzfg": false,
      "metar_trigger": false,
      "taf_trigger": false,
      "metar": "METAR LPPS 280030Z 27018KT 9999 SCT014 17/13 Q1017",
      "taf": "TAF LPPS 272300Z 2800/2906 27015KT 9999 SCT015 SCT030"
    },
    {
      "icao": "LPPT",
      "alert": "OK",
      "vis_m": 9000,
      "fzfg": false,
      "metar_trigger": false,
      "taf_trigger": false,
      "metar": "METAR LPPT 280030Z 22017KT 9000 -RA FEW010 FEW018TCU BKN020 12/11 Q1001",
      "taf": "TAF LPPT 272300Z 2800/2906 23015KT 9999 SCT020"
    },
    {
      "icao": "LQBK",
      "alert": "OK",
      "vis_m": 7000,
      "fzfg": false,
      "metar_trigger": false,
      "taf_trigger": false,
      "metar": "METAR LQBK 280030Z VRB02KT 7000 NSC M00/M00 Q1002 NOSIG",
      "taf": ""
    },
    {
      "icao": "LQSA",
      "alert": "OK",
      "vis_m": 7000,
      "fzfg": false,
      "metar_trigger": false,
      "taf_trigger": false,
      "metar": "METAR LQSA 280030Z VRB01KT 7000 NSC M02/M02 Q1004",
      "taf": "TAF LQSA 272300Z 2800/2824 11005KT CAVOK TX11/2814Z TNM02/2800Z"
    },
    {
      "icao": "LQTZ",
      "alert": "OK",
      "vis_m": 9999,
      "fzfg": false,
      "metar_trigger": false,
      "taf_trigger": false,
      "metar": "METAR LQTZ 280030Z VRB01KT CAVOK M02/M02 Q1003",
      "taf": "TAF LQTZ 272300Z 2800/2824 10005KT 9999 SCT060 TX14/2813Z TNM03/2801Z"
    },
    {
      "icao": "LRBC",
      "alert": "OK",
      "vis_m": 300,
      "fzfg": false,
      "metar_trigger": false,
      "taf_trigger": false,
      "metar": "METAR LRBC 280030Z 18003KT 0300 R16/0600N FG VV002 00/00 Q1005",
      "taf": "TAF LRBC 272300Z 2800/2809 16006KT 0150 FG VV002"
    },
    {
      "icao": "LRBS",
      "alert": "OK",
      "vis_m": 2000,
      "fzfg": false,
      "metar_trigger": false,
      "taf_trigger": false,
      "metar": "METAR LRBS 280030Z 24005KT 2000 BR OVC002 04/04 Q1006 NOSIG",
      "taf": "TAF LRBS 272300Z 2800/2824 VRB04KT 1500 BR OVC001"
    },
    {
      "icao": "LRBV",
      "alert": "OK",
      "vis_m": 9999,
      "fzfg": false,
      "metar_trigger": false,
      "taf_trigger": false,
      "metar": "METAR LRBV 280030Z AUTO VRB02KT 9999 OVC013/// 03/02 Q1004",
      "taf": "TAF LRBV 272000Z 2721/2806 29006KT 9999 BKN020"
    },
    {
      "icao": "LRCL",
      "alert": "OK",
      "vis_m": 800,
      "fzfg": false,
      "metar_trigger": false,
      "taf_trigger": false,
      "metar": "METAR LRCL 280030Z 00000KT 0800 R25/1400D FG OVC002 01/00 Q1005",
      "taf": "TAF LRCL 272300Z 2800/2809 VRB04KT 3000 BR BKN060"
    },
    {
      "icao": "LRCV",
      "alert": "OK",
      "vis_m": 700,
      "fzfg": false,
      "metar_trigger": false,
      "taf_trigger": false,
      "metar": "METAR LRCV 280030Z 23004KT 0700 R26/P2000 FG OVC003 02/02 Q1006",
      "taf": "TAF LRCV 272300Z 2800/2809 VRB04KT 5000 BR BKN040"
    },
    {
      "icao": "LRIA",
      "alert": "WARNING",
      "vis_m": 400,
      "fzfg": true,
      "metar_trigger": false,
      "taf_trigger": true,
      "metar": "METAR LRIA 280030Z 09004KT 0400 R14/1100N FZFG VV001 M00/M01 Q1005",
      "taf": "TAF LRIA 272300Z 2800/2809 10006KT 0100 FZFG VV001"
    },
    {
      "icao": "LROP",
      "alert": "OK",
      "vis_m": 2000,
      "fzfg": false,
      "metar_trigger": false,
      "taf_trigger": false,
      "metar": "METAR LROP 280030Z 23006KT 2000 BR OVC001 04/04 Q1006 NOSIG",
      "taf": "TAF LROP 272300Z 2800/2824 VRB04KT 0600 FG OVC001"
    },
    {
      "icao": "LRSB",
      "alert": "OK",
      "vis_m": 6000,
      "fzfg": false,
      "metar_trigger": false,
      "taf_trigger": false,
      "metar": "METAR LRSB 280030Z 10005KT 6000 BKN005 BKN007 03/03 Q1004",
      "taf": "TAF LRSB 272300Z 2800/2824 VRB04KT 3000 BR BKN005"
    },
    {
      "icao": "LRSM",
      "alert": "OK",
      "vis_m": 400,
      "fzfg": false,
      "metar_trigger": false,
      "taf_trigger": false,
      "metar": "METAR LRSM 280030Z AUTO 10004KT 0400 R19/0500N FG VV001 01/M00 Q1005",
      "taf": "TAF LRSM 271400Z 2715/2724 VRB04KT 3000 BR OVC002"
    },
    {
      "icao": "LRSV",
      "alert": "OK",
      "vis_m": 400,
      "fzfg": false,
      "metar_trigger": false,
      "taf_trigger": false,
      "metar": "METAR LRSV 280030Z 22003KT 190V250 0400 R34/0600N -RA FG VV002 00/00 Q1003",
      "taf": "TAF LRSV 272300Z 2800/2809 VRB04KT 0300 FG VV001"
    },
    {
      "icao": "LRTM",
      "alert": "OK",
      "vis_m": 500,
      "fzfg": false,
      "metar_trigger": false,
      "taf_trigger": false,
      "metar": "METAR LRTM 280030Z AUTO 34003KT 0500 R07/0800N FG VV001 01/01 Q1005",
      "taf": "TAF LRTM 271400Z 2715/2724 VRB04KT 0500 -RA FG BKN005 OVC010"
    },
    {
      "icao": "LRTR",
      "alert": "OK",
      "vis_m": 500,
      "fzfg": false,
      "metar_trigger": false,
      "taf_trigger": false,
      "metar": "METAR LRTR 280030Z 12010KT 0500 R11/1600D FG VV001 02/02 Q1005",
      "taf": "TAF LRTR 272300Z 2800/2824 11010KT 0300 FG VV001"
    },
    {
      "icao": "LTAC",
      "alert": "OK",
      "vis_m": 9999,
      "fzfg": false,
      "metar_trigger": false,
      "taf_trigger": false,
      "metar": "METAR LTAC 280020Z 24004KT 9999 SCT030 BKN100 05/01 Q1009 NOSIG RMK RWY21C 24006KT RWY03L 22004KT RWY21R 23005KT RWY03R 23003KT 190V260 RWY21L 23005KT 200V260",
      "taf": "TAF LTAC 272240Z 2800/2824 VRB02KT 9999 SCT040 SCT100"
    },
    {
      "icao": "LTFM",
      "alert": "OK",
      "vis_m": 9999,
      "fzfg": false,
      "metar_trigger": false,
      "taf_trigger": false,
      "metar": "METAR LTFM 280020Z 23003KT 200V280 9999 SCT040 BKN100 10/07 Q1006 NOSIG RMK RWY17L 22003KT 130V240 RWY34L 24003KT RWY16R VRB02KT RWY36 21003KT 170V230 RWY18 24004KT 140V270",
      "taf": "TAF LTFM 272240Z 2800/2906 22010KT 9999 SCT040 BKN100"
    },
    {
      "icao": "LUKK",
      "alert": "OK",
      "vis_m": 750,
      "fzfg": true,
      "metar_trigger": false,
      "taf_trigger": false,
      "metar": "METAR LUKK 280030Z VRB01KT 0750 0650SE R08/1000U FZFG VV002 M01/M01 Q1005 TEMPO 0400 FZFG",
      "taf": "TAF LUKK 272322Z 2800/2824 15005KT 0400 FZDZ FZFG VV001"
    },
    {
      "icao": "LWOH",
      "alert": "OK",
      "vis_m": null,
      "fzfg": false,
      "metar_trigger": false,
      "taf_trigger": false,
      "metar": "",
      "taf": "TAF LWOH 272330Z 2800/2824 VRB02KT 9999 FEW040"
    },
    {
      "icao": "LWSK",
      "alert": "OK",
      "vis_m": null,
      "fzfg": false,
      "metar_trigger": false,
      "taf_trigger": false,
      "metar": "",
      "taf": "TAF LWSK 272330Z 2800/2824 VRB02KT CAVOK"
    },
    {
      "icao": "LYBE",
      "alert": "OK",
      "vis_m": 9999,
      "fzfg": false,
      "metar_trigger": false,
      "taf_trigger": false,
      "metar": "METAR LYBE 280030Z 12004KT CAVOK 01/M01 Q1004 NOSIG",
      "taf": "TAF LYBE 272300Z 2800/2824 12007KT CAVOK TX11/2812Z TN01/2803Z"
    },
    {
      "icao": "LYNI",
      "alert": "OK",
      "vis_m": 6000,
      "fzfg": false,
      "metar_trigger": false,
      "taf_trigger": false,
      "metar": "METAR LYNI 280030Z 12003KT 090V150 6000 BKN005 02/02 Q1007 NOSIG",
      "taf": "TAF LYNI 272300Z 2800/2824 20004KT 2000 BR BKN003 TX12/2812Z TNM01/2804Z"
    },
    {
      "icao": "LYPG",
      "alert": "OK",
      "vis_m": 9999,
      "fzfg": false,
      "metar_trigger": false,
      "taf_trigger": false,
      "metar": "METAR LYPG 280030Z VRB02KT 9999 FEW040 05/02 Q1009 NOSIG",
      "taf": "TAF LYPG 272300Z 2800/2824 36005KT 9999 SCT040 BKN080 TX10/2813Z TN04/2805Z"
    },
    {
      "icao": "LZIB",
      "alert": "OK",
      "vis_m": 1200,
      "fzfg": false,
      "metar_trigger": false,
      "taf_trigger": false,
      "metar": "METAR LZIB 280030Z 07007KT 1200 R31/1900N R22/P2000N -DZ BR OVC002 00/00 Q0998 NOSIG",
      "taf": "TAF LZIB 272315Z 2800/2900 05007KT 1500 BR OVC005"
    },
    {
      "icao": "LZKZ",
      "alert": "OK",
      "vis_m": 8000,
      "fzfg": false,
      "metar_trigger": false,
      "taf_trigger": false,
      "metar": "METAR LZKZ 280030Z 17002KT 8000 FEW033 OVC041 M00/M00 Q1002 NOSIG",
      "taf": "TAF LZKZ 272315Z 2800/2900 VRB02KT 6000 BKN025"
    },
    {
      "icao": "LZTT",
      "alert": "OK",
      "vis_m": 9999,
      "fzfg": false,
      "metar_trigger": false,
      "taf_trigger": false,
      "metar": "METAR LZTT 280030Z 24012KT 9999 BKN025 03/M01 Q0999",
      "taf": "TAF LZTT 272315Z 2800/2900 25006KT 9999 BKN025"
    },
    {
      "icao": "OEJN",
      "alert": "OK",
      "vis_m": 9999,
      "fzfg": false,
      "metar_trigger": false,
      "taf_trigger": false,
      "metar": "METAR OEJN 280000Z 00000KT CAVOK 25/18 Q1014 NOSIG",
      "taf": "TAF OEJN 272300Z 2800/2906 VRB03KT 7000 NSC"
    },
    {
      "icao": "OEMA",
      "alert": "OK",
      "vis_m": 9000,
      "fzfg": false,
      "metar_trigger": false,
      "taf_trigger": false,
      "metar": "METAR OEMA 280000Z 28008KT 9000 NSC 23/14 Q1017 NOSIG",
      "taf": "TAF OEMA 272300Z 2800/2906 27010KT 9999 FEW040"
    },
    {
      "icao": "OJAI",
      "alert": "OK",
      "vis_m": 4000,
      "fzfg": false,
      "metar_trigger": false,
      "taf_trigger": false,
      "metar": "METAR OJAI 280000Z 00000KT 4000 BR NSC 06/04 Q1016 NOSIG",
      "taf": "TAF OJAI 272248Z 2800/2906 26012KT 4000 HZ SCT035"
    },
    {
      "icao": "OMAA",
      "alert": "OK",
      "vis_m": 9999,
      "fzfg": false,
      "metar_trigger": false,
      "taf_trigger": false,
      "metar": "METAR OMAA 280030Z 05004KT CAVOK 16/10 Q1019 NOSIG",
      "taf": "TAF OMAA 272300Z 2800/2906 03005KT 8000 NSC"
    },
    {
      "icao": "OMDB",
      "alert": "OK",
      "vis_m": 9999,
      "fzfg": false,
      "metar_trigger": false,
      "taf_trigger": false,
      "metar": "METAR OMDB 280030Z 08004KT 030V130 CAVOK 18/10 Q1019 NOSIG",
      "taf": "TAF OMDB 272300Z 2800/2906 08005KT CAVOK"
    },
    {
      "icao": "UAAA",
      "alert": "OK",
      "vis_m": 9999,
      "fzfg": false,
      "metar_trigger": false,
      "taf_trigger": false,
      "metar": "METAR UAAA 280030Z 22003MPS 9999 BKN100 M01/M07 Q1020 NOSIG",
      "taf": "TAF UAAA 272302Z 2800/2824 22003MPS 3100 BR FU SCT030CB BKN100 TX01/2808Z TNM05/2802Z"
    },
    {
      "icao": "UBBB",
      "alert": "OK",
      "vis_m": 9999,
      "fzfg": false,
      "metar_trigger": false,
      "taf_trigger": false,
      "metar": "METAR UBBB 280030Z 17008KT 9999 OVC024 06/03 Q1023 NOSIG",
      "taf": "TAF UBBB 272259Z 2800/2824 14012KT 9999 OVC030 TX09/2808Z TN05/2801Z"
    },
    {
      "icao": "UDSG",
      "alert": "CRITICAL",
      "vis_m": 50,
      "fzfg": true,
      "metar_trigger": true,
      "taf_trigger": false,
      "metar": "METAR UDSG 280030Z 09002KT 0050 R02/0400N FZFG VV001 M16/M18 Q1021 NOSIG",
      "taf": "TAF UDSG 272258Z 2800/2824 VRB06KT 1500 BR BKN020"
    },
    {
      "icao": "UDYZ",
      "alert": "OK",
      "vis_m": 3400,
      "fzfg": false,
      "metar_trigger": false,
      "taf_trigger": false,
      "metar": "METAR UDYZ 280030Z 35002KT 3400 BR BKN008 M04/M06 Q1024 NOSIG",
      "taf": "TAF UDYZ 272300Z 2800/2824 VRB04KT 2300 BR BKN008"
    },
    {
      "icao": "UGKO",
      "alert": "OK",
      "vis_m": 9999,
      "fzfg": false,
      "metar_trigger": false,
      "taf_trigger": false,
      "metar": "METAR UGKO 280030Z 09025G35KT CAVOK 08/M01 Q1014 NOSIG",
      "taf": "TAF UGKO 272300Z 2800/2824 08017KT CAVOK TX15/2812Z TN06/2802Z"
    }
  ]
}