{
  "ts_utc": "2026-01-14T18:27:05Z",
  "threshold_m": 150,
  "source": "stations_override.txt (ICAO list) + aviationweather.gov (METAR/TAF raw)",
  "station_count": 159,
  "stations": [
    {
      "icao": "BIKF",
      "alert": "OK",
      "vis_m": 9999,
      "fzfg": false,
      "metar_trigger": false,
      "taf_trigger": false,
      "metar": "METAR BIKF 141800Z 05007KT 9999 FEW046 SCT094 BKN180 00/M03 Q0986",
      "taf": "TAF BIKF 141634Z 1418/1518 06015KT 9999 SCT035 TX02/1502Z TNM01/1510Z"
    },
    {
      "icao": "BKPR",
      "alert": "OK",
      "vis_m": null,
      "fzfg": false,
      "metar_trigger": false,
      "taf_trigger": false,
      "metar": "",
      "taf": "TAF BKPR 141730Z 1418/1518 VRB03KT 9999 SCT060"
    },
    {
      "icao": "EBCI",
      "alert": "OK",
      "vis_m": 9000,
      "fzfg": false,
      "metar_trigger": false,
      "taf_trigger": false,
      "metar": "METAR EBCI 141820Z 17006KT 9000 SCT006 08/07 Q1013 TEMPO BKN006",
      "taf": "TAF EBCI 141715Z 1418/1524 21008KT 4000 BR FEW008 BKN012"
    },
    {
      "icao": "EDDB",
      "alert": "OK",
      "vis_m": 9999,
      "fzfg": true,
      "metar_trigger": false,
      "taf_trigger": false,
      "metar": "METAR EDDB 141820Z AUTO 25006KT CAVOK 01/01 Q1016 TEMPO 0500 FZFG",
      "taf": ""
    },
    {
      "icao": "EDDH",
      "alert": "OK",
      "vis_m": 9000,
      "fzfg": false,
      "metar_trigger": false,
      "taf_trigger": false,
      "metar": "METAR EDDH 141820Z AUTO 21004KT 9000 3400 BR FEW023 01/01 Q1014 NOSIG",
      "taf": "TAF EDDH 141700Z 1418/1524 21004KT 9999 FEW025"
    },
    {
      "icao": "EDDK",
      "alert": "OK",
      "vis_m": 9999,
      "fzfg": false,
      "metar_trigger": false,
      "taf_trigger": false,
      "metar": "METAR EDDK 141820Z AUTO 12004KT 090V150 9999 OVC023 09/08 Q1014 NOSIG",
      "taf": "TAF EDDK 141700Z 1418/1524 13005KT 9999 SCT007 BKN015"
    },
    {
      "icao": "EDDN",
      "alert": "OK",
      "vis_m": 9999,
      "fzfg": false,
      "metar_trigger": false,
      "taf_trigger": false,
      "metar": "METAR EDDN 141820Z AUTO 12006KT 9999 OVC040 06/04 Q1017 NOSIG",
      "taf": "TAF EDDN 141700Z 1418/1518 13006KT 9999 BKN040"
    },
    {
      "icao": "EDDS",
      "alert": "OK",
      "vis_m": 9999,
      "fzfg": false,
      "metar_trigger": false,
      "taf_trigger": false,
      "metar": "METAR EDDS 141820Z AUTO 19001KT CAVOK 09/04 Q1016 NOSIG",
      "taf": "TAF EDDS 141700Z 1418/1518 VRB03KT CAVOK"
    },
    {
      "icao": "EDFH",
      "alert": "OK",
      "vis_m": 9999,
      "fzfg": false,
      "metar_trigger": false,
      "taf_trigger": false,
      "metar": "METAR EDFH 141820Z 23007KT 9999 -DZ BKN009 07/06 Q1015",
      "taf": "TAF EDFH 141700Z 1418/1518 20007KT 9999 BKN015"
    },
    {
      "icao": "EDJA",
      "alert": "OK",
      "vis_m": 9999,
      "fzfg": false,
      "metar_trigger": false,
      "taf_trigger": false,
      "metar": "METAR EDJA 141820Z 21007KT CAVOK 02/M01 Q1018",
      "taf": "TAF EDJA 141700Z 1418/1503 20004KT CAVOK"
    },
    {
      "icao": "EDLW",
      "alert": "OK",
      "vis_m": 4200,
      "fzfg": false,
      "metar_trigger": false,
      "taf_trigger": false,
      "metar": "METAR EDLW 141820Z 09004KT 4200 BR OVC016 06/06 Q1014",
      "taf": "TAF EDLW 141700Z 1418/1518 17006KT 9999 BKN008 BKN015"
    },
    {
      "icao": "EDNY",
      "alert": "OK",
      "vis_m": 550,
      "fzfg": false,
      "metar_trigger": false,
      "taf_trigger": false,
      "metar": "METAR EDNY 141820Z 00000KT 0550 0500 R24/0750D FEW003 00/M00 Q1019",
      "taf": ""
    },
    {
      "icao": "EDSB",
      "alert": "OK",
      "vis_m": 9999,
      "fzfg": false,
      "metar_trigger": false,
      "taf_trigger": false,
      "metar": "METAR EDSB 141820Z 22003KT CAVOK 10/05 Q1017",
      "taf": "TAF EDSB 141700Z 1418/1518 21005KT 9999 SCT035"
    },
    {
      "icao": "EETN",
      "alert": "OK",
      "vis_m": 9999,
      "fzfg": false,
      "metar_trigger": false,
      "taf_trigger": false,
      "metar": "METAR EETN 141820Z 13009KT CAVOK M09/M11 Q1019 NOSIG",
      "taf": "TAF EETN 141730Z 1418/1518 14012KT 9999 SCT010"
    },
    {
      "icao": "EFTU",
      "alert": "OK",
      "vis_m": 9999,
      "fzfg": false,
      "metar_trigger": false,
      "taf_trigger": false,
      "metar": "METAR EFTU 141820Z AUTO 14013KT 9999 OVC007 M05/M06 Q1014",
      "taf": "TAF EFTU 141733Z 1418/1518 13012KT 9999 OVC010"
    },
    {
      "icao": "EGBB",
      "alert": "OK",
      "vis_m": 9999,
      "fzfg": false,
      "metar_trigger": false,
      "taf_trigger": false,
      "metar": "METAR EGBB 141820Z 14004KT 9999 BKN018 03/01 Q1007",
      "taf": "TAF EGBB 141654Z 1418/1518 18005KT 9999 FEW045"
    },
    {
      "icao": "EGGP",
      "alert": "OK",
      "vis_m": 9999,
      "fzfg": false,
      "metar_trigger": false,
      "taf_trigger": false,
      "metar": "METAR EGGP 141820Z 15009KT 130V200 CAVOK 03/M00 Q1005",
      "taf": "TAF EGGP 141657Z 1418/1518 16008KT 9999 SCT035"
    },
    {
      "icao": "EGGW",
      "alert": "OK",
      "vis_m": 9999,
      "fzfg": false,
      "metar_trigger": false,
      "taf_trigger": false,
      "metar": "METAR EGGW 141820Z AUTO 14008KT 9999 OVC009 05/03 Q1008",
      "taf": "TAF EGGW 141655Z 1418/1518 15006KT 9999 BKN020"
    },
    {
      "icao": "EGKK",
      "alert": "OK",
      "vis_m": 2000,
      "fzfg": false,
      "metar_trigger": false,
      "taf_trigger": false,
      "metar": "METAR EGKK 141820Z 15006KT 110V180 2000 BR BKN002 08/08 Q1009",
      "taf": "TAF EGKK 141657Z 1418/1524 15005KT 9999 BKN005"
    },
    {
      "icao": "EGNM",
      "alert": "OK",
      "vis_m": 9999,
      "fzfg": false,
      "metar_trigger": false,
      "taf_trigger": false,
      "metar": "METAR EGNM 141820Z 17010KT CAVOK 02/M01 Q1005",
      "taf": "TAF EGNM 141657Z 1418/1518 21005KT 9999 FEW030"
    },
    {
      "icao": "EGPD",
      "alert": "OK",
      "vis_m": 9999,
      "fzfg": false,
      "metar_trigger": false,
      "taf_trigger": false,
      "metar": "METAR EGPD 141820Z COR AUTO 19009KT 9999 NCD 05/02 Q0999 NOSIG",
      "taf": "TAF EGPD 141655Z 1418/1518 18012KT 9999 BKN020"
    },
    {
      "icao": "EGPF",
      "alert": "OK",
      "vis_m": 9999,
      "fzfg": false,
      "metar_trigger": false,
      "taf_trigger": false,
      "metar": "METAR EGPF 141820Z AUTO 16009KT 130V190 9999 -RA BKN021/// OVC033/// //////TCU 06/04 Q0999",
      "taf": "TAF EGPF 141655Z 1418/1518 18012KT 9999 FEW018 BKN030"
    },
    {
      "icao": "EHBK",
      "alert": "OK",
      "vis_m": 4200,
      "fzfg": false,
      "metar_trigger": false,
      "taf_trigger": false,
      "metar": "METAR EHBK 141755Z AUTO 19006KT 4200 BR FEW000 BKN001 BKN007 08/08 Q1014 BECMG BKN003",
      "taf": "TAF EHBK 141719Z 1418/1524 18008KT 2000 BR BKN002"
    },
    {
      "icao": "EHEH",
      "alert": "OK",
      "vis_m": 3100,
      "fzfg": false,
      "metar_trigger": false,
      "taf_trigger": false,
      "metar": "METAR EHEH 141755Z AUTO 14006KT 110V180 3100 R21/P3000N BR BKN003 OVC004 07/07 Q1013 YLO TEMPO 2000 BR -DZ BKN002 OVC003",
      "taf": "TAF EHEH 141753Z 1418/1524 15005KT 3000 BR SCT003 OVC004"
    },
    {
      "icao": "EKBI",
      "alert": "OK",
      "vis_m": 9999,
      "fzfg": false,
      "metar_trigger": false,
      "taf_trigger": false,
      "metar": "METAR EKBI 141820Z AUTO 20004KT 9999 NCD 01/01 Q1011",
      "taf": "TAF EKBI 141727Z 1418/1518 22005KT 9999 FEW020"
    },
    {
      "icao": "EKCH",
      "alert": "OK",
      "vis_m": 9999,
      "fzfg": false,
      "metar_trigger": false,
      "taf_trigger": false,
      "metar": "METAR EKCH 141820Z AUTO 24009KT 9999 NCD 02/01 Q1012 NOSIG",
      "taf": "TAF EKCH 141727Z 1418/1518 25008KT 9999 FEW020"
    },
    {
      "icao": "ENAL",
      "alert": "OK",
      "vis_m": 9999,
      "fzfg": false,
      "metar_trigger": false,
      "taf_trigger": false,
      "metar": "METAR ENAL 141820Z 21016KT 9999 BKN037 06/M01 Q0997",
      "taf": "TAF ENAL 141700Z 1418/1503 19015KT 9999 SCT050"
    },
    {
      "icao": "ENBR",
      "alert": "OK",
      "vis_m": 9999,
      "fzfg": false,
      "metar_trigger": false,
      "taf_trigger": false,
      "metar": "METAR ENBR 141820Z 16013KT 9999 FEW010 SCT016 BKN048 03/02 Q1002 TEMPO SHRA BKN012CB RMK WIND 1200FT 19011KT",
      "taf": "TAF ENBR 141700Z 1418/1518 13008KT 9999 -SHRA FEW015TCU BKN020"
    },
    {
      "icao": "ENGM",
      "alert": "OK",
      "vis_m": 9999,
      "fzfg": false,
      "metar_trigger": false,
      "taf_trigger": false,
      "metar": "METAR ENGM 141820Z 28005KT 250V030 CAVOK M03/M04 Q1002 NOSIG",
      "taf": "TAF ENGM 141700Z 1418/1518 VRB03KT 9999 FEW015 BKN040"
    },
    {
      "icao": "ENHD",
      "alert": "OK",
      "vis_m": 9999,
      "fzfg": false,
      "metar_trigger": false,
      "taf_trigger": false,
      "metar": "METAR ENHD 141820Z 22010KT 9999 FEW038 05/03 Q1003",
      "taf": "TAF ENHD 141400Z 1415/1423 24012KT 9999 -SHRA FEW020TCU BKN030"
    },
    {
      "icao": "ENTC",
      "alert": "OK",
      "vis_m": 9999,
      "fzfg": false,
      "metar_trigger": false,
      "taf_trigger": false,
      "metar": "METAR ENTC 141820Z 19016KT 9999 BKN041 M03/M09 Q1006 NOSIG RMK WIND 2600FT 18013KT",
      "taf": "TAF ENTC 141700Z 1418/1518 19016KT 9999 BKN040"
    },
    {
      "icao": "ENTO",
      "alert": "OK",
      "vis_m": 9999,
      "fzfg": false,
      "metar_trigger": false,
      "taf_trigger": false,
      "metar": "METAR ENTO 141820Z VRB02KT CAVOK M04/M04 Q1004 NOSIG",
      "taf": "TAF ENTO 141700Z 1418/1518 25008KT CAVOK"
    },
    {
      "icao": "ENVA",
      "alert": "OK",
      "vis_m": 9999,
      "fzfg": false,
      "metar_trigger": false,
      "taf_trigger": false,
      "metar": "METAR ENVA 141820Z 10006KT CAVOK 02/M04 Q1000 NOSIG RMK WIND 670FT 15011KT",
      "taf": "TAF ENVA 141700Z 1418/1518 11008KT 9999 FEW050"
    },
    {
      "icao": "ENZV",
      "alert": "OK",
      "vis_m": 8000,
      "fzfg": false,
      "metar_trigger": false,
      "taf_trigger": false,
      "metar": "METAR ENZV 141820Z VRB01KT 8000 -SHRA FEW010 BKN024 03/02 Q1005 TEMPO SHRA BKN018CB",
      "taf": "TAF ENZV 141700Z 1418/1518 13008KT 9999 FEW012 BKN025"
    },
    {
      "icao": "EPGD",
      "alert": "OK",
      "vis_m": 3600,
      "fzfg": false,
      "metar_trigger": false,
      "taf_trigger": false,
      "metar": "METAR EPGD 141800Z 17005KT 3600 BR OVC003 M01/M01 Q1010",
      "taf": "TAF EPGD 141730Z 1418/1518 19006KT 6000 -SG OVC006"
    },
    {
      "icao": "EPKK",
      "alert": "OK",
      "vis_m": 1900,
      "fzfg": false,
      "metar_trigger": false,
      "taf_trigger": false,
      "metar": "METAR EPKK 141800Z VRB01KT 1900 BR FEW026 SCT049 BKN066 00/M01 Q1015",
      "taf": ""
    },
    {
      "icao": "EPKT",
      "alert": "OK",
      "vis_m": 4500,
      "fzfg": false,
      "metar_trigger": false,
      "taf_trigger": false,
      "metar": "METAR EPKT 141800Z 23011KT 4500 -RA BR OVC006 01/00 Q1015",
      "taf": "TAF EPKT 141730Z 1418/1518 23010KT 8000 -RA FEW008 BKN040"
    },
    {
      "icao": "EPLB",
      "alert": "OK",
      "vis_m": 2200,
      "fzfg": false,
      "metar_trigger": false,
      "taf_trigger": false,
      "metar": "METAR EPLB 141800Z 12008KT 2200 -SN BR BKN017 OVC024 M05/M06 Q1016",
      "taf": "TAF EPLB 141730Z 1418/1518 12008KT 2000 -SN BR BKN012 OVC020"
    },
    {
      "icao": "EPMO",
      "alert": "OK",
      "vis_m": 2100,
      "fzfg": false,
      "metar_trigger": false,
      "taf_trigger": false,
      "metar": "METAR EPMO 141800Z 13007KT 2100 -SN BR OVC005 M02/M02 Q1013",
      "taf": "TAF EPMO 141730Z 1418/1518 11007KT 3500 -FZRA BR OVC005"
    },
    {
      "icao": "EPPO",
      "alert": "OK",
      "vis_m": 1900,
      "fzfg": false,
      "metar_trigger": false,
      "taf_trigger": false,
      "metar": "METAR EPPO 141800Z 29010KT 1900 BR BKN001 04/03 Q1013",
      "taf": "TAF EPPO 141730Z 1418/1518 27008KT 1300 -DZ BR BKN002"
    },
    {
      "icao": "EPRA",
      "alert": "OK",
      "vis_m": 6000,
      "fzfg": false,
      "metar_trigger": false,
      "taf_trigger": false,
      "metar": "METAR EPRA 141800Z 16008KT 6000 -FZRA BKN005 OVC010 M01/M02 Q1013",
      "taf": "TAF EPRA 141730Z 1418/1503 17008KT 5000 -FZRA BR BKN006 OVC014"
    },
    {
      "icao": "EPRZ",
      "alert": "OK",
      "vis_m": 9999,
      "fzfg": false,
      "metar_trigger": false,
      "taf_trigger": false,
      "metar": "METAR EPRZ 141800Z 20010KT 9999 -FZRA OVC027 M01/M03 Q1015",
      "taf": "TAF EPRZ 141730Z 1418/1518 19010KT 9999 OVC030"
    },
    {
      "icao": "EPSC",
      "alert": "OK",
      "vis_m": 9999,
      "fzfg": false,
      "metar_trigger": false,
      "taf_trigger": false,
      "metar": "METAR EPSC 141800Z 26005KT 9999 SCT034 02/02 Q1013",
      "taf": "TAF EPSC 141730Z 1418/1518 25005KT 9999 SCT030"
    },
    {
      "icao": "EPSY",
      "alert": "OK",
      "vis_m": 1300,
      "fzfg": false,
      "metar_trigger": false,
      "taf_trigger": false,
      "metar": "METAR EPSY 141800Z 14006KT 110V200 1300 R01/1800D -SN BR BKN002 OVC012 M07/M08 Q1013",
      "taf": "TAF EPSY 141730Z 1418/1503 15010KT 3000 -SN BR BKN005 OVC014"
    },
    {
      "icao": "EPWA",
      "alert": "OK",
      "vis_m": 5000,
      "fzfg": false,
      "metar_trigger": false,
      "taf_trigger": false,
      "metar": "METAR EPWA 141800Z 14011KT 5000 FZRA BR BKN005 M02/M02 Q1013 BECMG NSW",
      "taf": "TAF EPWA 141730Z 1418/1518 14010KT 6000 -FZRA BKN006"
    },
    {
      "icao": "EPWR",
      "alert": "OK",
      "vis_m": 9999,
      "fzfg": false,
      "metar_trigger": false,
      "taf_trigger": false,
      "metar": "METAR EPWR 141800Z 27009KT 9999 BKN012 05/03 Q1015",
      "taf": "TAF EPWR 141730Z 1418/1518 26010KT 9999 FEW007 BKN014"
    },
    {
      "icao": "ESGG",
      "alert": "OK",
      "vis_m": 9999,
      "fzfg": false,
      "metar_trigger": false,
      "taf_trigger": false,
      "metar": "METAR ESGG 141820Z 22010KT 9999 SCT030 01/01 Q1006",
      "taf": "TAF ESGG 141730Z 1418/1518 24008KT 9000 FEW035 SCT045"
    },
    {
      "icao": "ESKN",
      "alert": "OK",
      "vis_m": 9999,
      "fzfg": false,
      "metar_trigger": false,
      "taf_trigger": false,
      "metar": "METAR ESKN 141820Z 21005KT 9999 BKN003 OVC016 01/01 Q1005",
      "taf": "TAF ESKN 141730Z 1418/1518 23006KT 9999 BKN004"
    },
    {
      "icao": "ESMS",
      "alert": "OK",
      "vis_m": 9999,
      "fzfg": false,
      "metar_trigger": false,
      "taf_trigger": false,
      "metar": "METAR ESMS 141820Z 24008KT CAVOK 02/02 Q1011",
      "taf": "TAF ESMS 141727Z 1418/1518 25008KT 9999 FEW020"
    },
    {
      "icao": "ESSA",
      "alert": "OK",
      "vis_m": 4500,
      "fzfg": false,
      "metar_trigger": false,
      "taf_trigger": false,
      "metar": "METAR ESSA 141820Z 14011KT 4500 -SN BKN005 OVC010 M00/M00 Q1005 BECMG 6000 BKN004",
      "taf": "TAF ESSA 141730Z 1418/1518 14012KT 1400 SN SCT005 BKN010"
    },
    {
      "icao": "EYKA",
      "alert": "OK",
      "vis_m": 9000,
      "fzfg": false,
      "metar_trigger": false,
      "taf_trigger": false,
      "metar": "METAR EYKA 141820Z 12007KT 9000 NSC M12/M13 Q1018",
      "taf": "TAF EYKA 141715Z 1418/1518 15012KT 9000 SCT010"
    },
    {
      "icao": "EYPA",
      "alert": "OK",
      "vis_m": 5000,
      "fzfg": false,
      "metar_trigger": false,
      "taf_trigger": false,
      "metar": "METAR EYPA 141820Z 15015KT 5000 -SN BLSN OVC022 M08/M10 Q1013",
      "taf": "TAF EYPA 141715Z 1418/1518 15015KT 5000 SN BKN020"
    },
    {
      "icao": "EYVI",
      "alert": "OK",
      "vis_m": 9999,
      "fzfg": false,
      "metar_trigger": false,
      "taf_trigger": false,
      "metar": "METAR EYVI 141820Z 14009KT 9999 BKN007 M12/M13 Q1019 NOSIG",
      "taf": "TAF EYVI 141715Z 1418/1518 16011KT 9000 BKN010"
    },
    {
      "icao": "GCFV",
      "alert": "OK",
      "vis_m": 9999,
      "fzfg": false,
      "metar_trigger": false,
      "taf_trigger": false,
      "metar": "METAR GCFV 141800Z 36012KT 9999 FEW035 SCT049 19/10 Q1022",
      "taf": "TAF GCFV 141400Z 1415/1515 04015KT 9999 FEW035 TX20/1514Z TN14/1506Z"
    },
    {
      "icao": "GCLP",
      "alert": "OK",
      "vis_m": 9999,
      "fzfg": false,
      "metar_trigger": false,
      "taf_trigger": false,
      "metar": "METAR GCLP 141800Z 01017KT 9999 FEW030 BKN050 18/11 Q1022 NOSIG",
      "taf": "TAF GCLP 141400Z 1415/1515 02020KT 9999 SCT035 TX21/1514Z TN15/1506Z"
    },
    {
      "icao": "GCTS",
      "alert": "OK",
      "vis_m": 9999,
      "fzfg": false,
      "metar_trigger": false,
      "taf_trigger": false,
      "metar": "METAR GCTS 141800Z 08018KT 9999 SCT045 18/10 Q1023 NOSIG",
      "taf": "TAF GCTS 141400Z 1415/1515 09018KT 9999 SCT040 TX22/1514Z TN14/1506Z"
    },
    {
      "icao": "GMAD",
      "alert": "OK",
      "vis_m": 9999,
      "fzfg": false,
      "metar_trigger": false,
      "taf_trigger": false,
      "metar": "METAR GMAD 141800Z 21008KT 9999 FEW026 16/13 Q1018 NOSIG",
      "taf": "TAF GMAD 141700Z 1418/1524 28012KT 8000 FEW020"
    },
    {
      "icao": "GMMN",
      "alert": "OK",
      "vis_m": 9999,
      "fzfg": false,
      "metar_trigger": false,
      "taf_trigger": false,
      "metar": "METAR GMMN 141800Z 31006KT 9999 SCT025 12/09 Q1020 NOSIG",
      "taf": "TAF GMMN 141700Z 1418/1524 30008KT 9999 SCT025"
    },
    {
      "icao": "GMMX",
      "alert": "OK",
      "vis_m": 9999,
      "fzfg": false,
      "metar_trigger": false,
      "taf_trigger": false,
      "metar": "METAR GMMX 141800Z 31008KT 9999 BKN026 SCT090 12/08 Q1020 NOSIG",
      "taf": "TAF GMMX 141700Z 1418/1524 24008KT 8000 SCT026 SCT090"
    },
    {
      "icao": "HEGN",
      "alert": "OK",
      "vis_m": 9999,
      "fzfg": false,
      "metar_trigger": false,
      "taf_trigger": false,
      "metar": "METAR HEGN 141800Z 29012KT CAVOK 15/03 Q1023 NOSIG",
      "taf": "TAF HEGN 141700Z 1418/1524 31010G20KT 6000 FEW025"
    },
    {
      "icao": "HEMA",
      "alert": "OK",
      "vis_m": 9999,
      "fzfg": false,
      "metar_trigger": false,
      "taf_trigger": false,
      "metar": "METAR HEMA 141800Z 30009KT CAVOK 16/08 Q1022 NOSIG",
      "taf": "TAF HEMA 141700Z 1418/1524 33010G20KT 8000 SCT025"
    },
    {
      "icao": "HESH",
      "alert": "OK",
      "vis_m": 9999,
      "fzfg": false,
      "metar_trigger": false,
      "taf_trigger": false,
      "metar": "METAR HESH 141800Z 32009KT CAVOK 18/06 Q1023 NOSIG",
      "taf": "TAF HESH 141700Z 1418/1524 36010KT CAVOK"
    },
    {
      "icao": "HESX",
      "alert": "OK",
      "vis_m": 9999,
      "fzfg": false,
      "metar_trigger": false,
      "taf_trigger": false,
      "metar": "METAR HESX 141800Z 34004KT CAVOK 12/07 Q1025 NOSIG",
      "taf": "TAF HESX 141704Z 1418/1524 34008KT 9999 SCT030"
    },
    {
      "icao": "LATI",
      "alert": "OK",
      "vis_m": 9999,
      "fzfg": false,
      "metar_trigger": false,
      "taf_trigger": false,
      "metar": "METAR LATI 141820Z 00000KT 9999 OVC057 10/04 Q1026 NOSIG",
      "taf": "TAF LATI 141700Z 1418/1518 VRB05KT 9999 BKN070 TX16/1512Z TN05/1505Z"
    },
    {
      "icao": "LBPD",
      "alert": "OK",
      "vis_m": 9999,
      "fzfg": false,
      "metar_trigger": false,
      "taf_trigger": false,
      "metar": "METAR LBPD 141800Z AUTO 11005KT 9999 NCD 03/01 Q1023 NOSIG",
      "taf": "TAF LBPD 141700Z 1418/1518 VRB03KT 9999 SCT060"
    },
    {
      "icao": "LBSF",
      "alert": "OK",
      "vis_m": 6000,
      "fzfg": false,
      "metar_trigger": false,
      "taf_trigger": false,
      "metar": "METAR LBSF 141800Z AUTO VRB01KT 6000 2500W FEW042/// 03/01 Q1023 TEMPO 1500 BR",
      "taf": "TAF LBSF 141700Z 1418/1518 VRB03KT 9999 SCT040"
    },
    {
      "icao": "LBWN",
      "alert": "OK",
      "vis_m": 9999,
      "fzfg": false,
      "metar_trigger": false,
      "taf_trigger": false,
      "metar": "METAR LBWN 141800Z AUTO 07003KT 9999 OVC021/// 03/01 Q1023 NOSIG",
      "taf": "TAF LBWN 141700Z 1418/1518 VRB03KT 9999 BKN020"
    },
    {
      "icao": "LCLK",
      "alert": "OK",
      "vis_m": 9999,
      "fzfg": false,
      "metar_trigger": false,
      "taf_trigger": false,
      "metar": "METAR LCLK 141800Z 30005KT 9999 FEW040 08/04 Q1023 NOSIG",
      "taf": "TAF LCLK 141730Z 1418/1518 33009KT 9999 FEW025"
    },
    {
      "icao": "LCPH",
      "alert": "OK",
      "vis_m": 9999,
      "fzfg": false,
      "metar_trigger": false,
      "taf_trigger": false,
      "metar": "METAR LCPH 141800Z 05004KT 010V080 9999 FEW030 09/04 Q1023 NOSIG",
      "taf": "TAF LCPH 141730Z 1418/1518 03007KT 9999 FEW020"
    },
    {
      "icao": "LEAL",
      "alert": "OK",
      "vis_m": 9999,
      "fzfg": false,
      "metar_trigger": false,
      "taf_trigger": false,
      "metar": "METAR LEAL 141800Z VRB01KT CAVOK 13/12 Q1019 NOSIG",
      "taf": "TAF LEAL 141700Z 1418/1518 VRB04KT CAVOK TX17/1513Z TN07/1506Z"
    },
    {
      "icao": "LEBB",
      "alert": "OK",
      "vis_m": 9999,
      "fzfg": false,
      "metar_trigger": false,
      "taf_trigger": false,
      "metar": "METAR LEBB 141800Z COR 00000KT 9999 FEW018 BKN028 12/10 Q1019 NOSIG",
      "taf": "TAF LEBB 141700Z 1418/1518 20007KT 9999 FEW030 TX12/1512Z TN07/1424Z"
    },
    {
      "icao": "LEBL",
      "alert": "OK",
      "vis_m": 9999,
      "fzfg": false,
      "metar_trigger": false,
      "taf_trigger": false,
      "metar": "METAR LEBL 141800Z VRB01KT 9999 FEW015 12/11 Q1018 NOSIG",
      "taf": "TAF LEBL 141700Z 1418/1518 20006KT 9999 FEW015 TX15/1512Z TN05/1506Z"
    },
    {
      "icao": "LECH",
      "alert": "OK",
      "vis_m": 9000,
      "fzfg": false,
      "metar_trigger": false,
      "taf_trigger": false,
      "metar": "METAR LECH 141800Z AUTO 18002KT 9000 SCT070 09/08 Q1018",
      "taf": ""
    },
    {
      "icao": "LEMD",
      "alert": "OK",
      "vis_m": 9999,
      "fzfg": false,
      "metar_trigger": false,
      "taf_trigger": false,
      "metar": "METAR LEMD 141800Z VRB01KT 9999 FEW050 06/06 Q1020 NOSIG",
      "taf": "TAF LEMD 141700Z 1418/1524 VRB03KT 9999 SCT030 TX08/1515Z TN01/1506Z"
    },
    {
      "icao": "LEMG",
      "alert": "OK",
      "vis_m": 9999,
      "fzfg": false,
      "metar_trigger": false,
      "taf_trigger": false,
      "metar": "METAR LEMG 141800Z 26007KT 9999 FEW085 14/08 Q1019 NOSIG",
      "taf": "TAF LEMG 141700Z 1418/1518 29006KT 9999 FEW030 TX18/1514Z TN07/1507Z"
    },
    {
      "icao": "LEVC",
      "alert": "OK",
      "vis_m": 9999,
      "fzfg": false,
      "metar_trigger": false,
      "taf_trigger": false,
      "metar": "METAR LEVC 141800Z 27003KT 230V030 CAVOK 14/08 Q1018 NOSIG",
      "taf": "TAF LEVC 141700Z 1418/1518 VRB04KT CAVOK TX18/1512Z TN05/1506Z"
    },
    {
      "icao": "LEXJ",
      "alert": "OK",
      "vis_m": 9999,
      "fzfg": false,
      "metar_trigger": false,
      "taf_trigger": false,
      "metar": "METAR LEXJ 141800Z VRB02KT 9999 FEW016 BKN040 12/09 Q1018",
      "taf": "TAF LEXJ 141400Z 1415/1515 21009KT 9999 FEW040 TX14/1415Z TN08/1503Z"
    },
    {
      "icao": "LEZG",
      "alert": "OK",
      "vis_m": 9999,
      "fzfg": false,
      "metar_trigger": false,
      "taf_trigger": false,
      "metar": "METAR LEZG 141800Z 26003KT 240V300 CAVOK 08/06 Q1019 NOSIG",
      "taf": "TAF LEZG 141700Z 1418/1518 10005KT CAVOK TX13/1515Z TN03/1506Z"
    },
    {
      "icao": "LEZL",
      "alert": "OK",
      "vis_m": 9999,
      "fzfg": false,
      "metar_trigger": false,
      "taf_trigger": false,
      "metar": "METAR LEZL 141800Z 12001KT CAVOK 13/12 Q1020 NOSIG",
      "taf": "TAF LEZL 141400Z 1415/1515 06004KT 9999 FEW030 TX17/1415Z TN06/1507Z"
    },
    {
      "icao": "LFBD",
      "alert": "OK",
      "vis_m": 9999,
      "fzfg": false,
      "metar_trigger": false,
      "taf_trigger": false,
      "metar": "METAR LFBD 141800Z AUTO 23005KT CAVOK 11/08 Q1018 NOSIG",
      "taf": "TAF LFBD 141700Z 1418/1524 18005KT CAVOK TX13/1514Z TN05/1506Z"
    },
    {
      "icao": "LFLL",
      "alert": "OK",
      "vis_m": 9999,
      "fzfg": false,
      "metar_trigger": false,
      "taf_trigger": false,
      "metar": "METAR LFLL 141800Z 15009KT CAVOK 11/06 Q1018 NOSIG",
      "taf": "TAF LFLL 141700Z 1418/1524 18012KT CAVOK"
    },
    {
      "icao": "LFLS",
      "alert": "OK",
      "vis_m": 9999,
      "fzfg": false,
      "metar_trigger": false,
      "taf_trigger": false,
      "metar": "METAR LFLS 141800Z AUTO 10003KT CAVOK 07/05 Q1019 NOSIG",
      "taf": ""
    },
    {
      "icao": "LFMN",
      "alert": "OK",
      "vis_m": 9999,
      "fzfg": false,
      "metar_trigger": false,
      "taf_trigger": false,
      "metar": "METAR LFMN 141800Z 33004KT 9999 FEW016 SCT033 BKN260 11/08 Q1021 NOSIG",
      "taf": "TAF LFMN 141400Z 1415/1521 VRB04KT CAVOK"
    },
    {
      "icao": "LFOB",
      "alert": "OK",
      "vis_m": 9999,
      "fzfg": false,
      "metar_trigger": false,
      "taf_trigger": false,
      "metar": "METAR LFOB 141800Z AUTO 15005KT 9999 FEW042 OVC082 10/08 Q1013 TEMPO 4000 DZ OVC004",
      "taf": "TAF LFOB 141700Z 1418/1518 18006KT 9999 BKN020"
    },
    {
      "icao": "LFPO",
      "alert": "OK",
      "vis_m": 9999,
      "fzfg": false,
      "metar_trigger": false,
      "taf_trigger": false,
      "metar": "METAR LFPO 141800Z 17004KT 9999 BKN033 BKN090 12/08 Q1014 NOSIG",
      "taf": "TAF LFPO 141700Z 1418/1524 19005KT 9999 BKN017"
    },
    {
      "icao": "LFSB",
      "alert": "OK",
      "vis_m": 9999,
      "fzfg": false,
      "metar_trigger": false,
      "taf_trigger": false,
      "metar": "METAR LFSB 141800Z AUTO 18004KT CAVOK 05/02 Q1018 NOSIG",
      "taf": "TAF LFSB 141700Z 1418/1518 18005KT 9999 FEW045 BKN100"
    },
    {
      "icao": "LGAV",
      "alert": "OK",
      "vis_m": 9999,
      "fzfg": false,
      "metar_trigger": false,
      "taf_trigger": false,
      "metar": "METAR LGAV 141820Z 30003KT CAVOK 07/02 Q1025 NOSIG",
      "taf": "TAF LGAV 141700Z 1418/1518 VRB05KT 9999 FEW025"
    },
    {
      "icao": "LGTS",
      "alert": "OK",
      "vis_m": 9999,
      "fzfg": false,
      "metar_trigger": false,
      "taf_trigger": false,
      "metar": "METAR LGTS 141820Z 10005KT CAVOK 05/02 Q1024 NOSIG",
      "taf": "TAF LGTS 141700Z 1418/1518 VRB03KT 9999 FEW030"
    },
    {
      "icao": "LHBP",
      "alert": "OK",
      "vis_m": 1500,
      "fzfg": false,
      "metar_trigger": false,
      "taf_trigger": false,
      "metar": "METAR LHBP 141800Z VRB01KT 1500 BCFG BR OVC003 M04/M04 Q1021 TEMPO 1000 BCFG BR",
      "taf": "TAF LHBP 141715Z 1418/1518 VRB03KT 5000 BR OVC005"
    },
    {
      "icao": "LHDC",
      "alert": "OK",
      "vis_m": 2400,
      "fzfg": false,
      "metar_trigger": false,
      "taf_trigger": false,
      "metar": "METAR LHDC 141745Z AUTO VRB02KT 2400 BR OVC003 M01/M01 Q1021 NOSIG",
      "taf": ""
    },
    {
      "icao": "LIBD",
      "alert": "OK",
      "vis_m": 9999,
      "fzfg": false,
      "metar_trigger": false,
      "taf_trigger": false,
      "metar": "METAR LIBD 141820Z 20008KT CAVOK 08/06 Q1024",
      "taf": "TAF LIBD 141700Z 1418/1518 VRB06KT 9999 FEW040"
    },
    {
      "icao": "LIBG",
      "alert": "OK",
      "vis_m": 9999,
      "fzfg": false,
      "metar_trigger": false,
      "taf_trigger": false,
      "metar": "METAR LIBG 141750Z 07002KT 9999 SCT025 08/08 Q1024",
      "taf": "TAF LIBG 141700Z 1418/1503 16007KT 9999 FEW030"
    },
    {
      "icao": "LIBP",
      "alert": "OK",
      "vis_m": 9999,
      "fzfg": false,
      "metar_trigger": false,
      "taf_trigger": false,
      "metar": "METAR LIBP 141820Z AUTO VRB02KT 9999 NCD 06/05 Q1024",
      "taf": "TAF LIBP 141700Z 1418/1518 VRB05KT CAVOK"
    },
    {
      "icao": "LIBR",
      "alert": "OK",
      "vis_m": 9999,
      "fzfg": false,
      "metar_trigger": false,
      "taf_trigger": false,
      "metar": "METAR LIBR 141820Z 17001KT CAVOK 10/06 Q1025",
      "taf": "TAF LIBR 141700Z 1418/1518 VRB06KT 9999 FEW030"
    },
    {
      "icao": "LICA",
      "alert": "OK",
      "vis_m": 9999,
      "fzfg": false,
      "metar_trigger": false,
      "taf_trigger": false,
      "metar": "METAR LICA 141820Z AUTO 07005KT 9999 NCD 07/06 Q1025",
      "taf": "TAF LICA 141700Z 1418/1518 VRB05KT CAVOK"
    },
    {
      "icao": "LICC",
      "alert": "OK",
      "vis_m": 9999,
      "fzfg": false,
      "metar_trigger": false,
      "taf_trigger": false,
      "metar": "METAR LICC 141820Z 28006KT CAVOK 10/05 Q1024",
      "taf": "TAF LICC 141700Z 1418/1518 25011KT 9999 FEW040"
    },
    {
      "icao": "LICJ",
      "alert": "OK",
      "vis_m": 9999,
      "fzfg": false,
      "metar_trigger": false,
      "taf_trigger": false,
      "metar": "METAR LICJ 141820Z VRB02KT CAVOK 13/08 Q1023",
      "taf": "TAF LICJ 141700Z 1418/1518 06008KT CAVOK"
    },
    {
      "icao": "LIMC",
      "alert": "OK",
      "vis_m": 9999,
      "fzfg": false,
      "metar_trigger": false,
      "taf_trigger": false,
      "metar": "METAR LIMC 141820Z 03004KT 9999 BKN045 06/02 Q1022 NOSIG",
      "taf": "TAF LIMC 141700Z 1418/1524 VRB05KT 8000 BKN040"
    },
    {
      "icao": "LIME",
      "alert": "OK",
      "vis_m": 5000,
      "fzfg": false,
      "metar_trigger": false,
      "taf_trigger": false,
      "metar": "METAR LIME 141820Z VRB01KT 5000 BR FEW005 BKN045 06/05 Q1022 NOSIG",
      "taf": "TAF LIME 141700Z 1418/1518 VRB04KT 4000 BR FEW005 BKN040"
    },
    {
      "icao": "LIMF",
      "alert": "OK",
      "vis_m": 9999,
      "fzfg": false,
      "metar_trigger": false,
      "taf_trigger": false,
      "metar": "METAR LIMF 141820Z 30003KT CAVOK 05/M01 Q1022",
      "taf": "TAF LIMF 141700Z 1418/1518 VRB03KT 8000 SCT050"
    },
    {
      "icao": "LIMJ",
      "alert": "OK",
      "vis_m": 9999,
      "fzfg": false,
      "metar_trigger": false,
      "taf_trigger": false,
      "metar": "METAR LIMJ 141820Z 12013KT 9999 BKN022 15/12 Q1022",
      "taf": "TAF LIMJ 141700Z 1418/1518 12010KT 9999 BKN020"
    },
    {
      "icao": "LIPE",
      "alert": "OK",
      "vis_m": 4000,
      "fzfg": false,
      "metar_trigger": false,
      "taf_trigger": false,
      "metar": "METAR LIPE 141820Z VRB01KT 4000 BR BKN060 05/05 Q1024",
      "taf": "TAF LIPE 141700Z 1418/1518 VRB04KT 8000 BKN035"
    },
    {
      "icao": "LIPH",
      "alert": "OK",
      "vis_m": 6000,
      "fzfg": false,
      "metar_trigger": false,
      "taf_trigger": false,
      "metar": "METAR LIPH 141820Z 36002KT 6000 NSC 03/01 Q1024",
      "taf": "TAF LIPH 141700Z 1418/1518 VRB04KT 8000 BKN020"
    },
    {
      "icao": "LIPQ",
      "alert": "OK",
      "vis_m": 3300,
      "fzfg": false,
      "metar_trigger": false,
      "taf_trigger": false,
      "metar": "METAR LIPQ 141820Z AUTO 29002KT 3300 BR OVC022/// 06/06 Q1023",
      "taf": "TAF LIPQ 141700Z 1418/1518 VRB04KT 6000 BKN020"
    },
    {
      "icao": "LIPR",
      "alert": "OK",
      "vis_m": 4000,
      "fzfg": false,
      "metar_trigger": false,
      "taf_trigger": false,
      "metar": "METAR LIPR 141820Z VRB01KT 4000 BR BKN050 06/04 Q1023",
      "taf": "TAF LIPR 141700Z 1418/1518 VRB05KT 6000 BKN035"
    },
    {
      "icao": "LIPX",
      "alert": "OK",
      "vis_m": 4000,
      "fzfg": false,
      "metar_trigger": false,
      "taf_trigger": false,
      "metar": "METAR LIPX 141820Z 14002KT 4000 BR OVC060 05/05 Q1023",
      "taf": "TAF LIPX 141700Z 1418/1518 VRB04KT 3000 BR FEW010 BKN050"
    },
    {
      "icao": "LIPY",
      "alert": "OK",
      "vis_m": 4200,
      "fzfg": false,
      "metar_trigger": false,
      "taf_trigger": false,
      "metar": "METAR LIPY 141820Z AUTO VRB02KT 4200 BR OVC058/// 08/06 Q1023",
      "taf": "TAF LIPY 141700Z 1418/1518 VRB05KT 8000 BKN040"
    },
    {
      "icao": "LIPZ",
      "alert": "OK",
      "vis_m": 6000,
      "fzfg": false,
      "metar_trigger": false,
      "taf_trigger": false,
      "metar": "METAR LIPZ 141820Z VRB02KT 6000 BKN030 06/04 Q1024 NOSIG",
      "taf": "TAF LIPZ 141700Z 1418/1524 VRB04KT 7000 BKN030"
    },
    {
      "icao": "LIRF",
      "alert": "OK",
      "vis_m": 9999,
      "fzfg": false,
      "metar_trigger": false,
      "taf_trigger": false,
      "metar": "METAR LIRF 141820Z 13006KT 9999 SCT050 13/10 Q1023 NOSIG",
      "taf": "TAF LIRF 141700Z 1418/1524 15012KT 9999 SCT040"
    },
    {
      "icao": "LIRN",
      "alert": "OK",
      "vis_m": 9999,
      "fzfg": false,
      "metar_trigger": false,
      "taf_trigger": false,
      "metar": "METAR LIRN 141820Z VRB01KT 9999 SCT040 10/07 Q1024 NOSIG",
      "taf": "TAF LIRN 141700Z 1418/1518 VRB05KT 9999 SCT040"
    },
    {
      "icao": "LIRP",
      "alert": "OK",
      "vis_m": 9999,
      "fzfg": false,
      "metar_trigger": false,
      "taf_trigger": false,
      "metar": "METAR LIRP 141815Z VRB02KT 9999 FEW030 BKN050 12/10 Q1022 NOSIG",
      "taf": "TAF LIRP 141700Z 1418/1518 12005KT 9999 SCT030 BKN060"
    },
    {
      "icao": "LIRZ",
      "alert": "OK",
      "vis_m": 9999,
      "fzfg": false,
      "metar_trigger": false,
      "taf_trigger": false,
      "metar": "METAR LIRZ 141820Z AUTO 03003KT 9999 OVC041/// 10/08 Q1023",
      "taf": "TAF LIRZ 141700Z 1418/1518 VRB05KT 9999 BKN040"
    },
    {
      "icao": "LJLJ",
      "alert": "OK",
      "vis_m": 9999,
      "fzfg": false,
      "metar_trigger": false,
      "taf_trigger": false,
      "metar": "METAR LJLJ 141800Z VRB01KT 9999 MIFG FEW017 00/M00 Q1021 NOSIG",
      "taf": "TAF LJLJ 141700Z 1418/1518 30003KT 9999 FEW025"
    },
    {
      "icao": "LKMT",
      "alert": "OK",
      "vis_m": 9999,
      "fzfg": false,
      "metar_trigger": false,
      "taf_trigger": false,
      "metar": "METAR LKMT 141800Z 24014KT 9999 FEW023 BKN044 M01/M02 Q1018 NOSIG",
      "taf": "TAF LKMT 141700Z 1418/1518 23014KT 6000 BKN010 OVC018"
    },
    {
      "icao": "LKPR",
      "alert": "OK",
      "vis_m": 9999,
      "fzfg": false,
      "metar_trigger": false,
      "taf_trigger": false,
      "metar": "METAR LKPR 141800Z 21010KT 9999 BKN030 BKN047 04/03 Q1016 NOSIG",
      "taf": "TAF LKPR 141700Z 1418/1524 20008KT 9999 SCT012 BKN027"
    },
    {
      "icao": "LLBG",
      "alert": "OK",
      "vis_m": 9999,
      "fzfg": false,
      "metar_trigger": false,
      "taf_trigger": false,
      "metar": "METAR LLBG 141820Z 28005KT 9999 FEW050 14/06 Q1023 NOSIG",
      "taf": "TAF LLBG 141705Z 1418/1518 30006KT 9999 SCT045"
    },
    {
      "icao": "LMML",
      "alert": "OK",
      "vis_m": 9999,
      "fzfg": false,
      "metar_trigger": false,
      "taf_trigger": false,
      "metar": "METAR LMML 141815Z COR 15008KT 9999 SCT024 14/10 Q1024 NOSIG",
      "taf": "TAF LMML 141700Z 1418/1518 17010KT 9999 SCT025"
    },
    {
      "icao": "LOWW",
      "alert": "OK",
      "vis_m": 700,
      "fzfg": true,
      "metar_trigger": false,
      "taf_trigger": false,
      "metar": "METAR LOWW 141820Z 15006KT 0700 R16/0900N R29/0750N FZFG VV001 M02/M03 Q1020 TEMPO 0500 FZFG",
      "taf": "TAF LOWW 141715Z 1418/1524 15006KT 0800 FZFG VV001 TXM01/1521Z TNM02/1418Z"
    },
    {
      "icao": "LPFR",
      "alert": "OK",
      "vis_m": 9999,
      "fzfg": false,
      "metar_trigger": false,
      "taf_trigger": false,
      "metar": "METAR LPFR 141800Z 27003KT 9999 FEW022 14/11 Q1020",
      "taf": "TAF LPFR 141700Z 1418/1518 27007KT 9999 SCT020"
    },
    {
      "icao": "LPMA",
      "alert": "OK",
      "vis_m": 9999,
      "fzfg": false,
      "metar_trigger": false,
      "taf_trigger": false,
      "metar": "METAR LPMA 141800Z 35004KT 260V030 9999 FEW015 16/07 Q1025",
      "taf": "TAF LPMA 141700Z 1418/1518 34008KT 9999 SCT015"
    },
    {
      "icao": "LPPR",
      "alert": "OK",
      "vis_m": 9999,
      "fzfg": false,
      "metar_trigger": false,
      "taf_trigger": false,
      "metar": "METAR LPPR 141800Z 31003KT 9999 FEW020 11/09 Q1020",
      "taf": "TAF LPPR 141700Z 1418/1518 32007KT 9999 FEW020"
    },
    {
      "icao": "LPPS",
      "alert": "OK",
      "vis_m": 9999,
      "fzfg": false,
      "metar_trigger": false,
      "taf_trigger": false,
      "metar": "METAR LPPS 141800Z 01010KT 9999 FEW015 BKN030 15/08 Q1025",
      "taf": "TAF LPPS 141700Z 1418/1524 36012KT 9999 SCT015"
    },
    {
      "icao": "LPPT",
      "alert": "OK",
      "vis_m": 9999,
      "fzfg": false,
      "metar_trigger": false,
      "taf_trigger": false,
      "metar": "METAR LPPT 141800Z 31006KT 9999 FEW018 SCT045 13/10 Q1021",
      "taf": "TAF LPPT 141700Z 1418/1524 31008KT 9999 FEW015 SCT030"
    },
    {
      "icao": "LQBK",
      "alert": "OK",
      "vis_m": 9999,
      "fzfg": false,
      "metar_trigger": false,
      "taf_trigger": false,
      "metar": "METAR LQBK 141800Z 21005KT CAVOK 05/02 Q1021 NOSIG",
      "taf": "TAF LQBK 141700Z 1418/1518 21007KT CAVOK TX10/1513Z TN02/1503Z"
    },
    {
      "icao": "LQSA",
      "alert": "OK",
      "vis_m": 8000,
      "fzfg": false,
      "metar_trigger": false,
      "taf_trigger": false,
      "metar": "METAR LQSA 141800Z VRB02KT 8000 SCT035 SCT055 01/01 Q1023 NOSIG",
      "taf": "TAF LQSA 141700Z 1418/1518 VRB02KT 9999 FEW045 TX05/1514Z TNM04/1506Z"
    },
    {
      "icao": "LQTZ",
      "alert": "OK",
      "vis_m": 9999,
      "fzfg": false,
      "metar_trigger": false,
      "taf_trigger": false,
      "metar": "METAR LQTZ 141800Z VRB02KT 9999 BKN065 04/02 Q1022",
      "taf": "TAF LQTZ 141700Z 1418/1518 VRB03KT 8000 NSC TX03/1513Z TNM01/1506Z"
    },
    {
      "icao": "LRBC",
      "alert": "OK",
      "vis_m": 9999,
      "fzfg": false,
      "metar_trigger": false,
      "taf_trigger": false,
      "metar": "METAR LRBC 141800Z 17010KT CAVOK M02/M05 Q1020",
      "taf": "TAF LRBC 141700Z 1418/1503 VRB04KT CAVOK"
    },
    {
      "icao": "LRBS",
      "alert": "OK",
      "vis_m": 7000,
      "fzfg": false,
      "metar_trigger": false,
      "taf_trigger": false,
      "metar": "METAR LRBS 141800Z 22004KT 7000 NSC M04/M05 Q1022 NOSIG",
      "taf": "TAF LRBS 141700Z 1418/1518 VRB04KT 7000 NSC"
    },
    {
      "icao": "LRBV",
      "alert": "OK",
      "vis_m": 3200,
      "fzfg": false,
      "metar_trigger": false,
      "taf_trigger": false,
      "metar": "METAR LRBV 141800Z VRB02KT 3200 -SNSG BR SCT008 OVC016 M02/M03 Q1020",
      "taf": "TAF LRBV 141700Z 1418/1503 VRB04KT 3000 BR BKN015 OVC020"
    },
    {
      "icao": "LRCL",
      "alert": "OK",
      "vis_m": 7000,
      "fzfg": false,
      "metar_trigger": false,
      "taf_trigger": false,
      "metar": "METAR LRCL 141800Z 08006KT 7000 BKN011 OVC041 M03/M04 Q1020",
      "taf": "TAF LRCL 141700Z 1418/1503 09006KT 7000 BKN010 OVC030"
    },
    {
      "icao": "LRCV",
      "alert": "OK",
      "vis_m": 4500,
      "fzfg": false,
      "metar_trigger": false,
      "taf_trigger": false,
      "metar": "METAR LRCV 141800Z 00000KT 4500 BR FEW003 BKN049 M02/M02 Q1022",
      "taf": "TAF LRCV 141700Z 1418/1503 VRB04KT 5000 BR BKN010 BKN040"
    },
    {
      "icao": "LRIA",
      "alert": "OK",
      "vis_m": 9999,
      "fzfg": false,
      "metar_trigger": false,
      "taf_trigger": false,
      "metar": "METAR LRIA 141800Z 06007KT CAVOK M05/M07 Q1021",
      "taf": "TAF LRIA 141700Z 1418/1503 07007KT CAVOK"
    },
    {
      "icao": "LROP",
      "alert": "OK",
      "vis_m": 5000,
      "fzfg": false,
      "metar_trigger": false,
      "taf_trigger": false,
      "metar": "METAR LROP 141800Z 23005KT 5000 BR NSC M04/M06 Q1022 NOSIG",
      "taf": "TAF LROP 141700Z 1418/1518 VRB04KT 7000 NSC"
    },
    {
      "icao": "LRSB",
      "alert": "OK",
      "vis_m": 5000,
      "fzfg": false,
      "metar_trigger": false,
      "taf_trigger": false,
      "metar": "METAR LRSB 141800Z 12003KT 5000 BR FEW005 OVC028 M00/M00 Q1020 REFZRA",
      "taf": "TAF LRSB 141700Z 1418/1518 VRB04KT 5000 BR SCT015 OVC025"
    },
    {
      "icao": "LRSM",
      "alert": "OK",
      "vis_m": 5000,
      "fzfg": false,
      "metar_trigger": false,
      "taf_trigger": false,
      "metar": "METAR LRSM 141800Z AUTO 13003KT 110V170 5000 BR FEW006/// OVC010/// M01/M02 Q1020",
      "taf": ""
    },
    {
      "icao": "LRSV",
      "alert": "OK",
      "vis_m": 9999,
      "fzfg": false,
      "metar_trigger": false,
      "taf_trigger": false,
      "metar": "METAR LRSV 141800Z 08007KT CAVOK M07/M08 Q1018",
      "taf": "TAF LRSV 141700Z 1418/1503 07006KT 5000 BR NSC"
    },
    {
      "icao": "LRTM",
      "alert": "OK",
      "vis_m": 5000,
      "fzfg": false,
      "metar_trigger": false,
      "taf_trigger": false,
      "metar": "METAR LRTM 141800Z AUTO 05005KT 5000 BR FEW004/// OVC014/// M02/M03 Q1021",
      "taf": "TAF LRTM 141400Z 1415/1424 VRB03KT 9999 BKN015 BKN025"
    },
    {
      "icao": "LRTR",
      "alert": "OK",
      "vis_m": 5000,
      "fzfg": false,
      "metar_trigger": false,
      "taf_trigger": false,
      "metar": "METAR LRTR 141800Z 11005KT 5000 BR OVC041 02/02 Q1021 NOSIG",
      "taf": "TAF LRTR 141700Z 1418/1518 11006KT 5000 BR BKN040"
    },
    {
      "icao": "LTAC",
      "alert": "OK",
      "vis_m": 9999,
      "fzfg": false,
      "metar_trigger": false,
      "taf_trigger": false,
      "metar": "METAR LTAC 141820Z 24006KT 9999 SCT013 BKN035 BKN090 M03/M05 Q1023 NOSIG",
      "taf": "TAF LTAC 141640Z 1418/1518 VRB02KT 9999 SCT040 SCT100"
    },
    {
      "icao": "LTFM",
      "alert": "OK",
      "vis_m": 9999,
      "fzfg": false,
      "metar_trigger": false,
      "taf_trigger": false,
      "metar": "METAR LTFM 141820Z 19005KT 9999 BKN040 06/03 Q1024 NOSIG",
      "taf": "TAF LTFM 141640Z 1418/1524 VRB02KT 9999 FEW025 BKN040"
    },
    {
      "icao": "LUKK",
      "alert": "OK",
      "vis_m": 8000,
      "fzfg": false,
      "metar_trigger": false,
      "taf_trigger": false,
      "metar": "METAR LUKK 141800Z 11005KT 090V150 8000 NSC M09/M10 Q1022 NOSIG",
      "taf": "TAF LUKK 141731Z 1418/1518 VRB05KT 8000 NSC"
    },
    {
      "icao": "LWOH",
      "alert": "OK",
      "vis_m": 9999,
      "fzfg": false,
      "metar_trigger": false,
      "taf_trigger": false,
      "metar": "METAR LWOH 141820Z 34004KT 320V020 9999 SCT040 M00/M01 Q1025",
      "taf": "TAF LWOH 141725Z 1418/1518 VRB02KT 9999 SCT040"
    },
    {
      "icao": "LWSK",
      "alert": "OK",
      "vis_m": 9999,
      "fzfg": false,
      "metar_trigger": false,
      "taf_trigger": false,
      "metar": "METAR LWSK 141820Z 05003KT 360V120 CAVOK M00/M02 Q1025 NOSIG",
      "taf": "TAF LWSK 141725Z 1418/1518 VRB02KT CAVOK"
    },
    {
      "icao": "LYBE",
      "alert": "OK",
      "vis_m": 9999,
      "fzfg": false,
      "metar_trigger": false,
      "taf_trigger": false,
      "metar": "METAR LYBE 141800Z 20006KT CAVOK 07/02 Q1021 NOSIG",
      "taf": "TAF LYBE 141700Z 1418/1518 20006KT 8000 NSC TX08/1513Z TN03/1506Z"
    },
    {
      "icao": "LYNI",
      "alert": "OK",
      "vis_m": 4000,
      "fzfg": false,
      "metar_trigger": false,
      "taf_trigger": false,
      "metar": "METAR LYNI 141800Z 11003KT 4000 BR BKN075 04/03 Q1023 NOSIG",
      "taf": "TAF LYNI 141700Z 1418/1518 10004KT 5000 BR SCT050 TX08/1513Z TN01/1506Z"
    },
    {
      "icao": "LYPG",
      "alert": "OK",
      "vis_m": 9999,
      "fzfg": false,
      "metar_trigger": false,
      "taf_trigger": false,
      "metar": "METAR LYPG 141800Z 00000KT 9999 FEW033 SCT040 BKN070 07/04 Q1026 NOSIG",
      "taf": "TAF LYPG 141700Z 1418/1518 VRB02KT 7000 FEW030 SCT070 TX12/1513Z TN02/1505Z"
    },
    {
      "icao": "LZIB",
      "alert": "OK",
      "vis_m": 900,
      "fzfg": true,
      "metar_trigger": false,
      "taf_trigger": false,
      "metar": "METAR LZIB 141800Z 04002KT 0900 R31/1200N R22/1100N FZFG VV002 M03/M03 Q1021 TEMPO 0400 FZFG FZDZ",
      "taf": "TAF LZIB 141715Z 1418/1518 06008KT 1300 -FZDZ BR OVC003"
    },
    {
      "icao": "LZKZ",
      "alert": "OK",
      "vis_m": 6000,
      "fzfg": false,
      "metar_trigger": false,
      "taf_trigger": false,
      "metar": "METAR LZKZ 141800Z 16002KT 6000 -FZRA OVC005 M04/M05 Q1019 NOSIG",
      "taf": ""
    },
    {
      "icao": "LZTT",
      "alert": "OK",
      "vis_m": 7000,
      "fzfg": false,
      "metar_trigger": false,
      "taf_trigger": false,
      "metar": "METAR LZTT 141800Z VRB02KT 7000 OVC009 M06/M07 Q1015 TEMPO BKN006",
      "taf": "TAF LZTT 141715Z 1418/1518 VRB02KT 7000 OVC008"
    },
    {
      "icao": "OEJN",
      "alert": "OK",
      "vis_m": 9999,
      "fzfg": false,
      "metar_trigger": false,
      "taf_trigger": false,
      "metar": "METAR OEJN 141800Z 34012KT 9999 FEW040 23/12 Q1017 NOSIG",
      "taf": "TAF OEJN 141700Z 1418/1524 34010KT 8000 FEW040"
    },
    {
      "icao": "OEMA",
      "alert": "OK",
      "vis_m": 9999,
      "fzfg": false,
      "metar_trigger": false,
      "taf_trigger": false,
      "metar": "METAR OEMA 141800Z 30007KT CAVOK 20/M09 Q1019 NOSIG",
      "taf": "TAF OEMA 141700Z 1418/1524 33008KT CAVOK"
    },
    {
      "icao": "OJAI",
      "alert": "OK",
      "vis_m": 4000,
      "fzfg": false,
      "metar_trigger": false,
      "taf_trigger": false,
      "metar": "METAR OJAI 141800Z 26016KT 4000 BR BKN025 07/05 Q1022 NOSIG",
      "taf": "TAF OJAI 141700Z 1418/1524 27012KT 4000 BR FEW025TCU BKN030"
    },
    {
      "icao": "OMAA",
      "alert": "OK",
      "vis_m": 9999,
      "fzfg": false,
      "metar_trigger": false,
      "taf_trigger": false,
      "metar": "METAR OMAA 141800Z 08006KT CAVOK 20/11 Q1017 NOSIG",
      "taf": "TAF OMAA 141700Z 1418/1600 08005KT 8000 NSC"
    },
    {
      "icao": "OMDB",
      "alert": "OK",
      "vis_m": 8000,
      "fzfg": false,
      "metar_trigger": false,
      "taf_trigger": false,
      "metar": "METAR OMDB 141800Z 07004KT 030V090 8000 NSC 22/11 Q1018 NOSIG",
      "taf": "TAF OMDB 141700Z 1418/1600 12005KT 8000 NSC"
    },
    {
      "icao": "UAAA",
      "alert": "OK",
      "vis_m": 1700,
      "fzfg": false,
      "metar_trigger": false,
      "taf_trigger": false,
      "metar": "METAR UAAA 141800Z 31003MPS 280V340 1700 R23L/P2000 BR VV002 M05/M06 Q1019 NOSIG RMK QBB060",
      "taf": "TAF UAAA 141701Z 1418/1518 30003MPS 1100 BR FU BKN005 OVC020 TXM02/1509Z TNM07/1503Z"
    },
    {
      "icao": "UBBB",
      "alert": "OK",
      "vis_m": 9999,
      "fzfg": false,
      "metar_trigger": false,
      "taf_trigger": false,
      "metar": "METAR UBBB 141800Z 33014KT 9999 SCT030 04/M01 Q1022 NOSIG",
      "taf": "TAF UBBB 141701Z 1418/1518 31014KT 9999 BKN025 TX06/1510Z TN02/1501Z"
    },
    {
      "icao": "UDSG",
      "alert": "OK",
      "vis_m": 9999,
      "fzfg": false,
      "metar_trigger": false,
      "taf_trigger": false,
      "metar": "METAR UDSG 141800Z 20001KT 9999 FEW049 M10/M13 Q1017 NOSIG",
      "taf": "TAF UDSG 141658Z 1418/1518 VRB06KT 9999 SCT040"
    },
    {
      "icao": "UDYZ",
      "alert": "OK",
      "vis_m": 9999,
      "fzfg": false,
      "metar_trigger": false,
      "taf_trigger": false,
      "metar": "METAR UDYZ 141800Z 06002KT 9999 SCT046 M01/M05 Q1018 NOSIG",
      "taf": "TAF UDYZ 141700Z 1418/1518 VRB06KT 9999 FEW040"
    },
    {
      "icao": "UGKO",
      "alert": "OK",
      "vis_m": 9999,
      "fzfg": false,
      "metar_trigger": false,
      "taf_trigger": false,
      "metar": "METAR UGKO 141800Z 36004KT 310V030 CAVOK 00/M02 Q1024 NOSIG",
      "taf": "TAF UGKO 141700Z 1418/1518 08007KT 9999 BKN050 TX06/1511Z TNM02/1501Z"
    }
  ]
}