{
  "ts_utc": "2026-07-19T23:32:13Z",
  "threshold_m": 150,
  "source": "stations_override.txt (ICAO list) + aviationweather.gov (METAR/TAF raw)",
  "station_count": 159,
  "stations": [
    {
      "icao": "BIKF",
      "alert": "OK",
      "vis_m": 9999,
      "fzfg": false,
      "metar_trigger": false,
      "taf_trigger": false,
      "metar": "METAR BIKF 192300Z 22011KT 9999 OVC009 11/11 Q1027",
      "taf": "TAF BIKF 192258Z 2000/2100 22012KT 9999 -DZ OVC012 TX11/2015Z TN10/2003Z"
    },
    {
      "icao": "BKPR",
      "alert": "OK",
      "vis_m": 9999,
      "fzfg": false,
      "metar_trigger": false,
      "taf_trigger": false,
      "metar": "METAR BKPR 192330Z 33003KT CAVOK 21/17 Q1016 NOSIG",
      "taf": "TAF BKPR 192330Z 2000/2024 35008KT 9999 FEW060"
    },
    {
      "icao": "EBCI",
      "alert": "OK",
      "vis_m": 9999,
      "fzfg": false,
      "metar_trigger": false,
      "taf_trigger": false,
      "metar": "METAR EBCI 192320Z 33003KT 300V360 CAVOK 13/08 Q1024 NOSIG",
      "taf": "TAF EBCI 192309Z 2000/2106 33007KT 9999 SCT040"
    },
    {
      "icao": "EDDB",
      "alert": "OK",
      "vis_m": 9999,
      "fzfg": false,
      "metar_trigger": false,
      "taf_trigger": false,
      "metar": "METAR EDDB 192320Z AUTO 23007KT CAVOK 12/11 Q1016 NOSIG",
      "taf": "TAF EDDB 192300Z 2000/2024 25008KT 9999 SCT030"
    },
    {
      "icao": "EDDH",
      "alert": "OK",
      "vis_m": 9999,
      "fzfg": false,
      "metar_trigger": false,
      "taf_trigger": false,
      "metar": "METAR EDDH 192320Z AUTO 29010KT 260V320 CAVOK 14/10 Q1017 NOSIG",
      "taf": "TAF EDDH 192300Z 2000/2106 31011KT 9999 SCT025"
    },
    {
      "icao": "EDDK",
      "alert": "OK",
      "vis_m": 9999,
      "fzfg": false,
      "metar_trigger": false,
      "taf_trigger": false,
      "metar": "METAR EDDK 192320Z AUTO 36003KT CAVOK 11/07 Q1022 NOSIG",
      "taf": "TAF EDDK 192300Z 2000/2106 34003KT CAVOK"
    },
    {
      "icao": "EDDN",
      "alert": "OK",
      "vis_m": 9999,
      "fzfg": false,
      "metar_trigger": false,
      "taf_trigger": false,
      "metar": "METAR EDDN 192320Z AUTO VRB01KT CAVOK 11/08 Q1020",
      "taf": "TAF EDDN 192300Z 2000/2024 VRB02KT CAVOK"
    },
    {
      "icao": "EDDS",
      "alert": "OK",
      "vis_m": 9999,
      "fzfg": false,
      "metar_trigger": false,
      "taf_trigger": false,
      "metar": "METAR EDDS 192320Z AUTO VRB01KT CAVOK 14/08 Q1021",
      "taf": "TAF EDDS 192300Z 2000/2024 34004KT CAVOK"
    },
    {
      "icao": "EDFH",
      "alert": "OK",
      "vis_m": 9999,
      "fzfg": false,
      "metar_trigger": false,
      "taf_trigger": false,
      "metar": "METAR EDFH 192320Z 32003KT 260V010 CAVOK 13/05 Q1022",
      "taf": "TAF EDFH 192300Z 2000/2024 35005KT CAVOK"
    },
    {
      "icao": "EDJA",
      "alert": "OK",
      "vis_m": 9999,
      "fzfg": false,
      "metar_trigger": false,
      "taf_trigger": false,
      "metar": "METAR EDJA 192320Z AUTO 07002KT 9999 // SCT053/// BKN250/// 12/10 Q1021",
      "taf": "TAF EDJA 191700Z 1918/2003 VRB03KT CAVOK"
    },
    {
      "icao": "EDLW",
      "alert": "OK",
      "vis_m": 9999,
      "fzfg": false,
      "metar_trigger": false,
      "taf_trigger": false,
      "metar": "METAR EDLW 192320Z AUTO 26003KT 230V300 9999 // BKN054/// 13/08 Q1021",
      "taf": "TAF EDLW 191700Z 1918/2018 27006KT CAVOK"
    },
    {
      "icao": "EDNY",
      "alert": "OK",
      "vis_m": 9999,
      "fzfg": false,
      "metar_trigger": false,
      "taf_trigger": false,
      "metar": "METAR EDNY 192320Z AUTO 03005KT 350V070 9999 // FEW053/// BKN220/// 15/09 Q1020",
      "taf": "TAF EDNY 191700Z 1918/2003 VRB03KT CAVOK"
    },
    {
      "icao": "EDSB",
      "alert": "OK",
      "vis_m": 9999,
      "fzfg": false,
      "metar_trigger": false,
      "taf_trigger": false,
      "metar": "METAR EDSB 192320Z AUTO 02005KT 9999 // NCD 15/10 Q1020",
      "taf": "TAF EDSB 192300Z 2000/2024 02006KT CAVOK"
    },
    {
      "icao": "EETN",
      "alert": "OK",
      "vis_m": 9999,
      "fzfg": false,
      "metar_trigger": false,
      "taf_trigger": false,
      "metar": "METAR EETN 192320Z 09009KT 9999 -RA OVC025 15/13 Q1013",
      "taf": "TAF EETN 192330Z 2000/2024 08012KT 9999 BKN030"
    },
    {
      "icao": "EFTU",
      "alert": "OK",
      "vis_m": 9999,
      "fzfg": false,
      "metar_trigger": false,
      "taf_trigger": false,
      "metar": "METAR EFTU 192320Z AUTO 06007KT CAVOK 13/08 Q1015",
      "taf": "TAF EFTU 192030Z 1921/2021 03003KT CAVOK"
    },
    {
      "icao": "EGBB",
      "alert": "OK",
      "vis_m": 9999,
      "fzfg": false,
      "metar_trigger": false,
      "taf_trigger": false,
      "metar": "METAR EGBB 192320Z 13005KT CAVOK 14/08 Q1027",
      "taf": "TAF EGBB 192253Z 2000/2024 VRB03KT 9999 FEW045"
    },
    {
      "icao": "EGGP",
      "alert": "OK",
      "vis_m": 9999,
      "fzfg": false,
      "metar_trigger": false,
      "taf_trigger": false,
      "metar": "METAR EGGP 192320Z 36004KT 330V030 CAVOK 16/11 Q1027",
      "taf": "TAF EGGP 192256Z 2000/2024 VRB03KT 9999 FEW035"
    },
    {
      "icao": "EGGW",
      "alert": "OK",
      "vis_m": 9999,
      "fzfg": false,
      "metar_trigger": false,
      "taf_trigger": false,
      "metar": "METAR EGGW 192320Z AUTO 01003KT 9999 NCD 12/07 Q1027",
      "taf": "TAF EGGW 192254Z 2000/2024 VRB05KT 9999 FEW040"
    },
    {
      "icao": "EGKK",
      "alert": "OK",
      "vis_m": 9999,
      "fzfg": false,
      "metar_trigger": false,
      "taf_trigger": false,
      "metar": "METAR EGKK 192320Z 08003KT CAVOK 14/07 Q1026",
      "taf": "TAF EGKK 192254Z 2000/2106 02005KT 9999 FEW035"
    },
    {
      "icao": "EGNM",
      "alert": "OK",
      "vis_m": 9999,
      "fzfg": false,
      "metar_trigger": false,
      "taf_trigger": false,
      "metar": "METAR EGNM 192320Z 21003KT CAVOK 10/04 Q1028",
      "taf": "TAF EGNM 192256Z 2000/2024 VRB02KT 9999 FEW040"
    },
    {
      "icao": "EGPD",
      "alert": "OK",
      "vis_m": 9999,
      "fzfg": false,
      "metar_trigger": false,
      "taf_trigger": false,
      "metar": "METAR EGPD 192320Z AUTO 32010KT 9999 BKN027 OVC033 15/12 Q1026",
      "taf": "TAF EGPD 192252Z 2000/2024 31006KT 9999 BKN025"
    },
    {
      "icao": "EGPF",
      "alert": "OK",
      "vis_m": 9999,
      "fzfg": false,
      "metar_trigger": false,
      "taf_trigger": false,
      "metar": "METAR EGPF 192320Z AUTO 25004KT 210V290 9999 NCD 14/09 Q1027",
      "taf": "TAF EGPF 192254Z 2000/2024 23006KT 9999 FEW035"
    },
    {
      "icao": "EHBK",
      "alert": "OK",
      "vis_m": 9999,
      "fzfg": false,
      "metar_trigger": false,
      "taf_trigger": false,
      "metar": "METAR EHBK 192325Z AUTO 31003KT 270V330 9999 NCD 13/08 Q1023",
      "taf": "TAF EHBK 192320Z 2000/2106 32003KT 9999 SCT045"
    },
    {
      "icao": "EHEH",
      "alert": "OK",
      "vis_m": 9999,
      "fzfg": false,
      "metar_trigger": false,
      "taf_trigger": false,
      "metar": "METAR EHEH 192325Z AUTO VRB02KT 9999 OVC053 13/09 Q1023 BLU",
      "taf": "TAF EHEH 191707Z 1918/2024 33007KT CAVOK"
    },
    {
      "icao": "EKBI",
      "alert": "OK",
      "vis_m": 9999,
      "fzfg": false,
      "metar_trigger": false,
      "taf_trigger": false,
      "metar": "METAR EKBI 192320Z AUTO 31009KT 9999 OVC034/// 13/11 Q1017",
      "taf": "TAF EKBI 192327Z 2000/2024 32008KT 9999 SCT030"
    },
    {
      "icao": "EKCH",
      "alert": "OK",
      "vis_m": 9999,
      "fzfg": false,
      "metar_trigger": false,
      "taf_trigger": false,
      "metar": "METAR EKCH 192320Z AUTO 35012KT 9999 BKN016/// BKN110/// 16/14 Q1012 TEMPO BKN012",
      "taf": "TAF EKCH 192327Z 2000/2024 02008KT 9999 BKN020"
    },
    {
      "icao": "ENAL",
      "alert": "OK",
      "vis_m": 9999,
      "fzfg": false,
      "metar_trigger": false,
      "taf_trigger": false,
      "metar": "METAR ENAL 192320Z AUTO 04009KT 9999 NCD 11/08 Q1021",
      "taf": "TAF ENAL 192000Z 1921/2006 04009KT 9999 FEW025"
    },
    {
      "icao": "ENBR",
      "alert": "OK",
      "vis_m": 9999,
      "fzfg": false,
      "metar_trigger": false,
      "taf_trigger": false,
      "metar": "METAR ENBR 192320Z 32010KT CAVOK 10/08 Q1020 RMK WIND 1200FT 33016KT",
      "taf": "TAF ENBR 191700Z 1918/2018 33012KT 9999 FEW035"
    },
    {
      "icao": "ENGM",
      "alert": "OK",
      "vis_m": 9999,
      "fzfg": false,
      "metar_trigger": false,
      "taf_trigger": false,
      "metar": "METAR ENGM 192320Z 35006KT CAVOK 09/06 Q1019",
      "taf": "TAF ENGM 191700Z 1918/2018 VRB03KT CAVOK"
    },
    {
      "icao": "ENHD",
      "alert": "OK",
      "vis_m": 9999,
      "fzfg": false,
      "metar_trigger": false,
      "taf_trigger": false,
      "metar": "METAR ENHD 192320Z AUTO 34013KT 9999 NCD 11/09 Q1020",
      "taf": "TAF ENHD 191400Z 1915/1922 33008KT CAVOK"
    },
    {
      "icao": "ENTC",
      "alert": "OK",
      "vis_m": 9999,
      "fzfg": false,
      "metar_trigger": false,
      "taf_trigger": false,
      "metar": "METAR ENTC 192320Z AUTO 00000KT 9999 OVC049/// 08/04 Q1019 RMK WIND 2600FT 23007KT",
      "taf": "TAF ENTC 191700Z 1918/2018 06010KT 9999 -SHRA FEW025 BKN035"
    },
    {
      "icao": "ENTO",
      "alert": "OK",
      "vis_m": 9999,
      "fzfg": false,
      "metar_trigger": false,
      "taf_trigger": false,
      "metar": "METAR ENTO 192320Z AUTO 34003KT 9999 NCD 11/06 Q1019",
      "taf": "TAF ENTO 191700Z 1918/2018 36008KT CAVOK"
    },
    {
      "icao": "ENVA",
      "alert": "OK",
      "vis_m": 9999,
      "fzfg": false,
      "metar_trigger": false,
      "taf_trigger": false,
      "metar": "METAR ENVA 192320Z AUTO 12007KT 9999 NCD 09/07 Q1021 RMK WIND 670FT 14006KT",
      "taf": "TAF ENVA 191700Z 1918/2018 28010KT CAVOK"
    },
    {
      "icao": "ENZV",
      "alert": "OK",
      "vis_m": 9999,
      "fzfg": false,
      "metar_trigger": false,
      "taf_trigger": false,
      "metar": "METAR ENZV 192320Z 32007KT CAVOK 12/09 Q1020",
      "taf": "TAF ENZV 191700Z 1918/2018 30012KT 9999 FEW040"
    },
    {
      "icao": "EPGD",
      "alert": "OK",
      "vis_m": 9999,
      "fzfg": false,
      "metar_trigger": false,
      "taf_trigger": false,
      "metar": "METAR EPGD 192300Z 16004KT CAVOK 15/13 Q1013",
      "taf": "TAF EPGD 192330Z 2000/2024 VRB03KT CAVOK"
    },
    {
      "icao": "EPKK",
      "alert": "OK",
      "vis_m": 9999,
      "fzfg": false,
      "metar_trigger": false,
      "taf_trigger": false,
      "metar": "METAR EPKK 192300Z 28009KT 9999 FEW063 15/14 Q1016",
      "taf": "TAF EPKK 192330Z 2000/2024 26008KT 9999 SCT045"
    },
    {
      "icao": "EPKT",
      "alert": "OK",
      "vis_m": 9999,
      "fzfg": false,
      "metar_trigger": false,
      "taf_trigger": false,
      "metar": "METAR EPKT 192300Z 26007KT 9999 BKN006 14/13 Q1017",
      "taf": "TAF EPKT 192330Z 2000/2024 26007KT 9999 BKN010"
    },
    {
      "icao": "EPLB",
      "alert": "OK",
      "vis_m": 9999,
      "fzfg": false,
      "metar_trigger": false,
      "taf_trigger": false,
      "metar": "METAR EPLB 192300Z 29009KT 9999 SCT005 BKN008 17/17 Q1012",
      "taf": "TAF EPLB 192330Z 2000/2024 25008KT CAVOK"
    },
    {
      "icao": "EPMO",
      "alert": "OK",
      "vis_m": 9999,
      "fzfg": false,
      "metar_trigger": false,
      "taf_trigger": false,
      "metar": "METAR EPMO 192300Z 27010KT 9999 SCT008 BKN018 14/14 Q1013",
      "taf": "TAF EPMO 192330Z 2000/2024 27010KT 9999 SCT030"
    },
    {
      "icao": "EPPO",
      "alert": "OK",
      "vis_m": 9999,
      "fzfg": false,
      "metar_trigger": false,
      "taf_trigger": false,
      "metar": "METAR EPPO 192300Z 28008KT 9999 FEW048 13/11 Q1015",
      "taf": "TAF EPPO 192330Z 2000/2024 28008KT CAVOK"
    },
    {
      "icao": "EPRA",
      "alert": "OK",
      "vis_m": 9999,
      "fzfg": false,
      "metar_trigger": false,
      "taf_trigger": false,
      "metar": "METAR EPRA 192300Z 30007KT 270V330 9999 SCT008 BKN025 16/15 Q1014",
      "taf": "TAF EPRA 192330Z 2000/2009 29010KT 9999 BKN008 OVC015"
    },
    {
      "icao": "EPRZ",
      "alert": "OK",
      "vis_m": 9999,
      "fzfg": false,
      "metar_trigger": false,
      "taf_trigger": false,
      "metar": "METAR EPRZ 192300Z 27008KT 9999 SCT009 BKN037 17/16 Q1015",
      "taf": "TAF EPRZ 192330Z 2000/2024 27008KT 9999 SCT037"
    },
    {
      "icao": "EPSC",
      "alert": "OK",
      "vis_m": 9999,
      "fzfg": false,
      "metar_trigger": false,
      "taf_trigger": false,
      "metar": "METAR EPSC 192300Z 20003KT 170V230 9999 SCT002 13/13 Q1014",
      "taf": "TAF EPSC 192330Z 2000/2024 22004KT CAVOK"
    },
    {
      "icao": "EPSY",
      "alert": "OK",
      "vis_m": 6000,
      "fzfg": false,
      "metar_trigger": false,
      "taf_trigger": false,
      "metar": "METAR EPSY 192300Z 31008KT 260V340 6000 -SHRA BKN045CB 15/14 Q1011",
      "taf": "TAF EPSY 192330Z 2000/2009 27006KT 9999 BKN030"
    },
    {
      "icao": "EPWA",
      "alert": "OK",
      "vis_m": 9999,
      "fzfg": false,
      "metar_trigger": false,
      "taf_trigger": false,
      "metar": "METAR EPWA 192300Z 29012KT 9999 BKN006 15/14 Q1013 NOSIG",
      "taf": "TAF EPWA 192330Z 2000/2024 27010KT 9999 SCT030"
    },
    {
      "icao": "EPWR",
      "alert": "OK",
      "vis_m": 9999,
      "fzfg": false,
      "metar_trigger": false,
      "taf_trigger": false,
      "metar": "METAR EPWR 192300Z 26008KT CAVOK 13/12 Q1017",
      "taf": "TAF EPWR 192330Z 2000/2024 26008KT CAVOK"
    },
    {
      "icao": "ESGG",
      "alert": "OK",
      "vis_m": 9999,
      "fzfg": false,
      "metar_trigger": false,
      "taf_trigger": false,
      "metar": "METAR ESGG 192320Z 02012KT CAVOK 13/10 Q1016",
      "taf": "TAF ESGG 192030Z 1921/2021 03012KT 9999 BKN025"
    },
    {
      "icao": "ESKN",
      "alert": "OK",
      "vis_m": 9999,
      "fzfg": false,
      "metar_trigger": false,
      "taf_trigger": false,
      "metar": "METAR ESKN 192320Z 34005KT 290V020 CAVOK 13/08 Q1015",
      "taf": "TAF ESKN 192030Z 1921/2021 35005KT CAVOK"
    },
    {
      "icao": "ESMS",
      "alert": "OK",
      "vis_m": 9999,
      "fzfg": false,
      "metar_trigger": false,
      "taf_trigger": false,
      "metar": "METAR ESMS 192320Z 03005KT CAVOK 14/14 Q1011",
      "taf": "TAF ESMS 192027Z 1921/2021 VRB03KT 9999 BKN020"
    },
    {
      "icao": "ESSA",
      "alert": "OK",
      "vis_m": 9999,
      "fzfg": false,
      "metar_trigger": false,
      "taf_trigger": false,
      "metar": "METAR ESSA 192320Z 36010KT CAVOK 12/05 Q1015 NOSIG",
      "taf": "TAF ESSA 192030Z 1921/2021 36005KT CAVOK"
    },
    {
      "icao": "EYKA",
      "alert": "OK",
      "vis_m": 9999,
      "fzfg": false,
      "metar_trigger": false,
      "taf_trigger": false,
      "metar": "METAR EYKA 192320Z AUTO 03006KT 360V060 9999 BKN059/// BKN071/// 17/13 Q1012",
      "taf": "TAF EYKA 192300Z 2000/2024 VRB03KT 9000 NSC"
    },
    {
      "icao": "EYPA",
      "alert": "OK",
      "vis_m": 9999,
      "fzfg": false,
      "metar_trigger": false,
      "taf_trigger": false,
      "metar": "METAR EYPA 192320Z AUTO VRB01KT 9999 NCD 12/11 Q1012",
      "taf": "TAF EYPA 192300Z 2000/2024 VRB03KT 9000 NSC"
    },
    {
      "icao": "EYVI",
      "alert": "OK",
      "vis_m": 9999,
      "fzfg": false,
      "metar_trigger": false,
      "taf_trigger": false,
      "metar": "METAR EYVI 192320Z 08006KT CAVOK 17/14 Q1012 NOSIG",
      "taf": "TAF EYVI 192300Z 2000/2024 VRB03KT 9000 NSC"
    },
    {
      "icao": "GCFV",
      "alert": "OK",
      "vis_m": 9999,
      "fzfg": false,
      "metar_trigger": false,
      "taf_trigger": false,
      "metar": "METAR GCFV 192300Z 02016KT CAVOK 23/20 Q1016",
      "taf": "TAF GCFV 192000Z 1921/2021 02015KT 9999 FEW020 TX27/2014Z TN22/2006Z"
    },
    {
      "icao": "GCLP",
      "alert": "OK",
      "vis_m": 9999,
      "fzfg": false,
      "metar_trigger": false,
      "taf_trigger": false,
      "metar": "METAR GCLP 192300Z 36024KT 9999 FEW030 24/18 Q1016 NOSIG",
      "taf": "TAF GCLP 192000Z 1921/2021 36025KT 9999 FEW030 TX29/2014Z TN22/2006Z"
    },
    {
      "icao": "GCTS",
      "alert": "OK",
      "vis_m": 9999,
      "fzfg": false,
      "metar_trigger": false,
      "taf_trigger": false,
      "metar": "METAR GCTS 192300Z 07012G22KT 040V110 9999 FEW020 25/18 Q1016 NOSIG",
      "taf": "TAF GCTS 192000Z 1921/2021 04010KT 9999 FEW020 TX31/2014Z TN23/2006Z"
    },
    {
      "icao": "GMAD",
      "alert": "OK",
      "vis_m": 8000,
      "fzfg": false,
      "metar_trigger": false,
      "taf_trigger": false,
      "metar": "METAR GMAD 192300Z 16006KT 8000 NSC 23/17 Q1011 NOSIG",
      "taf": "TAF GMAD 192300Z 2000/2106 18008KT 8000 NSC"
    },
    {
      "icao": "GMMN",
      "alert": "OK",
      "vis_m": null,
      "fzfg": false,
      "metar_trigger": false,
      "taf_trigger": false,
      "metar": "METAR GMMN 192300Z 36006KT BKN014 21/18 Q1017 NOSIG",
      "taf": "TAF GMMN 192300Z 2000/2106 36006KT 9999 BKN014"
    },
    {
      "icao": "GMMX",
      "alert": "OK",
      "vis_m": 8000,
      "fzfg": false,
      "metar_trigger": false,
      "taf_trigger": false,
      "metar": "METAR GMMX 192300Z 06006KT 360V100 8000 FEW033 BKN100 27/16 Q1016 NOSIG",
      "taf": "TAF GMMX 191700Z 1918/2024 32006KT 8000 SCT033 SCT100"
    },
    {
      "icao": "HEGN",
      "alert": "OK",
      "vis_m": 9999,
      "fzfg": false,
      "metar_trigger": false,
      "taf_trigger": false,
      "metar": "METAR HEGN 192300Z 28005KT CAVOK 32/03 Q1008 NOSIG",
      "taf": "TAF HEGN 192300Z 2000/2106 26010KT CAVOK"
    },
    {
      "icao": "HEMA",
      "alert": "OK",
      "vis_m": 9999,
      "fzfg": false,
      "metar_trigger": false,
      "taf_trigger": false,
      "metar": "METAR HEMA 192300Z 27007KT CAVOK 30/07 Q1008 NOSIG",
      "taf": "TAF HEMA 192300Z 2000/2106 24010KT CAVOK"
    },
    {
      "icao": "HESH",
      "alert": "OK",
      "vis_m": 9999,
      "fzfg": false,
      "metar_trigger": false,
      "taf_trigger": false,
      "metar": "METAR HESH 192300Z 26005KT CAVOK 33/14 Q1007 NOSIG",
      "taf": "TAF HESH 192300Z 2000/2106 28010KT CAVOK"
    },
    {
      "icao": "HESX",
      "alert": "OK",
      "vis_m": 9999,
      "fzfg": false,
      "metar_trigger": false,
      "taf_trigger": false,
      "metar": "METAR HESX 192300Z 02008KT CAVOK 26/21 Q1011 NOSIG",
      "taf": "TAF HESX 192300Z 2000/2106 33008KT CAVOK"
    },
    {
      "icao": "LATI",
      "alert": "OK",
      "vis_m": 9999,
      "fzfg": false,
      "metar_trigger": false,
      "taf_trigger": false,
      "metar": "METAR LATI 192320Z 16003KT CAVOK 25/15 Q1013 NOSIG",
      "taf": "TAF LATI 192300Z 2000/2024 VRB03KT CAVOK TX38/2012Z TN22/2004Z"
    },
    {
      "icao": "LBPD",
      "alert": "OK",
      "vis_m": 9999,
      "fzfg": false,
      "metar_trigger": false,
      "taf_trigger": false,
      "metar": "METAR LBPD 192330Z AUTO 09005KT 9999 NCD 23/15 Q1014",
      "taf": "TAF LBPD 192300Z 2000/2024 VRB04KT 9999 SCT070"
    },
    {
      "icao": "LBSF",
      "alert": "OK",
      "vis_m": 9999,
      "fzfg": false,
      "metar_trigger": false,
      "taf_trigger": false,
      "metar": "METAR LBSF 192330Z AUTO VRB02KT 9999 NSC 21/17 Q1016 NOSIG",
      "taf": "TAF LBSF 192300Z 2000/2024 VRB04KT 9999 SCT060"
    },
    {
      "icao": "LBWN",
      "alert": "OK",
      "vis_m": 9999,
      "fzfg": false,
      "metar_trigger": false,
      "taf_trigger": false,
      "metar": "METAR LBWN 192330Z AUTO 04003KT 9999 NSC 22/22 Q1014 NOSIG",
      "taf": "TAF LBWN 192300Z 2000/2024 VRB03KT 9999 SCT045"
    },
    {
      "icao": "LCLK",
      "alert": "OK",
      "vis_m": 5000,
      "fzfg": false,
      "metar_trigger": false,
      "taf_trigger": false,
      "metar": "METAR LCLK 192300Z 19004KT 5000 R22/P2000 R04/1200 BR NSC 27/26 Q1008 BECMG 3000 BR",
      "taf": "TAF LCLK 192330Z 2000/2100 19003KT 6000 FEW003"
    },
    {
      "icao": "LCPH",
      "alert": "OK",
      "vis_m": 9999,
      "fzfg": false,
      "metar_trigger": false,
      "taf_trigger": false,
      "metar": "METAR LCPH 192300Z 02004KT CAVOK 26/23 Q1009 NOSIG",
      "taf": "TAF LCPH 192330Z 2000/2100 02006KT CAVOK"
    },
    {
      "icao": "LEAL",
      "alert": "OK",
      "vis_m": 9999,
      "fzfg": false,
      "metar_trigger": false,
      "taf_trigger": false,
      "metar": "METAR LEAL 192300Z 27005KT 9999 FEW012 OVC060 29/27 Q1014 NOSIG",
      "taf": "TAF LEAL 192300Z 2000/2024 VRB04KT 9999 SCT020 TX35/2016Z TN26/2005Z"
    },
    {
      "icao": "LEBB",
      "alert": "OK",
      "vis_m": 9999,
      "fzfg": false,
      "metar_trigger": false,
      "taf_trigger": false,
      "metar": "METAR LEBB 192300Z AUTO 00000KT CAVOK 22/21 Q1017",
      "taf": "TAF LEBB 192300Z 2000/2024 35009KT 9999 FEW010 TX30/2012Z TN20/2005Z"
    },
    {
      "icao": "LEBL",
      "alert": "OK",
      "vis_m": 9999,
      "fzfg": false,
      "metar_trigger": false,
      "taf_trigger": false,
      "metar": "METAR LEBL 192300Z 11003KT CAVOK 28/24 Q1013 NOSIG",
      "taf": "TAF LEBL 192300Z 2000/2024 VRB03KT CAVOK TX32/2012Z TN26/2006Z"
    },
    {
      "icao": "LECH",
      "alert": "OK",
      "vis_m": 9000,
      "fzfg": false,
      "metar_trigger": false,
      "taf_trigger": false,
      "metar": "METAR LECH 192300Z AUTO 05003KT 020V080 9000 NCD 24/21 Q1014",
      "taf": "TAF LECH 192300Z 2000/2024 VRB04KT 9999 BKN025 TX36/2013Z TN21/2005Z"
    },
    {
      "icao": "LEMD",
      "alert": "OK",
      "vis_m": 9999,
      "fzfg": false,
      "metar_trigger": false,
      "taf_trigger": false,
      "metar": "METAR LEMD 192300Z 35003KT 320V040 CAVOK 26/02 Q1015 NOSIG",
      "taf": "TAF LEMD 192300Z 2000/2106 VRB04KT CAVOK TX37/2016Z TN17/2005Z"
    },
    {
      "icao": "LEMG",
      "alert": "OK",
      "vis_m": 9999,
      "fzfg": false,
      "metar_trigger": false,
      "taf_trigger": false,
      "metar": "METAR LEMG 192300Z 30005KT CAVOK 25/17 Q1013 NOSIG",
      "taf": "TAF LEMG 192300Z 2000/2024 VRB03KT CAVOK TX36/2015Z TN23/2005Z"
    },
    {
      "icao": "LEVC",
      "alert": "OK",
      "vis_m": 9999,
      "fzfg": false,
      "metar_trigger": false,
      "taf_trigger": false,
      "metar": "METAR LEVC 192300Z VRB02KT 9999 FEW015 27/24 Q1013 NOSIG",
      "taf": "TAF LEVC 192300Z 2000/2024 VRB04KT 9999 SCT020 TX35/2013Z TN24/2005Z"
    },
    {
      "icao": "LEXJ",
      "alert": "OK",
      "vis_m": 7000,
      "fzfg": false,
      "metar_trigger": false,
      "taf_trigger": false,
      "metar": "METAR LEXJ 192300Z AUTO VRB02KT 7000 BKN060 23/22 Q1017",
      "taf": "TAF LEXJ 192000Z 1921/2021 04009KT CAVOK TX28/2013Z TN20/2005Z"
    },
    {
      "icao": "LEZG",
      "alert": "OK",
      "vis_m": 9999,
      "fzfg": false,
      "metar_trigger": false,
      "taf_trigger": false,
      "metar": "METAR LEZG 192300Z 32010KT CAVOK 28/18 Q1013 NOSIG",
      "taf": "TAF LEZG 192300Z 2000/2024 30009KT CAVOK TX40/2014Z TN23/2005Z"
    },
    {
      "icao": "LEZL",
      "alert": "OK",
      "vis_m": 9999,
      "fzfg": false,
      "metar_trigger": false,
      "taf_trigger": false,
      "metar": "METAR LEZL 192300Z 20006KT 160V230 CAVOK 24/17 Q1014 NOSIG",
      "taf": "TAF LEZL 192000Z 1921/2021 20010KT CAVOK TX37/2015Z TN20/2005Z"
    },
    {
      "icao": "LFBD",
      "alert": "OK",
      "vis_m": 9999,
      "fzfg": false,
      "metar_trigger": false,
      "taf_trigger": false,
      "metar": "METAR LFBD 192300Z AUTO 03012KT CAVOK 25/11 Q1016 NOSIG",
      "taf": "TAF LFBD 191700Z 1918/2024 03010KT CAVOK TX35/2015Z TN21/2005Z"
    },
    {
      "icao": "LFLL",
      "alert": "OK",
      "vis_m": 9999,
      "fzfg": false,
      "metar_trigger": false,
      "taf_trigger": false,
      "metar": "METAR LFLL 192300Z 34009KT CAVOK 21/10 Q1018 NOSIG",
      "taf": "TAF LFLL 192300Z 2000/2106 34008KT CAVOK"
    },
    {
      "icao": "LFLS",
      "alert": "OK",
      "vis_m": 9999,
      "fzfg": false,
      "metar_trigger": false,
      "taf_trigger": false,
      "metar": "METAR LFLS 192300Z AUTO 34004KT 290V010 CAVOK 20/12 Q1018",
      "taf": "TAF LFLS 191400Z 1915/2015 36011KT CAVOK"
    },
    {
      "icao": "LFMN",
      "alert": "OK",
      "vis_m": 9999,
      "fzfg": false,
      "metar_trigger": false,
      "taf_trigger": false,
      "metar": "METAR LFMN 192300Z 08002KT CAVOK 28/23 Q1011 NOSIG",
      "taf": "TAF LFMN 192000Z 1921/2103 33005KT CAVOK"
    },
    {
      "icao": "LFOB",
      "alert": "OK",
      "vis_m": 9999,
      "fzfg": false,
      "metar_trigger": false,
      "taf_trigger": false,
      "metar": "METAR LFOB 192300Z AUTO 35005KT CAVOK 14/07 Q1024 NOSIG",
      "taf": "TAF LFOB 192300Z 2000/2024 01006KT CAVOK"
    },
    {
      "icao": "LFPO",
      "alert": "OK",
      "vis_m": 9999,
      "fzfg": false,
      "metar_trigger": false,
      "taf_trigger": false,
      "metar": "METAR LFPO 192300Z AUTO 03013KT CAVOK 17/08 Q1023 NOSIG",
      "taf": "TAF LFPO 192300Z 2000/2106 04011KT CAVOK"
    },
    {
      "icao": "LFSB",
      "alert": "OK",
      "vis_m": 9999,
      "fzfg": false,
      "metar_trigger": false,
      "taf_trigger": false,
      "metar": "METAR LFSB 192300Z AUTO 31006KT CAVOK 15/10 Q1020 NOSIG",
      "taf": "TAF LFSB 192300Z 2000/2024 34008KT CAVOK"
    },
    {
      "icao": "LGAV",
      "alert": "OK",
      "vis_m": 9999,
      "fzfg": false,
      "metar_trigger": false,
      "taf_trigger": false,
      "metar": "METAR LGAV 192320Z 00000KT CAVOK 24/13 Q1013 NOSIG",
      "taf": "TAF LGAV 192300Z 2000/2024 VRB03KT 9999 FEW025"
    },
    {
      "icao": "LGTS",
      "alert": "OK",
      "vis_m": 9999,
      "fzfg": false,
      "metar_trigger": false,
      "taf_trigger": false,
      "metar": "METAR LGTS 192320Z 09005KT CAVOK 25/18 Q1013 NOSIG",
      "taf": "TAF LGTS 192300Z 2000/2024 VRB03KT 9999 FEW030"
    },
    {
      "icao": "LHBP",
      "alert": "OK",
      "vis_m": 9999,
      "fzfg": false,
      "metar_trigger": false,
      "taf_trigger": false,
      "metar": "METAR LHBP 192300Z 32009KT 9999 FEW065TCU BKN120 BKN160 20/14 Q1016 NOSIG",
      "taf": "TAF LHBP 192315Z 2000/2024 32009KT CAVOK"
    },
    {
      "icao": "LHDC",
      "alert": "OK",
      "vis_m": 9999,
      "fzfg": false,
      "metar_trigger": false,
      "taf_trigger": false,
      "metar": "METAR LHDC 192245Z AUTO 34008KT 310V010 9999 BKN081 //////TCU 22/15 Q1013",
      "taf": "TAF LHDC 192315Z 2000/2009 VRB03KT CAVOK"
    },
    {
      "icao": "LIBD",
      "alert": "OK",
      "vis_m": 9999,
      "fzfg": false,
      "metar_trigger": false,
      "taf_trigger": false,
      "metar": "METAR LIBD 192320Z 29005KT 260V320 CAVOK 27/26 Q1012",
      "taf": "TAF LIBD 192300Z 2000/2024 VRB05KT CAVOK"
    },
    {
      "icao": "LIBG",
      "alert": "OK",
      "vis_m": null,
      "fzfg": false,
      "metar_trigger": false,
      "taf_trigger": false,
      "metar": "",
      "taf": "TAF LIBG 192300Z 2000/2024 VRB05KT CAVOK"
    },
    {
      "icao": "LIBP",
      "alert": "OK",
      "vis_m": 9999,
      "fzfg": false,
      "metar_trigger": false,
      "taf_trigger": false,
      "metar": "METAR LIBP 192320Z AUTO 22004KT 9999 FEW012/// 25/25 Q1013",
      "taf": "TAF LIBP 192300Z 2000/2024 VRB05KT CAVOK"
    },
    {
      "icao": "LIBR",
      "alert": "OK",
      "vis_m": 9999,
      "fzfg": false,
      "metar_trigger": false,
      "taf_trigger": false,
      "metar": "METAR LIBR 192320Z 18003KT CAVOK 28/21 Q1011",
      "taf": "TAF LIBR 192300Z 2000/2024 VRB05KT CAVOK"
    },
    {
      "icao": "LICA",
      "alert": "OK",
      "vis_m": 9999,
      "fzfg": false,
      "metar_trigger": false,
      "taf_trigger": false,
      "metar": "METAR LICA 192320Z AUTO 10003KT 9999 NCD 22/19 Q1013",
      "taf": "TAF LICA 192300Z 2000/2024 VRB05KT CAVOK"
    },
    {
      "icao": "LICC",
      "alert": "OK",
      "vis_m": 9999,
      "fzfg": false,
      "metar_trigger": false,
      "taf_trigger": false,
      "metar": "METAR LICC 192320Z VRB03KT CAVOK 27/16 Q1012",
      "taf": "TAF LICC 192300Z 2000/2024 VRB05KT CAVOK"
    },
    {
      "icao": "LICJ",
      "alert": "OK",
      "vis_m": 9999,
      "fzfg": false,
      "metar_trigger": false,
      "taf_trigger": false,
      "metar": "METAR LICJ 192320Z VRB02KT CAVOK 27/21 Q1013",
      "taf": "TAF LICJ 192300Z 2000/2024 VRB05KT CAVOK"
    },
    {
      "icao": "LIMC",
      "alert": "OK",
      "vis_m": 9999,
      "fzfg": false,
      "metar_trigger": false,
      "taf_trigger": false,
      "metar": "METAR LIMC 192320Z 03005KT CAVOK 25/14 Q1013 NOSIG",
      "taf": "TAF LIMC 192300Z 2000/2106 VRB05KT 9999 FEW050"
    },
    {
      "icao": "LIME",
      "alert": "OK",
      "vis_m": 9999,
      "fzfg": false,
      "metar_trigger": false,
      "taf_trigger": false,
      "metar": "METAR LIME 192320Z 02005KT CAVOK 24/18 Q1013 NOSIG",
      "taf": "TAF LIME 192300Z 2000/2024 VRB05KT 9999 SCT050"
    },
    {
      "icao": "LIMF",
      "alert": "OK",
      "vis_m": 9999,
      "fzfg": false,
      "metar_trigger": false,
      "taf_trigger": false,
      "metar": "METAR LIMF 192320Z 34003KT CAVOK 26/18 Q1013",
      "taf": "TAF LIMF 192300Z 2000/2024 VRB06KT 9999 FEW050"
    },
    {
      "icao": "LIMJ",
      "alert": "OK",
      "vis_m": 9999,
      "fzfg": false,
      "metar_trigger": false,
      "taf_trigger": false,
      "metar": "METAR LIMJ 192320Z AUTO 14010KT 9999 FEW024/// 28/26 Q1012",
      "taf": "TAF LIMJ 192300Z 2000/2024 13012KT 9999 SCT030"
    },
    {
      "icao": "LIPE",
      "alert": "OK",
      "vis_m": 9999,
      "fzfg": false,
      "metar_trigger": false,
      "taf_trigger": false,
      "metar": "METAR LIPE 192320Z 09006KT CAVOK 26/23 Q1012",
      "taf": "TAF LIPE 192300Z 2000/2024 VRB05KT CAVOK"
    },
    {
      "icao": "LIPH",
      "alert": "OK",
      "vis_m": 9999,
      "fzfg": false,
      "metar_trigger": false,
      "taf_trigger": false,
      "metar": "METAR LIPH 192320Z AUTO 05006KT 9999 SCT099/// 25/18 Q1014",
      "taf": "TAF LIPH 192300Z 2000/2024 04007KT 9999 SCT030"
    },
    {
      "icao": "LIPQ",
      "alert": "OK",
      "vis_m": 9999,
      "fzfg": false,
      "metar_trigger": false,
      "taf_trigger": false,
      "metar": "METAR LIPQ 192320Z AUTO 07008KT 040V110 9999 NCD 24/11 Q1015",
      "taf": "TAF LIPQ 192300Z 2000/2024 10013KT CAVOK"
    },
    {
      "icao": "LIPR",
      "alert": "OK",
      "vis_m": 9999,
      "fzfg": false,
      "metar_trigger": false,
      "taf_trigger": false,
      "metar": "METAR LIPR 192320Z AUTO 22005KT 9999 NCD 26/21 Q1012",
      "taf": "TAF LIPR 192300Z 2000/2024 15007KT CAVOK"
    },
    {
      "icao": "LIPX",
      "alert": "OK",
      "vis_m": 9999,
      "fzfg": false,
      "metar_trigger": false,
      "taf_trigger": false,
      "metar": "METAR LIPX 192320Z AUTO 08007KT 9999 BKN130/// 26/21 Q1013",
      "taf": "TAF LIPX 192300Z 2000/2024 10010KT 9999 SCT050"
    },
    {
      "icao": "LIPY",
      "alert": "OK",
      "vis_m": 9999,
      "fzfg": false,
      "metar_trigger": false,
      "taf_trigger": false,
      "metar": "METAR LIPY 192320Z AUTO VRB01KT 9999 NCD 25/21 Q1013",
      "taf": "TAF LIPY 192300Z 2000/2024 VRB05KT CAVOK"
    },
    {
      "icao": "LIPZ",
      "alert": "OK",
      "vis_m": 9999,
      "fzfg": false,
      "metar_trigger": false,
      "taf_trigger": false,
      "metar": "METAR LIPZ 192320Z 05007KT CAVOK 23/21 Q1014 NOSIG",
      "taf": "TAF LIPZ 192300Z 2000/2106 04010KT 9999 FEW030"
    },
    {
      "icao": "LIRF",
      "alert": "OK",
      "vis_m": 9999,
      "fzfg": false,
      "metar_trigger": false,
      "taf_trigger": false,
      "metar": "METAR LIRF 192320Z 07003KT CAVOK 25/23 Q1013 NOSIG",
      "taf": "TAF LIRF 192300Z 2000/2106 VRB04KT CAVOK"
    },
    {
      "icao": "LIRN",
      "alert": "OK",
      "vis_m": 9999,
      "fzfg": false,
      "metar_trigger": false,
      "taf_trigger": false,
      "metar": "METAR LIRN 192320Z 06002KT CAVOK 27/24 Q1014 NOSIG",
      "taf": "TAF LIRN 192300Z 2000/2024 VRB05KT CAVOK"
    },
    {
      "icao": "LIRP",
      "alert": "OK",
      "vis_m": 9999,
      "fzfg": false,
      "metar_trigger": false,
      "taf_trigger": false,
      "metar": "METAR LIRP 192315Z 16004KT CAVOK 23/21 Q1013 NOSIG",
      "taf": "TAF LIRP 192300Z 2000/2024 10005KT 9999 FEW030"
    },
    {
      "icao": "LIRZ",
      "alert": "OK",
      "vis_m": 9999,
      "fzfg": false,
      "metar_trigger": false,
      "taf_trigger": false,
      "metar": "METAR LIRZ 192320Z AUTO 02005KT 9999 NCD 24/17 Q1014",
      "taf": "TAF LIRZ 192300Z 2000/2024 VRB05KT CAVOK"
    },
    {
      "icao": "LJLJ",
      "alert": "OK",
      "vis_m": 9999,
      "fzfg": false,
      "metar_trigger": false,
      "taf_trigger": false,
      "metar": "METAR LJLJ 192300Z VRB01KT 9999 FEW070 15/14 Q1020 NOSIG",
      "taf": "TAF LJLJ 192300Z 2000/2100 VRB02KT 9999 FEW010"
    },
    {
      "icao": "LKMT",
      "alert": "OK",
      "vis_m": 9999,
      "fzfg": false,
      "metar_trigger": false,
      "taf_trigger": false,
      "metar": "METAR LKMT 192300Z 14004KT 9999 FEW027 15/14 Q1018 NOSIG",
      "taf": "TAF LKMT 192300Z 2000/2024 22006KT CAVOK"
    },
    {
      "icao": "LKPR",
      "alert": "OK",
      "vis_m": 9999,
      "fzfg": false,
      "metar_trigger": false,
      "taf_trigger": false,
      "metar": "METAR LKPR 192300Z 29004KT CAVOK 12/09 Q1019 NOSIG",
      "taf": "TAF LKPR 192300Z 2000/2106 28008KT CAVOK"
    },
    {
      "icao": "LLBG",
      "alert": "OK",
      "vis_m": 9999,
      "fzfg": false,
      "metar_trigger": false,
      "taf_trigger": false,
      "metar": "METAR LLBG 192320Z VRB01KT CAVOK 26/22 Q1009 NOSIG",
      "taf": "TAF LLBG 192302Z 2000/2024 VRB04KT CAVOK TX35/2010Z TN23/2003Z"
    },
    {
      "icao": "LMML",
      "alert": "OK",
      "vis_m": 9999,
      "fzfg": false,
      "metar_trigger": false,
      "taf_trigger": false,
      "metar": "METAR LMML 192315Z 25003KT 230V290 CAVOK 29/11 Q1014 NOSIG",
      "taf": "TAF LMML 192300Z 2000/2024 29008KT CAVOK"
    },
    {
      "icao": "LOWW",
      "alert": "OK",
      "vis_m": 9999,
      "fzfg": false,
      "metar_trigger": false,
      "taf_trigger": false,
      "metar": "METAR LOWW 192320Z 31005KT CAVOK 17/13 Q1018 NOSIG",
      "taf": "TAF LOWW 192315Z 2000/2106 31010KT CAVOK TX25/2014Z TN13/2003Z"
    },
    {
      "icao": "LPFR",
      "alert": "OK",
      "vis_m": 9999,
      "fzfg": false,
      "metar_trigger": false,
      "taf_trigger": false,
      "metar": "METAR LPFR 192300Z 33010KT CAVOK 23/15 Q1015",
      "taf": "TAF LPFR 192300Z 2000/2024 31008KT CAVOK"
    },
    {
      "icao": "LPMA",
      "alert": "OK",
      "vis_m": 9999,
      "fzfg": false,
      "metar_trigger": false,
      "taf_trigger": false,
      "metar": "METAR LPMA 192300Z 02007KT 330V080 9999 FEW015 23/18 Q1021",
      "taf": "TAF LPMA 192300Z 2000/2024 02010KT 9999 SCT015"
    },
    {
      "icao": "LPPR",
      "alert": "OK",
      "vis_m": 9999,
      "fzfg": false,
      "metar_trigger": false,
      "taf_trigger": false,
      "metar": "METAR LPPR 192300Z 23004KT 180V280 9999 BKN014 21/18 Q1015",
      "taf": "TAF LPPR 192300Z 2000/2024 19005KT 9999 BKN012"
    },
    {
      "icao": "LPPS",
      "alert": "OK",
      "vis_m": 9999,
      "fzfg": false,
      "metar_trigger": false,
      "taf_trigger": false,
      "metar": "METAR LPPS 192300Z 03010KT 9999 SCT014 22/18 Q1021",
      "taf": "TAF LPPS 192300Z 2000/2106 02010KT 9999 SCT015"
    },
    {
      "icao": "LPPT",
      "alert": "OK",
      "vis_m": 9999,
      "fzfg": false,
      "metar_trigger": false,
      "taf_trigger": false,
      "metar": "METAR LPPT 192300Z 29007KT 260V340 9999 FEW016 20/18 Q1017 NOSIG",
      "taf": "TAF LPPT 192300Z 2000/2106 31010KT 9999 SCT015"
    },
    {
      "icao": "LQBK",
      "alert": "OK",
      "vis_m": 9999,
      "fzfg": false,
      "metar_trigger": false,
      "taf_trigger": false,
      "metar": "METAR LQBK 192300Z VRB03KT CAVOK 19/15 Q1019 NOSIG",
      "taf": "TAF LQBK 192300Z 2000/2024 20005KT CAVOK TX26/2013Z TN16/2003Z"
    },
    {
      "icao": "LQSA",
      "alert": "OK",
      "vis_m": 9999,
      "fzfg": false,
      "metar_trigger": false,
      "taf_trigger": false,
      "metar": "METAR LQSA 192300Z 31010KT 9999 FEW030 22/16 Q1018",
      "taf": "TAF LQSA 192300Z 2000/2024 VRB02KT CAVOK TX28/2014Z TN17/2003Z"
    },
    {
      "icao": "LQTZ",
      "alert": "OK",
      "vis_m": 9999,
      "fzfg": false,
      "metar_trigger": false,
      "taf_trigger": false,
      "metar": "METAR LQTZ 192300Z 30004KT 9999 BKN071 18/18 Q1019",
      "taf": "TAF LQTZ 192300Z 2000/2024 27005KT 9999 SCT040 TX24/2013Z TN16/2003Z"
    },
    {
      "icao": "LRBC",
      "alert": "OK",
      "vis_m": 9999,
      "fzfg": false,
      "metar_trigger": false,
      "taf_trigger": false,
      "metar": "METAR LRBC 192300Z AUTO 25005KT 220V300 9999 SCT110/// 19/18 Q1013",
      "taf": "TAF LRBC 192300Z 2000/2009 VRB04KT CAVOK"
    },
    {
      "icao": "LRBS",
      "alert": "OK",
      "vis_m": 9999,
      "fzfg": false,
      "metar_trigger": false,
      "taf_trigger": false,
      "metar": "METAR LRBS 192300Z 07002KT CAVOK 21/19 Q1013 NOSIG",
      "taf": "TAF LRBS 192300Z 2000/2024 VRB04KT CAVOK"
    },
    {
      "icao": "LRBV",
      "alert": "OK",
      "vis_m": 550,
      "fzfg": false,
      "metar_trigger": false,
      "taf_trigger": false,
      "metar": "METAR LRBV 192300Z AUTO 00000KT 0550 0500 R21/0800N FG VV002 16/16 Q1016",
      "taf": "TAF LRBV 191700Z 1918/2003 12005KT CAVOK"
    },
    {
      "icao": "LRCL",
      "alert": "OK",
      "vis_m": 9999,
      "fzfg": false,
      "metar_trigger": false,
      "taf_trigger": false,
      "metar": "METAR LRCL 192300Z 27003KT 250V310 CAVOK 20/17 Q1014",
      "taf": "TAF LRCL 192300Z 2000/2009 VRB04KT 9999 SCT050"
    },
    {
      "icao": "LRCV",
      "alert": "OK",
      "vis_m": 9999,
      "fzfg": false,
      "metar_trigger": false,
      "taf_trigger": false,
      "metar": "METAR LRCV 192300Z 02004KT CAVOK 21/21 Q1013",
      "taf": "TAF LRCV 192300Z 2000/2009 07010KT CAVOK"
    },
    {
      "icao": "LRIA",
      "alert": "OK",
      "vis_m": 9999,
      "fzfg": false,
      "metar_trigger": false,
      "taf_trigger": false,
      "metar": "METAR LRIA 192300Z VRB02KT CAVOK 19/18 Q1013",
      "taf": "TAF LRIA 192300Z 2000/2009 20007KT 9999 SCT045"
    },
    {
      "icao": "LROP",
      "alert": "OK",
      "vis_m": 9999,
      "fzfg": false,
      "metar_trigger": false,
      "taf_trigger": false,
      "metar": "METAR LROP 192300Z 00000KT CAVOK 22/20 Q1013 NOSIG",
      "taf": "TAF LROP 192300Z 2000/2024 VRB04KT CAVOK"
    },
    {
      "icao": "LRSB",
      "alert": "OK",
      "vis_m": 8000,
      "fzfg": false,
      "metar_trigger": false,
      "taf_trigger": false,
      "metar": "METAR LRSB 192300Z COR VRB01KT 8000 MIFG NSC 17/17 Q1014",
      "taf": "TAF LRSB 192300Z 2000/2024 VRB04KT CAVOK"
    },
    {
      "icao": "LRSM",
      "alert": "OK",
      "vis_m": 9999,
      "fzfg": false,
      "metar_trigger": false,
      "taf_trigger": false,
      "metar": "METAR LRSM 192300Z AUTO 09004KT 050V120 9999 BKN160/// 20/18 Q1012",
      "taf": ""
    },
    {
      "icao": "LRSV",
      "alert": "OK",
      "vis_m": 9999,
      "fzfg": false,
      "metar_trigger": false,
      "taf_trigger": false,
      "metar": "METAR LRSV 192300Z 33005KT CAVOK 18/17 Q1014",
      "taf": "TAF LRSV 192300Z 2000/2009 VRB04KT 5000 BR NSC"
    },
    {
      "icao": "LRTM",
      "alert": "OK",
      "vis_m": 9999,
      "fzfg": false,
      "metar_trigger": false,
      "taf_trigger": false,
      "metar": "METAR LRTM 192300Z 09004KT CAVOK 18/17 Q1014",
      "taf": "TAF LRTM 192300Z 2000/2009 VRB04KT 9999 SCT050"
    },
    {
      "icao": "LRTR",
      "alert": "OK",
      "vis_m": 9999,
      "fzfg": false,
      "metar_trigger": false,
      "taf_trigger": false,
      "metar": "METAR LRTR 192300Z 33009KT 9999 FEW045CB 22/17 Q1013",
      "taf": "TAF LRTR 192300Z 2000/2024 VRB04KT 9999 FEW045"
    },
    {
      "icao": "LTAC",
      "alert": "OK",
      "vis_m": 9999,
      "fzfg": false,
      "metar_trigger": false,
      "taf_trigger": false,
      "metar": "METAR LTAC 192320Z 05010KT CAVOK 21/11 Q1016 NOSIG RMK RWY21C 05008KT RWY03L 04008KT RWY21R 02010KT RWY03R 03007KT RWY21L 04008KT",
      "taf": "TAF LTAC 192240Z 2000/2024 VRB02KT CAVOK"
    },
    {
      "icao": "LTFM",
      "alert": "OK",
      "vis_m": 9999,
      "fzfg": false,
      "metar_trigger": false,
      "taf_trigger": false,
      "metar": "METAR LTFM 192320Z 09008KT CAVOK 24/19 Q1013 NOSIG RMK RWY17L 10006KT RWY34L 07007KT RWY16R 08006KT RWY36 10005KT 050V110 RWY18 11004KT",
      "taf": "TAF LTFM 192240Z 2000/2106 VRB02KT CAVOK"
    },
    {
      "icao": "LUKK",
      "alert": "OK",
      "vis_m": 9999,
      "fzfg": false,
      "metar_trigger": false,
      "taf_trigger": false,
      "metar": "METAR LUKK 192300Z VRB01KT CAVOK 21/21 Q1013 NOSIG",
      "taf": "TAF LUKK 192306Z 2000/2024 VRB06KT CAVOK"
    },
    {
      "icao": "LWOH",
      "alert": "OK",
      "vis_m": 9999,
      "fzfg": false,
      "metar_trigger": false,
      "taf_trigger": false,
      "metar": "METAR LWOH 192320Z 32004KT CAVOK 16/12 Q1018",
      "taf": "TAF LWOH 192330Z 2000/2024 34005KT CAVOK"
    },
    {
      "icao": "LWSK",
      "alert": "OK",
      "vis_m": 9999,
      "fzfg": false,
      "metar_trigger": false,
      "taf_trigger": false,
      "metar": "METAR LWSK 192320Z 02003KT CAVOK 23/15 Q1014 NOSIG",
      "taf": "TAF LWSK 192330Z 2000/2024 VRB02KT CAVOK"
    },
    {
      "icao": "LYBE",
      "alert": "OK",
      "vis_m": 9999,
      "fzfg": false,
      "metar_trigger": false,
      "taf_trigger": false,
      "metar": "METAR LYBE 192300Z 24013KT 9999 SCT040 20/16 Q1016 NOSIG",
      "taf": "TAF LYBE 192300Z 2000/2024 29008KT 9999 SCT040 TX28/2014Z TN19/2003Z"
    },
    {
      "icao": "LYNI",
      "alert": "OK",
      "vis_m": 9999,
      "fzfg": false,
      "metar_trigger": false,
      "taf_trigger": false,
      "metar": "METAR LYNI 192300Z 31004KT 290V350 CAVOK 24/18 Q1013 BECMG 32015KT",
      "taf": "TAF LYNI 192300Z 2000/2024 32015KT 9999 SCT050 TX30/2013Z TN19/2003Z"
    },
    {
      "icao": "LYPG",
      "alert": "OK",
      "vis_m": 9999,
      "fzfg": false,
      "metar_trigger": false,
      "taf_trigger": false,
      "metar": "METAR LYPG 192300Z 35006KT CAVOK 27/17 Q1013 NOSIG",
      "taf": "TAF LYPG 192300Z 2000/2024 36005KT CAVOK TX37/2013Z TN23/2003Z"
    },
    {
      "icao": "LZIB",
      "alert": "OK",
      "vis_m": 9999,
      "fzfg": false,
      "metar_trigger": false,
      "taf_trigger": false,
      "metar": "METAR LZIB 192300Z 31004KT 9999 FEW048 17/13 Q1018 NOSIG",
      "taf": "TAF LZIB 192315Z 2000/2100 30007KT CAVOK"
    },
    {
      "icao": "LZKZ",
      "alert": "OK",
      "vis_m": 9999,
      "fzfg": false,
      "metar_trigger": false,
      "taf_trigger": false,
      "metar": "METAR LZKZ 192300Z 03007KT CAVOK 17/15 Q1014 NOSIG",
      "taf": "TAF LZKZ 192315Z 2000/2100 03007KT CAVOK"
    },
    {
      "icao": "LZTT",
      "alert": "OK",
      "vis_m": 9999,
      "fzfg": false,
      "metar_trigger": false,
      "taf_trigger": false,
      "metar": "METAR LZTT 192300Z 29012KT 9999 FEW013 BKN026 14/13 Q1016",
      "taf": "TAF LZTT 192315Z 2000/2100 29009KT 9999 FEW013 BKN026"
    },
    {
      "icao": "OEJN",
      "alert": "OK",
      "vis_m": 9999,
      "fzfg": false,
      "metar_trigger": false,
      "taf_trigger": false,
      "metar": "METAR OEJN 192300Z 35004KT CAVOK 32/18 Q1003 NOSIG",
      "taf": "TAF OEJN 192300Z 2000/2106 02006KT 9999 FEW040"
    },
    {
      "icao": "OEMA",
      "alert": "OK",
      "vis_m": 9999,
      "fzfg": false,
      "metar_trigger": false,
      "taf_trigger": false,
      "metar": "METAR OEMA 192300Z 29014KT 9999 FEW045 36/01 Q1010 NOSIG",
      "taf": "TAF OEMA 192300Z 2000/2106 28006KT 9999 FEW045"
    },
    {
      "icao": "OJAI",
      "alert": "OK",
      "vis_m": 5000,
      "fzfg": false,
      "metar_trigger": false,
      "taf_trigger": false,
      "metar": "METAR OJAI 192300Z 33006KT 5000 HZ NSC 21/11 Q1014 NOSIG",
      "taf": "TAF OJAI 192300Z 2000/2106 29010KT 5000 HZ NSC"
    },
    {
      "icao": "OMAA",
      "alert": "OK",
      "vis_m": 9999,
      "fzfg": false,
      "metar_trigger": false,
      "taf_trigger": false,
      "metar": "METAR OMAA 192300Z 11003KT CAVOK 33/27 Q0997 NOSIG",
      "taf": "TAF OMAA 192300Z 2000/2106 13005KT 8000 NSC"
    },
    {
      "icao": "OMDB",
      "alert": "OK",
      "vis_m": 9999,
      "fzfg": false,
      "metar_trigger": false,
      "taf_trigger": false,
      "metar": "METAR OMDB 192300Z 12004KT 080V150 CAVOK 35/21 Q0997 NOSIG",
      "taf": "TAF OMDB 192300Z 2000/2106 15005KT 8000 NSC"
    },
    {
      "icao": "UAAA",
      "alert": "OK",
      "vis_m": 9999,
      "fzfg": false,
      "metar_trigger": false,
      "taf_trigger": false,
      "metar": "METAR UAAA 192300Z 00000MPS 9999 FEW100 23/08 Q1003 NOSIG",
      "taf": "TAF UAAA 192301Z 2000/2024 24003G08MPS 9999 FEW050CB SCT100 TX41/2010Z TN23/2000Z"
    },
    {
      "icao": "UBBB",
      "alert": "OK",
      "vis_m": 9999,
      "fzfg": false,
      "metar_trigger": false,
      "taf_trigger": false,
      "metar": "SPECI UBBB 192310Z 33020G30KT 9999 FEW060CB 25/21 Q1010 NOSIG",
      "taf": "TAF UBBB 192259Z 2000/2024 33022G32KT 9999 FEW015 TX28/2010Z TN24/2001Z"
    },
    {
      "icao": "UDSG",
      "alert": "OK",
      "vis_m": 9999,
      "fzfg": false,
      "metar_trigger": false,
      "taf_trigger": false,
      "metar": "METAR UDSG 192300Z 03007KT 9999 SCT049 16/13 Q1019 NOSIG",
      "taf": "TAF UDSG 192300Z 2000/2024 03006KT 9999 SCT050"
    },
    {
      "icao": "UDYZ",
      "alert": "OK",
      "vis_m": 9999,
      "fzfg": false,
      "metar_trigger": false,
      "taf_trigger": false,
      "metar": "METAR UDYZ 192300Z 25005KT 9999 FEW043 23/14 Q1012 NOSIG",
      "taf": "TAF UDYZ 192300Z 2000/2024 16004KT 9999 FEW040"
    },
    {
      "icao": "UGKO",
      "alert": "OK",
      "vis_m": 9999,
      "fzfg": false,
      "metar_trigger": false,
      "taf_trigger": false,
      "metar": "METAR UGKO 192300Z VRB02KT 9999 SCT025 BKN064 21/20 Q1014 NOSIG",
      "taf": "TAF UGKO 192300Z 2000/2024 26006KT 9999 SCT030 BKN060 TX29/2012Z TN19/2002Z"
    }
  ]
}