{
  "ts_utc": "2026-01-21T04:05:01Z",
  "threshold_m": 150,
  "source": "stations_override.txt (ICAO list) + aviationweather.gov (METAR/TAF raw)",
  "station_count": 159,
  "stations": [
    {
      "icao": "BIKF",
      "alert": "OK",
      "vis_m": 9999,
      "fzfg": false,
      "metar_trigger": false,
      "taf_trigger": false,
      "metar": "METAR BIKF 210400Z 05008KT CAVOK 02/M00 Q1000",
      "taf": "TAF BIKF 210103Z 2103/2203 05012KT 9999 FEW020 BKN045 TX05/2116Z TN02/2103Z"
    },
    {
      "icao": "BKPR",
      "alert": "OK",
      "vis_m": 9999,
      "fzfg": false,
      "metar_trigger": false,
      "taf_trigger": false,
      "metar": "METAR BKPR 210400Z 28003KT 9999 FEW079 M00/M06 Q1018 NOSIG",
      "taf": "TAF BKPR 202330Z 2100/2124 13008KT SCT030 SCT070"
    },
    {
      "icao": "EBCI",
      "alert": "OK",
      "vis_m": 9999,
      "fzfg": false,
      "metar_trigger": false,
      "taf_trigger": false,
      "metar": "METAR EBCI 210350Z 17009KT 9999 BKN047 06/00 Q1005 NOSIG",
      "taf": "TAF EBCI 202310Z 2100/2206 15009KT 9999 SCT040"
    },
    {
      "icao": "EDDB",
      "alert": "OK",
      "vis_m": 9999,
      "fzfg": false,
      "metar_trigger": false,
      "taf_trigger": false,
      "metar": "METAR EDDB 210350Z AUTO 13006KT CAVOK M06/M08 Q1013 NOSIG",
      "taf": "TAF EDDB 202300Z 2100/2124 12005KT CAVOK"
    },
    {
      "icao": "EDDH",
      "alert": "OK",
      "vis_m": 9999,
      "fzfg": false,
      "metar_trigger": false,
      "taf_trigger": false,
      "metar": "METAR EDDH 210350Z AUTO 09005KT CAVOK M04/M06 Q1011 NOSIG",
      "taf": "TAF EDDH 202300Z 2100/2206 10006KT CAVOK"
    },
    {
      "icao": "EDDK",
      "alert": "OK",
      "vis_m": 9999,
      "fzfg": false,
      "metar_trigger": false,
      "taf_trigger": false,
      "metar": "METAR EDDK 210350Z AUTO 13011KT 100V160 CAVOK 02/M03 Q1009 NOSIG",
      "taf": "TAF EDDK 202300Z 2100/2206 12009KT CAVOK"
    },
    {
      "icao": "EDDN",
      "alert": "OK",
      "vis_m": 9999,
      "fzfg": false,
      "metar_trigger": false,
      "taf_trigger": false,
      "metar": "METAR EDDN 210350Z AUTO 10005KT CAVOK M07/M10 Q1013",
      "taf": "TAF EDDN 202300Z 2100/2124 11006KT CAVOK"
    },
    {
      "icao": "EDDS",
      "alert": "OK",
      "vis_m": 4600,
      "fzfg": false,
      "metar_trigger": false,
      "taf_trigger": false,
      "metar": "METAR EDDS 210350Z AUTO VRB02KT 4600 1200 R07/1600D BR NCD M05/M06 Q1010",
      "taf": "TAF EDDS 202300Z 2100/2124 VRB03KT CAVOK"
    },
    {
      "icao": "EDFH",
      "alert": "OK",
      "vis_m": 3700,
      "fzfg": false,
      "metar_trigger": false,
      "taf_trigger": false,
      "metar": "METAR EDFH 210350Z 13008KT 090V160 3700 BR NSC M03/M03 Q1008",
      "taf": ""
    },
    {
      "icao": "EDJA",
      "alert": "OK",
      "vis_m": 7000,
      "fzfg": false,
      "metar_trigger": false,
      "taf_trigger": false,
      "metar": "METAR EDJA 210350Z AUTO 14002KT 7000 // FEW140/// M05/M06 Q1010",
      "taf": "TAF EDJA 210200Z 2103/2112 VRB02KT 1200 BCFG NSC"
    },
    {
      "icao": "EDLW",
      "alert": "OK",
      "vis_m": 9999,
      "fzfg": false,
      "metar_trigger": false,
      "taf_trigger": false,
      "metar": "METAR EDLW 210350Z AUTO 14006KT 110V170 9999 // NCD 05/M03 Q1008",
      "taf": "TAF EDLW 201700Z 2018/2118 14005KT CAVOK"
    },
    {
      "icao": "EDNY",
      "alert": "OK",
      "vis_m": 500,
      "fzfg": true,
      "metar_trigger": false,
      "taf_trigger": false,
      "metar": "METAR EDNY 210350Z AUTO VRB01KT 0500 0400 R24/0900N // VV/// M03/M03 Q1012",
      "taf": "TAF EDNY 210200Z 2103/2112 VRB02KT 0500 FZFG VV001"
    },
    {
      "icao": "EDSB",
      "alert": "OK",
      "vis_m": 600,
      "fzfg": true,
      "metar_trigger": false,
      "taf_trigger": false,
      "metar": "METAR EDSB 210350Z COR VRB01KT 0600 R21/1200U FZFG VV/// M01/M02 Q1012",
      "taf": "TAF EDSB 202300Z 2100/2124 VRB03KT 0600 FZFG VV003"
    },
    {
      "icao": "EETN",
      "alert": "OK",
      "vis_m": 2200,
      "fzfg": false,
      "metar_trigger": false,
      "taf_trigger": false,
      "metar": "METAR EETN 210350Z 09004KT 2200 BR BKN003 OVC008 M03/M03 Q1022 TEMPO 1200",
      "taf": "TAF EETN 202330Z 2100/2124 VRB02KT 5000 BR OVC006"
    },
    {
      "icao": "EFTU",
      "alert": "OK",
      "vis_m": 9999,
      "fzfg": false,
      "metar_trigger": false,
      "taf_trigger": false,
      "metar": "METAR EFTU 210350Z AUTO 08006KT 9999 -SHSN OVC011 M02/M03 Q1023",
      "taf": ""
    },
    {
      "icao": "EGBB",
      "alert": "OK",
      "vis_m": 9999,
      "fzfg": false,
      "metar_trigger": false,
      "taf_trigger": false,
      "metar": "METAR EGBB 210320Z 16008KT 9999 FEW029 04/03 Q0994",
      "taf": "TAF EGBB 202258Z 2100/2124 14017KT 9999 BKN020"
    },
    {
      "icao": "EGGP",
      "alert": "OK",
      "vis_m": 9999,
      "fzfg": false,
      "metar_trigger": false,
      "taf_trigger": false,
      "metar": "METAR EGGP 210350Z AUTO 17006KT 9999 NCD 04/03 Q0992",
      "taf": ""
    },
    {
      "icao": "EGGW",
      "alert": "OK",
      "vis_m": 9999,
      "fzfg": false,
      "metar_trigger": false,
      "taf_trigger": false,
      "metar": "METAR EGGW 210350Z AUTO 18006KT 150V210 9999 NCD 04/03 Q0996",
      "taf": "TAF EGGW 202258Z 2100/2124 17012KT 9999 BKN020"
    },
    {
      "icao": "EGKK",
      "alert": "OK",
      "vis_m": 9999,
      "fzfg": false,
      "metar_trigger": false,
      "taf_trigger": false,
      "metar": "METAR EGKK 210350Z 17003KT 110V220 9999 SCT016 SCT022 07/05 Q0997",
      "taf": "TAF EGKK 202256Z 2100/2206 15009KT 9999 SCT020"
    },
    {
      "icao": "EGNM",
      "alert": "OK",
      "vis_m": null,
      "fzfg": false,
      "metar_trigger": false,
      "taf_trigger": false,
      "metar": "",
      "taf": "TAF EGNM 201704Z 2018/2118 13015G25KT 9999 BKN015"
    },
    {
      "icao": "EGPD",
      "alert": "OK",
      "vis_m": 8000,
      "fzfg": false,
      "metar_trigger": false,
      "taf_trigger": false,
      "metar": "METAR EGPD 210350Z AUTO 12016KT 8000 BKN007 OVC011 07/05 Q0997 TEMPO BKN006",
      "taf": "TAF EGPD 202255Z 2100/2124 13018G32KT 9999 SCT012 BKN020"
    },
    {
      "icao": "EGPF",
      "alert": "OK",
      "vis_m": 9999,
      "fzfg": false,
      "metar_trigger": false,
      "taf_trigger": false,
      "metar": "METAR EGPF 210350Z AUTO 08010KT 9999 -RA OVC022/// //////TCU 06/05 Q0992",
      "taf": "TAF EGPF 202302Z 2100/2124 11015G28KT 9999 SCT035"
    },
    {
      "icao": "EHBK",
      "alert": "OK",
      "vis_m": 9999,
      "fzfg": false,
      "metar_trigger": false,
      "taf_trigger": false,
      "metar": "METAR EHBK 210355Z AUTO 16005KT 9999 NSC 05/00 Q1007",
      "taf": "TAF EHBK 202320Z 2100/2206 17006KT CAVOK"
    },
    {
      "icao": "EHEH",
      "alert": "OK",
      "vis_m": 9999,
      "fzfg": false,
      "metar_trigger": false,
      "taf_trigger": false,
      "metar": "METAR EHEH 210355Z AUTO 13006KT 9999 FEW082 OVC088 02/00 Q1006 BLU",
      "taf": "TAF EHEH 202326Z 2100/2206 13006KT CAVOK"
    },
    {
      "icao": "EKBI",
      "alert": "OK",
      "vis_m": 9000,
      "fzfg": false,
      "metar_trigger": false,
      "taf_trigger": false,
      "metar": "METAR EKBI 210350Z AUTO 08017KT 9000 BKN010/// M00/M02 Q1013",
      "taf": "TAF EKBI 210227Z 2103/2203 08010KT 7000 BKN010"
    },
    {
      "icao": "EKCH",
      "alert": "OK",
      "vis_m": 8000,
      "fzfg": false,
      "metar_trigger": false,
      "taf_trigger": false,
      "metar": "METAR EKCH 210350Z AUTO 06007KT 8000 NCD M02/M03 Q1016 NOSIG",
      "taf": "TAF EKCH 210227Z 2103/2203 07010KT 8000 NSC"
    },
    {
      "icao": "ENAL",
      "alert": "OK",
      "vis_m": 9999,
      "fzfg": false,
      "metar_trigger": false,
      "taf_trigger": false,
      "metar": "METAR ENAL 210350Z AUTO 14008KT 9999 NCD 02/M00 Q1015",
      "taf": "TAF ENAL 210200Z 2103/2112 13012KT 9999 FEW025"
    },
    {
      "icao": "ENBR",
      "alert": "OK",
      "vis_m": 9999,
      "fzfg": false,
      "metar_trigger": false,
      "taf_trigger": false,
      "metar": "METAR ENBR 210350Z AUTO VRB01KT 9999 NCD M01/M02 Q1012 RMK WIND 1200FT 19005KT",
      "taf": "TAF ENBR 202300Z 2100/2124 08005KT CAVOK"
    },
    {
      "icao": "ENGM",
      "alert": "OK",
      "vis_m": 9999,
      "fzfg": false,
      "metar_trigger": false,
      "taf_trigger": false,
      "metar": "METAR ENGM 210350Z 02005KT 9999 OVC015 M04/M06 Q1022",
      "taf": "TAF ENGM 202300Z 2100/2124 02008KT 9999 OVC012"
    },
    {
      "icao": "ENHD",
      "alert": "OK",
      "vis_m": 9999,
      "fzfg": false,
      "metar_trigger": false,
      "taf_trigger": false,
      "metar": "METAR ENHD 210350Z AUTO 18004KT 9999 NCD M02/M03 Q1013",
      "taf": "TAF ENHD 210200Z 2103/2112 17005KT CAVOK"
    },
    {
      "icao": "ENTC",
      "alert": "OK",
      "vis_m": 9999,
      "fzfg": false,
      "metar_trigger": false,
      "taf_trigger": false,
      "metar": "METAR ENTC 210350Z AUTO 15002KT 9999 NCD M08/M09 Q1026 RMK WIND 2600FT 12007KT",
      "taf": ""
    },
    {
      "icao": "ENTO",
      "alert": "OK",
      "vis_m": 9999,
      "fzfg": false,
      "metar_trigger": false,
      "taf_trigger": false,
      "metar": "METAR ENTO 210350Z AUTO 03008KT 9999 OVC012/// M04/M06 Q1021",
      "taf": "TAF ENTO 202300Z 2100/2124 03010KT 9999 OVC012"
    },
    {
      "icao": "ENVA",
      "alert": "OK",
      "vis_m": 9999,
      "fzfg": false,
      "metar_trigger": false,
      "taf_trigger": false,
      "metar": "METAR ENVA 210350Z AUTO 09008KT 9999 NCD M03/M07 Q1021 RMK WIND 670FT 12014KT",
      "taf": "TAF ENVA 202300Z 2100/2124 09008KT CAVOK"
    },
    {
      "icao": "ENZV",
      "alert": "OK",
      "vis_m": 9999,
      "fzfg": false,
      "metar_trigger": false,
      "taf_trigger": false,
      "metar": "METAR ENZV 210350Z AUTO VRB01KT 9999 NCD M02/M03 Q1013",
      "taf": "TAF ENZV 202300Z 2100/2124 10005KT CAVOK"
    },
    {
      "icao": "EPGD",
      "alert": "OK",
      "vis_m": 2500,
      "fzfg": false,
      "metar_trigger": false,
      "taf_trigger": false,
      "metar": "METAR EPGD 210400Z 25002KT 2500 MIFG BR NSC M15/M16 Q1016",
      "taf": "TAF EPGD 202330Z 2100/2124 VRB02KT 1200 BR NSC"
    },
    {
      "icao": "EPKK",
      "alert": "OK",
      "vis_m": 2700,
      "fzfg": false,
      "metar_trigger": false,
      "taf_trigger": false,
      "metar": "METAR EPKK 210400Z VRB01KT 2700 BR NSC M13/M15 Q1018",
      "taf": "TAF EPKK 210230Z 2103/2203 VRB02KT 3000 BR NSC"
    },
    {
      "icao": "EPKT",
      "alert": "OK",
      "vis_m": 3800,
      "fzfg": false,
      "metar_trigger": false,
      "taf_trigger": false,
      "metar": "METAR EPKT 210400Z 02001KT 3800 BR NSC M13/M15 Q1017",
      "taf": "TAF EPKT 202330Z 2100/2124 11004KT 6000 NSC"
    },
    {
      "icao": "EPLB",
      "alert": "OK",
      "vis_m": 9000,
      "fzfg": false,
      "metar_trigger": false,
      "taf_trigger": false,
      "metar": "METAR EPLB 210400Z VRB01KT 9000 3600E NSC M11/M12 Q1019",
      "taf": ""
    },
    {
      "icao": "EPMO",
      "alert": "OK",
      "vis_m": 4200,
      "fzfg": false,
      "metar_trigger": false,
      "taf_trigger": false,
      "metar": "METAR EPMO 210400Z 10003KT 040V140 4200 BR NSC M12/M13 Q1018",
      "taf": "TAF EPMO 202330Z 2100/2124 12004KT 3000 BR NSC"
    },
    {
      "icao": "EPPO",
      "alert": "OK",
      "vis_m": 9999,
      "fzfg": false,
      "metar_trigger": false,
      "taf_trigger": false,
      "metar": "METAR EPPO 210400Z 14003KT CAVOK M08/M10 Q1015",
      "taf": "TAF EPPO 202330Z 2100/2124 13005KT CAVOK"
    },
    {
      "icao": "EPRA",
      "alert": "OK",
      "vis_m": 8000,
      "fzfg": false,
      "metar_trigger": false,
      "taf_trigger": false,
      "metar": "METAR EPRA 210400Z 13004KT 8000 NSC M11/M13 Q1018",
      "taf": "TAF EPRA 210230Z 2103/2112 15006KT 8000 NSC"
    },
    {
      "icao": "EPRZ",
      "alert": "OK",
      "vis_m": 6000,
      "fzfg": false,
      "metar_trigger": false,
      "taf_trigger": false,
      "metar": "METAR EPRZ 210400Z VRB01KT 6000 NSC M12/M14 Q1019",
      "taf": "TAF EPRZ 202330Z 2100/2124 20006KT 6000 NSC"
    },
    {
      "icao": "EPSC",
      "alert": "OK",
      "vis_m": 9999,
      "fzfg": false,
      "metar_trigger": false,
      "taf_trigger": false,
      "metar": "METAR EPSC 210400Z 12006KT CAVOK M07/M09 Q1015",
      "taf": "TAF EPSC 202330Z 2100/2124 13005KT CAVOK"
    },
    {
      "icao": "EPSY",
      "alert": "OK",
      "vis_m": 2600,
      "fzfg": false,
      "metar_trigger": false,
      "taf_trigger": false,
      "metar": "METAR EPSY 210400Z 00000KT 2600 BR NSC M17/M18 Q1018",
      "taf": "TAF EPSY 210230Z 2103/2112 VRB02KT 3000 BR NSC"
    },
    {
      "icao": "EPWA",
      "alert": "OK",
      "vis_m": 4900,
      "fzfg": false,
      "metar_trigger": false,
      "taf_trigger": false,
      "metar": "METAR EPWA 210400Z 13003KT 4900 BR NSC M13/M14 Q1019 TEMPO 3000 BR",
      "taf": "TAF EPWA 210230Z 2103/2203 13005KT 7000 NSC"
    },
    {
      "icao": "EPWR",
      "alert": "OK",
      "vis_m": 9999,
      "fzfg": false,
      "metar_trigger": false,
      "taf_trigger": false,
      "metar": "METAR EPWR 210400Z 12006KT CAVOK M04/M09 Q1015",
      "taf": "TAF EPWR 210230Z 2103/2203 18010KT CAVOK"
    },
    {
      "icao": "ESGG",
      "alert": "OK",
      "vis_m": 9999,
      "fzfg": false,
      "metar_trigger": false,
      "taf_trigger": false,
      "metar": "METAR ESGG 210350Z 07011KT 9999 OVC009 M03/M04 Q1017",
      "taf": "TAF ESGG 210230Z 2103/2203 07010KT 9000 OVC004"
    },
    {
      "icao": "ESKN",
      "alert": "OK",
      "vis_m": 9999,
      "fzfg": false,
      "metar_trigger": false,
      "taf_trigger": false,
      "metar": "METAR ESKN 210350Z 01006KT 340V040 9999 BKN008 M02/M03 Q1019",
      "taf": "TAF ESKN 210230Z 2103/2203 36007KT 9999 OVC012"
    },
    {
      "icao": "ESMS",
      "alert": "OK",
      "vis_m": 7000,
      "fzfg": false,
      "metar_trigger": false,
      "taf_trigger": false,
      "metar": "METAR ESMS 210350Z 04003KT 7000 NSC M03/M04 Q1015",
      "taf": "TAF ESMS 210227Z 2103/2203 07008KT 8000 NSC"
    },
    {
      "icao": "ESSA",
      "alert": "OK",
      "vis_m": 9999,
      "fzfg": false,
      "metar_trigger": false,
      "taf_trigger": false,
      "metar": "METAR ESSA 210350Z 03006KT 9999 FEW007 OVC019 M02/M03 Q1021 NOSIG",
      "taf": "TAF ESSA 210230Z 2103/2203 03008KT 9999 OVC020"
    },
    {
      "icao": "EYKA",
      "alert": "OK",
      "vis_m": 3400,
      "fzfg": false,
      "metar_trigger": false,
      "taf_trigger": false,
      "metar": "METAR EYKA 210350Z 15002KT 3400 BR BKN003 BKN007 M16/M18 Q1019",
      "taf": "TAF EYKA 202300Z 2100/2124 VRB03KT 3000 BR NSC"
    },
    {
      "icao": "EYPA",
      "alert": "OK",
      "vis_m": 6000,
      "fzfg": false,
      "metar_trigger": false,
      "taf_trigger": false,
      "metar": "METAR EYPA 210350Z 11007KT 6000 OVC007 M09/M12 Q1018",
      "taf": ""
    },
    {
      "icao": "EYVI",
      "alert": "OK",
      "vis_m": 3500,
      "fzfg": false,
      "metar_trigger": false,
      "taf_trigger": false,
      "metar": "METAR EYVI 210350Z 17005KT 3500 BR NSC M15/M17 Q1018 NOSIG",
      "taf": "TAF EYVI 202300Z 2100/2124 VRB04KT 3000 BR NSC"
    },
    {
      "icao": "GCFV",
      "alert": "OK",
      "vis_m": 9999,
      "fzfg": false,
      "metar_trigger": false,
      "taf_trigger": false,
      "metar": "METAR GCFV 210330Z AUTO 33008KT CAVOK 15/09 Q1022",
      "taf": "TAF GCFV 210200Z 2103/2203 30005KT 9999 SCT035 TX21/2114Z TN14/2106Z"
    },
    {
      "icao": "GCLP",
      "alert": "OK",
      "vis_m": 9999,
      "fzfg": false,
      "metar_trigger": false,
      "taf_trigger": false,
      "metar": "METAR GCLP 210330Z 36013KT 9999 BKN035 16/12 Q1023 NOSIG",
      "taf": "TAF GCLP 210200Z 2103/2203 33008KT 9999 BKN025 TX21/2114Z TN14/2106Z"
    },
    {
      "icao": "GCTS",
      "alert": "OK",
      "vis_m": 9999,
      "fzfg": false,
      "metar_trigger": false,
      "taf_trigger": false,
      "metar": "METAR GCTS 210330Z 02007KT 9999 SCT040 15/08 Q1023 NOSIG",
      "taf": "TAF GCTS 210200Z 2103/2203 36005KT 9999 FEW035 TX22/2114Z TN14/2106Z"
    },
    {
      "icao": "GMAD",
      "alert": "OK",
      "vis_m": 9999,
      "fzfg": false,
      "metar_trigger": false,
      "taf_trigger": false,
      "metar": "METAR GMAD 210400Z 06005KT CAVOK 08/08 Q1019 NOSIG",
      "taf": "TAF GMAD 202300Z 2100/2206 05003KT"
    },
    {
      "icao": "GMMN",
      "alert": "OK",
      "vis_m": 8000,
      "fzfg": false,
      "metar_trigger": false,
      "taf_trigger": false,
      "metar": "METAR GMMN 210400Z 19008KT 8000 BKN023 08/07 Q1019 NOSIG",
      "taf": "TAF GMMN 202300Z 2100/2206 20005KT 8000 BKN034"
    },
    {
      "icao": "GMMX",
      "alert": "OK",
      "vis_m": 8000,
      "fzfg": false,
      "metar_trigger": false,
      "taf_trigger": false,
      "metar": "METAR GMMX 210400Z VRB02KT 8000 NSC 06/04 Q1020 NOSIG",
      "taf": "TAF GMMX 202300Z 2100/2206 28006KT 8000 SCT026"
    },
    {
      "icao": "HEGN",
      "alert": "OK",
      "vis_m": 9999,
      "fzfg": false,
      "metar_trigger": false,
      "taf_trigger": false,
      "metar": "METAR HEGN 210300Z 30008KT CAVOK 12/03 Q1019 NOSIG",
      "taf": "TAF HEGN 202300Z 2100/2206 30012KT CAVOK"
    },
    {
      "icao": "HEMA",
      "alert": "OK",
      "vis_m": 9999,
      "fzfg": false,
      "metar_trigger": false,
      "taf_trigger": false,
      "metar": "METAR HEMA 210300Z 29011KT CAVOK 16/11 Q1017 NOSIG",
      "taf": "TAF HEMA 202300Z 2100/2206 29012KT CAVOK"
    },
    {
      "icao": "HESH",
      "alert": "OK",
      "vis_m": 9999,
      "fzfg": false,
      "metar_trigger": false,
      "taf_trigger": false,
      "metar": "METAR HESH 210300Z 35012KT CAVOK 16/06 Q1018 NOSIG",
      "taf": "TAF HESH 202300Z 2100/2206 34010KT CAVOK"
    },
    {
      "icao": "HESX",
      "alert": "OK",
      "vis_m": 9999,
      "fzfg": false,
      "metar_trigger": false,
      "taf_trigger": false,
      "metar": "METAR HESX 210300Z 08017KT CAVOK 11/04 Q1018 NOSIG",
      "taf": "TAF HESX 202300Z 2100/2206 07014KT 6000 NSC"
    },
    {
      "icao": "LATI",
      "alert": "OK",
      "vis_m": 9999,
      "fzfg": false,
      "metar_trigger": false,
      "taf_trigger": false,
      "metar": "METAR LATI 210350Z 24004KT 210V280 9999 -RA FEW028 OVC051 06/02 Q1014 NOSIG",
      "taf": "TAF LATI 202300Z 2100/2124 VRB05KT 9999 OVC080 TX11/2112Z TN04/2101Z"
    },
    {
      "icao": "LBPD",
      "alert": "OK",
      "vis_m": 9999,
      "fzfg": false,
      "metar_trigger": false,
      "taf_trigger": false,
      "metar": "METAR LBPD 210400Z AUTO 32004KT 9999 BKN210/// BKN240/// M06/M06 Q1027 NOSIG",
      "taf": "TAF LBPD 202300Z 2100/2124 VRB03KT 9999 SCT040 BKN070"
    },
    {
      "icao": "LBSF",
      "alert": "OK",
      "vis_m": 9999,
      "fzfg": false,
      "metar_trigger": false,
      "taf_trigger": false,
      "metar": "METAR LBSF 210400Z AUTO 11010KT 9999 NSC M04/M07 Q1023 NOSIG",
      "taf": "TAF LBSF 202300Z 2100/2124 11012KT 9999 SCT060"
    },
    {
      "icao": "LBWN",
      "alert": "OK",
      "vis_m": 9999,
      "fzfg": false,
      "metar_trigger": false,
      "taf_trigger": false,
      "metar": "METAR LBWN 210400Z AUTO VRB02KT 9999 OVC021/// M05/M05 Q1027 NOSIG",
      "taf": "TAF LBWN 202300Z 2100/2124 VRB03KT 5000 BR BKN012"
    },
    {
      "icao": "LCLK",
      "alert": "OK",
      "vis_m": 9999,
      "fzfg": false,
      "metar_trigger": false,
      "taf_trigger": false,
      "metar": "METAR LCLK 210400Z 36008KT CAVOK 06/02 Q1025 NOSIG",
      "taf": "TAF LCLK 202330Z 2100/2200 32008KT CAVOK"
    },
    {
      "icao": "LCPH",
      "alert": "OK",
      "vis_m": 9999,
      "fzfg": false,
      "metar_trigger": false,
      "taf_trigger": false,
      "metar": "METAR LCPH 210400Z 07007KT 010V080 9999 FEW030 06/M03 Q1024 NOSIG",
      "taf": "TAF LCPH 202330Z 2100/2200 06008KT CAVOK"
    },
    {
      "icao": "LEAL",
      "alert": "OK",
      "vis_m": 9999,
      "fzfg": false,
      "metar_trigger": false,
      "taf_trigger": false,
      "metar": "METAR LEAL 210330Z 30013KT 9999 BKN045 11/06 Q1011 NOSIG",
      "taf": "TAF LEAL 202300Z 2100/2124 33009KT 9999 BKN050 TX19/2113Z TN10/2106Z"
    },
    {
      "icao": "LEBB",
      "alert": "OK",
      "vis_m": 9999,
      "fzfg": false,
      "metar_trigger": false,
      "taf_trigger": false,
      "metar": "METAR LEBB 210330Z AUTO 15011G21KT 110V210 CAVOK 13/05 Q1004",
      "taf": "TAF LEBB 202300Z 2100/2124 20009KT 9999 FEW060 TX14/2115Z TN09/2124Z"
    },
    {
      "icao": "LEBL",
      "alert": "OK",
      "vis_m": 9999,
      "fzfg": false,
      "metar_trigger": false,
      "taf_trigger": false,
      "metar": "METAR LEBL 210330Z 34005KT 9999 FEW025 SCT040 11/10 Q1011 NOSIG",
      "taf": "TAF LEBL 202300Z 2100/2124 35007KT 9999 BKN020 TX14/2113Z TN08/2106Z"
    },
    {
      "icao": "LECH",
      "alert": "OK",
      "vis_m": 9999,
      "fzfg": false,
      "metar_trigger": false,
      "taf_trigger": false,
      "metar": "METAR LECH 210330Z AUTO 03006KT 360V060 9999 FEW020 OVC034 08/06 Q1012",
      "taf": ""
    },
    {
      "icao": "LEMD",
      "alert": "OK",
      "vis_m": 9999,
      "fzfg": false,
      "metar_trigger": false,
      "taf_trigger": false,
      "metar": "METAR LEMD 210330Z 00000KT CAVOK M02/M02 Q1013 NOSIG",
      "taf": "TAF LEMD 202300Z 2100/2206 VRB03KT CAVOK TX08/2114Z TNM02/2106Z"
    },
    {
      "icao": "LEMG",
      "alert": "OK",
      "vis_m": 9999,
      "fzfg": false,
      "metar_trigger": false,
      "taf_trigger": false,
      "metar": "METAR LEMG 210330Z 29016KT CAVOK 10/03 Q1015 NOSIG",
      "taf": "TAF LEMG 202300Z 2100/2124 30012KT CAVOK TX17/2114Z TN08/2107Z"
    },
    {
      "icao": "LEVC",
      "alert": "OK",
      "vis_m": 9999,
      "fzfg": false,
      "metar_trigger": false,
      "taf_trigger": false,
      "metar": "METAR LEVC 210330Z 28004KT 9999 OVC023 09/08 Q1013 NOSIG",
      "taf": "TAF LEVC 202300Z 2100/2124 30007KT 9999 BKN030 OVC035 TX15/2113Z TN09/2106Z"
    },
    {
      "icao": "LEXJ",
      "alert": "OK",
      "vis_m": 9999,
      "fzfg": false,
      "metar_trigger": false,
      "taf_trigger": false,
      "metar": "METAR LEXJ 210330Z AUTO 21022G41KT 170V250 CAVOK 14/05 Q1002",
      "taf": "TAF LEXJ 210200Z 2103/2203 22009KT 9999 SCT040 TX15/2115Z TN09/2103Z"
    },
    {
      "icao": "LEZG",
      "alert": "OK",
      "vis_m": 9999,
      "fzfg": false,
      "metar_trigger": false,
      "taf_trigger": false,
      "metar": "METAR LEZG 210330Z 09005KT CAVOK 03/01 Q1012 NOSIG",
      "taf": "TAF LEZG 202300Z 2100/2124 VRB04KT 9999 FEW040 TX14/2115Z TN05/2106Z"
    },
    {
      "icao": "LEZL",
      "alert": "OK",
      "vis_m": 7000,
      "fzfg": false,
      "metar_trigger": false,
      "taf_trigger": false,
      "metar": "METAR LEZL 210330Z AUTO 15004KT 7000 NSC 07/06 Q1017",
      "taf": "TAF LEZL 210200Z 2103/2203 VRB03KT CAVOK TX15/2115Z TN05/2107Z"
    },
    {
      "icao": "LFBD",
      "alert": "OK",
      "vis_m": 9999,
      "fzfg": false,
      "metar_trigger": false,
      "taf_trigger": false,
      "metar": "METAR LFBD 210400Z AUTO 16008KT CAVOK 06/04 Q1005 NOSIG",
      "taf": "TAF LFBD 202300Z 2100/2206 16010KT CAVOK TX14/2114Z TN05/2102Z"
    },
    {
      "icao": "LFLL",
      "alert": "OK",
      "vis_m": 5000,
      "fzfg": false,
      "metar_trigger": false,
      "taf_trigger": false,
      "metar": "METAR LFLL 210400Z 12005KT 090V150 5000 BR NSC 00/00 Q1010 NOSIG",
      "taf": ""
    },
    {
      "icao": "LFLS",
      "alert": "OK",
      "vis_m": 9999,
      "fzfg": false,
      "metar_trigger": false,
      "taf_trigger": false,
      "metar": "METAR LFLS 210400Z AUTO 09009KT CAVOK 01/M01 Q1010 NOSIG",
      "taf": "TAF LFLS 210200Z 2103/2203 09005KT CAVOK"
    },
    {
      "icao": "LFMN",
      "alert": "OK",
      "vis_m": 9999,
      "fzfg": false,
      "metar_trigger": false,
      "taf_trigger": false,
      "metar": "METAR LFMN 210400Z 34011KT CAVOK 06/M00 Q1011 NOSIG",
      "taf": "TAF LFMN 210200Z 2103/2209 33010KT CAVOK"
    },
    {
      "icao": "LFOB",
      "alert": "OK",
      "vis_m": 9999,
      "fzfg": false,
      "metar_trigger": false,
      "taf_trigger": false,
      "metar": "METAR LFOB 210400Z AUTO 16012KT 9999 -RA SCT026/// SCT037/// BKN044/// ///TCU 08/07 Q1002 TEMPO 4500 -RA BKN013 OVC045",
      "taf": "TAF LFOB 202300Z 2100/2124 14010G20KT 9999 OVC045"
    },
    {
      "icao": "LFPO",
      "alert": "OK",
      "vis_m": 9999,
      "fzfg": false,
      "metar_trigger": false,
      "taf_trigger": false,
      "metar": "METAR LFPO 210400Z 17008KT CAVOK 09/05 Q1003 NOSIG",
      "taf": "TAF LFPO 202300Z 2100/2206 16010KT CAVOK"
    },
    {
      "icao": "LFSB",
      "alert": "OK",
      "vis_m": 9999,
      "fzfg": false,
      "metar_trigger": false,
      "taf_trigger": false,
      "metar": "METAR LFSB 210400Z AUTO 19005KT CAVOK M01/M02 Q1011 NOSIG",
      "taf": ""
    },
    {
      "icao": "LGAV",
      "alert": "OK",
      "vis_m": 9999,
      "fzfg": false,
      "metar_trigger": false,
      "taf_trigger": false,
      "metar": "METAR LGAV 210350Z 04007KT 010V080 9999 DZ FEW025 BKN035 09/05 Q1019 NOSIG",
      "taf": "TAF LGAV 202300Z 2100/2124 06018KT 9999 FEW018 BKN025"
    },
    {
      "icao": "LGTS",
      "alert": "OK",
      "vis_m": 9999,
      "fzfg": false,
      "metar_trigger": false,
      "taf_trigger": false,
      "metar": "METAR LGTS 210350Z VRB03KT 9999 -RA FEW012 BKN025 05/01 Q1024 NOSIG",
      "taf": "TAF LGTS 202300Z 2100/2124 11010KT 9999 FEW010 BKN025"
    },
    {
      "icao": "LHBP",
      "alert": "OK",
      "vis_m": 5000,
      "fzfg": false,
      "metar_trigger": false,
      "taf_trigger": false,
      "metar": "METAR LHBP 210400Z 00000KT 5000 BR NSC M13/M15 Q1022 NOSIG",
      "taf": "TAF LHBP 202315Z 2100/2124 VRB03KT 6000 NSC"
    },
    {
      "icao": "LHDC",
      "alert": "OK",
      "vis_m": 4400,
      "fzfg": false,
      "metar_trigger": false,
      "taf_trigger": false,
      "metar": "METAR LHDC 210245Z AUTO 06004KT 4400 BR NCD M10/M11 Q1024",
      "taf": ""
    },
    {
      "icao": "LIBD",
      "alert": "OK",
      "vis_m": 9999,
      "fzfg": false,
      "metar_trigger": false,
      "taf_trigger": false,
      "metar": "METAR LIBD 210350Z 15005KT 9999 -RA BKN040 06/05 Q1013",
      "taf": "TAF LIBD 202300Z 2100/2124 12008KT CAVOK"
    },
    {
      "icao": "LIBG",
      "alert": "OK",
      "vis_m": null,
      "fzfg": false,
      "metar_trigger": false,
      "taf_trigger": false,
      "metar": "",
      "taf": "TAF LIBG 201700Z 2018/2103 12007KT CAVOK"
    },
    {
      "icao": "LIBP",
      "alert": "OK",
      "vis_m": 5000,
      "fzfg": false,
      "metar_trigger": false,
      "taf_trigger": false,
      "metar": "METAR LIBP 210350Z AUTO 01003KT 310V040 5000 -RA OVC036/// 06/06 Q1013 REDZ",
      "taf": "TAF LIBP 202300Z 2100/2124 VRB05KT 9999 FEW050"
    },
    {
      "icao": "LIBR",
      "alert": "OK",
      "vis_m": 8000,
      "fzfg": false,
      "metar_trigger": false,
      "taf_trigger": false,
      "metar": "METAR LIBR 210350Z 09010KT 8000 BKN025 08/04 Q1012",
      "taf": "TAF LIBR 202300Z 2100/2124 VRB05KT 9999 SCT040"
    },
    {
      "icao": "LICA",
      "alert": "OK",
      "vis_m": 9999,
      "fzfg": false,
      "metar_trigger": false,
      "taf_trigger": false,
      "metar": "METAR LICA 210350Z AUTO 06023G34KT 9999 -DZRA OVC036/// 11/06 Q1003",
      "taf": "TAF LICA 202300Z 2100/2124 08025G48KT 7000 RA BKN040"
    },
    {
      "icao": "LICC",
      "alert": "OK",
      "vis_m": 4000,
      "fzfg": false,
      "metar_trigger": false,
      "taf_trigger": false,
      "metar": "METAR LICC 210350Z 07025KT 4000 -DZ BR BKN010 OVC030 13/12 Q0998",
      "taf": "TAF LICC 202300Z 2100/2124 08030G48KT 4000 RA OVC010"
    },
    {
      "icao": "LICJ",
      "alert": "OK",
      "vis_m": 9999,
      "fzfg": false,
      "metar_trigger": false,
      "taf_trigger": false,
      "metar": "METAR LICJ 210350Z 07026G37KT 9999 -RA BKN025 12/08 Q0999",
      "taf": "TAF LICJ 202300Z 2100/2124 08033G50KT 8000 BKN030"
    },
    {
      "icao": "LIMC",
      "alert": "OK",
      "vis_m": 7000,
      "fzfg": false,
      "metar_trigger": false,
      "taf_trigger": false,
      "metar": "METAR LIMC 210350Z 00000KT 7000 BCFG NSC M01/M02 Q1015 NOSIG",
      "taf": "TAF LIMC 202300Z 2100/2206 VRB04KT 9999 SCT080"
    },
    {
      "icao": "LIME",
      "alert": "OK",
      "vis_m": 9999,
      "fzfg": false,
      "metar_trigger": false,
      "taf_trigger": false,
      "metar": "METAR LIME 210350Z 02003KT CAVOK M02/M03 Q1014 NOSIG",
      "taf": "TAF LIME 202300Z 2100/2124 VRB04KT CAVOK"
    },
    {
      "icao": "LIMF",
      "alert": "OK",
      "vis_m": 5000,
      "fzfg": false,
      "metar_trigger": false,
      "taf_trigger": false,
      "metar": "METAR LIMF 210350Z 30003KT 5000 BR NSC M01/M03 Q1015",
      "taf": "TAF LIMF 202300Z 2100/2124 VRB04KT 9999 SCT060"
    },
    {
      "icao": "LIMJ",
      "alert": "OK",
      "vis_m": 9999,
      "fzfg": false,
      "metar_trigger": false,
      "taf_trigger": false,
      "metar": "METAR LIMJ 210350Z AUTO 04019KT 9999 NCD 06/M04 Q1012",
      "taf": "TAF LIMJ 202300Z 2100/2124 02015KT CAVOK"
    },
    {
      "icao": "LIPE",
      "alert": "OK",
      "vis_m": 9999,
      "fzfg": false,
      "metar_trigger": false,
      "taf_trigger": false,
      "metar": "METAR LIPE 210350Z 25004KT CAVOK M01/M02 Q1016",
      "taf": "TAF LIPE 202300Z 2100/2124 VRB05KT 9999 FEW040"
    },
    {
      "icao": "LIPH",
      "alert": "OK",
      "vis_m": 9999,
      "fzfg": false,
      "metar_trigger": false,
      "taf_trigger": false,
      "metar": "METAR LIPH 210350Z AUTO 33002KT 9999 NCD M04/M06 Q1015",
      "taf": "TAF LIPH 202300Z 2100/2124 VRB05KT CAVOK"
    },
    {
      "icao": "LIPQ",
      "alert": "OK",
      "vis_m": 9999,
      "fzfg": false,
      "metar_trigger": false,
      "taf_trigger": false,
      "metar": "METAR LIPQ 210350Z AUTO 07005KT 040V100 9999 NCD M01/M09 Q1015",
      "taf": "TAF LIPQ 202300Z 2100/2124 09007KT CAVOK"
    },
    {
      "icao": "LIPR",
      "alert": "OK",
      "vis_m": 9999,
      "fzfg": false,
      "metar_trigger": false,
      "taf_trigger": false,
      "metar": "METAR LIPR 210350Z AUTO 30010KT 9999 OVC022/// 03/M02 Q1015",
      "taf": "TAF LIPR 202300Z 2100/2124 30010KT 9999 SCT040"
    },
    {
      "icao": "LIPX",
      "alert": "OK",
      "vis_m": 9999,
      "fzfg": false,
      "metar_trigger": false,
      "taf_trigger": false,
      "metar": "METAR LIPX 210320Z 27002KT CAVOK M03/M04 Q1015",
      "taf": "TAF LIPX 202300Z 2100/2124 VRB04KT CAVOK"
    },
    {
      "icao": "LIPY",
      "alert": "OK",
      "vis_m": 9999,
      "fzfg": false,
      "metar_trigger": false,
      "taf_trigger": false,
      "metar": "METAR LIPY 210350Z AUTO 25004KT 210V300 9999 BKN037/// OVC060/// 04/02 Q1014",
      "taf": "TAF LIPY 202300Z 2100/2124 32008KT 9999 BKN020"
    },
    {
      "icao": "LIPZ",
      "alert": "OK",
      "vis_m": 9999,
      "fzfg": false,
      "metar_trigger": false,
      "taf_trigger": false,
      "metar": "METAR LIPZ 210350Z 36006KT CAVOK M02/M07 Q1015 NOSIG",
      "taf": "TAF LIPZ 202300Z 2100/2206 02007KT CAVOK"
    },
    {
      "icao": "LIRF",
      "alert": "OK",
      "vis_m": 9999,
      "fzfg": false,
      "metar_trigger": false,
      "taf_trigger": false,
      "metar": "METAR LIRF 210350Z 36006KT CAVOK 07/00 Q1008 NOSIG",
      "taf": "TAF LIRF 202300Z 2100/2206 03010KT 9999 SCT055"
    },
    {
      "icao": "LIRN",
      "alert": "OK",
      "vis_m": 9999,
      "fzfg": false,
      "metar_trigger": false,
      "taf_trigger": false,
      "metar": "METAR LIRN 210350Z 04013KT 9999 BKN060 07/03 Q1007 NOSIG",
      "taf": "TAF LIRN 202300Z 2100/2124 05016G28KT 9999 BKN060"
    },
    {
      "icao": "LIRP",
      "alert": "OK",
      "vis_m": 9999,
      "fzfg": false,
      "metar_trigger": false,
      "taf_trigger": false,
      "metar": "METAR LIRP 210345Z 06008KT CAVOK 07/M01 Q1013 NOSIG",
      "taf": "TAF LIRP 202300Z 2100/2124 08015KT CAVOK"
    },
    {
      "icao": "LIRZ",
      "alert": "OK",
      "vis_m": 9999,
      "fzfg": false,
      "metar_trigger": false,
      "taf_trigger": false,
      "metar": "METAR LIRZ 210350Z AUTO 04009KT 9999 NCD 07/00 Q1010",
      "taf": "TAF LIRZ 202300Z 2100/2124 06013KT 9999 FEW070"
    },
    {
      "icao": "LJLJ",
      "alert": "OK",
      "vis_m": 8000,
      "fzfg": false,
      "metar_trigger": false,
      "taf_trigger": false,
      "metar": "METAR LJLJ 210330Z 16004KT 8000 OVC015 M05/M08 Q1019 NOSIG",
      "taf": "TAF LJLJ 202300Z 2100/2200 12003KT 9999 OVC015"
    },
    {
      "icao": "LKMT",
      "alert": "OK",
      "vis_m": 9999,
      "fzfg": false,
      "metar_trigger": false,
      "taf_trigger": false,
      "metar": "METAR LKMT 210400Z 24013KT CAVOK M05/M08 Q1018 NOSIG",
      "taf": "TAF LKMT 202300Z 2100/2124 23014KT CAVOK"
    },
    {
      "icao": "LKPR",
      "alert": "OK",
      "vis_m": 9999,
      "fzfg": false,
      "metar_trigger": false,
      "taf_trigger": false,
      "metar": "METAR LKPR 210400Z 15004KT 130V190 9999 OVC010 M07/M08 Q1015 NOSIG",
      "taf": "TAF LKPR 210200Z 2103/2209 13005KT 9999 OVC011"
    },
    {
      "icao": "LLBG",
      "alert": "OK",
      "vis_m": 9999,
      "fzfg": false,
      "metar_trigger": false,
      "taf_trigger": false,
      "metar": "METAR LLBG 210350Z 04004KT CAVOK 08/03 Q1022 NOSIG RMK SCT150",
      "taf": "TAF LLBG 202317Z 2100/2124 VRB04KT CAVOK"
    },
    {
      "icao": "LMML",
      "alert": "OK",
      "vis_m": 9999,
      "fzfg": false,
      "metar_trigger": false,
      "taf_trigger": false,
      "metar": "METAR LMML 210345Z 21006KT 9999 FEW019 12/10 Q1000 NOSIG",
      "taf": "TAF LMML 202300Z 2100/2124 23015KT 9999 SCT015"
    },
    {
      "icao": "LOWW",
      "alert": "OK",
      "vis_m": 7000,
      "fzfg": false,
      "metar_trigger": false,
      "taf_trigger": false,
      "metar": "METAR LOWW 210350Z 15016KT 7000 FEW005 BKN006 M06/M07 Q1019 NOSIG",
      "taf": "TAF LOWW 210215Z 2103/2209 14013KT 9999 FEW008 BKN010 TXM05/2114Z TNM07/2205Z"
    },
    {
      "icao": "LPFR",
      "alert": "OK",
      "vis_m": 9999,
      "fzfg": false,
      "metar_trigger": false,
      "taf_trigger": false,
      "metar": "METAR LPFR 210330Z 24011KT 9999 FEW022 BKN035 15/11 Q1016",
      "taf": "TAF LPFR 202230Z 2100/2124 VRB05KT 9999 SCT020"
    },
    {
      "icao": "LPMA",
      "alert": "OK",
      "vis_m": 9999,
      "fzfg": false,
      "metar_trigger": false,
      "taf_trigger": false,
      "metar": "METAR LPMA 210330Z 26006KT 9999 FEW015 15/08 Q1022",
      "taf": "TAF LPMA 202230Z 2100/2124 VRB05KT 9999 SCT015"
    },
    {
      "icao": "LPPR",
      "alert": "OK",
      "vis_m": 4000,
      "fzfg": false,
      "metar_trigger": false,
      "taf_trigger": false,
      "metar": "METAR LPPR 210330Z 18021KT 4000 -RA BR BKN005 12/11 Q1006 RERA",
      "taf": "TAF LPPR 202230Z 2100/2124 19012KT 8000 -RA SCT008 BKN025"
    },
    {
      "icao": "LPPS",
      "alert": "OK",
      "vis_m": 9999,
      "fzfg": false,
      "metar_trigger": false,
      "taf_trigger": false,
      "metar": "METAR LPPS 210330Z 29015KT 9999 FEW014 16/11 Q1022",
      "taf": "TAF LPPS 202230Z 2100/2206 30012KT 9999 SCT015"
    },
    {
      "icao": "LPPT",
      "alert": "OK",
      "vis_m": 5000,
      "fzfg": false,
      "metar_trigger": false,
      "taf_trigger": false,
      "metar": "METAR LPPT 210330Z 20014KT 5000 -RA BR FEW004 BKN006 12/12 Q1011",
      "taf": "TAF LPPT 202230Z 2100/2206 21008KT 9999 SCT015"
    },
    {
      "icao": "LQBK",
      "alert": "OK",
      "vis_m": 7000,
      "fzfg": false,
      "metar_trigger": false,
      "taf_trigger": false,
      "metar": "METAR LQBK 210400Z 05003KT 7000 OVC017 M03/M05 Q1021 NOSIG",
      "taf": "TAF LQBK 202300Z 2100/2124 VRB02KT 9999 BKN020 TXM01/2113Z TNM05/2106Z"
    },
    {
      "icao": "LQSA",
      "alert": "OK",
      "vis_m": 3000,
      "fzfg": false,
      "metar_trigger": false,
      "taf_trigger": false,
      "metar": "METAR LQSA 210400Z 00000KT 3000 BR BKN008 M07/M07 Q1017",
      "taf": "TAF LQSA 202300Z 2100/2124 VRB02KT 8000 NSC TXM00/2113Z TNM09/2106Z"
    },
    {
      "icao": "LQTZ",
      "alert": "OK",
      "vis_m": 3000,
      "fzfg": false,
      "metar_trigger": false,
      "taf_trigger": false,
      "metar": "METAR LQTZ 210400Z 00000KT 3000 BR OVC004 M05/M05 Q1020",
      "taf": "TAF LQTZ 202300Z 2100/2124 VRB02KT 3000 BR BKN010 TXM01/2114Z TNM08/2101Z"
    },
    {
      "icao": "LRBC",
      "alert": "OK",
      "vis_m": 650,
      "fzfg": true,
      "metar_trigger": false,
      "taf_trigger": false,
      "metar": "METAR LRBC 210330Z 18005KT 0650 R16/0750N FZFG VV001 M07/M09 Q1025",
      "taf": "TAF LRBC 210200Z 2103/2112 17009KT 0600 FZFG VV002"
    },
    {
      "icao": "LRBS",
      "alert": "OK",
      "vis_m": 3000,
      "fzfg": false,
      "metar_trigger": false,
      "taf_trigger": false,
      "metar": "METAR LRBS 210330Z VRB02KT 3000 BR NSC M11/M12 Q1027 NOSIG",
      "taf": "TAF LRBS 202300Z 2100/2124 VRB04KT 1500 BR NSC"
    },
    {
      "icao": "LRBV",
      "alert": "OK",
      "vis_m": 450,
      "fzfg": false,
      "metar_trigger": false,
      "taf_trigger": false,
      "metar": "METAR LRBV 210330Z AUTO VRB02KT 0450 0400 R21/P2000N VV001 M12/M13 Q1024",
      "taf": "TAF LRBV 210200Z 2103/2112 VRB04KT 3000 BR NSC"
    },
    {
      "icao": "LRCL",
      "alert": "OK",
      "vis_m": 200,
      "fzfg": true,
      "metar_trigger": false,
      "taf_trigger": false,
      "metar": "METAR LRCL 210330Z 00000KT 0200 R25/0225N FZFG VV002 M16/M17 Q1025",
      "taf": "TAF LRCL 210200Z 2103/2112 VRB04KT 1500 BR BKN003"
    },
    {
      "icao": "LRCV",
      "alert": "OK",
      "vis_m": 3500,
      "fzfg": false,
      "metar_trigger": false,
      "taf_trigger": false,
      "metar": "METAR LRCV 210330Z 02004KT 3500 BR NSC M09/M09 Q1025",
      "taf": "TAF LRCV 210200Z 2103/2112 VRB04KT 3000 BR NSC"
    },
    {
      "icao": "LRIA",
      "alert": "OK",
      "vis_m": 150,
      "fzfg": true,
      "metar_trigger": false,
      "taf_trigger": false,
      "metar": "METAR LRIA 210330Z 08006KT 0150 R14/0650D FZFG VV001 M11/M13 Q1025",
      "taf": "TAF LRIA 210200Z 2103/2112 VRB04KT 1500 BR NSC"
    },
    {
      "icao": "LROP",
      "alert": "OK",
      "vis_m": 2300,
      "fzfg": false,
      "metar_trigger": false,
      "taf_trigger": false,
      "metar": "METAR LROP 210330Z 01003KT 2300 BR NSC M11/M13 Q1027 TEMPO 1500 BR",
      "taf": "TAF LROP 202300Z 2100/2124 VRB04KT 1500 BR NSC"
    },
    {
      "icao": "LRSB",
      "alert": "OK",
      "vis_m": 400,
      "fzfg": true,
      "metar_trigger": false,
      "taf_trigger": false,
      "metar": "METAR LRSB 210330Z 23002KT 0400 R27/1100U FZFG SCT001 M15/M16 Q1023",
      "taf": ""
    },
    {
      "icao": "LRSM",
      "alert": "OK",
      "vis_m": 6000,
      "fzfg": false,
      "metar_trigger": false,
      "taf_trigger": false,
      "metar": "METAR LRSM 210330Z AUTO 08003KT 6000 NCD M13/M15 Q1023",
      "taf": "TAF LRSM 210200Z 2103/2112 05006KT 5000 BR NSC"
    },
    {
      "icao": "LRSV",
      "alert": "OK",
      "vis_m": 5000,
      "fzfg": false,
      "metar_trigger": false,
      "taf_trigger": false,
      "metar": "METAR LRSV 210330Z 19006KT 5000 BR NSC M10/M10 Q1021",
      "taf": "TAF LRSV 210200Z 2103/2112 VRB04KT 5000 BR NSC"
    },
    {
      "icao": "LRTM",
      "alert": "OK",
      "vis_m": 200,
      "fzfg": true,
      "metar_trigger": false,
      "taf_trigger": false,
      "metar": "METAR LRTM 210330Z AUTO 07003KT 0200 R07/0300N FZFG BKN000/// OVC002/// M15/M17 Q1025",
      "taf": "TAF LRTM 210200Z 2103/2112 VRB04KT 0200 FZFG VV001"
    },
    {
      "icao": "LRTR",
      "alert": "OK",
      "vis_m": 9999,
      "fzfg": false,
      "metar_trigger": false,
      "taf_trigger": false,
      "metar": "METAR LRTR 210330Z 11003KT CAVOK M08/M09 Q1022",
      "taf": "TAF LRTR 202300Z 2100/2124 11008KT CAVOK"
    },
    {
      "icao": "LTAC",
      "alert": "OK",
      "vis_m": 9999,
      "fzfg": false,
      "metar_trigger": false,
      "taf_trigger": false,
      "metar": "METAR LTAC 210350Z VRB01KT CAVOK M10/M13 Q1027 NOSIG RMK RWY21C 35002KT RWY03L 35001KT RWY21R VRB02KT RWY03R 00000KT RWY21L 00000KT",
      "taf": "TAF LTAC 202240Z 2100/2124 VRB02KT CAVOK"
    },
    {
      "icao": "LTFM",
      "alert": "OK",
      "vis_m": 9999,
      "fzfg": false,
      "metar_trigger": false,
      "taf_trigger": false,
      "metar": "METAR LTFM 210350Z 10011KT 9999 FEW035 03/00 Q1025 NOSIG RMK RWY17L 11009KT RWY34L 09012KT RWY16R 11007KT RWY36 11008KT 060V120 RWY18 11009KT",
      "taf": "TAF LTFM 202240Z 2100/2206 10006KT 9999 SCT035"
    },
    {
      "icao": "LUKK",
      "alert": "OK",
      "vis_m": 5000,
      "fzfg": true,
      "metar_trigger": false,
      "taf_trigger": false,
      "metar": "METAR LUKK 210400Z VRB04KT 5000 BR SCT005 M15/M16 Q1026 TEMPO 0600 FZFG VV///",
      "taf": "TAF LUKK 202319Z 2100/2124 VRB04KT 3000 BR NSC"
    },
    {
      "icao": "LWOH",
      "alert": "OK",
      "vis_m": null,
      "fzfg": false,
      "metar_trigger": false,
      "taf_trigger": false,
      "metar": "",
      "taf": "TAF LWOH 210225Z 2103/2203 03010KT 9999 SCT035 BKN070"
    },
    {
      "icao": "LWSK",
      "alert": "OK",
      "vis_m": 9999,
      "fzfg": false,
      "metar_trigger": false,
      "taf_trigger": false,
      "metar": "METAR LWSK 210350Z VRB01KT 9999 OVC090 M02/M05 Q1023 NOSIG",
      "taf": "TAF LWSK 210225Z 2103/2203 VRB02KT CAVOK"
    },
    {
      "icao": "LYBE",
      "alert": "OK",
      "vis_m": 800,
      "fzfg": true,
      "metar_trigger": false,
      "taf_trigger": false,
      "metar": "METAR LYBE 210400Z 27006KT 0800 R12L/1400D R30R/P2000N FZFG BKN001 M08/M08 Q1021 BECMG 0400",
      "taf": "TAF LYBE 202300Z 2100/2124 13007KT CAVOK TX05/2113Z TNM05/2106Z"
    },
    {
      "icao": "LYNI",
      "alert": "OK",
      "vis_m": 9999,
      "fzfg": false,
      "metar_trigger": false,
      "taf_trigger": false,
      "metar": "METAR LYNI 210400Z VRB02KT CAVOK M00/M08 Q1022 NOSIG",
      "taf": "TAF LYNI 202300Z 2100/2124 08004KT CAVOK TX05/2113Z TNM07/2106Z"
    },
    {
      "icao": "LYPG",
      "alert": "OK",
      "vis_m": 9999,
      "fzfg": false,
      "metar_trigger": false,
      "taf_trigger": false,
      "metar": "METAR LYPG 210400Z VRB01KT 9999 SCT080 02/M03 Q1016 NOSIG",
      "taf": "TAF LYPG 202300Z 2100/2124 36005KT 9999 SCT040 BKN080 TX08/2113Z TN01/2100Z"
    },
    {
      "icao": "LZIB",
      "alert": "OK",
      "vis_m": 5000,
      "fzfg": false,
      "metar_trigger": false,
      "taf_trigger": false,
      "metar": "METAR LZIB 210400Z 09007KT 5000 BR OVC003 M07/M07 Q1021 NOSIG",
      "taf": ""
    },
    {
      "icao": "LZKZ",
      "alert": "OK",
      "vis_m": 9999,
      "fzfg": false,
      "metar_trigger": false,
      "taf_trigger": false,
      "metar": "METAR LZKZ 210400Z 25001KT CAVOK M12/M14 Q1023 NOSIG",
      "taf": "TAF LZKZ 202315Z 2100/2200 VRB02KT 4500 BR NSC"
    },
    {
      "icao": "LZTT",
      "alert": "OK",
      "vis_m": 9999,
      "fzfg": false,
      "metar_trigger": false,
      "taf_trigger": false,
      "metar": "METAR LZTT 210400Z 32003KT CAVOK M12/M14 Q1018",
      "taf": "TAF LZTT 202315Z 2100/2200 20005KT CAVOK"
    },
    {
      "icao": "OEJN",
      "alert": "OK",
      "vis_m": 9999,
      "fzfg": false,
      "metar_trigger": false,
      "taf_trigger": false,
      "metar": "METAR OEJN 210300Z 36004KT CAVOK 20/09 Q1014 NOSIG",
      "taf": "TAF OEJN 202300Z 2100/2206 VRB03KT CAVOK"
    },
    {
      "icao": "OEMA",
      "alert": "OK",
      "vis_m": 9999,
      "fzfg": false,
      "metar_trigger": false,
      "taf_trigger": false,
      "metar": "METAR OEMA 210400Z 03006KT CAVOK 13/M03 Q1022 NOSIG",
      "taf": "TAF OEMA 202300Z 2100/2206 VRB03KT CAVOK"
    },
    {
      "icao": "OJAI",
      "alert": "OK",
      "vis_m": 4000,
      "fzfg": false,
      "metar_trigger": false,
      "taf_trigger": false,
      "metar": "METAR OJAI 210300Z 06010KT 4000 BR NSC 01/M01 Q1024 NOSIG",
      "taf": "TAF OJAI 202245Z 2100/2206 11010KT 5000 HZ FEW030"
    },
    {
      "icao": "OMAA",
      "alert": "OK",
      "vis_m": 5000,
      "fzfg": false,
      "metar_trigger": false,
      "taf_trigger": false,
      "metar": "METAR OMAA 210400Z 18003KT 5000 HZ NSC 16/14 Q1016 BECMG 33011KT 6000 NSW",
      "taf": "TAF OMAA 202300Z 2100/2206 VRB02KT 8000 FEW030"
    },
    {
      "icao": "OMDB",
      "alert": "OK",
      "vis_m": 9999,
      "fzfg": false,
      "metar_trigger": false,
      "taf_trigger": false,
      "metar": "METAR OMDB 210400Z 20004KT 160V230 CAVOK 17/14 Q1016 NOSIG",
      "taf": "TAF OMDB 202300Z 2100/2206 29012KT 8000 NSC"
    },
    {
      "icao": "UAAA",
      "alert": "OK",
      "vis_m": 1300,
      "fzfg": false,
      "metar_trigger": false,
      "taf_trigger": false,
      "metar": "METAR UAAA 210330Z 00000MPS 1300 R23L/1300N BR OVC003 M11/M13 Q1021 NOSIG RMK QBB110",
      "taf": ""
    },
    {
      "icao": "UBBB",
      "alert": "OK",
      "vis_m": 9999,
      "fzfg": false,
      "metar_trigger": false,
      "taf_trigger": false,
      "metar": "METAR UBBB 210400Z 31020G30KT 9999 SCT026 00/M03 Q1025 NOSIG",
      "taf": "TAF UBBB 202301Z 2100/2124 31020G30KT 8000 SCT010 BKN020 TX04/2110Z TN00/2101Z"
    },
    {
      "icao": "UDSG",
      "alert": "OK",
      "vis_m": 9999,
      "fzfg": false,
      "metar_trigger": false,
      "taf_trigger": false,
      "metar": "METAR UDSG 210330Z 20001KT 9999 FEW049 M12/M14 Q1022 NOSIG",
      "taf": "TAF UDSG 202300Z 2100/2124 VRB06KT 9999 BKN040"
    },
    {
      "icao": "UDYZ",
      "alert": "OK",
      "vis_m": 5000,
      "fzfg": false,
      "metar_trigger": false,
      "taf_trigger": false,
      "metar": "METAR UDYZ 210330Z 34002KT 5000 BR NSC M10/M12 Q1024 NOSIG",
      "taf": "TAF UDYZ 202300Z 2100/2124 VRB04KT 3500 BR FEW040"
    },
    {
      "icao": "UGKO",
      "alert": "OK",
      "vis_m": 9999,
      "fzfg": false,
      "metar_trigger": false,
      "taf_trigger": false,
      "metar": "METAR UGKO 210330Z 26014KT 9999 SCT014 OVC033 02/01 Q1029 NOSIG",
      "taf": "TAF UGKO 202300Z 2100/2124 26007KT 9999 SCT020 OVC050 TX07/2111Z TNM02/2124Z"
    }
  ]
}