{
  "ts_utc": "2026-07-05T17:44:20Z",
  "threshold_m": 150,
  "source": "stations_override.txt (ICAO list) + aviationweather.gov (METAR/TAF raw)",
  "station_count": 159,
  "stations": [
    {
      "icao": "BIKF",
      "alert": "OK",
      "vis_m": 9999,
      "fzfg": false,
      "metar_trigger": false,
      "taf_trigger": false,
      "metar": "METAR BIKF 051730Z 14012KT CAVOK 13/05 Q1011",
      "taf": "TAF BIKF 051656Z 0518/0618 14013KT 9999 FEW025 TX14/0518Z TN09/0618Z"
    },
    {
      "icao": "BKPR",
      "alert": "OK",
      "vis_m": 9999,
      "fzfg": false,
      "metar_trigger": false,
      "taf_trigger": false,
      "metar": "METAR BKPR 051730Z 02008KT CAVOK 24/08 Q1018 NOSIG",
      "taf": "TAF BKPR 051730Z 0518/0618 34008KT CAVOK"
    },
    {
      "icao": "EBCI",
      "alert": "OK",
      "vis_m": 9999,
      "fzfg": false,
      "metar_trigger": false,
      "taf_trigger": false,
      "metar": "METAR EBCI 051720Z 32005KT 260V010 9999 SCT037 22/14 Q1023 NOSIG",
      "taf": "TAF EBCI 051705Z 0518/0624 32010KT 9999 FEW040"
    },
    {
      "icao": "EDDB",
      "alert": "OK",
      "vis_m": 9999,
      "fzfg": false,
      "metar_trigger": false,
      "taf_trigger": false,
      "metar": "METAR EDDB 051720Z AUTO 30016KT CAVOK 22/11 Q1015 TEMPO 30015G25KT",
      "taf": "TAF EDDB 051700Z 0518/0618 29013G23KT 9999 FEW045"
    },
    {
      "icao": "EDDH",
      "alert": "OK",
      "vis_m": 9999,
      "fzfg": false,
      "metar_trigger": false,
      "taf_trigger": false,
      "metar": "METAR EDDH 051720Z AUTO 30012KT 9999 FEW029 18/11 Q1017 NOSIG",
      "taf": "TAF EDDH 051700Z 0518/0624 27011KT 9999 SCT030"
    },
    {
      "icao": "EDDK",
      "alert": "OK",
      "vis_m": 9999,
      "fzfg": false,
      "metar_trigger": false,
      "taf_trigger": false,
      "metar": "METAR EDDK 051720Z AUTO 31016KT 280V340 9999 FEW038 22/13 Q1021 NOSIG",
      "taf": "TAF EDDK 051700Z 0518/0624 30012KT 9999 BKN030"
    },
    {
      "icao": "EDDN",
      "alert": "OK",
      "vis_m": 9999,
      "fzfg": false,
      "metar_trigger": false,
      "taf_trigger": false,
      "metar": "METAR EDDN 051720Z AUTO 32010KT CAVOK 23/12 Q1019 NOSIG",
      "taf": "TAF EDDN 051700Z 0518/0618 28006KT 9999 SCT030"
    },
    {
      "icao": "EDDS",
      "alert": "OK",
      "vis_m": 9999,
      "fzfg": false,
      "metar_trigger": false,
      "taf_trigger": false,
      "metar": "METAR EDDS 051720Z AUTO VRB02KT 9999 VCSH FEW///TCU 22/17 Q1021 TEMPO SHRA",
      "taf": "TAF EDDS 051700Z 0518/0618 29008KT 9999 SCT040"
    },
    {
      "icao": "EDFH",
      "alert": "OK",
      "vis_m": 9999,
      "fzfg": false,
      "metar_trigger": false,
      "taf_trigger": false,
      "metar": "METAR EDFH 051720Z 31013KT 280V340 9999 FEW037 20/12 Q1022",
      "taf": "TAF EDFH 051700Z 0518/0618 32010KT 9999 FEW035"
    },
    {
      "icao": "EDJA",
      "alert": "OK",
      "vis_m": 9999,
      "fzfg": false,
      "metar_trigger": false,
      "taf_trigger": false,
      "metar": "METAR EDJA 051720Z 01005KT 9999 FEW037 16/15 Q1022",
      "taf": "TAF EDJA 051700Z 0518/0603 36008KT CAVOK"
    },
    {
      "icao": "EDLW",
      "alert": "OK",
      "vis_m": 9999,
      "fzfg": false,
      "metar_trigger": false,
      "taf_trigger": false,
      "metar": "METAR EDLW 051720Z 27004KT 200V350 9999 SCT026 19/17 Q1020",
      "taf": "TAF EDLW 051700Z 0518/0618 28008KT 9999 BKN035"
    },
    {
      "icao": "EDNY",
      "alert": "OK",
      "vis_m": 9999,
      "fzfg": false,
      "metar_trigger": false,
      "taf_trigger": false,
      "metar": "METAR EDNY 051720Z 05007KT CAVOK 22/15 Q1021",
      "taf": "TAF EDNY 051700Z 0518/0603 VRB03KT CAVOK"
    },
    {
      "icao": "EDSB",
      "alert": "OK",
      "vis_m": 9999,
      "fzfg": false,
      "metar_trigger": false,
      "taf_trigger": false,
      "metar": "METAR EDSB 051720Z VRB04KT CAVOK 27/14 Q1020",
      "taf": "TAF EDSB 051700Z 0518/0618 VRB03KT CAVOK"
    },
    {
      "icao": "EETN",
      "alert": "OK",
      "vis_m": 9999,
      "fzfg": false,
      "metar_trigger": false,
      "taf_trigger": false,
      "metar": "METAR EETN 051720Z 32005KT 9999 BKN011 17/15 Q0998 NOSIG",
      "taf": "TAF EETN 051730Z 0518/0618 30012KT 9999 SCT010 FEW025CB BKN030"
    },
    {
      "icao": "EFTU",
      "alert": "OK",
      "vis_m": 9999,
      "fzfg": false,
      "metar_trigger": false,
      "taf_trigger": false,
      "metar": "METAR EFTU 051720Z AUTO 32003KT 290V010 CAVOK 15/14 Q1000",
      "taf": "TAF EFTU 051731Z 0518/0618 31005KT 9999 FEW030"
    },
    {
      "icao": "EGBB",
      "alert": "OK",
      "vis_m": 9999,
      "fzfg": false,
      "metar_trigger": false,
      "taf_trigger": false,
      "metar": "METAR EGBB 051720Z 26009KT CAVOK 26/13 Q1022",
      "taf": "TAF EGBB 051657Z 0518/0618 25008KT 9999 FEW040"
    },
    {
      "icao": "EGGP",
      "alert": "OK",
      "vis_m": 9999,
      "fzfg": false,
      "metar_trigger": false,
      "taf_trigger": false,
      "metar": "METAR EGGP 051720Z 31009KT 280V350 CAVOK 20/14 Q1022",
      "taf": "TAF EGGP 051657Z 0518/0618 29010KT 9999 SCT022"
    },
    {
      "icao": "EGGW",
      "alert": "OK",
      "vis_m": 9999,
      "fzfg": false,
      "metar_trigger": false,
      "taf_trigger": false,
      "metar": "METAR EGGW 051720Z 30011KT 250V320 CAVOK 26/13 Q1022",
      "taf": "TAF EGGW 051653Z 0518/0618 27009KT 9999 FEW045"
    },
    {
      "icao": "EGKK",
      "alert": "OK",
      "vis_m": 9999,
      "fzfg": false,
      "metar_trigger": false,
      "taf_trigger": false,
      "metar": "METAR EGKK 051720Z 22009KT 9999 FEW036 26/17 Q1022",
      "taf": "TAF EGKK 051657Z 0518/0624 21008KT 9999 FEW045"
    },
    {
      "icao": "EGNM",
      "alert": "OK",
      "vis_m": 9999,
      "fzfg": false,
      "metar_trigger": false,
      "taf_trigger": false,
      "metar": "METAR EGNM 051720Z 27014KT 9999 SCT017 17/14 Q1021",
      "taf": "TAF EGNM 051657Z 0518/0618 27013KT 9999 BKN016"
    },
    {
      "icao": "EGPD",
      "alert": "OK",
      "vis_m": 8000,
      "fzfg": false,
      "metar_trigger": false,
      "taf_trigger": false,
      "metar": "METAR EGPD 051720Z VRB02KT 8000 -RA BKN005 15/13 Q1015",
      "taf": "TAF EGPD 051657Z 0518/0618 21004KT 9999 BKN006"
    },
    {
      "icao": "EGPF",
      "alert": "OK",
      "vis_m": 9999,
      "fzfg": false,
      "metar_trigger": false,
      "taf_trigger": false,
      "metar": "METAR EGPF 051720Z AUTO 27012KT 9999 BKN022 OVC027 15/13 Q1019",
      "taf": "TAF EGPF 051652Z 0518/0618 28009KT 9999 SCT012"
    },
    {
      "icao": "EHBK",
      "alert": "OK",
      "vis_m": 9999,
      "fzfg": false,
      "metar_trigger": false,
      "taf_trigger": false,
      "metar": "METAR EHBK 051725Z AUTO 31007KT 240V360 9999 NSC 22/14 Q1021 NOSIG",
      "taf": "TAF EHBK 051710Z 0518/0624 30010KT 9999 FEW035"
    },
    {
      "icao": "EHEH",
      "alert": "OK",
      "vis_m": 9999,
      "fzfg": false,
      "metar_trigger": false,
      "taf_trigger": false,
      "metar": "METAR EHEH 051725Z AUTO 28007KT 230V350 9999 SCT051 SCT057 BKN280 22/15 Q1021 BLU NOSIG RMK TREND REMOTE BY EHWX",
      "taf": "TAF EHEH 051104Z 0512/0618 27005KT CAVOK"
    },
    {
      "icao": "EKBI",
      "alert": "OK",
      "vis_m": 9999,
      "fzfg": false,
      "metar_trigger": false,
      "taf_trigger": false,
      "metar": "METAR EKBI 051720Z AUTO 30013KT 9999 FEW032/// 15/08 Q1016",
      "taf": "TAF EKBI 051727Z 0518/0618 28012KT 9999 FEW035"
    },
    {
      "icao": "EKCH",
      "alert": "OK",
      "vis_m": 9999,
      "fzfg": false,
      "metar_trigger": false,
      "taf_trigger": false,
      "metar": "METAR EKCH 051720Z AUTO 29016KT 9999 FEW045/// 18/07 Q1012 TEMPO 30020G30KT",
      "taf": "TAF EKCH 051727Z 0518/0618 30018KT 9999 BKN040"
    },
    {
      "icao": "ENAL",
      "alert": "OK",
      "vis_m": 6000,
      "fzfg": false,
      "metar_trigger": false,
      "taf_trigger": false,
      "metar": "METAR ENAL 051720Z 24021KT 6000 BKN020 08/05 Q1012",
      "taf": "TAF ENAL 051700Z 0518/0603 24015KT 9999 -SHRA SCT025 BKN045"
    },
    {
      "icao": "ENBR",
      "alert": "OK",
      "vis_m": 9999,
      "fzfg": false,
      "metar_trigger": false,
      "taf_trigger": false,
      "metar": "METAR ENBR 051720Z 29005KT 210V320 9999 FEW030 SCT051 12/05 Q1015 NOSIG RMK WIND 1200FT 31013KT",
      "taf": "TAF ENBR 051700Z 0518/0618 29005KT 9999 SCT030"
    },
    {
      "icao": "ENGM",
      "alert": "OK",
      "vis_m": 9999,
      "fzfg": false,
      "metar_trigger": false,
      "taf_trigger": false,
      "metar": "METAR ENGM 051720Z 01009KT CAVOK 18/00 Q1007 NOSIG",
      "taf": "TAF ENGM 051700Z 0518/0618 35010KT CAVOK"
    },
    {
      "icao": "ENHD",
      "alert": "OK",
      "vis_m": 9999,
      "fzfg": false,
      "metar_trigger": false,
      "taf_trigger": false,
      "metar": "METAR ENHD 051720Z 30011KT 9999 FEW033 SCT044 14/05 Q1015",
      "taf": "TAF ENHD 051400Z 0515/0522 31012KT 9999 FEW035"
    },
    {
      "icao": "ENTC",
      "alert": "OK",
      "vis_m": 9999,
      "fzfg": false,
      "metar_trigger": false,
      "taf_trigger": false,
      "metar": "METAR ENTC 051720Z 04010KT CAVOK 14/11 Q1005 NOSIG RMK WIND 2600FT 12004KT",
      "taf": "TAF ENTC 051700Z 0518/0618 03008KT 9999 SCT030"
    },
    {
      "icao": "ENTO",
      "alert": "OK",
      "vis_m": 9999,
      "fzfg": false,
      "metar_trigger": false,
      "taf_trigger": false,
      "metar": "METAR ENTO 051720Z 30008KT 270V330 CAVOK 19/M00 Q1008 NOSIG",
      "taf": "TAF ENTO 051700Z 0518/0618 32008KT CAVOK"
    },
    {
      "icao": "ENVA",
      "alert": "OK",
      "vis_m": 9999,
      "fzfg": false,
      "metar_trigger": false,
      "taf_trigger": false,
      "metar": "METAR ENVA 051720Z 26017KT 9999 SCT024 BKN040TCU 12/06 Q1010 RMK WIND 670FT 28016KT",
      "taf": "TAF ENVA 051700Z 0518/0618 27015KT 9999 FEW020 BKN030"
    },
    {
      "icao": "ENZV",
      "alert": "OK",
      "vis_m": 9999,
      "fzfg": false,
      "metar_trigger": false,
      "taf_trigger": false,
      "metar": "METAR ENZV 051720Z 31012KT CAVOK 13/05 Q1015 NOSIG",
      "taf": "TAF ENZV 051700Z 0518/0618 31012KT CAVOK"
    },
    {
      "icao": "EPGD",
      "alert": "OK",
      "vis_m": 9999,
      "fzfg": false,
      "metar_trigger": false,
      "taf_trigger": false,
      "metar": "METAR EPGD 051730Z 27017KT 9999 SCT027 BKN038 16/11 Q1009",
      "taf": "TAF EPGD 051730Z 0518/0618 27014KT 9999 SCT030"
    },
    {
      "icao": "EPKK",
      "alert": "OK",
      "vis_m": 9999,
      "fzfg": false,
      "metar_trigger": false,
      "taf_trigger": false,
      "metar": "METAR EPKK 051730Z 26011KT 9999 FEW020CB SCT023 18/15 Q1013",
      "taf": "TAF EPKK 051730Z 0518/0618 25010KT CAVOK"
    },
    {
      "icao": "EPKT",
      "alert": "OK",
      "vis_m": 9999,
      "fzfg": false,
      "metar_trigger": false,
      "taf_trigger": false,
      "metar": "METAR EPKT 051730Z 32005KT 9999 FEW040CB 16/14 Q1013",
      "taf": "TAF EPKT 051730Z 0518/0618 28008KT 9999 SCT040"
    },
    {
      "icao": "EPLB",
      "alert": "OK",
      "vis_m": 9999,
      "fzfg": false,
      "metar_trigger": false,
      "taf_trigger": false,
      "metar": "METAR EPLB 051730Z 25011KT 9999 SCT033 20/13 Q1009",
      "taf": "TAF EPLB 051730Z 0518/0618 27012KT 9999 SCT030"
    },
    {
      "icao": "EPMO",
      "alert": "OK",
      "vis_m": 9999,
      "fzfg": false,
      "metar_trigger": false,
      "taf_trigger": false,
      "metar": "METAR EPMO 051730Z 26008KT 9999 FEW034 17/15 Q1009",
      "taf": "TAF EPMO 051730Z 0518/0618 28010KT 9999 SCT040"
    },
    {
      "icao": "EPPO",
      "alert": "OK",
      "vis_m": 9999,
      "fzfg": false,
      "metar_trigger": false,
      "taf_trigger": false,
      "metar": "METAR EPPO 051730Z 30015KT CAVOK 20/09 Q1012",
      "taf": "TAF EPPO 051730Z 0518/0618 29014KT 9999 BKN035"
    },
    {
      "icao": "EPRA",
      "alert": "OK",
      "vis_m": 9999,
      "fzfg": false,
      "metar_trigger": false,
      "taf_trigger": false,
      "metar": "METAR EPRA 051730Z 29011KT 9999 SCT040 16/13 Q1010",
      "taf": "TAF EPRA 051730Z 0518/0603 29010KT 9999 SCT040"
    },
    {
      "icao": "EPRZ",
      "alert": "OK",
      "vis_m": 9999,
      "fzfg": false,
      "metar_trigger": false,
      "taf_trigger": false,
      "metar": "METAR EPRZ 051730Z 25015KT 9999 SCT023 18/15 Q1012",
      "taf": "TAF EPRZ 051730Z 0518/0618 25015KT 9999 BKN030"
    },
    {
      "icao": "EPSC",
      "alert": "OK",
      "vis_m": 9999,
      "fzfg": false,
      "metar_trigger": false,
      "taf_trigger": false,
      "metar": "METAR EPSC 051730Z 30021KT 9999 FEW047 19/08 Q1013",
      "taf": "TAF EPSC 051730Z 0518/0618 27012KT CAVOK"
    },
    {
      "icao": "EPSY",
      "alert": "OK",
      "vis_m": 9999,
      "fzfg": false,
      "metar_trigger": false,
      "taf_trigger": false,
      "metar": "METAR EPSY 051730Z 31007KT 250V350 9999 FEW035 15/14 Q1008",
      "taf": "TAF EPSY 051730Z 0518/0603 27012KT CAVOK"
    },
    {
      "icao": "EPWA",
      "alert": "OK",
      "vis_m": 9999,
      "fzfg": false,
      "metar_trigger": false,
      "taf_trigger": false,
      "metar": "METAR EPWA 051730Z 29010KT 9999 SCT040CB 16/14 Q1009 RETS NOSIG",
      "taf": "TAF EPWA 051730Z 0518/0618 28010KT 9999 SCT040"
    },
    {
      "icao": "EPWR",
      "alert": "OK",
      "vis_m": 9999,
      "fzfg": false,
      "metar_trigger": false,
      "taf_trigger": false,
      "metar": "METAR EPWR 051730Z 31016KT CAVOK 22/09 Q1014",
      "taf": "TAF EPWR 051730Z 0518/0618 32015KT CAVOK"
    },
    {
      "icao": "ESGG",
      "alert": "OK",
      "vis_m": 9999,
      "fzfg": false,
      "metar_trigger": false,
      "taf_trigger": false,
      "metar": "METAR ESGG 051720Z 29012KT CAVOK 18/05 Q1008",
      "taf": "TAF ESGG 051730Z 0518/0618 28011KT CAVOK"
    },
    {
      "icao": "ESKN",
      "alert": "OK",
      "vis_m": 9999,
      "fzfg": false,
      "metar_trigger": false,
      "taf_trigger": false,
      "metar": "METAR ESKN 051720Z 32010KT 290V350 9999 VCSH SCT021 FEW029CB 15/12 Q1004",
      "taf": "TAF ESKN 051730Z 0518/0618 30012KT 9999 SCT035"
    },
    {
      "icao": "ESMS",
      "alert": "OK",
      "vis_m": 9999,
      "fzfg": false,
      "metar_trigger": false,
      "taf_trigger": false,
      "metar": "METAR ESMS 051720Z 32017KT 9999 FEW040 17/08 Q1011",
      "taf": "TAF ESMS 051727Z 0518/0618 30015KT CAVOK"
    },
    {
      "icao": "ESSA",
      "alert": "OK",
      "vis_m": 9999,
      "fzfg": false,
      "metar_trigger": false,
      "taf_trigger": false,
      "metar": "METAR ESSA 051720Z 32011KT CAVOK 14/10 Q1002 TEMPO BKN040CB",
      "taf": "TAF ESSA 051730Z 0518/0618 31012KT 9999 BKN040"
    },
    {
      "icao": "EYKA",
      "alert": "OK",
      "vis_m": 9999,
      "fzfg": false,
      "metar_trigger": false,
      "taf_trigger": false,
      "metar": "METAR EYKA 051720Z 30009KT 260V330 CAVOK 18/12 Q1004",
      "taf": "TAF EYKA 051725Z 0518/0618 28010KT 9000 BKN030"
    },
    {
      "icao": "EYPA",
      "alert": "OK",
      "vis_m": 9999,
      "fzfg": false,
      "metar_trigger": false,
      "taf_trigger": false,
      "metar": "METAR EYPA 051720Z VRB04KT 9999 FEW013 SCT026 BKN041CB 16/14 Q1004",
      "taf": "TAF EYPA 051725Z 0518/0618 30010KT 9000 BKN025"
    },
    {
      "icao": "EYVI",
      "alert": "OK",
      "vis_m": 9999,
      "fzfg": false,
      "metar_trigger": false,
      "taf_trigger": false,
      "metar": "METAR EYVI 051720Z 31012KT 280V350 9999 VCSH SCT039CB 19/11 Q1004 NOSIG",
      "taf": "TAF EYVI 051725Z 0518/0618 28010KT 9000 SCT030"
    },
    {
      "icao": "GCFV",
      "alert": "OK",
      "vis_m": 9999,
      "fzfg": false,
      "metar_trigger": false,
      "taf_trigger": false,
      "metar": "METAR GCFV 051730Z VRB08G19KT 9999 FEW020 30/18 Q1016",
      "taf": ""
    },
    {
      "icao": "GCLP",
      "alert": "OK",
      "vis_m": 9999,
      "fzfg": false,
      "metar_trigger": false,
      "taf_trigger": false,
      "metar": "METAR GCLP 051730Z 02020KT CAVOK 25/19 Q1017 NOSIG",
      "taf": "TAF GCLP 051400Z 0515/0615 03022KT 9999 FEW020 TX29/0614Z TN22/0606Z"
    },
    {
      "icao": "GCTS",
      "alert": "OK",
      "vis_m": 9999,
      "fzfg": false,
      "metar_trigger": false,
      "taf_trigger": false,
      "metar": "METAR GCTS 051730Z 20005KT 160V250 9999 FEW020 24/20 Q1018 NOSIG",
      "taf": "TAF GCTS 051400Z 0515/0615 12008KT CAVOK TX32/0614Z TN22/0606Z"
    },
    {
      "icao": "GMAD",
      "alert": "OK",
      "vis_m": 9999,
      "fzfg": false,
      "metar_trigger": false,
      "taf_trigger": false,
      "metar": "METAR GMAD 051730Z 23013KT 9999 FEW010 FEW050TCU 26/19 Q1013 NOSIG",
      "taf": "TAF GMAD 051700Z 0518/0624 26012KT 9999 FEW010"
    },
    {
      "icao": "GMMN",
      "alert": "OK",
      "vis_m": 9999,
      "fzfg": false,
      "metar_trigger": false,
      "taf_trigger": false,
      "metar": "METAR GMMN 051730Z 34012KT CAVOK 36/18 Q1016 NOSIG",
      "taf": "TAF GMMN 051700Z 0518/0624 34012KT CAVOK"
    },
    {
      "icao": "GMMX",
      "alert": "OK",
      "vis_m": 9999,
      "fzfg": false,
      "metar_trigger": false,
      "taf_trigger": false,
      "metar": "METAR GMMX 051730Z 29008KT 230V320 9999 SCT033 43/08 Q1015 NOSIG",
      "taf": "TAF GMMX 051700Z 0518/0624 06006KT CAVOK"
    },
    {
      "icao": "HEGN",
      "alert": "OK",
      "vis_m": 9999,
      "fzfg": false,
      "metar_trigger": false,
      "taf_trigger": false,
      "metar": "METAR HEGN 051700Z 33013KT CAVOK 34/11 Q1005 NOSIG",
      "taf": "TAF HEGN 051700Z 0518/0624 32010KT CAVOK"
    },
    {
      "icao": "HEMA",
      "alert": "OK",
      "vis_m": 9999,
      "fzfg": false,
      "metar_trigger": false,
      "taf_trigger": false,
      "metar": "METAR HEMA 051700Z 34010KT CAVOK 33/12 Q1005 NOSIG",
      "taf": "TAF HEMA 051700Z 0518/0624 30010KT CAVOK"
    },
    {
      "icao": "HESH",
      "alert": "OK",
      "vis_m": 9999,
      "fzfg": false,
      "metar_trigger": false,
      "taf_trigger": false,
      "metar": "METAR HESH 051700Z 04004KT CAVOK 36/15 Q1004 NOSIG",
      "taf": "TAF HESH 051700Z 0518/0624 35010KT CAVOK"
    },
    {
      "icao": "HESX",
      "alert": "OK",
      "vis_m": 9999,
      "fzfg": false,
      "metar_trigger": false,
      "taf_trigger": false,
      "metar": "METAR HESX 051700Z 03014KT CAVOK 32/16 Q1007 NOSIG",
      "taf": "TAF HESX 051700Z 0518/0624 01012KT CAVOK"
    },
    {
      "icao": "LATI",
      "alert": "OK",
      "vis_m": 9999,
      "fzfg": false,
      "metar_trigger": false,
      "taf_trigger": false,
      "metar": "METAR LATI 051720Z 34014KT CAVOK 26/13 Q1014 NOSIG",
      "taf": "TAF LATI 051700Z 0518/0618 34012KT CAVOK TX33/0612Z TN20/0604Z"
    },
    {
      "icao": "LBPD",
      "alert": "OK",
      "vis_m": 9999,
      "fzfg": false,
      "metar_trigger": false,
      "taf_trigger": false,
      "metar": "METAR LBPD 051730Z AUTO 10005KT 9999 FEW092/// OVC120/// 26/12 Q1014 NOSIG",
      "taf": "TAF LBPD 051700Z 0518/0618 32010KT 9999 SCT050"
    },
    {
      "icao": "LBSF",
      "alert": "OK",
      "vis_m": 9999,
      "fzfg": false,
      "metar_trigger": false,
      "taf_trigger": false,
      "metar": "METAR LBSF 051730Z AUTO 20006KT 190V270 9999 FEW070/// 21/10 Q1017 NOSIG",
      "taf": "TAF LBSF 051700Z 0518/0618 31010KT 9999 SCT050"
    },
    {
      "icao": "LBWN",
      "alert": "OK",
      "vis_m": 9999,
      "fzfg": false,
      "metar_trigger": false,
      "taf_trigger": false,
      "metar": "METAR LBWN 051730Z AUTO 07004KT 040V100 9999 NCD 21/17 Q1014 NOSIG",
      "taf": "TAF LBWN 051700Z 0518/0618 13010KT 9999 SCT045"
    },
    {
      "icao": "LCLK",
      "alert": "OK",
      "vis_m": 9999,
      "fzfg": false,
      "metar_trigger": false,
      "taf_trigger": false,
      "metar": "METAR LCLK 051730Z 22011KT 9999 FEW050 27/25 Q1004 NOSIG",
      "taf": "TAF LCLK 051730Z 0518/0618 20016KT 9999 FEW015"
    },
    {
      "icao": "LCPH",
      "alert": "OK",
      "vis_m": 9999,
      "fzfg": false,
      "metar_trigger": false,
      "taf_trigger": false,
      "metar": "METAR LCPH 051730Z 31007KT 9999 FEW012 SCT017 27/23 Q1005 TEMPO BKN010",
      "taf": "TAF LCPH 051730Z 0518/0618 06005KT 9999 FEW015"
    },
    {
      "icao": "LEAL",
      "alert": "OK",
      "vis_m": 9999,
      "fzfg": false,
      "metar_trigger": false,
      "taf_trigger": false,
      "metar": "METAR LEAL 051730Z 16004KT 080V250 CAVOK 32/15 Q1020 NOSIG",
      "taf": "TAF LEAL 051700Z 0518/0618 12010KT CAVOK TX33/0612Z TN21/0606Z"
    },
    {
      "icao": "LEBB",
      "alert": "OK",
      "vis_m": 9999,
      "fzfg": false,
      "metar_trigger": false,
      "taf_trigger": false,
      "metar": "METAR LEBB 051730Z 06007KT 340V130 CAVOK 32/14 Q1021 NOSIG",
      "taf": "TAF LEBB 051700Z 0518/0618 28009KT 9999 FEW035 TX38/0612Z TN18/0605Z"
    },
    {
      "icao": "LEBL",
      "alert": "OK",
      "vis_m": 9999,
      "fzfg": false,
      "metar_trigger": false,
      "taf_trigger": false,
      "metar": "METAR LEBL 051730Z 22011KT CAVOK 29/23 Q1019 NOSIG",
      "taf": "TAF LEBL 051700Z 0518/0618 21012KT CAVOK TX32/0613Z TN24/0606Z"
    },
    {
      "icao": "LECH",
      "alert": "OK",
      "vis_m": 9999,
      "fzfg": false,
      "metar_trigger": false,
      "taf_trigger": false,
      "metar": "METAR LECH 051730Z AUTO 17009KT 140V200 CAVOK 30/08 Q1021",
      "taf": "TAF LECH 051700Z 0518/0618 19010KT CAVOK TX36/0612Z TN19/0606Z"
    },
    {
      "icao": "LEMD",
      "alert": "OK",
      "vis_m": 9999,
      "fzfg": false,
      "metar_trigger": false,
      "taf_trigger": false,
      "metar": "METAR LEMD 051730Z 15004KT 070V230 9999 FEW080 37/05 Q1019 NOSIG",
      "taf": "TAF LEMD 051700Z 0518/0624 VRB03KT CAVOK TX40/0616Z TN22/0606Z"
    },
    {
      "icao": "LEMG",
      "alert": "OK",
      "vis_m": 9999,
      "fzfg": false,
      "metar_trigger": false,
      "taf_trigger": false,
      "metar": "METAR LEMG 051730Z 13007KT 090V170 CAVOK 27/19 Q1019 NOSIG",
      "taf": "TAF LEMG 051700Z 0518/0618 15010KT CAVOK TX30/0614Z TN20/0606Z"
    },
    {
      "icao": "LEVC",
      "alert": "OK",
      "vis_m": 9999,
      "fzfg": false,
      "metar_trigger": false,
      "taf_trigger": false,
      "metar": "METAR LEVC 051730Z 13010KT 090V160 CAVOK 31/15 Q1019 NOSIG",
      "taf": "TAF LEVC 051700Z 0518/0618 12010KT CAVOK TX35/0612Z TN22/0606Z"
    },
    {
      "icao": "LEXJ",
      "alert": "OK",
      "vis_m": 9999,
      "fzfg": false,
      "metar_trigger": false,
      "taf_trigger": false,
      "metar": "METAR LEXJ 051730Z 08005KT CAVOK 27/18 Q1020",
      "taf": "TAF LEXJ 051400Z 0515/0615 05008KT 9999 FEW045 TX36/0613Z TN18/0605Z"
    },
    {
      "icao": "LEZG",
      "alert": "OK",
      "vis_m": 9999,
      "fzfg": false,
      "metar_trigger": false,
      "taf_trigger": false,
      "metar": "METAR LEZG 051730Z 34003KT CAVOK 37/08 Q1018 NOSIG",
      "taf": "TAF LEZG 051700Z 0518/0618 30006KT CAVOK TX39/0615Z TN23/0606Z"
    },
    {
      "icao": "LEZL",
      "alert": "OK",
      "vis_m": 9999,
      "fzfg": false,
      "metar_trigger": false,
      "taf_trigger": false,
      "metar": "METAR LEZL 051730Z 22011KT 200V260 CAVOK 40/09 Q1015 NOSIG",
      "taf": "TAF LEZL 051400Z 0515/0615 VRB03KT CAVOK TX43/0515Z TN23/0605Z"
    },
    {
      "icao": "LFBD",
      "alert": "OK",
      "vis_m": 9999,
      "fzfg": false,
      "metar_trigger": false,
      "taf_trigger": false,
      "metar": "METAR LFBD 051730Z AUTO 03011KT CAVOK 35/09 Q1021 NOSIG",
      "taf": "TAF LFBD 051700Z 0518/0624 03010KT CAVOK TX40/0615Z TN22/0605Z"
    },
    {
      "icao": "LFLL",
      "alert": "OK",
      "vis_m": 9999,
      "fzfg": false,
      "metar_trigger": false,
      "taf_trigger": false,
      "metar": "METAR LFLL 051730Z 02011KT CAVOK 32/08 Q1020 NOSIG",
      "taf": "TAF LFLL 051700Z 0518/0624 36012KT CAVOK"
    },
    {
      "icao": "LFLS",
      "alert": "OK",
      "vis_m": 9999,
      "fzfg": false,
      "metar_trigger": false,
      "taf_trigger": false,
      "metar": "METAR LFLS 051730Z AUTO 35018KT CAVOK 31/07 Q1021 BECMG 07003KT",
      "taf": "TAF LFLS 051400Z 0515/0615 35013KT CAVOK"
    },
    {
      "icao": "LFMN",
      "alert": "OK",
      "vis_m": 9999,
      "fzfg": false,
      "metar_trigger": false,
      "taf_trigger": false,
      "metar": "METAR LFMN 051730Z 17005KT CAVOK 28/22 Q1016 NOSIG",
      "taf": "TAF LFMN 051400Z 0515/0621 14005KT CAVOK"
    },
    {
      "icao": "LFOB",
      "alert": "OK",
      "vis_m": 9999,
      "fzfg": false,
      "metar_trigger": false,
      "taf_trigger": false,
      "metar": "METAR LFOB 051730Z AUTO 33011KT CAVOK 26/15 Q1023 NOSIG",
      "taf": "TAF LFOB 051700Z 0518/0618 29009KT CAVOK"
    },
    {
      "icao": "LFPO",
      "alert": "OK",
      "vis_m": 9999,
      "fzfg": false,
      "metar_trigger": false,
      "taf_trigger": false,
      "metar": "METAR LFPO 051730Z AUTO 36009KT 320V030 CAVOK 29/13 Q1023 NOSIG",
      "taf": "TAF LFPO 051700Z 0518/0624 34008KT CAVOK"
    },
    {
      "icao": "LFSB",
      "alert": "OK",
      "vis_m": 9999,
      "fzfg": false,
      "metar_trigger": false,
      "taf_trigger": false,
      "metar": "METAR LFSB 051730Z AUTO 27011KT CAVOK 29/12 Q1020 NOSIG",
      "taf": "TAF LFSB 051700Z 0518/0618 30010KT CAVOK"
    },
    {
      "icao": "LGAV",
      "alert": "OK",
      "vis_m": 9999,
      "fzfg": false,
      "metar_trigger": false,
      "taf_trigger": false,
      "metar": "METAR LGAV 051720Z 03011KT 9999 FEW020 27/08 Q1013 NOSIG",
      "taf": "TAF LGAV 051700Z 0518/0618 02015KT 9999 FEW025"
    },
    {
      "icao": "LGTS",
      "alert": "OK",
      "vis_m": 9999,
      "fzfg": false,
      "metar_trigger": false,
      "taf_trigger": false,
      "metar": "METAR LGTS 051720Z 13009KT 9999 FEW030 28/14 Q1013 NOSIG",
      "taf": "TAF LGTS 051700Z 0518/0618 33010KT 9999 FEW030"
    },
    {
      "icao": "LHBP",
      "alert": "OK",
      "vis_m": 9999,
      "fzfg": false,
      "metar_trigger": false,
      "taf_trigger": false,
      "metar": "METAR LHBP 051730Z 31012KT CAVOK 25/11 Q1015 NOSIG",
      "taf": "TAF LHBP 051715Z 0518/0618 31015G25KT CAVOK"
    },
    {
      "icao": "LHDC",
      "alert": "OK",
      "vis_m": 9999,
      "fzfg": false,
      "metar_trigger": false,
      "taf_trigger": false,
      "metar": "METAR LHDC 051715Z AUTO 29010KT 250V330 CAVOK 25/10 Q1013 NOSIG",
      "taf": "TAF LHDC 051715Z 0518/0603 29008KT CAVOK"
    },
    {
      "icao": "LIBD",
      "alert": "OK",
      "vis_m": 9999,
      "fzfg": false,
      "metar_trigger": false,
      "taf_trigger": false,
      "metar": "METAR LIBD 051720Z 34008KT 300V010 CAVOK 27/16 Q1016",
      "taf": "TAF LIBD 051700Z 0518/0618 VRB05KT CAVOK"
    },
    {
      "icao": "LIBG",
      "alert": "OK",
      "vis_m": 9999,
      "fzfg": false,
      "metar_trigger": false,
      "taf_trigger": false,
      "metar": "METAR LIBG 051720Z AUTO 35012KT 9999 NCD 28/09 Q1015",
      "taf": "TAF LIBG 051700Z 0518/0618 35012KT CAVOK"
    },
    {
      "icao": "LIBP",
      "alert": "OK",
      "vis_m": 9999,
      "fzfg": false,
      "metar_trigger": false,
      "taf_trigger": false,
      "metar": "METAR LIBP 051720Z AUTO VRB04KT 9999 BKN110/// 30/08 Q1016",
      "taf": "TAF LIBP 051700Z 0518/0618 VRB05KT CAVOK"
    },
    {
      "icao": "LIBR",
      "alert": "OK",
      "vis_m": 9999,
      "fzfg": false,
      "metar_trigger": false,
      "taf_trigger": false,
      "metar": "METAR LIBR 051720Z 35014KT CAVOK 27/16 Q1015",
      "taf": "TAF LIBR 051700Z 0518/0618 34012KT CAVOK"
    },
    {
      "icao": "LICA",
      "alert": "OK",
      "vis_m": 9999,
      "fzfg": false,
      "metar_trigger": false,
      "taf_trigger": false,
      "metar": "METAR LICA 051720Z AUTO 26016KT 9999 NCD 28/18 Q1015",
      "taf": "TAF LICA 051700Z 0518/0618 26013KT CAVOK"
    },
    {
      "icao": "LICC",
      "alert": "OK",
      "vis_m": 9999,
      "fzfg": false,
      "metar_trigger": false,
      "taf_trigger": false,
      "metar": "METAR LICC 051720Z 08012KT 9999 FEW030 29/18 Q1015",
      "taf": "TAF LICC 051700Z 0518/0618 08013KT 9999 FEW040"
    },
    {
      "icao": "LICJ",
      "alert": "OK",
      "vis_m": 9999,
      "fzfg": false,
      "metar_trigger": false,
      "taf_trigger": false,
      "metar": "METAR LICJ 051720Z 04011KT CAVOK 29/12 Q1016",
      "taf": "TAF LICJ 051700Z 0518/0618 04014KT CAVOK"
    },
    {
      "icao": "LIMC",
      "alert": "OK",
      "vis_m": 9999,
      "fzfg": false,
      "metar_trigger": false,
      "taf_trigger": false,
      "metar": "METAR LIMC 051720Z 24007KT 220V280 CAVOK 32/12 Q1016 NOSIG",
      "taf": "TAF LIMC 051700Z 0518/0624 VRB05KT CAVOK"
    },
    {
      "icao": "LIME",
      "alert": "OK",
      "vis_m": 9999,
      "fzfg": false,
      "metar_trigger": false,
      "taf_trigger": false,
      "metar": "METAR LIME 051720Z 22010KT CAVOK 32/11 Q1015 NOSIG",
      "taf": "TAF LIME 051700Z 0518/0618 22010KT CAVOK"
    },
    {
      "icao": "LIMF",
      "alert": "OK",
      "vis_m": 9999,
      "fzfg": false,
      "metar_trigger": false,
      "taf_trigger": false,
      "metar": "METAR LIMF 051720Z 09005KT CAVOK 33/14 Q1016",
      "taf": "TAF LIMF 051700Z 0518/0618 09010KT CAVOK"
    },
    {
      "icao": "LIMJ",
      "alert": "OK",
      "vis_m": 9999,
      "fzfg": false,
      "metar_trigger": false,
      "taf_trigger": false,
      "metar": "METAR LIMJ 051720Z 14006KT CAVOK 27/24 Q1016",
      "taf": "TAF LIMJ 051700Z 0518/0618 VRB06KT CAVOK"
    },
    {
      "icao": "LIPE",
      "alert": "OK",
      "vis_m": 9999,
      "fzfg": false,
      "metar_trigger": false,
      "taf_trigger": false,
      "metar": "METAR LIPE 051720Z 34004KT 310V010 CAVOK 33/13 Q1014",
      "taf": "TAF LIPE 051700Z 0518/0618 VRB05KT CAVOK"
    },
    {
      "icao": "LIPH",
      "alert": "OK",
      "vis_m": 9999,
      "fzfg": false,
      "metar_trigger": false,
      "taf_trigger": false,
      "metar": "METAR LIPH 051720Z 09009KT 9999 SCT070 29/17 Q1015",
      "taf": "TAF LIPH 051700Z 0518/0618 17010KT 9999 FEW040"
    },
    {
      "icao": "LIPQ",
      "alert": "OK",
      "vis_m": 9999,
      "fzfg": false,
      "metar_trigger": false,
      "taf_trigger": false,
      "metar": "METAR LIPQ 051720Z AUTO 03005KT 360V060 9999 BKN140/// 26/17 Q1016",
      "taf": "TAF LIPQ 051700Z 0518/0618 VRB05KT 9999 FEW040"
    },
    {
      "icao": "LIPR",
      "alert": "OK",
      "vis_m": 9999,
      "fzfg": false,
      "metar_trigger": false,
      "taf_trigger": false,
      "metar": "METAR LIPR 051720Z 11009KT CAVOK 29/20 Q1015",
      "taf": "TAF LIPR 051700Z 0518/0618 VRB05KT CAVOK"
    },
    {
      "icao": "LIPX",
      "alert": "OK",
      "vis_m": 9999,
      "fzfg": false,
      "metar_trigger": false,
      "taf_trigger": false,
      "metar": "METAR LIPX 051720Z 21005KT 170V250 CAVOK 32/15 Q1014",
      "taf": "TAF LIPX 051700Z 0518/0618 VRB06KT CAVOK"
    },
    {
      "icao": "LIPY",
      "alert": "OK",
      "vis_m": 9999,
      "fzfg": false,
      "metar_trigger": false,
      "taf_trigger": false,
      "metar": "METAR LIPY 051720Z AUTO 16005KT 120V200 9999 NCD 31/12 Q1015",
      "taf": "TAF LIPY 051700Z 0518/0618 VRB05KT CAVOK"
    },
    {
      "icao": "LIPZ",
      "alert": "OK",
      "vis_m": 9999,
      "fzfg": false,
      "metar_trigger": false,
      "taf_trigger": false,
      "metar": "METAR LIPZ 051720Z 14012KT 9999 FEW070 28/18 Q1015 NOSIG",
      "taf": "TAF LIPZ 051700Z 0518/0624 16010KT 9999 FEW040"
    },
    {
      "icao": "LIRF",
      "alert": "OK",
      "vis_m": 9999,
      "fzfg": false,
      "metar_trigger": false,
      "taf_trigger": false,
      "metar": "METAR LIRF 051720Z 28009KT CAVOK 28/19 Q1017 NOSIG",
      "taf": "TAF LIRF 051700Z 0518/0624 26010KT CAVOK"
    },
    {
      "icao": "LIRN",
      "alert": "OK",
      "vis_m": 9999,
      "fzfg": false,
      "metar_trigger": false,
      "taf_trigger": false,
      "metar": "METAR LIRN 051720Z 29009KT 260V320 CAVOK 30/14 Q1016 NOSIG",
      "taf": "TAF LIRN 051700Z 0518/0618 28010KT CAVOK"
    },
    {
      "icao": "LIRP",
      "alert": "OK",
      "vis_m": 9999,
      "fzfg": false,
      "metar_trigger": false,
      "taf_trigger": false,
      "metar": "METAR LIRP 051715Z 30007KT CAVOK 28/18 Q1016 NOSIG",
      "taf": "TAF LIRP 051700Z 0518/0618 29012KT CAVOK"
    },
    {
      "icao": "LIRZ",
      "alert": "OK",
      "vis_m": 9999,
      "fzfg": false,
      "metar_trigger": false,
      "taf_trigger": false,
      "metar": "METAR LIRZ 051720Z AUTO 24010KT 9999 -RA VCTS FEW035/// SCT120/// 29/15 Q1016",
      "taf": "TAF LIRZ 051700Z 0518/0618 26010KT 9999 FEW040"
    },
    {
      "icao": "LJLJ",
      "alert": "OK",
      "vis_m": 9999,
      "fzfg": false,
      "metar_trigger": false,
      "taf_trigger": false,
      "metar": "METAR LJLJ 051730Z 11005KT 050V150 9999 FEW060CB FEW070 BKN100 22/17 Q1018 NOSIG",
      "taf": "TAF LJLJ 051700Z 0518/0618 VRB02KT CAVOK"
    },
    {
      "icao": "LKMT",
      "alert": "OK",
      "vis_m": 9999,
      "fzfg": false,
      "metar_trigger": false,
      "taf_trigger": false,
      "metar": "METAR LKMT 051730Z 34008KT 310V040 9999 FEW035TCU SCT041 20/13 Q1015 NOSIG",
      "taf": "TAF LKMT 051700Z 0518/0618 23008KT CAVOK"
    },
    {
      "icao": "LKPR",
      "alert": "OK",
      "vis_m": 9999,
      "fzfg": false,
      "metar_trigger": false,
      "taf_trigger": false,
      "metar": "METAR LKPR 051730Z 31013KT 9999 FEW048 20/12 Q1017 NOSIG",
      "taf": "TAF LKPR 051700Z 0518/0624 31014KT 9999 SCT040"
    },
    {
      "icao": "LLBG",
      "alert": "OK",
      "vis_m": 9999,
      "fzfg": false,
      "metar_trigger": false,
      "taf_trigger": false,
      "metar": "METAR LLBG 051720Z 29007KT 9999 SCT022 27/21 Q1007 NOSIG",
      "taf": "TAF LLBG 051706Z 0518/0618 VRB04KT 9999 SCT025 TX31/0611Z TN25/0603Z"
    },
    {
      "icao": "LMML",
      "alert": "OK",
      "vis_m": 9999,
      "fzfg": false,
      "metar_trigger": false,
      "taf_trigger": false,
      "metar": "METAR LMML 051715Z 16005KT 140V220 9999 FEW041 29/17 Q1015 NOSIG",
      "taf": "TAF LMML 051700Z 0518/0618 VRB06KT 9999 FEW025"
    },
    {
      "icao": "LOWW",
      "alert": "OK",
      "vis_m": 9999,
      "fzfg": false,
      "metar_trigger": false,
      "taf_trigger": false,
      "metar": "METAR LOWW 051720Z 30012KT 9999 FEW050 25/12 Q1016 NOSIG",
      "taf": "TAF LOWW 051715Z 0518/0624 33010KT 9999 FEW050 TX24/0614Z TN18/0602Z"
    },
    {
      "icao": "LPFR",
      "alert": "OK",
      "vis_m": 9999,
      "fzfg": false,
      "metar_trigger": false,
      "taf_trigger": false,
      "metar": "METAR LPFR 051730Z 11005KT 060V150 CAVOK 32/17 Q1017",
      "taf": "TAF LPFR 051700Z 0518/0618 12008KT CAVOK"
    },
    {
      "icao": "LPMA",
      "alert": "OK",
      "vis_m": 9999,
      "fzfg": false,
      "metar_trigger": false,
      "taf_trigger": false,
      "metar": "METAR LPMA 051730Z 16005KT 090V220 9999 FEW015 24/18 Q1018",
      "taf": "TAF LPMA 051700Z 0518/0618 VRB05KT 9999 SCT015"
    },
    {
      "icao": "LPPR",
      "alert": "OK",
      "vis_m": 9999,
      "fzfg": false,
      "metar_trigger": false,
      "taf_trigger": false,
      "metar": "METAR LPPR 051730Z 30005KT 270V330 CAVOK 27/18 Q1017",
      "taf": "TAF LPPR 051700Z 0518/0618 32008KT CAVOK"
    },
    {
      "icao": "LPPS",
      "alert": "OK",
      "vis_m": 9999,
      "fzfg": false,
      "metar_trigger": false,
      "taf_trigger": false,
      "metar": "METAR LPPS 051730Z 34007KT 310V020 9999 FEW015 24/18 Q1018",
      "taf": "TAF LPPS 051700Z 0518/0624 VRB05KT 9999 SCT015"
    },
    {
      "icao": "LPPT",
      "alert": "OK",
      "vis_m": 9999,
      "fzfg": false,
      "metar_trigger": false,
      "taf_trigger": false,
      "metar": "METAR LPPT 051730Z 32010KT 290V350 CAVOK 37/08 Q1017 WS R02 NOSIG",
      "taf": "TAF LPPT 051700Z 0518/0624 34010KT CAVOK"
    },
    {
      "icao": "LQBK",
      "alert": "OK",
      "vis_m": 9999,
      "fzfg": false,
      "metar_trigger": false,
      "taf_trigger": false,
      "metar": "METAR LQBK 051730Z VRB03KT CAVOK 27/11 Q1016 NOSIG",
      "taf": "TAF LQBK 051700Z 0518/0618 15005KT CAVOK TX31/0614Z TN14/0603Z"
    },
    {
      "icao": "LQSA",
      "alert": "OK",
      "vis_m": 9999,
      "fzfg": false,
      "metar_trigger": false,
      "taf_trigger": false,
      "metar": "METAR LQSA 051730Z 32006KT 9999 FEW060 25/10 Q1018 NOSIG",
      "taf": "TAF LQSA 051700Z 0518/0618 33005KT CAVOK TX27/0614Z TN13/0603Z"
    },
    {
      "icao": "LQTZ",
      "alert": "OK",
      "vis_m": 9999,
      "fzfg": false,
      "metar_trigger": false,
      "taf_trigger": false,
      "metar": "METAR LQTZ 051730Z 11006KT 030V180 9999 -SHRA FEW040TCU BKN050 21/15 Q1018",
      "taf": "TAF LQTZ 051700Z 0518/0618 27005KT CAVOK TX27/0614Z TN13/0603Z"
    },
    {
      "icao": "LRBC",
      "alert": "OK",
      "vis_m": 9999,
      "fzfg": false,
      "metar_trigger": false,
      "taf_trigger": false,
      "metar": "METAR LRBC 051730Z 21005KT CAVOK 20/13 Q1013",
      "taf": "TAF LRBC 051700Z 0518/0603 VRB04KT CAVOK"
    },
    {
      "icao": "LRBS",
      "alert": "OK",
      "vis_m": 9999,
      "fzfg": false,
      "metar_trigger": false,
      "taf_trigger": false,
      "metar": "METAR LRBS 051730Z 02004KT CAVOK 24/14 Q1013 NOSIG",
      "taf": "TAF LRBS 051700Z 0518/0618 VRB04KT CAVOK"
    },
    {
      "icao": "LRBV",
      "alert": "OK",
      "vis_m": 9999,
      "fzfg": false,
      "metar_trigger": false,
      "taf_trigger": false,
      "metar": "METAR LRBV 051730Z 26003KT CAVOK 20/10 Q1015",
      "taf": "TAF LRBV 051700Z 0518/0603 27007KT CAVOK"
    },
    {
      "icao": "LRCL",
      "alert": "OK",
      "vis_m": 9999,
      "fzfg": false,
      "metar_trigger": false,
      "taf_trigger": false,
      "metar": "METAR LRCL 051730Z 29004KT 9999 VCSH FEW055CB BKN069 22/09 Q1014",
      "taf": "TAF LRCL 051700Z 0518/0603 27008KT 9999 FEW050CB BKN060"
    },
    {
      "icao": "LRCV",
      "alert": "OK",
      "vis_m": 9999,
      "fzfg": false,
      "metar_trigger": false,
      "taf_trigger": false,
      "metar": "METAR LRCV 051730Z 31009KT CAVOK 25/11 Q1014",
      "taf": "TAF LRCV 051700Z 0518/0603 VRB04KT CAVOK"
    },
    {
      "icao": "LRIA",
      "alert": "OK",
      "vis_m": 9999,
      "fzfg": false,
      "metar_trigger": false,
      "taf_trigger": false,
      "metar": "METAR LRIA 051730Z VRB02KT CAVOK 21/14 Q1012",
      "taf": "TAF LRIA 051700Z 0518/0603 VRB04KT CAVOK"
    },
    {
      "icao": "LROP",
      "alert": "OK",
      "vis_m": 9999,
      "fzfg": false,
      "metar_trigger": false,
      "taf_trigger": false,
      "metar": "METAR LROP 051730Z 04005KT CAVOK 24/12 Q1013 NOSIG",
      "taf": "TAF LROP 051700Z 0518/0618 VRB04KT CAVOK"
    },
    {
      "icao": "LRSB",
      "alert": "OK",
      "vis_m": 9999,
      "fzfg": false,
      "metar_trigger": false,
      "taf_trigger": false,
      "metar": "METAR LRSB 051730Z 28007KT CAVOK 22/11 Q1015",
      "taf": ""
    },
    {
      "icao": "LRSM",
      "alert": "OK",
      "vis_m": 9999,
      "fzfg": false,
      "metar_trigger": false,
      "taf_trigger": false,
      "metar": "METAR LRSM 051730Z AUTO 33003KT 300V360 9999 SCT095/// BKN110/// 26/11 Q1013",
      "taf": ""
    },
    {
      "icao": "LRSV",
      "alert": "OK",
      "vis_m": 9999,
      "fzfg": false,
      "metar_trigger": false,
      "taf_trigger": false,
      "metar": "METAR LRSV 051730Z 28003KT 240V320 CAVOK 21/11 Q1013",
      "taf": "TAF LRSV 051700Z 0518/0603 33006KT CAVOK"
    },
    {
      "icao": "LRTM",
      "alert": "OK",
      "vis_m": 9999,
      "fzfg": false,
      "metar_trigger": false,
      "taf_trigger": false,
      "metar": "METAR LRTM 051730Z 28003KT CAVOK 22/13 Q1014",
      "taf": "TAF LRTM 051700Z 0518/0603 VRB04KT CAVOK"
    },
    {
      "icao": "LRTR",
      "alert": "OK",
      "vis_m": 9999,
      "fzfg": false,
      "metar_trigger": false,
      "taf_trigger": false,
      "metar": "METAR LRTR 051730Z 29005KT CAVOK 25/10 Q1015",
      "taf": "TAF LRTR 051700Z 0518/0618 31007KT CAVOK"
    },
    {
      "icao": "LTAC",
      "alert": "OK",
      "vis_m": 9999,
      "fzfg": false,
      "metar_trigger": false,
      "taf_trigger": false,
      "metar": "METAR LTAC 051720Z 05008KT 9999 SCT040 SCT100 22/09 Q1013 NOSIG",
      "taf": "TAF LTAC 051640Z 0518/0618 03009KT 9999 SCT040"
    },
    {
      "icao": "LTFM",
      "alert": "OK",
      "vis_m": 9999,
      "fzfg": false,
      "metar_trigger": false,
      "taf_trigger": false,
      "metar": "METAR LTFM 051720Z 08014KT CAVOK 24/14 Q1014 NOSIG",
      "taf": "TAF LTFM 051640Z 0518/0624 06017KT CAVOK"
    },
    {
      "icao": "LUKK",
      "alert": "OK",
      "vis_m": 9999,
      "fzfg": false,
      "metar_trigger": false,
      "taf_trigger": false,
      "metar": "METAR LUKK 051730Z 32005KT 260V010 CAVOK 23/07 Q1012 NOSIG",
      "taf": "TAF LUKK 051716Z 0518/0618 VRB06KT CAVOK"
    },
    {
      "icao": "LWOH",
      "alert": "OK",
      "vis_m": 9999,
      "fzfg": false,
      "metar_trigger": false,
      "taf_trigger": false,
      "metar": "METAR LWOH 051720Z 36003KT 310V060 9999 FEW045 23/11 Q1017",
      "taf": "TAF LWOH 051720Z 0518/0618 34010KT CAVOK"
    },
    {
      "icao": "LWSK",
      "alert": "OK",
      "vis_m": 9999,
      "fzfg": false,
      "metar_trigger": false,
      "taf_trigger": false,
      "metar": "METAR LWSK 051720Z 36011KT CAVOK 27/10 Q1016 NOSIG",
      "taf": "TAF LWSK 051720Z 0518/0618 36011KT CAVOK"
    },
    {
      "icao": "LYBE",
      "alert": "OK",
      "vis_m": 9999,
      "fzfg": false,
      "metar_trigger": false,
      "taf_trigger": false,
      "metar": "METAR LYBE 051730Z 26010KT CAVOK 25/12 Q1016 NOSIG",
      "taf": "TAF LYBE 051700Z 0518/0618 29005KT CAVOK TX28/0613Z TN16/0603Z"
    },
    {
      "icao": "LYNI",
      "alert": "OK",
      "vis_m": 9999,
      "fzfg": false,
      "metar_trigger": false,
      "taf_trigger": false,
      "metar": "METAR LYNI 051730Z 33005KT 9999 FEW085 26/09 Q1016 NOSIG",
      "taf": "TAF LYNI 051700Z 0518/0618 32012KT CAVOK TX29/0613Z TN13/0603Z"
    },
    {
      "icao": "LYPG",
      "alert": "OK",
      "vis_m": 9999,
      "fzfg": false,
      "metar_trigger": false,
      "taf_trigger": false,
      "metar": "METAR LYPG 051730Z 01010KT 9999 FEW050 31/07 Q1014 NOSIG",
      "taf": "TAF LYPG 051700Z 0518/0618 36012KT CAVOK TX34/0612Z TN22/0603Z"
    },
    {
      "icao": "LZIB",
      "alert": "OK",
      "vis_m": 9999,
      "fzfg": false,
      "metar_trigger": false,
      "taf_trigger": false,
      "metar": "METAR LZIB 051730Z 29006KT 260V320 CAVOK 23/13 Q1016 NOSIG",
      "taf": "TAF LZIB 051715Z 0518/0618 31011KT 9999 FEW045"
    },
    {
      "icao": "LZKZ",
      "alert": "OK",
      "vis_m": 9999,
      "fzfg": false,
      "metar_trigger": false,
      "taf_trigger": false,
      "metar": "METAR LZKZ 051730Z 35012KT 9999 -SHRA FEW031TCU 19/15 Q1014 NOSIG",
      "taf": "TAF LZKZ 051715Z 0518/0618 36004KT CAVOK"
    },
    {
      "icao": "LZTT",
      "alert": "OK",
      "vis_m": 9999,
      "fzfg": false,
      "metar_trigger": false,
      "taf_trigger": false,
      "metar": "METAR LZTT 051730Z 29010KT 270V330 9999 -SHRA FEW020 BKN060 15/14 Q1015",
      "taf": "TAF LZTT 051715Z 0518/0618 26012KT 9999 SCT060"
    },
    {
      "icao": "OEJN",
      "alert": "OK",
      "vis_m": 9999,
      "fzfg": false,
      "metar_trigger": false,
      "taf_trigger": false,
      "metar": "METAR OEJN 051700Z 35009KT CAVOK 34/21 Q1002 NOSIG",
      "taf": "TAF OEJN 051700Z 0518/0624 36006KT CAVOK"
    },
    {
      "icao": "OEMA",
      "alert": "OK",
      "vis_m": 9999,
      "fzfg": false,
      "metar_trigger": false,
      "taf_trigger": false,
      "metar": "METAR OEMA 051700Z 30012KT CAVOK 42/M01 Q1007 NOSIG",
      "taf": "TAF OEMA 051700Z 0518/0624 30010KT CAVOK"
    },
    {
      "icao": "OJAI",
      "alert": "OK",
      "vis_m": 5000,
      "fzfg": false,
      "metar_trigger": false,
      "taf_trigger": false,
      "metar": "METAR OJAI 051700Z 26011KT 5000 HZ NSC 27/16 Q1011 NOSIG",
      "taf": "TAF OJAI 051700Z 0518/0624 29010KT 5000 HZ FEW035"
    },
    {
      "icao": "OMAA",
      "alert": "OK",
      "vis_m": 9999,
      "fzfg": false,
      "metar_trigger": false,
      "taf_trigger": false,
      "metar": "METAR OMAA 051730Z 28001KT CAVOK 34/21 Q0998 NOSIG",
      "taf": "TAF OMAA 051700Z 0518/0700 VRB02KT 8000 NSC"
    },
    {
      "icao": "OMDB",
      "alert": "OK",
      "vis_m": 9999,
      "fzfg": false,
      "metar_trigger": false,
      "taf_trigger": false,
      "metar": "METAR OMDB 051730Z 19006KT CAVOK 35/20 Q0998 NOSIG",
      "taf": "TAF OMDB 051700Z 0518/0700 17005KT 8000 NSC"
    },
    {
      "icao": "UAAA",
      "alert": "OK",
      "vis_m": 9999,
      "fzfg": false,
      "metar_trigger": false,
      "taf_trigger": false,
      "metar": "METAR UAAA 051730Z 00000MPS 9999 SCT100 20/14 Q1009 NOSIG",
      "taf": "TAF UAAA 051702Z 0518/0618 18003MPS 9999 FEW050 SCT100 TX30/0610Z TN15/0523Z"
    },
    {
      "icao": "UBBB",
      "alert": "OK",
      "vis_m": 9999,
      "fzfg": false,
      "metar_trigger": false,
      "taf_trigger": false,
      "metar": "METAR UBBB 051730Z 32004KT CAVOK 25/21 Q1007 NOSIG",
      "taf": "TAF UBBB 051654Z 0518/0618 31005KT CAVOK TX30/0610Z TN22/0601Z"
    },
    {
      "icao": "UDSG",
      "alert": "OK",
      "vis_m": 9999,
      "fzfg": false,
      "metar_trigger": false,
      "taf_trigger": false,
      "metar": "METAR UDSG 051730Z 01004KT 9999 SCT049CB 19/13 Q1016 NOSIG",
      "taf": "TAF UDSG 051658Z 0518/0618 24006KT 9999 SCT040"
    },
    {
      "icao": "UDYZ",
      "alert": "OK",
      "vis_m": 9999,
      "fzfg": false,
      "metar_trigger": false,
      "taf_trigger": false,
      "metar": "METAR UDYZ 051730Z 02013KT 9999 SCT043CB 26/14 Q1009 NOSIG",
      "taf": "TAF UDYZ 051700Z 0518/0618 04006KT 9999 SCT040"
    },
    {
      "icao": "UGKO",
      "alert": "OK",
      "vis_m": 9999,
      "fzfg": false,
      "metar_trigger": false,
      "taf_trigger": false,
      "metar": "METAR UGKO 051730Z 25006KT 9999 SCT033 22/20 Q1011 NOSIG",
      "taf": "TAF UGKO 051700Z 0518/0618 26007KT 9999 SCT027 BKN050 TX26/0611Z TN19/0602Z"
    }
  ]
}