{
  "ts_utc": "2026-04-11T17:20:11Z",
  "threshold_m": 150,
  "source": "stations_override.txt (ICAO list) + aviationweather.gov (METAR/TAF raw)",
  "station_count": 159,
  "stations": [
    {
      "icao": "BIKF",
      "alert": "OK",
      "vis_m": 9999,
      "fzfg": false,
      "metar_trigger": false,
      "taf_trigger": false,
      "metar": "METAR BIKF 111700Z 02024G35KT 9999 FEW025 BKN210 03/M03 Q1003",
      "taf": "TAF BIKF 111648Z 1118/1218 02025G35KT 9999 FEW017 SCT030 TX04/1213Z TN01/1203Z"
    },
    {
      "icao": "BKPR",
      "alert": "OK",
      "vis_m": 9999,
      "fzfg": false,
      "metar_trigger": false,
      "taf_trigger": false,
      "metar": "METAR BKPR 111700Z 34009KT 9999 FEW080 12/05 Q1015 NOSIG",
      "taf": ""
    },
    {
      "icao": "EBCI",
      "alert": "OK",
      "vis_m": 9999,
      "fzfg": false,
      "metar_trigger": false,
      "taf_trigger": false,
      "metar": "METAR EBCI 111650Z 27009KT 240V300 9999 SCT015 BKN024 09/06 Q1010 NOSIG",
      "taf": "TAF EBCI 111106Z 1112/1218 17012KT 9999 FEW040"
    },
    {
      "icao": "EDDB",
      "alert": "OK",
      "vis_m": 9999,
      "fzfg": false,
      "metar_trigger": false,
      "taf_trigger": false,
      "metar": "METAR EDDB 111650Z AUTO 12011KT CAVOK 13/M04 Q1016 NOSIG",
      "taf": "TAF EDDB 111100Z 1112/1212 12008KT CAVOK"
    },
    {
      "icao": "EDDH",
      "alert": "OK",
      "vis_m": 9999,
      "fzfg": false,
      "metar_trigger": false,
      "taf_trigger": false,
      "metar": "METAR EDDH 111650Z AUTO 13017KT CAVOK 14/01 Q1012 TEMPO 15015G25KT",
      "taf": "TAF EDDH 111100Z 1112/1218 12012KT 9999 FEW040"
    },
    {
      "icao": "EDDK",
      "alert": "OK",
      "vis_m": 9999,
      "fzfg": false,
      "metar_trigger": false,
      "taf_trigger": false,
      "metar": "METAR EDDK 111650Z AUTO 13011KT 9999 -RA NSC 17/08 Q1008 TEMPO 14006KT SHRA SCT045TCU",
      "taf": "TAF EDDK 111100Z 1112/1218 14013KT 9999 SCT020 BKN040"
    },
    {
      "icao": "EDDN",
      "alert": "OK",
      "vis_m": 9999,
      "fzfg": false,
      "metar_trigger": false,
      "taf_trigger": false,
      "metar": "METAR EDDN 111650Z AUTO 12009KT CAVOK 16/03 Q1012 NOSIG",
      "taf": "TAF EDDN 111100Z 1112/1212 12009KT CAVOK"
    },
    {
      "icao": "EDDS",
      "alert": "OK",
      "vis_m": 9999,
      "fzfg": false,
      "metar_trigger": false,
      "taf_trigger": false,
      "metar": "METAR EDDS 111650Z AUTO 08003KT CAVOK 19/08 Q1010 TEMPO TSRA",
      "taf": "TAF EDDS 111100Z 1112/1212 10005KT 9999 FEW040"
    },
    {
      "icao": "EDFH",
      "alert": "OK",
      "vis_m": 9999,
      "fzfg": false,
      "metar_trigger": false,
      "taf_trigger": false,
      "metar": "METAR EDFH 111650Z 15009KT 9999 -RA NSC 14/10 Q1010",
      "taf": "TAF EDFH 111100Z 1112/1212 14010KT 9999 FEW040"
    },
    {
      "icao": "EDJA",
      "alert": "OK",
      "vis_m": 9999,
      "fzfg": false,
      "metar_trigger": false,
      "taf_trigger": false,
      "metar": "METAR EDJA 111650Z 01003KT CAVOK 18/09 Q1012",
      "taf": "TAF EDJA 111400Z 1115/1124 04005KT CAVOK"
    },
    {
      "icao": "EDLW",
      "alert": "OK",
      "vis_m": 9999,
      "fzfg": false,
      "metar_trigger": false,
      "taf_trigger": false,
      "metar": "METAR EDLW 111650Z 17011KT 9999 -SHRA FEW026 17/07 Q1008",
      "taf": "TAF EDLW 111100Z 1112/1212 15012KT 9999 SCT020 BKN040"
    },
    {
      "icao": "EDNY",
      "alert": "OK",
      "vis_m": 9999,
      "fzfg": false,
      "metar_trigger": false,
      "taf_trigger": false,
      "metar": "METAR EDNY 111650Z 24004KT CAVOK 17/09 Q1011",
      "taf": "TAF EDNY 111400Z 1115/1124 24005KT CAVOK"
    },
    {
      "icao": "EDSB",
      "alert": "OK",
      "vis_m": 9999,
      "fzfg": false,
      "metar_trigger": false,
      "taf_trigger": false,
      "metar": "METAR EDSB 111650Z 21004KT 9999 -RA FEW048 20/10 Q1010",
      "taf": "TAF EDSB 111100Z 1112/1212 34005KT 9999 FEW045"
    },
    {
      "icao": "EETN",
      "alert": "OK",
      "vis_m": 9999,
      "fzfg": false,
      "metar_trigger": false,
      "taf_trigger": false,
      "metar": "METAR EETN 111650Z 07010KT CAVOK 07/M10 Q1023 NOSIG",
      "taf": "TAF EETN 111130Z 1112/1212 05010KT CAVOK"
    },
    {
      "icao": "EFTU",
      "alert": "OK",
      "vis_m": 9999,
      "fzfg": false,
      "metar_trigger": false,
      "taf_trigger": false,
      "metar": "METAR EFTU 111650Z AUTO 27007KT CAVOK 09/M09 Q1024",
      "taf": "TAF EFTU 111431Z 1115/1215 15005KT CAVOK"
    },
    {
      "icao": "EGBB",
      "alert": "OK",
      "vis_m": 9999,
      "fzfg": false,
      "metar_trigger": false,
      "taf_trigger": false,
      "metar": "METAR EGBB 111650Z 20011KT 160V260 9999 SCT043 10/01 Q1003",
      "taf": "TAF EGBB 111701Z 1118/1218 19012KT 9999 FEW030"
    },
    {
      "icao": "EGGP",
      "alert": "OK",
      "vis_m": 9999,
      "fzfg": false,
      "metar_trigger": false,
      "taf_trigger": false,
      "metar": "METAR EGGP 111650Z 20011G21KT 170V230 9999 FEW036 SCT045 08/02 Q1000",
      "taf": "TAF EGGP 111706Z 1118/1218 18012KT 9999 SCT030"
    },
    {
      "icao": "EGGW",
      "alert": "OK",
      "vis_m": 9999,
      "fzfg": false,
      "metar_trigger": false,
      "taf_trigger": false,
      "metar": "METAR EGGW 111650Z AUTO 22015G25KT 190V250 9999 NCD 09/M02 Q1006",
      "taf": "TAF EGGW 111657Z 1118/1218 22012KT 9999 SCT040"
    },
    {
      "icao": "EGKK",
      "alert": "OK",
      "vis_m": 9999,
      "fzfg": false,
      "metar_trigger": false,
      "taf_trigger": false,
      "metar": "METAR EGKK 111650Z 23015KT 9999 FEW048 11/00 Q1008",
      "taf": "TAF EGKK 111658Z 1118/1224 23017G27KT 9999 SCT045"
    },
    {
      "icao": "EGNM",
      "alert": "OK",
      "vis_m": 9999,
      "fzfg": false,
      "metar_trigger": false,
      "taf_trigger": false,
      "metar": "METAR EGNM 111650Z 19013KT 150V210 9999 VCSH SCT020 SCT029CB 06/03 Q1000",
      "taf": "TAF EGNM 111705Z 1118/1218 20013KT 9999 SCT030"
    },
    {
      "icao": "EGPD",
      "alert": "OK",
      "vis_m": 9999,
      "fzfg": false,
      "metar_trigger": false,
      "taf_trigger": false,
      "metar": "METAR EGPD 111650Z COR AUTO 17021KT 9999 FEW049 09/03 Q0993 NOSIG",
      "taf": "TAF EGPD 111655Z 1118/1218 16012KT 9999 SCT020"
    },
    {
      "icao": "EGPF",
      "alert": "OK",
      "vis_m": 9999,
      "fzfg": false,
      "metar_trigger": false,
      "taf_trigger": false,
      "metar": "METAR EGPF 111650Z AUTO 18020KT 9999 FEW041 11/02 Q0991",
      "taf": "TAF EGPF 111657Z 1118/1218 18015G25KT 9999 SCT030"
    },
    {
      "icao": "EHBK",
      "alert": "OK",
      "vis_m": 9999,
      "fzfg": false,
      "metar_trigger": false,
      "taf_trigger": false,
      "metar": "METAR EHBK 111655Z AUTO 21008KT 9999 -RA FEW027/// SCT032/// OVC041/// 15/13 Q1008 REDZRA BECMG 27015G25KT TEMPO 6000 RADZ",
      "taf": "TAF EHBK 111101Z 1112/1218 17012KT CAVOK"
    },
    {
      "icao": "EHEH",
      "alert": "OK",
      "vis_m": 9999,
      "fzfg": false,
      "metar_trigger": false,
      "taf_trigger": false,
      "metar": "METAR EHEH 111655Z AUTO 29010KT 230V340 9999 DZRA FEW007 SCT010 BKN013 10/09 Q1008 REDZ GRN TEMPO 27012G25KT FEW009 SCT012 BKN018",
      "taf": "TAF EHEH 111120Z 1112/1218 13011KT CAVOK"
    },
    {
      "icao": "EKBI",
      "alert": "OK",
      "vis_m": 9999,
      "fzfg": false,
      "metar_trigger": false,
      "taf_trigger": false,
      "metar": "METAR EKBI 111650Z AUTO 13016KT 9999 NCD 11/01 Q1013",
      "taf": "TAF EKBI 111427Z 1115/1215 13015G25KT 9999 FEW025"
    },
    {
      "icao": "EKCH",
      "alert": "OK",
      "vis_m": 9999,
      "fzfg": false,
      "metar_trigger": false,
      "taf_trigger": false,
      "metar": "METAR EKCH 111650Z AUTO 13012KT 9999 NCD 07/M01 Q1019 NOSIG",
      "taf": "TAF EKCH 111427Z 1115/1215 12015KT 9999 SCT030"
    },
    {
      "icao": "ENAL",
      "alert": "OK",
      "vis_m": 9999,
      "fzfg": false,
      "metar_trigger": false,
      "taf_trigger": false,
      "metar": "METAR ENAL 111650Z 06006KT CAVOK 11/01 Q1011",
      "taf": "TAF ENAL 111400Z 1115/1124 12008KT CAVOK"
    },
    {
      "icao": "ENBR",
      "alert": "OK",
      "vis_m": 9999,
      "fzfg": false,
      "metar_trigger": false,
      "taf_trigger": false,
      "metar": "METAR ENBR 111650Z 12010KT 080V150 CAVOK 10/M04 Q1009 TEMPO 13018G30KT RMK WIND 1200FT 13027G45KT",
      "taf": "TAF ENBR 111100Z 1112/1212 14015KT CAVOK"
    },
    {
      "icao": "ENGM",
      "alert": "OK",
      "vis_m": 9999,
      "fzfg": false,
      "metar_trigger": false,
      "taf_trigger": false,
      "metar": "METAR ENGM 111650Z 12009KT CAVOK 09/M06 Q1019 NOSIG",
      "taf": "TAF ENGM 111100Z 1112/1212 16012KT 9999 SCT045"
    },
    {
      "icao": "ENHD",
      "alert": "OK",
      "vis_m": 9999,
      "fzfg": false,
      "metar_trigger": false,
      "taf_trigger": false,
      "metar": "METAR ENHD 111650Z 12024KT CAVOK 09/M01 Q1008",
      "taf": "TAF ENHD 111400Z 1115/1122 13025KT CAVOK"
    },
    {
      "icao": "ENTC",
      "alert": "OK",
      "vis_m": 9999,
      "fzfg": false,
      "metar_trigger": false,
      "taf_trigger": false,
      "metar": "METAR ENTC 111650Z 04007KT CAVOK 09/M04 Q1023 NOSIG RMK WIND 2600FT 14004KT",
      "taf": "TAF ENTC 111100Z 1112/1212 02006KT CAVOK"
    },
    {
      "icao": "ENTO",
      "alert": "OK",
      "vis_m": 9999,
      "fzfg": false,
      "metar_trigger": false,
      "taf_trigger": false,
      "metar": "METAR ENTO 111650Z 19004KT 160V240 9999 OVC046 07/00 Q1019 NOSIG",
      "taf": "TAF ENTO 111100Z 1112/1212 15005KT 9999 BKN020"
    },
    {
      "icao": "ENVA",
      "alert": "OK",
      "vis_m": 9999,
      "fzfg": false,
      "metar_trigger": false,
      "taf_trigger": false,
      "metar": "METAR ENVA 111650Z 15016KT CAVOK 11/M03 Q1017 RMK WIND 670FT 16021G32KT",
      "taf": "TAF ENVA 111100Z 1112/1212 14015KT CAVOK"
    },
    {
      "icao": "ENZV",
      "alert": "OK",
      "vis_m": 9999,
      "fzfg": false,
      "metar_trigger": false,
      "taf_trigger": false,
      "metar": "METAR ENZV 111650Z 13027G37KT 9999 NSC 09/M01 Q1009 TEMPO 13020KT",
      "taf": "TAF ENZV 111100Z 1112/1212 14020KT 9999 SCT030"
    },
    {
      "icao": "EPGD",
      "alert": "OK",
      "vis_m": 9999,
      "fzfg": false,
      "metar_trigger": false,
      "taf_trigger": false,
      "metar": "METAR EPGD 111700Z 06008KT 020V090 CAVOK 05/M03 Q1020",
      "taf": "TAF EPGD 111130Z 1112/1212 07009KT CAVOK"
    },
    {
      "icao": "EPKK",
      "alert": "OK",
      "vis_m": 9999,
      "fzfg": false,
      "metar_trigger": false,
      "taf_trigger": false,
      "metar": "METAR EPKK 111700Z 04004KT CAVOK 08/M07 Q1019",
      "taf": "TAF EPKK 111430Z 1115/1215 VRB02KT 9999 BKN055"
    },
    {
      "icao": "EPKT",
      "alert": "OK",
      "vis_m": 9999,
      "fzfg": false,
      "metar_trigger": false,
      "taf_trigger": false,
      "metar": "METAR EPKT 111700Z 07005KT CAVOK 06/M05 Q1018",
      "taf": "TAF EPKT 111130Z 1112/1212 35005KT CAVOK"
    },
    {
      "icao": "EPLB",
      "alert": "OK",
      "vis_m": 9999,
      "fzfg": false,
      "metar_trigger": false,
      "taf_trigger": false,
      "metar": "METAR EPLB 111700Z 30004KT CAVOK 08/M02 Q1018",
      "taf": "TAF EPLB 111130Z 1112/1212 33005KT CAVOK"
    },
    {
      "icao": "EPMO",
      "alert": "OK",
      "vis_m": 9999,
      "fzfg": false,
      "metar_trigger": false,
      "taf_trigger": false,
      "metar": "METAR EPMO 111700Z 01004KT CAVOK 10/M03 Q1019",
      "taf": "TAF EPMO 111130Z 1112/1212 34005KT CAVOK"
    },
    {
      "icao": "EPPO",
      "alert": "OK",
      "vis_m": 9999,
      "fzfg": false,
      "metar_trigger": false,
      "taf_trigger": false,
      "metar": "METAR EPPO 111700Z 13008KT CAVOK 11/M04 Q1018",
      "taf": "TAF EPPO 111130Z 1112/1212 VRB04KT CAVOK"
    },
    {
      "icao": "EPRA",
      "alert": "OK",
      "vis_m": 9999,
      "fzfg": false,
      "metar_trigger": false,
      "taf_trigger": false,
      "metar": "METAR EPRA 111700Z 32003KT CAVOK 09/M03 Q1018",
      "taf": "TAF EPRA 111430Z 1115/1124 31006KT CAVOK"
    },
    {
      "icao": "EPRZ",
      "alert": "OK",
      "vis_m": 9999,
      "fzfg": false,
      "metar_trigger": false,
      "taf_trigger": false,
      "metar": "METAR EPRZ 111700Z 30004KT CAVOK 07/M02 Q1019",
      "taf": "TAF EPRZ 111130Z 1112/1212 32010KT CAVOK"
    },
    {
      "icao": "EPSC",
      "alert": "OK",
      "vis_m": 9999,
      "fzfg": false,
      "metar_trigger": false,
      "taf_trigger": false,
      "metar": "METAR EPSC 111700Z 14009KT CAVOK 12/M04 Q1017",
      "taf": "TAF EPSC 111130Z 1112/1212 14007KT CAVOK"
    },
    {
      "icao": "EPSY",
      "alert": "OK",
      "vis_m": 9999,
      "fzfg": false,
      "metar_trigger": false,
      "taf_trigger": false,
      "metar": "METAR EPSY 111700Z 05004KT CAVOK 10/M04 Q1019",
      "taf": "TAF EPSY 111430Z 1115/1124 01008KT CAVOK"
    },
    {
      "icao": "EPWA",
      "alert": "OK",
      "vis_m": 9999,
      "fzfg": false,
      "metar_trigger": false,
      "taf_trigger": false,
      "metar": "METAR EPWA 111700Z 36004KT 320V030 CAVOK 11/M05 Q1018 NOSIG",
      "taf": "TAF EPWA 111430Z 1115/1215 34005KT CAVOK"
    },
    {
      "icao": "EPWR",
      "alert": "OK",
      "vis_m": 9999,
      "fzfg": false,
      "metar_trigger": false,
      "taf_trigger": false,
      "metar": "METAR EPWR 111700Z 12006KT CAVOK 10/M04 Q1018",
      "taf": "TAF EPWR 111430Z 1115/1215 VRB03KT CAVOK"
    },
    {
      "icao": "ESGG",
      "alert": "OK",
      "vis_m": 9999,
      "fzfg": false,
      "metar_trigger": false,
      "taf_trigger": false,
      "metar": "METAR ESGG 111650Z 13006KT CAVOK 09/M02 Q1018",
      "taf": "TAF ESGG 111430Z 1115/1215 17005KT 9999 SCT045"
    },
    {
      "icao": "ESKN",
      "alert": "OK",
      "vis_m": 9999,
      "fzfg": false,
      "metar_trigger": false,
      "taf_trigger": false,
      "metar": "METAR ESKN 111650Z 12006KT CAVOK 07/M02 Q1023",
      "taf": "TAF ESKN 111430Z 1115/1215 11009KT CAVOK"
    },
    {
      "icao": "ESMS",
      "alert": "OK",
      "vis_m": 9999,
      "fzfg": false,
      "metar_trigger": false,
      "taf_trigger": false,
      "metar": "METAR ESMS 111650Z 12010KT CAVOK 07/M03 Q1019",
      "taf": "TAF ESMS 111427Z 1115/1215 14010KT 9999 SCT030"
    },
    {
      "icao": "ESSA",
      "alert": "OK",
      "vis_m": 9999,
      "fzfg": false,
      "metar_trigger": false,
      "taf_trigger": false,
      "metar": "METAR ESSA 111650Z 13009KT CAVOK 08/M08 Q1023 NOSIG",
      "taf": "TAF ESSA 111430Z 1115/1215 14008KT CAVOK"
    },
    {
      "icao": "EYKA",
      "alert": "OK",
      "vis_m": 9999,
      "fzfg": false,
      "metar_trigger": false,
      "taf_trigger": false,
      "metar": "METAR EYKA 111650Z 09008KT CAVOK 09/M00 Q1019",
      "taf": "TAF EYKA 111700Z 1118/1218 VRB04KT 9000 NSC"
    },
    {
      "icao": "EYPA",
      "alert": "OK",
      "vis_m": 9999,
      "fzfg": false,
      "metar_trigger": false,
      "taf_trigger": false,
      "metar": "METAR EYPA 111650Z 35003KT 290V050 CAVOK 07/00 Q1020",
      "taf": "TAF EYPA 111700Z 1118/1218 VRB04KT 9000 NSC"
    },
    {
      "icao": "EYVI",
      "alert": "OK",
      "vis_m": 9999,
      "fzfg": false,
      "metar_trigger": false,
      "taf_trigger": false,
      "metar": "METAR EYVI 111650Z 04004KT CAVOK 05/M01 Q1018 NOSIG",
      "taf": "TAF EYVI 111700Z 1118/1218 VRB04KT 9000 NSC"
    },
    {
      "icao": "GCFV",
      "alert": "OK",
      "vis_m": 9999,
      "fzfg": false,
      "metar_trigger": false,
      "taf_trigger": false,
      "metar": "METAR GCFV 111700Z 33014KT 290V350 9999 SCT025 OVC035 19/13 Q1019",
      "taf": "TAF GCFV 111400Z 1115/1215 36014KT 9999 SCT030 BKN040 TX21/1214Z TN16/1206Z"
    },
    {
      "icao": "GCLP",
      "alert": "OK",
      "vis_m": 9999,
      "fzfg": false,
      "metar_trigger": false,
      "taf_trigger": false,
      "metar": "METAR GCLP 111700Z 35020KT 320V020 9999 FEW035 20/11 Q1020 WS ALL RWY NOSIG",
      "taf": "TAF GCLP 111400Z 1115/1215 35020KT 9999 SCT035 TX20/1214Z TN16/1206Z"
    },
    {
      "icao": "GCTS",
      "alert": "OK",
      "vis_m": 9999,
      "fzfg": false,
      "metar_trigger": false,
      "taf_trigger": false,
      "metar": "METAR GCTS 111700Z 10017KT 9999 SCT035 21/13 Q1020 NOSIG",
      "taf": ""
    },
    {
      "icao": "GMAD",
      "alert": "OK",
      "vis_m": 8000,
      "fzfg": false,
      "metar_trigger": false,
      "taf_trigger": false,
      "metar": "METAR GMAD 111700Z 25015KT 8000 FEW020 21/11 Q1013 NOSIG",
      "taf": "TAF GMAD 111700Z 1118/1224 24014KT 8000 SCT020"
    },
    {
      "icao": "GMMN",
      "alert": "OK",
      "vis_m": 9999,
      "fzfg": false,
      "metar_trigger": false,
      "taf_trigger": false,
      "metar": "METAR GMMN 111700Z 28013KT 250V310 9999 BKN030 18/12 Q1015 NOSIG",
      "taf": "TAF GMMN 111100Z 1112/1218 28010KT 9999 BKN020"
    },
    {
      "icao": "GMMX",
      "alert": "OK",
      "vis_m": 9999,
      "fzfg": false,
      "metar_trigger": false,
      "taf_trigger": false,
      "metar": "METAR GMMX 111700Z 26004KT 210V290 9999 BKN026 19/10 Q1016 NOSIG",
      "taf": "TAF GMMX 111100Z 1112/1218 06008KT 8000 SCT026 SCT080"
    },
    {
      "icao": "HEGN",
      "alert": "OK",
      "vis_m": null,
      "fzfg": false,
      "metar_trigger": false,
      "taf_trigger": false,
      "metar": "",
      "taf": "TAF HEGN 111700Z 1118/1224 31012KT CAVOK"
    },
    {
      "icao": "HEMA",
      "alert": "OK",
      "vis_m": null,
      "fzfg": false,
      "metar_trigger": false,
      "taf_trigger": false,
      "metar": "",
      "taf": "TAF HEMA 111700Z 1118/1224 30012KT CAVOK"
    },
    {
      "icao": "HESH",
      "alert": "OK",
      "vis_m": null,
      "fzfg": false,
      "metar_trigger": false,
      "taf_trigger": false,
      "metar": "",
      "taf": "TAF HESH 111700Z 1118/1224 35010KT CAVOK"
    },
    {
      "icao": "HESX",
      "alert": "OK",
      "vis_m": null,
      "fzfg": false,
      "metar_trigger": false,
      "taf_trigger": false,
      "metar": "",
      "taf": "TAF HESX 111700Z 1118/1224 33008KT CAVOK"
    },
    {
      "icao": "LATI",
      "alert": "OK",
      "vis_m": null,
      "fzfg": false,
      "metar_trigger": false,
      "taf_trigger": false,
      "metar": "",
      "taf": "TAF LATI 111700Z 1118/1218 VRB05KT CAVOK TX25/1212Z TN10/1204Z"
    },
    {
      "icao": "LBPD",
      "alert": "OK",
      "vis_m": 9999,
      "fzfg": false,
      "metar_trigger": false,
      "taf_trigger": false,
      "metar": "METAR LBPD 111700Z AUTO 06003KT 9999 FEW065/// BKN100/// 08/05 Q1017 NOSIG",
      "taf": "TAF LBPD 111700Z 1118/1218 VRB04KT 9999 SCT040 BKN060"
    },
    {
      "icao": "LBSF",
      "alert": "OK",
      "vis_m": 9999,
      "fzfg": false,
      "metar_trigger": false,
      "taf_trigger": false,
      "metar": "METAR LBSF 111700Z AUTO 29008KT 9999 FEW067/// BKN081/// 10/01 Q1016 NOSIG",
      "taf": "TAF LBSF 111700Z 1118/1218 VRB04KT 9999 SCT030 BKN050"
    },
    {
      "icao": "LBWN",
      "alert": "OK",
      "vis_m": 9999,
      "fzfg": false,
      "metar_trigger": false,
      "taf_trigger": false,
      "metar": "METAR LBWN 111700Z AUTO 13006KT 9999 NSC 09/04 Q1018 NOSIG",
      "taf": "TAF LBWN 111700Z 1118/1218 11012KT 9999 SCT020 BKN045"
    },
    {
      "icao": "LCLK",
      "alert": "OK",
      "vis_m": 9999,
      "fzfg": false,
      "metar_trigger": false,
      "taf_trigger": false,
      "metar": "METAR LCLK 111700Z 30005KT 9999 FEW040 16/07 Q1014 NOSIG",
      "taf": "TAF LCLK 111130Z 1112/1212 22018KT 9999 FEW030"
    },
    {
      "icao": "LCPH",
      "alert": "OK",
      "vis_m": 9999,
      "fzfg": false,
      "metar_trigger": false,
      "taf_trigger": false,
      "metar": "METAR LCPH 111700Z 31012KT 9999 FEW050 17/09 Q1015 NOSIG",
      "taf": "TAF LCPH 111130Z 1112/1212 29015KT 9999 FEW025"
    },
    {
      "icao": "LEAL",
      "alert": "OK",
      "vis_m": 9999,
      "fzfg": false,
      "metar_trigger": false,
      "taf_trigger": false,
      "metar": "METAR LEAL 111700Z 17004KT 120V200 CAVOK 20/13 Q1007 NOSIG",
      "taf": "TAF LEAL 111100Z 1112/1212 VRB05KT CAVOK TX24/1113Z TN12/1206Z"
    },
    {
      "icao": "LEBB",
      "alert": "OK",
      "vis_m": 9999,
      "fzfg": false,
      "metar_trigger": false,
      "taf_trigger": false,
      "metar": "METAR LEBB 111700Z VRB02KT 9999 BKN041 OVC057 11/09 Q1020 NOSIG",
      "taf": "TAF LEBB 111100Z 1112/1212 30009KT 9999 BKN020 TX13/1112Z TN09/1206Z"
    },
    {
      "icao": "LEBL",
      "alert": "OK",
      "vis_m": 9999,
      "fzfg": false,
      "metar_trigger": false,
      "taf_trigger": false,
      "metar": "METAR LEBL 111700Z 06014KT CAVOK 21/09 Q1009 NOSIG",
      "taf": "TAF LEBL 111100Z 1112/1212 16008KT CAVOK TX23/1112Z TN11/1206Z"
    },
    {
      "icao": "LECH",
      "alert": "OK",
      "vis_m": 9000,
      "fzfg": false,
      "metar_trigger": false,
      "taf_trigger": false,
      "metar": "METAR LECH 111700Z AUTO 05007KT 9000 NSC 21/02 Q1009",
      "taf": "TAF LECH 111100Z 1112/1212 VRB04KT CAVOK TX26/1114Z TN08/1206Z"
    },
    {
      "icao": "LEMD",
      "alert": "OK",
      "vis_m": 8000,
      "fzfg": false,
      "metar_trigger": false,
      "taf_trigger": false,
      "metar": "METAR LEMD 111700Z 33007KT 300V360 8000 NSC 22/05 Q1009 NOSIG",
      "taf": ""
    },
    {
      "icao": "LEMG",
      "alert": "OK",
      "vis_m": 9999,
      "fzfg": false,
      "metar_trigger": false,
      "taf_trigger": false,
      "metar": "METAR LEMG 111700Z VRB02KT 9999 FEW070 18/13 Q1009 NOSIG",
      "taf": ""
    },
    {
      "icao": "LEVC",
      "alert": "OK",
      "vis_m": 9999,
      "fzfg": false,
      "metar_trigger": false,
      "taf_trigger": false,
      "metar": "METAR LEVC 111700Z 09006KT 040V130 CAVOK 21/04 Q1008 NOSIG",
      "taf": "TAF LEVC 111100Z 1112/1212 08009KT CAVOK TX23/1113Z TN11/1206Z"
    },
    {
      "icao": "LEXJ",
      "alert": "OK",
      "vis_m": 9999,
      "fzfg": false,
      "metar_trigger": false,
      "taf_trigger": false,
      "metar": "METAR LEXJ 111700Z 35005KT 310V030 9999 FEW043 BKN069 OVC076 12/04 Q1020",
      "taf": ""
    },
    {
      "icao": "LEZG",
      "alert": "OK",
      "vis_m": 9999,
      "fzfg": false,
      "metar_trigger": false,
      "taf_trigger": false,
      "metar": "METAR LEZG 111700Z 29023KT CAVOK 18/09 Q1012 NOSIG",
      "taf": "TAF LEZG 111100Z 1112/1212 11007KT CAVOK TX27/1113Z TN07/1206Z"
    },
    {
      "icao": "LEZL",
      "alert": "OK",
      "vis_m": 9999,
      "fzfg": false,
      "metar_trigger": false,
      "taf_trigger": false,
      "metar": "METAR LEZL 111700Z 22012KT CAVOK 21/16 Q1009 NOSIG",
      "taf": "TAF LEZL 111400Z 1115/1215 20010KT 9999 FEW030 TX22/1115Z TN12/1206Z"
    },
    {
      "icao": "LFBD",
      "alert": "OK",
      "vis_m": 9999,
      "fzfg": false,
      "metar_trigger": false,
      "taf_trigger": false,
      "metar": "METAR LFBD 111700Z AUTO 34004KT 320V030 9999 -RA FEW014/// SCT052/// OVC072/// ///TCU 10/09 Q1018 TEMPO 3000 RA BKN008 FEW015CB BKN020TCU",
      "taf": ""
    },
    {
      "icao": "LFLL",
      "alert": "OK",
      "vis_m": 9999,
      "fzfg": false,
      "metar_trigger": false,
      "taf_trigger": false,
      "metar": "METAR LFLL 111700Z 35007KT 9999 VCSH SCT080TCU BKN100 22/11 Q1010 TEMPO 4000 RA FEW040CB BKN050TCU",
      "taf": "TAF LFLL 111100Z 1112/1218 18010KT CAVOK"
    },
    {
      "icao": "LFLS",
      "alert": "OK",
      "vis_m": 9999,
      "fzfg": false,
      "metar_trigger": false,
      "taf_trigger": false,
      "metar": "METAR LFLS 111700Z AUTO 23007KT 180V250 CAVOK 21/09 Q1011 TEMPO VRB15G35KT 4000 TSRAGS BKN040 BKN090CB",
      "taf": "TAF LFLS 111400Z 1115/1215 VRB05KT CAVOK"
    },
    {
      "icao": "LFMN",
      "alert": "OK",
      "vis_m": 9999,
      "fzfg": false,
      "metar_trigger": false,
      "taf_trigger": false,
      "metar": "METAR LFMN 111700Z 13003KT CAVOK 18/14 Q1013 NOSIG",
      "taf": "TAF LFMN 111400Z 1115/1221 12005KT CAVOK"
    },
    {
      "icao": "LFOB",
      "alert": "OK",
      "vis_m": 9999,
      "fzfg": false,
      "metar_trigger": false,
      "taf_trigger": false,
      "metar": "METAR LFOB 111700Z AUTO 27004KT 230V290 CAVOK 09/05 Q1013 NOSIG",
      "taf": ""
    },
    {
      "icao": "LFPO",
      "alert": "OK",
      "vis_m": 9999,
      "fzfg": false,
      "metar_trigger": false,
      "taf_trigger": false,
      "metar": "METAR LFPO 111700Z 31007KT 9999 SCT013 BKN026 09/07 Q1014 NOSIG",
      "taf": "TAF LFPO 111100Z 1112/1218 24012KT 9999 SCT025"
    },
    {
      "icao": "LFSB",
      "alert": "OK",
      "vis_m": 9999,
      "fzfg": false,
      "metar_trigger": false,
      "taf_trigger": false,
      "metar": "METAR LFSB 111700Z AUTO VRB03KT 9999 ///TCU 18/12 Q1011 BECMG NSC",
      "taf": "TAF LFSB 111100Z 1112/1212 26005KT CAVOK"
    },
    {
      "icao": "LGAV",
      "alert": "OK",
      "vis_m": 9999,
      "fzfg": false,
      "metar_trigger": false,
      "taf_trigger": false,
      "metar": "METAR LGAV 111650Z 09004KT 9999 DZ SCT030 14/09 Q1017 NOSIG",
      "taf": "TAF LGAV 111700Z 1118/1218 10010KT 9999 SCT025 SCT070"
    },
    {
      "icao": "LGTS",
      "alert": "OK",
      "vis_m": 9999,
      "fzfg": false,
      "metar_trigger": false,
      "taf_trigger": false,
      "metar": "METAR LGTS 111650Z 18004KT 9999 FEW020 SCT035 13/09 Q1018 NOSIG",
      "taf": "TAF LGTS 111700Z 1118/1218 15013KT 9999 SCT025"
    },
    {
      "icao": "LHBP",
      "alert": "OK",
      "vis_m": 9999,
      "fzfg": false,
      "metar_trigger": false,
      "taf_trigger": false,
      "metar": "METAR LHBP 111700Z 11004KT CAVOK 13/M03 Q1016 NOSIG",
      "taf": "TAF LHBP 111115Z 1112/1212 VRB03KT CAVOK"
    },
    {
      "icao": "LHDC",
      "alert": "OK",
      "vis_m": 9999,
      "fzfg": false,
      "metar_trigger": false,
      "taf_trigger": false,
      "metar": "METAR LHDC 111645Z AUTO 05006KT CAVOK 10/M03 Q1017 NOSIG",
      "taf": "TAF LHDC 111415Z 1115/1124 VRB05KT CAVOK"
    },
    {
      "icao": "LIBD",
      "alert": "OK",
      "vis_m": 9999,
      "fzfg": false,
      "metar_trigger": false,
      "taf_trigger": false,
      "metar": "METAR LIBD 111650Z 07007KT CAVOK 16/12 Q1014",
      "taf": "TAF LIBD 111100Z 1112/1212 07010KT 9999 FEW040"
    },
    {
      "icao": "LIBG",
      "alert": "OK",
      "vis_m": 9999,
      "fzfg": false,
      "metar_trigger": false,
      "taf_trigger": false,
      "metar": "METAR LIBG 111650Z 18003KT CAVOK 19/14 Q1014",
      "taf": "TAF LIBG 111400Z 1115/1124 20008KT CAVOK"
    },
    {
      "icao": "LIBP",
      "alert": "OK",
      "vis_m": 9999,
      "fzfg": false,
      "metar_trigger": false,
      "taf_trigger": false,
      "metar": "METAR LIBP 111650Z AUTO 07006KT 9999 FEW110/// 17/13 Q1014",
      "taf": "TAF LIBP 111100Z 1112/1212 09010KT 9999 FEW030"
    },
    {
      "icao": "LIBR",
      "alert": "OK",
      "vis_m": 9999,
      "fzfg": false,
      "metar_trigger": false,
      "taf_trigger": false,
      "metar": "METAR LIBR 111650Z 13005KT CAVOK 17/14 Q1014",
      "taf": "TAF LIBR 111100Z 1112/1212 08010KT 8000 FEW030"
    },
    {
      "icao": "LICA",
      "alert": "OK",
      "vis_m": 9999,
      "fzfg": false,
      "metar_trigger": false,
      "taf_trigger": false,
      "metar": "METAR LICA 111650Z AUTO 24002KT 9999 NCD 20/09 Q1014",
      "taf": "TAF LICA 111100Z 1112/1212 28012KT CAVOK"
    },
    {
      "icao": "LICC",
      "alert": "OK",
      "vis_m": 9999,
      "fzfg": false,
      "metar_trigger": false,
      "taf_trigger": false,
      "metar": "METAR LICC 111650Z 06009KT CAVOK 22/14 Q1013",
      "taf": "TAF LICC 111100Z 1112/1212 10012KT CAVOK"
    },
    {
      "icao": "LICJ",
      "alert": "OK",
      "vis_m": 9999,
      "fzfg": false,
      "metar_trigger": false,
      "taf_trigger": false,
      "metar": "METAR LICJ 111650Z 05004KT CAVOK 20/08 Q1013",
      "taf": "TAF LICJ 111100Z 1112/1212 28010KT CAVOK"
    },
    {
      "icao": "LIMC",
      "alert": "OK",
      "vis_m": 9999,
      "fzfg": false,
      "metar_trigger": false,
      "taf_trigger": false,
      "metar": "METAR LIMC 111650Z VRB02KT CAVOK 21/06 Q1013 NOSIG",
      "taf": "TAF LIMC 111100Z 1112/1218 VRB05KT 9999 SCT045"
    },
    {
      "icao": "LIME",
      "alert": "OK",
      "vis_m": 9999,
      "fzfg": false,
      "metar_trigger": false,
      "taf_trigger": false,
      "metar": "METAR LIME 111650Z 17003KT 140V220 CAVOK 19/06 Q1014 NOSIG",
      "taf": "TAF LIME 111100Z 1112/1212 VRB05KT 9999 SCT040"
    },
    {
      "icao": "LIMF",
      "alert": "OK",
      "vis_m": 9999,
      "fzfg": false,
      "metar_trigger": false,
      "taf_trigger": false,
      "metar": "METAR LIMF 111650Z 07002KT CAVOK 19/08 Q1013",
      "taf": "TAF LIMF 111100Z 1112/1212 VRB05KT 9999 SCT025"
    },
    {
      "icao": "LIMJ",
      "alert": "OK",
      "vis_m": 9999,
      "fzfg": false,
      "metar_trigger": false,
      "taf_trigger": false,
      "metar": "METAR LIMJ 111650Z 25004KT CAVOK 17/14 Q1013",
      "taf": "TAF LIMJ 111100Z 1112/1212 VRB05KT 9999 FEW030"
    },
    {
      "icao": "LIPE",
      "alert": "OK",
      "vis_m": 9999,
      "fzfg": false,
      "metar_trigger": false,
      "taf_trigger": false,
      "metar": "METAR LIPE 111650Z 07005KT CAVOK 19/12 Q1013",
      "taf": "TAF LIPE 111100Z 1112/1212 VRB04KT 7000 SCT020"
    },
    {
      "icao": "LIPH",
      "alert": "OK",
      "vis_m": 9999,
      "fzfg": false,
      "metar_trigger": false,
      "taf_trigger": false,
      "metar": "METAR LIPH 111650Z 13005KT CAVOK 18/08 Q1014",
      "taf": "TAF LIPH 111100Z 1112/1212 VRB05KT 9999 FEW060"
    },
    {
      "icao": "LIPQ",
      "alert": "OK",
      "vis_m": 9999,
      "fzfg": false,
      "metar_trigger": false,
      "taf_trigger": false,
      "metar": "METAR LIPQ 111650Z AUTO 19006KT 9999 NCD 18/05 Q1014",
      "taf": "TAF LIPQ 111100Z 1112/1212 22010KT 9999 FEW060"
    },
    {
      "icao": "LIPR",
      "alert": "OK",
      "vis_m": 9999,
      "fzfg": false,
      "metar_trigger": false,
      "taf_trigger": false,
      "metar": "METAR LIPR 111650Z 10007KT CAVOK 15/13 Q1014",
      "taf": "TAF LIPR 111100Z 1112/1212 05010KT 8000 SCT014"
    },
    {
      "icao": "LIPX",
      "alert": "OK",
      "vis_m": 9999,
      "fzfg": false,
      "metar_trigger": false,
      "taf_trigger": false,
      "metar": "METAR LIPX 111650Z 12005KT 090V170 CAVOK 21/06 Q1013",
      "taf": "TAF LIPX 111100Z 1112/1212 11010KT CAVOK"
    },
    {
      "icao": "LIPY",
      "alert": "OK",
      "vis_m": 9999,
      "fzfg": false,
      "metar_trigger": false,
      "taf_trigger": false,
      "metar": "METAR LIPY 111650Z AUTO 18005KT 130V210 9999 NCD 18/12 Q1013",
      "taf": "TAF LIPY 111100Z 1112/1212 10012KT 9999 FEW030"
    },
    {
      "icao": "LIPZ",
      "alert": "OK",
      "vis_m": 9999,
      "fzfg": false,
      "metar_trigger": false,
      "taf_trigger": false,
      "metar": "METAR LIPZ 111650Z 19006KT CAVOK 17/09 Q1014 NOSIG",
      "taf": "TAF LIPZ 111100Z 1112/1218 15010KT CAVOK"
    },
    {
      "icao": "LIRF",
      "alert": "OK",
      "vis_m": 9999,
      "fzfg": false,
      "metar_trigger": false,
      "taf_trigger": false,
      "metar": "METAR LIRF 111650Z 28004KT 250V320 CAVOK 18/14 Q1013 NOSIG",
      "taf": "TAF LIRF 111100Z 1112/1218 23010KT CAVOK"
    },
    {
      "icao": "LIRN",
      "alert": "OK",
      "vis_m": 9999,
      "fzfg": false,
      "metar_trigger": false,
      "taf_trigger": false,
      "metar": "METAR LIRN 111650Z AUTO 19006KT 9999 NCD 18/13 Q1014",
      "taf": "TAF LIRN 111100Z 1112/1212 23010KT CAVOK"
    },
    {
      "icao": "LIRP",
      "alert": "OK",
      "vis_m": 9999,
      "fzfg": false,
      "metar_trigger": false,
      "taf_trigger": false,
      "metar": "METAR LIRP 111645Z 29006KT CAVOK 18/12 Q1013 NOSIG",
      "taf": "TAF LIRP 111100Z 1112/1212 27005KT 9999 SCT030"
    },
    {
      "icao": "LIRZ",
      "alert": "OK",
      "vis_m": 9999,
      "fzfg": false,
      "metar_trigger": false,
      "taf_trigger": false,
      "metar": "METAR LIRZ 111650Z AUTO 20008KT 9999 NCD 23/10 Q1012",
      "taf": "TAF LIRZ 111100Z 1112/1212 VRB05KT CAVOK"
    },
    {
      "icao": "LJLJ",
      "alert": "OK",
      "vis_m": 9999,
      "fzfg": false,
      "metar_trigger": false,
      "taf_trigger": false,
      "metar": "METAR LJLJ 111700Z 07002KT 9999 FEW050 16/06 Q1013 NOSIG",
      "taf": "TAF LJLJ 111700Z 1118/1218 30003KT 9999 FEW050"
    },
    {
      "icao": "LKMT",
      "alert": "OK",
      "vis_m": 9999,
      "fzfg": false,
      "metar_trigger": false,
      "taf_trigger": false,
      "metar": "METAR LKMT 111700Z 05008KT CAVOK 07/M03 Q1018 NOSIG",
      "taf": "TAF LKMT 111100Z 1112/1212 04006KT CAVOK"
    },
    {
      "icao": "LKPR",
      "alert": "OK",
      "vis_m": 9999,
      "fzfg": false,
      "metar_trigger": false,
      "taf_trigger": false,
      "metar": "METAR LKPR 111700Z 08009KT CAVOK 10/M03 Q1016 NOSIG",
      "taf": "TAF LKPR 111400Z 1115/1221 08006KT CAVOK"
    },
    {
      "icao": "LLBG",
      "alert": "OK",
      "vis_m": 9999,
      "fzfg": false,
      "metar_trigger": false,
      "taf_trigger": false,
      "metar": "METAR LLBG 111650Z 30007KT 9999 FEW030 18/11 Q1017 NOSIG",
      "taf": "TAF LLBG 111701Z 1118/1218 VRB03KT 9999 SCT025 TX21/1212Z TN11/1203Z"
    },
    {
      "icao": "LMML",
      "alert": "OK",
      "vis_m": 9999,
      "fzfg": false,
      "metar_trigger": false,
      "taf_trigger": false,
      "metar": "METAR LMML 111715Z 13008KT CAVOK 19/11 Q1013 NOSIG",
      "taf": "TAF LMML 111700Z 1118/1218 13008KT CAVOK"
    },
    {
      "icao": "LOWW",
      "alert": "OK",
      "vis_m": 9999,
      "fzfg": false,
      "metar_trigger": false,
      "taf_trigger": false,
      "metar": "METAR LOWW 111650Z 06004KT CAVOK 13/M00 Q1016 NOSIG",
      "taf": "TAF LOWW 111715Z 1118/1224 VRB04KT 9999 FEW035 TX17/1214Z TN04/1204Z"
    },
    {
      "icao": "LPFR",
      "alert": "OK",
      "vis_m": 9999,
      "fzfg": false,
      "metar_trigger": false,
      "taf_trigger": false,
      "metar": "METAR LPFR 111700Z 30015KT CAVOK 22/14 Q1010",
      "taf": "TAF LPFR 111700Z 1118/1218 33015KT 9999 FEW025"
    },
    {
      "icao": "LPMA",
      "alert": "OK",
      "vis_m": 7000,
      "fzfg": false,
      "metar_trigger": false,
      "taf_trigger": false,
      "metar": "METAR LPMA 111700Z 01018KT 330V050 7000 -SHRA BKN013 16/13 Q1022",
      "taf": "TAF LPMA 111700Z 1118/1218 01015KT 9999 SCT015"
    },
    {
      "icao": "LPPR",
      "alert": "OK",
      "vis_m": 9999,
      "fzfg": false,
      "metar_trigger": false,
      "taf_trigger": false,
      "metar": "METAR LPPR 111700Z 34026G36KT 9999 FEW015 13/05 Q1016",
      "taf": "TAF LPPR 111700Z 1118/1218 34018KT 9999 FEW025"
    },
    {
      "icao": "LPPS",
      "alert": "OK",
      "vis_m": 9999,
      "fzfg": false,
      "metar_trigger": false,
      "taf_trigger": false,
      "metar": "METAR LPPS 111700Z 02018KT 9999 SCT012 SCT030 16/13 Q1023",
      "taf": "TAF LPPS 111700Z 1118/1224 02018KT 9999 SCT015 BKN030"
    },
    {
      "icao": "LPPT",
      "alert": "OK",
      "vis_m": 9999,
      "fzfg": false,
      "metar_trigger": false,
      "taf_trigger": false,
      "metar": "METAR LPPT 111700Z 34024KT 9999 FEW030 14/06 Q1015",
      "taf": "TAF LPPT 111700Z 1118/1224 34018KT 9999 FEW025"
    },
    {
      "icao": "LQBK",
      "alert": "OK",
      "vis_m": 9999,
      "fzfg": false,
      "metar_trigger": false,
      "taf_trigger": false,
      "metar": "METAR LQBK 111700Z 02004KT CAVOK 16/05 Q1015",
      "taf": "TAF LQBK 111700Z 1118/1218 03005KT CAVOK TX20/1214Z TN05/1204Z"
    },
    {
      "icao": "LQSA",
      "alert": "OK",
      "vis_m": 9999,
      "fzfg": false,
      "metar_trigger": false,
      "taf_trigger": false,
      "metar": "METAR LQSA 111700Z 33005KT CAVOK 17/02 Q1014 NOSIG",
      "taf": "TAF LQSA 111700Z 1118/1218 VRB02KT CAVOK TX21/1214Z TN04/1204Z"
    },
    {
      "icao": "LQTZ",
      "alert": "OK",
      "vis_m": 9999,
      "fzfg": false,
      "metar_trigger": false,
      "taf_trigger": false,
      "metar": "METAR LQTZ 111700Z 08004KT 040V110 CAVOK 14/04 Q1016",
      "taf": "TAF LQTZ 111700Z 1118/1218 06005KT 9999 FEW050 TX19/1214Z TN05/1204Z"
    },
    {
      "icao": "LRBC",
      "alert": "OK",
      "vis_m": 9999,
      "fzfg": false,
      "metar_trigger": false,
      "taf_trigger": false,
      "metar": "METAR LRBC 111700Z 16003KT CAVOK 10/M01 Q1017",
      "taf": "TAF LRBC 111400Z 1115/1124 VRB04KT 9999 BKN060"
    },
    {
      "icao": "LRBS",
      "alert": "OK",
      "vis_m": 9999,
      "fzfg": false,
      "metar_trigger": false,
      "taf_trigger": false,
      "metar": "METAR LRBS 111700Z 27003KT CAVOK 09/03 Q1017 NOSIG",
      "taf": "TAF LRBS 111100Z 1112/1212 VRB04KT CAVOK"
    },
    {
      "icao": "LRBV",
      "alert": "OK",
      "vis_m": 9999,
      "fzfg": false,
      "metar_trigger": false,
      "taf_trigger": false,
      "metar": "METAR LRBV 111700Z 19002KT 9999 SCT059 BKN072 08/M02 Q1016",
      "taf": "TAF LRBV 111400Z 1115/1124 VRB04KT 9999 BKN050"
    },
    {
      "icao": "LRCL",
      "alert": "OK",
      "vis_m": 9999,
      "fzfg": false,
      "metar_trigger": false,
      "taf_trigger": false,
      "metar": "METAR LRCL 111700Z 36004KT CAVOK 10/M05 Q1016",
      "taf": "TAF LRCL 111400Z 1115/1124 29006KT CAVOK"
    },
    {
      "icao": "LRCV",
      "alert": "OK",
      "vis_m": 9999,
      "fzfg": false,
      "metar_trigger": false,
      "taf_trigger": false,
      "metar": "METAR LRCV 111700Z 16006KT CAVOK 08/05 Q1017",
      "taf": "TAF LRCV 111400Z 1115/1124 VRB04KT 9999 BKN040"
    },
    {
      "icao": "LRIA",
      "alert": "OK",
      "vis_m": 9999,
      "fzfg": false,
      "metar_trigger": false,
      "taf_trigger": false,
      "metar": "METAR LRIA 111700Z 36005KT CAVOK 09/M01 Q1018",
      "taf": "TAF LRIA 111400Z 1115/1124 VRB04KT CAVOK"
    },
    {
      "icao": "LROP",
      "alert": "OK",
      "vis_m": 9999,
      "fzfg": false,
      "metar_trigger": false,
      "taf_trigger": false,
      "metar": "METAR LROP 111700Z 26003KT CAVOK 09/01 Q1017 NOSIG",
      "taf": "TAF LROP 111100Z 1112/1212 VRB04KT CAVOK"
    },
    {
      "icao": "LRSB",
      "alert": "OK",
      "vis_m": 9999,
      "fzfg": false,
      "metar_trigger": false,
      "taf_trigger": false,
      "metar": "METAR LRSB 111700Z 35005KT 9999 FEW080 09/M04 Q1016",
      "taf": "TAF LRSB 111100Z 1112/1212 VRB04KT 9999 SCT060"
    },
    {
      "icao": "LRSM",
      "alert": "OK",
      "vis_m": 9999,
      "fzfg": false,
      "metar_trigger": false,
      "taf_trigger": false,
      "metar": "METAR LRSM 111700Z 02003KT CAVOK 10/M03 Q1017",
      "taf": "TAF LRSM 111400Z 1115/1124 35007KT CAVOK"
    },
    {
      "icao": "LRSV",
      "alert": "OK",
      "vis_m": 9999,
      "fzfg": false,
      "metar_trigger": false,
      "taf_trigger": false,
      "metar": "METAR LRSV 111700Z 04001KT CAVOK 07/M02 Q1017",
      "taf": "TAF LRSV 111400Z 1115/1124 VRB04KT 9999 BKN045"
    },
    {
      "icao": "LRTM",
      "alert": "OK",
      "vis_m": 9999,
      "fzfg": false,
      "metar_trigger": false,
      "taf_trigger": false,
      "metar": "METAR LRTM 111700Z VRB01KT CAVOK 08/M04 Q1016",
      "taf": "TAF LRTM 111400Z 1115/1124 30007KT CAVOK"
    },
    {
      "icao": "LRTR",
      "alert": "OK",
      "vis_m": 9999,
      "fzfg": false,
      "metar_trigger": false,
      "taf_trigger": false,
      "metar": "METAR LRTR 111700Z 02004KT CAVOK 10/03 Q1017",
      "taf": "TAF LRTR 111100Z 1112/1212 VRB04KT CAVOK"
    },
    {
      "icao": "LTAC",
      "alert": "OK",
      "vis_m": 9999,
      "fzfg": false,
      "metar_trigger": false,
      "taf_trigger": false,
      "metar": "METAR LTAC 111650Z 05011KT 9999 SCT040 03/M00 Q1016 NOSIG RMK RWY21C 04009KT RWY03L 04009KT RWY21R 03009KT RWY03R 03011KT RWY21L 04009KT",
      "taf": "TAF LTAC 111640Z 1118/1218 VRB02KT 9999 SCT040"
    },
    {
      "icao": "LTFM",
      "alert": "OK",
      "vis_m": 9999,
      "fzfg": false,
      "metar_trigger": false,
      "taf_trigger": false,
      "metar": "METAR LTFM 111650Z 10010KT CAVOK 09/01 Q1019 NOSIG RMK RWY17L 10011KT RWY34L 08010KT RWY16R 10013KT RWY36 10009KT 040V110 RWY18 10010KT",
      "taf": "TAF LTFM 111640Z 1118/1224 08012KT CAVOK"
    },
    {
      "icao": "LUKK",
      "alert": "OK",
      "vis_m": 9999,
      "fzfg": false,
      "metar_trigger": false,
      "taf_trigger": false,
      "metar": "METAR LUKK 111700Z 05003KT 020V080 CAVOK 10/M01 Q1017 NOSIG",
      "taf": "TAF LUKK 111717Z 1118/1218 VRB05KT CAVOK"
    },
    {
      "icao": "LWOH",
      "alert": "OK",
      "vis_m": 9999,
      "fzfg": false,
      "metar_trigger": false,
      "taf_trigger": false,
      "metar": "METAR LWOH 111650Z 19003KT 9999 FEW040 13/04 Q1015",
      "taf": "TAF LWOH 111705Z 1118/1218 VRB03KT 9999 FEW040"
    },
    {
      "icao": "LWSK",
      "alert": "OK",
      "vis_m": null,
      "fzfg": false,
      "metar_trigger": false,
      "taf_trigger": false,
      "metar": "",
      "taf": "TAF LWSK 111705Z 1118/1218 VRB03KT CAVOK"
    },
    {
      "icao": "LYBE",
      "alert": "OK",
      "vis_m": 9999,
      "fzfg": false,
      "metar_trigger": false,
      "taf_trigger": false,
      "metar": "METAR LYBE 111700Z 02005KT CAVOK 12/01 Q1017 NOSIG",
      "taf": "TAF LYBE 111100Z 1112/1212 35010KT 9999 BKN040 TX17/1212Z TN03/1204Z"
    },
    {
      "icao": "LYNI",
      "alert": "OK",
      "vis_m": 9999,
      "fzfg": false,
      "metar_trigger": false,
      "taf_trigger": false,
      "metar": "METAR LYNI 111700Z 32009KT 9999 FEW037 SCT073 12/03 Q1017 NOSIG",
      "taf": "TAF LYNI 111100Z 1112/1212 34012KT 9999 BKN050 TX16/1212Z TN03/1205Z"
    },
    {
      "icao": "LYPG",
      "alert": "OK",
      "vis_m": 9999,
      "fzfg": false,
      "metar_trigger": false,
      "taf_trigger": false,
      "metar": "METAR LYPG 111700Z 13005KT 9999 FEW050 18/05 Q1014 NOSIG",
      "taf": "TAF LYPG 111100Z 1112/1212 18007KT 9999 FEW050 TX23/1212Z TN10/1204Z"
    },
    {
      "icao": "LZIB",
      "alert": "OK",
      "vis_m": 9999,
      "fzfg": false,
      "metar_trigger": false,
      "taf_trigger": false,
      "metar": "METAR LZIB 111700Z 07005KT 040V120 CAVOK 13/M02 Q1016 NOSIG",
      "taf": "TAF LZIB 111715Z 1118/1218 04006KT 9999 FEW035"
    },
    {
      "icao": "LZKZ",
      "alert": "OK",
      "vis_m": 9999,
      "fzfg": false,
      "metar_trigger": false,
      "taf_trigger": false,
      "metar": "METAR LZKZ 111700Z 02006KT CAVOK 09/M06 Q1018 NOSIG",
      "taf": "TAF LZKZ 111715Z 1118/1218 01008KT CAVOK"
    },
    {
      "icao": "LZTT",
      "alert": "OK",
      "vis_m": 9999,
      "fzfg": false,
      "metar_trigger": false,
      "taf_trigger": false,
      "metar": "METAR LZTT 111700Z 07009KT 9999 FEW063 04/M07 Q1017 NOSIG",
      "taf": "TAF LZTT 111715Z 1118/1218 06009KT 9999 FEW050"
    },
    {
      "icao": "OEJN",
      "alert": "OK",
      "vis_m": 9999,
      "fzfg": false,
      "metar_trigger": false,
      "taf_trigger": false,
      "metar": "METAR OEJN 111700Z 34013KT CAVOK 26/12 Q1012 NOSIG",
      "taf": "TAF OEJN 111700Z 1118/1224 35010KT CAVOK"
    },
    {
      "icao": "OEMA",
      "alert": "OK",
      "vis_m": 9999,
      "fzfg": false,
      "metar_trigger": false,
      "taf_trigger": false,
      "metar": "METAR OEMA 111700Z 26008KT CAVOK 28/M11 Q1013 NOSIG",
      "taf": "TAF OEMA 111700Z 1118/1224 27010KT CAVOK"
    },
    {
      "icao": "OJAI",
      "alert": "OK",
      "vis_m": 5000,
      "fzfg": false,
      "metar_trigger": false,
      "taf_trigger": false,
      "metar": "METAR OJAI 111600Z 26010KT 5000 HZ NSC 15/05 Q1017 NOSIG",
      "taf": "TAF OJAI 111700Z 1118/1224 26010KT 5000 HZ SCT030"
    },
    {
      "icao": "OMAA",
      "alert": "OK",
      "vis_m": null,
      "fzfg": false,
      "metar_trigger": false,
      "taf_trigger": false,
      "metar": "",
      "taf": ""
    },
    {
      "icao": "OMDB",
      "alert": "OK",
      "vis_m": null,
      "fzfg": false,
      "metar_trigger": false,
      "taf_trigger": false,
      "metar": "",
      "taf": ""
    },
    {
      "icao": "UAAA",
      "alert": "OK",
      "vis_m": 9999,
      "fzfg": false,
      "metar_trigger": false,
      "taf_trigger": false,
      "metar": "METAR UAAA 111700Z 20002MPS 170V230 9999 BKN200 11/06 Q1023 NOSIG",
      "taf": "TAF UAAA 111102Z 1112/1212 18002G07MPS 9999 SCT050CB BKN100 TX19/1208Z TN08/1201Z"
    },
    {
      "icao": "UBBB",
      "alert": "OK",
      "vis_m": 9999,
      "fzfg": false,
      "metar_trigger": false,
      "taf_trigger": false,
      "metar": "METAR UBBB 111700Z 34010KT CAVOK 10/08 Q1017 NOSIG",
      "taf": "TAF UBBB 111714Z 1118/1218 35014KT 9999 SCT012 BKN030 TX14/1210Z TN07/1201Z"
    },
    {
      "icao": "UDSG",
      "alert": "OK",
      "vis_m": 9999,
      "fzfg": false,
      "metar_trigger": false,
      "taf_trigger": false,
      "metar": "METAR UDSG 111700Z 19007KT 9999 BKN040CB 05/02 Q1014 NOSIG",
      "taf": "TAF UDSG 111100Z 1112/1212 36006KT 9999 BKN030"
    },
    {
      "icao": "UDYZ",
      "alert": "OK",
      "vis_m": 9999,
      "fzfg": false,
      "metar_trigger": false,
      "taf_trigger": false,
      "metar": "METAR UDYZ 111700Z 09004KT 050V120 9999 BKN043CB 15/03 Q1012 NOSIG",
      "taf": "TAF UDYZ 111100Z 1112/1212 24006KT 9999 SCT040"
    },
    {
      "icao": "UGKO",
      "alert": "OK",
      "vis_m": 9999,
      "fzfg": false,
      "metar_trigger": false,
      "taf_trigger": false,
      "metar": "METAR UGKO 111700Z 24007KT 9999 -SHRA SCT043CB OVC092 08/07 Q1019 NOSIG",
      "taf": "TAF UGKO 111700Z 1118/1218 25007KT 9999 SCT020 BKN045 TX12/1211Z TN06/1203Z"
    }
  ]
}