{
  "ts_utc": "2026-01-03T14:27:36Z",
  "threshold_m": 150,
  "source": "stations_override.txt (ICAO list) + aviationweather.gov (METAR/TAF raw)",
  "station_count": 159,
  "stations": [
    {
      "icao": "BIKF",
      "alert": "OK",
      "vis_m": 9999,
      "fzfg": false,
      "metar_trigger": false,
      "taf_trigger": false,
      "metar": "METAR BIKF 031400Z 36007KT CAVOK M04/M08 Q1029",
      "taf": "TAF BIKF 031357Z 0315/0415 01008KT CAVOK TXM01/0415Z TNM07/0315Z"
    },
    {
      "icao": "BKPR",
      "alert": "OK",
      "vis_m": 9999,
      "fzfg": false,
      "metar_trigger": false,
      "taf_trigger": false,
      "metar": "METAR BKPR 031400Z 24003KT 190V340 9999 FEW020 BKN040 11/06 Q1006 NOSIG",
      "taf": "TAF BKPR 031130Z 0312/0412 18008KT 9999 BKN030"
    },
    {
      "icao": "EBCI",
      "alert": "OK",
      "vis_m": 9999,
      "fzfg": false,
      "metar_trigger": false,
      "taf_trigger": false,
      "metar": "METAR EBCI 031420Z 26009KT 9999 SCT017 BKN022 00/M04 Q1006 TEMPO FM1500 1200 SHSN SN BKN004 BKN010CB",
      "taf": "TAF EBCI 031120Z 0312/0418 26010KT 9999 FEW015 SCT025"
    },
    {
      "icao": "EDDB",
      "alert": "OK",
      "vis_m": 1100,
      "fzfg": false,
      "metar_trigger": false,
      "taf_trigger": false,
      "metar": "METAR EDDB 031420Z AUTO 23013KT 1100 R24R/1900N R24L/1600U -SN BR BKN005 BKN010 BKN019 M00/M00 Q0996 RESHSN TEMPO 24015G25KT 3000 -SN",
      "taf": ""
    },
    {
      "icao": "EDDH",
      "alert": "OK",
      "vis_m": 9999,
      "fzfg": false,
      "metar_trigger": false,
      "taf_trigger": false,
      "metar": "METAR EDDH 031420Z AUTO 24006KT 220V280 9999 BKN006 M01/M02 Q0995 TEMPO 2000 SN",
      "taf": "TAF EDDH 031100Z 0312/0418 24004KT 8000 SCT005"
    },
    {
      "icao": "EDDK",
      "alert": "OK",
      "vis_m": 2400,
      "fzfg": false,
      "metar_trigger": false,
      "taf_trigger": false,
      "metar": "METAR EDDK 031420Z AUTO 26016G27KT 230V290 2400 SN BR FEW004 BKN020 BKN025 01/M02 Q1003 TEMPO 1400 SN BKN008",
      "taf": "TAF EDDK 031100Z 0312/0418 27012KT 9000 BKN020"
    },
    {
      "icao": "EDDN",
      "alert": "OK",
      "vis_m": 9999,
      "fzfg": false,
      "metar_trigger": false,
      "taf_trigger": false,
      "metar": "METAR EDDN 031420Z AUTO 23013KT 9999 -SN SCT028 BKN032 BKN041 M00/M07 Q1003 NOSIG",
      "taf": "TAF EDDN 031100Z 0312/0412 24010KT 9999 OVC030"
    },
    {
      "icao": "EDDS",
      "alert": "OK",
      "vis_m": 9999,
      "fzfg": false,
      "metar_trigger": false,
      "taf_trigger": false,
      "metar": "METAR EDDS 031420Z AUTO 24013KT 200V270 9999 -SN FEW021 BKN032 BKN044 M01/M06 Q1004 TEMPO 25015G25KT 3000 SHSN BKN015TCU",
      "taf": "TAF EDDS 031100Z 0312/0412 22010KT 9999 FEW015 SCT025"
    },
    {
      "icao": "EDFH",
      "alert": "OK",
      "vis_m": 9999,
      "fzfg": false,
      "metar_trigger": false,
      "taf_trigger": false,
      "metar": "METAR EDFH 031420Z 26012KT 9999 -SN FEW007 BKN010 OVC035 M03/M05 Q1002",
      "taf": "TAF EDFH 031100Z 0312/0412 26012KT 9999 SCT006 BKN012"
    },
    {
      "icao": "EDJA",
      "alert": "OK",
      "vis_m": 9999,
      "fzfg": false,
      "metar_trigger": false,
      "taf_trigger": false,
      "metar": "METAR EDJA 031420Z 23012KT CAVOK M03/M08 Q1004",
      "taf": "TAF EDJA 031400Z 0315/0324 23012KT CAVOK"
    },
    {
      "icao": "EDLW",
      "alert": "OK",
      "vis_m": 1800,
      "fzfg": false,
      "metar_trigger": false,
      "taf_trigger": false,
      "metar": "METAR EDLW 031420Z 24011KT 1800 SN FEW004 BKN007 OVC010 M00/M01 Q1000",
      "taf": "TAF EDLW 031100Z 0312/0412 26015KT 8000 BKN012"
    },
    {
      "icao": "EDNY",
      "alert": "OK",
      "vis_m": 9999,
      "fzfg": false,
      "metar_trigger": false,
      "taf_trigger": false,
      "metar": "METAR EDNY 031420Z 25011KT CAVOK M01/M07 Q1007",
      "taf": "TAF EDNY 031400Z 0315/0324 25007KT CAVOK"
    },
    {
      "icao": "EDSB",
      "alert": "OK",
      "vis_m": 2400,
      "fzfg": false,
      "metar_trigger": false,
      "taf_trigger": false,
      "metar": "METAR EDSB 031420Z 21012KT 2400 -SN BR OVC006 M01/M02 Q1007 RESN",
      "taf": "TAF EDSB 031100Z 0312/0412 20014KT 9999 SCT025 BKN035"
    },
    {
      "icao": "EETN",
      "alert": "OK",
      "vis_m": 9000,
      "fzfg": false,
      "metar_trigger": false,
      "taf_trigger": false,
      "metar": "METAR EETN 031420Z 09009KT 9000 -SN BKN017 OVC026 M04/M05 Q0990 TEMPO 3000 SN",
      "taf": ""
    },
    {
      "icao": "EFTU",
      "alert": "OK",
      "vis_m": 9999,
      "fzfg": false,
      "metar_trigger": false,
      "taf_trigger": false,
      "metar": "METAR EFTU 031420Z AUTO 07007KT 9999 OVC011 M07/M09 Q0992",
      "taf": "TAF EFTU 031124Z 0312/0412 06012KT 9999 OVC010"
    },
    {
      "icao": "EGBB",
      "alert": "OK",
      "vis_m": 9999,
      "fzfg": false,
      "metar_trigger": false,
      "taf_trigger": false,
      "metar": "METAR EGBB 031420Z 32014KT 9999 FEW034 02/M04 Q1012",
      "taf": "TAF EGBB 031058Z 0312/0412 30012KT CAVOK"
    },
    {
      "icao": "EGGP",
      "alert": "OK",
      "vis_m": 9999,
      "fzfg": false,
      "metar_trigger": false,
      "taf_trigger": false,
      "metar": "METAR EGGP 031420Z 33013KT 9999 FEW038 03/M05 Q1013",
      "taf": "TAF EGGP 031057Z 0312/0412 31009KT 9999 SCT030"
    },
    {
      "icao": "EGGW",
      "alert": "OK",
      "vis_m": 9999,
      "fzfg": false,
      "metar_trigger": false,
      "taf_trigger": false,
      "metar": "METAR EGGW 031420Z AUTO 32018KT 9999 NCD 01/M05 Q1009",
      "taf": "TAF EGGW 031056Z 0312/0412 30012KT 9999 FEW025"
    },
    {
      "icao": "EGKK",
      "alert": "OK",
      "vis_m": 9999,
      "fzfg": false,
      "metar_trigger": false,
      "taf_trigger": false,
      "metar": "METAR EGKK 031420Z 31012KT 280V350 CAVOK 03/M05 Q1010",
      "taf": "TAF EGKK 031053Z 0312/0418 30010KT CAVOK"
    },
    {
      "icao": "EGNM",
      "alert": "OK",
      "vis_m": 9999,
      "fzfg": false,
      "metar_trigger": false,
      "taf_trigger": false,
      "metar": "METAR EGNM 031420Z 30015KT 9999 FEW028 01/M05 Q1010",
      "taf": "TAF EGNM 031059Z 0312/0412 30015KT 9999 FEW030"
    },
    {
      "icao": "EGPD",
      "alert": "OK",
      "vis_m": 7000,
      "fzfg": false,
      "metar_trigger": false,
      "taf_trigger": false,
      "metar": "METAR EGPD 031420Z 33015KT 7000 VCSH FEW014CB SCT026 00/M05 Q1009 TEMPO 1800 SHSN BKN010",
      "taf": "TAF EGPD 031057Z 0312/0412 31012KT 9999 SCT012"
    },
    {
      "icao": "EGPF",
      "alert": "OK",
      "vis_m": 9999,
      "fzfg": false,
      "metar_trigger": false,
      "taf_trigger": false,
      "metar": "METAR EGPF 031420Z AUTO 29009KT 270V340 9999 NCD 02/M04 Q1014",
      "taf": "TAF EGPF 031103Z 0312/0412 30009KT 9999 FEW030"
    },
    {
      "icao": "EHBK",
      "alert": "OK",
      "vis_m": 9999,
      "fzfg": false,
      "metar_trigger": false,
      "taf_trigger": false,
      "metar": "METAR EHBK 031355Z AUTO 24010KT 210V290 9999 BKN024 OVC027 01/M03 Q1003 NOSIG",
      "taf": "TAF EHBK 031122Z 0312/0418 25011KT 9999 SCT015"
    },
    {
      "icao": "EHEH",
      "alert": "OK",
      "vis_m": 600,
      "fzfg": false,
      "metar_trigger": false,
      "taf_trigger": false,
      "metar": "METAR EHEH 031355Z AUTO 27006KT 230V290 0600 R21/1300N SN FEW000 SCT003 BKN004 FEW015CB 00/M00 Q1003 RED TEMPO 0600 SHSN SCT003 BKN005 SCT015CB RMK TREND REMOTE BY EHWX",
      "taf": ""
    },
    {
      "icao": "EKBI",
      "alert": "OK",
      "vis_m": 9999,
      "fzfg": false,
      "metar_trigger": false,
      "taf_trigger": false,
      "metar": "METAR EKBI 031420Z AUTO 30003KT 9999 NCD M05/M08 Q0994",
      "taf": "TAF EKBI 031127Z 0312/0412 26005KT 9999 FEW030"
    },
    {
      "icao": "EKCH",
      "alert": "OK",
      "vis_m": 3000,
      "fzfg": false,
      "metar_trigger": false,
      "taf_trigger": false,
      "metar": "METAR EKCH 031420Z 29011KT 3000 -SHSN OVC014 M02/M04 Q0992 TEMPO 1200 SHSN SCT014",
      "taf": "TAF EKCH 031127Z 0312/0412 28010KT 9999 BKN040"
    },
    {
      "icao": "ENAL",
      "alert": "OK",
      "vis_m": 9999,
      "fzfg": false,
      "metar_trigger": false,
      "taf_trigger": false,
      "metar": "METAR ENAL 031420Z 10003KT CAVOK M05/M11 Q1002",
      "taf": ""
    },
    {
      "icao": "ENBR",
      "alert": "OK",
      "vis_m": 9999,
      "fzfg": false,
      "metar_trigger": false,
      "taf_trigger": false,
      "metar": "METAR ENBR 031420Z 36005KT 330V030 CAVOK M05/M14 Q1000 NOSIG RMK WIND 1200FT 03012KT",
      "taf": "TAF ENBR 031100Z 0312/0412 01008KT CAVOK"
    },
    {
      "icao": "ENGM",
      "alert": "OK",
      "vis_m": 8000,
      "fzfg": false,
      "metar_trigger": false,
      "taf_trigger": false,
      "metar": "METAR ENGM 031420Z 36016KT 8000 -SHSN FEW041 BKN048 M09/M12 Q0996 TEMPO 4000",
      "taf": "TAF ENGM 031100Z 0312/0412 36015KT 9000 -SN BKN040"
    },
    {
      "icao": "ENHD",
      "alert": "OK",
      "vis_m": 9999,
      "fzfg": false,
      "metar_trigger": false,
      "taf_trigger": false,
      "metar": "METAR ENHD 031420Z 04008KT 010V070 CAVOK M03/M12 Q0999",
      "taf": "TAF ENHD 031100Z 0312/0321 06009KT CAVOK"
    },
    {
      "icao": "ENTC",
      "alert": "OK",
      "vis_m": 9999,
      "fzfg": false,
      "metar_trigger": false,
      "taf_trigger": false,
      "metar": "METAR ENTC 031420Z 18011KT 9999 FEW023 SCT028 BKN062 M05/M09 Q1002 NOSIG RMK WIND 2600FT 18016KT",
      "taf": "TAF ENTC 031100Z 0312/0412 19009KT 9999 FEW020 BKN050"
    },
    {
      "icao": "ENTO",
      "alert": "OK",
      "vis_m": 9999,
      "fzfg": false,
      "metar_trigger": false,
      "taf_trigger": false,
      "metar": "METAR ENTO 031420Z 01013KT 9999 -SN OVC031 M06/M11 Q0995 TEMPO 4000",
      "taf": "TAF ENTO 031100Z 0312/0412 01015KT 8000 -SN BKN025"
    },
    {
      "icao": "ENVA",
      "alert": "OK",
      "vis_m": 9999,
      "fzfg": false,
      "metar_trigger": false,
      "taf_trigger": false,
      "metar": "METAR ENVA 031420Z 12008KT CAVOK M14/M17 Q1005 NOSIG RMK WIND 670FT 15009KT",
      "taf": "TAF ENVA 031100Z 0312/0412 12008KT CAVOK"
    },
    {
      "icao": "ENZV",
      "alert": "OK",
      "vis_m": 9999,
      "fzfg": false,
      "metar_trigger": false,
      "taf_trigger": false,
      "metar": "METAR ENZV 031420Z 01007KT CAVOK M04/M13 Q0999 NOSIG",
      "taf": "TAF ENZV 031100Z 0312/0412 03010KT CAVOK"
    },
    {
      "icao": "EPGD",
      "alert": "OK",
      "vis_m": 9999,
      "fzfg": false,
      "metar_trigger": false,
      "taf_trigger": false,
      "metar": "METAR EPGD 031400Z 24017KT 9999 DRSN FEW024 SCT030 M02/M07 Q0990",
      "taf": ""
    },
    {
      "icao": "EPKK",
      "alert": "OK",
      "vis_m": 9999,
      "fzfg": false,
      "metar_trigger": false,
      "taf_trigger": false,
      "metar": "METAR EPKK 031400Z 24014KT 9999 FEW033 01/M07 Q1002",
      "taf": "TAF EPKK 031130Z 0312/0412 23011KT 9999 SCT040"
    },
    {
      "icao": "EPKT",
      "alert": "OK",
      "vis_m": 9999,
      "fzfg": false,
      "metar_trigger": false,
      "taf_trigger": false,
      "metar": "METAR EPKT 031400Z 23018KT 9999 FEW034 00/M05 Q1000",
      "taf": "TAF EPKT 031130Z 0312/0412 24013KT 9999 SCT040"
    },
    {
      "icao": "EPLB",
      "alert": "OK",
      "vis_m": 9999,
      "fzfg": false,
      "metar_trigger": false,
      "taf_trigger": false,
      "metar": "METAR EPLB 031400Z 25016KT 9999 DRSN FEW046 M01/M07 Q0999",
      "taf": "TAF EPLB 031130Z 0312/0412 24015KT 9999 BKN040"
    },
    {
      "icao": "EPMO",
      "alert": "OK",
      "vis_m": 9999,
      "fzfg": false,
      "metar_trigger": false,
      "taf_trigger": false,
      "metar": "METAR EPMO 031400Z 24013KT 9999 -SHSN DRSN SCT022CB BKN033 M01/M03 Q0996",
      "taf": "TAF EPMO 031130Z 0312/0412 24015KT 9999 BKN030"
    },
    {
      "icao": "EPPO",
      "alert": "OK",
      "vis_m": 9999,
      "fzfg": false,
      "metar_trigger": false,
      "taf_trigger": false,
      "metar": "METAR EPPO 031400Z 24012KT 9999 -SN BKN008 00/M01 Q0996",
      "taf": "TAF EPPO 031130Z 0312/0412 23014KT 9999 FEW017"
    },
    {
      "icao": "EPRA",
      "alert": "OK",
      "vis_m": 9999,
      "fzfg": false,
      "metar_trigger": false,
      "taf_trigger": false,
      "metar": "METAR EPRA 031400Z 24012KT 9999 BKN030 M00/M06 Q0999",
      "taf": "TAF EPRA 031130Z 0312/0321 25014KT 9999 BKN030"
    },
    {
      "icao": "EPRZ",
      "alert": "OK",
      "vis_m": 9999,
      "fzfg": false,
      "metar_trigger": false,
      "taf_trigger": false,
      "metar": "METAR EPRZ 031400Z 24014KT 9999 FEW042 M00/M08 Q1002",
      "taf": ""
    },
    {
      "icao": "EPSC",
      "alert": "OK",
      "vis_m": 9999,
      "fzfg": false,
      "metar_trigger": false,
      "taf_trigger": false,
      "metar": "METAR EPSC 031400Z 27008KT CAVOK M01/M06 Q0994",
      "taf": "TAF EPSC 031130Z 0312/0412 24008KT 9999 SCT020"
    },
    {
      "icao": "EPSY",
      "alert": "OK",
      "vis_m": 9999,
      "fzfg": false,
      "metar_trigger": false,
      "taf_trigger": false,
      "metar": "METAR EPSY 031400Z 23012KT 9999 FEW026 M02/M06 Q0993",
      "taf": "TAF EPSY 031130Z 0312/0321 23010KT 9999 BKN020"
    },
    {
      "icao": "EPWA",
      "alert": "OK",
      "vis_m": 9999,
      "fzfg": false,
      "metar_trigger": false,
      "taf_trigger": false,
      "metar": "METAR EPWA 031400Z 23010KT 9999 -SHSN SCT026CB SCT029 00/M05 Q0997 TEMPO 1200 SHSN BKN012",
      "taf": "TAF EPWA 031130Z 0312/0412 24014KT 9999 BKN030"
    },
    {
      "icao": "EPWR",
      "alert": "OK",
      "vis_m": 9999,
      "fzfg": false,
      "metar_trigger": false,
      "taf_trigger": false,
      "metar": "METAR EPWR 031400Z 24014KT CAVOK 02/M05 Q0999",
      "taf": "TAF EPWR 031130Z 0312/0412 24015KT 9999 BKN040"
    },
    {
      "icao": "ESGG",
      "alert": "OK",
      "vis_m": 8000,
      "fzfg": false,
      "metar_trigger": false,
      "taf_trigger": false,
      "metar": "METAR ESGG 031420Z 35012KT 8000 -SN SCT016 OVC023 M07/M09 Q0990",
      "taf": "TAF ESGG 031130Z 0312/0412 34009KT 6000 -SN BKN020"
    },
    {
      "icao": "ESKN",
      "alert": "OK",
      "vis_m": 9999,
      "fzfg": false,
      "metar_trigger": false,
      "taf_trigger": false,
      "metar": "METAR ESKN 031420Z 01009KT 340V040 9999 OVC006 M02/M03 Q0986",
      "taf": "TAF ESKN 031130Z 0312/0412 01012G22KT 9999 SCT008 BKN015"
    },
    {
      "icao": "ESMS",
      "alert": "OK",
      "vis_m": 9999,
      "fzfg": false,
      "metar_trigger": false,
      "taf_trigger": false,
      "metar": "METAR ESMS 031420Z 27011KT 9999 SCT011 BKN023 M03/M04 Q0990",
      "taf": "TAF ESMS 031127Z 0312/0412 30012KT 9999 -SN BKN020"
    },
    {
      "icao": "ESSA",
      "alert": "OK",
      "vis_m": 9999,
      "fzfg": false,
      "metar_trigger": false,
      "taf_trigger": false,
      "metar": "METAR ESSA 031420Z 03016KT 9999 OVC006 M03/M04 Q0988 TEMPO 2000 SN VV015",
      "taf": "TAF ESSA 031130Z 0312/0412 02015KT 9000 -SN BKN007"
    },
    {
      "icao": "EYKA",
      "alert": "OK",
      "vis_m": 9999,
      "fzfg": false,
      "metar_trigger": false,
      "taf_trigger": false,
      "metar": "METAR EYKA 031420Z 23008KT 200V270 9999 -SN SCT022 OVC028 M00/M04 Q0991",
      "taf": ""
    },
    {
      "icao": "EYPA",
      "alert": "OK",
      "vis_m": 9999,
      "fzfg": false,
      "metar_trigger": false,
      "taf_trigger": false,
      "metar": "METAR EYPA 031420Z 23009KT 190V260 9999 FEW025 SCT042CB 01/M02 Q0987",
      "taf": ""
    },
    {
      "icao": "EYVI",
      "alert": "OK",
      "vis_m": 9999,
      "fzfg": false,
      "metar_trigger": false,
      "taf_trigger": false,
      "metar": "METAR EYVI 031420Z 22011KT 9999 -SHSN BKN008CB M01/M02 Q0991 NOSIG",
      "taf": "TAF EYVI 031100Z 0312/0412 22010KT 9000 BKN010"
    },
    {
      "icao": "GCFV",
      "alert": "OK",
      "vis_m": 9999,
      "fzfg": false,
      "metar_trigger": false,
      "taf_trigger": false,
      "metar": "METAR GCFV 031400Z 26020KT 240V300 9999 FEW030 22/11 Q1006",
      "taf": "TAF GCFV 031400Z 0315/0415 27020KT 9999 SCT025 TX23/0414Z TN17/0406Z"
    },
    {
      "icao": "GCLP",
      "alert": "OK",
      "vis_m": 9999,
      "fzfg": false,
      "metar_trigger": false,
      "taf_trigger": false,
      "metar": "METAR GCLP 031400Z 07006KT 040V100 9999 BKN040 21/13 Q1007 NOSIG",
      "taf": "TAF GCLP 031400Z 0315/0415 VRB08KT 9999 SCT030 TX22/0414Z TN16/0406Z"
    },
    {
      "icao": "GCTS",
      "alert": "OK",
      "vis_m": 9999,
      "fzfg": false,
      "metar_trigger": false,
      "taf_trigger": false,
      "metar": "METAR GCTS 031400Z 30023KT 9999 SCT060 22/11 Q1007 WS R25 NOSIG",
      "taf": "TAF GCTS 031400Z 0315/0415 28024KT 9999 SCT025 TX24/0414Z TN18/0406Z"
    },
    {
      "icao": "GMAD",
      "alert": "OK",
      "vis_m": 6000,
      "fzfg": false,
      "metar_trigger": false,
      "taf_trigger": false,
      "metar": "METAR GMAD 031400Z 22017KT 6000 FEW010 SCT016 BKN026TCU 18/16 Q1004 RERA TEMPO 4000 RA",
      "taf": "TAF GMAD 031100Z 0312/0418 24013KT 6000 BKN20TCU BKN080"
    },
    {
      "icao": "GMMN",
      "alert": "OK",
      "vis_m": 9999,
      "fzfg": false,
      "metar_trigger": false,
      "taf_trigger": false,
      "metar": "METAR GMMN 031400Z 22020KT 190V250 9999 BKN030 18/13 Q0999 NOSIG",
      "taf": "TAF GMMN 031100Z 0312/0418 18016KT 9999 SCT020 BKN040"
    },
    {
      "icao": "GMMX",
      "alert": "OK",
      "vis_m": 9999,
      "fzfg": false,
      "metar_trigger": false,
      "taf_trigger": false,
      "metar": "METAR GMMX 031400Z 33005KT 290V010 9999 SCT016 BKN080 18/11 Q1000 NOSIG",
      "taf": "TAF GMMX 031100Z 0312/0418 12006KT 8000 SCT016 BKN023"
    },
    {
      "icao": "HEGN",
      "alert": "OK",
      "vis_m": 9999,
      "fzfg": false,
      "metar_trigger": false,
      "taf_trigger": false,
      "metar": "METAR HEGN 031400Z 35010KT CAVOK 20/08 Q1021 NOSIG",
      "taf": "TAF HEGN 031115Z 0312/0418 02015KT CAVOK"
    },
    {
      "icao": "HEMA",
      "alert": "OK",
      "vis_m": 9999,
      "fzfg": false,
      "metar_trigger": false,
      "taf_trigger": false,
      "metar": "METAR HEMA 031400Z 34015KT 9999 SCT025 21/12 Q1020 NOSIG",
      "taf": "TAF HEMA 031115Z 0312/0418 36018KT CAVOK"
    },
    {
      "icao": "HESH",
      "alert": "OK",
      "vis_m": 9999,
      "fzfg": false,
      "metar_trigger": false,
      "taf_trigger": false,
      "metar": "METAR HESH 031400Z 36011KT CAVOK 23/10 Q1020 NOSIG",
      "taf": "TAF HESH 031115Z 0312/0418 03015KT CAVOK"
    },
    {
      "icao": "HESX",
      "alert": "OK",
      "vis_m": 9999,
      "fzfg": false,
      "metar_trigger": false,
      "taf_trigger": false,
      "metar": "METAR HESX 031400Z 05014KT CAVOK 16/04 Q1023 NOSIG",
      "taf": "TAF HESX 031115Z 0312/0418 05007G17KT CAVOK"
    },
    {
      "icao": "LATI",
      "alert": "OK",
      "vis_m": 9999,
      "fzfg": false,
      "metar_trigger": false,
      "taf_trigger": false,
      "metar": "METAR LATI 031420Z 15003KT 9999 SCT023 OVC055 11/09 Q1009 NOSIG",
      "taf": "TAF LATI 031100Z 0312/0412 13010KT 9999 FEW010 SCT025 OVC050 TX16/0412Z TN09/0403Z"
    },
    {
      "icao": "LBPD",
      "alert": "OK",
      "vis_m": 9999,
      "fzfg": false,
      "metar_trigger": false,
      "taf_trigger": false,
      "metar": "METAR LBPD 031400Z AUTO 06005KT 010V140 9999 FEW099/// 09/01 Q1006 NOSIG",
      "taf": "TAF LBPD 031100Z 0312/0412 VRB03KT 9999 SCT020 BKN080"
    },
    {
      "icao": "LBSF",
      "alert": "OK",
      "vis_m": 9999,
      "fzfg": false,
      "metar_trigger": false,
      "taf_trigger": false,
      "metar": "METAR LBSF 031400Z 21013KT 170V240 9999 BKN062 13/02 Q1005 TEMPO 21016G32KT",
      "taf": "TAF LBSF 031100Z 0312/0412 20012KT 9999 SCT025 BKN050"
    },
    {
      "icao": "LBWN",
      "alert": "OK",
      "vis_m": 9999,
      "fzfg": false,
      "metar_trigger": false,
      "taf_trigger": false,
      "metar": "METAR LBWN 031400Z AUTO 24016KT 9999 NCD 16/05 Q1004 TEMPO 24020G30KT",
      "taf": "TAF LBWN 031100Z 0312/0412 23012KT CAVOK"
    },
    {
      "icao": "LCLK",
      "alert": "OK",
      "vis_m": 9999,
      "fzfg": false,
      "metar_trigger": false,
      "taf_trigger": false,
      "metar": "METAR LCLK 031400Z 19003KT 160V230 9999 FEW030 BKN060 16/06 Q1027 NOSIG",
      "taf": "TAF LCLK 031130Z 0312/0412 14010KT 9999 FEW030 SCT050"
    },
    {
      "icao": "LCPH",
      "alert": "OK",
      "vis_m": 9999,
      "fzfg": false,
      "metar_trigger": false,
      "taf_trigger": false,
      "metar": "METAR LCPH 031400Z 16004KT 100V170 9999 BKN050 16/07 Q1026 NOSIG",
      "taf": "TAF LCPH 031130Z 0312/0412 17010KT 9999 FEW030 SCT050"
    },
    {
      "icao": "LEAL",
      "alert": "OK",
      "vis_m": 9999,
      "fzfg": false,
      "metar_trigger": false,
      "taf_trigger": false,
      "metar": "METAR LEAL 031400Z 07009KT 9999 BKN035 17/12 Q1003 NOSIG",
      "taf": "TAF LEAL 031100Z 0312/0412 08009KT 9999 SCT020 TX17/0314Z TN11/0406Z"
    },
    {
      "icao": "LEBB",
      "alert": "OK",
      "vis_m": 9999,
      "fzfg": false,
      "metar_trigger": false,
      "taf_trigger": false,
      "metar": "METAR LEBB 031400Z 10006KT 060V140 9999 -RA SCT019 BKN037 07/05 Q1010 NOSIG",
      "taf": "TAF LEBB 031100Z 0312/0412 VRB03KT 9000 SCT010 BKN020 TX07/0312Z TNM00/0406Z"
    },
    {
      "icao": "LEBL",
      "alert": "OK",
      "vis_m": 9999,
      "fzfg": false,
      "metar_trigger": false,
      "taf_trigger": false,
      "metar": "METAR LEBL 031400Z 07009KT 9999 BKN023 12/07 Q1007 NOSIG",
      "taf": "TAF LEBL 031100Z 0312/0412 07010KT 9999 BKN025 TX12/0312Z TN08/0406Z"
    },
    {
      "icao": "LECH",
      "alert": "OK",
      "vis_m": 9999,
      "fzfg": false,
      "metar_trigger": false,
      "taf_trigger": false,
      "metar": "METAR LECH 031400Z AUTO 08008KT 9999 FEW013 12/09 Q1005",
      "taf": ""
    },
    {
      "icao": "LEMD",
      "alert": "OK",
      "vis_m": 9999,
      "fzfg": false,
      "metar_trigger": false,
      "taf_trigger": false,
      "metar": "METAR LEMD 031400Z VRB02KT 9999 FEW070 12/07 Q1004 NOSIG",
      "taf": "TAF LEMD 031100Z 0312/0418 VRB03KT 9999 FEW045 TX12/0314Z TN03/0407Z"
    },
    {
      "icao": "LEMG",
      "alert": "OK",
      "vis_m": 9999,
      "fzfg": false,
      "metar_trigger": false,
      "taf_trigger": false,
      "metar": "METAR LEMG 031400Z 29005KT 9999 FEW040 BKN070 16/13 Q1001 NOSIG",
      "taf": "TAF LEMG 031100Z 0312/0412 13010KT 9999 FEW030 TX18/0314Z TN11/0407Z"
    },
    {
      "icao": "LEVC",
      "alert": "OK",
      "vis_m": 9999,
      "fzfg": false,
      "metar_trigger": false,
      "taf_trigger": false,
      "metar": "METAR LEVC 031400Z 05007KT 020V080 9999 FEW020 15/09 Q1004 NOSIG",
      "taf": "TAF LEVC 031100Z 0312/0412 VRB05KT 9999 SCT020 TX15/0314Z TN08/0406Z"
    },
    {
      "icao": "LEXJ",
      "alert": "OK",
      "vis_m": 9999,
      "fzfg": false,
      "metar_trigger": false,
      "taf_trigger": false,
      "metar": "METAR LEXJ 031400Z 09008KT 050V120 9999 -RA OVC037 08/04 Q1010",
      "taf": "TAF LEXJ 031400Z 0315/0415 08009KT 9000 SCT010 BKN020 TX08/0315Z TN03/0408Z"
    },
    {
      "icao": "LEZG",
      "alert": "OK",
      "vis_m": 7000,
      "fzfg": false,
      "metar_trigger": false,
      "taf_trigger": false,
      "metar": "METAR LEZG 031400Z 34003KT 280V030 7000 SCT010 08/06 Q1006 NOSIG",
      "taf": "TAF LEZG 031100Z 0312/0412 VRB04KT CAVOK TX10/0315Z TN02/0406Z"
    },
    {
      "icao": "LEZL",
      "alert": "OK",
      "vis_m": 9999,
      "fzfg": false,
      "metar_trigger": false,
      "taf_trigger": false,
      "metar": "METAR LEZL 031400Z 12004KT 080V170 9999 BKN048 17/14 Q1000 NOSIG",
      "taf": "TAF LEZL 031400Z 0315/0415 08011KT 9999 SCT030 TX19/0315Z TN09/0407Z"
    },
    {
      "icao": "LFBD",
      "alert": "OK",
      "vis_m": 9999,
      "fzfg": true,
      "metar_trigger": false,
      "taf_trigger": false,
      "metar": "METAR LFBD 031400Z AUTO 01003KT 310V050 9999 FEW011 BKN240 02/M00 Q1012",
      "taf": "TAF LFBD 030500Z 0306/0412 VRB03KT 0500 FZFG VV/// TX03/0313Z TNM04/0406Z"
    },
    {
      "icao": "LFLL",
      "alert": "OK",
      "vis_m": 9999,
      "fzfg": false,
      "metar_trigger": false,
      "taf_trigger": false,
      "metar": "METAR LFLL 031400Z 35011KT CAVOK 03/M05 Q1010 NOSIG",
      "taf": "TAF LFLL 031100Z 0312/0418 35007KT CAVOK"
    },
    {
      "icao": "LFLS",
      "alert": "OK",
      "vis_m": 9999,
      "fzfg": false,
      "metar_trigger": false,
      "taf_trigger": false,
      "metar": "METAR LFLS 031400Z AUTO 33009KT CAVOK 02/M06 Q1009 NOSIG",
      "taf": "TAF LFLS 031400Z 0315/0415 35009KT CAVOK"
    },
    {
      "icao": "LFMN",
      "alert": "OK",
      "vis_m": 9999,
      "fzfg": false,
      "metar_trigger": false,
      "taf_trigger": false,
      "metar": "METAR LFMN 031400Z VRB03KT 9999 FEW033 BKN260 13/05 Q1002 NOSIG",
      "taf": "TAF LFMN 030800Z 0309/0415 33012KT 9999 SCT030"
    },
    {
      "icao": "LFOB",
      "alert": "OK",
      "vis_m": 9999,
      "fzfg": false,
      "metar_trigger": false,
      "taf_trigger": false,
      "metar": "METAR LFOB 031400Z AUTO 30016KT 9999 FEW040 03/M03 Q1009 NOSIG",
      "taf": "TAF LFOB 031100Z 0312/0412 28008KT CAVOK"
    },
    {
      "icao": "LFPO",
      "alert": "OK",
      "vis_m": 9999,
      "fzfg": false,
      "metar_trigger": false,
      "taf_trigger": false,
      "metar": "METAR LFPO 031400Z AUTO 33010KT 310V010 9999 FEW033 SCT039 03/M04 Q1010",
      "taf": ""
    },
    {
      "icao": "LFSB",
      "alert": "OK",
      "vis_m": 9999,
      "fzfg": false,
      "metar_trigger": false,
      "taf_trigger": false,
      "metar": "METAR LFSB 031400Z AUTO 28006KT 230V320 CAVOK 02/M05 Q1008 NOSIG",
      "taf": "TAF LFSB 031100Z 0312/0412 27010KT 9999 FEW025"
    },
    {
      "icao": "LGAV",
      "alert": "OK",
      "vis_m": 9999,
      "fzfg": false,
      "metar_trigger": false,
      "taf_trigger": false,
      "metar": "METAR LGAV 031420Z 22022KT 9999 FEW025 SCT060 17/10 Q1015 NOSIG",
      "taf": "TAF LGAV 031100Z 0312/0412 21018KT 9999 FEW025 SCT060"
    },
    {
      "icao": "LGTS",
      "alert": "OK",
      "vis_m": 9999,
      "fzfg": false,
      "metar_trigger": false,
      "taf_trigger": false,
      "metar": "METAR LGTS 031420Z 31004KT 9999 FEW015 SCT025 09/05 Q1010 NOSIG",
      "taf": "TAF LGTS 031100Z 0312/0412 VRB03KT 9999 SCT025"
    },
    {
      "icao": "LHBP",
      "alert": "OK",
      "vis_m": 9999,
      "fzfg": false,
      "metar_trigger": false,
      "taf_trigger": false,
      "metar": "METAR LHBP 031400Z 31007KT 260V330 CAVOK 04/M08 Q1008 NOSIG",
      "taf": "TAF LHBP 031115Z 0312/0412 30014KT CAVOK"
    },
    {
      "icao": "LHDC",
      "alert": "OK",
      "vis_m": 9999,
      "fzfg": false,
      "metar_trigger": false,
      "taf_trigger": false,
      "metar": "METAR LHDC 031345Z AUTO 26011KT CAVOK 04/M05 Q1007 NOSIG",
      "taf": "TAF LHDC 031415Z 0315/0324 25010KT CAVOK"
    },
    {
      "icao": "LIBD",
      "alert": "OK",
      "vis_m": 9999,
      "fzfg": false,
      "metar_trigger": false,
      "taf_trigger": false,
      "metar": "METAR LIBD 031420Z 22010KT CAVOK 18/09 Q1005",
      "taf": "TAF LIBD 031100Z 0312/0412 21012KT 9999 FEW040"
    },
    {
      "icao": "LIBG",
      "alert": "OK",
      "vis_m": 9999,
      "fzfg": false,
      "metar_trigger": false,
      "taf_trigger": false,
      "metar": "METAR LIBG 031350Z 22012KT 180V240 CAVOK 17/12 Q1007",
      "taf": "TAF LIBG 031400Z 0315/0324 22012KT 9999 FEW040"
    },
    {
      "icao": "LIBP",
      "alert": "OK",
      "vis_m": 9000,
      "fzfg": false,
      "metar_trigger": false,
      "taf_trigger": false,
      "metar": "METAR LIBP 031420Z AUTO 05005KT 9000 BKN067/// OVC120/// 13/11 Q1004",
      "taf": "TAF LIBP 031100Z 0312/0412 35007KT 9999 SCT020"
    },
    {
      "icao": "LIBR",
      "alert": "OK",
      "vis_m": 9999,
      "fzfg": false,
      "metar_trigger": false,
      "taf_trigger": false,
      "metar": "METAR LIBR 031420Z 21007KT CAVOK 16/10 Q1007",
      "taf": "TAF LIBR 031100Z 0312/0412 20014KT 9999 FEW030"
    },
    {
      "icao": "LICA",
      "alert": "OK",
      "vis_m": 9999,
      "fzfg": false,
      "metar_trigger": false,
      "taf_trigger": false,
      "metar": "METAR LICA 031420Z AUTO 29003KT 9999 NCD 19/10 Q1010",
      "taf": "TAF LICA 031100Z 0312/0412 27010KT 9999 SCT040"
    },
    {
      "icao": "LICC",
      "alert": "OK",
      "vis_m": 9999,
      "fzfg": false,
      "metar_trigger": false,
      "taf_trigger": false,
      "metar": "METAR LICC 031420Z 26015KT 9999 SCT040 17/13 Q1011",
      "taf": "TAF LICC 031100Z 0312/0412 26015KT 9999 SCT030"
    },
    {
      "icao": "LICJ",
      "alert": "OK",
      "vis_m": 9999,
      "fzfg": false,
      "metar_trigger": false,
      "taf_trigger": false,
      "metar": "METAR LICJ 031420Z AUTO 20019KT 9999 NCD 18/09 Q1008",
      "taf": "TAF LICJ 031100Z 0312/0412 19015G30KT CAVOK"
    },
    {
      "icao": "LIMC",
      "alert": "OK",
      "vis_m": 6000,
      "fzfg": false,
      "metar_trigger": false,
      "taf_trigger": false,
      "metar": "METAR LIMC 031420Z VRB02KT 6000 FEW003 02/00 Q1003 NOSIG",
      "taf": ""
    },
    {
      "icao": "LIME",
      "alert": "OK",
      "vis_m": 1500,
      "fzfg": true,
      "metar_trigger": false,
      "taf_trigger": false,
      "metar": "METAR LIME 031420Z VRB02KT 1500 BCFG SCT001 02/02 Q1003 NOSIG",
      "taf": "TAF LIME 031100Z 0312/0412 VRB04KT 0500 FZFG BKN001"
    },
    {
      "icao": "LIMF",
      "alert": "OK",
      "vis_m": 9999,
      "fzfg": false,
      "metar_trigger": false,
      "taf_trigger": false,
      "metar": "METAR LIMF 031420Z 09005KT CAVOK 08/M03 Q1002",
      "taf": "TAF LIMF 031100Z 0312/0412 VRB04KT CAVOK"
    },
    {
      "icao": "LIMJ",
      "alert": "OK",
      "vis_m": 9999,
      "fzfg": false,
      "metar_trigger": false,
      "taf_trigger": false,
      "metar": "METAR LIMJ 031420Z 04008KT 010V080 9999 FEW027 11/M01 Q1002",
      "taf": "TAF LIMJ 031100Z 0312/0412 03013KT CAVOK"
    },
    {
      "icao": "LIPE",
      "alert": "OK",
      "vis_m": 700,
      "fzfg": false,
      "metar_trigger": false,
      "taf_trigger": false,
      "metar": "METAR LIPE 031420Z 28003KT 230V310 0700 R12/1600N R30/1300D FG OVC002 02/02 Q1005",
      "taf": "TAF LIPE 031100Z 0312/0412 VRB05KT 0500 FG BKN001"
    },
    {
      "icao": "LIPH",
      "alert": "OK",
      "vis_m": 9999,
      "fzfg": false,
      "metar_trigger": false,
      "taf_trigger": false,
      "metar": "METAR LIPH 031420Z 06006KT CAVOK 09/02 Q1004",
      "taf": "TAF LIPH 031100Z 0312/0412 02006KT 9999 FEW030"
    },
    {
      "icao": "LIPQ",
      "alert": "OK",
      "vis_m": 9999,
      "fzfg": false,
      "metar_trigger": false,
      "taf_trigger": false,
      "metar": "METAR LIPQ 031420Z AUTO 10008KT 060V120 9999 BKN041/// 09/M01 Q1004",
      "taf": "TAF LIPQ 031100Z 0312/0412 08008KT 9999 SCT050"
    },
    {
      "icao": "LIPR",
      "alert": "OK",
      "vis_m": 800,
      "fzfg": false,
      "metar_trigger": false,
      "taf_trigger": false,
      "metar": "METAR LIPR 031420Z 28004KT 0800 R30/1300N FG OVC001 03/03 Q1004",
      "taf": "TAF LIPR 031100Z 0312/0412 VRB05KT 0600 FG BKN002"
    },
    {
      "icao": "LIPX",
      "alert": "OK",
      "vis_m": 3000,
      "fzfg": false,
      "metar_trigger": false,
      "taf_trigger": false,
      "metar": "METAR LIPX 031420Z 17004KT 150V220 3000 BR NSC 04/02 Q1004",
      "taf": "TAF LIPX 031100Z 0312/0412 VRB04KT 3000 BR BKN015"
    },
    {
      "icao": "LIPY",
      "alert": "OK",
      "vis_m": 3600,
      "fzfg": false,
      "metar_trigger": false,
      "taf_trigger": false,
      "metar": "METAR LIPY 031420Z AUTO 25003KT 3600 BR BKN006/// BKN220/// 08/07 Q1004",
      "taf": "TAF LIPY 031100Z 0312/0412 32010KT 5000 BR BKN010"
    },
    {
      "icao": "LIPZ",
      "alert": "OK",
      "vis_m": 9999,
      "fzfg": false,
      "metar_trigger": false,
      "taf_trigger": false,
      "metar": "METAR LIPZ 031420Z 23003KT CAVOK 06/03 Q1004 NOSIG",
      "taf": "TAF LIPZ 031100Z 0312/0418 02008KT 9999 FEW030"
    },
    {
      "icao": "LIRF",
      "alert": "OK",
      "vis_m": 9999,
      "fzfg": false,
      "metar_trigger": false,
      "taf_trigger": false,
      "metar": "METAR LIRF 031420Z 23014KT 9999 BKN020 15/12 Q1005 NOSIG",
      "taf": "TAF LIRF 031100Z 0312/0418 24015KT 9999 SCT030"
    },
    {
      "icao": "LIRN",
      "alert": "OK",
      "vis_m": 9999,
      "fzfg": false,
      "metar_trigger": false,
      "taf_trigger": false,
      "metar": "METAR LIRN 031420Z 22009KT 180V240 9999 SCT020 BKN050 16/12 Q1007 NOSIG",
      "taf": "TAF LIRN 031100Z 0312/0412 22014KT 9999 SCT030"
    },
    {
      "icao": "LIRP",
      "alert": "OK",
      "vis_m": 9999,
      "fzfg": false,
      "metar_trigger": false,
      "taf_trigger": false,
      "metar": "METAR LIRP 031415Z 24013KT 9999 SCT030 11/06 Q1002 NOSIG",
      "taf": "TAF LIRP 031100Z 0312/0412 11008KT 9999 FEW020 SCT040"
    },
    {
      "icao": "LIRZ",
      "alert": "OK",
      "vis_m": 9999,
      "fzfg": false,
      "metar_trigger": false,
      "taf_trigger": false,
      "metar": "METAR LIRZ 031420Z AUTO 18006KT 9999 BKN026/// 13/09 Q1003",
      "taf": "TAF LIRZ 031100Z 0312/0412 19013KT 9999 SCT030"
    },
    {
      "icao": "LJLJ",
      "alert": "OK",
      "vis_m": 9999,
      "fzfg": false,
      "metar_trigger": false,
      "taf_trigger": false,
      "metar": "METAR LJLJ 031400Z 11006KT 9999 BKN027 BKN065 03/M01 Q1006 NOSIG",
      "taf": "TAF LJLJ 031100Z 0312/0412 VRB02KT 9999 FEW007 BKN017"
    },
    {
      "icao": "LKMT",
      "alert": "OK",
      "vis_m": 9999,
      "fzfg": false,
      "metar_trigger": false,
      "taf_trigger": false,
      "metar": "METAR LKMT 031400Z 21013KT 9999 BKN048 02/M06 Q1003 NOSIG",
      "taf": "TAF LKMT 031100Z 0312/0412 22014KT 9999 SCT040"
    },
    {
      "icao": "LKPR",
      "alert": "OK",
      "vis_m": 9999,
      "fzfg": false,
      "metar_trigger": false,
      "taf_trigger": false,
      "metar": "METAR LKPR 031400Z 22021KT 9999 SCT030 M01/M06 Q1001 TEMPO 22020G30KT",
      "taf": "TAF LKPR 031400Z 0315/0421 22018KT 9999 BKN030"
    },
    {
      "icao": "LLBG",
      "alert": "OK",
      "vis_m": 9999,
      "fzfg": false,
      "metar_trigger": false,
      "taf_trigger": false,
      "metar": "METAR LLBG 031420Z 05005KT CAVOK 16/07 Q1025 NOSIG",
      "taf": "TAF LLBG 031105Z 0312/0412 36012KT CAVOK"
    },
    {
      "icao": "LMML",
      "alert": "OK",
      "vis_m": 9999,
      "fzfg": false,
      "metar_trigger": false,
      "taf_trigger": false,
      "metar": "METAR LMML 031415Z 20013KT 9999 FEW020 17/12 Q1013 NOSIG",
      "taf": "TAF LMML 031100Z 0312/0412 22020KT 9999 FEW020"
    },
    {
      "icao": "LOWW",
      "alert": "OK",
      "vis_m": 9999,
      "fzfg": false,
      "metar_trigger": false,
      "taf_trigger": false,
      "metar": "METAR LOWW 031420Z 16010KT 9999 FEW040 03/M05 Q1006 NOSIG",
      "taf": "TAF LOWW 031415Z 0315/0421 15010KT 9999 FEW050 TX03/0315Z TNM04/0421Z"
    },
    {
      "icao": "LPFR",
      "alert": "OK",
      "vis_m": 7000,
      "fzfg": false,
      "metar_trigger": false,
      "taf_trigger": false,
      "metar": "METAR LPFR 031400Z 16009KT 7000 -RA FEW014 FEW018TCU SCT022 15/13 Q0997",
      "taf": "TAF LPFR 031100Z 0312/0412 16012KT 9999 SCT015 SCT030"
    },
    {
      "icao": "LPMA",
      "alert": "OK",
      "vis_m": 9999,
      "fzfg": false,
      "metar_trigger": false,
      "taf_trigger": false,
      "metar": "METAR LPMA 031400Z VRB09KT 9999 FEW015TCU 20/12 Q0999",
      "taf": "TAF LPMA 031100Z 0312/0412 29007KT 9999 SCT015"
    },
    {
      "icao": "LPPR",
      "alert": "OK",
      "vis_m": 9999,
      "fzfg": false,
      "metar_trigger": false,
      "taf_trigger": false,
      "metar": "METAR LPPR 031400Z 09009KT CAVOK 18/10 Q1000",
      "taf": "TAF LPPR 031100Z 0312/0412 08010KT 9999 BKN045"
    },
    {
      "icao": "LPPS",
      "alert": "OK",
      "vis_m": 9999,
      "fzfg": false,
      "metar_trigger": false,
      "taf_trigger": false,
      "metar": "METAR LPPS 031400Z 31022KT 9999 SCT014 18/14 Q0999",
      "taf": "TAF LPPS 031100Z 0312/0418 29020KT 9999 SCT015 SCT030"
    },
    {
      "icao": "LPPT",
      "alert": "OK",
      "vis_m": 9999,
      "fzfg": false,
      "metar_trigger": false,
      "taf_trigger": false,
      "metar": "METAR LPPT 031400Z 10007G18KT 9999 BKN012 15/13 Q0997",
      "taf": "TAF LPPT 031100Z 0312/0418 10010KT 9999 SCT012 SCT018"
    },
    {
      "icao": "LQBK",
      "alert": "OK",
      "vis_m": 5000,
      "fzfg": false,
      "metar_trigger": false,
      "taf_trigger": false,
      "metar": "METAR LQBK 031400Z 32005KT 5000 BR SCT002 01/01 Q1008 BECMG 8000 NSW",
      "taf": "TAF LQBK 031100Z 0312/0412 03005KT 9999 SCT015 BKN040 TX04/0313Z TNM01/0404Z"
    },
    {
      "icao": "LQSA",
      "alert": "OK",
      "vis_m": 3000,
      "fzfg": false,
      "metar_trigger": false,
      "taf_trigger": false,
      "metar": "METAR LQSA 031400Z VRB01KT 3000 SN BR SCT005 BKN009 BKN023 01/01 Q1007 NOSIG",
      "taf": ""
    },
    {
      "icao": "LQTZ",
      "alert": "OK",
      "vis_m": 9999,
      "fzfg": false,
      "metar_trigger": false,
      "taf_trigger": false,
      "metar": "METAR LQTZ 031400Z 09006KT 9999 FEW010 SCT035 BKN045 02/02 Q1009",
      "taf": "TAF LQTZ 031100Z 0312/0412 27005KT 8000 SCT010 BKN025 TX02/0314Z TNM00/0406Z"
    },
    {
      "icao": "LRBC",
      "alert": "OK",
      "vis_m": 9999,
      "fzfg": false,
      "metar_trigger": false,
      "taf_trigger": false,
      "metar": "METAR LRBC 031400Z 27014KT CAVOK 05/M05 Q1004",
      "taf": "TAF LRBC 031100Z 0312/0321 VRB04KT CAVOK"
    },
    {
      "icao": "LRBS",
      "alert": "OK",
      "vis_m": 9999,
      "fzfg": false,
      "metar_trigger": false,
      "taf_trigger": false,
      "metar": "METAR LRBS 031400Z 28003KT 250V320 CAVOK 04/04 Q1006 NOSIG",
      "taf": "TAF LRBS 031100Z 0312/0412 VRB04KT 9999 BKN045"
    },
    {
      "icao": "LRBV",
      "alert": "OK",
      "vis_m": 6000,
      "fzfg": false,
      "metar_trigger": false,
      "taf_trigger": false,
      "metar": "METAR LRBV 031400Z COR 35006KT 320V030 6000 -SG BKN006 OVC017 00/M01 Q1006",
      "taf": ""
    },
    {
      "icao": "LRCL",
      "alert": "OK",
      "vis_m": 9999,
      "fzfg": false,
      "metar_trigger": false,
      "taf_trigger": false,
      "metar": "METAR LRCL 031400Z 34004KT 310V040 9999 FEW018 SCT030 01/M00 Q1007",
      "taf": "TAF LRCL 031100Z 0312/0321 VRB04KT 9999 BKN045"
    },
    {
      "icao": "LRCV",
      "alert": "OK",
      "vis_m": 3300,
      "fzfg": false,
      "metar_trigger": false,
      "taf_trigger": false,
      "metar": "METAR LRCV 031400Z 29005KT 3300 BR FEW003 BKN043 02/02 Q1007",
      "taf": ""
    },
    {
      "icao": "LRIA",
      "alert": "OK",
      "vis_m": 9999,
      "fzfg": false,
      "metar_trigger": false,
      "taf_trigger": false,
      "metar": "METAR LRIA 031400Z 21003KT 180V240 CAVOK 05/01 Q1003",
      "taf": "TAF LRIA 031100Z 0312/0321 18008KT 9999 BKN045"
    },
    {
      "icao": "LROP",
      "alert": "OK",
      "vis_m": 9999,
      "fzfg": false,
      "metar_trigger": false,
      "taf_trigger": false,
      "metar": "METAR LROP 031400Z 25006KT CAVOK 04/04 Q1005 NOSIG",
      "taf": "TAF LROP 031100Z 0312/0412 VRB04KT 9999 BKN045"
    },
    {
      "icao": "LRSB",
      "alert": "OK",
      "vis_m": 9999,
      "fzfg": false,
      "metar_trigger": false,
      "taf_trigger": false,
      "metar": "METAR LRSB 031400Z 24003KT 9999 FEW017 SCT035 BKN063 00/M00 Q1007 NOSIG",
      "taf": "TAF LRSB 031100Z 0312/0412 VRB04KT 9999 SCT020 BKN050"
    },
    {
      "icao": "LRSM",
      "alert": "OK",
      "vis_m": 9999,
      "fzfg": false,
      "metar_trigger": false,
      "taf_trigger": false,
      "metar": "METAR LRSM 031400Z AUTO 25009KT 9999 NCD 02/M03 Q1007",
      "taf": ""
    },
    {
      "icao": "LRSV",
      "alert": "OK",
      "vis_m": 9999,
      "fzfg": false,
      "metar_trigger": false,
      "taf_trigger": false,
      "metar": "METAR LRSV 031400Z 26012KT CAVOK 03/M06 Q1002",
      "taf": "TAF LRSV 031100Z 0312/0321 26008KT CAVOK"
    },
    {
      "icao": "LRTM",
      "alert": "OK",
      "vis_m": 9999,
      "fzfg": false,
      "metar_trigger": false,
      "taf_trigger": false,
      "metar": "METAR LRTM 031400Z 33001KT 9999 FEW010 SCT027 01/M00 Q1007",
      "taf": "TAF LRTM 031100Z 0312/0321 24006KT 3000 -SN BR BKN010 OVC025"
    },
    {
      "icao": "LRTR",
      "alert": "OK",
      "vis_m": 9999,
      "fzfg": false,
      "metar_trigger": false,
      "taf_trigger": false,
      "metar": "METAR LRTR 031400Z 19003KT CAVOK 01/01 Q1010",
      "taf": "TAF LRTR 031100Z 0312/0412 30008KT 9999 SCT005 OVC015"
    },
    {
      "icao": "LTAC",
      "alert": "OK",
      "vis_m": 8000,
      "fzfg": false,
      "metar_trigger": false,
      "taf_trigger": false,
      "metar": "METAR LTAC 031420Z VRB02KT 8000 BKN035 BKN080 M01/M07 Q1021 NOSIG",
      "taf": "TAF LTAC 031040Z 0312/0412 VRB02KT 9999 SCT035 BKN100"
    },
    {
      "icao": "LTFM",
      "alert": "OK",
      "vis_m": 9999,
      "fzfg": false,
      "metar_trigger": false,
      "taf_trigger": false,
      "metar": "METAR LTFM 031420Z 21030G40KT 9999 -SHRA SCT035 BKN080 12/08 Q1010 NOSIG",
      "taf": "TAF LTFM 031040Z 0312/0418 21033G48KT 9999 -SHRA SCT035 BKN080"
    },
    {
      "icao": "LUKK",
      "alert": "OK",
      "vis_m": 9999,
      "fzfg": false,
      "metar_trigger": false,
      "taf_trigger": false,
      "metar": "METAR LUKK 031400Z 28005KT CAVOK 02/M01 Q1003 NOSIG",
      "taf": "TAF LUKK 031115Z 0312/0412 VRB05KT 9999 SCT035"
    },
    {
      "icao": "LWOH",
      "alert": "OK",
      "vis_m": 9999,
      "fzfg": false,
      "metar_trigger": false,
      "taf_trigger": false,
      "metar": "METAR LWOH 031420Z 15014KT 9999 SCT020 BKN035 10/06 Q1009",
      "taf": "TAF LWOH 031125Z 0312/0412 14012KT 9999 SCT020 OVC035"
    },
    {
      "icao": "LWSK",
      "alert": "OK",
      "vis_m": 9999,
      "fzfg": false,
      "metar_trigger": false,
      "taf_trigger": false,
      "metar": "METAR LWSK 031420Z COR 21003KT 9999 FEW040 BKN060 10/03 Q1007 NOSIG",
      "taf": "TAF LWSK 031125Z 0312/0412 VRB02KT FEW040 SCT060"
    },
    {
      "icao": "LYBE",
      "alert": "OK",
      "vis_m": 4000,
      "fzfg": false,
      "metar_trigger": false,
      "taf_trigger": false,
      "metar": "METAR LYBE 031400Z 05004KT 4000 -SN BKN004 BKN020 01/00 Q1011 NOSIG",
      "taf": ""
    },
    {
      "icao": "LYNI",
      "alert": "OK",
      "vis_m": 9999,
      "fzfg": false,
      "metar_trigger": false,
      "taf_trigger": false,
      "metar": "METAR LYNI 031400Z 33007KT 290V360 9999 -RASN FEW010 SCT015 BKN033 02/01 Q1010 NOSIG",
      "taf": "TAF LYNI 031100Z 0312/0412 33016KT 9999 SCT017 BKN035 OVC067 TX13/0411Z TN02/0324Z"
    },
    {
      "icao": "LYPG",
      "alert": "OK",
      "vis_m": 9999,
      "fzfg": false,
      "metar_trigger": false,
      "taf_trigger": false,
      "metar": "METAR LYPG 031400Z 11010KT 9999 -RA FEW020 SCT033 OVC070 12/10 Q1007 TEMPO 5000 RA",
      "taf": "TAF LYPG 031100Z 0312/0412 15009KT 9999 FEW020 BKN040 OVC070 TX13/0313Z TN08/0406Z"
    },
    {
      "icao": "LZIB",
      "alert": "OK",
      "vis_m": 9999,
      "fzfg": false,
      "metar_trigger": false,
      "taf_trigger": false,
      "metar": "METAR LZIB 031400Z 23009KT 9999 FEW047 04/M08 Q1006 NOSIG",
      "taf": "TAF LZIB 031115Z 0312/0412 29016KT CAVOK"
    },
    {
      "icao": "LZKZ",
      "alert": "OK",
      "vis_m": 9999,
      "fzfg": false,
      "metar_trigger": false,
      "taf_trigger": false,
      "metar": "METAR LZKZ 031400Z 23008KT CAVOK 03/M09 Q1004 NOSIG",
      "taf": "TAF LZKZ 031115Z 0312/0412 24010KT 9999 FEW040"
    },
    {
      "icao": "LZTT",
      "alert": "OK",
      "vis_m": 9999,
      "fzfg": false,
      "metar_trigger": false,
      "taf_trigger": false,
      "metar": "METAR LZTT 031400Z 27020KT CAVOK M02/M11 Q1002 NOSIG",
      "taf": "TAF LZTT 031115Z 0312/0412 27022KT 9999 FEW010 BKN036"
    },
    {
      "icao": "OEJN",
      "alert": "OK",
      "vis_m": 9999,
      "fzfg": false,
      "metar_trigger": false,
      "taf_trigger": false,
      "metar": "METAR OEJN 031400Z 30008KT CAVOK 28/16 Q1014 NOSIG",
      "taf": "TAF OEJN 031100Z 0312/0418 31010KT CAVOK"
    },
    {
      "icao": "OEMA",
      "alert": "OK",
      "vis_m": 9999,
      "fzfg": false,
      "metar_trigger": false,
      "taf_trigger": false,
      "metar": "METAR OEMA 031400Z 30004KT CAVOK 27/02 Q1019 NOSIG",
      "taf": "TAF OEMA 031100Z 0312/0418 07008KT CAVOK"
    },
    {
      "icao": "OJAI",
      "alert": "OK",
      "vis_m": 5000,
      "fzfg": false,
      "metar_trigger": false,
      "taf_trigger": false,
      "metar": "METAR OJAI 031400Z 10005KT 5000 HZ NSC 11/M01 Q1027 NOSIG",
      "taf": "TAF OJAI 031100Z 0312/0418 10012KT 5000 HZ FEW035"
    },
    {
      "icao": "OMAA",
      "alert": "OK",
      "vis_m": 9999,
      "fzfg": false,
      "metar_trigger": false,
      "taf_trigger": false,
      "metar": "METAR OMAA 031400Z 29008KT CAVOK 22/15 Q1018 NOSIG",
      "taf": "TAF OMAA 031100Z 0312/0418 32011KT 8000 NSC"
    },
    {
      "icao": "OMDB",
      "alert": "OK",
      "vis_m": 9999,
      "fzfg": false,
      "metar_trigger": false,
      "taf_trigger": false,
      "metar": "METAR OMDB 031400Z 27007KT 230V300 9999 FEW025 23/16 Q1018 NOSIG",
      "taf": "TAF OMDB 031100Z 0312/0418 30010KT 8000 NSC"
    },
    {
      "icao": "UAAA",
      "alert": "OK",
      "vis_m": 200,
      "fzfg": true,
      "metar_trigger": false,
      "taf_trigger": false,
      "metar": "SPECI UAAA 031413Z 17001MPS 0200 R23L/0750N FZFG VV002 M01/M02 Q1022 NOSIG RMK QBB080",
      "taf": "TAF UAAA 031101Z 0312/0412 20003MPS 0600 FZFG VV003 TX02/0409Z TNM03/0402Z"
    },
    {
      "icao": "UBBB",
      "alert": "OK",
      "vis_m": 9999,
      "fzfg": false,
      "metar_trigger": false,
      "taf_trigger": false,
      "metar": "METAR UBBB 031400Z 18012KT CAVOK 05/00 Q1024 NOSIG",
      "taf": "TAF UBBB 031053Z 0312/0412 19014KT 9999 SCT030 TX06/0312Z TN01/0401Z"
    },
    {
      "icao": "UDSG",
      "alert": "OK",
      "vis_m": 9999,
      "fzfg": false,
      "metar_trigger": false,
      "taf_trigger": false,
      "metar": "METAR UDSG 031400Z 13002KT 9999 NSC M18/M21 Q1026 NOSIG",
      "taf": "TAF UDSG 031058Z 0312/0412 VRB06KT 9999 FEW040"
    },
    {
      "icao": "UDYZ",
      "alert": "OK",
      "vis_m": 9999,
      "fzfg": false,
      "metar_trigger": false,
      "taf_trigger": false,
      "metar": "METAR UDYZ 031400Z 35002KT 9999 NSC M07/M13 Q1029 NOSIG",
      "taf": "TAF UDYZ 031100Z 0312/0412 VRB06KT 9999 NSC"
    },
    {
      "icao": "UGKO",
      "alert": "OK",
      "vis_m": 9999,
      "fzfg": false,
      "metar_trigger": false,
      "taf_trigger": false,
      "metar": "METAR UGKO 031400Z 10010KT CAVOK 04/M06 Q1022 NOSIG",
      "taf": "TAF UGKO 031100Z 0312/0412 08010KT CAVOK TX07/0412Z TNM02/0402Z"
    }
  ]
}