{
  "ts_utc": "2026-04-11T08:57:30Z",
  "threshold_m": 150,
  "source": "stations_override.txt (ICAO list) + aviationweather.gov (METAR/TAF raw)",
  "station_count": 159,
  "stations": [
    {
      "icao": "BIKF",
      "alert": "OK",
      "vis_m": 9999,
      "fzfg": false,
      "metar_trigger": false,
      "taf_trigger": false,
      "metar": "METAR BIKF 110830Z 04013KT 9999 FEW017 01/M03 Q1006",
      "taf": "TAF BIKF 110737Z 1109/1209 03017G27KT 9999 SCT030 TX03/1115Z TNM01/1109Z"
    },
    {
      "icao": "BKPR",
      "alert": "OK",
      "vis_m": null,
      "fzfg": false,
      "metar_trigger": false,
      "taf_trigger": false,
      "metar": "",
      "taf": "TAF BKPR 110530Z 1106/1206 VRB05KT 9999 BKN040"
    },
    {
      "icao": "EBCI",
      "alert": "OK",
      "vis_m": 9999,
      "fzfg": false,
      "metar_trigger": false,
      "taf_trigger": false,
      "metar": "METAR EBCI 110850Z 17012KT CAVOK 15/07 Q1007 NOSIG",
      "taf": "TAF EBCI 110520Z 1106/1212 16008KT 9999 FEW035"
    },
    {
      "icao": "EDDB",
      "alert": "OK",
      "vis_m": 9999,
      "fzfg": false,
      "metar_trigger": false,
      "taf_trigger": false,
      "metar": "METAR EDDB 110850Z AUTO 21004KT 160V270 CAVOK 09/02 Q1020 NOSIG",
      "taf": "TAF EDDB 110500Z 1106/1206 15004KT 1200 BCFG VV002"
    },
    {
      "icao": "EDDH",
      "alert": "OK",
      "vis_m": 9999,
      "fzfg": false,
      "metar_trigger": false,
      "taf_trigger": false,
      "metar": "METAR EDDH 110850Z AUTO 14015KT CAVOK 12/03 Q1017 TEMPO 13015G25KT",
      "taf": "TAF EDDH 110500Z 1106/1212 12004KT CAVOK"
    },
    {
      "icao": "EDDK",
      "alert": "OK",
      "vis_m": 9999,
      "fzfg": false,
      "metar_trigger": false,
      "taf_trigger": false,
      "metar": "METAR EDDK 110850Z AUTO 14015KT 100V160 CAVOK 14/04 Q1012 TEMPO 14015G25KT",
      "taf": "TAF EDDK 110500Z 1106/1212 12006KT CAVOK"
    },
    {
      "icao": "EDDN",
      "alert": "OK",
      "vis_m": 9999,
      "fzfg": false,
      "metar_trigger": false,
      "taf_trigger": false,
      "metar": "METAR EDDN 110850Z AUTO 11009KT 070V140 CAVOK 11/02 Q1016 NOSIG",
      "taf": "TAF EDDN 110500Z 1106/1206 11009KT CAVOK"
    },
    {
      "icao": "EDDS",
      "alert": "OK",
      "vis_m": 9999,
      "fzfg": false,
      "metar_trigger": false,
      "taf_trigger": false,
      "metar": "METAR EDDS 110850Z AUTO 16005KT 120V220 CAVOK 13/08 Q1013 NOSIG",
      "taf": "TAF EDDS 110500Z 1106/1206 VRB03KT 9999 BKN030"
    },
    {
      "icao": "EDFH",
      "alert": "OK",
      "vis_m": 9999,
      "fzfg": false,
      "metar_trigger": false,
      "taf_trigger": false,
      "metar": "METAR EDFH 110850Z 13012KT CAVOK 10/04 Q1012",
      "taf": "TAF EDFH 110500Z 1106/1206 14010KT CAVOK"
    },
    {
      "icao": "EDJA",
      "alert": "OK",
      "vis_m": 9999,
      "fzfg": false,
      "metar_trigger": false,
      "taf_trigger": false,
      "metar": "METAR EDJA 110850Z 07004KT 030V110 9999 OVC005 09/08 Q1014",
      "taf": "TAF EDJA 110800Z 1109/1118 09005KT 9000 OVC004"
    },
    {
      "icao": "EDLW",
      "alert": "OK",
      "vis_m": 9999,
      "fzfg": false,
      "metar_trigger": false,
      "taf_trigger": false,
      "metar": "METAR EDLW 110850Z 13011KT CAVOK 13/03 Q1012",
      "taf": "TAF EDLW 110500Z 1106/1206 12004KT CAVOK"
    },
    {
      "icao": "EDNY",
      "alert": "OK",
      "vis_m": 9999,
      "fzfg": false,
      "metar_trigger": false,
      "taf_trigger": false,
      "metar": "METAR EDNY 110850Z VRB02KT 9999 SCT010 11/09 Q1014",
      "taf": "TAF EDNY 110800Z 1109/1118 04005KT 9999 OVC007"
    },
    {
      "icao": "EDSB",
      "alert": "OK",
      "vis_m": 9999,
      "fzfg": false,
      "metar_trigger": false,
      "taf_trigger": false,
      "metar": "METAR EDSB 110850Z 36003KT 260V060 CAVOK 12/06 Q1013",
      "taf": "TAF EDSB 110500Z 1106/1206 VRB03KT CAVOK"
    },
    {
      "icao": "EETN",
      "alert": "OK",
      "vis_m": 9999,
      "fzfg": false,
      "metar_trigger": false,
      "taf_trigger": false,
      "metar": "METAR EETN 110850Z 05007KT CAVOK 08/M05 Q1024 NOSIG",
      "taf": "TAF EETN 110530Z 1106/1206 09005KT CAVOK"
    },
    {
      "icao": "EFTU",
      "alert": "OK",
      "vis_m": 9999,
      "fzfg": false,
      "metar_trigger": false,
      "taf_trigger": false,
      "metar": "METAR EFTU 110850Z AUTO 11008KT 070V150 CAVOK 09/M10 Q1024",
      "taf": "TAF EFTU 110829Z 1109/1209 12007KT CAVOK"
    },
    {
      "icao": "EGBB",
      "alert": "OK",
      "vis_m": 9999,
      "fzfg": false,
      "metar_trigger": false,
      "taf_trigger": false,
      "metar": "METAR EGBB 110850Z 23006KT 190V290 9999 FEW020 07/02 Q1003",
      "taf": ""
    },
    {
      "icao": "EGGP",
      "alert": "OK",
      "vis_m": 9999,
      "fzfg": false,
      "metar_trigger": false,
      "taf_trigger": false,
      "metar": "METAR EGGP 110850Z 21009KT 170V240 9999 FEW031 SCT049 08/01 Q1000",
      "taf": "TAF EGGP 110502Z 1106/1206 16015G25KT 9999 SCT035"
    },
    {
      "icao": "EGGW",
      "alert": "OK",
      "vis_m": 5000,
      "fzfg": false,
      "metar_trigger": false,
      "taf_trigger": false,
      "metar": "METAR EGGW 110850Z COR 26018KT 5000 -RA BKN008 BKN016 OVC035 06/05 Q1003",
      "taf": ""
    },
    {
      "icao": "EGKK",
      "alert": "OK",
      "vis_m": 9999,
      "fzfg": false,
      "metar_trigger": false,
      "taf_trigger": false,
      "metar": "METAR EGKK 110850Z 27015KT 9999 SCT014 BKN027 09/07 Q1004",
      "taf": ""
    },
    {
      "icao": "EGNM",
      "alert": "OK",
      "vis_m": 9999,
      "fzfg": false,
      "metar_trigger": false,
      "taf_trigger": false,
      "metar": "METAR EGNM 110850Z 25011KT 9999 -RA FEW011 BKN038 05/02 Q0999",
      "taf": "TAF EGNM 110500Z 1106/1206 15015KT 9999 SCT040"
    },
    {
      "icao": "EGPD",
      "alert": "OK",
      "vis_m": 6000,
      "fzfg": false,
      "metar_trigger": false,
      "taf_trigger": false,
      "metar": "METAR EGPD 110850Z COR 18016KT 6000 -RA BKN014 05/04 Q0994 RERA BECMG SCT016",
      "taf": ""
    },
    {
      "icao": "EGPF",
      "alert": "OK",
      "vis_m": 9999,
      "fzfg": false,
      "metar_trigger": false,
      "taf_trigger": false,
      "metar": "METAR EGPF 110850Z AUTO 18017G32KT 9999 SCT029 07/02 Q0994",
      "taf": "TAF EGPF 110458Z 1106/1206 17012KT 9999 SCT030"
    },
    {
      "icao": "EHBK",
      "alert": "OK",
      "vis_m": 9999,
      "fzfg": false,
      "metar_trigger": false,
      "taf_trigger": false,
      "metar": "METAR EHBK 110825Z AUTO 10008KT 9999 NSC 14/05 Q1009 NOSIG",
      "taf": "TAF EHBK 110456Z 1106/1212 11006KT CAVOK"
    },
    {
      "icao": "EHEH",
      "alert": "OK",
      "vis_m": 9999,
      "fzfg": false,
      "metar_trigger": false,
      "taf_trigger": false,
      "metar": "METAR EHEH 110825Z AUTO 13011G22KT 080V190 9999 OVC110 13/03 Q1009 BLU NOSIG RMK TREND REMOTE BY EHWX",
      "taf": ""
    },
    {
      "icao": "EKBI",
      "alert": "OK",
      "vis_m": 9999,
      "fzfg": false,
      "metar_trigger": false,
      "taf_trigger": false,
      "metar": "METAR EKBI 110850Z AUTO 13013KT 090V160 9999 SCT016/// 07/05 Q1018",
      "taf": "TAF EKBI 110827Z 1109/1209 13012KT CAVOK"
    },
    {
      "icao": "EKCH",
      "alert": "OK",
      "vis_m": 9999,
      "fzfg": false,
      "metar_trigger": false,
      "taf_trigger": false,
      "metar": "METAR EKCH 110850Z AUTO 13009KT 9999 FEW029/// 07/02 Q1021 NOSIG",
      "taf": "TAF EKCH 110827Z 1109/1209 14007KT 9999 SCT030"
    },
    {
      "icao": "ENAL",
      "alert": "OK",
      "vis_m": 9999,
      "fzfg": false,
      "metar_trigger": false,
      "taf_trigger": false,
      "metar": "METAR ENAL 110850Z 10009KT CAVOK 10/M02 Q1014",
      "taf": "TAF ENAL 110800Z 1109/1118 07008KT CAVOK"
    },
    {
      "icao": "ENBR",
      "alert": "OK",
      "vis_m": 9999,
      "fzfg": false,
      "metar_trigger": false,
      "taf_trigger": false,
      "metar": "METAR ENBR 110850Z 13012KT 100V160 CAVOK 09/M02 Q1012 NOSIG RMK WIND 1200FT 13021KT",
      "taf": "TAF ENBR 110500Z 1106/1206 12005KT 9999 FEW040"
    },
    {
      "icao": "ENGM",
      "alert": "OK",
      "vis_m": 9999,
      "fzfg": false,
      "metar_trigger": false,
      "taf_trigger": false,
      "metar": "METAR ENGM 110850Z 10005KT 060V160 9999 FEW048 05/M03 Q1021 BECMG 17010KT",
      "taf": "TAF ENGM 110500Z 1106/1206 02005KT CAVOK"
    },
    {
      "icao": "ENHD",
      "alert": "OK",
      "vis_m": 9999,
      "fzfg": false,
      "metar_trigger": false,
      "taf_trigger": false,
      "metar": "METAR ENHD 110850Z 16017G28KT 9999 FEW030 08/02 Q1013",
      "taf": "TAF ENHD 110800Z 1109/1118 15015KT CAVOK"
    },
    {
      "icao": "ENTC",
      "alert": "OK",
      "vis_m": 9999,
      "fzfg": false,
      "metar_trigger": false,
      "taf_trigger": false,
      "metar": "METAR ENTC 110850Z 20006KT CAVOK 05/M03 Q1022 NOSIG RMK WIND 2600FT 17009KT",
      "taf": "TAF ENTC 110500Z 1106/1206 VRB03KT CAVOK"
    },
    {
      "icao": "ENTO",
      "alert": "OK",
      "vis_m": 9999,
      "fzfg": false,
      "metar_trigger": false,
      "taf_trigger": false,
      "metar": "METAR ENTO 110850Z 09003KT 060V120 9999 OVC012 03/01 Q1021 NOSIG",
      "taf": "TAF ENTO 110500Z 1106/1206 12008KT 9999 BKN012"
    },
    {
      "icao": "ENVA",
      "alert": "OK",
      "vis_m": 9999,
      "fzfg": false,
      "metar_trigger": false,
      "taf_trigger": false,
      "metar": "METAR ENVA 110850Z 15016KT CAVOK 09/M03 Q1019 NOSIG RMK WIND 670FT 16023KT",
      "taf": "TAF ENVA 110500Z 1106/1206 14012KT CAVOK"
    },
    {
      "icao": "ENZV",
      "alert": "OK",
      "vis_m": 9999,
      "fzfg": false,
      "metar_trigger": false,
      "taf_trigger": false,
      "metar": "METAR ENZV 110850Z 13021KT 9999 FEW028 07/01 Q1013 NOSIG",
      "taf": ""
    },
    {
      "icao": "EPGD",
      "alert": "OK",
      "vis_m": 9999,
      "fzfg": false,
      "metar_trigger": false,
      "taf_trigger": false,
      "metar": "METAR EPGD 110830Z 02006KT CAVOK 05/M02 Q1020",
      "taf": "TAF EPGD 110530Z 1106/1206 03005KT 9999 FEW020"
    },
    {
      "icao": "EPKK",
      "alert": "OK",
      "vis_m": 9999,
      "fzfg": false,
      "metar_trigger": false,
      "taf_trigger": false,
      "metar": "METAR EPKK 110830Z VRB02KT 9999 BKN055 06/M02 Q1019",
      "taf": "TAF EPKK 110830Z 1109/1209 25004KT 9999 BKN055"
    },
    {
      "icao": "EPKT",
      "alert": "OK",
      "vis_m": 9999,
      "fzfg": false,
      "metar_trigger": false,
      "taf_trigger": false,
      "metar": "METAR EPKT 110830Z 36004KT CAVOK 06/M03 Q1019",
      "taf": "TAF EPKT 110530Z 1106/1206 29005KT CAVOK"
    },
    {
      "icao": "EPLB",
      "alert": "OK",
      "vis_m": 9999,
      "fzfg": false,
      "metar_trigger": false,
      "taf_trigger": false,
      "metar": "METAR EPLB 110830Z 28008KT 9999 FEW044 BKN048 05/M00 Q1017",
      "taf": "TAF EPLB 110530Z 1106/1206 29006KT 9999 BKN045"
    },
    {
      "icao": "EPMO",
      "alert": "OK",
      "vis_m": 9999,
      "fzfg": false,
      "metar_trigger": false,
      "taf_trigger": false,
      "metar": "METAR EPMO 110830Z 33007KT 300V360 CAVOK 07/M02 Q1019",
      "taf": "TAF EPMO 110530Z 1106/1206 VRB02KT 9999 BKN045"
    },
    {
      "icao": "EPPO",
      "alert": "OK",
      "vis_m": 9999,
      "fzfg": false,
      "metar_trigger": false,
      "taf_trigger": false,
      "metar": "METAR EPPO 110830Z 02003KT 300V050 CAVOK 10/M04 Q1020",
      "taf": "TAF EPPO 110530Z 1106/1206 VRB02KT CAVOK"
    },
    {
      "icao": "EPRA",
      "alert": "OK",
      "vis_m": 9999,
      "fzfg": false,
      "metar_trigger": false,
      "taf_trigger": false,
      "metar": "METAR EPRA 110830Z 31005KT CAVOK 06/M02 Q1018",
      "taf": "TAF EPRA 110830Z 1109/1118 33006KT CAVOK"
    },
    {
      "icao": "EPRZ",
      "alert": "OK",
      "vis_m": 9999,
      "fzfg": false,
      "metar_trigger": false,
      "taf_trigger": false,
      "metar": "METAR EPRZ 110830Z 29005KT CAVOK 06/M01 Q1018",
      "taf": "TAF EPRZ 110530Z 1106/1206 24005KT CAVOK"
    },
    {
      "icao": "EPSC",
      "alert": "OK",
      "vis_m": 9999,
      "fzfg": false,
      "metar_trigger": false,
      "taf_trigger": false,
      "metar": "METAR EPSC 110830Z VRB04KT CAVOK 10/M03 Q1020",
      "taf": "TAF EPSC 110530Z 1106/1206 10004KT CAVOK"
    },
    {
      "icao": "EPSY",
      "alert": "OK",
      "vis_m": 9999,
      "fzfg": false,
      "metar_trigger": false,
      "taf_trigger": false,
      "metar": "METAR EPSY 110830Z VRB05KT CAVOK 07/M01 Q1019",
      "taf": "TAF EPSY 110830Z 1109/1118 36006KT CAVOK"
    },
    {
      "icao": "EPWA",
      "alert": "OK",
      "vis_m": 9999,
      "fzfg": false,
      "metar_trigger": false,
      "taf_trigger": false,
      "metar": "METAR EPWA 110830Z 31006KT 270V330 CAVOK 07/M03 Q1019 NOSIG",
      "taf": "TAF EPWA 110830Z 1109/1209 34007KT CAVOK"
    },
    {
      "icao": "EPWR",
      "alert": "OK",
      "vis_m": 9999,
      "fzfg": false,
      "metar_trigger": false,
      "taf_trigger": false,
      "metar": "METAR EPWR 110830Z 29003KT 220V330 CAVOK 08/M00 Q1020",
      "taf": "TAF EPWR 110830Z 1109/1209 VRB02KT CAVOK"
    },
    {
      "icao": "ESGG",
      "alert": "OK",
      "vis_m": 9999,
      "fzfg": false,
      "metar_trigger": false,
      "taf_trigger": false,
      "metar": "METAR ESGG 110850Z 12007KT 9999 BKN028 05/M00 Q1020",
      "taf": "TAF ESGG 110830Z 1109/1209 11006KT 9999 BKN030"
    },
    {
      "icao": "ESKN",
      "alert": "OK",
      "vis_m": 9999,
      "fzfg": false,
      "metar_trigger": false,
      "taf_trigger": false,
      "metar": "METAR ESKN 110850Z 08005KT 030V120 CAVOK 06/M02 Q1023",
      "taf": "TAF ESKN 110830Z 1109/1209 VRB02KT CAVOK"
    },
    {
      "icao": "ESMS",
      "alert": "OK",
      "vis_m": 9999,
      "fzfg": false,
      "metar_trigger": false,
      "taf_trigger": false,
      "metar": "METAR ESMS 110850Z 09011KT 9999 BKN038 08/01 Q1021",
      "taf": "TAF ESMS 110827Z 1109/1209 14010KT 9999 SCT030"
    },
    {
      "icao": "ESSA",
      "alert": "OK",
      "vis_m": 9999,
      "fzfg": false,
      "metar_trigger": false,
      "taf_trigger": false,
      "metar": "METAR ESSA 110850Z 06008KT 030V100 CAVOK 06/M05 Q1023 NOSIG",
      "taf": "TAF ESSA 110830Z 1109/1209 06007KT CAVOK"
    },
    {
      "icao": "EYKA",
      "alert": "OK",
      "vis_m": 9999,
      "fzfg": false,
      "metar_trigger": false,
      "taf_trigger": false,
      "metar": "METAR EYKA 110850Z 01009KT 330V040 CAVOK 08/M02 Q1019",
      "taf": "TAF EYKA 110506Z 1106/1206 VRB03KT 9000 NSC"
    },
    {
      "icao": "EYPA",
      "alert": "OK",
      "vis_m": 9999,
      "fzfg": false,
      "metar_trigger": false,
      "taf_trigger": false,
      "metar": "METAR EYPA 110850Z 06004KT 010V150 CAVOK 10/M05 Q1021",
      "taf": "TAF EYPA 110505Z 1106/1206 VRB04KT 9000 NSC"
    },
    {
      "icao": "EYVI",
      "alert": "OK",
      "vis_m": 9999,
      "fzfg": false,
      "metar_trigger": false,
      "taf_trigger": false,
      "metar": "METAR EYVI 110850Z 02010KT 9999 SCT039 07/M01 Q1017 NOSIG",
      "taf": "TAF EYVI 110502Z 1106/1206 04011KT 9000 BKN040"
    },
    {
      "icao": "GCFV",
      "alert": "OK",
      "vis_m": 9999,
      "fzfg": false,
      "metar_trigger": false,
      "taf_trigger": false,
      "metar": "METAR GCFV 110830Z 32016KT 290V350 9999 FEW018 SCT035 19/13 Q1019",
      "taf": "TAF GCFV 110800Z 1109/1209 35014KT 9999 BKN025 TX21/1114Z TN17/1206Z"
    },
    {
      "icao": "GCLP",
      "alert": "OK",
      "vis_m": 9999,
      "fzfg": false,
      "metar_trigger": false,
      "taf_trigger": false,
      "metar": "METAR GCLP 110830Z 35017KT 9999 FEW025 BKN042 19/13 Q1020 NOSIG",
      "taf": "TAF GCLP 110800Z 1109/1209 35022KT 9999 BKN030 TX22/1114Z TN16/1206Z"
    },
    {
      "icao": "GCTS",
      "alert": "OK",
      "vis_m": 9999,
      "fzfg": false,
      "metar_trigger": false,
      "taf_trigger": false,
      "metar": "METAR GCTS 110830Z 00000KT 9999 FEW035 19/14 Q1020 NOSIG",
      "taf": "TAF GCTS 110800Z 1109/1209 VRB08KT 9999 SCT030 TX22/1114Z TN15/1206Z"
    },
    {
      "icao": "GMAD",
      "alert": "OK",
      "vis_m": 8000,
      "fzfg": false,
      "metar_trigger": false,
      "taf_trigger": false,
      "metar": "METAR GMAD 110830Z 28011KT 8000 FEW020 SCT026 17/09 Q1015 NOSIG",
      "taf": "TAF GMAD 110500Z 1106/1212 18006KT 8000 SCT020"
    },
    {
      "icao": "GMMN",
      "alert": "OK",
      "vis_m": 9999,
      "fzfg": false,
      "metar_trigger": false,
      "taf_trigger": false,
      "metar": "METAR GMMN 110830Z 22006KT 190V260 CAVOK 16/13 Q1016 NOSIG",
      "taf": "TAF GMMN 110500Z 1106/1212 22006KT 9999 SCT020 SCT080"
    },
    {
      "icao": "GMMX",
      "alert": "OK",
      "vis_m": 6000,
      "fzfg": false,
      "metar_trigger": false,
      "taf_trigger": false,
      "metar": "METAR GMMX 110830Z 23004KT 200V280 6000 FEW006 BKN026 11/10 Q1017 NOSIG",
      "taf": ""
    },
    {
      "icao": "HEGN",
      "alert": "OK",
      "vis_m": 9999,
      "fzfg": false,
      "metar_trigger": false,
      "taf_trigger": false,
      "metar": "METAR HEGN 110800Z 35015KT CAVOK 26/06 Q1017 NOSIG",
      "taf": "TAF HEGN 110500Z 1106/1212 34015KT CAVOK"
    },
    {
      "icao": "HEMA",
      "alert": "OK",
      "vis_m": 9999,
      "fzfg": false,
      "metar_trigger": false,
      "taf_trigger": false,
      "metar": "METAR HEMA 110800Z 33014KT CAVOK 25/09 Q1017 NOSIG",
      "taf": "TAF HEMA 110500Z 1106/1212 36015KT CAVOK"
    },
    {
      "icao": "HESH",
      "alert": "OK",
      "vis_m": 9999,
      "fzfg": false,
      "metar_trigger": false,
      "taf_trigger": false,
      "metar": "METAR HESH 110800Z 34010KT CAVOK 26/10 Q1015 NOSIG",
      "taf": "TAF HESH 110500Z 1106/1212 25010KT CAVOK"
    },
    {
      "icao": "HESX",
      "alert": "OK",
      "vis_m": 9999,
      "fzfg": false,
      "metar_trigger": false,
      "taf_trigger": false,
      "metar": "METAR HESX 110800Z 02003KT 9999 SCT020 19/11 Q1019 NOSIG",
      "taf": "TAF HESX 110500Z 1106/1212 30009KT CAVOK"
    },
    {
      "icao": "LATI",
      "alert": "OK",
      "vis_m": 9999,
      "fzfg": false,
      "metar_trigger": false,
      "taf_trigger": false,
      "metar": "METAR LATI 110850Z 14003KT 110V180 9999 FEW096 BKN120 15/02 Q1017 NOSIG",
      "taf": "TAF LATI 110500Z 1106/1206 VRB05KT CAVOK TX23/1112Z TN07/1205Z"
    },
    {
      "icao": "LBPD",
      "alert": "OK",
      "vis_m": 9999,
      "fzfg": false,
      "metar_trigger": false,
      "taf_trigger": false,
      "metar": "METAR LBPD 110830Z AUTO 11004KT 070V140 9999 OVC059/// 07/04 Q1019 NOSIG",
      "taf": "TAF LBPD 110500Z 1106/1206 VRB03KT 9999 BKN060"
    },
    {
      "icao": "LBSF",
      "alert": "OK",
      "vis_m": 9999,
      "fzfg": false,
      "metar_trigger": false,
      "taf_trigger": false,
      "metar": "METAR LBSF 110830Z 32003KT 280V010 9999 SCT016 OVC024 05/02 Q1018 NOSIG",
      "taf": "TAF LBSF 110500Z 1106/1206 VRB03KT 9999 BKN020 BKN050"
    },
    {
      "icao": "LBWN",
      "alert": "OK",
      "vis_m": 9999,
      "fzfg": false,
      "metar_trigger": false,
      "taf_trigger": false,
      "metar": "METAR LBWN 110830Z 12008KT 090V150 9999 FEW020 10/03 Q1019 NOSIG",
      "taf": "TAF LBWN 110500Z 1106/1206 VRB04KT 9999 SCT045"
    },
    {
      "icao": "LCLK",
      "alert": "OK",
      "vis_m": 9999,
      "fzfg": false,
      "metar_trigger": false,
      "taf_trigger": false,
      "metar": "METAR LCLK 110830Z 21018KT 9999 FEW040 SCT060 20/14 Q1014 NOSIG",
      "taf": "TAF LCLK 110530Z 1106/1206 24008KT 9999 FEW030"
    },
    {
      "icao": "LCPH",
      "alert": "OK",
      "vis_m": 9999,
      "fzfg": false,
      "metar_trigger": false,
      "taf_trigger": false,
      "metar": "METAR LCPH 110830Z 31011KT 250V330 9999 FEW025 SCT030 19/13 Q1015 NOSIG",
      "taf": "TAF LCPH 110530Z 1106/1206 04006KT 9999 SCT025"
    },
    {
      "icao": "LEAL",
      "alert": "OK",
      "vis_m": 9999,
      "fzfg": false,
      "metar_trigger": false,
      "taf_trigger": false,
      "metar": "METAR LEAL 110830Z 25004KT 230V290 CAVOK 21/07 Q1009 NOSIG",
      "taf": ""
    },
    {
      "icao": "LEBB",
      "alert": "OK",
      "vis_m": 9000,
      "fzfg": false,
      "metar_trigger": false,
      "taf_trigger": false,
      "metar": "METAR LEBB 110830Z 31012KT 260V330 9000 -RA FEW016 BKN024 OVC029 14/12 Q1016 TEMPO 3000 RA",
      "taf": ""
    },
    {
      "icao": "LEBL",
      "alert": "OK",
      "vis_m": 9999,
      "fzfg": false,
      "metar_trigger": false,
      "taf_trigger": false,
      "metar": "METAR LEBL 110830Z 31007KT 250V340 CAVOK 19/07 Q1012 NOSIG",
      "taf": ""
    },
    {
      "icao": "LECH",
      "alert": "OK",
      "vis_m": 9999,
      "fzfg": false,
      "metar_trigger": false,
      "taf_trigger": false,
      "metar": "METAR LECH 110830Z AUTO VRB02KT CAVOK 16/07 Q1013",
      "taf": "TAF LECH 110500Z 1106/1206 VRB04KT CAVOK TX25/1114Z TN10/1106Z"
    },
    {
      "icao": "LEMD",
      "alert": "OK",
      "vis_m": 9999,
      "fzfg": false,
      "metar_trigger": false,
      "taf_trigger": false,
      "metar": "METAR LEMD 110830Z 02001KT CAVOK 15/06 Q1012 NOSIG",
      "taf": "TAF LEMD 110500Z 1106/1212 VRB04KT CAVOK TX25/1115Z TN05/1106Z"
    },
    {
      "icao": "LEMG",
      "alert": "OK",
      "vis_m": 9999,
      "fzfg": false,
      "metar_trigger": false,
      "taf_trigger": false,
      "metar": "METAR LEMG 110830Z 27003KT 240V300 9999 SCT070 17/13 Q1011 NOSIG",
      "taf": "TAF LEMG 110500Z 1106/1206 30009KT 9999 FEW040 TX23/1114Z TN14/1107Z"
    },
    {
      "icao": "LEVC",
      "alert": "OK",
      "vis_m": 9999,
      "fzfg": false,
      "metar_trigger": false,
      "taf_trigger": false,
      "metar": "METAR LEVC 110830Z VRB02KT CAVOK 18/05 Q1011 NOSIG",
      "taf": "TAF LEVC 110500Z 1106/1206 VRB03KT CAVOK TX24/1113Z TN13/1106Z"
    },
    {
      "icao": "LEXJ",
      "alert": "OK",
      "vis_m": 9999,
      "fzfg": false,
      "metar_trigger": false,
      "taf_trigger": false,
      "metar": "METAR LEXJ 110830Z 27008KT 9999 -RA FEW012 BKN016 BKN028 13/11 Q1016",
      "taf": "TAF LEXJ 110800Z 1109/1209 28009KT 9999 BKN030 TX13/1109Z TN08/1206Z"
    },
    {
      "icao": "LEZG",
      "alert": "OK",
      "vis_m": 9999,
      "fzfg": false,
      "metar_trigger": false,
      "taf_trigger": false,
      "metar": "METAR LEZG 110830Z 35004KT 300V080 CAVOK 18/06 Q1012 NOSIG",
      "taf": "TAF LEZG 110500Z 1106/1206 11007KT CAVOK TX25/1113Z TN08/1106Z"
    },
    {
      "icao": "LEZL",
      "alert": "OK",
      "vis_m": 7000,
      "fzfg": false,
      "metar_trigger": false,
      "taf_trigger": false,
      "metar": "METAR LEZL 110830Z 33003KT 290V020 7000 OVC008 16/15 Q1012 NOSIG",
      "taf": "TAF LEZL 110800Z 1109/1209 24008KT 9999 FEW030 TX25/1114Z TN12/1206Z"
    },
    {
      "icao": "LFBD",
      "alert": "OK",
      "vis_m": 9000,
      "fzfg": false,
      "metar_trigger": false,
      "taf_trigger": false,
      "metar": "METAR LFBD 110830Z AUTO 28011KT 9000 4300 BKN011 OVC022 14/12 Q1013 BECMG BKN020",
      "taf": "TAF LFBD 110500Z 1106/1212 28010KT 9999 BKN010 TX16/1111Z TN08/1206Z"
    },
    {
      "icao": "LFLL",
      "alert": "OK",
      "vis_m": 9999,
      "fzfg": false,
      "metar_trigger": false,
      "taf_trigger": false,
      "metar": "METAR LFLL 110830Z 14007KT CAVOK 19/10 Q1011 NOSIG",
      "taf": ""
    },
    {
      "icao": "LFLS",
      "alert": "OK",
      "vis_m": 9999,
      "fzfg": false,
      "metar_trigger": false,
      "taf_trigger": false,
      "metar": "METAR LFLS 110830Z AUTO 09007KT CAVOK 18/09 Q1012 NOSIG",
      "taf": "TAF LFLS 110800Z 1109/1209 20006KT CAVOK"
    },
    {
      "icao": "LFMN",
      "alert": "OK",
      "vis_m": 9999,
      "fzfg": false,
      "metar_trigger": false,
      "taf_trigger": false,
      "metar": "METAR LFMN 110830Z VRB02KT 9999 FEW013 BKN021 17/12 Q1015 NOSIG",
      "taf": "TAF LFMN 110800Z 1109/1215 VRB05KT 9999 BKN020"
    },
    {
      "icao": "LFOB",
      "alert": "OK",
      "vis_m": 9999,
      "fzfg": false,
      "metar_trigger": false,
      "taf_trigger": false,
      "metar": "METAR LFOB 110830Z AUTO 18007KT CAVOK 14/10 Q1006 TEMPO BKN012 BECMG 26015G25KT",
      "taf": "TAF LFOB 110500Z 1106/1206 10008KT CAVOK"
    },
    {
      "icao": "LFPO",
      "alert": "OK",
      "vis_m": 9999,
      "fzfg": false,
      "metar_trigger": false,
      "taf_trigger": false,
      "metar": "METAR LFPO 110830Z 18004KT 150V220 CAVOK 13/09 Q1007 TEMPO -SHRA BKN080TCU",
      "taf": ""
    },
    {
      "icao": "LFSB",
      "alert": "OK",
      "vis_m": 9999,
      "fzfg": false,
      "metar_trigger": false,
      "taf_trigger": false,
      "metar": "METAR LFSB 110830Z AUTO 11008KT 070V150 CAVOK 16/09 Q1012 NOSIG",
      "taf": "TAF LFSB 110500Z 1106/1206 VRB04KT CAVOK"
    },
    {
      "icao": "LGAV",
      "alert": "OK",
      "vis_m": 9999,
      "fzfg": false,
      "metar_trigger": false,
      "taf_trigger": false,
      "metar": "METAR LGAV 110850Z VRB03KT 9999 SCT020 BKN035 15/08 Q1018 NOSIG",
      "taf": "TAF LGAV 110500Z 1106/1206 VRB05KT 9999 SCT025 SCT070"
    },
    {
      "icao": "LGTS",
      "alert": "OK",
      "vis_m": 9999,
      "fzfg": false,
      "metar_trigger": false,
      "taf_trigger": false,
      "metar": "METAR LGTS 110850Z VRB02KT 9999 -RA FEW020 BKN030 11/09 Q1020 NOSIG",
      "taf": ""
    },
    {
      "icao": "LHBP",
      "alert": "OK",
      "vis_m": 9999,
      "fzfg": false,
      "metar_trigger": false,
      "taf_trigger": false,
      "metar": "METAR LHBP 110830Z VRB03KT CAVOK 10/M02 Q1018 NOSIG",
      "taf": "TAF LHBP 110515Z 1106/1206 VRB03KT CAVOK"
    },
    {
      "icao": "LHDC",
      "alert": "OK",
      "vis_m": 9999,
      "fzfg": false,
      "metar_trigger": false,
      "taf_trigger": false,
      "metar": "METAR LHDC 110815Z AUTO VRB03KT CAVOK 10/M04 Q1018 NOSIG",
      "taf": "TAF LHDC 110815Z 1109/1118 VRB03KT CAVOK"
    },
    {
      "icao": "LIBD",
      "alert": "OK",
      "vis_m": 9999,
      "fzfg": false,
      "metar_trigger": false,
      "taf_trigger": false,
      "metar": "METAR LIBD 110850Z 33005KT 290V030 CAVOK 18/13 Q1015",
      "taf": "TAF LIBD 110500Z 1106/1206 23005KT 9999 FEW040"
    },
    {
      "icao": "LIBG",
      "alert": "OK",
      "vis_m": 9999,
      "fzfg": false,
      "metar_trigger": false,
      "taf_trigger": false,
      "metar": "METAR LIBG 110750Z 10004KT 060V140 9999 FEW040 15/15 Q1015",
      "taf": "TAF LIBG 110800Z 1109/1118 VRB06KT 6000 SCT020"
    },
    {
      "icao": "LIBP",
      "alert": "OK",
      "vis_m": 9999,
      "fzfg": false,
      "metar_trigger": false,
      "taf_trigger": false,
      "metar": "METAR LIBP 110850Z AUTO VRB02KT 9999 NCD 18/13 Q1016",
      "taf": "TAF LIBP 110500Z 1106/1206 23004KT 9999 FEW030"
    },
    {
      "icao": "LIBR",
      "alert": "OK",
      "vis_m": 9999,
      "fzfg": false,
      "metar_trigger": false,
      "taf_trigger": false,
      "metar": "METAR LIBR 110850Z VRB04KT 9999 FEW015 18/15 Q1015",
      "taf": "TAF LIBR 110500Z 1106/1206 VRB04KT 8000 FEW030"
    },
    {
      "icao": "LICA",
      "alert": "OK",
      "vis_m": 9999,
      "fzfg": false,
      "metar_trigger": false,
      "taf_trigger": false,
      "metar": "METAR LICA 110850Z AUTO 28006KT 250V310 9999 NCD 21/06 Q1016",
      "taf": "TAF LICA 110500Z 1106/1206 VRB05KT CAVOK"
    },
    {
      "icao": "LICC",
      "alert": "OK",
      "vis_m": 9999,
      "fzfg": false,
      "metar_trigger": false,
      "taf_trigger": false,
      "metar": "METAR LICC 110850Z 24007KT CAVOK 24/18 Q1015",
      "taf": "TAF LICC 110500Z 1106/1206 26006KT CAVOK"
    },
    {
      "icao": "LICJ",
      "alert": "OK",
      "vis_m": 9999,
      "fzfg": false,
      "metar_trigger": false,
      "taf_trigger": false,
      "metar": "METAR LICJ 110850Z 23011KT CAVOK 22/07 Q1015",
      "taf": "TAF LICJ 110500Z 1106/1206 18010KT CAVOK"
    },
    {
      "icao": "LIMC",
      "alert": "OK",
      "vis_m": 9999,
      "fzfg": false,
      "metar_trigger": false,
      "taf_trigger": false,
      "metar": "METAR LIMC 110850Z VRB02KT 9999 SCT060 17/01 Q1016 NOSIG",
      "taf": "TAF LIMC 110500Z 1106/1212 VRB05KT 9999 FEW040"
    },
    {
      "icao": "LIME",
      "alert": "OK",
      "vis_m": 9999,
      "fzfg": false,
      "metar_trigger": false,
      "taf_trigger": false,
      "metar": "METAR LIME 110850Z VRB02KT 9999 SCT045 SCT090 15/05 Q1016 NOSIG",
      "taf": "TAF LIME 110500Z 1106/1206 VRB05KT CAVOK"
    },
    {
      "icao": "LIMF",
      "alert": "OK",
      "vis_m": 9999,
      "fzfg": false,
      "metar_trigger": false,
      "taf_trigger": false,
      "metar": "METAR LIMF 110850Z 05005KT 010V090 9999 BKN050 16/06 Q1016",
      "taf": "TAF LIMF 110500Z 1106/1206 VRB05KT 9999 SCT020"
    },
    {
      "icao": "LIMJ",
      "alert": "OK",
      "vis_m": 9999,
      "fzfg": false,
      "metar_trigger": false,
      "taf_trigger": false,
      "metar": "METAR LIMJ 110850Z 19004KT CAVOK 16/12 Q1015",
      "taf": "TAF LIMJ 110500Z 1106/1206 VRB05KT 9999 SCT015"
    },
    {
      "icao": "LIPE",
      "alert": "OK",
      "vis_m": 9999,
      "fzfg": false,
      "metar_trigger": false,
      "taf_trigger": false,
      "metar": "METAR LIPE 110850Z 02003KT 340V120 9999 BKN015 15/11 Q1016",
      "taf": "TAF LIPE 110500Z 1106/1206 VRB04KT 7000 SCT035"
    },
    {
      "icao": "LIPH",
      "alert": "OK",
      "vis_m": 9999,
      "fzfg": false,
      "metar_trigger": false,
      "taf_trigger": false,
      "metar": "METAR LIPH 110850Z 06006KT 020V100 CAVOK 17/06 Q1016",
      "taf": "TAF LIPH 110500Z 1106/1206 VRB05KT 9999 FEW060"
    },
    {
      "icao": "LIPQ",
      "alert": "OK",
      "vis_m": 9999,
      "fzfg": false,
      "metar_trigger": false,
      "taf_trigger": false,
      "metar": "METAR LIPQ 110850Z AUTO 17005KT 130V210 9999 NCD 18/04 Q1016",
      "taf": "TAF LIPQ 110500Z 1106/1206 VRB04KT 9999 FEW060"
    },
    {
      "icao": "LIPR",
      "alert": "OK",
      "vis_m": 9999,
      "fzfg": false,
      "metar_trigger": false,
      "taf_trigger": false,
      "metar": "METAR LIPR 110850Z 03007KT 360V060 9999 SCT010 15/13 Q1015",
      "taf": "TAF LIPR 110500Z 1106/1206 VRB05KT 8000 SCT010"
    },
    {
      "icao": "LIPX",
      "alert": "OK",
      "vis_m": 9999,
      "fzfg": false,
      "metar_trigger": false,
      "taf_trigger": false,
      "metar": "METAR LIPX 110850Z 12006KT 080V150 CAVOK 18/03 Q1016",
      "taf": "TAF LIPX 110500Z 1106/1206 VRB05KT CAVOK"
    },
    {
      "icao": "LIPY",
      "alert": "OK",
      "vis_m": 9999,
      "fzfg": false,
      "metar_trigger": false,
      "taf_trigger": false,
      "metar": "METAR LIPY 110850Z AUTO 01007KT 9999 NCD 17/13 Q1015",
      "taf": "TAF LIPY 110500Z 1106/1206 VRB05KT 9999 FEW030"
    },
    {
      "icao": "LIPZ",
      "alert": "OK",
      "vis_m": 9999,
      "fzfg": false,
      "metar_trigger": false,
      "taf_trigger": false,
      "metar": "METAR LIPZ 110850Z 08007KT 9999 FEW055 16/07 Q1016 NOSIG",
      "taf": "TAF LIPZ 110500Z 1106/1212 03005KT 9999 FEW050"
    },
    {
      "icao": "LIRF",
      "alert": "OK",
      "vis_m": 9999,
      "fzfg": false,
      "metar_trigger": false,
      "taf_trigger": false,
      "metar": "METAR LIRF 110850Z 08004KT 020V150 9999 FEW015 18/13 Q1015 NOSIG",
      "taf": "TAF LIRF 110500Z 1106/1212 VRB05KT 1500 BCFG NSC"
    },
    {
      "icao": "LIRN",
      "alert": "OK",
      "vis_m": 9999,
      "fzfg": false,
      "metar_trigger": false,
      "taf_trigger": false,
      "metar": "METAR LIRN 110850Z 36004G17KT 280V060 CAVOK 19/06 Q1015 NOSIG",
      "taf": "TAF LIRN 110500Z 1106/1206 19006KT CAVOK"
    },
    {
      "icao": "LIRP",
      "alert": "OK",
      "vis_m": 9999,
      "fzfg": false,
      "metar_trigger": false,
      "taf_trigger": false,
      "metar": "METAR LIRP 110845Z 08005KT 9999 FEW014 SCT025 17/13 Q1015 NOSIG",
      "taf": "TAF LIRP 110500Z 1106/1206 10003KT 9999 FEW020"
    },
    {
      "icao": "LIRZ",
      "alert": "OK",
      "vis_m": 9999,
      "fzfg": false,
      "metar_trigger": false,
      "taf_trigger": false,
      "metar": "METAR LIRZ 110850Z AUTO VRB01KT 9999 NCD 18/12 Q1015",
      "taf": "TAF LIRZ 110500Z 1106/1206 VRB05KT CAVOK"
    },
    {
      "icao": "LJLJ",
      "alert": "OK",
      "vis_m": 9999,
      "fzfg": false,
      "metar_trigger": false,
      "taf_trigger": false,
      "metar": "METAR LJLJ 110830Z 08004KT 040V110 9999 FEW030 BKN090 08/03 Q1019 NOSIG",
      "taf": "TAF LJLJ 110500Z 1106/1206 VRB02KT 9999 FEW055"
    },
    {
      "icao": "LKMT",
      "alert": "OK",
      "vis_m": 9999,
      "fzfg": false,
      "metar_trigger": false,
      "taf_trigger": false,
      "metar": "METAR LKMT 110830Z 03004KT 350V070 9999 FEW039 06/M02 Q1019 NOSIG",
      "taf": "TAF LKMT 110500Z 1106/1206 04006KT CAVOK"
    },
    {
      "icao": "LKPR",
      "alert": "OK",
      "vis_m": 5000,
      "fzfg": false,
      "metar_trigger": false,
      "taf_trigger": false,
      "metar": "METAR LKPR 110830Z VRB03KT 5000 BR OVC007 02/01 Q1019 NOSIG",
      "taf": "TAF LKPR 110800Z 1109/1215 VRB02KT 7000 BKN009"
    },
    {
      "icao": "LLBG",
      "alert": "OK",
      "vis_m": 9999,
      "fzfg": false,
      "metar_trigger": false,
      "taf_trigger": false,
      "metar": "METAR LLBG 110850Z 27012KT 9999 SCT027 21/12 Q1017 NOSIG",
      "taf": "TAF LLBG 110502Z 1106/1206 VRB03KT 9999 SCT025 TX21/1111Z TN14/1203Z"
    },
    {
      "icao": "LMML",
      "alert": "OK",
      "vis_m": 9999,
      "fzfg": false,
      "metar_trigger": false,
      "taf_trigger": false,
      "metar": "METAR LMML 110845Z 23005KT 190V260 CAVOK 24/04 Q1016 NOSIG",
      "taf": "TAF LMML 110500Z 1106/1206 VRB08KT CAVOK"
    },
    {
      "icao": "LOWW",
      "alert": "OK",
      "vis_m": 9999,
      "fzfg": false,
      "metar_trigger": false,
      "taf_trigger": false,
      "metar": "METAR LOWW 110850Z 35008KT 330V030 9999 FEW026 09/02 Q1019 NOSIG",
      "taf": "TAF LOWW 110815Z 1109/1215 07010KT 9999 FEW030 TX17/1214Z TN04/1204Z"
    },
    {
      "icao": "LPFR",
      "alert": "OK",
      "vis_m": 9999,
      "fzfg": false,
      "metar_trigger": false,
      "taf_trigger": false,
      "metar": "METAR LPFR 110830Z 29009KT 270V330 9999 FEW020 17/14 Q1012",
      "taf": "TAF LPFR 110500Z 1106/1206 32007KT 9999 FEW020"
    },
    {
      "icao": "LPMA",
      "alert": "OK",
      "vis_m": 9999,
      "fzfg": false,
      "metar_trigger": false,
      "taf_trigger": false,
      "metar": "METAR LPMA 110830Z VRB10KT 9999 SCT015 16/11 Q1022",
      "taf": "TAF LPMA 110500Z 1106/1206 36015KT 9999 SCT015"
    },
    {
      "icao": "LPPR",
      "alert": "OK",
      "vis_m": 9999,
      "fzfg": false,
      "metar_trigger": false,
      "taf_trigger": false,
      "metar": "METAR LPPR 110830Z 34016KT 9999 FEW010 SCT022 12/10 Q1016",
      "taf": "TAF LPPR 110500Z 1106/1206 33013KT 9999 FEW015"
    },
    {
      "icao": "LPPS",
      "alert": "OK",
      "vis_m": 9999,
      "fzfg": false,
      "metar_trigger": false,
      "taf_trigger": false,
      "metar": "METAR LPPS 110830Z 36017KT 9999 SCT012 BKN030 16/12 Q1023",
      "taf": "TAF LPPS 110500Z 1106/1212 35018KT 9999 SCT012 SCT030"
    },
    {
      "icao": "LPPT",
      "alert": "OK",
      "vis_m": 9999,
      "fzfg": false,
      "metar_trigger": false,
      "taf_trigger": false,
      "metar": "METAR LPPT 110830Z 34015G26KT 9999 SCT016 14/11 Q1014",
      "taf": "TAF LPPT 110500Z 1106/1212 32013KT 9999 FEW015"
    },
    {
      "icao": "LQBK",
      "alert": "OK",
      "vis_m": 9999,
      "fzfg": false,
      "metar_trigger": false,
      "taf_trigger": false,
      "metar": "METAR LQBK 110830Z VRB04KT CAVOK 12/04 Q1019",
      "taf": "TAF LQBK 110500Z 1106/1206 06006KT CAVOK TX16/1113Z TN05/1204Z"
    },
    {
      "icao": "LQSA",
      "alert": "OK",
      "vis_m": 9999,
      "fzfg": false,
      "metar_trigger": false,
      "taf_trigger": false,
      "metar": "METAR LQSA 110830Z VRB02KT 9999 FEW065 12/05 Q1017 NOSIG",
      "taf": "TAF LQSA 110500Z 1106/1206 VRB02KT 9999 SCT060 TX16/1114Z TN04/1204Z"
    },
    {
      "icao": "LQTZ",
      "alert": "OK",
      "vis_m": 9999,
      "fzfg": false,
      "metar_trigger": false,
      "taf_trigger": false,
      "metar": "METAR LQTZ 110830Z 27005KT 210V310 9999 FEW030 12/07 Q1018",
      "taf": ""
    },
    {
      "icao": "LRBC",
      "alert": "OK",
      "vis_m": 9999,
      "fzfg": false,
      "metar_trigger": false,
      "taf_trigger": false,
      "metar": "METAR LRBC 110830Z VRB03KT CAVOK 09/M01 Q1017",
      "taf": "TAF LRBC 110800Z 1109/1118 VRB04KT CAVOK"
    },
    {
      "icao": "LRBS",
      "alert": "OK",
      "vis_m": 9999,
      "fzfg": false,
      "metar_trigger": false,
      "taf_trigger": false,
      "metar": "METAR LRBS 110830Z VRB02KT CAVOK 11/01 Q1018 NOSIG",
      "taf": "TAF LRBS 110500Z 1106/1206 VRB04KT CAVOK"
    },
    {
      "icao": "LRBV",
      "alert": "OK",
      "vis_m": 9999,
      "fzfg": false,
      "metar_trigger": false,
      "taf_trigger": false,
      "metar": "METAR LRBV 110830Z 14003KT 9999 BKN045 OVC055 05/M00 Q1017",
      "taf": "TAF LRBV 110800Z 1109/1118 VRB04KT 9999 BKN050"
    },
    {
      "icao": "LRCL",
      "alert": "OK",
      "vis_m": 9999,
      "fzfg": false,
      "metar_trigger": false,
      "taf_trigger": false,
      "metar": "METAR LRCL 110830Z 08004KT 050V130 9999 SCT067 09/M04 Q1017",
      "taf": "TAF LRCL 110800Z 1109/1118 VRB04KT 9999 BKN060"
    },
    {
      "icao": "LRCV",
      "alert": "OK",
      "vis_m": 9999,
      "fzfg": false,
      "metar_trigger": false,
      "taf_trigger": false,
      "metar": "METAR LRCV 110830Z VRB02KT 9999 SCT013 09/05 Q1018",
      "taf": "TAF LRCV 110800Z 1109/1118 VRB04KT 9999 SCT040"
    },
    {
      "icao": "LRIA",
      "alert": "OK",
      "vis_m": 9999,
      "fzfg": false,
      "metar_trigger": false,
      "taf_trigger": false,
      "metar": "METAR LRIA 110830Z 08004KT 030V170 9999 FEW040 08/M01 Q1018",
      "taf": "TAF LRIA 110800Z 1109/1118 VRB04KT CAVOK"
    },
    {
      "icao": "LROP",
      "alert": "OK",
      "vis_m": 9999,
      "fzfg": false,
      "metar_trigger": false,
      "taf_trigger": false,
      "metar": "METAR LROP 110830Z VRB02KT CAVOK 11/M02 Q1018 NOSIG",
      "taf": "TAF LROP 110500Z 1106/1206 VRB04KT CAVOK"
    },
    {
      "icao": "LRSB",
      "alert": "OK",
      "vis_m": 9999,
      "fzfg": false,
      "metar_trigger": false,
      "taf_trigger": false,
      "metar": "METAR LRSB 110830Z 33008KT 9999 SCT060 SCT075 09/M04 Q1017 NOSIG",
      "taf": "TAF LRSB 110500Z 1106/1206 VRB04KT CAVOK"
    },
    {
      "icao": "LRSM",
      "alert": "OK",
      "vis_m": 9999,
      "fzfg": false,
      "metar_trigger": false,
      "taf_trigger": false,
      "metar": "METAR LRSM 110830Z 31004KT 260V360 CAVOK 10/M05 Q1018",
      "taf": "TAF LRSM 110800Z 1109/1118 VRB04KT CAVOK"
    },
    {
      "icao": "LRSV",
      "alert": "OK",
      "vis_m": 9999,
      "fzfg": false,
      "metar_trigger": false,
      "taf_trigger": false,
      "metar": "METAR LRSV 110830Z VRB04KT 9999 SCT034 07/M02 Q1017",
      "taf": "TAF LRSV 110800Z 1109/1118 VRB04KT 9999 SCT035"
    },
    {
      "icao": "LRTM",
      "alert": "OK",
      "vis_m": 9999,
      "fzfg": false,
      "metar_trigger": false,
      "taf_trigger": false,
      "metar": "METAR LRTM 110830Z VRB02KT CAVOK 07/M01 Q1018",
      "taf": "TAF LRTM 110800Z 1109/1118 VRB04KT CAVOK"
    },
    {
      "icao": "LRTR",
      "alert": "OK",
      "vis_m": 9999,
      "fzfg": false,
      "metar_trigger": false,
      "taf_trigger": false,
      "metar": "METAR LRTR 110830Z VRB02KT CAVOK 10/02 Q1018 NOSIG",
      "taf": "TAF LRTR 110500Z 1106/1206 VRB04KT CAVOK"
    },
    {
      "icao": "LTAC",
      "alert": "OK",
      "vis_m": 9999,
      "fzfg": false,
      "metar_trigger": false,
      "taf_trigger": false,
      "metar": "METAR LTAC 110850Z VRB03KT 9999 SCT040 06/M04 Q1017 NOSIG",
      "taf": "TAF LTAC 110440Z 1106/1206 VRB02KT 9999 SCT040 SCT100"
    },
    {
      "icao": "LTFM",
      "alert": "OK",
      "vis_m": 9999,
      "fzfg": false,
      "metar_trigger": false,
      "taf_trigger": false,
      "metar": "METAR LTFM 110850Z VRB03KT 9999 SCT025 BKN180 10/03 Q1020 NOSIG",
      "taf": ""
    },
    {
      "icao": "LUKK",
      "alert": "OK",
      "vis_m": 9999,
      "fzfg": false,
      "metar_trigger": false,
      "taf_trigger": false,
      "metar": "METAR LUKK 110830Z 19004KT 120V260 9999 BKN041 08/M00 Q1018 NOSIG",
      "taf": "TAF LUKK 110518Z 1106/1206 VRB06KT CAVOK"
    },
    {
      "icao": "LWOH",
      "alert": "OK",
      "vis_m": 9999,
      "fzfg": false,
      "metar_trigger": false,
      "taf_trigger": false,
      "metar": "METAR LWOH 110820Z 16006KT 9999 SCT050 11/05 Q1017",
      "taf": "TAF LWOH 110830Z 1109/1209 16005KT 9999 SCT050"
    },
    {
      "icao": "LWSK",
      "alert": "OK",
      "vis_m": 9999,
      "fzfg": false,
      "metar_trigger": false,
      "taf_trigger": false,
      "metar": "METAR LWSK 110850Z 15003KT 120V200 9999 SCT050 BKN080 10/05 Q1019 NOSIG",
      "taf": "TAF LWSK 110830Z 1109/1209 VRB03KT 9999 SCT050 BKN080"
    },
    {
      "icao": "LYBE",
      "alert": "OK",
      "vis_m": 9999,
      "fzfg": false,
      "metar_trigger": false,
      "taf_trigger": false,
      "metar": "METAR LYBE 110830Z 31005KT 260V350 9999 SCT020 BKN035 10/05 Q1019 NOSIG",
      "taf": "TAF LYBE 110500Z 1106/1206 26005KT 9999 BKN025 TX14/1113Z TN03/1204Z"
    },
    {
      "icao": "LYNI",
      "alert": "OK",
      "vis_m": 9999,
      "fzfg": false,
      "metar_trigger": false,
      "taf_trigger": false,
      "metar": "METAR LYNI 110830Z VRB02KT 9999 FEW013 BKN027 OVC070 09/07 Q1019 NOSIG",
      "taf": "TAF LYNI 110500Z 1106/1206 17005KT 9999 BKN027 OVC070 TX15/1112Z TN03/1205Z"
    },
    {
      "icao": "LYPG",
      "alert": "OK",
      "vis_m": 9999,
      "fzfg": false,
      "metar_trigger": false,
      "taf_trigger": false,
      "metar": "METAR LYPG 110830Z 00000KT CAVOK 15/04 Q1017 NOSIG",
      "taf": "TAF LYPG 110500Z 1106/1206 17007KT 9999 BKN090 TX22/1113Z TN12/1204Z"
    },
    {
      "icao": "LZIB",
      "alert": "OK",
      "vis_m": 9999,
      "fzfg": false,
      "metar_trigger": false,
      "taf_trigger": false,
      "metar": "METAR LZIB 110830Z 05003KT 320V120 CAVOK 10/M02 Q1019 NOSIG",
      "taf": "TAF LZIB 110515Z 1106/1206 27006KT 9999 FEW035"
    },
    {
      "icao": "LZKZ",
      "alert": "OK",
      "vis_m": 9999,
      "fzfg": false,
      "metar_trigger": false,
      "taf_trigger": false,
      "metar": "METAR LZKZ 110830Z 02011KT CAVOK 09/M06 Q1018 NOSIG",
      "taf": "TAF LZKZ 110515Z 1106/1206 01006KT 9999 FEW045"
    },
    {
      "icao": "LZTT",
      "alert": "OK",
      "vis_m": 9999,
      "fzfg": false,
      "metar_trigger": false,
      "taf_trigger": false,
      "metar": "METAR LZTT 110830Z VRB05KT 9999 SCT040 05/M05 Q1017 NOSIG",
      "taf": "TAF LZTT 110515Z 1106/1206 VRB02KT 9999 FEW050"
    },
    {
      "icao": "OEJN",
      "alert": "OK",
      "vis_m": 9999,
      "fzfg": false,
      "metar_trigger": false,
      "taf_trigger": false,
      "metar": "METAR OEJN 110800Z 34011KT CAVOK 29/10 Q1014 NOSIG",
      "taf": "TAF OEJN 110500Z 1106/1212 34014KT CAVOK"
    },
    {
      "icao": "OEMA",
      "alert": "OK",
      "vis_m": 9999,
      "fzfg": false,
      "metar_trigger": false,
      "taf_trigger": false,
      "metar": "METAR OEMA 110800Z 17003KT CAVOK 27/M07 Q1016 NOSIG",
      "taf": "TAF OEMA 110500Z 1106/1212 30014KT CAVOK"
    },
    {
      "icao": "OJAI",
      "alert": "OK",
      "vis_m": 5000,
      "fzfg": false,
      "metar_trigger": false,
      "taf_trigger": false,
      "metar": "METAR OJAI 110800Z 25013KT 5000 HZ FEW030 16/06 Q1018 NOSIG",
      "taf": "TAF OJAI 110441Z 1106/1212 25004KT 2000 BR NSC"
    },
    {
      "icao": "OMAA",
      "alert": "OK",
      "vis_m": null,
      "fzfg": false,
      "metar_trigger": false,
      "taf_trigger": false,
      "metar": "",
      "taf": ""
    },
    {
      "icao": "OMDB",
      "alert": "OK",
      "vis_m": null,
      "fzfg": false,
      "metar_trigger": false,
      "taf_trigger": false,
      "metar": "",
      "taf": ""
    },
    {
      "icao": "UAAA",
      "alert": "OK",
      "vis_m": 9999,
      "fzfg": false,
      "metar_trigger": false,
      "taf_trigger": false,
      "metar": "METAR UAAA 110830Z 06003MPS 010V120 9999 SCT050CB BKN100 20/05 Q1021 NOSIG",
      "taf": "TAF UAAA 110503Z 1106/1206 35003G08MPS 9999 SCT050CB BKN100 TX19/1108Z TN08/1201Z"
    },
    {
      "icao": "UBBB",
      "alert": "OK",
      "vis_m": 9999,
      "fzfg": false,
      "metar_trigger": false,
      "taf_trigger": false,
      "metar": "METAR UBBB 110830Z 33014KT CAVOK 15/09 Q1016 NOSIG",
      "taf": "TAF UBBB 110503Z 1106/1206 33014G24KT CAVOK TX14/1110Z TN07/1201Z"
    },
    {
      "icao": "UDSG",
      "alert": "OK",
      "vis_m": 9999,
      "fzfg": false,
      "metar_trigger": false,
      "taf_trigger": false,
      "metar": "METAR UDSG 110830Z 25011KT 9999 -SHRA SCT030CB OVC036 05/04 Q1015 NOSIG",
      "taf": "TAF UDSG 110500Z 1106/1206 22006KT 9999 BKN030"
    },
    {
      "icao": "UDYZ",
      "alert": "OK",
      "vis_m": 9999,
      "fzfg": false,
      "metar_trigger": false,
      "taf_trigger": false,
      "metar": "METAR UDYZ 110830Z VRB02KT 9999 SCT043CB 15/05 Q1013 NOSIG",
      "taf": "TAF UDYZ 110500Z 1106/1206 24006KT 9999 SCT040"
    },
    {
      "icao": "UGKO",
      "alert": "OK",
      "vis_m": 9999,
      "fzfg": false,
      "metar_trigger": false,
      "taf_trigger": false,
      "metar": "METAR UGKO 110830Z 27005KT 230V310 9999 FEW020 SCT024 BKN033 11/06 Q1017 NOSIG",
      "taf": "TAF UGKO 110500Z 1106/1206 26007KT 9999 SCT020 OVC040 TX12/1111Z TN06/1203Z"
    }
  ]
}