{
  "ts_utc": "2026-07-17T08:57:37Z",
  "threshold_m": 150,
  "source": "stations_override.txt (ICAO list) + aviationweather.gov (METAR/TAF raw)",
  "station_count": 159,
  "stations": [
    {
      "icao": "BIKF",
      "alert": "OK",
      "vis_m": 9999,
      "fzfg": false,
      "metar_trigger": false,
      "taf_trigger": false,
      "metar": "METAR BIKF 170830Z 27008KT 9999 -DZ FEW006 OVC014 10/09 Q1026",
      "taf": "TAF BIKF 170758Z 1709/1809 27010KT 9999 FEW005 BKN020 TX12/1715Z TN09/1803Z"
    },
    {
      "icao": "BKPR",
      "alert": "OK",
      "vis_m": null,
      "fzfg": false,
      "metar_trigger": false,
      "taf_trigger": false,
      "metar": "",
      "taf": "TAF BKPR 170530Z 1706/1806 36006KT 9999 FEW050"
    },
    {
      "icao": "EBCI",
      "alert": "OK",
      "vis_m": 9999,
      "fzfg": false,
      "metar_trigger": false,
      "taf_trigger": false,
      "metar": "METAR EBCI 170850Z 02007KT 330V050 CAVOK 23/13 Q1015 NOSIG",
      "taf": "TAF EBCI 170500Z 1706/1812 34006KT 9999 FEW045"
    },
    {
      "icao": "EDDB",
      "alert": "OK",
      "vis_m": 9999,
      "fzfg": false,
      "metar_trigger": false,
      "taf_trigger": false,
      "metar": "METAR EDDB 170850Z AUTO VRB02KT 9999 FEW009 22/19 Q1012 NOSIG",
      "taf": "TAF EDDB 170500Z 1706/1806 14006KT CAVOK"
    },
    {
      "icao": "EDDH",
      "alert": "OK",
      "vis_m": 9999,
      "fzfg": false,
      "metar_trigger": false,
      "taf_trigger": false,
      "metar": "METAR EDDH 170850Z AUTO VRB04KT CAVOK 26/15 Q1011 BECMG 29005KT",
      "taf": "TAF EDDH 170500Z 1706/1812 10005KT CAVOK"
    },
    {
      "icao": "EDDK",
      "alert": "OK",
      "vis_m": 9999,
      "fzfg": false,
      "metar_trigger": false,
      "taf_trigger": false,
      "metar": "METAR EDDK 170850Z AUTO VRB02KT CAVOK 22/15 Q1013 BECMG 30010KT",
      "taf": "TAF EDDK 170500Z 1706/1812 VRB03KT CAVOK"
    },
    {
      "icao": "EDDN",
      "alert": "OK",
      "vis_m": 9999,
      "fzfg": false,
      "metar_trigger": false,
      "taf_trigger": false,
      "metar": "METAR EDDN 170850Z AUTO 19004KT 130V250 9999 -SHRA FEW///TCU 21/17 Q1015 NOSIG",
      "taf": ""
    },
    {
      "icao": "EDDS",
      "alert": "OK",
      "vis_m": 9999,
      "fzfg": false,
      "metar_trigger": false,
      "taf_trigger": false,
      "metar": "METAR EDDS 170850Z AUTO 06005KT 010V120 CAVOK 25/14 Q1015 NOSIG",
      "taf": "TAF EDDS 170500Z 1706/1806 VRB03KT CAVOK"
    },
    {
      "icao": "EDFH",
      "alert": "OK",
      "vis_m": 9999,
      "fzfg": false,
      "metar_trigger": false,
      "taf_trigger": false,
      "metar": "METAR EDFH 170850Z 26010KT 230V300 9999 FEW006 19/18 Q1015",
      "taf": "TAF EDFH 170500Z 1706/1806 25006KT CAVOK"
    },
    {
      "icao": "EDJA",
      "alert": "OK",
      "vis_m": 9999,
      "fzfg": false,
      "metar_trigger": false,
      "taf_trigger": false,
      "metar": "METAR EDJA 170850Z 23009KT CAVOK 22/15 Q1017",
      "taf": "TAF EDJA 170800Z 1709/1718 24010KT 9999 FEW035"
    },
    {
      "icao": "EDLW",
      "alert": "OK",
      "vis_m": 9999,
      "fzfg": false,
      "metar_trigger": false,
      "taf_trigger": false,
      "metar": "METAR EDLW 170850Z VRB02KT CAVOK 23/13 Q1013",
      "taf": "TAF EDLW 170500Z 1706/1806 VRB03KT CAVOK"
    },
    {
      "icao": "EDNY",
      "alert": "OK",
      "vis_m": 9999,
      "fzfg": false,
      "metar_trigger": false,
      "taf_trigger": false,
      "metar": "METAR EDNY 170850Z 22006KT 190V270 CAVOK 23/15 Q1016",
      "taf": "TAF EDNY 170800Z 1709/1718 24010KT CAVOK"
    },
    {
      "icao": "EDSB",
      "alert": "OK",
      "vis_m": 9999,
      "fzfg": false,
      "metar_trigger": false,
      "taf_trigger": false,
      "metar": "METAR EDSB 170850Z 24009KT 200V280 CAVOK 25/16 Q1014",
      "taf": "TAF EDSB 170500Z 1706/1806 21006KT CAVOK"
    },
    {
      "icao": "EETN",
      "alert": "OK",
      "vis_m": 9999,
      "fzfg": false,
      "metar_trigger": false,
      "taf_trigger": false,
      "metar": "METAR EETN 170850Z 16006KT 110V190 9999 FEW030 24/15 Q1017 NOSIG",
      "taf": "TAF EETN 170530Z 1706/1806 18010KT CAVOK"
    },
    {
      "icao": "EFTU",
      "alert": "OK",
      "vis_m": 9999,
      "fzfg": false,
      "metar_trigger": false,
      "taf_trigger": false,
      "metar": "METAR EFTU 170850Z AUTO 20010KT 160V240 CAVOK 23/14 Q1016",
      "taf": "TAF EFTU 170826Z 1709/1809 19008KT CAVOK"
    },
    {
      "icao": "EGBB",
      "alert": "OK",
      "vis_m": 7000,
      "fzfg": false,
      "metar_trigger": false,
      "taf_trigger": false,
      "metar": "METAR EGBB 170850Z 09003KT 040V160 7000 OVC009 16/13 Q1018",
      "taf": ""
    },
    {
      "icao": "EGGP",
      "alert": "OK",
      "vis_m": 9000,
      "fzfg": false,
      "metar_trigger": false,
      "taf_trigger": false,
      "metar": "METAR EGGP 170850Z COR 15003KT 100V210 9000 SCT016 19/14 Q1017",
      "taf": ""
    },
    {
      "icao": "EGGW",
      "alert": "OK",
      "vis_m": 9999,
      "fzfg": false,
      "metar_trigger": false,
      "taf_trigger": false,
      "metar": "METAR EGGW 170850Z AUTO 05004KT 020V130 9999 NCD 17/12 Q1017",
      "taf": ""
    },
    {
      "icao": "EGKK",
      "alert": "OK",
      "vis_m": 9999,
      "fzfg": false,
      "metar_trigger": false,
      "taf_trigger": false,
      "metar": "METAR EGKK 170850Z 02003KT 310V070 CAVOK 22/13 Q1017",
      "taf": "TAF EGKK 170455Z 1706/1812 07005KT CAVOK"
    },
    {
      "icao": "EGNM",
      "alert": "OK",
      "vis_m": 9999,
      "fzfg": false,
      "metar_trigger": false,
      "taf_trigger": false,
      "metar": "METAR EGNM 170850Z 36006KT 330V090 9999 FEW009 BKN021 15/10 Q1018",
      "taf": "TAF EGNM 170501Z 1706/1806 01006KT 9999 SCT020"
    },
    {
      "icao": "EGPD",
      "alert": "OK",
      "vis_m": 9999,
      "fzfg": false,
      "metar_trigger": false,
      "taf_trigger": false,
      "metar": "METAR EGPD 170850Z AUTO 34012KT 9999 OVC017 13/09 Q1020",
      "taf": "TAF EGPD 170455Z 1706/1806 34012KT 9999 BKN012"
    },
    {
      "icao": "EGPF",
      "alert": "OK",
      "vis_m": 9000,
      "fzfg": false,
      "metar_trigger": false,
      "taf_trigger": false,
      "metar": "METAR EGPF 170850Z COR 03004KT 300V090 9000 SCT015 16/13 Q1020",
      "taf": ""
    },
    {
      "icao": "EHBK",
      "alert": "OK",
      "vis_m": 9999,
      "fzfg": false,
      "metar_trigger": false,
      "taf_trigger": false,
      "metar": "METAR EHBK 170825Z AUTO 29003KT 220V030 9999 NSC 20/14 Q1014 NOSIG",
      "taf": "TAF EHBK 170506Z 1706/1812 35004KT CAVOK"
    },
    {
      "icao": "EHEH",
      "alert": "OK",
      "vis_m": 9999,
      "fzfg": false,
      "metar_trigger": false,
      "taf_trigger": false,
      "metar": "METAR EHEH 170825Z AUTO 32003KT 9999 OVC016 20/16 Q1014 WHT BECMG BKN015 RMK TREND REMOTE BY EHWX",
      "taf": ""
    },
    {
      "icao": "EKBI",
      "alert": "OK",
      "vis_m": 9999,
      "fzfg": false,
      "metar_trigger": false,
      "taf_trigger": false,
      "metar": "METAR EKBI 170850Z 35002KT 9999 FEW061TCU BKN100 21/17 Q1013",
      "taf": "TAF EKBI 170827Z 1709/1809 27008KT 9999 FEW040"
    },
    {
      "icao": "EKCH",
      "alert": "OK",
      "vis_m": 9999,
      "fzfg": false,
      "metar_trigger": false,
      "taf_trigger": false,
      "metar": "METAR EKCH 170850Z AUTO 36003KT 9999 NCD 23/15 Q1013 NOSIG",
      "taf": "TAF EKCH 170827Z 1709/1809 08005KT CAVOK"
    },
    {
      "icao": "ENAL",
      "alert": "OK",
      "vis_m": 9999,
      "fzfg": false,
      "metar_trigger": false,
      "taf_trigger": false,
      "metar": "METAR ENAL 170850Z 04011KT 9999 BKN008 13/11 Q1017",
      "taf": "TAF ENAL 170800Z 1709/1718 04012KT 9999 SCT008 BKN018"
    },
    {
      "icao": "ENBR",
      "alert": "OK",
      "vis_m": 9999,
      "fzfg": false,
      "metar_trigger": false,
      "taf_trigger": false,
      "metar": "METAR ENBR 170850Z 32009KT CAVOK 12/11 Q1013 NOSIG RMK WIND 1200FT 34010KT",
      "taf": ""
    },
    {
      "icao": "ENGM",
      "alert": "OK",
      "vis_m": 9999,
      "fzfg": false,
      "metar_trigger": false,
      "taf_trigger": false,
      "metar": "METAR ENGM 170850Z 20006KT CAVOK 23/14 Q1012 NOSIG",
      "taf": "TAF ENGM 170500Z 1706/1806 19008KT CAVOK"
    },
    {
      "icao": "ENHD",
      "alert": "OK",
      "vis_m": 9999,
      "fzfg": false,
      "metar_trigger": false,
      "taf_trigger": false,
      "metar": "METAR ENHD 170850Z 33013KT CAVOK 13/11 Q1013",
      "taf": "TAF ENHD 170800Z 1709/1718 35015KT 9000 SCT005"
    },
    {
      "icao": "ENTC",
      "alert": "OK",
      "vis_m": 9999,
      "fzfg": false,
      "metar_trigger": false,
      "taf_trigger": false,
      "metar": "METAR ENTC 170850Z 26010KT 9999 -DZRA SCT008 BKN012 10/08 Q1010 TEMPO BKN009 RMK WIND 2600FT 24018KT",
      "taf": ""
    },
    {
      "icao": "ENTO",
      "alert": "OK",
      "vis_m": 9999,
      "fzfg": false,
      "metar_trigger": false,
      "taf_trigger": false,
      "metar": "METAR ENTO 170850Z 21007KT CAVOK 26/13 Q1013 NOSIG",
      "taf": "TAF ENTO 170500Z 1706/1806 20008KT CAVOK"
    },
    {
      "icao": "ENVA",
      "alert": "OK",
      "vis_m": 9999,
      "fzfg": false,
      "metar_trigger": false,
      "taf_trigger": false,
      "metar": "METAR ENVA 170850Z 29005KT 9999 -DZ SCT009 OVC011 13/11 Q1017 TEMPO BKN008 RMK WIND 670FT 29006KT",
      "taf": ""
    },
    {
      "icao": "ENZV",
      "alert": "OK",
      "vis_m": 9999,
      "fzfg": false,
      "metar_trigger": false,
      "taf_trigger": false,
      "metar": "METAR ENZV 170850Z 34005KT 300V360 CAVOK 17/13 Q1013 NOSIG",
      "taf": ""
    },
    {
      "icao": "EPGD",
      "alert": "OK",
      "vis_m": 9999,
      "fzfg": false,
      "metar_trigger": false,
      "taf_trigger": false,
      "metar": "METAR EPGD 170830Z 14007KT 090V160 CAVOK 25/17 Q1016",
      "taf": "TAF EPGD 170530Z 1706/1806 VRB02KT CAVOK"
    },
    {
      "icao": "EPKK",
      "alert": "OK",
      "vis_m": 9999,
      "fzfg": false,
      "metar_trigger": false,
      "taf_trigger": false,
      "metar": "METAR EPKK 170830Z 08004KT 010V090 CAVOK 27/17 Q1015",
      "taf": "TAF EPKK 170830Z 1709/1809 VRB05KT CAVOK"
    },
    {
      "icao": "EPKT",
      "alert": "OK",
      "vis_m": 9999,
      "fzfg": false,
      "metar_trigger": false,
      "taf_trigger": false,
      "metar": "METAR EPKT 170830Z 14005KT 090V170 CAVOK 27/16 Q1015",
      "taf": "TAF EPKT 170530Z 1706/1806 15005KT CAVOK"
    },
    {
      "icao": "EPLB",
      "alert": "OK",
      "vis_m": 9999,
      "fzfg": false,
      "metar_trigger": false,
      "taf_trigger": false,
      "metar": "METAR EPLB 170830Z 12007KT 080V150 CAVOK 29/13 Q1016",
      "taf": "TAF EPLB 170530Z 1706/1806 12005KT CAVOK"
    },
    {
      "icao": "EPMO",
      "alert": "OK",
      "vis_m": 9999,
      "fzfg": false,
      "metar_trigger": false,
      "taf_trigger": false,
      "metar": "METAR EPMO 170830Z 12006KT 080V170 CAVOK 29/15 Q1015",
      "taf": "TAF EPMO 170530Z 1706/1806 09005KT CAVOK"
    },
    {
      "icao": "EPPO",
      "alert": "OK",
      "vis_m": 9999,
      "fzfg": false,
      "metar_trigger": false,
      "taf_trigger": false,
      "metar": "METAR EPPO 170830Z 13010KT CAVOK 29/16 Q1013",
      "taf": "TAF EPPO 170530Z 1706/1806 14010KT CAVOK"
    },
    {
      "icao": "EPRA",
      "alert": "OK",
      "vis_m": 9999,
      "fzfg": false,
      "metar_trigger": false,
      "taf_trigger": false,
      "metar": "METAR EPRA 170830Z 13006KT 080V170 CAVOK 28/14 Q1016",
      "taf": "TAF EPRA 170830Z 1709/1718 13008KT CAVOK"
    },
    {
      "icao": "EPRZ",
      "alert": "OK",
      "vis_m": 9999,
      "fzfg": false,
      "metar_trigger": false,
      "taf_trigger": false,
      "metar": "METAR EPRZ 170830Z VRB03KT 9999 FEW040 29/18 Q1016",
      "taf": "TAF EPRZ 170530Z 1706/1806 VRB02KT CAVOK"
    },
    {
      "icao": "EPSC",
      "alert": "OK",
      "vis_m": 9999,
      "fzfg": false,
      "metar_trigger": false,
      "taf_trigger": false,
      "metar": "METAR EPSC 170830Z 11004KT 080V140 CAVOK 26/17 Q1013",
      "taf": "TAF EPSC 170530Z 1706/1806 13008KT CAVOK"
    },
    {
      "icao": "EPSY",
      "alert": "OK",
      "vis_m": 9999,
      "fzfg": false,
      "metar_trigger": false,
      "taf_trigger": false,
      "metar": "METAR EPSY 170830Z 19006KT 130V230 9999 FEW043 26/15 Q1016",
      "taf": "TAF EPSY 170830Z 1709/1718 12005KT CAVOK"
    },
    {
      "icao": "EPWA",
      "alert": "OK",
      "vis_m": 9999,
      "fzfg": false,
      "metar_trigger": false,
      "taf_trigger": false,
      "metar": "METAR EPWA 170830Z 14007KT 110V180 CAVOK 27/14 Q1016 NOSIG",
      "taf": "TAF EPWA 170830Z 1709/1809 14008KT CAVOK"
    },
    {
      "icao": "EPWR",
      "alert": "OK",
      "vis_m": 9999,
      "fzfg": false,
      "metar_trigger": false,
      "taf_trigger": false,
      "metar": "METAR EPWR 170830Z 14011KT CAVOK 28/19 Q1013",
      "taf": "TAF EPWR 170830Z 1709/1809 13005KT CAVOK"
    },
    {
      "icao": "ESGG",
      "alert": "OK",
      "vis_m": 9999,
      "fzfg": false,
      "metar_trigger": false,
      "taf_trigger": false,
      "metar": "METAR ESGG 170850Z VRB03KT CAVOK 23/13 Q1014",
      "taf": "TAF ESGG 170830Z 1709/1809 19005KT CAVOK"
    },
    {
      "icao": "ESKN",
      "alert": "OK",
      "vis_m": 9999,
      "fzfg": false,
      "metar_trigger": false,
      "taf_trigger": false,
      "metar": "METAR ESKN 170850Z 11007KT 080V140 CAVOK 25/17 Q1013",
      "taf": "TAF ESKN 170830Z 1709/1809 12005KT CAVOK"
    },
    {
      "icao": "ESMS",
      "alert": "OK",
      "vis_m": 9999,
      "fzfg": false,
      "metar_trigger": false,
      "taf_trigger": false,
      "metar": "METAR ESMS 170850Z 13007KT 100V160 CAVOK 25/16 Q1013",
      "taf": "TAF ESMS 170827Z 1709/1809 08006KT CAVOK"
    },
    {
      "icao": "ESSA",
      "alert": "OK",
      "vis_m": 9999,
      "fzfg": false,
      "metar_trigger": false,
      "taf_trigger": false,
      "metar": "METAR ESSA 170850Z 17006KT 140V200 CAVOK 25/09 Q1013 NOSIG",
      "taf": "TAF ESSA 170830Z 1709/1809 17010KT CAVOK"
    },
    {
      "icao": "EYKA",
      "alert": "OK",
      "vis_m": 9999,
      "fzfg": false,
      "metar_trigger": false,
      "taf_trigger": false,
      "metar": "METAR EYKA 170850Z 12005KT 090V150 CAVOK 26/17 Q1017",
      "taf": "TAF EYKA 170505Z 1706/1806 VRB03KT 9000 NSC"
    },
    {
      "icao": "EYPA",
      "alert": "OK",
      "vis_m": 9999,
      "fzfg": false,
      "metar_trigger": false,
      "taf_trigger": false,
      "metar": "METAR EYPA 170850Z VRB03KT CAVOK 26/17 Q1016",
      "taf": "TAF EYPA 170505Z 1706/1806 VRB03KT 9000 NSC"
    },
    {
      "icao": "EYVI",
      "alert": "OK",
      "vis_m": 9999,
      "fzfg": false,
      "metar_trigger": false,
      "taf_trigger": false,
      "metar": "METAR EYVI 170850Z 19007KT 110V220 9999 FEW038 25/16 Q1019 NOSIG",
      "taf": "TAF EYVI 170500Z 1706/1806 16008KT 9000 FEW040"
    },
    {
      "icao": "GCFV",
      "alert": "OK",
      "vis_m": 9999,
      "fzfg": false,
      "metar_trigger": false,
      "taf_trigger": false,
      "metar": "METAR GCFV 170830Z 02011KT CAVOK 25/19 Q1016",
      "taf": "TAF GCFV 170800Z 1709/1809 04015KT CAVOK TX29/1714Z TN22/1806Z"
    },
    {
      "icao": "GCLP",
      "alert": "OK",
      "vis_m": 9999,
      "fzfg": false,
      "metar_trigger": false,
      "taf_trigger": false,
      "metar": "METAR GCLP 170830Z 36019KT 9999 FEW020 26/18 Q1017 NOSIG",
      "taf": "TAF GCLP 170800Z 1709/1809 01022KT 9999 FEW020 TX29/1714Z TN22/1806Z"
    },
    {
      "icao": "GCTS",
      "alert": "OK",
      "vis_m": 9999,
      "fzfg": false,
      "metar_trigger": false,
      "taf_trigger": false,
      "metar": "METAR GCTS 170830Z 05019KT CAVOK 29/15 Q1017 NOSIG",
      "taf": "TAF GCTS 170800Z 1709/1809 08018KT 9999 FEW020 TX30/1714Z TN22/1806Z"
    },
    {
      "icao": "GMAD",
      "alert": "OK",
      "vis_m": 8000,
      "fzfg": false,
      "metar_trigger": false,
      "taf_trigger": false,
      "metar": "METAR GMAD 170830Z 27005KT 240V300 8000 NSC 24/20 Q1013 NOSIG",
      "taf": "TAF GMAD 170500Z 1706/1812 12005KT 8000 NSC"
    },
    {
      "icao": "GMMN",
      "alert": "OK",
      "vis_m": 9999,
      "fzfg": false,
      "metar_trigger": false,
      "taf_trigger": false,
      "metar": "METAR GMMN 170830Z 03006KT 350V070 9999 FEW016 25/21 Q1017 NOSIG",
      "taf": "TAF GMMN 170500Z 1706/1812 05005KT 9999 BKN008"
    },
    {
      "icao": "GMMX",
      "alert": "OK",
      "vis_m": 8000,
      "fzfg": false,
      "metar_trigger": false,
      "taf_trigger": false,
      "metar": "METAR GMMX 170830Z 28005KT 230V330 8000 NSC 26/18 Q1016 NOSIG",
      "taf": "TAF GMMX 170500Z 1706/1812 06006KT 8000 SCT030"
    },
    {
      "icao": "HEGN",
      "alert": "OK",
      "vis_m": 9999,
      "fzfg": false,
      "metar_trigger": false,
      "taf_trigger": false,
      "metar": "METAR HEGN 170800Z 36013KT CAVOK 35/14 Q1005 NOSIG",
      "taf": "TAF HEGN 170500Z 1706/1812 34018KT CAVOK"
    },
    {
      "icao": "HEMA",
      "alert": "OK",
      "vis_m": 9999,
      "fzfg": false,
      "metar_trigger": false,
      "taf_trigger": false,
      "metar": "METAR HEMA 170800Z 33015KT CAVOK 36/09 Q1006 NOSIG",
      "taf": "TAF HEMA 170500Z 1706/1812 36018KT CAVOK"
    },
    {
      "icao": "HESH",
      "alert": "OK",
      "vis_m": 9999,
      "fzfg": false,
      "metar_trigger": false,
      "taf_trigger": false,
      "metar": "METAR HESH 170800Z 34014KT CAVOK 33/20 Q1004 NOSIG",
      "taf": "TAF HESH 170500Z 1706/1812 02015KT CAVOK"
    },
    {
      "icao": "HESX",
      "alert": "OK",
      "vis_m": 6000,
      "fzfg": false,
      "metar_trigger": false,
      "taf_trigger": false,
      "metar": "METAR HESX 170800Z 33004KT 6000 NSC 27/17 Q1007 NOSIG",
      "taf": "TAF HESX 170500Z 1706/1812 28006KT 8000 NSC"
    },
    {
      "icao": "LATI",
      "alert": "OK",
      "vis_m": 9999,
      "fzfg": false,
      "metar_trigger": false,
      "taf_trigger": false,
      "metar": "METAR LATI 170850Z VRB03KT CAVOK 34/18 Q1014 NOSIG",
      "taf": "TAF LATI 170500Z 1706/1806 VRB03KT CAVOK TX37/1712Z TN21/1804Z"
    },
    {
      "icao": "LBPD",
      "alert": "OK",
      "vis_m": 9999,
      "fzfg": false,
      "metar_trigger": false,
      "taf_trigger": false,
      "metar": "METAR LBPD 170830Z AUTO 31009KT 9999 NCD 31/18 Q1015 NOSIG",
      "taf": "TAF LBPD 170500Z 1706/1806 31008KT 9999 SCT070"
    },
    {
      "icao": "LBSF",
      "alert": "OK",
      "vis_m": 9999,
      "fzfg": false,
      "metar_trigger": false,
      "taf_trigger": false,
      "metar": "METAR LBSF 170830Z 24005KT 150V290 CAVOK 28/15 Q1018 NOSIG",
      "taf": "TAF LBSF 170500Z 1706/1806 VRB03KT 9999 SCT060"
    },
    {
      "icao": "LBWN",
      "alert": "OK",
      "vis_m": 9999,
      "fzfg": false,
      "metar_trigger": false,
      "taf_trigger": false,
      "metar": "METAR LBWN 170830Z 36009KT 340V040 9999 FEW045 32/16 Q1013 NOSIG",
      "taf": "TAF LBWN 170500Z 1706/1806 VRB04KT 9999 SCT045"
    },
    {
      "icao": "LCLK",
      "alert": "OK",
      "vis_m": 9999,
      "fzfg": false,
      "metar_trigger": false,
      "taf_trigger": false,
      "metar": "METAR LCLK 170830Z 17011KT 9999 FEW030 32/27 Q1003 NOSIG",
      "taf": "TAF LCLK 170530Z 1706/1806 15007KT 9999 FEW015"
    },
    {
      "icao": "LCPH",
      "alert": "OK",
      "vis_m": 9999,
      "fzfg": false,
      "metar_trigger": false,
      "taf_trigger": false,
      "metar": "METAR LCPH 170830Z 27008KT 240V320 9999 FEW017 30/26 Q1004 NOSIG",
      "taf": "TAF LCPH 170530Z 1706/1806 01008KT 9999 FEW015"
    },
    {
      "icao": "LEAL",
      "alert": "OK",
      "vis_m": 9999,
      "fzfg": false,
      "metar_trigger": false,
      "taf_trigger": false,
      "metar": "METAR LEAL 170830Z 08005KT 030V120 CAVOK 31/24 Q1014 NOSIG",
      "taf": "TAF LEAL 170500Z 1706/1806 24006KT 9999 FEW020 TX40/1713Z TN25/1805Z"
    },
    {
      "icao": "LEBB",
      "alert": "OK",
      "vis_m": 9999,
      "fzfg": false,
      "metar_trigger": false,
      "taf_trigger": false,
      "metar": "METAR LEBB 170830Z 11003KT 070V140 9999 BKN050 23/19 Q1019 NOSIG",
      "taf": "TAF LEBB 170500Z 1706/1806 31009KT 9999 SCT030 TX26/1712Z TN19/1706Z"
    },
    {
      "icao": "LEBL",
      "alert": "OK",
      "vis_m": 8000,
      "fzfg": false,
      "metar_trigger": false,
      "taf_trigger": false,
      "metar": "METAR LEBL 170830Z 10007KT 8000 FEW030 29/25 Q1015 NOSIG",
      "taf": "TAF LEBL 170500Z 1706/1806 VRB03KT 9999 FEW020 TX30/1712Z TN25/1706Z"
    },
    {
      "icao": "LECH",
      "alert": "OK",
      "vis_m": 9999,
      "fzfg": false,
      "metar_trigger": false,
      "taf_trigger": false,
      "metar": "METAR LECH 170830Z AUTO 07004KT 360V160 CAVOK 29/21 Q1017",
      "taf": ""
    },
    {
      "icao": "LEMD",
      "alert": "OK",
      "vis_m": 9999,
      "fzfg": false,
      "metar_trigger": false,
      "taf_trigger": false,
      "metar": "METAR LEMD 170830Z 16002KT CAVOK 26/09 Q1019 NOSIG",
      "taf": "TAF LEMD 170500Z 1706/1812 VRB04KT CAVOK TX35/1716Z TN18/1805Z"
    },
    {
      "icao": "LEMG",
      "alert": "OK",
      "vis_m": 9999,
      "fzfg": false,
      "metar_trigger": false,
      "taf_trigger": false,
      "metar": "METAR LEMG 170830Z 29013KT CAVOK 31/13 Q1014 NOSIG",
      "taf": "TAF LEMG 170500Z 1706/1806 27013KT CAVOK TX39/1715Z TN25/1805Z"
    },
    {
      "icao": "LEVC",
      "alert": "OK",
      "vis_m": 9999,
      "fzfg": false,
      "metar_trigger": false,
      "taf_trigger": false,
      "metar": "METAR LEVC 170830Z 07004KT 350V130 CAVOK 31/21 Q1015 NOSIG",
      "taf": "TAF LEVC 170500Z 1706/1806 VRB04KT 9999 FEW020 TX34/1713Z TN24/1805Z"
    },
    {
      "icao": "LEXJ",
      "alert": "OK",
      "vis_m": 9999,
      "fzfg": false,
      "metar_trigger": false,
      "taf_trigger": false,
      "metar": "METAR LEXJ 170830Z 24005KT 210V270 9999 FEW028 BKN059 22/18 Q1019",
      "taf": "TAF LEXJ 170800Z 1709/1809 31008KT 9999 SCT025 BKN030 TX25/1713Z TN19/1805Z"
    },
    {
      "icao": "LEZG",
      "alert": "OK",
      "vis_m": 9999,
      "fzfg": false,
      "metar_trigger": false,
      "taf_trigger": false,
      "metar": "METAR LEZG 170830Z 29010KT 260V330 CAVOK 26/16 Q1017 NOSIG",
      "taf": "TAF LEZG 170500Z 1706/1806 30012KT 9999 FEW060 TX36/1714Z TN21/1805Z"
    },
    {
      "icao": "LEZL",
      "alert": "OK",
      "vis_m": 9999,
      "fzfg": false,
      "metar_trigger": false,
      "taf_trigger": false,
      "metar": "METAR LEZL 170830Z 05003KT 010V100 CAVOK 27/16 Q1016 NOSIG",
      "taf": "TAF LEZL 170800Z 1709/1809 VRB02KT CAVOK TX37/1715Z TN19/1805Z"
    },
    {
      "icao": "LFBD",
      "alert": "OK",
      "vis_m": 9999,
      "fzfg": false,
      "metar_trigger": false,
      "taf_trigger": false,
      "metar": "METAR LFBD 170830Z AUTO 28007KT 240V320 9999 SCT026 BKN110 26/18 Q1017 NOSIG",
      "taf": "TAF LFBD 170500Z 1706/1812 24005KT CAVOK TX30/1714Z TN19/1803Z"
    },
    {
      "icao": "LFLL",
      "alert": "OK",
      "vis_m": 9999,
      "fzfg": false,
      "metar_trigger": false,
      "taf_trigger": false,
      "metar": "METAR LFLL 170830Z VRB03KT CAVOK 24/18 Q1016 NOSIG",
      "taf": ""
    },
    {
      "icao": "LFLS",
      "alert": "OK",
      "vis_m": 9999,
      "fzfg": false,
      "metar_trigger": false,
      "taf_trigger": false,
      "metar": "METAR LFLS 170830Z AUTO VRB01KT CAVOK 23/17 Q1016 NOSIG",
      "taf": "TAF LFLS 170800Z 1709/1809 VRB03KT CAVOK"
    },
    {
      "icao": "LFMN",
      "alert": "OK",
      "vis_m": 9999,
      "fzfg": false,
      "metar_trigger": false,
      "taf_trigger": false,
      "metar": "METAR LFMN 170830Z 13003KT 100V170 9999 FEW018 30/23 Q1013 NOSIG",
      "taf": "TAF LFMN 170800Z 1709/1815 10005KT 9999 FEW018 SCT030"
    },
    {
      "icao": "LFOB",
      "alert": "OK",
      "vis_m": 9999,
      "fzfg": false,
      "metar_trigger": false,
      "taf_trigger": false,
      "metar": "METAR LFOB 170830Z AUTO 35005KT 320V020 9999 FEW013 BKN098 21/17 Q1015 NOSIG",
      "taf": "TAF LFOB 170500Z 1706/1806 01007KT CAVOK"
    },
    {
      "icao": "LFPO",
      "alert": "OK",
      "vis_m": 9999,
      "fzfg": false,
      "metar_trigger": false,
      "taf_trigger": false,
      "metar": "METAR LFPO 170830Z 36006KT 310V050 CAVOK 23/17 Q1015 NOSIG",
      "taf": "TAF LFPO 170500Z 1706/1812 VRB04KT CAVOK"
    },
    {
      "icao": "LFSB",
      "alert": "OK",
      "vis_m": 9999,
      "fzfg": false,
      "metar_trigger": false,
      "taf_trigger": false,
      "metar": "METAR LFSB 170830Z AUTO 22004KT 160V260 CAVOK 23/17 Q1016 TEMPO SHRA FEW050CB",
      "taf": ""
    },
    {
      "icao": "LGAV",
      "alert": "OK",
      "vis_m": 9999,
      "fzfg": false,
      "metar_trigger": false,
      "taf_trigger": false,
      "metar": "METAR LGAV 170850Z 04021KT 9999 SCT020 32/16 Q1012 NOSIG",
      "taf": "TAF LGAV 170500Z 1706/1806 05015G25KT 9999 FEW025"
    },
    {
      "icao": "LGTS",
      "alert": "OK",
      "vis_m": 9999,
      "fzfg": false,
      "metar_trigger": false,
      "taf_trigger": false,
      "metar": "METAR LGTS 170850Z 27008KT 9999 FEW025 32/21 Q1014 NOSIG",
      "taf": "TAF LGTS 170500Z 1706/1806 VRB03KT 9999 FEW030"
    },
    {
      "icao": "LHBP",
      "alert": "OK",
      "vis_m": 9999,
      "fzfg": false,
      "metar_trigger": false,
      "taf_trigger": false,
      "metar": "METAR LHBP 170830Z VRB04KT CAVOK 31/16 Q1015 NOSIG",
      "taf": "TAF LHBP 170515Z 1706/1806 11003KT CAVOK"
    },
    {
      "icao": "LHDC",
      "alert": "OK",
      "vis_m": 9999,
      "fzfg": false,
      "metar_trigger": false,
      "taf_trigger": false,
      "metar": "METAR LHDC 170815Z AUTO VRB02KT CAVOK 30/16 Q1015 NOSIG",
      "taf": "TAF LHDC 170815Z 1709/1718 VRB04KT CAVOK"
    },
    {
      "icao": "LIBD",
      "alert": "OK",
      "vis_m": 9999,
      "fzfg": false,
      "metar_trigger": false,
      "taf_trigger": false,
      "metar": "METAR LIBD 170850Z 06006KT 010V100 CAVOK 32/20 Q1014",
      "taf": "TAF LIBD 170500Z 1706/1806 24006KT CAVOK"
    },
    {
      "icao": "LIBG",
      "alert": "OK",
      "vis_m": 9999,
      "fzfg": false,
      "metar_trigger": false,
      "taf_trigger": false,
      "metar": "METAR LIBG 170850Z 28005KT CAVOK 34/15 Q1014",
      "taf": "TAF LIBG 170500Z 1706/1806 VRB05KT CAVOK"
    },
    {
      "icao": "LIBP",
      "alert": "OK",
      "vis_m": 9999,
      "fzfg": false,
      "metar_trigger": false,
      "taf_trigger": false,
      "metar": "METAR LIBP 170850Z AUTO 05005KT 010V080 9999 NCD 34/22 Q1013",
      "taf": "TAF LIBP 170500Z 1706/1806 24005KT CAVOK"
    },
    {
      "icao": "LIBR",
      "alert": "OK",
      "vis_m": 9999,
      "fzfg": false,
      "metar_trigger": false,
      "taf_trigger": false,
      "metar": "METAR LIBR 170850Z 02009KT CAVOK 28/25 Q1014",
      "taf": "TAF LIBR 170500Z 1706/1806 33013KT CAVOK"
    },
    {
      "icao": "LICA",
      "alert": "OK",
      "vis_m": 9999,
      "fzfg": false,
      "metar_trigger": false,
      "taf_trigger": false,
      "metar": "METAR LICA 170850Z AUTO 26006KT 220V290 9999 NCD 32/16 Q1015",
      "taf": "TAF LICA 170500Z 1706/1806 VRB05KT CAVOK"
    },
    {
      "icao": "LICC",
      "alert": "OK",
      "vis_m": 9999,
      "fzfg": false,
      "metar_trigger": false,
      "taf_trigger": false,
      "metar": "METAR LICC 170850Z 20004KT 140V250 CAVOK 36/22 Q1014",
      "taf": "TAF LICC 170500Z 1706/1806 VRB06KT CAVOK"
    },
    {
      "icao": "LICJ",
      "alert": "OK",
      "vis_m": 9999,
      "fzfg": false,
      "metar_trigger": false,
      "taf_trigger": false,
      "metar": "METAR LICJ 170850Z 36003KT 330V030 CAVOK 31/25 Q1014",
      "taf": "TAF LICJ 170500Z 1706/1806 VRB05KT CAVOK"
    },
    {
      "icao": "LIMC",
      "alert": "OK",
      "vis_m": 9999,
      "fzfg": false,
      "metar_trigger": false,
      "taf_trigger": false,
      "metar": "METAR LIMC 170850Z VRB03KT CAVOK 25/19 Q1015 NOSIG",
      "taf": "TAF LIMC 170500Z 1706/1812 01010KT 9999 FEW040"
    },
    {
      "icao": "LIME",
      "alert": "OK",
      "vis_m": 9999,
      "fzfg": false,
      "metar_trigger": false,
      "taf_trigger": false,
      "metar": "METAR LIME 170850Z 27005KT 180V330 CAVOK 25/18 Q1015 NOSIG",
      "taf": "TAF LIME 170500Z 1706/1806 VRB05KT 9999 SCT040"
    },
    {
      "icao": "LIMF",
      "alert": "OK",
      "vis_m": 9999,
      "fzfg": false,
      "metar_trigger": false,
      "taf_trigger": false,
      "metar": "METAR LIMF 170850Z 31003KT 230V020 9999 FEW040 26/18 Q1016",
      "taf": "TAF LIMF 170500Z 1706/1806 VRB05KT 9999 FEW040"
    },
    {
      "icao": "LIMJ",
      "alert": "OK",
      "vis_m": 9999,
      "fzfg": false,
      "metar_trigger": false,
      "taf_trigger": false,
      "metar": "METAR LIMJ 170850Z 22004KT CAVOK 29/23 Q1013",
      "taf": "TAF LIMJ 170500Z 1706/1806 VRB05KT 9999 SCT040"
    },
    {
      "icao": "LIPE",
      "alert": "OK",
      "vis_m": 8000,
      "fzfg": false,
      "metar_trigger": false,
      "taf_trigger": false,
      "metar": "METAR LIPE 170850Z VRB03KT 8000 SCT016 28/24 Q1013",
      "taf": "TAF LIPE 170500Z 1706/1806 VRB05KT CAVOK"
    },
    {
      "icao": "LIPH",
      "alert": "OK",
      "vis_m": 9999,
      "fzfg": false,
      "metar_trigger": false,
      "taf_trigger": false,
      "metar": "METAR LIPH 170850Z VRB03KT 9999 SCT070 22/20 Q1013",
      "taf": "TAF LIPH 170500Z 1706/1806 VRB05KT CAVOK"
    },
    {
      "icao": "LIPQ",
      "alert": "OK",
      "vis_m": 9999,
      "fzfg": false,
      "metar_trigger": false,
      "taf_trigger": false,
      "metar": "METAR LIPQ 170850Z AUTO 10013KT 9999 -RA OVC072/// 21/19 Q1013",
      "taf": "TAF LIPQ 170500Z 1706/1806 VRB05KT 9999 FEW050"
    },
    {
      "icao": "LIPR",
      "alert": "OK",
      "vis_m": 9999,
      "fzfg": false,
      "metar_trigger": false,
      "taf_trigger": false,
      "metar": "METAR LIPR 170850Z 32011KT 290V020 9999 SCT025 30/24 Q1014",
      "taf": "TAF LIPR 170500Z 1706/1806 VRB05KT CAVOK"
    },
    {
      "icao": "LIPX",
      "alert": "OK",
      "vis_m": 9999,
      "fzfg": false,
      "metar_trigger": false,
      "taf_trigger": false,
      "metar": "METAR LIPX 170850Z 22004KT 180V270 CAVOK 24/18 Q1014",
      "taf": "TAF LIPX 170500Z 1706/1806 VRB05KT 9999 SCT050"
    },
    {
      "icao": "LIPY",
      "alert": "OK",
      "vis_m": 9999,
      "fzfg": false,
      "metar_trigger": false,
      "taf_trigger": false,
      "metar": "METAR LIPY 170850Z AUTO 36006KT 330V050 9999 NCD 32/22 Q1013",
      "taf": "TAF LIPY 170500Z 1706/1806 VRB05KT CAVOK"
    },
    {
      "icao": "LIPZ",
      "alert": "OK",
      "vis_m": 9999,
      "fzfg": false,
      "metar_trigger": false,
      "taf_trigger": false,
      "metar": "METAR LIPZ 170850Z 29005KT 250V010 9999 FEW070 24/20 Q1013 NOSIG",
      "taf": "TAF LIPZ 170500Z 1706/1812 05006KT CAVOK"
    },
    {
      "icao": "LIRF",
      "alert": "OK",
      "vis_m": 9999,
      "fzfg": false,
      "metar_trigger": false,
      "taf_trigger": false,
      "metar": "METAR LIRF 170850Z 16009KT CAVOK 32/24 Q1014 NOSIG",
      "taf": "TAF LIRF 170500Z 1706/1812 VRB05KT CAVOK"
    },
    {
      "icao": "LIRN",
      "alert": "OK",
      "vis_m": 8000,
      "fzfg": false,
      "metar_trigger": false,
      "taf_trigger": false,
      "metar": "METAR LIRN 170850Z 19005KT 140V230 8000 NSC 31/24 Q1016 NOSIG",
      "taf": "TAF LIRN 170500Z 1706/1806 VRB05KT CAVOK"
    },
    {
      "icao": "LIRP",
      "alert": "OK",
      "vis_m": 9999,
      "fzfg": false,
      "metar_trigger": false,
      "taf_trigger": false,
      "metar": "METAR LIRP 170845Z 15007KT CAVOK 32/20 Q1013 NOSIG",
      "taf": "TAF LIRP 170500Z 1706/1806 15004KT CAVOK"
    },
    {
      "icao": "LIRZ",
      "alert": "OK",
      "vis_m": 9999,
      "fzfg": false,
      "metar_trigger": false,
      "taf_trigger": false,
      "metar": "METAR LIRZ 170850Z AUTO 25005KT 210V290 9999 NCD 33/21 Q1015",
      "taf": "TAF LIRZ 170500Z 1706/1806 VRB04KT CAVOK"
    },
    {
      "icao": "LJLJ",
      "alert": "OK",
      "vis_m": 9999,
      "fzfg": false,
      "metar_trigger": false,
      "taf_trigger": false,
      "metar": "METAR LJLJ 170830Z 24008KT 220V280 9999 -SHRA FEW040 SCT060TCU BKN100 23/19 Q1018 TEMPO 28015G25KT 4000 TSRA SCT050CB",
      "taf": "TAF LJLJ 170500Z 1706/1806 VRB02KT 9999 FEW050"
    },
    {
      "icao": "LKMT",
      "alert": "OK",
      "vis_m": 9999,
      "fzfg": false,
      "metar_trigger": false,
      "taf_trigger": false,
      "metar": "METAR LKMT 170830Z 12003KT 040V170 CAVOK 28/17 Q1015 NOSIG",
      "taf": "TAF LKMT 170500Z 1706/1806 VRB02KT CAVOK"
    },
    {
      "icao": "LKPR",
      "alert": "OK",
      "vis_m": 9999,
      "fzfg": false,
      "metar_trigger": false,
      "taf_trigger": false,
      "metar": "METAR LKPR 170830Z 25011KT CAVOK 26/15 Q1014 NOSIG",
      "taf": "TAF LKPR 170800Z 1709/1815 23009KT CAVOK"
    },
    {
      "icao": "LLBG",
      "alert": "OK",
      "vis_m": 9999,
      "fzfg": false,
      "metar_trigger": false,
      "taf_trigger": false,
      "metar": "METAR LLBG 170850Z 26010KT 230V300 CAVOK 31/21 Q1005 NOSIG",
      "taf": "TAF LLBG 170502Z 1706/1806 15004KT 9999 FEW018 TX33/1711Z TN25/1803Z"
    },
    {
      "icao": "LMML",
      "alert": "OK",
      "vis_m": 9999,
      "fzfg": false,
      "metar_trigger": false,
      "taf_trigger": false,
      "metar": "METAR LMML 170845Z 03007KT CAVOK 34/17 Q1016 NOSIG",
      "taf": "TAF LMML 170500Z 1706/1806 VRB08KT CAVOK"
    },
    {
      "icao": "LOWW",
      "alert": "OK",
      "vis_m": 9999,
      "fzfg": false,
      "metar_trigger": false,
      "taf_trigger": false,
      "metar": "METAR LOWW 170850Z 12005KT 050V170 CAVOK 28/18 Q1014 NOSIG",
      "taf": "TAF LOWW 170815Z 1709/1815 14007KT CAVOK TX32/1713Z TN20/1802Z"
    },
    {
      "icao": "LPFR",
      "alert": "OK",
      "vis_m": 9999,
      "fzfg": false,
      "metar_trigger": false,
      "taf_trigger": false,
      "metar": "METAR LPFR 170830Z VRB03KT CAVOK 24/15 Q1017",
      "taf": "TAF LPFR 170500Z 1706/1806 34007KT CAVOK"
    },
    {
      "icao": "LPMA",
      "alert": "OK",
      "vis_m": 9999,
      "fzfg": false,
      "metar_trigger": false,
      "taf_trigger": false,
      "metar": "METAR LPMA 170830Z 03010KT 9999 SCT016 23/18 Q1021",
      "taf": "TAF LPMA 170500Z 1706/1806 03010KT 9999 SCT015"
    },
    {
      "icao": "LPPR",
      "alert": "OK",
      "vis_m": 9999,
      "fzfg": false,
      "metar_trigger": false,
      "taf_trigger": false,
      "metar": "METAR LPPR 170830Z 02005KT 340V060 9999 FEW010 SCT013 22/18 Q1019",
      "taf": "TAF LPPR 170500Z 1706/1806 VRB02KT 9999 SCT008"
    },
    {
      "icao": "LPPS",
      "alert": "OK",
      "vis_m": 9999,
      "fzfg": false,
      "metar_trigger": false,
      "taf_trigger": false,
      "metar": "METAR LPPS 170830Z 02009KT 9999 FEW015 22/18 Q1021",
      "taf": "TAF LPPS 170500Z 1706/1812 02010KT 9999 SCT015"
    },
    {
      "icao": "LPPT",
      "alert": "OK",
      "vis_m": 9999,
      "fzfg": false,
      "metar_trigger": false,
      "taf_trigger": false,
      "metar": "METAR LPPT 170830Z 32006KT 280V340 9999 FEW014 SCT018 21/17 Q1019 NOSIG",
      "taf": "TAF LPPT 170500Z 1706/1812 VRB02KT CAVOK"
    },
    {
      "icao": "LQBK",
      "alert": "OK",
      "vis_m": 9999,
      "fzfg": false,
      "metar_trigger": false,
      "taf_trigger": false,
      "metar": "METAR LQBK 170830Z VRB04KT CAVOK 29/20 Q1015 NOSIG",
      "taf": "TAF LQBK 170500Z 1706/1806 33005KT CAVOK TX34/1714Z TN19/1803Z"
    },
    {
      "icao": "LQSA",
      "alert": "OK",
      "vis_m": 9999,
      "fzfg": false,
      "metar_trigger": false,
      "taf_trigger": false,
      "metar": "METAR LQSA 170830Z VRB02KT CAVOK 26/17 Q1017 NOSIG",
      "taf": "TAF LQSA 170500Z 1706/1806 VRB02KT CAVOK TX34/1714Z TN17/1803Z"
    },
    {
      "icao": "LQTZ",
      "alert": "OK",
      "vis_m": 9999,
      "fzfg": false,
      "metar_trigger": false,
      "taf_trigger": false,
      "metar": "METAR LQTZ 170830Z 12006KT 080V170 CAVOK 28/21 Q1016",
      "taf": "TAF LQTZ 170500Z 1706/1806 VRB02KT CAVOK TX34/1714Z TN17/1803Z"
    },
    {
      "icao": "LRBC",
      "alert": "OK",
      "vis_m": 9999,
      "fzfg": false,
      "metar_trigger": false,
      "taf_trigger": false,
      "metar": "METAR LRBC 170830Z 34004KT 290V050 CAVOK 29/17 Q1016",
      "taf": "TAF LRBC 170800Z 1709/1718 VRB04KT CAVOK"
    },
    {
      "icao": "LRBS",
      "alert": "OK",
      "vis_m": 9999,
      "fzfg": false,
      "metar_trigger": false,
      "taf_trigger": false,
      "metar": "METAR LRBS 170830Z VRB02KT CAVOK 30/15 Q1015 NOSIG",
      "taf": "TAF LRBS 170500Z 1706/1806 VRB04KT CAVOK"
    },
    {
      "icao": "LRBV",
      "alert": "OK",
      "vis_m": 9999,
      "fzfg": false,
      "metar_trigger": false,
      "taf_trigger": false,
      "metar": "METAR LRBV 170830Z 05004KT 320V110 CAVOK 25/17 Q1018",
      "taf": "TAF LRBV 170800Z 1709/1718 VRB04KT CAVOK"
    },
    {
      "icao": "LRCL",
      "alert": "OK",
      "vis_m": 9999,
      "fzfg": false,
      "metar_trigger": false,
      "taf_trigger": false,
      "metar": "METAR LRCL 170830Z 11005KT 050V160 CAVOK 28/17 Q1016",
      "taf": "TAF LRCL 170800Z 1709/1718 VRB04KT CAVOK"
    },
    {
      "icao": "LRCV",
      "alert": "OK",
      "vis_m": 9999,
      "fzfg": false,
      "metar_trigger": false,
      "taf_trigger": false,
      "metar": "METAR LRCV 170830Z VRB02KT CAVOK 31/18 Q1016",
      "taf": "TAF LRCV 170800Z 1709/1718 VRB04KT CAVOK"
    },
    {
      "icao": "LRIA",
      "alert": "OK",
      "vis_m": 9999,
      "fzfg": false,
      "metar_trigger": false,
      "taf_trigger": false,
      "metar": "METAR LRIA 170830Z VRB02KT CAVOK 28/16 Q1016",
      "taf": "TAF LRIA 170800Z 1709/1718 VRB04KT CAVOK"
    },
    {
      "icao": "LROP",
      "alert": "OK",
      "vis_m": 9999,
      "fzfg": false,
      "metar_trigger": false,
      "taf_trigger": false,
      "metar": "METAR LROP 170830Z 06006KT 300V090 CAVOK 30/14 Q1016 NOSIG",
      "taf": "TAF LROP 170500Z 1706/1806 VRB04KT CAVOK"
    },
    {
      "icao": "LRSB",
      "alert": "OK",
      "vis_m": 9999,
      "fzfg": false,
      "metar_trigger": false,
      "taf_trigger": false,
      "metar": "METAR LRSB 170830Z 34005KT 300V020 CAVOK 27/17 Q1017",
      "taf": "TAF LRSB 170500Z 1706/1806 VRB04KT CAVOK"
    },
    {
      "icao": "LRSM",
      "alert": "OK",
      "vis_m": 9999,
      "fzfg": false,
      "metar_trigger": false,
      "taf_trigger": false,
      "metar": "METAR LRSM 170830Z VRB02KT CAVOK 30/17 Q1015",
      "taf": "TAF LRSM 170800Z 1709/1718 VRB04KT CAVOK"
    },
    {
      "icao": "LRSV",
      "alert": "OK",
      "vis_m": 9999,
      "fzfg": false,
      "metar_trigger": false,
      "taf_trigger": false,
      "metar": "METAR LRSV 170830Z 35005KT 310V050 CAVOK 26/16 Q1018",
      "taf": "TAF LRSV 170800Z 1709/1718 02008KT CAVOK"
    },
    {
      "icao": "LRTM",
      "alert": "OK",
      "vis_m": 9999,
      "fzfg": false,
      "metar_trigger": false,
      "taf_trigger": false,
      "metar": "METAR LRTM 170830Z 05003KT 360V150 CAVOK 27/20 Q1017",
      "taf": "TAF LRTM 170800Z 1709/1718 VRB04KT CAVOK"
    },
    {
      "icao": "LRTR",
      "alert": "OK",
      "vis_m": 9999,
      "fzfg": false,
      "metar_trigger": false,
      "taf_trigger": false,
      "metar": "METAR LRTR 170830Z VRB03KT 9999 FEW043 30/15 Q1015",
      "taf": "TAF LRTR 170500Z 1706/1806 VRB04KT CAVOK"
    },
    {
      "icao": "LTAC",
      "alert": "OK",
      "vis_m": 9999,
      "fzfg": false,
      "metar_trigger": false,
      "taf_trigger": false,
      "metar": "METAR LTAC 170850Z 05009KT 010V100 9999 SCT040 25/07 Q1015 NOSIG",
      "taf": "TAF LTAC 170440Z 1706/1806 03011KT CAVOK"
    },
    {
      "icao": "LTFM",
      "alert": "OK",
      "vis_m": 9999,
      "fzfg": false,
      "metar_trigger": false,
      "taf_trigger": false,
      "metar": "METAR LTFM 170850Z 04012KT 010V070 9999 FEW017 28/18 Q1014 NOSIG",
      "taf": "TAF LTFM 170440Z 1706/1812 VRB02KT 9999 SCT012"
    },
    {
      "icao": "LUKK",
      "alert": "OK",
      "vis_m": 9999,
      "fzfg": false,
      "metar_trigger": false,
      "taf_trigger": false,
      "metar": "METAR LUKK 170830Z VRB04KT CAVOK 28/14 Q1015 NOSIG",
      "taf": "TAF LUKK 170501Z 1706/1806 36009KT CAVOK"
    },
    {
      "icao": "LWOH",
      "alert": "OK",
      "vis_m": 9999,
      "fzfg": false,
      "metar_trigger": false,
      "taf_trigger": false,
      "metar": "METAR LWOH 170850Z 16006KT 130V190 9999 FEW040 23/18 Q1019",
      "taf": "TAF LWOH 170810Z 1709/1809 17008KT CAVOK"
    },
    {
      "icao": "LWSK",
      "alert": "OK",
      "vis_m": 9999,
      "fzfg": false,
      "metar_trigger": false,
      "taf_trigger": false,
      "metar": "METAR LWSK 170850Z VRB05KT CAVOK 30/18 Q1016 NOSIG",
      "taf": "TAF LWSK 170810Z 1709/1809 VRB02KT CAVOK"
    },
    {
      "icao": "LYBE",
      "alert": "OK",
      "vis_m": 9999,
      "fzfg": false,
      "metar_trigger": false,
      "taf_trigger": false,
      "metar": "METAR LYBE 170830Z VRB03KT CAVOK 30/17 Q1016 NOSIG",
      "taf": "TAF LYBE 170500Z 1706/1806 22005KT CAVOK TX35/1714Z TN23/1803Z"
    },
    {
      "icao": "LYNI",
      "alert": "OK",
      "vis_m": 9999,
      "fzfg": false,
      "metar_trigger": false,
      "taf_trigger": false,
      "metar": "METAR LYNI 170830Z VRB02KT CAVOK 29/17 Q1016 NOSIG",
      "taf": "TAF LYNI 170500Z 1706/1806 33006KT CAVOK TX35/1714Z TN19/1803Z"
    },
    {
      "icao": "LYPG",
      "alert": "OK",
      "vis_m": 9999,
      "fzfg": false,
      "metar_trigger": false,
      "taf_trigger": false,
      "metar": "METAR LYPG 170830Z VRB03KT CAVOK 32/16 Q1014 NOSIG",
      "taf": "TAF LYPG 170500Z 1706/1806 18008KT CAVOK TX37/1713Z TN23/1802Z"
    },
    {
      "icao": "LZIB",
      "alert": "OK",
      "vis_m": 9999,
      "fzfg": false,
      "metar_trigger": false,
      "taf_trigger": false,
      "metar": "METAR LZIB 170830Z 05006KT 020V080 CAVOK 27/19 Q1014 NOSIG",
      "taf": "TAF LZIB 170515Z 1706/1806 03005KT CAVOK"
    },
    {
      "icao": "LZKZ",
      "alert": "OK",
      "vis_m": 9999,
      "fzfg": false,
      "metar_trigger": false,
      "taf_trigger": false,
      "metar": "METAR LZKZ 170830Z 10004KT 020V150 CAVOK 29/16 Q1016 NOSIG",
      "taf": "TAF LZKZ 170515Z 1706/1806 VRB03KT CAVOK"
    },
    {
      "icao": "LZTT",
      "alert": "OK",
      "vis_m": 9999,
      "fzfg": false,
      "metar_trigger": false,
      "taf_trigger": false,
      "metar": "METAR LZTT 170830Z 10003KT 360V170 9999 FEW033TCU 26/17 Q1018 NOSIG",
      "taf": ""
    },
    {
      "icao": "OEJN",
      "alert": "OK",
      "vis_m": 9999,
      "fzfg": false,
      "metar_trigger": false,
      "taf_trigger": false,
      "metar": "METAR OEJN 170800Z 27008KT 9999 FEW040 35/23 Q1004 NOSIG",
      "taf": "TAF OEJN 170500Z 1706/1812 32015KT 9999 SCT040"
    },
    {
      "icao": "OEMA",
      "alert": "OK",
      "vis_m": 9999,
      "fzfg": false,
      "metar_trigger": false,
      "taf_trigger": false,
      "metar": "METAR OEMA 170800Z 32005KT 9999 FEW045 42/01 Q1008 NOSIG",
      "taf": "TAF OEMA 170500Z 1706/1812 28012KT 9999 FEW045"
    },
    {
      "icao": "OJAI",
      "alert": "OK",
      "vis_m": 5000,
      "fzfg": false,
      "metar_trigger": false,
      "taf_trigger": false,
      "metar": "METAR OJAI 170800Z 29011KT 5000 HZ NSC 29/09 Q1010 NOSIG",
      "taf": "TAF OJAI 170500Z 1706/1812 29012KT 5000 HZ NSC"
    },
    {
      "icao": "OMAA",
      "alert": "OK",
      "vis_m": 9999,
      "fzfg": false,
      "metar_trigger": false,
      "taf_trigger": false,
      "metar": "METAR OMAA 170830Z VRB01KT CAVOK 42/18 Q0998 BECMG 34012KT",
      "taf": "TAF OMAA 170500Z 1706/1812 15009KT 7000 NSC"
    },
    {
      "icao": "OMDB",
      "alert": "OK",
      "vis_m": 9999,
      "fzfg": false,
      "metar_trigger": false,
      "taf_trigger": false,
      "metar": "METAR OMDB 170830Z 07007KT 360V170 CAVOK 41/20 Q0998 NOSIG",
      "taf": "TAF OMDB 170500Z 1706/1812 10012KT CAVOK"
    },
    {
      "icao": "UAAA",
      "alert": "OK",
      "vis_m": 9999,
      "fzfg": false,
      "metar_trigger": false,
      "taf_trigger": false,
      "metar": "METAR UAAA 170830Z 05005MPS 020V080 9999 FEW050 39/11 Q1006 NOSIG",
      "taf": "TAF UAAA 170501Z 1706/1806 01003MPS 9999 FEW100 TX41/1710Z TN22/1800Z"
    },
    {
      "icao": "UBBB",
      "alert": "OK",
      "vis_m": 9999,
      "fzfg": false,
      "metar_trigger": false,
      "taf_trigger": false,
      "metar": "METAR UBBB 170830Z 35014KT CAVOK 31/18 Q1008 NOSIG",
      "taf": "TAF UBBB 170502Z 1706/1806 34014KT CAVOK TX31/1710Z TN23/1801Z"
    },
    {
      "icao": "UDSG",
      "alert": "OK",
      "vis_m": 9999,
      "fzfg": false,
      "metar_trigger": false,
      "taf_trigger": false,
      "metar": "METAR UDSG 170830Z 06003KT 360V170 9999 FEW049TCU 25/14 Q1015 NOSIG",
      "taf": "TAF UDSG 170458Z 1706/1806 VRB06KT 9999 FEW050"
    },
    {
      "icao": "UDYZ",
      "alert": "OK",
      "vis_m": 9999,
      "fzfg": false,
      "metar_trigger": false,
      "taf_trigger": false,
      "metar": "METAR UDYZ 170830Z 15004KT 110V230 9999 NSC 29/14 Q1009 NOSIG",
      "taf": "TAF UDYZ 170500Z 1706/1806 20006KT 9999 FEW040"
    },
    {
      "icao": "UGKO",
      "alert": "OK",
      "vis_m": 9999,
      "fzfg": false,
      "metar_trigger": false,
      "taf_trigger": false,
      "metar": "METAR UGKO 170830Z 25005KT 190V300 9999 SCT032 27/18 Q1010 NOSIG",
      "taf": "TAF UGKO 170500Z 1706/1806 25006KT CAVOK TX29/1712Z TN19/1802Z"
    }
  ]
}