{
  "ts_utc": "2026-05-17T10:41:32Z",
  "threshold_m": 150,
  "source": "stations_override.txt (ICAO list) + aviationweather.gov (METAR/TAF raw)",
  "station_count": 159,
  "stations": [
    {
      "icao": "BIKF",
      "alert": "OK",
      "vis_m": 9999,
      "fzfg": false,
      "metar_trigger": false,
      "taf_trigger": false,
      "metar": "METAR BIKF 171030Z 13015KT 9999 BKN029 BKN061 08/02 Q1007",
      "taf": "TAF BIKF 171026Z 1712/1812 13013KT 9999 SCT050 TX09/1714Z TN03/1804Z"
    },
    {
      "icao": "BKPR",
      "alert": "OK",
      "vis_m": 9999,
      "fzfg": false,
      "metar_trigger": false,
      "taf_trigger": false,
      "metar": "METAR BKPR 171030Z 29010KT 9999 -RA SCT030 BKN045 14/08 Q1008 NOSIG",
      "taf": "TAF BKPR 170530Z 1706/1806 32008KT 9999 SCT030 BKN050"
    },
    {
      "icao": "EBCI",
      "alert": "OK",
      "vis_m": 9999,
      "fzfg": false,
      "metar_trigger": false,
      "taf_trigger": false,
      "metar": "METAR EBCI 171020Z 21011KT 9999 SCT009 BKN012 BKN015 11/09 Q1013 BECMG BKN015",
      "taf": ""
    },
    {
      "icao": "EDDB",
      "alert": "OK",
      "vis_m": 9999,
      "fzfg": false,
      "metar_trigger": false,
      "taf_trigger": false,
      "metar": "METAR EDDB 171020Z AUTO 15008KT 120V210 CAVOK 17/04 Q1015 NOSIG",
      "taf": "TAF EDDB 170500Z 1706/1806 20004KT CAVOK"
    },
    {
      "icao": "EDDH",
      "alert": "OK",
      "vis_m": 9999,
      "fzfg": false,
      "metar_trigger": false,
      "taf_trigger": false,
      "metar": "METAR EDDH 171020Z AUTO 20009KT 170V230 CAVOK 14/05 Q1013 NOSIG",
      "taf": "TAF EDDH 170500Z 1706/1812 16004KT 9999 SCT045"
    },
    {
      "icao": "EDDK",
      "alert": "OK",
      "vis_m": 9999,
      "fzfg": false,
      "metar_trigger": false,
      "taf_trigger": false,
      "metar": "METAR EDDK 171020Z AUTO 16011KT 9999 -RA NSC 12/09 Q1014 TEMPO RA",
      "taf": "TAF EDDK 170500Z 1706/1812 16009KT 9999 BKN035"
    },
    {
      "icao": "EDDN",
      "alert": "OK",
      "vis_m": 9999,
      "fzfg": false,
      "metar_trigger": false,
      "taf_trigger": false,
      "metar": "METAR EDDN 171020Z AUTO 28004KT 240V010 9999 FEW047 14/04 Q1016 NOSIG",
      "taf": "TAF EDDN 170500Z 1706/1806 11007KT CAVOK"
    },
    {
      "icao": "EDDS",
      "alert": "OK",
      "vis_m": 9999,
      "fzfg": false,
      "metar_trigger": false,
      "taf_trigger": false,
      "metar": "METAR EDDS 171020Z AUTO VRB04KT 9999 SCT049 15/03 Q1015 NOSIG",
      "taf": "TAF EDDS 170500Z 1706/1806 VRB02KT CAVOK"
    },
    {
      "icao": "EDFH",
      "alert": "OK",
      "vis_m": 9999,
      "fzfg": false,
      "metar_trigger": false,
      "taf_trigger": false,
      "metar": "METAR EDFH 171020Z 20006KT 140V250 9999 FEW025 SCT048 12/06 Q1014",
      "taf": "TAF EDFH 170500Z 1706/1806 19008KT 9999 SCT045"
    },
    {
      "icao": "EDJA",
      "alert": "OK",
      "vis_m": 9999,
      "fzfg": false,
      "metar_trigger": false,
      "taf_trigger": false,
      "metar": "METAR EDJA 171020Z VRB03KT 9999 FEW040 BKN045 12/01 Q1016",
      "taf": "TAF EDJA 170800Z 1709/1718 24006KT 9999 FEW030"
    },
    {
      "icao": "EDLW",
      "alert": "OK",
      "vis_m": 9999,
      "fzfg": false,
      "metar_trigger": false,
      "taf_trigger": false,
      "metar": "METAR EDLW 171020Z 20012KT 9999 FEW032 BKN038 OVC049 13/07 Q1013",
      "taf": "TAF EDLW 170500Z 1706/1806 19010KT 9999 BKN040"
    },
    {
      "icao": "EDNY",
      "alert": "OK",
      "vis_m": 9999,
      "fzfg": false,
      "metar_trigger": false,
      "taf_trigger": false,
      "metar": "METAR EDNY 171020Z 21005KT CAVOK 14/02 Q1016",
      "taf": "TAF EDNY 170800Z 1709/1718 15003KT 9999 FEW035"
    },
    {
      "icao": "EDSB",
      "alert": "OK",
      "vis_m": 9999,
      "fzfg": false,
      "metar_trigger": false,
      "taf_trigger": false,
      "metar": "METAR EDSB 171020Z 22005KT 140V290 CAVOK 16/04 Q1015",
      "taf": "TAF EDSB 170500Z 1706/1806 VRB03KT CAVOK"
    },
    {
      "icao": "EETN",
      "alert": "OK",
      "vis_m": 9999,
      "fzfg": false,
      "metar_trigger": false,
      "taf_trigger": false,
      "metar": "METAR EETN 171020Z 32009KT CAVOK 09/07 Q1015 NOSIG",
      "taf": ""
    },
    {
      "icao": "EFTU",
      "alert": "OK",
      "vis_m": 9999,
      "fzfg": false,
      "metar_trigger": false,
      "taf_trigger": false,
      "metar": "METAR EFTU 171020Z AUTO 17009KT 150V210 9999 OVC009 08/06 Q1014",
      "taf": ""
    },
    {
      "icao": "EGBB",
      "alert": "OK",
      "vis_m": 9999,
      "fzfg": false,
      "metar_trigger": false,
      "taf_trigger": false,
      "metar": "METAR EGBB 171020Z 28008KT 240V320 9999 SCT038CB 13/04 Q1009",
      "taf": "TAF EGBB 170456Z 1706/1806 20007KT 9999 SCT040"
    },
    {
      "icao": "EGGP",
      "alert": "OK",
      "vis_m": 9999,
      "fzfg": false,
      "metar_trigger": false,
      "taf_trigger": false,
      "metar": "METAR EGGP 171020Z 28011KT 250V310 9999 FEW024 BKN041 12/05 Q1008",
      "taf": ""
    },
    {
      "icao": "EGGW",
      "alert": "OK",
      "vis_m": 9999,
      "fzfg": false,
      "metar_trigger": false,
      "taf_trigger": false,
      "metar": "METAR EGGW 171020Z AUTO 25008KT 200V290 9999 FEW035 SCT044 13/05 Q1009",
      "taf": "TAF EGGW 170500Z 1706/1806 27010KT 9999 SCT030"
    },
    {
      "icao": "EGKK",
      "alert": "OK",
      "vis_m": 9999,
      "fzfg": false,
      "metar_trigger": false,
      "taf_trigger": false,
      "metar": "METAR EGKK 171020Z 25008KT 220V280 9999 FEW028 14/08 Q1010",
      "taf": "TAF EGKK 170456Z 1706/1812 24007KT 9999 FEW020"
    },
    {
      "icao": "EGNM",
      "alert": "OK",
      "vis_m": 9999,
      "fzfg": false,
      "metar_trigger": false,
      "taf_trigger": false,
      "metar": "METAR EGNM 171020Z 25012KT 220V280 9999 VCSH SCT020TCU 10/04 Q1007",
      "taf": ""
    },
    {
      "icao": "EGPD",
      "alert": "OK",
      "vis_m": 9999,
      "fzfg": false,
      "metar_trigger": false,
      "taf_trigger": false,
      "metar": "METAR EGPD 171020Z VRB03KT 9999 SCT023 13/05 Q1001",
      "taf": "TAF EGPD 170456Z 1706/1806 21005KT 9999 FEW009 SCT030"
    },
    {
      "icao": "EGPF",
      "alert": "OK",
      "vis_m": 9999,
      "fzfg": false,
      "metar_trigger": false,
      "taf_trigger": false,
      "metar": "METAR EGPF 171020Z 28011KT 9999 4000NE -RA BKN022 OVC043 07/05 Q1004",
      "taf": "TAF EGPF 170451Z 1706/1806 24007KT 9999 SCT030"
    },
    {
      "icao": "EHBK",
      "alert": "OK",
      "vis_m": 9999,
      "fzfg": false,
      "metar_trigger": false,
      "taf_trigger": false,
      "metar": "METAR EHBK 171025Z AUTO 21013KT 180V250 9999 FEW016 BKN019 BKN023 12/09 Q1013 NOSIG",
      "taf": "TAF EHBK 170512Z 1706/1812 19010KT 9999 BKN045"
    },
    {
      "icao": "EHEH",
      "alert": "OK",
      "vis_m": 9999,
      "fzfg": false,
      "metar_trigger": false,
      "taf_trigger": false,
      "metar": "METAR EHEH 171025Z AUTO 20010KT 150V240 9999 -DZ SCT014 FEW015CB OVC017 13/09 Q1012 WHT BECMG SCT016 BKN020",
      "taf": "TAF EHEH 170511Z 1706/1812 19008KT 9999 SCT020 FEW040 BKN050"
    },
    {
      "icao": "EKBI",
      "alert": "OK",
      "vis_m": 9999,
      "fzfg": false,
      "metar_trigger": false,
      "taf_trigger": false,
      "metar": "METAR EKBI 171020Z AUTO 17009KT 120V210 9999 BKN066/// 12/04 Q1012",
      "taf": "TAF EKBI 170827Z 1709/1809 23005KT 9999 BKN030"
    },
    {
      "icao": "EKCH",
      "alert": "OK",
      "vis_m": 9999,
      "fzfg": false,
      "metar_trigger": false,
      "taf_trigger": false,
      "metar": "METAR EKCH 171020Z 16013KT 9999 FEW030TCU BKN070 12/07 Q1015 NOSIG",
      "taf": "TAF EKCH 170827Z 1709/1809 16013KT 9999 SCT030"
    },
    {
      "icao": "ENAL",
      "alert": "OK",
      "vis_m": 9999,
      "fzfg": false,
      "metar_trigger": false,
      "taf_trigger": false,
      "metar": "METAR ENAL 171020Z 25015KT CAVOK 13/03 Q1004",
      "taf": "TAF ENAL 170800Z 1709/1718 25012KT CAVOK"
    },
    {
      "icao": "ENBR",
      "alert": "OK",
      "vis_m": 9999,
      "fzfg": false,
      "metar_trigger": false,
      "taf_trigger": false,
      "metar": "METAR ENBR 171020Z 18010KT 9999 -SHRA SCT020CB BKN040 09/06 Q1006 TEMPO SHRA BKN012 SCT025CB RMK WIND 1200FT 17013KT",
      "taf": "TAF ENBR 170500Z 1706/1806 16010KT 9999 FEW012 BKN030"
    },
    {
      "icao": "ENGM",
      "alert": "OK",
      "vis_m": 9999,
      "fzfg": false,
      "metar_trigger": false,
      "taf_trigger": false,
      "metar": "METAR ENGM 170950Z 19006KT 150V220 9999 SCT024 BKN035 11/05 Q1006 TEMPO BKN020 SCT025TCU",
      "taf": ""
    },
    {
      "icao": "ENHD",
      "alert": "OK",
      "vis_m": 9999,
      "fzfg": false,
      "metar_trigger": false,
      "taf_trigger": false,
      "metar": "METAR ENHD 171020Z 20011KT 9999 SCT047 11/06 Q1007",
      "taf": "TAF ENHD 170800Z 1709/1718 18009KT 9999 FEW015 SCT025"
    },
    {
      "icao": "ENTC",
      "alert": "OK",
      "vis_m": 9999,
      "fzfg": false,
      "metar_trigger": false,
      "taf_trigger": false,
      "metar": "METAR ENTC 171020Z 02014KT 9999 BKN022 07/01 Q1009 NOSIG RMK WIND 2600FT 09007KT",
      "taf": "TAF ENTC 170500Z 1706/1806 03009KT 9999 BKN016"
    },
    {
      "icao": "ENTO",
      "alert": "OK",
      "vis_m": 9999,
      "fzfg": false,
      "metar_trigger": false,
      "taf_trigger": false,
      "metar": "METAR ENTO 171020Z 21012KT 9999 SCT019TCU 11/06 Q1008 NOSIG",
      "taf": "TAF ENTO 170500Z 1706/1806 21008KT 9999 FEW030"
    },
    {
      "icao": "ENVA",
      "alert": "OK",
      "vis_m": 9999,
      "fzfg": false,
      "metar_trigger": false,
      "taf_trigger": false,
      "metar": "METAR ENVA 171020Z 26005KT CAVOK 11/04 Q1004 NOSIG RMK WIND 670FT 25004KT",
      "taf": "TAF ENVA 170500Z 1706/1806 10005KT CAVOK"
    },
    {
      "icao": "ENZV",
      "alert": "OK",
      "vis_m": 9999,
      "fzfg": false,
      "metar_trigger": false,
      "taf_trigger": false,
      "metar": "METAR ENZV 171020Z 19010KT 160V220 9999 FEW025 SCT045 11/03 Q1007 NOSIG",
      "taf": "TAF ENZV 170500Z 1706/1806 18008KT 9999 FEW010 BKN030"
    },
    {
      "icao": "EPGD",
      "alert": "OK",
      "vis_m": 9999,
      "fzfg": false,
      "metar_trigger": false,
      "taf_trigger": false,
      "metar": "METAR EPGD 171030Z 10008KT 070V130 9999 SCT048 14/05 Q1016",
      "taf": "TAF EPGD 170530Z 1706/1806 VRB04KT 9999 SCT040"
    },
    {
      "icao": "EPKK",
      "alert": "OK",
      "vis_m": 9999,
      "fzfg": false,
      "metar_trigger": false,
      "taf_trigger": false,
      "metar": "METAR EPKK 171030Z 28006KT 9999 -RA OVC036 10/08 Q1013",
      "taf": "TAF EPKK 170830Z 1709/1809 28006KT 9999 OVC045"
    },
    {
      "icao": "EPKT",
      "alert": "OK",
      "vis_m": 9999,
      "fzfg": false,
      "metar_trigger": false,
      "taf_trigger": false,
      "metar": "METAR EPKT 171030Z 31008KT 270V350 9999 FEW030 12/06 Q1014",
      "taf": "TAF EPKT 170530Z 1706/1806 32005KT 9999 -RA BKN040"
    },
    {
      "icao": "EPLB",
      "alert": "OK",
      "vis_m": 9999,
      "fzfg": false,
      "metar_trigger": false,
      "taf_trigger": false,
      "metar": "METAR EPLB 171030Z 01005KT 320V040 9999 BKN007 OVC009 14/13 Q1010",
      "taf": "TAF EPLB 170530Z 1706/1806 35010KT 8000 -RA OVC003"
    },
    {
      "icao": "EPMO",
      "alert": "OK",
      "vis_m": 9999,
      "fzfg": false,
      "metar_trigger": false,
      "taf_trigger": false,
      "metar": "METAR EPMO 171030Z 02010KT 340V040 9999 -RA BKN027 13/07 Q1014",
      "taf": "TAF EPMO 170530Z 1706/1806 36010KT CAVOK"
    },
    {
      "icao": "EPPO",
      "alert": "OK",
      "vis_m": 9999,
      "fzfg": false,
      "metar_trigger": false,
      "taf_trigger": false,
      "metar": "METAR EPPO 171030Z VRB04KT CAVOK 16/02 Q1015",
      "taf": "TAF EPPO 170530Z 1706/1806 32006KT CAVOK"
    },
    {
      "icao": "EPRA",
      "alert": "OK",
      "vis_m": 9999,
      "fzfg": false,
      "metar_trigger": false,
      "taf_trigger": false,
      "metar": "METAR EPRA 171030Z 34009KT 9999 BKN006 OVC012 11/10 Q1012",
      "taf": "TAF EPRA 170830Z 1709/1718 34010KT 9999 BKN010 OVC025"
    },
    {
      "icao": "EPRZ",
      "alert": "OK",
      "vis_m": 3000,
      "fzfg": false,
      "metar_trigger": false,
      "taf_trigger": false,
      "metar": "METAR EPRZ 171030Z 34008KT 310V010 3000 -DZ BR OVC003 12/12 Q1010",
      "taf": ""
    },
    {
      "icao": "EPSC",
      "alert": "OK",
      "vis_m": 9999,
      "fzfg": false,
      "metar_trigger": false,
      "taf_trigger": false,
      "metar": "METAR EPSC 171030Z 20004KT 160V230 CAVOK 14/04 Q1016",
      "taf": "TAF EPSC 170530Z 1706/1806 VRB04KT 9999 SCT040"
    },
    {
      "icao": "EPSY",
      "alert": "OK",
      "vis_m": 9999,
      "fzfg": false,
      "metar_trigger": false,
      "taf_trigger": false,
      "metar": "METAR EPSY 171030Z 04014KT CAVOK 14/04 Q1015",
      "taf": "TAF EPSY 170830Z 1709/1718 01015KT CAVOK"
    },
    {
      "icao": "EPWA",
      "alert": "OK",
      "vis_m": 9999,
      "fzfg": false,
      "metar_trigger": false,
      "taf_trigger": false,
      "metar": "METAR EPWA 171030Z 35011KT 9999 BKN019 BKN035 13/09 Q1013 NOSIG",
      "taf": "TAF EPWA 170830Z 1709/1809 36010KT CAVOK"
    },
    {
      "icao": "EPWR",
      "alert": "OK",
      "vis_m": 9999,
      "fzfg": false,
      "metar_trigger": false,
      "taf_trigger": false,
      "metar": "METAR EPWR 171030Z 32009KT 9999 FEW045 15/04 Q1016",
      "taf": "TAF EPWR 170830Z 1709/1809 32008KT CAVOK"
    },
    {
      "icao": "ESGG",
      "alert": "OK",
      "vis_m": 9999,
      "fzfg": false,
      "metar_trigger": false,
      "taf_trigger": false,
      "metar": "METAR ESGG 171020Z 22012KT 9999 FEW019 BKN027 10/04 Q1012",
      "taf": "TAF ESGG 170830Z 1709/1809 22009KT 9999 BKN018"
    },
    {
      "icao": "ESKN",
      "alert": "OK",
      "vis_m": 9999,
      "fzfg": false,
      "metar_trigger": false,
      "taf_trigger": false,
      "metar": "METAR ESKN 171020Z 23011KT 200V260 9999 FEW038TCU BKN058 13/05 Q1012",
      "taf": "TAF ESKN 170830Z 1709/1809 22010KT 9999 BKN030"
    },
    {
      "icao": "ESMS",
      "alert": "OK",
      "vis_m": 9999,
      "fzfg": false,
      "metar_trigger": false,
      "taf_trigger": false,
      "metar": "METAR ESMS 171020Z 20011KT 9999 FEW035 12/03 Q1014",
      "taf": "TAF ESMS 170827Z 1709/1809 20012KT 9999 FEW035"
    },
    {
      "icao": "ESSA",
      "alert": "OK",
      "vis_m": 9999,
      "fzfg": false,
      "metar_trigger": false,
      "taf_trigger": false,
      "metar": "METAR ESSA 171020Z 19013KT 9999 FEW040 BKN055 12/03 Q1011 NOSIG",
      "taf": "TAF ESSA 170830Z 1709/1809 22012KT 9999 SCT030"
    },
    {
      "icao": "EYKA",
      "alert": "OK",
      "vis_m": 9999,
      "fzfg": false,
      "metar_trigger": false,
      "taf_trigger": false,
      "metar": "METAR EYKA 171020Z 01010KT 330V050 9999 OVC013 14/11 Q1014",
      "taf": "TAF EYKA 170518Z 1706/1806 36010KT 7000 OVC005"
    },
    {
      "icao": "EYPA",
      "alert": "OK",
      "vis_m": 9999,
      "fzfg": false,
      "metar_trigger": false,
      "taf_trigger": false,
      "metar": "METAR EYPA 171020Z 30003KT 240V360 CAVOK 12/07 Q1017",
      "taf": "TAF EYPA 170520Z 1706/1806 VRB03KT 6000 SCT002"
    },
    {
      "icao": "EYVI",
      "alert": "OK",
      "vis_m": 9999,
      "fzfg": false,
      "metar_trigger": false,
      "taf_trigger": false,
      "metar": "METAR EYVI 171020Z 35010KT 9999 BKN023 19/13 Q1012 NOSIG",
      "taf": "TAF EYVI 170508Z 1706/1806 36008KT 9000 OVC005"
    },
    {
      "icao": "GCFV",
      "alert": "OK",
      "vis_m": 9999,
      "fzfg": false,
      "metar_trigger": false,
      "taf_trigger": false,
      "metar": "METAR GCFV 171030Z 02020KT 9999 FEW030 BKN045 22/12 Q1021",
      "taf": "TAF GCFV 170800Z 1709/1809 02015KT 9999 SCT035 TX23/1714Z TN17/1806Z"
    },
    {
      "icao": "GCLP",
      "alert": "OK",
      "vis_m": 9999,
      "fzfg": false,
      "metar_trigger": false,
      "taf_trigger": false,
      "metar": "METAR GCLP 171030Z 01027KT 9999 FEW030 SCT040 22/09 Q1021 NOSIG",
      "taf": "TAF GCLP 170800Z 1709/1809 01021KT 9999 FEW030 TX23/1714Z TN17/1806Z"
    },
    {
      "icao": "GCTS",
      "alert": "OK",
      "vis_m": 9999,
      "fzfg": false,
      "metar_trigger": false,
      "taf_trigger": false,
      "metar": "METAR GCTS 171030Z 09019KT 9999 FEW040 23/13 Q1022 NOSIG",
      "taf": "TAF GCTS 170800Z 1709/1809 09017KT 9999 BKN035 TX24/1714Z TN16/1806Z"
    },
    {
      "icao": "GMAD",
      "alert": "OK",
      "vis_m": 9999,
      "fzfg": false,
      "metar_trigger": false,
      "taf_trigger": false,
      "metar": "METAR GMAD 171030Z 25008KT 210V270 9999 FEW020 22/12 Q1016 NOSIG",
      "taf": "TAF GMAD 170500Z 1706/1812 06008KT CAVOK"
    },
    {
      "icao": "GMMN",
      "alert": "OK",
      "vis_m": 9999,
      "fzfg": false,
      "metar_trigger": false,
      "taf_trigger": false,
      "metar": "METAR GMMN 171030Z 35011KT 330V030 9999 BKN020 19/14 Q1019 NOSIG",
      "taf": "TAF GMMN 170500Z 1706/1812 24004KT 7000 SCT020"
    },
    {
      "icao": "GMMX",
      "alert": "OK",
      "vis_m": 8000,
      "fzfg": false,
      "metar_trigger": false,
      "taf_trigger": false,
      "metar": "METAR GMMX 171030Z 35005KT 300V070 8000 SCT020 BKN080 20/12 Q1019 NOSIG",
      "taf": "TAF GMMX 162300Z 1700/1806 22008KT 8000 SCT033 SCT100"
    },
    {
      "icao": "HEGN",
      "alert": "OK",
      "vis_m": null,
      "fzfg": false,
      "metar_trigger": false,
      "taf_trigger": false,
      "metar": "",
      "taf": "TAF HEGN 170500Z 1706/1812 01014KT CAVOK"
    },
    {
      "icao": "HEMA",
      "alert": "OK",
      "vis_m": null,
      "fzfg": false,
      "metar_trigger": false,
      "taf_trigger": false,
      "metar": "",
      "taf": "TAF HEMA 170500Z 1706/1812 30015KT CAVOK"
    },
    {
      "icao": "HESH",
      "alert": "OK",
      "vis_m": null,
      "fzfg": false,
      "metar_trigger": false,
      "taf_trigger": false,
      "metar": "",
      "taf": "TAF HESH 170500Z 1706/1812 02014KT CAVOK"
    },
    {
      "icao": "HESX",
      "alert": "OK",
      "vis_m": null,
      "fzfg": false,
      "metar_trigger": false,
      "taf_trigger": false,
      "metar": "",
      "taf": "TAF HESX 170500Z 1706/1812 20016G26KT CAVOK"
    },
    {
      "icao": "LATI",
      "alert": "OK",
      "vis_m": 9999,
      "fzfg": false,
      "metar_trigger": false,
      "taf_trigger": false,
      "metar": "METAR LATI 171020Z 22006KT 190V260 9999 SCT039 19/07 Q1010 NOSIG",
      "taf": "TAF LATI 170500Z 1706/1806 VRB05KT 9999 SCT030 BKN060 TX24/1712Z TN09/1804Z"
    },
    {
      "icao": "LBPD",
      "alert": "OK",
      "vis_m": 9999,
      "fzfg": false,
      "metar_trigger": false,
      "taf_trigger": false,
      "metar": "METAR LBPD 171030Z AUTO 29023KT 9999 FEW051/// SCT120/// 19/07 Q1005 TEMPO 29020G30KT",
      "taf": "TAF LBPD 170500Z 1706/1806 29016KT 9999 SCT050"
    },
    {
      "icao": "LBSF",
      "alert": "OK",
      "vis_m": 9999,
      "fzfg": false,
      "metar_trigger": false,
      "taf_trigger": false,
      "metar": "METAR LBSF 171030Z 30009KT 9999 -RA OVC027 11/08 Q1007 TEMPO 5000 RA SCT012 BKN020",
      "taf": "TAF LBSF 170500Z 1706/1806 29012KT 9999 SCT035 BKN050"
    },
    {
      "icao": "LBWN",
      "alert": "OK",
      "vis_m": 9999,
      "fzfg": false,
      "metar_trigger": false,
      "taf_trigger": false,
      "metar": "METAR LBWN 171030Z AUTO 33012KT 310V010 9999 SCT029/// BKN044/// 19/12 Q1002 NOSIG",
      "taf": "TAF LBWN 170500Z 1706/1806 30013KT 9999 SCT020 BKN045"
    },
    {
      "icao": "LCLK",
      "alert": "OK",
      "vis_m": 9999,
      "fzfg": false,
      "metar_trigger": false,
      "taf_trigger": false,
      "metar": "METAR LCLK 171030Z 19018KT 9999 FEW008 SCT012 25/19 Q1007 NOSIG",
      "taf": "TAF LCLK 170530Z 1706/1806 22010KT CAVOK"
    },
    {
      "icao": "LCPH",
      "alert": "OK",
      "vis_m": 9999,
      "fzfg": false,
      "metar_trigger": false,
      "taf_trigger": false,
      "metar": "METAR LCPH 171030Z 15012KT CAVOK 23/18 Q1008 NOSIG",
      "taf": "TAF LCPH 170530Z 1706/1806 03007KT 9999 FEW012"
    },
    {
      "icao": "LEAL",
      "alert": "OK",
      "vis_m": 9999,
      "fzfg": false,
      "metar_trigger": false,
      "taf_trigger": false,
      "metar": "METAR LEAL 171030Z 17007KT 120V230 9999 FEW020 BKN035 22/13 Q1017 NOSIG",
      "taf": "TAF LEAL 170500Z 1706/1806 VRB03KT 9999 FEW020 TX22/1712Z TN11/1706Z"
    },
    {
      "icao": "LEBB",
      "alert": "OK",
      "vis_m": 9999,
      "fzfg": false,
      "metar_trigger": false,
      "taf_trigger": false,
      "metar": "METAR LEBB 171030Z 29003KT 240V330 9999 FEW030 SCT056 BKN071 17/10 Q1018 TEMPO 3000 RA",
      "taf": "TAF LEBB 170500Z 1706/1806 31009KT 9999 FEW025 BKN040 TX17/1712Z TN10/1805Z"
    },
    {
      "icao": "LEBL",
      "alert": "OK",
      "vis_m": 9999,
      "fzfg": false,
      "metar_trigger": false,
      "taf_trigger": false,
      "metar": "METAR LEBL 171030Z 09010KT 9999 FEW025 19/12 Q1017 NOSIG",
      "taf": ""
    },
    {
      "icao": "LECH",
      "alert": "OK",
      "vis_m": 9999,
      "fzfg": false,
      "metar_trigger": false,
      "taf_trigger": false,
      "metar": "METAR LECH 171030Z AUTO 14010KT 110V170 CAVOK 18/07 Q1017",
      "taf": "TAF LECH 170500Z 1706/1806 VRB04KT CAVOK TX22/1714Z TN08/1706Z"
    },
    {
      "icao": "LEMD",
      "alert": "OK",
      "vis_m": 9999,
      "fzfg": false,
      "metar_trigger": false,
      "taf_trigger": false,
      "metar": "METAR LEMD 171030Z VRB04KT CAVOK 18/06 Q1016 NOSIG",
      "taf": "TAF LEMD 170500Z 1706/1812 VRB04KT CAVOK TX24/1715Z TN06/1706Z"
    },
    {
      "icao": "LEMG",
      "alert": "OK",
      "vis_m": 9999,
      "fzfg": false,
      "metar_trigger": false,
      "taf_trigger": false,
      "metar": "METAR LEMG 171030Z 13009KT 100V160 9999 FEW075 19/12 Q1017 NOSIG",
      "taf": "TAF LEMG 170500Z 1706/1806 28005KT CAVOK TX24/1714Z TN15/1707Z"
    },
    {
      "icao": "LEVC",
      "alert": "OK",
      "vis_m": 9999,
      "fzfg": false,
      "metar_trigger": false,
      "taf_trigger": false,
      "metar": "METAR LEVC 171030Z 10008KT 050V170 9999 FEW040 20/10 Q1017 NOSIG",
      "taf": "TAF LEVC 170500Z 1706/1806 VRB04KT CAVOK TX24/1712Z TN11/1706Z"
    },
    {
      "icao": "LEXJ",
      "alert": "OK",
      "vis_m": 9999,
      "fzfg": false,
      "metar_trigger": false,
      "taf_trigger": false,
      "metar": "METAR LEXJ 171030Z 31010KT 9999 SCT010 BKN020 13/12 Q1019",
      "taf": "TAF LEXJ 170800Z 1709/1809 23005KT 9999 FEW020 SCT035 TX18/1712Z TN10/1805Z"
    },
    {
      "icao": "LEZG",
      "alert": "OK",
      "vis_m": 9999,
      "fzfg": false,
      "metar_trigger": false,
      "taf_trigger": false,
      "metar": "METAR LEZG 171030Z 31004KT CAVOK 18/08 Q1017 NOSIG",
      "taf": "TAF LEZG 170500Z 1706/1806 28009KT CAVOK TX24/1718Z TN09/1706Z"
    },
    {
      "icao": "LEZL",
      "alert": "OK",
      "vis_m": 9999,
      "fzfg": false,
      "metar_trigger": false,
      "taf_trigger": false,
      "metar": "METAR LEZL 171030Z 23008KT 200V280 CAVOK 23/10 Q1016 NOSIG",
      "taf": "TAF LEZL 170800Z 1709/1809 VRB03KT CAVOK TX29/1715Z TN13/1806Z"
    },
    {
      "icao": "LFBD",
      "alert": "OK",
      "vis_m": 9999,
      "fzfg": false,
      "metar_trigger": false,
      "taf_trigger": false,
      "metar": "METAR LFBD 171030Z AUTO 31011KT 280V340 9999 FEW017/// BKN054/// ///CB 16/12 Q1016 TEMPO 4000 SHRA BECMG SCT040",
      "taf": "TAF LFBD 170500Z 1706/1812 21005KT 9999 BKN030 TX18/1713Z TN09/1806Z"
    },
    {
      "icao": "LFLL",
      "alert": "OK",
      "vis_m": 9999,
      "fzfg": false,
      "metar_trigger": false,
      "taf_trigger": false,
      "metar": "METAR LFLL 171030Z VRB03KT 9999 FEW036 BKN260 15/05 Q1016 NOSIG",
      "taf": "TAF LFLL 170500Z 1706/1812 VRB02KT CAVOK"
    },
    {
      "icao": "LFLS",
      "alert": "OK",
      "vis_m": 9999,
      "fzfg": false,
      "metar_trigger": false,
      "taf_trigger": false,
      "metar": "METAR LFLS 171030Z AUTO 06005KT 010V140 CAVOK 16/02 Q1016 NOSIG",
      "taf": "TAF LFLS 170800Z 1709/1809 10007KT 9999 FEW060 BKN200"
    },
    {
      "icao": "LFMN",
      "alert": "OK",
      "vis_m": 9999,
      "fzfg": false,
      "metar_trigger": false,
      "taf_trigger": false,
      "metar": "METAR LFMN 171030Z 13009KT CAVOK 19/11 Q1014 NOSIG",
      "taf": "TAF LFMN 170800Z 1709/1815 11010KT CAVOK"
    },
    {
      "icao": "LFOB",
      "alert": "OK",
      "vis_m": 9999,
      "fzfg": false,
      "metar_trigger": false,
      "taf_trigger": false,
      "metar": "METAR LFOB 171030Z AUTO 20006KT 170V250 9999 SCT023 BKN030 BKN040 14/10 Q1012 TEMPO 2000 SHRA BKN014 BKN020CB",
      "taf": "TAF LFOB 170500Z 1706/1806 22007KT 9999 BKN018 BKN030"
    },
    {
      "icao": "LFPO",
      "alert": "OK",
      "vis_m": 9999,
      "fzfg": false,
      "metar_trigger": false,
      "taf_trigger": false,
      "metar": "METAR LFPO 171030Z AUTO 21005KT 180V250 9999 FEW018 SCT025 BKN038 14/10 Q1013 TEMPO 4000 SHRA SCT020CB",
      "taf": ""
    },
    {
      "icao": "LFSB",
      "alert": "OK",
      "vis_m": 9999,
      "fzfg": false,
      "metar_trigger": false,
      "taf_trigger": false,
      "metar": "METAR LFSB 171030Z AUTO VRB03KT 9999 FEW044 16/05 Q1016 NOSIG",
      "taf": "TAF LFSB 170500Z 1706/1806 13003KT CAVOK"
    },
    {
      "icao": "LGAV",
      "alert": "OK",
      "vis_m": 9999,
      "fzfg": false,
      "metar_trigger": false,
      "taf_trigger": false,
      "metar": "METAR LGAV 171020Z 33009KT 260V010 9999 FEW030 23/04 Q1007 NOSIG",
      "taf": "TAF LGAV 170500Z 1706/1806 29010KT 9999 FEW030"
    },
    {
      "icao": "LGTS",
      "alert": "OK",
      "vis_m": 9999,
      "fzfg": false,
      "metar_trigger": false,
      "taf_trigger": false,
      "metar": "METAR LGTS 171020Z 32006KT 9999 SCT020 23/08 Q1005 NOSIG",
      "taf": "TAF LGTS 170500Z 1706/1806 33015KT 9999 FEW030"
    },
    {
      "icao": "LHBP",
      "alert": "OK",
      "vis_m": 9999,
      "fzfg": false,
      "metar_trigger": false,
      "taf_trigger": false,
      "metar": "METAR LHBP 171030Z 33013KT 9999 4300W SHRA FEW007 FEW042TCU OVC044 11/10 Q1009 BECMG NSW",
      "taf": "TAF LHBP 170515Z 1706/1806 33013KT 9999 -RA BKN040 OVC070"
    },
    {
      "icao": "LHDC",
      "alert": "OK",
      "vis_m": 9999,
      "fzfg": false,
      "metar_trigger": false,
      "taf_trigger": false,
      "metar": "METAR LHDC 171015Z AUTO 01011KT 330V060 CAVOK 22/13 Q1005 NOSIG",
      "taf": "TAF LHDC 170815Z 1709/1718 02014G24KT 9999 SCT035"
    },
    {
      "icao": "LIBD",
      "alert": "OK",
      "vis_m": 9999,
      "fzfg": false,
      "metar_trigger": false,
      "taf_trigger": false,
      "metar": "METAR LIBD 171020Z AUTO 32011KT 290V350 9999 FEW032/// BKN049/// 18/10 Q1013",
      "taf": "TAF LIBD 170500Z 1706/1806 28012KT 9999 SCT040"
    },
    {
      "icao": "LIBG",
      "alert": "OK",
      "vis_m": 9999,
      "fzfg": false,
      "metar_trigger": false,
      "taf_trigger": false,
      "metar": "METAR LIBG 170950Z 32009KT 290V350 9999 SCT040 20/09 Q1012",
      "taf": "TAF LIBG 170800Z 1709/1718 32011KT CAVOK"
    },
    {
      "icao": "LIBP",
      "alert": "OK",
      "vis_m": 9999,
      "fzfg": false,
      "metar_trigger": false,
      "taf_trigger": false,
      "metar": "METAR LIBP 171020Z AUTO 04006KT 350V100 9999 NCD 21/04 Q1014",
      "taf": "TAF LIBP 170500Z 1706/1806 VRB05KT 9999 SCT025"
    },
    {
      "icao": "LIBR",
      "alert": "OK",
      "vis_m": 9999,
      "fzfg": false,
      "metar_trigger": false,
      "taf_trigger": false,
      "metar": "METAR LIBR 171020Z 33014KT 9999 FEW035 19/10 Q1012",
      "taf": "TAF LIBR 170500Z 1706/1806 30015KT 9999 SCT030"
    },
    {
      "icao": "LICA",
      "alert": "OK",
      "vis_m": 9999,
      "fzfg": false,
      "metar_trigger": false,
      "taf_trigger": false,
      "metar": "METAR LICA 171020Z AUTO 26012KT 9999 NCD 19/11 Q1014",
      "taf": "TAF LICA 170500Z 1706/1806 27015KT 9999 SCT040"
    },
    {
      "icao": "LICC",
      "alert": "OK",
      "vis_m": 9999,
      "fzfg": false,
      "metar_trigger": false,
      "taf_trigger": false,
      "metar": "METAR LICC 171020Z 10014KT 9999 SCT060 22/12 Q1013",
      "taf": "TAF LICC 170500Z 1706/1806 VRB05KT CAVOK"
    },
    {
      "icao": "LICJ",
      "alert": "OK",
      "vis_m": 9999,
      "fzfg": false,
      "metar_trigger": false,
      "taf_trigger": false,
      "metar": "METAR LICJ 171020Z 33005KT 9999 FEW050 19/09 Q1015",
      "taf": "TAF LICJ 170500Z 1706/1806 33014KT CAVOK"
    },
    {
      "icao": "LIMC",
      "alert": "OK",
      "vis_m": 9999,
      "fzfg": false,
      "metar_trigger": false,
      "taf_trigger": false,
      "metar": "METAR LIMC 171020Z 12008KT 090V170 CAVOK 19/01 Q1013 NOSIG",
      "taf": "TAF LIMC 170500Z 1706/1812 VRB05KT 9999 FEW090"
    },
    {
      "icao": "LIME",
      "alert": "OK",
      "vis_m": 9999,
      "fzfg": false,
      "metar_trigger": false,
      "taf_trigger": false,
      "metar": "METAR LIME 171020Z VRB03KT 9999 FEW060 19/01 Q1014 NOSIG",
      "taf": "TAF LIME 170500Z 1706/1806 VRB05KT 9999 FEW090"
    },
    {
      "icao": "LIMF",
      "alert": "OK",
      "vis_m": 9999,
      "fzfg": false,
      "metar_trigger": false,
      "taf_trigger": false,
      "metar": "METAR LIMF 171020Z VRB04KT CAVOK 18/01 Q1013",
      "taf": "TAF LIMF 170500Z 1706/1806 VRB05KT CAVOK"
    },
    {
      "icao": "LIMJ",
      "alert": "OK",
      "vis_m": 9999,
      "fzfg": false,
      "metar_trigger": false,
      "taf_trigger": false,
      "metar": "METAR LIMJ 171020Z 14008KT 9999 FEW024 18/13 Q1014",
      "taf": "TAF LIMJ 170500Z 1706/1806 04007KT 9999 FEW020"
    },
    {
      "icao": "LIPE",
      "alert": "OK",
      "vis_m": 9999,
      "fzfg": false,
      "metar_trigger": false,
      "taf_trigger": false,
      "metar": "METAR LIPE 171020Z 31005KT 250V010 CAVOK 20/06 Q1013",
      "taf": "TAF LIPE 170500Z 1706/1806 VRB05KT 9999 FEW030"
    },
    {
      "icao": "LIPH",
      "alert": "OK",
      "vis_m": 9999,
      "fzfg": false,
      "metar_trigger": false,
      "taf_trigger": false,
      "metar": "METAR LIPH 171020Z VRB04KT 9999 FEW020 20/09 Q1013",
      "taf": "TAF LIPH 170500Z 1706/1806 VRB05KT 9999 SCT040"
    },
    {
      "icao": "LIPQ",
      "alert": "OK",
      "vis_m": 9999,
      "fzfg": false,
      "metar_trigger": false,
      "taf_trigger": false,
      "metar": "METAR LIPQ 171020Z AUTO 21006KT 140V260 9999 NCD 20/07 Q1013",
      "taf": "TAF LIPQ 170500Z 1706/1806 07006KT 9999 FEW050"
    },
    {
      "icao": "LIPR",
      "alert": "OK",
      "vis_m": 9999,
      "fzfg": false,
      "metar_trigger": false,
      "taf_trigger": false,
      "metar": "METAR LIPR 171020Z 05007KT CAVOK 19/07 Q1013",
      "taf": "TAF LIPR 170500Z 1706/1806 21007KT 9999 SCT040"
    },
    {
      "icao": "LIPX",
      "alert": "OK",
      "vis_m": 9999,
      "fzfg": false,
      "metar_trigger": false,
      "taf_trigger": false,
      "metar": "METAR LIPX 171020Z VRB04KT 9999 FEW090 21/05 Q1013",
      "taf": "TAF LIPX 170500Z 1706/1806 VRB05KT CAVOK"
    },
    {
      "icao": "LIPY",
      "alert": "OK",
      "vis_m": 9999,
      "fzfg": false,
      "metar_trigger": false,
      "taf_trigger": false,
      "metar": "METAR LIPY 171020Z AUTO 07008KT 040V110 9999 NCD 20/09 Q1013",
      "taf": "TAF LIPY 170500Z 1706/1806 VRB05KT 9999 SCT040"
    },
    {
      "icao": "LIPZ",
      "alert": "OK",
      "vis_m": 9999,
      "fzfg": false,
      "metar_trigger": false,
      "taf_trigger": false,
      "metar": "METAR LIPZ 171020Z 13004KT 090V220 9999 FEW020 19/11 Q1013 NOSIG",
      "taf": "TAF LIPZ 170500Z 1706/1812 04007KT 9999 FEW010"
    },
    {
      "icao": "LIRF",
      "alert": "OK",
      "vis_m": 9999,
      "fzfg": false,
      "metar_trigger": false,
      "taf_trigger": false,
      "metar": "METAR LIRF 171020Z 22008KT 200V260 CAVOK 19/10 Q1014 NOSIG",
      "taf": "TAF LIRF 170500Z 1706/1812 02007KT CAVOK"
    },
    {
      "icao": "LIRN",
      "alert": "OK",
      "vis_m": 9999,
      "fzfg": false,
      "metar_trigger": false,
      "taf_trigger": false,
      "metar": "METAR LIRN 171020Z 19008KT 160V230 9999 FEW050 20/08 Q1014 NOSIG",
      "taf": "TAF LIRN 170500Z 1706/1806 VRB05KT CAVOK"
    },
    {
      "icao": "LIRP",
      "alert": "OK",
      "vis_m": 9999,
      "fzfg": false,
      "metar_trigger": false,
      "taf_trigger": false,
      "metar": "METAR LIRP 171015Z 29006KT 9999 FEW025 20/10 Q1014 NOSIG",
      "taf": "TAF LIRP 170500Z 1706/1806 09005KT CAVOK"
    },
    {
      "icao": "LIRZ",
      "alert": "OK",
      "vis_m": 9999,
      "fzfg": false,
      "metar_trigger": false,
      "taf_trigger": false,
      "metar": "METAR LIRZ 171020Z AUTO 25003KT 170V330 9999 NCD 18/07 Q1014",
      "taf": ""
    },
    {
      "icao": "LJLJ",
      "alert": "OK",
      "vis_m": 9999,
      "fzfg": false,
      "metar_trigger": false,
      "taf_trigger": false,
      "metar": "METAR LJLJ 171030Z VRB03KT 9999 FEW065 18/02 Q1013 NOSIG",
      "taf": "TAF LJLJ 170500Z 1706/1806 VRB02KT 9999 FEW070"
    },
    {
      "icao": "LKMT",
      "alert": "OK",
      "vis_m": 9999,
      "fzfg": false,
      "metar_trigger": false,
      "taf_trigger": false,
      "metar": "METAR LKMT 171030Z 35011KT 9999 -RA OVC040 10/07 Q1015 NOSIG",
      "taf": "TAF LKMT 170500Z 1706/1806 36008KT 9999 -RA OVC035"
    },
    {
      "icao": "LKPR",
      "alert": "OK",
      "vis_m": 9999,
      "fzfg": false,
      "metar_trigger": false,
      "taf_trigger": false,
      "metar": "METAR LKPR 171030Z 30004KT 250V360 CAVOK 14/01 Q1016 NOSIG",
      "taf": "TAF LKPR 170800Z 1709/1815 27005KT 9999 SCT040"
    },
    {
      "icao": "LLBG",
      "alert": "OK",
      "vis_m": 9999,
      "fzfg": false,
      "metar_trigger": false,
      "taf_trigger": false,
      "metar": "METAR LLBG 171020Z 31010KT 260V340 CAVOK 32/06 Q1009 NOSIG",
      "taf": "TAF LLBG 170504Z 1706/1806 VRB03KT CAVOK TX36/1712Z TN22/1803Z"
    },
    {
      "icao": "LMML",
      "alert": "OK",
      "vis_m": 9999,
      "fzfg": false,
      "metar_trigger": false,
      "taf_trigger": false,
      "metar": "METAR LMML 171015Z 29006KT 240V330 9999 -SHRA FEW012 FEW080TCU 17/12 Q1015 NOSIG",
      "taf": "TAF LMML 170500Z 1706/1806 34012KT 9999 FEW018"
    },
    {
      "icao": "LOWW",
      "alert": "OK",
      "vis_m": 9999,
      "fzfg": false,
      "metar_trigger": false,
      "taf_trigger": false,
      "metar": "METAR LOWW 171020Z 32016KT 9999 FEW040 15/06 Q1014 NOSIG",
      "taf": "TAF LOWW 170815Z 1709/1815 32012KT 9999 FEW020 BKN050 TX19/1814Z TN06/1803Z"
    },
    {
      "icao": "LPFR",
      "alert": "OK",
      "vis_m": 9999,
      "fzfg": false,
      "metar_trigger": false,
      "taf_trigger": false,
      "metar": "METAR LPFR 171030Z 31012KT 280V360 9999 FEW040 20/09 Q1018",
      "taf": "TAF LPFR 170511Z 1706/1806 32007KT CAVOK"
    },
    {
      "icao": "LPMA",
      "alert": "OK",
      "vis_m": 9999,
      "fzfg": false,
      "metar_trigger": false,
      "taf_trigger": false,
      "metar": "METAR LPMA 171030Z 01008KT 340V040 9999 BKN015 18/12 Q1025",
      "taf": "TAF LPMA 170511Z 1706/1806 36010KT 9999 SCT015"
    },
    {
      "icao": "LPPR",
      "alert": "OK",
      "vis_m": 9999,
      "fzfg": false,
      "metar_trigger": false,
      "taf_trigger": false,
      "metar": "METAR LPPR 171030Z 02007KT 330V060 9999 FEW018 17/11 Q1018",
      "taf": "TAF LPPR 170511Z 1706/1806 VRB02KT 9999 FEW025"
    },
    {
      "icao": "LPPS",
      "alert": "OK",
      "vis_m": 9999,
      "fzfg": false,
      "metar_trigger": false,
      "taf_trigger": false,
      "metar": "METAR LPPS 171030Z 01013KT 9999 FEW015 BKN030 18/08 Q1025",
      "taf": "TAF LPPS 170511Z 1706/1812 01012KT 9999 SCT015 SCT030"
    },
    {
      "icao": "LPPT",
      "alert": "OK",
      "vis_m": 9999,
      "fzfg": false,
      "metar_trigger": false,
      "taf_trigger": false,
      "metar": "METAR LPPT 171030Z 30009KT 270V340 9999 SCT026 18/11 Q1018",
      "taf": "TAF LPPT 170511Z 1706/1812 33007KT 9999 SCT025"
    },
    {
      "icao": "LQBK",
      "alert": "OK",
      "vis_m": 9999,
      "fzfg": false,
      "metar_trigger": false,
      "taf_trigger": false,
      "metar": "METAR LQBK 171030Z 29011KT 250V330 9999 BKN047 15/05 Q1013 NOSIG",
      "taf": "TAF LQBK 170500Z 1706/1806 31012KT 9999 SCT040 TX17/1714Z TN05/1804Z"
    },
    {
      "icao": "LQSA",
      "alert": "OK",
      "vis_m": 9999,
      "fzfg": false,
      "metar_trigger": false,
      "taf_trigger": false,
      "metar": "METAR LQSA 171030Z 32005KT 9999 BKN025 10/06 Q1013 NOSIG",
      "taf": "TAF LQSA 170500Z 1706/1806 32005KT 9999 BKN045 TX14/1714Z TN03/1804Z"
    },
    {
      "icao": "LQTZ",
      "alert": "OK",
      "vis_m": 9999,
      "fzfg": false,
      "metar_trigger": false,
      "taf_trigger": false,
      "metar": "METAR LQTZ 171030Z 27008KT 9999 -RA BKN020 OVC025 10/10 Q1012",
      "taf": ""
    },
    {
      "icao": "LRBC",
      "alert": "OK",
      "vis_m": 9999,
      "fzfg": false,
      "metar_trigger": false,
      "taf_trigger": false,
      "metar": "METAR LRBC 171030Z 06008KT 030V110 9999 SCT040 18/09 Q1007",
      "taf": "TAF LRBC 170800Z 1709/1718 VRB04KT 9999 SCT050"
    },
    {
      "icao": "LRBS",
      "alert": "OK",
      "vis_m": 9999,
      "fzfg": false,
      "metar_trigger": false,
      "taf_trigger": false,
      "metar": "METAR LRBS 171030Z 07013KT 9999 -RA SCT006 BKN013 BKN033 14/12 Q1005 RERA NOSIG",
      "taf": "TAF LRBS 170500Z 1706/1806 VRB04KT 9999 BKN010 BKN030"
    },
    {
      "icao": "LRBV",
      "alert": "OK",
      "vis_m": 9999,
      "fzfg": false,
      "metar_trigger": false,
      "taf_trigger": false,
      "metar": "METAR LRBV 171030Z 06010KT 9999 FEW022 BKN044 BKN057 13/11 Q1006",
      "taf": "TAF LRBV 170800Z 1709/1718 06012KT 9999 SCT035 BKN055"
    },
    {
      "icao": "LRCL",
      "alert": "OK",
      "vis_m": 9999,
      "fzfg": false,
      "metar_trigger": false,
      "taf_trigger": false,
      "metar": "METAR LRCL 171030Z 11010KT 9999 SCT050 21/10 Q1005",
      "taf": "TAF LRCL 170800Z 1709/1718 VRB04KT 9999 SCT020"
    },
    {
      "icao": "LRCV",
      "alert": "OK",
      "vis_m": 9999,
      "fzfg": false,
      "metar_trigger": false,
      "taf_trigger": false,
      "metar": "METAR LRCV 171030Z 23007KT 9999 BKN015 OVC025 15/12 Q1005",
      "taf": "TAF LRCV 170800Z 1709/1718 27012KT 9999 BKN010 OVC020"
    },
    {
      "icao": "LRIA",
      "alert": "OK",
      "vis_m": 9999,
      "fzfg": false,
      "metar_trigger": false,
      "taf_trigger": false,
      "metar": "METAR LRIA 171030Z 07008KT 030V120 CAVOK 20/03 Q1007",
      "taf": "TAF LRIA 170800Z 1709/1718 10006KT CAVOK"
    },
    {
      "icao": "LROP",
      "alert": "OK",
      "vis_m": 9999,
      "fzfg": false,
      "metar_trigger": false,
      "taf_trigger": false,
      "metar": "METAR LROP 171030Z 08013KT 9999 -RA SCT009 14/13 Q1005 NOSIG",
      "taf": "TAF LROP 170500Z 1706/1806 VRB04KT 9999 BKN010 BKN030"
    },
    {
      "icao": "LRSB",
      "alert": "OK",
      "vis_m": 9999,
      "fzfg": false,
      "metar_trigger": false,
      "taf_trigger": false,
      "metar": "METAR LRSB 171030Z 12014KT 9999 FEW036 BKN046 18/10 Q1004",
      "taf": "TAF LRSB 170500Z 1706/1806 VRB04KT 5000 -RA BR BKN015 OVC045"
    },
    {
      "icao": "LRSM",
      "alert": "OK",
      "vis_m": null,
      "fzfg": false,
      "metar_trigger": false,
      "taf_trigger": false,
      "metar": "METAR LRSM 171030Z AUTO /////KT //// R19////// // NCD ///// Q1004",
      "taf": ""
    },
    {
      "icao": "LRSV",
      "alert": "OK",
      "vis_m": 9999,
      "fzfg": false,
      "metar_trigger": false,
      "taf_trigger": false,
      "metar": "METAR LRSV 171030Z 06007KT 030V100 9999 SCT040 18/10 Q1008",
      "taf": "TAF LRSV 170800Z 1709/1718 07007KT CAVOK"
    },
    {
      "icao": "LRTM",
      "alert": "OK",
      "vis_m": 9999,
      "fzfg": false,
      "metar_trigger": false,
      "taf_trigger": false,
      "metar": "METAR LRTM 171030Z 07011KT 9999 SCT048 20/12 Q1005",
      "taf": "TAF LRTM 170800Z 1709/1718 09016KT 9999 SCT045"
    },
    {
      "icao": "LRTR",
      "alert": "OK",
      "vis_m": 9999,
      "fzfg": false,
      "metar_trigger": false,
      "taf_trigger": false,
      "metar": "METAR LRTR 171030Z COR 31005KT 280V340 9999 SCT012 BKN022 OVC040 16/15 Q1005",
      "taf": "TAF LRTR 170500Z 1706/1806 VRB04KT 9999 SCT005 BKN010"
    },
    {
      "icao": "LTAC",
      "alert": "OK",
      "vis_m": 9999,
      "fzfg": false,
      "metar_trigger": false,
      "taf_trigger": false,
      "metar": "METAR LTAC 171020Z 30004KT 220V010 9999 BKN023 BKN080 18/11 Q1005 NOSIG RMK RWY21C VRB04KT RWY03L VRB03KT RWY21R VRB05KT RWY03R 19006KT 140V230 RWY21L VRB03KT",
      "taf": "TAF LTAC 170440Z 1706/1806 VRB02KT 9999 SCT040 BKN100"
    },
    {
      "icao": "LTFM",
      "alert": "OK",
      "vis_m": 9999,
      "fzfg": false,
      "metar_trigger": false,
      "taf_trigger": false,
      "metar": "METAR LTFM 171020Z COR 36009KT 320V020 9999 -SHRA VCTS FEW018CB BKN025 15/13 Q1003 RETSRA NOSIG RMK RWY17L 36006KT RWY34L 35009KT RWY16R 35006KT RWY36 01009KT RWY18 36006KT 320V020",
      "taf": ""
    },
    {
      "icao": "LUKK",
      "alert": "OK",
      "vis_m": 9999,
      "fzfg": false,
      "metar_trigger": false,
      "taf_trigger": false,
      "metar": "METAR LUKK 171030Z 06007KT 020V110 CAVOK 20/07 Q1006 NOSIG",
      "taf": "TAF LUKK 170507Z 1706/1806 07009KT CAVOK"
    },
    {
      "icao": "LWOH",
      "alert": "OK",
      "vis_m": 9999,
      "fzfg": false,
      "metar_trigger": false,
      "taf_trigger": false,
      "metar": "METAR LWOH 171020Z 17009KT 130V200 9999 BKN045 14/08 Q1010",
      "taf": "TAF LWOH 170820Z 1709/1809 20012KT 9999 FEW020 BKN045"
    },
    {
      "icao": "LWSK",
      "alert": "OK",
      "vis_m": 9999,
      "fzfg": false,
      "metar_trigger": false,
      "taf_trigger": false,
      "metar": "METAR LWSK 171020Z VRB02KT 9999 SCT070 22/09 Q1007 NOSIG",
      "taf": "TAF LWSK 170820Z 1709/1809 VRB02KT 9999 BKN070"
    },
    {
      "icao": "LYBE",
      "alert": "OK",
      "vis_m": 9999,
      "fzfg": false,
      "metar_trigger": false,
      "taf_trigger": false,
      "metar": "METAR LYBE 171030Z 28017KT 9999 -RA BKN006 11/10 Q1008 NOSIG",
      "taf": "TAF LYBE 170500Z 1706/1806 28018KT 9999 BKN006 BKN025 TX12/1713Z TN05/1804Z"
    },
    {
      "icao": "LYNI",
      "alert": "OK",
      "vis_m": 9999,
      "fzfg": false,
      "metar_trigger": false,
      "taf_trigger": false,
      "metar": "METAR LYNI 171030Z VRB01KT 9999 SCT015 OVC027 12/11 Q1009 BECMG 33012KT",
      "taf": "TAF LYNI 170500Z 1706/1806 33012KT 9999 SCT015 BKN030 TX12/1713Z TN09/1804Z"
    },
    {
      "icao": "LYPG",
      "alert": "OK",
      "vis_m": 9999,
      "fzfg": false,
      "metar_trigger": false,
      "taf_trigger": false,
      "metar": "METAR LYPG 171030Z 17008KT 130V220 9999 FEW027 SCT050 19/10 Q1009 NOSIG",
      "taf": "TAF LYPG 170500Z 1706/1806 16005KT 9999 FEW030 SCT040 TX22/1713Z TN13/1804Z"
    },
    {
      "icao": "LZIB",
      "alert": "OK",
      "vis_m": 9999,
      "fzfg": false,
      "metar_trigger": false,
      "taf_trigger": false,
      "metar": "METAR LZIB 171030Z 34013KT 9999 -RA SCT047 14/06 Q1013 NOSIG",
      "taf": "TAF LZIB 170515Z 1706/1806 33014KT CAVOK"
    },
    {
      "icao": "LZKZ",
      "alert": "OK",
      "vis_m": 9999,
      "fzfg": false,
      "metar_trigger": false,
      "taf_trigger": false,
      "metar": "METAR LZKZ 171030Z 36024KT CAVOK 16/09 Q1008 NOSIG",
      "taf": "TAF LZKZ 170515Z 1706/1806 36018KT 9999 SCT033"
    },
    {
      "icao": "LZTT",
      "alert": "OK",
      "vis_m": 9999,
      "fzfg": false,
      "metar_trigger": false,
      "taf_trigger": false,
      "metar": "METAR LZTT 171030Z 27009KT 9999 FEW011 OVC035 09/05 Q1011 NOSIG",
      "taf": ""
    },
    {
      "icao": "OEJN",
      "alert": "OK",
      "vis_m": 9999,
      "fzfg": false,
      "metar_trigger": false,
      "taf_trigger": false,
      "metar": "METAR OEJN 171000Z 29012KT CAVOK 34/21 Q1006 NOSIG",
      "taf": "TAF OEJN 170500Z 1706/1812 34015KT 7000 NSC"
    },
    {
      "icao": "OEMA",
      "alert": "OK",
      "vis_m": 9999,
      "fzfg": false,
      "metar_trigger": false,
      "taf_trigger": false,
      "metar": "METAR OEMA 171000Z 02004KT CAVOK 36/M03 Q1013 NOSIG",
      "taf": "TAF OEMA 170500Z 1706/1812 07015KT 6000 NSC"
    },
    {
      "icao": "OJAI",
      "alert": "OK",
      "vis_m": 4000,
      "fzfg": false,
      "metar_trigger": false,
      "taf_trigger": false,
      "metar": "METAR OJAI 171000Z 22010KT 4000 DU NSC 27/04 Q1014 NOSIG",
      "taf": "TAF OJAI 170500Z 1706/1812 25012KT 5000 HZ NSC"
    },
    {
      "icao": "OMAA",
      "alert": "OK",
      "vis_m": 9999,
      "fzfg": false,
      "metar_trigger": false,
      "taf_trigger": false,
      "metar": "METAR OMAA 171030Z 32016KT 260V360 CAVOK 37/18 Q1002 NOSIG",
      "taf": "TAF OMAA 170500Z 1706/1812 16010KT 8000 NSC"
    },
    {
      "icao": "OMDB",
      "alert": "OK",
      "vis_m": 9999,
      "fzfg": false,
      "metar_trigger": false,
      "taf_trigger": false,
      "metar": "METAR OMDB 171030Z 32010KT 300V010 CAVOK 37/21 Q1002 NOSIG",
      "taf": "TAF OMDB 170500Z 1706/1812 12008KT 8000 NSC"
    },
    {
      "icao": "UAAA",
      "alert": "OK",
      "vis_m": 9999,
      "fzfg": false,
      "metar_trigger": false,
      "taf_trigger": false,
      "metar": "METAR UAAA 171030Z 02002MPS 9999 FEW050CB BKN100 24/05 Q1012 NOSIG",
      "taf": "TAF UAAA 170502Z 1706/1806 23002G07MPS 9999 FEW050CB SCT100 TX25/1710Z TN08/1801Z"
    },
    {
      "icao": "UBBB",
      "alert": "OK",
      "vis_m": 9999,
      "fzfg": false,
      "metar_trigger": false,
      "taf_trigger": false,
      "metar": "METAR UBBB 171030Z 31020G30KT 9999 SCT007 SCT030CB OVC030 15/14 Q1001 NOSIG",
      "taf": "TAF UBBB 170502Z 1706/1806 32016G26KT 8000 SCT010 SCT030CB BKN030 TX17/1710Z TN15/1801Z"
    },
    {
      "icao": "UDSG",
      "alert": "OK",
      "vis_m": 9999,
      "fzfg": false,
      "metar_trigger": false,
      "taf_trigger": false,
      "metar": "METAR UDSG 171030Z 23008KT 9999 SCT046CB 17/06 Q1007 NOSIG",
      "taf": "TAF UDSG 170500Z 1706/1806 24006KT 9999 SCT040"
    },
    {
      "icao": "UDYZ",
      "alert": "OK",
      "vis_m": 9999,
      "fzfg": false,
      "metar_trigger": false,
      "taf_trigger": false,
      "metar": "METAR UDYZ 171030Z 26008KT 9999 FEW046 22/06 Q1004 NOSIG",
      "taf": "TAF UDYZ 170500Z 1706/1806 24006KT 9999 SCT040"
    },
    {
      "icao": "UGKO",
      "alert": "OK",
      "vis_m": 9999,
      "fzfg": false,
      "metar_trigger": false,
      "taf_trigger": false,
      "metar": "METAR UGKO 171030Z 27006KT 220V320 CAVOK 22/08 Q1004 NOSIG",
      "taf": "TAF UGKO 170500Z 1706/1806 09010KT CAVOK TX24/1712Z TN11/1802Z"
    }
  ]
}