{
  "ts_utc": "2026-01-08T09:14:34Z",
  "threshold_m": 150,
  "source": "stations_override.txt (ICAO list) + aviationweather.gov (METAR/TAF raw)",
  "station_count": 159,
  "stations": [
    {
      "icao": "BIKF",
      "alert": "OK",
      "vis_m": 9999,
      "fzfg": false,
      "metar_trigger": false,
      "taf_trigger": false,
      "metar": "METAR BIKF 080900Z 07020KT CAVOK 02/M07 Q0999",
      "taf": "TAF BIKF 080746Z 0809/0909 07015KT 9999 FEW045 TX02/0814Z TNM03/0906Z"
    },
    {
      "icao": "BKPR",
      "alert": "OK",
      "vis_m": 9999,
      "fzfg": false,
      "metar_trigger": false,
      "taf_trigger": false,
      "metar": "METAR BKPR 080900Z 30004KT 260V010 9999 -SG SCT014 BKN040 M04/M06 Q1007 NOSIG",
      "taf": "TAF BKPR 080530Z 0806/0906 34010KT 9999 SCT020 BKN040"
    },
    {
      "icao": "EBCI",
      "alert": "OK",
      "vis_m": 3500,
      "fzfg": false,
      "metar_trigger": false,
      "taf_trigger": false,
      "metar": "METAR EBCI 080850Z 17007KT 3500 BR FEW003 SCT005 BKN015 02/01 Q1006 TEMPO 0500 -FZDZRA FG BKN001",
      "taf": ""
    },
    {
      "icao": "EDDB",
      "alert": "OK",
      "vis_m": 9999,
      "fzfg": false,
      "metar_trigger": false,
      "taf_trigger": false,
      "metar": "METAR EDDB 080850Z AUTO 12006KT 9999 SCT028 M09/M12 Q1010 NOSIG",
      "taf": "TAF EDDB 080500Z 0806/0906 12007KT 9000 BKN035"
    },
    {
      "icao": "EDDH",
      "alert": "OK",
      "vis_m": 1700,
      "fzfg": false,
      "metar_trigger": false,
      "taf_trigger": false,
      "metar": "METAR EDDH 080850Z AUTO 15009KT 1700 1100 R23/1900N R15/P2000N SHSN BR SCT006 OVC010 FEW///CB M02/M03 Q1005 TEMPO 3000 -SHSN BKN005",
      "taf": "TAF EDDH 080500Z 0806/0912 13008KT 9999 OVC009"
    },
    {
      "icao": "EDDK",
      "alert": "OK",
      "vis_m": 9999,
      "fzfg": false,
      "metar_trigger": false,
      "taf_trigger": false,
      "metar": "METAR EDDK 080850Z AUTO 13006KT 9999 FEW031 01/M02 Q1007 NOSIG",
      "taf": "TAF EDDK 080500Z 0806/0912 19008KT 9999 OVC040"
    },
    {
      "icao": "EDDN",
      "alert": "OK",
      "vis_m": 9999,
      "fzfg": false,
      "metar_trigger": false,
      "taf_trigger": false,
      "metar": "METAR EDDN 080850Z AUTO 13004KT 100V170 9999 OVC013 M03/M05 Q1010",
      "taf": "TAF EDDN 080500Z 0806/0906 15005KT 9999 BKN015"
    },
    {
      "icao": "EDDS",
      "alert": "OK",
      "vis_m": 9999,
      "fzfg": false,
      "metar_trigger": false,
      "taf_trigger": false,
      "metar": "METAR EDDS 080850Z AUTO VRB02KT 9999 BKN045 00/M03 Q1009 NOSIG",
      "taf": "TAF EDDS 080500Z 0806/0906 22004KT 9999 BKN020"
    },
    {
      "icao": "EDFH",
      "alert": "OK",
      "vis_m": 1500,
      "fzfg": false,
      "metar_trigger": false,
      "taf_trigger": false,
      "metar": "METAR EDFH 080850Z 20009KT 1500 BR OVC001 M01/M01 Q1006",
      "taf": "TAF EDFH 080500Z 0806/0906 24010KT 6000 OVC004"
    },
    {
      "icao": "EDJA",
      "alert": "OK",
      "vis_m": 9999,
      "fzfg": false,
      "metar_trigger": false,
      "taf_trigger": false,
      "metar": "METAR EDJA 080850Z 23009KT 9999 OVC029 M03/M07 Q1010",
      "taf": "TAF EDJA 080800Z 0809/0818 22008KT 9999 SCT025 BKN040"
    },
    {
      "icao": "EDLW",
      "alert": "OK",
      "vis_m": 9999,
      "fzfg": false,
      "metar_trigger": false,
      "taf_trigger": false,
      "metar": "METAR EDLW 080850Z COR 19011KT 9999 FEW017 OVC035 01/M01 Q1006",
      "taf": "TAF EDLW 080500Z 0806/0906 19011KT 9999 FEW015 OVC040"
    },
    {
      "icao": "EDNY",
      "alert": "OK",
      "vis_m": 8000,
      "fzfg": false,
      "metar_trigger": false,
      "taf_trigger": false,
      "metar": "METAR EDNY 080850Z VRB01KT 8000 -SN SCT041 SCT050 OVC057 M02/M05 Q1012",
      "taf": "TAF EDNY 080800Z 0809/0818 17003KT 9000 SCT030 BKN040"
    },
    {
      "icao": "EDSB",
      "alert": "OK",
      "vis_m": 9999,
      "fzfg": false,
      "metar_trigger": false,
      "taf_trigger": false,
      "metar": "METAR EDSB 080850Z 20014KT 9999 BKN033 OVC046 02/M01 Q1010",
      "taf": "TAF EDSB 080500Z 0806/0906 20010KT 9999 BKN025"
    },
    {
      "icao": "EETN",
      "alert": "OK",
      "vis_m": 9999,
      "fzfg": false,
      "metar_trigger": false,
      "taf_trigger": false,
      "metar": "METAR EETN 080850Z VRB02KT 9999 OVC026 M07/M08 Q1019 NOSIG",
      "taf": "TAF EETN 080530Z 0806/0906 VRB02KT 9999 OVC025"
    },
    {
      "icao": "EFTU",
      "alert": "OK",
      "vis_m": 9999,
      "fzfg": false,
      "metar_trigger": false,
      "taf_trigger": false,
      "metar": "METAR EFTU 080850Z AUTO 10008KT 9999 BKN032 M09/M11 Q1019",
      "taf": "TAF EFTU 080829Z 0809/0909 10007KT 9999 BKN030"
    },
    {
      "icao": "EGBB",
      "alert": "OK",
      "vis_m": 250,
      "fzfg": false,
      "metar_trigger": false,
      "taf_trigger": false,
      "metar": "METAR EGBB 080850Z 15004KT 0250 R15/0900N FG OVC002 02/02 Q1003",
      "taf": ""
    },
    {
      "icao": "EGGP",
      "alert": "OK",
      "vis_m": 8000,
      "fzfg": false,
      "metar_trigger": false,
      "taf_trigger": false,
      "metar": "METAR EGGP 080850Z 11004KT 8000 -RA SCT005 BKN006 OVC010 02/02 Q1003",
      "taf": "TAF EGGP 080500Z 0806/0906 17003KT 9999 SCT020"
    },
    {
      "icao": "EGGW",
      "alert": "OK",
      "vis_m": 700,
      "fzfg": false,
      "metar_trigger": false,
      "taf_trigger": false,
      "metar": "METAR EGGW 080850Z 17003KT 0700 R25/0900N FG OVC003 01/01 Q1003",
      "taf": "TAF EGGW 080456Z 0806/0906 24004KT 9999 SCT030"
    },
    {
      "icao": "EGKK",
      "alert": "OK",
      "vis_m": 3000,
      "fzfg": false,
      "metar_trigger": false,
      "taf_trigger": false,
      "metar": "METAR EGKK 080850Z 12001KT 3000 BR BKN002 03/03 Q1004",
      "taf": "TAF EGKK 080452Z 0806/0912 20004KT 9999 BKN015"
    },
    {
      "icao": "EGNM",
      "alert": "OK",
      "vis_m": 9999,
      "fzfg": false,
      "metar_trigger": false,
      "taf_trigger": false,
      "metar": "METAR EGNM 080850Z 28005KT CAVOK M00/M02 Q1002",
      "taf": "TAF EGNM 080503Z 0806/0906 28003KT 9999 FEW015"
    },
    {
      "icao": "EGPD",
      "alert": "OK",
      "vis_m": 9999,
      "fzfg": true,
      "metar_trigger": false,
      "taf_trigger": false,
      "metar": "METAR EGPD 080850Z AUTO 23003KT 190V260 9999 BKN004 M01/M01 Q1000 BECMG SCT006",
      "taf": "TAF EGPD 080453Z 0806/0906 17005KT 0200 FZFG VV///"
    },
    {
      "icao": "EGPF",
      "alert": "OK",
      "vis_m": 9999,
      "fzfg": false,
      "metar_trigger": false,
      "taf_trigger": false,
      "metar": "METAR EGPF 080850Z 09003KT 050V130 9999 OVC024 M01/M02 Q1001 REFZDZ",
      "taf": "TAF EGPF 080455Z 0806/0906 VRB04KT 9999 SCT025"
    },
    {
      "icao": "EHBK",
      "alert": "OK",
      "vis_m": 9999,
      "fzfg": false,
      "metar_trigger": false,
      "taf_trigger": false,
      "metar": "METAR EHBK 080855Z AUTO 20011KT 9999 BKN009/// 01/00 Q1006 BECMG SCT009",
      "taf": "TAF EHBK 080520Z 0806/0912 20008KT CAVOK"
    },
    {
      "icao": "EHEH",
      "alert": "OK",
      "vis_m": 6000,
      "fzfg": false,
      "metar_trigger": false,
      "taf_trigger": false,
      "metar": "METAR EHEH 080855Z AUTO 17003KT 6000 BR FEW091 SCT098 OVC100 M00/M01 Q1006 WHT NOSIG RMK TREND REMOTE BY EHWX",
      "taf": "TAF EHEH 080550Z 0806/0912 21010KT 9999 BKN030"
    },
    {
      "icao": "EKBI",
      "alert": "OK",
      "vis_m": 7000,
      "fzfg": false,
      "metar_trigger": false,
      "taf_trigger": false,
      "metar": "METAR EKBI 080850Z AUTO 13004KT 090V150 7000 FEW009/// OVC023/// M02/M03 Q1005",
      "taf": "TAF EKBI 080827Z 0809/0909 12008KT 7000 BKN006"
    },
    {
      "icao": "EKCH",
      "alert": "OK",
      "vis_m": 9999,
      "fzfg": false,
      "metar_trigger": false,
      "taf_trigger": false,
      "metar": "METAR EKCH 080850Z 16013KT 9999 BKN014 M01/M04 Q1009 TEMPO BKN015",
      "taf": "TAF EKCH 080827Z 0809/0909 16015KT 9999 BKN016"
    },
    {
      "icao": "ENAL",
      "alert": "OK",
      "vis_m": 9999,
      "fzfg": false,
      "metar_trigger": false,
      "taf_trigger": false,
      "metar": "METAR ENAL 080850Z 15008KT 9999 4500W -SHSN SCT025TCU SCT040 M04/M08 Q1003",
      "taf": "TAF ENAL 080800Z 0809/0818 16008KT 9999 SCT040"
    },
    {
      "icao": "ENBR",
      "alert": "OK",
      "vis_m": 9999,
      "fzfg": false,
      "metar_trigger": false,
      "taf_trigger": false,
      "metar": "METAR ENBR 080850Z 09003KT CAVOK M11/M16 Q1005 NOSIG RMK WIND 1200FT 11004KT",
      "taf": "TAF ENBR 080500Z 0806/0906 07005KT CAVOK"
    },
    {
      "icao": "ENGM",
      "alert": "OK",
      "vis_m": 9999,
      "fzfg": false,
      "metar_trigger": false,
      "taf_trigger": false,
      "metar": "METAR ENGM 080850Z 21006KT 9999 FEW022 M12/M13 Q1002 NOSIG",
      "taf": "TAF ENGM 080500Z 0806/0906 27003KT 9999 BKN018"
    },
    {
      "icao": "ENHD",
      "alert": "OK",
      "vis_m": 9999,
      "fzfg": false,
      "metar_trigger": false,
      "taf_trigger": false,
      "metar": "METAR ENHD 080850Z 11005KT CAVOK M13/M15 Q1006",
      "taf": "TAF ENHD 080800Z 0809/0818 10008KT CAVOK"
    },
    {
      "icao": "ENTC",
      "alert": "OK",
      "vis_m": 9999,
      "fzfg": false,
      "metar_trigger": false,
      "taf_trigger": false,
      "metar": "METAR ENTC 080850Z 13002G13KT CAVOK M09/M15 Q1022 NOSIG RMK WIND 2600FT 17042KT",
      "taf": ""
    },
    {
      "icao": "ENTO",
      "alert": "OK",
      "vis_m": 9999,
      "fzfg": false,
      "metar_trigger": false,
      "taf_trigger": false,
      "metar": "METAR ENTO 080850Z 24004KT CAVOK M11/M13 Q1004 NOSIG",
      "taf": "TAF ENTO 080500Z 0806/0906 27003KT CAVOK"
    },
    {
      "icao": "ENVA",
      "alert": "OK",
      "vis_m": 9999,
      "fzfg": false,
      "metar_trigger": false,
      "taf_trigger": false,
      "metar": "METAR ENVA 080850Z 07015KT CAVOK M06/M13 Q1005 NOSIG RMK WIND 670FT 07019KT",
      "taf": "TAF ENVA 080500Z 0806/0906 07012KT 9999 -SN SCT050"
    },
    {
      "icao": "ENZV",
      "alert": "OK",
      "vis_m": 9999,
      "fzfg": false,
      "metar_trigger": false,
      "taf_trigger": false,
      "metar": "METAR ENZV 080850Z 13002KT CAVOK M13/M14 Q1005 NOSIG",
      "taf": "TAF ENZV 080500Z 0806/0906 13005KT CAVOK"
    },
    {
      "icao": "EPGD",
      "alert": "OK",
      "vis_m": 3000,
      "fzfg": false,
      "metar_trigger": false,
      "taf_trigger": false,
      "metar": "METAR EPGD 080900Z 29003KT 3000 BR NSC M10/M12 Q1013",
      "taf": "TAF EPGD 080530Z 0806/0906 VRB02KT 1500 BR OVC002"
    },
    {
      "icao": "EPKK",
      "alert": "OK",
      "vis_m": 1600,
      "fzfg": false,
      "metar_trigger": false,
      "taf_trigger": false,
      "metar": "METAR EPKK 080900Z 26004KT 1600 -SN BR SCT010 BKN023 M06/M08 Q1009",
      "taf": "TAF EPKK 080830Z 0809/0909 25004KT 5000 -SN BR FEW008 BKN020"
    },
    {
      "icao": "EPKT",
      "alert": "OK",
      "vis_m": 2600,
      "fzfg": false,
      "metar_trigger": false,
      "taf_trigger": false,
      "metar": "METAR EPKT 080900Z 35005KT 2600 -SN BR FEW002 BKN007 BKN030 M07/M09 Q1009",
      "taf": "TAF EPKT 080530Z 0806/0906 34005KT 5000 -SN BR SCT004 BKN009"
    },
    {
      "icao": "EPLB",
      "alert": "OK",
      "vis_m": 1600,
      "fzfg": false,
      "metar_trigger": false,
      "taf_trigger": false,
      "metar": "METAR EPLB 080900Z 02006KT 1600 -SN BR FEW006 OVC018 M06/M07 Q1007 RESN",
      "taf": "TAF EPLB 080530Z 0806/0906 01010KT 4000 -SN BR SCT005 OVC015"
    },
    {
      "icao": "EPMO",
      "alert": "OK",
      "vis_m": 2300,
      "fzfg": false,
      "metar_trigger": false,
      "taf_trigger": false,
      "metar": "METAR EPMO 080900Z 02006KT 360V060 2300 BR BKN006 M10/M10 Q1011",
      "taf": ""
    },
    {
      "icao": "EPPO",
      "alert": "OK",
      "vis_m": 3500,
      "fzfg": false,
      "metar_trigger": false,
      "taf_trigger": false,
      "metar": "METAR EPPO 080900Z 09004KT 3500 BR BKN005 M07/M09 Q1013",
      "taf": ""
    },
    {
      "icao": "EPRA",
      "alert": "OK",
      "vis_m": 2000,
      "fzfg": false,
      "metar_trigger": false,
      "taf_trigger": false,
      "metar": "METAR EPRA 080900Z 35007KT 2000 -SN BR OVC021 M08/M09 Q1009",
      "taf": "TAF EPRA 080830Z 0809/0818 35010KT 2500 -SN BR OVC020"
    },
    {
      "icao": "EPRZ",
      "alert": "OK",
      "vis_m": 1700,
      "fzfg": false,
      "metar_trigger": false,
      "taf_trigger": false,
      "metar": "METAR EPRZ 080900Z 32007KT 1700 -SN BR OVC023 M05/M06 Q1006",
      "taf": "TAF EPRZ 080530Z 0806/0906 35008KT 4000 -SN BR FEW009 OVC020"
    },
    {
      "icao": "EPSC",
      "alert": "OK",
      "vis_m": 7000,
      "fzfg": false,
      "metar_trigger": false,
      "taf_trigger": false,
      "metar": "METAR EPSC 080900Z 13010KT 7000 NSC M07/M09 Q1011",
      "taf": "TAF EPSC 080530Z 0806/0906 13008KT 5000 BR SCT007"
    },
    {
      "icao": "EPSY",
      "alert": "OK",
      "vis_m": 4500,
      "fzfg": false,
      "metar_trigger": false,
      "taf_trigger": false,
      "metar": "METAR EPSY 080900Z 03005KT 4500 BR SCT025 M11/M12 Q1012",
      "taf": "TAF EPSY 080830Z 0809/0818 02006KT 7000 BKN025"
    },
    {
      "icao": "EPWA",
      "alert": "OK",
      "vis_m": 3000,
      "fzfg": false,
      "metar_trigger": false,
      "taf_trigger": false,
      "metar": "METAR EPWA 080900Z 36005KT 3000 BR BKN007 M08/M09 Q1011 NOSIG",
      "taf": "TAF EPWA 080830Z 0809/0909 02005KT 3500 BR BKN006"
    },
    {
      "icao": "EPWR",
      "alert": "OK",
      "vis_m": 3500,
      "fzfg": false,
      "metar_trigger": false,
      "taf_trigger": false,
      "metar": "METAR EPWR 080900Z 26003KT 3500 BR BKN020 M08/M10 Q1012",
      "taf": "TAF EPWR 080830Z 0809/0909 12003KT 4000 BR BKN020"
    },
    {
      "icao": "ESGG",
      "alert": "OK",
      "vis_m": 8000,
      "fzfg": false,
      "metar_trigger": false,
      "taf_trigger": false,
      "metar": "METAR ESGG 080850Z 16011KT 8000 OVC005 M03/M04 Q1006",
      "taf": "TAF ESGG 080830Z 0809/0909 16012KT 7000 -SN SCT006 BKN015"
    },
    {
      "icao": "ESKN",
      "alert": "OK",
      "vis_m": 9999,
      "fzfg": false,
      "metar_trigger": false,
      "taf_trigger": false,
      "metar": "METAR ESKN 080850Z 17008KT 150V210 9999 BKN023 M02/M04 Q1011",
      "taf": "TAF ESKN 080830Z 0809/0909 18012KT 9999 BKN020"
    },
    {
      "icao": "ESMS",
      "alert": "OK",
      "vis_m": 9999,
      "fzfg": false,
      "metar_trigger": false,
      "taf_trigger": false,
      "metar": "METAR ESMS 080850Z 15011KT CAVOK M03/M07 Q1009",
      "taf": "TAF ESMS 080827Z 0809/0909 16010KT 9999 SCT015"
    },
    {
      "icao": "ESSA",
      "alert": "OK",
      "vis_m": 9999,
      "fzfg": false,
      "metar_trigger": false,
      "taf_trigger": false,
      "metar": "METAR ESSA 080850Z 15012KT 9999 OVC033 M01/M03 Q1012 NOSIG",
      "taf": "TAF ESSA 080830Z 0809/0909 15014KT 9999 BKN030"
    },
    {
      "icao": "EYKA",
      "alert": "OK",
      "vis_m": 4900,
      "fzfg": false,
      "metar_trigger": false,
      "taf_trigger": false,
      "metar": "METAR EYKA 080850Z VRB02KT 4900 BR OVC004 M09/M10 Q1014",
      "taf": "TAF EYKA 080506Z 0806/0906 VRB05KT 5000 BR OVC005"
    },
    {
      "icao": "EYPA",
      "alert": "OK",
      "vis_m": 9999,
      "fzfg": false,
      "metar_trigger": false,
      "taf_trigger": false,
      "metar": "METAR EYPA 080850Z 09004KT CAVOK M13/M15 Q1016",
      "taf": "TAF EYPA 080506Z 0806/0906 VRB04KT 6000 NSC"
    },
    {
      "icao": "EYVI",
      "alert": "OK",
      "vis_m": 9999,
      "fzfg": false,
      "metar_trigger": false,
      "taf_trigger": false,
      "metar": "METAR EYVI 080850Z 05013KT 9999 OVC007 M08/M10 Q1012 NOSIG",
      "taf": "TAF EYVI 080515Z 0806/0906 06010KT 5000 BR OVC005"
    },
    {
      "icao": "GCFV",
      "alert": "OK",
      "vis_m": 9999,
      "fzfg": false,
      "metar_trigger": false,
      "taf_trigger": false,
      "metar": "METAR GCFV 080900Z 04015KT 9999 FEW032 SCT038 18/11 Q1030",
      "taf": "TAF GCFV 080800Z 0809/0909 06015KT 9999 FEW035 TX20/0814Z TN15/0906Z"
    },
    {
      "icao": "GCLP",
      "alert": "OK",
      "vis_m": 9999,
      "fzfg": false,
      "metar_trigger": false,
      "taf_trigger": false,
      "metar": "METAR GCLP 080900Z 04013KT 9999 BKN035 18/10 Q1031 NOSIG",
      "taf": "TAF GCLP 080800Z 0809/0909 06017KT 9999 SCT035 TX20/0814Z TN15/0906Z"
    },
    {
      "icao": "GCTS",
      "alert": "OK",
      "vis_m": 9999,
      "fzfg": false,
      "metar_trigger": false,
      "taf_trigger": false,
      "metar": "METAR GCTS 080900Z 07021KT 9999 FEW040 18/08 Q1030 NOSIG",
      "taf": "TAF GCTS 080800Z 0809/0909 07019KT 9999 SCT040 TX23/0814Z TN15/0906Z"
    },
    {
      "icao": "GMAD",
      "alert": "OK",
      "vis_m": 9999,
      "fzfg": false,
      "metar_trigger": false,
      "taf_trigger": false,
      "metar": "METAR GMAD 080900Z 05006KT CAVOK 08/06 Q1030 NOSIG",
      "taf": "TAF GMAD 080500Z 0806/0912 07006KT CAVOK"
    },
    {
      "icao": "GMMN",
      "alert": "OK",
      "vis_m": 9999,
      "fzfg": false,
      "metar_trigger": false,
      "taf_trigger": false,
      "metar": "METAR GMMN 080900Z 14003KT 100V200 CAVOK 07/06 Q1033 NOSIG",
      "taf": "TAF GMMN 080500Z 0806/0912 12004KT CAVOK"
    },
    {
      "icao": "GMMX",
      "alert": "OK",
      "vis_m": 9999,
      "fzfg": false,
      "metar_trigger": false,
      "taf_trigger": false,
      "metar": "METAR GMMX 080900Z 08006KT CAVOK 07/03 Q1031 NOSIG",
      "taf": "TAF GMMX 080500Z 0806/0912 24004KT 8000 NSC"
    },
    {
      "icao": "HEGN",
      "alert": "OK",
      "vis_m": 9999,
      "fzfg": false,
      "metar_trigger": false,
      "taf_trigger": false,
      "metar": "METAR HEGN 080900Z 34003KT CAVOK 25/07 Q1019 NOSIG",
      "taf": "TAF HEGN 080500Z 0806/0912 33013KT CAVOK"
    },
    {
      "icao": "HEMA",
      "alert": "OK",
      "vis_m": 9999,
      "fzfg": false,
      "metar_trigger": false,
      "taf_trigger": false,
      "metar": "METAR HEMA 080900Z 02008KT CAVOK 27/12 Q1019 NOSIG",
      "taf": "TAF HEMA 080500Z 0806/0912 33015KT 6000 NSC"
    },
    {
      "icao": "HESH",
      "alert": "OK",
      "vis_m": 9999,
      "fzfg": false,
      "metar_trigger": false,
      "taf_trigger": false,
      "metar": "METAR HESH 080900Z 02007KT CAVOK 26/13 Q1019 NOSIG",
      "taf": "TAF HESH 080500Z 0806/0912 35011KT CAVOK"
    },
    {
      "icao": "HESX",
      "alert": "OK",
      "vis_m": 9999,
      "fzfg": false,
      "metar_trigger": false,
      "taf_trigger": false,
      "metar": "METAR HESX 080900Z 18012KT CAVOK 22/03 Q1017 NOSIG",
      "taf": "TAF HESX 080500Z 0806/0912 21010KT 9999 SCT025"
    },
    {
      "icao": "LATI",
      "alert": "OK",
      "vis_m": 9999,
      "fzfg": false,
      "metar_trigger": false,
      "taf_trigger": false,
      "metar": "METAR LATI 080850Z 29011KT 250V320 9999 SCT036 BKN055 08/02 Q1008 NOSIG",
      "taf": "TAF LATI 080500Z 0806/0906 30007KT 9999 -RA FEW025TCU SCT035 BKN070 TX08/0812Z TN00/0905Z"
    },
    {
      "icao": "LBPD",
      "alert": "OK",
      "vis_m": 9999,
      "fzfg": false,
      "metar_trigger": false,
      "taf_trigger": false,
      "metar": "METAR LBPD 080900Z AUTO 29027KT 9999 -RA FEW053/// BKN060/// OVC069/// 03/01 Q0998 TEMPO 5000 RA",
      "taf": "TAF LBPD 080500Z 0806/0906 29020G35KT 9999 BKN040"
    },
    {
      "icao": "LBSF",
      "alert": "OK",
      "vis_m": 2000,
      "fzfg": false,
      "metar_trigger": false,
      "taf_trigger": false,
      "metar": "METAR LBSF 080900Z 29018G28KT 2000 -SN BR FEW029 BKN049 OVC057 M04/M07 Q1003 NOSIG",
      "taf": "TAF LBSF 080500Z 0806/0906 28014G30KT 5000 -SN SCT012 OVC025"
    },
    {
      "icao": "LBWN",
      "alert": "OK",
      "vis_m": 9999,
      "fzfg": false,
      "metar_trigger": false,
      "taf_trigger": false,
      "metar": "METAR LBWN 080900Z 27016KT 9999 BKN014 OVC030 04/02 Q0998 TEMPO 27018G30KT",
      "taf": "TAF LBWN 080500Z 0806/0906 28018G28KT 9999 OVC035"
    },
    {
      "icao": "LCLK",
      "alert": "OK",
      "vis_m": 8000,
      "fzfg": false,
      "metar_trigger": false,
      "taf_trigger": false,
      "metar": "METAR LCLK 080900Z 06007KT 8000 NSC 20/16 Q1017 NOSIG",
      "taf": "TAF LCLK 080530Z 0806/0906 10006KT 9999 FEW025"
    },
    {
      "icao": "LCPH",
      "alert": "OK",
      "vis_m": 9999,
      "fzfg": false,
      "metar_trigger": false,
      "taf_trigger": false,
      "metar": "METAR LCPH 080900Z 15016KT 090V160 CAVOK 22/05 Q1016 NOSIG",
      "taf": "TAF LCPH 080530Z 0806/0906 07007KT 9999 FEW025"
    },
    {
      "icao": "LEAL",
      "alert": "OK",
      "vis_m": 9999,
      "fzfg": false,
      "metar_trigger": false,
      "taf_trigger": false,
      "metar": "METAR LEAL 080900Z 29010KT 250V330 CAVOK 12/03 Q1028 NOSIG",
      "taf": ""
    },
    {
      "icao": "LEBB",
      "alert": "OK",
      "vis_m": 9999,
      "fzfg": false,
      "metar_trigger": false,
      "taf_trigger": false,
      "metar": "METAR LEBB 080900Z VRB03KT 9999 SCT040 11/05 Q1023 NOSIG",
      "taf": "TAF LEBB 080500Z 0806/0906 22009KT 9999 FEW030 SCT050 TX14/0814Z TN07/0906Z"
    },
    {
      "icao": "LEBL",
      "alert": "OK",
      "vis_m": 9999,
      "fzfg": false,
      "metar_trigger": false,
      "taf_trigger": false,
      "metar": "METAR LEBL 080900Z 33006KT 270V350 9999 FEW020 08/04 Q1021 NOSIG",
      "taf": "TAF LEBL 080500Z 0806/0906 33009KT 9999 FEW015 TX15/0813Z TN04/0806Z"
    },
    {
      "icao": "LECH",
      "alert": "OK",
      "vis_m": 9999,
      "fzfg": false,
      "metar_trigger": false,
      "taf_trigger": false,
      "metar": "METAR LECH 080900Z AUTO 24008KT CAVOK 13/03 Q1024",
      "taf": ""
    },
    {
      "icao": "LEMD",
      "alert": "OK",
      "vis_m": 800,
      "fzfg": false,
      "metar_trigger": false,
      "taf_trigger": false,
      "metar": "METAR LEMD 080900Z 35005KT 330V030 0800 R32L/1900D R32R/P2000 FG BKN002 OVC004 00/00 Q1030 NOSIG",
      "taf": "TAF LEMD 080500Z 0806/0912 VRB03KT 4000 BR BKN004 TX10/0912Z TNM00/0806Z"
    },
    {
      "icao": "LEMG",
      "alert": "OK",
      "vis_m": 9999,
      "fzfg": false,
      "metar_trigger": false,
      "taf_trigger": false,
      "metar": "METAR LEMG 080900Z 28007KT 250V320 CAVOK 10/06 Q1031 NOSIG",
      "taf": "TAF LEMG 080500Z 0806/0906 29012KT 9999 FEW035 TX16/0814Z TN06/0806Z"
    },
    {
      "icao": "LEVC",
      "alert": "OK",
      "vis_m": 9999,
      "fzfg": false,
      "metar_trigger": false,
      "taf_trigger": false,
      "metar": "METAR LEVC 080900Z 25015KT CAVOK 09/02 Q1027 NOSIG",
      "taf": "TAF LEVC 080500Z 0806/0906 25012KT CAVOK TX15/0814Z TN06/0806Z"
    },
    {
      "icao": "LEXJ",
      "alert": "OK",
      "vis_m": 9999,
      "fzfg": false,
      "metar_trigger": false,
      "taf_trigger": false,
      "metar": "METAR LEXJ 080900Z 23008KT 180V280 9999 FEW050 11/05 Q1022",
      "taf": "TAF LEXJ 080800Z 0809/0909 24009KT 9999 FEW030 SCT060 TX15/0813Z TN10/0906Z"
    },
    {
      "icao": "LEZG",
      "alert": "OK",
      "vis_m": 9999,
      "fzfg": false,
      "metar_trigger": false,
      "taf_trigger": false,
      "metar": "METAR LEZG 080900Z 25007KT CAVOK 09/03 Q1025 NOSIG",
      "taf": "TAF LEZG 080500Z 0806/0906 VRB04KT CAVOK TX12/0815Z TN05/0806Z"
    },
    {
      "icao": "LEZL",
      "alert": "OK",
      "vis_m": 9999,
      "fzfg": false,
      "metar_trigger": false,
      "taf_trigger": false,
      "metar": "METAR LEZL 080900Z 04005KT 9999 OVC020 08/07 Q1034 NOSIG",
      "taf": "TAF LEZL 080800Z 0809/0909 02004KT 9999 SCT020 TX14/0815Z TN09/0907Z"
    },
    {
      "icao": "LFBD",
      "alert": "OK",
      "vis_m": 9999,
      "fzfg": false,
      "metar_trigger": false,
      "taf_trigger": false,
      "metar": "METAR LFBD 080900Z AUTO 27014KT 9999 3600 BKN015 BKN021 OVC043 12/11 Q1019 TEMPO 27015G25KT 4000 -RA BKN010 OVC025",
      "taf": "TAF LFBD 080500Z 0806/0912 27010KT 9999 BKN025 TX13/0814Z TN08/0906Z"
    },
    {
      "icao": "LFLL",
      "alert": "OK",
      "vis_m": 1600,
      "fzfg": false,
      "metar_trigger": false,
      "taf_trigger": false,
      "metar": "METAR LFLL 080900Z 14005KT 1600 RASN BR SCT008 OVC026 00/M00 Q1015 TEMPO 4000 RA BKN012",
      "taf": ""
    },
    {
      "icao": "LFLS",
      "alert": "OK",
      "vis_m": 8000,
      "fzfg": false,
      "metar_trigger": false,
      "taf_trigger": false,
      "metar": "METAR LFLS 080900Z AUTO 08008KT 8000 -DZ FEW012/// BKN025/// OVC032/// ///CB 00/M00 Q1015",
      "taf": "TAF LFLS 080200Z 0803/0903 08005KT 9999 OVC050"
    },
    {
      "icao": "LFMN",
      "alert": "OK",
      "vis_m": 9999,
      "fzfg": false,
      "metar_trigger": false,
      "taf_trigger": false,
      "metar": "METAR LFMN 080900Z 33010KT CAVOK 05/M07 Q1013 NOSIG",
      "taf": "TAF LFMN 080800Z 0809/0915 32010KT CAVOK"
    },
    {
      "icao": "LFOB",
      "alert": "OK",
      "vis_m": 9999,
      "fzfg": false,
      "metar_trigger": false,
      "taf_trigger": false,
      "metar": "METAR LFOB 080900Z AUTO 26007KT 9999 BKN005 BKN042 05/05 Q1006 BECMG BKN013",
      "taf": "TAF LFOB 080500Z 0806/0906 VRB03KT 9999 OVC009"
    },
    {
      "icao": "LFPO",
      "alert": "OK",
      "vis_m": 9999,
      "fzfg": false,
      "metar_trigger": false,
      "taf_trigger": false,
      "metar": "METAR LFPO 080900Z 26004KT 9999 SCT020 BKN043 05/05 Q1008 NOSIG",
      "taf": ""
    },
    {
      "icao": "LFSB",
      "alert": "OK",
      "vis_m": 3800,
      "fzfg": false,
      "metar_trigger": false,
      "taf_trigger": false,
      "metar": "METAR LFSB 080900Z AUTO 17005KT 3800 -SN BR FEW004/// SCT014/// BKN024/// ///TCU M00/M01 Q1011 TEMPO 1500 -SN BKN003",
      "taf": "TAF LFSB 080500Z 0806/0906 VRB03KT 7000 FEW010 BKN020"
    },
    {
      "icao": "LGAV",
      "alert": "OK",
      "vis_m": 9999,
      "fzfg": false,
      "metar_trigger": false,
      "taf_trigger": false,
      "metar": "METAR LGAV 080850Z 26012KT 9999 SCT040 14/05 Q1008 NOSIG",
      "taf": "TAF LGAV 080500Z 0806/0906 26014G30KT 9999 FEW020 SCT030"
    },
    {
      "icao": "LGTS",
      "alert": "OK",
      "vis_m": 9999,
      "fzfg": false,
      "metar_trigger": false,
      "taf_trigger": false,
      "metar": "METAR LGTS 080850Z 25016KT 9999 FEW020 14/04 Q1002 NOSIG",
      "taf": ""
    },
    {
      "icao": "LHBP",
      "alert": "OK",
      "vis_m": 9999,
      "fzfg": false,
      "metar_trigger": false,
      "taf_trigger": false,
      "metar": "METAR LHBP 080900Z 31014G24KT 9999 DRSN NSC M06/M09 Q1008 NOSIG",
      "taf": "TAF LHBP 080515Z 0806/0906 30013KT CAVOK"
    },
    {
      "icao": "LHDC",
      "alert": "OK",
      "vis_m": 6000,
      "fzfg": false,
      "metar_trigger": false,
      "taf_trigger": false,
      "metar": "METAR LHDC 080845Z AUTO 25006KT 210V270 6000 FEW029 M06/M08 Q1006 NOSIG",
      "taf": "TAF LHDC 080815Z 0809/0818 28008KT CAVOK"
    },
    {
      "icao": "LIBD",
      "alert": "OK",
      "vis_m": 9999,
      "fzfg": false,
      "metar_trigger": false,
      "taf_trigger": false,
      "metar": "METAR LIBD 080850Z 28012KT 9999 FEW005 SCT030 05/M02 Q1012",
      "taf": "TAF LIBD 080500Z 0806/0906 28020G30KT CAVOK"
    },
    {
      "icao": "LIBG",
      "alert": "OK",
      "vis_m": 9999,
      "fzfg": false,
      "metar_trigger": false,
      "taf_trigger": false,
      "metar": "METAR LIBG 080850Z 26007KT 220V310 CAVOK 07/03 Q1012",
      "taf": "TAF LIBG 080800Z 0809/0818 32015KT 9999 SCT025"
    },
    {
      "icao": "LIBP",
      "alert": "OK",
      "vis_m": 9999,
      "fzfg": false,
      "metar_trigger": false,
      "taf_trigger": false,
      "metar": "METAR LIBP 080850Z AUTO 23006KT 9999 NCD 04/M02 Q1015",
      "taf": "TAF LIBP 080500Z 0806/0906 23006KT 9999 BKN030"
    },
    {
      "icao": "LIBR",
      "alert": "OK",
      "vis_m": 9999,
      "fzfg": false,
      "metar_trigger": false,
      "taf_trigger": false,
      "metar": "METAR LIBR 080850Z 29016KT 9999 FEW030 07/M00 Q1010",
      "taf": "TAF LIBR 080500Z 0806/0906 31022G33KT 9999 SCT030"
    },
    {
      "icao": "LICA",
      "alert": "OK",
      "vis_m": 9999,
      "fzfg": false,
      "metar_trigger": false,
      "taf_trigger": false,
      "metar": "METAR LICA 080850Z AUTO 27019KT 9999 FEW028/// SCT059/// BKN086/// 11/07 Q1014 RERA",
      "taf": "TAF LICA 080500Z 0806/0906 28020G30KT 9999 SCT030"
    },
    {
      "icao": "LICC",
      "alert": "OK",
      "vis_m": 9999,
      "fzfg": false,
      "metar_trigger": false,
      "taf_trigger": false,
      "metar": "METAR LICC 080850Z 28016KT CAVOK 12/09 Q1016",
      "taf": "TAF LICC 080500Z 0806/0906 27015KT 9999 FEW060"
    },
    {
      "icao": "LICJ",
      "alert": "OK",
      "vis_m": 7000,
      "fzfg": false,
      "metar_trigger": false,
      "taf_trigger": false,
      "metar": "METAR LICJ 080850Z 27032KT 7000 RA SCT040 SCT060 14/08 Q1017",
      "taf": "TAF LICJ 080500Z 0806/0906 28025G35KT 9999 SCT020"
    },
    {
      "icao": "LIMC",
      "alert": "OK",
      "vis_m": 9999,
      "fzfg": false,
      "metar_trigger": false,
      "taf_trigger": false,
      "metar": "METAR LIMC 080850Z VRB02KT CAVOK M02/M04 Q1013 NOSIG",
      "taf": "TAF LIMC 080500Z 0806/0912 VRB04KT CAVOK"
    },
    {
      "icao": "LIME",
      "alert": "OK",
      "vis_m": 9999,
      "fzfg": false,
      "metar_trigger": false,
      "taf_trigger": false,
      "metar": "METAR LIME 080850Z VRB02KT CAVOK M01/M09 Q1012 NOSIG",
      "taf": "TAF LIME 080500Z 0806/0906 VRB04KT CAVOK"
    },
    {
      "icao": "LIMF",
      "alert": "OK",
      "vis_m": 9000,
      "fzfg": false,
      "metar_trigger": false,
      "taf_trigger": false,
      "metar": "METAR LIMF 080850Z VRB01KT 9000 FEW080 00/M07 Q1012",
      "taf": "TAF LIMF 080500Z 0806/0906 VRB03KT CAVOK"
    },
    {
      "icao": "LIMJ",
      "alert": "OK",
      "vis_m": 9999,
      "fzfg": false,
      "metar_trigger": false,
      "taf_trigger": false,
      "metar": "METAR LIMJ 080850Z 06008KT 9999 SCT025 06/M01 Q1013",
      "taf": "TAF LIMJ 080500Z 0806/0906 04010KT CAVOK"
    },
    {
      "icao": "LIPE",
      "alert": "OK",
      "vis_m": 9999,
      "fzfg": false,
      "metar_trigger": false,
      "taf_trigger": false,
      "metar": "METAR LIPE 080850Z 21004KT CAVOK M02/M07 Q1014",
      "taf": "TAF LIPE 080500Z 0806/0906 VRB05KT 9999 FEW030"
    },
    {
      "icao": "LIPH",
      "alert": "OK",
      "vis_m": 9999,
      "fzfg": false,
      "metar_trigger": false,
      "taf_trigger": false,
      "metar": "METAR LIPH 080850Z VRB01KT CAVOK M01/M06 Q1013",
      "taf": "TAF LIPH 080500Z 0806/0906 VRB05KT CAVOK"
    },
    {
      "icao": "LIPQ",
      "alert": "OK",
      "vis_m": 9999,
      "fzfg": false,
      "metar_trigger": false,
      "taf_trigger": false,
      "metar": "METAR LIPQ 080850Z AUTO VRB01KT 9999 NCD M01/M08 Q1013",
      "taf": "TAF LIPQ 080500Z 0806/0906 VRB05KT 9999 SCT070"
    },
    {
      "icao": "LIPR",
      "alert": "OK",
      "vis_m": 9999,
      "fzfg": false,
      "metar_trigger": false,
      "taf_trigger": false,
      "metar": "METAR LIPR 080850Z VRB02KT CAVOK M02/M05 Q1014",
      "taf": "TAF LIPR 080500Z 0806/0906 25008KT 9999 SCT030"
    },
    {
      "icao": "LIPX",
      "alert": "OK",
      "vis_m": 300,
      "fzfg": true,
      "metar_trigger": false,
      "taf_trigger": false,
      "metar": "METAR LIPX 080850Z VRB02KT 0300 R04/0700U FZFG VV002 M05/M06 Q1013",
      "taf": ""
    },
    {
      "icao": "LIPY",
      "alert": "OK",
      "vis_m": 9999,
      "fzfg": false,
      "metar_trigger": false,
      "taf_trigger": false,
      "metar": "METAR LIPY 080850Z AUTO 21006KT 9999 NCD 02/M04 Q1014",
      "taf": "TAF LIPY 080500Z 0806/0906 23006KT 9999 SCT030"
    },
    {
      "icao": "LIPZ",
      "alert": "OK",
      "vis_m": 9999,
      "fzfg": false,
      "metar_trigger": false,
      "taf_trigger": false,
      "metar": "METAR LIPZ 080850Z 01003KT 340V050 CAVOK M02/M06 Q1014 NOSIG",
      "taf": "TAF LIPZ 080500Z 0806/0912 VRB05KT CAVOK"
    },
    {
      "icao": "LIRF",
      "alert": "OK",
      "vis_m": 9999,
      "fzfg": false,
      "metar_trigger": false,
      "taf_trigger": false,
      "metar": "METAR LIRF 080850Z 06007KT CAVOK 03/M02 Q1015 NOSIG",
      "taf": "TAF LIRF 080500Z 0806/0912 04010KT CAVOK"
    },
    {
      "icao": "LIRN",
      "alert": "OK",
      "vis_m": 9999,
      "fzfg": false,
      "metar_trigger": false,
      "taf_trigger": false,
      "metar": "METAR LIRN 080850Z 02003KT 310V070 CAVOK 05/00 Q1014 NOSIG",
      "taf": "TAF LIRN 080500Z 0806/0906 03006KT CAVOK"
    },
    {
      "icao": "LIRP",
      "alert": "OK",
      "vis_m": 9999,
      "fzfg": false,
      "metar_trigger": false,
      "taf_trigger": false,
      "metar": "METAR LIRP 080845Z 13005KT 9999 FEW030 SCT050 02/M03 Q1015 NOSIG",
      "taf": "TAF LIRP 080500Z 0806/0906 11007KT CAVOK"
    },
    {
      "icao": "LIRZ",
      "alert": "OK",
      "vis_m": 9999,
      "fzfg": false,
      "metar_trigger": false,
      "taf_trigger": false,
      "metar": "METAR LIRZ 080850Z AUTO 33005KT 300V360 9999 NCD M02/M05 Q1015",
      "taf": "TAF LIRZ 080500Z 0806/0906 VRB05KT 9999 FEW060"
    },
    {
      "icao": "LJLJ",
      "alert": "OK",
      "vis_m": 9999,
      "fzfg": false,
      "metar_trigger": false,
      "taf_trigger": false,
      "metar": "METAR LJLJ 080900Z VRB01KT 9999 MIFG BKN002 M11/M12 Q1012 NOSIG",
      "taf": "TAF LJLJ 080500Z 0806/0906 VRB02KT 9999 FEW020"
    },
    {
      "icao": "LKMT",
      "alert": "OK",
      "vis_m": 9000,
      "fzfg": false,
      "metar_trigger": false,
      "taf_trigger": false,
      "metar": "METAR LKMT 080900Z 35004KT 310V010 9000 OVC013 M06/M08 Q1010 NOSIG",
      "taf": ""
    },
    {
      "icao": "LKPR",
      "alert": "OK",
      "vis_m": 9999,
      "fzfg": false,
      "metar_trigger": false,
      "taf_trigger": false,
      "metar": "METAR LKPR 080900Z 21007KT 9999 FEW014 SCT020 BKN037 M06/M08 Q1009 NOSIG",
      "taf": "TAF LKPR 080800Z 0809/0915 20006KT 9999 BKN018"
    },
    {
      "icao": "LLBG",
      "alert": "OK",
      "vis_m": 9999,
      "fzfg": false,
      "metar_trigger": false,
      "taf_trigger": false,
      "metar": "METAR LLBG 080850Z 15005KT CAVOK 26/05 Q1018 NOSIG",
      "taf": "TAF LLBG 080503Z 0806/0906 VRB03KT CAVOK"
    },
    {
      "icao": "LMML",
      "alert": "OK",
      "vis_m": 9999,
      "fzfg": false,
      "metar_trigger": false,
      "taf_trigger": false,
      "metar": "METAR LMML 080845Z 28016G26KT 9999 SCT030TCU 11/08 Q1021 TEMPO 8000 SHRA",
      "taf": "TAF LMML 080500Z 0806/0906 29025G35KT 9999 SCT025"
    },
    {
      "icao": "LOWW",
      "alert": "OK",
      "vis_m": 9999,
      "fzfg": false,
      "metar_trigger": false,
      "taf_trigger": false,
      "metar": "METAR LOWW 080850Z 34008KT 9999 FEW040 M05/M10 Q1012 NOSIG",
      "taf": "TAF LOWW 080815Z 0809/0915 33010KT CAVOK TXM02/0814Z TNM06/0809Z"
    },
    {
      "icao": "LPFR",
      "alert": "OK",
      "vis_m": 9999,
      "fzfg": false,
      "metar_trigger": false,
      "taf_trigger": false,
      "metar": "METAR LPFR 080900Z 02005KT 9999 FEW015 07/06 Q1034",
      "taf": "TAF LPFR 080500Z 0806/0906 04005KT CAVOK"
    },
    {
      "icao": "LPMA",
      "alert": "OK",
      "vis_m": 9999,
      "fzfg": false,
      "metar_trigger": false,
      "taf_trigger": false,
      "metar": "METAR LPMA 080900Z 01008KT 330V050 9999 FEW015 16/10 Q1033",
      "taf": "TAF LPMA 080500Z 0806/0906 01010KT 9999 SCT015"
    },
    {
      "icao": "LPPR",
      "alert": "OK",
      "vis_m": 5000,
      "fzfg": false,
      "metar_trigger": false,
      "taf_trigger": false,
      "metar": "METAR LPPR 080900Z 16010KT 5000 BR BKN004 BKN011 10/09 Q1030",
      "taf": ""
    },
    {
      "icao": "LPPS",
      "alert": "OK",
      "vis_m": 9999,
      "fzfg": false,
      "metar_trigger": false,
      "taf_trigger": false,
      "metar": "METAR LPPS 080900Z 02004KT 9999 SCT014 15/13 Q1034",
      "taf": "TAF LPPS 080500Z 0806/0912 03008KT 9999 SCT015"
    },
    {
      "icao": "LPPT",
      "alert": "OK",
      "vis_m": 9999,
      "fzfg": false,
      "metar_trigger": false,
      "taf_trigger": false,
      "metar": "METAR LPPT 080900Z 00000KT 9999 BKN023 11/08 Q1032",
      "taf": ""
    },
    {
      "icao": "LQBK",
      "alert": "OK",
      "vis_m": 9999,
      "fzfg": false,
      "metar_trigger": false,
      "taf_trigger": false,
      "metar": "METAR LQBK 080900Z 20004KT 150V230 CAVOK M04/M09 Q1014 NOSIG",
      "taf": "TAF LQBK 080500Z 0806/0906 23006KT 9999 FEW020 SCT045 TXM03/0813Z TNM09/0900Z"
    },
    {
      "icao": "LQSA",
      "alert": "OK",
      "vis_m": 9999,
      "fzfg": false,
      "metar_trigger": false,
      "taf_trigger": false,
      "metar": "METAR LQSA 080900Z 30008KT 9999 -SN SCT025 BKN035 M04/M07 Q1011 NOSIG",
      "taf": "TAF LQSA 080500Z 0806/0906 29005KT 7000 SCT012 OVC030 TXM03/0813Z TNM09/0901Z"
    },
    {
      "icao": "LQTZ",
      "alert": "OK",
      "vis_m": 9000,
      "fzfg": false,
      "metar_trigger": false,
      "taf_trigger": false,
      "metar": "METAR LQTZ 080900Z 28005KT 9000 FEW030 M05/M07 Q1013",
      "taf": "TAF LQTZ 080500Z 0806/0906 23005KT 9999 SCT013 BKN030 TXM02/0813Z TNM08/0905Z"
    },
    {
      "icao": "LRBC",
      "alert": "OK",
      "vis_m": 9999,
      "fzfg": false,
      "metar_trigger": false,
      "taf_trigger": false,
      "metar": "METAR LRBC 080900Z COR 34009KT 9999 BKN012 M01/M04 Q0998",
      "taf": ""
    },
    {
      "icao": "LRBS",
      "alert": "OK",
      "vis_m": 2000,
      "fzfg": false,
      "metar_trigger": false,
      "taf_trigger": false,
      "metar": "METAR LRBS 080900Z 26010KT 230V300 2000 SGSN BR BKN005 OVC026 00/M00 Q0999 NOSIG",
      "taf": "TAF LRBS 080500Z 0806/0906 VRB04KT 7000 -RA BKN005 OVC015"
    },
    {
      "icao": "LRBV",
      "alert": "OK",
      "vis_m": 5000,
      "fzfg": false,
      "metar_trigger": false,
      "taf_trigger": false,
      "metar": "METAR LRBV 080900Z COR 29012KT 260V320 5000 -SN DRSN BR FEW011 SCT021 BKN034 M03/M06 Q1000 RESN",
      "taf": "TAF LRBV 080800Z 0809/0818 30014KT 3000 -SN BR BKN010 BKN030"
    },
    {
      "icao": "LRCL",
      "alert": "OK",
      "vis_m": 9999,
      "fzfg": false,
      "metar_trigger": false,
      "taf_trigger": false,
      "metar": "METAR LRCL 080900Z 31010KT 9999 SCT038 OVC056 M03/M07 Q1003",
      "taf": "TAF LRCL 080800Z 0809/0818 29010KT 9999 SCT035 BKN050"
    },
    {
      "icao": "LRCV",
      "alert": "OK",
      "vis_m": 9999,
      "fzfg": false,
      "metar_trigger": false,
      "taf_trigger": false,
      "metar": "METAR LRCV 080900Z 27019KT 9999 BKN029 M01/M03 Q1000",
      "taf": "TAF LRCV 080800Z 0809/0818 27018KT 9999 BKN025"
    },
    {
      "icao": "LRIA",
      "alert": "OK",
      "vis_m": 9999,
      "fzfg": false,
      "metar_trigger": false,
      "taf_trigger": false,
      "metar": "METAR LRIA 080900Z 31012KT 9999 BKN006 OVC020 M02/M02 Q0998",
      "taf": "TAF LRIA 080800Z 0809/0818 31010KT 8000 -SN OVC005"
    },
    {
      "icao": "LROP",
      "alert": "OK",
      "vis_m": 3500,
      "fzfg": false,
      "metar_trigger": false,
      "taf_trigger": false,
      "metar": "METAR LROP 080900Z 24012KT 3500 -SN BR BKN006 BKN035 00/00 Q0998 NOSIG",
      "taf": "TAF LROP 080500Z 0806/0906 VRB04KT 7000 -RA BKN005 OVC015"
    },
    {
      "icao": "LRSB",
      "alert": "OK",
      "vis_m": 9999,
      "fzfg": false,
      "metar_trigger": false,
      "taf_trigger": false,
      "metar": "METAR LRSB 080900Z 33012KT 9999 BKN036 M03/M06 Q1002",
      "taf": "TAF LRSB 080500Z 0806/0906 33014KT 9999 SCT035"
    },
    {
      "icao": "LRSM",
      "alert": "OK",
      "vis_m": 4000,
      "fzfg": false,
      "metar_trigger": false,
      "taf_trigger": false,
      "metar": "METAR LRSM 080900Z 26011KT 4000 -SN BR SCT009 OVC016 M04/M05 Q1004",
      "taf": "TAF LRSM 080800Z 0809/0818 26010KT 5000 BR SCT010 BKN025"
    },
    {
      "icao": "LRSV",
      "alert": "OK",
      "vis_m": 9999,
      "fzfg": false,
      "metar_trigger": false,
      "taf_trigger": false,
      "metar": "METAR LRSV 080900Z 32014KT CAVOK M04/M06 Q0997",
      "taf": "TAF LRSV 080800Z 0809/0818 32016KT 9999 DRSN SCT030"
    },
    {
      "icao": "LRTM",
      "alert": "OK",
      "vis_m": 9999,
      "fzfg": false,
      "metar_trigger": false,
      "taf_trigger": false,
      "metar": "METAR LRTM 080900Z 26007KT 240V300 9999 SCT015 BKN018 OVC037 M03/M07 Q1003",
      "taf": "TAF LRTM 080800Z 0809/0818 30008KT 9999 SCT020 BKN040"
    },
    {
      "icao": "LRTR",
      "alert": "OK",
      "vis_m": 6000,
      "fzfg": false,
      "metar_trigger": false,
      "taf_trigger": false,
      "metar": "METAR LRTR 080900Z 28012KT 6000 FEW042 M06/M06 Q1008 NOSIG",
      "taf": "TAF LRTR 080500Z 0806/0906 30010KT 3000 -SN BR BKN015 OVC030"
    },
    {
      "icao": "LTAC",
      "alert": "OK",
      "vis_m": 3800,
      "fzfg": false,
      "metar_trigger": false,
      "taf_trigger": false,
      "metar": "METAR LTAC 080850Z VRB02KT 3800 -SHRA BR BKN030 BKN080 05/04 Q1011 BECMG 9999 NSW",
      "taf": "TAF LTAC 080440Z 0806/0906 VRB02KT 4000 BR SCT040 BKN100"
    },
    {
      "icao": "LTFM",
      "alert": "OK",
      "vis_m": 9999,
      "fzfg": false,
      "metar_trigger": false,
      "taf_trigger": false,
      "metar": "METAR LTFM 080850Z 19026KT 9999 -SHRA FEW022TCU BKN028 BKN080 14/09 Q0998 NOSIG RMK RWY17L 19028KT RWY34L 18024G35KT RWY16R 19026KT RWY36 19030G43KT RWY18 19029G41KT",
      "taf": ""
    },
    {
      "icao": "LUKK",
      "alert": "OK",
      "vis_m": 9999,
      "fzfg": false,
      "metar_trigger": false,
      "taf_trigger": false,
      "metar": "METAR LUKK 080900Z 32008KT 9999 -RA BKN006 OVC013 01/00 Q0995 NOSIG",
      "taf": "TAF LUKK 080519Z 0806/0906 30010KT 3000 -RA BR OVC002"
    },
    {
      "icao": "LWOH",
      "alert": "OK",
      "vis_m": 6000,
      "fzfg": false,
      "metar_trigger": false,
      "taf_trigger": false,
      "metar": "METAR LWOH 080850Z 23006KT 170V270 6000 -RASN SCT010 OVC033 02/01 Q1004",
      "taf": "TAF LWOH 080840Z 0809/0909 23015KT 9999 SCT015 OVC035"
    },
    {
      "icao": "LWSK",
      "alert": "OK",
      "vis_m": 2500,
      "fzfg": false,
      "metar_trigger": false,
      "taf_trigger": false,
      "metar": "METAR LWSK 080850Z 35010KT 290V020 2500 -SN FEW005 BKN015 OVC030 00/M03 Q1006 NOSIG",
      "taf": "TAF LWSK 080840Z 0809/0909 36012KT 9999 SCT020 OVC035"
    },
    {
      "icao": "LYBE",
      "alert": "OK",
      "vis_m": 8000,
      "fzfg": false,
      "metar_trigger": false,
      "taf_trigger": false,
      "metar": "METAR LYBE 080900Z 28014KT 8000 FEW015 BKN035 M05/M07 Q1011 NOSIG",
      "taf": "TAF LYBE 080500Z 0806/0906 28010KT 4000 -SN BKN007 BKN030 TXM04/0813Z TNM12/0905Z"
    },
    {
      "icao": "LYNI",
      "alert": "OK",
      "vis_m": 9999,
      "fzfg": false,
      "metar_trigger": false,
      "taf_trigger": false,
      "metar": "METAR LYNI 080900Z 30010KT 9999 -SN SCT010 BKN023 OVC070 M03/M05 Q1009 NOSIG",
      "taf": "TAF LYNI 080500Z 0806/0906 32010KT 9999 BKN017 BKN027 BKN070 TXM02/0813Z TNM10/0906Z"
    },
    {
      "icao": "LYPG",
      "alert": "OK",
      "vis_m": 9999,
      "fzfg": false,
      "metar_trigger": false,
      "taf_trigger": false,
      "metar": "METAR LYPG 080900Z 34012KT 9999 FEW026 BKN040 05/M03 Q1007 NOSIG",
      "taf": ""
    },
    {
      "icao": "LZIB",
      "alert": "OK",
      "vis_m": 9999,
      "fzfg": false,
      "metar_trigger": false,
      "taf_trigger": false,
      "metar": "METAR LZIB 080900Z 30021KT CAVOK M05/M11 Q1010 NOSIG",
      "taf": "TAF LZIB 080515Z 0806/0906 32012KT 9999 FEW028"
    },
    {
      "icao": "LZKZ",
      "alert": "OK",
      "vis_m": 9999,
      "fzfg": false,
      "metar_trigger": false,
      "taf_trigger": false,
      "metar": "METAR LZKZ 080900Z 01012KT CAVOK M03/M09 Q1005 NOSIG",
      "taf": "TAF LZKZ 080515Z 0806/0906 36017KT 9999 FEW035"
    },
    {
      "icao": "LZTT",
      "alert": "OK",
      "vis_m": 9999,
      "fzfg": false,
      "metar_trigger": false,
      "taf_trigger": false,
      "metar": "METAR LZTT 080900Z 27011KT 9999 SCT050 BKN070 M08/M11 Q1003 NOSIG",
      "taf": "TAF LZTT 080515Z 0806/0906 27010KT 9999 OVC020"
    },
    {
      "icao": "OEJN",
      "alert": "OK",
      "vis_m": 8000,
      "fzfg": false,
      "metar_trigger": false,
      "taf_trigger": false,
      "metar": "METAR OEJN 080900Z 19005KT 8000 NSC 31/13 Q1017 NOSIG",
      "taf": "TAF OEJN 080500Z 0806/0912 20010KT 9999 FEW040"
    },
    {
      "icao": "OEMA",
      "alert": "OK",
      "vis_m": 9999,
      "fzfg": false,
      "metar_trigger": false,
      "taf_trigger": false,
      "metar": "METAR OEMA 080900Z VRB03KT CAVOK 24/M01 Q1024 NOSIG",
      "taf": "TAF OEMA 080500Z 0806/0912 09010KT CAVOK"
    },
    {
      "icao": "OJAI",
      "alert": "OK",
      "vis_m": 5000,
      "fzfg": false,
      "metar_trigger": false,
      "taf_trigger": false,
      "metar": "METAR OJAI 080900Z 12012KT 5000 HZ NSC 19/07 Q1023 NOSIG",
      "taf": "TAF OJAI 080500Z 0806/0912 12010KT 5000 HZ NSC"
    },
    {
      "icao": "OMAA",
      "alert": "OK",
      "vis_m": 9999,
      "fzfg": false,
      "metar_trigger": false,
      "taf_trigger": false,
      "metar": "METAR OMAA 080900Z 05004KT 360V070 9999 SCT045 23/10 Q1020 BECMG 34012KT",
      "taf": "TAF OMAA 080500Z 0806/0912 VRB02KT 8000 NSC"
    },
    {
      "icao": "OMDB",
      "alert": "OK",
      "vis_m": 9999,
      "fzfg": false,
      "metar_trigger": false,
      "taf_trigger": false,
      "metar": "METAR OMDB 080900Z 34008KT 290V030 CAVOK 24/06 Q1020 NOSIG",
      "taf": "TAF OMDB 080500Z 0806/0912 08005KT CAVOK"
    },
    {
      "icao": "UAAA",
      "alert": "OK",
      "vis_m": 3100,
      "fzfg": false,
      "metar_trigger": false,
      "taf_trigger": false,
      "metar": "METAR UAAA 080900Z VRB01MPS 3100 BR BKN008 OVC031 M03/M04 Q1031 NOSIG",
      "taf": "TAF UAAA 080504Z 0806/0906 03003MPS 2200 BR FU BKN011 OVC100 TXM01/0809Z TNM07/0901Z"
    },
    {
      "icao": "UBBB",
      "alert": "OK",
      "vis_m": 1000,
      "fzfg": false,
      "metar_trigger": false,
      "taf_trigger": false,
      "metar": "METAR UBBB 080900Z 13006KT 1000 R16/1000 R17/P2000 BR BKN006 07/06 Q1017 NOSIG",
      "taf": ""
    },
    {
      "icao": "UDSG",
      "alert": "OK",
      "vis_m": 5000,
      "fzfg": false,
      "metar_trigger": false,
      "taf_trigger": false,
      "metar": "METAR UDSG 080900Z 00000KT 5000 BR FEW049 M05/M11 Q1024 NOSIG",
      "taf": "TAF UDSG 080500Z 0806/0906 VRB06KT 5000 BR FEW040"
    },
    {
      "icao": "UDYZ",
      "alert": "OK",
      "vis_m": 1800,
      "fzfg": false,
      "metar_trigger": false,
      "taf_trigger": false,
      "metar": "METAR UDYZ 080900Z 00000KT 1800 R08/1700U BR NSC M02/M07 Q1026 NOSIG",
      "taf": ""
    },
    {
      "icao": "UGKO",
      "alert": "OK",
      "vis_m": 9999,
      "fzfg": false,
      "metar_trigger": false,
      "taf_trigger": false,
      "metar": "METAR UGKO 080900Z 10016KT CAVOK 16/02 Q1014 NOSIG",
      "taf": "TAF UGKO 080500Z 0806/0906 07015KT CAVOK TX18/0812Z TN09/0823Z"
    }
  ]
}