{
  "ts_utc": "2026-01-02T12:34:42Z",
  "threshold_m": 150,
  "source": "stations_override.txt (ICAO list) + aviationweather.gov (METAR/TAF raw)",
  "station_count": 159,
  "stations": [
    {
      "icao": "BIKF",
      "alert": "OK",
      "vis_m": 9999,
      "fzfg": false,
      "metar_trigger": false,
      "taf_trigger": false,
      "metar": "METAR BIKF 021230Z 05009KT CAVOK M01/M06 Q1026",
      "taf": "TAF BIKF 021030Z 0212/0312 11006KT CAVOK TXM02/0212Z TNM08/0308Z"
    },
    {
      "icao": "BKPR",
      "alert": "OK",
      "vis_m": 9999,
      "fzfg": false,
      "metar_trigger": false,
      "taf_trigger": false,
      "metar": "METAR BKPR 021230Z 20009KT 9999 FEW030 BKN045 04/M05 Q1010 NOSIG",
      "taf": "TAF BKPR 021130Z 0212/0312 18008KT 9999 BKN040"
    },
    {
      "icao": "EBCI",
      "alert": "OK",
      "vis_m": 7000,
      "fzfg": false,
      "metar_trigger": false,
      "taf_trigger": false,
      "metar": "METAR EBCI 021220Z 26009KT 7000 -SHRA FEW004 BKN006 00/M00 Q1002 TEMPO 2000 SHSN BKN004",
      "taf": "TAF EBCI 021120Z 0212/0318 27009KT 9999 SCT008 SCT015TCU"
    },
    {
      "icao": "EDDB",
      "alert": "OK",
      "vis_m": 9999,
      "fzfg": false,
      "metar_trigger": false,
      "taf_trigger": false,
      "metar": "METAR EDDB 021220Z AUTO 25016KT 9999 -SNRA FEW007 BKN019 BKN023 01/00 Q0988 RESN TEMPO 25020G30KT",
      "taf": "TAF EDDB 021100Z 0212/0312 24020G30KT 1500 SN BKN008"
    },
    {
      "icao": "EDDH",
      "alert": "OK",
      "vis_m": 900,
      "fzfg": false,
      "metar_trigger": false,
      "taf_trigger": false,
      "metar": "METAR EDDH 021220Z AUTO 29009KT 0900 0800 R23/1400N R33/1400N +SHSN VCTS OVC004 FEW///CB 00/00 Q0988 TEMPO 30015G25KT 0700 +TSSN BKN005CB",
      "taf": ""
    },
    {
      "icao": "EDDK",
      "alert": "OK",
      "vis_m": 9999,
      "fzfg": false,
      "metar_trigger": false,
      "taf_trigger": false,
      "metar": "METAR EDDK 021220Z AUTO 27018KT 9999 SCT035 BKN043 03/M03 Q0999 NOSIG",
      "taf": "TAF EDDK 021100Z 0212/0318 26015G25KT 9999 BKN025"
    },
    {
      "icao": "EDDN",
      "alert": "OK",
      "vis_m": 9999,
      "fzfg": false,
      "metar_trigger": false,
      "taf_trigger": false,
      "metar": "METAR EDDN 021220Z AUTO 26014KT 9999 FEW029 01/M04 Q1000 TEMPO 26015G25KT",
      "taf": "TAF EDDN 021100Z 0212/0312 24015G25KT 9999 FEW020"
    },
    {
      "icao": "EDDS",
      "alert": "OK",
      "vis_m": 9999,
      "fzfg": false,
      "metar_trigger": false,
      "taf_trigger": false,
      "metar": "METAR EDDS 021220Z AUTO 24010KT 190V290 9999 BKN027 02/M03 Q1001 NOSIG",
      "taf": "TAF EDDS 021100Z 0212/0312 23010KT 9999 BKN025"
    },
    {
      "icao": "EDFH",
      "alert": "OK",
      "vis_m": 9999,
      "fzfg": false,
      "metar_trigger": false,
      "taf_trigger": false,
      "metar": "METAR EDFH 021220Z 26016KT 9999 -SN FEW002 BKN005 M01/M02 Q0999",
      "taf": "TAF EDFH 021100Z 0212/0312 26015G25KT 9999 BKN020"
    },
    {
      "icao": "EDJA",
      "alert": "OK",
      "vis_m": 9999,
      "fzfg": false,
      "metar_trigger": false,
      "taf_trigger": false,
      "metar": "METAR EDJA 021220Z 24015G27KT 9999 FEW024 BKN030 00/M04 Q1002",
      "taf": "TAF EDJA 021100Z 0212/0221 24020G30KT 9999 SCT013"
    },
    {
      "icao": "EDLW",
      "alert": "OK",
      "vis_m": 8000,
      "fzfg": false,
      "metar_trigger": false,
      "taf_trigger": false,
      "metar": "METAR EDLW 021220Z 24017KT 8000 -SN FEW016 BKN018 BKN026 01/M02 Q0996",
      "taf": "TAF EDLW 021100Z 0212/0312 24015G25KT 9999 SCT012 BKN015"
    },
    {
      "icao": "EDNY",
      "alert": "OK",
      "vis_m": 9999,
      "fzfg": false,
      "metar_trigger": false,
      "taf_trigger": false,
      "metar": "METAR EDNY 021220Z 25012KT 230V310 9999 FEW029 BKN033 OVC058 02/M03 Q1005",
      "taf": "TAF EDNY 021100Z 0212/0221 25012KT 9999 BKN040"
    },
    {
      "icao": "EDSB",
      "alert": "OK",
      "vis_m": 9999,
      "fzfg": false,
      "metar_trigger": false,
      "taf_trigger": false,
      "metar": "METAR EDSB 021220Z 20014KT 9999 SCT024 BKN027 BKN032 02/M01 Q1004",
      "taf": "TAF EDSB 021100Z 0212/0312 20012KT 9999 BKN015"
    },
    {
      "icao": "EETN",
      "alert": "OK",
      "vis_m": 9000,
      "fzfg": false,
      "metar_trigger": false,
      "taf_trigger": false,
      "metar": "METAR EETN 021220Z 11013KT 9000 -SN DRSN SCT015 OVC022 M06/M08 Q0983 TEMPO 5000 SN",
      "taf": "TAF EETN 021130Z 0212/0312 11014KT 8000 DRSN SCT015 BKN020 OVC035"
    },
    {
      "icao": "EFTU",
      "alert": "OK",
      "vis_m": 3900,
      "fzfg": false,
      "metar_trigger": false,
      "taf_trigger": false,
      "metar": "METAR EFTU 021220Z AUTO 07011KT 3900 -SN OVC014 M08/M10 Q0983",
      "taf": "TAF EFTU 021128Z 0212/0312 08014KT 2500 -SN OVC015"
    },
    {
      "icao": "EGBB",
      "alert": "OK",
      "vis_m": 9999,
      "fzfg": false,
      "metar_trigger": false,
      "taf_trigger": false,
      "metar": "METAR EGBB 021220Z 31012KT CAVOK 03/M03 Q1007",
      "taf": "TAF EGBB 021056Z 0212/0312 31009KT CAVOK"
    },
    {
      "icao": "EGGP",
      "alert": "OK",
      "vis_m": 9999,
      "fzfg": false,
      "metar_trigger": false,
      "taf_trigger": false,
      "metar": "METAR EGGP 021220Z 33010KT 9999 SCT044 04/M04 Q1007",
      "taf": "TAF EGGP 021055Z 0212/0312 33009KT 9999 SCT030"
    },
    {
      "icao": "EGGW",
      "alert": "OK",
      "vis_m": 9999,
      "fzfg": false,
      "metar_trigger": false,
      "taf_trigger": false,
      "metar": "METAR EGGW 021220Z AUTO 31016KT 9999 NCD 02/M04 Q1005",
      "taf": "TAF EGGW 021056Z 0212/0312 30012KT 9999 FEW030"
    },
    {
      "icao": "EGKK",
      "alert": "OK",
      "vis_m": 9999,
      "fzfg": false,
      "metar_trigger": false,
      "taf_trigger": false,
      "metar": "METAR EGKK 021220Z 31012KT 9999 FEW032 03/M02 Q1006",
      "taf": "TAF EGKK 021053Z 0212/0318 30009KT 9999 FEW025"
    },
    {
      "icao": "EGNM",
      "alert": "OK",
      "vis_m": 9999,
      "fzfg": false,
      "metar_trigger": false,
      "taf_trigger": false,
      "metar": "METAR EGNM 021220Z 29017KT CAVOK 01/M06 Q1004",
      "taf": "TAF EGNM 021055Z 0212/0312 30009KT 9999 FEW030"
    },
    {
      "icao": "EGPD",
      "alert": "OK",
      "vis_m": 7000,
      "fzfg": false,
      "metar_trigger": false,
      "taf_trigger": false,
      "metar": "METAR EGPD 021220Z 30009KT 270V330 7000 VCSH BKN009 01/M01 Q1005 TEMPO 1800 SHSN",
      "taf": "TAF EGPD 021055Z 0212/0312 31012KT 9999 SCT012"
    },
    {
      "icao": "EGPF",
      "alert": "OK",
      "vis_m": 9999,
      "fzfg": false,
      "metar_trigger": false,
      "taf_trigger": false,
      "metar": "METAR EGPF 021220Z AUTO 31004KT 240V020 9999 FEW034 04/M01 Q1008",
      "taf": "TAF EGPF 021102Z 0212/0312 29009KT 9999 FEW035"
    },
    {
      "icao": "EHBK",
      "alert": "OK",
      "vis_m": 9999,
      "fzfg": false,
      "metar_trigger": false,
      "taf_trigger": false,
      "metar": "METAR EHBK 021225Z AUTO 25011KT 200V290 9999 FEW028 03/M02 Q1000 NOSIG",
      "taf": "TAF EHBK 021121Z 0212/0318 25012KT 9999 SCT022"
    },
    {
      "icao": "EHEH",
      "alert": "OK",
      "vis_m": 2900,
      "fzfg": false,
      "metar_trigger": false,
      "taf_trigger": false,
      "metar": "SPECI EHEH 021229Z AUTO 27013KT 240V330 2900 R21/2200U -SN FEW000 SCT004 BKN005 01/M00 Q1000 YLO TEMPO 1000 SHSNRA FEW003 SCT005 BKN008 SCT015CB RMK TREND REMOTE BY EHWX",
      "taf": "TAF EHEH 021111Z 0212/0318 27010G20KT 9999 SCT035 BKN040"
    },
    {
      "icao": "EKBI",
      "alert": "OK",
      "vis_m": 9999,
      "fzfg": false,
      "metar_trigger": false,
      "taf_trigger": false,
      "metar": "METAR EKBI 021220Z AUTO 31005KT 9999 BKN030/// BKN087/// M00/M03 Q0983",
      "taf": "TAF EKBI 021127Z 0212/0312 29004KT 9999 SCT030"
    },
    {
      "icao": "EKCH",
      "alert": "OK",
      "vis_m": 9999,
      "fzfg": false,
      "metar_trigger": false,
      "taf_trigger": false,
      "metar": "METAR EKCH 021220Z AUTO 27014KT 9999 FEW180/// 02/M04 Q0980 NOSIG",
      "taf": "TAF EKCH 021127Z 0212/0312 28014KT 9999 BKN035"
    },
    {
      "icao": "ENAL",
      "alert": "OK",
      "vis_m": 6000,
      "fzfg": false,
      "metar_trigger": false,
      "taf_trigger": false,
      "metar": "METAR ENAL 021220Z 02010KT 6000 -SHSN FEW010 SCT023CB SCT040 M03/M04 Q0994",
      "taf": "TAF ENAL 021100Z 0212/0221 04015KT 9999 FEW010 SCT030"
    },
    {
      "icao": "ENBR",
      "alert": "OK",
      "vis_m": 9999,
      "fzfg": false,
      "metar_trigger": false,
      "taf_trigger": false,
      "metar": "METAR ENBR 021220Z 34010KT CAVOK M01/M11 Q0993 NOSIG RMK WIND 1200FT 35016KT",
      "taf": "TAF ENBR 021100Z 0212/0312 35012KT CAVOK"
    },
    {
      "icao": "ENGM",
      "alert": "OK",
      "vis_m": 9999,
      "fzfg": false,
      "metar_trigger": false,
      "taf_trigger": false,
      "metar": "METAR ENGM 021220Z 01018KT 9999 FEW030 M07/M11 Q0988 NOSIG",
      "taf": "TAF ENGM 021100Z 0212/0312 01015KT 9999 SCT035"
    },
    {
      "icao": "ENHD",
      "alert": "OK",
      "vis_m": 9999,
      "fzfg": false,
      "metar_trigger": false,
      "taf_trigger": false,
      "metar": "METAR ENHD 021220Z 01023KT CAVOK 01/M12 Q0992",
      "taf": "TAF ENHD 021100Z 0212/0221 01025KT CAVOK"
    },
    {
      "icao": "ENTC",
      "alert": "OK",
      "vis_m": 1700,
      "fzfg": false,
      "metar_trigger": false,
      "taf_trigger": false,
      "metar": "METAR ENTC 021220Z 20017KT 1700 R36/P2000N R18/P2000N -SHSN VV009 M07/M09 Q0999 TEMPO 5000 -SHSN BKN020CB RMK WIND 2600FT 34024KT",
      "taf": "TAF ENTC 021100Z 0212/0315 20015KT 8000 -SHSN SCT010 BKN025"
    },
    {
      "icao": "ENTO",
      "alert": "OK",
      "vis_m": 9999,
      "fzfg": false,
      "metar_trigger": false,
      "taf_trigger": false,
      "metar": "METAR ENTO 021220Z 36014KT 9999 -SHSN SCT035 M05/M10 Q0987 NOSIG",
      "taf": "TAF ENTO 021100Z 0212/0312 01015KT 9999 SCT035"
    },
    {
      "icao": "ENVA",
      "alert": "OK",
      "vis_m": 9999,
      "fzfg": false,
      "metar_trigger": false,
      "taf_trigger": false,
      "metar": "METAR ENVA 021220Z 07007KT 9999 FEW040 BKN050 M08/M12 Q0996 NOSIG RMK WIND 670FT 09011KT",
      "taf": "TAF ENVA 021100Z 0212/0312 07008KT 9999 FEW030 BKN055"
    },
    {
      "icao": "ENZV",
      "alert": "OK",
      "vis_m": 9999,
      "fzfg": false,
      "metar_trigger": false,
      "taf_trigger": false,
      "metar": "METAR ENZV 021220Z 02010KT 9999 FEW040 01/M09 Q0991 NOSIG",
      "taf": "TAF ENZV 021100Z 0212/0312 36012KT CAVOK"
    },
    {
      "icao": "EPGD",
      "alert": "OK",
      "vis_m": 9999,
      "fzfg": false,
      "metar_trigger": false,
      "taf_trigger": false,
      "metar": "METAR EPGD 021230Z 25017G27KT 9999 SCT020 SCT047 01/M03 Q0981",
      "taf": "TAF EPGD 021130Z 0212/0312 24014KT 9999 SCT012 BKN025"
    },
    {
      "icao": "EPKK",
      "alert": "OK",
      "vis_m": 9999,
      "fzfg": false,
      "metar_trigger": false,
      "taf_trigger": false,
      "metar": "METAR EPKK 021230Z 22009KT 9999 BKN043 03/M04 Q0995",
      "taf": "TAF EPKK 021130Z 0212/0312 23010KT 9999 BKN030"
    },
    {
      "icao": "EPKT",
      "alert": "OK",
      "vis_m": 9999,
      "fzfg": false,
      "metar_trigger": false,
      "taf_trigger": false,
      "metar": "METAR EPKT 021230Z 21014KT 9999 FEW028CB BKN032 01/M04 Q0993",
      "taf": "TAF EPKT 021130Z 0212/0312 23015KT 9999 BKN040"
    },
    {
      "icao": "EPLB",
      "alert": "OK",
      "vis_m": 9000,
      "fzfg": false,
      "metar_trigger": false,
      "taf_trigger": false,
      "metar": "METAR EPLB 021230Z 22011KT 9000 -SN FEW007 SCT009 BKN012 00/M00 Q0993",
      "taf": "TAF EPLB 021130Z 0212/0312 22014KT 9999 BKN020"
    },
    {
      "icao": "EPMO",
      "alert": "OK",
      "vis_m": 9999,
      "fzfg": false,
      "metar_trigger": false,
      "taf_trigger": false,
      "metar": "METAR EPMO 021230Z 22012KT 9999 BKN033 02/M02 Q0989",
      "taf": "TAF EPMO 021130Z 0212/0312 22015KT 9999 BKN020"
    },
    {
      "icao": "EPPO",
      "alert": "OK",
      "vis_m": 9999,
      "fzfg": false,
      "metar_trigger": false,
      "taf_trigger": false,
      "metar": "METAR EPPO 021230Z 24012G22KT 9999 -SHRASN SCT012CB BKN013 01/M01 Q0987",
      "taf": "TAF EPPO 021130Z 0212/0312 24015KT 9999 BKN025"
    },
    {
      "icao": "EPRA",
      "alert": "OK",
      "vis_m": 9999,
      "fzfg": false,
      "metar_trigger": false,
      "taf_trigger": false,
      "metar": "METAR EPRA 021230Z 23015KT 9999 SCT025 02/M03 Q0992",
      "taf": "TAF EPRA 021130Z 0212/0221 24014KT 9999 BKN020"
    },
    {
      "icao": "EPRZ",
      "alert": "OK",
      "vis_m": 9999,
      "fzfg": false,
      "metar_trigger": false,
      "taf_trigger": false,
      "metar": "METAR EPRZ 021230Z 21012KT 9999 SCT040 03/M04 Q0995",
      "taf": "TAF EPRZ 021130Z 0212/0312 22015KT 9999 SCT040"
    },
    {
      "icao": "EPSC",
      "alert": "OK",
      "vis_m": 9999,
      "fzfg": false,
      "metar_trigger": false,
      "taf_trigger": false,
      "metar": "METAR EPSC 021230Z 22009KT 9999 BKN009 02/M00 Q0985",
      "taf": "TAF EPSC 021130Z 0212/0312 24012KT 9999 BKN020"
    },
    {
      "icao": "EPSY",
      "alert": "OK",
      "vis_m": 1100,
      "fzfg": false,
      "metar_trigger": false,
      "taf_trigger": false,
      "metar": "METAR EPSY 021230Z 21013KT 1100 R01/1200N SHSN BKN005CB OVC014 00/M00 Q0985",
      "taf": "TAF EPSY 021130Z 0212/0221 21010KT 7000 -SN BKN020"
    },
    {
      "icao": "EPWA",
      "alert": "OK",
      "vis_m": 9999,
      "fzfg": false,
      "metar_trigger": false,
      "taf_trigger": false,
      "metar": "METAR EPWA 021230Z 22010KT 190V250 9999 BKN028 02/M02 Q0990 NOSIG",
      "taf": "TAF EPWA 021130Z 0212/0312 22014KT 9999 SCT015 BKN020"
    },
    {
      "icao": "EPWR",
      "alert": "OK",
      "vis_m": 9999,
      "fzfg": false,
      "metar_trigger": false,
      "taf_trigger": false,
      "metar": "METAR EPWR 021230Z 25011KT 9999 SCT043 04/M04 Q0992",
      "taf": "TAF EPWR 021130Z 0212/0312 24012KT 9999 BKN035"
    },
    {
      "icao": "ESGG",
      "alert": "OK",
      "vis_m": 3200,
      "fzfg": false,
      "metar_trigger": false,
      "taf_trigger": false,
      "metar": "METAR ESGG 021220Z 01019KT 3200 -SN BKN008 OVC012 M03/M05 Q0978",
      "taf": "TAF ESGG 021130Z 0212/0312 36015G25KT 6000 -SN SCT005 BKN015"
    },
    {
      "icao": "ESKN",
      "alert": "OK",
      "vis_m": 5000,
      "fzfg": false,
      "metar_trigger": false,
      "taf_trigger": false,
      "metar": "METAR ESKN 021220Z 01009KT 340V050 5000 -SN BKN006 M01/M02 Q0977",
      "taf": "TAF ESKN 021130Z 0212/0312 33006KT 7000 -SN BKN004"
    },
    {
      "icao": "ESMS",
      "alert": "OK",
      "vis_m": 9999,
      "fzfg": false,
      "metar_trigger": false,
      "taf_trigger": false,
      "metar": "METAR ESMS 021220Z 27016KT 9999 FEW030 SCT036 01/M05 Q0980",
      "taf": "TAF ESMS 021127Z 0212/0312 29014KT 9999 BKN020"
    },
    {
      "icao": "ESSA",
      "alert": "OK",
      "vis_m": 5000,
      "fzfg": false,
      "metar_trigger": false,
      "taf_trigger": false,
      "metar": "METAR ESSA 021220Z 02018KT 5000 -SN BKN010 OVC018 M03/M04 Q0979 TEMPO 03015G25KT 1000 SN",
      "taf": "TAF ESSA 021130Z 0212/0312 02010G20KT 7000 -SN BKN006"
    },
    {
      "icao": "EYKA",
      "alert": "OK",
      "vis_m": 9999,
      "fzfg": false,
      "metar_trigger": false,
      "taf_trigger": false,
      "metar": "METAR EYKA 021220Z 21008KT 170V240 9999 BKN017 02/M01 Q0985",
      "taf": "TAF EYKA 021103Z 0212/0312 20011KT 9000 SCT010 OVC015"
    },
    {
      "icao": "EYPA",
      "alert": "OK",
      "vis_m": 9999,
      "fzfg": false,
      "metar_trigger": false,
      "taf_trigger": false,
      "metar": "METAR EYPA 021220Z 20015KT 9999 -SHRASN SCT015 BKN021CB BKN028 02/M00 Q0980",
      "taf": ""
    },
    {
      "icao": "EYVI",
      "alert": "OK",
      "vis_m": 4500,
      "fzfg": false,
      "metar_trigger": false,
      "taf_trigger": false,
      "metar": "METAR EYVI 021220Z 21012KT 4500 SNRA OVC009 00/M01 Q0986 TEMPO 3000 SNRA",
      "taf": "TAF EYVI 021100Z 0212/0312 21012KT 8000 OVC010"
    },
    {
      "icao": "GCFV",
      "alert": "OK",
      "vis_m": 9999,
      "fzfg": false,
      "metar_trigger": false,
      "taf_trigger": false,
      "metar": "METAR GCFV 021200Z 22016KT 190V250 9999 SCT025 24/14 Q1007",
      "taf": "TAF GCFV 020800Z 0209/0309 22012KT 9999 SCT025 TX23/0214Z TN16/0306Z"
    },
    {
      "icao": "GCLP",
      "alert": "OK",
      "vis_m": 9999,
      "fzfg": false,
      "metar_trigger": false,
      "taf_trigger": false,
      "metar": "METAR GCLP 021200Z 22022KT 9999 SCT035 21/16 Q1007 NOSIG",
      "taf": "TAF GCLP 020800Z 0209/0309 23013KT 9999 FEW035 TX23/0214Z TN16/0306Z"
    },
    {
      "icao": "GCTS",
      "alert": "OK",
      "vis_m": 9999,
      "fzfg": false,
      "metar_trigger": false,
      "taf_trigger": false,
      "metar": "METAR GCTS 021200Z 26022G34KT 9999 BKN030 22/17 Q1007 NOSIG",
      "taf": "TAF GCTS 020800Z 0209/0309 25023KT 9999 SCT030 TX25/0214Z TN16/0306Z"
    },
    {
      "icao": "GMAD",
      "alert": "OK",
      "vis_m": 9999,
      "fzfg": false,
      "metar_trigger": false,
      "taf_trigger": false,
      "metar": "METAR GMAD 021230Z 00000KT CAVOK 25/10 Q1009 NOSIG",
      "taf": "TAF GMAD 021100Z 0212/0318 24016KT 8000 SCT020 BKN080"
    },
    {
      "icao": "GMMN",
      "alert": "OK",
      "vis_m": 9999,
      "fzfg": false,
      "metar_trigger": false,
      "taf_trigger": false,
      "metar": "METAR GMMN 021230Z 16019KT CAVOK 19/11 Q1005 NOSIG",
      "taf": "TAF GMMN 021100Z 0212/0318 16012KT CAVOK"
    },
    {
      "icao": "GMMX",
      "alert": "OK",
      "vis_m": 9999,
      "fzfg": false,
      "metar_trigger": false,
      "taf_trigger": false,
      "metar": "METAR GMMX 021230Z 20019G30KT 9999 SCT020 SCT090 22/03 Q1006 NOSIG",
      "taf": "TAF GMMX 021100Z 0212/0318 22018G32KT 6000 SCT026 SCT100"
    },
    {
      "icao": "HEGN",
      "alert": "OK",
      "vis_m": 9999,
      "fzfg": false,
      "metar_trigger": false,
      "taf_trigger": false,
      "metar": "METAR HEGN 021200Z 36015KT CAVOK 22/08 Q1019 NOSIG",
      "taf": "TAF HEGN 021100Z 0212/0318 34018KT CAVOK"
    },
    {
      "icao": "HEMA",
      "alert": "OK",
      "vis_m": 9999,
      "fzfg": false,
      "metar_trigger": false,
      "taf_trigger": false,
      "metar": "METAR HEMA 021200Z 01013KT 9999 FEW025 23/13 Q1018 NOSIG",
      "taf": "TAF HEMA 021100Z 0212/0318 01015KT CAVOK"
    },
    {
      "icao": "HESH",
      "alert": "OK",
      "vis_m": 9999,
      "fzfg": false,
      "metar_trigger": false,
      "taf_trigger": false,
      "metar": "METAR HESH 021200Z 01008KT CAVOK 23/09 Q1018 NOSIG",
      "taf": "TAF HESH 021100Z 0212/0318 34010KT CAVOK"
    },
    {
      "icao": "HESX",
      "alert": "OK",
      "vis_m": 9999,
      "fzfg": false,
      "metar_trigger": false,
      "taf_trigger": false,
      "metar": "METAR HESX 021200Z 35008KT 9999 SCT020 16/05 Q1022 NOSIG",
      "taf": "TAF HESX 021100Z 0212/0318 36010KT 9999 SCT025"
    },
    {
      "icao": "LATI",
      "alert": "OK",
      "vis_m": 9999,
      "fzfg": false,
      "metar_trigger": false,
      "taf_trigger": false,
      "metar": "METAR LATI 021220Z 14012KT 9999 -RA SCT036 BKN057 10/02 Q1013 NOSIG",
      "taf": "TAF LATI 021100Z 0212/0312 16013KT 9999 BKN030 OVC060 TX15/0312Z TN09/0300Z"
    },
    {
      "icao": "LBPD",
      "alert": "OK",
      "vis_m": 9999,
      "fzfg": false,
      "metar_trigger": false,
      "taf_trigger": false,
      "metar": "METAR LBPD 021230Z AUTO 13004KT 100V180 9999 NCD 03/M07 Q1014 NOSIG",
      "taf": "TAF LBPD 021100Z 0212/0312 VRB03KT 9999 SCT070"
    },
    {
      "icao": "LBSF",
      "alert": "OK",
      "vis_m": 9999,
      "fzfg": false,
      "metar_trigger": false,
      "taf_trigger": false,
      "metar": "METAR LBSF 021230Z VRB03KT 9999 SCT069 BKN083 04/M09 Q1012 NOSIG",
      "taf": "TAF LBSF 021100Z 0212/0312 06010KT 9999 SCT050"
    },
    {
      "icao": "LBWN",
      "alert": "OK",
      "vis_m": 9999,
      "fzfg": false,
      "metar_trigger": false,
      "taf_trigger": false,
      "metar": "METAR LBWN 021230Z 22009KT CAVOK 08/M07 Q1012 NOSIG",
      "taf": "TAF LBWN 021100Z 0212/0312 29010KT CAVOK"
    },
    {
      "icao": "LCLK",
      "alert": "OK",
      "vis_m": 9999,
      "fzfg": false,
      "metar_trigger": false,
      "taf_trigger": false,
      "metar": "METAR LCLK 021230Z 09004KT 040V140 9999 FEW040 SCT060 15/03 Q1022 NOSIG",
      "taf": "TAF LCLK 021130Z 0212/0312 04010KT 9999 FEW040"
    },
    {
      "icao": "LCPH",
      "alert": "OK",
      "vis_m": 9999,
      "fzfg": false,
      "metar_trigger": false,
      "taf_trigger": false,
      "metar": "METAR LCPH 021230Z AUTO 32005KT 250V340 9999 BKN050 14/03 Q1021 NOSIG",
      "taf": "TAF LCPH 021130Z 0212/0312 29010KT 9999 SCT045"
    },
    {
      "icao": "LEAL",
      "alert": "OK",
      "vis_m": 9999,
      "fzfg": false,
      "metar_trigger": false,
      "taf_trigger": false,
      "metar": "METAR LEAL 021200Z 25007KT 220V280 CAVOK 13/10 Q1012 NOSIG",
      "taf": "TAF LEAL 021100Z 0212/0312 VRB05KT CAVOK TX15/0214Z TN08/0306Z"
    },
    {
      "icao": "LEBB",
      "alert": "OK",
      "vis_m": 9999,
      "fzfg": false,
      "metar_trigger": false,
      "taf_trigger": false,
      "metar": "METAR LEBB 021200Z 10005KT 060V130 CAVOK 12/06 Q1009 NOSIG",
      "taf": "TAF LEBB 021100Z 0212/0312 12007KT 9999 SCT070 TX12/0214Z TN06/0308Z"
    },
    {
      "icao": "LEBL",
      "alert": "OK",
      "vis_m": 9999,
      "fzfg": false,
      "metar_trigger": false,
      "taf_trigger": false,
      "metar": "METAR LEBL 021200Z 32006KT 9999 FEW020 10/04 Q1010 NOSIG",
      "taf": "TAF LEBL 021100Z 0212/0312 34009KT 9999 FEW015 TX13/0212Z TN05/0306Z"
    },
    {
      "icao": "LECH",
      "alert": "OK",
      "vis_m": 9999,
      "fzfg": false,
      "metar_trigger": false,
      "taf_trigger": false,
      "metar": "METAR LECH 021200Z AUTO VRB02KT CAVOK 10/05 Q1010",
      "taf": ""
    },
    {
      "icao": "LEMD",
      "alert": "OK",
      "vis_m": 9999,
      "fzfg": false,
      "metar_trigger": false,
      "taf_trigger": false,
      "metar": "METAR LEMD 021200Z 34005KT 310V010 9999 SCT008 BKN012 08/06 Q1012 NOSIG",
      "taf": "TAF LEMD 021100Z 0212/0318 VRB03KT 9999 FEW020 TX11/0215Z TN04/0307Z"
    },
    {
      "icao": "LEMG",
      "alert": "OK",
      "vis_m": 9999,
      "fzfg": false,
      "metar_trigger": false,
      "taf_trigger": false,
      "metar": "METAR LEMG 021200Z 30004KT 9999 FEW004 13/11 Q1012 NOSIG",
      "taf": ""
    },
    {
      "icao": "LEVC",
      "alert": "OK",
      "vis_m": 9999,
      "fzfg": false,
      "metar_trigger": false,
      "taf_trigger": false,
      "metar": "METAR LEVC 021200Z VRB01KT CAVOK 14/09 Q1011 NOSIG",
      "taf": "TAF LEVC 021100Z 0212/0312 VRB05KT CAVOK TX15/0214Z TN07/0306Z"
    },
    {
      "icao": "LEXJ",
      "alert": "OK",
      "vis_m": 9000,
      "fzfg": false,
      "metar_trigger": false,
      "taf_trigger": false,
      "metar": "METAR LEXJ 021200Z VRB02KT 9000 NSC 10/06 Q1009",
      "taf": "TAF LEXJ 020800Z 0209/0309 10009KT 9999 SCT070 TX11/0213Z TN06/0308Z"
    },
    {
      "icao": "LEZG",
      "alert": "OK",
      "vis_m": 5000,
      "fzfg": false,
      "metar_trigger": false,
      "taf_trigger": false,
      "metar": "METAR LEZG 021200Z 26003KT 220V340 5000 BR OVC007 04/04 Q1012 NOSIG",
      "taf": "TAF LEZG 021100Z 0212/0312 VRB04KT CAVOK TX08/0215Z TN02/0306Z"
    },
    {
      "icao": "LEZL",
      "alert": "OK",
      "vis_m": 9999,
      "fzfg": false,
      "metar_trigger": false,
      "taf_trigger": false,
      "metar": "METAR LEZL 021200Z 08005KT 050V110 CAVOK 15/11 Q1009 NOSIG",
      "taf": "TAF LEZL 020800Z 0209/0309 06007KT 9999 FEW040 TX18/0215Z TN12/0307Z"
    },
    {
      "icao": "LFBD",
      "alert": "OK",
      "vis_m": 9999,
      "fzfg": false,
      "metar_trigger": false,
      "taf_trigger": false,
      "metar": "METAR LFBD 021230Z AUTO 05007KT 020V080 9999 BKN006 00/M01 Q1012 BECMG BKN015",
      "taf": "TAF LFBD 021100Z 0212/0318 07005KT 8000 BKN005 TX04/0314Z TNM02/0306Z"
    },
    {
      "icao": "LFLL",
      "alert": "OK",
      "vis_m": 9999,
      "fzfg": false,
      "metar_trigger": false,
      "taf_trigger": false,
      "metar": "METAR LFLL 021230Z VRB02KT CAVOK 05/M03 Q1009 NOSIG",
      "taf": "TAF LFLL 021100Z 0212/0318 VRB03KT CAVOK"
    },
    {
      "icao": "LFLS",
      "alert": "OK",
      "vis_m": 9999,
      "fzfg": false,
      "metar_trigger": false,
      "taf_trigger": false,
      "metar": "METAR LFLS 021230Z AUTO VRB03KT CAVOK 04/M01 Q1009 NOSIG",
      "taf": "TAF LFLS 020800Z 0209/0309 VRB03KT CAVOK"
    },
    {
      "icao": "LFMN",
      "alert": "OK",
      "vis_m": 9999,
      "fzfg": false,
      "metar_trigger": false,
      "taf_trigger": false,
      "metar": "METAR LFMN 021230Z 25019KT CAVOK 13/01 Q1002 NOSIG",
      "taf": "TAF LFMN 020800Z 0209/0315 31010KT CAVOK"
    },
    {
      "icao": "LFOB",
      "alert": "OK",
      "vis_m": 9999,
      "fzfg": false,
      "metar_trigger": false,
      "taf_trigger": false,
      "metar": "METAR LFOB 021230Z AUTO 28006KT 9999 FEW021 SCT042 OVC060 03/02 Q1005 TEMPO 4000 -RA BKN012",
      "taf": "TAF LFOB 021100Z 0212/0312 30010KT 9999 SCT030"
    },
    {
      "icao": "LFPO",
      "alert": "OK",
      "vis_m": 9999,
      "fzfg": false,
      "metar_trigger": false,
      "taf_trigger": false,
      "metar": "METAR LFPO 021230Z AUTO 24011KT 9999 -RA FEW017/// SCT027/// BKN035/// ///TCU 04/02 Q1006 TEMPO 30010G20KT 4000 -RA BKN008 BKN015TCU",
      "taf": "TAF LFPO 021100Z 0212/0318 23010KT 9999 BKN012"
    },
    {
      "icao": "LFSB",
      "alert": "OK",
      "vis_m": 9999,
      "fzfg": false,
      "metar_trigger": false,
      "taf_trigger": false,
      "metar": "METAR LFSB 021230Z AUTO 28009KT 9999 -SNRA BKN027 BKN033 BKN043 01/M01 Q1006 TEMPO 4000 -SHSN BKN010",
      "taf": "TAF LFSB 021100Z 0212/0312 27010KT 9999 BKN030"
    },
    {
      "icao": "LGAV",
      "alert": "OK",
      "vis_m": 9999,
      "fzfg": false,
      "metar_trigger": false,
      "taf_trigger": false,
      "metar": "METAR LGAV 021220Z 23010KT 190V260 CAVOK 12/01 Q1020 NOSIG",
      "taf": "TAF LGAV 021100Z 0212/0312 23010KT 9999 FEW025"
    },
    {
      "icao": "LGTS",
      "alert": "OK",
      "vis_m": 9999,
      "fzfg": false,
      "metar_trigger": false,
      "taf_trigger": false,
      "metar": "METAR LGTS 021220Z VRB02KT 9999 FEW025 07/M01 Q1018 NOSIG",
      "taf": "TAF LGTS 021100Z 0212/0312 VRB03KT 9999 FEW030"
    },
    {
      "icao": "LHBP",
      "alert": "OK",
      "vis_m": 9999,
      "fzfg": false,
      "metar_trigger": false,
      "taf_trigger": false,
      "metar": "METAR LHBP 021230Z VRB02KT CAVOK 03/01 Q1001 NOSIG",
      "taf": "TAF LHBP 021115Z 0212/0312 19005KT CAVOK"
    },
    {
      "icao": "LHDC",
      "alert": "OK",
      "vis_m": 9999,
      "fzfg": false,
      "metar_trigger": false,
      "taf_trigger": false,
      "metar": "METAR LHDC 021215Z AUTO 18008KT 150V210 CAVOK 02/01 Q1002 NOSIG",
      "taf": "TAF LHDC 021115Z 0212/0221 19013KT 9999 SCT040 BKN080"
    },
    {
      "icao": "LIBD",
      "alert": "OK",
      "vis_m": 9999,
      "fzfg": false,
      "metar_trigger": false,
      "taf_trigger": false,
      "metar": "METAR LIBD 021220Z 20010KT 150V230 CAVOK 15/06 Q1010",
      "taf": "TAF LIBD 021100Z 0212/0312 22015KT 9999 SCT040"
    },
    {
      "icao": "LIBG",
      "alert": "OK",
      "vis_m": 9999,
      "fzfg": false,
      "metar_trigger": false,
      "taf_trigger": false,
      "metar": "METAR LIBG 021150Z 21010KT 160V230 9999 FEW035 15/09 Q1012",
      "taf": "TAF LIBG 021100Z 0212/0221 22013KT CAVOK"
    },
    {
      "icao": "LIBP",
      "alert": "OK",
      "vis_m": 9999,
      "fzfg": false,
      "metar_trigger": false,
      "taf_trigger": false,
      "metar": "METAR LIBP 021220Z AUTO 22020G30KT 9999 NCD 17/03 Q1005",
      "taf": "TAF LIBP 021100Z 0212/0312 22012KT 9999 SCT035"
    },
    {
      "icao": "LIBR",
      "alert": "OK",
      "vis_m": 9999,
      "fzfg": false,
      "metar_trigger": false,
      "taf_trigger": false,
      "metar": "METAR LIBR 021220Z 21016KT 9999 FEW025 15/08 Q1012",
      "taf": "TAF LIBR 021100Z 0212/0312 20015KT 9999 SCT040"
    },
    {
      "icao": "LICA",
      "alert": "OK",
      "vis_m": 9999,
      "fzfg": false,
      "metar_trigger": false,
      "taf_trigger": false,
      "metar": "METAR LICA 021220Z AUTO 23008KT 9999 NCD 17/06 Q1014",
      "taf": "TAF LICA 021100Z 0212/0312 23010KT 9999 SCT040"
    },
    {
      "icao": "LICC",
      "alert": "OK",
      "vis_m": 9999,
      "fzfg": false,
      "metar_trigger": false,
      "taf_trigger": false,
      "metar": "METAR LICC 021220Z 24014KT 9999 SCT030 17/15 Q1016",
      "taf": "TAF LICC 021100Z 0212/0312 25012KT 9999 SCT035"
    },
    {
      "icao": "LICJ",
      "alert": "OK",
      "vis_m": 9999,
      "fzfg": false,
      "metar_trigger": false,
      "taf_trigger": false,
      "metar": "METAR LICJ 021220Z 20022G34KT 9999 FEW040 16/07 Q1013",
      "taf": "TAF LICJ 021100Z 0212/0312 20025G40KT 9999 FEW030"
    },
    {
      "icao": "LIMC",
      "alert": "OK",
      "vis_m": 9999,
      "fzfg": false,
      "metar_trigger": false,
      "taf_trigger": false,
      "metar": "METAR LIMC 021220Z 31003KT 250V360 CAVOK 08/M01 Q1002 NOSIG",
      "taf": "TAF LIMC 021100Z 0212/0318 VRB04KT 7000 FEW050"
    },
    {
      "icao": "LIME",
      "alert": "OK",
      "vis_m": 8000,
      "fzfg": false,
      "metar_trigger": false,
      "taf_trigger": false,
      "metar": "METAR LIME 021220Z 19003KT 150V260 8000 3000E FEW002 03/01 Q1002 NOSIG",
      "taf": "TAF LIME 021100Z 0212/0312 VRB04KT 8000 NSC"
    },
    {
      "icao": "LIMF",
      "alert": "OK",
      "vis_m": 9999,
      "fzfg": false,
      "metar_trigger": false,
      "taf_trigger": false,
      "metar": "METAR LIMF 021220Z VRB02KT CAVOK 06/M02 Q1002",
      "taf": "TAF LIMF 021100Z 0212/0312 VRB04KT CAVOK"
    },
    {
      "icao": "LIMJ",
      "alert": "OK",
      "vis_m": 9999,
      "fzfg": false,
      "metar_trigger": false,
      "taf_trigger": false,
      "metar": "METAR LIMJ 021220Z 14015KT 9999 SCT032 13/06 Q1002",
      "taf": "TAF LIMJ 021100Z 0212/0312 14016KT 9999 SCT030"
    },
    {
      "icao": "LIPE",
      "alert": "OK",
      "vis_m": 8000,
      "fzfg": false,
      "metar_trigger": false,
      "taf_trigger": false,
      "metar": "METAR LIPE 021220Z VRB02KT 8000 NSC 06/01 Q1003",
      "taf": "TAF LIPE 021100Z 0212/0312 VRB05KT 9999 SCT010 BKN050"
    },
    {
      "icao": "LIPH",
      "alert": "OK",
      "vis_m": 9999,
      "fzfg": false,
      "metar_trigger": false,
      "taf_trigger": false,
      "metar": "METAR LIPH 021220Z AUTO VRB01KT 9999 BKN049/// 05/M01 Q1003",
      "taf": "TAF LIPH 021100Z 0212/0312 VRB04KT 9999 BKN035"
    },
    {
      "icao": "LIPQ",
      "alert": "OK",
      "vis_m": 9999,
      "fzfg": false,
      "metar_trigger": false,
      "taf_trigger": false,
      "metar": "METAR LIPQ 021220Z AUTO VRB01KT 9999 FEW028/// OVC049/// 05/03 Q1003",
      "taf": "TAF LIPQ 021100Z 0212/0312 VRB05KT 9999 SCT020"
    },
    {
      "icao": "LIPR",
      "alert": "OK",
      "vis_m": 9999,
      "fzfg": false,
      "metar_trigger": false,
      "taf_trigger": false,
      "metar": "METAR LIPR 021220Z 04006KT 010V070 9999 SCT055 06/03 Q1003",
      "taf": "TAF LIPR 021100Z 0212/0312 30007KT 9999 SCT050"
    },
    {
      "icao": "LIPX",
      "alert": "OK",
      "vis_m": 1500,
      "fzfg": false,
      "metar_trigger": false,
      "taf_trigger": false,
      "metar": "METAR LIPX 021220Z VRB02KT 1500 BR OVC005 03/02 Q1003",
      "taf": "TAF LIPX 021100Z 0212/0312 VRB04KT 2000 BR SCT030"
    },
    {
      "icao": "LIPY",
      "alert": "OK",
      "vis_m": 9999,
      "fzfg": false,
      "metar_trigger": false,
      "taf_trigger": false,
      "metar": "METAR LIPY 021220Z AUTO 24016KT 9999 SCT062/// 16/04 Q1003",
      "taf": "TAF LIPY 021100Z 0212/0312 20015KT 9999 BKN045"
    },
    {
      "icao": "LIPZ",
      "alert": "OK",
      "vis_m": 9999,
      "fzfg": false,
      "metar_trigger": false,
      "taf_trigger": false,
      "metar": "METAR LIPZ 021220Z 02003KT 340V070 9999 BKN055 05/M01 Q1004 NOSIG",
      "taf": "TAF LIPZ 021100Z 0212/0318 VRB05KT 9999 BKN030"
    },
    {
      "icao": "LIRF",
      "alert": "OK",
      "vis_m": 9999,
      "fzfg": false,
      "metar_trigger": false,
      "taf_trigger": false,
      "metar": "METAR LIRF 021220Z 23018KT 9999 BKN050 15/07 Q1009 NOSIG",
      "taf": "TAF LIRF 021100Z 0212/0318 23015KT 9999 SCT025"
    },
    {
      "icao": "LIRN",
      "alert": "OK",
      "vis_m": 9999,
      "fzfg": false,
      "metar_trigger": false,
      "taf_trigger": false,
      "metar": "METAR LIRN 021220Z 21006KT 9999 SCT030 13/09 Q1011 NOSIG",
      "taf": "TAF LIRN 021100Z 0212/0312 23012KT 9999 BKN030"
    },
    {
      "icao": "LIRP",
      "alert": "OK",
      "vis_m": 9999,
      "fzfg": false,
      "metar_trigger": false,
      "taf_trigger": false,
      "metar": "METAR LIRP 021215Z 23022G32KT 9999 SCT040 14/08 Q1005 NOSIG",
      "taf": "TAF LIRP 021100Z 0212/0312 24022G32KT 9999 BKN030"
    },
    {
      "icao": "LIRZ",
      "alert": "OK",
      "vis_m": 9999,
      "fzfg": false,
      "metar_trigger": false,
      "taf_trigger": false,
      "metar": "METAR LIRZ 021220Z AUTO 18009KT 150V210 9999 SCT028/// 12/08 Q1006",
      "taf": "TAF LIRZ 021100Z 0212/0312 20013KT 9999 SCT030"
    },
    {
      "icao": "LJLJ",
      "alert": "OK",
      "vis_m": 9999,
      "fzfg": false,
      "metar_trigger": false,
      "taf_trigger": false,
      "metar": "METAR LJLJ 021200Z 35005KT 300V030 9999 -DZ FEW017 BKN040 04/01 Q1001 NOSIG",
      "taf": "TAF LJLJ 021100Z 0212/0312 30004KT 9999 BKN027 OVC045"
    },
    {
      "icao": "LKMT",
      "alert": "OK",
      "vis_m": 5000,
      "fzfg": false,
      "metar_trigger": false,
      "taf_trigger": false,
      "metar": "METAR LKMT 021230Z 22019KT 5000 -SN SCT010 BKN034 01/M02 Q0996 NOSIG",
      "taf": "TAF LKMT 021100Z 0212/0312 22018KT 9999 SCT035"
    },
    {
      "icao": "LKPR",
      "alert": "OK",
      "vis_m": 9999,
      "fzfg": false,
      "metar_trigger": false,
      "taf_trigger": false,
      "metar": "METAR LKPR 021230Z 23021G31KT 9999 SCT030 BKN040 01/M04 Q0994 NOSIG",
      "taf": "TAF LKPR 021100Z 0212/0318 22022KT 9999 SCT030"
    },
    {
      "icao": "LLBG",
      "alert": "OK",
      "vis_m": 9999,
      "fzfg": false,
      "metar_trigger": false,
      "taf_trigger": false,
      "metar": "METAR LLBG 021220Z 29010KT 250V310 9999 SCT049 16/06 Q1021 NOSIG",
      "taf": "TAF LLBG 021106Z 0212/0312 28012KT 9999 SCT040"
    },
    {
      "icao": "LMML",
      "alert": "OK",
      "vis_m": 9999,
      "fzfg": false,
      "metar_trigger": false,
      "taf_trigger": false,
      "metar": "METAR LMML 021215Z 22017KT 9999 FEW035 17/09 Q1018 NOSIG",
      "taf": "TAF LMML 021100Z 0212/0312 22010KT 9999 FEW020"
    },
    {
      "icao": "LOWW",
      "alert": "OK",
      "vis_m": 9999,
      "fzfg": false,
      "metar_trigger": false,
      "taf_trigger": false,
      "metar": "METAR LOWW 021220Z 28020G32KT CAVOK 05/M03 Q1000 NOSIG",
      "taf": "TAF LOWW 021115Z 0212/0318 26015G25KT CAVOK TX04/0312Z TNM01/0318Z"
    },
    {
      "icao": "LPFR",
      "alert": "OK",
      "vis_m": 9999,
      "fzfg": false,
      "metar_trigger": false,
      "taf_trigger": false,
      "metar": "METAR LPFR 021200Z 11010KT 9999 FEW020 SCT045 17/14 Q1005",
      "taf": "TAF LPFR 021100Z 0212/0312 15017KT 9999 SCT012 SCT025"
    },
    {
      "icao": "LPMA",
      "alert": "OK",
      "vis_m": 9999,
      "fzfg": false,
      "metar_trigger": false,
      "taf_trigger": false,
      "metar": "METAR LPMA 021200Z 35003KT 300V080 9999 SCT015 18/12 Q0998",
      "taf": "TAF LPMA 021100Z 0212/0312 23015KT 9999 SCT015"
    },
    {
      "icao": "LPPR",
      "alert": "OK",
      "vis_m": 9999,
      "fzfg": false,
      "metar_trigger": false,
      "taf_trigger": false,
      "metar": "METAR LPPR 021200Z 12012KT 060V140 9999 FEW025 BKN035 14/10 Q1003",
      "taf": "TAF LPPR 021100Z 0212/0312 12012KT 9999 SCT040"
    },
    {
      "icao": "LPPS",
      "alert": "OK",
      "vis_m": 9999,
      "fzfg": false,
      "metar_trigger": false,
      "taf_trigger": false,
      "metar": "METAR LPPS 021200Z 26019G30KT 9999 VCSH SCT014 FEW018TCU SCT030 17/13 Q0998",
      "taf": "TAF LPPS 021100Z 0212/0318 27020KT 9999 SCT015 SCT030"
    },
    {
      "icao": "LPPT",
      "alert": "OK",
      "vis_m": 9999,
      "fzfg": false,
      "metar_trigger": false,
      "taf_trigger": false,
      "metar": "METAR LPPT 021200Z 13008KT 100V170 9999 VCSH FEW008 SCT015 BKN020 FEW025TCU 14/13 Q1002",
      "taf": "TAF LPPT 021100Z 0212/0318 15013KT 9999 SCT012 BKN025"
    },
    {
      "icao": "LQBK",
      "alert": "OK",
      "vis_m": 9999,
      "fzfg": false,
      "metar_trigger": false,
      "taf_trigger": false,
      "metar": "METAR LQBK 021230Z 20012KT 170V230 9999 FEW033 SCT040 14/02 Q1002 TEMPO 20015G25KT",
      "taf": "TAF LQBK 021100Z 0212/0312 22010KT CAVOK TX15/0213Z TNM00/0308Z"
    },
    {
      "icao": "LQSA",
      "alert": "OK",
      "vis_m": 9999,
      "fzfg": false,
      "metar_trigger": false,
      "taf_trigger": false,
      "metar": "METAR LQSA 021230Z VRB01KT 9999 -RA SCT030 BKN045 07/05 Q1004 NOSIG",
      "taf": "TAF LQSA 021100Z 0212/0312 20006KT 9999 FEW030 BKN050 TX10/0312Z TN01/0301Z"
    },
    {
      "icao": "LQTZ",
      "alert": "OK",
      "vis_m": 9999,
      "fzfg": false,
      "metar_trigger": false,
      "taf_trigger": false,
      "metar": "METAR LQTZ 021230Z 33006KT 9999 BKN058 13/02 Q1003",
      "taf": "TAF LQTZ 021100Z 0212/0312 16005KT 9999 SCT040 TX14/0213Z TN01/0306Z"
    },
    {
      "icao": "LRBC",
      "alert": "OK",
      "vis_m": 9999,
      "fzfg": false,
      "metar_trigger": false,
      "taf_trigger": false,
      "metar": "METAR LRBC 021200Z 16012KT CAVOK 02/M06 Q1004",
      "taf": "TAF LRBC 021100Z 0212/0221 17010KT CAVOK"
    },
    {
      "icao": "LRBS",
      "alert": "OK",
      "vis_m": 9999,
      "fzfg": false,
      "metar_trigger": false,
      "taf_trigger": false,
      "metar": "METAR LRBS 021200Z 24008KT 210V270 CAVOK 06/M07 Q1010 NOSIG",
      "taf": "TAF LRBS 021100Z 0212/0312 VRB04KT CAVOK"
    },
    {
      "icao": "LRBV",
      "alert": "OK",
      "vis_m": 9999,
      "fzfg": false,
      "metar_trigger": false,
      "taf_trigger": false,
      "metar": "METAR LRBV 021200Z 23009KT 9999 FEW063 05/M02 Q1004",
      "taf": "TAF LRBV 021100Z 0212/0221 22010KT 9999 BKN050"
    },
    {
      "icao": "LRCL",
      "alert": "OK",
      "vis_m": 9999,
      "fzfg": false,
      "metar_trigger": false,
      "taf_trigger": false,
      "metar": "METAR LRCL 021200Z 07005KT 9999 -RA OVC045 02/M01 Q1003",
      "taf": "TAF LRCL 021100Z 0212/0221 VRB04KT 9999 BKN050"
    },
    {
      "icao": "LRCV",
      "alert": "OK",
      "vis_m": 9999,
      "fzfg": false,
      "metar_trigger": false,
      "taf_trigger": false,
      "metar": "METAR LRCV 021200Z 09005KT 040V110 9999 SCT040 03/M04 Q1009",
      "taf": "TAF LRCV 021100Z 0212/0221 VRB04KT CAVOK"
    },
    {
      "icao": "LRIA",
      "alert": "OK",
      "vis_m": 9999,
      "fzfg": false,
      "metar_trigger": false,
      "taf_trigger": false,
      "metar": "METAR LRIA 021200Z 18008KT 150V210 CAVOK 04/M04 Q1003",
      "taf": "TAF LRIA 021100Z 0212/0221 16008KT CAVOK"
    },
    {
      "icao": "LROP",
      "alert": "OK",
      "vis_m": 9999,
      "fzfg": false,
      "metar_trigger": false,
      "taf_trigger": false,
      "metar": "METAR LROP 021200Z 25009KT CAVOK 06/M10 Q1010 NOSIG",
      "taf": "TAF LROP 021100Z 0212/0312 VRB04KT CAVOK"
    },
    {
      "icao": "LRSB",
      "alert": "OK",
      "vis_m": 9999,
      "fzfg": false,
      "metar_trigger": false,
      "taf_trigger": false,
      "metar": "METAR LRSB 021200Z 06005KT 9999 FEW033 BKN055 06/M01 Q1004",
      "taf": "TAF LRSB 021100Z 0212/0312 VRB04KT 9999 BKN045"
    },
    {
      "icao": "LRSM",
      "alert": "OK",
      "vis_m": 9999,
      "fzfg": false,
      "metar_trigger": false,
      "taf_trigger": false,
      "metar": "METAR LRSM 021200Z 21017KT 9999 FEW024 02/00 Q1002",
      "taf": "TAF LRSM 021100Z 0212/0221 22012KT 9999 SCT015 BKN030"
    },
    {
      "icao": "LRSV",
      "alert": "OK",
      "vis_m": 9999,
      "fzfg": false,
      "metar_trigger": false,
      "taf_trigger": false,
      "metar": "METAR LRSV 021200Z 17009KT CAVOK 05/M02 Q0999",
      "taf": "TAF LRSV 021100Z 0212/0221 19008KT CAVOK"
    },
    {
      "icao": "LRTM",
      "alert": "OK",
      "vis_m": 9999,
      "fzfg": false,
      "metar_trigger": false,
      "taf_trigger": false,
      "metar": "METAR LRTM 021200Z 20010KT 9999 SCT034 BKN042 06/M01 Q1004",
      "taf": "TAF LRTM 021100Z 0212/0221 22012KT 9999 BKN050"
    },
    {
      "icao": "LRTR",
      "alert": "OK",
      "vis_m": 9999,
      "fzfg": false,
      "metar_trigger": false,
      "taf_trigger": false,
      "metar": "METAR LRTR 021200Z 19010KT 9999 BKN041 06/M03 Q1004",
      "taf": "TAF LRTR 021100Z 0212/0312 19014KT 9999 BKN045"
    },
    {
      "icao": "LTAC",
      "alert": "OK",
      "vis_m": 9999,
      "fzfg": false,
      "metar_trigger": false,
      "taf_trigger": false,
      "metar": "METAR LTAC 021220Z VRB02KT CAVOK M03/M10 Q1021 NOSIG RMK RWY21C 07004KT RWY03L 01003KT 300V060 RWY21R 08004KT RWY03R VRB02KT RWY21L 06004KT",
      "taf": "TAF LTAC 021040Z 0212/0312 VRB02KT CAVOK"
    },
    {
      "icao": "LTFM",
      "alert": "OK",
      "vis_m": 9999,
      "fzfg": false,
      "metar_trigger": false,
      "taf_trigger": false,
      "metar": "METAR LTFM 021220Z 20018KT CAVOK 06/M04 Q1018 NOSIG RMK RWY17L 20023G33KT RWY34L 19018G28KT RWY16R 20017KT RWY36 20020KT RWY18 21022KT",
      "taf": "TAF LTFM 021040Z 0212/0318 20020G30KT CAVOK"
    },
    {
      "icao": "LUKK",
      "alert": "OK",
      "vis_m": 9999,
      "fzfg": false,
      "metar_trigger": false,
      "taf_trigger": false,
      "metar": "METAR LUKK 021230Z 21006KT 170V240 CAVOK 02/M06 Q1005 TEMPO 22016G26KT",
      "taf": "TAF LUKK 021118Z 0212/0312 22012KT CAVOK"
    },
    {
      "icao": "LWOH",
      "alert": "OK",
      "vis_m": 9999,
      "fzfg": false,
      "metar_trigger": false,
      "taf_trigger": false,
      "metar": "METAR LWOH 021220Z 13005KT 100V170 9999 SCT015 BKN035 05/02 Q1013",
      "taf": "TAF LWOH 021130Z 0212/0312 16010KT 9999 SCT020 BKN040"
    },
    {
      "icao": "LWSK",
      "alert": "OK",
      "vis_m": 9999,
      "fzfg": false,
      "metar_trigger": false,
      "taf_trigger": false,
      "metar": "METAR LWSK 021220Z VRB03KT 9999 BKN060 03/M07 Q1015 NOSIG",
      "taf": "TAF LWSK 021130Z 0212/0312 VRB02KT 9999 SCT040 BKN070"
    },
    {
      "icao": "LYBE",
      "alert": "OK",
      "vis_m": 9999,
      "fzfg": false,
      "metar_trigger": false,
      "taf_trigger": false,
      "metar": "METAR LYBE 021230Z 16010KT CAVOK 12/M01 Q1003 NOSIG",
      "taf": ""
    },
    {
      "icao": "LYNI",
      "alert": "OK",
      "vis_m": 9999,
      "fzfg": false,
      "metar_trigger": false,
      "taf_trigger": false,
      "metar": "METAR LYNI 021230Z 15010KT 110V190 9999 BKN055 10/M07 Q1009 NOSIG",
      "taf": "TAF LYNI 021100Z 0212/0312 16012KT CAVOK TX10/0213Z TN02/0312Z"
    },
    {
      "icao": "LYPG",
      "alert": "OK",
      "vis_m": 5000,
      "fzfg": false,
      "metar_trigger": false,
      "taf_trigger": false,
      "metar": "METAR LYPG 021230Z 02005KT 5000 -RA BR FEW015 BKN034 OVC070 01/01 Q1013 NOSIG",
      "taf": "TAF LYPG 021100Z 0212/0312 36006KT 5000 RA FEW015 BKN030 OVC070 TX09/0312Z TN01/0212Z"
    },
    {
      "icao": "LZIB",
      "alert": "OK",
      "vis_m": 9999,
      "fzfg": false,
      "metar_trigger": false,
      "taf_trigger": false,
      "metar": "METAR LZIB 021230Z 26018KT 9999 FEW038 06/M03 Q1000 NOSIG",
      "taf": "TAF LZIB 021115Z 0212/0312 22008KT CAVOK"
    },
    {
      "icao": "LZKZ",
      "alert": "OK",
      "vis_m": 9999,
      "fzfg": false,
      "metar_trigger": false,
      "taf_trigger": false,
      "metar": "METAR LZKZ 021230Z 24003KT CAVOK 00/M03 Q0999 NOSIG",
      "taf": "TAF LZKZ 021115Z 0212/0312 22010KT 9999 SCT020"
    },
    {
      "icao": "LZTT",
      "alert": "OK",
      "vis_m": 9999,
      "fzfg": false,
      "metar_trigger": false,
      "taf_trigger": false,
      "metar": "METAR LZTT 021230Z 27017KT 9999 -SN DRSN BKN033 M01/M04 Q0995 NOSIG",
      "taf": "TAF LZTT 021115Z 0212/0312 26015KT 9999 BKN033"
    },
    {
      "icao": "OEJN",
      "alert": "OK",
      "vis_m": 9999,
      "fzfg": false,
      "metar_trigger": false,
      "taf_trigger": false,
      "metar": "METAR OEJN 021200Z 28012KT CAVOK 29/15 Q1014 NOSIG",
      "taf": "TAF OEJN 021100Z 0212/0318 32010KT CAVOK"
    },
    {
      "icao": "OEMA",
      "alert": "OK",
      "vis_m": 9999,
      "fzfg": false,
      "metar_trigger": false,
      "taf_trigger": false,
      "metar": "METAR OEMA 021200Z 03003KT CAVOK 27/M02 Q1019 NOSIG",
      "taf": "TAF OEMA 021100Z 0212/0318 07008KT CAVOK"
    },
    {
      "icao": "OJAI",
      "alert": "OK",
      "vis_m": 4000,
      "fzfg": false,
      "metar_trigger": false,
      "taf_trigger": false,
      "metar": "METAR OJAI 021200Z 28014KT 4000 HZ FEW020 SCT040 11/07 Q1021 NOSIG",
      "taf": "TAF OJAI 021040Z 0212/0318 25014KT 3000 BR SCT025 BKN035"
    },
    {
      "icao": "OMAA",
      "alert": "OK",
      "vis_m": 9999,
      "fzfg": false,
      "metar_trigger": false,
      "taf_trigger": false,
      "metar": "METAR OMAA 021200Z 33008KT 300V020 9999 FEW030 23/15 Q1017 NOSIG",
      "taf": "TAF OMAA 021100Z 0212/0318 31010KT 9999 FEW040"
    },
    {
      "icao": "OMDB",
      "alert": "OK",
      "vis_m": 9999,
      "fzfg": false,
      "metar_trigger": false,
      "taf_trigger": false,
      "metar": "METAR OMDB 021230Z 30010KT 270V330 9999 FEW033 24/15 Q1018 NOSIG",
      "taf": "TAF OMDB 021100Z 0212/0318 29010KT 8000 NSC"
    },
    {
      "icao": "UAAA",
      "alert": "OK",
      "vis_m": 5000,
      "fzfg": false,
      "metar_trigger": false,
      "taf_trigger": false,
      "metar": "METAR UAAA 021200Z 06002MPS 5000 BR OVC009 01/M01 Q1020 NOSIG",
      "taf": "TAF UAAA 021105Z 0212/0312 16003MPS 1200 BR FU BKN011 OVC030 TX03/0309Z TNM03/0302Z"
    },
    {
      "icao": "UBBB",
      "alert": "OK",
      "vis_m": 9999,
      "fzfg": false,
      "metar_trigger": false,
      "taf_trigger": false,
      "metar": "METAR UBBB 021230Z 32018G28KT 9999 -SHRASN SCT009 BKN035CB OVC035 03/01 Q1025 NOSIG",
      "taf": ""
    },
    {
      "icao": "UDSG",
      "alert": "OK",
      "vis_m": 9999,
      "fzfg": false,
      "metar_trigger": false,
      "taf_trigger": false,
      "metar": "METAR UDSG 021200Z 30005KT 9999 NSC M08/M15 Q1020 NOSIG",
      "taf": "TAF UDSG 021058Z 0212/0312 VRB06KT 9999 FEW040"
    },
    {
      "icao": "UDYZ",
      "alert": "OK",
      "vis_m": 9999,
      "fzfg": false,
      "metar_trigger": false,
      "taf_trigger": false,
      "metar": "METAR UDYZ 021200Z 10001KT 9999 NSC 00/M09 Q1021 NOSIG",
      "taf": "TAF UDYZ 021100Z 0212/0312 VRB06KT 9999 FEW040"
    },
    {
      "icao": "UGKO",
      "alert": "OK",
      "vis_m": 9999,
      "fzfg": false,
      "metar_trigger": false,
      "taf_trigger": false,
      "metar": "METAR UGKO 021200Z AUTO 01005KT 330V050 CAVOK 05/M06 Q1026 NOSIG",
      "taf": "TAF UGKO 021100Z 0212/0312 08017KT CAVOK TX07/0212Z TNM04/0303Z"
    }
  ]
}