{
  "ts_utc": "2026-05-16T18:07:09Z",
  "threshold_m": 150,
  "source": "stations_override.txt (ICAO list) + aviationweather.gov (METAR/TAF raw)",
  "station_count": 159,
  "stations": [
    {
      "icao": "BIKF",
      "alert": "OK",
      "vis_m": 9999,
      "fzfg": false,
      "metar_trigger": false,
      "taf_trigger": false,
      "metar": "METAR BIKF 161800Z 13017KT 9999 -RA SCT012 BKN039 OVC051 07/04 Q1000",
      "taf": "TAF BIKF 161700Z 1618/1718 12020KT 9999 BKN032 TX09/1715Z TN05/1705Z"
    },
    {
      "icao": "BKPR",
      "alert": "OK",
      "vis_m": 9999,
      "fzfg": false,
      "metar_trigger": false,
      "taf_trigger": false,
      "metar": "METAR BKPR 161800Z 21021KT 9999 FEW040 13/05 Q1002 NOSIG",
      "taf": "TAF BKPR 161730Z 1618/1718 23015KT 9999 SCT040"
    },
    {
      "icao": "EBCI",
      "alert": "OK",
      "vis_m": 9999,
      "fzfg": false,
      "metar_trigger": false,
      "taf_trigger": false,
      "metar": "METAR EBCI 161750Z 22010KT 9999 SCT025 11/04 Q1011 NOSIG",
      "taf": "TAF EBCI 161700Z 1618/1724 25009KT 9999 FEW020TCU SCT040"
    },
    {
      "icao": "EDDB",
      "alert": "OK",
      "vis_m": 9999,
      "fzfg": false,
      "metar_trigger": false,
      "taf_trigger": false,
      "metar": "METAR EDDB 161750Z AUTO 25005KT CAVOK 12/05 Q1009 NOSIG",
      "taf": "TAF EDDB 161700Z 1618/1718 26009KT CAVOK"
    },
    {
      "icao": "EDDH",
      "alert": "OK",
      "vis_m": 9999,
      "fzfg": false,
      "metar_trigger": false,
      "taf_trigger": false,
      "metar": "METAR EDDH 161750Z AUTO 24008KT CAVOK 11/05 Q1009 NOSIG",
      "taf": "TAF EDDH 161700Z 1618/1724 28006KT 9999 SCT040"
    },
    {
      "icao": "EDDK",
      "alert": "OK",
      "vis_m": 9999,
      "fzfg": false,
      "metar_trigger": false,
      "taf_trigger": false,
      "metar": "METAR EDDK 161750Z AUTO 25008KT 210V280 9999 -RA FEW025 12/02 Q1010 TEMPO SHRA BKN040TCU",
      "taf": "TAF EDDK 161700Z 1618/1724 23005KT 9999 SCT040"
    },
    {
      "icao": "EDDN",
      "alert": "OK",
      "vis_m": 9999,
      "fzfg": false,
      "metar_trigger": false,
      "taf_trigger": false,
      "metar": "METAR EDDN 161750Z AUTO 30009KT CAVOK 11/00 Q1011 NOSIG",
      "taf": "TAF EDDN 161700Z 1618/1718 27005KT CAVOK"
    },
    {
      "icao": "EDDS",
      "alert": "OK",
      "vis_m": 9999,
      "fzfg": false,
      "metar_trigger": false,
      "taf_trigger": false,
      "metar": "METAR EDDS 161750Z AUTO 16003KT 120V220 CAVOK 11/04 Q1012 NOSIG",
      "taf": "TAF EDDS 161700Z 1618/1718 VRB03KT 9999 SCT045"
    },
    {
      "icao": "EDFH",
      "alert": "OK",
      "vis_m": 9999,
      "fzfg": false,
      "metar_trigger": false,
      "taf_trigger": false,
      "metar": "METAR EDFH 161750Z 23006KT 190V270 CAVOK 09/02 Q1011",
      "taf": "TAF EDFH 161700Z 1618/1718 24007KT 9999 SCT040"
    },
    {
      "icao": "EDJA",
      "alert": "OK",
      "vis_m": 9999,
      "fzfg": false,
      "metar_trigger": false,
      "taf_trigger": false,
      "metar": "METAR EDJA 161750Z 22010KT 9999 FEW056 07/04 Q1012",
      "taf": "TAF EDJA 161700Z 1618/1703 22008KT 9999 SCT050"
    },
    {
      "icao": "EDLW",
      "alert": "OK",
      "vis_m": 9999,
      "fzfg": false,
      "metar_trigger": false,
      "taf_trigger": false,
      "metar": "METAR EDLW 161750Z 21004KT CAVOK 11/03 Q1009",
      "taf": "TAF EDLW 161700Z 1618/1718 24008KT 9999 FEW040"
    },
    {
      "icao": "EDNY",
      "alert": "OK",
      "vis_m": 9999,
      "fzfg": false,
      "metar_trigger": false,
      "taf_trigger": false,
      "metar": "METAR EDNY 161750Z 23005KT 9999 SCT053 10/03 Q1013",
      "taf": "TAF EDNY 161700Z 1618/1703 24008KT 9999 SCT040"
    },
    {
      "icao": "EDSB",
      "alert": "OK",
      "vis_m": 9999,
      "fzfg": false,
      "metar_trigger": false,
      "taf_trigger": false,
      "metar": "METAR EDSB 161750Z 21004KT CAVOK 13/04 Q1012",
      "taf": "TAF EDSB 161700Z 1618/1718 22004KT 9999 FEW045"
    },
    {
      "icao": "EETN",
      "alert": "OK",
      "vis_m": 9999,
      "fzfg": false,
      "metar_trigger": false,
      "taf_trigger": false,
      "metar": "METAR EETN 161750Z 04003KT 9999 FEW027CB 13/07 Q1005 NOSIG",
      "taf": "TAF EETN 161730Z 1618/1718 26010KT 9999 SCT020"
    },
    {
      "icao": "EFTU",
      "alert": "OK",
      "vis_m": 9999,
      "fzfg": false,
      "metar_trigger": false,
      "taf_trigger": false,
      "metar": "METAR EFTU 161750Z AUTO 19007KT CAVOK 14/07 Q1003",
      "taf": "TAF EFTU 161733Z 1618/1718 20009KT CAVOK"
    },
    {
      "icao": "EGBB",
      "alert": "OK",
      "vis_m": 9999,
      "fzfg": false,
      "metar_trigger": false,
      "taf_trigger": false,
      "metar": "METAR EGBB 161750Z 22005KT 170V260 9999 FEW019 SCT034 12/08 Q1006",
      "taf": "TAF EGBB 161702Z 1618/1718 26009KT 9999 SCT040"
    },
    {
      "icao": "EGGP",
      "alert": "OK",
      "vis_m": 9999,
      "fzfg": false,
      "metar_trigger": false,
      "taf_trigger": false,
      "metar": "METAR EGGP 161750Z 23001KT 9999 SCT019 BKN034 11/09 Q1005",
      "taf": "TAF EGGP 161701Z 1618/1718 20004KT 9999 SCT030"
    },
    {
      "icao": "EGGW",
      "alert": "OK",
      "vis_m": 9999,
      "fzfg": false,
      "metar_trigger": false,
      "taf_trigger": false,
      "metar": "METAR EGGW 161750Z AUTO 21006KT 9999 -RA BKN044 11/08 Q1007",
      "taf": "TAF EGGW 161702Z 1618/1718 22010KT 9999 SCT040"
    },
    {
      "icao": "EGKK",
      "alert": "OK",
      "vis_m": 9000,
      "fzfg": false,
      "metar_trigger": false,
      "taf_trigger": false,
      "metar": "METAR EGKK 161750Z 21006KT 9000 -RA SCT013 11/10 Q1008",
      "taf": "TAF EGKK 161655Z 1618/1724 22008KT 9999 BKN030"
    },
    {
      "icao": "EGNM",
      "alert": "OK",
      "vis_m": 9999,
      "fzfg": false,
      "metar_trigger": false,
      "taf_trigger": false,
      "metar": "METAR EGNM 161750Z 25005KT 9999 -RA SCT008 BKN016 09/08 Q1004",
      "taf": "TAF EGNM 161702Z 1618/1718 27010KT 9999 SCT030"
    },
    {
      "icao": "EGPD",
      "alert": "OK",
      "vis_m": 9999,
      "fzfg": false,
      "metar_trigger": false,
      "taf_trigger": false,
      "metar": "METAR EGPD 161750Z AUTO 14007KT 110V170 9999 SCT048 09/01 Q1002",
      "taf": "TAF EGPD 161657Z 1618/1718 15009KT 9999 FEW030"
    },
    {
      "icao": "EGPF",
      "alert": "OK",
      "vis_m": 9999,
      "fzfg": false,
      "metar_trigger": false,
      "taf_trigger": false,
      "metar": "METAR EGPF 161750Z AUTO 23005KT 9999 -RA BKN033 OVC045 09/06 Q1003",
      "taf": "TAF EGPF 161700Z 1618/1718 22007KT 9999 SCT030"
    },
    {
      "icao": "EHBK",
      "alert": "OK",
      "vis_m": 9999,
      "fzfg": false,
      "metar_trigger": false,
      "taf_trigger": false,
      "metar": "METAR EHBK 161755Z AUTO 24004KT 200V280 9999 NSC 11/05 Q1010 NOSIG",
      "taf": "TAF EHBK 161722Z 1618/1724 24008KT CAVOK"
    },
    {
      "icao": "EHEH",
      "alert": "OK",
      "vis_m": 9999,
      "fzfg": false,
      "metar_trigger": false,
      "taf_trigger": false,
      "metar": "METAR EHEH 161755Z AUTO 21006KT 9999 FEW072 BKN079 OVC085 12/06 Q1009 BLU NOSIG RMK TREND REMOTE BY EHWX",
      "taf": "TAF EHEH 161755Z 1618/1724 20007KT 9999 FEW040"
    },
    {
      "icao": "EKBI",
      "alert": "OK",
      "vis_m": 9999,
      "fzfg": false,
      "metar_trigger": false,
      "taf_trigger": false,
      "metar": "METAR EKBI 161750Z 23011KT 9999 -SHRA SCT014 FEW020CB BKN040 09/07 Q1004",
      "taf": "TAF EKBI 161727Z 1618/1718 24012KT 9999 BKN020"
    },
    {
      "icao": "EKCH",
      "alert": "OK",
      "vis_m": 9999,
      "fzfg": false,
      "metar_trigger": false,
      "taf_trigger": false,
      "metar": "METAR EKCH 161750Z AUTO 22015KT 9999 FEW023/// SCT047/// SCT089/// BKN100/// 10/06 Q1005 TEMPO SCT025CB",
      "taf": "TAF EKCH 161727Z 1618/1718 23014KT 9999 SCT030"
    },
    {
      "icao": "ENAL",
      "alert": "OK",
      "vis_m": 9999,
      "fzfg": false,
      "metar_trigger": false,
      "taf_trigger": false,
      "metar": "METAR ENAL 161750Z 02004KT CAVOK 11/05 Q0997",
      "taf": "TAF ENAL 161700Z 1618/1703 04008KT CAVOK"
    },
    {
      "icao": "ENBR",
      "alert": "OK",
      "vis_m": 9999,
      "fzfg": false,
      "metar_trigger": false,
      "taf_trigger": false,
      "metar": "METAR ENBR 161750Z 33006KT 9999 VCSH SCT053CB 12/M00 Q0998 NOSIG RMK WIND 1200FT 31007KT",
      "taf": "TAF ENBR 161700Z 1618/1718 31010KT 9999 FEW040 SCT050"
    },
    {
      "icao": "ENGM",
      "alert": "OK",
      "vis_m": 9999,
      "fzfg": false,
      "metar_trigger": false,
      "taf_trigger": false,
      "metar": "METAR ENGM 161750Z 03003KT 350V100 9999 -SHRA FEW005 SCT030CB BKN037 08/05 Q0999 TEMPO 4000 SHRA BKN014 SCT030CB",
      "taf": "TAF ENGM 161700Z 1618/1718 03007KT 9999 FEW010 BKN020"
    },
    {
      "icao": "ENHD",
      "alert": "OK",
      "vis_m": 9999,
      "fzfg": false,
      "metar_trigger": false,
      "taf_trigger": false,
      "metar": "METAR ENHD 161750Z AUTO 31005KT 280V350 9999 NCD 11/03 Q0999",
      "taf": "TAF ENHD 161400Z 1615/1622 31010KT CAVOK"
    },
    {
      "icao": "ENTC",
      "alert": "OK",
      "vis_m": 9999,
      "fzfg": false,
      "metar_trigger": false,
      "taf_trigger": false,
      "metar": "METAR ENTC 161750Z 17006KT 130V210 CAVOK 10/04 Q1007 NOSIG RMK WIND 2600FT 31005KT",
      "taf": "TAF ENTC 161700Z 1618/1718 29008KT CAVOK"
    },
    {
      "icao": "ENTO",
      "alert": "OK",
      "vis_m": 9999,
      "fzfg": false,
      "metar_trigger": false,
      "taf_trigger": false,
      "metar": "METAR ENTO 161750Z 16005KT 9999 VCSH SCT040CB 10/04 Q0999 TEMPO SHRA SCT030CB",
      "taf": "TAF ENTO 161700Z 1618/1718 16005KT 9999 SCT012 BKN025"
    },
    {
      "icao": "ENVA",
      "alert": "OK",
      "vis_m": 9999,
      "fzfg": false,
      "metar_trigger": false,
      "taf_trigger": false,
      "metar": "METAR ENVA 161750Z 00000KT 9999 FEW010 SCT035 BKN052 09/09 Q1000 RMK WIND 670FT 17003KT",
      "taf": "TAF ENVA 161700Z 1618/1718 27005KT 9999 -RA FEW012 BKN050"
    },
    {
      "icao": "ENZV",
      "alert": "OK",
      "vis_m": 9999,
      "fzfg": false,
      "metar_trigger": false,
      "taf_trigger": false,
      "metar": "METAR ENZV 161750Z 28006KT CAVOK 11/05 Q0999 NOSIG",
      "taf": "TAF ENZV 161700Z 1618/1718 29005KT 9999 FEW045"
    },
    {
      "icao": "EPGD",
      "alert": "OK",
      "vis_m": 9999,
      "fzfg": false,
      "metar_trigger": false,
      "taf_trigger": false,
      "metar": "METAR EPGD 161800Z 03004KT 9999 SCT046 09/06 Q1008",
      "taf": "TAF EPGD 161730Z 1618/1718 11010KT 9999 BKN040"
    },
    {
      "icao": "EPKK",
      "alert": "OK",
      "vis_m": 9999,
      "fzfg": false,
      "metar_trigger": false,
      "taf_trigger": false,
      "metar": "METAR EPKK 161800Z 33004KT 9999 -RA BKN048 11/09 Q1006",
      "taf": "TAF EPKK 161730Z 1618/1718 36006KT 9999 -RA SCT033 BKN040"
    },
    {
      "icao": "EPKT",
      "alert": "OK",
      "vis_m": 9999,
      "fzfg": false,
      "metar_trigger": false,
      "taf_trigger": false,
      "metar": "METAR EPKT 161800Z 33005KT 9999 FEW038 11/07 Q1007",
      "taf": "TAF EPKT 161730Z 1618/1718 36007KT CAVOK"
    },
    {
      "icao": "EPLB",
      "alert": "OK",
      "vis_m": 9999,
      "fzfg": false,
      "metar_trigger": false,
      "taf_trigger": false,
      "metar": "METAR EPLB 161800Z 33006KT 9999 SCT014 13/12 Q1005",
      "taf": "TAF EPLB 161730Z 1618/1718 32010KT 9999 BKN020"
    },
    {
      "icao": "EPMO",
      "alert": "OK",
      "vis_m": 9999,
      "fzfg": false,
      "metar_trigger": false,
      "taf_trigger": false,
      "metar": "METAR EPMO 161800Z 36005KT CAVOK 12/10 Q1007",
      "taf": "TAF EPMO 161730Z 1618/1718 01003KT 9999 SCT020"
    },
    {
      "icao": "EPPO",
      "alert": "OK",
      "vis_m": 9999,
      "fzfg": false,
      "metar_trigger": false,
      "taf_trigger": false,
      "metar": "METAR EPPO 161800Z 23006KT CAVOK 13/09 Q1008",
      "taf": "TAF EPPO 161730Z 1618/1718 32006KT CAVOK"
    },
    {
      "icao": "EPRA",
      "alert": "OK",
      "vis_m": 9999,
      "fzfg": false,
      "metar_trigger": false,
      "taf_trigger": false,
      "metar": "METAR EPRA 161800Z 01004KT 9999 SCT040 12/09 Q1006",
      "taf": "TAF EPRA 161730Z 1618/1703 36008KT 9999 SCT040"
    },
    {
      "icao": "EPRZ",
      "alert": "OK",
      "vis_m": 9999,
      "fzfg": false,
      "metar_trigger": false,
      "taf_trigger": false,
      "metar": "METAR EPRZ 161800Z 33008KT 9999 OVC005 13/12 Q1004",
      "taf": ""
    },
    {
      "icao": "EPSC",
      "alert": "OK",
      "vis_m": 9999,
      "fzfg": false,
      "metar_trigger": false,
      "taf_trigger": false,
      "metar": "METAR EPSC 161800Z 27004KT CAVOK 12/04 Q1008",
      "taf": "TAF EPSC 161730Z 1618/1718 25010KT 9999 SCT040"
    },
    {
      "icao": "EPSY",
      "alert": "OK",
      "vis_m": 9999,
      "fzfg": false,
      "metar_trigger": false,
      "taf_trigger": false,
      "metar": "METAR EPSY 161800Z 01005KT 9999 BKN019 11/09 Q1007",
      "taf": "TAF EPSY 161730Z 1618/1703 35007KT 9999 BKN020"
    },
    {
      "icao": "EPWA",
      "alert": "OK",
      "vis_m": 9999,
      "fzfg": false,
      "metar_trigger": false,
      "taf_trigger": false,
      "metar": "METAR EPWA 161800Z 34008KT 9999 BKN046 13/09 Q1006 NOSIG",
      "taf": "TAF EPWA 161730Z 1618/1718 36003KT 9999 SCT020"
    },
    {
      "icao": "EPWR",
      "alert": "OK",
      "vis_m": 9999,
      "fzfg": false,
      "metar_trigger": false,
      "taf_trigger": false,
      "metar": "METAR EPWR 161800Z 31004KT CAVOK 12/08 Q1009",
      "taf": "TAF EPWR 161730Z 1618/1718 31006KT CAVOK"
    },
    {
      "icao": "ESGG",
      "alert": "OK",
      "vis_m": 9999,
      "fzfg": false,
      "metar_trigger": false,
      "taf_trigger": false,
      "metar": "METAR ESGG 161750Z 17008KT 9999 VCSH SCT014CB BKN020 08/07 Q1000",
      "taf": "TAF ESGG 161730Z 1618/1718 17009KT 9999 SCT016 BKN030"
    },
    {
      "icao": "ESKN",
      "alert": "OK",
      "vis_m": 9999,
      "fzfg": false,
      "metar_trigger": false,
      "taf_trigger": false,
      "metar": "METAR ESKN 161750Z 28004KT 240V350 CAVOK 10/08 Q1003 REDZ",
      "taf": "TAF ESKN 161730Z 1618/1718 16009KT CAVOK"
    },
    {
      "icao": "ESMS",
      "alert": "OK",
      "vis_m": 9999,
      "fzfg": false,
      "metar_trigger": false,
      "taf_trigger": false,
      "metar": "METAR ESMS 161750Z 22013KT 9999 FEW038 BKN049 11/06 Q1005",
      "taf": "TAF ESMS 161727Z 1618/1718 22014KT 9999 SCT025"
    },
    {
      "icao": "ESSA",
      "alert": "OK",
      "vis_m": 9999,
      "fzfg": false,
      "metar_trigger": false,
      "taf_trigger": false,
      "metar": "METAR ESSA 161750Z 19013KT CAVOK 11/04 Q1002 NOSIG",
      "taf": "TAF ESSA 161730Z 1618/1718 19007KT 9999 FEW045"
    },
    {
      "icao": "EYKA",
      "alert": "OK",
      "vis_m": 9999,
      "fzfg": false,
      "metar_trigger": false,
      "taf_trigger": false,
      "metar": "METAR EYKA 161750Z VRB01KT 9999 -RA BKN041 12/11 Q1007",
      "taf": "TAF EYKA 161700Z 1618/1718 VRB05KT 5000 BR SCT010 OVC020"
    },
    {
      "icao": "EYPA",
      "alert": "OK",
      "vis_m": 8000,
      "fzfg": false,
      "metar_trigger": false,
      "taf_trigger": false,
      "metar": "METAR EYPA 161750Z VRB01KT 8000 OVC002 07/06 Q1008",
      "taf": "TAF EYPA 161700Z 1618/1718 VRB05KT 5000 BR OVC002"
    },
    {
      "icao": "EYVI",
      "alert": "OK",
      "vis_m": 9999,
      "fzfg": false,
      "metar_trigger": false,
      "taf_trigger": false,
      "metar": "METAR EYVI 161750Z 05003KT 020V090 9999 VCSH BKN069CB 14/13 Q1007 TEMPO 3000 SHRA",
      "taf": "TAF EYVI 161706Z 1618/1718 VRB05KT 9000 SCT015 OVC045"
    },
    {
      "icao": "GCFV",
      "alert": "OK",
      "vis_m": 9999,
      "fzfg": false,
      "metar_trigger": false,
      "taf_trigger": false,
      "metar": "METAR GCFV 161800Z 02016KT 350V050 9999 FEW025 BKN040 22/13 Q1018",
      "taf": "TAF GCFV 161400Z 1615/1715 03015KT 9999 SCT035 TX23/1714Z TN17/1706Z"
    },
    {
      "icao": "GCLP",
      "alert": "OK",
      "vis_m": 9999,
      "fzfg": false,
      "metar_trigger": false,
      "taf_trigger": false,
      "metar": "METAR GCLP 161800Z 36020KT 9999 FEW030 SCT045 21/13 Q1019 NOSIG",
      "taf": "TAF GCLP 161400Z 1615/1715 01020KT 9999 SCT035 TX23/1714Z TN18/1706Z"
    },
    {
      "icao": "GCTS",
      "alert": "OK",
      "vis_m": 9999,
      "fzfg": false,
      "metar_trigger": false,
      "taf_trigger": false,
      "metar": "METAR GCTS 161800Z 08017KT 9999 FEW035 SCT045 21/11 Q1019 NOSIG",
      "taf": "TAF GCTS 161400Z 1615/1715 09018KT 9999 BKN035 TX24/1714Z TN16/1706Z"
    },
    {
      "icao": "GMAD",
      "alert": "OK",
      "vis_m": 9999,
      "fzfg": false,
      "metar_trigger": false,
      "taf_trigger": false,
      "metar": "METAR GMAD 161800Z 18012KT CAVOK 25/12 Q1010 NOSIG",
      "taf": "TAF GMAD 161700Z 1618/1724 20008KT CAVOK"
    },
    {
      "icao": "GMMN",
      "alert": "OK",
      "vis_m": 9999,
      "fzfg": false,
      "metar_trigger": false,
      "taf_trigger": false,
      "metar": "METAR GMMN 161800Z 33011KT 9999 SCT020 SCT030 19/14 Q1016 NOSIG",
      "taf": "TAF GMMN 161700Z 1618/1724 36010KT 9999 SCT020 SCT040"
    },
    {
      "icao": "GMMX",
      "alert": "OK",
      "vis_m": 8000,
      "fzfg": false,
      "metar_trigger": false,
      "taf_trigger": false,
      "metar": "METAR GMMX 161800Z 35003KT 290V090 8000 SCT023 25/08 Q1014 NOSIG",
      "taf": "TAF GMMX 161700Z 1618/1724 24004KT 8000 SCT023 SCT080"
    },
    {
      "icao": "HEGN",
      "alert": "OK",
      "vis_m": 9999,
      "fzfg": false,
      "metar_trigger": false,
      "taf_trigger": false,
      "metar": "METAR HEGN 161700Z 34022KT CAVOK 30/03 Q1009 NOSIG",
      "taf": "TAF HEGN 161700Z 1618/1724 32012G22KT CAVOK"
    },
    {
      "icao": "HEMA",
      "alert": "OK",
      "vis_m": 9999,
      "fzfg": false,
      "metar_trigger": false,
      "taf_trigger": false,
      "metar": "METAR HEMA 161700Z 34018KT CAVOK 28/04 Q1009 NOSIG",
      "taf": "TAF HEMA 161700Z 1618/1724 31012G22KT CAVOK"
    },
    {
      "icao": "HESH",
      "alert": "OK",
      "vis_m": 9999,
      "fzfg": false,
      "metar_trigger": false,
      "taf_trigger": false,
      "metar": "METAR HESH 161700Z 35010KT CAVOK 29/10 Q1008 NOSIG",
      "taf": "TAF HESH 161700Z 1618/1724 35014KT CAVOK"
    },
    {
      "icao": "HESX",
      "alert": "OK",
      "vis_m": 9999,
      "fzfg": false,
      "metar_trigger": false,
      "taf_trigger": false,
      "metar": "METAR HESX 161700Z 33005KT CAVOK 26/09 Q1011 NOSIG",
      "taf": "TAF HESX 161700Z 1618/1724 35010KT CAVOK"
    },
    {
      "icao": "LATI",
      "alert": "OK",
      "vis_m": 9999,
      "fzfg": false,
      "metar_trigger": false,
      "taf_trigger": false,
      "metar": "METAR LATI 161750Z 02003KT 360V060 9999 FEW053 SCT094 16/10 Q1006 NOSIG",
      "taf": "TAF LATI 161700Z 1618/1718 VRB05KT 9999 SCT040 BKN080 TX24/1712Z TN10/1704Z"
    },
    {
      "icao": "LBPD",
      "alert": "OK",
      "vis_m": 9999,
      "fzfg": false,
      "metar_trigger": false,
      "taf_trigger": false,
      "metar": "METAR LBPD 161800Z AUTO 28015KT 9999 -RA SCT056/// OVC067/// 14/13 Q1001 NOSIG",
      "taf": "TAF LBPD 161700Z 1618/1718 28016KT 9999 SCT050"
    },
    {
      "icao": "LBSF",
      "alert": "OK",
      "vis_m": 9999,
      "fzfg": false,
      "metar_trigger": false,
      "taf_trigger": false,
      "metar": "METAR LBSF 161800Z AUTO VRB02KT 9999 -SHRA BKN055/// 13/10 Q1001 NOSIG",
      "taf": "TAF LBSF 161700Z 1618/1718 28014KT 9999 SCT050 BKN070"
    },
    {
      "icao": "LBWN",
      "alert": "OK",
      "vis_m": 9999,
      "fzfg": false,
      "metar_trigger": false,
      "taf_trigger": false,
      "metar": "METAR LBWN 161800Z AUTO 12013KT 9999 -SHRA //////CB 15/15 Q1003 RETSRA TEMPO VRB16G26KT 5000 TSRA SCT030CB",
      "taf": "TAF LBWN 161700Z 1618/1718 10012KT 9999 SCT045"
    },
    {
      "icao": "LCLK",
      "alert": "OK",
      "vis_m": 9999,
      "fzfg": false,
      "metar_trigger": false,
      "taf_trigger": false,
      "metar": "METAR LCLK 161800Z 22005KT CAVOK 21/16 Q1009 NOSIG",
      "taf": "TAF LCLK 161730Z 1618/1718 23006KT CAVOK"
    },
    {
      "icao": "LCPH",
      "alert": "OK",
      "vis_m": 9999,
      "fzfg": false,
      "metar_trigger": false,
      "taf_trigger": false,
      "metar": "METAR LCPH 161800Z 32009KT 9999 FEW018 20/17 Q1010 NOSIG",
      "taf": "TAF LCPH 161730Z 1618/1718 33008KT 9999 FEW012 SCT016"
    },
    {
      "icao": "LEAL",
      "alert": "OK",
      "vis_m": 9999,
      "fzfg": false,
      "metar_trigger": false,
      "taf_trigger": false,
      "metar": "METAR LEAL 161800Z 13008KT 090V170 9999 FEW035 19/11 Q1016 NOSIG",
      "taf": "TAF LEAL 161700Z 1618/1718 12012KT CAVOK TX23/1712Z TN12/1706Z"
    },
    {
      "icao": "LEBB",
      "alert": "OK",
      "vis_m": 9999,
      "fzfg": false,
      "metar_trigger": false,
      "taf_trigger": false,
      "metar": "METAR LEBB 161800Z 32006KT 9999 FEW030 BKN060 OVC070 16/10 Q1018 NOSIG",
      "taf": "TAF LEBB 161700Z 1618/1718 30009KT 9999 FEW025 TX17/1712Z TN08/1705Z"
    },
    {
      "icao": "LEBL",
      "alert": "OK",
      "vis_m": 9999,
      "fzfg": false,
      "metar_trigger": false,
      "taf_trigger": false,
      "metar": "METAR LEBL 161800Z 10007KT 080V250 9999 FEW020 17/06 Q1014 NOSIG",
      "taf": "TAF LEBL 161700Z 1618/1718 09007KT 9999 FEW020 TX20/1712Z TN13/1705Z"
    },
    {
      "icao": "LECH",
      "alert": "OK",
      "vis_m": 9999,
      "fzfg": false,
      "metar_trigger": false,
      "taf_trigger": false,
      "metar": "METAR LECH 161800Z AUTO 13006KT 100V170 CAVOK 17/06 Q1014",
      "taf": "TAF LECH 161700Z 1618/1718 17008KT CAVOK TX22/1714Z TN08/1706Z"
    },
    {
      "icao": "LEMD",
      "alert": "OK",
      "vis_m": 9999,
      "fzfg": false,
      "metar_trigger": false,
      "taf_trigger": false,
      "metar": "METAR LEMD 161800Z 12006KT 070V160 CAVOK 19/04 Q1014 NOSIG",
      "taf": "TAF LEMD 161700Z 1618/1724 VRB04KT CAVOK TX24/1715Z TN06/1705Z"
    },
    {
      "icao": "LEMG",
      "alert": "OK",
      "vis_m": 9999,
      "fzfg": false,
      "metar_trigger": false,
      "taf_trigger": false,
      "metar": "METAR LEMG 161800Z 14009KT CAVOK 20/09 Q1014 NOSIG",
      "taf": "TAF LEMG 161700Z 1618/1718 13010KT CAVOK TX24/1714Z TN15/1707Z"
    },
    {
      "icao": "LEVC",
      "alert": "OK",
      "vis_m": 9999,
      "fzfg": false,
      "metar_trigger": false,
      "taf_trigger": false,
      "metar": "METAR LEVC 161800Z 13012KT CAVOK 19/07 Q1014 NOSIG",
      "taf": "TAF LEVC 161700Z 1618/1718 12012KT CAVOK TX24/1712Z TN12/1706Z"
    },
    {
      "icao": "LEXJ",
      "alert": "OK",
      "vis_m": 9999,
      "fzfg": false,
      "metar_trigger": false,
      "taf_trigger": false,
      "metar": "METAR LEXJ 161800Z 30007KT 9999 BKN020 BKN066 15/11 Q1018",
      "taf": "TAF LEXJ 161400Z 1615/1715 22009KT 9999 SCT020 SCT040 TX18/1615Z TN11/1705Z"
    },
    {
      "icao": "LEZG",
      "alert": "OK",
      "vis_m": 9999,
      "fzfg": false,
      "metar_trigger": false,
      "taf_trigger": false,
      "metar": "METAR LEZG 161800Z 31016KT 280V340 CAVOK 17/06 Q1015 NOSIG",
      "taf": "TAF LEZG 161700Z 1618/1718 33015KT CAVOK TX18/1618Z TN09/1705Z"
    },
    {
      "icao": "LEZL",
      "alert": "OK",
      "vis_m": 9999,
      "fzfg": false,
      "metar_trigger": false,
      "taf_trigger": false,
      "metar": "METAR LEZL 161800Z 22013KT CAVOK 25/10 Q1014 NOSIG",
      "taf": "TAF LEZL 161400Z 1615/1715 22008KT CAVOK TX30/1615Z TN14/1707Z"
    },
    {
      "icao": "LFBD",
      "alert": "OK",
      "vis_m": 9999,
      "fzfg": false,
      "metar_trigger": false,
      "taf_trigger": false,
      "metar": "METAR LFBD 161800Z AUTO 28007KT 9999 FEW023/// BKN038/// BKN047/// ///TCU 14/10 Q1016 TEMPO 3000 RA BKN015",
      "taf": "TAF LFBD 161700Z 1618/1724 28010KT 9999 BKN030 TX18/1713Z TN10/1704Z"
    },
    {
      "icao": "LFLL",
      "alert": "OK",
      "vis_m": 9999,
      "fzfg": false,
      "metar_trigger": false,
      "taf_trigger": false,
      "metar": "METAR LFLL 161800Z 03004KT 9999 FEW046 BKN080 14/03 Q1014 NOSIG",
      "taf": "TAF LFLL 161700Z 1618/1724 35004KT 9999 SCT030"
    },
    {
      "icao": "LFLS",
      "alert": "OK",
      "vis_m": 9999,
      "fzfg": false,
      "metar_trigger": false,
      "taf_trigger": false,
      "metar": "METAR LFLS 161800Z AUTO 07003KT CAVOK 12/05 Q1014 NOSIG",
      "taf": "TAF LFLS 161400Z 1615/1715 35008KT 9999 BKN060"
    },
    {
      "icao": "LFMN",
      "alert": "OK",
      "vis_m": 9999,
      "fzfg": false,
      "metar_trigger": false,
      "taf_trigger": false,
      "metar": "METAR LFMN 161800Z 06008KT CAVOK 18/11 Q1007 NOSIG",
      "taf": "TAF LFMN 161400Z 1615/1721 09008KT 9999 FEW100"
    },
    {
      "icao": "LFOB",
      "alert": "OK",
      "vis_m": 9999,
      "fzfg": false,
      "metar_trigger": false,
      "taf_trigger": false,
      "metar": "METAR LFOB 161800Z AUTO 25008KT CAVOK 12/06 Q1011 TEMPO 4500 RA",
      "taf": "TAF LFOB 161700Z 1618/1718 30010KT 9999 SCT030"
    },
    {
      "icao": "LFPO",
      "alert": "OK",
      "vis_m": 9999,
      "fzfg": false,
      "metar_trigger": false,
      "taf_trigger": false,
      "metar": "METAR LFPO 161800Z AUTO 29008KT CAVOK 14/03 Q1012 NOSIG",
      "taf": "TAF LFPO 161700Z 1618/1724 27008KT CAVOK"
    },
    {
      "icao": "LFSB",
      "alert": "OK",
      "vis_m": 9999,
      "fzfg": false,
      "metar_trigger": false,
      "taf_trigger": false,
      "metar": "METAR LFSB 161800Z AUTO 21004KT CAVOK 12/05 Q1013 TEMPO FEW030TCU",
      "taf": "TAF LFSB 161700Z 1618/1718 28005KT 9999 FEW040"
    },
    {
      "icao": "LGAV",
      "alert": "OK",
      "vis_m": 9999,
      "fzfg": false,
      "metar_trigger": false,
      "taf_trigger": false,
      "metar": "METAR LGAV 161750Z VRB02KT 9999 FEW030 SCT040 BKN070 19/15 Q1006 NOSIG",
      "taf": "TAF LGAV 161700Z 1618/1718 20010KT 9999 FEW030"
    },
    {
      "icao": "LGTS",
      "alert": "OK",
      "vis_m": 9999,
      "fzfg": false,
      "metar_trigger": false,
      "taf_trigger": false,
      "metar": "METAR LGTS 161750Z VRB03KT 9999 FEW025 21/14 Q1001 NOSIG",
      "taf": "TAF LGTS 161700Z 1618/1718 VRB03KT 9999 SCT030"
    },
    {
      "icao": "LHBP",
      "alert": "OK",
      "vis_m": 9999,
      "fzfg": false,
      "metar_trigger": false,
      "taf_trigger": false,
      "metar": "METAR LHBP 161800Z 34007KT 9999 FEW013 SCT060 OVC082 14/13 Q1001 NOSIG",
      "taf": "TAF LHBP 161715Z 1618/1718 33012KT 9999 SCT015 BKN030 OVC070"
    },
    {
      "icao": "LHDC",
      "alert": "OK",
      "vis_m": 9999,
      "fzfg": false,
      "metar_trigger": false,
      "taf_trigger": false,
      "metar": "METAR LHDC 161745Z AUTO 02006KT 340V050 CAVOK 16/13 Q1000 NOSIG",
      "taf": "TAF LHDC 161715Z 1618/1703 02009KT 9999 SCT040 SCT085"
    },
    {
      "icao": "LIBD",
      "alert": "OK",
      "vis_m": 9999,
      "fzfg": false,
      "metar_trigger": false,
      "taf_trigger": false,
      "metar": "METAR LIBD 161750Z AUTO 05003KT 9999 FEW068/// SCT082/// 16/10 Q1005",
      "taf": "TAF LIBD 161700Z 1618/1718 31015KT 9999 SCT040"
    },
    {
      "icao": "LIBG",
      "alert": "OK",
      "vis_m": 9999,
      "fzfg": false,
      "metar_trigger": false,
      "taf_trigger": false,
      "metar": "METAR LIBG 161750Z 28007KT CAVOK 19/08 Q1005",
      "taf": ""
    },
    {
      "icao": "LIBP",
      "alert": "OK",
      "vis_m": 9999,
      "fzfg": false,
      "metar_trigger": false,
      "taf_trigger": false,
      "metar": "METAR LIBP 161750Z AUTO 36007KT 330V030 9999 FEW039/// BKN059/// 16/09 Q1006",
      "taf": "TAF LIBP 161700Z 1618/1718 34010KT 7000 SCT025"
    },
    {
      "icao": "LIBR",
      "alert": "OK",
      "vis_m": 9999,
      "fzfg": false,
      "metar_trigger": false,
      "taf_trigger": false,
      "metar": "METAR LIBR 161750Z VRB02KT CAVOK 17/11 Q1006",
      "taf": "TAF LIBR 161700Z 1618/1718 32017KT 9999 SCT030"
    },
    {
      "icao": "LICA",
      "alert": "OK",
      "vis_m": 9999,
      "fzfg": false,
      "metar_trigger": false,
      "taf_trigger": false,
      "metar": "METAR LICA 161750Z AUTO 27021KT 9999 FEW044/// 18/09 Q1008",
      "taf": "TAF LICA 161700Z 1618/1718 27018G28KT 9999 SCT020"
    },
    {
      "icao": "LICC",
      "alert": "OK",
      "vis_m": 9999,
      "fzfg": false,
      "metar_trigger": false,
      "taf_trigger": false,
      "metar": "METAR LICC 161750Z 26018KT CAVOK 20/11 Q1008",
      "taf": "TAF LICC 161700Z 1618/1718 25015KT CAVOK"
    },
    {
      "icao": "LICJ",
      "alert": "OK",
      "vis_m": 9999,
      "fzfg": false,
      "metar_trigger": false,
      "taf_trigger": false,
      "metar": "METAR LICJ 161750Z AUTO 29013KT 9999 NCD 19/10 Q1012",
      "taf": "TAF LICJ 161700Z 1618/1718 27015G28KT CAVOK"
    },
    {
      "icao": "LIMC",
      "alert": "OK",
      "vis_m": 9999,
      "fzfg": false,
      "metar_trigger": false,
      "taf_trigger": false,
      "metar": "METAR LIMC 161750Z 04008KT 9999 FEW060 19/M02 Q1006 NOSIG",
      "taf": "TAF LIMC 161700Z 1618/1724 35010KT 9999 FEW070"
    },
    {
      "icao": "LIME",
      "alert": "OK",
      "vis_m": 9999,
      "fzfg": false,
      "metar_trigger": false,
      "taf_trigger": false,
      "metar": "METAR LIME 161750Z VRB02KT CAVOK 17/04 Q1006 NOSIG",
      "taf": "TAF LIME 161700Z 1618/1718 VRB06KT CAVOK"
    },
    {
      "icao": "LIMF",
      "alert": "OK",
      "vis_m": 9999,
      "fzfg": false,
      "metar_trigger": false,
      "taf_trigger": false,
      "metar": "METAR LIMF 161750Z 23007KT 9999 FEW110 19/M02 Q1006",
      "taf": "TAF LIMF 161700Z 1618/1718 VRB05KT CAVOK"
    },
    {
      "icao": "LIMJ",
      "alert": "OK",
      "vis_m": 9999,
      "fzfg": false,
      "metar_trigger": false,
      "taf_trigger": false,
      "metar": "METAR LIMJ 161750Z 25010KT CAVOK 18/10 Q1007",
      "taf": "TAF LIMJ 161700Z 1618/1718 24012KT CAVOK"
    },
    {
      "icao": "LIPE",
      "alert": "OK",
      "vis_m": 9999,
      "fzfg": false,
      "metar_trigger": false,
      "taf_trigger": false,
      "metar": "METAR LIPE 161750Z 23005KT CAVOK 18/05 Q1006",
      "taf": "TAF LIPE 161700Z 1618/1718 VRB05KT 9999 FEW030"
    },
    {
      "icao": "LIPH",
      "alert": "OK",
      "vis_m": 9999,
      "fzfg": false,
      "metar_trigger": false,
      "taf_trigger": false,
      "metar": "METAR LIPH 161750Z 09004KT CAVOK 18/10 Q1005",
      "taf": "TAF LIPH 161700Z 1618/1718 22010KT 9999 SCT040"
    },
    {
      "icao": "LIPQ",
      "alert": "OK",
      "vis_m": 9999,
      "fzfg": false,
      "metar_trigger": false,
      "taf_trigger": false,
      "metar": "METAR LIPQ 161750Z AUTO 19006KT 150V220 9999 FEW098/// 16/10 Q1005",
      "taf": "TAF LIPQ 161700Z 1618/1718 04008KT 9999 FEW050"
    },
    {
      "icao": "LIPR",
      "alert": "OK",
      "vis_m": 9999,
      "fzfg": false,
      "metar_trigger": false,
      "taf_trigger": false,
      "metar": "METAR LIPR 161750Z 28005KT CAVOK 16/08 Q1007",
      "taf": "TAF LIPR 161700Z 1618/1718 32012KT 9999 SCT040"
    },
    {
      "icao": "LIPX",
      "alert": "OK",
      "vis_m": 9999,
      "fzfg": false,
      "metar_trigger": false,
      "taf_trigger": false,
      "metar": "METAR LIPX 161750Z 29009KT 9999 SCT090 18/05 Q1005",
      "taf": "TAF LIPX 161700Z 1618/1718 VRB05KT 9999 FEW030"
    },
    {
      "icao": "LIPY",
      "alert": "OK",
      "vis_m": 9999,
      "fzfg": false,
      "metar_trigger": false,
      "taf_trigger": false,
      "metar": "METAR LIPY 161750Z AUTO 29004KT 9999 SCT063/// 15/10 Q1006",
      "taf": "TAF LIPY 161700Z 1618/1718 33010KT 9999 SCT040"
    },
    {
      "icao": "LIPZ",
      "alert": "OK",
      "vis_m": 9999,
      "fzfg": false,
      "metar_trigger": false,
      "taf_trigger": false,
      "metar": "METAR LIPZ 161750Z 22008KT CAVOK 18/10 Q1005 NOSIG",
      "taf": "TAF LIPZ 161700Z 1618/1724 23010KT 9999 FEW010"
    },
    {
      "icao": "LIRF",
      "alert": "OK",
      "vis_m": 9999,
      "fzfg": false,
      "metar_trigger": false,
      "taf_trigger": false,
      "metar": "METAR LIRF 161750Z 28008KT CAVOK 17/11 Q1007 NOSIG",
      "taf": "TAF LIRF 161700Z 1618/1724 30010KT CAVOK"
    },
    {
      "icao": "LIRN",
      "alert": "OK",
      "vis_m": 9999,
      "fzfg": false,
      "metar_trigger": false,
      "taf_trigger": false,
      "metar": "METAR LIRN 161750Z 27014KT 9999 SCT040 17/10 Q1007 NOSIG",
      "taf": "TAF LIRN 161700Z 1618/1718 27015KT 9999 BKN035"
    },
    {
      "icao": "LIRP",
      "alert": "OK",
      "vis_m": 9999,
      "fzfg": false,
      "metar_trigger": false,
      "taf_trigger": false,
      "metar": "METAR LIRP 161745Z 26010KT 9999 FEW040 17/10 Q1008 NOSIG",
      "taf": "TAF LIRP 161700Z 1618/1718 27012KT 9999 SCT030"
    },
    {
      "icao": "LIRZ",
      "alert": "OK",
      "vis_m": 9999,
      "fzfg": false,
      "metar_trigger": false,
      "taf_trigger": false,
      "metar": "METAR LIRZ 161750Z AUTO 16004KT 9999 SCT097/// 13/09 Q1007",
      "taf": "TAF LIRZ 161700Z 1618/1718 VRB06KT 9999 BKN040"
    },
    {
      "icao": "LJLJ",
      "alert": "OK",
      "vis_m": 9999,
      "fzfg": false,
      "metar_trigger": false,
      "taf_trigger": false,
      "metar": "METAR LJLJ 161800Z 33014KT 300V010 9999 FEW070 SCT150 BKN200 15/M01 Q1005 NOSIG",
      "taf": "TAF LJLJ 161700Z 1618/1718 32005KT 9999 SCT070"
    },
    {
      "icao": "LKMT",
      "alert": "OK",
      "vis_m": 9999,
      "fzfg": false,
      "metar_trigger": false,
      "taf_trigger": false,
      "metar": "METAR LKMT 161800Z 01009KT 9999 FEW035 BKN045 11/07 Q1007 NOSIG",
      "taf": "TAF LKMT 161700Z 1618/1718 02008KT 6000 -RA BKN018 OVC030"
    },
    {
      "icao": "LKPR",
      "alert": "OK",
      "vis_m": 9999,
      "fzfg": false,
      "metar_trigger": false,
      "taf_trigger": false,
      "metar": "METAR LKPR 161800Z 33006KT 310V010 CAVOK 11/03 Q1010 NOSIG",
      "taf": "TAF LKPR 161700Z 1618/1724 31006KT 9999 SCT045"
    },
    {
      "icao": "LLBG",
      "alert": "OK",
      "vis_m": 9999,
      "fzfg": false,
      "metar_trigger": false,
      "taf_trigger": false,
      "metar": "METAR LLBG 161750Z 30005KT CAVOK 20/16 Q1012 NOSIG",
      "taf": "TAF LLBG 161703Z 1618/1718 31007KT 9999 FEW030 TX37/1712Z TN16/1702Z"
    },
    {
      "icao": "LMML",
      "alert": "OK",
      "vis_m": 9999,
      "fzfg": false,
      "metar_trigger": false,
      "taf_trigger": false,
      "metar": "METAR LMML 161745Z 30020KT CAVOK 18/11 Q1010 NOSIG",
      "taf": "TAF LMML 161700Z 1618/1718 32020G30KT 9999 FEW018"
    },
    {
      "icao": "LOWW",
      "alert": "OK",
      "vis_m": 9999,
      "fzfg": false,
      "metar_trigger": false,
      "taf_trigger": false,
      "metar": "METAR LOWW 161750Z 32015KT 9999 -SHRA FEW034 SCT038 FEW040TCU BKN050 10/08 Q1007 TEMPO SHRA",
      "taf": "TAF LOWW 161715Z 1618/1724 32012KT 9999 FEW020 BKN040 TX15/1714Z TN08/1724Z"
    },
    {
      "icao": "LPFR",
      "alert": "OK",
      "vis_m": 9999,
      "fzfg": false,
      "metar_trigger": false,
      "taf_trigger": false,
      "metar": "METAR LPFR 161800Z 26014KT 9999 FEW035 20/12 Q1015",
      "taf": "TAF LPFR 161700Z 1618/1718 25012KT CAVOK"
    },
    {
      "icao": "LPMA",
      "alert": "OK",
      "vis_m": 9999,
      "fzfg": false,
      "metar_trigger": false,
      "taf_trigger": false,
      "metar": "METAR LPMA 161800Z 02007KT 300V090 9999 SCT015 18/12 Q1023",
      "taf": "TAF LPMA 161700Z 1618/1718 01013KT 9999 SCT015"
    },
    {
      "icao": "LPPR",
      "alert": "OK",
      "vis_m": 9999,
      "fzfg": false,
      "metar_trigger": false,
      "taf_trigger": false,
      "metar": "METAR LPPR 161800Z 33014KT 9999 FEW028 15/09 Q1018",
      "taf": "TAF LPPR 161700Z 1618/1718 32015KT 9999 FEW025"
    },
    {
      "icao": "LPPS",
      "alert": "OK",
      "vis_m": 9999,
      "fzfg": false,
      "metar_trigger": false,
      "taf_trigger": false,
      "metar": "METAR LPPS 161800Z 01014KT 9999 SCT015 SCT030 18/12 Q1023",
      "taf": "TAF LPPS 161700Z 1618/1724 03012KT 9999 SCT015 SCT030"
    },
    {
      "icao": "LPPT",
      "alert": "OK",
      "vis_m": 9999,
      "fzfg": false,
      "metar_trigger": false,
      "taf_trigger": false,
      "metar": "METAR LPPT 161800Z 32013KT 280V360 9999 SCT028 17/10 Q1018 WS R02",
      "taf": "TAF LPPT 161700Z 1618/1724 34013KT CAVOK"
    },
    {
      "icao": "LQBK",
      "alert": "OK",
      "vis_m": 9999,
      "fzfg": false,
      "metar_trigger": false,
      "taf_trigger": false,
      "metar": "METAR LQBK 161800Z 29012KT 9999 RA SCT012 OVC030 11/08 Q1003 NOSIG",
      "taf": "TAF LQBK 161700Z 1618/1718 36006KT 9999 FEW014 SCT025 BKN045 TX17/1714Z TN09/1704Z"
    },
    {
      "icao": "LQSA",
      "alert": "OK",
      "vis_m": 9999,
      "fzfg": false,
      "metar_trigger": false,
      "taf_trigger": false,
      "metar": "METAR LQSA 161800Z 32006KT 9999 -RA FEW015 SCT020 BKN040 11/08 Q1001 NOSIG",
      "taf": "TAF LQSA 161700Z 1618/1718 31007KT 9999 SCT018 BKN035 TX14/1714Z TN07/1705Z"
    },
    {
      "icao": "LQTZ",
      "alert": "OK",
      "vis_m": 5000,
      "fzfg": false,
      "metar_trigger": false,
      "taf_trigger": false,
      "metar": "METAR LQTZ 161800Z 28013KT 5000 RA BKN010 OVC018 11/11 Q1000",
      "taf": "TAF LQTZ 161700Z 1618/1718 27005KT 9999 -RA SCT015 BKN030 TX16/1713Z TN05/1704Z"
    },
    {
      "icao": "LRBC",
      "alert": "OK",
      "vis_m": 9999,
      "fzfg": false,
      "metar_trigger": false,
      "taf_trigger": false,
      "metar": "METAR LRBC 161800Z 15006KT CAVOK 18/12 Q1004",
      "taf": "TAF LRBC 161700Z 1618/1703 15014KT 9999 SCT045"
    },
    {
      "icao": "LRBS",
      "alert": "OK",
      "vis_m": 9999,
      "fzfg": false,
      "metar_trigger": false,
      "taf_trigger": false,
      "metar": "METAR LRBS 161800Z 04010KT 360V070 9999 TS VCSH FEW018 BKN045CB 16/10 Q1000 TEMPO 5000 -TSRA",
      "taf": "TAF LRBS 161700Z 1618/1718 10012KT 9999 SCT045CB"
    },
    {
      "icao": "LRBV",
      "alert": "OK",
      "vis_m": 9999,
      "fzfg": false,
      "metar_trigger": false,
      "taf_trigger": false,
      "metar": "METAR LRBV 161800Z 08011KT 9999 SCT060 SCT087 17/09 Q1001",
      "taf": "TAF LRBV 161700Z 1618/1703 08012KT 9999 SCT060"
    },
    {
      "icao": "LRCL",
      "alert": "OK",
      "vis_m": 9999,
      "fzfg": false,
      "metar_trigger": false,
      "taf_trigger": false,
      "metar": "METAR LRCL 161800Z 25007KT 220V310 9999 FEW051CB BKN071 16/12 Q0999",
      "taf": "TAF LRCL 161700Z 1618/1703 VRB04KT 9999 BKN060"
    },
    {
      "icao": "LRCV",
      "alert": "OK",
      "vis_m": 9999,
      "fzfg": false,
      "metar_trigger": false,
      "taf_trigger": false,
      "metar": "METAR LRCV 161800Z 26010KT 9999 -SHRA FEW009 FEW040CB 15/14 Q1000",
      "taf": "TAF LRCV 161700Z 1618/1703 VRB04KT 9999 BKN045"
    },
    {
      "icao": "LRIA",
      "alert": "OK",
      "vis_m": 9999,
      "fzfg": false,
      "metar_trigger": false,
      "taf_trigger": false,
      "metar": "METAR LRIA 161800Z 12017KT CAVOK 18/09 Q1004",
      "taf": "TAF LRIA 161700Z 1618/1703 14016KT CAVOK"
    },
    {
      "icao": "LROP",
      "alert": "OK",
      "vis_m": 9999,
      "fzfg": false,
      "metar_trigger": false,
      "taf_trigger": false,
      "metar": "METAR LROP 161800Z 06018KT 9999 -TSRA SCT050CB 15/11 Q1000 RESHRA TEMPO 5000 -TSRA",
      "taf": "TAF LROP 161700Z 1618/1718 10012KT 9999 SCT045CB"
    },
    {
      "icao": "LRSB",
      "alert": "OK",
      "vis_m": 9999,
      "fzfg": false,
      "metar_trigger": false,
      "taf_trigger": false,
      "metar": "METAR LRSB 161800Z 14004KT 090V210 9999 -SHRA FEW045CB SCT060 14/11 Q0999",
      "taf": "TAF LRSB 161700Z 1618/1718 16006KT 9999 SCT050 BKN060"
    },
    {
      "icao": "LRSM",
      "alert": "OK",
      "vis_m": 9999,
      "fzfg": false,
      "metar_trigger": false,
      "taf_trigger": false,
      "metar": "METAR LRSM 161800Z AUTO 32003KT 9999 FEW090/// BKN130/// 16/13 Q1000",
      "taf": "TAF LRSM 161400Z 1615/1624 33007KT 9999 SCT045"
    },
    {
      "icao": "LRSV",
      "alert": "OK",
      "vis_m": 9999,
      "fzfg": false,
      "metar_trigger": false,
      "taf_trigger": false,
      "metar": "METAR LRSV 161800Z 06003KT 340V090 9999 SCT048 15/09 Q1003",
      "taf": "TAF LRSV 161700Z 1618/1703 20008KT CAVOK"
    },
    {
      "icao": "LRTM",
      "alert": "OK",
      "vis_m": 9999,
      "fzfg": false,
      "metar_trigger": false,
      "taf_trigger": false,
      "metar": "METAR LRTM 161800Z 24008KT 200V260 9999 FEW050CB 18/11 Q1000",
      "taf": "TAF LRTM 161700Z 1618/1703 VRB04KT CAVOK"
    },
    {
      "icao": "LRTR",
      "alert": "OK",
      "vis_m": 9999,
      "fzfg": false,
      "metar_trigger": false,
      "taf_trigger": false,
      "metar": "METAR LRTR 161800Z 17010KT 130V190 9999 -SHRA SCT030 SCT040CB 15/13 Q0998 RESHRA",
      "taf": "TAF LRTR 161700Z 1618/1718 VRB04KT 9999 BKN040"
    },
    {
      "icao": "LTAC",
      "alert": "OK",
      "vis_m": 9999,
      "fzfg": false,
      "metar_trigger": false,
      "taf_trigger": false,
      "metar": "METAR LTAC 161750Z 22003KT CAVOK 15/M02 Q1009 NOSIG RMK RWY21C 16004KT 090V220 RWY03L 20003KT 170V230 RWY21R 21004KT RWY03R VRB02KT RWY21L 14004KT",
      "taf": "TAF LTAC 161640Z 1618/1718 VRB02KT CAVOK"
    },
    {
      "icao": "LTFM",
      "alert": "OK",
      "vis_m": 9999,
      "fzfg": false,
      "metar_trigger": false,
      "taf_trigger": false,
      "metar": "METAR LTFM 161750Z 14009KT 9999 -SHRA FEW020TCU SCT035 BKN100 22/11 Q1002 NOSIG RMK RWY17L 09007KT RWY34L 14007KT RWY16R 11007KT RWY36 14008KT 120V220 RWY18 11008KT",
      "taf": "TAF LTFM 161640Z 1618/1724 12010KT 9999 SCT035 BKN100"
    },
    {
      "icao": "LUKK",
      "alert": "OK",
      "vis_m": 9999,
      "fzfg": false,
      "metar_trigger": false,
      "taf_trigger": false,
      "metar": "METAR LUKK 161800Z 15010KT CAVOK 14/07 Q1007 NOSIG",
      "taf": "TAF LUKK 161709Z 1618/1718 16012KT CAVOK"
    },
    {
      "icao": "LWOH",
      "alert": "OK",
      "vis_m": 9999,
      "fzfg": false,
      "metar_trigger": false,
      "taf_trigger": false,
      "metar": "METAR LWOH 161750Z 28005KT 250V340 9999 FEW025TCU SCT035 12/05 Q1006",
      "taf": "TAF LWOH 161715Z 1618/1718 22008KT 9999 FEW020 BKN040"
    },
    {
      "icao": "LWSK",
      "alert": "OK",
      "vis_m": 9999,
      "fzfg": false,
      "metar_trigger": false,
      "taf_trigger": false,
      "metar": "METAR LWSK 161750Z VRB04G16KT 9999 FEW060 16/12 Q1002 NOSIG",
      "taf": "TAF LWSK 161715Z 1618/1718 VRB02KT 9999 FEW050 SCT090"
    },
    {
      "icao": "LYBE",
      "alert": "OK",
      "vis_m": 9999,
      "fzfg": false,
      "metar_trigger": false,
      "taf_trigger": false,
      "metar": "METAR LYBE 161800Z 14007KT CAVOK 16/13 Q0997 NOSIG",
      "taf": "TAF LYBE 161700Z 1618/1718 23008KT 9999 SCT040 TX15/1618Z TN10/1704Z"
    },
    {
      "icao": "LYNI",
      "alert": "OK",
      "vis_m": 9999,
      "fzfg": false,
      "metar_trigger": false,
      "taf_trigger": false,
      "metar": "METAR LYNI 161800Z 16006KT 120V200 9999 SCT023 BKN043 15/13 Q1000 NOSIG",
      "taf": "TAF LYNI 161700Z 1618/1718 11005KT 9999 SCT020 BKN050 TX15/1618Z TN10/1704Z"
    },
    {
      "icao": "LYPG",
      "alert": "OK",
      "vis_m": 9999,
      "fzfg": false,
      "metar_trigger": false,
      "taf_trigger": false,
      "metar": "METAR LYPG 161800Z 16004KT 9999 FEW024 13/10 Q1004 NOSIG",
      "taf": "TAF LYPG 161700Z 1618/1718 23006KT 9999 SCT033 TX22/1713Z TN11/1704Z"
    },
    {
      "icao": "LZIB",
      "alert": "OK",
      "vis_m": 9999,
      "fzfg": false,
      "metar_trigger": false,
      "taf_trigger": false,
      "metar": "METAR LZIB 161800Z 33010KT 9999 -RA FEW024 11/08 Q1006 NOSIG",
      "taf": "TAF LZIB 161715Z 1618/1718 33012KT 9999 BKN025"
    },
    {
      "icao": "LZKZ",
      "alert": "OK",
      "vis_m": 9999,
      "fzfg": false,
      "metar_trigger": false,
      "taf_trigger": false,
      "metar": "METAR LZKZ 161800Z 33006KT 9999 -RA NSC 14/12 Q1002 NOSIG",
      "taf": "TAF LZKZ 161715Z 1618/1718 01014KT 9999 SCT028"
    },
    {
      "icao": "LZTT",
      "alert": "OK",
      "vis_m": 9999,
      "fzfg": false,
      "metar_trigger": false,
      "taf_trigger": false,
      "metar": "METAR LZTT 161800Z 05017KT 9999 -RA FEW005 BKN050 OVC060 09/08 Q1003",
      "taf": "TAF LZTT 161715Z 1618/1718 06009KT 9999 BKN023"
    },
    {
      "icao": "OEJN",
      "alert": "OK",
      "vis_m": 9999,
      "fzfg": false,
      "metar_trigger": false,
      "taf_trigger": false,
      "metar": "METAR OEJN 161800Z 35011KT CAVOK 30/15 Q1005 NOSIG",
      "taf": "TAF OEJN 161700Z 1618/1724 36005KT 7000 NSC"
    },
    {
      "icao": "OEMA",
      "alert": "OK",
      "vis_m": 6000,
      "fzfg": false,
      "metar_trigger": false,
      "taf_trigger": false,
      "metar": "METAR OEMA 161800Z 24009KT 6000 NSC 35/06 Q1008 NOSIG",
      "taf": "TAF OEMA 161700Z 1618/1724 33006KT 7000 NSC"
    },
    {
      "icao": "OJAI",
      "alert": "OK",
      "vis_m": 5000,
      "fzfg": false,
      "metar_trigger": false,
      "taf_trigger": false,
      "metar": "METAR OJAI 161700Z 27010KT 5000 DU NSC 18/06 Q1013 NOSIG",
      "taf": "TAF OJAI 161700Z 1618/1724 28014KT 5000 HZ NSC"
    },
    {
      "icao": "OMAA",
      "alert": "OK",
      "vis_m": 9999,
      "fzfg": false,
      "metar_trigger": false,
      "taf_trigger": false,
      "metar": "METAR OMAA 161800Z 00000KT CAVOK 31/18 Q1002 NOSIG",
      "taf": "TAF OMAA 161700Z 1618/1800 34004KT 8000 NSC"
    },
    {
      "icao": "OMDB",
      "alert": "OK",
      "vis_m": 9999,
      "fzfg": false,
      "metar_trigger": false,
      "taf_trigger": false,
      "metar": "METAR OMDB 161800Z VRB02KT CAVOK 31/24 Q1002 NOSIG",
      "taf": "TAF OMDB 161700Z 1618/1800 11007KT 8000 NSC"
    },
    {
      "icao": "UAAA",
      "alert": "OK",
      "vis_m": 9999,
      "fzfg": false,
      "metar_trigger": false,
      "taf_trigger": false,
      "metar": "METAR UAAA 161800Z 22001MPS 9999 FEW200 13/04 Q1012 NOSIG",
      "taf": "TAF UAAA 161701Z 1618/1718 23002G07MPS 9999 SCT100 TX26/1710Z TN07/1701Z"
    },
    {
      "icao": "UBBB",
      "alert": "OK",
      "vis_m": 9999,
      "fzfg": false,
      "metar_trigger": false,
      "taf_trigger": false,
      "metar": "METAR UBBB 161800Z 34010KT 9999 FEW060CB 18/14 Q1003 NOSIG",
      "taf": "TAF UBBB 161702Z 1618/1718 32014KT 9999 FEW040CB BKN040 TX17/1710Z TN14/1702Z"
    },
    {
      "icao": "UDSG",
      "alert": "OK",
      "vis_m": 9999,
      "fzfg": false,
      "metar_trigger": false,
      "taf_trigger": false,
      "metar": "METAR UDSG 161800Z 01010KT 9999 SCT043CB 09/03 Q1009 NOSIG",
      "taf": "TAF UDSG 161700Z 1618/1718 36006KT 9999 SCT040"
    },
    {
      "icao": "UDYZ",
      "alert": "OK",
      "vis_m": 9999,
      "fzfg": false,
      "metar_trigger": false,
      "taf_trigger": false,
      "metar": "METAR UDYZ 161800Z VRB01KT 9999 FEW046 11/09 Q1006 NOSIG",
      "taf": "TAF UDYZ 161700Z 1618/1718 04006KT 9999 FEW040"
    },
    {
      "icao": "UGKO",
      "alert": "OK",
      "vis_m": 9999,
      "fzfg": false,
      "metar_trigger": false,
      "taf_trigger": false,
      "metar": "METAR UGKO 161800Z VRB02KT 9999 BKN045 13/10 Q1010 NOSIG",
      "taf": "TAF UGKO 161700Z 1618/1718 26007KT CAVOK TX24/1712Z TN11/1702Z"
    }
  ]
}