{
  "ts_utc": "2025-12-24T05:24:03Z",
  "threshold_m": 150,
  "source": "stations_override.txt (ICAO list) + aviationweather.gov (METAR/TAF raw)",
  "station_count": 159,
  "stations": [
    {
      "icao": "BIKF",
      "alert": "OK",
      "vis_m": 9999,
      "fzfg": false,
      "metar_trigger": false,
      "taf_trigger": false,
      "metar": "METAR BIKF 240500Z 18029G40KT 9999 -DZ OVC017 08/06 Q1011",
      "taf": "TAF BIKF 240442Z 2406/2506 18032G43KT 9999 -RA SCT010 BKN016 TX09/2418Z TN08/2406Z"
    },
    {
      "icao": "BKPR",
      "alert": "OK",
      "vis_m": 8000,
      "fzfg": false,
      "metar_trigger": false,
      "taf_trigger": false,
      "metar": "METAR BKPR 240500Z VRB02KT 8000 BKN006 03/03 Q1013 NOSIG",
      "taf": "TAF BKPR 232330Z 2400/2424 VRB05KT 9999 BKN010 BKN025"
    },
    {
      "icao": "EBCI",
      "alert": "OK",
      "vis_m": 9999,
      "fzfg": false,
      "metar_trigger": false,
      "taf_trigger": false,
      "metar": "METAR EBCI 240450Z 05015KT 9999 FEW013 BKN022 02/M01 Q1024 NOSIG",
      "taf": "TAF EBCI 232300Z 2400/2506 06013KT 9999 BKN020"
    },
    {
      "icao": "EDDB",
      "alert": "OK",
      "vis_m": 9999,
      "fzfg": false,
      "metar_trigger": false,
      "taf_trigger": false,
      "metar": "METAR EDDB 240450Z AUTO 06011KT 9999 BKN015 M02/M05 Q1032 TEMPO BKN014",
      "taf": "TAF EDDB 232300Z 2400/2424 06010KT 9999 SCT030"
    },
    {
      "icao": "EDDH",
      "alert": "OK",
      "vis_m": 9999,
      "fzfg": false,
      "metar_trigger": false,
      "taf_trigger": false,
      "metar": "METAR EDDH 240450Z AUTO 05005KT 020V080 9999 FEW038 01/M03 Q1035 NOSIG",
      "taf": "TAF EDDH 232300Z 2400/2506 07009KT 9999 FEW025"
    },
    {
      "icao": "EDDK",
      "alert": "OK",
      "vis_m": 9999,
      "fzfg": false,
      "metar_trigger": false,
      "taf_trigger": false,
      "metar": "METAR EDDK 240450Z AUTO 05005KT CAVOK M01/M05 Q1027 NOSIG",
      "taf": "TAF EDDK 232300Z 2400/2506 05007KT 9999 OVC025"
    },
    {
      "icao": "EDDN",
      "alert": "OK",
      "vis_m": 9999,
      "fzfg": false,
      "metar_trigger": false,
      "taf_trigger": false,
      "metar": "METAR EDDN 240450Z AUTO 05008KT 020V100 9999 OVC020 01/M03 Q1021",
      "taf": "TAF EDDN 232300Z 2400/2424 06008KT 9999 BKN020"
    },
    {
      "icao": "EDDS",
      "alert": "OK",
      "vis_m": 9999,
      "fzfg": false,
      "metar_trigger": false,
      "taf_trigger": false,
      "metar": "METAR EDDS 240450Z AUTO 03011KT 010V070 9999 BKN012 OVC018 01/M01 Q1018",
      "taf": ""
    },
    {
      "icao": "EDFH",
      "alert": "OK",
      "vis_m": 9999,
      "fzfg": false,
      "metar_trigger": false,
      "taf_trigger": false,
      "metar": "METAR EDFH 240450Z 07014KT 9999 OVC018 M01/M06 Q1022",
      "taf": "TAF EDFH 232300Z 2400/2424 07012KT 9999 OVC015"
    },
    {
      "icao": "EDJA",
      "alert": "OK",
      "vis_m": 2500,
      "fzfg": false,
      "metar_trigger": false,
      "taf_trigger": false,
      "metar": "METAR EDJA 240450Z 04014KT 2500 -SN OVC004 M00/M01 Q1015",
      "taf": "TAF EDJA 240200Z 2403/2412 05015G25KT 9999 OVC007"
    },
    {
      "icao": "EDLW",
      "alert": "OK",
      "vis_m": 9999,
      "fzfg": false,
      "metar_trigger": false,
      "taf_trigger": false,
      "metar": "METAR EDLW 240450Z 02007KT 350V050 CAVOK M01/M04 Q1028",
      "taf": "TAF EDLW 240420Z 2405/2424 05011KT CAVOK"
    },
    {
      "icao": "EDNY",
      "alert": "OK",
      "vis_m": 9999,
      "fzfg": false,
      "metar_trigger": false,
      "taf_trigger": false,
      "metar": "METAR EDNY 240450Z AUTO 04009KT 9999 // SCT021/// BKN031/// OVC039/// 03/M00 Q1015",
      "taf": ""
    },
    {
      "icao": "EDSB",
      "alert": "OK",
      "vis_m": 9999,
      "fzfg": false,
      "metar_trigger": false,
      "taf_trigger": false,
      "metar": "METAR EDSB 240450Z 04021KT 9999 -DZ OVC017 03/M01 Q1020",
      "taf": "TAF EDSB 232300Z 2400/2424 03012KT 9999 BKN025"
    },
    {
      "icao": "EETN",
      "alert": "OK",
      "vis_m": 9999,
      "fzfg": false,
      "metar_trigger": false,
      "taf_trigger": false,
      "metar": "METAR EETN 240520Z 31011KT 280V360 9999 OVC017 01/M03 Q1031 NOSIG",
      "taf": "TAF EETN 232330Z 2400/2424 28010KT 9999 OVC015"
    },
    {
      "icao": "EFTU",
      "alert": "OK",
      "vis_m": 9999,
      "fzfg": false,
      "metar_trigger": false,
      "taf_trigger": false,
      "metar": "METAR EFTU 240520Z AUTO 31006KT 280V340 9999 -SHSN OVC008 M01/M02 Q1032",
      "taf": "TAF EFTU 240238Z 2403/2503 30006KT 9999 OVC019"
    },
    {
      "icao": "EGBB",
      "alert": "OK",
      "vis_m": 9999,
      "fzfg": false,
      "metar_trigger": false,
      "taf_trigger": false,
      "metar": "METAR EGBB 240450Z 06011KT 9999 SCT014 OVC018 05/03 Q1030",
      "taf": "TAF EGBB 240454Z 2406/2506 05011KT 9999 BKN020"
    },
    {
      "icao": "EGGP",
      "alert": "OK",
      "vis_m": 9999,
      "fzfg": false,
      "metar_trigger": false,
      "taf_trigger": false,
      "metar": "METAR EGGP 240450Z 09012KT 9999 BKN028 05/M00 Q1032",
      "taf": "TAF EGGP 240458Z 2406/2506 11012KT 9999 SCT025"
    },
    {
      "icao": "EGGW",
      "alert": "OK",
      "vis_m": 9999,
      "fzfg": false,
      "metar_trigger": false,
      "taf_trigger": false,
      "metar": "METAR EGGW 240450Z AUTO 06015KT 9999 OVC020 04/02 Q1028",
      "taf": "TAF EGGW 240457Z 2406/2506 06016G26KT 9999 BKN024"
    },
    {
      "icao": "EGKK",
      "alert": "OK",
      "vis_m": 9999,
      "fzfg": false,
      "metar_trigger": false,
      "taf_trigger": false,
      "metar": "METAR EGKK 240450Z 06019KT 9999 BKN020 06/03 Q1026",
      "taf": "TAF EGKK 240458Z 2406/2512 05017G29KT 9999 SCT025"
    },
    {
      "icao": "EGNM",
      "alert": "OK",
      "vis_m": 9999,
      "fzfg": false,
      "metar_trigger": false,
      "taf_trigger": false,
      "metar": "METAR EGNM 240450Z 07009KT 9999 BKN024 04/01 Q1034",
      "taf": "TAF EGNM 240459Z 2406/2506 07010KT 9999 FEW020 SCT025"
    },
    {
      "icao": "EGPD",
      "alert": "OK",
      "vis_m": 9999,
      "fzfg": false,
      "metar_trigger": false,
      "taf_trigger": false,
      "metar": "METAR EGPD 240450Z COR AUTO 18003KT 9999 OVC032 06/03 Q1037 NOSIG",
      "taf": "TAF EGPD 240454Z 2406/2506 19005KT 9999 BKN030"
    },
    {
      "icao": "EGPF",
      "alert": "OK",
      "vis_m": 9999,
      "fzfg": false,
      "metar_trigger": false,
      "taf_trigger": false,
      "metar": "METAR EGPF 240450Z AUTO 09010KT 9999 OVC029 07/02 Q1036",
      "taf": "TAF EGPF 240454Z 2406/2506 06007KT 9999 SCT030"
    },
    {
      "icao": "EHBK",
      "alert": "OK",
      "vis_m": 9999,
      "fzfg": false,
      "metar_trigger": false,
      "taf_trigger": false,
      "metar": "METAR EHBK 240455Z AUTO 05014KT 9999 NCD 00/M04 Q1026 NOSIG",
      "taf": "TAF EHBK 232316Z 2400/2506 05012KT 9999 BKN025"
    },
    {
      "icao": "EHEH",
      "alert": "OK",
      "vis_m": 9999,
      "fzfg": false,
      "metar_trigger": false,
      "taf_trigger": false,
      "metar": "METAR EHEH 240455Z AUTO 05010KT 010V070 9999 NCD 00/M04 Q1028 BLU",
      "taf": "TAF EHEH 232350Z 2400/2506 07012KT 9999 FEW018 BKN030"
    },
    {
      "icao": "EKBI",
      "alert": "OK",
      "vis_m": 9999,
      "fzfg": false,
      "metar_trigger": false,
      "taf_trigger": false,
      "metar": "METAR EKBI 240450Z AUTO 07007KT 9999 OVC024/// 01/M03 Q1039",
      "taf": "TAF EKBI 240227Z 2403/2503 07007KT 9999 BKN020"
    },
    {
      "icao": "EKCH",
      "alert": "OK",
      "vis_m": 9999,
      "fzfg": false,
      "metar_trigger": false,
      "taf_trigger": false,
      "metar": "METAR EKCH 240450Z AUTO 04010KT 9999 OVC028/// 00/M04 Q1038 NOSIG",
      "taf": "TAF EKCH 240227Z 2403/2503 06013KT 9999 FEW020"
    },
    {
      "icao": "ENAL",
      "alert": "OK",
      "vis_m": 9999,
      "fzfg": false,
      "metar_trigger": false,
      "taf_trigger": false,
      "metar": "METAR ENAL 240450Z 20011KT 9999 BKN030 07/01 Q1037",
      "taf": "TAF ENAL 240200Z 2403/2412 18009KT 9999 SCT030"
    },
    {
      "icao": "ENBR",
      "alert": "OK",
      "vis_m": 9999,
      "fzfg": false,
      "metar_trigger": false,
      "taf_trigger": false,
      "metar": "METAR ENBR 240450Z 10003KT 9999 SCT039 03/01 Q1040 RMK WIND 1200FT 14008KT",
      "taf": "TAF ENBR 232300Z 2400/2424 14005KT 9999 SCT030"
    },
    {
      "icao": "ENGM",
      "alert": "OK",
      "vis_m": 9999,
      "fzfg": false,
      "metar_trigger": false,
      "taf_trigger": false,
      "metar": "METAR ENGM 240450Z 02003KT 9999 SCT010 M07/M08 Q1038 NOSIG",
      "taf": "TAF ENGM 232300Z 2400/2424 28005KT 9999 BKN012"
    },
    {
      "icao": "ENHD",
      "alert": "OK",
      "vis_m": 9999,
      "fzfg": false,
      "metar_trigger": false,
      "taf_trigger": false,
      "metar": "METAR ENHD 240450Z AUTO 12006KT 9999 OVC032/// 01/M01 Q1041",
      "taf": "TAF ENHD 240200Z 2403/2412 18008KT 9999 SCT035"
    },
    {
      "icao": "ENTC",
      "alert": "OK",
      "vis_m": 9999,
      "fzfg": false,
      "metar_trigger": false,
      "taf_trigger": false,
      "metar": "METAR ENTC 240450Z 18020KT 9999 -SHRA BKN030 04/M02 Q1021 RMK WIND 2600FT 18034KT",
      "taf": "TAF ENTC 232300Z 2400/2424 20020KT 9999 SCT030"
    },
    {
      "icao": "ENTO",
      "alert": "OK",
      "vis_m": 9999,
      "fzfg": false,
      "metar_trigger": false,
      "taf_trigger": false,
      "metar": "METAR ENTO 240450Z VRB02KT 9999 BKN012 M02/M04 Q1040",
      "taf": "TAF ENTO 232300Z 2400/2424 32005KT 9999 BKN015"
    },
    {
      "icao": "ENVA",
      "alert": "OK",
      "vis_m": 9999,
      "fzfg": false,
      "metar_trigger": false,
      "taf_trigger": false,
      "metar": "METAR ENVA 240450Z 10007KT 9999 BKN041 M03/M05 Q1038 RMK WIND 670FT 12004KT",
      "taf": "TAF ENVA 232300Z 2400/2424 12008KT 9999 SCT035"
    },
    {
      "icao": "ENZV",
      "alert": "OK",
      "vis_m": 9999,
      "fzfg": false,
      "metar_trigger": false,
      "taf_trigger": false,
      "metar": "METAR ENZV 240450Z VRB01KT 9999 BKN035 00/M04 Q1041",
      "taf": "TAF ENZV 232300Z 2400/2424 14005KT CAVOK"
    },
    {
      "icao": "EPGD",
      "alert": "OK",
      "vis_m": 9999,
      "fzfg": false,
      "metar_trigger": false,
      "taf_trigger": false,
      "metar": "METAR EPGD 240500Z 11007KT 9999 SCT020 M07/M10 Q1036",
      "taf": "TAF EPGD 232330Z 2400/2424 08011KT 9999 SCT020"
    },
    {
      "icao": "EPKK",
      "alert": "OK",
      "vis_m": 9999,
      "fzfg": false,
      "metar_trigger": false,
      "taf_trigger": false,
      "metar": "METAR EPKK 240500Z 06013KT 9999 -SN OVC011 M01/M04 Q1026",
      "taf": "TAF EPKK 240230Z 2403/2503 05013KT 9999 BKN012"
    },
    {
      "icao": "EPKT",
      "alert": "OK",
      "vis_m": 9999,
      "fzfg": false,
      "metar_trigger": false,
      "taf_trigger": false,
      "metar": "METAR EPKT 240500Z 05013KT 9999 -SN FEW018 M01/M04 Q1026",
      "taf": "TAF EPKT 232330Z 2400/2424 06010KT 9999 BKN030"
    },
    {
      "icao": "EPLB",
      "alert": "OK",
      "vis_m": 9999,
      "fzfg": false,
      "metar_trigger": false,
      "taf_trigger": false,
      "metar": "METAR EPLB 240500Z 06015KT 9999 BKN015 OVC025 M06/M08 Q1031",
      "taf": ""
    },
    {
      "icao": "EPMO",
      "alert": "OK",
      "vis_m": 9999,
      "fzfg": false,
      "metar_trigger": false,
      "taf_trigger": false,
      "metar": "METAR EPMO 240500Z 04010KT 9999 BKN015 M08/M10 Q1033",
      "taf": "TAF EPMO 232330Z 2400/2424 04010KT 9999 BKN017"
    },
    {
      "icao": "EPPO",
      "alert": "OK",
      "vis_m": 9999,
      "fzfg": false,
      "metar_trigger": false,
      "taf_trigger": false,
      "metar": "METAR EPPO 240500Z 08010KT 9999 SCT018 M03/M07 Q1032",
      "taf": "TAF EPPO 232330Z 2400/2424 07010KT 9999 FEW013 BKN020"
    },
    {
      "icao": "EPRA",
      "alert": "OK",
      "vis_m": 9999,
      "fzfg": false,
      "metar_trigger": false,
      "taf_trigger": false,
      "metar": "METAR EPRA 240500Z 04011KT 9999 BKN016 M04/M07 Q1030",
      "taf": "TAF EPRA 240230Z 2403/2412 07010KT 9999 BKN020"
    },
    {
      "icao": "EPRZ",
      "alert": "OK",
      "vis_m": 9999,
      "fzfg": false,
      "metar_trigger": false,
      "taf_trigger": false,
      "metar": "METAR EPRZ 240500Z 06014KT 9999 -SN OVC019 M01/M05 Q1027",
      "taf": "TAF EPRZ 232330Z 2400/2424 05010KT 9999 BKN030"
    },
    {
      "icao": "EPSC",
      "alert": "OK",
      "vis_m": 9999,
      "fzfg": false,
      "metar_trigger": false,
      "taf_trigger": false,
      "metar": "METAR EPSC 240500Z 04004KT CAVOK M03/M05 Q1034",
      "taf": "TAF EPSC 232330Z 2400/2424 04005KT 9999 BKN045"
    },
    {
      "icao": "EPSY",
      "alert": "OK",
      "vis_m": 9999,
      "fzfg": false,
      "metar_trigger": false,
      "taf_trigger": false,
      "metar": "METAR EPSY 240500Z 06005KT 020V110 9999 SCT015 M08/M11 Q1034",
      "taf": "TAF EPSY 240230Z 2403/2412 06006KT CAVOK"
    },
    {
      "icao": "EPWA",
      "alert": "OK",
      "vis_m": 9999,
      "fzfg": false,
      "metar_trigger": false,
      "taf_trigger": false,
      "metar": "METAR EPWA 240500Z 05010KT 9999 BKN012 M08/M11 Q1033 NOSIG",
      "taf": "TAF EPWA 240230Z 2403/2503 05010KT 9999 FEW020"
    },
    {
      "icao": "EPWR",
      "alert": "OK",
      "vis_m": 9999,
      "fzfg": false,
      "metar_trigger": false,
      "taf_trigger": false,
      "metar": "METAR EPWR 240500Z 05010KT 9999 BKN016 M00/M03 Q1029",
      "taf": "TAF EPWR 240230Z 2403/2503 06012KT 9999 BKN012"
    },
    {
      "icao": "ESGG",
      "alert": "OK",
      "vis_m": 9999,
      "fzfg": false,
      "metar_trigger": false,
      "taf_trigger": false,
      "metar": "METAR ESGG 240450Z 32002KT 9999 OVC009 M02/M03 Q1038",
      "taf": "TAF ESGG 240230Z 2403/2503 06006KT 9999 SCT008"
    },
    {
      "icao": "ESKN",
      "alert": "OK",
      "vis_m": 8000,
      "fzfg": false,
      "metar_trigger": false,
      "taf_trigger": false,
      "metar": "METAR ESKN 240450Z 30009KT 8000 -SN OVC007 M02/M03 Q1037",
      "taf": ""
    },
    {
      "icao": "ESMS",
      "alert": "OK",
      "vis_m": 9999,
      "fzfg": false,
      "metar_trigger": false,
      "taf_trigger": false,
      "metar": "METAR ESMS 240450Z 01007KT 9999 BKN026 M01/M05 Q1037",
      "taf": "TAF ESMS 240227Z 2403/2503 07007KT 9999 SCT020"
    },
    {
      "icao": "ESSA",
      "alert": "OK",
      "vis_m": 8000,
      "fzfg": false,
      "metar_trigger": false,
      "taf_trigger": false,
      "metar": "METAR ESSA 240450Z 26008KT 8000 -SN OVC005 M04/M05 Q1035 RESN NOSIG",
      "taf": "TAF ESSA 240230Z 2403/2503 27009KT 9999 BKN008"
    },
    {
      "icao": "EYKA",
      "alert": "OK",
      "vis_m": 9999,
      "fzfg": false,
      "metar_trigger": false,
      "taf_trigger": false,
      "metar": "METAR EYKA 240520Z 34002KT CAVOK M09/M10 Q1037",
      "taf": "TAF EYKA 240500Z 2406/2506 VRB04KT 8000 NSC"
    },
    {
      "icao": "EYPA",
      "alert": "OK",
      "vis_m": 9999,
      "fzfg": false,
      "metar_trigger": false,
      "taf_trigger": false,
      "metar": "METAR EYPA 240520Z 17002KT 9999 OVC040 M06/M08 Q1038",
      "taf": "TAF EYPA 240500Z 2406/2506 VRB04KT 8000 BKN035"
    },
    {
      "icao": "EYVI",
      "alert": "OK",
      "vis_m": 9999,
      "fzfg": false,
      "metar_trigger": false,
      "taf_trigger": false,
      "metar": "METAR EYVI 240520Z 01004KT CAVOK M11/M12 Q1035 NOSIG",
      "taf": "TAF EYVI 240500Z 2406/2506 36006KT 7000 NSC"
    },
    {
      "icao": "GCFV",
      "alert": "OK",
      "vis_m": 9999,
      "fzfg": false,
      "metar_trigger": false,
      "taf_trigger": false,
      "metar": "METAR GCFV 240500Z AUTO 27006KT 9999 FEW047 15/10 Q1016",
      "taf": "TAF GCFV 240200Z 2403/2503 30005KT 9999 BKN035 TX21/2414Z TN15/2406Z"
    },
    {
      "icao": "GCLP",
      "alert": "OK",
      "vis_m": 9999,
      "fzfg": false,
      "metar_trigger": false,
      "taf_trigger": false,
      "metar": "METAR GCLP 240500Z 01007KT 9999 FEW035 SCT048 16/11 Q1017 NOSIG",
      "taf": "TAF GCLP 240200Z 2403/2503 28005KT 9999 SCT035 TX22/2414Z TN15/2406Z"
    },
    {
      "icao": "GCTS",
      "alert": "OK",
      "vis_m": 9999,
      "fzfg": false,
      "metar_trigger": false,
      "taf_trigger": false,
      "metar": "METAR GCTS 240500Z 01007KT 9999 FEW040 16/10 Q1017 NOSIG",
      "taf": "TAF GCTS 240200Z 2403/2503 VRB05KT 9999 SCT035 TX24/2414Z TN15/2406Z"
    },
    {
      "icao": "GMAD",
      "alert": "OK",
      "vis_m": 9999,
      "fzfg": false,
      "metar_trigger": false,
      "taf_trigger": false,
      "metar": "METAR GMAD 240500Z 03004KT 360V060 9999 BKN040 11/10 Q1014 NOSIG",
      "taf": "TAF GMAD 240500Z 2406/2512 20006KT 8000 SCT016 SCT080"
    },
    {
      "icao": "GMMN",
      "alert": "OK",
      "vis_m": 6000,
      "fzfg": false,
      "metar_trigger": false,
      "taf_trigger": false,
      "metar": "METAR GMMN 240500Z 24010KT 200V260 6000 SCT006 BKN020TCU 12/11 Q1010 NOSIG",
      "taf": "TAF GMMN 232300Z 2400/2506 22016KT 8000 SCT004 BKN020"
    },
    {
      "icao": "GMMX",
      "alert": "OK",
      "vis_m": 9999,
      "fzfg": false,
      "metar_trigger": false,
      "taf_trigger": false,
      "metar": "METAR GMMX 240500Z 21007KT 9999 SCT020 BKN090 12/07 Q1012 NOSIG",
      "taf": "TAF GMMX 232300Z 2400/2506 20006KT 8000 FEW020"
    },
    {
      "icao": "HEGN",
      "alert": "OK",
      "vis_m": 9999,
      "fzfg": false,
      "metar_trigger": false,
      "taf_trigger": false,
      "metar": "METAR HEGN 240500Z 29010KT CAVOK 14/05 Q1019 NOSIG",
      "taf": "TAF HEGN 240500Z 2406/2512 34012KT CAVOK"
    },
    {
      "icao": "HEMA",
      "alert": "OK",
      "vis_m": 9999,
      "fzfg": false,
      "metar_trigger": false,
      "taf_trigger": false,
      "metar": "METAR HEMA 240500Z 30012KT 9999 SCT025 20/11 Q1017 NOSIG",
      "taf": "TAF HEMA 240500Z 2406/2512 35012KT 9999 SCT25"
    },
    {
      "icao": "HESH",
      "alert": "OK",
      "vis_m": 9999,
      "fzfg": false,
      "metar_trigger": false,
      "taf_trigger": false,
      "metar": "METAR HESH 240500Z 34009KT CAVOK 19/05 Q1018 NOSIG",
      "taf": "TAF HESH 240500Z 2406/2512 01012KT CAVOK"
    },
    {
      "icao": "HESX",
      "alert": "OK",
      "vis_m": 9999,
      "fzfg": false,
      "metar_trigger": false,
      "taf_trigger": false,
      "metar": "METAR HESX 240500Z 12003KT CAVOK 08/02 Q1019 NOSIG",
      "taf": "TAF HESX 240500Z 2406/2512 20007KT CAVOK"
    },
    {
      "icao": "LATI",
      "alert": "OK",
      "vis_m": 9999,
      "fzfg": false,
      "metar_trigger": false,
      "taf_trigger": false,
      "metar": "METAR LATI 240520Z 19004KT 160V240 9999 SCT055 OVC130 11/07 Q1011 NOSIG",
      "taf": "TAF LATI 240500Z 2406/2506 VRB04KT 9999 SCT040 BKN080 TX14/2412Z TN06/2505Z"
    },
    {
      "icao": "LBPD",
      "alert": "OK",
      "vis_m": 4200,
      "fzfg": false,
      "metar_trigger": false,
      "taf_trigger": false,
      "metar": "METAR LBPD 240500Z AUTO 10007KT 4200 BR OVC003/// 05/05 Q1019 TEMPO 2000 BR",
      "taf": "TAF LBPD 240500Z 2406/2506 09008KT 5000 DZ BR SCT005 BKN010 OVC020"
    },
    {
      "icao": "LBSF",
      "alert": "OK",
      "vis_m": 9999,
      "fzfg": false,
      "metar_trigger": false,
      "taf_trigger": false,
      "metar": "METAR LBSF 240500Z 10013KT 9999 SCT015 OVC064 03/02 Q1016 NOSIG",
      "taf": "TAF LBSF 240500Z 2406/2506 10014KT 9999 SCT012 OVC033"
    },
    {
      "icao": "LBWN",
      "alert": "OK",
      "vis_m": 7000,
      "fzfg": false,
      "metar_trigger": false,
      "taf_trigger": false,
      "metar": "METAR LBWN 240500Z AUTO 00000KT 7000 FEW006/// OVC020/// 03/03 Q1021 TEMPO 4000 BR",
      "taf": "TAF LBWN 240500Z 2406/2506 VRB04KT 7000 SCT005 BKN015"
    },
    {
      "icao": "LCLK",
      "alert": "OK",
      "vis_m": 9999,
      "fzfg": false,
      "metar_trigger": false,
      "taf_trigger": false,
      "metar": "METAR LCLK 240500Z 32005KT 300V360 9999 SCT060 13/12 Q1019 NOSIG",
      "taf": "TAF LCLK 232330Z 2400/2500 34008KT 9999 FEW025 SCT040"
    },
    {
      "icao": "LCPH",
      "alert": "OK",
      "vis_m": 9999,
      "fzfg": false,
      "metar_trigger": false,
      "taf_trigger": false,
      "metar": "METAR LCPH 240500Z 03008KT 010V080 9999 FEW040 BKN080 13/09 Q1019 NOSIG",
      "taf": "TAF LCPH 232330Z 2400/2500 06007KT 9999 FEW030 SCT045"
    },
    {
      "icao": "LEAL",
      "alert": "OK",
      "vis_m": 9999,
      "fzfg": false,
      "metar_trigger": false,
      "taf_trigger": false,
      "metar": "METAR LEAL 240500Z VRB05KT CAVOK 08/03 Q1006 NOSIG",
      "taf": "TAF LEAL 232300Z 2400/2424 32009KT 9999 FEW030 TX15/2412Z TN05/2406Z"
    },
    {
      "icao": "LEBB",
      "alert": "OK",
      "vis_m": 8000,
      "fzfg": false,
      "metar_trigger": false,
      "taf_trigger": false,
      "metar": "METAR LEBB 240500Z 06001KT 8000 OVC028 09/09 Q1012 NOSIG",
      "taf": "TAF LEBB 232300Z 2400/2424 VRB03KT 9999 SCT016 TX10/2413Z TN06/2424Z"
    },
    {
      "icao": "LEBL",
      "alert": "OK",
      "vis_m": 9999,
      "fzfg": false,
      "metar_trigger": false,
      "taf_trigger": false,
      "metar": "METAR LEBL 240500Z 33009KT 9999 FEW035 07/04 Q1007 NOSIG",
      "taf": "TAF LEBL 232300Z 2400/2424 05010KT 9999 SCT020 TX14/2413Z TN08/2406Z"
    },
    {
      "icao": "LECH",
      "alert": "OK",
      "vis_m": 9000,
      "fzfg": false,
      "metar_trigger": false,
      "taf_trigger": false,
      "metar": "METAR LECH 240500Z AUTO 03006KT 9000 OVC050 07/04 Q1007",
      "taf": ""
    },
    {
      "icao": "LEMD",
      "alert": "OK",
      "vis_m": 7000,
      "fzfg": false,
      "metar_trigger": false,
      "taf_trigger": false,
      "metar": "METAR LEMD 240500Z 34006KT 7000 1700N SCT002 BKN038 01/01 Q1008 NOSIG",
      "taf": ""
    },
    {
      "icao": "LEMG",
      "alert": "OK",
      "vis_m": 9999,
      "fzfg": false,
      "metar_trigger": false,
      "taf_trigger": false,
      "metar": "METAR LEMG 240500Z 31005KT 9999 FEW080 08/07 Q1006 NOSIG",
      "taf": ""
    },
    {
      "icao": "LEVC",
      "alert": "OK",
      "vis_m": 9999,
      "fzfg": false,
      "metar_trigger": false,
      "taf_trigger": false,
      "metar": "METAR LEVC 240500Z 30005KT 9999 FEW050 05/03 Q1007 NOSIG",
      "taf": "TAF LEVC 232300Z 2400/2424 27007KT 9999 FEW020 TX13/2412Z TN05/2406Z"
    },
    {
      "icao": "LEXJ",
      "alert": "OK",
      "vis_m": 5000,
      "fzfg": false,
      "metar_trigger": false,
      "taf_trigger": false,
      "metar": "METAR LEXJ 240500Z 23003KT 170V270 5000 -RA SCT017 OVC027 09/08 Q1013",
      "taf": "TAF LEXJ 240200Z 2403/2503 22009KT 9999 SCT020 TX11/2415Z TN07/2503Z"
    },
    {
      "icao": "LEZG",
      "alert": "OK",
      "vis_m": 9999,
      "fzfg": false,
      "metar_trigger": false,
      "taf_trigger": false,
      "metar": "METAR LEZG 240500Z 25006KT 9999 FEW080 04/04 Q1009 NOSIG",
      "taf": "TAF LEZG 232300Z 2400/2424 29007KT 9999 FEW030 TX11/2414Z TN03/2406Z"
    },
    {
      "icao": "LEZL",
      "alert": "OK",
      "vis_m": 250,
      "fzfg": false,
      "metar_trigger": false,
      "taf_trigger": false,
      "metar": "METAR LEZL 240500Z 36003KT 0250 R27/0700N R09/0550N FG VV001 11/11 Q1007 NOSIG",
      "taf": "TAF LEZL 240200Z 2403/2503 VRB03KT 9999 FEW040 TX14/2415Z TN08/2407Z"
    },
    {
      "icao": "LFBD",
      "alert": "OK",
      "vis_m": 8000,
      "fzfg": false,
      "metar_trigger": false,
      "taf_trigger": false,
      "metar": "METAR LFBD 240500Z AUTO 02008KT 8000 OVC007 05/04 Q1013 TEMPO 4000 BR BKN004",
      "taf": ""
    },
    {
      "icao": "LFLL",
      "alert": "OK",
      "vis_m": 5000,
      "fzfg": false,
      "metar_trigger": false,
      "taf_trigger": false,
      "metar": "METAR LFLL 240500Z 35007KT 5000 -DZ BR OVC008 03/02 Q1012 NOSIG",
      "taf": "TAF LFLL 240500Z 2406/2512 35009KT 9999 OVC009"
    },
    {
      "icao": "LFLS",
      "alert": "OK",
      "vis_m": 9000,
      "fzfg": false,
      "metar_trigger": false,
      "taf_trigger": false,
      "metar": "METAR LFLS 240500Z AUTO 34007KT 9000 BKN009 OVC014 02/01 Q1011 TEMPO 1200 -SN OVC003",
      "taf": "TAF LFLS 240200Z 2403/2503 36008KT 9999 SCT006 OVC020"
    },
    {
      "icao": "LFMN",
      "alert": "OK",
      "vis_m": 9999,
      "fzfg": false,
      "metar_trigger": false,
      "taf_trigger": false,
      "metar": "METAR LFMN 240500Z 33008KT 9999 FEW073 BKN110 11/06 Q1003 NOSIG",
      "taf": "TAF LFMN 240200Z 2403/2509 33012KT 9999 FEW040 BKN080"
    },
    {
      "icao": "LFOB",
      "alert": "OK",
      "vis_m": 9999,
      "fzfg": false,
      "metar_trigger": false,
      "taf_trigger": false,
      "metar": "METAR LFOB 240500Z AUTO 05012KT 9999 OVC028 05/01 Q1021 NOSIG",
      "taf": "TAF LFOB 232300Z 2400/2424 05010G20KT 9999 OVC020"
    },
    {
      "icao": "LFPO",
      "alert": "OK",
      "vis_m": 9999,
      "fzfg": false,
      "metar_trigger": false,
      "taf_trigger": false,
      "metar": "METAR LFPO 240500Z AUTO 05013KT 9999 OVC028 05/00 Q1020",
      "taf": ""
    },
    {
      "icao": "LFSB",
      "alert": "OK",
      "vis_m": 9999,
      "fzfg": false,
      "metar_trigger": false,
      "taf_trigger": false,
      "metar": "METAR LFSB 240500Z AUTO 36005KT 340V040 9999 OVC037 03/00 Q1016 TEMPO BKN007",
      "taf": "TAF LFSB 232300Z 2400/2424 36004KT 9999 FEW005 OVC020"
    },
    {
      "icao": "LGAV",
      "alert": "OK",
      "vis_m": 9999,
      "fzfg": false,
      "metar_trigger": false,
      "taf_trigger": false,
      "metar": "METAR LGAV 240450Z 00000KT 9999 FEW020 SCT040 10/07 Q1017 NOSIG",
      "taf": "TAF LGAV 240500Z 2406/2506 VRB05KT 9999 FEW018 SCT030 BKN070"
    },
    {
      "icao": "LGTS",
      "alert": "OK",
      "vis_m": 6000,
      "fzfg": false,
      "metar_trigger": false,
      "taf_trigger": false,
      "metar": "METAR LGTS 240450Z 00000KT 6000 3000SE -RA SCT006 SCT025 BKN050 11/11 Q1016 NOSIG",
      "taf": "TAF LGTS 240500Z 2406/2506 14010KT 9000 FEW012 BKN025"
    },
    {
      "icao": "LHBP",
      "alert": "OK",
      "vis_m": 9999,
      "fzfg": false,
      "metar_trigger": false,
      "taf_trigger": false,
      "metar": "METAR LHBP 240500Z 06005KT 9999 -RA OVC048 04/02 Q1018 NOSIG",
      "taf": "TAF LHBP 232315Z 2400/2424 06008KT 9999 SCT020 OVC040"
    },
    {
      "icao": "LHDC",
      "alert": "OK",
      "vis_m": 9999,
      "fzfg": false,
      "metar_trigger": false,
      "taf_trigger": false,
      "metar": "METAR LHDC 240445Z AUTO 03014KT CAVOK 03/M00 Q1018 NOSIG",
      "taf": ""
    },
    {
      "icao": "LIBD",
      "alert": "OK",
      "vis_m": 9999,
      "fzfg": false,
      "metar_trigger": false,
      "taf_trigger": false,
      "metar": "METAR LIBD 240450Z 20010KT CAVOK 11/06 Q1007",
      "taf": "TAF LIBD 240500Z 2406/2506 16008KT 9999 SCT060"
    },
    {
      "icao": "LIBG",
      "alert": "OK",
      "vis_m": null,
      "fzfg": false,
      "metar_trigger": false,
      "taf_trigger": false,
      "metar": "",
      "taf": ""
    },
    {
      "icao": "LIBP",
      "alert": "OK",
      "vis_m": 50,
      "fzfg": false,
      "metar_trigger": false,
      "taf_trigger": false,
      "metar": "METAR LIBP 240450Z AUTO VRB02KT 0050 R22/0325N -RA FG VV001 07/07 Q1003",
      "taf": "TAF LIBP 240500Z 2406/2506 VRB05KT 3000 BR BKN008"
    },
    {
      "icao": "LIBR",
      "alert": "OK",
      "vis_m": 9999,
      "fzfg": false,
      "metar_trigger": false,
      "taf_trigger": false,
      "metar": "METAR LIBR 240450Z 14003KT CAVOK 10/09 Q1009",
      "taf": "TAF LIBR 240500Z 2406/2506 15010KT 9999 SCT060"
    },
    {
      "icao": "LICA",
      "alert": "OK",
      "vis_m": 9999,
      "fzfg": false,
      "metar_trigger": false,
      "taf_trigger": false,
      "metar": "METAR LICA 240450Z AUTO 07005KT 9999 NCD 06/05 Q1010",
      "taf": "TAF LICA 240500Z 2406/2506 08012KT 9999 SCT040"
    },
    {
      "icao": "LICC",
      "alert": "OK",
      "vis_m": 9999,
      "fzfg": false,
      "metar_trigger": false,
      "taf_trigger": false,
      "metar": "METAR LICC 240450Z 26005KT CAVOK 05/04 Q1011",
      "taf": "TAF LICC 240500Z 2406/2506 25010KT 9999 SCT030"
    },
    {
      "icao": "LICJ",
      "alert": "OK",
      "vis_m": 9999,
      "fzfg": false,
      "metar_trigger": false,
      "taf_trigger": false,
      "metar": "METAR LICJ 240450Z 22012KT 9999 -RA SCT040 12/07 Q1008",
      "taf": "TAF LICJ 240500Z 2406/2506 21018KT 9999 SCT040"
    },
    {
      "icao": "LIMC",
      "alert": "OK",
      "vis_m": 9999,
      "fzfg": false,
      "metar_trigger": false,
      "taf_trigger": false,
      "metar": "METAR LIMC 240450Z 01007KT 9999 FEW040 BKN090 06/05 Q1007 NOSIG",
      "taf": "TAF LIMC 240500Z 2406/2512 VRB05KT 6000 BKN050"
    },
    {
      "icao": "LIME",
      "alert": "OK",
      "vis_m": 9999,
      "fzfg": false,
      "metar_trigger": false,
      "taf_trigger": false,
      "metar": "METAR LIME 240420Z 02003KT 9999 FEW080 06/05 Q1007 NOSIG",
      "taf": "TAF LIME 240500Z 2406/2506 VRB05KT 7000 SCT060"
    },
    {
      "icao": "LIMF",
      "alert": "OK",
      "vis_m": 9999,
      "fzfg": false,
      "metar_trigger": false,
      "taf_trigger": false,
      "metar": "METAR LIMF 240450Z VRB04KT 9999 BKN060 06/05 Q1007",
      "taf": "TAF LIMF 240500Z 2406/2506 VRB05KT 6000 BKN040"
    },
    {
      "icao": "LIMJ",
      "alert": "OK",
      "vis_m": 9999,
      "fzfg": false,
      "metar_trigger": false,
      "taf_trigger": false,
      "metar": "METAR LIMJ 240450Z 04011KT 9999 SCT050 12/07 Q1004",
      "taf": "TAF LIMJ 240500Z 2406/2506 03015KT 9999 BKN070"
    },
    {
      "icao": "LIPE",
      "alert": "OK",
      "vis_m": 5000,
      "fzfg": false,
      "metar_trigger": false,
      "taf_trigger": false,
      "metar": "METAR LIPE 240450Z 02005KT 330V050 5000 RA BR BKN008 08/08 Q1006",
      "taf": "TAF LIPE 240500Z 2406/2506 VRB05KT 4000 RA BR BKN010"
    },
    {
      "icao": "LIPH",
      "alert": "OK",
      "vis_m": 9999,
      "fzfg": false,
      "metar_trigger": false,
      "taf_trigger": false,
      "metar": "METAR LIPH 240450Z AUTO 06009KT 9999 -RA OVC053/// 08/04 Q1008",
      "taf": "TAF LIPH 240500Z 2406/2506 05010KT 9999 BKN030"
    },
    {
      "icao": "LIPQ",
      "alert": "OK",
      "vis_m": 9999,
      "fzfg": false,
      "metar_trigger": false,
      "taf_trigger": false,
      "metar": "METAR LIPQ 240450Z AUTO 36003KT 310V070 9999 FEW069/// BKN110/// 08/02 Q1009",
      "taf": "TAF LIPQ 240500Z 2406/2506 06008KT 9999 BKN050"
    },
    {
      "icao": "LIPR",
      "alert": "OK",
      "vis_m": 6000,
      "fzfg": false,
      "metar_trigger": false,
      "taf_trigger": false,
      "metar": "METAR LIPR 240450Z AUTO 08016KT 6000 -RA BKN012/// BKN029/// 11/10 Q1003",
      "taf": "TAF LIPR 240500Z 2406/2506 06010KT 4000 -RA BR BKN010"
    },
    {
      "icao": "LIPX",
      "alert": "OK",
      "vis_m": 9999,
      "fzfg": false,
      "metar_trigger": false,
      "taf_trigger": false,
      "metar": "METAR LIPX 240450Z 09007KT 050V130 9999 OVC060 10/04 Q1007",
      "taf": "TAF LIPX 240500Z 2406/2506 VRB05KT 7000 BKN050"
    },
    {
      "icao": "LIPY",
      "alert": "OK",
      "vis_m": 9999,
      "fzfg": false,
      "metar_trigger": false,
      "taf_trigger": false,
      "metar": "METAR LIPY 240450Z AUTO 09004KT 060V130 9999 SCT020/// BKN110/// 13/11 Q1003",
      "taf": "TAF LIPY 240500Z 2406/2506 VRB05KT 8000 SCT020"
    },
    {
      "icao": "LIPZ",
      "alert": "OK",
      "vis_m": 9999,
      "fzfg": false,
      "metar_trigger": false,
      "taf_trigger": false,
      "metar": "METAR LIPZ 240450Z 06013KT 9999 BKN060 08/04 Q1008 NOSIG",
      "taf": "TAF LIPZ 240500Z 2406/2512 05013KT 9999 SCT040"
    },
    {
      "icao": "LIRF",
      "alert": "OK",
      "vis_m": 9999,
      "fzfg": false,
      "metar_trigger": false,
      "taf_trigger": false,
      "metar": "METAR LIRF 240450Z 09017KT 9999 -RA SCT010 SCT030 10/10 Q1001 RERA NOSIG",
      "taf": "TAF LIRF 240500Z 2406/2512 10018KT 9999 BKN030"
    },
    {
      "icao": "LIRN",
      "alert": "OK",
      "vis_m": 9999,
      "fzfg": false,
      "metar_trigger": false,
      "taf_trigger": false,
      "metar": "METAR LIRN 240450Z 22008KT 9999 BKN040 12/07 Q1006 NOSIG",
      "taf": "TAF LIRN 240500Z 2406/2506 18015KT 9999 SCT040"
    },
    {
      "icao": "LIRP",
      "alert": "OK",
      "vis_m": 8000,
      "fzfg": false,
      "metar_trigger": false,
      "taf_trigger": false,
      "metar": "METAR LIRP 240445Z 06006KT 8000 -RA SCT025 BKN060 11/10 Q1002 NOSIG",
      "taf": "TAF LIRP 240500Z 2406/2506 11003KT 7000 -RA SCT030 BKN060"
    },
    {
      "icao": "LIRZ",
      "alert": "OK",
      "vis_m": 1900,
      "fzfg": false,
      "metar_trigger": false,
      "taf_trigger": false,
      "metar": "METAR LIRZ 240450Z AUTO 13003KT 110V190 1900 -RA BR SCT003/// BKN051/// 08/08 Q1003",
      "taf": "TAF LIRZ 240500Z 2406/2506 VRB05KT 9999 BKN050"
    },
    {
      "icao": "LJLJ",
      "alert": "OK",
      "vis_m": 9999,
      "fzfg": false,
      "metar_trigger": false,
      "taf_trigger": false,
      "metar": "METAR LJLJ 240500Z 26002KT 9999 -DZ SCT006 BKN020 OVC045 02/01 Q1014 NOSIG",
      "taf": "TAF LJLJ 240500Z 2406/2506 VRB02KT 9999 SCT006 BKN020"
    },
    {
      "icao": "LKMT",
      "alert": "OK",
      "vis_m": 9999,
      "fzfg": false,
      "metar_trigger": false,
      "taf_trigger": false,
      "metar": "METAR LKMT 240500Z 05017KT 9999 -SN BKN018 OVC024 00/M03 Q1024 NOSIG",
      "taf": "TAF LKMT 240500Z 2406/2506 04016KT 9999 BKN025"
    },
    {
      "icao": "LKPR",
      "alert": "OK",
      "vis_m": 9999,
      "fzfg": false,
      "metar_trigger": false,
      "taf_trigger": false,
      "metar": "METAR LKPR 240500Z 03010KT 9999 FEW030 M02/M04 Q1024 NOSIG",
      "taf": "TAF LKPR 240500Z 2406/2512 05012KT 9999 BKN030"
    },
    {
      "icao": "LLBG",
      "alert": "OK",
      "vis_m": 9999,
      "fzfg": false,
      "metar_trigger": false,
      "taf_trigger": false,
      "metar": "METAR LLBG 240450Z 11005KT 9999 SCT040 14/11 Q1020 NOSIG RMK BKN060",
      "taf": "TAF LLBG 240502Z 2406/2506 14006KT 9999 SCT035"
    },
    {
      "icao": "LMML",
      "alert": "OK",
      "vis_m": 9999,
      "fzfg": false,
      "metar_trigger": false,
      "taf_trigger": false,
      "metar": "METAR LMML 240515Z 23009KT 9999 FEW033 13/07 Q1011 NOSIG",
      "taf": "TAF LMML 240500Z 2406/2506 23015KT 9999 FEW030"
    },
    {
      "icao": "LOWW",
      "alert": "OK",
      "vis_m": 5000,
      "fzfg": false,
      "metar_trigger": false,
      "taf_trigger": false,
      "metar": "METAR LOWW 240450Z 01005KT 5000 -SN FEW002 BKN005 00/M00 Q1020 NOSIG",
      "taf": "TAF LOWW 240515Z 2406/2512 01007KT 4000 -SN OVC003 TX01/2411Z TNM02/2506Z"
    },
    {
      "icao": "LPFR",
      "alert": "OK",
      "vis_m": 9999,
      "fzfg": false,
      "metar_trigger": false,
      "taf_trigger": false,
      "metar": "METAR LPFR 240500Z 30007KT CAVOK 08/06 Q1008",
      "taf": "TAF LPFR 240500Z 2406/2506 31007KT CAVOK"
    },
    {
      "icao": "LPMA",
      "alert": "OK",
      "vis_m": 9999,
      "fzfg": false,
      "metar_trigger": false,
      "taf_trigger": false,
      "metar": "METAR LPMA 240500Z 31005KT 260V340 9999 SCT015 17/12 Q1015",
      "taf": "TAF LPMA 240500Z 2406/2506 33007KT 9999 SCT015"
    },
    {
      "icao": "LPPR",
      "alert": "OK",
      "vis_m": 9999,
      "fzfg": false,
      "metar_trigger": false,
      "taf_trigger": false,
      "metar": "METAR LPPR 240500Z 08005KT CAVOK 06/03 Q1010",
      "taf": "TAF LPPR 240500Z 2406/2506 08005KT 9999 FEW030"
    },
    {
      "icao": "LPPS",
      "alert": "OK",
      "vis_m": 9000,
      "fzfg": false,
      "metar_trigger": false,
      "taf_trigger": false,
      "metar": "METAR LPPS 240500Z 35015KT 9000 -RADZ SCT014 SCT030 15/14 Q1015",
      "taf": "TAF LPPS 240500Z 2406/2512 34015KT 9999 SCT015 SCT030"
    },
    {
      "icao": "LPPT",
      "alert": "OK",
      "vis_m": 9999,
      "fzfg": false,
      "metar_trigger": false,
      "taf_trigger": false,
      "metar": "METAR LPPT 240500Z 32007KT 9999 VCSH FEW010 FEW020TCU SCT025 10/08 Q1008",
      "taf": "TAF LPPT 240500Z 2406/2512 33007KT 9999 FEW025"
    },
    {
      "icao": "LQBK",
      "alert": "OK",
      "vis_m": 2000,
      "fzfg": false,
      "metar_trigger": false,
      "taf_trigger": false,
      "metar": "METAR LQBK 240500Z 36004KT 2000 -RA BR OVC003 04/04 Q1015 NOSIG",
      "taf": "TAF LQBK 240500Z 2406/2506 02005KT 4000 -RA BR BKN010 OVC025 TX04/2406Z TN01/2506Z"
    },
    {
      "icao": "LQSA",
      "alert": "OK",
      "vis_m": 3000,
      "fzfg": false,
      "metar_trigger": false,
      "taf_trigger": false,
      "metar": "METAR LQSA 240500Z 00000KT 3000 RA BR SCT005 BKN010 OVC035 02/02 Q1012 NOSIG",
      "taf": ""
    },
    {
      "icao": "LQTZ",
      "alert": "OK",
      "vis_m": 800,
      "fzfg": false,
      "metar_trigger": false,
      "taf_trigger": false,
      "metar": "METAR LQTZ 240500Z 00000KT 0800 R09/0900U -RA FG VV002 03/03 Q1014",
      "taf": ""
    },
    {
      "icao": "LRBC",
      "alert": "OK",
      "vis_m": 9999,
      "fzfg": false,
      "metar_trigger": false,
      "taf_trigger": false,
      "metar": "METAR LRBC 240500Z 11006KT 9999 -RA OVC006 02/01 Q1024",
      "taf": "TAF LRBC 240200Z 2403/2412 VRB04KT 5000 BR BKN005 OVC025"
    },
    {
      "icao": "LRBS",
      "alert": "OK",
      "vis_m": 1400,
      "fzfg": false,
      "metar_trigger": false,
      "taf_trigger": false,
      "metar": "METAR LRBS 240500Z 04011KT 1400 R07/2000N -DZ BR OVC002 03/03 Q1021 NOSIG",
      "taf": "TAF LRBS 232300Z 2400/2424 08006KT 3000 BR BKN002"
    },
    {
      "icao": "LRBV",
      "alert": "OK",
      "vis_m": 9999,
      "fzfg": false,
      "metar_trigger": false,
      "taf_trigger": false,
      "metar": "METAR LRBV 240500Z 18004KT 050V220 9999 SCT046 M02/M02 Q1018",
      "taf": "TAF LRBV 240200Z 2403/2412 VRB04KT 5000 BR OVC002"
    },
    {
      "icao": "LRCL",
      "alert": "OK",
      "vis_m": 5000,
      "fzfg": false,
      "metar_trigger": false,
      "taf_trigger": false,
      "metar": "METAR LRCL 240500Z 09005KT 5000 BR OVC002 M01/M01 Q1019",
      "taf": "TAF LRCL 240200Z 2403/2412 VRB04KT 5000 BR OVC003"
    },
    {
      "icao": "LRCV",
      "alert": "OK",
      "vis_m": 3000,
      "fzfg": false,
      "metar_trigger": false,
      "taf_trigger": false,
      "metar": "METAR LRCV 240500Z 08009KT 3000 -RA BR BKN002 OVC005 03/03 Q1019",
      "taf": "TAF LRCV 240200Z 2403/2412 11010KT 3000 BR OVC003"
    },
    {
      "icao": "LRIA",
      "alert": "OK",
      "vis_m": 8000,
      "fzfg": false,
      "metar_trigger": false,
      "taf_trigger": false,
      "metar": "METAR LRIA 240500Z 08007KT 8000 -DZ BKN010 OVC020 01/01 Q1025",
      "taf": "TAF LRIA 240200Z 2403/2412 10008KT 5000 -SN BKN005 OVC025"
    },
    {
      "icao": "LROP",
      "alert": "OK",
      "vis_m": 3500,
      "fzfg": false,
      "metar_trigger": false,
      "taf_trigger": false,
      "metar": "METAR LROP 240500Z 06013KT 3500 -DZ BR OVC003 03/03 Q1021 NOSIG",
      "taf": "TAF LROP 232300Z 2400/2424 08006KT 3000 BR BKN002"
    },
    {
      "icao": "LRSB",
      "alert": "OK",
      "vis_m": 1500,
      "fzfg": false,
      "metar_trigger": false,
      "taf_trigger": false,
      "metar": "METAR LRSB 240500Z VRB01KT 1500 -SN BR BKN001 OVC003 M01/M01 Q1018",
      "taf": "TAF LRSB 232300Z 2400/2424 VRB04KT 3000 BR OVC003"
    },
    {
      "icao": "LRSM",
      "alert": "OK",
      "vis_m": 9999,
      "fzfg": false,
      "metar_trigger": false,
      "taf_trigger": false,
      "metar": "METAR LRSM 240500Z 06005KT CAVOK 03/01 Q1019",
      "taf": "TAF LRSM 240200Z 2403/2412 VRB04KT 9999 BKN045"
    },
    {
      "icao": "LRSV",
      "alert": "OK",
      "vis_m": 800,
      "fzfg": true,
      "metar_trigger": false,
      "taf_trigger": false,
      "metar": "METAR LRSV 240500Z COR 08009KT 0800 R34/1600D -SN FZFG OVC002 M01/M01 Q1023",
      "taf": "TAF LRSV 240200Z 2403/2412 05008KT 0600 -SN FZFG OVC001"
    },
    {
      "icao": "LRTM",
      "alert": "OK",
      "vis_m": 8000,
      "fzfg": false,
      "metar_trigger": false,
      "taf_trigger": false,
      "metar": "METAR LRTM 240500Z VRB02KT 8000 SCT003 BKN005 M00/M01 Q1019",
      "taf": "TAF LRTM 240200Z 2403/2412 VRB04KT 3000 BR OVC003"
    },
    {
      "icao": "LRTR",
      "alert": "OK",
      "vis_m": 9999,
      "fzfg": false,
      "metar_trigger": false,
      "taf_trigger": false,
      "metar": "METAR LRTR 240500Z 07005KT 9999 BKN045 03/01 Q1016",
      "taf": "TAF LRTR 232300Z 2400/2424 08006KT 9999 BKN040"
    },
    {
      "icao": "LTAC",
      "alert": "OK",
      "vis_m": 4700,
      "fzfg": false,
      "metar_trigger": false,
      "taf_trigger": false,
      "metar": "METAR LTAC 240450Z VRB02KT 4700 1800N BR FEW020 BKN040 04/03 Q1020 NOSIG",
      "taf": "TAF LTAC 240440Z 2406/2506 VRB02KT 4000 BR FEW020 BKN035"
    },
    {
      "icao": "LTFM",
      "alert": "OK",
      "vis_m": 9999,
      "fzfg": false,
      "metar_trigger": false,
      "taf_trigger": false,
      "metar": "METAR LTFM 240450Z 04007KT 9999 SCT011 BKN023 10/09 Q1020 NOSIG RMK RWY17L 04006KT RWY34L 03006KT RWY16R 03008KT RWY36 03006KT RWY18 04005KT",
      "taf": "TAF LTFM 240440Z 2406/2512 02007KT 9999 SCT014 BKN025"
    },
    {
      "icao": "LUKK",
      "alert": "OK",
      "vis_m": 9999,
      "fzfg": false,
      "metar_trigger": false,
      "taf_trigger": false,
      "metar": "METAR LUKK 240500Z 08010KT 9999 -SN OVC045 00/M02 Q1026 NOSIG",
      "taf": "TAF LUKK 240516Z 2406/2506 07010KT 9999 BKN030"
    },
    {
      "icao": "LWOH",
      "alert": "OK",
      "vis_m": null,
      "fzfg": false,
      "metar_trigger": false,
      "taf_trigger": false,
      "metar": "",
      "taf": "TAF LWOH 240220Z 2403/2503 VRB02KT 9999 FEW020 OVC040"
    },
    {
      "icao": "LWSK",
      "alert": "OK",
      "vis_m": 2000,
      "fzfg": false,
      "metar_trigger": false,
      "taf_trigger": false,
      "metar": "METAR LWSK 240520Z VRB01KT 2000 BR BKN009 OVC030 04/04 Q1015 NOSIG",
      "taf": "TAF LWSK 240220Z 2403/2503 VRB02KT 5000 BR BKN013 OVC033"
    },
    {
      "icao": "LYBE",
      "alert": "OK",
      "vis_m": 9999,
      "fzfg": false,
      "metar_trigger": false,
      "taf_trigger": false,
      "metar": "METAR LYBE 240500Z 12009KT 9999 BKN028 05/02 Q1015 NOSIG",
      "taf": "TAF LYBE 240500Z 2406/2506 11014KT 9999 BKN027 TX06/2413Z TN02/2506Z"
    },
    {
      "icao": "LYNI",
      "alert": "OK",
      "vis_m": 9999,
      "fzfg": false,
      "metar_trigger": false,
      "taf_trigger": false,
      "metar": "METAR LYNI 240500Z 09011KT 9999 RA BKN033 06/04 Q1014 NOSIG",
      "taf": "TAF LYNI 240500Z 2406/2506 08013KT 9999 BKN030 BKN080 TX06/2412Z TN02/2506Z"
    },
    {
      "icao": "LYPG",
      "alert": "OK",
      "vis_m": 4000,
      "fzfg": false,
      "metar_trigger": false,
      "taf_trigger": false,
      "metar": "METAR LYPG 240500Z 06003KT 030V110 4000 -RA BR FEW030 SCT043 BKN070 06/06 Q1012 NOSIG",
      "taf": "TAF LYPG 240500Z 2406/2506 VRB02KT 6000 SCT040 OVC070 TX11/2413Z TN05/2505Z"
    },
    {
      "icao": "LZIB",
      "alert": "OK",
      "vis_m": 9999,
      "fzfg": false,
      "metar_trigger": false,
      "taf_trigger": false,
      "metar": "METAR LZIB 240500Z 03011KT 9999 -RA FEW009 BKN014 BKN018 02/01 Q1019 NOSIG",
      "taf": "TAF LZIB 240515Z 2406/2506 04012KT 9999 -RA FEW009 OVC020"
    },
    {
      "icao": "LZKZ",
      "alert": "OK",
      "vis_m": 9999,
      "fzfg": false,
      "metar_trigger": false,
      "taf_trigger": false,
      "metar": "METAR LZKZ 240500Z 36021KT CAVOK 02/M04 Q1021 NOSIG",
      "taf": "TAF LZKZ 240515Z 2406/2506 01018KT CAVOK"
    },
    {
      "icao": "LZTT",
      "alert": "OK",
      "vis_m": 9999,
      "fzfg": false,
      "metar_trigger": false,
      "taf_trigger": false,
      "metar": "METAR LZTT 240500Z 06013KT 9999 -SN BKN016 OVC033 M03/M05 Q1021",
      "taf": "TAF LZTT 240515Z 2406/2506 06015KT 9999 -SN BKN016 BKN023"
    },
    {
      "icao": "OEJN",
      "alert": "OK",
      "vis_m": 9999,
      "fzfg": false,
      "metar_trigger": false,
      "taf_trigger": false,
      "metar": "METAR OEJN 240500Z 36002KT 9999 FEW040 25/21 Q1014 NOSIG",
      "taf": "TAF OEJN 240500Z 2406/2512 32010KT 9999 SCT040"
    },
    {
      "icao": "OEMA",
      "alert": "OK",
      "vis_m": 7000,
      "fzfg": false,
      "metar_trigger": false,
      "taf_trigger": false,
      "metar": "METAR OEMA 240500Z 36004KT 7000 NSC 18/13 Q1019 NOSIG",
      "taf": "TAF OEMA 240500Z 2406/2512 33010KT 9999 SCT040"
    },
    {
      "icao": "OJAI",
      "alert": "OK",
      "vis_m": 4000,
      "fzfg": false,
      "metar_trigger": false,
      "taf_trigger": false,
      "metar": "METAR OJAI 240500Z 00000KT 4000 BR NSC 06/04 Q1022 NOSIG",
      "taf": "TAF OJAI 240448Z 2406/2512 VRB02KT 5000 HZ NSC"
    },
    {
      "icao": "OMAA",
      "alert": "OK",
      "vis_m": 9999,
      "fzfg": false,
      "metar_trigger": false,
      "taf_trigger": false,
      "metar": "METAR OMAA 240500Z 10005KT CAVOK 18/11 Q1019 NOSIG",
      "taf": "TAF OMAA 240500Z 2406/2512 VRB02KT 8000 NSC"
    },
    {
      "icao": "OMDB",
      "alert": "OK",
      "vis_m": 9999,
      "fzfg": false,
      "metar_trigger": false,
      "taf_trigger": false,
      "metar": "METAR OMDB 240500Z 09005KT 040V120 CAVOK 20/10 Q1019 NOSIG",
      "taf": "TAF OMDB 240500Z 2406/2512 07005KT 8000 NSC"
    },
    {
      "icao": "UAAA",
      "alert": "OK",
      "vis_m": 750,
      "fzfg": true,
      "metar_trigger": false,
      "taf_trigger": false,
      "metar": "SPECI UAAA 240519Z 03002MPS 330V090 0750 R23L/0750 FZFG VV002 M05/M05 Q1027 NOSIG RMK QBB070",
      "taf": "TAF UAAA 240501Z 2406/2506 05003MPS 1500 BR FU BKN007 OVC015 TXM03/2408Z TNM06/2501Z"
    },
    {
      "icao": "UBBB",
      "alert": "OK",
      "vis_m": 9999,
      "fzfg": false,
      "metar_trigger": false,
      "taf_trigger": false,
      "metar": "METAR UBBB 240500Z 27004KT 9999 OVC024 09/07 Q1020 NOSIG",
      "taf": "TAF UBBB 240503Z 2406/2506 28005KT 9999 BKN030 TX12/2410Z TN06/2501Z"
    },
    {
      "icao": "UDSG",
      "alert": "OK",
      "vis_m": 8000,
      "fzfg": false,
      "metar_trigger": false,
      "taf_trigger": false,
      "metar": "METAR UDSG 240500Z 00000KT 8000 NSC M10/M11 Q1021 NOSIG",
      "taf": "TAF UDSG 240500Z 2406/2506 VRB06KT 9999 FEW050"
    },
    {
      "icao": "UDYZ",
      "alert": "OK",
      "vis_m": 3600,
      "fzfg": false,
      "metar_trigger": false,
      "taf_trigger": false,
      "metar": "METAR UDYZ 240500Z VRB02KT 3600 BR NSC M05/M07 Q1022 NOSIG",
      "taf": "TAF UDYZ 240500Z 2406/2506 VRB06KT 3500 BR FEW040"
    },
    {
      "icao": "UGKO",
      "alert": "OK",
      "vis_m": 9999,
      "fzfg": false,
      "metar_trigger": false,
      "taf_trigger": false,
      "metar": "METAR UGKO 240500Z 01004KT 9999 BKN077 06/02 Q1019 NOSIG",
      "taf": "TAF UGKO 240500Z 2406/2506 09006KT 9999 BKN070 TX11/2411Z TN04/2503Z"
    }
  ]
}