{
  "ts_utc": "2026-04-05T13:18:00Z",
  "threshold_m": 150,
  "source": "stations_override.txt (ICAO list) + aviationweather.gov (METAR/TAF raw)",
  "station_count": 159,
  "stations": [
    {
      "icao": "BIKF",
      "alert": "OK",
      "vis_m": 9999,
      "fzfg": false,
      "metar_trigger": false,
      "taf_trigger": false,
      "metar": "METAR BIKF 051300Z 05010KT CAVOK 01/M06 Q1003",
      "taf": "TAF BIKF 051058Z 0512/0612 04010KT CAVOK TX02/0515Z TNM02/0522Z"
    },
    {
      "icao": "BKPR",
      "alert": "OK",
      "vis_m": 9999,
      "fzfg": false,
      "metar_trigger": false,
      "taf_trigger": false,
      "metar": "METAR BKPR 051300Z 32004KT 290V360 9999 FEW060 18/04 Q1023 NOSIG",
      "taf": "TAF BKPR 051130Z 0512/0612 02006KT 9999 FEW040"
    },
    {
      "icao": "EBCI",
      "alert": "OK",
      "vis_m": 9999,
      "fzfg": false,
      "metar_trigger": false,
      "taf_trigger": false,
      "metar": "METAR EBCI 051250Z 25015KT 9999 -RA SCT036 11/06 Q1020 NOSIG",
      "taf": "TAF EBCI 051143Z 0512/0618 25014KT 9999 FEW020 SCT035"
    },
    {
      "icao": "EDDB",
      "alert": "OK",
      "vis_m": 9999,
      "fzfg": false,
      "metar_trigger": false,
      "taf_trigger": false,
      "metar": "METAR EDDB 051250Z AUTO 26018KT 9999 VCSH FEW///TCU 18/07 Q1011 TEMPO 26020G35KT",
      "taf": "TAF EDDB 051100Z 0512/0612 25015G25KT 9999 BKN035"
    },
    {
      "icao": "EDDH",
      "alert": "OK",
      "vis_m": 9999,
      "fzfg": false,
      "metar_trigger": false,
      "taf_trigger": false,
      "metar": "METAR EDDH 051250Z AUTO 29019KT 260V320 9999 SCT043 13/02 Q1012 TEMPO 28020G35KT",
      "taf": "TAF EDDH 051100Z 0512/0618 28015G30KT 9999 SCT035"
    },
    {
      "icao": "EDDK",
      "alert": "OK",
      "vis_m": 9999,
      "fzfg": false,
      "metar_trigger": false,
      "taf_trigger": false,
      "metar": "METAR EDDK 051250Z AUTO 26017KT CAVOK 14/03 Q1018 TEMPO 27015G25KT",
      "taf": "TAF EDDK 051100Z 0512/0618 27015G25KT 9999 SCT040"
    },
    {
      "icao": "EDDN",
      "alert": "OK",
      "vis_m": 9999,
      "fzfg": false,
      "metar_trigger": false,
      "taf_trigger": false,
      "metar": "METAR EDDN 051250Z AUTO 27021G32KT CAVOK 22/02 Q1017 TEMPO 26020G30KT",
      "taf": "TAF EDDN 051100Z 0512/0612 26015G25KT CAVOK"
    },
    {
      "icao": "EDDS",
      "alert": "OK",
      "vis_m": 9999,
      "fzfg": false,
      "metar_trigger": false,
      "taf_trigger": false,
      "metar": "METAR EDDS 051250Z AUTO 24015KT 190V280 CAVOK 21/04 Q1018 NOSIG",
      "taf": "TAF EDDS 051100Z 0512/0612 25015G25KT CAVOK"
    },
    {
      "icao": "EDFH",
      "alert": "OK",
      "vis_m": 9999,
      "fzfg": false,
      "metar_trigger": false,
      "taf_trigger": false,
      "metar": "METAR EDFH 051250Z 25016KT 220V280 9999 FEW030 BKN035 12/05 Q1019",
      "taf": "TAF EDFH 051100Z 0512/0612 23015G25KT 9999 SCT020"
    },
    {
      "icao": "EDJA",
      "alert": "OK",
      "vis_m": 9999,
      "fzfg": false,
      "metar_trigger": false,
      "taf_trigger": false,
      "metar": "METAR EDJA 051250Z COR 25023G35KT CAVOK 21/06 Q1021",
      "taf": "TAF EDJA 051100Z 0512/0521 24015G25KT CAVOK"
    },
    {
      "icao": "EDLW",
      "alert": "OK",
      "vis_m": 9999,
      "fzfg": false,
      "metar_trigger": false,
      "taf_trigger": false,
      "metar": "METAR EDLW 051250Z 24012KT 220V280 9999 FEW025CB BKN031 OVC043 11/06 Q1017",
      "taf": "TAF EDLW 051100Z 0512/0612 24015G25KT 9999 SCT030"
    },
    {
      "icao": "EDNY",
      "alert": "OK",
      "vis_m": 9999,
      "fzfg": false,
      "metar_trigger": false,
      "taf_trigger": false,
      "metar": "METAR EDNY 051250Z 26009G19KT 230V340 CAVOK 22/07 Q1021",
      "taf": "TAF EDNY 051100Z 0512/0521 24008KT CAVOK"
    },
    {
      "icao": "EDSB",
      "alert": "OK",
      "vis_m": 9999,
      "fzfg": false,
      "metar_trigger": false,
      "taf_trigger": false,
      "metar": "METAR EDSB 051250Z 26010KT 220V310 CAVOK 19/06 Q1020",
      "taf": "TAF EDSB 051100Z 0512/0612 22012G22KT CAVOK"
    },
    {
      "icao": "EETN",
      "alert": "OK",
      "vis_m": 9999,
      "fzfg": false,
      "metar_trigger": false,
      "taf_trigger": false,
      "metar": "METAR EETN 051250Z 22008KT 180V250 9999 SCT022 07/01 Q1004 NOSIG",
      "taf": "TAF EETN 051130Z 0512/0612 20010KT 9999 BKN013"
    },
    {
      "icao": "EFTU",
      "alert": "OK",
      "vis_m": 9999,
      "fzfg": false,
      "metar_trigger": false,
      "taf_trigger": false,
      "metar": "METAR EFTU 051250Z AUTO 18010KT 9999 BKN011 04/01 Q1001",
      "taf": "TAF EFTU 051123Z 0512/0612 16010KT 9999 BKN008"
    },
    {
      "icao": "EGBB",
      "alert": "OK",
      "vis_m": 9999,
      "fzfg": false,
      "metar_trigger": false,
      "taf_trigger": false,
      "metar": "METAR EGBB 051250Z 27015KT 9999 SCT046CB 10/M01 Q1017",
      "taf": "TAF EGBB 051059Z 0512/0612 26014KT 9999 SCT040"
    },
    {
      "icao": "EGGP",
      "alert": "OK",
      "vis_m": 9999,
      "fzfg": false,
      "metar_trigger": false,
      "taf_trigger": false,
      "metar": "METAR EGGP 051250Z 27024KT 9999 FEW025 SCT038 09/00 Q1017",
      "taf": "TAF EGGP 051058Z 0512/0612 28018G28KT 9999 SCT025"
    },
    {
      "icao": "EGGW",
      "alert": "OK",
      "vis_m": 9999,
      "fzfg": false,
      "metar_trigger": false,
      "taf_trigger": false,
      "metar": "METAR EGGW 051250Z AUTO 26020KT 9999 NCD 12/01 Q1017",
      "taf": "TAF EGGW 051055Z 0512/0612 24015KT 9999 FEW035"
    },
    {
      "icao": "EGKK",
      "alert": "OK",
      "vis_m": 9999,
      "fzfg": false,
      "metar_trigger": false,
      "taf_trigger": false,
      "metar": "METAR EGKK 051250Z 26015KT 9999 FEW048 12/02 Q1019",
      "taf": "TAF EGKK 051055Z 0512/0618 25016KT 9999 FEW040"
    },
    {
      "icao": "EGNM",
      "alert": "OK",
      "vis_m": 9999,
      "fzfg": false,
      "metar_trigger": false,
      "taf_trigger": false,
      "metar": "METAR EGNM 051250Z 26020G32KT 9999 -SHRA SCT028 SCT042CB 06/M01 Q1014",
      "taf": ""
    },
    {
      "icao": "EGPD",
      "alert": "OK",
      "vis_m": 9999,
      "fzfg": false,
      "metar_trigger": false,
      "taf_trigger": false,
      "metar": "METAR EGPD 051250Z COR AUTO 26020G30KT 230V300 9999 NCD 08/M04 Q1005 NOSIG",
      "taf": "TAF EGPD 051054Z 0512/0612 28016G28KT 9999 FEW040"
    },
    {
      "icao": "EGPF",
      "alert": "OK",
      "vis_m": 9999,
      "fzfg": false,
      "metar_trigger": false,
      "taf_trigger": false,
      "metar": "METAR EGPF 051250Z AUTO 26016KT 9999 FEW039/// //////CB 08/03 Q1010",
      "taf": "TAF EGPF 051058Z 0512/0612 22012KT 9999 SCT030"
    },
    {
      "icao": "EHBK",
      "alert": "OK",
      "vis_m": 9999,
      "fzfg": false,
      "metar_trigger": false,
      "taf_trigger": false,
      "metar": "METAR EHBK 051255Z AUTO 24008KT 190V320 9999 -DZ SCT038 BKN042 BKN049 10/07 Q1019 REDZ TEMPO 7000 SHRA FEW025CB",
      "taf": "TAF EHBK 051118Z 0512/0618 24015G25KT 9999 BKN030"
    },
    {
      "icao": "EHEH",
      "alert": "OK",
      "vis_m": 9999,
      "fzfg": false,
      "metar_trigger": false,
      "taf_trigger": false,
      "metar": "METAR EHEH 051255Z AUTO 27011G22KT 210V320 9999 -DZ SCT051 BKN057 OVC063 11/05 Q1017 REDZ BLU TEMPO 24014G28KT SCT020CB BKN030",
      "taf": "TAF EHEH 051132Z 0512/0618 24012KT 9999 FEW035"
    },
    {
      "icao": "EKBI",
      "alert": "OK",
      "vis_m": 9999,
      "fzfg": false,
      "metar_trigger": false,
      "taf_trigger": false,
      "metar": "METAR EKBI 051256Z 26031G45KT 9999 DRDU FEW031 09/M01 Q1005",
      "taf": ""
    },
    {
      "icao": "EKCH",
      "alert": "OK",
      "vis_m": 9999,
      "fzfg": false,
      "metar_trigger": false,
      "taf_trigger": false,
      "metar": "METAR EKCH 051250Z AUTO 24026KT 9999 FEW044/// 13/00 Q1005 TEMPO 26020G35KT",
      "taf": "TAF EKCH 051127Z 0512/0612 25020G35KT 9999 BKN030"
    },
    {
      "icao": "ENAL",
      "alert": "OK",
      "vis_m": 9999,
      "fzfg": false,
      "metar_trigger": false,
      "taf_trigger": false,
      "metar": "METAR ENAL 051250Z 32006KT 290V010 9999 VCSH SCT012 BKN029 03/01 Q0982",
      "taf": "TAF ENAL 051100Z 0512/0521 33008KT 9999 -RA FEW008 BKN035"
    },
    {
      "icao": "ENBR",
      "alert": "OK",
      "vis_m": 9000,
      "fzfg": false,
      "metar_trigger": false,
      "taf_trigger": false,
      "metar": "METAR ENBR 051250Z 31006KT 260V340 9000 -SHRA SCT016 BKN021 05/03 Q0982 BECMG 33028G45KT 3000 SHRAGS BKN008 SCT015CB RMK WIND 1200FT 33015G26KT",
      "taf": "TAF ENBR 051100Z 0512/0612 16007KT 9999 -RA FEW005 BKN020"
    },
    {
      "icao": "ENGM",
      "alert": "OK",
      "vis_m": 9000,
      "fzfg": false,
      "metar_trigger": false,
      "taf_trigger": false,
      "metar": "METAR ENGM 051250Z 18012KT 9000 RA BKN007 03/02 Q0979 NOSIG",
      "taf": "TAF ENGM 051100Z 0512/0612 17012KT 9999 -SHRA FEW008 BKN015"
    },
    {
      "icao": "ENHD",
      "alert": "OK",
      "vis_m": 7000,
      "fzfg": false,
      "metar_trigger": false,
      "taf_trigger": false,
      "metar": "METAR ENHD 051250Z 27010KT 230V290 7000 RA FEW003 SCT008 BKN013 06/05 Q0982",
      "taf": "TAF ENHD 051100Z 0512/0521 27009KT 8000 -RA SCT007 BKN015"
    },
    {
      "icao": "ENTC",
      "alert": "OK",
      "vis_m": 9999,
      "fzfg": false,
      "metar_trigger": false,
      "taf_trigger": false,
      "metar": "METAR ENTC 051250Z 36008KT CAVOK 04/M03 Q0994 NOSIG RMK WIND 2600FT 13011KT",
      "taf": "TAF ENTC 051100Z 0512/0612 36008KT 9999 FEW015"
    },
    {
      "icao": "ENTO",
      "alert": "OK",
      "vis_m": 9999,
      "fzfg": false,
      "metar_trigger": false,
      "taf_trigger": false,
      "metar": "METAR ENTO 051250Z 23014KT 9999 BKN012 07/05 Q0979 TEMPO 20015G25KT BKN015",
      "taf": ""
    },
    {
      "icao": "ENVA",
      "alert": "OK",
      "vis_m": 9999,
      "fzfg": false,
      "metar_trigger": false,
      "taf_trigger": false,
      "metar": "METAR ENVA 051250Z 11013G25KT 060V150 9999 -SHSN SCT027 BKN032 04/M03 Q0984 NOSIG RMK WIND 670FT 10013KT",
      "taf": "TAF ENVA 051100Z 0512/0612 12009KT 9999 FEW040 BKN050"
    },
    {
      "icao": "ENZV",
      "alert": "OK",
      "vis_m": 6000,
      "fzfg": false,
      "metar_trigger": false,
      "taf_trigger": false,
      "metar": "METAR ENZV 051250Z 27028G39KT 6000 -SHRA OVC007 06/04 Q0982 BECMG 28038G48KT TEMPO 3000 29048G65KT SHRAGS BKN007 BKN014CB",
      "taf": ""
    },
    {
      "icao": "EPGD",
      "alert": "OK",
      "vis_m": 9999,
      "fzfg": false,
      "metar_trigger": false,
      "taf_trigger": false,
      "metar": "METAR EPGD 051300Z 24014KT 9999 -SHRA FEW030TCU SCT048 17/06 Q1006",
      "taf": "TAF EPGD 051130Z 0512/0612 25016KT 9999 SCT040"
    },
    {
      "icao": "EPKK",
      "alert": "OK",
      "vis_m": 9999,
      "fzfg": false,
      "metar_trigger": false,
      "taf_trigger": false,
      "metar": "METAR EPKK 051300Z 21011KT CAVOK 19/06 Q1017",
      "taf": "TAF EPKK 051130Z 0512/0612 24014KT CAVOK"
    },
    {
      "icao": "EPKT",
      "alert": "OK",
      "vis_m": 9999,
      "fzfg": false,
      "metar_trigger": false,
      "taf_trigger": false,
      "metar": "METAR EPKT 051300Z 22018KT CAVOK 19/07 Q1016",
      "taf": "TAF EPKT 051130Z 0512/0612 22015KT CAVOK"
    },
    {
      "icao": "EPLB",
      "alert": "OK",
      "vis_m": 9999,
      "fzfg": false,
      "metar_trigger": false,
      "taf_trigger": false,
      "metar": "METAR EPLB 051300Z 21018KT CAVOK 17/04 Q1016",
      "taf": ""
    },
    {
      "icao": "EPMO",
      "alert": "OK",
      "vis_m": 9999,
      "fzfg": false,
      "metar_trigger": false,
      "taf_trigger": false,
      "metar": "METAR EPMO 051300Z 20015G28KT 150V230 CAVOK 19/06 Q1012",
      "taf": "TAF EPMO 051130Z 0512/0612 20013KT CAVOK"
    },
    {
      "icao": "EPPO",
      "alert": "OK",
      "vis_m": 9999,
      "fzfg": false,
      "metar_trigger": false,
      "taf_trigger": false,
      "metar": "METAR EPPO 051300Z 25020G32KT 9999 FEW013 22/05 Q1010",
      "taf": "TAF EPPO 051130Z 0512/0612 25015KT CAVOK"
    },
    {
      "icao": "EPRA",
      "alert": "OK",
      "vis_m": 9999,
      "fzfg": false,
      "metar_trigger": false,
      "taf_trigger": false,
      "metar": "METAR EPRA 051300Z 23013KT 190V270 CAVOK 19/04 Q1014",
      "taf": "TAF EPRA 051130Z 0512/0521 23010KT CAVOK"
    },
    {
      "icao": "EPRZ",
      "alert": "OK",
      "vis_m": 9999,
      "fzfg": false,
      "metar_trigger": false,
      "taf_trigger": false,
      "metar": "METAR EPRZ 051300Z 23013KT 200V260 CAVOK 19/03 Q1017",
      "taf": "TAF EPRZ 051130Z 0512/0612 22014KT CAVOK"
    },
    {
      "icao": "EPSC",
      "alert": "OK",
      "vis_m": 9999,
      "fzfg": false,
      "metar_trigger": false,
      "taf_trigger": false,
      "metar": "METAR EPSC 051300Z 30015KT 9999 FEW009 SCT042CB BKN049 12/07 Q1010",
      "taf": "TAF EPSC 051130Z 0512/0612 25014KT 9999 SCT040"
    },
    {
      "icao": "EPSY",
      "alert": "OK",
      "vis_m": 9999,
      "fzfg": false,
      "metar_trigger": false,
      "taf_trigger": false,
      "metar": "METAR EPSY 051300Z 20017KT CAVOK 17/04 Q1010",
      "taf": ""
    },
    {
      "icao": "EPWA",
      "alert": "OK",
      "vis_m": 9999,
      "fzfg": false,
      "metar_trigger": false,
      "taf_trigger": false,
      "metar": "METAR EPWA 051300Z 20012KT 170V230 CAVOK 20/05 Q1013 NOSIG",
      "taf": "TAF EPWA 051130Z 0512/0612 22012KT CAVOK"
    },
    {
      "icao": "EPWR",
      "alert": "OK",
      "vis_m": 9999,
      "fzfg": false,
      "metar_trigger": false,
      "taf_trigger": false,
      "metar": "METAR EPWR 051300Z 22018KT CAVOK 21/07 Q1013",
      "taf": "TAF EPWR 051130Z 0512/0612 23015KT CAVOK"
    },
    {
      "icao": "ESGG",
      "alert": "OK",
      "vis_m": 9999,
      "fzfg": false,
      "metar_trigger": false,
      "taf_trigger": false,
      "metar": "METAR ESGG 051250Z 23030G42KT 9999 BKN034 06/01 Q0993 WS R21",
      "taf": "TAF ESGG 051130Z 0512/0612 20034G45KT 9999 SCT020 BKN040"
    },
    {
      "icao": "ESKN",
      "alert": "OK",
      "vis_m": 9999,
      "fzfg": false,
      "metar_trigger": false,
      "taf_trigger": false,
      "metar": "METAR ESKN 051250Z 16014KT 9999 TSRA BKN035CB 09/05 Q0991",
      "taf": ""
    },
    {
      "icao": "ESMS",
      "alert": "OK",
      "vis_m": 9999,
      "fzfg": false,
      "metar_trigger": false,
      "taf_trigger": false,
      "metar": "METAR ESMS 051250Z 25025KT CAVOK 12/02 Q1005",
      "taf": "TAF ESMS 051127Z 0512/0612 25020G30KT 9999 BKN030"
    },
    {
      "icao": "ESSA",
      "alert": "OK",
      "vis_m": 9999,
      "fzfg": false,
      "metar_trigger": false,
      "taf_trigger": false,
      "metar": "METAR ESSA 051250Z 15016KT 9999 BKN011 04/03 Q0991 BECMG BKN020",
      "taf": "TAF ESSA 051130Z 0512/0612 15018G28KT 9999 BKN030"
    },
    {
      "icao": "EYKA",
      "alert": "OK",
      "vis_m": 9999,
      "fzfg": false,
      "metar_trigger": false,
      "taf_trigger": false,
      "metar": "METAR EYKA 051250Z 23010KT 190V260 CAVOK 12/M00 Q1011",
      "taf": "TAF EYKA 051100Z 0512/0612 23014KT 9000 NSC"
    },
    {
      "icao": "EYPA",
      "alert": "OK",
      "vis_m": 9999,
      "fzfg": false,
      "metar_trigger": false,
      "taf_trigger": false,
      "metar": "METAR EYPA 051250Z 18019KT 9999 -SHRA FEW047CB 12/02 Q1006",
      "taf": "TAF EYPA 051100Z 0512/0612 19017G27KT 9000 SCT035CB"
    },
    {
      "icao": "EYVI",
      "alert": "OK",
      "vis_m": 9999,
      "fzfg": false,
      "metar_trigger": false,
      "taf_trigger": false,
      "metar": "METAR EYVI 051250Z 23014KT CAVOK 12/M03 Q1012 NOSIG",
      "taf": "TAF EYVI 051100Z 0512/0612 25012KT 9000 SCT045"
    },
    {
      "icao": "GCFV",
      "alert": "OK",
      "vis_m": 9999,
      "fzfg": false,
      "metar_trigger": false,
      "taf_trigger": false,
      "metar": "METAR GCFV 051300Z 03006KT CAVOK 24/12 Q1016",
      "taf": "TAF GCFV 050800Z 0509/0609 05007KT 9999 FEW015 TX23/0514Z TN16/0606Z"
    },
    {
      "icao": "GCLP",
      "alert": "OK",
      "vis_m": 9999,
      "fzfg": false,
      "metar_trigger": false,
      "taf_trigger": false,
      "metar": "METAR GCLP 051300Z 03011KT 010V070 CAVOK 21/16 Q1016 NOSIG",
      "taf": "TAF GCLP 050800Z 0509/0609 03013KT 9999 SCT045 TX24/0514Z TN17/0606Z"
    },
    {
      "icao": "GCTS",
      "alert": "OK",
      "vis_m": 9999,
      "fzfg": false,
      "metar_trigger": false,
      "taf_trigger": false,
      "metar": "METAR GCTS 051300Z 11013KT 080V140 CAVOK 23/15 Q1015 NOSIG",
      "taf": "TAF GCTS 050800Z 0509/0609 09011KT 9999 FEW015 TX24/0514Z TN16/0606Z"
    },
    {
      "icao": "GMAD",
      "alert": "OK",
      "vis_m": 8000,
      "fzfg": false,
      "metar_trigger": false,
      "taf_trigger": false,
      "metar": "METAR GMAD 051300Z 27010KT 8000 FEW020 SCT100 26/15 Q1016 NOSIG",
      "taf": "TAF GMAD 051100Z 0512/0618 28012KT 8000 NSC"
    },
    {
      "icao": "GMMN",
      "alert": "OK",
      "vis_m": 9999,
      "fzfg": false,
      "metar_trigger": false,
      "taf_trigger": false,
      "metar": "METAR GMMN 051300Z 18008KT 160V220 CAVOK 33/10 Q1017 NOSIG",
      "taf": "TAF GMMN 051100Z 0512/0618 18012KT CAVOK"
    },
    {
      "icao": "GMMX",
      "alert": "OK",
      "vis_m": 8000,
      "fzfg": false,
      "metar_trigger": false,
      "taf_trigger": false,
      "metar": "METAR GMMX 051300Z 18014KT 130V230 8000 FEW100 BKN200 31/03 Q1018 NOSIG",
      "taf": "TAF GMMX 051100Z 0512/0618 06006KT 8000 SCT100"
    },
    {
      "icao": "HEGN",
      "alert": "OK",
      "vis_m": 9999,
      "fzfg": false,
      "metar_trigger": false,
      "taf_trigger": false,
      "metar": "METAR HEGN 051200Z 34020KT CAVOK 28/M06 Q1017 NOSIG",
      "taf": "TAF HEGN 051100Z 0512/0618 34012G26KT CAVOK"
    },
    {
      "icao": "HEMA",
      "alert": "OK",
      "vis_m": 4000,
      "fzfg": false,
      "metar_trigger": false,
      "taf_trigger": false,
      "metar": "METAR HEMA 051200Z 36020KT 4000 SA NSC 25/08 Q1016",
      "taf": "TAF HEMA 051100Z 0512/0618 35016G32KT 6000 NSC"
    },
    {
      "icao": "HESH",
      "alert": "OK",
      "vis_m": 9999,
      "fzfg": false,
      "metar_trigger": false,
      "taf_trigger": false,
      "metar": "METAR HESH 051200Z 36013KT CAVOK 26/03 Q1017 NOSIG",
      "taf": "TAF HESH 051100Z 0512/0618 01008G20KT CAVOK"
    },
    {
      "icao": "HESX",
      "alert": "OK",
      "vis_m": 9999,
      "fzfg": false,
      "metar_trigger": false,
      "taf_trigger": false,
      "metar": "METAR HESX 051200Z 23012KT CAVOK 26/M02 Q1016 NOSIG",
      "taf": "TAF HESX 051100Z 0512/0618 VRB04KT CAVOK"
    },
    {
      "icao": "LATI",
      "alert": "OK",
      "vis_m": 9999,
      "fzfg": false,
      "metar_trigger": false,
      "taf_trigger": false,
      "metar": "METAR LATI 051250Z 26011KT CAVOK 22/04 Q1022 NOSIG",
      "taf": "TAF LATI 051100Z 0512/0612 34012KT CAVOK TX23/0512Z TN05/0604Z"
    },
    {
      "icao": "LBPD",
      "alert": "OK",
      "vis_m": 9999,
      "fzfg": false,
      "metar_trigger": false,
      "taf_trigger": false,
      "metar": "METAR LBPD 051300Z AUTO VRB03KT 9999 FEW097/// 21/04 Q1021 NOSIG",
      "taf": "TAF LBPD 051100Z 0512/0612 30010KT 9999 SCT060"
    },
    {
      "icao": "LBSF",
      "alert": "OK",
      "vis_m": 9999,
      "fzfg": false,
      "metar_trigger": false,
      "taf_trigger": false,
      "metar": "METAR LBSF 051300Z 30006KT 200V340 9999 FEW069 18/01 Q1022 NOSIG",
      "taf": "TAF LBSF 051100Z 0512/0612 34010KT CAVOK"
    },
    {
      "icao": "LBWN",
      "alert": "OK",
      "vis_m": 9999,
      "fzfg": false,
      "metar_trigger": false,
      "taf_trigger": false,
      "metar": "METAR LBWN 051300Z 13011KT 9999 SCT036 18/07 Q1021 NOSIG",
      "taf": "TAF LBWN 051100Z 0512/0612 11012KT 9999 SCT045"
    },
    {
      "icao": "LCLK",
      "alert": "OK",
      "vis_m": 9999,
      "fzfg": false,
      "metar_trigger": false,
      "taf_trigger": false,
      "metar": "METAR LCLK 051300Z 28008KT 250V310 9999 BKN020 FEW030CB 18/13 Q1016 TEMPO TS RMK CB TO N",
      "taf": "TAF LCLK 051130Z 0512/0612 21015KT 9999 FEW025 FEW030TCU SCT040"
    },
    {
      "icao": "LCPH",
      "alert": "OK",
      "vis_m": 9999,
      "fzfg": false,
      "metar_trigger": false,
      "taf_trigger": false,
      "metar": "METAR LCPH 051300Z 29008KT 250V320 9999 FEW025 FEW030TCU SCT040 18/14 Q1017 NOSIG",
      "taf": ""
    },
    {
      "icao": "LEAL",
      "alert": "OK",
      "vis_m": 9999,
      "fzfg": false,
      "metar_trigger": false,
      "taf_trigger": false,
      "metar": "METAR LEAL 051300Z 11009KT 080V150 CAVOK 22/04 Q1025 NOSIG",
      "taf": "TAF LEAL 051100Z 0512/0612 11008KT CAVOK TX21/0512Z TN12/0606Z"
    },
    {
      "icao": "LEBB",
      "alert": "OK",
      "vis_m": 9999,
      "fzfg": false,
      "metar_trigger": false,
      "taf_trigger": false,
      "metar": "METAR LEBB 051300Z 30005KT 260V010 9999 BKN022 18/13 Q1024 NOSIG",
      "taf": "TAF LEBB 051100Z 0512/0612 32009KT 9999 SCT010 TX25/0612Z TN09/0603Z"
    },
    {
      "icao": "LEBL",
      "alert": "OK",
      "vis_m": 9999,
      "fzfg": false,
      "metar_trigger": false,
      "taf_trigger": false,
      "metar": "METAR LEBL 051300Z 22014KT 190V250 CAVOK 17/13 Q1025 NOSIG",
      "taf": "TAF LEBL 051100Z 0512/0612 22012KT CAVOK TX19/0512Z TN11/0605Z"
    },
    {
      "icao": "LECH",
      "alert": "OK",
      "vis_m": 9000,
      "fzfg": false,
      "metar_trigger": false,
      "taf_trigger": false,
      "metar": "METAR LECH 051300Z AUTO 11011KT 9000 NCD 20/11 Q1025",
      "taf": ""
    },
    {
      "icao": "LEMD",
      "alert": "OK",
      "vis_m": 9999,
      "fzfg": false,
      "metar_trigger": false,
      "taf_trigger": false,
      "metar": "METAR LEMD 051300Z 20006KT CAVOK 24/04 Q1024 NOSIG",
      "taf": "TAF LEMD 051100Z 0512/0618 VRB04KT CAVOK TX26/0516Z TN09/0606Z"
    },
    {
      "icao": "LEMG",
      "alert": "OK",
      "vis_m": 9999,
      "fzfg": false,
      "metar_trigger": false,
      "taf_trigger": false,
      "metar": "METAR LEMG 051300Z 11009KT 070V150 CAVOK 21/03 Q1024 NOSIG",
      "taf": "TAF LEMG 051100Z 0512/0612 12010KT CAVOK TX22/0514Z TN09/0606Z"
    },
    {
      "icao": "LEVC",
      "alert": "OK",
      "vis_m": 9999,
      "fzfg": false,
      "metar_trigger": false,
      "taf_trigger": false,
      "metar": "METAR LEVC 051300Z 09010KT 050V130 CAVOK 21/10 Q1024 NOSIG",
      "taf": "TAF LEVC 051100Z 0512/0612 09008KT CAVOK TX25/0514Z TN10/0606Z"
    },
    {
      "icao": "LEXJ",
      "alert": "OK",
      "vis_m": 9999,
      "fzfg": false,
      "metar_trigger": false,
      "taf_trigger": false,
      "metar": "METAR LEXJ 051300Z 06006KT 020V100 9999 BKN020 14/10 Q1025",
      "taf": "TAF LEXJ 050800Z 0509/0609 04009KT 9000 SCT015 TX15/0513Z TN10/0606Z"
    },
    {
      "icao": "LEZG",
      "alert": "OK",
      "vis_m": 9999,
      "fzfg": false,
      "metar_trigger": false,
      "taf_trigger": false,
      "metar": "METAR LEZG 051300Z 07004KT 020V120 CAVOK 24/07 Q1023 NOSIG",
      "taf": "TAF LEZG 051100Z 0512/0612 10006KT CAVOK TX29/0514Z TN11/0606Z"
    },
    {
      "icao": "LEZL",
      "alert": "OK",
      "vis_m": 9999,
      "fzfg": false,
      "metar_trigger": false,
      "taf_trigger": false,
      "metar": "METAR LEZL 051300Z 07006KT 360V130 CAVOK 29/04 Q1020 NOSIG",
      "taf": "TAF LEZL 050800Z 0509/0609 08008KT CAVOK TX29/0515Z TN12/0606Z"
    },
    {
      "icao": "LFBD",
      "alert": "OK",
      "vis_m": 9999,
      "fzfg": false,
      "metar_trigger": false,
      "taf_trigger": false,
      "metar": "METAR LFBD 051300Z AUTO VRB06KT CAVOK 21/09 Q1024 NOSIG",
      "taf": "TAF LFBD 051100Z 0512/0618 34008KT CAVOK TX26/0612Z TN10/0606Z"
    },
    {
      "icao": "LFLL",
      "alert": "OK",
      "vis_m": 9999,
      "fzfg": false,
      "metar_trigger": false,
      "taf_trigger": false,
      "metar": "METAR LFLL 051300Z 13004KT 040V170 CAVOK 25/08 Q1022 NOSIG",
      "taf": "TAF LFLL 051100Z 0512/0618 18008KT CAVOK"
    },
    {
      "icao": "LFLS",
      "alert": "OK",
      "vis_m": 9999,
      "fzfg": false,
      "metar_trigger": false,
      "taf_trigger": false,
      "metar": "METAR LFLS 051300Z AUTO 22008KT 190V260 CAVOK 24/08 Q1023 NOSIG",
      "taf": "TAF LFLS 050800Z 0509/0609 09006KT CAVOK"
    },
    {
      "icao": "LFMN",
      "alert": "OK",
      "vis_m": 9999,
      "fzfg": false,
      "metar_trigger": false,
      "taf_trigger": false,
      "metar": "METAR LFMN 051300Z 14007KT 9999 FEW009 17/13 Q1025 NOSIG",
      "taf": "TAF LFMN 050800Z 0509/0615 09006KT CAVOK"
    },
    {
      "icao": "LFOB",
      "alert": "OK",
      "vis_m": 9999,
      "fzfg": false,
      "metar_trigger": false,
      "taf_trigger": false,
      "metar": "METAR LFOB 051300Z AUTO 30012KT 9999 BKN046 OVC054 12/07 Q1022 TEMPO 27015G27KT 4000 SHRA BKN020TCU",
      "taf": "TAF LFOB 051100Z 0512/0612 26012KT 9999 SCT030"
    },
    {
      "icao": "LFPO",
      "alert": "OK",
      "vis_m": 9999,
      "fzfg": false,
      "metar_trigger": false,
      "taf_trigger": false,
      "metar": "METAR LFPO 051300Z 26013KT 230V300 9999 SCT046 BKN260 16/06 Q1022 NOSIG",
      "taf": "TAF LFPO 051100Z 0512/0618 23008KT 9999 SCT025"
    },
    {
      "icao": "LFSB",
      "alert": "OK",
      "vis_m": 9999,
      "fzfg": false,
      "metar_trigger": false,
      "taf_trigger": false,
      "metar": "METAR LFSB 051300Z AUTO 28012KT 250V310 CAVOK 24/06 Q1021 TEMPO 27015G25KT",
      "taf": "TAF LFSB 051100Z 0512/0612 26013KT CAVOK"
    },
    {
      "icao": "LGAV",
      "alert": "OK",
      "vis_m": 9999,
      "fzfg": false,
      "metar_trigger": false,
      "taf_trigger": false,
      "metar": "METAR LGAV 051250Z 03013KT 360V080 9999 FEW018 SCT025 18/10 Q1021 NOSIG",
      "taf": "TAF LGAV 051100Z 0512/0612 02015KT 9999 FEW018 SCT025 BKN070"
    },
    {
      "icao": "LGTS",
      "alert": "OK",
      "vis_m": 9999,
      "fzfg": false,
      "metar_trigger": false,
      "taf_trigger": false,
      "metar": "METAR LGTS 051250Z 21009KT 9999 SCT025 21/07 Q1022 NOSIG",
      "taf": "TAF LGTS 051100Z 0512/0612 VRB03KT 9999 FEW025"
    },
    {
      "icao": "LHBP",
      "alert": "OK",
      "vis_m": 9999,
      "fzfg": false,
      "metar_trigger": false,
      "taf_trigger": false,
      "metar": "METAR LHBP 051300Z 23009KT 180V260 CAVOK 21/07 Q1021 NOSIG",
      "taf": "TAF LHBP 051115Z 0512/0612 25008KT CAVOK"
    },
    {
      "icao": "LHDC",
      "alert": "OK",
      "vis_m": 9999,
      "fzfg": false,
      "metar_trigger": false,
      "taf_trigger": false,
      "metar": "METAR LHDC 051245Z AUTO 25010KT 200V290 CAVOK 20/06 Q1021 NOSIG",
      "taf": "TAF LHDC 051115Z 0512/0521 22008KT CAVOK"
    },
    {
      "icao": "LIBD",
      "alert": "OK",
      "vis_m": 9999,
      "fzfg": false,
      "metar_trigger": false,
      "taf_trigger": false,
      "metar": "METAR LIBD 051250Z 02006KT 320V060 CAVOK 17/08 Q1024",
      "taf": "TAF LIBD 051100Z 0512/0612 01010KT CAVOK"
    },
    {
      "icao": "LIBG",
      "alert": "OK",
      "vis_m": 9999,
      "fzfg": false,
      "metar_trigger": false,
      "taf_trigger": false,
      "metar": "METAR LIBG 051250Z 35007KT 320V030 CAVOK 20/05 Q1023",
      "taf": "TAF LIBG 051100Z 0512/0521 02012KT CAVOK"
    },
    {
      "icao": "LIBP",
      "alert": "OK",
      "vis_m": 9999,
      "fzfg": false,
      "metar_trigger": false,
      "taf_trigger": false,
      "metar": "METAR LIBP 051250Z AUTO 05008KT 020V080 9999 NCD 20/05 Q1024",
      "taf": "TAF LIBP 051100Z 0512/0612 08010KT CAVOK"
    },
    {
      "icao": "LIBR",
      "alert": "OK",
      "vis_m": 9999,
      "fzfg": false,
      "metar_trigger": false,
      "taf_trigger": false,
      "metar": "METAR LIBR 051250Z 33013KT CAVOK 16/12 Q1023",
      "taf": "TAF LIBR 051100Z 0512/0612 33016KT CAVOK"
    },
    {
      "icao": "LICA",
      "alert": "OK",
      "vis_m": 9999,
      "fzfg": false,
      "metar_trigger": false,
      "taf_trigger": false,
      "metar": "METAR LICA 051250Z AUTO 25010KT 230V290 9999 FEW014/// 18/14 Q1024",
      "taf": "TAF LICA 051100Z 0512/0612 26010KT 9999 SCT020"
    },
    {
      "icao": "LICC",
      "alert": "OK",
      "vis_m": 9999,
      "fzfg": false,
      "metar_trigger": false,
      "taf_trigger": false,
      "metar": "METAR LICC 051250Z 07010KT 9999 FEW050 19/16 Q1023",
      "taf": "TAF LICC 051100Z 0512/0612 09012KT CAVOK"
    },
    {
      "icao": "LICJ",
      "alert": "OK",
      "vis_m": 9999,
      "fzfg": false,
      "metar_trigger": false,
      "taf_trigger": false,
      "metar": "METAR LICJ 051250Z 29008KT CAVOK 16/13 Q1025",
      "taf": "TAF LICJ 051100Z 0512/0612 34010KT CAVOK"
    },
    {
      "icao": "LIMC",
      "alert": "OK",
      "vis_m": 9999,
      "fzfg": false,
      "metar_trigger": false,
      "taf_trigger": false,
      "metar": "METAR LIMC 051250Z 13006KT 070V180 CAVOK 23/04 Q1023 NOSIG",
      "taf": "TAF LIMC 051100Z 0512/0618 VRB05KT CAVOK"
    },
    {
      "icao": "LIME",
      "alert": "OK",
      "vis_m": 9999,
      "fzfg": false,
      "metar_trigger": false,
      "taf_trigger": false,
      "metar": "METAR LIME 051250Z 23005KT 190V330 CAVOK 21/05 Q1023 NOSIG",
      "taf": "TAF LIME 051100Z 0512/0612 VRB05KT CAVOK"
    },
    {
      "icao": "LIMF",
      "alert": "OK",
      "vis_m": 9999,
      "fzfg": false,
      "metar_trigger": false,
      "taf_trigger": false,
      "metar": "METAR LIMF 051250Z VRB02KT CAVOK 22/04 Q1023",
      "taf": "TAF LIMF 051100Z 0512/0612 VRB05KT CAVOK"
    },
    {
      "icao": "LIMJ",
      "alert": "OK",
      "vis_m": 9999,
      "fzfg": false,
      "metar_trigger": false,
      "taf_trigger": false,
      "metar": "METAR LIMJ 051250Z 14005KT 9999 SCT012 16/14 Q1025",
      "taf": "TAF LIMJ 051100Z 0512/0612 17010KT CAVOK"
    },
    {
      "icao": "LIPE",
      "alert": "OK",
      "vis_m": 9999,
      "fzfg": false,
      "metar_trigger": false,
      "taf_trigger": false,
      "metar": "METAR LIPE 051250Z 08005KT 040V120 CAVOK 22/08 Q1023",
      "taf": "TAF LIPE 051100Z 0512/0612 VRB05KT CAVOK"
    },
    {
      "icao": "LIPH",
      "alert": "OK",
      "vis_m": 9999,
      "fzfg": false,
      "metar_trigger": false,
      "taf_trigger": false,
      "metar": "METAR LIPH 051250Z 20003KT 130V250 CAVOK 22/07 Q1023",
      "taf": "TAF LIPH 051100Z 0512/0612 16008KT CAVOK"
    },
    {
      "icao": "LIPQ",
      "alert": "OK",
      "vis_m": 9999,
      "fzfg": false,
      "metar_trigger": false,
      "taf_trigger": false,
      "metar": "METAR LIPQ 051250Z AUTO 22006KT 170V250 9999 NCD 21/05 Q1023",
      "taf": "TAF LIPQ 051100Z 0512/0612 19010KT CAVOK"
    },
    {
      "icao": "LIPR",
      "alert": "OK",
      "vis_m": 9999,
      "fzfg": false,
      "metar_trigger": false,
      "taf_trigger": false,
      "metar": "METAR LIPR 051250Z 07006KT 030V110 CAVOK 17/10 Q1023",
      "taf": "TAF LIPR 051100Z 0512/0612 06010KT CAVOK"
    },
    {
      "icao": "LIPX",
      "alert": "OK",
      "vis_m": 9999,
      "fzfg": false,
      "metar_trigger": false,
      "taf_trigger": false,
      "metar": "METAR LIPX 051250Z VRB04KT CAVOK 22/06 Q1023",
      "taf": "TAF LIPX 051100Z 0512/0612 VRB05KT CAVOK"
    },
    {
      "icao": "LIPY",
      "alert": "OK",
      "vis_m": 9999,
      "fzfg": false,
      "metar_trigger": false,
      "taf_trigger": false,
      "metar": "METAR LIPY 051250Z AUTO 13005KT 090V210 9999 NCD 23/05 Q1023",
      "taf": "TAF LIPY 051100Z 0512/0612 07010KT CAVOK"
    },
    {
      "icao": "LIPZ",
      "alert": "OK",
      "vis_m": 9999,
      "fzfg": false,
      "metar_trigger": false,
      "taf_trigger": false,
      "metar": "METAR LIPZ 051250Z 16006KT 130V190 CAVOK 19/07 Q1023 NOSIG",
      "taf": "TAF LIPZ 051100Z 0512/0618 16010KT CAVOK"
    },
    {
      "icao": "LIRF",
      "alert": "OK",
      "vis_m": 9999,
      "fzfg": false,
      "metar_trigger": false,
      "taf_trigger": false,
      "metar": "METAR LIRF 051250Z 25009KT 230V290 CAVOK 20/07 Q1025 NOSIG",
      "taf": "TAF LIRF 051100Z 0512/0618 25010KT CAVOK"
    },
    {
      "icao": "LIRN",
      "alert": "OK",
      "vis_m": 9999,
      "fzfg": false,
      "metar_trigger": false,
      "taf_trigger": false,
      "metar": "METAR LIRN 051250Z VRB05KT CAVOK 21/04 Q1024 NOSIG",
      "taf": "TAF LIRN 051100Z 0512/0612 26010KT CAVOK"
    },
    {
      "icao": "LIRP",
      "alert": "OK",
      "vis_m": 9999,
      "fzfg": false,
      "metar_trigger": false,
      "taf_trigger": false,
      "metar": "METAR LIRP 051245Z 27011KT CAVOK 20/05 Q1026 NOSIG",
      "taf": "TAF LIRP 051100Z 0512/0612 26008KT CAVOK"
    },
    {
      "icao": "LIRZ",
      "alert": "OK",
      "vis_m": 9999,
      "fzfg": false,
      "metar_trigger": false,
      "taf_trigger": false,
      "metar": "METAR LIRZ 051250Z AUTO 22007KT 180V280 9999 NCD 23/07 Q1024",
      "taf": "TAF LIRZ 051100Z 0512/0612 VRB05KT CAVOK"
    },
    {
      "icao": "LJLJ",
      "alert": "OK",
      "vis_m": 9999,
      "fzfg": false,
      "metar_trigger": false,
      "taf_trigger": false,
      "metar": "METAR LJLJ 051300Z 05004KT 330V090 CAVOK 22/06 Q1021 NOSIG",
      "taf": "TAF LJLJ 051100Z 0512/0612 10005KT CAVOK"
    },
    {
      "icao": "LKMT",
      "alert": "OK",
      "vis_m": 9999,
      "fzfg": false,
      "metar_trigger": false,
      "taf_trigger": false,
      "metar": "METAR LKMT 051300Z 22019KT CAVOK 19/08 Q1017 NOSIG",
      "taf": "TAF LKMT 051100Z 0512/0612 22014KT CAVOK"
    },
    {
      "icao": "LKPR",
      "alert": "OK",
      "vis_m": 9999,
      "fzfg": false,
      "metar_trigger": false,
      "taf_trigger": false,
      "metar": "METAR LKPR 051300Z 24018G28KT CAVOK 21/06 Q1015 NOSIG",
      "taf": "TAF LKPR 051100Z 0512/0618 22014KT CAVOK"
    },
    {
      "icao": "LLBG",
      "alert": "OK",
      "vis_m": 9999,
      "fzfg": false,
      "metar_trigger": false,
      "taf_trigger": false,
      "metar": "METAR LLBG 051250Z 27010KT 9999 FEW037 20/10 Q1018 NOSIG",
      "taf": "TAF LLBG 051101Z 0512/0612 27012KT 9999 SCT030 TX20/0512Z TN10/0604Z"
    },
    {
      "icao": "LMML",
      "alert": "OK",
      "vis_m": 9999,
      "fzfg": false,
      "metar_trigger": false,
      "taf_trigger": false,
      "metar": "METAR LMML 051315Z VRB02KT 9999 FEW035 19/12 Q1024 NOSIG",
      "taf": "TAF LMML 051100Z 0512/0612 34009KT 9999 FEW030"
    },
    {
      "icao": "LOWW",
      "alert": "OK",
      "vis_m": 9999,
      "fzfg": false,
      "metar_trigger": false,
      "taf_trigger": false,
      "metar": "METAR LOWW 051250Z 16008KT 120V180 CAVOK 23/09 Q1019 TEMPO 27010KT",
      "taf": "TAF LOWW 051115Z 0512/0618 17006KT CAVOK TX23/0514Z TN13/0618Z"
    },
    {
      "icao": "LPFR",
      "alert": "OK",
      "vis_m": 9999,
      "fzfg": false,
      "metar_trigger": false,
      "taf_trigger": false,
      "metar": "METAR LPFR 051300Z 09012KT CAVOK 23/07 Q1020",
      "taf": "TAF LPFR 051100Z 0512/0612 10013KT CAVOK"
    },
    {
      "icao": "LPMA",
      "alert": "OK",
      "vis_m": 9999,
      "fzfg": false,
      "metar_trigger": false,
      "taf_trigger": false,
      "metar": "METAR LPMA 051300Z 26010KT 220V330 9999 SCT015 20/14 Q1017",
      "taf": ""
    },
    {
      "icao": "LPPR",
      "alert": "OK",
      "vis_m": 9999,
      "fzfg": false,
      "metar_trigger": false,
      "taf_trigger": false,
      "metar": "METAR LPPR 051300Z 28005KT CAVOK 21/11 Q1022",
      "taf": "TAF LPPR 051100Z 0512/0612 29005KT CAVOK"
    },
    {
      "icao": "LPPS",
      "alert": "OK",
      "vis_m": 9999,
      "fzfg": false,
      "metar_trigger": false,
      "taf_trigger": false,
      "metar": "METAR LPPS 051300Z 07009KT 030V100 9999 SCT014 19/14 Q1017",
      "taf": "TAF LPPS 051100Z 0512/0618 06010KT 9999 SCT014"
    },
    {
      "icao": "LPPT",
      "alert": "OK",
      "vis_m": 9999,
      "fzfg": false,
      "metar_trigger": false,
      "taf_trigger": false,
      "metar": "METAR LPPT 051300Z 11005KT 060V160 CAVOK 24/12 Q1021",
      "taf": "TAF LPPT 051100Z 0512/0618 07007KT CAVOK"
    },
    {
      "icao": "LQBK",
      "alert": "OK",
      "vis_m": 9999,
      "fzfg": false,
      "metar_trigger": false,
      "taf_trigger": false,
      "metar": "METAR LQBK 051300Z 09004KT 010V150 CAVOK 21/04 Q1023 NOSIG",
      "taf": "TAF LQBK 051100Z 0512/0612 16005KT CAVOK TX21/0513Z TN05/0605Z"
    },
    {
      "icao": "LQSA",
      "alert": "OK",
      "vis_m": 9999,
      "fzfg": false,
      "metar_trigger": false,
      "taf_trigger": false,
      "metar": "METAR LQSA 051300Z 30004KT 240V360 9999 FEW065 17/01 Q1024 NOSIG",
      "taf": "TAF LQSA 051100Z 0512/0612 VRB02KT 9999 SCT055 TX21/0612Z TN04/0605Z"
    },
    {
      "icao": "LQTZ",
      "alert": "OK",
      "vis_m": 9999,
      "fzfg": false,
      "metar_trigger": false,
      "taf_trigger": false,
      "metar": "METAR LQTZ 051300Z 25005KT 190V320 9999 SCT070 20/06 Q1023",
      "taf": "TAF LQTZ 051100Z 0512/0612 VRB02KT CAVOK TX20/0513Z TN05/0605Z"
    },
    {
      "icao": "LRBC",
      "alert": "OK",
      "vis_m": 9999,
      "fzfg": false,
      "metar_trigger": false,
      "taf_trigger": false,
      "metar": "METAR LRBC 051300Z VRB03KT CAVOK 19/07 Q1019",
      "taf": "TAF LRBC 051100Z 0512/0521 VRB04KT CAVOK"
    },
    {
      "icao": "LRBS",
      "alert": "OK",
      "vis_m": 9999,
      "fzfg": false,
      "metar_trigger": false,
      "taf_trigger": false,
      "metar": "METAR LRBS 051300Z 23007KT 200V280 CAVOK 20/05 Q1021 NOSIG",
      "taf": "TAF LRBS 051100Z 0512/0612 VRB04KT CAVOK"
    },
    {
      "icao": "LRBV",
      "alert": "OK",
      "vis_m": 9999,
      "fzfg": false,
      "metar_trigger": false,
      "taf_trigger": false,
      "metar": "METAR LRBV 051300Z 32010KT 9999 FEW044 17/04 Q1021",
      "taf": "TAF LRBV 051100Z 0512/0521 VRB04KT CAVOK"
    },
    {
      "icao": "LRCL",
      "alert": "OK",
      "vis_m": 9999,
      "fzfg": false,
      "metar_trigger": false,
      "taf_trigger": false,
      "metar": "METAR LRCL 051300Z VRB02KT 9999 SCT066 19/05 Q1021",
      "taf": "TAF LRCL 051100Z 0512/0521 VRB04KT CAVOK"
    },
    {
      "icao": "LRCV",
      "alert": "OK",
      "vis_m": 9999,
      "fzfg": false,
      "metar_trigger": false,
      "taf_trigger": false,
      "metar": "METAR LRCV 051300Z 22004KT 180V280 CAVOK 19/05 Q1022",
      "taf": "TAF LRCV 051100Z 0512/0521 VRB04KT CAVOK"
    },
    {
      "icao": "LRIA",
      "alert": "OK",
      "vis_m": 9999,
      "fzfg": false,
      "metar_trigger": false,
      "taf_trigger": false,
      "metar": "METAR LRIA 051300Z 28007KT 230V320 CAVOK 18/05 Q1020",
      "taf": "TAF LRIA 051100Z 0512/0521 30008KT CAVOK"
    },
    {
      "icao": "LROP",
      "alert": "OK",
      "vis_m": 9999,
      "fzfg": false,
      "metar_trigger": false,
      "taf_trigger": false,
      "metar": "METAR LROP 051300Z 24007KT 210V280 CAVOK 21/M01 Q1021 NOSIG",
      "taf": "TAF LROP 051100Z 0512/0612 VRB04KT CAVOK"
    },
    {
      "icao": "LRSB",
      "alert": "OK",
      "vis_m": 9999,
      "fzfg": false,
      "metar_trigger": false,
      "taf_trigger": false,
      "metar": "METAR LRSB 051300Z 36008KT 330V030 9999 FEW050 18/05 Q1021",
      "taf": "TAF LRSB 051100Z 0512/0612 VRB04KT CAVOK"
    },
    {
      "icao": "LRSM",
      "alert": "OK",
      "vis_m": 9999,
      "fzfg": false,
      "metar_trigger": false,
      "taf_trigger": false,
      "metar": "METAR LRSM 051300Z AUTO 25006KT 180V290 9999 NCD 20/05 Q1021",
      "taf": ""
    },
    {
      "icao": "LRSV",
      "alert": "OK",
      "vis_m": 9999,
      "fzfg": false,
      "metar_trigger": false,
      "taf_trigger": false,
      "metar": "METAR LRSV 051300Z 03005KT 360V090 CAVOK 16/06 Q1019",
      "taf": "TAF LRSV 051100Z 0512/0521 VRB04KT CAVOK"
    },
    {
      "icao": "LRTM",
      "alert": "OK",
      "vis_m": 9999,
      "fzfg": false,
      "metar_trigger": false,
      "taf_trigger": false,
      "metar": "METAR LRTM 051300Z VRB02KT CAVOK 20/05 Q1021",
      "taf": "TAF LRTM 051100Z 0512/0521 VRB04KT CAVOK"
    },
    {
      "icao": "LRTR",
      "alert": "OK",
      "vis_m": 9999,
      "fzfg": false,
      "metar_trigger": false,
      "taf_trigger": false,
      "metar": "METAR LRTR 051300Z VRB03KT 9999 FEW034 18/08 Q1023",
      "taf": "TAF LRTR 051100Z 0512/0612 26008KT CAVOK"
    },
    {
      "icao": "LTAC",
      "alert": "OK",
      "vis_m": 9999,
      "fzfg": false,
      "metar_trigger": false,
      "taf_trigger": false,
      "metar": "METAR LTAC 051250Z 03008KT 360V060 9999 SCT035 BKN080 16/01 Q1017 NOSIG RMK RWY21C 04009KT 010V070 RWY03L 03006KT 320V060 RWY21R 04008KT 360V060 RWY03R 36007KT 310V060 RWY21L 04010KT 360V070",
      "taf": "TAF LTAC 051040Z 0512/0612 02009KT 9999 SCT040 SCT100"
    },
    {
      "icao": "LTFM",
      "alert": "OK",
      "vis_m": 9999,
      "fzfg": false,
      "metar_trigger": false,
      "taf_trigger": false,
      "metar": "METAR LTFM 051250Z 02012KT CAVOK 14/09 Q1022 NOSIG RMK RWY17L 01009KT RWY34L 01011KT RWY16R 02009KT RWY36 03012KT RWY18 02010KT",
      "taf": "TAF LTFM 051040Z 0512/0618 01012KT CAVOK"
    },
    {
      "icao": "LUKK",
      "alert": "OK",
      "vis_m": 9999,
      "fzfg": false,
      "metar_trigger": false,
      "taf_trigger": false,
      "metar": "METAR LUKK 051300Z 35008KT 300V060 CAVOK 18/04 Q1019 NOSIG",
      "taf": "TAF LUKK 051114Z 0512/0612 32012KT CAVOK"
    },
    {
      "icao": "LWOH",
      "alert": "OK",
      "vis_m": null,
      "fzfg": false,
      "metar_trigger": false,
      "taf_trigger": false,
      "metar": "",
      "taf": "TAF LWOH 051110Z 0512/0612 15010KT 9999 SCT040"
    },
    {
      "icao": "LWSK",
      "alert": "OK",
      "vis_m": 9999,
      "fzfg": false,
      "metar_trigger": false,
      "taf_trigger": false,
      "metar": "METAR LWSK 051250Z 23004KT 170V310 9999 FEW085 21/04 Q1022 NOSIG",
      "taf": "TAF LWSK 051110Z 0512/0612 34008KT CAVOK"
    },
    {
      "icao": "LYBE",
      "alert": "OK",
      "vis_m": 9999,
      "fzfg": false,
      "metar_trigger": false,
      "taf_trigger": false,
      "metar": "METAR LYBE 051300Z 32006KT 300V360 CAVOK 19/08 Q1024 NOSIG",
      "taf": "TAF LYBE 051100Z 0512/0612 27007KT 9999 SCT035 TX19/0514Z TN07/0605Z"
    },
    {
      "icao": "LYNI",
      "alert": "OK",
      "vis_m": 9999,
      "fzfg": false,
      "metar_trigger": false,
      "taf_trigger": false,
      "metar": "METAR LYNI 051300Z 33008KT 270V010 9999 FEW035 19/07 Q1023 NOSIG",
      "taf": "TAF LYNI 051100Z 0512/0612 32007KT 9999 SCT035 TX19/0513Z TN04/0605Z"
    },
    {
      "icao": "LYPG",
      "alert": "OK",
      "vis_m": 9999,
      "fzfg": false,
      "metar_trigger": false,
      "taf_trigger": false,
      "metar": "METAR LYPG 051300Z 17006KT 120V220 CAVOK 22/M01 Q1022 NOSIG",
      "taf": "TAF LYPG 051100Z 0512/0612 16008KT CAVOK TX23/0512Z TN08/0604Z"
    },
    {
      "icao": "LZIB",
      "alert": "OK",
      "vis_m": 9999,
      "fzfg": false,
      "metar_trigger": false,
      "taf_trigger": false,
      "metar": "METAR LZIB 051300Z 21009KT 170V250 CAVOK 23/07 Q1019 NOSIG",
      "taf": "TAF LZIB 051115Z 0512/0612 20007KT 9999 FEW035"
    },
    {
      "icao": "LZKZ",
      "alert": "OK",
      "vis_m": 9999,
      "fzfg": false,
      "metar_trigger": false,
      "taf_trigger": false,
      "metar": "METAR LZKZ 051300Z 19012KT 150V230 CAVOK 18/06 Q1020 NOSIG",
      "taf": "TAF LZKZ 051115Z 0512/0612 22012KT 9999 FEW040"
    },
    {
      "icao": "LZTT",
      "alert": "OK",
      "vis_m": 9999,
      "fzfg": false,
      "metar_trigger": false,
      "taf_trigger": false,
      "metar": "METAR LZTT 051300Z 28015KT 9999 FEW030 18/02 Q1019 NOSIG",
      "taf": "TAF LZTT 051115Z 0512/0612 26009KT 9999 FEW040"
    },
    {
      "icao": "OEJN",
      "alert": "OK",
      "vis_m": 8000,
      "fzfg": false,
      "metar_trigger": false,
      "taf_trigger": false,
      "metar": "METAR OEJN 051300Z 33020KT 8000 NSC 30/15 Q1011 NOSIG",
      "taf": "TAF OEJN 051100Z 0512/0618 33016KT 7000 FEW040"
    },
    {
      "icao": "OEMA",
      "alert": "OK",
      "vis_m": 9000,
      "fzfg": false,
      "metar_trigger": false,
      "taf_trigger": false,
      "metar": "METAR OEMA 051300Z 28010KT 9000 BKN045 32/00 Q1013 NOSIG",
      "taf": "TAF OEMA 051100Z 0512/0618 28014KT 7000 NSC"
    },
    {
      "icao": "OJAI",
      "alert": "OK",
      "vis_m": 4000,
      "fzfg": false,
      "metar_trigger": false,
      "taf_trigger": false,
      "metar": "METAR OJAI 051300Z 27017KT 4000 BLDU FEW025 FEW030 16/06 Q1019 NOSIG",
      "taf": "TAF OJAI 051100Z 0512/0618 28010KT 4000 DU FEW030"
    },
    {
      "icao": "OMAA",
      "alert": "OK",
      "vis_m": null,
      "fzfg": false,
      "metar_trigger": false,
      "taf_trigger": false,
      "metar": "",
      "taf": ""
    },
    {
      "icao": "OMDB",
      "alert": "OK",
      "vis_m": null,
      "fzfg": false,
      "metar_trigger": false,
      "taf_trigger": false,
      "metar": "",
      "taf": ""
    },
    {
      "icao": "UAAA",
      "alert": "OK",
      "vis_m": 9999,
      "fzfg": false,
      "metar_trigger": false,
      "taf_trigger": false,
      "metar": "METAR UAAA 051300Z 04003MPS 9999 SCT050 BKN100 18/06 Q1007 NOSIG",
      "taf": "TAF UAAA 051101Z 0512/0612 20003G08MPS 9999 BKN040CB OVC100 TX24/0609Z TN13/0601Z"
    },
    {
      "icao": "UBBB",
      "alert": "OK",
      "vis_m": 9999,
      "fzfg": false,
      "metar_trigger": false,
      "taf_trigger": false,
      "metar": "METAR UBBB 051300Z 31020G30KT 9999 -SHRA FEW015 SCT029CB OVC029 12/10 Q1006 NOSIG",
      "taf": "TAF UBBB 051048Z 0512/0612 30022G32KT 6000 SCT010 SCT025CB BKN025 TX12/0512Z TN08/0601Z"
    },
    {
      "icao": "UDSG",
      "alert": "OK",
      "vis_m": 9999,
      "fzfg": false,
      "metar_trigger": false,
      "taf_trigger": false,
      "metar": "METAR UDSG 051300Z 34016KT 9999 FEW046CB 10/M01 Q1012 NOSIG",
      "taf": "TAF UDSG 051058Z 0512/0612 34006KT 9999 SCT040"
    },
    {
      "icao": "UDYZ",
      "alert": "OK",
      "vis_m": 9999,
      "fzfg": false,
      "metar_trigger": false,
      "taf_trigger": false,
      "metar": "METAR UDYZ 051300Z 32006KT 9999 SCT043CB 19/M00 Q1008 NOSIG",
      "taf": "TAF UDYZ 051100Z 0512/0612 04006KT 9999 FEW040"
    },
    {
      "icao": "UGKO",
      "alert": "OK",
      "vis_m": 9999,
      "fzfg": false,
      "metar_trigger": false,
      "taf_trigger": false,
      "metar": "METAR UGKO 051300Z 26016KT 9999 SCT020 BKN031 13/09 Q1015 NOSIG",
      "taf": "TAF UGKO 051100Z 0512/0612 25007KT 9999 SCT020 OVC050 TX13/0512Z TN09/0603Z"
    }
  ]
}