{
  "ts_utc": "2026-05-10T23:26:03Z",
  "threshold_m": 150,
  "source": "stations_override.txt (ICAO list) + aviationweather.gov (METAR/TAF raw)",
  "station_count": 159,
  "stations": [
    {
      "icao": "BIKF",
      "alert": "OK",
      "vis_m": 2500,
      "fzfg": false,
      "metar_trigger": false,
      "taf_trigger": false,
      "metar": "METAR BIKF 102300Z 20015KT 2500 -DZ BR OVC003 07/07 Q1012",
      "taf": "TAF BIKF 102245Z 1100/1200 21015KT 2000 DZ BR BKN004 OVC007 TX08/1115Z TN06/1106Z"
    },
    {
      "icao": "BKPR",
      "alert": "OK",
      "vis_m": null,
      "fzfg": false,
      "metar_trigger": false,
      "taf_trigger": false,
      "metar": "",
      "taf": ""
    },
    {
      "icao": "EBCI",
      "alert": "OK",
      "vis_m": 9999,
      "fzfg": false,
      "metar_trigger": false,
      "taf_trigger": false,
      "metar": "METAR EBCI 102250Z 01009KT 9999 -RA SCT044 10/08 Q1007 NOSIG",
      "taf": "TAF EBCI 102301Z 1100/1206 02008KT 9999 BKN045"
    },
    {
      "icao": "EDDB",
      "alert": "OK",
      "vis_m": 9999,
      "fzfg": false,
      "metar_trigger": false,
      "taf_trigger": false,
      "metar": "METAR EDDB 102320Z AUTO 09007KT CAVOK 13/08 Q1006 NOSIG",
      "taf": "TAF EDDB 102300Z 1100/1124 06005KT CAVOK"
    },
    {
      "icao": "EDDH",
      "alert": "OK",
      "vis_m": 9999,
      "fzfg": false,
      "metar_trigger": false,
      "taf_trigger": false,
      "metar": "METAR EDDH 102320Z AUTO 33007KT CAVOK 10/04 Q1007 NOSIG",
      "taf": "TAF EDDH 102300Z 1100/1206 33006KT 9999 SCT030"
    },
    {
      "icao": "EDDK",
      "alert": "OK",
      "vis_m": 9999,
      "fzfg": false,
      "metar_trigger": false,
      "taf_trigger": false,
      "metar": "METAR EDDK 102320Z AUTO 34007KT 9999 SHRA FEW027 BKN041 BKN049 FEW///TCU 12/11 Q1006 TEMPO 3500",
      "taf": "TAF EDDK 102300Z 1100/1206 34007KT 9999 RA BKN025"
    },
    {
      "icao": "EDDN",
      "alert": "OK",
      "vis_m": 9999,
      "fzfg": false,
      "metar_trigger": false,
      "taf_trigger": false,
      "metar": "METAR EDDN 102320Z AUTO 21006KT 9999 -RA NSC 15/11 Q1006",
      "taf": "TAF EDDN 102300Z 1100/1124 20005KT 9999 SCT020"
    },
    {
      "icao": "EDDS",
      "alert": "OK",
      "vis_m": 9999,
      "fzfg": false,
      "metar_trigger": false,
      "taf_trigger": false,
      "metar": "METAR EDDS 102320Z AUTO VRB02KT 9999 FEW045 12/12 Q1006",
      "taf": "TAF EDDS 102300Z 1100/1124 VRB03KT 9999 FEW040"
    },
    {
      "icao": "EDFH",
      "alert": "OK",
      "vis_m": 4400,
      "fzfg": false,
      "metar_trigger": false,
      "taf_trigger": false,
      "metar": "METAR EDFH 102250Z COR 31004KT 4400 RA BR BKN002 11/11 Q1006",
      "taf": "TAF EDFH 102300Z 1100/1124 21004KT 9999 BKN015"
    },
    {
      "icao": "EDJA",
      "alert": "OK",
      "vis_m": 9999,
      "fzfg": false,
      "metar_trigger": false,
      "taf_trigger": false,
      "metar": "METAR EDJA 102250Z AUTO 22005KT 9999 // FEW065/// BKN086/// BKN110/// 12/10 Q1008",
      "taf": "TAF EDJA 101700Z 1018/1103 24007KT 9999 SCT040 BKN055"
    },
    {
      "icao": "EDLW",
      "alert": "OK",
      "vis_m": 9999,
      "fzfg": false,
      "metar_trigger": false,
      "taf_trigger": false,
      "metar": "METAR EDLW 102250Z AUTO 36007KT 9999 // OVC020/// 09/07 Q1007",
      "taf": "TAF EDLW 101700Z 1018/1118 01005KT CAVOK"
    },
    {
      "icao": "EDNY",
      "alert": "OK",
      "vis_m": 9999,
      "fzfg": false,
      "metar_trigger": false,
      "taf_trigger": false,
      "metar": "METAR EDNY 102250Z AUTO VRB02KT 9999 // FEW064/// BKN099/// BKN130/// 12/12 Q1008",
      "taf": "TAF EDNY 101700Z 1018/1103 24007KT 9999 SCT055"
    },
    {
      "icao": "EDSB",
      "alert": "OK",
      "vis_m": 9999,
      "fzfg": false,
      "metar_trigger": false,
      "taf_trigger": false,
      "metar": "METAR EDSB 102250Z AUTO 21004KT 9999 FEW018/// SCT025/// BKN041/// 14/14 Q1006",
      "taf": "TAF EDSB 102300Z 1100/1124 VRB03KT 9999 FEW040"
    },
    {
      "icao": "EETN",
      "alert": "OK",
      "vis_m": 9999,
      "fzfg": false,
      "metar_trigger": false,
      "taf_trigger": false,
      "metar": "METAR EETN 102320Z 19004KT CAVOK 10/03 Q1009",
      "taf": "TAF EETN 101730Z 1018/1118 17005KT 9999 SCT045"
    },
    {
      "icao": "EFTU",
      "alert": "OK",
      "vis_m": 9999,
      "fzfg": false,
      "metar_trigger": false,
      "taf_trigger": false,
      "metar": "METAR EFTU 102320Z AUTO 15004KT CAVOK 06/01 Q1007",
      "taf": "TAF EFTU 102033Z 1021/1121 18006KT CAVOK"
    },
    {
      "icao": "EGBB",
      "alert": "OK",
      "vis_m": 9999,
      "fzfg": false,
      "metar_trigger": false,
      "taf_trigger": false,
      "metar": "METAR EGBB 102320Z 21003KT 140V260 CAVOK 05/01 Q1014",
      "taf": "TAF EGBB 102250Z 1100/1124 29003KT 9999 FEW045"
    },
    {
      "icao": "EGGP",
      "alert": "OK",
      "vis_m": 9999,
      "fzfg": false,
      "metar_trigger": false,
      "taf_trigger": false,
      "metar": "METAR EGGP 102320Z 31009KT 290V350 CAVOK 09/03 Q1014",
      "taf": "TAF EGGP 102255Z 1100/1124 28010KT 9999 FEW045"
    },
    {
      "icao": "EGGW",
      "alert": "OK",
      "vis_m": 9999,
      "fzfg": false,
      "metar_trigger": false,
      "taf_trigger": false,
      "metar": "METAR EGGW 102320Z AUTO 01004KT 9999 NCD 04/M00 Q1013",
      "taf": "TAF EGGW 102257Z 1100/1124 29005KT 9999 FEW040"
    },
    {
      "icao": "EGKK",
      "alert": "OK",
      "vis_m": 9999,
      "fzfg": false,
      "metar_trigger": false,
      "taf_trigger": false,
      "metar": "METAR EGKK 102320Z 01007KT CAVOK 06/02 Q1013",
      "taf": "TAF EGKK 102256Z 1100/1206 01010KT CAVOK"
    },
    {
      "icao": "EGNM",
      "alert": "OK",
      "vis_m": 9999,
      "fzfg": false,
      "metar_trigger": false,
      "taf_trigger": false,
      "metar": "METAR EGNM 102320Z 26010KT CAVOK 06/04 Q1012",
      "taf": "TAF EGNM 102254Z 1100/1124 30010KT 9999 FEW045"
    },
    {
      "icao": "EGPD",
      "alert": "OK",
      "vis_m": 9999,
      "fzfg": false,
      "metar_trigger": false,
      "taf_trigger": false,
      "metar": "METAR EGPD 102320Z COR AUTO 34011KT 9999 SCT015/// BKN019/// BKN032/// //////TCU 04/02 Q1012 TEMPO SHRA BKN012",
      "taf": "TAF EGPD 102253Z 1100/1124 33012KT 9999 SCT018"
    },
    {
      "icao": "EGPF",
      "alert": "OK",
      "vis_m": 9999,
      "fzfg": false,
      "metar_trigger": false,
      "taf_trigger": false,
      "metar": "METAR EGPF 102320Z AUTO 26011KT 9999 BKN023 OVC041 10/06 Q1012",
      "taf": "TAF EGPF 102259Z 1100/1124 27008KT 9999 FEW030"
    },
    {
      "icao": "EHBK",
      "alert": "OK",
      "vis_m": 9999,
      "fzfg": false,
      "metar_trigger": false,
      "taf_trigger": false,
      "metar": "METAR EHBK 102255Z AUTO 03012KT 9999 DZ OVC045/// 10/07 Q1007",
      "taf": "TAF EHBK 102302Z 1100/1206 02010KT 9999 -RA BKN040"
    },
    {
      "icao": "EHEH",
      "alert": "OK",
      "vis_m": 9999,
      "fzfg": false,
      "metar_trigger": false,
      "taf_trigger": false,
      "metar": "METAR EHEH 102255Z AUTO 03009KT 350V060 9999 SCT065 BKN071 OVC076 10/04 Q1009 BLU",
      "taf": ""
    },
    {
      "icao": "EKBI",
      "alert": "OK",
      "vis_m": 9999,
      "fzfg": false,
      "metar_trigger": false,
      "taf_trigger": false,
      "metar": "METAR EKBI 102320Z AUTO 00000KT 9999 NCD M00/M02 Q1009",
      "taf": "TAF EKBI 102027Z 1021/1121 30005KT CAVOK"
    },
    {
      "icao": "EKCH",
      "alert": "OK",
      "vis_m": 9999,
      "fzfg": false,
      "metar_trigger": false,
      "taf_trigger": false,
      "metar": "METAR EKCH 102320Z AUTO 07003KT 9999 BKN046/// BKN066/// 08/06 Q1008 NOSIG",
      "taf": "TAF EKCH 102027Z 1021/1121 02004KT CAVOK"
    },
    {
      "icao": "ENAL",
      "alert": "OK",
      "vis_m": 9999,
      "fzfg": false,
      "metar_trigger": false,
      "taf_trigger": false,
      "metar": "METAR ENAL 102250Z AUTO 24005KT 9999 SCT034/// BKN040/// 01/M00 Q1009",
      "taf": "TAF ENAL 102000Z 1021/1106 24005KT 9999 FEW015 BKN025"
    },
    {
      "icao": "ENBR",
      "alert": "OK",
      "vis_m": 9999,
      "fzfg": false,
      "metar_trigger": false,
      "taf_trigger": false,
      "metar": "METAR ENBR 102250Z AUTO 34006KT 9999 NCD 01/M01 Q1007 RMK WIND 1200FT 36010KT",
      "taf": "TAF ENBR 101700Z 1018/1118 30005KT 9999 FEW015 SCT030"
    },
    {
      "icao": "ENGM",
      "alert": "OK",
      "vis_m": 9999,
      "fzfg": false,
      "metar_trigger": false,
      "taf_trigger": false,
      "metar": "METAR ENGM 102250Z VRB02KT CAVOK 04/M00 Q1004",
      "taf": ""
    },
    {
      "icao": "ENHD",
      "alert": "OK",
      "vis_m": 9999,
      "fzfg": false,
      "metar_trigger": false,
      "taf_trigger": false,
      "metar": "METAR ENHD 102250Z AUTO 04007KT 9999 NCD 04/01 Q1007",
      "taf": ""
    },
    {
      "icao": "ENTC",
      "alert": "OK",
      "vis_m": 9999,
      "fzfg": false,
      "metar_trigger": false,
      "taf_trigger": false,
      "metar": "METAR ENTC 102250Z AUTO VRB03KT 9999 NCD 05/01 Q1006 RMK WIND 2600FT 09007KT",
      "taf": "TAF ENTC 101700Z 1018/1118 02009KT 9999 FEW030"
    },
    {
      "icao": "ENTO",
      "alert": "OK",
      "vis_m": 9999,
      "fzfg": false,
      "metar_trigger": false,
      "taf_trigger": false,
      "metar": "METAR ENTO 102250Z AUTO 34004KT 9999 NCD 06/02 Q1004",
      "taf": "TAF ENTO 101700Z 1018/1118 20010KT 9999 SCT030"
    },
    {
      "icao": "ENVA",
      "alert": "OK",
      "vis_m": 9999,
      "fzfg": false,
      "metar_trigger": false,
      "taf_trigger": false,
      "metar": "METAR ENVA 102250Z 29008KT 9999 FEW031 OVC041 04/01 Q1007 RMK WIND 670FT 30013KT",
      "taf": "TAF ENVA 101700Z 1018/1118 28008KT 9999 SCT045"
    },
    {
      "icao": "ENZV",
      "alert": "OK",
      "vis_m": 9999,
      "fzfg": false,
      "metar_trigger": false,
      "taf_trigger": false,
      "metar": "METAR ENZV 102250Z 12003KT 080V150 9999 VCSH BKN025 04/01 Q1007",
      "taf": "TAF ENZV 101700Z 1018/1118 30009KT 9999 FEW015 SCT025"
    },
    {
      "icao": "EPGD",
      "alert": "OK",
      "vis_m": 9999,
      "fzfg": false,
      "metar_trigger": false,
      "taf_trigger": false,
      "metar": "METAR EPGD 102300Z 21003KT 170V290 CAVOK 12/02 Q1008",
      "taf": "TAF EPGD 101730Z 1018/1118 09007KT CAVOK"
    },
    {
      "icao": "EPKK",
      "alert": "OK",
      "vis_m": 9999,
      "fzfg": false,
      "metar_trigger": false,
      "taf_trigger": false,
      "metar": "METAR EPKK 102300Z 03005KT CAVOK 10/04 Q1009",
      "taf": "TAF EPKK 102030Z 1021/1121 06010KT CAVOK"
    },
    {
      "icao": "EPKT",
      "alert": "OK",
      "vis_m": 9999,
      "fzfg": false,
      "metar_trigger": false,
      "taf_trigger": false,
      "metar": "METAR EPKT 102300Z 09005KT CAVOK 09/04 Q1009",
      "taf": "TAF EPKT 101730Z 1018/1118 11010KT CAVOK"
    },
    {
      "icao": "EPLB",
      "alert": "OK",
      "vis_m": 9999,
      "fzfg": false,
      "metar_trigger": false,
      "taf_trigger": false,
      "metar": "METAR EPLB 102300Z 08004KT CAVOK 06/04 Q1012",
      "taf": "TAF EPLB 101730Z 1018/1118 11007KT CAVOK"
    },
    {
      "icao": "EPMO",
      "alert": "OK",
      "vis_m": 9999,
      "fzfg": false,
      "metar_trigger": false,
      "taf_trigger": false,
      "metar": "METAR EPMO 102300Z 10008KT CAVOK 09/04 Q1011",
      "taf": "TAF EPMO 101730Z 1018/1118 VRB02KT CAVOK"
    },
    {
      "icao": "EPPO",
      "alert": "OK",
      "vis_m": 9999,
      "fzfg": false,
      "metar_trigger": false,
      "taf_trigger": false,
      "metar": "METAR EPPO 102300Z 06001KT CAVOK 08/05 Q1008",
      "taf": "TAF EPPO 101730Z 1018/1118 19005KT CAVOK"
    },
    {
      "icao": "EPRA",
      "alert": "OK",
      "vis_m": 9999,
      "fzfg": false,
      "metar_trigger": false,
      "taf_trigger": false,
      "metar": "METAR EPRA 102300Z 13005KT CAVOK 09/03 Q1011",
      "taf": "TAF EPRA 102030Z 1021/1106 13007KT CAVOK"
    },
    {
      "icao": "EPRZ",
      "alert": "OK",
      "vis_m": 9999,
      "fzfg": false,
      "metar_trigger": false,
      "taf_trigger": false,
      "metar": "METAR EPRZ 102300Z 07003KT CAVOK 07/04 Q1011",
      "taf": "TAF EPRZ 101730Z 1018/1118 10010KT CAVOK"
    },
    {
      "icao": "EPSC",
      "alert": "OK",
      "vis_m": 9999,
      "fzfg": false,
      "metar_trigger": false,
      "taf_trigger": false,
      "metar": "METAR EPSC 102300Z VRB02KT CAVOK 08/05 Q1008",
      "taf": "TAF EPSC 101730Z 1018/1118 28010KT CAVOK"
    },
    {
      "icao": "EPSY",
      "alert": "OK",
      "vis_m": 9999,
      "fzfg": false,
      "metar_trigger": false,
      "taf_trigger": false,
      "metar": "METAR EPSY 102300Z 15005KT 110V180 CAVOK 08/04 Q1011",
      "taf": "TAF EPSY 102030Z 1021/1106 13008KT CAVOK"
    },
    {
      "icao": "EPWA",
      "alert": "OK",
      "vis_m": 9999,
      "fzfg": false,
      "metar_trigger": false,
      "taf_trigger": false,
      "metar": "METAR EPWA 102300Z 11009KT CAVOK 10/04 Q1011 NOSIG",
      "taf": "TAF EPWA 102030Z 1021/1121 12008KT CAVOK"
    },
    {
      "icao": "EPWR",
      "alert": "OK",
      "vis_m": 9999,
      "fzfg": false,
      "metar_trigger": false,
      "taf_trigger": false,
      "metar": "METAR EPWR 102300Z 10003KT CAVOK 11/06 Q1007",
      "taf": "TAF EPWR 102030Z 1021/1121 10004KT CAVOK"
    },
    {
      "icao": "ESGG",
      "alert": "OK",
      "vis_m": 9999,
      "fzfg": false,
      "metar_trigger": false,
      "taf_trigger": false,
      "metar": "METAR ESGG 102320Z 21005KT CAVOK 03/M00 Q1006",
      "taf": "TAF ESGG 102030Z 1021/1121 26009KT 9999 SCT040"
    },
    {
      "icao": "ESKN",
      "alert": "OK",
      "vis_m": 9999,
      "fzfg": false,
      "metar_trigger": false,
      "taf_trigger": false,
      "metar": "METAR ESKN 102320Z 07003KT CAVOK 06/05 Q1005",
      "taf": "TAF ESKN 102030Z 1021/1121 25006KT CAVOK"
    },
    {
      "icao": "ESMS",
      "alert": "OK",
      "vis_m": 9999,
      "fzfg": false,
      "metar_trigger": false,
      "taf_trigger": false,
      "metar": "METAR ESMS 102250Z 00000KT CAVOK 04/04 Q1008",
      "taf": "TAF ESMS 102027Z 1021/1121 36002KT CAVOK"
    },
    {
      "icao": "ESSA",
      "alert": "OK",
      "vis_m": 9999,
      "fzfg": false,
      "metar_trigger": false,
      "taf_trigger": false,
      "metar": "METAR ESSA 102320Z 21006KT CAVOK 07/04 Q1005 NOSIG",
      "taf": "TAF ESSA 102030Z 1021/1121 18007KT CAVOK"
    },
    {
      "icao": "EYKA",
      "alert": "OK",
      "vis_m": 8000,
      "fzfg": false,
      "metar_trigger": false,
      "taf_trigger": false,
      "metar": "METAR EYKA 102320Z 15003KT 8000 2500E SCT002 03/03 Q1012",
      "taf": "TAF EYKA 102300Z 1100/1124 VRB03KT 5000 MIFG BR SCT002"
    },
    {
      "icao": "EYPA",
      "alert": "OK",
      "vis_m": 9999,
      "fzfg": false,
      "metar_trigger": false,
      "taf_trigger": false,
      "metar": "METAR EYPA 102320Z AUTO 14008KT 9999 OVC100/// 08/01 Q1009",
      "taf": "TAF EYPA 102300Z 1100/1124 15010KT 9000 SCT045"
    },
    {
      "icao": "EYVI",
      "alert": "OK",
      "vis_m": 400,
      "fzfg": false,
      "metar_trigger": false,
      "taf_trigger": false,
      "metar": "METAR EYVI 102320Z 18003KT 0400 R19/0500N FG VV002 06/05 Q1012 NOSIG",
      "taf": "TAF EYVI 102317Z 1100/1124 VRB03KT 0400 FG VV002"
    },
    {
      "icao": "GCFV",
      "alert": "OK",
      "vis_m": 9999,
      "fzfg": false,
      "metar_trigger": false,
      "taf_trigger": false,
      "metar": "METAR GCFV 102300Z AUTO 06004KT CAVOK 20/15 Q1018",
      "taf": "TAF GCFV 102000Z 1021/1121 02005KT 9999 FEW030 TX24/1114Z TN17/1106Z"
    },
    {
      "icao": "GCLP",
      "alert": "OK",
      "vis_m": 9999,
      "fzfg": false,
      "metar_trigger": false,
      "taf_trigger": false,
      "metar": "METAR GCLP 102300Z 33006KT 9999 SCT045 BKN060 19/13 Q1018 NOSIG",
      "taf": "TAF GCLP 102000Z 1021/1121 35005KT 9999 FEW025 BKN040 TX23/1114Z TN17/1106Z"
    },
    {
      "icao": "GCTS",
      "alert": "OK",
      "vis_m": 9999,
      "fzfg": false,
      "metar_trigger": false,
      "taf_trigger": false,
      "metar": "METAR GCTS 102300Z 05005KT 9999 FEW040 19/12 Q1018 NOSIG",
      "taf": "TAF GCTS 102000Z 1021/1121 02005KT 9999 SCT030 TX23/1114Z TN16/1106Z"
    },
    {
      "icao": "GMAD",
      "alert": "OK",
      "vis_m": 9999,
      "fzfg": false,
      "metar_trigger": false,
      "taf_trigger": false,
      "metar": "METAR GMAD 102300Z 18009KT CAVOK 17/14 Q1017 NOSIG",
      "taf": "TAF GMAD 102300Z 1100/1206 12010KT 8000 SCT020"
    },
    {
      "icao": "GMMN",
      "alert": "OK",
      "vis_m": 9999,
      "fzfg": false,
      "metar_trigger": false,
      "taf_trigger": false,
      "metar": "METAR GMMN 102300Z VRB02KT 9999 SCT030 15/12 Q1017 NOSIG",
      "taf": "TAF GMMN 102300Z 1100/1206 20006KT 9999 SCT030"
    },
    {
      "icao": "GMMX",
      "alert": "OK",
      "vis_m": 9999,
      "fzfg": false,
      "metar_trigger": false,
      "taf_trigger": false,
      "metar": "METAR GMMX 102300Z 33005KT 290V030 CAVOK 17/11 Q1017 NOSIG",
      "taf": "TAF GMMX 101700Z 1018/1124 32015KT CAVOK"
    },
    {
      "icao": "HEGN",
      "alert": "OK",
      "vis_m": 9999,
      "fzfg": false,
      "metar_trigger": false,
      "taf_trigger": false,
      "metar": "METAR HEGN 102300Z 29011KT CAVOK 26/05 Q1011 NOSIG",
      "taf": "TAF HEGN 101700Z 1018/1124 33010G20KT CAVOK"
    },
    {
      "icao": "HEMA",
      "alert": "OK",
      "vis_m": 9999,
      "fzfg": false,
      "metar_trigger": false,
      "taf_trigger": false,
      "metar": "METAR HEMA 102300Z 20006KT CAVOK 26/03 Q1010 NOSIG",
      "taf": "TAF HEMA 101700Z 1018/1124 32010G20KT CAVOK"
    },
    {
      "icao": "HESH",
      "alert": "OK",
      "vis_m": 9999,
      "fzfg": false,
      "metar_trigger": false,
      "taf_trigger": false,
      "metar": "METAR HESH 102300Z 34012KT CAVOK 29/12 Q1010 NOSIG",
      "taf": "TAF HESH 101700Z 1018/1124 36010G20KT CAVOK"
    },
    {
      "icao": "HESX",
      "alert": "OK",
      "vis_m": 9999,
      "fzfg": false,
      "metar_trigger": false,
      "taf_trigger": false,
      "metar": "METAR HESX 102300Z 05006KT CAVOK 20/07 Q1015 NOSIG",
      "taf": "TAF HESX 101700Z 1018/1124 01014KT CAVOK"
    },
    {
      "icao": "LATI",
      "alert": "OK",
      "vis_m": 9999,
      "fzfg": false,
      "metar_trigger": false,
      "taf_trigger": false,
      "metar": "METAR LATI 102320Z 00000KT 9999 FEW060 BKN100 16/13 Q1014 NOSIG",
      "taf": "TAF LATI 102300Z 1100/1124 VRB03KT 9999 FEW040 SCT090 TX26/1112Z TN12/1104Z"
    },
    {
      "icao": "LBPD",
      "alert": "OK",
      "vis_m": 9999,
      "fzfg": false,
      "metar_trigger": false,
      "taf_trigger": false,
      "metar": "METAR LBPD 102300Z AUTO 26003KT 220V300 9999 OVC100/// 17/15 Q1014",
      "taf": "TAF LBPD 102300Z 1100/1124 VRB04KT 9999 SCT060"
    },
    {
      "icao": "LBSF",
      "alert": "OK",
      "vis_m": 9999,
      "fzfg": false,
      "metar_trigger": false,
      "taf_trigger": false,
      "metar": "METAR LBSF 102300Z AUTO 11005KT 9999 NSC 12/11 Q1014 NOSIG",
      "taf": "TAF LBSF 102300Z 1100/1124 VRB04KT 9999 SCT040 SCT060"
    },
    {
      "icao": "LBWN",
      "alert": "OK",
      "vis_m": 9999,
      "fzfg": false,
      "metar_trigger": false,
      "taf_trigger": false,
      "metar": "METAR LBWN 102300Z AUTO 31003KT 9999 NSC 11/11 Q1014 NOSIG",
      "taf": "TAF LBWN 102300Z 1100/1124 VRB03KT 7000 SCT045"
    },
    {
      "icao": "LCLK",
      "alert": "OK",
      "vis_m": 9999,
      "fzfg": false,
      "metar_trigger": false,
      "taf_trigger": false,
      "metar": "METAR LCLK 102300Z 04005KT CAVOK 18/10 Q1013 NOSIG",
      "taf": "TAF LCLK 101730Z 1018/1118 34006KT CAVOK"
    },
    {
      "icao": "LCPH",
      "alert": "OK",
      "vis_m": 9999,
      "fzfg": false,
      "metar_trigger": false,
      "taf_trigger": false,
      "metar": "METAR LCPH 102300Z 01007KT 010V080 CAVOK 15/06 Q1014 NOSIG",
      "taf": "TAF LCPH 101730Z 1018/1118 32010KT CAVOK"
    },
    {
      "icao": "LEAL",
      "alert": "OK",
      "vis_m": 9999,
      "fzfg": false,
      "metar_trigger": false,
      "taf_trigger": false,
      "metar": "METAR LEAL 102300Z 34003KT 300V030 CAVOK 20/11 Q1013 NOSIG",
      "taf": "TAF LEAL 102300Z 1100/1124 VRB04KT 9999 FEW035 TX26/1112Z TN16/1105Z"
    },
    {
      "icao": "LEBB",
      "alert": "OK",
      "vis_m": 9999,
      "fzfg": false,
      "metar_trigger": false,
      "taf_trigger": false,
      "metar": "METAR LEBB 102300Z AUTO 12004KT 070V140 CAVOK 11/11 Q1012",
      "taf": "TAF LEBB 102300Z 1100/1124 13008KT 9999 FEW045 TX21/1112Z TN10/1103Z"
    },
    {
      "icao": "LEBL",
      "alert": "OK",
      "vis_m": 9999,
      "fzfg": false,
      "metar_trigger": false,
      "taf_trigger": false,
      "metar": "METAR LEBL 102300Z 31006KT 9999 FEW030 18/11 Q1011 NOSIG",
      "taf": "TAF LEBL 102300Z 1100/1124 VRB04KT 9999 FEW050 TX21/1113Z TN15/1106Z"
    },
    {
      "icao": "LECH",
      "alert": "OK",
      "vis_m": 9999,
      "fzfg": false,
      "metar_trigger": false,
      "taf_trigger": false,
      "metar": "METAR LECH 102300Z AUTO VRB02KT CAVOK 15/12 Q1013",
      "taf": "TAF LECH 102300Z 1100/1124 VRB04KT 9999 FEW020 TX24/1114Z TN10/1105Z"
    },
    {
      "icao": "LEMD",
      "alert": "OK",
      "vis_m": 9999,
      "fzfg": false,
      "metar_trigger": false,
      "taf_trigger": false,
      "metar": "METAR LEMD 102300Z 18003KT 140V260 9999 FEW050 11/08 Q1014 NOSIG",
      "taf": "TAF LEMD 102300Z 1100/1206 VRB04KT 9999 FEW020 TX18/1116Z TN07/1105Z"
    },
    {
      "icao": "LEMG",
      "alert": "OK",
      "vis_m": 9999,
      "fzfg": false,
      "metar_trigger": false,
      "taf_trigger": false,
      "metar": "METAR LEMG 102300Z 27007KT CAVOK 16/09 Q1015 NOSIG",
      "taf": "TAF LEMG 102300Z 1100/1124 29007KT CAVOK TX23/1114Z TN13/1106Z"
    },
    {
      "icao": "LEVC",
      "alert": "OK",
      "vis_m": 9999,
      "fzfg": false,
      "metar_trigger": false,
      "taf_trigger": false,
      "metar": "METAR LEVC 102300Z 19005KT 160V220 9999 FEW025 18/10 Q1013 NOSIG",
      "taf": "TAF LEVC 102300Z 1100/1124 VRB04KT 9999 FEW020 TX26/1112Z TN14/1105Z"
    },
    {
      "icao": "LEXJ",
      "alert": "OK",
      "vis_m": 7000,
      "fzfg": false,
      "metar_trigger": false,
      "taf_trigger": false,
      "metar": "METAR LEXJ 102300Z AUTO 23001KT 7000 NSC 11/11 Q1011",
      "taf": "TAF LEXJ 102000Z 1021/1121 22009KT 9999 FEW045 TX20/1112Z TN11/1104Z"
    },
    {
      "icao": "LEZG",
      "alert": "OK",
      "vis_m": 9999,
      "fzfg": false,
      "metar_trigger": false,
      "taf_trigger": false,
      "metar": "METAR LEZG 102300Z 00000KT CAVOK 13/10 Q1013 NOSIG",
      "taf": "TAF LEZG 102300Z 1100/1124 24012KT 9999 FEW020 TX23/1118Z TN12/1105Z"
    },
    {
      "icao": "LEZL",
      "alert": "OK",
      "vis_m": 9999,
      "fzfg": false,
      "metar_trigger": false,
      "taf_trigger": false,
      "metar": "METAR LEZL 102300Z 19004KT CAVOK 14/12 Q1016 NOSIG",
      "taf": "TAF LEZL 102000Z 1021/1121 22012KT 9999 SCT030 TX23/1115Z TN11/1107Z"
    },
    {
      "icao": "LFBD",
      "alert": "OK",
      "vis_m": 9999,
      "fzfg": false,
      "metar_trigger": false,
      "taf_trigger": false,
      "metar": "METAR LFBD 102300Z AUTO 24007KT CAVOK 15/13 Q1010 NOSIG",
      "taf": "TAF LFBD 102300Z 1100/1206 24006KT CAVOK TX21/1114Z TN11/1105Z"
    },
    {
      "icao": "LFLL",
      "alert": "OK",
      "vis_m": 9999,
      "fzfg": false,
      "metar_trigger": false,
      "taf_trigger": false,
      "metar": "METAR LFLL 102300Z 24009KT 9999 -RA FEW046TCU SCT056 BKN070 13/10 Q1009 NOSIG",
      "taf": "TAF LFLL 102300Z 1100/1206 18006KT 9999 FEW030 BKN055"
    },
    {
      "icao": "LFLS",
      "alert": "OK",
      "vis_m": 9999,
      "fzfg": false,
      "metar_trigger": false,
      "taf_trigger": false,
      "metar": "METAR LFLS 102300Z AUTO 27006KT 9999 BKN022/// BKN047/// BKN058/// ///CB 12/12 Q1010",
      "taf": ""
    },
    {
      "icao": "LFMN",
      "alert": "OK",
      "vis_m": 9999,
      "fzfg": false,
      "metar_trigger": false,
      "taf_trigger": false,
      "metar": "METAR LFMN 102300Z 15004KT 9999 FEW013 BKN023 17/15 Q1012 NOSIG",
      "taf": "TAF LFMN 102000Z 1021/1203 10007KT 9999 FEW010 BKN030"
    },
    {
      "icao": "LFOB",
      "alert": "OK",
      "vis_m": 6000,
      "fzfg": false,
      "metar_trigger": false,
      "taf_trigger": false,
      "metar": "METAR LFOB 102300Z AUTO 01011KT 6000 -RA OVC007 10/10 Q1007 TEMPO 3000 RA",
      "taf": "TAF LFOB 102300Z 1100/1124 04013KT 9999 BKN020"
    },
    {
      "icao": "LFPO",
      "alert": "OK",
      "vis_m": 6000,
      "fzfg": false,
      "metar_trigger": false,
      "taf_trigger": false,
      "metar": "METAR LFPO 102300Z AUTO 04005KT 010V070 6000 OVC008 12/11 Q1006 TEMPO 4000 -RADZ",
      "taf": "TAF LFPO 102300Z 1100/1206 01008KT 9999 BKN012"
    },
    {
      "icao": "LFSB",
      "alert": "OK",
      "vis_m": 9999,
      "fzfg": false,
      "metar_trigger": false,
      "taf_trigger": false,
      "metar": "METAR LFSB 102300Z AUTO VRB02KT 9999 FEW031 BKN086 BKN100 13/13 Q1007 TEMPO FEW040CB BKN050",
      "taf": "TAF LFSB 102300Z 1100/1124 18003KT CAVOK"
    },
    {
      "icao": "LGAV",
      "alert": "OK",
      "vis_m": 9999,
      "fzfg": false,
      "metar_trigger": false,
      "taf_trigger": false,
      "metar": "METAR LGAV 102320Z 26002KT 9999 FEW025 16/11 Q1014 NOSIG",
      "taf": "TAF LGAV 102300Z 1100/1124 VRB03KT 9999 FEW025"
    },
    {
      "icao": "LGTS",
      "alert": "OK",
      "vis_m": 9999,
      "fzfg": false,
      "metar_trigger": false,
      "taf_trigger": false,
      "metar": "METAR LGTS 102250Z 11006KT 9999 FEW025 14/14 Q1014 NOSIG",
      "taf": "TAF LGTS 102300Z 1100/1124 VRB03KT 9999 FEW030"
    },
    {
      "icao": "LHBP",
      "alert": "OK",
      "vis_m": 9999,
      "fzfg": false,
      "metar_trigger": false,
      "taf_trigger": false,
      "metar": "METAR LHBP 102300Z 11005KT CAVOK 14/09 Q1010 NOSIG",
      "taf": "TAF LHBP 101715Z 1018/1118 10005KT CAVOK"
    },
    {
      "icao": "LHDC",
      "alert": "OK",
      "vis_m": 9999,
      "fzfg": false,
      "metar_trigger": false,
      "taf_trigger": false,
      "metar": "METAR LHDC 102245Z AUTO 08004KT CAVOK 11/06 Q1011 NOSIG",
      "taf": "TAF LHDC 102315Z 1100/1109 12004KT CAVOK"
    },
    {
      "icao": "LIBD",
      "alert": "OK",
      "vis_m": 9999,
      "fzfg": false,
      "metar_trigger": false,
      "taf_trigger": false,
      "metar": "METAR LIBD 102320Z 21010KT CAVOK 16/14 Q1012",
      "taf": "TAF LIBD 102300Z 1100/1124 VRB05KT CAVOK"
    },
    {
      "icao": "LIBG",
      "alert": "OK",
      "vis_m": null,
      "fzfg": false,
      "metar_trigger": false,
      "taf_trigger": false,
      "metar": "",
      "taf": "TAF LIBG 101400Z 1015/1024 18010KT 9999 SCT030"
    },
    {
      "icao": "LIBP",
      "alert": "OK",
      "vis_m": 9999,
      "fzfg": false,
      "metar_trigger": false,
      "taf_trigger": false,
      "metar": "METAR LIBP 102320Z AUTO 22004KT 9999 NCD 13/13 Q1011",
      "taf": "TAF LIBP 102300Z 1100/1124 VRB05KT CAVOK"
    },
    {
      "icao": "LIBR",
      "alert": "OK",
      "vis_m": 9999,
      "fzfg": false,
      "metar_trigger": false,
      "taf_trigger": false,
      "metar": "METAR LIBR 102250Z 17004KT CAVOK 17/14 Q1013",
      "taf": "TAF LIBR 102300Z 1100/1124 18010KT 9999 FEW040"
    },
    {
      "icao": "LICA",
      "alert": "OK",
      "vis_m": 9999,
      "fzfg": false,
      "metar_trigger": false,
      "taf_trigger": false,
      "metar": "METAR LICA 102320Z AUTO 23006KT 9999 OVC037/// 19/18 Q1015",
      "taf": "TAF LICA 102300Z 1100/1124 26005KT 9999 SCT020"
    },
    {
      "icao": "LICC",
      "alert": "OK",
      "vis_m": 9999,
      "fzfg": false,
      "metar_trigger": false,
      "taf_trigger": false,
      "metar": "METAR LICC 102320Z 26006KT CAVOK 15/11 Q1014",
      "taf": "TAF LICC 102300Z 1100/1124 28005KT CAVOK"
    },
    {
      "icao": "LICJ",
      "alert": "OK",
      "vis_m": 9999,
      "fzfg": false,
      "metar_trigger": false,
      "taf_trigger": false,
      "metar": "METAR LICJ 102320Z 17004KT 140V200 9999 SCT020 17/15 Q1015",
      "taf": "TAF LICJ 102300Z 1100/1124 24007KT 9999 FEW020"
    },
    {
      "icao": "LIMC",
      "alert": "OK",
      "vis_m": 9999,
      "fzfg": false,
      "metar_trigger": false,
      "taf_trigger": false,
      "metar": "METAR LIMC 102250Z 02004KT 9999 -RA BKN020 14/13 Q1011 NOSIG",
      "taf": "TAF LIMC 102300Z 1100/1206 VRB05KT 9999 BKN040"
    },
    {
      "icao": "LIME",
      "alert": "OK",
      "vis_m": 9999,
      "fzfg": false,
      "metar_trigger": false,
      "taf_trigger": false,
      "metar": "METAR LIME 102250Z 02003KT 9999 FEW025 BKN030 14/13 Q1011 NOSIG",
      "taf": "TAF LIME 102300Z 1100/1124 VRB05KT 9999 SCT030"
    },
    {
      "icao": "LIMF",
      "alert": "OK",
      "vis_m": 7000,
      "fzfg": false,
      "metar_trigger": false,
      "taf_trigger": false,
      "metar": "METAR LIMF 102250Z 03002KT 7000 BKN025 OVC050 14/13 Q1011",
      "taf": "TAF LIMF 102300Z 1100/1124 VRB05KT 4000 BR BKN005 BKN030"
    },
    {
      "icao": "LIMJ",
      "alert": "OK",
      "vis_m": 9999,
      "fzfg": false,
      "metar_trigger": false,
      "taf_trigger": false,
      "metar": "METAR LIMJ 102250Z 09003KT 9999 BKN022 17/16 Q1011",
      "taf": "TAF LIMJ 102300Z 1100/1124 19012KT 9999 SCT020"
    },
    {
      "icao": "LIPE",
      "alert": "OK",
      "vis_m": 8000,
      "fzfg": false,
      "metar_trigger": false,
      "taf_trigger": false,
      "metar": "METAR LIPE 102250Z 27005KT 240V310 8000 FEW018 BKN070 17/16 Q1011",
      "taf": "TAF LIPE 102300Z 1100/1124 VRB05KT 6000 FEW015 BKN045"
    },
    {
      "icao": "LIPH",
      "alert": "OK",
      "vis_m": 9999,
      "fzfg": false,
      "metar_trigger": false,
      "taf_trigger": false,
      "metar": "METAR LIPH 102320Z AUTO 24002KT 9999 OVC047/// 15/15 Q1011",
      "taf": "TAF LIPH 102300Z 1100/1124 VRB05KT 9999 BKN050"
    },
    {
      "icao": "LIPQ",
      "alert": "OK",
      "vis_m": 9999,
      "fzfg": false,
      "metar_trigger": false,
      "taf_trigger": false,
      "metar": "METAR LIPQ 102320Z AUTO 11001KT 9999 OVC033/// 16/14 Q1011",
      "taf": "TAF LIPQ 102300Z 1100/1124 VRB05KT 9999 OVC070"
    },
    {
      "icao": "LIPR",
      "alert": "OK",
      "vis_m": 9000,
      "fzfg": false,
      "metar_trigger": false,
      "taf_trigger": false,
      "metar": "METAR LIPR 102320Z AUTO 19003KT 9000 BKN051/// 14/14 Q1011",
      "taf": "TAF LIPR 102300Z 1100/1124 VRB05KT 6000 FEW060"
    },
    {
      "icao": "LIPX",
      "alert": "OK",
      "vis_m": 9999,
      "fzfg": false,
      "metar_trigger": false,
      "taf_trigger": false,
      "metar": "METAR LIPX 102320Z VRB02KT 9999 OVC035 15/13 Q1011",
      "taf": "TAF LIPX 102300Z 1100/1124 VRB05KT 8000 SCT030"
    },
    {
      "icao": "LIPY",
      "alert": "OK",
      "vis_m": 9999,
      "fzfg": false,
      "metar_trigger": false,
      "taf_trigger": false,
      "metar": "METAR LIPY 102320Z AUTO 16002KT 9999 SCT059/// BKN074/// 16/16 Q1011",
      "taf": "TAF LIPY 102300Z 1100/1124 VRB05KT 9999 BKN005 OVC070"
    },
    {
      "icao": "LIPZ",
      "alert": "OK",
      "vis_m": 9999,
      "fzfg": false,
      "metar_trigger": false,
      "taf_trigger": false,
      "metar": "METAR LIPZ 102250Z 36003KT 9999 BKN040 16/14 Q1011 NOSIG",
      "taf": "TAF LIPZ 102300Z 1100/1206 VRB05KT 9999 SCT070"
    },
    {
      "icao": "LIRF",
      "alert": "OK",
      "vis_m": 7000,
      "fzfg": false,
      "metar_trigger": false,
      "taf_trigger": false,
      "metar": "METAR LIRF 102250Z 23003KT 7000 FEW005 BKN030 18/17 Q1012 NOSIG",
      "taf": "TAF LIRF 102300Z 1100/1206 VRB05KT 7000 SCT015"
    },
    {
      "icao": "LIRN",
      "alert": "OK",
      "vis_m": 8000,
      "fzfg": false,
      "metar_trigger": false,
      "taf_trigger": false,
      "metar": "METAR LIRN 102250Z 17008KT 8000 FEW010 BKN030 18/17 Q1014 NOSIG",
      "taf": "TAF LIRN 102300Z 1100/1124 20008KT 8000 SCT015"
    },
    {
      "icao": "LIRP",
      "alert": "OK",
      "vis_m": 9999,
      "fzfg": false,
      "metar_trigger": false,
      "taf_trigger": false,
      "metar": "METAR LIRP 102245Z 22004KT 9999 SCT020 BKN050 17/15 Q1012 NOSIG",
      "taf": "TAF LIRP 102300Z 1100/1124 24004KT 9999 SCT030 SCT050"
    },
    {
      "icao": "LIRZ",
      "alert": "OK",
      "vis_m": 9999,
      "fzfg": false,
      "metar_trigger": false,
      "taf_trigger": false,
      "metar": "METAR LIRZ 102320Z AUTO 02002KT 9999 OVC020/// 15/15 Q1012",
      "taf": "TAF LIRZ 102300Z 1100/1124 VRB05KT 9000 BKN020"
    },
    {
      "icao": "LJLJ",
      "alert": "OK",
      "vis_m": 9999,
      "fzfg": false,
      "metar_trigger": false,
      "taf_trigger": false,
      "metar": "METAR LJLJ 102300Z VRB02KT 9999 -RA FEW045 BKN055 BKN095 15/08 Q1011 NOSIG",
      "taf": "TAF LJLJ 102300Z 1100/1200 VRB02KT 9999 FEW060 BKN090"
    },
    {
      "icao": "LKMT",
      "alert": "OK",
      "vis_m": 9999,
      "fzfg": false,
      "metar_trigger": false,
      "taf_trigger": false,
      "metar": "METAR LKMT 102300Z VRB02KT CAVOK 12/08 Q1008 NOSIG",
      "taf": "TAF LKMT 102300Z 1100/1124 VRB02KT CAVOK"
    },
    {
      "icao": "LKPR",
      "alert": "OK",
      "vis_m": 9999,
      "fzfg": false,
      "metar_trigger": false,
      "taf_trigger": false,
      "metar": "METAR LKPR 102300Z VRB02KT CAVOK 11/05 Q1006 NOSIG",
      "taf": "TAF LKPR 102300Z 1100/1206 10005KT CAVOK"
    },
    {
      "icao": "LLBG",
      "alert": "OK",
      "vis_m": 9999,
      "fzfg": false,
      "metar_trigger": false,
      "taf_trigger": false,
      "metar": "METAR LLBG 102320Z VRB02KT CAVOK 18/11 Q1014 NOSIG",
      "taf": "TAF LLBG 102307Z 1100/1124 VRB03KT CAVOK TX27/1111Z TN15/1103Z"
    },
    {
      "icao": "LMML",
      "alert": "OK",
      "vis_m": 9999,
      "fzfg": false,
      "metar_trigger": false,
      "taf_trigger": false,
      "metar": "METAR LMML 102315Z 29005KT CAVOK 17/14 Q1015 NOSIG",
      "taf": "TAF LMML 102300Z 1100/1124 31008KT 9999 FEW015"
    },
    {
      "icao": "LOWW",
      "alert": "OK",
      "vis_m": 9999,
      "fzfg": false,
      "metar_trigger": false,
      "taf_trigger": false,
      "metar": "METAR LOWW 102250Z 14011KT 9999 NSC 16/11 Q1006 NOSIG",
      "taf": "TAF LOWW 102315Z 1100/1206 15010KT CAVOK TX21/1113Z TN10/1206Z"
    },
    {
      "icao": "LPFR",
      "alert": "OK",
      "vis_m": 9999,
      "fzfg": false,
      "metar_trigger": false,
      "taf_trigger": false,
      "metar": "METAR LPFR 102300Z 22008KT 9999 FEW025 16/13 Q1015",
      "taf": "TAF LPFR 102300Z 1100/1124 23008KT 9999 SCT020"
    },
    {
      "icao": "LPMA",
      "alert": "OK",
      "vis_m": 9999,
      "fzfg": false,
      "metar_trigger": false,
      "taf_trigger": false,
      "metar": "METAR LPMA 102300Z 31003KT 260V350 9999 FEW016 15/10 Q1016",
      "taf": "TAF LPMA 102300Z 1100/1124 VRB05KT 9999 SCT015"
    },
    {
      "icao": "LPPR",
      "alert": "OK",
      "vis_m": 9999,
      "fzfg": false,
      "metar_trigger": false,
      "taf_trigger": false,
      "metar": "METAR LPPR 102300Z 16007KT 9999 VCSH SCT012 FEW018CB BKN027 14/13 Q1010",
      "taf": "TAF LPPR 102300Z 1100/1124 18010KT 9999 SCT020"
    },
    {
      "icao": "LPPS",
      "alert": "OK",
      "vis_m": 9999,
      "fzfg": false,
      "metar_trigger": false,
      "taf_trigger": false,
      "metar": "METAR LPPS 102300Z 28008KT 9999 FEW015 16/12 Q1016",
      "taf": "TAF LPPS 102300Z 1100/1206 27010KT 9999 SCT015"
    },
    {
      "icao": "LPPT",
      "alert": "OK",
      "vis_m": 9999,
      "fzfg": false,
      "metar_trigger": false,
      "taf_trigger": false,
      "metar": "METAR LPPT 102300Z 21011KT 9999 SCT012 15/13 Q1011",
      "taf": "TAF LPPT 102300Z 1100/1206 21013KT 9999 SCT025"
    },
    {
      "icao": "LQBK",
      "alert": "OK",
      "vis_m": 9999,
      "fzfg": false,
      "metar_trigger": false,
      "taf_trigger": false,
      "metar": "METAR LQBK 102300Z 13005KT CAVOK 15/13 Q1010 NOSIG",
      "taf": ""
    },
    {
      "icao": "LQSA",
      "alert": "OK",
      "vis_m": 9999,
      "fzfg": false,
      "metar_trigger": false,
      "taf_trigger": false,
      "metar": "METAR LQSA 102300Z 31003KT 260V350 CAVOK 13/11 Q1012",
      "taf": "TAF LQSA 102300Z 1100/1124 VRB02KT 9999 SCT065 TX23/1112Z TN08/1104Z"
    },
    {
      "icao": "LQTZ",
      "alert": "OK",
      "vis_m": 9999,
      "fzfg": false,
      "metar_trigger": false,
      "taf_trigger": false,
      "metar": "METAR LQTZ 102300Z 11002KT CAVOK 11/11 Q1011",
      "taf": "TAF LQTZ 102300Z 1100/1124 VRB02KT CAVOK TX25/1113Z TN10/1104Z"
    },
    {
      "icao": "LRBC",
      "alert": "OK",
      "vis_m": 9999,
      "fzfg": false,
      "metar_trigger": false,
      "taf_trigger": false,
      "metar": "METAR LRBC 102300Z VRB01KT 9999 OVC038 12/11 Q1014",
      "taf": "TAF LRBC 102000Z 1021/1106 VRB04KT 9999 SCT035"
    },
    {
      "icao": "LRBS",
      "alert": "OK",
      "vis_m": 9999,
      "fzfg": false,
      "metar_trigger": false,
      "taf_trigger": false,
      "metar": "METAR LRBS 102300Z VRB02KT CAVOK 15/13 Q1014 NOSIG",
      "taf": ""
    },
    {
      "icao": "LRBV",
      "alert": "OK",
      "vis_m": 9999,
      "fzfg": false,
      "metar_trigger": false,
      "taf_trigger": false,
      "metar": "METAR LRBV 102300Z AUTO 00000KT 9999 NCD 09/08 Q1014",
      "taf": "TAF LRBV 101700Z 1018/1103 VRB04KT CAVOK"
    },
    {
      "icao": "LRCL",
      "alert": "OK",
      "vis_m": 9999,
      "fzfg": false,
      "metar_trigger": false,
      "taf_trigger": false,
      "metar": "METAR LRCL 102300Z 23002KT CAVOK 09/08 Q1013",
      "taf": "TAF LRCL 102000Z 1021/1106 VRB04KT CAVOK"
    },
    {
      "icao": "LRCV",
      "alert": "OK",
      "vis_m": 9999,
      "fzfg": false,
      "metar_trigger": false,
      "taf_trigger": false,
      "metar": "METAR LRCV 102300Z 09005KT CAVOK 12/12 Q1013",
      "taf": "TAF LRCV 102000Z 1021/1106 08007KT CAVOK"
    },
    {
      "icao": "LRIA",
      "alert": "OK",
      "vis_m": 9999,
      "fzfg": false,
      "metar_trigger": false,
      "taf_trigger": false,
      "metar": "METAR LRIA 102300Z 28002KT CAVOK 12/10 Q1014",
      "taf": "TAF LRIA 102000Z 1021/1106 VRB04KT 9999 SCT035"
    },
    {
      "icao": "LROP",
      "alert": "OK",
      "vis_m": 9999,
      "fzfg": false,
      "metar_trigger": false,
      "taf_trigger": false,
      "metar": "METAR LROP 102300Z VRB02KT CAVOK 15/13 Q1014 NOSIG",
      "taf": ""
    },
    {
      "icao": "LRSB",
      "alert": "OK",
      "vis_m": 9999,
      "fzfg": false,
      "metar_trigger": false,
      "taf_trigger": false,
      "metar": "METAR LRSB 102300Z VRB02KT 9999 FEW085 10/09 Q1013",
      "taf": "TAF LRSB 101700Z 1018/1118 VRB04KT CAVOK"
    },
    {
      "icao": "LRSM",
      "alert": "OK",
      "vis_m": 9999,
      "fzfg": false,
      "metar_trigger": false,
      "taf_trigger": false,
      "metar": "METAR LRSM 102300Z AUTO 05004KT 9999 NCD 08/06 Q1011",
      "taf": ""
    },
    {
      "icao": "LRSV",
      "alert": "OK",
      "vis_m": 9999,
      "fzfg": false,
      "metar_trigger": false,
      "taf_trigger": false,
      "metar": "METAR LRSV 102300Z VRB01KT CAVOK 10/08 Q1013",
      "taf": "TAF LRSV 102000Z 1021/1106 VRB04KT 9999 BKN035"
    },
    {
      "icao": "LRTM",
      "alert": "OK",
      "vis_m": 9999,
      "fzfg": false,
      "metar_trigger": false,
      "taf_trigger": false,
      "metar": "METAR LRTM 102300Z 08006KT CAVOK 08/08 Q1013",
      "taf": "TAF LRTM 102000Z 1021/1106 VRB04KT CAVOK"
    },
    {
      "icao": "LRTR",
      "alert": "OK",
      "vis_m": 9999,
      "fzfg": false,
      "metar_trigger": false,
      "taf_trigger": false,
      "metar": "METAR LRTR 102300Z 09007KT CAVOK 12/11 Q1011",
      "taf": "TAF LRTR 101700Z 1018/1118 10008KT CAVOK"
    },
    {
      "icao": "LTAC",
      "alert": "OK",
      "vis_m": 9999,
      "fzfg": false,
      "metar_trigger": false,
      "taf_trigger": false,
      "metar": "METAR LTAC 102250Z 34003KT 9999 FEW040 BKN100 12/09 Q1016 NOSIG RMK RWY21C VRB02KT RWY03L VRB02KT RWY21R 00000KT RWY03R 00000KT RWY21L 11003KT",
      "taf": "TAF LTAC 102240Z 1100/1124 VRB02KT 9999 FEW040 SCT100"
    },
    {
      "icao": "LTFM",
      "alert": "OK",
      "vis_m": 9999,
      "fzfg": false,
      "metar_trigger": false,
      "taf_trigger": false,
      "metar": "METAR LTFM 102250Z VRB02KT 9999 FEW040 SCT090 17/11 Q1014 NOSIG RMK RWY17L VRB02KT RWY34L 11004KT 060V160 RWY16R VRB02KT RWY36 15002KT RWY18 32002KT",
      "taf": "TAF LTFM 102240Z 1100/1206 VRB02KT 9999 SCT040 BKN090"
    },
    {
      "icao": "LUKK",
      "alert": "OK",
      "vis_m": 9999,
      "fzfg": false,
      "metar_trigger": false,
      "taf_trigger": false,
      "metar": "METAR LUKK 102300Z 32004KT 280V030 9999 2300SE MIFG NSC 11/09 Q1013 BECMG 1200 BR",
      "taf": "TAF LUKK 102320Z 1100/1124 VRB05KT 3000 BR NSC"
    },
    {
      "icao": "LWOH",
      "alert": "OK",
      "vis_m": null,
      "fzfg": false,
      "metar_trigger": false,
      "taf_trigger": false,
      "metar": "",
      "taf": "TAF LWOH 102310Z 1100/1124 32005KT 9999 FEW040"
    },
    {
      "icao": "LWSK",
      "alert": "OK",
      "vis_m": 9999,
      "fzfg": false,
      "metar_trigger": false,
      "taf_trigger": false,
      "metar": "METAR LWSK 102320Z VRB02KT 9999 FEW060 14/12 Q1013 NOSIG",
      "taf": ""
    },
    {
      "icao": "LYBE",
      "alert": "OK",
      "vis_m": 9999,
      "fzfg": false,
      "metar_trigger": false,
      "taf_trigger": false,
      "metar": "METAR LYBE 102300Z 13006KT CAVOK 16/11 Q1010 NOSIG",
      "taf": "TAF LYBE 102300Z 1100/1124 15005KT CAVOK TX25/1113Z TN15/1103Z"
    },
    {
      "icao": "LYNI",
      "alert": "OK",
      "vis_m": 9999,
      "fzfg": false,
      "metar_trigger": false,
      "taf_trigger": false,
      "metar": "METAR LYNI 102300Z VRB02KT CAVOK 14/11 Q1012 NOSIG",
      "taf": "TAF LYNI 102300Z 1100/1124 08004KT CAVOK TX27/1113Z TN11/1103Z"
    },
    {
      "icao": "LYPG",
      "alert": "OK",
      "vis_m": 9999,
      "fzfg": false,
      "metar_trigger": false,
      "taf_trigger": false,
      "metar": "METAR LYPG 102300Z 34003KT 9999 FEW040 SCT080 17/13 Q1014 NOSIG",
      "taf": "TAF LYPG 102300Z 1100/1124 16005KT 9999 BKN040 TX24/1114Z TN15/1104Z"
    },
    {
      "icao": "LZIB",
      "alert": "OK",
      "vis_m": 9999,
      "fzfg": false,
      "metar_trigger": false,
      "taf_trigger": false,
      "metar": "METAR LZIB 102300Z VRB02KT CAVOK 15/10 Q1007 NOSIG",
      "taf": "TAF LZIB 102315Z 1100/1200 18008KT CAVOK"
    },
    {
      "icao": "LZKZ",
      "alert": "OK",
      "vis_m": 9999,
      "fzfg": false,
      "metar_trigger": false,
      "taf_trigger": false,
      "metar": "METAR LZKZ 102300Z 34003KT CAVOK 11/06 Q1011 NOSIG",
      "taf": "TAF LZKZ 102315Z 1100/1200 VRB02KT 9999 SCT045"
    },
    {
      "icao": "LZTT",
      "alert": "OK",
      "vis_m": 9999,
      "fzfg": false,
      "metar_trigger": false,
      "taf_trigger": false,
      "metar": "METAR LZTT 102300Z 28005KT CAVOK 08/06 Q1011",
      "taf": "TAF LZTT 102315Z 1100/1200 15005KT 9999 FEW060"
    },
    {
      "icao": "OEJN",
      "alert": "OK",
      "vis_m": 9999,
      "fzfg": false,
      "metar_trigger": false,
      "taf_trigger": false,
      "metar": "METAR OEJN 102300Z VRB02KT CAVOK 30/19 Q1008 NOSIG",
      "taf": "TAF OEJN 102300Z 1100/1206 VRB03KT CAVOK"
    },
    {
      "icao": "OEMA",
      "alert": "OK",
      "vis_m": 9999,
      "fzfg": false,
      "metar_trigger": false,
      "taf_trigger": false,
      "metar": "METAR OEMA 102300Z 27007KT CAVOK 34/M02 Q1013 NOSIG",
      "taf": "TAF OEMA 102300Z 1100/1206 VRB03KT CAVOK"
    },
    {
      "icao": "OJAI",
      "alert": "OK",
      "vis_m": 5000,
      "fzfg": false,
      "metar_trigger": false,
      "taf_trigger": false,
      "metar": "METAR OJAI 102300Z 34003KT 5000 HZ NSC 14/04 Q1017 NOSIG",
      "taf": "TAF OJAI 102300Z 1100/1206 30010KT 5000 HZ NSC"
    },
    {
      "icao": "OMAA",
      "alert": "OK",
      "vis_m": 9999,
      "fzfg": false,
      "metar_trigger": false,
      "taf_trigger": false,
      "metar": "METAR OMAA 102300Z 23006KT CAVOK 26/18 Q1006 NOSIG",
      "taf": "TAF OMAA 102300Z 1100/1206 23005KT 8000 NSC"
    },
    {
      "icao": "OMDB",
      "alert": "OK",
      "vis_m": 9999,
      "fzfg": false,
      "metar_trigger": false,
      "taf_trigger": false,
      "metar": "METAR OMDB 102300Z 19008KT CAVOK 26/18 Q1006 NOSIG",
      "taf": "TAF OMDB 102300Z 1100/1206 19007KT CAVOK"
    },
    {
      "icao": "UAAA",
      "alert": "OK",
      "vis_m": 9999,
      "fzfg": false,
      "metar_trigger": false,
      "taf_trigger": false,
      "metar": "METAR UAAA 102300Z VRB01MPS 9999 SCT050CB BKN100 13/11 Q1014 NOSIG",
      "taf": "TAF UAAA 102301Z 1100/1124 23003G08MPS 6000 BKN030CB OVC100 TX18/1106Z TN11/1100Z"
    },
    {
      "icao": "UBBB",
      "alert": "OK",
      "vis_m": 9999,
      "fzfg": false,
      "metar_trigger": false,
      "taf_trigger": false,
      "metar": "METAR UBBB 102300Z 18006KT CAVOK 16/15 Q1016 NOSIG",
      "taf": "TAF UBBB 102257Z 1100/1124 17006KT CAVOK TX24/1110Z TN14/1101Z"
    },
    {
      "icao": "UDSG",
      "alert": "OK",
      "vis_m": 9999,
      "fzfg": false,
      "metar_trigger": false,
      "taf_trigger": false,
      "metar": "METAR UDSG 102300Z 20002KT 9999 BKN043CB 07/06 Q1021 NOSIG",
      "taf": "TAF UDSG 102258Z 1100/1124 VRB06KT 9999 SCT050"
    },
    {
      "icao": "UDYZ",
      "alert": "OK",
      "vis_m": 9999,
      "fzfg": false,
      "metar_trigger": false,
      "taf_trigger": false,
      "metar": "METAR UDYZ 102300Z 07002KT 9999 NSC 15/08 Q1017 NOSIG",
      "taf": "TAF UDYZ 102300Z 1100/1124 16006KT 9999 FEW040"
    },
    {
      "icao": "UGKO",
      "alert": "OK",
      "vis_m": 9999,
      "fzfg": false,
      "metar_trigger": false,
      "taf_trigger": false,
      "metar": "METAR UGKO 102300Z VRB02KT CAVOK 15/12 Q1013 NOSIG",
      "taf": "TAF UGKO 102300Z 1100/1124 08008KT CAVOK TX29/1112Z TN13/1102Z"
    }
  ]
}