{
  "ts_utc": "2026-02-18T22:50:45Z",
  "threshold_m": 150,
  "source": "stations_override.txt (ICAO list) + aviationweather.gov (METAR/TAF raw)",
  "station_count": 159,
  "stations": [
    {
      "icao": "BIKF",
      "alert": "OK",
      "vis_m": 9999,
      "fzfg": false,
      "metar_trigger": false,
      "taf_trigger": false,
      "metar": "METAR BIKF 182230Z 03017KT CAVOK M04/M11 Q1011",
      "taf": "TAF BIKF 182239Z 1900/2000 04022G32KT 9999 FEW040 TX00/1915Z TNM04/1900Z"
    },
    {
      "icao": "BKPR",
      "alert": "OK",
      "vis_m": 9999,
      "fzfg": false,
      "metar_trigger": false,
      "taf_trigger": false,
      "metar": "METAR BKPR 182230Z 32002KT CAVOK M02/M04 Q1016 NOSIG",
      "taf": "TAF BKPR 181730Z 1818/1918 20005KT CAVOK"
    },
    {
      "icao": "EBCI",
      "alert": "OK",
      "vis_m": 9999,
      "fzfg": false,
      "metar_trigger": false,
      "taf_trigger": false,
      "metar": "METAR EBCI 182220Z 12011KT 9999 -RA SCT012 BKN022 BKN032 03/02 Q0997 TEMPO 3500 RADZ BKN012",
      "taf": "TAF EBCI 181702Z 1818/1924 11010KT 9999 FEW020 SCT030"
    },
    {
      "icao": "EDDB",
      "alert": "OK",
      "vis_m": 9999,
      "fzfg": false,
      "metar_trigger": false,
      "taf_trigger": false,
      "metar": "METAR EDDB 182220Z AUTO 10003KT CAVOK M08/M09 Q1014 NOSIG",
      "taf": "TAF EDDB 181700Z 1818/1918 34005KT 9999 SCT020"
    },
    {
      "icao": "EDDH",
      "alert": "OK",
      "vis_m": 9999,
      "fzfg": false,
      "metar_trigger": false,
      "taf_trigger": false,
      "metar": "METAR EDDH 182220Z AUTO 10005KT CAVOK M05/M08 Q1013 NOSIG",
      "taf": "TAF EDDH 181700Z 1818/1924 10004KT CAVOK"
    },
    {
      "icao": "EDDK",
      "alert": "OK",
      "vis_m": 9999,
      "fzfg": false,
      "metar_trigger": false,
      "taf_trigger": false,
      "metar": "METAR EDDK 182220Z AUTO 12011KT 080V160 9999 VCSH FEW039 FEW///CB 04/M03 Q1003 TEMPO RA",
      "taf": "TAF EDDK 181700Z 1818/1924 12012KT 9999 SCT015 BKN025"
    },
    {
      "icao": "EDDN",
      "alert": "OK",
      "vis_m": 9999,
      "fzfg": false,
      "metar_trigger": false,
      "taf_trigger": false,
      "metar": "METAR EDDN 182220Z AUTO 10008KT CAVOK 00/M04 Q1007",
      "taf": "TAF EDDN 181700Z 1818/1918 09007KT CAVOK"
    },
    {
      "icao": "EDDS",
      "alert": "OK",
      "vis_m": 9999,
      "fzfg": false,
      "metar_trigger": false,
      "taf_trigger": false,
      "metar": "METAR EDDS 182220Z AUTO 09007KT 060V140 9999 SHRA FEW007 BKN019 BKN026 FEW///CB 02/01 Q1003",
      "taf": "TAF EDDS 181700Z 1818/1918 15005KT 9999 FEW010 BKN020"
    },
    {
      "icao": "EDFH",
      "alert": "OK",
      "vis_m": 1200,
      "fzfg": false,
      "metar_trigger": false,
      "taf_trigger": false,
      "metar": "METAR EDFH 182220Z 13021KT 1200 R21/1400U SN SCT001 OVC004 M01/M01 Q1001",
      "taf": ""
    },
    {
      "icao": "EDJA",
      "alert": "OK",
      "vis_m": 5000,
      "fzfg": false,
      "metar_trigger": false,
      "taf_trigger": false,
      "metar": "METAR EDJA 182220Z AUTO 06007KT 5000 // FEW012/// OVC036/// 01/M00 Q1004",
      "taf": "TAF EDJA 181700Z 1818/1903 08006KT 4000 -SN BR SCT002 BKN006 OVC013"
    },
    {
      "icao": "EDLW",
      "alert": "OK",
      "vis_m": 9999,
      "fzfg": false,
      "metar_trigger": false,
      "taf_trigger": false,
      "metar": "METAR EDLW 182220Z AUTO 04011KT 9999 // BKN130/// M00/M02 Q1005",
      "taf": "TAF EDLW 181700Z 1818/1918 08012KT 9999 SCT015 BKN025"
    },
    {
      "icao": "EDNY",
      "alert": "OK",
      "vis_m": 9999,
      "fzfg": false,
      "metar_trigger": false,
      "taf_trigger": false,
      "metar": "METAR EDNY 182220Z AUTO 04006KT 010V070 9999 // FEW084/// OVC130/// 02/02 Q1003",
      "taf": "TAF EDNY 181700Z 1818/1903 04006KT 9999 FEW013 OVC045"
    },
    {
      "icao": "EDSB",
      "alert": "OK",
      "vis_m": 9999,
      "fzfg": false,
      "metar_trigger": false,
      "taf_trigger": false,
      "metar": "METAR EDSB 182220Z AUTO 01006KT 9999 // SCT033/// BKN038/// OVC049/// 04/03 Q1002",
      "taf": "TAF EDSB 181700Z 1818/1918 03006KT 9999 SCT020 BKN035"
    },
    {
      "icao": "EETN",
      "alert": "OK",
      "vis_m": 9999,
      "fzfg": false,
      "metar_trigger": false,
      "taf_trigger": false,
      "metar": "METAR EETN 182250Z 12006KT 9999 -SN SCT042 M10/M14 Q1011",
      "taf": "TAF EETN 181730Z 1818/1918 12010KT CAVOK"
    },
    {
      "icao": "EFTU",
      "alert": "OK",
      "vis_m": 9999,
      "fzfg": false,
      "metar_trigger": false,
      "taf_trigger": false,
      "metar": "METAR EFTU 182220Z AUTO 10005KT CAVOK M11/M13 Q1011",
      "taf": "TAF EFTU 182029Z 1821/1921 10007KT CAVOK"
    },
    {
      "icao": "EGBB",
      "alert": "OK",
      "vis_m": 4500,
      "fzfg": false,
      "metar_trigger": false,
      "taf_trigger": false,
      "metar": "METAR EGBB 182220Z 07009KT 4500 RA OVC006 02/01 Q0993",
      "taf": "TAF EGBB 181658Z 1818/1918 10013KT 9999 SCT025"
    },
    {
      "icao": "EGGP",
      "alert": "OK",
      "vis_m": 6000,
      "fzfg": false,
      "metar_trigger": false,
      "taf_trigger": false,
      "metar": "METAR EGGP 182220Z 08013KT 6000 -RASN BKN016 OVC022 02/00 Q0996",
      "taf": "TAF EGGP 181705Z 1818/1918 11012KT 9999 FEW015 SCT025"
    },
    {
      "icao": "EGGW",
      "alert": "OK",
      "vis_m": 7000,
      "fzfg": false,
      "metar_trigger": false,
      "taf_trigger": false,
      "metar": "METAR EGGW 182220Z AUTO 11015KT 070V130 7000 -RA OVC006 03/02 Q0992",
      "taf": "TAF EGGW 181657Z 1818/1918 11017G27KT 9999 BKN020"
    },
    {
      "icao": "EGKK",
      "alert": "OK",
      "vis_m": 9999,
      "fzfg": false,
      "metar_trigger": false,
      "taf_trigger": false,
      "metar": "METAR EGKK 182220Z 09011KT 9999 -RA BKN006 06/05 Q0990",
      "taf": "TAF EGKK 181702Z 1818/1924 10012KT 9999 BKN010"
    },
    {
      "icao": "EGNM",
      "alert": "OK",
      "vis_m": 9999,
      "fzfg": false,
      "metar_trigger": false,
      "taf_trigger": false,
      "metar": "METAR EGNM 182220Z 09016G26KT 9999 -DZ SCT014 BKN020 02/M00 Q0997",
      "taf": ""
    },
    {
      "icao": "EGPD",
      "alert": "OK",
      "vis_m": 9999,
      "fzfg": false,
      "metar_trigger": false,
      "taf_trigger": false,
      "metar": "METAR EGPD 182220Z COR AUTO 15013KT 9999 BKN028 03/M01 Q1004 NOSIG",
      "taf": "TAF EGPD 181656Z 1818/1918 14012KT 9999 SCT040"
    },
    {
      "icao": "EGPF",
      "alert": "OK",
      "vis_m": 9999,
      "fzfg": false,
      "metar_trigger": false,
      "taf_trigger": false,
      "metar": "METAR EGPF 182220Z AUTO 07013KT 9999 NCD 03/M02 Q1000",
      "taf": "TAF EGPF 181700Z 1818/1918 09009KT 9999 SCT040"
    },
    {
      "icao": "EHBK",
      "alert": "OK",
      "vis_m": 3500,
      "fzfg": false,
      "metar_trigger": false,
      "taf_trigger": false,
      "metar": "METAR EHBK 182225Z AUTO 10015KT 060V120 3500 SNRA FEW029 SCT034 OVC038 01/M00 Q1000",
      "taf": "TAF EHBK 181720Z 1818/1924 09012KT CAVOK"
    },
    {
      "icao": "EHEH",
      "alert": "OK",
      "vis_m": 9999,
      "fzfg": false,
      "metar_trigger": false,
      "taf_trigger": false,
      "metar": "METAR EHEH 182225Z AUTO 08010KT 050V120 9999 FEW091 OVC100 03/M02 Q1001 BLU RMK TREND REMOTE BY EHWX",
      "taf": ""
    },
    {
      "icao": "EKBI",
      "alert": "OK",
      "vis_m": 5000,
      "fzfg": false,
      "metar_trigger": false,
      "taf_trigger": false,
      "metar": "METAR EKBI 182247Z 10002KT 5000 R09/0550D R27/P1500D BCFG SKC M11/M12 Q1013",
      "taf": "TAF EKBI 182027Z 1821/1921 20004KT CAVOK"
    },
    {
      "icao": "EKCH",
      "alert": "OK",
      "vis_m": 9999,
      "fzfg": false,
      "metar_trigger": false,
      "taf_trigger": false,
      "metar": "METAR EKCH 182220Z AUTO 23006KT 9999 BKN051/// M03/M05 Q1012 NOSIG",
      "taf": "TAF EKCH 182027Z 1821/1921 25007KT 9999 SCT020"
    },
    {
      "icao": "ENAL",
      "alert": "OK",
      "vis_m": 9999,
      "fzfg": false,
      "metar_trigger": false,
      "taf_trigger": false,
      "metar": "METAR ENAL 182220Z 15012KT 9999 -SN FEW017 BKN021 00/M01 Q1009",
      "taf": ""
    },
    {
      "icao": "ENBR",
      "alert": "OK",
      "vis_m": 9999,
      "fzfg": false,
      "metar_trigger": false,
      "taf_trigger": false,
      "metar": "METAR ENBR 182220Z 11006KT 9999 SCT038 M01/M04 Q1011 RMK WIND 1200FT 14013KT",
      "taf": "TAF ENBR 181700Z 1818/1918 11005KT 9999 FEW020 SCT040"
    },
    {
      "icao": "ENGM",
      "alert": "OK",
      "vis_m": 9999,
      "fzfg": false,
      "metar_trigger": false,
      "taf_trigger": false,
      "metar": "METAR ENGM 182220Z VRB02KT 9999 SCT003 BKN005 M17/M19 Q1011",
      "taf": ""
    },
    {
      "icao": "ENHD",
      "alert": "OK",
      "vis_m": 9999,
      "fzfg": false,
      "metar_trigger": false,
      "taf_trigger": false,
      "metar": "METAR ENHD 182220Z AUTO 11010KT 9999 NCD M02/M02 Q1011",
      "taf": "TAF ENHD 181400Z 1815/1823 10005KT 9999 FEW012 SCT025"
    },
    {
      "icao": "ENTC",
      "alert": "OK",
      "vis_m": 9999,
      "fzfg": false,
      "metar_trigger": false,
      "taf_trigger": false,
      "metar": "METAR ENTC 182220Z 22008KT 9999 -SHSN BKN010 M05/M06 Q1007 RMK WIND 2600FT 12008KT",
      "taf": ""
    },
    {
      "icao": "ENTO",
      "alert": "OK",
      "vis_m": 9999,
      "fzfg": false,
      "metar_trigger": false,
      "taf_trigger": false,
      "metar": "METAR ENTO 182220Z AUTO 33005KT 9999 NCD M11/M12 Q1012",
      "taf": ""
    },
    {
      "icao": "ENVA",
      "alert": "OK",
      "vis_m": 9999,
      "fzfg": false,
      "metar_trigger": false,
      "taf_trigger": false,
      "metar": "METAR ENVA 182220Z 09006KT 9999 FEW051 M06/M07 Q1009 RMK WIND 670FT 18009KT",
      "taf": ""
    },
    {
      "icao": "ENZV",
      "alert": "OK",
      "vis_m": 9999,
      "fzfg": false,
      "metar_trigger": false,
      "taf_trigger": false,
      "metar": "METAR ENZV 182220Z 12004KT 080V140 CAVOK M04/M04 Q1012",
      "taf": ""
    },
    {
      "icao": "EPGD",
      "alert": "OK",
      "vis_m": 9999,
      "fzfg": false,
      "metar_trigger": false,
      "taf_trigger": false,
      "metar": "METAR EPGD 182230Z 24005KT 9999 BKN029 M06/M09 Q1011",
      "taf": "TAF EPGD 181730Z 1818/1918 27010KT 9999 SCT037"
    },
    {
      "icao": "EPKK",
      "alert": "OK",
      "vis_m": 9999,
      "fzfg": false,
      "metar_trigger": false,
      "taf_trigger": false,
      "metar": "METAR EPKK 182230Z 25004KT 9999 OVC026 M00/M03 Q1012",
      "taf": "TAF EPKK 182030Z 1821/1921 29005KT 9999 BKN020"
    },
    {
      "icao": "EPKT",
      "alert": "OK",
      "vis_m": 8000,
      "fzfg": false,
      "metar_trigger": false,
      "taf_trigger": false,
      "metar": "METAR EPKT 182230Z 33007KT 8000 OVC014 M03/M06 Q1012",
      "taf": "TAF EPKT 181730Z 1818/1918 33007KT 9999 BKN035"
    },
    {
      "icao": "EPLB",
      "alert": "OK",
      "vis_m": 6000,
      "fzfg": false,
      "metar_trigger": false,
      "taf_trigger": false,
      "metar": "METAR EPLB 182230Z 31009KT 6000 BKN012 OVC015 M04/M06 Q1012",
      "taf": ""
    },
    {
      "icao": "EPMO",
      "alert": "OK",
      "vis_m": 5000,
      "fzfg": false,
      "metar_trigger": false,
      "taf_trigger": false,
      "metar": "METAR EPMO 182230Z 24006KT 5000 -SN BR OVC043 M05/M06 Q1013",
      "taf": ""
    },
    {
      "icao": "EPPO",
      "alert": "OK",
      "vis_m": 9999,
      "fzfg": false,
      "metar_trigger": false,
      "taf_trigger": false,
      "metar": "METAR EPPO 182230Z 28003KT CAVOK M06/M10 Q1014",
      "taf": "TAF EPPO 181730Z 1818/1918 30006KT 9999 BKN040"
    },
    {
      "icao": "EPRA",
      "alert": "OK",
      "vis_m": 7000,
      "fzfg": false,
      "metar_trigger": false,
      "taf_trigger": false,
      "metar": "METAR EPRA 182230Z 30004KT 270V330 7000 NSC M05/M07 Q1013",
      "taf": "TAF EPRA 182030Z 1821/1906 30005KT 8000 SCT035"
    },
    {
      "icao": "EPRZ",
      "alert": "OK",
      "vis_m": 6000,
      "fzfg": false,
      "metar_trigger": false,
      "taf_trigger": false,
      "metar": "METAR EPRZ 182230Z 34006KT 6000 BKN009 OVC012 M01/M03 Q1012",
      "taf": "TAF EPRZ 181730Z 1818/1918 29005KT 9999 BKN030"
    },
    {
      "icao": "EPSC",
      "alert": "OK",
      "vis_m": 9999,
      "fzfg": false,
      "metar_trigger": false,
      "taf_trigger": false,
      "metar": "METAR EPSC 182230Z 13003KT 050V170 9999 BKN030 M05/M08 Q1014",
      "taf": "TAF EPSC 181730Z 1818/1918 VRB04KT 7000 SCT017 BKN030"
    },
    {
      "icao": "EPSY",
      "alert": "OK",
      "vis_m": 7000,
      "fzfg": false,
      "metar_trigger": false,
      "taf_trigger": false,
      "metar": "METAR EPSY 182230Z 24003KT 7000 SCT040 M09/M11 Q1011",
      "taf": ""
    },
    {
      "icao": "EPWA",
      "alert": "OK",
      "vis_m": 5000,
      "fzfg": false,
      "metar_trigger": false,
      "taf_trigger": false,
      "metar": "METAR EPWA 182230Z 26004KT 5000 -SN BR BKN043 M06/M07 Q1013 TEMPO 3000 BR",
      "taf": "TAF EPWA 182030Z 1821/1921 27004KT 6000 SCT025"
    },
    {
      "icao": "EPWR",
      "alert": "OK",
      "vis_m": 6000,
      "fzfg": false,
      "metar_trigger": false,
      "taf_trigger": false,
      "metar": "METAR EPWR 182230Z 26002KT 6000 FEW034 BKN040 M03/M04 Q1014",
      "taf": "TAF EPWR 182030Z 1821/1921 VRB02KT 5000 BR OVC030"
    },
    {
      "icao": "ESGG",
      "alert": "OK",
      "vis_m": 9999,
      "fzfg": false,
      "metar_trigger": false,
      "taf_trigger": false,
      "metar": "METAR ESGG 182220Z 05002KT 9999 BKN019 M06/M07 Q1011",
      "taf": "TAF ESGG 182030Z 1821/1921 VRB03KT 9999 OVC018"
    },
    {
      "icao": "ESKN",
      "alert": "OK",
      "vis_m": 9999,
      "fzfg": false,
      "metar_trigger": false,
      "taf_trigger": false,
      "metar": "METAR ESKN 182220Z 29005KT 9999 FEW026 SCT080 M13/M14 Q1010",
      "taf": "TAF ESKN 182030Z 1821/1921 34005KT 9999 BKN030"
    },
    {
      "icao": "ESMS",
      "alert": "OK",
      "vis_m": 9999,
      "fzfg": false,
      "metar_trigger": false,
      "taf_trigger": false,
      "metar": "METAR ESMS 182220Z 21005KT CAVOK M05/M06 Q1011",
      "taf": "TAF ESMS 182027Z 1821/1921 26006KT 9999 BKN020"
    },
    {
      "icao": "ESSA",
      "alert": "OK",
      "vis_m": 9999,
      "fzfg": false,
      "metar_trigger": false,
      "taf_trigger": false,
      "metar": "METAR ESSA 182220Z 02003KT CAVOK M11/M13 Q1010 NOSIG",
      "taf": "TAF ESSA 182030Z 1821/1921 35005KT 9999 SCT018 BKN035"
    },
    {
      "icao": "EYKA",
      "alert": "OK",
      "vis_m": 4800,
      "fzfg": false,
      "metar_trigger": false,
      "taf_trigger": false,
      "metar": "METAR EYKA 182250Z AUTO 18003KT 4800 BR FEW005/// M08/M08 Q1010",
      "taf": ""
    },
    {
      "icao": "EYPA",
      "alert": "OK",
      "vis_m": 7000,
      "fzfg": false,
      "metar_trigger": false,
      "taf_trigger": false,
      "metar": "METAR EYPA 182220Z COR 14002KT 7000 FEW016 M08/M09 Q1008",
      "taf": "TAF EYPA 181707Z 1818/1918 VRB05KT 8000 SCT015 BKN025"
    },
    {
      "icao": "EYVI",
      "alert": "OK",
      "vis_m": 9999,
      "fzfg": false,
      "metar_trigger": false,
      "taf_trigger": false,
      "metar": "METAR EYVI 182220Z 18005KT 9999 -SN OVC009 M08/M12 Q1009 NOSIG",
      "taf": "TAF EYVI 181707Z 1818/1918 17010KT 8000 OVC015"
    },
    {
      "icao": "GCFV",
      "alert": "OK",
      "vis_m": 9999,
      "fzfg": false,
      "metar_trigger": false,
      "taf_trigger": false,
      "metar": "METAR GCFV 182230Z 02018KT 9999 SCT020 17/12 Q1024",
      "taf": "TAF GCFV 182000Z 1821/1921 03015KT 9999 FEW020 TX19/1914Z TN16/1906Z"
    },
    {
      "icao": "GCLP",
      "alert": "OK",
      "vis_m": 9999,
      "fzfg": false,
      "metar_trigger": false,
      "taf_trigger": false,
      "metar": "METAR GCLP 182230Z 01018KT 9999 BKN020 17/12 Q1024 NOSIG",
      "taf": "TAF GCLP 182000Z 1821/1921 02018KT 9999 FEW025 TX20/1914Z TN14/1906Z"
    },
    {
      "icao": "GCTS",
      "alert": "OK",
      "vis_m": 9999,
      "fzfg": false,
      "metar_trigger": false,
      "taf_trigger": false,
      "metar": "METAR GCTS 182230Z 06017KT CAVOK 16/12 Q1023 NOSIG",
      "taf": "TAF GCTS 182000Z 1821/1921 08020KT CAVOK TX24/1914Z TN16/1906Z"
    },
    {
      "icao": "GMAD",
      "alert": "OK",
      "vis_m": 6000,
      "fzfg": false,
      "metar_trigger": false,
      "taf_trigger": false,
      "metar": "METAR GMAD 182230Z 00000KT 6000 SCT003 11/10 Q1022 NOSIG",
      "taf": "TAF GMAD 181700Z 1818/1924 21005KT CAVOK"
    },
    {
      "icao": "GMMN",
      "alert": "OK",
      "vis_m": 9999,
      "fzfg": false,
      "metar_trigger": false,
      "taf_trigger": false,
      "metar": "METAR GMMN 182230Z 01007KT 9999 BKN016 11/09 Q1026 NOSIG",
      "taf": "TAF GMMN 181700Z 1818/1924 02007KT 9999 FEW016"
    },
    {
      "icao": "GMMX",
      "alert": "OK",
      "vis_m": 8000,
      "fzfg": false,
      "metar_trigger": false,
      "taf_trigger": false,
      "metar": "METAR GMMX 182230Z 26004KT 8000 NSC 11/09 Q1024 NOSIG",
      "taf": ""
    },
    {
      "icao": "HEGN",
      "alert": "OK",
      "vis_m": 9999,
      "fzfg": false,
      "metar_trigger": false,
      "taf_trigger": false,
      "metar": "METAR HEGN 182200Z 33017KT CAVOK 20/08 Q1017 NOSIG",
      "taf": ""
    },
    {
      "icao": "HEMA",
      "alert": "OK",
      "vis_m": 9999,
      "fzfg": false,
      "metar_trigger": false,
      "taf_trigger": false,
      "metar": "METAR HEMA 182200Z 31010KT CAVOK 20/09 Q1015 NOSIG",
      "taf": ""
    },
    {
      "icao": "HESH",
      "alert": "OK",
      "vis_m": 9999,
      "fzfg": false,
      "metar_trigger": false,
      "taf_trigger": false,
      "metar": "METAR HESH 182200Z 35011KT CAVOK 21/10 Q1015 NOSIG",
      "taf": ""
    },
    {
      "icao": "HESX",
      "alert": "OK",
      "vis_m": 9999,
      "fzfg": false,
      "metar_trigger": false,
      "taf_trigger": false,
      "metar": "METAR HESX 182200Z 31005KT CAVOK 11/06 Q1020 NOSIG",
      "taf": ""
    },
    {
      "icao": "LATI",
      "alert": "OK",
      "vis_m": 9999,
      "fzfg": false,
      "metar_trigger": false,
      "taf_trigger": false,
      "metar": "METAR LATI 182250Z 19004KT 150V210 CAVOK 04/M00 Q1019 NOSIG",
      "taf": "TAF LATI 181700Z 1818/1918 VRB04KT CAVOK TX16/1912Z TN03/1903Z"
    },
    {
      "icao": "LBPD",
      "alert": "OK",
      "vis_m": 9999,
      "fzfg": false,
      "metar_trigger": false,
      "taf_trigger": false,
      "metar": "METAR LBPD 182230Z AUTO 28007KT 9999 NCD 04/M05 Q1016",
      "taf": "TAF LBPD 181700Z 1818/1918 29016KT CAVOK"
    },
    {
      "icao": "LBSF",
      "alert": "OK",
      "vis_m": 9999,
      "fzfg": false,
      "metar_trigger": false,
      "taf_trigger": false,
      "metar": "METAR LBSF 182230Z AUTO 36006KT 9999 NCD 00/M04 Q1016 NOSIG",
      "taf": "TAF LBSF 181700Z 1818/1918 28012KT 9999 SCT025 BKN040"
    },
    {
      "icao": "LBWN",
      "alert": "OK",
      "vis_m": 8000,
      "fzfg": false,
      "metar_trigger": false,
      "taf_trigger": false,
      "metar": "METAR LBWN 182230Z AUTO VRB02KT 8000 NSC M01/M01 Q1013 NOSIG",
      "taf": "TAF LBWN 181700Z 1818/1918 VRB03KT 8000 SCT015 OVC030"
    },
    {
      "icao": "LCLK",
      "alert": "OK",
      "vis_m": 9999,
      "fzfg": false,
      "metar_trigger": false,
      "taf_trigger": false,
      "metar": "METAR LCLK 182230Z 20008KT 9999 FEW030 11/08 Q1014 NOSIG",
      "taf": "TAF LCLK 181730Z 1818/1918 24014KT 9999 FEW025"
    },
    {
      "icao": "LCPH",
      "alert": "OK",
      "vis_m": 9999,
      "fzfg": false,
      "metar_trigger": false,
      "taf_trigger": false,
      "metar": "METAR LCPH 182230Z 31022KT 9999 SCT040 15/07 Q1015 NOSIG",
      "taf": "TAF LCPH 181730Z 1818/1918 26026KT 8000 SCT020 FEW025TCU BKN035"
    },
    {
      "icao": "LEAL",
      "alert": "OK",
      "vis_m": 9999,
      "fzfg": false,
      "metar_trigger": false,
      "taf_trigger": false,
      "metar": "METAR LEAL 182230Z 26011KT CAVOK 17/06 Q1014 NOSIG",
      "taf": "TAF LEAL 181700Z 1818/1918 23007KT 9999 FEW030 TX19/1913Z TN12/1906Z"
    },
    {
      "icao": "LEBB",
      "alert": "OK",
      "vis_m": 9999,
      "fzfg": false,
      "metar_trigger": false,
      "taf_trigger": false,
      "metar": "METAR LEBB 182230Z 27016G30KT 230V300 9999 SCT048 BKN070 12/04 Q1011 TEMPO 3000 RA",
      "taf": "TAF LEBB 181700Z 1818/1918 28009KT 9999 FEW010 BKN045 TX12/1818Z TN06/1906Z"
    },
    {
      "icao": "LEBL",
      "alert": "OK",
      "vis_m": 9999,
      "fzfg": false,
      "metar_trigger": false,
      "taf_trigger": false,
      "metar": "METAR LEBL 182230Z 23011KT 9999 FEW010 12/12 Q1007 NOSIG",
      "taf": "TAF LEBL 181700Z 1818/1918 23012KT 9999 FEW015 TX18/1913Z TN11/1906Z"
    },
    {
      "icao": "LECH",
      "alert": "OK",
      "vis_m": 8000,
      "fzfg": false,
      "metar_trigger": false,
      "taf_trigger": false,
      "metar": "METAR LECH 182230Z AUTO 20009KT 170V230 8000 NCD 12/04 Q1010",
      "taf": ""
    },
    {
      "icao": "LEMD",
      "alert": "OK",
      "vis_m": 9999,
      "fzfg": false,
      "metar_trigger": false,
      "taf_trigger": false,
      "metar": "METAR LEMD 182230Z 27009KT 250V310 9999 FEW060 09/03 Q1014 NOSIG",
      "taf": "TAF LEMD 181700Z 1818/1924 22012KT 9999 FEW012 BKN025 TX13/1915Z TN03/1906Z"
    },
    {
      "icao": "LEMG",
      "alert": "OK",
      "vis_m": 9999,
      "fzfg": false,
      "metar_trigger": false,
      "taf_trigger": false,
      "metar": "METAR LEMG 182230Z 32009KT 9999 FEW047 14/07 Q1020 NOSIG",
      "taf": "TAF LEMG 181700Z 1818/1918 31015KT CAVOK TX18/1914Z TN11/1907Z"
    },
    {
      "icao": "LEVC",
      "alert": "OK",
      "vis_m": 9999,
      "fzfg": false,
      "metar_trigger": false,
      "taf_trigger": false,
      "metar": "METAR LEVC 182230Z 25016KT 220V280 9999 BKN048 16/06 Q1011 NOSIG",
      "taf": "TAF LEVC 181700Z 1818/1918 27013KT 9999 FEW030 TX20/1914Z TN12/1906Z"
    },
    {
      "icao": "LEXJ",
      "alert": "OK",
      "vis_m": 9999,
      "fzfg": false,
      "metar_trigger": false,
      "taf_trigger": false,
      "metar": "METAR LEXJ 182230Z AUTO 31035G51KT 270V350 9999 1300E FEW035 SCT050 09/04 Q1012",
      "taf": "TAF LEXJ 182000Z 1821/1921 28009KT 9999 SCT030 TX12/1915Z TN07/1904Z"
    },
    {
      "icao": "LEZG",
      "alert": "OK",
      "vis_m": 9999,
      "fzfg": false,
      "metar_trigger": false,
      "taf_trigger": false,
      "metar": "METAR LEZG 182230Z 25022KT CAVOK 13/04 Q1009 NOSIG",
      "taf": "TAF LEZG 181700Z 1818/1918 25009KT 9999 FEW040 TX14/1914Z TN07/1906Z"
    },
    {
      "icao": "LEZL",
      "alert": "OK",
      "vis_m": 9999,
      "fzfg": false,
      "metar_trigger": false,
      "taf_trigger": false,
      "metar": "METAR LEZL 182230Z 25010KT 9999 SCT014 14/13 Q1022 NOSIG",
      "taf": ""
    },
    {
      "icao": "LFBD",
      "alert": "OK",
      "vis_m": 9999,
      "fzfg": false,
      "metar_trigger": false,
      "taf_trigger": false,
      "metar": "METAR LFBD 182230Z AUTO 26020KT 9999 BKN038/// BKN047/// OVC062/// ///TCU 11/06 Q1003 TEMPO 29020G45KT 1500 TSRA BKN014 BKN020CB",
      "taf": "TAF LFBD 181700Z 1818/1924 26015G30KT 9999 BKN030 TX12/1912Z TN08/1903Z"
    },
    {
      "icao": "LFLL",
      "alert": "OK",
      "vis_m": 9999,
      "fzfg": false,
      "metar_trigger": false,
      "taf_trigger": false,
      "metar": "METAR LFLL 182230Z 20018KT 9999 -RA FEW043CB SCT056 BKN100 12/06 Q1001 TEMPO 22025G40KT 2000 +RA FEW045CB BKN060TCU",
      "taf": "TAF LFLL 181700Z 1818/1924 19012KT CAVOK"
    },
    {
      "icao": "LFLS",
      "alert": "OK",
      "vis_m": 9999,
      "fzfg": false,
      "metar_trigger": false,
      "taf_trigger": false,
      "metar": "METAR LFLS 182230Z AUTO 29004KT 240V330 9999 OVC052/// ///TCU 09/06 Q1002",
      "taf": "TAF LFLS 181400Z 1815/1915 22008KT CAVOK"
    },
    {
      "icao": "LFMN",
      "alert": "OK",
      "vis_m": 9999,
      "fzfg": false,
      "metar_trigger": false,
      "taf_trigger": false,
      "metar": "METAR LFMN 182230Z 33008KT 9999 -RA BKN033 11/06 Q1008 NOSIG",
      "taf": "TAF LFMN 182000Z 1821/2003 34010KT 9999 BKN030"
    },
    {
      "icao": "LFOB",
      "alert": "OK",
      "vis_m": 4400,
      "fzfg": false,
      "metar_trigger": false,
      "taf_trigger": false,
      "metar": "METAR LFOB 182230Z AUTO 09006KT 4400 BR OVC002 07/07 Q0992 TEMPO RADZ BKN007 BECMG 16010KT",
      "taf": "TAF LFOB 181700Z 1818/1918 12012KT 9999 OVC007"
    },
    {
      "icao": "LFPO",
      "alert": "OK",
      "vis_m": 9999,
      "fzfg": false,
      "metar_trigger": false,
      "taf_trigger": false,
      "metar": "METAR LFPO 182230Z 18009KT 9999 SCT033 BKN066 OVC200 09/08 Q0993 TEMPO 4000 -SHRA BKN012TCU",
      "taf": "TAF LFPO 181700Z 1818/1924 17010KT 9999 BKN020"
    },
    {
      "icao": "LFSB",
      "alert": "OK",
      "vis_m": 9999,
      "fzfg": false,
      "metar_trigger": false,
      "taf_trigger": false,
      "metar": "METAR LFSB 182230Z AUTO 11010KT CAVOK 04/02 Q1002 TEMPO 4000 -DZ BKN010",
      "taf": "TAF LFSB 181700Z 1818/1918 13007KT 9999 SCT025 BKN050"
    },
    {
      "icao": "LGAV",
      "alert": "OK",
      "vis_m": 9999,
      "fzfg": false,
      "metar_trigger": false,
      "taf_trigger": false,
      "metar": "METAR LGAV 182220Z 34006KT 9999 FEW025 05/00 Q1019 NOSIG",
      "taf": "TAF LGAV 181700Z 1818/1918 VRB05KT 9999 FEW025"
    },
    {
      "icao": "LGTS",
      "alert": "OK",
      "vis_m": 9999,
      "fzfg": false,
      "metar_trigger": false,
      "taf_trigger": false,
      "metar": "METAR LGTS 182150Z 32005KT 9999 FEW020 09/M02 Q1018 NOSIG",
      "taf": "TAF LGTS 181700Z 1818/1918 34015G25KT 9999 FEW030"
    },
    {
      "icao": "LHBP",
      "alert": "OK",
      "vis_m": 9999,
      "fzfg": false,
      "metar_trigger": false,
      "taf_trigger": false,
      "metar": "METAR LHBP 182230Z VRB01KT CAVOK M01/M03 Q1013 NOSIG",
      "taf": "TAF LHBP 181715Z 1818/1918 28007KT CAVOK"
    },
    {
      "icao": "LHDC",
      "alert": "OK",
      "vis_m": 9999,
      "fzfg": false,
      "metar_trigger": false,
      "taf_trigger": false,
      "metar": "METAR LHDC 182215Z AUTO 21004KT CAVOK M01/M03 Q1013",
      "taf": "TAF LHDC 181415Z 1815/1824 24006KT CAVOK"
    },
    {
      "icao": "LIBD",
      "alert": "OK",
      "vis_m": 9999,
      "fzfg": false,
      "metar_trigger": false,
      "taf_trigger": false,
      "metar": "METAR LIBD 182220Z 15002KT CAVOK 06/03 Q1016",
      "taf": "TAF LIBD 181700Z 1818/1918 17008KT CAVOK"
    },
    {
      "icao": "LIBG",
      "alert": "OK",
      "vis_m": null,
      "fzfg": false,
      "metar_trigger": false,
      "taf_trigger": false,
      "metar": "",
      "taf": "TAF LIBG 181700Z 1818/1903 VRB05KT CAVOK"
    },
    {
      "icao": "LIBP",
      "alert": "OK",
      "vis_m": 9999,
      "fzfg": false,
      "metar_trigger": false,
      "taf_trigger": false,
      "metar": "METAR LIBP 182220Z AUTO 31003KT 270V360 9999 NCD 06/02 Q1013",
      "taf": "TAF LIBP 181700Z 1818/1918 21005KT CAVOK"
    },
    {
      "icao": "LIBR",
      "alert": "OK",
      "vis_m": 9999,
      "fzfg": false,
      "metar_trigger": false,
      "taf_trigger": false,
      "metar": "METAR LIBR 182220Z 18008KT CAVOK 08/04 Q1017",
      "taf": "TAF LIBR 181700Z 1818/1918 16008KT CAVOK"
    },
    {
      "icao": "LICA",
      "alert": "OK",
      "vis_m": 9999,
      "fzfg": false,
      "metar_trigger": false,
      "taf_trigger": false,
      "metar": "METAR LICA 182220Z AUTO 11003KT 070V140 9999 BKN033/// 09/07 Q1018",
      "taf": "TAF LICA 181700Z 1818/1918 VRB06KT 9999 FEW025"
    },
    {
      "icao": "LICC",
      "alert": "OK",
      "vis_m": 9999,
      "fzfg": false,
      "metar_trigger": false,
      "taf_trigger": false,
      "metar": "METAR LICC 182220Z 23005KT CAVOK 09/05 Q1019",
      "taf": "TAF LICC 181700Z 1818/1918 26010KT CAVOK"
    },
    {
      "icao": "LICJ",
      "alert": "OK",
      "vis_m": 9999,
      "fzfg": false,
      "metar_trigger": false,
      "taf_trigger": false,
      "metar": "METAR LICJ 182220Z 19014KT CAVOK 14/09 Q1017",
      "taf": "TAF LICJ 181700Z 1818/1918 26010KT 9999 SCT035"
    },
    {
      "icao": "LIMC",
      "alert": "OK",
      "vis_m": 9999,
      "fzfg": false,
      "metar_trigger": false,
      "taf_trigger": false,
      "metar": "METAR LIMC 182220Z 05003KT 9999 BKN065 06/01 Q1009 NOSIG",
      "taf": "TAF LIMC 181700Z 1818/1924 VRB05KT CAVOK"
    },
    {
      "icao": "LIME",
      "alert": "OK",
      "vis_m": 9999,
      "fzfg": false,
      "metar_trigger": false,
      "taf_trigger": false,
      "metar": "METAR LIME 182220Z 01004KT 9999 SCT070 07/M01 Q1010 NOSIG",
      "taf": "TAF LIME 181700Z 1818/1918 VRB05KT CAVOK"
    },
    {
      "icao": "LIMF",
      "alert": "OK",
      "vis_m": null,
      "fzfg": false,
      "metar_trigger": false,
      "taf_trigger": false,
      "metar": "METAR LIMF 182220Z AUTO 31003KT //// // BKN052/// 06/M02 Q1009",
      "taf": "TAF LIMF 181700Z 1818/1918 VRB05KT CAVOK"
    },
    {
      "icao": "LIMJ",
      "alert": "OK",
      "vis_m": 9999,
      "fzfg": false,
      "metar_trigger": false,
      "taf_trigger": false,
      "metar": "METAR LIMJ 182220Z 12012KT 9999 FEW008 SCT035 12/12 Q1009",
      "taf": "TAF LIMJ 181700Z 1818/1918 12017KT 9999 FEW020"
    },
    {
      "icao": "LIPE",
      "alert": "OK",
      "vis_m": 9999,
      "fzfg": false,
      "metar_trigger": false,
      "taf_trigger": false,
      "metar": "METAR LIPE 182220Z 23004KT 9999 SCT071 08/05 Q1009",
      "taf": "TAF LIPE 181700Z 1818/1918 VRB05KT 9999 FEW060"
    },
    {
      "icao": "LIPH",
      "alert": "OK",
      "vis_m": 9999,
      "fzfg": false,
      "metar_trigger": false,
      "taf_trigger": false,
      "metar": "METAR LIPH 182220Z AUTO 02003KT 9999 FEW083/// BKN150/// 07/M00 Q1011",
      "taf": "TAF LIPH 181700Z 1818/1918 VRB05KT 9999 FEW050"
    },
    {
      "icao": "LIPQ",
      "alert": "OK",
      "vis_m": 9999,
      "fzfg": false,
      "metar_trigger": false,
      "taf_trigger": false,
      "metar": "METAR LIPQ 182220Z AUTO 11005KT 9999 BKN053/// BKN080/// BKN160/// 07/04 Q1011",
      "taf": "TAF LIPQ 181700Z 1818/1918 VRB05KT CAVOK"
    },
    {
      "icao": "LIPR",
      "alert": "OK",
      "vis_m": 9999,
      "fzfg": false,
      "metar_trigger": false,
      "taf_trigger": false,
      "metar": "METAR LIPR 182220Z AUTO 19007KT 9999 BKN054/// 12/06 Q1011",
      "taf": "TAF LIPR 181700Z 1818/1918 16005KT 9999 FEW050"
    },
    {
      "icao": "LIPX",
      "alert": "OK",
      "vis_m": 9999,
      "fzfg": false,
      "metar_trigger": false,
      "taf_trigger": false,
      "metar": "METAR LIPX 182220Z 02002KT CAVOK 05/00 Q1010",
      "taf": "TAF LIPX 181700Z 1818/1918 07008KT CAVOK"
    },
    {
      "icao": "LIPY",
      "alert": "OK",
      "vis_m": 9999,
      "fzfg": false,
      "metar_trigger": false,
      "taf_trigger": false,
      "metar": "METAR LIPY 182220Z AUTO VRB02KT 9999 SCT091/// BKN200/// 09/04 Q1012",
      "taf": "TAF LIPY 181700Z 1818/1918 16006KT CAVOK"
    },
    {
      "icao": "LIPZ",
      "alert": "OK",
      "vis_m": 9999,
      "fzfg": false,
      "metar_trigger": false,
      "taf_trigger": false,
      "metar": "METAR LIPZ 182220Z 02005KT CAVOK 06/05 Q1011 NOSIG",
      "taf": "TAF LIPZ 181700Z 1818/1924 04005KT CAVOK"
    },
    {
      "icao": "LIRF",
      "alert": "OK",
      "vis_m": 9999,
      "fzfg": false,
      "metar_trigger": false,
      "taf_trigger": false,
      "metar": "METAR LIRF 182220Z 18006KT 9999 SCT050 14/10 Q1014 NOSIG",
      "taf": "TAF LIRF 181700Z 1818/1924 VRB06KT 9999 FEW025"
    },
    {
      "icao": "LIRN",
      "alert": "OK",
      "vis_m": 9999,
      "fzfg": false,
      "metar_trigger": false,
      "taf_trigger": false,
      "metar": "METAR LIRN 182220Z 20010KT CAVOK 13/08 Q1016 NOSIG",
      "taf": "TAF LIRN 181700Z 1818/1918 VRB05KT 9999 FEW030"
    },
    {
      "icao": "LIRP",
      "alert": "OK",
      "vis_m": 9999,
      "fzfg": false,
      "metar_trigger": false,
      "taf_trigger": false,
      "metar": "METAR LIRP 182215Z 09004KT 9999 BKN030 SCT060 11/11 Q1011 NOSIG",
      "taf": "TAF LIRP 181700Z 1818/1918 22012KT 9999 SCT020 SCT060"
    },
    {
      "icao": "LIRZ",
      "alert": "OK",
      "vis_m": 9999,
      "fzfg": false,
      "metar_trigger": false,
      "taf_trigger": false,
      "metar": "METAR LIRZ 182220Z AUTO 16005KT 9999 SCT024/// 11/06 Q1013",
      "taf": "TAF LIRZ 181700Z 1818/1918 VRB05KT 9999 SCT035"
    },
    {
      "icao": "LJLJ",
      "alert": "OK",
      "vis_m": 9999,
      "fzfg": false,
      "metar_trigger": false,
      "taf_trigger": false,
      "metar": "METAR LJLJ 182230Z 29003KT 9999 FEW042 SCT068 BKN190 M00/M02 Q1010 NOSIG",
      "taf": "TAF LJLJ 181700Z 1818/1918 VRB02KT 9999 FEW060"
    },
    {
      "icao": "LKMT",
      "alert": "OK",
      "vis_m": 4500,
      "fzfg": false,
      "metar_trigger": false,
      "taf_trigger": false,
      "metar": "METAR LKMT 182230Z 01010KT 4500 BR OVC008 M02/M02 Q1013 NOSIG",
      "taf": "TAF LKMT 181700Z 1818/1918 04005KT 9999 SCT030"
    },
    {
      "icao": "LKPR",
      "alert": "OK",
      "vis_m": 9999,
      "fzfg": false,
      "metar_trigger": false,
      "taf_trigger": false,
      "metar": "METAR LKPR 182230Z 08008KT 9999 OVC021 M01/M03 Q1011 NOSIG",
      "taf": "TAF LKPR 182000Z 1821/2003 03006KT 9999 SCT020 BKN035"
    },
    {
      "icao": "LLBG",
      "alert": "OK",
      "vis_m": 9999,
      "fzfg": false,
      "metar_trigger": false,
      "taf_trigger": false,
      "metar": "METAR LLBG 182220Z 24005KT 9999 FEW035 16/08 Q1018 NOSIG",
      "taf": "TAF LLBG 181703Z 1818/1918 18005KT 9999 SCT030"
    },
    {
      "icao": "LMML",
      "alert": "OK",
      "vis_m": 9999,
      "fzfg": false,
      "metar_trigger": false,
      "taf_trigger": false,
      "metar": "METAR LMML 182245Z 23008KT CAVOK 13/10 Q1020 NOSIG",
      "taf": "TAF LMML 181700Z 1818/1918 27009KT 9999 FEW025"
    },
    {
      "icao": "LOWW",
      "alert": "OK",
      "vis_m": 9999,
      "fzfg": false,
      "metar_trigger": false,
      "taf_trigger": false,
      "metar": "METAR LOWW 182220Z 17005KT CAVOK M03/M05 Q1012 NOSIG",
      "taf": "TAF LOWW 182015Z 1821/2003 VRB02KT 9999 FEW050 TX01/1913Z TNM02/1901Z"
    },
    {
      "icao": "LPFR",
      "alert": "OK",
      "vis_m": 9999,
      "fzfg": false,
      "metar_trigger": false,
      "taf_trigger": false,
      "metar": "METAR LPFR 182230Z 30008KT 9999 FEW035 14/11 Q1023",
      "taf": "TAF LPFR 181700Z 1818/1918 26012KT 9999 SCT020 BKN035"
    },
    {
      "icao": "LPMA",
      "alert": "OK",
      "vis_m": 9999,
      "fzfg": false,
      "metar_trigger": false,
      "taf_trigger": false,
      "metar": "METAR LPMA 182230Z 01009KT 340V050 9999 FEW014 17/12 Q1027",
      "taf": "TAF LPMA 181700Z 1818/1918 VRB05KT 9999 SCT014"
    },
    {
      "icao": "LPPR",
      "alert": "OK",
      "vis_m": 9999,
      "fzfg": false,
      "metar_trigger": false,
      "taf_trigger": false,
      "metar": "METAR LPPR 182230Z 31012KT 9999 FEW025 SCT030 12/07 Q1020",
      "taf": "TAF LPPR 181700Z 1818/1918 30010KT 9999 SCT025"
    },
    {
      "icao": "LPPS",
      "alert": "OK",
      "vis_m": 9999,
      "fzfg": false,
      "metar_trigger": false,
      "taf_trigger": false,
      "metar": "METAR LPPS 182230Z 04004KT 010V080 9999 BKN012 16/13 Q1027",
      "taf": "TAF LPPS 181700Z 1818/1924 33005KT 9999 SCT015"
    },
    {
      "icao": "LPPT",
      "alert": "OK",
      "vis_m": 9999,
      "fzfg": false,
      "metar_trigger": false,
      "taf_trigger": false,
      "metar": "METAR LPPT 182230Z 29005KT 260V360 9999 FEW020 12/09 Q1023",
      "taf": "TAF LPPT 181700Z 1818/1924 30010KT 9999 SCT020"
    },
    {
      "icao": "LQBK",
      "alert": "OK",
      "vis_m": 9999,
      "fzfg": false,
      "metar_trigger": false,
      "taf_trigger": false,
      "metar": "METAR LQBK 182230Z 10004KT CAVOK 03/00 Q1012 NOSIG",
      "taf": "TAF LQBK 181700Z 1818/1918 VRB03KT CAVOK TX15/1913Z TN01/1824Z"
    },
    {
      "icao": "LQSA",
      "alert": "OK",
      "vis_m": 7000,
      "fzfg": false,
      "metar_trigger": false,
      "taf_trigger": false,
      "metar": "METAR LQSA 182230Z VRB01KT 7000 NSC M02/M02 Q1014",
      "taf": "TAF LQSA 181700Z 1818/1918 VRB02KT 9999 FEW045 TX10/1913Z TNM02/1902Z"
    },
    {
      "icao": "LQTZ",
      "alert": "OK",
      "vis_m": 9999,
      "fzfg": false,
      "metar_trigger": false,
      "taf_trigger": false,
      "metar": "METAR LQTZ 182230Z VRB01KT CAVOK M00/M01 Q1014",
      "taf": "TAF LQTZ 181700Z 1818/1918 10005KT CAVOK TX14/1914Z TNM03/1902Z"
    },
    {
      "icao": "LRBC",
      "alert": "OK",
      "vis_m": 7000,
      "fzfg": false,
      "metar_trigger": false,
      "taf_trigger": false,
      "metar": "METAR LRBC 182230Z 17001KT 7000 FEW055 M07/M08 Q1010",
      "taf": "TAF LRBC 182000Z 1821/1906 VRB04KT CAVOK"
    },
    {
      "icao": "LRBS",
      "alert": "OK",
      "vis_m": 900,
      "fzfg": true,
      "metar_trigger": false,
      "taf_trigger": false,
      "metar": "METAR LRBS 182230Z 22004KT 0900 R07/1000U FZFG BKN001 M01/M02 Q1013 NOSIG",
      "taf": ""
    },
    {
      "icao": "LRBV",
      "alert": "OK",
      "vis_m": 9999,
      "fzfg": false,
      "metar_trigger": false,
      "taf_trigger": false,
      "metar": "METAR LRBV 182230Z AUTO 29012KT 9999 BKN047/// OVC072/// 01/M03 Q1011",
      "taf": "TAF LRBV 182000Z 1821/1906 36005KT 9999 BKN025"
    },
    {
      "icao": "LRCL",
      "alert": "OK",
      "vis_m": 9999,
      "fzfg": false,
      "metar_trigger": false,
      "taf_trigger": false,
      "metar": "METAR LRCL 182230Z 27008KT CAVOK 00/M03 Q1012",
      "taf": "TAF LRCL 182000Z 1821/1906 28006KT CAVOK"
    },
    {
      "icao": "LRCV",
      "alert": "OK",
      "vis_m": 9999,
      "fzfg": false,
      "metar_trigger": false,
      "taf_trigger": false,
      "metar": "METAR LRCV 182230Z 29008KT CAVOK 01/M00 Q1014",
      "taf": "TAF LRCV 182000Z 1821/1906 29012KT CAVOK"
    },
    {
      "icao": "LRIA",
      "alert": "OK",
      "vis_m": 9999,
      "fzfg": false,
      "metar_trigger": false,
      "taf_trigger": false,
      "metar": "METAR LRIA 182230Z 27007KT 230V310 CAVOK M05/M06 Q1010",
      "taf": "TAF LRIA 182000Z 1821/1906 31012KT CAVOK"
    },
    {
      "icao": "LROP",
      "alert": "OK",
      "vis_m": 200,
      "fzfg": true,
      "metar_trigger": false,
      "taf_trigger": false,
      "metar": "METAR LROP 182230Z 21003KT 170V230 0200 R08R/0400N R08L/0450N FZFG VV001 M02/M02 Q1013 NOSIG",
      "taf": ""
    },
    {
      "icao": "LRSB",
      "alert": "OK",
      "vis_m": 9999,
      "fzfg": false,
      "metar_trigger": false,
      "taf_trigger": false,
      "metar": "METAR LRSB 182230Z 27015KT CAVOK 01/M04 Q1012",
      "taf": "TAF LRSB 181700Z 1818/1918 29015KT 9999 BKN050"
    },
    {
      "icao": "LRSM",
      "alert": "OK",
      "vis_m": 9000,
      "fzfg": false,
      "metar_trigger": false,
      "taf_trigger": false,
      "metar": "METAR LRSM 182230Z AUTO 25006KT 9000 FEW028/// OVC065/// 01/M00 Q1012",
      "taf": "TAF LRSM 181400Z 1815/1824 25010KT 9999 SCT030"
    },
    {
      "icao": "LRSV",
      "alert": "OK",
      "vis_m": 9999,
      "fzfg": false,
      "metar_trigger": false,
      "taf_trigger": false,
      "metar": "METAR LRSV 182230Z 30011KT CAVOK M02/M05 Q1008",
      "taf": "TAF LRSV 182000Z 1821/1906 33007KT CAVOK"
    },
    {
      "icao": "LRTM",
      "alert": "OK",
      "vis_m": 9999,
      "fzfg": false,
      "metar_trigger": false,
      "taf_trigger": false,
      "metar": "METAR LRTM 182230Z AUTO 21005KT 9999 NCD M01/M02 Q1012",
      "taf": "TAF LRTM 181400Z 1815/1824 32010KT 9999 SCT025"
    },
    {
      "icao": "LRTR",
      "alert": "OK",
      "vis_m": 9999,
      "fzfg": false,
      "metar_trigger": false,
      "taf_trigger": false,
      "metar": "METAR LRTR 182230Z 10007KT CAVOK M02/M02 Q1015",
      "taf": "TAF LRTR 181700Z 1818/1918 VRB04KT CAVOK"
    },
    {
      "icao": "LTAC",
      "alert": "OK",
      "vis_m": 9999,
      "fzfg": false,
      "metar_trigger": false,
      "taf_trigger": false,
      "metar": "METAR LTAC 182220Z 26013KT 9999 SCT035 BKN080 M00/M04 Q1011 NOSIG RMK RWY21C 26012KT RWY03L 26012KT RWY21R 25013KT RWY03R 24012KT RWY21L 25011KT",
      "taf": "TAF LTAC 181640Z 1818/1918 24012KT 9999 SCT040 BKN100"
    },
    {
      "icao": "LTFM",
      "alert": "OK",
      "vis_m": 9999,
      "fzfg": false,
      "metar_trigger": false,
      "taf_trigger": false,
      "metar": "METAR LTFM 182220Z 24010KT CAVOK 05/02 Q1015 NOSIG RMK RWY17L 24011KT RWY34L 24008KT RWY16R 24008KT RWY36 25010KT RWY18 25013KT",
      "taf": "TAF LTFM 181640Z 1818/1924 24012KT 9999 SCT009 BKN028"
    },
    {
      "icao": "LUKK",
      "alert": "OK",
      "vis_m": 9999,
      "fzfg": false,
      "metar_trigger": false,
      "taf_trigger": false,
      "metar": "METAR LUKK 182230Z 33011KT CAVOK M04/M08 Q1007 NOSIG",
      "taf": "TAF LUKK 181711Z 1818/1918 34014KT 5000 -SN BKN020"
    },
    {
      "icao": "LWOH",
      "alert": "OK",
      "vis_m": null,
      "fzfg": false,
      "metar_trigger": false,
      "taf_trigger": false,
      "metar": "",
      "taf": "TAF LWOH 182020Z 1821/1921 06005KT CAVOK"
    },
    {
      "icao": "LWSK",
      "alert": "OK",
      "vis_m": 9999,
      "fzfg": false,
      "metar_trigger": false,
      "taf_trigger": false,
      "metar": "METAR LWSK 182250Z VRB02KT CAVOK M02/M05 Q1018 NOSIG",
      "taf": "TAF LWSK 182020Z 1821/1921 VRB02KT CAVOK"
    },
    {
      "icao": "LYBE",
      "alert": "OK",
      "vis_m": 9999,
      "fzfg": false,
      "metar_trigger": false,
      "taf_trigger": false,
      "metar": "METAR LYBE 182230Z 15006KT CAVOK 01/M03 Q1015 NOSIG",
      "taf": "TAF LYBE 181700Z 1818/1918 15004KT CAVOK TX13/1913Z TN01/1906Z"
    },
    {
      "icao": "LYNI",
      "alert": "OK",
      "vis_m": 9999,
      "fzfg": false,
      "metar_trigger": false,
      "taf_trigger": false,
      "metar": "METAR LYNI 182230Z 20002KT CAVOK M03/M03 Q1017 NOSIG",
      "taf": "TAF LYNI 181700Z 1818/1918 09004KT 9999 SCT040 TX12/1912Z TNM03/1906Z"
    },
    {
      "icao": "LYPG",
      "alert": "OK",
      "vis_m": 9999,
      "fzfg": false,
      "metar_trigger": false,
      "taf_trigger": false,
      "metar": "METAR LYPG 182230Z 35004KT CAVOK 04/M00 Q1018 NOSIG",
      "taf": "TAF LYPG 181700Z 1818/1918 36005KT 9999 FEW040 TX13/1918Z TN02/1902Z"
    },
    {
      "icao": "LZIB",
      "alert": "OK",
      "vis_m": 9999,
      "fzfg": false,
      "metar_trigger": false,
      "taf_trigger": false,
      "metar": "METAR LZIB 182230Z 01004KT CAVOK M02/M04 Q1012 NOSIG",
      "taf": ""
    },
    {
      "icao": "LZKZ",
      "alert": "OK",
      "vis_m": 700,
      "fzfg": true,
      "metar_trigger": false,
      "taf_trigger": false,
      "metar": "METAR LZKZ 182230Z 07003KT 0700 R01/P2000N FZFG SCT003 M01/M01 Q1011 TEMPO 1500 BCFG BKN002",
      "taf": ""
    },
    {
      "icao": "LZTT",
      "alert": "OK",
      "vis_m": 9999,
      "fzfg": false,
      "metar_trigger": false,
      "taf_trigger": false,
      "metar": "METAR LZTT 182230Z 29004KT 9999 FEW013 M03/M05 Q1009",
      "taf": "TAF LZTT 181715Z 1818/1918 27013KT 9999 FEW020"
    },
    {
      "icao": "OEJN",
      "alert": "OK",
      "vis_m": 9999,
      "fzfg": false,
      "metar_trigger": false,
      "taf_trigger": false,
      "metar": "METAR OEJN 182200Z 35005KT CAVOK 24/20 Q1012 NOSIG",
      "taf": "TAF OEJN 181700Z 1818/1924 36006KT CAVOK"
    },
    {
      "icao": "OEMA",
      "alert": "OK",
      "vis_m": 9999,
      "fzfg": false,
      "metar_trigger": false,
      "taf_trigger": false,
      "metar": "METAR OEMA 182200Z VRB02KT CAVOK 26/08 Q1016 NOSIG",
      "taf": "TAF OEMA 181700Z 1818/1924 27006KT CAVOK"
    },
    {
      "icao": "OJAI",
      "alert": "OK",
      "vis_m": 4000,
      "fzfg": false,
      "metar_trigger": false,
      "taf_trigger": false,
      "metar": "METAR OJAI 182200Z 28011KT 4000 HZ NSC 09/06 Q1018 NOSIG",
      "taf": "TAF OJAI 181700Z 1818/1924 27010KT 4000 HZ FEW030"
    },
    {
      "icao": "OMAA",
      "alert": "OK",
      "vis_m": 9999,
      "fzfg": false,
      "metar_trigger": false,
      "taf_trigger": false,
      "metar": "METAR OMAA 182230Z 02010KT 300V030 CAVOK 23/14 Q1015 NOSIG",
      "taf": "TAF OMAA 181700Z 1818/2000 04007KT 8000 NSC"
    },
    {
      "icao": "OMDB",
      "alert": "OK",
      "vis_m": 9999,
      "fzfg": false,
      "metar_trigger": false,
      "taf_trigger": false,
      "metar": "METAR OMDB 182230Z 08004KT 020V120 CAVOK 23/14 Q1016 NOSIG",
      "taf": "TAF OMDB 181700Z 1818/2000 08005KT 8000 NSC"
    },
    {
      "icao": "UAAA",
      "alert": "OK",
      "vis_m": 5000,
      "fzfg": false,
      "metar_trigger": false,
      "taf_trigger": false,
      "metar": "METAR UAAA 182230Z 24002MPS 210V280 5000 BR FU BKN200 02/M00 Q1014 NOSIG",
      "taf": "TAF UAAA 181700Z 1818/1918 22002MPS 1200 BR FU SCT030 BKN100 TX20/1909Z TN02/1903Z"
    },
    {
      "icao": "UBBB",
      "alert": "OK",
      "vis_m": 450,
      "fzfg": false,
      "metar_trigger": false,
      "taf_trigger": false,
      "metar": "METAR UBBB 182230Z 12006KT 0450 R17/1100D FG VV002 06/06 Q1007 NOSIG",
      "taf": "TAF UBBB 181713Z 1818/1918 08005KT 3000 BR BKN005 TX20/1910Z TN05/1900Z"
    },
    {
      "icao": "UDSG",
      "alert": "OK",
      "vis_m": 9999,
      "fzfg": false,
      "metar_trigger": false,
      "taf_trigger": false,
      "metar": "METAR UDSG 182230Z 04005KT 9999 BKN040 02/02 Q1009 NOSIG",
      "taf": "TAF UDSG 181700Z 1818/1918 VRB06KT 9999 BKN040"
    },
    {
      "icao": "UDYZ",
      "alert": "OK",
      "vis_m": 9999,
      "fzfg": false,
      "metar_trigger": false,
      "taf_trigger": false,
      "metar": "METAR UDYZ 182230Z COR 00000KT 9999 SCT046 08/04 Q1008 NOSIG",
      "taf": "TAF UDYZ 181700Z 1818/1918 06006KT 9999 SCT040"
    },
    {
      "icao": "UGKO",
      "alert": "OK",
      "vis_m": 9999,
      "fzfg": false,
      "metar_trigger": false,
      "taf_trigger": false,
      "metar": "METAR UGKO 182230Z 24013KT 9999 SCT033 BKN086 13/07 Q1005 NOSIG",
      "taf": "TAF UGKO 181700Z 1818/1918 07010KT 9999 BKN050 TX19/1818Z TN05/1916Z"
    }
  ]
}