{
  "ts_utc": "2025-12-31T17:27:34Z",
  "threshold_m": 150,
  "source": "stations_override.txt (ICAO list) + aviationweather.gov (METAR/TAF raw)",
  "station_count": 159,
  "stations": [
    {
      "icao": "BIKF",
      "alert": "OK",
      "vis_m": 9999,
      "fzfg": false,
      "metar_trigger": false,
      "taf_trigger": false,
      "metar": "METAR BIKF 311700Z 32006KT CAVOK M00/M04 Q1029",
      "taf": "TAF BIKF 311630Z 3118/0118 01008KT CAVOK TX02/0110Z TNM03/0102Z"
    },
    {
      "icao": "BKPR",
      "alert": "OK",
      "vis_m": null,
      "fzfg": false,
      "metar_trigger": false,
      "taf_trigger": false,
      "metar": "",
      "taf": ""
    },
    {
      "icao": "EBCI",
      "alert": "OK",
      "vis_m": 1600,
      "fzfg": false,
      "metar_trigger": false,
      "taf_trigger": false,
      "metar": "METAR EBCI 311720Z 25007KT 1600 BR BKN002 02/02 Q1023 TEMPO 1200 BR",
      "taf": "TAF EBCI 311712Z 3118/0124 25008KT 7000 SCT008 SCT015"
    },
    {
      "icao": "EDDB",
      "alert": "OK",
      "vis_m": 9999,
      "fzfg": false,
      "metar_trigger": false,
      "taf_trigger": false,
      "metar": "METAR EDDB 311720Z AUTO 27007KT 9999 FEW021 SCT032 OVC042 02/02 Q1011",
      "taf": "TAF EDDB 311700Z 3118/0118 28008KT 9999 SCT009 BKN020"
    },
    {
      "icao": "EDDH",
      "alert": "OK",
      "vis_m": 9999,
      "fzfg": false,
      "metar_trigger": false,
      "taf_trigger": false,
      "metar": "METAR EDDH 311720Z AUTO 27008KT 9999 FEW036 BKN047 05/03 Q1012 NOSIG",
      "taf": "TAF EDDH 311700Z 3118/0124 28009KT 9999 BKN020"
    },
    {
      "icao": "EDDK",
      "alert": "OK",
      "vis_m": 7000,
      "fzfg": false,
      "metar_trigger": false,
      "taf_trigger": false,
      "metar": "METAR EDDK 311720Z AUTO 26009KT 7000 -DZ BKN008 03/02 Q1022 TEMPO 4000 BR",
      "taf": "TAF EDDK 311100Z 3112/0118 26007KT 9999 BKN012"
    },
    {
      "icao": "EDDN",
      "alert": "OK",
      "vis_m": 9999,
      "fzfg": false,
      "metar_trigger": false,
      "taf_trigger": false,
      "metar": "METAR EDDN 311720Z AUTO 25010KT 9999 OVC016 00/M03 Q1020 NOSIG",
      "taf": "TAF EDDN 311700Z 3118/0118 25010KT 9999 OVC015"
    },
    {
      "icao": "EDDS",
      "alert": "OK",
      "vis_m": 9999,
      "fzfg": false,
      "metar_trigger": false,
      "taf_trigger": false,
      "metar": "METAR EDDS 311720Z AUTO VRB01KT 9999 OVC024 00/M04 Q1021 NOSIG",
      "taf": "TAF EDDS 311700Z 3118/0118 22004KT 9999 BKN030"
    },
    {
      "icao": "EDFH",
      "alert": "OK",
      "vis_m": 8000,
      "fzfg": false,
      "metar_trigger": false,
      "taf_trigger": false,
      "metar": "METAR EDFH 311720Z 28008KT 8000 BKN003 OVC029 M01/M02 Q1021",
      "taf": "TAF EDFH 311700Z 3118/0118 27010KT 9999 BKN015"
    },
    {
      "icao": "EDJA",
      "alert": "OK",
      "vis_m": 9999,
      "fzfg": false,
      "metar_trigger": false,
      "taf_trigger": false,
      "metar": "METAR EDJA 311720Z 23007KT CAVOK M05/M10 Q1021",
      "taf": "TAF EDJA 311700Z 3118/0103 22007KT CAVOK"
    },
    {
      "icao": "EDLW",
      "alert": "OK",
      "vis_m": 3700,
      "fzfg": false,
      "metar_trigger": false,
      "taf_trigger": false,
      "metar": "METAR EDLW 311720Z 24009KT 3700 -DZ BR SCT004 OVC007 03/02 Q1019",
      "taf": "TAF EDLW 311100Z 3112/0112 24010KT 4500 BR BKN004"
    },
    {
      "icao": "EDNY",
      "alert": "OK",
      "vis_m": 9999,
      "fzfg": false,
      "metar_trigger": false,
      "taf_trigger": false,
      "metar": "METAR EDNY 311720Z 05003KT CAVOK M04/M07 Q1023",
      "taf": "TAF EDNY 311700Z 3118/0103 VRB02KT CAVOK"
    },
    {
      "icao": "EDSB",
      "alert": "OK",
      "vis_m": 9999,
      "fzfg": false,
      "metar_trigger": false,
      "taf_trigger": false,
      "metar": "METAR EDSB 311720Z 21004KT 9999 FEW036 BKN043 M02/M06 Q1024",
      "taf": "TAF EDSB 311700Z 3118/0118 20005KT 9999 BKN030"
    },
    {
      "icao": "EETN",
      "alert": "OK",
      "vis_m": 9999,
      "fzfg": false,
      "metar_trigger": false,
      "taf_trigger": false,
      "metar": "METAR EETN 311720Z 35006KT 9999 SCT034 M06/M12 Q1005 NOSIG",
      "taf": ""
    },
    {
      "icao": "EFTU",
      "alert": "OK",
      "vis_m": 9999,
      "fzfg": false,
      "metar_trigger": false,
      "taf_trigger": false,
      "metar": "METAR EFTU 311720Z AUTO VRB01KT CAVOK M15/M16 Q1005",
      "taf": "TAF EFTU 311428Z 3115/0115 VRB01KT CAVOK"
    },
    {
      "icao": "EGBB",
      "alert": "OK",
      "vis_m": 9999,
      "fzfg": false,
      "metar_trigger": false,
      "taf_trigger": false,
      "metar": "METAR EGBB 311720Z 26005KT 140V280 9999 SCT027 03/M01 Q1024",
      "taf": "TAF EGBB 311659Z 3118/0118 27006KT 9999 FEW030"
    },
    {
      "icao": "EGGP",
      "alert": "OK",
      "vis_m": 9999,
      "fzfg": false,
      "metar_trigger": false,
      "taf_trigger": false,
      "metar": "METAR EGGP 311720Z 28015KT 9999 BKN028 BKN033 05/M01 Q1024",
      "taf": ""
    },
    {
      "icao": "EGGW",
      "alert": "OK",
      "vis_m": 9999,
      "fzfg": false,
      "metar_trigger": false,
      "taf_trigger": false,
      "metar": "METAR EGGW 311720Z AUTO 26008KT 9999 NCD 00/M01 Q1024",
      "taf": "TAF EGGW 311658Z 3118/0118 26006KT 9999 FEW025"
    },
    {
      "icao": "EGKK",
      "alert": "OK",
      "vis_m": 8000,
      "fzfg": false,
      "metar_trigger": false,
      "taf_trigger": false,
      "metar": "METAR EGKK 311720Z VRB02KT 8000 2500S VCFG NSC M01/M01 Q1026",
      "taf": "TAF EGKK 311700Z 3118/0124 26005KT 5000 BR FEW005"
    },
    {
      "icao": "EGNM",
      "alert": "OK",
      "vis_m": 9999,
      "fzfg": false,
      "metar_trigger": false,
      "taf_trigger": false,
      "metar": "METAR EGNM 311720Z 27016KT 9999 SCT025 03/M00 Q1021",
      "taf": "TAF EGNM 311700Z 3118/0118 28018KT 9999 SCT030"
    },
    {
      "icao": "EGPD",
      "alert": "OK",
      "vis_m": 9999,
      "fzfg": false,
      "metar_trigger": false,
      "taf_trigger": false,
      "metar": "METAR EGPD 311720Z COR AUTO 27013KT 9999 FEW030 07/01 Q1012 NOSIG",
      "taf": "TAF EGPD 311702Z 3118/0118 27015G28KT 9999 SCT030"
    },
    {
      "icao": "EGPF",
      "alert": "OK",
      "vis_m": 4600,
      "fzfg": false,
      "metar_trigger": false,
      "taf_trigger": false,
      "metar": "METAR EGPF 311720Z AUTO 25013KT 4600 -RADZ BKN012 BKN021 OVC034 06/05 Q1019",
      "taf": "TAF EGPF 311655Z 3118/0118 27012KT 9999 SCT025"
    },
    {
      "icao": "EHBK",
      "alert": "OK",
      "vis_m": 3600,
      "fzfg": false,
      "metar_trigger": false,
      "taf_trigger": false,
      "metar": "METAR EHBK 311655Z AUTO 25006KT 210V290 3600 -RADZ BKN001 BKN002 OVC007 03/03 Q1022 BECMG 7000 NSW BKN003",
      "taf": "TAF EHBK 311715Z 3118/0124 24007KT 9999 BKN020"
    },
    {
      "icao": "EHEH",
      "alert": "OK",
      "vis_m": 9999,
      "fzfg": false,
      "metar_trigger": false,
      "taf_trigger": false,
      "metar": "METAR EHEH 311655Z AUTO 24008KT 210V290 9999 OVC031 03/01 Q1022 BLU NOSIG RMK TREND REMOTE BY EHWX",
      "taf": "TAF EHEH 311125Z 3112/0118 24007KT 9999 BKN025"
    },
    {
      "icao": "EKBI",
      "alert": "OK",
      "vis_m": 9999,
      "fzfg": false,
      "metar_trigger": false,
      "taf_trigger": false,
      "metar": "METAR EKBI 311720Z AUTO 24005KT 9999 BKN039/// 03/02 Q1009",
      "taf": "TAF EKBI 311427Z 3115/0115 28008KT 9999 SCT030"
    },
    {
      "icao": "EKCH",
      "alert": "OK",
      "vis_m": 4500,
      "fzfg": false,
      "metar_trigger": false,
      "taf_trigger": false,
      "metar": "METAR EKCH 311720Z 34001KT 4500 MIFG NSC 00/M00 Q1009 TEMPO 2000",
      "taf": ""
    },
    {
      "icao": "ENAL",
      "alert": "OK",
      "vis_m": 9999,
      "fzfg": false,
      "metar_trigger": false,
      "taf_trigger": false,
      "metar": "METAR ENAL 311720Z AUTO 19016KT 9999 BKN027/// BKN035/// 04/02 Q0990",
      "taf": "TAF ENAL 311400Z 3115/3124 19015KT 9999 -RA SCT015 BKN030"
    },
    {
      "icao": "ENBR",
      "alert": "OK",
      "vis_m": 9999,
      "fzfg": false,
      "metar_trigger": false,
      "taf_trigger": false,
      "metar": "METAR ENBR 311720Z 18010KT 150V210 9999 -SHRA FEW003 SCT006 BKN012 05/04 Q0998 RMK WIND 1200FT 25016KT",
      "taf": "TAF ENBR 311100Z 3112/0112 14007KT 9999 -SHRASN SCT015 BKN025"
    },
    {
      "icao": "ENGM",
      "alert": "OK",
      "vis_m": 9999,
      "fzfg": false,
      "metar_trigger": false,
      "taf_trigger": false,
      "metar": "METAR ENGM 311720Z 17004KT CAVOK M05/M07 Q1001 NOSIG",
      "taf": "TAF ENGM 311100Z 3112/0112 18008KT CAVOK"
    },
    {
      "icao": "ENHD",
      "alert": "OK",
      "vis_m": 9999,
      "fzfg": false,
      "metar_trigger": false,
      "taf_trigger": false,
      "metar": "METAR ENHD 311720Z AUTO 24015KT 9999 -RA FEW007/// SCT017/// BKN036/// 06/05 Q1001",
      "taf": "TAF ENHD 311100Z 3112/3118 VRB05KT 9999 -SHRA FEW015 BKN030"
    },
    {
      "icao": "ENTC",
      "alert": "OK",
      "vis_m": 9999,
      "fzfg": false,
      "metar_trigger": false,
      "taf_trigger": false,
      "metar": "METAR ENTC 311720Z 23007KT 9999 FEW007 SCT010 M08/M10 Q1004 NOSIG RMK WIND 2600FT 13006KT",
      "taf": ""
    },
    {
      "icao": "ENTO",
      "alert": "OK",
      "vis_m": 9999,
      "fzfg": false,
      "metar_trigger": false,
      "taf_trigger": false,
      "metar": "METAR ENTO 311650Z 18006KT CAVOK M02/M03 Q1003 NOSIG",
      "taf": ""
    },
    {
      "icao": "ENVA",
      "alert": "OK",
      "vis_m": 9999,
      "fzfg": false,
      "metar_trigger": false,
      "taf_trigger": false,
      "metar": "METAR ENVA 311720Z 08003KT 030V160 9999 -DZRA FEW019 SCT027 BKN035 01/00 Q0994 RMK WIND 670FT 19015KT",
      "taf": ""
    },
    {
      "icao": "ENZV",
      "alert": "OK",
      "vis_m": 9999,
      "fzfg": false,
      "metar_trigger": false,
      "taf_trigger": false,
      "metar": "METAR ENZV 311720Z 21005KT 9999 -SHRA FEW014 SCT045 04/03 Q1003",
      "taf": "TAF ENZV 311100Z 3112/0112 VRB05KT 9999 -SHRA FEW010 BKN020"
    },
    {
      "icao": "EPGD",
      "alert": "OK",
      "vis_m": 7000,
      "fzfg": false,
      "metar_trigger": false,
      "taf_trigger": false,
      "metar": "METAR EPGD 311700Z 11005KT 7000 BKN002 M03/M03 Q1006",
      "taf": "TAF EPGD 311130Z 3112/0112 VRB05KT 9999 BKN020"
    },
    {
      "icao": "EPKK",
      "alert": "OK",
      "vis_m": 9999,
      "fzfg": false,
      "metar_trigger": false,
      "taf_trigger": false,
      "metar": "METAR EPKK 311700Z 23009KT CAVOK M03/M07 Q1010",
      "taf": "TAF EPKK 311430Z 3115/0115 25009KT 9999 BKN020"
    },
    {
      "icao": "EPKT",
      "alert": "OK",
      "vis_m": 9999,
      "fzfg": false,
      "metar_trigger": false,
      "taf_trigger": false,
      "metar": "METAR EPKT 311700Z 24012KT 9999 -SN SCT038 M03/M07 Q1009",
      "taf": "TAF EPKT 311130Z 3112/0112 30010KT 9999 BKN020"
    },
    {
      "icao": "EPLB",
      "alert": "OK",
      "vis_m": 9999,
      "fzfg": false,
      "metar_trigger": false,
      "taf_trigger": false,
      "metar": "METAR EPLB 311700Z 27006KT 9999 SCT022 M05/M07 Q1008",
      "taf": "TAF EPLB 311130Z 3112/0112 28012KT 9999 SCT022"
    },
    {
      "icao": "EPMO",
      "alert": "OK",
      "vis_m": 2400,
      "fzfg": false,
      "metar_trigger": false,
      "taf_trigger": false,
      "metar": "METAR EPMO 311700Z VRB02KT 2400 -SHSN BR SCT006 BKN009 SCT013CB M03/M03 Q1008",
      "taf": "TAF EPMO 311130Z 3112/0112 26010KT 9999 BKN020"
    },
    {
      "icao": "EPPO",
      "alert": "OK",
      "vis_m": 9999,
      "fzfg": false,
      "metar_trigger": false,
      "taf_trigger": false,
      "metar": "METAR EPPO 311700Z 28007KT 9999 OVC007 M01/M03 Q1009",
      "taf": ""
    },
    {
      "icao": "EPRA",
      "alert": "OK",
      "vis_m": 8000,
      "fzfg": false,
      "metar_trigger": false,
      "taf_trigger": false,
      "metar": "METAR EPRA 311700Z 26009KT 8000 -SN SCT025 BKN040 M04/M05 Q1008",
      "taf": "TAF EPRA 311430Z 3115/3124 27010KT 9999 BKN020"
    },
    {
      "icao": "EPRZ",
      "alert": "OK",
      "vis_m": 3000,
      "fzfg": false,
      "metar_trigger": false,
      "taf_trigger": false,
      "metar": "METAR EPRZ 311700Z 24007KT 3000 -SHSN BKN009 BKN016CB M04/M05 Q1010 RESHSN",
      "taf": ""
    },
    {
      "icao": "EPSC",
      "alert": "OK",
      "vis_m": 3000,
      "fzfg": false,
      "metar_trigger": false,
      "taf_trigger": false,
      "metar": "METAR EPSC 311700Z VRB02KT 3000 -SNRA BR OVC002 M00/M00 Q1009",
      "taf": "TAF EPSC 311130Z 3112/0112 22005KT 9999 BKN012"
    },
    {
      "icao": "EPSY",
      "alert": "OK",
      "vis_m": 7000,
      "fzfg": false,
      "metar_trigger": false,
      "taf_trigger": false,
      "metar": "METAR EPSY 311700Z 06002KT 7000 -SHSN BKN048CB M07/M07 Q1007",
      "taf": "TAF EPSY 311430Z 3115/3124 VRB02KT 9999 BKN030"
    },
    {
      "icao": "EPWA",
      "alert": "OK",
      "vis_m": 2200,
      "fzfg": false,
      "metar_trigger": false,
      "taf_trigger": false,
      "metar": "METAR EPWA 311700Z 26007KT 2200 -SHSN BR BKN006 BKN015CB M03/M03 Q1008 RESHSN TEMPO 1400 SHSN",
      "taf": "TAF EPWA 311430Z 3115/0115 VRB02KT 3000 -SN BKN015 BKN024"
    },
    {
      "icao": "EPWR",
      "alert": "OK",
      "vis_m": 1900,
      "fzfg": false,
      "metar_trigger": false,
      "taf_trigger": false,
      "metar": "METAR EPWR 311700Z 24003KT 1900 SN BR BKN003 BKN006 M02/M02 Q1009",
      "taf": "TAF EPWR 311430Z 3115/0115 21008KT 5000 -SN BR FEW002 OVC010"
    },
    {
      "icao": "ESGG",
      "alert": "OK",
      "vis_m": 9999,
      "fzfg": false,
      "metar_trigger": false,
      "taf_trigger": false,
      "metar": "METAR ESGG 311720Z 18008KT CAVOK M03/M05 Q1006",
      "taf": "TAF ESGG 311430Z 3115/0115 16005KT CAVOK"
    },
    {
      "icao": "ESKN",
      "alert": "OK",
      "vis_m": 9999,
      "fzfg": false,
      "metar_trigger": false,
      "taf_trigger": false,
      "metar": "METAR ESKN 311720Z VRB03KT 9999 BKN004 M06/M06 Q1007",
      "taf": ""
    },
    {
      "icao": "ESMS",
      "alert": "OK",
      "vis_m": 9999,
      "fzfg": false,
      "metar_trigger": false,
      "taf_trigger": false,
      "metar": "METAR ESMS 311720Z 00000KT 9999 R17/1600D R35/P2000D BCFG NSC M03/M03 Q1008",
      "taf": "TAF ESMS 311427Z 3115/0115 28005KT 9999 FEW040"
    },
    {
      "icao": "ESSA",
      "alert": "OK",
      "vis_m": 9999,
      "fzfg": false,
      "metar_trigger": false,
      "taf_trigger": false,
      "metar": "METAR ESSA 311720Z 25003KT CAVOK M10/M11 Q1006 NOSIG",
      "taf": "TAF ESSA 311430Z 3115/0115 27003KT CAVOK"
    },
    {
      "icao": "EYKA",
      "alert": "OK",
      "vis_m": 9999,
      "fzfg": false,
      "metar_trigger": false,
      "taf_trigger": false,
      "metar": "METAR EYKA 311720Z 29003KT 260V330 CAVOK M11/M14 Q1007",
      "taf": "TAF EYKA 311700Z 3118/0118 VRB03KT 9000 NSC"
    },
    {
      "icao": "EYPA",
      "alert": "OK",
      "vis_m": 9999,
      "fzfg": false,
      "metar_trigger": false,
      "taf_trigger": false,
      "metar": "METAR EYPA 311720Z AUTO 10001KT 9999 NCD M11/M13 Q1008",
      "taf": "TAF EYPA 311700Z 3118/0118 VRB02KT 9000 NSC"
    },
    {
      "icao": "EYVI",
      "alert": "OK",
      "vis_m": 9999,
      "fzfg": false,
      "metar_trigger": false,
      "taf_trigger": false,
      "metar": "METAR EYVI 311720Z 34007KT CAVOK M10/M15 Q1005 NOSIG",
      "taf": "TAF EYVI 311700Z 3118/0118 VRB03KT 9000 NSC"
    },
    {
      "icao": "GCFV",
      "alert": "OK",
      "vis_m": 9999,
      "fzfg": false,
      "metar_trigger": false,
      "taf_trigger": false,
      "metar": "METAR GCFV 311700Z 15009KT 120V180 9999 FEW020 19/15 Q1017",
      "taf": "TAF GCFV 311400Z 3115/0115 15007KT 9999 FEW010 TX21/0114Z TN15/0106Z"
    },
    {
      "icao": "GCLP",
      "alert": "OK",
      "vis_m": 9999,
      "fzfg": false,
      "metar_trigger": false,
      "taf_trigger": false,
      "metar": "METAR GCLP 311700Z 19016KT 9999 FEW020 20/15 Q1016 NOSIG",
      "taf": "TAF GCLP 311400Z 3115/0115 18018KT 9999 FEW015 TX22/0114Z TN16/0106Z"
    },
    {
      "icao": "GCTS",
      "alert": "OK",
      "vis_m": 9999,
      "fzfg": false,
      "metar_trigger": false,
      "taf_trigger": false,
      "metar": "METAR GCTS 311700Z 23009KT 200V260 9999 FEW020 20/14 Q1017 NOSIG",
      "taf": "TAF GCTS 311400Z 3115/0115 22007KT 9999 FEW025 TX23/0114Z TN16/0106Z"
    },
    {
      "icao": "GMAD",
      "alert": "OK",
      "vis_m": 9999,
      "fzfg": false,
      "metar_trigger": false,
      "taf_trigger": false,
      "metar": "METAR GMAD 311700Z 28007KT 9999 FEW040 SCT200 20/14 Q1017 NOSIG",
      "taf": "TAF GMAD 311700Z 3118/0124 25003KT 9999 FEW040 SCT200"
    },
    {
      "icao": "GMMN",
      "alert": "OK",
      "vis_m": 5000,
      "fzfg": false,
      "metar_trigger": false,
      "taf_trigger": false,
      "metar": "METAR GMMN 311700Z 24009KT 5000 DZ SCT004 BKN016 16/15 Q1017 NOSIG",
      "taf": "TAF GMMN 311700Z 3118/0124 22010KT 6000 DZ SCT004 BKN016"
    },
    {
      "icao": "GMMX",
      "alert": "OK",
      "vis_m": 9999,
      "fzfg": false,
      "metar_trigger": false,
      "taf_trigger": false,
      "metar": "METAR GMMX 311700Z 30003KT 270V340 9999 SCT026 19/13 Q1018 NOSIG",
      "taf": "TAF GMMX 311700Z 3118/0124 28008KT 8000 SCT026"
    },
    {
      "icao": "HEGN",
      "alert": "OK",
      "vis_m": 9999,
      "fzfg": false,
      "metar_trigger": false,
      "taf_trigger": false,
      "metar": "METAR HEGN 311700Z 05005KT CAVOK 20/09 Q1014 NOSIG",
      "taf": "TAF HEGN 311700Z 3118/0124 11010KT CAVOK"
    },
    {
      "icao": "HEMA",
      "alert": "OK",
      "vis_m": 9999,
      "fzfg": false,
      "metar_trigger": false,
      "taf_trigger": false,
      "metar": "METAR HEMA 311700Z 12006KT CAVOK 21/10 Q1014 NOSIG",
      "taf": "TAF HEMA 311700Z 3118/0124 13010KT CAVOK"
    },
    {
      "icao": "HESH",
      "alert": "OK",
      "vis_m": 9999,
      "fzfg": false,
      "metar_trigger": false,
      "taf_trigger": false,
      "metar": "METAR HESH 311700Z 20009KT CAVOK 21/08 Q1014 NOSIG",
      "taf": "TAF HESH 311700Z 3118/0124 21010KT 9999 SCT025"
    },
    {
      "icao": "HESX",
      "alert": "OK",
      "vis_m": 9999,
      "fzfg": false,
      "metar_trigger": false,
      "taf_trigger": false,
      "metar": "METAR HESX 311700Z 27008KT CAVOK 16/01 Q1012 NOSIG",
      "taf": "TAF HESX 311700Z 3118/0124 23010KT 9999 SCT025"
    },
    {
      "icao": "LATI",
      "alert": "OK",
      "vis_m": 9999,
      "fzfg": false,
      "metar_trigger": false,
      "taf_trigger": false,
      "metar": "METAR LATI 311720Z 36006KT CAVOK M00/M11 Q1016 NOSIG",
      "taf": "TAF LATI 311700Z 3118/0118 32010KT CAVOK TX07/0112Z TNM06/0105Z"
    },
    {
      "icao": "LBPD",
      "alert": "OK",
      "vis_m": 9999,
      "fzfg": false,
      "metar_trigger": false,
      "taf_trigger": false,
      "metar": "METAR LBPD 311700Z AUTO 27017KT 9999 NCD M01/M12 Q1015 NOSIG",
      "taf": "TAF LBPD 311700Z 3118/0118 28016KT 9999 SCT030"
    },
    {
      "icao": "LBSF",
      "alert": "OK",
      "vis_m": 9999,
      "fzfg": false,
      "metar_trigger": false,
      "taf_trigger": false,
      "metar": "METAR LBSF 311700Z AUTO 28012KT 9999 SCT066/// M05/M12 Q1015 NOSIG",
      "taf": "TAF LBSF 311700Z 3118/0118 28014KT 9999 SCT030"
    },
    {
      "icao": "LBWN",
      "alert": "OK",
      "vis_m": 9999,
      "fzfg": false,
      "metar_trigger": false,
      "taf_trigger": false,
      "metar": "METAR LBWN 311700Z AUTO 31008KT 9999 NCD M02/M07 Q1013 NOSIG",
      "taf": "TAF LBWN 311700Z 3118/0118 27010KT 9999 SCT045"
    },
    {
      "icao": "LCLK",
      "alert": "OK",
      "vis_m": 9999,
      "fzfg": false,
      "metar_trigger": false,
      "taf_trigger": false,
      "metar": "METAR LCLK 311700Z 24011KT 9999 FEW025 FEW030CB BKN050 16/12 Q1006 NOSIG",
      "taf": "TAF LCLK 311130Z 3112/0112 25020KT 9999 FEW020 SCT040"
    },
    {
      "icao": "LCPH",
      "alert": "OK",
      "vis_m": 9999,
      "fzfg": false,
      "metar_trigger": false,
      "taf_trigger": false,
      "metar": "METAR LCPH 311700Z 26014KT 250V320 9999 FEW025 FEW030CB SCT040 17/11 Q1006 NOSIG",
      "taf": "TAF LCPH 311130Z 3112/0112 26020KT 9999 SCT020 BKN040"
    },
    {
      "icao": "LEAL",
      "alert": "OK",
      "vis_m": 9999,
      "fzfg": false,
      "metar_trigger": false,
      "taf_trigger": false,
      "metar": "METAR LEAL 311700Z 10006KT 9999 FEW025 12/08 Q1019 NOSIG",
      "taf": "TAF LEAL 311700Z 3118/0118 VRB04KT 9999 BKN035 TX15/0114Z TN07/0106Z"
    },
    {
      "icao": "LEBB",
      "alert": "OK",
      "vis_m": 9999,
      "fzfg": false,
      "metar_trigger": false,
      "taf_trigger": false,
      "metar": "METAR LEBB 311700Z VRB01KT 9999 FEW025 BKN030 08/04 Q1021 NOSIG",
      "taf": "TAF LEBB 311700Z 3118/0118 12006KT 9999 FEW030 TX13/0114Z TNM00/0100Z"
    },
    {
      "icao": "LEBL",
      "alert": "OK",
      "vis_m": 9999,
      "fzfg": false,
      "metar_trigger": false,
      "taf_trigger": false,
      "metar": "METAR LEBL 311700Z 21001KT 9999 FEW023 BKN035 11/07 Q1019 NOSIG",
      "taf": "TAF LEBL 311700Z 3118/0118 34008KT 9999 FEW020 TX13/0112Z TN04/0106Z"
    },
    {
      "icao": "LECH",
      "alert": "OK",
      "vis_m": 9000,
      "fzfg": false,
      "metar_trigger": false,
      "taf_trigger": false,
      "metar": "METAR LECH 311700Z AUTO VRB02KT 9000 BKN039 08/05 Q1019",
      "taf": ""
    },
    {
      "icao": "LEMD",
      "alert": "OK",
      "vis_m": 9999,
      "fzfg": false,
      "metar_trigger": false,
      "taf_trigger": false,
      "metar": "METAR LEMD 311700Z 19003KT 150V240 CAVOK 08/00 Q1018 NOSIG",
      "taf": "TAF LEMD 311700Z 3118/0124 VRB03KT CAVOK TX06/0115Z TNM03/0108Z"
    },
    {
      "icao": "LEMG",
      "alert": "OK",
      "vis_m": 9999,
      "fzfg": false,
      "metar_trigger": false,
      "taf_trigger": false,
      "metar": "METAR LEMG 311700Z 15005KT CAVOK 14/10 Q1017 NOSIG",
      "taf": "TAF LEMG 311700Z 3118/0118 12005KT 9999 BKN020 TX17/0114Z TN13/0107Z"
    },
    {
      "icao": "LEVC",
      "alert": "OK",
      "vis_m": 9999,
      "fzfg": false,
      "metar_trigger": false,
      "taf_trigger": false,
      "metar": "METAR LEVC 311700Z 09002KT 9999 FEW035 11/05 Q1019 NOSIG",
      "taf": "TAF LEVC 311700Z 3118/0118 VRB04KT 9999 BKN025 TX15/0114Z TN05/0106Z"
    },
    {
      "icao": "LEXJ",
      "alert": "OK",
      "vis_m": 9999,
      "fzfg": false,
      "metar_trigger": false,
      "taf_trigger": false,
      "metar": "METAR LEXJ 311700Z VRB02KT 9999 OVC025 08/04 Q1021",
      "taf": "TAF LEXJ 311400Z 3115/0115 22006KT 9999 SCT020 BKN025 TX11/0114Z TN01/0104Z"
    },
    {
      "icao": "LEZG",
      "alert": "OK",
      "vis_m": 9999,
      "fzfg": false,
      "metar_trigger": false,
      "taf_trigger": false,
      "metar": "METAR LEZG 311700Z 03003KT 290V080 9999 BKN030 07/03 Q1020 NOSIG",
      "taf": "TAF LEZG 311700Z 3118/0118 VRB03KT CAVOK TX09/0114Z TNM00/0106Z"
    },
    {
      "icao": "LEZL",
      "alert": "OK",
      "vis_m": 9999,
      "fzfg": false,
      "metar_trigger": false,
      "taf_trigger": false,
      "metar": "METAR LEZL 311700Z 04003KT CAVOK 13/10 Q1017 NOSIG",
      "taf": "TAF LEZL 311400Z 3115/0115 03005KT CAVOK TX16/0114Z TN09/0107Z"
    },
    {
      "icao": "LFBD",
      "alert": "OK",
      "vis_m": 9999,
      "fzfg": false,
      "metar_trigger": false,
      "taf_trigger": false,
      "metar": "METAR LFBD 311700Z AUTO 14006KT CAVOK 01/M02 Q1023 NOSIG",
      "taf": "TAF LFBD 311100Z 3112/0118 05005KT CAVOK TX05/3114Z TNM05/0106Z"
    },
    {
      "icao": "LFLL",
      "alert": "OK",
      "vis_m": 9999,
      "fzfg": false,
      "metar_trigger": false,
      "taf_trigger": false,
      "metar": "METAR LFLL 311700Z 23001KT CAVOK M02/M04 Q1024 NOSIG",
      "taf": "TAF LFLL 311700Z 3118/0124 VRB02KT CAVOK"
    },
    {
      "icao": "LFLS",
      "alert": "OK",
      "vis_m": 9999,
      "fzfg": false,
      "metar_trigger": false,
      "taf_trigger": false,
      "metar": "METAR LFLS 311700Z AUTO VRB03KT CAVOK M03/M05 Q1022 NOSIG",
      "taf": "TAF LFLS 311400Z 3115/0115 VRB02KT CAVOK"
    },
    {
      "icao": "LFMN",
      "alert": "OK",
      "vis_m": 9999,
      "fzfg": false,
      "metar_trigger": false,
      "taf_trigger": false,
      "metar": "METAR LFMN 311700Z 10006KT 070V130 9999 BKN052 11/01 Q1018 NOSIG",
      "taf": "TAF LFMN 311400Z 3115/0121 12010KT 9999 FEW046"
    },
    {
      "icao": "LFOB",
      "alert": "OK",
      "vis_m": 9999,
      "fzfg": false,
      "metar_trigger": false,
      "taf_trigger": false,
      "metar": "METAR LFOB 311700Z AUTO VRB02KT CAVOK 00/M00 Q1026 BECMG 3000 BR",
      "taf": "TAF LFOB 311700Z 3118/0118 VRB03KT 9999 BKN035"
    },
    {
      "icao": "LFPO",
      "alert": "OK",
      "vis_m": 9999,
      "fzfg": false,
      "metar_trigger": false,
      "taf_trigger": false,
      "metar": "METAR LFPO 311700Z 00000KT 9999 FEW024 01/M01 Q1026 NOSIG",
      "taf": "TAF LFPO 311700Z 3118/0124 VRB03KT CAVOK"
    },
    {
      "icao": "LFSB",
      "alert": "OK",
      "vis_m": 9999,
      "fzfg": false,
      "metar_trigger": false,
      "taf_trigger": false,
      "metar": "METAR LFSB 311700Z AUTO 00000KT CAVOK M03/M07 Q1024 NOSIG",
      "taf": "TAF LFSB 311700Z 3118/0118 VRB03KT CAVOK"
    },
    {
      "icao": "LGAV",
      "alert": "OK",
      "vis_m": 9999,
      "fzfg": false,
      "metar_trigger": false,
      "taf_trigger": false,
      "metar": "METAR LGAV 311720Z 36009KT 9999 BKN025 BKN070 06/00 Q1014 NOSIG",
      "taf": "TAF LGAV 311700Z 3118/0118 02015KT 9999 BKN025 BKN070"
    },
    {
      "icao": "LGTS",
      "alert": "OK",
      "vis_m": 9999,
      "fzfg": false,
      "metar_trigger": false,
      "taf_trigger": false,
      "metar": "METAR LGTS 311720Z 32023KT 9999 FEW025 03/M10 Q1016 NOSIG",
      "taf": "TAF LGTS 311700Z 3118/0118 34018G30KT 9999 FEW030"
    },
    {
      "icao": "LHBP",
      "alert": "OK",
      "vis_m": 9999,
      "fzfg": false,
      "metar_trigger": false,
      "taf_trigger": false,
      "metar": "METAR LHBP 311700Z 30011KT CAVOK M01/M07 Q1015 NOSIG",
      "taf": "TAF LHBP 311715Z 3118/0118 30010KT CAVOK"
    },
    {
      "icao": "LHDC",
      "alert": "OK",
      "vis_m": 9999,
      "fzfg": false,
      "metar_trigger": false,
      "taf_trigger": false,
      "metar": "METAR LHDC 311645Z AUTO 22006KT CAVOK M05/M08 Q1014 NOSIG",
      "taf": "TAF LHDC 311415Z 3115/3124 27005KT CAVOK"
    },
    {
      "icao": "LIBD",
      "alert": "OK",
      "vis_m": 9999,
      "fzfg": false,
      "metar_trigger": false,
      "taf_trigger": false,
      "metar": "METAR LIBD 311720Z 33007G17KT 310V010 9999 SCT030 06/M05 Q1019",
      "taf": "TAF LIBD 311700Z 3118/0118 36015KT 9999 FEW050"
    },
    {
      "icao": "LIBG",
      "alert": "OK",
      "vis_m": 9999,
      "fzfg": false,
      "metar_trigger": false,
      "taf_trigger": false,
      "metar": "METAR LIBG 311650Z 34007KT 310V010 CAVOK 04/M04 Q1018",
      "taf": "TAF LIBG 311700Z 3118/0103 35007KT CAVOK"
    },
    {
      "icao": "LIBP",
      "alert": "OK",
      "vis_m": 9999,
      "fzfg": false,
      "metar_trigger": false,
      "taf_trigger": false,
      "metar": "METAR LIBP 311720Z AUTO VRB03KT 9999 NCD 02/M03 Q1021",
      "taf": "TAF LIBP 311700Z 3118/0118 VRB05KT 9999 SCT045"
    },
    {
      "icao": "LIBR",
      "alert": "OK",
      "vis_m": 9999,
      "fzfg": false,
      "metar_trigger": false,
      "taf_trigger": false,
      "metar": "METAR LIBR 311720Z 36019G29KT 9999 BKN048 06/M05 Q1017",
      "taf": "TAF LIBR 311700Z 3118/0118 35016KT 9999 FEW030"
    },
    {
      "icao": "LICA",
      "alert": "OK",
      "vis_m": 9999,
      "fzfg": false,
      "metar_trigger": false,
      "taf_trigger": false,
      "metar": "METAR LICA 311720Z AUTO 05012KT 9999 BKN100/// 09/M04 Q1016",
      "taf": "TAF LICA 311700Z 3118/0118 09012KT CAVOK"
    },
    {
      "icao": "LICC",
      "alert": "OK",
      "vis_m": 7000,
      "fzfg": false,
      "metar_trigger": false,
      "taf_trigger": false,
      "metar": "METAR LICC 311720Z 36004KT 7000 RA SCT015 BKN025 11/08 Q1016",
      "taf": "TAF LICC 311700Z 3118/0118 08008KT 9999 BKN030"
    },
    {
      "icao": "LICJ",
      "alert": "OK",
      "vis_m": 9999,
      "fzfg": false,
      "metar_trigger": false,
      "taf_trigger": false,
      "metar": "METAR LICJ 311720Z 09008KT 9999 SCT050 13/09 Q1015",
      "taf": "TAF LICJ 311700Z 3118/0118 08009KT 9999 FEW030"
    },
    {
      "icao": "LIMC",
      "alert": "OK",
      "vis_m": 9999,
      "fzfg": false,
      "metar_trigger": false,
      "taf_trigger": false,
      "metar": "METAR LIMC 311720Z VRB01KT CAVOK 02/M01 Q1019 NOSIG",
      "taf": "TAF LIMC 311700Z 3118/0124 VRB04KT 9999 SCT040"
    },
    {
      "icao": "LIME",
      "alert": "OK",
      "vis_m": 9999,
      "fzfg": false,
      "metar_trigger": false,
      "taf_trigger": false,
      "metar": "METAR LIME 311720Z VRB01KT CAVOK 03/M02 Q1019 NOSIG",
      "taf": "TAF LIME 311700Z 3118/0118 VRB04KT 9999 FEW045"
    },
    {
      "icao": "LIMF",
      "alert": "OK",
      "vis_m": 9999,
      "fzfg": false,
      "metar_trigger": false,
      "taf_trigger": false,
      "metar": "METAR LIMF 311720Z VRB02KT 9999 BKN030 05/00 Q1019",
      "taf": "TAF LIMF 311700Z 3118/0118 VRB04KT 7000 BKN040"
    },
    {
      "icao": "LIMJ",
      "alert": "OK",
      "vis_m": 9999,
      "fzfg": false,
      "metar_trigger": false,
      "taf_trigger": false,
      "metar": "METAR LIMJ 311720Z 01008KT 330V050 CAVOK 08/M01 Q1019",
      "taf": "TAF LIMJ 311700Z 3118/0118 03012KT 9999 SCT040"
    },
    {
      "icao": "LIPE",
      "alert": "OK",
      "vis_m": 9999,
      "fzfg": false,
      "metar_trigger": false,
      "taf_trigger": false,
      "metar": "METAR LIPE 311720Z VRB01KT CAVOK 02/M00 Q1020",
      "taf": "TAF LIPE 311700Z 3118/0118 VRB04KT CAVOK"
    },
    {
      "icao": "LIPH",
      "alert": "OK",
      "vis_m": 9999,
      "fzfg": false,
      "metar_trigger": false,
      "taf_trigger": false,
      "metar": "METAR LIPH 311720Z 36003KT 9999 BKN050 03/M04 Q1020",
      "taf": "TAF LIPH 311700Z 3118/0118 VRB04KT 9999 FEW040"
    },
    {
      "icao": "LIPQ",
      "alert": "OK",
      "vis_m": 9999,
      "fzfg": false,
      "metar_trigger": false,
      "taf_trigger": false,
      "metar": "METAR LIPQ 311720Z AUTO 04002KT 9999 NCD M01/M06 Q1020",
      "taf": "TAF LIPQ 311700Z 3118/0118 VRB05KT 9999 SCT040"
    },
    {
      "icao": "LIPR",
      "alert": "OK",
      "vis_m": 9999,
      "fzfg": false,
      "metar_trigger": false,
      "taf_trigger": false,
      "metar": "METAR LIPR 311720Z AUTO 21004KT 9999 NCD 02/M01 Q1020",
      "taf": "TAF LIPR 311700Z 3118/0118 VRB05KT CAVOK"
    },
    {
      "icao": "LIPX",
      "alert": "OK",
      "vis_m": 9999,
      "fzfg": false,
      "metar_trigger": false,
      "taf_trigger": false,
      "metar": "METAR LIPX 311720Z 12002KT CAVOK 01/M03 Q1020",
      "taf": "TAF LIPX 311700Z 3118/0118 VRB04KT CAVOK"
    },
    {
      "icao": "LIPY",
      "alert": "OK",
      "vis_m": 9999,
      "fzfg": false,
      "metar_trigger": false,
      "taf_trigger": false,
      "metar": "METAR LIPY 311720Z AUTO 15004KT 110V180 9999 FEW070/// 06/M02 Q1020",
      "taf": "TAF LIPY 311700Z 3118/0118 VRB05KT CAVOK"
    },
    {
      "icao": "LIPZ",
      "alert": "OK",
      "vis_m": 9999,
      "fzfg": false,
      "metar_trigger": false,
      "taf_trigger": false,
      "metar": "METAR LIPZ 311720Z 02005KT 9999 FEW055 03/M05 Q1020 NOSIG",
      "taf": "TAF LIPZ 311700Z 3118/0124 VRB05KT 9999 FEW035"
    },
    {
      "icao": "LIRF",
      "alert": "OK",
      "vis_m": 9999,
      "fzfg": false,
      "metar_trigger": false,
      "taf_trigger": false,
      "metar": "METAR LIRF 311720Z 36002KT CAVOK 05/03 Q1017 NOSIG",
      "taf": "TAF LIRF 311700Z 3118/0124 05009KT 9999 SCT035"
    },
    {
      "icao": "LIRN",
      "alert": "OK",
      "vis_m": 9999,
      "fzfg": false,
      "metar_trigger": false,
      "taf_trigger": false,
      "metar": "METAR LIRN 311720Z AUTO 05013KT 9999 NCD 06/M08 Q1018",
      "taf": "TAF LIRN 311700Z 3118/0118 05010KT CAVOK"
    },
    {
      "icao": "LIRP",
      "alert": "OK",
      "vis_m": 9999,
      "fzfg": false,
      "metar_trigger": false,
      "taf_trigger": false,
      "metar": "METAR LIRP 311715Z VRB02KT CAVOK 04/M03 Q1019 NOSIG",
      "taf": "TAF LIRP 311700Z 3118/0118 12007KT CAVOK"
    },
    {
      "icao": "LIRZ",
      "alert": "OK",
      "vis_m": 9999,
      "fzfg": false,
      "metar_trigger": false,
      "taf_trigger": false,
      "metar": "METAR LIRZ 311720Z AUTO 36009KT 9999 NCD 03/M05 Q1018",
      "taf": "TAF LIRZ 311700Z 3118/0118 VRB05KT CAVOK"
    },
    {
      "icao": "LJLJ",
      "alert": "OK",
      "vis_m": 9999,
      "fzfg": false,
      "metar_trigger": false,
      "taf_trigger": false,
      "metar": "METAR LJLJ 311700Z VRB02KT CAVOK M05/M06 Q1017 NOSIG",
      "taf": "TAF LJLJ 311700Z 3118/0118 VRB02KT CAVOK"
    },
    {
      "icao": "LKMT",
      "alert": "OK",
      "vis_m": 3500,
      "fzfg": false,
      "metar_trigger": false,
      "taf_trigger": false,
      "metar": "METAR LKMT 311700Z 22011KT 3500 SN SCT014 OVC017 M03/M04 Q1011 TEMPO 1400 SN BKN007 OVC017",
      "taf": "TAF LKMT 311700Z 3118/0118 21012KT 5000 -SN SCT010 BKN030"
    },
    {
      "icao": "LKPR",
      "alert": "OK",
      "vis_m": 9999,
      "fzfg": false,
      "metar_trigger": false,
      "taf_trigger": false,
      "metar": "METAR LKPR 311700Z 24022KT 9999 BKN036 00/M03 Q1012 NOSIG",
      "taf": "TAF LKPR 311700Z 3118/0124 24017KT 9999 BKN030"
    },
    {
      "icao": "LLBG",
      "alert": "OK",
      "vis_m": 9999,
      "fzfg": false,
      "metar_trigger": false,
      "taf_trigger": false,
      "metar": "METAR LLBG 311720Z 15008KT 9999 FEW050 15/07 Q1012 NOSIG",
      "taf": "TAF LLBG 311703Z 3118/0118 17008KT 9999 SCT040"
    },
    {
      "icao": "LMML",
      "alert": "OK",
      "vis_m": 9999,
      "fzfg": false,
      "metar_trigger": false,
      "taf_trigger": false,
      "metar": "METAR LMML 311715Z 07003KT 030V100 9999 -SHRA SCT018 14/11 Q1015 NOSIG",
      "taf": "TAF LMML 311700Z 3118/0118 08012KT 9999 SCT018"
    },
    {
      "icao": "LOWW",
      "alert": "OK",
      "vis_m": 9999,
      "fzfg": false,
      "metar_trigger": false,
      "taf_trigger": false,
      "metar": "METAR LOWW 311720Z 29023G36KT 9999 -SN DRSN FEW020 SCT030 BKN046 M00/M05 Q1014 TEMPO 4000 SN",
      "taf": "TAF LOWW 311715Z 3118/0124 28020G30KT 9999 BKN030 TX04/0111Z TNM00/0120Z"
    },
    {
      "icao": "LPFR",
      "alert": "OK",
      "vis_m": 9999,
      "fzfg": false,
      "metar_trigger": false,
      "taf_trigger": false,
      "metar": "METAR LPFR 311700Z 07007KT 9999 FEW010 SCT025 14/11 Q1017",
      "taf": "TAF LPFR 311700Z 3118/0118 08012KT 9999 FEW010 SCT025"
    },
    {
      "icao": "LPMA",
      "alert": "OK",
      "vis_m": 9999,
      "fzfg": false,
      "metar_trigger": false,
      "taf_trigger": false,
      "metar": "METAR LPMA 311700Z 22014KT 9999 -SHRA FEW008 SCT015 FEW018CB 19/16 Q1014",
      "taf": "TAF LPMA 311700Z 3118/0118 22020KT 9999 BKN015"
    },
    {
      "icao": "LPPR",
      "alert": "OK",
      "vis_m": 9999,
      "fzfg": false,
      "metar_trigger": false,
      "taf_trigger": false,
      "metar": "METAR LPPR 311700Z 01003KT 330V070 CAVOK 11/07 Q1017",
      "taf": "TAF LPPR 311700Z 3118/0118 VRB02KT CAVOK"
    },
    {
      "icao": "LPPS",
      "alert": "OK",
      "vis_m": 9999,
      "fzfg": false,
      "metar_trigger": false,
      "taf_trigger": false,
      "metar": "METAR LPPS 311700Z 20017G27KT 9999 SCT010 19/16 Q1013",
      "taf": "TAF LPPS 311700Z 3118/0124 19018KT 9999 SCT010"
    },
    {
      "icao": "LPPT",
      "alert": "OK",
      "vis_m": 9999,
      "fzfg": false,
      "metar_trigger": false,
      "taf_trigger": false,
      "metar": "METAR LPPT 311700Z VRB04KT 9999 FEW012 12/09 Q1017",
      "taf": "TAF LPPT 311700Z 3118/0124 06005KT 9999 FEW010"
    },
    {
      "icao": "LQBK",
      "alert": "OK",
      "vis_m": 9999,
      "fzfg": false,
      "metar_trigger": false,
      "taf_trigger": false,
      "metar": "METAR LQBK 311700Z 16003KT 130V200 CAVOK M02/M08 Q1020 NOSIG",
      "taf": "TAF LQBK 311700Z 3118/0118 16005KT CAVOK TX06/0113Z TNM05/0106Z"
    },
    {
      "icao": "LQSA",
      "alert": "OK",
      "vis_m": 9999,
      "fzfg": false,
      "metar_trigger": false,
      "taf_trigger": false,
      "metar": "METAR LQSA 311700Z VRB03KT CAVOK M05/M12 Q1018 NOSIG",
      "taf": "TAF LQSA 311700Z 3118/0118 29005KT 9999 FEW050 TX02/0112Z TNM10/0104Z"
    },
    {
      "icao": "LQTZ",
      "alert": "OK",
      "vis_m": 9999,
      "fzfg": false,
      "metar_trigger": false,
      "taf_trigger": false,
      "metar": "METAR LQTZ 311700Z VRB01KT CAVOK M06/M09 Q1019",
      "taf": "TAF LQTZ 311700Z 3118/0118 27005KT CAVOK TX05/0113Z TNM06/0106Z"
    },
    {
      "icao": "LRBC",
      "alert": "OK",
      "vis_m": 9999,
      "fzfg": false,
      "metar_trigger": false,
      "taf_trigger": false,
      "metar": "METAR LRBC 311700Z 00000KT CAVOK M04/M13 Q1010",
      "taf": "TAF LRBC 311400Z 3115/3124 28014KT 9999 SCT055"
    },
    {
      "icao": "LRBS",
      "alert": "OK",
      "vis_m": 9999,
      "fzfg": false,
      "metar_trigger": false,
      "taf_trigger": false,
      "metar": "METAR LRBS 311700Z 30006KT 250V040 CAVOK M01/M07 Q1013 NOSIG",
      "taf": ""
    },
    {
      "icao": "LRBV",
      "alert": "OK",
      "vis_m": 9999,
      "fzfg": false,
      "metar_trigger": false,
      "taf_trigger": false,
      "metar": "METAR LRBV 311700Z 29007KT 260V330 9999 FEW024 SCT046 M06/M10 Q1011",
      "taf": "TAF LRBV 311400Z 3115/3124 28010KT 9999 SCT025 BKN045"
    },
    {
      "icao": "LRCL",
      "alert": "OK",
      "vis_m": 9999,
      "fzfg": false,
      "metar_trigger": false,
      "taf_trigger": false,
      "metar": "METAR LRCL 311700Z COR 30005KT 9999 FEW056 M06/M10 Q1013",
      "taf": "TAF LRCL 311400Z 3115/3124 28012KT 9999 BKN050"
    },
    {
      "icao": "LRCV",
      "alert": "OK",
      "vis_m": 9999,
      "fzfg": false,
      "metar_trigger": false,
      "taf_trigger": false,
      "metar": "METAR LRCV 311700Z 29011KT CAVOK M03/M07 Q1014",
      "taf": "TAF LRCV 311400Z 3115/3124 29016KT CAVOK"
    },
    {
      "icao": "LRIA",
      "alert": "OK",
      "vis_m": 9999,
      "fzfg": false,
      "metar_trigger": false,
      "taf_trigger": false,
      "metar": "METAR LRIA 311700Z 31006KT CAVOK M04/M08 Q1010",
      "taf": "TAF LRIA 311400Z 3115/3124 31015KT 9999 SCT035"
    },
    {
      "icao": "LROP",
      "alert": "OK",
      "vis_m": 9999,
      "fzfg": false,
      "metar_trigger": false,
      "taf_trigger": false,
      "metar": "METAR LROP 311700Z 27010KT CAVOK M01/M09 Q1013 NOSIG",
      "taf": "TAF LROP 311100Z 3112/0112 28010KT CAVOK"
    },
    {
      "icao": "LRSB",
      "alert": "OK",
      "vis_m": 9999,
      "fzfg": false,
      "metar_trigger": false,
      "taf_trigger": false,
      "metar": "METAR LRSB 311700Z 30011KT 9999 FEW042 BKN065 M05/M09 Q1012",
      "taf": "TAF LRSB 311100Z 3112/0112 29010KT 9999 BKN045"
    },
    {
      "icao": "LRSM",
      "alert": "OK",
      "vis_m": 9999,
      "fzfg": false,
      "metar_trigger": false,
      "taf_trigger": false,
      "metar": "METAR LRSM 311700Z AUTO 25013KT 9999 BKN060/// M04/M07 Q1014",
      "taf": "TAF LRSM 311100Z 3112/3121 26014KT 9999 SCT030"
    },
    {
      "icao": "LRSV",
      "alert": "OK",
      "vis_m": 9999,
      "fzfg": false,
      "metar_trigger": false,
      "taf_trigger": false,
      "metar": "METAR LRSV 311700Z COR 33012KT CAVOK M06/M10 Q1008",
      "taf": "TAF LRSV 311400Z 3115/3124 32016KT 9999 SCT035"
    },
    {
      "icao": "LRTM",
      "alert": "OK",
      "vis_m": 9999,
      "fzfg": false,
      "metar_trigger": false,
      "taf_trigger": false,
      "metar": "METAR LRTM 311700Z 24003KT 9999 FEW021 M06/M10 Q1013",
      "taf": "TAF LRTM 311400Z 3115/3124 28012KT 9999 SCT025 BKN040"
    },
    {
      "icao": "LRTR",
      "alert": "OK",
      "vis_m": 9999,
      "fzfg": false,
      "metar_trigger": false,
      "taf_trigger": false,
      "metar": "METAR LRTR 311700Z 29006KT 9999 FEW025 SCT045 M03/M08 Q1017",
      "taf": "TAF LRTR 311100Z 3112/0112 31013KT 9999 SCT025"
    },
    {
      "icao": "LTAC",
      "alert": "OK",
      "vis_m": 9999,
      "fzfg": false,
      "metar_trigger": false,
      "taf_trigger": false,
      "metar": "METAR LTAC 311650Z 30007KT 280V340 9999 SCT040 BKN100 M02/M08 Q1007 NOSIG RMK RWY21C 28008KT RWY03L 29008KT RWY21R 27007KT RWY03R 29007KT RWY21L 28008KT",
      "taf": "TAF LTAC 311640Z 3118/0118 VRB02KT 9999 SCT040 BKN100"
    },
    {
      "icao": "LTFM",
      "alert": "OK",
      "vis_m": 9999,
      "fzfg": false,
      "metar_trigger": false,
      "taf_trigger": false,
      "metar": "METAR LTFM 311650Z 24004KT 190V290 CAVOK 01/M10 Q1014 NOSIG RMK RWY17L 23004KT RWY34L 24005KT RWY16R 22005KT RWY36 21004KT 180V250 RWY18 24006KT",
      "taf": "TAF LTFM 311640Z 3118/0124 33008KT CAVOK"
    },
    {
      "icao": "LUKK",
      "alert": "OK",
      "vis_m": 9999,
      "fzfg": false,
      "metar_trigger": false,
      "taf_trigger": false,
      "metar": "METAR LUKK 311700Z 31013KT CAVOK M04/M10 Q1008 NOSIG",
      "taf": "TAF LUKK 311720Z 3118/0118 28010KT 9999 SCT030"
    },
    {
      "icao": "LWOH",
      "alert": "OK",
      "vis_m": 9999,
      "fzfg": false,
      "metar_trigger": false,
      "taf_trigger": false,
      "metar": "METAR LWOH 311650Z 31008KT CAVOK M04/M13 Q1014",
      "taf": "TAF LWOH 311445Z 3115/0115 33008KT CAVOK"
    },
    {
      "icao": "LWSK",
      "alert": "OK",
      "vis_m": 9999,
      "fzfg": false,
      "metar_trigger": false,
      "taf_trigger": false,
      "metar": "METAR LWSK 311720Z 35007KT CAVOK M04/M14 Q1018 NOSIG",
      "taf": "TAF LWSK 311445Z 3115/0115 30008KT CAVOK"
    },
    {
      "icao": "LYBE",
      "alert": "OK",
      "vis_m": 9999,
      "fzfg": false,
      "metar_trigger": false,
      "taf_trigger": false,
      "metar": "METAR LYBE 311700Z COR 28008KT 9999 FEW047 M03/M07 Q1019 NOSIG",
      "taf": "TAF LYBE 311700Z 3118/0118 25008KT CAVOK TX05/0112Z TNM04/3123Z"
    },
    {
      "icao": "LYNI",
      "alert": "OK",
      "vis_m": 9999,
      "fzfg": false,
      "metar_trigger": false,
      "taf_trigger": false,
      "metar": "METAR LYNI 311700Z 30008KT 9999 FEW050 SCT070 M02/M11 Q1018 NOSIG",
      "taf": "TAF LYNI 311700Z 3118/0118 31010KT 9999 SCT040 BKN070 TX02/0112Z TNM06/0106Z"
    },
    {
      "icao": "LYPG",
      "alert": "OK",
      "vis_m": 9999,
      "fzfg": false,
      "metar_trigger": false,
      "taf_trigger": false,
      "metar": "METAR LYPG 311700Z 36013KT CAVOK 02/M16 Q1018 NOSIG",
      "taf": "TAF LYPG 311700Z 3118/0118 36015G25KT CAVOK TX05/0112Z TNM05/0106Z"
    },
    {
      "icao": "LZIB",
      "alert": "OK",
      "vis_m": 6000,
      "fzfg": false,
      "metar_trigger": false,
      "taf_trigger": false,
      "metar": "METAR LZIB 311700Z 26011KT 6000 -SN SCT018 OVC040 M01/M04 Q1014 NOSIG",
      "taf": "TAF LZIB 311715Z 3118/0118 29016KT 9999 SCT020 BKN030"
    },
    {
      "icao": "LZKZ",
      "alert": "OK",
      "vis_m": 9999,
      "fzfg": false,
      "metar_trigger": false,
      "taf_trigger": false,
      "metar": "METAR LZKZ 311700Z 26005KT CAVOK M05/M10 Q1012 NOSIG",
      "taf": "TAF LZKZ 311715Z 3118/0118 26005KT 9999 BKN030"
    },
    {
      "icao": "LZTT",
      "alert": "OK",
      "vis_m": 9999,
      "fzfg": false,
      "metar_trigger": false,
      "taf_trigger": false,
      "metar": "METAR LZTT 311700Z 27014KT 9999 -SN SCT050 M06/M09 Q1008 NOSIG",
      "taf": "TAF LZTT 311715Z 3118/0118 27015KT 9999 SCT030 BKN045"
    },
    {
      "icao": "OEJN",
      "alert": "OK",
      "vis_m": 9999,
      "fzfg": false,
      "metar_trigger": false,
      "taf_trigger": false,
      "metar": "METAR OEJN 311700Z 34007KT CAVOK 24/14 Q1015 NOSIG",
      "taf": "TAF OEJN 311700Z 3118/0124 03008KT CAVOK"
    },
    {
      "icao": "OEMA",
      "alert": "OK",
      "vis_m": 9999,
      "fzfg": false,
      "metar_trigger": false,
      "taf_trigger": false,
      "metar": "METAR OEMA 311700Z 24008KT CAVOK 23/M06 Q1017 NOSIG",
      "taf": "TAF OEMA 311700Z 3118/0124 27010KT CAVOK"
    },
    {
      "icao": "OJAI",
      "alert": "OK",
      "vis_m": 5000,
      "fzfg": false,
      "metar_trigger": false,
      "taf_trigger": false,
      "metar": "METAR OJAI 311700Z 23010KT 5000 HZ SCT030 10/06 Q1013 NOSIG",
      "taf": "TAF OJAI 311700Z 3118/0124 24014KT 5000 HZ SCT035"
    },
    {
      "icao": "OMAA",
      "alert": "OK",
      "vis_m": 9999,
      "fzfg": false,
      "metar_trigger": false,
      "taf_trigger": false,
      "metar": "METAR OMAA 311700Z 31007KT 9999 SCT045 19/10 Q1018 NOSIG",
      "taf": "TAF OMAA 311700Z 3118/0200 22005KT 8000 SCT040"
    },
    {
      "icao": "OMDB",
      "alert": "OK",
      "vis_m": 9999,
      "fzfg": false,
      "metar_trigger": false,
      "taf_trigger": false,
      "metar": "METAR OMDB 311700Z 26005KT 230V290 9999 FEW045 21/10 Q1018 NOSIG",
      "taf": "TAF OMDB 311700Z 3118/0200 26010KT 8000 FEW040"
    },
    {
      "icao": "UAAA",
      "alert": "OK",
      "vis_m": 3600,
      "fzfg": false,
      "metar_trigger": false,
      "taf_trigger": false,
      "metar": "METAR UAAA 311700Z 24004MPS 210V270 3600 -SHRA BR SCT009 BKN018CB OVC100 06/04 Q1019 NOSIG",
      "taf": "TAF UAAA 311712Z 3118/0118 25003MPS 3100 -SHRASN BR BKN005 OVC015CB TX01/0109Z TNM01/0101Z"
    },
    {
      "icao": "UBBB",
      "alert": "OK",
      "vis_m": 9999,
      "fzfg": false,
      "metar_trigger": false,
      "taf_trigger": false,
      "metar": "METAR UBBB 311700Z 22004KT CAVOK 09/M03 Q1006 NOSIG",
      "taf": "TAF UBBB 311702Z 3118/0118 26005KT 9999 SCT040 TX07/0110Z TN04/0103Z"
    },
    {
      "icao": "UDSG",
      "alert": "OK",
      "vis_m": 2600,
      "fzfg": false,
      "metar_trigger": false,
      "taf_trigger": false,
      "metar": "METAR UDSG 311700Z 00000KT 2600 -SN BR OVC020 M07/M08 Q1007 NOSIG",
      "taf": "TAF UDSG 311700Z 3118/0118 VRB06KT 2000 BR OVC020"
    },
    {
      "icao": "UDYZ",
      "alert": "OK",
      "vis_m": 8000,
      "fzfg": false,
      "metar_trigger": false,
      "taf_trigger": false,
      "metar": "METAR UDYZ 311700Z 11001KT 8000 BKN046 M03/M07 Q1010 NOSIG",
      "taf": "TAF UDYZ 311700Z 3118/0118 04006KT 6000 BKN040"
    },
    {
      "icao": "UGKO",
      "alert": "OK",
      "vis_m": 9999,
      "fzfg": false,
      "metar_trigger": false,
      "taf_trigger": false,
      "metar": "METAR UGKO 311700Z 03004KT 9999 -RA BKN047 02/01 Q1006 NOSIG",
      "taf": "TAF UGKO 311700Z 3118/0118 08006KT 9999 SCT020 OVC050 TX03/0111Z TNM00/0103Z"
    }
  ]
}