{
  "ts_utc": "2026-02-06T07:11:56Z",
  "threshold_m": 150,
  "source": "stations_override.txt (ICAO list) + aviationweather.gov (METAR/TAF raw)",
  "station_count": 159,
  "stations": [
    {
      "icao": "BIKF",
      "alert": "OK",
      "vis_m": 9999,
      "fzfg": false,
      "metar_trigger": false,
      "taf_trigger": false,
      "metar": "METAR BIKF 060700Z 02010KT CAVOK M01/M03 Q1005",
      "taf": "TAF BIKF 060433Z 0606/0706 01012KT CAVOK TX04/0617Z TNM01/0705Z"
    },
    {
      "icao": "BKPR",
      "alert": "OK",
      "vis_m": 2500,
      "fzfg": false,
      "metar_trigger": false,
      "taf_trigger": false,
      "metar": "METAR BKPR 060700Z VRB02KT 2500 BR FEW003 SCT050 01/01 Q0998 BECMG 5000 BR",
      "taf": "TAF BKPR 060530Z 0606/0706 17010KT 9999 BKN040"
    },
    {
      "icao": "EBCI",
      "alert": "OK",
      "vis_m": 8000,
      "fzfg": false,
      "metar_trigger": false,
      "taf_trigger": false,
      "metar": "METAR EBCI 060650Z 15005KT 8000 -RA BKN012 06/05 Q0986 NOSIG",
      "taf": "TAF EBCI 060515Z 0606/0712 15006KT 9999 -RA FEW025 BKN040"
    },
    {
      "icao": "EDDB",
      "alert": "OK",
      "vis_m": 2200,
      "fzfg": false,
      "metar_trigger": false,
      "taf_trigger": false,
      "metar": "METAR EDDB 060650Z AUTO 08005KT 2200 BR OVC003 M00/M00 Q0994 REFZRA NOSIG",
      "taf": "TAF EDDB 060500Z 0606/0706 09008KT 4000 BR BKN004"
    },
    {
      "icao": "EDDH",
      "alert": "OK",
      "vis_m": 5000,
      "fzfg": false,
      "metar_trigger": false,
      "taf_trigger": false,
      "metar": "METAR EDDH 060650Z AUTO 08006KT 5000 BR OVC003 M01/M01 Q0994 NOSIG",
      "taf": ""
    },
    {
      "icao": "EDDK",
      "alert": "OK",
      "vis_m": 9999,
      "fzfg": false,
      "metar_trigger": false,
      "taf_trigger": false,
      "metar": "METAR EDDK 060650Z AUTO 12007KT 080V150 9999 FEW019 02/01 Q0990 NOSIG",
      "taf": "TAF EDDK 060500Z 0606/0712 12007KT 9999 BKN040"
    },
    {
      "icao": "EDDN",
      "alert": "OK",
      "vis_m": 9999,
      "fzfg": false,
      "metar_trigger": false,
      "taf_trigger": false,
      "metar": "METAR EDDN 060650Z AUTO 10005KT 070V130 9999 OVC005 01/00 Q0991 TEMPO OVC004",
      "taf": "TAF EDDN 060500Z 0606/0706 12006KT 9999 OVC007"
    },
    {
      "icao": "EDDS",
      "alert": "OK",
      "vis_m": 7000,
      "fzfg": false,
      "metar_trigger": false,
      "taf_trigger": false,
      "metar": "METAR EDDS 060650Z AUTO VRB02KT 7000 NSC M01/M02 Q0990 NOSIG",
      "taf": "TAF EDDS 060500Z 0606/0706 VRB02KT 9999 BKN045"
    },
    {
      "icao": "EDFH",
      "alert": "OK",
      "vis_m": 450,
      "fzfg": true,
      "metar_trigger": false,
      "taf_trigger": false,
      "metar": "METAR EDFH 060650Z 14014KT 0450 R21/0550N FZFG VV/// M01/M01 Q0989",
      "taf": "TAF EDFH 060500Z 0606/0706 14013KT 0800 FG OVC003"
    },
    {
      "icao": "EDJA",
      "alert": "OK",
      "vis_m": 5000,
      "fzfg": false,
      "metar_trigger": false,
      "taf_trigger": false,
      "metar": "METAR EDJA 060650Z 23008KT 5000 -RASN BR FEW036 BKN041 00/M01 Q0990",
      "taf": ""
    },
    {
      "icao": "EDLW",
      "alert": "OK",
      "vis_m": 6000,
      "fzfg": false,
      "metar_trigger": false,
      "taf_trigger": false,
      "metar": "METAR EDLW 060650Z 00000KT 6000 NSC M01/M01 Q0990",
      "taf": "TAF EDLW 060500Z 0606/0706 08004KT 8000 NSC"
    },
    {
      "icao": "EDNY",
      "alert": "OK",
      "vis_m": 7000,
      "fzfg": false,
      "metar_trigger": false,
      "taf_trigger": false,
      "metar": "METAR EDNY 060650Z VRB02KT 7000 BKN043 00/M00 Q0991",
      "taf": ""
    },
    {
      "icao": "EDSB",
      "alert": "OK",
      "vis_m": 4000,
      "fzfg": false,
      "metar_trigger": false,
      "taf_trigger": false,
      "metar": "METAR EDSB 060650Z 00000KT 4000 BR OVC006 01/M00 Q0992",
      "taf": "TAF EDSB 060500Z 0606/0706 VRB02KT 7000 BKN008"
    },
    {
      "icao": "EETN",
      "alert": "OK",
      "vis_m": 8000,
      "fzfg": false,
      "metar_trigger": false,
      "taf_trigger": false,
      "metar": "METAR EETN 060650Z 08009KT 8000 -SN OVC020 M12/M13 Q1013 NOSIG",
      "taf": "TAF EETN 060530Z 0606/0706 08012KT 9999 OVC020"
    },
    {
      "icao": "EFTU",
      "alert": "OK",
      "vis_m": 9999,
      "fzfg": false,
      "metar_trigger": false,
      "taf_trigger": false,
      "metar": "METAR EFTU 060650Z AUTO 06007KT 030V090 CAVOK M17/M19 Q1015",
      "taf": "TAF EFTU 060524Z 0606/0706 06005KT CAVOK"
    },
    {
      "icao": "EGBB",
      "alert": "OK",
      "vis_m": 4000,
      "fzfg": false,
      "metar_trigger": false,
      "taf_trigger": false,
      "metar": "METAR EGBB 060650Z 08010KT 4000 RA OVC004 05/05 Q0983 REDZ",
      "taf": "TAF EGBB 060456Z 0606/0706 07009KT 9999 SCT004 BKN009"
    },
    {
      "icao": "EGGP",
      "alert": "OK",
      "vis_m": 9999,
      "fzfg": false,
      "metar_trigger": false,
      "taf_trigger": false,
      "metar": "METAR EGGP 060650Z 08015KT 9999 -RA BKN036 04/02 Q0984",
      "taf": "TAF EGGP 060459Z 0606/0706 07014KT 9999 FEW025 SCT040"
    },
    {
      "icao": "EGGW",
      "alert": "OK",
      "vis_m": 6000,
      "fzfg": false,
      "metar_trigger": false,
      "taf_trigger": false,
      "metar": "METAR EGGW 060650Z AUTO 10010KT 6000 -RA OVC003 07/07 Q0983",
      "taf": "TAF EGGW 060454Z 0606/0706 11010KT 6000 -RA SCT003 BKN006"
    },
    {
      "icao": "EGKK",
      "alert": "OK",
      "vis_m": 2600,
      "fzfg": false,
      "metar_trigger": false,
      "taf_trigger": false,
      "metar": "METAR EGKK 060650Z 09006KT 2600 -DZ BKN004 09/09 Q0982",
      "taf": "TAF EGKK 060454Z 0606/0712 10007KT 9999 SCT006 BKN010"
    },
    {
      "icao": "EGNM",
      "alert": "OK",
      "vis_m": 2500,
      "fzfg": false,
      "metar_trigger": false,
      "taf_trigger": false,
      "metar": "METAR EGNM 060650Z 06007KT 020V090 2500 -RA BR OVC002 02/02 Q0987",
      "taf": "TAF EGNM 060502Z 0606/0706 08012KT 0200 FG OVC001"
    },
    {
      "icao": "EGPD",
      "alert": "OK",
      "vis_m": 9999,
      "fzfg": false,
      "metar_trigger": false,
      "taf_trigger": false,
      "metar": "METAR EGPD 060650Z AUTO 09012KT 070V130 9999 -RA FEW017 SCT022 OVC032 03/00 Q0996 TEMPO SHRA",
      "taf": "TAF EGPD 060455Z 0606/0706 10012KT 9999 BKN016"
    },
    {
      "icao": "EGPF",
      "alert": "OK",
      "vis_m": 9999,
      "fzfg": false,
      "metar_trigger": false,
      "taf_trigger": false,
      "metar": "METAR EGPF 060650Z AUTO 06014KT 9999 BKN016 BKN021 OVC039 04/01 Q0991",
      "taf": "TAF EGPF 060454Z 0606/0706 07012KT 9999 SCT015 BKN025"
    },
    {
      "icao": "EHBK",
      "alert": "OK",
      "vis_m": 4600,
      "fzfg": false,
      "metar_trigger": false,
      "taf_trigger": false,
      "metar": "METAR EHBK 060655Z AUTO 10008KT 4600 -RA BKN042 OVC048 04/04 Q0988 REDZRA TEMPO 8000",
      "taf": "TAF EHBK 060505Z 0606/0712 10006KT 9999 OVC030"
    },
    {
      "icao": "EHEH",
      "alert": "OK",
      "vis_m": null,
      "fzfg": false,
      "metar_trigger": false,
      "taf_trigger": false,
      "metar": "",
      "taf": "TAF EHEH 060544Z 0606/0712 10007KT 7000 SCT040"
    },
    {
      "icao": "EKBI",
      "alert": "OK",
      "vis_m": 9999,
      "fzfg": false,
      "metar_trigger": false,
      "taf_trigger": false,
      "metar": "METAR EKBI 060650Z AUTO 07017KT 9999 -SN OVC009/// M01/M03 Q0997",
      "taf": "TAF EKBI 060527Z 0606/0706 07015KT 9999 BKN010"
    },
    {
      "icao": "EKCH",
      "alert": "OK",
      "vis_m": 4000,
      "fzfg": false,
      "metar_trigger": false,
      "taf_trigger": false,
      "metar": "METAR EKCH 060650Z 08010KT 4000 -SN BKN013 01/M01 Q0999 TEMPO 5000 BKN015",
      "taf": "TAF EKCH 060527Z 0606/0706 07015KT 7000 BKN012"
    },
    {
      "icao": "ENAL",
      "alert": "OK",
      "vis_m": 9999,
      "fzfg": false,
      "metar_trigger": false,
      "taf_trigger": false,
      "metar": "METAR ENAL 060650Z 06004KT CAVOK M07/M11 Q1006",
      "taf": "TAF ENAL 060500Z 0606/0615 09008KT CAVOK"
    },
    {
      "icao": "ENBR",
      "alert": "OK",
      "vis_m": 9999,
      "fzfg": false,
      "metar_trigger": false,
      "taf_trigger": false,
      "metar": "METAR ENBR 060650Z VRB02KT CAVOK M04/M13 Q1004 NOSIG RMK WIND 1200FT 10008KT",
      "taf": "TAF ENBR 052300Z 0600/0624 04005KT CAVOK"
    },
    {
      "icao": "ENGM",
      "alert": "OK",
      "vis_m": 9999,
      "fzfg": false,
      "metar_trigger": false,
      "taf_trigger": false,
      "metar": "METAR ENGM 060650Z 01011KT 9999 FEW011 M12/M16 Q1013 NOSIG",
      "taf": ""
    },
    {
      "icao": "ENHD",
      "alert": "OK",
      "vis_m": 9999,
      "fzfg": false,
      "metar_trigger": false,
      "taf_trigger": false,
      "metar": "METAR ENHD 060650Z 08009KT CAVOK 01/M11 Q1004",
      "taf": "TAF ENHD 060500Z 0606/0615 03008KT CAVOK"
    },
    {
      "icao": "ENTC",
      "alert": "OK",
      "vis_m": 9999,
      "fzfg": false,
      "metar_trigger": false,
      "taf_trigger": false,
      "metar": "METAR ENTC 060650Z 23006KT 200V270 9999 -SHRASN SCT013 BKN029 01/M01 Q1011 TEMPO 4000 -SHSN VV012 RMK WIND 2600FT 32035KT",
      "taf": "TAF ENTC 060500Z 0606/0706 22006KT 9999 FEW010 SCT020 BKN030"
    },
    {
      "icao": "ENTO",
      "alert": "OK",
      "vis_m": 9999,
      "fzfg": false,
      "metar_trigger": false,
      "taf_trigger": false,
      "metar": "METAR ENTO 060650Z 02017KT 9999 -SN OVC020 M08/M11 Q1011 TEMPO 02018G28KT",
      "taf": "TAF ENTO 060500Z 0606/0706 02018KT 9999 -SN BKN018"
    },
    {
      "icao": "ENVA",
      "alert": "OK",
      "vis_m": 9999,
      "fzfg": false,
      "metar_trigger": false,
      "taf_trigger": false,
      "metar": "METAR ENVA 060650Z 12010KT CAVOK M13/M20 Q1014 NOSIG RMK WIND 670FT 12008KT",
      "taf": "TAF ENVA 052300Z 0600/0624 11008KT CAVOK"
    },
    {
      "icao": "ENZV",
      "alert": "OK",
      "vis_m": 9999,
      "fzfg": false,
      "metar_trigger": false,
      "taf_trigger": false,
      "metar": "METAR ENZV 060650Z 09012KT 9999 SCT032 BKN042 01/M09 Q1004 NOSIG",
      "taf": ""
    },
    {
      "icao": "EPGD",
      "alert": "OK",
      "vis_m": 3500,
      "fzfg": false,
      "metar_trigger": false,
      "taf_trigger": false,
      "metar": "METAR EPGD 060700Z 09008KT 3500 BR OVC002 M03/M03 Q0999",
      "taf": "TAF EPGD 060530Z 0606/0706 09008KT 6000 BKN006"
    },
    {
      "icao": "EPKK",
      "alert": "OK",
      "vis_m": 600,
      "fzfg": true,
      "metar_trigger": false,
      "taf_trigger": false,
      "metar": "METAR EPKK 060700Z 06008KT 0600 R25/1100D FZFG OVC001 M00/M00 Q0995",
      "taf": "TAF EPKK 060530Z 0606/0706 06007KT 0500 FZFG OVC001"
    },
    {
      "icao": "EPKT",
      "alert": "OK",
      "vis_m": 7000,
      "fzfg": false,
      "metar_trigger": false,
      "taf_trigger": false,
      "metar": "METAR EPKT 060700Z 07004KT 7000 FEW003 00/M00 Q0994",
      "taf": "TAF EPKT 060530Z 0606/0706 08006KT 8000 FEW004 SCT030"
    },
    {
      "icao": "EPLB",
      "alert": "OK",
      "vis_m": 400,
      "fzfg": false,
      "metar_trigger": false,
      "taf_trigger": false,
      "metar": "METAR EPLB 060700Z 10009KT 0400 R25/0600N FG VV002 00/00 Q0998",
      "taf": ""
    },
    {
      "icao": "EPMO",
      "alert": "OK",
      "vis_m": 2000,
      "fzfg": false,
      "metar_trigger": false,
      "taf_trigger": false,
      "metar": "METAR EPMO 060700Z 08009KT 2000 BR OVC004 M01/M01 Q0998",
      "taf": "TAF EPMO 060530Z 0606/0706 09010KT 5000 BR OVC005"
    },
    {
      "icao": "EPPO",
      "alert": "OK",
      "vis_m": 1700,
      "fzfg": false,
      "metar_trigger": false,
      "taf_trigger": false,
      "metar": "METAR EPPO 060700Z 10008KT 1700 BR OVC002 00/M00 Q0996",
      "taf": "TAF EPPO 060530Z 0606/0706 09008KT 2000 BR OVC006"
    },
    {
      "icao": "EPRA",
      "alert": "OK",
      "vis_m": 900,
      "fzfg": false,
      "metar_trigger": false,
      "taf_trigger": false,
      "metar": "METAR EPRA 060700Z 10008KT 0900 R07/1200N FG OVC002 01/00 Q0997",
      "taf": "TAF EPRA 060530Z 0606/0615 11008KT 1500 BR OVC003"
    },
    {
      "icao": "EPRZ",
      "alert": "OK",
      "vis_m": 6000,
      "fzfg": false,
      "metar_trigger": false,
      "taf_trigger": false,
      "metar": "METAR EPRZ 060700Z 09009KT 6000 -RA OVC003 01/01 Q0997",
      "taf": "TAF EPRZ 060530Z 0606/0706 09010KT 4500 -RA BR OVC002"
    },
    {
      "icao": "EPSC",
      "alert": "OK",
      "vis_m": 4800,
      "fzfg": false,
      "metar_trigger": false,
      "taf_trigger": false,
      "metar": "METAR EPSC 060700Z 07004KT 4800 -FZRA BR OVC008 M01/M01 Q0996",
      "taf": "TAF EPSC 060530Z 0606/0706 09006KT 4000 BR BKN006"
    },
    {
      "icao": "EPSY",
      "alert": "OK",
      "vis_m": 5000,
      "fzfg": false,
      "metar_trigger": false,
      "taf_trigger": false,
      "metar": "METAR EPSY 060700Z 11005KT 050V170 5000 -FZRA BR OVC002 M02/M02 Q1000",
      "taf": "TAF EPSY 060530Z 0606/0615 10008KT 7000 OVC005"
    },
    {
      "icao": "EPWA",
      "alert": "OK",
      "vis_m": 3200,
      "fzfg": false,
      "metar_trigger": false,
      "taf_trigger": false,
      "metar": "METAR EPWA 060700Z 10009KT 050V160 3200 BR OVC002 M00/M00 Q0998 NOSIG",
      "taf": "TAF EPWA 060530Z 0606/0706 10009KT 5000 BR OVC003"
    },
    {
      "icao": "EPWR",
      "alert": "OK",
      "vis_m": 4000,
      "fzfg": false,
      "metar_trigger": false,
      "taf_trigger": false,
      "metar": "METAR EPWR 060700Z 11005KT 4000 BR BKN013 01/01 Q0994",
      "taf": "TAF EPWR 060530Z 0606/0706 10010KT 4000 BR BKN030"
    },
    {
      "icao": "ESGG",
      "alert": "OK",
      "vis_m": 4100,
      "fzfg": false,
      "metar_trigger": false,
      "taf_trigger": false,
      "metar": "METAR ESGG 060650Z 05016KT 4100 -SN OVC015 M04/M06 Q1003",
      "taf": "TAF ESGG 060530Z 0606/0706 05017KT 9999 -SN OVC008"
    },
    {
      "icao": "ESKN",
      "alert": "OK",
      "vis_m": 9999,
      "fzfg": false,
      "metar_trigger": false,
      "taf_trigger": false,
      "metar": "METAR ESKN 060650Z AUTO 03011KT 350V060 9999 OVC007/// M07/M09 Q1010",
      "taf": "TAF ESKN 060530Z 0606/0706 03010KT 9999 OVC007"
    },
    {
      "icao": "ESMS",
      "alert": "OK",
      "vis_m": 9000,
      "fzfg": false,
      "metar_trigger": false,
      "taf_trigger": false,
      "metar": "METAR ESMS 060650Z 09019KT 9000 -DZSN OVC009 00/M01 Q0998",
      "taf": "TAF ESMS 060527Z 0606/0706 08018KT 6000 -SNRA BKN010"
    },
    {
      "icao": "ESSA",
      "alert": "OK",
      "vis_m": 9000,
      "fzfg": false,
      "metar_trigger": false,
      "taf_trigger": false,
      "metar": "METAR ESSA 060650Z 02010KT 9000 -SN SCT006 M12/M14 Q1013 TEMPO BKN012",
      "taf": ""
    },
    {
      "icao": "EYKA",
      "alert": "OK",
      "vis_m": 9999,
      "fzfg": false,
      "metar_trigger": false,
      "taf_trigger": false,
      "metar": "METAR EYKA 060650Z 10007KT 9999 OVC007 M05/M06 Q1005",
      "taf": "TAF EYKA 060525Z 0606/0706 09010KT 5000 BR OVC005"
    },
    {
      "icao": "EYPA",
      "alert": "OK",
      "vis_m": 9999,
      "fzfg": false,
      "metar_trigger": false,
      "taf_trigger": false,
      "metar": "METAR EYPA 060650Z 09009KT 9999 OVC031 M05/M08 Q1005",
      "taf": "TAF EYPA 060525Z 0606/0706 09010KT 9000 OVC030"
    },
    {
      "icao": "EYVI",
      "alert": "OK",
      "vis_m": 9999,
      "fzfg": false,
      "metar_trigger": false,
      "taf_trigger": false,
      "metar": "METAR EYVI 060650Z 12008KT 9999 OVC005 M06/M07 Q1005 NOSIG",
      "taf": "TAF EYVI 060509Z 0606/0706 14012KT 9000 BKN005 OVC010"
    },
    {
      "icao": "GCFV",
      "alert": "OK",
      "vis_m": 9999,
      "fzfg": false,
      "metar_trigger": false,
      "taf_trigger": false,
      "metar": "METAR GCFV 060700Z 28006KT 250V320 9999 FEW027 18/13 Q1019",
      "taf": "TAF GCFV 060200Z 0603/0703 33015KT 9999 BKN025 TX21/0614Z TN15/0606Z"
    },
    {
      "icao": "GCLP",
      "alert": "OK",
      "vis_m": 9999,
      "fzfg": false,
      "metar_trigger": false,
      "taf_trigger": false,
      "metar": "METAR GCLP 060700Z 36014KT 9999 FEW035 19/12 Q1019 NOSIG",
      "taf": "TAF GCLP 060200Z 0603/0703 35016KT 9999 BKN025 TX22/0614Z TN15/0606Z"
    },
    {
      "icao": "GCTS",
      "alert": "OK",
      "vis_m": 9999,
      "fzfg": false,
      "metar_trigger": false,
      "taf_trigger": false,
      "metar": "METAR GCTS 060700Z 07007KT 9999 FEW030 18/13 Q1019 NOSIG",
      "taf": "TAF GCTS 060200Z 0603/0703 VRB05KT 9999 BKN025 TX24/0614Z TN16/0606Z"
    },
    {
      "icao": "GMAD",
      "alert": "OK",
      "vis_m": 5000,
      "fzfg": false,
      "metar_trigger": false,
      "taf_trigger": false,
      "metar": "METAR GMAD 060700Z 26006KT 210V330 5000 -RA SCT004 BKN020 BKN026 15/13 Q1016 TEMPO 3000 RA",
      "taf": "TAF GMAD 060500Z 0606/0712 22005KT 6000 OVC020"
    },
    {
      "icao": "GMMN",
      "alert": "OK",
      "vis_m": 9999,
      "fzfg": false,
      "metar_trigger": false,
      "taf_trigger": false,
      "metar": "METAR GMMN 060700Z 22010KT 9999 SCT010 13/11 Q1013 NOSIG",
      "taf": "TAF GMMN 060500Z 0606/0712 22010KT 9999 SCT010"
    },
    {
      "icao": "GMMX",
      "alert": "OK",
      "vis_m": 6000,
      "fzfg": false,
      "metar_trigger": false,
      "taf_trigger": false,
      "metar": "METAR GMMX 060700Z 28008KT 6000 BKN010 SCT026 13/12 Q1015 NOSIG",
      "taf": "TAF GMMX 060500Z 0606/0712 18006KT 8000 SCT016 SCT023"
    },
    {
      "icao": "HEGN",
      "alert": "OK",
      "vis_m": 9999,
      "fzfg": false,
      "metar_trigger": false,
      "taf_trigger": false,
      "metar": "METAR HEGN 060600Z 00000KT 9999 SCT025 18/M00 Q1013 NOSIG",
      "taf": "TAF HEGN 060500Z 0606/0712 13008KT CAVOK"
    },
    {
      "icao": "HEMA",
      "alert": "OK",
      "vis_m": null,
      "fzfg": false,
      "metar_trigger": false,
      "taf_trigger": false,
      "metar": "",
      "taf": "TAF HEMA 060500Z 0606/0712 25008KT CAVOK"
    },
    {
      "icao": "HESH",
      "alert": "OK",
      "vis_m": 9999,
      "fzfg": false,
      "metar_trigger": false,
      "taf_trigger": false,
      "metar": "METAR HESH 060600Z 29005KT CAVOK 20/08 Q1014 NOSIG",
      "taf": "TAF HESH 060500Z 0606/0712 12008KT CAVOK"
    },
    {
      "icao": "HESX",
      "alert": "OK",
      "vis_m": 9999,
      "fzfg": false,
      "metar_trigger": false,
      "taf_trigger": false,
      "metar": "METAR HESX 060600Z 23006KT CAVOK 18/00 Q1011 NOSIG",
      "taf": "TAF HESX 052300Z 0600/0706 19009KT 9999 SCT025 BKN090"
    },
    {
      "icao": "LATI",
      "alert": "OK",
      "vis_m": 9999,
      "fzfg": false,
      "metar_trigger": false,
      "taf_trigger": false,
      "metar": "METAR LATI 060650Z 17006KT 9999 -RA FEW045 SCT060 BKN090 09/06 Q0998 NOSIG",
      "taf": "TAF LATI 060500Z 0606/0706 VRB05KT 9999 SCT040 BKN080 TX15/0613Z TN10/0705Z"
    },
    {
      "icao": "LBPD",
      "alert": "OK",
      "vis_m": 7000,
      "fzfg": false,
      "metar_trigger": false,
      "taf_trigger": false,
      "metar": "METAR LBPD 060700Z AUTO 27003KT 7000 NCD 02/02 Q1001 TEMPO 3000 BR",
      "taf": "TAF LBPD 060500Z 0606/0706 VRB04KT 5000 BR SCT015"
    },
    {
      "icao": "LBSF",
      "alert": "OK",
      "vis_m": 6000,
      "fzfg": false,
      "metar_trigger": false,
      "taf_trigger": false,
      "metar": "METAR LBSF 060700Z VRB03KT 6000 OVC011 04/03 Q1000 TEMPO 5000 BR",
      "taf": "TAF LBSF 060500Z 0606/0706 VRB03KT 5000 BR SCT005 BKN010"
    },
    {
      "icao": "LBWN",
      "alert": "OK",
      "vis_m": 4000,
      "fzfg": false,
      "metar_trigger": false,
      "taf_trigger": false,
      "metar": "METAR LBWN 060700Z AUTO 26004KT 4000 BR SCT003/// OVC005/// 08/08 Q1000 TEMPO 2000 BR",
      "taf": "TAF LBWN 060500Z 0606/0706 26008KT 7000 SCT015 OVC025"
    },
    {
      "icao": "LCLK",
      "alert": "OK",
      "vis_m": 9999,
      "fzfg": false,
      "metar_trigger": false,
      "taf_trigger": false,
      "metar": "METAR LCLK 060700Z 19009KT 9999 FEW020 SCT025 19/16 Q1009 NOSIG",
      "taf": "TAF LCLK 060530Z 0606/0706 34006KT 9999 FEW020"
    },
    {
      "icao": "LCPH",
      "alert": "OK",
      "vis_m": 9000,
      "fzfg": false,
      "metar_trigger": false,
      "taf_trigger": false,
      "metar": "METAR LCPH 060700Z 10011KT 090V150 9000 -RA SCT020 SCT040 BKN050 17/14 Q1009 BECMG 5000 SHRA",
      "taf": "TAF LCPH 060530Z 0606/0706 14015KT 9999 FEW020"
    },
    {
      "icao": "LEAL",
      "alert": "OK",
      "vis_m": 9999,
      "fzfg": false,
      "metar_trigger": false,
      "taf_trigger": false,
      "metar": "METAR LEAL 060700Z 22006KT 9999 FEW020 10/06 Q1005 NOSIG",
      "taf": "TAF LEAL 060500Z 0606/0706 25010KT CAVOK TX18/0615Z TN08/0606Z"
    },
    {
      "icao": "LEBB",
      "alert": "OK",
      "vis_m": 9999,
      "fzfg": false,
      "metar_trigger": false,
      "taf_trigger": false,
      "metar": "METAR LEBB 060700Z 22015G25KT 160V260 CAVOK 13/04 Q0996 NOSIG",
      "taf": "TAF LEBB 060500Z 0606/0706 22009KT 9999 FEW040 TX17/0613Z TN10/0706Z"
    },
    {
      "icao": "LEBL",
      "alert": "OK",
      "vis_m": 9999,
      "fzfg": false,
      "metar_trigger": false,
      "taf_trigger": false,
      "metar": "METAR LEBL 060700Z 29008KT CAVOK 12/05 Q0998 NOSIG",
      "taf": "TAF LEBL 060500Z 0606/0706 25009KT CAVOK TX17/0614Z TN08/0606Z"
    },
    {
      "icao": "LECH",
      "alert": "OK",
      "vis_m": 9999,
      "fzfg": false,
      "metar_trigger": false,
      "taf_trigger": false,
      "metar": "METAR LECH 060700Z AUTO 12003KT CAVOK 10/00 Q0999",
      "taf": ""
    },
    {
      "icao": "LEMD",
      "alert": "OK",
      "vis_m": 9999,
      "fzfg": false,
      "metar_trigger": false,
      "taf_trigger": false,
      "metar": "METAR LEMD 060700Z 17008KT 140V200 9999 FEW016 06/04 Q1002 NOSIG",
      "taf": ""
    },
    {
      "icao": "LEMG",
      "alert": "OK",
      "vis_m": 9999,
      "fzfg": false,
      "metar_trigger": false,
      "taf_trigger": false,
      "metar": "METAR LEMG 060700Z VRB02KT 9999 SCT060 09/08 Q1007 NOSIG",
      "taf": "TAF LEMG 060500Z 0606/0706 VRB03KT 9999 FEW030 TX20/0614Z TN13/0607Z"
    },
    {
      "icao": "LEVC",
      "alert": "OK",
      "vis_m": 9999,
      "fzfg": false,
      "metar_trigger": false,
      "taf_trigger": false,
      "metar": "METAR LEVC 060700Z 27016KT 9999 FEW033 13/05 Q1001 NOSIG",
      "taf": "TAF LEVC 060500Z 0606/0706 27015KT CAVOK TX20/0614Z TN11/0606Z"
    },
    {
      "icao": "LEXJ",
      "alert": "OK",
      "vis_m": 9999,
      "fzfg": false,
      "metar_trigger": false,
      "taf_trigger": false,
      "metar": "METAR LEXJ 060700Z 21005KT 170V240 CAVOK 11/03 Q0995",
      "taf": "TAF LEXJ 060200Z 0603/0703 20009KT 9999 SCT070 TX15/0611Z TN09/0607Z"
    },
    {
      "icao": "LEZG",
      "alert": "OK",
      "vis_m": 9999,
      "fzfg": false,
      "metar_trigger": false,
      "taf_trigger": false,
      "metar": "METAR LEZG 060700Z 24016KT 9999 FEW050 11/05 Q0999 NOSIG",
      "taf": "TAF LEZG 060500Z 0606/0706 25010KT 9999 FEW050 TX16/0615Z TN08/0606Z"
    },
    {
      "icao": "LEZL",
      "alert": "OK",
      "vis_m": 9999,
      "fzfg": false,
      "metar_trigger": false,
      "taf_trigger": false,
      "metar": "METAR LEZL 060700Z 21009KT 180V240 9999 -RA FEW015 FEW030CB 13/11 Q1006 NOSIG",
      "taf": ""
    },
    {
      "icao": "LFBD",
      "alert": "OK",
      "vis_m": 9999,
      "fzfg": false,
      "metar_trigger": false,
      "taf_trigger": false,
      "metar": "METAR LFBD 060700Z AUTO 26012KT 9999 SCT032 SCT048 BKN092 11/08 Q0994 TEMPO 24015G25KT 3000 SHRA BKN025TCU SCT030CB",
      "taf": "TAF LFBD 060500Z 0606/0712 22010KT 9999 BKN040 TX15/0614Z TN08/0624Z"
    },
    {
      "icao": "LFLL",
      "alert": "OK",
      "vis_m": 9999,
      "fzfg": false,
      "metar_trigger": false,
      "taf_trigger": false,
      "metar": "METAR LFLL 060700Z 17008KT 9999 FEW046 SCT066 BKN110 09/06 Q0993 NOSIG",
      "taf": "TAF LFLL 060500Z 0606/0712 19008KT 9999 BKN050"
    },
    {
      "icao": "LFLS",
      "alert": "OK",
      "vis_m": 9999,
      "fzfg": false,
      "metar_trigger": false,
      "taf_trigger": false,
      "metar": "METAR LFLS 060700Z AUTO 06006KT 9999 OVC052 06/06 Q0994 NOSIG",
      "taf": "TAF LFLS 060200Z 0603/0703 07007KT 9999 BKN055"
    },
    {
      "icao": "LFMN",
      "alert": "OK",
      "vis_m": 9999,
      "fzfg": false,
      "metar_trigger": false,
      "taf_trigger": false,
      "metar": "METAR LFMN 060700Z 32009KT CAVOK 09/05 Q0991 NOSIG",
      "taf": "TAF LFMN 060200Z 0603/0709 33010KT 9999 BKN070"
    },
    {
      "icao": "LFOB",
      "alert": "OK",
      "vis_m": 9999,
      "fzfg": false,
      "metar_trigger": false,
      "taf_trigger": false,
      "metar": "METAR LFOB 060700Z AUTO 19007KT 9999 SCT009 SCT015 OVC035 09/09 Q0985 TEMPO 3000 RADZ BR BKN003 OVC008",
      "taf": "TAF LFOB 060500Z 0606/0706 16007KT 9999 OVC009"
    },
    {
      "icao": "LFPO",
      "alert": "OK",
      "vis_m": 8000,
      "fzfg": false,
      "metar_trigger": false,
      "taf_trigger": false,
      "metar": "METAR LFPO 060700Z 20007KT 8000 -RA BKN009 BKN025 10/09 Q0987 NOSIG",
      "taf": "TAF LFPO 060500Z 0606/0712 22010KT 9999 BKN012"
    },
    {
      "icao": "LFSB",
      "alert": "OK",
      "vis_m": 6000,
      "fzfg": false,
      "metar_trigger": false,
      "taf_trigger": false,
      "metar": "METAR LFSB 060700Z AUTO 16006KT 6000 OVC026/// ///CB 03/03 Q0991 TEMPO 4000 -RA BR BECMG FEW005 BKN030",
      "taf": "TAF LFSB 060520Z 0606/0706 17005KT 8000 FEW005 BKN030"
    },
    {
      "icao": "LGAV",
      "alert": "OK",
      "vis_m": 9999,
      "fzfg": false,
      "metar_trigger": false,
      "taf_trigger": false,
      "metar": "METAR LGAV 060650Z 23004KT 190V270 9999 FEW020 13/10 Q1003 NOSIG",
      "taf": "TAF LGAV 060500Z 0606/0706 22012KT 9999 FEW025"
    },
    {
      "icao": "LGTS",
      "alert": "OK",
      "vis_m": 9999,
      "fzfg": false,
      "metar_trigger": false,
      "taf_trigger": false,
      "metar": "METAR LGTS 060650Z VRB02KT 9999 FEW020 08/06 Q1001 NOSIG",
      "taf": "TAF LGTS 060500Z 0606/0706 VRB03KT 9999 FEW010 SCT025"
    },
    {
      "icao": "LHBP",
      "alert": "OK",
      "vis_m": 3000,
      "fzfg": false,
      "metar_trigger": false,
      "taf_trigger": false,
      "metar": "METAR LHBP 060700Z 10004KT 3000 -DZ BR OVC003 05/04 Q0995 TEMPO BKN005",
      "taf": "TAF LHBP 060515Z 0606/0706 09007KT 9999 BKN020 BKN100"
    },
    {
      "icao": "LHDC",
      "alert": "OK",
      "vis_m": 2200,
      "fzfg": false,
      "metar_trigger": false,
      "taf_trigger": false,
      "metar": "METAR LHDC 060645Z AUTO 00000KT 2200 -RA BR BKN039 04/04 Q0997 TEMPO 3200 -SHRA BR",
      "taf": "TAF LHDC 060515Z 0606/0615 VRB03KT 8000 SCT040 BKN070"
    },
    {
      "icao": "LIBD",
      "alert": "OK",
      "vis_m": 5000,
      "fzfg": false,
      "metar_trigger": false,
      "taf_trigger": false,
      "metar": "METAR LIBD 060650Z 18010KT 5000 -RA FEW010CB SCT030 12/09 Q0993",
      "taf": "TAF LIBD 060500Z 0606/0706 17013KT CAVOK"
    },
    {
      "icao": "LIBG",
      "alert": "OK",
      "vis_m": 8000,
      "fzfg": false,
      "metar_trigger": false,
      "taf_trigger": false,
      "metar": "SPECI LIBG 060655Z 14011KT 8000 -RA SCT010 BKN025 13/12 Q0995",
      "taf": "TAF LIBG 060500Z 0608/0615 15010KT 9999 BKN030"
    },
    {
      "icao": "LIBP",
      "alert": "OK",
      "vis_m": 9999,
      "fzfg": false,
      "metar_trigger": false,
      "taf_trigger": false,
      "metar": "METAR LIBP 060650Z AUTO VRB02KT 9999 SCT077/// BKN089/// BKN230/// 09/09 Q0991",
      "taf": "TAF LIBP 060500Z 0606/0706 VRB05KT 9999 BKN030"
    },
    {
      "icao": "LIBR",
      "alert": "OK",
      "vis_m": 9999,
      "fzfg": false,
      "metar_trigger": false,
      "taf_trigger": false,
      "metar": "METAR LIBR 060650Z 19017KT 9999 FEW010 13/11 Q0995",
      "taf": "TAF LIBR 060500Z 0606/0706 20014KT CAVOK"
    },
    {
      "icao": "LICA",
      "alert": "OK",
      "vis_m": 9999,
      "fzfg": false,
      "metar_trigger": false,
      "taf_trigger": false,
      "metar": "METAR LICA 060650Z AUTO 06005KT 9999 -RA OVC039/// 12/12 Q0998",
      "taf": "TAF LICA 060500Z 0606/0706 26012KT 9999 SCT040"
    },
    {
      "icao": "LICC",
      "alert": "OK",
      "vis_m": 9999,
      "fzfg": false,
      "metar_trigger": false,
      "taf_trigger": false,
      "metar": "METAR LICC 060650Z 27007KT 9999 FEW030 SCT060 15/12 Q1002",
      "taf": "TAF LICC 060500Z 0606/0706 25012KT 9999 FEW050"
    },
    {
      "icao": "LICJ",
      "alert": "OK",
      "vis_m": 9999,
      "fzfg": false,
      "metar_trigger": false,
      "taf_trigger": false,
      "metar": "METAR LICJ 060650Z 21018KT 9999 FEW022 17/13 Q1000",
      "taf": "TAF LICJ 060500Z 0606/0706 26016G30KT 9999 FEW030"
    },
    {
      "icao": "LIMC",
      "alert": "OK",
      "vis_m": 9999,
      "fzfg": false,
      "metar_trigger": false,
      "taf_trigger": false,
      "metar": "METAR LIMC 060650Z 01006KT 9999 -RA BKN030 06/06 Q0993 NOSIG",
      "taf": "TAF LIMC 060500Z 0606/0712 VRB05KT 7000 SCT030"
    },
    {
      "icao": "LIME",
      "alert": "OK",
      "vis_m": 8000,
      "fzfg": false,
      "metar_trigger": false,
      "taf_trigger": false,
      "metar": "METAR LIME 060650Z 32006KT 8000 -RA FEW015 BKN050 07/07 Q0992 NOSIG",
      "taf": "TAF LIME 060500Z 0606/0706 VRB05KT 6000 BKN030"
    },
    {
      "icao": "LIMF",
      "alert": "OK",
      "vis_m": 9999,
      "fzfg": false,
      "metar_trigger": false,
      "taf_trigger": false,
      "metar": "METAR LIMF 060650Z 27003KT CAVOK 04/02 Q0993",
      "taf": "TAF LIMF 060500Z 0606/0706 VRB05KT 7000 SCT030"
    },
    {
      "icao": "LIMJ",
      "alert": "OK",
      "vis_m": 9999,
      "fzfg": false,
      "metar_trigger": false,
      "taf_trigger": false,
      "metar": "METAR LIMJ 060650Z 36010KT 9999 SCT025 10/05 Q0991",
      "taf": "TAF LIMJ 060500Z 0606/0706 02016KT 9999 SCT020"
    },
    {
      "icao": "LIPE",
      "alert": "OK",
      "vis_m": 6000,
      "fzfg": false,
      "metar_trigger": false,
      "taf_trigger": false,
      "metar": "METAR LIPE 060650Z 06007KT 6000 -RA SCT006 BKN010 08/08 Q0989",
      "taf": "TAF LIPE 060500Z 0606/0706 27007KT CAVOK"
    },
    {
      "icao": "LIPH",
      "alert": "OK",
      "vis_m": 8000,
      "fzfg": false,
      "metar_trigger": false,
      "taf_trigger": false,
      "metar": "METAR LIPH 060650Z 03005KT 360V060 8000 -RA BKN045 BKN070 08/07 Q0991",
      "taf": "TAF LIPH 060500Z 0606/0706 04009KT 8000 BKN040"
    },
    {
      "icao": "LIPQ",
      "alert": "OK",
      "vis_m": 9999,
      "fzfg": false,
      "metar_trigger": false,
      "taf_trigger": false,
      "metar": "METAR LIPQ 060650Z AUTO 05004KT 9999 -RA OVC018/// 09/08 Q0992",
      "taf": "TAF LIPQ 060500Z 0606/0706 03005KT 9999 BKN040"
    },
    {
      "icao": "LIPR",
      "alert": "OK",
      "vis_m": 9999,
      "fzfg": false,
      "metar_trigger": false,
      "taf_trigger": false,
      "metar": "METAR LIPR 060650Z 14005KT 9999 BKN070 09/08 Q0989",
      "taf": "TAF LIPR 060500Z 0606/0706 15010KT 9999 BKN040"
    },
    {
      "icao": "LIPX",
      "alert": "OK",
      "vis_m": 9999,
      "fzfg": false,
      "metar_trigger": false,
      "taf_trigger": false,
      "metar": "METAR LIPX 060650Z 34007KT 9999 -RA BKN050 BKN090 08/07 Q0991",
      "taf": "TAF LIPX 060500Z 0606/0706 VRB05KT 6000 BKN030"
    },
    {
      "icao": "LIPY",
      "alert": "OK",
      "vis_m": 9999,
      "fzfg": false,
      "metar_trigger": false,
      "taf_trigger": false,
      "metar": "METAR LIPY 060650Z AUTO VRB01KT 9999 FEW047/// BKN090/// 09/08 Q0989",
      "taf": "TAF LIPY 060500Z 0606/0706 15010KT 9999 BKN020"
    },
    {
      "icao": "LIPZ",
      "alert": "OK",
      "vis_m": 9999,
      "fzfg": false,
      "metar_trigger": false,
      "taf_trigger": false,
      "metar": "METAR LIPZ 060650Z 04009KT 9999 -RA SCT015 BKN050 08/07 Q0991 NOSIG",
      "taf": "TAF LIPZ 060500Z 0606/0712 05012KT 9999 BKN020"
    },
    {
      "icao": "LIRF",
      "alert": "OK",
      "vis_m": 8000,
      "fzfg": false,
      "metar_trigger": false,
      "taf_trigger": false,
      "metar": "METAR LIRF 060650Z 26015G25KT 8000 SCT020 15/12 Q0991 NOSIG",
      "taf": "TAF LIRF 060500Z 0606/0712 24015G30KT 8000 SCT050"
    },
    {
      "icao": "LIRN",
      "alert": "OK",
      "vis_m": 9999,
      "fzfg": false,
      "metar_trigger": false,
      "taf_trigger": false,
      "metar": "METAR LIRN 060650Z 23014G24KT 9999 FEW020 SCT070 15/11 Q0994 NOSIG",
      "taf": "TAF LIRN 060500Z 0606/0706 24018G30KT 9999 SCT040"
    },
    {
      "icao": "LIRP",
      "alert": "OK",
      "vis_m": 9999,
      "fzfg": false,
      "metar_trigger": false,
      "taf_trigger": false,
      "metar": "METAR LIRP 060645Z 25023KT 9999 FEW015 SCT050 11/09 Q0987 NOSIG",
      "taf": "TAF LIRP 060500Z 0606/0706 18007KT 9999 SCT025 BKN040"
    },
    {
      "icao": "LIRZ",
      "alert": "OK",
      "vis_m": 9999,
      "fzfg": false,
      "metar_trigger": false,
      "taf_trigger": false,
      "metar": "METAR LIRZ 060650Z AUTO VRB01KT 9999 BKN018/// 09/08 Q0990",
      "taf": "TAF LIRZ 060500Z 0606/0706 VRB05KT 8000 BKN060"
    },
    {
      "icao": "LJLJ",
      "alert": "OK",
      "vis_m": 5000,
      "fzfg": false,
      "metar_trigger": false,
      "taf_trigger": false,
      "metar": "METAR LJLJ 060700Z 16001KT 5000 -RA BR FEW002 BKN010 OVC030 03/03 Q0993 NOSIG",
      "taf": "TAF LJLJ 060500Z 0606/0706 VRB02KT 6000 FEW002 BKN030"
    },
    {
      "icao": "LKMT",
      "alert": "OK",
      "vis_m": 1600,
      "fzfg": false,
      "metar_trigger": false,
      "taf_trigger": false,
      "metar": "METAR LKMT 060700Z 02003KT 1600 BR SCT004 BKN034 00/00 Q0994 NOSIG",
      "taf": "TAF LKMT 060500Z 0606/0706 VRB02KT 1600 BR OVC035"
    },
    {
      "icao": "LKPR",
      "alert": "OK",
      "vis_m": 1000,
      "fzfg": false,
      "metar_trigger": false,
      "taf_trigger": false,
      "metar": "METAR LKPR 060700Z 06004KT 1000 R24/1400D R30/1000D -DZ BR BCFG SCT002 OVC003 02/02 Q0991 TEMPO 0600 FG",
      "taf": "TAF LKPR 060500Z 0606/0712 09003KT 3000 BR SCT003 OVC006"
    },
    {
      "icao": "LLBG",
      "alert": "OK",
      "vis_m": 9999,
      "fzfg": false,
      "metar_trigger": false,
      "taf_trigger": false,
      "metar": "METAR LLBG 060650Z VRB03KT CAVOK 17/08 Q1012 NOSIG RMK FEW120 BKN140",
      "taf": "TAF LLBG 060504Z 0606/0706 VRB03KT CAVOK"
    },
    {
      "icao": "LMML",
      "alert": "OK",
      "vis_m": 9999,
      "fzfg": false,
      "metar_trigger": false,
      "taf_trigger": false,
      "metar": "METAR LMML 060645Z 22016KT 9000 NSC 17/13 Q1004 BECMG CAVOK",
      "taf": "TAF LMML 060500Z 0606/0706 27015KT 9999 FEW015"
    },
    {
      "icao": "LOWW",
      "alert": "OK",
      "vis_m": 9999,
      "fzfg": false,
      "metar_trigger": false,
      "taf_trigger": false,
      "metar": "METAR LOWW 060650Z 15011KT 9999 FEW009 BKN011 04/03 Q0991 NOSIG",
      "taf": "TAF LOWW 060515Z 0606/0712 15012KT 7000 BKN006 TX07/0712Z TN03/0622Z"
    },
    {
      "icao": "LPFR",
      "alert": "OK",
      "vis_m": 9999,
      "fzfg": false,
      "metar_trigger": false,
      "taf_trigger": false,
      "metar": "METAR LPFR 060700Z 25012KT 9999 FEW015 FEW025CB 14/12 Q1005",
      "taf": "TAF LPFR 060500Z 0606/0706 26015KT 9999 SCT035"
    },
    {
      "icao": "LPMA",
      "alert": "OK",
      "vis_m": 9999,
      "fzfg": false,
      "metar_trigger": false,
      "taf_trigger": false,
      "metar": "METAR LPMA 060700Z 26004KT 220V310 9999 FEW015 15/06 Q1016",
      "taf": "TAF LPMA 060500Z 0606/0706 VRB05KT 9999 SCT016"
    },
    {
      "icao": "LPPR",
      "alert": "OK",
      "vis_m": 9999,
      "fzfg": false,
      "metar_trigger": false,
      "taf_trigger": false,
      "metar": "METAR LPPR 060700Z 21014G25KT 9999 FEW025CB SCT030 BKN038 12/08 Q0998",
      "taf": "TAF LPPR 060500Z 0606/0706 23015KT 9999 SCT025"
    },
    {
      "icao": "LPPS",
      "alert": "OK",
      "vis_m": 9999,
      "fzfg": false,
      "metar_trigger": false,
      "taf_trigger": false,
      "metar": "METAR LPPS 060700Z 29021KT 9999 SCT014 SCT030 16/09 Q1016",
      "taf": "TAF LPPS 060500Z 0606/0712 28015KT 9999 SCT015 SCT030"
    },
    {
      "icao": "LPPT",
      "alert": "OK",
      "vis_m": 8000,
      "fzfg": false,
      "metar_trigger": false,
      "taf_trigger": false,
      "metar": "METAR LPPT 060700Z 24008KT 200V280 8000 -SHRA SCT010 FEW020CB SCT025 11/10 Q1002 RESHRA",
      "taf": "TAF LPPT 060500Z 0606/0712 25012KT 9999 SCT025"
    },
    {
      "icao": "LQBK",
      "alert": "OK",
      "vis_m": 150,
      "fzfg": false,
      "metar_trigger": false,
      "taf_trigger": false,
      "metar": "METAR LQBK 060700Z VRB01KT 0150 R16/0450N FG VV003 03/03 Q0994 NOSIG",
      "taf": ""
    },
    {
      "icao": "LQSA",
      "alert": "OK",
      "vis_m": 9999,
      "fzfg": false,
      "metar_trigger": false,
      "taf_trigger": false,
      "metar": "METAR LQSA 060700Z VRB02KT 9999 FEW050 SCT060 02/02 Q0994 NOSIG",
      "taf": "TAF LQSA 060500Z 0606/0706 VRB02KT 9999 BKN050 TX09/0613Z TN01/0606Z"
    },
    {
      "icao": "LQTZ",
      "alert": "OK",
      "vis_m": 800,
      "fzfg": false,
      "metar_trigger": false,
      "taf_trigger": false,
      "metar": "METAR LQTZ 060700Z VRB02KT 0800 R09/1100D FG SCT001 00/00 Q0995",
      "taf": ""
    },
    {
      "icao": "LRBC",
      "alert": "OK",
      "vis_m": 2500,
      "fzfg": false,
      "metar_trigger": false,
      "taf_trigger": false,
      "metar": "METAR LRBC 060700Z 18003KT 2500 -SN BR BKN010 OVC030 00/00 Q1002",
      "taf": "TAF LRBC 060500Z 0606/0615 VRB04KT 7000 -RA BKN015"
    },
    {
      "icao": "LRBS",
      "alert": "OK",
      "vis_m": 700,
      "fzfg": false,
      "metar_trigger": false,
      "taf_trigger": false,
      "metar": "METAR LRBS 060700Z 00000KT 0700 R07/1500D -DZ FG OVC002 03/03 Q1001 BECMG 1500 BR OVC005",
      "taf": "TAF LRBS 060500Z 0606/0706 VRB04KT 1500 -DZ BR OVC002"
    },
    {
      "icao": "LRBV",
      "alert": "OK",
      "vis_m": 9999,
      "fzfg": false,
      "metar_trigger": false,
      "taf_trigger": false,
      "metar": "METAR LRBV 060700Z VRB03KT 9999 FEW019 SCT073 03/02 Q0998",
      "taf": "TAF LRBV 060500Z 0606/0615 VRB04KT 9999 BKN045"
    },
    {
      "icao": "LRCL",
      "alert": "OK",
      "vis_m": 9999,
      "fzfg": false,
      "metar_trigger": false,
      "taf_trigger": false,
      "metar": "METAR LRCL 060700Z 00000KT CAVOK 03/02 Q0998",
      "taf": "TAF LRCL 060500Z 0606/0615 VRB04KT 9999 BKN045"
    },
    {
      "icao": "LRCV",
      "alert": "OK",
      "vis_m": 200,
      "fzfg": false,
      "metar_trigger": false,
      "taf_trigger": false,
      "metar": "METAR LRCV 060700Z 00000KT 0200 R26/0400N FG OVC002 03/03 Q1000",
      "taf": "TAF LRCV 060500Z 0606/0615 VRB04KT 0300 FG VV002"
    },
    {
      "icao": "LRIA",
      "alert": "OK",
      "vis_m": 6000,
      "fzfg": false,
      "metar_trigger": false,
      "taf_trigger": false,
      "metar": "METAR LRIA 060700Z 13008KT 6000 -FZRA OVC004 M01/M02 Q1004",
      "taf": "TAF LRIA 060500Z 0606/0615 11012KT 3000 -FZRA BR OVC001"
    },
    {
      "icao": "LROP",
      "alert": "OK",
      "vis_m": 1200,
      "fzfg": false,
      "metar_trigger": false,
      "taf_trigger": false,
      "metar": "METAR LROP 060700Z 08007KT 1200 R08R/P2000 R08L/P2000 -DZ BR BKN002 OVC004 04/04 Q1000 BECMG 3000 BR",
      "taf": "TAF LROP 060500Z 0606/0706 VRB04KT 1500 -DZ BR OVC002"
    },
    {
      "icao": "LRSB",
      "alert": "OK",
      "vis_m": 150,
      "fzfg": false,
      "metar_trigger": false,
      "taf_trigger": false,
      "metar": "METAR LRSB 060700Z 26002KT 0150 R27/0400N FG SCT001 BKN003 01/01 Q0998 NOSIG",
      "taf": "TAF LRSB 060500Z 0606/0706 VRB04KT 0150 FG OVC001"
    },
    {
      "icao": "LRSM",
      "alert": "OK",
      "vis_m": 9999,
      "fzfg": false,
      "metar_trigger": false,
      "taf_trigger": false,
      "metar": "METAR LRSM 060700Z 12005KT 9999 FEW036 06/05 Q0997",
      "taf": "TAF LRSM 060500Z 0606/0615 VRB04KT 9999 SCT035"
    },
    {
      "icao": "LRSV",
      "alert": "OK",
      "vis_m": 200,
      "fzfg": true,
      "metar_trigger": false,
      "taf_trigger": false,
      "metar": "METAR LRSV 060700Z 12010KT 0200 R34/0750N -SN FZFG VV002 M00/M00 Q1000",
      "taf": "TAF LRSV 060500Z 0606/0615 12012KT 0300 -SG FZFG OVC001"
    },
    {
      "icao": "LRTM",
      "alert": "OK",
      "vis_m": 9999,
      "fzfg": false,
      "metar_trigger": false,
      "taf_trigger": false,
      "metar": "METAR LRTM 060700Z 26002KT 9999 FEW034 02/01 Q0998",
      "taf": "TAF LRTM 060500Z 0606/0615 07006KT 9999 SCT040"
    },
    {
      "icao": "LRTR",
      "alert": "OK",
      "vis_m": 9999,
      "fzfg": false,
      "metar_trigger": false,
      "taf_trigger": false,
      "metar": "METAR LRTR 060700Z 10007KT CAVOK 05/05 Q0997",
      "taf": "TAF LRTR 060500Z 0606/0706 11007KT CAVOK"
    },
    {
      "icao": "LTAC",
      "alert": "OK",
      "vis_m": 9999,
      "fzfg": false,
      "metar_trigger": false,
      "taf_trigger": false,
      "metar": "METAR LTAC 060650Z VRB02KT 9999 -SHRA BKN030 BKN080 04/03 Q1008 NOSIG",
      "taf": "TAF LTAC 060440Z 0606/0706 20008KT 9999 -SHRA FEW020 BKN030 BKN080"
    },
    {
      "icao": "LTFM",
      "alert": "OK",
      "vis_m": 9999,
      "fzfg": false,
      "metar_trigger": false,
      "taf_trigger": false,
      "metar": "METAR LTFM 060650Z 20010KT 9999 SCT028 BKN080 12/07 Q1001 NOSIG",
      "taf": "TAF LTFM 060440Z 0606/0712 22015KT 9999 SCT035 BKN080"
    },
    {
      "icao": "LUKK",
      "alert": "OK",
      "vis_m": 9999,
      "fzfg": false,
      "metar_trigger": false,
      "taf_trigger": false,
      "metar": "METAR LUKK 060700Z 10014KT 9999 -FZRA OVC009 M05/M06 Q1005 NOSIG",
      "taf": "TAF LUKK 060518Z 0606/0706 08012KT 8000 OVC008"
    },
    {
      "icao": "LWOH",
      "alert": "OK",
      "vis_m": 9999,
      "fzfg": false,
      "metar_trigger": false,
      "taf_trigger": false,
      "metar": "METAR LWOH 060650Z VRB02KT 9999 FEW020 BKN040 05/04 Q0999",
      "taf": "TAF LWOH 060530Z 0606/0706 VRB02KT 9999 FEW040 SCT100"
    },
    {
      "icao": "LWSK",
      "alert": "OK",
      "vis_m": 5000,
      "fzfg": false,
      "metar_trigger": false,
      "taf_trigger": false,
      "metar": "METAR LWSK 060650Z 03004KT 5000 BR SCT005 BKN015 03/03 Q0999 NOSIG",
      "taf": "TAF LWSK 060530Z 0606/0706 VRB02KT 9999 BKN020"
    },
    {
      "icao": "LYBE",
      "alert": "OK",
      "vis_m": 9999,
      "fzfg": false,
      "metar_trigger": false,
      "taf_trigger": false,
      "metar": "METAR LYBE 060700Z 08005KT CAVOK 05/02 Q0996 NOSIG",
      "taf": "TAF LYBE 060500Z 0606/0706 09006KT CAVOK TX14/0613Z TN03/0606Z"
    },
    {
      "icao": "LYNI",
      "alert": "OK",
      "vis_m": 9999,
      "fzfg": false,
      "metar_trigger": false,
      "taf_trigger": false,
      "metar": "METAR LYNI 060700Z 16004KT 120V200 CAVOK 03/03 Q0998 NOSIG",
      "taf": "TAF LYNI 060500Z 0606/0706 07006KT 3000 BR NSC TX12/0612Z TNM01/0606Z"
    },
    {
      "icao": "LYPG",
      "alert": "OK",
      "vis_m": 3000,
      "fzfg": false,
      "metar_trigger": false,
      "taf_trigger": false,
      "metar": "METAR LYPG 060700Z 03003KT 330V060 3000 -RA MIFG FEW006 SCT014 BKN034 08/08 Q0998 NOSIG",
      "taf": "TAF LYPG 060500Z 0606/0706 16005KT 6000 FEW013 BKN040 OVC070 TX14/0615Z TN08/0705Z"
    },
    {
      "icao": "LZIB",
      "alert": "OK",
      "vis_m": 4500,
      "fzfg": false,
      "metar_trigger": false,
      "taf_trigger": false,
      "metar": "METAR LZIB 060700Z 14006KT 4500 -DZ BR OVC006 05/04 Q0993 NOSIG",
      "taf": "TAF LZIB 060515Z 0606/0706 12007KT 7000 BKN020"
    },
    {
      "icao": "LZKZ",
      "alert": "OK",
      "vis_m": 9999,
      "fzfg": false,
      "metar_trigger": false,
      "taf_trigger": false,
      "metar": "METAR LZKZ 060700Z 36002KT 9999 SCT038 03/03 Q0997 NOSIG",
      "taf": "TAF LZKZ 060515Z 0606/0706 VRB02KT 9999 SCT036"
    },
    {
      "icao": "LZTT",
      "alert": "OK",
      "vis_m": 1500,
      "fzfg": false,
      "metar_trigger": false,
      "taf_trigger": false,
      "metar": "METAR LZTT 060700Z 07003KT 1500 BR SCT005 BKN036 01/01 Q0995 TEMPO BKN005",
      "taf": "TAF LZTT 060515Z 0606/0706 VRB02KT 9999 SCT005 OVC020"
    },
    {
      "icao": "OEJN",
      "alert": "OK",
      "vis_m": 8000,
      "fzfg": false,
      "metar_trigger": false,
      "taf_trigger": false,
      "metar": "METAR OEJN 060700Z VRB02KT 8000 SCT040 28/15 Q1013 NOSIG",
      "taf": "TAF OEJN 060500Z 0606/0712 VRB03KT 7000 SCT040"
    },
    {
      "icao": "OEMA",
      "alert": "OK",
      "vis_m": 4000,
      "fzfg": false,
      "metar_trigger": false,
      "taf_trigger": false,
      "metar": "METAR OEMA 060700Z VRB03KT 4000 DU BKN040 24/00 Q1018 NOSIG",
      "taf": "TAF OEMA 060500Z 0606/0712 16006KT 7000 SCT040"
    },
    {
      "icao": "OJAI",
      "alert": "OK",
      "vis_m": null,
      "fzfg": false,
      "metar_trigger": false,
      "taf_trigger": false,
      "metar": "",
      "taf": "TAF OJAI 060500Z 0606/0712 VRB02KT 4000 DU NSC"
    },
    {
      "icao": "OMAA",
      "alert": "OK",
      "vis_m": 9999,
      "fzfg": false,
      "metar_trigger": false,
      "taf_trigger": false,
      "metar": "METAR OMAA 060700Z 05004KT 360V110 CAVOK 22/15 Q1022 NOSIG",
      "taf": "TAF OMAA 060500Z 0606/0712 07005KT 8000 NSC"
    },
    {
      "icao": "OMDB",
      "alert": "OK",
      "vis_m": 9999,
      "fzfg": false,
      "metar_trigger": false,
      "taf_trigger": false,
      "metar": "METAR OMDB 060700Z 03006KT 330V090 CAVOK 25/16 Q1022 BECMG 35010KT",
      "taf": "TAF OMDB 060500Z 0606/0712 08005KT 8000 NSC"
    },
    {
      "icao": "UAAA",
      "alert": "OK",
      "vis_m": 6000,
      "fzfg": false,
      "metar_trigger": false,
      "taf_trigger": false,
      "metar": "METAR UAAA 060700Z 36002MPS 320V040 6000 -SHRA SCT013 BKN020CB OVC100 05/03 Q1021 NOSIG",
      "taf": "TAF UAAA 060505Z 0606/0706 32003G08MPS 3100 -SHRA BR BKN011CB OVC020 TX04/0607Z TNM03/0702Z"
    },
    {
      "icao": "UBBB",
      "alert": "OK",
      "vis_m": 9999,
      "fzfg": false,
      "metar_trigger": false,
      "taf_trigger": false,
      "metar": "METAR UBBB 060700Z 18008KT 150V210 9999 BKN025 06/04 Q1022 NOSIG",
      "taf": "TAF UBBB 060503Z 0606/0706 VRB04KT 5000 -RA BR SCT012 OVC025 TX06/0610Z TN03/0700Z"
    },
    {
      "icao": "UDSG",
      "alert": "OK",
      "vis_m": 9999,
      "fzfg": false,
      "metar_trigger": false,
      "taf_trigger": false,
      "metar": "METAR UDSG 060700Z 24001KT 9999 NSC M09/M12 Q1022 NOSIG",
      "taf": "TAF UDSG 060500Z 0606/0706 VRB06KT 9999 FEW040"
    },
    {
      "icao": "UDYZ",
      "alert": "OK",
      "vis_m": 9999,
      "fzfg": false,
      "metar_trigger": false,
      "taf_trigger": false,
      "metar": "METAR UDYZ 060700Z VRB01KT 9999 NSC 00/M03 Q1023 NOSIG",
      "taf": "TAF UDYZ 060500Z 0606/0706 24006KT 9999 FEW040"
    },
    {
      "icao": "UGKO",
      "alert": "OK",
      "vis_m": 9999,
      "fzfg": false,
      "metar_trigger": false,
      "taf_trigger": false,
      "metar": "METAR UGKO 060700Z 10020KT CAVOK 09/M03 Q1013 NOSIG",
      "taf": "TAF UGKO 060500Z 0606/0706 08023G37KT CAVOK TX15/0611Z TN08/0606Z"
    }
  ]
}