{
  "ts_utc": "2026-01-07T13:21:27Z",
  "threshold_m": 150,
  "source": "stations_override.txt (ICAO list) + aviationweather.gov (METAR/TAF raw)",
  "station_count": 159,
  "stations": [
    {
      "icao": "BIKF",
      "alert": "OK",
      "vis_m": 9999,
      "fzfg": false,
      "metar_trigger": false,
      "taf_trigger": false,
      "metar": "METAR BIKF 071300Z 08017KT 9999 FEW049 SCT250 M03/M10 Q1006",
      "taf": "TAF BIKF 071030Z 0712/0812 08020KT 9999 FEW035 SCT045 TX02/0812Z TNM04/0720Z"
    },
    {
      "icao": "BKPR",
      "alert": "OK",
      "vis_m": 9999,
      "fzfg": false,
      "metar_trigger": false,
      "taf_trigger": false,
      "metar": "METAR BKPR 071300Z 33008KT 9999 SCT055 05/04 Q1004 NOSIG",
      "taf": ""
    },
    {
      "icao": "EBCI",
      "alert": "OK",
      "vis_m": 9999,
      "fzfg": false,
      "metar_trigger": false,
      "taf_trigger": false,
      "metar": "METAR EBCI 071250Z 20016KT 9999 SCT014 BKN020 M02/M04 Q1006 TEMPO BKN014",
      "taf": ""
    },
    {
      "icao": "EDDB",
      "alert": "OK",
      "vis_m": 9999,
      "fzfg": false,
      "metar_trigger": false,
      "taf_trigger": false,
      "metar": "METAR EDDB 071250Z AUTO 16008KT CAVOK M03/M07 Q1013 NOSIG",
      "taf": "TAF EDDB 071100Z 0712/0812 16007KT CAVOK"
    },
    {
      "icao": "EDDH",
      "alert": "OK",
      "vis_m": 9999,
      "fzfg": false,
      "metar_trigger": false,
      "taf_trigger": false,
      "metar": "METAR EDDH 071250Z AUTO 16013KT CAVOK M01/M04 Q1007 NOSIG",
      "taf": "TAF EDDH 071100Z 0712/0818 17012KT 9999 BKN025"
    },
    {
      "icao": "EDDK",
      "alert": "OK",
      "vis_m": 900,
      "fzfg": false,
      "metar_trigger": false,
      "taf_trigger": false,
      "metar": "METAR EDDK 071250Z AUTO 16012KT 0900 0800 R13L/1200U R24/1200D SHSN BKN004 BKN018 FEW///TCU M02/M04 Q1008 BECMG 4000 -SN BKN020",
      "taf": "TAF EDDK 071100Z 0712/0818 15012KT 9999 SCT020 BKN030"
    },
    {
      "icao": "EDDN",
      "alert": "OK",
      "vis_m": 9999,
      "fzfg": false,
      "metar_trigger": false,
      "taf_trigger": false,
      "metar": "METAR EDDN 071250Z AUTO 19003KT 9999 SCT025 SCT031 M02/M08 Q1013 NOSIG",
      "taf": "TAF EDDN 071100Z 0712/0812 15006KT CAVOK"
    },
    {
      "icao": "EDDS",
      "alert": "OK",
      "vis_m": 9999,
      "fzfg": false,
      "metar_trigger": false,
      "taf_trigger": false,
      "metar": "METAR EDDS 071250Z AUTO VRB02KT CAVOK M01/M09 Q1011 NOSIG",
      "taf": "TAF EDDS 071100Z 0712/0812 14004KT CAVOK"
    },
    {
      "icao": "EDFH",
      "alert": "OK",
      "vis_m": 9999,
      "fzfg": false,
      "metar_trigger": false,
      "taf_trigger": false,
      "metar": "METAR EDFH 071250Z 17012KT 9999 FEW044 M04/M08 Q1008",
      "taf": "TAF EDFH 071100Z 0712/0812 21013KT 9999 SCT010"
    },
    {
      "icao": "EDJA",
      "alert": "OK",
      "vis_m": 9999,
      "fzfg": false,
      "metar_trigger": false,
      "taf_trigger": false,
      "metar": "METAR EDJA 071250Z 18004KT 9999 FEW029 M04/M08 Q1011",
      "taf": "TAF EDJA 071100Z 0712/0721 21004KT 9999 SCT012 BKN030"
    },
    {
      "icao": "EDLW",
      "alert": "OK",
      "vis_m": 1900,
      "fzfg": false,
      "metar_trigger": false,
      "taf_trigger": false,
      "metar": "METAR EDLW 071250Z 20016KT 1900 SN SCT017 BKN039 M01/M05 Q1006",
      "taf": "TAF EDLW 071100Z 0712/0812 18015G25KT 9999 SCT015 BKN030"
    },
    {
      "icao": "EDNY",
      "alert": "OK",
      "vis_m": 9999,
      "fzfg": false,
      "metar_trigger": false,
      "taf_trigger": false,
      "metar": "METAR EDNY 071250Z 26003KT 210V340 9999 FEW018 SCT021 M03/M07 Q1013",
      "taf": "TAF EDNY 071100Z 0712/0721 04002KT 9999 BKN025"
    },
    {
      "icao": "EDSB",
      "alert": "OK",
      "vis_m": 9999,
      "fzfg": false,
      "metar_trigger": false,
      "taf_trigger": false,
      "metar": "METAR EDSB 071250Z 21010KT CAVOK M01/M07 Q1013",
      "taf": "TAF EDSB 071100Z 0712/0812 22007KT CAVOK"
    },
    {
      "icao": "EETN",
      "alert": "OK",
      "vis_m": 9999,
      "fzfg": false,
      "metar_trigger": false,
      "taf_trigger": false,
      "metar": "METAR EETN 071320Z VRB01KT 9999 BKN024 M07/M08 Q1015 NOSIG",
      "taf": "TAF EETN 071130Z 0712/0812 VRB02KT 9999 BKN018"
    },
    {
      "icao": "EFTU",
      "alert": "OK",
      "vis_m": 9999,
      "fzfg": false,
      "metar_trigger": false,
      "taf_trigger": false,
      "metar": "METAR EFTU 071250Z AUTO 09009KT 9999 -SHSN OVC024 M06/M08 Q1015",
      "taf": "TAF EFTU 071124Z 0712/0812 09008KT 9999 BKN025"
    },
    {
      "icao": "EGBB",
      "alert": "OK",
      "vis_m": 9999,
      "fzfg": false,
      "metar_trigger": false,
      "taf_trigger": false,
      "metar": "METAR EGBB 071250Z 29009KT 9999 BKN030 05/M01 Q1004",
      "taf": "TAF EGBB 071105Z 0712/0812 28012KT 9999 SCT025"
    },
    {
      "icao": "EGGP",
      "alert": "OK",
      "vis_m": 9999,
      "fzfg": false,
      "metar_trigger": false,
      "taf_trigger": false,
      "metar": "METAR EGGP 071250Z 29015KT 9999 VCSH FEW038 05/01 Q1004",
      "taf": "TAF EGGP 071055Z 0712/0812 29015KT 9999 FEW025"
    },
    {
      "icao": "EGGW",
      "alert": "OK",
      "vis_m": 9999,
      "fzfg": false,
      "metar_trigger": false,
      "taf_trigger": false,
      "metar": "METAR EGGW 071250Z AUTO 28016KT 9999 NCD 05/00 Q1003",
      "taf": "TAF EGGW 071056Z 0712/0812 28012KT 9999 SCT030"
    },
    {
      "icao": "EGKK",
      "alert": "OK",
      "vis_m": 9999,
      "fzfg": false,
      "metar_trigger": false,
      "taf_trigger": false,
      "metar": "METAR EGKK 071250Z 27014KT 9999 FEW016 06/01 Q1005",
      "taf": "TAF EGKK 071100Z 0712/0818 27010KT 9999 FEW030"
    },
    {
      "icao": "EGNM",
      "alert": "OK",
      "vis_m": 9999,
      "fzfg": false,
      "metar_trigger": false,
      "taf_trigger": false,
      "metar": "METAR EGNM 071250Z 28021KT 9999 FEW016 04/00 Q0999",
      "taf": "TAF EGNM 071055Z 0712/0812 28015KT 9999 FEW015"
    },
    {
      "icao": "EGPD",
      "alert": "OK",
      "vis_m": 9000,
      "fzfg": false,
      "metar_trigger": false,
      "taf_trigger": false,
      "metar": "METAR EGPD 071250Z 31003KT 270V350 9000 -RA BKN018 BKN023 03/01 Q1002 RERA TEMPO SHRA BKN014",
      "taf": "TAF EGPD 071102Z 0712/0812 03009KT 9999 BKN024"
    },
    {
      "icao": "EGPF",
      "alert": "OK",
      "vis_m": 9999,
      "fzfg": false,
      "metar_trigger": false,
      "taf_trigger": false,
      "metar": "METAR EGPF 071250Z AUTO 28006KT 240V320 9999 NCD 05/M00 Q1003",
      "taf": "TAF EGPF 071056Z 0712/0812 29010KT 9999 FEW035"
    },
    {
      "icao": "EHBK",
      "alert": "OK",
      "vis_m": 9999,
      "fzfg": false,
      "metar_trigger": false,
      "taf_trigger": false,
      "metar": "METAR EHBK 071255Z COR AUTO 20022KT 9999 -SN FEW003/// SCT016/// BKN020/// M01/M03 Q1006 NOSIG",
      "taf": "TAF EHBK 071124Z 0712/0818 20017KT 2500 -SN BKN025"
    },
    {
      "icao": "EHEH",
      "alert": "OK",
      "vis_m": 9999,
      "fzfg": false,
      "metar_trigger": false,
      "taf_trigger": false,
      "metar": "METAR EHEH 071255Z AUTO 20016G26KT 170V230 9999 SCT014 OVC017 M00/M03 Q1004 WHT TEMPO 19017G27KT 2500 -SN FEW002 BKN004 OVC008 RMK TREND REMOTE BY EHWX",
      "taf": "TAF EHEH 071117Z 0712/0818 19015G25KT 2500 -SN FEW002 SCT005 BKN008"
    },
    {
      "icao": "EKBI",
      "alert": "OK",
      "vis_m": 1400,
      "fzfg": false,
      "metar_trigger": false,
      "taf_trigger": false,
      "metar": "METAR EKBI 071250Z AUTO 15010KT 120V180 1400 R09/P1500N R27/P1500N -SN OVC007/// M02/M02 Q1003",
      "taf": "TAF EKBI 071127Z 0712/0812 17010KT 1200 SN BKN005"
    },
    {
      "icao": "EKCH",
      "alert": "OK",
      "vis_m": 9999,
      "fzfg": false,
      "metar_trigger": false,
      "taf_trigger": false,
      "metar": "METAR EKCH 071250Z AUTO 18017KT 9999 BKN015/// 00/M03 Q1009 TEMPO 17018G28KT",
      "taf": "TAF EKCH 071127Z 0712/0812 17015KT 9999 BKN018"
    },
    {
      "icao": "ENAL",
      "alert": "OK",
      "vis_m": 9999,
      "fzfg": false,
      "metar_trigger": false,
      "taf_trigger": false,
      "metar": "METAR ENAL 071250Z 12012KT CAVOK M02/M10 Q1008",
      "taf": "TAF ENAL 071100Z 0712/0721 14009KT CAVOK"
    },
    {
      "icao": "ENBR",
      "alert": "OK",
      "vis_m": 9999,
      "fzfg": false,
      "metar_trigger": false,
      "taf_trigger": false,
      "metar": "METAR ENBR 071250Z VRB01KT CAVOK M05/M13 Q1006 NOSIG RMK WIND 1200FT 04004KT",
      "taf": "TAF ENBR 071100Z 0712/0812 06005KT CAVOK"
    },
    {
      "icao": "ENGM",
      "alert": "OK",
      "vis_m": 9999,
      "fzfg": false,
      "metar_trigger": false,
      "taf_trigger": false,
      "metar": "METAR ENGM 071250Z 04005KT 9999 FEW015 BKN039 M09/M11 Q1008 NOSIG",
      "taf": "TAF ENGM 071100Z 0712/0812 01003KT 9999 FEW015 BKN020"
    },
    {
      "icao": "ENHD",
      "alert": "OK",
      "vis_m": 9999,
      "fzfg": false,
      "metar_trigger": false,
      "taf_trigger": false,
      "metar": "METAR ENHD 071250Z 07010KT CAVOK M04/M12 Q1005",
      "taf": "TAF ENHD 071100Z 0712/0721 08009KT CAVOK"
    },
    {
      "icao": "ENTC",
      "alert": "OK",
      "vis_m": 9999,
      "fzfg": false,
      "metar_trigger": false,
      "taf_trigger": false,
      "metar": "METAR ENTC 071250Z 10003KT CAVOK M13/M16 Q1024 NOSIG RMK WIND 2600FT 16015KT",
      "taf": "TAF ENTC 071100Z 0712/0812 VRB05KT CAVOK"
    },
    {
      "icao": "ENTO",
      "alert": "OK",
      "vis_m": 9999,
      "fzfg": false,
      "metar_trigger": false,
      "taf_trigger": false,
      "metar": "METAR ENTO 071250Z 36012KT 9999 OVC028 M09/M11 Q1008 NOSIG",
      "taf": ""
    },
    {
      "icao": "ENVA",
      "alert": "OK",
      "vis_m": 9999,
      "fzfg": false,
      "metar_trigger": false,
      "taf_trigger": false,
      "metar": "METAR ENVA 071250Z 12005KT 090V170 9999 FEW029 M09/M14 Q1013 NOSIG RMK WIND 670FT 07010KT",
      "taf": "TAF ENVA 071100Z 0712/0812 11008KT 9999 FEW025"
    },
    {
      "icao": "ENZV",
      "alert": "OK",
      "vis_m": 9999,
      "fzfg": false,
      "metar_trigger": false,
      "taf_trigger": false,
      "metar": "METAR ENZV 071250Z 08006KT CAVOK M02/M12 Q1005 NOSIG",
      "taf": "TAF ENZV 071100Z 0712/0812 08006KT CAVOK"
    },
    {
      "icao": "EPGD",
      "alert": "OK",
      "vis_m": 9000,
      "fzfg": false,
      "metar_trigger": false,
      "taf_trigger": false,
      "metar": "METAR EPGD 071300Z 22007KT 9000 BKN004 M07/M07 Q1015",
      "taf": "TAF EPGD 071130Z 0712/0812 23005KT 8000 NSC"
    },
    {
      "icao": "EPKK",
      "alert": "OK",
      "vis_m": 9999,
      "fzfg": false,
      "metar_trigger": false,
      "taf_trigger": false,
      "metar": "METAR EPKK 071300Z 06004KT 040V110 9999 SCT020 M03/M08 Q1014",
      "taf": "TAF EPKK 071130Z 0712/0812 04004KT 9999 SCT015 BKN045"
    },
    {
      "icao": "EPKT",
      "alert": "OK",
      "vis_m": 9999,
      "fzfg": false,
      "metar_trigger": false,
      "taf_trigger": false,
      "metar": "METAR EPKT 071300Z 01004KT 320V060 9999 BKN018 M04/M08 Q1014",
      "taf": "TAF EPKT 071130Z 0712/0812 04005KT 9999 BKN018"
    },
    {
      "icao": "EPLB",
      "alert": "OK",
      "vis_m": 3800,
      "fzfg": false,
      "metar_trigger": false,
      "taf_trigger": false,
      "metar": "METAR EPLB 071300Z 01003KT 3800 -SN BR BKN048 M04/M05 Q1015",
      "taf": "TAF EPLB 071130Z 0712/0812 02007KT 3500 -SN BR SCT020 BKN045"
    },
    {
      "icao": "EPMO",
      "alert": "OK",
      "vis_m": 1800,
      "fzfg": false,
      "metar_trigger": false,
      "taf_trigger": false,
      "metar": "METAR EPMO 071300Z 29003KT 260V320 1800 BR OVC002 M08/M09 Q1016",
      "taf": "TAF EPMO 071130Z 0712/0812 32003KT 1000 BR OVC002"
    },
    {
      "icao": "EPPO",
      "alert": "OK",
      "vis_m": 8000,
      "fzfg": false,
      "metar_trigger": false,
      "taf_trigger": false,
      "metar": "METAR EPPO 071300Z 16003KT 8000 BKN030 M03/M06 Q1015",
      "taf": "TAF EPPO 071130Z 0712/0812 16003KT 9000 BKN030"
    },
    {
      "icao": "EPRA",
      "alert": "OK",
      "vis_m": 5000,
      "fzfg": false,
      "metar_trigger": false,
      "taf_trigger": false,
      "metar": "METAR EPRA 071300Z 34005KT 5000 BR NSC M07/M09 Q1015",
      "taf": "TAF EPRA 071130Z 0712/0721 32005KT 5000 BR NSC"
    },
    {
      "icao": "EPRZ",
      "alert": "OK",
      "vis_m": 3000,
      "fzfg": false,
      "metar_trigger": false,
      "taf_trigger": false,
      "metar": "METAR EPRZ 071300Z 35007KT 3000 -SN BR BKN009 M04/M06 Q1014",
      "taf": "TAF EPRZ 071130Z 0712/0812 01007KT 3500 -SN BR OVC045"
    },
    {
      "icao": "EPSC",
      "alert": "OK",
      "vis_m": 9999,
      "fzfg": false,
      "metar_trigger": false,
      "taf_trigger": false,
      "metar": "METAR EPSC 071300Z 14010KT CAVOK M04/M08 Q1013",
      "taf": "TAF EPSC 071130Z 0712/0812 14012KT 9999 BKN030"
    },
    {
      "icao": "EPSY",
      "alert": "OK",
      "vis_m": 6000,
      "fzfg": false,
      "metar_trigger": false,
      "taf_trigger": false,
      "metar": "METAR EPSY 071300Z 19002KT 6000 NSC M11/M12 Q1016",
      "taf": "TAF EPSY 071130Z 0712/0721 VRB02KT 6000 NSC"
    },
    {
      "icao": "EPWA",
      "alert": "OK",
      "vis_m": 1900,
      "fzfg": false,
      "metar_trigger": false,
      "taf_trigger": false,
      "metar": "METAR EPWA 071300Z 33005KT 300V010 1900 1100W -SN BR BKN003 M09/M09 Q1017 NOSIG",
      "taf": "TAF EPWA 071130Z 0712/0812 34003KT 2000 BR OVC002"
    },
    {
      "icao": "EPWR",
      "alert": "OK",
      "vis_m": 9999,
      "fzfg": false,
      "metar_trigger": false,
      "taf_trigger": false,
      "metar": "METAR EPWR 071300Z VRB01KT 9999 -SN FEW015 BKN026 M02/M06 Q1015",
      "taf": "TAF EPWR 071130Z 0712/0812 VRB02KT 9999 BKN030"
    },
    {
      "icao": "ESGG",
      "alert": "OK",
      "vis_m": 9999,
      "fzfg": false,
      "metar_trigger": false,
      "taf_trigger": false,
      "metar": "METAR ESGG 071250Z 17005KT 9999 FEW024 BKN034 M01/M02 Q1006",
      "taf": "TAF ESGG 071130Z 0712/0812 16009KT 5000 -SN SCT005 BKN015"
    },
    {
      "icao": "ESKN",
      "alert": "OK",
      "vis_m": 9999,
      "fzfg": false,
      "metar_trigger": false,
      "taf_trigger": false,
      "metar": "METAR ESKN 071250Z 08004KT 9999 FEW020 SCT051 M07/M08 Q1011",
      "taf": ""
    },
    {
      "icao": "ESMS",
      "alert": "OK",
      "vis_m": 9999,
      "fzfg": false,
      "metar_trigger": false,
      "taf_trigger": false,
      "metar": "METAR ESMS 071250Z 18013KT 9999 BKN016 M01/M03 Q1009",
      "taf": "TAF ESMS 071127Z 0712/0812 20010KT 9999 BKN020"
    },
    {
      "icao": "ESSA",
      "alert": "OK",
      "vis_m": 9999,
      "fzfg": false,
      "metar_trigger": false,
      "taf_trigger": false,
      "metar": "METAR ESSA 071250Z 18006KT 9999 OVC005 M07/M08 Q1012 NOSIG",
      "taf": "TAF ESSA 071130Z 0712/0812 15008KT 9999 BKN008"
    },
    {
      "icao": "EYKA",
      "alert": "OK",
      "vis_m": 2300,
      "fzfg": false,
      "metar_trigger": false,
      "taf_trigger": false,
      "metar": "METAR EYKA 071320Z VRB01KT 2300 BR OVC002 M06/M06 Q1016",
      "taf": "TAF EYKA 071124Z 0712/0812 VRB04KT 3000 BR OVC002"
    },
    {
      "icao": "EYPA",
      "alert": "OK",
      "vis_m": 7000,
      "fzfg": false,
      "metar_trigger": false,
      "taf_trigger": false,
      "metar": "METAR EYPA 071320Z 14004KT 7000 NSC M06/M08 Q1015",
      "taf": "TAF EYPA 071100Z 0712/0812 VRB04KT 5000 BR SCT005"
    },
    {
      "icao": "EYVI",
      "alert": "OK",
      "vis_m": 5000,
      "fzfg": false,
      "metar_trigger": false,
      "taf_trigger": false,
      "metar": "METAR EYVI 071250Z 22003KT 200V280 5000 BR OVC004 M06/M07 Q1015 NOSIG",
      "taf": "TAF EYVI 071100Z 0712/0812 VRB04KT 5000 BR OVC005"
    },
    {
      "icao": "GCFV",
      "alert": "OK",
      "vis_m": 9999,
      "fzfg": false,
      "metar_trigger": false,
      "taf_trigger": false,
      "metar": "METAR GCFV 071300Z 03022KT 9999 FEW039 19/09 Q1028",
      "taf": "TAF GCFV 070800Z 0709/0809 04024KT 9999 SCT035 TX20/0714Z TN14/0806Z"
    },
    {
      "icao": "GCLP",
      "alert": "OK",
      "vis_m": 9999,
      "fzfg": false,
      "metar_trigger": false,
      "taf_trigger": false,
      "metar": "METAR GCLP 071300Z 03024KT 9999 FEW025 SCT035 19/10 Q1028 NOSIG",
      "taf": "TAF GCLP 070800Z 0709/0809 02025KT 9999 SCT040 TX18/0714Z TN14/0806Z"
    },
    {
      "icao": "GCTS",
      "alert": "OK",
      "vis_m": 9999,
      "fzfg": false,
      "metar_trigger": false,
      "taf_trigger": false,
      "metar": "METAR GCTS 071300Z 07029G39KT 9999 FEW035 20/05 Q1027 NOSIG",
      "taf": "TAF GCTS 070800Z 0709/0809 08025KT 9999 SCT035 TX22/0714Z TN16/0806Z"
    },
    {
      "icao": "GMAD",
      "alert": "OK",
      "vis_m": 9999,
      "fzfg": false,
      "metar_trigger": false,
      "taf_trigger": false,
      "metar": "METAR GMAD 071300Z 25003KT CAVOK 16/07 Q1025 NOSIG",
      "taf": "TAF GMAD 071100Z 0712/0818 22006KT CAVOK"
    },
    {
      "icao": "GMMN",
      "alert": "OK",
      "vis_m": 9999,
      "fzfg": false,
      "metar_trigger": false,
      "taf_trigger": false,
      "metar": "METAR GMMN 071300Z VRB02KT 9999 SCT040 15/07 Q1029 NOSIG",
      "taf": "TAF GMMN 071100Z 0712/0818 24011KT 9999 SCT040"
    },
    {
      "icao": "GMMX",
      "alert": "OK",
      "vis_m": 9999,
      "fzfg": false,
      "metar_trigger": false,
      "taf_trigger": false,
      "metar": "METAR GMMX 071300Z 08007KT 020V120 CAVOK 12/03 Q1028 NOSIG",
      "taf": "TAF GMMX 071100Z 0712/0818 06006KT 8000 NSC"
    },
    {
      "icao": "HEGN",
      "alert": "OK",
      "vis_m": 9999,
      "fzfg": false,
      "metar_trigger": false,
      "taf_trigger": false,
      "metar": "METAR HEGN 071300Z 35005KT CAVOK 25/08 Q1019 NOSIG",
      "taf": "TAF HEGN 071100Z 0712/0818 36014KT CAVOK"
    },
    {
      "icao": "HEMA",
      "alert": "OK",
      "vis_m": 4000,
      "fzfg": false,
      "metar_trigger": false,
      "taf_trigger": false,
      "metar": "METAR HEMA 071300Z 35014KT 4000 SA NSC 25/15 Q1018 NOSIG",
      "taf": "TAF HEMA 071100Z 0712/0818 36016KT 6000 NSC"
    },
    {
      "icao": "HESH",
      "alert": "OK",
      "vis_m": 9999,
      "fzfg": false,
      "metar_trigger": false,
      "taf_trigger": false,
      "metar": "METAR HESH 071300Z 04007KT CAVOK 26/11 Q1019 NOSIG",
      "taf": "TAF HESH 071100Z 0712/0818 01012KT CAVOK"
    },
    {
      "icao": "HESX",
      "alert": "OK",
      "vis_m": 6000,
      "fzfg": false,
      "metar_trigger": false,
      "taf_trigger": false,
      "metar": "METAR HESX 071300Z 04006KT 6000 NSC 23/05 Q1019 NOSIG",
      "taf": "TAF HESX 071100Z 0712/0818 30006KT CAVOK"
    },
    {
      "icao": "LATI",
      "alert": "OK",
      "vis_m": 9999,
      "fzfg": false,
      "metar_trigger": false,
      "taf_trigger": false,
      "metar": "METAR LATI 071320Z 14011KT 9999 SCT025CB BKN035 OVC068 15/09 Q1002 NOSIG",
      "taf": "TAF LATI 071100Z 0712/0812 15010KT 9999 SCT040 BKN060 TX16/0712Z TN06/0806Z"
    },
    {
      "icao": "LBPD",
      "alert": "OK",
      "vis_m": 9999,
      "fzfg": false,
      "metar_trigger": false,
      "taf_trigger": false,
      "metar": "METAR LBPD 071300Z AUTO VRB03KT 9999 SCT006/// BKN070/// 12/12 Q1007 TEMPO 3000 BR OVC003",
      "taf": "TAF LBPD 071100Z 0712/0812 VRB03KT 3000 BR OVC004"
    },
    {
      "icao": "LBSF",
      "alert": "OK",
      "vis_m": 9999,
      "fzfg": false,
      "metar_trigger": false,
      "taf_trigger": false,
      "metar": "METAR LBSF 071300Z VRB02KT 9999 -RA FEW025 SCT034 OVC046 10/08 Q1006 TEMPO 4000 RA",
      "taf": "TAF LBSF 071100Z 0712/0812 08010KT 9999 SCT040 BKN080"
    },
    {
      "icao": "LBWN",
      "alert": "OK",
      "vis_m": 9999,
      "fzfg": false,
      "metar_trigger": false,
      "taf_trigger": false,
      "metar": "METAR LBWN 071300Z 23008KT 200V260 9999 FEW037 17/11 Q1007 NOSIG",
      "taf": "TAF LBWN 071100Z 0712/0812 19012KT 9999 SCT020 BKN040"
    },
    {
      "icao": "LCLK",
      "alert": "OK",
      "vis_m": 9999,
      "fzfg": false,
      "metar_trigger": false,
      "taf_trigger": false,
      "metar": "METAR LCLK 071300Z 08004KT CAVOK 19/14 Q1022 NOSIG",
      "taf": "TAF LCLK 071130Z 0712/0812 09010KT 9999 FEW040"
    },
    {
      "icao": "LCPH",
      "alert": "OK",
      "vis_m": 9999,
      "fzfg": false,
      "metar_trigger": false,
      "taf_trigger": false,
      "metar": "METAR LCPH 071300Z 15010KT 9999 FEW040 19/14 Q1021 NOSIG",
      "taf": "TAF LCPH 071130Z 0712/0812 15015KT 9999 FEW040"
    },
    {
      "icao": "LEAL",
      "alert": "OK",
      "vis_m": 9999,
      "fzfg": false,
      "metar_trigger": false,
      "taf_trigger": false,
      "metar": "METAR LEAL 071300Z 29013KT 260V330 9999 FEW040 13/M02 Q1021 NOSIG",
      "taf": "TAF LEAL 071100Z 0712/0812 29012KT CAVOK TX13/0714Z TN07/0806Z"
    },
    {
      "icao": "LEBB",
      "alert": "OK",
      "vis_m": 9999,
      "fzfg": false,
      "metar_trigger": false,
      "taf_trigger": false,
      "metar": "METAR LEBB 071300Z 11003KT 050V200 9999 FEW014 BKN026 07/05 Q1020 NOSIG",
      "taf": "TAF LEBB 071100Z 0712/0812 22005KT 9999 SCT020 BKN030 TX11/0714Z TN08/0806Z"
    },
    {
      "icao": "LEBL",
      "alert": "OK",
      "vis_m": 9999,
      "fzfg": false,
      "metar_trigger": false,
      "taf_trigger": false,
      "metar": "METAR LEBL 071300Z 32008G18KT 260V350 CAVOK 08/M04 Q1017 NOSIG",
      "taf": ""
    },
    {
      "icao": "LECH",
      "alert": "OK",
      "vis_m": 9999,
      "fzfg": false,
      "metar_trigger": false,
      "taf_trigger": false,
      "metar": "METAR LECH 071300Z AUTO 23003KT CAVOK 10/M05 Q1018",
      "taf": ""
    },
    {
      "icao": "LEMD",
      "alert": "OK",
      "vis_m": 9999,
      "fzfg": false,
      "metar_trigger": false,
      "taf_trigger": false,
      "metar": "METAR LEMD 071300Z 12004KT 070V160 9999 FEW060 06/M03 Q1021 NOSIG",
      "taf": "TAF LEMD 071100Z 0712/0818 25005KT CAVOK TX08/0715Z TNM02/0806Z"
    },
    {
      "icao": "LEMG",
      "alert": "OK",
      "vis_m": 9999,
      "fzfg": false,
      "metar_trigger": false,
      "taf_trigger": false,
      "metar": "METAR LEMG 071300Z 30013KT CAVOK 12/M01 Q1025 NOSIG",
      "taf": "TAF LEMG 071100Z 0712/0812 29012KT 9999 FEW040 TX13/0714Z TN06/0806Z"
    },
    {
      "icao": "LEVC",
      "alert": "OK",
      "vis_m": 9999,
      "fzfg": false,
      "metar_trigger": false,
      "taf_trigger": false,
      "metar": "METAR LEVC 071300Z 28015KT CAVOK 12/M02 Q1019 NOSIG",
      "taf": "TAF LEVC 071100Z 0712/0812 25012KT CAVOK TX13/0714Z TN06/0806Z"
    },
    {
      "icao": "LEXJ",
      "alert": "OK",
      "vis_m": 9999,
      "fzfg": false,
      "metar_trigger": false,
      "taf_trigger": false,
      "metar": "METAR LEXJ 071300Z 30021G31KT 270V330 9999 SCT020 SCT030 12/09 Q1020",
      "taf": "TAF LEXJ 070800Z 0709/0809 24009KT 9999 BKN050 TX12/0713Z TN08/0802Z"
    },
    {
      "icao": "LEZG",
      "alert": "OK",
      "vis_m": 9999,
      "fzfg": false,
      "metar_trigger": false,
      "taf_trigger": false,
      "metar": "METAR LEZG 071300Z 30009KT 9999 FEW085 08/M02 Q1020 NOSIG",
      "taf": "TAF LEZG 071100Z 0712/0812 30007KT 9999 FEW030 TX08/0715Z TN05/0806Z"
    },
    {
      "icao": "LEZL",
      "alert": "OK",
      "vis_m": 9999,
      "fzfg": false,
      "metar_trigger": false,
      "taf_trigger": false,
      "metar": "METAR LEZL 071300Z 30006KT 280V340 9999 -RA NSC 09/03 Q1027 NOSIG",
      "taf": "TAF LEZL 070800Z 0709/0809 19004KT 9999 FEW030 TX12/0715Z TN03/0807Z"
    },
    {
      "icao": "LFBD",
      "alert": "OK",
      "vis_m": 6000,
      "fzfg": false,
      "metar_trigger": false,
      "taf_trigger": false,
      "metar": "METAR LFBD 071300Z AUTO 20008KT 6000 RA SCT023/// BKN029/// BKN035/// ///CB 04/03 Q1016",
      "taf": "TAF LFBD 070500Z 0706/0812 19005KT CAVOK TX10/0800Z TNM01/0706Z"
    },
    {
      "icao": "LFLL",
      "alert": "OK",
      "vis_m": 9999,
      "fzfg": false,
      "metar_trigger": false,
      "taf_trigger": false,
      "metar": "METAR LFLL 071300Z 15005KT CAVOK M00/M07 Q1015 NOSIG",
      "taf": "TAF LFLL 071100Z 0712/0818 16005KT CAVOK"
    },
    {
      "icao": "LFLS",
      "alert": "OK",
      "vis_m": 9999,
      "fzfg": false,
      "metar_trigger": false,
      "taf_trigger": false,
      "metar": "METAR LFLS 071300Z AUTO VRB02KT CAVOK M00/M08 Q1014 BECMG 4000 -SN",
      "taf": "TAF LFLS 070800Z 0709/0809 VRB05KT CAVOK"
    },
    {
      "icao": "LFMN",
      "alert": "OK",
      "vis_m": 9999,
      "fzfg": false,
      "metar_trigger": false,
      "taf_trigger": false,
      "metar": "METAR LFMN 071300Z 23012KT 9999 FEW040 10/M03 Q1010 NOSIG",
      "taf": "TAF LFMN 070800Z 0709/0815 34012KT CAVOK"
    },
    {
      "icao": "LFOB",
      "alert": "OK",
      "vis_m": 9999,
      "fzfg": false,
      "metar_trigger": false,
      "taf_trigger": false,
      "metar": "METAR LFOB 071300Z AUTO 23008KT 9999 FEW009 BKN064 02/01 Q1007 TEMPO BKN008",
      "taf": ""
    },
    {
      "icao": "LFPO",
      "alert": "OK",
      "vis_m": 9999,
      "fzfg": false,
      "metar_trigger": false,
      "taf_trigger": false,
      "metar": "METAR LFPO 071300Z AUTO 21008KT 180V240 9999 OVC009 01/M01 Q1009 BECMG NSC",
      "taf": "TAF LFPO 071100Z 0712/0818 22012KT 9999 BKN009"
    },
    {
      "icao": "LFSB",
      "alert": "OK",
      "vis_m": 9999,
      "fzfg": false,
      "metar_trigger": false,
      "taf_trigger": false,
      "metar": "METAR LFSB 071300Z AUTO 14005KT CAVOK M00/M07 Q1013 NOSIG",
      "taf": "TAF LFSB 071100Z 0712/0812 16005KT CAVOK"
    },
    {
      "icao": "LGAV",
      "alert": "OK",
      "vis_m": 9999,
      "fzfg": false,
      "metar_trigger": false,
      "taf_trigger": false,
      "metar": "METAR LGAV 071250Z 21015KT 9999 FEW025 19/13 Q1010 NOSIG",
      "taf": "TAF LGAV 071100Z 0712/0812 20015KT 9999 FEW020 SCT030"
    },
    {
      "icao": "LGTS",
      "alert": "OK",
      "vis_m": 9999,
      "fzfg": false,
      "metar_trigger": false,
      "taf_trigger": false,
      "metar": "METAR LGTS 071250Z VRB03KT 9999 SCT020 16/13 Q1007 NOSIG",
      "taf": "TAF LGTS 071100Z 0712/0812 16013KT 9999 SCT025"
    },
    {
      "icao": "LHBP",
      "alert": "OK",
      "vis_m": 9999,
      "fzfg": false,
      "metar_trigger": false,
      "taf_trigger": false,
      "metar": "METAR LHBP 071300Z 29003KT 9999 -SN OVC037 M01/M03 Q1012 NOSIG",
      "taf": "TAF LHBP 071115Z 0712/0812 33005KT 9999 BKN040"
    },
    {
      "icao": "LHDC",
      "alert": "OK",
      "vis_m": 9999,
      "fzfg": false,
      "metar_trigger": false,
      "taf_trigger": false,
      "metar": "METAR LHDC 071245Z AUTO 01008KT 330V050 9999 BKN024 M01/M06 Q1011 NOSIG",
      "taf": "TAF LHDC 071115Z 0712/0721 35008KT 9999 OVC020"
    },
    {
      "icao": "LIBD",
      "alert": "OK",
      "vis_m": 6000,
      "fzfg": false,
      "metar_trigger": false,
      "taf_trigger": false,
      "metar": "METAR LIBD 071250Z 30008KT 6000 DZ BKN004 OVC040 07/06 Q1004",
      "taf": "TAF LIBD 071100Z 0712/0812 28012KT 4000 RA BKN020"
    },
    {
      "icao": "LIBG",
      "alert": "OK",
      "vis_m": 9999,
      "fzfg": false,
      "metar_trigger": false,
      "taf_trigger": false,
      "metar": "METAR LIBG 071250Z 01006KT 9999 -RA FEW010 BKN025 11/11 Q1003",
      "taf": "TAF LIBG 071100Z 0712/0721 32012KT 9999 SCT015"
    },
    {
      "icao": "LIBP",
      "alert": "OK",
      "vis_m": 9999,
      "fzfg": false,
      "metar_trigger": false,
      "taf_trigger": false,
      "metar": "METAR LIBP 071250Z AUTO 33007KT 280V350 9999 FEW029/// SCT051/// BKN230/// 07/00 Q1008",
      "taf": "TAF LIBP 071100Z 0712/0812 30007KT 9999 BKN030"
    },
    {
      "icao": "LIBR",
      "alert": "OK",
      "vis_m": 7000,
      "fzfg": false,
      "metar_trigger": false,
      "taf_trigger": false,
      "metar": "METAR LIBR 071250Z 33012KT 7000 -RA BKN007 OVC030 11/10 Q1004",
      "taf": "TAF LIBR 071100Z 0712/0812 33008KT 6000 RA BKN016"
    },
    {
      "icao": "LICA",
      "alert": "OK",
      "vis_m": 9999,
      "fzfg": false,
      "metar_trigger": false,
      "taf_trigger": false,
      "metar": "METAR LICA 071250Z AUTO 22005KT 9999 -RA OVC036/// 12/10 Q1005 RERA",
      "taf": "TAF LICA 071100Z 0712/0812 27013KT 9999 RA SCT050"
    },
    {
      "icao": "LICC",
      "alert": "OK",
      "vis_m": 9999,
      "fzfg": false,
      "metar_trigger": false,
      "taf_trigger": false,
      "metar": "METAR LICC 071250Z 25018KT 9999 FEW030 SCT080 15/13 Q1005",
      "taf": "TAF LICC 071100Z 0712/0812 26013KT 9999 SCT050"
    },
    {
      "icao": "LICJ",
      "alert": "OK",
      "vis_m": 9999,
      "fzfg": false,
      "metar_trigger": false,
      "taf_trigger": false,
      "metar": "METAR LICJ 071250Z 28023KT 9999 FEW030 SCT040 12/06 Q1009",
      "taf": "TAF LICJ 071100Z 0712/0812 27018KT 9999 SCT030"
    },
    {
      "icao": "LIMC",
      "alert": "OK",
      "vis_m": 9999,
      "fzfg": false,
      "metar_trigger": false,
      "taf_trigger": false,
      "metar": "METAR LIMC 071250Z 22004KT 190V250 CAVOK 02/M02 Q1011 NOSIG",
      "taf": "TAF LIMC 071100Z 0712/0818 VRB04KT CAVOK"
    },
    {
      "icao": "LIME",
      "alert": "OK",
      "vis_m": 9999,
      "fzfg": false,
      "metar_trigger": false,
      "taf_trigger": false,
      "metar": "METAR LIME 071250Z 22006KT 190V250 CAVOK 03/M04 Q1010 NOSIG",
      "taf": "TAF LIME 071100Z 0712/0812 VRB04KT CAVOK"
    },
    {
      "icao": "LIMF",
      "alert": "OK",
      "vis_m": 9999,
      "fzfg": false,
      "metar_trigger": false,
      "taf_trigger": false,
      "metar": "METAR LIMF 071250Z 19005KT CAVOK 04/M09 Q1010",
      "taf": "TAF LIMF 071100Z 0712/0812 VRB03KT CAVOK"
    },
    {
      "icao": "LIMJ",
      "alert": "OK",
      "vis_m": 9999,
      "fzfg": false,
      "metar_trigger": false,
      "taf_trigger": false,
      "metar": "METAR LIMJ 071250Z 04010KT CAVOK 06/M05 Q1010",
      "taf": "TAF LIMJ 071100Z 0712/0812 04017KT CAVOK"
    },
    {
      "icao": "LIPE",
      "alert": "OK",
      "vis_m": 9999,
      "fzfg": false,
      "metar_trigger": false,
      "taf_trigger": false,
      "metar": "METAR LIPE 071250Z 25006KT 9999 FEW050 02/M01 Q1011",
      "taf": "TAF LIPE 071100Z 0712/0812 26007KT 9999 BKN030"
    },
    {
      "icao": "LIPH",
      "alert": "OK",
      "vis_m": 9999,
      "fzfg": false,
      "metar_trigger": false,
      "taf_trigger": false,
      "metar": "METAR LIPH 071250Z 28003KT 210V330 CAVOK 06/M08 Q1010",
      "taf": "TAF LIPH 071100Z 0712/0812 VRB05KT CAVOK"
    },
    {
      "icao": "LIPQ",
      "alert": "OK",
      "vis_m": 9999,
      "fzfg": false,
      "metar_trigger": false,
      "taf_trigger": false,
      "metar": "METAR LIPQ 071250Z AUTO 15005KT 9999 BKN088/// 04/M06 Q1010",
      "taf": "TAF LIPQ 071100Z 0712/0812 08006KT 9999 SCT070"
    },
    {
      "icao": "LIPR",
      "alert": "OK",
      "vis_m": 9999,
      "fzfg": false,
      "metar_trigger": false,
      "taf_trigger": false,
      "metar": "METAR LIPR 071250Z 28013KT 9999 BKN045 02/M02 Q1010",
      "taf": "TAF LIPR 071100Z 0712/0812 30012KT 9999 BKN030"
    },
    {
      "icao": "LIPX",
      "alert": "OK",
      "vis_m": 9999,
      "fzfg": false,
      "metar_trigger": false,
      "taf_trigger": false,
      "metar": "METAR LIPX 071250Z 27007KT CAVOK 05/M08 Q1011",
      "taf": "TAF LIPX 071100Z 0712/0812 VRB05KT CAVOK"
    },
    {
      "icao": "LIPY",
      "alert": "OK",
      "vis_m": 9999,
      "fzfg": false,
      "metar_trigger": false,
      "taf_trigger": false,
      "metar": "METAR LIPY 071250Z AUTO 29009KT 9999 -RA OVC026/// 02/M01 Q1009",
      "taf": "TAF LIPY 071100Z 0712/0812 33013KT 9999 BKN020"
    },
    {
      "icao": "LIPZ",
      "alert": "OK",
      "vis_m": 9999,
      "fzfg": false,
      "metar_trigger": false,
      "taf_trigger": false,
      "metar": "METAR LIPZ 071250Z 10006KT CAVOK 05/M08 Q1011 NOSIG",
      "taf": "TAF LIPZ 071100Z 0712/0818 VRB05KT CAVOK"
    },
    {
      "icao": "LIRF",
      "alert": "OK",
      "vis_m": 9999,
      "fzfg": false,
      "metar_trigger": false,
      "taf_trigger": false,
      "metar": "METAR LIRF 071250Z 01004KT 330V030 9999 VCSH SCT030 08/03 Q1006 NOSIG",
      "taf": "TAF LIRF 071100Z 0712/0818 01010KT 9999 FEW040"
    },
    {
      "icao": "LIRN",
      "alert": "OK",
      "vis_m": 9999,
      "fzfg": false,
      "metar_trigger": false,
      "taf_trigger": false,
      "metar": "METAR LIRN 071250Z 05005KT 9999 FEW020 SCT070 11/08 Q1004 NOSIG",
      "taf": "TAF LIRN 071100Z 0712/0812 28012KT 9999 SCT030"
    },
    {
      "icao": "LIRP",
      "alert": "OK",
      "vis_m": 9999,
      "fzfg": false,
      "metar_trigger": false,
      "taf_trigger": false,
      "metar": "METAR LIRP 071245Z 12010KT CAVOK 06/M03 Q1010 NOSIG",
      "taf": "TAF LIRP 071100Z 0712/0812 12007KT CAVOK"
    },
    {
      "icao": "LIRZ",
      "alert": "OK",
      "vis_m": 9999,
      "fzfg": false,
      "metar_trigger": false,
      "taf_trigger": false,
      "metar": "METAR LIRZ 071250Z AUTO 01011KT 9999 OVC042/// 03/M01 Q1007",
      "taf": "TAF LIRZ 071100Z 0712/0812 01013KT 9999 BKN040"
    },
    {
      "icao": "LJLJ",
      "alert": "OK",
      "vis_m": 9999,
      "fzfg": false,
      "metar_trigger": false,
      "taf_trigger": false,
      "metar": "METAR LJLJ 071300Z VRB02KT 9999 -SN FEW010 BKN020 BKN065 M03/M06 Q1011 NOSIG",
      "taf": "TAF LJLJ 071100Z 0712/0812 VRB02KT 9999 FEW005 BKN080"
    },
    {
      "icao": "LKMT",
      "alert": "OK",
      "vis_m": 7000,
      "fzfg": false,
      "metar_trigger": false,
      "taf_trigger": false,
      "metar": "METAR LKMT 071300Z 02008KT 7000 FEW016 BKN027 M04/M06 Q1014 NOSIG",
      "taf": "TAF LKMT 071100Z 0712/0812 02007KT 9999 BKN030"
    },
    {
      "icao": "LKPR",
      "alert": "OK",
      "vis_m": 9999,
      "fzfg": false,
      "metar_trigger": false,
      "taf_trigger": false,
      "metar": "METAR LKPR 071300Z VRB06KT 9999 -SN BKN028 M04/M10 Q1013 NOSIG",
      "taf": "TAF LKPR 071100Z 0712/0818 21006KT 9999 BKN030"
    },
    {
      "icao": "LLBG",
      "alert": "OK",
      "vis_m": 9999,
      "fzfg": false,
      "metar_trigger": false,
      "taf_trigger": false,
      "metar": "METAR LLBG 071250Z 30008KT CAVOK 22/12 Q1020 NOSIG",
      "taf": "TAF LLBG 071102Z 0712/0812 33006KT CAVOK"
    },
    {
      "icao": "LMML",
      "alert": "OK",
      "vis_m": 8000,
      "fzfg": false,
      "metar_trigger": false,
      "taf_trigger": false,
      "metar": "METAR LMML 071315Z 31015KT 8000 -RA FEW005 SCT008 BKN025 12/11 Q1009 BECMG 9999",
      "taf": "TAF LMML 071100Z 0712/0812 28015KT 9999 SCT018"
    },
    {
      "icao": "LOWW",
      "alert": "OK",
      "vis_m": 9999,
      "fzfg": false,
      "metar_trigger": false,
      "taf_trigger": false,
      "metar": "METAR LOWW 071250Z 32014KT 9999 FEW034 M01/M10 Q1014 NOSIG",
      "taf": "TAF LOWW 071115Z 0712/0818 32012KT 9999 FEW040 TXM02/0814Z TNM06/0804Z"
    },
    {
      "icao": "LPFR",
      "alert": "OK",
      "vis_m": 6000,
      "fzfg": false,
      "metar_trigger": false,
      "taf_trigger": false,
      "metar": "METAR LPFR 071300Z 16008KT 6000 -RADZ SCT004 SCT007 BKN016 11/10 Q1027",
      "taf": "TAF LPFR 071100Z 0712/0812 VRB02KT 9999 BKN025"
    },
    {
      "icao": "LPMA",
      "alert": "OK",
      "vis_m": 9999,
      "fzfg": false,
      "metar_trigger": false,
      "taf_trigger": false,
      "metar": "METAR LPMA 071300Z 04018KT 9999 SCT015 17/10 Q1033",
      "taf": "TAF LPMA 071100Z 0712/0812 02012KT 9999 SCT015"
    },
    {
      "icao": "LPPR",
      "alert": "OK",
      "vis_m": 9999,
      "fzfg": false,
      "metar_trigger": false,
      "taf_trigger": false,
      "metar": "METAR LPPR 071300Z 32006KT 260V350 9999 FEW017 12/08 Q1026",
      "taf": "TAF LPPR 071100Z 0712/0812 01005KT 9999 SCT015"
    },
    {
      "icao": "LPPS",
      "alert": "OK",
      "vis_m": 9999,
      "fzfg": false,
      "metar_trigger": false,
      "taf_trigger": false,
      "metar": "METAR LPPS 071300Z 02012KT 360V070 9999 FEW015 16/08 Q1033",
      "taf": "TAF LPPS 071100Z 0712/0818 02012KT 9999 SCT015"
    },
    {
      "icao": "LPPT",
      "alert": "OK",
      "vis_m": 9999,
      "fzfg": false,
      "metar_trigger": false,
      "taf_trigger": false,
      "metar": "METAR LPPT 071300Z 36012KT 9999 FEW018 SCT022 BKN038 13/09 Q1026",
      "taf": "TAF LPPT 071100Z 0712/0818 34012KT 9999 SCT025"
    },
    {
      "icao": "LQBK",
      "alert": "OK",
      "vis_m": 4000,
      "fzfg": false,
      "metar_trigger": false,
      "taf_trigger": false,
      "metar": "METAR LQBK 071300Z 30004KT 4000 -SN BR FEW010 BKN033 M03/M04 Q1012 BECMG 8000 NSW",
      "taf": "TAF LQBK 071100Z 0712/0812 35006KT 7000 -SN SCT020 BKN030 TXM02/0713Z TNM07/0805Z"
    },
    {
      "icao": "LQSA",
      "alert": "OK",
      "vis_m": 8000,
      "fzfg": false,
      "metar_trigger": false,
      "taf_trigger": false,
      "metar": "METAR LQSA 071300Z VRB01KT 8000 SCT018 BKN030 M02/M05 Q1008 NOSIG",
      "taf": "TAF LQSA 071100Z 0712/0812 29005KT 7000 -SN SCT012 OVC030 TXM03/0712Z TNM07/0806Z"
    },
    {
      "icao": "LQTZ",
      "alert": "OK",
      "vis_m": 5000,
      "fzfg": false,
      "metar_trigger": false,
      "taf_trigger": false,
      "metar": "METAR LQTZ 071300Z 31003KT 5000 -SN BR FEW010 BKN025 OVC040 M03/M04 Q1011",
      "taf": "TAF LQTZ 071100Z 0712/0812 27007KT 9999 SCT010 BKN020 OVC040 TXM01/0812Z TNM05/0805Z"
    },
    {
      "icao": "LRBC",
      "alert": "OK",
      "vis_m": 5000,
      "fzfg": false,
      "metar_trigger": false,
      "taf_trigger": false,
      "metar": "METAR LRBC 071300Z 34007KT 5000 BR OVC005 01/M01 Q1009",
      "taf": "TAF LRBC 071100Z 0712/0721 35008KT 3000 BR OVC004"
    },
    {
      "icao": "LRBS",
      "alert": "OK",
      "vis_m": 500,
      "fzfg": false,
      "metar_trigger": false,
      "taf_trigger": false,
      "metar": "METAR LRBS 071300Z 00000KT 0500 R07/0800N FG VV001 04/04 Q1008 TEMPO 0600",
      "taf": "TAF LRBS 071100Z 0712/0812 07006KT 0600 FG OVC001"
    },
    {
      "icao": "LRBV",
      "alert": "OK",
      "vis_m": 9000,
      "fzfg": false,
      "metar_trigger": false,
      "taf_trigger": false,
      "metar": "METAR LRBV 071300Z 30012KT 9000 FEW012 SCT016 BKN047 02/01 Q1006",
      "taf": "TAF LRBV 071100Z 0712/0721 30010KT 9999 BKN035"
    },
    {
      "icao": "LRCL",
      "alert": "OK",
      "vis_m": 9999,
      "fzfg": false,
      "metar_trigger": false,
      "taf_trigger": false,
      "metar": "METAR LRCL 071300Z 02005KT 350V050 9999 BKN010 OVC028 M00/M02 Q1009",
      "taf": "TAF LRCL 071100Z 0712/0721 VRB04KT 9999 BKN010 BKN035"
    },
    {
      "icao": "LRCV",
      "alert": "OK",
      "vis_m": 900,
      "fzfg": false,
      "metar_trigger": false,
      "taf_trigger": false,
      "metar": "METAR LRCV 071300Z VRB01KT 0900 R26/1700U FG OVC001 03/03 Q1008",
      "taf": "TAF LRCV 071100Z 0712/0721 VRB04KT 1500 -RA BR OVC002"
    },
    {
      "icao": "LRIA",
      "alert": "OK",
      "vis_m": 1000,
      "fzfg": false,
      "metar_trigger": false,
      "taf_trigger": false,
      "metar": "METAR LRIA 071300Z 30006KT 270V330 1000 R14/1200U -DZ BR OVC001 00/00 Q1010",
      "taf": "TAF LRIA 071100Z 0712/0721 30006KT 0800 FG VV001"
    },
    {
      "icao": "LROP",
      "alert": "OK",
      "vis_m": 800,
      "fzfg": false,
      "metar_trigger": false,
      "taf_trigger": false,
      "metar": "METAR LROP 071300Z VRB01KT 0800 R08R/1100U R08L/1200N FG OVC001 04/04 Q1008 NOSIG",
      "taf": "TAF LROP 071100Z 0712/0812 07006KT 0600 FG OVC001"
    },
    {
      "icao": "LRSB",
      "alert": "OK",
      "vis_m": 9999,
      "fzfg": false,
      "metar_trigger": false,
      "taf_trigger": false,
      "metar": "METAR LRSB 071300Z 08002KT 9999 FEW013 OVC022 01/M00 Q1008",
      "taf": "TAF LRSB 071100Z 0712/0812 VRB04KT 9999 BKN010 OVC020"
    },
    {
      "icao": "LRSM",
      "alert": "OK",
      "vis_m": 9000,
      "fzfg": false,
      "metar_trigger": false,
      "taf_trigger": false,
      "metar": "METAR LRSM 071300Z 25003KT 9000 BKN008 OVC040 M02/M03 Q1010",
      "taf": "TAF LRSM 071100Z 0712/0721 VRB04KT 9999 BKN005 OVC020"
    },
    {
      "icao": "LRSV",
      "alert": "OK",
      "vis_m": 6000,
      "fzfg": false,
      "metar_trigger": false,
      "taf_trigger": false,
      "metar": "METAR LRSV 071300Z 34010KT 6000 BKN007 BKN020 M02/M03 Q1008",
      "taf": "TAF LRSV 071100Z 0712/0721 34010KT 5000 BR BKN005 OVC020"
    },
    {
      "icao": "LRTM",
      "alert": "OK",
      "vis_m": 9999,
      "fzfg": false,
      "metar_trigger": false,
      "taf_trigger": false,
      "metar": "METAR LRTM 071300Z 27003KT 240V300 9999 FEW006 SCT009 BKN013 01/M00 Q1009",
      "taf": "TAF LRTM 071100Z 0712/0721 VRB04KT 5000 -RA BR BKN010 BKN045"
    },
    {
      "icao": "LRTR",
      "alert": "OK",
      "vis_m": 3000,
      "fzfg": false,
      "metar_trigger": false,
      "taf_trigger": false,
      "metar": "METAR LRTR 071300Z 13003KT 3000 BR SCT003 OVC005 M02/M02 Q1011",
      "taf": "TAF LRTR 071100Z 0712/0812 VRB04KT 3000 BR BKN005 OVC015"
    },
    {
      "icao": "LTAC",
      "alert": "OK",
      "vis_m": 9999,
      "fzfg": false,
      "metar_trigger": false,
      "taf_trigger": false,
      "metar": "METAR LTAC 071250Z 05004KT 9999 FEW040 SCT100 11/02 Q1018 NOSIG RMK RWY21C VRB01KT RWY03L 05003KT 010V080 RWY21R VRB01KT RWY03R 02006KT RWY21L VRB02KT",
      "taf": "TAF LTAC 071040Z 0712/0812 VRB02KT 9999 SCT040 SCT100"
    },
    {
      "icao": "LTFM",
      "alert": "OK",
      "vis_m": 9999,
      "fzfg": false,
      "metar_trigger": false,
      "taf_trigger": false,
      "metar": "METAR LTFM 071250Z 20018KT 9999 FEW040 BKN080 18/09 Q1011 NOSIG RMK RWY17L 20020KT RWY34L 19017KT RWY16R 20017KT RWY36 21016KT RWY18 21021KT",
      "taf": "TAF LTFM 071040Z 0712/0818 20015G25KT 9999 SCT040 BKN080"
    },
    {
      "icao": "LUKK",
      "alert": "OK",
      "vis_m": 5000,
      "fzfg": false,
      "metar_trigger": false,
      "taf_trigger": false,
      "metar": "METAR LUKK 071300Z 36008KT 5000 BR OVC003 02/02 Q1009 NOSIG",
      "taf": "TAF LUKK 071114Z 0712/0812 35006KT 0800 -DZ FG VV002"
    },
    {
      "icao": "LWOH",
      "alert": "OK",
      "vis_m": 9999,
      "fzfg": false,
      "metar_trigger": false,
      "taf_trigger": false,
      "metar": "METAR LWOH 071320Z VRB02KT 9999 -RA SCT010 OVC040 09/08 Q1004",
      "taf": "TAF LWOH 071150Z 0712/0812 VRB02KT 9999 SCT010 OVC040"
    },
    {
      "icao": "LWSK",
      "alert": "OK",
      "vis_m": 6000,
      "fzfg": false,
      "metar_trigger": false,
      "taf_trigger": false,
      "metar": "METAR LWSK 071320Z VRB01KT 6000 FEW015 SCT040 BKN070 10/09 Q1005 NOSIG",
      "taf": "TAF LWSK 071150Z 0712/0812 VRB02KT 3000 RA FEW005 SCT020 OVC040"
    },
    {
      "icao": "LYBE",
      "alert": "OK",
      "vis_m": 9999,
      "fzfg": false,
      "metar_trigger": false,
      "taf_trigger": false,
      "metar": "METAR LYBE 071300Z 28006KT 9999 BKN007 BKN033 M02/M03 Q1012 BECMG 3000 SN BKN004 BKN030",
      "taf": "TAF LYBE 071100Z 0712/0812 27008KT 7000 BKN007 BKN035 TXM01/0713Z TNM04/0806Z"
    },
    {
      "icao": "LYNI",
      "alert": "OK",
      "vis_m": 9999,
      "fzfg": false,
      "metar_trigger": false,
      "taf_trigger": false,
      "metar": "METAR LYNI 071300Z 32011KT 9999 SCT010 OVC015 M01/M04 Q1010 NOSIG",
      "taf": "TAF LYNI 071100Z 0712/0812 34014KT 9999 SCT008 BKN012 BKN030 TXM01/0712Z TNM04/0806Z"
    },
    {
      "icao": "LYPG",
      "alert": "OK",
      "vis_m": 8000,
      "fzfg": false,
      "metar_trigger": false,
      "taf_trigger": false,
      "metar": "METAR LYPG 071300Z VRB02KT 8000 -RA FEW010 SCT030 OVC070 12/11 Q1003 TEMPO 5000 RA",
      "taf": "TAF LYPG 071100Z 0712/0812 15007KT 9999 FEW020 BKN034 OVC070 TX13/0712Z TN03/0806Z"
    },
    {
      "icao": "LZIB",
      "alert": "OK",
      "vis_m": 9999,
      "fzfg": false,
      "metar_trigger": false,
      "taf_trigger": false,
      "metar": "METAR LZIB 071300Z 31013KT 9999 FEW031 M01/M08 Q1013 NOSIG",
      "taf": "TAF LZIB 071115Z 0712/0812 33009KT 9999 FEW035"
    },
    {
      "icao": "LZKZ",
      "alert": "OK",
      "vis_m": 9999,
      "fzfg": false,
      "metar_trigger": false,
      "taf_trigger": false,
      "metar": "METAR LZKZ 071300Z 36020KT 9999 DRSN FEW024 M02/M07 Q1010 NOSIG",
      "taf": ""
    },
    {
      "icao": "LZTT",
      "alert": "OK",
      "vis_m": 9999,
      "fzfg": false,
      "metar_trigger": false,
      "taf_trigger": false,
      "metar": "METAR LZTT 071300Z 07011KT 9999 FEW016 BKN046 M06/M10 Q1008 NOSIG",
      "taf": ""
    },
    {
      "icao": "OEJN",
      "alert": "OK",
      "vis_m": 7000,
      "fzfg": false,
      "metar_trigger": false,
      "taf_trigger": false,
      "metar": "METAR OEJN 071300Z 25009KT 7000 NSC 28/17 Q1015 NOSIG",
      "taf": "TAF OEJN 071100Z 0712/0818 26010KT 7000 FEW040"
    },
    {
      "icao": "OEMA",
      "alert": "OK",
      "vis_m": 9999,
      "fzfg": false,
      "metar_trigger": false,
      "taf_trigger": false,
      "metar": "METAR OEMA 071300Z 13005KT CAVOK 27/01 Q1022 NOSIG",
      "taf": "TAF OEMA 071100Z 0712/0818 10010KT 8000 NSC"
    },
    {
      "icao": "OJAI",
      "alert": "OK",
      "vis_m": 5000,
      "fzfg": false,
      "metar_trigger": false,
      "taf_trigger": false,
      "metar": "METAR OJAI 071300Z 06006KT 5000 HZ NSC 18/03 Q1024 NOSIG",
      "taf": "TAF OJAI 071100Z 0712/0818 07010KT 5000 HZ NSC"
    },
    {
      "icao": "OMAA",
      "alert": "OK",
      "vis_m": 9999,
      "fzfg": false,
      "metar_trigger": false,
      "taf_trigger": false,
      "metar": "METAR OMAA 071300Z 30013KT CAVOK 23/13 Q1019 NOSIG",
      "taf": "TAF OMAA 071100Z 0712/0818 34011KT 9999 FEW040"
    },
    {
      "icao": "OMDB",
      "alert": "OK",
      "vis_m": 9999,
      "fzfg": false,
      "metar_trigger": false,
      "taf_trigger": false,
      "metar": "METAR OMDB 071300Z 34011KT 310V020 CAVOK 24/10 Q1019 NOSIG",
      "taf": "TAF OMDB 071100Z 0712/0818 34010KT 8000 FEW045"
    },
    {
      "icao": "UAAA",
      "alert": "OK",
      "vis_m": 700,
      "fzfg": true,
      "metar_trigger": false,
      "taf_trigger": false,
      "metar": "METAR UAAA 071300Z 32002MPS 240V360 0700 R23L/1900N -SG FZFG OVC002 M04/M05 Q1032 NOSIG RMK QBB070",
      "taf": "TAF UAAA 071102Z 0712/0812 VRB01MPS 0600 FZFG VV003 TXM01/0809Z TNM05/0801Z"
    },
    {
      "icao": "UBBB",
      "alert": "OK",
      "vis_m": 8000,
      "fzfg": false,
      "metar_trigger": false,
      "taf_trigger": false,
      "metar": "METAR UBBB 071300Z 34004KT 8000 FEW001 09/06 Q1021 NOSIG",
      "taf": "TAF UBBB 071055Z 0712/0812 VRB04KT 6000 SCT040 TX10/0712Z TN02/0803Z"
    },
    {
      "icao": "UDSG",
      "alert": "OK",
      "vis_m": 6000,
      "fzfg": false,
      "metar_trigger": false,
      "taf_trigger": false,
      "metar": "METAR UDSG 071300Z 00000KT 6000 NSC M05/M11 Q1025 NOSIG",
      "taf": "TAF UDSG 071058Z 0712/0812 VRB06KT 5000 BR FEW040"
    },
    {
      "icao": "UDYZ",
      "alert": "OK",
      "vis_m": 4300,
      "fzfg": false,
      "metar_trigger": false,
      "taf_trigger": false,
      "metar": "METAR UDYZ 071300Z 00000KT 4300 BR NSC M01/M08 Q1028 NOSIG",
      "taf": "TAF UDYZ 071100Z 0712/0812 22006KT 2300 BR NSC"
    },
    {
      "icao": "UGKO",
      "alert": "OK",
      "vis_m": 9999,
      "fzfg": false,
      "metar_trigger": false,
      "taf_trigger": false,
      "metar": "METAR UGKO 071300Z 08008KT CAVOK 15/M01 Q1017 NOSIG",
      "taf": "TAF UGKO 071100Z 0712/0812 09010KT CAVOK TX18/0812Z TN06/0722Z"
    }
  ]
}