{
  "ts_utc": "2026-05-24T08:09:25Z",
  "threshold_m": 150,
  "source": "stations_override.txt (ICAO list) + aviationweather.gov (METAR/TAF raw)",
  "station_count": 159,
  "stations": [
    {
      "icao": "BIKF",
      "alert": "OK",
      "vis_m": 9999,
      "fzfg": false,
      "metar_trigger": false,
      "taf_trigger": false,
      "metar": "METAR BIKF 240800Z 19015KT 9999 FEW018 08/05 Q1005",
      "taf": "TAF BIKF 240749Z 2409/2509 19014KT 9999 -SHRA SCT015 BKN025 TX10/2415Z TN06/2505Z"
    },
    {
      "icao": "BKPR",
      "alert": "OK",
      "vis_m": 8000,
      "fzfg": false,
      "metar_trigger": false,
      "taf_trigger": false,
      "metar": "METAR BKPR 240800Z 24003KT 190V260 8000 -RA SCT035 BKN050 14/13 Q1026 NOSIG",
      "taf": "TAF BKPR 240530Z 2406/2506 01008KT 9999 BKN040"
    },
    {
      "icao": "EBCI",
      "alert": "OK",
      "vis_m": 9999,
      "fzfg": false,
      "metar_trigger": false,
      "taf_trigger": false,
      "metar": "METAR EBCI 240750Z 05006KT CAVOK 22/17 Q1031 NOSIG",
      "taf": "TAF EBCI 240500Z 2406/2512 07005KT CAVOK"
    },
    {
      "icao": "EDDB",
      "alert": "OK",
      "vis_m": 9999,
      "fzfg": false,
      "metar_trigger": false,
      "taf_trigger": false,
      "metar": "METAR EDDB 240750Z AUTO 26006KT 230V290 CAVOK 26/16 Q1026 BECMG 32010KT",
      "taf": "TAF EDDB 240500Z 2406/2506 26004KT CAVOK"
    },
    {
      "icao": "EDDH",
      "alert": "OK",
      "vis_m": 9999,
      "fzfg": false,
      "metar_trigger": false,
      "taf_trigger": false,
      "metar": "METAR EDDH 240750Z AUTO 32005KT 270V020 CAVOK 19/13 Q1030 NOSIG",
      "taf": "TAF EDDH 240500Z 2406/2512 33005KT CAVOK"
    },
    {
      "icao": "EDDK",
      "alert": "OK",
      "vis_m": 9999,
      "fzfg": false,
      "metar_trigger": false,
      "taf_trigger": false,
      "metar": "METAR EDDK 240750Z AUTO VRB02KT CAVOK 22/16 Q1031 NOSIG",
      "taf": "TAF EDDK 240500Z 2406/2512 VRB03KT CAVOK"
    },
    {
      "icao": "EDDN",
      "alert": "OK",
      "vis_m": 9999,
      "fzfg": false,
      "metar_trigger": false,
      "taf_trigger": false,
      "metar": "METAR EDDN 240750Z AUTO 31004KT 270V010 CAVOK 23/14 Q1030 NOSIG",
      "taf": "TAF EDDN 240500Z 2406/2506 VRB03KT CAVOK"
    },
    {
      "icao": "EDDS",
      "alert": "OK",
      "vis_m": 9999,
      "fzfg": false,
      "metar_trigger": false,
      "taf_trigger": false,
      "metar": "METAR EDDS 240750Z AUTO VRB01KT CAVOK 24/15 Q1030 NOSIG",
      "taf": "TAF EDDS 240500Z 2406/2506 VRB02KT CAVOK"
    },
    {
      "icao": "EDFH",
      "alert": "OK",
      "vis_m": 9999,
      "fzfg": false,
      "metar_trigger": false,
      "taf_trigger": false,
      "metar": "METAR EDFH 240750Z 02005KT 330V050 CAVOK 23/14 Q1031",
      "taf": "TAF EDFH 240500Z 2406/2506 01007KT CAVOK"
    },
    {
      "icao": "EDJA",
      "alert": "OK",
      "vis_m": 9999,
      "fzfg": false,
      "metar_trigger": false,
      "taf_trigger": false,
      "metar": "METAR EDJA 240750Z VRB02KT CAVOK 23/12 Q1031",
      "taf": "TAF EDJA 240500Z 2406/2415 VRB03KT CAVOK"
    },
    {
      "icao": "EDLW",
      "alert": "OK",
      "vis_m": 9999,
      "fzfg": false,
      "metar_trigger": false,
      "taf_trigger": false,
      "metar": "METAR EDLW 240750Z VRB02KT CAVOK 21/16 Q1030",
      "taf": "TAF EDLW 240500Z 2406/2506 VRB03KT CAVOK"
    },
    {
      "icao": "EDNY",
      "alert": "OK",
      "vis_m": 9999,
      "fzfg": false,
      "metar_trigger": false,
      "taf_trigger": false,
      "metar": "METAR EDNY 240750Z VRB02KT CAVOK 22/12 Q1030",
      "taf": "TAF EDNY 240500Z 2406/2415 04004KT CAVOK"
    },
    {
      "icao": "EDSB",
      "alert": "OK",
      "vis_m": 9999,
      "fzfg": false,
      "metar_trigger": false,
      "taf_trigger": false,
      "metar": "METAR EDSB 240750Z 01008KT CAVOK 23/16 Q1029",
      "taf": "TAF EDSB 240500Z 2406/2506 02007KT CAVOK"
    },
    {
      "icao": "EETN",
      "alert": "OK",
      "vis_m": 9999,
      "fzfg": false,
      "metar_trigger": false,
      "taf_trigger": false,
      "metar": "METAR EETN 240750Z 27019KT 9999 FEW040 15/09 Q1014 TEMPO 27020G30KT",
      "taf": "TAF EETN 240530Z 2406/2506 26012KT 9999 BKN035"
    },
    {
      "icao": "EFTU",
      "alert": "OK",
      "vis_m": 9999,
      "fzfg": false,
      "metar_trigger": false,
      "taf_trigger": false,
      "metar": "METAR EFTU 240750Z AUTO 31011KT 280V360 9999 BKN030 15/07 Q1014",
      "taf": "TAF EFTU 240537Z 2406/2506 30013KT 9999 FEW035"
    },
    {
      "icao": "EGBB",
      "alert": "OK",
      "vis_m": 9999,
      "fzfg": false,
      "metar_trigger": false,
      "taf_trigger": false,
      "metar": "METAR EGBB 240750Z VRB02KT CAVOK 18/07 Q1031",
      "taf": "TAF EGBB 240456Z 2406/2506 24003KT CAVOK"
    },
    {
      "icao": "EGGP",
      "alert": "OK",
      "vis_m": 9999,
      "fzfg": false,
      "metar_trigger": false,
      "taf_trigger": false,
      "metar": "METAR EGGP 240750Z 12003KT 090V170 CAVOK 16/11 Q1031",
      "taf": "TAF EGGP 240457Z 2406/2506 16003KT CAVOK"
    },
    {
      "icao": "EGGW",
      "alert": "OK",
      "vis_m": 9999,
      "fzfg": false,
      "metar_trigger": false,
      "taf_trigger": false,
      "metar": "METAR EGGW 240750Z AUTO 13003KT 100V160 9999 NCD 21/15 Q1031",
      "taf": "TAF EGGW 240455Z 2406/2506 VRB04KT CAVOK"
    },
    {
      "icao": "EGKK",
      "alert": "OK",
      "vis_m": 9999,
      "fzfg": false,
      "metar_trigger": false,
      "taf_trigger": false,
      "metar": "METAR EGKK 240750Z 34003KT 310V030 CAVOK 20/15 Q1031",
      "taf": "TAF EGKK 240454Z 2406/2512 VRB04KT CAVOK"
    },
    {
      "icao": "EGNM",
      "alert": "OK",
      "vis_m": 9999,
      "fzfg": false,
      "metar_trigger": false,
      "taf_trigger": false,
      "metar": "METAR EGNM 240750Z 25006KT CAVOK 16/09 Q1031",
      "taf": "TAF EGNM 240457Z 2406/2506 26006KT CAVOK"
    },
    {
      "icao": "EGPD",
      "alert": "OK",
      "vis_m": 9999,
      "fzfg": false,
      "metar_trigger": false,
      "taf_trigger": false,
      "metar": "METAR EGPD 240750Z COR AUTO 17006KT 9999 NCD 14/11 Q1026 NOSIG",
      "taf": "TAF EGPD 240456Z 2406/2506 18005KT 9999 FEW040"
    },
    {
      "icao": "EGPF",
      "alert": "OK",
      "vis_m": 9999,
      "fzfg": false,
      "metar_trigger": false,
      "taf_trigger": false,
      "metar": "METAR EGPF 240750Z AUTO 22011KT 9999 NCD 15/11 Q1028",
      "taf": ""
    },
    {
      "icao": "EHBK",
      "alert": "OK",
      "vis_m": 9999,
      "fzfg": false,
      "metar_trigger": false,
      "taf_trigger": false,
      "metar": "METAR EHBK 240755Z AUTO 04003KT 350V070 9999 NSC 22/17 Q1031 NOSIG",
      "taf": "TAF EHBK 240454Z 2406/2512 04005KT CAVOK"
    },
    {
      "icao": "EHEH",
      "alert": "OK",
      "vis_m": 9999,
      "fzfg": false,
      "metar_trigger": false,
      "taf_trigger": false,
      "metar": "METAR EHEH 240755Z AUTO 02003KT 330V100 9999 ////// 21/15 Q1031 BLU NOSIG",
      "taf": "TAF EHEH 240521Z 2406/2512 VRB02KT 4000 BR MIFG NSC"
    },
    {
      "icao": "EKBI",
      "alert": "OK",
      "vis_m": 9999,
      "fzfg": false,
      "metar_trigger": false,
      "taf_trigger": false,
      "metar": "METAR EKBI 240750Z AUTO 28006KT 230V330 9999 FEW022/// 15/10 Q1030",
      "taf": ""
    },
    {
      "icao": "EKCH",
      "alert": "OK",
      "vis_m": 9999,
      "fzfg": false,
      "metar_trigger": false,
      "taf_trigger": false,
      "metar": "METAR EKCH 240750Z AUTO 31011KT 280V350 9999 NCD 17/08 Q1027 NOSIG",
      "taf": "TAF EKCH 240527Z 2406/2506 31012KT CAVOK"
    },
    {
      "icao": "ENAL",
      "alert": "OK",
      "vis_m": 9999,
      "fzfg": false,
      "metar_trigger": false,
      "taf_trigger": false,
      "metar": "METAR ENAL 240750Z 23017KT 9999 -DZRA FEW005 SCT017 BKN020 11/10 Q1020",
      "taf": "TAF ENAL 240500Z 2406/2415 24015KT 9999 -RADZ SCT006 BKN015"
    },
    {
      "icao": "ENBR",
      "alert": "OK",
      "vis_m": 9999,
      "fzfg": false,
      "metar_trigger": false,
      "taf_trigger": false,
      "metar": "METAR ENBR 240750Z 15009KT 9999 FEW010 BKN037 10/09 Q1026 NOSIG RMK WIND 1200FT 17011KT",
      "taf": "TAF ENBR 240500Z 2406/2506 16008KT 9999 FEW008 BKN015"
    },
    {
      "icao": "ENGM",
      "alert": "OK",
      "vis_m": 9999,
      "fzfg": false,
      "metar_trigger": false,
      "taf_trigger": false,
      "metar": "METAR ENGM 240750Z 29007KT 240V340 CAVOK 16/05 Q1022 NOSIG",
      "taf": "TAF ENGM 240500Z 2406/2506 28008KT CAVOK"
    },
    {
      "icao": "ENHD",
      "alert": "OK",
      "vis_m": 9999,
      "fzfg": false,
      "metar_trigger": false,
      "taf_trigger": false,
      "metar": "METAR ENHD 240750Z 16006KT 140V200 9999 BKN044 12/10 Q1027",
      "taf": "TAF ENHD 240500Z 2406/2415 17008KT 9999 FEW025 BKN045"
    },
    {
      "icao": "ENTC",
      "alert": "OK",
      "vis_m": 9999,
      "fzfg": false,
      "metar_trigger": false,
      "taf_trigger": false,
      "metar": "METAR ENTC 240750Z 02010KT 9999 -RA SCT018 BKN023 BKN043 07/05 Q1007 TEMPO BKN014 RMK WIND 2600FT 11009KT",
      "taf": ""
    },
    {
      "icao": "ENTO",
      "alert": "OK",
      "vis_m": 9999,
      "fzfg": false,
      "metar_trigger": false,
      "taf_trigger": false,
      "metar": "METAR ENTO 240750Z 25007KT 220V290 CAVOK 16/06 Q1024 NOSIG",
      "taf": "TAF ENTO 240500Z 2406/2506 26008KT 9999 FEW030"
    },
    {
      "icao": "ENVA",
      "alert": "OK",
      "vis_m": 3900,
      "fzfg": false,
      "metar_trigger": false,
      "taf_trigger": false,
      "metar": "METAR ENVA 240750Z 27006KT 3900 +RA VV018 11/11 Q1019 TEMPO 7000 SHRA RMK WIND 670FT 25004KT",
      "taf": "TAF ENVA 240500Z 2406/2506 27015KT 9999 FEW012 BKN025"
    },
    {
      "icao": "ENZV",
      "alert": "OK",
      "vis_m": 9999,
      "fzfg": false,
      "metar_trigger": false,
      "taf_trigger": false,
      "metar": "METAR ENZV 240750Z 21009KT 9999 OVC048 13/09 Q1028 NOSIG",
      "taf": "TAF ENZV 240500Z 2406/2506 21008KT 9999 FEW025 BKN045"
    },
    {
      "icao": "EPGD",
      "alert": "OK",
      "vis_m": 9999,
      "fzfg": false,
      "metar_trigger": false,
      "taf_trigger": false,
      "metar": "METAR EPGD 240800Z 30014KT 9999 FEW033 21/15 Q1025",
      "taf": "TAF EPGD 240530Z 2406/2506 25005KT CAVOK"
    },
    {
      "icao": "EPKK",
      "alert": "OK",
      "vis_m": 9999,
      "fzfg": false,
      "metar_trigger": false,
      "taf_trigger": false,
      "metar": "METAR EPKK 240800Z 22007KT 9999 FEW028 21/14 Q1027",
      "taf": "TAF EPKK 240530Z 2406/2506 VRB02KT CAVOK"
    },
    {
      "icao": "EPKT",
      "alert": "OK",
      "vis_m": 9999,
      "fzfg": false,
      "metar_trigger": false,
      "taf_trigger": false,
      "metar": "METAR EPKT 240800Z VRB04KT CAVOK 22/12 Q1028",
      "taf": "TAF EPKT 240530Z 2406/2506 VRB02KT CAVOK"
    },
    {
      "icao": "EPLB",
      "alert": "OK",
      "vis_m": 9999,
      "fzfg": false,
      "metar_trigger": false,
      "taf_trigger": false,
      "metar": "METAR EPLB 240800Z 27006KT CAVOK 22/12 Q1026",
      "taf": "TAF EPLB 240530Z 2406/2506 VRB02KT CAVOK"
    },
    {
      "icao": "EPMO",
      "alert": "OK",
      "vis_m": 9999,
      "fzfg": false,
      "metar_trigger": false,
      "taf_trigger": false,
      "metar": "METAR EPMO 240800Z 26009KT 220V300 CAVOK 23/14 Q1026",
      "taf": "TAF EPMO 240530Z 2406/2506 VRB02KT CAVOK"
    },
    {
      "icao": "EPPO",
      "alert": "OK",
      "vis_m": 9999,
      "fzfg": false,
      "metar_trigger": false,
      "taf_trigger": false,
      "metar": "METAR EPPO 240800Z 25007KT 220V290 CAVOK 26/14 Q1026",
      "taf": "TAF EPPO 240530Z 2406/2506 VRB02KT CAVOK"
    },
    {
      "icao": "EPRA",
      "alert": "OK",
      "vis_m": 9999,
      "fzfg": false,
      "metar_trigger": false,
      "taf_trigger": false,
      "metar": "METAR EPRA 240800Z 32007KT 240V360 CAVOK 21/11 Q1027",
      "taf": "TAF EPRA 240530Z 2406/2415 27006KT CAVOK"
    },
    {
      "icao": "EPRZ",
      "alert": "OK",
      "vis_m": 9999,
      "fzfg": false,
      "metar_trigger": false,
      "taf_trigger": false,
      "metar": "METAR EPRZ 240800Z 29007KT 230V350 9999 FEW035 21/11 Q1026",
      "taf": "TAF EPRZ 240530Z 2406/2506 28008KT CAVOK"
    },
    {
      "icao": "EPSC",
      "alert": "OK",
      "vis_m": 9999,
      "fzfg": false,
      "metar_trigger": false,
      "taf_trigger": false,
      "metar": "METAR EPSC 240800Z 36004KT CAVOK 21/16 Q1026",
      "taf": "TAF EPSC 240530Z 2406/2506 VRB03KT CAVOK"
    },
    {
      "icao": "EPSY",
      "alert": "OK",
      "vis_m": 9999,
      "fzfg": false,
      "metar_trigger": false,
      "taf_trigger": false,
      "metar": "METAR EPSY 240800Z 28008KT 250V340 CAVOK 23/12 Q1024",
      "taf": "TAF EPSY 240530Z 2406/2415 28006KT CAVOK"
    },
    {
      "icao": "EPWA",
      "alert": "OK",
      "vis_m": 9999,
      "fzfg": false,
      "metar_trigger": false,
      "taf_trigger": false,
      "metar": "METAR EPWA 240800Z 28008KT 250V340 CAVOK 23/12 Q1026 NOSIG",
      "taf": "TAF EPWA 240530Z 2406/2506 VRB02KT CAVOK"
    },
    {
      "icao": "EPWR",
      "alert": "OK",
      "vis_m": 9999,
      "fzfg": false,
      "metar_trigger": false,
      "taf_trigger": false,
      "metar": "METAR EPWR 240800Z 28003KT 250V340 CAVOK 24/15 Q1027",
      "taf": "TAF EPWR 240530Z 2406/2506 28004KT CAVOK"
    },
    {
      "icao": "ESGG",
      "alert": "OK",
      "vis_m": 9999,
      "fzfg": false,
      "metar_trigger": false,
      "taf_trigger": false,
      "metar": "METAR ESGG 240750Z 26008KT 220V290 CAVOK 15/09 Q1025",
      "taf": "TAF ESGG 240530Z 2406/2506 26006KT CAVOK"
    },
    {
      "icao": "ESKN",
      "alert": "OK",
      "vis_m": 9999,
      "fzfg": false,
      "metar_trigger": false,
      "taf_trigger": false,
      "metar": "METAR ESKN 240750Z 26008KT 240V300 CAVOK 17/10 Q1020",
      "taf": "TAF ESKN 240530Z 2406/2506 27010KT CAVOK"
    },
    {
      "icao": "ESMS",
      "alert": "OK",
      "vis_m": 9999,
      "fzfg": false,
      "metar_trigger": false,
      "taf_trigger": false,
      "metar": "METAR ESMS 240750Z 30015KT CAVOK 16/10 Q1027",
      "taf": "TAF ESMS 240527Z 2406/2506 31012KT CAVOK"
    },
    {
      "icao": "ESSA",
      "alert": "OK",
      "vis_m": 9999,
      "fzfg": false,
      "metar_trigger": false,
      "taf_trigger": false,
      "metar": "METAR ESSA 240750Z 26009KT 230V300 CAVOK 17/09 Q1018 NOSIG",
      "taf": "TAF ESSA 240530Z 2406/2506 28008KT 9999 FEW040"
    },
    {
      "icao": "EYKA",
      "alert": "OK",
      "vis_m": 9999,
      "fzfg": false,
      "metar_trigger": false,
      "taf_trigger": false,
      "metar": "METAR EYKA 240750Z 27010KT 250V310 CAVOK 20/13 Q1021",
      "taf": ""
    },
    {
      "icao": "EYPA",
      "alert": "OK",
      "vis_m": 9999,
      "fzfg": false,
      "metar_trigger": false,
      "taf_trigger": false,
      "metar": "METAR EYPA 240750Z 25004KT 190V300 CAVOK 14/11 Q1022",
      "taf": "TAF EYPA 240500Z 2406/2506 VRB03KT 9000 NSC"
    },
    {
      "icao": "EYVI",
      "alert": "OK",
      "vis_m": 9999,
      "fzfg": false,
      "metar_trigger": false,
      "taf_trigger": false,
      "metar": "METAR EYVI 240750Z 27011KT 240V300 9999 FEW035 20/12 Q1022 NOSIG",
      "taf": ""
    },
    {
      "icao": "GCFV",
      "alert": "OK",
      "vis_m": 9999,
      "fzfg": false,
      "metar_trigger": false,
      "taf_trigger": false,
      "metar": "METAR GCFV 240800Z 15003KT 110V200 CAVOK 21/17 Q1016",
      "taf": "TAF GCFV 240200Z 2403/2503 35006KT 9999 FEW015 TX32/2414Z TN21/2406Z"
    },
    {
      "icao": "GCLP",
      "alert": "OK",
      "vis_m": 9999,
      "fzfg": false,
      "metar_trigger": false,
      "taf_trigger": false,
      "metar": "METAR GCLP 240800Z 35011KT 9999 FEW025 21/16 Q1017 NOSIG",
      "taf": ""
    },
    {
      "icao": "GCTS",
      "alert": "OK",
      "vis_m": 9999,
      "fzfg": false,
      "metar_trigger": false,
      "taf_trigger": false,
      "metar": "METAR GCTS 240800Z VRB01KT 9999 SCT018 21/15 Q1018 NOSIG",
      "taf": "TAF GCTS 240200Z 2403/2503 29005KT 9999 FEW020 TX28/2414Z TN19/2406Z"
    },
    {
      "icao": "GMAD",
      "alert": "OK",
      "vis_m": 9999,
      "fzfg": false,
      "metar_trigger": false,
      "taf_trigger": false,
      "metar": "METAR GMAD 240800Z 00000KT CAVOK 23/17 Q1016 NOSIG",
      "taf": "TAF GMAD 240500Z 2406/2512 02003KT 8000 NSC"
    },
    {
      "icao": "GMMN",
      "alert": "OK",
      "vis_m": 9999,
      "fzfg": false,
      "metar_trigger": false,
      "taf_trigger": false,
      "metar": "METAR GMMN 240800Z 14004KT 100V180 CAVOK 29/15 Q1018 NOSIG",
      "taf": "TAF GMMN 240500Z 2406/2512 09003KT CAVOK"
    },
    {
      "icao": "GMMX",
      "alert": "OK",
      "vis_m": 9999,
      "fzfg": false,
      "metar_trigger": false,
      "taf_trigger": false,
      "metar": "METAR GMMX 240800Z 06004KT 030V110 9999 SCT100 30/11 Q1019 NOSIG",
      "taf": "TAF GMMX 240500Z 2406/2512 08008KT 8000 SCT080"
    },
    {
      "icao": "HEGN",
      "alert": "OK",
      "vis_m": 9999,
      "fzfg": false,
      "metar_trigger": false,
      "taf_trigger": false,
      "metar": "METAR HEGN 240719Z 34003KT CAVOK 26/08 Q1015 NOSIG",
      "taf": "TAF HEGN 240500Z 2406/2512 34015KT CAVOK"
    },
    {
      "icao": "HEMA",
      "alert": "OK",
      "vis_m": 9999,
      "fzfg": false,
      "metar_trigger": false,
      "taf_trigger": false,
      "metar": "METAR HEMA 240719Z 33019KT CAVOK 29/12 Q1014 NOSIG",
      "taf": "TAF HEMA 240500Z 2406/2512 36015KT CAVOK"
    },
    {
      "icao": "HESH",
      "alert": "OK",
      "vis_m": 9999,
      "fzfg": false,
      "metar_trigger": false,
      "taf_trigger": false,
      "metar": "METAR HESH 240719Z 36013KT CAVOK 28/12 Q1015 NOSIG",
      "taf": "TAF HESH 240500Z 2406/2512 36015KT CAVOK"
    },
    {
      "icao": "HESX",
      "alert": "OK",
      "vis_m": 9999,
      "fzfg": false,
      "metar_trigger": false,
      "taf_trigger": false,
      "metar": "METAR HESX 240719Z 34005KT CAVOK 21/11 Q1018 NOSIG",
      "taf": "TAF HESX 240500Z 2406/2512 35010KT 9999 FEW025"
    },
    {
      "icao": "LATI",
      "alert": "OK",
      "vis_m": 9999,
      "fzfg": false,
      "metar_trigger": false,
      "taf_trigger": false,
      "metar": "METAR LATI 240750Z VRB01KT CAVOK 26/13 Q1021 NOSIG",
      "taf": "TAF LATI 232300Z 2400/2424 VRB04KT CAVOK TX31/2411Z TN16/2404Z"
    },
    {
      "icao": "LBPD",
      "alert": "OK",
      "vis_m": 9999,
      "fzfg": false,
      "metar_trigger": false,
      "taf_trigger": false,
      "metar": "METAR LBPD 240800Z AUTO 31009KT 9999 FEW130/// 21/14 Q1023 NOSIG",
      "taf": "TAF LBPD 240500Z 2406/2506 29010KT 9999 SCT035 BKN050"
    },
    {
      "icao": "LBSF",
      "alert": "OK",
      "vis_m": 9999,
      "fzfg": false,
      "metar_trigger": false,
      "taf_trigger": false,
      "metar": "METAR LBSF 240800Z 28005KT 250V330 9999 -RA FEW038 SCT056 BKN074 16/13 Q1025 TEMPO 5000 RA",
      "taf": "TAF LBSF 240500Z 2406/2506 01010KT 9999 SCT040 BKN060"
    },
    {
      "icao": "LBWN",
      "alert": "OK",
      "vis_m": 9999,
      "fzfg": false,
      "metar_trigger": false,
      "taf_trigger": false,
      "metar": "METAR LBWN 240800Z 33012KT 9999 FEW036 19/13 Q1020 TEMPO 5000 SHRA FEW035TCU",
      "taf": "TAF LBWN 240500Z 2406/2506 33010KT 9999 SCT040"
    },
    {
      "icao": "LCLK",
      "alert": "OK",
      "vis_m": 9999,
      "fzfg": false,
      "metar_trigger": false,
      "taf_trigger": false,
      "metar": "METAR LCLK 240800Z 21016KT 180V240 9999 FEW020 FEW030TCU 25/19 Q1015 NOSIG",
      "taf": "TAF LCLK 240530Z 2406/2506 22009KT 9999 FEW020"
    },
    {
      "icao": "LCPH",
      "alert": "OK",
      "vis_m": 9999,
      "fzfg": false,
      "metar_trigger": false,
      "taf_trigger": false,
      "metar": "METAR LCPH 240800Z 27011KT 250V320 9999 SCT014 22/18 Q1016 NOSIG",
      "taf": "TAF LCPH 240530Z 2406/2506 08007KT 9999 SCT015"
    },
    {
      "icao": "LEAL",
      "alert": "OK",
      "vis_m": 9999,
      "fzfg": false,
      "metar_trigger": false,
      "taf_trigger": false,
      "metar": "METAR LEAL 240800Z 07003KT 030V130 CAVOK 26/10 Q1025 NOSIG",
      "taf": "TAF LEAL 240500Z 2406/2506 VRB04KT CAVOK TX28/2412Z TN16/2406Z"
    },
    {
      "icao": "LEBB",
      "alert": "OK",
      "vis_m": 9999,
      "fzfg": false,
      "metar_trigger": false,
      "taf_trigger": false,
      "metar": "METAR LEBB 240800Z VRB02KT CAVOK 24/17 Q1024 NOSIG",
      "taf": "TAF LEBB 240500Z 2406/2506 09007KT CAVOK TX32/2413Z TN18/2406Z"
    },
    {
      "icao": "LEBL",
      "alert": "OK",
      "vis_m": 9999,
      "fzfg": false,
      "metar_trigger": false,
      "taf_trigger": false,
      "metar": "METAR LEBL 240800Z 30005KT 250V340 CAVOK 25/16 Q1026 NOSIG",
      "taf": "TAF LEBL 240500Z 2406/2506 33007KT 9999 FEW015 TX26/2412Z TN18/2505Z"
    },
    {
      "icao": "LECH",
      "alert": "OK",
      "vis_m": 9999,
      "fzfg": false,
      "metar_trigger": false,
      "taf_trigger": false,
      "metar": "METAR LECH 240800Z AUTO 21003KT 140V280 CAVOK 22/11 Q1027",
      "taf": "TAF LECH 240500Z 2406/2506 VRB03KT 9999 FEW020 TX30/2412Z TN15/2406Z"
    },
    {
      "icao": "LEMD",
      "alert": "OK",
      "vis_m": 9999,
      "fzfg": false,
      "metar_trigger": false,
      "taf_trigger": false,
      "metar": "METAR LEMD 240800Z 36005KT 330V030 CAVOK 19/08 Q1027 NOSIG",
      "taf": "TAF LEMD 240500Z 2406/2512 VRB04KT CAVOK TX33/2416Z TN15/2505Z"
    },
    {
      "icao": "LEMG",
      "alert": "OK",
      "vis_m": 9999,
      "fzfg": false,
      "metar_trigger": false,
      "taf_trigger": false,
      "metar": "METAR LEMG 240800Z 30004KT 250V340 CAVOK 22/09 Q1024 NOSIG",
      "taf": "TAF LEMG 240500Z 2406/2506 29006KT CAVOK TX28/2414Z TN16/2406Z"
    },
    {
      "icao": "LEVC",
      "alert": "OK",
      "vis_m": 9999,
      "fzfg": false,
      "metar_trigger": false,
      "taf_trigger": false,
      "metar": "METAR LEVC 240800Z 36002KT CAVOK 23/10 Q1026 NOSIG",
      "taf": "TAF LEVC 240500Z 2406/2506 VRB03KT CAVOK TX30/2414Z TN16/2406Z"
    },
    {
      "icao": "LEXJ",
      "alert": "OK",
      "vis_m": 9999,
      "fzfg": false,
      "metar_trigger": false,
      "taf_trigger": false,
      "metar": "METAR LEXJ 240800Z 10001KT CAVOK 21/17 Q1024",
      "taf": "TAF LEXJ 240200Z 2403/2503 VRB03KT 7000 NCD TX27/2416Z TN16/2405Z"
    },
    {
      "icao": "LEZG",
      "alert": "OK",
      "vis_m": 9999,
      "fzfg": false,
      "metar_trigger": false,
      "taf_trigger": false,
      "metar": "METAR LEZG 240800Z 06003KT 360V100 CAVOK 23/13 Q1026 NOSIG",
      "taf": "TAF LEZG 240500Z 2406/2506 VRB04KT CAVOK TX34/2415Z TN19/2406Z"
    },
    {
      "icao": "LEZL",
      "alert": "OK",
      "vis_m": 9999,
      "fzfg": false,
      "metar_trigger": false,
      "taf_trigger": false,
      "metar": "METAR LEZL 240800Z 06008KT 020V140 CAVOK 27/07 Q1020 NOSIG",
      "taf": "TAF LEZL 240200Z 2403/2503 06006KT CAVOK TX37/2415Z TN20/2406Z"
    },
    {
      "icao": "LFBD",
      "alert": "OK",
      "vis_m": 9999,
      "fzfg": false,
      "metar_trigger": false,
      "taf_trigger": false,
      "metar": "METAR LFBD 240800Z AUTO 11005KT 070V140 CAVOK 26/16 Q1025 NOSIG",
      "taf": "TAF LFBD 240500Z 2406/2512 08005KT CAVOK TX35/2415Z TN19/2406Z"
    },
    {
      "icao": "LFLL",
      "alert": "OK",
      "vis_m": 9999,
      "fzfg": false,
      "metar_trigger": false,
      "taf_trigger": false,
      "metar": "METAR LFLL 240800Z VRB02KT CAVOK 23/14 Q1028 NOSIG",
      "taf": "TAF LFLL 240500Z 2406/2512 VRB02KT CAVOK"
    },
    {
      "icao": "LFLS",
      "alert": "OK",
      "vis_m": 9999,
      "fzfg": false,
      "metar_trigger": false,
      "taf_trigger": false,
      "metar": "METAR LFLS 240800Z AUTO 11004KT 070V150 CAVOK 23/16 Q1028 NOSIG",
      "taf": "TAF LFLS 240200Z 2403/2503 09006KT CAVOK"
    },
    {
      "icao": "LFMN",
      "alert": "OK",
      "vis_m": 9999,
      "fzfg": false,
      "metar_trigger": false,
      "taf_trigger": false,
      "metar": "METAR LFMN 240800Z VRB02KT CAVOK 28/13 Q1026 NOSIG",
      "taf": "TAF LFMN 240200Z 2403/2509 06005KT CAVOK"
    },
    {
      "icao": "LFOB",
      "alert": "OK",
      "vis_m": 9999,
      "fzfg": false,
      "metar_trigger": false,
      "taf_trigger": false,
      "metar": "METAR LFOB 240800Z AUTO VRB03KT CAVOK 25/20 Q1030 NOSIG",
      "taf": "TAF LFOB 240500Z 2406/2506 05005KT CAVOK"
    },
    {
      "icao": "LFPO",
      "alert": "OK",
      "vis_m": 9999,
      "fzfg": false,
      "metar_trigger": false,
      "taf_trigger": false,
      "metar": "METAR LFPO 240800Z 06005KT 030V090 CAVOK 25/17 Q1029 NOSIG",
      "taf": "TAF LFPO 240500Z 2406/2512 02005KT CAVOK"
    },
    {
      "icao": "LFSB",
      "alert": "OK",
      "vis_m": 9999,
      "fzfg": false,
      "metar_trigger": false,
      "taf_trigger": false,
      "metar": "METAR LFSB 240800Z AUTO VRB01KT CAVOK 24/15 Q1029 NOSIG",
      "taf": "TAF LFSB 240500Z 2406/2506 VRB03KT CAVOK"
    },
    {
      "icao": "LGAV",
      "alert": "OK",
      "vis_m": 9999,
      "fzfg": false,
      "metar_trigger": false,
      "taf_trigger": false,
      "metar": "METAR LGAV 240750Z 04014KT 9999 SCT020 23/13 Q1020 NOSIG",
      "taf": "TAF LGAV 240500Z 2406/2506 03012KT 9999 FEW020 SCT070"
    },
    {
      "icao": "LGTS",
      "alert": "OK",
      "vis_m": 9999,
      "fzfg": false,
      "metar_trigger": false,
      "taf_trigger": false,
      "metar": "METAR LGTS 240750Z 25006KT 9999 FEW025 22/15 Q1021 NOSIG",
      "taf": "TAF LGTS 240500Z 2406/2506 VRB03KT 9999 FEW025"
    },
    {
      "icao": "LHBP",
      "alert": "OK",
      "vis_m": 9999,
      "fzfg": false,
      "metar_trigger": false,
      "taf_trigger": false,
      "metar": "METAR LHBP 240800Z 36007KT 320V070 CAVOK 24/10 Q1027 NOSIG",
      "taf": "TAF LHBP 240515Z 2406/2506 02009KT CAVOK"
    },
    {
      "icao": "LHDC",
      "alert": "OK",
      "vis_m": 9999,
      "fzfg": false,
      "metar_trigger": false,
      "taf_trigger": false,
      "metar": "METAR LHDC 240745Z AUTO 04012KT 360V070 CAVOK 23/07 Q1025 NOSIG",
      "taf": "TAF LHDC 240515Z 2406/2415 03012KT CAVOK"
    },
    {
      "icao": "LIBD",
      "alert": "OK",
      "vis_m": 9999,
      "fzfg": false,
      "metar_trigger": false,
      "taf_trigger": false,
      "metar": "METAR LIBD 240750Z 31009KT 280V360 CAVOK 24/12 Q1023",
      "taf": "TAF LIBD 240500Z 2406/2506 28010KT 9999 FEW020"
    },
    {
      "icao": "LIBG",
      "alert": "OK",
      "vis_m": 9999,
      "fzfg": false,
      "metar_trigger": false,
      "taf_trigger": false,
      "metar": "METAR LIBG 240750Z AUTO 02014KT 9999 NCD 27/12 Q1022",
      "taf": "TAF LIBG 240500Z 2406/2506 36013KT CAVOK"
    },
    {
      "icao": "LIBP",
      "alert": "OK",
      "vis_m": 9999,
      "fzfg": false,
      "metar_trigger": false,
      "taf_trigger": false,
      "metar": "METAR LIBP 240750Z AUTO 01007KT 340V040 9999 NCD 25/11 Q1026",
      "taf": "TAF LIBP 240500Z 2406/2506 27005KT CAVOK"
    },
    {
      "icao": "LIBR",
      "alert": "OK",
      "vis_m": 9999,
      "fzfg": false,
      "metar_trigger": false,
      "taf_trigger": false,
      "metar": "METAR LIBR 240750Z 32019KT CAVOK 21/17 Q1022",
      "taf": "TAF LIBR 240500Z 2406/2506 33018KT CAVOK"
    },
    {
      "icao": "LICA",
      "alert": "OK",
      "vis_m": 9999,
      "fzfg": false,
      "metar_trigger": false,
      "taf_trigger": false,
      "metar": "METAR LICA 240750Z AUTO 23007KT 190V260 9999 NCD 22/17 Q1023",
      "taf": "TAF LICA 240500Z 2406/2506 VRB05KT 9999 SCT060"
    },
    {
      "icao": "LICC",
      "alert": "OK",
      "vis_m": 9999,
      "fzfg": false,
      "metar_trigger": false,
      "taf_trigger": false,
      "metar": "METAR LICC 240750Z 25007KT 9999 FEW090 24/17 Q1022",
      "taf": "TAF LICC 240500Z 2406/2506 VRB05KT 9999 FEW050"
    },
    {
      "icao": "LICJ",
      "alert": "OK",
      "vis_m": 9999,
      "fzfg": false,
      "metar_trigger": false,
      "taf_trigger": false,
      "metar": "METAR LICJ 240750Z 31004KT CAVOK 21/17 Q1023",
      "taf": "TAF LICJ 240500Z 2406/2506 VRB05KT CAVOK"
    },
    {
      "icao": "LIMC",
      "alert": "OK",
      "vis_m": 9999,
      "fzfg": false,
      "metar_trigger": false,
      "taf_trigger": false,
      "metar": "METAR LIMC 240750Z VRB02KT CAVOK 25/15 Q1028 NOSIG",
      "taf": "TAF LIMC 240500Z 2406/2512 VRB05KT CAVOK"
    },
    {
      "icao": "LIME",
      "alert": "OK",
      "vis_m": 9999,
      "fzfg": false,
      "metar_trigger": false,
      "taf_trigger": false,
      "metar": "METAR LIME 240750Z VRB02KT CAVOK 25/14 Q1028 NOSIG",
      "taf": "TAF LIME 240500Z 2406/2506 VRB05KT CAVOK"
    },
    {
      "icao": "LIMF",
      "alert": "OK",
      "vis_m": 9999,
      "fzfg": false,
      "metar_trigger": false,
      "taf_trigger": false,
      "metar": "METAR LIMF 240750Z 10003KT 040V170 CAVOK 25/16 Q1028",
      "taf": "TAF LIMF 240500Z 2406/2506 VRB04KT CAVOK"
    },
    {
      "icao": "LIMJ",
      "alert": "OK",
      "vis_m": 9999,
      "fzfg": false,
      "metar_trigger": false,
      "taf_trigger": false,
      "metar": "METAR LIMJ 240750Z AUTO 23006KT 190V270 9999 NCD 23/18 Q1026",
      "taf": "TAF LIMJ 240500Z 2406/2506 VRB05KT CAVOK"
    },
    {
      "icao": "LIPE",
      "alert": "OK",
      "vis_m": 9999,
      "fzfg": false,
      "metar_trigger": false,
      "taf_trigger": false,
      "metar": "METAR LIPE 240750Z VRB02KT CAVOK 24/13 Q1027",
      "taf": "TAF LIPE 240500Z 2406/2506 VRB05KT CAVOK"
    },
    {
      "icao": "LIPH",
      "alert": "OK",
      "vis_m": 9999,
      "fzfg": false,
      "metar_trigger": false,
      "taf_trigger": false,
      "metar": "METAR LIPH 240750Z 05003KT 350V090 CAVOK 26/14 Q1027",
      "taf": "TAF LIPH 240500Z 2406/2506 VRB05KT CAVOK"
    },
    {
      "icao": "LIPQ",
      "alert": "OK",
      "vis_m": 9999,
      "fzfg": false,
      "metar_trigger": false,
      "taf_trigger": false,
      "metar": "METAR LIPQ 240750Z AUTO VRB02KT 9999 NCD 26/14 Q1027",
      "taf": "TAF LIPQ 240500Z 2406/2506 VRB05KT CAVOK"
    },
    {
      "icao": "LIPR",
      "alert": "OK",
      "vis_m": 9999,
      "fzfg": false,
      "metar_trigger": false,
      "taf_trigger": false,
      "metar": "METAR LIPR 240750Z 33009KT CAVOK 24/12 Q1027",
      "taf": "TAF LIPR 240500Z 2406/2506 VRB05KT CAVOK"
    },
    {
      "icao": "LIPX",
      "alert": "OK",
      "vis_m": 9999,
      "fzfg": false,
      "metar_trigger": false,
      "taf_trigger": false,
      "metar": "METAR LIPX 240750Z VRB02KT CAVOK 26/15 Q1027",
      "taf": "TAF LIPX 240500Z 2406/2506 VRB05KT 9999 FEW050"
    },
    {
      "icao": "LIPY",
      "alert": "OK",
      "vis_m": 9999,
      "fzfg": false,
      "metar_trigger": false,
      "taf_trigger": false,
      "metar": "METAR LIPY 240750Z AUTO 34010KT 9999 NCD 23/16 Q1026",
      "taf": "TAF LIPY 240500Z 2406/2506 VRB04KT CAVOK"
    },
    {
      "icao": "LIPZ",
      "alert": "OK",
      "vis_m": 9999,
      "fzfg": false,
      "metar_trigger": false,
      "taf_trigger": false,
      "metar": "METAR LIPZ 240750Z 09004KT 040V120 CAVOK 25/15 Q1027 NOSIG",
      "taf": "TAF LIPZ 240500Z 2406/2512 VRB04KT CAVOK"
    },
    {
      "icao": "LIRF",
      "alert": "OK",
      "vis_m": 9999,
      "fzfg": false,
      "metar_trigger": false,
      "taf_trigger": false,
      "metar": "METAR LIRF 240750Z 07005KT 020V110 CAVOK 26/11 Q1024 NOSIG",
      "taf": "TAF LIRF 240500Z 2406/2512 04006KT CAVOK"
    },
    {
      "icao": "LIRN",
      "alert": "OK",
      "vis_m": 9999,
      "fzfg": false,
      "metar_trigger": false,
      "taf_trigger": false,
      "metar": "METAR LIRN 240750Z 05008KT 020V080 CAVOK 26/10 Q1023 NOSIG",
      "taf": "TAF LIRN 240500Z 2406/2506 03008KT CAVOK"
    },
    {
      "icao": "LIRP",
      "alert": "OK",
      "vis_m": 9999,
      "fzfg": false,
      "metar_trigger": false,
      "taf_trigger": false,
      "metar": "METAR LIRP 240745Z 17004KT CAVOK 24/15 Q1026 NOSIG",
      "taf": "TAF LIRP 240500Z 2406/2506 VRB03KT CAVOK"
    },
    {
      "icao": "LIRZ",
      "alert": "OK",
      "vis_m": 9999,
      "fzfg": false,
      "metar_trigger": false,
      "taf_trigger": false,
      "metar": "METAR LIRZ 240750Z AUTO 04010KT 9999 NCD 23/13 Q1026",
      "taf": "TAF LIRZ 240500Z 2406/2506 04005KT CAVOK"
    },
    {
      "icao": "LJLJ",
      "alert": "OK",
      "vis_m": 9999,
      "fzfg": false,
      "metar_trigger": false,
      "taf_trigger": false,
      "metar": "METAR LJLJ 240800Z 10003KT 060V140 9999 FEW070 SCT250 22/15 Q1028 NOSIG",
      "taf": "TAF LJLJ 232300Z 2400/2500 VRB02KT 9999 FEW065"
    },
    {
      "icao": "LKMT",
      "alert": "OK",
      "vis_m": 9999,
      "fzfg": false,
      "metar_trigger": false,
      "taf_trigger": false,
      "metar": "METAR LKMT 240800Z 27003KT 230V320 9999 FEW033 22/14 Q1028 NOSIG",
      "taf": "TAF LKMT 240500Z 2406/2506 20003KT CAVOK"
    },
    {
      "icao": "LKPR",
      "alert": "OK",
      "vis_m": 9999,
      "fzfg": false,
      "metar_trigger": false,
      "taf_trigger": false,
      "metar": "METAR LKPR 240800Z VRB03KT CAVOK 24/14 Q1029 NOSIG",
      "taf": "TAF LKPR 240500Z 2406/2512 VRB02KT CAVOK"
    },
    {
      "icao": "LLBG",
      "alert": "OK",
      "vis_m": 9999,
      "fzfg": false,
      "metar_trigger": false,
      "taf_trigger": false,
      "metar": "METAR LLBG 240750Z 29006KT 240V350 9999 SCT030 25/15 Q1017 NOSIG",
      "taf": "TAF LLBG 240503Z 2406/2506 15005KT 9999 FEW020 TX26/2412Z TN17/2504Z"
    },
    {
      "icao": "LMML",
      "alert": "OK",
      "vis_m": 9999,
      "fzfg": false,
      "metar_trigger": false,
      "taf_trigger": false,
      "metar": "METAR LMML 240745Z 04006KT 330V080 CAVOK 25/11 Q1023 NOSIG",
      "taf": "TAF LMML 240500Z 2406/2506 VRB05KT CAVOK"
    },
    {
      "icao": "LOWW",
      "alert": "OK",
      "vis_m": 9999,
      "fzfg": false,
      "metar_trigger": false,
      "taf_trigger": false,
      "metar": "METAR LOWW 240750Z 01005KT 340V050 CAVOK 23/14 Q1029 BECMG 34010KT",
      "taf": "TAF LOWW 240515Z 2406/2512 30003KT CAVOK TX29/2414Z TN18/2503Z"
    },
    {
      "icao": "LPFR",
      "alert": "OK",
      "vis_m": 9999,
      "fzfg": false,
      "metar_trigger": false,
      "taf_trigger": false,
      "metar": "METAR LPFR 240800Z 08010G20KT 050V110 CAVOK 24/11 Q1020",
      "taf": "TAF LPFR 240500Z 2406/2506 08010KT CAVOK"
    },
    {
      "icao": "LPMA",
      "alert": "OK",
      "vis_m": 9999,
      "fzfg": false,
      "metar_trigger": false,
      "taf_trigger": false,
      "metar": "METAR LPMA 240800Z 02015KT 340V060 9999 FEW015 18/14 Q1021",
      "taf": "TAF LPMA 240500Z 2406/2506 01017KT 9999 SCT015"
    },
    {
      "icao": "LPPR",
      "alert": "OK",
      "vis_m": 4000,
      "fzfg": false,
      "metar_trigger": false,
      "taf_trigger": false,
      "metar": "METAR LPPR 240800Z 19008KT 4000 BR SCT002 17/16 Q1020",
      "taf": "TAF LPPR 240500Z 2406/2506 VRB02KT 9999 FEW040"
    },
    {
      "icao": "LPPS",
      "alert": "OK",
      "vis_m": 9999,
      "fzfg": false,
      "metar_trigger": false,
      "taf_trigger": false,
      "metar": "METAR LPPS 240800Z 05007KT 360V090 9999 SCT014 BKN030 18/14 Q1021",
      "taf": "TAF LPPS 240500Z 2406/2512 03015KT 9999 SCT013 BKN030"
    },
    {
      "icao": "LPPT",
      "alert": "OK",
      "vis_m": 9999,
      "fzfg": false,
      "metar_trigger": false,
      "taf_trigger": false,
      "metar": "METAR LPPT 240800Z 33004KT 270V010 9999 FEW005 18/15 Q1021",
      "taf": "TAF LPPT 240500Z 2406/2512 32008KT 9999 FEW012"
    },
    {
      "icao": "LQBK",
      "alert": "OK",
      "vis_m": 9999,
      "fzfg": false,
      "metar_trigger": false,
      "taf_trigger": false,
      "metar": "METAR LQBK 240800Z VRB02KT CAVOK 22/13 Q1027 NOSIG",
      "taf": "TAF LQBK 232300Z 2400/2424 16006KT CAVOK TX26/2413Z TN11/2404Z"
    },
    {
      "icao": "LQSA",
      "alert": "OK",
      "vis_m": 9999,
      "fzfg": false,
      "metar_trigger": false,
      "taf_trigger": false,
      "metar": "METAR LQSA 240800Z VRB02KT 9999 SCT060 19/11 Q1027 NOSIG",
      "taf": "TAF LQSA 240500Z 2406/2506 VRB02KT 9999 SCT060 TX26/2414Z TN09/2504Z"
    },
    {
      "icao": "LQTZ",
      "alert": "OK",
      "vis_m": 9999,
      "fzfg": false,
      "metar_trigger": false,
      "taf_trigger": false,
      "metar": "METAR LQTZ 240800Z 31006KT 260V330 CAVOK 20/13 Q1027",
      "taf": "TAF LQTZ 232300Z 2400/2424 29005KT CAVOK TX25/2413Z TN10/2404Z"
    },
    {
      "icao": "LRBC",
      "alert": "OK",
      "vis_m": 9999,
      "fzfg": false,
      "metar_trigger": false,
      "taf_trigger": false,
      "metar": "METAR LRBC 240800Z 35012KT 9999 FEW035 22/10 Q1024",
      "taf": "TAF LRBC 240500Z 2406/2415 VRB04KT CAVOK"
    },
    {
      "icao": "LRBS",
      "alert": "OK",
      "vis_m": 9999,
      "fzfg": false,
      "metar_trigger": false,
      "taf_trigger": false,
      "metar": "METAR LRBS 240800Z 03007KT 350V080 CAVOK 23/11 Q1023 NOSIG",
      "taf": "TAF LRBS 240500Z 2406/2506 34008KT 9999 SCT045"
    },
    {
      "icao": "LRBV",
      "alert": "OK",
      "vis_m": 9999,
      "fzfg": false,
      "metar_trigger": false,
      "taf_trigger": false,
      "metar": "METAR LRBV 240800Z 01003KT CAVOK 19/08 Q1025",
      "taf": "TAF LRBV 240500Z 2406/2415 VRB04KT CAVOK"
    },
    {
      "icao": "LRCL",
      "alert": "OK",
      "vis_m": 9999,
      "fzfg": false,
      "metar_trigger": false,
      "taf_trigger": false,
      "metar": "METAR LRCL 240800Z 05004KT 010V080 CAVOK 22/10 Q1025",
      "taf": "TAF LRCL 240500Z 2406/2415 VRB04KT 9999 SCT055"
    },
    {
      "icao": "LRCV",
      "alert": "OK",
      "vis_m": 9999,
      "fzfg": false,
      "metar_trigger": false,
      "taf_trigger": false,
      "metar": "METAR LRCV 240800Z 25005KT 190V310 CAVOK 21/15 Q1024",
      "taf": "TAF LRCV 240500Z 2406/2415 VRB04KT 9999 SCT045"
    },
    {
      "icao": "LRIA",
      "alert": "OK",
      "vis_m": 9999,
      "fzfg": false,
      "metar_trigger": false,
      "taf_trigger": false,
      "metar": "METAR LRIA 240800Z 29004KT 220V030 CAVOK 21/11 Q1024",
      "taf": "TAF LRIA 240500Z 2406/2415 28007KT CAVOK"
    },
    {
      "icao": "LROP",
      "alert": "OK",
      "vis_m": 9999,
      "fzfg": false,
      "metar_trigger": false,
      "taf_trigger": false,
      "metar": "METAR LROP 240800Z 04007KT 360V070 CAVOK 23/09 Q1023 NOSIG",
      "taf": "TAF LROP 240500Z 2406/2506 34008KT 9999 SCT045"
    },
    {
      "icao": "LRSB",
      "alert": "OK",
      "vis_m": 9999,
      "fzfg": false,
      "metar_trigger": false,
      "taf_trigger": false,
      "metar": "METAR LRSB 240800Z 13007KT 090V170 CAVOK 22/11 Q1025 NOSIG",
      "taf": "TAF LRSB 240500Z 2406/2506 VRB04KT 9999 SCT050"
    },
    {
      "icao": "LRSM",
      "alert": "OK",
      "vis_m": 9999,
      "fzfg": false,
      "metar_trigger": false,
      "taf_trigger": false,
      "metar": "METAR LRSM 240800Z AUTO 05005KT 320V120 9999 NCD 23/08 Q1025",
      "taf": ""
    },
    {
      "icao": "LRSV",
      "alert": "OK",
      "vis_m": 9999,
      "fzfg": false,
      "metar_trigger": false,
      "taf_trigger": false,
      "metar": "METAR LRSV 240800Z 33007KT 300V010 CAVOK 20/08 Q1025",
      "taf": "TAF LRSV 240500Z 2406/2415 31010KT CAVOK"
    },
    {
      "icao": "LRTM",
      "alert": "OK",
      "vis_m": 9999,
      "fzfg": false,
      "metar_trigger": false,
      "taf_trigger": false,
      "metar": "METAR LRTM 240800Z 07005KT 020V110 CAVOK 22/11 Q1025",
      "taf": "TAF LRTM 240500Z 2406/2415 VRB04KT CAVOK"
    },
    {
      "icao": "LRTR",
      "alert": "OK",
      "vis_m": 9999,
      "fzfg": false,
      "metar_trigger": false,
      "taf_trigger": false,
      "metar": "METAR LRTR 240800Z 36006KT 330V030 CAVOK 22/11 Q1024",
      "taf": "TAF LRTR 240500Z 2406/2506 36010KT CAVOK"
    },
    {
      "icao": "LTAC",
      "alert": "OK",
      "vis_m": 9999,
      "fzfg": false,
      "metar_trigger": false,
      "taf_trigger": false,
      "metar": "SPECI LTAC 240803Z VRB03KT 9999 SCT035TCU BKN100 18/09 Q1016 NOSIG",
      "taf": "TAF LTAC 240440Z 2406/2506 VRB02KT 9999 SCT035 BKN090"
    },
    {
      "icao": "LTFM",
      "alert": "OK",
      "vis_m": 9999,
      "fzfg": false,
      "metar_trigger": false,
      "taf_trigger": false,
      "metar": "METAR LTFM 240750Z 35016KT 9999 SCT009 BKN022 18/15 Q1019 NOSIG RMK RWY17L 35012KT RWY34L 35016KT RWY16R 35013KT RWY36 35016KT RWY18 35014KT",
      "taf": "TAF LTFM 240440Z 2406/2512 35014KT 9999 BKN007 BKN022"
    },
    {
      "icao": "LUKK",
      "alert": "OK",
      "vis_m": 9999,
      "fzfg": false,
      "metar_trigger": false,
      "taf_trigger": false,
      "metar": "METAR LUKK 240800Z 04016KT 9999 FEW049 22/10 Q1023 TEMPO 02016G26KT",
      "taf": "TAF LUKK 240510Z 2406/2506 36010KT CAVOK"
    },
    {
      "icao": "LWOH",
      "alert": "OK",
      "vis_m": 9999,
      "fzfg": false,
      "metar_trigger": false,
      "taf_trigger": false,
      "metar": "METAR LWOH 240750Z 36005KT 320V070 9999 SCT035 20/12 Q1024",
      "taf": "TAF LWOH 240520Z 2406/2506 VRB02KT 9999 SCT060"
    },
    {
      "icao": "LWSK",
      "alert": "OK",
      "vis_m": 9999,
      "fzfg": false,
      "metar_trigger": false,
      "taf_trigger": false,
      "metar": "METAR LWSK 240750Z VRB05KT 9999 FEW035 SCT045 23/15 Q1024 NOSIG",
      "taf": "TAF LWSK 240520Z 2406/2506 VRB02KT 9999 SCT060"
    },
    {
      "icao": "LYBE",
      "alert": "OK",
      "vis_m": 9999,
      "fzfg": false,
      "metar_trigger": false,
      "taf_trigger": false,
      "metar": "METAR LYBE 240800Z 32007KT 280V350 CAVOK 22/11 Q1025 NOSIG",
      "taf": "TAF LYBE 240500Z 2406/2506 28006KT CAVOK TX27/2413Z TN13/2504Z"
    },
    {
      "icao": "LYNI",
      "alert": "OK",
      "vis_m": 9999,
      "fzfg": false,
      "metar_trigger": false,
      "taf_trigger": false,
      "metar": "METAR LYNI 240800Z 16004KT 100V250 9999 FEW013 SCT023 BKN060 19/16 Q1025 NOSIG",
      "taf": "TAF LYNI 240500Z 2406/2506 34008KT 9999 SCT040 TX24/2413Z TN11/2504Z"
    },
    {
      "icao": "LYPG",
      "alert": "OK",
      "vis_m": 9999,
      "fzfg": false,
      "metar_trigger": false,
      "taf_trigger": false,
      "metar": "METAR LYPG 240800Z 36014KT 320V020 CAVOK 27/09 Q1022 NOSIG",
      "taf": "TAF LYPG 240500Z 2406/2506 36010KT 9999 FEW040 SCT080 TX29/2412Z TN20/2504Z"
    },
    {
      "icao": "LZIB",
      "alert": "OK",
      "vis_m": 9999,
      "fzfg": false,
      "metar_trigger": false,
      "taf_trigger": false,
      "metar": "METAR LZIB 240800Z VRB02KT 9999 FEW042 24/13 Q1028 NOSIG",
      "taf": "TAF LZIB 240515Z 2406/2506 VRB02KT CAVOK"
    },
    {
      "icao": "LZKZ",
      "alert": "OK",
      "vis_m": 9999,
      "fzfg": false,
      "metar_trigger": false,
      "taf_trigger": false,
      "metar": "METAR LZKZ 240800Z 36010KT CAVOK 23/12 Q1026 NOSIG",
      "taf": "TAF LZKZ 240515Z 2406/2506 04008KT CAVOK"
    },
    {
      "icao": "LZTT",
      "alert": "OK",
      "vis_m": 9999,
      "fzfg": false,
      "metar_trigger": false,
      "taf_trigger": false,
      "metar": "METAR LZTT 240800Z 29006KT 250V330 CAVOK 20/10 Q1028 NOSIG",
      "taf": "TAF LZTT 240515Z 2406/2506 VRB02KT CAVOK"
    },
    {
      "icao": "OEJN",
      "alert": "OK",
      "vis_m": 9999,
      "fzfg": false,
      "metar_trigger": false,
      "taf_trigger": false,
      "metar": "METAR OEJN 240800Z 33015KT CAVOK 36/17 Q1009 NOSIG",
      "taf": "TAF OEJN 240500Z 2406/2512 34015KT 7000 NSC"
    },
    {
      "icao": "OEMA",
      "alert": "OK",
      "vis_m": 9999,
      "fzfg": false,
      "metar_trigger": false,
      "taf_trigger": false,
      "metar": "METAR OEMA 240800Z 16005KT CAVOK 39/02 Q1016 NOSIG",
      "taf": "TAF OEMA 240500Z 2406/2512 03006KT CAVOK"
    },
    {
      "icao": "OJAI",
      "alert": "OK",
      "vis_m": 5000,
      "fzfg": false,
      "metar_trigger": false,
      "taf_trigger": false,
      "metar": "METAR OJAI 240700Z 26012KT 5000 DU NSC 23/03 Q1020 NOSIG",
      "taf": "TAF OJAI 240500Z 2406/2512 29012KT 6000 NSC"
    },
    {
      "icao": "OMAA",
      "alert": "OK",
      "vis_m": 9999,
      "fzfg": false,
      "metar_trigger": false,
      "taf_trigger": false,
      "metar": "METAR OMAA 240800Z 18006KT 130V220 CAVOK 36/18 Q1007 NOSIG",
      "taf": "TAF OMAA 240500Z 2406/2512 22006KT 8000 NSC"
    },
    {
      "icao": "OMDB",
      "alert": "OK",
      "vis_m": 9999,
      "fzfg": false,
      "metar_trigger": false,
      "taf_trigger": false,
      "metar": "METAR OMDB 240800Z 20006KT 140V250 CAVOK 37/16 Q1007 BECMG 33012KT",
      "taf": "TAF OMDB 240500Z 2406/2512 19008KT 8000 NSC"
    },
    {
      "icao": "UAAA",
      "alert": "OK",
      "vis_m": 9999,
      "fzfg": false,
      "metar_trigger": false,
      "taf_trigger": false,
      "metar": "METAR UAAA 240800Z 35002MPS 270V080 9999 FEW050TCU SCT200 21/08 Q1018 NOSIG",
      "taf": "TAF UAAA 240505Z 2406/2506 04002G07MPS 9999 FEW050 SCT100 TX22/2410Z TN08/2501Z"
    },
    {
      "icao": "UBBB",
      "alert": "OK",
      "vis_m": 9999,
      "fzfg": false,
      "metar_trigger": false,
      "taf_trigger": false,
      "metar": "METAR UBBB 240800Z 16014KT CAVOK 24/16 Q1014 NOSIG",
      "taf": "TAF UBBB 240516Z 2406/2506 17012KT 9999 SCT020 TX24/2410Z TN16/2501Z"
    },
    {
      "icao": "UDSG",
      "alert": "OK",
      "vis_m": 9999,
      "fzfg": false,
      "metar_trigger": false,
      "taf_trigger": false,
      "metar": "METAR UDSG 240800Z 05010KT 9999 -SHRA BKN033CB 09/08 Q1020 NOSIG",
      "taf": "TAF UDSG 240500Z 2406/2506 24006KT 9999 BKN040"
    },
    {
      "icao": "UDYZ",
      "alert": "OK",
      "vis_m": 9999,
      "fzfg": false,
      "metar_trigger": false,
      "taf_trigger": false,
      "metar": "METAR UDYZ 240800Z 03006KT 350V070 9999 SCT043CB 16/12 Q1017 NOSIG",
      "taf": "TAF UDYZ 240500Z 2406/2506 26006KT 9999 SCT040"
    },
    {
      "icao": "UGKO",
      "alert": "OK",
      "vis_m": 9999,
      "fzfg": false,
      "metar_trigger": false,
      "taf_trigger": false,
      "metar": "METAR UGKO 240800Z 29009KT CAVOK 19/15 Q1012 NOSIG",
      "taf": ""
    }
  ]
}