{
  "ts_utc": "2026-03-07T21:58:53Z",
  "threshold_m": 150,
  "source": "stations_override.txt (ICAO list) + aviationweather.gov (METAR/TAF raw)",
  "station_count": 159,
  "stations": [
    {
      "icao": "BIKF",
      "alert": "OK",
      "vis_m": 9999,
      "fzfg": false,
      "metar_trigger": false,
      "taf_trigger": false,
      "metar": "METAR BIKF 072130Z 21022KT 9999 VCSH FEW016CB SCT056 02/M03 Q0997",
      "taf": "TAF BIKF 071948Z 0721/0821 22025G40KT 9999 SCT015 BKN035 TX03/0816Z TNM01/0809Z"
    },
    {
      "icao": "BKPR",
      "alert": "OK",
      "vis_m": null,
      "fzfg": false,
      "metar_trigger": false,
      "taf_trigger": false,
      "metar": "",
      "taf": "TAF BKPR 071730Z 0718/0818 VRB05KT CAVOK"
    },
    {
      "icao": "EBCI",
      "alert": "OK",
      "vis_m": 3000,
      "fzfg": false,
      "metar_trigger": false,
      "taf_trigger": false,
      "metar": "METAR EBCI 072150Z 05007KT 3000 BR NSC 09/08 Q1024 TEMPO 2000 BR",
      "taf": "TAF EBCI 071716Z 0718/0824 05005KT 8000 NSC"
    },
    {
      "icao": "EDDB",
      "alert": "OK",
      "vis_m": 9999,
      "fzfg": false,
      "metar_trigger": false,
      "taf_trigger": false,
      "metar": "METAR EDDB 072150Z AUTO 07002KT CAVOK 07/03 Q1026 NOSIG",
      "taf": "TAF EDDB 071700Z 0718/0818 10005KT CAVOK"
    },
    {
      "icao": "EDDH",
      "alert": "OK",
      "vis_m": 6000,
      "fzfg": false,
      "metar_trigger": false,
      "taf_trigger": false,
      "metar": "METAR EDDH 072150Z AUTO 31003KT 6000 NSC 09/08 Q1026 TEMPO 4000 BR",
      "taf": ""
    },
    {
      "icao": "EDDK",
      "alert": "OK",
      "vis_m": 9999,
      "fzfg": false,
      "metar_trigger": false,
      "taf_trigger": false,
      "metar": "METAR EDDK 072150Z AUTO 14003KT 050V190 CAVOK 07/04 Q1024 NOSIG",
      "taf": "TAF EDDK 071700Z 0718/0824 VRB03KT CAVOK"
    },
    {
      "icao": "EDDN",
      "alert": "OK",
      "vis_m": 9999,
      "fzfg": false,
      "metar_trigger": false,
      "taf_trigger": false,
      "metar": "METAR EDDN 072150Z AUTO 32002KT CAVOK 05/03 Q1024",
      "taf": "TAF EDDN 071700Z 0718/0818 VRB03KT CAVOK"
    },
    {
      "icao": "EDDS",
      "alert": "OK",
      "vis_m": 9999,
      "fzfg": false,
      "metar_trigger": false,
      "taf_trigger": false,
      "metar": "METAR EDDS 072150Z AUTO 35003KT CAVOK 07/01 Q1023",
      "taf": "TAF EDDS 071700Z 0718/0818 03007KT CAVOK"
    },
    {
      "icao": "EDFH",
      "alert": "OK",
      "vis_m": 9999,
      "fzfg": false,
      "metar_trigger": false,
      "taf_trigger": false,
      "metar": "METAR EDFH 072150Z 12002KT CAVOK 09/03 Q1024",
      "taf": "TAF EDFH 071700Z 0718/0818 07005KT CAVOK"
    },
    {
      "icao": "EDJA",
      "alert": "OK",
      "vis_m": 9999,
      "fzfg": false,
      "metar_trigger": false,
      "taf_trigger": false,
      "metar": "METAR EDJA 072150Z 04002KT CAVOK 03/01 Q1023",
      "taf": "TAF EDJA 071700Z 0718/0803 05005KT CAVOK"
    },
    {
      "icao": "EDLW",
      "alert": "OK",
      "vis_m": 9999,
      "fzfg": false,
      "metar_trigger": false,
      "taf_trigger": false,
      "metar": "METAR EDLW 072150Z 08005KT CAVOK 11/05 Q1024",
      "taf": "TAF EDLW 071700Z 0718/0818 VRB03KT CAVOK"
    },
    {
      "icao": "EDNY",
      "alert": "OK",
      "vis_m": 9999,
      "fzfg": false,
      "metar_trigger": false,
      "taf_trigger": false,
      "metar": "METAR EDNY 072150Z AUTO 03003KT 9999 // NCD 06/04 Q1023",
      "taf": "TAF EDNY 071700Z 0718/0803 04003KT CAVOK"
    },
    {
      "icao": "EDSB",
      "alert": "OK",
      "vis_m": 9999,
      "fzfg": false,
      "metar_trigger": false,
      "taf_trigger": false,
      "metar": "METAR EDSB 072150Z VRB01KT CAVOK 08/03 Q1023",
      "taf": "TAF EDSB 071700Z 0718/0818 01005KT CAVOK"
    },
    {
      "icao": "EETN",
      "alert": "OK",
      "vis_m": 9999,
      "fzfg": false,
      "metar_trigger": false,
      "taf_trigger": false,
      "metar": "METAR EETN 072150Z 26002KT CAVOK M03/M03 Q1030 NOSIG",
      "taf": "TAF EETN 071730Z 0718/0818 26005KT CAVOK"
    },
    {
      "icao": "EFTU",
      "alert": "OK",
      "vis_m": 9999,
      "fzfg": false,
      "metar_trigger": false,
      "taf_trigger": false,
      "metar": "METAR EFTU 072150Z AUTO 28002KT CAVOK M03/M03 Q1031",
      "taf": "TAF EFTU 072028Z 0721/0821 31003KT CAVOK"
    },
    {
      "icao": "EGBB",
      "alert": "OK",
      "vis_m": 2500,
      "fzfg": false,
      "metar_trigger": false,
      "taf_trigger": false,
      "metar": "METAR EGBB 072150Z 13003KT 2500 BR OVC003 07/07 Q1026",
      "taf": ""
    },
    {
      "icao": "EGGP",
      "alert": "OK",
      "vis_m": 9999,
      "fzfg": false,
      "metar_trigger": false,
      "taf_trigger": false,
      "metar": "METAR EGGP 072150Z 12003KT 9999 SCT016 BKN037 07/05 Q1025",
      "taf": "TAF EGGP 071659Z 0718/0818 16008KT 9999 SCT020"
    },
    {
      "icao": "EGGW",
      "alert": "OK",
      "vis_m": 3300,
      "fzfg": false,
      "metar_trigger": false,
      "taf_trigger": false,
      "metar": "METAR EGGW 072150Z AUTO 14003KT 110V170 3300 BR OVC002 07/07 Q1025",
      "taf": ""
    },
    {
      "icao": "EGKK",
      "alert": "OK",
      "vis_m": 5000,
      "fzfg": false,
      "metar_trigger": false,
      "taf_trigger": false,
      "metar": "METAR EGKK 072150Z 06007KT 020V080 5000 BR OVC003 08/08 Q1025",
      "taf": ""
    },
    {
      "icao": "EGNM",
      "alert": "OK",
      "vis_m": 9999,
      "fzfg": false,
      "metar_trigger": false,
      "taf_trigger": false,
      "metar": "METAR EGNM 072150Z 14004KT 9999 SCT009 BKN018 06/04 Q1025",
      "taf": ""
    },
    {
      "icao": "EGPD",
      "alert": "OK",
      "vis_m": 9999,
      "fzfg": false,
      "metar_trigger": false,
      "taf_trigger": false,
      "metar": "METAR EGPD 072150Z COR AUTO 18003KT 9999 NCD 02/00 Q1023 NOSIG",
      "taf": "TAF EGPD 071654Z 0718/0818 18007KT CAVOK"
    },
    {
      "icao": "EGPF",
      "alert": "OK",
      "vis_m": 9999,
      "fzfg": false,
      "metar_trigger": false,
      "taf_trigger": false,
      "metar": "METAR EGPF 072150Z AUTO 08003KT 040V120 9999 NCD 03/01 Q1024",
      "taf": ""
    },
    {
      "icao": "EHBK",
      "alert": "OK",
      "vis_m": 7000,
      "fzfg": false,
      "metar_trigger": false,
      "taf_trigger": false,
      "metar": "METAR EHBK 072125Z AUTO 04006KT 7000 NSC 08/07 Q1024",
      "taf": "TAF EHBK 071721Z 0718/0824 VRB02KT CAVOK"
    },
    {
      "icao": "EHEH",
      "alert": "OK",
      "vis_m": 2300,
      "fzfg": false,
      "metar_trigger": false,
      "taf_trigger": false,
      "metar": "METAR EHEH 072125Z AUTO 01003KT 2300 BR FEW270 08/07 Q1025 YLO BECMG 1200 BR",
      "taf": ""
    },
    {
      "icao": "EKBI",
      "alert": "OK",
      "vis_m": 250,
      "fzfg": false,
      "metar_trigger": false,
      "taf_trigger": false,
      "metar": "METAR EKBI 072150Z AUTO 09002KT 0250 R09/0500U R27/P1500U FG FEW003/// FEW009/// 02/02 Q1026",
      "taf": "TAF EKBI 072027Z 0721/0821 13003KT 0050 FG OVC001"
    },
    {
      "icao": "EKCH",
      "alert": "OK",
      "vis_m": 9999,
      "fzfg": false,
      "metar_trigger": false,
      "taf_trigger": false,
      "metar": "METAR EKCH 072150Z AUTO 11002KT 9999 BKN130/// 04/01 Q1028 NOSIG",
      "taf": "TAF EKCH 072027Z 0721/0821 15007KT CAVOK"
    },
    {
      "icao": "ENAL",
      "alert": "OK",
      "vis_m": 8000,
      "fzfg": false,
      "metar_trigger": false,
      "taf_trigger": false,
      "metar": "METAR ENAL 072150Z 06004KT 8000 MIFG FEW005 M00/M00 Q1024",
      "taf": "TAF ENAL 072000Z 0721/0806 24008KT 9000 FEW005"
    },
    {
      "icao": "ENBR",
      "alert": "OK",
      "vis_m": 7000,
      "fzfg": false,
      "metar_trigger": false,
      "taf_trigger": false,
      "metar": "METAR ENBR 072150Z 14006KT 7000 OVC009 05/04 Q1027 RMK WIND 1200FT 16013KT",
      "taf": ""
    },
    {
      "icao": "ENGM",
      "alert": "OK",
      "vis_m": 9999,
      "fzfg": false,
      "metar_trigger": false,
      "taf_trigger": false,
      "metar": "METAR ENGM 072150Z 04002KT 9999 BKN005 02/01 Q1029 NOSIG",
      "taf": "TAF ENGM 071700Z 0718/0818 03005KT 9999 BKN008"
    },
    {
      "icao": "ENHD",
      "alert": "OK",
      "vis_m": 3100,
      "fzfg": false,
      "metar_trigger": false,
      "taf_trigger": false,
      "metar": "METAR ENHD 072150Z AUTO 11005KT 3100 BR OVC025/// 06/05 Q1027",
      "taf": "TAF ENHD 071400Z 0715/0723 VRB03KT 8000 SCT007 BKN015"
    },
    {
      "icao": "ENTC",
      "alert": "OK",
      "vis_m": 9999,
      "fzfg": false,
      "metar_trigger": false,
      "taf_trigger": false,
      "metar": "METAR ENTC 072150Z 19021KT 9999 -RA OVC033 03/00 Q1015 RMK WIND 2600FT 19032KT",
      "taf": "TAF ENTC 071700Z 0718/0818 20022KT 9999 -RA FEW015 BKN030"
    },
    {
      "icao": "ENTO",
      "alert": "OK",
      "vis_m": 5000,
      "fzfg": false,
      "metar_trigger": false,
      "taf_trigger": false,
      "metar": "METAR ENTO 072150Z AUTO 36004KT 5000 BR OVC034/// 03/03 Q1029",
      "taf": "TAF ENTO 071700Z 0718/0818 01005KT 9999 BKN020"
    },
    {
      "icao": "ENVA",
      "alert": "OK",
      "vis_m": 9999,
      "fzfg": false,
      "metar_trigger": false,
      "taf_trigger": false,
      "metar": "METAR ENVA 072150Z 10003KT CAVOK 02/M00 Q1025 RMK WIND 670FT 14009KT",
      "taf": "TAF ENVA 071700Z 0718/0818 10005KT CAVOK"
    },
    {
      "icao": "ENZV",
      "alert": "OK",
      "vis_m": 5000,
      "fzfg": false,
      "metar_trigger": false,
      "taf_trigger": false,
      "metar": "METAR ENZV 072150Z 00000KT 5000 BR OVC028 05/04 Q1028",
      "taf": "TAF ENZV 071700Z 0718/0818 VRB05KT 7000 BKN015"
    },
    {
      "icao": "EPGD",
      "alert": "OK",
      "vis_m": 8000,
      "fzfg": false,
      "metar_trigger": false,
      "taf_trigger": false,
      "metar": "METAR EPGD 072130Z VRB02KT 8000 NSC 05/M00 Q1028",
      "taf": "TAF EPGD 071730Z 0718/0818 VRB02KT CAVOK"
    },
    {
      "icao": "EPKK",
      "alert": "OK",
      "vis_m": 9999,
      "fzfg": false,
      "metar_trigger": false,
      "taf_trigger": false,
      "metar": "METAR EPKK 072130Z 04006KT CAVOK 02/M04 Q1028",
      "taf": "TAF EPKK 072030Z 0721/0821 05003KT CAVOK"
    },
    {
      "icao": "EPKT",
      "alert": "OK",
      "vis_m": 9999,
      "fzfg": false,
      "metar_trigger": false,
      "taf_trigger": false,
      "metar": "METAR EPKT 072130Z 04001KT CAVOK M02/M05 Q1028",
      "taf": "TAF EPKT 071730Z 0718/0818 09005KT CAVOK"
    },
    {
      "icao": "EPLB",
      "alert": "OK",
      "vis_m": 9999,
      "fzfg": false,
      "metar_trigger": false,
      "taf_trigger": false,
      "metar": "METAR EPLB 072130Z 24001KT CAVOK M01/M05 Q1029",
      "taf": "TAF EPLB 071730Z 0718/0818 VRB02KT CAVOK"
    },
    {
      "icao": "EPMO",
      "alert": "OK",
      "vis_m": 8000,
      "fzfg": false,
      "metar_trigger": false,
      "taf_trigger": false,
      "metar": "METAR EPMO 072130Z 09005KT 8000 NSC 03/M04 Q1029",
      "taf": "TAF EPMO 071730Z 0718/0818 VRB03KT CAVOK"
    },
    {
      "icao": "EPPO",
      "alert": "OK",
      "vis_m": 9999,
      "fzfg": false,
      "metar_trigger": false,
      "taf_trigger": false,
      "metar": "METAR EPPO 072130Z 09004KT CAVOK 03/M03 Q1028",
      "taf": "TAF EPPO 071730Z 0718/0818 10005KT CAVOK"
    },
    {
      "icao": "EPRA",
      "alert": "OK",
      "vis_m": 9999,
      "fzfg": false,
      "metar_trigger": false,
      "taf_trigger": false,
      "metar": "METAR EPRA 072130Z 14003KT CAVOK 02/M06 Q1029",
      "taf": "TAF EPRA 072030Z 0721/0806 VRB02KT CAVOK"
    },
    {
      "icao": "EPRZ",
      "alert": "OK",
      "vis_m": 9999,
      "fzfg": false,
      "metar_trigger": false,
      "taf_trigger": false,
      "metar": "METAR EPRZ 072130Z 33002KT CAVOK M00/M04 Q1028",
      "taf": "TAF EPRZ 071730Z 0718/0818 04004KT CAVOK"
    },
    {
      "icao": "EPSC",
      "alert": "OK",
      "vis_m": 9999,
      "fzfg": false,
      "metar_trigger": false,
      "taf_trigger": false,
      "metar": "METAR EPSC 072130Z 10002KT CAVOK 04/02 Q1027",
      "taf": "TAF EPSC 071730Z 0718/0818 11005KT CAVOK"
    },
    {
      "icao": "EPSY",
      "alert": "OK",
      "vis_m": 9999,
      "fzfg": false,
      "metar_trigger": false,
      "taf_trigger": false,
      "metar": "METAR EPSY 072130Z VRB01KT CAVOK M01/M04 Q1029",
      "taf": "TAF EPSY 072030Z 0721/0806 VRB02KT CAVOK"
    },
    {
      "icao": "EPWA",
      "alert": "OK",
      "vis_m": 9999,
      "fzfg": false,
      "metar_trigger": false,
      "taf_trigger": false,
      "metar": "METAR EPWA 072130Z 13002KT CAVOK 02/M05 Q1029 NOSIG",
      "taf": "TAF EPWA 072030Z 0721/0821 VRB02KT CAVOK"
    },
    {
      "icao": "EPWR",
      "alert": "OK",
      "vis_m": 9999,
      "fzfg": false,
      "metar_trigger": false,
      "taf_trigger": false,
      "metar": "METAR EPWR 072130Z VRB01KT CAVOK 03/M02 Q1027",
      "taf": "TAF EPWR 072030Z 0721/0821 14005KT CAVOK"
    },
    {
      "icao": "ESGG",
      "alert": "OK",
      "vis_m": 9999,
      "fzfg": false,
      "metar_trigger": false,
      "taf_trigger": false,
      "metar": "METAR ESGG 072150Z 09006KT CAVOK 05/03 Q1028",
      "taf": "TAF ESGG 072030Z 0721/0821 VRB03KT 2000 BR NSC"
    },
    {
      "icao": "ESKN",
      "alert": "OK",
      "vis_m": 350,
      "fzfg": true,
      "metar_trigger": false,
      "taf_trigger": false,
      "metar": "METAR ESKN 072150Z 06002KT 0350 R08/P2000N R26/1100D FZFG NSC M02/M02 Q1030",
      "taf": "TAF ESKN 072030Z 0721/0821 VRB03KT 8000 BCFG NSC"
    },
    {
      "icao": "ESMS",
      "alert": "OK",
      "vis_m": 9999,
      "fzfg": false,
      "metar_trigger": false,
      "taf_trigger": false,
      "metar": "METAR ESMS 072150Z 11004KT CAVOK 05/M00 Q1027",
      "taf": "TAF ESMS 072027Z 0721/0821 12005KT CAVOK"
    },
    {
      "icao": "ESSA",
      "alert": "OK",
      "vis_m": 9999,
      "fzfg": false,
      "metar_trigger": false,
      "taf_trigger": false,
      "metar": "METAR ESSA 072150Z 23001KT CAVOK 01/01 Q1030 NOSIG",
      "taf": "TAF ESSA 072030Z 0721/0821 VRB03KT 9000 SCT040"
    },
    {
      "icao": "EYKA",
      "alert": "OK",
      "vis_m": 9999,
      "fzfg": false,
      "metar_trigger": false,
      "taf_trigger": false,
      "metar": "METAR EYKA 072150Z VRB01KT CAVOK M01/M05 Q1030",
      "taf": "TAF EYKA 071715Z 0718/0818 VRB04KT 9000 NSC"
    },
    {
      "icao": "EYPA",
      "alert": "OK",
      "vis_m": 9000,
      "fzfg": false,
      "metar_trigger": false,
      "taf_trigger": false,
      "metar": "METAR EYPA 072150Z 10002KT 9000 NSC M01/M02 Q1030",
      "taf": "TAF EYPA 071718Z 0718/0818 VRB04KT 8000 NSC"
    },
    {
      "icao": "EYVI",
      "alert": "OK",
      "vis_m": 9999,
      "fzfg": false,
      "metar_trigger": false,
      "taf_trigger": false,
      "metar": "METAR EYVI 072150Z VRB01KT CAVOK 02/M04 Q1029 NOSIG",
      "taf": "TAF EYVI 071716Z 0718/0818 VRB04KT 8000 NSC"
    },
    {
      "icao": "GCFV",
      "alert": "OK",
      "vis_m": 9999,
      "fzfg": false,
      "metar_trigger": false,
      "taf_trigger": false,
      "metar": "METAR GCFV 072130Z 01016KT 9999 FEW033 BKN048 16/09 Q1021",
      "taf": "TAF GCFV 072000Z 0721/0821 02016KT 9999 BKN040 TX20/0814Z TN15/0806Z"
    },
    {
      "icao": "GCLP",
      "alert": "OK",
      "vis_m": 9999,
      "fzfg": false,
      "metar_trigger": false,
      "taf_trigger": false,
      "metar": "METAR GCLP 072130Z 01016KT 9999 BKN040 16/09 Q1021 NOSIG",
      "taf": "TAF GCLP 072000Z 0721/0821 01018KT 9999 BKN030 TX20/0814Z TN15/0806Z"
    },
    {
      "icao": "GCTS",
      "alert": "OK",
      "vis_m": 9999,
      "fzfg": false,
      "metar_trigger": false,
      "taf_trigger": false,
      "metar": "METAR GCTS 072130Z 06013KT 9999 BKN040 17/07 Q1021 NOSIG",
      "taf": "TAF GCTS 072000Z 0721/0821 05015KT 9999 SCT040 TX22/0814Z TN14/0806Z"
    },
    {
      "icao": "GMAD",
      "alert": "OK",
      "vis_m": 9999,
      "fzfg": false,
      "metar_trigger": false,
      "taf_trigger": false,
      "metar": "METAR GMAD 072130Z 15006KT 120V200 CAVOK 12/11 Q1016 NOSIG",
      "taf": "TAF GMAD 071700Z 0718/0824 18008KT 8000 SCT020"
    },
    {
      "icao": "GMMN",
      "alert": "OK",
      "vis_m": 9999,
      "fzfg": false,
      "metar_trigger": false,
      "taf_trigger": false,
      "metar": "METAR GMMN 072130Z VRB01KT 9999 BKN030 11/09 Q1019 NOSIG",
      "taf": "TAF GMMN 071700Z 0718/0824 30006KT 9999 BKN026"
    },
    {
      "icao": "GMMX",
      "alert": "OK",
      "vis_m": 9999,
      "fzfg": false,
      "metar_trigger": false,
      "taf_trigger": false,
      "metar": "METAR GMMX 072130Z 02004KT 340V040 9999 SCT020 BKN040 12/05 Q1018 NOSIG",
      "taf": "TAF GMMX 071700Z 0718/0824 04006KT 8000 SCT020 SCT040"
    },
    {
      "icao": "HEGN",
      "alert": "OK",
      "vis_m": 9999,
      "fzfg": false,
      "metar_trigger": false,
      "taf_trigger": false,
      "metar": "METAR HEGN 072100Z 29013KT CAVOK 18/03 Q1016 NOSIG",
      "taf": "TAF HEGN 071700Z 0718/0824 32010G24KT CAVOK"
    },
    {
      "icao": "HEMA",
      "alert": "OK",
      "vis_m": 9999,
      "fzfg": false,
      "metar_trigger": false,
      "taf_trigger": false,
      "metar": "METAR HEMA 072100Z 31012KT CAVOK 19/06 Q1015 NOSIG",
      "taf": "TAF HEMA 071704Z 0718/0824 33010G24KT CAVOK"
    },
    {
      "icao": "HESH",
      "alert": "OK",
      "vis_m": 9999,
      "fzfg": false,
      "metar_trigger": false,
      "taf_trigger": false,
      "metar": "METAR HESH 072100Z 35013KT CAVOK 19/04 Q1015 NOSIG",
      "taf": "TAF HESH 071700Z 0718/0824 35006G18KT CAVOK"
    },
    {
      "icao": "HESX",
      "alert": "OK",
      "vis_m": 9999,
      "fzfg": false,
      "metar_trigger": false,
      "taf_trigger": false,
      "metar": "METAR HESX 072100Z 36006KT CAVOK 14/08 Q1021 NOSIG",
      "taf": "TAF HESX 071704Z 0718/0824 34010KT CAVOK"
    },
    {
      "icao": "LATI",
      "alert": "OK",
      "vis_m": 9999,
      "fzfg": false,
      "metar_trigger": false,
      "taf_trigger": false,
      "metar": "METAR LATI 072150Z VRB02KT CAVOK 08/05 Q1027 NOSIG",
      "taf": "TAF LATI 071700Z 0718/0818 VRB03KT CAVOK TX18/0812Z TN08/0805Z"
    },
    {
      "icao": "LBPD",
      "alert": "OK",
      "vis_m": 9999,
      "fzfg": false,
      "metar_trigger": false,
      "taf_trigger": false,
      "metar": "METAR LBPD 072130Z AUTO 14004KT 9999 NCD 04/02 Q1029",
      "taf": "TAF LBPD 071700Z 0718/0818 09010KT CAVOK"
    },
    {
      "icao": "LBSF",
      "alert": "OK",
      "vis_m": 9999,
      "fzfg": false,
      "metar_trigger": false,
      "taf_trigger": false,
      "metar": "METAR LBSF 072130Z AUTO 14008KT 110V170 9999 NCD 05/01 Q1027 NOSIG",
      "taf": "TAF LBSF 071700Z 0718/0818 VRB03KT CAVOK"
    },
    {
      "icao": "LBWN",
      "alert": "OK",
      "vis_m": 9999,
      "fzfg": false,
      "metar_trigger": false,
      "taf_trigger": false,
      "metar": "METAR LBWN 072130Z AUTO 29002KT 9999 NCD 00/00 Q1030 NOSIG",
      "taf": "TAF LBWN 071700Z 0718/0818 VRB03KT 9999 SCT040"
    },
    {
      "icao": "LCLK",
      "alert": "OK",
      "vis_m": 9999,
      "fzfg": false,
      "metar_trigger": false,
      "taf_trigger": false,
      "metar": "METAR LCLK 072130Z 34007KT CAVOK 09/03 Q1020 NOSIG",
      "taf": "TAF LCLK 071730Z 0718/0818 02010KT 9999 FEW025"
    },
    {
      "icao": "LCPH",
      "alert": "OK",
      "vis_m": 9999,
      "fzfg": false,
      "metar_trigger": false,
      "taf_trigger": false,
      "metar": "METAR LCPH 072130Z VRB05KT 9999 FEW050 11/M03 Q1020 NOSIG",
      "taf": "TAF LCPH 071730Z 0718/0818 14010KT 9999 FEW020"
    },
    {
      "icao": "LEAL",
      "alert": "OK",
      "vis_m": 9999,
      "fzfg": false,
      "metar_trigger": false,
      "taf_trigger": false,
      "metar": "METAR LEAL 072130Z VRB01KT CAVOK 13/08 Q1020 NOSIG",
      "taf": "TAF LEAL 071700Z 0718/0818 VRB04KT CAVOK TX17/0813Z TN07/0806Z"
    },
    {
      "icao": "LEBB",
      "alert": "OK",
      "vis_m": 9999,
      "fzfg": false,
      "metar_trigger": false,
      "taf_trigger": false,
      "metar": "METAR LEBB 072130Z 12003KT 080V150 9999 BKN032 OVC067 11/10 Q1022 TEMPO 3000 RA",
      "taf": ""
    },
    {
      "icao": "LEBL",
      "alert": "OK",
      "vis_m": 9999,
      "fzfg": false,
      "metar_trigger": false,
      "taf_trigger": false,
      "metar": "METAR LEBL 072130Z 36005KT 9999 BKN060 11/10 Q1022 NOSIG",
      "taf": "TAF LEBL 071700Z 0718/0818 VRB04KT 9999 FEW030 BKN040 TX15/0812Z TN09/0806Z"
    },
    {
      "icao": "LECH",
      "alert": "OK",
      "vis_m": 9000,
      "fzfg": false,
      "metar_trigger": false,
      "taf_trigger": false,
      "metar": "METAR LECH 072130Z AUTO 03005KT 360V060 9000 SCT017 BKN025 BKN037 08/08 Q1021",
      "taf": ""
    },
    {
      "icao": "LEMD",
      "alert": "OK",
      "vis_m": 9999,
      "fzfg": false,
      "metar_trigger": false,
      "taf_trigger": false,
      "metar": "METAR LEMD 072130Z 35006KT 9999 SCT050 BKN070 08/07 Q1019 NOSIG",
      "taf": "TAF LEMD 071700Z 0718/0824 VRB04KT 9999 SCT030 TX13/0815Z TN05/0806Z"
    },
    {
      "icao": "LEMG",
      "alert": "OK",
      "vis_m": 9999,
      "fzfg": false,
      "metar_trigger": false,
      "taf_trigger": false,
      "metar": "METAR LEMG 072130Z 29006KT 9999 FEW065 BKN085 13/10 Q1018 NOSIG",
      "taf": "TAF LEMG 071700Z 0718/0818 30006KT 9999 SCT040 TX16/0814Z TN08/0807Z"
    },
    {
      "icao": "LEVC",
      "alert": "OK",
      "vis_m": 9999,
      "fzfg": false,
      "metar_trigger": false,
      "taf_trigger": false,
      "metar": "METAR LEVC 072130Z 29003KT 9999 FEW028 SCT065 09/08 Q1021 NOSIG",
      "taf": "TAF LEVC 071700Z 0718/0818 05008KT 9999 SCT015 TX14/0813Z TN09/0806Z"
    },
    {
      "icao": "LEXJ",
      "alert": "OK",
      "vis_m": 9999,
      "fzfg": false,
      "metar_trigger": false,
      "taf_trigger": false,
      "metar": "METAR LEXJ 072130Z 22004KT 9999 FEW015 BKN032 09/07 Q1022",
      "taf": "TAF LEXJ 072000Z 0721/0821 24008KT 9999 BKN020 TX13/0812Z TN07/0807Z"
    },
    {
      "icao": "LEZG",
      "alert": "OK",
      "vis_m": 9999,
      "fzfg": false,
      "metar_trigger": false,
      "taf_trigger": false,
      "metar": "METAR LEZG 072130Z 11005KT 080V140 9999 SCT030 BKN045 09/09 Q1022 NOSIG",
      "taf": "TAF LEZG 071700Z 0718/0818 11009KT 9999 FEW020 TX15/0814Z TN06/0806Z"
    },
    {
      "icao": "LEZL",
      "alert": "OK",
      "vis_m": 9999,
      "fzfg": false,
      "metar_trigger": false,
      "taf_trigger": false,
      "metar": "METAR LEZL 072130Z 22007KT CAVOK 14/11 Q1019 NOSIG",
      "taf": "TAF LEZL 072000Z 0721/0821 VRB03KT 9999 FEW020 TX19/0815Z TN10/0807Z"
    },
    {
      "icao": "LFBD",
      "alert": "OK",
      "vis_m": 9999,
      "fzfg": false,
      "metar_trigger": false,
      "taf_trigger": false,
      "metar": "METAR LFBD 072130Z AUTO 24006KT 9999 FEW048/// BKN058/// BKN220/// ///TCU 12/10 Q1021 TEMPO 3000 BR BECMG BKN045",
      "taf": "TAF LFBD 071700Z 0718/0824 VRB03KT 9999 BKN045 TX15/0813Z TN09/0900Z"
    },
    {
      "icao": "LFLL",
      "alert": "OK",
      "vis_m": 9999,
      "fzfg": false,
      "metar_trigger": false,
      "taf_trigger": false,
      "metar": "METAR LFLL 072130Z 18005KT CAVOK 11/05 Q1023 NOSIG",
      "taf": "TAF LFLL 071700Z 0718/0824 19005KT 9999 FEW050"
    },
    {
      "icao": "LFLS",
      "alert": "OK",
      "vis_m": 9999,
      "fzfg": false,
      "metar_trigger": false,
      "taf_trigger": false,
      "metar": "METAR LFLS 072130Z AUTO 10003KT CAVOK 06/05 Q1024",
      "taf": "TAF LFLS 071400Z 0715/0815 26006KT CAVOK"
    },
    {
      "icao": "LFMN",
      "alert": "OK",
      "vis_m": 9999,
      "fzfg": false,
      "metar_trigger": false,
      "taf_trigger": false,
      "metar": "METAR LFMN 072130Z 33005KT 9999 BKN110 13/06 Q1024 NOSIG",
      "taf": "TAF LFMN 072000Z 0721/0903 34008KT 9999 BKN100 BKN250"
    },
    {
      "icao": "LFOB",
      "alert": "OK",
      "vis_m": 2600,
      "fzfg": false,
      "metar_trigger": false,
      "taf_trigger": false,
      "metar": "METAR LFOB 072130Z AUTO 04004KT 2600 BR OVC003 09/09 Q1024 TEMPO 0600 FG VV///",
      "taf": ""
    },
    {
      "icao": "LFPO",
      "alert": "OK",
      "vis_m": 5000,
      "fzfg": false,
      "metar_trigger": false,
      "taf_trigger": false,
      "metar": "METAR LFPO 072130Z 02005KT 340V040 5000 BR NSC 10/09 Q1023 NOSIG",
      "taf": ""
    },
    {
      "icao": "LFSB",
      "alert": "OK",
      "vis_m": 8000,
      "fzfg": false,
      "metar_trigger": false,
      "taf_trigger": false,
      "metar": "METAR LFSB 072130Z AUTO VRB02KT 8000 NSC 06/05 Q1023 NOSIG",
      "taf": "TAF LFSB 071700Z 0718/0818 34004KT CAVOK"
    },
    {
      "icao": "LGAV",
      "alert": "OK",
      "vis_m": 9999,
      "fzfg": false,
      "metar_trigger": false,
      "taf_trigger": false,
      "metar": "METAR LGAV 072150Z 36007KT 9999 FEW030 08/04 Q1027 NOSIG",
      "taf": "TAF LGAV 071700Z 0718/0818 03014KT 9999 FEW025"
    },
    {
      "icao": "LGTS",
      "alert": "OK",
      "vis_m": 9999,
      "fzfg": false,
      "metar_trigger": false,
      "taf_trigger": false,
      "metar": "METAR LGTS 072150Z 09006KT 9999 FEW020 07/07 Q1028 NOSIG",
      "taf": "TAF LGTS 071700Z 0718/0818 16013KT 9999 SCT030"
    },
    {
      "icao": "LHBP",
      "alert": "OK",
      "vis_m": 9999,
      "fzfg": false,
      "metar_trigger": false,
      "taf_trigger": false,
      "metar": "METAR LHBP 072130Z VRB01KT CAVOK 02/M03 Q1027 NOSIG",
      "taf": "TAF LHBP 071715Z 0718/0818 10005KT CAVOK"
    },
    {
      "icao": "LHDC",
      "alert": "OK",
      "vis_m": 6000,
      "fzfg": false,
      "metar_trigger": false,
      "taf_trigger": false,
      "metar": "METAR LHDC 072115Z AUTO 00000KT 6000 NCD 04/M02 Q1027",
      "taf": "TAF LHDC 071415Z 0715/0724 VRB03KT CAVOK"
    },
    {
      "icao": "LIBD",
      "alert": "OK",
      "vis_m": 9000,
      "fzfg": false,
      "metar_trigger": false,
      "taf_trigger": false,
      "metar": "METAR LIBD 072150Z AUTO 29003KT 260V320 9000 OVC093/// 11/10 Q1026",
      "taf": "TAF LIBD 071700Z 0718/0818 VRB05KT 8000 SCT020"
    },
    {
      "icao": "LIBG",
      "alert": "OK",
      "vis_m": null,
      "fzfg": false,
      "metar_trigger": false,
      "taf_trigger": false,
      "metar": "",
      "taf": "TAF LIBG 071700Z 0718/0803 VRB05KT 5000 BR BKN030"
    },
    {
      "icao": "LIBP",
      "alert": "OK",
      "vis_m": 6000,
      "fzfg": false,
      "metar_trigger": false,
      "taf_trigger": false,
      "metar": "METAR LIBP 072150Z AUTO 21002KT 6000 FEW022/// SCT084/// BKN097/// 09/09 Q1026",
      "taf": "TAF LIBP 071700Z 0718/0818 VRB04KT 9999 BKN040"
    },
    {
      "icao": "LIBR",
      "alert": "OK",
      "vis_m": 9999,
      "fzfg": false,
      "metar_trigger": false,
      "taf_trigger": false,
      "metar": "METAR LIBR 072150Z VRB01KT 9999 FEW045 12/11 Q1026",
      "taf": "TAF LIBR 071700Z 0718/0818 VRB04KT 8000 BKN030"
    },
    {
      "icao": "LICA",
      "alert": "OK",
      "vis_m": 9999,
      "fzfg": false,
      "metar_trigger": false,
      "taf_trigger": false,
      "metar": "METAR LICA 072150Z AUTO 05010KT 9999 NCD 13/11 Q1025",
      "taf": "TAF LICA 071700Z 0718/0818 07013KT 9999 SCT050"
    },
    {
      "icao": "LICC",
      "alert": "OK",
      "vis_m": 9999,
      "fzfg": false,
      "metar_trigger": false,
      "taf_trigger": false,
      "metar": "METAR LICC 072150Z 04007KT 9999 FEW010 16/14 Q1025",
      "taf": "TAF LICC 071700Z 0718/0818 07010KT 9999 SCT010 SCT030"
    },
    {
      "icao": "LICJ",
      "alert": "OK",
      "vis_m": 9999,
      "fzfg": false,
      "metar_trigger": false,
      "taf_trigger": false,
      "metar": "METAR LICJ 072150Z 20006KT CAVOK 13/11 Q1024",
      "taf": "TAF LICJ 071700Z 0718/0818 VRB05KT 9999 SCT030"
    },
    {
      "icao": "LIMC",
      "alert": "OK",
      "vis_m": 9999,
      "fzfg": false,
      "metar_trigger": false,
      "taf_trigger": false,
      "metar": "METAR LIMC 072150Z 02005KT CAVOK 05/02 Q1026 NOSIG",
      "taf": "TAF LIMC 071700Z 0718/0824 VRB05KT CAVOK"
    },
    {
      "icao": "LIME",
      "alert": "OK",
      "vis_m": 9999,
      "fzfg": false,
      "metar_trigger": false,
      "taf_trigger": false,
      "metar": "METAR LIME 072150Z 02005KT CAVOK 09/05 Q1026 NOSIG",
      "taf": "TAF LIME 071700Z 0718/0818 VRB05KT CAVOK"
    },
    {
      "icao": "LIMF",
      "alert": "OK",
      "vis_m": 9999,
      "fzfg": false,
      "metar_trigger": false,
      "taf_trigger": false,
      "metar": "METAR LIMF 072150Z 34005KT CAVOK 11/04 Q1026",
      "taf": "TAF LIMF 071700Z 0718/0818 VRB04KT 6000 NSC"
    },
    {
      "icao": "LIMJ",
      "alert": "OK",
      "vis_m": 9999,
      "fzfg": false,
      "metar_trigger": false,
      "taf_trigger": false,
      "metar": "METAR LIMJ 072150Z 08003KT CAVOK 12/07 Q1025",
      "taf": "TAF LIMJ 071700Z 0718/0818 VRB06KT 9999 SCT040"
    },
    {
      "icao": "LIPE",
      "alert": "OK",
      "vis_m": 8000,
      "fzfg": false,
      "metar_trigger": false,
      "taf_trigger": false,
      "metar": "METAR LIPE 072150Z 18003KT 8000 NSC 08/06 Q1025",
      "taf": "TAF LIPE 071700Z 0718/0818 VRB04KT 5000 BR NSC"
    },
    {
      "icao": "LIPH",
      "alert": "OK",
      "vis_m": 9999,
      "fzfg": false,
      "metar_trigger": false,
      "taf_trigger": false,
      "metar": "METAR LIPH 072150Z VRB01KT CAVOK 07/06 Q1026",
      "taf": "TAF LIPH 071700Z 0718/0818 VRB03KT CAVOK"
    },
    {
      "icao": "LIPQ",
      "alert": "OK",
      "vis_m": 4300,
      "fzfg": false,
      "metar_trigger": false,
      "taf_trigger": false,
      "metar": "METAR LIPQ 072150Z AUTO VRB01KT 4300 BR NCD 05/05 Q1026",
      "taf": ""
    },
    {
      "icao": "LIPR",
      "alert": "OK",
      "vis_m": 6000,
      "fzfg": false,
      "metar_trigger": false,
      "taf_trigger": false,
      "metar": "METAR LIPR 072150Z VRB01KT 6000 NSC 07/07 Q1025",
      "taf": "TAF LIPR 071700Z 0718/0818 VRB06KT CAVOK"
    },
    {
      "icao": "LIPX",
      "alert": "OK",
      "vis_m": 9999,
      "fzfg": false,
      "metar_trigger": false,
      "taf_trigger": false,
      "metar": "METAR LIPX 072150Z 01004KT CAVOK 08/04 Q1026",
      "taf": "TAF LIPX 071700Z 0718/0818 VRB05KT CAVOK"
    },
    {
      "icao": "LIPY",
      "alert": "OK",
      "vis_m": 3600,
      "fzfg": false,
      "metar_trigger": false,
      "taf_trigger": false,
      "metar": "METAR LIPY 072150Z AUTO VRB01KT 3600 BR NCD 07/07 Q1026",
      "taf": ""
    },
    {
      "icao": "LIPZ",
      "alert": "OK",
      "vis_m": 9999,
      "fzfg": false,
      "metar_trigger": false,
      "taf_trigger": false,
      "metar": "METAR LIPZ 072150Z 26005KT CAVOK 10/08 Q1026 NOSIG",
      "taf": "TAF LIPZ 071700Z 0718/0824 VRB04KT 8000 NSC"
    },
    {
      "icao": "LIRF",
      "alert": "OK",
      "vis_m": 9999,
      "fzfg": false,
      "metar_trigger": false,
      "taf_trigger": false,
      "metar": "METAR LIRF 072150Z 05002KT CAVOK 13/11 Q1025 NOSIG",
      "taf": "TAF LIRF 071700Z 0718/0824 VRB05KT 9999 SCT055"
    },
    {
      "icao": "LIRN",
      "alert": "OK",
      "vis_m": 9999,
      "fzfg": false,
      "metar_trigger": false,
      "taf_trigger": false,
      "metar": "METAR LIRN 072150Z 33004KT 280V010 CAVOK 15/09 Q1025 NOSIG",
      "taf": "TAF LIRN 071700Z 0718/0818 VRB05KT 9999 SCT050"
    },
    {
      "icao": "LIRP",
      "alert": "OK",
      "vis_m": 9999,
      "fzfg": false,
      "metar_trigger": false,
      "taf_trigger": false,
      "metar": "METAR LIRP 072145Z 21001KT 9999 BKN060 SCT080 13/12 Q1025 NOSIG",
      "taf": "TAF LIRP 071700Z 0718/0818 27007KT 9999 SCT040"
    },
    {
      "icao": "LIRZ",
      "alert": "OK",
      "vis_m": 9999,
      "fzfg": false,
      "metar_trigger": false,
      "taf_trigger": false,
      "metar": "METAR LIRZ 072150Z AUTO VRB01KT 9999 OVC093/// 12/09 Q1025",
      "taf": "TAF LIRZ 071700Z 0718/0818 VRB05KT 9999 SCT050"
    },
    {
      "icao": "LJLJ",
      "alert": "OK",
      "vis_m": 9999,
      "fzfg": false,
      "metar_trigger": false,
      "taf_trigger": false,
      "metar": "METAR LJLJ 072130Z VRB01KT CAVOK 03/02 Q1025 NOSIG",
      "taf": "TAF LJLJ 071700Z 0718/0818 VRB02KT CAVOK"
    },
    {
      "icao": "LKMT",
      "alert": "OK",
      "vis_m": 9999,
      "fzfg": false,
      "metar_trigger": false,
      "taf_trigger": false,
      "metar": "METAR LKMT 072130Z VRB02KT CAVOK 02/M00 Q1027 NOSIG",
      "taf": "TAF LKMT 071700Z 0718/0818 VRB02KT CAVOK"
    },
    {
      "icao": "LKPR",
      "alert": "OK",
      "vis_m": 9999,
      "fzfg": false,
      "metar_trigger": false,
      "taf_trigger": false,
      "metar": "METAR LKPR 072130Z 14004KT CAVOK 08/01 Q1026 NOSIG",
      "taf": "TAF LKPR 072000Z 0721/0903 11006KT CAVOK"
    },
    {
      "icao": "LLBG",
      "alert": "OK",
      "vis_m": 9999,
      "fzfg": false,
      "metar_trigger": false,
      "taf_trigger": false,
      "metar": "METAR LLBG 072150Z VRB03KT 9999 SCT040 12/07 Q1019 NOSIG",
      "taf": "TAF LLBG 071705Z 0718/0818 VRB04KT 9999 FEW035 TX18/0812Z TN08/0804Z"
    },
    {
      "icao": "LMML",
      "alert": "OK",
      "vis_m": 9999,
      "fzfg": false,
      "metar_trigger": false,
      "taf_trigger": false,
      "metar": "METAR LMML 072145Z 08009KT 9999 BKN007 15/14 Q1023 NOSIG",
      "taf": "TAF LMML 071700Z 0718/0818 09015KT 9999 SCT012"
    },
    {
      "icao": "LOWW",
      "alert": "OK",
      "vis_m": 9999,
      "fzfg": false,
      "metar_trigger": false,
      "taf_trigger": false,
      "metar": "METAR LOWW 072150Z 16004KT 9999 NSC 08/M01 Q1026 NOSIG",
      "taf": "TAF LOWW 072015Z 0721/0903 13005KT CAVOK TX16/0814Z TN02/0805Z"
    },
    {
      "icao": "LPFR",
      "alert": "OK",
      "vis_m": 9999,
      "fzfg": false,
      "metar_trigger": false,
      "taf_trigger": false,
      "metar": "METAR LPFR 072130Z 35005KT 9999 SCT045 13/10 Q1019",
      "taf": "TAF LPFR 071700Z 0718/0818 18005KT CAVOK"
    },
    {
      "icao": "LPMA",
      "alert": "OK",
      "vis_m": 9999,
      "fzfg": false,
      "metar_trigger": false,
      "taf_trigger": false,
      "metar": "METAR LPMA 072130Z 02014KT 340V040 9999 BKN015 14/08 Q1025",
      "taf": "TAF LPMA 071700Z 0718/0818 02013KT 9999 SCT015 SCT030"
    },
    {
      "icao": "LPPR",
      "alert": "OK",
      "vis_m": 9999,
      "fzfg": false,
      "metar_trigger": false,
      "taf_trigger": false,
      "metar": "METAR LPPR 072130Z 14004KT 090V190 CAVOK 10/08 Q1019",
      "taf": "TAF LPPR 071700Z 0718/0818 33010KT 9999 FEW025"
    },
    {
      "icao": "LPPS",
      "alert": "OK",
      "vis_m": 9999,
      "fzfg": false,
      "metar_trigger": false,
      "taf_trigger": false,
      "metar": "METAR LPPS 072130Z 01013KT 350V050 9999 FEW015 BKN030 14/08 Q1025",
      "taf": "TAF LPPS 071700Z 0718/0824 02015KT 9999 FEW015 BKN030"
    },
    {
      "icao": "LPPT",
      "alert": "OK",
      "vis_m": 9999,
      "fzfg": false,
      "metar_trigger": false,
      "taf_trigger": false,
      "metar": "METAR LPPT 072130Z 32011KT CAVOK 11/07 Q1019",
      "taf": "TAF LPPT 071700Z 0718/0824 32012KT 9999 FEW030"
    },
    {
      "icao": "LQBK",
      "alert": "OK",
      "vis_m": 9999,
      "fzfg": false,
      "metar_trigger": false,
      "taf_trigger": false,
      "metar": "METAR LQBK 072130Z VRB01KT CAVOK 04/01 Q1025 NOSIG",
      "taf": "TAF LQBK 071700Z 0718/0818 15005KT CAVOK TX18/0814Z TN00/0805Z"
    },
    {
      "icao": "LQSA",
      "alert": "OK",
      "vis_m": 9999,
      "fzfg": false,
      "metar_trigger": false,
      "taf_trigger": false,
      "metar": "METAR LQSA 072130Z VRB03KT CAVOK 04/00 Q1026 NOSIG",
      "taf": "TAF LQSA 071700Z 0718/0818 VRB02KT CAVOK TX18/0814Z TNM00/0805Z"
    },
    {
      "icao": "LQTZ",
      "alert": "OK",
      "vis_m": 9999,
      "fzfg": false,
      "metar_trigger": false,
      "taf_trigger": false,
      "metar": "METAR LQTZ 072130Z 34003KT CAVOK 05/01 Q1026",
      "taf": "TAF LQTZ 071700Z 0718/0818 VRB02KT CAVOK TX18/0813Z TNM00/0805Z"
    },
    {
      "icao": "LRBC",
      "alert": "OK",
      "vis_m": 9999,
      "fzfg": false,
      "metar_trigger": false,
      "taf_trigger": false,
      "metar": "METAR LRBC 072130Z 00000KT CAVOK 02/M02 Q1028",
      "taf": "TAF LRBC 072000Z 0721/0806 VRB04KT CAVOK"
    },
    {
      "icao": "LRBS",
      "alert": "OK",
      "vis_m": 9999,
      "fzfg": false,
      "metar_trigger": false,
      "taf_trigger": false,
      "metar": "METAR LRBS 072130Z 11004KT CAVOK 05/M01 Q1029 NOSIG",
      "taf": "TAF LRBS 071700Z 0718/0818 VRB04KT CAVOK"
    },
    {
      "icao": "LRBV",
      "alert": "OK",
      "vis_m": 9999,
      "fzfg": false,
      "metar_trigger": false,
      "taf_trigger": false,
      "metar": "METAR LRBV 072130Z AUTO 29003KT 260V340 9999 NCD 02/M01 Q1027",
      "taf": "TAF LRBV 072000Z 0721/0806 VRB04KT CAVOK"
    },
    {
      "icao": "LRCL",
      "alert": "OK",
      "vis_m": 9999,
      "fzfg": false,
      "metar_trigger": false,
      "taf_trigger": false,
      "metar": "METAR LRCL 072130Z 26003KT CAVOK 00/M05 Q1027",
      "taf": "TAF LRCL 072000Z 0721/0806 25004KT CAVOK"
    },
    {
      "icao": "LRCV",
      "alert": "OK",
      "vis_m": 9999,
      "fzfg": false,
      "metar_trigger": false,
      "taf_trigger": false,
      "metar": "METAR LRCV 072130Z 09006KT CAVOK 05/02 Q1028",
      "taf": "TAF LRCV 072000Z 0721/0806 10005KT CAVOK"
    },
    {
      "icao": "LRIA",
      "alert": "OK",
      "vis_m": 9999,
      "fzfg": false,
      "metar_trigger": false,
      "taf_trigger": false,
      "metar": "METAR LRIA 072130Z 06004KT CAVOK 06/M02 Q1029",
      "taf": "TAF LRIA 072000Z 0721/0806 VRB04KT CAVOK"
    },
    {
      "icao": "LROP",
      "alert": "OK",
      "vis_m": 9999,
      "fzfg": false,
      "metar_trigger": false,
      "taf_trigger": false,
      "metar": "METAR LROP 072130Z 14006KT CAVOK 05/M03 Q1029 NOSIG",
      "taf": "TAF LROP 071700Z 0718/0818 VRB04KT CAVOK"
    },
    {
      "icao": "LRSB",
      "alert": "OK",
      "vis_m": 9999,
      "fzfg": false,
      "metar_trigger": false,
      "taf_trigger": false,
      "metar": "METAR LRSB 072130Z VRB02KT CAVOK 03/M02 Q1026",
      "taf": "TAF LRSB 071700Z 0718/0818 VRB04KT CAVOK"
    },
    {
      "icao": "LRSM",
      "alert": "OK",
      "vis_m": 9999,
      "fzfg": false,
      "metar_trigger": false,
      "taf_trigger": false,
      "metar": "METAR LRSM 072130Z AUTO 26004KT 9999 NCD 02/M02 Q1027",
      "taf": ""
    },
    {
      "icao": "LRSV",
      "alert": "OK",
      "vis_m": 9999,
      "fzfg": false,
      "metar_trigger": false,
      "taf_trigger": false,
      "metar": "METAR LRSV 072130Z 06002KT CAVOK 05/M01 Q1028",
      "taf": "TAF LRSV 072000Z 0721/0806 VRB04KT CAVOK"
    },
    {
      "icao": "LRTM",
      "alert": "OK",
      "vis_m": 9000,
      "fzfg": false,
      "metar_trigger": false,
      "taf_trigger": false,
      "metar": "METAR LRTM 072130Z AUTO 06001KT 9000 NCD 00/M03 Q1027",
      "taf": "TAF LRTM 071400Z 0715/0724 VRB04KT CAVOK"
    },
    {
      "icao": "LRTR",
      "alert": "OK",
      "vis_m": 9999,
      "fzfg": false,
      "metar_trigger": false,
      "taf_trigger": false,
      "metar": "METAR LRTR 072130Z 08008KT CAVOK 04/03 Q1026 NOSIG",
      "taf": "TAF LRTR 071700Z 0718/0818 VRB04KT CAVOK"
    },
    {
      "icao": "LTAC",
      "alert": "OK",
      "vis_m": 9999,
      "fzfg": false,
      "metar_trigger": false,
      "taf_trigger": false,
      "metar": "METAR LTAC 072150Z 04006KT CAVOK M03/M07 Q1025 NOSIG",
      "taf": "TAF LTAC 071640Z 0718/0818 VRB02KT CAVOK"
    },
    {
      "icao": "LTFM",
      "alert": "OK",
      "vis_m": 9999,
      "fzfg": false,
      "metar_trigger": false,
      "taf_trigger": false,
      "metar": "METAR LTFM 072150Z 08006KT CAVOK 05/03 Q1029 NOSIG",
      "taf": "TAF LTFM 071640Z 0718/0824 05008KT CAVOK"
    },
    {
      "icao": "LUKK",
      "alert": "OK",
      "vis_m": 9999,
      "fzfg": false,
      "metar_trigger": false,
      "taf_trigger": false,
      "metar": "METAR LUKK 072130Z 13002KT CAVOK 01/M01 Q1029 NOSIG",
      "taf": "TAF LUKK 071713Z 0718/0818 VRB04KT CAVOK"
    },
    {
      "icao": "LWOH",
      "alert": "OK",
      "vis_m": null,
      "fzfg": false,
      "metar_trigger": false,
      "taf_trigger": false,
      "metar": "",
      "taf": "TAF LWOH 072020Z 0721/0821 VRB02KT 9999 SCT040 SCT080"
    },
    {
      "icao": "LWSK",
      "alert": "OK",
      "vis_m": 9999,
      "fzfg": false,
      "metar_trigger": false,
      "taf_trigger": false,
      "metar": "METAR LWSK 072150Z 04004KT 020V100 CAVOK 06/03 Q1027 NOSIG",
      "taf": "TAF LWSK 072020Z 0721/0821 VRB02KT CAVOK"
    },
    {
      "icao": "LYBE",
      "alert": "OK",
      "vis_m": 9999,
      "fzfg": false,
      "metar_trigger": false,
      "taf_trigger": false,
      "metar": "METAR LYBE 072130Z 10006KT CAVOK 10/01 Q1025 NOSIG",
      "taf": "TAF LYBE 071700Z 0718/0818 08006KT CAVOK TX18/0813Z TN01/0805Z"
    },
    {
      "icao": "LYNI",
      "alert": "OK",
      "vis_m": 9999,
      "fzfg": false,
      "metar_trigger": false,
      "taf_trigger": false,
      "metar": "METAR LYNI 072130Z 00000KT CAVOK 08/03 Q1026 NOSIG",
      "taf": "TAF LYNI 071700Z 0718/0818 06006KT CAVOK TX18/0813Z TN02/0805Z"
    },
    {
      "icao": "LYPG",
      "alert": "OK",
      "vis_m": 9999,
      "fzfg": false,
      "metar_trigger": false,
      "taf_trigger": false,
      "metar": "METAR LYPG 072130Z VRB01KT CAVOK 10/05 Q1026 NOSIG",
      "taf": "TAF LYPG 071700Z 0718/0818 36005KT CAVOK TX19/0813Z TN05/0805Z"
    },
    {
      "icao": "LZIB",
      "alert": "OK",
      "vis_m": 9999,
      "fzfg": false,
      "metar_trigger": false,
      "taf_trigger": false,
      "metar": "METAR LZIB 072130Z 01002KT CAVOK 06/M00 Q1026 NOSIG",
      "taf": "TAF LZIB 071715Z 0718/0818 15010KT CAVOK"
    },
    {
      "icao": "LZKZ",
      "alert": "OK",
      "vis_m": 9999,
      "fzfg": false,
      "metar_trigger": false,
      "taf_trigger": false,
      "metar": "METAR LZKZ 072130Z 04004KT CAVOK 04/M02 Q1027 NOSIG",
      "taf": "TAF LZKZ 071715Z 0718/0818 VRB02KT CAVOK"
    },
    {
      "icao": "LZTT",
      "alert": "OK",
      "vis_m": 9999,
      "fzfg": false,
      "metar_trigger": false,
      "taf_trigger": false,
      "metar": "METAR LZTT 072130Z 29006KT CAVOK M02/M06 Q1027",
      "taf": "TAF LZTT 071715Z 0718/0818 VRB02KT CAVOK"
    },
    {
      "icao": "OEJN",
      "alert": "OK",
      "vis_m": 9999,
      "fzfg": false,
      "metar_trigger": false,
      "taf_trigger": false,
      "metar": "METAR OEJN 072100Z 34006KT CAVOK 23/16 Q1012 NOSIG",
      "taf": "TAF OEJN 071700Z 0718/0824 02005KT 9999 FEW030"
    },
    {
      "icao": "OEMA",
      "alert": "OK",
      "vis_m": 9999,
      "fzfg": false,
      "metar_trigger": false,
      "taf_trigger": false,
      "metar": "METAR OEMA 072100Z 21006KT CAVOK 23/M01 Q1015 NOSIG",
      "taf": "TAF OEMA 071700Z 0718/0824 VRB03KT CAVOK"
    },
    {
      "icao": "OJAI",
      "alert": "OK",
      "vis_m": null,
      "fzfg": false,
      "metar_trigger": false,
      "taf_trigger": false,
      "metar": "",
      "taf": "TAF OJAI 071700Z 0718/0824 30012KT 4000 HZ SCT035"
    },
    {
      "icao": "OMAA",
      "alert": "OK",
      "vis_m": null,
      "fzfg": false,
      "metar_trigger": false,
      "taf_trigger": false,
      "metar": "",
      "taf": ""
    },
    {
      "icao": "OMDB",
      "alert": "OK",
      "vis_m": null,
      "fzfg": false,
      "metar_trigger": false,
      "taf_trigger": false,
      "metar": "",
      "taf": ""
    },
    {
      "icao": "UAAA",
      "alert": "OK",
      "vis_m": 4200,
      "fzfg": false,
      "metar_trigger": false,
      "taf_trigger": false,
      "metar": "METAR UAAA 072130Z 00000MPS 4200 BR FU BKN200 01/M00 Q1019 NOSIG",
      "taf": "TAF UAAA 071702Z 0718/0818 22003MPS 3100 BR FU SCT050 BKN100 TX14/0809Z TN01/0801Z"
    },
    {
      "icao": "UBBB",
      "alert": "OK",
      "vis_m": 9999,
      "fzfg": false,
      "metar_trigger": false,
      "taf_trigger": false,
      "metar": "METAR UBBB 072130Z 32007KT CAVOK 05/04 Q1026 NOSIG",
      "taf": "TAF UBBB 071701Z 0718/0818 34012KT 9999 SCT015 BKN030 TX08/0810Z TN04/0801Z"
    },
    {
      "icao": "UDSG",
      "alert": "OK",
      "vis_m": 9999,
      "fzfg": false,
      "metar_trigger": false,
      "taf_trigger": false,
      "metar": "METAR UDSG 072130Z 35009KT 9999 BKN046 M03/M08 Q1020 NOSIG",
      "taf": "TAF UDSG 071658Z 0718/0818 VRB06KT 9999 BKN040"
    },
    {
      "icao": "UDYZ",
      "alert": "OK",
      "vis_m": 9999,
      "fzfg": false,
      "metar_trigger": false,
      "taf_trigger": false,
      "metar": "METAR UDYZ 072130Z 04003KT 9999 SCT046 02/M00 Q1020 NOSIG",
      "taf": "TAF UDYZ 071700Z 0718/0818 04006KT 9999 SCT040"
    },
    {
      "icao": "UGKO",
      "alert": "OK",
      "vis_m": 9999,
      "fzfg": false,
      "metar_trigger": false,
      "taf_trigger": false,
      "metar": "METAR UGKO 072130Z VRB02KT 9999 SCT024 BKN041 03/02 Q1028 NOSIG",
      "taf": "TAF UGKO 071700Z 0718/0818 VRB02KT 9000 SCT021 BKN045 TX08/0811Z TN02/0803Z"
    }
  ]
}