{
  "ts_utc": "2026-01-01T23:54:18Z",
  "threshold_m": 150,
  "source": "stations_override.txt (ICAO list) + aviationweather.gov (METAR/TAF raw)",
  "station_count": 159,
  "stations": [
    {
      "icao": "BIKF",
      "alert": "OK",
      "vis_m": 9999,
      "fzfg": false,
      "metar_trigger": false,
      "taf_trigger": false,
      "metar": "METAR BIKF 012330Z 15008KT CAVOK M01/M04 Q1023",
      "taf": "TAF BIKF 012241Z 0200/0300 07006KT 9999 FEW040 TXM01/0200Z TNM05/0221Z"
    },
    {
      "icao": "BKPR",
      "alert": "OK",
      "vis_m": null,
      "fzfg": false,
      "metar_trigger": false,
      "taf_trigger": false,
      "metar": "",
      "taf": "TAF BKPR 012330Z 0200/0224 18008KT CAVOK"
    },
    {
      "icao": "EBCI",
      "alert": "OK",
      "vis_m": 9999,
      "fzfg": false,
      "metar_trigger": false,
      "taf_trigger": false,
      "metar": "METAR EBCI 012320Z 25012KT 9999 FEW021 03/00 Q1002 NOSIG",
      "taf": "TAF EBCI 012308Z 0200/0306 27012KT 9999 SCT015TCU SCT040"
    },
    {
      "icao": "EDDB",
      "alert": "OK",
      "vis_m": 9999,
      "fzfg": false,
      "metar_trigger": false,
      "taf_trigger": false,
      "metar": "METAR EDDB 012350Z AUTO 24016KT 9999 -RA BKN015 BKN021 OVC028 02/01 Q0989 TEMPO 23015G25KT",
      "taf": "TAF EDDB 012300Z 0200/0224 24020G30KT 9999 SCT015 OVC030"
    },
    {
      "icao": "EDDH",
      "alert": "OK",
      "vis_m": 9999,
      "fzfg": false,
      "metar_trigger": false,
      "taf_trigger": false,
      "metar": "METAR EDDH 012350Z AUTO 24016G26KT 9999 -SHRA BKN014 BKN021 FEW///TCU 02/00 Q0985 TEMPO 25020G30KT 3500 SHSNRA BKN009CB",
      "taf": "TAF EDDH 012300Z 0200/0306 26015G30KT 9999 SCT015 SCT025"
    },
    {
      "icao": "EDDK",
      "alert": "OK",
      "vis_m": 9999,
      "fzfg": false,
      "metar_trigger": false,
      "taf_trigger": false,
      "metar": "METAR EDDK 012350Z AUTO 26018G29KT 9999 -SHRA BKN019 BKN032 FEW///CB 03/01 Q0999 RESHRA TEMPO 26013KT SHRA",
      "taf": "TAF EDDK 012300Z 0200/0306 26015G25KT 9999 BKN025"
    },
    {
      "icao": "EDDN",
      "alert": "OK",
      "vis_m": 9999,
      "fzfg": false,
      "metar_trigger": false,
      "taf_trigger": false,
      "metar": "METAR EDDN 012350Z AUTO 24014KT 9999 BKN022 01/M04 Q1001",
      "taf": "TAF EDDN 012300Z 0200/0224 24015G25KT 9999 BKN020"
    },
    {
      "icao": "EDDS",
      "alert": "OK",
      "vis_m": 9999,
      "fzfg": false,
      "metar_trigger": false,
      "taf_trigger": false,
      "metar": "METAR EDDS 012350Z AUTO 21007KT 160V240 9999 SCT038 01/M06 Q1003",
      "taf": "TAF EDDS 012300Z 0200/0224 22008KT 9999 BKN030"
    },
    {
      "icao": "EDFH",
      "alert": "OK",
      "vis_m": 9999,
      "fzfg": false,
      "metar_trigger": false,
      "taf_trigger": false,
      "metar": "METAR EDFH 012320Z 25017G29KT 9999 -SN BKN005 M00/M01 Q1000",
      "taf": "TAF EDFH 012300Z 0200/0224 26015G25KT 9999 BKN010"
    },
    {
      "icao": "EDJA",
      "alert": "OK",
      "vis_m": 9999,
      "fzfg": false,
      "metar_trigger": false,
      "taf_trigger": false,
      "metar": "METAR EDJA 012320Z AUTO 23015G25KT 9999 // BKN210/// M02/M09 Q1005",
      "taf": "TAF EDJA 011700Z 0118/0203 24020G35KT CAVOK"
    },
    {
      "icao": "EDLW",
      "alert": "OK",
      "vis_m": 9999,
      "fzfg": false,
      "metar_trigger": false,
      "taf_trigger": false,
      "metar": "METAR EDLW 012320Z AUTO 24018G28KT 9999 // SCT018/// OVC022/// 03/00 Q0996",
      "taf": "TAF EDLW 011700Z 0118/0218 24015G25KT 9999 SCT012 BKN015"
    },
    {
      "icao": "EDNY",
      "alert": "OK",
      "vis_m": 9999,
      "fzfg": false,
      "metar_trigger": false,
      "taf_trigger": false,
      "metar": "METAR EDNY 012320Z AUTO 23014KT 9999 // NCD M00/M06 Q1008",
      "taf": ""
    },
    {
      "icao": "EDSB",
      "alert": "OK",
      "vis_m": 9999,
      "fzfg": false,
      "metar_trigger": false,
      "taf_trigger": false,
      "metar": "METAR EDSB 012320Z AUTO 21016KT 9999 OVC031/// 02/M05 Q1006",
      "taf": "TAF EDSB 012300Z 0200/0224 22013KT 9999 OVC030"
    },
    {
      "icao": "EETN",
      "alert": "OK",
      "vis_m": 6000,
      "fzfg": false,
      "metar_trigger": false,
      "taf_trigger": false,
      "metar": "METAR EETN 012350Z 11014KT 6000 -SN SCT023 BKN037 OVC044 M08/M10 Q0983 RESN",
      "taf": "TAF EETN 012330Z 0200/0224 12016KT 5000 SN BKN015 OVC030"
    },
    {
      "icao": "EFTU",
      "alert": "OK",
      "vis_m": 2600,
      "fzfg": false,
      "metar_trigger": false,
      "taf_trigger": false,
      "metar": "METAR EFTU 012350Z AUTO 09017KT 2600 -SN OVC009 M06/M08 Q0982",
      "taf": ""
    },
    {
      "icao": "EGBB",
      "alert": "OK",
      "vis_m": 9999,
      "fzfg": false,
      "metar_trigger": false,
      "taf_trigger": false,
      "metar": "METAR EGBB 012350Z 27006KT CAVOK 02/M01 Q1006",
      "taf": "TAF EGBB 012258Z 0200/0224 28010KT 9999 SCT030"
    },
    {
      "icao": "EGGP",
      "alert": "OK",
      "vis_m": 9999,
      "fzfg": false,
      "metar_trigger": false,
      "taf_trigger": false,
      "metar": "METAR EGGP 012350Z COR 29015KT 9999 -RA FEW022 SCT034 04/M00 Q1006",
      "taf": "TAF EGGP 012256Z 0200/0224 32012KT 9999 FEW035"
    },
    {
      "icao": "EGGW",
      "alert": "OK",
      "vis_m": 9999,
      "fzfg": false,
      "metar_trigger": false,
      "taf_trigger": false,
      "metar": "METAR EGGW 012350Z AUTO 29014KT 9999 NCD 02/M01 Q1005",
      "taf": "TAF EGGW 012304Z 0200/0224 29015KT 9999 SCT020"
    },
    {
      "icao": "EGKK",
      "alert": "OK",
      "vis_m": 9999,
      "fzfg": false,
      "metar_trigger": false,
      "taf_trigger": false,
      "metar": "METAR EGKK 012350Z 30011KT CAVOK 03/M00 Q1007",
      "taf": "TAF EGKK 012304Z 0200/0306 29011KT 9999 FEW030"
    },
    {
      "icao": "EGNM",
      "alert": "OK",
      "vis_m": 9999,
      "fzfg": false,
      "metar_trigger": false,
      "taf_trigger": false,
      "metar": "METAR EGNM 012250Z 28018KT CAVOK 01/M04 Q1003",
      "taf": "TAF EGNM 012255Z 0200/0224 29015KT 9999 FEW030"
    },
    {
      "icao": "EGPD",
      "alert": "OK",
      "vis_m": 9999,
      "fzfg": false,
      "metar_trigger": false,
      "taf_trigger": false,
      "metar": "METAR EGPD 012350Z AUTO 31022G32KT 9999 NCD 00/M03 Q1000",
      "taf": "TAF EGPD 012252Z 0200/0224 31015KT 9999 SCT012"
    },
    {
      "icao": "EGPF",
      "alert": "OK",
      "vis_m": 9999,
      "fzfg": false,
      "metar_trigger": false,
      "taf_trigger": false,
      "metar": "METAR EGPF 012350Z AUTO 29007KT 9999 NCD 01/M02 Q1005",
      "taf": "TAF EGPF 012300Z 0200/0224 29010KT 9999 FEW035"
    },
    {
      "icao": "EHBK",
      "alert": "OK",
      "vis_m": 8000,
      "fzfg": false,
      "metar_trigger": false,
      "taf_trigger": false,
      "metar": "METAR EHBK 012325Z AUTO 25012G24KT 210V310 8000 -SHRA FEW011/// BKN016/// OVC020/// 03/01 Q1000 REDZ",
      "taf": "TAF EHBK 012316Z 0200/0306 25013KT 9999 SCT022"
    },
    {
      "icao": "EHEH",
      "alert": "OK",
      "vis_m": 9999,
      "fzfg": false,
      "metar_trigger": false,
      "taf_trigger": false,
      "metar": "METAR EHEH 012325Z AUTO 24010KT 210V290 9999 BKN028 BKN031 OVC170 03/00 Q0999 BLU",
      "taf": ""
    },
    {
      "icao": "EKBI",
      "alert": "OK",
      "vis_m": 9999,
      "fzfg": false,
      "metar_trigger": false,
      "taf_trigger": false,
      "metar": "METAR EKBI 012350Z 27014KT 9999 BKN010 FEW020CB 04/03 Q0974",
      "taf": "TAF EKBI 012327Z 0200/0224 26014KT 9999 FEW010 BKN015"
    },
    {
      "icao": "EKCH",
      "alert": "OK",
      "vis_m": 9999,
      "fzfg": false,
      "metar_trigger": false,
      "taf_trigger": false,
      "metar": "METAR EKCH 012351Z 22019KT 9999 FEW022 03/00 Q0976 TEMPO 23018G28KT 3000 SHRAGS BKN006 SCT015CB",
      "taf": "TAF EKCH 012342Z 0200/0224 25015KT 9999 FEW020"
    },
    {
      "icao": "ENAL",
      "alert": "OK",
      "vis_m": 9999,
      "fzfg": false,
      "metar_trigger": false,
      "taf_trigger": false,
      "metar": "METAR ENAL 012320Z AUTO 05024G34KT 9999 -SN OVC022/// M01/M05 Q0991",
      "taf": "TAF ENAL 012300Z 0200/0209 05025KT 9999 FEW010 SCT025"
    },
    {
      "icao": "ENBR",
      "alert": "OK",
      "vis_m": 9999,
      "fzfg": false,
      "metar_trigger": false,
      "taf_trigger": false,
      "metar": "METAR ENBR 012320Z 35012KT CAVOK 00/M05 Q0983 RMK WIND 1200FT 36017KT",
      "taf": "TAF ENBR 012300Z 0200/0224 36012KT CAVOK"
    },
    {
      "icao": "ENGM",
      "alert": "OK",
      "vis_m": 3500,
      "fzfg": false,
      "metar_trigger": false,
      "taf_trigger": false,
      "metar": "METAR ENGM 012320Z 01018KT 3500 -SN FEW014 SCT016 OVC040 M03/M05 Q0976",
      "taf": "TAF ENGM 012300Z 0200/0224 36018KT 7000 -SN BKN020"
    },
    {
      "icao": "ENHD",
      "alert": "OK",
      "vis_m": 9999,
      "fzfg": false,
      "metar_trigger": false,
      "taf_trigger": false,
      "metar": "METAR ENHD 012320Z AUTO 36023KT 9999 NCD 03/M02 Q0981",
      "taf": "TAF ENHD 011400Z 0115/0123 34020KT 9999 FEW020 SCT040"
    },
    {
      "icao": "ENTC",
      "alert": "OK",
      "vis_m": 9999,
      "fzfg": false,
      "metar_trigger": false,
      "taf_trigger": false,
      "metar": "METAR ENTC 012320Z 25010KT 200V270 9999 FEW014 M10/M12 Q1000 RMK WIND 2600FT 21008KT",
      "taf": "TAF ENTC 012300Z 0200/0224 21012KT 9999 SCT040 BKN050"
    },
    {
      "icao": "ENTO",
      "alert": "OK",
      "vis_m": 9999,
      "fzfg": false,
      "metar_trigger": false,
      "taf_trigger": false,
      "metar": "METAR ENTO 012320Z AUTO 35015KT 9999 -SN OVC022/// M01/M05 Q0975",
      "taf": "TAF ENTO 012300Z 0200/0224 35018KT 9999 BKN025"
    },
    {
      "icao": "ENVA",
      "alert": "OK",
      "vis_m": 8000,
      "fzfg": false,
      "metar_trigger": false,
      "taf_trigger": false,
      "metar": "METAR ENVA 012320Z 07008KT 8000 -SN BKN031 M04/M07 Q0990 RMK WIND 670FT 07010KT",
      "taf": "TAF ENVA 012300Z 0200/0224 08008KT 8000 -SN FEW010 BKN025"
    },
    {
      "icao": "ENZV",
      "alert": "OK",
      "vis_m": 9999,
      "fzfg": false,
      "metar_trigger": false,
      "taf_trigger": false,
      "metar": "METAR ENZV 012320Z 35017KT CAVOK 03/M01 Q0981",
      "taf": "TAF ENZV 012300Z 0200/0224 36015KT CAVOK"
    },
    {
      "icao": "EPGD",
      "alert": "OK",
      "vis_m": 9999,
      "fzfg": false,
      "metar_trigger": false,
      "taf_trigger": false,
      "metar": "METAR EPGD 012330Z 23016KT 9999 BKN011 01/M00 Q0981",
      "taf": "TAF EPGD 012330Z 0200/0224 22015KT 9999 BKN016"
    },
    {
      "icao": "EPKK",
      "alert": "OK",
      "vis_m": 9999,
      "fzfg": false,
      "metar_trigger": false,
      "taf_trigger": false,
      "metar": "METAR EPKK 012330Z 24011KT 9999 BKN036 02/M05 Q0997",
      "taf": "TAF EPKK 012330Z 0200/0224 23012KT 9999 BKN040"
    },
    {
      "icao": "EPKT",
      "alert": "OK",
      "vis_m": 9999,
      "fzfg": false,
      "metar_trigger": false,
      "taf_trigger": false,
      "metar": "METAR EPKT 012330Z 22016KT 9999 OVC031 01/M05 Q0996",
      "taf": "TAF EPKT 012330Z 0200/0224 23012KT 9999 BKN030"
    },
    {
      "icao": "EPLB",
      "alert": "OK",
      "vis_m": 9999,
      "fzfg": false,
      "metar_trigger": false,
      "taf_trigger": false,
      "metar": "METAR EPLB 012330Z 23017KT 9999 BKN040 OVC045 01/M03 Q0995",
      "taf": "TAF EPLB 012330Z 0200/0224 22014KT 9999 BKN030"
    },
    {
      "icao": "EPMO",
      "alert": "OK",
      "vis_m": 9999,
      "fzfg": false,
      "metar_trigger": false,
      "taf_trigger": false,
      "metar": "METAR EPMO 012330Z 22016KT 9999 BKN026 02/M01 Q0990",
      "taf": "TAF EPMO 012330Z 0200/0224 23014KT 9999 BKN020"
    },
    {
      "icao": "EPPO",
      "alert": "OK",
      "vis_m": 9999,
      "fzfg": false,
      "metar_trigger": false,
      "taf_trigger": false,
      "metar": "METAR EPPO 012330Z 24014G24KT 9999 BKN022 03/M02 Q0989",
      "taf": "TAF EPPO 012330Z 0200/0224 24013KT 9999 BKN025"
    },
    {
      "icao": "EPRA",
      "alert": "OK",
      "vis_m": 9999,
      "fzfg": false,
      "metar_trigger": false,
      "taf_trigger": false,
      "metar": "METAR EPRA 012330Z 24016KT 9999 BKN035 01/M03 Q0994",
      "taf": "TAF EPRA 012330Z 0200/0209 22015KT 9999 BKN040"
    },
    {
      "icao": "EPRZ",
      "alert": "OK",
      "vis_m": 9999,
      "fzfg": false,
      "metar_trigger": false,
      "taf_trigger": false,
      "metar": "METAR EPRZ 012330Z 20018G29KT CAVOK 00/M04 Q0998",
      "taf": "TAF EPRZ 012330Z 0200/0224 20012KT 9999 BKN040"
    },
    {
      "icao": "EPSC",
      "alert": "OK",
      "vis_m": 9999,
      "fzfg": false,
      "metar_trigger": false,
      "taf_trigger": false,
      "metar": "METAR EPSC 012330Z 22009KT 180V240 9999 -SHRA FEW010 BKN013TCU BKN016 02/01 Q0985",
      "taf": "TAF EPSC 012330Z 0200/0224 22012KT 9999 BKN016"
    },
    {
      "icao": "EPSY",
      "alert": "OK",
      "vis_m": 5000,
      "fzfg": false,
      "metar_trigger": false,
      "taf_trigger": false,
      "metar": "METAR EPSY 012330Z 22014KT 5000 -RASN BR FEW002 OVC006 00/M00 Q0986",
      "taf": "TAF EPSY 012030Z 0121/0206 22014KT 4000 -SNRA BR OVC005"
    },
    {
      "icao": "EPWA",
      "alert": "OK",
      "vis_m": 9999,
      "fzfg": false,
      "metar_trigger": false,
      "taf_trigger": false,
      "metar": "METAR EPWA 012330Z 22014KT 9999 -SN FEW028 02/M02 Q0991 NOSIG",
      "taf": "TAF EPWA 012330Z 0200/0224 23014KT 9999 BKN020"
    },
    {
      "icao": "EPWR",
      "alert": "OK",
      "vis_m": 9999,
      "fzfg": false,
      "metar_trigger": false,
      "taf_trigger": false,
      "metar": "METAR EPWR 012330Z 24013KT 200V260 9999 FEW039 SCT045 02/M02 Q0994",
      "taf": "TAF EPWR 012330Z 0200/0224 23012KT 9999 FEW030 OVC040"
    },
    {
      "icao": "ESGG",
      "alert": "OK",
      "vis_m": 2600,
      "fzfg": false,
      "metar_trigger": false,
      "taf_trigger": false,
      "metar": "METAR ESGG 012350Z 02010KT 2600 -SN BKN005 OVC011 M01/M02 Q0972",
      "taf": "TAF ESGG 012330Z 0200/0224 02008KT 7000 -SN BKN017"
    },
    {
      "icao": "ESKN",
      "alert": "OK",
      "vis_m": 3200,
      "fzfg": false,
      "metar_trigger": false,
      "taf_trigger": false,
      "metar": "METAR ESKN 012350Z 34003KT 3200 -SN BR SCT002 BKN012 M00/M01 Q0973",
      "taf": ""
    },
    {
      "icao": "ESMS",
      "alert": "OK",
      "vis_m": 9999,
      "fzfg": false,
      "metar_trigger": false,
      "taf_trigger": false,
      "metar": "METAR ESMS 012350Z AUTO 22017KT 9999 FEW013/// BKN019/// 03/01 Q0977",
      "taf": "TAF ESMS 012327Z 0200/0224 24015KT 9999 FEW017"
    },
    {
      "icao": "ESSA",
      "alert": "OK",
      "vis_m": 550,
      "fzfg": false,
      "metar_trigger": false,
      "taf_trigger": false,
      "metar": "METAR ESSA 012350Z 04012KT 0550 R01L/P2000N R19R/P2000N R01R/P2000N R19L/P2000N SN BKN006 M01/M01 Q0974 TEMPO 2000 SN",
      "taf": ""
    },
    {
      "icao": "EYKA",
      "alert": "OK",
      "vis_m": 2300,
      "fzfg": false,
      "metar_trigger": false,
      "taf_trigger": false,
      "metar": "METAR EYKA 012350Z 21008KT 130V250 2300 -SNRA BR OVC006 M00/M01 Q0984",
      "taf": "TAF EYKA 012313Z 0200/0224 21012KT 5000 SNRA BR OVC010"
    },
    {
      "icao": "EYPA",
      "alert": "OK",
      "vis_m": 9999,
      "fzfg": false,
      "metar_trigger": false,
      "taf_trigger": false,
      "metar": "METAR EYPA 012350Z AUTO 24007KT 190V290 9999 -SHSN FEW010/// BKN015/// BKN025/// 02/01 Q0979",
      "taf": "TAF EYPA 012310Z 0200/0224 23009G19KT 5000 SHRASN SCT010 SCT012CB BKN015"
    },
    {
      "icao": "EYVI",
      "alert": "OK",
      "vis_m": 1000,
      "fzfg": false,
      "metar_trigger": false,
      "taf_trigger": false,
      "metar": "METAR EYVI 012350Z 17011KT 1000 R19/P2000N SN OVC005 M02/M03 Q0985 TEMPO 0600 +SN OVC002",
      "taf": "TAF EYVI 012326Z 0200/0224 19013KT 1500 SN OVC005"
    },
    {
      "icao": "GCFV",
      "alert": "OK",
      "vis_m": 9999,
      "fzfg": false,
      "metar_trigger": false,
      "taf_trigger": false,
      "metar": "METAR GCFV 012330Z AUTO 22014G24KT 9999 FEW021 20/16 Q1009",
      "taf": "TAF GCFV 012000Z 0121/0221 20012KT 9999 FEW025 TX23/0214Z TN17/0206Z"
    },
    {
      "icao": "GCLP",
      "alert": "OK",
      "vis_m": 9999,
      "fzfg": false,
      "metar_trigger": false,
      "taf_trigger": false,
      "metar": "METAR GCLP 012330Z 21015KT 9999 FEW040 19/15 Q1009 NOSIG",
      "taf": "TAF GCLP 012000Z 0121/0221 20013KT 9999 SCT030 BKN040 TX23/0214Z TN17/0206Z"
    },
    {
      "icao": "GCTS",
      "alert": "OK",
      "vis_m": 9999,
      "fzfg": false,
      "metar_trigger": false,
      "taf_trigger": false,
      "metar": "METAR GCTS 012330Z 26012KT 9999 SCT025 18/16 Q1009 NOSIG",
      "taf": "TAF GCTS 012000Z 0121/0221 27012KT 9999 SCT015 BKN040 TX25/0214Z TN18/0206Z"
    },
    {
      "icao": "GMAD",
      "alert": "OK",
      "vis_m": 9999,
      "fzfg": false,
      "metar_trigger": false,
      "taf_trigger": false,
      "metar": "METAR GMAD 012330Z 03007KT CAVOK 16/09 Q1011 NOSIG",
      "taf": "TAF GMAD 012300Z 0200/0306 07006KT CAVOK"
    },
    {
      "icao": "GMMN",
      "alert": "OK",
      "vis_m": 9999,
      "fzfg": false,
      "metar_trigger": false,
      "taf_trigger": false,
      "metar": "METAR GMMN 012330Z 13005KT CAVOK 12/09 Q1010 NOSIG",
      "taf": "TAF GMMN 012300Z 0200/0306 14006KT CAVOK"
    },
    {
      "icao": "GMMX",
      "alert": "OK",
      "vis_m": 9999,
      "fzfg": false,
      "metar_trigger": false,
      "taf_trigger": false,
      "metar": "METAR GMMX 012330Z 20015KT CAVOK 20/05 Q1010 NOSIG",
      "taf": "TAF GMMX 012300Z 0200/0306 08010KT 8000 NSC TEMP 0200/0223 34018G40KT"
    },
    {
      "icao": "HEGN",
      "alert": "OK",
      "vis_m": 9999,
      "fzfg": false,
      "metar_trigger": false,
      "taf_trigger": false,
      "metar": "METAR HEGN 012300Z 29006KT CAVOK 16/05 Q1018 NOSIG",
      "taf": "TAF HEGN 012300Z 0200/0306 29008KT CAVOK"
    },
    {
      "icao": "HEMA",
      "alert": "OK",
      "vis_m": 9999,
      "fzfg": false,
      "metar_trigger": false,
      "taf_trigger": false,
      "metar": "METAR HEMA 012300Z 29008KT CAVOK 18/10 Q1016 NOSIG",
      "taf": "TAF HEMA 012300Z 0200/0306 26008KT CAVOK"
    },
    {
      "icao": "HESH",
      "alert": "OK",
      "vis_m": 9999,
      "fzfg": false,
      "metar_trigger": false,
      "taf_trigger": false,
      "metar": "METAR HESH 012300Z 25003KT CAVOK 19/M02 Q1016 NOSIG",
      "taf": "TAF HESH 012300Z 0200/0306 31008KT CAVOK"
    },
    {
      "icao": "HESX",
      "alert": "OK",
      "vis_m": 9999,
      "fzfg": false,
      "metar_trigger": false,
      "taf_trigger": false,
      "metar": "METAR HESX 012300Z 21004KT CAVOK 11/04 Q1018 NOSIG",
      "taf": "TAF HESX 012300Z 0200/0306 27008KT 6000 FEW025"
    },
    {
      "icao": "LATI",
      "alert": "OK",
      "vis_m": 9999,
      "fzfg": false,
      "metar_trigger": false,
      "taf_trigger": false,
      "metar": "METAR LATI 012350Z 18006KT CAVOK M02/M09 Q1021 NOSIG",
      "taf": "TAF LATI 012300Z 0200/0224 VRB05KT CAVOK TX11/0212Z TNM00/0203Z"
    },
    {
      "icao": "LBPD",
      "alert": "OK",
      "vis_m": 9999,
      "fzfg": false,
      "metar_trigger": false,
      "taf_trigger": false,
      "metar": "METAR LBPD 012330Z AUTO 00000KT 9999 NCD M06/M09 Q1019",
      "taf": "TAF LBPD 012300Z 0200/0224 VRB03KT 9999 SCT070"
    },
    {
      "icao": "LBSF",
      "alert": "OK",
      "vis_m": 9999,
      "fzfg": false,
      "metar_trigger": false,
      "taf_trigger": false,
      "metar": "METAR LBSF 012330Z AUTO VRB02KT 9999 NCD M09/M11 Q1017 NOSIG",
      "taf": "TAF LBSF 012300Z 0200/0224 VRB03KT 9999 SCT040"
    },
    {
      "icao": "LBWN",
      "alert": "OK",
      "vis_m": 9999,
      "fzfg": false,
      "metar_trigger": false,
      "taf_trigger": false,
      "metar": "METAR LBWN 012330Z AUTO 01004KT 9999 NCD M05/M10 Q1018 NOSIG",
      "taf": "TAF LBWN 012300Z 0200/0224 VRB03KT CAVOK"
    },
    {
      "icao": "LCLK",
      "alert": "OK",
      "vis_m": 9999,
      "fzfg": false,
      "metar_trigger": false,
      "taf_trigger": false,
      "metar": "METAR LCLK 012330Z 36008KT 9999 SCT040 08/03 Q1017 NOSIG",
      "taf": "TAF LCLK 012330Z 0200/0300 35009KT 9999 FEW030 SCT040"
    },
    {
      "icao": "LCPH",
      "alert": "OK",
      "vis_m": 9999,
      "fzfg": false,
      "metar_trigger": false,
      "taf_trigger": false,
      "metar": "METAR LCPH 012330Z 02005KT 010V080 9999 BKN050 09/02 Q1017 NOSIG",
      "taf": "TAF LCPH 012330Z 0200/0300 06008KT 9999 FEW030 SCT050"
    },
    {
      "icao": "LEAL",
      "alert": "OK",
      "vis_m": 9999,
      "fzfg": false,
      "metar_trigger": false,
      "taf_trigger": false,
      "metar": "METAR LEAL 012330Z 27004KT CAVOK 11/09 Q1016 NOSIG",
      "taf": "TAF LEAL 012300Z 0200/0224 26004KT 9999 FEW030 TX16/0214Z TN08/0206Z"
    },
    {
      "icao": "LEBB",
      "alert": "OK",
      "vis_m": 9999,
      "fzfg": false,
      "metar_trigger": false,
      "taf_trigger": false,
      "metar": "METAR LEBB 012330Z AUTO 10006KT CAVOK 06/02 Q1012",
      "taf": "TAF LEBB 012300Z 0200/0224 12006KT 9999 FEW070 TX12/0214Z TN05/0200Z"
    },
    {
      "icao": "LEBL",
      "alert": "OK",
      "vis_m": 9999,
      "fzfg": false,
      "metar_trigger": false,
      "taf_trigger": false,
      "metar": "METAR LEBL 012330Z 34007KT CAVOK 07/03 Q1014 NOSIG",
      "taf": "TAF LEBL 012300Z 0200/0224 34006KT 9999 FEW015 TX15/0212Z TN05/0206Z"
    },
    {
      "icao": "LECH",
      "alert": "OK",
      "vis_m": 4900,
      "fzfg": false,
      "metar_trigger": false,
      "taf_trigger": false,
      "metar": "METAR LECH 012330Z AUTO VRB01KT 4900 BR NSC 05/04 Q1014",
      "taf": ""
    },
    {
      "icao": "LEMD",
      "alert": "OK",
      "vis_m": 9000,
      "fzfg": false,
      "metar_trigger": false,
      "taf_trigger": false,
      "metar": "METAR LEMD 012330Z 36003KT 300V040 9000 OVC025 04/03 Q1015 NOSIG",
      "taf": "TAF LEMD 012300Z 0200/0306 VRB03KT 9999 SCT025 TX11/0215Z TN04/0208Z"
    },
    {
      "icao": "LEMG",
      "alert": "OK",
      "vis_m": 9999,
      "fzfg": false,
      "metar_trigger": false,
      "taf_trigger": false,
      "metar": "METAR LEMG 012330Z 09004KT 9999 FEW025 SCT035 13/11 Q1016 NOSIG",
      "taf": "TAF LEMG 012300Z 0200/0224 29004KT 9999 SCT020 TX16/0214Z TN09/0207Z"
    },
    {
      "icao": "LEVC",
      "alert": "OK",
      "vis_m": 9999,
      "fzfg": false,
      "metar_trigger": false,
      "taf_trigger": false,
      "metar": "METAR LEVC 012330Z VRB02KT CAVOK 08/06 Q1014 NOSIG",
      "taf": "TAF LEVC 012300Z 0200/0224 26006KT 9999 FEW035 TX17/0214Z TN07/0206Z"
    },
    {
      "icao": "LEXJ",
      "alert": "OK",
      "vis_m": 5000,
      "fzfg": false,
      "metar_trigger": false,
      "taf_trigger": false,
      "metar": "METAR LEXJ 012330Z AUTO 25001KT 5000 BR NSC 04/02 Q1012",
      "taf": "TAF LEXJ 012000Z 0121/0221 10007KT 9999 FEW070 TX12/0213Z TN07/0121Z"
    },
    {
      "icao": "LEZG",
      "alert": "OK",
      "vis_m": 8000,
      "fzfg": false,
      "metar_trigger": false,
      "taf_trigger": false,
      "metar": "METAR LEZG 012330Z 26003KT 8000 OVC006 03/03 Q1015 NOSIG",
      "taf": "TAF LEZG 012300Z 0200/0224 05004KT 4000 BR OVC005 TX07/0215Z TN01/0203Z"
    },
    {
      "icao": "LEZL",
      "alert": "OK",
      "vis_m": 9999,
      "fzfg": false,
      "metar_trigger": false,
      "taf_trigger": false,
      "metar": "METAR LEZL 012330Z 06005KT CAVOK 12/10 Q1012 NOSIG",
      "taf": "TAF LEZL 012000Z 0121/0221 05007KT 9999 FEW040 TX18/0215Z TN09/0207Z"
    },
    {
      "icao": "LFBD",
      "alert": "OK",
      "vis_m": 1500,
      "fzfg": true,
      "metar_trigger": false,
      "taf_trigger": false,
      "metar": "METAR LFBD 012330Z AUTO 11005KT 1500 1200 R23/P2300 R05/1600U R29/1400U BR VV/// 00/00 Q1015 TEMPO 0300 FZFG",
      "taf": "TAF LFBD 012300Z 0200/0306 VRB03KT 1500 BR OVC002 TX05/0215Z TNM03/0208Z"
    },
    {
      "icao": "LFLL",
      "alert": "OK",
      "vis_m": 4800,
      "fzfg": false,
      "metar_trigger": false,
      "taf_trigger": false,
      "metar": "METAR LFLL 012330Z 21004KT 170V230 4800 BR NSC M03/M04 Q1012 NOSIG",
      "taf": "TAF LFLL 012300Z 0200/0306 VRB03KT 6000 NSC"
    },
    {
      "icao": "LFLS",
      "alert": "OK",
      "vis_m": 9000,
      "fzfg": false,
      "metar_trigger": false,
      "taf_trigger": false,
      "metar": "METAR LFLS 012330Z AUTO 08008KT 9000 NSC M04/M05 Q1011",
      "taf": "TAF LFLS 011400Z 0115/0215 VRB03KT CAVOK"
    },
    {
      "icao": "LFMN",
      "alert": "OK",
      "vis_m": 9999,
      "fzfg": false,
      "metar_trigger": false,
      "taf_trigger": false,
      "metar": "METAR LFMN 012330Z 32012KT 9999 FEW043 SCT056 06/M01 Q1011 NOSIG",
      "taf": "TAF LFMN 012000Z 0121/0303 33010KT 9999 FEW060"
    },
    {
      "icao": "LFOB",
      "alert": "OK",
      "vis_m": 9999,
      "fzfg": false,
      "metar_trigger": false,
      "taf_trigger": false,
      "metar": "METAR LFOB 012330Z AUTO 24007KT 210V300 9999 OVC007 03/02 Q1007 NOSIG",
      "taf": "TAF LFOB 012300Z 0200/0224 24009KT 9999 BKN025"
    },
    {
      "icao": "LFPO",
      "alert": "OK",
      "vis_m": 9999,
      "fzfg": false,
      "metar_trigger": false,
      "taf_trigger": false,
      "metar": "METAR LFPO 012330Z AUTO 26009KT 9999 FEW015 SCT036 BKN042 02/01 Q1009 TEMPO BKN008",
      "taf": "TAF LFPO 012300Z 0200/0306 25010KT 9999 BKN030"
    },
    {
      "icao": "LFSB",
      "alert": "OK",
      "vis_m": 9999,
      "fzfg": false,
      "metar_trigger": false,
      "taf_trigger": false,
      "metar": "METAR LFSB 012330Z AUTO 04005KT CAVOK M04/M08 Q1010 NOSIG",
      "taf": "TAF LFSB 012300Z 0200/0224 27005KT 9999 FEW035"
    },
    {
      "icao": "LGAV",
      "alert": "OK",
      "vis_m": 9999,
      "fzfg": false,
      "metar_trigger": false,
      "taf_trigger": false,
      "metar": "METAR LGAV 012320Z 27003KT CAVOK M04/M06 Q1024 NOSIG",
      "taf": "TAF LGAV 012300Z 0200/0224 VRB05KT 9999 FEW025"
    },
    {
      "icao": "LGTS",
      "alert": "OK",
      "vis_m": 9999,
      "fzfg": false,
      "metar_trigger": false,
      "taf_trigger": false,
      "metar": "METAR LGTS 012320Z VRB02KT CAVOK M03/M07 Q1022 NOSIG",
      "taf": "TAF LGTS 012300Z 0200/0224 VRB03KT 9999 FEW030"
    },
    {
      "icao": "LHBP",
      "alert": "OK",
      "vis_m": 9999,
      "fzfg": false,
      "metar_trigger": false,
      "taf_trigger": false,
      "metar": "METAR LHBP 012330Z 15006KT CAVOK M02/M04 Q1005 NOSIG",
      "taf": "TAF LHBP 012315Z 0200/0224 16005KT CAVOK"
    },
    {
      "icao": "LHDC",
      "alert": "OK",
      "vis_m": 9999,
      "fzfg": false,
      "metar_trigger": false,
      "taf_trigger": false,
      "metar": "METAR LHDC 012315Z AUTO 19016KT 9999 BKN049 00/M04 Q1006",
      "taf": "TAF LHDC 011415Z 0115/0124 18014KT 8000 SN BKN005 BKN025"
    },
    {
      "icao": "LIBD",
      "alert": "OK",
      "vis_m": 9999,
      "fzfg": false,
      "metar_trigger": false,
      "taf_trigger": false,
      "metar": "METAR LIBD 012320Z 16004KT 130V190 CAVOK 07/M02 Q1017",
      "taf": "TAF LIBD 012300Z 0200/0224 20015KT CAVOK"
    },
    {
      "icao": "LIBG",
      "alert": "OK",
      "vis_m": null,
      "fzfg": false,
      "metar_trigger": false,
      "taf_trigger": false,
      "metar": "",
      "taf": "TAF LIBG 011700Z 0118/0203 VRB05KT CAVOK"
    },
    {
      "icao": "LIBP",
      "alert": "OK",
      "vis_m": 9999,
      "fzfg": false,
      "metar_trigger": false,
      "taf_trigger": false,
      "metar": "METAR LIBP 012320Z AUTO 23014KT 9999 NCD 13/02 Q1012",
      "taf": "TAF LIBP 012300Z 0200/0224 22020KT CAVOK"
    },
    {
      "icao": "LIBR",
      "alert": "OK",
      "vis_m": 9999,
      "fzfg": false,
      "metar_trigger": false,
      "taf_trigger": false,
      "metar": "METAR LIBR 012320Z 16007KT CAVOK 04/00 Q1019",
      "taf": "TAF LIBR 012300Z 0200/0224 20012KT CAVOK"
    },
    {
      "icao": "LICA",
      "alert": "OK",
      "vis_m": 9999,
      "fzfg": false,
      "metar_trigger": false,
      "taf_trigger": false,
      "metar": "METAR LICA 012320Z AUTO 08007KT 9999 SCT078/// BKN100/// 04/03 Q1021",
      "taf": "TAF LICA 012300Z 0200/0224 07012KT 9999 SCT050"
    },
    {
      "icao": "LICC",
      "alert": "OK",
      "vis_m": 9999,
      "fzfg": false,
      "metar_trigger": false,
      "taf_trigger": false,
      "metar": "METAR LICC 012320Z 24004KT 9999 BKN050 07/05 Q1022",
      "taf": "TAF LICC 012300Z 0200/0224 25010KT 9999 SCT030"
    },
    {
      "icao": "LICJ",
      "alert": "OK",
      "vis_m": 9999,
      "fzfg": false,
      "metar_trigger": false,
      "taf_trigger": false,
      "metar": "METAR LICJ 012320Z 19011KT CAVOK 13/09 Q1019",
      "taf": "TAF LICJ 012300Z 0200/0224 19018G30KT 9999 SCT030"
    },
    {
      "icao": "LIMC",
      "alert": "OK",
      "vis_m": 9999,
      "fzfg": false,
      "metar_trigger": false,
      "taf_trigger": false,
      "metar": "METAR LIMC 012320Z 30003KT 9999 BKN050 03/00 Q1010 NOSIG",
      "taf": "TAF LIMC 012300Z 0200/0306 VRB04KT 7000 BKN040"
    },
    {
      "icao": "LIME",
      "alert": "OK",
      "vis_m": 2000,
      "fzfg": false,
      "metar_trigger": false,
      "taf_trigger": false,
      "metar": "METAR LIME 012320Z VRB02KT 2000 -DZ BR FEW005 BKN040 01/01 Q1010 NOSIG",
      "taf": "TAF LIME 012300Z 0200/0224 VRB04KT 3000 BR BKN040"
    },
    {
      "icao": "LIMF",
      "alert": "OK",
      "vis_m": 3500,
      "fzfg": false,
      "metar_trigger": false,
      "taf_trigger": false,
      "metar": "METAR LIMF 012320Z 22003KT 3500 BR BKN035 01/M02 Q1010",
      "taf": "TAF LIMF 012300Z 0200/0224 VRB04KT 3000 BR BKN040"
    },
    {
      "icao": "LIMJ",
      "alert": "OK",
      "vis_m": 9999,
      "fzfg": false,
      "metar_trigger": false,
      "taf_trigger": false,
      "metar": "METAR LIMJ 012320Z 17009KT 140V200 9999 SCT045 12/03 Q1009",
      "taf": "TAF LIMJ 012300Z 0200/0224 VRB05KT 9999 SCT025"
    },
    {
      "icao": "LIPE",
      "alert": "OK",
      "vis_m": 3000,
      "fzfg": false,
      "metar_trigger": false,
      "taf_trigger": false,
      "metar": "METAR LIPE 012320Z 23003KT 190V260 3000 BR SCT010 BKN065 02/01 Q1011",
      "taf": "TAF LIPE 012300Z 0200/0224 VRB05KT 9999 SCT010 BKN050"
    },
    {
      "icao": "LIPH",
      "alert": "OK",
      "vis_m": 9999,
      "fzfg": false,
      "metar_trigger": false,
      "taf_trigger": false,
      "metar": "METAR LIPH 012320Z AUTO VRB01KT 9999 OVC029/// 02/M01 Q1010",
      "taf": "TAF LIPH 012300Z 0200/0224 VRB04KT 9999 OVC030"
    },
    {
      "icao": "LIPQ",
      "alert": "OK",
      "vis_m": 9999,
      "fzfg": false,
      "metar_trigger": false,
      "taf_trigger": false,
      "metar": "METAR LIPQ 012320Z AUTO 10002KT 9999 OVC027/// 04/M00 Q1010",
      "taf": "TAF LIPQ 012300Z 0200/0224 VRB05KT 9999 FEW030"
    },
    {
      "icao": "LIPR",
      "alert": "OK",
      "vis_m": 9999,
      "fzfg": false,
      "metar_trigger": false,
      "taf_trigger": false,
      "metar": "METAR LIPR 012320Z AUTO 16007KT 9999 NCD 07/03 Q1010",
      "taf": "TAF LIPR 012300Z 0200/0224 18010KT CAVOK"
    },
    {
      "icao": "LIPX",
      "alert": "OK",
      "vis_m": 6000,
      "fzfg": false,
      "metar_trigger": false,
      "taf_trigger": false,
      "metar": "METAR LIPX 012320Z 22004KT 6000 BKN060 01/00 Q1011",
      "taf": "TAF LIPX 012300Z 0200/0224 VRB04KT 6000 BKN040"
    },
    {
      "icao": "LIPY",
      "alert": "OK",
      "vis_m": 9999,
      "fzfg": false,
      "metar_trigger": false,
      "taf_trigger": false,
      "metar": "METAR LIPY 012320Z AUTO 20004KT 9999 OVC037/// 07/03 Q1012",
      "taf": "TAF LIPY 012300Z 0200/0224 VRB05KT 9999 OVC030"
    },
    {
      "icao": "LIPZ",
      "alert": "OK",
      "vis_m": 9999,
      "fzfg": false,
      "metar_trigger": false,
      "taf_trigger": false,
      "metar": "METAR LIPZ 012320Z 32003KT 290V020 9999 FEW045 BKN070 02/M02 Q1011 NOSIG",
      "taf": "TAF LIPZ 012300Z 0200/0306 VRB05KT 9999 BKN030"
    },
    {
      "icao": "LIRF",
      "alert": "OK",
      "vis_m": 9999,
      "fzfg": false,
      "metar_trigger": false,
      "taf_trigger": false,
      "metar": "METAR LIRF 012320Z 09006KT 9999 FEW050 09/08 Q1015 RERA WS R 16L NOSIG",
      "taf": "TAF LIRF 012300Z 0200/0306 14010KT 9999 BKN030"
    },
    {
      "icao": "LIRN",
      "alert": "OK",
      "vis_m": 9999,
      "fzfg": false,
      "metar_trigger": false,
      "taf_trigger": false,
      "metar": "METAR LIRN 012320Z VRB03KT 9999 FEW050 09/03 Q1017 NOSIG",
      "taf": "TAF LIRN 012300Z 0200/0224 VRB05KT 9999 SCT040"
    },
    {
      "icao": "LIRP",
      "alert": "OK",
      "vis_m": 7000,
      "fzfg": false,
      "metar_trigger": false,
      "taf_trigger": false,
      "metar": "METAR LIRP 012315Z 15006KT 7000 -RA SCT015 BKN025 05/05 Q1012 NOSIG",
      "taf": "TAF LIRP 012300Z 0200/0224 10006KT 9999 FEW040 BKN060"
    },
    {
      "icao": "LIRZ",
      "alert": "OK",
      "vis_m": 7000,
      "fzfg": false,
      "metar_trigger": false,
      "taf_trigger": false,
      "metar": "METAR LIRZ 012320Z AUTO 11003KT 7000 FEW006/// BKN018/// 04/04 Q1014",
      "taf": "TAF LIRZ 012300Z 0200/0224 19012KT 9999 BKN040"
    },
    {
      "icao": "LJLJ",
      "alert": "OK",
      "vis_m": 9999,
      "fzfg": false,
      "metar_trigger": false,
      "taf_trigger": false,
      "metar": "METAR LJLJ 012330Z 26004KT 9999 OVC028 02/M01 Q1008 NOSIG",
      "taf": "TAF LJLJ 012300Z 0200/0300 30004KT 9999 OVC030"
    },
    {
      "icao": "LKMT",
      "alert": "OK",
      "vis_m": 9999,
      "fzfg": false,
      "metar_trigger": false,
      "taf_trigger": false,
      "metar": "METAR LKMT 012330Z 22016KT 9999 OVC036 01/M05 Q0999 NOSIG",
      "taf": "TAF LKMT 012300Z 0200/0224 21018KT 9999 SCT040"
    },
    {
      "icao": "LKPR",
      "alert": "OK",
      "vis_m": 9999,
      "fzfg": false,
      "metar_trigger": false,
      "taf_trigger": false,
      "metar": "METAR LKPR 012330Z 22021KT 9999 OVC022 00/M03 Q0997 NOSIG",
      "taf": "TAF LKPR 012300Z 0200/0306 22018KT 9999 BKN020"
    },
    {
      "icao": "LLBG",
      "alert": "OK",
      "vis_m": 9999,
      "fzfg": false,
      "metar_trigger": false,
      "taf_trigger": false,
      "metar": "METAR LLBG 012350Z 18005KT 130V250 9999 -RA FEW014 BKN029 14/12 Q1017 TEMPO 6000 RA",
      "taf": "TAF LLBG 012313Z 0200/0224 17006KT 9999 BKN030"
    },
    {
      "icao": "LMML",
      "alert": "OK",
      "vis_m": 9999,
      "fzfg": false,
      "metar_trigger": false,
      "taf_trigger": false,
      "metar": "METAR LMML 012345Z 17008KT 9999 SCT018 13/11 Q1021 NOSIG",
      "taf": "TAF LMML 012300Z 0200/0224 14010KT 9999 SCT025"
    },
    {
      "icao": "LOWW",
      "alert": "OK",
      "vis_m": 9999,
      "fzfg": false,
      "metar_trigger": false,
      "taf_trigger": false,
      "metar": "METAR LOWW 012320Z 30013KT CAVOK 04/M08 Q1003 NOSIG",
      "taf": "TAF LOWW 012315Z 0200/0306 27012KT CAVOK TX05/0212Z TN00/0200Z"
    },
    {
      "icao": "LPFR",
      "alert": "OK",
      "vis_m": 9999,
      "fzfg": false,
      "metar_trigger": false,
      "taf_trigger": false,
      "metar": "METAR LPFR 012330Z 13017KT 9999 FEW010 16/15 Q1008",
      "taf": "TAF LPFR 012300Z 0200/0224 13017KT 9999 FEW010 SCT020"
    },
    {
      "icao": "LPMA",
      "alert": "OK",
      "vis_m": 9999,
      "fzfg": false,
      "metar_trigger": false,
      "taf_trigger": false,
      "metar": "METAR LPMA 012330Z 22004KT 180V260 9999 SCT013 FEW018TCU 17/12 Q1002",
      "taf": "TAF LPMA 012300Z 0200/0224 22015KT 9999 SCT013 SCT030"
    },
    {
      "icao": "LPPR",
      "alert": "OK",
      "vis_m": 9999,
      "fzfg": false,
      "metar_trigger": false,
      "taf_trigger": false,
      "metar": "METAR LPPR 012330Z 11013KT 9999 FEW036 12/08 Q1006",
      "taf": "TAF LPPR 012300Z 0200/0224 11013KT 9999 SCT040"
    },
    {
      "icao": "LPPS",
      "alert": "OK",
      "vis_m": 9999,
      "fzfg": false,
      "metar_trigger": false,
      "taf_trigger": false,
      "metar": "METAR LPPS 012330Z 22009KT 9999 FEW014 17/12 Q1002",
      "taf": "TAF LPPS 012300Z 0200/0306 27015KT 9999 SCT013 SCT030"
    },
    {
      "icao": "LPPT",
      "alert": "OK",
      "vis_m": 9999,
      "fzfg": false,
      "metar_trigger": false,
      "taf_trigger": false,
      "metar": "METAR LPPT 012330Z 13013KT 100V160 9999 BKN010 15/14 Q1005",
      "taf": "TAF LPPT 012300Z 0200/0306 14013KT 9999 SCT012 BKN025"
    },
    {
      "icao": "LQBK",
      "alert": "OK",
      "vis_m": 9999,
      "fzfg": false,
      "metar_trigger": false,
      "taf_trigger": false,
      "metar": "METAR LQBK 012330Z VRB02KT CAVOK 00/M02 Q1008 NOSIG",
      "taf": "TAF LQBK 012300Z 0200/0224 15005KT CAVOK TX12/0213Z TNM01/0200Z"
    },
    {
      "icao": "LQSA",
      "alert": "OK",
      "vis_m": 9999,
      "fzfg": false,
      "metar_trigger": false,
      "taf_trigger": false,
      "metar": "METAR LQSA 012330Z 14012KT 110V170 9999 BKN050 04/M03 Q1012",
      "taf": "TAF LQSA 012300Z 0200/0224 VRB02KT CAVOK TX08/0213Z TNM01/0200Z"
    },
    {
      "icao": "LQTZ",
      "alert": "OK",
      "vis_m": 9999,
      "fzfg": false,
      "metar_trigger": false,
      "taf_trigger": false,
      "metar": "METAR LQTZ 012330Z VRB02KT 9999 FEW050 02/M04 Q1010",
      "taf": "TAF LQTZ 012300Z 0200/0224 14005KT CAVOK TX13/0213Z TN01/0200Z"
    },
    {
      "icao": "LRBC",
      "alert": "OK",
      "vis_m": 9999,
      "fzfg": false,
      "metar_trigger": false,
      "taf_trigger": false,
      "metar": "METAR LRBC 012330Z 18011KT CAVOK M03/M09 Q1009",
      "taf": "TAF LRBC 012300Z 0200/0209 18010KT CAVOK"
    },
    {
      "icao": "LRBS",
      "alert": "OK",
      "vis_m": 9999,
      "fzfg": false,
      "metar_trigger": false,
      "taf_trigger": false,
      "metar": "METAR LRBS 012330Z 28003KT CAVOK M04/M08 Q1016 NOSIG",
      "taf": "TAF LRBS 012300Z 0200/0224 25006KT CAVOK"
    },
    {
      "icao": "LRBV",
      "alert": "OK",
      "vis_m": 5000,
      "fzfg": false,
      "metar_trigger": false,
      "taf_trigger": false,
      "metar": "METAR LRBV 012330Z AUTO VRB02KT 5000 BR NCD M10/M12 Q1011",
      "taf": "TAF LRBV 012000Z 0121/0206 VRB04KT 9999 SCT035 BKN050"
    },
    {
      "icao": "LRCL",
      "alert": "OK",
      "vis_m": 9999,
      "fzfg": false,
      "metar_trigger": false,
      "taf_trigger": false,
      "metar": "METAR LRCL 012330Z VRB02KT 9999 OVC061 M03/M05 Q1009",
      "taf": "TAF LRCL 012300Z 0200/0209 VRB04KT 9999 BKN055"
    },
    {
      "icao": "LRCV",
      "alert": "OK",
      "vis_m": 9999,
      "fzfg": false,
      "metar_trigger": false,
      "taf_trigger": false,
      "metar": "METAR LRCV 012330Z 07004KT CAVOK M07/M08 Q1015",
      "taf": "TAF LRCV 012300Z 0200/0209 VRB04KT CAVOK"
    },
    {
      "icao": "LRIA",
      "alert": "OK",
      "vis_m": 9999,
      "fzfg": false,
      "metar_trigger": false,
      "taf_trigger": false,
      "metar": "METAR LRIA 012330Z 17006KT CAVOK M01/M07 Q1009",
      "taf": "TAF LRIA 012300Z 0200/0209 18010KT CAVOK"
    },
    {
      "icao": "LROP",
      "alert": "OK",
      "vis_m": 9999,
      "fzfg": false,
      "metar_trigger": false,
      "taf_trigger": false,
      "metar": "METAR LROP 012330Z 22006KT CAVOK M06/M10 Q1016 NOSIG",
      "taf": "TAF LROP 012300Z 0200/0224 25006KT CAVOK"
    },
    {
      "icao": "LRSB",
      "alert": "OK",
      "vis_m": 9999,
      "fzfg": false,
      "metar_trigger": false,
      "taf_trigger": false,
      "metar": "METAR LRSB 012330Z VRB01KT 9999 SCT060 M09/M10 Q1010",
      "taf": "TAF LRSB 012300Z 0200/0224 VRB04KT 9999 BKN045"
    },
    {
      "icao": "LRSM",
      "alert": "OK",
      "vis_m": 9999,
      "fzfg": false,
      "metar_trigger": false,
      "taf_trigger": false,
      "metar": "METAR LRSM 012330Z AUTO 18014KT 9999 OVC050/// 02/M05 Q1006",
      "taf": ""
    },
    {
      "icao": "LRSV",
      "alert": "OK",
      "vis_m": 9999,
      "fzfg": false,
      "metar_trigger": false,
      "taf_trigger": false,
      "metar": "METAR LRSV 012330Z 23012KT CAVOK M00/M06 Q1003",
      "taf": "TAF LRSV 012300Z 0200/0209 22012KT CAVOK"
    },
    {
      "icao": "LRTM",
      "alert": "OK",
      "vis_m": 9999,
      "fzfg": false,
      "metar_trigger": false,
      "taf_trigger": false,
      "metar": "METAR LRTM 012330Z AUTO VRB02KT 9999 BKN060/// M02/M05 Q1011",
      "taf": "TAF LRTM 011400Z 0115/0124 21006KT 9999 BKN035"
    },
    {
      "icao": "LRTR",
      "alert": "OK",
      "vis_m": 9999,
      "fzfg": false,
      "metar_trigger": false,
      "taf_trigger": false,
      "metar": "METAR LRTR 012330Z 18013KT CAVOK 02/M07 Q1010 NOSIG",
      "taf": "TAF LRTR 012300Z 0200/0224 18014KT 9999 BKN045"
    },
    {
      "icao": "LTAC",
      "alert": "OK",
      "vis_m": 9999,
      "fzfg": false,
      "metar_trigger": false,
      "taf_trigger": false,
      "metar": "METAR LTAC 012320Z 36003KT CAVOK M12/M15 Q1020 NOSIG RMK RWY21C 33003KT RWY03L 35003KT RWY21R 32003KT 280V340 RWY03R VRB01KT RWY21L VRB02KT",
      "taf": "TAF LTAC 012240Z 0200/0224 VRB02KT CAVOK"
    },
    {
      "icao": "LTFM",
      "alert": "OK",
      "vis_m": 9999,
      "fzfg": false,
      "metar_trigger": false,
      "taf_trigger": false,
      "metar": "METAR LTFM 012320Z 18008KT CAVOK M03/M07 Q1022 NOSIG RMK RWY17L 21009KT RWY34L 21010KT RWY16R 21007KT RWY36 21007KT RWY18 21012KT",
      "taf": "TAF LTFM 012240Z 0200/0306 20008KT CAVOK"
    },
    {
      "icao": "LUKK",
      "alert": "OK",
      "vis_m": 9999,
      "fzfg": false,
      "metar_trigger": false,
      "taf_trigger": false,
      "metar": "METAR LUKK 012330Z 22010KT CAVOK M04/M09 Q1010 NOSIG",
      "taf": "TAF LUKK 012315Z 0200/0224 21010KT CAVOK"
    },
    {
      "icao": "LWOH",
      "alert": "OK",
      "vis_m": null,
      "fzfg": false,
      "metar_trigger": false,
      "taf_trigger": false,
      "metar": "",
      "taf": "TAF LWOH 012310Z 0200/0224 VRB03KT CAVOK"
    },
    {
      "icao": "LWSK",
      "alert": "OK",
      "vis_m": 9999,
      "fzfg": false,
      "metar_trigger": false,
      "taf_trigger": false,
      "metar": "METAR LWSK 012350Z VRB02KT CAVOK M09/M12 Q1021 NOSIG",
      "taf": "TAF LWSK 012310Z 0200/0224 VRB02KT CAVOK"
    },
    {
      "icao": "LYBE",
      "alert": "OK",
      "vis_m": 9999,
      "fzfg": false,
      "metar_trigger": false,
      "taf_trigger": false,
      "metar": "METAR LYBE 012330Z 17013KT CAVOK 05/M06 Q1011 NOSIG",
      "taf": "TAF LYBE 012300Z 0200/0224 17010KT CAVOK TX11/0212Z TN03/0200Z"
    },
    {
      "icao": "LYNI",
      "alert": "OK",
      "vis_m": 9999,
      "fzfg": false,
      "metar_trigger": false,
      "taf_trigger": false,
      "metar": "METAR LYNI 012330Z 12003KT 080V160 CAVOK M04/M10 Q1017 NOSIG",
      "taf": "TAF LYNI 012300Z 0200/0224 18007KT CAVOK TX09/0212Z TNM05/0200Z"
    },
    {
      "icao": "LYPG",
      "alert": "OK",
      "vis_m": 9999,
      "fzfg": false,
      "metar_trigger": false,
      "taf_trigger": false,
      "metar": "METAR LYPG 012330Z 09003KT 9999 SCT050 M03/M07 Q1022 NOSIG",
      "taf": "TAF LYPG 012300Z 0200/0224 36006KT 9999 FEW030 BKN040 TX06/0218Z TNM02/0200Z"
    },
    {
      "icao": "LZIB",
      "alert": "OK",
      "vis_m": 9999,
      "fzfg": false,
      "metar_trigger": false,
      "taf_trigger": false,
      "metar": "METAR LZIB 012330Z 22011KT CAVOK 01/M05 Q1003 NOSIG",
      "taf": "TAF LZIB 012315Z 0200/0300 27015KT CAVOK"
    },
    {
      "icao": "LZKZ",
      "alert": "OK",
      "vis_m": 9999,
      "fzfg": false,
      "metar_trigger": false,
      "taf_trigger": false,
      "metar": "METAR LZKZ 012330Z 21009KT 9999 FEW013 SCT032 M02/M04 Q1003 NOSIG",
      "taf": "TAF LZKZ 012315Z 0200/0300 22009KT 9999 FEW013 SCT030"
    },
    {
      "icao": "LZTT",
      "alert": "OK",
      "vis_m": 9999,
      "fzfg": false,
      "metar_trigger": false,
      "taf_trigger": false,
      "metar": "METAR LZTT 012330Z 25012KT 9999 SCT053 M01/M07 Q0997",
      "taf": "TAF LZTT 012315Z 0200/0300 26015KT 9999 SCT050"
    },
    {
      "icao": "OEJN",
      "alert": "OK",
      "vis_m": 9999,
      "fzfg": false,
      "metar_trigger": false,
      "taf_trigger": false,
      "metar": "METAR OEJN 012300Z 36004KT CAVOK 22/11 Q1015 NOSIG",
      "taf": "TAF OEJN 012300Z 0200/0306 02006KT CAVOK"
    },
    {
      "icao": "OEMA",
      "alert": "OK",
      "vis_m": 9999,
      "fzfg": false,
      "metar_trigger": false,
      "taf_trigger": false,
      "metar": "METAR OEMA 012300Z 04003KT CAVOK 15/M03 Q1019 NOSIG",
      "taf": "TAF OEMA 012300Z 0200/0306 VRB03KT CAVOK"
    },
    {
      "icao": "OJAI",
      "alert": "OK",
      "vis_m": 2500,
      "fzfg": false,
      "metar_trigger": false,
      "taf_trigger": false,
      "metar": "METAR OJAI 012300Z 26023KT 2500 -RA BKN040 09/08 Q1016 NOSIG",
      "taf": ""
    },
    {
      "icao": "OMAA",
      "alert": "OK",
      "vis_m": 9999,
      "fzfg": false,
      "metar_trigger": false,
      "taf_trigger": false,
      "metar": "METAR OMAA 012300Z 18003KT CAVOK 17/14 Q1017 NOSIG",
      "taf": "TAF OMAA 012300Z 0200/0306 VRB02KT 8000 FEW035"
    },
    {
      "icao": "OMDB",
      "alert": "OK",
      "vis_m": 9999,
      "fzfg": false,
      "metar_trigger": false,
      "taf_trigger": false,
      "metar": "METAR OMDB 012300Z 18005KT 100V240 CAVOK 17/10 Q1018 NOSIG",
      "taf": "TAF OMDB 012300Z 0200/0306 16005KT 8000 NSC"
    },
    {
      "icao": "UAAA",
      "alert": "OK",
      "vis_m": 2800,
      "fzfg": false,
      "metar_trigger": false,
      "taf_trigger": false,
      "metar": "METAR UAAA 012330Z 22002MPS 2800 BR OVC006 M00/M01 Q1020 NOSIG RMK QBB180",
      "taf": "TAF UAAA 012300Z 0200/0224 32003MPS 1200 BR BKN004 OVC011 TX02/0209Z TNM03/0202Z"
    },
    {
      "icao": "UBBB",
      "alert": "OK",
      "vis_m": 9999,
      "fzfg": false,
      "metar_trigger": false,
      "taf_trigger": false,
      "metar": "METAR UBBB 012330Z 33018KT 9999 BKN021 05/01 Q1014 NOSIG",
      "taf": "TAF UBBB 012314Z 0200/0224 32022G32KT 9999 BKN025 TX04/0210Z TN02/0203Z"
    },
    {
      "icao": "UDSG",
      "alert": "OK",
      "vis_m": 9999,
      "fzfg": false,
      "metar_trigger": false,
      "taf_trigger": false,
      "metar": "METAR UDSG 012330Z 01009KT 9999 -SN OVC026 M05/M08 Q1010 NOSIG",
      "taf": "TAF UDSG 012300Z 0200/0224 36006KT 1500 BR OVC020"
    },
    {
      "icao": "UDYZ",
      "alert": "OK",
      "vis_m": 2800,
      "fzfg": false,
      "metar_trigger": false,
      "taf_trigger": false,
      "metar": "METAR UDYZ 012330Z 17005KT 2800 -SHSN BR OVC027CB M00/M01 Q1009 NOSIG",
      "taf": "TAF UDYZ 012300Z 0200/0224 32006KT 2000 BR BKN030"
    },
    {
      "icao": "UGKO",
      "alert": "OK",
      "vis_m": 9999,
      "fzfg": false,
      "metar_trigger": false,
      "taf_trigger": false,
      "metar": "METAR UGKO 012330Z 23018G28KT 9999 BKN048 03/M01 Q1017 NOSIG",
      "taf": "TAF UGKO 012300Z 0200/0224 24010KT 9999 BKN050 TX03/0200Z TNM03/0204Z"
    }
  ]
}