{
  "ts_utc": "2026-01-31T23:55:24Z",
  "threshold_m": 150,
  "source": "stations_override.txt (ICAO list) + aviationweather.gov (METAR/TAF raw)",
  "station_count": 159,
  "stations": [
    {
      "icao": "BIKF",
      "alert": "OK",
      "vis_m": 9999,
      "fzfg": false,
      "metar_trigger": false,
      "taf_trigger": false,
      "metar": "METAR BIKF 312330Z 06008KT CAVOK M01/M03 Q1000",
      "taf": "TAF BIKF 312231Z 0100/0200 08013KT 9999 SCT035 TX04/0115Z TNM00/0100Z"
    },
    {
      "icao": "BKPR",
      "alert": "OK",
      "vis_m": 9999,
      "fzfg": false,
      "metar_trigger": false,
      "taf_trigger": false,
      "metar": "METAR BKPR 312330Z 01004KT 9999 BKN065 04/03 Q1006 NOSIG",
      "taf": "TAF BKPR 312330Z 0100/0124 01008KT 9999 SCT012 BKN040"
    },
    {
      "icao": "EBCI",
      "alert": "OK",
      "vis_m": 9999,
      "fzfg": false,
      "metar_trigger": false,
      "taf_trigger": false,
      "metar": "METAR EBCI 312320Z 16005KT CAVOK 04/03 Q1006 NOSIG",
      "taf": "TAF EBCI 312311Z 0100/0206 18006KT 9999 SCT012 BKN018"
    },
    {
      "icao": "EDDB",
      "alert": "OK",
      "vis_m": 9999,
      "fzfg": false,
      "metar_trigger": false,
      "taf_trigger": false,
      "metar": "METAR EDDB 312350Z AUTO 09010KT 9999 FEW019 BKN028 OVC034 M07/M10 Q1015 NOSIG",
      "taf": "TAF EDDB 312300Z 0100/0124 08011KT 9999 BKN025"
    },
    {
      "icao": "EDDH",
      "alert": "OK",
      "vis_m": 9999,
      "fzfg": false,
      "metar_trigger": false,
      "taf_trigger": false,
      "metar": "METAR EDDH 312350Z AUTO 12010KT 9999 BKN014 OVC039 M05/M08 Q1013 TEMPO BKN015",
      "taf": "TAF EDDH 312300Z 0100/0206 11012KT 9999 BKN013"
    },
    {
      "icao": "EDDK",
      "alert": "OK",
      "vis_m": 9999,
      "fzfg": false,
      "metar_trigger": false,
      "taf_trigger": false,
      "metar": "METAR EDDK 312350Z AUTO 12009KT 080V150 9999 FEW015 BKN035 04/02 Q1008 NOSIG",
      "taf": "TAF EDDK 312300Z 0100/0206 12009KT 9999 BKN020"
    },
    {
      "icao": "EDDN",
      "alert": "OK",
      "vis_m": 7000,
      "fzfg": false,
      "metar_trigger": false,
      "taf_trigger": false,
      "metar": "METAR EDDN 312350Z AUTO 10005KT 7000 SCT018 OVC030 01/M01 Q1010",
      "taf": "TAF EDDN 312300Z 0100/0124 11006KT 9000 SCT015 OVC030"
    },
    {
      "icao": "EDDS",
      "alert": "OK",
      "vis_m": 9999,
      "fzfg": false,
      "metar_trigger": false,
      "taf_trigger": false,
      "metar": "METAR EDDS 312350Z AUTO VRB02KT 9999 FEW005 BKN038 00/M01 Q1008",
      "taf": "TAF EDDS 312300Z 0100/0124 VRB02KT 6000 SCT007"
    },
    {
      "icao": "EDFH",
      "alert": "OK",
      "vis_m": 300,
      "fzfg": false,
      "metar_trigger": false,
      "taf_trigger": false,
      "metar": "METAR EDFH 312320Z 14011KT 0300 R21/0350N FG VV/// 02/02 Q1007",
      "taf": "TAF EDFH 312300Z 0100/0124 14012KT 0350 FG OVC003"
    },
    {
      "icao": "EDJA",
      "alert": "OK",
      "vis_m": 9999,
      "fzfg": false,
      "metar_trigger": false,
      "taf_trigger": false,
      "metar": "METAR EDJA 312320Z AUTO 25004KT 9999 // OVC005/// M00/M01 Q1008",
      "taf": "TAF EDJA 311700Z 3118/0103 VRB03KT 2000 BR BKN004"
    },
    {
      "icao": "EDLW",
      "alert": "OK",
      "vis_m": 9999,
      "fzfg": false,
      "metar_trigger": false,
      "taf_trigger": false,
      "metar": "METAR EDLW 312320Z AUTO 16008KT 9999 // FEW030/// OVC055/// 05/03 Q1007",
      "taf": "TAF EDLW 311700Z 3118/0118 12005KT 9999 BKN025"
    },
    {
      "icao": "EDNY",
      "alert": "OK",
      "vis_m": 7000,
      "fzfg": false,
      "metar_trigger": false,
      "taf_trigger": false,
      "metar": "METAR EDNY 312320Z AUTO VRB02KT 7000 // OVC011/// 01/01 Q1009",
      "taf": "TAF EDNY 311700Z 3118/0103 03004KT 9999 OVC007"
    },
    {
      "icao": "EDSB",
      "alert": "OK",
      "vis_m": 750,
      "fzfg": false,
      "metar_trigger": false,
      "taf_trigger": false,
      "metar": "METAR EDSB 312320Z AUTO 00000KT 0750 0650 R03/0900N // BKN008/// BKN065/// 01/01 Q1009",
      "taf": "TAF EDSB 312300Z 0100/0124 VRB02KT 6000 SCT007"
    },
    {
      "icao": "EETN",
      "alert": "OK",
      "vis_m": 9000,
      "fzfg": false,
      "metar_trigger": false,
      "taf_trigger": false,
      "metar": "METAR EETN 312350Z 07002KT 9000 FEW002 M18/M20 Q1034",
      "taf": "TAF EETN 312330Z 0100/0124 07005KT 9999 SCT002 SCT014"
    },
    {
      "icao": "EFTU",
      "alert": "OK",
      "vis_m": 9999,
      "fzfg": false,
      "metar_trigger": false,
      "taf_trigger": false,
      "metar": "METAR EFTU 312350Z AUTO 10006KT CAVOK M17/M19 Q1034",
      "taf": "TAF EFTU 312329Z 0100/0124 10005KT CAVOK"
    },
    {
      "icao": "EGBB",
      "alert": "OK",
      "vis_m": 9999,
      "fzfg": false,
      "metar_trigger": false,
      "taf_trigger": false,
      "metar": "METAR EGBB 312320Z 17005KT 9999 FEW040 06/05 Q1000",
      "taf": "TAF EGBB 312300Z 0100/0124 18006KT 9999 FEW030"
    },
    {
      "icao": "EGGP",
      "alert": "OK",
      "vis_m": 9999,
      "fzfg": false,
      "metar_trigger": false,
      "taf_trigger": false,
      "metar": "METAR EGGP 312320Z 17004KT 150V220 9999 SCT027 BKN037 06/05 Q0998",
      "taf": "TAF EGGP 312305Z 0100/0124 16003KT 9999 BKN030"
    },
    {
      "icao": "EGGW",
      "alert": "OK",
      "vis_m": 9999,
      "fzfg": false,
      "metar_trigger": false,
      "taf_trigger": false,
      "metar": "METAR EGGW 312320Z AUTO 17007KT 9999 OVC004 06/06 Q1001",
      "taf": "TAF EGGW 312259Z 0100/0124 17007KT 9999 FEW008 SCT045"
    },
    {
      "icao": "EGKK",
      "alert": "OK",
      "vis_m": 9999,
      "fzfg": false,
      "metar_trigger": false,
      "taf_trigger": false,
      "metar": "METAR EGKK 312320Z 16004KT 130V200 9999 BKN010 07/07 Q1002",
      "taf": "TAF EGKK 312251Z 0100/0206 18004KT 9999 SCT012"
    },
    {
      "icao": "EGNM",
      "alert": "OK",
      "vis_m": null,
      "fzfg": false,
      "metar_trigger": false,
      "taf_trigger": false,
      "metar": "",
      "taf": "TAF EGNM 311705Z 3118/0118 14010KT 9999 SCT015"
    },
    {
      "icao": "EGPD",
      "alert": "OK",
      "vis_m": 8000,
      "fzfg": false,
      "metar_trigger": false,
      "taf_trigger": false,
      "metar": "METAR EGPD 312320Z AUTO 13012KT 8000 OVC006 07/05 Q1001 TEMPO BKN007",
      "taf": "TAF EGPD 312259Z 0100/0124 12012KT 9999 SCT010 BKN015"
    },
    {
      "icao": "EGPF",
      "alert": "OK",
      "vis_m": 9999,
      "fzfg": false,
      "metar_trigger": false,
      "taf_trigger": false,
      "metar": "METAR EGPF 312320Z AUTO 06007KT 9999 BKN026 OVC034 06/04 Q0997",
      "taf": "TAF EGPF 312258Z 0100/0124 08010KT 9999 BKN025"
    },
    {
      "icao": "EHBK",
      "alert": "OK",
      "vis_m": 9999,
      "fzfg": false,
      "metar_trigger": false,
      "taf_trigger": false,
      "metar": "METAR EHBK 312325Z AUTO 18005KT 9999 NCD 05/03 Q1006",
      "taf": "TAF EHBK 312316Z 0100/0206 16005KT CAVOK"
    },
    {
      "icao": "EHEH",
      "alert": "OK",
      "vis_m": null,
      "fzfg": false,
      "metar_trigger": false,
      "taf_trigger": false,
      "metar": "",
      "taf": "TAF EHEH 311739Z 3118/0124 13003KT 9999 FEW014 BKN040"
    },
    {
      "icao": "EKBI",
      "alert": "OK",
      "vis_m": 9999,
      "fzfg": false,
      "metar_trigger": false,
      "taf_trigger": false,
      "metar": "METAR EKBI 312350Z AUTO 10012G22KT 9999 OVC014/// M03/M06 Q1015",
      "taf": "TAF EKBI 312327Z 0100/0124 10018KT 9999 BKN015"
    },
    {
      "icao": "EKCH",
      "alert": "OK",
      "vis_m": 9999,
      "fzfg": false,
      "metar_trigger": false,
      "taf_trigger": false,
      "metar": "METAR EKCH 312350Z AUTO 12021KT 9999 SCT190/// SCT200/// M02/M09 Q1019 TEMPO 11020G30KT",
      "taf": "TAF EKCH 312327Z 0100/0124 12020KT 9999 FEW020"
    },
    {
      "icao": "ENAL",
      "alert": "OK",
      "vis_m": 9999,
      "fzfg": false,
      "metar_trigger": false,
      "taf_trigger": false,
      "metar": "METAR ENAL 312320Z AUTO 14012KT 9999 OVC049/// 01/M09 Q1016",
      "taf": "TAF ENAL 312300Z 0100/0109 14012KT 9999 BKN060"
    },
    {
      "icao": "ENBR",
      "alert": "OK",
      "vis_m": 9999,
      "fzfg": false,
      "metar_trigger": false,
      "taf_trigger": false,
      "metar": "METAR ENBR 312320Z 13003KT CAVOK M02/M11 Q1016 RMK WIND 1200FT 12015KT",
      "taf": "TAF ENBR 312300Z 0100/0124 09005KT CAVOK"
    },
    {
      "icao": "ENGM",
      "alert": "OK",
      "vis_m": 9999,
      "fzfg": false,
      "metar_trigger": false,
      "taf_trigger": false,
      "metar": "METAR ENGM 312320Z 35003KT CAVOK M12/M14 Q1024",
      "taf": "TAF ENGM 312300Z 0100/0124 03005KT CAVOK"
    },
    {
      "icao": "ENHD",
      "alert": "OK",
      "vis_m": 9999,
      "fzfg": false,
      "metar_trigger": false,
      "taf_trigger": false,
      "metar": "METAR ENHD 312320Z AUTO 11020G33KT 9999 NCD M00/M10 Q1015",
      "taf": "TAF ENHD 311400Z 3115/3123 09018KT 9999 SCT045"
    },
    {
      "icao": "ENTC",
      "alert": "OK",
      "vis_m": 9999,
      "fzfg": false,
      "metar_trigger": false,
      "taf_trigger": false,
      "metar": "METAR ENTC 312320Z AUTO 20016KT 9999 NCD M06/M12 Q1016 RMK WIND 2600FT 19022KT",
      "taf": "TAF ENTC 312300Z 0100/0124 19018KT 9999 BKN050"
    },
    {
      "icao": "ENTO",
      "alert": "OK",
      "vis_m": 9999,
      "fzfg": false,
      "metar_trigger": false,
      "taf_trigger": false,
      "metar": "METAR ENTO 312320Z AUTO 14009KT 9999 NCD M04/M11 Q1023",
      "taf": "TAF ENTO 312300Z 0100/0124 09005KT CAVOK"
    },
    {
      "icao": "ENVA",
      "alert": "OK",
      "vis_m": 9999,
      "fzfg": false,
      "metar_trigger": false,
      "taf_trigger": false,
      "metar": "METAR ENVA 312320Z 16014KT 130V190 CAVOK M03/M11 Q1019 RMK WIND 670FT 17021KT",
      "taf": "TAF ENVA 312300Z 0100/0124 14012KT CAVOK"
    },
    {
      "icao": "ENZV",
      "alert": "OK",
      "vis_m": 9999,
      "fzfg": false,
      "metar_trigger": false,
      "taf_trigger": false,
      "metar": "METAR ENZV 312320Z 10013KT CAVOK 00/M09 Q1015",
      "taf": "TAF ENZV 312300Z 0100/0124 10012KT CAVOK"
    },
    {
      "icao": "EPGD",
      "alert": "OK",
      "vis_m": 9999,
      "fzfg": false,
      "metar_trigger": false,
      "taf_trigger": false,
      "metar": "METAR EPGD 312330Z 11010KT CAVOK M15/M19 Q1023",
      "taf": "TAF EPGD 312330Z 0100/0124 10010KT CAVOK"
    },
    {
      "icao": "EPKK",
      "alert": "OK",
      "vis_m": 9999,
      "fzfg": false,
      "metar_trigger": false,
      "taf_trigger": false,
      "metar": "METAR EPKK 312330Z 07013KT 9999 -SN SCT014 OVC020 M10/M13 Q1015",
      "taf": "TAF EPKK 312330Z 0100/0124 07015KT 9999 SCT015 BKN020"
    },
    {
      "icao": "EPKT",
      "alert": "OK",
      "vis_m": 9999,
      "fzfg": false,
      "metar_trigger": false,
      "taf_trigger": false,
      "metar": "METAR EPKT 312330Z 08010KT 9999 -SN FEW015 OVC022 M11/M14 Q1015",
      "taf": "TAF EPKT 312330Z 0100/0124 07010KT 9999 FEW018 BKN023"
    },
    {
      "icao": "EPLB",
      "alert": "OK",
      "vis_m": 9999,
      "fzfg": false,
      "metar_trigger": false,
      "taf_trigger": false,
      "metar": "METAR EPLB 312330Z 08007KT CAVOK M16/M18 Q1020",
      "taf": "TAF EPLB 312330Z 0100/0124 09010KT CAVOK"
    },
    {
      "icao": "EPMO",
      "alert": "OK",
      "vis_m": 9999,
      "fzfg": false,
      "metar_trigger": false,
      "taf_trigger": false,
      "metar": "METAR EPMO 312330Z 07010KT CAVOK M15/M18 Q1022",
      "taf": "TAF EPMO 312330Z 0100/0124 09011KT CAVOK"
    },
    {
      "icao": "EPPO",
      "alert": "OK",
      "vis_m": 9999,
      "fzfg": false,
      "metar_trigger": false,
      "taf_trigger": false,
      "metar": "METAR EPPO 312330Z 10013KT CAVOK M11/M16 Q1019",
      "taf": "TAF EPPO 312330Z 0100/0124 09012KT CAVOK"
    },
    {
      "icao": "EPRA",
      "alert": "OK",
      "vis_m": 9999,
      "fzfg": false,
      "metar_trigger": false,
      "taf_trigger": false,
      "metar": "METAR EPRA 312330Z 08008KT CAVOK M16/M19 Q1020",
      "taf": "TAF EPRA 312330Z 0100/0109 08008KT CAVOK"
    },
    {
      "icao": "EPRZ",
      "alert": "OK",
      "vis_m": 9999,
      "fzfg": false,
      "metar_trigger": false,
      "taf_trigger": false,
      "metar": "METAR EPRZ 312330Z 07012KT 9999 -SN OVC016 M11/M15 Q1017",
      "taf": "TAF EPRZ 312330Z 0100/0124 07014KT 9999 OVC016"
    },
    {
      "icao": "EPSC",
      "alert": "OK",
      "vis_m": 9999,
      "fzfg": false,
      "metar_trigger": false,
      "taf_trigger": false,
      "metar": "METAR EPSC 312330Z 09010KT CAVOK M11/M15 Q1019",
      "taf": "TAF EPSC 312330Z 0100/0124 09012KT CAVOK"
    },
    {
      "icao": "EPSY",
      "alert": "OK",
      "vis_m": 9999,
      "fzfg": false,
      "metar_trigger": false,
      "taf_trigger": false,
      "metar": "METAR EPSY 312330Z 05004KT 020V090 CAVOK M16/M18 Q1024",
      "taf": "TAF EPSY 312330Z 0100/0109 06005KT CAVOK"
    },
    {
      "icao": "EPWA",
      "alert": "OK",
      "vis_m": 9999,
      "fzfg": false,
      "metar_trigger": false,
      "taf_trigger": false,
      "metar": "METAR EPWA 312330Z 08008KT CAVOK M13/M17 Q1022 NOSIG",
      "taf": "TAF EPWA 312330Z 0100/0124 09010KT CAVOK"
    },
    {
      "icao": "EPWR",
      "alert": "OK",
      "vis_m": 9999,
      "fzfg": false,
      "metar_trigger": false,
      "taf_trigger": false,
      "metar": "METAR EPWR 312330Z 09011KT 9999 BKN018 M09/M13 Q1016",
      "taf": "TAF EPWR 312330Z 0100/0124 09013KT 9999 BKN020"
    },
    {
      "icao": "ESGG",
      "alert": "OK",
      "vis_m": 9999,
      "fzfg": false,
      "metar_trigger": false,
      "taf_trigger": false,
      "metar": "METAR ESGG 312320Z 11011KT CAVOK M05/M10 Q1021",
      "taf": "TAF ESGG 312330Z 0100/0124 11012KT CAVOK"
    },
    {
      "icao": "ESKN",
      "alert": "OK",
      "vis_m": 9999,
      "fzfg": false,
      "metar_trigger": false,
      "taf_trigger": false,
      "metar": "METAR ESKN 312320Z 10011KT 9999 BKN025 M04/M09 Q1028",
      "taf": "TAF ESKN 312330Z 0100/0124 11014KT 9999 BKN025"
    },
    {
      "icao": "ESMS",
      "alert": "OK",
      "vis_m": 9999,
      "fzfg": false,
      "metar_trigger": false,
      "taf_trigger": false,
      "metar": "METAR ESMS 312320Z AUTO 11017G29KT 9999 NCD M03/M11 Q1019",
      "taf": "TAF ESMS 312327Z 0100/0124 11018KT 9999 FEW030"
    },
    {
      "icao": "ESSA",
      "alert": "OK",
      "vis_m": 9999,
      "fzfg": false,
      "metar_trigger": false,
      "taf_trigger": false,
      "metar": "METAR ESSA 312320Z 11010KT 9999 FEW016 BKN031 M06/M11 Q1030 NOSIG",
      "taf": "TAF ESSA 312330Z 0100/0124 11008KT 9999 SCT012 BKN030"
    },
    {
      "icao": "EYKA",
      "alert": "OK",
      "vis_m": 9999,
      "fzfg": false,
      "metar_trigger": false,
      "taf_trigger": false,
      "metar": "METAR EYKA 312350Z AUTO 01002KT 9999 NCD M20/M23 Q1028",
      "taf": "TAF EYKA 312300Z 0100/0124 VRB04KT 8000 NSC"
    },
    {
      "icao": "EYPA",
      "alert": "OK",
      "vis_m": 9999,
      "fzfg": false,
      "metar_trigger": false,
      "taf_trigger": false,
      "metar": "METAR EYPA 312350Z AUTO 10007KT 9999 NCD M16/M19 Q1029",
      "taf": "TAF EYPA 312300Z 0100/0124 10008KT 6000 NSC"
    },
    {
      "icao": "EYVI",
      "alert": "OK",
      "vis_m": 9999,
      "fzfg": false,
      "metar_trigger": false,
      "taf_trigger": false,
      "metar": "METAR EYVI 312350Z 36006KT CAVOK M20/M22 Q1025 NOSIG",
      "taf": "TAF EYVI 312301Z 0100/0124 VRB04KT 8000 NSC"
    },
    {
      "icao": "GCFV",
      "alert": "OK",
      "vis_m": 9999,
      "fzfg": false,
      "metar_trigger": false,
      "taf_trigger": false,
      "metar": "METAR GCFV 312330Z AUTO 33008KT CAVOK 16/12 Q1023",
      "taf": "TAF GCFV 312000Z 3121/0121 33006KT 9999 FEW015 TX22/0114Z TN15/0106Z"
    },
    {
      "icao": "GCLP",
      "alert": "OK",
      "vis_m": 9999,
      "fzfg": false,
      "metar_trigger": false,
      "taf_trigger": false,
      "metar": "METAR GCLP 312330Z 02018KT 9999 FEW020 18/13 Q1023 NOSIG",
      "taf": "TAF GCLP 312000Z 3121/0121 36014KT 9999 SCT015 TX21/0114Z TN16/0106Z"
    },
    {
      "icao": "GCTS",
      "alert": "OK",
      "vis_m": 9999,
      "fzfg": false,
      "metar_trigger": false,
      "taf_trigger": false,
      "metar": "METAR GCTS 312330Z 01003KT 9999 FEW020 18/14 Q1024 NOSIG",
      "taf": "TAF GCTS 312000Z 3121/0121 36005KT 9999 SCT020 TX23/0114Z TN15/0106Z"
    },
    {
      "icao": "GMAD",
      "alert": "OK",
      "vis_m": 5000,
      "fzfg": false,
      "metar_trigger": false,
      "taf_trigger": false,
      "metar": "METAR GMAD 312330Z 00000KT 5000 BKN006 SCT200 16/16 Q1020 NOSIG",
      "taf": "TAF GMAD 312300Z 0100/0206 22005KT 6000 BKN006 SCT020"
    },
    {
      "icao": "GMMN",
      "alert": "OK",
      "vis_m": 8000,
      "fzfg": false,
      "metar_trigger": false,
      "taf_trigger": false,
      "metar": "METAR GMMN 312330Z 17005KT 8000 FEW006 BKN100 12/10 Q1023 NOSIG",
      "taf": "TAF GMMN 312300Z 0100/0206 14005KT 8000 NSC"
    },
    {
      "icao": "GMMX",
      "alert": "OK",
      "vis_m": 9999,
      "fzfg": false,
      "metar_trigger": false,
      "taf_trigger": false,
      "metar": "METAR GMMX 312330Z 10006KT CAVOK 13/12 Q1022 NOSIG",
      "taf": "TAF GMMX 312300Z 0100/0206 24006KT 8000 SCT023"
    },
    {
      "icao": "HEGN",
      "alert": "OK",
      "vis_m": 9999,
      "fzfg": false,
      "metar_trigger": false,
      "taf_trigger": false,
      "metar": "METAR HEGN 312300Z 32006KT CAVOK 18/05 Q1015 NOSIG",
      "taf": "TAF HEGN 312300Z 0100/0206 24008KT CAVOK"
    },
    {
      "icao": "HEMA",
      "alert": "OK",
      "vis_m": 9999,
      "fzfg": false,
      "metar_trigger": false,
      "taf_trigger": false,
      "metar": "METAR HEMA 312300Z 23005KT CAVOK 17/10 Q1014 NOSIG",
      "taf": "TAF HEMA 312300Z 0100/0206 23008KT CAVOK"
    },
    {
      "icao": "HESH",
      "alert": "OK",
      "vis_m": 9999,
      "fzfg": false,
      "metar_trigger": false,
      "taf_trigger": false,
      "metar": "METAR HESH 312300Z 24003KT CAVOK 18/15 Q1016 NOSIG",
      "taf": "TAF HESH 312300Z 0100/0206 29008KT CAVOK"
    },
    {
      "icao": "HESX",
      "alert": "OK",
      "vis_m": 9999,
      "fzfg": false,
      "metar_trigger": false,
      "taf_trigger": false,
      "metar": "METAR HESX 312300Z 20009KT CAVOK 19/02 Q1012 NOSIG",
      "taf": "TAF HESX 312300Z 0100/0206 20009KT CAVOK"
    },
    {
      "icao": "LATI",
      "alert": "OK",
      "vis_m": 7000,
      "fzfg": false,
      "metar_trigger": false,
      "taf_trigger": false,
      "metar": "METAR LATI 312350Z VRB02KT 7000 NSC 04/02 Q1000 NOSIG",
      "taf": "TAF LATI 312300Z 0100/0124 VRB05KT CAVOK TX14/0112Z TN04/0105Z"
    },
    {
      "icao": "LBPD",
      "alert": "OK",
      "vis_m": 9999,
      "fzfg": false,
      "metar_trigger": false,
      "taf_trigger": false,
      "metar": "METAR LBPD 312330Z AUTO 10010KT 9999 SCT009/// BKN011/// OVC025/// 05/05 Q1010",
      "taf": "TAF LBPD 312300Z 0100/0124 10012KT 8000 SCT010 OVC015"
    },
    {
      "icao": "LBSF",
      "alert": "OK",
      "vis_m": 9999,
      "fzfg": false,
      "metar_trigger": false,
      "taf_trigger": false,
      "metar": "METAR LBSF 312330Z AUTO 11010KT 9999 FEW012/// BKN015/// OVC020/// 04/03 Q1008 NOSIG",
      "taf": "TAF LBSF 312300Z 0100/0124 07010KT 9999 SCT010 BKN020 OVC040"
    },
    {
      "icao": "LBWN",
      "alert": "OK",
      "vis_m": 9999,
      "fzfg": false,
      "metar_trigger": false,
      "taf_trigger": false,
      "metar": "METAR LBWN 312330Z AUTO 03004KT 9999 OVC016/// M00/M02 Q1013 NOSIG",
      "taf": "TAF LBWN 312300Z 0100/0124 03010KT 8000 BKN020 OVC035"
    },
    {
      "icao": "LCLK",
      "alert": "OK",
      "vis_m": 9999,
      "fzfg": false,
      "metar_trigger": false,
      "taf_trigger": false,
      "metar": "METAR LCLK 312330Z 22006KT 200V270 CAVOK 16/14 Q1011 NOSIG",
      "taf": "TAF LCLK 312330Z 0100/0200 30006KT 9999 FEW025"
    },
    {
      "icao": "LCPH",
      "alert": "OK",
      "vis_m": 9999,
      "fzfg": false,
      "metar_trigger": false,
      "taf_trigger": false,
      "metar": "METAR LCPH 312330Z 08005KT 9999 FEW020 SCT030 13/12 Q1011 NOSIG",
      "taf": "TAF LCPH 312330Z 0100/0200 08006KT 9999 SCT020"
    },
    {
      "icao": "LEAL",
      "alert": "OK",
      "vis_m": 9999,
      "fzfg": false,
      "metar_trigger": false,
      "taf_trigger": false,
      "metar": "METAR LEAL 312330Z 24004KT CAVOK 12/03 Q1018 NOSIG",
      "taf": "TAF LEAL 312300Z 0100/0124 24007KT 9999 FEW030 TX16/0113Z TN10/0106Z"
    },
    {
      "icao": "LEBB",
      "alert": "OK",
      "vis_m": 9999,
      "fzfg": false,
      "metar_trigger": false,
      "taf_trigger": false,
      "metar": "METAR LEBB 312330Z AUTO VRB02KT CAVOK 08/06 Q1015",
      "taf": "TAF LEBB 312300Z 0100/0124 14009KT 9999 BKN040 TX13/0115Z TN08/0106Z"
    },
    {
      "icao": "LEBL",
      "alert": "OK",
      "vis_m": 9999,
      "fzfg": false,
      "metar_trigger": false,
      "taf_trigger": false,
      "metar": "METAR LEBL 312330Z 33015KT CAVOK 11/04 Q1011 NOSIG",
      "taf": "TAF LEBL 312300Z 0100/0124 32009KT CAVOK TX14/0112Z TN07/0106Z"
    },
    {
      "icao": "LECH",
      "alert": "OK",
      "vis_m": 9999,
      "fzfg": false,
      "metar_trigger": false,
      "taf_trigger": false,
      "metar": "METAR LECH 312330Z AUTO 29006KT 220V320 CAVOK 11/M02 Q1014",
      "taf": ""
    },
    {
      "icao": "LEMD",
      "alert": "OK",
      "vis_m": 9999,
      "fzfg": false,
      "metar_trigger": false,
      "taf_trigger": false,
      "metar": "METAR LEMD 312330Z 22008KT CAVOK 07/04 Q1017 NOSIG",
      "taf": "TAF LEMD 312300Z 0100/0206 24007KT CAVOK TX09/0204Z TN03/0104Z"
    },
    {
      "icao": "LEMG",
      "alert": "OK",
      "vis_m": 9999,
      "fzfg": false,
      "metar_trigger": false,
      "taf_trigger": false,
      "metar": "METAR LEMG 312330Z 30011KT CAVOK 11/06 Q1020 NOSIG",
      "taf": "TAF LEMG 312300Z 0100/0124 28006KT 9999 FEW045 TX19/0115Z TN12/0106Z"
    },
    {
      "icao": "LEVC",
      "alert": "OK",
      "vis_m": 9999,
      "fzfg": false,
      "metar_trigger": false,
      "taf_trigger": false,
      "metar": "METAR LEVC 312330Z 26015KT CAVOK 11/03 Q1015 NOSIG",
      "taf": "TAF LEVC 312300Z 0100/0124 27008KT CAVOK TX18/0113Z TN10/0106Z"
    },
    {
      "icao": "LEXJ",
      "alert": "OK",
      "vis_m": 9999,
      "fzfg": false,
      "metar_trigger": false,
      "taf_trigger": false,
      "metar": "METAR LEXJ 312330Z AUTO VRB02KT 9999 3400E NSC 09/06 Q1013",
      "taf": ""
    },
    {
      "icao": "LEZG",
      "alert": "OK",
      "vis_m": 9999,
      "fzfg": false,
      "metar_trigger": false,
      "taf_trigger": false,
      "metar": "METAR LEZG 312330Z 22008KT CAVOK 06/04 Q1015 NOSIG",
      "taf": "TAF LEZG 312300Z 0100/0124 24007KT 9999 FEW050 TX14/0114Z TN06/0106Z"
    },
    {
      "icao": "LEZL",
      "alert": "OK",
      "vis_m": 9999,
      "fzfg": false,
      "metar_trigger": false,
      "taf_trigger": false,
      "metar": "METAR LEZL 312330Z 20005KT 160V230 9999 FEW039 13/11 Q1021 NOSIG",
      "taf": "TAF LEZL 312000Z 3121/0121 VRB02KT CAVOK TX17/0115Z TN10/0107Z"
    },
    {
      "icao": "LFBD",
      "alert": "OK",
      "vis_m": 9999,
      "fzfg": false,
      "metar_trigger": false,
      "taf_trigger": false,
      "metar": "METAR LFBD 312330Z AUTO 25008KT 9999 FEW028/// SCT037/// BKN068/// ///TCU 09/08 Q1011 TEMPO 3000 SHRA BKN010 BKN020TCU",
      "taf": "TAF LFBD 312300Z 0100/0206 25008KT 9999 BKN030 TX12/0115Z TN07/0203Z"
    },
    {
      "icao": "LFLL",
      "alert": "OK",
      "vis_m": 9999,
      "fzfg": false,
      "metar_trigger": false,
      "taf_trigger": false,
      "metar": "METAR LFLL 312330Z 13006KT 9999 -RA FEW046 BKN070 06/04 Q1008 NOSIG",
      "taf": "TAF LFLL 312300Z 0100/0206 16006KT 9999 BKN050"
    },
    {
      "icao": "LFLS",
      "alert": "OK",
      "vis_m": 9999,
      "fzfg": false,
      "metar_trigger": false,
      "taf_trigger": false,
      "metar": "METAR LFLS 312330Z AUTO 05003KT 9999 OVC031 04/03 Q1008",
      "taf": "TAF LFLS 311400Z 3115/0115 08005KT 9999 BKN040"
    },
    {
      "icao": "LFMN",
      "alert": "OK",
      "vis_m": 9999,
      "fzfg": false,
      "metar_trigger": false,
      "taf_trigger": false,
      "metar": "METAR LFMN 312330Z 34008KT CAVOK 08/03 Q1005 NOSIG",
      "taf": "TAF LFMN 312000Z 3121/0203 33010KT CAVOK"
    },
    {
      "icao": "LFOB",
      "alert": "OK",
      "vis_m": 6000,
      "fzfg": false,
      "metar_trigger": false,
      "taf_trigger": false,
      "metar": "METAR LFOB 312330Z AUTO 15003KT 6000 BKN009 BKN018 OVC026 05/05 Q1005 TEMPO OVC003 BECMG 4000 BR",
      "taf": "TAF LFOB 312300Z 0100/0124 16004KT 4000 BR BKN008"
    },
    {
      "icao": "LFPO",
      "alert": "OK",
      "vis_m": 9999,
      "fzfg": false,
      "metar_trigger": false,
      "taf_trigger": false,
      "metar": "METAR LFPO 312330Z AUTO 20005KT 9999 SCT015 BKN024 OVC047 07/06 Q1006",
      "taf": "TAF LFPO 311700Z 3118/0124 16004KT 9999 SCT020 BKN030"
    },
    {
      "icao": "LFSB",
      "alert": "OK",
      "vis_m": 9999,
      "fzfg": false,
      "metar_trigger": false,
      "taf_trigger": false,
      "metar": "METAR LFSB 312330Z AUTO 13005KT 9999 BKN056 BKN110 OVC170 02/00 Q1008 NOSIG",
      "taf": "TAF LFSB 312300Z 0100/0124 12005KT 9999 BKN050"
    },
    {
      "icao": "LGAV",
      "alert": "OK",
      "vis_m": 9999,
      "fzfg": false,
      "metar_trigger": false,
      "taf_trigger": false,
      "metar": "METAR LGAV 312320Z COR VRB02KT 9999 DZ SCT018 BKN025 12/09 Q1006 NOSIG",
      "taf": "TAF LGAV 312300Z 0100/0124 14010KT 9999 SCT018 BKN070"
    },
    {
      "icao": "LGTS",
      "alert": "OK",
      "vis_m": 9999,
      "fzfg": false,
      "metar_trigger": false,
      "taf_trigger": false,
      "metar": "METAR LGTS 312320Z 10006KT 9999 FEW015TCU SCT025 10/07 Q1006 NOSIG",
      "taf": "TAF LGTS 312300Z 0100/0124 10013KT 9999 FEW010 BKN025"
    },
    {
      "icao": "LHBP",
      "alert": "OK",
      "vis_m": 6000,
      "fzfg": false,
      "metar_trigger": false,
      "taf_trigger": false,
      "metar": "METAR LHBP 312330Z 04003KT 350V090 6000 -SN FEW004 SCT014 OVC037 01/M00 Q1010 NOSIG",
      "taf": "TAF LHBP 312315Z 0100/0124 08006KT 9999 OVC030"
    },
    {
      "icao": "LHDC",
      "alert": "OK",
      "vis_m": 9999,
      "fzfg": false,
      "metar_trigger": false,
      "taf_trigger": false,
      "metar": "METAR LHDC 312315Z AUTO 04010KT 9999 OVC013 M01/M04 Q1010",
      "taf": "TAF LHDC 311415Z 3115/3124 04008KT 9000 -RASN SCT004 OVC015"
    },
    {
      "icao": "LIBD",
      "alert": "OK",
      "vis_m": 9999,
      "fzfg": false,
      "metar_trigger": false,
      "taf_trigger": false,
      "metar": "METAR LIBD 312320Z AUTO 06008KT 9999 SCT030/// SCT035/// BKN082/// 11/08 Q1000",
      "taf": "TAF LIBD 312300Z 0100/0124 02010KT 9999 SCT020"
    },
    {
      "icao": "LIBG",
      "alert": "OK",
      "vis_m": null,
      "fzfg": false,
      "metar_trigger": false,
      "taf_trigger": false,
      "metar": "",
      "taf": "TAF LIBG 311700Z 3118/0103 06005KT 9999 SCT030"
    },
    {
      "icao": "LIBP",
      "alert": "OK",
      "vis_m": 9999,
      "fzfg": false,
      "metar_trigger": false,
      "taf_trigger": false,
      "metar": "METAR LIBP 312320Z AUTO VRB02KT 9999 -RA OVC053/// 08/07 Q1005",
      "taf": "TAF LIBP 312300Z 0100/0124 VRB05KT 9999 FEW020"
    },
    {
      "icao": "LIBR",
      "alert": "OK",
      "vis_m": 9999,
      "fzfg": false,
      "metar_trigger": false,
      "taf_trigger": false,
      "metar": "METAR LIBR 312320Z 07018KT 9999 FEW045 13/07 Q0999",
      "taf": "TAF LIBR 312300Z 0100/0124 05018KT 9999 FEW040"
    },
    {
      "icao": "LICA",
      "alert": "OK",
      "vis_m": 9999,
      "fzfg": false,
      "metar_trigger": false,
      "taf_trigger": false,
      "metar": "METAR LICA 312320Z AUTO 20005KT 9999 -RA OVC061/// 12/07 Q0992",
      "taf": "TAF LICA 312300Z 0100/0124 29013KT 9999 BKN030"
    },
    {
      "icao": "LICC",
      "alert": "OK",
      "vis_m": 9999,
      "fzfg": false,
      "metar_trigger": false,
      "taf_trigger": false,
      "metar": "METAR LICC 312320Z 26013KT 9999 FEW030 BKN110 09/06 Q0993",
      "taf": "TAF LICC 312300Z 0100/0124 28012KT 9999 SCT030"
    },
    {
      "icao": "LICJ",
      "alert": "OK",
      "vis_m": 9999,
      "fzfg": false,
      "metar_trigger": false,
      "taf_trigger": false,
      "metar": "METAR LICJ 312320Z 07011KT 9999 -RA SCT060 10/08 Q0997",
      "taf": "TAF LICJ 312300Z 0100/0124 35015KT 9999 SCT030"
    },
    {
      "icao": "LIMC",
      "alert": "CRITICAL",
      "vis_m": 100,
      "fzfg": true,
      "metar_trigger": true,
      "taf_trigger": false,
      "metar": "METAR LIMC 312320Z 04004KT 0100 R35R/0325N R17L/1800U R35L/0275N FZFG NSC M01/M01 Q1007 NOSIG",
      "taf": "TAF LIMC 312300Z 0100/0206 VRB05KT 5000 BR FEW020"
    },
    {
      "icao": "LIME",
      "alert": "OK",
      "vis_m": 6000,
      "fzfg": false,
      "metar_trigger": false,
      "taf_trigger": false,
      "metar": "METAR LIME 312320Z 02003KT 6000 FEW025 03/02 Q1007 NOSIG",
      "taf": "TAF LIME 312300Z 0100/0124 VRB05KT 6000 FEW020"
    },
    {
      "icao": "LIMF",
      "alert": "OK",
      "vis_m": 9999,
      "fzfg": false,
      "metar_trigger": false,
      "taf_trigger": false,
      "metar": "METAR LIMF 312320Z VRB01KT CAVOK 02/M01 Q1007",
      "taf": "TAF LIMF 312300Z 0100/0124 VRB04KT CAVOK"
    },
    {
      "icao": "LIMJ",
      "alert": "OK",
      "vis_m": 9999,
      "fzfg": false,
      "metar_trigger": false,
      "taf_trigger": false,
      "metar": "METAR LIMJ 312320Z 03015KT CAVOK 07/02 Q1005",
      "taf": "TAF LIMJ 312300Z 0100/0124 04016KT 9999 FEW050"
    },
    {
      "icao": "LIPE",
      "alert": "OK",
      "vis_m": 9999,
      "fzfg": false,
      "metar_trigger": false,
      "taf_trigger": false,
      "metar": "METAR LIPE 312320Z 22004KT 9999 BKN020 05/03 Q1007",
      "taf": "TAF LIPE 312300Z 0100/0124 VRB05KT 9999 BKN020"
    },
    {
      "icao": "LIPH",
      "alert": "OK",
      "vis_m": 9999,
      "fzfg": false,
      "metar_trigger": false,
      "taf_trigger": false,
      "metar": "METAR LIPH 312320Z AUTO 02005KT 9999 NCD 04/02 Q1007",
      "taf": "TAF LIPH 312300Z 0100/0124 VRB04KT 9999 FEW040"
    },
    {
      "icao": "LIPQ",
      "alert": "OK",
      "vis_m": 9999,
      "fzfg": false,
      "metar_trigger": false,
      "taf_trigger": false,
      "metar": "METAR LIPQ 312320Z AUTO 02004KT 9999 NCD 03/00 Q1007",
      "taf": "TAF LIPQ 312300Z 0100/0124 VRB05KT CAVOK"
    },
    {
      "icao": "LIPR",
      "alert": "OK",
      "vis_m": 7000,
      "fzfg": false,
      "metar_trigger": false,
      "taf_trigger": false,
      "metar": "METAR LIPR 312320Z AUTO 29008KT 7000 OVC024/// 06/05 Q1007",
      "taf": "TAF LIPR 312300Z 0100/0124 30010KT 7000 BKN020"
    },
    {
      "icao": "LIPX",
      "alert": "OK",
      "vis_m": 1500,
      "fzfg": false,
      "metar_trigger": false,
      "taf_trigger": false,
      "metar": "METAR LIPX 312320Z 25003KT 1500 BCFG NSC 02/02 Q1007",
      "taf": "TAF LIPX 312300Z 0100/0124 VRB05KT 0300 FG BKN002"
    },
    {
      "icao": "LIPY",
      "alert": "OK",
      "vis_m": 6000,
      "fzfg": false,
      "metar_trigger": false,
      "taf_trigger": false,
      "metar": "METAR LIPY 312320Z AUTO 28005KT 240V340 6000 OVC007/// 07/06 Q1006",
      "taf": "TAF LIPY 312300Z 0100/0124 31010KT 8000 BKN007"
    },
    {
      "icao": "LIPZ",
      "alert": "OK",
      "vis_m": 3000,
      "fzfg": false,
      "metar_trigger": false,
      "taf_trigger": false,
      "metar": "METAR LIPZ 312320Z 32003KT 3000 BCFG NSC 03/03 Q1007 NOSIG",
      "taf": "TAF LIPZ 312300Z 0100/0206 VRB05KT CAVOK"
    },
    {
      "icao": "LIRF",
      "alert": "OK",
      "vis_m": 9999,
      "fzfg": false,
      "metar_trigger": false,
      "taf_trigger": false,
      "metar": "METAR LIRF 312320Z 36009KT CAVOK 08/05 Q1002 NOSIG",
      "taf": "TAF LIRF 312300Z 0100/0206 02010KT CAVOK"
    },
    {
      "icao": "LIRN",
      "alert": "OK",
      "vis_m": 9999,
      "fzfg": false,
      "metar_trigger": false,
      "taf_trigger": false,
      "metar": "METAR LIRN 312320Z 04015KT 9999 FEW040 11/04 Q0999 NOSIG",
      "taf": "TAF LIRN 312300Z 0100/0124 03012KT 8000 FEW030"
    },
    {
      "icao": "LIRP",
      "alert": "OK",
      "vis_m": 9999,
      "fzfg": false,
      "metar_trigger": false,
      "taf_trigger": false,
      "metar": "METAR LIRP 312315Z 12004KT CAVOK 06/05 Q1005 NOSIG",
      "taf": "TAF LIRP 312300Z 0100/0124 12005KT 9999 FEW060"
    },
    {
      "icao": "LIRZ",
      "alert": "OK",
      "vis_m": 9999,
      "fzfg": false,
      "metar_trigger": false,
      "taf_trigger": false,
      "metar": "METAR LIRZ 312320Z AUTO 02010KT 9999 NCD 07/04 Q1004",
      "taf": "TAF LIRZ 312300Z 0100/0124 03012KT CAVOK"
    },
    {
      "icao": "LJLJ",
      "alert": "OK",
      "vis_m": 8000,
      "fzfg": false,
      "metar_trigger": false,
      "taf_trigger": false,
      "metar": "METAR LJLJ 312330Z 00000KT 8000 FEW002 OVC040 03/02 Q1008 NOSIG",
      "taf": "TAF LJLJ 312300Z 0100/0200 VRB02KT 9999 OVC035"
    },
    {
      "icao": "LKMT",
      "alert": "OK",
      "vis_m": 9999,
      "fzfg": false,
      "metar_trigger": false,
      "taf_trigger": false,
      "metar": "METAR LKMT 312330Z 04010KT 9999 OVC016 M08/M10 Q1014 NOSIG",
      "taf": "TAF LKMT 312300Z 0100/0124 02012KT 9999 SCT013 OVC017"
    },
    {
      "icao": "LKPR",
      "alert": "OK",
      "vis_m": 9000,
      "fzfg": false,
      "metar_trigger": false,
      "taf_trigger": false,
      "metar": "METAR LKPR 312330Z 08005KT 9000 FEW016 OVC024 M03/M04 Q1010 NOSIG",
      "taf": "TAF LKPR 312300Z 0100/0206 06006KT 7000 SCT008 BKN012 OVC025"
    },
    {
      "icao": "LLBG",
      "alert": "OK",
      "vis_m": 9999,
      "fzfg": false,
      "metar_trigger": false,
      "taf_trigger": false,
      "metar": "METAR LLBG 312350Z VRB03KT CAVOK 17/07 Q1013 NOSIG",
      "taf": "TAF LLBG 312319Z 0100/0124 VRB04KT CAVOK"
    },
    {
      "icao": "LMML",
      "alert": "OK",
      "vis_m": 9999,
      "fzfg": false,
      "metar_trigger": false,
      "taf_trigger": false,
      "metar": "METAR LMML 312345Z 25022G33KT 9999 SCT016TCU 11/09 Q0997 RESHRA NOSIG",
      "taf": "TAF LMML 312300Z 0100/0124 25020G30KT 9999 FEW018 SCT040"
    },
    {
      "icao": "LOWW",
      "alert": "OK",
      "vis_m": 6000,
      "fzfg": false,
      "metar_trigger": false,
      "taf_trigger": false,
      "metar": "METAR LOWW 312320Z 36007KT 6000 FEW005 BKN006 M02/M03 Q1011 NOSIG",
      "taf": "TAF LOWW 312315Z 0100/0206 35005KT 5000 BR BKN006 TXM01/0115Z TNM02/0106Z"
    },
    {
      "icao": "LPFR",
      "alert": "OK",
      "vis_m": 9999,
      "fzfg": false,
      "metar_trigger": false,
      "taf_trigger": false,
      "metar": "METAR LPFR 312330Z VRB01KT 9999 FEW025 BKN046 14/12 Q1021",
      "taf": "TAF LPFR 312300Z 0100/0124 VRB02KT 9999 SCT015 BKN030"
    },
    {
      "icao": "LPMA",
      "alert": "OK",
      "vis_m": 9999,
      "fzfg": false,
      "metar_trigger": false,
      "taf_trigger": false,
      "metar": "METAR LPMA 312330Z 31003KT 9999 SCT013 18/14 Q1024",
      "taf": "TAF LPMA 312300Z 0100/0124 VRB05KT 9999 SCT015"
    },
    {
      "icao": "LPPR",
      "alert": "OK",
      "vis_m": 7000,
      "fzfg": false,
      "metar_trigger": false,
      "taf_trigger": false,
      "metar": "METAR LPPR 312330Z 16013KT 7000 -RA SCT012 BKN026 11/10 Q1016",
      "taf": "TAF LPPR 312300Z 0100/0124 17012KT 6000 -RA SCT008 BKN015"
    },
    {
      "icao": "LPPS",
      "alert": "OK",
      "vis_m": 9999,
      "fzfg": false,
      "metar_trigger": false,
      "taf_trigger": false,
      "metar": "METAR LPPS 312330Z 26005KT 220V300 9999 FEW006 SCT010 17/16 Q1024",
      "taf": "TAF LPPS 312300Z 0100/0206 28007KT 9999 SCT012 SCT030"
    },
    {
      "icao": "LPPT",
      "alert": "OK",
      "vis_m": 2500,
      "fzfg": false,
      "metar_trigger": false,
      "taf_trigger": false,
      "metar": "METAR LPPT 312330Z 19013KT 2500 -RADZ BR FEW002 BKN004 12/12 Q1018",
      "taf": "TAF LPPT 312300Z 0100/0206 23013KT 6000 -RA SCT006 BKN012"
    },
    {
      "icao": "LQBK",
      "alert": "OK",
      "vis_m": 9999,
      "fzfg": false,
      "metar_trigger": false,
      "taf_trigger": false,
      "metar": "METAR LQBK 312330Z 01004KT 9999 SCT013 OVC030 04/03 Q1009 NOSIG",
      "taf": "TAF LQBK 312300Z 0100/0124 06005KT 7000 SCT013 BKN030 TX04/0113Z TN01/0124Z"
    },
    {
      "icao": "LQSA",
      "alert": "OK",
      "vis_m": 8000,
      "fzfg": false,
      "metar_trigger": false,
      "taf_trigger": false,
      "metar": "METAR LQSA 312330Z 29005KT 8000 -RA BKN013 OVC025 03/03 Q1006",
      "taf": "TAF LQSA 312300Z 0100/0124 29006KT 9999 BKN025 TX05/0113Z TN01/0105Z"
    },
    {
      "icao": "LQTZ",
      "alert": "OK",
      "vis_m": 6000,
      "fzfg": false,
      "metar_trigger": false,
      "taf_trigger": false,
      "metar": "METAR LQTZ 312330Z VRB01KT 6000 -RA OVC014 04/04 Q1008",
      "taf": "TAF LQTZ 312300Z 0100/0124 03005KT 6000 SCT012 OVC025 TX04/0113Z TN00/0124Z"
    },
    {
      "icao": "LRBC",
      "alert": "OK",
      "vis_m": 9999,
      "fzfg": false,
      "metar_trigger": false,
      "taf_trigger": false,
      "metar": "METAR LRBC 312330Z 36013KT 9999 OVC014 M07/M10 Q1016",
      "taf": "TAF LRBC 312300Z 0100/0109 36012KT 9999 OVC015"
    },
    {
      "icao": "LRBS",
      "alert": "OK",
      "vis_m": 9999,
      "fzfg": false,
      "metar_trigger": false,
      "taf_trigger": false,
      "metar": "METAR LRBS 312330Z 07015KT 9999 BKN040 M02/M06 Q1014 NOSIG",
      "taf": "TAF LRBS 312300Z 0100/0124 08012KT 9999 OVC040"
    },
    {
      "icao": "LRBV",
      "alert": "OK",
      "vis_m": 9999,
      "fzfg": false,
      "metar_trigger": false,
      "taf_trigger": false,
      "metar": "METAR LRBV 312330Z AUTO 10005KT 9999 FEW015/// OVC022/// M01/M04 Q1009 RESG REDZ",
      "taf": "TAF LRBV 312000Z 3121/0106 09005KT 9999 OVC015"
    },
    {
      "icao": "LRCL",
      "alert": "OK",
      "vis_m": 9999,
      "fzfg": false,
      "metar_trigger": false,
      "taf_trigger": false,
      "metar": "METAR LRCL 312330Z 00000KT 9999 OVC004 02/01 Q1009",
      "taf": "TAF LRCL 312300Z 0100/0109 VRB04KT 9999 OVC005"
    },
    {
      "icao": "LRCV",
      "alert": "OK",
      "vis_m": 8000,
      "fzfg": false,
      "metar_trigger": false,
      "taf_trigger": false,
      "metar": "METAR LRCV 312330Z 10010KT 8000 -SN FEW012 OVC027 M00/M01 Q1012",
      "taf": "TAF LRCV 312300Z 0100/0109 11012KT 7000 SCT010 OVC025"
    },
    {
      "icao": "LRIA",
      "alert": "OK",
      "vis_m": 9999,
      "fzfg": false,
      "metar_trigger": false,
      "taf_trigger": false,
      "metar": "METAR LRIA 312330Z 33012KT 9999 OVC018 M08/M12 Q1017",
      "taf": "TAF LRIA 312300Z 0100/0109 34012KT 9999 OVC020"
    },
    {
      "icao": "LROP",
      "alert": "OK",
      "vis_m": 9999,
      "fzfg": false,
      "metar_trigger": false,
      "taf_trigger": false,
      "metar": "METAR LROP 312330Z 09014KT 9999 OVC041 M02/M06 Q1014 NOSIG",
      "taf": "TAF LROP 312300Z 0100/0124 09012KT 9999 OVC040"
    },
    {
      "icao": "LRSB",
      "alert": "OK",
      "vis_m": 9999,
      "fzfg": false,
      "metar_trigger": false,
      "taf_trigger": false,
      "metar": "METAR LRSB 312330Z 11002KT 9999 SCT015 BKN023 OVC030 03/01 Q1008",
      "taf": "TAF LRSB 312300Z 0100/0124 VRB04KT 9999 OVC025"
    },
    {
      "icao": "LRSM",
      "alert": "OK",
      "vis_m": 9999,
      "fzfg": false,
      "metar_trigger": false,
      "taf_trigger": false,
      "metar": "METAR LRSM 312330Z AUTO 32004KT 9999 OVC032/// 00/M02 Q1010",
      "taf": ""
    },
    {
      "icao": "LRSV",
      "alert": "OK",
      "vis_m": 7000,
      "fzfg": false,
      "metar_trigger": false,
      "taf_trigger": false,
      "metar": "METAR LRSV 312330Z 35010KT 7000 -SN BKN014 M11/M13 Q1015",
      "taf": "TAF LRSV 312300Z 0100/0109 35010KT 9999 BKN010 OVC035"
    },
    {
      "icao": "LRTM",
      "alert": "OK",
      "vis_m": 9999,
      "fzfg": false,
      "metar_trigger": false,
      "taf_trigger": false,
      "metar": "METAR LRTM 312330Z AUTO 10003KT 9999 BKN014/// OVC024/// 02/01 Q1009",
      "taf": "TAF LRTM 312300Z 0100/0109 VRB04KT 9999 OVC015"
    },
    {
      "icao": "LRTR",
      "alert": "OK",
      "vis_m": 6000,
      "fzfg": false,
      "metar_trigger": false,
      "taf_trigger": false,
      "metar": "METAR LRTR 312330Z 00000KT 6000 FEW027 OVC037 03/03 Q1010 NOSIG",
      "taf": "TAF LRTR 312300Z 0100/0124 VRB04KT 5000 BR OVC035"
    },
    {
      "icao": "LTAC",
      "alert": "OK",
      "vis_m": 9999,
      "fzfg": false,
      "metar_trigger": false,
      "taf_trigger": false,
      "metar": "METAR LTAC 312320Z 25006KT 9999 SCT030 BKN080 04/03 Q1008 NOSIG RMK RWY21C 24007KT RWY03L 23005KT RWY21R 23008KT RWY03R 23005KT RWY21L 25006KT",
      "taf": "TAF LTAC 312240Z 0100/0124 VRB02KT 9999 SCT035 BKN090"
    },
    {
      "icao": "LTFM",
      "alert": "OK",
      "vis_m": 9999,
      "fzfg": false,
      "metar_trigger": false,
      "taf_trigger": false,
      "metar": "METAR LTFM 312320Z 06012KT 9999 -SHRA BKN011 BKN025 05/03 Q1012 NOSIG RMK RWY17L 05010KT RWY34L 04008KT RWY16R 05011KT RWY36 05012KT RWY18 06010KT",
      "taf": "TAF LTFM 312240Z 0100/0206 03012KT 9999 -SHRA BKN011 BKN025"
    },
    {
      "icao": "LUKK",
      "alert": "OK",
      "vis_m": 9999,
      "fzfg": false,
      "metar_trigger": false,
      "taf_trigger": false,
      "metar": "METAR LUKK 312330Z 36012KT 330V030 9999 OVC022 M08/M12 Q1015 NOSIG",
      "taf": "TAF LUKK 312317Z 0100/0124 01010KT 9999 BKN015"
    },
    {
      "icao": "LWOH",
      "alert": "OK",
      "vis_m": 9999,
      "fzfg": false,
      "metar_trigger": false,
      "taf_trigger": false,
      "metar": "METAR LWOH 312315Z 0100/0124 34008KT 9999 SCT030 BKN050 BECMG 0100/0102 04012KT RA SCT010 OVC030",
      "taf": "TAF LWOH 312315Z 0100/0124 34008KT 9999 SCT030 BKN050"
    },
    {
      "icao": "LWSK",
      "alert": "OK",
      "vis_m": 9999,
      "fzfg": false,
      "metar_trigger": false,
      "taf_trigger": false,
      "metar": "METAR LWSK 312350Z VRB02KT 9999 SCT030 BKN050 05/03 Q1006 NOSIG",
      "taf": "TAF LWSK 312315Z 0100/0124 04006KT 9999 BKN030 BKN080"
    },
    {
      "icao": "LYBE",
      "alert": "OK",
      "vis_m": 6000,
      "fzfg": false,
      "metar_trigger": false,
      "taf_trigger": false,
      "metar": "METAR LYBE 312330Z 04006KT 6000 SCT034 04/03 Q1009 NOSIG",
      "taf": "TAF LYBE 312300Z 0100/0124 05006KT 9999 BKN033 TX05/0113Z TN00/0124Z"
    },
    {
      "icao": "LYNI",
      "alert": "OK",
      "vis_m": 9999,
      "fzfg": false,
      "metar_trigger": false,
      "taf_trigger": false,
      "metar": "METAR LYNI 312330Z 03008KT 360V060 9999 SCT033 05/03 Q1007 NOSIG",
      "taf": "TAF LYNI 312300Z 0100/0124 09004KT 9999 BKN033 TX05/0100Z TNM02/0124Z"
    },
    {
      "icao": "LYPG",
      "alert": "OK",
      "vis_m": 7000,
      "fzfg": false,
      "metar_trigger": false,
      "taf_trigger": false,
      "metar": "METAR LYPG 312330Z VRB01KT 7000 NSC 04/03 Q1003 NOSIG",
      "taf": "TAF LYPG 312300Z 0100/0124 36005KT 9999 FEW040 TX10/0112Z TN04/0105Z"
    },
    {
      "icao": "LZIB",
      "alert": "OK",
      "vis_m": 6000,
      "fzfg": false,
      "metar_trigger": false,
      "taf_trigger": false,
      "metar": "METAR LZIB 312330Z 23002KT 6000 BKN005 BKN011 01/M00 Q1010 NOSIG",
      "taf": "TAF LZIB 312315Z 0100/0200 VRB02KT 7000 SCT009 OVC013"
    },
    {
      "icao": "LZKZ",
      "alert": "OK",
      "vis_m": 9999,
      "fzfg": false,
      "metar_trigger": false,
      "taf_trigger": false,
      "metar": "METAR LZKZ 312330Z 02016KT 9999 FEW026 BKN038 M06/M10 Q1011 NOSIG",
      "taf": "TAF LZKZ 312315Z 0100/0200 01018KT 9999 BKN032"
    },
    {
      "icao": "LZTT",
      "alert": "OK",
      "vis_m": 7000,
      "fzfg": false,
      "metar_trigger": false,
      "taf_trigger": false,
      "metar": "METAR LZTT 312330Z 07006KT 7000 BKN005 OVC010 M10/M11 Q1010",
      "taf": "TAF LZTT 312315Z 0100/0200 06007KT 6000 BKN005 OVC013"
    },
    {
      "icao": "OEJN",
      "alert": "OK",
      "vis_m": 9999,
      "fzfg": false,
      "metar_trigger": false,
      "taf_trigger": false,
      "metar": "METAR OEJN 312300Z 35002KT CAVOK 24/17 Q1013 NOSIG",
      "taf": "TAF OEJN 312300Z 0100/0206 02006KT CAVOK"
    },
    {
      "icao": "OEMA",
      "alert": "OK",
      "vis_m": 9999,
      "fzfg": false,
      "metar_trigger": false,
      "taf_trigger": false,
      "metar": "METAR OEMA 312300Z 33004KT CAVOK 21/09 Q1018 NOSIG",
      "taf": "TAF OEMA 312300Z 0100/0206 VRB03KT CAVOK"
    },
    {
      "icao": "OJAI",
      "alert": "OK",
      "vis_m": 5000,
      "fzfg": false,
      "metar_trigger": false,
      "taf_trigger": false,
      "metar": "METAR OJAI 312300Z 10004KT 5000 HZ NSC 10/04 Q1017 NOSIG",
      "taf": "TAF OJAI 312300Z 0100/0206 20010KT 5000 HZ NSC"
    },
    {
      "icao": "OMAA",
      "alert": "OK",
      "vis_m": 9999,
      "fzfg": false,
      "metar_trigger": false,
      "taf_trigger": false,
      "metar": "METAR OMAA 312330Z 31003KT 270V360 CAVOK 18/14 Q1017 NOSIG",
      "taf": "TAF OMAA 312300Z 0100/0206 VRB02KT 8000 NSC"
    },
    {
      "icao": "OMDB",
      "alert": "OK",
      "vis_m": 9999,
      "fzfg": false,
      "metar_trigger": false,
      "taf_trigger": false,
      "metar": "METAR OMDB 312300Z 16005KT CAVOK 17/13 Q1017 NOSIG",
      "taf": "TAF OMDB 312300Z 0100/0206 14005KT 8000 NSC"
    },
    {
      "icao": "UAAA",
      "alert": "OK",
      "vis_m": 2800,
      "fzfg": false,
      "metar_trigger": false,
      "taf_trigger": false,
      "metar": "METAR UAAA 312330Z 13002MPS 2800 BR SCT100 BKN200 M06/M08 Q1019 NOSIG",
      "taf": "TAF UAAA 312312Z 0100/0124 23003MPS 1600 BR FU SCT011 BKN050 TX04/0109Z TNM06/0102Z"
    },
    {
      "icao": "UBBB",
      "alert": "OK",
      "vis_m": 8000,
      "fzfg": false,
      "metar_trigger": false,
      "taf_trigger": false,
      "metar": "METAR UBBB 312330Z 32008KT 8000 BKN006 05/04 Q1007 NOSIG",
      "taf": "TAF UBBB 312259Z 0100/0124 32006KT 5000 BR BKN008 TX10/0110Z TN04/0100Z"
    },
    {
      "icao": "UDSG",
      "alert": "OK",
      "vis_m": 1000,
      "fzfg": false,
      "metar_trigger": false,
      "taf_trigger": false,
      "metar": "METAR UDSG 312330Z 27001KT 1000 R02/P2000N BR OVC006 M02/M02 Q1013 NOSIG",
      "taf": "TAF UDSG 312258Z 0100/0124 VRB06KT 1500 BR OVC010"
    },
    {
      "icao": "UDYZ",
      "alert": "OK",
      "vis_m": 800,
      "fzfg": true,
      "metar_trigger": false,
      "taf_trigger": false,
      "metar": "METAR UDYZ 312330Z 34001KT 0800 0750W R08/1700N FZFG VV004 M01/M02 Q1015 NOSIG",
      "taf": "TAF UDYZ 312300Z 0100/0124 VRB06KT 0600 FZFG VV003"
    },
    {
      "icao": "UGKO",
      "alert": "OK",
      "vis_m": 9999,
      "fzfg": false,
      "metar_trigger": false,
      "taf_trigger": false,
      "metar": "METAR UGKO 312330Z VRB02KT 9999 -RA SCT025 OVC071 09/06 Q1007 NOSIG",
      "taf": "TAF UGKO 312300Z 0100/0124 08007KT 9999 BKN050 TX11/0111Z TN06/0124Z"
    }
  ]
}