{
  "ts_utc": "2026-02-19T18:31:14Z",
  "threshold_m": 150,
  "source": "stations_override.txt (ICAO list) + aviationweather.gov (METAR/TAF raw)",
  "station_count": 159,
  "stations": [
    {
      "icao": "BIKF",
      "alert": "OK",
      "vis_m": 9999,
      "fzfg": false,
      "metar_trigger": false,
      "taf_trigger": false,
      "metar": "METAR BIKF 191800Z 08008KT CAVOK M01/M07 Q1009",
      "taf": "TAF BIKF 191631Z 1918/2018 05012KT CAVOK TX01/2015Z TNM03/2006Z"
    },
    {
      "icao": "BKPR",
      "alert": "OK",
      "vis_m": 9999,
      "fzfg": false,
      "metar_trigger": false,
      "taf_trigger": false,
      "metar": "METAR BKPR 191830Z 19008KT 9999 BKN060 07/00 Q1012 NOSIG",
      "taf": "TAF BKPR 191730Z 1918/2018 18006KT 9999 BKN050"
    },
    {
      "icao": "EBCI",
      "alert": "OK",
      "vis_m": 9999,
      "fzfg": false,
      "metar_trigger": false,
      "taf_trigger": false,
      "metar": "METAR EBCI 191820Z 09002KT 9999 SCT014 BKN032 07/04 Q1005 TEMPO BKN010",
      "taf": "TAF EBCI 191718Z 1918/2024 VRB04KT 9999 SCT015 BKN020"
    },
    {
      "icao": "EDDB",
      "alert": "OK",
      "vis_m": 9999,
      "fzfg": false,
      "metar_trigger": false,
      "taf_trigger": false,
      "metar": "METAR EDDB 191820Z AUTO 05008KT CAVOK M04/M08 Q1016 NOSIG",
      "taf": "TAF EDDB 191700Z 1918/2018 06008KT CAVOK"
    },
    {
      "icao": "EDDH",
      "alert": "OK",
      "vis_m": 9999,
      "fzfg": false,
      "metar_trigger": false,
      "taf_trigger": false,
      "metar": "METAR EDDH 191820Z AUTO 08007KT CAVOK M03/M07 Q1016 NOSIG",
      "taf": "TAF EDDH 191700Z 1918/2024 09009KT CAVOK"
    },
    {
      "icao": "EDDK",
      "alert": "OK",
      "vis_m": 9999,
      "fzfg": false,
      "metar_trigger": false,
      "taf_trigger": false,
      "metar": "METAR EDDK 191820Z AUTO 09007KT 060V120 9999 BKN021 BKN033 03/00 Q1008 NOSIG",
      "taf": "TAF EDDK 191700Z 1918/2024 11007KT 9999 BKN030"
    },
    {
      "icao": "EDDN",
      "alert": "OK",
      "vis_m": 3700,
      "fzfg": false,
      "metar_trigger": false,
      "taf_trigger": false,
      "metar": "METAR EDDN 191820Z AUTO 07003KT 030V100 3700 -SN BR FEW008 SCT016 00/M01 Q1007 TEMPO 2500 BKN008",
      "taf": "TAF EDDN 191700Z 1918/2018 03004KT 4000 -SN SCT010 BKN020"
    },
    {
      "icao": "EDDS",
      "alert": "OK",
      "vis_m": 9999,
      "fzfg": false,
      "metar_trigger": false,
      "taf_trigger": false,
      "metar": "METAR EDDS 191820Z AUTO 08005KT 9999 SCT012 OVC029 OVC042 03/02 Q1004 BECMG BKN013",
      "taf": "TAF EDDS 191700Z 1918/2018 07005KT 9999 FEW010 BKN035"
    },
    {
      "icao": "EDFH",
      "alert": "OK",
      "vis_m": 8000,
      "fzfg": true,
      "metar_trigger": false,
      "taf_trigger": false,
      "metar": "METAR EDFH 191820Z 10011KT 8000 OVC002 M00/M00 Q1005",
      "taf": "TAF EDFH 191700Z 1918/2018 10008KT 0200 FZFG VV001"
    },
    {
      "icao": "EDJA",
      "alert": "OK",
      "vis_m": 4200,
      "fzfg": false,
      "metar_trigger": false,
      "taf_trigger": false,
      "metar": "METAR EDJA 191820Z 03003KT 4200 -DZ BR OVC002 02/01 Q1003",
      "taf": "TAF EDJA 191700Z 1918/2003 04006KT 6000 SCT004 BKN025"
    },
    {
      "icao": "EDLW",
      "alert": "OK",
      "vis_m": 9999,
      "fzfg": false,
      "metar_trigger": false,
      "taf_trigger": false,
      "metar": "METAR EDLW 191820Z 04010KT CAVOK 02/M02 Q1008",
      "taf": "TAF EDLW 191700Z 1918/2018 08011KT 9999 SCT030"
    },
    {
      "icao": "EDNY",
      "alert": "OK",
      "vis_m": 8000,
      "fzfg": false,
      "metar_trigger": false,
      "taf_trigger": false,
      "metar": "METAR EDNY 191820Z VRB01KT 8000 FEW004 SCT018 OVC022 05/04 Q1004",
      "taf": "TAF EDNY 191700Z 1918/2003 02004KT 8000 OVC025"
    },
    {
      "icao": "EDSB",
      "alert": "OK",
      "vis_m": 9999,
      "fzfg": false,
      "metar_trigger": false,
      "taf_trigger": false,
      "metar": "METAR EDSB 191820Z 01009KT 9999 FEW007 BKN030 OVC041 04/03 Q1004",
      "taf": "TAF EDSB 191700Z 1918/2018 02008KT 9999 SCT020 BKN035"
    },
    {
      "icao": "EETN",
      "alert": "OK",
      "vis_m": 9999,
      "fzfg": false,
      "metar_trigger": false,
      "taf_trigger": false,
      "metar": "METAR EETN 191820Z 02004KT 350V060 9999 -SN OVC015 M10/M12 Q1011 NOSIG",
      "taf": "TAF EETN 191730Z 1918/2018 01008KT 9999 OVC010"
    },
    {
      "icao": "EFTU",
      "alert": "OK",
      "vis_m": 9999,
      "fzfg": false,
      "metar_trigger": false,
      "taf_trigger": false,
      "metar": "METAR EFTU 191820Z AUTO 35003KT CAVOK M12/M14 Q1013",
      "taf": "TAF EFTU 191725Z 1918/2018 VRB02KT CAVOK"
    },
    {
      "icao": "EGBB",
      "alert": "OK",
      "vis_m": 9999,
      "fzfg": false,
      "metar_trigger": false,
      "taf_trigger": false,
      "metar": "METAR EGBB 191820Z 31007KT 9999 SCT011 BKN022 04/03 Q1009",
      "taf": ""
    },
    {
      "icao": "EGGP",
      "alert": "OK",
      "vis_m": 9999,
      "fzfg": false,
      "metar_trigger": false,
      "taf_trigger": false,
      "metar": "METAR EGGP 191820Z 28004KT 9999 FEW014 BKN030 04/02 Q1009",
      "taf": "TAF EGGP 191702Z 1918/2018 VRB04KT 9999 SCT025"
    },
    {
      "icao": "EGGW",
      "alert": "OK",
      "vis_m": 9999,
      "fzfg": false,
      "metar_trigger": false,
      "taf_trigger": false,
      "metar": "METAR EGGW 191820Z AUTO 31010KT 9999 FEW007 SCT011 BKN020 04/03 Q1008",
      "taf": "TAF EGGW 191658Z 1918/2018 30008KT 8000 BKN008"
    },
    {
      "icao": "EGKK",
      "alert": "OK",
      "vis_m": 9999,
      "fzfg": false,
      "metar_trigger": false,
      "taf_trigger": false,
      "metar": "METAR EGKK 191820Z 30008KT 9999 SCT014 BKN023 05/04 Q1008",
      "taf": "TAF EGKK 191655Z 1918/2024 33008KT 9999 SCT010 BKN018"
    },
    {
      "icao": "EGNM",
      "alert": "OK",
      "vis_m": 3500,
      "fzfg": false,
      "metar_trigger": false,
      "taf_trigger": false,
      "metar": "METAR EGNM 191820Z 00000KT 3500 -DZ BR SCT005 OVC009 02/02 Q1008",
      "taf": "TAF EGNM 191703Z 1918/2018 VRB02KT 3000 -DZ BKN003"
    },
    {
      "icao": "EGPD",
      "alert": "OK",
      "vis_m": 9999,
      "fzfg": false,
      "metar_trigger": false,
      "taf_trigger": false,
      "metar": "METAR EGPD 191820Z COR 17014KT 9999 BKN024 05/01 Q1007 NOSIG",
      "taf": "TAF EGPD 191654Z 1918/2018 17013KT 9999 BKN020"
    },
    {
      "icao": "EGPF",
      "alert": "OK",
      "vis_m": 9999,
      "fzfg": false,
      "metar_trigger": false,
      "taf_trigger": false,
      "metar": "METAR EGPF 191820Z AUTO 20007KT 170V240 9999 -RA BKN023 OVC030 05/02 Q1007",
      "taf": "TAF EGPF 191657Z 1918/2018 15007KT 9999 FEW015 SCT025"
    },
    {
      "icao": "EHBK",
      "alert": "OK",
      "vis_m": 9999,
      "fzfg": false,
      "metar_trigger": false,
      "taf_trigger": false,
      "metar": "METAR EHBK 191825Z AUTO 06004KT 020V080 9999 OVC037 04/01 Q1006 NOSIG",
      "taf": "TAF EHBK 191723Z 1918/2024 09012KT 9999 OVC030"
    },
    {
      "icao": "EHEH",
      "alert": "OK",
      "vis_m": 9999,
      "fzfg": false,
      "metar_trigger": false,
      "taf_trigger": false,
      "metar": "METAR EHEH 191755Z AUTO 08007KT 050V110 9999 OVC041 04/02 Q1006 BLU NOSIG",
      "taf": "TAF EHEH 191713Z 1918/2024 09008KT CAVOK"
    },
    {
      "icao": "EKBI",
      "alert": "OK",
      "vis_m": 9999,
      "fzfg": false,
      "metar_trigger": false,
      "taf_trigger": false,
      "metar": "METAR EKBI 191820Z AUTO 08007KT 9999 NCD M05/M08 Q1018",
      "taf": "TAF EKBI 191727Z 1918/2018 08008KT CAVOK"
    },
    {
      "icao": "EKCH",
      "alert": "OK",
      "vis_m": 9999,
      "fzfg": false,
      "metar_trigger": false,
      "taf_trigger": false,
      "metar": "METAR EKCH 191820Z AUTO 03006KT 9999 NCD M03/M08 Q1019 NOSIG",
      "taf": "TAF EKCH 191727Z 1918/2018 02008KT CAVOK"
    },
    {
      "icao": "ENAL",
      "alert": "OK",
      "vis_m": 9999,
      "fzfg": false,
      "metar_trigger": false,
      "taf_trigger": false,
      "metar": "METAR ENAL 191820Z 21017KT CAVOK 04/M05 Q1009",
      "taf": "TAF ENAL 191700Z 1918/2003 20012KT CAVOK"
    },
    {
      "icao": "ENBR",
      "alert": "OK",
      "vis_m": 9999,
      "fzfg": false,
      "metar_trigger": false,
      "taf_trigger": false,
      "metar": "METAR ENBR 191820Z 17016KT CAVOK M00/M05 Q1015 NOSIG RMK WIND 1200FT 16019KT",
      "taf": "TAF ENBR 191700Z 1918/2018 16010KT CAVOK"
    },
    {
      "icao": "ENGM",
      "alert": "OK",
      "vis_m": 9999,
      "fzfg": false,
      "metar_trigger": false,
      "taf_trigger": false,
      "metar": "METAR ENGM 191820Z 00000KT CAVOK M13/M15 Q1015 NOSIG",
      "taf": "TAF ENGM 191700Z 1918/2018 17005KT 9999 FEW010"
    },
    {
      "icao": "ENHD",
      "alert": "OK",
      "vis_m": 9999,
      "fzfg": false,
      "metar_trigger": false,
      "taf_trigger": false,
      "metar": "METAR ENHD 191820Z 15010KT CAVOK M00/M06 Q1015",
      "taf": "TAF ENHD 191400Z 1915/1923 17015KT CAVOK"
    },
    {
      "icao": "ENTC",
      "alert": "OK",
      "vis_m": 9999,
      "fzfg": false,
      "metar_trigger": false,
      "taf_trigger": false,
      "metar": "METAR ENTC 191820Z 21007G19KT 130V290 CAVOK M06/M11 Q1009 NOSIG RMK WIND 2600FT 18015KT",
      "taf": "TAF ENTC 191700Z 1918/2018 22009KT 9999 SCT050"
    },
    {
      "icao": "ENTO",
      "alert": "OK",
      "vis_m": 9999,
      "fzfg": false,
      "metar_trigger": false,
      "taf_trigger": false,
      "metar": "METAR ENTO 191820Z 21008KT 9999 FEW007 M06/M06 Q1017 TEMPO BKN006",
      "taf": "TAF ENTO 191700Z 1918/2018 22005KT 9999 FEW010"
    },
    {
      "icao": "ENVA",
      "alert": "OK",
      "vis_m": 9999,
      "fzfg": false,
      "metar_trigger": false,
      "taf_trigger": false,
      "metar": "METAR ENVA 191820Z 05004KT 010V070 CAVOK 01/M08 Q1009 NOSIG RMK WIND 670FT 19021KT",
      "taf": "TAF ENVA 191700Z 1918/2018 17009KT 9999 FEW025 BKN040"
    },
    {
      "icao": "ENZV",
      "alert": "OK",
      "vis_m": 9999,
      "fzfg": false,
      "metar_trigger": false,
      "taf_trigger": false,
      "metar": "METAR ENZV 191820Z 15004KT CAVOK M02/M08 Q1016 NOSIG",
      "taf": "TAF ENZV 191700Z 1918/2018 15008KT CAVOK"
    },
    {
      "icao": "EPGD",
      "alert": "OK",
      "vis_m": 9999,
      "fzfg": false,
      "metar_trigger": false,
      "taf_trigger": false,
      "metar": "METAR EPGD 191800Z 30005KT 9999 SCT028 BKN040 M06/M08 Q1015",
      "taf": "TAF EPGD 191730Z 1918/2018 30010KT 9999 BKN035"
    },
    {
      "icao": "EPKK",
      "alert": "OK",
      "vis_m": 8000,
      "fzfg": false,
      "metar_trigger": false,
      "taf_trigger": false,
      "metar": "METAR EPKK 191800Z 07008KT 8000 OVC021 M01/M06 Q1012",
      "taf": "TAF EPKK 191730Z 1918/2018 06008KT 8000 OVC020"
    },
    {
      "icao": "EPKT",
      "alert": "OK",
      "vis_m": 8000,
      "fzfg": false,
      "metar_trigger": false,
      "taf_trigger": false,
      "metar": "METAR EPKT 191800Z 06005KT 8000 NSC M04/M07 Q1012",
      "taf": "TAF EPKT 191730Z 1918/2018 07007KT CAVOK"
    },
    {
      "icao": "EPLB",
      "alert": "OK",
      "vis_m": 8000,
      "fzfg": false,
      "metar_trigger": false,
      "taf_trigger": false,
      "metar": "METAR EPLB 191800Z 15002KT 8000 NSC M09/M11 Q1014",
      "taf": "TAF EPLB 191730Z 1918/2018 27004KT CAVOK"
    },
    {
      "icao": "EPMO",
      "alert": "OK",
      "vis_m": 9999,
      "fzfg": false,
      "metar_trigger": false,
      "taf_trigger": false,
      "metar": "METAR EPMO 191800Z 26006KT 9999 BKN033 M03/M07 Q1015",
      "taf": "TAF EPMO 191730Z 1918/2018 30005KT 9999 BKN030"
    },
    {
      "icao": "EPPO",
      "alert": "OK",
      "vis_m": 9999,
      "fzfg": false,
      "metar_trigger": false,
      "taf_trigger": false,
      "metar": "METAR EPPO 191800Z 04003KT 010V080 9999 BKN037 M02/M09 Q1016",
      "taf": "TAF EPPO 191730Z 1918/2018 06010KT 9999 SCT030"
    },
    {
      "icao": "EPRA",
      "alert": "OK",
      "vis_m": 9999,
      "fzfg": false,
      "metar_trigger": false,
      "taf_trigger": false,
      "metar": "METAR EPRA 191800Z 35003KT CAVOK M06/M10 Q1014",
      "taf": "TAF EPRA 191730Z 1918/2003 35004KT CAVOK"
    },
    {
      "icao": "EPRZ",
      "alert": "OK",
      "vis_m": 9999,
      "fzfg": false,
      "metar_trigger": false,
      "taf_trigger": false,
      "metar": "METAR EPRZ 191800Z 05005KT 9999 OVC026 M02/M06 Q1013",
      "taf": "TAF EPRZ 191730Z 1918/2018 06005KT 9999 OVC024"
    },
    {
      "icao": "EPSC",
      "alert": "OK",
      "vis_m": 9999,
      "fzfg": false,
      "metar_trigger": false,
      "taf_trigger": false,
      "metar": "METAR EPSC 191800Z 04003KT 010V070 CAVOK M03/M07 Q1017",
      "taf": "TAF EPSC 191730Z 1918/2018 VRB03KT CAVOK"
    },
    {
      "icao": "EPSY",
      "alert": "OK",
      "vis_m": 9999,
      "fzfg": false,
      "metar_trigger": false,
      "taf_trigger": false,
      "metar": "METAR EPSY 191800Z 30005KT 260V330 9999 FEW019 BKN043 M03/M06 Q1014",
      "taf": "TAF EPSY 191730Z 1918/2003 30006KT 9999 BKN025"
    },
    {
      "icao": "EPWA",
      "alert": "OK",
      "vis_m": 9999,
      "fzfg": false,
      "metar_trigger": false,
      "taf_trigger": false,
      "metar": "METAR EPWA 191800Z 32004KT 9999 FEW035 M05/M09 Q1015 NOSIG",
      "taf": "TAF EPWA 191730Z 1918/2018 29004KT 9999 BKN030"
    },
    {
      "icao": "EPWR",
      "alert": "OK",
      "vis_m": 9999,
      "fzfg": false,
      "metar_trigger": false,
      "taf_trigger": false,
      "metar": "METAR EPWR 191800Z 05004KT CAVOK M04/M07 Q1014",
      "taf": "TAF EPWR 191730Z 1918/2018 06008KT CAVOK"
    },
    {
      "icao": "ESGG",
      "alert": "OK",
      "vis_m": 9999,
      "fzfg": false,
      "metar_trigger": false,
      "taf_trigger": false,
      "metar": "METAR ESGG 191820Z 00000KT CAVOK M06/M08 Q1017",
      "taf": "TAF ESGG 191730Z 1918/2018 VRB03KT CAVOK"
    },
    {
      "icao": "ESKN",
      "alert": "OK",
      "vis_m": 9999,
      "fzfg": false,
      "metar_trigger": false,
      "taf_trigger": false,
      "metar": "METAR ESKN 191820Z 27003KT CAVOK M11/M12 Q1017",
      "taf": "TAF ESKN 191730Z 1918/2018 28004KT CAVOK"
    },
    {
      "icao": "ESMS",
      "alert": "OK",
      "vis_m": 9999,
      "fzfg": false,
      "metar_trigger": false,
      "taf_trigger": false,
      "metar": "METAR ESMS 191820Z 32003KT CAVOK M07/M10 Q1018",
      "taf": "TAF ESMS 191727Z 1918/2018 04006KT CAVOK"
    },
    {
      "icao": "ESSA",
      "alert": "OK",
      "vis_m": 9999,
      "fzfg": false,
      "metar_trigger": false,
      "taf_trigger": false,
      "metar": "METAR ESSA 191820Z 26003KT CAVOK M11/M13 Q1015 NOSIG",
      "taf": "TAF ESSA 191730Z 1918/2018 VRB03KT 9999 FEW020"
    },
    {
      "icao": "EYKA",
      "alert": "OK",
      "vis_m": 9999,
      "fzfg": false,
      "metar_trigger": false,
      "taf_trigger": false,
      "metar": "METAR EYKA 191820Z 34003KT 250V050 9999 BKN046 M06/M09 Q1012",
      "taf": "TAF EYKA 191705Z 1918/2018 VRB04KT 9000 BKN020"
    },
    {
      "icao": "EYPA",
      "alert": "OK",
      "vis_m": 9999,
      "fzfg": false,
      "metar_trigger": false,
      "taf_trigger": false,
      "metar": "METAR EYPA 191820Z VRB02KT CAVOK M06/M09 Q1013",
      "taf": "TAF EYPA 191705Z 1918/2018 VRB04KT 9000 BKN035"
    },
    {
      "icao": "EYVI",
      "alert": "OK",
      "vis_m": 4500,
      "fzfg": false,
      "metar_trigger": false,
      "taf_trigger": false,
      "metar": "METAR EYVI 191820Z 30007KT 4500 -SN BR SCT007 OVC041 M05/M07 Q1010 TEMPO 3000 SN BKN005",
      "taf": "TAF EYVI 191705Z 1918/2018 VRB04KT 9000 BKN020"
    },
    {
      "icao": "GCFV",
      "alert": "OK",
      "vis_m": 9999,
      "fzfg": false,
      "metar_trigger": false,
      "taf_trigger": false,
      "metar": "METAR GCFV 191800Z 03018KT 9999 FEW025 18/13 Q1022",
      "taf": "TAF GCFV 191400Z 1915/2015 04018KT 9999 FEW025 TX21/2014Z TN16/2006Z"
    },
    {
      "icao": "GCLP",
      "alert": "OK",
      "vis_m": 9999,
      "fzfg": false,
      "metar_trigger": false,
      "taf_trigger": false,
      "metar": "METAR GCLP 191800Z 03020KT 9999 FEW025 19/12 Q1022 NOSIG",
      "taf": "TAF GCLP 191400Z 1915/2015 02020KT 9999 SCT025 TX20/2014Z TN16/2006Z"
    },
    {
      "icao": "GCTS",
      "alert": "OK",
      "vis_m": 9999,
      "fzfg": false,
      "metar_trigger": false,
      "taf_trigger": false,
      "metar": "METAR GCTS 191800Z 07020KT 9999 FEW020 19/12 Q1022 WS R07 NOSIG",
      "taf": "TAF GCTS 191400Z 1915/2015 08022KT 9999 FEW020 TX24/2014Z TN16/2006Z"
    },
    {
      "icao": "GMAD",
      "alert": "OK",
      "vis_m": 8000,
      "fzfg": false,
      "metar_trigger": false,
      "taf_trigger": false,
      "metar": "METAR GMAD 191800Z 24007KT 8000 NSC 17/14 Q1019 NOSIG",
      "taf": "TAF GMAD 191700Z 1918/2024 20008KT 8000 NSC"
    },
    {
      "icao": "GMMN",
      "alert": "OK",
      "vis_m": 9999,
      "fzfg": false,
      "metar_trigger": false,
      "taf_trigger": false,
      "metar": "METAR GMMN 191800Z 03013KT 9999 FEW020 14/11 Q1024 NOSIG",
      "taf": "TAF GMMN 191700Z 1918/2024 02014KT 9999 FEW020"
    },
    {
      "icao": "GMMX",
      "alert": "OK",
      "vis_m": 9999,
      "fzfg": false,
      "metar_trigger": false,
      "taf_trigger": false,
      "metar": "METAR GMMX 191800Z 07006KT CAVOK 18/11 Q1022 NOSIG",
      "taf": "TAF GMMX 191700Z 1918/2024 06006KT CAVOK"
    },
    {
      "icao": "HEGN",
      "alert": "OK",
      "vis_m": 9999,
      "fzfg": false,
      "metar_trigger": false,
      "taf_trigger": false,
      "metar": "METAR HEGN 191800Z 33016KT CAVOK 20/03 Q1018 NOSIG",
      "taf": "TAF HEGN 191700Z 1918/2024 29015KT CAVOK"
    },
    {
      "icao": "HEMA",
      "alert": "OK",
      "vis_m": 9999,
      "fzfg": false,
      "metar_trigger": false,
      "taf_trigger": false,
      "metar": "METAR HEMA 191800Z 31008KT CAVOK 19/09 Q1017 NOSIG",
      "taf": "TAF HEMA 191700Z 1918/2024 30015KT CAVOK"
    },
    {
      "icao": "HESH",
      "alert": "OK",
      "vis_m": 9999,
      "fzfg": false,
      "metar_trigger": false,
      "taf_trigger": false,
      "metar": "METAR HESH 191800Z 34010KT CAVOK 21/11 Q1016 NOSIG",
      "taf": "TAF HESH 191700Z 1918/2024 35012KT CAVOK"
    },
    {
      "icao": "HESX",
      "alert": "OK",
      "vis_m": null,
      "fzfg": false,
      "metar_trigger": false,
      "taf_trigger": false,
      "metar": "",
      "taf": "TAF HESX 191700Z 1918/2024 02007KT CAVOK"
    },
    {
      "icao": "LATI",
      "alert": "OK",
      "vis_m": 9999,
      "fzfg": false,
      "metar_trigger": false,
      "taf_trigger": false,
      "metar": "METAR LATI 191820Z 15008KT 9999 SCT055 BKN070 14/03 Q1012 NOSIG",
      "taf": "TAF LATI 191700Z 1918/2018 16010KT 9999 SCT030 BKN070 TX14/2012Z TN09/2004Z"
    },
    {
      "icao": "LBPD",
      "alert": "OK",
      "vis_m": 9999,
      "fzfg": false,
      "metar_trigger": false,
      "taf_trigger": false,
      "metar": "METAR LBPD 191800Z AUTO 29006KT 9999 FEW250/// 05/01 Q1015 NOSIG",
      "taf": "TAF LBPD 191700Z 1918/2018 VRB03KT 9999 SCT080"
    },
    {
      "icao": "LBSF",
      "alert": "OK",
      "vis_m": 9999,
      "fzfg": false,
      "metar_trigger": false,
      "taf_trigger": false,
      "metar": "METAR LBSF 191800Z AUTO 09013KT 9999 FEW071/// SCT081/// 05/M03 Q1014 NOSIG",
      "taf": "TAF LBSF 191700Z 1918/2018 11010KT 9999 SCT070"
    },
    {
      "icao": "LBWN",
      "alert": "OK",
      "vis_m": 9999,
      "fzfg": false,
      "metar_trigger": false,
      "taf_trigger": false,
      "metar": "METAR LBWN 191800Z AUTO 10007KT 9999 NSC 05/M00 Q1017 NOSIG",
      "taf": "TAF LBWN 191700Z 1918/2018 09008KT 9999 SCT045"
    },
    {
      "icao": "LCLK",
      "alert": "OK",
      "vis_m": 9999,
      "fzfg": false,
      "metar_trigger": false,
      "taf_trigger": false,
      "metar": "METAR LCLK 191800Z 06010KT 9999 -SHRA SCT027 BKN042 17/12 Q1021 NOSIG RMK RAIN",
      "taf": "TAF LCLK 191730Z 1918/2018 06010KT 9999 FEW025"
    },
    {
      "icao": "LCPH",
      "alert": "OK",
      "vis_m": 9999,
      "fzfg": false,
      "metar_trigger": false,
      "taf_trigger": false,
      "metar": "METAR LCPH 191800Z 01003KT 9999 FEW035 13/07 Q1022 NOSIG",
      "taf": "TAF LCPH 191730Z 1918/2018 04008KT 9999 FEW025"
    },
    {
      "icao": "LEAL",
      "alert": "OK",
      "vis_m": 9999,
      "fzfg": false,
      "metar_trigger": false,
      "taf_trigger": false,
      "metar": "METAR LEAL 191800Z 30012KT 260V320 CAVOK 17/M03 Q1022 NOSIG",
      "taf": "TAF LEAL 191700Z 1918/2018 30015KT 9999 FEW030 TX18/2013Z TN09/2006Z"
    },
    {
      "icao": "LEBB",
      "alert": "OK",
      "vis_m": 9999,
      "fzfg": false,
      "metar_trigger": false,
      "taf_trigger": false,
      "metar": "METAR LEBB 191800Z 27009KT 220V300 9999 FEW030 BKN055 10/06 Q1025 TEMPO RA",
      "taf": "TAF LEBB 191700Z 1918/2018 30009KT 9999 FEW020 BKN025 TX14/2013Z TN07/2005Z"
    },
    {
      "icao": "LEBL",
      "alert": "OK",
      "vis_m": 9999,
      "fzfg": false,
      "metar_trigger": false,
      "taf_trigger": false,
      "metar": "METAR LEBL 191800Z 30016G27KT 280V340 CAVOK 14/01 Q1014 NOSIG",
      "taf": "TAF LEBL 191700Z 1918/2018 29012KT CAVOK TX18/2013Z TN09/2006Z"
    },
    {
      "icao": "LECH",
      "alert": "OK",
      "vis_m": 9999,
      "fzfg": false,
      "metar_trigger": false,
      "taf_trigger": false,
      "metar": "METAR LECH 191800Z AUTO 29008KT 260V320 CAVOK 12/M04 Q1020",
      "taf": ""
    },
    {
      "icao": "LEMD",
      "alert": "OK",
      "vis_m": 9999,
      "fzfg": false,
      "metar_trigger": false,
      "taf_trigger": false,
      "metar": "METAR LEMD 191800Z 27011KT 240V310 CAVOK 09/M02 Q1024 NOSIG",
      "taf": "TAF LEMD 191700Z 1918/2024 28010KT CAVOK TX14/2015Z TNM00/2006Z"
    },
    {
      "icao": "LEMG",
      "alert": "OK",
      "vis_m": 9999,
      "fzfg": false,
      "metar_trigger": false,
      "taf_trigger": false,
      "metar": "METAR LEMG 191800Z 30010KT 260V320 CAVOK 14/03 Q1024 NOSIG",
      "taf": "TAF LEMG 191700Z 1918/2018 29012KT CAVOK TX18/2014Z TN11/2007Z"
    },
    {
      "icao": "LEVC",
      "alert": "OK",
      "vis_m": 9999,
      "fzfg": false,
      "metar_trigger": false,
      "taf_trigger": false,
      "metar": "METAR LEVC 191800Z 28011KT 9999 FEW035 15/M01 Q1020 NOSIG",
      "taf": "TAF LEVC 191700Z 1918/2018 28013KT 9999 FEW035 TX21/2014Z TN08/2006Z"
    },
    {
      "icao": "LEXJ",
      "alert": "OK",
      "vis_m": 2900,
      "fzfg": false,
      "metar_trigger": false,
      "taf_trigger": false,
      "metar": "METAR LEXJ 191800Z 30017KT 2900 SHRA BKN042TCU OVC050 10/07 Q1025",
      "taf": ""
    },
    {
      "icao": "LEZG",
      "alert": "OK",
      "vis_m": 9999,
      "fzfg": false,
      "metar_trigger": false,
      "taf_trigger": false,
      "metar": "METAR LEZG 191800Z 32008KT CAVOK 11/02 Q1021 NOSIG",
      "taf": "TAF LEZG 191700Z 1918/2018 30015KT 9999 FEW040 TX13/2014Z TN07/2006Z"
    },
    {
      "icao": "LEZL",
      "alert": "OK",
      "vis_m": 9999,
      "fzfg": false,
      "metar_trigger": false,
      "taf_trigger": false,
      "metar": "METAR LEZL 191800Z 02005KT 290V040 CAVOK 15/06 Q1026 NOSIG",
      "taf": "TAF LEZL 191400Z 1915/2015 36007KT CAVOK TX18/1915Z TN06/2007Z"
    },
    {
      "icao": "LFBD",
      "alert": "OK",
      "vis_m": 6000,
      "fzfg": false,
      "metar_trigger": false,
      "taf_trigger": false,
      "metar": "METAR LFBD 191800Z AUTO 30022G34KT 6000 -RA FEW018/// BKN024/// BKN030/// ///TCU 10/08 Q1017 TEMPO 3000 SHRA",
      "taf": "TAF LFBD 191700Z 1918/2024 29015G25KT 9999 BKN030 TX13/2013Z TN07/2006Z"
    },
    {
      "icao": "LFLL",
      "alert": "OK",
      "vis_m": 9999,
      "fzfg": false,
      "metar_trigger": false,
      "taf_trigger": false,
      "metar": "METAR LFLL 191800Z 23005KT 9999 -SHRA FEW023TCU BKN028 BKN053 08/06 Q1005 TEMPO 30012KT 4000 -SHRA",
      "taf": "TAF LFLL 191700Z 1918/2024 30012KT 9999 OVC030"
    },
    {
      "icao": "LFLS",
      "alert": "OK",
      "vis_m": 9999,
      "fzfg": false,
      "metar_trigger": false,
      "taf_trigger": false,
      "metar": "METAR LFLS 191800Z AUTO 24005KT 9999 BKN035/// BKN044/// BKN052/// ///TCU 07/06 Q1006 TEMPO 4000 SHRA FEW025CB BKN025TCU",
      "taf": "TAF LFLS 191400Z 1915/2015 20010KT 9999 BKN035"
    },
    {
      "icao": "LFMN",
      "alert": "OK",
      "vis_m": 9999,
      "fzfg": false,
      "metar_trigger": false,
      "taf_trigger": false,
      "metar": "METAR LFMN 191800Z 25029KT 9999 SCT100 13/05 Q1002 NOSIG",
      "taf": ""
    },
    {
      "icao": "LFOB",
      "alert": "OK",
      "vis_m": 9999,
      "fzfg": false,
      "metar_trigger": false,
      "taf_trigger": false,
      "metar": "METAR LFOB 191800Z AUTO 32014KT 9999 OVC011 08/06 Q1006 TEMPO 2500 RADZ OVC005",
      "taf": ""
    },
    {
      "icao": "LFPO",
      "alert": "OK",
      "vis_m": 8000,
      "fzfg": false,
      "metar_trigger": false,
      "taf_trigger": false,
      "metar": "METAR LFPO 191800Z 31011KT 8000 BKN015 09/07 Q1006 TEMPO BKN014",
      "taf": "TAF LFPO 191700Z 1918/2024 30010KT 9999 BKN015"
    },
    {
      "icao": "LFSB",
      "alert": "OK",
      "vis_m": 9999,
      "fzfg": false,
      "metar_trigger": false,
      "taf_trigger": false,
      "metar": "METAR LFSB 191800Z AUTO VRB03KT 9999 BKN033/// BKN040/// OVC052/// ///TCU 07/06 Q1003 TEMPO SHRA",
      "taf": "TAF LFSB 191700Z 1918/2018 15005KT 9999 SCT025 BKN040"
    },
    {
      "icao": "LGAV",
      "alert": "OK",
      "vis_m": 9999,
      "fzfg": false,
      "metar_trigger": false,
      "taf_trigger": false,
      "metar": "METAR LGAV 191820Z 25003KT 9999 FEW030 10/05 Q1019 NOSIG",
      "taf": "TAF LGAV 191700Z 1918/2018 20010KT 9999 FEW025"
    },
    {
      "icao": "LGTS",
      "alert": "OK",
      "vis_m": 9999,
      "fzfg": false,
      "metar_trigger": false,
      "taf_trigger": false,
      "metar": "METAR LGTS 191820Z 11010KT 9999 FEW020 12/04 Q1017 NOSIG",
      "taf": "TAF LGTS 191700Z 1918/2018 14013KT 9999 FEW030"
    },
    {
      "icao": "LHBP",
      "alert": "OK",
      "vis_m": 7000,
      "fzfg": false,
      "metar_trigger": false,
      "taf_trigger": false,
      "metar": "METAR LHBP 191800Z 04005KT 360V070 7000 -RA FEW005 OVC034 02/01 Q1008 NOSIG",
      "taf": "TAF LHBP 191715Z 1918/2018 06009KT 9999 FEW010 BKN060"
    },
    {
      "icao": "LHDC",
      "alert": "OK",
      "vis_m": 9999,
      "fzfg": false,
      "metar_trigger": false,
      "taf_trigger": false,
      "metar": "METAR LHDC 191745Z AUTO 06010KT CAVOK 04/02 Q1009 NOSIG",
      "taf": "TAF LHDC 191415Z 1915/1924 10009KT 9999 RA OVC025"
    },
    {
      "icao": "LIBD",
      "alert": "OK",
      "vis_m": 9999,
      "fzfg": false,
      "metar_trigger": false,
      "taf_trigger": false,
      "metar": "METAR LIBD 191820Z 14017KT CAVOK 14/11 Q1005",
      "taf": "TAF LIBD 191700Z 1918/2018 15015KT 9999 SCT040"
    },
    {
      "icao": "LIBG",
      "alert": "OK",
      "vis_m": 6000,
      "fzfg": false,
      "metar_trigger": false,
      "taf_trigger": false,
      "metar": "METAR LIBG 191750Z 16016KT 6000 SCT010 SCT020 15/12 Q1008",
      "taf": "TAF LIBG 191700Z 1918/2003 17015G30KT 9999 SCT020"
    },
    {
      "icao": "LIBP",
      "alert": "OK",
      "vis_m": 9999,
      "fzfg": false,
      "metar_trigger": false,
      "taf_trigger": false,
      "metar": "METAR LIBP 191820Z AUTO 07003KT 030V100 9999 -RA FEW020/// OVC066/// 11/10 Q1002 RERA",
      "taf": "TAF LIBP 191700Z 1918/2018 VRB05KT 9999 SCT030 SCT060"
    },
    {
      "icao": "LIBR",
      "alert": "OK",
      "vis_m": 9999,
      "fzfg": false,
      "metar_trigger": false,
      "taf_trigger": false,
      "metar": "METAR LIBR 191820Z 18019KT 9999 SCT030 15/11 Q1009",
      "taf": "TAF LIBR 191700Z 1918/2018 17020G30KT 9999 SCT025"
    },
    {
      "icao": "LICA",
      "alert": "OK",
      "vis_m": 9999,
      "fzfg": false,
      "metar_trigger": false,
      "taf_trigger": false,
      "metar": "METAR LICA 191820Z AUTO 36003KT 260V050 9999 BKN070/// 14/11 Q1010",
      "taf": "TAF LICA 191700Z 1918/2018 25010KT 9999 SCT030"
    },
    {
      "icao": "LICC",
      "alert": "OK",
      "vis_m": 9999,
      "fzfg": false,
      "metar_trigger": false,
      "taf_trigger": false,
      "metar": "METAR LICC 191820Z 26006KT CAVOK 15/10 Q1011",
      "taf": "TAF LICC 191700Z 1918/2018 26011KT 9999 FEW040"
    },
    {
      "icao": "LICJ",
      "alert": "OK",
      "vis_m": 9999,
      "fzfg": false,
      "metar_trigger": false,
      "taf_trigger": false,
      "metar": "METAR LICJ 191820Z 25020KT 9999 SCT040 15/09 Q1011",
      "taf": "TAF LICJ 191700Z 1918/2018 27020G30KT 9999 SCT035"
    },
    {
      "icao": "LIMC",
      "alert": "OK",
      "vis_m": 9999,
      "fzfg": false,
      "metar_trigger": false,
      "taf_trigger": false,
      "metar": "METAR LIMC 191820Z 28005KT CAVOK 06/04 Q1000 NOSIG",
      "taf": "TAF LIMC 191700Z 1918/2024 33007KT 9999 BKN025"
    },
    {
      "icao": "LIME",
      "alert": "OK",
      "vis_m": 9999,
      "fzfg": false,
      "metar_trigger": false,
      "taf_trigger": false,
      "metar": "METAR LIME 191820Z AUTO 28007KT 9999 NCD 05/04 Q1000",
      "taf": "TAF LIME 191700Z 1918/2018 VRB05KT 8000 BKN020"
    },
    {
      "icao": "LIMF",
      "alert": "OK",
      "vis_m": 9999,
      "fzfg": false,
      "metar_trigger": false,
      "taf_trigger": false,
      "metar": "METAR LIMF 191820Z 06003KT CAVOK 07/03 Q1000",
      "taf": "TAF LIMF 191700Z 1918/2018 VRB05KT 8000 FEW040"
    },
    {
      "icao": "LIMJ",
      "alert": "OK",
      "vis_m": 9999,
      "fzfg": false,
      "metar_trigger": false,
      "taf_trigger": false,
      "metar": "METAR LIMJ 191820Z 09003KT 360V120 9999 FEW030 10/06 Q1002",
      "taf": "TAF LIMJ 191700Z 1918/2018 VRB05KT 9999 SCT030"
    },
    {
      "icao": "LIPE",
      "alert": "OK",
      "vis_m": 9999,
      "fzfg": false,
      "metar_trigger": false,
      "taf_trigger": false,
      "metar": "METAR LIPE 191820Z 33004KT CAVOK 07/04 Q1000",
      "taf": "TAF LIPE 191700Z 1918/2018 VRB05KT 9999 SCT040"
    },
    {
      "icao": "LIPH",
      "alert": "OK",
      "vis_m": 9999,
      "fzfg": false,
      "metar_trigger": false,
      "taf_trigger": false,
      "metar": "METAR LIPH 191820Z 23005KT 200V260 CAVOK 06/04 Q0999",
      "taf": "TAF LIPH 191700Z 1918/2018 VRB05KT 7000 SCT020"
    },
    {
      "icao": "LIPQ",
      "alert": "OK",
      "vis_m": 9999,
      "fzfg": false,
      "metar_trigger": false,
      "taf_trigger": false,
      "metar": "METAR LIPQ 191820Z AUTO 18006KT 9999 SCT012/// BKN053/// OVC086/// 11/10 Q1000",
      "taf": ""
    },
    {
      "icao": "LIPR",
      "alert": "OK",
      "vis_m": 9999,
      "fzfg": false,
      "metar_trigger": false,
      "taf_trigger": false,
      "metar": "METAR LIPR 191820Z VRB02KT 9999 FEW060 08/06 Q1001",
      "taf": "TAF LIPR 191700Z 1918/2018 VRB05KT 9999 FEW015 SCT040"
    },
    {
      "icao": "LIPX",
      "alert": "OK",
      "vis_m": 9999,
      "fzfg": false,
      "metar_trigger": false,
      "taf_trigger": false,
      "metar": "METAR LIPX 191820Z 32008KT 280V360 9999 -RA SCT015 BKN040 06/04 Q0999",
      "taf": "TAF LIPX 191700Z 1918/2018 26012KT 8000 BKN020"
    },
    {
      "icao": "LIPY",
      "alert": "OK",
      "vis_m": 9999,
      "fzfg": false,
      "metar_trigger": false,
      "taf_trigger": false,
      "metar": "METAR LIPY 191820Z AUTO 20008KT 9999 OVC140/// 11/06 Q1000",
      "taf": "TAF LIPY 191700Z 1918/2018 VRB05KT 9999 SCT040"
    },
    {
      "icao": "LIPZ",
      "alert": "OK",
      "vis_m": 9999,
      "fzfg": false,
      "metar_trigger": false,
      "taf_trigger": false,
      "metar": "METAR LIPZ 191820Z 22010KT 9999 FEW015 07/05 Q0999 NOSIG",
      "taf": "TAF LIPZ 191700Z 1918/2024 23012KT 7000 FEW015 SCT030"
    },
    {
      "icao": "LIRF",
      "alert": "OK",
      "vis_m": 9999,
      "fzfg": false,
      "metar_trigger": false,
      "taf_trigger": false,
      "metar": "METAR LIRF 191820Z 32011KT 9999 -RA VCSH SCT030 12/09 Q1003 TEMPO SHRA",
      "taf": "TAF LIRF 191700Z 1918/2024 33012KT 9999 FEW025"
    },
    {
      "icao": "LIRN",
      "alert": "OK",
      "vis_m": 7000,
      "fzfg": false,
      "metar_trigger": false,
      "taf_trigger": false,
      "metar": "METAR LIRN 191820Z 27009KT 230V310 7000 TSRA SCT015CB BKN035 11/10 Q1004 NOSIG",
      "taf": "TAF LIRN 191700Z 1918/2018 26018KT 9999 SCT030"
    },
    {
      "icao": "LIRP",
      "alert": "OK",
      "vis_m": 9999,
      "fzfg": false,
      "metar_trigger": false,
      "taf_trigger": false,
      "metar": "METAR LIRP 191815Z 22008KT 9999 SCT035 11/08 Q1001 NOSIG",
      "taf": "TAF LIRP 191700Z 1918/2018 27007KT 9999 BKN030"
    },
    {
      "icao": "LIRZ",
      "alert": "OK",
      "vis_m": 9999,
      "fzfg": false,
      "metar_trigger": false,
      "taf_trigger": false,
      "metar": "METAR LIRZ 191820Z AUTO 16004KT 9999 FEW032/// SCT150/// BKN170/// 08/07 Q1002",
      "taf": "TAF LIRZ 191700Z 1918/2018 19013KT 9999 SCT035"
    },
    {
      "icao": "LJLJ",
      "alert": "OK",
      "vis_m": 5000,
      "fzfg": false,
      "metar_trigger": false,
      "taf_trigger": false,
      "metar": "METAR LJLJ 191800Z 08003KT 010V110 5000 -RA BR FEW002 BKN020 BKN040 06/05 Q1001 RERA NOSIG",
      "taf": "TAF LJLJ 191700Z 1918/2018 VRB02KT 4000 RA BR SCT002 BKN020 OVC035"
    },
    {
      "icao": "LKMT",
      "alert": "OK",
      "vis_m": 4500,
      "fzfg": false,
      "metar_trigger": false,
      "taf_trigger": false,
      "metar": "METAR LKMT 191800Z 03008KT 4500 BR FEW047 M02/M03 Q1011 NOSIG",
      "taf": "TAF LKMT 191700Z 1918/2018 03008KT 4000 BR SCT010 OVC040"
    },
    {
      "icao": "LKPR",
      "alert": "OK",
      "vis_m": 9999,
      "fzfg": false,
      "metar_trigger": false,
      "taf_trigger": false,
      "metar": "METAR LKPR 191800Z 03006KT CAVOK M00/M03 Q1009 NOSIG",
      "taf": "TAF LKPR 191700Z 1918/2024 06009KT CAVOK"
    },
    {
      "icao": "LLBG",
      "alert": "OK",
      "vis_m": 9999,
      "fzfg": false,
      "metar_trigger": false,
      "taf_trigger": false,
      "metar": "METAR LLBG 191820Z 08004KT 9999 FEW050 14/08 Q1022 NOSIG",
      "taf": "TAF LLBG 191702Z 1918/2018 VRB04KT CAVOK"
    },
    {
      "icao": "LMML",
      "alert": "OK",
      "vis_m": 9999,
      "fzfg": false,
      "metar_trigger": false,
      "taf_trigger": false,
      "metar": "METAR LMML 191815Z 28014KT CAVOK 15/12 Q1014 NOSIG",
      "taf": "TAF LMML 191700Z 1918/2018 21015KT 9999 FEW015"
    },
    {
      "icao": "LOWW",
      "alert": "OK",
      "vis_m": 3100,
      "fzfg": false,
      "metar_trigger": false,
      "taf_trigger": false,
      "metar": "METAR LOWW 191820Z 02006KT 3100 SN SCT001 BKN002 M00/M00 Q1008 TEMPO 0900 +SN",
      "taf": "TAF LOWW 191715Z 1918/2024 10009KT 9999 -SN OVC007 TXM00/1918Z TNM06/2024Z"
    },
    {
      "icao": "LPFR",
      "alert": "OK",
      "vis_m": 9999,
      "fzfg": false,
      "metar_trigger": false,
      "taf_trigger": false,
      "metar": "METAR LPFR 191800Z 02006KT CAVOK 16/05 Q1027",
      "taf": "TAF LPFR 191700Z 1918/2018 36010KT CAVOK"
    },
    {
      "icao": "LPMA",
      "alert": "OK",
      "vis_m": 9999,
      "fzfg": false,
      "metar_trigger": false,
      "taf_trigger": false,
      "metar": "METAR LPMA 191800Z 03010KT 360V070 9999 SCT018 17/09 Q1026",
      "taf": "TAF LPMA 191700Z 1918/2018 04010KT 9999 SCT016"
    },
    {
      "icao": "LPPR",
      "alert": "OK",
      "vis_m": 9999,
      "fzfg": false,
      "metar_trigger": false,
      "taf_trigger": false,
      "metar": "METAR LPPR 191800Z 33006KT 9999 FEW025 SCT045 12/06 Q1028",
      "taf": "TAF LPPR 191700Z 1918/2018 35010KT 9999 SCT035"
    },
    {
      "icao": "LPPS",
      "alert": "OK",
      "vis_m": 9999,
      "fzfg": false,
      "metar_trigger": false,
      "taf_trigger": false,
      "metar": "METAR LPPS 191800Z 08009KT 060V120 9999 FEW015 BKN030 17/12 Q1027",
      "taf": "TAF LPPS 191700Z 1918/2024 09010KT 9999 SCT015"
    },
    {
      "icao": "LPPT",
      "alert": "OK",
      "vis_m": 9999,
      "fzfg": false,
      "metar_trigger": false,
      "taf_trigger": false,
      "metar": "METAR LPPT 191800Z 35009KT CAVOK 12/05 Q1028",
      "taf": "TAF LPPT 191700Z 1918/2024 34010KT CAVOK"
    },
    {
      "icao": "LQBK",
      "alert": "OK",
      "vis_m": 9999,
      "fzfg": false,
      "metar_trigger": false,
      "taf_trigger": false,
      "metar": "METAR LQBK 191800Z 11006KT CAVOK 13/04 Q1002 NOSIG",
      "taf": "TAF LQBK 191700Z 1918/2018 11008KT CAVOK TX11/1918Z TN01/2018Z"
    },
    {
      "icao": "LQSA",
      "alert": "OK",
      "vis_m": 9999,
      "fzfg": false,
      "metar_trigger": false,
      "taf_trigger": false,
      "metar": "METAR LQSA 191800Z 15016KT 130V190 9999 SCT045 BKN055 11/05 Q1005 NOSIG",
      "taf": "TAF LQSA 191700Z 1918/2018 14013KT 9999 SCT030 BKN045 TX10/1918Z TN04/2006Z"
    },
    {
      "icao": "LQTZ",
      "alert": "OK",
      "vis_m": 9999,
      "fzfg": false,
      "metar_trigger": false,
      "taf_trigger": false,
      "metar": "METAR LQTZ 191800Z 19008G19KT 150V230 CAVOK 13/03 Q1004",
      "taf": "TAF LQTZ 191700Z 1918/2018 09006KT CAVOK TX12/1918Z TN05/2018Z"
    },
    {
      "icao": "LRBC",
      "alert": "OK",
      "vis_m": 7000,
      "fzfg": false,
      "metar_trigger": false,
      "taf_trigger": false,
      "metar": "METAR LRBC 191800Z 16009KT 7000 NSC M02/M03 Q1014",
      "taf": "TAF LRBC 191700Z 1918/2003 16012KT 7000 NSC"
    },
    {
      "icao": "LRBS",
      "alert": "OK",
      "vis_m": 9999,
      "fzfg": false,
      "metar_trigger": false,
      "taf_trigger": false,
      "metar": "METAR LRBS 191800Z 03004KT CAVOK 01/M01 Q1016 NOSIG",
      "taf": "TAF LRBS 191700Z 1918/2018 VRB03KT CAVOK"
    },
    {
      "icao": "LRBV",
      "alert": "OK",
      "vis_m": 9999,
      "fzfg": false,
      "metar_trigger": false,
      "taf_trigger": false,
      "metar": "METAR LRBV 191800Z 11004KT 060V190 CAVOK 02/M05 Q1011",
      "taf": "TAF LRBV 191700Z 1918/2003 14006KT CAVOK"
    },
    {
      "icao": "LRCL",
      "alert": "OK",
      "vis_m": 9999,
      "fzfg": false,
      "metar_trigger": false,
      "taf_trigger": false,
      "metar": "METAR LRCL 191800Z 09005KT 040V120 9999 OVC071 03/M01 Q1010",
      "taf": "TAF LRCL 191700Z 1918/2003 12006KT CAVOK"
    },
    {
      "icao": "LRCV",
      "alert": "OK",
      "vis_m": 9999,
      "fzfg": false,
      "metar_trigger": false,
      "taf_trigger": false,
      "metar": "METAR LRCV 191800Z 08010KT CAVOK 04/01 Q1013",
      "taf": "TAF LRCV 191700Z 1918/2003 09010KT CAVOK"
    },
    {
      "icao": "LRIA",
      "alert": "OK",
      "vis_m": 9999,
      "fzfg": false,
      "metar_trigger": false,
      "taf_trigger": false,
      "metar": "METAR LRIA 191800Z 11013KT CAVOK 00/M02 Q1014",
      "taf": "TAF LRIA 191700Z 1918/2003 10010KT CAVOK"
    },
    {
      "icao": "LROP",
      "alert": "OK",
      "vis_m": 9999,
      "fzfg": false,
      "metar_trigger": false,
      "taf_trigger": false,
      "metar": "METAR LROP 191800Z 06004KT CAVOK 01/M03 Q1016 NOSIG",
      "taf": "TAF LROP 191700Z 1918/2018 VRB03KT CAVOK"
    },
    {
      "icao": "LRSB",
      "alert": "OK",
      "vis_m": 9999,
      "fzfg": false,
      "metar_trigger": false,
      "taf_trigger": false,
      "metar": "METAR LRSB 191800Z 26003KT CAVOK 03/M02 Q1009",
      "taf": "TAF LRSB 191700Z 1918/2018 VRB04KT CAVOK"
    },
    {
      "icao": "LRSM",
      "alert": "OK",
      "vis_m": 9999,
      "fzfg": false,
      "metar_trigger": false,
      "taf_trigger": false,
      "metar": "METAR LRSM 191800Z AUTO 08007KT 9999 DZ FEW031/// SCT041/// BKN070/// 04/01 Q1010",
      "taf": "TAF LRSM 191400Z 1915/1924 14006KT 9999 BKN035"
    },
    {
      "icao": "LRSV",
      "alert": "OK",
      "vis_m": 9999,
      "fzfg": false,
      "metar_trigger": false,
      "taf_trigger": false,
      "metar": "METAR LRSV 191800Z 10007KT CAVOK M00/M03 Q1011",
      "taf": "TAF LRSV 191700Z 1918/2003 VRB04KT CAVOK"
    },
    {
      "icao": "LRTM",
      "alert": "OK",
      "vis_m": 9999,
      "fzfg": false,
      "metar_trigger": false,
      "taf_trigger": false,
      "metar": "METAR LRTM 191800Z AUTO 08003KT 040V130 9999 NCD 01/M01 Q1011",
      "taf": "TAF LRTM 191400Z 1915/1924 08007KT CAVOK"
    },
    {
      "icao": "LRTR",
      "alert": "OK",
      "vis_m": 9999,
      "fzfg": false,
      "metar_trigger": false,
      "taf_trigger": false,
      "metar": "METAR LRTR 191800Z 09007KT CAVOK 06/04 Q1008 NOSIG",
      "taf": "TAF LRTR 191700Z 1918/2018 12010KT CAVOK"
    },
    {
      "icao": "LTAC",
      "alert": "OK",
      "vis_m": 9999,
      "fzfg": false,
      "metar_trigger": false,
      "taf_trigger": false,
      "metar": "METAR LTAC 191820Z 16002KT CAVOK 01/M05 Q1022 NOSIG RMK RWY21C 19003KT RWY03L 00000KT RWY21R VRB02KT RWY03R VRB02KT RWY21L 19004KT",
      "taf": "TAF LTAC 191640Z 1918/2018 VRB02KT CAVOK"
    },
    {
      "icao": "LTFM",
      "alert": "OK",
      "vis_m": 9999,
      "fzfg": false,
      "metar_trigger": false,
      "taf_trigger": false,
      "metar": "METAR LTFM 191820Z 17004KT CAVOK 08/01 Q1020 NOSIG RMK RWY17L 18008KT RWY34L 16004KT RWY16R 17005KT RWY36 16008KT 120V180 RWY18 17006KT",
      "taf": "TAF LTFM 191640Z 1918/2024 20012KT CAVOK"
    },
    {
      "icao": "LUKK",
      "alert": "OK",
      "vis_m": 9999,
      "fzfg": false,
      "metar_trigger": false,
      "taf_trigger": false,
      "metar": "METAR LUKK 191800Z 17007KT CAVOK M00/M03 Q1016 NOSIG",
      "taf": "TAF LUKK 191723Z 1918/2018 16006KT 9999 SCT025"
    },
    {
      "icao": "LWOH",
      "alert": "OK",
      "vis_m": 9999,
      "fzfg": false,
      "metar_trigger": false,
      "taf_trigger": false,
      "metar": "METAR LWOH 191820Z 15019KT 9999 BKN040 09/05 Q1013",
      "taf": ""
    },
    {
      "icao": "LWSK",
      "alert": "OK",
      "vis_m": 9999,
      "fzfg": false,
      "metar_trigger": false,
      "taf_trigger": false,
      "metar": "METAR LWSK 191820Z VRB02KT 9999 FEW080 07/00 Q1014 NOSIG",
      "taf": ""
    },
    {
      "icao": "LYBE",
      "alert": "OK",
      "vis_m": 9999,
      "fzfg": false,
      "metar_trigger": false,
      "taf_trigger": false,
      "metar": "METAR LYBE 191800Z 13014KT CAVOK 11/02 Q1006 NOSIG",
      "taf": "TAF LYBE 191700Z 1918/2018 12015KT CAVOK TX10/1918Z TN06/2005Z"
    },
    {
      "icao": "LYNI",
      "alert": "OK",
      "vis_m": 9999,
      "fzfg": false,
      "metar_trigger": false,
      "taf_trigger": false,
      "metar": "METAR LYNI 191800Z VRB02KT 9999 FEW070 08/M00 Q1012 NOSIG",
      "taf": "TAF LYNI 191700Z 1918/2018 15005KT CAVOK TX08/2012Z TN04/2004Z"
    },
    {
      "icao": "LYPG",
      "alert": "OK",
      "vis_m": 9999,
      "fzfg": false,
      "metar_trigger": false,
      "taf_trigger": false,
      "metar": "METAR LYPG 191800Z 35005KT 9999 FEW020 SCT040 OVC070 08/08 Q1012 NOSIG",
      "taf": "TAF LYPG 191700Z 1918/2018 16008KT 9999 FEW025 SCT040 OVC070 TX12/1922Z TN07/2006Z"
    },
    {
      "icao": "LZIB",
      "alert": "OK",
      "vis_m": 5000,
      "fzfg": false,
      "metar_trigger": false,
      "taf_trigger": false,
      "metar": "METAR LZIB 191800Z 03008KT 5000 -SN BR SCT004 BKN005 OVC006 00/00 Q1008 TEMPO 1200 SN BR",
      "taf": "TAF LZIB 191715Z 1918/2018 05011KT 4000 -SN SCT003 BKN010"
    },
    {
      "icao": "LZKZ",
      "alert": "OK",
      "vis_m": 4100,
      "fzfg": false,
      "metar_trigger": false,
      "taf_trigger": false,
      "metar": "METAR LZKZ 191800Z 36008KT 4100 -SN BR FEW007 SCT026 00/00 Q1010 NOSIG",
      "taf": "TAF LZKZ 191715Z 1918/2018 02008KT 6000 SCT004 BKN020"
    },
    {
      "icao": "LZTT",
      "alert": "OK",
      "vis_m": 6000,
      "fzfg": false,
      "metar_trigger": false,
      "taf_trigger": false,
      "metar": "METAR LZTT 191800Z 10003KT 6000 -SN FEW004 BKN010 OVC020 M02/M02 Q1008 NOSIG",
      "taf": ""
    },
    {
      "icao": "OEJN",
      "alert": "OK",
      "vis_m": 9999,
      "fzfg": false,
      "metar_trigger": false,
      "taf_trigger": false,
      "metar": "METAR OEJN 191800Z 34009KT CAVOK 26/18 Q1013 NOSIG",
      "taf": "TAF OEJN 191700Z 1918/2024 36006KT CAVOK"
    },
    {
      "icao": "OEMA",
      "alert": "OK",
      "vis_m": 9999,
      "fzfg": false,
      "metar_trigger": false,
      "taf_trigger": false,
      "metar": "METAR OEMA 191800Z 34004KT CAVOK 28/02 Q1016 NOSIG",
      "taf": "TAF OEMA 191700Z 1918/2024 30006KT CAVOK"
    },
    {
      "icao": "OJAI",
      "alert": "OK",
      "vis_m": 5000,
      "fzfg": false,
      "metar_trigger": false,
      "taf_trigger": false,
      "metar": "METAR OJAI 191800Z 36003KT 5000 HZ NSC 10/04 Q1023 NOSIG",
      "taf": "TAF OJAI 191700Z 1918/2024 VRB02KT 5000 HZ BKN030"
    },
    {
      "icao": "OMAA",
      "alert": "OK",
      "vis_m": 9999,
      "fzfg": false,
      "metar_trigger": false,
      "taf_trigger": false,
      "metar": "METAR OMAA 191830Z VRB06KT CAVOK 23/14 Q1016 NOSIG",
      "taf": "TAF OMAA 191700Z 1918/2100 04007KT 8000 NSC"
    },
    {
      "icao": "OMDB",
      "alert": "OK",
      "vis_m": 9999,
      "fzfg": false,
      "metar_trigger": false,
      "taf_trigger": false,
      "metar": "METAR OMDB 191830Z 08004KT 040V120 CAVOK 25/13 Q1017 NOSIG",
      "taf": "TAF OMDB 191700Z 1918/2100 08005KT CAVOK"
    },
    {
      "icao": "UAAA",
      "alert": "OK",
      "vis_m": 9999,
      "fzfg": false,
      "metar_trigger": false,
      "taf_trigger": false,
      "metar": "METAR UAAA 191800Z 21002MPS 170V230 9999 SCT100 15/01 Q1019 NOSIG",
      "taf": "TAF UAAA 191704Z 1918/2018 21003MPS 6000 SCT050CB BKN100 TX12/2009Z TN03/2003Z"
    },
    {
      "icao": "UBBB",
      "alert": "OK",
      "vis_m": 9999,
      "fzfg": false,
      "metar_trigger": false,
      "taf_trigger": false,
      "metar": "METAR UBBB 191800Z 33018G28KT CAVOK 09/05 Q1015 NOSIG",
      "taf": "TAF UBBB 191701Z 1918/2018 32020G30KT 9999 SCT020 TX10/2010Z TN06/2002Z"
    },
    {
      "icao": "UDSG",
      "alert": "OK",
      "vis_m": 9999,
      "fzfg": false,
      "metar_trigger": false,
      "taf_trigger": false,
      "metar": "METAR UDSG 191800Z 36009KT 9999 SCT049 M00/M07 Q1020 NOSIG",
      "taf": "TAF UDSG 191658Z 1918/2018 VRB06KT 9999 SCT040"
    },
    {
      "icao": "UDYZ",
      "alert": "OK",
      "vis_m": 9999,
      "fzfg": false,
      "metar_trigger": false,
      "taf_trigger": false,
      "metar": "METAR UDYZ 191800Z 22008KT 9999 SCT043CB 07/M01 Q1018 NOSIG",
      "taf": "TAF UDYZ 191700Z 1918/2018 22006KT 9999 SCT040"
    },
    {
      "icao": "UGKO",
      "alert": "OK",
      "vis_m": 9999,
      "fzfg": false,
      "metar_trigger": false,
      "taf_trigger": false,
      "metar": "METAR UGKO 191800Z 26009KT 230V290 9999 -RA OVC009 03/02 Q1027 NOSIG",
      "taf": "TAF UGKO 191700Z 1918/2018 25007KT 9000 OVC050 TX17/2011Z TN01/2003Z"
    }
  ]
}