{
  "ts_utc": "2026-01-16T10:49:49Z",
  "threshold_m": 150,
  "source": "stations_override.txt (ICAO list) + aviationweather.gov (METAR/TAF raw)",
  "station_count": 159,
  "stations": [
    {
      "icao": "BIKF",
      "alert": "OK",
      "vis_m": 9999,
      "fzfg": false,
      "metar_trigger": false,
      "taf_trigger": false,
      "metar": "METAR BIKF 161030Z 02014KT 9999 SCT017 BKN026 01/M01 Q1002",
      "taf": "TAF BIKF 161032Z 1612/1712 02015KT 9999 SCT020 BKN030 TX02/1612Z TNM03/1706Z"
    },
    {
      "icao": "BKPR",
      "alert": "OK",
      "vis_m": 5000,
      "fzfg": false,
      "metar_trigger": false,
      "taf_trigger": false,
      "metar": "METAR BKPR 161030Z 33002KT 5000 BR FEW035 BKN050 05/04 Q1023 NOSIG",
      "taf": "TAF BKPR 160530Z 1606/1706 VRB03KT 5000 BR SCT030"
    },
    {
      "icao": "EBCI",
      "alert": "OK",
      "vis_m": 9999,
      "fzfg": false,
      "metar_trigger": false,
      "taf_trigger": false,
      "metar": "METAR EBCI 161020Z 18006KT 9999 FEW010 BKN015 09/07 Q1012 TEMPO BKN012",
      "taf": "TAF EBCI 160500Z 1606/1712 22008KT 9999 SCT018 SCT035"
    },
    {
      "icao": "EDDB",
      "alert": "OK",
      "vis_m": 9999,
      "fzfg": false,
      "metar_trigger": false,
      "taf_trigger": false,
      "metar": "METAR EDDB 161020Z AUTO 15009KT CAVOK 06/04 Q1018 NOSIG",
      "taf": "TAF EDDB 160500Z 1606/1706 15008KT 9000 NSC"
    },
    {
      "icao": "EDDH",
      "alert": "OK",
      "vis_m": 9999,
      "fzfg": false,
      "metar_trigger": false,
      "taf_trigger": false,
      "metar": "METAR EDDH 161020Z AUTO 17008KT CAVOK 09/05 Q1012 NOSIG",
      "taf": "TAF EDDH 160500Z 1606/1712 15010KT CAVOK"
    },
    {
      "icao": "EDDK",
      "alert": "OK",
      "vis_m": 9999,
      "fzfg": false,
      "metar_trigger": false,
      "taf_trigger": false,
      "metar": "METAR EDDK 161020Z AUTO 13007KT 9999 SCT027 BKN032 11/07 Q1014 NOSIG",
      "taf": "TAF EDDK 160500Z 1606/1712 17008KT 9999 SCT035"
    },
    {
      "icao": "EDDN",
      "alert": "OK",
      "vis_m": 9999,
      "fzfg": false,
      "metar_trigger": false,
      "taf_trigger": false,
      "metar": "METAR EDDN 161020Z AUTO 13007KT CAVOK 06/02 Q1018 NOSIG",
      "taf": "TAF EDDN 160500Z 1606/1706 11006KT CAVOK"
    },
    {
      "icao": "EDDS",
      "alert": "OK",
      "vis_m": 9999,
      "fzfg": false,
      "metar_trigger": false,
      "taf_trigger": false,
      "metar": "METAR EDDS 161020Z AUTO VRB01KT CAVOK 05/01 Q1016 NOSIG",
      "taf": "TAF EDDS 160500Z 1606/1706 VRB03KT CAVOK"
    },
    {
      "icao": "EDFH",
      "alert": "OK",
      "vis_m": 9999,
      "fzfg": false,
      "metar_trigger": false,
      "taf_trigger": false,
      "metar": "METAR EDFH 161020Z 20010KT 9999 -SHRA FEW027 BKN044CB 08/05 Q1014",
      "taf": "TAF EDFH 160500Z 1606/1706 16012KT 9999 BKN025"
    },
    {
      "icao": "EDJA",
      "alert": "OK",
      "vis_m": 9999,
      "fzfg": false,
      "metar_trigger": false,
      "taf_trigger": false,
      "metar": "METAR EDJA 161020Z VRB02KT CAVOK 06/01 Q1017",
      "taf": "TAF EDJA 160800Z 1609/1618 VRB03KT CAVOK"
    },
    {
      "icao": "EDLW",
      "alert": "OK",
      "vis_m": 9999,
      "fzfg": false,
      "metar_trigger": false,
      "taf_trigger": false,
      "metar": "METAR EDLW 161020Z 18008KT 9999 FEW047 11/06 Q1013",
      "taf": "TAF EDLW 160500Z 1606/1706 19011KT 9999 BKN035"
    },
    {
      "icao": "EDNY",
      "alert": "OK",
      "vis_m": 9999,
      "fzfg": false,
      "metar_trigger": false,
      "taf_trigger": false,
      "metar": "METAR EDNY 161020Z 00000KT CAVOK 04/02 Q1018",
      "taf": "TAF EDNY 160800Z 1609/1618 VRB03KT CAVOK"
    },
    {
      "icao": "EDSB",
      "alert": "OK",
      "vis_m": 9999,
      "fzfg": false,
      "metar_trigger": false,
      "taf_trigger": false,
      "metar": "METAR EDSB 161020Z VRB02KT CAVOK 08/03 Q1016",
      "taf": "TAF EDSB 160500Z 1606/1706 VRB03KT CAVOK"
    },
    {
      "icao": "EETN",
      "alert": "OK",
      "vis_m": 9999,
      "fzfg": false,
      "metar_trigger": false,
      "taf_trigger": false,
      "metar": "METAR EETN 161020Z 15008KT 9999 OVC027 M06/M08 Q1029 NOSIG",
      "taf": "TAF EETN 160530Z 1606/1706 17012KT 9999 OVC025"
    },
    {
      "icao": "EFTU",
      "alert": "OK",
      "vis_m": 9999,
      "fzfg": false,
      "metar_trigger": false,
      "taf_trigger": false,
      "metar": "METAR EFTU 161020Z AUTO 17012G22KT 150V210 9999 OVC013 01/M02 Q1025",
      "taf": "TAF EFTU 160832Z 1609/1709 18010KT 9999 BKN012"
    },
    {
      "icao": "EGBB",
      "alert": "OK",
      "vis_m": 800,
      "fzfg": false,
      "metar_trigger": false,
      "taf_trigger": false,
      "metar": "METAR EGBB 161020Z 15008KT 0800 R15/P1500N FG OVC002 05/04 Q1005",
      "taf": ""
    },
    {
      "icao": "EGGP",
      "alert": "OK",
      "vis_m": 9999,
      "fzfg": false,
      "metar_trigger": false,
      "taf_trigger": false,
      "metar": "METAR EGGP 161020Z 14007KT 110V180 9999 FEW023 05/04 Q1004",
      "taf": "TAF EGGP 160500Z 1606/1706 15009KT 9999 FEW040"
    },
    {
      "icao": "EGGW",
      "alert": "OK",
      "vis_m": 4000,
      "fzfg": false,
      "metar_trigger": false,
      "taf_trigger": false,
      "metar": "METAR EGGW 161020Z 19005KT 160V240 4000 BR FEW001 OVC002 05/05 Q1006",
      "taf": ""
    },
    {
      "icao": "EGKK",
      "alert": "OK",
      "vis_m": 9999,
      "fzfg": false,
      "metar_trigger": false,
      "taf_trigger": false,
      "metar": "METAR EGKK 161020Z 16004KT 9999 -RA SCT008 SCT040 08/08 Q1008",
      "taf": "TAF EGKK 160455Z 1606/1712 07003KT 9999 SCT030"
    },
    {
      "icao": "EGNM",
      "alert": "OK",
      "vis_m": 8000,
      "fzfg": false,
      "metar_trigger": false,
      "taf_trigger": false,
      "metar": "METAR EGNM 161020Z 15004KT 8000 SCT013 SCT020 04/04 Q1004",
      "taf": ""
    },
    {
      "icao": "EGPD",
      "alert": "OK",
      "vis_m": 9999,
      "fzfg": false,
      "metar_trigger": false,
      "taf_trigger": false,
      "metar": "METAR EGPD 161020Z COR AUTO 33003KT 310V010 9999 NCD M02/M04 Q1002 NOSIG",
      "taf": "TAF EGPD 160455Z 1606/1706 VRB03KT 9999 FEW040"
    },
    {
      "icao": "EGPF",
      "alert": "OK",
      "vis_m": 9999,
      "fzfg": false,
      "metar_trigger": false,
      "taf_trigger": false,
      "metar": "METAR EGPF 161020Z COR 09006KT 070V140 9999 VCFG BKN026TCU OVC033 02/02 Q1001",
      "taf": ""
    },
    {
      "icao": "EHBK",
      "alert": "OK",
      "vis_m": 6000,
      "fzfg": false,
      "metar_trigger": false,
      "taf_trigger": false,
      "metar": "METAR EHBK 161025Z AUTO 20008KT 6000 +DZ FEW013/// OVC016/// 10/09 Q1012 BECMG 9999 NSW TEMPO -SHRA FEW020TCU",
      "taf": "TAF EHBK 160507Z 1606/1712 20013KT 9999 OVC045"
    },
    {
      "icao": "EHEH",
      "alert": "OK",
      "vis_m": 9999,
      "fzfg": false,
      "metar_trigger": false,
      "taf_trigger": false,
      "metar": "METAR EHEH 161025Z AUTO 17003KT 9999 SCT035 OVC039 10/07 Q1012 BLU NOSIG RMK TREND REMOTE BY EHWX",
      "taf": "TAF EHEH 160538Z 1606/1712 23016KT 9999 BKN030"
    },
    {
      "icao": "EKBI",
      "alert": "OK",
      "vis_m": 9999,
      "fzfg": false,
      "metar_trigger": false,
      "taf_trigger": false,
      "metar": "METAR EKBI 161020Z AUTO 19011KT 9999 OVC009/// 07/06 Q1008",
      "taf": "TAF EKBI 160827Z 1609/1709 17012KT 8000 BKN015"
    },
    {
      "icao": "EKCH",
      "alert": "OK",
      "vis_m": 9999,
      "fzfg": false,
      "metar_trigger": false,
      "taf_trigger": false,
      "metar": "METAR EKCH 161020Z AUTO 16015KT 9999 NCD 05/03 Q1014 NOSIG",
      "taf": "TAF EKCH 160827Z 1609/1709 15018KT 4000 BR OVC005"
    },
    {
      "icao": "ENAL",
      "alert": "OK",
      "vis_m": 9999,
      "fzfg": false,
      "metar_trigger": false,
      "taf_trigger": false,
      "metar": "METAR ENAL 161020Z 07005KT 040V120 9999 FEW061 07/M02 Q1003",
      "taf": "TAF ENAL 160800Z 1609/1618 13007KT 9999 SCT060"
    },
    {
      "icao": "ENBR",
      "alert": "OK",
      "vis_m": 9999,
      "fzfg": false,
      "metar_trigger": false,
      "taf_trigger": false,
      "metar": "METAR ENBR 161020Z 01003KT 9999 -RA FEW003 BKN034 04/03 Q1001 TEMPO RA BKN012 RMK WIND 1200FT 11015KT",
      "taf": "TAF ENBR 160500Z 1606/1706 08005KT 9999 -RA SCT020 BKN040"
    },
    {
      "icao": "ENGM",
      "alert": "OK",
      "vis_m": 5000,
      "fzfg": false,
      "metar_trigger": false,
      "taf_trigger": false,
      "metar": "METAR ENGM 161020Z 03005KT 350V080 5000 1100E -RA BR OVC003 00/M00 Q1009 TEMPO 1200 SNRA BR BKN005",
      "taf": "TAF ENGM 160500Z 1606/1706 VRB03KT 5000 -SNRA BR BKN010"
    },
    {
      "icao": "ENHD",
      "alert": "OK",
      "vis_m": 9999,
      "fzfg": false,
      "metar_trigger": false,
      "taf_trigger": false,
      "metar": "METAR ENHD 161020Z 07005KT 9999 -RA SCT019 BKN027 05/04 Q0999",
      "taf": "TAF ENHD 160800Z 1609/1618 09012KT 9999 -RA SCT015 BKN025"
    },
    {
      "icao": "ENTC",
      "alert": "OK",
      "vis_m": 9999,
      "fzfg": false,
      "metar_trigger": false,
      "taf_trigger": false,
      "metar": "METAR ENTC 161020Z 21015KT CAVOK M02/M07 Q1011 NOSIG RMK WIND 2600FT 18006KT",
      "taf": "TAF ENTC 160500Z 1606/1706 20008KT CAVOK"
    },
    {
      "icao": "ENTO",
      "alert": "OK",
      "vis_m": 3000,
      "fzfg": false,
      "metar_trigger": false,
      "taf_trigger": false,
      "metar": "METAR ENTO 161020Z 15012KT 3000 RA BR OVC003 04/04 Q1007 TEMPO 17015G25KT 1200 RA BR",
      "taf": ""
    },
    {
      "icao": "ENVA",
      "alert": "OK",
      "vis_m": 9999,
      "fzfg": false,
      "metar_trigger": false,
      "taf_trigger": false,
      "metar": "METAR ENVA 161020Z 15015KT CAVOK 05/M01 Q1007 NOSIG RMK WIND 670FT 17022KT",
      "taf": "TAF ENVA 160500Z 1606/1706 10007KT CAVOK"
    },
    {
      "icao": "ENZV",
      "alert": "OK",
      "vis_m": 9000,
      "fzfg": false,
      "metar_trigger": false,
      "taf_trigger": false,
      "metar": "METAR ENZV 161020Z 11010KT 9000 RA OVC035 06/03 Q0999 TEMPO RA",
      "taf": "TAF ENZV 160500Z 1606/1706 12012KT 9999 -RA FEW020 BKN030"
    },
    {
      "icao": "EPGD",
      "alert": "OK",
      "vis_m": 600,
      "fzfg": true,
      "metar_trigger": false,
      "taf_trigger": false,
      "metar": "METAR EPGD 161030Z 16010KT 0600 R29/0750N FZFG OVC001 M02/M03 Q1023",
      "taf": ""
    },
    {
      "icao": "EPKK",
      "alert": "OK",
      "vis_m": 9999,
      "fzfg": false,
      "metar_trigger": false,
      "taf_trigger": false,
      "metar": "METAR EPKK 161030Z 07011KT CAVOK 02/M01 Q1023",
      "taf": "TAF EPKK 160830Z 1609/1709 06008KT 7000 BKN045"
    },
    {
      "icao": "EPKT",
      "alert": "OK",
      "vis_m": 9999,
      "fzfg": false,
      "metar_trigger": false,
      "taf_trigger": false,
      "metar": "METAR EPKT 161030Z 12004KT CAVOK 04/01 Q1022",
      "taf": "TAF EPKT 160530Z 1606/1706 12005KT 5000 BR SCT007 OVC040"
    },
    {
      "icao": "EPLB",
      "alert": "OK",
      "vis_m": 7000,
      "fzfg": false,
      "metar_trigger": false,
      "taf_trigger": false,
      "metar": "METAR EPLB 161030Z 09008KT 7000 BKN019 M06/M08 Q1028",
      "taf": "TAF EPLB 160530Z 1606/1706 11008KT 8000 OVC015"
    },
    {
      "icao": "EPMO",
      "alert": "OK",
      "vis_m": 4100,
      "fzfg": false,
      "metar_trigger": false,
      "taf_trigger": false,
      "metar": "METAR EPMO 161030Z 11009KT 4100 BR BKN010 M04/M04 Q1026",
      "taf": ""
    },
    {
      "icao": "EPPO",
      "alert": "OK",
      "vis_m": 7000,
      "fzfg": false,
      "metar_trigger": false,
      "taf_trigger": false,
      "metar": "METAR EPPO 161030Z 12010KT 7000 NSC 03/01 Q1021",
      "taf": ""
    },
    {
      "icao": "EPRA",
      "alert": "OK",
      "vis_m": 7000,
      "fzfg": false,
      "metar_trigger": false,
      "taf_trigger": false,
      "metar": "METAR EPRA 161030Z 11008KT 090V150 7000 OVC007 M03/M05 Q1026",
      "taf": "TAF EPRA 160830Z 1609/1618 13010KT 6000 OVC008"
    },
    {
      "icao": "EPRZ",
      "alert": "OK",
      "vis_m": 3000,
      "fzfg": false,
      "metar_trigger": false,
      "taf_trigger": false,
      "metar": "METAR EPRZ 161030Z 08015KT 3000 BR OVC003 M03/M04 Q1026",
      "taf": ""
    },
    {
      "icao": "EPSC",
      "alert": "OK",
      "vis_m": 3200,
      "fzfg": false,
      "metar_trigger": false,
      "taf_trigger": false,
      "metar": "METAR EPSC 161030Z 13016KT 3200 BR OVC002 02/02 Q1018",
      "taf": ""
    },
    {
      "icao": "EPSY",
      "alert": "OK",
      "vis_m": 6000,
      "fzfg": false,
      "metar_trigger": false,
      "taf_trigger": false,
      "metar": "METAR EPSY 161030Z 14006KT 060V190 6000 NSC M05/M07 Q1027",
      "taf": "TAF EPSY 160830Z 1609/1618 14008KT 7000 SCT025"
    },
    {
      "icao": "EPWA",
      "alert": "OK",
      "vis_m": 7000,
      "fzfg": false,
      "metar_trigger": false,
      "taf_trigger": false,
      "metar": "METAR EPWA 161030Z 12011KT 7000 FEW011 BKN024 M04/M06 Q1026 NOSIG",
      "taf": "TAF EPWA 160830Z 1609/1709 12010KT 4000 BR SCT008 BKN022"
    },
    {
      "icao": "EPWR",
      "alert": "OK",
      "vis_m": 9999,
      "fzfg": false,
      "metar_trigger": false,
      "taf_trigger": false,
      "metar": "METAR EPWR 161030Z 13013KT CAVOK 03/02 Q1021",
      "taf": "TAF EPWR 160830Z 1609/1709 13006KT 4000 BR NSC"
    },
    {
      "icao": "ESGG",
      "alert": "OK",
      "vis_m": 9999,
      "fzfg": false,
      "metar_trigger": false,
      "taf_trigger": false,
      "metar": "METAR ESGG 161020Z 15011KT 9999 FEW008 SCT041 04/03 Q1010",
      "taf": ""
    },
    {
      "icao": "ESKN",
      "alert": "OK",
      "vis_m": 3800,
      "fzfg": false,
      "metar_trigger": false,
      "taf_trigger": false,
      "metar": "METAR ESKN 161020Z 15014KT 3800 BR OVC003 03/03 Q1018",
      "taf": "TAF ESKN 160830Z 1609/1709 17015G25KT 9999 OVC003"
    },
    {
      "icao": "ESMS",
      "alert": "OK",
      "vis_m": 2200,
      "fzfg": false,
      "metar_trigger": false,
      "taf_trigger": false,
      "metar": "METAR ESMS 161020Z 14012KT 2200 BR OVC003 03/03 Q1015",
      "taf": "TAF ESMS 160827Z 1609/1709 14015KT 0500 FG OVC002"
    },
    {
      "icao": "ESSA",
      "alert": "OK",
      "vis_m": 9999,
      "fzfg": false,
      "metar_trigger": false,
      "taf_trigger": false,
      "metar": "METAR ESSA 161020Z 16013KT 9999 OVC008 02/01 Q1019 BECMG BKN009",
      "taf": "TAF ESSA 160830Z 1609/1709 17015KT 9999 OVC007"
    },
    {
      "icao": "EYKA",
      "alert": "OK",
      "vis_m": 8000,
      "fzfg": false,
      "metar_trigger": false,
      "taf_trigger": false,
      "metar": "METAR EYKA 161020Z 15009KT 120V180 8000 NSC M13/M15 Q1032",
      "taf": ""
    },
    {
      "icao": "EYPA",
      "alert": "OK",
      "vis_m": 9000,
      "fzfg": false,
      "metar_trigger": false,
      "taf_trigger": false,
      "metar": "METAR EYPA 161020Z 15013KT 9000 NSC M05/M08 Q1027",
      "taf": "TAF EYPA 160500Z 1606/1706 13012KT 6000 SCT010 BKN020"
    },
    {
      "icao": "EYVI",
      "alert": "OK",
      "vis_m": 9999,
      "fzfg": false,
      "metar_trigger": false,
      "taf_trigger": false,
      "metar": "METAR EYVI 161020Z 15008KT CAVOK M15/M18 Q1033 NOSIG",
      "taf": ""
    },
    {
      "icao": "GCFV",
      "alert": "OK",
      "vis_m": 9999,
      "fzfg": false,
      "metar_trigger": false,
      "taf_trigger": false,
      "metar": "METAR GCFV 161030Z 35007KT 310V020 9999 BKN035 18/10 Q1025",
      "taf": "TAF GCFV 160800Z 1609/1709 03007KT 9999 SCT035 TX22/1614Z TN14/1706Z"
    },
    {
      "icao": "GCLP",
      "alert": "OK",
      "vis_m": 9999,
      "fzfg": false,
      "metar_trigger": false,
      "taf_trigger": false,
      "metar": "METAR GCLP 161030Z 36014KT 9999 BKN035 19/11 Q1025 NOSIG",
      "taf": "TAF GCLP 160800Z 1609/1709 01019KT 9999 SCT035 TX22/1614Z TN15/1706Z"
    },
    {
      "icao": "GCTS",
      "alert": "OK",
      "vis_m": 9999,
      "fzfg": false,
      "metar_trigger": false,
      "taf_trigger": false,
      "metar": "METAR GCTS 161030Z 28005KT 230V330 9999 BKN035 18/10 Q1026 NOSIG",
      "taf": "TAF GCTS 160800Z 1609/1709 27010KT 9999 SCT035 TX22/1614Z TN14/1706Z"
    },
    {
      "icao": "GMAD",
      "alert": "OK",
      "vis_m": 9999,
      "fzfg": false,
      "metar_trigger": false,
      "taf_trigger": false,
      "metar": "METAR GMAD 161030Z 00000KT CAVOK 15/13 Q1023 NOSIG",
      "taf": "TAF GMAD 160500Z 1606/1712 09005KT CAVOK"
    },
    {
      "icao": "GMMN",
      "alert": "OK",
      "vis_m": 9999,
      "fzfg": false,
      "metar_trigger": false,
      "taf_trigger": false,
      "metar": "METAR GMMN 161030Z 21016KT 9999 SCT020 BKN100 14/11 Q1020 NOSIG",
      "taf": "TAF GMMN 160500Z 1606/1712 21008KT 9999 SCT016 SCT100"
    },
    {
      "icao": "GMMX",
      "alert": "OK",
      "vis_m": 8000,
      "fzfg": false,
      "metar_trigger": false,
      "taf_trigger": false,
      "metar": "METAR GMMX 161030Z 27004KT 230V310 8000 NSC 13/09 Q1022 NOSIG",
      "taf": "TAF GMMX 160500Z 1606/1712 06006KT 8000 SCT026"
    },
    {
      "icao": "HEGN",
      "alert": "OK",
      "vis_m": 9999,
      "fzfg": false,
      "metar_trigger": false,
      "taf_trigger": false,
      "metar": "METAR HEGN 161000Z 33007KT CAVOK 20/07 Q1021 NOSIG",
      "taf": "TAF HEGN 160500Z 1606/1712 30015KT 9999 FEW025"
    },
    {
      "icao": "HEMA",
      "alert": "OK",
      "vis_m": 9999,
      "fzfg": false,
      "metar_trigger": false,
      "taf_trigger": false,
      "metar": "METAR HEMA 161000Z 33017KT 9999 SCT020 SCT025 21/12 Q1019 NOSIG",
      "taf": "TAF HEMA 160500Z 1606/1712 31015KT 9999 FEW025"
    },
    {
      "icao": "HESH",
      "alert": "OK",
      "vis_m": 9999,
      "fzfg": false,
      "metar_trigger": false,
      "taf_trigger": false,
      "metar": "METAR HESH 161000Z 03010KT CAVOK 20/05 Q1020 NOSIG",
      "taf": "TAF HESH 160500Z 1606/1712 35010KT CAVOK"
    },
    {
      "icao": "HESX",
      "alert": "OK",
      "vis_m": 9999,
      "fzfg": false,
      "metar_trigger": false,
      "taf_trigger": false,
      "metar": "METAR HESX 161000Z 05006KT CAVOK 17/08 Q1023 NOSIG",
      "taf": "TAF HESX 160630Z 1607/1712 36006KT 9999 SCT025"
    },
    {
      "icao": "LATI",
      "alert": "OK",
      "vis_m": null,
      "fzfg": false,
      "metar_trigger": false,
      "taf_trigger": false,
      "metar": "",
      "taf": "TAF LATI 160500Z 1606/1706 VRB05KT 9999 FEW040 BKN070 TX16/1612Z TN05/1705Z"
    },
    {
      "icao": "LBPD",
      "alert": "OK",
      "vis_m": 9999,
      "fzfg": false,
      "metar_trigger": false,
      "taf_trigger": false,
      "metar": "METAR LBPD 161030Z AUTO 10012KT 9999 FEW006/// OVC086/// 06/06 Q1024 NOSIG",
      "taf": "TAF LBPD 160500Z 1606/1706 VRB03KT 9999 BKN070"
    },
    {
      "icao": "LBSF",
      "alert": "OK",
      "vis_m": 9999,
      "fzfg": false,
      "metar_trigger": false,
      "taf_trigger": false,
      "metar": "METAR LBSF 161030Z 25004KT 170V280 9999 BKN087 07/02 Q1023 NOSIG",
      "taf": ""
    },
    {
      "icao": "LBWN",
      "alert": "OK",
      "vis_m": 9000,
      "fzfg": false,
      "metar_trigger": false,
      "taf_trigger": false,
      "metar": "METAR LBWN 161030Z 03007KT 360V060 9000 -SN FEW015 OVC044 M01/M03 Q1028 NOSIG",
      "taf": "TAF LBWN 160500Z 1606/1706 04010KT 5000 RASN SCT010 OVC020"
    },
    {
      "icao": "LCLK",
      "alert": "OK",
      "vis_m": 9999,
      "fzfg": false,
      "metar_trigger": false,
      "taf_trigger": false,
      "metar": "METAR LCLK 161030Z 11004KT 070V140 9999 FEW030 18/09 Q1021 NOSIG",
      "taf": "TAF LCLK 160530Z 1606/1706 32006KT 9999 FEW025 SCT040"
    },
    {
      "icao": "LCPH",
      "alert": "OK",
      "vis_m": 9999,
      "fzfg": false,
      "metar_trigger": false,
      "taf_trigger": false,
      "metar": "METAR LCPH 161030Z 20005KT 150V240 9999 FEW025 18/09 Q1021 NOSIG",
      "taf": "TAF LCPH 160530Z 1606/1706 05008KT 9999 FEW025 SCT035"
    },
    {
      "icao": "LEAL",
      "alert": "OK",
      "vis_m": 9999,
      "fzfg": false,
      "metar_trigger": false,
      "taf_trigger": false,
      "metar": "METAR LEAL 161030Z 00000KT 9999 FEW014 16/12 Q1016 NOSIG",
      "taf": "TAF LEAL 160500Z 1606/1706 VRB04KT CAVOK TX16/1613Z TN07/1606Z"
    },
    {
      "icao": "LEBB",
      "alert": "OK",
      "vis_m": 9999,
      "fzfg": false,
      "metar_trigger": false,
      "taf_trigger": false,
      "metar": "METAR LEBB 161030Z 15007KT 110V200 CAVOK 13/05 Q1011 NOSIG",
      "taf": "TAF LEBB 160500Z 1606/1706 12006KT 9999 FEW045 TX15/1613Z TN07/1607Z"
    },
    {
      "icao": "LEBL",
      "alert": "OK",
      "vis_m": 9999,
      "fzfg": false,
      "metar_trigger": false,
      "taf_trigger": false,
      "metar": "METAR LEBL 161030Z 32009KT 240V350 9999 FEW015 SCT055 10/05 Q1015 NOSIG",
      "taf": ""
    },
    {
      "icao": "LECH",
      "alert": "OK",
      "vis_m": 9999,
      "fzfg": false,
      "metar_trigger": false,
      "taf_trigger": false,
      "metar": "METAR LECH 161030Z AUTO 07004KT 030V100 CAVOK 11/06 Q1014",
      "taf": ""
    },
    {
      "icao": "LEMD",
      "alert": "OK",
      "vis_m": 9999,
      "fzfg": false,
      "metar_trigger": false,
      "taf_trigger": false,
      "metar": "METAR LEMD 161030Z 19006KT 150V220 9999 SCT004 BKN012 08/08 Q1012 NOSIG",
      "taf": "TAF LEMD 160500Z 1606/1712 VRB04KT 9999 SCT020 TX11/1615Z TN05/1607Z"
    },
    {
      "icao": "LEMG",
      "alert": "OK",
      "vis_m": 9999,
      "fzfg": false,
      "metar_trigger": false,
      "taf_trigger": false,
      "metar": "METAR LEMG 161030Z 33004KT 9999 FEW007 BKN057 14/12 Q1016 NOSIG",
      "taf": "TAF LEMG 160500Z 1606/1706 VRB02KT 9999 SCT015 TX18/1614Z TN11/1607Z"
    },
    {
      "icao": "LEVC",
      "alert": "OK",
      "vis_m": 9999,
      "fzfg": false,
      "metar_trigger": false,
      "taf_trigger": false,
      "metar": "METAR LEVC 161030Z 32003KT 280V360 9999 FEW030 BKN040 13/08 Q1015 NOSIG",
      "taf": "TAF LEVC 160500Z 1606/1706 24005KT CAVOK TX16/1612Z TN07/1606Z"
    },
    {
      "icao": "LEXJ",
      "alert": "OK",
      "vis_m": 9999,
      "fzfg": false,
      "metar_trigger": false,
      "taf_trigger": false,
      "metar": "METAR LEXJ 161030Z 00000KT CAVOK 09/07 Q1010",
      "taf": "TAF LEXJ 160800Z 1609/1709 20009KT 9999 FEW045 TX15/1614Z TN06/1704Z"
    },
    {
      "icao": "LEZG",
      "alert": "OK",
      "vis_m": 6000,
      "fzfg": false,
      "metar_trigger": false,
      "taf_trigger": false,
      "metar": "METAR LEZG 161030Z 10006KT 070V130 6000 SCT040 OVC060 08/07 Q1014 NOSIG",
      "taf": "TAF LEZG 160500Z 1606/1706 09005KT 9999 FEW020 TX12/1614Z TN05/1606Z"
    },
    {
      "icao": "LEZL",
      "alert": "OK",
      "vis_m": 9999,
      "fzfg": false,
      "metar_trigger": false,
      "taf_trigger": false,
      "metar": "METAR LEZL 161030Z 27005KT CAVOK 14/11 Q1016 NOSIG",
      "taf": ""
    },
    {
      "icao": "LFBD",
      "alert": "OK",
      "vis_m": 9999,
      "fzfg": false,
      "metar_trigger": false,
      "taf_trigger": false,
      "metar": "METAR LFBD 161030Z AUTO 14004KT 9999 -RA BKN035/// BKN043/// OVC050/// ///TCU 09/08 Q1012 TEMPO BKN014",
      "taf": "TAF LFBD 160500Z 1606/1712 21010KT 9999 BKN040 TX11/1615Z TN05/1704Z"
    },
    {
      "icao": "LFLL",
      "alert": "OK",
      "vis_m": 9999,
      "fzfg": false,
      "metar_trigger": false,
      "taf_trigger": false,
      "metar": "METAR LFLL 161030Z 17005KT 120V220 9999 FEW030 SCT260 13/05 Q1015 NOSIG",
      "taf": "TAF LFLL 160500Z 1606/1712 18007KT CAVOK"
    },
    {
      "icao": "LFLS",
      "alert": "OK",
      "vis_m": 9999,
      "fzfg": false,
      "metar_trigger": false,
      "taf_trigger": false,
      "metar": "METAR LFLS 161030Z AUTO VRB02KT CAVOK 13/05 Q1015 NOSIG",
      "taf": "TAF LFLS 160800Z 1609/1709 VRB03KT CAVOK"
    },
    {
      "icao": "LFMN",
      "alert": "OK",
      "vis_m": 9999,
      "fzfg": false,
      "metar_trigger": false,
      "taf_trigger": false,
      "metar": "METAR LFMN 161030Z 32009KT 9999 FEW030 OVC100 11/03 Q1019 NOSIG",
      "taf": "TAF LFMN 160800Z 1609/1715 33010KT 9999 FEW025 BKN100"
    },
    {
      "icao": "LFOB",
      "alert": "OK",
      "vis_m": 9999,
      "fzfg": false,
      "metar_trigger": false,
      "taf_trigger": false,
      "metar": "METAR LFOB 161030Z AUTO 19010KT 9999 FEW016 SCT030 10/07 Q1011 BECMG BKN013 OVC018",
      "taf": "TAF LFOB 160500Z 1606/1706 VRB03KT 9999 SCT012 BKN040"
    },
    {
      "icao": "LFPO",
      "alert": "OK",
      "vis_m": 9999,
      "fzfg": false,
      "metar_trigger": false,
      "taf_trigger": false,
      "metar": "METAR LFPO 161030Z AUTO 20007KT 170V230 9999 BKN013 BKN021 OVC026 09/07 Q1013",
      "taf": "TAF LFPO 160500Z 1606/1712 21010KT 9999 SCT012 BKN020"
    },
    {
      "icao": "LFSB",
      "alert": "OK",
      "vis_m": 9999,
      "fzfg": false,
      "metar_trigger": false,
      "taf_trigger": false,
      "metar": "METAR LFSB 161030Z AUTO 15009KT CAVOK 08/03 Q1016 NOSIG",
      "taf": "TAF LFSB 160500Z 1606/1706 18005KT CAVOK"
    },
    {
      "icao": "LGAV",
      "alert": "OK",
      "vis_m": 9999,
      "fzfg": false,
      "metar_trigger": false,
      "taf_trigger": false,
      "metar": "METAR LGAV 161020Z VRB03KT 9999 FEW025 16/08 Q1022 NOSIG",
      "taf": "TAF LGAV 160500Z 1606/1706 VRB03KT 9999 FEW030"
    },
    {
      "icao": "LGTS",
      "alert": "OK",
      "vis_m": 9999,
      "fzfg": false,
      "metar_trigger": false,
      "taf_trigger": false,
      "metar": "METAR LGTS 161020Z VRB02KT CAVOK 09/05 Q1023 NOSIG",
      "taf": "TAF LGTS 160500Z 1606/1706 VRB03KT 9999 FEW030"
    },
    {
      "icao": "LHBP",
      "alert": "OK",
      "vis_m": 800,
      "fzfg": false,
      "metar_trigger": false,
      "taf_trigger": false,
      "metar": "METAR LHBP 161030Z 09005KT 0800 R13R/1400U R13L/0900D BCFG OVC002 01/01 Q1024 NOSIG",
      "taf": ""
    },
    {
      "icao": "LHDC",
      "alert": "OK",
      "vis_m": 4200,
      "fzfg": false,
      "metar_trigger": false,
      "taf_trigger": false,
      "metar": "METAR LHDC 161015Z AUTO 05005KT 4200 BR OVC022 02/01 Q1025 TEMPO 5000 BR",
      "taf": "TAF LHDC 160815Z 1609/1618 06006KT 6000 SCT012 OVC020"
    },
    {
      "icao": "LIBD",
      "alert": "OK",
      "vis_m": 9999,
      "fzfg": false,
      "metar_trigger": false,
      "taf_trigger": false,
      "metar": "METAR LIBD 161020Z 01003KT 320V130 CAVOK 13/08 Q1021",
      "taf": "TAF LIBD 160500Z 1606/1706 VRB05KT 9999 FEW030"
    },
    {
      "icao": "LIBG",
      "alert": "OK",
      "vis_m": 9999,
      "fzfg": false,
      "metar_trigger": false,
      "taf_trigger": false,
      "metar": "METAR LIBG 160950Z VRB02KT CAVOK 13/13 Q1021",
      "taf": "TAF LIBG 160800Z 1609/1618 VRB05KT 8000 FEW025"
    },
    {
      "icao": "LIBP",
      "alert": "OK",
      "vis_m": 9999,
      "fzfg": false,
      "metar_trigger": false,
      "taf_trigger": false,
      "metar": "METAR LIBP 161020Z AUTO 23004KT 9999 NCD 11/04 Q1022",
      "taf": "TAF LIBP 160500Z 1606/1706 VRB05KT CAVOK"
    },
    {
      "icao": "LIBR",
      "alert": "OK",
      "vis_m": 9999,
      "fzfg": false,
      "metar_trigger": false,
      "taf_trigger": false,
      "metar": "METAR LIBR 161020Z VRB02KT CAVOK 13/10 Q1021",
      "taf": "TAF LIBR 160500Z 1606/1706 VRB05KT 9999 FEW025"
    },
    {
      "icao": "LICA",
      "alert": "OK",
      "vis_m": 9999,
      "fzfg": false,
      "metar_trigger": false,
      "taf_trigger": false,
      "metar": "METAR LICA 161020Z AUTO 07016KT 9999 NCD 15/11 Q1020",
      "taf": "TAF LICA 160500Z 1606/1706 08012KT CAVOK"
    },
    {
      "icao": "LICC",
      "alert": "OK",
      "vis_m": 8000,
      "fzfg": false,
      "metar_trigger": false,
      "taf_trigger": false,
      "metar": "METAR LICC 161020Z 23005KT 8000 FEW015 BKN030 12/09 Q1020",
      "taf": "TAF LICC 160500Z 1606/1706 VRB05KT 9999 SCT020"
    },
    {
      "icao": "LICJ",
      "alert": "OK",
      "vis_m": 9999,
      "fzfg": false,
      "metar_trigger": false,
      "taf_trigger": false,
      "metar": "METAR LICJ 161020Z 04005KT CAVOK 15/11 Q1017",
      "taf": "TAF LICJ 160500Z 1606/1706 VRB06KT CAVOK"
    },
    {
      "icao": "LIMC",
      "alert": "OK",
      "vis_m": 2000,
      "fzfg": false,
      "metar_trigger": false,
      "taf_trigger": false,
      "metar": "METAR LIMC 161020Z 02003KT 310V050 2000 BCFG OVC002 07/06 Q1022 NOSIG",
      "taf": "TAF LIMC 160500Z 1606/1712 VRB05KT 2000 -RA BR BKN003 BKN040"
    },
    {
      "icao": "LIME",
      "alert": "OK",
      "vis_m": 5000,
      "fzfg": false,
      "metar_trigger": false,
      "taf_trigger": false,
      "metar": "METAR LIME 161020Z 17004KT 130V220 5000 BR SCT010 08/06 Q1022 NOSIG",
      "taf": "TAF LIME 160500Z 1606/1706 VRB03KT 2000 BR BKN020"
    },
    {
      "icao": "LIMF",
      "alert": "OK",
      "vis_m": 8000,
      "fzfg": false,
      "metar_trigger": false,
      "taf_trigger": false,
      "metar": "METAR LIMF 161020Z 20004KT 8000 BKN060 07/03 Q1022",
      "taf": "TAF LIMF 160500Z 1606/1706 VRB03KT 6000 SCT020 BKN060"
    },
    {
      "icao": "LIMJ",
      "alert": "OK",
      "vis_m": 9999,
      "fzfg": false,
      "metar_trigger": false,
      "taf_trigger": false,
      "metar": "METAR LIMJ 161020Z 04011KT 9999 FEW018 BKN027 10/07 Q1021",
      "taf": "TAF LIMJ 160500Z 1606/1706 04012KT 9999 SCT020 BKN030"
    },
    {
      "icao": "LIPE",
      "alert": "OK",
      "vis_m": 2000,
      "fzfg": false,
      "metar_trigger": false,
      "taf_trigger": false,
      "metar": "METAR LIPE 161020Z VRB02KT 2000 BR BKN005 07/06 Q1023",
      "taf": "TAF LIPE 160500Z 1606/1706 VRB04KT 2000 BR BKN020"
    },
    {
      "icao": "LIPH",
      "alert": "OK",
      "vis_m": 9999,
      "fzfg": false,
      "metar_trigger": false,
      "taf_trigger": false,
      "metar": "METAR LIPH 161020Z VRB01KT CAVOK 09/04 Q1022",
      "taf": "TAF LIPH 160500Z 1606/1706 VRB04KT 7000 SCT040"
    },
    {
      "icao": "LIPQ",
      "alert": "OK",
      "vis_m": 2500,
      "fzfg": false,
      "metar_trigger": false,
      "taf_trigger": false,
      "metar": "METAR LIPQ 161020Z AUTO 26002KT 2500 BR OVC012/// 09/08 Q1022",
      "taf": "TAF LIPQ 160500Z 1606/1706 VRB04KT 3000 BR BKN020"
    },
    {
      "icao": "LIPR",
      "alert": "OK",
      "vis_m": 1000,
      "fzfg": false,
      "metar_trigger": false,
      "taf_trigger": false,
      "metar": "METAR LIPR 161020Z 30006KT 1000 R30/1700N BR BKN003 06/06 Q1023",
      "taf": "TAF LIPR 160500Z 1606/1706 VRB04KT 2000 BR BKN020"
    },
    {
      "icao": "LIPX",
      "alert": "OK",
      "vis_m": 2500,
      "fzfg": false,
      "metar_trigger": false,
      "taf_trigger": false,
      "metar": "METAR LIPX 161020Z VRB02KT 2500 BR BKN070 07/06 Q1022",
      "taf": "TAF LIPX 160500Z 1606/1706 VRB04KT 4000 BR SCT020 BKN060"
    },
    {
      "icao": "LIPY",
      "alert": "OK",
      "vis_m": 200,
      "fzfg": false,
      "metar_trigger": false,
      "taf_trigger": false,
      "metar": "METAR LIPY 161020Z AUTO VRB01KT 0200 R22/0450N FG VV002 07/07 Q1023",
      "taf": "TAF LIPY 160500Z 1606/1706 VRB05KT 6000 SCT060"
    },
    {
      "icao": "LIPZ",
      "alert": "OK",
      "vis_m": 6000,
      "fzfg": false,
      "metar_trigger": false,
      "taf_trigger": false,
      "metar": "METAR LIPZ 161020Z VRB02KT 6000 SCT018 BKN050 07/04 Q1023 NOSIG",
      "taf": "TAF LIPZ 160500Z 1606/1712 VRB04KT 6000 SCT030"
    },
    {
      "icao": "LIRF",
      "alert": "OK",
      "vis_m": 9999,
      "fzfg": false,
      "metar_trigger": false,
      "taf_trigger": false,
      "metar": "METAR LIRF 161020Z 06006KT CAVOK 12/07 Q1020 NOSIG",
      "taf": "TAF LIRF 160500Z 1606/1712 06007KT CAVOK"
    },
    {
      "icao": "LIRN",
      "alert": "OK",
      "vis_m": 9999,
      "fzfg": false,
      "metar_trigger": false,
      "taf_trigger": false,
      "metar": "METAR LIRN 161020Z 35004KT 320V040 CAVOK 13/06 Q1020 NOSIG",
      "taf": "TAF LIRN 160500Z 1606/1706 VRB05KT CAVOK"
    },
    {
      "icao": "LIRP",
      "alert": "OK",
      "vis_m": 9999,
      "fzfg": false,
      "metar_trigger": false,
      "taf_trigger": false,
      "metar": "METAR LIRP 161015Z 12009KT 9999 BKN030 13/10 Q1020 NOSIG",
      "taf": "TAF LIRP 160500Z 1606/1706 15003KT 9999 SCT020 BKN070"
    },
    {
      "icao": "LIRZ",
      "alert": "OK",
      "vis_m": 9999,
      "fzfg": false,
      "metar_trigger": false,
      "taf_trigger": false,
      "metar": "METAR LIRZ 161020Z AUTO VRB01KT 9999 NCD 09/07 Q1021",
      "taf": "TAF LIRZ 160500Z 1606/1706 VRB04KT 4000 BR FEW040"
    },
    {
      "icao": "LJLJ",
      "alert": "OK",
      "vis_m": 9999,
      "fzfg": false,
      "metar_trigger": false,
      "taf_trigger": false,
      "metar": "METAR LJLJ 161030Z 30002KT 9999 FEW040 BKN050 04/03 Q1021 NOSIG",
      "taf": "TAF LJLJ 160500Z 1606/1706 30004KT 9999 FEW003 SCT033 BKN050"
    },
    {
      "icao": "LKMT",
      "alert": "OK",
      "vis_m": 4000,
      "fzfg": false,
      "metar_trigger": false,
      "taf_trigger": false,
      "metar": "METAR LKMT 161030Z 15003KT 4000 BR OVC011 03/02 Q1023 NOSIG",
      "taf": "TAF LKMT 160500Z 1606/1706 22008KT 5000 BR SCT008 BKN030"
    },
    {
      "icao": "LKPR",
      "alert": "OK",
      "vis_m": 3300,
      "fzfg": false,
      "metar_trigger": false,
      "taf_trigger": false,
      "metar": "METAR LKPR 161030Z 09008KT 3300 BR FEW003 SCT004 OVC006 M00/M00 Q1021 NOSIG",
      "taf": "TAF LKPR 160800Z 1609/1715 12005KT 1200 BR OVC002"
    },
    {
      "icao": "LLBG",
      "alert": "OK",
      "vis_m": 9999,
      "fzfg": false,
      "metar_trigger": false,
      "taf_trigger": false,
      "metar": "METAR LLBG 161020Z VRB03KT 9999 FEW045 18/08 Q1021 NOSIG",
      "taf": "TAF LLBG 160503Z 1606/1706 VRB03KT 9999 FEW045"
    },
    {
      "icao": "LMML",
      "alert": "OK",
      "vis_m": 9999,
      "fzfg": false,
      "metar_trigger": false,
      "taf_trigger": false,
      "metar": "METAR LMML 161045Z 14011KT CAVOK 16/14 Q1018 TEMPO 8000 RA NSC",
      "taf": "TAF LMML 160500Z 1606/1706 13012KT 9999 FEW020"
    },
    {
      "icao": "LOWW",
      "alert": "OK",
      "vis_m": 600,
      "fzfg": true,
      "metar_trigger": false,
      "taf_trigger": false,
      "metar": "METAR LOWW 161020Z 15006KT 0600 R16/0700N R29/1000D FZFG VV002 M00/M01 Q1023 BECMG 1000 BR OVC003",
      "taf": "TAF LOWW 160815Z 1609/1715 14008KT 0400 -FZDZ FZFG VV001 TX01/1704Z TNM01/1609Z"
    },
    {
      "icao": "LPFR",
      "alert": "OK",
      "vis_m": 9999,
      "fzfg": false,
      "metar_trigger": false,
      "taf_trigger": false,
      "metar": "METAR LPFR 161030Z 28003KT 250V330 9999 FEW020 13/11 Q1017",
      "taf": "TAF LPFR 160500Z 1606/1706 30010KT 9999 FEW015"
    },
    {
      "icao": "LPMA",
      "alert": "OK",
      "vis_m": 9999,
      "fzfg": false,
      "metar_trigger": false,
      "taf_trigger": false,
      "metar": "METAR LPMA 161030Z VRB03KT 9999 FEW016 16/09 Q1026",
      "taf": "TAF LPMA 160500Z 1606/1706 36015KT 9999 SCT015 SCT030"
    },
    {
      "icao": "LPPR",
      "alert": "OK",
      "vis_m": 9999,
      "fzfg": false,
      "metar_trigger": false,
      "taf_trigger": false,
      "metar": "METAR LPPR 161030Z 13006KT 9999 -SHRA FEW012 FEW018CB BKN020 10/08 Q1012",
      "taf": "TAF LPPR 160500Z 1606/1706 20010KT 9999 SCT012 SCT025"
    },
    {
      "icao": "LPPS",
      "alert": "OK",
      "vis_m": 9999,
      "fzfg": false,
      "metar_trigger": false,
      "taf_trigger": false,
      "metar": "METAR LPPS 161030Z 34010KT 9999 SCT011 15/13 Q1026",
      "taf": "TAF LPPS 160500Z 1606/1712 34017KT 9999 SCT015 SCT030"
    },
    {
      "icao": "LPPT",
      "alert": "OK",
      "vis_m": 9999,
      "fzfg": false,
      "metar_trigger": false,
      "taf_trigger": false,
      "metar": "METAR LPPT 161030Z 23008KT 9999 SHRA FEW020 FEW022CB SCT035 12/10 Q1015",
      "taf": "TAF LPPT 160500Z 1606/1712 24007KT 9999 FEW015 SCT035"
    },
    {
      "icao": "LQBK",
      "alert": "OK",
      "vis_m": 8000,
      "fzfg": false,
      "metar_trigger": false,
      "taf_trigger": false,
      "metar": "METAR LQBK 161030Z 18002KT 8000 NSC 06/03 Q1022 NOSIG",
      "taf": "TAF LQBK 160500Z 1606/1706 15005KT 9999 SCT047 TX11/1613Z TN00/1705Z"
    },
    {
      "icao": "LQSA",
      "alert": "OK",
      "vis_m": 600,
      "fzfg": false,
      "metar_trigger": false,
      "taf_trigger": false,
      "metar": "METAR LQSA 161030Z VRB01KT 0600 R11/0550U FG SCT001 01/01 Q1023 BECMG 2000 BR",
      "taf": ""
    },
    {
      "icao": "LQTZ",
      "alert": "OK",
      "vis_m": 5000,
      "fzfg": false,
      "metar_trigger": false,
      "taf_trigger": false,
      "metar": "METAR LQTZ 161030Z 12004KT 5000 BR FEW008 SCT061 05/03 Q1023",
      "taf": "TAF LQTZ 160500Z 1606/1706 VRB02KT 6000 SCT050 TX10/1613Z TNM02/1705Z"
    },
    {
      "icao": "LRBC",
      "alert": "OK",
      "vis_m": 8000,
      "fzfg": false,
      "metar_trigger": false,
      "taf_trigger": false,
      "metar": "METAR LRBC 161030Z 03008KT 8000 NSC M04/M10 Q1033",
      "taf": "TAF LRBC 160800Z 1609/1618 34007KT 9999 SCT045"
    },
    {
      "icao": "LRBS",
      "alert": "OK",
      "vis_m": 9999,
      "fzfg": false,
      "metar_trigger": false,
      "taf_trigger": false,
      "metar": "METAR LRBS 161030Z 06013KT 020V080 9999 BKN047 M04/M09 Q1031 NOSIG",
      "taf": "TAF LRBS 160500Z 1606/1706 06015KT 3000 -SN BR BKN010 OVC035"
    },
    {
      "icao": "LRBV",
      "alert": "OK",
      "vis_m": 9999,
      "fzfg": false,
      "metar_trigger": false,
      "taf_trigger": false,
      "metar": "METAR LRBV 161030Z 10011KT 9999 FEW019 SCT028 BKN045 M00/M04 Q1026",
      "taf": "TAF LRBV 160800Z 1609/1618 08010KT 5000 BR SCT020 OVC025"
    },
    {
      "icao": "LRCL",
      "alert": "OK",
      "vis_m": 5000,
      "fzfg": false,
      "metar_trigger": false,
      "taf_trigger": false,
      "metar": "METAR LRCL 161030Z 07004KT 5000 BR BKN005 OVC030 01/M00 Q1026",
      "taf": "TAF LRCL 160800Z 1609/1618 VRB04KT 5000 BR OVC005"
    },
    {
      "icao": "LRCV",
      "alert": "OK",
      "vis_m": 1600,
      "fzfg": false,
      "metar_trigger": false,
      "taf_trigger": false,
      "metar": "METAR LRCV 161030Z 07011KT 1600 -SN BR BKN008 OVC012 M02/M03 Q1029",
      "taf": "TAF LRCV 160800Z 1609/1618 09014KT 5000 BR BKN010 OVC035"
    },
    {
      "icao": "LRIA",
      "alert": "OK",
      "vis_m": 9999,
      "fzfg": false,
      "metar_trigger": false,
      "taf_trigger": false,
      "metar": "METAR LRIA 161030Z 32004KT CAVOK M10/M14 Q1034",
      "taf": "TAF LRIA 160800Z 1609/1618 29005KT CAVOK"
    },
    {
      "icao": "LROP",
      "alert": "OK",
      "vis_m": 9999,
      "fzfg": false,
      "metar_trigger": false,
      "taf_trigger": false,
      "metar": "METAR LROP 161030Z 07012KT 9999 SCT045 M03/M10 Q1031 NOSIG",
      "taf": "TAF LROP 160500Z 1606/1706 07015KT 3000 -SN BR BKN010 OVC035"
    },
    {
      "icao": "LRSB",
      "alert": "OK",
      "vis_m": 7000,
      "fzfg": false,
      "metar_trigger": false,
      "taf_trigger": false,
      "metar": "METAR LRSB 161030Z 10008KT 7000 -RA FEW005 BKN012 OVC020 02/02 Q1025 NOSIG",
      "taf": "TAF LRSB 160500Z 1606/1706 VRB04KT 1500 -DZ BR OVC002"
    },
    {
      "icao": "LRSM",
      "alert": "OK",
      "vis_m": 9999,
      "fzfg": false,
      "metar_trigger": false,
      "taf_trigger": false,
      "metar": "METAR LRSM 161030Z 10005KT CAVOK 04/M01 Q1026",
      "taf": "TAF LRSM 160800Z 1609/1618 09006KT 9999 BKN040"
    },
    {
      "icao": "LRSV",
      "alert": "OK",
      "vis_m": 6000,
      "fzfg": false,
      "metar_trigger": false,
      "taf_trigger": false,
      "metar": "METAR LRSV 161030Z 08004KT 6000 NSC M11/M12 Q1030",
      "taf": "TAF LRSV 160800Z 1609/1618 08005KT 4000 BR NSC"
    },
    {
      "icao": "LRTM",
      "alert": "OK",
      "vis_m": 8000,
      "fzfg": false,
      "metar_trigger": false,
      "taf_trigger": false,
      "metar": "METAR LRTM 161030Z 08005KT 8000 FEW012 BKN022 01/M02 Q1026",
      "taf": "TAF LRTM 160800Z 1609/1618 VRB04KT 5000 BR OVC005"
    },
    {
      "icao": "LRTR",
      "alert": "OK",
      "vis_m": 3500,
      "fzfg": false,
      "metar_trigger": false,
      "taf_trigger": false,
      "metar": "METAR LRTR 161030Z 09009KT 3500 BR SCT035 03/03 Q1024",
      "taf": "TAF LRTR 160500Z 1606/1706 11008KT 5000 -RA BR BKN040"
    },
    {
      "icao": "LTAC",
      "alert": "OK",
      "vis_m": 7000,
      "fzfg": false,
      "metar_trigger": false,
      "taf_trigger": false,
      "metar": "METAR LTAC 161020Z 24009KT 7000 SCT010 BKN025 BKN080 04/01 Q1020 REPL NOSIG RMK RWY21C 23009KT RWY03L 23008KT RWY21R 22009KT RWY03R 22010KT RWY21L 23008KT",
      "taf": ""
    },
    {
      "icao": "LTFM",
      "alert": "OK",
      "vis_m": 7000,
      "fzfg": false,
      "metar_trigger": false,
      "taf_trigger": false,
      "metar": "METAR LTFM 161020Z 05012KT 7000 -SHRA SCT007 BKN022 08/07 Q1024 NOSIG RMK RWY17L 05015KT RWY34L 03012KT RWY16R 05015KT RWY36 05012KT RWY18 06015KT",
      "taf": "TAF LTFM 160440Z 1606/1712 VRB02KT 9999 FEW008 SCT025 BKN070"
    },
    {
      "icao": "LUKK",
      "alert": "OK",
      "vis_m": 9999,
      "fzfg": false,
      "metar_trigger": false,
      "taf_trigger": false,
      "metar": "METAR LUKK 161030Z 36008KT CAVOK M08/M13 Q1032 NOSIG",
      "taf": "TAF LUKK 160518Z 1606/1706 01012KT 9999 BKN015"
    },
    {
      "icao": "LWOH",
      "alert": "OK",
      "vis_m": null,
      "fzfg": false,
      "metar_trigger": false,
      "taf_trigger": false,
      "metar": "",
      "taf": "TAF LWOH 160835Z 1609/1709 VRB02KT 9999 SCT050"
    },
    {
      "icao": "LWSK",
      "alert": "OK",
      "vis_m": 8000,
      "fzfg": false,
      "metar_trigger": false,
      "taf_trigger": false,
      "metar": "METAR LWSK 161020Z VRB02KT 8000 FEW050 BKN088 06/02 Q1024 NOSIG",
      "taf": "TAF LWSK 160835Z 1609/1709 VRB02KT 9999 SCT050"
    },
    {
      "icao": "LYBE",
      "alert": "OK",
      "vis_m": 4500,
      "fzfg": false,
      "metar_trigger": false,
      "taf_trigger": false,
      "metar": "METAR LYBE 161030Z 09002KT 4500 BR NSC 05/03 Q1024 NOSIG",
      "taf": "TAF LYBE 160500Z 1606/1706 06004KT 9999 SCT045 TX06/1613Z TNM00/1706Z"
    },
    {
      "icao": "LYNI",
      "alert": "OK",
      "vis_m": 9999,
      "fzfg": false,
      "metar_trigger": false,
      "taf_trigger": false,
      "metar": "METAR LYNI 161030Z 10003KT 040V160 9999 FEW017 10/04 Q1024 BECMG FM1130 04011KT",
      "taf": "TAF LYNI 160500Z 1606/1706 20004KT 9999 SCT050 BKN080 TX07/1612Z TNM01/1706Z"
    },
    {
      "icao": "LYPG",
      "alert": "OK",
      "vis_m": 9999,
      "fzfg": false,
      "metar_trigger": false,
      "taf_trigger": false,
      "metar": "METAR LYPG 161030Z VRB01KT 9999 FEW030 12/08 Q1023 NOSIG",
      "taf": ""
    },
    {
      "icao": "LZIB",
      "alert": "OK",
      "vis_m": 1400,
      "fzfg": false,
      "metar_trigger": false,
      "taf_trigger": false,
      "metar": "METAR LZIB 161030Z 04005KT 1400 R31/1700N R22/1500N BR SCT002 OVC003 00/00 Q1024 TEMPO 0700 FG FEW001 OVC002",
      "taf": ""
    },
    {
      "icao": "LZKZ",
      "alert": "OK",
      "vis_m": 9999,
      "fzfg": false,
      "metar_trigger": false,
      "taf_trigger": false,
      "metar": "METAR LZKZ 161030Z 01006KT 9999 OVC018 03/00 Q1025 NOSIG",
      "taf": "TAF LZKZ 160515Z 1606/1706 VRB02KT 8000 BKN017"
    },
    {
      "icao": "LZTT",
      "alert": "OK",
      "vis_m": 500,
      "fzfg": false,
      "metar_trigger": false,
      "taf_trigger": false,
      "metar": "METAR LZTT 161030Z VRB02KT 0500 R27/0900N FG OVC003 01/00 Q1022 NOSIG",
      "taf": ""
    },
    {
      "icao": "OEJN",
      "alert": "OK",
      "vis_m": 9999,
      "fzfg": false,
      "metar_trigger": false,
      "taf_trigger": false,
      "metar": "METAR OEJN 161000Z 14003KT CAVOK 31/04 Q1013 NOSIG",
      "taf": "TAF OEJN 160500Z 1606/1712 08014KT 6000 NSC"
    },
    {
      "icao": "OEMA",
      "alert": "OK",
      "vis_m": 9999,
      "fzfg": false,
      "metar_trigger": false,
      "taf_trigger": false,
      "metar": "METAR OEMA 161000Z 09009KT CAVOK 18/00 Q1022 NOSIG",
      "taf": "TAF OEMA 160500Z 1606/1712 09015KT 6000 NSC"
    },
    {
      "icao": "OJAI",
      "alert": "OK",
      "vis_m": 4000,
      "fzfg": false,
      "metar_trigger": false,
      "taf_trigger": false,
      "metar": "METAR OJAI 161000Z 17004KT 4000 HZ FEW020 10/05 Q1023 NOSIG",
      "taf": "TAF OJAI 160435Z 1606/1712 VRB02KT 0300 FG NSC"
    },
    {
      "icao": "OMAA",
      "alert": "OK",
      "vis_m": 9999,
      "fzfg": false,
      "metar_trigger": false,
      "taf_trigger": false,
      "metar": "METAR OMAA 161000Z 30015KT 9999 FEW040 22/11 Q1018 NOSIG",
      "taf": "TAF OMAA 160500Z 1606/1712 32013KT 8000 FEW030"
    },
    {
      "icao": "OMDB",
      "alert": "OK",
      "vis_m": 9999,
      "fzfg": false,
      "metar_trigger": false,
      "taf_trigger": false,
      "metar": "METAR OMDB 161030Z 28015KT 250V320 9999 BKN040 22/11 Q1017 TEMPO 29020G30KT",
      "taf": "TAF OMDB 160500Z 1606/1712 29014KT 8000 FEW030"
    },
    {
      "icao": "UAAA",
      "alert": "OK",
      "vis_m": 2500,
      "fzfg": false,
      "metar_trigger": false,
      "taf_trigger": false,
      "metar": "SPECI UAAA 161046Z 27005MPS 2500 -SN BR OVC026 M12/M14 Q1019 NOSIG",
      "taf": "TAF UAAA 160504Z 1606/1706 33003G08MPS 3100 -SHSN BR BKN011CB OVC030 TXM07/1608Z TNM18/1703Z"
    },
    {
      "icao": "UBBB",
      "alert": "OK",
      "vis_m": 9999,
      "fzfg": false,
      "metar_trigger": false,
      "taf_trigger": false,
      "metar": "METAR UBBB 161030Z 19010KT CAVOK 08/00 Q1020 NOSIG",
      "taf": "TAF UBBB 160502Z 1606/1706 19012KT 9999 FEW025 TX07/1610Z TN01/1702Z"
    },
    {
      "icao": "UDSG",
      "alert": "OK",
      "vis_m": 9999,
      "fzfg": false,
      "metar_trigger": false,
      "taf_trigger": false,
      "metar": "METAR UDSG 161030Z 24001KT 9999 BKN049 M09/M15 Q1020 NOSIG",
      "taf": "TAF UDSG 160500Z 1606/1706 VRB06KT 9999 SCT040"
    },
    {
      "icao": "UDYZ",
      "alert": "OK",
      "vis_m": 9999,
      "fzfg": false,
      "metar_trigger": false,
      "taf_trigger": false,
      "metar": "METAR UDYZ 161030Z VRB01KT 9999 FEW046 01/M12 Q1022 NOSIG",
      "taf": "TAF UDYZ 160500Z 1606/1706 VRB06KT 9999 FEW040"
    },
    {
      "icao": "UGKO",
      "alert": "OK",
      "vis_m": 8000,
      "fzfg": false,
      "metar_trigger": false,
      "taf_trigger": false,
      "metar": "METAR UGKO 161030Z 11006KT 8000 -RA SCT014 OVC036 02/00 Q1021 NOSIG",
      "taf": "TAF UGKO 160500Z 1606/1706 10007KT 8000 BKN020 OVC040 TX03/1612Z TN00/1606Z"
    }
  ]
}