{
  "ts_utc": "2026-05-02T17:24:35Z",
  "threshold_m": 150,
  "source": "stations_override.txt (ICAO list) + aviationweather.gov (METAR/TAF raw)",
  "station_count": 159,
  "stations": [
    {
      "icao": "BIKF",
      "alert": "OK",
      "vis_m": 9999,
      "fzfg": false,
      "metar_trigger": false,
      "taf_trigger": false,
      "metar": "METAR BIKF 021700Z 26019KT 9999 BKN022 07/00 Q1015",
      "taf": "TAF BIKF 021638Z 0218/0318 25020KT 9999 FEW020 BKN040 TX07/0315Z TN03/0302Z"
    },
    {
      "icao": "BKPR",
      "alert": "OK",
      "vis_m": null,
      "fzfg": false,
      "metar_trigger": false,
      "taf_trigger": false,
      "metar": "",
      "taf": ""
    },
    {
      "icao": "EBCI",
      "alert": "OK",
      "vis_m": 9999,
      "fzfg": false,
      "metar_trigger": false,
      "taf_trigger": false,
      "metar": "METAR EBCI 021650Z 19008KT 150V220 9999 FEW029 22/12 Q1014 NOSIG",
      "taf": "TAF EBCI 021110Z 0212/0318 22005KT 9999 SCT035"
    },
    {
      "icao": "EDDB",
      "alert": "OK",
      "vis_m": 9999,
      "fzfg": false,
      "metar_trigger": false,
      "taf_trigger": false,
      "metar": "METAR EDDB 021720Z AUTO 20009KT CAVOK 24/06 Q1016 NOSIG",
      "taf": "TAF EDDB 021100Z 0212/0312 19010KT CAVOK"
    },
    {
      "icao": "EDDH",
      "alert": "OK",
      "vis_m": 9999,
      "fzfg": false,
      "metar_trigger": false,
      "taf_trigger": false,
      "metar": "METAR EDDH 021720Z AUTO 22009KT 200V260 CAVOK 23/10 Q1013 BECMG 29003KT",
      "taf": "TAF EDDH 021100Z 0212/0318 23010KT CAVOK"
    },
    {
      "icao": "EDDK",
      "alert": "OK",
      "vis_m": 9999,
      "fzfg": false,
      "metar_trigger": false,
      "taf_trigger": false,
      "metar": "METAR EDDK 021720Z AUTO 07004KT 040V100 9999 -SHRA FEW046 FEW///CB 19/16 Q1014 RETSRA TEMPO NSW",
      "taf": ""
    },
    {
      "icao": "EDDN",
      "alert": "OK",
      "vis_m": 9999,
      "fzfg": false,
      "metar_trigger": false,
      "taf_trigger": false,
      "metar": "METAR EDDN 021720Z AUTO 18006KT CAVOK 24/03 Q1017 NOSIG",
      "taf": "TAF EDDN 021100Z 0212/0312 15008KT CAVOK"
    },
    {
      "icao": "EDDS",
      "alert": "OK",
      "vis_m": 9999,
      "fzfg": false,
      "metar_trigger": false,
      "taf_trigger": false,
      "metar": "METAR EDDS 021720Z AUTO 10003KT 080V140 CAVOK 24/02 Q1016 NOSIG",
      "taf": "TAF EDDS 021100Z 0212/0312 VRB03KT CAVOK"
    },
    {
      "icao": "EDFH",
      "alert": "OK",
      "vis_m": 9999,
      "fzfg": false,
      "metar_trigger": false,
      "taf_trigger": false,
      "metar": "METAR EDFH 021650Z 18012KT CAVOK 22/04 Q1016",
      "taf": "TAF EDFH 021100Z 0212/0312 18009KT CAVOK"
    },
    {
      "icao": "EDJA",
      "alert": "OK",
      "vis_m": 9999,
      "fzfg": false,
      "metar_trigger": false,
      "taf_trigger": false,
      "metar": "METAR EDJA 021650Z 00000KT CAVOK 23/05 Q1018",
      "taf": "TAF EDJA 021400Z 0215/0224 25005KT CAVOK"
    },
    {
      "icao": "EDLW",
      "alert": "OK",
      "vis_m": 9999,
      "fzfg": false,
      "metar_trigger": false,
      "taf_trigger": false,
      "metar": "METAR EDLW 021650Z VRB01KT CAVOK 20/13 Q1015",
      "taf": "TAF EDLW 021100Z 0212/0312 22009KT CAVOK"
    },
    {
      "icao": "EDNY",
      "alert": "OK",
      "vis_m": 9999,
      "fzfg": false,
      "metar_trigger": false,
      "taf_trigger": false,
      "metar": "METAR EDNY 021650Z 22003KT 190V250 CAVOK 23/07 Q1017",
      "taf": "TAF EDNY 021400Z 0215/0224 23005KT CAVOK"
    },
    {
      "icao": "EDSB",
      "alert": "OK",
      "vis_m": 9999,
      "fzfg": false,
      "metar_trigger": false,
      "taf_trigger": false,
      "metar": "METAR EDSB 021650Z 29003KT 250V340 CAVOK 26/09 Q1015",
      "taf": "TAF EDSB 021100Z 0212/0312 23005KT CAVOK"
    },
    {
      "icao": "EETN",
      "alert": "OK",
      "vis_m": 9999,
      "fzfg": false,
      "metar_trigger": false,
      "taf_trigger": false,
      "metar": "METAR EETN 021720Z 25011KT CAVOK 17/04 Q1010 NOSIG",
      "taf": "TAF EETN 021130Z 0212/0312 26015KT CAVOK"
    },
    {
      "icao": "EFTU",
      "alert": "OK",
      "vis_m": 9999,
      "fzfg": false,
      "metar_trigger": false,
      "taf_trigger": false,
      "metar": "METAR EFTU 021720Z AUTO 21008KT CAVOK 14/04 Q1007",
      "taf": "TAF EFTU 021428Z 0215/0315 26010KT CAVOK"
    },
    {
      "icao": "EGBB",
      "alert": "OK",
      "vis_m": 9999,
      "fzfg": false,
      "metar_trigger": false,
      "taf_trigger": false,
      "metar": "METAR EGBB 021650Z 05004KT 010V080 CAVOK 17/09 Q1012",
      "taf": "TAF EGBB 021700Z 0218/0318 36005KT 9999 SCT020"
    },
    {
      "icao": "EGGP",
      "alert": "OK",
      "vis_m": 9999,
      "fzfg": false,
      "metar_trigger": false,
      "taf_trigger": false,
      "metar": "METAR EGGP 021650Z 11003KT CAVOK 15/07 Q1012",
      "taf": "TAF EGGP 021655Z 0218/0318 VRB03KT 9999 SCT035"
    },
    {
      "icao": "EGGW",
      "alert": "OK",
      "vis_m": 9999,
      "fzfg": false,
      "metar_trigger": false,
      "taf_trigger": false,
      "metar": "METAR EGGW 021650Z AUTO 21007KT 160V230 9999 -RA //////CB 17/10 Q1012",
      "taf": "TAF EGGW 021704Z 0218/0318 13007KT 9999 FEW045"
    },
    {
      "icao": "EGKK",
      "alert": "OK",
      "vis_m": 9999,
      "fzfg": false,
      "metar_trigger": false,
      "taf_trigger": false,
      "metar": "METAR EGKK 021650Z VRB02KT 9999 -RA NSC 14/12 Q1012",
      "taf": "TAF EGKK 021658Z 0218/0324 16005KT 9999 SCT045"
    },
    {
      "icao": "EGNM",
      "alert": "OK",
      "vis_m": 9999,
      "fzfg": false,
      "metar_trigger": false,
      "taf_trigger": false,
      "metar": "METAR EGNM 021650Z 33007KT 9999 FEW035 SCT042 14/08 Q1013",
      "taf": "TAF EGNM 021655Z 0218/0318 VRB04KT 9999 SCT020"
    },
    {
      "icao": "EGPD",
      "alert": "OK",
      "vis_m": 9999,
      "fzfg": false,
      "metar_trigger": false,
      "taf_trigger": false,
      "metar": "METAR EGPD 021650Z AUTO 02009KT 9999 -RA BKN011 OVC019 10/07 Q1014 TEMPO RA BKN009",
      "taf": "TAF EGPD 021656Z 0218/0318 04009KT 9999 BKN012"
    },
    {
      "icao": "EGPF",
      "alert": "OK",
      "vis_m": 9999,
      "fzfg": false,
      "metar_trigger": false,
      "taf_trigger": false,
      "metar": "METAR EGPF 021650Z AUTO 31005KT 9999 FEW029 SCT034 15/10 Q1013",
      "taf": "TAF EGPF 021653Z 0218/0318 VRB05KT 9999 BKN030"
    },
    {
      "icao": "EHBK",
      "alert": "OK",
      "vis_m": 9999,
      "fzfg": false,
      "metar_trigger": false,
      "taf_trigger": false,
      "metar": "METAR EHBK 021655Z AUTO 11005KT 060V160 9999 TSRA FEW002 FEW015CB 20/16 Q1014 REDZ TEMPO VRB14G25KT 3000 TSRA SCT040CB",
      "taf": "TAF EHBK 021120Z 0212/0318 21010KT 9999 FEW030"
    },
    {
      "icao": "EHEH",
      "alert": "OK",
      "vis_m": 9999,
      "fzfg": false,
      "metar_trigger": false,
      "taf_trigger": false,
      "metar": "METAR EHEH 021655Z AUTO 02003KT 9999 FEW082 BKN110 BKN300 23/13 Q1014 BLU NOSIG RMK TREND REMOTE BY EHWX",
      "taf": ""
    },
    {
      "icao": "EKBI",
      "alert": "OK",
      "vis_m": 9999,
      "fzfg": false,
      "metar_trigger": false,
      "taf_trigger": false,
      "metar": "METAR EKBI 021720Z AUTO 26003KT 9999 -RA OVC077/// 15/12 Q1013",
      "taf": "TAF EKBI 021427Z 0215/0315 19011KT CAVOK"
    },
    {
      "icao": "EKCH",
      "alert": "OK",
      "vis_m": 9999,
      "fzfg": false,
      "metar_trigger": false,
      "taf_trigger": false,
      "metar": "METAR EKCH 021720Z AUTO 19006KT 9999 NCD 17/08 Q1014 NOSIG",
      "taf": "TAF EKCH 021427Z 0215/0315 19012KT CAVOK"
    },
    {
      "icao": "ENAL",
      "alert": "OK",
      "vis_m": 9999,
      "fzfg": false,
      "metar_trigger": false,
      "taf_trigger": false,
      "metar": "METAR ENAL 021650Z 35004KT 290V030 9999 FEW021 SCT032 BKN040 05/01 Q1015",
      "taf": "TAF ENAL 021400Z 0215/0224 34008KT 9999 -RA SCT020 BKN030"
    },
    {
      "icao": "ENBR",
      "alert": "OK",
      "vis_m": 9999,
      "fzfg": false,
      "metar_trigger": false,
      "taf_trigger": false,
      "metar": "METAR ENBR 021650Z 33009KT 9999 SCT009 BKN025 07/06 Q1012 TEMPO 4000 BR SCT005 BKN008 RMK WIND 1200FT 31006KT",
      "taf": ""
    },
    {
      "icao": "ENGM",
      "alert": "OK",
      "vis_m": 9999,
      "fzfg": false,
      "metar_trigger": false,
      "taf_trigger": false,
      "metar": "METAR ENGM 021650Z 29003KT 240V340 9999 -RA NSC 11/04 Q1009 NOSIG",
      "taf": "TAF ENGM 021100Z 0212/0312 21008KT CAVOK"
    },
    {
      "icao": "ENHD",
      "alert": "OK",
      "vis_m": 9999,
      "fzfg": false,
      "metar_trigger": false,
      "taf_trigger": false,
      "metar": "METAR ENHD 021650Z 36007KT 9999 BKN032 09/07 Q1011",
      "taf": "TAF ENHD 021400Z 0215/0222 34008KT 9999 -RA FEW020 BKN035"
    },
    {
      "icao": "ENTC",
      "alert": "OK",
      "vis_m": 9999,
      "fzfg": false,
      "metar_trigger": false,
      "taf_trigger": false,
      "metar": "METAR ENTC 021650Z 27012G23KT 9999 FEW036 SCT048 OVC063 02/M04 Q1001 TEMPO 26022G35KT 4000 SHSNRAGS BKN012 RMK WIND 2600FT 29026KT",
      "taf": ""
    },
    {
      "icao": "ENTO",
      "alert": "OK",
      "vis_m": 9999,
      "fzfg": false,
      "metar_trigger": false,
      "taf_trigger": false,
      "metar": "METAR ENTO 021620Z 22003KT 180V290 9999 VCSH NSC 16/05 Q1009",
      "taf": ""
    },
    {
      "icao": "ENVA",
      "alert": "OK",
      "vis_m": 9999,
      "fzfg": false,
      "metar_trigger": false,
      "taf_trigger": false,
      "metar": "METAR ENVA 021650Z 27013KT 9999 -RA SCT018 BKN034 05/01 Q1013 RMK WIND 670FT 28012KT",
      "taf": "TAF ENVA 021100Z 0212/0312 27012KT 9999 FEW015 BKN030"
    },
    {
      "icao": "ENZV",
      "alert": "OK",
      "vis_m": 9999,
      "fzfg": false,
      "metar_trigger": false,
      "taf_trigger": false,
      "metar": "METAR ENZV 021650Z 36007KT 9999 OVC042 11/05 Q1011 NOSIG",
      "taf": "TAF ENZV 021100Z 0212/0312 34008KT 9999 FEW015 SCT025"
    },
    {
      "icao": "EPGD",
      "alert": "OK",
      "vis_m": 9999,
      "fzfg": false,
      "metar_trigger": false,
      "taf_trigger": false,
      "metar": "METAR EPGD 021700Z 05007KT 010V090 CAVOK 17/01 Q1017",
      "taf": "TAF EPGD 021130Z 0212/0312 26008KT CAVOK"
    },
    {
      "icao": "EPKK",
      "alert": "OK",
      "vis_m": 9999,
      "fzfg": false,
      "metar_trigger": false,
      "taf_trigger": false,
      "metar": "METAR EPKK 021700Z 07006KT CAVOK 18/02 Q1021",
      "taf": "TAF EPKK 021430Z 0215/0315 07007KT CAVOK"
    },
    {
      "icao": "EPKT",
      "alert": "OK",
      "vis_m": 9999,
      "fzfg": false,
      "metar_trigger": false,
      "taf_trigger": false,
      "metar": "METAR EPKT 021700Z 08009KT CAVOK 20/02 Q1020",
      "taf": "TAF EPKT 021130Z 0212/0312 07008KT CAVOK"
    },
    {
      "icao": "EPLB",
      "alert": "OK",
      "vis_m": 9999,
      "fzfg": false,
      "metar_trigger": false,
      "taf_trigger": false,
      "metar": "METAR EPLB 021700Z 19007KT 170V230 CAVOK 19/06 Q1020",
      "taf": "TAF EPLB 021130Z 0212/0312 VRB05KT CAVOK"
    },
    {
      "icao": "EPMO",
      "alert": "OK",
      "vis_m": 9999,
      "fzfg": false,
      "metar_trigger": false,
      "taf_trigger": false,
      "metar": "METAR EPMO 021700Z 26006KT CAVOK 23/05 Q1019",
      "taf": "TAF EPMO 021130Z 0212/0312 28010KT CAVOK"
    },
    {
      "icao": "EPPO",
      "alert": "OK",
      "vis_m": 9999,
      "fzfg": false,
      "metar_trigger": false,
      "taf_trigger": false,
      "metar": "METAR EPPO 021700Z 19008KT CAVOK 24/03 Q1018",
      "taf": "TAF EPPO 021130Z 0212/0312 18010KT CAVOK"
    },
    {
      "icao": "EPRA",
      "alert": "OK",
      "vis_m": 9999,
      "fzfg": false,
      "metar_trigger": false,
      "taf_trigger": false,
      "metar": "METAR EPRA 021700Z 23003KT CAVOK 22/02 Q1020",
      "taf": "TAF EPRA 021430Z 0215/0224 VRB03KT CAVOK"
    },
    {
      "icao": "EPRZ",
      "alert": "OK",
      "vis_m": 9999,
      "fzfg": false,
      "metar_trigger": false,
      "taf_trigger": false,
      "metar": "METAR EPRZ 021700Z 15004KT CAVOK 18/03 Q1021",
      "taf": "TAF EPRZ 021130Z 0212/0312 10007KT CAVOK"
    },
    {
      "icao": "EPSC",
      "alert": "OK",
      "vis_m": 9999,
      "fzfg": false,
      "metar_trigger": false,
      "taf_trigger": false,
      "metar": "METAR EPSC 021700Z 17009KT CAVOK 25/03 Q1016",
      "taf": "TAF EPSC 021130Z 0212/0312 22010KT CAVOK"
    },
    {
      "icao": "EPSY",
      "alert": "OK",
      "vis_m": 9999,
      "fzfg": false,
      "metar_trigger": false,
      "taf_trigger": false,
      "metar": "METAR EPSY 021700Z 22007KT CAVOK 24/M01 Q1018",
      "taf": "TAF EPSY 021430Z 0215/0224 VRB02KT CAVOK"
    },
    {
      "icao": "EPWA",
      "alert": "OK",
      "vis_m": 9999,
      "fzfg": false,
      "metar_trigger": false,
      "taf_trigger": false,
      "metar": "METAR EPWA 021700Z 27004KT CAVOK 24/00 Q1019 NOSIG",
      "taf": "TAF EPWA 021430Z 0215/0315 27010KT CAVOK"
    },
    {
      "icao": "EPWR",
      "alert": "OK",
      "vis_m": 9999,
      "fzfg": false,
      "metar_trigger": false,
      "taf_trigger": false,
      "metar": "METAR EPWR 021700Z 13010KT CAVOK 22/02 Q1019",
      "taf": "TAF EPWR 021430Z 0215/0315 16006KT CAVOK"
    },
    {
      "icao": "ESGG",
      "alert": "OK",
      "vis_m": 9999,
      "fzfg": false,
      "metar_trigger": false,
      "taf_trigger": false,
      "metar": "METAR ESGG 021650Z 20012KT CAVOK 19/06 Q1011",
      "taf": "TAF ESGG 021430Z 0215/0315 22014KT CAVOK"
    },
    {
      "icao": "ESKN",
      "alert": "OK",
      "vis_m": 9999,
      "fzfg": false,
      "metar_trigger": false,
      "taf_trigger": false,
      "metar": "METAR ESKN 021650Z 24014KT CAVOK 23/04 Q1008",
      "taf": "TAF ESKN 021430Z 0215/0315 26018G28KT CAVOK"
    },
    {
      "icao": "ESMS",
      "alert": "OK",
      "vis_m": 9999,
      "fzfg": false,
      "metar_trigger": false,
      "taf_trigger": false,
      "metar": "METAR ESMS 021650Z 22010KT CAVOK 21/06 Q1014",
      "taf": "TAF ESMS 021427Z 0215/0315 21012KT CAVOK"
    },
    {
      "icao": "ESSA",
      "alert": "OK",
      "vis_m": 9999,
      "fzfg": false,
      "metar_trigger": false,
      "taf_trigger": false,
      "metar": "METAR ESSA 021650Z 26015KT CAVOK 21/02 Q1007 NOSIG",
      "taf": "TAF ESSA 021430Z 0215/0315 26015G25KT CAVOK"
    },
    {
      "icao": "EYKA",
      "alert": "OK",
      "vis_m": 9999,
      "fzfg": false,
      "metar_trigger": false,
      "taf_trigger": false,
      "metar": "METAR EYKA 021720Z 30007KT CAVOK 21/M02 Q1017",
      "taf": "TAF EYKA 021700Z 0218/0318 VRB05KT CAVOK"
    },
    {
      "icao": "EYPA",
      "alert": "OK",
      "vis_m": 9999,
      "fzfg": false,
      "metar_trigger": false,
      "taf_trigger": false,
      "metar": "METAR EYPA 021720Z 20006KT CAVOK 14/02 Q1016",
      "taf": "TAF EYPA 021700Z 0218/0318 VRB05KT CAVOK"
    },
    {
      "icao": "EYVI",
      "alert": "OK",
      "vis_m": 9999,
      "fzfg": false,
      "metar_trigger": false,
      "taf_trigger": false,
      "metar": "METAR EYVI 021720Z 30007KT CAVOK 21/00 Q1016 NOSIG",
      "taf": "TAF EYVI 021700Z 0218/0318 VRB05KT CAVOK"
    },
    {
      "icao": "GCFV",
      "alert": "OK",
      "vis_m": 9999,
      "fzfg": false,
      "metar_trigger": false,
      "taf_trigger": false,
      "metar": "METAR GCFV 021700Z 04010KT 9999 FEW020 21/15 Q1017",
      "taf": "TAF GCFV 021400Z 0215/0315 05010KT 9999 FEW030 TX22/0314Z TN17/0306Z"
    },
    {
      "icao": "GCLP",
      "alert": "OK",
      "vis_m": 9999,
      "fzfg": false,
      "metar_trigger": false,
      "taf_trigger": false,
      "metar": "METAR GCLP 021700Z 02015KT 9999 FEW030 23/15 Q1018 NOSIG",
      "taf": "TAF GCLP 021400Z 0215/0315 03014KT 9999 FEW030 TX23/0314Z TN18/0306Z"
    },
    {
      "icao": "GCTS",
      "alert": "OK",
      "vis_m": 9999,
      "fzfg": false,
      "metar_trigger": false,
      "taf_trigger": false,
      "metar": "METAR GCTS 021700Z 13007KT 100V170 9999 BKN030 21/15 Q1018 NOSIG",
      "taf": "TAF GCTS 021400Z 0215/0315 10015KT 9999 SCT030 TX24/0314Z TN17/0306Z"
    },
    {
      "icao": "GMAD",
      "alert": "OK",
      "vis_m": 9999,
      "fzfg": false,
      "metar_trigger": false,
      "taf_trigger": false,
      "metar": "METAR GMAD 021700Z 21014KT CAVOK 23/12 Q1012 NOSIG",
      "taf": ""
    },
    {
      "icao": "GMMN",
      "alert": "OK",
      "vis_m": 9999,
      "fzfg": false,
      "metar_trigger": false,
      "taf_trigger": false,
      "metar": "METAR GMMN 021700Z 35011KT 320V040 9999 SCT030 20/13 Q1016 NOSIG",
      "taf": "TAF GMMN 021100Z 0212/0318 02006KT 9999 BKN022"
    },
    {
      "icao": "GMMX",
      "alert": "OK",
      "vis_m": 9999,
      "fzfg": false,
      "metar_trigger": false,
      "taf_trigger": false,
      "metar": "METAR GMMX 021700Z 29005KT 200V350 9999 SCT026 SCT200 27/13 Q1014 NOSIG",
      "taf": "TAF GMMX 021700Z 0218/0324 36006KT 8000 SCT026 SCT200"
    },
    {
      "icao": "HEGN",
      "alert": "OK",
      "vis_m": 9999,
      "fzfg": false,
      "metar_trigger": false,
      "taf_trigger": false,
      "metar": "METAR HEGN 021600Z 12010KT CAVOK 25/21 Q1006 NOSIG",
      "taf": "TAF HEGN 021700Z 0218/0324 14012KT CAVOK"
    },
    {
      "icao": "HEMA",
      "alert": "OK",
      "vis_m": 9999,
      "fzfg": false,
      "metar_trigger": false,
      "taf_trigger": false,
      "metar": "METAR HEMA 021600Z 12011KT CAVOK 26/18 Q1006 NOSIG",
      "taf": "TAF HEMA 021700Z 0218/0324 18012KT CAVOK"
    },
    {
      "icao": "HESH",
      "alert": "OK",
      "vis_m": 9999,
      "fzfg": false,
      "metar_trigger": false,
      "taf_trigger": false,
      "metar": "METAR HESH 021600Z 15007KT CAVOK 29/08 Q1006 NOSIG",
      "taf": "TAF HESH 021700Z 0218/0324 28006G20KT CAVOK"
    },
    {
      "icao": "HESX",
      "alert": "OK",
      "vis_m": 4000,
      "fzfg": false,
      "metar_trigger": false,
      "taf_trigger": false,
      "metar": "METAR HESX 021600Z 36014KT 4000 SA 26/14 Q1014 NOSIG",
      "taf": "TAF HESX 021700Z 0218/0324 35016KT 6000 SCT025 SCT070"
    },
    {
      "icao": "LATI",
      "alert": "OK",
      "vis_m": 9999,
      "fzfg": false,
      "metar_trigger": false,
      "taf_trigger": false,
      "metar": "METAR LATI 021720Z 34013KT 9999 SCT110 15/06 Q1019 NOSIG",
      "taf": "TAF LATI 021700Z 0218/0318 34014KT CAVOK TX24/0312Z TN06/0304Z"
    },
    {
      "icao": "LBPD",
      "alert": "OK",
      "vis_m": 9999,
      "fzfg": false,
      "metar_trigger": false,
      "taf_trigger": false,
      "metar": "METAR LBPD 021700Z AUTO 02003KT 9999 -SHRA FEW013/// BKN036/// OVC042/// 08/07 Q1020 TEMPO 5000 RA",
      "taf": "TAF LBPD 021700Z 0218/0318 09010KT 9999 SCT030 BKN060"
    },
    {
      "icao": "LBSF",
      "alert": "OK",
      "vis_m": 9999,
      "fzfg": false,
      "metar_trigger": false,
      "taf_trigger": false,
      "metar": "METAR LBSF 021700Z AUTO 07013KT 9999 FEW036/// BKN073/// 08/02 Q1020 TEMPO 05016G26KT 5000 SHRA FEW030TCU",
      "taf": "TAF LBSF 021700Z 0218/0318 VRB04KT 9999 FEW030 BKN050"
    },
    {
      "icao": "LBWN",
      "alert": "OK",
      "vis_m": 9999,
      "fzfg": false,
      "metar_trigger": false,
      "taf_trigger": false,
      "metar": "METAR LBWN 021700Z AUTO 30003KT 230V350 9999 FEW041/// 08/05 Q1020 NOSIG",
      "taf": "TAF LBWN 021700Z 0218/0318 07010KT 9999 SCT030 BKN050"
    },
    {
      "icao": "LCLK",
      "alert": "OK",
      "vis_m": 9999,
      "fzfg": false,
      "metar_trigger": false,
      "taf_trigger": false,
      "metar": "METAR LCLK 021700Z 05006KT 9999 FEW030 21/17 Q1009 NOSIG",
      "taf": "TAF LCLK 021130Z 0212/0312 22016KT 9999 FEW020"
    },
    {
      "icao": "LCPH",
      "alert": "OK",
      "vis_m": 9999,
      "fzfg": false,
      "metar_trigger": false,
      "taf_trigger": false,
      "metar": "METAR LCPH 021700Z 33005KT 9999 -SHRA FEW020 19/16 Q1010 NOSIG",
      "taf": "TAF LCPH 021130Z 0212/0312 17010KT 9999 FEW020"
    },
    {
      "icao": "LEAL",
      "alert": "OK",
      "vis_m": 9999,
      "fzfg": false,
      "metar_trigger": false,
      "taf_trigger": false,
      "metar": "METAR LEAL 021700Z 08011KT 9999 SCT010 SCT050 20/17 Q1017 NOSIG",
      "taf": "TAF LEAL 021100Z 0212/0312 08010KT 9999 SCT025 SCT030 TX22/0213Z TN15/0306Z"
    },
    {
      "icao": "LEBB",
      "alert": "OK",
      "vis_m": 9999,
      "fzfg": false,
      "metar_trigger": false,
      "taf_trigger": false,
      "metar": "METAR LEBB 021700Z 13003KT 080V190 9999 FEW052 19/17 Q1013 NOSIG",
      "taf": "TAF LEBB 021100Z 0212/0312 14009KT 9999 SCT045 TX21/0215Z TN11/0304Z"
    },
    {
      "icao": "LEBL",
      "alert": "OK",
      "vis_m": 9999,
      "fzfg": false,
      "metar_trigger": false,
      "taf_trigger": false,
      "metar": "METAR LEBL 021700Z 09007KT 070V130 9999 FEW015 BKN060 18/15 Q1020 NOSIG",
      "taf": "TAF LEBL 021100Z 0212/0312 07008KT 9999 SCT020 TX21/0212Z TN16/0306Z"
    },
    {
      "icao": "LECH",
      "alert": "OK",
      "vis_m": 7000,
      "fzfg": false,
      "metar_trigger": false,
      "taf_trigger": false,
      "metar": "METAR LECH 021700Z AUTO 13004KT 7000 SCT009 BKN022 OVC036 16/15 Q1019",
      "taf": "TAF LECH 021100Z 0212/0312 13007KT 9999 SCT015 BKN025 TX20/0212Z TN13/0306Z"
    },
    {
      "icao": "LEMD",
      "alert": "OK",
      "vis_m": 9999,
      "fzfg": false,
      "metar_trigger": false,
      "taf_trigger": false,
      "metar": "METAR LEMD 021700Z 26009KT 220V290 9999 FEW030TCU BKN075 17/10 Q1015 NOSIG",
      "taf": ""
    },
    {
      "icao": "LEMG",
      "alert": "OK",
      "vis_m": 9999,
      "fzfg": false,
      "metar_trigger": false,
      "taf_trigger": false,
      "metar": "METAR LEMG 021700Z 15007KT 120V190 9999 FEW025 20/15 Q1016 NOSIG",
      "taf": "TAF LEMG 021100Z 0212/0312 14010KT 9999 SCT020 TX22/0214Z TN16/0306Z"
    },
    {
      "icao": "LEVC",
      "alert": "OK",
      "vis_m": 9999,
      "fzfg": false,
      "metar_trigger": false,
      "taf_trigger": false,
      "metar": "METAR LEVC 021700Z 11008KT 070V150 9999 SCT015 BKN018 OVC069 20/15 Q1018 NOSIG",
      "taf": "TAF LEVC 021100Z 0212/0312 11008KT 9999 SCT020 SCT030 TX21/0213Z TN15/0306Z"
    },
    {
      "icao": "LEXJ",
      "alert": "OK",
      "vis_m": 9000,
      "fzfg": false,
      "metar_trigger": false,
      "taf_trigger": false,
      "metar": "METAR LEXJ 021700Z 13004KT 070V180 9000 -RA SCT010 SCT017 BKN030 16/15 Q1014",
      "taf": "TAF LEXJ 021400Z 0215/0315 29007KT 9999 SCT010 BKN020 TX19/0312Z TN12/0305Z"
    },
    {
      "icao": "LEZG",
      "alert": "OK",
      "vis_m": 9999,
      "fzfg": false,
      "metar_trigger": false,
      "taf_trigger": false,
      "metar": "METAR LEZG 021700Z 09015KT CAVOK 19/14 Q1015 NOSIG",
      "taf": ""
    },
    {
      "icao": "LEZL",
      "alert": "OK",
      "vis_m": 9999,
      "fzfg": false,
      "metar_trigger": false,
      "taf_trigger": false,
      "metar": "METAR LEZL 021700Z 24009KT 210V290 9999 SCT032 SCT048 23/16 Q1015 NOSIG",
      "taf": "TAF LEZL 021400Z 0215/0315 29010KT 9999 FEW040 TX27/0315Z TN15/0306Z"
    },
    {
      "icao": "LFBD",
      "alert": "OK",
      "vis_m": 9999,
      "fzfg": false,
      "metar_trigger": false,
      "taf_trigger": false,
      "metar": "METAR LFBD 021700Z AUTO 06007KT 9999 ///CB 15/14 Q1015 TEMPO 2000 TSRA",
      "taf": "TAF LFBD 021100Z 0212/0318 VRB03KT CAVOK TX21/0215Z TN13/0305Z"
    },
    {
      "icao": "LFLL",
      "alert": "OK",
      "vis_m": 9999,
      "fzfg": false,
      "metar_trigger": false,
      "taf_trigger": false,
      "metar": "METAR LFLL 021700Z 20012KT 160V250 CAVOK 21/02 Q1018 NOSIG",
      "taf": "TAF LFLL 021700Z 0218/0324 18012KT CAVOK"
    },
    {
      "icao": "LFLS",
      "alert": "OK",
      "vis_m": 9999,
      "fzfg": false,
      "metar_trigger": false,
      "taf_trigger": false,
      "metar": "METAR LFLS 021700Z AUTO 23011KT 180V260 CAVOK 19/05 Q1019 NOSIG",
      "taf": "TAF LFLS 021400Z 0215/0315 23010KT CAVOK"
    },
    {
      "icao": "LFMN",
      "alert": "OK",
      "vis_m": 9999,
      "fzfg": false,
      "metar_trigger": false,
      "taf_trigger": false,
      "metar": "METAR LFMN 021700Z VRB02KT CAVOK 19/08 Q1022 NOSIG",
      "taf": "TAF LFMN 021400Z 0215/0321 12008KT CAVOK"
    },
    {
      "icao": "LFOB",
      "alert": "OK",
      "vis_m": 9999,
      "fzfg": false,
      "metar_trigger": false,
      "taf_trigger": false,
      "metar": "METAR LFOB 021700Z AUTO 23011KT 200V260 CAVOK 20/10 Q1013 NOSIG",
      "taf": ""
    },
    {
      "icao": "LFPO",
      "alert": "OK",
      "vis_m": 9999,
      "fzfg": false,
      "metar_trigger": false,
      "taf_trigger": false,
      "metar": "METAR LFPO 021700Z 25012KT CAVOK 21/11 Q1014 NOSIG",
      "taf": "TAF LFPO 021700Z 0218/0324 22010KT CAVOK"
    },
    {
      "icao": "LFSB",
      "alert": "OK",
      "vis_m": 9999,
      "fzfg": false,
      "metar_trigger": false,
      "taf_trigger": false,
      "metar": "METAR LFSB 021700Z AUTO 29008KT CAVOK 25/11 Q1016 NOSIG",
      "taf": "TAF LFSB 021700Z 0218/0318 VRB04KT CAVOK"
    },
    {
      "icao": "LGAV",
      "alert": "OK",
      "vis_m": 9999,
      "fzfg": false,
      "metar_trigger": false,
      "taf_trigger": false,
      "metar": "METAR LGAV 021650Z 01013KT 9999 SCT020 13/M01 Q1017 NOSIG",
      "taf": "TAF LGAV 021700Z 0218/0318 36012KT 9999 SCT020 BKN070"
    },
    {
      "icao": "LGTS",
      "alert": "OK",
      "vis_m": 9999,
      "fzfg": false,
      "metar_trigger": false,
      "taf_trigger": false,
      "metar": "METAR LGTS 021650Z COR 15004KT 9999 FEW016 SCT025 14/04 Q1019 NOSIG",
      "taf": "TAF LGTS 021700Z 0218/0318 VRB03KT 9999 SCT025"
    },
    {
      "icao": "LHBP",
      "alert": "OK",
      "vis_m": 9999,
      "fzfg": false,
      "metar_trigger": false,
      "taf_trigger": false,
      "metar": "METAR LHBP 021700Z 06004KT 010V100 CAVOK 23/03 Q1019 NOSIG",
      "taf": "TAF LHBP 021115Z 0212/0312 04009KT CAVOK"
    },
    {
      "icao": "LHDC",
      "alert": "OK",
      "vis_m": 9999,
      "fzfg": false,
      "metar_trigger": false,
      "taf_trigger": false,
      "metar": "METAR LHDC 021645Z AUTO 05008KT 360V090 CAVOK 19/01 Q1020 NOSIG",
      "taf": "TAF LHDC 021415Z 0215/0224 06011KT CAVOK"
    },
    {
      "icao": "LIBD",
      "alert": "OK",
      "vis_m": 9999,
      "fzfg": false,
      "metar_trigger": false,
      "taf_trigger": false,
      "metar": "METAR LIBD 021720Z 31005KT 280V350 CAVOK 16/07 Q1021",
      "taf": "TAF LIBD 021700Z 0218/0318 36010KT CAVOK"
    },
    {
      "icao": "LIBG",
      "alert": "OK",
      "vis_m": 9999,
      "fzfg": false,
      "metar_trigger": false,
      "taf_trigger": false,
      "metar": "METAR LIBG 021650Z 01009KT CAVOK 18/00 Q1020",
      "taf": "TAF LIBG 021400Z 0215/0224 03016KT CAVOK"
    },
    {
      "icao": "LIBP",
      "alert": "OK",
      "vis_m": 9999,
      "fzfg": false,
      "metar_trigger": false,
      "taf_trigger": false,
      "metar": "METAR LIBP 021720Z AUTO 05003KT 9999 NCD 18/04 Q1021",
      "taf": "TAF LIBP 021700Z 0218/0318 VRB05KT 9999 FEW050"
    },
    {
      "icao": "LIBR",
      "alert": "OK",
      "vis_m": 9999,
      "fzfg": false,
      "metar_trigger": false,
      "taf_trigger": false,
      "metar": "METAR LIBR 021720Z 34011KT CAVOK 17/07 Q1019",
      "taf": "TAF LIBR 021700Z 0218/0318 33015KT CAVOK"
    },
    {
      "icao": "LICA",
      "alert": "OK",
      "vis_m": 9999,
      "fzfg": false,
      "metar_trigger": false,
      "taf_trigger": false,
      "metar": "METAR LICA 021720Z AUTO 29019KT 9999 NCD 17/09 Q1020",
      "taf": "TAF LICA 021700Z 0218/0318 28010KT 9999 FEW060"
    },
    {
      "icao": "LICC",
      "alert": "OK",
      "vis_m": 9999,
      "fzfg": false,
      "metar_trigger": false,
      "taf_trigger": false,
      "metar": "METAR LICC 021720Z 12005KT 9999 FEW080 17/11 Q1020",
      "taf": "TAF LICC 021700Z 0218/0318 08010KT CAVOK"
    },
    {
      "icao": "LICJ",
      "alert": "OK",
      "vis_m": 9999,
      "fzfg": false,
      "metar_trigger": false,
      "taf_trigger": false,
      "metar": "METAR LICJ 021720Z 05012KT CAVOK 17/08 Q1021",
      "taf": "TAF LICJ 021700Z 0218/0318 05010KT CAVOK"
    },
    {
      "icao": "LIMC",
      "alert": "OK",
      "vis_m": 9999,
      "fzfg": false,
      "metar_trigger": false,
      "taf_trigger": false,
      "metar": "METAR LIMC 021650Z 19004KT 150V220 CAVOK 23/03 Q1020 NOSIG",
      "taf": "TAF LIMC 021700Z 0218/0324 VRB05KT CAVOK"
    },
    {
      "icao": "LIME",
      "alert": "OK",
      "vis_m": 9999,
      "fzfg": false,
      "metar_trigger": false,
      "taf_trigger": false,
      "metar": "METAR LIME 021650Z 27003KT 210V320 CAVOK 23/03 Q1020 NOSIG",
      "taf": "TAF LIME 021700Z 0218/0318 VRB05KT CAVOK"
    },
    {
      "icao": "LIMF",
      "alert": "OK",
      "vis_m": 9999,
      "fzfg": false,
      "metar_trigger": false,
      "taf_trigger": false,
      "metar": "METAR LIMF 021650Z 09005KT CAVOK 22/07 Q1020",
      "taf": "TAF LIMF 021700Z 0218/0318 VRB05KT CAVOK"
    },
    {
      "icao": "LIMJ",
      "alert": "OK",
      "vis_m": 9999,
      "fzfg": false,
      "metar_trigger": false,
      "taf_trigger": false,
      "metar": "METAR LIMJ 021650Z 23003KT CAVOK 19/09 Q1021",
      "taf": "TAF LIMJ 021700Z 0218/0318 VRB05KT CAVOK"
    },
    {
      "icao": "LIPE",
      "alert": "OK",
      "vis_m": 9999,
      "fzfg": false,
      "metar_trigger": false,
      "taf_trigger": false,
      "metar": "METAR LIPE 021650Z 08007KT CAVOK 22/04 Q1020",
      "taf": "TAF LIPE 021700Z 0218/0318 VRB05KT CAVOK"
    },
    {
      "icao": "LIPH",
      "alert": "OK",
      "vis_m": 9999,
      "fzfg": false,
      "metar_trigger": false,
      "taf_trigger": false,
      "metar": "METAR LIPH 021720Z 18005KT 150V230 CAVOK 22/08 Q1020",
      "taf": "TAF LIPH 021700Z 0218/0318 VRB05KT CAVOK"
    },
    {
      "icao": "LIPQ",
      "alert": "OK",
      "vis_m": 9999,
      "fzfg": false,
      "metar_trigger": false,
      "taf_trigger": false,
      "metar": "METAR LIPQ 021720Z AUTO 16007KT 140V200 9999 NCD 20/09 Q1020",
      "taf": "TAF LIPQ 021700Z 0218/0318 VRB05KT 9999 FEW060"
    },
    {
      "icao": "LIPR",
      "alert": "OK",
      "vis_m": 9999,
      "fzfg": false,
      "metar_trigger": false,
      "taf_trigger": false,
      "metar": "METAR LIPR 021720Z 08003KT 050V110 CAVOK 19/03 Q1021",
      "taf": "TAF LIPR 021700Z 0218/0318 VRB05KT CAVOK"
    },
    {
      "icao": "LIPX",
      "alert": "OK",
      "vis_m": 9999,
      "fzfg": false,
      "metar_trigger": false,
      "taf_trigger": false,
      "metar": "METAR LIPX 021720Z 23005KT CAVOK 23/03 Q1020",
      "taf": "TAF LIPX 021700Z 0218/0318 VRB05KT 9999 FEW060"
    },
    {
      "icao": "LIPY",
      "alert": "OK",
      "vis_m": 9999,
      "fzfg": false,
      "metar_trigger": false,
      "taf_trigger": false,
      "metar": "METAR LIPY 021720Z AUTO VRB02KT 9999 NCD 19/07 Q1021",
      "taf": "TAF LIPY 021700Z 0218/0318 VRB05KT CAVOK"
    },
    {
      "icao": "LIPZ",
      "alert": "OK",
      "vis_m": 9999,
      "fzfg": false,
      "metar_trigger": false,
      "taf_trigger": false,
      "metar": "METAR LIPZ 021650Z 18007KT CAVOK 21/09 Q1020 NOSIG",
      "taf": "TAF LIPZ 021700Z 0218/0324 19010KT CAVOK"
    },
    {
      "icao": "LIRF",
      "alert": "OK",
      "vis_m": 9999,
      "fzfg": false,
      "metar_trigger": false,
      "taf_trigger": false,
      "metar": "METAR LIRF 021650Z 27011KT CAVOK 18/10 Q1021 NOSIG",
      "taf": "TAF LIRF 021700Z 0218/0324 29010KT CAVOK"
    },
    {
      "icao": "LIRN",
      "alert": "OK",
      "vis_m": 9999,
      "fzfg": false,
      "metar_trigger": false,
      "taf_trigger": false,
      "metar": "METAR LIRN 021650Z 28009KT 250V320 CAVOK 19/05 Q1021 NOSIG",
      "taf": "TAF LIRN 021700Z 0218/0318 VRB05KT CAVOK"
    },
    {
      "icao": "LIRP",
      "alert": "OK",
      "vis_m": 9999,
      "fzfg": false,
      "metar_trigger": false,
      "taf_trigger": false,
      "metar": "METAR LIRP 021645Z 31011KT CAVOK 20/07 Q1021 NOSIG",
      "taf": "TAF LIRP 021700Z 0218/0318 32010KT CAVOK"
    },
    {
      "icao": "LIRZ",
      "alert": "OK",
      "vis_m": 9999,
      "fzfg": false,
      "metar_trigger": false,
      "taf_trigger": false,
      "metar": "METAR LIRZ 021720Z AUTO 01008KT 9999 NCD 19/05 Q1020",
      "taf": "TAF LIRZ 021700Z 0218/0318 03010KT CAVOK"
    },
    {
      "icao": "LJLJ",
      "alert": "OK",
      "vis_m": 9999,
      "fzfg": false,
      "metar_trigger": false,
      "taf_trigger": false,
      "metar": "METAR LJLJ 021700Z 14004KT CAVOK 22/06 Q1019 NOSIG",
      "taf": "TAF LJLJ 021700Z 0218/0318 VRB02KT 9999 FEW060"
    },
    {
      "icao": "LKMT",
      "alert": "OK",
      "vis_m": 9999,
      "fzfg": false,
      "metar_trigger": false,
      "taf_trigger": false,
      "metar": "METAR LKMT 021700Z 09005KT CAVOK 21/03 Q1020 NOSIG",
      "taf": "TAF LKMT 021700Z 0218/0318 09006KT CAVOK"
    },
    {
      "icao": "LKPR",
      "alert": "OK",
      "vis_m": 9999,
      "fzfg": false,
      "metar_trigger": false,
      "taf_trigger": false,
      "metar": "METAR LKPR 021700Z 08007KT CAVOK 22/00 Q1019 NOSIG",
      "taf": "TAF LKPR 021700Z 0218/0324 16006KT CAVOK"
    },
    {
      "icao": "LLBG",
      "alert": "OK",
      "vis_m": 9999,
      "fzfg": false,
      "metar_trigger": false,
      "taf_trigger": false,
      "metar": "METAR LLBG 021650Z 36008KT CAVOK 22/14 Q1006 NOSIG",
      "taf": "TAF LLBG 021706Z 0218/0318 35008KT CAVOK TX27/0309Z TN18/0303Z"
    },
    {
      "icao": "LMML",
      "alert": "OK",
      "vis_m": 9999,
      "fzfg": false,
      "metar_trigger": false,
      "taf_trigger": false,
      "metar": "METAR LMML 021715Z 06008KT 020V090 9999 FEW040 17/06 Q1021 NOSIG",
      "taf": "TAF LMML 021700Z 0218/0318 03010KT 9999 FEW030"
    },
    {
      "icao": "LOWW",
      "alert": "OK",
      "vis_m": 9999,
      "fzfg": false,
      "metar_trigger": false,
      "taf_trigger": false,
      "metar": "METAR LOWW 021650Z 02003KT 330V090 CAVOK 22/06 Q1019 NOSIG",
      "taf": "TAF LOWW 021715Z 0218/0324 12005KT CAVOK TX24/0313Z TN10/0303Z"
    },
    {
      "icao": "LPFR",
      "alert": "OK",
      "vis_m": 9999,
      "fzfg": false,
      "metar_trigger": false,
      "taf_trigger": false,
      "metar": "METAR LPFR 021700Z 24012KT 9999 FEW025 20/15 Q1016",
      "taf": "TAF LPFR 021700Z 0218/0318 25013KT 9999 FEW025"
    },
    {
      "icao": "LPMA",
      "alert": "OK",
      "vis_m": 9999,
      "fzfg": false,
      "metar_trigger": false,
      "taf_trigger": false,
      "metar": "METAR LPMA 021700Z 20009KT 9999 SCT015 SCT030 19/15 Q1019",
      "taf": "TAF LPMA 021700Z 0218/0318 VRB05KT 9999 SCT015 SCT030"
    },
    {
      "icao": "LPPR",
      "alert": "OK",
      "vis_m": 9999,
      "fzfg": false,
      "metar_trigger": false,
      "taf_trigger": false,
      "metar": "METAR LPPR 021700Z 23008KT 190V270 9999 SCT012 FEW025CB 17/14 Q1015",
      "taf": "TAF LPPR 021700Z 0218/0318 23010KT 9999 SCT012"
    },
    {
      "icao": "LPPS",
      "alert": "OK",
      "vis_m": 9999,
      "fzfg": false,
      "metar_trigger": false,
      "taf_trigger": false,
      "metar": "METAR LPPS 021700Z 27008KT 9999 FEW015 20/14 Q1019",
      "taf": "TAF LPPS 021700Z 0218/0324 27008KT 9999 SCT015"
    },
    {
      "icao": "LPPT",
      "alert": "OK",
      "vis_m": 9999,
      "fzfg": false,
      "metar_trigger": false,
      "taf_trigger": false,
      "metar": "METAR LPPT 021700Z 21010KT 9999 SCT020 18/13 Q1015",
      "taf": "TAF LPPT 021700Z 0218/0324 23010KT 9999 SCT020"
    },
    {
      "icao": "LQBK",
      "alert": "OK",
      "vis_m": 9999,
      "fzfg": false,
      "metar_trigger": false,
      "taf_trigger": false,
      "metar": "METAR LQBK 021700Z VRB01KT CAVOK 21/02 Q1020 NOSIG",
      "taf": "TAF LQBK 021700Z 0218/0318 20005KT CAVOK TX23/0313Z TN06/0304Z"
    },
    {
      "icao": "LQSA",
      "alert": "OK",
      "vis_m": 9999,
      "fzfg": false,
      "metar_trigger": false,
      "taf_trigger": false,
      "metar": "METAR LQSA 021700Z 36004KT 310V070 9999 FEW065 17/M00 Q1020 NOSIG",
      "taf": "TAF LQSA 021700Z 0218/0318 31005KT CAVOK TX20/0313Z TN04/0304Z"
    },
    {
      "icao": "LQTZ",
      "alert": "OK",
      "vis_m": 9999,
      "fzfg": false,
      "metar_trigger": false,
      "taf_trigger": false,
      "metar": "METAR LQTZ 021700Z VRB03KT CAVOK 19/04 Q1020",
      "taf": "TAF LQTZ 021700Z 0218/0318 34005KT CAVOK TX20/0313Z TN04/0304Z"
    },
    {
      "icao": "LRBC",
      "alert": "OK",
      "vis_m": 9999,
      "fzfg": false,
      "metar_trigger": false,
      "taf_trigger": false,
      "metar": "METAR LRBC 021700Z VRB02KT CAVOK 11/M02 Q1022",
      "taf": "TAF LRBC 021400Z 0215/0224 VRB04KT CAVOK"
    },
    {
      "icao": "LRBS",
      "alert": "OK",
      "vis_m": 9999,
      "fzfg": false,
      "metar_trigger": false,
      "taf_trigger": false,
      "metar": "METAR LRBS 021700Z 01005KT 320V040 9999 FEW050CB 11/01 Q1021 NOSIG",
      "taf": "TAF LRBS 021100Z 0212/0312 07010KT 9999 SCT035"
    },
    {
      "icao": "LRBV",
      "alert": "OK",
      "vis_m": 9999,
      "fzfg": false,
      "metar_trigger": false,
      "taf_trigger": false,
      "metar": "METAR LRBV 021700Z 22004KT 9999 FEW060 SCT087 05/03 Q1022",
      "taf": "TAF LRBV 021400Z 0215/0224 10010KT 9999 SCT040"
    },
    {
      "icao": "LRCL",
      "alert": "OK",
      "vis_m": 9999,
      "fzfg": false,
      "metar_trigger": false,
      "taf_trigger": false,
      "metar": "METAR LRCL 021700Z VRB02KT 9999 FEW060 15/M02 Q1020",
      "taf": "TAF LRCL 021400Z 0215/0224 VRB03KT CAVOK"
    },
    {
      "icao": "LRCV",
      "alert": "OK",
      "vis_m": 9999,
      "fzfg": false,
      "metar_trigger": false,
      "taf_trigger": false,
      "metar": "METAR LRCV 021700Z 13014KT 9999 SCT020 FEW045CB 10/06 Q1021",
      "taf": "TAF LRCV 021400Z 0215/0224 08010KT CAVOK"
    },
    {
      "icao": "LRIA",
      "alert": "OK",
      "vis_m": 9999,
      "fzfg": false,
      "metar_trigger": false,
      "taf_trigger": false,
      "metar": "METAR LRIA 021700Z 07004KT 040V200 CAVOK 12/M03 Q1023",
      "taf": "TAF LRIA 021400Z 0215/0224 08010KT CAVOK"
    },
    {
      "icao": "LROP",
      "alert": "OK",
      "vis_m": 9999,
      "fzfg": false,
      "metar_trigger": false,
      "taf_trigger": false,
      "metar": "METAR LROP 021700Z 36006KT 320V030 CAVOK 10/05 Q1021 NOSIG",
      "taf": "TAF LROP 021100Z 0212/0312 07010KT 9999 SCT035"
    },
    {
      "icao": "LRSB",
      "alert": "OK",
      "vis_m": 9999,
      "fzfg": false,
      "metar_trigger": false,
      "taf_trigger": false,
      "metar": "METAR LRSB 021700Z 11011KT 9999 FEW062 SCT075 12/02 Q1020",
      "taf": "TAF LRSB 021100Z 0212/0312 VRB04KT 9999 SCT065"
    },
    {
      "icao": "LRSM",
      "alert": "OK",
      "vis_m": 9999,
      "fzfg": false,
      "metar_trigger": false,
      "taf_trigger": false,
      "metar": "METAR LRSM 021700Z 11005KT CAVOK 18/01 Q1020",
      "taf": "TAF LRSM 021400Z 0215/0224 07008KT CAVOK"
    },
    {
      "icao": "LRSV",
      "alert": "OK",
      "vis_m": 9999,
      "fzfg": false,
      "metar_trigger": false,
      "taf_trigger": false,
      "metar": "METAR LRSV 021700Z 08005KT 050V110 CAVOK 09/01 Q1022",
      "taf": "TAF LRSV 021400Z 0215/0224 03010KT CAVOK"
    },
    {
      "icao": "LRTM",
      "alert": "OK",
      "vis_m": 9999,
      "fzfg": false,
      "metar_trigger": false,
      "taf_trigger": false,
      "metar": "METAR LRTM 021700Z 10010KT 010V130 CAVOK 14/M00 Q1020",
      "taf": "TAF LRTM 021400Z 0215/0224 VRB03KT CAVOK"
    },
    {
      "icao": "LRTR",
      "alert": "OK",
      "vis_m": 9999,
      "fzfg": false,
      "metar_trigger": false,
      "taf_trigger": false,
      "metar": "METAR LRTR 021700Z 01007KT CAVOK 17/03 Q1019 NOSIG",
      "taf": "TAF LRTR 021100Z 0212/0312 36012KT CAVOK"
    },
    {
      "icao": "LTAC",
      "alert": "OK",
      "vis_m": 9999,
      "fzfg": false,
      "metar_trigger": false,
      "taf_trigger": false,
      "metar": "METAR LTAC 021650Z 07013KT 9999 SCT015 BKN023 BKN080 06/03 Q1012 NOSIG RMK RWY21C 06014KT RWY03L 07011KT RWY21R 06015KT RWY03R 05011KT RWY21L 07013KT",
      "taf": "TAF LTAC 021640Z 0218/0318 06018KT 9999 BKN030 BKN080"
    },
    {
      "icao": "LTFM",
      "alert": "OK",
      "vis_m": 9999,
      "fzfg": false,
      "metar_trigger": false,
      "taf_trigger": false,
      "metar": "METAR LTFM 021650Z 04024KT 9999 SCT030 BKN080 11/02 Q1018 NOSIG RMK RWY17L 05018KT RWY34L 04020KT RWY16R 04020KT RWY36 04019KT RWY18 05019KT",
      "taf": "TAF LTFM 021640Z 0218/0324 04018G28KT 9999 SCT030 BKN080"
    },
    {
      "icao": "LUKK",
      "alert": "OK",
      "vis_m": 9999,
      "fzfg": false,
      "metar_trigger": false,
      "taf_trigger": false,
      "metar": "METAR LUKK 021700Z 06006KT CAVOK 11/M03 Q1022 NOSIG",
      "taf": "TAF LUKK 021703Z 0218/0318 VRB06KT CAVOK"
    },
    {
      "icao": "LWOH",
      "alert": "OK",
      "vis_m": 9999,
      "fzfg": false,
      "metar_trigger": false,
      "taf_trigger": false,
      "metar": "METAR LWOH 021720Z 34007KT 9999 FEW035 SCT090 11/M02 Q1018",
      "taf": "TAF LWOH 021715Z 0218/0318 35008KT 9999 SCT040 SCT090"
    },
    {
      "icao": "LWSK",
      "alert": "OK",
      "vis_m": 9999,
      "fzfg": false,
      "metar_trigger": false,
      "taf_trigger": false,
      "metar": "METAR LWSK 021720Z 03004KT 350V060 9999 BKN060 13/03 Q1019 NOSIG",
      "taf": "TAF LWSK 021715Z 0218/0318 03008KT 9999 FEW050 BKN070"
    },
    {
      "icao": "LYBE",
      "alert": "OK",
      "vis_m": 9999,
      "fzfg": false,
      "metar_trigger": false,
      "taf_trigger": false,
      "metar": "METAR LYBE 021700Z 36004KT 310V050 CAVOK 19/04 Q1018 NOSIG",
      "taf": "TAF LYBE 021700Z 0218/0318 06006KT CAVOK TX20/0313Z TN07/0304Z"
    },
    {
      "icao": "LYNI",
      "alert": "OK",
      "vis_m": 9999,
      "fzfg": false,
      "metar_trigger": false,
      "taf_trigger": false,
      "metar": "METAR LYNI 021700Z VRB01KT 9999 SCT050 BKN090 15/03 Q1019 NOSIG",
      "taf": "TAF LYNI 021700Z 0218/0318 09008KT 9999 BKN080 TX17/0313Z TN05/0304Z"
    },
    {
      "icao": "LYPG",
      "alert": "OK",
      "vis_m": 9999,
      "fzfg": false,
      "metar_trigger": false,
      "taf_trigger": false,
      "metar": "METAR LYPG 021700Z 19007KT 140V210 9999 FEW050 SCT060 18/05 Q1018 NOSIG",
      "taf": "TAF LYPG 021700Z 0218/0318 36010KT 9999 SCT050 TX23/0314Z TN10/0304Z"
    },
    {
      "icao": "LZIB",
      "alert": "OK",
      "vis_m": 9999,
      "fzfg": false,
      "metar_trigger": false,
      "taf_trigger": false,
      "metar": "METAR LZIB 021700Z 15006KT CAVOK 23/07 Q1019 NOSIG",
      "taf": "TAF LZIB 021715Z 0218/0318 20004KT CAVOK"
    },
    {
      "icao": "LZKZ",
      "alert": "OK",
      "vis_m": 9999,
      "fzfg": false,
      "metar_trigger": false,
      "taf_trigger": false,
      "metar": "METAR LZKZ 021700Z 05009KT CAVOK 18/03 Q1020 NOSIG",
      "taf": "TAF LZKZ 021715Z 0218/0318 01008KT CAVOK"
    },
    {
      "icao": "LZTT",
      "alert": "OK",
      "vis_m": 9999,
      "fzfg": false,
      "metar_trigger": false,
      "taf_trigger": false,
      "metar": "METAR LZTT 021700Z 07012KT 9999 FEW063 16/02 Q1021 NOSIG",
      "taf": "TAF LZTT 021715Z 0218/0318 08012KT 9999 FEW060"
    },
    {
      "icao": "OEJN",
      "alert": "OK",
      "vis_m": 9999,
      "fzfg": false,
      "metar_trigger": false,
      "taf_trigger": false,
      "metar": "METAR OEJN 021700Z 32007KT CAVOK 30/15 Q1007 NOSIG",
      "taf": "TAF OEJN 021100Z 0212/0318 34013KT CAVOK"
    },
    {
      "icao": "OEMA",
      "alert": "OK",
      "vis_m": 9999,
      "fzfg": false,
      "metar_trigger": false,
      "taf_trigger": false,
      "metar": "METAR OEMA 021700Z 35006KT CAVOK 33/M04 Q1012 NOSIG",
      "taf": "TAF OEMA 021100Z 0212/0318 32010KT CAVOK"
    },
    {
      "icao": "OJAI",
      "alert": "OK",
      "vis_m": 5000,
      "fzfg": false,
      "metar_trigger": false,
      "taf_trigger": false,
      "metar": "METAR OJAI 021700Z 30004KT 5000 HZ NSC 23/06 Q1011 NOSIG",
      "taf": "TAF OJAI 021700Z 0218/0324 25012KT 5000 HZ NSC"
    },
    {
      "icao": "OMAA",
      "alert": "OK",
      "vis_m": 9999,
      "fzfg": false,
      "metar_trigger": false,
      "taf_trigger": false,
      "metar": "METAR OMAA 021700Z VRB02KT CAVOK 34/11 Q1007 NOSIG",
      "taf": "TAF OMAA 021700Z 0218/0400 VRB02KT CAVOK"
    },
    {
      "icao": "OMDB",
      "alert": "OK",
      "vis_m": 9999,
      "fzfg": false,
      "metar_trigger": false,
      "taf_trigger": false,
      "metar": "METAR OMDB 021700Z 27003KT 230V290 CAVOK 35/09 Q1006 NOSIG",
      "taf": "TAF OMDB 021700Z 0218/0400 23005KT CAVOK"
    },
    {
      "icao": "UAAA",
      "alert": "OK",
      "vis_m": 9999,
      "fzfg": false,
      "metar_trigger": false,
      "taf_trigger": false,
      "metar": "METAR UAAA 021700Z 23003MPS 9999 SCT050CB OVC100 20/10 Q1010 NOSIG",
      "taf": "TAF UAAA 021702Z 0218/0318 20003G08MPS 9999 BKN040CB OVC100 TX23/0309Z TN16/0301Z"
    },
    {
      "icao": "UBBB",
      "alert": "OK",
      "vis_m": 9999,
      "fzfg": false,
      "metar_trigger": false,
      "taf_trigger": false,
      "metar": "METAR UBBB 021700Z 33020KT 9999 SCT010 11/09 Q1016 NOSIG",
      "taf": "TAF UBBB 021700Z 0218/0318 32018KT 9999 SCT010 SCT025 TX14/0310Z TN09/0301Z"
    },
    {
      "icao": "UDSG",
      "alert": "OK",
      "vis_m": 9999,
      "fzfg": false,
      "metar_trigger": false,
      "taf_trigger": false,
      "metar": "METAR UDSG 021700Z 21012KT 9999 BKN043CB 11/06 Q1017 NOSIG",
      "taf": "TAF UDSG 021658Z 0218/0318 20006KT 9999 BKN040"
    },
    {
      "icao": "UDYZ",
      "alert": "OK",
      "vis_m": 9999,
      "fzfg": false,
      "metar_trigger": false,
      "taf_trigger": false,
      "metar": "METAR UDYZ 021700Z 28005KT 9999 -SHRA BKN043CB 17/10 Q1013 NOSIG",
      "taf": "TAF UDYZ 021700Z 0218/0318 06006KT 9999 SCT040"
    },
    {
      "icao": "UGKO",
      "alert": "OK",
      "vis_m": 9999,
      "fzfg": false,
      "metar_trigger": false,
      "taf_trigger": false,
      "metar": "METAR UGKO 021700Z 28008KT 9999 SCT035 BKN046 12/09 Q1016 NOSIG",
      "taf": "TAF UGKO 021700Z 0218/0318 26007KT 9000 SCT030 OVC045 TX16/0311Z TN08/0302Z"
    }
  ]
}