{
  "ts_utc": "2026-03-24T13:48:23Z",
  "threshold_m": 150,
  "source": "stations_override.txt (ICAO list) + aviationweather.gov (METAR/TAF raw)",
  "station_count": 159,
  "stations": [
    {
      "icao": "BIKF",
      "alert": "OK",
      "vis_m": 9999,
      "fzfg": false,
      "metar_trigger": false,
      "taf_trigger": false,
      "metar": "METAR BIKF 241330Z 07012KT 9999 -SN FEW012 OVC035 M02/M03 Q0991",
      "taf": "TAF BIKF 241333Z 2415/2515 08012KT 9999 SCT020 BKN030 TX01/2415Z TNM06/2508Z"
    },
    {
      "icao": "BKPR",
      "alert": "OK",
      "vis_m": 9999,
      "fzfg": false,
      "metar_trigger": false,
      "taf_trigger": false,
      "metar": "METAR BKPR 241330Z 02012KT 9999 BKN040 11/03 Q1016 NOSIG",
      "taf": "TAF BKPR 241130Z 2412/2512 02008KT 9999 BKN040"
    },
    {
      "icao": "EBCI",
      "alert": "OK",
      "vis_m": 9999,
      "fzfg": false,
      "metar_trigger": false,
      "taf_trigger": false,
      "metar": "METAR EBCI 241320Z 23016KT CAVOK 16/01 Q1017 NOSIG",
      "taf": "TAF EBCI 241100Z 2412/2518 23013KT CAVOK"
    },
    {
      "icao": "EDDB",
      "alert": "OK",
      "vis_m": 9999,
      "fzfg": false,
      "metar_trigger": false,
      "taf_trigger": false,
      "metar": "METAR EDDB 241320Z AUTO 23015KT CAVOK 16/02 Q1015 NOSIG",
      "taf": "TAF EDDB 241100Z 2412/2512 22012KT CAVOK"
    },
    {
      "icao": "EDDH",
      "alert": "OK",
      "vis_m": 9999,
      "fzfg": false,
      "metar_trigger": false,
      "taf_trigger": false,
      "metar": "METAR EDDH 241320Z AUTO 21019KT CAVOK 13/05 Q1011 TEMPO 23015G25KT",
      "taf": "TAF EDDH 241100Z 2412/2518 22014KT CAVOK"
    },
    {
      "icao": "EDDK",
      "alert": "OK",
      "vis_m": 9999,
      "fzfg": false,
      "metar_trigger": false,
      "taf_trigger": false,
      "metar": "METAR EDDK 241320Z AUTO 23012KT CAVOK 18/02 Q1017 NOSIG",
      "taf": "TAF EDDK 241100Z 2412/2518 22009KT CAVOK"
    },
    {
      "icao": "EDDN",
      "alert": "OK",
      "vis_m": 9999,
      "fzfg": false,
      "metar_trigger": false,
      "taf_trigger": false,
      "metar": "METAR EDDN 241320Z AUTO 23009KT 190V250 CAVOK 16/01 Q1019 NOSIG",
      "taf": "TAF EDDN 241100Z 2412/2512 23005KT CAVOK"
    },
    {
      "icao": "EDDS",
      "alert": "OK",
      "vis_m": 9999,
      "fzfg": false,
      "metar_trigger": false,
      "taf_trigger": false,
      "metar": "METAR EDDS 241320Z AUTO 24005KT 170V340 CAVOK 15/M02 Q1019 NOSIG",
      "taf": ""
    },
    {
      "icao": "EDFH",
      "alert": "OK",
      "vis_m": 9999,
      "fzfg": false,
      "metar_trigger": false,
      "taf_trigger": false,
      "metar": "METAR EDFH 241320Z 25010KT 220V280 CAVOK 14/02 Q1018",
      "taf": "TAF EDFH 241100Z 2412/2512 25011KT CAVOK"
    },
    {
      "icao": "EDJA",
      "alert": "OK",
      "vis_m": 9999,
      "fzfg": false,
      "metar_trigger": false,
      "taf_trigger": false,
      "metar": "METAR EDJA 241320Z 28003KT 200V350 9999 FEW008 SCT060 12/M03 Q1020",
      "taf": "TAF EDJA 241100Z 2412/2421 23005KT CAVOK"
    },
    {
      "icao": "EDLW",
      "alert": "OK",
      "vis_m": 9999,
      "fzfg": false,
      "metar_trigger": false,
      "taf_trigger": false,
      "metar": "METAR EDLW 241320Z 22016KT CAVOK 16/01 Q1015",
      "taf": "TAF EDLW 241100Z 2412/2512 22014KT CAVOK"
    },
    {
      "icao": "EDNY",
      "alert": "OK",
      "vis_m": 9999,
      "fzfg": false,
      "metar_trigger": false,
      "taf_trigger": false,
      "metar": "METAR EDNY 241320Z VRB03KT CAVOK 14/M03 Q1021",
      "taf": "TAF EDNY 241100Z 2412/2421 23005KT CAVOK"
    },
    {
      "icao": "EDSB",
      "alert": "OK",
      "vis_m": 9999,
      "fzfg": false,
      "metar_trigger": false,
      "taf_trigger": false,
      "metar": "METAR EDSB 241320Z VRB05KT CAVOK 16/01 Q1020",
      "taf": "TAF EDSB 241100Z 2412/2512 23007KT CAVOK"
    },
    {
      "icao": "EETN",
      "alert": "OK",
      "vis_m": 9999,
      "fzfg": false,
      "metar_trigger": false,
      "taf_trigger": false,
      "metar": "METAR EETN 241320Z 22015KT CAVOK 10/M05 Q1007 TEMPO 19015G25KT",
      "taf": "TAF EETN 241130Z 2412/2512 21014KT CAVOK"
    },
    {
      "icao": "EFTU",
      "alert": "OK",
      "vis_m": 9999,
      "fzfg": false,
      "metar_trigger": false,
      "taf_trigger": false,
      "metar": "METAR EFTU 241320Z AUTO 20010KT 180V240 CAVOK 05/M02 Q1004",
      "taf": "TAF EFTU 241133Z 2412/2512 20012KT CAVOK"
    },
    {
      "icao": "EGBB",
      "alert": "OK",
      "vis_m": 9999,
      "fzfg": false,
      "metar_trigger": false,
      "taf_trigger": false,
      "metar": "METAR EGBB 241320Z 21013G25KT 160V250 9999 BKN018 13/09 Q1008",
      "taf": "TAF EGBB 241057Z 2412/2512 21015G25KT 9999 SCT018"
    },
    {
      "icao": "EGGP",
      "alert": "OK",
      "vis_m": 9999,
      "fzfg": false,
      "metar_trigger": false,
      "taf_trigger": false,
      "metar": "METAR EGGP 241320Z 22021G44KT 9999 SCT022 BKN027 12/08 Q1005",
      "taf": ""
    },
    {
      "icao": "EGGW",
      "alert": "OK",
      "vis_m": 9999,
      "fzfg": false,
      "metar_trigger": false,
      "taf_trigger": false,
      "metar": "METAR EGGW 241320Z AUTO 22015G28KT 9999 OVC011 11/09 Q1011",
      "taf": "TAF EGGW 241104Z 2412/2512 22015G25KT 9999 BKN020"
    },
    {
      "icao": "EGKK",
      "alert": "OK",
      "vis_m": 9999,
      "fzfg": false,
      "metar_trigger": false,
      "taf_trigger": false,
      "metar": "METAR EGKK 241320Z 23013KT 9999 BKN013 11/09 Q1014",
      "taf": "TAF EGKK 241053Z 2412/2518 23013KT 9999 BKN016"
    },
    {
      "icao": "EGNM",
      "alert": "OK",
      "vis_m": 9999,
      "fzfg": false,
      "metar_trigger": false,
      "taf_trigger": false,
      "metar": "METAR EGNM 241320Z 23019G33KT 200V260 9999 SCT012 BKN016 12/09 Q1002",
      "taf": "TAF EGNM 241100Z 2412/2512 22012KT 9999 FEW009 BKN018"
    },
    {
      "icao": "EGPD",
      "alert": "OK",
      "vis_m": 9999,
      "fzfg": false,
      "metar_trigger": false,
      "taf_trigger": false,
      "metar": "METAR EGPD 241320Z COR AUTO 25013KT 210V280 9999 NCD 12/02 Q0995 NOSIG",
      "taf": "TAF EGPD 241055Z 2412/2512 24012KT 9999 FEW040"
    },
    {
      "icao": "EGPF",
      "alert": "OK",
      "vis_m": 5000,
      "fzfg": false,
      "metar_trigger": false,
      "taf_trigger": false,
      "metar": "METAR EGPF 241320Z AUTO 24009KT 210V280 5000 -RADZ BKN013/// //////TCU 09/07 Q0998",
      "taf": "TAF EGPF 241059Z 2412/2512 23013KT 9999 FEW020"
    },
    {
      "icao": "EHBK",
      "alert": "OK",
      "vis_m": 9999,
      "fzfg": false,
      "metar_trigger": false,
      "taf_trigger": false,
      "metar": "METAR EHBK 241325Z AUTO 23014KT 200V280 9999 NSC 16/04 Q1016 NOSIG",
      "taf": "TAF EHBK 241114Z 2412/2518 22013KT CAVOK"
    },
    {
      "icao": "EHEH",
      "alert": "OK",
      "vis_m": 9999,
      "fzfg": false,
      "metar_trigger": false,
      "taf_trigger": false,
      "metar": "METAR EHEH 241325Z AUTO 22015KT 190V260 9999 OVC160 16/03 Q1015 BLU BECMG 21015G25KT",
      "taf": "TAF EHEH 241132Z 2412/2518 21015KT CAVOK"
    },
    {
      "icao": "EKBI",
      "alert": "OK",
      "vis_m": 2700,
      "fzfg": false,
      "metar_trigger": false,
      "taf_trigger": false,
      "metar": "METAR EKBI 241320Z AUTO 21013KT 2700 BR OVC005/// 08/07 Q1006 REDZ",
      "taf": "TAF EKBI 241127Z 2412/2512 21015KT 2000 BR BKN004"
    },
    {
      "icao": "EKCH",
      "alert": "OK",
      "vis_m": 7000,
      "fzfg": false,
      "metar_trigger": false,
      "taf_trigger": false,
      "metar": "METAR EKCH 241320Z AUTO 21011KT 7000 BKN080/// BKN110/// 09/05 Q1008 NOSIG",
      "taf": "TAF EKCH 241127Z 2412/2512 20012KT 6000 FEW008 BKN030"
    },
    {
      "icao": "ENAL",
      "alert": "OK",
      "vis_m": 9999,
      "fzfg": false,
      "metar_trigger": false,
      "taf_trigger": false,
      "metar": "METAR ENAL 241320Z 22027KT 9999 -DZ FEW034 SCT044 BKN051 08/04 Q0980",
      "taf": "TAF ENAL 241100Z 2412/2421 21030G42KT 9999 SCT025 BKN045"
    },
    {
      "icao": "ENBR",
      "alert": "OK",
      "vis_m": 9999,
      "fzfg": false,
      "metar_trigger": false,
      "taf_trigger": false,
      "metar": "METAR ENBR 241320Z 21017KT 9999 VCSH SCT024 BKN031 08/03 Q0992 NOSIG RMK WIND 1200FT 24020G32KT",
      "taf": "TAF ENBR 241100Z 2412/2512 21018KT 9999 -SHRA FEW012TCU BKN025"
    },
    {
      "icao": "ENGM",
      "alert": "OK",
      "vis_m": 8000,
      "fzfg": false,
      "metar_trigger": false,
      "taf_trigger": false,
      "metar": "METAR ENGM 241320Z 18012KT 8000 OVC008 06/04 Q0992 TEMPO BKN010",
      "taf": "TAF ENGM 241100Z 2412/2512 19015KT 9999 -DZ BKN004"
    },
    {
      "icao": "ENHD",
      "alert": "OK",
      "vis_m": 9999,
      "fzfg": false,
      "metar_trigger": false,
      "taf_trigger": false,
      "metar": "METAR ENHD 241320Z 20013KT 9999 FEW006 08/05 Q0995",
      "taf": "TAF ENHD 241100Z 2412/2421 22016KT 8000 FEW008"
    },
    {
      "icao": "ENTC",
      "alert": "OK",
      "vis_m": 9999,
      "fzfg": false,
      "metar_trigger": false,
      "taf_trigger": false,
      "metar": "METAR ENTC 241320Z 26006KT 9999 FEW039 01/M05 Q0988 TEMPO 20015KT RMK WIND 2600FT 18016KT",
      "taf": "TAF ENTC 241100Z 2412/2512 22012KT 9999 FEW015 BKN025"
    },
    {
      "icao": "ENTO",
      "alert": "OK",
      "vis_m": 9999,
      "fzfg": false,
      "metar_trigger": false,
      "taf_trigger": false,
      "metar": "METAR ENTO 241320Z 20016KT 9999 FEW004 BKN006 08/07 Q0994 BECMG SCT015",
      "taf": ""
    },
    {
      "icao": "ENVA",
      "alert": "OK",
      "vis_m": 9999,
      "fzfg": false,
      "metar_trigger": false,
      "taf_trigger": false,
      "metar": "METAR ENVA 241320Z 16014G24KT 130V190 CAVOK 10/M00 Q0981 NOSIG RMK WIND 670FT 17021G36KT",
      "taf": "TAF ENVA 241100Z 2412/2512 15020KT CAVOK"
    },
    {
      "icao": "ENZV",
      "alert": "OK",
      "vis_m": 9999,
      "fzfg": false,
      "metar_trigger": false,
      "taf_trigger": false,
      "metar": "METAR ENZV 241320Z 21013KT 9999 FEW008 09/06 Q0997 NOSIG",
      "taf": "TAF ENZV 241100Z 2412/2512 22015KT 9999 FEW020"
    },
    {
      "icao": "EPGD",
      "alert": "OK",
      "vis_m": 9999,
      "fzfg": false,
      "metar_trigger": false,
      "taf_trigger": false,
      "metar": "METAR EPGD 241330Z 23012KT CAVOK 14/M00 Q1013",
      "taf": "TAF EPGD 241130Z 2412/2512 24014KT CAVOK"
    },
    {
      "icao": "EPKK",
      "alert": "OK",
      "vis_m": 9999,
      "fzfg": false,
      "metar_trigger": false,
      "taf_trigger": false,
      "metar": "METAR EPKK 241330Z 29004KT 260V320 9999 FEW050 BKN066 13/M01 Q1018",
      "taf": "TAF EPKK 241130Z 2412/2512 25006KT CAVOK"
    },
    {
      "icao": "EPKT",
      "alert": "OK",
      "vis_m": 9999,
      "fzfg": false,
      "metar_trigger": false,
      "taf_trigger": false,
      "metar": "METAR EPKT 241330Z 27005KT 230V310 CAVOK 13/M03 Q1018",
      "taf": "TAF EPKT 241130Z 2412/2512 26008KT CAVOK"
    },
    {
      "icao": "EPLB",
      "alert": "OK",
      "vis_m": 9999,
      "fzfg": false,
      "metar_trigger": false,
      "taf_trigger": false,
      "metar": "METAR EPLB 241330Z 32003KT CAVOK 14/M03 Q1017",
      "taf": "TAF EPLB 241130Z 2412/2512 VRB02KT CAVOK"
    },
    {
      "icao": "EPMO",
      "alert": "OK",
      "vis_m": 9999,
      "fzfg": false,
      "metar_trigger": false,
      "taf_trigger": false,
      "metar": "METAR EPMO 241330Z 24011KT CAVOK 16/00 Q1016",
      "taf": "TAF EPMO 241130Z 2412/2512 26010KT CAVOK"
    },
    {
      "icao": "EPPO",
      "alert": "OK",
      "vis_m": 9999,
      "fzfg": false,
      "metar_trigger": false,
      "taf_trigger": false,
      "metar": "METAR EPPO 241330Z 23012KT CAVOK 15/01 Q1016",
      "taf": "TAF EPPO 241130Z 2412/2512 22010KT CAVOK"
    },
    {
      "icao": "EPRA",
      "alert": "OK",
      "vis_m": 9999,
      "fzfg": false,
      "metar_trigger": false,
      "taf_trigger": false,
      "metar": "METAR EPRA 241330Z 32006KT 280V360 CAVOK 15/M04 Q1017",
      "taf": "TAF EPRA 241130Z 2412/2421 24006KT CAVOK"
    },
    {
      "icao": "EPRZ",
      "alert": "OK",
      "vis_m": 9999,
      "fzfg": false,
      "metar_trigger": false,
      "taf_trigger": false,
      "metar": "METAR EPRZ 241330Z 03005KT 350V050 CAVOK 14/M05 Q1017",
      "taf": "TAF EPRZ 241130Z 2412/2512 VRB02KT CAVOK"
    },
    {
      "icao": "EPSC",
      "alert": "OK",
      "vis_m": 9999,
      "fzfg": false,
      "metar_trigger": false,
      "taf_trigger": false,
      "metar": "METAR EPSC 241330Z 21009KT CAVOK 14/02 Q1014",
      "taf": "TAF EPSC 241130Z 2412/2512 21010KT CAVOK"
    },
    {
      "icao": "EPSY",
      "alert": "OK",
      "vis_m": 9999,
      "fzfg": false,
      "metar_trigger": false,
      "taf_trigger": false,
      "metar": "METAR EPSY 241330Z 24010KT 210V270 CAVOK 15/M01 Q1015",
      "taf": "TAF EPSY 241130Z 2412/2421 25010KT CAVOK"
    },
    {
      "icao": "EPWA",
      "alert": "OK",
      "vis_m": 9999,
      "fzfg": false,
      "metar_trigger": false,
      "taf_trigger": false,
      "metar": "METAR EPWA 241330Z 27010KT CAVOK 15/M02 Q1016 NOSIG",
      "taf": "TAF EPWA 241130Z 2412/2512 26008KT CAVOK"
    },
    {
      "icao": "EPWR",
      "alert": "OK",
      "vis_m": 9999,
      "fzfg": false,
      "metar_trigger": false,
      "taf_trigger": false,
      "metar": "METAR EPWR 241330Z 27006KT 230V300 CAVOK 15/01 Q1018",
      "taf": "TAF EPWR 241130Z 2412/2512 28007KT CAVOK"
    },
    {
      "icao": "ESGG",
      "alert": "OK",
      "vis_m": 1100,
      "fzfg": false,
      "metar_trigger": false,
      "taf_trigger": false,
      "metar": "METAR ESGG 241320Z 22019KT 1100 R03/1700N R21/1600D -RA VV004 05/05 Q1002",
      "taf": "TAF ESGG 241130Z 2412/2512 21016G26KT 5000 BKN003"
    },
    {
      "icao": "ESKN",
      "alert": "OK",
      "vis_m": 9999,
      "fzfg": false,
      "metar_trigger": false,
      "taf_trigger": false,
      "metar": "METAR ESKN 241320Z 19012KT 160V220 9999 BKN029 07/03 Q1002",
      "taf": "TAF ESKN 241130Z 2412/2512 22012KT 9999 BKN030"
    },
    {
      "icao": "ESMS",
      "alert": "OK",
      "vis_m": 6000,
      "fzfg": false,
      "metar_trigger": false,
      "taf_trigger": false,
      "metar": "METAR ESMS 241320Z 21015KT 6000 NSC 09/05 Q1009",
      "taf": "TAF ESMS 241127Z 2412/2512 22010KT 6000 BKN030"
    },
    {
      "icao": "ESSA",
      "alert": "OK",
      "vis_m": 9999,
      "fzfg": false,
      "metar_trigger": false,
      "taf_trigger": false,
      "metar": "METAR ESSA 241320Z 18015KT 9999 FEW026 BKN037 BKN051 04/02 Q1001 REDZ TEMPO BKN012",
      "taf": "TAF ESSA 241130Z 2412/2512 20016G26KT 9999 SCT020 BKN030"
    },
    {
      "icao": "EYKA",
      "alert": "OK",
      "vis_m": 9999,
      "fzfg": false,
      "metar_trigger": false,
      "taf_trigger": false,
      "metar": "METAR EYKA 241320Z 28012KT 9999 FEW048 12/02 Q1014",
      "taf": "TAF EYKA 241100Z 2412/2512 26010KT 9000 FEW045"
    },
    {
      "icao": "EYPA",
      "alert": "OK",
      "vis_m": 9999,
      "fzfg": false,
      "metar_trigger": false,
      "taf_trigger": false,
      "metar": "METAR EYPA 241320Z 21009KT 180V240 CAVOK 08/01 Q1013",
      "taf": "TAF EYPA 241100Z 2412/2512 20008KT 9000 SCT040"
    },
    {
      "icao": "EYVI",
      "alert": "OK",
      "vis_m": 9999,
      "fzfg": false,
      "metar_trigger": false,
      "taf_trigger": false,
      "metar": "METAR EYVI 241320Z 27013KT CAVOK 13/M01 Q1014 NOSIG",
      "taf": "TAF EYVI 241100Z 2412/2512 24010KT 9000 SCT045"
    },
    {
      "icao": "GCFV",
      "alert": "OK",
      "vis_m": 9999,
      "fzfg": false,
      "metar_trigger": false,
      "taf_trigger": false,
      "metar": "METAR GCFV 241330Z 12007KT 090V150 9999 FEW040 20/16 Q1012",
      "taf": "TAF GCFV 240800Z 2409/2509 12008KT 9999 SCT025 TX22/2414Z TN16/2506Z"
    },
    {
      "icao": "GCLP",
      "alert": "OK",
      "vis_m": 6000,
      "fzfg": false,
      "metar_trigger": false,
      "taf_trigger": false,
      "metar": "METAR GCLP 241330Z 08019KT 6000 -RA FEW007 BKN012 SCT020TCU 18/17 Q1009 RERA BECMG NSW",
      "taf": ""
    },
    {
      "icao": "GCTS",
      "alert": "OK",
      "vis_m": 9999,
      "fzfg": false,
      "metar_trigger": false,
      "taf_trigger": false,
      "metar": "METAR GCTS 241330Z 06016KT 020V080 9999 FEW025CB BKN050 21/15 Q1010 WS R07 NOSIG",
      "taf": ""
    },
    {
      "icao": "GMAD",
      "alert": "OK",
      "vis_m": 9999,
      "fzfg": false,
      "metar_trigger": false,
      "taf_trigger": false,
      "metar": "METAR GMAD 241330Z 23004KT 170V330 9999 FEW023 30/12 Q1011 NOSIG",
      "taf": "TAF GMAD 241100Z 2412/2518 28006KT 8000 SCT020"
    },
    {
      "icao": "GMMN",
      "alert": "OK",
      "vis_m": 9999,
      "fzfg": false,
      "metar_trigger": false,
      "taf_trigger": false,
      "metar": "METAR GMMN 241330Z 34006KT 300V040 CAVOK 21/17 Q1014 NOSIG",
      "taf": "TAF GMMN 241100Z 2412/2518 36010KT CAVOK"
    },
    {
      "icao": "GMMX",
      "alert": "OK",
      "vis_m": 9999,
      "fzfg": false,
      "metar_trigger": false,
      "taf_trigger": false,
      "metar": "METAR GMMX 241330Z 04005KT 360V090 9999 SCT023 26/12 Q1013 NOSIG",
      "taf": "TAF GMMX 241100Z 2412/2518 06006KT 8000 SCT023 SCT080"
    },
    {
      "icao": "HEGN",
      "alert": "OK",
      "vis_m": 9999,
      "fzfg": false,
      "metar_trigger": false,
      "taf_trigger": false,
      "metar": "METAR HEGN 241300Z 05006KT 9999 BKN025 25/06 Q1003 NOSIG",
      "taf": "TAF HEGN 241100Z 2412/2518 04010KT 9999 SCT025"
    },
    {
      "icao": "HEMA",
      "alert": "OK",
      "vis_m": 9999,
      "fzfg": false,
      "metar_trigger": false,
      "taf_trigger": false,
      "metar": "METAR HEMA 241300Z 36010KT 9999 SCT020 24/14 Q1004 NOSIG",
      "taf": "TAF HEMA 241100Z 2412/2518 02010KT 9999 SCT025"
    },
    {
      "icao": "HESH",
      "alert": "OK",
      "vis_m": 9999,
      "fzfg": false,
      "metar_trigger": false,
      "taf_trigger": false,
      "metar": "METAR HESH 241300Z 06007KT 9999 SCT020 24/11 Q1003 NOSIG",
      "taf": "TAF HESH 241100Z 2412/2518 01010KT 9999 SCT025"
    },
    {
      "icao": "HESX",
      "alert": "OK",
      "vis_m": 9999,
      "fzfg": false,
      "metar_trigger": false,
      "taf_trigger": false,
      "metar": "METAR HESX 241300Z 34006KT 9999 BKN020 21/06 Q1006 NOSIG",
      "taf": "TAF HESX 241100Z 2412/2518 31013KT 9999 SCT020 SCT070"
    },
    {
      "icao": "LATI",
      "alert": "OK",
      "vis_m": null,
      "fzfg": false,
      "metar_trigger": false,
      "taf_trigger": false,
      "metar": "",
      "taf": "TAF LATI 241100Z 2412/2512 33012KT CAVOK TX21/2512Z TN05/2505Z"
    },
    {
      "icao": "LBPD",
      "alert": "OK",
      "vis_m": 9999,
      "fzfg": false,
      "metar_trigger": false,
      "taf_trigger": false,
      "metar": "METAR LBPD 241330Z AUTO 17006KT 9999 OVC040/// 09/06 Q1014 NOSIG",
      "taf": "TAF LBPD 241100Z 2412/2512 26010KT 6000 RA BKN030 OVC040"
    },
    {
      "icao": "LBSF",
      "alert": "OK",
      "vis_m": 9999,
      "fzfg": false,
      "metar_trigger": false,
      "taf_trigger": false,
      "metar": "METAR LBSF 241330Z 09007KT 060V130 9999 BKN039 OVC048 09/02 Q1016 NOSIG",
      "taf": "TAF LBSF 241100Z 2412/2512 03012KT 9999 BKN020 OVC040"
    },
    {
      "icao": "LBWN",
      "alert": "OK",
      "vis_m": 9999,
      "fzfg": false,
      "metar_trigger": false,
      "taf_trigger": false,
      "metar": "METAR LBWN 241330Z 03011KT 350V060 9999 -RA FEW035 OVC049 11/03 Q1013 NOSIG",
      "taf": "TAF LBWN 241100Z 2412/2512 04012KT 9999 BKN045"
    },
    {
      "icao": "LCLK",
      "alert": "OK",
      "vis_m": 9999,
      "fzfg": false,
      "metar_trigger": false,
      "taf_trigger": false,
      "metar": "METAR LCLK 241330Z 18007KT 9999 FEW020 FEW025CB 18/12 Q1005 NOSIG RMK CB TO N",
      "taf": "TAF LCLK 241130Z 2412/2512 21010KT 9999 FEW020 FEW025TCU SCT040"
    },
    {
      "icao": "LCPH",
      "alert": "OK",
      "vis_m": 9999,
      "fzfg": false,
      "metar_trigger": false,
      "taf_trigger": false,
      "metar": "METAR LCPH 241330Z 20004KT 170V250 9999 FEW025TCU FEW030CB BKN050 17/12 Q1005 NOSIG",
      "taf": "TAF LCPH 241130Z 2412/2512 20010KT 9999 FEW025TCU SCT040"
    },
    {
      "icao": "LEAL",
      "alert": "OK",
      "vis_m": 9999,
      "fzfg": false,
      "metar_trigger": false,
      "taf_trigger": false,
      "metar": "METAR LEAL 241330Z 11007KT 060V150 9999 FEW030 17/10 Q1024 NOSIG",
      "taf": "TAF LEAL 241100Z 2412/2512 10010KT CAVOK TX19/2512Z TN08/2506Z"
    },
    {
      "icao": "LEBB",
      "alert": "OK",
      "vis_m": 9999,
      "fzfg": false,
      "metar_trigger": false,
      "taf_trigger": false,
      "metar": "METAR LEBB 241330Z VRB02KT CAVOK 21/03 Q1021 NOSIG",
      "taf": "TAF LEBB 241100Z 2412/2512 10005KT 9999 FEW030 TX20/2414Z TN06/2504Z"
    },
    {
      "icao": "LEBL",
      "alert": "OK",
      "vis_m": 9999,
      "fzfg": false,
      "metar_trigger": false,
      "taf_trigger": false,
      "metar": "METAR LEBL 241330Z 22013KT 9999 FEW050 17/12 Q1022 NOSIG",
      "taf": "TAF LEBL 241100Z 2412/2512 22014KT 9999 FEW030 TX17/2412Z TN11/2507Z"
    },
    {
      "icao": "LECH",
      "alert": "OK",
      "vis_m": 9999,
      "fzfg": false,
      "metar_trigger": false,
      "taf_trigger": false,
      "metar": "METAR LECH 241330Z AUTO 16010KT 130V220 CAVOK 17/02 Q1022",
      "taf": "TAF LECH 241100Z 2412/2512 19010KT CAVOK TX22/2512Z TN04/2506Z"
    },
    {
      "icao": "LEMD",
      "alert": "OK",
      "vis_m": 9999,
      "fzfg": false,
      "metar_trigger": false,
      "taf_trigger": false,
      "metar": "METAR LEMD 241330Z 20004KT 110V250 9999 FEW050 17/02 Q1022 NOSIG",
      "taf": "TAF LEMD 241100Z 2412/2518 VRB04KT CAVOK TX18/2416Z TN04/2507Z"
    },
    {
      "icao": "LEMG",
      "alert": "OK",
      "vis_m": 9999,
      "fzfg": false,
      "metar_trigger": false,
      "taf_trigger": false,
      "metar": "METAR LEMG 241330Z 10011KT 070V150 9999 SCT024 17/11 Q1023 NOSIG",
      "taf": "TAF LEMG 241100Z 2412/2512 13012KT 9999 FEW020 SCT045 TX18/2413Z TN10/2506Z"
    },
    {
      "icao": "LEVC",
      "alert": "OK",
      "vis_m": 9999,
      "fzfg": false,
      "metar_trigger": false,
      "taf_trigger": false,
      "metar": "METAR LEVC 241330Z 17007KT 130V220 9999 FEW055 19/03 Q1022 NOSIG",
      "taf": "TAF LEVC 241100Z 2412/2512 VRB04KT CAVOK TX23/2512Z TN07/2506Z"
    },
    {
      "icao": "LEXJ",
      "alert": "OK",
      "vis_m": 9999,
      "fzfg": false,
      "metar_trigger": false,
      "taf_trigger": false,
      "metar": "METAR LEXJ 241330Z 04007KT 330V100 CAVOK ///// Q1021",
      "taf": "TAF LEXJ 240800Z 2409/2509 05008KT 8000 FEW020 TX19/2413Z TN11/2509Z"
    },
    {
      "icao": "LEZG",
      "alert": "OK",
      "vis_m": 9999,
      "fzfg": false,
      "metar_trigger": false,
      "taf_trigger": false,
      "metar": "METAR LEZG 241330Z 13002KT CAVOK 18/04 Q1021 NOSIG",
      "taf": "TAF LEZG 241100Z 2412/2512 VRB04KT CAVOK TX22/2415Z TN07/2506Z"
    },
    {
      "icao": "LEZL",
      "alert": "OK",
      "vis_m": 9999,
      "fzfg": false,
      "metar_trigger": false,
      "taf_trigger": false,
      "metar": "METAR LEZL 241330Z 07013KT 020V110 CAVOK 22/09 Q1019 NOSIG",
      "taf": "TAF LEZL 240800Z 2409/2509 08009KT CAVOK TX23/2415Z TN11/2507Z"
    },
    {
      "icao": "LFBD",
      "alert": "OK",
      "vis_m": 9999,
      "fzfg": false,
      "metar_trigger": false,
      "taf_trigger": false,
      "metar": "METAR LFBD 241330Z AUTO 21004KT 140V270 CAVOK 19/04 Q1022 NOSIG",
      "taf": "TAF LFBD 241100Z 2412/2518 VRB04KT CAVOK TX19/2415Z TN07/2502Z"
    },
    {
      "icao": "LFLL",
      "alert": "OK",
      "vis_m": 9999,
      "fzfg": false,
      "metar_trigger": false,
      "taf_trigger": false,
      "metar": "METAR LFLL 241330Z 31005KT 240V350 CAVOK 16/02 Q1022 NOSIG",
      "taf": "TAF LFLL 241100Z 2412/2518 36005KT CAVOK"
    },
    {
      "icao": "LFLS",
      "alert": "OK",
      "vis_m": 9999,
      "fzfg": false,
      "metar_trigger": false,
      "taf_trigger": false,
      "metar": "METAR LFLS 241330Z AUTO VRB04KT 9999 FEW054 15/03 Q1021 NOSIG",
      "taf": "TAF LFLS 240800Z 2409/2509 VRB03KT CAVOK"
    },
    {
      "icao": "LFMN",
      "alert": "OK",
      "vis_m": 9999,
      "fzfg": false,
      "metar_trigger": false,
      "taf_trigger": false,
      "metar": "METAR LFMN 241330Z 19009KT CAVOK 17/07 Q1020 NOSIG",
      "taf": "TAF LFMN 240800Z 2409/2515 33010KT CAVOK"
    },
    {
      "icao": "LFOB",
      "alert": "OK",
      "vis_m": 9000,
      "fzfg": false,
      "metar_trigger": false,
      "taf_trigger": false,
      "metar": "METAR LFOB 241330Z AUTO 22013KT 190V250 9000 NSC 17/06 Q1018 NOSIG",
      "taf": "TAF LFOB 241100Z 2412/2512 24011KT 8000 NSC"
    },
    {
      "icao": "LFPO",
      "alert": "OK",
      "vis_m": 9999,
      "fzfg": false,
      "metar_trigger": false,
      "taf_trigger": false,
      "metar": "METAR LFPO 241330Z 22010KT 180V260 CAVOK 18/05 Q1019 NOSIG",
      "taf": "TAF LFPO 241100Z 2412/2518 24010KT CAVOK"
    },
    {
      "icao": "LFSB",
      "alert": "OK",
      "vis_m": 9999,
      "fzfg": false,
      "metar_trigger": false,
      "taf_trigger": false,
      "metar": "METAR LFSB 241330Z AUTO VRB04KT CAVOK 17/01 Q1020 NOSIG",
      "taf": "TAF LFSB 241100Z 2412/2512 28004KT CAVOK"
    },
    {
      "icao": "LGAV",
      "alert": "OK",
      "vis_m": 9999,
      "fzfg": false,
      "metar_trigger": false,
      "taf_trigger": false,
      "metar": "METAR LGAV 241320Z 35009KT 9999 FEW020 SCT040 BKN070 13/07 Q1010 NOSIG",
      "taf": "TAF LGAV 241100Z 2412/2512 02014KT 9999 FEW025 SCT030 BKN070"
    },
    {
      "icao": "LGTS",
      "alert": "OK",
      "vis_m": 9999,
      "fzfg": false,
      "metar_trigger": false,
      "taf_trigger": false,
      "metar": "METAR LGTS 241320Z 31011KT 9999 -RA FEW015 BKN030 12/09 Q1013 NOSIG",
      "taf": "TAF LGTS 241100Z 2412/2512 34013KT 9999 FEW015 SCT025"
    },
    {
      "icao": "LHBP",
      "alert": "OK",
      "vis_m": 9999,
      "fzfg": false,
      "metar_trigger": false,
      "taf_trigger": false,
      "metar": "METAR LHBP 241330Z 34003KT 260V030 CAVOK 16/M03 Q1018 NOSIG",
      "taf": "TAF LHBP 241115Z 2412/2512 33008KT CAVOK"
    },
    {
      "icao": "LHDC",
      "alert": "OK",
      "vis_m": 9999,
      "fzfg": false,
      "metar_trigger": false,
      "taf_trigger": false,
      "metar": "METAR LHDC 241315Z AUTO 36009KT 320V020 CAVOK 16/M03 Q1017 NOSIG",
      "taf": "TAF LHDC 241115Z 2412/2421 01012KT CAVOK"
    },
    {
      "icao": "LIBD",
      "alert": "OK",
      "vis_m": 9999,
      "fzfg": false,
      "metar_trigger": false,
      "taf_trigger": false,
      "metar": "METAR LIBD 241320Z 33011KT 300V010 9999 FEW020 15/09 Q1015",
      "taf": "TAF LIBD 241100Z 2412/2512 34013KT 9999 FEW030"
    },
    {
      "icao": "LIBG",
      "alert": "OK",
      "vis_m": 9999,
      "fzfg": false,
      "metar_trigger": false,
      "taf_trigger": false,
      "metar": "METAR LIBG 241250Z 36013KT CAVOK 17/07 Q1013",
      "taf": "TAF LIBG 241100Z 2412/2421 36013KT 9999 SCT025"
    },
    {
      "icao": "LIBP",
      "alert": "OK",
      "vis_m": 9999,
      "fzfg": false,
      "metar_trigger": false,
      "taf_trigger": false,
      "metar": "METAR LIBP 241320Z AUTO 01010KT 340V040 9999 NCD 16/06 Q1018",
      "taf": "TAF LIBP 241100Z 2412/2512 35012KT 9999 FEW050"
    },
    {
      "icao": "LIBR",
      "alert": "OK",
      "vis_m": 9999,
      "fzfg": false,
      "metar_trigger": false,
      "taf_trigger": false,
      "metar": "METAR LIBR 241320Z 36013KT CAVOK 16/08 Q1013",
      "taf": "TAF LIBR 241100Z 2412/2512 34015G25KT 9999 SCT030"
    },
    {
      "icao": "LICA",
      "alert": "OK",
      "vis_m": 9999,
      "fzfg": false,
      "metar_trigger": false,
      "taf_trigger": false,
      "metar": "METAR LICA 241320Z AUTO 25013KT 9999 FEW061/// SCT098/// 16/08 Q1014",
      "taf": "TAF LICA 241100Z 2412/2512 29010KT 9999 SCT040"
    },
    {
      "icao": "LICC",
      "alert": "OK",
      "vis_m": 9999,
      "fzfg": false,
      "metar_trigger": false,
      "taf_trigger": false,
      "metar": "METAR LICC 241320Z 28004KT 9999 -DZ SCT050 SCT080 13/11 Q1014",
      "taf": "TAF LICC 241100Z 2412/2512 08007KT 9999 SCT050"
    },
    {
      "icao": "LICJ",
      "alert": "OK",
      "vis_m": 9999,
      "fzfg": false,
      "metar_trigger": false,
      "taf_trigger": false,
      "metar": "METAR LICJ 241320Z 10005KT 9999 -RA SCT030 BKN070 12/07 Q1016 RETSRA",
      "taf": "TAF LICJ 241100Z 2412/2512 01012KT 9999 FEW020 BKN030"
    },
    {
      "icao": "LIMC",
      "alert": "OK",
      "vis_m": 9999,
      "fzfg": false,
      "metar_trigger": false,
      "taf_trigger": false,
      "metar": "METAR LIMC 241320Z VRB04KT CAVOK 17/01 Q1020 NOSIG",
      "taf": "TAF LIMC 241100Z 2412/2518 VRB05KT CAVOK"
    },
    {
      "icao": "LIME",
      "alert": "OK",
      "vis_m": 9999,
      "fzfg": false,
      "metar_trigger": false,
      "taf_trigger": false,
      "metar": "METAR LIME 241320Z 18004KT 120V260 9999 FEW050 16/02 Q1020 NOSIG",
      "taf": "TAF LIME 241100Z 2412/2512 VRB05KT CAVOK"
    },
    {
      "icao": "LIMF",
      "alert": "OK",
      "vis_m": 9999,
      "fzfg": false,
      "metar_trigger": false,
      "taf_trigger": false,
      "metar": "METAR LIMF 241320Z VRB03KT CAVOK 17/01 Q1019",
      "taf": "TAF LIMF 241100Z 2412/2512 VRB05KT CAVOK"
    },
    {
      "icao": "LIMJ",
      "alert": "OK",
      "vis_m": 9999,
      "fzfg": false,
      "metar_trigger": false,
      "taf_trigger": false,
      "metar": "METAR LIMJ 241320Z 25004KT 9999 FEW040 17/07 Q1019",
      "taf": "TAF LIMJ 241100Z 2412/2512 23010KT CAVOK"
    },
    {
      "icao": "LIPE",
      "alert": "OK",
      "vis_m": 9999,
      "fzfg": false,
      "metar_trigger": false,
      "taf_trigger": false,
      "metar": "METAR LIPE 241320Z VRB04KT 9999 FEW060 18/04 Q1020",
      "taf": "TAF LIPE 241100Z 2412/2512 VRB05KT 9999 FEW040"
    },
    {
      "icao": "LIPH",
      "alert": "OK",
      "vis_m": 9999,
      "fzfg": false,
      "metar_trigger": false,
      "taf_trigger": false,
      "metar": "METAR LIPH 241320Z VRB03KT 9999 FEW030 19/01 Q1019",
      "taf": "TAF LIPH 241100Z 2412/2512 VRB05KT CAVOK"
    },
    {
      "icao": "LIPQ",
      "alert": "OK",
      "vis_m": 9999,
      "fzfg": false,
      "metar_trigger": false,
      "taf_trigger": false,
      "metar": "METAR LIPQ 241320Z AUTO 01003KT 340V040 9999 BKN084/// 18/00 Q1018",
      "taf": "TAF LIPQ 241100Z 2412/2512 VRB05KT 9999 FEW060"
    },
    {
      "icao": "LIPR",
      "alert": "OK",
      "vis_m": 9999,
      "fzfg": false,
      "metar_trigger": false,
      "taf_trigger": false,
      "metar": "METAR LIPR 241320Z 02008KT CAVOK 15/08 Q1020",
      "taf": "TAF LIPR 241100Z 2412/2512 36010KT CAVOK"
    },
    {
      "icao": "LIPX",
      "alert": "OK",
      "vis_m": 9999,
      "fzfg": false,
      "metar_trigger": false,
      "taf_trigger": false,
      "metar": "METAR LIPX 241320Z 22003KT 170V270 9999 FEW060 18/02 Q1019",
      "taf": "TAF LIPX 241100Z 2412/2512 25010KT CAVOK"
    },
    {
      "icao": "LIPY",
      "alert": "OK",
      "vis_m": 9999,
      "fzfg": false,
      "metar_trigger": false,
      "taf_trigger": false,
      "metar": "METAR LIPY 241320Z AUTO 34013KT 9999 NCD 14/10 Q1019",
      "taf": "TAF LIPY 241100Z 2412/2512 34012KT CAVOK"
    },
    {
      "icao": "LIPZ",
      "alert": "OK",
      "vis_m": 9999,
      "fzfg": false,
      "metar_trigger": false,
      "taf_trigger": false,
      "metar": "METAR LIPZ 241320Z 15005KT 130V190 CAVOK 17/02 Q1019 NOSIG",
      "taf": "TAF LIPZ 241100Z 2412/2518 VRB05KT CAVOK"
    },
    {
      "icao": "LIRF",
      "alert": "OK",
      "vis_m": 9999,
      "fzfg": false,
      "metar_trigger": false,
      "taf_trigger": false,
      "metar": "METAR LIRF 241320Z 24010KT 9999 FEW050 17/06 Q1017 NOSIG",
      "taf": "TAF LIRF 241100Z 2412/2518 28012KT CAVOK"
    },
    {
      "icao": "LIRN",
      "alert": "OK",
      "vis_m": 9999,
      "fzfg": false,
      "metar_trigger": false,
      "taf_trigger": false,
      "metar": "METAR LIRN 241320Z 05008KT 010V100 9999 SCT050 18/04 Q1016 NOSIG",
      "taf": "TAF LIRN 241100Z 2412/2512 03010KT 9999 FEW040"
    },
    {
      "icao": "LIRP",
      "alert": "OK",
      "vis_m": 9999,
      "fzfg": false,
      "metar_trigger": false,
      "taf_trigger": false,
      "metar": "METAR LIRP 241315Z 27011KT CAVOK 17/M04 Q1019 NOSIG",
      "taf": "TAF LIRP 241100Z 2412/2512 30010KT CAVOK"
    },
    {
      "icao": "LIRZ",
      "alert": "OK",
      "vis_m": 9999,
      "fzfg": false,
      "metar_trigger": false,
      "taf_trigger": false,
      "metar": "METAR LIRZ 241320Z AUTO 04010KT 360V080 9999 NCD 17/03 Q1018",
      "taf": "TAF LIRZ 241100Z 2412/2512 04014KT 9999 FEW040"
    },
    {
      "icao": "LJLJ",
      "alert": "OK",
      "vis_m": 9999,
      "fzfg": false,
      "metar_trigger": false,
      "taf_trigger": false,
      "metar": "METAR LJLJ 241330Z 00000KT 9999 FEW077 SCT087 BKN250 15/M02 Q1019 NOSIG",
      "taf": "TAF LJLJ 241100Z 2412/2512 12005KT 9999 FEW070"
    },
    {
      "icao": "LKMT",
      "alert": "OK",
      "vis_m": 9999,
      "fzfg": false,
      "metar_trigger": false,
      "taf_trigger": false,
      "metar": "METAR LKMT 241330Z 32004KT 270V010 CAVOK 14/M01 Q1018 NOSIG",
      "taf": "TAF LKMT 241100Z 2412/2512 21004KT CAVOK"
    },
    {
      "icao": "LKPR",
      "alert": "OK",
      "vis_m": 9999,
      "fzfg": false,
      "metar_trigger": false,
      "taf_trigger": false,
      "metar": "METAR LKPR 241330Z 23007KT CAVOK 14/M01 Q1018 NOSIG",
      "taf": "TAF LKPR 241100Z 2412/2518 21008KT CAVOK"
    },
    {
      "icao": "LLBG",
      "alert": "OK",
      "vis_m": 9999,
      "fzfg": false,
      "metar_trigger": false,
      "taf_trigger": false,
      "metar": "METAR LLBG 241320Z 30011KT 9999 SCT035 18/09 Q1006 NOSIG",
      "taf": "TAF LLBG 241105Z 2412/2512 29008KT 9999 SCT035 TX20/2412Z TN10/2504Z"
    },
    {
      "icao": "LMML",
      "alert": "OK",
      "vis_m": 9999,
      "fzfg": false,
      "metar_trigger": false,
      "taf_trigger": false,
      "metar": "METAR LMML 241345Z 35009KT 320V020 9999 FEW025TCU 14/09 Q1014 TEMPO 8000 SHRA",
      "taf": "TAF LMML 241100Z 2412/2512 35011KT 9999 SCT025"
    },
    {
      "icao": "LOWW",
      "alert": "OK",
      "vis_m": 9999,
      "fzfg": false,
      "metar_trigger": false,
      "taf_trigger": false,
      "metar": "METAR LOWW 241320Z 32008KT 290V350 CAVOK 15/00 Q1019 NOSIG",
      "taf": "TAF LOWW 241115Z 2412/2518 32010KT 9999 FEW050 TX19/2513Z TN04/2504Z"
    },
    {
      "icao": "LPFR",
      "alert": "OK",
      "vis_m": 9999,
      "fzfg": false,
      "metar_trigger": false,
      "taf_trigger": false,
      "metar": "METAR LPFR 241330Z 10014KT CAVOK 19/10 Q1020",
      "taf": "TAF LPFR 241100Z 2412/2512 09013KT CAVOK"
    },
    {
      "icao": "LPMA",
      "alert": "OK",
      "vis_m": 9999,
      "fzfg": false,
      "metar_trigger": false,
      "taf_trigger": false,
      "metar": "METAR LPMA 241330Z 01018KT 340V040 9999 BKN015 18/13 Q1017",
      "taf": "TAF LPMA 241100Z 2412/2512 02015KT 9999 SCT015"
    },
    {
      "icao": "LPPR",
      "alert": "OK",
      "vis_m": 9999,
      "fzfg": false,
      "metar_trigger": false,
      "taf_trigger": false,
      "metar": "METAR LPPR 241330Z 27005KT 230V310 CAVOK 22/08 Q1020",
      "taf": "TAF LPPR 241100Z 2412/2512 08005KT CAVOK"
    },
    {
      "icao": "LPPS",
      "alert": "OK",
      "vis_m": 9999,
      "fzfg": false,
      "metar_trigger": false,
      "taf_trigger": false,
      "metar": "METAR LPPS 241330Z 05016KT 020V080 9999 BKN014 17/13 Q1017",
      "taf": "TAF LPPS 241100Z 2412/2518 06015KT 9999 SCT015 SCT030"
    },
    {
      "icao": "LPPT",
      "alert": "OK",
      "vis_m": 9999,
      "fzfg": false,
      "metar_trigger": false,
      "taf_trigger": false,
      "metar": "METAR LPPT 241330Z 07006G16KT 360V110 9999 FEW024 19/13 Q1020",
      "taf": "TAF LPPT 241100Z 2412/2518 VRB05KT CAVOK"
    },
    {
      "icao": "LQBK",
      "alert": "OK",
      "vis_m": 9999,
      "fzfg": false,
      "metar_trigger": false,
      "taf_trigger": false,
      "metar": "METAR LQBK 241330Z 30006KT 250V330 9999 FEW045 15/03 Q1018 NOSIG",
      "taf": ""
    },
    {
      "icao": "LQSA",
      "alert": "OK",
      "vis_m": 9999,
      "fzfg": false,
      "metar_trigger": false,
      "taf_trigger": false,
      "metar": "METAR LQSA 241330Z 02006KT 300V090 9999 FEW035 BKN050 12/01 Q1017 NOSIG",
      "taf": ""
    },
    {
      "icao": "LQTZ",
      "alert": "OK",
      "vis_m": 9999,
      "fzfg": false,
      "metar_trigger": false,
      "taf_trigger": false,
      "metar": "METAR LQTZ 241330Z 16004KT 090V240 9999 FEW045 SCT060 15/03 Q1017",
      "taf": ""
    },
    {
      "icao": "LRBC",
      "alert": "OK",
      "vis_m": 9999,
      "fzfg": false,
      "metar_trigger": false,
      "taf_trigger": false,
      "metar": "METAR LRBC 241330Z 36009KT 9999 FEW065 16/M01 Q1015",
      "taf": "TAF LRBC 241100Z 2412/2421 36008KT CAVOK"
    },
    {
      "icao": "LRBS",
      "alert": "OK",
      "vis_m": 9999,
      "fzfg": false,
      "metar_trigger": false,
      "taf_trigger": false,
      "metar": "METAR LRBS 241330Z 08009KT CAVOK 16/01 Q1015 NOSIG",
      "taf": "TAF LRBS 241100Z 2412/2512 06014KT CAVOK"
    },
    {
      "icao": "LRBV",
      "alert": "OK",
      "vis_m": 9999,
      "fzfg": false,
      "metar_trigger": false,
      "taf_trigger": false,
      "metar": "METAR LRBV 241330Z 28006KT 240V310 9999 FEW069 OVC086 13/01 Q1015",
      "taf": "TAF LRBV 241100Z 2412/2421 VRB04KT 9999 BKN055"
    },
    {
      "icao": "LRCL",
      "alert": "OK",
      "vis_m": 9999,
      "fzfg": false,
      "metar_trigger": false,
      "taf_trigger": false,
      "metar": "METAR LRCL 241330Z COR AUTO 29005KT 240V010 CAVOK 15/M03 Q1015",
      "taf": "TAF LRCL 241100Z 2412/2421 VRB04KT 9999 BKN065"
    },
    {
      "icao": "LRCV",
      "alert": "OK",
      "vis_m": 9999,
      "fzfg": false,
      "metar_trigger": false,
      "taf_trigger": false,
      "metar": "METAR LRCV 241330Z 19004KT 140V250 CAVOK 16/02 Q1015",
      "taf": "TAF LRCV 241100Z 2412/2421 09007KT CAVOK"
    },
    {
      "icao": "LRIA",
      "alert": "OK",
      "vis_m": 9999,
      "fzfg": false,
      "metar_trigger": false,
      "taf_trigger": false,
      "metar": "METAR LRIA 241330Z 02009KT CAVOK 15/M01 Q1016",
      "taf": "TAF LRIA 241100Z 2412/2421 02008KT CAVOK"
    },
    {
      "icao": "LROP",
      "alert": "OK",
      "vis_m": 9999,
      "fzfg": false,
      "metar_trigger": false,
      "taf_trigger": false,
      "metar": "METAR LROP 241330Z 08011KT CAVOK 16/M04 Q1015 NOSIG",
      "taf": "TAF LROP 241100Z 2412/2512 06014KT CAVOK"
    },
    {
      "icao": "LRSB",
      "alert": "OK",
      "vis_m": 9999,
      "fzfg": false,
      "metar_trigger": false,
      "taf_trigger": false,
      "metar": "METAR LRSB 241330Z VRB03KT 9999 FEW055 BKN087 14/01 Q1015",
      "taf": "TAF LRSB 241100Z 2412/2512 VRB04KT 9999 SCT065"
    },
    {
      "icao": "LRSM",
      "alert": "OK",
      "vis_m": 9999,
      "fzfg": false,
      "metar_trigger": false,
      "taf_trigger": false,
      "metar": "METAR LRSM 241330Z 35008KT 300V030 CAVOK 17/M02 Q1016",
      "taf": "TAF LRSM 241100Z 2412/2421 35007KT CAVOK"
    },
    {
      "icao": "LRSV",
      "alert": "OK",
      "vis_m": 9999,
      "fzfg": false,
      "metar_trigger": false,
      "taf_trigger": false,
      "metar": "METAR LRSV 241330Z 36004KT 320V030 CAVOK 12/M02 Q1016",
      "taf": "TAF LRSV 241100Z 2412/2421 VRB04KT CAVOK"
    },
    {
      "icao": "LRTM",
      "alert": "OK",
      "vis_m": 9999,
      "fzfg": false,
      "metar_trigger": false,
      "taf_trigger": false,
      "metar": "METAR LRTM 241330Z 30005KT 260V330 9999 SCT037 FEW040TCU 15/M01 Q1015",
      "taf": "TAF LRTM 241100Z 2412/2421 VRB04KT CAVOK"
    },
    {
      "icao": "LRTR",
      "alert": "OK",
      "vis_m": 9999,
      "fzfg": false,
      "metar_trigger": false,
      "taf_trigger": false,
      "metar": "METAR LRTR 241330Z 01010KT 330V050 CAVOK 17/M00 Q1016 NOSIG",
      "taf": "TAF LRTR 241100Z 2412/2512 VRB04KT CAVOK"
    },
    {
      "icao": "LTAC",
      "alert": "OK",
      "vis_m": 9999,
      "fzfg": false,
      "metar_trigger": false,
      "taf_trigger": false,
      "metar": "METAR LTAC 241320Z VRB02KT 9999 FEW025CB BKN040 11/04 Q1006 NOSIG RMK RWY21C 34004KT 280V010 RWY03L 33003KT 290V360 RWY21R 34004KT 300V020 RWY03R VRB02KT RWY21L 34005KT 280V020",
      "taf": "TAF LTAC 241040Z 2412/2512 VRB02KT 9999 SCT035 BKN100"
    },
    {
      "icao": "LTFM",
      "alert": "OK",
      "vis_m": 4000,
      "fzfg": false,
      "metar_trigger": false,
      "taf_trigger": false,
      "metar": "METAR LTFM 241320Z 02010KT 4000 -RA BR BKN004 BKN020 08/07 Q1011 NOSIG RMK RWY17L 03008KT RWY34L 02010KT RWY16R 03009KT RWY36 02012KT RWY18 03008KT",
      "taf": "TAF LTFM 241040Z 2412/2518 02012KT 8000 -RA BKN006 BKN022"
    },
    {
      "icao": "LUKK",
      "alert": "OK",
      "vis_m": 9999,
      "fzfg": false,
      "metar_trigger": false,
      "taf_trigger": false,
      "metar": "METAR LUKK 241330Z 04011G25KT 360V070 CAVOK 15/M01 Q1015 NOSIG",
      "taf": "TAF LUKK 241109Z 2412/2512 02012KT CAVOK"
    },
    {
      "icao": "LWOH",
      "alert": "OK",
      "vis_m": 9999,
      "fzfg": false,
      "metar_trigger": false,
      "taf_trigger": false,
      "metar": "METAR LWOH 241320Z 01005KT 310V050 9999 BKN040 11/01 Q1013",
      "taf": "TAF LWOH 241130Z 2412/2512 36010KT 9999 SCT040"
    },
    {
      "icao": "LWSK",
      "alert": "OK",
      "vis_m": null,
      "fzfg": false,
      "metar_trigger": false,
      "taf_trigger": false,
      "metar": "",
      "taf": "TAF LWSK 241130Z 2412/2512 32005KT 9999 BKN050"
    },
    {
      "icao": "LYBE",
      "alert": "OK",
      "vis_m": 9999,
      "fzfg": false,
      "metar_trigger": false,
      "taf_trigger": false,
      "metar": "METAR LYBE 241330Z 01010KT CAVOK 17/00 Q1017 NOSIG",
      "taf": "TAF LYBE 241100Z 2412/2512 01010KT 9999 SCT047 TX18/2413Z TN05/2505Z"
    },
    {
      "icao": "LYNI",
      "alert": "OK",
      "vis_m": 9999,
      "fzfg": false,
      "metar_trigger": false,
      "taf_trigger": false,
      "metar": "METAR LYNI 241330Z 32008KT 290V350 9999 FEW037 SCT054 BKN080 14/04 Q1016 NOSIG",
      "taf": "TAF LYNI 241100Z 2412/2512 02011KT 9999 BKN070 TX18/2512Z TN04/2505Z"
    },
    {
      "icao": "LYPG",
      "alert": "OK",
      "vis_m": 9999,
      "fzfg": false,
      "metar_trigger": false,
      "taf_trigger": false,
      "metar": "METAR LYPG 241330Z 36016G26KT 9999 SCT050 19/01 Q1012 NOSIG",
      "taf": "TAF LYPG 241100Z 2412/2512 36015KT 9999 FEW050 TX20/2512Z TN06/2505Z"
    },
    {
      "icao": "LZIB",
      "alert": "OK",
      "vis_m": 9999,
      "fzfg": false,
      "metar_trigger": false,
      "taf_trigger": false,
      "metar": "METAR LZIB 241330Z 31010KT CAVOK 16/M01 Q1018 NOSIG",
      "taf": "TAF LZIB 241115Z 2412/2512 28007KT CAVOK"
    },
    {
      "icao": "LZKZ",
      "alert": "OK",
      "vis_m": 9999,
      "fzfg": false,
      "metar_trigger": false,
      "taf_trigger": false,
      "metar": "METAR LZKZ 241330Z 35012KT CAVOK 14/M02 Q1017 NOSIG",
      "taf": "TAF LZKZ 241115Z 2412/2512 03008KT CAVOK"
    },
    {
      "icao": "LZTT",
      "alert": "OK",
      "vis_m": 9999,
      "fzfg": false,
      "metar_trigger": false,
      "taf_trigger": false,
      "metar": "METAR LZTT 241330Z 08005KT 030V130 9999 SCT060 BKN076 10/M04 Q1017 NOSIG",
      "taf": "TAF LZTT 241115Z 2412/2512 08007KT 9999 SCT050"
    },
    {
      "icao": "OEJN",
      "alert": "OK",
      "vis_m": 7000,
      "fzfg": false,
      "metar_trigger": false,
      "taf_trigger": false,
      "metar": "METAR OEJN 241300Z 24008KT 7000 FEW040 30/19 Q1004 NOSIG",
      "taf": "TAF OEJN 241100Z 2412/2518 22010KT 7000 SCT040"
    },
    {
      "icao": "OEMA",
      "alert": "OK",
      "vis_m": 9999,
      "fzfg": false,
      "metar_trigger": false,
      "taf_trigger": false,
      "metar": "METAR OEMA 241300Z 22012KT 9999 FEW035 BKN100 28/04 Q1006 NOSIG",
      "taf": "TAF OEMA 241100Z 2412/2518 27018KT 7000 FEW040"
    },
    {
      "icao": "OJAI",
      "alert": "OK",
      "vis_m": 5000,
      "fzfg": false,
      "metar_trigger": false,
      "taf_trigger": false,
      "metar": "METAR OJAI 241300Z 26011KT 5000 HZ BKN030 14/05 Q1007 NOSIG",
      "taf": "TAF OJAI 241100Z 2412/2518 25012KT 4000 HZ SCT030"
    },
    {
      "icao": "OMAA",
      "alert": "OK",
      "vis_m": null,
      "fzfg": false,
      "metar_trigger": false,
      "taf_trigger": false,
      "metar": "",
      "taf": ""
    },
    {
      "icao": "OMDB",
      "alert": "OK",
      "vis_m": null,
      "fzfg": false,
      "metar_trigger": false,
      "taf_trigger": false,
      "metar": "",
      "taf": ""
    },
    {
      "icao": "UAAA",
      "alert": "OK",
      "vis_m": 9999,
      "fzfg": false,
      "metar_trigger": false,
      "taf_trigger": false,
      "metar": "METAR UAAA 241330Z 03003MPS 9999 SCT050CB BKN100 11/01 Q1023 NOSIG",
      "taf": "TAF UAAA 241106Z 2412/2512 06003MPS 9999 SCT050CB BKN100 TX18/2509Z TN03/2501Z"
    },
    {
      "icao": "UBBB",
      "alert": "OK",
      "vis_m": 9999,
      "fzfg": false,
      "metar_trigger": false,
      "taf_trigger": false,
      "metar": "METAR UBBB 241330Z 02008KT 9999 FEW060CB 11/07 Q1009 NOSIG",
      "taf": "TAF UBBB 241053Z 2412/2512 35005KT 9999 SCT020 TX14/2412Z TN07/2501Z"
    },
    {
      "icao": "UDSG",
      "alert": "OK",
      "vis_m": 9999,
      "fzfg": false,
      "metar_trigger": false,
      "taf_trigger": false,
      "metar": "METAR UDSG 241330Z 25003KT 180V290 9999 BKN049 10/M01 Q1010 NOSIG",
      "taf": "TAF UDSG 241058Z 2412/2512 24006KT 9999 BKN050"
    },
    {
      "icao": "UDYZ",
      "alert": "OK",
      "vis_m": 9999,
      "fzfg": false,
      "metar_trigger": false,
      "taf_trigger": false,
      "metar": "METAR UDYZ 241330Z 16005KT 9999 FEW046 16/00 Q1008 NOSIG",
      "taf": "TAF UDYZ 241100Z 2412/2512 20006KT 9999 SCT040"
    },
    {
      "icao": "UGKO",
      "alert": "OK",
      "vis_m": 9999,
      "fzfg": false,
      "metar_trigger": false,
      "taf_trigger": false,
      "metar": "METAR UGKO 241330Z 27017KT CAVOK 16/10 Q1006 NOSIG",
      "taf": "TAF UGKO 241100Z 2412/2512 26007KT CAVOK TX18/2412Z TN08/2503Z"
    }
  ]
}