{
  "ts_utc": "2025-12-20T21:38:27Z",
  "threshold_m": 150,
  "source": "stations_override.txt (ICAO list) + aviationweather.gov (METAR/TAF raw)",
  "station_count": 114,
  "stations": [
    {
      "icao": "BIKF",
      "alert": "OK",
      "vis_m": 9999,
      "fzfg": false,
      "metar_trigger": false,
      "taf_trigger": false,
      "metar": "METAR BIKF 202130Z 06005KT CAVOK 04/03 Q1002",
      "taf": "TAF BIKF 201959Z 2021/2121 06008KT 9999 FEW020 TX09/2112Z TN03/2100Z"
    },
    {
      "icao": "BKPR",
      "alert": "OK",
      "vis_m": 200,
      "fzfg": true,
      "metar_trigger": false,
      "taf_trigger": false,
      "metar": "METAR BKPR 202130Z VRB01KT 0200 R17/0600N R35/0450N FZFG BKN002 M00/M00 Q1019 NOSIG",
      "taf": "TAF BKPR 201730Z 2018/2118 VRB03KT 0150 FG BKN001"
    },
    {
      "icao": "EBBR",
      "alert": "OK",
      "vis_m": 9999,
      "fzfg": false,
      "metar_trigger": false,
      "taf_trigger": false,
      "metar": "METAR EBBR 202120Z 11005KT 9999 BKN017 07/06 Q1011 NOSIG",
      "taf": "TAF EBBR 201702Z 2018/2124 11005KT 7000 FEW018"
    },
    {
      "icao": "EBCI",
      "alert": "OK",
      "vis_m": 6000,
      "fzfg": false,
      "metar_trigger": false,
      "taf_trigger": false,
      "metar": "METAR EBCI 202120Z 15004KT 140V220 6000 FEW010 BKN015 08/08 Q1011 TEMPO 3000 BR",
      "taf": "TAF EBCI 201702Z 2018/2124 14004KT 8000 FEW018"
    },
    {
      "icao": "EDDB",
      "alert": "OK",
      "vis_m": 1000,
      "fzfg": false,
      "metar_trigger": false,
      "taf_trigger": false,
      "metar": "METAR EDDB 202120Z AUTO 07006KT 1000 0900 R06L/1400D R06R/1100N BCFG OVC001 05/05 Q1019 TEMPO 0600 FG VV002",
      "taf": ""
    },
    {
      "icao": "EDDH",
      "alert": "OK",
      "vis_m": 6000,
      "fzfg": false,
      "metar_trigger": false,
      "taf_trigger": false,
      "metar": "METAR EDDH 202120Z AUTO 08006KT 6000 OVC002 04/04 Q1018 TEMPO 2500 OVC001",
      "taf": ""
    },
    {
      "icao": "EDDK",
      "alert": "OK",
      "vis_m": 9999,
      "fzfg": false,
      "metar_trigger": false,
      "taf_trigger": false,
      "metar": "METAR EDDK 202120Z AUTO 12006KT 9999 OVC030 10/07 Q1013 NOSIG",
      "taf": "TAF EDDK 201700Z 2018/2124 11007KT 9999 BKN020"
    },
    {
      "icao": "EDDN",
      "alert": "OK",
      "vis_m": 9999,
      "fzfg": false,
      "metar_trigger": false,
      "taf_trigger": false,
      "metar": "METAR EDDN 202120Z AUTO 16004KT CAVOK 05/03 Q1016 NOSIG",
      "taf": "TAF EDDN 201700Z 2018/2118 10006KT CAVOK"
    },
    {
      "icao": "EDFH",
      "alert": "OK",
      "vis_m": 350,
      "fzfg": false,
      "metar_trigger": false,
      "taf_trigger": false,
      "metar": "METAR EDFH 202120Z 14011KT 0350 R21/0450N FG VV/// 07/06 Q1013",
      "taf": "TAF EDFH 201700Z 2018/2118 14012KT 0300 -DZ FG VV000"
    },
    {
      "icao": "EDJA",
      "alert": "OK",
      "vis_m": 600,
      "fzfg": true,
      "metar_trigger": false,
      "taf_trigger": false,
      "metar": "METAR EDJA 202120Z 00000KT 0600 R24/1000D FZFG FEW005 M01/M02 Q1015",
      "taf": "TAF EDJA 201700Z 2018/2103 04003KT 6000 NSC"
    },
    {
      "icao": "EDLW",
      "alert": "OK",
      "vis_m": 9999,
      "fzfg": false,
      "metar_trigger": false,
      "taf_trigger": false,
      "metar": "METAR EDLW 202120Z 14007KT 9999 BKN022 BKN027 09/08 Q1013",
      "taf": "TAF EDLW 201700Z 2018/2118 04005KT 9999 BKN030"
    },
    {
      "icao": "EDSB",
      "alert": "OK",
      "vis_m": 300,
      "fzfg": false,
      "metar_trigger": false,
      "taf_trigger": false,
      "metar": "METAR EDSB 202120Z VRB02KT 0300 R21/0400D FG VV/// 07/06 Q1014",
      "taf": ""
    },
    {
      "icao": "EETN",
      "alert": "OK",
      "vis_m": 5000,
      "fzfg": false,
      "metar_trigger": false,
      "taf_trigger": false,
      "metar": "METAR EETN 202120Z 26014KT 5000 SHRA BKN008 SCT016CB 06/06 Q1006 TEMPO 4000",
      "taf": "TAF EETN 201730Z 2018/2118 22014KT 9999 BKN010 OVC020"
    },
    {
      "icao": "EFHK",
      "alert": "OK",
      "vis_m": 9999,
      "fzfg": false,
      "metar_trigger": false,
      "taf_trigger": false,
      "metar": "METAR EFHK 202120Z 23008KT 9999 FEW009 BKN012 05/04 Q1004 TEMPO SCT012 BKN016",
      "taf": "TAF EFHK 202031Z 2021/2121 23009KT 9999 FEW009 SCT013 BKN016"
    },
    {
      "icao": "EFTU",
      "alert": "OK",
      "vis_m": 9999,
      "fzfg": false,
      "metar_trigger": false,
      "taf_trigger": false,
      "metar": "METAR EFTU 202120Z AUTO 27008KT 9999 SCT038 04/03 Q1005",
      "taf": "TAF EFTU 202031Z 2021/2121 25010KT CAVOK"
    },
    {
      "icao": "EGGW",
      "alert": "OK",
      "vis_m": 9999,
      "fzfg": false,
      "metar_trigger": false,
      "taf_trigger": false,
      "metar": "METAR EGGW 202120Z AUTO 13010KT 9999 BKN011 06/05 Q1007",
      "taf": "TAF EGGW 201701Z 2018/2118 12007KT 9999 FEW028"
    },
    {
      "icao": "EGKK",
      "alert": "OK",
      "vis_m": 9999,
      "fzfg": false,
      "metar_trigger": false,
      "taf_trigger": false,
      "metar": "METAR EGKK 202120Z 11006KT 9999 SCT007 BKN009 09/08 Q1007",
      "taf": "TAF EGKK 201658Z 2018/2124 10005KT 9999 SCT020"
    },
    {
      "icao": "EHEH",
      "alert": "OK",
      "vis_m": 9999,
      "fzfg": false,
      "metar_trigger": false,
      "taf_trigger": false,
      "metar": "SPECI EHEH 202131Z AUTO 11004KT 050V160 9999 OVC025 08/06 Q1012 BLU NOSIG RMK TREND REMOTE BY EHWX",
      "taf": "TAF EHEH 201723Z 2018/2124 11006KT 9999 SCT015 BKN020"
    },
    {
      "icao": "EKBI",
      "alert": "OK",
      "vis_m": 8000,
      "fzfg": false,
      "metar_trigger": false,
      "taf_trigger": false,
      "metar": "METAR EKBI 202120Z AUTO 14005KT 8000 OVC003/// 05/05 Q1019",
      "taf": "TAF EKBI 202028Z 2021/2121 18005KT 9999 BKN005"
    },
    {
      "icao": "EKCH",
      "alert": "OK",
      "vis_m": 9999,
      "fzfg": false,
      "metar_trigger": false,
      "taf_trigger": false,
      "metar": "METAR EKCH 202120Z 25006KT 9999 OVC004 05/04 Q1020 TEMPO BKN005",
      "taf": "TAF EKCH 202027Z 2021/2121 23006KT 9999 BKN020"
    },
    {
      "icao": "ENTO",
      "alert": "OK",
      "vis_m": 9999,
      "fzfg": false,
      "metar_trigger": false,
      "taf_trigger": false,
      "metar": "METAR ENTO 202120Z AUTO 35003KT 9999 // NCD 02/M01 Q1017",
      "taf": "TAF ENTO 201700Z 2018/2118 VRB03KT CAVOK"
    },
    {
      "icao": "EPGD",
      "alert": "OK",
      "vis_m": 9999,
      "fzfg": false,
      "metar_trigger": false,
      "taf_trigger": false,
      "metar": "METAR EPGD 202130Z 25005KT 9999 OVC013 05/02 Q1020",
      "taf": "TAF EPGD 201730Z 2018/2118 27005KT 9999 BKN011"
    },
    {
      "icao": "EPKK",
      "alert": "OK",
      "vis_m": 5000,
      "fzfg": false,
      "metar_trigger": false,
      "taf_trigger": false,
      "metar": "METAR EPKK 202130Z 22001KT 5000 BR BKN015 03/02 Q1019",
      "taf": "TAF EPKK 202030Z 2021/2121 VRB02KT 4000 BR BKN012"
    },
    {
      "icao": "EPKT",
      "alert": "OK",
      "vis_m": 750,
      "fzfg": false,
      "metar_trigger": false,
      "taf_trigger": false,
      "metar": "METAR EPKT 202130Z 32003KT 0750 R26/1900N -DZ FG BKN001 OVC003 04/04 Q1019",
      "taf": "TAF EPKT 201730Z 2018/2118 VRB02KT 2000 BR BKN002"
    },
    {
      "icao": "EPWA",
      "alert": "OK",
      "vis_m": 2400,
      "fzfg": false,
      "metar_trigger": false,
      "taf_trigger": false,
      "metar": "METAR EPWA 202130Z 35005KT 310V030 2400 1300NW BR OVC002 04/04 Q1020 TEMPO 0600 FG",
      "taf": ""
    },
    {
      "icao": "EPWR",
      "alert": "OK",
      "vis_m": 3000,
      "fzfg": false,
      "metar_trigger": false,
      "taf_trigger": false,
      "metar": "METAR EPWR 202130Z 14004KT 3000 BR FEW003 BKN006 03/03 Q1019",
      "taf": "TAF EPWR 202030Z 2021/2121 13006KT 3000 BR OVC003"
    },
    {
      "icao": "ESGG",
      "alert": "OK",
      "vis_m": 3700,
      "fzfg": false,
      "metar_trigger": false,
      "taf_trigger": false,
      "metar": "METAR ESGG 202120Z 23006KT 3700 BR OVC002 06/06 Q1017",
      "taf": "TAF ESGG 202030Z 2021/2121 24007KT 5000 BKN005"
    },
    {
      "icao": "ESKN",
      "alert": "OK",
      "vis_m": 9999,
      "fzfg": false,
      "metar_trigger": false,
      "taf_trigger": false,
      "metar": "METAR ESKN 202120Z 28008KT CAVOK 04/03 Q1013",
      "taf": "TAF ESKN 202030Z 2021/2121 28008KT CAVOK"
    },
    {
      "icao": "ESMX",
      "alert": "OK",
      "vis_m": 9999,
      "fzfg": false,
      "metar_trigger": false,
      "taf_trigger": false,
      "metar": "METAR ESMX 202120Z AUTO 27006KT 9999 OVC014/// 07/05 Q1017",
      "taf": "TAF ESMX 201130Z 2012/2015 23011KT 9999 OVC035"
    },
    {
      "icao": "EVRA",
      "alert": "OK",
      "vis_m": 9999,
      "fzfg": false,
      "metar_trigger": false,
      "taf_trigger": false,
      "metar": "METAR EVRA 202120Z 21006KT 9999 -RA BKN018 OVC049 05/04 Q1013 NOSIG",
      "taf": "TAF EVRA 202001Z 2021/2121 21007KT 9999 BKN015"
    },
    {
      "icao": "EYKA",
      "alert": "OK",
      "vis_m": 9999,
      "fzfg": false,
      "metar_trigger": false,
      "taf_trigger": false,
      "metar": "METAR EYKA 202120Z 25006KT 9999 OVC016 05/04 Q1018",
      "taf": "TAF EYKA 201700Z 2018/2118 VRB04KT 9000 SCT010 OVC015"
    },
    {
      "icao": "EYVI",
      "alert": "OK",
      "vis_m": 9999,
      "fzfg": false,
      "metar_trigger": false,
      "taf_trigger": false,
      "metar": "METAR EYVI 202120Z 28005KT 9999 OVC010 03/03 Q1018 BECMG OVC015",
      "taf": ""
    },
    {
      "icao": "GCLP",
      "alert": "OK",
      "vis_m": 9999,
      "fzfg": false,
      "metar_trigger": false,
      "taf_trigger": false,
      "metar": "METAR GCLP 202130Z 04017KT 9999 -RA FEW022 BKN030 17/14 Q1022 NOSIG",
      "taf": "TAF GCLP 202000Z 2021/2121 01013KT 9999 SCT035 TX21/2114Z TN15/2106Z"
    },
    {
      "icao": "GCTS",
      "alert": "OK",
      "vis_m": 9999,
      "fzfg": false,
      "metar_trigger": false,
      "taf_trigger": false,
      "metar": "METAR GCTS 202130Z 06012KT 9999 BKN050 18/11 Q1023 NOSIG",
      "taf": "TAF GCTS 202000Z 2021/2121 03009KT 9999 SCT035 TX22/2114Z TN15/2106Z"
    },
    {
      "icao": "HECA",
      "alert": "OK",
      "vis_m": 9999,
      "fzfg": false,
      "metar_trigger": false,
      "taf_trigger": false,
      "metar": "METAR HECA 202130Z 14004KT 9999 FEW025 15/04 Q1014 NOSIG",
      "taf": "TAF HECA 201700Z 2018/2124 08009KT CAVOK"
    },
    {
      "icao": "HEGN",
      "alert": "OK",
      "vis_m": 9999,
      "fzfg": false,
      "metar_trigger": false,
      "taf_trigger": false,
      "metar": "METAR HEGN 202100Z 23005KT CAVOK 15/10 Q1016 NOSIG",
      "taf": "TAF HEGN 201700Z 2018/2124 27008KT CAVOK"
    },
    {
      "icao": "HESH",
      "alert": "OK",
      "vis_m": 9999,
      "fzfg": false,
      "metar_trigger": false,
      "taf_trigger": false,
      "metar": "METAR HESH 202100Z 29006KT CAVOK 17/10 Q1016 NOSIG",
      "taf": "TAF HESH 201700Z 2018/2124 35008KT CAVOK"
    },
    {
      "icao": "HESX",
      "alert": "OK",
      "vis_m": 9999,
      "fzfg": false,
      "metar_trigger": false,
      "taf_trigger": false,
      "metar": "METAR HESX 202100Z 10009KT CAVOK 14/08 Q1014 NOSIG",
      "taf": "TAF HESX 201700Z 2018/2124 09009KT CAVOK"
    },
    {
      "icao": "LATI",
      "alert": "OK",
      "vis_m": 6000,
      "fzfg": false,
      "metar_trigger": false,
      "taf_trigger": false,
      "metar": "METAR LATI 202120Z VRB03KT 6000 NSC 04/02 Q1016 NOSIG",
      "taf": "TAF LATI 201700Z 2018/2118 VRB05KT CAVOK TX17/2112Z TN01/2105Z"
    },
    {
      "icao": "LBSF",
      "alert": "OK",
      "vis_m": 9999,
      "fzfg": false,
      "metar_trigger": false,
      "taf_trigger": false,
      "metar": "METAR LBSF 202130Z AUTO 11006KT 9999 OVC026/// 05/03 Q1019 NOSIG",
      "taf": "TAF LBSF 201700Z 2018/2118 10010KT 9999 SCT030"
    },
    {
      "icao": "LBWN",
      "alert": "OK",
      "vis_m": 9000,
      "fzfg": false,
      "metar_trigger": false,
      "taf_trigger": false,
      "metar": "METAR LBWN 202130Z AUTO 00000KT 9000 OVC009/// 07/07 Q1020 NOSIG",
      "taf": "TAF LBWN 201700Z 2018/2118 02010KT 7000 BKN008 OVC018"
    },
    {
      "icao": "LCLK",
      "alert": "OK",
      "vis_m": 9999,
      "fzfg": false,
      "metar_trigger": false,
      "taf_trigger": false,
      "metar": "METAR LCLK 202130Z 35005KT 9999 SCT045 14/11 Q1017 NOSIG",
      "taf": "TAF LCLK 201730Z 2018/2118 33006KT 9999 FEW020 SCT030"
    },
    {
      "icao": "LDDU",
      "alert": "OK",
      "vis_m": 9999,
      "fzfg": false,
      "metar_trigger": false,
      "taf_trigger": false,
      "metar": "METAR LDDU 202130Z 04006KT 330V110 9999 FEW072 12/03 Q1015",
      "taf": "TAF LDDU 201725Z 2018/2118 05006KT 9999 FEW040 TX15/2112Z TN09/2103Z"
    },
    {
      "icao": "LDSP",
      "alert": "OK",
      "vis_m": 9999,
      "fzfg": false,
      "metar_trigger": false,
      "taf_trigger": false,
      "metar": "METAR LDSP 202130Z AUTO 35006KT CAVOK 11/02 Q1016",
      "taf": "TAF LDSP 201725Z 2018/2118 34005KT CAVOK TX16/2113Z TN07/2106Z"
    },
    {
      "icao": "LDZA",
      "alert": "OK",
      "vis_m": 400,
      "fzfg": false,
      "metar_trigger": false,
      "taf_trigger": false,
      "metar": "METAR LDZA 202130Z VRB02KT 0400 R04/1400N R22/P2000N FG VV002 03/02 Q1021 TEMPO 0700",
      "taf": "TAF LDZA 201725Z 2018/2118 VRB02KT 1200 BCFG OVC003 TX05/2113Z TN02/2105Z"
    },
    {
      "icao": "LEAL",
      "alert": "OK",
      "vis_m": 9999,
      "fzfg": false,
      "metar_trigger": false,
      "taf_trigger": false,
      "metar": "METAR LEAL 202130Z 30008KT 270V330 9999 BKN066 15/09 Q1012 NOSIG",
      "taf": "TAF LEAL 201700Z 2018/2118 VRB04KT 9999 FEW030 TX15/2112Z TN08/2106Z"
    },
    {
      "icao": "LEBL",
      "alert": "OK",
      "vis_m": 9999,
      "fzfg": false,
      "metar_trigger": false,
      "taf_trigger": false,
      "metar": "METAR LEBL 202130Z 33007KT 9999 -DZ FEW030 SCT055 12/11 Q1010 NOSIG",
      "taf": "TAF LEBL 201700Z 2018/2118 33009KT 6000 SCT030 BKN035 TX16/2112Z TN09/2106Z"
    },
    {
      "icao": "LECH",
      "alert": "OK",
      "vis_m": 6000,
      "fzfg": false,
      "metar_trigger": false,
      "taf_trigger": false,
      "metar": "METAR LECH 202130Z AUTO 20003KT 6000 NSC 09/08 Q1012",
      "taf": ""
    },
    {
      "icao": "LEMD",
      "alert": "OK",
      "vis_m": 9999,
      "fzfg": false,
      "metar_trigger": false,
      "taf_trigger": false,
      "metar": "METAR LEMD 202130Z 17005KT 9999 FEW020 06/04 Q1011 NOSIG",
      "taf": "TAF LEMD 201700Z 2018/2124 20008KT 9999 SCT045 TX08/2114Z TN05/2107Z"
    },
    {
      "icao": "LEMG",
      "alert": "OK",
      "vis_m": 9999,
      "fzfg": false,
      "metar_trigger": false,
      "taf_trigger": false,
      "metar": "METAR LEMG 202130Z 24003KT 190V290 9999 FEW060 09/05 Q1017 NOSIG",
      "taf": "TAF LEMG 201700Z 2018/2118 30006KT 9999 FEW030 TX13/2114Z TN08/2106Z"
    },
    {
      "icao": "LERS",
      "alert": "OK",
      "vis_m": 9999,
      "fzfg": false,
      "metar_trigger": false,
      "taf_trigger": false,
      "metar": "METAR LERS 202130Z AUTO 04004KT 010V070 CAVOK 10/08 Q1011",
      "taf": "TAF LERS 202000Z 2021/2121 VRB04KT 9999 FEW020 TX15/2112Z TN06/2106Z"
    },
    {
      "icao": "LEVC",
      "alert": "OK",
      "vis_m": 9999,
      "fzfg": false,
      "metar_trigger": false,
      "taf_trigger": false,
      "metar": "METAR LEVC 202130Z 25007KT CAVOK 10/09 Q1012 NOSIG",
      "taf": "TAF LEVC 201700Z 2018/2118 VRB04KT 9999 FEW040 TX16/2112Z TN06/2107Z"
    },
    {
      "icao": "LFLL",
      "alert": "OK",
      "vis_m": 9999,
      "fzfg": false,
      "metar_trigger": false,
      "taf_trigger": false,
      "metar": "METAR LFLL 202130Z 14007KT CAVOK 11/09 Q1012 NOSIG",
      "taf": "TAF LFLL 201700Z 2018/2124 14006KT CAVOK"
    },
    {
      "icao": "LFMN",
      "alert": "OK",
      "vis_m": 9999,
      "fzfg": false,
      "metar_trigger": false,
      "taf_trigger": false,
      "metar": "METAR LFMN 202130Z 33006KT 9999 BKN043 13/11 Q1014 NOSIG",
      "taf": "TAF LFMN 202000Z 2021/2203 33010KT 9999 BKN040"
    },
    {
      "icao": "LFOB",
      "alert": "OK",
      "vis_m": 5000,
      "fzfg": false,
      "metar_trigger": false,
      "taf_trigger": false,
      "metar": "METAR LFOB 202130Z AUTO 13007KT 5000 BR OVC004 09/09 Q1009 TEMPO 0500 FG VV///",
      "taf": "TAF LFOB 201700Z 2018/2118 14005KT 6000 OVC006"
    },
    {
      "icao": "LFPO",
      "alert": "OK",
      "vis_m": 7000,
      "fzfg": false,
      "metar_trigger": false,
      "taf_trigger": false,
      "metar": "METAR LFPO 202130Z 13003KT 7000 FEW004 SCT100 BKN170 09/09 Q1009 TEMPO 4000 BR NSC",
      "taf": ""
    },
    {
      "icao": "LFSB",
      "alert": "OK",
      "vis_m": 9999,
      "fzfg": false,
      "metar_trigger": false,
      "taf_trigger": false,
      "metar": "METAR LFSB 202130Z AUTO 14003KT 080V170 CAVOK 07/04 Q1014 NOSIG",
      "taf": "TAF LFSB 201700Z 2018/2118 VRB03KT CAVOK"
    },
    {
      "icao": "LGAV",
      "alert": "OK",
      "vis_m": 9999,
      "fzfg": false,
      "metar_trigger": false,
      "taf_trigger": false,
      "metar": "METAR LGAV 202120Z 36008KT 9999 SCT025 13/09 Q1016 NOSIG",
      "taf": "TAF LGAV 201700Z 2018/2118 02010KT 9999 SCT020 BKN070"
    },
    {
      "icao": "LGIR",
      "alert": "OK",
      "vis_m": 9999,
      "fzfg": false,
      "metar_trigger": false,
      "taf_trigger": false,
      "metar": "METAR LGIR 202120Z 22004KT 9999 FEW018TCU SCT025 BKN080 13/12 Q1014 NOSIG",
      "taf": "TAF LGIR 201700Z 2018/2118 18008KT 9999 SCT020 BKN080"
    },
    {
      "icao": "LGKR",
      "alert": "OK",
      "vis_m": 9999,
      "fzfg": false,
      "metar_trigger": false,
      "taf_trigger": false,
      "metar": "METAR LGKR 202120Z 00000KT 9999 FEW015 10/10 Q1015 NOSIG",
      "taf": ""
    },
    {
      "icao": "LGRP",
      "alert": "OK",
      "vis_m": 9999,
      "fzfg": false,
      "metar_trigger": false,
      "taf_trigger": false,
      "metar": "METAR LGRP 202120Z VRB03KT 9999 SCT018 14/10 Q1014 NOSIG",
      "taf": "TAF LGRP 201700Z 2018/2118 VRB05KT 9999 SCT020"
    },
    {
      "icao": "LGTS",
      "alert": "OK",
      "vis_m": 8000,
      "fzfg": false,
      "metar_trigger": false,
      "taf_trigger": false,
      "metar": "METAR LGTS 202120Z VRB02KT 8000 FEW010 06/06 Q1018 NOSIG",
      "taf": "TAF LGTS 201700Z 2018/2118 VRB03KT 8000 FEW010"
    },
    {
      "icao": "LGZA",
      "alert": "OK",
      "vis_m": null,
      "fzfg": false,
      "metar_trigger": false,
      "taf_trigger": false,
      "metar": "",
      "taf": "TAF LGZA 202000Z 2021/2106 VRB05KT 9999 SCT020 BKN070"
    },
    {
      "icao": "LHBP",
      "alert": "OK",
      "vis_m": 8000,
      "fzfg": false,
      "metar_trigger": false,
      "taf_trigger": false,
      "metar": "METAR LHBP 202130Z 02003KT 340V050 8000 OVC008 05/04 Q1020 NOSIG",
      "taf": "TAF LHBP 201715Z 2018/2118 VRB03KT 9000 OVC014"
    },
    {
      "icao": "LHDC",
      "alert": "OK",
      "vis_m": 1600,
      "fzfg": false,
      "metar_trigger": false,
      "taf_trigger": false,
      "metar": "METAR LHDC 202115Z AUTO VRB02KT 1600 BR BKN002 05/05 Q1020",
      "taf": "TAF LHDC 201415Z 2015/2024 VRB02KT 0300 FG VV001"
    },
    {
      "icao": "LIBD",
      "alert": "OK",
      "vis_m": 9999,
      "fzfg": false,
      "metar_trigger": false,
      "taf_trigger": false,
      "metar": "METAR LIBD 202120Z VRB02KT 9999 SCT030 09/09 Q1016",
      "taf": "TAF LIBD 201700Z 2018/2118 VRB04KT 9999 SCT040"
    },
    {
      "icao": "LICC",
      "alert": "OK",
      "vis_m": 8000,
      "fzfg": false,
      "metar_trigger": false,
      "taf_trigger": false,
      "metar": "METAR LICC 202120Z 07007KT 8000 DZ FEW005 SCT015 BKN030 15/14 Q1013",
      "taf": "TAF LICC 201700Z 2018/2118 05008KT 9999 SCT010 BKN040"
    },
    {
      "icao": "LICJ",
      "alert": "OK",
      "vis_m": 9999,
      "fzfg": false,
      "metar_trigger": false,
      "taf_trigger": false,
      "metar": "METAR LICJ 202120Z AUTO VRB01KT 9999 FEW045/// BKN084/// 14/12 Q1012",
      "taf": "TAF LICJ 201700Z 2018/2118 VRB06KT 9999 SCT040"
    },
    {
      "icao": "LIEO",
      "alert": "OK",
      "vis_m": 9999,
      "fzfg": false,
      "metar_trigger": false,
      "taf_trigger": false,
      "metar": "METAR LIEO 202120Z VRB01KT 9999 FEW025 10/10 Q1014",
      "taf": ""
    },
    {
      "icao": "LIMC",
      "alert": "OK",
      "vis_m": 2500,
      "fzfg": false,
      "metar_trigger": false,
      "taf_trigger": false,
      "metar": "METAR LIMC 202120Z VRB02KT 2500 R35R/0900N R17L/0600N R35L/1200D BCFG SCT002 BKN070 06/05 Q1017 NOSIG",
      "taf": "TAF LIMC 201700Z 2018/2124 VRB03KT 4000 BR SCT012 BKN070"
    },
    {
      "icao": "LIME",
      "alert": "OK",
      "vis_m": 9999,
      "fzfg": false,
      "metar_trigger": false,
      "taf_trigger": false,
      "metar": "METAR LIME 202120Z VRB01KT 9999 SCT045 07/06 Q1017 NOSIG",
      "taf": "TAF LIME 201700Z 2018/2118 VRB03KT 7000 SCT010 BKN070"
    },
    {
      "icao": "LIPH",
      "alert": "OK",
      "vis_m": 6000,
      "fzfg": false,
      "metar_trigger": false,
      "taf_trigger": false,
      "metar": "METAR LIPH 202120Z 09002KT 6000 R07/1400N MIFG NSC 04/04 Q1017",
      "taf": "TAF LIPH 201700Z 2018/2118 VRB04KT 8000 FEW030"
    },
    {
      "icao": "LIPQ",
      "alert": "OK",
      "vis_m": 1000,
      "fzfg": false,
      "metar_trigger": false,
      "taf_trigger": false,
      "metar": "METAR LIPQ 202120Z AUTO VRB01KT 1000 R09/1400D BCFG NCD 04/04 Q1017",
      "taf": "TAF LIPQ 201700Z 2018/2118 VRB04KT CAVOK"
    },
    {
      "icao": "LIPX",
      "alert": "OK",
      "vis_m": 8000,
      "fzfg": false,
      "metar_trigger": false,
      "taf_trigger": false,
      "metar": "METAR LIPX 202120Z 34003KT 8000 FEW003 05/04 Q1017",
      "taf": ""
    },
    {
      "icao": "LIPY",
      "alert": "OK",
      "vis_m": 3800,
      "fzfg": false,
      "metar_trigger": false,
      "taf_trigger": false,
      "metar": "METAR LIPY 202120Z AUTO 22002KT 3800 BR OVC010/// 10/10 Q1017",
      "taf": "TAF LIPY 201700Z 2018/2118 VRB05KT 8000 OVC013"
    },
    {
      "icao": "LIPZ",
      "alert": "OK",
      "vis_m": 8000,
      "fzfg": false,
      "metar_trigger": false,
      "taf_trigger": false,
      "metar": "METAR LIPZ 202120Z 32001KT 8000 NSC 06/06 Q1017 NOSIG",
      "taf": "TAF LIPZ 201700Z 2018/2124 VRB04KT 8000 FEW020"
    },
    {
      "icao": "LIRA",
      "alert": "OK",
      "vis_m": 9999,
      "fzfg": false,
      "metar_trigger": false,
      "taf_trigger": false,
      "metar": "METAR LIRA 202120Z VRB01KT CAVOK 09/06 Q1015",
      "taf": "TAF LIRA 201700Z 2018/2118 05005KT CAVOK"
    },
    {
      "icao": "LIRN",
      "alert": "OK",
      "vis_m": 9999,
      "fzfg": false,
      "metar_trigger": false,
      "taf_trigger": false,
      "metar": "METAR LIRN 202120Z VRB04KT CAVOK 12/07 Q1015 NOSIG",
      "taf": "TAF LIRN 201700Z 2018/2118 05007KT CAVOK"
    },
    {
      "icao": "LLBG",
      "alert": "OK",
      "vis_m": 9999,
      "fzfg": false,
      "metar_trigger": false,
      "taf_trigger": false,
      "metar": "METAR LLBG 202120Z VRB01KT CAVOK 13/10 Q1016 NOSIG",
      "taf": "TAF LLBG 201703Z 2018/2118 VRB03KT CAVOK"
    },
    {
      "icao": "LMML",
      "alert": "OK",
      "vis_m": 9999,
      "fzfg": false,
      "metar_trigger": false,
      "taf_trigger": false,
      "metar": "METAR LMML 202115Z 17005KT 9999 FEW014 SCT045 15/14 Q1012 NOSIG",
      "taf": "TAF LMML 201700Z 2018/2118 VRB07KT 9999 SCT014"
    },
    {
      "icao": "LOWW",
      "alert": "OK",
      "vis_m": 4500,
      "fzfg": false,
      "metar_trigger": false,
      "taf_trigger": false,
      "metar": "METAR LOWW 202120Z 17006KT 4500 -DZ BR SCT001 OVC002 02/02 Q1020 TEMPO 2000 BR OVC001",
      "taf": "TAF LOWW 202015Z 2021/2203 14005KT 4000 BR SCT001 OVC002 TX04/2202Z TN02/2101Z"
    },
    {
      "icao": "LPFR",
      "alert": "OK",
      "vis_m": 9999,
      "fzfg": false,
      "metar_trigger": false,
      "taf_trigger": false,
      "metar": "METAR LPFR 202130Z 32015KT 9999 FEW005 SCT010 FEW018CB 13/11 Q1015",
      "taf": "TAF LPFR 201700Z 2018/2118 26012KT 9999 BKN018"
    },
    {
      "icao": "LPPR",
      "alert": "OK",
      "vis_m": 6000,
      "fzfg": false,
      "metar_trigger": false,
      "taf_trigger": false,
      "metar": "METAR LPPR 202130Z 17009KT 6000 SHRA BKN016 FEW020CB 10/09 Q1006",
      "taf": "TAF LPPR 201700Z 2018/2118 24013KT 9999 SCT030"
    },
    {
      "icao": "LPPT",
      "alert": "OK",
      "vis_m": 9999,
      "fzfg": false,
      "metar_trigger": false,
      "taf_trigger": false,
      "metar": "METAR LPPT 202130Z 23006KT 9999 -RA FEW016 FEW020TCU SCT040 11/09 Q1012",
      "taf": "TAF LPPT 201700Z 2018/2124 25008KT 9999 SCT025"
    },
    {
      "icao": "LQSA",
      "alert": "OK",
      "vis_m": 3000,
      "fzfg": false,
      "metar_trigger": false,
      "taf_trigger": false,
      "metar": "METAR LQSA 202130Z VRB01KT 3000 BR OVC003 02/02 Q1019 NOSIG",
      "taf": ""
    },
    {
      "icao": "LQTZ",
      "alert": "OK",
      "vis_m": 300,
      "fzfg": false,
      "metar_trigger": false,
      "taf_trigger": false,
      "metar": "METAR LQTZ 202130Z 12002KT 0300 R09/0325N FG VV003 04/04 Q1020",
      "taf": "TAF LQTZ 201700Z 2018/2118 VRB02KT 0400 FG VV002 TX05/2113Z TNM01/2105Z"
    },
    {
      "icao": "LRCL",
      "alert": "OK",
      "vis_m": 6000,
      "fzfg": false,
      "metar_trigger": false,
      "taf_trigger": false,
      "metar": "METAR LRCL 202130Z 00000KT 6000 NSC 04/03 Q1020",
      "taf": "TAF LRCL 202000Z 2021/2106 VRB04KT 5000 BR NSC"
    },
    {
      "icao": "LRCV",
      "alert": "OK",
      "vis_m": 750,
      "fzfg": false,
      "metar_trigger": false,
      "taf_trigger": false,
      "metar": "METAR LRCV 202130Z 00000KT 0750 R26/1100D FG VV002 04/04 Q1021",
      "taf": "TAF LRCV 202000Z 2021/2106 13006KT 0300 FG VV001"
    },
    {
      "icao": "LRIA",
      "alert": "OK",
      "vis_m": 300,
      "fzfg": false,
      "metar_trigger": false,
      "taf_trigger": false,
      "metar": "METAR LRIA 202130Z 11007KT 0300 R14/0650N FG VV001 01/01 Q1021",
      "taf": "TAF LRIA 202000Z 2021/2106 11005KT 0200 FG VV001"
    },
    {
      "icao": "LROP",
      "alert": "OK",
      "vis_m": 1200,
      "fzfg": false,
      "metar_trigger": false,
      "taf_trigger": false,
      "metar": "METAR LROP 202130Z 03003KT 360V070 1200 R08R/P2000 R08L/1600U PRFG BR OVC002 04/04 Q1021 NOSIG",
      "taf": ""
    },
    {
      "icao": "LRSB",
      "alert": "OK",
      "vis_m": 1500,
      "fzfg": false,
      "metar_trigger": false,
      "taf_trigger": false,
      "metar": "METAR LRSB 202130Z 22003KT 1500 BR NSC M00/M00 Q1019",
      "taf": "TAF LRSB 201700Z 2018/2118 VRB04KT 5000 BR NSC"
    },
    {
      "icao": "LRTR",
      "alert": "OK",
      "vis_m": 400,
      "fzfg": false,
      "metar_trigger": false,
      "taf_trigger": false,
      "metar": "METAR LRTR 202130Z 36005KT 0400 R29/1500D FG BKN002 05/05 Q1020",
      "taf": "TAF LRTR 201700Z 2018/2118 10005KT 2000 BR NSC"
    },
    {
      "icao": "LTAF",
      "alert": "OK",
      "vis_m": 9999,
      "fzfg": false,
      "metar_trigger": false,
      "taf_trigger": false,
      "metar": "METAR LTAF 202120Z 03003KT CAVOK 09/06 Q1018 NOSIG RMK RWY23 05005KT SKC",
      "taf": "TAF LTAF 201640Z 2018/2118 VRB02KT CAVOK"
    },
    {
      "icao": "LTAI",
      "alert": "OK",
      "vis_m": 9999,
      "fzfg": false,
      "metar_trigger": false,
      "taf_trigger": false,
      "metar": "METAR LTAI 202120Z 26004KT 9999 SCT030 BKN090 14/05 Q1017 NOSIG RMK RWY18C VRB01KT RWY36R 32002KT RWY18L 00000KT",
      "taf": "TAF LTAI 201640Z 2018/2118 34009KT 9999 SCT030 BKN100"
    },
    {
      "icao": "LTFM",
      "alert": "OK",
      "vis_m": 9999,
      "fzfg": false,
      "metar_trigger": false,
      "taf_trigger": false,
      "metar": "METAR LTFM 202120Z 07005KT 040V120 9999 FEW016 SCT022 BKN180 11/07 Q1018 NOSIG RMK RWY17L VRB02KT RWY34L 05004KT RWY16R 08003KT RWY36 08004KT 010V110 RWY18 08003KT",
      "taf": "TAF LTFM 201640Z 2018/2124 05012KT 9999 SCT016 BKN022"
    },
    {
      "icao": "LUBL",
      "alert": "OK",
      "vis_m": null,
      "fzfg": false,
      "metar_trigger": false,
      "taf_trigger": false,
      "metar": "",
      "taf": ""
    },
    {
      "icao": "LUKK",
      "alert": "OK",
      "vis_m": 900,
      "fzfg": true,
      "metar_trigger": false,
      "taf_trigger": false,
      "metar": "METAR LUKK 202130Z VRB02KT 0900 0600SW R08/0700N FZFG VV002 M00/M00 Q1022 TEMPO 0400 FG",
      "taf": ""
    },
    {
      "icao": "LWSK",
      "alert": "OK",
      "vis_m": 200,
      "fzfg": true,
      "metar_trigger": false,
      "taf_trigger": false,
      "metar": "METAR LWSK 202120Z VRB01KT 0200 R34/0375N FZFG VV002 M01/M01 Q1020 NOSIG",
      "taf": "TAF LWSK 202035Z 2021/2121 VRB02KT 0200 FZFG VV002"
    },
    {
      "icao": "LYBE",
      "alert": "OK",
      "vis_m": 5000,
      "fzfg": false,
      "metar_trigger": false,
      "taf_trigger": false,
      "metar": "METAR LYBE 202130Z 00000KT 5000 BR OVC005 05/05 Q1021 TEMPO 1500",
      "taf": "TAF LYBE 201700Z 2018/2118 27004KT 0300 FG VV001 TX05/2113Z TN02/2106Z"
    },
    {
      "icao": "LZIB",
      "alert": "OK",
      "vis_m": 2400,
      "fzfg": false,
      "metar_trigger": false,
      "taf_trigger": false,
      "metar": "METAR LZIB 202130Z VRB03KT 2400 -DZ BR BKN001 OVC002 03/03 Q1020 BECMG 1200 BR OVC001",
      "taf": ""
    },
    {
      "icao": "LZKZ",
      "alert": "OK",
      "vis_m": 9999,
      "fzfg": false,
      "metar_trigger": false,
      "taf_trigger": false,
      "metar": "METAR LZKZ 202130Z VRB01KT 9999 SCT015 05/03 Q1019 BECMG CAVOK",
      "taf": "TAF LZKZ 201715Z 2018/2118 VRB02KT 5000 SCT011 BKN030"
    },
    {
      "icao": "LZTT",
      "alert": "OK",
      "vis_m": 9999,
      "fzfg": false,
      "metar_trigger": false,
      "taf_trigger": false,
      "metar": "METAR LZTT 202130Z VRB01KT 9999 0700S BCFG BKN002 M03/M03 Q1018",
      "taf": ""
    },
    {
      "icao": "OEJN",
      "alert": "OK",
      "vis_m": 9999,
      "fzfg": false,
      "metar_trigger": false,
      "taf_trigger": false,
      "metar": "METAR OEJN 202100Z 36002KT CAVOK 22/00 Q1012 NOSIG",
      "taf": "TAF OEJN 201700Z 2018/2124 VRB03KT CAVOK"
    },
    {
      "icao": "OEMA",
      "alert": "OK",
      "vis_m": 9999,
      "fzfg": false,
      "metar_trigger": false,
      "taf_trigger": false,
      "metar": "METAR OEMA 202100Z 35004KT CAVOK 12/M07 Q1020 NOSIG",
      "taf": "TAF OEMA 201700Z 2018/2124 VRB03KT CAVOK"
    },
    {
      "icao": "OERK",
      "alert": "OK",
      "vis_m": 9999,
      "fzfg": false,
      "metar_trigger": false,
      "taf_trigger": false,
      "metar": "METAR OERK 202100Z 26003KT CAVOK 09/02 Q1021 NOSIG",
      "taf": "TAF OERK 201700Z 2018/2124 VRB03KT 7000 NSC"
    },
    {
      "icao": "OJAI",
      "alert": "OK",
      "vis_m": 5000,
      "fzfg": false,
      "metar_trigger": false,
      "taf_trigger": false,
      "metar": "METAR OJAI 202100Z 12006KT 5000 BR NSC 09/07 Q1020 NOSIG",
      "taf": ""
    },
    {
      "icao": "OKBK",
      "alert": "OK",
      "vis_m": null,
      "fzfg": false,
      "metar_trigger": false,
      "taf_trigger": false,
      "metar": "",
      "taf": ""
    },
    {
      "icao": "OMAA",
      "alert": "OK",
      "vis_m": 9999,
      "fzfg": false,
      "metar_trigger": false,
      "taf_trigger": false,
      "metar": "METAR OMAA 202100Z 19005KT CAVOK 15/07 Q1018 NOSIG",
      "taf": "TAF OMAA 201700Z 2018/2200 23005KT 9999 FEW040"
    },
    {
      "icao": "UAAA",
      "alert": "OK",
      "vis_m": 5000,
      "fzfg": false,
      "metar_trigger": false,
      "taf_trigger": false,
      "metar": "METAR UAAA 202130Z VRB01MPS 5000 BR FU BKN050 OVC100 00/M03 Q1017 NOSIG",
      "taf": "TAF UAAA 201702Z 2018/2118 23003MPS 3100 BR BKN015CB OVC050 TX00/2107Z TNM03/2101Z"
    },
    {
      "icao": "UCFM",
      "alert": "OK",
      "vis_m": 1500,
      "fzfg": false,
      "metar_trigger": false,
      "taf_trigger": false,
      "metar": "METAR UCFM 202130Z VRB01MPS 1500 0800E R25/P1500N -SHSN BCFG BKN020CB M01/M01 Q1018 NOSIG",
      "taf": ""
    },
    {
      "icao": "UDYZ",
      "alert": "OK",
      "vis_m": 3200,
      "fzfg": false,
      "metar_trigger": false,
      "taf_trigger": false,
      "metar": "METAR UDYZ 202130Z 36001KT 3200 BR NSC M04/M07 Q1025 NOSIG",
      "taf": "TAF UDYZ 201700Z 2018/2118 VRB06KT 3500 BR NSC"
    },
    {
      "icao": "UGTB",
      "alert": "OK",
      "vis_m": 9999,
      "fzfg": false,
      "metar_trigger": false,
      "taf_trigger": false,
      "metar": "METAR UGTB 202130Z 06006KT CAVOK M01/M03 Q1025 NOSIG",
      "taf": "TAF UGTB 201700Z 2018/2118 34007KT CAVOK TX06/2112Z TNM03/2102Z"
    },
    {
      "icao": "UKKK",
      "alert": "OK",
      "vis_m": null,
      "fzfg": false,
      "metar_trigger": false,
      "taf_trigger": false,
      "metar": "",
      "taf": ""
    },
    {
      "icao": "UTTT",
      "alert": "OK",
      "vis_m": null,
      "fzfg": false,
      "metar_trigger": false,
      "taf_trigger": false,
      "metar": "",
      "taf": ""
    }
  ]
}