{
  "ts_utc": "2026-02-03T06:31:41Z",
  "threshold_m": 150,
  "source": "stations_override.txt (ICAO list) + aviationweather.gov (METAR/TAF raw)",
  "station_count": 159,
  "stations": [
    {
      "icao": "BIKF",
      "alert": "OK",
      "vis_m": 9999,
      "fzfg": false,
      "metar_trigger": false,
      "taf_trigger": false,
      "metar": "METAR BIKF 030600Z 11021KT 9999 BKN039 BKN270 06/02 Q1005",
      "taf": "TAF BIKF 030447Z 0306/0406 11022G32KT 9999 -SHRA FEW020 BKN035 TX06/0306Z TN01/0406Z"
    },
    {
      "icao": "BKPR",
      "alert": "OK",
      "vis_m": 1200,
      "fzfg": false,
      "metar_trigger": false,
      "taf_trigger": false,
      "metar": "METAR BKPR 030630Z 17005KT 1200 R17/1500U R35/P2000N BR SCT006 BKN020 M01/M01 Q1016 NOSIG",
      "taf": "TAF BKPR 030530Z 0306/0406 17008KT 1500 BR SCT008"
    },
    {
      "icao": "EBCI",
      "alert": "OK",
      "vis_m": 7000,
      "fzfg": false,
      "metar_trigger": false,
      "taf_trigger": false,
      "metar": "METAR EBCI 030620Z 06010KT 7000 -DZRA FEW012 SCT034 02/01 Q0992 TEMPO 4000 -RADZ BR BKN008",
      "taf": "TAF EBCI 030520Z 0306/0412 11010KT 9999 SCT020 BKN035"
    },
    {
      "icao": "EDDB",
      "alert": "OK",
      "vis_m": 9999,
      "fzfg": false,
      "metar_trigger": false,
      "taf_trigger": false,
      "metar": "METAR EDDB 030620Z AUTO 09014KT 9999 FEW021 M08/M14 Q1012 NOSIG",
      "taf": "TAF EDDB 030500Z 0306/0406 08012G22KT 9999 BKN035"
    },
    {
      "icao": "EDDH",
      "alert": "OK",
      "vis_m": 9999,
      "fzfg": false,
      "metar_trigger": false,
      "taf_trigger": false,
      "metar": "METAR EDDH 030620Z AUTO 10013KT 9999 BKN016 M07/M11 Q1010 TEMPO 09015G25KT",
      "taf": "TAF EDDH 030500Z 0306/0412 09013KT 9999 FEW020 BKN035"
    },
    {
      "icao": "EDDK",
      "alert": "OK",
      "vis_m": 9999,
      "fzfg": false,
      "metar_trigger": false,
      "taf_trigger": false,
      "metar": "METAR EDDK 030620Z AUTO 11007KT 060V150 CAVOK 01/M03 Q0997 NOSIG",
      "taf": "TAF EDDK 030500Z 0306/0412 12010KT 9999 FEW015 BKN045"
    },
    {
      "icao": "EDDN",
      "alert": "OK",
      "vis_m": 9999,
      "fzfg": false,
      "metar_trigger": false,
      "taf_trigger": false,
      "metar": "METAR EDDN 030620Z AUTO 09007KT CAVOK M01/M04 Q1001 NOSIG",
      "taf": ""
    },
    {
      "icao": "EDDS",
      "alert": "OK",
      "vis_m": 9999,
      "fzfg": false,
      "metar_trigger": false,
      "taf_trigger": false,
      "metar": "METAR EDDS 030620Z AUTO 08009KT CAVOK M01/M03 Q0996 TEMPO -FZRA",
      "taf": "TAF EDDS 030500Z 0306/0406 07004KT 9999 BKN045"
    },
    {
      "icao": "EDFH",
      "alert": "OK",
      "vis_m": 5000,
      "fzfg": false,
      "metar_trigger": false,
      "taf_trigger": false,
      "metar": "METAR EDFH 030620Z 13015KT 5000 -FZRA BR SCT004 BKN039 M01/M02 Q0995",
      "taf": "TAF EDFH 030500Z 0306/0406 13015KT 6000 OVC005"
    },
    {
      "icao": "EDJA",
      "alert": "OK",
      "vis_m": 4500,
      "fzfg": false,
      "metar_trigger": false,
      "taf_trigger": false,
      "metar": "METAR EDJA 030620Z 06009KT 4500 BR OVC004 M02/M03 Q0996",
      "taf": "TAF EDJA 030500Z 0306/0315 06007KT 6000 BKN004"
    },
    {
      "icao": "EDLW",
      "alert": "OK",
      "vis_m": 9999,
      "fzfg": false,
      "metar_trigger": false,
      "taf_trigger": false,
      "metar": "METAR EDLW 030620Z 03012KT CAVOK M02/M04 Q0998",
      "taf": "TAF EDLW 030500Z 0306/0406 08010KT 9999 SCT045"
    },
    {
      "icao": "EDNY",
      "alert": "OK",
      "vis_m": 9999,
      "fzfg": false,
      "metar_trigger": false,
      "taf_trigger": false,
      "metar": "METAR EDNY 030550Z 04014KT CAVOK 00/M02 Q0995",
      "taf": "TAF EDNY 030500Z 0306/0315 03009KT CAVOK"
    },
    {
      "icao": "EDSB",
      "alert": "OK",
      "vis_m": 9000,
      "fzfg": false,
      "metar_trigger": false,
      "taf_trigger": false,
      "metar": "METAR EDSB 030620Z 02012KT 9000 NSC 02/M01 Q0995",
      "taf": "TAF EDSB 030500Z 0306/0406 03009KT 8000 BKN045"
    },
    {
      "icao": "EETN",
      "alert": "OK",
      "vis_m": 9999,
      "fzfg": false,
      "metar_trigger": false,
      "taf_trigger": false,
      "metar": "METAR EETN 030620Z 05007KT CAVOK M09/M11 Q1026 NOSIG",
      "taf": "TAF EETN 030530Z 0306/0406 03008KT CAVOK"
    },
    {
      "icao": "EFTU",
      "alert": "OK",
      "vis_m": 9999,
      "fzfg": false,
      "metar_trigger": false,
      "taf_trigger": false,
      "metar": "METAR EFTU 030620Z AUTO 04002KT CAVOK M22/M24 Q1028",
      "taf": "TAF EFTU 030522Z 0306/0406 04003KT CAVOK"
    },
    {
      "icao": "EGBB",
      "alert": "OK",
      "vis_m": 7000,
      "fzfg": false,
      "metar_trigger": false,
      "taf_trigger": false,
      "metar": "METAR EGBB 030620Z 08010KT 050V110 7000 OVC009 04/02 Q0993",
      "taf": "TAF EGBB 030500Z 0306/0406 08012KT 7000 BKN010"
    },
    {
      "icao": "EGGP",
      "alert": "OK",
      "vis_m": 9999,
      "fzfg": false,
      "metar_trigger": false,
      "taf_trigger": false,
      "metar": "METAR EGGP 030620Z 08012KT 9999 BKN030 05/01 Q0994",
      "taf": "TAF EGGP 030502Z 0306/0406 09014KT 9999 BKN018"
    },
    {
      "icao": "EGGW",
      "alert": "OK",
      "vis_m": 8000,
      "fzfg": false,
      "metar_trigger": false,
      "taf_trigger": false,
      "metar": "METAR EGGW 030620Z AUTO 09013G23KT 060V120 8000 OVC007 04/03 Q0992",
      "taf": "TAF EGGW 030459Z 0306/0406 08012KT 9999 SCT007 BKN010"
    },
    {
      "icao": "EGKK",
      "alert": "OK",
      "vis_m": 9000,
      "fzfg": false,
      "metar_trigger": false,
      "taf_trigger": false,
      "metar": "METAR EGKK 030620Z 07011KT 9000 -RA BKN008 05/05 Q0991",
      "taf": "TAF EGKK 030459Z 0306/0412 08010KT 9999 BKN010"
    },
    {
      "icao": "EGNM",
      "alert": "OK",
      "vis_m": 8000,
      "fzfg": false,
      "metar_trigger": false,
      "taf_trigger": false,
      "metar": "METAR EGNM 030620Z 08013G23KT 8000 -RA SCT007 BKN009 02/01 Q0996",
      "taf": "TAF EGNM 030531Z 0306/0406 09010KT 3000 BR BKN004"
    },
    {
      "icao": "EGPD",
      "alert": "OK",
      "vis_m": 6000,
      "fzfg": false,
      "metar_trigger": false,
      "taf_trigger": false,
      "metar": "METAR EGPD 030620Z AUTO 10015KT 6000 -RA BKN010 BKN014 OVC019 02/01 Q1005 TEMPO 4000 RASN BKN009",
      "taf": "TAF EGPD 030455Z 0306/0406 10012KT 9999 SCT010 BKN020"
    },
    {
      "icao": "EGPF",
      "alert": "OK",
      "vis_m": 8000,
      "fzfg": false,
      "metar_trigger": false,
      "taf_trigger": false,
      "metar": "METAR EGPF 030620Z AUTO 07015KT 8000 -RA BKN016 OVC039 05/03 Q0999",
      "taf": "TAF EGPF 030454Z 0306/0406 08012KT 9999 SCT030"
    },
    {
      "icao": "EHBK",
      "alert": "OK",
      "vis_m": 9999,
      "fzfg": false,
      "metar_trigger": false,
      "taf_trigger": false,
      "metar": "METAR EHBK 030625Z AUTO 08012KT 050V110 9999 BKN046 02/M01 Q0995 NOSIG",
      "taf": "TAF EHBK 030511Z 0306/0412 08010KT 9999 SCT045"
    },
    {
      "icao": "EHEH",
      "alert": "OK",
      "vis_m": null,
      "fzfg": false,
      "metar_trigger": false,
      "taf_trigger": false,
      "metar": "",
      "taf": "TAF EHEH 030552Z 0306/0412 08011KT 9000 BKN018"
    },
    {
      "icao": "EKBI",
      "alert": "OK",
      "vis_m": 9999,
      "fzfg": false,
      "metar_trigger": false,
      "taf_trigger": false,
      "metar": "METAR EKBI 030620Z AUTO 10022G36KT 9999 OVC032/// M03/M13 Q1013",
      "taf": "TAF EKBI 030527Z 0306/0406 10018KT 9999 BKN030"
    },
    {
      "icao": "EKCH",
      "alert": "OK",
      "vis_m": 9999,
      "fzfg": false,
      "metar_trigger": false,
      "taf_trigger": false,
      "metar": "METAR EKCH 030620Z AUTO 10018KT 9999 NCD M04/M10 Q1019 TEMPO 10018G28KT",
      "taf": "TAF EKCH 030527Z 0306/0406 10020G30KT 9999 FEW030"
    },
    {
      "icao": "ENAL",
      "alert": "OK",
      "vis_m": 9999,
      "fzfg": false,
      "metar_trigger": false,
      "taf_trigger": false,
      "metar": "METAR ENAL 030620Z 14012KT 9999 BKN033 M02/M08 Q1018",
      "taf": "TAF ENAL 030500Z 0306/0315 14012KT 9999 BKN035"
    },
    {
      "icao": "ENBR",
      "alert": "OK",
      "vis_m": 9999,
      "fzfg": false,
      "metar_trigger": false,
      "taf_trigger": false,
      "metar": "METAR ENBR 030620Z 05002KT CAVOK M08/M17 Q1019 NOSIG RMK WIND 1200FT 11005KT",
      "taf": "TAF ENBR 030500Z 0306/0406 06005KT CAVOK"
    },
    {
      "icao": "ENGM",
      "alert": "OK",
      "vis_m": 9999,
      "fzfg": false,
      "metar_trigger": false,
      "taf_trigger": false,
      "metar": "METAR ENGM 030620Z 01002KT 9999 -SN FEW029 OVC040 M10/M12 Q1025 NOSIG",
      "taf": ""
    },
    {
      "icao": "ENHD",
      "alert": "OK",
      "vis_m": 9999,
      "fzfg": false,
      "metar_trigger": false,
      "taf_trigger": false,
      "metar": "METAR ENHD 030620Z 09011KT CAVOK M04/M16 Q1018",
      "taf": "TAF ENHD 030500Z 0306/0315 12010KT CAVOK"
    },
    {
      "icao": "ENTC",
      "alert": "OK",
      "vis_m": 9999,
      "fzfg": false,
      "metar_trigger": false,
      "taf_trigger": false,
      "metar": "METAR ENTC 030620Z 20009KT 9999 BKN037 M00/M03 Q1023 NOSIG RMK WIND 2600FT 24007KT",
      "taf": "TAF ENTC 030500Z 0306/0406 21009KT 9999 FEW020 BKN050"
    },
    {
      "icao": "ENTO",
      "alert": "OK",
      "vis_m": 9999,
      "fzfg": false,
      "metar_trigger": false,
      "taf_trigger": false,
      "metar": "METAR ENTO 030620Z 09005KT 040V120 9999 OVC041 M06/M09 Q1024 NOSIG",
      "taf": "TAF ENTO 030500Z 0306/0406 09005KT 9999 BKN040"
    },
    {
      "icao": "ENVA",
      "alert": "OK",
      "vis_m": 9999,
      "fzfg": false,
      "metar_trigger": false,
      "taf_trigger": false,
      "metar": "METAR ENVA 030620Z 08006KT CAVOK M10/M17 Q1022 NOSIG RMK WIND 670FT 14014KT",
      "taf": "TAF ENVA 030500Z 0306/0406 09007KT CAVOK"
    },
    {
      "icao": "ENZV",
      "alert": "OK",
      "vis_m": 9999,
      "fzfg": false,
      "metar_trigger": false,
      "taf_trigger": false,
      "metar": "METAR ENZV 030620Z 09010KT CAVOK M04/M14 Q1018 NOSIG",
      "taf": "TAF ENZV 030500Z 0306/0406 09010KT CAVOK"
    },
    {
      "icao": "EPGD",
      "alert": "OK",
      "vis_m": 5000,
      "fzfg": false,
      "metar_trigger": false,
      "taf_trigger": false,
      "metar": "METAR EPGD 030600Z 29002KT 5000 BR NSC M19/M21 Q1021",
      "taf": "TAF EPGD 030530Z 0306/0406 VRB03KT CAVOK"
    },
    {
      "icao": "EPKK",
      "alert": "OK",
      "vis_m": 9999,
      "fzfg": false,
      "metar_trigger": false,
      "taf_trigger": false,
      "metar": "METAR EPKK 030600Z 07010KT 9999 OVC061 M11/M15 Q1014",
      "taf": "TAF EPKK 030530Z 0306/0406 06012KT 9999 BKN050"
    },
    {
      "icao": "EPKT",
      "alert": "OK",
      "vis_m": 9999,
      "fzfg": false,
      "metar_trigger": false,
      "taf_trigger": false,
      "metar": "METAR EPKT 030600Z 08010KT 9999 -SN FEW008 M09/M14 Q1013",
      "taf": "TAF EPKT 030530Z 0306/0406 08010KT 9999 BKN040"
    },
    {
      "icao": "EPLB",
      "alert": "OK",
      "vis_m": 6000,
      "fzfg": false,
      "metar_trigger": false,
      "taf_trigger": false,
      "metar": "METAR EPLB 030600Z 06004KT 6000 NSC M22/M25 Q1019",
      "taf": "TAF EPLB 030530Z 0306/0406 07002KT 4000 BR NSC"
    },
    {
      "icao": "EPMO",
      "alert": "OK",
      "vis_m": 6000,
      "fzfg": false,
      "metar_trigger": false,
      "taf_trigger": false,
      "metar": "METAR EPMO 030600Z 03004KT 6000 NSC M23/M24 Q1020",
      "taf": "TAF EPMO 030530Z 0306/0406 07005KT 8000 NSC"
    },
    {
      "icao": "EPPO",
      "alert": "OK",
      "vis_m": 9999,
      "fzfg": false,
      "metar_trigger": false,
      "taf_trigger": false,
      "metar": "METAR EPPO 030600Z 09013KT CAVOK M12/M20 Q1017",
      "taf": "TAF EPPO 030530Z 0306/0406 09014KT CAVOK"
    },
    {
      "icao": "EPRA",
      "alert": "OK",
      "vis_m": 9999,
      "fzfg": false,
      "metar_trigger": false,
      "taf_trigger": false,
      "metar": "METAR EPRA 030600Z 07002KT CAVOK M21/M24 Q1018",
      "taf": "TAF EPRA 030530Z 0306/0315 09006KT CAVOK"
    },
    {
      "icao": "EPRZ",
      "alert": "OK",
      "vis_m": 9999,
      "fzfg": false,
      "metar_trigger": false,
      "taf_trigger": false,
      "metar": "METAR EPRZ 030600Z 07010KT 9999 OVC011 M10/M15 Q1016",
      "taf": "TAF EPRZ 030530Z 0306/0406 05008KT 9999 OVC012"
    },
    {
      "icao": "EPSC",
      "alert": "OK",
      "vis_m": 9999,
      "fzfg": false,
      "metar_trigger": false,
      "taf_trigger": false,
      "metar": "METAR EPSC 030600Z 08010KT CAVOK M10/M19 Q1017",
      "taf": "TAF EPSC 030530Z 0306/0406 09012KT CAVOK"
    },
    {
      "icao": "EPSY",
      "alert": "OK",
      "vis_m": 9999,
      "fzfg": false,
      "metar_trigger": false,
      "taf_trigger": false,
      "metar": "METAR EPSY 030600Z 02001KT CAVOK M27/M29 Q1020",
      "taf": "TAF EPSY 030530Z 0306/0315 VRB02KT CAVOK"
    },
    {
      "icao": "EPWA",
      "alert": "OK",
      "vis_m": 9999,
      "fzfg": false,
      "metar_trigger": false,
      "taf_trigger": false,
      "metar": "METAR EPWA 030600Z 10004KT 040V120 CAVOK M18/M21 Q1020 NOSIG",
      "taf": "TAF EPWA 030530Z 0306/0406 09006KT CAVOK"
    },
    {
      "icao": "EPWR",
      "alert": "OK",
      "vis_m": 9999,
      "fzfg": false,
      "metar_trigger": false,
      "taf_trigger": false,
      "metar": "METAR EPWR 030600Z 10011KT 9999 BKN018 M08/M13 Q1014",
      "taf": "TAF EPWR 030530Z 0306/0406 09012KT 9999 BKN020"
    },
    {
      "icao": "ESGG",
      "alert": "OK",
      "vis_m": 9999,
      "fzfg": false,
      "metar_trigger": false,
      "taf_trigger": false,
      "metar": "METAR ESGG 030620Z 11011KT CAVOK M07/M10 Q1021",
      "taf": "TAF ESGG 030530Z 0306/0406 09010KT CAVOK"
    },
    {
      "icao": "ESKN",
      "alert": "OK",
      "vis_m": 9999,
      "fzfg": false,
      "metar_trigger": false,
      "taf_trigger": false,
      "metar": "METAR ESKN 030620Z 07005KT CAVOK M09/M11 Q1028",
      "taf": "TAF ESKN 030530Z 0306/0406 06005KT 9999 BKN030"
    },
    {
      "icao": "ESMS",
      "alert": "OK",
      "vis_m": 9999,
      "fzfg": false,
      "metar_trigger": false,
      "taf_trigger": false,
      "metar": "METAR ESMS 030620Z 11014KT CAVOK M05/M10 Q1019",
      "taf": "TAF ESMS 030527Z 0306/0406 10015KT 9999 FEW030"
    },
    {
      "icao": "ESSA",
      "alert": "OK",
      "vis_m": 9999,
      "fzfg": false,
      "metar_trigger": false,
      "taf_trigger": false,
      "metar": "METAR ESSA 030620Z 36002KT 9999 BKN023 M19/M21 Q1029 NOSIG",
      "taf": "TAF ESSA 030530Z 0306/0406 06005KT CAVOK"
    },
    {
      "icao": "EYKA",
      "alert": "OK",
      "vis_m": 4700,
      "fzfg": false,
      "metar_trigger": false,
      "taf_trigger": false,
      "metar": "METAR EYKA 030620Z VRB01KT 4700 HZ NSC M21/M24 Q1022",
      "taf": "TAF EYKA 030500Z 0306/0406 VRB03KT 5000 BR NSC"
    },
    {
      "icao": "EYPA",
      "alert": "OK",
      "vis_m": 9999,
      "fzfg": false,
      "metar_trigger": false,
      "taf_trigger": false,
      "metar": "METAR EYPA 030620Z 08003KT CAVOK M16/M19 Q1023",
      "taf": "TAF EYPA 030500Z 0306/0406 VRB03KT 9000 NSC"
    },
    {
      "icao": "EYVI",
      "alert": "OK",
      "vis_m": 6000,
      "fzfg": false,
      "metar_trigger": false,
      "taf_trigger": false,
      "metar": "METAR EYVI 030620Z VRB01KT 6000 NSC M20/M22 Q1020 NOSIG",
      "taf": "TAF EYVI 030500Z 0306/0406 VRB04KT 5000 BR NSC"
    },
    {
      "icao": "GCFV",
      "alert": "OK",
      "vis_m": 8000,
      "fzfg": false,
      "metar_trigger": false,
      "taf_trigger": false,
      "metar": "METAR GCFV 030600Z 31012KT 280V340 8000 FEW032 BKN035 16/13 Q1017 REDZ",
      "taf": "TAF GCFV 030200Z 0303/0403 30005KT 9999 SCT030 TX22/0314Z TN16/0306Z"
    },
    {
      "icao": "GCLP",
      "alert": "OK",
      "vis_m": 9999,
      "fzfg": false,
      "metar_trigger": false,
      "taf_trigger": false,
      "metar": "METAR GCLP 030600Z 34013KT 9999 FEW035 17/11 Q1017 NOSIG",
      "taf": "TAF GCLP 030200Z 0303/0403 36012KT 9999 SCT035 TX22/0314Z TN15/0306Z"
    },
    {
      "icao": "GCTS",
      "alert": "OK",
      "vis_m": 9999,
      "fzfg": false,
      "metar_trigger": false,
      "taf_trigger": false,
      "metar": "METAR GCTS 030600Z VRB02KT 9999 FEW030 16/11 Q1017 NOSIG",
      "taf": "TAF GCTS 030200Z 0303/0403 VRB05KT 9999 SCT030 TX23/0314Z TN15/0306Z"
    },
    {
      "icao": "GMAD",
      "alert": "OK",
      "vis_m": 6000,
      "fzfg": false,
      "metar_trigger": false,
      "taf_trigger": false,
      "metar": "METAR GMAD 030600Z 23003KT 6000 BKN026 12/12 Q1015 NOSIG",
      "taf": "TAF GMAD 030500Z 0306/0412 06008KT 8000 BKN020"
    },
    {
      "icao": "GMMN",
      "alert": "OK",
      "vis_m": 9999,
      "fzfg": false,
      "metar_trigger": false,
      "taf_trigger": false,
      "metar": "METAR GMMN 030600Z 22013KT 9999 FEW008 SCT020 10/09 Q1011 NOSIG",
      "taf": "TAF GMMN 030500Z 0306/0412 20014KT 9999 SCT010 SCT020"
    },
    {
      "icao": "GMMX",
      "alert": "OK",
      "vis_m": 8000,
      "fzfg": false,
      "metar_trigger": false,
      "taf_trigger": false,
      "metar": "METAR GMMX 030600Z 23007KT 8000 SCT016 BKN023 10/08 Q1014 NOSIG",
      "taf": "TAF GMMX 030500Z 0306/0412 24006KT 8000 SCT023 SCT080"
    },
    {
      "icao": "HEGN",
      "alert": "OK",
      "vis_m": 9999,
      "fzfg": false,
      "metar_trigger": false,
      "taf_trigger": false,
      "metar": "METAR HEGN 030600Z 30014KT CAVOK 18/01 Q1020 NOSIG",
      "taf": "TAF HEGN 030500Z 0306/0412 32013G26KT 6000 NSC"
    },
    {
      "icao": "HEMA",
      "alert": "OK",
      "vis_m": 9999,
      "fzfg": false,
      "metar_trigger": false,
      "taf_trigger": false,
      "metar": "METAR HEMA 030600Z 32015KT CAVOK 20/03 Q1019 NOSIG",
      "taf": "TAF HEMA 030500Z 0306/0412 33008G20KT 6000 NSC"
    },
    {
      "icao": "HESH",
      "alert": "OK",
      "vis_m": 9999,
      "fzfg": false,
      "metar_trigger": false,
      "taf_trigger": false,
      "metar": "METAR HESH 030600Z 34008KT CAVOK 20/07 Q1018 NOSIG",
      "taf": "TAF HESH 030500Z 0306/0412 33008G20KT 6000 NSC"
    },
    {
      "icao": "HESX",
      "alert": "OK",
      "vis_m": 9999,
      "fzfg": false,
      "metar_trigger": false,
      "taf_trigger": false,
      "metar": "METAR HESX 030600Z 20008KT CAVOK 10/03 Q1020 NOSIG",
      "taf": "TAF HESX 030500Z 0306/0412 26008KT CAVOK"
    },
    {
      "icao": "LATI",
      "alert": "OK",
      "vis_m": 9999,
      "fzfg": false,
      "metar_trigger": false,
      "taf_trigger": false,
      "metar": "METAR LATI 030620Z 18007KT 9999 SCT057 06/03 Q1015 NOSIG",
      "taf": "TAF LATI 030500Z 0306/0406 VRB05KT 9999 FEW030 BKN070 TX16/0312Z TN07/0405Z"
    },
    {
      "icao": "LBPD",
      "alert": "OK",
      "vis_m": 9999,
      "fzfg": false,
      "metar_trigger": false,
      "taf_trigger": false,
      "metar": "METAR LBPD 030630Z AUTO 12004KT 090V150 9999 OVC009/// M02/M03 Q1021 NOSIG",
      "taf": "TAF LBPD 030500Z 0306/0406 VRB03KT 8000 SCT008 BKN015"
    },
    {
      "icao": "LBSF",
      "alert": "OK",
      "vis_m": 9999,
      "fzfg": false,
      "metar_trigger": false,
      "taf_trigger": false,
      "metar": "METAR LBSF 030630Z VRB02KT 9999 OVC010 M02/M04 Q1017 NOSIG",
      "taf": "TAF LBSF 030500Z 0306/0406 VRB03KT 9999 BKN015 OVC030"
    },
    {
      "icao": "LBWN",
      "alert": "OK",
      "vis_m": 9999,
      "fzfg": false,
      "metar_trigger": false,
      "taf_trigger": false,
      "metar": "METAR LBWN 030630Z 25004KT 9999 BKN033 M05/M08 Q1022 NOSIG",
      "taf": "TAF LBWN 030500Z 0306/0406 VRB04KT 9999 BKN040"
    },
    {
      "icao": "LCLK",
      "alert": "OK",
      "vis_m": 9999,
      "fzfg": false,
      "metar_trigger": false,
      "taf_trigger": false,
      "metar": "METAR LCLK 030600Z 29004KT 210V340 9999 FEW020 12/09 Q1014 NOSIG",
      "taf": "TAF LCLK 030530Z 0306/0406 24010KT 9999 FEW020"
    },
    {
      "icao": "LCPH",
      "alert": "OK",
      "vis_m": 9999,
      "fzfg": false,
      "metar_trigger": false,
      "taf_trigger": false,
      "metar": "METAR LCPH 030600Z 31023KT 9999 FEW025 16/10 Q1015 NOSIG",
      "taf": "TAF LCPH 030530Z 0306/0406 29020G30KT 9999 FEW020"
    },
    {
      "icao": "LEAL",
      "alert": "OK",
      "vis_m": 9999,
      "fzfg": false,
      "metar_trigger": false,
      "taf_trigger": false,
      "metar": "METAR LEAL 030600Z COR 30004KT 9999 FEW015 06/03 Q1004 NOSIG",
      "taf": "TAF LEAL 030500Z 0306/0406 26005KT 9999 FEW030 TX16/0313Z TN05/0306Z"
    },
    {
      "icao": "LEBB",
      "alert": "OK",
      "vis_m": 9999,
      "fzfg": false,
      "metar_trigger": false,
      "taf_trigger": false,
      "metar": "METAR LEBB 030600Z 19010G20KT 140V260 CAVOK 11/02 Q0996 NOSIG",
      "taf": "TAF LEBB 030500Z 0306/0406 21009KT 9999 SCT040 TX14/0314Z TN07/0406Z"
    },
    {
      "icao": "LEBL",
      "alert": "OK",
      "vis_m": 9999,
      "fzfg": false,
      "metar_trigger": false,
      "taf_trigger": false,
      "metar": "METAR LEBL 030600Z 34004KT 290V040 9999 FEW020 06/04 Q1001 NOSIG",
      "taf": "TAF LEBL 030500Z 0306/0406 29005KT 9999 FEW020 TX15/0314Z TN08/0306Z"
    },
    {
      "icao": "LECH",
      "alert": "OK",
      "vis_m": 9999,
      "fzfg": false,
      "metar_trigger": false,
      "taf_trigger": false,
      "metar": "METAR LECH 030600Z AUTO VRB01KT CAVOK 06/00 Q1001",
      "taf": ""
    },
    {
      "icao": "LEMD",
      "alert": "OK",
      "vis_m": 9000,
      "fzfg": false,
      "metar_trigger": false,
      "taf_trigger": false,
      "metar": "METAR LEMD 030600Z 16005KT 9000 -RA SCT025 BKN040 04/04 Q1000 NOSIG",
      "taf": ""
    },
    {
      "icao": "LEMG",
      "alert": "OK",
      "vis_m": 9999,
      "fzfg": false,
      "metar_trigger": false,
      "taf_trigger": false,
      "metar": "METAR LEMG 030600Z VRB01KT 9999 FEW030 SCT050 BKN080 08/07 Q1006 NOSIG",
      "taf": "TAF LEMG 030500Z 0306/0406 29005KT 9999 FEW025 SCT040 TX17/0314Z TN09/0307Z"
    },
    {
      "icao": "LEVC",
      "alert": "OK",
      "vis_m": 9999,
      "fzfg": false,
      "metar_trigger": false,
      "taf_trigger": false,
      "metar": "METAR LEVC 030600Z 24009KT 9999 FEW050 09/03 Q1003 NOSIG",
      "taf": "TAF LEVC 030500Z 0306/0406 25007KT 9999 FEW030 TX16/0313Z TN08/0306Z"
    },
    {
      "icao": "LEXJ",
      "alert": "OK",
      "vis_m": 9999,
      "fzfg": false,
      "metar_trigger": false,
      "taf_trigger": false,
      "metar": "METAR LEXJ 030600Z 21011G22KT 160V260 9999 FEW085 11/02 Q0994",
      "taf": "TAF LEXJ 030200Z 0303/0403 23009KT 9999 FEW040 TX15/0312Z TN09/0304Z"
    },
    {
      "icao": "LEZG",
      "alert": "OK",
      "vis_m": 9999,
      "fzfg": false,
      "metar_trigger": false,
      "taf_trigger": false,
      "metar": "METAR LEZG 030600Z 20008KT 9999 SCT045 08/03 Q1000 NOSIG",
      "taf": "TAF LEZG 030500Z 0306/0406 23009KT 9999 FEW050 TX13/0314Z TN04/0306Z"
    },
    {
      "icao": "LEZL",
      "alert": "OK",
      "vis_m": 9999,
      "fzfg": false,
      "metar_trigger": false,
      "taf_trigger": false,
      "metar": "METAR LEZL 030600Z 19008KT 150V240 9999 FEW035 SCT044 10/08 Q1005 NOSIG",
      "taf": "TAF LEZL 030200Z 0303/0403 22008KT 9999 SCT020 TX15/0315Z TN08/0307Z"
    },
    {
      "icao": "LFBD",
      "alert": "OK",
      "vis_m": 5000,
      "fzfg": false,
      "metar_trigger": false,
      "taf_trigger": false,
      "metar": "METAR LFBD 030600Z AUTO 25013KT 5000 RA BR FEW012/// BKN036/// OVC044/// ///CB 08/07 Q0996 TEMPO 20015G25KT 2000 -TSRA",
      "taf": "TAF LFBD 030500Z 0306/0412 22010KT CAVOK TX14/0314Z TN05/0406Z"
    },
    {
      "icao": "LFLL",
      "alert": "OK",
      "vis_m": 9999,
      "fzfg": false,
      "metar_trigger": false,
      "taf_trigger": false,
      "metar": "METAR LFLL 030600Z 19014KT 9999 -RA FEW018 BKN035 BKN046 08/06 Q0996 NOSIG",
      "taf": "TAF LFLL 030500Z 0306/0412 17010KT CAVOK"
    },
    {
      "icao": "LFLS",
      "alert": "OK",
      "vis_m": 9999,
      "fzfg": false,
      "metar_trigger": false,
      "taf_trigger": false,
      "metar": "METAR LFLS 030600Z AUTO 18015KT 9999 RA BKN042/// OVC048/// ///CB 07/05 Q0996 TEMPO NSW BKN015",
      "taf": "TAF LFLS 030200Z 0303/0403 18007KT 9999 BKN040"
    },
    {
      "icao": "LFMN",
      "alert": "OK",
      "vis_m": 9999,
      "fzfg": false,
      "metar_trigger": false,
      "taf_trigger": false,
      "metar": "METAR LFMN 030600Z 02004KT 340V080 9999 FEW012 SCT018 BKN025 11/09 Q1001 RERA TEMPO VRB10KT",
      "taf": "TAF LFMN 030200Z 0303/0409 08025KT 6000 SHRA SCT010 SCT020TCU BKN025"
    },
    {
      "icao": "LFOB",
      "alert": "OK",
      "vis_m": 9999,
      "fzfg": false,
      "metar_trigger": false,
      "taf_trigger": false,
      "metar": "METAR LFOB 030600Z AUTO 08007KT 050V120 9999 OVC008 06/05 Q0989 TEMPO 4000 RA BKN004 BECMG 22010KT",
      "taf": ""
    },
    {
      "icao": "LFPO",
      "alert": "OK",
      "vis_m": 8000,
      "fzfg": false,
      "metar_trigger": false,
      "taf_trigger": false,
      "metar": "METAR LFPO 030600Z 10005KT 8000 -RA BKN006 08/08 Q0988 TEMPO 2500 RADZ BKN004",
      "taf": "TAF LFPO 030500Z 0306/0412 10008KT 9999 BKN012"
    },
    {
      "icao": "LFSB",
      "alert": "OK",
      "vis_m": 650,
      "fzfg": false,
      "metar_trigger": false,
      "taf_trigger": false,
      "metar": "METAR LFSB 030600Z AUTO 32007KT 0650 0600 R15/0750N R33/0900U FG VV/// 03/03 Q0994 TEMPO 0300",
      "taf": "TAF LFSB 030500Z 0306/0406 33004KT 0700 FG VV///"
    },
    {
      "icao": "LGAV",
      "alert": "OK",
      "vis_m": 9999,
      "fzfg": false,
      "metar_trigger": false,
      "taf_trigger": false,
      "metar": "METAR LGAV 030620Z 31002KT CAVOK 05/02 Q1019 NOSIG",
      "taf": "TAF LGAV 030500Z 0306/0406 VRB05KT 9999 FEW020"
    },
    {
      "icao": "LGTS",
      "alert": "OK",
      "vis_m": 9999,
      "fzfg": false,
      "metar_trigger": false,
      "taf_trigger": false,
      "metar": "METAR LGTS 030620Z 00000KT 9999 SCT020 05/05 Q1019 NOSIG",
      "taf": ""
    },
    {
      "icao": "LHBP",
      "alert": "OK",
      "vis_m": 8000,
      "fzfg": false,
      "metar_trigger": false,
      "taf_trigger": false,
      "metar": "METAR LHBP 030600Z 11010KT 8000 -SN BKN010 OVC020 M03/M04 Q1014 TEMPO 4000 SN BKN009 OVC020",
      "taf": "TAF LHBP 030515Z 0306/0406 11012KT 7000 -SN FEW008 OVC030"
    },
    {
      "icao": "LHDC",
      "alert": "OK",
      "vis_m": 8000,
      "fzfg": false,
      "metar_trigger": false,
      "taf_trigger": false,
      "metar": "METAR LHDC 030545Z AUTO 08006KT 8000 FEW020 BKN044 M01/M02 Q1016 NOSIG",
      "taf": "TAF LHDC 030515Z 0306/0315 09005KT CAVOK"
    },
    {
      "icao": "LIBD",
      "alert": "OK",
      "vis_m": 9999,
      "fzfg": false,
      "metar_trigger": false,
      "taf_trigger": false,
      "metar": "METAR LIBD 030620Z 14006KT CAVOK 07/06 Q1011",
      "taf": "TAF LIBD 030500Z 0306/0406 18010KT 9999 FEW030"
    },
    {
      "icao": "LIBG",
      "alert": "OK",
      "vis_m": null,
      "fzfg": false,
      "metar_trigger": false,
      "taf_trigger": false,
      "metar": "",
      "taf": ""
    },
    {
      "icao": "LIBP",
      "alert": "OK",
      "vis_m": 9999,
      "fzfg": false,
      "metar_trigger": false,
      "taf_trigger": false,
      "metar": "METAR LIBP 030620Z AUTO VRB02KT 9999 OVC180/// 05/04 Q1008",
      "taf": "TAF LIBP 030500Z 0306/0406 VRB05KT 9999 SCT050"
    },
    {
      "icao": "LIBR",
      "alert": "OK",
      "vis_m": 9999,
      "fzfg": false,
      "metar_trigger": false,
      "taf_trigger": false,
      "metar": "METAR LIBR 030620Z 16006KT 9999 FEW025 10/08 Q1013",
      "taf": "TAF LIBR 030500Z 0306/0406 16010KT 9999 FEW030"
    },
    {
      "icao": "LICA",
      "alert": "OK",
      "vis_m": 9999,
      "fzfg": false,
      "metar_trigger": false,
      "taf_trigger": false,
      "metar": "METAR LICA 030620Z AUTO 07014KT 9999 NCD 11/08 Q1012",
      "taf": "TAF LICA 030500Z 0306/0406 07013KT 9999 SCT025"
    },
    {
      "icao": "LICC",
      "alert": "OK",
      "vis_m": 9999,
      "fzfg": false,
      "metar_trigger": false,
      "taf_trigger": false,
      "metar": "METAR LICC 030620Z 24006KT CAVOK 07/04 Q1014",
      "taf": "TAF LICC 030500Z 0306/0406 24014KT 9999 FEW030"
    },
    {
      "icao": "LICJ",
      "alert": "OK",
      "vis_m": 9999,
      "fzfg": false,
      "metar_trigger": false,
      "taf_trigger": false,
      "metar": "METAR LICJ 030620Z 19022KT CAVOK 18/06 Q1008 WS R20",
      "taf": "TAF LICJ 030500Z 0306/0406 18018G28KT 9999 SCT030"
    },
    {
      "icao": "LIMC",
      "alert": "OK",
      "vis_m": 2500,
      "fzfg": false,
      "metar_trigger": false,
      "taf_trigger": false,
      "metar": "METAR LIMC 030620Z 34007KT 2500 -RA BR FEW005 BKN020 01/01 Q1005 NOSIG",
      "taf": "TAF LIMC 030500Z 0306/0412 VRB05KT 3000 RA BKN010"
    },
    {
      "icao": "LIME",
      "alert": "OK",
      "vis_m": 5000,
      "fzfg": false,
      "metar_trigger": false,
      "taf_trigger": false,
      "metar": "METAR LIME 030620Z 29004KT 250V330 5000 RA BR BKN025 04/04 Q1004 NOSIG",
      "taf": "TAF LIME 030500Z 0306/0406 VRB05KT 4000 RA BKN020"
    },
    {
      "icao": "LIMF",
      "alert": "OK",
      "vis_m": 1800,
      "fzfg": false,
      "metar_trigger": false,
      "taf_trigger": false,
      "metar": "METAR LIMF 030620Z VRB01KT 1800 RASN OVC020 01/M00 Q1006",
      "taf": "TAF LIMF 030500Z 0306/0406 VRB05KT 2000 SNRA BKN015"
    },
    {
      "icao": "LIMJ",
      "alert": "OK",
      "vis_m": 9999,
      "fzfg": false,
      "metar_trigger": false,
      "taf_trigger": false,
      "metar": "METAR LIMJ 030620Z 03018KT 9999 FEW018 BKN035 05/02 Q1004",
      "taf": "TAF LIMJ 030500Z 0306/0406 04015KT 4000 RA SCT020 BKN030"
    },
    {
      "icao": "LIPE",
      "alert": "OK",
      "vis_m": 1800,
      "fzfg": false,
      "metar_trigger": false,
      "taf_trigger": false,
      "metar": "METAR LIPE 030620Z VRB03KT 1800 -DZ BR OVC002 05/05 Q1005",
      "taf": "TAF LIPE 030500Z 0306/0406 VRB05KT 6000 BKN015"
    },
    {
      "icao": "LIPH",
      "alert": "OK",
      "vis_m": 3000,
      "fzfg": false,
      "metar_trigger": false,
      "taf_trigger": false,
      "metar": "METAR LIPH 030620Z 04008KT 3000 -RA BR SCT004 BKN020 05/04 Q1007",
      "taf": "TAF LIPH 030500Z 0306/0406 05010KT 5000 RA SCT010 BKN020"
    },
    {
      "icao": "LIPQ",
      "alert": "OK",
      "vis_m": 9999,
      "fzfg": false,
      "metar_trigger": false,
      "taf_trigger": false,
      "metar": "METAR LIPQ 030620Z AUTO 03005KT 9999 -RA OVC014/// 06/05 Q1008",
      "taf": "TAF LIPQ 030500Z 0306/0406 05006KT 4000 RA BKN020"
    },
    {
      "icao": "LIPR",
      "alert": "OK",
      "vis_m": 9999,
      "fzfg": false,
      "metar_trigger": false,
      "taf_trigger": false,
      "metar": "METAR LIPR 030620Z 12005KT 9999 BKN035 09/06 Q1005",
      "taf": "TAF LIPR 030500Z 0306/0406 14010KT 9999 BKN040"
    },
    {
      "icao": "LIPX",
      "alert": "OK",
      "vis_m": 5000,
      "fzfg": false,
      "metar_trigger": false,
      "taf_trigger": false,
      "metar": "METAR LIPX 030620Z VRB02KT 5000 -RA BR BKN020 05/04 Q1005",
      "taf": "TAF LIPX 030500Z 0306/0406 08010KT 4000 RA BKN030"
    },
    {
      "icao": "LIPY",
      "alert": "OK",
      "vis_m": 9999,
      "fzfg": false,
      "metar_trigger": false,
      "taf_trigger": false,
      "metar": "METAR LIPY 030620Z AUTO VRB02KT 9999 BKN054/// BKN160/// 10/07 Q1006",
      "taf": "TAF LIPY 030500Z 0306/0406 15010KT 9999 BKN050"
    },
    {
      "icao": "LIPZ",
      "alert": "OK",
      "vis_m": 4000,
      "fzfg": false,
      "metar_trigger": false,
      "taf_trigger": false,
      "metar": "METAR LIPZ 030620Z 04011KT 4000 -RA BR FEW005 BKN015 04/04 Q1007 NOSIG",
      "taf": "TAF LIPZ 030500Z 0306/0412 05012KT 5000 RA SCT010 BKN020"
    },
    {
      "icao": "LIRF",
      "alert": "OK",
      "vis_m": 9999,
      "fzfg": false,
      "metar_trigger": false,
      "taf_trigger": false,
      "metar": "METAR LIRF 030620Z 14015KT 9999 FEW015 SCT035 13/09 Q1008 NOSIG",
      "taf": "TAF LIRF 030500Z 0306/0412 15015KT 9999 SCT030"
    },
    {
      "icao": "LIRN",
      "alert": "OK",
      "vis_m": 9999,
      "fzfg": false,
      "metar_trigger": false,
      "taf_trigger": false,
      "metar": "METAR LIRN 030620Z 32004KT 9999 SCT075 08/06 Q1010 NOSIG",
      "taf": "TAF LIRN 030500Z 0306/0406 18012KT 9999 SCT030"
    },
    {
      "icao": "LIRP",
      "alert": "OK",
      "vis_m": 9999,
      "fzfg": false,
      "metar_trigger": false,
      "taf_trigger": false,
      "metar": "METAR LIRP 030615Z 13009KT 9999 -RA SCT020 BKN035 11/11 Q1004 NOSIG",
      "taf": "TAF LIRP 030500Z 0306/0406 13010KT 9999 RA FEW020 SCT050"
    },
    {
      "icao": "LIRZ",
      "alert": "OK",
      "vis_m": 9999,
      "fzfg": false,
      "metar_trigger": false,
      "taf_trigger": false,
      "metar": "METAR LIRZ 030620Z AUTO 28006KT 9999 BKN033/// 10/07 Q1008",
      "taf": "TAF LIRZ 030500Z 0306/0406 18010KT 9999 BKN035"
    },
    {
      "icao": "LJLJ",
      "alert": "OK",
      "vis_m": 3000,
      "fzfg": false,
      "metar_trigger": false,
      "taf_trigger": false,
      "metar": "METAR LJLJ 030600Z VRB02KT 3000 -RA BR SCT002 OVC023 01/00 Q1008 NOSIG",
      "taf": "TAF LJLJ 030500Z 0306/0406 11002KT 3000 -RA BR SCT002 BKN005 OVC020"
    },
    {
      "icao": "LKMT",
      "alert": "OK",
      "vis_m": 9999,
      "fzfg": false,
      "metar_trigger": false,
      "taf_trigger": false,
      "metar": "METAR LKMT 030600Z 04007KT 9999 BKN035 OVC045 M08/M11 Q1012 NOSIG",
      "taf": "TAF LKMT 030500Z 0306/0406 02010KT 9999 BKN035"
    },
    {
      "icao": "LKPR",
      "alert": "OK",
      "vis_m": 6000,
      "fzfg": false,
      "metar_trigger": false,
      "taf_trigger": false,
      "metar": "METAR LKPR 030600Z 09012KT 6000 BKN005 OVC019 M02/M02 Q1006 NOSIG",
      "taf": "TAF LKPR 030500Z 0306/0412 08008KT 4500 BR OVC004"
    },
    {
      "icao": "LLBG",
      "alert": "OK",
      "vis_m": 9999,
      "fzfg": false,
      "metar_trigger": false,
      "taf_trigger": false,
      "metar": "METAR LLBG 030620Z 17012KT 9999 SCT017 BKN046 13/11 Q1018 TEMPO 7000 RA FEW025TCU BKN030",
      "taf": "TAF LLBG 030506Z 0306/0406 16008KT 8000 SCT030"
    },
    {
      "icao": "LMML",
      "alert": "OK",
      "vis_m": 9999,
      "fzfg": false,
      "metar_trigger": false,
      "taf_trigger": false,
      "metar": "METAR LMML 030615Z 17009KT CAVOK 15/13 Q1014 NOSIG",
      "taf": "TAF LMML 030500Z 0306/0406 19015KT CAVOK"
    },
    {
      "icao": "LOWW",
      "alert": "OK",
      "vis_m": 9000,
      "fzfg": false,
      "metar_trigger": false,
      "taf_trigger": false,
      "metar": "METAR LOWW 030620Z 12013KT 9000 FEW007 BKN009 M01/M03 Q1008 NOSIG",
      "taf": "TAF LOWW 030515Z 0306/0412 12015KT 9000 BKN012 TX01/0411Z TNM01/0313Z"
    },
    {
      "icao": "LPFR",
      "alert": "OK",
      "vis_m": 9999,
      "fzfg": false,
      "metar_trigger": false,
      "taf_trigger": false,
      "metar": "METAR LPFR 030600Z 25015KT 9999 FEW016 FEW020CB SCT030 13/09 Q1004",
      "taf": "TAF LPFR 030500Z 0306/0406 28013KT 9999 FEW015 SCT030"
    },
    {
      "icao": "LPMA",
      "alert": "OK",
      "vis_m": 9999,
      "fzfg": false,
      "metar_trigger": false,
      "taf_trigger": false,
      "metar": "METAR LPMA 030600Z 31003KT 260V010 9999 SCT015 14/07 Q1015",
      "taf": "TAF LPMA 030500Z 0306/0406 VRB05KT 9999 SCT015"
    },
    {
      "icao": "LPPR",
      "alert": "OK",
      "vis_m": 9999,
      "fzfg": false,
      "metar_trigger": false,
      "taf_trigger": false,
      "metar": "METAR LPPR 030600Z 25008KT 210V310 9999 VCSH SCT020 FEW023CB BKN045 11/07 Q0997",
      "taf": "TAF LPPR 030500Z 0306/0406 22012KT 9999 FEW015 SCT030"
    },
    {
      "icao": "LPPS",
      "alert": "OK",
      "vis_m": 9999,
      "fzfg": false,
      "metar_trigger": false,
      "taf_trigger": false,
      "metar": "METAR LPPS 030600Z 29017KT 9999 SCT014 16/11 Q1014",
      "taf": "TAF LPPS 030500Z 0306/0412 30017KT 9999 SCT015"
    },
    {
      "icao": "LPPT",
      "alert": "OK",
      "vis_m": 9999,
      "fzfg": false,
      "metar_trigger": false,
      "taf_trigger": false,
      "metar": "METAR LPPT 030600Z 20006KT 9999 FEW025TCU SCT028 08/07 Q1001",
      "taf": "TAF LPPT 030500Z 0306/0412 23008KT 9999 FEW015 SCT030"
    },
    {
      "icao": "LQBK",
      "alert": "OK",
      "vis_m": 5000,
      "fzfg": false,
      "metar_trigger": false,
      "taf_trigger": false,
      "metar": "METAR LQBK 030600Z VRB01KT 5000 BR SCT010 BKN035 01/00 Q1011 NOSIG",
      "taf": "TAF LQBK 030500Z 0306/0406 34005KT 9999 OVC010 TX08/0314Z TN01/0306Z"
    },
    {
      "icao": "LQSA",
      "alert": "OK",
      "vis_m": 7000,
      "fzfg": false,
      "metar_trigger": false,
      "taf_trigger": false,
      "metar": "METAR LQSA 030600Z 12003KT 7000 BKN045 M01/M01 Q1012 TEMPO -FZRA",
      "taf": "TAF LQSA 030500Z 0306/0406 10008KT 9999 SCT050 TX13/0313Z TNM02/0306Z"
    },
    {
      "icao": "LQTZ",
      "alert": "OK",
      "vis_m": 5000,
      "fzfg": false,
      "metar_trigger": false,
      "taf_trigger": false,
      "metar": "METAR LQTZ 030600Z VRB01KT 5000 BR SCT060 BKN070 M02/M02 Q1012",
      "taf": "TAF LQTZ 030500Z 0306/0406 06005KT CAVOK TX13/0314Z TNM02/0306Z"
    },
    {
      "icao": "LRBC",
      "alert": "OK",
      "vis_m": 9999,
      "fzfg": false,
      "metar_trigger": false,
      "taf_trigger": false,
      "metar": "METAR LRBC 030600Z 17007KT 9999 FEW049 M08/M11 Q1020",
      "taf": "TAF LRBC 030500Z 0306/0315 16007KT CAVOK"
    },
    {
      "icao": "LRBS",
      "alert": "OK",
      "vis_m": 8000,
      "fzfg": false,
      "metar_trigger": false,
      "taf_trigger": false,
      "metar": "METAR LRBS 030600Z VRB01KT 8000 NSC M09/M10 Q1021 NOSIG",
      "taf": "TAF LRBS 030500Z 0306/0406 23005KT 5000 BR NSC"
    },
    {
      "icao": "LRBV",
      "alert": "OK",
      "vis_m": 9999,
      "fzfg": false,
      "metar_trigger": false,
      "taf_trigger": false,
      "metar": "METAR LRBV 030600Z 14002KT CAVOK M07/M10 Q1015",
      "taf": "TAF LRBV 030500Z 0306/0315 VRB04KT CAVOK"
    },
    {
      "icao": "LRCL",
      "alert": "OK",
      "vis_m": 9999,
      "fzfg": false,
      "metar_trigger": false,
      "taf_trigger": false,
      "metar": "METAR LRCL 030600Z 06003KT 9999 OVC008 M01/M02 Q1015",
      "taf": "TAF LRCL 030500Z 0306/0315 VRB04KT 9999 OVC010"
    },
    {
      "icao": "LRCV",
      "alert": "OK",
      "vis_m": 9999,
      "fzfg": false,
      "metar_trigger": false,
      "taf_trigger": false,
      "metar": "METAR LRCV 030600Z 00000KT 9999 BKN035 M07/M08 Q1020",
      "taf": "TAF LRCV 030500Z 0306/0315 VRB04KT 9999 OVC030"
    },
    {
      "icao": "LRIA",
      "alert": "OK",
      "vis_m": 9999,
      "fzfg": false,
      "metar_trigger": false,
      "taf_trigger": false,
      "metar": "METAR LRIA 030600Z 09007KT CAVOK M11/M15 Q1021",
      "taf": "TAF LRIA 030500Z 0306/0315 11008KT CAVOK"
    },
    {
      "icao": "LROP",
      "alert": "OK",
      "vis_m": 9999,
      "fzfg": false,
      "metar_trigger": false,
      "taf_trigger": false,
      "metar": "METAR LROP 030600Z 23002KT 5000 BR NSC M11/M13 Q1021 BECMG CAVOK",
      "taf": "TAF LROP 030500Z 0306/0406 23005KT 5000 BR NSC"
    },
    {
      "icao": "LRSB",
      "alert": "OK",
      "vis_m": 9999,
      "fzfg": false,
      "metar_trigger": false,
      "taf_trigger": false,
      "metar": "METAR LRSB 030600Z VRB02KT CAVOK M06/M07 Q1015",
      "taf": "TAF LRSB 030500Z 0306/0406 VRB04KT CAVOK"
    },
    {
      "icao": "LRSM",
      "alert": "OK",
      "vis_m": 5000,
      "fzfg": false,
      "metar_trigger": false,
      "taf_trigger": false,
      "metar": "METAR LRSM 030600Z 08002KT 5000 BR BKN008 OVC039 M01/M02 Q1016",
      "taf": "TAF LRSM 030500Z 0306/0315 VRB04KT 9999 BKN040"
    },
    {
      "icao": "LRSV",
      "alert": "OK",
      "vis_m": 9999,
      "fzfg": false,
      "metar_trigger": false,
      "taf_trigger": false,
      "metar": "METAR LRSV 030600Z 13009KT 9999 BKN048 M10/M14 Q1016",
      "taf": "TAF LRSV 030500Z 0306/0315 12008KT 9999 BKN040"
    },
    {
      "icao": "LRTM",
      "alert": "OK",
      "vis_m": 8000,
      "fzfg": false,
      "metar_trigger": false,
      "taf_trigger": false,
      "metar": "METAR LRTM 030600Z 21003KT 8000 FEW010 SCT022 00/M01 Q1015",
      "taf": "TAF LRTM 030500Z 0306/0315 VRB04KT 5000 BR BKN025"
    },
    {
      "icao": "LRTR",
      "alert": "OK",
      "vis_m": 9999,
      "fzfg": false,
      "metar_trigger": false,
      "taf_trigger": false,
      "metar": "METAR LRTR 030600Z 10009KT CAVOK M03/M05 Q1015 NOSIG",
      "taf": "TAF LRTR 030500Z 0306/0406 10010KT 9999 BKN045"
    },
    {
      "icao": "LTAC",
      "alert": "OK",
      "vis_m": 9999,
      "fzfg": false,
      "metar_trigger": false,
      "taf_trigger": false,
      "metar": "METAR LTAC 030620Z 30011KT 9999 SCT033 SCT100 03/M03 Q1014 NOSIG",
      "taf": "TAF LTAC 030440Z 0306/0406 VRB02KT 9999 SCT040 BKN100"
    },
    {
      "icao": "LTFM",
      "alert": "OK",
      "vis_m": 9999,
      "fzfg": false,
      "metar_trigger": false,
      "taf_trigger": false,
      "metar": "METAR LTFM 030620Z 36006KT 9999 BKN012 BKN028 02/M01 Q1022 RESHRASN NOSIG",
      "taf": "TAF LTFM 030440Z 0306/0412 36010KT 9999 BKN012 BKN028"
    },
    {
      "icao": "LUKK",
      "alert": "OK",
      "vis_m": 9999,
      "fzfg": false,
      "metar_trigger": false,
      "taf_trigger": false,
      "metar": "METAR LUKK 030600Z 08004KT 030V110 CAVOK M12/M16 Q1021 NOSIG",
      "taf": "TAF LUKK 030506Z 0306/0406 VRB06KT CAVOK"
    },
    {
      "icao": "LWOH",
      "alert": "OK",
      "vis_m": 9999,
      "fzfg": false,
      "metar_trigger": false,
      "taf_trigger": false,
      "metar": "METAR LWOH 030620Z 35003KT 300V010 9999 SCT040 M00/M01 Q1016",
      "taf": "TAF LWOH 030530Z 0306/0406 01008KT 9999 SCT040"
    },
    {
      "icao": "LWSK",
      "alert": "OK",
      "vis_m": 9999,
      "fzfg": false,
      "metar_trigger": false,
      "taf_trigger": false,
      "metar": "METAR LWSK 030620Z VRB02KT 9999 OVC020 M00/M02 Q1019 NOSIG",
      "taf": "TAF LWSK 030530Z 0306/0406 VRB02KT 9999 BKN020"
    },
    {
      "icao": "LYBE",
      "alert": "OK",
      "vis_m": 9999,
      "fzfg": false,
      "metar_trigger": false,
      "taf_trigger": false,
      "metar": "METAR LYBE 030600Z 11005KT CAVOK M02/M05 Q1014 NOSIG",
      "taf": "TAF LYBE 030500Z 0306/0406 10008KT CAVOK TX07/0313Z TNM03/0306Z"
    },
    {
      "icao": "LYNI",
      "alert": "OK",
      "vis_m": 9999,
      "fzfg": false,
      "metar_trigger": false,
      "taf_trigger": false,
      "metar": "METAR LYNI 030600Z 00000KT CAVOK M03/M05 Q1017 NOSIG",
      "taf": "TAF LYNI 030500Z 0306/0406 08006KT CAVOK TX06/0313Z TNM03/0306Z"
    },
    {
      "icao": "LYPG",
      "alert": "OK",
      "vis_m": 9999,
      "fzfg": false,
      "metar_trigger": false,
      "taf_trigger": false,
      "metar": "METAR LYPG 030600Z 33002KT 9999 FEW030 BKN060 OVC070 05/04 Q1016 NOSIG",
      "taf": "TAF LYPG 030500Z 0306/0406 36005KT 9999 FEW020 BKN043 BKN080 TX12/0316Z TN04/0306Z"
    },
    {
      "icao": "LZIB",
      "alert": "OK",
      "vis_m": 9999,
      "fzfg": false,
      "metar_trigger": false,
      "taf_trigger": false,
      "metar": "METAR LZIB 030600Z 10014KT 9999 FEW010 SCT016 OVC021 M00/M03 Q1010 NOSIG",
      "taf": "TAF LZIB 030515Z 0306/0406 12014KT 9999 OVC025"
    },
    {
      "icao": "LZKZ",
      "alert": "OK",
      "vis_m": 9999,
      "fzfg": false,
      "metar_trigger": false,
      "taf_trigger": false,
      "metar": "METAR LZKZ 030600Z 00000KT 9999 OVC010 M03/M05 Q1015 NOSIG",
      "taf": "TAF LZKZ 030515Z 0306/0406 VRB02KT 9999 BKN017"
    },
    {
      "icao": "LZTT",
      "alert": "OK",
      "vis_m": 8000,
      "fzfg": false,
      "metar_trigger": false,
      "taf_trigger": false,
      "metar": "METAR LZTT 030600Z VRB01KT 8000 -SN BKN006 M04/M05 Q1010 NOSIG",
      "taf": "TAF LZTT 030515Z 0306/0406 17004KT 9999 OVC020"
    },
    {
      "icao": "OEJN",
      "alert": "OK",
      "vis_m": 9999,
      "fzfg": false,
      "metar_trigger": false,
      "taf_trigger": false,
      "metar": "METAR OEJN 030600Z 00000KT CAVOK 27/17 Q1016 NOSIG",
      "taf": "TAF OEJN 030500Z 0306/0412 33012KT 7000 SCT040"
    },
    {
      "icao": "OEMA",
      "alert": "OK",
      "vis_m": 9999,
      "fzfg": false,
      "metar_trigger": false,
      "taf_trigger": false,
      "metar": "METAR OEMA 030600Z VRB02KT CAVOK 22/12 Q1019 NOSIG",
      "taf": "TAF OEMA 030500Z 0306/0412 30012KT 7000 NSC"
    },
    {
      "icao": "OJAI",
      "alert": "OK",
      "vis_m": null,
      "fzfg": false,
      "metar_trigger": false,
      "taf_trigger": false,
      "metar": "",
      "taf": ""
    },
    {
      "icao": "OMAA",
      "alert": "OK",
      "vis_m": 9999,
      "fzfg": false,
      "metar_trigger": false,
      "taf_trigger": false,
      "metar": "METAR OMAA 030630Z 08004KT 040V110 CAVOK 22/04 Q1019 NOSIG",
      "taf": "TAF OMAA 030500Z 0306/0412 20005KT 8000 NSC"
    },
    {
      "icao": "OMDB",
      "alert": "OK",
      "vis_m": 8000,
      "fzfg": false,
      "metar_trigger": false,
      "taf_trigger": false,
      "metar": "METAR OMDB 030630Z 09007KT 8000 NSC 23/14 Q1019 NOSIG",
      "taf": "TAF OMDB 030500Z 0306/0412 VRB02KT 4000 HZ NSC"
    },
    {
      "icao": "UAAA",
      "alert": "OK",
      "vis_m": 9999,
      "fzfg": false,
      "metar_trigger": false,
      "taf_trigger": false,
      "metar": "METAR UAAA 030600Z 22003MPS 190V250 9999 SCT100 BKN200 07/M02 Q1018 NOSIG",
      "taf": "TAF UAAA 030505Z 0306/0406 22003MPS 9999 SCT050CB BKN100 TX09/0309Z TNM01/0402Z"
    },
    {
      "icao": "UBBB",
      "alert": "OK",
      "vis_m": 9999,
      "fzfg": false,
      "metar_trigger": false,
      "taf_trigger": false,
      "metar": "METAR UBBB 030600Z 18016KT 9999 FEW008 08/06 Q1006 NOSIG",
      "taf": "TAF UBBB 030506Z 0306/0406 19018G28KT 9999 SCT012 BKN030 TX09/0307Z TN02/0400Z"
    },
    {
      "icao": "UDSG",
      "alert": "OK",
      "vis_m": 1100,
      "fzfg": false,
      "metar_trigger": false,
      "taf_trigger": false,
      "metar": "METAR UDSG 030600Z 10005KT 1100 R02/1100D BR OVC008 01/01 Q1011 NOSIG",
      "taf": "TAF UDSG 030458Z 0306/0406 VRB06KT 5000 BR OVC030"
    },
    {
      "icao": "UDYZ",
      "alert": "OK",
      "vis_m": 900,
      "fzfg": false,
      "metar_trigger": false,
      "taf_trigger": false,
      "metar": "METAR UDYZ 030600Z 01003KT 0900 0600W R08/0650N FG SCT010 BKN033CB 02/02 Q1011 NOSIG",
      "taf": "TAF UDYZ 030500Z 0306/0406 24006KT 1500 BR BKN020"
    },
    {
      "icao": "UGKO",
      "alert": "OK",
      "vis_m": 9999,
      "fzfg": false,
      "metar_trigger": false,
      "taf_trigger": false,
      "metar": "METAR UGKO 030600Z 09003KT 9999 BKN065 10/07 Q1007 NOSIG",
      "taf": "TAF UGKO 030500Z 0306/0406 09007KT 9999 BKN050 TX11/0311Z TN04/0403Z"
    }
  ]
}