{
  "ts_utc": "2026-04-08T21:09:36Z",
  "threshold_m": 150,
  "source": "stations_override.txt (ICAO list) + aviationweather.gov (METAR/TAF raw)",
  "station_count": 159,
  "stations": [
    {
      "icao": "BIKF",
      "alert": "OK",
      "vis_m": 9999,
      "fzfg": false,
      "metar_trigger": false,
      "taf_trigger": false,
      "metar": "METAR BIKF 082100Z 16013KT 9999 -SHRA FEW007 BKN017TCU BKN032 05/03 Q0980",
      "taf": "TAF BIKF 081937Z 0821/0921 15018KT 9999 SCT025 BKN035 TX06/0915Z TN03/0907Z"
    },
    {
      "icao": "BKPR",
      "alert": "OK",
      "vis_m": 9999,
      "fzfg": false,
      "metar_trigger": false,
      "taf_trigger": false,
      "metar": "METAR BKPR 082100Z 32003KT 280V010 CAVOK 07/M02 Q1019 NOSIG",
      "taf": "TAF BKPR 081730Z 0818/0918 03007KT CAVOK"
    },
    {
      "icao": "EBCI",
      "alert": "OK",
      "vis_m": 9999,
      "fzfg": false,
      "metar_trigger": false,
      "taf_trigger": false,
      "metar": "METAR EBCI 082050Z 07004KT CAVOK 14/05 Q1022 NOSIG",
      "taf": "TAF EBCI 081704Z 0818/0924 11005KT CAVOK"
    },
    {
      "icao": "EDDB",
      "alert": "OK",
      "vis_m": 9999,
      "fzfg": false,
      "metar_trigger": false,
      "taf_trigger": false,
      "metar": "METAR EDDB 082050Z AUTO 05008KT CAVOK 07/M00 Q1028 NOSIG",
      "taf": "TAF EDDB 081700Z 0818/0918 04007KT CAVOK"
    },
    {
      "icao": "EDDH",
      "alert": "OK",
      "vis_m": 9999,
      "fzfg": false,
      "metar_trigger": false,
      "taf_trigger": false,
      "metar": "METAR EDDH 082050Z AUTO 08008KT CAVOK 07/01 Q1028 NOSIG",
      "taf": "TAF EDDH 081700Z 0818/0924 10008KT CAVOK"
    },
    {
      "icao": "EDDK",
      "alert": "OK",
      "vis_m": 9999,
      "fzfg": false,
      "metar_trigger": false,
      "taf_trigger": false,
      "metar": "METAR EDDK 082050Z AUTO 09004KT CAVOK 14/00 Q1023 NOSIG",
      "taf": "TAF EDDK 081700Z 0818/0924 05005KT CAVOK"
    },
    {
      "icao": "EDDN",
      "alert": "OK",
      "vis_m": 9999,
      "fzfg": false,
      "metar_trigger": false,
      "taf_trigger": false,
      "metar": "METAR EDDN 082050Z AUTO 08006KT CAVOK 10/M04 Q1024",
      "taf": "TAF EDDN 081700Z 0818/0918 03004KT CAVOK"
    },
    {
      "icao": "EDDS",
      "alert": "OK",
      "vis_m": 9999,
      "fzfg": false,
      "metar_trigger": false,
      "taf_trigger": false,
      "metar": "METAR EDDS 082050Z AUTO 08003KT CAVOK 11/M03 Q1022",
      "taf": "TAF EDDS 081700Z 0818/0918 02006KT CAVOK"
    },
    {
      "icao": "EDFH",
      "alert": "OK",
      "vis_m": 9999,
      "fzfg": false,
      "metar_trigger": false,
      "taf_trigger": false,
      "metar": "METAR EDFH 082050Z 13010KT CAVOK 11/M01 Q1023",
      "taf": "TAF EDFH 081700Z 0818/0918 12006KT CAVOK"
    },
    {
      "icao": "EDJA",
      "alert": "OK",
      "vis_m": 9999,
      "fzfg": false,
      "metar_trigger": false,
      "taf_trigger": false,
      "metar": "METAR EDJA 082050Z 07004KT CAVOK 07/M00 Q1023",
      "taf": "TAF EDJA 081700Z 0818/0903 04007KT CAVOK"
    },
    {
      "icao": "EDLW",
      "alert": "OK",
      "vis_m": 9999,
      "fzfg": false,
      "metar_trigger": false,
      "taf_trigger": false,
      "metar": "METAR EDLW 082050Z 09004KT CAVOK 11/00 Q1023",
      "taf": "TAF EDLW 081700Z 0818/0918 09007KT CAVOK"
    },
    {
      "icao": "EDNY",
      "alert": "OK",
      "vis_m": 9999,
      "fzfg": false,
      "metar_trigger": false,
      "taf_trigger": false,
      "metar": "METAR EDNY 082050Z AUTO 05006KT 9999 // NCD 12/03 Q1022",
      "taf": "TAF EDNY 081700Z 0818/0903 03006KT CAVOK"
    },
    {
      "icao": "EDSB",
      "alert": "OK",
      "vis_m": 9999,
      "fzfg": false,
      "metar_trigger": false,
      "taf_trigger": false,
      "metar": "METAR EDSB 082050Z 01008KT CAVOK 14/M01 Q1021",
      "taf": "TAF EDSB 081700Z 0818/0918 02007KT CAVOK"
    },
    {
      "icao": "EETN",
      "alert": "OK",
      "vis_m": 9999,
      "fzfg": false,
      "metar_trigger": false,
      "taf_trigger": false,
      "metar": "METAR EETN 082050Z 05011KT 010V070 CAVOK 03/M06 Q1029 NOSIG",
      "taf": "TAF EETN 081730Z 0818/0918 05014KT CAVOK"
    },
    {
      "icao": "EFTU",
      "alert": "OK",
      "vis_m": 9999,
      "fzfg": false,
      "metar_trigger": false,
      "taf_trigger": false,
      "metar": "METAR EFTU 082050Z AUTO VRB02KT CAVOK M00/M10 Q1031",
      "taf": "TAF EFTU 082021Z 0821/0921 03003KT CAVOK"
    },
    {
      "icao": "EGBB",
      "alert": "OK",
      "vis_m": 9999,
      "fzfg": false,
      "metar_trigger": false,
      "taf_trigger": false,
      "metar": "METAR EGBB 082050Z VRB02KT CAVOK 16/10 Q1020",
      "taf": "TAF EGBB 081659Z 0818/0918 VRB03KT CAVOK"
    },
    {
      "icao": "EGGP",
      "alert": "OK",
      "vis_m": 9999,
      "fzfg": false,
      "metar_trigger": false,
      "taf_trigger": false,
      "metar": "METAR EGGP 082050Z 32001KT CAVOK 11/09 Q1021",
      "taf": "TAF EGGP 081657Z 0818/0918 31007KT 9999 FEW040"
    },
    {
      "icao": "EGGW",
      "alert": "OK",
      "vis_m": 9999,
      "fzfg": false,
      "metar_trigger": false,
      "taf_trigger": false,
      "metar": "METAR EGGW 082050Z AUTO 14003KT 110V200 9999 NCD 16/12 Q1021",
      "taf": "TAF EGGW 081657Z 0818/0918 23005KT CAVOK"
    },
    {
      "icao": "EGKK",
      "alert": "OK",
      "vis_m": 9999,
      "fzfg": false,
      "metar_trigger": false,
      "taf_trigger": false,
      "metar": "METAR EGKK 082050Z VRB02KT CAVOK 15/08 Q1021",
      "taf": "TAF EGKK 081655Z 0818/0924 19004KT CAVOK"
    },
    {
      "icao": "EGNM",
      "alert": "OK",
      "vis_m": 9999,
      "fzfg": false,
      "metar_trigger": false,
      "taf_trigger": false,
      "metar": "METAR EGNM 082050Z 27011KT CAVOK 12/09 Q1020",
      "taf": "TAF EGNM 081703Z 0818/0918 28008KT 9999 FEW040"
    },
    {
      "icao": "EGPD",
      "alert": "OK",
      "vis_m": 9999,
      "fzfg": false,
      "metar_trigger": false,
      "taf_trigger": false,
      "metar": "METAR EGPD 082050Z COR AUTO 19006KT 9999 NCD 12/07 Q1017 NOSIG",
      "taf": "TAF EGPD 081656Z 0818/0918 21009KT 9999 FEW035"
    },
    {
      "icao": "EGPF",
      "alert": "OK",
      "vis_m": 9999,
      "fzfg": false,
      "metar_trigger": false,
      "taf_trigger": false,
      "metar": "METAR EGPF 082050Z AUTO 24004KT 9999 FEW017 09/08 Q1018",
      "taf": "TAF EGPF 081655Z 0818/0918 23012KT 9999 FEW025"
    },
    {
      "icao": "EHBK",
      "alert": "OK",
      "vis_m": 9999,
      "fzfg": false,
      "metar_trigger": false,
      "taf_trigger": false,
      "metar": "METAR EHBK 082055Z AUTO 06006KT 9999 NSC 11/03 Q1022 NOSIG",
      "taf": "TAF EHBK 081656Z 0818/0924 07007KT CAVOK"
    },
    {
      "icao": "EHEH",
      "alert": "OK",
      "vis_m": 9999,
      "fzfg": false,
      "metar_trigger": false,
      "taf_trigger": false,
      "metar": "METAR EHEH 082055Z AUTO 06004KT 9999 OVC300 13/02 Q1023 BLU",
      "taf": "TAF EHEH 081750Z 0818/0924 08006KT CAVOK"
    },
    {
      "icao": "EKBI",
      "alert": "OK",
      "vis_m": 9999,
      "fzfg": false,
      "metar_trigger": false,
      "taf_trigger": false,
      "metar": "METAR EKBI 082050Z AUTO 11005KT 9999 BKN160/// BKN180/// 06/M00 Q1029",
      "taf": "TAF EKBI 082027Z 0821/0921 12010KT CAVOK"
    },
    {
      "icao": "EKCH",
      "alert": "OK",
      "vis_m": 9999,
      "fzfg": false,
      "metar_trigger": false,
      "taf_trigger": false,
      "metar": "METAR EKCH 082050Z AUTO 16005KT 9999 NCD 04/02 Q1031 NOSIG",
      "taf": "TAF EKCH 082027Z 0821/0921 16012KT CAVOK"
    },
    {
      "icao": "ENAL",
      "alert": "OK",
      "vis_m": 9999,
      "fzfg": false,
      "metar_trigger": false,
      "taf_trigger": false,
      "metar": "METAR ENAL 082050Z 21008KT CAVOK 10/01 Q1021",
      "taf": "TAF ENAL 082000Z 0821/0906 20009KT 9999 FEW060"
    },
    {
      "icao": "ENBR",
      "alert": "OK",
      "vis_m": 9999,
      "fzfg": false,
      "metar_trigger": false,
      "taf_trigger": false,
      "metar": "METAR ENBR 082050Z 15015KT CAVOK 08/M01 Q1024 RMK WIND 1200FT 15024KT",
      "taf": "TAF ENBR 081700Z 0818/0918 16012KT CAVOK"
    },
    {
      "icao": "ENGM",
      "alert": "OK",
      "vis_m": 9999,
      "fzfg": false,
      "metar_trigger": false,
      "taf_trigger": false,
      "metar": "METAR ENGM 082050Z 19005KT CAVOK 07/M02 Q1029 NOSIG",
      "taf": "TAF ENGM 081700Z 0818/0918 VRB05KT CAVOK"
    },
    {
      "icao": "ENHD",
      "alert": "OK",
      "vis_m": 9999,
      "fzfg": false,
      "metar_trigger": false,
      "taf_trigger": false,
      "metar": "METAR ENHD 082050Z AUTO 14016KT 9999 NCD 09/M03 Q1025",
      "taf": "TAF ENHD 081400Z 0815/0822 16015KT CAVOK"
    },
    {
      "icao": "ENTC",
      "alert": "OK",
      "vis_m": 9999,
      "fzfg": false,
      "metar_trigger": false,
      "taf_trigger": false,
      "metar": "METAR ENTC 082050Z 19018KT 9999 BKN070 06/M03 Q1021 NOSIG RMK WIND 2600FT 19028KT",
      "taf": ""
    },
    {
      "icao": "ENTO",
      "alert": "OK",
      "vis_m": 9999,
      "fzfg": false,
      "metar_trigger": false,
      "taf_trigger": false,
      "metar": "METAR ENTO 082050Z 22003KT CAVOK 07/M01 Q1030 NOSIG",
      "taf": "TAF ENTO 081700Z 0818/0918 VRB05KT CAVOK"
    },
    {
      "icao": "ENVA",
      "alert": "OK",
      "vis_m": 9999,
      "fzfg": false,
      "metar_trigger": false,
      "taf_trigger": false,
      "metar": "METAR ENVA 082050Z 14010KT CAVOK 11/M01 Q1023 RMK WIND 670FT 16016KT",
      "taf": "TAF ENVA 081700Z 0818/0918 12009KT CAVOK"
    },
    {
      "icao": "ENZV",
      "alert": "OK",
      "vis_m": 9999,
      "fzfg": false,
      "metar_trigger": false,
      "taf_trigger": false,
      "metar": "METAR ENZV 082050Z 14011KT CAVOK 09/M03 Q1026",
      "taf": "TAF ENZV 081700Z 0818/0918 16015KT 9999 FEW040"
    },
    {
      "icao": "EPGD",
      "alert": "OK",
      "vis_m": 9999,
      "fzfg": false,
      "metar_trigger": false,
      "taf_trigger": false,
      "metar": "METAR EPGD 082100Z 34007KT 300V360 9999 BKN012 01/M01 Q1027",
      "taf": "TAF EPGD 081730Z 0818/0918 34010KT 9999 BKN020"
    },
    {
      "icao": "EPKK",
      "alert": "OK",
      "vis_m": 9999,
      "fzfg": false,
      "metar_trigger": false,
      "taf_trigger": false,
      "metar": "METAR EPKK 082100Z 28008KT 9999 BKN060 04/M00 Q1024",
      "taf": "TAF EPKK 082030Z 0821/0921 27007KT 9999 BKN030"
    },
    {
      "icao": "EPKT",
      "alert": "OK",
      "vis_m": 9999,
      "fzfg": false,
      "metar_trigger": false,
      "taf_trigger": false,
      "metar": "METAR EPKT 082100Z 28005KT 9999 FEW033 SCT046 02/M00 Q1024",
      "taf": "TAF EPKT 081730Z 0818/0918 29008KT 9999 BKN030"
    },
    {
      "icao": "EPLB",
      "alert": "OK",
      "vis_m": 9999,
      "fzfg": false,
      "metar_trigger": false,
      "taf_trigger": false,
      "metar": "METAR EPLB 082100Z 32010KT 9999 FEW035 04/M00 Q1020",
      "taf": "TAF EPLB 081730Z 0818/0918 32008KT 9999 BKN025"
    },
    {
      "icao": "EPMO",
      "alert": "OK",
      "vis_m": 9999,
      "fzfg": false,
      "metar_trigger": false,
      "taf_trigger": false,
      "metar": "METAR EPMO 082100Z 31009KT 280V340 CAVOK 01/M02 Q1023",
      "taf": "TAF EPMO 081730Z 0818/0918 32010KT 9999 BKN030"
    },
    {
      "icao": "EPPO",
      "alert": "OK",
      "vis_m": 9999,
      "fzfg": false,
      "metar_trigger": false,
      "taf_trigger": false,
      "metar": "METAR EPPO 082100Z 36008KT CAVOK 03/M00 Q1027",
      "taf": "TAF EPPO 081730Z 0818/0918 34008KT CAVOK"
    },
    {
      "icao": "EPRA",
      "alert": "OK",
      "vis_m": 9999,
      "fzfg": false,
      "metar_trigger": false,
      "taf_trigger": false,
      "metar": "METAR EPRA 082100Z 33009KT CAVOK 03/M02 Q1022",
      "taf": "TAF EPRA 082030Z 0821/0906 31010KT 9999 SCT040"
    },
    {
      "icao": "EPRZ",
      "alert": "OK",
      "vis_m": 9999,
      "fzfg": false,
      "metar_trigger": false,
      "taf_trigger": false,
      "metar": "METAR EPRZ 082100Z 28010KT 9999 BKN023 04/02 Q1021",
      "taf": ""
    },
    {
      "icao": "EPSC",
      "alert": "OK",
      "vis_m": 9999,
      "fzfg": false,
      "metar_trigger": false,
      "taf_trigger": false,
      "metar": "METAR EPSC 082100Z VRB02KT CAVOK 02/M00 Q1029",
      "taf": ""
    },
    {
      "icao": "EPSY",
      "alert": "OK",
      "vis_m": 9999,
      "fzfg": false,
      "metar_trigger": false,
      "taf_trigger": false,
      "metar": "METAR EPSY 082100Z 33009KT 290V360 9999 FEW012 01/M01 Q1023",
      "taf": "TAF EPSY 082030Z 0821/0906 32010KT CAVOK"
    },
    {
      "icao": "EPWA",
      "alert": "OK",
      "vis_m": 9999,
      "fzfg": false,
      "metar_trigger": false,
      "taf_trigger": false,
      "metar": "METAR EPWA 082100Z 31009KT CAVOK 02/M02 Q1023 NOSIG",
      "taf": "TAF EPWA 082030Z 0821/0921 33010KT 9999 SCT030"
    },
    {
      "icao": "EPWR",
      "alert": "OK",
      "vis_m": 9999,
      "fzfg": false,
      "metar_trigger": false,
      "taf_trigger": false,
      "metar": "METAR EPWR 082100Z VRB05KT CAVOK 04/M01 Q1026",
      "taf": "TAF EPWR 082030Z 0821/0921 28004KT CAVOK"
    },
    {
      "icao": "ESGG",
      "alert": "OK",
      "vis_m": 9999,
      "fzfg": false,
      "metar_trigger": false,
      "taf_trigger": false,
      "metar": "METAR ESGG 082050Z 10007KT CAVOK 07/M02 Q1030",
      "taf": "TAF ESGG 082030Z 0821/0921 07004KT CAVOK"
    },
    {
      "icao": "ESKN",
      "alert": "OK",
      "vis_m": 9999,
      "fzfg": false,
      "metar_trigger": false,
      "taf_trigger": false,
      "metar": "METAR ESKN 082050Z 03006KT CAVOK 03/M03 Q1031",
      "taf": "TAF ESKN 082030Z 0821/0921 02004KT CAVOK"
    },
    {
      "icao": "ESMS",
      "alert": "OK",
      "vis_m": 9999,
      "fzfg": false,
      "metar_trigger": false,
      "taf_trigger": false,
      "metar": "METAR ESMS 082050Z 14003KT CAVOK 00/00 Q1030",
      "taf": "TAF ESMS 082027Z 0821/0921 16010KT CAVOK"
    },
    {
      "icao": "ESSA",
      "alert": "OK",
      "vis_m": 9999,
      "fzfg": false,
      "metar_trigger": false,
      "taf_trigger": false,
      "metar": "METAR ESSA 082050Z 01006KT CAVOK M02/M03 Q1032 NOSIG",
      "taf": "TAF ESSA 082030Z 0821/0921 02006KT CAVOK"
    },
    {
      "icao": "EYKA",
      "alert": "OK",
      "vis_m": 9999,
      "fzfg": false,
      "metar_trigger": false,
      "taf_trigger": false,
      "metar": "METAR EYKA 082050Z 01004KT 300V070 CAVOK 03/M02 Q1021",
      "taf": "TAF EYKA 081700Z 0818/0918 VRB05KT 9000 SCT045"
    },
    {
      "icao": "EYPA",
      "alert": "OK",
      "vis_m": 9999,
      "fzfg": false,
      "metar_trigger": false,
      "taf_trigger": false,
      "metar": "METAR EYPA 082050Z 01004KT 330V040 CAVOK 01/M03 Q1026",
      "taf": "TAF EYPA 081700Z 0818/0918 VRB05KT CAVOK"
    },
    {
      "icao": "EYVI",
      "alert": "OK",
      "vis_m": 9999,
      "fzfg": false,
      "metar_trigger": false,
      "taf_trigger": false,
      "metar": "METAR EYVI 082050Z 01008KT CAVOK 03/M03 Q1020 NOSIG",
      "taf": "TAF EYVI 081700Z 0818/0918 02012KT 9000 NSC"
    },
    {
      "icao": "GCFV",
      "alert": "OK",
      "vis_m": 9999,
      "fzfg": false,
      "metar_trigger": false,
      "taf_trigger": false,
      "metar": "METAR GCFV 082100Z 30005KT 9999 FEW030 SCT040 17/09 Q1019",
      "taf": "TAF GCFV 082000Z 0821/0921 31008KT 9999 SCT045 TX22/0914Z TN16/0906Z"
    },
    {
      "icao": "GCLP",
      "alert": "OK",
      "vis_m": 9999,
      "fzfg": false,
      "metar_trigger": false,
      "taf_trigger": false,
      "metar": "METAR GCLP 082100Z 35013KT 320V020 9999 BKN040 16/09 Q1020 NOSIG",
      "taf": "TAF GCLP 082000Z 0821/0921 34012KT 9999 SCT045 TX22/0914Z TN14/0906Z"
    },
    {
      "icao": "GCTS",
      "alert": "OK",
      "vis_m": 9999,
      "fzfg": false,
      "metar_trigger": false,
      "taf_trigger": false,
      "metar": "METAR GCTS 082100Z 07011KT 9999 FEW030 17/09 Q1020 NOSIG",
      "taf": "TAF GCTS 082000Z 0821/0921 08008KT 9999 SCT030 TX22/0914Z TN14/0906Z"
    },
    {
      "icao": "GMAD",
      "alert": "OK",
      "vis_m": 9999,
      "fzfg": false,
      "metar_trigger": false,
      "taf_trigger": false,
      "metar": "METAR GMAD 082100Z 22010KT 9999 FEW020 SCT080 14/07 Q1016 NOSIG",
      "taf": "TAF GMAD 081700Z 0818/0924 20005KT 8000 SCT020"
    },
    {
      "icao": "GMMN",
      "alert": "OK",
      "vis_m": 9999,
      "fzfg": false,
      "metar_trigger": false,
      "taf_trigger": false,
      "metar": "METAR GMMN 082100Z 36005KT 330V030 9999 BKN030 13/09 Q1016 NOSIG",
      "taf": "TAF GMMN 081700Z 0818/0924 05005KT 9999 BKN030"
    },
    {
      "icao": "GMMX",
      "alert": "OK",
      "vis_m": 3000,
      "fzfg": false,
      "metar_trigger": false,
      "taf_trigger": false,
      "metar": "METAR GMMX 082100Z 31005KT 270V360 3000 -RA SCT006 OVC020 FEW026TCU 10/09 Q1016 TEMPO 1500 SHRA",
      "taf": "TAF GMMX 081700Z 0818/0924 28006KT 8000 BKN023"
    },
    {
      "icao": "HEGN",
      "alert": "OK",
      "vis_m": 9999,
      "fzfg": false,
      "metar_trigger": false,
      "taf_trigger": false,
      "metar": "METAR HEGN 082000Z 30010KT CAVOK 21/05 Q1018 NOSIG",
      "taf": "TAF HEGN 081700Z 0818/0924 33015KT 9999 SCT025"
    },
    {
      "icao": "HEMA",
      "alert": "OK",
      "vis_m": 9999,
      "fzfg": false,
      "metar_trigger": false,
      "taf_trigger": false,
      "metar": "METAR HEMA 082000Z 33005KT CAVOK 20/10 Q1017 NOSIG",
      "taf": "TAF HEMA 081700Z 0818/0924 34015KT CAVOK"
    },
    {
      "icao": "HESH",
      "alert": "OK",
      "vis_m": 9999,
      "fzfg": false,
      "metar_trigger": false,
      "taf_trigger": false,
      "metar": "METAR HESH 082000Z 33004KT CAVOK 21/10 Q1017 NOSIG",
      "taf": "TAF HESH 081700Z 0818/0924 01012KT 9999 SCT025"
    },
    {
      "icao": "HESX",
      "alert": "OK",
      "vis_m": 9999,
      "fzfg": false,
      "metar_trigger": false,
      "taf_trigger": false,
      "metar": "METAR HESX 082000Z 34006KT CAVOK 16/04 Q1019 NOSIG",
      "taf": "TAF HESX 081700Z 0818/0924 31009KT CAVOK"
    },
    {
      "icao": "LATI",
      "alert": "OK",
      "vis_m": 9999,
      "fzfg": false,
      "metar_trigger": false,
      "taf_trigger": false,
      "metar": "METAR LATI 082050Z 11003KT 060V170 CAVOK 11/06 Q1016 NOSIG",
      "taf": "TAF LATI 081700Z 0818/0918 VRB03KT CAVOK TX21/0913Z TN06/0904Z"
    },
    {
      "icao": "LBPD",
      "alert": "OK",
      "vis_m": 9999,
      "fzfg": false,
      "metar_trigger": false,
      "taf_trigger": false,
      "metar": "METAR LBPD 082100Z AUTO 20007KT 160V240 9999 NCD 07/M03 Q1017",
      "taf": "TAF LBPD 081700Z 0818/0918 31012KT 9999 SCT060"
    },
    {
      "icao": "LBSF",
      "alert": "OK",
      "vis_m": 9999,
      "fzfg": false,
      "metar_trigger": false,
      "taf_trigger": false,
      "metar": "METAR LBSF 082100Z AUTO 31006KT 9999 NCD 06/M05 Q1018 NOSIG",
      "taf": "TAF LBSF 081700Z 0818/0918 28012KT 9999 SCT060"
    },
    {
      "icao": "LBWN",
      "alert": "OK",
      "vis_m": 9999,
      "fzfg": false,
      "metar_trigger": false,
      "taf_trigger": false,
      "metar": "METAR LBWN 082100Z AUTO 31005KT 9999 NSC 03/M00 Q1017 NOSIG",
      "taf": "TAF LBWN 081700Z 0818/0918 01010KT 9999 SCT040"
    },
    {
      "icao": "LCLK",
      "alert": "OK",
      "vis_m": 9999,
      "fzfg": false,
      "metar_trigger": false,
      "taf_trigger": false,
      "metar": "METAR LCLK 082100Z 23010KT CAVOK 15/13 Q1013 NOSIG",
      "taf": "TAF LCLK 081730Z 0818/0918 22015KT 9999 FEW020"
    },
    {
      "icao": "LCPH",
      "alert": "OK",
      "vis_m": 9999,
      "fzfg": false,
      "metar_trigger": false,
      "taf_trigger": false,
      "metar": "METAR LCPH 082100Z AUTO 26011KT 250V320 9999 SCT017 BKN023 17/14 Q1014 NOSIG",
      "taf": "TAF LCPH 081730Z 0818/0918 28015KT 9999 FEW018 SCT025"
    },
    {
      "icao": "LEAL",
      "alert": "OK",
      "vis_m": 9999,
      "fzfg": false,
      "metar_trigger": false,
      "taf_trigger": false,
      "metar": "METAR LEAL 082100Z VRB02KT CAVOK 16/16 Q1019 NOSIG",
      "taf": "TAF LEAL 081700Z 0818/0918 10008KT CAVOK TX24/0912Z TN14/0903Z"
    },
    {
      "icao": "LEBB",
      "alert": "OK",
      "vis_m": 9999,
      "fzfg": false,
      "metar_trigger": false,
      "taf_trigger": false,
      "metar": "METAR LEBB 082100Z VRB01KT CAVOK 14/13 Q1020 NOSIG",
      "taf": "TAF LEBB 081700Z 0818/0918 27006KT CAVOK TX22/0912Z TN11/0906Z"
    },
    {
      "icao": "LEBL",
      "alert": "OK",
      "vis_m": 7000,
      "fzfg": false,
      "metar_trigger": false,
      "taf_trigger": false,
      "metar": "METAR LEBL 082100Z 07005KT 7000 NSC 14/14 Q1020 NOSIG",
      "taf": "TAF LEBL 081700Z 0818/0918 07010KT 9999 FEW030 TX22/0912Z TN11/0906Z"
    },
    {
      "icao": "LECH",
      "alert": "OK",
      "vis_m": 9999,
      "fzfg": false,
      "metar_trigger": false,
      "taf_trigger": false,
      "metar": "METAR LECH 082100Z AUTO 04006KT CAVOK 15/10 Q1021",
      "taf": "TAF LECH 081700Z 0818/0918 VRB04KT CAVOK TX27/0914Z TN08/0905Z"
    },
    {
      "icao": "LEMD",
      "alert": "OK",
      "vis_m": 9999,
      "fzfg": false,
      "metar_trigger": false,
      "taf_trigger": false,
      "metar": "METAR LEMD 082100Z 22005KT 170V260 CAVOK 12/05 Q1022 NOSIG",
      "taf": "TAF LEMD 081700Z 0818/0924 VRB04KT CAVOK TX25/0915Z TN09/0907Z"
    },
    {
      "icao": "LEMG",
      "alert": "OK",
      "vis_m": 9999,
      "fzfg": false,
      "metar_trigger": false,
      "taf_trigger": false,
      "metar": "METAR LEMG 082100Z 30007KT 260V330 9999 FEW010 SCT080 13/10 Q1018 NOSIG",
      "taf": "TAF LEMG 081700Z 0818/0918 27010KT 9999 FEW015 SCT025 BKN070 TX21/0914Z TN12/0906Z"
    },
    {
      "icao": "LEVC",
      "alert": "OK",
      "vis_m": 9999,
      "fzfg": false,
      "metar_trigger": false,
      "taf_trigger": false,
      "metar": "METAR LEVC 082100Z 09003KT CAVOK 15/12 Q1020 NOSIG",
      "taf": "TAF LEVC 081700Z 0818/0918 VRB04KT 9999 FEW015 TX27/0914Z TN11/0906Z"
    },
    {
      "icao": "LEXJ",
      "alert": "OK",
      "vis_m": 9999,
      "fzfg": false,
      "metar_trigger": false,
      "taf_trigger": false,
      "metar": "METAR LEXJ 082100Z 25003KT CAVOK 14/13 Q1021",
      "taf": "TAF LEXJ 082000Z 0821/0921 VRB03KT 9000 FEW010 TX22/0911Z TN11/0903Z"
    },
    {
      "icao": "LEZG",
      "alert": "OK",
      "vis_m": 9999,
      "fzfg": false,
      "metar_trigger": false,
      "taf_trigger": false,
      "metar": "METAR LEZG 082100Z 10006KT CAVOK 20/04 Q1019 NOSIG",
      "taf": "TAF LEZG 081700Z 0818/0918 10009KT CAVOK TX29/0914Z TN13/0906Z"
    },
    {
      "icao": "LEZL",
      "alert": "OK",
      "vis_m": 9999,
      "fzfg": false,
      "metar_trigger": false,
      "taf_trigger": false,
      "metar": "METAR LEZL 082100Z 07007KT 050V110 CAVOK 14/10 Q1019 NOSIG",
      "taf": "TAF LEZL 082000Z 0821/0921 04007KT CAVOK TX25/0915Z TN10/0906Z"
    },
    {
      "icao": "LFBD",
      "alert": "OK",
      "vis_m": 9999,
      "fzfg": false,
      "metar_trigger": false,
      "taf_trigger": false,
      "metar": "METAR LFBD 082100Z AUTO VRB01KT CAVOK 16/09 Q1019 NOSIG",
      "taf": "TAF LFBD 081700Z 0818/0924 11010KT CAVOK TX28/0915Z TN11/0905Z"
    },
    {
      "icao": "LFLL",
      "alert": "OK",
      "vis_m": 9999,
      "fzfg": false,
      "metar_trigger": false,
      "taf_trigger": false,
      "metar": "METAR LFLL 082100Z 00000KT CAVOK 17/08 Q1020 NOSIG",
      "taf": "TAF LFLL 081700Z 0818/0924 VRB04KT CAVOK"
    },
    {
      "icao": "LFLS",
      "alert": "OK",
      "vis_m": 9999,
      "fzfg": false,
      "metar_trigger": false,
      "taf_trigger": false,
      "metar": "METAR LFLS 082100Z AUTO 10006KT CAVOK 11/08 Q1020",
      "taf": "TAF LFLS 081400Z 0815/0915 VRB03KT CAVOK"
    },
    {
      "icao": "LFMN",
      "alert": "OK",
      "vis_m": 9999,
      "fzfg": false,
      "metar_trigger": false,
      "taf_trigger": false,
      "metar": "METAR LFMN 082100Z 31005KT CAVOK 14/11 Q1019 NOSIG",
      "taf": "TAF LFMN 082000Z 0821/1003 VRB04KT CAVOK"
    },
    {
      "icao": "LFOB",
      "alert": "OK",
      "vis_m": 9999,
      "fzfg": false,
      "metar_trigger": false,
      "taf_trigger": false,
      "metar": "METAR LFOB 082100Z AUTO 31007KT 9999 FEW017 10/08 Q1021 NOSIG",
      "taf": "TAF LFOB 081700Z 0818/0918 VRB04KT CAVOK"
    },
    {
      "icao": "LFPO",
      "alert": "OK",
      "vis_m": 9999,
      "fzfg": false,
      "metar_trigger": false,
      "taf_trigger": false,
      "metar": "METAR LFPO 082100Z 05003KT CAVOK 16/08 Q1021 NOSIG",
      "taf": "TAF LFPO 081700Z 0818/0924 07005KT CAVOK"
    },
    {
      "icao": "LFSB",
      "alert": "OK",
      "vis_m": 9999,
      "fzfg": false,
      "metar_trigger": false,
      "taf_trigger": false,
      "metar": "METAR LFSB 082100Z AUTO 33005KT CAVOK 12/04 Q1021 NOSIG",
      "taf": "TAF LFSB 081700Z 0818/0918 35006KT CAVOK"
    },
    {
      "icao": "LGAV",
      "alert": "OK",
      "vis_m": 9999,
      "fzfg": false,
      "metar_trigger": false,
      "taf_trigger": false,
      "metar": "METAR LGAV 082050Z 29002KT 9999 FEW030 SCT060 13/09 Q1015 NOSIG",
      "taf": "TAF LGAV 081700Z 0818/0918 04010KT 9999 FEW025 SCT030"
    },
    {
      "icao": "LGTS",
      "alert": "OK",
      "vis_m": 9999,
      "fzfg": false,
      "metar_trigger": false,
      "taf_trigger": false,
      "metar": "METAR LGTS 082050Z 14004KT 9999 FEW030 15/02 Q1016 NOSIG",
      "taf": "TAF LGTS 081700Z 0818/0918 34015KT 9999 FEW025"
    },
    {
      "icao": "LHBP",
      "alert": "OK",
      "vis_m": 9999,
      "fzfg": false,
      "metar_trigger": false,
      "taf_trigger": false,
      "metar": "METAR LHBP 082100Z VRB01KT CAVOK 04/M03 Q1022 NOSIG",
      "taf": ""
    },
    {
      "icao": "LHDC",
      "alert": "OK",
      "vis_m": 9999,
      "fzfg": false,
      "metar_trigger": false,
      "taf_trigger": false,
      "metar": "METAR LHDC 082045Z AUTO 03009KT CAVOK 05/M02 Q1021",
      "taf": "TAF LHDC 081415Z 0815/0824 03010KT CAVOK"
    },
    {
      "icao": "LIBD",
      "alert": "OK",
      "vis_m": 9999,
      "fzfg": false,
      "metar_trigger": false,
      "taf_trigger": false,
      "metar": "METAR LIBD 082050Z 23003KT CAVOK 12/09 Q1018",
      "taf": "TAF LIBD 081700Z 0818/0918 26006KT CAVOK"
    },
    {
      "icao": "LIBG",
      "alert": "OK",
      "vis_m": null,
      "fzfg": false,
      "metar_trigger": false,
      "taf_trigger": false,
      "metar": "",
      "taf": "TAF LIBG 081400Z 0815/0824 01010KT CAVOK"
    },
    {
      "icao": "LIBP",
      "alert": "OK",
      "vis_m": 9999,
      "fzfg": false,
      "metar_trigger": false,
      "taf_trigger": false,
      "metar": "METAR LIBP 082050Z AUTO 21004KT 9999 NCD 12/10 Q1019",
      "taf": "TAF LIBP 081700Z 0818/0918 VRB05KT CAVOK"
    },
    {
      "icao": "LIBR",
      "alert": "OK",
      "vis_m": 9999,
      "fzfg": false,
      "metar_trigger": false,
      "taf_trigger": false,
      "metar": "METAR LIBR 082050Z 29006KT CAVOK 14/11 Q1017",
      "taf": "TAF LIBR 081700Z 0818/0918 33014KT CAVOK"
    },
    {
      "icao": "LICA",
      "alert": "OK",
      "vis_m": 9999,
      "fzfg": false,
      "metar_trigger": false,
      "taf_trigger": false,
      "metar": "METAR LICA 082050Z AUTO 26004KT 9999 NCD 12/11 Q1020",
      "taf": "TAF LICA 081700Z 0818/0918 25010KT CAVOK"
    },
    {
      "icao": "LICC",
      "alert": "OK",
      "vis_m": 9999,
      "fzfg": false,
      "metar_trigger": false,
      "taf_trigger": false,
      "metar": "METAR LICC 082050Z 30003KT 280V350 CAVOK 16/11 Q1019",
      "taf": "TAF LICC 081700Z 0818/0918 VRB05KT CAVOK"
    },
    {
      "icao": "LICJ",
      "alert": "OK",
      "vis_m": 9999,
      "fzfg": false,
      "metar_trigger": false,
      "taf_trigger": false,
      "metar": "METAR LICJ 082050Z VRB01KT CAVOK 15/10 Q1020",
      "taf": "TAF LICJ 081700Z 0818/0918 VRB05KT CAVOK"
    },
    {
      "icao": "LIMC",
      "alert": "OK",
      "vis_m": 9999,
      "fzfg": false,
      "metar_trigger": false,
      "taf_trigger": false,
      "metar": "METAR LIMC 082050Z 06003KT CAVOK 15/12 Q1018 NOSIG",
      "taf": "TAF LIMC 081700Z 0818/0924 VRB05KT CAVOK"
    },
    {
      "icao": "LIME",
      "alert": "OK",
      "vis_m": 9999,
      "fzfg": false,
      "metar_trigger": false,
      "taf_trigger": false,
      "metar": "METAR LIME 082050Z 11005KT 070V140 CAVOK 16/10 Q1018 NOSIG",
      "taf": "TAF LIME 081700Z 0818/0918 VRB05KT 9999 FEW040"
    },
    {
      "icao": "LIMF",
      "alert": "OK",
      "vis_m": 9999,
      "fzfg": false,
      "metar_trigger": false,
      "taf_trigger": false,
      "metar": "METAR LIMF 082050Z AUTO 34006KT 9999 NCD 18/09 Q1018",
      "taf": "TAF LIMF 081700Z 0818/0918 VRB05KT CAVOK"
    },
    {
      "icao": "LIMJ",
      "alert": "OK",
      "vis_m": 9999,
      "fzfg": false,
      "metar_trigger": false,
      "taf_trigger": false,
      "metar": "METAR LIMJ 082050Z AUTO 03003KT 310V050 9999 NCD 15/11 Q1019",
      "taf": "TAF LIMJ 081700Z 0818/0918 VRB05KT CAVOK"
    },
    {
      "icao": "LIPE",
      "alert": "OK",
      "vis_m": 9999,
      "fzfg": false,
      "metar_trigger": false,
      "taf_trigger": false,
      "metar": "METAR LIPE 082050Z 08005KT CAVOK 14/01 Q1018",
      "taf": "TAF LIPE 081700Z 0818/0918 09010KT CAVOK"
    },
    {
      "icao": "LIPH",
      "alert": "OK",
      "vis_m": 9999,
      "fzfg": false,
      "metar_trigger": false,
      "taf_trigger": false,
      "metar": "METAR LIPH 081950Z VRB02KT CAVOK 13/05 Q1019",
      "taf": "TAF LIPH 081700Z 0818/0918 VRB05KT 9999 FEW040"
    },
    {
      "icao": "LIPQ",
      "alert": "OK",
      "vis_m": 9999,
      "fzfg": false,
      "metar_trigger": false,
      "taf_trigger": false,
      "metar": "METAR LIPQ 082050Z AUTO 09003KT 9999 NCD 11/04 Q1019",
      "taf": "TAF LIPQ 081700Z 0818/0918 08008KT CAVOK"
    },
    {
      "icao": "LIPR",
      "alert": "OK",
      "vis_m": 9999,
      "fzfg": false,
      "metar_trigger": false,
      "taf_trigger": false,
      "metar": "METAR LIPR 082050Z 12005KT CAVOK 14/12 Q1018",
      "taf": "TAF LIPR 081700Z 0818/0918 VRB05KT CAVOK"
    },
    {
      "icao": "LIPX",
      "alert": "OK",
      "vis_m": 9999,
      "fzfg": false,
      "metar_trigger": false,
      "taf_trigger": false,
      "metar": "METAR LIPX 082050Z 08004KT CAVOK 15/06 Q1019",
      "taf": "TAF LIPX 081700Z 0818/0918 05006KT 9999 SCT040"
    },
    {
      "icao": "LIPY",
      "alert": "OK",
      "vis_m": 9999,
      "fzfg": false,
      "metar_trigger": false,
      "taf_trigger": false,
      "metar": "METAR LIPY 082050Z AUTO VRB01KT 9999 NCD 12/08 Q1018",
      "taf": "TAF LIPY 081700Z 0818/0918 VRB05KT CAVOK"
    },
    {
      "icao": "LIPZ",
      "alert": "OK",
      "vis_m": 9999,
      "fzfg": false,
      "metar_trigger": false,
      "taf_trigger": false,
      "metar": "METAR LIPZ 082050Z 25003KT CAVOK 14/10 Q1019 NOSIG",
      "taf": "TAF LIPZ 081700Z 0818/0924 VRB05KT CAVOK"
    },
    {
      "icao": "LIRF",
      "alert": "OK",
      "vis_m": 9999,
      "fzfg": false,
      "metar_trigger": false,
      "taf_trigger": false,
      "metar": "METAR LIRF 082050Z 26003KT CAVOK 14/12 Q1019 NOSIG",
      "taf": "TAF LIRF 081700Z 0818/0924 27010KT CAVOK"
    },
    {
      "icao": "LIRN",
      "alert": "OK",
      "vis_m": 9999,
      "fzfg": false,
      "metar_trigger": false,
      "taf_trigger": false,
      "metar": "METAR LIRN 082050Z 16002KT CAVOK 15/12 Q1020 NOSIG",
      "taf": "TAF LIRN 081700Z 0818/0918 VRB05KT CAVOK"
    },
    {
      "icao": "LIRP",
      "alert": "OK",
      "vis_m": 9999,
      "fzfg": false,
      "metar_trigger": false,
      "taf_trigger": false,
      "metar": "METAR LIRP 082045Z 18002KT CAVOK 11/10 Q1019 NOSIG",
      "taf": "TAF LIRP 081700Z 0818/0918 27005KT CAVOK"
    },
    {
      "icao": "LIRZ",
      "alert": "OK",
      "vis_m": 9999,
      "fzfg": false,
      "metar_trigger": false,
      "taf_trigger": false,
      "metar": "METAR LIRZ 082050Z AUTO 09003KT 010V110 9999 NCD 13/06 Q1019",
      "taf": "TAF LIRZ 081700Z 0818/0918 VRB05KT CAVOK"
    },
    {
      "icao": "LJLJ",
      "alert": "OK",
      "vis_m": 9999,
      "fzfg": false,
      "metar_trigger": false,
      "taf_trigger": false,
      "metar": "METAR LJLJ 082100Z 13009KT CAVOK 10/M03 Q1022 NOSIG",
      "taf": "TAF LJLJ 081700Z 0818/0918 12005KT CAVOK"
    },
    {
      "icao": "LKMT",
      "alert": "OK",
      "vis_m": 9999,
      "fzfg": false,
      "metar_trigger": false,
      "taf_trigger": false,
      "metar": "METAR LKMT 082100Z 00000KT 9999 OVC049 04/M01 Q1025 NOSIG",
      "taf": "TAF LKMT 081700Z 0818/0918 02008KT 9999 BKN040"
    },
    {
      "icao": "LKPR",
      "alert": "OK",
      "vis_m": 9999,
      "fzfg": false,
      "metar_trigger": false,
      "taf_trigger": false,
      "metar": "METAR LKPR 082100Z 08003KT CAVOK 05/M03 Q1026 NOSIG",
      "taf": "TAF LKPR 082000Z 0821/1003 02006KT CAVOK"
    },
    {
      "icao": "LLBG",
      "alert": "OK",
      "vis_m": 9999,
      "fzfg": false,
      "metar_trigger": false,
      "taf_trigger": false,
      "metar": "METAR LLBG 082050Z 15006KT CAVOK 15/12 Q1017 NOSIG",
      "taf": "TAF LLBG 081705Z 0818/0918 17006KT 9999 SCT025 TX21/0911Z TN14/0903Z"
    },
    {
      "icao": "LMML",
      "alert": "OK",
      "vis_m": 9999,
      "fzfg": false,
      "metar_trigger": false,
      "taf_trigger": false,
      "metar": "METAR LMML 082045Z 22009KT CAVOK 16/09 Q1020 NOSIG",
      "taf": "TAF LMML 081700Z 0818/0918 26010KT CAVOK"
    },
    {
      "icao": "LOWW",
      "alert": "OK",
      "vis_m": 9999,
      "fzfg": false,
      "metar_trigger": false,
      "taf_trigger": false,
      "metar": "METAR LOWW 082050Z 02009KT CAVOK 05/M02 Q1025 NOSIG",
      "taf": "TAF LOWW 082015Z 0821/1003 36012KT CAVOK TX14/0915Z TN01/1003Z"
    },
    {
      "icao": "LPFR",
      "alert": "OK",
      "vis_m": 9999,
      "fzfg": false,
      "metar_trigger": false,
      "taf_trigger": false,
      "metar": "METAR LPFR 082100Z 04005KT 360V090 9999 FEW030 14/08 Q1018",
      "taf": "TAF LPFR 081700Z 0818/0918 13010KT 9999 SCT030"
    },
    {
      "icao": "LPMA",
      "alert": "OK",
      "vis_m": 9999,
      "fzfg": false,
      "metar_trigger": false,
      "taf_trigger": false,
      "metar": "METAR LPMA 082100Z 34021G34KT 300V020 9999 -SHRA BKN015 FEW016TCU 15/09 Q1018",
      "taf": "TAF LPMA 081700Z 0818/0918 33013KT 9999 SCT015"
    },
    {
      "icao": "LPPR",
      "alert": "OK",
      "vis_m": 7000,
      "fzfg": false,
      "metar_trigger": false,
      "taf_trigger": false,
      "metar": "METAR LPPR 082100Z 32003KT 7000 NSC 13/12 Q1021",
      "taf": "TAF LPPR 081700Z 0818/0918 VRB02KT 9999 SCT030"
    },
    {
      "icao": "LPPS",
      "alert": "OK",
      "vis_m": 9999,
      "fzfg": false,
      "metar_trigger": false,
      "taf_trigger": false,
      "metar": "METAR LPPS 082100Z 34022KT 9999 SCT014 BKN030 15/11 Q1018",
      "taf": "TAF LPPS 081700Z 0818/0924 32018KT 9999 SCT015 SCT030"
    },
    {
      "icao": "LPPT",
      "alert": "OK",
      "vis_m": 9999,
      "fzfg": false,
      "metar_trigger": false,
      "taf_trigger": false,
      "metar": "METAR LPPT 082100Z 03005KT CAVOK 14/09 Q1019",
      "taf": "TAF LPPT 081700Z 0818/0924 11010KT 9999 FEW025"
    },
    {
      "icao": "LQBK",
      "alert": "OK",
      "vis_m": 9999,
      "fzfg": false,
      "metar_trigger": false,
      "taf_trigger": false,
      "metar": "METAR LQBK 082100Z 28003KT CAVOK 06/M03 Q1023 NOSIG",
      "taf": "TAF LQBK 081700Z 0818/0918 29005KT CAVOK TX15/0914Z TN04/0905Z"
    },
    {
      "icao": "LQSA",
      "alert": "OK",
      "vis_m": 9999,
      "fzfg": false,
      "metar_trigger": false,
      "taf_trigger": false,
      "metar": "METAR LQSA 082100Z 30002KT CAVOK 06/M04 Q1020 NOSIG",
      "taf": "TAF LQSA 081700Z 0818/0918 34006KT CAVOK TX16/0914Z TNM02/0905Z"
    },
    {
      "icao": "LQTZ",
      "alert": "OK",
      "vis_m": 9999,
      "fzfg": false,
      "metar_trigger": false,
      "taf_trigger": false,
      "metar": "METAR LQTZ 082100Z 32003KT CAVOK 05/M01 Q1021",
      "taf": "TAF LQTZ 081700Z 0818/0918 29006KT CAVOK TX15/0914Z TN00/0904Z"
    },
    {
      "icao": "LRBC",
      "alert": "OK",
      "vis_m": 9999,
      "fzfg": false,
      "metar_trigger": false,
      "taf_trigger": false,
      "metar": "METAR LRBC 082100Z 33013KT 9999 -RA FEW017 BKN038 05/M00 Q1017",
      "taf": "TAF LRBC 082000Z 0821/0906 33008KT 9999 BKN050"
    },
    {
      "icao": "LRBS",
      "alert": "OK",
      "vis_m": 9999,
      "fzfg": false,
      "metar_trigger": false,
      "taf_trigger": false,
      "metar": "METAR LRBS 082100Z 00000KT CAVOK 08/01 Q1017 NOSIG",
      "taf": "TAF LRBS 081700Z 0818/0918 VRB04KT CAVOK"
    },
    {
      "icao": "LRBV",
      "alert": "OK",
      "vis_m": 9999,
      "fzfg": false,
      "metar_trigger": false,
      "taf_trigger": false,
      "metar": "METAR LRBV 082100Z AUTO 30011KT 270V330 9999 FEW018/// SCT037/// BKN049/// 03/M03 Q1017",
      "taf": "TAF LRBV 081700Z 0818/0903 31010KT 9999 BKN060"
    },
    {
      "icao": "LRCL",
      "alert": "OK",
      "vis_m": 9999,
      "fzfg": false,
      "metar_trigger": false,
      "taf_trigger": false,
      "metar": "METAR LRCL 082100Z 28006KT CAVOK 04/M03 Q1019",
      "taf": "TAF LRCL 082000Z 0821/0906 30008KT CAVOK"
    },
    {
      "icao": "LRCV",
      "alert": "OK",
      "vis_m": 9999,
      "fzfg": false,
      "metar_trigger": false,
      "taf_trigger": false,
      "metar": "METAR LRCV 082100Z 01004KT CAVOK 08/M02 Q1017",
      "taf": "TAF LRCV 082000Z 0821/0906 01006KT CAVOK"
    },
    {
      "icao": "LRIA",
      "alert": "OK",
      "vis_m": 9999,
      "fzfg": false,
      "metar_trigger": false,
      "taf_trigger": false,
      "metar": "METAR LRIA 082100Z 30011KT 260V320 9999 OVC022 05/01 Q1015",
      "taf": "TAF LRIA 082000Z 0821/0906 30012KT 9999 BKN030"
    },
    {
      "icao": "LROP",
      "alert": "OK",
      "vis_m": 9999,
      "fzfg": false,
      "metar_trigger": false,
      "taf_trigger": false,
      "metar": "METAR LROP 082100Z 33004KT 300V020 CAVOK 08/M05 Q1017 NOSIG",
      "taf": "TAF LROP 081700Z 0818/0918 VRB04KT CAVOK"
    },
    {
      "icao": "LRSB",
      "alert": "OK",
      "vis_m": 9999,
      "fzfg": false,
      "metar_trigger": false,
      "taf_trigger": false,
      "metar": "METAR LRSB 082100Z 33007KT 9999 FEW030 BKN045 05/M03 Q1018",
      "taf": "TAF LRSB 081700Z 0818/0918 35012KT CAVOK"
    },
    {
      "icao": "LRSM",
      "alert": "OK",
      "vis_m": 9999,
      "fzfg": false,
      "metar_trigger": false,
      "taf_trigger": false,
      "metar": "METAR LRSM 082100Z AUTO 34008KT 9999 FEW100/// 02/M02 Q1021",
      "taf": "TAF LRSM 081400Z 0815/0824 34014KT CAVOK"
    },
    {
      "icao": "LRSV",
      "alert": "OK",
      "vis_m": 9999,
      "fzfg": false,
      "metar_trigger": false,
      "taf_trigger": false,
      "metar": "METAR LRSV 082100Z 30014KT 9999 SCT015 02/00 Q1015",
      "taf": "TAF LRSV 082000Z 0821/0906 31014KT 9999 BKN035"
    },
    {
      "icao": "LRTM",
      "alert": "OK",
      "vis_m": 9999,
      "fzfg": false,
      "metar_trigger": false,
      "taf_trigger": false,
      "metar": "METAR LRTM 082100Z 27007KT 250V310 CAVOK 05/M02 Q1018",
      "taf": "TAF LRTM 082000Z 0821/0906 28008KT CAVOK"
    },
    {
      "icao": "LRTR",
      "alert": "OK",
      "vis_m": 9999,
      "fzfg": false,
      "metar_trigger": false,
      "taf_trigger": false,
      "metar": "METAR LRTR 082100Z 01011KT CAVOK 03/00 Q1019 NOSIG",
      "taf": "TAF LRTR 081700Z 0818/0918 31005KT CAVOK"
    },
    {
      "icao": "LTAC",
      "alert": "OK",
      "vis_m": 9999,
      "fzfg": false,
      "metar_trigger": false,
      "taf_trigger": false,
      "metar": "METAR LTAC 082050Z 31008KT CAVOK 01/M06 Q1015 NOSIG RMK RWY21C 30010KT RWY03L 30008KT RWY21R 30009KT RWY03R 29007KT RWY21L 28011KT",
      "taf": "TAF LTAC 081640Z 0818/0918 32012KT 9999 SCT040 SCT100"
    },
    {
      "icao": "LTFM",
      "alert": "OK",
      "vis_m": 9999,
      "fzfg": false,
      "metar_trigger": false,
      "taf_trigger": false,
      "metar": "METAR LTFM 082050Z 16005KT CAVOK 07/01 Q1018 NOSIG RMK RWY17L 17006KT RWY34L 16004KT RWY16R 16008KT RWY36 18006KT RWY18 19007KT",
      "taf": "TAF LTFM 081640Z 0818/0924 08010KT CAVOK"
    },
    {
      "icao": "LUKK",
      "alert": "OK",
      "vis_m": 9999,
      "fzfg": false,
      "metar_trigger": false,
      "taf_trigger": false,
      "metar": "METAR LUKK 082100Z 33011KT 9999 BKN027 05/01 Q1013 NOSIG",
      "taf": "TAF LUKK 081703Z 0818/0918 32012KT 9999 BKN030"
    },
    {
      "icao": "LWOH",
      "alert": "OK",
      "vis_m": null,
      "fzfg": false,
      "metar_trigger": false,
      "taf_trigger": false,
      "metar": "",
      "taf": "TAF LWOH 082015Z 0821/0921 34005KT 9999 FEW040"
    },
    {
      "icao": "LWSK",
      "alert": "OK",
      "vis_m": 9999,
      "fzfg": false,
      "metar_trigger": false,
      "taf_trigger": false,
      "metar": "METAR LWSK 082050Z 01008KT CAVOK 08/M01 Q1019 NOSIG",
      "taf": "TAF LWSK 082015Z 0821/0921 02010KT CAVOK"
    },
    {
      "icao": "LYBE",
      "alert": "OK",
      "vis_m": 9999,
      "fzfg": false,
      "metar_trigger": false,
      "taf_trigger": false,
      "metar": "METAR LYBE 082100Z 29006KT CAVOK 07/M01 Q1020 NOSIG",
      "taf": "TAF LYBE 081700Z 0818/0918 32007KT CAVOK TX13/0914Z TN02/0904Z"
    },
    {
      "icao": "LYNI",
      "alert": "OK",
      "vis_m": 9999,
      "fzfg": false,
      "metar_trigger": false,
      "taf_trigger": false,
      "metar": "METAR LYNI 082100Z VRB01KT CAVOK 06/M01 Q1019 NOSIG",
      "taf": "TAF LYNI 081700Z 0818/0918 04005KT 9999 SCT070 TX12/0913Z TN02/0904Z"
    },
    {
      "icao": "LYPG",
      "alert": "OK",
      "vis_m": 9999,
      "fzfg": false,
      "metar_trigger": false,
      "taf_trigger": false,
      "metar": "METAR LYPG 082100Z 33007KT 310V030 CAVOK 16/M08 Q1016 TEMPO 36017KT",
      "taf": "TAF LYPG 081700Z 0818/0918 36009KT CAVOK TX22/0913Z TN08/0904Z"
    },
    {
      "icao": "LZIB",
      "alert": "OK",
      "vis_m": 9999,
      "fzfg": false,
      "metar_trigger": false,
      "taf_trigger": false,
      "metar": "METAR LZIB 082100Z 03013KT CAVOK 06/M02 Q1024 NOSIG",
      "taf": "TAF LZIB 081715Z 0818/0918 34013KT CAVOK"
    },
    {
      "icao": "LZKZ",
      "alert": "OK",
      "vis_m": 9999,
      "fzfg": false,
      "metar_trigger": false,
      "taf_trigger": false,
      "metar": "METAR LZKZ 082100Z 35005KT 310V030 CAVOK 04/M03 Q1022 NOSIG",
      "taf": ""
    },
    {
      "icao": "LZTT",
      "alert": "OK",
      "vis_m": 9999,
      "fzfg": false,
      "metar_trigger": false,
      "taf_trigger": false,
      "metar": "METAR LZTT 082100Z VRB03KT 9999 FEW043 M03/M06 Q1021",
      "taf": ""
    },
    {
      "icao": "OEJN",
      "alert": "OK",
      "vis_m": 9999,
      "fzfg": false,
      "metar_trigger": false,
      "taf_trigger": false,
      "metar": "METAR OEJN 082100Z 36010KT CAVOK 26/14 Q1013 NOSIG",
      "taf": "TAF OEJN 081700Z 0818/0924 35014KT CAVOK"
    },
    {
      "icao": "OEMA",
      "alert": "OK",
      "vis_m": 9999,
      "fzfg": false,
      "metar_trigger": false,
      "taf_trigger": false,
      "metar": "METAR OEMA 082100Z 30011KT CAVOK 23/M05 Q1017 NOSIG",
      "taf": "TAF OEMA 081700Z 0818/0924 30016KT 9999 FEW045"
    },
    {
      "icao": "OJAI",
      "alert": "OK",
      "vis_m": 5000,
      "fzfg": false,
      "metar_trigger": false,
      "taf_trigger": false,
      "metar": "METAR OJAI 082100Z 26004KT 5000 BR NSC 09/07 Q1020 NOSIG",
      "taf": "TAF OJAI 081700Z 0818/0924 27010KT 5000 HZ FEW025TCU SCT030"
    },
    {
      "icao": "OMAA",
      "alert": "OK",
      "vis_m": null,
      "fzfg": false,
      "metar_trigger": false,
      "taf_trigger": false,
      "metar": "",
      "taf": ""
    },
    {
      "icao": "OMDB",
      "alert": "OK",
      "vis_m": null,
      "fzfg": false,
      "metar_trigger": false,
      "taf_trigger": false,
      "metar": "",
      "taf": ""
    },
    {
      "icao": "UAAA",
      "alert": "OK",
      "vis_m": 9999,
      "fzfg": false,
      "metar_trigger": false,
      "taf_trigger": false,
      "metar": "METAR UAAA 082100Z 24004MPS 9999 BKN034CB OVC100 13/09 Q1012 NOSIG",
      "taf": "TAF UAAA 081703Z 0818/0918 22003G08MPS 6000 BKN020CB OVC050 TX13/0908Z TN09/0901Z"
    },
    {
      "icao": "UBBB",
      "alert": "OK",
      "vis_m": 9999,
      "fzfg": false,
      "metar_trigger": false,
      "taf_trigger": false,
      "metar": "METAR UBBB 082100Z 32007KT CAVOK 07/05 Q1010 NOSIG",
      "taf": "TAF UBBB 081657Z 0818/0918 33014KT 9999 SCT015 TX12/0910Z TN08/0901Z"
    },
    {
      "icao": "UDSG",
      "alert": "OK",
      "vis_m": 9999,
      "fzfg": false,
      "metar_trigger": false,
      "taf_trigger": false,
      "metar": "METAR UDSG 082100Z 20021G32KT 9999 BKN040CB 08/M00 Q1005 NOSIG",
      "taf": "TAF UDSG 081658Z 0818/0918 VRB06KT 9999 BKN040"
    },
    {
      "icao": "UDYZ",
      "alert": "OK",
      "vis_m": 9999,
      "fzfg": false,
      "metar_trigger": false,
      "taf_trigger": false,
      "metar": "METAR UDYZ 082100Z VRB02KT 9999 SCT043CB 11/02 Q1005 NOSIG",
      "taf": "TAF UDYZ 081700Z 0818/0918 06006KT 9999 SCT040"
    },
    {
      "icao": "UGKO",
      "alert": "OK",
      "vis_m": 9999,
      "fzfg": false,
      "metar_trigger": false,
      "taf_trigger": false,
      "metar": "METAR UGKO 082100Z VRB02KT 9999 -SHRA SCT044CB OVC065 07/05 Q1009 NOSIG",
      "taf": "TAF UGKO 081700Z 0818/0918 25007KT 9000 SCT020 OVC050 TX11/0910Z TN06/0903Z"
    }
  ]
}