{
  "ts_utc": "2026-01-03T21:52:57Z",
  "threshold_m": 150,
  "source": "stations_override.txt (ICAO list) + aviationweather.gov (METAR/TAF raw)",
  "station_count": 159,
  "stations": [
    {
      "icao": "BIKF",
      "alert": "OK",
      "vis_m": 9999,
      "fzfg": false,
      "metar_trigger": false,
      "taf_trigger": false,
      "metar": "METAR BIKF 032130Z 01008KT CAVOK M02/M06 Q1029",
      "taf": "TAF BIKF 031950Z 0321/0421 01008KT CAVOK TX02/0417Z TNM04/0408Z"
    },
    {
      "icao": "BKPR",
      "alert": "OK",
      "vis_m": 9999,
      "fzfg": false,
      "metar_trigger": false,
      "taf_trigger": false,
      "metar": "METAR BKPR 032130Z 36006KT 9999 SCT008 BKN020 01/01 Q1008 NOSIG",
      "taf": "TAF BKPR 031730Z 0318/0418 35010KT 9999 FEW020 BKN040"
    },
    {
      "icao": "EBCI",
      "alert": "OK",
      "vis_m": 9000,
      "fzfg": false,
      "metar_trigger": false,
      "taf_trigger": false,
      "metar": "METAR EBCI 032120Z 26007KT 9000 SCT003 BKN009 M01/M01 Q1009 BECMG SCT035",
      "taf": "TAF EBCI 031720Z 0318/0424 27008KT 9999 SCT015"
    },
    {
      "icao": "EDDB",
      "alert": "OK",
      "vis_m": 9999,
      "fzfg": false,
      "metar_trigger": false,
      "taf_trigger": false,
      "metar": "METAR EDDB 032120Z AUTO 23013KT 9999 FEW008 BKN019 BKN032 M01/M02 Q0997 RESHSN TEMPO 2500 SHSN BKN009",
      "taf": ""
    },
    {
      "icao": "EDDH",
      "alert": "OK",
      "vis_m": 9999,
      "fzfg": false,
      "metar_trigger": false,
      "taf_trigger": false,
      "metar": "METAR EDDH 032120Z AUTO 29009KT 9999 SCT044 M03/M05 Q0998 NOSIG",
      "taf": "TAF EDDH 031700Z 0318/0424 24010KT 9999 BKN015"
    },
    {
      "icao": "EDDK",
      "alert": "OK",
      "vis_m": 9999,
      "fzfg": false,
      "metar_trigger": false,
      "taf_trigger": false,
      "metar": "METAR EDDK 032120Z AUTO 28009KT 9999 -SHSN BKN013 BKN045 FEW///TCU 00/M02 Q1007 TEMPO 1500 SHSN BKN007",
      "taf": "TAF EDDK 031700Z 0318/0424 27012KT 9999 BKN020"
    },
    {
      "icao": "EDDN",
      "alert": "OK",
      "vis_m": 7000,
      "fzfg": false,
      "metar_trigger": false,
      "taf_trigger": false,
      "metar": "METAR EDDN 032120Z AUTO 25011KT 7000 -SN FEW019 BKN039 BKN048 M02/M05 Q1007",
      "taf": "TAF EDDN 031700Z 0318/0418 24009KT 9999 BKN015"
    },
    {
      "icao": "EDDS",
      "alert": "OK",
      "vis_m": 9999,
      "fzfg": false,
      "metar_trigger": false,
      "taf_trigger": false,
      "metar": "METAR EDDS 032120Z AUTO 23005KT 180V270 9999 BKN038 M03/M07 Q1008",
      "taf": "TAF EDDS 031700Z 0318/0418 22006KT 9999 FEW020 BKN040"
    },
    {
      "icao": "EDFH",
      "alert": "OK",
      "vis_m": 9999,
      "fzfg": false,
      "metar_trigger": false,
      "taf_trigger": false,
      "metar": "METAR EDFH 032120Z 26010KT 9999 BKN011 M03/M05 Q1006",
      "taf": ""
    },
    {
      "icao": "EDJA",
      "alert": "OK",
      "vis_m": 9999,
      "fzfg": false,
      "metar_trigger": false,
      "taf_trigger": false,
      "metar": "METAR EDJA 032120Z 24011KT 9999 BKN048 BKN055 M04/M07 Q1008",
      "taf": "TAF EDJA 031700Z 0318/0403 24010KT 9999 BKN040"
    },
    {
      "icao": "EDLW",
      "alert": "OK",
      "vis_m": 4100,
      "fzfg": false,
      "metar_trigger": false,
      "taf_trigger": false,
      "metar": "METAR EDLW 032120Z 24010KT 4100 -SN BR BKN008 OVC015 00/M01 Q1004",
      "taf": "TAF EDLW 031700Z 0318/0418 25009KT 9999 SCT010 BKN015"
    },
    {
      "icao": "EDNY",
      "alert": "OK",
      "vis_m": 9999,
      "fzfg": false,
      "metar_trigger": false,
      "taf_trigger": false,
      "metar": "METAR EDNY 032120Z AUTO 28004KT 230V360 9999 // OVC023/// M02/M05 Q1010",
      "taf": "TAF EDNY 031700Z 0318/0403 25005KT 9999 BKN030"
    },
    {
      "icao": "EDSB",
      "alert": "OK",
      "vis_m": 9999,
      "fzfg": false,
      "metar_trigger": false,
      "taf_trigger": false,
      "metar": "METAR EDSB 032120Z 21009KT 9999 SCT035 BKN047 M02/M05 Q1011",
      "taf": "TAF EDSB 031700Z 0318/0418 21008KT 9999 FEW020 BKN030"
    },
    {
      "icao": "EETN",
      "alert": "OK",
      "vis_m": 2100,
      "fzfg": false,
      "metar_trigger": false,
      "taf_trigger": false,
      "metar": "METAR EETN 032150Z 06003KT 2100 SN SCT017 OVC025 M03/M03 Q0992 TEMPO 1500",
      "taf": "TAF EETN 031730Z 0318/0418 08012KT 3000 SN SCT008 OVC015"
    },
    {
      "icao": "EFTU",
      "alert": "OK",
      "vis_m": 8000,
      "fzfg": false,
      "metar_trigger": false,
      "taf_trigger": false,
      "metar": "METAR EFTU 032150Z AUTO 06009KT 8000 -SN OVC032 M10/M12 Q0995",
      "taf": ""
    },
    {
      "icao": "EGBB",
      "alert": "OK",
      "vis_m": 9999,
      "fzfg": false,
      "metar_trigger": false,
      "taf_trigger": false,
      "metar": "METAR EGBB 032120Z 30007KT CAVOK M02/M06 Q1014",
      "taf": "TAF EGBB 031659Z 0318/0418 32009KT CAVOK"
    },
    {
      "icao": "EGGP",
      "alert": "OK",
      "vis_m": 9999,
      "fzfg": false,
      "metar_trigger": false,
      "taf_trigger": false,
      "metar": "METAR EGGP 032120Z 33007KT 9999 FEW038 00/M06 Q1015",
      "taf": "TAF EGGP 031658Z 0318/0418 31009KT 9999 SCT035"
    },
    {
      "icao": "EGGW",
      "alert": "OK",
      "vis_m": 9999,
      "fzfg": false,
      "metar_trigger": false,
      "taf_trigger": false,
      "metar": "METAR EGGW 032120Z AUTO 31009KT 9999 NCD M02/M06 Q1012",
      "taf": "TAF EGGW 031659Z 0318/0418 30012KT 9999 FEW025"
    },
    {
      "icao": "EGKK",
      "alert": "OK",
      "vis_m": 9999,
      "fzfg": false,
      "metar_trigger": false,
      "taf_trigger": false,
      "metar": "METAR EGKK 032120Z 30008KT CAVOK M00/M04 Q1013",
      "taf": "TAF EGKK 031655Z 0318/0424 30010KT CAVOK"
    },
    {
      "icao": "EGNM",
      "alert": "OK",
      "vis_m": 9999,
      "fzfg": false,
      "metar_trigger": false,
      "taf_trigger": false,
      "metar": "METAR EGNM 032120Z 30016KT CAVOK M02/M08 Q1012",
      "taf": "TAF EGNM 031657Z 0318/0418 30015KT 9999 FEW045"
    },
    {
      "icao": "EGPD",
      "alert": "OK",
      "vis_m": 9999,
      "fzfg": false,
      "metar_trigger": false,
      "taf_trigger": false,
      "metar": "METAR EGPD 032120Z AUTO 31015KT 9999 -SN FEW018 SCT042 M01/M04 Q1010 TEMPO 1800 SHSN",
      "taf": "TAF EGPD 031658Z 0318/0418 31012KT 9999 FEW012"
    },
    {
      "icao": "EGPF",
      "alert": "OK",
      "vis_m": 9999,
      "fzfg": false,
      "metar_trigger": false,
      "taf_trigger": false,
      "metar": "METAR EGPF 032120Z AUTO 25004KT 9999 NCD M02/M05 Q1015",
      "taf": "TAF EGPF 031704Z 0318/0418 30007KT 9999 FEW030"
    },
    {
      "icao": "EHBK",
      "alert": "OK",
      "vis_m": 9000,
      "fzfg": false,
      "metar_trigger": false,
      "taf_trigger": false,
      "metar": "METAR EHBK 032125Z AUTO 22013KT 9000 -FZUP SCT002 BKN003 BKN004 M00/M00 Q1008 BECMG BKN005",
      "taf": "TAF EHBK 031710Z 0318/0424 24011KT 9999 BKN006"
    },
    {
      "icao": "EHEH",
      "alert": "OK",
      "vis_m": 8000,
      "fzfg": false,
      "metar_trigger": false,
      "taf_trigger": false,
      "metar": "METAR EHEH 032125Z AUTO 23004KT 200V290 8000 -SN FEW001 SCT006 BKN011 01/M00 Q1007 REDZSN GRN TEMPO 2500 -SHSN SCT005 SCT015CB",
      "taf": ""
    },
    {
      "icao": "EKBI",
      "alert": "OK",
      "vis_m": 9999,
      "fzfg": false,
      "metar_trigger": false,
      "taf_trigger": false,
      "metar": "METAR EKBI 032120Z AUTO 28006KT 9999 NCD M07/M08 Q0997",
      "taf": "TAF EKBI 032027Z 0321/0421 26005KT 9999 FEW030"
    },
    {
      "icao": "EKCH",
      "alert": "OK",
      "vis_m": 9999,
      "fzfg": false,
      "metar_trigger": false,
      "taf_trigger": false,
      "metar": "METAR EKCH 032120Z 29007KT 9999 -SHSN BKN023 M04/M06 Q0994 TEMPO 3000 SHSN BKN014",
      "taf": "TAF EKCH 032027Z 0321/0421 28010KT 9999 -SHSN BKN040"
    },
    {
      "icao": "ENAL",
      "alert": "OK",
      "vis_m": 9999,
      "fzfg": false,
      "metar_trigger": false,
      "taf_trigger": false,
      "metar": "METAR ENAL 032120Z 14008KT CAVOK M06/M10 Q1002",
      "taf": "TAF ENAL 032000Z 0321/0406 13009KT CAVOK"
    },
    {
      "icao": "ENBR",
      "alert": "OK",
      "vis_m": 9999,
      "fzfg": false,
      "metar_trigger": false,
      "taf_trigger": false,
      "metar": "METAR ENBR 032120Z 04004KT CAVOK M09/M13 Q1000 RMK WIND 1200FT 26004KT",
      "taf": "TAF ENBR 031700Z 0318/0418 08005KT CAVOK"
    },
    {
      "icao": "ENGM",
      "alert": "OK",
      "vis_m": 9999,
      "fzfg": false,
      "metar_trigger": false,
      "taf_trigger": false,
      "metar": "METAR ENGM 032120Z 01013KT 9999 -SN BKN036 M08/M12 Q0997 TEMPO 4000",
      "taf": "TAF ENGM 031700Z 0318/0418 36015KT 9000 -SN BKN040"
    },
    {
      "icao": "ENHD",
      "alert": "OK",
      "vis_m": 9999,
      "fzfg": false,
      "metar_trigger": false,
      "taf_trigger": false,
      "metar": "METAR ENHD 032120Z AUTO 10007KT 9999 NCD M09/M14 Q1000",
      "taf": "TAF ENHD 031400Z 0315/0323 06009KT CAVOK"
    },
    {
      "icao": "ENTC",
      "alert": "OK",
      "vis_m": 9999,
      "fzfg": false,
      "metar_trigger": false,
      "taf_trigger": false,
      "metar": "METAR ENTC 032120Z 07003KT CAVOK M11/M13 Q1005 RMK WIND 2600FT 11008KT",
      "taf": "TAF ENTC 031700Z 0318/0418 19009KT 9999 FEW040"
    },
    {
      "icao": "ENTO",
      "alert": "OK",
      "vis_m": 1800,
      "fzfg": false,
      "metar_trigger": false,
      "taf_trigger": false,
      "metar": "METAR ENTO 032120Z 36012KT 1800 -SN VV010 M08/M09 Q0997 NOSIG",
      "taf": "TAF ENTO 031700Z 0318/0418 01012KT 8000 -SN BKN025"
    },
    {
      "icao": "ENVA",
      "alert": "OK",
      "vis_m": 9999,
      "fzfg": false,
      "metar_trigger": false,
      "taf_trigger": false,
      "metar": "METAR ENVA 032120Z 10006KT 9999 FEW001 M17/M18 Q1006 RMK WIND 670FT 14006KT",
      "taf": "TAF ENVA 031700Z 0318/0418 12009KT CAVOK"
    },
    {
      "icao": "ENZV",
      "alert": "OK",
      "vis_m": 9999,
      "fzfg": false,
      "metar_trigger": false,
      "taf_trigger": false,
      "metar": "METAR ENZV 032120Z 13001KT CAVOK M06/M15 Q1000",
      "taf": "TAF ENZV 031700Z 0318/0418 07005KT CAVOK"
    },
    {
      "icao": "EPGD",
      "alert": "OK",
      "vis_m": 9999,
      "fzfg": false,
      "metar_trigger": false,
      "taf_trigger": false,
      "metar": "METAR EPGD 032130Z 23011KT CAVOK M05/M09 Q0993",
      "taf": "TAF EPGD 031730Z 0318/0418 23010KT CAVOK"
    },
    {
      "icao": "EPKK",
      "alert": "OK",
      "vis_m": 9999,
      "fzfg": false,
      "metar_trigger": false,
      "taf_trigger": false,
      "metar": "METAR EPKK 032130Z 25015KT 9999 FEW030CB SCT045 M00/M06 Q1003",
      "taf": "TAF EPKK 032030Z 0321/0421 25005KT CAVOK"
    },
    {
      "icao": "EPKT",
      "alert": "OK",
      "vis_m": 9999,
      "fzfg": false,
      "metar_trigger": false,
      "taf_trigger": false,
      "metar": "METAR EPKT 032130Z 21010KT CAVOK M02/M07 Q1002",
      "taf": ""
    },
    {
      "icao": "EPLB",
      "alert": "OK",
      "vis_m": 9999,
      "fzfg": false,
      "metar_trigger": false,
      "taf_trigger": false,
      "metar": "METAR EPLB 032130Z 23014KT 9999 DRSN NSC M00/M07 Q1003",
      "taf": "TAF EPLB 031730Z 0318/0418 21013KT CAVOK"
    },
    {
      "icao": "EPMO",
      "alert": "OK",
      "vis_m": 9999,
      "fzfg": false,
      "metar_trigger": false,
      "taf_trigger": false,
      "metar": "METAR EPMO 032130Z 22015KT 9999 -SN BKN030 00/M05 Q0999",
      "taf": "TAF EPMO 031730Z 0318/0418 21012KT 9999 BKN030"
    },
    {
      "icao": "EPPO",
      "alert": "OK",
      "vis_m": 9999,
      "fzfg": false,
      "metar_trigger": false,
      "taf_trigger": false,
      "metar": "METAR EPPO 032130Z 21010KT 9999 BKN023 M01/M04 Q0997",
      "taf": ""
    },
    {
      "icao": "EPRA",
      "alert": "OK",
      "vis_m": 9999,
      "fzfg": false,
      "metar_trigger": false,
      "taf_trigger": false,
      "metar": "METAR EPRA 032130Z 23010KT 9999 SCT044 M00/M07 Q1001",
      "taf": "TAF EPRA 032030Z 0321/0406 23012KT 9999 SCT040"
    },
    {
      "icao": "EPRZ",
      "alert": "OK",
      "vis_m": 9999,
      "fzfg": false,
      "metar_trigger": false,
      "taf_trigger": false,
      "metar": "METAR EPRZ 032130Z 19008KT CAVOK M02/M10 Q1005",
      "taf": "TAF EPRZ 031730Z 0318/0418 20011KT CAVOK"
    },
    {
      "icao": "EPSC",
      "alert": "OK",
      "vis_m": 9999,
      "fzfg": false,
      "metar_trigger": false,
      "taf_trigger": false,
      "metar": "METAR EPSC 032130Z 14004KT 9999 FEW044 M06/M07 Q0995",
      "taf": "TAF EPSC 031730Z 0318/0418 20003KT CAVOK"
    },
    {
      "icao": "EPSY",
      "alert": "OK",
      "vis_m": 9999,
      "fzfg": false,
      "metar_trigger": false,
      "taf_trigger": false,
      "metar": "METAR EPSY 032130Z 21010KT 9999 BKN013 BKN024 M01/M02 Q0996",
      "taf": "TAF EPSY 032030Z 0321/0406 19006KT 7000 BKN020"
    },
    {
      "icao": "EPWA",
      "alert": "OK",
      "vis_m": 9999,
      "fzfg": false,
      "metar_trigger": false,
      "taf_trigger": false,
      "metar": "METAR EPWA 032130Z 24011KT CAVOK 01/M06 Q1000 NOSIG",
      "taf": "TAF EPWA 032030Z 0321/0421 23012KT 9999 BKN035"
    },
    {
      "icao": "EPWR",
      "alert": "OK",
      "vis_m": 9999,
      "fzfg": false,
      "metar_trigger": false,
      "taf_trigger": false,
      "metar": "METAR EPWR 032130Z 22013KT 9999 FEW040 M00/M06 Q1001",
      "taf": "TAF EPWR 032030Z 0321/0421 23012KT CAVOK"
    },
    {
      "icao": "ESGG",
      "alert": "OK",
      "vis_m": 9999,
      "fzfg": false,
      "metar_trigger": false,
      "taf_trigger": false,
      "metar": "METAR ESGG 032120Z 34010KT 9999 BKN007 M07/M09 Q0992",
      "taf": "TAF ESGG 032030Z 0321/0421 35008KT 9999 -SN SCT012 BKN020"
    },
    {
      "icao": "ESKN",
      "alert": "OK",
      "vis_m": 9999,
      "fzfg": false,
      "metar_trigger": false,
      "taf_trigger": false,
      "metar": "METAR ESKN 032120Z 02011G21KT 350V050 9999 -SN OVC009 M02/M03 Q0989",
      "taf": "TAF ESKN 032030Z 0321/0421 01010KT 7000 -SN SCT008 BKN020"
    },
    {
      "icao": "ESMS",
      "alert": "OK",
      "vis_m": 4500,
      "fzfg": false,
      "metar_trigger": false,
      "taf_trigger": false,
      "metar": "METAR ESMS 032120Z COR 31006KT 4500 SN FEW003 SCT008 BKN012 M04/M04 Q0992",
      "taf": "TAF ESMS 032027Z 0321/0421 30010KT 9999 -SHSN BKN016"
    },
    {
      "icao": "ESSA",
      "alert": "OK",
      "vis_m": 9999,
      "fzfg": false,
      "metar_trigger": false,
      "taf_trigger": false,
      "metar": "METAR ESSA 032120Z 04012KT 9999 -SN OVC007 M03/M04 Q0992 NOSIG",
      "taf": "TAF ESSA 032030Z 0321/0421 03015KT 9999 OVC005"
    },
    {
      "icao": "EYKA",
      "alert": "OK",
      "vis_m": 9999,
      "fzfg": false,
      "metar_trigger": false,
      "taf_trigger": false,
      "metar": "METAR EYKA 032150Z 20006KT 160V240 CAVOK M04/M07 Q0996",
      "taf": "TAF EYKA 031700Z 0318/0418 22010KT 8000 SCT010 BKN020"
    },
    {
      "icao": "EYPA",
      "alert": "OK",
      "vis_m": 9999,
      "fzfg": false,
      "metar_trigger": false,
      "taf_trigger": false,
      "metar": "METAR EYPA 032150Z 26008KT 210V300 9999 FEW015CB 00/M02 Q0990",
      "taf": "TAF EYPA 031700Z 0318/0418 23010KT 8000 BKN020"
    },
    {
      "icao": "EYVI",
      "alert": "OK",
      "vis_m": 9999,
      "fzfg": false,
      "metar_trigger": false,
      "taf_trigger": false,
      "metar": "METAR EYVI 032150Z 19009KT CAVOK M06/M08 Q0996 NOSIG",
      "taf": "TAF EYVI 031700Z 0318/0418 21010KT 8000 SCT010 BKN020"
    },
    {
      "icao": "GCFV",
      "alert": "OK",
      "vis_m": 9999,
      "fzfg": false,
      "metar_trigger": false,
      "taf_trigger": false,
      "metar": "METAR GCFV 032130Z 26014KT 220V290 9999 SCT035 19/14 Q1008",
      "taf": "TAF GCFV 032000Z 0321/0421 27015KT 9999 FEW025 SCT035 TX22/0414Z TN17/0406Z"
    },
    {
      "icao": "GCLP",
      "alert": "OK",
      "vis_m": 9999,
      "fzfg": false,
      "metar_trigger": false,
      "taf_trigger": false,
      "metar": "METAR GCLP 032130Z VRB01KT 9999 FEW040 19/13 Q1009 NOSIG",
      "taf": "TAF GCLP 032000Z 0321/0421 28005KT 9999 FEW020 SCT035 TX21/0414Z TN16/0406Z"
    },
    {
      "icao": "GCTS",
      "alert": "OK",
      "vis_m": 9999,
      "fzfg": false,
      "metar_trigger": false,
      "taf_trigger": false,
      "metar": "METAR GCTS 032130Z 26003KT 200V350 9999 FEW035 19/12 Q1009 NOSIG",
      "taf": "TAF GCTS 032000Z 0321/0421 33008KT 9999 SCT030 TX25/0414Z TN17/0406Z"
    },
    {
      "icao": "GMAD",
      "alert": "OK",
      "vis_m": 6000,
      "fzfg": false,
      "metar_trigger": false,
      "taf_trigger": false,
      "metar": "METAR GMAD 032130Z 20012KT 6000 FEW016 SCT026 16/16 Q1006 NOSIG",
      "taf": "TAF GMAD 031700Z 0318/0424 20016KT 6000 SCT030TCU SCT080"
    },
    {
      "icao": "GMMN",
      "alert": "OK",
      "vis_m": 5000,
      "fzfg": false,
      "metar_trigger": false,
      "taf_trigger": false,
      "metar": "SPECI GMMN 032138Z 22021KT 5000 RA SCT012 BKN020TCU FEW026CB 14/12 Q1000 TEMPO 0800 SHRA",
      "taf": "TAF GMMN 031700Z 0318/0424 22018KT 9999 SCT016 BKN030"
    },
    {
      "icao": "GMMX",
      "alert": "OK",
      "vis_m": 8000,
      "fzfg": false,
      "metar_trigger": false,
      "taf_trigger": false,
      "metar": "METAR GMMX 032130Z 16004KT 110V250 8000 SCT016 SCT080 14/10 Q1002 NOSIG",
      "taf": "TAF GMMX 031700Z 0318/0424 12006KT 8000 SCT016 BKN023"
    },
    {
      "icao": "HEGN",
      "alert": "OK",
      "vis_m": 9999,
      "fzfg": false,
      "metar_trigger": false,
      "taf_trigger": false,
      "metar": "METAR HEGN 032100Z 30010KT CAVOK 15/04 Q1023 NOSIG",
      "taf": "TAF HEGN 031700Z 0318/0424 30010KT CAVOK"
    },
    {
      "icao": "HEMA",
      "alert": "OK",
      "vis_m": 9999,
      "fzfg": false,
      "metar_trigger": false,
      "taf_trigger": false,
      "metar": "METAR HEMA 032100Z 29012KT CAVOK 17/10 Q1021 NOSIG",
      "taf": "TAF HEMA 031700Z 0318/0424 34018KT CAVOK"
    },
    {
      "icao": "HESH",
      "alert": "OK",
      "vis_m": 9999,
      "fzfg": false,
      "metar_trigger": false,
      "taf_trigger": false,
      "metar": "METAR HESH 032100Z 33009KT CAVOK 19/10 Q1022 NOSIG",
      "taf": "TAF HESH 031700Z 0318/0424 33010KT CAVOK"
    },
    {
      "icao": "HESX",
      "alert": "OK",
      "vis_m": 6000,
      "fzfg": false,
      "metar_trigger": false,
      "taf_trigger": false,
      "metar": "METAR HESX 032100Z 05007KT 6000 NSC 10/06 Q1024 NOSIG",
      "taf": "TAF HESX 031700Z 0318/0424 04012KT CAVOK"
    },
    {
      "icao": "LATI",
      "alert": "OK",
      "vis_m": 9999,
      "fzfg": false,
      "metar_trigger": false,
      "taf_trigger": false,
      "metar": "METAR LATI 032150Z 15011KT 9999 BKN026 OVC130 15/09 Q1010 NOSIG",
      "taf": "TAF LATI 031700Z 0318/0418 15010KT 9999 SCT020 OVC070 TX16/0412Z TN09/0403Z"
    },
    {
      "icao": "LBPD",
      "alert": "OK",
      "vis_m": 9999,
      "fzfg": false,
      "metar_trigger": false,
      "taf_trigger": false,
      "metar": "METAR LBPD 032130Z AUTO VRB03KT 9999 OVC110/// 08/03 Q1009",
      "taf": "TAF LBPD 031700Z 0318/0418 VRB03KT 9999 SCT020 BKN080"
    },
    {
      "icao": "LBSF",
      "alert": "OK",
      "vis_m": 9999,
      "fzfg": false,
      "metar_trigger": false,
      "taf_trigger": false,
      "metar": "METAR LBSF 032130Z AUTO 29003KT 250V330 9999 SCT048/// OVC061/// 03/01 Q1009 NOSIG",
      "taf": "TAF LBSF 031700Z 0318/0418 30012KT 9999 SCT025 BKN050"
    },
    {
      "icao": "LBWN",
      "alert": "OK",
      "vis_m": 9999,
      "fzfg": false,
      "metar_trigger": false,
      "taf_trigger": false,
      "metar": "METAR LBWN 032130Z AUTO 28006KT 9999 OVC043/// 08/03 Q1012 NOSIG",
      "taf": "TAF LBWN 031700Z 0318/0418 32010KT 9999 SCT045"
    },
    {
      "icao": "LCLK",
      "alert": "OK",
      "vis_m": 9999,
      "fzfg": false,
      "metar_trigger": false,
      "taf_trigger": false,
      "metar": "METAR LCLK 032130Z 31006KT 9999 FEW030 SCT050 09/07 Q1028 NOSIG",
      "taf": "TAF LCLK 031730Z 0318/0418 35007KT 9999 SCT050"
    },
    {
      "icao": "LCPH",
      "alert": "OK",
      "vis_m": 9999,
      "fzfg": false,
      "metar_trigger": false,
      "taf_trigger": false,
      "metar": "METAR LCPH 032130Z 02006KT 010V080 9999 FEW040 BKN050 12/06 Q1027 NOSIG",
      "taf": "TAF LCPH 031730Z 0318/0418 06008KT 9999 SCT050"
    },
    {
      "icao": "LEAL",
      "alert": "OK",
      "vis_m": 9999,
      "fzfg": false,
      "metar_trigger": false,
      "taf_trigger": false,
      "metar": "METAR LEAL 032130Z 28003KT 9999 SCT069 14/11 Q1003 NOSIG",
      "taf": "TAF LEAL 031700Z 0318/0418 30003KT 9999 SCT020 TX15/0414Z TN11/0406Z"
    },
    {
      "icao": "LEBB",
      "alert": "OK",
      "vis_m": 9999,
      "fzfg": false,
      "metar_trigger": false,
      "taf_trigger": false,
      "metar": "METAR LEBB 032130Z 00000KT 9999 -RA SCT030 BKN038 BKN050 06/05 Q1012 NOSIG",
      "taf": ""
    },
    {
      "icao": "LEBL",
      "alert": "OK",
      "vis_m": 7000,
      "fzfg": false,
      "metar_trigger": false,
      "taf_trigger": false,
      "metar": "METAR LEBL 032130Z 06007KT 7000 -RA SCT020 BKN030 10/09 Q1007 NOSIG",
      "taf": "TAF LEBL 031700Z 0318/0418 07010KT 9999 SCT025 BKN055 TX11/0412Z TN08/0406Z"
    },
    {
      "icao": "LECH",
      "alert": "OK",
      "vis_m": 9000,
      "fzfg": false,
      "metar_trigger": false,
      "taf_trigger": false,
      "metar": "METAR LECH 032130Z AUTO 03006KT 350V070 9000 SCT009 BKN014 09/09 Q1005",
      "taf": ""
    },
    {
      "icao": "LEMD",
      "alert": "OK",
      "vis_m": 9999,
      "fzfg": false,
      "metar_trigger": false,
      "taf_trigger": false,
      "metar": "METAR LEMD 032130Z VRB01KT CAVOK 09/06 Q1003 NOSIG",
      "taf": "TAF LEMD 031700Z 0318/0424 VRB04KT 9999 FEW045 TX09/0414Z TN03/0407Z"
    },
    {
      "icao": "LEMG",
      "alert": "OK",
      "vis_m": 9999,
      "fzfg": false,
      "metar_trigger": false,
      "taf_trigger": false,
      "metar": "METAR LEMG 032130Z 09007KT 060V150 9999 SCT016 BKN056 15/13 Q1001 NOSIG",
      "taf": "TAF LEMG 031700Z 0318/0418 11009KT 9999 SCT020 TX18/0414Z TN11/0407Z"
    },
    {
      "icao": "LEVC",
      "alert": "OK",
      "vis_m": 9999,
      "fzfg": false,
      "metar_trigger": false,
      "taf_trigger": false,
      "metar": "METAR LEVC 032130Z 03007KT 330V060 9999 FEW021 OVC028 13/10 Q1005 NOSIG",
      "taf": "TAF LEVC 031700Z 0318/0418 03010KT 9999 SCT020 TX12/0414Z TN08/0406Z"
    },
    {
      "icao": "LEXJ",
      "alert": "OK",
      "vis_m": 7000,
      "fzfg": false,
      "metar_trigger": false,
      "taf_trigger": false,
      "metar": "METAR LEXJ 032130Z 12005KT 7000 DZ BKN034 OVC041 06/04 Q1013",
      "taf": ""
    },
    {
      "icao": "LEZG",
      "alert": "OK",
      "vis_m": 7000,
      "fzfg": false,
      "metar_trigger": false,
      "taf_trigger": false,
      "metar": "METAR LEZG 032130Z 28012KT 7000 -RA OVC030 08/06 Q1007 NOSIG",
      "taf": "TAF LEZG 031700Z 0318/0418 VRB04KT 9999 BKN050 TX06/0415Z TN02/0406Z"
    },
    {
      "icao": "LEZL",
      "alert": "OK",
      "vis_m": 9999,
      "fzfg": false,
      "metar_trigger": false,
      "taf_trigger": false,
      "metar": "METAR LEZL 032130Z 06006KT 9999 FEW032 14/14 Q0999 NOSIG",
      "taf": "TAF LEZL 032000Z 0321/0421 08010KT 9999 SCT030 TX16/0415Z TN09/0407Z"
    },
    {
      "icao": "LFBD",
      "alert": "OK",
      "vis_m": 9999,
      "fzfg": false,
      "metar_trigger": false,
      "taf_trigger": false,
      "metar": "METAR LFBD 032130Z AUTO 01004KT CAVOK M02/M03 Q1014 NOSIG",
      "taf": "TAF LFBD 031700Z 0318/0424 01004KT CAVOK TX03/0414Z TNM04/0407Z"
    },
    {
      "icao": "LFLL",
      "alert": "OK",
      "vis_m": 9999,
      "fzfg": false,
      "metar_trigger": false,
      "taf_trigger": false,
      "metar": "METAR LFLL 032130Z 36002KT CAVOK M03/M05 Q1011 NOSIG",
      "taf": "TAF LFLL 031700Z 0318/0424 35007KT CAVOK"
    },
    {
      "icao": "LFLS",
      "alert": "OK",
      "vis_m": 9999,
      "fzfg": false,
      "metar_trigger": false,
      "taf_trigger": false,
      "metar": "METAR LFLS 032130Z AUTO VRB03KT CAVOK M02/M07 Q1010",
      "taf": "TAF LFLS 031400Z 0315/0415 35009KT CAVOK"
    },
    {
      "icao": "LFMN",
      "alert": "OK",
      "vis_m": 9999,
      "fzfg": false,
      "metar_trigger": false,
      "taf_trigger": false,
      "metar": "METAR LFMN 032130Z 33008KT 9999 FEW033 SCT170 06/01 Q1002 NOSIG",
      "taf": "TAF LFMN 032000Z 0321/0503 33010KT 9999 FEW030 BKN200"
    },
    {
      "icao": "LFOB",
      "alert": "OK",
      "vis_m": 9999,
      "fzfg": false,
      "metar_trigger": false,
      "taf_trigger": false,
      "metar": "METAR LFOB 032130Z AUTO 29006KT 9999 BKN027 BKN130 M02/M03 Q1013 NOSIG",
      "taf": "TAF LFOB 031700Z 0318/0418 28004KT CAVOK"
    },
    {
      "icao": "LFPO",
      "alert": "OK",
      "vis_m": 9999,
      "fzfg": false,
      "metar_trigger": false,
      "taf_trigger": false,
      "metar": "METAR LFPO 032130Z AUTO 29002KT CAVOK M01/M05 Q1013",
      "taf": ""
    },
    {
      "icao": "LFSB",
      "alert": "OK",
      "vis_m": 9999,
      "fzfg": false,
      "metar_trigger": false,
      "taf_trigger": false,
      "metar": "METAR LFSB 032130Z AUTO 22004KT 130V260 9999 FEW056 M02/M05 Q1011 NOSIG",
      "taf": ""
    },
    {
      "icao": "LGAV",
      "alert": "OK",
      "vis_m": 9999,
      "fzfg": false,
      "metar_trigger": false,
      "taf_trigger": false,
      "metar": "METAR LGAV 032120Z 22015KT 9999 FEW025 SCT060 15/10 Q1017 NOSIG",
      "taf": "TAF LGAV 031700Z 0318/0418 21019KT 9999 FEW025 SCT060"
    },
    {
      "icao": "LGTS",
      "alert": "OK",
      "vis_m": 9999,
      "fzfg": false,
      "metar_trigger": false,
      "taf_trigger": false,
      "metar": "METAR LGTS 032120Z VRB03KT 9999 FEW025 08/07 Q1012 NOSIG",
      "taf": "TAF LGTS 031700Z 0318/0418 VRB03KT 9999 FEW025"
    },
    {
      "icao": "LHBP",
      "alert": "OK",
      "vis_m": 9999,
      "fzfg": false,
      "metar_trigger": false,
      "taf_trigger": false,
      "metar": "METAR LHBP 032130Z VRB02KT 9999 SCT002 OVC038 M02/M03 Q1009 TEMPO BKN003 OVC038",
      "taf": ""
    },
    {
      "icao": "LHDC",
      "alert": "OK",
      "vis_m": 9999,
      "fzfg": false,
      "metar_trigger": false,
      "taf_trigger": false,
      "metar": "METAR LHDC 032115Z AUTO 15003KT CAVOK M03/M04 Q1010",
      "taf": "TAF LHDC 031415Z 0315/0324 25010KT CAVOK"
    },
    {
      "icao": "LIBD",
      "alert": "OK",
      "vis_m": 9999,
      "fzfg": false,
      "metar_trigger": false,
      "taf_trigger": false,
      "metar": "METAR LIBD 032120Z 20007KT CAVOK 15/09 Q1006",
      "taf": "TAF LIBD 031700Z 0318/0418 19010KT 9999 FEW040"
    },
    {
      "icao": "LIBG",
      "alert": "OK",
      "vis_m": null,
      "fzfg": false,
      "metar_trigger": false,
      "taf_trigger": false,
      "metar": "",
      "taf": "TAF LIBG 031700Z 0318/0403 21006KT 9999 FEW040"
    },
    {
      "icao": "LIBP",
      "alert": "OK",
      "vis_m": 9000,
      "fzfg": false,
      "metar_trigger": false,
      "taf_trigger": false,
      "metar": "METAR LIBP 032120Z AUTO VRB02KT 9000 BKN100/// 10/08 Q1003",
      "taf": "TAF LIBP 031700Z 0318/0418 VRB05KT 9999 BKN070"
    },
    {
      "icao": "LIBR",
      "alert": "OK",
      "vis_m": 9999,
      "fzfg": false,
      "metar_trigger": false,
      "taf_trigger": false,
      "metar": "METAR LIBR 032120Z 19008KT CAVOK 14/13 Q1008",
      "taf": "TAF LIBR 031700Z 0318/0418 19012KT 9999 FEW030"
    },
    {
      "icao": "LICA",
      "alert": "OK",
      "vis_m": 9999,
      "fzfg": false,
      "metar_trigger": false,
      "taf_trigger": false,
      "metar": "METAR LICA 032120Z AUTO 08006KT 9999 NCD 08/07 Q1010",
      "taf": "TAF LICA 031700Z 0318/0418 07010KT 9999 SCT040"
    },
    {
      "icao": "LICC",
      "alert": "OK",
      "vis_m": 9999,
      "fzfg": false,
      "metar_trigger": false,
      "taf_trigger": false,
      "metar": "METAR LICC 032120Z 26009KT 9999 BKN040 15/11 Q1012",
      "taf": ""
    },
    {
      "icao": "LICJ",
      "alert": "OK",
      "vis_m": 9999,
      "fzfg": false,
      "metar_trigger": false,
      "taf_trigger": false,
      "metar": "METAR LICJ 032120Z AUTO 19022KT 9999 NCD 17/07 Q1008",
      "taf": ""
    },
    {
      "icao": "LIMC",
      "alert": "OK",
      "vis_m": 200,
      "fzfg": true,
      "metar_trigger": false,
      "taf_trigger": false,
      "metar": "METAR LIMC 032120Z VRB01KT 0200 R35R/0325N R17L/0400N R35L/0325N FZFG OVC001 M01/M01 Q1004 NOSIG",
      "taf": "TAF LIMC 031700Z 0318/0424 VRB04KT 6000 BKN014"
    },
    {
      "icao": "LIME",
      "alert": "OK",
      "vis_m": 500,
      "fzfg": true,
      "metar_trigger": false,
      "taf_trigger": false,
      "metar": "METAR LIME 032120Z VRB02KT 0500 R28/0550N FZFG FEW001 M03/M03 Q1004 NOSIG",
      "taf": "TAF LIME 031700Z 0318/0418 VRB04KT 3000 BR BKN015"
    },
    {
      "icao": "LIMF",
      "alert": "OK",
      "vis_m": 200,
      "fzfg": false,
      "metar_trigger": false,
      "taf_trigger": false,
      "metar": "METAR LIMF 032120Z VRB01KT 0200 BKN001 M05/M06 Q1004",
      "taf": ""
    },
    {
      "icao": "LIMJ",
      "alert": "OK",
      "vis_m": 9999,
      "fzfg": false,
      "metar_trigger": false,
      "taf_trigger": false,
      "metar": "METAR LIMJ 032120Z 03011KT CAVOK 08/M05 Q1002",
      "taf": "TAF LIMJ 031700Z 0318/0418 03015KT 9999 FEW030"
    },
    {
      "icao": "LIPE",
      "alert": "OK",
      "vis_m": 500,
      "fzfg": false,
      "metar_trigger": false,
      "taf_trigger": false,
      "metar": "METAR LIPE 032120Z VRB02KT 0500 R12/1300U R30/1600D FG SCT001 BKN003 01/01 Q1004",
      "taf": "TAF LIPE 031700Z 0318/0418 VRB05KT 2000 BR OVC008"
    },
    {
      "icao": "LIPH",
      "alert": "OK",
      "vis_m": 9999,
      "fzfg": false,
      "metar_trigger": false,
      "taf_trigger": false,
      "metar": "METAR LIPH 032120Z 04002KT CAVOK 03/M02 Q1004",
      "taf": "TAF LIPH 031700Z 0318/0418 VRB05KT 9000 SCT030"
    },
    {
      "icao": "LIPQ",
      "alert": "OK",
      "vis_m": 9999,
      "fzfg": false,
      "metar_trigger": false,
      "taf_trigger": false,
      "metar": "METAR LIPQ 032120Z AUTO VRB02KT 9999 -RA OVC034/// 05/03 Q1004",
      "taf": "TAF LIPQ 031700Z 0318/0418 VRB05KT 9999 SCT050"
    },
    {
      "icao": "LIPR",
      "alert": "OK",
      "vis_m": 200,
      "fzfg": false,
      "metar_trigger": false,
      "taf_trigger": false,
      "metar": "METAR LIPR 032120Z 30006KT 0200 R30/0650N FG VV001 03/03 Q1004",
      "taf": "TAF LIPR 031700Z 0318/0418 VRB05KT 1500 BR OVC006"
    },
    {
      "icao": "LIPX",
      "alert": "OK",
      "vis_m": 100,
      "fzfg": false,
      "metar_trigger": false,
      "taf_trigger": false,
      "metar": "METAR LIPX 032120Z 31004KT 280V350 0100 R04/0800N FG VV001 02/02 Q1004",
      "taf": "TAF LIPX 031700Z 0318/0418 VRB04KT 2000 BR SCT008"
    },
    {
      "icao": "LIPY",
      "alert": "OK",
      "vis_m": 1800,
      "fzfg": false,
      "metar_trigger": false,
      "taf_trigger": false,
      "metar": "METAR LIPY 032120Z AUTO 23002KT 1800 BR BKN052/// 06/06 Q1003",
      "taf": "TAF LIPY 031700Z 0318/0418 VRB05KT 2000 BR FEW008 SCT040"
    },
    {
      "icao": "LIPZ",
      "alert": "OK",
      "vis_m": 7000,
      "fzfg": false,
      "metar_trigger": false,
      "taf_trigger": false,
      "metar": "METAR LIPZ 032120Z VRB04KT 7000 SCT045 01/00 Q1004 NOSIG",
      "taf": "TAF LIPZ 031700Z 0318/0424 VRB05KT 8000 SCT030"
    },
    {
      "icao": "LIRF",
      "alert": "OK",
      "vis_m": 9999,
      "fzfg": false,
      "metar_trigger": false,
      "taf_trigger": false,
      "metar": "METAR LIRF 032120Z 22008KT 9999 SCT015 SCT030 15/13 Q1005 NOSIG",
      "taf": "TAF LIRF 031700Z 0318/0424 24015KT 9999 SCT030"
    },
    {
      "icao": "LIRN",
      "alert": "OK",
      "vis_m": 9999,
      "fzfg": false,
      "metar_trigger": false,
      "taf_trigger": false,
      "metar": "METAR LIRN 032120Z 20011KT 9999 SCT020 15/13 Q1007 NOSIG",
      "taf": "TAF LIRN 031700Z 0318/0418 22014KT 9999 SCT030"
    },
    {
      "icao": "LIRP",
      "alert": "OK",
      "vis_m": 9999,
      "fzfg": false,
      "metar_trigger": false,
      "taf_trigger": false,
      "metar": "METAR LIRP 032115Z 26009KT 9999 FEW030 10/06 Q1003 NOSIG",
      "taf": "TAF LIRP 031700Z 0318/0418 22012KT 9999 FEW020 SCT040"
    },
    {
      "icao": "LIRZ",
      "alert": "OK",
      "vis_m": 9999,
      "fzfg": false,
      "metar_trigger": false,
      "taf_trigger": false,
      "metar": "METAR LIRZ 032120Z AUTO 20004KT 170V240 9999 -DZRA OVC019/// 10/09 Q1004 REDZ RERA",
      "taf": "TAF LIRZ 031700Z 0318/0418 19013KT 9999 SCT030"
    },
    {
      "icao": "LJLJ",
      "alert": "OK",
      "vis_m": 9999,
      "fzfg": false,
      "metar_trigger": false,
      "taf_trigger": false,
      "metar": "METAR LJLJ 032130Z 21004KT 9999 FEW010 OVC030 00/M01 Q1005 NOSIG",
      "taf": "TAF LJLJ 031700Z 0318/0418 VRB02KT 9999 FEW025 BKN040"
    },
    {
      "icao": "LKMT",
      "alert": "OK",
      "vis_m": 9999,
      "fzfg": false,
      "metar_trigger": false,
      "taf_trigger": false,
      "metar": "METAR LKMT 032130Z 21014KT CAVOK M01/M06 Q1004 NOSIG",
      "taf": "TAF LKMT 031700Z 0318/0418 21012KT CAVOK"
    },
    {
      "icao": "LKPR",
      "alert": "OK",
      "vis_m": 9999,
      "fzfg": false,
      "metar_trigger": false,
      "taf_trigger": false,
      "metar": "METAR LKPR 032130Z 20019KT 9999 -SHSN FEW013 SCT027 M02/M06 Q1003 NOSIG",
      "taf": "TAF LKPR 032000Z 0321/0503 22016KT 9999 SCT030"
    },
    {
      "icao": "LLBG",
      "alert": "OK",
      "vis_m": 9999,
      "fzfg": false,
      "metar_trigger": false,
      "taf_trigger": false,
      "metar": "METAR LLBG 032120Z VRB02KT CAVOK 09/06 Q1026 NOSIG",
      "taf": "TAF LLBG 031705Z 0318/0418 05005KT CAVOK"
    },
    {
      "icao": "LMML",
      "alert": "OK",
      "vis_m": 9999,
      "fzfg": false,
      "metar_trigger": false,
      "taf_trigger": false,
      "metar": "METAR LMML 032145Z 20009KT 160V230 CAVOK 16/12 Q1013 NOSIG",
      "taf": "TAF LMML 031700Z 0318/0418 21015KT 9999 FEW020"
    },
    {
      "icao": "LOWW",
      "alert": "OK",
      "vis_m": 9999,
      "fzfg": false,
      "metar_trigger": false,
      "taf_trigger": false,
      "metar": "METAR LOWW 032120Z 25012KT 9999 FEW030 BKN050 02/M12 Q1007 NOSIG",
      "taf": "TAF LOWW 032015Z 0321/0503 28012KT CAVOK TX01/0413Z TNM06/0502Z"
    },
    {
      "icao": "LPFR",
      "alert": "OK",
      "vis_m": 9999,
      "fzfg": false,
      "metar_trigger": false,
      "taf_trigger": false,
      "metar": "METAR LPFR 032130Z 11012KT 9999 -TSRA FEW012 FEW018CB SCT020 15/13 Q0996",
      "taf": "TAF LPFR 031700Z 0318/0418 10010KT 9999 SCT015 SCT030"
    },
    {
      "icao": "LPMA",
      "alert": "OK",
      "vis_m": 9999,
      "fzfg": false,
      "metar_trigger": false,
      "taf_trigger": false,
      "metar": "METAR LPMA 032130Z 30009G19KT 250V010 9999 FEW015 18/10 Q1004",
      "taf": "TAF LPMA 031700Z 0318/0418 34010KT 9999 SCT015"
    },
    {
      "icao": "LPPR",
      "alert": "OK",
      "vis_m": 9999,
      "fzfg": false,
      "metar_trigger": false,
      "taf_trigger": false,
      "metar": "METAR LPPR 032130Z 05006KT 020V080 CAVOK 14/09 Q1001",
      "taf": "TAF LPPR 031700Z 0318/0418 08007KT 9999 SCT045"
    },
    {
      "icao": "LPPS",
      "alert": "OK",
      "vis_m": 9999,
      "fzfg": false,
      "metar_trigger": false,
      "taf_trigger": false,
      "metar": "METAR LPPS 032130Z 30018KT 9999 SCT011 16/14 Q1003 RERA",
      "taf": "TAF LPPS 031700Z 0318/0424 31020KT 9999 SCT015"
    },
    {
      "icao": "LPPT",
      "alert": "OK",
      "vis_m": 9999,
      "fzfg": false,
      "metar_trigger": false,
      "taf_trigger": false,
      "metar": "METAR LPPT 032130Z 05010KT 350V080 9999 -DZ FEW003 BKN004 13/13 Q0999",
      "taf": ""
    },
    {
      "icao": "LQBK",
      "alert": "OK",
      "vis_m": 3000,
      "fzfg": false,
      "metar_trigger": false,
      "taf_trigger": false,
      "metar": "METAR LQBK 032130Z 32004KT 3000 BR OVC004 00/00 Q1006 NOSIG",
      "taf": ""
    },
    {
      "icao": "LQSA",
      "alert": "OK",
      "vis_m": 2500,
      "fzfg": false,
      "metar_trigger": false,
      "taf_trigger": false,
      "metar": "METAR LQSA 032130Z 00000KT 2500 R11/1100D -RA BR SCT008 BKN040 01/01 Q1005 NOSIG",
      "taf": ""
    },
    {
      "icao": "LQTZ",
      "alert": "OK",
      "vis_m": 9999,
      "fzfg": false,
      "metar_trigger": false,
      "taf_trigger": false,
      "metar": "METAR LQTZ 032130Z 13006KT 9999 SCT045 02/00 Q1005",
      "taf": "TAF LQTZ 031700Z 0318/0418 27005KT 8000 SCT015 BKN045 TX02/0318Z TNM01/0418Z"
    },
    {
      "icao": "LRBC",
      "alert": "OK",
      "vis_m": 9999,
      "fzfg": false,
      "metar_trigger": false,
      "taf_trigger": false,
      "metar": "METAR LRBC 032130Z 15003KT CAVOK M01/M05 Q1011",
      "taf": "TAF LRBC 032000Z 0321/0406 VRB04KT CAVOK"
    },
    {
      "icao": "LRBS",
      "alert": "OK",
      "vis_m": 5000,
      "fzfg": false,
      "metar_trigger": false,
      "taf_trigger": false,
      "metar": "METAR LRBS 032130Z 25005KT 220V290 5000 BR BKN005 02/02 Q1012 NOSIG",
      "taf": ""
    },
    {
      "icao": "LRBV",
      "alert": "OK",
      "vis_m": 7000,
      "fzfg": false,
      "metar_trigger": false,
      "taf_trigger": false,
      "metar": "METAR LRBV 032130Z AUTO VRB03KT 7000 SCT100/// M09/M10 Q1010",
      "taf": "TAF LRBV 032000Z 0321/0406 VRB04KT CAVOK"
    },
    {
      "icao": "LRCL",
      "alert": "OK",
      "vis_m": 5000,
      "fzfg": false,
      "metar_trigger": false,
      "taf_trigger": false,
      "metar": "METAR LRCL 032130Z 12002KT 5000 BR BKN020 M08/M09 Q1011",
      "taf": "TAF LRCL 032000Z 0321/0406 VRB04KT 1500 BR NSC"
    },
    {
      "icao": "LRCV",
      "alert": "OK",
      "vis_m": 9999,
      "fzfg": false,
      "metar_trigger": false,
      "taf_trigger": false,
      "metar": "METAR LRCV 032130Z 24007KT CAVOK 02/01 Q1011",
      "taf": "TAF LRCV 032000Z 0321/0406 VRB04KT CAVOK"
    },
    {
      "icao": "LRIA",
      "alert": "OK",
      "vis_m": 9999,
      "fzfg": false,
      "metar_trigger": false,
      "taf_trigger": false,
      "metar": "METAR LRIA 032130Z VRB02KT CAVOK 00/M06 Q1011",
      "taf": "TAF LRIA 032000Z 0321/0406 VRB04KT CAVOK"
    },
    {
      "icao": "LROP",
      "alert": "OK",
      "vis_m": 5000,
      "fzfg": false,
      "metar_trigger": false,
      "taf_trigger": false,
      "metar": "METAR LROP 032130Z 20004KT 5000 BR BKN004 02/02 Q1012 TEMPO 3000 BR BKN002",
      "taf": ""
    },
    {
      "icao": "LRSB",
      "alert": "OK",
      "vis_m": 3500,
      "fzfg": false,
      "metar_trigger": false,
      "taf_trigger": false,
      "metar": "METAR LRSB 032130Z 05002KT 3500 1000E R27/P2000 BCFG BR NSC M05/M05 Q1009",
      "taf": ""
    },
    {
      "icao": "LRSM",
      "alert": "OK",
      "vis_m": 9999,
      "fzfg": false,
      "metar_trigger": false,
      "taf_trigger": false,
      "metar": "METAR LRSM 032130Z AUTO 09002KT 9999 FEW120/// M05/M07 Q1010",
      "taf": ""
    },
    {
      "icao": "LRSV",
      "alert": "OK",
      "vis_m": 9999,
      "fzfg": false,
      "metar_trigger": false,
      "taf_trigger": false,
      "metar": "METAR LRSV 032130Z 24007KT CAVOK M02/M10 Q1008",
      "taf": "TAF LRSV 032000Z 0321/0406 27010KT CAVOK"
    },
    {
      "icao": "LRTM",
      "alert": "OK",
      "vis_m": 400,
      "fzfg": false,
      "metar_trigger": false,
      "taf_trigger": false,
      "metar": "METAR LRTM 032130Z AUTO 07006KT 0400 R07/0450N VV001 M03/M03 Q1011",
      "taf": "TAF LRTM 031400Z 0315/0324 VRB04KT 9999 SCT010 BKN025"
    },
    {
      "icao": "LRTR",
      "alert": "OK",
      "vis_m": 800,
      "fzfg": true,
      "metar_trigger": false,
      "taf_trigger": false,
      "metar": "METAR LRTR 032130Z 10007KT 0800 R11/1500D FZFG VV002 M01/M01 Q1009",
      "taf": ""
    },
    {
      "icao": "LTAC",
      "alert": "OK",
      "vis_m": 6000,
      "fzfg": false,
      "metar_trigger": false,
      "taf_trigger": false,
      "metar": "METAR LTAC 032120Z 27003KT 230V290 6000 SCT040 BKN080 M01/M04 Q1023 NOSIG RMK RWY21C 00000KT RWY03L VRB02KT RWY21R 00000KT RWY03R VRB02KT RWY21L 00000KT",
      "taf": "TAF LTAC 031640Z 0318/0418 VRB02KT 8000 SCT035 BKN100"
    },
    {
      "icao": "LTFM",
      "alert": "OK",
      "vis_m": 9999,
      "fzfg": false,
      "metar_trigger": false,
      "taf_trigger": false,
      "metar": "METAR LTFM 032120Z 21026KT 9999 SCT035 BKN080 13/09 Q1014 RESHRA NOSIG RMK RWY17L 21026KT RWY34L 20022G34KT RWY16R 21024KT RWY36 21027KT RWY18 22028KT",
      "taf": "TAF LTFM 031640Z 0318/0424 21025G37KT 9999 -SHRA SCT035 BKN080"
    },
    {
      "icao": "LUKK",
      "alert": "OK",
      "vis_m": 9999,
      "fzfg": false,
      "metar_trigger": false,
      "taf_trigger": false,
      "metar": "METAR LUKK 032130Z 34008KT CAVOK 00/M05 Q1011 NOSIG",
      "taf": "TAF LUKK 031717Z 0318/0418 VRB06KT CAVOK"
    },
    {
      "icao": "LWOH",
      "alert": "OK",
      "vis_m": null,
      "fzfg": false,
      "metar_trigger": false,
      "taf_trigger": false,
      "metar": "",
      "taf": "TAF LWOH 032030Z 0321/0421 13010KT 9999 SCT020 OVC035"
    },
    {
      "icao": "LWSK",
      "alert": "OK",
      "vis_m": 9999,
      "fzfg": false,
      "metar_trigger": false,
      "taf_trigger": false,
      "metar": "METAR LWSK 032150Z 02008KT 350V060 9999 SCT050 BKN070 06/03 Q1009 NOSIG",
      "taf": "TAF LWSK 032030Z 0321/0421 03012KT 9999 SCT040 BKN060"
    },
    {
      "icao": "LYBE",
      "alert": "OK",
      "vis_m": 9999,
      "fzfg": false,
      "metar_trigger": false,
      "taf_trigger": false,
      "metar": "METAR LYBE 032130Z 11007KT CAVOK 01/M00 Q1008 NOSIG",
      "taf": "TAF LYBE 031700Z 0318/0418 14008KT 9999 SCT040 TX02/0405Z TNM01/0418Z"
    },
    {
      "icao": "LYNI",
      "alert": "OK",
      "vis_m": 6000,
      "fzfg": false,
      "metar_trigger": false,
      "taf_trigger": false,
      "metar": "METAR LYNI 032130Z VRB02KT 6000 -RASN SCT007 BKN017 OVC060 02/01 Q1010 NOSIG",
      "taf": "TAF LYNI 031700Z 0318/0418 02006KT 9999 SCT017 BKN035 OVC070 TX13/0411Z TN00/0418Z"
    },
    {
      "icao": "LYPG",
      "alert": "OK",
      "vis_m": 5000,
      "fzfg": false,
      "metar_trigger": false,
      "taf_trigger": false,
      "metar": "METAR LYPG 032130Z 00000KT 5000 RA FEW030 SCT040 OVC070 11/11 Q1007 TEMPO 4000",
      "taf": "TAF LYPG 031700Z 0318/0418 15007KT 9999 FEW020 BKN040 OVC070 TX11/0413Z TN08/0406Z"
    },
    {
      "icao": "LZIB",
      "alert": "OK",
      "vis_m": 9999,
      "fzfg": false,
      "metar_trigger": false,
      "taf_trigger": false,
      "metar": "METAR LZIB 032130Z 23003KT 9999 FEW016 01/M01 Q1008 NOSIG",
      "taf": "TAF LZIB 031715Z 0318/0418 19009KT 9999 FEW045"
    },
    {
      "icao": "LZKZ",
      "alert": "OK",
      "vis_m": 9999,
      "fzfg": false,
      "metar_trigger": false,
      "taf_trigger": false,
      "metar": "METAR LZKZ 032130Z 20005KT CAVOK M04/M07 Q1008 NOSIG",
      "taf": "TAF LZKZ 031715Z 0318/0418 22007KT CAVOK"
    },
    {
      "icao": "LZTT",
      "alert": "OK",
      "vis_m": 9999,
      "fzfg": false,
      "metar_trigger": false,
      "taf_trigger": false,
      "metar": "METAR LZTT 032130Z 26007KT CAVOK M05/M11 Q1004",
      "taf": "TAF LZTT 031715Z 0318/0418 26011KT CAVOK"
    },
    {
      "icao": "OEJN",
      "alert": "OK",
      "vis_m": 9999,
      "fzfg": false,
      "metar_trigger": false,
      "taf_trigger": false,
      "metar": "METAR OEJN 032100Z 35005KT CAVOK 24/16 Q1016 NOSIG",
      "taf": "TAF OEJN 031700Z 0318/0424 02005KT CAVOK"
    },
    {
      "icao": "OEMA",
      "alert": "OK",
      "vis_m": 8000,
      "fzfg": false,
      "metar_trigger": false,
      "taf_trigger": false,
      "metar": "METAR OEMA 032100Z 04011KT 8000 NSC 19/01 Q1024 NOSIG",
      "taf": "TAF OEMA 031700Z 0318/0424 05020KT 7000 NSC"
    },
    {
      "icao": "OJAI",
      "alert": "OK",
      "vis_m": 5000,
      "fzfg": false,
      "metar_trigger": false,
      "taf_trigger": false,
      "metar": "METAR OJAI 032100Z 07010KT 5000 HZ NSC 06/02 Q1029 NOSIG",
      "taf": "TAF OJAI 031700Z 0318/0424 12006KT 6000 NSC"
    },
    {
      "icao": "OMAA",
      "alert": "OK",
      "vis_m": 9999,
      "fzfg": false,
      "metar_trigger": false,
      "taf_trigger": false,
      "metar": "METAR OMAA 032100Z 25003KT CAVOK 20/16 Q1019 NOSIG",
      "taf": "TAF OMAA 031700Z 0318/0500 25005KT 8000 NSC"
    },
    {
      "icao": "OMDB",
      "alert": "OK",
      "vis_m": 9000,
      "fzfg": false,
      "metar_trigger": false,
      "taf_trigger": false,
      "metar": "METAR OMDB 032130Z 17004KT 140V210 9000 BKN025 20/17 Q1019 NOSIG",
      "taf": "TAF OMDB 031700Z 0318/0500 18005KT 8000 NSC"
    },
    {
      "icao": "UAAA",
      "alert": "CRITICAL",
      "vis_m": 50,
      "fzfg": true,
      "metar_trigger": true,
      "taf_trigger": false,
      "metar": "METAR UAAA 032130Z 14001MPS 0050 R23L/0250N FZFG VV001 M03/M04 Q1024 NOSIG RMK QBB050",
      "taf": "TAF UAAA 031702Z 0318/0418 16003MPS 0200 FZFG VV001 TX05/0409Z TNM03/0402Z"
    },
    {
      "icao": "UBBB",
      "alert": "OK",
      "vis_m": 9999,
      "fzfg": false,
      "metar_trigger": false,
      "taf_trigger": false,
      "metar": "METAR UBBB 032130Z 18026KT CAVOK 04/M03 Q1021 NOSIG",
      "taf": "TAF UBBB 031705Z 0318/0418 18018G28KT CAVOK TX07/0409Z TN01/0401Z"
    },
    {
      "icao": "UDSG",
      "alert": "OK",
      "vis_m": 5000,
      "fzfg": false,
      "metar_trigger": false,
      "taf_trigger": false,
      "metar": "METAR UDSG 032130Z 12001KT 5000 BR NSC M25/M28 Q1028 NOSIG",
      "taf": "TAF UDSG 031658Z 0318/0418 VRB06KT 5000 BR FEW040"
    },
    {
      "icao": "UDYZ",
      "alert": "OK",
      "vis_m": 9000,
      "fzfg": false,
      "metar_trigger": false,
      "taf_trigger": false,
      "metar": "METAR UDYZ 032130Z 34003KT 9000 NSC M15/M17 Q1031 NOSIG",
      "taf": "TAF UDYZ 031700Z 0318/0418 VRB04KT 6000 NSC"
    },
    {
      "icao": "UGKO",
      "alert": "OK",
      "vis_m": 9999,
      "fzfg": false,
      "metar_trigger": false,
      "taf_trigger": false,
      "metar": "METAR UGKO 032130Z 13007KT CAVOK 01/M07 Q1022 NOSIG",
      "taf": "TAF UGKO 031700Z 0318/0418 08008KT CAVOK TX08/0412Z TNM02/0402Z"
    }
  ]
}