{
  "ts_utc": "2026-02-13T17:04:12Z",
  "threshold_m": 150,
  "source": "stations_override.txt (ICAO list) + aviationweather.gov (METAR/TAF raw)",
  "station_count": 159,
  "stations": [
    {
      "icao": "BIKF",
      "alert": "OK",
      "vis_m": 9999,
      "fzfg": false,
      "metar_trigger": false,
      "taf_trigger": false,
      "metar": "METAR BIKF 131630Z 36011KT 9999 SCT018 M02/M06 Q1009",
      "taf": "TAF BIKF 131701Z 1318/1418 36010KT 9999 FEW025 SCT040 TX01/1415Z TNM10/1324Z"
    },
    {
      "icao": "BKPR",
      "alert": "OK",
      "vis_m": 9999,
      "fzfg": false,
      "metar_trigger": false,
      "taf_trigger": false,
      "metar": "METAR BKPR 131700Z 35014KT 9999 FEW025 SCT060 08/05 Q0996 NOSIG",
      "taf": "TAF BKPR 131130Z 1312/1412 01008KT 9999 BKN040"
    },
    {
      "icao": "EBCI",
      "alert": "OK",
      "vis_m": 9999,
      "fzfg": false,
      "metar_trigger": false,
      "taf_trigger": false,
      "metar": "METAR EBCI 131650Z 05010KT 9999 FEW007 BKN025 06/05 Q0992 TEMPO 3500 SHRA BKN013",
      "taf": "TAF EBCI 131123Z 1312/1418 04007KT 7000 SCT004 BKN009"
    },
    {
      "icao": "EDDB",
      "alert": "OK",
      "vis_m": 6000,
      "fzfg": false,
      "metar_trigger": false,
      "taf_trigger": false,
      "metar": "METAR EDDB 131650Z AUTO 35004KT 6000 -SN FEW005 BKN020 BKN025 01/00 Q0994 TEMPO 4000 -SN BKN006",
      "taf": "TAF EDDB 131100Z 1312/1412 01007KT 9999 BKN010"
    },
    {
      "icao": "EDDH",
      "alert": "OK",
      "vis_m": 9999,
      "fzfg": false,
      "metar_trigger": false,
      "taf_trigger": false,
      "metar": "METAR EDDH 131650Z AUTO 02006KT 350V050 9999 -SN FEW012 M01/M03 Q0997 REFZRA TEMPO 3000 -FZDZ BKN008",
      "taf": "TAF EDDH 131100Z 1312/1418 03007KT 9999 SCT010 BKN015"
    },
    {
      "icao": "EDDK",
      "alert": "OK",
      "vis_m": 9999,
      "fzfg": false,
      "metar_trigger": false,
      "taf_trigger": false,
      "metar": "METAR EDDK 131650Z AUTO 33004KT 9999 -SHRA BKN016 BKN031 FEW///TCU 05/04 Q0993 RESHRA NOSIG",
      "taf": "TAF EDDK 131100Z 1312/1418 30005KT 9999 SCT015 OVC020"
    },
    {
      "icao": "EDDN",
      "alert": "OK",
      "vis_m": 9999,
      "fzfg": false,
      "metar_trigger": false,
      "taf_trigger": false,
      "metar": "METAR EDDN 131650Z AUTO VRB02KT 9999 FEW031 07/03 Q0993 NOSIG",
      "taf": "TAF EDDN 131100Z 1312/1412 25010KT 9999 BKN025"
    },
    {
      "icao": "EDDS",
      "alert": "OK",
      "vis_m": 9999,
      "fzfg": false,
      "metar_trigger": false,
      "taf_trigger": false,
      "metar": "METAR EDDS 131650Z AUTO VRB01KT 9999 -RA SCT039 BKN048 08/03 Q0992 NOSIG",
      "taf": "TAF EDDS 131100Z 1312/1412 22006KT 9999 BKN030"
    },
    {
      "icao": "EDFH",
      "alert": "OK",
      "vis_m": 9999,
      "fzfg": false,
      "metar_trigger": false,
      "taf_trigger": false,
      "metar": "METAR EDFH 131650Z 01003KT 9999 -RA FEW019 SCT022 OVC037 06/04 Q0991",
      "taf": "TAF EDFH 131100Z 1312/1412 25007KT 9999 BKN005"
    },
    {
      "icao": "EDJA",
      "alert": "OK",
      "vis_m": 9999,
      "fzfg": false,
      "metar_trigger": false,
      "taf_trigger": false,
      "metar": "METAR EDJA 131650Z 02005KT CAVOK 06/03 Q0992",
      "taf": "TAF EDJA 131400Z 1315/1324 26005KT 9999 FEW030"
    },
    {
      "icao": "EDLW",
      "alert": "OK",
      "vis_m": 9999,
      "fzfg": false,
      "metar_trigger": false,
      "taf_trigger": false,
      "metar": "METAR EDLW 131650Z 36004KT 310V040 9999 SCT011 OVC013 02/00 Q0994",
      "taf": "TAF EDLW 131100Z 1312/1412 30008KT 9999 SCT010 BKN015"
    },
    {
      "icao": "EDNY",
      "alert": "OK",
      "vis_m": 9999,
      "fzfg": false,
      "metar_trigger": false,
      "taf_trigger": false,
      "metar": "METAR EDNY 131650Z VRB03KT CAVOK 08/03 Q0991",
      "taf": "TAF EDNY 131400Z 1315/1324 VRB03KT CAVOK"
    },
    {
      "icao": "EDSB",
      "alert": "OK",
      "vis_m": 9999,
      "fzfg": false,
      "metar_trigger": false,
      "taf_trigger": false,
      "metar": "METAR EDSB 131650Z 07003KT 9999 -RA BKN039 08/06 Q0992",
      "taf": "TAF EDSB 131100Z 1312/1412 21010KT 9999 BKN030"
    },
    {
      "icao": "EETN",
      "alert": "OK",
      "vis_m": 9999,
      "fzfg": false,
      "metar_trigger": false,
      "taf_trigger": false,
      "metar": "METAR EETN 131650Z 06012KT CAVOK M10/M13 Q1002 NOSIG",
      "taf": "TAF EETN 131130Z 1312/1412 06014KT CAVOK"
    },
    {
      "icao": "EFTU",
      "alert": "OK",
      "vis_m": 9999,
      "fzfg": false,
      "metar_trigger": false,
      "taf_trigger": false,
      "metar": "METAR EFTU 131650Z AUTO 05006KT CAVOK M14/M15 Q1005",
      "taf": "TAF EFTU 131435Z 1315/1415 07005KT CAVOK"
    },
    {
      "icao": "EGBB",
      "alert": "OK",
      "vis_m": 8000,
      "fzfg": false,
      "metar_trigger": false,
      "taf_trigger": false,
      "metar": "METAR EGBB 131650Z 04010KT 8000 -RA BKN008 OVC011 03/02 Q0997",
      "taf": "TAF EGBB 131057Z 1312/1412 07008KT 9999 BKN014"
    },
    {
      "icao": "EGGP",
      "alert": "OK",
      "vis_m": 9999,
      "fzfg": false,
      "metar_trigger": false,
      "taf_trigger": false,
      "metar": "METAR EGGP 131650Z 03010KT 9999 FEW047 03/M01 Q1001",
      "taf": "TAF EGGP 131056Z 1312/1412 04012KT 9999 BKN025"
    },
    {
      "icao": "EGGW",
      "alert": "OK",
      "vis_m": 8000,
      "fzfg": false,
      "metar_trigger": false,
      "taf_trigger": false,
      "metar": "METAR EGGW 131650Z AUTO 06013KT 8000 -RA BKN008/// OVC013/// //////TCU 04/03 Q0994",
      "taf": ""
    },
    {
      "icao": "EGKK",
      "alert": "OK",
      "vis_m": 9999,
      "fzfg": false,
      "metar_trigger": false,
      "taf_trigger": false,
      "metar": "METAR EGKK 131650Z 06017KT 9999 SCT012 07/05 Q0993",
      "taf": "TAF EGKK 131059Z 1312/1418 09006KT 9999 SCT030"
    },
    {
      "icao": "EGNM",
      "alert": "OK",
      "vis_m": 9999,
      "fzfg": false,
      "metar_trigger": false,
      "taf_trigger": false,
      "metar": "METAR EGNM 131650Z 03009KT 9999 SCT016 SCT034 01/M01 Q1000",
      "taf": "TAF EGNM 131055Z 1312/1412 06010KT 9999 BKN005"
    },
    {
      "icao": "EGPD",
      "alert": "OK",
      "vis_m": 9999,
      "fzfg": false,
      "metar_trigger": false,
      "taf_trigger": false,
      "metar": "METAR EGPD 131650Z COR 32006KT 9999 FEW011 SCT018 02/M00 Q1004 NOSIG",
      "taf": "TAF EGPD 131055Z 1312/1412 32005KT 9999 FEW015"
    },
    {
      "icao": "EGPF",
      "alert": "OK",
      "vis_m": 9999,
      "fzfg": false,
      "metar_trigger": false,
      "taf_trigger": false,
      "metar": "METAR EGPF 131650Z AUTO 01004KT 9999 FEW049 03/M04 Q1006",
      "taf": "TAF EGPF 131058Z 1312/1412 03010KT 9999 FEW045"
    },
    {
      "icao": "EHBK",
      "alert": "OK",
      "vis_m": 9999,
      "fzfg": false,
      "metar_trigger": false,
      "taf_trigger": false,
      "metar": "METAR EHBK 131655Z AUTO 03009KT 9999 OVC012 05/03 Q0993 BECMG BKN016",
      "taf": ""
    },
    {
      "icao": "EHEH",
      "alert": "OK",
      "vis_m": 9999,
      "fzfg": false,
      "metar_trigger": false,
      "taf_trigger": false,
      "metar": "METAR EHEH 131655Z AUTO 06011KT 350V070 9999 OVC013 03/M00 Q0995 GRN NOSIG",
      "taf": ""
    },
    {
      "icao": "EKBI",
      "alert": "OK",
      "vis_m": 9999,
      "fzfg": false,
      "metar_trigger": false,
      "taf_trigger": false,
      "metar": "METAR EKBI 131650Z AUTO 02011KT 9999 NCD M05/M09 Q1001",
      "taf": "TAF EKBI 131427Z 1315/1415 01010KT 9999 SCT030"
    },
    {
      "icao": "EKCH",
      "alert": "OK",
      "vis_m": 9999,
      "fzfg": false,
      "metar_trigger": false,
      "taf_trigger": false,
      "metar": "METAR EKCH 131650Z AUTO 03011KT 9999 BKN022/// BKN057/// M02/M06 Q0999 NOSIG",
      "taf": "TAF EKCH 131427Z 1315/1415 02012KT 9999 FEW018 BKN045"
    },
    {
      "icao": "ENAL",
      "alert": "OK",
      "vis_m": 1000,
      "fzfg": false,
      "metar_trigger": false,
      "taf_trigger": false,
      "metar": "METAR ENAL 131650Z 18003KT 110V270 1000 SN VV017 M01/M03 Q1001",
      "taf": "TAF ENAL 131400Z 1315/1324 16008KT 9999 FEW025"
    },
    {
      "icao": "ENBR",
      "alert": "OK",
      "vis_m": 1200,
      "fzfg": false,
      "metar_trigger": false,
      "taf_trigger": false,
      "metar": "METAR ENBR 131650Z 12007KT 1200 R17/P2000D R35/1800D SN VV007 M02/M03 Q1000 TEMPO 2000 -SHSN VV004 RMK WIND 1200FT 13022KT",
      "taf": ""
    },
    {
      "icao": "ENGM",
      "alert": "OK",
      "vis_m": 9999,
      "fzfg": false,
      "metar_trigger": false,
      "taf_trigger": false,
      "metar": "METAR ENGM 131650Z VRB01KT 9999 OVC030 M08/M14 Q1003 NOSIG",
      "taf": "TAF ENGM 131100Z 1312/1412 01003KT 9999 FEW020 BKN040"
    },
    {
      "icao": "ENHD",
      "alert": "OK",
      "vis_m": 9999,
      "fzfg": false,
      "metar_trigger": false,
      "taf_trigger": false,
      "metar": "METAR ENHD 131650Z 15015KT 9999 BKN017 M01/M05 Q1000",
      "taf": "TAF ENHD 131400Z 1315/1323 15014KT 9999 FEW008 SCT020CB BKN030"
    },
    {
      "icao": "ENTC",
      "alert": "OK",
      "vis_m": 8000,
      "fzfg": false,
      "metar_trigger": false,
      "taf_trigger": false,
      "metar": "METAR ENTC 131650Z 19013KT 8000 -SHSN FEW008 SCT012 BKN021 M05/M07 Q0996 TEMPO 1200 SHSN VV008 RMK WIND 2600FT 25009KT",
      "taf": ""
    },
    {
      "icao": "ENTO",
      "alert": "OK",
      "vis_m": 9999,
      "fzfg": false,
      "metar_trigger": false,
      "taf_trigger": false,
      "metar": "METAR ENTO 131650Z 01005KT 9999 OVC029 M06/M11 Q1004 NOSIG",
      "taf": ""
    },
    {
      "icao": "ENVA",
      "alert": "OK",
      "vis_m": 9999,
      "fzfg": false,
      "metar_trigger": false,
      "taf_trigger": false,
      "metar": "METAR ENVA 131650Z 09003KT 060V130 9999 FEW047 M09/M15 Q1002 NOSIG RMK WIND 670FT 15011KT",
      "taf": "TAF ENVA 131100Z 1312/1412 10008KT CAVOK"
    },
    {
      "icao": "ENZV",
      "alert": "OK",
      "vis_m": 9999,
      "fzfg": false,
      "metar_trigger": false,
      "taf_trigger": false,
      "metar": "METAR ENZV 131650Z 17007KT 9999 FEW032 M03/M10 Q1001 NOSIG",
      "taf": "TAF ENZV 131100Z 1312/1412 16010KT 9999 BKN030"
    },
    {
      "icao": "EPGD",
      "alert": "OK",
      "vis_m": 9999,
      "fzfg": false,
      "metar_trigger": false,
      "taf_trigger": false,
      "metar": "METAR EPGD 131700Z 36012KT 9999 OVC004 M02/M02 Q0991",
      "taf": ""
    },
    {
      "icao": "EPKK",
      "alert": "OK",
      "vis_m": 9999,
      "fzfg": false,
      "metar_trigger": false,
      "taf_trigger": false,
      "metar": "METAR EPKK 131700Z 24008KT 9999 BKN044 07/03 Q0992",
      "taf": "TAF EPKK 131430Z 1315/1415 24012KT 9999 SCT030"
    },
    {
      "icao": "EPKT",
      "alert": "OK",
      "vis_m": 9999,
      "fzfg": false,
      "metar_trigger": false,
      "taf_trigger": false,
      "metar": "METAR EPKT 131700Z 22007KT 9999 SCT031 OVC037 06/05 Q0991",
      "taf": "TAF EPKT 131130Z 1312/1412 24012KT 9999 BKN030"
    },
    {
      "icao": "EPLB",
      "alert": "OK",
      "vis_m": 9999,
      "fzfg": false,
      "metar_trigger": false,
      "taf_trigger": false,
      "metar": "METAR EPLB 131700Z 22009KT 9999 FEW037 BKN047 05/03 Q0990",
      "taf": "TAF EPLB 131130Z 1312/1412 25010KT 9999 BKN020"
    },
    {
      "icao": "EPMO",
      "alert": "OK",
      "vis_m": 9999,
      "fzfg": false,
      "metar_trigger": false,
      "taf_trigger": false,
      "metar": "METAR EPMO 131700Z 25014KT 9999 BKN009 01/00 Q0989",
      "taf": ""
    },
    {
      "icao": "EPPO",
      "alert": "OK",
      "vis_m": 9999,
      "fzfg": false,
      "metar_trigger": false,
      "taf_trigger": false,
      "metar": "METAR EPPO 131700Z 29005KT 9999 OVC011 01/M01 Q0993",
      "taf": "TAF EPPO 131130Z 1312/1412 26012KT 9999 OVC007"
    },
    {
      "icao": "EPRA",
      "alert": "OK",
      "vis_m": 9999,
      "fzfg": false,
      "metar_trigger": false,
      "taf_trigger": false,
      "metar": "METAR EPRA 131700Z 31007KT 280V340 9999 BKN022 07/03 Q0990",
      "taf": "TAF EPRA 131430Z 1315/1324 23010KT 9999 BKN025"
    },
    {
      "icao": "EPRZ",
      "alert": "OK",
      "vis_m": 9999,
      "fzfg": false,
      "metar_trigger": false,
      "taf_trigger": false,
      "metar": "METAR EPRZ 131700Z 24004KT CAVOK 07/02 Q0992",
      "taf": "TAF EPRZ 131130Z 1312/1412 28014KT 9999 BKN030"
    },
    {
      "icao": "EPSC",
      "alert": "OK",
      "vis_m": 9999,
      "fzfg": false,
      "metar_trigger": false,
      "taf_trigger": false,
      "metar": "METAR EPSC 131700Z 35006KT 9999 OVC007 01/M00 Q0994",
      "taf": "TAF EPSC 131130Z 1312/1412 35010KT 9999 BKN006"
    },
    {
      "icao": "EPSY",
      "alert": "OK",
      "vis_m": 3500,
      "fzfg": false,
      "metar_trigger": false,
      "taf_trigger": false,
      "metar": "METAR EPSY 131700Z 26007KT 230V290 3500 -SN BR BKN001 OVC004 00/M00 Q0987",
      "taf": "TAF EPSY 131430Z 1315/1324 24010KT 4000 -SNRA BR OVC004"
    },
    {
      "icao": "EPWA",
      "alert": "OK",
      "vis_m": 9999,
      "fzfg": false,
      "metar_trigger": false,
      "taf_trigger": false,
      "metar": "METAR EPWA 131700Z 26015KT 9999 BKN009 BKN017 02/00 Q0990 TEMPO BKN011",
      "taf": ""
    },
    {
      "icao": "EPWR",
      "alert": "OK",
      "vis_m": 9999,
      "fzfg": false,
      "metar_trigger": false,
      "taf_trigger": false,
      "metar": "METAR EPWR 131700Z 31008KT 9999 BKN015 04/02 Q0993",
      "taf": "TAF EPWR 131430Z 1315/1415 30012KT 9999 BKN030"
    },
    {
      "icao": "ESGG",
      "alert": "OK",
      "vis_m": 9999,
      "fzfg": false,
      "metar_trigger": false,
      "taf_trigger": false,
      "metar": "METAR ESGG 131650Z 03012KT 9999 -SN BKN044 M07/M09 Q1001",
      "taf": "TAF ESGG 131430Z 1315/1415 03010KT 9999 -SN SCT020 BKN040"
    },
    {
      "icao": "ESKN",
      "alert": "OK",
      "vis_m": 9999,
      "fzfg": false,
      "metar_trigger": false,
      "taf_trigger": false,
      "metar": "METAR ESKN 131650Z 01009KT 9999 -SN BKN035 M06/M10 Q1003",
      "taf": "TAF ESKN 131430Z 1315/1415 02010KT 9999 -SN BKN035"
    },
    {
      "icao": "ESMS",
      "alert": "OK",
      "vis_m": 9999,
      "fzfg": false,
      "metar_trigger": false,
      "taf_trigger": false,
      "metar": "METAR ESMS 131650Z 35007KT 9999 FEW022 M02/M06 Q0997",
      "taf": "TAF ESMS 131427Z 1315/1415 02010KT 9999 FEW018 BKN045"
    },
    {
      "icao": "ESSA",
      "alert": "OK",
      "vis_m": 9999,
      "fzfg": false,
      "metar_trigger": false,
      "taf_trigger": false,
      "metar": "METAR ESSA 131650Z 05006KT 9999 FEW007 BKN020 M08/M12 Q1004 TEMPO BKN011",
      "taf": ""
    },
    {
      "icao": "EYKA",
      "alert": "OK",
      "vis_m": 8000,
      "fzfg": false,
      "metar_trigger": false,
      "taf_trigger": false,
      "metar": "METAR EYKA 131650Z 01005KT 310V070 8000 -SN FZRA OVC004 M02/M02 Q0986",
      "taf": "TAF EYKA 131121Z 1312/1412 VRB03KT 3000 -RA BR OVC002"
    },
    {
      "icao": "EYPA",
      "alert": "OK",
      "vis_m": 9999,
      "fzfg": false,
      "metar_trigger": false,
      "taf_trigger": false,
      "metar": "METAR EYPA 131650Z 04011KT 010V070 9999 OVC016 M05/M09 Q0991",
      "taf": "TAF EYPA 131110Z 1312/1412 05013KT 9000 SCT010 BKN030"
    },
    {
      "icao": "EYVI",
      "alert": "OK",
      "vis_m": 2600,
      "fzfg": false,
      "metar_trigger": false,
      "taf_trigger": false,
      "metar": "METAR EYVI 131650Z 19006KT 2600 -RA OVC001 02/02 Q0985 NOSIG",
      "taf": ""
    },
    {
      "icao": "GCFV",
      "alert": "OK",
      "vis_m": 9999,
      "fzfg": false,
      "metar_trigger": false,
      "taf_trigger": false,
      "metar": "METAR GCFV 131630Z 36022KT 9999 SCT035 22/12 Q1023",
      "taf": "TAF GCFV 131400Z 1315/1415 36015KT 9999 BKN035 TX20/1414Z TN16/1406Z"
    },
    {
      "icao": "GCLP",
      "alert": "OK",
      "vis_m": 9999,
      "fzfg": false,
      "metar_trigger": false,
      "taf_trigger": false,
      "metar": "METAR GCLP 131630Z 36025KT 9999 SCT030 21/12 Q1024 NOSIG",
      "taf": "TAF GCLP 131400Z 1315/1415 36022KT 9999 SCT030 TX19/1414Z TN16/1406Z"
    },
    {
      "icao": "GCTS",
      "alert": "OK",
      "vis_m": 9999,
      "fzfg": false,
      "metar_trigger": false,
      "taf_trigger": false,
      "metar": "METAR GCTS 131630Z 20006KT 150V250 9999 BKN030 21/14 Q1024 BECMG 06020KT",
      "taf": "TAF GCTS 131400Z 1315/1415 06020KT 9999 BKN025 TX24/1414Z TN15/1406Z"
    },
    {
      "icao": "GMAD",
      "alert": "OK",
      "vis_m": 8000,
      "fzfg": false,
      "metar_trigger": false,
      "taf_trigger": false,
      "metar": "METAR GMAD 131700Z 25019KT 8000 SCT033 19/14 Q1019 NOSIG",
      "taf": "TAF GMAD 131100Z 1312/1418 28008KT 8000 BKN020"
    },
    {
      "icao": "GMMN",
      "alert": "OK",
      "vis_m": 9999,
      "fzfg": false,
      "metar_trigger": false,
      "taf_trigger": false,
      "metar": "METAR GMMN 131630Z 28014KT 9999 SCT016TCU BKN030 12/10 Q1019 RERA NOSIG",
      "taf": "TAF GMMN 131100Z 1312/1418 24016KT 9999 SCT010 BKN020"
    },
    {
      "icao": "GMMX",
      "alert": "OK",
      "vis_m": 8000,
      "fzfg": false,
      "metar_trigger": false,
      "taf_trigger": false,
      "metar": "METAR GMMX 131700Z 30011KT 270V340 8000 SCT013 BKN020 15/11 Q1021 RERA NOSIG",
      "taf": "TAF GMMX 131100Z 1312/1418 24008KT 8000 BKN026"
    },
    {
      "icao": "HEGN",
      "alert": "OK",
      "vis_m": 9999,
      "fzfg": false,
      "metar_trigger": false,
      "taf_trigger": false,
      "metar": "METAR HEGN 131600Z 10006KT CAVOK 24/16 Q1010 NOSIG",
      "taf": "TAF HEGN 131100Z 1312/1418 26010G20KT 6000 FEW025"
    },
    {
      "icao": "HEMA",
      "alert": "OK",
      "vis_m": 9999,
      "fzfg": false,
      "metar_trigger": false,
      "taf_trigger": false,
      "metar": "METAR HEMA 131600Z 13010KT CAVOK 25/15 Q1011 NOSIG",
      "taf": "TAF HEMA 131100Z 1312/1418 25010G20KT 6000 FEW025"
    },
    {
      "icao": "HESH",
      "alert": "OK",
      "vis_m": 9999,
      "fzfg": false,
      "metar_trigger": false,
      "taf_trigger": false,
      "metar": "METAR HESH 131600Z 15007KT CAVOK 23/16 Q1011 NOSIG",
      "taf": "TAF HESH 131100Z 1312/1418 23010G20KT 6000 FEW025"
    },
    {
      "icao": "HESX",
      "alert": "OK",
      "vis_m": 1500,
      "fzfg": false,
      "metar_trigger": false,
      "taf_trigger": false,
      "metar": "METAR HESX 131600Z 26018KT 1500 SA NSC 23/04 Q1007 NOSIG",
      "taf": "TAF HESX 131100Z 1312/1418 25015G25KT 6000 NSC"
    },
    {
      "icao": "LATI",
      "alert": "OK",
      "vis_m": 9999,
      "fzfg": false,
      "metar_trigger": false,
      "taf_trigger": false,
      "metar": "METAR LATI 131650Z VRB02KT 9999 SCT040 BKN094 13/09 Q0995 NOSIG",
      "taf": "TAF LATI 131100Z 1312/1412 33008KT 9999 SCT030 TX17/1313Z TN08/1405Z"
    },
    {
      "icao": "LBPD",
      "alert": "OK",
      "vis_m": 9000,
      "fzfg": false,
      "metar_trigger": false,
      "taf_trigger": false,
      "metar": "METAR LBPD 131700Z AUTO 16003KT 9000 -RA BKN046/// OVC063/// 07/07 Q0993 NOSIG",
      "taf": "TAF LBPD 131100Z 1312/1412 29008KT 5000 RA BKN012 OVC020"
    },
    {
      "icao": "LBSF",
      "alert": "OK",
      "vis_m": 9999,
      "fzfg": false,
      "metar_trigger": false,
      "taf_trigger": false,
      "metar": "METAR LBSF 131700Z AUTO 19003KT 160V240 9999 FEW050/// OVC070/// 07/04 Q0994 NOSIG",
      "taf": "TAF LBSF 131100Z 1312/1412 VRB04KT 7000 SCT012 BKN030"
    },
    {
      "icao": "LBWN",
      "alert": "OK",
      "vis_m": 6000,
      "fzfg": false,
      "metar_trigger": false,
      "taf_trigger": false,
      "metar": "METAR LBWN 131700Z AUTO 27006KT 240V320 6000 -RA BKN010/// BKN022/// OVC031/// 07/07 Q0992 RERA TEMPO 4000 RA",
      "taf": "TAF LBWN 131100Z 1312/1412 VRB04KT 3000 RA BR BKN005 OVC025"
    },
    {
      "icao": "LCLK",
      "alert": "OK",
      "vis_m": 6000,
      "fzfg": false,
      "metar_trigger": false,
      "taf_trigger": false,
      "metar": "METAR LCLK 131700Z 23009KT 6000 -SHRA FEW025CB SCT050 BKN060 14/12 Q1003 RERA NOSIG",
      "taf": "TAF LCLK 131130Z 1312/1412 22022KT 9999 FEW020 SCT035"
    },
    {
      "icao": "LCPH",
      "alert": "OK",
      "vis_m": 7000,
      "fzfg": false,
      "metar_trigger": false,
      "taf_trigger": false,
      "metar": "METAR LCPH 131700Z 26014G24KT 7000 -SHRA FEW025TCU FEW030CB BKN050 15/11 Q1002 RETSRA TEMPO 5000 TSRA SCT025CB",
      "taf": "TAF LCPH 131130Z 1312/1412 22022KT 9999 FEW020 SCT035"
    },
    {
      "icao": "LEAL",
      "alert": "OK",
      "vis_m": 9999,
      "fzfg": false,
      "metar_trigger": false,
      "taf_trigger": false,
      "metar": "METAR LEAL 131630Z 25022G32KT 210V280 9999 SCT068 18/04 Q0994 WS R28 NOSIG",
      "taf": "TAF LEAL 131100Z 1312/1412 27015KT 9999 FEW030 TX20/1313Z TN10/1406Z"
    },
    {
      "icao": "LEBB",
      "alert": "OK",
      "vis_m": 4000,
      "fzfg": false,
      "metar_trigger": false,
      "taf_trigger": false,
      "metar": "METAR LEBB 131630Z 28028G44KT 250V310 4000 RA BKN016 OVC021 10/09 Q0991 NOSIG",
      "taf": ""
    },
    {
      "icao": "LEBL",
      "alert": "OK",
      "vis_m": 3000,
      "fzfg": false,
      "metar_trigger": false,
      "taf_trigger": false,
      "metar": "METAR LEBL 131630Z 24015KT 3000 -DZRA BR FEW010 BKN035 BKN042 12/12 Q0985 REDZ RERA NOSIG",
      "taf": ""
    },
    {
      "icao": "LECH",
      "alert": "OK",
      "vis_m": 9999,
      "fzfg": false,
      "metar_trigger": false,
      "taf_trigger": false,
      "metar": "METAR LECH 131630Z AUTO 29014G27KT 240V330 9999 SCT060 16/03 Q0988",
      "taf": ""
    },
    {
      "icao": "LEMD",
      "alert": "OK",
      "vis_m": 9999,
      "fzfg": false,
      "metar_trigger": false,
      "taf_trigger": false,
      "metar": "METAR LEMD 131630Z 25023KT 9999 FEW040 SCT060 10/02 Q0996 NOSIG",
      "taf": "TAF LEMD 131100Z 1312/1418 27015KT 9999 SCT035 TX12/1315Z TN04/1405Z"
    },
    {
      "icao": "LEMG",
      "alert": "OK",
      "vis_m": 9999,
      "fzfg": false,
      "metar_trigger": false,
      "taf_trigger": false,
      "metar": "METAR LEMG 131630Z 30008KT 270V330 9999 FEW060 SCT070 14/06 Q1006 NOSIG",
      "taf": ""
    },
    {
      "icao": "LEVC",
      "alert": "OK",
      "vis_m": 9999,
      "fzfg": false,
      "metar_trigger": false,
      "taf_trigger": false,
      "metar": "METAR LEVC 131630Z 28025G36KT 250V310 9999 FEW056 16/05 Q0991 NOSIG",
      "taf": ""
    },
    {
      "icao": "LEXJ",
      "alert": "OK",
      "vis_m": 1400,
      "fzfg": false,
      "metar_trigger": false,
      "taf_trigger": false,
      "metar": "METAR LEXJ 131630Z 31023G37KT 280V340 1400 R29/1900N R11/P2000 +SHRA BR SCT020 BKN028 OVC050TCU 11/08 Q0994",
      "taf": "TAF LEXJ 131400Z 1315/1415 29019KT 9999 SCT020 BKN035 TX12/1315Z TN09/1413Z"
    },
    {
      "icao": "LEZG",
      "alert": "OK",
      "vis_m": 9999,
      "fzfg": false,
      "metar_trigger": false,
      "taf_trigger": false,
      "metar": "METAR LEZG 131630Z 27008KT 230V310 9999 -RA FEW025 BKN070 10/09 Q0990 NOSIG",
      "taf": "TAF LEZG 131100Z 1312/1412 11010KT 9999 FEW020 TX13/1312Z TN06/1406Z"
    },
    {
      "icao": "LEZL",
      "alert": "OK",
      "vis_m": 9999,
      "fzfg": false,
      "metar_trigger": false,
      "taf_trigger": false,
      "metar": "METAR LEZL 131630Z 31006KT CAVOK 13/09 Q1007 NOSIG",
      "taf": ""
    },
    {
      "icao": "LFBD",
      "alert": "OK",
      "vis_m": 9999,
      "fzfg": false,
      "metar_trigger": false,
      "taf_trigger": false,
      "metar": "METAR LFBD 131700Z AUTO VRB03KT 9999 3300 -DZ FEW007 BKN020 BKN036 10/09 Q0986 TEMPO 4000 -RA BKN010",
      "taf": "TAF LFBD 131100Z 1312/1418 16010KT CAVOK TX12/1314Z TN06/1418Z"
    },
    {
      "icao": "LFLL",
      "alert": "OK",
      "vis_m": 9999,
      "fzfg": false,
      "metar_trigger": false,
      "taf_trigger": false,
      "metar": "METAR LFLL 131630Z 14007KT 110V170 9999 FEW040 BKN086 09/04 Q0990 NOSIG",
      "taf": ""
    },
    {
      "icao": "LFLS",
      "alert": "OK",
      "vis_m": 9999,
      "fzfg": false,
      "metar_trigger": false,
      "taf_trigger": false,
      "metar": "METAR LFLS 131700Z AUTO 32005KT CAVOK 08/05 Q0989 NOSIG",
      "taf": "TAF LFLS 131400Z 1315/1415 24008KT CAVOK"
    },
    {
      "icao": "LFMN",
      "alert": "OK",
      "vis_m": 8000,
      "fzfg": false,
      "metar_trigger": false,
      "taf_trigger": false,
      "metar": "METAR LFMN 131700Z 34010KT 8000 RA OVC046 10/08 Q0994 TEMPO 4500 -SHRA SCT045TCU",
      "taf": "TAF LFMN 131400Z 1315/1421 23015KT CAVOK"
    },
    {
      "icao": "LFOB",
      "alert": "OK",
      "vis_m": 9999,
      "fzfg": false,
      "metar_trigger": false,
      "taf_trigger": false,
      "metar": "METAR LFOB 131700Z AUTO 05005KT 010V080 CAVOK 09/07 Q0990 TEMPO 3000 RA BKN006 BKN012TCU",
      "taf": "TAF LFOB 131100Z 1312/1412 13007KT 9999 BKN020"
    },
    {
      "icao": "LFPO",
      "alert": "OK",
      "vis_m": 9999,
      "fzfg": false,
      "metar_trigger": false,
      "taf_trigger": false,
      "metar": "METAR LFPO 131700Z 05007KT 9999 -RA FEW009 BKN033 08/07 Q0990 NOSIG",
      "taf": "TAF LFPO 131100Z 1312/1418 15005KT 6000 BKN008"
    },
    {
      "icao": "LFSB",
      "alert": "OK",
      "vis_m": 9999,
      "fzfg": false,
      "metar_trigger": false,
      "taf_trigger": false,
      "metar": "METAR LFSB 131700Z AUTO 35010KT CAVOK 08/05 Q0990 BECMG 09004KT",
      "taf": "TAF LFSB 131100Z 1312/1412 09004KT 9999 FEW030 BKN100"
    },
    {
      "icao": "LGAV",
      "alert": "OK",
      "vis_m": 9999,
      "fzfg": false,
      "metar_trigger": false,
      "taf_trigger": false,
      "metar": "METAR LGAV 131650Z 29007KT 9999 FEW020 SCT030 14/08 Q0993 NOSIG",
      "taf": "TAF LGAV 131100Z 1312/1412 28012KT 9999 SCT025 SCT070"
    },
    {
      "icao": "LGTS",
      "alert": "OK",
      "vis_m": 9999,
      "fzfg": false,
      "metar_trigger": false,
      "taf_trigger": false,
      "metar": "METAR LGTS 131650Z 00000KT 9999 SCT025 12/12 Q0992 NOSIG",
      "taf": "TAF LGTS 131100Z 1312/1412 VRB03KT 9999 SCT025"
    },
    {
      "icao": "LHBP",
      "alert": "OK",
      "vis_m": 9999,
      "fzfg": false,
      "metar_trigger": false,
      "taf_trigger": false,
      "metar": "METAR LHBP 131700Z 27004KT CAVOK 07/02 Q0995 NOSIG",
      "taf": "TAF LHBP 131115Z 1312/1412 31011G21KT 9999 SCT035"
    },
    {
      "icao": "LHDC",
      "alert": "OK",
      "vis_m": 9999,
      "fzfg": false,
      "metar_trigger": false,
      "taf_trigger": false,
      "metar": "METAR LHDC 131645Z AUTO 17002KT 9999 FEW037 10/06 Q0994 NOSIG",
      "taf": "TAF LHDC 131415Z 1315/1324 25006KT 9999 SCT030"
    },
    {
      "icao": "LIBD",
      "alert": "OK",
      "vis_m": 9999,
      "fzfg": false,
      "metar_trigger": false,
      "taf_trigger": false,
      "metar": "METAR LIBD 131650Z 29006KT CAVOK 11/09 Q0997",
      "taf": "TAF LIBD 131100Z 1312/1412 29016KT 9999 SCT030"
    },
    {
      "icao": "LIBG",
      "alert": "OK",
      "vis_m": 9999,
      "fzfg": false,
      "metar_trigger": false,
      "taf_trigger": false,
      "metar": "METAR LIBG 131550Z 31010KT 9999 SCT025 14/09 Q0995 RESHRA",
      "taf": "TAF LIBG 131400Z 1315/1324 30012KT 9999 SCT020"
    },
    {
      "icao": "LIBP",
      "alert": "OK",
      "vis_m": 9999,
      "fzfg": false,
      "metar_trigger": false,
      "taf_trigger": false,
      "metar": "METAR LIBP 131650Z AUTO 07004KT 020V140 9999 FEW240/// 13/08 Q0996",
      "taf": "TAF LIBP 131100Z 1312/1412 VRB05KT 9999 SCT050"
    },
    {
      "icao": "LIBR",
      "alert": "OK",
      "vis_m": 9999,
      "fzfg": false,
      "metar_trigger": false,
      "taf_trigger": false,
      "metar": "METAR LIBR 131650Z 30014KT 9999 FEW025 13/10 Q0996",
      "taf": "TAF LIBR 131100Z 1312/1412 30020KT 9999 FEW020"
    },
    {
      "icao": "LICA",
      "alert": "OK",
      "vis_m": 9999,
      "fzfg": false,
      "metar_trigger": false,
      "taf_trigger": false,
      "metar": "METAR LICA 131650Z AUTO 25016KT 9999 FEW045/// 14/11 Q1000",
      "taf": ""
    },
    {
      "icao": "LICC",
      "alert": "OK",
      "vis_m": 9999,
      "fzfg": false,
      "metar_trigger": false,
      "taf_trigger": false,
      "metar": "METAR LICC 131650Z 27013KT CAVOK 16/11 Q1000",
      "taf": "TAF LICC 131100Z 1312/1412 28025G35KT 9999 FEW030"
    },
    {
      "icao": "LICJ",
      "alert": "OK",
      "vis_m": 9999,
      "fzfg": false,
      "metar_trigger": false,
      "taf_trigger": false,
      "metar": "METAR LICJ 131650Z 24010KT CAVOK 15/10 Q1000",
      "taf": "TAF LICJ 131100Z 1312/1412 25025G35KT 9999 FEW030"
    },
    {
      "icao": "LIMC",
      "alert": "OK",
      "vis_m": 9999,
      "fzfg": false,
      "metar_trigger": false,
      "taf_trigger": false,
      "metar": "METAR LIMC 131650Z VRB02KT CAVOK 14/M02 Q0992 NOSIG",
      "taf": "TAF LIMC 131100Z 1312/1418 VRB05KT CAVOK"
    },
    {
      "icao": "LIME",
      "alert": "OK",
      "vis_m": 9999,
      "fzfg": false,
      "metar_trigger": false,
      "taf_trigger": false,
      "metar": "METAR LIME 131650Z 13006KT 9999 SCT070 12/02 Q0993 NOSIG",
      "taf": "TAF LIME 131100Z 1312/1412 VRB06KT CAVOK"
    },
    {
      "icao": "LIMF",
      "alert": "OK",
      "vis_m": 9999,
      "fzfg": false,
      "metar_trigger": false,
      "taf_trigger": false,
      "metar": "METAR LIMF 131650Z 35005KT 9999 BKN090 11/03 Q0992",
      "taf": "TAF LIMF 131100Z 1312/1412 07006KT CAVOK"
    },
    {
      "icao": "LIMJ",
      "alert": "OK",
      "vis_m": 9999,
      "fzfg": false,
      "metar_trigger": false,
      "taf_trigger": false,
      "metar": "METAR LIMJ 131650Z 16007KT 9999 SCT025 SCT035 14/09 Q0993",
      "taf": "TAF LIMJ 131100Z 1312/1412 13018KT 9999 SCT025"
    },
    {
      "icao": "LIPE",
      "alert": "OK",
      "vis_m": 9999,
      "fzfg": false,
      "metar_trigger": false,
      "taf_trigger": false,
      "metar": "METAR LIPE 131650Z 11006KT CAVOK 11/07 Q0993",
      "taf": "TAF LIPE 131100Z 1312/1412 VRB05KT CAVOK"
    },
    {
      "icao": "LIPH",
      "alert": "OK",
      "vis_m": 700,
      "fzfg": false,
      "metar_trigger": false,
      "taf_trigger": false,
      "metar": "METAR LIPH 131650Z VRB02KT 0700 R07/P2000N FG OVC001 08/08 Q0994",
      "taf": ""
    },
    {
      "icao": "LIPQ",
      "alert": "OK",
      "vis_m": 150,
      "fzfg": false,
      "metar_trigger": false,
      "taf_trigger": false,
      "metar": "METAR LIPQ 131650Z AUTO 16005KT 0150 R09/0600N FG VV002 09/09 Q0994",
      "taf": ""
    },
    {
      "icao": "LIPR",
      "alert": "OK",
      "vis_m": 9999,
      "fzfg": false,
      "metar_trigger": false,
      "taf_trigger": false,
      "metar": "METAR LIPR 131650Z VRB01KT CAVOK 10/07 Q0994",
      "taf": "TAF LIPR 131100Z 1312/1412 VRB05KT CAVOK"
    },
    {
      "icao": "LIPX",
      "alert": "OK",
      "vis_m": 500,
      "fzfg": false,
      "metar_trigger": false,
      "taf_trigger": false,
      "metar": "METAR LIPX 131650Z 13008KT 0500 R04/1000U FG BKN001 09/09 Q0993",
      "taf": "TAF LIPX 131100Z 1312/1412 VRB05KT 9999 FEW010"
    },
    {
      "icao": "LIPY",
      "alert": "OK",
      "vis_m": 9999,
      "fzfg": false,
      "metar_trigger": false,
      "taf_trigger": false,
      "metar": "METAR LIPY 131650Z AUTO 17003KT 140V220 9999 FEW240/// 11/09 Q0995",
      "taf": "TAF LIPY 131100Z 1312/1412 VRB05KT 9999 FEW040"
    },
    {
      "icao": "LIPZ",
      "alert": "OK",
      "vis_m": 250,
      "fzfg": false,
      "metar_trigger": false,
      "taf_trigger": false,
      "metar": "METAR LIPZ 131650Z VRB01KT 0250 R04R/0750N FG VV002 07/07 Q0994 NOSIG",
      "taf": ""
    },
    {
      "icao": "LIRF",
      "alert": "OK",
      "vis_m": 9999,
      "fzfg": false,
      "metar_trigger": false,
      "taf_trigger": false,
      "metar": "METAR LIRF 131650Z VRB02KT CAVOK 13/09 Q0996 NOSIG",
      "taf": "TAF LIRF 131100Z 1312/1418 27010KT CAVOK"
    },
    {
      "icao": "LIRN",
      "alert": "OK",
      "vis_m": 9999,
      "fzfg": false,
      "metar_trigger": false,
      "taf_trigger": false,
      "metar": "METAR LIRN 131650Z AUTO 25008KT 9999 FEW210/// 13/10 Q0998",
      "taf": "TAF LIRN 131100Z 1312/1412 VRB05KT CAVOK"
    },
    {
      "icao": "LIRP",
      "alert": "OK",
      "vis_m": 9999,
      "fzfg": false,
      "metar_trigger": false,
      "taf_trigger": false,
      "metar": "METAR LIRP 131645Z 34005KT 9999 SCT030 12/10 Q0995 NOSIG",
      "taf": "TAF LIRP 131100Z 1312/1412 30008KT 9999 SCT025"
    },
    {
      "icao": "LIRZ",
      "alert": "OK",
      "vis_m": 9999,
      "fzfg": false,
      "metar_trigger": false,
      "taf_trigger": false,
      "metar": "METAR LIRZ 131650Z AUTO 16003KT 9999 NCD 13/08 Q0995",
      "taf": ""
    },
    {
      "icao": "LJLJ",
      "alert": "OK",
      "vis_m": 9999,
      "fzfg": false,
      "metar_trigger": false,
      "taf_trigger": false,
      "metar": "METAR LJLJ 131630Z 34002KT 9999 FEW050 08/07 Q0994 NOSIG",
      "taf": "TAF LJLJ 131700Z 1318/1418 VRB02KT 9999 FEW040 SCT090"
    },
    {
      "icao": "LKMT",
      "alert": "OK",
      "vis_m": 9999,
      "fzfg": false,
      "metar_trigger": false,
      "taf_trigger": false,
      "metar": "METAR LKMT 131700Z 23008KT 9999 FEW034 OVC044 08/04 Q0993 NOSIG",
      "taf": "TAF LKMT 131100Z 1312/1412 23013KT 9999 SCT035 BKN040"
    },
    {
      "icao": "LKPR",
      "alert": "OK",
      "vis_m": 9999,
      "fzfg": false,
      "metar_trigger": false,
      "taf_trigger": false,
      "metar": "METAR LKPR 131700Z 21007KT 9999 FEW033 BKN043 05/03 Q0993 NOSIG",
      "taf": "TAF LKPR 131400Z 1315/1421 21016KT 9999 SCT023"
    },
    {
      "icao": "LLBG",
      "alert": "OK",
      "vis_m": 9999,
      "fzfg": false,
      "metar_trigger": false,
      "taf_trigger": false,
      "metar": "METAR LLBG 131650Z 12006KT 090V150 CAVOK 18/12 Q1007 NOSIG",
      "taf": ""
    },
    {
      "icao": "LMML",
      "alert": "OK",
      "vis_m": 9999,
      "fzfg": false,
      "metar_trigger": false,
      "taf_trigger": false,
      "metar": "METAR LMML 131645Z 24014G24KT 210V270 CAVOK 15/09 Q1004 NOSIG",
      "taf": "TAF LMML 131700Z 1318/1418 25015KT CAVOK"
    },
    {
      "icao": "LOWW",
      "alert": "OK",
      "vis_m": 9999,
      "fzfg": false,
      "metar_trigger": false,
      "taf_trigger": false,
      "metar": "METAR LOWW 131650Z 31006KT 270V340 9999 FEW050 10/00 Q0995 NOSIG",
      "taf": "TAF LOWW 131415Z 1315/1421 27013KT 9999 FEW050 TX12/1315Z TN02/1404Z"
    },
    {
      "icao": "LPFR",
      "alert": "OK",
      "vis_m": 9999,
      "fzfg": false,
      "metar_trigger": false,
      "taf_trigger": false,
      "metar": "METAR LPFR 131630Z 28018KT 9999 FEW018 SCT035 14/09 Q1010",
      "taf": "TAF LPFR 131100Z 1312/1412 28020KT 9999 SCT020"
    },
    {
      "icao": "LPMA",
      "alert": "OK",
      "vis_m": 9999,
      "fzfg": false,
      "metar_trigger": false,
      "taf_trigger": false,
      "metar": "METAR LPMA 131630Z 36014KT 300V050 9999 SCT016 19/10 Q1025",
      "taf": "TAF LPMA 131100Z 1312/1412 34012KT 9999 SCT015"
    },
    {
      "icao": "LPPR",
      "alert": "OK",
      "vis_m": 9999,
      "fzfg": false,
      "metar_trigger": false,
      "taf_trigger": false,
      "metar": "METAR LPPR 131630Z 32014KT 9999 FEW015 BKN025 12/09 Q1005",
      "taf": "TAF LPPR 131100Z 1312/1412 31015G25KT 9999 SCT020"
    },
    {
      "icao": "LPPS",
      "alert": "OK",
      "vis_m": 9999,
      "fzfg": false,
      "metar_trigger": false,
      "taf_trigger": false,
      "metar": "METAR LPPS 131630Z 34019KT 9999 FEW015 18/10 Q1026",
      "taf": "TAF LPPS 131100Z 1312/1418 32018KT 9999 SCT015"
    },
    {
      "icao": "LPPT",
      "alert": "OK",
      "vis_m": 2000,
      "fzfg": false,
      "metar_trigger": false,
      "taf_trigger": false,
      "metar": "METAR LPPT 131630Z 30018G35KT 2000 +SHRAGS SCT018 SCT025CB 12/09 Q1010 WS R02",
      "taf": "TAF LPPT 131100Z 1312/1418 29018G30KT 9999 SCT025"
    },
    {
      "icao": "LQBK",
      "alert": "OK",
      "vis_m": 9999,
      "fzfg": false,
      "metar_trigger": false,
      "taf_trigger": false,
      "metar": "METAR LQBK 131630Z 15003KT CAVOK 10/05 Q0996 NOSIG",
      "taf": "TAF LQBK 131100Z 1312/1412 18005KT 9999 FEW030 TX15/1313Z TN01/1405Z"
    },
    {
      "icao": "LQSA",
      "alert": "OK",
      "vis_m": 9999,
      "fzfg": false,
      "metar_trigger": false,
      "taf_trigger": false,
      "metar": "METAR LQSA 131630Z 14004KT 120V180 9999 BKN045 07/06 Q0997 NOSIG",
      "taf": "TAF LQSA 131100Z 1312/1412 33005KT 9999 SCT025 BKN035 TX12/1412Z TN01/1404Z"
    },
    {
      "icao": "LQTZ",
      "alert": "OK",
      "vis_m": 9999,
      "fzfg": false,
      "metar_trigger": false,
      "taf_trigger": false,
      "metar": "METAR LQTZ 131630Z 28002KT CAVOK 10/05 Q0997",
      "taf": "TAF LQTZ 131100Z 1312/1412 30005KT 9999 SCT030 BKN040 TX12/1412Z TN02/1405Z"
    },
    {
      "icao": "LRBC",
      "alert": "OK",
      "vis_m": 5000,
      "fzfg": false,
      "metar_trigger": false,
      "taf_trigger": false,
      "metar": "METAR LRBC 131630Z 10002KT 5000 BR NSC 05/05 Q0992",
      "taf": "TAF LRBC 131400Z 1315/1324 17006KT 5000 BR NSC"
    },
    {
      "icao": "LRBS",
      "alert": "OK",
      "vis_m": 7000,
      "fzfg": false,
      "metar_trigger": false,
      "taf_trigger": false,
      "metar": "METAR LRBS 131630Z 25004KT 7000 FEW018 07/05 Q0993 NOSIG",
      "taf": ""
    },
    {
      "icao": "LRBV",
      "alert": "OK",
      "vis_m": 9999,
      "fzfg": false,
      "metar_trigger": false,
      "taf_trigger": false,
      "metar": "METAR LRBV 131630Z VRB01KT CAVOK 08/01 Q0992",
      "taf": "TAF LRBV 131400Z 1315/1324 30008KT CAVOK"
    },
    {
      "icao": "LRCL",
      "alert": "OK",
      "vis_m": 9999,
      "fzfg": false,
      "metar_trigger": false,
      "taf_trigger": false,
      "metar": "METAR LRCL 131630Z VRB02KT 9999 BKN040 10/05 Q0993",
      "taf": "TAF LRCL 131400Z 1315/1324 VRB04KT 9999 BKN050"
    },
    {
      "icao": "LRCV",
      "alert": "OK",
      "vis_m": 7000,
      "fzfg": false,
      "metar_trigger": false,
      "taf_trigger": false,
      "metar": "METAR LRCV 131630Z 26003KT 7000 SCT012 05/05 Q0993",
      "taf": "TAF LRCV 131400Z 1315/1324 28006KT 5000 BR BKN015"
    },
    {
      "icao": "LRIA",
      "alert": "OK",
      "vis_m": 4400,
      "fzfg": false,
      "metar_trigger": false,
      "taf_trigger": false,
      "metar": "METAR LRIA 131630Z COR 14003KT 4400 BR BKN030 04/04 Q0993",
      "taf": ""
    },
    {
      "icao": "LROP",
      "alert": "OK",
      "vis_m": 7000,
      "fzfg": false,
      "metar_trigger": false,
      "taf_trigger": false,
      "metar": "METAR LROP 131630Z COR 25005KT 7000 FEW018 BKN110 06/06 Q0993 NOSIG",
      "taf": ""
    },
    {
      "icao": "LRSB",
      "alert": "OK",
      "vis_m": 9999,
      "fzfg": false,
      "metar_trigger": false,
      "taf_trigger": false,
      "metar": "METAR LRSB 131630Z 29003KT 9999 BKN070 09/04 Q0993",
      "taf": "TAF LRSB 131100Z 1312/1412 32008KT 9999 SCT055"
    },
    {
      "icao": "LRSM",
      "alert": "OK",
      "vis_m": 9999,
      "fzfg": false,
      "metar_trigger": false,
      "taf_trigger": false,
      "metar": "METAR LRSM 131630Z 23004KT 9999 FEW030 OVC040 09/07 Q0993",
      "taf": "TAF LRSM 131400Z 1315/1324 25010KT 9999 BKN030"
    },
    {
      "icao": "LRSV",
      "alert": "OK",
      "vis_m": 200,
      "fzfg": false,
      "metar_trigger": false,
      "taf_trigger": false,
      "metar": "METAR LRSV 131630Z VRB01KT 0200 R34/0275N FG VV001 02/02 Q0992",
      "taf": ""
    },
    {
      "icao": "LRTM",
      "alert": "OK",
      "vis_m": 9999,
      "fzfg": false,
      "metar_trigger": false,
      "taf_trigger": false,
      "metar": "METAR LRTM 131630Z 24003KT CAVOK 09/05 Q0992",
      "taf": "TAF LRTM 131400Z 1315/1324 VRB04KT CAVOK"
    },
    {
      "icao": "LRTR",
      "alert": "OK",
      "vis_m": 9999,
      "fzfg": false,
      "metar_trigger": false,
      "taf_trigger": false,
      "metar": "METAR LRTR 131630Z 31004KT 9999 SCT040 09/06 Q0995 NOSIG",
      "taf": "TAF LRTR 131100Z 1312/1412 30006KT 9999 SCT030"
    },
    {
      "icao": "LTAC",
      "alert": "OK",
      "vis_m": 9999,
      "fzfg": false,
      "metar_trigger": false,
      "taf_trigger": false,
      "metar": "METAR LTAC 131650Z 22006KT 9999 -SHRA SCT030 BKN080 07/05 Q0995 NOSIG RMK RWY21C 20008KT RWY03L 20007KT RWY21R 19008KT RWY03R 21006KT RWY21L 22007KT",
      "taf": "TAF LTAC 131640Z 1318/1418 21008KT 9999 SCT040 BKN100"
    },
    {
      "icao": "LTFM",
      "alert": "OK",
      "vis_m": 2200,
      "fzfg": false,
      "metar_trigger": false,
      "taf_trigger": false,
      "metar": "METAR LTFM 131650Z 33007KT 2200 1000W R35R/P1500N R17L/P1500N R34L/1000N R36/P1500N BCFG SCT002 BKN035 08/07 Q0991 NOSIG RMK RWY17L 29008KT 200V310 RWY34L 33009KT RWY16R 31006KT RWY36 33006KT RWY18 31005KT 240V330",
      "taf": "TAF LTFM 131640Z 1318/1424 VRB02KT 9999 -SHRA SCT003 BKN028"
    },
    {
      "icao": "LUKK",
      "alert": "OK",
      "vis_m": 5000,
      "fzfg": false,
      "metar_trigger": false,
      "taf_trigger": false,
      "metar": "METAR LUKK 131630Z 02006KT 5000 BR BKN002 OVC015 03/03 Q0993 TEMPO 0600 FG",
      "taf": ""
    },
    {
      "icao": "LWOH",
      "alert": "OK",
      "vis_m": 9999,
      "fzfg": false,
      "metar_trigger": false,
      "taf_trigger": false,
      "metar": "METAR LWOH 131650Z 15004KT 060V180 9999 BKN040 08/06 Q0994",
      "taf": "TAF LWOH 131430Z 1315/1415 15005KT 9999 BKN040"
    },
    {
      "icao": "LWSK",
      "alert": "OK",
      "vis_m": 9999,
      "fzfg": false,
      "metar_trigger": false,
      "taf_trigger": false,
      "metar": "METAR LWSK 131650Z 36009KT 9999 SCT050 BKN075 12/06 Q0994 NOSIG",
      "taf": "TAF LWSK 131430Z 1315/1415 36012KT 9999 SCT045 BKN080"
    },
    {
      "icao": "LYBE",
      "alert": "OK",
      "vis_m": 9999,
      "fzfg": false,
      "metar_trigger": false,
      "taf_trigger": false,
      "metar": "METAR LYBE 131630Z 31006KT CAVOK 10/04 Q0996 NOSIG",
      "taf": "TAF LYBE 131100Z 1312/1412 33008KT 9999 SCT045 TX14/1412Z TN03/1406Z"
    },
    {
      "icao": "LYNI",
      "alert": "OK",
      "vis_m": 9999,
      "fzfg": false,
      "metar_trigger": false,
      "taf_trigger": false,
      "metar": "METAR LYNI 131630Z VRB04KT 9999 SCT020 BKN070 09/07 Q0995 NOSIG",
      "taf": "TAF LYNI 131100Z 1312/1412 35010KT 9999 BKN070 TX13/1412Z TN02/1406Z"
    },
    {
      "icao": "LYPG",
      "alert": "OK",
      "vis_m": 9999,
      "fzfg": false,
      "metar_trigger": false,
      "taf_trigger": false,
      "metar": "METAR LYPG 131630Z 35012KT 9999 FEW050 SCT090 15/05 Q0994 NOSIG",
      "taf": ""
    },
    {
      "icao": "LZIB",
      "alert": "OK",
      "vis_m": 9999,
      "fzfg": false,
      "metar_trigger": false,
      "taf_trigger": false,
      "metar": "METAR LZIB 131700Z 29006KT CAVOK 10/01 Q0994 NOSIG",
      "taf": "TAF LZIB 131115Z 1312/1412 28015KT 9999 FEW030"
    },
    {
      "icao": "LZKZ",
      "alert": "OK",
      "vis_m": 9999,
      "fzfg": false,
      "metar_trigger": false,
      "taf_trigger": false,
      "metar": "METAR LZKZ 131700Z 32011KT 9999 -SHRA FEW025CB SCT030 07/05 Q0993 TEMPO SHRA",
      "taf": ""
    },
    {
      "icao": "LZTT",
      "alert": "OK",
      "vis_m": 9999,
      "fzfg": false,
      "metar_trigger": false,
      "taf_trigger": false,
      "metar": "METAR LZTT 131700Z 27012KT 9999 FEW033 04/01 Q0992 NOSIG",
      "taf": "TAF LZTT 131115Z 1312/1412 28017KT 9999 FEW020 SCT045"
    },
    {
      "icao": "OEJN",
      "alert": "OK",
      "vis_m": 9999,
      "fzfg": false,
      "metar_trigger": false,
      "taf_trigger": false,
      "metar": "METAR OEJN 131700Z 30006KT CAVOK 27/17 Q1012 NOSIG",
      "taf": "TAF OEJN 131100Z 1312/1418 30010KT CAVOK"
    },
    {
      "icao": "OEMA",
      "alert": "OK",
      "vis_m": 9999,
      "fzfg": false,
      "metar_trigger": false,
      "taf_trigger": false,
      "metar": "METAR OEMA 131700Z 23008KT CAVOK 28/06 Q1015 NOSIG",
      "taf": "TAF OEMA 131100Z 1312/1418 25010KT CAVOK"
    },
    {
      "icao": "OJAI",
      "alert": "OK",
      "vis_m": 3500,
      "fzfg": false,
      "metar_trigger": false,
      "taf_trigger": false,
      "metar": "METAR OJAI 131700Z COR 21009KT 3500 HZ SCT040 19/04 Q1009 NOSIG",
      "taf": "TAF OJAI 131050Z 1312/1418 26014KT 3000 HZ FEW035"
    },
    {
      "icao": "OMAA",
      "alert": "OK",
      "vis_m": 9999,
      "fzfg": false,
      "metar_trigger": false,
      "taf_trigger": false,
      "metar": "METAR OMAA 131700Z 35004KT CAVOK 24/17 Q1016 NOSIG",
      "taf": "TAF OMAA 131700Z 1318/1500 04005KT 8000 NSC"
    },
    {
      "icao": "OMDB",
      "alert": "OK",
      "vis_m": 9999,
      "fzfg": false,
      "metar_trigger": false,
      "taf_trigger": false,
      "metar": "METAR OMDB 131700Z 31004KT 280V030 CAVOK 25/14 Q1016 NOSIG",
      "taf": "TAF OMDB 131700Z 1318/1500 10005KT CAVOK"
    },
    {
      "icao": "UAAA",
      "alert": "OK",
      "vis_m": 5000,
      "fzfg": false,
      "metar_trigger": false,
      "taf_trigger": false,
      "metar": "METAR UAAA 131630Z VRB01MPS 5000 BR SCT100 BKN200 M07/M08 Q1019 NOSIG",
      "taf": "TAF UAAA 131104Z 1312/1412 22003MPS 1200 BR FU BKN011CB OVC020 TX00/1409Z TNM07/1403Z"
    },
    {
      "icao": "UBBB",
      "alert": "OK",
      "vis_m": 9999,
      "fzfg": false,
      "metar_trigger": false,
      "taf_trigger": false,
      "metar": "METAR UBBB 131700Z 18014KT CAVOK 12/05 Q1005 NOSIG",
      "taf": "TAF UBBB 131701Z 1318/1418 17014KT 9999 SCT030 TX15/1410Z TN06/1401Z"
    },
    {
      "icao": "UDSG",
      "alert": "OK",
      "vis_m": 9999,
      "fzfg": false,
      "metar_trigger": false,
      "taf_trigger": false,
      "metar": "METAR UDSG 131630Z 27006KT 230V310 9999 BKN036 06/00 Q1013 NOSIG",
      "taf": "TAF UDSG 131100Z 1312/1412 VRB06KT 5000 BR BKN040"
    },
    {
      "icao": "UDYZ",
      "alert": "OK",
      "vis_m": 2700,
      "fzfg": false,
      "metar_trigger": false,
      "taf_trigger": false,
      "metar": "METAR UDYZ 131630Z 25002KT 2700 BR FEW046 06/05 Q1012 NOSIG",
      "taf": "TAF UDYZ 131100Z 1312/1412 VRB06KT 5000 BR SCT040"
    },
    {
      "icao": "UGKO",
      "alert": "OK",
      "vis_m": 9999,
      "fzfg": false,
      "metar_trigger": false,
      "taf_trigger": false,
      "metar": "METAR UGKO 131630Z 07018KT CAVOK 18/04 Q1001 NOSIG",
      "taf": "TAF UGKO 131100Z 1312/1412 08020KT 9999 BKN080 TX18/1312Z TN13/1405Z"
    }
  ]
}