{
  "ts_utc": "2026-01-30T06:08:27Z",
  "threshold_m": 150,
  "source": "stations_override.txt (ICAO list) + aviationweather.gov (METAR/TAF raw)",
  "station_count": 159,
  "stations": [
    {
      "icao": "BIKF",
      "alert": "OK",
      "vis_m": 9999,
      "fzfg": false,
      "metar_trigger": false,
      "taf_trigger": false,
      "metar": "METAR BIKF 300600Z 35005KT CAVOK 03/00 Q0997",
      "taf": "TAF BIKF 300440Z 3006/3106 36007KT 9999 FEW040 TX03/3014Z TNM02/3022Z"
    },
    {
      "icao": "BKPR",
      "alert": "OK",
      "vis_m": 9999,
      "fzfg": false,
      "metar_trigger": false,
      "taf_trigger": false,
      "metar": "METAR BKPR 300600Z 32005KT 9999 FEW008 BKN030 05/05 Q0999 NOSIG",
      "taf": "TAF BKPR 300530Z 3006/3106 31006KT 9999 SCT015 BKN030"
    },
    {
      "icao": "EBCI",
      "alert": "OK",
      "vis_m": 9999,
      "fzfg": false,
      "metar_trigger": false,
      "taf_trigger": false,
      "metar": "METAR EBCI 300550Z 12005KT 100V160 CAVOK 01/00 Q0994 NOSIG",
      "taf": "TAF EBCI 300515Z 3006/3112 13006KT 9999 FEW015"
    },
    {
      "icao": "EDDB",
      "alert": "OK",
      "vis_m": 6000,
      "fzfg": false,
      "metar_trigger": false,
      "taf_trigger": false,
      "metar": "METAR EDDB 300550Z AUTO 08010KT 6000 OVC008 M04/M05 Q1005 TEMPO 4000 -SN",
      "taf": "TAF EDDB 300500Z 3006/3106 07011KT 6000 OVC007"
    },
    {
      "icao": "EDDH",
      "alert": "OK",
      "vis_m": 9999,
      "fzfg": false,
      "metar_trigger": false,
      "taf_trigger": false,
      "metar": "METAR EDDH 300550Z AUTO 09011KT 9999 -SN BKN011 OVC016 OVC042 M02/M04 Q1004 TEMPO OVC009",
      "taf": "TAF EDDH 300500Z 3006/3112 09010KT 6000 OVC012"
    },
    {
      "icao": "EDDK",
      "alert": "OK",
      "vis_m": 9999,
      "fzfg": false,
      "metar_trigger": false,
      "taf_trigger": false,
      "metar": "METAR EDDK 300550Z AUTO 11008KT 9999 SCT007 00/M01 Q0998 TEMPO BKN007",
      "taf": "TAF EDDK 300500Z 3006/3112 11005KT 9999 SCT009"
    },
    {
      "icao": "EDDN",
      "alert": "OK",
      "vis_m": 6000,
      "fzfg": false,
      "metar_trigger": false,
      "taf_trigger": false,
      "metar": "METAR EDDN 300550Z AUTO 10005KT 6000 OVC034 00/M01 Q0999 NOSIG",
      "taf": ""
    },
    {
      "icao": "EDDS",
      "alert": "OK",
      "vis_m": 600,
      "fzfg": true,
      "metar_trigger": false,
      "taf_trigger": false,
      "metar": "METAR EDDS 300550Z AUTO VRB01KT 0600 0550 R25/0700N FZFG SCT002 BKN009 M03/M03 Q0998 TEMPO 0800 BKN001",
      "taf": "TAF EDDS 300500Z 3006/3106 VRB03KT 0600 FZFG VV002"
    },
    {
      "icao": "EDFH",
      "alert": "OK",
      "vis_m": 350,
      "fzfg": true,
      "metar_trigger": false,
      "taf_trigger": false,
      "metar": "METAR EDFH 300550Z 13012KT 0350 R21/0400N FZFG VV/// M01/M01 Q0996",
      "taf": "TAF EDFH 300500Z 3006/3106 14012KT 0600 FZFG VV002"
    },
    {
      "icao": "EDJA",
      "alert": "OK",
      "vis_m": 350,
      "fzfg": true,
      "metar_trigger": false,
      "taf_trigger": false,
      "metar": "METAR EDJA 300550Z COR VRB02KT 0350 R06/0400N FZFG VV/// M05/M06 Q0998",
      "taf": "TAF EDJA 300500Z 3006/3015 VRB03KT 0800 FZFG SCT004"
    },
    {
      "icao": "EDLW",
      "alert": "OK",
      "vis_m": 9999,
      "fzfg": false,
      "metar_trigger": false,
      "taf_trigger": false,
      "metar": "METAR EDLW 300550Z 10006KT 9999 FEW029 M00/M01 Q0998",
      "taf": "TAF EDLW 300500Z 3006/3106 11007KT 9999 FEW035"
    },
    {
      "icao": "EDNY",
      "alert": "OK",
      "vis_m": 1600,
      "fzfg": false,
      "metar_trigger": false,
      "taf_trigger": false,
      "metar": "METAR EDNY 300550Z 05004KT 1600 BR BKN002 OVC005 M00/M00 Q0999",
      "taf": "TAF EDNY 300500Z 3006/3015 VRB03KT 2000 BR OVC002"
    },
    {
      "icao": "EDSB",
      "alert": "OK",
      "vis_m": 350,
      "fzfg": true,
      "metar_trigger": false,
      "taf_trigger": false,
      "metar": "METAR EDSB 300550Z VRB01KT 0350 R21/0400N FZFG VV/// M01/M01 Q0999",
      "taf": "TAF EDSB 300500Z 3006/3106 VRB03KT 0600 FZFG VV002"
    },
    {
      "icao": "EETN",
      "alert": "OK",
      "vis_m": 6000,
      "fzfg": false,
      "metar_trigger": false,
      "taf_trigger": false,
      "metar": "METAR EETN 300550Z 10007KT 6000 BCFG SCT002 OVC004 M13/M14 Q1025 NOSIG",
      "taf": ""
    },
    {
      "icao": "EFTU",
      "alert": "OK",
      "vis_m": 9999,
      "fzfg": false,
      "metar_trigger": false,
      "taf_trigger": false,
      "metar": "METAR EFTU 300550Z AUTO 08002KT CAVOK M21/M23 Q1025",
      "taf": "TAF EFTU 300524Z 3006/3106 08003KT CAVOK"
    },
    {
      "icao": "EGBB",
      "alert": "OK",
      "vis_m": 5000,
      "fzfg": false,
      "metar_trigger": false,
      "taf_trigger": false,
      "metar": "METAR EGBB 300550Z 13012KT 5000 RADZ OVC005 04/03 Q0988 RERA REDZ",
      "taf": "TAF EGBB 300454Z 3006/3106 11012KT 9999 BKN006"
    },
    {
      "icao": "EGGP",
      "alert": "OK",
      "vis_m": 9999,
      "fzfg": false,
      "metar_trigger": false,
      "taf_trigger": false,
      "metar": "METAR EGGP 300550Z 11013KT 9999 -RA OVC015 03/01 Q0987",
      "taf": "TAF EGGP 300506Z 3006/3106 10014KT 9999 BKN020"
    },
    {
      "icao": "EGGW",
      "alert": "OK",
      "vis_m": 4900,
      "fzfg": false,
      "metar_trigger": false,
      "taf_trigger": false,
      "metar": "METAR EGGW 300550Z AUTO 13012KT 4900 BR OVC002/// //////TCU 04/03 Q0989",
      "taf": "TAF EGGW 300457Z 3006/3106 12012KT 9999 BKN020"
    },
    {
      "icao": "EGKK",
      "alert": "OK",
      "vis_m": 5000,
      "fzfg": false,
      "metar_trigger": false,
      "taf_trigger": false,
      "metar": "METAR EGKK 300550Z 13009KT 5000 -RA BKN005 07/07 Q0989",
      "taf": "TAF EGKK 300500Z 3006/3112 13008KT 9999 BKN010"
    },
    {
      "icao": "EGNM",
      "alert": "OK",
      "vis_m": 3000,
      "fzfg": false,
      "metar_trigger": false,
      "taf_trigger": false,
      "metar": "METAR EGNM 300550Z 09013KT 3000 -RASN BKN005 01/01 Q0990",
      "taf": "TAF EGNM 300507Z 3006/3106 10009KT 6000 BKN008"
    },
    {
      "icao": "EGPD",
      "alert": "OK",
      "vis_m": 9999,
      "fzfg": false,
      "metar_trigger": false,
      "taf_trigger": false,
      "metar": "METAR EGPD 300550Z AUTO 14013KT 120V180 9999 -RA SCT015/// BKN026/// //////TCU 03/01 Q0995 RERA TEMPO SHRA",
      "taf": "TAF EGPD 300500Z 3006/3106 13015G25KT 9999 SCT018 BKN030"
    },
    {
      "icao": "EGPF",
      "alert": "OK",
      "vis_m": 9999,
      "fzfg": false,
      "metar_trigger": false,
      "taf_trigger": false,
      "metar": "METAR EGPF 300550Z AUTO 09018KT 9999 OVC027 04/M01 Q0990",
      "taf": "TAF EGPF 300501Z 3006/3106 09016G26KT 9999 FEW018 SCT030"
    },
    {
      "icao": "EHBK",
      "alert": "OK",
      "vis_m": 8000,
      "fzfg": false,
      "metar_trigger": false,
      "taf_trigger": false,
      "metar": "METAR EHBK 300555Z AUTO 09007KT 8000 NCD M02/M02 Q0996 NOSIG",
      "taf": "TAF EHBK 300515Z 3006/3112 11005KT 1200 BR FEW035"
    },
    {
      "icao": "EHEH",
      "alert": "OK",
      "vis_m": null,
      "fzfg": false,
      "metar_trigger": false,
      "taf_trigger": false,
      "metar": "",
      "taf": "TAF EHEH 300537Z 3006/3112 10006KT 2000 BR BKN003"
    },
    {
      "icao": "EKBI",
      "alert": "OK",
      "vis_m": 9999,
      "fzfg": false,
      "metar_trigger": false,
      "taf_trigger": false,
      "metar": "METAR EKBI 300551Z 10014KT 070V130 9999 -FZDZ BKN014 M01/M04 Q1006",
      "taf": "TAF EKBI 300527Z 3006/3106 10020KT 9999 -SN OVC016"
    },
    {
      "icao": "EKCH",
      "alert": "OK",
      "vis_m": 9999,
      "fzfg": false,
      "metar_trigger": false,
      "taf_trigger": false,
      "metar": "METAR EKCH 300550Z AUTO 08017KT 9999 -SN OVC020/// M01/M05 Q1010 NOSIG",
      "taf": "TAF EKCH 300527Z 3006/3106 09018KT 9999 -SN OVC016"
    },
    {
      "icao": "ENAL",
      "alert": "OK",
      "vis_m": 9999,
      "fzfg": false,
      "metar_trigger": false,
      "taf_trigger": false,
      "metar": "METAR ENAL 300550Z 15015KT 9999 BKN037 M01/M09 Q1010",
      "taf": "TAF ENAL 300500Z 3006/3015 14012KT 9999 FEW025 BKN035"
    },
    {
      "icao": "ENBR",
      "alert": "OK",
      "vis_m": 9999,
      "fzfg": false,
      "metar_trigger": false,
      "taf_trigger": false,
      "metar": "METAR ENBR 300550Z 05002KT CAVOK M06/M15 Q1010 NOSIG RMK WIND 1200FT 05003KT",
      "taf": "TAF ENBR 300500Z 3006/3106 09005KT CAVOK"
    },
    {
      "icao": "ENGM",
      "alert": "OK",
      "vis_m": 9000,
      "fzfg": false,
      "metar_trigger": false,
      "taf_trigger": false,
      "metar": "METAR ENGM 300550Z 03006KT 9000 -SN OVC032 M10/M12 Q1018 NOSIG",
      "taf": "TAF ENGM 300500Z 3006/3106 02008KT 9999 -SN BKN030"
    },
    {
      "icao": "ENHD",
      "alert": "OK",
      "vis_m": 9999,
      "fzfg": false,
      "metar_trigger": false,
      "taf_trigger": false,
      "metar": "METAR ENHD 300550Z 08005KT CAVOK M04/M12 Q1010",
      "taf": "TAF ENHD 300500Z 3006/3015 10008KT CAVOK"
    },
    {
      "icao": "ENTC",
      "alert": "OK",
      "vis_m": 9999,
      "fzfg": false,
      "metar_trigger": false,
      "taf_trigger": false,
      "metar": "METAR ENTC 300550Z VRB02KT CAVOK M11/M13 Q1022 RMK WIND 2600FT 17012KT",
      "taf": "TAF ENTC 300500Z 3006/3106 18008KT 9999 FEW020"
    },
    {
      "icao": "ENTO",
      "alert": "OK",
      "vis_m": 7000,
      "fzfg": false,
      "metar_trigger": false,
      "taf_trigger": false,
      "metar": "METAR ENTO 300550Z 01010KT 7000 -SN OVC033 M08/M09 Q1017 NOSIG",
      "taf": "TAF ENTO 300500Z 3006/3106 02010KT 9999 -SN FEW012 BKN030"
    },
    {
      "icao": "ENVA",
      "alert": "OK",
      "vis_m": 9999,
      "fzfg": false,
      "metar_trigger": false,
      "taf_trigger": false,
      "metar": "METAR ENVA 300550Z 10009KT 070V130 9999 NCD M07/M15 Q1015 NOSIG RMK WIND 670FT 14016KT",
      "taf": "TAF ENVA 300500Z 3006/3106 12009KT CAVOK"
    },
    {
      "icao": "ENZV",
      "alert": "OK",
      "vis_m": 9999,
      "fzfg": false,
      "metar_trigger": false,
      "taf_trigger": false,
      "metar": "METAR ENZV 300550Z 10006KT 9999 BKN041 M02/M10 Q1010 NOSIG",
      "taf": "TAF ENZV 300500Z 3006/3106 09005KT 9999 SCT040"
    },
    {
      "icao": "EPGD",
      "alert": "OK",
      "vis_m": 8000,
      "fzfg": false,
      "metar_trigger": false,
      "taf_trigger": false,
      "metar": "METAR EPGD 300600Z 09008KT 8000 -SN OVC004 M08/M09 Q1011",
      "taf": "TAF EPGD 300530Z 3006/3106 09012KT 9999 OVC007"
    },
    {
      "icao": "EPKK",
      "alert": "OK",
      "vis_m": 9999,
      "fzfg": false,
      "metar_trigger": false,
      "taf_trigger": false,
      "metar": "METAR EPKK 300600Z 07011KT 9999 FEW010 OVC011 M01/M03 Q1003",
      "taf": "TAF EPKK 300530Z 3006/3106 06010KT 9999 -SN OVC012"
    },
    {
      "icao": "EPKT",
      "alert": "OK",
      "vis_m": 9999,
      "fzfg": false,
      "metar_trigger": false,
      "taf_trigger": false,
      "metar": "METAR EPKT 300600Z 06012KT 9999 BKN008 OVC014 M01/M03 Q1003",
      "taf": "TAF EPKT 300530Z 3006/3106 09012KT 9999 -SN OVC011"
    },
    {
      "icao": "EPLB",
      "alert": "OK",
      "vis_m": 3000,
      "fzfg": false,
      "metar_trigger": false,
      "taf_trigger": false,
      "metar": "METAR EPLB 300600Z 06011KT 3000 BR OVC003 M04/M04 Q1007",
      "taf": "TAF EPLB 300530Z 3006/3106 07010KT 8000 OVC010"
    },
    {
      "icao": "EPMO",
      "alert": "OK",
      "vis_m": 7000,
      "fzfg": false,
      "metar_trigger": false,
      "taf_trigger": false,
      "metar": "METAR EPMO 300600Z 06013KT 7000 -SN OVC010 M06/M07 Q1009",
      "taf": "TAF EPMO 300530Z 3006/3106 07012KT 8000 OVC010"
    },
    {
      "icao": "EPPO",
      "alert": "OK",
      "vis_m": 6000,
      "fzfg": false,
      "metar_trigger": false,
      "taf_trigger": false,
      "metar": "METAR EPPO 300600Z 06009KT 6000 OVC008 M05/M06 Q1007",
      "taf": "TAF EPPO 300530Z 3006/3106 06008KT 9999 OVC008"
    },
    {
      "icao": "EPRA",
      "alert": "OK",
      "vis_m": 5000,
      "fzfg": false,
      "metar_trigger": false,
      "taf_trigger": false,
      "metar": "METAR EPRA 300600Z 06009KT 5000 -FZDZ BR OVC004 M03/M04 Q1007",
      "taf": "TAF EPRA 300530Z 3006/3015 06008KT 7000 OVC004"
    },
    {
      "icao": "EPRZ",
      "alert": "OK",
      "vis_m": 9999,
      "fzfg": false,
      "metar_trigger": false,
      "taf_trigger": false,
      "metar": "METAR EPRZ 300600Z 05008KT 9999 OVC020 00/M02 Q1004",
      "taf": "TAF EPRZ 300530Z 3006/3106 06012KT 9999 OVC012"
    },
    {
      "icao": "EPSC",
      "alert": "OK",
      "vis_m": 9999,
      "fzfg": false,
      "metar_trigger": false,
      "taf_trigger": false,
      "metar": "METAR EPSC 300600Z 07008KT 040V100 9999 FEW009 OVC026 M05/M07 Q1008",
      "taf": "TAF EPSC 300530Z 3006/3106 08012KT 9999 SCT008 OVC020"
    },
    {
      "icao": "EPSY",
      "alert": "OK",
      "vis_m": 9999,
      "fzfg": false,
      "metar_trigger": false,
      "taf_trigger": false,
      "metar": "METAR EPSY 300600Z 06006KT 030V100 9999 OVC008 M09/M10 Q1011",
      "taf": "TAF EPSY 300530Z 3006/3015 08008KT 9999 OVC010"
    },
    {
      "icao": "EPWA",
      "alert": "OK",
      "vis_m": 9000,
      "fzfg": false,
      "metar_trigger": false,
      "taf_trigger": false,
      "metar": "METAR EPWA 300600Z 07009KT 030V100 9000 OVC009 M05/M07 Q1009 NOSIG",
      "taf": "TAF EPWA 300530Z 3006/3106 07012KT 8000 OVC010"
    },
    {
      "icao": "EPWR",
      "alert": "OK",
      "vis_m": 7000,
      "fzfg": false,
      "metar_trigger": false,
      "taf_trigger": false,
      "metar": "METAR EPWR 300600Z 08007KT 050V110 7000 OVC010 M01/M03 Q1004",
      "taf": "TAF EPWR 300530Z 3006/3106 07008KT 9999 BKN009"
    },
    {
      "icao": "ESGG",
      "alert": "OK",
      "vis_m": 9999,
      "fzfg": false,
      "metar_trigger": false,
      "taf_trigger": false,
      "metar": "METAR ESGG 300550Z 09008KT 9999 BKN030 M04/M10 Q1013",
      "taf": "TAF ESGG 300530Z 3006/3106 10010KT 9999 BKN030"
    },
    {
      "icao": "ESKN",
      "alert": "OK",
      "vis_m": 9999,
      "fzfg": false,
      "metar_trigger": false,
      "taf_trigger": false,
      "metar": "METAR ESKN 300550Z 11013KT 9999 BKN030 M03/M09 Q1019",
      "taf": "TAF ESKN 300530Z 3006/3106 10010KT 9999 BKN030"
    },
    {
      "icao": "ESMS",
      "alert": "OK",
      "vis_m": 9000,
      "fzfg": false,
      "metar_trigger": false,
      "taf_trigger": false,
      "metar": "METAR ESMS 300550Z 08018KT 9000 SG OVC020 M02/M05 Q1009",
      "taf": "TAF ESMS 300527Z 3006/3106 09018KT 9999 -SN OVC018"
    },
    {
      "icao": "ESSA",
      "alert": "OK",
      "vis_m": 9999,
      "fzfg": false,
      "metar_trigger": false,
      "taf_trigger": false,
      "metar": "METAR ESSA 300550Z 06006KT CAVOK M10/M11 Q1021 NOSIG",
      "taf": "TAF ESSA 300530Z 3006/3106 05007KT 9999 SCT030"
    },
    {
      "icao": "EYKA",
      "alert": "OK",
      "vis_m": 9999,
      "fzfg": false,
      "metar_trigger": false,
      "taf_trigger": false,
      "metar": "METAR EYKA 300550Z 04006KT 010V070 CAVOK M17/M19 Q1017",
      "taf": "TAF EYKA 300500Z 3006/3106 06008KT 7000 NSC"
    },
    {
      "icao": "EYPA",
      "alert": "OK",
      "vis_m": 9999,
      "fzfg": false,
      "metar_trigger": false,
      "taf_trigger": false,
      "metar": "METAR EYPA 300550Z 08008KT 060V120 CAVOK M15/M19 Q1018",
      "taf": "TAF EYPA 300500Z 3006/3106 08008KT 9000 NSC"
    },
    {
      "icao": "EYVI",
      "alert": "OK",
      "vis_m": 9999,
      "fzfg": false,
      "metar_trigger": false,
      "taf_trigger": false,
      "metar": "METAR EYVI 300550Z 07008KT CAVOK M17/M19 Q1015 NOSIG",
      "taf": "TAF EYVI 300500Z 3006/3106 06010KT 9000 NSC"
    },
    {
      "icao": "GCFV",
      "alert": "OK",
      "vis_m": 9999,
      "fzfg": false,
      "metar_trigger": false,
      "taf_trigger": false,
      "metar": "METAR GCFV 300600Z 33009KT 9999 BKN028 19/13 Q1023",
      "taf": "TAF GCFV 300200Z 3003/3103 34007KT 9999 BKN020 TX23/3014Z TN15/3006Z"
    },
    {
      "icao": "GCLP",
      "alert": "OK",
      "vis_m": 9999,
      "fzfg": false,
      "metar_trigger": false,
      "taf_trigger": false,
      "metar": "METAR GCLP 300600Z 36010KT 9999 BKN030 18/13 Q1023 NOSIG",
      "taf": "TAF GCLP 300200Z 3003/3103 36010KT 9999 BKN025 TX23/3014Z TN16/3006Z"
    },
    {
      "icao": "GCTS",
      "alert": "OK",
      "vis_m": 9999,
      "fzfg": false,
      "metar_trigger": false,
      "taf_trigger": false,
      "metar": "METAR GCTS 300600Z 34007KT 9999 FEW035 16/11 Q1023 NOSIG",
      "taf": "TAF GCTS 300200Z 3003/3103 33005KT 9999 BKN020 TX24/3014Z TN16/3006Z"
    },
    {
      "icao": "GMAD",
      "alert": "OK",
      "vis_m": 8000,
      "fzfg": false,
      "metar_trigger": false,
      "taf_trigger": false,
      "metar": "METAR GMAD 300600Z 00000KT 8000 BKN006 15/15 Q1020 NOSIG",
      "taf": "TAF GMAD 300500Z 3006/3112 24003KT 8000 BKN015"
    },
    {
      "icao": "GMMN",
      "alert": "OK",
      "vis_m": 9999,
      "fzfg": false,
      "metar_trigger": false,
      "taf_trigger": false,
      "metar": "METAR GMMN 300600Z 23008KT 9999 BKN020 15/13 Q1021 NOSIG",
      "taf": "TAF GMMN 300500Z 3006/3112 23008KT 8000 BKN020"
    },
    {
      "icao": "GMMX",
      "alert": "OK",
      "vis_m": 1500,
      "fzfg": false,
      "metar_trigger": false,
      "taf_trigger": false,
      "metar": "METAR GMMX 300600Z 20005KT 160V230 1500 BR BKN003 13/13 Q1021 TEMPO 3000",
      "taf": "TAF GMMX 300500Z 3006/3112 26006KT 8000 SCT023 SCT080"
    },
    {
      "icao": "HEGN",
      "alert": "OK",
      "vis_m": 9999,
      "fzfg": false,
      "metar_trigger": false,
      "taf_trigger": false,
      "metar": "METAR HEGN 300500Z 26005KT CAVOK 11/01 Q1017 NOSIG",
      "taf": "TAF HEGN 300500Z 3006/3112 24008KT CAVOK"
    },
    {
      "icao": "HEMA",
      "alert": "OK",
      "vis_m": 9999,
      "fzfg": false,
      "metar_trigger": false,
      "taf_trigger": false,
      "metar": "METAR HEMA 300500Z 25008KT CAVOK 14/08 Q1016 NOSIG",
      "taf": "TAF HEMA 300500Z 3006/3112 24008KT CAVOK"
    },
    {
      "icao": "HESH",
      "alert": "OK",
      "vis_m": 9999,
      "fzfg": false,
      "metar_trigger": false,
      "taf_trigger": false,
      "metar": "METAR HESH 300500Z 34005KT CAVOK 15/05 Q1015 NOSIG",
      "taf": "TAF HESH 300500Z 3006/3112 25008KT CAVOK"
    },
    {
      "icao": "HESX",
      "alert": "OK",
      "vis_m": 9999,
      "fzfg": false,
      "metar_trigger": false,
      "taf_trigger": false,
      "metar": "METAR HESX 300500Z 20016KT CAVOK 15/01 Q1012 NOSIG",
      "taf": "TAF HESX 300500Z 3006/3112 20020G30KT 8000 NSC"
    },
    {
      "icao": "LATI",
      "alert": "OK",
      "vis_m": 9999,
      "fzfg": false,
      "metar_trigger": false,
      "taf_trigger": false,
      "metar": "METAR LATI 300550Z 15004KT 9999 SCT053 BKN076 08/06 Q1000 NOSIG",
      "taf": "TAF LATI 300500Z 3006/3106 VRB05KT 9999 SCT025 BKN060 TX13/3012Z TN05/3105Z"
    },
    {
      "icao": "LBPD",
      "alert": "OK",
      "vis_m": 9999,
      "fzfg": false,
      "metar_trigger": false,
      "taf_trigger": false,
      "metar": "METAR LBPD 300600Z AUTO 27016KT 9999 -RA FEW043/// OVC060/// 08/07 Q0996 NOSIG",
      "taf": "TAF LBPD 300500Z 3006/3106 27016KT 7000 RA SCT020 OVC040"
    },
    {
      "icao": "LBSF",
      "alert": "OK",
      "vis_m": 9999,
      "fzfg": false,
      "metar_trigger": false,
      "taf_trigger": false,
      "metar": "METAR LBSF 300600Z 29007KT 9999 FEW010 BKN028 OVC070 05/03 Q0998 NOSIG",
      "taf": "TAF LBSF 300500Z 3006/3106 28010KT 9999 SCT030 BKN050"
    },
    {
      "icao": "LBWN",
      "alert": "OK",
      "vis_m": 9999,
      "fzfg": false,
      "metar_trigger": false,
      "taf_trigger": false,
      "metar": "METAR LBWN 300530Z 33010KT 270V020 9999 -RA BKN012 OVC014 05/05 Q0993 TEMPO 5000 RA",
      "taf": "TAF LBWN 300500Z 3006/3106 34014KT 7000 RA BKN010 OVC020"
    },
    {
      "icao": "LCLK",
      "alert": "OK",
      "vis_m": 9999,
      "fzfg": false,
      "metar_trigger": false,
      "taf_trigger": false,
      "metar": "METAR LCLK 300600Z 19021KT 9999 FEW035 19/14 Q1007 NOSIG",
      "taf": "TAF LCLK 300530Z 3006/3106 20022G32KT 9999 FEW030 SCT040"
    },
    {
      "icao": "LCPH",
      "alert": "OK",
      "vis_m": 4000,
      "fzfg": false,
      "metar_trigger": false,
      "taf_trigger": false,
      "metar": "METAR LCPH 300600Z 23011KT 170V240 4000 DU FEW030 18/14 Q1006 NOSIG",
      "taf": "TAF LCPH 300530Z 3006/3106 20018KT 9999 FEW030 SCT040"
    },
    {
      "icao": "LEAL",
      "alert": "OK",
      "vis_m": 9999,
      "fzfg": false,
      "metar_trigger": false,
      "taf_trigger": false,
      "metar": "METAR LEAL 300600Z 00000KT CAVOK 13/04 Q1010 NOSIG",
      "taf": "TAF LEAL 300500Z 3006/3106 27009KT CAVOK TX20/3014Z TN11/3006Z"
    },
    {
      "icao": "LEBB",
      "alert": "OK",
      "vis_m": 9999,
      "fzfg": false,
      "metar_trigger": false,
      "taf_trigger": false,
      "metar": "METAR LEBB 300600Z 11004KT 050V190 9999 FEW030 09/04 Q1005 NOSIG",
      "taf": "TAF LEBB 300500Z 3006/3106 22009KT 9999 SCT025 BKN040 TX14/3012Z TN06/3024Z"
    },
    {
      "icao": "LEBL",
      "alert": "OK",
      "vis_m": 9999,
      "fzfg": false,
      "metar_trigger": false,
      "taf_trigger": false,
      "metar": "METAR LEBL 300600Z 33016KT 9999 FEW012 11/04 Q1004 NOSIG",
      "taf": "TAF LEBL 300500Z 3006/3106 28010KT 9999 FEW050 TX16/3012Z TN09/3006Z"
    },
    {
      "icao": "LECH",
      "alert": "OK",
      "vis_m": 9999,
      "fzfg": false,
      "metar_trigger": false,
      "taf_trigger": false,
      "metar": "METAR LECH 300600Z AUTO 24007KT 200V290 CAVOK 11/M00 Q1006",
      "taf": ""
    },
    {
      "icao": "LEMD",
      "alert": "OK",
      "vis_m": 9999,
      "fzfg": false,
      "metar_trigger": false,
      "taf_trigger": false,
      "metar": "METAR LEMD 300600Z 19009KT 9999 FEW013 06/06 Q1011 NOSIG",
      "taf": ""
    },
    {
      "icao": "LEMG",
      "alert": "OK",
      "vis_m": 9999,
      "fzfg": false,
      "metar_trigger": false,
      "taf_trigger": false,
      "metar": "METAR LEMG 300600Z 27006KT 9999 FEW030 13/11 Q1014 NOSIG",
      "taf": "TAF LEMG 300500Z 3006/3106 29010KT 9999 FEW035 TX21/3015Z TN12/3006Z"
    },
    {
      "icao": "LEVC",
      "alert": "OK",
      "vis_m": 9999,
      "fzfg": false,
      "metar_trigger": false,
      "taf_trigger": false,
      "metar": "METAR LEVC 300600Z 28013KT CAVOK 13/05 Q1009 NOSIG",
      "taf": "TAF LEVC 300500Z 3006/3106 27010KT CAVOK TX18/3014Z TN12/3006Z"
    },
    {
      "icao": "LEXJ",
      "alert": "OK",
      "vis_m": 6000,
      "fzfg": false,
      "metar_trigger": false,
      "taf_trigger": false,
      "metar": "METAR LEXJ 300600Z 22007KT 190V250 6000 FEW030 11/00 Q1003",
      "taf": "TAF LEXJ 300200Z 3003/3103 22011KT 9999 SCT030 BKN040 TX16/3012Z TN08/3102Z"
    },
    {
      "icao": "LEZG",
      "alert": "OK",
      "vis_m": 9999,
      "fzfg": false,
      "metar_trigger": false,
      "taf_trigger": false,
      "metar": "METAR LEZG 300600Z VRB01KT CAVOK 05/03 Q1008 NOSIG",
      "taf": "TAF LEZG 300500Z 3006/3106 25012KT CAVOK TX14/3013Z TN08/3006Z"
    },
    {
      "icao": "LEZL",
      "alert": "OK",
      "vis_m": 8000,
      "fzfg": false,
      "metar_trigger": false,
      "taf_trigger": false,
      "metar": "METAR LEZL 300600Z 23003KT 8000 0400SW R27/P2000 R09/0750D BCFG NSC 11/11 Q1015 NOSIG",
      "taf": "TAF LEZL 300200Z 3003/3103 VRB04KT 9999 FEW030 TX18/3015Z TN10/3007Z"
    },
    {
      "icao": "LFBD",
      "alert": "OK",
      "vis_m": 9999,
      "fzfg": false,
      "metar_trigger": false,
      "taf_trigger": false,
      "metar": "METAR LFBD 300600Z AUTO 25011KT 9999 BKN033 BKN039 BKN045 09/08 Q1002 TEMPO 27015G25KT 4000 SHRA BKN015 FEW025CB BKN030TCU",
      "taf": "TAF LFBD 300500Z 3006/3112 27010KT 9999 BKN040 TX13/3011Z TN06/3106Z"
    },
    {
      "icao": "LFLL",
      "alert": "OK",
      "vis_m": 9999,
      "fzfg": false,
      "metar_trigger": false,
      "taf_trigger": false,
      "metar": "METAR LFLL 300600Z 17010KT 9999 -RA OVC033 07/04 Q0998 NOSIG",
      "taf": "TAF LFLL 300500Z 3006/3112 18010KT 9999 BKN045"
    },
    {
      "icao": "LFLS",
      "alert": "OK",
      "vis_m": 9999,
      "fzfg": false,
      "metar_trigger": false,
      "taf_trigger": false,
      "metar": "METAR LFLS 300600Z AUTO 06007KT 9999 RA FEW020 OVC033 04/03 Q0999 TEMPO 4000 RA BR BKN009",
      "taf": "TAF LFLS 300200Z 3003/3103 09005KT 9999 BKN050"
    },
    {
      "icao": "LFMN",
      "alert": "OK",
      "vis_m": 9999,
      "fzfg": false,
      "metar_trigger": false,
      "taf_trigger": false,
      "metar": "METAR LFMN 300600Z 33010KT 9999 SCT024 BKN100 07/02 Q0999 NOSIG",
      "taf": "TAF LFMN 300200Z 3003/3109 34010KT CAVOK"
    },
    {
      "icao": "LFOB",
      "alert": "OK",
      "vis_m": 4900,
      "fzfg": false,
      "metar_trigger": false,
      "taf_trigger": false,
      "metar": "METAR LFOB 300600Z AUTO 14004KT 4900 BR OVC005/// ///CB 04/04 Q0993 TEMPO RA BKN006 OVC015",
      "taf": "TAF LFOB 300500Z 3006/3106 14010KT 9999 BKN012"
    },
    {
      "icao": "LFPO",
      "alert": "OK",
      "vis_m": 5000,
      "fzfg": false,
      "metar_trigger": false,
      "taf_trigger": false,
      "metar": "METAR LFPO 300600Z VRB03KT 5000 -RA BR FEW002 OVC003 05/05 Q0994 BECMG 8000 NSW",
      "taf": "TAF LFPO 300500Z 3006/3112 19006KT 5000 BR BKN003"
    },
    {
      "icao": "LFSB",
      "alert": "OK",
      "vis_m": 6000,
      "fzfg": true,
      "metar_trigger": false,
      "taf_trigger": false,
      "metar": "METAR LFSB 300600Z AUTO 17004KT 6000 FEW008 OVC160 00/00 Q0998 TEMPO 0500 FZFG VV///",
      "taf": "TAF LFSB 300500Z 3006/3106 13005KT 7000 NSC"
    },
    {
      "icao": "LGAV",
      "alert": "OK",
      "vis_m": 9999,
      "fzfg": false,
      "metar_trigger": false,
      "taf_trigger": false,
      "metar": "METAR LGAV 300550Z 26020G31KT 9999 FEW025 13/04 Q0999 NOSIG",
      "taf": "TAF LGAV 300500Z 3006/3106 26015KT 9999 SCT020"
    },
    {
      "icao": "LGTS",
      "alert": "OK",
      "vis_m": 9999,
      "fzfg": false,
      "metar_trigger": false,
      "taf_trigger": false,
      "metar": "METAR LGTS 300550Z 29007KT 9999 FEW020 SCT050 11/07 Q0997 NOSIG",
      "taf": ""
    },
    {
      "icao": "LHBP",
      "alert": "OK",
      "vis_m": 4000,
      "fzfg": false,
      "metar_trigger": false,
      "taf_trigger": false,
      "metar": "METAR LHBP 300600Z 30005KT 4000 -RA BR SCT003 OVC021 04/04 Q1000 TEMPO 2000 DZRA BR BKN003 OVC020",
      "taf": "TAF LHBP 300515Z 3006/3106 VRB03KT 6000 -RA SCT006 OVC025"
    },
    {
      "icao": "LHDC",
      "alert": "OK",
      "vis_m": 9999,
      "fzfg": false,
      "metar_trigger": false,
      "taf_trigger": false,
      "metar": "METAR LHDC 300545Z AUTO 03009KT 9999 OVC032 03/00 Q0999 NOSIG",
      "taf": "TAF LHDC 300515Z 3006/3015 03011KT 9999 BKN030"
    },
    {
      "icao": "LIBD",
      "alert": "OK",
      "vis_m": 9999,
      "fzfg": false,
      "metar_trigger": false,
      "taf_trigger": false,
      "metar": "METAR LIBD 300550Z AUTO 24007KT 9999 NCD 04/02 Q1000",
      "taf": "TAF LIBD 300500Z 3006/3106 26010KT 9999 FEW040"
    },
    {
      "icao": "LIBG",
      "alert": "OK",
      "vis_m": null,
      "fzfg": false,
      "metar_trigger": false,
      "taf_trigger": false,
      "metar": "",
      "taf": ""
    },
    {
      "icao": "LIBP",
      "alert": "OK",
      "vis_m": 9999,
      "fzfg": false,
      "metar_trigger": false,
      "taf_trigger": false,
      "metar": "METAR LIBP 300550Z AUTO 23004KT 9999 FEW064/// 03/03 Q1001",
      "taf": "TAF LIBP 300500Z 3006/3106 VRB05KT 6000 SCT030"
    },
    {
      "icao": "LIBR",
      "alert": "OK",
      "vis_m": 9999,
      "fzfg": false,
      "metar_trigger": false,
      "taf_trigger": false,
      "metar": "METAR LIBR 300550Z 25007KT CAVOK 05/03 Q1000",
      "taf": "TAF LIBR 300500Z 3006/3106 26010KT 9999 FEW020"
    },
    {
      "icao": "LICA",
      "alert": "OK",
      "vis_m": 9999,
      "fzfg": false,
      "metar_trigger": false,
      "taf_trigger": false,
      "metar": "METAR LICA 300550Z AUTO 28007KT 9999 NCD 10/08 Q1002",
      "taf": "TAF LICA 300500Z 3006/3106 28011KT 9999 SCT025"
    },
    {
      "icao": "LICC",
      "alert": "OK",
      "vis_m": 9999,
      "fzfg": false,
      "metar_trigger": false,
      "taf_trigger": false,
      "metar": "METAR LICC 300550Z 24008KT 9999 SCT030 BKN060 11/07 Q1003",
      "taf": "TAF LICC 300500Z 3006/3106 26012KT 9999 FEW020"
    },
    {
      "icao": "LICJ",
      "alert": "OK",
      "vis_m": 8000,
      "fzfg": false,
      "metar_trigger": false,
      "taf_trigger": false,
      "metar": "METAR LICJ 300550Z 20010KT 8000 -RA SCT035 14/11 Q1002",
      "taf": "TAF LICJ 300500Z 3006/3106 20013KT 9999 FEW035"
    },
    {
      "icao": "LIMC",
      "alert": "OK",
      "vis_m": 6000,
      "fzfg": false,
      "metar_trigger": false,
      "taf_trigger": false,
      "metar": "METAR LIMC 300550Z 35004KT 6000 SCT018 04/04 Q1000 NOSIG",
      "taf": ""
    },
    {
      "icao": "LIME",
      "alert": "OK",
      "vis_m": 9999,
      "fzfg": false,
      "metar_trigger": false,
      "taf_trigger": false,
      "metar": "METAR LIME 300550Z 33005KT 9999 BKN020 04/02 Q1000 NOSIG",
      "taf": "TAF LIME 300500Z 3006/3106 VRB04KT 3000 BR SCT015"
    },
    {
      "icao": "LIMF",
      "alert": "OK",
      "vis_m": 200,
      "fzfg": false,
      "metar_trigger": false,
      "taf_trigger": false,
      "metar": "METAR LIMF 300550Z VRB02KT 0200 R36/0750N FG OVC002 00/M01 Q1000",
      "taf": "TAF LIMF 300500Z 3006/3106 VRB04KT 0200 FG BKN004"
    },
    {
      "icao": "LIMJ",
      "alert": "OK",
      "vis_m": 9999,
      "fzfg": false,
      "metar_trigger": false,
      "taf_trigger": false,
      "metar": "METAR LIMJ 300550Z 05009KT 9999 FEW035 BKN050 09/04 Q0999",
      "taf": "TAF LIMJ 300500Z 3006/3106 04010KT 9999 SCT020"
    },
    {
      "icao": "LIPE",
      "alert": "OK",
      "vis_m": 200,
      "fzfg": true,
      "metar_trigger": false,
      "taf_trigger": false,
      "metar": "METAR LIPE 300550Z 24004KT 0200 R12/0600N R30/0700D FZFG VV001 M01/M01 Q1001",
      "taf": "TAF LIPE 300500Z 3006/3106 VRB04KT 0350 FG OVC001"
    },
    {
      "icao": "LIPH",
      "alert": "OK",
      "vis_m": 4200,
      "fzfg": false,
      "metar_trigger": false,
      "taf_trigger": false,
      "metar": "METAR LIPH 300550Z AUTO VRB01KT 4200 BR BKN027/// 04/04 Q1000",
      "taf": "TAF LIPH 300500Z 3006/3106 VRB04KT 0400 FG OVC001"
    },
    {
      "icao": "LIPQ",
      "alert": "OK",
      "vis_m": 5000,
      "fzfg": false,
      "metar_trigger": false,
      "taf_trigger": false,
      "metar": "METAR LIPQ 300550Z AUTO 02002KT 5000 BR FEW045/// BKN090/// 04/04 Q1000",
      "taf": "TAF LIPQ 300500Z 3006/3106 VRB04KT 9999 SCT040"
    },
    {
      "icao": "LIPR",
      "alert": "OK",
      "vis_m": 100,
      "fzfg": false,
      "metar_trigger": false,
      "taf_trigger": false,
      "metar": "METAR LIPR 300550Z AUTO VRB02KT 0100 R30/0500N FG VV002 02/02 Q1000",
      "taf": "TAF LIPR 300500Z 3006/3106 VRB05KT 0500 FG OVC001"
    },
    {
      "icao": "LIPX",
      "alert": "OK",
      "vis_m": 100,
      "fzfg": false,
      "metar_trigger": false,
      "taf_trigger": false,
      "metar": "METAR LIPX 300550Z 31003KT 0100 R04/0600N FG VV001 02/02 Q1001",
      "taf": "TAF LIPX 300500Z 3006/3106 VRB05KT 0300 FG OVC004"
    },
    {
      "icao": "LIPY",
      "alert": "OK",
      "vis_m": 150,
      "fzfg": false,
      "metar_trigger": false,
      "taf_trigger": false,
      "metar": "METAR LIPY 300550Z AUTO 21002KT 0150 R22/0450N FG VV001 04/04 Q1000",
      "taf": "TAF LIPY 300500Z 3006/3106 VRB05KT 6000 SCT020"
    },
    {
      "icao": "LIPZ",
      "alert": "OK",
      "vis_m": 700,
      "fzfg": false,
      "metar_trigger": false,
      "taf_trigger": false,
      "metar": "METAR LIPZ 300550Z 31003KT 280V010 0700 R04R/1300D FG BKN002 04/04 Q1000 NOSIG",
      "taf": "TAF LIPZ 300500Z 3006/3112 VRB04KT 0300 FG BKN002"
    },
    {
      "icao": "LIRF",
      "alert": "OK",
      "vis_m": 9999,
      "fzfg": false,
      "metar_trigger": false,
      "taf_trigger": false,
      "metar": "METAR LIRF 300550Z 08006KT 9999 SCT045 06/05 Q1000 NOSIG",
      "taf": "TAF LIRF 300500Z 3006/3112 08010KT 9999 FEW040"
    },
    {
      "icao": "LIRN",
      "alert": "OK",
      "vis_m": 9999,
      "fzfg": false,
      "metar_trigger": false,
      "taf_trigger": false,
      "metar": "METAR LIRN 300550Z VRB02KT CAVOK 05/04 Q1001 NOSIG",
      "taf": "TAF LIRN 300500Z 3006/3106 VRB05KT 8000 SCT020"
    },
    {
      "icao": "LIRP",
      "alert": "OK",
      "vis_m": 9999,
      "fzfg": false,
      "metar_trigger": false,
      "taf_trigger": false,
      "metar": "METAR LIRP 300545Z 12005KT 9999 -RA SCT030 BKN040 07/07 Q0999 NOSIG",
      "taf": "TAF LIRP 300500Z 3006/3106 12005KT 9999 SCT030 BKN050"
    },
    {
      "icao": "LIRZ",
      "alert": "OK",
      "vis_m": 4300,
      "fzfg": false,
      "metar_trigger": false,
      "taf_trigger": false,
      "metar": "METAR LIRZ 300550Z AUTO 06002KT 4300 BR FEW045/// BKN062/// 05/05 Q1000",
      "taf": "TAF LIRZ 300500Z 3006/3106 VRB03KT 2500 BR BKN030"
    },
    {
      "icao": "LJLJ",
      "alert": "OK",
      "vis_m": 8000,
      "fzfg": false,
      "metar_trigger": false,
      "taf_trigger": false,
      "metar": "METAR LJLJ 300600Z 00000KT 8000 MIFG FEW003 BKN025 BKN065 03/02 Q1000 NOSIG",
      "taf": "TAF LJLJ 300500Z 3006/3106 VRB02KT 6000 FEW003 BKN020 BKN040"
    },
    {
      "icao": "LKMT",
      "alert": "OK",
      "vis_m": 8000,
      "fzfg": false,
      "metar_trigger": false,
      "taf_trigger": false,
      "metar": "METAR LKMT 300600Z 04010KT 8000 -SN OVC009 M00/M01 Q1001 NOSIG",
      "taf": "TAF LKMT 300500Z 3006/3106 01010KT 9999 BKN030"
    },
    {
      "icao": "LKPR",
      "alert": "OK",
      "vis_m": 700,
      "fzfg": true,
      "metar_trigger": false,
      "taf_trigger": false,
      "metar": "METAR LKPR 300600Z 34003KT 300V020 0700 R24/1100U R30/0600D FZFG VV002 M01/M01 Q1001 NOSIG",
      "taf": "TAF LKPR 300500Z 3006/3112 09003KT 0500 FZFG SCT001 OVC002"
    },
    {
      "icao": "LLBG",
      "alert": "OK",
      "vis_m": 9999,
      "fzfg": false,
      "metar_trigger": false,
      "taf_trigger": false,
      "metar": "METAR LLBG 300550Z 16008KT CAVOK 17/03 Q1013 NOSIG RMK BKN120",
      "taf": "TAF LLBG 300503Z 3006/3106 17008KT CAVOK"
    },
    {
      "icao": "LMML",
      "alert": "OK",
      "vis_m": 9999,
      "fzfg": false,
      "metar_trigger": false,
      "taf_trigger": false,
      "metar": "METAR LMML 300545Z 23007KT 9999 -RA FEW005 SCT030 BKN049 14/13 Q1004 BECMG BKN007",
      "taf": "TAF LMML 300500Z 3006/3106 26008KT 9999 FEW015"
    },
    {
      "icao": "LOWW",
      "alert": "OK",
      "vis_m": 6000,
      "fzfg": false,
      "metar_trigger": false,
      "taf_trigger": false,
      "metar": "METAR LOWW 300550Z 34004KT 6000 FEW036 BKN038 M00/M01 Q1001 TEMPO 4000 BR",
      "taf": "TAF LOWW 300515Z 3006/3112 35007KT 9999 SCT012 BKN020 TX03/3013Z TNM00/3006Z"
    },
    {
      "icao": "LPFR",
      "alert": "OK",
      "vis_m": 9999,
      "fzfg": false,
      "metar_trigger": false,
      "taf_trigger": false,
      "metar": "METAR LPFR 300600Z 33002KT 9999 FEW016 12/12 Q1016",
      "taf": "TAF LPFR 300500Z 3006/3106 26007KT 9999 SCT012"
    },
    {
      "icao": "LPMA",
      "alert": "OK",
      "vis_m": 9999,
      "fzfg": false,
      "metar_trigger": false,
      "taf_trigger": false,
      "metar": "METAR LPMA 300600Z 33005KT 9999 FEW015 16/14 Q1022",
      "taf": "TAF LPMA 300500Z 3006/3106 VRB05KT 9999 SCT015"
    },
    {
      "icao": "LPPR",
      "alert": "OK",
      "vis_m": 6000,
      "fzfg": false,
      "metar_trigger": false,
      "taf_trigger": false,
      "metar": "METAR LPPR 300600Z 19010KT 6000 -SHRA FEW010 FEW020TCU BKN038 12/11 Q1010",
      "taf": "TAF LPPR 300500Z 3006/3106 21010KT 9999 SCT025"
    },
    {
      "icao": "LPPS",
      "alert": "OK",
      "vis_m": 9999,
      "fzfg": false,
      "metar_trigger": false,
      "taf_trigger": false,
      "metar": "METAR LPPS 300600Z 28014KT 9999 SCT013 18/15 Q1021",
      "taf": "TAF LPPS 300500Z 3006/3112 27013KT 9999 SCT013"
    },
    {
      "icao": "LPPT",
      "alert": "OK",
      "vis_m": 9999,
      "fzfg": false,
      "metar_trigger": false,
      "taf_trigger": false,
      "metar": "METAR LPPT 300600Z 22010KT 9999 FEW010 13/12 Q1013",
      "taf": "TAF LPPT 300500Z 3006/3112 21005KT 9999 SCT015"
    },
    {
      "icao": "LQBK",
      "alert": "OK",
      "vis_m": 9999,
      "fzfg": false,
      "metar_trigger": false,
      "taf_trigger": false,
      "metar": "METAR LQBK 300600Z 00000KT 9999 SCT020 02/01 Q1002 NOSIG",
      "taf": "TAF LQBK 300500Z 3006/3106 33005KT CAVOK TX08/3013Z TN02/3105Z"
    },
    {
      "icao": "LQSA",
      "alert": "OK",
      "vis_m": 5000,
      "fzfg": false,
      "metar_trigger": false,
      "taf_trigger": false,
      "metar": "METAR LQSA 300600Z VRB02KT 5000 BR SCT008 OVC015 04/04 Q0999 NOSIG",
      "taf": "TAF LQSA 300500Z 3006/3106 VRB02KT 9999 SCT012 BKN030 TX07/3013Z TN01/3106Z"
    },
    {
      "icao": "LQTZ",
      "alert": "OK",
      "vis_m": 9999,
      "fzfg": false,
      "metar_trigger": false,
      "taf_trigger": false,
      "metar": "METAR LQTZ 300600Z 30004KT 9999 OVC010 05/05 Q1000",
      "taf": "TAF LQTZ 300500Z 3006/3106 27005KT 9999 FEW014 SCT040 TX09/3013Z TN02/3105Z"
    },
    {
      "icao": "LRBC",
      "alert": "OK",
      "vis_m": 9999,
      "fzfg": false,
      "metar_trigger": false,
      "taf_trigger": false,
      "metar": "METAR LRBC 300600Z AUTO 35015KT 9999 OVC008/// 01/01 Q1001",
      "taf": "TAF LRBC 300500Z 3006/3015 35014KT 9999 BKN010 OVC015"
    },
    {
      "icao": "LRBS",
      "alert": "OK",
      "vis_m": 9999,
      "fzfg": false,
      "metar_trigger": false,
      "taf_trigger": false,
      "metar": "METAR LRBS 300600Z 28005KT 9999 -RA FEW048 03/02 Q0999",
      "taf": "TAF LRBS 300500Z 3006/3106 VRB04KT 9999 BKN045"
    },
    {
      "icao": "LRBV",
      "alert": "OK",
      "vis_m": 9999,
      "fzfg": false,
      "metar_trigger": false,
      "taf_trigger": false,
      "metar": "METAR LRBV 300600Z 10006KT 9999 FEW016 SCT047 01/M01 Q0998",
      "taf": "TAF LRBV 300500Z 3006/3015 10005KT 9999 BKN045"
    },
    {
      "icao": "LRCL",
      "alert": "OK",
      "vis_m": 1000,
      "fzfg": false,
      "metar_trigger": false,
      "taf_trigger": false,
      "metar": "METAR LRCL 300600Z AUTO 09004KT 1000 R25/1700U -RA BR OVC033/// 02/01 Q0998",
      "taf": "TAF LRCL 300500Z 3006/3015 VRB04KT 0800 FG BKN002 OVC030"
    },
    {
      "icao": "LRCV",
      "alert": "OK",
      "vis_m": 5000,
      "fzfg": false,
      "metar_trigger": false,
      "taf_trigger": false,
      "metar": "METAR LRCV 300600Z 21006KT 5000 -RA BR OVC032 04/03 Q0999",
      "taf": "TAF LRCV 300500Z 3006/3015 VRB04KT 5000 BR OVC030"
    },
    {
      "icao": "LRIA",
      "alert": "OK",
      "vis_m": 7000,
      "fzfg": false,
      "metar_trigger": false,
      "taf_trigger": false,
      "metar": "METAR LRIA 300600Z 33008KT 7000 OVC004 01/00 Q1001",
      "taf": "TAF LRIA 300500Z 3006/3015 34009KT 3000 BR OVC002"
    },
    {
      "icao": "LROP",
      "alert": "OK",
      "vis_m": 7000,
      "fzfg": false,
      "metar_trigger": false,
      "taf_trigger": false,
      "metar": "METAR LROP 300600Z 27007KT 7000 NSC 03/03 Q0999 NOSIG",
      "taf": "TAF LROP 300500Z 3006/3106 VRB04KT 9999 BKN045"
    },
    {
      "icao": "LRSB",
      "alert": "OK",
      "vis_m": 4500,
      "fzfg": false,
      "metar_trigger": false,
      "taf_trigger": false,
      "metar": "METAR LRSB 300600Z 11004KT 4500 BR SCT007 BKN045 02/02 Q0998",
      "taf": "TAF LRSB 300500Z 3006/3106 VRB04KT 5000 BR BKN040"
    },
    {
      "icao": "LRSM",
      "alert": "OK",
      "vis_m": 9999,
      "fzfg": false,
      "metar_trigger": false,
      "taf_trigger": false,
      "metar": "METAR LRSM 300600Z 00000KT 9999 OVC030 03/02 Q0999",
      "taf": "TAF LRSM 300500Z 3006/3015 VRB04KT 9999 BKN040"
    },
    {
      "icao": "LRSV",
      "alert": "OK",
      "vis_m": 4000,
      "fzfg": false,
      "metar_trigger": false,
      "taf_trigger": false,
      "metar": "METAR LRSV 300600Z 36009KT 4000 -SN BR BKN003 M01/M01 Q1001",
      "taf": "TAF LRSV 300500Z 3006/3015 35010KT 5000 -SN BR BKN005 BKN015"
    },
    {
      "icao": "LRTM",
      "alert": "OK",
      "vis_m": 2000,
      "fzfg": false,
      "metar_trigger": false,
      "taf_trigger": false,
      "metar": "METAR LRTM 300600Z 09003KT 2000 BR FEW001 SCT005 BKN040 01/01 Q0998",
      "taf": "TAF LRTM 300500Z 3006/3015 VRB04KT 1500 BR SCT005 OVC045"
    },
    {
      "icao": "LRTR",
      "alert": "OK",
      "vis_m": 600,
      "fzfg": false,
      "metar_trigger": false,
      "taf_trigger": false,
      "metar": "METAR LRTR 300600Z 25005KT 0600 R29/P2000 -DZ BCFG SCT001 OVC003 05/05 Q0999 TEMPO 0800 BCFG",
      "taf": "TAF LRTR 300500Z 3006/3106 23006KT 0800 -DZ FG VV002"
    },
    {
      "icao": "LTAC",
      "alert": "OK",
      "vis_m": 9999,
      "fzfg": false,
      "metar_trigger": false,
      "taf_trigger": false,
      "metar": "METAR LTAC 300550Z 21010G20KT 170V230 9999 -SHRA BKN025 BKN080 07/05 Q1001 NOSIG RMK RWY21C 20013KT RWY03L 21011KT RWY21R 19016KT RWY03R 20010KT RWY21L 20012KT",
      "taf": "TAF LTAC 300440Z 3006/3106 19013KT 9999 SCT040 BKN100"
    },
    {
      "icao": "LTFM",
      "alert": "OK",
      "vis_m": 9999,
      "fzfg": false,
      "metar_trigger": false,
      "taf_trigger": false,
      "metar": "METAR LTFM 300550Z 20013KT 9999 BKN035 BKN090 11/09 Q0993 NOSIG RMK RWY17L 19017KT RWY34L 18013KT RWY16R 19014KT RWY36 20014KT RWY18 20017KT",
      "taf": "TAF LTFM 300440Z 3006/3112 20012KT 9999 -SHRA BKN035 BKN080"
    },
    {
      "icao": "LUKK",
      "alert": "OK",
      "vis_m": 9999,
      "fzfg": false,
      "metar_trigger": false,
      "taf_trigger": false,
      "metar": "METAR LUKK 300600Z 01011KT 9999 -RA OVC005 01/01 Q0999 NOSIG",
      "taf": "TAF LUKK 300526Z 3006/3106 35012KT 5000 -RA OVC004"
    },
    {
      "icao": "LWOH",
      "alert": "OK",
      "vis_m": null,
      "fzfg": false,
      "metar_trigger": false,
      "taf_trigger": false,
      "metar": "",
      "taf": "TAF LWOH 292320Z 3000/3024 VRB02KT 9999 -RA SCT015 OVC035"
    },
    {
      "icao": "LWSK",
      "alert": "OK",
      "vis_m": 9999,
      "fzfg": false,
      "metar_trigger": false,
      "taf_trigger": false,
      "metar": "METAR LWSK 300550Z VRB01KT 9999 SCT045 OVC070 06/04 Q0999 NOSIG",
      "taf": "TAF LWSK 292320Z 3000/3024 VRB02KT 7000 -RA SCT010 OVC040"
    },
    {
      "icao": "LYBE",
      "alert": "OK",
      "vis_m": 5000,
      "fzfg": false,
      "metar_trigger": false,
      "taf_trigger": false,
      "metar": "METAR LYBE 300600Z 28009KT 5000 BR BKN003 05/05 Q1000 NOSIG",
      "taf": "TAF LYBE 300500Z 3006/3106 27010KT 4000 BR BKN002 BKN022 TX07/3013Z TN03/3106Z"
    },
    {
      "icao": "LYNI",
      "alert": "OK",
      "vis_m": 7000,
      "fzfg": false,
      "metar_trigger": false,
      "taf_trigger": false,
      "metar": "METAR LYNI 300600Z VRB02KT 7000 OVC006 06/06 Q1000 TEMPO 4000 BR",
      "taf": "TAF LYNI 300500Z 3006/3106 33006KT 8000 BKN010 BKN020 TX07/3013Z TN04/3006Z"
    },
    {
      "icao": "LYPG",
      "alert": "OK",
      "vis_m": 600,
      "fzfg": false,
      "metar_trigger": false,
      "taf_trigger": false,
      "metar": "METAR LYPG 300600Z 05001KT 0600 R18/1500U R36/0900U -RA FG SCT010 SCT040 BKN050 08/08 Q1000 BECMG FM0700 1500 BR",
      "taf": "TAF LYPG 300500Z 3006/3106 36005KT 6000 FEW010 SCT040 BKN070 TX11/3013Z TN05/3106Z"
    },
    {
      "icao": "LZIB",
      "alert": "OK",
      "vis_m": 9999,
      "fzfg": false,
      "metar_trigger": false,
      "taf_trigger": false,
      "metar": "METAR LZIB 300600Z 21004KT 9999 -RA FEW016 01/00 Q1000 NOSIG",
      "taf": "TAF LZIB 300516Z 3006/3106 23006KT 9999 SCT007 BKN040"
    },
    {
      "icao": "LZKZ",
      "alert": "OK",
      "vis_m": 9999,
      "fzfg": false,
      "metar_trigger": false,
      "taf_trigger": false,
      "metar": "METAR LZKZ 300600Z 36017KT 9999 FEW015 02/M02 Q1000 NOSIG",
      "taf": "TAF LZKZ 300516Z 3006/3106 03015KT 9999 BKN040"
    },
    {
      "icao": "LZTT",
      "alert": "OK",
      "vis_m": 9999,
      "fzfg": false,
      "metar_trigger": false,
      "taf_trigger": false,
      "metar": "METAR LZTT 300600Z 05007KT 9999 SCT002 OVC005 M03/M04 Q0999 NOSIG",
      "taf": "TAF LZTT 300516Z 3006/3106 06009KT 9999 SCT002 BKN009"
    },
    {
      "icao": "OEJN",
      "alert": "OK",
      "vis_m": 9999,
      "fzfg": false,
      "metar_trigger": false,
      "taf_trigger": false,
      "metar": "METAR OEJN 300600Z 01007KT CAVOK 24/10 Q1015 NOSIG",
      "taf": "TAF OEJN 300500Z 3006/3112 33012KT CAVOK"
    },
    {
      "icao": "OEMA",
      "alert": "OK",
      "vis_m": 9999,
      "fzfg": false,
      "metar_trigger": false,
      "taf_trigger": false,
      "metar": "METAR OEMA 300600Z 05004KT CAVOK 17/M08 Q1021 NOSIG",
      "taf": "TAF OEMA 300500Z 3006/3112 09010KT CAVOK"
    },
    {
      "icao": "OJAI",
      "alert": "OK",
      "vis_m": 4000,
      "fzfg": false,
      "metar_trigger": false,
      "taf_trigger": false,
      "metar": "METAR OJAI 300500Z 08002KT 4000 HZ NSC 07/02 Q1015 NOSIG",
      "taf": "TAF OJAI 300500Z 3006/3112 23006KT 5000 HZ NSC"
    },
    {
      "icao": "OMAA",
      "alert": "OK",
      "vis_m": 9999,
      "fzfg": false,
      "metar_trigger": false,
      "taf_trigger": false,
      "metar": "METAR OMAA 300600Z 26005KT 180V300 9999 FEW025 21/14 Q1019 NOSIG",
      "taf": "TAF OMAA 300500Z 3006/3112 30012KT 8000 FEW045"
    },
    {
      "icao": "OMDB",
      "alert": "OK",
      "vis_m": 9999,
      "fzfg": false,
      "metar_trigger": false,
      "taf_trigger": false,
      "metar": "METAR OMDB 300600Z 22005KT 180V240 CAVOK 21/11 Q1019 NOSIG",
      "taf": "TAF OMDB 300500Z 3006/3112 27013KT 8000 NSC"
    },
    {
      "icao": "UAAA",
      "alert": "OK",
      "vis_m": 4400,
      "fzfg": false,
      "metar_trigger": false,
      "taf_trigger": false,
      "metar": "METAR UAAA 300600Z 02002MPS 350V060 4400 BR OVC010 M02/M05 Q1021 NOSIG",
      "taf": "TAF UAAA 300509Z 3006/3106 01003MPS 3100 BR FU BKN011 OVC015 TXM00/3010Z TNM06/3102Z"
    },
    {
      "icao": "UBBB",
      "alert": "OK",
      "vis_m": 7000,
      "fzfg": false,
      "metar_trigger": false,
      "taf_trigger": false,
      "metar": "METAR UBBB 300600Z 20015KT 7000 BKN011 08/06 Q1011 NOSIG",
      "taf": "TAF UBBB 300502Z 3006/3106 17012KT 8000 BKN009 BKN030 TX09/3010Z TN04/3101Z"
    },
    {
      "icao": "UDSG",
      "alert": "CRITICAL",
      "vis_m": 100,
      "fzfg": true,
      "metar_trigger": true,
      "taf_trigger": false,
      "metar": "METAR UDSG 300600Z 09002KT 0100 R02/0225N FZFG VV002 M14/M15 Q1017 NOSIG",
      "taf": "TAF UDSG 300458Z 3006/3106 VRB06KT 1000 BR OVC010"
    },
    {
      "icao": "UDYZ",
      "alert": "OK",
      "vis_m": 3600,
      "fzfg": false,
      "metar_trigger": false,
      "taf_trigger": false,
      "metar": "METAR UDYZ 300600Z 01004KT 3600 BR BKN011 M03/M05 Q1019 NOSIG",
      "taf": "TAF UDYZ 300500Z 3006/3106 20006KT 3000 BR BKN010"
    },
    {
      "icao": "UGKO",
      "alert": "OK",
      "vis_m": 9999,
      "fzfg": false,
      "metar_trigger": false,
      "taf_trigger": false,
      "metar": "METAR UGKO 300600Z 08014KT CAVOK 09/M02 Q1007 NOSIG",
      "taf": "TAF UGKO 300500Z 3006/3106 09010KT CAVOK TX18/3011Z TN07/3106Z"
    }
  ]
}