{
  "ts_utc": "2026-02-26T21:28:03Z",
  "threshold_m": 150,
  "source": "stations_override.txt (ICAO list) + aviationweather.gov (METAR/TAF raw)",
  "station_count": 159,
  "stations": [
    {
      "icao": "BIKF",
      "alert": "OK",
      "vis_m": 9999,
      "fzfg": false,
      "metar_trigger": false,
      "taf_trigger": false,
      "metar": "METAR BIKF 262100Z 29026KT 9999 -SN SCT013 BKN027 M05/M10 Q0981",
      "taf": "TAF BIKF 261926Z 2621/2721 31025G40KT 9999 -SHSN SCT015 BKN025 TX00/2716Z TNM04/2621Z"
    },
    {
      "icao": "BKPR",
      "alert": "OK",
      "vis_m": 9999,
      "fzfg": false,
      "metar_trigger": false,
      "taf_trigger": false,
      "metar": "METAR BKPR 262100Z 33002KT CAVOK 02/M01 Q1028 NOSIG",
      "taf": "TAF BKPR 261730Z 2618/2718 VRB05KT CAVOK"
    },
    {
      "icao": "EBCI",
      "alert": "OK",
      "vis_m": 9999,
      "fzfg": false,
      "metar_trigger": false,
      "taf_trigger": false,
      "metar": "METAR EBCI 262120Z 20012KT CAVOK 13/09 Q1019 NOSIG",
      "taf": "TAF EBCI 261710Z 2618/2724 20010KT CAVOK"
    },
    {
      "icao": "EDDB",
      "alert": "OK",
      "vis_m": 9999,
      "fzfg": false,
      "metar_trigger": false,
      "taf_trigger": false,
      "metar": "METAR EDDB 262120Z AUTO 21007KT CAVOK 09/07 Q1019 NOSIG",
      "taf": "TAF EDDB 261700Z 2618/2718 19006KT CAVOK"
    },
    {
      "icao": "EDDH",
      "alert": "OK",
      "vis_m": 9999,
      "fzfg": false,
      "metar_trigger": false,
      "taf_trigger": false,
      "metar": "METAR EDDH 262120Z AUTO 17006KT CAVOK 11/09 Q1016 NOSIG",
      "taf": "TAF EDDH 261700Z 2618/2724 21007KT 9999 SCT030"
    },
    {
      "icao": "EDDK",
      "alert": "OK",
      "vis_m": 9999,
      "fzfg": false,
      "metar_trigger": false,
      "taf_trigger": false,
      "metar": "METAR EDDK 262120Z AUTO 16007KT CAVOK 11/08 Q1020 NOSIG",
      "taf": "TAF EDDK 261700Z 2618/2724 14006KT CAVOK"
    },
    {
      "icao": "EDDN",
      "alert": "OK",
      "vis_m": 3700,
      "fzfg": false,
      "metar_trigger": false,
      "taf_trigger": false,
      "metar": "METAR EDDN 262120Z AUTO 12007KT 3700 BR NCD 05/04 Q1024",
      "taf": ""
    },
    {
      "icao": "EDDS",
      "alert": "OK",
      "vis_m": 9999,
      "fzfg": false,
      "metar_trigger": false,
      "taf_trigger": false,
      "metar": "METAR EDDS 262120Z AUTO VRB01KT CAVOK 08/06 Q1023",
      "taf": "TAF EDDS 261700Z 2618/2718 VRB03KT CAVOK"
    },
    {
      "icao": "EDFH",
      "alert": "OK",
      "vis_m": 9999,
      "fzfg": false,
      "metar_trigger": false,
      "taf_trigger": false,
      "metar": "METAR EDFH 262120Z 22009KT CAVOK 12/09 Q1022",
      "taf": "TAF EDFH 261700Z 2618/2718 21007KT CAVOK"
    },
    {
      "icao": "EDJA",
      "alert": "OK",
      "vis_m": 9999,
      "fzfg": false,
      "metar_trigger": false,
      "taf_trigger": false,
      "metar": "METAR EDJA 262120Z 16004KT CAVOK 06/02 Q1025",
      "taf": "TAF EDJA 261700Z 2618/2703 20005KT CAVOK"
    },
    {
      "icao": "EDLW",
      "alert": "OK",
      "vis_m": 9999,
      "fzfg": false,
      "metar_trigger": false,
      "taf_trigger": false,
      "metar": "METAR EDLW 262120Z 19012KT CAVOK 13/09 Q1018",
      "taf": "TAF EDLW 261700Z 2618/2718 20011KT CAVOK"
    },
    {
      "icao": "EDNY",
      "alert": "OK",
      "vis_m": 9999,
      "fzfg": false,
      "metar_trigger": false,
      "taf_trigger": false,
      "metar": "METAR EDNY 262120Z AUTO 08002KT 9999 // NCD 05/04 Q1025",
      "taf": "TAF EDNY 261700Z 2618/2703 VRB01KT CAVOK"
    },
    {
      "icao": "EDSB",
      "alert": "OK",
      "vis_m": 9999,
      "fzfg": false,
      "metar_trigger": false,
      "taf_trigger": false,
      "metar": "METAR EDSB 262120Z 19003KT 9999 BCFG FEW003 08/08 Q1023",
      "taf": "TAF EDSB 261700Z 2618/2718 VRB03KT CAVOK"
    },
    {
      "icao": "EETN",
      "alert": "OK",
      "vis_m": 9999,
      "fzfg": false,
      "metar_trigger": false,
      "taf_trigger": false,
      "metar": "METAR EETN 262120Z 21018G28KT 9999 OVC018 01/M03 Q1011 BECMG OVC010",
      "taf": ""
    },
    {
      "icao": "EFTU",
      "alert": "OK",
      "vis_m": 6000,
      "fzfg": false,
      "metar_trigger": false,
      "taf_trigger": false,
      "metar": "METAR EFTU 262120Z AUTO 23013KT 6000 DZRA OVC003 03/03 Q1004 REDZ",
      "taf": ""
    },
    {
      "icao": "EGBB",
      "alert": "OK",
      "vis_m": 9999,
      "fzfg": false,
      "metar_trigger": false,
      "taf_trigger": false,
      "metar": "METAR EGBB 262120Z 21008KT 180V240 9999 -RA BKN007 10/09 Q1010",
      "taf": "TAF EGBB 261655Z 2618/2718 21012KT 9999 SCT015"
    },
    {
      "icao": "EGGP",
      "alert": "OK",
      "vis_m": 9999,
      "fzfg": false,
      "metar_trigger": false,
      "taf_trigger": false,
      "metar": "METAR EGGP 262120Z 20006KT 9999 FEW040 10/08 Q1007",
      "taf": "TAF EGGP 261658Z 2618/2718 22018G32KT 9999 SCT030"
    },
    {
      "icao": "EGGW",
      "alert": "OK",
      "vis_m": 9999,
      "fzfg": false,
      "metar_trigger": false,
      "taf_trigger": false,
      "metar": "METAR EGGW 262120Z AUTO 21013KT 9999 BKN013 10/08 Q1012",
      "taf": ""
    },
    {
      "icao": "EGKK",
      "alert": "OK",
      "vis_m": 9999,
      "fzfg": false,
      "metar_trigger": false,
      "taf_trigger": false,
      "metar": "METAR EGKK 262120Z 22010KT 180V240 9999 FEW015 11/09 Q1014",
      "taf": "TAF EGKK 261703Z 2618/2724 22012KT 9999 BKN018"
    },
    {
      "icao": "EGNM",
      "alert": "OK",
      "vis_m": 9999,
      "fzfg": false,
      "metar_trigger": false,
      "taf_trigger": false,
      "metar": "METAR EGNM 262120Z 23011KT 9999 BKN014 10/08 Q1006",
      "taf": "TAF EGNM 261658Z 2618/2718 22018G30KT 9999 BKN020"
    },
    {
      "icao": "EGPD",
      "alert": "OK",
      "vis_m": 9999,
      "fzfg": false,
      "metar_trigger": false,
      "taf_trigger": false,
      "metar": "METAR EGPD 262120Z COR AUTO 24013G23KT 9999 NCD 09/03 Q0997 NOSIG",
      "taf": "TAF EGPD 261656Z 2618/2718 21015G25KT 9999 SCT025"
    },
    {
      "icao": "EGPF",
      "alert": "OK",
      "vis_m": 9999,
      "fzfg": false,
      "metar_trigger": false,
      "taf_trigger": false,
      "metar": "METAR EGPF 262120Z AUTO 25008KT 9999 NCD 08/05 Q1002",
      "taf": ""
    },
    {
      "icao": "EHBK",
      "alert": "OK",
      "vis_m": 9999,
      "fzfg": false,
      "metar_trigger": false,
      "taf_trigger": false,
      "metar": "METAR EHBK 262055Z AUTO 19011KT 9999 NSC 13/10 Q1019 NOSIG",
      "taf": "TAF EHBK 261712Z 2618/2724 21011KT CAVOK"
    },
    {
      "icao": "EHEH",
      "alert": "OK",
      "vis_m": 9999,
      "fzfg": false,
      "metar_trigger": false,
      "taf_trigger": false,
      "metar": "METAR EHEH 262055Z AUTO 30003KT 9999 BKN270 OVC340 11/09 Q1018 BLU NOSIG RMK TREND REMOTE BY EHWX",
      "taf": "TAF EHEH 261804Z 2618/2724 22013KT CAVOK"
    },
    {
      "icao": "EKBI",
      "alert": "OK",
      "vis_m": 7000,
      "fzfg": false,
      "metar_trigger": false,
      "taf_trigger": false,
      "metar": "METAR EKBI 262120Z AUTO 21009KT 7000 -RA FEW009/// FEW032/// OVC052/// 07/07 Q1012",
      "taf": "TAF EKBI 262027Z 2621/2721 20012KT 7000 BKN006"
    },
    {
      "icao": "EKCH",
      "alert": "OK",
      "vis_m": 5000,
      "fzfg": false,
      "metar_trigger": false,
      "taf_trigger": false,
      "metar": "METAR EKCH 262120Z AUTO 19010KT 5000 FEW033/// BKN110/// 06/05 Q1015 TEMPO 3000 BR",
      "taf": "TAF EKCH 262027Z 2621/2721 21010KT 8000 SCT008 BKN015"
    },
    {
      "icao": "ENAL",
      "alert": "OK",
      "vis_m": 9999,
      "fzfg": false,
      "metar_trigger": false,
      "taf_trigger": false,
      "metar": "METAR ENAL 262120Z AUTO 11003KT 080V150 9999 BKN044/// OVC054/// 06/04 Q0992",
      "taf": "TAF ENAL 262000Z 2621/2706 17009KT 9999 -RA FEW020 BKN030"
    },
    {
      "icao": "ENBR",
      "alert": "OK",
      "vis_m": 7000,
      "fzfg": false,
      "metar_trigger": false,
      "taf_trigger": false,
      "metar": "METAR ENBR 262120Z 18019KT 7000 RADZ OVC005 06/06 Q0996 RMK WIND 1200FT 20026KT",
      "taf": "TAF ENBR 261700Z 2618/2718 16018KT 8000 -DZRA SCT003 BKN006"
    },
    {
      "icao": "ENGM",
      "alert": "OK",
      "vis_m": 5000,
      "fzfg": false,
      "metar_trigger": false,
      "taf_trigger": false,
      "metar": "METAR ENGM 262120Z 21004KT 5000 1300W -RA PRFG OVC002 01/01 Q1002 TEMPO 0800 FG",
      "taf": "TAF ENGM 261700Z 2618/2718 19008KT 0500 FG OVC002"
    },
    {
      "icao": "ENHD",
      "alert": "OK",
      "vis_m": 7000,
      "fzfg": false,
      "metar_trigger": false,
      "taf_trigger": false,
      "metar": "METAR ENHD 262120Z 18018KT 7000 SCT003 OVC006 07/07 Q0998",
      "taf": "TAF ENHD 261400Z 2615/2623 18015KT 7000 -DZRA SCT004 BKN006"
    },
    {
      "icao": "ENTC",
      "alert": "OK",
      "vis_m": 9999,
      "fzfg": false,
      "metar_trigger": false,
      "taf_trigger": false,
      "metar": "METAR ENTC 262120Z 13003KT 100V160 CAVOK M06/M11 Q0999 NOSIG RMK WIND 2600FT 18025KT",
      "taf": "TAF ENTC 261700Z 2618/2718 18009KT CAVOK"
    },
    {
      "icao": "ENTO",
      "alert": "OK",
      "vis_m": 350,
      "fzfg": false,
      "metar_trigger": false,
      "taf_trigger": false,
      "metar": "METAR ENTO 262120Z AUTO 20013KT 0350 R18/1300D R36/1100D FG VV002 03/03 Q1004 REDZRA",
      "taf": "TAF ENTO 261700Z 2618/2718 17008KT 0300 FG VV002"
    },
    {
      "icao": "ENVA",
      "alert": "OK",
      "vis_m": 9999,
      "fzfg": false,
      "metar_trigger": false,
      "taf_trigger": false,
      "metar": "METAR ENVA 262120Z 00000KT CAVOK 02/01 Q0996 RMK WIND 670FT 09008KT",
      "taf": "TAF ENVA 261700Z 2618/2718 09005KT 9999 FEW030 BKN040"
    },
    {
      "icao": "ENZV",
      "alert": "OK",
      "vis_m": 5000,
      "fzfg": false,
      "metar_trigger": false,
      "taf_trigger": false,
      "metar": "METAR ENZV 262120Z 19015KT 5000 -SHRA OVC004 07/07 Q1000 REDZ",
      "taf": "TAF ENZV 261700Z 2618/2718 17015KT 8000 SCT004 BKN006"
    },
    {
      "icao": "EPGD",
      "alert": "OK",
      "vis_m": 9999,
      "fzfg": false,
      "metar_trigger": false,
      "taf_trigger": false,
      "metar": "METAR EPGD 262100Z 21007KT CAVOK 04/M01 Q1020",
      "taf": "TAF EPGD 261730Z 2618/2718 18010KT CAVOK"
    },
    {
      "icao": "EPKK",
      "alert": "OK",
      "vis_m": 9999,
      "fzfg": false,
      "metar_trigger": false,
      "taf_trigger": false,
      "metar": "METAR EPKK 262100Z VRB01KT CAVOK M00/M03 Q1025",
      "taf": "TAF EPKK 262030Z 2621/2721 VRB02KT CAVOK"
    },
    {
      "icao": "EPKT",
      "alert": "OK",
      "vis_m": 9999,
      "fzfg": false,
      "metar_trigger": false,
      "taf_trigger": false,
      "metar": "METAR EPKT 262100Z 20009KT CAVOK 05/M00 Q1024",
      "taf": "TAF EPKT 261730Z 2618/2718 17006KT CAVOK"
    },
    {
      "icao": "EPLB",
      "alert": "OK",
      "vis_m": 9999,
      "fzfg": false,
      "metar_trigger": false,
      "taf_trigger": false,
      "metar": "METAR EPLB 262100Z 13005KT CAVOK M01/M02 Q1027",
      "taf": "TAF EPLB 261730Z 2618/2718 14005KT CAVOK"
    },
    {
      "icao": "EPMO",
      "alert": "OK",
      "vis_m": 9999,
      "fzfg": false,
      "metar_trigger": false,
      "taf_trigger": false,
      "metar": "METAR EPMO 262100Z 14007KT CAVOK 01/M03 Q1025",
      "taf": "TAF EPMO 261730Z 2618/2718 13005KT CAVOK"
    },
    {
      "icao": "EPPO",
      "alert": "OK",
      "vis_m": 9000,
      "fzfg": false,
      "metar_trigger": false,
      "taf_trigger": false,
      "metar": "METAR EPPO 262100Z 17003KT 9000 NSC 04/02 Q1021",
      "taf": "TAF EPPO 261730Z 2618/2718 15005KT CAVOK"
    },
    {
      "icao": "EPRA",
      "alert": "OK",
      "vis_m": 9999,
      "fzfg": false,
      "metar_trigger": false,
      "taf_trigger": false,
      "metar": "METAR EPRA 262100Z 16007KT CAVOK 00/M03 Q1025",
      "taf": "TAF EPRA 262030Z 2621/2706 16006KT CAVOK"
    },
    {
      "icao": "EPRZ",
      "alert": "OK",
      "vis_m": 9999,
      "fzfg": false,
      "metar_trigger": false,
      "taf_trigger": false,
      "metar": "METAR EPRZ 262100Z 08005KT CAVOK 00/M02 Q1026",
      "taf": "TAF EPRZ 261730Z 2618/2718 09006KT CAVOK"
    },
    {
      "icao": "EPSC",
      "alert": "OK",
      "vis_m": 9999,
      "fzfg": false,
      "metar_trigger": false,
      "taf_trigger": false,
      "metar": "METAR EPSC 262100Z 13007KT CAVOK 06/04 Q1019",
      "taf": "TAF EPSC 261730Z 2618/2718 15006KT CAVOK"
    },
    {
      "icao": "EPSY",
      "alert": "OK",
      "vis_m": 9999,
      "fzfg": false,
      "metar_trigger": false,
      "taf_trigger": false,
      "metar": "METAR EPSY 262100Z 16007KT CAVOK 00/M03 Q1023",
      "taf": "TAF EPSY 262030Z 2621/2706 17008KT CAVOK"
    },
    {
      "icao": "EPWA",
      "alert": "OK",
      "vis_m": 9999,
      "fzfg": false,
      "metar_trigger": false,
      "taf_trigger": false,
      "metar": "METAR EPWA 262100Z 14008KT CAVOK M00/M03 Q1025 NOSIG",
      "taf": "TAF EPWA 262030Z 2621/2721 14008KT CAVOK"
    },
    {
      "icao": "EPWR",
      "alert": "OK",
      "vis_m": 9999,
      "fzfg": false,
      "metar_trigger": false,
      "taf_trigger": false,
      "metar": "METAR EPWR 262100Z 15003KT CAVOK 03/02 Q1022",
      "taf": "TAF EPWR 262030Z 2621/2721 VRB02KT CAVOK"
    },
    {
      "icao": "ESGG",
      "alert": "OK",
      "vis_m": 2000,
      "fzfg": false,
      "metar_trigger": false,
      "taf_trigger": false,
      "metar": "METAR ESGG 262120Z 21014KT 2000 -RA OVC003 05/05 Q1009",
      "taf": "TAF ESGG 262030Z 2621/2721 20014KT 0200 FG VV002"
    },
    {
      "icao": "ESKN",
      "alert": "OK",
      "vis_m": 9999,
      "fzfg": false,
      "metar_trigger": false,
      "taf_trigger": false,
      "metar": "METAR ESKN 262120Z 23010KT 9999 OVC011 06/06 Q1008",
      "taf": ""
    },
    {
      "icao": "ESMS",
      "alert": "OK",
      "vis_m": 3500,
      "fzfg": false,
      "metar_trigger": false,
      "taf_trigger": false,
      "metar": "METAR ESMS 262120Z 20007KT 3500 BR SCT023 BKN029 07/07 Q1015",
      "taf": "TAF ESMS 262027Z 2621/2721 20012KT 8000 BKN015"
    },
    {
      "icao": "ESSA",
      "alert": "OK",
      "vis_m": 6000,
      "fzfg": false,
      "metar_trigger": false,
      "taf_trigger": false,
      "metar": "METAR ESSA 262120Z 23012KT 6000 BKN005 05/05 Q1005 REDZ TEMPO 4000 BR BKN004",
      "taf": "TAF ESSA 262030Z 2621/2721 24012KT 9999 BKN008"
    },
    {
      "icao": "EYKA",
      "alert": "OK",
      "vis_m": 9999,
      "fzfg": false,
      "metar_trigger": false,
      "taf_trigger": false,
      "metar": "METAR EYKA 262120Z 18008KT 130V240 CAVOK M01/M05 Q1023",
      "taf": "TAF EYKA 261700Z 2618/2718 18010KT 9000 NSC"
    },
    {
      "icao": "EYPA",
      "alert": "OK",
      "vis_m": 9999,
      "fzfg": false,
      "metar_trigger": false,
      "taf_trigger": false,
      "metar": "METAR EYPA 262120Z 18017KT 9999 SCT029 02/M03 Q1019",
      "taf": ""
    },
    {
      "icao": "EYVI",
      "alert": "OK",
      "vis_m": 9999,
      "fzfg": false,
      "metar_trigger": false,
      "taf_trigger": false,
      "metar": "METAR EYVI 262120Z 18015KT CAVOK M03/M05 Q1025 NOSIG",
      "taf": "TAF EYVI 261700Z 2618/2718 18012KT 9000 NSC"
    },
    {
      "icao": "GCFV",
      "alert": "OK",
      "vis_m": 9999,
      "fzfg": false,
      "metar_trigger": false,
      "taf_trigger": false,
      "metar": "METAR GCFV 262100Z 34023G33KT 9999 FEW015 FEW025CB SCT035 18/13 Q1013",
      "taf": ""
    },
    {
      "icao": "GCLP",
      "alert": "OK",
      "vis_m": 9999,
      "fzfg": false,
      "metar_trigger": false,
      "taf_trigger": false,
      "metar": "METAR GCLP 262100Z 36023G33KT 9999 SCT030 18/14 Q1017 NOSIG",
      "taf": "TAF GCLP 262000Z 2621/2721 36020KT 9999 SCT020 TX22/2714Z TN16/2706Z"
    },
    {
      "icao": "GCTS",
      "alert": "OK",
      "vis_m": 9999,
      "fzfg": false,
      "metar_trigger": false,
      "taf_trigger": false,
      "metar": "METAR GCTS 262100Z 28008KT 9999 FEW060 SCT100 18/10 Q1018 NOSIG",
      "taf": "TAF GCTS 262000Z 2621/2721 30005KT 9999 FEW035 TX27/2714Z TN16/2706Z"
    },
    {
      "icao": "GMAD",
      "alert": "OK",
      "vis_m": 2000,
      "fzfg": false,
      "metar_trigger": false,
      "taf_trigger": false,
      "metar": "METAR GMAD 262100Z 12017KT 2000 DU NSC 22/04 Q1017 NOSIG",
      "taf": "TAF GMAD 261700Z 2618/2724 10020G36KT 2000 DU NSC"
    },
    {
      "icao": "GMMN",
      "alert": "OK",
      "vis_m": 8000,
      "fzfg": false,
      "metar_trigger": false,
      "taf_trigger": false,
      "metar": "METAR GMMN 262100Z 06004KT 8000 NSC 15/12 Q1020 NOSIG",
      "taf": "TAF GMMN 261700Z 2618/2724 36010KT CAVOK"
    },
    {
      "icao": "GMMX",
      "alert": "OK",
      "vis_m": 8000,
      "fzfg": false,
      "metar_trigger": false,
      "taf_trigger": false,
      "metar": "METAR GMMX 262100Z 07010KT 8000 SCT080 BKN200 19/04 Q1019 NOSIG",
      "taf": "TAF GMMX 261700Z 2618/2724 06006KT 8000 SCT026 SCT090"
    },
    {
      "icao": "HEGN",
      "alert": "OK",
      "vis_m": 9999,
      "fzfg": false,
      "metar_trigger": false,
      "taf_trigger": false,
      "metar": "METAR HEGN 262100Z 30015KT CAVOK 18/07 Q1016 NOSIG",
      "taf": "TAF HEGN 261700Z 2618/2724 32015KT CAVOK"
    },
    {
      "icao": "HEMA",
      "alert": "OK",
      "vis_m": 9999,
      "fzfg": false,
      "metar_trigger": false,
      "taf_trigger": false,
      "metar": "METAR HEMA 262100Z 31015KT CAVOK 19/11 Q1015 NOSIG",
      "taf": "TAF HEMA 261700Z 2618/2724 33015KT CAVOK"
    },
    {
      "icao": "HESH",
      "alert": "OK",
      "vis_m": 9999,
      "fzfg": false,
      "metar_trigger": false,
      "taf_trigger": false,
      "metar": "METAR HESH 262100Z 36012KT CAVOK 20/09 Q1015 NOSIG",
      "taf": "TAF HESH 261700Z 2618/2724 30010KT CAVOK"
    },
    {
      "icao": "HESX",
      "alert": "OK",
      "vis_m": 9999,
      "fzfg": false,
      "metar_trigger": false,
      "taf_trigger": false,
      "metar": "METAR HESX 262100Z 34008KT CAVOK 11/04 Q1020 NOSIG",
      "taf": "TAF HESX 261700Z 2618/2724 33015KT 9999 FEW020"
    },
    {
      "icao": "LATI",
      "alert": "OK",
      "vis_m": 9999,
      "fzfg": false,
      "metar_trigger": false,
      "taf_trigger": false,
      "metar": "METAR LATI 262120Z 16004KT CAVOK 06/02 Q1026 NOSIG",
      "taf": "TAF LATI 261700Z 2618/2718 VRB05KT CAVOK TX17/2712Z TN03/2705Z"
    },
    {
      "icao": "LBPD",
      "alert": "OK",
      "vis_m": 9999,
      "fzfg": false,
      "metar_trigger": false,
      "taf_trigger": false,
      "metar": "METAR LBPD 262100Z AUTO 07005KT 9999 BKN052/// 02/00 Q1030",
      "taf": "TAF LBPD 261700Z 2618/2718 11010KT 9999 SCT070"
    },
    {
      "icao": "LBSF",
      "alert": "OK",
      "vis_m": 9999,
      "fzfg": false,
      "metar_trigger": false,
      "taf_trigger": false,
      "metar": "METAR LBSF 262100Z AUTO VRB02KT 9999 NCD M01/M03 Q1029 NOSIG",
      "taf": "TAF LBSF 261700Z 2618/2718 VRB04KT CAVOK"
    },
    {
      "icao": "LBWN",
      "alert": "OK",
      "vis_m": 9999,
      "fzfg": false,
      "metar_trigger": false,
      "taf_trigger": false,
      "metar": "METAR LBWN 262100Z AUTO 32003KT 290V360 9999 NCD M00/M03 Q1030 NOSIG",
      "taf": "TAF LBWN 261700Z 2618/2718 32006KT 9999 SCT025"
    },
    {
      "icao": "LCLK",
      "alert": "OK",
      "vis_m": 9999,
      "fzfg": false,
      "metar_trigger": false,
      "taf_trigger": false,
      "metar": "METAR LCLK 262100Z 30009KT CAVOK 09/01 Q1015 NOSIG",
      "taf": "TAF LCLK 261730Z 2618/2718 30018KT 9999 FEW025"
    },
    {
      "icao": "LCPH",
      "alert": "OK",
      "vis_m": 9999,
      "fzfg": false,
      "metar_trigger": false,
      "taf_trigger": false,
      "metar": "METAR LCPH 262100Z 04008KT 010V080 9999 FEW025 09/01 Q1016 NOSIG",
      "taf": "TAF LCPH 261730Z 2618/2718 32018KT 9999 FEW030"
    },
    {
      "icao": "LEAL",
      "alert": "OK",
      "vis_m": 8000,
      "fzfg": false,
      "metar_trigger": false,
      "taf_trigger": false,
      "metar": "METAR LEAL 262100Z 00000KT 8000 NSC 11/11 Q1027 NOSIG",
      "taf": "TAF LEAL 261700Z 2618/2718 VRB04KT CAVOK TX19/2712Z TN06/2705Z"
    },
    {
      "icao": "LEBB",
      "alert": "OK",
      "vis_m": 9999,
      "fzfg": false,
      "metar_trigger": false,
      "taf_trigger": false,
      "metar": "METAR LEBB 262100Z VRB01KT 9999 BKN008 13/12 Q1023 NOSIG",
      "taf": "TAF LEBB 261700Z 2618/2718 31009KT 9999 SCT040 TX19/2712Z TN07/2705Z"
    },
    {
      "icao": "LEBL",
      "alert": "OK",
      "vis_m": 9000,
      "fzfg": false,
      "metar_trigger": false,
      "taf_trigger": false,
      "metar": "METAR LEBL 262100Z VRB01KT 9000 BKN009 12/10 Q1027 NOSIG",
      "taf": ""
    },
    {
      "icao": "LECH",
      "alert": "OK",
      "vis_m": 6000,
      "fzfg": false,
      "metar_trigger": false,
      "taf_trigger": false,
      "metar": "METAR LECH 262100Z AUTO VRB02KT 6000 NCD 09/07 Q1028",
      "taf": ""
    },
    {
      "icao": "LEMD",
      "alert": "OK",
      "vis_m": 9999,
      "fzfg": false,
      "metar_trigger": false,
      "taf_trigger": false,
      "metar": "METAR LEMD 262100Z 36003KT CAVOK 11/03 Q1025 NOSIG",
      "taf": "TAF LEMD 261700Z 2618/2724 VRB04KT CAVOK TX20/2715Z TN02/2706Z"
    },
    {
      "icao": "LEMG",
      "alert": "OK",
      "vis_m": 9999,
      "fzfg": false,
      "metar_trigger": false,
      "taf_trigger": false,
      "metar": "METAR LEMG 262100Z 00000KT 9999 BKN020 14/11 Q1026 NOSIG",
      "taf": "TAF LEMG 261700Z 2618/2718 13010KT 9999 FEW010 BKN020 TX20/2714Z TN08/2707Z"
    },
    {
      "icao": "LEVC",
      "alert": "OK",
      "vis_m": 7000,
      "fzfg": false,
      "metar_trigger": false,
      "taf_trigger": false,
      "metar": "METAR LEVC 262100Z 29003KT 270V050 7000 SCT008 10/09 Q1028 NOSIG",
      "taf": "TAF LEVC 261700Z 2618/2718 VRB04KT CAVOK TX20/2712Z TN05/2705Z"
    },
    {
      "icao": "LEXJ",
      "alert": "OK",
      "vis_m": 5000,
      "fzfg": false,
      "metar_trigger": false,
      "taf_trigger": false,
      "metar": "METAR LEXJ 262100Z 19003KT 5000 BR NSC 10/09 Q1022",
      "taf": "TAF LEXJ 262000Z 2621/2721 VRB03KT 9999 SCT010 TX16/2712Z TN09/2707Z"
    },
    {
      "icao": "LEZG",
      "alert": "OK",
      "vis_m": 9999,
      "fzfg": false,
      "metar_trigger": false,
      "taf_trigger": false,
      "metar": "METAR LEZG 262100Z 09006KT CAVOK 13/09 Q1025 NOSIG",
      "taf": "TAF LEZG 261700Z 2618/2718 11009KT CAVOK TX20/2715Z TN06/2706Z"
    },
    {
      "icao": "LEZL",
      "alert": "OK",
      "vis_m": 9999,
      "fzfg": false,
      "metar_trigger": false,
      "taf_trigger": false,
      "metar": "METAR LEZL 262100Z 12007KT CAVOK 16/08 Q1023 NOSIG",
      "taf": "TAF LEZL 262000Z 2621/2721 05006KT CAVOK TX24/2715Z TN10/2707Z"
    },
    {
      "icao": "LFBD",
      "alert": "OK",
      "vis_m": 3000,
      "fzfg": false,
      "metar_trigger": false,
      "taf_trigger": false,
      "metar": "METAR LFBD 262100Z AUTO VRB01KT 3000 1200 R23/1900U R05/1000D R29/1100U BR NSC 10/09 Q1022 BECMG 9999 NSW",
      "taf": ""
    },
    {
      "icao": "LFLL",
      "alert": "OK",
      "vis_m": 9999,
      "fzfg": false,
      "metar_trigger": false,
      "taf_trigger": false,
      "metar": "METAR LFLL 262100Z 14006KT CAVOK 12/06 Q1025 NOSIG",
      "taf": "TAF LFLL 261700Z 2618/2724 17009KT CAVOK"
    },
    {
      "icao": "LFLS",
      "alert": "OK",
      "vis_m": 9999,
      "fzfg": false,
      "metar_trigger": false,
      "taf_trigger": false,
      "metar": "METAR LFLS 262100Z AUTO 07004KT CAVOK 06/03 Q1026",
      "taf": "TAF LFLS 261400Z 2615/2715 16005KT CAVOK"
    },
    {
      "icao": "LFMN",
      "alert": "OK",
      "vis_m": 9999,
      "fzfg": false,
      "metar_trigger": false,
      "taf_trigger": false,
      "metar": "METAR LFMN 262100Z 25002KT 9999 BKN030 14/11 Q1027 NOSIG",
      "taf": "TAF LFMN 262000Z 2621/2803 33010KT 9999 BKN030"
    },
    {
      "icao": "LFOB",
      "alert": "OK",
      "vis_m": 9999,
      "fzfg": false,
      "metar_trigger": false,
      "taf_trigger": false,
      "metar": "METAR LFOB 262100Z AUTO VRB03KT CAVOK 11/07 Q1020 NOSIG",
      "taf": "TAF LFOB 261700Z 2618/2718 20010KT CAVOK"
    },
    {
      "icao": "LFPO",
      "alert": "OK",
      "vis_m": 9999,
      "fzfg": false,
      "metar_trigger": false,
      "taf_trigger": false,
      "metar": "METAR LFPO 262100Z 18003KT CAVOK 13/09 Q1021 NOSIG",
      "taf": "TAF LFPO 261700Z 2618/2724 21008KT CAVOK"
    },
    {
      "icao": "LFSB",
      "alert": "OK",
      "vis_m": 9999,
      "fzfg": false,
      "metar_trigger": false,
      "taf_trigger": false,
      "metar": "METAR LFSB 262100Z AUTO VRB02KT CAVOK 09/07 Q1024 TEMPO 4000 MIFG",
      "taf": "TAF LFSB 261700Z 2618/2718 20004KT CAVOK"
    },
    {
      "icao": "LGAV",
      "alert": "OK",
      "vis_m": 9999,
      "fzfg": false,
      "metar_trigger": false,
      "taf_trigger": false,
      "metar": "METAR LGAV 262120Z 31005KT 9999 FEW025 07/02 Q1029 NOSIG",
      "taf": "TAF LGAV 261700Z 2618/2718 03012KT 9999 SCT020"
    },
    {
      "icao": "LGTS",
      "alert": "OK",
      "vis_m": 9999,
      "fzfg": false,
      "metar_trigger": false,
      "taf_trigger": false,
      "metar": "METAR LGTS 262120Z 11006KT 9999 FEW030 06/04 Q1030 NOSIG",
      "taf": "TAF LGTS 261700Z 2618/2718 14013KT 9999 SCT025"
    },
    {
      "icao": "LHBP",
      "alert": "OK",
      "vis_m": 9999,
      "fzfg": false,
      "metar_trigger": false,
      "taf_trigger": false,
      "metar": "METAR LHBP 262100Z 12003KT CAVOK 00/M03 Q1029 NOSIG",
      "taf": "TAF LHBP 261715Z 2618/2718 VRB03KT CAVOK"
    },
    {
      "icao": "LHDC",
      "alert": "OK",
      "vis_m": 9000,
      "fzfg": false,
      "metar_trigger": false,
      "taf_trigger": false,
      "metar": "METAR LHDC 262045Z AUTO 03002KT 9000 NCD M00/M03 Q1030",
      "taf": "TAF LHDC 261415Z 2615/2624 VRB03KT CAVOK"
    },
    {
      "icao": "LIBD",
      "alert": "OK",
      "vis_m": 9999,
      "fzfg": false,
      "metar_trigger": false,
      "taf_trigger": false,
      "metar": "METAR LIBD 262120Z 23006KT CAVOK 07/06 Q1027",
      "taf": "TAF LIBD 261700Z 2618/2718 33012KT CAVOK"
    },
    {
      "icao": "LIBG",
      "alert": "OK",
      "vis_m": null,
      "fzfg": false,
      "metar_trigger": false,
      "taf_trigger": false,
      "metar": "",
      "taf": "TAF LIBG 261700Z 2618/2703 VRB05KT CAVOK"
    },
    {
      "icao": "LIBP",
      "alert": "OK",
      "vis_m": 4900,
      "fzfg": false,
      "metar_trigger": false,
      "taf_trigger": false,
      "metar": "METAR LIBP 262120Z AUTO 21004KT 4900 BR NCD 08/08 Q1027",
      "taf": "TAF LIBP 261700Z 2618/2718 VRB05KT 9999 FEW035"
    },
    {
      "icao": "LIBR",
      "alert": "OK",
      "vis_m": 9999,
      "fzfg": false,
      "metar_trigger": false,
      "taf_trigger": false,
      "metar": "METAR LIBR 262120Z 31006KT 280V350 9999 BKN015 13/11 Q1027",
      "taf": ""
    },
    {
      "icao": "LICA",
      "alert": "OK",
      "vis_m": 9999,
      "fzfg": false,
      "metar_trigger": false,
      "taf_trigger": false,
      "metar": "METAR LICA 262120Z 06003KT 9999 SCT020 11/10 Q1028",
      "taf": "TAF LICA 261700Z 2618/2718 VRB05KT 9999 SCT020"
    },
    {
      "icao": "LICC",
      "alert": "OK",
      "vis_m": 9999,
      "fzfg": false,
      "metar_trigger": false,
      "taf_trigger": false,
      "metar": "METAR LICC 262120Z 26004KT 9999 FEW012 12/10 Q1028",
      "taf": "TAF LICC 261700Z 2618/2718 VRB05KT CAVOK"
    },
    {
      "icao": "LICJ",
      "alert": "OK",
      "vis_m": 9999,
      "fzfg": false,
      "metar_trigger": false,
      "taf_trigger": false,
      "metar": "METAR LICJ 262120Z 16002KT CAVOK 11/09 Q1027",
      "taf": "TAF LICJ 261700Z 2618/2718 VRB05KT CAVOK"
    },
    {
      "icao": "LIMC",
      "alert": "OK",
      "vis_m": 9999,
      "fzfg": false,
      "metar_trigger": false,
      "taf_trigger": false,
      "metar": "METAR LIMC 262120Z 03004KT CAVOK 06/04 Q1027 NOSIG",
      "taf": "TAF LIMC 261700Z 2618/2724 VRB04KT 8000 NSC"
    },
    {
      "icao": "LIME",
      "alert": "OK",
      "vis_m": 8000,
      "fzfg": false,
      "metar_trigger": false,
      "taf_trigger": false,
      "metar": "METAR LIME 262120Z 01004KT 8000 NSC 08/06 Q1027 NOSIG",
      "taf": "TAF LIME 261700Z 2618/2718 VRB05KT 7000 FEW030"
    },
    {
      "icao": "LIMF",
      "alert": "OK",
      "vis_m": 9999,
      "fzfg": false,
      "metar_trigger": false,
      "taf_trigger": false,
      "metar": "METAR LIMF 262120Z 33005KT CAVOK 10/06 Q1027",
      "taf": "TAF LIMF 261700Z 2618/2718 VRB04KT 6000 NSC"
    },
    {
      "icao": "LIMJ",
      "alert": "OK",
      "vis_m": 9999,
      "fzfg": false,
      "metar_trigger": false,
      "taf_trigger": false,
      "metar": "METAR LIMJ 262120Z 29003KT 9999 FEW008 BKN030 14/11 Q1027",
      "taf": "TAF LIMJ 261700Z 2618/2718 VRB06KT 9999 SCT030"
    },
    {
      "icao": "LIPE",
      "alert": "OK",
      "vis_m": 5000,
      "fzfg": false,
      "metar_trigger": false,
      "taf_trigger": false,
      "metar": "METAR LIPE 262120Z 22003KT 5000 BR NSC 08/07 Q1027",
      "taf": "TAF LIPE 261700Z 2618/2718 VRB04KT 6000 FEW025"
    },
    {
      "icao": "LIPH",
      "alert": "OK",
      "vis_m": 4000,
      "fzfg": false,
      "metar_trigger": false,
      "taf_trigger": false,
      "metar": "METAR LIPH 262120Z VRB01KT 4000 BR NSC 08/08 Q1027",
      "taf": "TAF LIPH 261700Z 2618/2718 VRB05KT 6000 FEW020"
    },
    {
      "icao": "LIPQ",
      "alert": "OK",
      "vis_m": 200,
      "fzfg": false,
      "metar_trigger": false,
      "taf_trigger": false,
      "metar": "METAR LIPQ 262120Z AUTO 01003KT 0200 R09/0800U FG VV002 06/06 Q1027",
      "taf": ""
    },
    {
      "icao": "LIPR",
      "alert": "OK",
      "vis_m": 3000,
      "fzfg": false,
      "metar_trigger": false,
      "taf_trigger": false,
      "metar": "METAR LIPR 262120Z 30001KT 3000 BR NSC 06/06 Q1027",
      "taf": "TAF LIPR 261700Z 2618/2718 VRB04KT 6000 FEW025"
    },
    {
      "icao": "LIPX",
      "alert": "OK",
      "vis_m": 7000,
      "fzfg": false,
      "metar_trigger": false,
      "taf_trigger": false,
      "metar": "METAR LIPX 262120Z 33005KT 7000 NSC 07/06 Q1027",
      "taf": "TAF LIPX 261700Z 2618/2718 VRB05KT 6000 NSC"
    },
    {
      "icao": "LIPY",
      "alert": "OK",
      "vis_m": 4900,
      "fzfg": false,
      "metar_trigger": false,
      "taf_trigger": false,
      "metar": "METAR LIPY 262120Z AUTO 18003KT 4900 BR NCD 08/07 Q1027",
      "taf": "TAF LIPY 261700Z 2618/2718 VRB04KT 7000 FEW030"
    },
    {
      "icao": "LIPZ",
      "alert": "OK",
      "vis_m": 1000,
      "fzfg": false,
      "metar_trigger": false,
      "taf_trigger": false,
      "metar": "METAR LIPZ 262120Z 09004KT 1000 R04R/0500D BR NSC 07/07 Q1027 BECMG 0500 FG",
      "taf": ""
    },
    {
      "icao": "LIRF",
      "alert": "OK",
      "vis_m": 8000,
      "fzfg": false,
      "metar_trigger": false,
      "taf_trigger": false,
      "metar": "METAR LIRF 262120Z VRB01KT 8000 BCFG NSC 11/11 Q1027 BECMG 4000 BCFG",
      "taf": "TAF LIRF 261700Z 2618/2724 VRB05KT CAVOK"
    },
    {
      "icao": "LIRN",
      "alert": "OK",
      "vis_m": 5000,
      "fzfg": false,
      "metar_trigger": false,
      "taf_trigger": false,
      "metar": "METAR LIRN 262120Z VRB01KT 5000 BR NSC 11/11 Q1027 NOSIG",
      "taf": "TAF LIRN 261700Z 2618/2718 23010KT CAVOK"
    },
    {
      "icao": "LIRP",
      "alert": "OK",
      "vis_m": 4000,
      "fzfg": false,
      "metar_trigger": false,
      "taf_trigger": false,
      "metar": "METAR LIRP 262115Z 15003KT 4000 0800S R04R/1000 BCFG BR FEW002 SCT015 08/08 Q1027 TEMPO 0800 FG",
      "taf": "TAF LIRP 261700Z 2618/2718 VRB03KT 9999 SCT020"
    },
    {
      "icao": "LIRZ",
      "alert": "OK",
      "vis_m": 9999,
      "fzfg": false,
      "metar_trigger": false,
      "taf_trigger": false,
      "metar": "METAR LIRZ 262120Z AUTO VRB01KT 9999 NCD 09/08 Q1027",
      "taf": "TAF LIRZ 261700Z 2618/2718 VRB05KT 8000 FEW030"
    },
    {
      "icao": "LJLJ",
      "alert": "OK",
      "vis_m": 9999,
      "fzfg": false,
      "metar_trigger": false,
      "taf_trigger": false,
      "metar": "METAR LJLJ 262100Z VRB01KT CAVOK 03/02 Q1027 NOSIG",
      "taf": "TAF LJLJ 261700Z 2618/2718 VRB02KT CAVOK"
    },
    {
      "icao": "LKMT",
      "alert": "OK",
      "vis_m": 9999,
      "fzfg": false,
      "metar_trigger": false,
      "taf_trigger": false,
      "metar": "METAR LKMT 262100Z 25008KT CAVOK 03/M01 Q1025 NOSIG",
      "taf": "TAF LKMT 261700Z 2618/2718 22010KT CAVOK"
    },
    {
      "icao": "LKPR",
      "alert": "OK",
      "vis_m": 9000,
      "fzfg": false,
      "metar_trigger": false,
      "taf_trigger": false,
      "metar": "METAR LKPR 262100Z 23003KT 9000 MIFG NSC 05/05 Q1023 NOSIG",
      "taf": "TAF LKPR 262000Z 2621/2803 VRB02KT 3000 BR SCT004"
    },
    {
      "icao": "LLBG",
      "alert": "OK",
      "vis_m": 9999,
      "fzfg": false,
      "metar_trigger": false,
      "taf_trigger": false,
      "metar": "METAR LLBG 262120Z 31014KT 9999 SCT046 15/04 Q1016 NOSIG",
      "taf": "TAF LLBG 261705Z 2618/2718 27012KT 9999 SCT040 TX17/2712Z TN12/2704Z"
    },
    {
      "icao": "LMML",
      "alert": "OK",
      "vis_m": 9999,
      "fzfg": false,
      "metar_trigger": false,
      "taf_trigger": false,
      "metar": "METAR LMML 262115Z 27002KT CAVOK 11/10 Q1028 NOSIG",
      "taf": "TAF LMML 261700Z 2618/2718 VRB05KT 9999 FEW015"
    },
    {
      "icao": "LOWW",
      "alert": "OK",
      "vis_m": 9999,
      "fzfg": false,
      "metar_trigger": false,
      "taf_trigger": false,
      "metar": "METAR LOWW 262120Z 15008KT CAVOK 04/01 Q1026 NOSIG",
      "taf": "TAF LOWW 262015Z 2621/2803 15005KT CAVOK TX11/2715Z TN00/2705Z"
    },
    {
      "icao": "LPFR",
      "alert": "OK",
      "vis_m": 9999,
      "fzfg": false,
      "metar_trigger": false,
      "taf_trigger": false,
      "metar": "METAR LPFR 262100Z 31005KT CAVOK 14/11 Q1024",
      "taf": "TAF LPFR 261700Z 2618/2718 13008KT CAVOK"
    },
    {
      "icao": "LPMA",
      "alert": "OK",
      "vis_m": 9999,
      "fzfg": false,
      "metar_trigger": false,
      "taf_trigger": false,
      "metar": "METAR LPMA 262100Z 01012G24KT 330V060 9999 BKN015 16/11 Q1026",
      "taf": ""
    },
    {
      "icao": "LPPR",
      "alert": "OK",
      "vis_m": 9000,
      "fzfg": false,
      "metar_trigger": false,
      "taf_trigger": false,
      "metar": "METAR LPPR 262100Z 34005KT 9000 SCT002 BKN004 11/11 Q1025",
      "taf": ""
    },
    {
      "icao": "LPPS",
      "alert": "OK",
      "vis_m": 9999,
      "fzfg": false,
      "metar_trigger": false,
      "taf_trigger": false,
      "metar": "METAR LPPS 262100Z 03016G26KT 9999 SCT015 15/11 Q1025",
      "taf": "TAF LPPS 261700Z 2618/2724 01018KT 9999 SCT015"
    },
    {
      "icao": "LPPT",
      "alert": "OK",
      "vis_m": 9999,
      "fzfg": false,
      "metar_trigger": false,
      "taf_trigger": false,
      "metar": "METAR LPPT 262100Z 31008KT CAVOK 15/12 Q1024",
      "taf": "TAF LPPT 261700Z 2618/2724 06007KT CAVOK"
    },
    {
      "icao": "LQBK",
      "alert": "OK",
      "vis_m": 9999,
      "fzfg": false,
      "metar_trigger": false,
      "taf_trigger": false,
      "metar": "METAR LQBK 262100Z 29004KT CAVOK 03/01 Q1027 NOSIG",
      "taf": "TAF LQBK 261700Z 2618/2718 12005KT CAVOK TX16/2713Z TNM01/2705Z"
    },
    {
      "icao": "LQSA",
      "alert": "OK",
      "vis_m": 9999,
      "fzfg": false,
      "metar_trigger": false,
      "taf_trigger": false,
      "metar": "METAR LQSA 262100Z 00000KT CAVOK 03/02 Q1027 NOSIG",
      "taf": "TAF LQSA 261700Z 2618/2718 VRB02KT CAVOK TX17/2714Z TNM00/2705Z"
    },
    {
      "icao": "LQTZ",
      "alert": "OK",
      "vis_m": 9999,
      "fzfg": false,
      "metar_trigger": false,
      "taf_trigger": false,
      "metar": "METAR LQTZ 262100Z 31003KT CAVOK 03/01 Q1028",
      "taf": "TAF LQTZ 261700Z 2618/2718 10005KT CAVOK TX15/2714Z TN00/2706Z"
    },
    {
      "icao": "LRBC",
      "alert": "OK",
      "vis_m": 9999,
      "fzfg": false,
      "metar_trigger": false,
      "taf_trigger": false,
      "metar": "METAR LRBC 262100Z 32002KT 9999 OVC024 M01/M02 Q1031",
      "taf": "TAF LRBC 262000Z 2621/2706 VRB04KT 9999 BKN020"
    },
    {
      "icao": "LRBS",
      "alert": "OK",
      "vis_m": 9000,
      "fzfg": false,
      "metar_trigger": false,
      "taf_trigger": false,
      "metar": "METAR LRBS 262100Z 00000KT 9000 FEW040 M00/M02 Q1031 NOSIG",
      "taf": "TAF LRBS 261700Z 2618/2718 VRB04KT CAVOK"
    },
    {
      "icao": "LRBV",
      "alert": "OK",
      "vis_m": 9999,
      "fzfg": false,
      "metar_trigger": false,
      "taf_trigger": false,
      "metar": "METAR LRBV 262100Z 27002KT CAVOK M04/M06 Q1029",
      "taf": "TAF LRBV 262000Z 2621/2706 VRB03KT CAVOK"
    },
    {
      "icao": "LRCL",
      "alert": "OK",
      "vis_m": 9999,
      "fzfg": false,
      "metar_trigger": false,
      "taf_trigger": false,
      "metar": "METAR LRCL 262100Z 00000KT CAVOK M03/M05 Q1029",
      "taf": "TAF LRCL 262000Z 2621/2706 VRB02KT CAVOK"
    },
    {
      "icao": "LRCV",
      "alert": "OK",
      "vis_m": 9999,
      "fzfg": false,
      "metar_trigger": false,
      "taf_trigger": false,
      "metar": "METAR LRCV 262100Z 16004KT 9999 BKN040 02/M02 Q1030",
      "taf": "TAF LRCV 262000Z 2621/2706 13005KT 9999 BKN040"
    },
    {
      "icao": "LRIA",
      "alert": "OK",
      "vis_m": 9999,
      "fzfg": false,
      "metar_trigger": false,
      "taf_trigger": false,
      "metar": "METAR LRIA 262100Z 01005KT 9999 OVC021 M00/M03 Q1031",
      "taf": "TAF LRIA 262000Z 2621/2706 VRB04KT 9999 BKN020"
    },
    {
      "icao": "LROP",
      "alert": "OK",
      "vis_m": 9999,
      "fzfg": false,
      "metar_trigger": false,
      "taf_trigger": false,
      "metar": "METAR LROP 262100Z 21002KT CAVOK M01/M03 Q1031 NOSIG",
      "taf": "TAF LROP 261700Z 2618/2718 VRB04KT CAVOK"
    },
    {
      "icao": "LRSB",
      "alert": "OK",
      "vis_m": 9999,
      "fzfg": false,
      "metar_trigger": false,
      "taf_trigger": false,
      "metar": "METAR LRSB 262100Z VRB01KT CAVOK M03/M04 Q1029",
      "taf": "TAF LRSB 261700Z 2618/2718 VRB04KT CAVOK"
    },
    {
      "icao": "LRSM",
      "alert": "OK",
      "vis_m": 9999,
      "fzfg": false,
      "metar_trigger": false,
      "taf_trigger": false,
      "metar": "METAR LRSM 262100Z AUTO 09002KT 9999 NCD M01/M03 Q1030",
      "taf": "TAF LRSM 261400Z 2615/2624 VRB03KT CAVOK"
    },
    {
      "icao": "LRSV",
      "alert": "OK",
      "vis_m": 9999,
      "fzfg": false,
      "metar_trigger": false,
      "taf_trigger": false,
      "metar": "METAR LRSV 262100Z 10003KT 9999 BKN016 M03/M04 Q1029",
      "taf": "TAF LRSV 262000Z 2621/2706 VRB04KT 9999 SCT020"
    },
    {
      "icao": "LRTM",
      "alert": "OK",
      "vis_m": 9999,
      "fzfg": false,
      "metar_trigger": false,
      "taf_trigger": false,
      "metar": "METAR LRTM 262100Z 10004KT 9999 FEW004 M03/M04 Q1030",
      "taf": "TAF LRTM 262000Z 2621/2706 VRB04KT CAVOK"
    },
    {
      "icao": "LRTR",
      "alert": "OK",
      "vis_m": 9999,
      "fzfg": false,
      "metar_trigger": false,
      "taf_trigger": false,
      "metar": "METAR LRTR 262100Z 08004KT 050V120 CAVOK M00/M01 Q1029",
      "taf": "TAF LRTR 261700Z 2618/2718 VRB04KT CAVOK"
    },
    {
      "icao": "LTAC",
      "alert": "OK",
      "vis_m": 9999,
      "fzfg": false,
      "metar_trigger": false,
      "taf_trigger": false,
      "metar": "METAR LTAC 262120Z 31009KT 9999 BKN040 00/M07 Q1019 NOSIG",
      "taf": "TAF LTAC 261640Z 2618/2718 VRB02KT 9999 BKN025"
    },
    {
      "icao": "LTFM",
      "alert": "OK",
      "vis_m": 9999,
      "fzfg": false,
      "metar_trigger": false,
      "taf_trigger": false,
      "metar": "METAR LTFM 262120Z 03013KT 9999 SCT030 05/01 Q1029 NOSIG",
      "taf": "TAF LTFM 261640Z 2618/2724 36015KT 9999 BKN028"
    },
    {
      "icao": "LUKK",
      "alert": "OK",
      "vis_m": 9999,
      "fzfg": false,
      "metar_trigger": false,
      "taf_trigger": false,
      "metar": "METAR LUKK 262100Z 04008KT 360V060 9999 OVC015 M01/M04 Q1031 NOSIG",
      "taf": "TAF LUKK 261703Z 2618/2718 01006KT 9999 BKN015"
    },
    {
      "icao": "LWOH",
      "alert": "OK",
      "vis_m": null,
      "fzfg": false,
      "metar_trigger": false,
      "taf_trigger": false,
      "metar": "",
      "taf": "TAF LWOH 262010Z 2621/2721 VRB02KT CAVOK"
    },
    {
      "icao": "LWSK",
      "alert": "OK",
      "vis_m": 9999,
      "fzfg": false,
      "metar_trigger": false,
      "taf_trigger": false,
      "metar": "METAR LWSK 262120Z 18002KT CAVOK 01/M03 Q1029 NOSIG",
      "taf": "TAF LWSK 262010Z 2621/2721 VRB02KT CAVOK"
    },
    {
      "icao": "LYBE",
      "alert": "OK",
      "vis_m": 9999,
      "fzfg": false,
      "metar_trigger": false,
      "taf_trigger": false,
      "metar": "METAR LYBE 262100Z 14004KT CAVOK 03/M02 Q1029 NOSIG",
      "taf": "TAF LYBE 261700Z 2618/2718 07005KT CAVOK TX13/2713Z TNM01/2706Z"
    },
    {
      "icao": "LYNI",
      "alert": "OK",
      "vis_m": 9999,
      "fzfg": false,
      "metar_trigger": false,
      "taf_trigger": false,
      "metar": "METAR LYNI 262100Z VRB02KT CAVOK 02/M00 Q1029 NOSIG",
      "taf": "TAF LYNI 261700Z 2618/2718 07006KT CAVOK TX14/2714Z TNM02/2705Z"
    },
    {
      "icao": "LYPG",
      "alert": "OK",
      "vis_m": 9999,
      "fzfg": false,
      "metar_trigger": false,
      "taf_trigger": false,
      "metar": "METAR LYPG 262100Z 31003KT CAVOK 08/01 Q1026 NOSIG",
      "taf": "TAF LYPG 261700Z 2618/2718 36006KT CAVOK TX18/2712Z TN02/2705Z"
    },
    {
      "icao": "LZIB",
      "alert": "OK",
      "vis_m": 9999,
      "fzfg": false,
      "metar_trigger": false,
      "taf_trigger": false,
      "metar": "METAR LZIB 262100Z 03007KT CAVOK 03/M00 Q1027 NOSIG",
      "taf": "TAF LZIB 261715Z 2618/2718 06007KT CAVOK"
    },
    {
      "icao": "LZKZ",
      "alert": "OK",
      "vis_m": 9999,
      "fzfg": false,
      "metar_trigger": false,
      "taf_trigger": false,
      "metar": "METAR LZKZ 262100Z 00000KT CAVOK M00/M03 Q1029 NOSIG",
      "taf": "TAF LZKZ 261715Z 2618/2718 20006KT CAVOK"
    },
    {
      "icao": "LZTT",
      "alert": "OK",
      "vis_m": 9999,
      "fzfg": false,
      "metar_trigger": false,
      "taf_trigger": false,
      "metar": "METAR LZTT 262100Z 30002KT CAVOK M04/M05 Q1026",
      "taf": "TAF LZTT 261715Z 2618/2718 VRB02KT CAVOK"
    },
    {
      "icao": "OEJN",
      "alert": "OK",
      "vis_m": 9999,
      "fzfg": false,
      "metar_trigger": false,
      "taf_trigger": false,
      "metar": "METAR OEJN 262100Z 32009KT 9999 FEW040 24/14 Q1012 NOSIG",
      "taf": "TAF OEJN 261700Z 2618/2724 36012KT 9999 FEW040"
    },
    {
      "icao": "OEMA",
      "alert": "OK",
      "vis_m": 9999,
      "fzfg": false,
      "metar_trigger": false,
      "taf_trigger": false,
      "metar": "METAR OEMA 262100Z 22006KT CAVOK 24/04 Q1014 NOSIG",
      "taf": "TAF OEMA 261700Z 2618/2724 VRB03KT CAVOK"
    },
    {
      "icao": "OJAI",
      "alert": "OK",
      "vis_m": 3000,
      "fzfg": false,
      "metar_trigger": false,
      "taf_trigger": false,
      "metar": "METAR OJAI 262100Z 27015KT 3000 BLDU FEW020 SCT025 08/06 Q1015 NOSIG",
      "taf": "TAF OJAI 261700Z 2618/2724 28018G30KT 3000 -RA BLDU SCT025 BKN030"
    },
    {
      "icao": "OMAA",
      "alert": "OK",
      "vis_m": 9999,
      "fzfg": false,
      "metar_trigger": false,
      "taf_trigger": false,
      "metar": "METAR OMAA 262100Z 30007KT CAVOK 21/14 Q1012 NOSIG",
      "taf": "TAF OMAA 261700Z 2618/2800 26006KT 8000 NSC"
    },
    {
      "icao": "OMDB",
      "alert": "OK",
      "vis_m": 9999,
      "fzfg": false,
      "metar_trigger": false,
      "taf_trigger": false,
      "metar": "METAR OMDB 262100Z 26007KT 9999 FEW030 22/14 Q1012 NOSIG",
      "taf": "TAF OMDB 261700Z 2618/2800 27010KT 8000 NSC"
    },
    {
      "icao": "UAAA",
      "alert": "OK",
      "vis_m": 9999,
      "fzfg": false,
      "metar_trigger": false,
      "taf_trigger": false,
      "metar": "METAR UAAA 262100Z VRB01MPS 9999 BKN050CB OVC100 01/00 Q1017 NOSIG",
      "taf": "TAF UAAA 261700Z 2618/2718 22003G08MPS 3100 -SHRASN BR BKN011CB OVC020 TX02/2708Z TNM07/2702Z"
    },
    {
      "icao": "UBBB",
      "alert": "OK",
      "vis_m": 9999,
      "fzfg": false,
      "metar_trigger": false,
      "taf_trigger": false,
      "metar": "METAR UBBB 262100Z 07008KT 9999 BKN044 07/04 Q1017 NOSIG",
      "taf": "TAF UBBB 261702Z 2618/2718 06010KT 9999 BKN030 TX08/2710Z TN04/2701Z"
    },
    {
      "icao": "UDSG",
      "alert": "OK",
      "vis_m": 9999,
      "fzfg": false,
      "metar_trigger": false,
      "taf_trigger": false,
      "metar": "METAR UDSG 262100Z 07028G40KT 9999 OVC026 00/M02 Q1006 NOSIG",
      "taf": "TAF UDSG 261700Z 2618/2718 VRB06KT 1000 BR OVC010"
    },
    {
      "icao": "UDYZ",
      "alert": "OK",
      "vis_m": 9999,
      "fzfg": false,
      "metar_trigger": false,
      "taf_trigger": false,
      "metar": "METAR UDYZ 262100Z 25002KT 9999 -SHRA OVC043CB 05/03 Q1006 NOSIG",
      "taf": "TAF UDYZ 261700Z 2618/2718 30006KT 6000 BKN040"
    },
    {
      "icao": "UGKO",
      "alert": "OK",
      "vis_m": 9999,
      "fzfg": false,
      "metar_trigger": false,
      "taf_trigger": false,
      "metar": "METAR UGKO 262100Z 12003KT 9999 -RA SCT010 BKN020 02/02 Q1016 NOSIG",
      "taf": "TAF UGKO 261700Z 2618/2718 09007KT 9999 -RA SCT020 OVC040 TX03/2618Z TN01/2703Z"
    }
  ]
}