{
  "ts_utc": "2026-04-06T11:32:28Z",
  "threshold_m": 150,
  "source": "stations_override.txt (ICAO list) + aviationweather.gov (METAR/TAF raw)",
  "station_count": 159,
  "stations": [
    {
      "icao": "BIKF",
      "alert": "OK",
      "vis_m": 5000,
      "fzfg": false,
      "metar_trigger": false,
      "taf_trigger": false,
      "metar": "METAR BIKF 061100Z 08032G43KT 5000 -RA BR BKN015 OVC040 01/M02 Q1000",
      "taf": "TAF BIKF 061044Z 0612/0712 09035G48KT 3000 -SNRA BKN010 OVC015 TX07/0703Z TN02/0612Z"
    },
    {
      "icao": "BKPR",
      "alert": "OK",
      "vis_m": 9999,
      "fzfg": false,
      "metar_trigger": false,
      "taf_trigger": false,
      "metar": "METAR BKPR 061130Z VRB05KT CAVOK 20/06 Q1023 NOSIG",
      "taf": "TAF BKPR 061130Z 0612/0712 35006KT CAVOK"
    },
    {
      "icao": "EBCI",
      "alert": "OK",
      "vis_m": 9999,
      "fzfg": false,
      "metar_trigger": false,
      "taf_trigger": false,
      "metar": "METAR EBCI 061120Z VRB02KT 9999 FEW035 11/03 Q1028 NOSIG",
      "taf": "TAF EBCI 061110Z 0612/0718 07006KT 9999 FEW040"
    },
    {
      "icao": "EDDB",
      "alert": "OK",
      "vis_m": 9999,
      "fzfg": false,
      "metar_trigger": false,
      "taf_trigger": false,
      "metar": "METAR EDDB 061120Z AUTO 28019KT CAVOK 12/M01 Q1024 TEMPO 26020G30KT",
      "taf": "TAF EDDB 061100Z 0612/0712 28020G35KT CAVOK"
    },
    {
      "icao": "EDDH",
      "alert": "OK",
      "vis_m": 9999,
      "fzfg": false,
      "metar_trigger": false,
      "taf_trigger": false,
      "metar": "METAR EDDH 061120Z AUTO 30016KT 9999 SCT041 SCT049 10/01 Q1025 TEMPO 29020G30KT",
      "taf": "TAF EDDH 061100Z 0612/0718 29015G30KT 9999 SCT040"
    },
    {
      "icao": "EDDK",
      "alert": "OK",
      "vis_m": 9999,
      "fzfg": false,
      "metar_trigger": false,
      "taf_trigger": false,
      "metar": "METAR EDDK 061120Z AUTO 29006KT 240V360 9999 BKN044 12/01 Q1029 NOSIG",
      "taf": "TAF EDDK 061100Z 0612/0718 VRB03KT 9999 FEW040"
    },
    {
      "icao": "EDDN",
      "alert": "OK",
      "vis_m": 9999,
      "fzfg": false,
      "metar_trigger": false,
      "taf_trigger": false,
      "metar": "METAR EDDN 061120Z AUTO 28008KT 240V340 9999 BKN046 13/01 Q1028 NOSIG",
      "taf": "TAF EDDN 061100Z 0612/0712 29007KT CAVOK"
    },
    {
      "icao": "EDDS",
      "alert": "OK",
      "vis_m": 9999,
      "fzfg": false,
      "metar_trigger": false,
      "taf_trigger": false,
      "metar": "METAR EDDS 061120Z AUTO VRB05KT CAVOK 14/02 Q1027 NOSIG",
      "taf": "TAF EDDS 061100Z 0612/0712 VRB03KT CAVOK"
    },
    {
      "icao": "EDFH",
      "alert": "OK",
      "vis_m": 9999,
      "fzfg": false,
      "metar_trigger": false,
      "taf_trigger": false,
      "metar": "METAR EDFH 061120Z 05003KT 360V170 CAVOK 10/M01 Q1028",
      "taf": "TAF EDFH 061100Z 0612/0712 VRB03KT 9999 FEW030"
    },
    {
      "icao": "EDJA",
      "alert": "OK",
      "vis_m": 9999,
      "fzfg": false,
      "metar_trigger": false,
      "taf_trigger": false,
      "metar": "METAR EDJA 061120Z 28006KT 240V320 9999 FEW035 14/05 Q1027",
      "taf": "TAF EDJA 061100Z 0612/0621 29005KT 9999 FEW030"
    },
    {
      "icao": "EDLW",
      "alert": "OK",
      "vis_m": 9999,
      "fzfg": false,
      "metar_trigger": false,
      "taf_trigger": false,
      "metar": "METAR EDLW 061120Z COR VRB05KT 9999 FEW049 12/M01 Q1028",
      "taf": "TAF EDLW 061100Z 0612/0712 28006KT 9999 FEW045"
    },
    {
      "icao": "EDNY",
      "alert": "OK",
      "vis_m": 9999,
      "fzfg": false,
      "metar_trigger": false,
      "taf_trigger": false,
      "metar": "METAR EDNY 061120Z VRB05KT CAVOK 17/08 Q1027",
      "taf": "TAF EDNY 061100Z 0612/0621 32004KT CAVOK"
    },
    {
      "icao": "EDSB",
      "alert": "OK",
      "vis_m": 9999,
      "fzfg": false,
      "metar_trigger": false,
      "taf_trigger": false,
      "metar": "METAR EDSB 061120Z 06004KT 010V120 CAVOK 15/03 Q1028",
      "taf": "TAF EDSB 061100Z 0612/0712 VRB03KT CAVOK"
    },
    {
      "icao": "EETN",
      "alert": "OK",
      "vis_m": 9999,
      "fzfg": false,
      "metar_trigger": false,
      "taf_trigger": false,
      "metar": "METAR EETN 061120Z 24013KT 9999 BKN010 BKN016 04/02 Q0992 TEMPO 5000 RA BKN008",
      "taf": "TAF EETN 061130Z 0612/0712 24012KT 8000 RA BKN006 OVC012"
    },
    {
      "icao": "EFTU",
      "alert": "OK",
      "vis_m": 9999,
      "fzfg": false,
      "metar_trigger": false,
      "taf_trigger": false,
      "metar": "METAR EFTU 061120Z AUTO 27003KT 240V300 9999 -RA OVC005 03/03 Q0989",
      "taf": "TAF EFTU 060835Z 0609/0709 23007KT 9999 -RA BKN005"
    },
    {
      "icao": "EGBB",
      "alert": "OK",
      "vis_m": 9999,
      "fzfg": false,
      "metar_trigger": false,
      "taf_trigger": false,
      "metar": "METAR EGBB 061120Z 16010KT 9999 FEW040 12/02 Q1026",
      "taf": "TAF EGBB 061057Z 0612/0712 17009KT CAVOK"
    },
    {
      "icao": "EGGP",
      "alert": "OK",
      "vis_m": 9999,
      "fzfg": false,
      "metar_trigger": false,
      "taf_trigger": false,
      "metar": "METAR EGGP 061120Z 16009KT 120V190 9999 FEW040 12/04 Q1024",
      "taf": "TAF EGGP 061057Z 0612/0712 15012KT 9999 FEW040"
    },
    {
      "icao": "EGGW",
      "alert": "OK",
      "vis_m": 9999,
      "fzfg": false,
      "metar_trigger": false,
      "taf_trigger": false,
      "metar": "METAR EGGW 061120Z AUTO 18007KT 140V220 9999 NCD 12/01 Q1026",
      "taf": "TAF EGGW 061115Z 0612/0712 17010KT 9999 FEW045"
    },
    {
      "icao": "EGKK",
      "alert": "OK",
      "vis_m": 9999,
      "fzfg": false,
      "metar_trigger": false,
      "taf_trigger": false,
      "metar": "METAR EGKK 061120Z 19008KT 140V210 CAVOK 13/01 Q1027",
      "taf": "TAF EGKK 061053Z 0612/0718 15010KT 9999 FEW045"
    },
    {
      "icao": "EGNM",
      "alert": "OK",
      "vis_m": 9999,
      "fzfg": false,
      "metar_trigger": false,
      "taf_trigger": false,
      "metar": "METAR EGNM 061120Z 14007KT 090V180 9999 FEW030 10/03 Q1024",
      "taf": "TAF EGNM 061101Z 0612/0712 16009KT 9999 FEW030"
    },
    {
      "icao": "EGPD",
      "alert": "OK",
      "vis_m": 9999,
      "fzfg": false,
      "metar_trigger": false,
      "taf_trigger": false,
      "metar": "METAR EGPD 061120Z COR AUTO 10007KT 030V160 9999 NCD 11/01 Q1022 NOSIG",
      "taf": "TAF EGPD 061054Z 0612/0712 22006KT CAVOK"
    },
    {
      "icao": "EGPF",
      "alert": "OK",
      "vis_m": 9999,
      "fzfg": false,
      "metar_trigger": false,
      "taf_trigger": false,
      "metar": "METAR EGPF 061120Z AUTO 02004KT 360V060 9999 BKN029 10/05 Q1022",
      "taf": "TAF EGPF 061055Z 0612/0712 04010KT 9999 FEW040"
    },
    {
      "icao": "EHBK",
      "alert": "OK",
      "vis_m": 9999,
      "fzfg": false,
      "metar_trigger": false,
      "taf_trigger": false,
      "metar": "METAR EHBK 061125Z AUTO 02003KT 9999 NSC 12/01 Q1029 NOSIG",
      "taf": "TAF EHBK 061056Z 0612/0718 VRB02KT CAVOK"
    },
    {
      "icao": "EHEH",
      "alert": "OK",
      "vis_m": 9999,
      "fzfg": false,
      "metar_trigger": false,
      "taf_trigger": false,
      "metar": "METAR EHEH 061125Z AUTO 06002KT 9999 NCD 13/01 Q1029 BLU NOSIG RMK TREND REMOTE BY EHWX",
      "taf": "TAF EHEH 060520Z 0606/0712 22003KT CAVOK"
    },
    {
      "icao": "EKBI",
      "alert": "OK",
      "vis_m": 9999,
      "fzfg": false,
      "metar_trigger": false,
      "taf_trigger": false,
      "metar": "METAR EKBI 061120Z AUTO 28025G35KT 250V310 9999 BKN029/// 09/02 Q1020",
      "taf": "TAF EKBI 061127Z 0612/0712 29024G35KT 9999 BKN030"
    },
    {
      "icao": "EKCH",
      "alert": "OK",
      "vis_m": 9999,
      "fzfg": false,
      "metar_trigger": false,
      "taf_trigger": false,
      "metar": "METAR EKCH 061120Z AUTO 28025G41KT 9999 BKN036/// 10/01 Q1016 TEMPO 26024G42KT",
      "taf": "TAF EKCH 061127Z 0612/0712 28024G42KT 9999 BKN030"
    },
    {
      "icao": "ENAL",
      "alert": "OK",
      "vis_m": 9999,
      "fzfg": false,
      "metar_trigger": false,
      "taf_trigger": false,
      "metar": "METAR ENAL 061120Z 31015KT 9999 VCSH FEW020 SCT027 07/01 Q1014",
      "taf": "TAF ENAL 060800Z 0609/0618 30012KT 9999 FEW015 BKN030"
    },
    {
      "icao": "ENBR",
      "alert": "OK",
      "vis_m": 9999,
      "fzfg": false,
      "metar_trigger": false,
      "taf_trigger": false,
      "metar": "METAR ENBR 061120Z 31012KT 9999 FEW036 BKN050 06/M03 Q1017 NOSIG RMK WIND 1200FT 30017KT",
      "taf": "TAF ENBR 060500Z 0606/0706 32012KT 9999 FEW012 BKN025"
    },
    {
      "icao": "ENGM",
      "alert": "OK",
      "vis_m": 9999,
      "fzfg": false,
      "metar_trigger": false,
      "taf_trigger": false,
      "metar": "METAR ENGM 061120Z 36008KT 310V020 CAVOK 10/M02 Q1007 NOSIG",
      "taf": "TAF ENGM 060500Z 0606/0706 26008KT CAVOK"
    },
    {
      "icao": "ENHD",
      "alert": "OK",
      "vis_m": 9999,
      "fzfg": false,
      "metar_trigger": false,
      "taf_trigger": false,
      "metar": "METAR ENHD 061120Z 33013KT 9999 FEW033 08/M00 Q1018",
      "taf": "TAF ENHD 060800Z 0609/0618 32015KT 9999 FEW020 SCT035"
    },
    {
      "icao": "ENTC",
      "alert": "OK",
      "vis_m": 9999,
      "fzfg": false,
      "metar_trigger": false,
      "taf_trigger": false,
      "metar": "METAR ENTC 061120Z 26003KT 230V290 CAVOK 05/M03 Q1005 NOSIG RMK WIND 2600FT 17009KT",
      "taf": "TAF ENTC 060500Z 0606/0706 VRB03KT CAVOK"
    },
    {
      "icao": "ENTO",
      "alert": "OK",
      "vis_m": 9999,
      "fzfg": false,
      "metar_trigger": false,
      "taf_trigger": false,
      "metar": "METAR ENTO 061120Z 32017KT CAVOK 12/M04 Q1009 NOSIG",
      "taf": "TAF ENTO 060500Z 0606/0706 25010KT CAVOK"
    },
    {
      "icao": "ENVA",
      "alert": "OK",
      "vis_m": 9999,
      "fzfg": false,
      "metar_trigger": false,
      "taf_trigger": false,
      "metar": "METAR ENVA 061120Z 27017KT 9999 -SHRA FEW008 SCT026TCU BKN041 06/04 Q1007 TEMPO 3000 SHRASN BKN012 SCT025CB RMK WIND 670FT 28020KT",
      "taf": "TAF ENVA 060500Z 0606/0706 29012KT 9999 FEW020 SCT050"
    },
    {
      "icao": "ENZV",
      "alert": "OK",
      "vis_m": 9999,
      "fzfg": false,
      "metar_trigger": false,
      "taf_trigger": false,
      "metar": "METAR ENZV 061120Z 33014KT 9999 SCT031 09/01 Q1019 NOSIG",
      "taf": "TAF ENZV 060500Z 0606/0706 30018KT 9999 FEW020 SCT040"
    },
    {
      "icao": "EPGD",
      "alert": "OK",
      "vis_m": 9999,
      "fzfg": false,
      "metar_trigger": false,
      "taf_trigger": false,
      "metar": "METAR EPGD 061100Z 27026G39KT 9999 BKN035 07/M01 Q1013",
      "taf": "TAF EPGD 061130Z 0612/0712 27025G35KT 9999 BKN030"
    },
    {
      "icao": "EPKK",
      "alert": "OK",
      "vis_m": 9999,
      "fzfg": false,
      "metar_trigger": false,
      "taf_trigger": false,
      "metar": "METAR EPKK 061100Z 30023G33KT 9999 SCT066 11/M07 Q1021",
      "taf": "TAF EPKK 061130Z 0612/0712 27015KT 9999 SCT040"
    },
    {
      "icao": "EPKT",
      "alert": "OK",
      "vis_m": 9999,
      "fzfg": false,
      "metar_trigger": false,
      "taf_trigger": false,
      "metar": "METAR EPKT 061100Z 30015G25KT 260V340 CAVOK 10/M05 Q1021",
      "taf": "TAF EPKT 061130Z 0612/0712 27015KT CAVOK"
    },
    {
      "icao": "EPLB",
      "alert": "OK",
      "vis_m": 9999,
      "fzfg": false,
      "metar_trigger": false,
      "taf_trigger": false,
      "metar": "METAR EPLB 061100Z 31018KT 9999 SCT031 SCT038CB 10/01 Q1017",
      "taf": "TAF EPLB 061130Z 0612/0712 27018KT 9999 BKN035"
    },
    {
      "icao": "EPMO",
      "alert": "OK",
      "vis_m": 9999,
      "fzfg": false,
      "metar_trigger": false,
      "taf_trigger": false,
      "metar": "METAR EPMO 061100Z 27026KT 9999 BKN044 10/M01 Q1017",
      "taf": "TAF EPMO 061130Z 0612/0712 27018KT 9999 SCT035"
    },
    {
      "icao": "EPPO",
      "alert": "OK",
      "vis_m": 9999,
      "fzfg": false,
      "metar_trigger": false,
      "taf_trigger": false,
      "metar": "METAR EPPO 061100Z 29018KT 9999 SCT048 10/M02 Q1021",
      "taf": "TAF EPPO 061130Z 0612/0712 28017G27KT 9999 SCT045"
    },
    {
      "icao": "EPRA",
      "alert": "OK",
      "vis_m": 9999,
      "fzfg": false,
      "metar_trigger": false,
      "taf_trigger": false,
      "metar": "METAR EPRA 061100Z 30018KT 270V330 9999 SCT045 10/M03 Q1018",
      "taf": "TAF EPRA 061130Z 0612/0621 29015KT 9999 SCT040"
    },
    {
      "icao": "EPRZ",
      "alert": "OK",
      "vis_m": 9999,
      "fzfg": false,
      "metar_trigger": false,
      "taf_trigger": false,
      "metar": "METAR EPRZ 061100Z 28012KT 9999 FEW036 09/02 Q1019",
      "taf": "TAF EPRZ 061130Z 0612/0712 28014KT CAVOK"
    },
    {
      "icao": "EPSC",
      "alert": "OK",
      "vis_m": 9999,
      "fzfg": false,
      "metar_trigger": false,
      "taf_trigger": false,
      "metar": "METAR EPSC 061100Z 27016KT 9999 FEW047 10/M02 Q1020",
      "taf": "TAF EPSC 061130Z 0612/0712 27015KT CAVOK"
    },
    {
      "icao": "EPSY",
      "alert": "OK",
      "vis_m": 9999,
      "fzfg": false,
      "metar_trigger": false,
      "taf_trigger": false,
      "metar": "METAR EPSY 061100Z 28013G32KT 220V320 9999 SCT045 09/M02 Q1013",
      "taf": "TAF EPSY 061130Z 0612/0621 27015G30KT 9999 SCT040"
    },
    {
      "icao": "EPWA",
      "alert": "OK",
      "vis_m": 9999,
      "fzfg": false,
      "metar_trigger": false,
      "taf_trigger": false,
      "metar": "METAR EPWA 061100Z 27024KT 9999 BKN047 10/M02 Q1017 NOSIG",
      "taf": "TAF EPWA 061130Z 0612/0712 27016KT 9999 BKN030"
    },
    {
      "icao": "EPWR",
      "alert": "OK",
      "vis_m": 9999,
      "fzfg": false,
      "metar_trigger": false,
      "taf_trigger": false,
      "metar": "METAR EPWR 061100Z 27021G33KT CAVOK 12/M02 Q1023",
      "taf": "TAF EPWR 061130Z 0612/0712 29020KT 9999 SCT045"
    },
    {
      "icao": "ESGG",
      "alert": "OK",
      "vis_m": 9999,
      "fzfg": false,
      "metar_trigger": false,
      "taf_trigger": false,
      "metar": "METAR ESGG 061120Z 29020KT 260V330 9999 FEW030 09/01 Q1009",
      "taf": "TAF ESGG 060830Z 0609/0709 28018G30KT 9999 SCT035"
    },
    {
      "icao": "ESKN",
      "alert": "OK",
      "vis_m": 9999,
      "fzfg": false,
      "metar_trigger": false,
      "taf_trigger": false,
      "metar": "METAR ESKN 061120Z 29020G32KT 270V340 9999 BKN049 08/M02 Q0999",
      "taf": "TAF ESKN 061130Z 0612/0712 30018G28KT 9999 BKN045"
    },
    {
      "icao": "ESMS",
      "alert": "OK",
      "vis_m": 9999,
      "fzfg": false,
      "metar_trigger": false,
      "taf_trigger": false,
      "metar": "METAR ESMS 061120Z 29027G39KT 9999 FEW035 09/01 Q1014",
      "taf": "TAF ESMS 061127Z 0612/0712 29024G40KT 9999 SCT030"
    },
    {
      "icao": "ESSA",
      "alert": "OK",
      "vis_m": 9999,
      "fzfg": false,
      "metar_trigger": false,
      "taf_trigger": false,
      "metar": "METAR ESSA 061120Z 30014KT 9999 BKN027 BKN036 05/M00 Q0997 NOSIG",
      "taf": "TAF ESSA 061130Z 0612/0712 30014G25KT 9999 BKN030"
    },
    {
      "icao": "EYKA",
      "alert": "OK",
      "vis_m": 9999,
      "fzfg": false,
      "metar_trigger": false,
      "taf_trigger": false,
      "metar": "METAR EYKA 061120Z 28019G30KT 9999 FEW026 SCT031 BKN041 07/02 Q1007",
      "taf": "TAF EYKA 061106Z 0612/0712 26015G25KT 8000 SCT015 BKN020"
    },
    {
      "icao": "EYPA",
      "alert": "OK",
      "vis_m": 9999,
      "fzfg": false,
      "metar_trigger": false,
      "taf_trigger": false,
      "metar": "METAR EYPA 061120Z 27011KT 210V320 CAVOK 05/02 Q1006",
      "taf": "TAF EYPA 061100Z 0612/0712 27012G22KT 8000 SCT025"
    },
    {
      "icao": "EYVI",
      "alert": "OK",
      "vis_m": 9999,
      "fzfg": false,
      "metar_trigger": false,
      "taf_trigger": false,
      "metar": "METAR EYVI 061120Z 28019KT 240V310 9999 SCT036 BKN044 06/M00 Q1007 TEMPO 28022G35KT 3000 SHGS FEW010 SCT025CB",
      "taf": "TAF EYVI 061102Z 0612/0712 26015G25KT 9000 FEW010 BKN030"
    },
    {
      "icao": "GCFV",
      "alert": "OK",
      "vis_m": 9999,
      "fzfg": false,
      "metar_trigger": false,
      "taf_trigger": false,
      "metar": "METAR GCFV 061100Z 28015G25KT 250V310 9999 FEW022 23/13 Q1016",
      "taf": "TAF GCFV 060800Z 0609/0709 30015KT CAVOK TX23/0614Z TN15/0706Z"
    },
    {
      "icao": "GCLP",
      "alert": "OK",
      "vis_m": 9999,
      "fzfg": false,
      "metar_trigger": false,
      "taf_trigger": false,
      "metar": "METAR GCLP 061100Z 04012KT 9999 FEW025 23/15 Q1017 NOSIG",
      "taf": "TAF GCLP 060800Z 0609/0709 03013KT 9999 FEW025 TX23/0614Z TN15/0706Z"
    },
    {
      "icao": "GCTS",
      "alert": "OK",
      "vis_m": 9999,
      "fzfg": false,
      "metar_trigger": false,
      "taf_trigger": false,
      "metar": "METAR GCTS 061100Z 10013KT 070V140 9999 FEW020 21/15 Q1017 NOSIG",
      "taf": "TAF GCTS 060800Z 0609/0709 17006KT CAVOK TX23/0614Z TN15/0706Z"
    },
    {
      "icao": "GMAD",
      "alert": "OK",
      "vis_m": 5000,
      "fzfg": false,
      "metar_trigger": false,
      "taf_trigger": false,
      "metar": "METAR GMAD 061100Z 09017KT 5000 -RA SCT026TCU FEW033CB BKN080 25/05 Q1018 NOSIG",
      "taf": "TAF GMAD 061100Z 0612/0718 08014KT 8000 SCT026 BKN080"
    },
    {
      "icao": "GMMN",
      "alert": "OK",
      "vis_m": 9999,
      "fzfg": false,
      "metar_trigger": false,
      "taf_trigger": false,
      "metar": "METAR GMMN 061100Z 33006KT 290V360 9999 FEW006 BKN080 23/16 Q1017 NOSIG",
      "taf": "TAF GMMN 061100Z 0612/0718 34010KT 9999 SCT016 BKN080"
    },
    {
      "icao": "GMMX",
      "alert": "OK",
      "vis_m": 8000,
      "fzfg": false,
      "metar_trigger": false,
      "taf_trigger": false,
      "metar": "METAR GMMX 061100Z 21017G29KT 170V250 8000 BKN100 27/04 Q1018 NOSIG",
      "taf": "TAF GMMX 061100Z 0612/0718 12006KT 8000 SCT100"
    },
    {
      "icao": "HEGN",
      "alert": "OK",
      "vis_m": 9999,
      "fzfg": false,
      "metar_trigger": false,
      "taf_trigger": false,
      "metar": "METAR HEGN 061100Z 01012KT CAVOK 26/04 Q1018 NOSIG",
      "taf": "TAF HEGN 061100Z 0612/0718 35010G24KT CAVOK"
    },
    {
      "icao": "HEMA",
      "alert": "OK",
      "vis_m": 9999,
      "fzfg": false,
      "metar_trigger": false,
      "taf_trigger": false,
      "metar": "METAR HEMA 061100Z 36014KT CAVOK 27/06 Q1018 NOSIG",
      "taf": "TAF HEMA 061100Z 0612/0718 35010G24KT CAVOK"
    },
    {
      "icao": "HESH",
      "alert": "OK",
      "vis_m": 9999,
      "fzfg": false,
      "metar_trigger": false,
      "taf_trigger": false,
      "metar": "METAR HESH 061100Z 35015KT CAVOK 27/07 Q1018 NOSIG",
      "taf": "TAF HESH 061100Z 0612/0718 02008G20KT CAVOK"
    },
    {
      "icao": "HESX",
      "alert": "OK",
      "vis_m": 9999,
      "fzfg": false,
      "metar_trigger": false,
      "taf_trigger": false,
      "metar": "METAR HESX 061100Z 32004KT CAVOK 23/08 Q1020 NOSIG",
      "taf": "TAF HESX 061100Z 0612/0718 31009KT 9999 FEW025"
    },
    {
      "icao": "LATI",
      "alert": "OK",
      "vis_m": 9999,
      "fzfg": false,
      "metar_trigger": false,
      "taf_trigger": false,
      "metar": "METAR LATI 061120Z VRB05KT CAVOK 21/07 Q1023 BECMG 30010KT",
      "taf": "TAF LATI 061100Z 0612/0712 29010KT CAVOK TX23/0612Z TN06/0704Z"
    },
    {
      "icao": "LBPD",
      "alert": "OK",
      "vis_m": 9999,
      "fzfg": false,
      "metar_trigger": false,
      "taf_trigger": false,
      "metar": "METAR LBPD 061130Z AUTO 34008KT 300V020 9999 NCD 21/04 Q1020 NOSIG",
      "taf": "TAF LBPD 061100Z 0612/0712 VRB03KT 9999 SCT080"
    },
    {
      "icao": "LBSF",
      "alert": "OK",
      "vis_m": 9999,
      "fzfg": false,
      "metar_trigger": false,
      "taf_trigger": false,
      "metar": "METAR LBSF 061130Z 32008KT 270V010 CAVOK 19/05 Q1021 NOSIG",
      "taf": "TAF LBSF 061100Z 0612/0712 32012KT 9999 SCT080"
    },
    {
      "icao": "LBWN",
      "alert": "OK",
      "vis_m": 9999,
      "fzfg": false,
      "metar_trigger": false,
      "taf_trigger": false,
      "metar": "METAR LBWN 061130Z 22007KT 170V260 9999 FEW020 22/07 Q1019 NOSIG",
      "taf": "TAF LBWN 061100Z 0612/0712 27010KT CAVOK"
    },
    {
      "icao": "LCLK",
      "alert": "OK",
      "vis_m": 9999,
      "fzfg": false,
      "metar_trigger": false,
      "taf_trigger": false,
      "metar": "METAR LCLK 061100Z 19011KT 170V230 9999 FEW025 FEW030TCU FEW035CB 20/14 Q1018 NOSIG RMK CB TO W",
      "taf": "TAF LCLK 061130Z 0612/0712 22016KT 9999 FEW025"
    },
    {
      "icao": "LCPH",
      "alert": "OK",
      "vis_m": 9999,
      "fzfg": false,
      "metar_trigger": false,
      "taf_trigger": false,
      "metar": "METAR LCPH 061100Z 31015KT 250V320 9999 FEW025TCU 19/13 Q1018 NOSIG",
      "taf": "TAF LCPH 061130Z 0612/0712 29014KT 9999 FEW025"
    },
    {
      "icao": "LEAL",
      "alert": "OK",
      "vis_m": 9999,
      "fzfg": false,
      "metar_trigger": false,
      "taf_trigger": false,
      "metar": "METAR LEAL 061100Z 08011KT CAVOK 19/10 Q1025 NOSIG",
      "taf": "TAF LEAL 061100Z 0612/0712 08012KT CAVOK TX21/0612Z TN10/0706Z"
    },
    {
      "icao": "LEBB",
      "alert": "OK",
      "vis_m": 9999,
      "fzfg": false,
      "metar_trigger": false,
      "taf_trigger": false,
      "metar": "METAR LEBB 061100Z 14007KT 100V190 CAVOK 27/11 Q1019 NOSIG",
      "taf": "TAF LEBB 061100Z 0612/0712 13009KT CAVOK TX29/0615Z TN16/0706Z"
    },
    {
      "icao": "LEBL",
      "alert": "OK",
      "vis_m": 9999,
      "fzfg": false,
      "metar_trigger": false,
      "taf_trigger": false,
      "metar": "METAR LEBL 061100Z 22015KT CAVOK 19/12 Q1025 NOSIG",
      "taf": "TAF LEBL 061100Z 0612/0712 21010KT CAVOK TX19/0612Z TN10/0705Z"
    },
    {
      "icao": "LECH",
      "alert": "OK",
      "vis_m": 9999,
      "fzfg": false,
      "metar_trigger": false,
      "taf_trigger": false,
      "metar": "METAR LECH 061100Z AUTO 25004KT CAVOK 19/06 Q1026",
      "taf": "TAF LECH 061100Z 0612/0712 VRB03KT CAVOK TX22/0614Z TN09/0706Z"
    },
    {
      "icao": "LEMD",
      "alert": "OK",
      "vis_m": 9999,
      "fzfg": false,
      "metar_trigger": false,
      "taf_trigger": false,
      "metar": "METAR LEMD 061100Z 16004KT CAVOK 21/03 Q1023 NOSIG",
      "taf": "TAF LEMD 061100Z 0612/0718 15010KT CAVOK TX27/0616Z TN09/0706Z"
    },
    {
      "icao": "LEMG",
      "alert": "OK",
      "vis_m": 9999,
      "fzfg": false,
      "metar_trigger": false,
      "taf_trigger": false,
      "metar": "METAR LEMG 061100Z 13005KT 060V190 CAVOK 21/07 Q1023 NOSIG",
      "taf": "TAF LEMG 061100Z 0612/0712 14010KT CAVOK TX22/0614Z TN13/0706Z"
    },
    {
      "icao": "LEVC",
      "alert": "OK",
      "vis_m": 9999,
      "fzfg": false,
      "metar_trigger": false,
      "taf_trigger": false,
      "metar": "METAR LEVC 061100Z 10006KT 050V180 CAVOK 20/07 Q1026 NOSIG",
      "taf": "TAF LEVC 061100Z 0612/0712 09010KT CAVOK TX22/0614Z TN08/0706Z"
    },
    {
      "icao": "LEXJ",
      "alert": "OK",
      "vis_m": 9999,
      "fzfg": false,
      "metar_trigger": false,
      "taf_trigger": false,
      "metar": "METAR LEXJ 061100Z 22008KT 190V260 CAVOK 27/10 Q1017",
      "taf": "TAF LEXJ 060800Z 0609/0709 18009KT 9999 FEW050 TX28/0614Z TN16/0706Z"
    },
    {
      "icao": "LEZG",
      "alert": "OK",
      "vis_m": 9999,
      "fzfg": false,
      "metar_trigger": false,
      "taf_trigger": false,
      "metar": "METAR LEZG 061100Z 09009KT CAVOK 21/05 Q1023 NOSIG",
      "taf": "TAF LEZG 061100Z 0612/0712 10012KT CAVOK TX28/0614Z TN10/0706Z"
    },
    {
      "icao": "LEZL",
      "alert": "OK",
      "vis_m": 9999,
      "fzfg": false,
      "metar_trigger": false,
      "taf_trigger": false,
      "metar": "METAR LEZL 061100Z 31003KT 210V020 CAVOK 25/07 Q1019 NOSIG",
      "taf": "TAF LEZL 060800Z 0609/0709 06008KT CAVOK TX29/0615Z TN11/0706Z"
    },
    {
      "icao": "LFBD",
      "alert": "OK",
      "vis_m": 9999,
      "fzfg": false,
      "metar_trigger": false,
      "taf_trigger": false,
      "metar": "METAR LFBD 061100Z AUTO 13011KT 090V160 CAVOK 25/11 Q1021 NOSIG",
      "taf": "TAF LFBD 060500Z 0606/0712 03005KT CAVOK TX29/0614Z TN10/0606Z"
    },
    {
      "icao": "LFLL",
      "alert": "OK",
      "vis_m": 9999,
      "fzfg": false,
      "metar_trigger": false,
      "taf_trigger": false,
      "metar": "METAR LFLL 061100Z VRB02KT CAVOK 19/09 Q1026 NOSIG",
      "taf": "TAF LFLL 060500Z 0606/0712 VRB02KT CAVOK"
    },
    {
      "icao": "LFLS",
      "alert": "OK",
      "vis_m": 9999,
      "fzfg": false,
      "metar_trigger": false,
      "taf_trigger": false,
      "metar": "METAR LFLS 061100Z AUTO 33003KT 250V030 CAVOK 19/09 Q1025 NOSIG",
      "taf": "TAF LFLS 060800Z 0609/0709 24003KT CAVOK"
    },
    {
      "icao": "LFMN",
      "alert": "OK",
      "vis_m": 9999,
      "fzfg": false,
      "metar_trigger": false,
      "taf_trigger": false,
      "metar": "METAR LFMN 061100Z 12006KT 9999 FEW023 17/12 Q1026 NOSIG",
      "taf": "TAF LFMN 060800Z 0609/0715 11008KT 9999 FEW020"
    },
    {
      "icao": "LFOB",
      "alert": "OK",
      "vis_m": 9999,
      "fzfg": false,
      "metar_trigger": false,
      "taf_trigger": false,
      "metar": "METAR LFOB 061100Z AUTO 13004KT 080V190 CAVOK 13/06 Q1028 NOSIG",
      "taf": "TAF LFOB 060500Z 0606/0706 VRB03KT CAVOK"
    },
    {
      "icao": "LFPO",
      "alert": "OK",
      "vis_m": 9999,
      "fzfg": false,
      "metar_trigger": false,
      "taf_trigger": false,
      "metar": "METAR LFPO 061100Z 06007KT 030V090 CAVOK 15/05 Q1027 NOSIG",
      "taf": "TAF LFPO 061100Z 0612/0718 10007KT CAVOK"
    },
    {
      "icao": "LFSB",
      "alert": "OK",
      "vis_m": 9999,
      "fzfg": false,
      "metar_trigger": false,
      "taf_trigger": false,
      "metar": "METAR LFSB 061100Z AUTO 35006KT 290V040 CAVOK 17/08 Q1026 NOSIG",
      "taf": "TAF LFSB 061105Z 0612/0712 35006KT 9999 FEW040"
    },
    {
      "icao": "LGAV",
      "alert": "OK",
      "vis_m": 9999,
      "fzfg": false,
      "metar_trigger": false,
      "taf_trigger": false,
      "metar": "METAR LGAV 061120Z 06012KT 030V090 9999 FEW025 21/04 Q1022 NOSIG",
      "taf": "TAF LGAV 061100Z 0612/0712 05010KT 9999 FEW020"
    },
    {
      "icao": "LGTS",
      "alert": "OK",
      "vis_m": 9999,
      "fzfg": false,
      "metar_trigger": false,
      "taf_trigger": false,
      "metar": "METAR LGTS 061120Z 30005KT 9999 FEW020 20/08 Q1021 NOSIG",
      "taf": "TAF LGTS 061100Z 0612/0712 VRB03KT 9999 FEW025"
    },
    {
      "icao": "LHBP",
      "alert": "OK",
      "vis_m": 9999,
      "fzfg": false,
      "metar_trigger": false,
      "taf_trigger": false,
      "metar": "METAR LHBP 061100Z 31022G32KT CAVOK 19/04 Q1022 NOSIG",
      "taf": "TAF LHBP 061115Z 0612/0712 31020G35KT CAVOK"
    },
    {
      "icao": "LHDC",
      "alert": "OK",
      "vis_m": 9999,
      "fzfg": false,
      "metar_trigger": false,
      "taf_trigger": false,
      "metar": "METAR LHDC 061045Z AUTO 28021KT CAVOK 20/04 Q1019 NOSIG",
      "taf": "TAF LHDC 061115Z 0612/0621 29017G30KT CAVOK"
    },
    {
      "icao": "LIBD",
      "alert": "OK",
      "vis_m": 9999,
      "fzfg": false,
      "metar_trigger": false,
      "taf_trigger": false,
      "metar": "METAR LIBD 061120Z 05005KT 010V080 CAVOK 20/07 Q1024",
      "taf": "TAF LIBD 061100Z 0612/0712 05010KT CAVOK"
    },
    {
      "icao": "LIBG",
      "alert": "OK",
      "vis_m": 9999,
      "fzfg": false,
      "metar_trigger": false,
      "taf_trigger": false,
      "metar": "METAR LIBG 061050Z 23004KT 160V270 CAVOK 22/09 Q1024",
      "taf": "TAF LIBG 061100Z 0612/0621 23006KT CAVOK"
    },
    {
      "icao": "LIBP",
      "alert": "OK",
      "vis_m": 9999,
      "fzfg": false,
      "metar_trigger": false,
      "taf_trigger": false,
      "metar": "METAR LIBP 061120Z AUTO 05009KT 9999 NCD 21/07 Q1023",
      "taf": "TAF LIBP 061100Z 0612/0712 05010KT CAVOK"
    },
    {
      "icao": "LIBR",
      "alert": "OK",
      "vis_m": 9999,
      "fzfg": false,
      "metar_trigger": false,
      "taf_trigger": false,
      "metar": "METAR LIBR 061120Z 07005KT CAVOK 18/05 Q1024",
      "taf": "TAF LIBR 061100Z 0612/0712 04010KT CAVOK"
    },
    {
      "icao": "LICA",
      "alert": "OK",
      "vis_m": 9999,
      "fzfg": false,
      "metar_trigger": false,
      "taf_trigger": false,
      "metar": "METAR LICA 061120Z AUTO 24011KT 210V270 9999 BKN016/// 17/14 Q1026",
      "taf": "TAF LICA 061100Z 0612/0712 26010KT 9999 SCT015"
    },
    {
      "icao": "LICC",
      "alert": "OK",
      "vis_m": 9999,
      "fzfg": false,
      "metar_trigger": false,
      "taf_trigger": false,
      "metar": "METAR LICC 061120Z 07008KT 050V110 CAVOK 19/15 Q1025",
      "taf": "TAF LICC 061100Z 0612/0712 08010KT CAVOK"
    },
    {
      "icao": "LICJ",
      "alert": "OK",
      "vis_m": 9999,
      "fzfg": false,
      "metar_trigger": false,
      "taf_trigger": false,
      "metar": "METAR LICJ 061120Z 35005KT CAVOK 16/11 Q1027",
      "taf": "TAF LICJ 061100Z 0612/0712 VRB05KT CAVOK"
    },
    {
      "icao": "LIMC",
      "alert": "OK",
      "vis_m": 9999,
      "fzfg": false,
      "metar_trigger": false,
      "taf_trigger": false,
      "metar": "METAR LIMC 061120Z 16005KT 080V230 CAVOK 22/09 Q1023 NOSIG",
      "taf": "TAF LIMC 061100Z 0612/0718 18006KT CAVOK"
    },
    {
      "icao": "LIME",
      "alert": "OK",
      "vis_m": 9999,
      "fzfg": false,
      "metar_trigger": false,
      "taf_trigger": false,
      "metar": "METAR LIME 061120Z 22004KT 170V260 CAVOK 20/08 Q1023 NOSIG",
      "taf": "TAF LIME 061100Z 0612/0712 VRB05KT CAVOK"
    },
    {
      "icao": "LIMF",
      "alert": "OK",
      "vis_m": 9999,
      "fzfg": false,
      "metar_trigger": false,
      "taf_trigger": false,
      "metar": "METAR LIMF 061120Z 07003KT 360V150 CAVOK 20/07 Q1023",
      "taf": "TAF LIMF 061100Z 0612/0712 VRB05KT CAVOK"
    },
    {
      "icao": "LIMJ",
      "alert": "OK",
      "vis_m": 9999,
      "fzfg": false,
      "metar_trigger": false,
      "taf_trigger": false,
      "metar": "METAR LIMJ 061120Z 15007KT 9999 FEW023 SCT032 16/13 Q1026",
      "taf": "TAF LIMJ 061100Z 0612/0712 18012KT 9999 BKN020"
    },
    {
      "icao": "LIPE",
      "alert": "OK",
      "vis_m": 9999,
      "fzfg": false,
      "metar_trigger": false,
      "taf_trigger": false,
      "metar": "METAR LIPE 061120Z 28005KT 220V340 CAVOK 21/08 Q1023",
      "taf": "TAF LIPE 061100Z 0612/0712 VRB05KT CAVOK"
    },
    {
      "icao": "LIPH",
      "alert": "OK",
      "vis_m": 9999,
      "fzfg": false,
      "metar_trigger": false,
      "taf_trigger": false,
      "metar": "METAR LIPH 061120Z VRB03KT CAVOK 21/07 Q1023",
      "taf": "TAF LIPH 061100Z 0612/0712 VRB05KT CAVOK"
    },
    {
      "icao": "LIPQ",
      "alert": "OK",
      "vis_m": 9999,
      "fzfg": false,
      "metar_trigger": false,
      "taf_trigger": false,
      "metar": "METAR LIPQ 061120Z AUTO 22004KT 140V280 9999 NCD 22/05 Q1023",
      "taf": "TAF LIPQ 061100Z 0612/0712 20010KT CAVOK"
    },
    {
      "icao": "LIPR",
      "alert": "OK",
      "vis_m": 9999,
      "fzfg": false,
      "metar_trigger": false,
      "taf_trigger": false,
      "metar": "METAR LIPR 061120Z 04004KT CAVOK 19/07 Q1024",
      "taf": "TAF LIPR 061100Z 0612/0712 07010KT CAVOK"
    },
    {
      "icao": "LIPX",
      "alert": "OK",
      "vis_m": 9999,
      "fzfg": false,
      "metar_trigger": false,
      "taf_trigger": false,
      "metar": "METAR LIPX 061120Z VRB04KT CAVOK 21/08 Q1023",
      "taf": "TAF LIPX 061100Z 0612/0712 VRB05KT CAVOK"
    },
    {
      "icao": "LIPY",
      "alert": "OK",
      "vis_m": 9999,
      "fzfg": false,
      "metar_trigger": false,
      "taf_trigger": false,
      "metar": "METAR LIPY 061120Z AUTO 04007KT 9999 NCD 19/06 Q1023",
      "taf": "TAF LIPY 061100Z 0612/0712 03010KT CAVOK"
    },
    {
      "icao": "LIPZ",
      "alert": "OK",
      "vis_m": 9999,
      "fzfg": false,
      "metar_trigger": false,
      "taf_trigger": false,
      "metar": "METAR LIPZ 061120Z 17004KT 130V200 CAVOK 19/07 Q1023 NOSIG",
      "taf": "TAF LIPZ 061100Z 0612/0718 15010KT CAVOK"
    },
    {
      "icao": "LIRF",
      "alert": "OK",
      "vis_m": 9999,
      "fzfg": false,
      "metar_trigger": false,
      "taf_trigger": false,
      "metar": "METAR LIRF 061120Z 27007KT 230V290 CAVOK 19/11 Q1026 NOSIG",
      "taf": "TAF LIRF 061100Z 0612/0718 27010KT CAVOK"
    },
    {
      "icao": "LIRN",
      "alert": "OK",
      "vis_m": 9999,
      "fzfg": false,
      "metar_trigger": false,
      "taf_trigger": false,
      "metar": "METAR LIRN 061120Z 20008KT 160V230 CAVOK 18/10 Q1026 NOSIG",
      "taf": "TAF LIRN 061100Z 0612/0712 21010KT 9999 FEW016"
    },
    {
      "icao": "LIRP",
      "alert": "OK",
      "vis_m": 9999,
      "fzfg": false,
      "metar_trigger": false,
      "taf_trigger": false,
      "metar": "METAR LIRP 061115Z 26008KT 9999 FEW025 19/10 Q1026 NOSIG",
      "taf": "TAF LIRP 061100Z 0612/0712 24007KT CAVOK"
    },
    {
      "icao": "LIRZ",
      "alert": "OK",
      "vis_m": 9999,
      "fzfg": false,
      "metar_trigger": false,
      "taf_trigger": false,
      "metar": "METAR LIRZ 061120Z AUTO 26009KT 240V300 9999 NCD 21/02 Q1025",
      "taf": "TAF LIRZ 061100Z 0612/0712 VRB04KT CAVOK"
    },
    {
      "icao": "LJLJ",
      "alert": "OK",
      "vis_m": 9999,
      "fzfg": false,
      "metar_trigger": false,
      "taf_trigger": false,
      "metar": "METAR LJLJ 061100Z 08004KT 360V100 9999 FEW060 21/05 Q1022 NOSIG",
      "taf": "TAF LJLJ 061100Z 0612/0712 VRB02KT 9999 FEW060"
    },
    {
      "icao": "LKMT",
      "alert": "OK",
      "vis_m": 9999,
      "fzfg": false,
      "metar_trigger": false,
      "taf_trigger": false,
      "metar": "METAR LKMT 061100Z 28017G27KT 240V330 CAVOK 13/M03 Q1023 NOSIG",
      "taf": "TAF LKMT 061100Z 0612/0712 33012KT CAVOK"
    },
    {
      "icao": "LKPR",
      "alert": "OK",
      "vis_m": 9999,
      "fzfg": false,
      "metar_trigger": false,
      "taf_trigger": false,
      "metar": "METAR LKPR 061100Z 31015KT CAVOK 12/M05 Q1025 NOSIG",
      "taf": "TAF LKPR 061100Z 0612/0718 29014KT CAVOK"
    },
    {
      "icao": "LLBG",
      "alert": "OK",
      "vis_m": 9999,
      "fzfg": false,
      "metar_trigger": false,
      "taf_trigger": false,
      "metar": "METAR LLBG 061120Z 30011KT 9999 SCT035 21/10 Q1020 NOSIG",
      "taf": "TAF LLBG 061110Z 0612/0712 28012KT 9999 SCT035 TX21/0612Z TN10/0703Z"
    },
    {
      "icao": "LMML",
      "alert": "OK",
      "vis_m": 9999,
      "fzfg": false,
      "metar_trigger": false,
      "taf_trigger": false,
      "metar": "METAR LMML 061115Z 28013KT 260V320 9999 FEW035 20/10 Q1026 NOSIG",
      "taf": "TAF LMML 061100Z 0612/0712 28008KT 9999 FEW015"
    },
    {
      "icao": "LOWW",
      "alert": "OK",
      "vis_m": 9999,
      "fzfg": false,
      "metar_trigger": false,
      "taf_trigger": false,
      "metar": "METAR LOWW 061120Z 34007KT 300V010 9999 FEW048 BKN050 15/04 Q1024 NOSIG",
      "taf": "TAF LOWW 061115Z 0612/0718 32012KT 9999 SCT050 TX17/0613Z TN05/0704Z"
    },
    {
      "icao": "LPFR",
      "alert": "OK",
      "vis_m": 9999,
      "fzfg": false,
      "metar_trigger": false,
      "taf_trigger": false,
      "metar": "METAR LPFR 061100Z 09010KT CAVOK 19/11 Q1018",
      "taf": "TAF LPFR 061100Z 0612/0712 12013KT 9999 BKN040"
    },
    {
      "icao": "LPMA",
      "alert": "OK",
      "vis_m": 9999,
      "fzfg": false,
      "metar_trigger": false,
      "taf_trigger": false,
      "metar": "METAR LPMA 061100Z 09003KT 040V120 9999 SCT014 BKN030 18/13 Q1015",
      "taf": "TAF LPMA 061100Z 0612/0712 VRB05KT 9999 SCT014 SCT030"
    },
    {
      "icao": "LPPR",
      "alert": "OK",
      "vis_m": 9999,
      "fzfg": false,
      "metar_trigger": false,
      "taf_trigger": false,
      "metar": "METAR LPPR 061100Z 12009KT 090V150 CAVOK 26/09 Q1015",
      "taf": "TAF LPPR 061100Z 0612/0712 14010KT CAVOK"
    },
    {
      "icao": "LPPS",
      "alert": "OK",
      "vis_m": 9999,
      "fzfg": false,
      "metar_trigger": false,
      "taf_trigger": false,
      "metar": "METAR LPPS 061100Z 29014KT 9999 SCT014 18/12 Q1016",
      "taf": "TAF LPPS 061100Z 0612/0718 29013KT 9999 SCT014 BKN030"
    },
    {
      "icao": "LPPT",
      "alert": "OK",
      "vis_m": 9999,
      "fzfg": false,
      "metar_trigger": false,
      "taf_trigger": false,
      "metar": "METAR LPPT 061100Z 09006KT 050V120 9999 FEW040 18/09 Q1017",
      "taf": "TAF LPPT 061100Z 0612/0718 11008KT 9999 SCT035"
    },
    {
      "icao": "LQBK",
      "alert": "OK",
      "vis_m": 9999,
      "fzfg": false,
      "metar_trigger": false,
      "taf_trigger": false,
      "metar": "METAR LQBK 061100Z VRB03KT CAVOK 22/02 Q1023 NOSIG",
      "taf": "TAF LQBK 061100Z 0612/0712 06006KT CAVOK TX24/0614Z TN08/0704Z"
    },
    {
      "icao": "LQSA",
      "alert": "OK",
      "vis_m": 9999,
      "fzfg": false,
      "metar_trigger": false,
      "taf_trigger": false,
      "metar": "METAR LQSA 061100Z VRB02KT CAVOK 19/03 Q1023 NOSIG",
      "taf": "TAF LQSA 061100Z 0612/0712 VRB02KT CAVOK TX23/0614Z TN03/0704Z"
    },
    {
      "icao": "LQTZ",
      "alert": "OK",
      "vis_m": 9999,
      "fzfg": false,
      "metar_trigger": false,
      "taf_trigger": false,
      "metar": "METAR LQTZ 061100Z 24003KT 150V290 CAVOK 22/04 Q1022",
      "taf": "TAF LQTZ 061100Z 0612/0712 03005KT CAVOK TX24/0613Z TN06/0704Z"
    },
    {
      "icao": "LRBC",
      "alert": "OK",
      "vis_m": 9999,
      "fzfg": false,
      "metar_trigger": false,
      "taf_trigger": false,
      "metar": "METAR LRBC 061100Z 26012KT 9999 FEW049 22/07 Q1015",
      "taf": "TAF LRBC 061100Z 0612/0621 27012KT 9999 FEW045"
    },
    {
      "icao": "LRBS",
      "alert": "OK",
      "vis_m": 9999,
      "fzfg": false,
      "metar_trigger": false,
      "taf_trigger": false,
      "metar": "METAR LRBS 061100Z 25012KT 210V290 CAVOK 21/09 Q1019 NOSIG",
      "taf": "TAF LRBS 061100Z 0612/0712 25012KT CAVOK"
    },
    {
      "icao": "LRBV",
      "alert": "OK",
      "vis_m": 9999,
      "fzfg": false,
      "metar_trigger": false,
      "taf_trigger": false,
      "metar": "METAR LRBV 061100Z 29012KT CAVOK 19/05 Q1019",
      "taf": "TAF LRBV 061100Z 0612/0621 29014KT CAVOK"
    },
    {
      "icao": "LRCL",
      "alert": "OK",
      "vis_m": 9999,
      "fzfg": false,
      "metar_trigger": false,
      "taf_trigger": false,
      "metar": "METAR LRCL 061100Z 26019KT 9999 SCT035 20/04 Q1018",
      "taf": "TAF LRCL 061100Z 0612/0621 28016KT 9999 SCT035"
    },
    {
      "icao": "LRCV",
      "alert": "OK",
      "vis_m": 9999,
      "fzfg": false,
      "metar_trigger": false,
      "taf_trigger": false,
      "metar": "METAR LRCV 061100Z 26008KT 230V290 CAVOK 21/09 Q1020",
      "taf": "TAF LRCV 061100Z 0612/0621 26008KT CAVOK"
    },
    {
      "icao": "LRIA",
      "alert": "OK",
      "vis_m": 9999,
      "fzfg": false,
      "metar_trigger": false,
      "taf_trigger": false,
      "metar": "METAR LRIA 061100Z COR 25012KT 210V310 CAVOK 23/06 Q1014",
      "taf": ""
    },
    {
      "icao": "LROP",
      "alert": "OK",
      "vis_m": 9999,
      "fzfg": false,
      "metar_trigger": false,
      "taf_trigger": false,
      "metar": "METAR LROP 061100Z 25013KT CAVOK 23/04 Q1018 NOSIG",
      "taf": "TAF LROP 061100Z 0612/0712 25012KT CAVOK"
    },
    {
      "icao": "LRSB",
      "alert": "OK",
      "vis_m": 9999,
      "fzfg": false,
      "metar_trigger": false,
      "taf_trigger": false,
      "metar": "METAR LRSB 061100Z 28014KT 9999 SCT085 19/07 Q1020 NOSIG",
      "taf": "TAF LRSB 061100Z 0612/0712 30012KT 9999 SCT065"
    },
    {
      "icao": "LRSM",
      "alert": "OK",
      "vis_m": 9999,
      "fzfg": false,
      "metar_trigger": false,
      "taf_trigger": false,
      "metar": "METAR LRSM 061100Z 35013KT CAVOK 20/08 Q1018",
      "taf": "TAF LRSM 061100Z 0612/0621 34020G30KT CAVOK"
    },
    {
      "icao": "LRSV",
      "alert": "OK",
      "vis_m": 9999,
      "fzfg": false,
      "metar_trigger": false,
      "taf_trigger": false,
      "metar": "METAR LRSV 061100Z 26017KT 9999 FEW040CB 18/06 Q1014",
      "taf": "TAF LRSV 061100Z 0612/0621 32016KT 9999 SCT040"
    },
    {
      "icao": "LRTM",
      "alert": "OK",
      "vis_m": 9999,
      "fzfg": false,
      "metar_trigger": false,
      "taf_trigger": false,
      "metar": "METAR LRTM 061100Z 22011KT 9999 FEW040 20/09 Q1019",
      "taf": "TAF LRTM 061100Z 0612/0621 22010KT 9999 SCT040"
    },
    {
      "icao": "LRTR",
      "alert": "OK",
      "vis_m": 9999,
      "fzfg": false,
      "metar_trigger": false,
      "taf_trigger": false,
      "metar": "METAR LRTR 061100Z 28007KT 240V330 CAVOK 21/11 Q1022",
      "taf": "TAF LRTR 061100Z 0612/0712 26010KT CAVOK"
    },
    {
      "icao": "LTAC",
      "alert": "OK",
      "vis_m": 9999,
      "fzfg": false,
      "metar_trigger": false,
      "taf_trigger": false,
      "metar": "METAR LTAC 061120Z VRB03KT 9999 SCT040 15/M02 Q1020 NOSIG RMK RWY21C 12004KT 010V180 RWY03L VRB03KT RWY21R 06005KT 350V120 RWY03R 09005KT 340V140 RWY21L 16005KT 100V250",
      "taf": "TAF LTAC 061040Z 0612/0712 VRB02KT 9999 SCT040"
    },
    {
      "icao": "LTFM",
      "alert": "OK",
      "vis_m": 9999,
      "fzfg": false,
      "metar_trigger": false,
      "taf_trigger": false,
      "metar": "METAR LTFM 061120Z 05009KT 020V080 CAVOK 16/01 Q1021 NOSIG RMK RWY17L 07008KT RWY34L 06009KT 020V080 RWY16R 07009KT RWY36 06010KT RWY18 07008KT 040V100",
      "taf": "TAF LTFM 061040Z 0612/0718 10008KT CAVOK"
    },
    {
      "icao": "LUKK",
      "alert": "OK",
      "vis_m": 9999,
      "fzfg": false,
      "metar_trigger": false,
      "taf_trigger": false,
      "metar": "METAR LUKK 061100Z 26013KT CAVOK 23/04 Q1014 NOSIG",
      "taf": "TAF LUKK 061115Z 0612/0712 27014KT CAVOK"
    },
    {
      "icao": "LWOH",
      "alert": "OK",
      "vis_m": 9999,
      "fzfg": false,
      "metar_trigger": false,
      "taf_trigger": false,
      "metar": "METAR LWOH 061120Z 15007KT 9999 FEW040 14/07 Q1023",
      "taf": "TAF LWOH 061130Z 0612/0712 17008KT 9999 FEW040"
    },
    {
      "icao": "LWSK",
      "alert": "OK",
      "vis_m": 9999,
      "fzfg": false,
      "metar_trigger": false,
      "taf_trigger": false,
      "metar": "METAR LWSK 061050Z VRB02KT CAVOK 22/07 Q1022 NOSIG",
      "taf": "TAF LWSK 061130Z 0612/0712 VRB02KT CAVOK"
    },
    {
      "icao": "LYBE",
      "alert": "OK",
      "vis_m": 9999,
      "fzfg": false,
      "metar_trigger": false,
      "taf_trigger": false,
      "metar": "METAR LYBE 061100Z 28006KT 220V340 CAVOK 21/09 Q1022 NOSIG",
      "taf": "TAF LYBE 061100Z 0612/0712 34006KT CAVOK TX23/0613Z TN09/0705Z"
    },
    {
      "icao": "LYNI",
      "alert": "OK",
      "vis_m": 9999,
      "fzfg": false,
      "metar_trigger": false,
      "taf_trigger": false,
      "metar": "METAR LYNI 061100Z VRB04KT CAVOK 20/08 Q1022 NOSIG",
      "taf": "TAF LYNI 061100Z 0612/0712 31006KT CAVOK TX23/0613Z TN07/0705Z"
    },
    {
      "icao": "LYPG",
      "alert": "OK",
      "vis_m": 9999,
      "fzfg": false,
      "metar_trigger": false,
      "taf_trigger": false,
      "metar": "METAR LYPG 061100Z 13009KT CAVOK 21/04 Q1023 NOSIG",
      "taf": "TAF LYPG 061100Z 0612/0712 18009KT CAVOK TX23/0612Z TN08/0704Z"
    },
    {
      "icao": "LZIB",
      "alert": "OK",
      "vis_m": 9999,
      "fzfg": false,
      "metar_trigger": false,
      "taf_trigger": false,
      "metar": "METAR LZIB 061100Z 32012KT 290V350 CAVOK 15/03 Q1024 NOSIG",
      "taf": "TAF LZIB 061115Z 0612/0712 33014KT CAVOK"
    },
    {
      "icao": "LZKZ",
      "alert": "OK",
      "vis_m": 9999,
      "fzfg": false,
      "metar_trigger": false,
      "taf_trigger": false,
      "metar": "METAR LZKZ 061100Z 17009KT 140V200 CAVOK 19/M02 Q1018 NOSIG",
      "taf": "TAF LZKZ 061115Z 0612/0712 01009KT CAVOK"
    },
    {
      "icao": "LZTT",
      "alert": "OK",
      "vis_m": 9999,
      "fzfg": false,
      "metar_trigger": false,
      "taf_trigger": false,
      "metar": "METAR LZTT 061100Z 28014KT 240V310 9999 SCT053 12/M04 Q1019 NOSIG",
      "taf": "TAF LZTT 061115Z 0612/0712 27016KT 9999 SCT053"
    },
    {
      "icao": "OEJN",
      "alert": "OK",
      "vis_m": 9999,
      "fzfg": false,
      "metar_trigger": false,
      "taf_trigger": false,
      "metar": "METAR OEJN 061100Z 27012KT CAVOK 30/17 Q1012 NOSIG",
      "taf": "TAF OEJN 061100Z 0612/0718 30015KT CAVOK"
    },
    {
      "icao": "OEMA",
      "alert": "OK",
      "vis_m": 9999,
      "fzfg": false,
      "metar_trigger": false,
      "taf_trigger": false,
      "metar": "METAR OEMA 061100Z VRB03KT CAVOK 31/M01 Q1017 NOSIG",
      "taf": "TAF OEMA 061100Z 0612/0718 34012KT 7000 NSC"
    },
    {
      "icao": "OJAI",
      "alert": "OK",
      "vis_m": null,
      "fzfg": false,
      "metar_trigger": false,
      "taf_trigger": false,
      "metar": "",
      "taf": "TAF OJAI 061100Z 0612/0718 28012KT 5000 HZ BKN030"
    },
    {
      "icao": "OMAA",
      "alert": "OK",
      "vis_m": null,
      "fzfg": false,
      "metar_trigger": false,
      "taf_trigger": false,
      "metar": "",
      "taf": ""
    },
    {
      "icao": "OMDB",
      "alert": "OK",
      "vis_m": null,
      "fzfg": false,
      "metar_trigger": false,
      "taf_trigger": false,
      "metar": "",
      "taf": ""
    },
    {
      "icao": "UAAA",
      "alert": "OK",
      "vis_m": 9999,
      "fzfg": false,
      "metar_trigger": false,
      "taf_trigger": false,
      "metar": "METAR UAAA 061100Z 34005MPS 320V020 9999 FEW050CB SCT200 22/09 Q1006 NOSIG",
      "taf": "TAF UAAA 061100Z 0612/0712 02003MPS 9999 FEW050CB SCT100 TX23/0710Z TN11/0701Z"
    },
    {
      "icao": "UBBB",
      "alert": "OK",
      "vis_m": 9999,
      "fzfg": false,
      "metar_trigger": false,
      "taf_trigger": false,
      "metar": "METAR UBBB 061100Z 34026KT 9999 FEW060CB 13/09 Q1013 WS R35 NOSIG",
      "taf": "TAF UBBB 061057Z 0612/0712 33024G34KT 9999 SCT015 FEW040CB TX13/0612Z TN10/0701Z"
    },
    {
      "icao": "UDSG",
      "alert": "OK",
      "vis_m": 9999,
      "fzfg": false,
      "metar_trigger": false,
      "taf_trigger": false,
      "metar": "METAR UDSG 061100Z 34010KT 310V020 9999 FEW046 12/M01 Q1018 NOSIG",
      "taf": "TAF UDSG 061100Z 0612/0712 VRB06KT 9999 FEW050"
    },
    {
      "icao": "UDYZ",
      "alert": "OK",
      "vis_m": 9999,
      "fzfg": false,
      "metar_trigger": false,
      "taf_trigger": false,
      "metar": "METAR UDYZ 061100Z 21005KT 120V270 9999 FEW046 18/01 Q1015 NOSIG",
      "taf": "TAF UDYZ 061100Z 0612/0712 04006KT 9999 FEW040"
    },
    {
      "icao": "UGKO",
      "alert": "OK",
      "vis_m": 9999,
      "fzfg": false,
      "metar_trigger": false,
      "taf_trigger": false,
      "metar": "METAR UGKO 061100Z 27014KT 240V310 9999 SCT018 BKN025 15/10 Q1020 NOSIG",
      "taf": "TAF UGKO 061100Z 0612/0712 27007KT 9999 SCT030 BKN050 TX20/0712Z TN08/0703Z"
    }
  ]
}