{
  "ts_utc": "2025-12-31T05:57:01Z",
  "threshold_m": 150,
  "source": "stations_override.txt (ICAO list) + aviationweather.gov (METAR/TAF raw)",
  "station_count": 159,
  "stations": [
    {
      "icao": "BIKF",
      "alert": "OK",
      "vis_m": 4000,
      "fzfg": false,
      "metar_trigger": false,
      "taf_trigger": false,
      "metar": "METAR BIKF 310530Z 29023G33KT 4000 -SHRA BKN008 OVC020 06/05 Q1025",
      "taf": "TAF BIKF 310421Z 3106/0106 27027KT 9999 SCT017 BKN020 TX06/3106Z TNM03/0102Z"
    },
    {
      "icao": "BKPR",
      "alert": "OK",
      "vis_m": null,
      "fzfg": false,
      "metar_trigger": false,
      "taf_trigger": false,
      "metar": "",
      "taf": "TAF BKPR 310530Z 3106/0106 33008KT 9999 FEW050"
    },
    {
      "icao": "EBCI",
      "alert": "OK",
      "vis_m": 300,
      "fzfg": true,
      "metar_trigger": false,
      "taf_trigger": false,
      "metar": "METAR EBCI 310550Z 26004KT 0300 R24/P2000N FZFG SCT001 BKN004 M03/M04 Q1027 TEMPO BKN001",
      "taf": "TAF EBCI 310510Z 3106/0112 26005KT 3500 BR FEW012 SCT040"
    },
    {
      "icao": "EDDB",
      "alert": "OK",
      "vis_m": 9999,
      "fzfg": false,
      "metar_trigger": false,
      "taf_trigger": false,
      "metar": "METAR EDDB 310550Z AUTO 23006KT 9999 SCT033 SCT042 M03/M06 Q1018 TEMPO FM0650 4000 -SN BKN010",
      "taf": "TAF EDDB 310500Z 3106/0106 26010KT 9999 SCT030"
    },
    {
      "icao": "EDDH",
      "alert": "OK",
      "vis_m": 6000,
      "fzfg": false,
      "metar_trigger": false,
      "taf_trigger": false,
      "metar": "METAR EDDH 310550Z AUTO 26007KT 230V290 6000 -SHRA SCT008 BKN016 FEW///TCU 02/02 Q1017 RESHRA TEMPO 4000 RADZ BKN006",
      "taf": "TAF EDDH 310500Z 3106/0112 28009KT 9999 BKN025"
    },
    {
      "icao": "EDDK",
      "alert": "OK",
      "vis_m": 8000,
      "fzfg": false,
      "metar_trigger": false,
      "taf_trigger": false,
      "metar": "METAR EDDK 310550Z AUTO VRB01KT 8000 OVC008 M01/M02 Q1027 TEMPO BKN004",
      "taf": "TAF EDDK 310500Z 3106/0112 VRB03KT 9999 SCT010 BKN020"
    },
    {
      "icao": "EDDN",
      "alert": "OK",
      "vis_m": 9999,
      "fzfg": false,
      "metar_trigger": false,
      "taf_trigger": false,
      "metar": "METAR EDDN 310550Z AUTO 11006KT 9999 BKN044 M10/M12 Q1024 NOSIG",
      "taf": "TAF EDDN 310500Z 3106/0106 10004KT CAVOK"
    },
    {
      "icao": "EDDS",
      "alert": "OK",
      "vis_m": 9999,
      "fzfg": false,
      "metar_trigger": false,
      "taf_trigger": false,
      "metar": "METAR EDDS 310550Z AUTO 06002KT CAVOK M10/M11 Q1025 NOSIG",
      "taf": "TAF EDDS 310500Z 3106/0106 VRB02KT CAVOK"
    },
    {
      "icao": "EDFH",
      "alert": "OK",
      "vis_m": 9999,
      "fzfg": false,
      "metar_trigger": false,
      "taf_trigger": false,
      "metar": "METAR EDFH 310550Z 28006KT 9999 BKN005 M04/M05 Q1024",
      "taf": "TAF EDFH 310500Z 3106/0106 27009KT 9999 BKN030"
    },
    {
      "icao": "EDJA",
      "alert": "OK",
      "vis_m": 9999,
      "fzfg": false,
      "metar_trigger": false,
      "taf_trigger": false,
      "metar": "METAR EDJA 310550Z 18002KT CAVOK M12/M13 Q1023",
      "taf": "TAF EDJA 310500Z 3106/3115 20003KT CAVOK"
    },
    {
      "icao": "EDLW",
      "alert": "OK",
      "vis_m": 7000,
      "fzfg": false,
      "metar_trigger": false,
      "taf_trigger": false,
      "metar": "METAR EDLW 310550Z 23007KT 7000 SCT004 BKN006 BKN018 M01/M01 Q1025",
      "taf": "TAF EDLW 310500Z 3106/0106 24009KT 9999 SCT005 BKN015"
    },
    {
      "icao": "EDNY",
      "alert": "OK",
      "vis_m": 9999,
      "fzfg": false,
      "metar_trigger": false,
      "taf_trigger": false,
      "metar": "METAR EDNY 310550Z 05006KT CAVOK M08/M09 Q1025",
      "taf": "TAF EDNY 310500Z 3106/3115 VRB03KT CAVOK"
    },
    {
      "icao": "EDSB",
      "alert": "OK",
      "vis_m": 9999,
      "fzfg": false,
      "metar_trigger": false,
      "taf_trigger": false,
      "metar": "METAR EDSB 310550Z 20003KT 180V240 CAVOK M08/M09 Q1027",
      "taf": "TAF EDSB 310500Z 3106/0106 20005KT CAVOK"
    },
    {
      "icao": "EETN",
      "alert": "OK",
      "vis_m": 9999,
      "fzfg": false,
      "metar_trigger": false,
      "taf_trigger": false,
      "metar": "METAR EETN 310550Z COR 01010KT 340V040 9999 FEW032 M06/M13 Q1005 NOSIG",
      "taf": "TAF EETN 310530Z 3106/0106 36012KT CAVOK"
    },
    {
      "icao": "EFTU",
      "alert": "OK",
      "vis_m": 9999,
      "fzfg": false,
      "metar_trigger": false,
      "taf_trigger": false,
      "metar": "METAR EFTU 310550Z AUTO VRB01KT CAVOK M14/M15 Q1008",
      "taf": "TAF EFTU 310524Z 3106/0106 27001KT CAVOK"
    },
    {
      "icao": "EGBB",
      "alert": "OK",
      "vis_m": 9999,
      "fzfg": false,
      "metar_trigger": false,
      "taf_trigger": false,
      "metar": "METAR EGBB 310550Z 29003KT 9999 MIFG NSC M03/M04 Q1032",
      "taf": "TAF EGBB 310454Z 3106/0106 VRB04KT 9999 SCT035"
    },
    {
      "icao": "EGGP",
      "alert": "OK",
      "vis_m": 9000,
      "fzfg": false,
      "metar_trigger": false,
      "taf_trigger": false,
      "metar": "METAR EGGP 310550Z 22003KT 9000 MIFG SCT028 M00/M01 Q1032",
      "taf": ""
    },
    {
      "icao": "EGGW",
      "alert": "OK",
      "vis_m": 6000,
      "fzfg": false,
      "metar_trigger": false,
      "taf_trigger": false,
      "metar": "METAR EGGW 310550Z AUTO 31007KT 6000 OVC022 01/M00 Q1031",
      "taf": "TAF EGGW 310500Z 3106/0106 31006KT 9999 SCT025"
    },
    {
      "icao": "EGKK",
      "alert": "OK",
      "vis_m": 5000,
      "fzfg": false,
      "metar_trigger": false,
      "taf_trigger": false,
      "metar": "METAR EGKK 310550Z 33004KT 260V010 5000 BR SCT004 M00/M00 Q1031",
      "taf": "TAF EGKK 310452Z 3106/0112 34005KT 4000 BR FEW002"
    },
    {
      "icao": "EGNM",
      "alert": "OK",
      "vis_m": 9999,
      "fzfg": false,
      "metar_trigger": false,
      "taf_trigger": false,
      "metar": "METAR EGNM 310550Z 28015KT CAVOK 01/M02 Q1030",
      "taf": "TAF EGNM 310501Z 3106/0106 28006KT 9999 FEW040"
    },
    {
      "icao": "EGPD",
      "alert": "OK",
      "vis_m": 9999,
      "fzfg": false,
      "metar_trigger": false,
      "taf_trigger": false,
      "metar": "METAR EGPD 310550Z COR AUTO 27010KT 9999 NCD 03/M01 Q1026 NOSIG",
      "taf": "TAF EGPD 310457Z 3106/0106 28009KT 9999 SCT030"
    },
    {
      "icao": "EGPF",
      "alert": "OK",
      "vis_m": 9999,
      "fzfg": false,
      "metar_trigger": false,
      "taf_trigger": false,
      "metar": "METAR EGPF 310550Z AUTO 23006KT 9999 BKN018 M01/M02 Q1031",
      "taf": "TAF EGPF 310452Z 3106/0106 VRB02KT 9999 FEW040"
    },
    {
      "icao": "EHBK",
      "alert": "OK",
      "vis_m": 6000,
      "fzfg": false,
      "metar_trigger": false,
      "taf_trigger": false,
      "metar": "METAR EHBK 310525Z AUTO 21008KT 6000 BKN001 BKN031 OVC035 M02/M02 Q1027 BECMG BKN003 TEMPO 4000 BR",
      "taf": "TAF EHBK 310517Z 3106/0112 24003KT 6000 BKN002"
    },
    {
      "icao": "EHEH",
      "alert": "OK",
      "vis_m": 3300,
      "fzfg": false,
      "metar_trigger": false,
      "taf_trigger": false,
      "metar": "METAR EHEH 310525Z AUTO 27004KT 3300 BR NCD M02/M02 Q1027 YLO RMK TREND REMOTE BY EHWX",
      "taf": "TAF EHEH 302141Z 3100/0106 VRB02KT 6000 NSC"
    },
    {
      "icao": "EKBI",
      "alert": "OK",
      "vis_m": 9999,
      "fzfg": false,
      "metar_trigger": false,
      "taf_trigger": false,
      "metar": "METAR EKBI 310550Z AUTO 28010KT 9999 NCD 03/03 Q1013",
      "taf": "TAF EKBI 310527Z 3106/0106 29008KT 9999 SCT020"
    },
    {
      "icao": "EKCH",
      "alert": "OK",
      "vis_m": 9999,
      "fzfg": false,
      "metar_trigger": false,
      "taf_trigger": false,
      "metar": "METAR EKCH 310550Z AUTO 27011KT 9999 OVC040/// 01/M00 Q1012 TEMPO 4000 -RASN BKN008",
      "taf": "TAF EKCH 310527Z 3106/0106 26010KT 9999 BKN020"
    },
    {
      "icao": "ENAL",
      "alert": "OK",
      "vis_m": 9999,
      "fzfg": false,
      "metar_trigger": false,
      "taf_trigger": false,
      "metar": "METAR ENAL 310550Z 29008KT 9999 FEW017 SCT028 BKN041 04/01 Q1012",
      "taf": "TAF ENAL 310500Z 3106/3115 32008KT 9999 FEW020 SCT040"
    },
    {
      "icao": "ENBR",
      "alert": "OK",
      "vis_m": 9999,
      "fzfg": false,
      "metar_trigger": false,
      "taf_trigger": false,
      "metar": "METAR ENBR 310550Z 13003KT 9999 BKN030 00/00 Q1015 TEMPO 1500 SHSNRA VV010 RMK WIND 1200FT 35012KT",
      "taf": "TAF ENBR 310500Z 3106/0106 VRB05KT 9999 -SHRASN SCT010 BKN020"
    },
    {
      "icao": "ENGM",
      "alert": "OK",
      "vis_m": 9999,
      "fzfg": false,
      "metar_trigger": false,
      "taf_trigger": false,
      "metar": "METAR ENGM 310550Z 27004KT 230V310 CAVOK M02/M07 Q1009 NOSIG",
      "taf": "TAF ENGM 310500Z 3106/0106 35005KT CAVOK"
    },
    {
      "icao": "ENHD",
      "alert": "OK",
      "vis_m": 9999,
      "fzfg": false,
      "metar_trigger": false,
      "taf_trigger": false,
      "metar": "METAR ENHD 310550Z 35013KT 9999 -SHRA FEW005 SCT015 BKN020 05/03 Q1016",
      "taf": "TAF ENHD 310500Z 3106/3115 34018KT 9999 -SHRA FEW015 BKN030"
    },
    {
      "icao": "ENTC",
      "alert": "OK",
      "vis_m": 9999,
      "fzfg": false,
      "metar_trigger": false,
      "taf_trigger": false,
      "metar": "METAR ENTC 310550Z 13003KT CAVOK M11/M13 Q1010 RMK WIND 2600FT 35011KT",
      "taf": "TAF ENTC 310500Z 3106/0106 22006KT 9999 -SHSN SCT040"
    },
    {
      "icao": "ENTO",
      "alert": "OK",
      "vis_m": 9999,
      "fzfg": false,
      "metar_trigger": false,
      "taf_trigger": false,
      "metar": "METAR ENTO 310550Z 27004KT CAVOK M01/M06 Q1010 NOSIG",
      "taf": "TAF ENTO 310500Z 3106/0106 28005KT CAVOK"
    },
    {
      "icao": "ENVA",
      "alert": "OK",
      "vis_m": 9999,
      "fzfg": false,
      "metar_trigger": false,
      "taf_trigger": false,
      "metar": "METAR ENVA 310550Z 10006KT 090V150 9999 BKN047 M02/M03 Q1010 TEMPO 1500 SHSN FEW010 BKN018CB RMK WIND 670FT 18003KT",
      "taf": "TAF ENVA 310500Z 3106/0106 12008KT 9999 -SHSNRA FEW010TCU BKN025"
    },
    {
      "icao": "ENZV",
      "alert": "OK",
      "vis_m": 9999,
      "fzfg": false,
      "metar_trigger": false,
      "taf_trigger": false,
      "metar": "METAR ENZV 310550Z 34009KT 9999 -SHRA FEW020 BKN026 04/03 Q1016 TEMPO 4000 SHRA BKN010 SCT015CB",
      "taf": "TAF ENZV 310500Z 3106/0106 35005KT 9999 FEW015 BKN030"
    },
    {
      "icao": "EPGD",
      "alert": "OK",
      "vis_m": 9999,
      "fzfg": false,
      "metar_trigger": false,
      "taf_trigger": false,
      "metar": "METAR EPGD 310530Z 29011KT 9999 -SHSN FEW025CB SCT040 M03/M08 Q1010",
      "taf": "TAF EPGD 310530Z 3106/0106 30012KT 9999 SCT035"
    },
    {
      "icao": "EPKK",
      "alert": "OK",
      "vis_m": 9999,
      "fzfg": false,
      "metar_trigger": false,
      "taf_trigger": false,
      "metar": "METAR EPKK 310530Z 28012KT 9999 FEW018 BKN064 M04/M08 Q1013",
      "taf": "TAF EPKK 310530Z 3106/0106 27012KT 9999 BKN020"
    },
    {
      "icao": "EPKT",
      "alert": "OK",
      "vis_m": 9999,
      "fzfg": false,
      "metar_trigger": false,
      "taf_trigger": false,
      "metar": "METAR EPKT 310530Z 27009KT 9999 -SHSN FEW020CB M07/M08 Q1013",
      "taf": "TAF EPKT 310530Z 3106/0106 29012KT 9999 BKN020"
    },
    {
      "icao": "EPLB",
      "alert": "OK",
      "vis_m": 9999,
      "fzfg": false,
      "metar_trigger": false,
      "taf_trigger": false,
      "metar": "METAR EPLB 310530Z 30013KT 9999 SCT018 BKN030 M03/M05 Q1006",
      "taf": "TAF EPLB 310504Z 3106/0106 30014KT 9999 DRSN BKN025"
    },
    {
      "icao": "EPMO",
      "alert": "OK",
      "vis_m": 2200,
      "fzfg": false,
      "metar_trigger": false,
      "taf_trigger": false,
      "metar": "METAR EPMO 310530Z 29014KT 2200 SHSN DRSN BKN007 BKN030CB M04/M04 Q1009",
      "taf": "TAF EPMO 310530Z 3106/0106 28012KT 9999 BKN025"
    },
    {
      "icao": "EPPO",
      "alert": "OK",
      "vis_m": 9999,
      "fzfg": false,
      "metar_trigger": false,
      "taf_trigger": false,
      "metar": "METAR EPPO 310530Z 29009KT 9999 SCT046 M04/M06 Q1015",
      "taf": "TAF EPPO 310530Z 3106/0106 31011KT CAVOK"
    },
    {
      "icao": "EPRA",
      "alert": "OK",
      "vis_m": 2500,
      "fzfg": false,
      "metar_trigger": false,
      "taf_trigger": false,
      "metar": "METAR EPRA 310530Z 31011KT 270V330 2500 -SHSN SCT008 BKN014CB M04/M06 Q1009",
      "taf": "TAF EPRA 310530Z 3106/3115 30012KT 9999 BKN030"
    },
    {
      "icao": "EPRZ",
      "alert": "OK",
      "vis_m": 3500,
      "fzfg": false,
      "metar_trigger": false,
      "taf_trigger": false,
      "metar": "METAR EPRZ 310530Z 29019KT 3500 -SHSN DRSN BKN026CB M04/M07 Q1009 RESHSN",
      "taf": "TAF EPRZ 310530Z 3106/0106 29016KT 9999 BKN020"
    },
    {
      "icao": "EPSC",
      "alert": "OK",
      "vis_m": 9999,
      "fzfg": false,
      "metar_trigger": false,
      "taf_trigger": false,
      "metar": "METAR EPSC 310530Z 24004KT CAVOK M04/M06 Q1015",
      "taf": "TAF EPSC 310530Z 3106/0106 22005KT CAVOK"
    },
    {
      "icao": "EPSY",
      "alert": "OK",
      "vis_m": 9999,
      "fzfg": false,
      "metar_trigger": false,
      "taf_trigger": false,
      "metar": "METAR EPSY 310530Z 29004KT CAVOK M04/M05 Q1008",
      "taf": "TAF EPSY 310530Z 3106/3115 31006KT CAVOK"
    },
    {
      "icao": "EPWA",
      "alert": "OK",
      "vis_m": 9999,
      "fzfg": false,
      "metar_trigger": false,
      "taf_trigger": false,
      "metar": "METAR EPWA 310530Z 29015KT 9999 DRSN BKN012 M03/M05 Q1009 NOSIG",
      "taf": "TAF EPWA 310530Z 3106/0106 29012KT 9999 BKN025"
    },
    {
      "icao": "EPWR",
      "alert": "OK",
      "vis_m": 9999,
      "fzfg": false,
      "metar_trigger": false,
      "taf_trigger": false,
      "metar": "METAR EPWR 310530Z 29010KT 9999 SCT014 M04/M05 Q1017",
      "taf": "TAF EPWR 310530Z 3106/0106 29012KT CAVOK"
    },
    {
      "icao": "ESGG",
      "alert": "OK",
      "vis_m": 9999,
      "fzfg": false,
      "metar_trigger": false,
      "taf_trigger": false,
      "metar": "METAR ESGG 310550Z 28003KT CAVOK 00/M01 Q1009",
      "taf": "TAF ESGG 310530Z 3106/0106 29003KT CAVOK"
    },
    {
      "icao": "ESKN",
      "alert": "OK",
      "vis_m": 9999,
      "fzfg": false,
      "metar_trigger": false,
      "taf_trigger": false,
      "metar": "METAR ESKN 310550Z 10002KT 9999 FEW012 SCT035 M07/M08 Q1009",
      "taf": "TAF ESKN 310530Z 3106/0106 36003KT CAVOK"
    },
    {
      "icao": "ESMS",
      "alert": "OK",
      "vis_m": 9999,
      "fzfg": false,
      "metar_trigger": false,
      "taf_trigger": false,
      "metar": "METAR ESMS 310550Z 28009KT CAVOK 00/M02 Q1011",
      "taf": "TAF ESMS 310527Z 3106/0106 27009KT 9999 FEW040"
    },
    {
      "icao": "ESSA",
      "alert": "OK",
      "vis_m": 9999,
      "fzfg": false,
      "metar_trigger": false,
      "taf_trigger": false,
      "metar": "METAR ESSA 310550Z 28004KT CAVOK M07/M08 Q1008 RESN TEMPO 2500 -SN",
      "taf": "TAF ESSA 310530Z 3106/0106 34003KT 9999 SCT020 BKN040"
    },
    {
      "icao": "EYKA",
      "alert": "OK",
      "vis_m": 9999,
      "fzfg": false,
      "metar_trigger": false,
      "taf_trigger": false,
      "metar": "METAR EYKA 310550Z 31006KT 230V020 CAVOK M06/M12 Q1004",
      "taf": "TAF EYKA 310500Z 3106/0106 VRB04KT 8000 SCT030"
    },
    {
      "icao": "EYPA",
      "alert": "OK",
      "vis_m": 9999,
      "fzfg": false,
      "metar_trigger": false,
      "taf_trigger": false,
      "metar": "METAR EYPA 310550Z 05004KT CAVOK M08/M14 Q1008",
      "taf": "TAF EYPA 310500Z 3106/0106 VRB05KT 8000 SCT040"
    },
    {
      "icao": "EYVI",
      "alert": "OK",
      "vis_m": 9999,
      "fzfg": false,
      "metar_trigger": false,
      "taf_trigger": false,
      "metar": "METAR EYVI 310550Z 34012KT 9999 SCT015 M06/M09 Q1000 NOSIG",
      "taf": "TAF EYVI 310501Z 3106/0106 32011KT 3000 SN BR BKN010 OVC015"
    },
    {
      "icao": "GCFV",
      "alert": "OK",
      "vis_m": 9999,
      "fzfg": false,
      "metar_trigger": false,
      "taf_trigger": false,
      "metar": "METAR GCFV 310530Z AUTO 27004KT CAVOK 12/10 Q1020",
      "taf": "TAF GCFV 310200Z 3103/0103 30005KT 9999 FEW025 TX21/3114Z TN14/3106Z"
    },
    {
      "icao": "GCLP",
      "alert": "OK",
      "vis_m": 9999,
      "fzfg": false,
      "metar_trigger": false,
      "taf_trigger": false,
      "metar": "METAR GCLP 310530Z 26006KT CAVOK 15/12 Q1020 NOSIG",
      "taf": "TAF GCLP 310200Z 3103/0103 29005KT 9999 SCT030 TX22/3114Z TN15/3106Z"
    },
    {
      "icao": "GCTS",
      "alert": "OK",
      "vis_m": 9999,
      "fzfg": false,
      "metar_trigger": false,
      "taf_trigger": false,
      "metar": "METAR GCTS 310530Z 34004KT 9999 FEW025 15/12 Q1020 NOSIG",
      "taf": "TAF GCTS 310200Z 3103/0103 33004KT 9999 FEW025 TX24/3114Z TN16/3106Z"
    },
    {
      "icao": "GMAD",
      "alert": "OK",
      "vis_m": 9999,
      "fzfg": false,
      "metar_trigger": false,
      "taf_trigger": false,
      "metar": "METAR GMAD 310530Z 05004KT 9999 SCT040 SCT066 11/10 Q1020 NOSIG",
      "taf": "TAF GMAD 310500Z 3106/0112 06008KT CAVOK"
    },
    {
      "icao": "GMMN",
      "alert": "OK",
      "vis_m": 9999,
      "fzfg": false,
      "metar_trigger": false,
      "taf_trigger": false,
      "metar": "METAR GMMN 310530Z 20012KT 9999 BKN020TCU 11/09 Q1018 NOSIG",
      "taf": "TAF GMMN 310500Z 3106/0112 21007KT 9999 SCT016 SCT030"
    },
    {
      "icao": "GMMX",
      "alert": "OK",
      "vis_m": 8000,
      "fzfg": false,
      "metar_trigger": false,
      "taf_trigger": false,
      "metar": "METAR GMMX 310530Z VRB01KT 8000 FEW020 SCT080 09/08 Q1019 NOSIG",
      "taf": "TAF GMMX 310500Z 3106/0112 06006KT 8000 SCT020 SCT080"
    },
    {
      "icao": "HEGN",
      "alert": "OK",
      "vis_m": 9999,
      "fzfg": false,
      "metar_trigger": false,
      "taf_trigger": false,
      "metar": "METAR HEGN 310500Z 00000KT CAVOK 12/06 Q1017 NOSIG",
      "taf": "TAF HEGN 310500Z 3106/0112 32010KT CAVOK"
    },
    {
      "icao": "HEMA",
      "alert": "OK",
      "vis_m": 9999,
      "fzfg": false,
      "metar_trigger": false,
      "taf_trigger": false,
      "metar": "METAR HEMA 310500Z 24008KT CAVOK 15/10 Q1016 NOSIG",
      "taf": "TAF HEMA 310500Z 3106/0112 29010KT CAVOK"
    },
    {
      "icao": "HESH",
      "alert": "OK",
      "vis_m": 9999,
      "fzfg": false,
      "metar_trigger": false,
      "taf_trigger": false,
      "metar": "METAR HESH 310500Z 32004KT CAVOK 13/08 Q1016 NOSIG",
      "taf": "TAF HESH 310500Z 3106/0112 25010KT CAVOK"
    },
    {
      "icao": "HESX",
      "alert": "OK",
      "vis_m": 9999,
      "fzfg": false,
      "metar_trigger": false,
      "taf_trigger": false,
      "metar": "METAR HESX 310500Z 21009KT CAVOK 10/04 Q1014 NOSIG",
      "taf": "TAF HESX 310501Z 3106/0112 20009KT 6000 NSC"
    },
    {
      "icao": "LATI",
      "alert": "OK",
      "vis_m": 9999,
      "fzfg": false,
      "metar_trigger": false,
      "taf_trigger": false,
      "metar": "METAR LATI 310550Z 32007KT CAVOK 01/M11 Q1013 NOSIG",
      "taf": "TAF LATI 310500Z 3106/0106 31008KT CAVOK TX07/3112Z TNM05/0105Z"
    },
    {
      "icao": "LBPD",
      "alert": "OK",
      "vis_m": 9999,
      "fzfg": false,
      "metar_trigger": false,
      "taf_trigger": false,
      "metar": "METAR LBPD 310530Z AUTO 27014KT 9999 NCD M01/M10 Q1014 NOSIG",
      "taf": "TAF LBPD 310500Z 3106/0106 27016KT CAVOK"
    },
    {
      "icao": "LBSF",
      "alert": "OK",
      "vis_m": 9999,
      "fzfg": false,
      "metar_trigger": false,
      "taf_trigger": false,
      "metar": "METAR LBSF 310530Z 29010KT CAVOK M06/M11 Q1014 NOSIG",
      "taf": "TAF LBSF 310500Z 3106/0106 28012KT CAVOK"
    },
    {
      "icao": "LBWN",
      "alert": "OK",
      "vis_m": 9999,
      "fzfg": false,
      "metar_trigger": false,
      "taf_trigger": false,
      "metar": "METAR LBWN 310530Z AUTO VRB02KT 9999 NCD M05/M08 Q1011 NOSIG",
      "taf": "TAF LBWN 310500Z 3106/0106 29012KT 9999 SCT030"
    },
    {
      "icao": "LCLK",
      "alert": "OK",
      "vis_m": 9999,
      "fzfg": false,
      "metar_trigger": false,
      "taf_trigger": false,
      "metar": "METAR LCLK 310530Z 33003KT 260V020 9999 FEW020TCU FEW030CB SCT040 14/13 Q1008 NOSIG",
      "taf": ""
    },
    {
      "icao": "LCPH",
      "alert": "OK",
      "vis_m": 8000,
      "fzfg": false,
      "metar_trigger": false,
      "taf_trigger": false,
      "metar": "METAR LCPH 310530Z 31019KT 250V320 8000 -TSRA FEW012 FEW025CB SCT040 16/11 Q1008 TEMPO 29025G35KT 3000 TSRA SCT025CB",
      "taf": ""
    },
    {
      "icao": "LEAL",
      "alert": "OK",
      "vis_m": 9999,
      "fzfg": false,
      "metar_trigger": false,
      "taf_trigger": false,
      "metar": "METAR LEAL 310530Z 27007KT 250V310 CAVOK 11/04 Q1017 NOSIG",
      "taf": "TAF LEAL 310500Z 3106/0106 29006KT CAVOK TX17/3114Z TN07/3106Z"
    },
    {
      "icao": "LEBB",
      "alert": "OK",
      "vis_m": 9999,
      "fzfg": false,
      "metar_trigger": false,
      "taf_trigger": false,
      "metar": "METAR LEBB 310530Z 00000KT 9999 BKN025 07/06 Q1022 NOSIG",
      "taf": "TAF LEBB 310500Z 3106/0106 VRB03KT 9999 SCT010 BKN020 TX10/3114Z TN01/3124Z"
    },
    {
      "icao": "LEBL",
      "alert": "OK",
      "vis_m": 9999,
      "fzfg": false,
      "metar_trigger": false,
      "taf_trigger": false,
      "metar": "METAR LEBL 310530Z 33013KT 9999 FEW020 SCT039 08/05 Q1017 NOSIG",
      "taf": "TAF LEBL 310500Z 3106/0106 34010KT 9999 FEW020 TX15/3112Z TN08/3107Z"
    },
    {
      "icao": "LECH",
      "alert": "OK",
      "vis_m": 9000,
      "fzfg": false,
      "metar_trigger": false,
      "taf_trigger": false,
      "metar": "METAR LECH 310530Z AUTO 16003KT 9000 NCD 04/01 Q1017",
      "taf": ""
    },
    {
      "icao": "LEMD",
      "alert": "OK",
      "vis_m": 9999,
      "fzfg": false,
      "metar_trigger": false,
      "taf_trigger": false,
      "metar": "METAR LEMD 310530Z 02001KT 9999 FEW050 M02/M02 Q1018 NOSIG",
      "taf": "TAF LEMD 310500Z 3106/0112 VRB03KT CAVOK TX08/3114Z TNM02/0106Z"
    },
    {
      "icao": "LEMG",
      "alert": "OK",
      "vis_m": 9999,
      "fzfg": false,
      "metar_trigger": false,
      "taf_trigger": false,
      "metar": "METAR LEMG 310530Z 30008KT CAVOK 05/05 Q1018 NOSIG",
      "taf": "TAF LEMG 310500Z 3106/0106 29010KT CAVOK TX18/3114Z TN08/3106Z"
    },
    {
      "icao": "LEVC",
      "alert": "OK",
      "vis_m": 9999,
      "fzfg": false,
      "metar_trigger": false,
      "taf_trigger": false,
      "metar": "METAR LEVC 310530Z 29005KT CAVOK 03/02 Q1018 NOSIG",
      "taf": "TAF LEVC 310500Z 3106/0106 29006KT 9999 FEW020 TX17/3114Z TN05/3106Z"
    },
    {
      "icao": "LEXJ",
      "alert": "OK",
      "vis_m": 8000,
      "fzfg": false,
      "metar_trigger": false,
      "taf_trigger": false,
      "metar": "METAR LEXJ 310530Z 26003KT 220V300 8000 3900E OVC023 08/06 Q1022",
      "taf": "TAF LEXJ 310200Z 3103/0103 VRB03KT 9999 SCT015 BKN035 TX10/3115Z TN03/0103Z"
    },
    {
      "icao": "LEZG",
      "alert": "OK",
      "vis_m": 9999,
      "fzfg": false,
      "metar_trigger": false,
      "taf_trigger": false,
      "metar": "METAR LEZG 310530Z 27011KT CAVOK 06/03 Q1018 NOSIG",
      "taf": "TAF LEZG 310500Z 3106/0106 29010KT 9999 FEW020 TX12/3114Z TN05/3106Z"
    },
    {
      "icao": "LEZL",
      "alert": "OK",
      "vis_m": 500,
      "fzfg": false,
      "metar_trigger": false,
      "taf_trigger": false,
      "metar": "SPECI LEZL 310541Z 05006KT 020V080 0500 R27/0900U R09/0900N FG VV001 06/06 Q1019 NOSIG",
      "taf": "TAF LEZL 310200Z 3103/0103 05005KT CAVOK TX15/3115Z TN04/3106Z"
    },
    {
      "icao": "LFBD",
      "alert": "OK",
      "vis_m": 9999,
      "fzfg": false,
      "metar_trigger": false,
      "taf_trigger": false,
      "metar": "METAR LFBD 310530Z AUTO 05005KT CAVOK M02/M03 Q1023 NOSIG",
      "taf": "TAF LFBD 310500Z 3106/0112 04005KT CAVOK TX04/3114Z TNM05/0106Z"
    },
    {
      "icao": "LFLL",
      "alert": "OK",
      "vis_m": 9999,
      "fzfg": false,
      "metar_trigger": false,
      "taf_trigger": false,
      "metar": "METAR LFLL 310530Z 30004KT CAVOK M04/M06 Q1023 NOSIG",
      "taf": "TAF LFLL 310500Z 3106/0112 36005KT CAVOK"
    },
    {
      "icao": "LFLS",
      "alert": "OK",
      "vis_m": 9999,
      "fzfg": false,
      "metar_trigger": false,
      "taf_trigger": false,
      "metar": "METAR LFLS 310530Z AUTO VRB02KT CAVOK M04/M06 Q1022 TEMPO BKN013",
      "taf": "TAF LFLS 310200Z 3103/0103 36005KT CAVOK"
    },
    {
      "icao": "LFMN",
      "alert": "OK",
      "vis_m": 9999,
      "fzfg": false,
      "metar_trigger": false,
      "taf_trigger": false,
      "metar": "METAR LFMN 310530Z 33010KT 9999 FEW038 06/00 Q1016 NOSIG",
      "taf": "TAF LFMN 310200Z 3103/0109 33010KT CAVOK"
    },
    {
      "icao": "LFOB",
      "alert": "OK",
      "vis_m": 9000,
      "fzfg": false,
      "metar_trigger": false,
      "taf_trigger": false,
      "metar": "METAR LFOB 310530Z AUTO 30005KT 9000 NSC M05/M05 Q1029 TEMPO 4000 BR",
      "taf": "TAF LFOB 310500Z 3106/0106 26005KT CAVOK"
    },
    {
      "icao": "LFPO",
      "alert": "OK",
      "vis_m": 9999,
      "fzfg": false,
      "metar_trigger": false,
      "taf_trigger": false,
      "metar": "METAR LFPO 310530Z AUTO 35005KT 340V040 CAVOK M01/M02 Q1029",
      "taf": ""
    },
    {
      "icao": "LFSB",
      "alert": "OK",
      "vis_m": 9999,
      "fzfg": true,
      "metar_trigger": false,
      "taf_trigger": false,
      "metar": "METAR LFSB 310530Z AUTO 19001KT CAVOK M07/M08 Q1026 TEMPO 0500 FZFG VV///",
      "taf": "TAF LFSB 310500Z 3106/0106 VRB03KT 6000 NSC"
    },
    {
      "icao": "LGAV",
      "alert": "OK",
      "vis_m": 9999,
      "fzfg": false,
      "metar_trigger": false,
      "taf_trigger": false,
      "metar": "METAR LGAV 310550Z 36009KT 9999 FEW025 BKN045 09/02 Q1008 NOSIG",
      "taf": "TAF LGAV 310500Z 3106/0106 01020G30KT 9999 SCT020"
    },
    {
      "icao": "LGTS",
      "alert": "OK",
      "vis_m": 9999,
      "fzfg": false,
      "metar_trigger": false,
      "taf_trigger": false,
      "metar": "METAR LGTS 310550Z 33024KT 9999 FEW025 03/M07 Q1014 NOSIG",
      "taf": "TAF LGTS 310500Z 3106/0106 34017G27KT 9999 SCT030"
    },
    {
      "icao": "LHBP",
      "alert": "OK",
      "vis_m": 9999,
      "fzfg": false,
      "metar_trigger": false,
      "taf_trigger": false,
      "metar": "METAR LHBP 310530Z 31020KT CAVOK M03/M07 Q1016 NOSIG",
      "taf": "TAF LHBP 310515Z 3106/0106 31014G24KT CAVOK"
    },
    {
      "icao": "LHDC",
      "alert": "OK",
      "vis_m": 9999,
      "fzfg": false,
      "metar_trigger": false,
      "taf_trigger": false,
      "metar": "METAR LHDC 310515Z AUTO 27003KT 220V310 CAVOK M06/M09 Q1014 NOSIG",
      "taf": "TAF LHDC 310515Z 3106/3115 29008KT CAVOK"
    },
    {
      "icao": "LIBD",
      "alert": "OK",
      "vis_m": 9999,
      "fzfg": false,
      "metar_trigger": false,
      "taf_trigger": false,
      "metar": "METAR LIBD 310550Z 36009KT 330V030 CAVOK 06/M07 Q1017",
      "taf": "TAF LIBD 310500Z 3106/0106 36015KT 9999 FEW050"
    },
    {
      "icao": "LIBG",
      "alert": "OK",
      "vis_m": null,
      "fzfg": false,
      "metar_trigger": false,
      "taf_trigger": false,
      "metar": "",
      "taf": ""
    },
    {
      "icao": "LIBP",
      "alert": "OK",
      "vis_m": 9999,
      "fzfg": false,
      "metar_trigger": false,
      "taf_trigger": false,
      "metar": "METAR LIBP 310550Z AUTO 07006KT 9999 OVC066/// 07/M05 Q1020",
      "taf": "TAF LIBP 310500Z 3106/0106 04012KT 9999 SCT045"
    },
    {
      "icao": "LIBR",
      "alert": "OK",
      "vis_m": 9999,
      "fzfg": false,
      "metar_trigger": false,
      "taf_trigger": false,
      "metar": "METAR LIBR 310550Z 35018KT 9999 FEW045 08/M02 Q1013",
      "taf": "TAF LIBR 310500Z 3106/0106 35016KT 9999 FEW030"
    },
    {
      "icao": "LICA",
      "alert": "OK",
      "vis_m": 9999,
      "fzfg": false,
      "metar_trigger": false,
      "taf_trigger": false,
      "metar": "METAR LICA 310550Z AUTO 06008KT 9999 BKN053/// BKN090/// 10/04 Q1012",
      "taf": "TAF LICA 310500Z 3106/0106 08010KT 9999 SCT060"
    },
    {
      "icao": "LICC",
      "alert": "OK",
      "vis_m": 9999,
      "fzfg": false,
      "metar_trigger": false,
      "taf_trigger": false,
      "metar": "METAR LICC 310550Z VRB02KT 9999 SCT120 08/04 Q1012",
      "taf": "TAF LICC 310500Z 3106/0106 30007KT 9999 SCT030"
    },
    {
      "icao": "LICJ",
      "alert": "OK",
      "vis_m": 9999,
      "fzfg": false,
      "metar_trigger": false,
      "taf_trigger": false,
      "metar": "METAR LICJ 310550Z 18004KT 9999 SCT060 11/09 Q1013",
      "taf": "TAF LICJ 310500Z 3106/0106 22007KT 9999 SCT030"
    },
    {
      "icao": "LIMC",
      "alert": "OK",
      "vis_m": 9999,
      "fzfg": false,
      "metar_trigger": false,
      "taf_trigger": false,
      "metar": "METAR LIMC 310550Z 02004KT CAVOK 02/M00 Q1020 NOSIG",
      "taf": "TAF LIMC 310500Z 3106/0112 03006KT 9999 BKN030"
    },
    {
      "icao": "LIME",
      "alert": "OK",
      "vis_m": 9999,
      "fzfg": false,
      "metar_trigger": false,
      "taf_trigger": false,
      "metar": "METAR LIME 310550Z 02003KT 9999 BKN045 02/01 Q1019 NOSIG",
      "taf": "TAF LIME 310500Z 3106/0106 VRB05KT 9999 BKN030"
    },
    {
      "icao": "LIMF",
      "alert": "OK",
      "vis_m": 3000,
      "fzfg": false,
      "metar_trigger": false,
      "taf_trigger": false,
      "metar": "METAR LIMF 310550Z VRB02KT 3000 BR NSC 02/M00 Q1019",
      "taf": "TAF LIMF 310500Z 3106/0106 VRB05KT 3000 BR SCT010"
    },
    {
      "icao": "LIMJ",
      "alert": "OK",
      "vis_m": 9999,
      "fzfg": false,
      "metar_trigger": false,
      "taf_trigger": false,
      "metar": "METAR LIMJ 310550Z 05011KT CAVOK 06/01 Q1018",
      "taf": "TAF LIMJ 310500Z 3106/0106 02018KT 9999 FEW020"
    },
    {
      "icao": "LIPE",
      "alert": "OK",
      "vis_m": 3500,
      "fzfg": false,
      "metar_trigger": false,
      "taf_trigger": false,
      "metar": "METAR LIPE 310550Z 29003KT 3500 BR BKN048 01/01 Q1020",
      "taf": "TAF LIPE 310500Z 3106/0106 VRB04KT 3000 BR BKN020"
    },
    {
      "icao": "LIPH",
      "alert": "OK",
      "vis_m": 9999,
      "fzfg": false,
      "metar_trigger": false,
      "taf_trigger": false,
      "metar": "METAR LIPH 310550Z AUTO VRB02KT 9999 BKN058/// M01/M04 Q1020",
      "taf": "TAF LIPH 310500Z 3106/0106 VRB04KT 9999 SCT045"
    },
    {
      "icao": "LIPQ",
      "alert": "OK",
      "vis_m": 9999,
      "fzfg": false,
      "metar_trigger": false,
      "taf_trigger": false,
      "metar": "METAR LIPQ 310550Z AUTO VRB02KT 9999 NCD M06/M08 Q1021",
      "taf": "TAF LIPQ 310500Z 3106/0106 VRB05KT 9999 SCT050"
    },
    {
      "icao": "LIPR",
      "alert": "OK",
      "vis_m": 3100,
      "fzfg": false,
      "metar_trigger": false,
      "taf_trigger": false,
      "metar": "METAR LIPR 310550Z AUTO 29002KT 3100 BR BKN053/// 02/02 Q1019",
      "taf": "TAF LIPR 310500Z 3106/0106 17008KT 3000 BR BKN020"
    },
    {
      "icao": "LIPX",
      "alert": "OK",
      "vis_m": 9999,
      "fzfg": false,
      "metar_trigger": false,
      "taf_trigger": false,
      "metar": "METAR LIPX 310550Z 35004KT 9999 SCT040 BKN060 01/M01 Q1020",
      "taf": "TAF LIPX 310500Z 3106/0106 VRB05KT 9999 SCT040"
    },
    {
      "icao": "LIPY",
      "alert": "OK",
      "vis_m": 9999,
      "fzfg": false,
      "metar_trigger": false,
      "taf_trigger": false,
      "metar": "METAR LIPY 310550Z AUTO 20003KT 170V230 9999 FEW079/// 01/M04 Q1019",
      "taf": "TAF LIPY 310500Z 3106/0106 13006KT 6000 SCT045"
    },
    {
      "icao": "LIPZ",
      "alert": "OK",
      "vis_m": 9999,
      "fzfg": false,
      "metar_trigger": false,
      "taf_trigger": false,
      "metar": "METAR LIPZ 310550Z 04006KT CAVOK M01/M05 Q1020 NOSIG",
      "taf": "TAF LIPZ 310500Z 3106/0112 06006KT 9999 SCT040"
    },
    {
      "icao": "LIRF",
      "alert": "OK",
      "vis_m": 9999,
      "fzfg": false,
      "metar_trigger": false,
      "taf_trigger": false,
      "metar": "METAR LIRF 310550Z 05010KT 9999 FEW038 06/M02 Q1015 NOSIG",
      "taf": "TAF LIRF 310500Z 3106/0112 03010KT 9999 SCT040"
    },
    {
      "icao": "LIRN",
      "alert": "OK",
      "vis_m": 9999,
      "fzfg": false,
      "metar_trigger": false,
      "taf_trigger": false,
      "metar": "METAR LIRN 310550Z 05012KT CAVOK 07/M05 Q1015 NOSIG",
      "taf": "TAF LIRN 310500Z 3106/0106 05015KT 9999 FEW060"
    },
    {
      "icao": "LIRP",
      "alert": "OK",
      "vis_m": 9999,
      "fzfg": false,
      "metar_trigger": false,
      "taf_trigger": false,
      "metar": "METAR LIRP 310545Z 10007KT CAVOK 06/M00 Q1016 NOSIG",
      "taf": "TAF LIRP 310500Z 3106/0106 09011KT 9999 FEW060"
    },
    {
      "icao": "LIRZ",
      "alert": "OK",
      "vis_m": 9999,
      "fzfg": false,
      "metar_trigger": false,
      "taf_trigger": false,
      "metar": "METAR LIRZ 310550Z AUTO 03009KT 9999 NCD 02/M04 Q1017",
      "taf": "TAF LIRZ 310500Z 3106/0106 04010KT CAVOK"
    },
    {
      "icao": "LJLJ",
      "alert": "OK",
      "vis_m": 9999,
      "fzfg": false,
      "metar_trigger": false,
      "taf_trigger": false,
      "metar": "METAR LJLJ 310530Z VRB02KT 9999 MIFG FEW006 M10/M10 Q1020 NOSIG",
      "taf": "TAF LJLJ 310500Z 3106/0106 VRB02KT 9999 FEW005"
    },
    {
      "icao": "LKMT",
      "alert": "OK",
      "vis_m": 9999,
      "fzfg": false,
      "metar_trigger": false,
      "taf_trigger": false,
      "metar": "METAR LKMT 310530Z 23008KT 9999 -SN SCT044 OVC049 M05/M08 Q1016 NOSIG",
      "taf": "TAF LKMT 310500Z 3106/0106 24012KT 9999 BKN030"
    },
    {
      "icao": "LKPR",
      "alert": "OK",
      "vis_m": 9999,
      "fzfg": false,
      "metar_trigger": false,
      "taf_trigger": false,
      "metar": "METAR LKPR 310530Z 25011KT CAVOK M04/M08 Q1020 NOSIG",
      "taf": "TAF LKPR 310500Z 3106/0112 25012KT 9999 SCT025 BKN040"
    },
    {
      "icao": "LLBG",
      "alert": "OK",
      "vis_m": 9999,
      "fzfg": false,
      "metar_trigger": false,
      "taf_trigger": false,
      "metar": "METAR LLBG 310550Z 19009KT CAVOK 15/06 Q1014 NOSIG",
      "taf": "TAF LLBG 310504Z 3106/0106 17007KT 9999 FEW035"
    },
    {
      "icao": "LMML",
      "alert": "OK",
      "vis_m": 9999,
      "fzfg": false,
      "metar_trigger": false,
      "taf_trigger": false,
      "metar": "METAR LMML 310545Z 24007KT 9999 -TSRA BKN018CB 11/10 Q1014 RERA NOSIG",
      "taf": "TAF LMML 310500Z 3106/0106 29012KT 9999 SCT020TCU"
    },
    {
      "icao": "LOWW",
      "alert": "OK",
      "vis_m": 9999,
      "fzfg": false,
      "metar_trigger": false,
      "taf_trigger": false,
      "metar": "METAR LOWW 310550Z 29014KT 9999 FEW050 M03/M08 Q1019 NOSIG",
      "taf": "TAF LOWW 310515Z 3106/0112 30017KT CAVOK TX06/0111Z TNM03/3106Z"
    },
    {
      "icao": "LPFR",
      "alert": "OK",
      "vis_m": 9999,
      "fzfg": false,
      "metar_trigger": false,
      "taf_trigger": false,
      "metar": "METAR LPFR 310530Z 05010KT 9999 FEW035 11/07 Q1017",
      "taf": "TAF LPFR 310500Z 3106/0106 04007KT CAVOK"
    },
    {
      "icao": "LPMA",
      "alert": "OK",
      "vis_m": 9999,
      "fzfg": false,
      "metar_trigger": false,
      "taf_trigger": false,
      "metar": "METAR LPMA 310530Z VRB03KT 9999 FEW015 16/12 Q1017",
      "taf": "TAF LPMA 310500Z 3106/0106 VRB05KT 9999 SCT015"
    },
    {
      "icao": "LPPR",
      "alert": "OK",
      "vis_m": 9999,
      "fzfg": false,
      "metar_trigger": false,
      "taf_trigger": false,
      "metar": "METAR LPPR 310530Z 10007KT 040V120 CAVOK 06/05 Q1019",
      "taf": "TAF LPPR 310500Z 3106/0106 09005KT CAVOK"
    },
    {
      "icao": "LPPS",
      "alert": "OK",
      "vis_m": 9999,
      "fzfg": false,
      "metar_trigger": false,
      "taf_trigger": false,
      "metar": "METAR LPPS 310530Z VRB02KT 9999 SCT010 16/15 Q1017",
      "taf": "TAF LPPS 310500Z 3106/0112 20007KT 9999 SCT010"
    },
    {
      "icao": "LPPT",
      "alert": "OK",
      "vis_m": 150,
      "fzfg": false,
      "metar_trigger": false,
      "taf_trigger": false,
      "metar": "METAR LPPT 310530Z 08004KT 0150 R02/0650 FG VV001 05/05 Q1018",
      "taf": "TAF LPPT 310500Z 3106/0112 06005KT 5000 BR SCT002"
    },
    {
      "icao": "LQBK",
      "alert": "OK",
      "vis_m": 9999,
      "fzfg": false,
      "metar_trigger": false,
      "taf_trigger": false,
      "metar": "METAR LQBK 310530Z 14007KT CAVOK M07/M08 Q1021 NOSIG",
      "taf": ""
    },
    {
      "icao": "LQSA",
      "alert": "OK",
      "vis_m": 9999,
      "fzfg": false,
      "metar_trigger": false,
      "taf_trigger": false,
      "metar": "METAR LQSA 310530Z 33004KT 300V020 9999 SCT040 M06/M09 Q1019 NOSIG",
      "taf": "TAF LQSA 310500Z 3106/0106 29005KT 9999 SCT045 TXM00/3113Z TNM08/0104Z"
    },
    {
      "icao": "LQTZ",
      "alert": "OK",
      "vis_m": 6000,
      "fzfg": false,
      "metar_trigger": false,
      "taf_trigger": false,
      "metar": "METAR LQTZ 310530Z VRB02KT 6000 NSC M09/M10 Q1020",
      "taf": "TAF LQTZ 310500Z 3106/0106 27006KT 9999 SCT040 TX00/3113Z TNM09/3106Z"
    },
    {
      "icao": "LRBC",
      "alert": "OK",
      "vis_m": 9999,
      "fzfg": false,
      "metar_trigger": false,
      "taf_trigger": false,
      "metar": "METAR LRBC 310530Z 27010KT CAVOK M03/M11 Q1007",
      "taf": "TAF LRBC 310500Z 3106/3115 28010KT CAVOK"
    },
    {
      "icao": "LRBS",
      "alert": "OK",
      "vis_m": 9999,
      "fzfg": false,
      "metar_trigger": false,
      "taf_trigger": false,
      "metar": "METAR LRBS 310530Z 27007KT 250V310 CAVOK M05/M10 Q1011 NOSIG",
      "taf": "TAF LRBS 310500Z 3106/0106 27010KT CAVOK"
    },
    {
      "icao": "LRBV",
      "alert": "OK",
      "vis_m": 9999,
      "fzfg": false,
      "metar_trigger": false,
      "taf_trigger": false,
      "metar": "METAR LRBV 310530Z VRB07KT 9999 FEW023 OVC038 M06/M12 Q1009",
      "taf": "TAF LRBV 310500Z 3106/3115 30012KT 9999 -SN SCT025 BKN040"
    },
    {
      "icao": "LRCL",
      "alert": "OK",
      "vis_m": 9999,
      "fzfg": false,
      "metar_trigger": false,
      "taf_trigger": false,
      "metar": "METAR LRCL 310530Z 25007KT 9999 OVC044 M04/M09 Q1011",
      "taf": "TAF LRCL 310500Z 3106/3115 26008KT 9999 BKN040"
    },
    {
      "icao": "LRCV",
      "alert": "OK",
      "vis_m": 9999,
      "fzfg": false,
      "metar_trigger": false,
      "taf_trigger": false,
      "metar": "METAR LRCV 310530Z 30014KT CAVOK M04/M08 Q1013",
      "taf": "TAF LRCV 310500Z 3106/3115 28014KT CAVOK"
    },
    {
      "icao": "LRIA",
      "alert": "OK",
      "vis_m": 8000,
      "fzfg": false,
      "metar_trigger": false,
      "taf_trigger": false,
      "metar": "METAR LRIA 310530Z 31010KT 250V360 8000 -SN OVC026 M03/M07 Q1007",
      "taf": "TAF LRIA 310500Z 3106/3115 29012KT 9999 BKN035"
    },
    {
      "icao": "LROP",
      "alert": "OK",
      "vis_m": 9999,
      "fzfg": false,
      "metar_trigger": false,
      "taf_trigger": false,
      "metar": "METAR LROP 310530Z 27010KT CAVOK M06/M11 Q1011 NOSIG",
      "taf": "TAF LROP 310500Z 3106/0106 27010KT CAVOK"
    },
    {
      "icao": "LRSB",
      "alert": "OK",
      "vis_m": 9999,
      "fzfg": false,
      "metar_trigger": false,
      "taf_trigger": false,
      "metar": "METAR LRSB 310530Z 30012KT 9999 SCT057 SCT077 M05/M09 Q1011",
      "taf": "TAF LRSB 310500Z 3106/0106 29010KT 9999 SCT045"
    },
    {
      "icao": "LRSM",
      "alert": "OK",
      "vis_m": 9999,
      "fzfg": false,
      "metar_trigger": false,
      "taf_trigger": false,
      "metar": "METAR LRSM 310530Z 25012KT 9999 BKN040 M04/M07 Q1012",
      "taf": "TAF LRSM 310500Z 3106/3115 26012KT 9999 BKN040"
    },
    {
      "icao": "LRSV",
      "alert": "OK",
      "vis_m": 9999,
      "fzfg": false,
      "metar_trigger": false,
      "taf_trigger": false,
      "metar": "METAR LRSV 310530Z COR 26011KT 9999 FEW026 M06/M08 Q1004",
      "taf": "TAF LRSV 310500Z 3106/3115 29014KT 9999 BKN025"
    },
    {
      "icao": "LRTM",
      "alert": "OK",
      "vis_m": 9999,
      "fzfg": false,
      "metar_trigger": false,
      "taf_trigger": false,
      "metar": "METAR LRTM 310530Z 24008KT 9999 -SN FEW016 SCT038 BKN048 M05/M08 Q1011",
      "taf": "TAF LRTM 310500Z 3106/3115 24008KT 9999 OVC040"
    },
    {
      "icao": "LRTR",
      "alert": "OK",
      "vis_m": 9999,
      "fzfg": false,
      "metar_trigger": false,
      "taf_trigger": false,
      "metar": "METAR LRTR 310530Z VRB02KT CAVOK M08/M09 Q1016",
      "taf": "TAF LRTR 310500Z 3106/0106 28008KT CAVOK"
    },
    {
      "icao": "LTAC",
      "alert": "OK",
      "vis_m": 4000,
      "fzfg": false,
      "metar_trigger": false,
      "taf_trigger": false,
      "metar": "METAR LTAC 310520Z 30009KT 4000 -SN BR SCT011 BKN025 BKN080 00/M01 Q1002 TEMPO 2000 RMK RWY21C 28006KT RWY03L 28003KT RWY21R 26006KT RWY03R 28008KT RWY21L 28006KT",
      "taf": "TAF LTAC 310440Z 3106/0106 VRB02KT 9999 SCT040 BKN100"
    },
    {
      "icao": "LTFM",
      "alert": "OK",
      "vis_m": 9999,
      "fzfg": false,
      "metar_trigger": false,
      "taf_trigger": false,
      "metar": "METAR LTFM 310520Z 33015KT 9999 SCT035 BKN080 03/M05 Q1011 NOSIG RMK RWY17L 33016KT RWY34L 33012KT RWY16R 32012KT RWY36 33016KT 290V360 RWY18 34017KT",
      "taf": "TAF LTFM 310440Z 3106/0112 33018G28KT 9999 SCT035 BKN080"
    },
    {
      "icao": "LUKK",
      "alert": "OK",
      "vis_m": 9999,
      "fzfg": false,
      "metar_trigger": false,
      "taf_trigger": false,
      "metar": "METAR LUKK 310530Z 29017KT 9999 -SN FEW034 BKN044 OVC068 M04/M07 Q1005 TEMPO SCT015",
      "taf": "TAF LUKK 310522Z 3106/0106 29014KT 9999 BKN030"
    },
    {
      "icao": "LWOH",
      "alert": "OK",
      "vis_m": null,
      "fzfg": false,
      "metar_trigger": false,
      "taf_trigger": false,
      "metar": "",
      "taf": "TAF LWOH 310530Z 3106/0106 33010KT 9999 BKM050"
    },
    {
      "icao": "LWSK",
      "alert": "OK",
      "vis_m": 9999,
      "fzfg": false,
      "metar_trigger": false,
      "taf_trigger": false,
      "metar": "METAR LWSK 310550Z 33005KT 280V020 CAVOK M03/M11 Q1018 NOSIG",
      "taf": "TAF LWSK 310530Z 3106/0106 02005KT CAVOK"
    },
    {
      "icao": "LYBE",
      "alert": "OK",
      "vis_m": 9999,
      "fzfg": false,
      "metar_trigger": false,
      "taf_trigger": false,
      "metar": "METAR LYBE 310530Z 27006KT CAVOK M05/M08 Q1019 NOSIG",
      "taf": "TAF LYBE 310500Z 3106/0106 30014KT CAVOK TX00/3112Z TNM06/3106Z"
    },
    {
      "icao": "LYNI",
      "alert": "OK",
      "vis_m": 9999,
      "fzfg": false,
      "metar_trigger": false,
      "taf_trigger": false,
      "metar": "METAR LYNI 310530Z 30004KT 250V360 9999 FEW010 BKN030 M03/M07 Q1018 NOSIG",
      "taf": "TAF LYNI 310500Z 3106/0106 28008KT 9999 SCT040 TXM00/3112Z TNM03/3106Z"
    },
    {
      "icao": "LYPG",
      "alert": "OK",
      "vis_m": 9999,
      "fzfg": false,
      "metar_trigger": false,
      "taf_trigger": false,
      "metar": "METAR LYPG 310530Z 35015KT CAVOK 01/M14 Q1017 NOSIG",
      "taf": "TAF LYPG 310500Z 3106/0106 36015G25KT CAVOK TX07/3112Z TNM05/0106Z"
    },
    {
      "icao": "LZIB",
      "alert": "OK",
      "vis_m": 9999,
      "fzfg": false,
      "metar_trigger": false,
      "taf_trigger": false,
      "metar": "METAR LZIB 310530Z 30014KT CAVOK M03/M08 Q1019 NOSIG",
      "taf": "TAF LZIB 310515Z 3106/0106 31012KT 9999 FEW035"
    },
    {
      "icao": "LZKZ",
      "alert": "OK",
      "vis_m": 9999,
      "fzfg": false,
      "metar_trigger": false,
      "taf_trigger": false,
      "metar": "METAR LZKZ 310530Z 21004KT 190V250 CAVOK M02/M12 Q1011 NOSIG",
      "taf": "TAF LZKZ 310515Z 3106/0106 31009KT 9999 SCT030"
    },
    {
      "icao": "LZTT",
      "alert": "OK",
      "vis_m": 9999,
      "fzfg": false,
      "metar_trigger": false,
      "taf_trigger": false,
      "metar": "METAR LZTT 310530Z 27017KT 9999 -SN FEW020 BKN053 M06/M13 Q1008",
      "taf": ""
    },
    {
      "icao": "OEJN",
      "alert": "OK",
      "vis_m": 9999,
      "fzfg": false,
      "metar_trigger": false,
      "taf_trigger": false,
      "metar": "METAR OEJN 310500Z 00000KT CAVOK 20/07 Q1015 NOSIG",
      "taf": "TAF OEJN 310500Z 3106/0112 27005KT CAVOK"
    },
    {
      "icao": "OEMA",
      "alert": "OK",
      "vis_m": 9999,
      "fzfg": false,
      "metar_trigger": false,
      "taf_trigger": false,
      "metar": "METAR OEMA 310500Z 00000KT CAVOK 13/M03 Q1022 NOSIG",
      "taf": "TAF OEMA 310500Z 3106/0112 12010KT 7000 NSC"
    },
    {
      "icao": "OJAI",
      "alert": "OK",
      "vis_m": 3000,
      "fzfg": false,
      "metar_trigger": false,
      "taf_trigger": false,
      "metar": "METAR OJAI 310500Z 00000KT 3000 BR NSC 04/03 Q1016 NOSIG",
      "taf": "TAF OJAI 310420Z 3106/0112 VRB02KT 3000 BR FEW030"
    },
    {
      "icao": "OMAA",
      "alert": "OK",
      "vis_m": 9999,
      "fzfg": false,
      "metar_trigger": false,
      "taf_trigger": false,
      "metar": "METAR OMAA 310500Z 31019KT 9999 SCT045 21/09 Q1018 NOSIG",
      "taf": "TAF OMAA 310500Z 3106/0112 31014KT 8000 SCT040"
    },
    {
      "icao": "OMDB",
      "alert": "OK",
      "vis_m": 9999,
      "fzfg": false,
      "metar_trigger": false,
      "taf_trigger": false,
      "metar": "METAR OMDB 310530Z 30016KT 210V320 9999 FEW045 21/09 Q1018 TEMPO 28020G30KT",
      "taf": "TAF OMDB 310500Z 3106/0112 29012KT 8000 FEW040"
    },
    {
      "icao": "UAAA",
      "alert": "OK",
      "vis_m": 9999,
      "fzfg": false,
      "metar_trigger": false,
      "taf_trigger": false,
      "metar": "METAR UAAA 310530Z VRB01MPS 9999 SCT100 BKN200 07/01 Q1011 NOSIG",
      "taf": "TAF UAAA 310505Z 3106/0106 29003G08MPS 5000 BR FU BKN050CB BKN100 TX08/3109Z TNM01/0101Z"
    },
    {
      "icao": "UBBB",
      "alert": "OK",
      "vis_m": 9999,
      "fzfg": false,
      "metar_trigger": false,
      "taf_trigger": false,
      "metar": "METAR UBBB 310530Z 21028G38KT CAVOK 09/M08 Q1005 NOSIG",
      "taf": "TAF UBBB 310509Z 3106/0106 19020G30KT CAVOK TX11/3110Z TN04/0103Z"
    },
    {
      "icao": "UDSG",
      "alert": "OK",
      "vis_m": 9999,
      "fzfg": false,
      "metar_trigger": false,
      "taf_trigger": false,
      "metar": "METAR UDSG 310530Z 11003KT 9999 FEW049 M13/M16 Q1013 NOSIG",
      "taf": "TAF UDSG 310458Z 3106/0106 VRB06KT 5000 BR BKN030"
    },
    {
      "icao": "UDYZ",
      "alert": "OK",
      "vis_m": 9999,
      "fzfg": false,
      "metar_trigger": false,
      "taf_trigger": false,
      "metar": "METAR UDYZ 310530Z 25002KT 9999 NSC M10/M13 Q1017 NOSIG",
      "taf": "TAF UDYZ 310500Z 3106/0106 VRB04KT 9999 SCT040"
    },
    {
      "icao": "UGKO",
      "alert": "OK",
      "vis_m": 9999,
      "fzfg": false,
      "metar_trigger": false,
      "taf_trigger": false,
      "metar": "METAR UGKO 310530Z 09017KT 9999 BKN060 03/M05 Q1006 NOSIG",
      "taf": "TAF UGKO 310500Z 3106/0106 08007KT CAVOK TX05/3112Z TNM00/0101Z"
    }
  ]
}