{
  "ts_utc": "2026-02-04T07:57:16Z",
  "threshold_m": 150,
  "source": "stations_override.txt (ICAO list) + aviationweather.gov (METAR/TAF raw)",
  "station_count": 159,
  "stations": [
    {
      "icao": "BIKF",
      "alert": "OK",
      "vis_m": 9999,
      "fzfg": false,
      "metar_trigger": false,
      "taf_trigger": false,
      "metar": "METAR BIKF 040730Z 07017KT 9999 SCT048 03/M03 Q1009",
      "taf": "TAF BIKF 040754Z 0409/0509 07015KT 9999 FEW030 TX04/0415Z TNM01/0506Z"
    },
    {
      "icao": "BKPR",
      "alert": "OK",
      "vis_m": null,
      "fzfg": false,
      "metar_trigger": false,
      "taf_trigger": false,
      "metar": "",
      "taf": "TAF BKPR 040530Z 0406/0506 17008KT 9999 SCT030 BKN080"
    },
    {
      "icao": "EBCI",
      "alert": "OK",
      "vis_m": 9999,
      "fzfg": false,
      "metar_trigger": false,
      "taf_trigger": false,
      "metar": "METAR EBCI 040750Z 12005KT CAVOK 04/03 Q0996 NOSIG",
      "taf": "TAF EBCI 040520Z 0406/0512 13007KT CAVOK"
    },
    {
      "icao": "EDDB",
      "alert": "OK",
      "vis_m": 8000,
      "fzfg": false,
      "metar_trigger": false,
      "taf_trigger": false,
      "metar": "METAR EDDB 040750Z AUTO 09010KT 8000 3400 BR OVC012 M07/M09 Q1008 NOSIG",
      "taf": "TAF EDDB 040500Z 0406/0506 08010KT 4000 -SN BKN014"
    },
    {
      "icao": "EDDH",
      "alert": "OK",
      "vis_m": 2100,
      "fzfg": false,
      "metar_trigger": false,
      "taf_trigger": false,
      "metar": "METAR EDDH 040750Z AUTO 10012KT 2100 SN BR SCT022 BKN026 M06/M09 Q1007 TEMPO 2500 -SN BKN014",
      "taf": "TAF EDDH 040500Z 0406/0512 09012KT 8000 SCT012 OVC020"
    },
    {
      "icao": "EDDK",
      "alert": "OK",
      "vis_m": 9999,
      "fzfg": false,
      "metar_trigger": false,
      "taf_trigger": false,
      "metar": "METAR EDDK 040750Z AUTO 02003KT 340V090 9999 BKN006 02/01 Q1000 BECMG CAVOK",
      "taf": "TAF EDDK 040500Z 0406/0512 11008KT 9999 BKN005"
    },
    {
      "icao": "EDDN",
      "alert": "OK",
      "vis_m": 2700,
      "fzfg": false,
      "metar_trigger": false,
      "taf_trigger": false,
      "metar": "METAR EDDN 040750Z AUTO 28002KT 2700 0500 R10/1100D BCFG NSC M04/M05 Q1002 BECMG 10006KT 5000",
      "taf": "TAF EDDN 040500Z 0406/0506 10006KT 4000 BR NSC"
    },
    {
      "icao": "EDDS",
      "alert": "OK",
      "vis_m": 9999,
      "fzfg": false,
      "metar_trigger": false,
      "taf_trigger": false,
      "metar": "METAR EDDS 040750Z AUTO VRB01KT CAVOK M01/M01 Q0998 NOSIG",
      "taf": "TAF EDDS 040500Z 0406/0506 VRB02KT 3000 BR NSC"
    },
    {
      "icao": "EDFH",
      "alert": "OK",
      "vis_m": 250,
      "fzfg": true,
      "metar_trigger": false,
      "taf_trigger": false,
      "metar": "METAR EDFH 040750Z 14013KT 0250 R21/0250N FZFG VV/// M01/M02 Q0998",
      "taf": "TAF EDFH 040500Z 0406/0506 13012KT 0700 FG OVC003"
    },
    {
      "icao": "EDJA",
      "alert": "OK",
      "vis_m": 9999,
      "fzfg": false,
      "metar_trigger": false,
      "taf_trigger": false,
      "metar": "METAR EDJA 040750Z COR 04006KT CAVOK M03/M03 Q0998",
      "taf": "TAF EDJA 040500Z 0406/0415 VRB03KT 8000 NSC"
    },
    {
      "icao": "EDLW",
      "alert": "OK",
      "vis_m": 9999,
      "fzfg": false,
      "metar_trigger": false,
      "taf_trigger": false,
      "metar": "METAR EDLW 040750Z 12009KT CAVOK 04/02 Q0999",
      "taf": "TAF EDLW 040500Z 0406/0506 13008KT CAVOK"
    },
    {
      "icao": "EDNY",
      "alert": "OK",
      "vis_m": 9999,
      "fzfg": false,
      "metar_trigger": false,
      "taf_trigger": false,
      "metar": "METAR EDNY 040750Z 05007KT CAVOK M01/M02 Q0997",
      "taf": "TAF EDNY 040500Z 0406/0415 04005KT CAVOK"
    },
    {
      "icao": "EDSB",
      "alert": "OK",
      "vis_m": 450,
      "fzfg": true,
      "metar_trigger": false,
      "taf_trigger": false,
      "metar": "METAR EDSB 040750Z 02009KT 0450 R21/0500N FZFG VV/// M01/M01 Q0999",
      "taf": "TAF EDSB 040500Z 0406/0506 03004KT 0800 FG VV002"
    },
    {
      "icao": "EETN",
      "alert": "OK",
      "vis_m": 5000,
      "fzfg": false,
      "metar_trigger": false,
      "taf_trigger": false,
      "metar": "METAR EETN 040750Z 06005KT 360V090 5000 -SN OVC010 M11/M13 Q1027 TEMPO 3000 SN",
      "taf": "TAF EETN 040530Z 0406/0506 06006KT 9999 OVC010"
    },
    {
      "icao": "EFTU",
      "alert": "OK",
      "vis_m": 9999,
      "fzfg": false,
      "metar_trigger": false,
      "taf_trigger": false,
      "metar": "METAR EFTU 040750Z AUTO VRB01KT CAVOK M17/M19 Q1028",
      "taf": "TAF EFTU 040527Z 0406/0506 VRB01KT 9999 FEW025"
    },
    {
      "icao": "EGBB",
      "alert": "OK",
      "vis_m": 1200,
      "fzfg": false,
      "metar_trigger": false,
      "taf_trigger": false,
      "metar": "METAR EGBB 040750Z 12003KT 080V150 1200 R15/P1500N BR OVC002 03/03 Q0991",
      "taf": "TAF EGBB 040459Z 0406/0506 VRB03KT 2000 BR OVC003"
    },
    {
      "icao": "EGGP",
      "alert": "OK",
      "vis_m": 9000,
      "fzfg": false,
      "metar_trigger": false,
      "taf_trigger": false,
      "metar": "METAR EGGP 040750Z 13006KT 9000 BKN010 OVC018 02/01 Q0991",
      "taf": "TAF EGGP 040457Z 0406/0506 10008KT 9999 SCT024 BKN030"
    },
    {
      "icao": "EGGW",
      "alert": "OK",
      "vis_m": 100,
      "fzfg": false,
      "metar_trigger": false,
      "taf_trigger": false,
      "metar": "METAR EGGW 040750Z 12005KT 0100 R07/0550N FG OVC001 04/04 Q0992",
      "taf": "TAF EGGW 040453Z 0406/0506 11007KT 0300 FG OVC000"
    },
    {
      "icao": "EGKK",
      "alert": "OK",
      "vis_m": 9999,
      "fzfg": false,
      "metar_trigger": false,
      "taf_trigger": false,
      "metar": "METAR EGKK 040750Z 13005KT 110V180 9999 FEW007 07/07 Q0992",
      "taf": "TAF EGKK 040455Z 0406/0512 15006KT 6000 BKN010"
    },
    {
      "icao": "EGNM",
      "alert": "OK",
      "vis_m": 300,
      "fzfg": false,
      "metar_trigger": false,
      "taf_trigger": false,
      "metar": "METAR EGNM 040750Z 07004KT 030V090 0300 R14/0700D -DZ FG VV/// 03/03 Q0992",
      "taf": "TAF EGNM 040525Z 0406/0506 08008KT 0300 -DZ FG VV///"
    },
    {
      "icao": "EGPD",
      "alert": "OK",
      "vis_m": 9999,
      "fzfg": false,
      "metar_trigger": false,
      "taf_trigger": false,
      "metar": "METAR EGPD 040750Z COR AUTO 12012KT 9999 -RA BKN010 BKN016 OVC023 03/01 Q0998 NOSIG",
      "taf": ""
    },
    {
      "icao": "EGPF",
      "alert": "OK",
      "vis_m": 9999,
      "fzfg": false,
      "metar_trigger": false,
      "taf_trigger": false,
      "metar": "METAR EGPF 040750Z AUTO 06015KT 9999 -RA SCT012 BKN017 BKN023 04/02 Q0993",
      "taf": "TAF EGPF 040453Z 0406/0506 07012KT 9999 SCT025"
    },
    {
      "icao": "EHBK",
      "alert": "OK",
      "vis_m": 9999,
      "fzfg": false,
      "metar_trigger": false,
      "taf_trigger": false,
      "metar": "METAR EHBK 040725Z AUTO 14005KT 120V200 9999 NSC 05/03 Q0998 NOSIG",
      "taf": "TAF EHBK 040513Z 0406/0512 13006KT CAVOK"
    },
    {
      "icao": "EHEH",
      "alert": "OK",
      "vis_m": null,
      "fzfg": false,
      "metar_trigger": false,
      "taf_trigger": false,
      "metar": "",
      "taf": "TAF EHEH 040543Z 0406/0512 13005KT 9999 SCT045"
    },
    {
      "icao": "EKBI",
      "alert": "OK",
      "vis_m": 9999,
      "fzfg": false,
      "metar_trigger": false,
      "taf_trigger": false,
      "metar": "METAR EKBI 040750Z AUTO 10025G36KT 9999 BKN024/// M03/M08 Q1009",
      "taf": "TAF EKBI 040527Z 0406/0506 09022G40KT 9999 SCT030"
    },
    {
      "icao": "EKCH",
      "alert": "OK",
      "vis_m": 9999,
      "fzfg": false,
      "metar_trigger": false,
      "taf_trigger": false,
      "metar": "METAR EKCH 040750Z AUTO 09023KT 9999 BKN019/// M02/M07 Q1014 TEMPO 09022G34KT",
      "taf": "TAF EKCH 040527Z 0406/0506 09018KT 9999 BKN020"
    },
    {
      "icao": "ENAL",
      "alert": "OK",
      "vis_m": 9999,
      "fzfg": false,
      "metar_trigger": false,
      "taf_trigger": false,
      "metar": "METAR ENAL 040750Z 11011KT CAVOK M01/M13 Q1016",
      "taf": "TAF ENAL 040500Z 0406/0415 13009KT CAVOK"
    },
    {
      "icao": "ENBR",
      "alert": "OK",
      "vis_m": 9999,
      "fzfg": false,
      "metar_trigger": false,
      "taf_trigger": false,
      "metar": "METAR ENBR 040750Z VRB02KT CAVOK M06/M16 Q1014 NOSIG RMK WIND 1200FT 10008KT",
      "taf": "TAF ENBR 040500Z 0406/0506 VRB03KT CAVOK"
    },
    {
      "icao": "ENGM",
      "alert": "OK",
      "vis_m": 9999,
      "fzfg": false,
      "metar_trigger": false,
      "taf_trigger": false,
      "metar": "METAR ENGM 040750Z 02007KT 9999 -SHSN OVC023 M08/M12 Q1024 NOSIG",
      "taf": "TAF ENGM 040500Z 0406/0506 03008KT 9999 BKN020"
    },
    {
      "icao": "ENHD",
      "alert": "OK",
      "vis_m": 9999,
      "fzfg": false,
      "metar_trigger": false,
      "taf_trigger": false,
      "metar": "METAR ENHD 040750Z 09018KT CAVOK M03/M14 Q1013",
      "taf": "TAF ENHD 040500Z 0406/0415 11018KT CAVOK"
    },
    {
      "icao": "ENTC",
      "alert": "OK",
      "vis_m": 9999,
      "fzfg": false,
      "metar_trigger": false,
      "taf_trigger": false,
      "metar": "METAR ENTC 040750Z 19013KT 9999 FEW016 SCT019 BKN026 00/M02 Q1020 NOSIG RMK WIND 2600FT 24008KT",
      "taf": "TAF ENTC 040500Z 0406/0506 19012KT 9999 SCT015 BKN030"
    },
    {
      "icao": "ENTO",
      "alert": "OK",
      "vis_m": 9999,
      "fzfg": false,
      "metar_trigger": false,
      "taf_trigger": false,
      "metar": "METAR ENTO 040750Z 04008KT 010V070 9999 BKN016 OVC018 M07/M10 Q1022 NOSIG",
      "taf": "TAF ENTO 040500Z 0406/0506 03012KT 9999 SCT012 BKN018"
    },
    {
      "icao": "ENVA",
      "alert": "OK",
      "vis_m": 9999,
      "fzfg": false,
      "metar_trigger": false,
      "taf_trigger": false,
      "metar": "METAR ENVA 040750Z 08007KT 040V110 CAVOK M06/M16 Q1021 NOSIG RMK WIND 670FT 12010KT",
      "taf": "TAF ENVA 040500Z 0406/0506 09008KT CAVOK"
    },
    {
      "icao": "ENZV",
      "alert": "OK",
      "vis_m": 9999,
      "fzfg": false,
      "metar_trigger": false,
      "taf_trigger": false,
      "metar": "METAR ENZV 040750Z 09018KT CAVOK M02/M12 Q1013 NOSIG",
      "taf": "TAF ENZV 040500Z 0406/0506 09016KT 9999 BKN045"
    },
    {
      "icao": "EPGD",
      "alert": "OK",
      "vis_m": 9999,
      "fzfg": false,
      "metar_trigger": false,
      "taf_trigger": false,
      "metar": "METAR EPGD 040730Z 08009KT 9999 BKN022 M10/M14 Q1015",
      "taf": "TAF EPGD 040530Z 0406/0506 09008KT 9999 BKN029"
    },
    {
      "icao": "EPKK",
      "alert": "OK",
      "vis_m": 6000,
      "fzfg": false,
      "metar_trigger": false,
      "taf_trigger": false,
      "metar": "METAR EPKK 040730Z 07006KT 6000 FEW006 BKN027 M03/M05 Q1009",
      "taf": ""
    },
    {
      "icao": "EPKT",
      "alert": "OK",
      "vis_m": 3800,
      "fzfg": false,
      "metar_trigger": false,
      "taf_trigger": false,
      "metar": "METAR EPKT 040730Z 10004KT 050V130 3800 BR BKN014 M02/M03 Q1008",
      "taf": "TAF EPKT 040530Z 0406/0506 10004KT 4000 BR BKN008 OVC012"
    },
    {
      "icao": "EPLB",
      "alert": "OK",
      "vis_m": 9999,
      "fzfg": false,
      "metar_trigger": false,
      "taf_trigger": false,
      "metar": "METAR EPLB 040730Z 09009KT 9999 OVC013 M09/M10 Q1013",
      "taf": "TAF EPLB 040530Z 0406/0506 09010KT 9999 BKN020"
    },
    {
      "icao": "EPMO",
      "alert": "OK",
      "vis_m": 1600,
      "fzfg": false,
      "metar_trigger": false,
      "taf_trigger": false,
      "metar": "METAR EPMO 040730Z 08013KT 1600 SN DRSN BR BKN019 OVC023 M10/M11 Q1013",
      "taf": ""
    },
    {
      "icao": "EPPO",
      "alert": "OK",
      "vis_m": 9999,
      "fzfg": false,
      "metar_trigger": false,
      "taf_trigger": false,
      "metar": "METAR EPPO 040730Z 09009KT 9999 OVC013 M08/M11 Q1011",
      "taf": "TAF EPPO 040530Z 0406/0506 09008KT 7000 BKN016"
    },
    {
      "icao": "EPRA",
      "alert": "OK",
      "vis_m": 5000,
      "fzfg": false,
      "metar_trigger": false,
      "taf_trigger": false,
      "metar": "METAR EPRA 040730Z 08008KT 5000 -SN BR OVC009 M08/M10 Q1011",
      "taf": ""
    },
    {
      "icao": "EPRZ",
      "alert": "OK",
      "vis_m": 9999,
      "fzfg": false,
      "metar_trigger": false,
      "taf_trigger": false,
      "metar": "METAR EPRZ 040730Z 08012KT 9999 OVC013 M05/M07 Q1010",
      "taf": "TAF EPRZ 040530Z 0406/0506 10012KT 9999 BKN020"
    },
    {
      "icao": "EPSC",
      "alert": "OK",
      "vis_m": 9999,
      "fzfg": false,
      "metar_trigger": false,
      "taf_trigger": false,
      "metar": "METAR EPSC 040730Z 08008KT 9999 OVC018 M08/M12 Q1011",
      "taf": "TAF EPSC 040530Z 0406/0506 09007KT 9999 OVC017"
    },
    {
      "icao": "EPSY",
      "alert": "OK",
      "vis_m": 9999,
      "fzfg": false,
      "metar_trigger": false,
      "taf_trigger": false,
      "metar": "METAR EPSY 040730Z 07007KT 040V120 9999 BKN031 M13/M18 Q1016",
      "taf": "TAF EPSY 040530Z 0406/0415 08010KT 9999 BKN025"
    },
    {
      "icao": "EPWA",
      "alert": "OK",
      "vis_m": 9999,
      "fzfg": false,
      "metar_trigger": false,
      "taf_trigger": false,
      "metar": "METAR EPWA 040730Z 09011KT 9999 -SN OVC015 M09/M12 Q1013 BECMG BKN010",
      "taf": "TAF EPWA 040530Z 0406/0506 09010KT 9999 SCT012 BKN020"
    },
    {
      "icao": "EPWR",
      "alert": "OK",
      "vis_m": 6000,
      "fzfg": false,
      "metar_trigger": false,
      "taf_trigger": false,
      "metar": "METAR EPWR 040730Z 09004KT 6000 OVC007 M03/M04 Q1008",
      "taf": "TAF EPWR 040530Z 0406/0506 10008KT 5000 BR OVC006"
    },
    {
      "icao": "ESGG",
      "alert": "OK",
      "vis_m": 9999,
      "fzfg": false,
      "metar_trigger": false,
      "taf_trigger": false,
      "metar": "METAR ESGG 040750Z 09014KT 060V120 9999 BKN024 M05/M10 Q1017",
      "taf": "TAF ESGG 040530Z 0406/0506 09012G22KT 9999 OVC025"
    },
    {
      "icao": "ESKN",
      "alert": "OK",
      "vis_m": 9999,
      "fzfg": false,
      "metar_trigger": false,
      "taf_trigger": false,
      "metar": "METAR ESKN 040750Z 11011KT 9999 -SN BKN023 M04/M08 Q1025",
      "taf": "TAF ESKN 040530Z 0406/0506 10016KT 9999 BKN025"
    },
    {
      "icao": "ESMS",
      "alert": "OK",
      "vis_m": 9999,
      "fzfg": false,
      "metar_trigger": false,
      "taf_trigger": false,
      "metar": "METAR ESMS 040750Z 09021KT 9999 BKN016 M03/M07 Q1013",
      "taf": "TAF ESMS 040527Z 0406/0506 09020KT 9999 BKN016"
    },
    {
      "icao": "ESSA",
      "alert": "OK",
      "vis_m": 9999,
      "fzfg": false,
      "metar_trigger": false,
      "taf_trigger": false,
      "metar": "METAR ESSA 040750Z 08009KT 9999 BKN024 M06/M10 Q1027 NOSIG",
      "taf": "TAF ESSA 040530Z 0406/0506 06008KT 9999 BKN025"
    },
    {
      "icao": "EYKA",
      "alert": "OK",
      "vis_m": 9999,
      "fzfg": false,
      "metar_trigger": false,
      "taf_trigger": false,
      "metar": "METAR EYKA 040750Z 09007KT CAVOK M17/M19 Q1023",
      "taf": "TAF EYKA 040500Z 0406/0506 08010KT 9000 NSC"
    },
    {
      "icao": "EYPA",
      "alert": "OK",
      "vis_m": 9999,
      "fzfg": false,
      "metar_trigger": false,
      "taf_trigger": false,
      "metar": "METAR EYPA 040750Z 08007KT CAVOK M15/M18 Q1023",
      "taf": "TAF EYPA 040500Z 0406/0506 07014KT 9000 NSC"
    },
    {
      "icao": "EYVI",
      "alert": "OK",
      "vis_m": 9999,
      "fzfg": false,
      "metar_trigger": false,
      "taf_trigger": false,
      "metar": "METAR EYVI 040750Z 10006KT 9999 FEW002 M15/M17 Q1022 NOSIG",
      "taf": "TAF EYVI 040500Z 0406/0506 10010KT 9000 NSC"
    },
    {
      "icao": "GCFV",
      "alert": "OK",
      "vis_m": 9999,
      "fzfg": false,
      "metar_trigger": false,
      "taf_trigger": false,
      "metar": "METAR GCFV 040730Z VRB02KT 9999 FEW025 16/12 Q1018",
      "taf": "TAF GCFV 040200Z 0403/0503 27004KT 9999 FEW025 TX22/0414Z TN16/0406Z"
    },
    {
      "icao": "GCLP",
      "alert": "OK",
      "vis_m": 9999,
      "fzfg": false,
      "metar_trigger": false,
      "taf_trigger": false,
      "metar": "METAR GCLP 040730Z 30006KT 9999 FEW023 16/12 Q1018 NOSIG",
      "taf": "TAF GCLP 040200Z 0403/0503 27004KT 9999 FEW025 TX22/0414Z TN14/0406Z"
    },
    {
      "icao": "GCTS",
      "alert": "OK",
      "vis_m": 9999,
      "fzfg": false,
      "metar_trigger": false,
      "taf_trigger": false,
      "metar": "METAR GCTS 040730Z 01006KT 9999 FEW030 15/11 Q1019 NOSIG",
      "taf": "TAF GCTS 040200Z 0403/0503 36005KT 9999 FEW030 TX24/0414Z TN16/0406Z"
    },
    {
      "icao": "GMAD",
      "alert": "OK",
      "vis_m": 6000,
      "fzfg": false,
      "metar_trigger": false,
      "taf_trigger": false,
      "metar": "METAR GMAD 040730Z 21009KT 6000 SCT010 SCT016 14/14 Q1016 NOSIG",
      "taf": "TAF GMAD 040500Z 0406/0512 18004KT 8000 SCT016 SCT080"
    },
    {
      "icao": "GMMN",
      "alert": "OK",
      "vis_m": 9999,
      "fzfg": false,
      "metar_trigger": false,
      "taf_trigger": false,
      "metar": "METAR GMMN 040730Z 22018KT 9999 SCT008 BKN016 14/12 Q1013 NOSIG",
      "taf": "TAF GMMN 040500Z 0406/0512 22020G30KT 9999 SCT008 BKN016 SCT023TCU"
    },
    {
      "icao": "GMMX",
      "alert": "OK",
      "vis_m": 9999,
      "fzfg": false,
      "metar_trigger": false,
      "taf_trigger": false,
      "metar": "METAR GMMX 040730Z 20003KT 160V270 CAVOK 11/09 Q1016 NOSIG",
      "taf": "TAF GMMX 040500Z 0406/0512 22006KT 8000 NSC"
    },
    {
      "icao": "HEGN",
      "alert": "OK",
      "vis_m": 9999,
      "fzfg": false,
      "metar_trigger": false,
      "taf_trigger": false,
      "metar": "METAR HEGN 040700Z 30012KT CAVOK 18/09 Q1021 NOSIG",
      "taf": "TAF HEGN 040500Z 0406/0512 32015KT CAVOK"
    },
    {
      "icao": "HEMA",
      "alert": "OK",
      "vis_m": 9999,
      "fzfg": false,
      "metar_trigger": false,
      "taf_trigger": false,
      "metar": "METAR HEMA 040700Z 33017KT CAVOK 21/09 Q1019 NOSIG",
      "taf": "TAF HEMA 040500Z 0406/0512 33017KT CAVOK"
    },
    {
      "icao": "HESH",
      "alert": "OK",
      "vis_m": 9999,
      "fzfg": false,
      "metar_trigger": false,
      "taf_trigger": false,
      "metar": "METAR HESH 040700Z 36013KT CAVOK 20/06 Q1020 NOSIG",
      "taf": "TAF HESH 040500Z 0406/0512 35014KT CAVOK"
    },
    {
      "icao": "HESX",
      "alert": "OK",
      "vis_m": 4000,
      "fzfg": false,
      "metar_trigger": false,
      "taf_trigger": false,
      "metar": "METAR HESX 040700Z 09002KT 4000 HZ NSC 15/10 Q1021 NOSIG",
      "taf": "TAF HESX 040500Z 0406/0512 VRB02KT 6000 NSC"
    },
    {
      "icao": "LATI",
      "alert": "OK",
      "vis_m": 9999,
      "fzfg": false,
      "metar_trigger": false,
      "taf_trigger": false,
      "metar": "METAR LATI 040750Z 18003KT 9999 SCT120 10/05 Q1009 NOSIG",
      "taf": "TAF LATI 040500Z 0406/0506 VRB06KT 9999 BKN100 TX20/0412Z TN10/0504Z"
    },
    {
      "icao": "LBPD",
      "alert": "OK",
      "vis_m": 9000,
      "fzfg": false,
      "metar_trigger": false,
      "taf_trigger": false,
      "metar": "METAR LBPD 040730Z AUTO VRB02KT 9000 OVC010/// M00/M01 Q1019 NOSIG",
      "taf": "TAF LBPD 040500Z 0406/0506 VRB03KT 7000 OVC010"
    },
    {
      "icao": "LBSF",
      "alert": "OK",
      "vis_m": 9999,
      "fzfg": false,
      "metar_trigger": false,
      "taf_trigger": false,
      "metar": "METAR LBSF 040730Z VRB01KT 8000 NSC M01/M02 Q1016 BECMG CAVOK",
      "taf": "TAF LBSF 040500Z 0406/0506 10010KT 9999 SCT050 BKN070"
    },
    {
      "icao": "LBWN",
      "alert": "OK",
      "vis_m": 9999,
      "fzfg": false,
      "metar_trigger": false,
      "taf_trigger": false,
      "metar": "METAR LBWN 040730Z 15008KT 9999 FEW012 SCT021 OVC026 05/04 Q1020 NOSIG",
      "taf": "TAF LBWN 040500Z 0406/0506 12010KT 9999 BKN020"
    },
    {
      "icao": "LCLK",
      "alert": "OK",
      "vis_m": 9999,
      "fzfg": false,
      "metar_trigger": false,
      "taf_trigger": false,
      "metar": "METAR LCLK 040730Z 33003KT 270V010 9999 FEW045 19/09 Q1020 NOSIG",
      "taf": "TAF LCLK 040530Z 0406/0506 30006KT CAVOK"
    },
    {
      "icao": "LCPH",
      "alert": "OK",
      "vis_m": 9999,
      "fzfg": false,
      "metar_trigger": false,
      "taf_trigger": false,
      "metar": "METAR LCPH 040730Z AUTO 07004KT 010V080 9999 NCD 16/07 Q1020 NOSIG",
      "taf": "TAF LCPH 040530Z 0406/0506 02008KT CAVOK"
    },
    {
      "icao": "LEAL",
      "alert": "OK",
      "vis_m": 9999,
      "fzfg": false,
      "metar_trigger": false,
      "taf_trigger": false,
      "metar": "METAR LEAL 040730Z VRB02KT 9999 -RA BKN010 09/09 Q0995 RERA NOSIG",
      "taf": "TAF LEAL 040500Z 0406/0506 26007KT 9999 FEW030 TX18/0413Z TN08/0407Z"
    },
    {
      "icao": "LEBB",
      "alert": "OK",
      "vis_m": 9999,
      "fzfg": false,
      "metar_trigger": false,
      "taf_trigger": false,
      "metar": "METAR LEBB 040730Z 18008KT 100V230 9999 FEW030 BKN069 12/03 Q0986 NOSIG",
      "taf": "TAF LEBB 040500Z 0406/0506 20009KT 9999 FEW055 TX14/0412Z TN09/0406Z"
    },
    {
      "icao": "LEBL",
      "alert": "OK",
      "vis_m": 9999,
      "fzfg": false,
      "metar_trigger": false,
      "taf_trigger": false,
      "metar": "METAR LEBL 040730Z 32006KT 260V350 9999 -DZ FEW028 SCT048 BKN060 06/04 Q0994 NOSIG",
      "taf": "TAF LEBL 040500Z 0406/0506 34008KT 9999 FEW020 TX14/0414Z TN06/0406Z"
    },
    {
      "icao": "LECH",
      "alert": "OK",
      "vis_m": 8000,
      "fzfg": false,
      "metar_trigger": false,
      "taf_trigger": false,
      "metar": "METAR LECH 040730Z AUTO 21001KT 8000 NCD 05/04 Q0993",
      "taf": ""
    },
    {
      "icao": "LEMD",
      "alert": "OK",
      "vis_m": 9000,
      "fzfg": false,
      "metar_trigger": false,
      "taf_trigger": false,
      "metar": "METAR LEMD 040730Z 19006KT 100V240 9000 OVC007 04/04 Q0993 NOSIG",
      "taf": ""
    },
    {
      "icao": "LEMG",
      "alert": "OK",
      "vis_m": 9999,
      "fzfg": false,
      "metar_trigger": false,
      "taf_trigger": false,
      "metar": "METAR LEMG 040730Z 30005KT 9999 -RA FEW030 12/11 Q0998 NOSIG",
      "taf": "TAF LEMG 040500Z 0406/0506 VRB02KT 9999 SCT020 TX16/0414Z TN10/0407Z"
    },
    {
      "icao": "LEVC",
      "alert": "OK",
      "vis_m": 9999,
      "fzfg": false,
      "metar_trigger": false,
      "taf_trigger": false,
      "metar": "METAR LEVC 040730Z 28004KT 9999 FEW035 07/06 Q0994 NOSIG",
      "taf": "TAF LEVC 040500Z 0406/0506 22007KT 9999 FEW030 TX18/0413Z TN07/0406Z"
    },
    {
      "icao": "LEXJ",
      "alert": "OK",
      "vis_m": 9999,
      "fzfg": false,
      "metar_trigger": false,
      "taf_trigger": false,
      "metar": "METAR LEXJ 040730Z VRB09G19KT 9999 BKN058 11/01 Q0984",
      "taf": "TAF LEXJ 040200Z 0403/0503 20009KT 9999 SCT050 TX16/0413Z TN09/0404Z"
    },
    {
      "icao": "LEZG",
      "alert": "OK",
      "vis_m": 9999,
      "fzfg": false,
      "metar_trigger": false,
      "taf_trigger": false,
      "metar": "METAR LEZG 040730Z 11007KT 080V140 9999 -DZ SCT030 BKN040 BKN050 05/05 Q0992 NOSIG",
      "taf": "TAF LEZG 040500Z 0406/0506 13010KT 9999 FEW020 TX14/0414Z TN04/0406Z"
    },
    {
      "icao": "LEZL",
      "alert": "OK",
      "vis_m": 9999,
      "fzfg": false,
      "metar_trigger": false,
      "taf_trigger": false,
      "metar": "METAR LEZL 040730Z 26012KT 230V290 9999 -RA BKN040 15/13 Q0999 NOSIG",
      "taf": "TAF LEZL 040200Z 0403/0503 24015KT 9999 BKN020 TX18/0415Z TN12/0407Z"
    },
    {
      "icao": "LFBD",
      "alert": "OK",
      "vis_m": 9999,
      "fzfg": false,
      "metar_trigger": false,
      "taf_trigger": false,
      "metar": "METAR LFBD 040730Z AUTO 16009KT CAVOK 07/05 Q0987 TEMPO 4000 SHRA BKN030TCU",
      "taf": "TAF LFBD 040500Z 0406/0512 16010KT CAVOK TX12/0416Z TN05/0406Z"
    },
    {
      "icao": "LFLL",
      "alert": "OK",
      "vis_m": 9999,
      "fzfg": false,
      "metar_trigger": false,
      "taf_trigger": false,
      "metar": "METAR LFLL 040730Z 15007KT CAVOK 05/03 Q0995 NOSIG",
      "taf": "TAF LFLL 040500Z 0406/0512 14008KT CAVOK"
    },
    {
      "icao": "LFLS",
      "alert": "OK",
      "vis_m": 9999,
      "fzfg": false,
      "metar_trigger": false,
      "taf_trigger": false,
      "metar": "METAR LFLS 040730Z AUTO 09009KT CAVOK 03/01 Q0994 NOSIG",
      "taf": "TAF LFLS 040200Z 0403/0503 09007KT CAVOK"
    },
    {
      "icao": "LFMN",
      "alert": "OK",
      "vis_m": 9999,
      "fzfg": false,
      "metar_trigger": false,
      "taf_trigger": false,
      "metar": "METAR LFMN 040730Z 35006KT 9999 -RA FEW040 BKN050 09/06 Q0997 NOSIG",
      "taf": "TAF LFMN 040200Z 0403/0509 34010KT 9999 BKN050"
    },
    {
      "icao": "LFOB",
      "alert": "OK",
      "vis_m": 9999,
      "fzfg": false,
      "metar_trigger": false,
      "taf_trigger": false,
      "metar": "METAR LFOB 040730Z AUTO 09005KT CAVOK 01/01 Q0993 TEMPO 3000 BR",
      "taf": "TAF LFOB 040500Z 0406/0506 09010KT 8000 NSC"
    },
    {
      "icao": "LFPO",
      "alert": "OK",
      "vis_m": 9999,
      "fzfg": false,
      "metar_trigger": false,
      "taf_trigger": false,
      "metar": "METAR LFPO 040730Z VRB03KT CAVOK 03/02 Q0993 NOSIG",
      "taf": "TAF LFPO 040500Z 0406/0512 12006KT CAVOK"
    },
    {
      "icao": "LFSB",
      "alert": "OK",
      "vis_m": 2700,
      "fzfg": false,
      "metar_trigger": false,
      "taf_trigger": false,
      "metar": "METAR LFSB 040730Z AUTO 24002KT 2700 BR NSC M01/M01 Q0997 BECMG 9000 NSW",
      "taf": ""
    },
    {
      "icao": "LGAV",
      "alert": "OK",
      "vis_m": 9999,
      "fzfg": false,
      "metar_trigger": false,
      "taf_trigger": false,
      "metar": "METAR LGAV 040750Z VRB01KT 9999 FEW018 SCT025 14/10 Q1017 NOSIG",
      "taf": "TAF LGAV 040500Z 0406/0506 20012KT 9999 SCT025"
    },
    {
      "icao": "LGTS",
      "alert": "OK",
      "vis_m": 8000,
      "fzfg": false,
      "metar_trigger": false,
      "taf_trigger": false,
      "metar": "METAR LGTS 040750Z VRB02KT 8000 4000E BR SCT005 BKN025 10/10 Q1016 NOSIG",
      "taf": ""
    },
    {
      "icao": "LHBP",
      "alert": "OK",
      "vis_m": 8000,
      "fzfg": false,
      "metar_trigger": false,
      "taf_trigger": false,
      "metar": "SPECI LHBP 040746Z 08006KT 8000 -RA SCT004 OVC014 02/01 Q1009 BECMG SCT006 OVC015",
      "taf": "TAF LHBP 040515Z 0406/0506 08008KT 8000 -RA SCT008 OVC030"
    },
    {
      "icao": "LHDC",
      "alert": "OK",
      "vis_m": 2600,
      "fzfg": false,
      "metar_trigger": false,
      "taf_trigger": false,
      "metar": "METAR LHDC 040715Z AUTO 07006KT 050V110 2600 RA BR BKN009 04/03 Q1010 TEMPO 3500 -RA BR BKN010",
      "taf": "TAF LHDC 040515Z 0406/0415 08007KT 8000 -RA SCT008 OVC025"
    },
    {
      "icao": "LIBD",
      "alert": "OK",
      "vis_m": 9999,
      "fzfg": false,
      "metar_trigger": false,
      "taf_trigger": false,
      "metar": "METAR LIBD 040750Z 16018G33KT 9999 FEW030 16/11 Q1002",
      "taf": "TAF LIBD 040500Z 0406/0506 18012KT CAVOK"
    },
    {
      "icao": "LIBG",
      "alert": "OK",
      "vis_m": 7000,
      "fzfg": false,
      "metar_trigger": false,
      "taf_trigger": false,
      "metar": "SPECI LIBG 040656Z 15018KT 7000 SCT010 SCT020 15/13 Q1005",
      "taf": "TAF LIBG 040709Z 0408/0415 17020G35KT 9999 FEW010 SCT020"
    },
    {
      "icao": "LIBP",
      "alert": "OK",
      "vis_m": 9999,
      "fzfg": false,
      "metar_trigger": false,
      "taf_trigger": false,
      "metar": "METAR LIBP 040750Z AUTO 20003KT 9999 OVC007/// 11/10 Q1000",
      "taf": "TAF LIBP 040500Z 0406/0506 VRB05KT 9999 OVC080"
    },
    {
      "icao": "LIBR",
      "alert": "OK",
      "vis_m": 9999,
      "fzfg": false,
      "metar_trigger": false,
      "taf_trigger": false,
      "metar": "METAR LIBR 040750Z 15018KT 9999 BKN020 15/11 Q1005",
      "taf": "TAF LIBR 040500Z 0406/0506 16025G35KT CAVOK"
    },
    {
      "icao": "LICA",
      "alert": "OK",
      "vis_m": 9999,
      "fzfg": false,
      "metar_trigger": false,
      "taf_trigger": false,
      "metar": "METAR LICA 040750Z AUTO 10016KT 9999 -RA BKN022/// 16/13 Q1002",
      "taf": "TAF LICA 040500Z 0406/0506 07022G33KT 9999 SCT025"
    },
    {
      "icao": "LICC",
      "alert": "OK",
      "vis_m": 6000,
      "fzfg": false,
      "metar_trigger": false,
      "taf_trigger": false,
      "metar": "METAR LICC 040750Z VRB05KT 6000 -RA SCT025 BKN080 16/13 Q1000",
      "taf": "TAF LICC 040500Z 0406/0506 05012KT 9999 SCT030"
    },
    {
      "icao": "LICJ",
      "alert": "OK",
      "vis_m": 9999,
      "fzfg": false,
      "metar_trigger": false,
      "taf_trigger": false,
      "metar": "METAR LICJ 040750Z VRB02KT CAVOK 17/09 Q0995",
      "taf": "TAF LICJ 040500Z 0406/0506 18015KT 9999 SCT030"
    },
    {
      "icao": "LIMC",
      "alert": "OK",
      "vis_m": 4000,
      "fzfg": false,
      "metar_trigger": false,
      "taf_trigger": false,
      "metar": "METAR LIMC 040750Z 36006KT 4000 RA BR OVC027 04/04 Q1001 NOSIG",
      "taf": "TAF LIMC 040500Z 0406/0512 VRB05KT 2000 BR BKN006"
    },
    {
      "icao": "LIME",
      "alert": "OK",
      "vis_m": 6000,
      "fzfg": false,
      "metar_trigger": false,
      "taf_trigger": false,
      "metar": "METAR LIME 040750Z 03003KT 6000 -RA FEW002 SCT020 BKN045 05/05 Q1000 NOSIG",
      "taf": "TAF LIME 040500Z 0406/0506 VRB05KT 2000 BR BKN006"
    },
    {
      "icao": "LIMF",
      "alert": "OK",
      "vis_m": 1800,
      "fzfg": false,
      "metar_trigger": false,
      "taf_trigger": false,
      "metar": "METAR LIMF 040750Z 09005KT 1800 -RA BR BKN025 04/02 Q1001",
      "taf": "TAF LIMF 040500Z 0406/0506 VRB05KT 6000 BKN030"
    },
    {
      "icao": "LIMJ",
      "alert": "OK",
      "vis_m": 9999,
      "fzfg": false,
      "metar_trigger": false,
      "taf_trigger": false,
      "metar": "METAR LIMJ 040750Z 04014KT 9999 -RA FEW035 BKN050 06/03 Q0998",
      "taf": "TAF LIMJ 040500Z 0406/0506 02015KT 7000 RA BKN030"
    },
    {
      "icao": "LIPE",
      "alert": "OK",
      "vis_m": 2500,
      "fzfg": false,
      "metar_trigger": false,
      "taf_trigger": false,
      "metar": "METAR LIPE 040750Z VRB02KT 2500 -RA BR BKN005 BKN012 04/04 Q1001 RERA",
      "taf": "TAF LIPE 040500Z 0406/0506 VRB05KT 3000 RA BR FEW002 BKN010"
    },
    {
      "icao": "LIPH",
      "alert": "OK",
      "vis_m": 5000,
      "fzfg": false,
      "metar_trigger": false,
      "taf_trigger": false,
      "metar": "METAR LIPH 040750Z 04004KT 350V060 5000 RA BR BKN007 BKN012 07/07 Q1002",
      "taf": ""
    },
    {
      "icao": "LIPQ",
      "alert": "OK",
      "vis_m": 9999,
      "fzfg": false,
      "metar_trigger": false,
      "taf_trigger": false,
      "metar": "METAR LIPQ 040750Z AUTO 04003KT 010V080 9999 -RA OVC049/// 08/07 Q1002",
      "taf": "TAF LIPQ 040500Z 0406/0506 VRB05KT 9000 FEW010"
    },
    {
      "icao": "LIPR",
      "alert": "OK",
      "vis_m": 2500,
      "fzfg": false,
      "metar_trigger": false,
      "taf_trigger": false,
      "metar": "METAR LIPR 040750Z 32003KT 2500 -RA BR BKN004 BKN015 06/06 Q1001",
      "taf": "TAF LIPR 040500Z 0406/0506 VRB05KT 3000 RA BR BKN005"
    },
    {
      "icao": "LIPX",
      "alert": "OK",
      "vis_m": 1000,
      "fzfg": false,
      "metar_trigger": false,
      "taf_trigger": false,
      "metar": "METAR LIPX 040750Z 03002KT 1000 R04/P2000N -RA BR BKN003 05/05 Q1001",
      "taf": "TAF LIPX 040500Z 0406/0506 VRB05KT 2000 RA BR BKN010"
    },
    {
      "icao": "LIPY",
      "alert": "OK",
      "vis_m": 6000,
      "fzfg": false,
      "metar_trigger": false,
      "taf_trigger": false,
      "metar": "METAR LIPY 040750Z AUTO 34004KT 310V010 6000 -RA OVC004/// 08/08 Q1001",
      "taf": ""
    },
    {
      "icao": "LIPZ",
      "alert": "OK",
      "vis_m": 7000,
      "fzfg": false,
      "metar_trigger": false,
      "taf_trigger": false,
      "metar": "METAR LIPZ 040750Z 03008KT 7000 RA BKN010 OVC040 06/06 Q1002 BECMG BKN004",
      "taf": "TAF LIPZ 040500Z 0406/0512 VRB05KT 9000 BKN010"
    },
    {
      "icao": "LIRF",
      "alert": "OK",
      "vis_m": 7000,
      "fzfg": false,
      "metar_trigger": false,
      "taf_trigger": false,
      "metar": "METAR LIRF 040750Z 12007KT 7000 -DZ SCT055 13/09 Q0997 NOSIG",
      "taf": "TAF LIRF 040500Z 0406/0512 14016KT 9999 SCT030"
    },
    {
      "icao": "LIRN",
      "alert": "OK",
      "vis_m": 9999,
      "fzfg": false,
      "metar_trigger": false,
      "taf_trigger": false,
      "metar": "METAR LIRN 040750Z 18004KT 120V290 CAVOK 16/03 Q0999 NOSIG",
      "taf": "TAF LIRN 040500Z 0406/0506 17015KT 9999 SCT030"
    },
    {
      "icao": "LIRP",
      "alert": "OK",
      "vis_m": 9999,
      "fzfg": false,
      "metar_trigger": false,
      "taf_trigger": false,
      "metar": "METAR LIRP 040745Z 09009KT 9999 -RA SCT020 BKN040 10/10 Q0997 NOSIG",
      "taf": "TAF LIRP 040500Z 0406/0506 04004KT 8000 RA SCT030 BKN040"
    },
    {
      "icao": "LIRZ",
      "alert": "OK",
      "vis_m": 9999,
      "fzfg": false,
      "metar_trigger": false,
      "taf_trigger": false,
      "metar": "METAR LIRZ 040750Z AUTO 02008KT 9999 -RA OVC046/// 09/09 Q0998",
      "taf": "TAF LIRZ 040500Z 0406/0506 VRB05KT 9999 BKN020"
    },
    {
      "icao": "LJLJ",
      "alert": "OK",
      "vis_m": 4000,
      "fzfg": false,
      "metar_trigger": false,
      "taf_trigger": false,
      "metar": "METAR LJLJ 040730Z 28003KT 4000 -RA BR FEW001 OVC009 04/03 Q1004 NOSIG",
      "taf": "TAF LJLJ 040500Z 0406/0506 VRB02KT 7000 -RA FEW004 OVC020"
    },
    {
      "icao": "LKMT",
      "alert": "OK",
      "vis_m": 3500,
      "fzfg": false,
      "metar_trigger": false,
      "taf_trigger": false,
      "metar": "METAR LKMT 040730Z 31002KT 3500 BR OVC017 M02/M04 Q1008 NOSIG",
      "taf": "TAF LKMT 040500Z 0406/0506 03006KT 7000 OVC023"
    },
    {
      "icao": "LKPR",
      "alert": "OK",
      "vis_m": 7000,
      "fzfg": false,
      "metar_trigger": false,
      "taf_trigger": false,
      "metar": "METAR LKPR 040730Z 12006KT 7000 FEW016 OVC022 M00/M01 Q1005 NOSIG",
      "taf": "TAF LKPR 040500Z 0406/0512 11008KT 9000 OVC023"
    },
    {
      "icao": "LLBG",
      "alert": "OK",
      "vis_m": 9999,
      "fzfg": false,
      "metar_trigger": false,
      "taf_trigger": false,
      "metar": "METAR LLBG 040750Z 20006KT 9999 FEW044 17/09 Q1022 NOSIG",
      "taf": "TAF LLBG 040501Z 0406/0506 VRB04KT 9999 SCT040"
    },
    {
      "icao": "LMML",
      "alert": "OK",
      "vis_m": 5000,
      "fzfg": false,
      "metar_trigger": false,
      "taf_trigger": false,
      "metar": "METAR LMML 040745Z 22015G26KT 180V250 5000 DU BKN016 16/10 Q0999 BECMG 7000 NSW",
      "taf": ""
    },
    {
      "icao": "LOWW",
      "alert": "OK",
      "vis_m": 1400,
      "fzfg": false,
      "metar_trigger": false,
      "taf_trigger": false,
      "metar": "METAR LOWW 040750Z 10006KT 070V130 1400 R11/P1500D R16/P1500N BR BKN002 01/00 Q1007 TEMPO 2000 BR",
      "taf": "TAF LOWW 040515Z 0406/0512 12010KT 5000 BR OVC006 TX03/0511Z TN00/0407Z"
    },
    {
      "icao": "LPFR",
      "alert": "OK",
      "vis_m": 7000,
      "fzfg": false,
      "metar_trigger": false,
      "taf_trigger": false,
      "metar": "METAR LPFR 040730Z 25024KT 7000 SCT006 BKN009 16/15 Q1000",
      "taf": "TAF LPFR 040500Z 0406/0506 25023KT 6000 -RA SCT005 BKN012"
    },
    {
      "icao": "LPMA",
      "alert": "OK",
      "vis_m": 9999,
      "fzfg": false,
      "metar_trigger": false,
      "taf_trigger": false,
      "metar": "METAR LPMA 040730Z 22021KT 9999 FEW015 18/14 Q1012",
      "taf": "TAF LPMA 040500Z 0406/0506 VRB05KT 9999 SCT015"
    },
    {
      "icao": "LPPR",
      "alert": "OK",
      "vis_m": 6000,
      "fzfg": false,
      "metar_trigger": false,
      "taf_trigger": false,
      "metar": "METAR LPPR 040730Z 23011KT 200V260 6000 SCT012 BKN015 14/13 Q0991",
      "taf": "TAF LPPR 040500Z 0406/0506 26010KT 8000 SCT012 BKN025"
    },
    {
      "icao": "LPPS",
      "alert": "OK",
      "vis_m": 9999,
      "fzfg": false,
      "metar_trigger": false,
      "taf_trigger": false,
      "metar": "METAR LPPS 040730Z 28017KT 9999 FEW010 17/15 Q1012",
      "taf": "TAF LPPS 040500Z 0406/0512 27017KT 9999 SCT013"
    },
    {
      "icao": "LPPT",
      "alert": "OK",
      "vis_m": 5000,
      "fzfg": false,
      "metar_trigger": false,
      "taf_trigger": false,
      "metar": "METAR LPPT 040730Z 30006KT 260V330 5000 -RA FEW005 SCT011 BKN018 12/12 Q0997 RERA",
      "taf": "TAF LPPT 040500Z 0406/0512 26018G30KT 9999 SCT012 SCT020"
    },
    {
      "icao": "LQBK",
      "alert": "OK",
      "vis_m": 2000,
      "fzfg": false,
      "metar_trigger": false,
      "taf_trigger": false,
      "metar": "METAR LQBK 040730Z VRB01KT 2000 BR BKN002 05/05 Q1005 TEMPO 4000 BKN005",
      "taf": "TAF LQBK 040500Z 0406/0506 VRB02KT 9999 SCT040 TX11/0414Z TN04/0505Z"
    },
    {
      "icao": "LQSA",
      "alert": "OK",
      "vis_m": 9999,
      "fzfg": false,
      "metar_trigger": false,
      "taf_trigger": false,
      "metar": "METAR LQSA 040730Z 12009KT 080V160 9999 -RA SCT035 BKN050 10/08 Q1006 NOSIG",
      "taf": "TAF LQSA 040500Z 0406/0506 11005KT 9999 BKN045 TX12/0413Z TN05/0505Z"
    },
    {
      "icao": "LQTZ",
      "alert": "OK",
      "vis_m": 9999,
      "fzfg": false,
      "metar_trigger": false,
      "taf_trigger": false,
      "metar": "METAR LQTZ 040730Z 17007KT 120V230 9999 SCT065 14/06 Q1005",
      "taf": "TAF LQTZ 040500Z 0406/0506 08007KT 9999 SCT050 TX16/0414Z TN04/0505Z"
    },
    {
      "icao": "LRBC",
      "alert": "OK",
      "vis_m": 9999,
      "fzfg": false,
      "metar_trigger": false,
      "taf_trigger": false,
      "metar": "METAR LRBC 040730Z 16014KT 9999 OVC007 M02/M04 Q1016",
      "taf": "TAF LRBC 040500Z 0406/0415 16014KT 9999 OVC010"
    },
    {
      "icao": "LRBS",
      "alert": "OK",
      "vis_m": 9999,
      "fzfg": false,
      "metar_trigger": false,
      "taf_trigger": false,
      "metar": "METAR LRBS 040730Z 05005KT 020V090 CAVOK M01/M04 Q1018 NOSIG",
      "taf": "TAF LRBS 040500Z 0406/0506 05010KT CAVOK"
    },
    {
      "icao": "LRBV",
      "alert": "OK",
      "vis_m": 9999,
      "fzfg": false,
      "metar_trigger": false,
      "taf_trigger": false,
      "metar": "METAR LRBV 040730Z 11010KT CAVOK 01/M03 Q1012",
      "taf": "TAF LRBV 040500Z 0406/0415 12006KT 9999 BKN060"
    },
    {
      "icao": "LRCL",
      "alert": "OK",
      "vis_m": 9999,
      "fzfg": false,
      "metar_trigger": false,
      "taf_trigger": false,
      "metar": "METAR LRCL 040730Z 07009KT 9999 -RA OVC055 03/00 Q1011",
      "taf": "TAF LRCL 040500Z 0406/0415 10008KT 9999 BKN050"
    },
    {
      "icao": "LRCV",
      "alert": "OK",
      "vis_m": 9999,
      "fzfg": false,
      "metar_trigger": false,
      "taf_trigger": false,
      "metar": "METAR LRCV 040730Z COR 07003KT CAVOK M02/M06 Q1018",
      "taf": "TAF LRCV 040500Z 0406/0415 04005KT CAVOK"
    },
    {
      "icao": "LRIA",
      "alert": "OK",
      "vis_m": 9999,
      "fzfg": false,
      "metar_trigger": false,
      "taf_trigger": false,
      "metar": "METAR LRIA 040730Z 11015KT 9999 OVC010 M02/M05 Q1018",
      "taf": "TAF LRIA 040500Z 0406/0415 11014KT 9999 OVC010"
    },
    {
      "icao": "LROP",
      "alert": "OK",
      "vis_m": 9999,
      "fzfg": false,
      "metar_trigger": false,
      "taf_trigger": false,
      "metar": "METAR LROP 040730Z 07008KT CAVOK M02/M06 Q1018 NOSIG",
      "taf": "TAF LROP 040500Z 0406/0506 05010KT CAVOK"
    },
    {
      "icao": "LRSB",
      "alert": "OK",
      "vis_m": 9999,
      "fzfg": false,
      "metar_trigger": false,
      "taf_trigger": false,
      "metar": "METAR LRSB 040730Z 26005KT CAVOK 02/M00 Q1011",
      "taf": "TAF LRSB 040500Z 0406/0506 24006KT CAVOK"
    },
    {
      "icao": "LRSM",
      "alert": "OK",
      "vis_m": 9999,
      "fzfg": false,
      "metar_trigger": false,
      "taf_trigger": false,
      "metar": "METAR LRSM 040730Z 09003KT 9999 -RA OVC028 04/02 Q1011",
      "taf": "TAF LRSM 040500Z 0406/0415 13006KT 9999 OVC035"
    },
    {
      "icao": "LRSV",
      "alert": "OK",
      "vis_m": 9999,
      "fzfg": false,
      "metar_trigger": false,
      "taf_trigger": false,
      "metar": "METAR LRSV 040730Z 13010KT CAVOK M05/M06 Q1014",
      "taf": "TAF LRSV 040500Z 0406/0415 15012KT CAVOK"
    },
    {
      "icao": "LRTM",
      "alert": "OK",
      "vis_m": 7000,
      "fzfg": false,
      "metar_trigger": false,
      "taf_trigger": false,
      "metar": "METAR LRTM 040730Z 08005KT 7000 BKN049 03/01 Q1012",
      "taf": "TAF LRTM 040500Z 0406/0415 08005KT CAVOK"
    },
    {
      "icao": "LRTR",
      "alert": "OK",
      "vis_m": 9999,
      "fzfg": false,
      "metar_trigger": false,
      "taf_trigger": false,
      "metar": "METAR LRTR 040730Z 10014KT 9999 -RA NSC 04/03 Q1009 NOSIG",
      "taf": "TAF LRTR 040500Z 0406/0506 11012KT 9999 SCT040"
    },
    {
      "icao": "LTAC",
      "alert": "OK",
      "vis_m": 9999,
      "fzfg": false,
      "metar_trigger": false,
      "taf_trigger": false,
      "metar": "METAR LTAC 040750Z VRB02KT CAVOK 00/M04 Q1022 NOSIG",
      "taf": "TAF LTAC 040440Z 0406/0506 VRB02KT CAVOK"
    },
    {
      "icao": "LTFM",
      "alert": "OK",
      "vis_m": 9999,
      "fzfg": false,
      "metar_trigger": false,
      "taf_trigger": false,
      "metar": "METAR LTFM 040750Z 16007KT 9999 SCT045 BKN180 07/03 Q1020 NOSIG",
      "taf": "TAF LTFM 040440Z 0406/0512 15006KT 9999 SCT035 BKN180"
    },
    {
      "icao": "LUKK",
      "alert": "OK",
      "vis_m": 9999,
      "fzfg": false,
      "metar_trigger": false,
      "taf_trigger": false,
      "metar": "METAR LUKK 040730Z 11008KT 9999 OVC017 M03/M05 Q1021 NOSIG",
      "taf": "TAF LUKK 040511Z 0406/0506 13014KT 9999 OVC012"
    },
    {
      "icao": "LWOH",
      "alert": "OK",
      "vis_m": 9999,
      "fzfg": false,
      "metar_trigger": false,
      "taf_trigger": false,
      "metar": "METAR LWOH 040750Z VRB01KT 9999 FEW040 07/05 Q1014",
      "taf": "TAF LWOH 040530Z 0406/0506 VRB02KT 9999 BKN040"
    },
    {
      "icao": "LWSK",
      "alert": "OK",
      "vis_m": 9999,
      "fzfg": false,
      "metar_trigger": false,
      "taf_trigger": false,
      "metar": "METAR LWSK 040750Z VRB01KT 9999 BKN010 OVC035 05/03 Q1015 NOSIG",
      "taf": "TAF LWSK 040530Z 0406/0506 VRB02KT 9999 SCT010 BKN017"
    },
    {
      "icao": "LYBE",
      "alert": "OK",
      "vis_m": 9999,
      "fzfg": false,
      "metar_trigger": false,
      "taf_trigger": false,
      "metar": "METAR LYBE 040730Z 14019KT 9999 -RA SCT046 06/02 Q1008 NOSIG",
      "taf": "TAF LYBE 040500Z 0406/0506 12018KT 9999 SCT045 TX09/0412Z TN05/0506Z"
    },
    {
      "icao": "LYNI",
      "alert": "OK",
      "vis_m": 9999,
      "fzfg": false,
      "metar_trigger": false,
      "taf_trigger": false,
      "metar": "METAR LYNI 040730Z 11011KT CAVOK 08/02 Q1013 NOSIG",
      "taf": "TAF LYNI 040500Z 0406/0506 11008KT CAVOK TX11/0413Z TN05/0406Z"
    },
    {
      "icao": "LYPG",
      "alert": "OK",
      "vis_m": 2600,
      "fzfg": false,
      "metar_trigger": false,
      "taf_trigger": false,
      "metar": "METAR LYPG 040730Z VRB01KT 2600 BR FEW004 SCT040 BKN080 07/07 Q1010 BECMG 9999 NSW",
      "taf": "TAF LYPG 040500Z 0406/0506 16005KT 9999 FEW010 SCT040 BKN080 TX16/0416Z TN07/0406Z"
    },
    {
      "icao": "LZIB",
      "alert": "OK",
      "vis_m": 8000,
      "fzfg": false,
      "metar_trigger": false,
      "taf_trigger": false,
      "metar": "METAR LZIB 040730Z 06009KT 8000 -RA OVC006 01/00 Q1007 NOSIG",
      "taf": "TAF LZIB 040515Z 0406/0506 06010KT 9999 OVC016"
    },
    {
      "icao": "LZKZ",
      "alert": "OK",
      "vis_m": 5000,
      "fzfg": false,
      "metar_trigger": false,
      "taf_trigger": false,
      "metar": "METAR LZKZ 040730Z 35003KT 5000 -RA BR SCT007 OVC011 01/01 Q1010 NOSIG",
      "taf": "TAF LZKZ 040515Z 0406/0506 34005KT 9999 OVC020"
    },
    {
      "icao": "LZTT",
      "alert": "OK",
      "vis_m": 9999,
      "fzfg": false,
      "metar_trigger": false,
      "taf_trigger": false,
      "metar": "METAR LZTT 040730Z 28002KT 9999 BKN005 BKN023 M02/M03 Q1007 NOSIG",
      "taf": ""
    },
    {
      "icao": "OEJN",
      "alert": "OK",
      "vis_m": 9999,
      "fzfg": false,
      "metar_trigger": false,
      "taf_trigger": false,
      "metar": "METAR OEJN 040700Z 03006KT CAVOK 26/13 Q1016 NOSIG",
      "taf": "TAF OEJN 040500Z 0406/0512 33012KT CAVOK"
    },
    {
      "icao": "OEMA",
      "alert": "OK",
      "vis_m": 9000,
      "fzfg": false,
      "metar_trigger": false,
      "taf_trigger": false,
      "metar": "METAR OEMA 040700Z 05013KT 9000 NSC 20/M01 Q1023 NOSIG",
      "taf": "TAF OEMA 040500Z 0406/0512 09008KT CAVOK"
    },
    {
      "icao": "OJAI",
      "alert": "OK",
      "vis_m": 4000,
      "fzfg": false,
      "metar_trigger": false,
      "taf_trigger": false,
      "metar": "METAR OJAI 040700Z 23005KT 4000 HZ SCT030 10/07 Q1022 NOSIG",
      "taf": "TAF OJAI 040429Z 0406/0512 26006KT 5000 HZ FEW035"
    },
    {
      "icao": "OMAA",
      "alert": "OK",
      "vis_m": 9999,
      "fzfg": false,
      "metar_trigger": false,
      "taf_trigger": false,
      "metar": "METAR OMAA 040730Z 16011KT CAVOK 26/12 Q1017 NOSIG",
      "taf": "TAF OMAA 040500Z 0406/0512 15012KT 8000 NSC"
    },
    {
      "icao": "OMDB",
      "alert": "OK",
      "vis_m": 9999,
      "fzfg": false,
      "metar_trigger": false,
      "taf_trigger": false,
      "metar": "METAR OMDB 040730Z 17009KT 140V200 CAVOK 26/12 Q1017 NOSIG",
      "taf": "TAF OMDB 040500Z 0406/0512 17008KT 8000 NSC"
    },
    {
      "icao": "UAAA",
      "alert": "OK",
      "vis_m": 5000,
      "fzfg": false,
      "metar_trigger": false,
      "taf_trigger": false,
      "metar": "METAR UAAA 040730Z 03003MPS 360V080 5000 BR BKN006 04/03 Q1024 NOSIG RMK QBB190",
      "taf": ""
    },
    {
      "icao": "UBBB",
      "alert": "OK",
      "vis_m": 9999,
      "fzfg": false,
      "metar_trigger": false,
      "taf_trigger": false,
      "metar": "METAR UBBB 040730Z 33036G46KT 9999 -RASN BKN008 OVC020 02/01 Q1019 WS R35 TEMPO BKN015",
      "taf": ""
    },
    {
      "icao": "UDSG",
      "alert": "OK",
      "vis_m": 9999,
      "fzfg": false,
      "metar_trigger": false,
      "taf_trigger": false,
      "metar": "METAR UDSG 040730Z 35009KT 9999 SCT040 M00/M08 Q1016 NOSIG",
      "taf": "TAF UDSG 040458Z 0406/0506 VRB06KT 9999 SCT040"
    },
    {
      "icao": "UDYZ",
      "alert": "OK",
      "vis_m": 9999,
      "fzfg": false,
      "metar_trigger": false,
      "taf_trigger": false,
      "metar": "METAR UDYZ 040730Z 14003KT 9999 FEW046 04/00 Q1015 NOSIG",
      "taf": "TAF UDYZ 040500Z 0406/0506 VRB06KT 9999 SCT040"
    },
    {
      "icao": "UGKO",
      "alert": "OK",
      "vis_m": 9999,
      "fzfg": false,
      "metar_trigger": false,
      "taf_trigger": false,
      "metar": "METAR UGKO 040730Z 27012KT 9999 -RA SCT020 OVC028 04/03 Q1024 NOSIG",
      "taf": "TAF UGKO 040500Z 0406/0506 25008KT 9999 SCT030 OVC050 TX07/0410Z TNM01/0503Z"
    }
  ]
}