{
  "ts_utc": "2026-04-05T20:17:02Z",
  "threshold_m": 150,
  "source": "stations_override.txt (ICAO list) + aviationweather.gov (METAR/TAF raw)",
  "station_count": 159,
  "stations": [
    {
      "icao": "BIKF",
      "alert": "OK",
      "vis_m": 9999,
      "fzfg": false,
      "metar_trigger": false,
      "taf_trigger": false,
      "metar": "METAR BIKF 052000Z 15009KT 9999 FEW029 SCT180 01/M03 Q1006",
      "taf": "TAF BIKF 051930Z 0521/0621 07006KT 9999 FEW030 TX04/0617Z TNM01/0523Z"
    },
    {
      "icao": "BKPR",
      "alert": "OK",
      "vis_m": 9999,
      "fzfg": false,
      "metar_trigger": false,
      "taf_trigger": false,
      "metar": "METAR BKPR 052000Z 30005KT CAVOK 10/06 Q1023 NOSIG",
      "taf": "TAF BKPR 051730Z 0518/0618 34006KT 9999 FEW080"
    },
    {
      "icao": "EBCI",
      "alert": "OK",
      "vis_m": 9999,
      "fzfg": false,
      "metar_trigger": false,
      "taf_trigger": false,
      "metar": "METAR EBCI 051950Z 25007KT CAVOK 08/01 Q1024 NOSIG",
      "taf": "TAF EBCI 051702Z 0518/0624 25010KT 9999 FEW045"
    },
    {
      "icao": "EDDB",
      "alert": "OK",
      "vis_m": 9999,
      "fzfg": false,
      "metar_trigger": false,
      "taf_trigger": false,
      "metar": "METAR EDDB 051950Z AUTO 26012KT CAVOK 10/04 Q1015 NOSIG",
      "taf": "TAF EDDB 051700Z 0518/0618 28015G25KT 9999 SCT045"
    },
    {
      "icao": "EDDH",
      "alert": "OK",
      "vis_m": 9999,
      "fzfg": false,
      "metar_trigger": false,
      "taf_trigger": false,
      "metar": "METAR EDDH 051950Z AUTO 27012G23KT 240V300 9999 BKN028 BKN039 08/03 Q1016 NOSIG",
      "taf": "TAF EDDH 051700Z 0518/0624 27011KT 9999 SCT035"
    },
    {
      "icao": "EDDK",
      "alert": "OK",
      "vis_m": 9999,
      "fzfg": false,
      "metar_trigger": false,
      "taf_trigger": false,
      "metar": "METAR EDDK 051950Z AUTO 31009KT 9999 -SHRA FEW029 SCT037 BKN044 FEW///TCU 09/06 Q1023 RESHRA NOSIG",
      "taf": "TAF EDDK 051700Z 0518/0624 28012KT 9999 SCT040"
    },
    {
      "icao": "EDDN",
      "alert": "OK",
      "vis_m": 9999,
      "fzfg": false,
      "metar_trigger": false,
      "taf_trigger": false,
      "metar": "METAR EDDN 051950Z AUTO 28012KT CAVOK 14/05 Q1021 BECMG 28007KT",
      "taf": "TAF EDDN 051700Z 0518/0618 27013KT 9999 FEW040"
    },
    {
      "icao": "EDDS",
      "alert": "OK",
      "vis_m": 9999,
      "fzfg": false,
      "metar_trigger": false,
      "taf_trigger": false,
      "metar": "METAR EDDS 051950Z AUTO 28007KT 250V320 CAVOK 13/07 Q1022 NOSIG",
      "taf": "TAF EDDS 051700Z 0518/0618 27008KT CAVOK"
    },
    {
      "icao": "EDFH",
      "alert": "OK",
      "vis_m": 9999,
      "fzfg": false,
      "metar_trigger": false,
      "taf_trigger": false,
      "metar": "METAR EDFH 051950Z 29011KT 260V320 9999 FEW035 SCT043 09/03 Q1022",
      "taf": "TAF EDFH 051700Z 0518/0618 27012KT 9999 SCT030"
    },
    {
      "icao": "EDJA",
      "alert": "OK",
      "vis_m": 9999,
      "fzfg": false,
      "metar_trigger": false,
      "taf_trigger": false,
      "metar": "METAR EDJA 051950Z 24006KT CAVOK 13/05 Q1022",
      "taf": "TAF EDJA 051700Z 0518/0603 25010KT CAVOK"
    },
    {
      "icao": "EDLW",
      "alert": "OK",
      "vis_m": 9999,
      "fzfg": false,
      "metar_trigger": false,
      "taf_trigger": false,
      "metar": "METAR EDLW 051950Z 24008KT CAVOK 09/05 Q1021",
      "taf": "TAF EDLW 051700Z 0518/0618 24008KT 9999 SCT035"
    },
    {
      "icao": "EDNY",
      "alert": "OK",
      "vis_m": 9999,
      "fzfg": false,
      "metar_trigger": false,
      "taf_trigger": false,
      "metar": "METAR EDNY 051950Z AUTO 21002KT 9999 // BKN095/// BKN130/// 15/09 Q1022",
      "taf": "TAF EDNY 051700Z 0518/0603 25008KT CAVOK"
    },
    {
      "icao": "EDSB",
      "alert": "OK",
      "vis_m": 9999,
      "fzfg": false,
      "metar_trigger": false,
      "taf_trigger": false,
      "metar": "METAR EDSB 051950Z 20006KT CAVOK 13/08 Q1023",
      "taf": "TAF EDSB 051700Z 0518/0618 28006KT CAVOK"
    },
    {
      "icao": "EETN",
      "alert": "OK",
      "vis_m": 9999,
      "fzfg": false,
      "metar_trigger": false,
      "taf_trigger": false,
      "metar": "METAR EETN 051950Z 19013KT 9999 BKN015 05/04 Q0997 NOSIG",
      "taf": "TAF EETN 051730Z 0518/0618 19012KT 9999 SCT015 OVC035"
    },
    {
      "icao": "EFTU",
      "alert": "OK",
      "vis_m": 9999,
      "fzfg": false,
      "metar_trigger": false,
      "taf_trigger": false,
      "metar": "METAR EFTU 051950Z AUTO 18010KT CAVOK 04/03 Q0990",
      "taf": ""
    },
    {
      "icao": "EGBB",
      "alert": "OK",
      "vis_m": 9999,
      "fzfg": false,
      "metar_trigger": false,
      "taf_trigger": false,
      "metar": "METAR EGBB 051950Z 26004KT CAVOK 08/M03 Q1023",
      "taf": "TAF EGBB 051655Z 0518/0618 28010KT 9999 FEW030"
    },
    {
      "icao": "EGGP",
      "alert": "OK",
      "vis_m": 9999,
      "fzfg": false,
      "metar_trigger": false,
      "taf_trigger": false,
      "metar": "METAR EGGP 051950Z 23006KT CAVOK 06/01 Q1022",
      "taf": "TAF EGGP 051655Z 0518/0618 28014KT 9999 SCT035"
    },
    {
      "icao": "EGGW",
      "alert": "OK",
      "vis_m": 9999,
      "fzfg": false,
      "metar_trigger": false,
      "taf_trigger": false,
      "metar": "METAR EGGW 051950Z AUTO 25008KT 9999 NCD 06/M00 Q1023",
      "taf": "TAF EGGW 051652Z 0518/0618 27015KT 9999 FEW035"
    },
    {
      "icao": "EGKK",
      "alert": "OK",
      "vis_m": 9999,
      "fzfg": false,
      "metar_trigger": false,
      "taf_trigger": false,
      "metar": "METAR EGKK 051950Z 27006KT CAVOK 07/M02 Q1024",
      "taf": "TAF EGKK 051656Z 0518/0624 25012KT 9999 FEW040"
    },
    {
      "icao": "EGNM",
      "alert": "OK",
      "vis_m": 9999,
      "fzfg": false,
      "metar_trigger": false,
      "taf_trigger": false,
      "metar": "METAR EGNM 051950Z 25011KT 9999 FEW040 05/M00 Q1021",
      "taf": "TAF EGNM 051655Z 0518/0618 26012KT 9999 SCT030"
    },
    {
      "icao": "EGPD",
      "alert": "OK",
      "vis_m": 9999,
      "fzfg": false,
      "metar_trigger": false,
      "taf_trigger": false,
      "metar": "METAR EGPD 051950Z COR AUTO 25011KT 9999 NCD 04/M03 Q1013 NOSIG",
      "taf": "TAF EGPD 051654Z 0518/0618 28016G28KT 9999 FEW040"
    },
    {
      "icao": "EGPF",
      "alert": "OK",
      "vis_m": 9999,
      "fzfg": false,
      "metar_trigger": false,
      "taf_trigger": false,
      "metar": "METAR EGPF 051950Z AUTO 23009KT 9999 NCD 04/01 Q1018",
      "taf": ""
    },
    {
      "icao": "EHBK",
      "alert": "OK",
      "vis_m": 9999,
      "fzfg": false,
      "metar_trigger": false,
      "taf_trigger": false,
      "metar": "METAR EHBK 051955Z AUTO 26006KT 220V300 9999 FEW019 FEW028CB BKN042 OVC048 10/03 Q1023 REDZ TEMPO -SHRA FEW025TCU",
      "taf": "TAF EHBK 051702Z 0518/0624 25011KT 9999 SCT040"
    },
    {
      "icao": "EHEH",
      "alert": "OK",
      "vis_m": 9999,
      "fzfg": false,
      "metar_trigger": false,
      "taf_trigger": false,
      "metar": "METAR EHEH 051955Z AUTO 24004KT 210V280 9999 OVC310 08/03 Q1022 BLU TEMPO 24014G28KT SCT020CB BKN030",
      "taf": "TAF EHEH 051757Z 0518/0624 25012KT 9999 FEW035"
    },
    {
      "icao": "EKBI",
      "alert": "OK",
      "vis_m": 9999,
      "fzfg": false,
      "metar_trigger": false,
      "taf_trigger": false,
      "metar": "METAR EKBI 051950Z AUTO 25017KT 9999 BKN020/// 05/02 Q1010",
      "taf": "TAF EKBI 051727Z 0518/0618 26027G42KT 9999 BKN030"
    },
    {
      "icao": "EKCH",
      "alert": "OK",
      "vis_m": 9999,
      "fzfg": false,
      "metar_trigger": false,
      "taf_trigger": false,
      "metar": "METAR EKCH 051950Z AUTO 25020KT 9999 BKN039/// 07/01 Q1009 NOSIG",
      "taf": "TAF EKCH 051727Z 0518/0618 25025G35KT 9999 FEW045"
    },
    {
      "icao": "ENAL",
      "alert": "OK",
      "vis_m": 9999,
      "fzfg": false,
      "metar_trigger": false,
      "taf_trigger": false,
      "metar": "METAR ENAL 051950Z 27016KT 9999 -SHRA SCT015 BKN020 04/02 Q0993",
      "taf": "TAF ENAL 051700Z 0518/0603 30008KT 9999 -RA FEW008 BKN035"
    },
    {
      "icao": "ENBR",
      "alert": "OK",
      "vis_m": 9999,
      "fzfg": false,
      "metar_trigger": false,
      "taf_trigger": false,
      "metar": "METAR ENBR 051950Z 30016KT 9999 SHRASN FEW012CB SCT035 02/00 Q1000 RMK WIND 1200FT 30030G47KT",
      "taf": ""
    },
    {
      "icao": "ENGM",
      "alert": "OK",
      "vis_m": 9999,
      "fzfg": false,
      "metar_trigger": false,
      "taf_trigger": false,
      "metar": "METAR ENGM 051950Z 27005KT 230V310 9999 VCSH SCT049 03/M01 Q0986 TEMPO 30015G25KT",
      "taf": "TAF ENGM 051700Z 0518/0618 27010KT 9999 FEW015"
    },
    {
      "icao": "ENHD",
      "alert": "OK",
      "vis_m": 9999,
      "fzfg": false,
      "metar_trigger": false,
      "taf_trigger": false,
      "metar": "METAR ENHD 051950Z 28027KT 9999 FEW029 06/01 Q1002",
      "taf": "TAF ENHD 051100Z 0512/0521 27009KT 8000 -RA SCT007 BKN015"
    },
    {
      "icao": "ENTC",
      "alert": "OK",
      "vis_m": 9999,
      "fzfg": false,
      "metar_trigger": false,
      "taf_trigger": false,
      "metar": "METAR ENTC 051950Z 05003KT 020V100 CAVOK 01/M04 Q0995 NOSIG RMK WIND 2600FT 17011KT",
      "taf": "TAF ENTC 051700Z 0518/0618 36006KT CAVOK"
    },
    {
      "icao": "ENTO",
      "alert": "OK",
      "vis_m": 9999,
      "fzfg": false,
      "metar_trigger": false,
      "taf_trigger": false,
      "metar": "METAR ENTO 051950Z 29013G27KT CAVOK 07/M03 Q0991 NOSIG",
      "taf": "TAF ENTO 051700Z 0518/0618 22012KT 9999 SCT030"
    },
    {
      "icao": "ENVA",
      "alert": "OK",
      "vis_m": 9999,
      "fzfg": false,
      "metar_trigger": false,
      "taf_trigger": false,
      "metar": "METAR ENVA 051950Z 23006KT 9999 -DZ SCT010 BKN013 02/01 Q0986 RMK WIND 670FT 26007KT",
      "taf": ""
    },
    {
      "icao": "ENZV",
      "alert": "OK",
      "vis_m": 9999,
      "fzfg": false,
      "metar_trigger": false,
      "taf_trigger": false,
      "metar": "METAR ENZV 051950Z 28021KT 9999 FEW020CB SCT025 06/01 Q1002 TEMPO SHRA SCT020CB",
      "taf": ""
    },
    {
      "icao": "EPGD",
      "alert": "OK",
      "vis_m": 9999,
      "fzfg": false,
      "metar_trigger": false,
      "taf_trigger": false,
      "metar": "METAR EPGD 052000Z 26010KT CAVOK 07/01 Q1010",
      "taf": "TAF EPGD 051730Z 0518/0618 26012KT CAVOK"
    },
    {
      "icao": "EPKK",
      "alert": "OK",
      "vis_m": 9999,
      "fzfg": false,
      "metar_trigger": false,
      "taf_trigger": false,
      "metar": "METAR EPKK 052000Z 23010KT CAVOK 17/05 Q1014",
      "taf": "TAF EPKK 051730Z 0518/0618 24012KT CAVOK"
    },
    {
      "icao": "EPKT",
      "alert": "OK",
      "vis_m": 9999,
      "fzfg": false,
      "metar_trigger": false,
      "taf_trigger": false,
      "metar": "METAR EPKT 052000Z 21016KT CAVOK 17/06 Q1013",
      "taf": ""
    },
    {
      "icao": "EPLB",
      "alert": "OK",
      "vis_m": 9999,
      "fzfg": false,
      "metar_trigger": false,
      "taf_trigger": false,
      "metar": "METAR EPLB 052000Z 21009KT CAVOK 14/05 Q1012",
      "taf": ""
    },
    {
      "icao": "EPMO",
      "alert": "OK",
      "vis_m": 9999,
      "fzfg": false,
      "metar_trigger": false,
      "taf_trigger": false,
      "metar": "METAR EPMO 052000Z 34011KT 310V020 9999 FEW024 10/06 Q1013",
      "taf": ""
    },
    {
      "icao": "EPPO",
      "alert": "OK",
      "vis_m": 9999,
      "fzfg": false,
      "metar_trigger": false,
      "taf_trigger": false,
      "metar": "METAR EPPO 052000Z 23007KT 9999 -SHRA FEW047CB BKN048 10/08 Q1014",
      "taf": ""
    },
    {
      "icao": "EPRA",
      "alert": "OK",
      "vis_m": 9999,
      "fzfg": false,
      "metar_trigger": false,
      "taf_trigger": false,
      "metar": "METAR EPRA 052000Z 29008KT 260V320 9999 -SHRA BKN046CB 13/09 Q1013 RETS",
      "taf": "TAF EPRA 051730Z 0518/0603 24012KT CAVOK"
    },
    {
      "icao": "EPRZ",
      "alert": "OK",
      "vis_m": 9999,
      "fzfg": false,
      "metar_trigger": false,
      "taf_trigger": false,
      "metar": "METAR EPRZ 052000Z 19011KT CAVOK 15/05 Q1014",
      "taf": "TAF EPRZ 051730Z 0518/0618 20014KT CAVOK"
    },
    {
      "icao": "EPSC",
      "alert": "OK",
      "vis_m": 9999,
      "fzfg": false,
      "metar_trigger": false,
      "taf_trigger": false,
      "metar": "METAR EPSC 052000Z 24005KT CAVOK 07/05 Q1013",
      "taf": "TAF EPSC 051730Z 0518/0618 24008KT CAVOK"
    },
    {
      "icao": "EPSY",
      "alert": "OK",
      "vis_m": 9999,
      "fzfg": false,
      "metar_trigger": false,
      "taf_trigger": false,
      "metar": "METAR EPSY 052000Z VRB02KT 9999 BKN042 06/04 Q1012",
      "taf": "TAF EPSY 051730Z 0518/0603 28013KT 9999 BKN040"
    },
    {
      "icao": "EPWA",
      "alert": "OK",
      "vis_m": 9999,
      "fzfg": false,
      "metar_trigger": false,
      "taf_trigger": false,
      "metar": "METAR EPWA 052000Z 36010KT 9999 FEW020 12/08 Q1012 NOSIG",
      "taf": ""
    },
    {
      "icao": "EPWR",
      "alert": "OK",
      "vis_m": 9999,
      "fzfg": false,
      "metar_trigger": false,
      "taf_trigger": false,
      "metar": "METAR EPWR 052000Z 30018KT 9999 FEW026CB 14/07 Q1015",
      "taf": ""
    },
    {
      "icao": "ESGG",
      "alert": "OK",
      "vis_m": 9999,
      "fzfg": false,
      "metar_trigger": false,
      "taf_trigger": false,
      "metar": "METAR ESGG 051950Z 25029G45KT 9999 SCT026 BKN037 05/M00 Q0996",
      "taf": "TAF ESGG 051730Z 0518/0618 25035G50KT 9999 BKN025"
    },
    {
      "icao": "ESKN",
      "alert": "OK",
      "vis_m": 9999,
      "fzfg": false,
      "metar_trigger": false,
      "taf_trigger": false,
      "metar": "METAR ESKN 051950Z 23026G38KT 9999 SCT032 BKN043 06/01 Q0988",
      "taf": "TAF ESKN 051730Z 0518/0618 22024G40KT CAVOK"
    },
    {
      "icao": "ESMS",
      "alert": "OK",
      "vis_m": 9999,
      "fzfg": false,
      "metar_trigger": false,
      "taf_trigger": false,
      "metar": "METAR ESMS 051950Z 25020KT CAVOK 06/00 Q1008",
      "taf": "TAF ESMS 051727Z 0518/0618 24025G35KT 9999 FEW035"
    },
    {
      "icao": "ESSA",
      "alert": "OK",
      "vis_m": 9999,
      "fzfg": false,
      "metar_trigger": false,
      "taf_trigger": false,
      "metar": "METAR ESSA 051950Z 22020KT 9999 BKN029 05/01 Q0985 NOSIG",
      "taf": "TAF ESSA 051730Z 0518/0618 21018G28KT 9999 -RA FEW020 BKN035"
    },
    {
      "icao": "EYKA",
      "alert": "OK",
      "vis_m": 9999,
      "fzfg": false,
      "metar_trigger": false,
      "taf_trigger": false,
      "metar": "METAR EYKA 051950Z 26003KT 170V280 CAVOK 07/04 Q1008",
      "taf": "TAF EYKA 051700Z 0518/0618 24015KT 9000 BKN030"
    },
    {
      "icao": "EYPA",
      "alert": "OK",
      "vis_m": 9999,
      "fzfg": false,
      "metar_trigger": false,
      "taf_trigger": false,
      "metar": "METAR EYPA 051950Z 25008G18KT 180V290 CAVOK 05/02 Q1006",
      "taf": "TAF EYPA 051700Z 0518/0618 25015G30KT 9000 NSC"
    },
    {
      "icao": "EYVI",
      "alert": "OK",
      "vis_m": 9999,
      "fzfg": false,
      "metar_trigger": false,
      "taf_trigger": false,
      "metar": "METAR EYVI 051950Z 29013KT 9999 -SHRA SCT048 BKN056CB 10/05 Q1008 NOSIG",
      "taf": "TAF EYVI 051700Z 0518/0618 20014KT 9000 BKN025"
    },
    {
      "icao": "GCFV",
      "alert": "OK",
      "vis_m": 9999,
      "fzfg": false,
      "metar_trigger": false,
      "taf_trigger": false,
      "metar": "METAR GCFV 052000Z 03008KT CAVOK 20/16 Q1013",
      "taf": ""
    },
    {
      "icao": "GCLP",
      "alert": "OK",
      "vis_m": 9999,
      "fzfg": false,
      "metar_trigger": false,
      "taf_trigger": false,
      "metar": "METAR GCLP 052000Z 01015KT CAVOK 20/15 Q1012 NOSIG",
      "taf": ""
    },
    {
      "icao": "GCTS",
      "alert": "OK",
      "vis_m": 9999,
      "fzfg": false,
      "metar_trigger": false,
      "taf_trigger": false,
      "metar": "METAR GCTS 052000Z 25003KT 210V280 9999 FEW100 20/15 Q1013 NOSIG",
      "taf": ""
    },
    {
      "icao": "GMAD",
      "alert": "OK",
      "vis_m": 8000,
      "fzfg": false,
      "metar_trigger": false,
      "taf_trigger": false,
      "metar": "METAR GMAD 052000Z 05004KT 010V090 8000 SCT030TCU BKN080 25/07 Q1015 NOSIG",
      "taf": "TAF GMAD 051700Z 0518/0624 18014KT 8000 SCT026TCU BKN080"
    },
    {
      "icao": "GMMN",
      "alert": "OK",
      "vis_m": 9999,
      "fzfg": false,
      "metar_trigger": false,
      "taf_trigger": false,
      "metar": "METAR GMMN 052000Z 25011KT CAVOK 20/13 Q1018 BECMG BKN030",
      "taf": "TAF GMMN 051700Z 0518/0624 34010KT CAVOK"
    },
    {
      "icao": "GMMX",
      "alert": "OK",
      "vis_m": 8000,
      "fzfg": false,
      "metar_trigger": false,
      "taf_trigger": false,
      "metar": "METAR GMMX 052000Z 01003KT 340V040 8000 BKN100 25/08 Q1018 NOSIG",
      "taf": "TAF GMMX 051700Z 0518/0624 06006KT 8000 SCT100"
    },
    {
      "icao": "HEGN",
      "alert": "OK",
      "vis_m": 9999,
      "fzfg": false,
      "metar_trigger": false,
      "taf_trigger": false,
      "metar": "METAR HEGN 052000Z 28004KT CAVOK 22/M02 Q1018 NOSIG",
      "taf": "TAF HEGN 051700Z 0518/0624 33006G18KT CAVOK"
    },
    {
      "icao": "HEMA",
      "alert": "OK",
      "vis_m": 9999,
      "fzfg": false,
      "metar_trigger": false,
      "taf_trigger": false,
      "metar": "METAR HEMA 052000Z 31013KT CAVOK 23/01 Q1017 NOSIG",
      "taf": "TAF HEMA 051700Z 0518/0624 34010G22KT CAVOK"
    },
    {
      "icao": "HESH",
      "alert": "OK",
      "vis_m": 9999,
      "fzfg": false,
      "metar_trigger": false,
      "taf_trigger": false,
      "metar": "METAR HESH 052000Z 33004KT CAVOK 22/07 Q1018 NOSIG",
      "taf": "TAF HESH 051700Z 0518/0624 35006G18KT CAVOK"
    },
    {
      "icao": "HESX",
      "alert": "OK",
      "vis_m": 9999,
      "fzfg": false,
      "metar_trigger": false,
      "taf_trigger": false,
      "metar": "METAR HESX 052000Z 36008KT CAVOK 16/09 Q1018 NOSIG",
      "taf": "TAF HESX 051700Z 0518/0624 34014KT CAVOK"
    },
    {
      "icao": "LATI",
      "alert": "OK",
      "vis_m": null,
      "fzfg": false,
      "metar_trigger": false,
      "taf_trigger": false,
      "metar": "",
      "taf": "TAF LATI 051700Z 0518/0618 VRB03KT CAVOK TX22/0613Z TN06/0605Z"
    },
    {
      "icao": "LBPD",
      "alert": "OK",
      "vis_m": 9999,
      "fzfg": false,
      "metar_trigger": false,
      "taf_trigger": false,
      "metar": "METAR LBPD 052000Z AUTO 26004KT 9999 NCD 12/04 Q1022",
      "taf": "TAF LBPD 051700Z 0518/0618 12010KT 9999 SCT060"
    },
    {
      "icao": "LBSF",
      "alert": "OK",
      "vis_m": 9999,
      "fzfg": false,
      "metar_trigger": false,
      "taf_trigger": false,
      "metar": "METAR LBSF 052000Z AUTO 30004KT 250V320 9999 FEW057/// 10/04 Q1023 NOSIG",
      "taf": "TAF LBSF 051700Z 0518/0618 32010KT 9999 SCT070"
    },
    {
      "icao": "LBWN",
      "alert": "OK",
      "vis_m": 9999,
      "fzfg": false,
      "metar_trigger": false,
      "taf_trigger": false,
      "metar": "METAR LBWN 052000Z AUTO 36002KT 9999 NCD 08/03 Q1022 NOSIG",
      "taf": "TAF LBWN 051700Z 0518/0618 VRB03KT 9999 SCT030"
    },
    {
      "icao": "LCLK",
      "alert": "OK",
      "vis_m": 9999,
      "fzfg": false,
      "metar_trigger": false,
      "taf_trigger": false,
      "metar": "METAR LCLK 052000Z 31005KT 9999 FEW025 SCT050 12/11 Q1018 NOSIG",
      "taf": "TAF LCLK 051730Z 0518/0618 29006KT 9999 FEW025"
    },
    {
      "icao": "LCPH",
      "alert": "OK",
      "vis_m": 9999,
      "fzfg": false,
      "metar_trigger": false,
      "taf_trigger": false,
      "metar": "METAR LCPH 052000Z VRB02KT 9999 SCT018 SCT027 14/12 Q1018 NOSIG",
      "taf": "TAF LCPH 051730Z 0518/0618 35008KT 9999 FEW025 FEW030TCU SCT040"
    },
    {
      "icao": "LEAL",
      "alert": "OK",
      "vis_m": 9999,
      "fzfg": false,
      "metar_trigger": false,
      "taf_trigger": false,
      "metar": "METAR LEAL 052000Z 07006KT CAVOK 17/14 Q1025 NOSIG",
      "taf": "TAF LEAL 051700Z 0518/0618 08008KT CAVOK TX21/0612Z TN11/0606Z"
    },
    {
      "icao": "LEBB",
      "alert": "OK",
      "vis_m": 9999,
      "fzfg": false,
      "metar_trigger": false,
      "taf_trigger": false,
      "metar": "METAR LEBB 052000Z VRB02KT 9999 FEW017 13/11 Q1025 NOSIG",
      "taf": "TAF LEBB 051700Z 0518/0618 12008KT 9999 SCT020 TX28/0615Z TN09/0603Z"
    },
    {
      "icao": "LEBL",
      "alert": "OK",
      "vis_m": 9999,
      "fzfg": false,
      "metar_trigger": false,
      "taf_trigger": false,
      "metar": "METAR LEBL 052000Z 22009KT CAVOK 15/11 Q1025 NOSIG",
      "taf": "TAF LEBL 051700Z 0518/0618 22010KT CAVOK TX21/0612Z TN11/0605Z"
    },
    {
      "icao": "LECH",
      "alert": "OK",
      "vis_m": 9000,
      "fzfg": false,
      "metar_trigger": false,
      "taf_trigger": false,
      "metar": "METAR LECH 052000Z AUTO 21004KT 170V250 9000 NCD 14/03 Q1026",
      "taf": "TAF LECH 051700Z 0518/0618 13008KT CAVOK TX23/0614Z TN10/0606Z"
    },
    {
      "icao": "LEMD",
      "alert": "OK",
      "vis_m": 9999,
      "fzfg": false,
      "metar_trigger": false,
      "taf_trigger": false,
      "metar": "METAR LEMD 052000Z 02002KT CAVOK 18/04 Q1022 NOSIG",
      "taf": "TAF LEMD 051700Z 0518/0624 VRB04KT CAVOK TX27/0616Z TN09/0606Z"
    },
    {
      "icao": "LEMG",
      "alert": "OK",
      "vis_m": 9999,
      "fzfg": false,
      "metar_trigger": false,
      "taf_trigger": false,
      "metar": "METAR LEMG 052000Z 18004KT 150V210 CAVOK 15/07 Q1023 NOSIG",
      "taf": "TAF LEMG 051700Z 0518/0618 12010KT CAVOK TX22/0614Z TN09/0606Z"
    },
    {
      "icao": "LEVC",
      "alert": "OK",
      "vis_m": 9999,
      "fzfg": false,
      "metar_trigger": false,
      "taf_trigger": false,
      "metar": "METAR LEVC 052000Z 06006KT 020V100 CAVOK 16/09 Q1025 NOSIG",
      "taf": "TAF LEVC 051700Z 0518/0618 09008KT CAVOK TX22/0614Z TN10/0606Z"
    },
    {
      "icao": "LEXJ",
      "alert": "OK",
      "vis_m": 9999,
      "fzfg": false,
      "metar_trigger": false,
      "taf_trigger": false,
      "metar": "METAR LEXJ 052000Z 10005KT 070V150 9999 SCT018 12/10 Q1024",
      "taf": ""
    },
    {
      "icao": "LEZG",
      "alert": "OK",
      "vis_m": 9999,
      "fzfg": false,
      "metar_trigger": false,
      "taf_trigger": false,
      "metar": "METAR LEZG 052000Z 12005KT CAVOK 20/07 Q1022 NOSIG",
      "taf": "TAF LEZG 051700Z 0518/0618 11006KT CAVOK TX29/0614Z TN12/0606Z"
    },
    {
      "icao": "LEZL",
      "alert": "OK",
      "vis_m": 9999,
      "fzfg": false,
      "metar_trigger": false,
      "taf_trigger": false,
      "metar": "METAR LEZL 052000Z 18005KT CAVOK 21/06 Q1019 NOSIG",
      "taf": ""
    },
    {
      "icao": "LFBD",
      "alert": "OK",
      "vis_m": 9999,
      "fzfg": false,
      "metar_trigger": false,
      "taf_trigger": false,
      "metar": "METAR LFBD 052000Z AUTO 03006KT 010V070 CAVOK 14/10 Q1024 NOSIG",
      "taf": "TAF LFBD 051700Z 0518/0624 02010KT CAVOK TX27/0614Z TN10/0606Z"
    },
    {
      "icao": "LFLL",
      "alert": "OK",
      "vis_m": 9999,
      "fzfg": false,
      "metar_trigger": false,
      "taf_trigger": false,
      "metar": "METAR LFLL 052000Z 16005KT 120V230 CAVOK 19/05 Q1024 NOSIG",
      "taf": "TAF LFLL 051700Z 0518/0624 VRB03KT CAVOK"
    },
    {
      "icao": "LFLS",
      "alert": "OK",
      "vis_m": 9999,
      "fzfg": false,
      "metar_trigger": false,
      "taf_trigger": false,
      "metar": "METAR LFLS 052000Z AUTO 28008KT 250V310 9999 ///TCU 17/06 Q1024",
      "taf": ""
    },
    {
      "icao": "LFMN",
      "alert": "OK",
      "vis_m": 9999,
      "fzfg": false,
      "metar_trigger": false,
      "taf_trigger": false,
      "metar": "METAR LFMN 052000Z 04004KT CAVOK 15/12 Q1024 BECMG 33010KT",
      "taf": ""
    },
    {
      "icao": "LFOB",
      "alert": "OK",
      "vis_m": 9999,
      "fzfg": false,
      "metar_trigger": false,
      "taf_trigger": false,
      "metar": "METAR LFOB 052000Z AUTO 29004KT CAVOK 05/04 Q1025 NOSIG",
      "taf": "TAF LFOB 051700Z 0518/0618 26012KT 9999 SCT030"
    },
    {
      "icao": "LFPO",
      "alert": "OK",
      "vis_m": 9999,
      "fzfg": false,
      "metar_trigger": false,
      "taf_trigger": false,
      "metar": "METAR LFPO 052000Z 34005KT 320V020 CAVOK 10/05 Q1025 NOSIG",
      "taf": "TAF LFPO 051700Z 0518/0624 30010KT CAVOK"
    },
    {
      "icao": "LFSB",
      "alert": "OK",
      "vis_m": 9999,
      "fzfg": false,
      "metar_trigger": false,
      "taf_trigger": false,
      "metar": "METAR LFSB 052000Z AUTO 26010KT 9999 ///CB 17/04 Q1023 TEMPO 4000 TSRA",
      "taf": ""
    },
    {
      "icao": "LGAV",
      "alert": "OK",
      "vis_m": 9999,
      "fzfg": false,
      "metar_trigger": false,
      "taf_trigger": false,
      "metar": "METAR LGAV 051950Z 31005KT 290V350 9999 FEW025 11/06 Q1022 NOSIG",
      "taf": "TAF LGAV 051700Z 0518/0618 36015KT 9999 FEW020"
    },
    {
      "icao": "LGTS",
      "alert": "OK",
      "vis_m": 9999,
      "fzfg": false,
      "metar_trigger": false,
      "taf_trigger": false,
      "metar": "METAR LGTS 051950Z 11006KT 9999 FEW025 11/08 Q1022 NOSIG",
      "taf": "TAF LGTS 051700Z 0518/0618 VRB03KT 9999 FEW025"
    },
    {
      "icao": "LHBP",
      "alert": "OK",
      "vis_m": 9999,
      "fzfg": false,
      "metar_trigger": false,
      "taf_trigger": false,
      "metar": "METAR LHBP 052000Z 17004KT CAVOK 14/07 Q1020 NOSIG",
      "taf": "TAF LHBP 051715Z 0518/0618 18005KT CAVOK"
    },
    {
      "icao": "LHDC",
      "alert": "OK",
      "vis_m": 9999,
      "fzfg": false,
      "metar_trigger": false,
      "taf_trigger": false,
      "metar": "METAR LHDC 051945Z AUTO 19008KT CAVOK 11/06 Q1020",
      "taf": "TAF LHDC 051715Z 0518/0603 21012KT CAVOK"
    },
    {
      "icao": "LIBD",
      "alert": "OK",
      "vis_m": 9999,
      "fzfg": false,
      "metar_trigger": false,
      "taf_trigger": false,
      "metar": "METAR LIBD 051950Z 21004KT CAVOK 10/07 Q1024",
      "taf": "TAF LIBD 051700Z 0518/0618 VRB05KT CAVOK"
    },
    {
      "icao": "LIBG",
      "alert": "OK",
      "vis_m": null,
      "fzfg": false,
      "metar_trigger": false,
      "taf_trigger": false,
      "metar": "",
      "taf": "TAF LIBG 051100Z 0512/0521 02012KT CAVOK"
    },
    {
      "icao": "LIBP",
      "alert": "OK",
      "vis_m": 9999,
      "fzfg": false,
      "metar_trigger": false,
      "taf_trigger": false,
      "metar": "METAR LIBP 051950Z AUTO 24002KT 9999 NCD 12/07 Q1023",
      "taf": "TAF LIBP 051700Z 0518/0618 VRB05KT CAVOK"
    },
    {
      "icao": "LIBR",
      "alert": "OK",
      "vis_m": 9999,
      "fzfg": false,
      "metar_trigger": false,
      "taf_trigger": false,
      "metar": "METAR LIBR 051950Z 30004KT CAVOK 12/11 Q1024",
      "taf": "TAF LIBR 051700Z 0518/0618 29007KT CAVOK"
    },
    {
      "icao": "LICA",
      "alert": "OK",
      "vis_m": 9999,
      "fzfg": false,
      "metar_trigger": false,
      "taf_trigger": false,
      "metar": "METAR LICA 051950Z AUTO 17003KT 9999 FEW018/// 12/11 Q1026",
      "taf": "TAF LICA 051700Z 0518/0618 VRB05KT 9999 SCT013"
    },
    {
      "icao": "LICC",
      "alert": "OK",
      "vis_m": 9999,
      "fzfg": false,
      "metar_trigger": false,
      "taf_trigger": false,
      "metar": "METAR LICC 051950Z VRB02KT CAVOK 15/11 Q1025",
      "taf": "TAF LICC 051700Z 0518/0618 08010KT 8000 FEW060"
    },
    {
      "icao": "LICJ",
      "alert": "OK",
      "vis_m": 9999,
      "fzfg": false,
      "metar_trigger": false,
      "taf_trigger": false,
      "metar": "METAR LICJ 051950Z VRB02KT CAVOK 12/09 Q1026",
      "taf": "TAF LICJ 051700Z 0518/0618 VRB04KT CAVOK"
    },
    {
      "icao": "LIMC",
      "alert": "OK",
      "vis_m": 9999,
      "fzfg": false,
      "metar_trigger": false,
      "taf_trigger": false,
      "metar": "METAR LIMC 051950Z VRB01KT CAVOK 13/06 Q1022 NOSIG",
      "taf": "TAF LIMC 051700Z 0518/0624 VRB05KT CAVOK"
    },
    {
      "icao": "LIME",
      "alert": "OK",
      "vis_m": 9999,
      "fzfg": false,
      "metar_trigger": false,
      "taf_trigger": false,
      "metar": "METAR LIME 051950Z 01005KT CAVOK 16/06 Q1022 NOSIG",
      "taf": "TAF LIME 051700Z 0518/0618 VRB05KT CAVOK"
    },
    {
      "icao": "LIMF",
      "alert": "OK",
      "vis_m": 9999,
      "fzfg": false,
      "metar_trigger": false,
      "taf_trigger": false,
      "metar": "METAR LIMF 051950Z 31004KT CAVOK 18/06 Q1022",
      "taf": "TAF LIMF 051700Z 0518/0618 VRB05KT CAVOK"
    },
    {
      "icao": "LIMJ",
      "alert": "OK",
      "vis_m": 9999,
      "fzfg": false,
      "metar_trigger": false,
      "taf_trigger": false,
      "metar": "METAR LIMJ 051950Z 14006KT 9999 FEW010 BKN013 15/14 Q1025",
      "taf": ""
    },
    {
      "icao": "LIPE",
      "alert": "OK",
      "vis_m": 9999,
      "fzfg": false,
      "metar_trigger": false,
      "taf_trigger": false,
      "metar": "METAR LIPE 051950Z 10006KT CAVOK 14/01 Q1022",
      "taf": "TAF LIPE 051700Z 0518/0618 VRB05KT CAVOK"
    },
    {
      "icao": "LIPH",
      "alert": "OK",
      "vis_m": 9999,
      "fzfg": false,
      "metar_trigger": false,
      "taf_trigger": false,
      "metar": "METAR LIPH 051950Z 35004KT CAVOK 14/06 Q1023",
      "taf": "TAF LIPH 051700Z 0518/0618 VRB05KT CAVOK"
    },
    {
      "icao": "LIPQ",
      "alert": "OK",
      "vis_m": 9999,
      "fzfg": false,
      "metar_trigger": false,
      "taf_trigger": false,
      "metar": "METAR LIPQ 051950Z AUTO VRB02KT 9999 NCD 12/07 Q1023",
      "taf": "TAF LIPQ 051700Z 0518/0618 VRB05KT CAVOK"
    },
    {
      "icao": "LIPR",
      "alert": "OK",
      "vis_m": 9999,
      "fzfg": false,
      "metar_trigger": false,
      "taf_trigger": false,
      "metar": "METAR LIPR 051950Z 28003KT CAVOK 13/10 Q1022",
      "taf": "TAF LIPR 051700Z 0518/0618 VRB05KT CAVOK"
    },
    {
      "icao": "LIPX",
      "alert": "OK",
      "vis_m": 9999,
      "fzfg": false,
      "metar_trigger": false,
      "taf_trigger": false,
      "metar": "METAR LIPX 051950Z 06003KT CAVOK 15/07 Q1022",
      "taf": "TAF LIPX 051700Z 0518/0618 VRB05KT CAVOK"
    },
    {
      "icao": "LIPY",
      "alert": "OK",
      "vis_m": 9999,
      "fzfg": false,
      "metar_trigger": false,
      "taf_trigger": false,
      "metar": "METAR LIPY 051950Z AUTO 21005KT 9999 NCD 16/07 Q1022",
      "taf": "TAF LIPY 051700Z 0518/0618 VRB05KT CAVOK"
    },
    {
      "icao": "LIPZ",
      "alert": "OK",
      "vis_m": 9999,
      "fzfg": false,
      "metar_trigger": false,
      "taf_trigger": false,
      "metar": "METAR LIPZ 051950Z 19004KT CAVOK 14/09 Q1023 NOSIG",
      "taf": "TAF LIPZ 051700Z 0518/0624 VRB05KT CAVOK"
    },
    {
      "icao": "LIRF",
      "alert": "OK",
      "vis_m": 9999,
      "fzfg": false,
      "metar_trigger": false,
      "taf_trigger": false,
      "metar": "METAR LIRF 051950Z 25005KT CAVOK 14/13 Q1025 NOSIG",
      "taf": "TAF LIRF 051700Z 0518/0624 VRB05KT CAVOK"
    },
    {
      "icao": "LIRN",
      "alert": "OK",
      "vis_m": 9999,
      "fzfg": false,
      "metar_trigger": false,
      "taf_trigger": false,
      "metar": "METAR LIRN 051950Z 33003KT 290V050 CAVOK 18/02 Q1025 NOSIG",
      "taf": "TAF LIRN 051700Z 0518/0618 29010KT CAVOK"
    },
    {
      "icao": "LIRP",
      "alert": "OK",
      "vis_m": 9999,
      "fzfg": false,
      "metar_trigger": false,
      "taf_trigger": false,
      "metar": "METAR LIRP 051945Z VRB01KT CAVOK 13/10 Q1026 NOSIG",
      "taf": "TAF LIRP 051700Z 0518/0618 27011KT CAVOK"
    },
    {
      "icao": "LIRZ",
      "alert": "OK",
      "vis_m": 9999,
      "fzfg": false,
      "metar_trigger": false,
      "taf_trigger": false,
      "metar": "METAR LIRZ 051950Z AUTO 24010KT 9999 NCD 17/03 Q1025",
      "taf": "TAF LIRZ 051700Z 0518/0618 26010KT CAVOK"
    },
    {
      "icao": "LJLJ",
      "alert": "OK",
      "vis_m": 9999,
      "fzfg": false,
      "metar_trigger": false,
      "taf_trigger": false,
      "metar": "METAR LJLJ 052000Z VRB02KT CAVOK 11/04 Q1022 NOSIG",
      "taf": "TAF LJLJ 051700Z 0518/0618 24005KT CAVOK"
    },
    {
      "icao": "LKMT",
      "alert": "OK",
      "vis_m": 9999,
      "fzfg": false,
      "metar_trigger": false,
      "taf_trigger": false,
      "metar": "METAR LKMT 052000Z 22012KT CAVOK 17/07 Q1015 NOSIG",
      "taf": "TAF LKMT 051700Z 0518/0618 21012KT CAVOK"
    },
    {
      "icao": "LKPR",
      "alert": "OK",
      "vis_m": 9999,
      "fzfg": false,
      "metar_trigger": false,
      "taf_trigger": false,
      "metar": "METAR LKPR 052000Z 29016KT CAVOK 16/04 Q1017 NOSIG",
      "taf": "TAF LKPR 051700Z 0518/0624 22014KT CAVOK"
    },
    {
      "icao": "LLBG",
      "alert": "OK",
      "vis_m": 9999,
      "fzfg": false,
      "metar_trigger": false,
      "taf_trigger": false,
      "metar": "METAR LLBG 051950Z VRB03KT CAVOK 15/11 Q1019 NOSIG",
      "taf": "TAF LLBG 051703Z 0518/0618 30006KT CAVOK TX20/0611Z TN10/0604Z"
    },
    {
      "icao": "LMML",
      "alert": "OK",
      "vis_m": 9999,
      "fzfg": false,
      "metar_trigger": false,
      "taf_trigger": false,
      "metar": "METAR LMML 052015Z 30005KT CAVOK 13/11 Q1025 NOSIG",
      "taf": "TAF LMML 051700Z 0518/0618 34006KT 9999 FEW015"
    },
    {
      "icao": "LOWW",
      "alert": "OK",
      "vis_m": 9999,
      "fzfg": false,
      "metar_trigger": false,
      "taf_trigger": false,
      "metar": "METAR LOWW 051950Z VRB03KT 9999 TSRA FEW040 FEW040CB 16/08 Q1018 TEMPO 34020G35KT +TSRA",
      "taf": ""
    },
    {
      "icao": "LPFR",
      "alert": "OK",
      "vis_m": 9999,
      "fzfg": false,
      "metar_trigger": false,
      "taf_trigger": false,
      "metar": "METAR LPFR 052000Z 07007KT CAVOK 20/08 Q1019",
      "taf": "TAF LPFR 051700Z 0518/0618 10013KT CAVOK"
    },
    {
      "icao": "LPMA",
      "alert": "OK",
      "vis_m": 9999,
      "fzfg": false,
      "metar_trigger": false,
      "taf_trigger": false,
      "metar": "METAR LPMA 052000Z 04003KT 350V120 9999 SCT014 BKN030 18/14 Q1015",
      "taf": "TAF LPMA 051700Z 0518/0618 02012KT 9999 SCT015 SCT030"
    },
    {
      "icao": "LPPR",
      "alert": "OK",
      "vis_m": 9999,
      "fzfg": false,
      "metar_trigger": false,
      "taf_trigger": false,
      "metar": "METAR LPPR 052000Z 36004KT 330V030 CAVOK 16/07 Q1019",
      "taf": "TAF LPPR 051700Z 0518/0618 31008KT CAVOK"
    },
    {
      "icao": "LPPS",
      "alert": "OK",
      "vis_m": 9999,
      "fzfg": false,
      "metar_trigger": false,
      "taf_trigger": false,
      "metar": "METAR LPPS 052000Z 32004KT 9999 FEW014 16/13 Q1015",
      "taf": "TAF LPPS 051700Z 0518/0624 09010KT 9999 SCT014 SCT030"
    },
    {
      "icao": "LPPT",
      "alert": "OK",
      "vis_m": 9999,
      "fzfg": false,
      "metar_trigger": false,
      "taf_trigger": false,
      "metar": "METAR LPPT 052000Z 30004KT CAVOK 20/09 Q1019",
      "taf": "TAF LPPT 051700Z 0518/0624 24007KT CAVOK"
    },
    {
      "icao": "LQBK",
      "alert": "OK",
      "vis_m": 9999,
      "fzfg": false,
      "metar_trigger": false,
      "taf_trigger": false,
      "metar": "METAR LQBK 052000Z 14007KT CAVOK 13/05 Q1022 NOSIG",
      "taf": "TAF LQBK 051700Z 0518/0618 16005KT CAVOK TX22/0614Z TN05/0605Z"
    },
    {
      "icao": "LQSA",
      "alert": "OK",
      "vis_m": 9999,
      "fzfg": false,
      "metar_trigger": false,
      "taf_trigger": false,
      "metar": "METAR LQSA 052000Z 12005KT 100V160 CAVOK 10/03 Q1024 NOSIG",
      "taf": "TAF LQSA 051700Z 0518/0618 VRB02KT CAVOK TX22/0614Z TN05/0604Z"
    },
    {
      "icao": "LQTZ",
      "alert": "OK",
      "vis_m": 9999,
      "fzfg": false,
      "metar_trigger": false,
      "taf_trigger": false,
      "metar": "METAR LQTZ 052000Z 00000KT CAVOK 09/06 Q1023",
      "taf": "TAF LQTZ 051700Z 0518/0618 VRB02KT CAVOK TX20/0613Z TN05/0605Z"
    },
    {
      "icao": "LRBC",
      "alert": "OK",
      "vis_m": 9999,
      "fzfg": false,
      "metar_trigger": false,
      "taf_trigger": false,
      "metar": "METAR LRBC 052000Z 11004KT CAVOK 12/07 Q1019",
      "taf": "TAF LRBC 051700Z 0518/0603 16010KT CAVOK"
    },
    {
      "icao": "LRBS",
      "alert": "OK",
      "vis_m": 9999,
      "fzfg": false,
      "metar_trigger": false,
      "taf_trigger": false,
      "metar": "METAR LRBS 052000Z VRB02KT CAVOK 14/08 Q1021 NOSIG",
      "taf": "TAF LRBS 051700Z 0518/0618 VRB04KT CAVOK"
    },
    {
      "icao": "LRBV",
      "alert": "OK",
      "vis_m": 9999,
      "fzfg": false,
      "metar_trigger": false,
      "taf_trigger": false,
      "metar": "METAR LRBV 052000Z 23009KT CAVOK 08/05 Q1021",
      "taf": "TAF LRBV 051700Z 0518/0603 23006KT CAVOK"
    },
    {
      "icao": "LRCL",
      "alert": "OK",
      "vis_m": 9999,
      "fzfg": false,
      "metar_trigger": false,
      "taf_trigger": false,
      "metar": "METAR LRCL 052000Z 24002KT CAVOK 07/04 Q1021",
      "taf": "TAF LRCL 051700Z 0518/0603 VRB04KT CAVOK"
    },
    {
      "icao": "LRCV",
      "alert": "OK",
      "vis_m": 9999,
      "fzfg": false,
      "metar_trigger": false,
      "taf_trigger": false,
      "metar": "METAR LRCV 052000Z 28006KT CAVOK 12/08 Q1021",
      "taf": "TAF LRCV 051700Z 0518/0603 VRB04KT CAVOK"
    },
    {
      "icao": "LRIA",
      "alert": "OK",
      "vis_m": 9999,
      "fzfg": false,
      "metar_trigger": false,
      "taf_trigger": false,
      "metar": "METAR LRIA 052000Z 08004KT CAVOK 12/06 Q1019",
      "taf": "TAF LRIA 051700Z 0518/0603 VRB04KT CAVOK"
    },
    {
      "icao": "LROP",
      "alert": "OK",
      "vis_m": 9999,
      "fzfg": false,
      "metar_trigger": false,
      "taf_trigger": false,
      "metar": "METAR LROP 052000Z 24004KT CAVOK 11/08 Q1021 NOSIG",
      "taf": "TAF LROP 051700Z 0518/0618 VRB04KT CAVOK"
    },
    {
      "icao": "LRSB",
      "alert": "OK",
      "vis_m": 9999,
      "fzfg": false,
      "metar_trigger": false,
      "taf_trigger": false,
      "metar": "METAR LRSB 052000Z 25007KT CAVOK 10/05 Q1022",
      "taf": "TAF LRSB 051700Z 0518/0618 VRB04KT CAVOK"
    },
    {
      "icao": "LRSM",
      "alert": "OK",
      "vis_m": 9999,
      "fzfg": false,
      "metar_trigger": false,
      "taf_trigger": false,
      "metar": "METAR LRSM 052000Z AUTO 20006KT 9999 NCD 10/05 Q1021",
      "taf": ""
    },
    {
      "icao": "LRSV",
      "alert": "OK",
      "vis_m": 9999,
      "fzfg": false,
      "metar_trigger": false,
      "taf_trigger": false,
      "metar": "METAR LRSV 052000Z 21005KT CAVOK 12/06 Q1018",
      "taf": "TAF LRSV 051700Z 0518/0603 13006KT CAVOK"
    },
    {
      "icao": "LRTM",
      "alert": "OK",
      "vis_m": 9999,
      "fzfg": false,
      "metar_trigger": false,
      "taf_trigger": false,
      "metar": "METAR LRTM 052000Z VRB01KT CAVOK 07/05 Q1021",
      "taf": "TAF LRTM 051700Z 0518/0603 VRB04KT CAVOK"
    },
    {
      "icao": "LRTR",
      "alert": "OK",
      "vis_m": 9999,
      "fzfg": false,
      "metar_trigger": false,
      "taf_trigger": false,
      "metar": "METAR LRTR 052000Z 10003KT CAVOK 08/07 Q1022 NOSIG",
      "taf": "TAF LRTR 051700Z 0518/0618 11006KT CAVOK"
    },
    {
      "icao": "LTAC",
      "alert": "OK",
      "vis_m": 9999,
      "fzfg": false,
      "metar_trigger": false,
      "taf_trigger": false,
      "metar": "METAR LTAC 051950Z 03008KT 9999 FEW040 SCT200 07/02 Q1020 NOSIG RMK RWY21C 01007KT RWY03L 02008KT RWY21R 36007KT RWY03R 02009KT RWY21L 03008KT",
      "taf": "TAF LTAC 051640Z 0518/0618 02009KT 9999 SCT040"
    },
    {
      "icao": "LTFM",
      "alert": "OK",
      "vis_m": 6000,
      "fzfg": false,
      "metar_trigger": false,
      "taf_trigger": false,
      "metar": "METAR LTFM 051950Z 34004KT 300V010 6000 0400NW R35R/P1500N R17L/P1500N R34L/P1500N R36/P1500N PRFG FEW001 10/09 Q1023 NOSIG RMK RWY17L 27003KT 230V290 RWY34L 31005KT 270V350 RWY16R 26002KT RWY36 34003KT RWY18 32003KT",
      "taf": "TAF LTFM 051640Z 0518/0624 VRB02KT CAVOK"
    },
    {
      "icao": "LUKK",
      "alert": "OK",
      "vis_m": 9999,
      "fzfg": false,
      "metar_trigger": false,
      "taf_trigger": false,
      "metar": "METAR LUKK 052000Z 27004KT CAVOK 12/04 Q1019 NOSIG",
      "taf": "TAF LUKK 051701Z 0518/0618 VRB06KT CAVOK"
    },
    {
      "icao": "LWOH",
      "alert": "OK",
      "vis_m": 9999,
      "fzfg": false,
      "metar_trigger": false,
      "taf_trigger": false,
      "metar": "METAR LWOH 051850Z VRB02KT 9999 SCT040 11/03 Q1023",
      "taf": "TAF LWOH 051705Z 0518/0618 33005KT 9999 SCT040"
    },
    {
      "icao": "LWSK",
      "alert": "OK",
      "vis_m": 9999,
      "fzfg": false,
      "metar_trigger": false,
      "taf_trigger": false,
      "metar": "METAR LWSK 051950Z VRB01KT CAVOK 10/05 Q1023 NOSIG",
      "taf": "TAF LWSK 051705Z 0518/0618 02008KT CAVOK"
    },
    {
      "icao": "LYBE",
      "alert": "OK",
      "vis_m": 9999,
      "fzfg": false,
      "metar_trigger": false,
      "taf_trigger": false,
      "metar": "METAR LYBE 052000Z 17004KT CAVOK 12/07 Q1023 NOSIG",
      "taf": "TAF LYBE 051700Z 0518/0618 24005KT CAVOK TX22/0613Z TN07/0605Z"
    },
    {
      "icao": "LYNI",
      "alert": "OK",
      "vis_m": 9999,
      "fzfg": false,
      "metar_trigger": false,
      "taf_trigger": false,
      "metar": "METAR LYNI 052000Z 20001KT CAVOK 11/07 Q1023 NOSIG",
      "taf": "TAF LYNI 051700Z 0518/0618 32005KT CAVOK TX21/0613Z TN05/0605Z"
    },
    {
      "icao": "LYPG",
      "alert": "OK",
      "vis_m": 9999,
      "fzfg": false,
      "metar_trigger": false,
      "taf_trigger": false,
      "metar": "METAR LYPG 052000Z VRB02KT CAVOK 14/04 Q1023 NOSIG",
      "taf": "TAF LYPG 051700Z 0518/0618 36008KT CAVOK TX23/0612Z TN08/0604Z"
    },
    {
      "icao": "LZIB",
      "alert": "OK",
      "vis_m": 9999,
      "fzfg": false,
      "metar_trigger": false,
      "taf_trigger": false,
      "metar": "METAR LZIB 052000Z 20008KT 9999 TSRA FEW050CB 18/09 Q1018 TEMPO 30015KT NSW",
      "taf": ""
    },
    {
      "icao": "LZKZ",
      "alert": "OK",
      "vis_m": 9999,
      "fzfg": false,
      "metar_trigger": false,
      "taf_trigger": false,
      "metar": "METAR LZKZ 052000Z 20010KT CAVOK 14/07 Q1018 NOSIG",
      "taf": "TAF LZKZ 051715Z 0518/0618 24009KT CAVOK"
    },
    {
      "icao": "LZTT",
      "alert": "OK",
      "vis_m": 9999,
      "fzfg": false,
      "metar_trigger": false,
      "taf_trigger": false,
      "metar": "METAR LZTT 052000Z 25012KT CAVOK 13/05 Q1018",
      "taf": "TAF LZTT 051715Z 0518/0618 26008KT 9999 FEW040"
    },
    {
      "icao": "OEJN",
      "alert": "OK",
      "vis_m": 9999,
      "fzfg": false,
      "metar_trigger": false,
      "taf_trigger": false,
      "metar": "METAR OEJN 052000Z 33013KT CAVOK 26/16 Q1013 NOSIG",
      "taf": "TAF OEJN 051700Z 0518/0624 35010KT 7000 FEW040"
    },
    {
      "icao": "OEMA",
      "alert": "OK",
      "vis_m": 9999,
      "fzfg": false,
      "metar_trigger": false,
      "taf_trigger": false,
      "metar": "METAR OEMA 052000Z 33008KT 9999 FEW045 28/M06 Q1016 NOSIG",
      "taf": "TAF OEMA 051700Z 0518/0624 32010KT 7000 SCT045"
    },
    {
      "icao": "OJAI",
      "alert": "OK",
      "vis_m": 4000,
      "fzfg": false,
      "metar_trigger": false,
      "taf_trigger": false,
      "metar": "METAR OJAI 052000Z 28003KT 4000 BR FEW030 09/06 Q1021 NOSIG",
      "taf": "TAF OJAI 051700Z 0518/0624 28012KT 5000 HZ FEW025TCU SCT030"
    },
    {
      "icao": "OMAA",
      "alert": "OK",
      "vis_m": null,
      "fzfg": false,
      "metar_trigger": false,
      "taf_trigger": false,
      "metar": "",
      "taf": ""
    },
    {
      "icao": "OMDB",
      "alert": "OK",
      "vis_m": null,
      "fzfg": false,
      "metar_trigger": false,
      "taf_trigger": false,
      "metar": "",
      "taf": ""
    },
    {
      "icao": "UAAA",
      "alert": "OK",
      "vis_m": 9999,
      "fzfg": false,
      "metar_trigger": false,
      "taf_trigger": false,
      "metar": "METAR UAAA 052000Z 26002MPS 210V290 9999 SCT050CB BKN100 15/07 Q1009 NOSIG",
      "taf": "TAF UAAA 051706Z 0518/0618 24003MPS 9999 SCT050CB BKN100 TX24/0610Z TN12/0601Z"
    },
    {
      "icao": "UBBB",
      "alert": "OK",
      "vis_m": 9999,
      "fzfg": false,
      "metar_trigger": false,
      "taf_trigger": false,
      "metar": "METAR UBBB 052000Z 31024G34KT 9999 -SHRA SCT010 BKN038CB OVC038 11/10 Q1008 WS R35 NOSIG",
      "taf": "TAF UBBB 051704Z 0518/0618 30024G34KT 9999 SCT010 SCT030CB OVC030 TX13/0611Z TN09/0600Z"
    },
    {
      "icao": "UDSG",
      "alert": "OK",
      "vis_m": 9999,
      "fzfg": false,
      "metar_trigger": false,
      "taf_trigger": false,
      "metar": "METAR UDSG 052000Z 33007KT 9999 NSC 04/M02 Q1016 NOSIG",
      "taf": "TAF UDSG 051658Z 0518/0618 VRB06KT 9999 SCT040"
    },
    {
      "icao": "UDYZ",
      "alert": "OK",
      "vis_m": 9999,
      "fzfg": false,
      "metar_trigger": false,
      "taf_trigger": false,
      "metar": "METAR UDYZ 052000Z 07003KT 9999 FEW046 07/02 Q1012 NOSIG",
      "taf": "TAF UDYZ 051700Z 0518/0618 VRB06KT 9999 FEW040"
    },
    {
      "icao": "UGKO",
      "alert": "OK",
      "vis_m": 9999,
      "fzfg": false,
      "metar_trigger": false,
      "taf_trigger": false,
      "metar": "METAR UGKO 052000Z 28010KT 9999 SCT016 BKN076 10/09 Q1018 NOSIG",
      "taf": "TAF UGKO 051700Z 0518/0618 25007KT 9999 SCT020 OVC050 TX13/0611Z TN09/0603Z"
    }
  ]
}