{
  "ts_utc": "2025-12-24T04:23:19Z",
  "threshold_m": 150,
  "source": "stations_override.txt (ICAO list) + aviationweather.gov (METAR/TAF raw)",
  "station_count": 159,
  "stations": [
    {
      "icao": "BIKF",
      "alert": "OK",
      "vis_m": 9999,
      "fzfg": false,
      "metar_trigger": false,
      "taf_trigger": false,
      "metar": "METAR BIKF 240400Z 18028G41KT 9999 -RA BKN014 OVC037 08/06 Q1011",
      "taf": "TAF BIKF 240155Z 2403/2503 18032G43KT 9999 -RA SCT010 BKN016 TX09/2418Z TN08/2406Z"
    },
    {
      "icao": "BKPR",
      "alert": "OK",
      "vis_m": 8000,
      "fzfg": false,
      "metar_trigger": false,
      "taf_trigger": false,
      "metar": "METAR BKPR 240400Z 30003KT 260V320 8000 BKN006 02/02 Q1013 NOSIG",
      "taf": "TAF BKPR 232330Z 2400/2424 VRB05KT 9999 BKN010 BKN025"
    },
    {
      "icao": "EBCI",
      "alert": "OK",
      "vis_m": 9999,
      "fzfg": false,
      "metar_trigger": false,
      "taf_trigger": false,
      "metar": "METAR EBCI 240350Z 05016KT 9999 FEW013 BKN028 02/M01 Q1024 NOSIG",
      "taf": "TAF EBCI 232300Z 2400/2506 06013KT 9999 BKN020"
    },
    {
      "icao": "EDDB",
      "alert": "OK",
      "vis_m": 9999,
      "fzfg": false,
      "metar_trigger": false,
      "taf_trigger": false,
      "metar": "METAR EDDB 240350Z AUTO 06011KT 9999 FEW013 M02/M04 Q1031 TEMPO BKN013",
      "taf": "TAF EDDB 232300Z 2400/2424 06010KT 9999 SCT030"
    },
    {
      "icao": "EDDH",
      "alert": "OK",
      "vis_m": 9999,
      "fzfg": false,
      "metar_trigger": false,
      "taf_trigger": false,
      "metar": "METAR EDDH 240350Z AUTO 06007KT 020V090 9999 BKN036 01/M03 Q1035 NOSIG",
      "taf": "TAF EDDH 232300Z 2400/2506 07009KT 9999 FEW025"
    },
    {
      "icao": "EDDK",
      "alert": "OK",
      "vis_m": 9999,
      "fzfg": false,
      "metar_trigger": false,
      "taf_trigger": false,
      "metar": "METAR EDDK 240350Z AUTO 06005KT 040V100 CAVOK 00/M05 Q1026 NOSIG",
      "taf": "TAF EDDK 232300Z 2400/2506 05007KT 9999 OVC025"
    },
    {
      "icao": "EDDN",
      "alert": "OK",
      "vis_m": 9999,
      "fzfg": false,
      "metar_trigger": false,
      "taf_trigger": false,
      "metar": "METAR EDDN 240350Z AUTO 04011KT 010V080 9999 OVC019 01/M03 Q1021",
      "taf": "TAF EDDN 232300Z 2400/2424 06008KT 9999 BKN020"
    },
    {
      "icao": "EDDS",
      "alert": "OK",
      "vis_m": 9999,
      "fzfg": false,
      "metar_trigger": false,
      "taf_trigger": false,
      "metar": "METAR EDDS 240350Z AUTO 02012KT 340V050 9999 -DZ BKN009 OVC014 02/00 Q1018",
      "taf": "TAF EDDS 232300Z 2400/2424 06010KT 9999 BKN020"
    },
    {
      "icao": "EDFH",
      "alert": "OK",
      "vis_m": 9999,
      "fzfg": false,
      "metar_trigger": false,
      "taf_trigger": false,
      "metar": "METAR EDFH 240350Z 07015KT 040V100 9999 OVC012 M01/M04 Q1022",
      "taf": "TAF EDFH 232300Z 2400/2424 07012KT 9999 OVC015"
    },
    {
      "icao": "EDJA",
      "alert": "OK",
      "vis_m": 9999,
      "fzfg": false,
      "metar_trigger": false,
      "taf_trigger": false,
      "metar": "METAR EDJA 240350Z AUTO 05014KT 9999 // OVC005/// 00/M00 Q1015",
      "taf": "TAF EDJA 240200Z 2403/2412 05015G25KT 9999 OVC007"
    },
    {
      "icao": "EDLW",
      "alert": "OK",
      "vis_m": 9999,
      "fzfg": false,
      "metar_trigger": false,
      "taf_trigger": false,
      "metar": "METAR EDLW 240350Z AUTO 03008KT 9999 // NCD M00/M04 Q1028",
      "taf": "TAF EDLW 231700Z 2318/2418 06011KT 9999 OVC020"
    },
    {
      "icao": "EDNY",
      "alert": "OK",
      "vis_m": 9999,
      "fzfg": false,
      "metar_trigger": false,
      "taf_trigger": false,
      "metar": "METAR EDNY 240350Z AUTO 03009KT 9999 // BKN024/// OVC031/// 02/M00 Q1015",
      "taf": "TAF EDNY 231700Z 2318/2403 05010KT 9999 OVC012"
    },
    {
      "icao": "EDSB",
      "alert": "OK",
      "vis_m": 9000,
      "fzfg": false,
      "metar_trigger": false,
      "taf_trigger": false,
      "metar": "METAR EDSB 240350Z 04018G28KT 9000 DZ OVC015 03/00 Q1020",
      "taf": "TAF EDSB 232300Z 2400/2424 03012KT 9999 BKN025"
    },
    {
      "icao": "EETN",
      "alert": "OK",
      "vis_m": 9999,
      "fzfg": false,
      "metar_trigger": false,
      "taf_trigger": false,
      "metar": "METAR EETN 240420Z 30012KT 9999 -SN FEW014 OVC021 01/M02 Q1031 NOSIG",
      "taf": "TAF EETN 232330Z 2400/2424 28010KT 9999 OVC015"
    },
    {
      "icao": "EFTU",
      "alert": "OK",
      "vis_m": 9999,
      "fzfg": false,
      "metar_trigger": false,
      "taf_trigger": false,
      "metar": "METAR EFTU 240420Z AUTO 29008KT 9999 -SHSN OVC007 M01/M02 Q1032",
      "taf": "TAF EFTU 240238Z 2403/2503 30006KT 9999 OVC019"
    },
    {
      "icao": "EGBB",
      "alert": "OK",
      "vis_m": 9999,
      "fzfg": false,
      "metar_trigger": false,
      "taf_trigger": false,
      "metar": "METAR EGBB 240350Z 05010KT 9999 BKN011 05/03 Q1030",
      "taf": ""
    },
    {
      "icao": "EGGP",
      "alert": "OK",
      "vis_m": 9999,
      "fzfg": false,
      "metar_trigger": false,
      "taf_trigger": false,
      "metar": "METAR EGGP 240350Z AUTO 09013KT 9999 OVC028/// 06/00 Q1032",
      "taf": "TAF EGGP 232256Z 2400/2424 08012KT 9999 BKN020"
    },
    {
      "icao": "EGGW",
      "alert": "OK",
      "vis_m": 9999,
      "fzfg": false,
      "metar_trigger": false,
      "taf_trigger": false,
      "metar": "METAR EGGW 240350Z AUTO 05012KT 9999 BKN017 OVC022 05/02 Q1028",
      "taf": ""
    },
    {
      "icao": "EGKK",
      "alert": "OK",
      "vis_m": 9999,
      "fzfg": false,
      "metar_trigger": false,
      "taf_trigger": false,
      "metar": "METAR EGKK 240350Z COR 06014KT 9999 BKN022 06/03 Q1026",
      "taf": "TAF EGKK 232257Z 2400/2506 05014KT 9999 BKN018"
    },
    {
      "icao": "EGNM",
      "alert": "OK",
      "vis_m": null,
      "fzfg": false,
      "metar_trigger": false,
      "taf_trigger": false,
      "metar": "",
      "taf": "TAF EGNM 232302Z 2400/2424 06010KT 9999 BKN020"
    },
    {
      "icao": "EGPD",
      "alert": "OK",
      "vis_m": 9999,
      "fzfg": false,
      "metar_trigger": false,
      "taf_trigger": false,
      "metar": "METAR EGPD 240350Z COR AUTO 20003KT 9999 OVC029 06/04 Q1037 NOSIG",
      "taf": "TAF EGPD 232253Z 2400/2424 19005KT 9999 BKN027"
    },
    {
      "icao": "EGPF",
      "alert": "OK",
      "vis_m": 9999,
      "fzfg": false,
      "metar_trigger": false,
      "taf_trigger": false,
      "metar": "METAR EGPF 240350Z AUTO 07006KT 9999 OVC028 07/03 Q1036",
      "taf": "TAF EGPF 232304Z 2400/2424 06007KT 9999 SCT025"
    },
    {
      "icao": "EHBK",
      "alert": "OK",
      "vis_m": 9999,
      "fzfg": false,
      "metar_trigger": false,
      "taf_trigger": false,
      "metar": "METAR EHBK 240355Z AUTO 06015KT 020V090 9999 OVC025 02/M03 Q1025",
      "taf": "TAF EHBK 232316Z 2400/2506 05012KT 9999 BKN025"
    },
    {
      "icao": "EHEH",
      "alert": "OK",
      "vis_m": 9999,
      "fzfg": false,
      "metar_trigger": false,
      "taf_trigger": false,
      "metar": "METAR EHEH 240355Z AUTO 06013KT 030V110 9999 NCD 01/M04 Q1028 BLU",
      "taf": "TAF EHEH 232350Z 2400/2506 07012KT 9999 FEW018 BKN030"
    },
    {
      "icao": "EKBI",
      "alert": "OK",
      "vis_m": 9999,
      "fzfg": false,
      "metar_trigger": false,
      "taf_trigger": false,
      "metar": "METAR EKBI 240350Z AUTO 06005KT 9999 OVC027/// 00/M03 Q1038",
      "taf": "TAF EKBI 240227Z 2403/2503 07007KT 9999 BKN020"
    },
    {
      "icao": "EKCH",
      "alert": "OK",
      "vis_m": 9999,
      "fzfg": false,
      "metar_trigger": false,
      "taf_trigger": false,
      "metar": "METAR EKCH 240350Z AUTO 04012KT 9999 OVC029/// 00/M04 Q1038 NOSIG",
      "taf": "TAF EKCH 240227Z 2403/2503 06013KT 9999 FEW020"
    },
    {
      "icao": "ENAL",
      "alert": "OK",
      "vis_m": 9999,
      "fzfg": false,
      "metar_trigger": false,
      "taf_trigger": false,
      "metar": "METAR ENAL 240350Z AUTO 19011KT 9999 OVC032/// 07/01 Q1037",
      "taf": "TAF ENAL 240200Z 2403/2412 18009KT 9999 SCT030"
    },
    {
      "icao": "ENBR",
      "alert": "OK",
      "vis_m": 9999,
      "fzfg": false,
      "metar_trigger": false,
      "taf_trigger": false,
      "metar": "METAR ENBR 240350Z AUTO 10004KT 9999 SCT040/// 03/01 Q1041 RMK WIND 1200FT 14006KT",
      "taf": "TAF ENBR 232300Z 2400/2424 14005KT 9999 SCT030"
    },
    {
      "icao": "ENGM",
      "alert": "OK",
      "vis_m": 9999,
      "fzfg": false,
      "metar_trigger": false,
      "taf_trigger": false,
      "metar": "METAR ENGM 240350Z VRB02KT 9999 BKN011 M05/M07 Q1038",
      "taf": "TAF ENGM 232300Z 2400/2424 28005KT 9999 BKN012"
    },
    {
      "icao": "ENHD",
      "alert": "OK",
      "vis_m": 9999,
      "fzfg": false,
      "metar_trigger": false,
      "taf_trigger": false,
      "metar": "METAR ENHD 240350Z AUTO 12004KT 9999 OVC033/// 02/M00 Q1041",
      "taf": "TAF ENHD 240200Z 2403/2412 18008KT 9999 SCT035"
    },
    {
      "icao": "ENTC",
      "alert": "OK",
      "vis_m": 9999,
      "fzfg": false,
      "metar_trigger": false,
      "taf_trigger": false,
      "metar": "METAR ENTC 240350Z AUTO 18015KT 9999 OVC030/// 03/M03 Q1021 RERA RMK WIND 2600FT 18026KT",
      "taf": "TAF ENTC 232300Z 2400/2424 20020KT 9999 SCT030"
    },
    {
      "icao": "ENTO",
      "alert": "OK",
      "vis_m": 9999,
      "fzfg": false,
      "metar_trigger": false,
      "taf_trigger": false,
      "metar": "METAR ENTO 240350Z AUTO VRB01KT 9999 OVC013/// M02/M04 Q1040",
      "taf": "TAF ENTO 232300Z 2400/2424 32005KT 9999 BKN015"
    },
    {
      "icao": "ENVA",
      "alert": "OK",
      "vis_m": 9999,
      "fzfg": false,
      "metar_trigger": false,
      "taf_trigger": false,
      "metar": "METAR ENVA 240350Z 10003KT 9999 NSC M04/M06 Q1038 RMK WIND 670FT 14003KT",
      "taf": "TAF ENVA 232300Z 2400/2424 12008KT 9999 SCT035"
    },
    {
      "icao": "ENZV",
      "alert": "OK",
      "vis_m": 9999,
      "fzfg": false,
      "metar_trigger": false,
      "taf_trigger": false,
      "metar": "METAR ENZV 240350Z AUTO 08004KT 050V170 9999 OVC036/// M00/M04 Q1041",
      "taf": "TAF ENZV 232300Z 2400/2424 14005KT CAVOK"
    },
    {
      "icao": "EPGD",
      "alert": "OK",
      "vis_m": 9999,
      "fzfg": false,
      "metar_trigger": false,
      "taf_trigger": false,
      "metar": "METAR EPGD 240400Z 12007KT CAVOK M07/M10 Q1035",
      "taf": "TAF EPGD 232330Z 2400/2424 08011KT 9999 SCT020"
    },
    {
      "icao": "EPKK",
      "alert": "OK",
      "vis_m": 9999,
      "fzfg": false,
      "metar_trigger": false,
      "taf_trigger": false,
      "metar": "METAR EPKK 240400Z 06012KT 9999 -SN OVC013 M01/M04 Q1026",
      "taf": "TAF EPKK 240230Z 2403/2503 05013KT 9999 BKN012"
    },
    {
      "icao": "EPKT",
      "alert": "OK",
      "vis_m": 9999,
      "fzfg": false,
      "metar_trigger": false,
      "taf_trigger": false,
      "metar": "METAR EPKT 240400Z 05011KT 9999 -SN FEW017 M01/M04 Q1026",
      "taf": "TAF EPKT 232330Z 2400/2424 06010KT 9999 BKN030"
    },
    {
      "icao": "EPLB",
      "alert": "OK",
      "vis_m": 9999,
      "fzfg": false,
      "metar_trigger": false,
      "taf_trigger": false,
      "metar": "METAR EPLB 240400Z 07014KT 9999 BKN014 OVC023 M05/M07 Q1030",
      "taf": "TAF EPLB 232330Z 2400/2424 05010KT 9999 OVC025"
    },
    {
      "icao": "EPMO",
      "alert": "OK",
      "vis_m": 9999,
      "fzfg": false,
      "metar_trigger": false,
      "taf_trigger": false,
      "metar": "METAR EPMO 240400Z 05010KT 9999 SCT017 M08/M10 Q1033",
      "taf": "TAF EPMO 232330Z 2400/2424 04010KT 9999 BKN017"
    },
    {
      "icao": "EPPO",
      "alert": "OK",
      "vis_m": 9999,
      "fzfg": false,
      "metar_trigger": false,
      "taf_trigger": false,
      "metar": "METAR EPPO 240400Z 06012KT 9999 OVC017 M02/M06 Q1032",
      "taf": "TAF EPPO 232330Z 2400/2424 07010KT 9999 FEW013 BKN020"
    },
    {
      "icao": "EPRA",
      "alert": "OK",
      "vis_m": 9999,
      "fzfg": false,
      "metar_trigger": false,
      "taf_trigger": false,
      "metar": "METAR EPRA 240400Z 04010KT 9999 SCT013 BKN018 OVC023 M03/M06 Q1030",
      "taf": "TAF EPRA 240230Z 2403/2412 07010KT 9999 BKN020"
    },
    {
      "icao": "EPRZ",
      "alert": "OK",
      "vis_m": 9999,
      "fzfg": false,
      "metar_trigger": false,
      "taf_trigger": false,
      "metar": "METAR EPRZ 240400Z 06013KT 9999 -SN SCT013 OVC017 M01/M04 Q1026",
      "taf": "TAF EPRZ 232330Z 2400/2424 05010KT 9999 BKN030"
    },
    {
      "icao": "EPSC",
      "alert": "OK",
      "vis_m": 9999,
      "fzfg": false,
      "metar_trigger": false,
      "taf_trigger": false,
      "metar": "METAR EPSC 240400Z 03005KT 360V060 CAVOK M03/M04 Q1034",
      "taf": "TAF EPSC 232330Z 2400/2424 04005KT 9999 BKN045"
    },
    {
      "icao": "EPSY",
      "alert": "OK",
      "vis_m": 9999,
      "fzfg": false,
      "metar_trigger": false,
      "taf_trigger": false,
      "metar": "METAR EPSY 240400Z 06004KT 010V130 9999 SCT015 M07/M10 Q1034",
      "taf": "TAF EPSY 240230Z 2403/2412 06006KT CAVOK"
    },
    {
      "icao": "EPWA",
      "alert": "OK",
      "vis_m": 9999,
      "fzfg": false,
      "metar_trigger": false,
      "taf_trigger": false,
      "metar": "METAR EPWA 240400Z 05009KT 9999 FEW014 M08/M11 Q1032 NOSIG",
      "taf": "TAF EPWA 240230Z 2403/2503 05010KT 9999 FEW020"
    },
    {
      "icao": "EPWR",
      "alert": "OK",
      "vis_m": 9999,
      "fzfg": false,
      "metar_trigger": false,
      "taf_trigger": false,
      "metar": "METAR EPWR 240400Z 05010KT 9999 -SN BKN015 01/M02 Q1028",
      "taf": "TAF EPWR 240230Z 2403/2503 06012KT 9999 BKN012"
    },
    {
      "icao": "ESGG",
      "alert": "OK",
      "vis_m": 9999,
      "fzfg": false,
      "metar_trigger": false,
      "taf_trigger": false,
      "metar": "METAR ESGG 240320Z 02003KT 9999 NSC M03/M04 Q1038",
      "taf": "TAF ESGG 240230Z 2403/2503 06006KT 9999 SCT008"
    },
    {
      "icao": "ESKN",
      "alert": "OK",
      "vis_m": 9999,
      "fzfg": false,
      "metar_trigger": false,
      "taf_trigger": false,
      "metar": "METAR ESKN 240350Z 28010KT 9999 OVC009 M02/M03 Q1036",
      "taf": ""
    },
    {
      "icao": "ESMS",
      "alert": "OK",
      "vis_m": 9999,
      "fzfg": false,
      "metar_trigger": false,
      "taf_trigger": false,
      "metar": "METAR ESMS 240350Z 01007KT 9999 BKN025 M01/M04 Q1037",
      "taf": "TAF ESMS 240227Z 2403/2503 07007KT 9999 SCT020"
    },
    {
      "icao": "ESSA",
      "alert": "OK",
      "vis_m": 9999,
      "fzfg": false,
      "metar_trigger": false,
      "taf_trigger": false,
      "metar": "METAR ESSA 240350Z 29008KT 9999 OVC005 M04/M04 Q1035 NOSIG",
      "taf": "TAF ESSA 240230Z 2403/2503 27009KT 9999 BKN008"
    },
    {
      "icao": "EYKA",
      "alert": "OK",
      "vis_m": 9999,
      "fzfg": false,
      "metar_trigger": false,
      "taf_trigger": false,
      "metar": "METAR EYKA 240420Z 35001KT CAVOK M09/M10 Q1036",
      "taf": "TAF EYKA 232309Z 2400/2424 VRB03KT 9000 NSC"
    },
    {
      "icao": "EYPA",
      "alert": "OK",
      "vis_m": 9999,
      "fzfg": false,
      "metar_trigger": false,
      "taf_trigger": false,
      "metar": "METAR EYPA 240420Z VRB02KT 9999 OVC038 M06/M08 Q1038",
      "taf": "TAF EYPA 232308Z 2400/2424 VRB03KT 9000 BKN040"
    },
    {
      "icao": "EYVI",
      "alert": "OK",
      "vis_m": 9999,
      "fzfg": false,
      "metar_trigger": false,
      "taf_trigger": false,
      "metar": "METAR EYVI 240420Z 02006KT 9999 BKN002 M11/M12 Q1034 NOSIG",
      "taf": "TAF EYVI 232309Z 2400/2424 03005KT 9000 BKN020"
    },
    {
      "icao": "GCFV",
      "alert": "OK",
      "vis_m": 9999,
      "fzfg": false,
      "metar_trigger": false,
      "taf_trigger": false,
      "metar": "METAR GCFV 240400Z AUTO 30006KT CAVOK 15/10 Q1017",
      "taf": "TAF GCFV 240200Z 2403/2503 30005KT 9999 BKN035 TX21/2414Z TN15/2406Z"
    },
    {
      "icao": "GCLP",
      "alert": "OK",
      "vis_m": 9999,
      "fzfg": false,
      "metar_trigger": false,
      "taf_trigger": false,
      "metar": "METAR GCLP 240400Z 01009KT 9999 FEW035 16/11 Q1017 NOSIG",
      "taf": "TAF GCLP 240200Z 2403/2503 28005KT 9999 SCT035 TX22/2414Z TN15/2406Z"
    },
    {
      "icao": "GCTS",
      "alert": "OK",
      "vis_m": 9999,
      "fzfg": false,
      "metar_trigger": false,
      "taf_trigger": false,
      "metar": "METAR GCTS 240400Z 01008KT 9999 FEW040 16/10 Q1018 NOSIG",
      "taf": "TAF GCTS 240200Z 2403/2503 VRB05KT 9999 SCT035 TX24/2414Z TN15/2406Z"
    },
    {
      "icao": "GMAD",
      "alert": "OK",
      "vis_m": 9999,
      "fzfg": false,
      "metar_trigger": false,
      "taf_trigger": false,
      "metar": "METAR GMAD 240400Z 06003KT 030V090 9999 BKN040 SCT066 11/10 Q1014 NOSIG",
      "taf": "TAF GMAD 232300Z 2400/2506 20006KT CAVOK"
    },
    {
      "icao": "GMMN",
      "alert": "OK",
      "vis_m": 6000,
      "fzfg": false,
      "metar_trigger": false,
      "taf_trigger": false,
      "metar": "METAR GMMN 240400Z 22014KT 6000 SCT006 BKN020TCU 13/11 Q1010 NOSIG",
      "taf": "TAF GMMN 232300Z 2400/2506 22016KT 8000 SCT004 BKN020"
    },
    {
      "icao": "GMMX",
      "alert": "OK",
      "vis_m": 9999,
      "fzfg": false,
      "metar_trigger": false,
      "taf_trigger": false,
      "metar": "METAR GMMX 240400Z 24007KT 9999 SCT020 BKN090 11/06 Q1012 NOSIG",
      "taf": "TAF GMMX 232300Z 2400/2506 20006KT 8000 FEW020"
    },
    {
      "icao": "HEGN",
      "alert": "OK",
      "vis_m": 9999,
      "fzfg": false,
      "metar_trigger": false,
      "taf_trigger": false,
      "metar": "METAR HEGN 240400Z 29009KT CAVOK 15/05 Q1018 NOSIG",
      "taf": "TAF HEGN 232300Z 2400/2506 29010KT CAVOK"
    },
    {
      "icao": "HEMA",
      "alert": "OK",
      "vis_m": 9999,
      "fzfg": false,
      "metar_trigger": false,
      "taf_trigger": false,
      "metar": "METAR HEMA 240400Z 28010KT 9999 SCT025 19/11 Q1016 NOSIG",
      "taf": "TAF HEMA 232300Z 2400/2506 30012KT 9999 SCT25"
    },
    {
      "icao": "HESH",
      "alert": "OK",
      "vis_m": 9999,
      "fzfg": false,
      "metar_trigger": false,
      "taf_trigger": false,
      "metar": "METAR HESH 240400Z 35010KT CAVOK 18/05 Q1017 NOSIG",
      "taf": "TAF HESH 232300Z 2400/2506 33010KT CAVOK"
    },
    {
      "icao": "HESX",
      "alert": "OK",
      "vis_m": 9999,
      "fzfg": false,
      "metar_trigger": false,
      "taf_trigger": false,
      "metar": "METAR HESX 240400Z 11003KT CAVOK 08/02 Q1019 NOSIG",
      "taf": "TAF HESX 232300Z 2400/2506 20007KT CAVOK"
    },
    {
      "icao": "LATI",
      "alert": "OK",
      "vis_m": 9999,
      "fzfg": false,
      "metar_trigger": false,
      "taf_trigger": false,
      "metar": "METAR LATI 240420Z 12008KT 9999 SCT064 BKN096 OVC120 11/07 Q1011 NOSIG",
      "taf": "TAF LATI 232300Z 2400/2424 VRB03KT 3000 -RA BR SCT025 BKN050 TX14/2412Z TN06/2424Z"
    },
    {
      "icao": "LBPD",
      "alert": "OK",
      "vis_m": 4400,
      "fzfg": false,
      "metar_trigger": false,
      "taf_trigger": false,
      "metar": "METAR LBPD 240400Z AUTO 11005KT 4400 BR SCT002/// BKN004/// OVC010/// 05/05 Q1019 TEMPO 2000 BR",
      "taf": "TAF LBPD 232300Z 2400/2424 VRB04KT 5000 BR SCT012 BKN020"
    },
    {
      "icao": "LBSF",
      "alert": "OK",
      "vis_m": 9999,
      "fzfg": false,
      "metar_trigger": false,
      "taf_trigger": false,
      "metar": "METAR LBSF 240400Z AUTO 10013KT 9999 FEW018/// BKN056/// 03/02 Q1016 NOSIG",
      "taf": "TAF LBSF 232300Z 2400/2424 10010KT 9999 SCT009 OVC025"
    },
    {
      "icao": "LBWN",
      "alert": "OK",
      "vis_m": 3900,
      "fzfg": false,
      "metar_trigger": false,
      "taf_trigger": false,
      "metar": "METAR LBWN 240400Z AUTO 29002KT 3900 1800W BR OVC005/// 03/03 Q1021 TEMPO 0800 BCFG",
      "taf": "TAF LBWN 232300Z 2400/2424 VRB04KT 3000 BR BKN005 OVC010"
    },
    {
      "icao": "LCLK",
      "alert": "OK",
      "vis_m": 9999,
      "fzfg": false,
      "metar_trigger": false,
      "taf_trigger": false,
      "metar": "METAR LCLK 240400Z 33003KT 9999 SCT060 13/12 Q1019 NOSIG",
      "taf": "TAF LCLK 232330Z 2400/2500 34008KT 9999 FEW025 SCT040"
    },
    {
      "icao": "LCPH",
      "alert": "OK",
      "vis_m": 9999,
      "fzfg": false,
      "metar_trigger": false,
      "taf_trigger": false,
      "metar": "METAR LCPH 240400Z 07008KT 010V080 9999 FEW040 SCT060 12/09 Q1018 NOSIG",
      "taf": "TAF LCPH 232330Z 2400/2500 06007KT 9999 FEW030 SCT045"
    },
    {
      "icao": "LEAL",
      "alert": "OK",
      "vis_m": 9999,
      "fzfg": false,
      "metar_trigger": false,
      "taf_trigger": false,
      "metar": "METAR LEAL 240400Z 30008KT CAVOK 09/03 Q1006 NOSIG",
      "taf": "TAF LEAL 232300Z 2400/2424 32009KT 9999 FEW030 TX15/2412Z TN05/2406Z"
    },
    {
      "icao": "LEBB",
      "alert": "OK",
      "vis_m": 8000,
      "fzfg": false,
      "metar_trigger": false,
      "taf_trigger": false,
      "metar": "METAR LEBB 240400Z 00000KT 8000 BKN020 OVC028 09/09 Q1012 NOSIG",
      "taf": "TAF LEBB 232300Z 2400/2424 VRB03KT 9999 SCT016 TX10/2413Z TN06/2424Z"
    },
    {
      "icao": "LEBL",
      "alert": "OK",
      "vis_m": 9999,
      "fzfg": false,
      "metar_trigger": false,
      "taf_trigger": false,
      "metar": "METAR LEBL 240400Z 32011KT 9999 FEW050 07/04 Q1007 NOSIG",
      "taf": "TAF LEBL 232300Z 2400/2424 05010KT 9999 SCT020 TX14/2413Z TN08/2406Z"
    },
    {
      "icao": "LECH",
      "alert": "OK",
      "vis_m": 9000,
      "fzfg": false,
      "metar_trigger": false,
      "taf_trigger": false,
      "metar": "METAR LECH 240400Z AUTO 04006KT 9000 BKN060 07/04 Q1007",
      "taf": ""
    },
    {
      "icao": "LEMD",
      "alert": "OK",
      "vis_m": 3000,
      "fzfg": false,
      "metar_trigger": false,
      "taf_trigger": false,
      "metar": "METAR LEMD 240400Z COR 35005KT 3000 BR OVC004 00/00 Q1009 NOSIG",
      "taf": ""
    },
    {
      "icao": "LEMG",
      "alert": "OK",
      "vis_m": 9999,
      "fzfg": false,
      "metar_trigger": false,
      "taf_trigger": false,
      "metar": "METAR LEMG 240400Z 31006KT 9999 FEW080 08/08 Q1006 NOSIG",
      "taf": ""
    },
    {
      "icao": "LEVC",
      "alert": "OK",
      "vis_m": 9999,
      "fzfg": false,
      "metar_trigger": false,
      "taf_trigger": false,
      "metar": "METAR LEVC 240400Z 28003KT 9999 FEW050 SCT065 07/03 Q1007 NOSIG",
      "taf": "TAF LEVC 232300Z 2400/2424 27007KT 9999 FEW020 TX13/2412Z TN05/2406Z"
    },
    {
      "icao": "LEXJ",
      "alert": "OK",
      "vis_m": 7000,
      "fzfg": false,
      "metar_trigger": false,
      "taf_trigger": false,
      "metar": "METAR LEXJ 240400Z AUTO 22004KT 7000 SCT028 BKN036 BKN042 09/08 Q1013",
      "taf": "TAF LEXJ 240200Z 2403/2503 22009KT 9999 SCT020 TX11/2415Z TN07/2503Z"
    },
    {
      "icao": "LEZG",
      "alert": "OK",
      "vis_m": 9999,
      "fzfg": false,
      "metar_trigger": false,
      "taf_trigger": false,
      "metar": "METAR LEZG 240400Z 28006KT 9999 FEW080 04/04 Q1009 NOSIG",
      "taf": "TAF LEZG 232300Z 2400/2424 29007KT 9999 FEW030 TX11/2414Z TN03/2406Z"
    },
    {
      "icao": "LEZL",
      "alert": "OK",
      "vis_m": 4000,
      "fzfg": false,
      "metar_trigger": false,
      "taf_trigger": false,
      "metar": "METAR LEZL 240400Z AUTO 36003KT 4000 1100W BR VV002 11/11 Q1007",
      "taf": "TAF LEZL 240200Z 2403/2503 VRB03KT 9999 FEW040 TX14/2415Z TN08/2407Z"
    },
    {
      "icao": "LFBD",
      "alert": "OK",
      "vis_m": 9999,
      "fzfg": false,
      "metar_trigger": false,
      "taf_trigger": false,
      "metar": "METAR LFBD 240400Z AUTO 02009KT 9999 OVC008 06/04 Q1013 TEMPO 4000 BR VV///",
      "taf": ""
    },
    {
      "icao": "LFLL",
      "alert": "OK",
      "vis_m": 5000,
      "fzfg": false,
      "metar_trigger": false,
      "taf_trigger": false,
      "metar": "METAR LFLL 240400Z 34006KT 5000 -DZ BR OVC007 03/02 Q1012 NOSIG",
      "taf": ""
    },
    {
      "icao": "LFLS",
      "alert": "OK",
      "vis_m": 8000,
      "fzfg": false,
      "metar_trigger": false,
      "taf_trigger": false,
      "metar": "METAR LFLS 240400Z AUTO 33008KT 8000 BKN008 OVC012 02/02 Q1011 TEMPO 3000 -DZ OVC003",
      "taf": "TAF LFLS 240200Z 2403/2503 36008KT 9999 SCT006 OVC020"
    },
    {
      "icao": "LFMN",
      "alert": "OK",
      "vis_m": 9999,
      "fzfg": false,
      "metar_trigger": false,
      "taf_trigger": false,
      "metar": "METAR LFMN 240400Z 33011KT 9999 FEW073 BKN110 11/07 Q1003 NOSIG",
      "taf": "TAF LFMN 240200Z 2403/2509 33012KT 9999 FEW040 BKN080"
    },
    {
      "icao": "LFOB",
      "alert": "OK",
      "vis_m": 9999,
      "fzfg": false,
      "metar_trigger": false,
      "taf_trigger": false,
      "metar": "METAR LFOB 240400Z AUTO 06010KT 9999 OVC027 04/01 Q1021 NOSIG",
      "taf": "TAF LFOB 232300Z 2400/2424 05010G20KT 9999 OVC020"
    },
    {
      "icao": "LFPO",
      "alert": "OK",
      "vis_m": 9999,
      "fzfg": false,
      "metar_trigger": false,
      "taf_trigger": false,
      "metar": "METAR LFPO 240400Z AUTO 06012KT 9999 OVC029 05/M00 Q1019",
      "taf": "TAF LFPO 231700Z 2318/2424 04010KT 9999 BKN018"
    },
    {
      "icao": "LFSB",
      "alert": "OK",
      "vis_m": 9999,
      "fzfg": false,
      "metar_trigger": false,
      "taf_trigger": false,
      "metar": "METAR LFSB 240400Z AUTO 35004KT 9999 OVC033 02/01 Q1016 TEMPO BKN007",
      "taf": "TAF LFSB 232300Z 2400/2424 36004KT 9999 FEW005 OVC020"
    },
    {
      "icao": "LGAV",
      "alert": "OK",
      "vis_m": 9999,
      "fzfg": false,
      "metar_trigger": false,
      "taf_trigger": false,
      "metar": "METAR LGAV 240350Z 26001KT 9999 FEW020 SCT040 07/06 Q1017 NOSIG",
      "taf": "TAF LGAV 232300Z 2400/2424 VRB05KT 9999 FEW016 SCT025 BKN070"
    },
    {
      "icao": "LGTS",
      "alert": "OK",
      "vis_m": 6000,
      "fzfg": false,
      "metar_trigger": false,
      "taf_trigger": false,
      "metar": "METAR LGTS 240350Z 00000KT 6000 3000SE -RA BR SCT006 SCT025 BKN050 10/10 Q1016 NOSIG",
      "taf": ""
    },
    {
      "icao": "LHBP",
      "alert": "OK",
      "vis_m": 9999,
      "fzfg": false,
      "metar_trigger": false,
      "taf_trigger": false,
      "metar": "METAR LHBP 240400Z 07004KT 9999 FEW022 BKN052 04/03 Q1018 NOSIG",
      "taf": "TAF LHBP 232315Z 2400/2424 06008KT 9999 SCT020 OVC040"
    },
    {
      "icao": "LHDC",
      "alert": "OK",
      "vis_m": 9999,
      "fzfg": false,
      "metar_trigger": false,
      "taf_trigger": false,
      "metar": "METAR LHDC 240345Z AUTO 04016KT CAVOK 03/00 Q1018",
      "taf": ""
    },
    {
      "icao": "LIBD",
      "alert": "OK",
      "vis_m": 9999,
      "fzfg": false,
      "metar_trigger": false,
      "taf_trigger": false,
      "metar": "METAR LIBD 240350Z 20009KT CAVOK 10/06 Q1007",
      "taf": "TAF LIBD 232300Z 2400/2424 16008KT 9999 SCT060"
    },
    {
      "icao": "LIBG",
      "alert": "OK",
      "vis_m": null,
      "fzfg": false,
      "metar_trigger": false,
      "taf_trigger": false,
      "metar": "",
      "taf": "TAF LIBG 231700Z 2318/2403 14013KT 9999 BKN010"
    },
    {
      "icao": "LIBP",
      "alert": "OK",
      "vis_m": 50,
      "fzfg": false,
      "metar_trigger": false,
      "taf_trigger": false,
      "metar": "METAR LIBP 240350Z AUTO VRB01KT 0050 R22/0300N -RA FG VV001 08/08 Q1003",
      "taf": ""
    },
    {
      "icao": "LIBR",
      "alert": "OK",
      "vis_m": 9999,
      "fzfg": false,
      "metar_trigger": false,
      "taf_trigger": false,
      "metar": "METAR LIBR 240350Z 19005KT CAVOK 11/10 Q1009",
      "taf": "TAF LIBR 232300Z 2400/2424 15010KT 9999 SCT060"
    },
    {
      "icao": "LICA",
      "alert": "OK",
      "vis_m": 9999,
      "fzfg": false,
      "metar_trigger": false,
      "taf_trigger": false,
      "metar": "METAR LICA 240350Z AUTO 08007KT 9999 NCD 06/05 Q1010",
      "taf": "TAF LICA 232300Z 2400/2424 08012KT 9999 SCT040"
    },
    {
      "icao": "LICC",
      "alert": "OK",
      "vis_m": 9999,
      "fzfg": false,
      "metar_trigger": false,
      "taf_trigger": false,
      "metar": "METAR LICC 240350Z 22005KT CAVOK 06/05 Q1011",
      "taf": "TAF LICC 232300Z 2400/2424 25012KT 9999 SCT030"
    },
    {
      "icao": "LICJ",
      "alert": "OK",
      "vis_m": 9999,
      "fzfg": false,
      "metar_trigger": false,
      "taf_trigger": false,
      "metar": "METAR LICJ 240350Z 18011KT 9999 SCT040 13/05 Q1008",
      "taf": "TAF LICJ 232300Z 2400/2424 21018G28KT 9999 SCT040"
    },
    {
      "icao": "LIMC",
      "alert": "OK",
      "vis_m": 9999,
      "fzfg": false,
      "metar_trigger": false,
      "taf_trigger": false,
      "metar": "METAR LIMC 240350Z 36005KT 9999 BKN070 07/06 Q1007 NOSIG",
      "taf": "TAF LIMC 232300Z 2400/2506 VRB05KT 6000 SCT060"
    },
    {
      "icao": "LIME",
      "alert": "OK",
      "vis_m": 9999,
      "fzfg": false,
      "metar_trigger": false,
      "taf_trigger": false,
      "metar": "METAR LIME 240350Z 01004KT 9999 FEW070 06/05 Q1007 NOSIG",
      "taf": "TAF LIME 232300Z 2400/2424 VRB05KT 7000 SCT070"
    },
    {
      "icao": "LIMF",
      "alert": "OK",
      "vis_m": 6000,
      "fzfg": false,
      "metar_trigger": false,
      "taf_trigger": false,
      "metar": "METAR LIMF 240350Z 29002KT 6000 BCFG BKN070 06/05 Q1008",
      "taf": "TAF LIMF 232300Z 2400/2424 VRB05KT 6000 BKN040"
    },
    {
      "icao": "LIMJ",
      "alert": "OK",
      "vis_m": 9999,
      "fzfg": false,
      "metar_trigger": false,
      "taf_trigger": false,
      "metar": "METAR LIMJ 240350Z 06011KT CAVOK 11/07 Q1005",
      "taf": "TAF LIMJ 232300Z 2400/2424 03015KT 9999 SCT070"
    },
    {
      "icao": "LIPE",
      "alert": "OK",
      "vis_m": 5000,
      "fzfg": false,
      "metar_trigger": false,
      "taf_trigger": false,
      "metar": "METAR LIPE 240350Z 05005KT 360V080 5000 -RA BR BKN004 BKN008 09/09 Q1006",
      "taf": "TAF LIPE 232300Z 2400/2424 28010KT 2000 -RA BR BKN003"
    },
    {
      "icao": "LIPH",
      "alert": "OK",
      "vis_m": 9999,
      "fzfg": false,
      "metar_trigger": false,
      "taf_trigger": false,
      "metar": "METAR LIPH 240350Z AUTO 05006KT 9999 -RA OVC065/// 08/04 Q1008",
      "taf": "TAF LIPH 232300Z 2400/2424 05005KT 9999 BKN020"
    },
    {
      "icao": "LIPQ",
      "alert": "OK",
      "vis_m": 9999,
      "fzfg": false,
      "metar_trigger": false,
      "taf_trigger": false,
      "metar": "METAR LIPQ 240350Z AUTO VRB02KT 9999 OVC074/// 09/03 Q1009",
      "taf": "TAF LIPQ 232300Z 2400/2424 06008KT 9999 BKN050"
    },
    {
      "icao": "LIPR",
      "alert": "OK",
      "vis_m": 6000,
      "fzfg": false,
      "metar_trigger": false,
      "taf_trigger": false,
      "metar": "METAR LIPR 240350Z AUTO 07015G26KT 6000 -RA BKN014/// 11/10 Q1003",
      "taf": "TAF LIPR 232300Z 2400/2424 30010KT 4000 BR BKN020"
    },
    {
      "icao": "LIPX",
      "alert": "OK",
      "vis_m": 9999,
      "fzfg": false,
      "metar_trigger": false,
      "taf_trigger": false,
      "metar": "METAR LIPX 240350Z 31003KT 9999 BKN060 08/05 Q1007",
      "taf": "TAF LIPX 232300Z 2400/2424 VRB05KT 7000 SCT050"
    },
    {
      "icao": "LIPY",
      "alert": "OK",
      "vis_m": 9999,
      "fzfg": false,
      "metar_trigger": false,
      "taf_trigger": false,
      "metar": "METAR LIPY 240350Z AUTO 10005KT 050V130 9999 FEW018/// BKN094/// 13/12 Q1003",
      "taf": "TAF LIPY 232300Z 2400/2424 32010KT 3000 -RA BR BKN006"
    },
    {
      "icao": "LIPZ",
      "alert": "OK",
      "vis_m": 9999,
      "fzfg": false,
      "metar_trigger": false,
      "taf_trigger": false,
      "metar": "METAR LIPZ 240350Z 06011KT 9999 BKN050 08/04 Q1008 NOSIG",
      "taf": "TAF LIPZ 232300Z 2400/2506 05010KT 9999 SCT040"
    },
    {
      "icao": "LIRF",
      "alert": "OK",
      "vis_m": 9999,
      "fzfg": false,
      "metar_trigger": false,
      "taf_trigger": false,
      "metar": "METAR LIRF 240350Z 10013KT 9999 SCT045 11/08 Q1002 NOSIG",
      "taf": "TAF LIRF 232300Z 2400/2506 10012KT 9999 BKN030"
    },
    {
      "icao": "LIRN",
      "alert": "OK",
      "vis_m": 8000,
      "fzfg": false,
      "metar_trigger": false,
      "taf_trigger": false,
      "metar": "METAR LIRN 240350Z 21009KT 170V240 8000 -RA BKN040 11/08 Q1006 NOSIG",
      "taf": "TAF LIRN 232300Z 2400/2424 18015KT 9999 SCT040"
    },
    {
      "icao": "LIRP",
      "alert": "OK",
      "vis_m": 7000,
      "fzfg": false,
      "metar_trigger": false,
      "taf_trigger": false,
      "metar": "METAR LIRP 240345Z 09007KT 7000 -RA SCT020 BKN050 11/10 Q1003 TEMPO 5000",
      "taf": "TAF LIRP 232300Z 2400/2424 VRB03KT 9999 SCT040"
    },
    {
      "icao": "LIRZ",
      "alert": "OK",
      "vis_m": 9999,
      "fzfg": false,
      "metar_trigger": false,
      "taf_trigger": false,
      "metar": "METAR LIRZ 240350Z AUTO 22003KT 180V310 9999 2400S -RA OVC065/// 08/08 Q1002",
      "taf": "TAF LIRZ 232300Z 2400/2424 VRB05KT 9999 BKN050"
    },
    {
      "icao": "LJLJ",
      "alert": "OK",
      "vis_m": 9999,
      "fzfg": false,
      "metar_trigger": false,
      "taf_trigger": false,
      "metar": "METAR LJLJ 240400Z VRB01KT 9999 SCT006 OVC020 02/01 Q1014 NOSIG",
      "taf": "TAF LJLJ 232300Z 2400/2500 VRB02KT 4000 -RA BR SCT003 BKN010 OVC020"
    },
    {
      "icao": "LKMT",
      "alert": "OK",
      "vis_m": 9999,
      "fzfg": false,
      "metar_trigger": false,
      "taf_trigger": false,
      "metar": "METAR LKMT 240400Z 05016KT 9999 SCT021 OVC047 00/M03 Q1023 NOSIG",
      "taf": "TAF LKMT 232300Z 2400/2424 03016KT 9999 BKN025"
    },
    {
      "icao": "LKPR",
      "alert": "OK",
      "vis_m": 9999,
      "fzfg": false,
      "metar_trigger": false,
      "taf_trigger": false,
      "metar": "METAR LKPR 240400Z 03008KT 9999 BKN029 M01/M03 Q1024 NOSIG",
      "taf": "TAF LKPR 240200Z 2403/2509 05012KT 9999 BKN024 OVC030"
    },
    {
      "icao": "LLBG",
      "alert": "OK",
      "vis_m": 9999,
      "fzfg": false,
      "metar_trigger": false,
      "taf_trigger": false,
      "metar": "METAR LLBG 240420Z 11004KT 9999 SCT040 15/11 Q1019 NOSIG RMK SCT075",
      "taf": "TAF LLBG 232306Z 2400/2424 14006KT 9999 SCT035"
    },
    {
      "icao": "LMML",
      "alert": "OK",
      "vis_m": 9999,
      "fzfg": false,
      "metar_trigger": false,
      "taf_trigger": false,
      "metar": "METAR LMML 240415Z 22009KT 180V240 9999 FEW036 13/06 Q1011 NOSIG",
      "taf": "TAF LMML 232300Z 2400/2424 23012KT 9999 FEW030"
    },
    {
      "icao": "LOWW",
      "alert": "OK",
      "vis_m": 5000,
      "fzfg": false,
      "metar_trigger": false,
      "taf_trigger": false,
      "metar": "METAR LOWW 240350Z 01005KT 5000 -SN FEW002 BKN004 00/M00 Q1020 TEMPO 4000 -SN",
      "taf": "TAF LOWW 240215Z 2403/2509 02006KT 7000 -SNRA BKN006 OVC025 TX01/2403Z TNM02/2507Z"
    },
    {
      "icao": "LPFR",
      "alert": "OK",
      "vis_m": 9999,
      "fzfg": false,
      "metar_trigger": false,
      "taf_trigger": false,
      "metar": "METAR LPFR 240400Z 29007KT CAVOK 08/06 Q1008",
      "taf": "TAF LPFR 232300Z 2400/2424 31007KT CAVOK"
    },
    {
      "icao": "LPMA",
      "alert": "OK",
      "vis_m": 9999,
      "fzfg": false,
      "metar_trigger": false,
      "taf_trigger": false,
      "metar": "METAR LPMA 240400Z 33005KT 280V010 9999 SCT015 16/13 Q1016",
      "taf": "TAF LPMA 232300Z 2400/2424 VRB05KT 9999 SCT015"
    },
    {
      "icao": "LPPR",
      "alert": "OK",
      "vis_m": 9999,
      "fzfg": false,
      "metar_trigger": false,
      "taf_trigger": false,
      "metar": "METAR LPPR 240400Z 12006KT CAVOK 07/04 Q1010",
      "taf": "TAF LPPR 232300Z 2400/2424 VRB02KT 9999 FEW030"
    },
    {
      "icao": "LPPS",
      "alert": "OK",
      "vis_m": 9999,
      "fzfg": false,
      "metar_trigger": false,
      "taf_trigger": false,
      "metar": "METAR LPPS 240400Z 35015KT 9999 SCT014 SCT030 16/14 Q1016",
      "taf": "TAF LPPS 232300Z 2400/2506 30015KT 9999 SCT015 SCT030"
    },
    {
      "icao": "LPPT",
      "alert": "OK",
      "vis_m": 9999,
      "fzfg": false,
      "metar_trigger": false,
      "taf_trigger": false,
      "metar": "METAR LPPT 240400Z 34007KT CAVOK 09/07 Q1009",
      "taf": "TAF LPPT 232300Z 2400/2506 VRB02KT 9999 FEW025"
    },
    {
      "icao": "LQBK",
      "alert": "OK",
      "vis_m": 1200,
      "fzfg": false,
      "metar_trigger": false,
      "taf_trigger": false,
      "metar": "METAR LQBK 240400Z 36004KT 1200 R16/1900D RA BR OVC003 04/04 Q1015 NOSIG",
      "taf": ""
    },
    {
      "icao": "LQSA",
      "alert": "OK",
      "vis_m": 3000,
      "fzfg": false,
      "metar_trigger": false,
      "taf_trigger": false,
      "metar": "METAR LQSA 240400Z 00000KT 3000 RA BR BKN004 OVC040 01/01 Q1012",
      "taf": "TAF LQSA 232300Z 2400/2424 VRB02KT 8000 FEW015 BKN045 TX05/2413Z TNM01/2424Z"
    },
    {
      "icao": "LQTZ",
      "alert": "OK",
      "vis_m": 750,
      "fzfg": false,
      "metar_trigger": false,
      "taf_trigger": false,
      "metar": "METAR LQTZ 240400Z VRB01KT 0750 R09/0800D -RA FG OVC003 03/03 Q1014",
      "taf": "TAF LQTZ 232300Z 2400/2424 10005KT 4000 -RA BR BKN010 OVC020 TX04/2413Z TN01/2406Z"
    },
    {
      "icao": "LRBC",
      "alert": "OK",
      "vis_m": 9999,
      "fzfg": false,
      "metar_trigger": false,
      "taf_trigger": false,
      "metar": "METAR LRBC 240400Z 13004KT 9999 DZ OVC005 02/02 Q1023",
      "taf": "TAF LRBC 240200Z 2403/2412 VRB04KT 5000 BR BKN005 OVC025"
    },
    {
      "icao": "LRBS",
      "alert": "OK",
      "vis_m": 1500,
      "fzfg": false,
      "metar_trigger": false,
      "taf_trigger": false,
      "metar": "METAR LRBS 240400Z 05010KT 020V080 1500 -DZ BR OVC002 03/03 Q1021 NOSIG",
      "taf": "TAF LRBS 232300Z 2400/2424 08006KT 3000 BR BKN002"
    },
    {
      "icao": "LRBV",
      "alert": "OK",
      "vis_m": 7000,
      "fzfg": false,
      "metar_trigger": false,
      "taf_trigger": false,
      "metar": "METAR LRBV 240400Z AUTO 16004KT 130V190 7000 SCT160/// M02/M03 Q1018",
      "taf": "TAF LRBV 240200Z 2403/2412 VRB04KT 5000 BR OVC002"
    },
    {
      "icao": "LRCL",
      "alert": "OK",
      "vis_m": 8000,
      "fzfg": false,
      "metar_trigger": false,
      "taf_trigger": false,
      "metar": "METAR LRCL 240400Z 10006KT 8000 OVC003 M01/M02 Q1019",
      "taf": "TAF LRCL 240200Z 2403/2412 VRB04KT 5000 BR OVC003"
    },
    {
      "icao": "LRCV",
      "alert": "OK",
      "vis_m": 1500,
      "fzfg": false,
      "metar_trigger": false,
      "taf_trigger": false,
      "metar": "METAR LRCV 240400Z 07010KT 1500 BR OVC002 03/03 Q1019",
      "taf": "TAF LRCV 240200Z 2403/2412 11010KT 3000 BR OVC003"
    },
    {
      "icao": "LRIA",
      "alert": "OK",
      "vis_m": 5000,
      "fzfg": false,
      "metar_trigger": false,
      "taf_trigger": false,
      "metar": "METAR LRIA 240400Z 07005KT 330V110 5000 -DZSG BKN003 OVC010 00/00 Q1025",
      "taf": "TAF LRIA 240200Z 2403/2412 10008KT 5000 -SN BKN005 OVC025"
    },
    {
      "icao": "LROP",
      "alert": "OK",
      "vis_m": 2500,
      "fzfg": false,
      "metar_trigger": false,
      "taf_trigger": false,
      "metar": "METAR LROP 240400Z 07012KT 2500 -DZ BR SCT001 OVC002 03/03 Q1021 NOSIG",
      "taf": "TAF LROP 232300Z 2400/2424 08006KT 3000 BR BKN002"
    },
    {
      "icao": "LRSB",
      "alert": "OK",
      "vis_m": 1500,
      "fzfg": false,
      "metar_trigger": false,
      "taf_trigger": false,
      "metar": "METAR LRSB 240400Z VRB01KT 1500 BR BKN001 OVC003 M01/M01 Q1018",
      "taf": "TAF LRSB 232300Z 2400/2424 VRB04KT 3000 BR OVC003"
    },
    {
      "icao": "LRSM",
      "alert": "OK",
      "vis_m": 9000,
      "fzfg": false,
      "metar_trigger": false,
      "taf_trigger": false,
      "metar": "METAR LRSM 240400Z AUTO 07005KT 9000 OVC065/// 03/01 Q1019",
      "taf": "TAF LRSM 240200Z 2403/2412 VRB04KT 9999 BKN045"
    },
    {
      "icao": "LRSV",
      "alert": "OK",
      "vis_m": 1000,
      "fzfg": true,
      "metar_trigger": false,
      "taf_trigger": false,
      "metar": "METAR LRSV 240400Z 07007KT 1000 R34/P2000 -SN BR OVC002 M01/M01 Q1023",
      "taf": "TAF LRSV 240200Z 2403/2412 05008KT 0600 -SN FZFG OVC001"
    },
    {
      "icao": "LRTM",
      "alert": "OK",
      "vis_m": 9000,
      "fzfg": false,
      "metar_trigger": false,
      "taf_trigger": false,
      "metar": "METAR LRTM 240400Z AUTO 05003KT 9000 BKN004/// M00/M01 Q1019",
      "taf": "TAF LRTM 240200Z 2403/2412 VRB04KT 3000 BR OVC003"
    },
    {
      "icao": "LRTR",
      "alert": "OK",
      "vis_m": 9999,
      "fzfg": false,
      "metar_trigger": false,
      "taf_trigger": false,
      "metar": "METAR LRTR 240400Z 06006KT 9999 OVC040 03/01 Q1016",
      "taf": "TAF LRTR 232300Z 2400/2424 08006KT 9999 BKN040"
    },
    {
      "icao": "LTAC",
      "alert": "OK",
      "vis_m": 7000,
      "fzfg": false,
      "metar_trigger": false,
      "taf_trigger": false,
      "metar": "METAR LTAC 240350Z 00000KT 7000 FEW020 BKN040 04/03 Q1019 NOSIG RMK RWY21C 21002KT RWY03L 00000KT RWY21R 22002KT RWY03R 09002KT RWY21L 18001KT",
      "taf": "TAF LTAC 232240Z 2400/2424 VRB02KT 2500 BR FEW010 SCT030 BKN080"
    },
    {
      "icao": "LTFM",
      "alert": "OK",
      "vis_m": 9999,
      "fzfg": false,
      "metar_trigger": false,
      "taf_trigger": false,
      "metar": "METAR LTFM 240350Z 03007KT 9999 BKN009 BKN020 10/09 Q1019 NOSIG RMK RWY17L 04008KT RWY34L 04008KT RWY16R 04007KT RWY36 04007KT RWY18 03007KT",
      "taf": "TAF LTFM 232240Z 2400/2506 VRB02KT 9999 SCT010 BKN022"
    },
    {
      "icao": "LUKK",
      "alert": "OK",
      "vis_m": 9999,
      "fzfg": false,
      "metar_trigger": false,
      "taf_trigger": false,
      "metar": "METAR LUKK 240400Z 07008KT 9999 -SN OVC043 01/M01 Q1025 NOSIG",
      "taf": "TAF LUKK 232309Z 2400/2424 VRB05KT 9999 BKN020"
    },
    {
      "icao": "LWOH",
      "alert": "OK",
      "vis_m": null,
      "fzfg": false,
      "metar_trigger": false,
      "taf_trigger": false,
      "metar": "",
      "taf": "TAF LWOH 240220Z 2403/2503 VRB02KT 9999 FEW020 OVC040"
    },
    {
      "icao": "LWSK",
      "alert": "OK",
      "vis_m": 2500,
      "fzfg": false,
      "metar_trigger": false,
      "taf_trigger": false,
      "metar": "METAR LWSK 240420Z VRB01KT 2500 -RA BR BKN008 OVC030 04/03 Q1015 NOSIG",
      "taf": "TAF LWSK 240220Z 2403/2503 VRB02KT 5000 BR BKN013 OVC033"
    },
    {
      "icao": "LYBE",
      "alert": "OK",
      "vis_m": 9999,
      "fzfg": false,
      "metar_trigger": false,
      "taf_trigger": false,
      "metar": "METAR LYBE 240400Z 10009KT 9999 BKN028 05/02 Q1015 NOSIG",
      "taf": "TAF LYBE 232300Z 2400/2424 08008KT 9999 SCT030 TX06/2413Z TN03/2405Z"
    },
    {
      "icao": "LYNI",
      "alert": "OK",
      "vis_m": 9999,
      "fzfg": false,
      "metar_trigger": false,
      "taf_trigger": false,
      "metar": "METAR LYNI 240400Z 09009KT 9999 -RA BKN040 06/04 Q1014 NOSIG",
      "taf": "TAF LYNI 232300Z 2400/2424 16004KT 8000 SCT040 BKN080 TX07/2412Z TN02/2400Z"
    },
    {
      "icao": "LYPG",
      "alert": "OK",
      "vis_m": 3500,
      "fzfg": false,
      "metar_trigger": false,
      "taf_trigger": false,
      "metar": "METAR LYPG 240400Z VRB01KT 3500 BR FEW013 SCT043 OVC070 06/06 Q1012 NOSIG",
      "taf": "TAF LYPG 232300Z 2400/2424 VRB02KT 3000 -RA BR SCT040 OVC070 TX11/2413Z TN05/2401Z"
    },
    {
      "icao": "LZIB",
      "alert": "OK",
      "vis_m": 9999,
      "fzfg": false,
      "metar_trigger": false,
      "taf_trigger": false,
      "metar": "METAR LZIB 240400Z 02010KT 9999 -RA FEW009 BKN020 03/01 Q1019 NOSIG",
      "taf": "TAF LZIB 232315Z 2400/2500 04009KT 7000 -RA FEW004 SCT006 OVC014"
    },
    {
      "icao": "LZKZ",
      "alert": "OK",
      "vis_m": 9999,
      "fzfg": false,
      "metar_trigger": false,
      "taf_trigger": false,
      "metar": "METAR LZKZ 240400Z 36018KT CAVOK 02/M03 Q1021 NOSIG",
      "taf": "TAF LZKZ 232315Z 2400/2500 01018KT 9999 SCT030 BKN045"
    },
    {
      "icao": "LZTT",
      "alert": "OK",
      "vis_m": 9999,
      "fzfg": false,
      "metar_trigger": false,
      "taf_trigger": false,
      "metar": "METAR LZTT 240400Z 06013KT 9999 -SN BKN018 M03/M05 Q1021",
      "taf": ""
    },
    {
      "icao": "OEJN",
      "alert": "OK",
      "vis_m": 9999,
      "fzfg": false,
      "metar_trigger": false,
      "taf_trigger": false,
      "metar": "METAR OEJN 240400Z 35003KT CAVOK 24/21 Q1014 NOSIG",
      "taf": "TAF OEJN 232300Z 2400/2506 VRB03KT 8000 SCT040"
    },
    {
      "icao": "OEMA",
      "alert": "OK",
      "vis_m": 7000,
      "fzfg": false,
      "metar_trigger": false,
      "taf_trigger": false,
      "metar": "METAR OEMA 240400Z VRB02KT 7000 NSC 19/13 Q1018 NOSIG",
      "taf": "TAF OEMA 232300Z 2400/2506 VRB03KT 7000 FEW030"
    },
    {
      "icao": "OJAI",
      "alert": "OK",
      "vis_m": 4000,
      "fzfg": false,
      "metar_trigger": false,
      "taf_trigger": false,
      "metar": "METAR OJAI 240400Z 00000KT 4000 BR NSC 05/04 Q1021 NOSIG",
      "taf": "TAF OJAI 232254Z 2400/2506 25010KT 5000 HZ NSC"
    },
    {
      "icao": "OMAA",
      "alert": "OK",
      "vis_m": 9999,
      "fzfg": false,
      "metar_trigger": false,
      "taf_trigger": false,
      "metar": "METAR OMAA 240400Z 36002KT CAVOK 17/11 Q1018 NOSIG",
      "taf": "TAF OMAA 232300Z 2400/2506 VRB02KT 8000 NSC"
    },
    {
      "icao": "OMDB",
      "alert": "OK",
      "vis_m": 9999,
      "fzfg": false,
      "metar_trigger": false,
      "taf_trigger": false,
      "metar": "METAR OMDB 240400Z 08006KT 040V120 CAVOK 18/10 Q1018 NOSIG",
      "taf": "TAF OMDB 232300Z 2400/2506 10005KT 8000 NSC"
    },
    {
      "icao": "UAAA",
      "alert": "OK",
      "vis_m": 800,
      "fzfg": true,
      "metar_trigger": false,
      "taf_trigger": false,
      "metar": "SPECI UAAA 240420Z VRB01MPS 0800 R05R/0800 FZFG VV003 M05/M06 Q1027 TEMPO 0600 FZFG VV002 RMK QBB110",
      "taf": ""
    },
    {
      "icao": "UBBB",
      "alert": "OK",
      "vis_m": 9999,
      "fzfg": false,
      "metar_trigger": false,
      "taf_trigger": false,
      "metar": "METAR UBBB 240400Z 26004KT 9999 OVC023 08/06 Q1020 NOSIG",
      "taf": "TAF UBBB 232303Z 2400/2424 VRB04KT 9999 BKN030 TX10/2410Z TN05/2401Z"
    },
    {
      "icao": "UDSG",
      "alert": "OK",
      "vis_m": 7000,
      "fzfg": false,
      "metar_trigger": false,
      "taf_trigger": false,
      "metar": "METAR UDSG 240400Z 02002KT 7000 NSC M09/M09 Q1021 NOSIG",
      "taf": "TAF UDSG 232300Z 2400/2424 VRB06KT 9999 FEW050"
    },
    {
      "icao": "UDYZ",
      "alert": "OK",
      "vis_m": 2700,
      "fzfg": false,
      "metar_trigger": false,
      "taf_trigger": false,
      "metar": "METAR UDYZ 240400Z 35002KT 2700 BR NSC M05/M07 Q1022 NOSIG",
      "taf": "TAF UDYZ 232300Z 2400/2424 VRB04KT 2300 BR NSC"
    },
    {
      "icao": "UGKO",
      "alert": "OK",
      "vis_m": 9999,
      "fzfg": false,
      "metar_trigger": false,
      "taf_trigger": false,
      "metar": "METAR UGKO 240400Z 33004KT 260V060 9999 BKN080 05/02 Q1019 NOSIG",
      "taf": "TAF UGKO 232300Z 2400/2424 09007KT 9999 SCT022 BKN050 TX11/2411Z TN05/2403Z"
    }
  ]
}