{
  "ts_utc": "2026-02-01T21:12:38Z",
  "threshold_m": 150,
  "source": "stations_override.txt (ICAO list) + aviationweather.gov (METAR/TAF raw)",
  "station_count": 159,
  "stations": [
    {
      "icao": "BIKF",
      "alert": "OK",
      "vis_m": 9999,
      "fzfg": false,
      "metar_trigger": false,
      "taf_trigger": false,
      "metar": "METAR BIKF 012100Z 08015KT 9999 -RA SCT013 OVC023 04/02 Q0998",
      "taf": "TAF BIKF 011931Z 0121/0221 09014KT 9999 SCT025 BKN035 TX07/0215Z TN03/0203Z"
    },
    {
      "icao": "BKPR",
      "alert": "OK",
      "vis_m": 9999,
      "fzfg": false,
      "metar_trigger": false,
      "taf_trigger": false,
      "metar": "METAR BKPR 012100Z 01017KT 9999 -SN SCT015 BKN025 M02/M03 Q1006 NOSIG",
      "taf": "TAF BKPR 011730Z 0118/0218 01008KT 9999 SCT015 BKN030"
    },
    {
      "icao": "EBCI",
      "alert": "OK",
      "vis_m": 9999,
      "fzfg": false,
      "metar_trigger": false,
      "taf_trigger": false,
      "metar": "METAR EBCI 012050Z 11006KT 9999 -RA BKN030 06/05 Q1001 NOSIG",
      "taf": "TAF EBCI 011700Z 0118/0224 14008KT 9999 SCT015 BKN020"
    },
    {
      "icao": "EDDB",
      "alert": "OK",
      "vis_m": 9999,
      "fzfg": false,
      "metar_trigger": false,
      "taf_trigger": false,
      "metar": "METAR EDDB 012050Z AUTO 10010KT 9999 OVC040 M06/M10 Q1014 NOSIG",
      "taf": "TAF EDDB 011700Z 0118/0218 08012KT 9999 OVC030"
    },
    {
      "icao": "EDDH",
      "alert": "OK",
      "vis_m": 9999,
      "fzfg": false,
      "metar_trigger": false,
      "taf_trigger": false,
      "metar": "METAR EDDH 012050Z AUTO 11011KT 080V140 9999 OVC016 M06/M09 Q1013 TEMPO BKN015",
      "taf": "TAF EDDH 011700Z 0118/0224 10012KT 9999 OVC020"
    },
    {
      "icao": "EDDK",
      "alert": "OK",
      "vis_m": 9999,
      "fzfg": false,
      "metar_trigger": false,
      "taf_trigger": false,
      "metar": "METAR EDDK 012050Z AUTO 13009KT 100V160 9999 SCT037 SCT046 05/03 Q1005 NOSIG",
      "taf": "TAF EDDK 011700Z 0118/0224 11009KT 9999 BKN035"
    },
    {
      "icao": "EDDN",
      "alert": "OK",
      "vis_m": 9999,
      "fzfg": false,
      "metar_trigger": false,
      "taf_trigger": false,
      "metar": "METAR EDDN 012050Z AUTO 13006KT CAVOK 01/M01 Q1008 NOSIG",
      "taf": "TAF EDDN 011700Z 0118/0218 11007KT 9999 FEW020 BKN045"
    },
    {
      "icao": "EDDS",
      "alert": "OK",
      "vis_m": 6000,
      "fzfg": false,
      "metar_trigger": false,
      "taf_trigger": false,
      "metar": "METAR EDDS 012050Z AUTO VRB01KT 6000 NSC M01/M02 Q1006 NOSIG",
      "taf": "TAF EDDS 011700Z 0118/0218 VRB03KT CAVOK"
    },
    {
      "icao": "EDFH",
      "alert": "OK",
      "vis_m": 300,
      "fzfg": false,
      "metar_trigger": false,
      "taf_trigger": false,
      "metar": "METAR EDFH 012050Z 13009KT 100V170 0300 R21/0400N FG VV/// 03/03 Q1004",
      "taf": "TAF EDFH 011700Z 0118/0218 14012KT 0300 FG VV001"
    },
    {
      "icao": "EDJA",
      "alert": "OK",
      "vis_m": 6000,
      "fzfg": false,
      "metar_trigger": false,
      "taf_trigger": false,
      "metar": "METAR EDJA 012050Z 03005KT 6000 NSC M01/M02 Q1006",
      "taf": "TAF EDJA 011700Z 0118/0203 07004KT 9999 FEW060"
    },
    {
      "icao": "EDLW",
      "alert": "OK",
      "vis_m": 9999,
      "fzfg": false,
      "metar_trigger": false,
      "taf_trigger": false,
      "metar": "METAR EDLW 012050Z 14008KT CAVOK 05/02 Q1005",
      "taf": "TAF EDLW 011700Z 0118/0218 14006KT 9999 BKN025"
    },
    {
      "icao": "EDNY",
      "alert": "OK",
      "vis_m": 3200,
      "fzfg": false,
      "metar_trigger": false,
      "taf_trigger": false,
      "metar": "METAR EDNY 012020Z 04006KT 3200 BR BKN002 00/M00 Q1006",
      "taf": "TAF EDNY 011700Z 0118/0203 03003KT CAVOK"
    },
    {
      "icao": "EDSB",
      "alert": "OK",
      "vis_m": 4000,
      "fzfg": false,
      "metar_trigger": false,
      "taf_trigger": false,
      "metar": "METAR EDSB 012050Z VRB02KT 4000 BR BCFG FEW004 02/02 Q1005",
      "taf": "TAF EDSB 011700Z 0118/0218 VRB03KT CAVOK"
    },
    {
      "icao": "EETN",
      "alert": "OK",
      "vis_m": 9999,
      "fzfg": false,
      "metar_trigger": false,
      "taf_trigger": false,
      "metar": "METAR EETN 012050Z 00000KT CAVOK M22/M24 Q1031 NOSIG",
      "taf": "TAF EETN 011730Z 0118/0218 09006KT CAVOK"
    },
    {
      "icao": "EFTU",
      "alert": "OK",
      "vis_m": 9999,
      "fzfg": false,
      "metar_trigger": false,
      "taf_trigger": false,
      "metar": "METAR EFTU 012050Z AUTO 08003KT CAVOK M21/M23 Q1032",
      "taf": ""
    },
    {
      "icao": "EGBB",
      "alert": "OK",
      "vis_m": 3100,
      "fzfg": false,
      "metar_trigger": false,
      "taf_trigger": false,
      "metar": "METAR EGBB 012050Z 05005KT 3100 -DZ BR OVC003 07/06 Q0999",
      "taf": "TAF EGBB 011657Z 0118/0218 06004KT 9999 SCT020"
    },
    {
      "icao": "EGGP",
      "alert": "OK",
      "vis_m": 9000,
      "fzfg": false,
      "metar_trigger": false,
      "taf_trigger": false,
      "metar": "METAR EGGP 012050Z 30004KT 9000 SCT005 BKN009 OVC015 06/05 Q1000",
      "taf": ""
    },
    {
      "icao": "EGGW",
      "alert": "OK",
      "vis_m": 5000,
      "fzfg": false,
      "metar_trigger": false,
      "taf_trigger": false,
      "metar": "METAR EGGW 012050Z AUTO 10004KT 5000 -DZ BKN003 OVC010 07/06 Q0999",
      "taf": ""
    },
    {
      "icao": "EGKK",
      "alert": "OK",
      "vis_m": 5000,
      "fzfg": false,
      "metar_trigger": false,
      "taf_trigger": false,
      "metar": "METAR EGKK 012050Z 05010KT 5000 -RA BKN006 BKN013 08/08 Q0998",
      "taf": "TAF EGKK 011656Z 0118/0224 08005KT 9999 BKN020"
    },
    {
      "icao": "EGNM",
      "alert": "OK",
      "vis_m": 8000,
      "fzfg": false,
      "metar_trigger": false,
      "taf_trigger": false,
      "metar": "METAR EGNM 012050Z VRB02KT 8000 OVC009 05/04 Q1001",
      "taf": "TAF EGNM 011657Z 0118/0218 10004KT 9999 BKN012"
    },
    {
      "icao": "EGPD",
      "alert": "OK",
      "vis_m": 8000,
      "fzfg": false,
      "metar_trigger": false,
      "taf_trigger": false,
      "metar": "METAR EGPD 012050Z AUTO 10005KT 060V130 8000 -RA BKN004/// OVC013/// //////CB 07/06 Q1001 TEMPO 4000 RADZ",
      "taf": "TAF EGPD 011654Z 0118/0218 12003KT 9999 SCT012 BKN020"
    },
    {
      "icao": "EGPF",
      "alert": "OK",
      "vis_m": 4700,
      "fzfg": false,
      "metar_trigger": false,
      "taf_trigger": false,
      "metar": "METAR EGPF 012050Z AUTO 07004KT 4700 -DZ SCT005 SCT008 BKN011 06/06 Q1001",
      "taf": ""
    },
    {
      "icao": "EHBK",
      "alert": "OK",
      "vis_m": 9999,
      "fzfg": false,
      "metar_trigger": false,
      "taf_trigger": false,
      "metar": "METAR EHBK 012055Z AUTO 12007KT 9999 NSC 06/04 Q1003 NOSIG",
      "taf": "TAF EHBK 011716Z 0118/0224 14005KT CAVOK"
    },
    {
      "icao": "EHEH",
      "alert": "OK",
      "vis_m": null,
      "fzfg": false,
      "metar_trigger": false,
      "taf_trigger": false,
      "metar": "",
      "taf": "TAF EHEH 011752Z 0118/0224 14008KT 9999 BKN040"
    },
    {
      "icao": "EKBI",
      "alert": "OK",
      "vis_m": 9999,
      "fzfg": false,
      "metar_trigger": false,
      "taf_trigger": false,
      "metar": "METAR EKBI 012050Z AUTO 10017G27KT 9999 FEW025/// OVC039/// M04/M09 Q1015",
      "taf": "TAF EKBI 012027Z 0121/0221 10018KT 9999 BKN020"
    },
    {
      "icao": "EKCH",
      "alert": "OK",
      "vis_m": 9999,
      "fzfg": false,
      "metar_trigger": false,
      "taf_trigger": false,
      "metar": "METAR EKCH 012050Z 10016KT 9999 FEW034 M04/M11 Q1020 NOSIG",
      "taf": "TAF EKCH 012027Z 0121/0221 10020KT 9999 SCT030"
    },
    {
      "icao": "ENAL",
      "alert": "OK",
      "vis_m": 9999,
      "fzfg": false,
      "metar_trigger": false,
      "taf_trigger": false,
      "metar": "METAR ENAL 012050Z 14011KT CAVOK M01/M10 Q1017",
      "taf": "TAF ENAL 012000Z 0121/0206 13008KT CAVOK"
    },
    {
      "icao": "ENBR",
      "alert": "OK",
      "vis_m": 9999,
      "fzfg": false,
      "metar_trigger": false,
      "taf_trigger": false,
      "metar": "METAR ENBR 012050Z 06003KT CAVOK M04/M13 Q1016 RMK WIND 1200FT 14005KT",
      "taf": "TAF ENBR 011700Z 0118/0218 09005KT CAVOK"
    },
    {
      "icao": "ENGM",
      "alert": "OK",
      "vis_m": 9999,
      "fzfg": false,
      "metar_trigger": false,
      "taf_trigger": false,
      "metar": "METAR ENGM 012050Z 00000KT 9999 -SHSN SCT021 OVC039 M07/M10 Q1024 NOSIG",
      "taf": "TAF ENGM 011700Z 0118/0218 08005KT 9999 -SN BKN030"
    },
    {
      "icao": "ENHD",
      "alert": "OK",
      "vis_m": 9999,
      "fzfg": false,
      "metar_trigger": false,
      "taf_trigger": false,
      "metar": "METAR ENHD 012050Z 09011KT CAVOK M01/M11 Q1016",
      "taf": "TAF ENHD 011400Z 0115/0123 11018KT CAVOK"
    },
    {
      "icao": "ENTC",
      "alert": "OK",
      "vis_m": 9999,
      "fzfg": false,
      "metar_trigger": false,
      "taf_trigger": false,
      "metar": "METAR ENTC 012050Z 19018KT 9999 -SHSN BKN032 M02/M05 Q1016 NOSIG RMK WIND 2600FT 19013KT",
      "taf": "TAF ENTC 011700Z 0118/0218 20020KT 9999 -SHSN FEW025 BKN040"
    },
    {
      "icao": "ENTO",
      "alert": "OK",
      "vis_m": 9999,
      "fzfg": false,
      "metar_trigger": false,
      "taf_trigger": false,
      "metar": "METAR ENTO 012050Z 11006KT 070V150 9999 OVC038 M04/M10 Q1023 NOSIG",
      "taf": "TAF ENTO 011700Z 0118/0218 09005KT 9999 BKN030"
    },
    {
      "icao": "ENVA",
      "alert": "OK",
      "vis_m": 9999,
      "fzfg": false,
      "metar_trigger": false,
      "taf_trigger": false,
      "metar": "METAR ENVA 012050Z 10007KT CAVOK M05/M13 Q1021 RMK WIND 670FT 14010KT",
      "taf": "TAF ENVA 011700Z 0118/0218 12008KT CAVOK"
    },
    {
      "icao": "ENZV",
      "alert": "OK",
      "vis_m": 9999,
      "fzfg": false,
      "metar_trigger": false,
      "taf_trigger": false,
      "metar": "METAR ENZV 012050Z 09008KT 9999 FEW044 M01/M11 Q1016 NOSIG",
      "taf": "TAF ENZV 011700Z 0118/0218 10008KT 9999 SCT040"
    },
    {
      "icao": "EPGD",
      "alert": "OK",
      "vis_m": 9999,
      "fzfg": false,
      "metar_trigger": false,
      "taf_trigger": false,
      "metar": "METAR EPGD 012100Z 11010KT CAVOK M17/M20 Q1023",
      "taf": "TAF EPGD 011730Z 0118/0218 10006KT CAVOK"
    },
    {
      "icao": "EPKK",
      "alert": "OK",
      "vis_m": 9999,
      "fzfg": false,
      "metar_trigger": false,
      "taf_trigger": false,
      "metar": "METAR EPKK 012100Z 06010KT 9999 BKN017 OVC023 M09/M13 Q1015",
      "taf": "TAF EPKK 012030Z 0121/0221 07011KT 9999 -SN SCT007 OVC013"
    },
    {
      "icao": "EPKT",
      "alert": "OK",
      "vis_m": 9999,
      "fzfg": false,
      "metar_trigger": false,
      "taf_trigger": false,
      "metar": "METAR EPKT 012100Z 08009KT 9999 OVC014 M10/M14 Q1014",
      "taf": ""
    },
    {
      "icao": "EPLB",
      "alert": "OK",
      "vis_m": 9999,
      "fzfg": false,
      "metar_trigger": false,
      "taf_trigger": false,
      "metar": "METAR EPLB 012100Z 08008KT CAVOK M18/M20 Q1021",
      "taf": "TAF EPLB 011730Z 0118/0218 08008KT CAVOK"
    },
    {
      "icao": "EPMO",
      "alert": "OK",
      "vis_m": 9999,
      "fzfg": false,
      "metar_trigger": false,
      "taf_trigger": false,
      "metar": "METAR EPMO 012100Z 07011KT CAVOK M17/M19 Q1022",
      "taf": "TAF EPMO 011730Z 0118/0218 08010KT CAVOK"
    },
    {
      "icao": "EPPO",
      "alert": "OK",
      "vis_m": 9999,
      "fzfg": false,
      "metar_trigger": false,
      "taf_trigger": false,
      "metar": "METAR EPPO 012100Z 10010KT 9999 SCT020 M12/M17 Q1018",
      "taf": "TAF EPPO 011730Z 0118/0218 09012KT CAVOK"
    },
    {
      "icao": "EPRA",
      "alert": "OK",
      "vis_m": 9999,
      "fzfg": false,
      "metar_trigger": false,
      "taf_trigger": false,
      "metar": "METAR EPRA 012100Z 07008KT CAVOK M17/M20 Q1019",
      "taf": "TAF EPRA 012030Z 0121/0206 08010KT CAVOK"
    },
    {
      "icao": "EPRZ",
      "alert": "OK",
      "vis_m": 9999,
      "fzfg": false,
      "metar_trigger": false,
      "taf_trigger": false,
      "metar": "METAR EPRZ 012100Z 06011KT 9999 BKN043 M13/M18 Q1017",
      "taf": "TAF EPRZ 011730Z 0118/0218 07012KT 9999 BKN030"
    },
    {
      "icao": "EPSC",
      "alert": "OK",
      "vis_m": 9999,
      "fzfg": false,
      "metar_trigger": false,
      "taf_trigger": false,
      "metar": "METAR EPSC 012100Z 09013KT CAVOK M11/M16 Q1018",
      "taf": "TAF EPSC 011730Z 0118/0218 09011KT CAVOK"
    },
    {
      "icao": "EPSY",
      "alert": "OK",
      "vis_m": 9999,
      "fzfg": false,
      "metar_trigger": false,
      "taf_trigger": false,
      "metar": "METAR EPSY 012100Z 07003KT 030V110 CAVOK M18/M20 Q1024",
      "taf": "TAF EPSY 012030Z 0121/0206 07005KT CAVOK"
    },
    {
      "icao": "EPWA",
      "alert": "OK",
      "vis_m": 9999,
      "fzfg": false,
      "metar_trigger": false,
      "taf_trigger": false,
      "metar": "METAR EPWA 012100Z 08009KT CAVOK M14/M18 Q1021 NOSIG",
      "taf": "TAF EPWA 012030Z 0121/0221 09008KT CAVOK"
    },
    {
      "icao": "EPWR",
      "alert": "OK",
      "vis_m": 9999,
      "fzfg": false,
      "metar_trigger": false,
      "taf_trigger": false,
      "metar": "METAR EPWR 012100Z 09009KT 9999 BKN022 M08/M14 Q1016",
      "taf": "TAF EPWR 012030Z 0121/0221 10010KT 9999 BKN025"
    },
    {
      "icao": "ESGG",
      "alert": "OK",
      "vis_m": 9999,
      "fzfg": false,
      "metar_trigger": false,
      "taf_trigger": false,
      "metar": "METAR ESGG 012050Z 12009KT 9999 FEW028 M07/M12 Q1021",
      "taf": "TAF ESGG 012030Z 0121/0221 11006KT 9999 SCT025"
    },
    {
      "icao": "ESKN",
      "alert": "OK",
      "vis_m": 9999,
      "fzfg": false,
      "metar_trigger": false,
      "taf_trigger": false,
      "metar": "METAR ESKN 012050Z 13009KT 9999 SCT017 BKN026 M05/M11 Q1027",
      "taf": "TAF ESKN 012030Z 0121/0221 13010KT 8000 -SN BKN030"
    },
    {
      "icao": "ESMS",
      "alert": "OK",
      "vis_m": 9999,
      "fzfg": false,
      "metar_trigger": false,
      "taf_trigger": false,
      "metar": "METAR ESMS 012050Z 12014KT CAVOK M05/M13 Q1019",
      "taf": "TAF ESMS 012027Z 0121/0221 10015KT 9999 FEW030"
    },
    {
      "icao": "ESSA",
      "alert": "OK",
      "vis_m": 8000,
      "fzfg": false,
      "metar_trigger": false,
      "taf_trigger": false,
      "metar": "METAR ESSA 012050Z 08005KT 8000 -SN FEW008 SCT014 BKN031 M08/M10 Q1029 TEMPO 2000 BKN014",
      "taf": "TAF ESSA 012030Z 0121/0221 09006KT 9999 SCT030"
    },
    {
      "icao": "EYKA",
      "alert": "OK",
      "vis_m": 4700,
      "fzfg": false,
      "metar_trigger": false,
      "taf_trigger": false,
      "metar": "METAR EYKA 012050Z VRB01KT 4700 BR NSC M22/M24 Q1027",
      "taf": "TAF EYKA 011700Z 0118/0218 VRB05KT 5000 BR NSC"
    },
    {
      "icao": "EYPA",
      "alert": "OK",
      "vis_m": 9999,
      "fzfg": false,
      "metar_trigger": false,
      "taf_trigger": false,
      "metar": "METAR EYPA 012050Z 10004KT 070V140 CAVOK M19/M25 Q1028",
      "taf": "TAF EYPA 011700Z 0118/0218 08008KT CAVOK"
    },
    {
      "icao": "EYVI",
      "alert": "OK",
      "vis_m": 9999,
      "fzfg": false,
      "metar_trigger": false,
      "taf_trigger": false,
      "metar": "METAR EYVI 012050Z 01004KT CAVOK M22/M24 Q1024 NOSIG",
      "taf": "TAF EYVI 011700Z 0118/0218 VRB05KT 5000 BR SCT005"
    },
    {
      "icao": "GCFV",
      "alert": "OK",
      "vis_m": 9999,
      "fzfg": false,
      "metar_trigger": false,
      "taf_trigger": false,
      "metar": "METAR GCFV 012100Z VRB01KT 9999 FEW020 17/13 Q1017",
      "taf": "TAF GCFV 012000Z 0121/0221 30005KT 9999 FEW020 TX22/0214Z TN14/0206Z"
    },
    {
      "icao": "GCLP",
      "alert": "OK",
      "vis_m": 9999,
      "fzfg": false,
      "metar_trigger": false,
      "taf_trigger": false,
      "metar": "METAR GCLP 012100Z 36006KT 320V020 CAVOK 17/12 Q1017 NOSIG",
      "taf": "TAF GCLP 012000Z 0121/0221 35008KT 9999 FEW020 TX23/0214Z TN15/0206Z"
    },
    {
      "icao": "GCTS",
      "alert": "OK",
      "vis_m": 9999,
      "fzfg": false,
      "metar_trigger": false,
      "taf_trigger": false,
      "metar": "METAR GCTS 012100Z 09005KT 050V110 9999 BKN015 18/14 Q1018 NOSIG",
      "taf": "TAF GCTS 012000Z 0121/0221 15005KT 9999 SCT025 TX23/0214Z TN15/0206Z"
    },
    {
      "icao": "GMAD",
      "alert": "OK",
      "vis_m": 6000,
      "fzfg": false,
      "metar_trigger": false,
      "taf_trigger": false,
      "metar": "METAR GMAD 012100Z 00000KT 6000 OVC005 15/15 Q1016 NOSIG",
      "taf": "TAF GMAD 011700Z 0118/0224 26008KT 5000 OVC013"
    },
    {
      "icao": "GMMN",
      "alert": "OK",
      "vis_m": 5000,
      "fzfg": false,
      "metar_trigger": false,
      "taf_trigger": false,
      "metar": "METAR GMMN 012100Z 20004KT 5000 SCT010 SCT200 11/10 Q1014 BECMG 4000 BR",
      "taf": "TAF GMMN 011700Z 0118/0224 36006KT CAVOK"
    },
    {
      "icao": "GMMX",
      "alert": "OK",
      "vis_m": 9999,
      "fzfg": false,
      "metar_trigger": false,
      "taf_trigger": false,
      "metar": "METAR GMMX 012100Z 23008KT 210V280 CAVOK 15/12 Q1015 NOSIG",
      "taf": "TAF GMMX 011700Z 0118/0224 26006KT 8000 SCT026 SCT080"
    },
    {
      "icao": "HEGN",
      "alert": "OK",
      "vis_m": 9999,
      "fzfg": false,
      "metar_trigger": false,
      "taf_trigger": false,
      "metar": "METAR HEGN 012000Z 00000KT CAVOK 21/15 Q1015 NOSIG",
      "taf": "TAF HEGN 011700Z 0118/0224 110008KT CAVOK"
    },
    {
      "icao": "HEMA",
      "alert": "OK",
      "vis_m": 9999,
      "fzfg": false,
      "metar_trigger": false,
      "taf_trigger": false,
      "metar": "METAR HEMA 012000Z 00000KT CAVOK 20/16 Q1015 NOSIG",
      "taf": "TAF HEMA 011700Z 0118/0224 10008KT CAVOK"
    },
    {
      "icao": "HESH",
      "alert": "OK",
      "vis_m": 9999,
      "fzfg": false,
      "metar_trigger": false,
      "taf_trigger": false,
      "metar": "METAR HESH 012000Z 16008KT CAVOK 23/15 Q1015 NOSIG",
      "taf": "TAF HESH 011700Z 0118/0224 10008KT CAVOK"
    },
    {
      "icao": "HESX",
      "alert": "OK",
      "vis_m": 9999,
      "fzfg": false,
      "metar_trigger": false,
      "taf_trigger": false,
      "metar": "METAR HESX 012000Z 18008KT CAVOK 20/M01 Q1012 NOSIG",
      "taf": "TAF HESX 011700Z 0118/0224 21014G25KT 8000 NSC"
    },
    {
      "icao": "LATI",
      "alert": "OK",
      "vis_m": 9999,
      "fzfg": false,
      "metar_trigger": false,
      "taf_trigger": false,
      "metar": "METAR LATI 012050Z VRB01KT 9999 BKN074 06/03 Q1002 NOSIG",
      "taf": "TAF LATI 011700Z 0118/0218 VRB05KT 9999 FEW040 BKN070 TX12/0212Z TN03/0204Z"
    },
    {
      "icao": "LBPD",
      "alert": "OK",
      "vis_m": 6000,
      "fzfg": false,
      "metar_trigger": false,
      "taf_trigger": false,
      "metar": "METAR LBPD 012100Z AUTO 14007KT 070V170 6000 -SN FEW027/// BKN035/// OVC042/// M00/M00 Q1009",
      "taf": "TAF LBPD 011700Z 0118/0218 12010KT 2000 SN SCT002 OVC005"
    },
    {
      "icao": "LBSF",
      "alert": "OK",
      "vis_m": 8000,
      "fzfg": false,
      "metar_trigger": false,
      "taf_trigger": false,
      "metar": "METAR LBSF 012100Z AUTO 12007KT 8000 1900W -SN FEW009/// OVC026/// M04/M04 Q1008 NOSIG",
      "taf": "TAF LBSF 011700Z 0118/0218 10010KT 2000 SN BKN005 OVC010"
    },
    {
      "icao": "LBWN",
      "alert": "OK",
      "vis_m": 3000,
      "fzfg": false,
      "metar_trigger": false,
      "taf_trigger": false,
      "metar": "METAR LBWN 012100Z AUTO 36007KT 300V070 3000 -SN SCT008/// OVC010/// M03/M03 Q1012 TEMPO 2000 SN BKN006",
      "taf": ""
    },
    {
      "icao": "LCLK",
      "alert": "OK",
      "vis_m": 8000,
      "fzfg": false,
      "metar_trigger": false,
      "taf_trigger": false,
      "metar": "METAR LCLK 012100Z 33005KT 290V350 8000 NSC 16/15 Q1011 TEMPO 5000 BR",
      "taf": "TAF LCLK 011730Z 0118/0218 12008KT 7000 BR DU FEW015"
    },
    {
      "icao": "LCPH",
      "alert": "OK",
      "vis_m": 6000,
      "fzfg": false,
      "metar_trigger": false,
      "taf_trigger": false,
      "metar": "METAR LCPH 012100Z 09006KT 6000 FEW060 19/11 Q1010 TEMPO 5000 DU",
      "taf": ""
    },
    {
      "icao": "LEAL",
      "alert": "OK",
      "vis_m": 9999,
      "fzfg": false,
      "metar_trigger": false,
      "taf_trigger": false,
      "metar": "METAR LEAL 012100Z 28006KT CAVOK 12/08 Q1010 NOSIG",
      "taf": "TAF LEAL 011700Z 0118/0218 27012KT 9999 FEW030 TX19/0213Z TN07/0206Z"
    },
    {
      "icao": "LEBB",
      "alert": "OK",
      "vis_m": 9999,
      "fzfg": false,
      "metar_trigger": false,
      "taf_trigger": false,
      "metar": "METAR LEBB 012100Z 11006KT 080V140 CAVOK 12/08 Q1002 NOSIG",
      "taf": "TAF LEBB 011700Z 0118/0218 14009KT 9999 FEW050 TX16/0212Z TN10/0119Z"
    },
    {
      "icao": "LEBL",
      "alert": "OK",
      "vis_m": 9999,
      "fzfg": false,
      "metar_trigger": false,
      "taf_trigger": false,
      "metar": "METAR LEBL 012100Z 33003KT CAVOK 09/04 Q1008 NOSIG",
      "taf": "TAF LEBL 011700Z 0118/0218 22009KT CAVOK TX15/0212Z TN06/0206Z"
    },
    {
      "icao": "LECH",
      "alert": "OK",
      "vis_m": 9000,
      "fzfg": false,
      "metar_trigger": false,
      "taf_trigger": false,
      "metar": "METAR LECH 012100Z AUTO VRB02KT 9000 NCD 07/04 Q1008",
      "taf": ""
    },
    {
      "icao": "LEMD",
      "alert": "OK",
      "vis_m": 1500,
      "fzfg": false,
      "metar_trigger": false,
      "taf_trigger": false,
      "metar": "METAR LEMD 012100Z 35005KT 1500 BR -DZ BKN003 OVC007 07/07 Q1008 NOSIG",
      "taf": ""
    },
    {
      "icao": "LEMG",
      "alert": "OK",
      "vis_m": 9999,
      "fzfg": false,
      "metar_trigger": false,
      "taf_trigger": false,
      "metar": "METAR LEMG 012100Z VRB01KT CAVOK 13/11 Q1011 NOSIG",
      "taf": "TAF LEMG 011700Z 0118/0218 29004KT 9999 FEW030 TX15/0215Z TN09/0206Z"
    },
    {
      "icao": "LEVC",
      "alert": "OK",
      "vis_m": 9999,
      "fzfg": false,
      "metar_trigger": false,
      "taf_trigger": false,
      "metar": "METAR LEVC 012100Z 24005KT 200V270 CAVOK 12/08 Q1009 NOSIG",
      "taf": "TAF LEVC 011700Z 0118/0218 27015KT 9999 FEW030 TX18/0213Z TN10/0206Z"
    },
    {
      "icao": "LEXJ",
      "alert": "OK",
      "vis_m": 9999,
      "fzfg": false,
      "metar_trigger": false,
      "taf_trigger": false,
      "metar": "METAR LEXJ 012100Z 06002KT CAVOK 12/09 Q1001",
      "taf": "TAF LEXJ 012000Z 0121/0221 22009KT 9999 FEW040 SCT060 TX17/0212Z TN11/0121Z"
    },
    {
      "icao": "LEZG",
      "alert": "OK",
      "vis_m": 9999,
      "fzfg": false,
      "metar_trigger": false,
      "taf_trigger": false,
      "metar": "METAR LEZG 012100Z VRB01KT 9999 FEW080 11/07 Q1007 NOSIG",
      "taf": "TAF LEZG 011700Z 0118/0218 24007KT 9999 FEW050 TX13/0214Z TN07/0206Z"
    },
    {
      "icao": "LEZL",
      "alert": "OK",
      "vis_m": 9999,
      "fzfg": false,
      "metar_trigger": false,
      "taf_trigger": false,
      "metar": "METAR LEZL 012100Z 21009KT 160V240 9999 BKN010 SCT020 15/14 Q1011 NOSIG",
      "taf": "TAF LEZL 012000Z 0121/0221 18010KT 9999 BKN025 TX16/0215Z TN10/0207Z"
    },
    {
      "icao": "LFBD",
      "alert": "OK",
      "vis_m": 5000,
      "fzfg": false,
      "metar_trigger": false,
      "taf_trigger": false,
      "metar": "METAR LFBD 012100Z AUTO 18006KT 5000 BR SCT002 BKN022 BKN037 09/09 Q1004 TEMPO 0800 FG VV///",
      "taf": ""
    },
    {
      "icao": "LFLL",
      "alert": "OK",
      "vis_m": 9999,
      "fzfg": false,
      "metar_trigger": false,
      "taf_trigger": false,
      "metar": "METAR LFLL 012100Z 14008KT 9999 BKN050 07/05 Q1005 NOSIG",
      "taf": "TAF LFLL 011700Z 0118/0224 16005KT 9999 BKN050"
    },
    {
      "icao": "LFLS",
      "alert": "OK",
      "vis_m": 9999,
      "fzfg": false,
      "metar_trigger": false,
      "taf_trigger": false,
      "metar": "METAR LFLS 012100Z AUTO 07006KT 9999 OVC047 06/04 Q1005",
      "taf": "TAF LFLS 011400Z 0115/0215 09006KT CAVOK"
    },
    {
      "icao": "LFMN",
      "alert": "OK",
      "vis_m": 9999,
      "fzfg": false,
      "metar_trigger": false,
      "taf_trigger": false,
      "metar": "METAR LFMN 012100Z 32008KT 9999 FEW110 BKN230 09/06 Q1007 NOSIG",
      "taf": "TAF LFMN 012000Z 0121/0303 33010KT CAVOK"
    },
    {
      "icao": "LFOB",
      "alert": "OK",
      "vis_m": 9999,
      "fzfg": false,
      "metar_trigger": false,
      "taf_trigger": false,
      "metar": "METAR LFOB 012100Z AUTO 15006KT 9999 FEW019/// SCT024/// BKN037/// ///CB 07/07 Q0998 TEMPO 24010KT OVC006",
      "taf": ""
    },
    {
      "icao": "LFPO",
      "alert": "OK",
      "vis_m": 9999,
      "fzfg": false,
      "metar_trigger": false,
      "taf_trigger": false,
      "metar": "METAR LFPO 012100Z 19008KT 9999 BKN009 BKN070 08/07 Q0999 TEMPO -RA BKN012",
      "taf": "TAF LFPO 011700Z 0118/0224 18006KT 9999 BKN025"
    },
    {
      "icao": "LFSB",
      "alert": "OK",
      "vis_m": 9999,
      "fzfg": false,
      "metar_trigger": false,
      "taf_trigger": false,
      "metar": "METAR LFSB 012100Z AUTO 12008KT 9999 SCT052 SCT070 OVC130 04/02 Q1005 TEMPO SCT030TCU BKN040",
      "taf": ""
    },
    {
      "icao": "LGAV",
      "alert": "OK",
      "vis_m": 9999,
      "fzfg": false,
      "metar_trigger": false,
      "taf_trigger": false,
      "metar": "METAR LGAV 012050Z 01015KT 9999 FEW010 SCT025 BKN070 11/10 Q0999 NOSIG",
      "taf": "TAF LGAV 011700Z 0118/0218 20010KT 9999 SCT025 SCT070"
    },
    {
      "icao": "LGTS",
      "alert": "OK",
      "vis_m": 9999,
      "fzfg": false,
      "metar_trigger": false,
      "taf_trigger": false,
      "metar": "METAR LGTS 012050Z VRB02KT 9999 FEW010 BKN035 06/06 Q1004 NOSIG",
      "taf": "TAF LGTS 011700Z 0118/0218 34015KT 9999 SCT010 BKN025"
    },
    {
      "icao": "LHBP",
      "alert": "OK",
      "vis_m": 9999,
      "fzfg": false,
      "metar_trigger": false,
      "taf_trigger": false,
      "metar": "METAR LHBP 012100Z VRB02KT 9999 SCT012 OVC034 00/M02 Q1011 NOSIG",
      "taf": "TAF LHBP 011715Z 0118/0218 05005KT 9999 SCT020 BKN030"
    },
    {
      "icao": "LHDC",
      "alert": "OK",
      "vis_m": 9999,
      "fzfg": false,
      "metar_trigger": false,
      "taf_trigger": false,
      "metar": "METAR LHDC 012045Z AUTO 04008KT 9999 OVC022 00/M04 Q1011 NOSIG",
      "taf": "TAF LHDC 011715Z 0118/0203 03007KT 9999 SCT030 BKN070"
    },
    {
      "icao": "LIBD",
      "alert": "OK",
      "vis_m": 9999,
      "fzfg": false,
      "metar_trigger": false,
      "taf_trigger": false,
      "metar": "METAR LIBD 012050Z 28007KT CAVOK 08/05 Q1005",
      "taf": "TAF LIBD 011700Z 0118/0218 32010KT 9999 FEW030"
    },
    {
      "icao": "LIBG",
      "alert": "OK",
      "vis_m": null,
      "fzfg": false,
      "metar_trigger": false,
      "taf_trigger": false,
      "metar": "",
      "taf": "TAF LIBG 011700Z 0118/0203 34010KT 9999 FEW030"
    },
    {
      "icao": "LIBP",
      "alert": "OK",
      "vis_m": 9999,
      "fzfg": false,
      "metar_trigger": false,
      "taf_trigger": false,
      "metar": "METAR LIBP 012050Z 32007KT 290V350 9999 SCT060 08/02 Q1007",
      "taf": "TAF LIBP 011700Z 0118/0218 VRB05KT 9999 SCT050"
    },
    {
      "icao": "LIBR",
      "alert": "OK",
      "vis_m": 9000,
      "fzfg": false,
      "metar_trigger": false,
      "taf_trigger": false,
      "metar": "METAR LIBR 012050Z 31018KT 9000 FEW020 10/07 Q1003",
      "taf": "TAF LIBR 011700Z 0118/0218 32012KT 9999 SCT040"
    },
    {
      "icao": "LICA",
      "alert": "OK",
      "vis_m": 9999,
      "fzfg": false,
      "metar_trigger": false,
      "taf_trigger": false,
      "metar": "METAR LICA 012050Z 28015KT 9999 FEW020 SCT040 13/06 Q1005",
      "taf": "TAF LICA 011700Z 0118/0218 28015KT 9999 SCT020"
    },
    {
      "icao": "LICC",
      "alert": "OK",
      "vis_m": 9999,
      "fzfg": false,
      "metar_trigger": false,
      "taf_trigger": false,
      "metar": "METAR LICC 012050Z 27010KT 9999 FEW040 BKN100 10/07 Q1007",
      "taf": "TAF LICC 011700Z 0118/0218 28018G28KT 9999 SCT040"
    },
    {
      "icao": "LICJ",
      "alert": "OK",
      "vis_m": 9999,
      "fzfg": false,
      "metar_trigger": false,
      "taf_trigger": false,
      "metar": "METAR LICJ 012050Z 29016KT 9999 BKN030 14/08 Q1009",
      "taf": "TAF LICJ 011700Z 0118/0218 28015KT 9999 SCT030"
    },
    {
      "icao": "LIMC",
      "alert": "OK",
      "vis_m": 3000,
      "fzfg": false,
      "metar_trigger": false,
      "taf_trigger": false,
      "metar": "METAR LIMC 012050Z 03003KT 3000 BCFG BKN015 00/00 Q1008 BECMG 1200 BCFG",
      "taf": "TAF LIMC 011700Z 0118/0224 VRB05KT 3000 BR SCT010"
    },
    {
      "icao": "LIME",
      "alert": "OK",
      "vis_m": 8000,
      "fzfg": false,
      "metar_trigger": false,
      "taf_trigger": false,
      "metar": "METAR LIME 012050Z 31003KT 290V010 8000 SCT035 03/02 Q1008 NOSIG",
      "taf": "TAF LIME 011700Z 0118/0218 VRB05KT 7000 BKN030"
    },
    {
      "icao": "LIMF",
      "alert": "OK",
      "vis_m": 200,
      "fzfg": false,
      "metar_trigger": false,
      "taf_trigger": false,
      "metar": "METAR LIMF 012050Z VRB02KT 0200 R36/0700N FG VV002 03/02 Q1008",
      "taf": "TAF LIMF 011700Z 0118/0218 VRB04KT 0500 FG BKN002"
    },
    {
      "icao": "LIMJ",
      "alert": "OK",
      "vis_m": 9999,
      "fzfg": false,
      "metar_trigger": false,
      "taf_trigger": false,
      "metar": "METAR LIMJ 012050Z 05015KT 9999 FEW045 07/02 Q1007",
      "taf": "TAF LIMJ 011700Z 0118/0218 03006KT 9999 FEW040"
    },
    {
      "icao": "LIPE",
      "alert": "OK",
      "vis_m": 8000,
      "fzfg": false,
      "metar_trigger": false,
      "taf_trigger": false,
      "metar": "METAR LIPE 012050Z 19003KT 8000 NSC 03/01 Q1009",
      "taf": "TAF LIPE 011700Z 0118/0218 VRB05KT 8000 FEW030"
    },
    {
      "icao": "LIPH",
      "alert": "OK",
      "vis_m": 9999,
      "fzfg": false,
      "metar_trigger": false,
      "taf_trigger": false,
      "metar": "METAR LIPH 012050Z 02004KT CAVOK 04/01 Q1009",
      "taf": "TAF LIPH 011700Z 0118/0218 VRB05KT CAVOK"
    },
    {
      "icao": "LIPQ",
      "alert": "OK",
      "vis_m": 9999,
      "fzfg": false,
      "metar_trigger": false,
      "taf_trigger": false,
      "metar": "METAR LIPQ 012050Z 10006KT CAVOK 05/M02 Q1009",
      "taf": "TAF LIPQ 011700Z 0118/0218 10008KT CAVOK"
    },
    {
      "icao": "LIPR",
      "alert": "OK",
      "vis_m": 8000,
      "fzfg": false,
      "metar_trigger": false,
      "taf_trigger": false,
      "metar": "METAR LIPR 012050Z 26006KT 8000 NSC 04/03 Q1008",
      "taf": "TAF LIPR 011700Z 0118/0218 26005KT 9999 SCT050"
    },
    {
      "icao": "LIPX",
      "alert": "OK",
      "vis_m": 9999,
      "fzfg": false,
      "metar_trigger": false,
      "taf_trigger": false,
      "metar": "METAR LIPX 012050Z 36005KT CAVOK 01/M00 Q1009",
      "taf": "TAF LIPX 011700Z 0118/0218 VRB05KT 8000 SCT040"
    },
    {
      "icao": "LIPY",
      "alert": "OK",
      "vis_m": 9999,
      "fzfg": false,
      "metar_trigger": false,
      "taf_trigger": false,
      "metar": "METAR LIPY 012050Z 30003KT 250V340 9999 SCT050 08/05 Q1008",
      "taf": "TAF LIPY 011700Z 0118/0218 32010KT 9999 SCT040"
    },
    {
      "icao": "LIPZ",
      "alert": "OK",
      "vis_m": 9999,
      "fzfg": false,
      "metar_trigger": false,
      "taf_trigger": false,
      "metar": "METAR LIPZ 012050Z 06006KT CAVOK 04/01 Q1009 NOSIG",
      "taf": "TAF LIPZ 011700Z 0118/0224 05007KT CAVOK"
    },
    {
      "icao": "LIRF",
      "alert": "OK",
      "vis_m": 9999,
      "fzfg": false,
      "metar_trigger": false,
      "taf_trigger": false,
      "metar": "METAR LIRF 012050Z VRB02KT CAVOK 06/02 Q1006 NOSIG",
      "taf": "TAF LIRF 011700Z 0118/0224 33011KT CAVOK"
    },
    {
      "icao": "LIRN",
      "alert": "OK",
      "vis_m": 9999,
      "fzfg": false,
      "metar_trigger": false,
      "taf_trigger": false,
      "metar": "METAR LIRN 012050Z 01004KT 320V040 CAVOK 09/02 Q1006 NOSIG",
      "taf": "TAF LIRN 011700Z 0118/0218 VRB05KT 9999 FEW030"
    },
    {
      "icao": "LIRP",
      "alert": "OK",
      "vis_m": 9999,
      "fzfg": false,
      "metar_trigger": false,
      "taf_trigger": false,
      "metar": "METAR LIRP 012045Z 17003KT CAVOK 05/04 Q1007 NOSIG",
      "taf": "TAF LIRP 011700Z 0118/0218 13005KT CAVOK"
    },
    {
      "icao": "LIRZ",
      "alert": "OK",
      "vis_m": 9999,
      "fzfg": false,
      "metar_trigger": false,
      "taf_trigger": false,
      "metar": "METAR LIRZ 012050Z 36009KT CAVOK 03/00 Q1007",
      "taf": "TAF LIRZ 011700Z 0118/0218 VRB04KT CAVOK"
    },
    {
      "icao": "LJLJ",
      "alert": "OK",
      "vis_m": 9999,
      "fzfg": false,
      "metar_trigger": false,
      "taf_trigger": false,
      "metar": "METAR LJLJ 012100Z 12003KT 9999 BKN030 BKN050 02/M01 Q1009 NOSIG",
      "taf": "TAF LJLJ 011700Z 0118/0218 12005KT 9999 BKN023 OVC035"
    },
    {
      "icao": "LKMT",
      "alert": "OK",
      "vis_m": 6000,
      "fzfg": false,
      "metar_trigger": false,
      "taf_trigger": false,
      "metar": "METAR LKMT 012100Z 03007KT 6000 OVC008 M09/M10 Q1014 NOSIG",
      "taf": "TAF LKMT 011700Z 0118/0218 04010KT 6000 OVC009"
    },
    {
      "icao": "LKPR",
      "alert": "OK",
      "vis_m": 7000,
      "fzfg": false,
      "metar_trigger": false,
      "taf_trigger": false,
      "metar": "METAR LKPR 012100Z 07005KT 7000 BKN010 OVC033 M04/M05 Q1010 NOSIG",
      "taf": "TAF LKPR 012000Z 0121/0303 07006KT 7000 BKN010"
    },
    {
      "icao": "LLBG",
      "alert": "OK",
      "vis_m": 9999,
      "fzfg": false,
      "metar_trigger": false,
      "taf_trigger": false,
      "metar": "METAR LLBG 012050Z 13006KT CAVOK 21/08 Q1012 NOSIG",
      "taf": "TAF LLBG 011720Z 0118/0218 VRB03KT CAVOK"
    },
    {
      "icao": "LMML",
      "alert": "OK",
      "vis_m": 9999,
      "fzfg": false,
      "metar_trigger": false,
      "taf_trigger": false,
      "metar": "METAR LMML 012045Z 27016KT 9999 FEW019 12/09 Q1010 NOSIG",
      "taf": "TAF LMML 011700Z 0118/0218 28017KT 9999 FEW025"
    },
    {
      "icao": "LOWW",
      "alert": "OK",
      "vis_m": 9999,
      "fzfg": false,
      "metar_trigger": false,
      "taf_trigger": false,
      "metar": "METAR LOWW 012050Z 01006KT 9999 SCT013 BKN014 M03/M06 Q1012 NOSIG",
      "taf": "TAF LOWW 012015Z 0121/0303 05004KT 9999 FEW012 BKN020 TX01/0213Z TNM03/0122Z"
    },
    {
      "icao": "LPFR",
      "alert": "OK",
      "vis_m": 9999,
      "fzfg": false,
      "metar_trigger": false,
      "taf_trigger": false,
      "metar": "METAR LPFR 012100Z 20013KT 9999 SCT012 SCT018 BKN040 16/14 Q1010",
      "taf": "TAF LPFR 011700Z 0118/0218 22012KT 9999 SCT012 BKN020"
    },
    {
      "icao": "LPMA",
      "alert": "OK",
      "vis_m": 9999,
      "fzfg": false,
      "metar_trigger": false,
      "taf_trigger": false,
      "metar": "METAR LPMA 012100Z 22018KT 9999 SCT015 17/13 Q1012",
      "taf": "TAF LPMA 011700Z 0118/0218 24013KT 9999 SCT015"
    },
    {
      "icao": "LPPR",
      "alert": "OK",
      "vis_m": 7000,
      "fzfg": false,
      "metar_trigger": false,
      "taf_trigger": false,
      "metar": "METAR LPPR 012100Z 19015KT 7000 -RADZ FEW001 BKN002 14/14 Q1000",
      "taf": "TAF LPPR 011700Z 0118/0218 19017KT 5000 -RADZ BR SCT004 BKN008"
    },
    {
      "icao": "LPPS",
      "alert": "OK",
      "vis_m": 9999,
      "fzfg": false,
      "metar_trigger": false,
      "taf_trigger": false,
      "metar": "METAR LPPS 012100Z 23007KT 9999 FEW014 BKN030 18/12 Q1013",
      "taf": "TAF LPPS 011700Z 0118/0224 23013KT 9999 SCT015"
    },
    {
      "icao": "LPPT",
      "alert": "OK",
      "vis_m": 9999,
      "fzfg": false,
      "metar_trigger": false,
      "taf_trigger": false,
      "metar": "METAR LPPT 012100Z 20014KT 9999 -RA BKN006 14/14 Q1005",
      "taf": "TAF LPPT 011700Z 0118/0224 22013KT 5000 -RADZ BR SCT004 BKN008"
    },
    {
      "icao": "LQBK",
      "alert": "OK",
      "vis_m": 9999,
      "fzfg": false,
      "metar_trigger": false,
      "taf_trigger": false,
      "metar": "METAR LQBK 012100Z 33005KT 9999 BKN013 OVC027 02/02 Q1010 REDZ NOSIG",
      "taf": "TAF LQBK 011700Z 0118/0218 07005KT 9999 BKN015 OVC025 TX03/0214Z TNM01/0205Z"
    },
    {
      "icao": "LQSA",
      "alert": "OK",
      "vis_m": 9999,
      "fzfg": false,
      "metar_trigger": false,
      "taf_trigger": false,
      "metar": "METAR LQSA 012100Z 29006KT 9999 FEW022 BKN035 02/01 Q1006 NOSIG",
      "taf": "TAF LQSA 011700Z 0118/0218 28006KT 9999 FEW010 BKN030 TX04/0213Z TNM01/0205Z"
    },
    {
      "icao": "LQTZ",
      "alert": "OK",
      "vis_m": 8000,
      "fzfg": false,
      "metar_trigger": false,
      "taf_trigger": false,
      "metar": "METAR LQTZ 012100Z VRB02KT 8000 -RASN BKN005 OVC010 01/01 Q1009",
      "taf": "TAF LQTZ 011700Z 0118/0218 VRB02KT 9999 SCT015 OVC030 TX04/0214Z TN00/0205Z"
    },
    {
      "icao": "LRBC",
      "alert": "OK",
      "vis_m": 9999,
      "fzfg": false,
      "metar_trigger": false,
      "taf_trigger": false,
      "metar": "METAR LRBC 012100Z 34007KT 9999 BKN067 M08/M11 Q1019",
      "taf": "TAF LRBC 012000Z 0121/0206 02008KT 9999 BKN060"
    },
    {
      "icao": "LRBS",
      "alert": "OK",
      "vis_m": 800,
      "fzfg": false,
      "metar_trigger": false,
      "taf_trigger": false,
      "metar": "METAR LRBS 012100Z 06011KT 020V080 0800 R07/1700U SN BLSN OVC012 M06/M08 Q1016 NOSIG",
      "taf": ""
    },
    {
      "icao": "LRBV",
      "alert": "OK",
      "vis_m": 9999,
      "fzfg": false,
      "metar_trigger": false,
      "taf_trigger": false,
      "metar": "METAR LRBV 012100Z 09008KT 9999 SCT018 SCT082 M05/M10 Q1011",
      "taf": "TAF LRBV 012000Z 0121/0206 08010KT CAVOK"
    },
    {
      "icao": "LRCL",
      "alert": "OK",
      "vis_m": 5000,
      "fzfg": false,
      "metar_trigger": false,
      "taf_trigger": false,
      "metar": "METAR LRCL 012100Z 00000KT 5000 BR BKN035 01/M00 Q1010",
      "taf": "TAF LRCL 012000Z 0121/0206 VRB04KT 5000 BR BKN045"
    },
    {
      "icao": "LRCV",
      "alert": "OK",
      "vis_m": 2500,
      "fzfg": false,
      "metar_trigger": false,
      "taf_trigger": false,
      "metar": "METAR LRCV 012100Z 09016KT 2500 -SN BLSN OVC011 M05/M06 Q1014",
      "taf": "TAF LRCV 012000Z 0121/0206 10014KT 3000 -SN BR OVC010"
    },
    {
      "icao": "LRIA",
      "alert": "OK",
      "vis_m": 9999,
      "fzfg": false,
      "metar_trigger": false,
      "taf_trigger": false,
      "metar": "METAR LRIA 012100Z 04010KT CAVOK M10/M15 Q1019",
      "taf": "TAF LRIA 012000Z 0121/0206 02008KT CAVOK"
    },
    {
      "icao": "LROP",
      "alert": "OK",
      "vis_m": 700,
      "fzfg": false,
      "metar_trigger": false,
      "taf_trigger": false,
      "metar": "METAR LROP 012100Z 07012KT 0700 R08R/1900U +SN OVC010 M06/M08 Q1016 NOSIG",
      "taf": ""
    },
    {
      "icao": "LRSB",
      "alert": "OK",
      "vis_m": 9999,
      "fzfg": false,
      "metar_trigger": false,
      "taf_trigger": false,
      "metar": "METAR LRSB 012100Z 13003KT 090V200 9999 BKN085 M00/M02 Q1009",
      "taf": "TAF LRSB 011700Z 0118/0218 VRB04KT 9999 BKN045"
    },
    {
      "icao": "LRSM",
      "alert": "OK",
      "vis_m": 9999,
      "fzfg": false,
      "metar_trigger": false,
      "taf_trigger": false,
      "metar": "METAR LRSM 012100Z AUTO 34003KT 9999 BKN075/// OVC100/// 00/M01 Q1011",
      "taf": "TAF LRSM 011400Z 0115/0124 35006KT 9999 BKN040"
    },
    {
      "icao": "LRSV",
      "alert": "OK",
      "vis_m": 9999,
      "fzfg": false,
      "metar_trigger": false,
      "taf_trigger": false,
      "metar": "METAR LRSV 012100Z 04005KT CAVOK M13/M15 Q1016",
      "taf": "TAF LRSV 012000Z 0121/0206 05006KT CAVOK"
    },
    {
      "icao": "LRTM",
      "alert": "OK",
      "vis_m": 5000,
      "fzfg": false,
      "metar_trigger": false,
      "taf_trigger": false,
      "metar": "METAR LRTM 012100Z AUTO 20001KT 5000 NCD 00/M00 Q1010",
      "taf": "TAF LRTM 012000Z 0121/0206 VRB04KT 5000 BR BKN045"
    },
    {
      "icao": "LRTR",
      "alert": "OK",
      "vis_m": 9999,
      "fzfg": false,
      "metar_trigger": false,
      "taf_trigger": false,
      "metar": "METAR LRTR 012100Z 24010KT 9999 -RASN FEW006 OVC010 01/01 Q1011",
      "taf": "TAF LRTR 011700Z 0118/0218 29006KT 9999 BKN010 BKN025"
    },
    {
      "icao": "LTAC",
      "alert": "OK",
      "vis_m": 9999,
      "fzfg": false,
      "metar_trigger": false,
      "taf_trigger": false,
      "metar": "METAR LTAC 012050Z 22010KT 180V240 9999 SCT040 BKN100 11/04 Q1006 NOSIG RMK RWY21C 19010KT RWY03L 22009KT 170V270 RWY21R 19010KT RWY03R 19018KT RWY21L 19004KT 140V230",
      "taf": "TAF LTAC 011640Z 0118/0218 20009KT 9999 SCT040 BKN100"
    },
    {
      "icao": "LTFM",
      "alert": "OK",
      "vis_m": 9999,
      "fzfg": false,
      "metar_trigger": false,
      "taf_trigger": false,
      "metar": "METAR LTFM 012050Z 07016KT 9999 BKN011 BKN025 06/04 Q1006 NOSIG RMK RWY17L 06019KT RWY34L 07016KT RWY16R 08017KT RWY36 08017KT RWY18 09017KT",
      "taf": "TAF LTFM 011640Z 0118/0224 06022KT 9999 -SHRA BKN008 BKN025"
    },
    {
      "icao": "LUKK",
      "alert": "OK",
      "vis_m": 9999,
      "fzfg": false,
      "metar_trigger": false,
      "taf_trigger": false,
      "metar": "METAR LUKK 012100Z 03010KT CAVOK M11/M16 Q1019 NOSIG",
      "taf": "TAF LUKK 011720Z 0118/0218 02008KT CAVOK"
    },
    {
      "icao": "LWOH",
      "alert": "OK",
      "vis_m": 9999,
      "fzfg": false,
      "metar_trigger": false,
      "taf_trigger": false,
      "metar": "METAR LWOH 011950Z 33006KT 300V360 9999 FEW020 BKN037 04/00 Q1002",
      "taf": "TAF LWOH 012010Z 0121/0221 33006KT 9999 SCT020 BKN035"
    },
    {
      "icao": "LWSK",
      "alert": "OK",
      "vis_m": 9999,
      "fzfg": false,
      "metar_trigger": false,
      "taf_trigger": false,
      "metar": "METAR LWSK 012050Z 35007KT 9999 SCT020 OVC035 03/01 Q1006 NOSIG",
      "taf": "TAF LWSK 012010Z 0121/0221 03008KT 9999 SCT020 OVC035"
    },
    {
      "icao": "LYBE",
      "alert": "OK",
      "vis_m": 9999,
      "fzfg": false,
      "metar_trigger": false,
      "taf_trigger": false,
      "metar": "METAR LYBE 012100Z 13017KT 9999 BKN040 00/M06 Q1011 RESN NOSIG",
      "taf": "TAF LYBE 011700Z 0118/0218 11015KT 9999 BKN035 TX02/0213Z TNM02/0206Z"
    },
    {
      "icao": "LYNI",
      "alert": "OK",
      "vis_m": 9999,
      "fzfg": false,
      "metar_trigger": false,
      "taf_trigger": false,
      "metar": "METAR LYNI 012100Z VRB02KT 9999 FEW017 SCT027 BKN070 M01/M06 Q1010 NOSIG",
      "taf": "TAF LYNI 011700Z 0118/0218 04008KT 9999 BKN030 TX00/0213Z TNM03/0206Z"
    },
    {
      "icao": "LYPG",
      "alert": "OK",
      "vis_m": 9999,
      "fzfg": false,
      "metar_trigger": false,
      "taf_trigger": false,
      "metar": "METAR LYPG 012100Z 36008KT 320V030 9999 FEW050 BKN070 09/03 Q1003 NOSIG",
      "taf": "TAF LYPG 011700Z 0118/0218 01008KT 9999 FEW040 BKN070 TX09/0212Z TN02/0205Z"
    },
    {
      "icao": "LZIB",
      "alert": "OK",
      "vis_m": 5000,
      "fzfg": false,
      "metar_trigger": false,
      "taf_trigger": false,
      "metar": "METAR LZIB 012100Z 22003KT 5000 BR SCT006 OVC009 M00/M02 Q1011 NOSIG",
      "taf": "TAF LZIB 011715Z 0118/0218 VRB02KT 7000 BKN009 OVC014"
    },
    {
      "icao": "LZKZ",
      "alert": "OK",
      "vis_m": 9999,
      "fzfg": false,
      "metar_trigger": false,
      "taf_trigger": false,
      "metar": "METAR LZKZ 012100Z 04010KT 9999 OVC041 M03/M07 Q1012 NOSIG",
      "taf": "TAF LZKZ 011715Z 0118/0218 01014KT 9999 BKN020 BKN030"
    },
    {
      "icao": "LZTT",
      "alert": "OK",
      "vis_m": 3000,
      "fzfg": false,
      "metar_trigger": false,
      "taf_trigger": false,
      "metar": "METAR LZTT 012100Z 08002KT 3000 BR OVC004 M06/M06 Q1010",
      "taf": "TAF LZTT 011715Z 0118/0218 VRB02KT 6000 SCT014 BKN030"
    },
    {
      "icao": "OEJN",
      "alert": "OK",
      "vis_m": 9999,
      "fzfg": false,
      "metar_trigger": false,
      "taf_trigger": false,
      "metar": "METAR OEJN 012100Z 35002KT CAVOK 26/18 Q1014 NOSIG",
      "taf": "TAF OEJN 011700Z 0118/0224 02006KT 9999 FEW040"
    },
    {
      "icao": "OEMA",
      "alert": "OK",
      "vis_m": 9999,
      "fzfg": false,
      "metar_trigger": false,
      "taf_trigger": false,
      "metar": "METAR OEMA 012100Z VRB02KT CAVOK 23/02 Q1018 NOSIG",
      "taf": "TAF OEMA 011700Z 0118/0224 VRB03KT 9999 FEW040"
    },
    {
      "icao": "OJAI",
      "alert": "OK",
      "vis_m": 5000,
      "fzfg": false,
      "metar_trigger": false,
      "taf_trigger": false,
      "metar": "METAR OJAI 012100Z 02006KT 5000 HZ FEW030 FEW080 FEW100 18/05 Q1018 NOSIG",
      "taf": "TAF OJAI 011700Z 0118/0224 24014KT 5000 HZ NSC"
    },
    {
      "icao": "OMAA",
      "alert": "OK",
      "vis_m": 8000,
      "fzfg": false,
      "metar_trigger": false,
      "taf_trigger": false,
      "metar": "METAR OMAA 012100Z 08003KT 8000 NSC 18/16 Q1019 NOSIG",
      "taf": "TAF OMAA 011700Z 0118/0300 33005KT 8000 NSC"
    },
    {
      "icao": "OMDB",
      "alert": "OK",
      "vis_m": 8000,
      "fzfg": false,
      "metar_trigger": false,
      "taf_trigger": false,
      "metar": "METAR OMDB 012100Z 21003KT 170V230 8000 NSC 20/17 Q1019 NOSIG",
      "taf": "TAF OMDB 011700Z 0118/0300 18005KT 8000 NSC"
    },
    {
      "icao": "UAAA",
      "alert": "OK",
      "vis_m": 1800,
      "fzfg": false,
      "metar_trigger": false,
      "taf_trigger": false,
      "metar": "METAR UAAA 012100Z 20001MPS 1800 R05R/P2000 BR FU BKN100 M05/M07 Q1020 NOSIG",
      "taf": "TAF UAAA 011701Z 0118/0218 18002MPS 1200 BR FU SCT011 BKN050 TX04/0209Z TNM04/0202Z"
    },
    {
      "icao": "UBBB",
      "alert": "OK",
      "vis_m": 9999,
      "fzfg": false,
      "metar_trigger": false,
      "taf_trigger": false,
      "metar": "METAR UBBB 012100Z 32012KT 9999 OVC018 07/04 Q1017 NOSIG",
      "taf": "TAF UBBB 011702Z 0118/0218 32008KT 9999 BKN010 BKN020 TX10/0210Z TN04/0200Z"
    },
    {
      "icao": "UDSG",
      "alert": "OK",
      "vis_m": 4900,
      "fzfg": false,
      "metar_trigger": false,
      "taf_trigger": false,
      "metar": "METAR UDSG 012100Z 09003KT 4900 BR BKN040 M00/M00 Q1019 NOSIG",
      "taf": "TAF UDSG 011658Z 0118/0218 VRB06KT 5000 BR OVC020"
    },
    {
      "icao": "UDYZ",
      "alert": "OK",
      "vis_m": 750,
      "fzfg": true,
      "metar_trigger": false,
      "taf_trigger": false,
      "metar": "METAR UDYZ 012100Z 33005KT 0750 0600W R08/1500U FZFG NSC M02/M03 Q1020 NOSIG",
      "taf": "TAF UDYZ 011700Z 0118/0218 VRB04KT 1000 BR FEW040"
    },
    {
      "icao": "UGKO",
      "alert": "OK",
      "vis_m": 9999,
      "fzfg": false,
      "metar_trigger": false,
      "taf_trigger": false,
      "metar": "METAR UGKO 012100Z 08009KT CAVOK 07/06 Q1016 NOSIG",
      "taf": "TAF UGKO 011700Z 0118/0218 09007KT 9999 BKN090 TX14/0211Z TN06/0203Z"
    }
  ]
}