{
  "ts_utc": "2026-03-28T06:12:36Z",
  "threshold_m": 150,
  "source": "stations_override.txt (ICAO list) + aviationweather.gov (METAR/TAF raw)",
  "station_count": 159,
  "stations": [
    {
      "icao": "BIKF",
      "alert": "OK",
      "vis_m": 9999,
      "fzfg": false,
      "metar_trigger": false,
      "taf_trigger": false,
      "metar": "METAR BIKF 280600Z 36004KT 9999 FEW030 M03/M08 Q1013",
      "taf": "TAF BIKF 280454Z 2806/2906 01007KT 9999 FEW035 TX01/2818Z TNM08/2808Z"
    },
    {
      "icao": "BKPR",
      "alert": "OK",
      "vis_m": 9999,
      "fzfg": false,
      "metar_trigger": false,
      "taf_trigger": false,
      "metar": "METAR BKPR 280600Z VRB01KT 9999 BKN050 04/00 Q1003 NOSIG",
      "taf": "TAF BKPR 280530Z 2806/2906 34009KT 9999 BKN040"
    },
    {
      "icao": "EBCI",
      "alert": "OK",
      "vis_m": 8000,
      "fzfg": false,
      "metar_trigger": false,
      "taf_trigger": false,
      "metar": "METAR EBCI 280550Z 32005KT 270V010 8000 -RA FEW010 SCT023 BKN045 06/04 Q1018 NOSIG",
      "taf": "TAF EBCI 280515Z 2806/2912 30009KT 9999 SCT016 BKN035"
    },
    {
      "icao": "EDDB",
      "alert": "OK",
      "vis_m": 9999,
      "fzfg": false,
      "metar_trigger": false,
      "taf_trigger": false,
      "metar": "METAR EDDB 280550Z AUTO 18006KT CAVOK 01/M04 Q1018 NOSIG",
      "taf": "TAF EDDB 280500Z 2806/2906 18004KT CAVOK"
    },
    {
      "icao": "EDDH",
      "alert": "OK",
      "vis_m": 5000,
      "fzfg": false,
      "metar_trigger": false,
      "taf_trigger": false,
      "metar": "METAR EDDH 280550Z AUTO 20009KT 170V230 5000 -RA BR OVC006 04/04 Q1014 TEMPO 4000",
      "taf": "TAF EDDH 280500Z 2806/2912 21009KT 9000 BKN015"
    },
    {
      "icao": "EDDK",
      "alert": "OK",
      "vis_m": 9999,
      "fzfg": false,
      "metar_trigger": false,
      "taf_trigger": false,
      "metar": "METAR EDDK 280550Z AUTO 16007KT 9999 -RA OVC022 04/03 Q1017 TEMPO RA",
      "taf": "TAF EDDK 280500Z 2806/2912 16006KT 9999 BKN020"
    },
    {
      "icao": "EDDN",
      "alert": "OK",
      "vis_m": 9999,
      "fzfg": false,
      "metar_trigger": false,
      "taf_trigger": false,
      "metar": "METAR EDDN 280550Z AUTO 11006KT CAVOK M04/M07 Q1020 NOSIG",
      "taf": "TAF EDDN 280500Z 2806/2906 12006KT CAVOK"
    },
    {
      "icao": "EDDS",
      "alert": "OK",
      "vis_m": 9999,
      "fzfg": false,
      "metar_trigger": false,
      "taf_trigger": false,
      "metar": "METAR EDDS 280550Z AUTO 08002KT CAVOK M03/M05 Q1020",
      "taf": "TAF EDDS 280500Z 2806/2906 VRB03KT CAVOK"
    },
    {
      "icao": "EDFH",
      "alert": "OK",
      "vis_m": 9999,
      "fzfg": false,
      "metar_trigger": false,
      "taf_trigger": false,
      "metar": "METAR EDFH 280550Z 23010KT 210V270 9999 BKN021 03/M05 Q1017",
      "taf": "TAF EDFH 280500Z 2806/2906 22007KT 9999 BKN020"
    },
    {
      "icao": "EDJA",
      "alert": "OK",
      "vis_m": 9999,
      "fzfg": false,
      "metar_trigger": false,
      "taf_trigger": false,
      "metar": "METAR EDJA 280550Z 19002KT CAVOK M05/M06 Q1019",
      "taf": "TAF EDJA 280500Z 2806/2815 VRB02KT CAVOK"
    },
    {
      "icao": "EDLW",
      "alert": "OK",
      "vis_m": 9999,
      "fzfg": false,
      "metar_trigger": false,
      "taf_trigger": false,
      "metar": "METAR EDLW 280550Z 19011KT 9999 -RA OVC016 04/03 Q1016",
      "taf": "TAF EDLW 280500Z 2806/2906 19010KT 9999 BKN015"
    },
    {
      "icao": "EDNY",
      "alert": "OK",
      "vis_m": 9999,
      "fzfg": false,
      "metar_trigger": false,
      "taf_trigger": false,
      "metar": "METAR EDNY 280550Z AUTO 08005KT 9999 // NCD M04/M05 Q1021",
      "taf": "TAF EDNY 280500Z 2806/2815 06004KT CAVOK"
    },
    {
      "icao": "EDSB",
      "alert": "OK",
      "vis_m": 9999,
      "fzfg": false,
      "metar_trigger": false,
      "taf_trigger": false,
      "metar": "METAR EDSB 280550Z 21003KT 180V240 CAVOK M01/M03 Q1021",
      "taf": "TAF EDSB 280500Z 2806/2906 20005KT CAVOK"
    },
    {
      "icao": "EETN",
      "alert": "OK",
      "vis_m": 9999,
      "fzfg": false,
      "metar_trigger": false,
      "taf_trigger": false,
      "metar": "METAR EETN 280550Z 18006KT CAVOK 01/M01 Q1016 TEMPO 2000 BR BKN002",
      "taf": "TAF EETN 280530Z 2806/2906 20010KT CAVOK"
    },
    {
      "icao": "EFTU",
      "alert": "OK",
      "vis_m": 3900,
      "fzfg": false,
      "metar_trigger": false,
      "taf_trigger": false,
      "metar": "METAR EFTU 280550Z AUTO 19009KT 3900 BR OVC002 01/00 Q1014",
      "taf": ""
    },
    {
      "icao": "EGBB",
      "alert": "OK",
      "vis_m": 9999,
      "fzfg": false,
      "metar_trigger": false,
      "taf_trigger": false,
      "metar": "METAR EGBB 280550Z 28007KT CAVOK 03/M00 Q1022",
      "taf": "TAF EGBB 280454Z 2806/2906 28009KT 9999 FEW025"
    },
    {
      "icao": "EGGP",
      "alert": "OK",
      "vis_m": 9999,
      "fzfg": false,
      "metar_trigger": false,
      "taf_trigger": false,
      "metar": "METAR EGGP 280520Z 27016KT 9999 FEW020 SCT026 05/01 Q1021",
      "taf": "TAF EGGP 272255Z 2800/2824 29012KT 9999 FEW030"
    },
    {
      "icao": "EGGW",
      "alert": "OK",
      "vis_m": 9999,
      "fzfg": false,
      "metar_trigger": false,
      "taf_trigger": false,
      "metar": "METAR EGGW 280550Z AUTO 28010KT 9999 NCD 02/M01 Q1021",
      "taf": "TAF EGGW 280504Z 2806/2906 30014KT 9999 FEW040"
    },
    {
      "icao": "EGKK",
      "alert": "OK",
      "vis_m": 9999,
      "fzfg": false,
      "metar_trigger": false,
      "taf_trigger": false,
      "metar": "METAR EGKK 280550Z 30007KT CAVOK 04/M00 Q1023",
      "taf": "TAF EGKK 280502Z 2806/2912 31009KT 9999 FEW040"
    },
    {
      "icao": "EGNM",
      "alert": "OK",
      "vis_m": 9999,
      "fzfg": false,
      "metar_trigger": false,
      "taf_trigger": false,
      "metar": "METAR EGNM 280550Z 26019KT 9999 FEW022 03/M00 Q1017",
      "taf": "TAF EGNM 280457Z 2806/2906 28012KT 9999 FEW025"
    },
    {
      "icao": "EGPD",
      "alert": "OK",
      "vis_m": 9999,
      "fzfg": false,
      "metar_trigger": false,
      "taf_trigger": false,
      "metar": "METAR EGPD 280550Z COR AUTO 27010KT 240V300 9999 SCT037 05/M00 Q1007 NOSIG",
      "taf": "TAF EGPD 280454Z 2806/2906 24012KT 9999 FEW025"
    },
    {
      "icao": "EGPF",
      "alert": "OK",
      "vis_m": 9999,
      "fzfg": false,
      "metar_trigger": false,
      "taf_trigger": false,
      "metar": "METAR EGPF 280550Z AUTO 25010KT 9999 -RA SCT024/// BKN044/// //////TCU 04/02 Q1015 RERA",
      "taf": "TAF EGPF 280456Z 2806/2906 26013KT 9999 FEW035"
    },
    {
      "icao": "EHBK",
      "alert": "OK",
      "vis_m": 3100,
      "fzfg": false,
      "metar_trigger": false,
      "taf_trigger": false,
      "metar": "METAR EHBK 280555Z AUTO 23009KT 3100 -RA FEW004/// BKN005/// OVC006/// 05/04 Q1017 TEMPO BKN004",
      "taf": "TAF EHBK 280458Z 2806/2912 22009KT 6000 -RADZ BKN006"
    },
    {
      "icao": "EHEH",
      "alert": "OK",
      "vis_m": 6000,
      "fzfg": false,
      "metar_trigger": false,
      "taf_trigger": false,
      "metar": "METAR EHEH 280555Z AUTO 25003KT 220V290 6000 BR SCT002/// BKN004/// BKN009/// 06/06 Q1017 REDZ YLO",
      "taf": "TAF EHEH 280552Z 2806/2912 25004KT 4500 BR -RADZ SCT002 BKN005"
    },
    {
      "icao": "EKBI",
      "alert": "OK",
      "vis_m": 250,
      "fzfg": false,
      "metar_trigger": false,
      "taf_trigger": false,
      "metar": "METAR EKBI 280550Z AUTO 25004KT 0250 R09/0500D R27/0750D FG BKN002/// 03/02 Q1011",
      "taf": ""
    },
    {
      "icao": "EKCH",
      "alert": "OK",
      "vis_m": 9000,
      "fzfg": false,
      "metar_trigger": false,
      "taf_trigger": false,
      "metar": "METAR EKCH 280550Z AUTO 19011KT 9000 -RA FEW016/// OVC021/// 04/03 Q1013 BECMG BKN008",
      "taf": "TAF EKCH 280527Z 2806/2906 20012KT 9000 -RADZ BKN018"
    },
    {
      "icao": "ENAL",
      "alert": "OK",
      "vis_m": 9999,
      "fzfg": false,
      "metar_trigger": false,
      "taf_trigger": false,
      "metar": "METAR ENAL 280550Z 19010KT 9999 FEW044 04/01 Q0999",
      "taf": "TAF ENAL 280500Z 2806/2815 20012KT 9999 -SHRA SCT050"
    },
    {
      "icao": "ENBR",
      "alert": "OK",
      "vis_m": 9999,
      "fzfg": false,
      "metar_trigger": false,
      "taf_trigger": false,
      "metar": "METAR ENBR 280550Z 15011KT 9999 VCSH FEW010 SCT023CB BKN052 03/01 Q1003 TEMPO 4000 SHRA BKN008 SCT020CB RMK WIND 1200FT 19014KT",
      "taf": "TAF ENBR 280500Z 2806/2906 15015KT 9999 FEW005 BKN025"
    },
    {
      "icao": "ENGM",
      "alert": "OK",
      "vis_m": 300,
      "fzfg": false,
      "metar_trigger": false,
      "taf_trigger": false,
      "metar": "METAR ENGM 280550Z 00000KT 0300 R19R/0375N R01R/0325N R19L/0350N R01L/0350N FG VV001 00/M01 Q1005 TEMPO 3000 BR SCT002 BKN005",
      "taf": "TAF ENGM 280500Z 2806/2906 20005KT 0300 FG VV001"
    },
    {
      "icao": "ENHD",
      "alert": "OK",
      "vis_m": 9999,
      "fzfg": false,
      "metar_trigger": false,
      "taf_trigger": false,
      "metar": "METAR ENHD 280550Z AUTO 19010KT 9999 NCD 04/02 Q1005",
      "taf": "TAF ENHD 280500Z 2806/2815 19012KT 9999 FEW008"
    },
    {
      "icao": "ENTC",
      "alert": "OK",
      "vis_m": 9999,
      "fzfg": false,
      "metar_trigger": false,
      "taf_trigger": false,
      "metar": "METAR ENTC 280550Z 14001KT 9999 NSC M04/M10 Q1001 RMK WIND 2600FT 18020KT",
      "taf": "TAF ENTC 280500Z 2806/2906 VRB03KT 9999 SCT060"
    },
    {
      "icao": "ENTO",
      "alert": "OK",
      "vis_m": 9999,
      "fzfg": false,
      "metar_trigger": false,
      "taf_trigger": false,
      "metar": "METAR ENTO 280550Z 24004KT 9999 VCFG NSC 01/01 Q1006 NOSIG",
      "taf": "TAF ENTO 280500Z 2806/2906 21008KT 9999 FEW008"
    },
    {
      "icao": "ENVA",
      "alert": "OK",
      "vis_m": 9999,
      "fzfg": false,
      "metar_trigger": false,
      "taf_trigger": false,
      "metar": "METAR ENVA 280550Z VRB02KT CAVOK M00/M02 Q1001 NOSIG RMK WIND 670FT 11005KT",
      "taf": "TAF ENVA 280500Z 2806/2906 10008KT CAVOK"
    },
    {
      "icao": "ENZV",
      "alert": "OK",
      "vis_m": 9999,
      "fzfg": false,
      "metar_trigger": false,
      "taf_trigger": false,
      "metar": "METAR ENZV 280550Z 18006KT 9999 SCT029 02/01 Q1006 NOSIG",
      "taf": "TAF ENZV 280500Z 2806/2906 20008KT 9999 SCT030"
    },
    {
      "icao": "EPGD",
      "alert": "OK",
      "vis_m": 9999,
      "fzfg": false,
      "metar_trigger": false,
      "taf_trigger": false,
      "metar": "METAR EPGD 280600Z VRB02KT CAVOK M02/M03 Q1019",
      "taf": "TAF EPGD 280530Z 2806/2906 VRB04KT CAVOK"
    },
    {
      "icao": "EPKK",
      "alert": "OK",
      "vis_m": 6000,
      "fzfg": false,
      "metar_trigger": false,
      "taf_trigger": false,
      "metar": "METAR EPKK 280600Z 24006KT 6000 BKN015 03/02 Q1014",
      "taf": "TAF EPKK 280530Z 2806/2906 24007KT 9999 -RA BKN030"
    },
    {
      "icao": "EPKT",
      "alert": "OK",
      "vis_m": 9999,
      "fzfg": false,
      "metar_trigger": false,
      "taf_trigger": false,
      "metar": "METAR EPKT 280600Z VRB02KT 9999 -SHRA FEW013 SCT016CB BKN022 02/01 Q1015",
      "taf": ""
    },
    {
      "icao": "EPLB",
      "alert": "OK",
      "vis_m": 9999,
      "fzfg": false,
      "metar_trigger": false,
      "taf_trigger": false,
      "metar": "METAR EPLB 280600Z 01006KT CAVOK 06/03 Q1014",
      "taf": "TAF EPLB 280530Z 2806/2906 04004KT CAVOK"
    },
    {
      "icao": "EPMO",
      "alert": "OK",
      "vis_m": 9999,
      "fzfg": false,
      "metar_trigger": false,
      "taf_trigger": false,
      "metar": "METAR EPMO 280600Z 36007KT CAVOK 05/M01 Q1017",
      "taf": "TAF EPMO 280530Z 2806/2906 03005KT CAVOK"
    },
    {
      "icao": "EPPO",
      "alert": "OK",
      "vis_m": 9999,
      "fzfg": false,
      "metar_trigger": false,
      "taf_trigger": false,
      "metar": "METAR EPPO 280600Z 31001KT CAVOK M01/M03 Q1019",
      "taf": "TAF EPPO 280530Z 2806/2906 33003KT CAVOK"
    },
    {
      "icao": "EPRA",
      "alert": "OK",
      "vis_m": 9999,
      "fzfg": false,
      "metar_trigger": false,
      "taf_trigger": false,
      "metar": "METAR EPRA 280600Z 36010KT CAVOK 04/M00 Q1015",
      "taf": "TAF EPRA 280530Z 2806/2815 01010KT CAVOK"
    },
    {
      "icao": "EPRZ",
      "alert": "OK",
      "vis_m": 9999,
      "fzfg": false,
      "metar_trigger": false,
      "taf_trigger": false,
      "metar": "METAR EPRZ 280600Z 32004KT CAVOK 05/05 Q1012",
      "taf": "TAF EPRZ 280530Z 2806/2906 30008KT 9999 BKN025"
    },
    {
      "icao": "EPSC",
      "alert": "OK",
      "vis_m": 9999,
      "fzfg": false,
      "metar_trigger": false,
      "taf_trigger": false,
      "metar": "METAR EPSC 280600Z 14004KT CAVOK 01/M02 Q1018",
      "taf": "TAF EPSC 280530Z 2806/2906 13007KT CAVOK"
    },
    {
      "icao": "EPSY",
      "alert": "OK",
      "vis_m": 9999,
      "fzfg": false,
      "metar_trigger": false,
      "taf_trigger": false,
      "metar": "METAR EPSY 280600Z 36007KT CAVOK 03/M02 Q1018",
      "taf": "TAF EPSY 280530Z 2806/2815 01008KT CAVOK"
    },
    {
      "icao": "EPWA",
      "alert": "OK",
      "vis_m": 9999,
      "fzfg": false,
      "metar_trigger": false,
      "taf_trigger": false,
      "metar": "METAR EPWA 280600Z 04008KT 010V080 CAVOK 06/M01 Q1016 NOSIG",
      "taf": "TAF EPWA 280530Z 2806/2906 02008KT CAVOK"
    },
    {
      "icao": "EPWR",
      "alert": "OK",
      "vis_m": 9999,
      "fzfg": false,
      "metar_trigger": false,
      "taf_trigger": false,
      "metar": "METAR EPWR 280600Z 30007KT CAVOK 02/M02 Q1019",
      "taf": "TAF EPWR 280530Z 2806/2906 29008KT CAVOK"
    },
    {
      "icao": "ESGG",
      "alert": "OK",
      "vis_m": 7000,
      "fzfg": false,
      "metar_trigger": false,
      "taf_trigger": false,
      "metar": "METAR ESGG 280550Z 19012KT 7000 -RA BKN004 03/03 Q1009",
      "taf": "TAF ESGG 280530Z 2806/2906 19015G25KT 6000 -RA BKN005"
    },
    {
      "icao": "ESKN",
      "alert": "OK",
      "vis_m": 9999,
      "fzfg": false,
      "metar_trigger": false,
      "taf_trigger": false,
      "metar": "METAR ESKN 280550Z 18009KT CAVOK 02/M01 Q1011",
      "taf": "TAF ESKN 280530Z 2806/2906 17008KT 9999 -RA SCT025"
    },
    {
      "icao": "ESMS",
      "alert": "OK",
      "vis_m": 9999,
      "fzfg": false,
      "metar_trigger": false,
      "taf_trigger": false,
      "metar": "METAR ESMS 280550Z 19010KT 9999 BKN037 04/00 Q1013",
      "taf": "TAF ESMS 280527Z 2806/2906 20008KT 9999 BKN025"
    },
    {
      "icao": "ESSA",
      "alert": "OK",
      "vis_m": 9999,
      "fzfg": false,
      "metar_trigger": false,
      "taf_trigger": false,
      "metar": "METAR ESSA 280550Z 17009KT CAVOK 02/M01 Q1010 NOSIG",
      "taf": "TAF ESSA 280530Z 2806/2906 17006KT CAVOK"
    },
    {
      "icao": "EYKA",
      "alert": "OK",
      "vis_m": 9999,
      "fzfg": false,
      "metar_trigger": false,
      "taf_trigger": false,
      "metar": "METAR EYKA 280550Z 35003KT CAVOK 02/00 Q1018",
      "taf": "TAF EYKA 280503Z 2806/2906 VRB03KT 9000 NSC"
    },
    {
      "icao": "EYPA",
      "alert": "OK",
      "vis_m": 5000,
      "fzfg": false,
      "metar_trigger": false,
      "taf_trigger": false,
      "metar": "METAR EYPA 280550Z 21005KT 180V260 5000 BR OVC003 01/00 Q1019",
      "taf": "TAF EYPA 280500Z 2806/2906 21007KT 5000 BR OVC002"
    },
    {
      "icao": "EYVI",
      "alert": "OK",
      "vis_m": 9999,
      "fzfg": false,
      "metar_trigger": false,
      "taf_trigger": false,
      "metar": "METAR EYVI 280550Z 36004KT CAVOK 04/M01 Q1017 NOSIG",
      "taf": "TAF EYVI 280500Z 2806/2906 VRB04KT 9000 NSC"
    },
    {
      "icao": "GCFV",
      "alert": "OK",
      "vis_m": 9999,
      "fzfg": false,
      "metar_trigger": false,
      "taf_trigger": false,
      "metar": "METAR GCFV 280600Z 33006KT 9999 FEW030 16/13 Q1016",
      "taf": "TAF GCFV 280200Z 2803/2903 02014KT 9999 SCT030 TX22/2814Z TN16/2806Z"
    },
    {
      "icao": "GCLP",
      "alert": "OK",
      "vis_m": 9999,
      "fzfg": false,
      "metar_trigger": false,
      "taf_trigger": false,
      "metar": "METAR GCLP 280600Z 01015KT 9999 BKN025 17/13 Q1017 NOSIG",
      "taf": "TAF GCLP 280200Z 2803/2903 36018KT 9999 SCT030 TX22/2814Z TN16/2806Z"
    },
    {
      "icao": "GCTS",
      "alert": "OK",
      "vis_m": 9999,
      "fzfg": false,
      "metar_trigger": false,
      "taf_trigger": false,
      "metar": "METAR GCTS 280600Z 36005KT 340V040 9999 FEW025 15/11 Q1018 NOSIG",
      "taf": "TAF GCTS 280200Z 2803/2903 30006KT 9999 SCT035 TX23/2814Z TN16/2806Z"
    },
    {
      "icao": "GMAD",
      "alert": "OK",
      "vis_m": 8000,
      "fzfg": false,
      "metar_trigger": false,
      "taf_trigger": false,
      "metar": "METAR GMAD 280600Z 36003KT 8000 FEW020 12/12 Q1014 NOSIG",
      "taf": "TAF GMAD 280500Z 2806/2912 20004KT 6000 BKN010"
    },
    {
      "icao": "GMMN",
      "alert": "OK",
      "vis_m": 4000,
      "fzfg": false,
      "metar_trigger": false,
      "taf_trigger": false,
      "metar": "METAR GMMN 280600Z 22004KT 4000 BR SCT016 12/11 Q1015 NOSIG",
      "taf": "TAF GMMN 280500Z 2806/2912 20004KT 4000 BR SCT010 SCT016"
    },
    {
      "icao": "GMMX",
      "alert": "OK",
      "vis_m": 4000,
      "fzfg": false,
      "metar_trigger": false,
      "taf_trigger": false,
      "metar": "METAR GMMX 280600Z VRB02KT 4000 BR BKN010 15/14 Q1015 TEMPO 0800 FG",
      "taf": "TAF GMMX 280500Z 2806/2912 22002KT 8000 SCT016"
    },
    {
      "icao": "HEGN",
      "alert": "OK",
      "vis_m": 9999,
      "fzfg": false,
      "metar_trigger": false,
      "taf_trigger": false,
      "metar": "METAR HEGN 280500Z 00000KT CAVOK 16/05 Q1015 NOSIG",
      "taf": "TAF HEGN 280500Z 2806/2912 29010KT 9999 SCT025"
    },
    {
      "icao": "HEMA",
      "alert": "OK",
      "vis_m": 9999,
      "fzfg": false,
      "metar_trigger": false,
      "taf_trigger": false,
      "metar": "METAR HEMA 280500Z 22005KT CAVOK 17/08 Q1016 NOSIG",
      "taf": "TAF HEMA 280500Z 2806/2912 31010KT CAVOK"
    },
    {
      "icao": "HESH",
      "alert": "OK",
      "vis_m": 9999,
      "fzfg": false,
      "metar_trigger": false,
      "taf_trigger": false,
      "metar": "METAR HESH 280500Z 35010KT CAVOK 20/12 Q1015 NOSIG",
      "taf": "TAF HESH 280500Z 2806/2912 32010KT 9999 SCT025"
    },
    {
      "icao": "HESX",
      "alert": "OK",
      "vis_m": 9999,
      "fzfg": false,
      "metar_trigger": false,
      "taf_trigger": false,
      "metar": "METAR HESX 280500Z 15007KT CAVOK 15/02 Q1013 NOSIG",
      "taf": "TAF HESX 280500Z 2806/2912 17010KT 8000 NSC"
    },
    {
      "icao": "LATI",
      "alert": "OK",
      "vis_m": 9999,
      "fzfg": false,
      "metar_trigger": false,
      "taf_trigger": false,
      "metar": "METAR LATI 280550Z 17002KT 9999 BKN053 09/07 Q1003 NOSIG",
      "taf": "TAF LATI 280500Z 2806/2906 VRB03KT 9999 BKN070 TX15/2812Z TN04/2905Z"
    },
    {
      "icao": "LBPD",
      "alert": "OK",
      "vis_m": 9999,
      "fzfg": false,
      "metar_trigger": false,
      "taf_trigger": false,
      "metar": "METAR LBPD 280600Z AUTO 36004KT 320V030 9999 BKN027/// 07/06 Q1002 NOSIG",
      "taf": "TAF LBPD 280500Z 2806/2906 VRB03KT 9999 BKN020 OVC040"
    },
    {
      "icao": "LBSF",
      "alert": "OK",
      "vis_m": 4500,
      "fzfg": false,
      "metar_trigger": false,
      "taf_trigger": false,
      "metar": "METAR LBSF 280600Z 08003KT 4500 -SNRA BR SCT002 BKN009 OVC013 01/00 Q1002 TEMPO 2000 RASN BKN002",
      "taf": "TAF LBSF 280500Z 2806/2906 VRB03KT 9999 SCT010 BKN015 OVC020"
    },
    {
      "icao": "LBWN",
      "alert": "OK",
      "vis_m": 9000,
      "fzfg": false,
      "metar_trigger": false,
      "taf_trigger": false,
      "metar": "METAR LBWN 280600Z AUTO 13010KT 9000 OVC005/// 09/09 Q1004 NOSIG",
      "taf": "TAF LBWN 280500Z 2806/2906 10014KT 9999 SCT010 OVC025"
    },
    {
      "icao": "LCLK",
      "alert": "OK",
      "vis_m": 9999,
      "fzfg": false,
      "metar_trigger": false,
      "taf_trigger": false,
      "metar": "METAR LCLK 280600Z 21010KT 9999 FEW020 17/13 Q1012 NOSIG",
      "taf": "TAF LCLK 280530Z 2806/2906 26009KT 9999 FEW020 SCT035"
    },
    {
      "icao": "LCPH",
      "alert": "OK",
      "vis_m": 9999,
      "fzfg": false,
      "metar_trigger": false,
      "taf_trigger": false,
      "metar": "METAR LCPH 280600Z 08005KT 9999 FEW030 SCT040 16/11 Q1012 NOSIG",
      "taf": "TAF LCPH 280530Z 2806/2906 35009KT 9999 FEW020 SCT040"
    },
    {
      "icao": "LEAL",
      "alert": "OK",
      "vis_m": 9999,
      "fzfg": false,
      "metar_trigger": false,
      "taf_trigger": false,
      "metar": "METAR LEAL 280600Z 29004KT CAVOK 08/08 Q1020 NOSIG",
      "taf": "TAF LEAL 280500Z 2806/2906 VRB04KT 9999 FEW025 TX18/2812Z TN07/2806Z"
    },
    {
      "icao": "LEBB",
      "alert": "OK",
      "vis_m": 7000,
      "fzfg": false,
      "metar_trigger": false,
      "taf_trigger": false,
      "metar": "METAR LEBB 280600Z VRB01KT 7000 -RA SCT012 BKN029 BKN037 07/06 Q1027 NOSIG",
      "taf": "TAF LEBB 280500Z 2806/2906 29009KT 9999 FEW010 BKN025 TX12/2812Z TN07/2904Z"
    },
    {
      "icao": "LEBL",
      "alert": "OK",
      "vis_m": 9999,
      "fzfg": false,
      "metar_trigger": false,
      "taf_trigger": false,
      "metar": "METAR LEBL 280600Z 34009KT CAVOK 07/05 Q1018 NOSIG",
      "taf": "TAF LEBL 280500Z 2806/2906 34008KT 9999 FEW020 TX17/2812Z TN08/2806Z"
    },
    {
      "icao": "LECH",
      "alert": "OK",
      "vis_m": 8000,
      "fzfg": false,
      "metar_trigger": false,
      "taf_trigger": false,
      "metar": "METAR LECH 280600Z AUTO 21002KT 8000 NCD 04/03 Q1019",
      "taf": "TAF LECH 280500Z 2806/2906 VRB04KT 9999 FEW030 TX19/2813Z TN04/2806Z"
    },
    {
      "icao": "LEMD",
      "alert": "OK",
      "vis_m": 9999,
      "fzfg": false,
      "metar_trigger": false,
      "taf_trigger": false,
      "metar": "METAR LEMD 280600Z 33005KT CAVOK 02/M01 Q1020 NOSIG",
      "taf": "TAF LEMD 280500Z 2806/2912 VRB05KT CAVOK TX19/2815Z TN02/2906Z"
    },
    {
      "icao": "LEMG",
      "alert": "OK",
      "vis_m": 9999,
      "fzfg": false,
      "metar_trigger": false,
      "taf_trigger": false,
      "metar": "METAR LEMG 280600Z 29005KT 9999 FEW018 09/08 Q1020 NOSIG",
      "taf": "TAF LEMG 280500Z 2806/2906 28005KT 9999 SCT025 BKN045 TX17/2813Z TN13/2806Z"
    },
    {
      "icao": "LEVC",
      "alert": "OK",
      "vis_m": 9999,
      "fzfg": false,
      "metar_trigger": false,
      "taf_trigger": false,
      "metar": "METAR LEVC 280600Z 30007KT CAVOK 07/01 Q1019 NOSIG",
      "taf": "TAF LEVC 280500Z 2806/2906 VRB03KT 9999 FEW025 TX19/2813Z TN07/2806Z"
    },
    {
      "icao": "LEXJ",
      "alert": "OK",
      "vis_m": 8000,
      "fzfg": false,
      "metar_trigger": false,
      "taf_trigger": false,
      "metar": "METAR LEXJ 280600Z 25004KT 8000 -DZ BKN019 BKN025 08/07 Q1028",
      "taf": "TAF LEXJ 280200Z 2803/2903 20006KT 9999 SCT020 BKN040 TX12/2814Z TN07/2803Z"
    },
    {
      "icao": "LEZG",
      "alert": "OK",
      "vis_m": 9999,
      "fzfg": false,
      "metar_trigger": false,
      "taf_trigger": false,
      "metar": "METAR LEZG 280600Z 30019KT CAVOK 07/01 Q1021 NOSIG",
      "taf": "TAF LEZG 280500Z 2806/2906 31020KT 9999 FEW045 TX17/2814Z TN06/2806Z"
    },
    {
      "icao": "LEZL",
      "alert": "OK",
      "vis_m": 9999,
      "fzfg": false,
      "metar_trigger": false,
      "taf_trigger": false,
      "metar": "METAR LEZL 280600Z VRB02KT CAVOK 09/08 Q1019 NOSIG",
      "taf": "TAF LEZL 280200Z 2803/2903 VRB03KT CAVOK TX25/2815Z TN09/2807Z"
    },
    {
      "icao": "LFBD",
      "alert": "OK",
      "vis_m": 9999,
      "fzfg": false,
      "metar_trigger": false,
      "taf_trigger": false,
      "metar": "METAR LFBD 280600Z AUTO 25006KT 9999 FEW020 SCT029 BKN034 07/05 Q1025 TEMPO 4000 -SHRA SCT014 BKN020TCU",
      "taf": "TAF LFBD 280500Z 2806/2912 VRB03KT 9999 BKN040 TX12/2815Z TN04/2905Z"
    },
    {
      "icao": "LFLL",
      "alert": "OK",
      "vis_m": 9999,
      "fzfg": false,
      "metar_trigger": false,
      "taf_trigger": false,
      "metar": "METAR LFLL 280600Z 36002KT CAVOK M01/M04 Q1021 NOSIG",
      "taf": "TAF LFLL 280500Z 2806/2912 VRB02KT CAVOK"
    },
    {
      "icao": "LFLS",
      "alert": "OK",
      "vis_m": 9999,
      "fzfg": false,
      "metar_trigger": false,
      "taf_trigger": false,
      "metar": "METAR LFLS 280600Z AUTO VRB02KT CAVOK M03/M05 Q1020 NOSIG",
      "taf": "TAF LFLS 280200Z 2803/2903 01008KT CAVOK"
    },
    {
      "icao": "LFMN",
      "alert": "OK",
      "vis_m": 9999,
      "fzfg": false,
      "metar_trigger": false,
      "taf_trigger": false,
      "metar": "METAR LFMN 280600Z 33012KT CAVOK 08/M02 Q1012 NOSIG",
      "taf": "TAF LFMN 280200Z 2803/2909 34010KT CAVOK"
    },
    {
      "icao": "LFOB",
      "alert": "OK",
      "vis_m": 9999,
      "fzfg": false,
      "metar_trigger": false,
      "taf_trigger": false,
      "metar": "METAR LFOB 280600Z AUTO 29005KT CAVOK 05/04 Q1021 NOSIG",
      "taf": ""
    },
    {
      "icao": "LFPO",
      "alert": "OK",
      "vis_m": 9999,
      "fzfg": false,
      "metar_trigger": false,
      "taf_trigger": false,
      "metar": "METAR LFPO 280600Z 33010KT 9999 -RA SCT011 SCT020 BKN033 08/06 Q1021 NOSIG",
      "taf": "TAF LFPO 280500Z 2806/2912 34010KT 9999 SCT020"
    },
    {
      "icao": "LFSB",
      "alert": "OK",
      "vis_m": 9999,
      "fzfg": false,
      "metar_trigger": false,
      "taf_trigger": false,
      "metar": "METAR LFSB 280600Z AUTO 18004KT CAVOK M02/M03 Q1021 NOSIG",
      "taf": "TAF LFSB 280500Z 2806/2906 18005KT CAVOK"
    },
    {
      "icao": "LGAV",
      "alert": "OK",
      "vis_m": 9999,
      "fzfg": false,
      "metar_trigger": false,
      "taf_trigger": false,
      "metar": "METAR LGAV 280550Z VRB02KT 9999 FEW025 08/05 Q1003 NOSIG",
      "taf": "TAF LGAV 280500Z 2806/2906 VRB05KT 9999 FEW025 BKN070"
    },
    {
      "icao": "LGTS",
      "alert": "OK",
      "vis_m": 9999,
      "fzfg": false,
      "metar_trigger": false,
      "taf_trigger": false,
      "metar": "METAR LGTS 280550Z 12004KT 9999 FEW020 07/06 Q1002 NOSIG",
      "taf": "TAF LGTS 280500Z 2806/2906 34013KT 9999 SCT025"
    },
    {
      "icao": "LHBP",
      "alert": "OK",
      "vis_m": 9999,
      "fzfg": false,
      "metar_trigger": false,
      "taf_trigger": false,
      "metar": "METAR LHBP 280600Z 34013KT CAVOK 06/M00 Q1009 NOSIG",
      "taf": "TAF LHBP 280515Z 2806/2906 33010KT CAVOK"
    },
    {
      "icao": "LHDC",
      "alert": "OK",
      "vis_m": 9999,
      "fzfg": false,
      "metar_trigger": false,
      "taf_trigger": false,
      "metar": "METAR LHDC 280545Z AUTO 02015KT CAVOK 08/03 Q1006 NOSIG",
      "taf": "TAF LHDC 280515Z 2806/2815 03012G22KT CAVOK"
    },
    {
      "icao": "LIBD",
      "alert": "OK",
      "vis_m": 9999,
      "fzfg": false,
      "metar_trigger": false,
      "taf_trigger": false,
      "metar": "METAR LIBD 280550Z 28009KT 250V310 9999 SCT025 08/05 Q1005",
      "taf": "TAF LIBD 280500Z 2806/2906 28012KT 9999 FEW015 BKN045"
    },
    {
      "icao": "LIBG",
      "alert": "OK",
      "vis_m": null,
      "fzfg": false,
      "metar_trigger": false,
      "taf_trigger": false,
      "metar": "",
      "taf": ""
    },
    {
      "icao": "LIBP",
      "alert": "OK",
      "vis_m": 9999,
      "fzfg": false,
      "metar_trigger": false,
      "taf_trigger": false,
      "metar": "METAR LIBP 280550Z AUTO 22006KT 9999 -RA BKN049/// OVC063/// 06/06 Q1010",
      "taf": "TAF LIBP 280500Z 2806/2906 33012KT 9999 OVC040"
    },
    {
      "icao": "LIBR",
      "alert": "OK",
      "vis_m": 8000,
      "fzfg": false,
      "metar_trigger": false,
      "taf_trigger": false,
      "metar": "METAR LIBR 280550Z 32006KT 260V050 8000 RA BKN020 09/07 Q1004",
      "taf": "TAF LIBR 280500Z 2806/2906 33015KT 9999 BKN040"
    },
    {
      "icao": "LICA",
      "alert": "OK",
      "vis_m": 9999,
      "fzfg": false,
      "metar_trigger": false,
      "taf_trigger": false,
      "metar": "METAR LICA 280550Z AUTO 08004KT 9999 NCD 05/04 Q1006",
      "taf": "TAF LICA 280500Z 2806/2906 VRB06KT 9999 SCT040"
    },
    {
      "icao": "LICC",
      "alert": "OK",
      "vis_m": 9999,
      "fzfg": false,
      "metar_trigger": false,
      "taf_trigger": false,
      "metar": "METAR LICC 280550Z 23007KT CAVOK 06/02 Q1006",
      "taf": "TAF LICC 280500Z 2806/2906 28012KT CAVOK"
    },
    {
      "icao": "LICJ",
      "alert": "OK",
      "vis_m": 9999,
      "fzfg": false,
      "metar_trigger": false,
      "taf_trigger": false,
      "metar": "METAR LICJ 280550Z VRB03KT 9999 SCT030 11/06 Q1009",
      "taf": "TAF LICJ 280500Z 2806/2906 33016KT 9999 SCT030"
    },
    {
      "icao": "LIMC",
      "alert": "OK",
      "vis_m": 9999,
      "fzfg": false,
      "metar_trigger": false,
      "taf_trigger": false,
      "metar": "METAR LIMC 280550Z VRB01KT CAVOK 01/M05 Q1012 NOSIG",
      "taf": "TAF LIMC 280500Z 2806/2912 VRB05KT CAVOK"
    },
    {
      "icao": "LIME",
      "alert": "OK",
      "vis_m": 9999,
      "fzfg": false,
      "metar_trigger": false,
      "taf_trigger": false,
      "metar": "METAR LIME 280550Z AUTO 02006KT 9999 NCD 04/M03 Q1012",
      "taf": "TAF LIME 280500Z 2806/2906 01006KT CAVOK"
    },
    {
      "icao": "LIMF",
      "alert": "OK",
      "vis_m": 9999,
      "fzfg": false,
      "metar_trigger": false,
      "taf_trigger": false,
      "metar": "METAR LIMF 280550Z 29007KT CAVOK 03/M06 Q1013",
      "taf": "TAF LIMF 280500Z 2806/2906 VRB05KT CAVOK"
    },
    {
      "icao": "LIMJ",
      "alert": "OK",
      "vis_m": 9999,
      "fzfg": false,
      "metar_trigger": false,
      "taf_trigger": false,
      "metar": "METAR LIMJ 280550Z AUTO VRB02KT 9999 NCD 11/M06 Q1011",
      "taf": "TAF LIMJ 280500Z 2806/2906 36013KT CAVOK"
    },
    {
      "icao": "LIPE",
      "alert": "OK",
      "vis_m": 9999,
      "fzfg": false,
      "metar_trigger": false,
      "taf_trigger": false,
      "metar": "METAR LIPE 280550Z AUTO 22004KT 9999 NCD 03/M02 Q1012",
      "taf": "TAF LIPE 280500Z 2806/2906 VRB05KT CAVOK"
    },
    {
      "icao": "LIPH",
      "alert": "OK",
      "vis_m": 9999,
      "fzfg": false,
      "metar_trigger": false,
      "taf_trigger": false,
      "metar": "METAR LIPH 280550Z AUTO 22003KT 9999 NCD 05/M01 Q1012",
      "taf": "TAF LIPH 280500Z 2806/2906 VRB05KT CAVOK"
    },
    {
      "icao": "LIPQ",
      "alert": "OK",
      "vis_m": 9999,
      "fzfg": false,
      "metar_trigger": false,
      "taf_trigger": false,
      "metar": "METAR LIPQ 280550Z AUTO VRB02KT 9999 NCD 03/M01 Q1011",
      "taf": "TAF LIPQ 280500Z 2806/2906 VRB05KT CAVOK"
    },
    {
      "icao": "LIPR",
      "alert": "OK",
      "vis_m": 9999,
      "fzfg": false,
      "metar_trigger": false,
      "taf_trigger": false,
      "metar": "METAR LIPR 280550Z AUTO 27004KT 9999 NCD 05/01 Q1011",
      "taf": "TAF LIPR 280500Z 2806/2906 VRB05KT 9999 SCT070"
    },
    {
      "icao": "LIPX",
      "alert": "OK",
      "vis_m": 9999,
      "fzfg": false,
      "metar_trigger": false,
      "taf_trigger": false,
      "metar": "METAR LIPX 280550Z AUTO 31002KT 9999 NCD 05/M07 Q1012",
      "taf": "TAF LIPX 280500Z 2806/2906 VRB05KT CAVOK"
    },
    {
      "icao": "LIPY",
      "alert": "OK",
      "vis_m": 9999,
      "fzfg": false,
      "metar_trigger": false,
      "taf_trigger": false,
      "metar": "METAR LIPY 280550Z AUTO 03009KT 9999 FEW078/// 10/02 Q1011",
      "taf": "TAF LIPY 280500Z 2806/2906 35005KT 9999 OVC050"
    },
    {
      "icao": "LIPZ",
      "alert": "OK",
      "vis_m": 9999,
      "fzfg": false,
      "metar_trigger": false,
      "taf_trigger": false,
      "metar": "METAR LIPZ 280550Z VRB02KT CAVOK 05/M01 Q1012 NOSIG",
      "taf": "TAF LIPZ 280500Z 2806/2912 VRB05KT CAVOK"
    },
    {
      "icao": "LIRF",
      "alert": "OK",
      "vis_m": 9999,
      "fzfg": false,
      "metar_trigger": false,
      "taf_trigger": false,
      "metar": "METAR LIRF 280550Z 36007KT CAVOK 07/01 Q1009 NOSIG",
      "taf": "TAF LIRF 280500Z 2806/2912 01012KT CAVOK"
    },
    {
      "icao": "LIRN",
      "alert": "OK",
      "vis_m": 9999,
      "fzfg": false,
      "metar_trigger": false,
      "taf_trigger": false,
      "metar": "METAR LIRN 280550Z 01003KT 9999 BKN060 08/03 Q1008 NOSIG",
      "taf": "TAF LIRN 280500Z 2806/2906 04008KT 9999 SCT050"
    },
    {
      "icao": "LIRP",
      "alert": "OK",
      "vis_m": 9999,
      "fzfg": false,
      "metar_trigger": false,
      "taf_trigger": false,
      "metar": "METAR LIRP 280545Z 12006KT CAVOK 01/M00 Q1011 NOSIG",
      "taf": "TAF LIRP 280500Z 2806/2906 11004KT CAVOK"
    },
    {
      "icao": "LIRZ",
      "alert": "OK",
      "vis_m": 9999,
      "fzfg": false,
      "metar_trigger": false,
      "taf_trigger": false,
      "metar": "METAR LIRZ 280550Z AUTO 34007KT 9999 NCD 03/02 Q1010",
      "taf": "TAF LIRZ 280500Z 2806/2906 VRB05KT 9999 FEW080"
    },
    {
      "icao": "LJLJ",
      "alert": "OK",
      "vis_m": 9999,
      "fzfg": false,
      "metar_trigger": false,
      "taf_trigger": false,
      "metar": "METAR LJLJ 280600Z 08004KT 030V110 9999 SCT065 BKN090 02/M04 Q1012 NOSIG",
      "taf": "TAF LJLJ 280500Z 2806/2906 VRB02KT 9999 FEW075"
    },
    {
      "icao": "LKMT",
      "alert": "OK",
      "vis_m": 9999,
      "fzfg": false,
      "metar_trigger": false,
      "taf_trigger": false,
      "metar": "METAR LKMT 280600Z 02007KT 9999 OVC029 02/M00 Q1016 NOSIG",
      "taf": "TAF LKMT 280500Z 2806/2906 36010KT 9999 OVC030"
    },
    {
      "icao": "LKPR",
      "alert": "OK",
      "vis_m": 9999,
      "fzfg": false,
      "metar_trigger": false,
      "taf_trigger": false,
      "metar": "METAR LKPR 280600Z 21008KT CAVOK M01/M04 Q1019 NOSIG",
      "taf": "TAF LKPR 280500Z 2806/2912 22006KT CAVOK"
    },
    {
      "icao": "LLBG",
      "alert": "OK",
      "vis_m": 9999,
      "fzfg": false,
      "metar_trigger": false,
      "taf_trigger": false,
      "metar": "METAR LLBG 280550Z VRB02KT CAVOK 16/08 Q1014 NOSIG",
      "taf": "TAF LLBG 280501Z 2806/2906 15005KT CAVOK TX23/2811Z TN15/2900Z"
    },
    {
      "icao": "LMML",
      "alert": "OK",
      "vis_m": 9999,
      "fzfg": false,
      "metar_trigger": false,
      "taf_trigger": false,
      "metar": "METAR LMML 280545Z 30014KT 9999 FEW029 10/06 Q1008 NOSIG",
      "taf": "TAF LMML 280500Z 2806/2906 31018G28KT 9999 FEW025"
    },
    {
      "icao": "LOWW",
      "alert": "OK",
      "vis_m": 9999,
      "fzfg": false,
      "metar_trigger": false,
      "taf_trigger": false,
      "metar": "METAR LOWW 280550Z 32015KT 9999 -SN FEW035 BKN040 03/M02 Q1017 NOSIG",
      "taf": "TAF LOWW 280515Z 2806/2912 32018KT 9999 FEW030 BKN040 TX08/2815Z TN02/2806Z"
    },
    {
      "icao": "LPFR",
      "alert": "OK",
      "vis_m": 9999,
      "fzfg": false,
      "metar_trigger": false,
      "taf_trigger": false,
      "metar": "METAR LPFR 280600Z 02007KT CAVOK 12/11 Q1018",
      "taf": "TAF LPFR 280500Z 2806/2906 04008KT CAVOK"
    },
    {
      "icao": "LPMA",
      "alert": "OK",
      "vis_m": 9999,
      "fzfg": false,
      "metar_trigger": false,
      "taf_trigger": false,
      "metar": "METAR LPMA 280600Z 01014KT 330V030 9999 SCT015 16/10 Q1020",
      "taf": "TAF LPMA 280500Z 2806/2906 02015KT 9999 SCT015"
    },
    {
      "icao": "LPPR",
      "alert": "OK",
      "vis_m": 9999,
      "fzfg": false,
      "metar_trigger": false,
      "taf_trigger": false,
      "metar": "METAR LPPR 280600Z VRB02KT CAVOK 07/06 Q1022",
      "taf": "TAF LPPR 280500Z 2806/2906 VRB02KT CAVOK"
    },
    {
      "icao": "LPPS",
      "alert": "OK",
      "vis_m": 9999,
      "fzfg": false,
      "metar_trigger": false,
      "taf_trigger": false,
      "metar": "METAR LPPS 280600Z 03010G20KT 350V060 9999 SCT014 BKN030 15/12 Q1021",
      "taf": "TAF LPPS 280500Z 2806/2912 02013KT 9999 SCT015 SCT030"
    },
    {
      "icao": "LPPT",
      "alert": "OK",
      "vis_m": 9999,
      "fzfg": false,
      "metar_trigger": false,
      "taf_trigger": false,
      "metar": "METAR LPPT 280600Z 03010KT CAVOK 14/03 Q1019",
      "taf": "TAF LPPT 280500Z 2806/2912 35008KT CAVOK"
    },
    {
      "icao": "LQBK",
      "alert": "OK",
      "vis_m": 8000,
      "fzfg": false,
      "metar_trigger": false,
      "taf_trigger": false,
      "metar": "METAR LQBK 280600Z 28012KT 8000 RA SCT015 OVC025 02/M00 Q1011 NOSIG",
      "taf": "TAF LQBK 280500Z 2806/2906 30011KT 7000 SCT010 BKN015 OVC030 TX05/2813Z TN02/2905Z"
    },
    {
      "icao": "LQSA",
      "alert": "OK",
      "vis_m": 8000,
      "fzfg": false,
      "metar_trigger": false,
      "taf_trigger": false,
      "metar": "METAR LQSA 280600Z 32004KT 8000 -SN SCT015 BKN030 01/00 Q1007 TEMPO 3000 SN BKN012 OVC025",
      "taf": "TAF LQSA 280500Z 2806/2906 28006KT 8000 SCT015 BKN035 TX03/2813Z TN00/2906Z"
    },
    {
      "icao": "LQTZ",
      "alert": "OK",
      "vis_m": 2100,
      "fzfg": false,
      "metar_trigger": false,
      "taf_trigger": false,
      "metar": "METAR LQTZ 280600Z 29007KT 2100 -SN BR BKN002 OVC010 00/00 Q1008",
      "taf": "TAF LQTZ 280500Z 2806/2906 28007KT 5000 -SN SCT004 BKN007 OVC020 TX02/2814Z TN00/2905Z"
    },
    {
      "icao": "LRBC",
      "alert": "OK",
      "vis_m": 9999,
      "fzfg": false,
      "metar_trigger": false,
      "taf_trigger": false,
      "metar": "METAR LRBC 280600Z 36008KT 9999 -RA BKN029 07/03 Q1010",
      "taf": "TAF LRBC 280500Z 2806/2815 35008KT 9999 BKN035"
    },
    {
      "icao": "LRBS",
      "alert": "OK",
      "vis_m": 5000,
      "fzfg": false,
      "metar_trigger": false,
      "taf_trigger": false,
      "metar": "METAR LRBS 280600Z 05013KT 020V080 5000 RA BKN005 OVC030 08/07 Q1004 NOSIG",
      "taf": "TAF LRBS 280500Z 2806/2906 05014KT 5000 -RA BR BKN005 OVC020"
    },
    {
      "icao": "LRBV",
      "alert": "OK",
      "vis_m": 9999,
      "fzfg": false,
      "metar_trigger": false,
      "taf_trigger": false,
      "metar": "METAR LRBV 280600Z 08011KT 9999 -RA FEW011 SCT024 BKN038 06/04 Q1006",
      "taf": "TAF LRBV 280500Z 2806/2815 07012KT 9999 BKN020 BKN040"
    },
    {
      "icao": "LRCL",
      "alert": "OK",
      "vis_m": 9999,
      "fzfg": false,
      "metar_trigger": false,
      "taf_trigger": false,
      "metar": "METAR LRCL 280600Z 00000KT 9999 -RA OVC051 07/04 Q1006",
      "taf": "TAF LRCL 280500Z 2806/2815 VRB04KT 9999 BKN055"
    },
    {
      "icao": "LRCV",
      "alert": "OK",
      "vis_m": 9999,
      "fzfg": false,
      "metar_trigger": false,
      "taf_trigger": false,
      "metar": "METAR LRCV 280600Z 10010KT 9999 -DZ BKN004 07/07 Q1002",
      "taf": "TAF LRCV 280500Z 2806/2815 10014KT 9999 BKN010"
    },
    {
      "icao": "LRIA",
      "alert": "OK",
      "vis_m": 9999,
      "fzfg": false,
      "metar_trigger": false,
      "taf_trigger": false,
      "metar": "METAR LRIA 280600Z 27003KT 230V310 9999 BKN040 05/02 Q1010",
      "taf": "TAF LRIA 280500Z 2806/2815 VRB04KT CAVOK"
    },
    {
      "icao": "LROP",
      "alert": "OK",
      "vis_m": 5000,
      "fzfg": false,
      "metar_trigger": false,
      "taf_trigger": false,
      "metar": "METAR LROP 280600Z 05017KT 5000 RA BR BKN005 OVC010 07/07 Q1004 NOSIG",
      "taf": "TAF LROP 280500Z 2806/2906 07020KT 5000 -RA BR BKN005 OVC020"
    },
    {
      "icao": "LRSB",
      "alert": "OK",
      "vis_m": 9999,
      "fzfg": false,
      "metar_trigger": false,
      "taf_trigger": false,
      "metar": "METAR LRSB 280600Z VRB02KT 9999 SCT021 BKN032 07/05 Q1004",
      "taf": "TAF LRSB 280500Z 2806/2906 VRB04KT 9999 BKN035"
    },
    {
      "icao": "LRSM",
      "alert": "OK",
      "vis_m": 9999,
      "fzfg": false,
      "metar_trigger": false,
      "taf_trigger": false,
      "metar": "METAR LRSM 280600Z AUTO 12002KT 9999 SCT070/// BKN095/// 07/02 Q1007",
      "taf": "TAF LRSM 280200Z 2803/2812 06007KT CAVOK"
    },
    {
      "icao": "LRSV",
      "alert": "OK",
      "vis_m": 9999,
      "fzfg": false,
      "metar_trigger": false,
      "taf_trigger": false,
      "metar": "METAR LRSV 280600Z 32006KT 280V340 CAVOK 06/02 Q1009",
      "taf": "TAF LRSV 280500Z 2806/2815 32007KT CAVOK"
    },
    {
      "icao": "LRTM",
      "alert": "OK",
      "vis_m": 9999,
      "fzfg": false,
      "metar_trigger": false,
      "taf_trigger": false,
      "metar": "METAR LRTM 280600Z 05008KT 9999 -RA SCT048 08/04 Q1005",
      "taf": "TAF LRTM 280500Z 2806/2815 08006KT 9999 SCT045"
    },
    {
      "icao": "LRTR",
      "alert": "OK",
      "vis_m": 4500,
      "fzfg": false,
      "metar_trigger": false,
      "taf_trigger": false,
      "metar": "METAR LRTR 280600Z 36007KT 4500 RA BR BKN038 OVC047 06/06 Q1004",
      "taf": "TAF LRTR 280500Z 2806/2906 36010KT 5000 RA BKN040"
    },
    {
      "icao": "LTAC",
      "alert": "OK",
      "vis_m": 9999,
      "fzfg": false,
      "metar_trigger": false,
      "taf_trigger": false,
      "metar": "METAR LTAC 280550Z 23003KT 190V260 CAVOK 05/02 Q1010 NOSIG RMK RWY21C VRB01KT RWY03L VRB02KT RWY21R VRB01KT RWY03R VRB02KT RWY21L VRB01KT",
      "taf": "TAF LTAC 280440Z 2806/2906 VRB02KT CAVOK"
    },
    {
      "icao": "LTFM",
      "alert": "OK",
      "vis_m": 9999,
      "fzfg": false,
      "metar_trigger": false,
      "taf_trigger": false,
      "metar": "METAR LTFM 280550Z 17012KT 9999 -SHRA SCT040 BKN080 11/08 Q1004 NOSIG RMK RWY17L 17014KT RWY34L 16011KT RWY16R 18011KT RWY36 16011KT RWY18 17014KT",
      "taf": "TAF LTFM 280440Z 2806/2912 19013KT 9999 SCT040 BKN090"
    },
    {
      "icao": "LUKK",
      "alert": "OK",
      "vis_m": 9999,
      "fzfg": false,
      "metar_trigger": false,
      "taf_trigger": false,
      "metar": "METAR LUKK 280600Z VRB01KT 9999 SCT036 08/05 Q1009 NOSIG",
      "taf": "TAF LUKK 280516Z 2806/2906 08010KT 9999 SCT040"
    },
    {
      "icao": "LWOH",
      "alert": "OK",
      "vis_m": null,
      "fzfg": false,
      "metar_trigger": false,
      "taf_trigger": false,
      "metar": "",
      "taf": "TAF LWOH 280540Z 2806/2906 28006KT 9999 SCT025 BKN040"
    },
    {
      "icao": "LWSK",
      "alert": "OK",
      "vis_m": 9999,
      "fzfg": false,
      "metar_trigger": false,
      "taf_trigger": false,
      "metar": "METAR LWSK 280550Z VRB01KT 9999 SCT040 08/05 Q1003 NOSIG",
      "taf": "TAF LWSK 280530Z 2806/2906 VRB02KT 9999 BKN040"
    },
    {
      "icao": "LYBE",
      "alert": "OK",
      "vis_m": 5000,
      "fzfg": false,
      "metar_trigger": false,
      "taf_trigger": false,
      "metar": "METAR LYBE 280600Z 29009KT 5000 RA BKN007 05/05 Q1005 NOSIG",
      "taf": "TAF LYBE 280500Z 2806/2906 34014KT 8000 BKN010 BKN027 TX08/2812Z TN05/2905Z"
    },
    {
      "icao": "LYNI",
      "alert": "OK",
      "vis_m": 8000,
      "fzfg": false,
      "metar_trigger": false,
      "taf_trigger": false,
      "metar": "METAR LYNI 280600Z 33012KT 8000 RA SCT007 BKN017 OVC060 02/02 Q1004 NOSIG",
      "taf": "TAF LYNI 280500Z 2806/2906 32012KT 8000 RA BKN010 BKN030 OVC070 TX05/2812Z TN03/2905Z"
    },
    {
      "icao": "LYPG",
      "alert": "OK",
      "vis_m": 9999,
      "fzfg": false,
      "metar_trigger": false,
      "taf_trigger": false,
      "metar": "METAR LYPG 280600Z 34010KT CAVOK 10/M01 Q1004 NOSIG",
      "taf": "TAF LYPG 280500Z 2806/2906 35010KT 9999 FEW060 SCT080 TX14/2812Z TN07/2904Z"
    },
    {
      "icao": "LZIB",
      "alert": "OK",
      "vis_m": 9999,
      "fzfg": false,
      "metar_trigger": false,
      "taf_trigger": false,
      "metar": "METAR LZIB 280600Z 30024KT 9999 FEW018 BKN033 03/M01 Q1014 NOSIG",
      "taf": "TAF LZIB 280519Z 2806/2906 35016KT 9999 FEW016 BKN035"
    },
    {
      "icao": "LZKZ",
      "alert": "OK",
      "vis_m": 9999,
      "fzfg": false,
      "metar_trigger": false,
      "taf_trigger": false,
      "metar": "METAR LZKZ 280600Z 36019KT 9999 FEW018 07/02 Q1009 NOSIG",
      "taf": "TAF LZKZ 280519Z 2806/2906 01020KT 9999 FEW025 BKN040"
    },
    {
      "icao": "LZTT",
      "alert": "OK",
      "vis_m": 9999,
      "fzfg": false,
      "metar_trigger": false,
      "taf_trigger": false,
      "metar": "METAR LZTT 280600Z 27007KT 9999 BKN016 OVC030 02/M01 Q1011 NOSIG",
      "taf": ""
    },
    {
      "icao": "OEJN",
      "alert": "OK",
      "vis_m": 9999,
      "fzfg": false,
      "metar_trigger": false,
      "taf_trigger": false,
      "metar": "METAR OEJN 280600Z 36008KT CAVOK 25/11 Q1014 NOSIG",
      "taf": "TAF OEJN 280500Z 2806/2912 34012KT CAVOK"
    },
    {
      "icao": "OEMA",
      "alert": "OK",
      "vis_m": 9999,
      "fzfg": false,
      "metar_trigger": false,
      "taf_trigger": false,
      "metar": "METAR OEMA 280600Z VRB02KT CAVOK 20/05 Q1018 NOSIG",
      "taf": "TAF OEMA 280500Z 2806/2912 14008KT CAVOK"
    },
    {
      "icao": "OJAI",
      "alert": "OK",
      "vis_m": 4000,
      "fzfg": false,
      "metar_trigger": false,
      "taf_trigger": false,
      "metar": "METAR OJAI 280600Z 14005KT 4000 HZ NSC 10/06 Q1017 NOSIG",
      "taf": "TAF OJAI 280429Z 2806/2912 26010KT 5000 HZ NSC"
    },
    {
      "icao": "OMAA",
      "alert": "OK",
      "vis_m": null,
      "fzfg": false,
      "metar_trigger": false,
      "taf_trigger": false,
      "metar": "",
      "taf": ""
    },
    {
      "icao": "OMDB",
      "alert": "OK",
      "vis_m": null,
      "fzfg": false,
      "metar_trigger": false,
      "taf_trigger": false,
      "metar": "",
      "taf": ""
    },
    {
      "icao": "UAAA",
      "alert": "OK",
      "vis_m": 9999,
      "fzfg": false,
      "metar_trigger": false,
      "taf_trigger": false,
      "metar": "METAR UAAA 280600Z 26002MPS 180V310 9999 NSC 14/00 Q1009 NOSIG",
      "taf": "TAF UAAA 280503Z 2806/2906 34002G07MPS 9999 FEW100 TX18/2810Z TN05/2901Z"
    },
    {
      "icao": "UBBB",
      "alert": "OK",
      "vis_m": 9999,
      "fzfg": false,
      "metar_trigger": false,
      "taf_trigger": false,
      "metar": "METAR UBBB 280600Z 21008KT 9999 -SHRA FEW011 BKN041CB OVC041 12/11 Q0998 NOSIG",
      "taf": "TAF UBBB 280504Z 2806/2906 26005KT 8000 -SHRA SCT010 SCT040CB OVC040 TX14/2810Z TN10/2902Z"
    },
    {
      "icao": "UDSG",
      "alert": "OK",
      "vis_m": 9999,
      "fzfg": false,
      "metar_trigger": false,
      "taf_trigger": false,
      "metar": "METAR UDSG 280600Z 16007KT 9999 -SHRA BKN033CB 04/02 Q1008 NOSIG",
      "taf": "TAF UDSG 280458Z 2806/2906 24006KT 9999 BKN040"
    },
    {
      "icao": "UDYZ",
      "alert": "OK",
      "vis_m": 9999,
      "fzfg": false,
      "metar_trigger": false,
      "taf_trigger": false,
      "metar": "METAR UDYZ 280600Z 04001KT 9999 BKN040CB 09/07 Q1005 NOSIG",
      "taf": "TAF UDYZ 280500Z 2806/2906 16006KT 6000 BKN030"
    },
    {
      "icao": "UGKO",
      "alert": "OK",
      "vis_m": 9999,
      "fzfg": false,
      "metar_trigger": false,
      "taf_trigger": false,
      "metar": "METAR UGKO 280600Z VRB02KT CAVOK 09/08 Q1010 NOSIG",
      "taf": "TAF UGKO 280500Z 2806/2906 26006KT 9999 OVC050 TX18/2811Z TN06/2903Z"
    }
  ]
}