{
  "ts_utc": "2026-02-12T14:35:40Z",
  "threshold_m": 150,
  "source": "stations_override.txt (ICAO list) + aviationweather.gov (METAR/TAF raw)",
  "station_count": 159,
  "stations": [
    {
      "icao": "BIKF",
      "alert": "OK",
      "vis_m": 9999,
      "fzfg": false,
      "metar_trigger": false,
      "taf_trigger": false,
      "metar": "METAR BIKF 121430Z 02010KT CAVOK M03/M11 Q1006",
      "taf": "TAF BIKF 121333Z 1215/1315 02010KT CAVOK TXM03/1215Z TNM07/1309Z"
    },
    {
      "icao": "BKPR",
      "alert": "OK",
      "vis_m": 9999,
      "fzfg": false,
      "metar_trigger": false,
      "taf_trigger": false,
      "metar": "METAR BKPR 121430Z 21008KT 9999 SCT030 12/05 Q0989 NOSIG",
      "taf": "TAF BKPR 121130Z 1212/1312 18008KT 9999 BKN030"
    },
    {
      "icao": "EBCI",
      "alert": "OK",
      "vis_m": 9999,
      "fzfg": false,
      "metar_trigger": false,
      "taf_trigger": false,
      "metar": "METAR EBCI 121420Z 26009KT 220V290 9999 SCT024 BKN040 10/06 Q0985 NOSIG",
      "taf": "TAF EBCI 121115Z 1212/1318 28009KT 9999 SCT012 BKN016"
    },
    {
      "icao": "EDDB",
      "alert": "OK",
      "vis_m": 9999,
      "fzfg": false,
      "metar_trigger": false,
      "taf_trigger": false,
      "metar": "METAR EDDB 121420Z AUTO 14006KT 9999 -RA OVC021 09/07 Q0978 NOSIG",
      "taf": "TAF EDDB 121100Z 1212/1312 15007KT 9999 BKN030"
    },
    {
      "icao": "EDDH",
      "alert": "OK",
      "vis_m": 9999,
      "fzfg": false,
      "metar_trigger": false,
      "taf_trigger": false,
      "metar": "METAR EDDH 121420Z AUTO 04006KT 010V080 9999 -SHRA OVC006 FEW///TCU 02/01 Q0980 TEMPO 4500 RA OVC004",
      "taf": "TAF EDDH 121100Z 1212/1318 07008KT 7000 OVC004"
    },
    {
      "icao": "EDDK",
      "alert": "OK",
      "vis_m": 9999,
      "fzfg": false,
      "metar_trigger": false,
      "taf_trigger": false,
      "metar": "METAR EDDK 121420Z AUTO 28011KT 9999 VCSH SCT016 BKN023 BKN030 FEW///TCU 09/07 Q0983 RESHRA TEMPO 4000 SHRA BKN013",
      "taf": "TAF EDDK 121100Z 1212/1318 28008KT 9999 BKN015"
    },
    {
      "icao": "EDDN",
      "alert": "OK",
      "vis_m": 9999,
      "fzfg": false,
      "metar_trigger": false,
      "taf_trigger": false,
      "metar": "METAR EDDN 121420Z AUTO 23011G21KT 200V260 9999 -RA BKN020 BKN025 BKN030 09/06 Q0981 BECMG 23015G30KT RA",
      "taf": "TAF EDDN 121100Z 1212/1312 21010KT 9999 BKN025"
    },
    {
      "icao": "EDDS",
      "alert": "OK",
      "vis_m": 9999,
      "fzfg": false,
      "metar_trigger": false,
      "taf_trigger": false,
      "metar": "METAR EDDS 121420Z AUTO 26012KT 220V280 9999 BKN028 BKN040 09/05 Q0985 NOSIG",
      "taf": "TAF EDDS 121100Z 1212/1312 22012KT 9999 SCT035"
    },
    {
      "icao": "EDFH",
      "alert": "OK",
      "vis_m": 9999,
      "fzfg": false,
      "metar_trigger": false,
      "taf_trigger": false,
      "metar": "METAR EDFH 121420Z 26014KT 9999 SCT015 08/04 Q0983",
      "taf": "TAF EDFH 121100Z 1212/1312 28015KT 9999 BKN015"
    },
    {
      "icao": "EDJA",
      "alert": "OK",
      "vis_m": 9999,
      "fzfg": false,
      "metar_trigger": false,
      "taf_trigger": false,
      "metar": "METAR EDJA 121420Z 24023G33KT 9999 -RA BKN012 BKN023 OVC026 06/04 Q0987",
      "taf": "TAF EDJA 121400Z 1215/1224 24015G25KT 9999 SCT014 BKN020"
    },
    {
      "icao": "EDLW",
      "alert": "OK",
      "vis_m": 9999,
      "fzfg": false,
      "metar_trigger": false,
      "taf_trigger": false,
      "metar": "METAR EDLW 121420Z 26008KT 230V290 9999 R24///// SCT011 SCT026 OVC032 08/07 Q0981",
      "taf": "TAF EDLW 121100Z 1212/1312 27006KT 6000 BKN010"
    },
    {
      "icao": "EDNY",
      "alert": "OK",
      "vis_m": 9999,
      "fzfg": false,
      "metar_trigger": false,
      "taf_trigger": false,
      "metar": "METAR EDNY 121420Z 25018G28KT 220V290 9999 -RA FEW020 BKN024 OVC028 08/05 Q0989",
      "taf": "TAF EDNY 121400Z 1215/1224 23020G30KT 9999 OVC020"
    },
    {
      "icao": "EDSB",
      "alert": "OK",
      "vis_m": 9999,
      "fzfg": false,
      "metar_trigger": false,
      "taf_trigger": false,
      "metar": "METAR EDSB 121420Z 23011KT 200V260 9999 SCT036 BKN043 10/07 Q0987",
      "taf": "TAF EDSB 121100Z 1212/1312 21015KT 9999 BKN035"
    },
    {
      "icao": "EETN",
      "alert": "OK",
      "vis_m": 9999,
      "fzfg": false,
      "metar_trigger": false,
      "taf_trigger": false,
      "metar": "METAR EETN 121420Z 07007KT CAVOK M06/M09 Q0993 NOSIG",
      "taf": "TAF EETN 121130Z 1212/1312 07006KT CAVOK"
    },
    {
      "icao": "EFTU",
      "alert": "OK",
      "vis_m": 9999,
      "fzfg": false,
      "metar_trigger": false,
      "taf_trigger": false,
      "metar": "METAR EFTU 121420Z AUTO 05006KT 010V080 9999 OVC011 M11/M14 Q0996",
      "taf": "TAF EFTU 121127Z 1212/1312 05006KT 9999 BKN007"
    },
    {
      "icao": "EGBB",
      "alert": "OK",
      "vis_m": 7000,
      "fzfg": false,
      "metar_trigger": false,
      "taf_trigger": false,
      "metar": "METAR EGBB 121420Z 02006KT 7000 -RA OVC010 06/05 Q0986",
      "taf": ""
    },
    {
      "icao": "EGGP",
      "alert": "OK",
      "vis_m": 9999,
      "fzfg": false,
      "metar_trigger": false,
      "taf_trigger": false,
      "metar": "METAR EGGP 121420Z 07010KT 9999 -RA BKN021 06/03 Q0986",
      "taf": "TAF EGGP 121056Z 1212/1312 05006KT 9999 SCT014 BKN030"
    },
    {
      "icao": "EGGW",
      "alert": "OK",
      "vis_m": 8000,
      "fzfg": false,
      "metar_trigger": false,
      "taf_trigger": false,
      "metar": "METAR EGGW 121420Z 35007KT 290V030 8000 -RA BKN005CB BKN009 07/06 Q0985 RERA",
      "taf": "TAF EGGW 121055Z 1212/1312 32010KT 9999 SCT020"
    },
    {
      "icao": "EGKK",
      "alert": "OK",
      "vis_m": 9999,
      "fzfg": false,
      "metar_trigger": false,
      "taf_trigger": false,
      "metar": "METAR EGKK 121420Z 26013KT 9999 -RA BKN010 BKN018 10/08 Q0986",
      "taf": "TAF EGKK 121059Z 1212/1318 26010KT 9999 SCT010 BKN020"
    },
    {
      "icao": "EGNM",
      "alert": "OK",
      "vis_m": 9999,
      "fzfg": false,
      "metar_trigger": false,
      "taf_trigger": false,
      "metar": "METAR EGNM 121420Z 03005KT 020V080 9999 SCT009 BKN014 04/02 Q0986",
      "taf": "TAF EGNM 121059Z 1212/1312 05011KT 9999 SCT007 BKN012"
    },
    {
      "icao": "EGPD",
      "alert": "OK",
      "vis_m": 9999,
      "fzfg": false,
      "metar_trigger": false,
      "taf_trigger": false,
      "metar": "METAR EGPD 121420Z COR AUTO 07008KT 050V130 9999 NCD 03/M01 Q0992 NOSIG",
      "taf": "TAF EGPD 121057Z 1212/1312 05010KT 9999 SCT012 BKN025"
    },
    {
      "icao": "EGPF",
      "alert": "OK",
      "vis_m": 9999,
      "fzfg": false,
      "metar_trigger": false,
      "taf_trigger": false,
      "metar": "METAR EGPF 121420Z AUTO 06017KT 9999 -RA BKN017 OVC033 04/01 Q0991",
      "taf": "TAF EGPF 121053Z 1212/1312 07012KT 9999 BKN020"
    },
    {
      "icao": "EHBK",
      "alert": "OK",
      "vis_m": 9999,
      "fzfg": false,
      "metar_trigger": false,
      "taf_trigger": false,
      "metar": "METAR EHBK 121425Z AUTO 26005KT 220V340 9999 FEW013 BKN015 BKN019 09/08 Q0984 REDZ TEMPO 6000 RADZ",
      "taf": "TAF EHBK 121121Z 1212/1318 27010KT 9999 BKN009"
    },
    {
      "icao": "EHEH",
      "alert": "OK",
      "vis_m": 9999,
      "fzfg": false,
      "metar_trigger": false,
      "taf_trigger": false,
      "metar": "METAR EHEH 121425Z AUTO 27010KT 230V340 9999 FEW011 SCT016 OVC020 09/07 Q0983 WHT TEMPO 4500 -RADZ BKN005 OVC010",
      "taf": "TAF EHEH 121123Z 1212/1318 27008KT 9999 FEW007 BKN012"
    },
    {
      "icao": "EKBI",
      "alert": "OK",
      "vis_m": 9999,
      "fzfg": false,
      "metar_trigger": false,
      "taf_trigger": false,
      "metar": "METAR EKBI 121420Z AUTO 05015KT 9999 -SN BKN011/// OVC066/// M01/M02 Q0986",
      "taf": "TAF EKBI 121427Z 1215/1315 06015KT 4000 -SN DRSN OVC008"
    },
    {
      "icao": "EKCH",
      "alert": "OK",
      "vis_m": 2500,
      "fzfg": false,
      "metar_trigger": false,
      "taf_trigger": false,
      "metar": "METAR EKCH 121420Z 05015KT 2500 -SN FEW007 BKN010 00/M01 Q0986 TEMPO 4000 BKN008",
      "taf": "TAF EKCH 121427Z 1215/1315 04018KT 3000 -SN BKN008"
    },
    {
      "icao": "ENAL",
      "alert": "OK",
      "vis_m": 9999,
      "fzfg": false,
      "metar_trigger": false,
      "taf_trigger": false,
      "metar": "METAR ENAL 121420Z 16006KT 9999 VCSH FEW030 BKN036 00/M05 Q0991",
      "taf": "TAF ENAL 121100Z 1212/1221 20008KT 9999 FEW012 BKN030"
    },
    {
      "icao": "ENBR",
      "alert": "OK",
      "vis_m": 9999,
      "fzfg": false,
      "metar_trigger": false,
      "taf_trigger": false,
      "metar": "METAR ENBR 121420Z 16003KT 130V190 9999 SCT034 01/M10 Q0993 NOSIG RMK WIND 1200FT 14007KT",
      "taf": "TAF ENBR 121100Z 1212/1312 VRB03KT 9999 FEW020 BKN035"
    },
    {
      "icao": "ENGM",
      "alert": "OK",
      "vis_m": 9999,
      "fzfg": false,
      "metar_trigger": false,
      "taf_trigger": false,
      "metar": "METAR ENGM 121420Z 05006KT 9999 -SHSN FEW022 BKN028 M07/M12 Q0994 NOSIG",
      "taf": ""
    },
    {
      "icao": "ENHD",
      "alert": "OK",
      "vis_m": 9999,
      "fzfg": false,
      "metar_trigger": false,
      "taf_trigger": false,
      "metar": "METAR ENHD 121420Z 17003KT 110V230 CAVOK 01/M11 Q0993",
      "taf": "TAF ENHD 121100Z 1212/1221 11006KT 9999 SCT040"
    },
    {
      "icao": "ENTC",
      "alert": "OK",
      "vis_m": 9999,
      "fzfg": false,
      "metar_trigger": false,
      "taf_trigger": false,
      "metar": "METAR ENTC 121420Z 20013KT 9999 -SHSN BKN022 M07/M11 Q0993 TEMPO 2500 -SHSN VV010 RMK WIND 2600FT 22010KT",
      "taf": "TAF ENTC 121100Z 1212/1312 21012KT 9999 FEW020 BKN035"
    },
    {
      "icao": "ENTO",
      "alert": "OK",
      "vis_m": 9999,
      "fzfg": false,
      "metar_trigger": false,
      "taf_trigger": false,
      "metar": "METAR ENTO 121420Z 03011KT 9999 OVC040 M07/M12 Q0994 NOSIG",
      "taf": ""
    },
    {
      "icao": "ENVA",
      "alert": "OK",
      "vis_m": 9999,
      "fzfg": false,
      "metar_trigger": false,
      "taf_trigger": false,
      "metar": "METAR ENVA 121420Z 11006KT CAVOK M05/M14 Q0994 NOSIG RMK WIND 670FT 15012KT",
      "taf": "TAF ENVA 121100Z 1212/1312 10008KT CAVOK"
    },
    {
      "icao": "ENZV",
      "alert": "OK",
      "vis_m": 9999,
      "fzfg": false,
      "metar_trigger": false,
      "taf_trigger": false,
      "metar": "METAR ENZV 121420Z 34005KT 310V010 CAVOK 00/M11 Q0993 NOSIG",
      "taf": "TAF ENZV 121100Z 1212/1312 10005KT 9999 FEW020 BKN040"
    },
    {
      "icao": "EPGD",
      "alert": "OK",
      "vis_m": 2300,
      "fzfg": false,
      "metar_trigger": false,
      "taf_trigger": false,
      "metar": "METAR EPGD 121430Z 05006KT 2300 -RASN BR OVC002 M00/M00 Q0983",
      "taf": "TAF EPGD 121130Z 1212/1312 06008KT 3500 -SNRA BR OVC002"
    },
    {
      "icao": "EPKK",
      "alert": "OK",
      "vis_m": 9999,
      "fzfg": false,
      "metar_trigger": false,
      "taf_trigger": false,
      "metar": "METAR EPKK 121430Z VRB01KT CAVOK 12/04 Q0984",
      "taf": "TAF EPKK 121430Z 1215/1315 VRB02KT CAVOK"
    },
    {
      "icao": "EPKT",
      "alert": "OK",
      "vis_m": 9999,
      "fzfg": false,
      "metar_trigger": false,
      "taf_trigger": false,
      "metar": "METAR EPKT 121430Z 17004KT CAVOK 11/05 Q0983",
      "taf": "TAF EPKT 121130Z 1212/1312 22011KT CAVOK"
    },
    {
      "icao": "EPLB",
      "alert": "OK",
      "vis_m": 9999,
      "fzfg": false,
      "metar_trigger": false,
      "taf_trigger": false,
      "metar": "METAR EPLB 121430Z VRB02KT 9999 BKN041 05/04 Q0985",
      "taf": "TAF EPLB 121130Z 1212/1312 20010KT 9999 BKN028"
    },
    {
      "icao": "EPMO",
      "alert": "OK",
      "vis_m": 100,
      "fzfg": false,
      "metar_trigger": false,
      "taf_trigger": false,
      "metar": "METAR EPMO 121430Z 07005KT 0100 R08/0125N -DZ FG VV000 03/03 Q0984",
      "taf": "TAF EPMO 121130Z 1212/1312 12005KT 0800 FG OVC002"
    },
    {
      "icao": "EPPO",
      "alert": "OK",
      "vis_m": 8000,
      "fzfg": false,
      "metar_trigger": false,
      "taf_trigger": false,
      "metar": "METAR EPPO 121430Z 11006KT 8000 FEW004 SCT049 08/07 Q0981",
      "taf": "TAF EPPO 121130Z 1212/1312 13005KT 3000 BR BKN001"
    },
    {
      "icao": "EPRA",
      "alert": "OK",
      "vis_m": 9999,
      "fzfg": false,
      "metar_trigger": false,
      "taf_trigger": false,
      "metar": "METAR EPRA 121430Z 14004KT 9999 BKN038 08/04 Q0984",
      "taf": "TAF EPRA 121430Z 1215/1224 16005KT 9999 SCT045"
    },
    {
      "icao": "EPRZ",
      "alert": "OK",
      "vis_m": 9999,
      "fzfg": false,
      "metar_trigger": false,
      "taf_trigger": false,
      "metar": "METAR EPRZ 121430Z 20010KT CAVOK 09/04 Q0986",
      "taf": "TAF EPRZ 121130Z 1212/1312 20012KT CAVOK"
    },
    {
      "icao": "EPSC",
      "alert": "OK",
      "vis_m": 1100,
      "fzfg": false,
      "metar_trigger": false,
      "taf_trigger": false,
      "metar": "METAR EPSC 121430Z 08005KT 1100 R31/1200N BR OVC002 03/03 Q0980",
      "taf": "TAF EPSC 121130Z 1212/1312 07006KT 2500 -RA BR OVC003"
    },
    {
      "icao": "EPSY",
      "alert": "OK",
      "vis_m": 8000,
      "fzfg": false,
      "metar_trigger": false,
      "taf_trigger": false,
      "metar": "METAR EPSY 121430Z VRB02KT 8000 BKN008 03/02 Q0984",
      "taf": "TAF EPSY 121430Z 1215/1224 VRB02KT 9999 BKN010"
    },
    {
      "icao": "EPWA",
      "alert": "OK",
      "vis_m": 550,
      "fzfg": false,
      "metar_trigger": false,
      "taf_trigger": false,
      "metar": "METAR EPWA 121430Z 14005KT 0550 0350W R11/0700N -RA FG BKN002 BKN030 04/04 Q0984 NOSIG",
      "taf": "TAF EPWA 121430Z 1215/1315 15005KT 0400 FG OVC002"
    },
    {
      "icao": "EPWR",
      "alert": "OK",
      "vis_m": 9999,
      "fzfg": false,
      "metar_trigger": false,
      "taf_trigger": false,
      "metar": "METAR EPWR 121430Z 17009KT 9999 -RA FEW024 SCT046 10/05 Q0981",
      "taf": "TAF EPWR 121430Z 1215/1315 17010KT 9999 FEW022"
    },
    {
      "icao": "ESGG",
      "alert": "OK",
      "vis_m": 9999,
      "fzfg": false,
      "metar_trigger": false,
      "taf_trigger": false,
      "metar": "METAR ESGG 121420Z 04011KT 9999 OVC016 M04/M07 Q0990",
      "taf": "TAF ESGG 121430Z 1215/1315 04011KT 9999 BKN016"
    },
    {
      "icao": "ESKN",
      "alert": "OK",
      "vis_m": 9999,
      "fzfg": false,
      "metar_trigger": false,
      "taf_trigger": false,
      "metar": "METAR ESKN 121420Z 03008KT 350V060 9999 SCT021 M04/M08 Q0994",
      "taf": "TAF ESKN 121430Z 1215/1315 02010KT 9999 SCT045"
    },
    {
      "icao": "ESMS",
      "alert": "OK",
      "vis_m": 4000,
      "fzfg": false,
      "metar_trigger": false,
      "taf_trigger": false,
      "metar": "METAR ESMS 121420Z 07018KT 4000 -SN OVC007 00/M01 Q0984",
      "taf": "TAF ESMS 121427Z 1215/1315 05015KT 4000 -SN BKN007"
    },
    {
      "icao": "ESSA",
      "alert": "OK",
      "vis_m": 9999,
      "fzfg": false,
      "metar_trigger": false,
      "taf_trigger": false,
      "metar": "METAR ESSA 121420Z 04012KT 9999 FEW030 M05/M11 Q0995 NOSIG",
      "taf": "TAF ESSA 121430Z 1215/1315 04012KT 9999 FEW030"
    },
    {
      "icao": "EYKA",
      "alert": "OK",
      "vis_m": 2300,
      "fzfg": false,
      "metar_trigger": false,
      "taf_trigger": false,
      "metar": "METAR EYKA 121420Z 06003KT 030V100 2300 -SN BR OVC002 M00/M00 Q0986",
      "taf": "TAF EYKA 121100Z 1212/1312 VRB04KT 3000 BR OVC002"
    },
    {
      "icao": "EYPA",
      "alert": "OK",
      "vis_m": 9999,
      "fzfg": false,
      "metar_trigger": false,
      "taf_trigger": false,
      "metar": "METAR EYPA 121420Z 06009KT 9999 OVC021 M03/M06 Q0987",
      "taf": "TAF EYPA 121100Z 1212/1312 06010KT 9000 SCT010 OVC015"
    },
    {
      "icao": "EYVI",
      "alert": "OK",
      "vis_m": 7000,
      "fzfg": false,
      "metar_trigger": false,
      "taf_trigger": false,
      "metar": "METAR EYVI 121420Z VRB02KT 7000 OVC006 01/M00 Q0986 NOSIG",
      "taf": "TAF EYVI 121100Z 1212/1312 VRB04KT 5000 SN BR OVC005"
    },
    {
      "icao": "GCFV",
      "alert": "OK",
      "vis_m": 9999,
      "fzfg": false,
      "metar_trigger": false,
      "taf_trigger": false,
      "metar": "METAR GCFV 121400Z 02006KT 320V070 9999 SCT012 19/15 Q1024",
      "taf": "TAF GCFV 121400Z 1215/1315 04008KT 9999 SCT015 TX23/1314Z TN17/1306Z"
    },
    {
      "icao": "GCLP",
      "alert": "OK",
      "vis_m": 9999,
      "fzfg": false,
      "metar_trigger": false,
      "taf_trigger": false,
      "metar": "METAR GCLP 121400Z 06008KT 010V100 9999 FEW020 21/16 Q1023 NOSIG",
      "taf": "TAF GCLP 121400Z 1215/1315 04005KT 9999 SCT020 TX23/1314Z TN16/1306Z"
    },
    {
      "icao": "GCTS",
      "alert": "OK",
      "vis_m": 9999,
      "fzfg": false,
      "metar_trigger": false,
      "taf_trigger": false,
      "metar": "METAR GCTS 121400Z 13008KT 080V160 9999 FEW020 23/16 Q1023 NOSIG",
      "taf": "TAF GCTS 121400Z 1215/1315 09015KT 9999 FEW020 TX23/1314Z TN15/1306Z"
    },
    {
      "icao": "GMAD",
      "alert": "OK",
      "vis_m": 5000,
      "fzfg": false,
      "metar_trigger": false,
      "taf_trigger": false,
      "metar": "METAR GMAD 121430Z 22006KT 180V250 5000 SCT006 BKN016 19/18 Q1021 NOSIG",
      "taf": "TAF GMAD 121100Z 1212/1318 26008KT 6000 SCT010 BKN016"
    },
    {
      "icao": "GMMN",
      "alert": "OK",
      "vis_m": 9999,
      "fzfg": false,
      "metar_trigger": false,
      "taf_trigger": false,
      "metar": "METAR GMMN 121430Z 05003KT 340V120 CAVOK 20/15 Q1022 NOSIG",
      "taf": "TAF GMMN 121100Z 1212/1318 14004KT 9999 BKN010"
    },
    {
      "icao": "GMMX",
      "alert": "OK",
      "vis_m": 9999,
      "fzfg": false,
      "metar_trigger": false,
      "taf_trigger": false,
      "metar": "METAR GMMX 121430Z VRB02KT CAVOK 26/14 Q1021 NOSIG",
      "taf": "TAF GMMX 121100Z 1212/1318 06006KT CAVOK"
    },
    {
      "icao": "HEGN",
      "alert": "OK",
      "vis_m": null,
      "fzfg": false,
      "metar_trigger": false,
      "taf_trigger": false,
      "metar": "",
      "taf": "TAF HEGN 121100Z 1212/1318 36010KT CAVOK"
    },
    {
      "icao": "HEMA",
      "alert": "OK",
      "vis_m": null,
      "fzfg": false,
      "metar_trigger": false,
      "taf_trigger": false,
      "metar": "",
      "taf": "TAF HEMA 121100Z 1212/1318 35010KT CAVOK"
    },
    {
      "icao": "HESH",
      "alert": "OK",
      "vis_m": null,
      "fzfg": false,
      "metar_trigger": false,
      "taf_trigger": false,
      "metar": "",
      "taf": "TAF HESH 121100Z 1212/1318 07010KT CAVOK"
    },
    {
      "icao": "HESX",
      "alert": "OK",
      "vis_m": null,
      "fzfg": false,
      "metar_trigger": false,
      "taf_trigger": false,
      "metar": "",
      "taf": "TAF HESX 121150Z 1212/1318 20015KT 7000 NSC"
    },
    {
      "icao": "LATI",
      "alert": "OK",
      "vis_m": 9999,
      "fzfg": false,
      "metar_trigger": false,
      "taf_trigger": false,
      "metar": "METAR LATI 121420Z 15006KT 9999 -RA FEW026 BKN060 15/08 Q0989 NOSIG",
      "taf": "TAF LATI 121100Z 1212/1312 16012KT 9999 SCT040 BKN070 TX15/1212Z TN07/1305Z"
    },
    {
      "icao": "LBPD",
      "alert": "OK",
      "vis_m": 9999,
      "fzfg": false,
      "metar_trigger": false,
      "taf_trigger": false,
      "metar": "METAR LBPD 121430Z AUTO 29004KT 9999 OVC027/// 07/04 Q0992 NOSIG",
      "taf": "TAF LBPD 121100Z 1212/1312 VRB04KT 9999 BKN015"
    },
    {
      "icao": "LBSF",
      "alert": "OK",
      "vis_m": 9999,
      "fzfg": false,
      "metar_trigger": false,
      "taf_trigger": false,
      "metar": "METAR LBSF 121430Z 11009KT 9999 FEW043 SCT052 OVC072 08/05 Q0991 NOSIG",
      "taf": "TAF LBSF 121100Z 1212/1312 VRB04KT 9999 BKN060"
    },
    {
      "icao": "LBWN",
      "alert": "OK",
      "vis_m": 4200,
      "fzfg": false,
      "metar_trigger": false,
      "taf_trigger": false,
      "metar": "METAR LBWN 121430Z 13006KT 4200 -RA BR SCT016 OVC033 08/08 Q0992 TEMPO 5000 RA",
      "taf": "TAF LBWN 121100Z 1212/1312 11010KT 9999 SCT045"
    },
    {
      "icao": "LCLK",
      "alert": "OK",
      "vis_m": 9999,
      "fzfg": false,
      "metar_trigger": false,
      "taf_trigger": false,
      "metar": "METAR LCLK 121430Z 23013KT 9999 FEW025 SCT070 19/16 Q1008 NOSIG",
      "taf": "TAF LCLK 121130Z 1212/1312 20019KT 9999 FEW025 SCT045"
    },
    {
      "icao": "LCPH",
      "alert": "OK",
      "vis_m": 9000,
      "fzfg": false,
      "metar_trigger": false,
      "taf_trigger": false,
      "metar": "METAR LCPH 121430Z 23007KT 180V250 9000 -RA NSC 18/15 Q1008 NOSIG",
      "taf": "TAF LCPH 121130Z 1212/1312 21015KT 8000 -RA FEW025 SCT045"
    },
    {
      "icao": "LEAL",
      "alert": "OK",
      "vis_m": 9999,
      "fzfg": false,
      "metar_trigger": false,
      "taf_trigger": false,
      "metar": "METAR LEAL 121400Z 29019KT 260V330 9999 FEW015 23/01 Q1013 NOSIG",
      "taf": "TAF LEAL 121100Z 1212/1312 28015KT 9999 FEW030 TX23/1213Z TN09/1306Z"
    },
    {
      "icao": "LEBB",
      "alert": "OK",
      "vis_m": 9999,
      "fzfg": false,
      "metar_trigger": false,
      "taf_trigger": false,
      "metar": "METAR LEBB 121400Z 29015KT 260V330 9999 FEW070 17/05 Q1009 NOSIG",
      "taf": "TAF LEBB 121100Z 1212/1312 28013KT 9999 FEW060 TX17/1214Z TN09/1309Z"
    },
    {
      "icao": "LEBL",
      "alert": "OK",
      "vis_m": 9999,
      "fzfg": false,
      "metar_trigger": false,
      "taf_trigger": false,
      "metar": "METAR LEBL 121400Z 29026G36KT 9999 FEW020 19/02 Q1004 NOSIG",
      "taf": "TAF LEBL 121100Z 1212/1312 29025KT 9999 FEW020 TX20/1212Z TN10/1306Z"
    },
    {
      "icao": "LECH",
      "alert": "OK",
      "vis_m": 9000,
      "fzfg": false,
      "metar_trigger": false,
      "taf_trigger": false,
      "metar": "METAR LECH 121400Z AUTO 28019G32KT 250V320 9000 NCD 18/M02 Q1010",
      "taf": ""
    },
    {
      "icao": "LEMD",
      "alert": "OK",
      "vis_m": 9999,
      "fzfg": false,
      "metar_trigger": false,
      "taf_trigger": false,
      "metar": "METAR LEMD 121400Z 23011KT 200V270 9999 SCT050 13/04 Q1015 NOSIG",
      "taf": "TAF LEMD 121100Z 1212/1318 26012KT 9999 FEW030 TX13/1215Z TN08/1307Z"
    },
    {
      "icao": "LEMG",
      "alert": "OK",
      "vis_m": 9999,
      "fzfg": false,
      "metar_trigger": false,
      "taf_trigger": false,
      "metar": "METAR LEMG 121400Z 30010KT 270V340 9999 FEW050 21/10 Q1018 NOSIG",
      "taf": "TAF LEMG 121100Z 1212/1312 30012KT 9999 FEW030 TX23/1214Z TN14/1307Z"
    },
    {
      "icao": "LEVC",
      "alert": "OK",
      "vis_m": 9999,
      "fzfg": false,
      "metar_trigger": false,
      "taf_trigger": false,
      "metar": "METAR LEVC 121400Z 28022KT CAVOK 20/02 Q1012 NOSIG",
      "taf": "TAF LEVC 121100Z 1212/1312 29015KT 9999 FEW045 TX21/1214Z TN12/1306Z"
    },
    {
      "icao": "LEXJ",
      "alert": "OK",
      "vis_m": 9999,
      "fzfg": false,
      "metar_trigger": false,
      "taf_trigger": false,
      "metar": "METAR LEXJ 121400Z 30020KT 280V350 9999 FEW050 16/05 Q1009",
      "taf": "TAF LEXJ 121400Z 1215/1315 28015KT 9999 FEW060 TX17/1215Z TN10/1309Z"
    },
    {
      "icao": "LEZG",
      "alert": "OK",
      "vis_m": 9999,
      "fzfg": false,
      "metar_trigger": false,
      "taf_trigger": false,
      "metar": "METAR LEZG 121400Z 32012G23KT 280V360 9999 SCT070 17/04 Q1009 NOSIG",
      "taf": "TAF LEZG 121100Z 1212/1312 28015KT 9999 FEW050 TX18/1212Z TN08/1306Z"
    },
    {
      "icao": "LEZL",
      "alert": "OK",
      "vis_m": 9999,
      "fzfg": false,
      "metar_trigger": false,
      "taf_trigger": false,
      "metar": "METAR LEZL 121400Z 24009KT 200V280 9999 FEW038 20/11 Q1020 NOSIG",
      "taf": "TAF LEZL 121400Z 1215/1315 24010KT CAVOK TX20/1215Z TN12/1307Z"
    },
    {
      "icao": "LFBD",
      "alert": "OK",
      "vis_m": 9999,
      "fzfg": false,
      "metar_trigger": false,
      "taf_trigger": false,
      "metar": "METAR LFBD 121430Z AUTO 27024G39KT 9999 BKN028/// BKN036/// OVC044/// ///CB 13/09 Q1004 TEMPO 1200 TSRA BKN014 BKN020CB",
      "taf": "TAF LFBD 121100Z 1212/1318 28015G30KT 9999 BKN030 TX13/1214Z TN08/1307Z"
    },
    {
      "icao": "LFLL",
      "alert": "OK",
      "vis_m": 9999,
      "fzfg": false,
      "metar_trigger": false,
      "taf_trigger": false,
      "metar": "METAR LFLL 121430Z 26011KT 9999 -RA FEW020 FEW030TCU SCT033 BKN053 09/07 Q0997 TEMPO 29015G25KT 4000 SHRA BKN035TCU",
      "taf": "TAF LFLL 121100Z 1212/1318 27012KT 9999 BKN040"
    },
    {
      "icao": "LFLS",
      "alert": "OK",
      "vis_m": 4800,
      "fzfg": false,
      "metar_trigger": false,
      "taf_trigger": false,
      "metar": "METAR LFLS 121430Z AUTO 26006KT 230V290 4800 +RA BR FEW012/// BKN020/// BKN027/// ///CB 08/07 Q0998 TEMPO 28015G25KT 2000 +SHRA",
      "taf": "TAF LFLS 121400Z 1215/1315 20012KT 9999 BKN045"
    },
    {
      "icao": "LFMN",
      "alert": "OK",
      "vis_m": 9999,
      "fzfg": false,
      "metar_trigger": false,
      "taf_trigger": false,
      "metar": "METAR LFMN 121430Z COR 10012KT 9999 FEW050 BKN230 15/10 Q0988 BECMG 27020G30KT",
      "taf": "TAF LFMN 121400Z 1215/1321 09014KT CAVOK"
    },
    {
      "icao": "LFOB",
      "alert": "OK",
      "vis_m": 9999,
      "fzfg": false,
      "metar_trigger": false,
      "taf_trigger": false,
      "metar": "METAR LFOB 121430Z AUTO 27017KT 9999 BKN017/// OVC023/// ///CB 11/08 Q0988 TEMPO 28020G30KT 3000 SHRA BKN014TCU",
      "taf": "TAF LFOB 121100Z 1212/1312 28010G20KT 9999 BKN020"
    },
    {
      "icao": "LFPO",
      "alert": "OK",
      "vis_m": 4500,
      "fzfg": false,
      "metar_trigger": false,
      "taf_trigger": false,
      "metar": "METAR LFPO 121400Z 28018G30KT 240V300 4500 -SHRA SCT030TCU BKN030 BKN050 11/07 Q0990 TEMPO 9999 NSW",
      "taf": "TAF LFPO 121100Z 1212/1318 26015G30KT 9999 BKN020"
    },
    {
      "icao": "LFSB",
      "alert": "OK",
      "vis_m": 9999,
      "fzfg": false,
      "metar_trigger": false,
      "taf_trigger": false,
      "metar": "METAR LFSB 121430Z AUTO 25014KT 220V280 9999 FEW024/// BKN032/// BKN054/// ///CB 11/07 Q0991 TEMPO 26020G35KT SHRA",
      "taf": "TAF LFSB 121100Z 1212/1312 25015G25KT 9999 SCT030 BKN050"
    },
    {
      "icao": "LGAV",
      "alert": "OK",
      "vis_m": 9999,
      "fzfg": false,
      "metar_trigger": false,
      "taf_trigger": false,
      "metar": "METAR LGAV 121420Z 24009KT 9999 FEW025 SCT070 16/09 Q0994 NOSIG",
      "taf": "TAF LGAV 121100Z 1212/1312 25013KT 9999 SCT025 SCT070"
    },
    {
      "icao": "LGTS",
      "alert": "OK",
      "vis_m": 9999,
      "fzfg": false,
      "metar_trigger": false,
      "taf_trigger": false,
      "metar": "METAR LGTS 121420Z 14003KT 9999 FEW020 15/07 Q0990 NOSIG",
      "taf": "TAF LGTS 121100Z 1212/1312 14013KT 9999 SCT030"
    },
    {
      "icao": "LHBP",
      "alert": "OK",
      "vis_m": 9999,
      "fzfg": false,
      "metar_trigger": false,
      "taf_trigger": false,
      "metar": "METAR LHBP 121430Z 10008KT CAVOK 12/08 Q0986 NOSIG",
      "taf": "TAF LHBP 121115Z 1212/1312 14006KT 9999 SCT040 BKN070"
    },
    {
      "icao": "LHDC",
      "alert": "OK",
      "vis_m": 9999,
      "fzfg": false,
      "metar_trigger": false,
      "taf_trigger": false,
      "metar": "METAR LHDC 121415Z AUTO 18006KT 150V210 CAVOK 13/07 Q0988 NOSIG",
      "taf": "TAF LHDC 121415Z 1215/1224 18007KT CAVOK"
    },
    {
      "icao": "LIBD",
      "alert": "OK",
      "vis_m": 9999,
      "fzfg": false,
      "metar_trigger": false,
      "taf_trigger": false,
      "metar": "METAR LIBD 121420Z 20009KT 9999 FEW015 BKN030 13/08 Q0985",
      "taf": "TAF LIBD 121100Z 1212/1312 20008KT 9999 SCT040"
    },
    {
      "icao": "LIBG",
      "alert": "OK",
      "vis_m": 5000,
      "fzfg": false,
      "metar_trigger": false,
      "taf_trigger": false,
      "metar": "METAR LIBG 121350Z 16009KT 140V210 5000 RA BKN020 13/12 Q0985",
      "taf": "TAF LIBG 121400Z 1215/1224 17010KT 9999 SCT050"
    },
    {
      "icao": "LIBP",
      "alert": "OK",
      "vis_m": 9999,
      "fzfg": false,
      "metar_trigger": false,
      "taf_trigger": false,
      "metar": "METAR LIBP 121420Z AUTO 23004KT 9999 OVC063/// 11/10 Q0986",
      "taf": "TAF LIBP 121100Z 1212/1312 VRB05KT 9999 BKN050"
    },
    {
      "icao": "LIBR",
      "alert": "OK",
      "vis_m": 4000,
      "fzfg": false,
      "metar_trigger": false,
      "taf_trigger": false,
      "metar": "METAR LIBR 121420Z 20018KT 4000 RA BR BKN020 13/10 Q0987",
      "taf": "TAF LIBR 121100Z 1212/1312 18013KT 9999 SCT050"
    },
    {
      "icao": "LICA",
      "alert": "OK",
      "vis_m": 9999,
      "fzfg": false,
      "metar_trigger": false,
      "taf_trigger": false,
      "metar": "METAR LICA 121420Z AUTO 27028KT 9999 BKN032/// BKN067/// 15/11 Q0990",
      "taf": "TAF LICA 121100Z 1212/1312 26025G40KT 9999 BKN020"
    },
    {
      "icao": "LICC",
      "alert": "OK",
      "vis_m": 9999,
      "fzfg": false,
      "metar_trigger": false,
      "taf_trigger": false,
      "metar": "METAR LICC 121420Z 28013KT 9999 BKN060 17/14 Q0993",
      "taf": "TAF LICC 121100Z 1212/1312 27022G35KT 9999 SCT030"
    },
    {
      "icao": "LICJ",
      "alert": "OK",
      "vis_m": 9000,
      "fzfg": false,
      "metar_trigger": false,
      "taf_trigger": false,
      "metar": "METAR LICJ 121420Z 26031KT 9000 SCT035 16/10 Q0995",
      "taf": "TAF LICJ 121100Z 1212/1312 25025G40KT 9999 SCT020"
    },
    {
      "icao": "LIMC",
      "alert": "OK",
      "vis_m": 9999,
      "fzfg": false,
      "metar_trigger": false,
      "taf_trigger": false,
      "metar": "METAR LIMC 121420Z 25005KT 9999 SCT020 11/06 Q0987 NOSIG",
      "taf": "TAF LIMC 121100Z 1212/1318 VRB05KT 7000 SCT030"
    },
    {
      "icao": "LIME",
      "alert": "OK",
      "vis_m": 9999,
      "fzfg": false,
      "metar_trigger": false,
      "taf_trigger": false,
      "metar": "METAR LIME 121420Z 26009KT 9999 SCT019 SCT030 10/07 Q0987 NOSIG",
      "taf": "TAF LIME 121100Z 1212/1312 28012KT 7000 SCT020"
    },
    {
      "icao": "LIMF",
      "alert": "OK",
      "vis_m": 8000,
      "fzfg": false,
      "metar_trigger": false,
      "taf_trigger": false,
      "metar": "METAR LIMF 121420Z 10003KT 060V150 8000 SCT025 12/05 Q0987",
      "taf": "TAF LIMF 121100Z 1212/1312 VRB05KT 7000 SCT020"
    },
    {
      "icao": "LIMJ",
      "alert": "OK",
      "vis_m": 9999,
      "fzfg": false,
      "metar_trigger": false,
      "taf_trigger": false,
      "metar": "METAR LIMJ 121420Z 35004KT 280V050 CAVOK 14/06 Q0987",
      "taf": "TAF LIMJ 121100Z 1212/1312 03010KT 9999 SCT016"
    },
    {
      "icao": "LIPE",
      "alert": "OK",
      "vis_m": 1800,
      "fzfg": false,
      "metar_trigger": false,
      "taf_trigger": false,
      "metar": "METAR LIPE 121420Z 27009KT 1800 BR BKN003 09/09 Q0988",
      "taf": "TAF LIPE 121100Z 1212/1312 28010KT 0100 FG BKN001"
    },
    {
      "icao": "LIPH",
      "alert": "OK",
      "vis_m": 9999,
      "fzfg": false,
      "metar_trigger": false,
      "taf_trigger": false,
      "metar": "METAR LIPH 121420Z 02003KT 330V060 9999 FEW015 SCT060 12/09 Q0986",
      "taf": "TAF LIPH 121100Z 1212/1312 VRB05KT 4000 BR BKN020"
    },
    {
      "icao": "LIPQ",
      "alert": "OK",
      "vis_m": 9999,
      "fzfg": false,
      "metar_trigger": false,
      "taf_trigger": false,
      "metar": "METAR LIPQ 121420Z AUTO 17005KT 9999 -RA OVC006/// 11/11 Q0986",
      "taf": "TAF LIPQ 121100Z 1212/1312 VRB05KT 8000 BKN012"
    },
    {
      "icao": "LIPR",
      "alert": "OK",
      "vis_m": 7000,
      "fzfg": false,
      "metar_trigger": false,
      "taf_trigger": false,
      "metar": "METAR LIPR 121420Z 31013KT 7000 2000NW DZ BKN006 BKN030 11/10 Q0986",
      "taf": "TAF LIPR 121100Z 1212/1312 12006KT 9999 BKN040"
    },
    {
      "icao": "LIPX",
      "alert": "OK",
      "vis_m": 8000,
      "fzfg": false,
      "metar_trigger": false,
      "taf_trigger": false,
      "metar": "METAR LIPX 121420Z 26010KT 8000 SCT015 BKN030 12/09 Q0987",
      "taf": "TAF LIPX 121100Z 1212/1312 26010KT 9999 SCT030"
    },
    {
      "icao": "LIPY",
      "alert": "OK",
      "vis_m": 9999,
      "fzfg": false,
      "metar_trigger": false,
      "taf_trigger": false,
      "metar": "METAR LIPY 121420Z AUTO 17004KT 130V200 9999 OVC050/// 13/09 Q0985",
      "taf": "TAF LIPY 121100Z 1212/1312 17007KT 9999 BKN060"
    },
    {
      "icao": "LIPZ",
      "alert": "OK",
      "vis_m": 9999,
      "fzfg": false,
      "metar_trigger": false,
      "taf_trigger": false,
      "metar": "METAR LIPZ 121420Z 36005KT 9999 SCT007 BKN055 11/09 Q0986 NOSIG",
      "taf": "TAF LIPZ 121100Z 1212/1318 VRB05KT 6000 BKN015"
    },
    {
      "icao": "LIRF",
      "alert": "OK",
      "vis_m": 9999,
      "fzfg": false,
      "metar_trigger": false,
      "taf_trigger": false,
      "metar": "METAR LIRF 121420Z 05004KT 350V100 9999 SCT030 14/11 Q0987 NOSIG",
      "taf": "TAF LIRF 121100Z 1212/1318 VRB06KT 9999 FEW020"
    },
    {
      "icao": "LIRN",
      "alert": "OK",
      "vis_m": 9999,
      "fzfg": false,
      "metar_trigger": false,
      "taf_trigger": false,
      "metar": "METAR LIRN 121420Z 26010KT 9999 FEW020 BKN050 14/10 Q0986 NOSIG",
      "taf": "TAF LIRN 121100Z 1212/1312 26016KT 9999 SCT020"
    },
    {
      "icao": "LIRP",
      "alert": "OK",
      "vis_m": 9999,
      "fzfg": false,
      "metar_trigger": false,
      "taf_trigger": false,
      "metar": "METAR LIRP 121415Z 27012KT 9999 FEW015 15/12 Q0985 NOSIG",
      "taf": "TAF LIRP 121100Z 1212/1312 27010KT 9999 SCT020 SCT030"
    },
    {
      "icao": "LIRZ",
      "alert": "OK",
      "vis_m": 9999,
      "fzfg": false,
      "metar_trigger": false,
      "taf_trigger": false,
      "metar": "METAR LIRZ 121420Z AUTO 18005KT 140V200 9999 DZRA BKN013/// 11/10 Q0986",
      "taf": "TAF LIRZ 121100Z 1212/1312 25010KT 9999 BKN030"
    },
    {
      "icao": "LJLJ",
      "alert": "OK",
      "vis_m": 6000,
      "fzfg": false,
      "metar_trigger": false,
      "taf_trigger": false,
      "metar": "METAR LJLJ 121400Z VRB01KT 6000 -RA BKN010 BKN033 08/07 Q0986 NOSIG",
      "taf": "TAF LJLJ 121100Z 1212/1312 VRB02KT 9999 SCT003 BKN033"
    },
    {
      "icao": "LKMT",
      "alert": "OK",
      "vis_m": 9999,
      "fzfg": false,
      "metar_trigger": false,
      "taf_trigger": false,
      "metar": "METAR LKMT 121430Z 21013KT 9999 OVC032 10/05 Q0983 NOSIG",
      "taf": "TAF LKMT 121100Z 1212/1312 22012KT 9999 SCT025"
    },
    {
      "icao": "LKPR",
      "alert": "OK",
      "vis_m": 9999,
      "fzfg": false,
      "metar_trigger": false,
      "taf_trigger": false,
      "metar": "METAR LKPR 121430Z 21006KT 9999 BKN035 09/05 Q0980 NOSIG",
      "taf": "TAF LKPR 121400Z 1215/1321 21011KT 9999 BKN035"
    },
    {
      "icao": "LLBG",
      "alert": "OK",
      "vis_m": 9999,
      "fzfg": false,
      "metar_trigger": false,
      "taf_trigger": false,
      "metar": "METAR LLBG 121420Z 26007KT CAVOK 22/07 Q1012 NOSIG",
      "taf": "TAF LLBG 121100Z 1212/1312 23010KT CAVOK"
    },
    {
      "icao": "LMML",
      "alert": "OK",
      "vis_m": 9999,
      "fzfg": false,
      "metar_trigger": false,
      "taf_trigger": false,
      "metar": "METAR LMML 121415Z 28031G42KT 9999 FEW020 17/12 Q0999 TEMPO 8000 SHRA FEW020TCU",
      "taf": ""
    },
    {
      "icao": "LOWW",
      "alert": "OK",
      "vis_m": 9999,
      "fzfg": false,
      "metar_trigger": false,
      "taf_trigger": false,
      "metar": "METAR LOWW 121420Z 04003KT 010V070 CAVOK 11/07 Q0983 NOSIG",
      "taf": "TAF LOWW 121415Z 1215/1321 VRB04KT 9999 FEW050 TX12/1314Z TN05/1321Z"
    },
    {
      "icao": "LPFR",
      "alert": "OK",
      "vis_m": 9999,
      "fzfg": false,
      "metar_trigger": false,
      "taf_trigger": false,
      "metar": "METAR LPFR 121400Z 23009KT 9999 FEW006 17/15 Q1020",
      "taf": "TAF LPFR 121100Z 1212/1312 27007KT 9999 FEW008 SCT020"
    },
    {
      "icao": "LPMA",
      "alert": "OK",
      "vis_m": 9999,
      "fzfg": false,
      "metar_trigger": false,
      "taf_trigger": false,
      "metar": "METAR LPMA 121400Z VRB14G24KT 9999 SCT016 20/12 Q1022",
      "taf": "TAF LPMA 121100Z 1212/1312 VRB05KT 9999 SCT015 SCT030"
    },
    {
      "icao": "LPPR",
      "alert": "OK",
      "vis_m": 6000,
      "fzfg": false,
      "metar_trigger": false,
      "taf_trigger": false,
      "metar": "METAR LPPR 121400Z 20010KT 6000 SCT015 BKN022 14/12 Q1016",
      "taf": "TAF LPPR 121100Z 1212/1312 22010KT 9999 SCT015 SCT025"
    },
    {
      "icao": "LPPS",
      "alert": "OK",
      "vis_m": 9999,
      "fzfg": false,
      "metar_trigger": false,
      "taf_trigger": false,
      "metar": "METAR LPPS 121400Z 26009KT 9999 FEW014 BKN030 18/11 Q1023",
      "taf": "TAF LPPS 121100Z 1212/1318 20008KT 9999 SCT015 SCT030"
    },
    {
      "icao": "LPPT",
      "alert": "OK",
      "vis_m": 9999,
      "fzfg": false,
      "metar_trigger": false,
      "taf_trigger": false,
      "metar": "METAR LPPT 121400Z 22011KT 9999 SCT018 16/12 Q1019",
      "taf": "TAF LPPT 121100Z 1212/1318 25008KT 9999 SCT020"
    },
    {
      "icao": "LQBK",
      "alert": "OK",
      "vis_m": 9999,
      "fzfg": false,
      "metar_trigger": false,
      "taf_trigger": false,
      "metar": "METAR LQBK 121430Z 19005KT 160V230 CAVOK 16/06 Q0985 NOSIG",
      "taf": "TAF LQBK 121100Z 1212/1312 29008KT 9999 SCT045 TX18/1213Z TN05/1306Z"
    },
    {
      "icao": "LQSA",
      "alert": "OK",
      "vis_m": 9999,
      "fzfg": false,
      "metar_trigger": false,
      "taf_trigger": false,
      "metar": "METAR LQSA 121430Z 15011KT 9999 BKN055 12/04 Q0987 NOSIG",
      "taf": "TAF LQSA 121100Z 1212/1312 11005KT 9999 SCT050 TX13/1213Z TN02/1304Z"
    },
    {
      "icao": "LQTZ",
      "alert": "OK",
      "vis_m": 9999,
      "fzfg": false,
      "metar_trigger": false,
      "taf_trigger": false,
      "metar": "METAR LQTZ 121430Z 24004KT 190V300 9999 SCT070 17/02 Q0986",
      "taf": "TAF LQTZ 121100Z 1212/1312 10005KT 9999 SCT055 TX18/1213Z TN06/1306Z"
    },
    {
      "icao": "LRBC",
      "alert": "OK",
      "vis_m": 6000,
      "fzfg": false,
      "metar_trigger": false,
      "taf_trigger": false,
      "metar": "METAR LRBC 121400Z 17010KT 6000 NSC 05/05 Q0991",
      "taf": "TAF LRBC 121400Z 1215/1224 17010KT 7000 NSC"
    },
    {
      "icao": "LRBS",
      "alert": "OK",
      "vis_m": 4800,
      "fzfg": false,
      "metar_trigger": false,
      "taf_trigger": false,
      "metar": "METAR LRBS 121400Z 09004KT 4800 -RA NSC 08/05 Q0992 NOSIG",
      "taf": "TAF LRBS 121100Z 1212/1312 VRB04KT CAVOK"
    },
    {
      "icao": "LRBV",
      "alert": "OK",
      "vis_m": 9999,
      "fzfg": false,
      "metar_trigger": false,
      "taf_trigger": false,
      "metar": "METAR LRBV 121400Z 20012KT CAVOK 11/03 Q0990",
      "taf": "TAF LRBV 121400Z 1215/1224 21015KT CAVOK"
    },
    {
      "icao": "LRCL",
      "alert": "OK",
      "vis_m": 9999,
      "fzfg": false,
      "metar_trigger": false,
      "taf_trigger": false,
      "metar": "METAR LRCL 121400Z 14006KT 110V190 9999 SCT069 13/04 Q0989",
      "taf": "TAF LRCL 121400Z 1215/1224 16008KT CAVOK"
    },
    {
      "icao": "LRCV",
      "alert": "OK",
      "vis_m": 4000,
      "fzfg": false,
      "metar_trigger": false,
      "taf_trigger": false,
      "metar": "METAR LRCV 121400Z 13003KT 4000 BR FEW004 03/02 Q0992",
      "taf": "TAF LRCV 121400Z 1215/1224 VRB04KT 3000 BR BKN005"
    },
    {
      "icao": "LRIA",
      "alert": "OK",
      "vis_m": 9999,
      "fzfg": false,
      "metar_trigger": false,
      "taf_trigger": false,
      "metar": "METAR LRIA 121400Z 11013KT CAVOK 07/04 Q0991",
      "taf": "TAF LRIA 121400Z 1215/1224 10010KT CAVOK"
    },
    {
      "icao": "LROP",
      "alert": "OK",
      "vis_m": 7000,
      "fzfg": false,
      "metar_trigger": false,
      "taf_trigger": false,
      "metar": "METAR LROP 121400Z 08004KT 050V110 7000 -RA NSC 08/03 Q0992 NOSIG",
      "taf": "TAF LROP 121100Z 1212/1312 VRB04KT CAVOK"
    },
    {
      "icao": "LRSB",
      "alert": "OK",
      "vis_m": 9999,
      "fzfg": false,
      "metar_trigger": false,
      "taf_trigger": false,
      "metar": "METAR LRSB 121400Z 18012KT 150V210 9999 SCT065 14/02 Q0988 NOSIG",
      "taf": "TAF LRSB 121100Z 1212/1312 VRB04KT CAVOK"
    },
    {
      "icao": "LRSM",
      "alert": "OK",
      "vis_m": 9999,
      "fzfg": false,
      "metar_trigger": false,
      "taf_trigger": false,
      "metar": "METAR LRSM 121400Z 13006KT CAVOK 13/05 Q0989",
      "taf": "TAF LRSM 121400Z 1215/1224 15006KT CAVOK"
    },
    {
      "icao": "LRSV",
      "alert": "OK",
      "vis_m": 9999,
      "fzfg": false,
      "metar_trigger": false,
      "taf_trigger": false,
      "metar": "METAR LRSV 121400Z COR 17007KT CAVOK 07/04 Q0988",
      "taf": "TAF LRSV 121400Z 1215/1224 16006KT CAVOK"
    },
    {
      "icao": "LRTM",
      "alert": "OK",
      "vis_m": 9999,
      "fzfg": false,
      "metar_trigger": false,
      "taf_trigger": false,
      "metar": "METAR LRTM 121400Z 10004KT 060V140 CAVOK 14/02 Q0989",
      "taf": "TAF LRTM 121400Z 1215/1224 VRB04KT CAVOK"
    },
    {
      "icao": "LRTR",
      "alert": "OK",
      "vis_m": 9999,
      "fzfg": false,
      "metar_trigger": false,
      "taf_trigger": false,
      "metar": "METAR LRTR 121400Z 17013KT 9999 FEW048 15/05 Q0988",
      "taf": "TAF LRTR 121100Z 1212/1312 18012KT CAVOK"
    },
    {
      "icao": "LTAC",
      "alert": "OK",
      "vis_m": 9999,
      "fzfg": false,
      "metar_trigger": false,
      "taf_trigger": false,
      "metar": "METAR LTAC 121420Z 19003KT 130V220 9999 SCT040 BKN120 09/04 Q1000 NOSIG RMK RWY21C 14007KT RWY03L 17004KT 120V220 RWY21R 13007KT 070V150 RWY03R VRB02KT RWY21L 13004KT 090V170",
      "taf": "TAF LTAC 121040Z 1212/1312 VRB02KT 9999 SCT040 BKN100"
    },
    {
      "icao": "LTFM",
      "alert": "OK",
      "vis_m": 9999,
      "fzfg": false,
      "metar_trigger": false,
      "taf_trigger": false,
      "metar": "METAR LTFM 121420Z 20015KT 9999 -SHRA BKN029 BKN090 12/09 Q0992 NOSIG RMK RWY17L 20018KT RWY34L 19014KT RWY16R 20012KT RWY36 19016KT RWY18 20015KT",
      "taf": "TAF LTFM 121040Z 1212/1318 18014KT 9999 -SHRA BKN028 BKN080"
    },
    {
      "icao": "LUKK",
      "alert": "OK",
      "vis_m": 8000,
      "fzfg": false,
      "metar_trigger": false,
      "taf_trigger": false,
      "metar": "METAR LUKK 121430Z 18006KT 8000 SCT008 BKN017 05/05 Q0993 NOSIG",
      "taf": "TAF LUKK 121117Z 1212/1312 15008KT 9999 BKN015"
    },
    {
      "icao": "LWOH",
      "alert": "OK",
      "vis_m": 9999,
      "fzfg": false,
      "metar_trigger": false,
      "taf_trigger": false,
      "metar": "METAR LWOH 121420Z 13005KT 9999 SCT020 BKN035 10/06 Q0990",
      "taf": "TAF LWOH 121100Z 1212/1312 15010KT 9999 RA SCT010 OVC040"
    },
    {
      "icao": "LWSK",
      "alert": "OK",
      "vis_m": 9999,
      "fzfg": false,
      "metar_trigger": false,
      "taf_trigger": false,
      "metar": "METAR LWSK 121420Z VRB02KT 9999 FEW032 BKN068 13/06 Q0990 NOSIG",
      "taf": "TAF LWSK 121100Z 1212/1312 VRB02KT 9999 SCT020 SCT040"
    },
    {
      "icao": "LYBE",
      "alert": "OK",
      "vis_m": 9999,
      "fzfg": false,
      "metar_trigger": false,
      "taf_trigger": false,
      "metar": "METAR LYBE 121430Z 25004KT 210V300 CAVOK 17/03 Q0987 NOSIG",
      "taf": "TAF LYBE 121100Z 1212/1312 13010KT CAVOK TX17/1213Z TN05/1306Z"
    },
    {
      "icao": "LYNI",
      "alert": "OK",
      "vis_m": 9999,
      "fzfg": false,
      "metar_trigger": false,
      "taf_trigger": false,
      "metar": "METAR LYNI 121430Z 15006KT 110V180 9999 BKN060 14/06 Q0989 NOSIG",
      "taf": "TAF LYNI 121100Z 1212/1312 12010KT 9999 SCT040 TX15/1212Z TN05/1306Z"
    },
    {
      "icao": "LYPG",
      "alert": "OK",
      "vis_m": 8000,
      "fzfg": false,
      "metar_trigger": false,
      "taf_trigger": false,
      "metar": "METAR LYPG 121430Z 15003KT 120V200 8000 FEW005 SCT030 BKN050 12/10 Q0989 TEMPO 5000 RA",
      "taf": "TAF LYPG 121100Z 1212/1312 16005KT 6000 RA FEW010 BKN030 OVC060 TX14/1312Z TN07/1305Z"
    },
    {
      "icao": "LZIB",
      "alert": "OK",
      "vis_m": 9999,
      "fzfg": false,
      "metar_trigger": false,
      "taf_trigger": false,
      "metar": "METAR LZIB 121430Z 02007KT 9999 FEW010 10/09 Q0984 NOSIG",
      "taf": "TAF LZIB 121115Z 1212/1312 10006KT 9999 SCT020"
    },
    {
      "icao": "LZKZ",
      "alert": "OK",
      "vis_m": 4500,
      "fzfg": false,
      "metar_trigger": false,
      "taf_trigger": false,
      "metar": "METAR LZKZ 121430Z VRB01KT 4500 BR OVC008 07/06 Q0988 NOSIG",
      "taf": "TAF LZKZ 121115Z 1212/1312 21005KT 2500 BR FEW003 OVC006"
    },
    {
      "icao": "LZTT",
      "alert": "OK",
      "vis_m": 9999,
      "fzfg": false,
      "metar_trigger": false,
      "taf_trigger": false,
      "metar": "METAR LZTT 121430Z 24005KT 220V280 9999 FEW023 BKN033 07/03 Q0985 NOSIG",
      "taf": "TAF LZTT 121115Z 1212/1312 25012KT 9999 SCT025"
    },
    {
      "icao": "OEJN",
      "alert": "OK",
      "vis_m": 9999,
      "fzfg": false,
      "metar_trigger": false,
      "taf_trigger": false,
      "metar": "METAR OEJN 121400Z 30009KT CAVOK 28/19 Q1012 NOSIG",
      "taf": "TAF OEJN 121100Z 1212/1318 28012KT CAVOK"
    },
    {
      "icao": "OEMA",
      "alert": "OK",
      "vis_m": 9999,
      "fzfg": false,
      "metar_trigger": false,
      "taf_trigger": false,
      "metar": "METAR OEMA 121400Z 25004KT CAVOK 30/05 Q1015 NOSIG",
      "taf": "TAF OEMA 121100Z 1212/1318 27008KT CAVOK"
    },
    {
      "icao": "OJAI",
      "alert": "OK",
      "vis_m": 5000,
      "fzfg": false,
      "metar_trigger": false,
      "taf_trigger": false,
      "metar": "METAR OJAI 121400Z 25008KT 5000 HZ NSC 18/04 Q1015 NOSIG",
      "taf": "TAF OJAI 121100Z 1212/1318 24014KT 4000 HZ FEW035"
    },
    {
      "icao": "OMAA",
      "alert": "OK",
      "vis_m": 9999,
      "fzfg": false,
      "metar_trigger": false,
      "taf_trigger": false,
      "metar": "METAR OMAA 121430Z 32009KT CAVOK 26/19 Q1015 NOSIG",
      "taf": "TAF OMAA 121100Z 1212/1318 16010KT 8000 NSC"
    },
    {
      "icao": "OMDB",
      "alert": "OK",
      "vis_m": 9999,
      "fzfg": false,
      "metar_trigger": false,
      "taf_trigger": false,
      "metar": "METAR OMDB 121430Z 01008KT 340V040 CAVOK 26/17 Q1016 NOSIG",
      "taf": "TAF OMDB 121100Z 1212/1318 32012KT 8000 NSC"
    },
    {
      "icao": "UAAA",
      "alert": "OK",
      "vis_m": 1000,
      "fzfg": false,
      "metar_trigger": false,
      "taf_trigger": false,
      "metar": "SPECI UAAA 121427Z 24003MPS 1000 R23L/P2000U SHSN BR BKN016CB OVC100 M04/M05 Q1021 NOSIG",
      "taf": "TAF UAAA 121107Z 1212/1312 32003MPS 2000 -SHSN BR BKN005 OVC011CB TX00/1309Z TNM05/1303Z"
    },
    {
      "icao": "UBBB",
      "alert": "OK",
      "vis_m": 9999,
      "fzfg": false,
      "metar_trigger": false,
      "taf_trigger": false,
      "metar": "METAR UBBB 121430Z 17012KT CAVOK 06/03 Q1013 NOSIG",
      "taf": "TAF UBBB 121055Z 1212/1312 17010KT 9999 SCT025 TX07/1212Z TN04/1301Z"
    },
    {
      "icao": "UDSG",
      "alert": "OK",
      "vis_m": 9000,
      "fzfg": false,
      "metar_trigger": false,
      "taf_trigger": false,
      "metar": "METAR UDSG 121400Z 28003KT 9000 OVC020 M01/M01 Q1014 NOSIG",
      "taf": "TAF UDSG 121058Z 1212/1312 VRB06KT 1500 BR OVC010"
    },
    {
      "icao": "UDYZ",
      "alert": "OK",
      "vis_m": 9999,
      "fzfg": false,
      "metar_trigger": false,
      "taf_trigger": false,
      "metar": "METAR UDYZ 121400Z 00000KT 9999 OVC013 04/02 Q1015 NOSIG",
      "taf": "TAF UDYZ 121100Z 1212/1312 VRB06KT 3500 BR OVC020"
    },
    {
      "icao": "UGKO",
      "alert": "OK",
      "vis_m": 9999,
      "fzfg": false,
      "metar_trigger": false,
      "taf_trigger": false,
      "metar": "METAR UGKO 121400Z 08017KT CAVOK 15/03 Q1006 NOSIG",
      "taf": "TAF UGKO 121100Z 1212/1312 08017KT CAVOK TX19/1311Z TN10/1302Z"
    }
  ]
}