{
  "ts_utc": "2025-12-21T10:46:59Z",
  "threshold_m": 150,
  "source": "stations_override.txt (ICAO list) + aviationweather.gov (METAR/TAF raw)",
  "station_count": 114,
  "stations": [
    {
      "icao": "BIKF",
      "alert": "OK",
      "vis_m": 9999,
      "fzfg": false,
      "metar_trigger": false,
      "taf_trigger": false,
      "metar": "METAR BIKF 211030Z 12019KT 9999 VCSH BKN014 OVC030 09/07 Q1009",
      "taf": "TAF BIKF 211037Z 2112/2212 11018G28KT 9999 BKN025 TX08/2112Z TN06/2205Z"
    },
    {
      "icao": "BKPR",
      "alert": "OK",
      "vis_m": 2500,
      "fzfg": true,
      "metar_trigger": false,
      "taf_trigger": false,
      "metar": "METAR BKPR 211030Z 01003KT 340V040 2500 BR BKN008 01/01 Q1019 TEMPO 5000 BR BKN010",
      "taf": "TAF BKPR 210530Z 2106/2206 VRB03KT 0150 FZFG BKN002"
    },
    {
      "icao": "EBBR",
      "alert": "OK",
      "vis_m": 9999,
      "fzfg": false,
      "metar_trigger": false,
      "taf_trigger": false,
      "metar": "METAR EBBR 211020Z 11005KT CAVOK 10/09 Q1011 NOSIG",
      "taf": "TAF EBBR 210516Z 2106/2212 10005KT CAVOK"
    },
    {
      "icao": "EBCI",
      "alert": "OK",
      "vis_m": 9999,
      "fzfg": false,
      "metar_trigger": false,
      "taf_trigger": false,
      "metar": "METAR EBCI 211020Z 11006KT 090V150 CAVOK 11/10 Q1010 NOSIG",
      "taf": "TAF EBCI 210516Z 2106/2212 12005KT 9999 SCT040"
    },
    {
      "icao": "EDDB",
      "alert": "OK",
      "vis_m": 8000,
      "fzfg": false,
      "metar_trigger": false,
      "taf_trigger": false,
      "metar": "METAR EDDB 211020Z AUTO 10008KT 080V140 8000 OVC004 06/06 Q1019 NOSIG",
      "taf": "TAF EDDB 210500Z 2106/2206 09008KT 4000 BR OVC002"
    },
    {
      "icao": "EDDH",
      "alert": "OK",
      "vis_m": 9999,
      "fzfg": false,
      "metar_trigger": false,
      "taf_trigger": false,
      "metar": "METAR EDDH 211020Z AUTO 10008KT 070V130 9999 OVC004 06/06 Q1017 TEMPO BKN005",
      "taf": "TAF EDDH 210500Z 2106/2212 09010KT 9999 FEW007 BKN025"
    },
    {
      "icao": "EDDK",
      "alert": "OK",
      "vis_m": 9999,
      "fzfg": false,
      "metar_trigger": false,
      "taf_trigger": false,
      "metar": "METAR EDDK 211020Z AUTO 12004KT 080V150 CAVOK 10/06 Q1013 NOSIG",
      "taf": "TAF EDDK 210500Z 2106/2212 11007KT CAVOK"
    },
    {
      "icao": "EDDN",
      "alert": "OK",
      "vis_m": 9999,
      "fzfg": false,
      "metar_trigger": false,
      "taf_trigger": false,
      "metar": "METAR EDDN 211020Z AUTO 11008KT 9999 FEW010 03/M00 Q1014 NOSIG",
      "taf": "TAF EDDN 210500Z 2106/2206 10006KT 6000 FEW005"
    },
    {
      "icao": "EDFH",
      "alert": "OK",
      "vis_m": 9999,
      "fzfg": false,
      "metar_trigger": false,
      "taf_trigger": false,
      "metar": "METAR EDFH 211020Z 12008KT CAVOK 06/06 Q1011",
      "taf": "TAF EDFH 210500Z 2106/2206 14012KT 0800 FG BKN001"
    },
    {
      "icao": "EDJA",
      "alert": "OK",
      "vis_m": 1000,
      "fzfg": true,
      "metar_trigger": false,
      "taf_trigger": false,
      "metar": "METAR EDJA 211020Z 05009KT 1000 R06/1500D FZFG SCT001 OVC005 M02/M02 Q1011",
      "taf": "TAF EDJA 210800Z 2109/2118 06006KT 0800 FZFG VV001"
    },
    {
      "icao": "EDLW",
      "alert": "OK",
      "vis_m": 9999,
      "fzfg": false,
      "metar_trigger": false,
      "taf_trigger": false,
      "metar": "METAR EDLW 211020Z 34003KT CAVOK 09/07 Q1013",
      "taf": "TAF EDLW 210500Z 2106/2206 08007KT CAVOK"
    },
    {
      "icao": "EDSB",
      "alert": "OK",
      "vis_m": 9999,
      "fzfg": false,
      "metar_trigger": false,
      "taf_trigger": false,
      "metar": "METAR EDSB 211020Z COR VRB02KT CAVOK 06/04 Q1011",
      "taf": ""
    },
    {
      "icao": "EETN",
      "alert": "OK",
      "vis_m": 9999,
      "fzfg": false,
      "metar_trigger": false,
      "taf_trigger": false,
      "metar": "METAR EETN 211020Z 32013KT 9999 OVC017 04/01 Q1010 NOSIG",
      "taf": "TAF EETN 210530Z 2106/2206 32014KT 9999 BKN015 BKN025"
    },
    {
      "icao": "EFHK",
      "alert": "OK",
      "vis_m": 9999,
      "fzfg": false,
      "metar_trigger": false,
      "taf_trigger": false,
      "metar": "METAR EFHK 211020Z 32014KT 9999 BKN015 03/01 Q1009 TEMPO BKN013",
      "taf": "TAF EFHK 210857Z 2109/2209 32012KT 9999 SCT012 BKN020"
    },
    {
      "icao": "EFTU",
      "alert": "OK",
      "vis_m": 9999,
      "fzfg": false,
      "metar_trigger": false,
      "taf_trigger": false,
      "metar": "METAR EFTU 211020Z AUTO 31007KT 290V350 9999 SCT014 BKN050 05/02 Q1013",
      "taf": "TAF EFTU 210858Z 2109/2209 33008KT 9999 SCT016"
    },
    {
      "icao": "EGGW",
      "alert": "OK",
      "vis_m": 5000,
      "fzfg": false,
      "metar_trigger": false,
      "taf_trigger": false,
      "metar": "METAR EGGW 211020Z AUTO 10007KT 5000 BR OVC003 09/08 Q1008",
      "taf": "TAF EGGW 210456Z 2106/2206 12007KT 3000 BR BKN002"
    },
    {
      "icao": "EGKK",
      "alert": "OK",
      "vis_m": 9000,
      "fzfg": false,
      "metar_trigger": false,
      "taf_trigger": false,
      "metar": "METAR EGKK 211020Z 09005KT 9000 FEW003 BKN020 09/09 Q1008",
      "taf": "TAF EGKK 210454Z 2106/2212 10005KT 9999 SCT010"
    },
    {
      "icao": "EHEH",
      "alert": "OK",
      "vis_m": 9999,
      "fzfg": false,
      "metar_trigger": false,
      "taf_trigger": false,
      "metar": "METAR EHEH 211025Z AUTO 10003KT 9999 FEW095 OVC200 09/08 Q1012 BLU NOSIG RMK TREND REMOTE BY EHWX",
      "taf": "TAF EHEH 210537Z 2106/2212 10005KT 4800 BR FEW020"
    },
    {
      "icao": "EKBI",
      "alert": "OK",
      "vis_m": 9999,
      "fzfg": false,
      "metar_trigger": false,
      "taf_trigger": false,
      "metar": "METAR EKBI 211020Z AUTO 09011KT 9999 BKN006/// OVC056/// 05/04 Q1020",
      "taf": "TAF EKBI 210827Z 2109/2209 10010KT 9999 BKN007"
    },
    {
      "icao": "EKCH",
      "alert": "OK",
      "vis_m": 9999,
      "fzfg": false,
      "metar_trigger": false,
      "taf_trigger": false,
      "metar": "METAR EKCH 211020Z AUTO 08006KT 9999 OVC016/// 05/04 Q1022 NOSIG",
      "taf": "TAF EKCH 210827Z 2109/2209 08006KT 9999 BKN018"
    },
    {
      "icao": "ENTO",
      "alert": "OK",
      "vis_m": 9999,
      "fzfg": false,
      "metar_trigger": false,
      "taf_trigger": false,
      "metar": "METAR ENTO 211020Z 01008KT CAVOK 00/M02 Q1023 NOSIG",
      "taf": "TAF ENTO 210500Z 2106/2206 02008KT CAVOK"
    },
    {
      "icao": "EPGD",
      "alert": "OK",
      "vis_m": 9999,
      "fzfg": false,
      "metar_trigger": false,
      "taf_trigger": false,
      "metar": "METAR EPGD 211030Z 27005KT 9999 OVC021 06/02 Q1021",
      "taf": "TAF EPGD 210530Z 2106/2206 26005KT 9999 OVC020"
    },
    {
      "icao": "EPKK",
      "alert": "OK",
      "vis_m": 3300,
      "fzfg": false,
      "metar_trigger": false,
      "taf_trigger": false,
      "metar": "METAR EPKK 211030Z 06004KT 010V090 3300 BR FEW002 OVC003 05/04 Q1020",
      "taf": "TAF EPKK 210830Z 2109/2209 07003KT 1200 BR OVC003"
    },
    {
      "icao": "EPKT",
      "alert": "OK",
      "vis_m": 1200,
      "fzfg": false,
      "metar_trigger": false,
      "taf_trigger": false,
      "metar": "METAR EPKT 211030Z 07005KT 1200 R26/1400D BR OVC002 05/05 Q1019",
      "taf": ""
    },
    {
      "icao": "EPWA",
      "alert": "OK",
      "vis_m": 9999,
      "fzfg": false,
      "metar_trigger": false,
      "taf_trigger": false,
      "metar": "METAR EPWA 211030Z 12003KT 9999 BKN014 03/01 Q1021 NOSIG",
      "taf": "TAF EPWA 210830Z 2109/2209 VRB04KT 9999 BKN013"
    },
    {
      "icao": "EPWR",
      "alert": "OK",
      "vis_m": 5000,
      "fzfg": false,
      "metar_trigger": false,
      "taf_trigger": false,
      "metar": "METAR EPWR 211030Z 09006KT 5000 BR BKN007 06/05 Q1020",
      "taf": "TAF EPWR 210830Z 2109/2209 09006KT 5000 BR SCT005 BKN045"
    },
    {
      "icao": "ESGG",
      "alert": "OK",
      "vis_m": 5000,
      "fzfg": false,
      "metar_trigger": false,
      "taf_trigger": false,
      "metar": "METAR ESGG 211020Z VRB02KT 5000 BKN003 03/03 Q1022",
      "taf": "TAF ESGG 210830Z 2109/2209 23003KT 8000 BKN006"
    },
    {
      "icao": "ESKN",
      "alert": "OK",
      "vis_m": 9999,
      "fzfg": false,
      "metar_trigger": false,
      "taf_trigger": false,
      "metar": "METAR ESKN 211020Z 28006KT CAVOK 03/01 Q1020",
      "taf": "TAF ESKN 210830Z 2109/2209 28008KT CAVOK"
    },
    {
      "icao": "ESMX",
      "alert": "OK",
      "vis_m": 9999,
      "fzfg": false,
      "metar_trigger": false,
      "taf_trigger": false,
      "metar": "METAR ESMX 211020Z AUTO 36007KT 9999 OVC003/// 03/03 Q1021",
      "taf": ""
    },
    {
      "icao": "EVRA",
      "alert": "OK",
      "vis_m": 9999,
      "fzfg": false,
      "metar_trigger": false,
      "taf_trigger": false,
      "metar": "METAR EVRA 211020Z 31006KT 260V350 9999 BKN018 OVC024 07/03 Q1014 NOSIG",
      "taf": "TAF EVRA 210801Z 2109/2209 28010KT 9999 BKN015"
    },
    {
      "icao": "EYKA",
      "alert": "OK",
      "vis_m": 9999,
      "fzfg": false,
      "metar_trigger": false,
      "taf_trigger": false,
      "metar": "METAR EYKA 211020Z 27008KT 250V320 9999 OVC018 06/04 Q1017",
      "taf": "TAF EYKA 210512Z 2106/2206 26011KT 7000 SCT010 OVC015"
    },
    {
      "icao": "EYVI",
      "alert": "OK",
      "vis_m": 9999,
      "fzfg": false,
      "metar_trigger": false,
      "taf_trigger": false,
      "metar": "METAR EYVI 211020Z 27008KT 9999 OVC009 04/03 Q1016 TEMPO OVC005",
      "taf": "TAF EYVI 210500Z 2106/2206 25009KT 9000 SCT010 OVC015"
    },
    {
      "icao": "GCLP",
      "alert": "OK",
      "vis_m": 9999,
      "fzfg": false,
      "metar_trigger": false,
      "taf_trigger": false,
      "metar": "METAR GCLP 211030Z 34009KT 290V010 9999 BKN045 19/09 Q1022 NOSIG",
      "taf": "TAF GCLP 210800Z 2109/2209 01015KT 9999 FEW035 TX21/2114Z TN15/2206Z"
    },
    {
      "icao": "GCTS",
      "alert": "OK",
      "vis_m": 9999,
      "fzfg": false,
      "metar_trigger": false,
      "taf_trigger": false,
      "metar": "METAR GCTS 211030Z 19007KT 140V250 9999 BKN045 20/09 Q1022 NOSIG",
      "taf": ""
    },
    {
      "icao": "HECA",
      "alert": "OK",
      "vis_m": 6000,
      "fzfg": false,
      "metar_trigger": false,
      "taf_trigger": false,
      "metar": "METAR HECA 211030Z 21011KT 6000 NSC 22/01 Q1012 NOSIG",
      "taf": ""
    },
    {
      "icao": "HEGN",
      "alert": "OK",
      "vis_m": 9999,
      "fzfg": false,
      "metar_trigger": false,
      "taf_trigger": false,
      "metar": "METAR HEGN 211000Z 13008KT CAVOK 24/10 Q1014 NOSIG",
      "taf": ""
    },
    {
      "icao": "HESH",
      "alert": "OK",
      "vis_m": 9999,
      "fzfg": false,
      "metar_trigger": false,
      "taf_trigger": false,
      "metar": "METAR HESH 211000Z 16004KT CAVOK 25/11 Q1015 NOSIG",
      "taf": ""
    },
    {
      "icao": "HESX",
      "alert": "OK",
      "vis_m": 9999,
      "fzfg": false,
      "metar_trigger": false,
      "taf_trigger": false,
      "metar": "METAR HESX 211000Z 18012KT CAVOK 19/02 Q1013 NOSIG",
      "taf": ""
    },
    {
      "icao": "LATI",
      "alert": "OK",
      "vis_m": null,
      "fzfg": false,
      "metar_trigger": false,
      "taf_trigger": false,
      "metar": "",
      "taf": "TAF LATI 210500Z 2106/2206 VRB05KT CAVOK TX17/2112Z TN00/2205Z"
    },
    {
      "icao": "LBSF",
      "alert": "OK",
      "vis_m": 3800,
      "fzfg": false,
      "metar_trigger": false,
      "taf_trigger": false,
      "metar": "METAR LBSF 211030Z 34003KT 300V020 3800 BR SCT004 OVC033 04/03 Q1018 TEMPO 3000 BR",
      "taf": "TAF LBSF 210500Z 2106/2206 VRB04KT 2000 BR OVC020"
    },
    {
      "icao": "LBWN",
      "alert": "OK",
      "vis_m": 9999,
      "fzfg": false,
      "metar_trigger": false,
      "taf_trigger": false,
      "metar": "METAR LBWN 211030Z AUTO 28004KT 250V310 9999 -RA BKN029/// BKN034/// OVC040/// 07/07 Q1019 TEMPO 3000 DZ BR",
      "taf": "TAF LBWN 210500Z 2106/2206 02010KT 7000 BKN015 OVC035"
    },
    {
      "icao": "LCLK",
      "alert": "OK",
      "vis_m": 9999,
      "fzfg": false,
      "metar_trigger": false,
      "taf_trigger": false,
      "metar": "METAR LCLK 211030Z 11011KT 9999 FEW030 BKN060 22/14 Q1012 NOSIG",
      "taf": "TAF LCLK 210530Z 2106/2206 05012KT 9999 SCT030"
    },
    {
      "icao": "LDDU",
      "alert": "OK",
      "vis_m": 9999,
      "fzfg": false,
      "metar_trigger": false,
      "taf_trigger": false,
      "metar": "METAR LDDU 211030Z 29005KT 260V320 CAVOK 14/08 Q1015 NOSIG",
      "taf": "TAF LDDU 210525Z 2106/2206 05004KT CAVOK TX15/2112Z TN10/2106Z"
    },
    {
      "icao": "LDSP",
      "alert": "OK",
      "vis_m": 9999,
      "fzfg": false,
      "metar_trigger": false,
      "taf_trigger": false,
      "metar": "METAR LDSP 211030Z 09003KT 040V130 CAVOK 13/03 Q1016 NOSIG",
      "taf": "TAF LDSP 210525Z 2106/2206 VRB02KT CAVOK TX16/2113Z TN06/2106Z"
    },
    {
      "icao": "LDZA",
      "alert": "OK",
      "vis_m": 3500,
      "fzfg": false,
      "metar_trigger": false,
      "taf_trigger": false,
      "metar": "METAR LDZA 211030Z VRB01KT 3500 -DZ BR OVC003 04/03 Q1020 BECMG 6000 NSW OVC005",
      "taf": "TAF LDZA 210525Z 2106/2206 VRB02KT 2000 -DZ BR OVC003 TX05/2113Z TN03/2106Z"
    },
    {
      "icao": "LEAL",
      "alert": "OK",
      "vis_m": 9999,
      "fzfg": false,
      "metar_trigger": false,
      "taf_trigger": false,
      "metar": "METAR LEAL 211030Z 20003KT 150V250 CAVOK 13/06 Q1009 NOSIG",
      "taf": "TAF LEAL 210500Z 2106/2206 24005KT 9999 FEW014 TX15/2112Z TN08/2106Z"
    },
    {
      "icao": "LEBL",
      "alert": "OK",
      "vis_m": 9999,
      "fzfg": false,
      "metar_trigger": false,
      "taf_trigger": false,
      "metar": "METAR LEBL 211030Z 31005KT 240V350 9999 FEW020 SCT050 13/11 Q1007 NOSIG",
      "taf": "TAF LEBL 210500Z 2106/2206 33008KT 9999 SCT010 BKN050 TX16/2112Z TN09/2106Z"
    },
    {
      "icao": "LECH",
      "alert": "OK",
      "vis_m": 8000,
      "fzfg": false,
      "metar_trigger": false,
      "taf_trigger": false,
      "metar": "METAR LECH 211030Z AUTO 22003KT 190V250 8000 NSC 07/05 Q1006",
      "taf": ""
    },
    {
      "icao": "LEMD",
      "alert": "OK",
      "vis_m": 9999,
      "fzfg": false,
      "metar_trigger": false,
      "taf_trigger": false,
      "metar": "METAR LEMD 211030Z 21007KT 180V250 9999 FEW017 SCT041 06/04 Q1005 NOSIG",
      "taf": ""
    },
    {
      "icao": "LEMG",
      "alert": "OK",
      "vis_m": 9999,
      "fzfg": false,
      "metar_trigger": false,
      "taf_trigger": false,
      "metar": "METAR LEMG 211030Z 29006KT 9999 FEW015 BKN050 12/11 Q1010 NOSIG",
      "taf": "TAF LEMG 210500Z 2106/2206 30007KT 9999 FEW020 SCT035 TX14/2114Z TN07/2106Z"
    },
    {
      "icao": "LERS",
      "alert": "OK",
      "vis_m": 9999,
      "fzfg": false,
      "metar_trigger": false,
      "taf_trigger": false,
      "metar": "METAR LERS 211030Z 03005KT 350V110 9999 SCT015 BKN025 13/10 Q1006",
      "taf": "TAF LERS 210800Z 2109/2209 VRB04KT 9999 FEW015 TX16/2112Z TN06/2206Z"
    },
    {
      "icao": "LEVC",
      "alert": "OK",
      "vis_m": 9999,
      "fzfg": false,
      "metar_trigger": false,
      "taf_trigger": false,
      "metar": "METAR LEVC 211030Z 21004KT 9999 FEW066 11/05 Q1007 NOSIG",
      "taf": "TAF LEVC 210500Z 2106/2206 21005KT 9999 FEW040 TX16/2112Z TN06/2107Z"
    },
    {
      "icao": "LFLL",
      "alert": "OK",
      "vis_m": 9999,
      "fzfg": false,
      "metar_trigger": false,
      "taf_trigger": false,
      "metar": "METAR LFLL 211030Z 12009KT CAVOK 12/06 Q1008 NOSIG",
      "taf": "TAF LFLL 210500Z 2106/2212 14006KT CAVOK"
    },
    {
      "icao": "LFMN",
      "alert": "OK",
      "vis_m": 9999,
      "fzfg": false,
      "metar_trigger": false,
      "taf_trigger": false,
      "metar": "METAR LFMN 211030Z 10020KT 9999 BKN043 16/10 Q1012 TEMPO 09025G35KT",
      "taf": "TAF LFMN 210800Z 2109/2215 08020KT 9999 BKN035"
    },
    {
      "icao": "LFOB",
      "alert": "OK",
      "vis_m": 6000,
      "fzfg": false,
      "metar_trigger": false,
      "taf_trigger": false,
      "metar": "METAR LFOB 211030Z AUTO 09010KT 6000 OVC002/// ///TCU 09/09 Q1007 TEMPO 4500 RA BKN006",
      "taf": ""
    },
    {
      "icao": "LFPO",
      "alert": "OK",
      "vis_m": 6000,
      "fzfg": false,
      "metar_trigger": false,
      "taf_trigger": false,
      "metar": "METAR LFPO 211030Z AUTO 10008KT 6000 RA SCT007/// SCT019/// BKN033/// ///TCU 10/10 Q1007 TEMPO 4500 -RA BECMG NSC",
      "taf": "TAF LFPO 210500Z 2106/2212 12005KT 8000 NSC"
    },
    {
      "icao": "LFSB",
      "alert": "OK",
      "vis_m": 9999,
      "fzfg": false,
      "metar_trigger": false,
      "taf_trigger": false,
      "metar": "METAR LFSB 211030Z AUTO VRB01KT CAVOK 07/03 Q1010 NOSIG",
      "taf": ""
    },
    {
      "icao": "LGAV",
      "alert": "OK",
      "vis_m": 9999,
      "fzfg": false,
      "metar_trigger": false,
      "taf_trigger": false,
      "metar": "METAR LGAV 211020Z 02013KT 9999 SCT025 16/09 Q1015 NOSIG",
      "taf": "TAF LGAV 210500Z 2106/2206 02012KT 9999 SCT025"
    },
    {
      "icao": "LGIR",
      "alert": "OK",
      "vis_m": 9999,
      "fzfg": false,
      "metar_trigger": false,
      "taf_trigger": false,
      "metar": "METAR LGIR 211020Z 00000KT 9999 BKN020 17/11 Q1014 NOSIG",
      "taf": "TAF LGIR 210500Z 2106/2206 18008KT 9999 SCT020 BKN080"
    },
    {
      "icao": "LGKR",
      "alert": "OK",
      "vis_m": 9999,
      "fzfg": false,
      "metar_trigger": false,
      "taf_trigger": false,
      "metar": "METAR LGKR 211020Z VRB01KT 9999 FEW025 16/09 Q1015 NOSIG",
      "taf": "TAF LGKR 210500Z 2106/2206 VRB05KT 9999 SCT015"
    },
    {
      "icao": "LGRP",
      "alert": "OK",
      "vis_m": 9999,
      "fzfg": false,
      "metar_trigger": false,
      "taf_trigger": false,
      "metar": "METAR LGRP 211020Z 05007KT 020V080 9999 FEW012 SCT020 17/12 Q1013 NOSIG",
      "taf": "TAF LGRP 210500Z 2106/2206 14010KT 9999 FEW018 SCT020"
    },
    {
      "icao": "LGTS",
      "alert": "OK",
      "vis_m": 9000,
      "fzfg": false,
      "metar_trigger": false,
      "taf_trigger": false,
      "metar": "METAR LGTS 211020Z 30003KT 9000 4500S BR FEW008 11/10 Q1018 NOSIG",
      "taf": ""
    },
    {
      "icao": "LGZA",
      "alert": "OK",
      "vis_m": 9999,
      "fzfg": false,
      "metar_trigger": false,
      "taf_trigger": false,
      "metar": "METAR LGZA 210950Z VRB03KT 9999 FEW025 BKN080 16/09 Q1014",
      "taf": "TAF LGZA 210800Z 2109/2118 03008KT 9999 SCT020 SCT080"
    },
    {
      "icao": "LHBP",
      "alert": "OK",
      "vis_m": 3000,
      "fzfg": false,
      "metar_trigger": false,
      "taf_trigger": false,
      "metar": "METAR LHBP 211030Z VRB02KT 3000 -DZ BR OVC004 05/04 Q1020 TEMPO OVC005",
      "taf": "TAF LHBP 210515Z 2106/2206 VRB03KT 8000 OVC010"
    },
    {
      "icao": "LHDC",
      "alert": "OK",
      "vis_m": 4100,
      "fzfg": false,
      "metar_trigger": false,
      "taf_trigger": false,
      "metar": "METAR LHDC 211015Z AUTO 22006KT 4100 BR OVC009 06/05 Q1020 NOSIG",
      "taf": "TAF LHDC 210815Z 2109/2118 VRB03KT 2000 BR OVC006"
    },
    {
      "icao": "LIBD",
      "alert": "OK",
      "vis_m": 9999,
      "fzfg": false,
      "metar_trigger": false,
      "taf_trigger": false,
      "metar": "METAR LIBD 211020Z VRB03KT CAVOK 14/10 Q1015",
      "taf": "TAF LIBD 210500Z 2106/2206 VRB04KT 9999 SCT040"
    },
    {
      "icao": "LICC",
      "alert": "OK",
      "vis_m": 5000,
      "fzfg": false,
      "metar_trigger": false,
      "taf_trigger": false,
      "metar": "METAR LICC 211020Z 12006KT 5000 RA BKN035 14/13 Q1012",
      "taf": "TAF LICC 210500Z 2106/2206 05008KT 9999 SCT020"
    },
    {
      "icao": "LICJ",
      "alert": "OK",
      "vis_m": 9999,
      "fzfg": false,
      "metar_trigger": false,
      "taf_trigger": false,
      "metar": "METAR LICJ 211020Z VRB02KT CAVOK 16/12 Q1010",
      "taf": "TAF LICJ 210500Z 2106/2206 VRB06KT 9999 SCT040"
    },
    {
      "icao": "LIEO",
      "alert": "OK",
      "vis_m": 9999,
      "fzfg": false,
      "metar_trigger": false,
      "taf_trigger": false,
      "metar": "METAR LIEO 211020Z VRB02KT 9999 BKN020 13/13 Q1011",
      "taf": "TAF LIEO 210500Z 2106/2206 VRB05KT 9999 BKN020"
    },
    {
      "icao": "LIMC",
      "alert": "OK",
      "vis_m": 4000,
      "fzfg": false,
      "metar_trigger": false,
      "taf_trigger": false,
      "metar": "METAR LIMC 211020Z 17003KT 4000 BR FEW010 10/07 Q1016 NOSIG",
      "taf": "TAF LIMC 210500Z 2106/2212 VRB03KT 9999 BKN070"
    },
    {
      "icao": "LIME",
      "alert": "OK",
      "vis_m": 9999,
      "fzfg": false,
      "metar_trigger": false,
      "taf_trigger": false,
      "metar": "METAR LIME 211020Z VRB02KT CAVOK 10/05 Q1016 NOSIG",
      "taf": "TAF LIME 210500Z 2106/2206 VRB03KT 9000 SCT080"
    },
    {
      "icao": "LIPH",
      "alert": "OK",
      "vis_m": 9999,
      "fzfg": false,
      "metar_trigger": false,
      "taf_trigger": false,
      "metar": "METAR LIPH 211020Z VRB01KT CAVOK 10/06 Q1017",
      "taf": "TAF LIPH 210500Z 2106/2206 VRB04KT 8000 FEW030"
    },
    {
      "icao": "LIPQ",
      "alert": "OK",
      "vis_m": 9999,
      "fzfg": false,
      "metar_trigger": false,
      "taf_trigger": false,
      "metar": "METAR LIPQ 211020Z AUTO VRB02KT 9999 NCD 12/06 Q1016",
      "taf": "TAF LIPQ 210500Z 2106/2206 VRB04KT CAVOK"
    },
    {
      "icao": "LIPX",
      "alert": "OK",
      "vis_m": 9999,
      "fzfg": false,
      "metar_trigger": false,
      "taf_trigger": false,
      "metar": "METAR LIPX 211020Z VRB02KT CAVOK 09/06 Q1017",
      "taf": "TAF LIPX 210500Z 2106/2206 VRB03KT 0200 FG OVC002"
    },
    {
      "icao": "LIPY",
      "alert": "OK",
      "vis_m": 5000,
      "fzfg": false,
      "metar_trigger": false,
      "taf_trigger": false,
      "metar": "METAR LIPY 211020Z 27003KT 250V320 5000 BR SCT010 12/11 Q1016",
      "taf": "TAF LIPY 210500Z 2106/2206 VRB05KT 8000 OVC020"
    },
    {
      "icao": "LIPZ",
      "alert": "OK",
      "vis_m": 9999,
      "fzfg": false,
      "metar_trigger": false,
      "taf_trigger": false,
      "metar": "METAR LIPZ 211020Z 35006KT CAVOK 10/04 Q1017 NOSIG",
      "taf": "TAF LIPZ 210500Z 2106/2212 VRB04KT 8000 FEW020"
    },
    {
      "icao": "LIRA",
      "alert": "OK",
      "vis_m": 9999,
      "fzfg": false,
      "metar_trigger": false,
      "taf_trigger": false,
      "metar": "METAR LIRA 211020Z 03005KT 350V060 CAVOK 12/07 Q1014",
      "taf": "TAF LIRA 210500Z 2106/2206 VRB05KT CAVOK"
    },
    {
      "icao": "LIRN",
      "alert": "OK",
      "vis_m": 9999,
      "fzfg": false,
      "metar_trigger": false,
      "taf_trigger": false,
      "metar": "METAR LIRN 211020Z VRB03KT CAVOK 16/08 Q1013 NOSIG",
      "taf": "TAF LIRN 210500Z 2106/2206 05006KT CAVOK"
    },
    {
      "icao": "LLBG",
      "alert": "OK",
      "vis_m": 9999,
      "fzfg": false,
      "metar_trigger": false,
      "taf_trigger": false,
      "metar": "METAR LLBG 211020Z 23010KT CAVOK 21/07 Q1013 NOSIG",
      "taf": "TAF LLBG 210507Z 2106/2206 VRB04KT CAVOK"
    },
    {
      "icao": "LMML",
      "alert": "OK",
      "vis_m": 9999,
      "fzfg": false,
      "metar_trigger": false,
      "taf_trigger": false,
      "metar": "METAR LMML 211045Z 22009KT 9999 VCSH FEW010 SCT019TCU 17/14 Q1011 TEMPO 8000 SHRA",
      "taf": "TAF LMML 210500Z 2106/2206 13007KT 9999 SCT014"
    },
    {
      "icao": "LOWW",
      "alert": "OK",
      "vis_m": 700,
      "fzfg": false,
      "metar_trigger": false,
      "taf_trigger": false,
      "metar": "METAR LOWW 211020Z 13008KT 0700 R16/0700N R29/0650N FG VV002 01/01 Q1019 TEMPO 1000 BR BCFG",
      "taf": ""
    },
    {
      "icao": "LPFR",
      "alert": "OK",
      "vis_m": 9999,
      "fzfg": false,
      "metar_trigger": false,
      "taf_trigger": false,
      "metar": "METAR LPFR 211030Z 30005KT 9999 -RA FEW015 11/10 Q1012",
      "taf": ""
    },
    {
      "icao": "LPPR",
      "alert": "OK",
      "vis_m": 9999,
      "fzfg": false,
      "metar_trigger": false,
      "taf_trigger": false,
      "metar": "METAR LPPR 211030Z 13006KT 090V150 9999 -SHRA FEW016 BKN036 07/05 Q1008",
      "taf": "TAF LPPR 210500Z 2106/2206 VRB02KT 9999 SCT018 SCT035"
    },
    {
      "icao": "LPPT",
      "alert": "OK",
      "vis_m": 9999,
      "fzfg": false,
      "metar_trigger": false,
      "taf_trigger": false,
      "metar": "METAR LPPT 211030Z VRB02KT 9999 FEW025 FEW030TCU 09/06 Q1010",
      "taf": "TAF LPPT 210500Z 2106/2212 29007KT 9999 SCT025"
    },
    {
      "icao": "LQSA",
      "alert": "OK",
      "vis_m": 9999,
      "fzfg": false,
      "metar_trigger": false,
      "taf_trigger": false,
      "metar": "METAR LQSA 211030Z 22004KT 140V280 9999 BKN010 OVC020 03/01 Q1018 NOSIG",
      "taf": ""
    },
    {
      "icao": "LQTZ",
      "alert": "OK",
      "vis_m": 5000,
      "fzfg": false,
      "metar_trigger": false,
      "taf_trigger": false,
      "metar": "METAR LQTZ 211030Z VRB02KT 5000 BR OVC005 05/05 Q1019",
      "taf": ""
    },
    {
      "icao": "LRCL",
      "alert": "OK",
      "vis_m": 9999,
      "fzfg": false,
      "metar_trigger": false,
      "taf_trigger": false,
      "metar": "METAR LRCL 211030Z 01003KT 300V110 9999 BKN004 05/03 Q1019",
      "taf": "TAF LRCL 210800Z 2109/2118 VRB04KT 5000 BR BKN005"
    },
    {
      "icao": "LRCV",
      "alert": "OK",
      "vis_m": 6000,
      "fzfg": false,
      "metar_trigger": false,
      "taf_trigger": false,
      "metar": "METAR LRCV 211030Z 30006KT 6000 BKN005 OVC019 05/05 Q1020",
      "taf": "TAF LRCV 210800Z 2109/2118 VRB04KT 1500 BR BKN002"
    },
    {
      "icao": "LRIA",
      "alert": "OK",
      "vis_m": 7000,
      "fzfg": false,
      "metar_trigger": false,
      "taf_trigger": false,
      "metar": "METAR LRIA 211030Z VRB02KT 7000 OVC003 02/02 Q1020",
      "taf": "TAF LRIA 210800Z 2109/2118 11006KT 0300 FG VV001"
    },
    {
      "icao": "LROP",
      "alert": "OK",
      "vis_m": 6000,
      "fzfg": false,
      "metar_trigger": false,
      "taf_trigger": false,
      "metar": "METAR LROP 211030Z 24004KT 200V270 6000 OVC005 05/05 Q1020 NOSIG",
      "taf": "TAF LROP 210500Z 2106/2206 VRB04KT 0800 FG OVC002"
    },
    {
      "icao": "LRSB",
      "alert": "OK",
      "vis_m": 700,
      "fzfg": true,
      "metar_trigger": false,
      "taf_trigger": false,
      "metar": "METAR LRSB 211030Z 09003KT 040V140 0700 R27/0900U FG BKN002 01/01 Q1019",
      "taf": "TAF LRSB 210500Z 2106/2206 VRB04KT 0200 FZFG VV001"
    },
    {
      "icao": "LRTR",
      "alert": "OK",
      "vis_m": 7000,
      "fzfg": false,
      "metar_trigger": false,
      "taf_trigger": false,
      "metar": "METAR LRTR 211030Z 36003KT 330V030 7000 FEW002 BKN005 OVC010 05/05 Q1020",
      "taf": "TAF LRTR 210500Z 2106/2206 02006KT 1500 BR OVC003"
    },
    {
      "icao": "LTAF",
      "alert": "OK",
      "vis_m": 9999,
      "fzfg": false,
      "metar_trigger": false,
      "taf_trigger": false,
      "metar": "METAR LTAF 211020Z 03010KT 360V080 CAVOK 20/00 Q1015 NOSIG RMK RWY23 05009KT 010V080 2AC100 4CI200",
      "taf": "TAF LTAF 210440Z 2106/2206 02008KT CAVOK"
    },
    {
      "icao": "LTAI",
      "alert": "OK",
      "vis_m": 8000,
      "fzfg": false,
      "metar_trigger": false,
      "taf_trigger": false,
      "metar": "SPECI LTAI 211035Z VRB02KT 8000 -SHRA BKN030 14/13 Q1016 BECMG TL1200 4000 SHRA BR",
      "taf": "TAF LTAI 210440Z 2106/2206 34009KT 9999 -SHRA FEW020CB BKN025"
    },
    {
      "icao": "LTFM",
      "alert": "OK",
      "vis_m": 9999,
      "fzfg": false,
      "metar_trigger": false,
      "taf_trigger": false,
      "metar": "METAR LTFM 211020Z 01009KT 9999 FEW016 SCT025 BKN120 13/08 Q1017 NOSIG RMK RWY17L 02009KT RWY34L 36009KT RWY16R 36009KT RWY36 02008KT RWY18 01007KT",
      "taf": ""
    },
    {
      "icao": "LUBL",
      "alert": "OK",
      "vis_m": null,
      "fzfg": false,
      "metar_trigger": false,
      "taf_trigger": false,
      "metar": "",
      "taf": ""
    },
    {
      "icao": "LUKK",
      "alert": "OK",
      "vis_m": 750,
      "fzfg": false,
      "metar_trigger": false,
      "taf_trigger": false,
      "metar": "METAR LUKK 211030Z VRB01KT 0750 0650SW R08/0800N FG OVC001 01/01 Q1020 NOSIG",
      "taf": ""
    },
    {
      "icao": "LWSK",
      "alert": "OK",
      "vis_m": 800,
      "fzfg": false,
      "metar_trigger": false,
      "taf_trigger": false,
      "metar": "METAR LWSK 211020Z VRB01KT 0800 R34/1900N FG VV002 01/01 Q1020 NOSIG",
      "taf": "TAF LWSK 210825Z 2109/2209 VRB02KT 0200 FG VV001"
    },
    {
      "icao": "LYBE",
      "alert": "OK",
      "vis_m": 5000,
      "fzfg": false,
      "metar_trigger": false,
      "taf_trigger": false,
      "metar": "METAR LYBE 211030Z 06005KT 5000 BR OVC008 05/03 Q1020 NOSIG",
      "taf": "TAF LYBE 210500Z 2106/2206 07004KT 5000 BR BKN010 TX05/2113Z TN02/2206Z"
    },
    {
      "icao": "LZIB",
      "alert": "OK",
      "vis_m": 600,
      "fzfg": false,
      "metar_trigger": false,
      "taf_trigger": false,
      "metar": "METAR LZIB 211030Z 13004KT 0600 R31/1000N R22/1900N FG SCT001 OVC002 03/03 Q1020 NOSIG",
      "taf": ""
    },
    {
      "icao": "LZKZ",
      "alert": "OK",
      "vis_m": 9999,
      "fzfg": false,
      "metar_trigger": false,
      "taf_trigger": false,
      "metar": "METAR LZKZ 211030Z VRB01KT 9999 OVC006 05/03 Q1020 NOSIG",
      "taf": "TAF LZKZ 210515Z 2106/2206 VRB02KT 9999 OVC007"
    },
    {
      "icao": "LZTT",
      "alert": "OK",
      "vis_m": 9999,
      "fzfg": false,
      "metar_trigger": false,
      "taf_trigger": false,
      "metar": "METAR LZTT 211030Z VRB01KT 9999 FEW002 SCT053 00/M00 Q1018 NOSIG",
      "taf": "TAF LZTT 210515Z 2106/2206 VRB02KT 9999 FEW033"
    },
    {
      "icao": "OEJN",
      "alert": "OK",
      "vis_m": 9999,
      "fzfg": false,
      "metar_trigger": false,
      "taf_trigger": false,
      "metar": "METAR OEJN 211000Z VRB03KT 9999 FEW040 31/13 Q1012 NOSIG",
      "taf": "TAF OEJN 210500Z 2106/2212 06008KT CAVOK"
    },
    {
      "icao": "OEMA",
      "alert": "OK",
      "vis_m": 9999,
      "fzfg": false,
      "metar_trigger": false,
      "taf_trigger": false,
      "metar": "METAR OEMA 211000Z 13010KT 9999 FEW045 SCT100 19/M06 Q1019 NOSIG",
      "taf": "TAF OEMA 210500Z 2106/2212 09012KT CAVOK"
    },
    {
      "icao": "OERK",
      "alert": "OK",
      "vis_m": 9999,
      "fzfg": false,
      "metar_trigger": false,
      "taf_trigger": false,
      "metar": "METAR OERK 211000Z 05005KT 9999 FEW040 16/M04 Q1022 NOSIG",
      "taf": "TAF OERK 210500Z 2106/2212 30008KT CAVOK"
    },
    {
      "icao": "OJAI",
      "alert": "OK",
      "vis_m": 5000,
      "fzfg": false,
      "metar_trigger": false,
      "taf_trigger": false,
      "metar": "METAR OJAI 211000Z 13012KT 5000 HZ FEW030 FEW080 15/03 Q1017 NOSIG",
      "taf": "TAF OJAI 210500Z 2106/2212 13014KT 4000 BR NSC"
    },
    {
      "icao": "OKBK",
      "alert": "OK",
      "vis_m": null,
      "fzfg": false,
      "metar_trigger": false,
      "taf_trigger": false,
      "metar": "",
      "taf": ""
    },
    {
      "icao": "OMAA",
      "alert": "OK",
      "vis_m": 9999,
      "fzfg": false,
      "metar_trigger": false,
      "taf_trigger": false,
      "metar": "METAR OMAA 211000Z 28003KT 200V330 9999 FEW035 21/11 Q1018 NOSIG",
      "taf": "TAF OMAA 210500Z 2106/2212 18005KT 8000 FEW040"
    },
    {
      "icao": "UAAA",
      "alert": "OK",
      "vis_m": 1800,
      "fzfg": false,
      "metar_trigger": false,
      "taf_trigger": false,
      "metar": "METAR UAAA 211030Z 00000MPS 1800 R23L/1900 -SHSN BR BKN036CB OVC100 M01/M02 Q1025 NOSIG",
      "taf": "TAF UAAA 210503Z 2106/2206 06003MPS 3100 BR SCT011 BKN020CB OVC050 TX00/2107Z TNM06/2201Z"
    },
    {
      "icao": "UCFM",
      "alert": "OK",
      "vis_m": 2200,
      "fzfg": true,
      "metar_trigger": false,
      "taf_trigger": false,
      "metar": "METAR UCFM 211030Z 24002MPS 2200 1400E R07/P1500N -SN BR BKN003 OVC030 00/M00 Q1026 NOSIG",
      "taf": "TAF UCFM 210458Z 2106/2206 32003MPS 0600 FZFG BKN003 OVC030CB"
    },
    {
      "icao": "UDYZ",
      "alert": "OK",
      "vis_m": 7000,
      "fzfg": false,
      "metar_trigger": false,
      "taf_trigger": false,
      "metar": "METAR UDYZ 211030Z 23001KT 7000 NSC 05/M04 Q1024 NOSIG",
      "taf": "TAF UDYZ 210500Z 2106/2206 VRB04KT 6000 FEW040"
    },
    {
      "icao": "UGTB",
      "alert": "OK",
      "vis_m": 6000,
      "fzfg": false,
      "metar_trigger": false,
      "taf_trigger": false,
      "metar": "METAR UGTB 211030Z 00000KT 6000 SCT014 OVC024 03/M00 Q1025 NOSIG",
      "taf": ""
    },
    {
      "icao": "UKKK",
      "alert": "OK",
      "vis_m": null,
      "fzfg": false,
      "metar_trigger": false,
      "taf_trigger": false,
      "metar": "",
      "taf": ""
    },
    {
      "icao": "UTTT",
      "alert": "OK",
      "vis_m": null,
      "fzfg": false,
      "metar_trigger": false,
      "taf_trigger": false,
      "metar": "",
      "taf": ""
    }
  ]
}