{
  "ts_utc": "2026-02-28T03:20:11Z",
  "threshold_m": 150,
  "source": "stations_override.txt (ICAO list) + aviationweather.gov (METAR/TAF raw)",
  "station_count": 159,
  "stations": [
    {
      "icao": "BIKF",
      "alert": "OK",
      "vis_m": 9999,
      "fzfg": false,
      "metar_trigger": false,
      "taf_trigger": false,
      "metar": "METAR BIKF 280300Z 25016KT 9999 -SN FEW013 BKN050 M01/M08 Q0998",
      "taf": "TAF BIKF 280111Z 2803/0103 25017KT 9999 FEW015 BKN035 TX02/2814Z TNM02/2806Z"
    },
    {
      "icao": "BKPR",
      "alert": "OK",
      "vis_m": 9999,
      "fzfg": false,
      "metar_trigger": false,
      "taf_trigger": false,
      "metar": "METAR BKPR 280300Z VRB01KT CAVOK M01/M03 Q1025 NOSIG",
      "taf": "TAF BKPR 272355Z 2800/2824 VRB03KT CAVOK"
    },
    {
      "icao": "EBCI",
      "alert": "OK",
      "vis_m": 9999,
      "fzfg": false,
      "metar_trigger": false,
      "taf_trigger": false,
      "metar": "METAR EBCI 280250Z 21015KT 9999 FEW020 10/07 Q1015 NOSIG",
      "taf": "TAF EBCI 272320Z 2800/0106 22012KT 9999 SCT014 BKN030"
    },
    {
      "icao": "EDDB",
      "alert": "OK",
      "vis_m": 9999,
      "fzfg": false,
      "metar_trigger": false,
      "taf_trigger": false,
      "metar": "METAR EDDB 280250Z AUTO VRB02KT CAVOK 07/05 Q1017 NOSIG",
      "taf": "TAF EDDB 272300Z 2800/2824 19007KT CAVOK"
    },
    {
      "icao": "EDDH",
      "alert": "OK",
      "vis_m": 9999,
      "fzfg": false,
      "metar_trigger": false,
      "taf_trigger": false,
      "metar": "METAR EDDH 280250Z AUTO 22005KT 9999 SCT046 11/09 Q1013 NOSIG",
      "taf": "TAF EDDH 272300Z 2800/0106 20006KT 9999 BKN020"
    },
    {
      "icao": "EDDK",
      "alert": "OK",
      "vis_m": 9999,
      "fzfg": false,
      "metar_trigger": false,
      "taf_trigger": false,
      "metar": "METAR EDDK 280250Z AUTO 17008KT CAVOK 13/07 Q1016 NOSIG",
      "taf": "TAF EDDK 272300Z 2800/0106 17007KT CAVOK"
    },
    {
      "icao": "EDDN",
      "alert": "OK",
      "vis_m": 9999,
      "fzfg": false,
      "metar_trigger": false,
      "taf_trigger": false,
      "metar": "METAR EDDN 280250Z AUTO 15004KT CAVOK 05/04 Q1019",
      "taf": "TAF EDDN 272300Z 2800/2824 13006KT CAVOK"
    },
    {
      "icao": "EDDS",
      "alert": "OK",
      "vis_m": 9999,
      "fzfg": false,
      "metar_trigger": false,
      "taf_trigger": false,
      "metar": "METAR EDDS 280250Z AUTO VRB01KT CAVOK 05/02 Q1018",
      "taf": "TAF EDDS 272300Z 2800/2824 VRB03KT CAVOK"
    },
    {
      "icao": "EDFH",
      "alert": "OK",
      "vis_m": 9999,
      "fzfg": false,
      "metar_trigger": false,
      "taf_trigger": false,
      "metar": "METAR EDFH 280250Z 22010KT 200V260 CAVOK 11/05 Q1017",
      "taf": "TAF EDFH 272300Z 2800/2824 21009KT CAVOK"
    },
    {
      "icao": "EDJA",
      "alert": "OK",
      "vis_m": 9999,
      "fzfg": false,
      "metar_trigger": false,
      "taf_trigger": false,
      "metar": "METAR EDJA 280250Z AUTO 23003KT 9999 // FEW140/// 01/M02 Q1019",
      "taf": "TAF EDJA 280200Z 2803/2812 19005KT CAVOK"
    },
    {
      "icao": "EDLW",
      "alert": "OK",
      "vis_m": 9999,
      "fzfg": false,
      "metar_trigger": false,
      "taf_trigger": false,
      "metar": "METAR EDLW 280250Z AUTO 22006KT 9999 // SCT042/// BKN110/// BKN130/// 11/08 Q1014",
      "taf": "TAF EDLW 271700Z 2718/2818 20010KT CAVOK"
    },
    {
      "icao": "EDNY",
      "alert": "OK",
      "vis_m": 9999,
      "fzfg": false,
      "metar_trigger": false,
      "taf_trigger": false,
      "metar": "METAR EDNY 280250Z AUTO 06003KT 9999 // NCD M00/M00 Q1020",
      "taf": "TAF EDNY 280200Z 2803/2812 VRB02KT CAVOK"
    },
    {
      "icao": "EDSB",
      "alert": "OK",
      "vis_m": 9999,
      "fzfg": false,
      "metar_trigger": false,
      "taf_trigger": false,
      "metar": "METAR EDSB 280250Z AUTO 23005KT 9999 NCD 08/04 Q1019",
      "taf": "TAF EDSB 272300Z 2800/2824 22003KT CAVOK"
    },
    {
      "icao": "EETN",
      "alert": "OK",
      "vis_m": 800,
      "fzfg": false,
      "metar_trigger": false,
      "taf_trigger": false,
      "metar": "METAR EETN 280250Z 22007KT 0800 R26/P2000N -DZ FG VV002 02/02 Q1011",
      "taf": "TAF EETN 272330Z 2800/2824 23010KT 6000 OVC004"
    },
    {
      "icao": "EFTU",
      "alert": "OK",
      "vis_m": 9999,
      "fzfg": false,
      "metar_trigger": false,
      "taf_trigger": false,
      "metar": "METAR EFTU 280250Z AUTO 25005KT 9999 OVC014 02/02 Q1009",
      "taf": "TAF EFTU 280236Z 2803/0103 25006KT 9999 FEW006 BKN015"
    },
    {
      "icao": "EGBB",
      "alert": "OK",
      "vis_m": 7000,
      "fzfg": false,
      "metar_trigger": false,
      "taf_trigger": false,
      "metar": "METAR EGBB 280250Z 33013KT 7000 -RA BKN008 06/05 Q1010 RERA REDZ",
      "taf": "TAF EGBB 272256Z 2800/2824 33010KT 9999 SCT015"
    },
    {
      "icao": "EGGP",
      "alert": "OK",
      "vis_m": 9999,
      "fzfg": false,
      "metar_trigger": false,
      "taf_trigger": false,
      "metar": "METAR EGGP 280250Z 31007KT 9999 -RA SCT039 07/04 Q1012",
      "taf": "TAF EGGP 272255Z 2800/2824 35010KT 9999 SCT035"
    },
    {
      "icao": "EGGW",
      "alert": "OK",
      "vis_m": 8000,
      "fzfg": false,
      "metar_trigger": false,
      "taf_trigger": false,
      "metar": "METAR EGGW 280250Z AUTO VRB02KT 8000 FEW007/// SCT012/// BKN026/// //////TCU 08/07 Q1008",
      "taf": ""
    },
    {
      "icao": "EGKK",
      "alert": "OK",
      "vis_m": 4000,
      "fzfg": false,
      "metar_trigger": false,
      "taf_trigger": false,
      "metar": "METAR EGKK 280250Z 17005KT 140V200 4000 DZ BKN007 09/08 Q1008 REDZ",
      "taf": "TAF EGKK 272258Z 2800/0106 17006KT 9999 FEW008 SCT020"
    },
    {
      "icao": "EGNM",
      "alert": "OK",
      "vis_m": null,
      "fzfg": false,
      "metar_trigger": false,
      "taf_trigger": false,
      "metar": "",
      "taf": "TAF EGNM 272300Z 2800/2824 02009KT 9999 SCT040"
    },
    {
      "icao": "EGPD",
      "alert": "OK",
      "vis_m": 9999,
      "fzfg": false,
      "metar_trigger": false,
      "taf_trigger": false,
      "metar": "METAR EGPD 280250Z COR AUTO VRB01KT 9999 NCD M02/M03 Q1015 NOSIG",
      "taf": "TAF EGPD 272256Z 2800/2824 28004KT CAVOK"
    },
    {
      "icao": "EGPF",
      "alert": "OK",
      "vis_m": 9999,
      "fzfg": false,
      "metar_trigger": false,
      "taf_trigger": false,
      "metar": "METAR EGPF 280250Z AUTO 19002KT 9999 OVC023 03/01 Q1015",
      "taf": "TAF EGPF 272255Z 2800/2824 30005KT 9999 FEW020 SCT035"
    },
    {
      "icao": "EHBK",
      "alert": "OK",
      "vis_m": 9999,
      "fzfg": false,
      "metar_trigger": false,
      "taf_trigger": false,
      "metar": "METAR EHBK 280255Z AUTO 22014KT 190V250 9999 NSC 11/09 Q1015",
      "taf": "TAF EHBK 272309Z 2800/0106 21012KT 9999 BKN030"
    },
    {
      "icao": "EHEH",
      "alert": "OK",
      "vis_m": 9999,
      "fzfg": false,
      "metar_trigger": false,
      "taf_trigger": false,
      "metar": "METAR EHEH 280255Z AUTO 20008KT 160V220 9999 FEW016 OVC100 11/10 Q1014 BLU",
      "taf": "TAF EHEH 272319Z 2800/0106 20009KT 9999 SCT006 BKN007"
    },
    {
      "icao": "EKBI",
      "alert": "OK",
      "vis_m": 250,
      "fzfg": false,
      "metar_trigger": false,
      "taf_trigger": false,
      "metar": "METAR EKBI 280250Z AUTO 11003KT 0250 R09/0800N R27/0750U -RA FG VV003 07/07 Q1012",
      "taf": "TAF EKBI 280227Z 2803/0103 20005KT 1500 BR BKN003"
    },
    {
      "icao": "EKCH",
      "alert": "OK",
      "vis_m": 1500,
      "fzfg": false,
      "metar_trigger": false,
      "taf_trigger": false,
      "metar": "METAR EKCH 280250Z 17009KT 1500 BR -RA OVC002 05/05 Q1013 TEMPO 1300 BKN005",
      "taf": ""
    },
    {
      "icao": "ENAL",
      "alert": "OK",
      "vis_m": 9999,
      "fzfg": false,
      "metar_trigger": false,
      "taf_trigger": false,
      "metar": "METAR ENAL 280250Z AUTO 21018KT 9999 NCD 05/M02 Q1009",
      "taf": "TAF ENAL 280200Z 2803/2812 21015KT 9999 SCT030"
    },
    {
      "icao": "ENBR",
      "alert": "OK",
      "vis_m": 9999,
      "fzfg": false,
      "metar_trigger": false,
      "taf_trigger": false,
      "metar": "METAR ENBR 280250Z AUTO VRB02KT 9999 FEW024/// M01/M02 Q1013 RMK WIND 1200FT 29006KT",
      "taf": "TAF ENBR 272300Z 2800/2824 VRB03KT 9999 FEW025"
    },
    {
      "icao": "ENGM",
      "alert": "OK",
      "vis_m": 600,
      "fzfg": true,
      "metar_trigger": false,
      "taf_trigger": false,
      "metar": "METAR ENGM 280250Z VRB02KT 0600 0450SE R19R/0900U R01R/0500N R19L/0650N R01L/0700U FZFG VV002 M01/M01 Q1011",
      "taf": "TAF ENGM 272300Z 2800/2824 VRB03KT 0300 FZFG VV002"
    },
    {
      "icao": "ENHD",
      "alert": "OK",
      "vis_m": 250,
      "fzfg": true,
      "metar_trigger": false,
      "taf_trigger": false,
      "metar": "METAR ENHD 280250Z AUTO 05003KT 0250 R13/0800N R31/1000N FZFG NCD M01/M01 Q1013",
      "taf": "TAF ENHD 280200Z 2803/2812 VRB03KT 0300 FZFG VV002"
    },
    {
      "icao": "ENTC",
      "alert": "OK",
      "vis_m": 9999,
      "fzfg": false,
      "metar_trigger": false,
      "taf_trigger": false,
      "metar": "METAR ENTC 280250Z AUTO 20019KT 9999 FEW041/// SCT047/// 00/M03 Q0997 RMK WIND 2600FT 19018KT",
      "taf": "TAF ENTC 272300Z 2800/2824 18014KT 9999 SCT025 BKN050"
    },
    {
      "icao": "ENTO",
      "alert": "CRITICAL",
      "vis_m": 100,
      "fzfg": true,
      "metar_trigger": true,
      "taf_trigger": true,
      "metar": "METAR ENTO 280250Z AUTO 36007KT 0100 R18/0400N R36/0600N FZFG VV001 M02/M02 Q1012",
      "taf": "TAF ENTO 272300Z 2800/2824 02005KT 0100 FZFG VV001"
    },
    {
      "icao": "ENVA",
      "alert": "OK",
      "vis_m": 9999,
      "fzfg": false,
      "metar_trigger": false,
      "taf_trigger": false,
      "metar": "METAR ENVA 280250Z AUTO 06002KT 9999 NCD 01/M01 Q1009 RMK WIND 670FT 21013KT",
      "taf": ""
    },
    {
      "icao": "ENZV",
      "alert": "OK",
      "vis_m": 500,
      "fzfg": false,
      "metar_trigger": false,
      "taf_trigger": false,
      "metar": "METAR ENZV 280250Z 14003KT 0500 R18/0900N R36/0400N R10/0400N FG SCT025 00/M00 Q1013",
      "taf": ""
    },
    {
      "icao": "EPGD",
      "alert": "OK",
      "vis_m": 8000,
      "fzfg": false,
      "metar_trigger": false,
      "taf_trigger": false,
      "metar": "METAR EPGD 280300Z 27003KT 240V300 8000 MIFG NSC 04/04 Q1016",
      "taf": "TAF EPGD 272330Z 2800/2824 23006KT CAVOK"
    },
    {
      "icao": "EPKK",
      "alert": "OK",
      "vis_m": 2500,
      "fzfg": false,
      "metar_trigger": false,
      "taf_trigger": false,
      "metar": "METAR EPKK 280300Z 06002KT 2500 MIFG BR NSC M01/M02 Q1023",
      "taf": "TAF EPKK 280230Z 2803/0103 VRB02KT 2000 BR NSC"
    },
    {
      "icao": "EPKT",
      "alert": "OK",
      "vis_m": 9999,
      "fzfg": false,
      "metar_trigger": false,
      "taf_trigger": false,
      "metar": "METAR EPKT 280300Z 18004KT CAVOK 04/01 Q1022",
      "taf": "TAF EPKT 272330Z 2800/2824 20005KT CAVOK"
    },
    {
      "icao": "EPLB",
      "alert": "OK",
      "vis_m": 9999,
      "fzfg": false,
      "metar_trigger": false,
      "taf_trigger": false,
      "metar": "METAR EPLB 280300Z 22005KT CAVOK 02/M01 Q1023",
      "taf": "TAF EPLB 272330Z 2800/2824 VRB02KT CAVOK"
    },
    {
      "icao": "EPMO",
      "alert": "OK",
      "vis_m": 4100,
      "fzfg": false,
      "metar_trigger": false,
      "taf_trigger": false,
      "metar": "METAR EPMO 280300Z 07003KT 020V150 4100 BR NSC M01/M01 Q1021",
      "taf": "TAF EPMO 272330Z 2800/2824 VRB03KT CAVOK"
    },
    {
      "icao": "EPPO",
      "alert": "OK",
      "vis_m": 7000,
      "fzfg": false,
      "metar_trigger": false,
      "taf_trigger": false,
      "metar": "METAR EPPO 280300Z 13003KT 7000 MIFG NSC 06/05 Q1018",
      "taf": "TAF EPPO 272330Z 2800/2824 18003KT CAVOK"
    },
    {
      "icao": "EPRA",
      "alert": "OK",
      "vis_m": 9999,
      "fzfg": false,
      "metar_trigger": false,
      "taf_trigger": false,
      "metar": "METAR EPRA 280300Z 17007KT CAVOK 01/M01 Q1022",
      "taf": "TAF EPRA 280230Z 2803/2812 17008KT CAVOK"
    },
    {
      "icao": "EPRZ",
      "alert": "OK",
      "vis_m": 9999,
      "fzfg": false,
      "metar_trigger": false,
      "taf_trigger": false,
      "metar": "METAR EPRZ 280300Z VRB02KT CAVOK M00/M02 Q1024",
      "taf": "TAF EPRZ 272330Z 2800/2824 20005KT CAVOK"
    },
    {
      "icao": "EPSC",
      "alert": "OK",
      "vis_m": 9999,
      "fzfg": false,
      "metar_trigger": false,
      "taf_trigger": false,
      "metar": "METAR EPSC 280300Z 14008KT CAVOK 06/05 Q1016",
      "taf": "TAF EPSC 272330Z 2800/2824 19008KT CAVOK"
    },
    {
      "icao": "EPSY",
      "alert": "OK",
      "vis_m": 9999,
      "fzfg": false,
      "metar_trigger": false,
      "taf_trigger": false,
      "metar": "METAR EPSY 280300Z 19004KT CAVOK M00/M00 Q1020",
      "taf": "TAF EPSY 280230Z 2803/2812 19004KT CAVOK"
    },
    {
      "icao": "EPWA",
      "alert": "OK",
      "vis_m": 9999,
      "fzfg": false,
      "metar_trigger": false,
      "taf_trigger": false,
      "metar": "METAR EPWA 280300Z 13005KT CAVOK 00/M01 Q1021 NOSIG",
      "taf": "TAF EPWA 280230Z 2803/0103 17008KT CAVOK"
    },
    {
      "icao": "EPWR",
      "alert": "OK",
      "vis_m": 9999,
      "fzfg": false,
      "metar_trigger": false,
      "taf_trigger": false,
      "metar": "METAR EPWR 280300Z 11005KT CAVOK 04/03 Q1020",
      "taf": "TAF EPWR 280230Z 2803/0103 12005KT CAVOK"
    },
    {
      "icao": "ESGG",
      "alert": "OK",
      "vis_m": 250,
      "fzfg": false,
      "metar_trigger": false,
      "taf_trigger": false,
      "metar": "METAR ESGG 280250Z 16005KT 0250 R03/0900N R21/1200U FG VV003 04/04 Q1012",
      "taf": "TAF ESGG 280230Z 2803/0103 15004KT 0100 FG VV002"
    },
    {
      "icao": "ESKN",
      "alert": "OK",
      "vis_m": 9999,
      "fzfg": false,
      "metar_trigger": false,
      "taf_trigger": false,
      "metar": "METAR ESKN 280250Z 26008KT 9999 BKN009 05/04 Q1012",
      "taf": "TAF ESKN 280230Z 2803/0103 23009KT 9999 BKN015"
    },
    {
      "icao": "ESMS",
      "alert": "OK",
      "vis_m": 1300,
      "fzfg": false,
      "metar_trigger": false,
      "taf_trigger": false,
      "metar": "METAR ESMS 280250Z 15006KT 1300 R17/P2000N R35/P2000N -DZ BR VV004 07/07 Q1013",
      "taf": "TAF ESMS 280227Z 2803/0103 21005KT 1200 BR FEW045"
    },
    {
      "icao": "ESSA",
      "alert": "OK",
      "vis_m": 9999,
      "fzfg": false,
      "metar_trigger": false,
      "taf_trigger": false,
      "metar": "METAR ESSA 280250Z 26010KT 9999 OVC007 03/02 Q1011 NOSIG",
      "taf": "TAF ESSA 280230Z 2803/0103 25009KT 9999 BKN012"
    },
    {
      "icao": "EYKA",
      "alert": "OK",
      "vis_m": 9999,
      "fzfg": false,
      "metar_trigger": false,
      "taf_trigger": false,
      "metar": "METAR EYKA 280250Z 18005KT 130V220 CAVOK 02/00 Q1019",
      "taf": "TAF EYKA 272300Z 2800/2824 VRB04KT 9000 NSC"
    },
    {
      "icao": "EYPA",
      "alert": "OK",
      "vis_m": 4400,
      "fzfg": false,
      "metar_trigger": false,
      "taf_trigger": false,
      "metar": "METAR EYPA 280250Z 18007KT 4400 BR NSC 03/02 Q1017",
      "taf": "TAF EYPA 272300Z 2800/2824 18008KT 5000 BR SCT005 SCT020"
    },
    {
      "icao": "EYVI",
      "alert": "OK",
      "vis_m": 9999,
      "fzfg": false,
      "metar_trigger": false,
      "taf_trigger": false,
      "metar": "METAR EYVI 280250Z 17009KT CAVOK 00/M02 Q1020 NOSIG",
      "taf": "TAF EYVI 272300Z 2800/2824 17008KT 9000 NSC"
    },
    {
      "icao": "GCFV",
      "alert": "OK",
      "vis_m": 9999,
      "fzfg": false,
      "metar_trigger": false,
      "taf_trigger": false,
      "metar": "METAR GCFV 280300Z AUTO 33012KT CAVOK 18/12 Q1019",
      "taf": "TAF GCFV 280200Z 2803/0103 01018KT 9999 SCT020 TX22/2814Z TN15/2806Z"
    },
    {
      "icao": "GCLP",
      "alert": "OK",
      "vis_m": 9999,
      "fzfg": false,
      "metar_trigger": false,
      "taf_trigger": false,
      "metar": "METAR GCLP 280300Z 36024KT 9999 FEW020 18/13 Q1019 NOSIG",
      "taf": "TAF GCLP 280200Z 2803/0103 36027KT 9999 SCT020 TX21/2814Z TN16/2806Z"
    },
    {
      "icao": "GCTS",
      "alert": "OK",
      "vis_m": 9999,
      "fzfg": false,
      "metar_trigger": false,
      "taf_trigger": false,
      "metar": "METAR GCTS 280300Z 35009KT 320V020 CAVOK 18/10 Q1021 NOSIG",
      "taf": "TAF GCTS 280200Z 2803/0103 07015KT CAVOK TX24/2814Z TN16/2806Z"
    },
    {
      "icao": "GMAD",
      "alert": "OK",
      "vis_m": 6000,
      "fzfg": false,
      "metar_trigger": false,
      "taf_trigger": false,
      "metar": "METAR GMAD 280300Z 00000KT 6000 NSC 14/10 Q1014 NOSIG",
      "taf": "TAF GMAD 272300Z 2800/0106 14004KT 6000 NSC"
    },
    {
      "icao": "GMMN",
      "alert": "OK",
      "vis_m": 4000,
      "fzfg": false,
      "metar_trigger": false,
      "taf_trigger": false,
      "metar": "METAR GMMN 280300Z 03005KT 4000 BR SCT010 SCT016 12/10 Q1021 NOSIG",
      "taf": "TAF GMMN 272300Z 2800/0106 04005KT 8000 BKN013"
    },
    {
      "icao": "GMMX",
      "alert": "OK",
      "vis_m": 6000,
      "fzfg": false,
      "metar_trigger": false,
      "taf_trigger": false,
      "metar": "METAR GMMX 280300Z 01004KT 320V050 6000 SCT010 BKN200 13/11 Q1019 TEMPO 4000 BR",
      "taf": "TAF GMMX 272300Z 2800/0106 02006KT 8000 NSC"
    },
    {
      "icao": "HEGN",
      "alert": "OK",
      "vis_m": 9999,
      "fzfg": false,
      "metar_trigger": false,
      "taf_trigger": false,
      "metar": "METAR HEGN 280200Z 29012KT CAVOK 12/01 Q1015 NOSIG",
      "taf": "TAF HEGN 272304Z 2800/0106 29012KT CAVOK"
    },
    {
      "icao": "HEMA",
      "alert": "OK",
      "vis_m": 9999,
      "fzfg": false,
      "metar_trigger": false,
      "taf_trigger": false,
      "metar": "METAR HEMA 280200Z 31010KT CAVOK 15/04 Q1013 NOSIG",
      "taf": "TAF HEMA 272304Z 2800/0106 26010KT CAVOK"
    },
    {
      "icao": "HESH",
      "alert": "OK",
      "vis_m": 9999,
      "fzfg": false,
      "metar_trigger": false,
      "taf_trigger": false,
      "metar": "METAR HESH 280200Z 36017KT CAVOK 15/02 Q1013 NOSIG",
      "taf": "TAF HESH 272304Z 2800/0106 34012KT CAVOK"
    },
    {
      "icao": "HESX",
      "alert": "OK",
      "vis_m": 9999,
      "fzfg": false,
      "metar_trigger": false,
      "taf_trigger": false,
      "metar": "METAR HESX 280200Z 28003KT CAVOK 07/04 Q1018 NOSIG",
      "taf": "TAF HESX 272304Z 2800/0106 33006KT 9999 SCT020"
    },
    {
      "icao": "LATI",
      "alert": "OK",
      "vis_m": null,
      "fzfg": false,
      "metar_trigger": false,
      "taf_trigger": false,
      "metar": "",
      "taf": ""
    },
    {
      "icao": "LBPD",
      "alert": "OK",
      "vis_m": 4400,
      "fzfg": false,
      "metar_trigger": false,
      "taf_trigger": false,
      "metar": "METAR LBPD 280300Z AUTO VRB02KT 4400 BR OVC002/// M01/M01 Q1029",
      "taf": "TAF LBPD 272300Z 2800/2824 VRB04KT CAVOK"
    },
    {
      "icao": "LBSF",
      "alert": "OK",
      "vis_m": 9999,
      "fzfg": false,
      "metar_trigger": false,
      "taf_trigger": false,
      "metar": "METAR LBSF 280300Z AUTO 31003KT 9999 NCD M02/M03 Q1027 NOSIG",
      "taf": "TAF LBSF 272300Z 2800/2824 VRB04KT CAVOK"
    },
    {
      "icao": "LBWN",
      "alert": "OK",
      "vis_m": 9999,
      "fzfg": false,
      "metar_trigger": false,
      "taf_trigger": false,
      "metar": "METAR LBWN 280300Z AUTO 25003KT 9999 OVC016/// 01/M01 Q1029 NOSIG",
      "taf": "TAF LBWN 272312Z 2800/2824 VRB04KT 9999 OVC015"
    },
    {
      "icao": "LCLK",
      "alert": "OK",
      "vis_m": 9999,
      "fzfg": false,
      "metar_trigger": false,
      "taf_trigger": false,
      "metar": "METAR LCLK 280300Z 32006KT CAVOK 07/03 Q1017 NOSIG",
      "taf": "TAF LCLK 272330Z 2800/0100 33009KT 9999 FEW030"
    },
    {
      "icao": "LCPH",
      "alert": "OK",
      "vis_m": 9999,
      "fzfg": false,
      "metar_trigger": false,
      "taf_trigger": false,
      "metar": "METAR LCPH 280300Z AUTO 05009KT 010V080 9999 NCD 06/M02 Q1017 NOSIG",
      "taf": "TAF LCPH 272330Z 2800/0100 05009KT 9999 FEW040"
    },
    {
      "icao": "LEAL",
      "alert": "OK",
      "vis_m": 9999,
      "fzfg": false,
      "metar_trigger": false,
      "taf_trigger": false,
      "metar": "METAR LEAL 280300Z VRB02KT 9999 BKN019 14/11 Q1021 NOSIG",
      "taf": "TAF LEAL 272300Z 2800/2824 VRB04KT 9999 FEW020 TX20/2812Z TN07/2806Z"
    },
    {
      "icao": "LEBB",
      "alert": "OK",
      "vis_m": 9999,
      "fzfg": false,
      "metar_trigger": false,
      "taf_trigger": false,
      "metar": "METAR LEBB 280300Z AUTO 27006KT 230V300 9999 BKN042 OVC049 11/07 Q1026",
      "taf": "TAF LEBB 272300Z 2800/2824 31009KT 9999 SCT015 BKN030 TX13/2814Z TN09/2807Z"
    },
    {
      "icao": "LEBL",
      "alert": "OK",
      "vis_m": 9999,
      "fzfg": false,
      "metar_trigger": false,
      "taf_trigger": false,
      "metar": "METAR LEBL 280300Z 01004KT 9999 BKN027 11/09 Q1023 NOSIG",
      "taf": "TAF LEBL 272300Z 2800/2824 VRB04KT 9999 BKN015 TX16/2813Z TN08/2806Z"
    },
    {
      "icao": "LECH",
      "alert": "OK",
      "vis_m": 8000,
      "fzfg": false,
      "metar_trigger": false,
      "taf_trigger": false,
      "metar": "METAR LECH 280300Z AUTO 08005KT 8000 OVC009 09/08 Q1022",
      "taf": ""
    },
    {
      "icao": "LEMD",
      "alert": "OK",
      "vis_m": 9999,
      "fzfg": false,
      "metar_trigger": false,
      "taf_trigger": false,
      "metar": "METAR LEMD 280300Z 32003KT CAVOK 08/03 Q1021 NOSIG",
      "taf": "TAF LEMD 272300Z 2800/0106 VRB04KT CAVOK TX18/2815Z TN04/0106Z"
    },
    {
      "icao": "LEMG",
      "alert": "OK",
      "vis_m": 9999,
      "fzfg": false,
      "metar_trigger": false,
      "taf_trigger": false,
      "metar": "METAR LEMG 280300Z 29003KT 9999 BKN016 11/10 Q1020 NOSIG",
      "taf": "TAF LEMG 272300Z 2800/2824 29005KT 9999 BKN025 TX19/2814Z TN07/2807Z"
    },
    {
      "icao": "LEVC",
      "alert": "OK",
      "vis_m": 9999,
      "fzfg": false,
      "metar_trigger": false,
      "taf_trigger": false,
      "metar": "METAR LEVC 280300Z 35004KT 320V020 9999 BKN021 12/09 Q1022 NOSIG",
      "taf": "TAF LEVC 272300Z 2800/2824 VRB04KT 9999 FEW020 TX18/2812Z TN09/2806Z"
    },
    {
      "icao": "LEXJ",
      "alert": "OK",
      "vis_m": 9999,
      "fzfg": false,
      "metar_trigger": false,
      "taf_trigger": false,
      "metar": "METAR LEXJ 280300Z AUTO 22006KT 9999 SCT024 SCT029 BKN035 09/06 Q1027",
      "taf": "TAF LEXJ 280200Z 2803/0103 24009KT 9999 SCT020 BKN030 TX13/2815Z TN08/2807Z"
    },
    {
      "icao": "LEZG",
      "alert": "OK",
      "vis_m": 9999,
      "fzfg": false,
      "metar_trigger": false,
      "taf_trigger": false,
      "metar": "METAR LEZG 280300Z 29016KT CAVOK 10/05 Q1023 NOSIG",
      "taf": "TAF LEZG 272300Z 2800/2824 31014KT CAVOK TX17/2815Z TN06/2806Z"
    },
    {
      "icao": "LEZL",
      "alert": "OK",
      "vis_m": 9999,
      "fzfg": false,
      "metar_trigger": false,
      "taf_trigger": false,
      "metar": "METAR LEZL 280300Z AUTO 02005KT CAVOK 14/11 Q1020",
      "taf": "TAF LEZL 280200Z 2803/0103 02005KT CAVOK TX22/2815Z TN10/2807Z"
    },
    {
      "icao": "LFBD",
      "alert": "OK",
      "vis_m": 9999,
      "fzfg": false,
      "metar_trigger": false,
      "taf_trigger": false,
      "metar": "METAR LFBD 280300Z AUTO 24006KT CAVOK 10/09 Q1024 TEMPO 4000 -SHRA BKN030TCU",
      "taf": "TAF LFBD 272300Z 2800/0106 24005KT 9999 SCT035 TX15/2814Z TN02/0106Z"
    },
    {
      "icao": "LFLL",
      "alert": "OK",
      "vis_m": 9999,
      "fzfg": false,
      "metar_trigger": false,
      "taf_trigger": false,
      "metar": "METAR LFLL 280300Z 16007KT CAVOK 10/06 Q1022 NOSIG",
      "taf": "TAF LFLL 272300Z 2800/0106 18010KT CAVOK"
    },
    {
      "icao": "LFLS",
      "alert": "OK",
      "vis_m": 9999,
      "fzfg": false,
      "metar_trigger": false,
      "taf_trigger": false,
      "metar": "METAR LFLS 280300Z AUTO 00000KT 9999 BKN018 BKN034 08/06 Q1023 TEMPO BKN012",
      "taf": "TAF LFLS 280200Z 2803/0103 22005KT 9999 BKN032 BKN200"
    },
    {
      "icao": "LFMN",
      "alert": "OK",
      "vis_m": 9999,
      "fzfg": false,
      "metar_trigger": false,
      "taf_trigger": false,
      "metar": "METAR LFMN 280300Z 33005KT 9999 BKN036 10/08 Q1024 NOSIG",
      "taf": "TAF LFMN 272000Z 2721/0103 34010KT 9999 BKN035"
    },
    {
      "icao": "LFOB",
      "alert": "OK",
      "vis_m": 9999,
      "fzfg": false,
      "metar_trigger": false,
      "taf_trigger": false,
      "metar": "METAR LFOB 280300Z AUTO 20012KT 9999 FEW029 BKN041 10/07 Q1015 TEMPO 4000 -SHRA BKN013TCU",
      "taf": "TAF LFOB 272300Z 2800/2824 20012KT 9999 SCT017"
    },
    {
      "icao": "LFPO",
      "alert": "OK",
      "vis_m": 9999,
      "fzfg": false,
      "metar_trigger": false,
      "taf_trigger": false,
      "metar": "METAR LFPO 280300Z AUTO 22009KT 9999 -RA BKN015 BKN022 BKN034 10/08 Q1018 TEMPO 23015G25KT",
      "taf": "TAF LFPO 272300Z 2800/0106 22012KT 9999 BKN020"
    },
    {
      "icao": "LFSB",
      "alert": "OK",
      "vis_m": 9999,
      "fzfg": false,
      "metar_trigger": false,
      "taf_trigger": false,
      "metar": "METAR LFSB 280300Z AUTO 15004KT 090V220 CAVOK 06/04 Q1021 NOSIG",
      "taf": "TAF LFSB 272300Z 2800/2824 VRB03KT CAVOK"
    },
    {
      "icao": "LGAV",
      "alert": "OK",
      "vis_m": 9999,
      "fzfg": false,
      "metar_trigger": false,
      "taf_trigger": false,
      "metar": "METAR LGAV 280250Z 35009KT 9999 SCT020 08/02 Q1026 NOSIG",
      "taf": "TAF LGAV 272300Z 2800/2824 02010KT 9999 SCT025"
    },
    {
      "icao": "LGTS",
      "alert": "OK",
      "vis_m": 9999,
      "fzfg": false,
      "metar_trigger": false,
      "taf_trigger": false,
      "metar": "METAR LGTS 280250Z 11003KT 9999 BKN030 08/06 Q1027 NOSIG",
      "taf": "TAF LGTS 272300Z 2800/2824 VRB03KT 9999 BKN030"
    },
    {
      "icao": "LHBP",
      "alert": "OK",
      "vis_m": 9999,
      "fzfg": false,
      "metar_trigger": false,
      "taf_trigger": false,
      "metar": "METAR LHBP 280300Z 09003KT CAVOK 01/M03 Q1026 NOSIG",
      "taf": "TAF LHBP 272315Z 2800/2824 08006KT CAVOK"
    },
    {
      "icao": "LHDC",
      "alert": "OK",
      "vis_m": 7000,
      "fzfg": false,
      "metar_trigger": false,
      "taf_trigger": false,
      "metar": "METAR LHDC 280245Z AUTO 06002KT 7000 NCD M02/M04 Q1027",
      "taf": ""
    },
    {
      "icao": "LIBD",
      "alert": "OK",
      "vis_m": 4000,
      "fzfg": false,
      "metar_trigger": false,
      "taf_trigger": false,
      "metar": "METAR LIBD 280250Z 26003KT 4000 BR NSC 06/06 Q1024",
      "taf": "TAF LIBD 272300Z 2800/2824 VRB05KT 7000 NSC"
    },
    {
      "icao": "LIBG",
      "alert": "OK",
      "vis_m": null,
      "fzfg": false,
      "metar_trigger": false,
      "taf_trigger": false,
      "metar": "",
      "taf": "TAF LIBG 271700Z 2718/2803 VRB05KT CAVOK"
    },
    {
      "icao": "LIBP",
      "alert": "OK",
      "vis_m": 2000,
      "fzfg": false,
      "metar_trigger": false,
      "taf_trigger": false,
      "metar": "METAR LIBP 280250Z 23002KT 2000 BR NSC 08/08 Q1025",
      "taf": "TAF LIBP 272300Z 2800/2824 VRB05KT 0300 FG OVC002"
    },
    {
      "icao": "LIBR",
      "alert": "OK",
      "vis_m": 9999,
      "fzfg": false,
      "metar_trigger": false,
      "taf_trigger": false,
      "metar": "METAR LIBR 280250Z 25004KT CAVOK 08/07 Q1024",
      "taf": "TAF LIBR 272300Z 2800/2824 VRB05KT CAVOK"
    },
    {
      "icao": "LICA",
      "alert": "OK",
      "vis_m": 9999,
      "fzfg": false,
      "metar_trigger": false,
      "taf_trigger": false,
      "metar": "METAR LICA 280250Z 04003KT 360V070 9999 BKN025 12/10 Q1024",
      "taf": "TAF LICA 272300Z 2800/2824 VRB05KT 9999 SCT020"
    },
    {
      "icao": "LICC",
      "alert": "OK",
      "vis_m": 6000,
      "fzfg": false,
      "metar_trigger": false,
      "taf_trigger": false,
      "metar": "METAR LICC 280250Z 27004KT 6000 FEW010 SCT020 13/10 Q1023",
      "taf": "TAF LICC 272300Z 2800/2824 VRB05KT 5000 BR BKN040"
    },
    {
      "icao": "LICJ",
      "alert": "OK",
      "vis_m": 9999,
      "fzfg": false,
      "metar_trigger": false,
      "taf_trigger": false,
      "metar": "METAR LICJ 280250Z 15005KT 9999 SCT025 13/09 Q1024",
      "taf": "TAF LICJ 272300Z 2800/2824 VRB05KT 9999 SCT015"
    },
    {
      "icao": "LIMC",
      "alert": "OK",
      "vis_m": 9999,
      "fzfg": false,
      "metar_trigger": false,
      "taf_trigger": false,
      "metar": "METAR LIMC 280250Z 02004KT 9999 BCFG SCT030 05/05 Q1023 NOSIG",
      "taf": "TAF LIMC 272300Z 2800/0106 VRB04KT CAVOK"
    },
    {
      "icao": "LIME",
      "alert": "OK",
      "vis_m": 8000,
      "fzfg": false,
      "metar_trigger": false,
      "taf_trigger": false,
      "metar": "METAR LIME 280250Z 01003KT 8000 NSC 08/06 Q1023 NOSIG",
      "taf": "TAF LIME 272300Z 2800/2824 VRB05KT 9000 SCT030"
    },
    {
      "icao": "LIMF",
      "alert": "OK",
      "vis_m": 8000,
      "fzfg": false,
      "metar_trigger": false,
      "taf_trigger": false,
      "metar": "METAR LIMF 280250Z 29004KT 260V320 8000 BKN030 08/05 Q1023",
      "taf": "TAF LIMF 272300Z 2800/2824 VRB04KT CAVOK"
    },
    {
      "icao": "LIMJ",
      "alert": "OK",
      "vis_m": 9999,
      "fzfg": false,
      "metar_trigger": false,
      "taf_trigger": false,
      "metar": "METAR LIMJ 280250Z AUTO VRB01KT 9999 // OVC036/// 13/09 Q1024",
      "taf": "TAF LIMJ 272300Z 2800/2824 VRB05KT 9999 FEW010 BKN030"
    },
    {
      "icao": "LIPE",
      "alert": "OK",
      "vis_m": 9999,
      "fzfg": false,
      "metar_trigger": false,
      "taf_trigger": false,
      "metar": "METAR LIPE 280220Z 19005KT 9999 SCT030 11/07 Q1023",
      "taf": "TAF LIPE 272300Z 2800/2824 VRB04KT 4000 BR FEW020"
    },
    {
      "icao": "LIPH",
      "alert": "OK",
      "vis_m": 50,
      "fzfg": false,
      "metar_trigger": false,
      "taf_trigger": false,
      "metar": "METAR LIPH 280250Z AUTO 08002KT 0050 R07/0300N // VV001 07/07 Q1024",
      "taf": "TAF LIPH 272300Z 2800/2824 VRB04KT 0200 FG OVC001"
    },
    {
      "icao": "LIPQ",
      "alert": "OK",
      "vis_m": 200,
      "fzfg": false,
      "metar_trigger": false,
      "taf_trigger": false,
      "metar": "METAR LIPQ 280250Z AUTO 29002KT 0200 R09/0800N // VV002 04/04 Q1024",
      "taf": "TAF LIPQ 272300Z 2800/2824 VRB04KT 0100 FG OVC001"
    },
    {
      "icao": "LIPR",
      "alert": "OK",
      "vis_m": 100,
      "fzfg": false,
      "metar_trigger": false,
      "taf_trigger": false,
      "metar": "METAR LIPR 280250Z AUTO 19002KT 0100 R30/0350N // VV002 07/07 Q1024",
      "taf": "TAF LIPR 272300Z 2800/2824 VRB04KT 1200 BR SCT010"
    },
    {
      "icao": "LIPX",
      "alert": "OK",
      "vis_m": 4000,
      "fzfg": false,
      "metar_trigger": false,
      "taf_trigger": false,
      "metar": "METAR LIPX 280250Z 22003KT 4000 R04/0700D BR NSC 06/06 Q1023",
      "taf": "TAF LIPX 272300Z 2800/2824 VRB05KT 7000 NSC"
    },
    {
      "icao": "LIPY",
      "alert": "OK",
      "vis_m": 150,
      "fzfg": false,
      "metar_trigger": false,
      "taf_trigger": false,
      "metar": "METAR LIPY 280250Z AUTO VRB02KT 0150 R22/0450N // VV002 07/07 Q1024",
      "taf": "TAF LIPY 272300Z 2800/2824 VRB04KT 0200 FG OVC001"
    },
    {
      "icao": "LIPZ",
      "alert": "OK",
      "vis_m": 50,
      "fzfg": false,
      "metar_trigger": false,
      "taf_trigger": false,
      "metar": "METAR LIPZ 280250Z 02003KT 0050 R04R/0325N FG VV001 07/07 Q1024 NOSIG",
      "taf": "TAF LIPZ 272300Z 2800/0106 VRB04KT 0200 FG BKN002"
    },
    {
      "icao": "LIRF",
      "alert": "OK",
      "vis_m": 9999,
      "fzfg": false,
      "metar_trigger": false,
      "taf_trigger": false,
      "metar": "METAR LIRF 280250Z 05004KT 9999 SCT035 12/09 Q1024 NOSIG",
      "taf": "TAF LIRF 272300Z 2800/0106 VRB05KT 8000 BKN030"
    },
    {
      "icao": "LIRN",
      "alert": "OK",
      "vis_m": 9999,
      "fzfg": false,
      "metar_trigger": false,
      "taf_trigger": false,
      "metar": "METAR LIRN 280250Z 03004KT 9999 BKN025 13/09 Q1024 NOSIG",
      "taf": "TAF LIRN 272300Z 2800/2824 VRB05KT 7000 BKN025"
    },
    {
      "icao": "LIRP",
      "alert": "OK",
      "vis_m": 6000,
      "fzfg": false,
      "metar_trigger": false,
      "taf_trigger": false,
      "metar": "METAR LIRP 280245Z COR 09002KT 6000 MIFG SCT035 08/08 Q1025 NOSIG",
      "taf": "TAF LIRP 272300Z 2800/2824 VRB03KT 9999 SCT030"
    },
    {
      "icao": "LIRZ",
      "alert": "OK",
      "vis_m": null,
      "fzfg": false,
      "metar_trigger": false,
      "taf_trigger": false,
      "metar": "",
      "taf": "TAF LIRZ 271700Z 2718/2818 VRB05KT 7000 NSC"
    },
    {
      "icao": "LJLJ",
      "alert": "OK",
      "vis_m": 9999,
      "fzfg": false,
      "metar_trigger": false,
      "taf_trigger": false,
      "metar": "METAR LJLJ 280300Z 30004KT 9999 MIFG NSC M00/M01 Q1023 NOSIG",
      "taf": "TAF LJLJ 272300Z 2800/0100 VRB02KT CAVOK"
    },
    {
      "icao": "LKMT",
      "alert": "OK",
      "vis_m": 9999,
      "fzfg": false,
      "metar_trigger": false,
      "taf_trigger": false,
      "metar": "METAR LKMT 280300Z 23011KT CAVOK 02/00 Q1023 NOSIG",
      "taf": "TAF LKMT 272300Z 2800/2824 23011KT CAVOK"
    },
    {
      "icao": "LKPR",
      "alert": "OK",
      "vis_m": 400,
      "fzfg": false,
      "metar_trigger": false,
      "taf_trigger": false,
      "metar": "METAR LKPR 280300Z VRB02KT 0400 R24/0450N R30/0500N FG VV001 01/01 Q1021 NOSIG",
      "taf": "TAF LKPR 280200Z 2803/0109 33003KT 0400 FG VV001"
    },
    {
      "icao": "LLBG",
      "alert": "OK",
      "vis_m": 9999,
      "fzfg": false,
      "metar_trigger": false,
      "taf_trigger": false,
      "metar": "METAR LLBG 280250Z 17004KT CAVOK 08/02 Q1017 NOSIG RMK SCT075",
      "taf": "TAF LLBG 272301Z 2800/2824 14005KT 9999 FEW050 TX16/2812Z TN06/2804Z"
    },
    {
      "icao": "LMML",
      "alert": "OK",
      "vis_m": 9999,
      "fzfg": false,
      "metar_trigger": false,
      "taf_trigger": false,
      "metar": "METAR LMML 280315Z 30003KT 9999 SCT013 11/10 Q1024 NOSIG",
      "taf": "TAF LMML 272300Z 2800/2824 23005KT 9999 FEW015"
    },
    {
      "icao": "LOWW",
      "alert": "OK",
      "vis_m": 9999,
      "fzfg": false,
      "metar_trigger": false,
      "taf_trigger": false,
      "metar": "METAR LOWW 280250Z 15011KT CAVOK 05/01 Q1023 NOSIG",
      "taf": "TAF LOWW 280215Z 2803/0109 13012KT CAVOK TX13/2814Z TN02/0105Z"
    },
    {
      "icao": "LPFR",
      "alert": "OK",
      "vis_m": 9999,
      "fzfg": false,
      "metar_trigger": false,
      "taf_trigger": false,
      "metar": "METAR LPFR 280300Z 30007KT CAVOK 11/05 Q1022",
      "taf": "TAF LPFR 272300Z 2800/2824 33010KT 9999 FEW012"
    },
    {
      "icao": "LPMA",
      "alert": "OK",
      "vis_m": 9999,
      "fzfg": false,
      "metar_trigger": false,
      "taf_trigger": false,
      "metar": "METAR LPMA 280300Z 01016G26KT 330V040 9999 BKN014 16/09 Q1027",
      "taf": "TAF LPMA 272300Z 2800/2824 01015KT 9999 SCT015"
    },
    {
      "icao": "LPPR",
      "alert": "OK",
      "vis_m": 9999,
      "fzfg": false,
      "metar_trigger": false,
      "taf_trigger": false,
      "metar": "METAR LPPR 280300Z 01002KT CAVOK 06/04 Q1027",
      "taf": "TAF LPPR 272300Z 2800/2824 02007KT CAVOK"
    },
    {
      "icao": "LPPS",
      "alert": "OK",
      "vis_m": 9999,
      "fzfg": false,
      "metar_trigger": false,
      "taf_trigger": false,
      "metar": "METAR LPPS 280300Z 03012KT 9999 BKN014 15/09 Q1028",
      "taf": "TAF LPPS 272300Z 2800/0106 02015KT 5000 -RADZ BR SCT004 BKN008"
    },
    {
      "icao": "LPPT",
      "alert": "OK",
      "vis_m": 9999,
      "fzfg": false,
      "metar_trigger": false,
      "taf_trigger": false,
      "metar": "METAR LPPT 280300Z 35014KT 9999 FEW025 10/06 Q1025",
      "taf": "TAF LPPT 272300Z 2800/0106 35013KT 9999 FEW025"
    },
    {
      "icao": "LQBK",
      "alert": "OK",
      "vis_m": 9999,
      "fzfg": false,
      "metar_trigger": false,
      "taf_trigger": false,
      "metar": "METAR LQBK 280300Z 15003KT CAVOK M00/M01 Q1024 NOSIG",
      "taf": "TAF LQBK 272300Z 2800/2824 33005KT CAVOK TX17/2814Z TN00/2806Z"
    },
    {
      "icao": "LQSA",
      "alert": "OK",
      "vis_m": 9999,
      "fzfg": false,
      "metar_trigger": false,
      "taf_trigger": false,
      "metar": "METAR LQSA 280300Z 00000KT CAVOK M01/M01 Q1024",
      "taf": "TAF LQSA 272300Z 2800/2824 VRB02KT CAVOK TX18/2814Z TNM02/2805Z"
    },
    {
      "icao": "LQTZ",
      "alert": "OK",
      "vis_m": 9999,
      "fzfg": false,
      "metar_trigger": false,
      "taf_trigger": false,
      "metar": "METAR LQTZ 280300Z VRB02KT CAVOK M01/M01 Q1024",
      "taf": "TAF LQTZ 272300Z 2800/2824 VRB02KT CAVOK TX18/2814Z TNM03/2806Z"
    },
    {
      "icao": "LRBC",
      "alert": "OK",
      "vis_m": 5000,
      "fzfg": false,
      "metar_trigger": false,
      "taf_trigger": false,
      "metar": "METAR LRBC 280300Z 21005KT 5000 BR OVC002 M02/M02 Q1029",
      "taf": "TAF LRBC 280200Z 2803/2812 16008KT 3000 BR OVC002"
    },
    {
      "icao": "LRBS",
      "alert": "OK",
      "vis_m": 3000,
      "fzfg": false,
      "metar_trigger": false,
      "taf_trigger": false,
      "metar": "METAR LRBS 280300Z 09005KT 060V120 3000 BR OVC003 M01/M02 Q1030 NOSIG",
      "taf": "TAF LRBS 272300Z 2800/2824 VRB04KT 9999 OVC010"
    },
    {
      "icao": "LRBV",
      "alert": "OK",
      "vis_m": 5000,
      "fzfg": false,
      "metar_trigger": false,
      "taf_trigger": false,
      "metar": "METAR LRBV 280300Z AUTO 20003KT 5000 BR NCD M05/M06 Q1027",
      "taf": "TAF LRBV 280200Z 2803/2812 VRB04KT 5000 BR NSC"
    },
    {
      "icao": "LRCL",
      "alert": "OK",
      "vis_m": 9999,
      "fzfg": false,
      "metar_trigger": false,
      "taf_trigger": false,
      "metar": "METAR LRCL 280300Z 00000KT 9999 FEW005 M04/M06 Q1027",
      "taf": "TAF LRCL 280200Z 2803/2812 VRB04KT CAVOK"
    },
    {
      "icao": "LRCV",
      "alert": "OK",
      "vis_m": 3500,
      "fzfg": false,
      "metar_trigger": false,
      "taf_trigger": false,
      "metar": "METAR LRCV 280300Z 08007KT 3500 BR BKN003 M02/M02 Q1029",
      "taf": "TAF LRCV 280200Z 2803/2812 07010KT 3000 BR BKN005"
    },
    {
      "icao": "LRIA",
      "alert": "OK",
      "vis_m": 8000,
      "fzfg": false,
      "metar_trigger": false,
      "taf_trigger": false,
      "metar": "METAR LRIA 280300Z 13004KT 8000 OVC004 M03/M04 Q1030",
      "taf": "TAF LRIA 280200Z 2803/2812 12006KT 5000 BR OVC005"
    },
    {
      "icao": "LROP",
      "alert": "OK",
      "vis_m": 3500,
      "fzfg": false,
      "metar_trigger": false,
      "taf_trigger": false,
      "metar": "METAR LROP 280300Z 10005KT 3500 BR OVC004 M01/M02 Q1030 NOSIG",
      "taf": "TAF LROP 272300Z 2800/2824 VRB04KT 9999 OVC010"
    },
    {
      "icao": "LRSB",
      "alert": "OK",
      "vis_m": 9000,
      "fzfg": false,
      "metar_trigger": false,
      "taf_trigger": false,
      "metar": "METAR LRSB 280300Z 22002KT 9000 NSC M04/M05 Q1026",
      "taf": "TAF LRSB 272300Z 2800/2824 VRB04KT CAVOK"
    },
    {
      "icao": "LRSM",
      "alert": "OK",
      "vis_m": 9999,
      "fzfg": false,
      "metar_trigger": false,
      "taf_trigger": false,
      "metar": "METAR LRSM 280300Z AUTO 08003KT 9999 SCT240/// M01/M03 Q1027",
      "taf": ""
    },
    {
      "icao": "LRSV",
      "alert": "CRITICAL",
      "vis_m": 100,
      "fzfg": true,
      "metar_trigger": true,
      "taf_trigger": false,
      "metar": "METAR LRSV 280300Z 17005KT 0100 R34/0375N FZFG VV001 M03/M03 Q1026",
      "taf": "TAF LRSV 280200Z 2803/2812 15008KT 0150 FZFG OVC001"
    },
    {
      "icao": "LRTM",
      "alert": "OK",
      "vis_m": 9999,
      "fzfg": false,
      "metar_trigger": false,
      "taf_trigger": false,
      "metar": "METAR LRTM 280300Z AUTO 09005KT 9999 NCD M04/M05 Q1027",
      "taf": "TAF LRTM 280200Z 2803/2812 VRB04KT 5000 BR NSC"
    },
    {
      "icao": "LRTR",
      "alert": "OK",
      "vis_m": 9999,
      "fzfg": false,
      "metar_trigger": false,
      "taf_trigger": false,
      "metar": "METAR LRTR 280300Z 08007KT CAVOK 00/M00 Q1026 NOSIG",
      "taf": "TAF LRTR 272300Z 2800/2824 10006KT CAVOK"
    },
    {
      "icao": "LTAC",
      "alert": "OK",
      "vis_m": 9999,
      "fzfg": false,
      "metar_trigger": false,
      "taf_trigger": false,
      "metar": "METAR LTAC 280250Z 06004KT 9999 SCT040 SCT180 M03/M04 Q1019 NOSIG RMK RWY21C VRB02KT RWY03L 05004KT RWY21R VRB02KT RWY03R 03003KT RWY21L 08004KT",
      "taf": "TAF LTAC 272240Z 2800/2824 VRB02KT 9999 SCT040 SCT100"
    },
    {
      "icao": "LTFM",
      "alert": "OK",
      "vis_m": 9999,
      "fzfg": false,
      "metar_trigger": false,
      "taf_trigger": false,
      "metar": "METAR LTFM 280250Z 01012KT 9999 -RA BKN012 BKN026 05/02 Q1028 NOSIG RMK RWY17L 01013KT RWY34L 36011KT RWY16R 36011KT RWY36 01012KT RWY18 01012KT",
      "taf": "TAF LTFM 272240Z 2800/0106 36014KT 9999 SCT017 BKN026"
    },
    {
      "icao": "LUKK",
      "alert": "OK",
      "vis_m": 2400,
      "fzfg": false,
      "metar_trigger": false,
      "taf_trigger": false,
      "metar": "METAR LUKK 280300Z VRB02KT 2400 BR OVC002 M03/M03 Q1030 TEMPO 3000 BR",
      "taf": "TAF LUKK 272313Z 2800/2824 VRB04KT 9999 BKN006"
    },
    {
      "icao": "LWOH",
      "alert": "OK",
      "vis_m": null,
      "fzfg": false,
      "metar_trigger": false,
      "taf_trigger": false,
      "metar": "",
      "taf": "TAF LWOH 280210Z 2803/0103 VRB02KT CAVOK"
    },
    {
      "icao": "LWSK",
      "alert": "OK",
      "vis_m": null,
      "fzfg": false,
      "metar_trigger": false,
      "taf_trigger": false,
      "metar": "",
      "taf": "TAF LWSK 280210Z 2803/0103 VRB02KT 9999 BKN010"
    },
    {
      "icao": "LYBE",
      "alert": "OK",
      "vis_m": 9999,
      "fzfg": false,
      "metar_trigger": false,
      "taf_trigger": false,
      "metar": "METAR LYBE 280300Z 14006KT CAVOK 02/M02 Q1025 NOSIG",
      "taf": "TAF LYBE 272300Z 2800/2824 08005KT CAVOK TX15/2813Z TN01/2806Z"
    },
    {
      "icao": "LYNI",
      "alert": "OK",
      "vis_m": 9999,
      "fzfg": false,
      "metar_trigger": false,
      "taf_trigger": false,
      "metar": "METAR LYNI 280300Z VRB02KT CAVOK M01/M02 Q1027 NOSIG",
      "taf": "TAF LYNI 272300Z 2800/2824 06008KT CAVOK TX15/2813Z TNM02/2805Z"
    },
    {
      "icao": "LYPG",
      "alert": "OK",
      "vis_m": 9999,
      "fzfg": false,
      "metar_trigger": false,
      "taf_trigger": false,
      "metar": "METAR LYPG 280300Z 36003KT 340V040 CAVOK 05/01 Q1024 NOSIG",
      "taf": "TAF LYPG 272300Z 2800/2824 36005KT CAVOK TX19/2812Z TN03/2805Z"
    },
    {
      "icao": "LZIB",
      "alert": "OK",
      "vis_m": 9999,
      "fzfg": false,
      "metar_trigger": false,
      "taf_trigger": false,
      "metar": "METAR LZIB 280300Z 04008KT CAVOK 02/M01 Q1025 NOSIG",
      "taf": "TAF LZIB 272315Z 2800/0100 03007KT CAVOK"
    },
    {
      "icao": "LZKZ",
      "alert": "OK",
      "vis_m": 9999,
      "fzfg": false,
      "metar_trigger": false,
      "taf_trigger": false,
      "metar": "METAR LZKZ 280300Z 00000KT CAVOK M02/M03 Q1026 NOSIG",
      "taf": "TAF LZKZ 272315Z 2800/0100 VRB02KT CAVOK"
    },
    {
      "icao": "LZTT",
      "alert": "OK",
      "vis_m": 9999,
      "fzfg": false,
      "metar_trigger": false,
      "taf_trigger": false,
      "metar": "METAR LZTT 280300Z 27003KT CAVOK M05/M06 Q1024",
      "taf": "TAF LZTT 272315Z 2800/0100 28005KT CAVOK"
    },
    {
      "icao": "OEJN",
      "alert": "OK",
      "vis_m": 9999,
      "fzfg": false,
      "metar_trigger": false,
      "taf_trigger": false,
      "metar": "METAR OEJN 280300Z 03002KT CAVOK 19/12 Q1009 NOSIG",
      "taf": "TAF OEJN 272300Z 2800/0106 03006KT 9999 FEW040"
    },
    {
      "icao": "OEMA",
      "alert": "OK",
      "vis_m": 9999,
      "fzfg": false,
      "metar_trigger": false,
      "taf_trigger": false,
      "metar": "METAR OEMA 280300Z 08002KT CAVOK 17/05 Q1013 NOSIG",
      "taf": "TAF OEMA 272300Z 2800/0106 VRB03KT CAVOK"
    },
    {
      "icao": "OJAI",
      "alert": "OK",
      "vis_m": 4000,
      "fzfg": false,
      "metar_trigger": false,
      "taf_trigger": false,
      "metar": "METAR OJAI 280300Z 00000KT 4000 BR NSC M01/M03 Q1016 NOSIG",
      "taf": "TAF OJAI 272250Z 2800/0106 VRB02KT 5000 HZ FEW040"
    },
    {
      "icao": "OMAA",
      "alert": "OK",
      "vis_m": 9999,
      "fzfg": false,
      "metar_trigger": false,
      "taf_trigger": false,
      "metar": "METAR OMAA 280300Z 10004KT 070V130 CAVOK 17/14 Q1010 NOSIG",
      "taf": "TAF OMAA 272300Z 2800/0106 14005KT 8000 NSC"
    },
    {
      "icao": "OMDB",
      "alert": "OK",
      "vis_m": 6000,
      "fzfg": false,
      "metar_trigger": false,
      "taf_trigger": false,
      "metar": "METAR OMDB 280300Z 19003KT 6000 NSC 18/14 Q1010 BECMG 4000 HZ",
      "taf": "TAF OMDB 272300Z 2800/0106 16005KT 8000 NSC"
    },
    {
      "icao": "UAAA",
      "alert": "OK",
      "vis_m": 9999,
      "fzfg": false,
      "metar_trigger": false,
      "taf_trigger": false,
      "metar": "METAR UAAA 280300Z 23004MPS 9999 OVC026 M09/M11 Q1022 NOSIG",
      "taf": "TAF UAAA 272302Z 2800/2824 26003G08MPS 5000 BR BKN011 OVC050 TXM07/2808Z TNM12/2802Z"
    },
    {
      "icao": "UBBB",
      "alert": "OK",
      "vis_m": 9999,
      "fzfg": false,
      "metar_trigger": false,
      "taf_trigger": false,
      "metar": "METAR UBBB 280300Z 01014KT 9999 -RA BKN009 OVC025 04/02 Q1018 NOSIG",
      "taf": "TAF UBBB 272305Z 2800/2824 02014G24KT 9999 BKN012 OVC025 TX04/2810Z TN03/2802Z"
    },
    {
      "icao": "UDSG",
      "alert": "OK",
      "vis_m": 6000,
      "fzfg": false,
      "metar_trigger": false,
      "taf_trigger": false,
      "metar": "METAR UDSG 280300Z 25006KT 6000 -SN OVC020 M04/M04 Q1010 NOSIG",
      "taf": "TAF UDSG 272258Z 2800/2824 VRB06KT 3000 BR BKN030"
    },
    {
      "icao": "UDYZ",
      "alert": "OK",
      "vis_m": 7000,
      "fzfg": false,
      "metar_trigger": false,
      "taf_trigger": false,
      "metar": "METAR UDYZ 280300Z 35001KT 7000 SCT026CB 00/M00 Q1012 NOSIG",
      "taf": "TAF UDYZ 272300Z 2800/2824 04006KT 6000 BKN030"
    },
    {
      "icao": "UGKO",
      "alert": "OK",
      "vis_m": 9000,
      "fzfg": false,
      "metar_trigger": false,
      "taf_trigger": false,
      "metar": "METAR UGKO 280308Z COR 10005KT 9000 -RA BKN017 OVC019 03/02 Q1016 NOSIG",
      "taf": "TAF UGKO 272300Z 2800/2824 09006KT 8000 OVC025 TX06/2818Z TN02/2803Z"
    }
  ]
}