{
  "ts_utc": "2026-02-25T15:39:28Z",
  "threshold_m": 150,
  "source": "stations_override.txt (ICAO list) + aviationweather.gov (METAR/TAF raw)",
  "station_count": 159,
  "stations": [
    {
      "icao": "BIKF",
      "alert": "OK",
      "vis_m": 2500,
      "fzfg": false,
      "metar_trigger": false,
      "taf_trigger": false,
      "metar": "METAR BIKF 251530Z 20015KT 170V230 2500 -SN BKN003 OVC022 00/00 Q0994",
      "taf": "TAF BIKF 251341Z 2515/2615 20026G36KT 5000 -SN BKN015 TX06/2607Z TNM03/2515Z"
    },
    {
      "icao": "BKPR",
      "alert": "OK",
      "vis_m": 9999,
      "fzfg": false,
      "metar_trigger": false,
      "taf_trigger": false,
      "metar": "METAR BKPR 251530Z 35008KT CAVOK 11/M01 Q1022 NOSIG",
      "taf": "TAF BKPR 251130Z 2512/2612 33008KT 9999 SCT040"
    },
    {
      "icao": "EBCI",
      "alert": "OK",
      "vis_m": 9999,
      "fzfg": false,
      "metar_trigger": false,
      "taf_trigger": false,
      "metar": "METAR EBCI 251520Z 18008KT CAVOK 19/09 Q1018 NOSIG",
      "taf": "TAF EBCI 251100Z 2512/2618 18007KT CAVOK"
    },
    {
      "icao": "EDDB",
      "alert": "OK",
      "vis_m": 9999,
      "fzfg": false,
      "metar_trigger": false,
      "taf_trigger": false,
      "metar": "METAR EDDB 251520Z AUTO 11007KT CAVOK 11/05 Q1024 NOSIG",
      "taf": "TAF EDDB 251100Z 2512/2612 11006KT CAVOK"
    },
    {
      "icao": "EDDH",
      "alert": "OK",
      "vis_m": 9999,
      "fzfg": false,
      "metar_trigger": false,
      "taf_trigger": false,
      "metar": "METAR EDDH 251520Z AUTO 14009KT 110V170 CAVOK 14/09 Q1020 NOSIG",
      "taf": "TAF EDDH 251100Z 2512/2618 15006KT 9999 SCT025"
    },
    {
      "icao": "EDDK",
      "alert": "OK",
      "vis_m": 9999,
      "fzfg": false,
      "metar_trigger": false,
      "taf_trigger": false,
      "metar": "METAR EDDK 251520Z AUTO 14014KT CAVOK 16/09 Q1020 NOSIG",
      "taf": "TAF EDDK 251100Z 2512/2618 13008KT 9999 SCT020"
    },
    {
      "icao": "EDDN",
      "alert": "OK",
      "vis_m": 9999,
      "fzfg": false,
      "metar_trigger": false,
      "taf_trigger": false,
      "metar": "METAR EDDN 251520Z AUTO 11006KT 9999 OVC012 09/06 Q1024 NOSIG",
      "taf": ""
    },
    {
      "icao": "EDDS",
      "alert": "OK",
      "vis_m": 9999,
      "fzfg": false,
      "metar_trigger": false,
      "taf_trigger": false,
      "metar": "METAR EDDS 251520Z AUTO 08003KT 040V130 CAVOK 17/09 Q1020 NOSIG",
      "taf": "TAF EDDS 251100Z 2512/2612 VRB03KT 9999 FEW008"
    },
    {
      "icao": "EDFH",
      "alert": "OK",
      "vis_m": 9999,
      "fzfg": false,
      "metar_trigger": false,
      "taf_trigger": false,
      "metar": "METAR EDFH 251520Z 14010KT CAVOK 12/09 Q1021",
      "taf": "TAF EDFH 251100Z 2512/2612 15011KT 0300 FG BKN001"
    },
    {
      "icao": "EDJA",
      "alert": "OK",
      "vis_m": null,
      "fzfg": false,
      "metar_trigger": false,
      "taf_trigger": false,
      "metar": "",
      "taf": "TAF EDJA 251400Z 2515/2524 05005KT CAVOK"
    },
    {
      "icao": "EDLW",
      "alert": "OK",
      "vis_m": 9999,
      "fzfg": false,
      "metar_trigger": false,
      "taf_trigger": false,
      "metar": "METAR EDLW 251520Z 21008KT CAVOK 17/09 Q1019",
      "taf": "TAF EDLW 251100Z 2512/2612 16008KT CAVOK"
    },
    {
      "icao": "EDNY",
      "alert": "OK",
      "vis_m": 9999,
      "fzfg": false,
      "metar_trigger": false,
      "taf_trigger": false,
      "metar": "METAR EDNY 251520Z 22005KT 190V250 CAVOK 11/05 Q1022",
      "taf": "TAF EDNY 251400Z 2515/2524 VRB02KT CAVOK"
    },
    {
      "icao": "EDSB",
      "alert": "OK",
      "vis_m": 9999,
      "fzfg": false,
      "metar_trigger": false,
      "taf_trigger": false,
      "metar": "METAR EDSB 251520Z 00000KT 9999 3000SE BR BKN006 11/10 Q1022",
      "taf": "TAF EDSB 251100Z 2512/2612 02004KT 0800 FG BKN001"
    },
    {
      "icao": "EETN",
      "alert": "OK",
      "vis_m": 9999,
      "fzfg": false,
      "metar_trigger": false,
      "taf_trigger": false,
      "metar": "METAR EETN 251520Z 16003KT CAVOK M01/M10 Q1026 NOSIG",
      "taf": "TAF EETN 251130Z 2512/2612 11007KT CAVOK"
    },
    {
      "icao": "EFTU",
      "alert": "OK",
      "vis_m": 9999,
      "fzfg": false,
      "metar_trigger": false,
      "taf_trigger": false,
      "metar": "METAR EFTU 251520Z AUTO 18006KT CAVOK M05/M07 Q1024",
      "taf": "TAF EFTU 251434Z 2515/2615 18005KT CAVOK"
    },
    {
      "icao": "EGBB",
      "alert": "OK",
      "vis_m": 9999,
      "fzfg": false,
      "metar_trigger": false,
      "taf_trigger": false,
      "metar": "METAR EGBB 251520Z 20009KT 9999 SCT024 14/09 Q1014",
      "taf": "TAF EGBB 251055Z 2512/2612 20010KT 9999 FEW020"
    },
    {
      "icao": "EGGP",
      "alert": "OK",
      "vis_m": 9999,
      "fzfg": false,
      "metar_trigger": false,
      "taf_trigger": false,
      "metar": "METAR EGGP 251520Z 19006KT 170V230 9999 SCT024 BKN037 13/09 Q1011",
      "taf": "TAF EGGP 251057Z 2512/2612 22012KT 9999 SCT035"
    },
    {
      "icao": "EGGW",
      "alert": "OK",
      "vis_m": 9999,
      "fzfg": false,
      "metar_trigger": false,
      "taf_trigger": false,
      "metar": "METAR EGGW 251520Z AUTO 22009KT 9999 NCD 16/10 Q1014",
      "taf": "TAF EGGW 251101Z 2512/2612 20009KT 9999 FEW015"
    },
    {
      "icao": "EGKK",
      "alert": "OK",
      "vis_m": 9999,
      "fzfg": false,
      "metar_trigger": false,
      "taf_trigger": false,
      "metar": "METAR EGKK 251520Z 21009KT 170V240 CAVOK 16/09 Q1015",
      "taf": "TAF EGKK 251056Z 2512/2618 20007KT 9999 FEW010"
    },
    {
      "icao": "EGNM",
      "alert": "OK",
      "vis_m": 9999,
      "fzfg": false,
      "metar_trigger": false,
      "taf_trigger": false,
      "metar": "METAR EGNM 251520Z 21013KT 9999 FEW020 SCT030 13/09 Q1011",
      "taf": "TAF EGNM 251101Z 2512/2612 21009KT 9999 SCT030"
    },
    {
      "icao": "EGPD",
      "alert": "OK",
      "vis_m": 9999,
      "fzfg": false,
      "metar_trigger": false,
      "taf_trigger": false,
      "metar": "METAR EGPD 251520Z AUTO 18012KT 9999 BKN017 11/09 Q1004 TEMPO BKN014",
      "taf": "TAF EGPD 251100Z 2512/2612 18009KT 9999 SCT012"
    },
    {
      "icao": "EGPF",
      "alert": "OK",
      "vis_m": 3500,
      "fzfg": false,
      "metar_trigger": false,
      "taf_trigger": false,
      "metar": "METAR EGPF 251520Z AUTO 25005KT 210V290 3500 -RA OVC005 10/10 Q1006",
      "taf": "TAF EGPF 251058Z 2512/2612 19007KT 9999 SCT025"
    },
    {
      "icao": "EHBK",
      "alert": "OK",
      "vis_m": 9999,
      "fzfg": false,
      "metar_trigger": false,
      "taf_trigger": false,
      "metar": "METAR EHBK 251525Z AUTO 19006KT 160V220 9999 NSC 20/10 Q1018 NOSIG",
      "taf": "TAF EHBK 251114Z 2512/2618 15005KT CAVOK"
    },
    {
      "icao": "EHEH",
      "alert": "OK",
      "vis_m": 9999,
      "fzfg": false,
      "metar_trigger": false,
      "taf_trigger": false,
      "metar": "METAR EHEH 251525Z AUTO 18009KT 130V210 9999 OVC240 20/09 Q1017 BLU NOSIG RMK TREND REMOTE BY EHWX",
      "taf": "TAF EHEH 251113Z 2512/2618 12007KT CAVOK"
    },
    {
      "icao": "EKBI",
      "alert": "OK",
      "vis_m": 300,
      "fzfg": false,
      "metar_trigger": false,
      "taf_trigger": false,
      "metar": "METAR EKBI 251520Z AUTO 12007KT 090V160 0300 R09/0600N R27/0550N FG VV002 05/05 Q1018",
      "taf": "TAF EKBI 251427Z 2515/2615 13006KT 0300 FG VV002"
    },
    {
      "icao": "EKCH",
      "alert": "OK",
      "vis_m": 9999,
      "fzfg": false,
      "metar_trigger": false,
      "taf_trigger": false,
      "metar": "METAR EKCH 251520Z AUTO 14014KT 9999 OVC017/// 01/M00 Q1023 TEMPO BKN008",
      "taf": "TAF EKCH 251427Z 2515/2615 13015KT 9999 FEW008 BKN015"
    },
    {
      "icao": "ENAL",
      "alert": "OK",
      "vis_m": 9999,
      "fzfg": false,
      "metar_trigger": false,
      "taf_trigger": false,
      "metar": "METAR ENAL 251520Z 20010KT 9999 -RA BKN039 07/04 Q1005",
      "taf": "TAF ENAL 251400Z 2515/2524 20010KT 9999 -RA FEW015 BKN030"
    },
    {
      "icao": "ENBR",
      "alert": "OK",
      "vis_m": 4000,
      "fzfg": false,
      "metar_trigger": false,
      "taf_trigger": false,
      "metar": "METAR ENBR 251520Z 16019KT 4000 -RADZ BR VV005 06/05 Q1008 TEMPO RADZ BR BKN003 RMK WIND 1200FT 16022KT",
      "taf": "TAF ENBR 251100Z 2512/2612 14015KT 9999 FEW008 OVC018"
    },
    {
      "icao": "ENGM",
      "alert": "OK",
      "vis_m": 2700,
      "fzfg": false,
      "metar_trigger": false,
      "taf_trigger": false,
      "metar": "METAR ENGM 251520Z 20009KT 2700 -FZDZ BR FEW003 BKN007 M02/M03 Q1015 TEMPO BKN003",
      "taf": ""
    },
    {
      "icao": "ENHD",
      "alert": "OK",
      "vis_m": 9999,
      "fzfg": false,
      "metar_trigger": false,
      "taf_trigger": false,
      "metar": "METAR ENHD 251520Z 15016KT 9999 OVC005 06/04 Q1009",
      "taf": "TAF ENHD 251400Z 2515/2523 16018KT 9999 SCT006 BKN012"
    },
    {
      "icao": "ENTC",
      "alert": "OK",
      "vis_m": 9999,
      "fzfg": false,
      "metar_trigger": false,
      "taf_trigger": false,
      "metar": "METAR ENTC 251520Z 19020KT CAVOK M03/M12 Q1004 TEMPO DRSN RMK WIND 2600FT 17036KT",
      "taf": "TAF ENTC 251100Z 2512/2612 20015KT CAVOK"
    },
    {
      "icao": "ENTO",
      "alert": "OK",
      "vis_m": 300,
      "fzfg": false,
      "metar_trigger": false,
      "taf_trigger": false,
      "metar": "METAR ENTO 251520Z 18009KT 0300 R18/0700N R36/0700N -DZ FG VV002 00/00 Q1016 NOSIG",
      "taf": ""
    },
    {
      "icao": "ENVA",
      "alert": "OK",
      "vis_m": 9999,
      "fzfg": false,
      "metar_trigger": false,
      "taf_trigger": false,
      "metar": "METAR ENVA 251520Z 09006KT 9999 -DZRA BKN040 OVC047 02/M01 Q1007 TEMPO 4000 RA BKN014 RMK WIND 670FT 15016KT",
      "taf": "TAF ENVA 251100Z 2512/2612 10009KT 9999 -SNRA FEW015 BKN030"
    },
    {
      "icao": "ENZV",
      "alert": "OK",
      "vis_m": 9999,
      "fzfg": false,
      "metar_trigger": false,
      "taf_trigger": false,
      "metar": "METAR ENZV 251520Z 18008KT 9999 BKN016 07/04 Q1010 TEMPO BKN012",
      "taf": "TAF ENZV 251100Z 2512/2612 14018KT 9999 BKN018"
    },
    {
      "icao": "EPGD",
      "alert": "OK",
      "vis_m": 9999,
      "fzfg": false,
      "metar_trigger": false,
      "taf_trigger": false,
      "metar": "METAR EPGD 251530Z 06005KT CAVOK 01/M03 Q1026",
      "taf": "TAF EPGD 251130Z 2512/2612 VRB03KT 9999 SCT020"
    },
    {
      "icao": "EPKK",
      "alert": "OK",
      "vis_m": 9999,
      "fzfg": false,
      "metar_trigger": false,
      "taf_trigger": false,
      "metar": "METAR EPKK 251530Z 35006KT 9999 FEW016 03/M02 Q1025",
      "taf": "TAF EPKK 251430Z 2515/2615 36010KT 9999 BKN025"
    },
    {
      "icao": "EPKT",
      "alert": "OK",
      "vis_m": 9999,
      "fzfg": false,
      "metar_trigger": false,
      "taf_trigger": false,
      "metar": "METAR EPKT 251530Z 34005KT 9999 FEW008 SCT018 01/M02 Q1025",
      "taf": ""
    },
    {
      "icao": "EPLB",
      "alert": "OK",
      "vis_m": 9999,
      "fzfg": false,
      "metar_trigger": false,
      "taf_trigger": false,
      "metar": "METAR EPLB 251530Z 01007KT 9999 FEW021 SCT025 BKN035 M00/M03 Q1025",
      "taf": ""
    },
    {
      "icao": "EPMO",
      "alert": "OK",
      "vis_m": 9999,
      "fzfg": false,
      "metar_trigger": false,
      "taf_trigger": false,
      "metar": "METAR EPMO 251530Z 36004KT 310V030 9999 BKN023 00/M04 Q1026",
      "taf": "TAF EPMO 251130Z 2512/2612 32007KT 9999 BKN030"
    },
    {
      "icao": "EPPO",
      "alert": "OK",
      "vis_m": 9999,
      "fzfg": false,
      "metar_trigger": false,
      "taf_trigger": false,
      "metar": "METAR EPPO 251530Z 20004KT CAVOK 06/M03 Q1026",
      "taf": "TAF EPPO 251130Z 2512/2612 33009KT 9999 FEW023"
    },
    {
      "icao": "EPRA",
      "alert": "OK",
      "vis_m": 9999,
      "fzfg": false,
      "metar_trigger": false,
      "taf_trigger": false,
      "metar": "METAR EPRA 251530Z 34008KT 9999 BKN037 02/M05 Q1025",
      "taf": "TAF EPRA 251430Z 2515/2524 36010KT 9999 BKN040"
    },
    {
      "icao": "EPRZ",
      "alert": "OK",
      "vis_m": 9999,
      "fzfg": false,
      "metar_trigger": false,
      "taf_trigger": false,
      "metar": "METAR EPRZ 251530Z 33009KT 9999 BKN040 03/M03 Q1024",
      "taf": "TAF EPRZ 251130Z 2512/2612 36012KT 9999 BKN020"
    },
    {
      "icao": "EPSC",
      "alert": "OK",
      "vis_m": 9999,
      "fzfg": false,
      "metar_trigger": false,
      "taf_trigger": false,
      "metar": "METAR EPSC 251530Z 15006KT CAVOK 03/00 Q1025",
      "taf": ""
    },
    {
      "icao": "EPSY",
      "alert": "OK",
      "vis_m": 9999,
      "fzfg": false,
      "metar_trigger": false,
      "taf_trigger": false,
      "metar": "METAR EPSY 251530Z 02006KT 9999 BKN024 M01/M04 Q1026",
      "taf": "TAF EPSY 251430Z 2515/2524 02010KT 9999 BKN025"
    },
    {
      "icao": "EPWA",
      "alert": "OK",
      "vis_m": 9999,
      "fzfg": false,
      "metar_trigger": false,
      "taf_trigger": false,
      "metar": "METAR EPWA 251530Z 32008KT 9999 BKN027 01/M04 Q1026 NOSIG",
      "taf": "TAF EPWA 251430Z 2515/2615 36010KT 9999 BKN025"
    },
    {
      "icao": "EPWR",
      "alert": "OK",
      "vis_m": 9999,
      "fzfg": false,
      "metar_trigger": false,
      "taf_trigger": false,
      "metar": "METAR EPWR 251530Z 04006KT 360V070 9999 SCT022 06/02 Q1026",
      "taf": "TAF EPWR 251430Z 2515/2615 36007KT 9999 BKN023"
    },
    {
      "icao": "ESGG",
      "alert": "OK",
      "vis_m": 2100,
      "fzfg": false,
      "metar_trigger": false,
      "taf_trigger": false,
      "metar": "METAR ESGG 251520Z 17012KT 2100 BR OVC003 00/M00 Q1020",
      "taf": "TAF ESGG 251430Z 2515/2615 17013KT 5000 OVC003"
    },
    {
      "icao": "ESKN",
      "alert": "OK",
      "vis_m": 9999,
      "fzfg": false,
      "metar_trigger": false,
      "taf_trigger": false,
      "metar": "METAR ESKN 251520Z 15010KT 9999 BKN045 M01/M03 Q1022",
      "taf": "TAF ESKN 251430Z 2515/2615 18010KT 9999 FEW010 BKN060"
    },
    {
      "icao": "ESMS",
      "alert": "OK",
      "vis_m": 9999,
      "fzfg": false,
      "metar_trigger": false,
      "taf_trigger": false,
      "metar": "METAR ESMS 251520Z 14011KT 9999 SCT008 BKN016 01/00 Q1023",
      "taf": "TAF ESMS 251427Z 2515/2615 13010KT 9999 SCT008 BKN020"
    },
    {
      "icao": "ESSA",
      "alert": "OK",
      "vis_m": 9999,
      "fzfg": false,
      "metar_trigger": false,
      "taf_trigger": false,
      "metar": "METAR ESSA 251520Z 17012KT 9999 BKN044 M02/M04 Q1021 NOSIG",
      "taf": ""
    },
    {
      "icao": "EYKA",
      "alert": "OK",
      "vis_m": 9999,
      "fzfg": false,
      "metar_trigger": false,
      "taf_trigger": false,
      "metar": "METAR EYKA 251520Z 34005KT 290V020 9999 OVC013 M02/M05 Q1026",
      "taf": "TAF EYKA 251100Z 2512/2612 VRB04KT 9000 OVC015"
    },
    {
      "icao": "EYPA",
      "alert": "OK",
      "vis_m": 9999,
      "fzfg": false,
      "metar_trigger": false,
      "taf_trigger": false,
      "metar": "METAR EYPA 251520Z 02002KT CAVOK M01/M06 Q1026",
      "taf": "TAF EYPA 251100Z 2512/2612 VRB04KT 9000 SCT030"
    },
    {
      "icao": "EYVI",
      "alert": "OK",
      "vis_m": 9999,
      "fzfg": false,
      "metar_trigger": false,
      "taf_trigger": false,
      "metar": "METAR EYVI 251520Z 01008KT 9999 BKN016 M01/M05 Q1024 NOSIG",
      "taf": ""
    },
    {
      "icao": "GCFV",
      "alert": "OK",
      "vis_m": 9999,
      "fzfg": false,
      "metar_trigger": false,
      "taf_trigger": false,
      "metar": "METAR GCFV 251530Z 35017KT 320V020 9999 SCT040 23/10 Q1017",
      "taf": ""
    },
    {
      "icao": "GCLP",
      "alert": "OK",
      "vis_m": 9999,
      "fzfg": false,
      "metar_trigger": false,
      "taf_trigger": false,
      "metar": "METAR GCLP 251530Z 36023KT 9999 FEW030 BKN050 21/12 Q1017 NOSIG",
      "taf": "TAF GCLP 251400Z 2515/2615 36022KT 9999 SCT020 TX19/2614Z TN13/2606Z"
    },
    {
      "icao": "GCTS",
      "alert": "OK",
      "vis_m": 9999,
      "fzfg": false,
      "metar_trigger": false,
      "taf_trigger": false,
      "metar": "METAR GCTS 251530Z 15013KT 9999 BKN040 22/14 Q1017 NOSIG",
      "taf": ""
    },
    {
      "icao": "GMAD",
      "alert": "OK",
      "vis_m": 9999,
      "fzfg": false,
      "metar_trigger": false,
      "taf_trigger": false,
      "metar": "METAR GMAD 251530Z 27015KT CAVOK 24/04 Q1013 NOSIG",
      "taf": "TAF GMAD 251100Z 2512/2618 27012KT CAVOK"
    },
    {
      "icao": "GMMN",
      "alert": "OK",
      "vis_m": 9999,
      "fzfg": false,
      "metar_trigger": false,
      "taf_trigger": false,
      "metar": "METAR GMMN 251530Z 32011KT CAVOK 21/14 Q1015 NOSIG",
      "taf": "TAF GMMN 251100Z 2512/2618 18010KT CAVOK"
    },
    {
      "icao": "GMMX",
      "alert": "OK",
      "vis_m": 9999,
      "fzfg": false,
      "metar_trigger": false,
      "taf_trigger": false,
      "metar": "METAR GMMX 251530Z 31015KT 270V350 9999 FEW026 SCT100 22/09 Q1014 NOSIG",
      "taf": "TAF GMMX 251100Z 2512/2618 06006KT 8000 NSC"
    },
    {
      "icao": "HEGN",
      "alert": "OK",
      "vis_m": 9999,
      "fzfg": false,
      "metar_trigger": false,
      "taf_trigger": false,
      "metar": "METAR HEGN 251527Z 01011KT CAVOK 22/07 Q1017 NOSIG",
      "taf": "TAF HEGN 251100Z 2512/2618 02012KT CAVOK"
    },
    {
      "icao": "HEMA",
      "alert": "OK",
      "vis_m": 9999,
      "fzfg": false,
      "metar_trigger": false,
      "taf_trigger": false,
      "metar": "METAR HEMA 251527Z 36012KT CAVOK 22/13 Q1017 NOSIG",
      "taf": "TAF HEMA 251100Z 2512/2618 02018KT CAVOK"
    },
    {
      "icao": "HESH",
      "alert": "OK",
      "vis_m": 9999,
      "fzfg": false,
      "metar_trigger": false,
      "taf_trigger": false,
      "metar": "METAR HESH 251527Z 16011KT CAVOK 24/05 Q1017 NOSIG",
      "taf": "TAF HESH 251100Z 2512/2618 04010KT CAVOK"
    },
    {
      "icao": "HESX",
      "alert": "OK",
      "vis_m": 9999,
      "fzfg": false,
      "metar_trigger": false,
      "taf_trigger": false,
      "metar": "METAR HESX 251527Z 26009KT CAVOK 20/04 Q1018 NOSIG",
      "taf": "TAF HESX 251100Z 2512/2618 26010KT 9999 SCT020"
    },
    {
      "icao": "LATI",
      "alert": "OK",
      "vis_m": 9999,
      "fzfg": false,
      "metar_trigger": false,
      "taf_trigger": false,
      "metar": "METAR LATI 251520Z 33012KT CAVOK 15/00 Q1022 NOSIG",
      "taf": "TAF LATI 251100Z 2512/2612 33012KT CAVOK TX19/2512Z TN05/2605Z"
    },
    {
      "icao": "LBPD",
      "alert": "OK",
      "vis_m": 9999,
      "fzfg": false,
      "metar_trigger": false,
      "taf_trigger": false,
      "metar": "METAR LBPD 251530Z AUTO 30011KT 9999 NCD 12/M02 Q1019 NOSIG",
      "taf": "TAF LBPD 251100Z 2512/2612 28018KT 9999 SCT070"
    },
    {
      "icao": "LBSF",
      "alert": "OK",
      "vis_m": 9999,
      "fzfg": false,
      "metar_trigger": false,
      "taf_trigger": false,
      "metar": "METAR LBSF 251530Z 28016KT 9999 FEW047 08/M02 Q1020 NOSIG",
      "taf": "TAF LBSF 251100Z 2512/2612 29018KT 9999 SCT030 SCT060"
    },
    {
      "icao": "LBWN",
      "alert": "OK",
      "vis_m": 9999,
      "fzfg": false,
      "metar_trigger": false,
      "taf_trigger": false,
      "metar": "METAR LBWN 251530Z 16004KT 120V200 9999 SCT037 08/00 Q1020 TEMPO RA",
      "taf": "TAF LBWN 251100Z 2512/2612 32010KT 9999 SCT040"
    },
    {
      "icao": "LCLK",
      "alert": "OK",
      "vis_m": 9999,
      "fzfg": false,
      "metar_trigger": false,
      "taf_trigger": false,
      "metar": "METAR LCLK 251530Z 24013KT 9999 FEW030 SCT050 BKN070 17/13 Q1013 NOSIG",
      "taf": "TAF LCLK 251130Z 2512/2612 23018KT 9999 FEW020 SCT050"
    },
    {
      "icao": "LCPH",
      "alert": "OK",
      "vis_m": 9999,
      "fzfg": false,
      "metar_trigger": false,
      "taf_trigger": false,
      "metar": "METAR LCPH 251530Z 26013KT 9999 FEW025 BKN050 18/13 Q1014 TEMPO 5000 SHRA SCT030TCU",
      "taf": "TAF LCPH 251130Z 2512/2612 26018KT 9999 FEW018 BKN040"
    },
    {
      "icao": "LEAL",
      "alert": "OK",
      "vis_m": 9999,
      "fzfg": false,
      "metar_trigger": false,
      "taf_trigger": false,
      "metar": "METAR LEAL 251530Z 08008KT CAVOK 17/12 Q1019 NOSIG",
      "taf": "TAF LEAL 251100Z 2512/2612 VRB04KT CAVOK TX20/2512Z TN07/2605Z"
    },
    {
      "icao": "LEBB",
      "alert": "OK",
      "vis_m": 9999,
      "fzfg": false,
      "metar_trigger": false,
      "taf_trigger": false,
      "metar": "METAR LEBB 251530Z 30011KT 260V330 CAVOK 19/09 Q1018 NOSIG",
      "taf": ""
    },
    {
      "icao": "LEBL",
      "alert": "OK",
      "vis_m": 7000,
      "fzfg": false,
      "metar_trigger": false,
      "taf_trigger": false,
      "metar": "METAR LEBL 251530Z 08009KT 7000 FEW015 15/11 Q1021 NOSIG",
      "taf": "TAF LEBL 251100Z 2512/2612 08008KT 9999 SCT015 TX15/2513Z TN07/2606Z"
    },
    {
      "icao": "LECH",
      "alert": "OK",
      "vis_m": 8000,
      "fzfg": false,
      "metar_trigger": false,
      "taf_trigger": false,
      "metar": "METAR LECH 251530Z AUTO 07008KT 030V100 8000 NCD 14/10 Q1021",
      "taf": ""
    },
    {
      "icao": "LEMD",
      "alert": "OK",
      "vis_m": 9999,
      "fzfg": false,
      "metar_trigger": false,
      "taf_trigger": false,
      "metar": "METAR LEMD 251530Z 21006KT 170V240 CAVOK 21/M00 Q1018 NOSIG",
      "taf": "TAF LEMD 251100Z 2512/2618 VRB04KT CAVOK TX21/2515Z TN04/2607Z"
    },
    {
      "icao": "LEMG",
      "alert": "OK",
      "vis_m": 9999,
      "fzfg": false,
      "metar_trigger": false,
      "taf_trigger": false,
      "metar": "METAR LEMG 251530Z 13005KT 100V170 9999 FEW010 15/12 Q1018 NOSIG",
      "taf": "TAF LEMG 251100Z 2512/2612 13010KT 9999 FEW015 TX20/2514Z TN08/2607Z"
    },
    {
      "icao": "LEVC",
      "alert": "OK",
      "vis_m": 9999,
      "fzfg": false,
      "metar_trigger": false,
      "taf_trigger": false,
      "metar": "METAR LEVC 251530Z 07011KT 050V110 9999 BKN012 14/10 Q1020 NOSIG",
      "taf": ""
    },
    {
      "icao": "LEXJ",
      "alert": "OK",
      "vis_m": 9999,
      "fzfg": false,
      "metar_trigger": false,
      "taf_trigger": false,
      "metar": "METAR LEXJ 251530Z VRB02KT CAVOK 18/09 Q1018",
      "taf": "TAF LEXJ 251400Z 2515/2615 22009KT CAVOK TX17/2614Z TN08/2606Z"
    },
    {
      "icao": "LEZG",
      "alert": "OK",
      "vis_m": 9999,
      "fzfg": false,
      "metar_trigger": false,
      "taf_trigger": false,
      "metar": "METAR LEZG 251530Z 10009KT 060V140 CAVOK 22/08 Q1018 NOSIG",
      "taf": "TAF LEZG 251100Z 2512/2612 VRB04KT CAVOK TX21/2515Z TN05/2606Z"
    },
    {
      "icao": "LEZL",
      "alert": "OK",
      "vis_m": 9999,
      "fzfg": false,
      "metar_trigger": false,
      "taf_trigger": false,
      "metar": "METAR LEZL 251530Z 24002KT CAVOK 23/09 Q1016 NOSIG",
      "taf": "TAF LEZL 251400Z 2515/2615 22004KT CAVOK TX24/2615Z TN09/2607Z"
    },
    {
      "icao": "LFBD",
      "alert": "OK",
      "vis_m": 9999,
      "fzfg": false,
      "metar_trigger": false,
      "taf_trigger": false,
      "metar": "METAR LFBD 251530Z AUTO 11009KT CAVOK 22/10 Q1017 NOSIG",
      "taf": "TAF LFBD 251100Z 2512/2618 12010KT CAVOK TX21/2515Z TN07/2606Z"
    },
    {
      "icao": "LFLL",
      "alert": "OK",
      "vis_m": 9999,
      "fzfg": false,
      "metar_trigger": false,
      "taf_trigger": false,
      "metar": "METAR LFLL 251530Z 18011KT CAVOK 17/09 Q1020 NOSIG",
      "taf": "TAF LFLL 251100Z 2512/2618 16012KT CAVOK"
    },
    {
      "icao": "LFLS",
      "alert": "OK",
      "vis_m": 9999,
      "fzfg": false,
      "metar_trigger": false,
      "taf_trigger": false,
      "metar": "METAR LFLS 251530Z AUTO 19010KT 9999 3800 NSC 14/09 Q1022 NOSIG",
      "taf": "TAF LFLS 251400Z 2515/2615 20010KT CAVOK"
    },
    {
      "icao": "LFMN",
      "alert": "OK",
      "vis_m": 9999,
      "fzfg": false,
      "metar_trigger": false,
      "taf_trigger": false,
      "metar": "METAR LFMN 251530Z 12005KT 9999 FEW036 15/10 Q1024 NOSIG",
      "taf": "TAF LFMN 251400Z 2515/2621 12005KT 9999 SCT033"
    },
    {
      "icao": "LFOB",
      "alert": "OK",
      "vis_m": 9999,
      "fzfg": false,
      "metar_trigger": false,
      "taf_trigger": false,
      "metar": "METAR LFOB 251530Z AUTO 14006KT CAVOK 19/12 Q1017 NOSIG",
      "taf": "TAF LFOB 251100Z 2512/2612 12010KT CAVOK"
    },
    {
      "icao": "LFPO",
      "alert": "OK",
      "vis_m": 9999,
      "fzfg": false,
      "metar_trigger": false,
      "taf_trigger": false,
      "metar": "METAR LFPO 251530Z 15005KT 120V180 CAVOK 21/09 Q1017 NOSIG",
      "taf": "TAF LFPO 251100Z 2512/2618 16005KT CAVOK"
    },
    {
      "icao": "LFSB",
      "alert": "OK",
      "vis_m": 9999,
      "fzfg": false,
      "metar_trigger": false,
      "taf_trigger": false,
      "metar": "METAR LFSB 251530Z AUTO 36003KT CAVOK 17/09 Q1021 NOSIG",
      "taf": "TAF LFSB 251100Z 2512/2612 12005KT CAVOK"
    },
    {
      "icao": "LGAV",
      "alert": "OK",
      "vis_m": 9999,
      "fzfg": false,
      "metar_trigger": false,
      "taf_trigger": false,
      "metar": "METAR LGAV 251520Z 01009KT 9999 FEW025 14/M02 Q1021 NOSIG",
      "taf": "TAF LGAV 251100Z 2512/2612 01012KT 9999 FEW020"
    },
    {
      "icao": "LGTS",
      "alert": "OK",
      "vis_m": 9999,
      "fzfg": false,
      "metar_trigger": false,
      "taf_trigger": false,
      "metar": "METAR LGTS 251520Z 33010KT 9999 FEW025 15/02 Q1021 NOSIG",
      "taf": "TAF LGTS 251100Z 2512/2612 34015KT 9999 FEW030"
    },
    {
      "icao": "LHBP",
      "alert": "OK",
      "vis_m": 9999,
      "fzfg": false,
      "metar_trigger": false,
      "taf_trigger": false,
      "metar": "METAR LHBP 251530Z 32013KT 9999 FEW046 11/01 Q1022 NOSIG",
      "taf": "TAF LHBP 251115Z 2512/2612 31012G22KT CAVOK"
    },
    {
      "icao": "LHDC",
      "alert": "OK",
      "vis_m": 9999,
      "fzfg": false,
      "metar_trigger": false,
      "taf_trigger": false,
      "metar": "METAR LHDC 251515Z AUTO 23006KT CAVOK 08/03 Q1022 NOSIG",
      "taf": "TAF LHDC 251415Z 2515/2524 22007KT CAVOK"
    },
    {
      "icao": "LIBD",
      "alert": "OK",
      "vis_m": 9999,
      "fzfg": false,
      "metar_trigger": false,
      "taf_trigger": false,
      "metar": "METAR LIBD 251520Z 01004KT 320V040 CAVOK 14/04 Q1024",
      "taf": "TAF LIBD 251100Z 2512/2612 35010KT CAVOK"
    },
    {
      "icao": "LIBG",
      "alert": "OK",
      "vis_m": 9999,
      "fzfg": false,
      "metar_trigger": false,
      "taf_trigger": false,
      "metar": "METAR LIBG 251450Z 01010KT CAVOK 16/02 Q1023",
      "taf": "TAF LIBG 251400Z 2515/2524 36012KT CAVOK"
    },
    {
      "icao": "LIBP",
      "alert": "OK",
      "vis_m": 9999,
      "fzfg": false,
      "metar_trigger": false,
      "taf_trigger": false,
      "metar": "METAR LIBP 251520Z AUTO 07005KT 030V090 9999 NCD 14/10 Q1025",
      "taf": "TAF LIBP 251100Z 2512/2612 VRB06KT CAVOK"
    },
    {
      "icao": "LIBR",
      "alert": "OK",
      "vis_m": 9999,
      "fzfg": false,
      "metar_trigger": false,
      "taf_trigger": false,
      "metar": "METAR LIBR 251520Z 36010KT CAVOK 14/06 Q1023",
      "taf": "TAF LIBR 251100Z 2512/2612 02008KT CAVOK"
    },
    {
      "icao": "LICA",
      "alert": "OK",
      "vis_m": 9999,
      "fzfg": false,
      "metar_trigger": false,
      "taf_trigger": false,
      "metar": "METAR LICA 251520Z AUTO 24005KT 220V280 9999 NCD 16/11 Q1023",
      "taf": "TAF LICA 251100Z 2512/2612 27010KT 9999 FEW030"
    },
    {
      "icao": "LICC",
      "alert": "OK",
      "vis_m": 9999,
      "fzfg": false,
      "metar_trigger": false,
      "taf_trigger": false,
      "metar": "METAR LICC 251520Z 10008KT CAVOK 16/13 Q1023",
      "taf": "TAF LICC 251100Z 2512/2612 08010KT CAVOK"
    },
    {
      "icao": "LICJ",
      "alert": "OK",
      "vis_m": 9999,
      "fzfg": false,
      "metar_trigger": false,
      "taf_trigger": false,
      "metar": "METAR LICJ 251520Z 06011KT CAVOK 16/11 Q1022",
      "taf": "TAF LICJ 251100Z 2512/2612 08012KT CAVOK"
    },
    {
      "icao": "LIMC",
      "alert": "OK",
      "vis_m": 9999,
      "fzfg": false,
      "metar_trigger": false,
      "taf_trigger": false,
      "metar": "METAR LIMC 251520Z 27003KT 250V330 9999 BKN035 13/06 Q1025 NOSIG",
      "taf": "TAF LIMC 251100Z 2512/2618 VRB04KT 7000 BKN030"
    },
    {
      "icao": "LIME",
      "alert": "OK",
      "vis_m": 9999,
      "fzfg": false,
      "metar_trigger": false,
      "taf_trigger": false,
      "metar": "METAR LIME 251520Z AUTO 19007KT 160V220 9999 NCD 14/07 Q1025",
      "taf": "TAF LIME 251100Z 2512/2612 VRB05KT 8000 BKN035"
    },
    {
      "icao": "LIMF",
      "alert": "OK",
      "vis_m": 6000,
      "fzfg": false,
      "metar_trigger": false,
      "taf_trigger": false,
      "metar": "METAR LIMF 251520Z 13003KT 6000 OVC030 12/05 Q1025",
      "taf": "TAF LIMF 251100Z 2512/2612 VRB04KT 5000 BR BKN020"
    },
    {
      "icao": "LIMJ",
      "alert": "OK",
      "vis_m": 9999,
      "fzfg": false,
      "metar_trigger": false,
      "taf_trigger": false,
      "metar": "METAR LIMJ 251520Z 04012KT CAVOK 16/08 Q1024",
      "taf": "TAF LIMJ 251100Z 2512/2612 04012KT 9999 SCT030"
    },
    {
      "icao": "LIPE",
      "alert": "OK",
      "vis_m": 6000,
      "fzfg": false,
      "metar_trigger": false,
      "taf_trigger": false,
      "metar": "METAR LIPE 251520Z VRB02KT 6000 BKN045 15/10 Q1024",
      "taf": "TAF LIPE 251100Z 2512/2612 VRB03KT 3000 BR SCT010 BKN045"
    },
    {
      "icao": "LIPH",
      "alert": "OK",
      "vis_m": 9999,
      "fzfg": false,
      "metar_trigger": false,
      "taf_trigger": false,
      "metar": "METAR LIPH 251520Z 22005KT 190V260 CAVOK 16/07 Q1024",
      "taf": "TAF LIPH 251100Z 2512/2612 VRB04KT 9999 BKN050"
    },
    {
      "icao": "LIPQ",
      "alert": "OK",
      "vis_m": 9999,
      "fzfg": false,
      "metar_trigger": false,
      "taf_trigger": false,
      "metar": "METAR LIPQ 251520Z AUTO 21007KT 9999 NCD 15/06 Q1024",
      "taf": "TAF LIPQ 251100Z 2512/2612 VRB04KT CAVOK"
    },
    {
      "icao": "LIPR",
      "alert": "OK",
      "vis_m": 5000,
      "fzfg": false,
      "metar_trigger": false,
      "taf_trigger": false,
      "metar": "METAR LIPR 251520Z 03003KT 310V110 5000 BR BKN045 12/10 Q1025",
      "taf": "TAF LIPR 251100Z 2512/2612 VRB04KT 4000 BR BKN045"
    },
    {
      "icao": "LIPX",
      "alert": "OK",
      "vis_m": 9999,
      "fzfg": false,
      "metar_trigger": false,
      "taf_trigger": false,
      "metar": "METAR LIPX 251520Z 24004KT 9999 BKN045 15/07 Q1025",
      "taf": "TAF LIPX 251100Z 2512/2612 VRB05KT 8000 BKN030"
    },
    {
      "icao": "LIPY",
      "alert": "OK",
      "vis_m": 9999,
      "fzfg": false,
      "metar_trigger": false,
      "taf_trigger": false,
      "metar": "METAR LIPY 251520Z AUTO 03007KT 9999 NCD 14/11 Q1025",
      "taf": "TAF LIPY 251100Z 2512/2612 VRB04KT 9999 OVC050"
    },
    {
      "icao": "LIPZ",
      "alert": "OK",
      "vis_m": 9999,
      "fzfg": false,
      "metar_trigger": false,
      "taf_trigger": false,
      "metar": "METAR LIPZ 251520Z 20005KT CAVOK 14/09 Q1024 NOSIG",
      "taf": "TAF LIPZ 251100Z 2512/2618 VRB04KT 8000 BKN055"
    },
    {
      "icao": "LIRF",
      "alert": "OK",
      "vis_m": 9999,
      "fzfg": false,
      "metar_trigger": false,
      "taf_trigger": false,
      "metar": "METAR LIRF 251520Z 28008KT CAVOK 16/12 Q1023 NOSIG",
      "taf": "TAF LIRF 251100Z 2512/2618 VRB06KT 9999 FEW030"
    },
    {
      "icao": "LIRN",
      "alert": "OK",
      "vis_m": 9999,
      "fzfg": false,
      "metar_trigger": false,
      "taf_trigger": false,
      "metar": "METAR LIRN 251520Z 19006KT 160V220 CAVOK 17/09 Q1023 NOSIG",
      "taf": "TAF LIRN 251100Z 2512/2612 VRB05KT CAVOK"
    },
    {
      "icao": "LIRP",
      "alert": "OK",
      "vis_m": 9999,
      "fzfg": false,
      "metar_trigger": false,
      "taf_trigger": false,
      "metar": "METAR LIRP 251515Z 28008KT 9999 FEW030 16/11 Q1024 NOSIG",
      "taf": "TAF LIRP 251100Z 2512/2612 VRB04KT 9999 FEW020"
    },
    {
      "icao": "LIRZ",
      "alert": "OK",
      "vis_m": 9999,
      "fzfg": false,
      "metar_trigger": false,
      "taf_trigger": false,
      "metar": "METAR LIRZ 251520Z AUTO 22003KT 170V260 9999 NCD 17/09 Q1023",
      "taf": "TAF LIRZ 251100Z 2512/2612 VRB05KT 8000 FEW030"
    },
    {
      "icao": "LJLJ",
      "alert": "OK",
      "vis_m": 9999,
      "fzfg": false,
      "metar_trigger": false,
      "taf_trigger": false,
      "metar": "METAR LJLJ 251530Z 07002KT 9999 FEW060 15/07 Q1022 NOSIG",
      "taf": "TAF LJLJ 251100Z 2512/2612 VRB02KT 9999 FEW045"
    },
    {
      "icao": "LKMT",
      "alert": "OK",
      "vis_m": 9999,
      "fzfg": false,
      "metar_trigger": false,
      "taf_trigger": false,
      "metar": "METAR LKMT 251530Z 02008KT 350V050 9999 SCT030 06/01 Q1025 NOSIG",
      "taf": "TAF LKMT 251100Z 2512/2612 02007KT 9999 SCT035"
    },
    {
      "icao": "LKPR",
      "alert": "OK",
      "vis_m": 9999,
      "fzfg": false,
      "metar_trigger": false,
      "taf_trigger": false,
      "metar": "METAR LKPR 251530Z VRB01KT 9999 FEW032 11/03 Q1024 NOSIG",
      "taf": "TAF LKPR 251400Z 2515/2621 VRB02KT CAVOK"
    },
    {
      "icao": "LLBG",
      "alert": "OK",
      "vis_m": 9999,
      "fzfg": false,
      "metar_trigger": false,
      "taf_trigger": false,
      "metar": "METAR LLBG 251520Z 25009KT 9999 FEW035 16/09 Q1018 NOSIG",
      "taf": "TAF LLBG 251108Z 2512/2612 26010KT 9999 SCT035 TX19/2512Z TN12/2604Z"
    },
    {
      "icao": "LMML",
      "alert": "OK",
      "vis_m": 9999,
      "fzfg": false,
      "metar_trigger": false,
      "taf_trigger": false,
      "metar": "METAR LMML 251515Z 07007KT 050V110 9999 FEW016 17/12 Q1023 NOSIG",
      "taf": "TAF LMML 251100Z 2512/2612 08008KT 9999 FEW015"
    },
    {
      "icao": "LOWW",
      "alert": "OK",
      "vis_m": 9999,
      "fzfg": false,
      "metar_trigger": false,
      "taf_trigger": false,
      "metar": "METAR LOWW 251520Z 01006KT CAVOK 13/04 Q1023 NOSIG",
      "taf": "TAF LOWW 251415Z 2515/2621 VRB04KT CAVOK TX13/2515Z TN00/2605Z"
    },
    {
      "icao": "LPFR",
      "alert": "OK",
      "vis_m": 9999,
      "fzfg": false,
      "metar_trigger": false,
      "taf_trigger": false,
      "metar": "METAR LPFR 251530Z 10010KT 9999 SCT008 SCT025 17/14 Q1016",
      "taf": "TAF LPFR 251100Z 2512/2612 07005KT 9999 FEW035"
    },
    {
      "icao": "LPMA",
      "alert": "OK",
      "vis_m": 9999,
      "fzfg": false,
      "metar_trigger": false,
      "taf_trigger": false,
      "metar": "METAR LPMA 251530Z 36016G26KT 310V030 9999 SCT015 FEW018CB 16/10 Q1019",
      "taf": "TAF LPMA 251100Z 2512/2612 01015KT 9999 SCT015"
    },
    {
      "icao": "LPPR",
      "alert": "OK",
      "vis_m": 9999,
      "fzfg": false,
      "metar_trigger": false,
      "taf_trigger": false,
      "metar": "METAR LPPR 251530Z 17004KT 110V240 9999 SCT025 16/10 Q1018",
      "taf": "TAF LPPR 251100Z 2512/2612 18007KT 9999 SCT035"
    },
    {
      "icao": "LPPS",
      "alert": "OK",
      "vis_m": 9999,
      "fzfg": false,
      "metar_trigger": false,
      "taf_trigger": false,
      "metar": "METAR LPPS 251530Z 36018KT 9999 SCT015 17/11 Q1019",
      "taf": "TAF LPPS 251100Z 2512/2618 34015KT 9999 SCT015 SCT030"
    },
    {
      "icao": "LPPT",
      "alert": "OK",
      "vis_m": 9999,
      "fzfg": false,
      "metar_trigger": false,
      "taf_trigger": false,
      "metar": "METAR LPPT 251530Z 09007KT 9999 FEW028 17/13 Q1016",
      "taf": "TAF LPPT 251100Z 2512/2618 04007KT 9999 SCT025"
    },
    {
      "icao": "LQBK",
      "alert": "OK",
      "vis_m": 9999,
      "fzfg": false,
      "metar_trigger": false,
      "taf_trigger": false,
      "metar": "METAR LQBK 251500Z 02004KT 350V050 CAVOK 15/02 Q1023 NOSIG",
      "taf": "TAF LQBK 251100Z 2512/2612 17006KT CAVOK TX15/2514Z TN02/2606Z"
    },
    {
      "icao": "LQSA",
      "alert": "OK",
      "vis_m": 9999,
      "fzfg": false,
      "metar_trigger": false,
      "taf_trigger": false,
      "metar": "METAR LQSA 251530Z VRB03KT CAVOK 12/M01 Q1023 NOSIG",
      "taf": "TAF LQSA 251100Z 2512/2612 VRB02KT CAVOK TX13/2514Z TNM00/2606Z"
    },
    {
      "icao": "LQTZ",
      "alert": "OK",
      "vis_m": 9999,
      "fzfg": false,
      "metar_trigger": false,
      "taf_trigger": false,
      "metar": "METAR LQTZ 251530Z 30005KT 250V310 CAVOK 13/01 Q1023",
      "taf": "TAF LQTZ 251100Z 2512/2612 27007KT CAVOK TX14/2514Z TN02/2606Z"
    },
    {
      "icao": "LRBC",
      "alert": "OK",
      "vis_m": 9999,
      "fzfg": false,
      "metar_trigger": false,
      "taf_trigger": false,
      "metar": "METAR LRBC 251530Z 31003KT 9999 BKN036 OVC050 03/01 Q1019",
      "taf": "TAF LRBC 251400Z 2515/2524 VRB04KT 9999 SCT025 BKN045"
    },
    {
      "icao": "LRBS",
      "alert": "OK",
      "vis_m": 9999,
      "fzfg": false,
      "metar_trigger": false,
      "taf_trigger": false,
      "metar": "METAR LRBS 251530Z 06006KT CAVOK 06/01 Q1019 NOSIG",
      "taf": "TAF LRBS 251100Z 2512/2612 VRB04KT CAVOK"
    },
    {
      "icao": "LRBV",
      "alert": "OK",
      "vis_m": 7000,
      "fzfg": false,
      "metar_trigger": false,
      "taf_trigger": false,
      "metar": "METAR LRBV 251530Z 29011KT 260V320 7000 -SHSN SCT037 FEW040CB BKN063 02/M02 Q1019",
      "taf": "TAF LRBV 251400Z 2515/2524 30016KT 9999 BKN040"
    },
    {
      "icao": "LRCL",
      "alert": "OK",
      "vis_m": 9999,
      "fzfg": false,
      "metar_trigger": false,
      "taf_trigger": false,
      "metar": "METAR LRCL 251530Z 28009KT 9999 FEW041 05/M02 Q1020",
      "taf": "TAF LRCL 251400Z 2515/2524 30012KT 9999 BKN040"
    },
    {
      "icao": "LRCV",
      "alert": "OK",
      "vis_m": 9999,
      "fzfg": false,
      "metar_trigger": false,
      "taf_trigger": false,
      "metar": "METAR LRCV 251530Z 27017KT CAVOK 09/01 Q1019",
      "taf": "TAF LRCV 251400Z 2515/2524 27016KT CAVOK"
    },
    {
      "icao": "LRIA",
      "alert": "OK",
      "vis_m": 7000,
      "fzfg": false,
      "metar_trigger": false,
      "taf_trigger": false,
      "metar": "METAR LRIA 251530Z 33010KT 7000 -RA BKN027 02/00 Q1019",
      "taf": "TAF LRIA 251400Z 2515/2524 32010KT 9999 BKN030"
    },
    {
      "icao": "LROP",
      "alert": "OK",
      "vis_m": 9999,
      "fzfg": false,
      "metar_trigger": false,
      "taf_trigger": false,
      "metar": "METAR LROP 251530Z 08008KT CAVOK 04/01 Q1020 NOSIG",
      "taf": "TAF LROP 251100Z 2512/2612 VRB04KT CAVOK"
    },
    {
      "icao": "LRSB",
      "alert": "OK",
      "vis_m": 9999,
      "fzfg": false,
      "metar_trigger": false,
      "taf_trigger": false,
      "metar": "METAR LRSB 251530Z 02007KT 330V050 9999 -RA VCSH SCT032CB BKN040 05/M00 Q1020",
      "taf": "TAF LRSB 251100Z 2512/2612 30012KT 9999 BKN055"
    },
    {
      "icao": "LRSM",
      "alert": "OK",
      "vis_m": 9999,
      "fzfg": false,
      "metar_trigger": false,
      "taf_trigger": false,
      "metar": "METAR LRSM 251530Z 02011KT 9999 -RA BKN024 05/02 Q1022",
      "taf": "TAF LRSM 251400Z 2515/2524 25010KT 9999 BKN045"
    },
    {
      "icao": "LRSV",
      "alert": "OK",
      "vis_m": 3000,
      "fzfg": false,
      "metar_trigger": false,
      "taf_trigger": false,
      "metar": "METAR LRSV 251530Z 30006KT 3000 -SHSN BR SCT010 SCT022CB BKN032 01/00 Q1017",
      "taf": "TAF LRSV 251400Z 2515/2524 32010KT 5000 -SN BR BKN015 BKN035"
    },
    {
      "icao": "LRTM",
      "alert": "OK",
      "vis_m": 9999,
      "fzfg": false,
      "metar_trigger": false,
      "taf_trigger": false,
      "metar": "METAR LRTM 251530Z 26006KT 9999 SCT032 BKN042 FEW046CB 05/M01 Q1020",
      "taf": "TAF LRTM 251400Z 2515/2524 29010KT 9999 BKN040"
    },
    {
      "icao": "LRTR",
      "alert": "OK",
      "vis_m": 9999,
      "fzfg": false,
      "metar_trigger": false,
      "taf_trigger": false,
      "metar": "METAR LRTR 251530Z 34005KT 9999 BKN043 09/04 Q1022",
      "taf": "TAF LRTR 251100Z 2512/2612 29010KT 9999 BKN045"
    },
    {
      "icao": "LTAC",
      "alert": "OK",
      "vis_m": 9999,
      "fzfg": false,
      "metar_trigger": false,
      "taf_trigger": false,
      "metar": "METAR LTAC 251520Z 33012KT 9999 SCT040 BKN100 04/M04 Q1014 NOSIG RMK RWY21C 30012KT RWY03L 32010KT RWY21R 30010KT RWY03R 32010KT RWY21L 31013KT",
      "taf": "TAF LTAC 251040Z 2512/2612 30008KT 9999 SCT040 BKN100"
    },
    {
      "icao": "LTFM",
      "alert": "OK",
      "vis_m": 9999,
      "fzfg": false,
      "metar_trigger": false,
      "taf_trigger": false,
      "metar": "METAR LTFM 251520Z 34004KT 280V010 9999 SCT035 06/00 Q1021 NOSIG RMK RWY17L 32004KT 260V020 RWY34L 33005KT 290V350 RWY16R VRB01KT RWY36 35004KT 290V030 RWY18 VRB05KT",
      "taf": "TAF LTFM 251040Z 2512/2618 35015KT 9999 SCT035"
    },
    {
      "icao": "LUKK",
      "alert": "OK",
      "vis_m": 9999,
      "fzfg": false,
      "metar_trigger": false,
      "taf_trigger": false,
      "metar": "METAR LUKK 251530Z 35008KT CAVOK 02/M04 Q1018 NOSIG",
      "taf": "TAF LUKK 251120Z 2512/2612 34014KT 9999 BKN020"
    },
    {
      "icao": "LWOH",
      "alert": "OK",
      "vis_m": 9999,
      "fzfg": false,
      "metar_trigger": false,
      "taf_trigger": false,
      "metar": "METAR LWOH 251520Z 14005KT 9999 FEW050 10/M00 Q1021",
      "taf": "TAF LWOH 251420Z 2515/2615 14008KT 9999 FEW050"
    },
    {
      "icao": "LWSK",
      "alert": "OK",
      "vis_m": 9999,
      "fzfg": false,
      "metar_trigger": false,
      "taf_trigger": false,
      "metar": "METAR LWSK 251520Z VRB04KT CAVOK 14/M01 Q1022 NOSIG",
      "taf": "TAF LWSK 251420Z 2515/2615 36010KT CAVOK"
    },
    {
      "icao": "LYBE",
      "alert": "OK",
      "vis_m": 9999,
      "fzfg": false,
      "metar_trigger": false,
      "taf_trigger": false,
      "metar": "METAR LYBE 251530Z 31008KT 9999 SCT040 11/04 Q1023 NOSIG",
      "taf": "TAF LYBE 251100Z 2512/2612 30012KT 9999 BKN035 TX12/2513Z TN00/2606Z"
    },
    {
      "icao": "LYNI",
      "alert": "OK",
      "vis_m": 9999,
      "fzfg": false,
      "metar_trigger": false,
      "taf_trigger": false,
      "metar": "METAR LYNI 251530Z 32005KT 9999 FEW040 11/01 Q1022 NOSIG",
      "taf": "TAF LYNI 251100Z 2512/2612 33013KT 9999 SCT040 TX12/2513Z TN02/2606Z"
    },
    {
      "icao": "LYPG",
      "alert": "OK",
      "vis_m": 9999,
      "fzfg": false,
      "metar_trigger": false,
      "taf_trigger": false,
      "metar": "METAR LYPG 251530Z 13004KT 110V170 CAVOK 16/M01 Q1022 NOSIG",
      "taf": "TAF LYPG 251100Z 2512/2612 34006KT CAVOK TX18/2612Z TN07/2520Z"
    },
    {
      "icao": "LZIB",
      "alert": "OK",
      "vis_m": 9999,
      "fzfg": false,
      "metar_trigger": false,
      "taf_trigger": false,
      "metar": "METAR LZIB 251530Z 30009KT 9999 FEW048 13/02 Q1023 NOSIG",
      "taf": "TAF LZIB 251115Z 2512/2612 34006KT 9999 FEW040"
    },
    {
      "icao": "LZKZ",
      "alert": "OK",
      "vis_m": 9999,
      "fzfg": false,
      "metar_trigger": false,
      "taf_trigger": false,
      "metar": "METAR LZKZ 251530Z 01014KT CAVOK 06/M00 Q1022 NOSIG",
      "taf": "TAF LZKZ 251115Z 2512/2612 24008KT 9999 SCT030"
    },
    {
      "icao": "LZTT",
      "alert": "OK",
      "vis_m": 9999,
      "fzfg": false,
      "metar_trigger": false,
      "taf_trigger": false,
      "metar": "METAR LZTT 251530Z 13005KT 080V170 9999 FEW036 04/M01 Q1020 NOSIG",
      "taf": ""
    },
    {
      "icao": "OEJN",
      "alert": "OK",
      "vis_m": 9999,
      "fzfg": false,
      "metar_trigger": false,
      "taf_trigger": false,
      "metar": "METAR OEJN 251500Z 33013KT CAVOK 28/08 Q1012 NOSIG",
      "taf": "TAF OEJN 251100Z 2512/2618 34016KT CAVOK"
    },
    {
      "icao": "OEMA",
      "alert": "OK",
      "vis_m": 9999,
      "fzfg": false,
      "metar_trigger": false,
      "taf_trigger": false,
      "metar": "METAR OEMA 251500Z 08008KT CAVOK 25/M04 Q1018 NOSIG",
      "taf": "TAF OEMA 251100Z 2512/2618 09012KT 7000 NSC"
    },
    {
      "icao": "OJAI",
      "alert": "OK",
      "vis_m": 5000,
      "fzfg": false,
      "metar_trigger": false,
      "taf_trigger": false,
      "metar": "METAR OJAI 251500Z 25010KT 5000 HZ NSC 14/03 Q1019 NOSIG",
      "taf": "TAF OJAI 251049Z 2512/2618 28008KT 5000 HZ SCT035"
    },
    {
      "icao": "OMAA",
      "alert": "OK",
      "vis_m": 9999,
      "fzfg": false,
      "metar_trigger": false,
      "taf_trigger": false,
      "metar": "METAR OMAA 251530Z 32009KT CAVOK 24/20 Q1013 NOSIG",
      "taf": "TAF OMAA 251100Z 2512/2618 32012KT 8000 NSC"
    },
    {
      "icao": "OMDB",
      "alert": "OK",
      "vis_m": 9999,
      "fzfg": false,
      "metar_trigger": false,
      "taf_trigger": false,
      "metar": "METAR OMDB 251530Z 31006KT CAVOK 25/19 Q1012 NOSIG",
      "taf": "TAF OMDB 251100Z 2512/2618 29012KT 8000 NSC"
    },
    {
      "icao": "UAAA",
      "alert": "OK",
      "vis_m": 5000,
      "fzfg": false,
      "metar_trigger": false,
      "taf_trigger": false,
      "metar": "METAR UAAA 251530Z 00000MPS 5000 BR FU BKN021 OVC100 M02/M04 Q1017 NOSIG",
      "taf": "TAF UAAA 251104Z 2512/2612 22003MPS 1500 BR BKN011CB OVC030 TX01/2608Z TNM07/2602Z"
    },
    {
      "icao": "UBBB",
      "alert": "OK",
      "vis_m": 9999,
      "fzfg": false,
      "metar_trigger": false,
      "taf_trigger": false,
      "metar": "METAR UBBB 251530Z 04006KT 9999 OVC006 06/05 Q1017 NOSIG",
      "taf": "TAF UBBB 251054Z 2512/2612 04006KT 8000 BKN007 OVC017 TX06/2512Z TN04/2601Z"
    },
    {
      "icao": "UDSG",
      "alert": "OK",
      "vis_m": 9999,
      "fzfg": false,
      "metar_trigger": false,
      "taf_trigger": false,
      "metar": "METAR UDSG 251530Z 21005KT 9999 BKN046 03/M05 Q1015 NOSIG",
      "taf": "TAF UDSG 251100Z 2512/2612 VRB06KT 9999 BKN040"
    },
    {
      "icao": "UDYZ",
      "alert": "OK",
      "vis_m": 9999,
      "fzfg": false,
      "metar_trigger": false,
      "taf_trigger": false,
      "metar": "METAR UDYZ 251530Z 26003KT 9999 FEW046 08/M03 Q1014 NOSIG",
      "taf": "TAF UDYZ 251100Z 2512/2612 22006KT 9999 FEW040"
    },
    {
      "icao": "UGKO",
      "alert": "OK",
      "vis_m": 9999,
      "fzfg": false,
      "metar_trigger": false,
      "taf_trigger": false,
      "metar": "METAR UGKO 251530Z 29005KT CAVOK 12/05 Q1012 NOSIG",
      "taf": "TAF UGKO 251100Z 2512/2612 27007KT CAVOK TX17/2512Z TN05/2612Z"
    }
  ]
}