{
  "ts_utc": "2026-02-07T06:56:18Z",
  "threshold_m": 150,
  "source": "stations_override.txt (ICAO list) + aviationweather.gov (METAR/TAF raw)",
  "station_count": 159,
  "stations": [
    {
      "icao": "BIKF",
      "alert": "OK",
      "vis_m": 9999,
      "fzfg": false,
      "metar_trigger": false,
      "taf_trigger": false,
      "metar": "METAR BIKF 070630Z 06005KT CAVOK 01/M01 Q1008",
      "taf": "TAF BIKF 070447Z 0706/0806 09008KT CAVOK TX03/0714Z TNM03/0800Z"
    },
    {
      "icao": "BKPR",
      "alert": "OK",
      "vis_m": null,
      "fzfg": false,
      "metar_trigger": false,
      "taf_trigger": false,
      "metar": "",
      "taf": "TAF BKPR 070530Z 0706/0806 25010KT 9999 SCT020 BKN050"
    },
    {
      "icao": "EBCI",
      "alert": "OK",
      "vis_m": 9999,
      "fzfg": false,
      "metar_trigger": false,
      "taf_trigger": false,
      "metar": "METAR EBCI 070650Z 20006KT 9999 FEW035 05/04 Q1001 NOSIG",
      "taf": ""
    },
    {
      "icao": "EDDB",
      "alert": "OK",
      "vis_m": 1000,
      "fzfg": false,
      "metar_trigger": false,
      "taf_trigger": false,
      "metar": "METAR EDDB 070650Z AUTO 10003KT 1000 0600 R06L/1300D R06R/1900N BCFG BKN001 01/01 Q1003 TEMPO 0500 FG BKN002",
      "taf": "TAF EDDB 070500Z 0706/0806 09004KT 1200 BR OVC003"
    },
    {
      "icao": "EDDH",
      "alert": "OK",
      "vis_m": 4300,
      "fzfg": false,
      "metar_trigger": false,
      "taf_trigger": false,
      "metar": "METAR EDDH 070650Z AUTO 09006KT 4300 -DZ BR OVC003 01/01 Q1003 TEMPO DZ",
      "taf": "TAF EDDH 070500Z 0706/0812 08007KT 3500 BR OVC003"
    },
    {
      "icao": "EDDK",
      "alert": "OK",
      "vis_m": 3600,
      "fzfg": false,
      "metar_trigger": false,
      "taf_trigger": false,
      "metar": "METAR EDDK 070650Z AUTO VRB02KT 3600 1100 R13L/P2000N R24/P2000N BR FEW049 05/04 Q1002 BECMG 7000",
      "taf": "TAF EDDK 070500Z 0706/0812 12006KT 9999 SCT040"
    },
    {
      "icao": "EDDN",
      "alert": "OK",
      "vis_m": 3200,
      "fzfg": false,
      "metar_trigger": false,
      "taf_trigger": false,
      "metar": "METAR EDDN 070650Z AUTO 11005KT 3200 BR OVC006 03/03 Q1003 NOSIG",
      "taf": "TAF EDDN 070500Z 0706/0806 13005KT 5000 BR OVC007"
    },
    {
      "icao": "EDDS",
      "alert": "OK",
      "vis_m": 9999,
      "fzfg": false,
      "metar_trigger": false,
      "taf_trigger": false,
      "metar": "METAR EDDS 070650Z AUTO 24004KT 160V280 9999 BKN022 BKN035 06/04 Q1003 NOSIG",
      "taf": "TAF EDDS 070500Z 0706/0806 VRB02KT 9999 SCT035"
    },
    {
      "icao": "EDFH",
      "alert": "OK",
      "vis_m": 9999,
      "fzfg": false,
      "metar_trigger": false,
      "taf_trigger": false,
      "metar": "METAR EDFH 070650Z 24005KT 9999 FEW007 OVC010 06/05 Q1002",
      "taf": "TAF EDFH 070500Z 0706/0806 24005KT 9999 SCT004 BKN020"
    },
    {
      "icao": "EDJA",
      "alert": "OK",
      "vis_m": 9999,
      "fzfg": false,
      "metar_trigger": false,
      "taf_trigger": false,
      "metar": "METAR EDJA 070650Z 22006KT 9999 FEW007 BKN033 04/03 Q1003",
      "taf": "TAF EDJA 070500Z 0706/0715 21005KT 9999 FEW015 BKN040"
    },
    {
      "icao": "EDLW",
      "alert": "OK",
      "vis_m": 9999,
      "fzfg": false,
      "metar_trigger": false,
      "taf_trigger": false,
      "metar": "METAR EDLW 070650Z 18007KT 9999 BKN017 BKN023 07/06 Q1001",
      "taf": "TAF EDLW 070500Z 0706/0806 18007KT 9999 SCT030"
    },
    {
      "icao": "EDNY",
      "alert": "OK",
      "vis_m": 9000,
      "fzfg": false,
      "metar_trigger": false,
      "taf_trigger": false,
      "metar": "METAR EDNY 070650Z VRB02KT 9000 BKN043 05/04 Q1004",
      "taf": ""
    },
    {
      "icao": "EDSB",
      "alert": "OK",
      "vis_m": 9999,
      "fzfg": false,
      "metar_trigger": false,
      "taf_trigger": false,
      "metar": "METAR EDSB 070650Z 21003KT 9999 OVC024 07/07 Q1003",
      "taf": "TAF EDSB 070500Z 0706/0806 21004KT 9999 BKN025"
    },
    {
      "icao": "EETN",
      "alert": "OK",
      "vis_m": 9999,
      "fzfg": false,
      "metar_trigger": false,
      "taf_trigger": false,
      "metar": "METAR EETN 070650Z 06006KT 9999 BKN006 M09/M10 Q1014 TEMPO BKN004",
      "taf": "TAF EETN 070530Z 0706/0806 05010KT 8000 BKN005 OVC010"
    },
    {
      "icao": "EFTU",
      "alert": "OK",
      "vis_m": 9999,
      "fzfg": false,
      "metar_trigger": false,
      "taf_trigger": false,
      "metar": "METAR EFTU 070650Z AUTO 03004KT 360V070 CAVOK M19/M21 Q1016",
      "taf": "TAF EFTU 070529Z 0706/0806 02003KT CAVOK"
    },
    {
      "icao": "EGBB",
      "alert": "OK",
      "vis_m": 9999,
      "fzfg": false,
      "metar_trigger": false,
      "taf_trigger": false,
      "metar": "METAR EGBB 070650Z 12010KT 9999 BKN007 07/06 Q0991",
      "taf": "TAF EGBB 070502Z 0706/0806 15008KT 9999 SCT020"
    },
    {
      "icao": "EGGP",
      "alert": "OK",
      "vis_m": 8000,
      "fzfg": false,
      "metar_trigger": false,
      "taf_trigger": false,
      "metar": "METAR EGGP 070650Z 10008KT 8000 SCT008 BKN032 05/04 Q0990",
      "taf": "TAF EGGP 070500Z 0706/0806 12006KT 9999 BKN016"
    },
    {
      "icao": "EGGW",
      "alert": "OK",
      "vis_m": 8000,
      "fzfg": false,
      "metar_trigger": false,
      "taf_trigger": false,
      "metar": "METAR EGGW 070650Z AUTO 14008KT 8000 OVC009 06/06 Q0992",
      "taf": ""
    },
    {
      "icao": "EGKK",
      "alert": "OK",
      "vis_m": 4200,
      "fzfg": false,
      "metar_trigger": false,
      "taf_trigger": false,
      "metar": "METAR EGKK 070650Z 16010KT 120V210 4200 RADZ SCT012 BKN017 09/07 Q0993",
      "taf": "TAF EGKK 070454Z 0706/0812 17008KT 9999 SCT018"
    },
    {
      "icao": "EGNM",
      "alert": "OK",
      "vis_m": 200,
      "fzfg": false,
      "metar_trigger": false,
      "taf_trigger": false,
      "metar": "METAR EGNM 070650Z 13005KT 0200 R14/0300N FG VV/// 04/04 Q0992",
      "taf": "TAF EGNM 070459Z 0706/0806 10004KT 0300 FG BKN001"
    },
    {
      "icao": "EGPD",
      "alert": "OK",
      "vis_m": 5000,
      "fzfg": false,
      "metar_trigger": false,
      "taf_trigger": false,
      "metar": "METAR EGPD 070650Z COR AUTO 10011KT 5000 -RA BKN006 OVC015 05/04 Q0997 RERA TEMPO BKN007",
      "taf": "TAF EGPD 070454Z 0706/0806 10011KT 9999 BKN010"
    },
    {
      "icao": "EGPF",
      "alert": "OK",
      "vis_m": 9999,
      "fzfg": false,
      "metar_trigger": false,
      "taf_trigger": false,
      "metar": "METAR EGPF 070650Z AUTO 07012KT 9999 -RA BKN010 OVC014 05/04 Q0994",
      "taf": "TAF EGPF 070458Z 0706/0806 07009KT 9999 BKN020"
    },
    {
      "icao": "EHBK",
      "alert": "OK",
      "vis_m": 9999,
      "fzfg": false,
      "metar_trigger": false,
      "taf_trigger": false,
      "metar": "METAR EHBK 070625Z AUTO 17007KT 090V220 9999 NCD 06/06 Q1001 NOSIG",
      "taf": "TAF EHBK 070513Z 0706/0812 18006KT CAVOK"
    },
    {
      "icao": "EHEH",
      "alert": "OK",
      "vis_m": 9000,
      "fzfg": false,
      "metar_trigger": false,
      "taf_trigger": false,
      "metar": "METAR EHEH 070625Z AUTO 17005KT 9000 BR NCD 04/04 Q1000 BLU NOSIG RMK TREND FORECAST BY EHWX",
      "taf": "TAF EHEH 070538Z 0706/0812 18007KT CAVOK"
    },
    {
      "icao": "EKBI",
      "alert": "OK",
      "vis_m": 3200,
      "fzfg": false,
      "metar_trigger": false,
      "taf_trigger": false,
      "metar": "METAR EKBI 070650Z AUTO 08015KT 3200 BR OVC004/// 00/M00 Q1005",
      "taf": "TAF EKBI 070527Z 0706/0806 08014KT 2500 BR OVC003"
    },
    {
      "icao": "EKCH",
      "alert": "OK",
      "vis_m": 9999,
      "fzfg": false,
      "metar_trigger": false,
      "taf_trigger": false,
      "metar": "METAR EKCH 070650Z 08010KT 9999 OVC009 01/M01 Q1007 TEMPO BKN011",
      "taf": "TAF EKCH 070527Z 0706/0806 08012KT 9999 BKN009"
    },
    {
      "icao": "ENAL",
      "alert": "OK",
      "vis_m": 9999,
      "fzfg": false,
      "metar_trigger": false,
      "taf_trigger": false,
      "metar": "METAR ENAL 070650Z 13006KT CAVOK 03/M10 Q1009",
      "taf": "TAF ENAL 070500Z 0706/0715 14012KT CAVOK"
    },
    {
      "icao": "ENBR",
      "alert": "OK",
      "vis_m": 9999,
      "fzfg": false,
      "metar_trigger": false,
      "taf_trigger": false,
      "metar": "METAR ENBR 070650Z 00000KT 9999 BKN050 00/M06 Q1008 NOSIG RMK WIND 1200FT 09004KT",
      "taf": "TAF ENBR 070500Z 0706/0806 04003KT 9999 BKN050"
    },
    {
      "icao": "ENGM",
      "alert": "OK",
      "vis_m": 9999,
      "fzfg": false,
      "metar_trigger": false,
      "taf_trigger": false,
      "metar": "METAR ENGM 070650Z 02008KT 9999 -SN SCT020 BKN024 M08/M11 Q1015 NOSIG",
      "taf": "TAF ENGM 070500Z 0706/0806 02008KT 9999 BKN025"
    },
    {
      "icao": "ENHD",
      "alert": "OK",
      "vis_m": 9999,
      "fzfg": false,
      "metar_trigger": false,
      "taf_trigger": false,
      "metar": "METAR ENHD 070650Z AUTO 10005KT 9999 -SN BKN042/// 02/M06 Q1007",
      "taf": "TAF ENHD 070500Z 0706/0715 06005KT 9999 BKN045"
    },
    {
      "icao": "ENTC",
      "alert": "OK",
      "vis_m": 9999,
      "fzfg": false,
      "metar_trigger": false,
      "taf_trigger": false,
      "metar": "METAR ENTC 070650Z VRB01KT CAVOK M08/M09 Q1022 NOSIG RMK WIND 2600FT 15008KT",
      "taf": "TAF ENTC 070500Z 0706/0806 18005KT CAVOK"
    },
    {
      "icao": "ENTO",
      "alert": "OK",
      "vis_m": 7000,
      "fzfg": false,
      "metar_trigger": false,
      "taf_trigger": false,
      "metar": "METAR ENTO 070650Z 02012KT 7000 -SN OVC023 M06/M08 Q1014 TEMPO 1500 VV012",
      "taf": "TAF ENTO 070500Z 0706/0806 02012KT 9000 -SN BKN015"
    },
    {
      "icao": "ENVA",
      "alert": "OK",
      "vis_m": 9999,
      "fzfg": false,
      "metar_trigger": false,
      "taf_trigger": false,
      "metar": "METAR ENVA 070650Z 09006KT CAVOK M15/M20 Q1016 NOSIG RMK WIND 670FT 09011KT",
      "taf": "TAF ENVA 062300Z 0700/0724 12008KT CAVOK"
    },
    {
      "icao": "ENZV",
      "alert": "OK",
      "vis_m": 9999,
      "fzfg": false,
      "metar_trigger": false,
      "taf_trigger": false,
      "metar": "METAR ENZV 070650Z VRB02KT 9999 -SN BKN040 M01/M03 Q1007 NOSIG",
      "taf": ""
    },
    {
      "icao": "EPGD",
      "alert": "OK",
      "vis_m": 4700,
      "fzfg": false,
      "metar_trigger": false,
      "taf_trigger": false,
      "metar": "METAR EPGD 070630Z 04006KT 4700 -FZRA BR OVC003 M02/M03 Q1005",
      "taf": "TAF EPGD 070530Z 0706/0806 06008KT 5000 BR OVC005"
    },
    {
      "icao": "EPKK",
      "alert": "OK",
      "vis_m": 200,
      "fzfg": false,
      "metar_trigger": false,
      "taf_trigger": false,
      "metar": "METAR EPKK 070630Z VRB01KT 0200 R25/0450N FG VV001 01/00 Q1002",
      "taf": "TAF EPKK 070530Z 0706/0806 VRB02KT 0200 FG OVC001"
    },
    {
      "icao": "EPKT",
      "alert": "OK",
      "vis_m": 2900,
      "fzfg": false,
      "metar_trigger": false,
      "taf_trigger": false,
      "metar": "METAR EPKT 070630Z 31001KT 2900 BR OVC041 00/M00 Q1001",
      "taf": "TAF EPKT 070530Z 0706/0806 VRB02KT 4000 BR BKN040"
    },
    {
      "icao": "EPLB",
      "alert": "OK",
      "vis_m": 2000,
      "fzfg": false,
      "metar_trigger": false,
      "taf_trigger": false,
      "metar": "METAR EPLB 070630Z 08007KT 2000 -FZRA BR OVC002 M00/M00 Q1002",
      "taf": "TAF EPLB 070530Z 0706/0806 07005KT 2500 BR OVC005"
    },
    {
      "icao": "EPMO",
      "alert": "OK",
      "vis_m": 900,
      "fzfg": true,
      "metar_trigger": false,
      "taf_trigger": false,
      "metar": "METAR EPMO 070630Z 03003KT 0900 R08/0900N FZFG VV001 M00/M00 Q1003",
      "taf": "TAF EPMO 070530Z 0706/0806 06007KT 1200 BR OVC002"
    },
    {
      "icao": "EPPO",
      "alert": "OK",
      "vis_m": 1700,
      "fzfg": false,
      "metar_trigger": false,
      "taf_trigger": false,
      "metar": "METAR EPPO 070630Z 07005KT 1700 BR OVC002 00/M00 Q1003",
      "taf": "TAF EPPO 070530Z 0706/0806 08005KT 2200 BR OVC002"
    },
    {
      "icao": "EPRA",
      "alert": "OK",
      "vis_m": 3200,
      "fzfg": false,
      "metar_trigger": false,
      "taf_trigger": false,
      "metar": "METAR EPRA 070630Z 01002KT 3200 BR OVC002 00/M00 Q1002",
      "taf": "TAF EPRA 070530Z 0706/0715 03006KT 4000 BR OVC004"
    },
    {
      "icao": "EPRZ",
      "alert": "OK",
      "vis_m": 250,
      "fzfg": false,
      "metar_trigger": false,
      "taf_trigger": false,
      "metar": "METAR EPRZ 070630Z 24003KT 0250 R27/1700D FG OVC003 00/00 Q1001",
      "taf": ""
    },
    {
      "icao": "EPSC",
      "alert": "OK",
      "vis_m": 4900,
      "fzfg": false,
      "metar_trigger": false,
      "taf_trigger": false,
      "metar": "METAR EPSC 070630Z 07004KT 030V090 4900 BR OVC004 00/M00 Q1004",
      "taf": "TAF EPSC 070530Z 0706/0806 07004KT 5000 BR SCT006 BKN011"
    },
    {
      "icao": "EPSY",
      "alert": "OK",
      "vis_m": 1300,
      "fzfg": false,
      "metar_trigger": false,
      "taf_trigger": false,
      "metar": "METAR EPSY 070630Z 04005KT 1300 R01/1600N -FZRA BR OVC001 M02/M02 Q1004",
      "taf": "TAF EPSY 070530Z 0706/0715 06006KT 3000 BR OVC004"
    },
    {
      "icao": "EPWA",
      "alert": "OK",
      "vis_m": 4000,
      "fzfg": false,
      "metar_trigger": false,
      "taf_trigger": false,
      "metar": "METAR EPWA 070630Z 06004KT 4000 BR OVC003 01/00 Q1003 TEMPO 1500 BR BKN002",
      "taf": "TAF EPWA 070530Z 0706/0806 06006KT 6000 OVC005"
    },
    {
      "icao": "EPWR",
      "alert": "OK",
      "vis_m": 2600,
      "fzfg": false,
      "metar_trigger": false,
      "taf_trigger": false,
      "metar": "METAR EPWR 070630Z 29003KT 270V330 2600 BR SCT002 OVC004 01/01 Q1003",
      "taf": "TAF EPWR 070530Z 0706/0806 VRB02KT 2000 BR BKN008 OVC020"
    },
    {
      "icao": "ESGG",
      "alert": "OK",
      "vis_m": 9999,
      "fzfg": false,
      "metar_trigger": false,
      "taf_trigger": false,
      "metar": "METAR ESGG 070650Z 06011KT 9999 -SN BKN007 M03/M04 Q1010",
      "taf": "TAF ESGG 070530Z 0706/0806 05007KT 9999 BKN017"
    },
    {
      "icao": "ESKN",
      "alert": "OK",
      "vis_m": 9999,
      "fzfg": false,
      "metar_trigger": false,
      "taf_trigger": false,
      "metar": "METAR ESKN 070650Z 03008KT 9999 BKN010 M04/M05 Q1015",
      "taf": "TAF ESKN 070530Z 0706/0806 03008KT 9999 OVC008"
    },
    {
      "icao": "ESMS",
      "alert": "OK",
      "vis_m": 9999,
      "fzfg": false,
      "metar_trigger": false,
      "taf_trigger": false,
      "metar": "METAR ESMS 070650Z 09017KT 9999 OVC009 00/M01 Q1006",
      "taf": "TAF ESMS 070527Z 0706/0806 09017KT 9999 OVC007"
    },
    {
      "icao": "ESSA",
      "alert": "OK",
      "vis_m": 9999,
      "fzfg": false,
      "metar_trigger": false,
      "taf_trigger": false,
      "metar": "METAR ESSA 070650Z 02010KT CAVOK M06/M10 Q1016 NOSIG",
      "taf": "TAF ESSA 070530Z 0706/0806 02012KT 9999 BKN035"
    },
    {
      "icao": "EYKA",
      "alert": "OK",
      "vis_m": 5000,
      "fzfg": false,
      "metar_trigger": false,
      "taf_trigger": false,
      "metar": "METAR EYKA 070650Z 06004KT 5000 -SN BR OVC021 M04/M04 Q1006",
      "taf": ""
    },
    {
      "icao": "EYPA",
      "alert": "OK",
      "vis_m": 9999,
      "fzfg": false,
      "metar_trigger": false,
      "taf_trigger": false,
      "metar": "METAR EYPA 070650Z 06009KT 9999 -SN OVC033 M05/M08 Q1008",
      "taf": "TAF EYPA 070507Z 0706/0806 07010KT 9000 SCT010 OVC020"
    },
    {
      "icao": "EYVI",
      "alert": "OK",
      "vis_m": 6000,
      "fzfg": false,
      "metar_trigger": false,
      "taf_trigger": false,
      "metar": "METAR EYVI 070650Z 12004KT 6000 -SN SCT017 OVC041 M04/M05 Q1006 TEMPO 3000 SN",
      "taf": "TAF EYVI 070507Z 0706/0806 VRB04KT 5000 SN SCT010 OVC015"
    },
    {
      "icao": "GCFV",
      "alert": "OK",
      "vis_m": 9999,
      "fzfg": false,
      "metar_trigger": false,
      "taf_trigger": false,
      "metar": "METAR GCFV 070630Z 27006KT CAVOK 14/09 Q1024",
      "taf": "TAF GCFV 070200Z 0703/0803 30005KT 9999 FEW030 TX22/0714Z TN16/0706Z"
    },
    {
      "icao": "GCLP",
      "alert": "OK",
      "vis_m": 9999,
      "fzfg": false,
      "metar_trigger": false,
      "taf_trigger": false,
      "metar": "METAR GCLP 070630Z 30004KT CAVOK 15/10 Q1024 NOSIG",
      "taf": "TAF GCLP 070200Z 0703/0803 30005KT 9999 FEW030 TX22/0714Z TN16/0706Z"
    },
    {
      "icao": "GCTS",
      "alert": "OK",
      "vis_m": 9999,
      "fzfg": false,
      "metar_trigger": false,
      "taf_trigger": false,
      "metar": "METAR GCTS 070630Z 36005KT 330V050 9999 BKN030 17/11 Q1024 NOSIG",
      "taf": "TAF GCTS 070200Z 0703/0803 36005KT 9999 FEW035 TX24/0714Z TN16/0706Z"
    },
    {
      "icao": "GMAD",
      "alert": "OK",
      "vis_m": 8000,
      "fzfg": false,
      "metar_trigger": false,
      "taf_trigger": false,
      "metar": "METAR GMAD 070630Z 11005KT 8000 NSC 07/06 Q1023 NOSIG",
      "taf": "TAF GMAD 070500Z 0706/0812 06008KT 8000 SCT016"
    },
    {
      "icao": "GMMN",
      "alert": "OK",
      "vis_m": 9999,
      "fzfg": false,
      "metar_trigger": false,
      "taf_trigger": false,
      "metar": "METAR GMMN 070630Z 20010KT 9999 BKN020 10/08 Q1022 NOSIG",
      "taf": "TAF GMMN 070500Z 0706/0812 20010KT 9999 SCT016"
    },
    {
      "icao": "GMMX",
      "alert": "OK",
      "vis_m": 8000,
      "fzfg": false,
      "metar_trigger": false,
      "taf_trigger": false,
      "metar": "METAR GMMX 070630Z 17008KT 8000 SCT026 09/07 Q1023 NOSIG",
      "taf": "TAF GMMX 070500Z 0706/0812 18006KT 8000 SCT026"
    },
    {
      "icao": "HEGN",
      "alert": "OK",
      "vis_m": 9999,
      "fzfg": false,
      "metar_trigger": false,
      "taf_trigger": false,
      "metar": "METAR HEGN 070600Z 00000KT CAVOK 17/09 Q1017 NOSIG",
      "taf": "TAF HEGN 070500Z 0706/0812 34008KT CAVOK"
    },
    {
      "icao": "HEMA",
      "alert": "OK",
      "vis_m": 9999,
      "fzfg": false,
      "metar_trigger": false,
      "taf_trigger": false,
      "metar": "METAR HEMA 070600Z 32008KT CAVOK 24/00 Q1016 NOSIG",
      "taf": "TAF HEMA 070500Z 0706/0812 34011KT CAVOK"
    },
    {
      "icao": "HESH",
      "alert": "OK",
      "vis_m": 9999,
      "fzfg": false,
      "metar_trigger": false,
      "taf_trigger": false,
      "metar": "METAR HESH 070600Z 23003KT CAVOK 21/15 Q1016 NOSIG",
      "taf": "TAF HESH 070500Z 0706/0812 16008KT CAVOK"
    },
    {
      "icao": "HESX",
      "alert": "OK",
      "vis_m": 9999,
      "fzfg": false,
      "metar_trigger": false,
      "taf_trigger": false,
      "metar": "METAR HESX 070600Z 19008KT CAVOK 16/01 Q1015 NOSIG",
      "taf": "TAF HESX 070500Z 0706/0812 23014KT 7000 NSC"
    },
    {
      "icao": "LATI",
      "alert": "OK",
      "vis_m": 8000,
      "fzfg": false,
      "metar_trigger": false,
      "taf_trigger": false,
      "metar": "METAR LATI 070650Z VRB02KT 8000 FEW023 SCT060 12/10 Q1006 NOSIG",
      "taf": "TAF LATI 070500Z 0706/0806 VRB05KT 9999 SCT040 BKN070 TX17/0712Z TN08/0805Z"
    },
    {
      "icao": "LBPD",
      "alert": "OK",
      "vis_m": 4400,
      "fzfg": false,
      "metar_trigger": false,
      "taf_trigger": false,
      "metar": "METAR LBPD 070630Z AUTO 28003KT 4400 -SHRA BR OVC064/// 06/06 Q1002 NOSIG",
      "taf": "TAF LBPD 070500Z 0706/0806 VRB04KT 9999 BKN050"
    },
    {
      "icao": "LBSF",
      "alert": "OK",
      "vis_m": 5000,
      "fzfg": false,
      "metar_trigger": false,
      "taf_trigger": false,
      "metar": "METAR LBSF 070630Z VRB01KT 5000 BR FEW011 SCT042 OVC052 05/04 Q1002 NOSIG",
      "taf": "TAF LBSF 070500Z 0706/0806 VRB04KT 3000 BR SCT010 BKN020 OVC030"
    },
    {
      "icao": "LBWN",
      "alert": "OK",
      "vis_m": 9999,
      "fzfg": false,
      "metar_trigger": false,
      "taf_trigger": false,
      "metar": "METAR LBWN 070630Z AUTO 30007KT 9999 FEW010/// OVC013/// 05/05 Q1002 NOSIG",
      "taf": "TAF LBWN 070500Z 0706/0806 32010KT 9999 BKN012 BKN030"
    },
    {
      "icao": "LCLK",
      "alert": "OK",
      "vis_m": 9999,
      "fzfg": false,
      "metar_trigger": false,
      "taf_trigger": false,
      "metar": "METAR LCLK 070630Z 21014KT 9999 FEW030 SCT070 16/14 Q1010 NOSIG",
      "taf": "TAF LCLK 070530Z 0706/0806 21007KT 8000 FEW020 SCT035"
    },
    {
      "icao": "LCPH",
      "alert": "OK",
      "vis_m": 8000,
      "fzfg": false,
      "metar_trigger": false,
      "taf_trigger": false,
      "metar": "METAR LCPH 070630Z 24005KT 170V260 8000 BKN014 BKN025 18/15 Q1010 NOSIG",
      "taf": "TAF LCPH 070530Z 0706/0806 10009KT 8000 FEW015 SCT025"
    },
    {
      "icao": "LEAL",
      "alert": "OK",
      "vis_m": 9999,
      "fzfg": false,
      "metar_trigger": false,
      "taf_trigger": false,
      "metar": "METAR LEAL 070630Z 26012KT CAVOK 11/03 Q1011 NOSIG",
      "taf": "TAF LEAL 070500Z 0706/0806 26010KT 9999 FEW040 TX15/0714Z TN10/0706Z"
    },
    {
      "icao": "LEBB",
      "alert": "OK",
      "vis_m": 9999,
      "fzfg": false,
      "metar_trigger": false,
      "taf_trigger": false,
      "metar": "METAR LEBB 070630Z 18010KT 120V240 CAVOK 11/01 Q1003 NOSIG",
      "taf": "TAF LEBB 070500Z 0706/0806 20010KT CAVOK TX14/0713Z TN07/0805Z"
    },
    {
      "icao": "LEBL",
      "alert": "OK",
      "vis_m": 9999,
      "fzfg": false,
      "metar_trigger": false,
      "taf_trigger": false,
      "metar": "METAR LEBL 070630Z 24012KT CAVOK 11/04 Q1004 NOSIG",
      "taf": "TAF LEBL 070500Z 0706/0806 29009KT 9999 FEW025 TX15/0713Z TN09/0706Z"
    },
    {
      "icao": "LECH",
      "alert": "OK",
      "vis_m": 9000,
      "fzfg": false,
      "metar_trigger": false,
      "taf_trigger": false,
      "metar": "METAR LECH 070630Z AUTO VRB02KT 9000 NSC 06/01 Q1007",
      "taf": ""
    },
    {
      "icao": "LEMD",
      "alert": "OK",
      "vis_m": 9999,
      "fzfg": false,
      "metar_trigger": false,
      "taf_trigger": false,
      "metar": "METAR LEMD 070630Z 21006KT 170V250 9999 BKN017 BKN060 05/03 Q1010 NOSIG",
      "taf": "TAF LEMD 070500Z 0706/0812 23010KT 9999 BKN016 TX10/0812Z TN02/0719Z"
    },
    {
      "icao": "LEMG",
      "alert": "OK",
      "vis_m": 9999,
      "fzfg": false,
      "metar_trigger": false,
      "taf_trigger": false,
      "metar": "METAR LEMG 070630Z 32003KT 9999 FEW052 06/05 Q1016 NOSIG",
      "taf": "TAF LEMG 070500Z 0706/0806 VRB03KT 9999 FEW040 TX16/0714Z TN10/0707Z"
    },
    {
      "icao": "LEVC",
      "alert": "OK",
      "vis_m": 9999,
      "fzfg": false,
      "metar_trigger": false,
      "taf_trigger": false,
      "metar": "METAR LEVC 070630Z 27009KT 9999 FEW050 09/02 Q1009 NOSIG",
      "taf": "TAF LEVC 070500Z 0706/0806 24009KT 9999 SCT040 TX16/0714Z TN10/0706Z"
    },
    {
      "icao": "LEXJ",
      "alert": "OK",
      "vis_m": 9999,
      "fzfg": false,
      "metar_trigger": false,
      "taf_trigger": false,
      "metar": "METAR LEXJ 070630Z 21010G20KT 170V260 CAVOK 11/01 Q1002",
      "taf": "TAF LEXJ 070200Z 0703/0803 20009KT 9999 FEW060 TX14/0713Z TN09/0706Z"
    },
    {
      "icao": "LEZG",
      "alert": "OK",
      "vis_m": 9999,
      "fzfg": false,
      "metar_trigger": false,
      "taf_trigger": false,
      "metar": "METAR LEZG 070630Z 25017KT CAVOK 09/01 Q1006 NOSIG",
      "taf": "TAF LEZG 070500Z 0706/0806 26012KT 9999 FEW050 TX14/0715Z TN08/0706Z"
    },
    {
      "icao": "LEZL",
      "alert": "OK",
      "vis_m": 9999,
      "fzfg": false,
      "metar_trigger": false,
      "taf_trigger": false,
      "metar": "METAR LEZL 070630Z 14002KT 9999 SCT042 09/08 Q1015 NOSIG",
      "taf": "TAF LEZL 070200Z 0703/0803 23008KT 9999 SCT030 SCT040 TX15/0715Z TN12/0707Z"
    },
    {
      "icao": "LFBD",
      "alert": "OK",
      "vis_m": 9999,
      "fzfg": false,
      "metar_trigger": false,
      "taf_trigger": false,
      "metar": "METAR LFBD 070630Z AUTO 18007KT 9999 FEW034 OVC180 07/06 Q1002 NOSIG",
      "taf": "TAF LFBD 070500Z 0706/0812 20010KT CAVOK TX13/0714Z TN06/0806Z"
    },
    {
      "icao": "LFLL",
      "alert": "OK",
      "vis_m": 9999,
      "fzfg": false,
      "metar_trigger": false,
      "taf_trigger": false,
      "metar": "METAR LFLL 070630Z 20003KT 160V220 CAVOK 03/02 Q1003 NOSIG",
      "taf": "TAF LFLL 070500Z 0706/0812 VRB03KT CAVOK"
    },
    {
      "icao": "LFLS",
      "alert": "OK",
      "vis_m": 9999,
      "fzfg": false,
      "metar_trigger": false,
      "taf_trigger": false,
      "metar": "METAR LFLS 070630Z AUTO 11003KT 9999 2600 NSC 01/00 Q1003 NOSIG",
      "taf": ""
    },
    {
      "icao": "LFMN",
      "alert": "OK",
      "vis_m": 9999,
      "fzfg": false,
      "metar_trigger": false,
      "taf_trigger": false,
      "metar": "METAR LFMN 070630Z 34009KT CAVOK 07/03 Q1003 NOSIG",
      "taf": ""
    },
    {
      "icao": "LFOB",
      "alert": "OK",
      "vis_m": 9999,
      "fzfg": false,
      "metar_trigger": false,
      "taf_trigger": false,
      "metar": "METAR LFOB 070630Z AUTO 17008KT CAVOK 07/06 Q0999 NOSIG",
      "taf": "TAF LFOB 070500Z 0706/0806 20007KT 9999 BKN020"
    },
    {
      "icao": "LFPO",
      "alert": "OK",
      "vis_m": 9999,
      "fzfg": false,
      "metar_trigger": false,
      "taf_trigger": false,
      "metar": "METAR LFPO 070630Z 18005KT 9999 BKN035 07/06 Q1000 NOSIG",
      "taf": "TAF LFPO 070500Z 0706/0812 18005KT CAVOK"
    },
    {
      "icao": "LFSB",
      "alert": "OK",
      "vis_m": 9999,
      "fzfg": false,
      "metar_trigger": false,
      "taf_trigger": false,
      "metar": "METAR LFSB 070630Z AUTO 17003KT CAVOK 04/04 Q1003 NOSIG",
      "taf": "TAF LFSB 070500Z 0706/0806 17004KT 9999 SCT030"
    },
    {
      "icao": "LGAV",
      "alert": "OK",
      "vis_m": 9999,
      "fzfg": false,
      "metar_trigger": false,
      "taf_trigger": false,
      "metar": "METAR LGAV 070650Z 27008KT 230V310 CAVOK 16/09 Q1007 NOSIG",
      "taf": "TAF LGAV 070500Z 0706/0806 24012KT 9999 FEW020"
    },
    {
      "icao": "LGTS",
      "alert": "OK",
      "vis_m": 100,
      "fzfg": false,
      "metar_trigger": false,
      "taf_trigger": false,
      "metar": "METAR LGTS 070650Z VRB02KT 0100 R10/0400 R28/0275 FG OVC002 07/07 Q1004 NOSIG",
      "taf": "TAF LGTS 070500Z 0706/0806 VRB03KT 0100 FG OVC001"
    },
    {
      "icao": "LHBP",
      "alert": "OK",
      "vis_m": 9999,
      "fzfg": false,
      "metar_trigger": false,
      "taf_trigger": false,
      "metar": "METAR LHBP 070630Z 24007KT 9999 FEW032 BKN200 04/02 Q1003 NOSIG",
      "taf": "TAF LHBP 070515Z 0706/0806 27005KT CAVOK"
    },
    {
      "icao": "LHDC",
      "alert": "OK",
      "vis_m": 400,
      "fzfg": false,
      "metar_trigger": false,
      "taf_trigger": false,
      "metar": "METAR LHDC 070615Z AUTO VRB03KT 0400 R04/0550N FG VV002 04/04 Q1002 NOSIG",
      "taf": "TAF LHDC 070515Z 0706/0715 VRB03KT 5000 BR SCT005 BKN030"
    },
    {
      "icao": "LIBD",
      "alert": "OK",
      "vis_m": 9999,
      "fzfg": false,
      "metar_trigger": false,
      "taf_trigger": false,
      "metar": "METAR LIBD 070650Z 18003KT CAVOK 07/06 Q1006",
      "taf": "TAF LIBD 070500Z 0706/0806 VRB06KT 9999 FEW030"
    },
    {
      "icao": "LIBG",
      "alert": "OK",
      "vis_m": null,
      "fzfg": false,
      "metar_trigger": false,
      "taf_trigger": false,
      "metar": "",
      "taf": ""
    },
    {
      "icao": "LIBP",
      "alert": "OK",
      "vis_m": 9999,
      "fzfg": false,
      "metar_trigger": false,
      "taf_trigger": false,
      "metar": "METAR LIBP 070650Z AUTO VRB01KT 9999 SCT200/// 05/05 Q1005",
      "taf": "TAF LIBP 070500Z 0706/0806 VRB05KT 9999 FEW060"
    },
    {
      "icao": "LIBR",
      "alert": "OK",
      "vis_m": 9999,
      "fzfg": false,
      "metar_trigger": false,
      "taf_trigger": false,
      "metar": "METAR LIBR 070650Z 24005KT CAVOK 10/06 Q1006",
      "taf": "TAF LIBR 070500Z 0706/0806 24008KT 9999 FEW040"
    },
    {
      "icao": "LICA",
      "alert": "OK",
      "vis_m": 9999,
      "fzfg": false,
      "metar_trigger": false,
      "taf_trigger": false,
      "metar": "METAR LICA 070650Z AUTO 26012KT 9999 FEW014/// 14/13 Q1010",
      "taf": "TAF LICA 070500Z 0706/0806 27015KT 9999 SCT015"
    },
    {
      "icao": "LICC",
      "alert": "OK",
      "vis_m": 9999,
      "fzfg": false,
      "metar_trigger": false,
      "taf_trigger": false,
      "metar": "METAR LICC 070650Z 31005KT 270V360 CAVOK 10/07 Q1010",
      "taf": "TAF LICC 070500Z 0706/0806 26014KT CAVOK"
    },
    {
      "icao": "LICJ",
      "alert": "OK",
      "vis_m": 9999,
      "fzfg": false,
      "metar_trigger": false,
      "taf_trigger": false,
      "metar": "METAR LICJ 070650Z 21012KT 160V250 CAVOK 16/08 Q1010",
      "taf": "TAF LICJ 070500Z 0706/0806 22012KT CAVOK"
    },
    {
      "icao": "LIMC",
      "alert": "OK",
      "vis_m": 9999,
      "fzfg": false,
      "metar_trigger": false,
      "taf_trigger": false,
      "metar": "METAR LIMC 070650Z 02003KT 9999 MIFG NSC 01/01 Q1003 NOSIG",
      "taf": "TAF LIMC 070500Z 0706/0812 VRB05KT CAVOK"
    },
    {
      "icao": "LIME",
      "alert": "OK",
      "vis_m": 9999,
      "fzfg": false,
      "metar_trigger": false,
      "taf_trigger": false,
      "metar": "METAR LIME 070650Z 35003KT 9999 FEW050 SCT090 04/04 Q1003 NOSIG",
      "taf": "TAF LIME 070500Z 0706/0806 VRB05KT 9999 SCT040"
    },
    {
      "icao": "LIMF",
      "alert": "OK",
      "vis_m": 9999,
      "fzfg": false,
      "metar_trigger": false,
      "taf_trigger": false,
      "metar": "METAR LIMF 070650Z 34004KT CAVOK 01/M01 Q1003",
      "taf": "TAF LIMF 070500Z 0706/0806 VRB05KT CAVOK"
    },
    {
      "icao": "LIMJ",
      "alert": "OK",
      "vis_m": 9999,
      "fzfg": false,
      "metar_trigger": false,
      "taf_trigger": false,
      "metar": "METAR LIMJ 070650Z 07004KT 9999 SCT030 09/08 Q1003",
      "taf": "TAF LIMJ 070500Z 0706/0806 VRB05KT 9999 SCT040"
    },
    {
      "icao": "LIPE",
      "alert": "OK",
      "vis_m": 9999,
      "fzfg": false,
      "metar_trigger": false,
      "taf_trigger": false,
      "metar": "METAR LIPE 070650Z VRB02KT CAVOK 04/04 Q1003",
      "taf": "TAF LIPE 070500Z 0706/0806 VRB05KT 9000 FEW060"
    },
    {
      "icao": "LIPH",
      "alert": "OK",
      "vis_m": 3000,
      "fzfg": false,
      "metar_trigger": false,
      "taf_trigger": false,
      "metar": "METAR LIPH 070650Z VRB01KT 3000 MIFG NSC 06/06 Q1004",
      "taf": ""
    },
    {
      "icao": "LIPQ",
      "alert": "OK",
      "vis_m": 9999,
      "fzfg": false,
      "metar_trigger": false,
      "taf_trigger": false,
      "metar": "METAR LIPQ 070650Z AUTO 11003KT 070V190 9999 -RA BKN065/// 08/07 Q1004",
      "taf": "TAF LIPQ 070500Z 0706/0806 VRB04KT 7000 SCT070"
    },
    {
      "icao": "LIPR",
      "alert": "OK",
      "vis_m": 9999,
      "fzfg": false,
      "metar_trigger": false,
      "taf_trigger": false,
      "metar": "METAR LIPR 070650Z AUTO 21008KT 9999 NCD 09/07 Q1004",
      "taf": "TAF LIPR 070500Z 0706/0806 VRB05KT 9999 SCT060"
    },
    {
      "icao": "LIPX",
      "alert": "OK",
      "vis_m": 7000,
      "fzfg": false,
      "metar_trigger": false,
      "taf_trigger": false,
      "metar": "METAR LIPX 070650Z 32002KT 7000 SCT090 04/04 Q1004",
      "taf": "TAF LIPX 070500Z 0706/0806 VRB05KT 9999 SCT050"
    },
    {
      "icao": "LIPY",
      "alert": "OK",
      "vis_m": 9999,
      "fzfg": false,
      "metar_trigger": false,
      "taf_trigger": false,
      "metar": "METAR LIPY 070650Z AUTO 20004KT 9999 BKN073/// 09/07 Q1004",
      "taf": "TAF LIPY 070500Z 0706/0806 VRB05KT 9999 SCT050"
    },
    {
      "icao": "LIPZ",
      "alert": "OK",
      "vis_m": 300,
      "fzfg": false,
      "metar_trigger": false,
      "taf_trigger": false,
      "metar": "METAR LIPZ 070650Z 35003KT 0300 R04R/0650N FG VV002 06/06 Q1004 NOSIG",
      "taf": ""
    },
    {
      "icao": "LIRF",
      "alert": "OK",
      "vis_m": 9000,
      "fzfg": false,
      "metar_trigger": false,
      "taf_trigger": false,
      "metar": "METAR LIRF 070650Z 08005KT 9000 SCT030 SCT045 09/09 Q1006 NOSIG",
      "taf": "TAF LIRF 070500Z 0706/0812 VRB05KT 9999 SCT030"
    },
    {
      "icao": "LIRN",
      "alert": "OK",
      "vis_m": 9999,
      "fzfg": false,
      "metar_trigger": false,
      "taf_trigger": false,
      "metar": "METAR LIRN 070650Z 21004KT 9999 FEW040 12/09 Q1007 NOSIG",
      "taf": "TAF LIRN 070500Z 0706/0806 VRB05KT 9999 FEW020"
    },
    {
      "icao": "LIRP",
      "alert": "OK",
      "vis_m": 9999,
      "fzfg": false,
      "metar_trigger": false,
      "taf_trigger": false,
      "metar": "METAR LIRP 070645Z 12005KT 9999 -RA BKN025 BKN060 11/10 Q1004 NOSIG",
      "taf": "TAF LIRP 070500Z 0706/0806 28005KT 9999 SCT025"
    },
    {
      "icao": "LIRZ",
      "alert": "OK",
      "vis_m": 9999,
      "fzfg": false,
      "metar_trigger": false,
      "taf_trigger": false,
      "metar": "METAR LIRZ 070650Z AUTO VRB02KT 9999 FEW038/// BKN044/// 05/05 Q1006",
      "taf": "TAF LIRZ 070500Z 0706/0806 VRB05KT 8000 BKN030"
    },
    {
      "icao": "LJLJ",
      "alert": "OK",
      "vis_m": 400,
      "fzfg": false,
      "metar_trigger": false,
      "taf_trigger": false,
      "metar": "METAR LJLJ 070630Z VRB01KT 0400 R30/1100N FG VV001 03/03 Q1004 NOSIG",
      "taf": "TAF LJLJ 070500Z 0706/0806 VRB02KT 9999 FEW007"
    },
    {
      "icao": "LKMT",
      "alert": "OK",
      "vis_m": 200,
      "fzfg": false,
      "metar_trigger": false,
      "taf_trigger": false,
      "metar": "METAR LKMT 070630Z 02003KT 0200 R22/0450N R04/P2000N FG VV003 02/02 Q1002 NOSIG",
      "taf": "TAF LKMT 070500Z 0706/0806 23006KT 3500 BR BKN025"
    },
    {
      "icao": "LKPR",
      "alert": "OK",
      "vis_m": 4000,
      "fzfg": false,
      "metar_trigger": false,
      "taf_trigger": false,
      "metar": "METAR LKPR 070630Z 26002KT 4000 BR FEW002 BKN005 OVC007 01/00 Q1002 NOSIG",
      "taf": "TAF LKPR 070500Z 0706/0812 24004KT 7000 SCT004 OVC006"
    },
    {
      "icao": "LLBG",
      "alert": "OK",
      "vis_m": 9999,
      "fzfg": false,
      "metar_trigger": false,
      "taf_trigger": false,
      "metar": "METAR LLBG 070650Z 20006KT CAVOK 19/07 Q1014 NOSIG",
      "taf": "TAF LLBG 070507Z 0706/0806 16005KT CAVOK"
    },
    {
      "icao": "LMML",
      "alert": "OK",
      "vis_m": 9999,
      "fzfg": false,
      "metar_trigger": false,
      "taf_trigger": false,
      "metar": "METAR LMML 070645Z 27007KT CAVOK 13/11 Q1012 NOSIG",
      "taf": ""
    },
    {
      "icao": "LOWW",
      "alert": "OK",
      "vis_m": 9999,
      "fzfg": false,
      "metar_trigger": false,
      "taf_trigger": false,
      "metar": "METAR LOWW 070650Z VRB02KT 9999 BKN013 03/01 Q1004 TEMPO BKN015",
      "taf": ""
    },
    {
      "icao": "LPFR",
      "alert": "OK",
      "vis_m": 9000,
      "fzfg": false,
      "metar_trigger": false,
      "taf_trigger": false,
      "metar": "METAR LPFR 070630Z 23017KT 9000 -RA SCT020 BKN040 14/12 Q1013",
      "taf": "TAF LPFR 070500Z 0706/0806 26010KT 9999 SCT025"
    },
    {
      "icao": "LPMA",
      "alert": "OK",
      "vis_m": 9999,
      "fzfg": false,
      "metar_trigger": false,
      "taf_trigger": false,
      "metar": "METAR LPMA 070630Z 27006KT 210V310 9999 BKN015 18/09 Q1019",
      "taf": "TAF LPMA 070500Z 0706/0806 22015KT 9999 SCT015"
    },
    {
      "icao": "LPPR",
      "alert": "OK",
      "vis_m": 9999,
      "fzfg": false,
      "metar_trigger": false,
      "taf_trigger": false,
      "metar": "METAR LPPR 070630Z 16013KT 9999 FEW020 09/07 Q1004",
      "taf": "TAF LPPR 070500Z 0706/0806 16015KT 9999 SCT020 BKN035"
    },
    {
      "icao": "LPPS",
      "alert": "OK",
      "vis_m": 9999,
      "fzfg": false,
      "metar_trigger": false,
      "taf_trigger": false,
      "metar": "METAR LPPS 070630Z 26017G27KT 9999 FEW014 17/11 Q1018",
      "taf": "TAF LPPS 070500Z 0706/0812 26017KT 9999 SCT015"
    },
    {
      "icao": "LPPT",
      "alert": "OK",
      "vis_m": 5000,
      "fzfg": false,
      "metar_trigger": false,
      "taf_trigger": false,
      "metar": "METAR LPPT 070630Z 18016KT 5000 RADZ BR FEW008 BKN012 11/10 Q1007",
      "taf": "TAF LPPT 070500Z 0706/0812 20008KT 5000 RADZ BR SCT008 BKN015"
    },
    {
      "icao": "LQBK",
      "alert": "OK",
      "vis_m": 1200,
      "fzfg": false,
      "metar_trigger": false,
      "taf_trigger": false,
      "metar": "METAR LQBK 070630Z 28002KT 1200 0450N R16/0550N MIFG SCT001 06/06 Q1004 NOSIG",
      "taf": ""
    },
    {
      "icao": "LQSA",
      "alert": "OK",
      "vis_m": 2500,
      "fzfg": false,
      "metar_trigger": false,
      "taf_trigger": false,
      "metar": "METAR LQSA 070630Z 14002KT 2500 BR BKN005 06/06 Q1003 BECMG BKN010",
      "taf": ""
    },
    {
      "icao": "LQTZ",
      "alert": "OK",
      "vis_m": 400,
      "fzfg": false,
      "metar_trigger": false,
      "taf_trigger": false,
      "metar": "METAR LQTZ 070630Z 00000KT 0400 R09/0400N FG OVC001 06/06 Q1004",
      "taf": ""
    },
    {
      "icao": "LRBC",
      "alert": "OK",
      "vis_m": 4000,
      "fzfg": false,
      "metar_trigger": false,
      "taf_trigger": false,
      "metar": "METAR LRBC 070630Z VRB02KT 4000 BR OVC003 M00/M01 Q1003",
      "taf": "TAF LRBC 070500Z 0706/0715 VRB04KT 9999 OVC005"
    },
    {
      "icao": "LRBS",
      "alert": "OK",
      "vis_m": 3000,
      "fzfg": false,
      "metar_trigger": false,
      "taf_trigger": false,
      "metar": "METAR LRBS 070630Z 00000KT 3000 BR OVC003 02/01 Q1004 BECMG 5000 BKN005",
      "taf": "TAF LRBS 070500Z 0706/0806 VRB04KT 1500 BR OVC002"
    },
    {
      "icao": "LRBV",
      "alert": "OK",
      "vis_m": 4000,
      "fzfg": false,
      "metar_trigger": false,
      "taf_trigger": false,
      "metar": "METAR LRBV 070630Z 10002KT 4000 BR BKN013 OVC019 00/M00 Q1002",
      "taf": "TAF LRBV 070500Z 0706/0715 VRB04KT 5000 BR BKN030"
    },
    {
      "icao": "LRCL",
      "alert": "OK",
      "vis_m": 9999,
      "fzfg": false,
      "metar_trigger": false,
      "taf_trigger": false,
      "metar": "METAR LRCL 070630Z 24003KT 9999 FEW030 BKN047 04/03 Q1002",
      "taf": "TAF LRCL 070500Z 0706/0715 VRB04KT 9999 BKN035"
    },
    {
      "icao": "LRCV",
      "alert": "OK",
      "vis_m": 3000,
      "fzfg": false,
      "metar_trigger": false,
      "taf_trigger": false,
      "metar": "METAR LRCV 070630Z 29001KT 3000 BR OVC010 03/03 Q1003",
      "taf": "TAF LRCV 070500Z 0706/0715 VRB04KT 1500 BR BKN005"
    },
    {
      "icao": "LRIA",
      "alert": "OK",
      "vis_m": 9999,
      "fzfg": false,
      "metar_trigger": false,
      "taf_trigger": false,
      "metar": "METAR LRIA 070630Z 28003KT 9999 OVC004 M02/M03 Q1003",
      "taf": "TAF LRIA 070500Z 0706/0715 VRB04KT 9999 SCT005 OVC015"
    },
    {
      "icao": "LROP",
      "alert": "OK",
      "vis_m": 2500,
      "fzfg": false,
      "metar_trigger": false,
      "taf_trigger": false,
      "metar": "METAR LROP 070630Z VRB02KT 2500 BR OVC001 02/02 Q1004 BECMG 5000 BKN005",
      "taf": "TAF LROP 070500Z 0706/0806 VRB04KT 0600 FG OVC001"
    },
    {
      "icao": "LRSB",
      "alert": "OK",
      "vis_m": 9999,
      "fzfg": false,
      "metar_trigger": false,
      "taf_trigger": false,
      "metar": "METAR LRSB 070630Z 00000KT 9999 SCT030 BKN048 05/04 Q1002",
      "taf": "TAF LRSB 070500Z 0706/0806 VRB04KT 9999 BKN035"
    },
    {
      "icao": "LRSM",
      "alert": "OK",
      "vis_m": 500,
      "fzfg": false,
      "metar_trigger": false,
      "taf_trigger": false,
      "metar": "METAR LRSM 070630Z AUTO 23003KT 0500 R19/0600N FG VV001 06/05 Q1002",
      "taf": ""
    },
    {
      "icao": "LRSV",
      "alert": "OK",
      "vis_m": 300,
      "fzfg": true,
      "metar_trigger": false,
      "taf_trigger": false,
      "metar": "METAR LRSV 070630Z 00000KT 0300 R34/0800D FZFG VV002 M03/M03 Q1001",
      "taf": "TAF LRSV 070500Z 0706/0715 VRB04KT 0200 FZFG VV001"
    },
    {
      "icao": "LRTM",
      "alert": "OK",
      "vis_m": 7000,
      "fzfg": false,
      "metar_trigger": false,
      "taf_trigger": false,
      "metar": "METAR LRTM 070630Z 07003KT 7000 FEW005 BKN028 03/02 Q1002",
      "taf": "TAF LRTM 070500Z 0706/0715 VRB04KT 5000 BR BKN030"
    },
    {
      "icao": "LRTR",
      "alert": "OK",
      "vis_m": 6000,
      "fzfg": false,
      "metar_trigger": false,
      "taf_trigger": false,
      "metar": "METAR LRTR 070630Z 29002KT 6000 MIFG FEW037 04/04 Q1003 NOSIG",
      "taf": "TAF LRTR 070500Z 0706/0806 VRB04KT CAVOK"
    },
    {
      "icao": "LTAC",
      "alert": "OK",
      "vis_m": 9999,
      "fzfg": false,
      "metar_trigger": false,
      "taf_trigger": false,
      "metar": "METAR LTAC 070650Z 24015KT 9999 SCT010 BKN025 BKN080 07/05 Q1003 NOSIG",
      "taf": "TAF LTAC 070440Z 0706/0806 19007KT 9999 -SHRA BKN030 BKN080"
    },
    {
      "icao": "LTFM",
      "alert": "OK",
      "vis_m": 9999,
      "fzfg": false,
      "metar_trigger": false,
      "taf_trigger": false,
      "metar": "METAR LTFM 070650Z VRB06KT 9999 FEW009 SCT032 BKN090 11/10 Q1002 NOSIG",
      "taf": "TAF LTFM 070440Z 0706/0812 23010KT 9999 FEW006 SCT032 BKN090"
    },
    {
      "icao": "LUKK",
      "alert": "OK",
      "vis_m": 9999,
      "fzfg": false,
      "metar_trigger": false,
      "taf_trigger": false,
      "metar": "METAR LUKK 070630Z 01004KT 310V060 9999 OVC005 M02/M02 Q1002 NOSIG",
      "taf": "TAF LUKK 070509Z 0706/0806 33006KT 9999 OVC003"
    },
    {
      "icao": "LWOH",
      "alert": "OK",
      "vis_m": 9999,
      "fzfg": false,
      "metar_trigger": false,
      "taf_trigger": false,
      "metar": "METAR LWOH 070650Z 05004KT 360V100 9999 FEW002 SCT044 07/06 Q1005",
      "taf": "TAF LWOH 070545Z 0706/0806 11005KT 9999 SCT040"
    },
    {
      "icao": "LWSK",
      "alert": "OK",
      "vis_m": 2500,
      "fzfg": false,
      "metar_trigger": false,
      "taf_trigger": false,
      "metar": "METAR LWSK 070650Z VRB01KT 2500 BR BKN008 06/06 Q1004 NOSIG",
      "taf": "TAF LWSK 070545Z 0706/0806 VRB02KT 9999 SCT030"
    },
    {
      "icao": "LYBE",
      "alert": "OK",
      "vis_m": 5000,
      "fzfg": false,
      "metar_trigger": false,
      "taf_trigger": false,
      "metar": "METAR LYBE 070630Z 23005KT 5000 BR NSC 06/05 Q1003 TEMPO 0800 FG",
      "taf": "TAF LYBE 070500Z 0706/0806 25006KT 8000 NSC TX11/0713Z TN06/0706Z"
    },
    {
      "icao": "LYNI",
      "alert": "OK",
      "vis_m": 9999,
      "fzfg": false,
      "metar_trigger": false,
      "taf_trigger": false,
      "metar": "METAR LYNI 070630Z 00000KT 9999 FEW008 SCT027 BKN043 05/05 Q1003 NOSIG",
      "taf": "TAF LYNI 070500Z 0706/0806 32005KT 8000 FEW010 BKN040 OVC070 TX10/0713Z TN05/0706Z"
    },
    {
      "icao": "LYPG",
      "alert": "OK",
      "vis_m": 2500,
      "fzfg": false,
      "metar_trigger": false,
      "taf_trigger": false,
      "metar": "METAR LYPG 070630Z 05003KT 2500 BR FEW006 SCT040 OVC080 09/09 Q1005 NOSIG",
      "taf": "TAF LYPG 070500Z 0706/0806 18006KT 9999 FEW010 SCT050 TX15/0713Z TN07/0706Z"
    },
    {
      "icao": "LZIB",
      "alert": "OK",
      "vis_m": 9999,
      "fzfg": false,
      "metar_trigger": false,
      "taf_trigger": false,
      "metar": "METAR LZIB 070630Z 26005KT 9999 FEW023 04/02 Q1003 NOSIG",
      "taf": "TAF LZIB 070515Z 0706/0806 28006KT 9999 SCT023 BKN030"
    },
    {
      "icao": "LZKZ",
      "alert": "OK",
      "vis_m": 7000,
      "fzfg": false,
      "metar_trigger": false,
      "taf_trigger": false,
      "metar": "METAR LZKZ 070630Z VRB02KT 7000 2000S -RA BCFG OVC008 04/04 Q1001 TEMPO 1500 -RA BCFG",
      "taf": "TAF LZKZ 070515Z 0706/0806 VRB02KT 9999 SCT020 BKN030"
    },
    {
      "icao": "LZTT",
      "alert": "OK",
      "vis_m": 9000,
      "fzfg": false,
      "metar_trigger": false,
      "taf_trigger": false,
      "metar": "METAR LZTT 070630Z 30003KT 9000 FEW006 OVC026 01/01 Q1000 NOSIG",
      "taf": "TAF LZTT 070515Z 0706/0806 VRB02KT 6000 SCT006 BKN012"
    },
    {
      "icao": "OEJN",
      "alert": "OK",
      "vis_m": 9999,
      "fzfg": false,
      "metar_trigger": false,
      "taf_trigger": false,
      "metar": "METAR OEJN 070600Z 36004KT CAVOK 25/17 Q1016 NOSIG",
      "taf": "TAF OEJN 070500Z 0706/0812 30012KT CAVOK"
    },
    {
      "icao": "OEMA",
      "alert": "OK",
      "vis_m": 9999,
      "fzfg": false,
      "metar_trigger": false,
      "taf_trigger": false,
      "metar": "METAR OEMA 070600Z 31002KT CAVOK 19/09 Q1020 NOSIG",
      "taf": "TAF OEMA 070500Z 0706/0812 16006KT CAVOK"
    },
    {
      "icao": "OJAI",
      "alert": "OK",
      "vis_m": 5000,
      "fzfg": false,
      "metar_trigger": false,
      "taf_trigger": false,
      "metar": "METAR OJAI 070600Z 06004KT 5000 HZ NSC 10/04 Q1016 NOSIG",
      "taf": "TAF OJAI 070446Z 0706/0812 23006KT 4000 DU FEW040"
    },
    {
      "icao": "OMAA",
      "alert": "OK",
      "vis_m": 9999,
      "fzfg": false,
      "metar_trigger": false,
      "taf_trigger": false,
      "metar": "METAR OMAA 070630Z 14007KT CAVOK 26/13 Q1019 NOSIG",
      "taf": "TAF OMAA 070500Z 0706/0812 15005KT 8000 NSC"
    },
    {
      "icao": "OMDB",
      "alert": "OK",
      "vis_m": 9999,
      "fzfg": false,
      "metar_trigger": false,
      "taf_trigger": false,
      "metar": "METAR OMDB 070630Z 17007KT 110V200 CAVOK 26/15 Q1019 NOSIG",
      "taf": "TAF OMDB 070500Z 0706/0812 16005KT 8000 NSC"
    },
    {
      "icao": "UAAA",
      "alert": "OK",
      "vis_m": 9999,
      "fzfg": false,
      "metar_trigger": false,
      "taf_trigger": false,
      "metar": "METAR UAAA 070630Z 02004MPS 9999 BKN100 00/M02 Q1025 NOSIG",
      "taf": "TAF UAAA 070510Z 0706/0806 06003G08MPS 9999 SCT030 BKN100 TX02/0707Z TNM04/0802Z"
    },
    {
      "icao": "UBBB",
      "alert": "OK",
      "vis_m": 9999,
      "fzfg": false,
      "metar_trigger": false,
      "taf_trigger": false,
      "metar": "METAR UBBB 070630Z 18016G26KT 9999 OVC018 08/05 Q1012 NOSIG",
      "taf": "TAF UBBB 070506Z 0706/0806 17014KT 9999 SCT012 BKN030 TX10/0710Z TN04/0801Z"
    },
    {
      "icao": "UDSG",
      "alert": "OK",
      "vis_m": 3200,
      "fzfg": false,
      "metar_trigger": false,
      "taf_trigger": false,
      "metar": "METAR UDSG 070630Z 27001KT 3200 BR OVC010 M01/M03 Q1014 NOSIG",
      "taf": "TAF UDSG 070458Z 0706/0806 VRB06KT 2000 BR OVC020"
    },
    {
      "icao": "UDYZ",
      "alert": "OK",
      "vis_m": 7000,
      "fzfg": false,
      "metar_trigger": false,
      "taf_trigger": false,
      "metar": "METAR UDYZ 070630Z VRB01KT 7000 BKN046 03/M01 Q1015 NOSIG",
      "taf": "TAF UDYZ 070500Z 0706/0806 20006KT 6000 BKN040"
    },
    {
      "icao": "UGKO",
      "alert": "OK",
      "vis_m": 9999,
      "fzfg": false,
      "metar_trigger": false,
      "taf_trigger": false,
      "metar": "METAR UGKO 070630Z 09015KT CAVOK 13/01 Q1007 NOSIG",
      "taf": "TAF UGKO 070500Z 0706/0806 09017KT 9999 SCT080 TX18/0711Z TN08/0803Z"
    }
  ]
}