{
  "ts_utc": "2026-01-13T09:55:15Z",
  "threshold_m": 150,
  "source": "stations_override.txt (ICAO list) + aviationweather.gov (METAR/TAF raw)",
  "station_count": 159,
  "stations": [
    {
      "icao": "BIKF",
      "alert": "OK",
      "vis_m": 9999,
      "fzfg": false,
      "metar_trigger": false,
      "taf_trigger": false,
      "metar": "METAR BIKF 130930Z 35013KT 9999 FEW046 M02/M11 Q0999",
      "taf": "TAF BIKF 130753Z 1309/1409 34017KT 9999 FEW045 TXM01/1313Z TNM04/1404Z"
    },
    {
      "icao": "BKPR",
      "alert": "OK",
      "vis_m": null,
      "fzfg": false,
      "metar_trigger": false,
      "taf_trigger": false,
      "metar": "",
      "taf": "TAF BKPR 130530Z 1306/1406 VRB05KT 9999 BKN070"
    },
    {
      "icao": "EBCI",
      "alert": "OK",
      "vis_m": 9999,
      "fzfg": false,
      "metar_trigger": false,
      "taf_trigger": false,
      "metar": "METAR EBCI 130920Z 19009KT 9999 BKN022 09/06 Q1010 NOSIG",
      "taf": "TAF EBCI 130510Z 1306/1412 19009KT 9999 SCT008 BKN012"
    },
    {
      "icao": "EDDB",
      "alert": "OK",
      "vis_m": 350,
      "fzfg": false,
      "metar_trigger": false,
      "taf_trigger": false,
      "metar": "METAR EDDB 130950Z AUTO 18006KT 0350 0300 R24R/0550D R24L/0450N FG VV004 01/01 Q1014 NOSIG",
      "taf": ""
    },
    {
      "icao": "EDDH",
      "alert": "OK",
      "vis_m": 500,
      "fzfg": false,
      "metar_trigger": false,
      "taf_trigger": false,
      "metar": "METAR EDDH 130950Z AUTO 16005KT 0500 0300 R23/P2000N R15/0550N FG OVC001 03/03 Q1010 TEMPO 0300 DZ OVC002",
      "taf": ""
    },
    {
      "icao": "EDDK",
      "alert": "OK",
      "vis_m": 9999,
      "fzfg": false,
      "metar_trigger": false,
      "taf_trigger": false,
      "metar": "METAR EDDK 130950Z AUTO 12005KT 9999 FEW029 BKN034 BKN046 09/07 Q1012 NOSIG",
      "taf": "TAF EDDK 130500Z 1306/1412 15008KT 9999 BKN020"
    },
    {
      "icao": "EDDN",
      "alert": "OK",
      "vis_m": 9000,
      "fzfg": false,
      "metar_trigger": false,
      "taf_trigger": false,
      "metar": "METAR EDDN 130950Z AUTO 16003KT 9000 FEW009 OVC014 06/05 Q1016",
      "taf": ""
    },
    {
      "icao": "EDDS",
      "alert": "OK",
      "vis_m": 9999,
      "fzfg": false,
      "metar_trigger": false,
      "taf_trigger": false,
      "metar": "METAR EDDS 130950Z AUTO 15003KT 120V180 9999 BKN049 06/03 Q1015 NOSIG",
      "taf": "TAF EDDS 130500Z 1306/1406 VRB03KT CAVOK"
    },
    {
      "icao": "EDFH",
      "alert": "OK",
      "vis_m": 2000,
      "fzfg": false,
      "metar_trigger": false,
      "taf_trigger": false,
      "metar": "METAR EDFH 130920Z 13008KT 110V170 2000 BR FEW001 BKN008 05/05 Q1013",
      "taf": "TAF EDFH 130500Z 1306/1406 21008KT 9999 OVC006"
    },
    {
      "icao": "EDJA",
      "alert": "OK",
      "vis_m": 9999,
      "fzfg": false,
      "metar_trigger": false,
      "taf_trigger": false,
      "metar": "METAR EDJA 130920Z 21005KT CAVOK 05/02 Q1016",
      "taf": "TAF EDJA 130800Z 1309/1318 22007KT CAVOK"
    },
    {
      "icao": "EDLW",
      "alert": "OK",
      "vis_m": 9999,
      "fzfg": false,
      "metar_trigger": false,
      "taf_trigger": false,
      "metar": "METAR EDLW 130920Z 18008KT 9999 BKN035 OVC049 08/07 Q1011",
      "taf": "TAF EDLW 130500Z 1306/1406 19011KT 9999 BKN020"
    },
    {
      "icao": "EDNY",
      "alert": "OK",
      "vis_m": 150,
      "fzfg": true,
      "metar_trigger": false,
      "taf_trigger": false,
      "metar": "METAR EDNY 130920Z 00000KT 0150 R24/0200N FZFG VV/// 00/00 Q1018",
      "taf": ""
    },
    {
      "icao": "EDSB",
      "alert": "OK",
      "vis_m": 9999,
      "fzfg": false,
      "metar_trigger": false,
      "taf_trigger": false,
      "metar": "METAR EDSB 130920Z 24003KT CAVOK 08/04 Q1015",
      "taf": "TAF EDSB 130500Z 1306/1406 21004KT 9999 SCT040"
    },
    {
      "icao": "EETN",
      "alert": "OK",
      "vis_m": 6000,
      "fzfg": false,
      "metar_trigger": false,
      "taf_trigger": false,
      "metar": "METAR EETN 130950Z 11009KT 6000 -SN OVC014 M10/M12 Q1021 NOSIG",
      "taf": "TAF EETN 130530Z 1306/1406 10010KT 9999 BKN012 BKN040"
    },
    {
      "icao": "EFTU",
      "alert": "OK",
      "vis_m": 9999,
      "fzfg": false,
      "metar_trigger": false,
      "taf_trigger": false,
      "metar": "METAR EFTU 130950Z AUTO 12009KT 9999 OVC009 M05/M06 Q1020",
      "taf": "TAF EFTU 130833Z 1309/1409 10007KT 9999 -SHSN OVC009"
    },
    {
      "icao": "EGBB",
      "alert": "OK",
      "vis_m": 8000,
      "fzfg": false,
      "metar_trigger": false,
      "taf_trigger": false,
      "metar": "METAR EGBB 130920Z 17006KT 8000 -DZ BKN006 09/08 Q1002 RERA",
      "taf": ""
    },
    {
      "icao": "EGGP",
      "alert": "OK",
      "vis_m": 9999,
      "fzfg": false,
      "metar_trigger": false,
      "taf_trigger": false,
      "metar": "METAR EGGP 130920Z 17009KT 9999 FEW031 BKN037 07/06 Q1000",
      "taf": "TAF EGGP 130454Z 1306/1406 18004KT 9999 SCT040"
    },
    {
      "icao": "EGGW",
      "alert": "OK",
      "vis_m": 4500,
      "fzfg": false,
      "metar_trigger": false,
      "taf_trigger": false,
      "metar": "METAR EGGW 130920Z AUTO 18008KT 140V220 4500 BR OVC002 09/08 Q1003",
      "taf": "TAF EGGW 130454Z 1306/1406 20007KT 9999 BKN006"
    },
    {
      "icao": "EGKK",
      "alert": "OK",
      "vis_m": 4000,
      "fzfg": false,
      "metar_trigger": false,
      "taf_trigger": false,
      "metar": "METAR EGKK 130920Z 17004KT 130V200 4000 -RA BKN004 BKN007 10/10 Q1005",
      "taf": "TAF EGKK 130504Z 1306/1412 20010KT 9999 SCT006 BKN030"
    },
    {
      "icao": "EGNM",
      "alert": "OK",
      "vis_m": 9999,
      "fzfg": false,
      "metar_trigger": false,
      "taf_trigger": false,
      "metar": "METAR EGNM 130920Z 19009KT 9999 FEW014 SCT040 07/05 Q0999",
      "taf": ""
    },
    {
      "icao": "EGPD",
      "alert": "OK",
      "vis_m": 9999,
      "fzfg": false,
      "metar_trigger": false,
      "taf_trigger": false,
      "metar": "METAR EGPD 130920Z COR VRB02KT 9999 VCFG NSC 00/00 Q0997 NOSIG",
      "taf": "TAF EGPD 130501Z 1306/1406 VRB03KT 9999 SCT035"
    },
    {
      "icao": "EGPF",
      "alert": "OK",
      "vis_m": 9999,
      "fzfg": false,
      "metar_trigger": false,
      "taf_trigger": false,
      "metar": "METAR EGPF 130920Z AUTO 24004KT 9999 -RA FEW034/// BKN042/// //////TCU 04/03 Q0999",
      "taf": "TAF EGPF 130511Z 1306/1406 VRB03KT 9999 FEW015 SCT025"
    },
    {
      "icao": "EHBK",
      "alert": "OK",
      "vis_m": 9999,
      "fzfg": false,
      "metar_trigger": false,
      "taf_trigger": false,
      "metar": "METAR EHBK 130925Z AUTO 20018KT 9999 BKN016/// OVC019/// 10/08 Q1010 NOSIG",
      "taf": "TAF EHBK 130501Z 1306/1412 21008KT 9999 BKN018"
    },
    {
      "icao": "EHEH",
      "alert": "OK",
      "vis_m": 8000,
      "fzfg": false,
      "metar_trigger": false,
      "taf_trigger": false,
      "metar": "METAR EHEH 130925Z AUTO 18008KT 8000 -DZ FEW004 SCT005 BKN007 10/09 Q1009 REDZ GRN TEMPO 3500 RADZ FEW003 SCT004 BKN007 RMK TREND REMOTE BY EHWX",
      "taf": ""
    },
    {
      "icao": "EKBI",
      "alert": "OK",
      "vis_m": 250,
      "fzfg": false,
      "metar_trigger": false,
      "taf_trigger": false,
      "metar": "METAR EKBI 130950Z AUTO 18006KT 0250 R09/0550N R27/0450N FG VV002 03/03 Q1007",
      "taf": "TAF EKBI 130827Z 1309/1409 15007KT 0200 -RA FG VV002"
    },
    {
      "icao": "EKCH",
      "alert": "OK",
      "vis_m": 3400,
      "fzfg": false,
      "metar_trigger": false,
      "taf_trigger": false,
      "metar": "METAR EKCH 130950Z 14011KT 3400 BR OVC003 01/01 Q1011 TEMPO 3000 BKN006",
      "taf": "TAF EKCH 130827Z 1309/1409 15012KT 2000 -RA BR OVC003"
    },
    {
      "icao": "ENAL",
      "alert": "OK",
      "vis_m": 9999,
      "fzfg": false,
      "metar_trigger": false,
      "taf_trigger": false,
      "metar": "METAR ENAL 130920Z 14015KT 9999 VCSH BKN042 06/M03 Q0999",
      "taf": "TAF ENAL 130800Z 1309/1318 15015KT 9999 BKN050"
    },
    {
      "icao": "ENBR",
      "alert": "OK",
      "vis_m": 5000,
      "fzfg": false,
      "metar_trigger": false,
      "taf_trigger": false,
      "metar": "METAR ENBR 130920Z 11013KT 5000 SHSNRA SCT004 BKN011 02/M01 Q1000 TEMPO 3000 SNRA RMK WIND 1200FT 12025KT",
      "taf": "TAF ENBR 130500Z 1306/1406 13015KT 9999 -RA BKN035"
    },
    {
      "icao": "ENGM",
      "alert": "OK",
      "vis_m": 9999,
      "fzfg": false,
      "metar_trigger": false,
      "taf_trigger": false,
      "metar": "METAR ENGM 130920Z 03005KT 9999 -SN FEW009 OVC030 M06/M07 Q1012 TEMPO 3000 -SN",
      "taf": "TAF ENGM 130500Z 1306/1406 02008KT 9999 -SN SCT012 BKN020"
    },
    {
      "icao": "ENHD",
      "alert": "OK",
      "vis_m": 9999,
      "fzfg": false,
      "metar_trigger": false,
      "taf_trigger": false,
      "metar": "METAR ENHD 130920Z 11022KT 9999 -SHRASN SCT007 BKN034 01/M00 Q1000",
      "taf": "TAF ENHD 130800Z 1309/1318 11022KT 9999 BKN025"
    },
    {
      "icao": "ENTC",
      "alert": "OK",
      "vis_m": 9999,
      "fzfg": false,
      "metar_trigger": false,
      "taf_trigger": false,
      "metar": "METAR ENTC 130920Z 18016KT CAVOK M05/M13 Q1010 NOSIG RMK WIND 2600FT 18028KT",
      "taf": "TAF ENTC 130500Z 1306/1406 19018KT CAVOK"
    },
    {
      "icao": "ENTO",
      "alert": "OK",
      "vis_m": 1100,
      "fzfg": false,
      "metar_trigger": false,
      "taf_trigger": false,
      "metar": "METAR ENTO 130920Z 05004KT 010V070 1100 R18/P2000D R36/P2000D -SN VV007 M02/M02 Q1010 TEMPO 0600 SN VV003",
      "taf": "TAF ENTO 130500Z 1306/1406 36010KT 5000 -SN BKN012"
    },
    {
      "icao": "ENVA",
      "alert": "OK",
      "vis_m": 9999,
      "fzfg": false,
      "metar_trigger": false,
      "taf_trigger": false,
      "metar": "METAR ENVA 130920Z 08006KT 030V150 CAVOK 00/M09 Q1005 TEMPO 15020G30KT RMK WIND 670FT 16016G26KT",
      "taf": ""
    },
    {
      "icao": "ENZV",
      "alert": "OK",
      "vis_m": 9999,
      "fzfg": false,
      "metar_trigger": false,
      "taf_trigger": false,
      "metar": "METAR ENZV 130920Z 12020KT 9999 BKN042 03/M01 Q1001 TEMPO 15022G32KT",
      "taf": "TAF ENZV 130500Z 1306/1406 13015KT 9999 SCT040"
    },
    {
      "icao": "EPGD",
      "alert": "OK",
      "vis_m": 9999,
      "fzfg": false,
      "metar_trigger": false,
      "taf_trigger": false,
      "metar": "METAR EPGD 130930Z 16008KT 9999 FEW040 M05/M07 Q1016",
      "taf": "TAF EPGD 130530Z 1306/1406 13010KT 9999 BKN035"
    },
    {
      "icao": "EPKK",
      "alert": "OK",
      "vis_m": 1800,
      "fzfg": false,
      "metar_trigger": false,
      "taf_trigger": false,
      "metar": "METAR EPKK 130930Z 06005KT 1800 SN BR SCT009 OVC010 M06/M07 Q1014 RESN",
      "taf": "TAF EPKK 130830Z 1309/1409 06006KT 1400 SN BR OVC008"
    },
    {
      "icao": "EPKT",
      "alert": "OK",
      "vis_m": 5000,
      "fzfg": false,
      "metar_trigger": false,
      "taf_trigger": false,
      "metar": "METAR EPKT 130930Z 16004KT 5000 -SN BR OVC006 M04/M04 Q1013",
      "taf": "TAF EPKT 130530Z 1306/1406 14005KT 2000 SN BR OVC016"
    },
    {
      "icao": "EPLB",
      "alert": "OK",
      "vis_m": 2500,
      "fzfg": false,
      "metar_trigger": false,
      "taf_trigger": false,
      "metar": "METAR EPLB 130930Z VRB01KT 2500 BR NSC M09/M09 Q1017",
      "taf": ""
    },
    {
      "icao": "EPMO",
      "alert": "OK",
      "vis_m": 3600,
      "fzfg": false,
      "metar_trigger": false,
      "taf_trigger": false,
      "metar": "METAR EPMO 130930Z 07006KT 3600 BR NSC M07/M07 Q1017",
      "taf": "TAF EPMO 130530Z 1306/1406 12007KT 4000 BR NSC"
    },
    {
      "icao": "EPPO",
      "alert": "OK",
      "vis_m": 7000,
      "fzfg": false,
      "metar_trigger": false,
      "taf_trigger": false,
      "metar": "METAR EPPO 130930Z 12007KT 7000 OVC027 M04/M06 Q1015",
      "taf": ""
    },
    {
      "icao": "EPRA",
      "alert": "OK",
      "vis_m": 9999,
      "fzfg": false,
      "metar_trigger": false,
      "taf_trigger": false,
      "metar": "METAR EPRA 130930Z 15006KT 030V180 9999 SCT032 M08/M10 Q1016",
      "taf": "TAF EPRA 130830Z 1309/1318 13010KT 9999 BKN040"
    },
    {
      "icao": "EPRZ",
      "alert": "OK",
      "vis_m": 2200,
      "fzfg": false,
      "metar_trigger": false,
      "taf_trigger": false,
      "metar": "METAR EPRZ 130930Z 21012KT 2200 -SN BR OVC026 M07/M09 Q1016",
      "taf": "TAF EPRZ 130530Z 1306/1406 20006KT CAVOK"
    },
    {
      "icao": "EPSC",
      "alert": "OK",
      "vis_m": 2800,
      "fzfg": false,
      "metar_trigger": false,
      "taf_trigger": false,
      "metar": "METAR EPSC 130930Z 15008KT 2800 -FZDZ BR OVC003 M03/M03 Q1013",
      "taf": ""
    },
    {
      "icao": "EPSY",
      "alert": "OK",
      "vis_m": 3000,
      "fzfg": false,
      "metar_trigger": false,
      "taf_trigger": false,
      "metar": "METAR EPSY 130930Z VRB01KT 3000 BR BKN003 M08/M09 Q1017",
      "taf": "TAF EPSY 130830Z 1309/1318 VRB02KT 3500 BR BKN003"
    },
    {
      "icao": "EPWA",
      "alert": "OK",
      "vis_m": 6000,
      "fzfg": false,
      "metar_trigger": false,
      "taf_trigger": false,
      "metar": "METAR EPWA 130930Z 12008KT 080V140 6000 NSC M06/M07 Q1016 NOSIG",
      "taf": "TAF EPWA 130830Z 1309/1409 12008KT 7000 NSC"
    },
    {
      "icao": "EPWR",
      "alert": "OK",
      "vis_m": 1900,
      "fzfg": false,
      "metar_trigger": false,
      "taf_trigger": false,
      "metar": "METAR EPWR 130930Z VRB01KT 1900 -FZDZ BR OVC002 M02/M02 Q1014",
      "taf": "TAF EPWR 130830Z 1309/1409 VRB02KT 3000 -FZDZ -SG BR FEW003 BKN007"
    },
    {
      "icao": "ESGG",
      "alert": "OK",
      "vis_m": 9000,
      "fzfg": false,
      "metar_trigger": false,
      "taf_trigger": false,
      "metar": "METAR ESGG 130920Z 12009KT 9000 -SN SCT005 OVC008 M02/M03 Q1009",
      "taf": "TAF ESGG 130830Z 1309/1409 12009KT 5000 -SN SCT004 BKN015"
    },
    {
      "icao": "ESKN",
      "alert": "OK",
      "vis_m": 4500,
      "fzfg": false,
      "metar_trigger": false,
      "taf_trigger": false,
      "metar": "METAR ESKN 130920Z 09010KT 4500 -SG BKN008 M01/M01 Q1015",
      "taf": "TAF ESKN 130830Z 1309/1409 11007KT 8000 -SN BKN025"
    },
    {
      "icao": "ESMS",
      "alert": "OK",
      "vis_m": 1900,
      "fzfg": false,
      "metar_trigger": false,
      "taf_trigger": false,
      "metar": "METAR ESMS 130920Z 15009KT 1900 BR OVC003 00/00 Q1011",
      "taf": ""
    },
    {
      "icao": "ESSA",
      "alert": "OK",
      "vis_m": 9999,
      "fzfg": false,
      "metar_trigger": false,
      "taf_trigger": false,
      "metar": "METAR ESSA 130920Z 06006KT 9999 BKN031 M03/M04 Q1017 NOSIG",
      "taf": "TAF ESSA 130830Z 1309/1409 08006KT 9999 BKN030"
    },
    {
      "icao": "EYKA",
      "alert": "OK",
      "vis_m": 5000,
      "fzfg": false,
      "metar_trigger": false,
      "taf_trigger": false,
      "metar": "METAR EYKA 130950Z 00000KT 5000 -SN BR FEW004 OVC009 M12/M13 Q1019",
      "taf": ""
    },
    {
      "icao": "EYPA",
      "alert": "OK",
      "vis_m": 9999,
      "fzfg": false,
      "metar_trigger": false,
      "taf_trigger": false,
      "metar": "METAR EYPA 130950Z 11005KT CAVOK M12/M14 Q1018",
      "taf": "TAF EYPA 130500Z 1306/1406 VRB04KT 6000 SCT015"
    },
    {
      "icao": "EYVI",
      "alert": "OK",
      "vis_m": 7000,
      "fzfg": false,
      "metar_trigger": false,
      "taf_trigger": false,
      "metar": "METAR EYVI 130950Z 02002KT 7000 -SN SCT004 M11/M12 Q1017 TEMPO 3000 SN BR BKN005",
      "taf": ""
    },
    {
      "icao": "GCFV",
      "alert": "OK",
      "vis_m": 9999,
      "fzfg": false,
      "metar_trigger": false,
      "taf_trigger": false,
      "metar": "METAR GCFV 130930Z 15003KT 110V200 9999 FEW018 17/13 Q1019",
      "taf": "TAF GCFV 130800Z 1309/1409 27005KT 9999 FEW020 SCT030 TX20/1314Z TN14/1406Z"
    },
    {
      "icao": "GCLP",
      "alert": "OK",
      "vis_m": 9999,
      "fzfg": false,
      "metar_trigger": false,
      "taf_trigger": false,
      "metar": "METAR GCLP 130930Z 25007KT 220V290 9999 FEW025 18/10 Q1019 NOSIG",
      "taf": "TAF GCLP 130800Z 1309/1409 28005KT 9999 FEW020 SCT030 TX21/1314Z TN15/1406Z"
    },
    {
      "icao": "GCTS",
      "alert": "OK",
      "vis_m": 9999,
      "fzfg": false,
      "metar_trigger": false,
      "taf_trigger": false,
      "metar": "METAR GCTS 130930Z 10003KT 050V120 9999 FEW070 18/10 Q1020 NOSIG",
      "taf": "TAF GCTS 130800Z 1309/1409 02005KT 9999 FEW030 TX23/1314Z TN14/1406Z"
    },
    {
      "icao": "GMAD",
      "alert": "OK",
      "vis_m": 9999,
      "fzfg": false,
      "metar_trigger": false,
      "taf_trigger": false,
      "metar": "METAR GMAD 130930Z 03009KT CAVOK 12/07 Q1018 NOSIG",
      "taf": "TAF GMAD 130500Z 1306/1412 07006KT CAVOK"
    },
    {
      "icao": "GMMN",
      "alert": "OK",
      "vis_m": 9999,
      "fzfg": false,
      "metar_trigger": false,
      "taf_trigger": false,
      "metar": "METAR GMMN 130930Z 22006KT CAVOK 11/07 Q1018 NOSIG",
      "taf": "TAF GMMN 130500Z 1306/1412 18007KT CAVOK"
    },
    {
      "icao": "GMMX",
      "alert": "OK",
      "vis_m": 8000,
      "fzfg": false,
      "metar_trigger": false,
      "taf_trigger": false,
      "metar": "METAR GMMX 130930Z 07004KT 8000 FEW080 BKN200 11/06 Q1018 NOSIG",
      "taf": "TAF GMMX 130500Z 1306/1412 14006KT 8000 NSC"
    },
    {
      "icao": "HEGN",
      "alert": "OK",
      "vis_m": 6000,
      "fzfg": false,
      "metar_trigger": false,
      "taf_trigger": false,
      "metar": "METAR HEGN 130900Z 30018KT 6000 NSC 18/M03 Q1022 NOSIG",
      "taf": "TAF HEGN 130500Z 1306/1412 30015G25KT 6000 SCT025"
    },
    {
      "icao": "HEMA",
      "alert": "OK",
      "vis_m": 9999,
      "fzfg": false,
      "metar_trigger": false,
      "taf_trigger": false,
      "metar": "METAR HEMA 130900Z 32007KT CAVOK 19/03 Q1021 NOSIG",
      "taf": "TAF HEMA 130500Z 1306/1412 29010G20KT 9999 FEW025"
    },
    {
      "icao": "HESH",
      "alert": "OK",
      "vis_m": 9999,
      "fzfg": false,
      "metar_trigger": false,
      "taf_trigger": false,
      "metar": "METAR HESH 130900Z 13007KT CAVOK 20/04 Q1020 NOSIG",
      "taf": "TAF HESH 130500Z 1306/1412 35010G20KT 9999 SCT025"
    },
    {
      "icao": "HESX",
      "alert": "OK",
      "vis_m": 9999,
      "fzfg": false,
      "metar_trigger": false,
      "taf_trigger": false,
      "metar": "METAR HESX 130900Z 26014KT CAVOK 13/05 Q1021 NOSIG",
      "taf": "TAF HESX 130500Z 1306/1412 26011G22KT 6000 FEW025 SCT100"
    },
    {
      "icao": "LATI",
      "alert": "OK",
      "vis_m": 9999,
      "fzfg": false,
      "metar_trigger": false,
      "taf_trigger": false,
      "metar": "METAR LATI 130950Z 15006KT 9999 SCT042 BKN070 08/M01 Q1027 NOSIG",
      "taf": "TAF LATI 130500Z 1306/1406 VRB05KT 9999 SCT040 BKN070 TX10/1312Z TN02/1405Z"
    },
    {
      "icao": "LBPD",
      "alert": "OK",
      "vis_m": 9999,
      "fzfg": false,
      "metar_trigger": false,
      "taf_trigger": false,
      "metar": "METAR LBPD 130930Z AUTO 10005KT 060V130 9999 BKN063/// BKN076/// OVC096/// 01/M11 Q1023 NOSIG",
      "taf": "TAF LBPD 130500Z 1306/1406 VRB03KT 9999 SCT050"
    },
    {
      "icao": "LBSF",
      "alert": "OK",
      "vis_m": 9999,
      "fzfg": false,
      "metar_trigger": false,
      "taf_trigger": false,
      "metar": "METAR LBSF 130930Z VRB02KT 9999 BKN044 OVC055 M04/M09 Q1022 NOSIG",
      "taf": "TAF LBSF 130500Z 1306/1406 VRB03KT 9999 SCT050 BKN070"
    },
    {
      "icao": "LBWN",
      "alert": "OK",
      "vis_m": 9999,
      "fzfg": false,
      "metar_trigger": false,
      "taf_trigger": false,
      "metar": "METAR LBWN 130930Z 24006KT CAVOK 00/M10 Q1023 NOSIG",
      "taf": "TAF LBWN 130500Z 1306/1406 VRB04KT 9999 SCT050"
    },
    {
      "icao": "LCLK",
      "alert": "OK",
      "vis_m": 9999,
      "fzfg": false,
      "metar_trigger": false,
      "taf_trigger": false,
      "metar": "METAR LCLK 130930Z 28004KT 250V320 9999 -SHRA FEW020 FEW025TCU SCT035 13/08 Q1009 NOSIG",
      "taf": "TAF LCLK 130530Z 1306/1406 28012KT 9999 FEW020CB SCT040"
    },
    {
      "icao": "LCPH",
      "alert": "OK",
      "vis_m": 9000,
      "fzfg": false,
      "metar_trigger": false,
      "taf_trigger": false,
      "metar": "METAR LCPH 130930Z 31014KT 9000 -SHRA FEW025 FEW030TCU BKN045 12/07 Q1010 TEMPO 5000 SHRA",
      "taf": "TAF LCPH 130530Z 1306/1406 30023G33KT 9999 -SHRA FEW025CB SCT040"
    },
    {
      "icao": "LEAL",
      "alert": "OK",
      "vis_m": 800,
      "fzfg": false,
      "metar_trigger": false,
      "taf_trigger": false,
      "metar": "METAR LEAL 130930Z 22005KT 180V270 0800 0600SE R10/P2000N FG BKN003 09/09 Q1018 NOSIG",
      "taf": ""
    },
    {
      "icao": "LEBB",
      "alert": "OK",
      "vis_m": 9999,
      "fzfg": false,
      "metar_trigger": false,
      "taf_trigger": false,
      "metar": "METAR LEBB 130930Z 11009KT 070V150 9999 FEW065 15/05 Q1010 NOSIG",
      "taf": "TAF LEBB 130500Z 1306/1406 18009KT CAVOK TX15/1315Z TN08/1406Z"
    },
    {
      "icao": "LEBL",
      "alert": "OK",
      "vis_m": 9000,
      "fzfg": false,
      "metar_trigger": false,
      "taf_trigger": false,
      "metar": "METAR LEBL 130930Z 33008G22KT 9000 FEW016 SCT025 11/07 Q1018 NOSIG",
      "taf": "TAF LEBL 130500Z 1306/1406 34007KT 9999 SCT020 TX16/1312Z TN06/1406Z"
    },
    {
      "icao": "LECH",
      "alert": "OK",
      "vis_m": 9000,
      "fzfg": false,
      "metar_trigger": false,
      "taf_trigger": false,
      "metar": "METAR LECH 130930Z AUTO 00000KT 9000 NCD 07/06 Q1018",
      "taf": ""
    },
    {
      "icao": "LEMD",
      "alert": "OK",
      "vis_m": 9000,
      "fzfg": false,
      "metar_trigger": false,
      "taf_trigger": false,
      "metar": "METAR LEMD 130930Z VRB02KT 9000 SCT032 BKN050 03/03 Q1015 NOSIG",
      "taf": ""
    },
    {
      "icao": "LEMG",
      "alert": "OK",
      "vis_m": 3000,
      "fzfg": false,
      "metar_trigger": false,
      "taf_trigger": false,
      "metar": "METAR LEMG 130930Z 31003KT 280V010 3000 BR BCFG FEW001 BKN015 08/08 Q1018 NOSIG",
      "taf": ""
    },
    {
      "icao": "LEVC",
      "alert": "OK",
      "vis_m": 9999,
      "fzfg": false,
      "metar_trigger": false,
      "taf_trigger": false,
      "metar": "METAR LEVC 130930Z VRB02KT CAVOK 09/05 Q1018 NOSIG",
      "taf": "TAF LEVC 130500Z 1306/1406 VRB04KT CAVOK TX17/1314Z TN03/1306Z"
    },
    {
      "icao": "LEXJ",
      "alert": "OK",
      "vis_m": 9999,
      "fzfg": false,
      "metar_trigger": false,
      "taf_trigger": false,
      "metar": "METAR LEXJ 130930Z 19017G28KT 150V240 9999 FEW070 15/04 Q1007",
      "taf": ""
    },
    {
      "icao": "LEZG",
      "alert": "OK",
      "vis_m": 2000,
      "fzfg": false,
      "metar_trigger": false,
      "taf_trigger": false,
      "metar": "METAR LEZG 130930Z 09010KT 2000 BR OVC003 07/07 Q1016 NOSIG",
      "taf": ""
    },
    {
      "icao": "LEZL",
      "alert": "OK",
      "vis_m": 9999,
      "fzfg": false,
      "metar_trigger": false,
      "taf_trigger": false,
      "metar": "METAR LEZL 130930Z 19008KT 120V240 9999 -RA FEW020 BKN028 14/08 Q1015 NOSIG",
      "taf": "TAF LEZL 130800Z 1309/1409 16009KT 9999 SCT030 TX18/1315Z TN08/1407Z"
    },
    {
      "icao": "LFBD",
      "alert": "OK",
      "vis_m": 9999,
      "fzfg": false,
      "metar_trigger": false,
      "taf_trigger": false,
      "metar": "METAR LFBD 130930Z AUTO 15010KT CAVOK 08/07 Q1011 NOSIG",
      "taf": ""
    },
    {
      "icao": "LFLL",
      "alert": "OK",
      "vis_m": 9999,
      "fzfg": false,
      "metar_trigger": false,
      "taf_trigger": false,
      "metar": "METAR LFLL 130930Z 16011KT 9999 FEW036 BKN210 11/06 Q1016 NOSIG",
      "taf": "TAF LFLL 130500Z 1306/1412 17015KT CAVOK"
    },
    {
      "icao": "LFLS",
      "alert": "OK",
      "vis_m": 9999,
      "fzfg": false,
      "metar_trigger": false,
      "taf_trigger": false,
      "metar": "METAR LFLS 130930Z AUTO VRB02KT 9999 FEW050 04/02 Q1017 BECMG 23012KT",
      "taf": "TAF LFLS 130800Z 1309/1409 VRB03KT 9999 SCT046"
    },
    {
      "icao": "LFMN",
      "alert": "OK",
      "vis_m": 9999,
      "fzfg": false,
      "metar_trigger": false,
      "taf_trigger": false,
      "metar": "METAR LFMN 130930Z 32010KT 9999 FEW020 OVC030 10/01 Q1022 NOSIG",
      "taf": "TAF LFMN 130800Z 1309/1415 34010KT 9999 FEW020 SCT030 BKN040"
    },
    {
      "icao": "LFOB",
      "alert": "OK",
      "vis_m": 9999,
      "fzfg": false,
      "metar_trigger": false,
      "taf_trigger": false,
      "metar": "METAR LFOB 130930Z AUTO 14005KT 9999 FEW048 BKN140 BKN160 09/06 Q1009 NOSIG",
      "taf": ""
    },
    {
      "icao": "LFPO",
      "alert": "OK",
      "vis_m": 9999,
      "fzfg": false,
      "metar_trigger": false,
      "taf_trigger": false,
      "metar": "METAR LFPO 130930Z 17006KT CAVOK 09/04 Q1011 NOSIG",
      "taf": "TAF LFPO 130500Z 1306/1412 19009KT CAVOK"
    },
    {
      "icao": "LFSB",
      "alert": "OK",
      "vis_m": 9999,
      "fzfg": false,
      "metar_trigger": false,
      "taf_trigger": false,
      "metar": "METAR LFSB 130930Z AUTO 18004KT 9999 FEW012 04/02 Q1016 NOSIG",
      "taf": "TAF LFSB 130500Z 1306/1406 18004KT CAVOK"
    },
    {
      "icao": "LGAV",
      "alert": "OK",
      "vis_m": 9999,
      "fzfg": false,
      "metar_trigger": false,
      "taf_trigger": false,
      "metar": "METAR LGAV 130920Z VRB02KT 9999 FEW025 10/M11 Q1026 NOSIG",
      "taf": "TAF LGAV 130500Z 1306/1406 VRB05KT 9999 FEW025"
    },
    {
      "icao": "LGTS",
      "alert": "OK",
      "vis_m": 9999,
      "fzfg": false,
      "metar_trigger": false,
      "taf_trigger": false,
      "metar": "METAR LGTS 130920Z COR 29005KT 9999 FEW030 05/M04 Q1026 NOSIG",
      "taf": "TAF LGTS 130500Z 1306/1406 VRB03KT 9999 FEW025"
    },
    {
      "icao": "LHBP",
      "alert": "OK",
      "vis_m": 4000,
      "fzfg": false,
      "metar_trigger": false,
      "taf_trigger": false,
      "metar": "METAR LHBP 130930Z 01005KT 350V050 4000 PL FZRA BKN037 OVC042 M07/M09 Q1019 BECMG 5000 -PL -FZRA",
      "taf": ""
    },
    {
      "icao": "LHDC",
      "alert": "OK",
      "vis_m": 4500,
      "fzfg": false,
      "metar_trigger": false,
      "taf_trigger": false,
      "metar": "METAR LHDC 130915Z AUTO 09005KT 4500 -SN BR OVC027 M06/M08 Q1019 NOSIG",
      "taf": "TAF LHDC 130815Z 1309/1318 08006KT 6000 OVC025"
    },
    {
      "icao": "LIBD",
      "alert": "OK",
      "vis_m": 9999,
      "fzfg": false,
      "metar_trigger": false,
      "taf_trigger": false,
      "metar": "METAR LIBD 130920Z 27005KT CAVOK 13/04 Q1025",
      "taf": "TAF LIBD 130500Z 1306/1406 23007KT CAVOK"
    },
    {
      "icao": "LIBG",
      "alert": "OK",
      "vis_m": 9999,
      "fzfg": false,
      "metar_trigger": false,
      "taf_trigger": false,
      "metar": "METAR LIBG 130850Z VRB01KT CAVOK 08/07 Q1026",
      "taf": "TAF LIBG 130800Z 1309/1318 VRB05KT 9999 FEW040"
    },
    {
      "icao": "LIBP",
      "alert": "OK",
      "vis_m": 9999,
      "fzfg": false,
      "metar_trigger": false,
      "taf_trigger": false,
      "metar": "METAR LIBP 130920Z AUTO VRB03KT 9999 NCD 15/05 Q1024",
      "taf": "TAF LIBP 130500Z 1306/1406 23007KT CAVOK"
    },
    {
      "icao": "LIBR",
      "alert": "OK",
      "vis_m": 9999,
      "fzfg": false,
      "metar_trigger": false,
      "taf_trigger": false,
      "metar": "METAR LIBR 130920Z 23004KT CAVOK 10/02 Q1026",
      "taf": "TAF LIBR 130500Z 1306/1406 22008KT CAVOK"
    },
    {
      "icao": "LICA",
      "alert": "OK",
      "vis_m": 9999,
      "fzfg": false,
      "metar_trigger": false,
      "taf_trigger": false,
      "metar": "METAR LICA 130920Z AUTO 20006KT 170V230 9999 OVC033/// 12/06 Q1028",
      "taf": "TAF LICA 130500Z 1306/1406 VRB05KT CAVOK"
    },
    {
      "icao": "LICC",
      "alert": "OK",
      "vis_m": 9999,
      "fzfg": false,
      "metar_trigger": false,
      "taf_trigger": false,
      "metar": "METAR LICC 130920Z 24006KT 180V260 CAVOK 12/07 Q1028",
      "taf": "TAF LICC 130500Z 1306/1406 26010KT CAVOK"
    },
    {
      "icao": "LICJ",
      "alert": "OK",
      "vis_m": 9999,
      "fzfg": false,
      "metar_trigger": false,
      "taf_trigger": false,
      "metar": "METAR LICJ 130920Z 18010G20KT 150V210 CAVOK 14/06 Q1026",
      "taf": "TAF LICJ 130500Z 1306/1406 19010KT CAVOK"
    },
    {
      "icao": "LIMC",
      "alert": "OK",
      "vis_m": 9999,
      "fzfg": false,
      "metar_trigger": false,
      "taf_trigger": false,
      "metar": "METAR LIMC 130920Z 30004KT 9999 BKN042 06/M04 Q1022 NOSIG",
      "taf": "TAF LIMC 130500Z 1306/1412 VRB05KT 9999 SCT045"
    },
    {
      "icao": "LIME",
      "alert": "OK",
      "vis_m": 9999,
      "fzfg": false,
      "metar_trigger": false,
      "taf_trigger": false,
      "metar": "METAR LIME 130920Z 13004KT 9999 BKN040 03/M01 Q1022 NOSIG",
      "taf": "TAF LIME 130500Z 1306/1406 VRB04KT 9999 SCT035"
    },
    {
      "icao": "LIMF",
      "alert": "OK",
      "vis_m": 9999,
      "fzfg": false,
      "metar_trigger": false,
      "taf_trigger": false,
      "metar": "METAR LIMF 130920Z AUTO VRB02KT 9999 OVC038/// 02/M05 Q1022",
      "taf": "TAF LIMF 130500Z 1306/1406 VRB03KT CAVOK"
    },
    {
      "icao": "LIMJ",
      "alert": "OK",
      "vis_m": 8000,
      "fzfg": false,
      "metar_trigger": false,
      "taf_trigger": false,
      "metar": "METAR LIMJ 130920Z 01004KT 8000 -DZ SCT018 BKN030 12/12 Q1022",
      "taf": "TAF LIMJ 130500Z 1306/1406 18013KT 9999 BKN020"
    },
    {
      "icao": "LIPE",
      "alert": "OK",
      "vis_m": 9999,
      "fzfg": false,
      "metar_trigger": false,
      "taf_trigger": false,
      "metar": "METAR LIPE 130920Z VRB01KT 9999 SCT060 04/01 Q1023",
      "taf": "TAF LIPE 130500Z 1306/1406 VRB04KT 9999 SCT040"
    },
    {
      "icao": "LIPH",
      "alert": "OK",
      "vis_m": 9999,
      "fzfg": false,
      "metar_trigger": false,
      "taf_trigger": false,
      "metar": "METAR LIPH 130920Z VRB02KT CAVOK 03/M00 Q1023",
      "taf": "TAF LIPH 130500Z 1306/1406 VRB04KT 9999 SCT040"
    },
    {
      "icao": "LIPQ",
      "alert": "OK",
      "vis_m": 9999,
      "fzfg": false,
      "metar_trigger": false,
      "taf_trigger": false,
      "metar": "METAR LIPQ 130920Z AUTO 36003KT 9999 FEW049/// BKN180/// 04/02 Q1023",
      "taf": "TAF LIPQ 130500Z 1306/1406 VRB04KT 9999 SCT040"
    },
    {
      "icao": "LIPR",
      "alert": "OK",
      "vis_m": 9999,
      "fzfg": false,
      "metar_trigger": false,
      "taf_trigger": false,
      "metar": "METAR LIPR 130920Z VRB01KT 9999 FEW050 06/03 Q1023",
      "taf": "TAF LIPR 130500Z 1306/1406 VRB05KT 9999 FEW040"
    },
    {
      "icao": "LIPX",
      "alert": "OK",
      "vis_m": 9999,
      "fzfg": false,
      "metar_trigger": false,
      "taf_trigger": false,
      "metar": "METAR LIPX 130920Z VRB01KT 9999 OVC040 04/M01 Q1023",
      "taf": "TAF LIPX 130500Z 1306/1406 VRB03KT 9999 SCT040"
    },
    {
      "icao": "LIPY",
      "alert": "OK",
      "vis_m": 9999,
      "fzfg": false,
      "metar_trigger": false,
      "taf_trigger": false,
      "metar": "METAR LIPY 130920Z AUTO VRB01KT 9999 NCD 12/05 Q1023",
      "taf": "TAF LIPY 130500Z 1306/1406 19007KT 9999 FEW050"
    },
    {
      "icao": "LIPZ",
      "alert": "OK",
      "vis_m": 9999,
      "fzfg": false,
      "metar_trigger": false,
      "taf_trigger": false,
      "metar": "METAR LIPZ 130920Z 02004KT 340V040 9999 SCT050 03/M01 Q1023 NOSIG",
      "taf": "TAF LIPZ 130500Z 1306/1412 VRB05KT 9999 SCT040"
    },
    {
      "icao": "LIRF",
      "alert": "OK",
      "vis_m": 9999,
      "fzfg": false,
      "metar_trigger": false,
      "taf_trigger": false,
      "metar": "METAR LIRF 130920Z 12004KT 080V150 9999 SCT055 13/08 Q1025 NOSIG",
      "taf": "TAF LIRF 130500Z 1306/1412 09008KT 9999 SCT040"
    },
    {
      "icao": "LIRN",
      "alert": "OK",
      "vis_m": 9999,
      "fzfg": false,
      "metar_trigger": false,
      "taf_trigger": false,
      "metar": "METAR LIRN 130920Z VRB01KT 9999 FEW040 BKN050 11/06 Q1026 NOSIG",
      "taf": "TAF LIRN 130500Z 1306/1406 VRB05KT 9999 SCT040"
    },
    {
      "icao": "LIRP",
      "alert": "OK",
      "vis_m": 9999,
      "fzfg": false,
      "metar_trigger": false,
      "taf_trigger": false,
      "metar": "METAR LIRP 130915Z 11004KT 9999 SCT030 BKN060 08/08 Q1024 NOSIG",
      "taf": ""
    },
    {
      "icao": "LIRZ",
      "alert": "OK",
      "vis_m": 9999,
      "fzfg": false,
      "metar_trigger": false,
      "taf_trigger": false,
      "metar": "METAR LIRZ 130920Z AUTO 30003KT 9999 FEW023/// SCT035/// BKN057/// 09/06 Q1025",
      "taf": "TAF LIRZ 130500Z 1306/1406 VRB04KT 9999 SCT050"
    },
    {
      "icao": "LJLJ",
      "alert": "OK",
      "vis_m": 9999,
      "fzfg": false,
      "metar_trigger": false,
      "taf_trigger": false,
      "metar": "METAR LJLJ 130930Z 30009KT CAVOK M03/M05 Q1021 NOSIG",
      "taf": "TAF LJLJ 130500Z 1306/1406 VRB02KT 9999 SCT100"
    },
    {
      "icao": "LKMT",
      "alert": "OK",
      "vis_m": 6000,
      "fzfg": false,
      "metar_trigger": false,
      "taf_trigger": false,
      "metar": "METAR LKMT 130930Z 24017KT 6000 -SN FEW009 BKN025 OVC031 M02/M03 Q1014 TEMPO 2500 SN BKN009",
      "taf": "TAF LKMT 130500Z 1306/1406 23010KT 4500 -SN BKN015 OVC020"
    },
    {
      "icao": "LKPR",
      "alert": "OK",
      "vis_m": 9000,
      "fzfg": false,
      "metar_trigger": false,
      "taf_trigger": false,
      "metar": "METAR LKPR 130930Z 26003KT 9000 2000NE R24/1400D R30/P2000N BKN017 OVC024 03/02 Q1015 TEMPO 03003KT 2000 BR",
      "taf": "TAF LKPR 130800Z 1309/1415 24006KT 7000 SCT008 BKN020"
    },
    {
      "icao": "LLBG",
      "alert": "OK",
      "vis_m": 9999,
      "fzfg": false,
      "metar_trigger": false,
      "taf_trigger": false,
      "metar": "METAR LLBG 130950Z 27022G36KT 9999 FEW015TCU BKN045 15/08 Q1014 TEMPO 27025G35KT 3000 TSRA FEW020CB",
      "taf": "TAF LLBG 130501Z 1306/1406 25018G28KT 9999 SCT030 BKN040"
    },
    {
      "icao": "LMML",
      "alert": "OK",
      "vis_m": 9999,
      "fzfg": false,
      "metar_trigger": false,
      "taf_trigger": false,
      "metar": "METAR LMML 130945Z 23004KT 180V270 9999 FEW035 15/08 Q1028 NOSIG",
      "taf": "TAF LMML 130500Z 1306/1406 VRB05KT 9999 FEW025"
    },
    {
      "icao": "LOWW",
      "alert": "OK",
      "vis_m": 5000,
      "fzfg": false,
      "metar_trigger": false,
      "taf_trigger": false,
      "metar": "METAR LOWW 130920Z 14003KT 100V180 5000 -FZDZ FEW003 BKN030 M01/M02 Q1016 REFZRA BECMG NSW",
      "taf": "TAF LOWW 130815Z 1309/1415 12005KT 6000 -FZRA FEW020 BKN040 TX02/1315Z TNM02/1309Z"
    },
    {
      "icao": "LPFR",
      "alert": "OK",
      "vis_m": 9999,
      "fzfg": false,
      "metar_trigger": false,
      "taf_trigger": false,
      "metar": "METAR LPFR 130930Z 21014KT 9999 FEW016 SCT035 15/12 Q1012",
      "taf": "TAF LPFR 130500Z 1306/1406 19017KT 8000 -RA SCT012 BKN025"
    },
    {
      "icao": "LPMA",
      "alert": "OK",
      "vis_m": 9999,
      "fzfg": false,
      "metar_trigger": false,
      "taf_trigger": false,
      "metar": "METAR LPMA 130930Z 30010KT 240V360 9999 -SHRA SCT015 FEW018CB 14/09 Q1018",
      "taf": "TAF LPMA 130500Z 1306/1406 32008KT 9999 SCT015"
    },
    {
      "icao": "LPPR",
      "alert": "OK",
      "vis_m": 9999,
      "fzfg": false,
      "metar_trigger": false,
      "taf_trigger": false,
      "metar": "METAR LPPR 130930Z 18015KT 9999 BKN011 BKN037 13/11 Q1006",
      "taf": "TAF LPPR 130500Z 1306/1406 15018G30KT 9999 SCT018 BKN035"
    },
    {
      "icao": "LPPS",
      "alert": "OK",
      "vis_m": 9999,
      "fzfg": false,
      "metar_trigger": false,
      "taf_trigger": false,
      "metar": "METAR LPPS 130930Z 33014KT 9999 FEW015 FEW018CB 15/10 Q1018",
      "taf": "TAF LPPS 130500Z 1306/1412 30015KT 9999 SCT015"
    },
    {
      "icao": "LPPT",
      "alert": "OK",
      "vis_m": 9999,
      "fzfg": false,
      "metar_trigger": false,
      "taf_trigger": false,
      "metar": "METAR LPPT 130930Z 21008KT 9999 VCSH FEW012 FEW020TCU 13/13 Q1008",
      "taf": "TAF LPPT 130500Z 1306/1412 18015KT 9999 SCT008 BKN015"
    },
    {
      "icao": "LQBK",
      "alert": "OK",
      "vis_m": 9999,
      "fzfg": false,
      "metar_trigger": false,
      "taf_trigger": false,
      "metar": "METAR LQBK 130930Z 16004KT 110V190 CAVOK 04/01 Q1019 NOSIG",
      "taf": "TAF LQBK 130500Z 1306/1406 15007KT CAVOK TX06/1313Z TNM00/1406Z"
    },
    {
      "icao": "LQSA",
      "alert": "OK",
      "vis_m": 7000,
      "fzfg": false,
      "metar_trigger": false,
      "taf_trigger": false,
      "metar": "METAR LQSA 130930Z VRB02KT 7000 NSC M01/M06 Q1022 NOSIG",
      "taf": "TAF LQSA 130500Z 1306/1406 VRB02KT 8000 NSC TX03/1314Z TNM06/1306Z"
    },
    {
      "icao": "LQTZ",
      "alert": "OK",
      "vis_m": 6000,
      "fzfg": false,
      "metar_trigger": false,
      "taf_trigger": false,
      "metar": "METAR LQTZ 130930Z 11003KT 080V160 6000 NSC M01/M04 Q1019",
      "taf": "TAF LQTZ 130500Z 1306/1406 VRB02KT 9999 SCT045 TX05/1313Z TNM03/1306Z"
    },
    {
      "icao": "LRBC",
      "alert": "OK",
      "vis_m": 9999,
      "fzfg": false,
      "metar_trigger": false,
      "taf_trigger": false,
      "metar": "METAR LRBC 130930Z 16011KT CAVOK M01/M09 Q1019",
      "taf": "TAF LRBC 130800Z 1309/1318 15010KT CAVOK"
    },
    {
      "icao": "LRBS",
      "alert": "OK",
      "vis_m": 9999,
      "fzfg": false,
      "metar_trigger": false,
      "taf_trigger": false,
      "metar": "METAR LRBS 130930Z 23005KT CAVOK M04/M08 Q1023 NOSIG",
      "taf": "TAF LRBS 130500Z 1306/1406 VRB04KT CAVOK"
    },
    {
      "icao": "LRBV",
      "alert": "OK",
      "vis_m": 9999,
      "fzfg": false,
      "metar_trigger": false,
      "taf_trigger": false,
      "metar": "METAR LRBV 130930Z 08004KT 050V110 9999 FEW003 M08/M12 Q1019",
      "taf": "TAF LRBV 130800Z 1309/1318 VRB04KT 9999 BKN045"
    },
    {
      "icao": "LRCL",
      "alert": "OK",
      "vis_m": 8000,
      "fzfg": false,
      "metar_trigger": false,
      "taf_trigger": false,
      "metar": "METAR LRCL 130930Z 09003KT 8000 BKN055 BKN067 M11/M13 Q1020",
      "taf": "TAF LRCL 130800Z 1309/1318 VRB04KT 8000 SCT010"
    },
    {
      "icao": "LRCV",
      "alert": "OK",
      "vis_m": 9999,
      "fzfg": false,
      "metar_trigger": false,
      "taf_trigger": false,
      "metar": "METAR LRCV 130930Z VRB02KT 9999 -SN FEW024 BKN040 M06/M09 Q1022",
      "taf": "TAF LRCV 130800Z 1309/1318 VRB04KT 9999 SCT045"
    },
    {
      "icao": "LRIA",
      "alert": "OK",
      "vis_m": 9999,
      "fzfg": false,
      "metar_trigger": false,
      "taf_trigger": false,
      "metar": "METAR LRIA 130930Z 11009KT CAVOK M05/M07 Q1020",
      "taf": "TAF LRIA 130800Z 1309/1318 10006KT CAVOK"
    },
    {
      "icao": "LROP",
      "alert": "OK",
      "vis_m": 7000,
      "fzfg": false,
      "metar_trigger": false,
      "taf_trigger": false,
      "metar": "METAR LROP 130930Z 26004KT 7000 NSC M06/M09 Q1023 NOSIG",
      "taf": "TAF LROP 130500Z 1306/1406 VRB04KT 5000 BR NSC"
    },
    {
      "icao": "LRSB",
      "alert": "OK",
      "vis_m": 9999,
      "fzfg": false,
      "metar_trigger": false,
      "taf_trigger": false,
      "metar": "METAR LRSB 130930Z VRB02KT 9999 SCT050 M09/M10 Q1018",
      "taf": "TAF LRSB 130500Z 1306/1406 VRB04KT CAVOK"
    },
    {
      "icao": "LRSM",
      "alert": "OK",
      "vis_m": 2000,
      "fzfg": false,
      "metar_trigger": false,
      "taf_trigger": false,
      "metar": "METAR LRSM 130930Z VRB02KT 2000 SN OVC017 M05/M08 Q1020",
      "taf": "TAF LRSM 130800Z 1309/1318 12008KT 9999 BKN040"
    },
    {
      "icao": "LRSV",
      "alert": "OK",
      "vis_m": 9999,
      "fzfg": false,
      "metar_trigger": false,
      "taf_trigger": false,
      "metar": "METAR LRSV 130930Z COR 16005KT CAVOK M05/M09 Q1016",
      "taf": "TAF LRSV 130800Z 1309/1318 VRB04KT CAVOK"
    },
    {
      "icao": "LRTM",
      "alert": "OK",
      "vis_m": 4500,
      "fzfg": false,
      "metar_trigger": false,
      "taf_trigger": false,
      "metar": "METAR LRTM 130930Z 06004KT 4500 BR SCT011 M12/M14 Q1020",
      "taf": "TAF LRTM 130800Z 1309/1318 VRB02KT 5000 BR BKN010"
    },
    {
      "icao": "LRTR",
      "alert": "OK",
      "vis_m": 1400,
      "fzfg": false,
      "metar_trigger": false,
      "taf_trigger": false,
      "metar": "METAR LRTR 130930Z 11012KT 1400 R11/1400U SN BR OVC020 M05/M05 Q1019 TEMPO 0800 +SN",
      "taf": "TAF LRTR 130500Z 1306/1406 11010KT 7000 -SN SCT015 BKN040"
    },
    {
      "icao": "LTAC",
      "alert": "OK",
      "vis_m": 9999,
      "fzfg": false,
      "metar_trigger": false,
      "taf_trigger": false,
      "metar": "METAR LTAC 130920Z 04007KT 9999 SCT040 BKN100 M01/M07 Q1015 NOSIG RMK RWY21C 03007KT 350V050 RWY03L 03007KT 310V060 RWY21R 02006KT 340V040 RWY03R 03009KT RWY21L 03008KT",
      "taf": "TAF LTAC 130440Z 1306/1406 02008KT 9999 SCT035 BKN100"
    },
    {
      "icao": "LTFM",
      "alert": "OK",
      "vis_m": 9999,
      "fzfg": false,
      "metar_trigger": false,
      "taf_trigger": false,
      "metar": "METAR LTFM 130920Z 31010G22KT 270V340 9999 SCT035 02/M04 Q1024 NOSIG RMK RWY17L 30010KT RWY34L 31008KT 240V330 RWY16R 29009KT 260V320 RWY36 30009KT RWY18 31009KT",
      "taf": "TAF LTFM 130440Z 1306/1412 30010KT 9999 BKN028 BKN080"
    },
    {
      "icao": "LUKK",
      "alert": "OK",
      "vis_m": 9999,
      "fzfg": false,
      "metar_trigger": false,
      "taf_trigger": false,
      "metar": "METAR LUKK 130930Z 19004KT 160V220 CAVOK M05/M10 Q1021 NOSIG",
      "taf": ""
    },
    {
      "icao": "LWOH",
      "alert": "OK",
      "vis_m": 9999,
      "fzfg": false,
      "metar_trigger": false,
      "taf_trigger": false,
      "metar": "METAR LWOH 130950Z 31003KT 9999 SCT033 03/M02 Q1024",
      "taf": "TAF LWOH 130820Z 1309/1409 33005KT 9999 SCT035"
    },
    {
      "icao": "LWSK",
      "alert": "OK",
      "vis_m": 9999,
      "fzfg": false,
      "metar_trigger": false,
      "taf_trigger": false,
      "metar": "METAR LWSK 130920Z VRB01KT 9999 FEW050 BKN080 M02/M07 Q1026 NOSIG",
      "taf": "TAF LWSK 130820Z 1309/1409 VRB02KT 9999 FEW060"
    },
    {
      "icao": "LYBE",
      "alert": "OK",
      "vis_m": 9999,
      "fzfg": false,
      "metar_trigger": false,
      "taf_trigger": false,
      "metar": "METAR LYBE 130930Z VRB01KT CAVOK 02/M02 Q1019 NOSIG",
      "taf": "TAF LYBE 130500Z 1306/1406 11004KT 9999 BKN040 TX03/1313Z TNM02/1306Z"
    },
    {
      "icao": "LYNI",
      "alert": "OK",
      "vis_m": 9999,
      "fzfg": false,
      "metar_trigger": false,
      "taf_trigger": false,
      "metar": "METAR LYNI 130930Z VRB02KT 9999 SCT037 BKN073 M02/M06 Q1023 NOSIG",
      "taf": "TAF LYNI 130500Z 1306/1406 VRB02KT 9999 BKN055 TX01/1313Z TNM04/1306Z"
    },
    {
      "icao": "LYPG",
      "alert": "OK",
      "vis_m": 9999,
      "fzfg": false,
      "metar_trigger": false,
      "taf_trigger": false,
      "metar": "METAR LYPG 130930Z 33003KT 9999 FEW030 BKN040 OVC070 03/M04 Q1028 NOSIG",
      "taf": "TAF LYPG 130500Z 1306/1406 16005KT 9999 SCT040 BKN080 TX05/1313Z TN01/1306Z"
    },
    {
      "icao": "LZIB",
      "alert": "OK",
      "vis_m": 8000,
      "fzfg": false,
      "metar_trigger": false,
      "taf_trigger": false,
      "metar": "METAR LZIB 130930Z 07006KT 8000 OVC006 M02/M03 Q1017 BECMG NSW SCT007 OVC014",
      "taf": "TAF LZIB 130515Z 1306/1406 08004KT 6000 -FZRA SCT013 OVC016"
    },
    {
      "icao": "LZKZ",
      "alert": "OK",
      "vis_m": 1700,
      "fzfg": false,
      "metar_trigger": false,
      "taf_trigger": false,
      "metar": "METAR LZKZ 130930Z 00000KT 1700 R01/1400U SN VV015 M08/M10 Q1019 TEMPO 1400 SN OVC014",
      "taf": ""
    },
    {
      "icao": "LZTT",
      "alert": "OK",
      "vis_m": 2500,
      "fzfg": false,
      "metar_trigger": false,
      "taf_trigger": false,
      "metar": "METAR LZTT 130930Z 02001KT 2500 -SN BKN010 OVC023 M09/M11 Q1013 NOSIG",
      "taf": "TAF LZTT 130515Z 1306/1406 VRB02KT 6000 -SN SCT012 BKN020"
    },
    {
      "icao": "OEJN",
      "alert": "OK",
      "vis_m": 9999,
      "fzfg": false,
      "metar_trigger": false,
      "taf_trigger": false,
      "metar": "METAR OEJN 130900Z 36004KT 9999 SCT040 28/17 Q1017 NOSIG",
      "taf": "TAF OEJN 130500Z 1306/1412 02005KT 7000 SCT040"
    },
    {
      "icao": "OEMA",
      "alert": "OK",
      "vis_m": 9999,
      "fzfg": false,
      "metar_trigger": false,
      "taf_trigger": false,
      "metar": "METAR OEMA 130900Z 25007KT CAVOK 24/10 Q1019 NOSIG",
      "taf": "TAF OEMA 130500Z 1306/1412 27015KT 9999 FEW040"
    },
    {
      "icao": "OJAI",
      "alert": "OK",
      "vis_m": 2000,
      "fzfg": false,
      "metar_trigger": false,
      "taf_trigger": false,
      "metar": "METAR OJAI 130900Z 28012KT 2000 RA SCT025 BKN030 05/03 Q1014 NOSIG",
      "taf": "TAF OJAI 130436Z 1306/1412 25014KT 2000 RA FEW025TCU SCT035"
    },
    {
      "icao": "OMAA",
      "alert": "OK",
      "vis_m": 9999,
      "fzfg": false,
      "metar_trigger": false,
      "taf_trigger": false,
      "metar": "METAR OMAA 130900Z VRB04KT CAVOK 25/09 Q1020 BECMG 32010KT",
      "taf": "TAF OMAA 130500Z 1306/1412 VRB02KT 8000 NSC"
    },
    {
      "icao": "OMDB",
      "alert": "OK",
      "vis_m": 9999,
      "fzfg": false,
      "metar_trigger": false,
      "taf_trigger": false,
      "metar": "METAR OMDB 130930Z 32008KT 270V360 CAVOK 25/12 Q1019 NOSIG",
      "taf": "TAF OMDB 130500Z 1306/1412 12005KT 8000 NSC"
    },
    {
      "icao": "UAAA",
      "alert": "OK",
      "vis_m": 2400,
      "fzfg": false,
      "metar_trigger": false,
      "taf_trigger": false,
      "metar": "METAR UAAA 130930Z VRB01MPS 2400 BR OVC003 01/01 Q1025 NOSIG RMK QBB100",
      "taf": ""
    },
    {
      "icao": "UBBB",
      "alert": "OK",
      "vis_m": 9999,
      "fzfg": false,
      "metar_trigger": false,
      "taf_trigger": false,
      "metar": "METAR UBBB 130930Z 01014KT 9999 BKN016 09/05 Q1010 NOSIG",
      "taf": "TAF UBBB 130455Z 1306/1406 35012KT 9999 SCT030 TX09/1310Z TN03/1401Z"
    },
    {
      "icao": "UDSG",
      "alert": "OK",
      "vis_m": 9999,
      "fzfg": false,
      "metar_trigger": false,
      "taf_trigger": false,
      "metar": "METAR UDSG 130930Z 31007KT 9999 BKN046 02/M03 Q1006 NOSIG",
      "taf": "TAF UDSG 130500Z 1306/1406 VRB06KT 9999 BKN030"
    },
    {
      "icao": "UDYZ",
      "alert": "OK",
      "vis_m": 9999,
      "fzfg": false,
      "metar_trigger": false,
      "taf_trigger": false,
      "metar": "METAR UDYZ 130930Z 11004KT 9999 SCT046 10/M01 Q1004 NOSIG",
      "taf": "TAF UDYZ 130500Z 1306/1406 24006KT 9999 SCT040"
    },
    {
      "icao": "UGKO",
      "alert": "OK",
      "vis_m": 8000,
      "fzfg": false,
      "metar_trigger": false,
      "taf_trigger": false,
      "metar": "METAR UGKO 130930Z 25008KT 8000 -SHRA SCT009 BKN017CB OVC050 05/03 Q1014 NOSIG",
      "taf": "TAF UGKO 130500Z 1306/1406 26010KT 9999 SCT020 BKN040 TX06/1306Z TN02/1404Z"
    }
  ]
}