{
  "ts_utc": "2026-03-07T07:39:35Z",
  "threshold_m": 150,
  "source": "stations_override.txt (ICAO list) + aviationweather.gov (METAR/TAF raw)",
  "station_count": 159,
  "stations": [
    {
      "icao": "BIKF",
      "alert": "OK",
      "vis_m": 9999,
      "fzfg": false,
      "metar_trigger": false,
      "taf_trigger": false,
      "metar": "METAR BIKF 070730Z 22040G53KT 9999 VCSH BKN011CB 03/M00 Q0974",
      "taf": "TAF BIKF 070445Z 0706/0806 20038G52KT 9999 SCT015 BKN035 TX04/0710Z TN01/0706Z"
    },
    {
      "icao": "BKPR",
      "alert": "OK",
      "vis_m": 6000,
      "fzfg": false,
      "metar_trigger": false,
      "taf_trigger": false,
      "metar": "METAR BKPR 070730Z VRB01KT 6000 NSC 05/02 Q1028 NOSIG",
      "taf": "TAF BKPR 070530Z 0706/0806 VRB03KT 3000 BR FEW030"
    },
    {
      "icao": "EBCI",
      "alert": "OK",
      "vis_m": 6000,
      "fzfg": false,
      "metar_trigger": false,
      "taf_trigger": false,
      "metar": "METAR EBCI 070720Z 06003KT 360V080 6000 NSC 08/07 Q1024 TEMPO 2500 BR",
      "taf": "TAF EBCI 070510Z 0706/0812 04005KT CAVOK"
    },
    {
      "icao": "EDDB",
      "alert": "OK",
      "vis_m": 9999,
      "fzfg": false,
      "metar_trigger": false,
      "taf_trigger": false,
      "metar": "METAR EDDB 070720Z AUTO 12003KT CAVOK 03/M00 Q1026 NOSIG",
      "taf": "TAF EDDB 070500Z 0706/0806 12004KT CAVOK"
    },
    {
      "icao": "EDDH",
      "alert": "OK",
      "vis_m": 9999,
      "fzfg": false,
      "metar_trigger": false,
      "taf_trigger": false,
      "metar": "METAR EDDH 070720Z AUTO 14004KT 110V180 CAVOK 06/02 Q1025 NOSIG",
      "taf": "TAF EDDH 070500Z 0706/0812 VRB03KT CAVOK"
    },
    {
      "icao": "EDDK",
      "alert": "OK",
      "vis_m": 9999,
      "fzfg": false,
      "metar_trigger": false,
      "taf_trigger": false,
      "metar": "METAR EDDK 070720Z AUTO VRB02KT CAVOK 04/03 Q1025 NOSIG",
      "taf": "TAF EDDK 070500Z 0706/0812 VRB03KT CAVOK"
    },
    {
      "icao": "EDDN",
      "alert": "OK",
      "vis_m": 9999,
      "fzfg": false,
      "metar_trigger": false,
      "taf_trigger": false,
      "metar": "METAR EDDN 070720Z AUTO VRB01KT CAVOK 02/M00 Q1025 NOSIG",
      "taf": "TAF EDDN 070500Z 0706/0806 VRB03KT 8000 NSC"
    },
    {
      "icao": "EDDS",
      "alert": "OK",
      "vis_m": 7000,
      "fzfg": false,
      "metar_trigger": false,
      "taf_trigger": false,
      "metar": "METAR EDDS 070720Z AUTO VRB02KT 7000 NSC 04/03 Q1023 NOSIG",
      "taf": "TAF EDDS 070500Z 0706/0806 VRB03KT CAVOK"
    },
    {
      "icao": "EDFH",
      "alert": "OK",
      "vis_m": 9999,
      "fzfg": false,
      "metar_trigger": false,
      "taf_trigger": false,
      "metar": "METAR EDFH 070720Z 13008KT CAVOK 07/03 Q1023",
      "taf": "TAF EDFH 070500Z 0706/0806 10005KT CAVOK"
    },
    {
      "icao": "EDJA",
      "alert": "OK",
      "vis_m": 9999,
      "fzfg": false,
      "metar_trigger": false,
      "taf_trigger": false,
      "metar": "METAR EDJA 070720Z 18002KT CAVOK 01/00 Q1023",
      "taf": "TAF EDJA 070500Z 0706/0715 VRB02KT CAVOK"
    },
    {
      "icao": "EDLW",
      "alert": "OK",
      "vis_m": 9999,
      "fzfg": false,
      "metar_trigger": false,
      "taf_trigger": false,
      "metar": "METAR EDLW 070720Z 12007KT 080V140 CAVOK 07/03 Q1024",
      "taf": "TAF EDLW 070500Z 0706/0806 15007KT CAVOK"
    },
    {
      "icao": "EDNY",
      "alert": "OK",
      "vis_m": 9999,
      "fzfg": false,
      "metar_trigger": false,
      "taf_trigger": false,
      "metar": "METAR EDNY 070720Z 07003KT 020V080 CAVOK 02/02 Q1024",
      "taf": "TAF EDNY 070500Z 0706/0715 VRB02KT 6000 NSC"
    },
    {
      "icao": "EDSB",
      "alert": "OK",
      "vis_m": 9999,
      "fzfg": false,
      "metar_trigger": false,
      "taf_trigger": false,
      "metar": "METAR EDSB 070720Z 19002KT CAVOK 03/02 Q1024",
      "taf": "TAF EDSB 070500Z 0706/0806 VRB03KT CAVOK"
    },
    {
      "icao": "EETN",
      "alert": "OK",
      "vis_m": 9999,
      "fzfg": false,
      "metar_trigger": false,
      "taf_trigger": false,
      "metar": "METAR EETN 070720Z 29003KT CAVOK 01/00 Q1026 NOSIG",
      "taf": "TAF EETN 070530Z 0706/0806 28007KT CAVOK"
    },
    {
      "icao": "EFTU",
      "alert": "OK",
      "vis_m": 9999,
      "fzfg": false,
      "metar_trigger": false,
      "taf_trigger": false,
      "metar": "METAR EFTU 070720Z AUTO VRB01KT CAVOK M00/M01 Q1027",
      "taf": "TAF EFTU 070523Z 0706/0806 30003KT CAVOK"
    },
    {
      "icao": "EGBB",
      "alert": "OK",
      "vis_m": 6000,
      "fzfg": false,
      "metar_trigger": false,
      "taf_trigger": false,
      "metar": "METAR EGBB 070720Z 07004KT 030V100 6000 BKN013 OVC025 06/04 Q1027",
      "taf": "TAF EGBB 070454Z 0706/0806 08003KT 9999 BKN025"
    },
    {
      "icao": "EGGP",
      "alert": "OK",
      "vis_m": 9999,
      "fzfg": false,
      "metar_trigger": false,
      "taf_trigger": false,
      "metar": "METAR EGGP 070720Z 00000KT 9999 BKN023 05/03 Q1027",
      "taf": "TAF EGGP 070454Z 0706/0806 VRB03KT 9999 SCT030"
    },
    {
      "icao": "EGGW",
      "alert": "OK",
      "vis_m": 4500,
      "fzfg": false,
      "metar_trigger": false,
      "taf_trigger": false,
      "metar": "METAR EGGW 070720Z AUTO 06008KT 020V090 4500 BR OVC002 05/05 Q1026",
      "taf": "TAF EGGW 070501Z 0706/0806 07005KT 9999 BKN004"
    },
    {
      "icao": "EGKK",
      "alert": "OK",
      "vis_m": 3900,
      "fzfg": false,
      "metar_trigger": false,
      "taf_trigger": false,
      "metar": "METAR EGKK 070720Z 07007KT 3900 BR BKN004 07/07 Q1026",
      "taf": "TAF EGKK 070500Z 0706/0812 02005KT 9999 BKN010"
    },
    {
      "icao": "EGNM",
      "alert": "OK",
      "vis_m": 9999,
      "fzfg": false,
      "metar_trigger": false,
      "taf_trigger": false,
      "metar": "METAR EGNM 070720Z 15003KT 9999 BKN022 04/03 Q1026",
      "taf": "TAF EGNM 070526Z 0706/0806 14003KT 9999 SCT020"
    },
    {
      "icao": "EGPD",
      "alert": "OK",
      "vis_m": 9999,
      "fzfg": false,
      "metar_trigger": false,
      "taf_trigger": false,
      "metar": "METAR EGPD 070720Z COR AUTO 00000KT 9999 NCD M02/M04 Q1022 NOSIG",
      "taf": "TAF EGPD 070456Z 0706/0806 14005KT CAVOK"
    },
    {
      "icao": "EGPF",
      "alert": "OK",
      "vis_m": 9999,
      "fzfg": false,
      "metar_trigger": false,
      "taf_trigger": false,
      "metar": "METAR EGPF 070720Z AUTO VRB01KT 9999 NCD M03/M03 Q1025",
      "taf": "TAF EGPF 070456Z 0706/0806 18004KT 9999 FEW035"
    },
    {
      "icao": "EHBK",
      "alert": "OK",
      "vis_m": 9999,
      "fzfg": false,
      "metar_trigger": false,
      "taf_trigger": false,
      "metar": "METAR EHBK 070725Z AUTO 17003KT 9999 NSC 06/06 Q1024 NOSIG",
      "taf": "TAF EHBK 070459Z 0706/0812 VRB02KT CAVOK"
    },
    {
      "icao": "EHEH",
      "alert": "OK",
      "vis_m": 3400,
      "fzfg": false,
      "metar_trigger": false,
      "taf_trigger": false,
      "metar": "METAR EHEH 070725Z AUTO 01002KT 3400 R03/P3000U BR NCD 05/05 Q1025 YLO BECMG 6000 NSW RMK TREND REMOTE BY EHWX",
      "taf": "TAF EHEH 070543Z 0706/0812 35002KT 3000 BR NSC"
    },
    {
      "icao": "EKBI",
      "alert": "OK",
      "vis_m": 7000,
      "fzfg": false,
      "metar_trigger": false,
      "taf_trigger": false,
      "metar": "METAR EKBI 070720Z VRB01KT 7000 FEW071 BKN081 05/03 Q1024",
      "taf": "TAF EKBI 070527Z 0706/0806 10003KT 9999 FEW040"
    },
    {
      "icao": "EKCH",
      "alert": "OK",
      "vis_m": 7000,
      "fzfg": false,
      "metar_trigger": false,
      "taf_trigger": false,
      "metar": "METAR EKCH 070720Z AUTO 15004KT 7000 NCD 03/01 Q1025 NOSIG",
      "taf": "TAF EKCH 070527Z 0706/0806 15007KT CAVOK"
    },
    {
      "icao": "ENAL",
      "alert": "OK",
      "vis_m": 9999,
      "fzfg": false,
      "metar_trigger": false,
      "taf_trigger": false,
      "metar": "METAR ENAL 070720Z 15005KT 9999 FEW042 02/02 Q1023",
      "taf": "TAF ENAL 070500Z 0706/0715 15006KT CAVOK"
    },
    {
      "icao": "ENBR",
      "alert": "OK",
      "vis_m": 400,
      "fzfg": false,
      "metar_trigger": false,
      "taf_trigger": false,
      "metar": "METAR ENBR 070720Z 00000KT 0400 R17/1200N R35/1100U FG VV003 04/04 Q1024 TEMPO 0500 -DZ FG VV002 RMK WIND 1200FT 19006KT",
      "taf": "TAF ENBR 070500Z 0706/0806 VRB04KT 4000 -RADZ BR SCT003 OVC008"
    },
    {
      "icao": "ENGM",
      "alert": "OK",
      "vis_m": 3900,
      "fzfg": false,
      "metar_trigger": false,
      "taf_trigger": false,
      "metar": "METAR ENGM 070720Z 05003KT 020V090 3900 BR SCT002 BKN018 01/M00 Q1025 TEMPO 2000",
      "taf": "TAF ENGM 070500Z 0706/0806 36005KT 9999 BKN015"
    },
    {
      "icao": "ENHD",
      "alert": "OK",
      "vis_m": 1200,
      "fzfg": false,
      "metar_trigger": false,
      "taf_trigger": false,
      "metar": "METAR ENHD 070720Z AUTO 00000KT 1200 R13/P2000N R31/P2000N BR VV003 05/04 Q1024",
      "taf": "TAF ENHD 070500Z 0706/0715 20008KT 1500 BR BKN003"
    },
    {
      "icao": "ENTC",
      "alert": "OK",
      "vis_m": 9999,
      "fzfg": false,
      "metar_trigger": false,
      "taf_trigger": false,
      "metar": "METAR ENTC 070720Z 20006KT 150V240 9999 -RA FEW013 SCT023 BKN030 03/01 Q1013 NOSIG RMK WIND 2600FT 31031KT",
      "taf": ""
    },
    {
      "icao": "ENTO",
      "alert": "OK",
      "vis_m": 2400,
      "fzfg": false,
      "metar_trigger": false,
      "taf_trigger": false,
      "metar": "METAR ENTO 070720Z 01003KT 350V050 2400 BR SCT016 02/02 Q1025 TEMPO BKN008",
      "taf": "TAF ENTO 070500Z 0706/0806 01005KT 9999 BKN020"
    },
    {
      "icao": "ENVA",
      "alert": "OK",
      "vis_m": 9999,
      "fzfg": false,
      "metar_trigger": false,
      "taf_trigger": false,
      "metar": "METAR ENVA 070720Z 10008KT CAVOK M01/M03 Q1024 NOSIG RMK WIND 670FT 13004KT",
      "taf": "TAF ENVA 070500Z 0706/0806 12006KT 9999 FEW030"
    },
    {
      "icao": "ENZV",
      "alert": "OK",
      "vis_m": 3500,
      "fzfg": false,
      "metar_trigger": false,
      "taf_trigger": false,
      "metar": "METAR ENZV 070720Z 00000KT 3500 BR OVC017 05/04 Q1024 TEMPO 2000 -DZ BR OVC005",
      "taf": ""
    },
    {
      "icao": "EPGD",
      "alert": "OK",
      "vis_m": 9999,
      "fzfg": false,
      "metar_trigger": false,
      "taf_trigger": false,
      "metar": "METAR EPGD 070730Z 30001KT CAVOK 03/M01 Q1027",
      "taf": "TAF EPGD 070530Z 0706/0806 VRB02KT CAVOK"
    },
    {
      "icao": "EPKK",
      "alert": "OK",
      "vis_m": 9999,
      "fzfg": false,
      "metar_trigger": false,
      "taf_trigger": false,
      "metar": "METAR EPKK 070730Z VRB01KT CAVOK 04/M03 Q1028",
      "taf": "TAF EPKK 070530Z 0706/0806 06005KT CAVOK"
    },
    {
      "icao": "EPKT",
      "alert": "OK",
      "vis_m": 9999,
      "fzfg": false,
      "metar_trigger": false,
      "taf_trigger": false,
      "metar": "METAR EPKT 070730Z 08003KT CAVOK 04/M01 Q1028",
      "taf": "TAF EPKT 070530Z 0706/0806 11005KT CAVOK"
    },
    {
      "icao": "EPLB",
      "alert": "OK",
      "vis_m": 9999,
      "fzfg": false,
      "metar_trigger": false,
      "taf_trigger": false,
      "metar": "METAR EPLB 070730Z VRB01KT CAVOK 04/01 Q1029",
      "taf": "TAF EPLB 070530Z 0706/0806 VRB02KT CAVOK"
    },
    {
      "icao": "EPMO",
      "alert": "OK",
      "vis_m": 5000,
      "fzfg": false,
      "metar_trigger": false,
      "taf_trigger": false,
      "metar": "METAR EPMO 070730Z VRB01KT 5000 BR NSC 04/01 Q1029",
      "taf": "TAF EPMO 070530Z 0706/0806 VRB03KT CAVOK"
    },
    {
      "icao": "EPPO",
      "alert": "OK",
      "vis_m": 9999,
      "fzfg": false,
      "metar_trigger": false,
      "taf_trigger": false,
      "metar": "METAR EPPO 070730Z 13003KT CAVOK 06/M02 Q1027",
      "taf": "TAF EPPO 070530Z 0706/0806 12004KT CAVOK"
    },
    {
      "icao": "EPRA",
      "alert": "OK",
      "vis_m": 9999,
      "fzfg": false,
      "metar_trigger": false,
      "taf_trigger": false,
      "metar": "METAR EPRA 070730Z 19002KT CAVOK 04/M02 Q1029",
      "taf": "TAF EPRA 070530Z 0706/0715 VRB02KT CAVOK"
    },
    {
      "icao": "EPRZ",
      "alert": "OK",
      "vis_m": 8000,
      "fzfg": false,
      "metar_trigger": false,
      "taf_trigger": false,
      "metar": "METAR EPRZ 070730Z VRB02KT 8000 NSC 03/M01 Q1028",
      "taf": "TAF EPRZ 070530Z 0706/0806 VRB02KT 8000 NSC"
    },
    {
      "icao": "EPSC",
      "alert": "OK",
      "vis_m": 9999,
      "fzfg": false,
      "metar_trigger": false,
      "taf_trigger": false,
      "metar": "METAR EPSC 070730Z 12005KT CAVOK 05/M01 Q1026",
      "taf": "TAF EPSC 070530Z 0706/0806 12006KT CAVOK"
    },
    {
      "icao": "EPSY",
      "alert": "OK",
      "vis_m": 9999,
      "fzfg": false,
      "metar_trigger": false,
      "taf_trigger": false,
      "metar": "METAR EPSY 070730Z 00000KT CAVOK 02/M01 Q1029",
      "taf": "TAF EPSY 070530Z 0706/0715 VRB03KT CAVOK"
    },
    {
      "icao": "EPWA",
      "alert": "OK",
      "vis_m": 9999,
      "fzfg": false,
      "metar_trigger": false,
      "taf_trigger": false,
      "metar": "METAR EPWA 070730Z 13004KT CAVOK 04/M02 Q1029 NOSIG",
      "taf": "TAF EPWA 070530Z 0706/0806 14003KT CAVOK"
    },
    {
      "icao": "EPWR",
      "alert": "OK",
      "vis_m": 9999,
      "fzfg": false,
      "metar_trigger": false,
      "taf_trigger": false,
      "metar": "METAR EPWR 070730Z 12005KT CAVOK 04/M01 Q1027",
      "taf": "TAF EPWR 070530Z 0706/0806 13004KT CAVOK"
    },
    {
      "icao": "ESGG",
      "alert": "OK",
      "vis_m": 9999,
      "fzfg": false,
      "metar_trigger": false,
      "taf_trigger": false,
      "metar": "METAR ESGG 070720Z 16003KT CAVOK 03/M02 Q1024",
      "taf": "TAF ESGG 070530Z 0706/0806 13006KT CAVOK"
    },
    {
      "icao": "ESKN",
      "alert": "OK",
      "vis_m": 8000,
      "fzfg": false,
      "metar_trigger": false,
      "taf_trigger": false,
      "metar": "METAR ESKN 070720Z VRB02KT 8000 NSC M00/M00 Q1026",
      "taf": "TAF ESKN 070530Z 0706/0806 VRB02KT CAVOK"
    },
    {
      "icao": "ESMS",
      "alert": "OK",
      "vis_m": 9999,
      "fzfg": false,
      "metar_trigger": false,
      "taf_trigger": false,
      "metar": "METAR ESMS 070720Z 10003KT CAVOK 01/M00 Q1025",
      "taf": "TAF ESMS 070527Z 0706/0806 12003KT CAVOK"
    },
    {
      "icao": "ESSA",
      "alert": "OK",
      "vis_m": 9999,
      "fzfg": false,
      "metar_trigger": false,
      "taf_trigger": false,
      "metar": "METAR ESSA 070720Z 07007KT 9999 SCT045 02/M00 Q1026 NOSIG",
      "taf": "TAF ESSA 070530Z 0706/0806 08003KT 9999 BKN045"
    },
    {
      "icao": "EYKA",
      "alert": "OK",
      "vis_m": 9000,
      "fzfg": false,
      "metar_trigger": false,
      "taf_trigger": false,
      "metar": "METAR EYKA 070720Z VRB01KT 9000 NSC 01/00 Q1028",
      "taf": "TAF EYKA 070505Z 0706/0806 VRB04KT 5000 BR SCT005"
    },
    {
      "icao": "EYPA",
      "alert": "OK",
      "vis_m": 9999,
      "fzfg": false,
      "metar_trigger": false,
      "taf_trigger": false,
      "metar": "METAR EYPA 070720Z 16004KT CAVOK 01/M01 Q1027",
      "taf": "TAF EYPA 070504Z 0706/0806 VRB04KT 9000 NSC"
    },
    {
      "icao": "EYVI",
      "alert": "OK",
      "vis_m": 9999,
      "fzfg": false,
      "metar_trigger": false,
      "taf_trigger": false,
      "metar": "METAR EYVI 070720Z 15003KT CAVOK M01/M02 Q1028 NOSIG",
      "taf": "TAF EYVI 070502Z 0706/0806 VRB04KT 5000 BR SCT002"
    },
    {
      "icao": "GCFV",
      "alert": "OK",
      "vis_m": 9999,
      "fzfg": false,
      "metar_trigger": false,
      "taf_trigger": false,
      "metar": "METAR GCFV 070730Z 36017KT 9999 BKN040 15/07 Q1020",
      "taf": "TAF GCFV 070200Z 0703/0803 02018KT 9999 BKN030 TX20/0714Z TN14/0706Z"
    },
    {
      "icao": "GCLP",
      "alert": "OK",
      "vis_m": 9999,
      "fzfg": false,
      "metar_trigger": false,
      "taf_trigger": false,
      "metar": "METAR GCLP 070730Z 01020KT 9999 BKN038 16/08 Q1021 NOSIG",
      "taf": "TAF GCLP 070200Z 0703/0803 02020KT 9999 BKN030 TX18/0714Z TN14/0706Z"
    },
    {
      "icao": "GCTS",
      "alert": "OK",
      "vis_m": 9999,
      "fzfg": false,
      "metar_trigger": false,
      "taf_trigger": false,
      "metar": "METAR GCTS 070730Z 04020KT 350V070 9999 SCT040 16/06 Q1021 NOSIG",
      "taf": "TAF GCTS 070200Z 0703/0803 05015KT 9999 SCT040 TX22/0714Z TN14/0706Z"
    },
    {
      "icao": "GMAD",
      "alert": "OK",
      "vis_m": 8000,
      "fzfg": false,
      "metar_trigger": false,
      "taf_trigger": false,
      "metar": "METAR GMAD 070730Z 06003KT 8000 FEW010 08/06 Q1016 NOSIG",
      "taf": "TAF GMAD 070500Z 0706/0812 06008KT 8000 NSC"
    },
    {
      "icao": "GMMN",
      "alert": "OK",
      "vis_m": 9999,
      "fzfg": false,
      "metar_trigger": false,
      "taf_trigger": false,
      "metar": "METAR GMMN 070730Z 18006KT 9999 SCT026 SCT040 06/05 Q1019 NOSIG",
      "taf": "TAF GMMN 070500Z 0706/0812 20007KT 9999 SCT020 SCT040"
    },
    {
      "icao": "GMMX",
      "alert": "OK",
      "vis_m": 9999,
      "fzfg": false,
      "metar_trigger": false,
      "taf_trigger": false,
      "metar": "METAR GMMX 070730Z 05004KT 9999 FEW026 BKN040 09/06 Q1018 NOSIG",
      "taf": "TAF GMMX 070500Z 0706/0812 06006KT 8000 SCT020"
    },
    {
      "icao": "HEGN",
      "alert": "OK",
      "vis_m": 9999,
      "fzfg": false,
      "metar_trigger": false,
      "taf_trigger": false,
      "metar": "METAR HEGN 070700Z 32015KT CAVOK 19/02 Q1017 NOSIG",
      "taf": "TAF HEGN 070500Z 0706/0812 32010G24KT CAVOK"
    },
    {
      "icao": "HEMA",
      "alert": "OK",
      "vis_m": 9999,
      "fzfg": false,
      "metar_trigger": false,
      "taf_trigger": false,
      "metar": "METAR HEMA 070700Z 30014KT CAVOK 21/07 Q1016 NOSIG",
      "taf": "TAF HEMA 070500Z 0706/0812 33010G24KT 6000 NSC"
    },
    {
      "icao": "HESH",
      "alert": "OK",
      "vis_m": 9999,
      "fzfg": false,
      "metar_trigger": false,
      "taf_trigger": false,
      "metar": "METAR HESH 070700Z 34018KT CAVOK 20/03 Q1016 NOSIG",
      "taf": "TAF HESH 070500Z 0706/0812 34016KT CAVOK"
    },
    {
      "icao": "HESX",
      "alert": "OK",
      "vis_m": 9999,
      "fzfg": false,
      "metar_trigger": false,
      "taf_trigger": false,
      "metar": "METAR HESX 070700Z 35004KT CAVOK 15/10 Q1020 NOSIG",
      "taf": "TAF HESX 070501Z 0706/0812 34010KT 6000 NSC"
    },
    {
      "icao": "LATI",
      "alert": "OK",
      "vis_m": 9999,
      "fzfg": false,
      "metar_trigger": false,
      "taf_trigger": false,
      "metar": "METAR LATI 070720Z 17004KT CAVOK 10/03 Q1026 NOSIG",
      "taf": "TAF LATI 070500Z 0706/0806 VRB03KT CAVOK TX21/0713Z TN04/0706Z"
    },
    {
      "icao": "LBPD",
      "alert": "OK",
      "vis_m": 9999,
      "fzfg": false,
      "metar_trigger": false,
      "taf_trigger": false,
      "metar": "METAR LBPD 070730Z AUTO 00000KT 9999 NCD 09/03 Q1030 NOSIG",
      "taf": "TAF LBPD 070500Z 0706/0806 VRB03KT 9999 SCT060"
    },
    {
      "icao": "LBSF",
      "alert": "OK",
      "vis_m": 9999,
      "fzfg": false,
      "metar_trigger": false,
      "taf_trigger": false,
      "metar": "METAR LBSF 070730Z 12005KT CAVOK 08/01 Q1029 NOSIG",
      "taf": "TAF LBSF 070500Z 0706/0806 10010KT CAVOK"
    },
    {
      "icao": "LBWN",
      "alert": "OK",
      "vis_m": 9999,
      "fzfg": false,
      "metar_trigger": false,
      "taf_trigger": false,
      "metar": "METAR LBWN 070730Z 26003KT 9999 FEW025 07/02 Q1030 NOSIG",
      "taf": "TAF LBWN 070500Z 0706/0806 VRB03KT 9999 SCT040"
    },
    {
      "icao": "LCLK",
      "alert": "OK",
      "vis_m": 9999,
      "fzfg": false,
      "metar_trigger": false,
      "taf_trigger": false,
      "metar": "METAR LCLK 070730Z 36016KT 9999 FEW030 18/05 Q1019 NOSIG",
      "taf": "TAF LCLK 070530Z 0706/0806 34008KT 9999 FEW030"
    },
    {
      "icao": "LCPH",
      "alert": "OK",
      "vis_m": 9999,
      "fzfg": false,
      "metar_trigger": false,
      "taf_trigger": false,
      "metar": "METAR LCPH 070730Z 09005KT 9999 FEW025 FEW030TCU SCT040 17/07 Q1018 NOSIG",
      "taf": "TAF LCPH 070530Z 0706/0806 09008KT 9999 FEW030"
    },
    {
      "icao": "LEAL",
      "alert": "OK",
      "vis_m": 9999,
      "fzfg": false,
      "metar_trigger": false,
      "taf_trigger": false,
      "metar": "METAR LEAL 070730Z VRB01KT 9999 FEW030 08/08 Q1016 NOSIG",
      "taf": "TAF LEAL 070500Z 0706/0806 VRB04KT 9999 FEW020 TX15/0713Z TN09/0706Z"
    },
    {
      "icao": "LEBB",
      "alert": "OK",
      "vis_m": 9999,
      "fzfg": false,
      "metar_trigger": false,
      "taf_trigger": false,
      "metar": "METAR LEBB 070730Z VRB02KT 9999 OVC019 10/09 Q1020 NOSIG",
      "taf": "TAF LEBB 070500Z 0706/0806 31009KT 7000 BKN016 TX14/0714Z TN07/0806Z"
    },
    {
      "icao": "LEBL",
      "alert": "OK",
      "vis_m": 9000,
      "fzfg": false,
      "metar_trigger": false,
      "taf_trigger": false,
      "metar": "METAR LEBL 070730Z 12003KT 080V150 9000 FEW010 SCT050 15/12 Q1020 NOSIG",
      "taf": "TAF LEBL 070500Z 0706/0806 09014KT 9999 FEW030 SCT040 TX15/0712Z TN11/0706Z"
    },
    {
      "icao": "LECH",
      "alert": "OK",
      "vis_m": 9000,
      "fzfg": false,
      "metar_trigger": false,
      "taf_trigger": false,
      "metar": "METAR LECH 070730Z AUTO 12005KT 9000 SCT024 BKN043 BKN049 10/09 Q1017",
      "taf": ""
    },
    {
      "icao": "LEMD",
      "alert": "OK",
      "vis_m": 9999,
      "fzfg": false,
      "metar_trigger": false,
      "taf_trigger": false,
      "metar": "METAR LEMD 070730Z VRB02KT 9999 SCT050 BKN080 08/05 Q1015 NOSIG",
      "taf": "TAF LEMD 070500Z 0706/0812 02007KT 9999 SCT030 TX14/0714Z TN05/0806Z"
    },
    {
      "icao": "LEMG",
      "alert": "OK",
      "vis_m": 9999,
      "fzfg": false,
      "metar_trigger": false,
      "taf_trigger": false,
      "metar": "METAR LEMG 070730Z 30004KT 9999 BKN065 09/06 Q1016 NOSIG",
      "taf": "TAF LEMG 070500Z 0706/0806 29006KT 9999 SCT035 TX18/0714Z TN07/0707Z"
    },
    {
      "icao": "LEVC",
      "alert": "OK",
      "vis_m": 9999,
      "fzfg": false,
      "metar_trigger": false,
      "taf_trigger": false,
      "metar": "METAR LEVC 070730Z 16003KT 120V190 9999 SCT004 BKN005 11/10 Q1016 NOSIG",
      "taf": "TAF LEVC 070500Z 0706/0806 VRB04KT 9999 SCT015 TX14/0713Z TN09/0706Z"
    },
    {
      "icao": "LEXJ",
      "alert": "OK",
      "vis_m": 1800,
      "fzfg": false,
      "metar_trigger": false,
      "taf_trigger": false,
      "metar": "METAR LEXJ 070730Z 25008KT 200V280 1800 -RA BR OVC007 08/06 Q1021 RERA",
      "taf": ""
    },
    {
      "icao": "LEZG",
      "alert": "OK",
      "vis_m": 9999,
      "fzfg": false,
      "metar_trigger": false,
      "taf_trigger": false,
      "metar": "METAR LEZG 070730Z 08004KT 9999 SCT015 BKN055 11/11 Q1017 RERA NOSIG",
      "taf": "TAF LEZG 070500Z 0706/0806 11010KT 9999 SCT020 TX15/0714Z TN08/0706Z"
    },
    {
      "icao": "LEZL",
      "alert": "OK",
      "vis_m": 9999,
      "fzfg": false,
      "metar_trigger": false,
      "taf_trigger": false,
      "metar": "METAR LEZL 070730Z 18003KT 9999 BKN030 12/10 Q1016 NOSIG",
      "taf": "TAF LEZL 070200Z 0703/0803 VRB03KT 9999 SCT040 TX17/0715Z TN08/0707Z"
    },
    {
      "icao": "LFBD",
      "alert": "OK",
      "vis_m": 9999,
      "fzfg": false,
      "metar_trigger": false,
      "taf_trigger": false,
      "metar": "METAR LFBD 070730Z AUTO 07005KT 9999 FEW033 12/08 Q1020 NOSIG",
      "taf": "TAF LFBD 070500Z 0706/0812 08007KT 9999 BKN035 TX17/0715Z TN10/0805Z"
    },
    {
      "icao": "LFLL",
      "alert": "OK",
      "vis_m": 9999,
      "fzfg": false,
      "metar_trigger": false,
      "taf_trigger": false,
      "metar": "METAR LFLL 070730Z VRB01KT CAVOK 09/07 Q1023 NOSIG",
      "taf": "TAF LFLL 070500Z 0706/0812 15005KT CAVOK"
    },
    {
      "icao": "LFLS",
      "alert": "OK",
      "vis_m": 9999,
      "fzfg": false,
      "metar_trigger": false,
      "taf_trigger": false,
      "metar": "METAR LFLS 070730Z AUTO 07006KT CAVOK 09/07 Q1023 NOSIG",
      "taf": "TAF LFLS 070200Z 0703/0803 09006KT CAVOK"
    },
    {
      "icao": "LFMN",
      "alert": "OK",
      "vis_m": 9999,
      "fzfg": false,
      "metar_trigger": false,
      "taf_trigger": false,
      "metar": "METAR LFMN 070730Z 32007KT 9999 SCT086 OVC260 13/07 Q1024 NOSIG",
      "taf": "TAF LFMN 070200Z 0703/0809 02006KT 9999 BKN080"
    },
    {
      "icao": "LFOB",
      "alert": "OK",
      "vis_m": 2400,
      "fzfg": false,
      "metar_trigger": false,
      "taf_trigger": false,
      "metar": "METAR LFOB 070730Z AUTO VRB02KT 2400 BR NSC 08/08 Q1024 TEMPO VV/// BECMG 8000 BR",
      "taf": ""
    },
    {
      "icao": "LFPO",
      "alert": "OK",
      "vis_m": 5000,
      "fzfg": false,
      "metar_trigger": false,
      "taf_trigger": false,
      "metar": "METAR LFPO 070730Z AUTO 01003KT 340V040 5000 BR NSC 10/09 Q1023 NOSIG",
      "taf": ""
    },
    {
      "icao": "LFSB",
      "alert": "OK",
      "vis_m": 6000,
      "fzfg": false,
      "metar_trigger": false,
      "taf_trigger": false,
      "metar": "METAR LFSB 070730Z AUTO 00000KT 6000 NSC 05/05 Q1024 NOSIG",
      "taf": "TAF LFSB 070500Z 0706/0806 VRB03KT 7000 NSC"
    },
    {
      "icao": "LGAV",
      "alert": "OK",
      "vis_m": 9999,
      "fzfg": false,
      "metar_trigger": false,
      "taf_trigger": false,
      "metar": "METAR LGAV 070720Z 03010KT 9999 FEW025 14/08 Q1027 NOSIG",
      "taf": "TAF LGAV 070500Z 0706/0806 03010KT 9999 FEW025"
    },
    {
      "icao": "LGTS",
      "alert": "OK",
      "vis_m": 9999,
      "fzfg": false,
      "metar_trigger": false,
      "taf_trigger": false,
      "metar": "METAR LGTS 070720Z 27003KT CAVOK 11/07 Q1029 NOSIG",
      "taf": "TAF LGTS 070500Z 0706/0806 VRB03KT 9999 FEW025"
    },
    {
      "icao": "LHBP",
      "alert": "OK",
      "vis_m": 9999,
      "fzfg": false,
      "metar_trigger": false,
      "taf_trigger": false,
      "metar": "METAR LHBP 070730Z VRB02KT CAVOK 07/01 Q1028 NOSIG",
      "taf": "TAF LHBP 070515Z 0706/0806 VRB03KT CAVOK"
    },
    {
      "icao": "LHDC",
      "alert": "OK",
      "vis_m": 9999,
      "fzfg": false,
      "metar_trigger": false,
      "taf_trigger": false,
      "metar": "METAR LHDC 070715Z AUTO VRB02KT CAVOK 06/M02 Q1028 NOSIG",
      "taf": "TAF LHDC 070515Z 0706/0715 VRB03KT CAVOK"
    },
    {
      "icao": "LIBD",
      "alert": "OK",
      "vis_m": 4000,
      "fzfg": false,
      "metar_trigger": false,
      "taf_trigger": false,
      "metar": "METAR LIBD 070720Z 28002KT 4000 BR BKN025 11/11 Q1026",
      "taf": "TAF LIBD 070500Z 0706/0806 VRB05KT 6000 SCT015"
    },
    {
      "icao": "LIBG",
      "alert": "OK",
      "vis_m": 9000,
      "fzfg": false,
      "metar_trigger": false,
      "taf_trigger": false,
      "metar": "SPECI LIBG 070650Z 05006KT 9000 SCT030 13/12 Q1025",
      "taf": "TAF LIBG 070704Z 0708/0715 VRB05KT 9999 SCT030"
    },
    {
      "icao": "LIBP",
      "alert": "OK",
      "vis_m": 9999,
      "fzfg": false,
      "metar_trigger": false,
      "taf_trigger": false,
      "metar": "METAR LIBP 070720Z AUTO 22004KT 9999 NCD 09/08 Q1026",
      "taf": "TAF LIBP 070500Z 0706/0806 VRB04KT 9999 FEW020"
    },
    {
      "icao": "LIBR",
      "alert": "OK",
      "vis_m": 8000,
      "fzfg": false,
      "metar_trigger": false,
      "taf_trigger": false,
      "metar": "METAR LIBR 070720Z 32005KT 8000 FEW010 13/12 Q1026",
      "taf": "TAF LIBR 070500Z 0706/0806 VRB04KT 6000 FEW015"
    },
    {
      "icao": "LICA",
      "alert": "OK",
      "vis_m": 9999,
      "fzfg": false,
      "metar_trigger": false,
      "taf_trigger": false,
      "metar": "METAR LICA 070720Z AUTO 05010KT 9999 OVC047/// 13/10 Q1024",
      "taf": "TAF LICA 070500Z 0706/0806 08010KT 9999 SCT040"
    },
    {
      "icao": "LICC",
      "alert": "OK",
      "vis_m": 9999,
      "fzfg": false,
      "metar_trigger": false,
      "taf_trigger": false,
      "metar": "METAR LICC 070720Z 07009KT 9999 FEW005 SCT020 15/13 Q1024",
      "taf": "TAF LICC 070500Z 0706/0806 07010KT 9999 SCT030"
    },
    {
      "icao": "LICJ",
      "alert": "OK",
      "vis_m": 9999,
      "fzfg": false,
      "metar_trigger": false,
      "taf_trigger": false,
      "metar": "METAR LICJ 070720Z 19003KT CAVOK 14/11 Q1023",
      "taf": "TAF LICJ 070500Z 0706/0806 VRB05KT 9999 FEW040"
    },
    {
      "icao": "LIMC",
      "alert": "OK",
      "vis_m": 3500,
      "fzfg": false,
      "metar_trigger": false,
      "taf_trigger": false,
      "metar": "METAR LIMC 070720Z 02004KT 3500 BCFG NSC 06/05 Q1026 BECMG 5000 BR",
      "taf": "TAF LIMC 070500Z 0706/0812 VRB05KT 4000 BR NSC"
    },
    {
      "icao": "LIME",
      "alert": "OK",
      "vis_m": 9000,
      "fzfg": false,
      "metar_trigger": false,
      "taf_trigger": false,
      "metar": "METAR LIME 070720Z 01003KT 9000 NSC 07/05 Q1026 NOSIG",
      "taf": "TAF LIME 070500Z 0706/0806 VRB05KT 9000 FEW030"
    },
    {
      "icao": "LIMF",
      "alert": "OK",
      "vis_m": 2500,
      "fzfg": false,
      "metar_trigger": false,
      "taf_trigger": false,
      "metar": "METAR LIMF 070720Z 31002KT 2500 BR VCFG NSC 07/05 Q1026",
      "taf": "TAF LIMF 070500Z 0706/0806 VRB04KT 4000 BR SCT035"
    },
    {
      "icao": "LIMJ",
      "alert": "OK",
      "vis_m": 8000,
      "fzfg": false,
      "metar_trigger": false,
      "taf_trigger": false,
      "metar": "METAR LIMJ 070720Z 04013KT 8000 NSC 11/05 Q1025",
      "taf": "TAF LIMJ 070500Z 0706/0806 03015KT 8000 SCT040"
    },
    {
      "icao": "LIPE",
      "alert": "OK",
      "vis_m": 4000,
      "fzfg": false,
      "metar_trigger": false,
      "taf_trigger": false,
      "metar": "METAR LIPE 070720Z 22003KT 4000 BR NSC 07/06 Q1026",
      "taf": "TAF LIPE 070500Z 0706/0806 VRB04KT 4000 BR FEW016"
    },
    {
      "icao": "LIPH",
      "alert": "OK",
      "vis_m": 9999,
      "fzfg": false,
      "metar_trigger": false,
      "taf_trigger": false,
      "metar": "METAR LIPH 070720Z VRB01KT CAVOK 07/05 Q1026",
      "taf": "TAF LIPH 070500Z 0706/0806 VRB03KT 3000 BR NSC"
    },
    {
      "icao": "LIPQ",
      "alert": "OK",
      "vis_m": 9999,
      "fzfg": false,
      "metar_trigger": false,
      "taf_trigger": false,
      "metar": "METAR LIPQ 070720Z AUTO 12002KT 9999 NCD 08/05 Q1026",
      "taf": "TAF LIPQ 070500Z 0706/0806 VRB04KT 7000 NSC"
    },
    {
      "icao": "LIPR",
      "alert": "OK",
      "vis_m": 9999,
      "fzfg": false,
      "metar_trigger": false,
      "taf_trigger": false,
      "metar": "METAR LIPR 070720Z 19003KT CAVOK 07/06 Q1026",
      "taf": "TAF LIPR 070500Z 0706/0806 VRB06KT 3000 BR FEW020"
    },
    {
      "icao": "LIPX",
      "alert": "OK",
      "vis_m": 9999,
      "fzfg": false,
      "metar_trigger": false,
      "taf_trigger": false,
      "metar": "METAR LIPX 070720Z 29003KT CAVOK 08/05 Q1026",
      "taf": "TAF LIPX 070500Z 0706/0806 VRB05KT 7000 NSC"
    },
    {
      "icao": "LIPY",
      "alert": "OK",
      "vis_m": 6000,
      "fzfg": false,
      "metar_trigger": false,
      "taf_trigger": false,
      "metar": "METAR LIPY 070720Z AUTO 24002KT 6000 NCD 08/07 Q1026",
      "taf": "TAF LIPY 070500Z 0706/0806 VRB04KT 3000 BR FEW015"
    },
    {
      "icao": "LIPZ",
      "alert": "OK",
      "vis_m": 9999,
      "fzfg": false,
      "metar_trigger": false,
      "taf_trigger": false,
      "metar": "METAR LIPZ 070720Z 33003KT 300V030 CAVOK 08/05 Q1026 NOSIG",
      "taf": "TAF LIPZ 070500Z 0706/0812 VRB04KT 3000 BR NSC"
    },
    {
      "icao": "LIRF",
      "alert": "OK",
      "vis_m": 9999,
      "fzfg": false,
      "metar_trigger": false,
      "taf_trigger": false,
      "metar": "METAR LIRF 070720Z 05003KT CAVOK 12/09 Q1024 NOSIG",
      "taf": "TAF LIRF 070500Z 0706/0812 05006KT CAVOK"
    },
    {
      "icao": "LIRN",
      "alert": "OK",
      "vis_m": 9999,
      "fzfg": false,
      "metar_trigger": false,
      "taf_trigger": false,
      "metar": "METAR LIRN 070720Z 33003KT 290V360 CAVOK 13/08 Q1024 NOSIG",
      "taf": "TAF LIRN 070500Z 0706/0806 04006KT 9999 SCT050"
    },
    {
      "icao": "LIRP",
      "alert": "OK",
      "vis_m": 9999,
      "fzfg": false,
      "metar_trigger": false,
      "taf_trigger": false,
      "metar": "METAR LIRP 070715Z 10006KT 9999 BKN050 10/07 Q1025 NOSIG",
      "taf": "TAF LIRP 070500Z 0706/0806 11005KT 9999 FEW030 SCT060"
    },
    {
      "icao": "LIRZ",
      "alert": "OK",
      "vis_m": 9999,
      "fzfg": false,
      "metar_trigger": false,
      "taf_trigger": false,
      "metar": "METAR LIRZ 070720Z AUTO VRB01KT 9999 NCD 07/06 Q1025",
      "taf": "TAF LIRZ 070500Z 0706/0806 VRB05KT CAVOK"
    },
    {
      "icao": "LJLJ",
      "alert": "OK",
      "vis_m": 9999,
      "fzfg": false,
      "metar_trigger": false,
      "taf_trigger": false,
      "metar": "METAR LJLJ 070730Z VRB01KT CAVOK 04/02 Q1026 NOSIG",
      "taf": "TAF LJLJ 070500Z 0706/0806 28002KT CAVOK"
    },
    {
      "icao": "LKMT",
      "alert": "OK",
      "vis_m": 9999,
      "fzfg": false,
      "metar_trigger": false,
      "taf_trigger": false,
      "metar": "METAR LKMT 070730Z VRB02KT CAVOK 03/M00 Q1028 NOSIG",
      "taf": "TAF LKMT 070500Z 0706/0806 VRB02KT CAVOK"
    },
    {
      "icao": "LKPR",
      "alert": "OK",
      "vis_m": 8000,
      "fzfg": false,
      "metar_trigger": false,
      "taf_trigger": false,
      "metar": "METAR LKPR 070730Z VRB02KT 8000 NSC 04/02 Q1025 NOSIG",
      "taf": "TAF LKPR 070500Z 0706/0812 02003KT 2500 BR NSC"
    },
    {
      "icao": "LLBG",
      "alert": "OK",
      "vis_m": 9999,
      "fzfg": false,
      "metar_trigger": false,
      "taf_trigger": false,
      "metar": "METAR LLBG 070720Z 20007KT 9999 SCT035 17/09 Q1018 NOSIG",
      "taf": "TAF LLBG 070502Z 0706/0806 VRB04KT 9999 SCT035 TX19/0711Z TN08/0804Z"
    },
    {
      "icao": "LMML",
      "alert": "OK",
      "vis_m": 9999,
      "fzfg": false,
      "metar_trigger": false,
      "taf_trigger": false,
      "metar": "METAR LMML 070715Z 07011KT 9999 BKN008 SCT012 15/14 Q1022 NOSIG",
      "taf": "TAF LMML 070500Z 0706/0806 10013KT 9999 SCT013"
    },
    {
      "icao": "LOWW",
      "alert": "OK",
      "vis_m": 9999,
      "fzfg": false,
      "metar_trigger": false,
      "taf_trigger": false,
      "metar": "METAR LOWW 070720Z 11008KT CAVOK 07/01 Q1026 NOSIG",
      "taf": "TAF LOWW 070515Z 0706/0812 13012KT CAVOK TX16/0714Z TN02/0805Z"
    },
    {
      "icao": "LPFR",
      "alert": "OK",
      "vis_m": 9999,
      "fzfg": false,
      "metar_trigger": false,
      "taf_trigger": false,
      "metar": "METAR LPFR 070730Z 27006KT CAVOK 11/07 Q1016",
      "taf": "TAF LPFR 070500Z 0706/0806 30008KT CAVOK"
    },
    {
      "icao": "LPMA",
      "alert": "OK",
      "vis_m": 9999,
      "fzfg": false,
      "metar_trigger": false,
      "taf_trigger": false,
      "metar": "METAR LPMA 070730Z 01014KT 9999 BKN016 14/06 Q1025",
      "taf": "TAF LPMA 070500Z 0706/0806 02012KT 9999 SCT015"
    },
    {
      "icao": "LPPR",
      "alert": "OK",
      "vis_m": 9999,
      "fzfg": false,
      "metar_trigger": false,
      "taf_trigger": false,
      "metar": "METAR LPPR 070730Z 36005KT CAVOK 04/02 Q1019",
      "taf": "TAF LPPR 070500Z 0706/0806 01007KT CAVOK"
    },
    {
      "icao": "LPPS",
      "alert": "OK",
      "vis_m": 9999,
      "fzfg": false,
      "metar_trigger": false,
      "taf_trigger": false,
      "metar": "METAR LPPS 070730Z 04015KT 010V070 9999 FEW015 BKN030 13/07 Q1025",
      "taf": "TAF LPPS 070500Z 0706/0812 03010KT 9999 FEW015 BKN030"
    },
    {
      "icao": "LPPT",
      "alert": "OK",
      "vis_m": 9999,
      "fzfg": false,
      "metar_trigger": false,
      "taf_trigger": false,
      "metar": "METAR LPPT 070730Z 32011KT CAVOK 10/07 Q1017",
      "taf": "TAF LPPT 070500Z 0706/0812 33012KT CAVOK"
    },
    {
      "icao": "LQBK",
      "alert": "OK",
      "vis_m": 9000,
      "fzfg": false,
      "metar_trigger": false,
      "taf_trigger": false,
      "metar": "METAR LQBK 070730Z 14004KT 9000 NSC 05/02 Q1027 NOSIG",
      "taf": "TAF LQBK 070500Z 0706/0806 16005KT CAVOK TX17/0714Z TN01/0806Z"
    },
    {
      "icao": "LQSA",
      "alert": "OK",
      "vis_m": 9999,
      "fzfg": false,
      "metar_trigger": false,
      "taf_trigger": false,
      "metar": "METAR LQSA 070730Z VRB01KT CAVOK 04/01 Q1027 NOSIG",
      "taf": "TAF LQSA 070500Z 0706/0806 VRB02KT CAVOK TX18/0714Z TNM01/0706Z"
    },
    {
      "icao": "LQTZ",
      "alert": "OK",
      "vis_m": 9999,
      "fzfg": false,
      "metar_trigger": false,
      "taf_trigger": false,
      "metar": "METAR LQTZ 070730Z 00000KT CAVOK 05/03 Q1027",
      "taf": "TAF LQTZ 070500Z 0706/0806 10005KT CAVOK TX17/0714Z TNM00/0805Z"
    },
    {
      "icao": "LRBC",
      "alert": "OK",
      "vis_m": 9999,
      "fzfg": false,
      "metar_trigger": false,
      "taf_trigger": false,
      "metar": "METAR LRBC 070730Z VRB02KT CAVOK 05/00 Q1030",
      "taf": "TAF LRBC 070500Z 0706/0715 VRB04KT CAVOK"
    },
    {
      "icao": "LRBS",
      "alert": "OK",
      "vis_m": 9999,
      "fzfg": false,
      "metar_trigger": false,
      "taf_trigger": false,
      "metar": "METAR LRBS 070730Z 07005KT 020V100 CAVOK 07/01 Q1031 NOSIG",
      "taf": "TAF LRBS 070500Z 0706/0806 VRB04KT CAVOK"
    },
    {
      "icao": "LRBV",
      "alert": "OK",
      "vis_m": 9999,
      "fzfg": false,
      "metar_trigger": false,
      "taf_trigger": false,
      "metar": "METAR LRBV 070730Z VRB03KT CAVOK 03/M02 Q1029",
      "taf": "TAF LRBV 070500Z 0706/0715 VRB04KT CAVOK"
    },
    {
      "icao": "LRCL",
      "alert": "OK",
      "vis_m": 9999,
      "fzfg": false,
      "metar_trigger": false,
      "taf_trigger": false,
      "metar": "METAR LRCL 070730Z 00000KT CAVOK 03/M04 Q1029",
      "taf": "TAF LRCL 070500Z 0706/0715 VRB04KT CAVOK"
    },
    {
      "icao": "LRCV",
      "alert": "OK",
      "vis_m": 9999,
      "fzfg": false,
      "metar_trigger": false,
      "taf_trigger": false,
      "metar": "METAR LRCV 070730Z 06012KT CAVOK 08/02 Q1030",
      "taf": "TAF LRCV 070500Z 0706/0715 05010KT CAVOK"
    },
    {
      "icao": "LRIA",
      "alert": "OK",
      "vis_m": 9999,
      "fzfg": false,
      "metar_trigger": false,
      "taf_trigger": false,
      "metar": "METAR LRIA 070730Z VRB02KT CAVOK 06/M01 Q1030",
      "taf": "TAF LRIA 070500Z 0706/0715 VRB04KT CAVOK"
    },
    {
      "icao": "LROP",
      "alert": "OK",
      "vis_m": 9999,
      "fzfg": false,
      "metar_trigger": false,
      "taf_trigger": false,
      "metar": "METAR LROP 070730Z 07005KT CAVOK 06/M01 Q1031 NOSIG",
      "taf": "TAF LROP 070500Z 0706/0806 VRB04KT CAVOK"
    },
    {
      "icao": "LRSB",
      "alert": "OK",
      "vis_m": 9999,
      "fzfg": false,
      "metar_trigger": false,
      "taf_trigger": false,
      "metar": "METAR LRSB 070730Z VRB02KT CAVOK 06/M03 Q1028 NOSIG",
      "taf": "TAF LRSB 070500Z 0706/0806 VRB04KT CAVOK"
    },
    {
      "icao": "LRSM",
      "alert": "OK",
      "vis_m": 9999,
      "fzfg": false,
      "metar_trigger": false,
      "taf_trigger": false,
      "metar": "METAR LRSM 070730Z AUTO 07003KT 9999 NCD 06/00 Q1028",
      "taf": "TAF LRSM 070500Z 0706/0715 VRB04KT CAVOK"
    },
    {
      "icao": "LRSV",
      "alert": "OK",
      "vis_m": 9999,
      "fzfg": false,
      "metar_trigger": false,
      "taf_trigger": false,
      "metar": "METAR LRSV 070730Z 23004KT CAVOK 05/01 Q1028",
      "taf": "TAF LRSV 070500Z 0706/0715 VRB04KT CAVOK"
    },
    {
      "icao": "LRTM",
      "alert": "OK",
      "vis_m": 9999,
      "fzfg": false,
      "metar_trigger": false,
      "taf_trigger": false,
      "metar": "METAR LRTM 070730Z 07005KT CAVOK 03/M02 Q1029",
      "taf": "TAF LRTM 070500Z 0706/0715 09005KT CAVOK"
    },
    {
      "icao": "LRTR",
      "alert": "OK",
      "vis_m": 9999,
      "fzfg": false,
      "metar_trigger": false,
      "taf_trigger": false,
      "metar": "METAR LRTR 070730Z 11008KT CAVOK 07/02 Q1028 NOSIG",
      "taf": "TAF LRTR 070500Z 0706/0806 13007KT CAVOK"
    },
    {
      "icao": "LTAC",
      "alert": "OK",
      "vis_m": 9999,
      "fzfg": false,
      "metar_trigger": false,
      "taf_trigger": false,
      "metar": "METAR LTAC 070720Z 05012KT 020V080 9999 SCT040 03/M08 Q1024 NOSIG RMK RWY21C 05011KT 010V070 RWY03L 05011KT 020V080 RWY21R 36015KT RWY03R 04012KT RWY21L 04013KT 010V070",
      "taf": "TAF LTAC 070440Z 0706/0806 03008KT 9999 BKN033"
    },
    {
      "icao": "LTFM",
      "alert": "OK",
      "vis_m": 9999,
      "fzfg": false,
      "metar_trigger": false,
      "taf_trigger": false,
      "metar": "METAR LTFM 070720Z 32006KT CAVOK 06/03 Q1030 NOSIG RMK RWY17L 28005KT RWY34L 31006KT RWY16R 28004KT 240V310 RWY36 31006KT RWY18 29005KT",
      "taf": "TAF LTFM 070440Z 0706/0812 VRB02KT 9999 FEW010"
    },
    {
      "icao": "LUKK",
      "alert": "OK",
      "vis_m": 9999,
      "fzfg": false,
      "metar_trigger": false,
      "taf_trigger": false,
      "metar": "METAR LUKK 070730Z VRB03KT CAVOK 05/M01 Q1030 NOSIG",
      "taf": "TAF LUKK 070510Z 0706/0806 VRB05KT CAVOK"
    },
    {
      "icao": "LWOH",
      "alert": "OK",
      "vis_m": 9999,
      "fzfg": false,
      "metar_trigger": false,
      "taf_trigger": false,
      "metar": "METAR LWOH 070720Z VRB01KT CAVOK 07/02 Q1027",
      "taf": "TAF LWOH 070545Z 0706/0806 VRB02KT CAVOK"
    },
    {
      "icao": "LWSK",
      "alert": "OK",
      "vis_m": 9999,
      "fzfg": false,
      "metar_trigger": false,
      "taf_trigger": false,
      "metar": "METAR LWSK 070720Z VRB01KT CAVOK 06/02 Q1029 NOSIG",
      "taf": "TAF LWSK 070545Z 0706/0806 VRB02KT CAVOK"
    },
    {
      "icao": "LYBE",
      "alert": "OK",
      "vis_m": 9999,
      "fzfg": false,
      "metar_trigger": false,
      "taf_trigger": false,
      "metar": "METAR LYBE 070730Z 14005KT CAVOK 10/01 Q1027 NOSIG",
      "taf": "TAF LYBE 070500Z 0706/0806 07004KT CAVOK TX18/0713Z TN02/0805Z"
    },
    {
      "icao": "LYNI",
      "alert": "OK",
      "vis_m": 9999,
      "fzfg": false,
      "metar_trigger": false,
      "taf_trigger": false,
      "metar": "METAR LYNI 070730Z 21003KT 150V260 CAVOK 05/04 Q1029 NOSIG",
      "taf": "TAF LYNI 070500Z 0706/0806 13004KT CAVOK TX18/0714Z TN03/0706Z"
    },
    {
      "icao": "LYPG",
      "alert": "OK",
      "vis_m": 9999,
      "fzfg": false,
      "metar_trigger": false,
      "taf_trigger": false,
      "metar": "METAR LYPG 070730Z VRB02KT CAVOK 11/04 Q1027 NOSIG",
      "taf": "TAF LYPG 070500Z 0706/0806 16005KT CAVOK TX20/0714Z TN05/0805Z"
    },
    {
      "icao": "LZIB",
      "alert": "OK",
      "vis_m": 9999,
      "fzfg": false,
      "metar_trigger": false,
      "taf_trigger": false,
      "metar": "METAR LZIB 070730Z 04005KT CAVOK 07/01 Q1027 NOSIG",
      "taf": "TAF LZIB 070515Z 0706/0806 04005KT CAVOK"
    },
    {
      "icao": "LZKZ",
      "alert": "OK",
      "vis_m": 9999,
      "fzfg": false,
      "metar_trigger": false,
      "taf_trigger": false,
      "metar": "METAR LZKZ 070730Z VRB01KT CAVOK 06/M02 Q1028 NOSIG",
      "taf": "TAF LZKZ 070515Z 0706/0806 VRB02KT CAVOK"
    },
    {
      "icao": "LZTT",
      "alert": "OK",
      "vis_m": 9999,
      "fzfg": false,
      "metar_trigger": false,
      "taf_trigger": false,
      "metar": "METAR LZTT 070730Z VRB01KT CAVOK 03/M02 Q1027 NOSIG",
      "taf": "TAF LZTT 070515Z 0706/0806 VRB02KT CAVOK"
    },
    {
      "icao": "OEJN",
      "alert": "OK",
      "vis_m": 9999,
      "fzfg": false,
      "metar_trigger": false,
      "taf_trigger": false,
      "metar": "METAR OEJN 070700Z 33006KT 9999 SCT040 27/17 Q1013 NOSIG",
      "taf": "TAF OEJN 070500Z 0706/0812 29012KT 7000 SCT040"
    },
    {
      "icao": "OEMA",
      "alert": "OK",
      "vis_m": 9999,
      "fzfg": false,
      "metar_trigger": false,
      "taf_trigger": false,
      "metar": "METAR OEMA 070700Z VRB02KT CAVOK 25/06 Q1016 NOSIG",
      "taf": "TAF OEMA 070500Z 0706/0812 27012KT 9999 FEW040"
    },
    {
      "icao": "OJAI",
      "alert": "OK",
      "vis_m": 4000,
      "fzfg": false,
      "metar_trigger": false,
      "taf_trigger": false,
      "metar": "METAR OJAI 070700Z 30010KT 4000 HZ SCT030 11/04 Q1019 NOSIG",
      "taf": "TAF OJAI 070431Z 0706/0812 28006KT 5000 HZ SCT035"
    },
    {
      "icao": "OMAA",
      "alert": "OK",
      "vis_m": null,
      "fzfg": false,
      "metar_trigger": false,
      "taf_trigger": false,
      "metar": "",
      "taf": ""
    },
    {
      "icao": "OMDB",
      "alert": "OK",
      "vis_m": null,
      "fzfg": false,
      "metar_trigger": false,
      "taf_trigger": false,
      "metar": "",
      "taf": ""
    },
    {
      "icao": "UAAA",
      "alert": "OK",
      "vis_m": 9999,
      "fzfg": false,
      "metar_trigger": false,
      "taf_trigger": false,
      "metar": "METAR UAAA 070730Z 04003MPS 330V080 9999 FEW100 SCT200 07/02 Q1021 NOSIG",
      "taf": "TAF UAAA 070502Z 0706/0806 04003G08MPS 9999 SCT011 BKN100 TX10/0709Z TN00/0801Z"
    },
    {
      "icao": "UBBB",
      "alert": "OK",
      "vis_m": 9999,
      "fzfg": false,
      "metar_trigger": false,
      "taf_trigger": false,
      "metar": "METAR UBBB 070730Z 33018KT 9999 SCT012 BKN025 08/05 Q1022 NOSIG",
      "taf": "TAF UBBB 070504Z 0706/0806 33018G28KT 9999 BKN010 BKN030 TX09/0710Z TN05/0801Z"
    },
    {
      "icao": "UDSG",
      "alert": "OK",
      "vis_m": 9999,
      "fzfg": false,
      "metar_trigger": false,
      "taf_trigger": false,
      "metar": "METAR UDSG 070730Z 16002KT 9999 BKN040 M01/M05 Q1018 NOSIG",
      "taf": "TAF UDSG 070458Z 0706/0806 VRB06KT 9999 BKN040"
    },
    {
      "icao": "UDYZ",
      "alert": "OK",
      "vis_m": 9999,
      "fzfg": false,
      "metar_trigger": false,
      "taf_trigger": false,
      "metar": "METAR UDYZ 070730Z VRB01KT 9999 -RA FEW004 OVC016 03/01 Q1018 NOSIG",
      "taf": "TAF UDYZ 070500Z 0706/0806 22006KT 6000 BKN020"
    },
    {
      "icao": "UGKO",
      "alert": "OK",
      "vis_m": 9999,
      "fzfg": false,
      "metar_trigger": false,
      "taf_trigger": false,
      "metar": "METAR UGKO 070730Z 10005KT 9999 SCT005 BKN006 OVC014 03/02 Q1024 NOSIG",
      "taf": "TAF UGKO 070500Z 0706/0806 10006KT 9999 SCT022 BKN040 TX09/0711Z TN02/0804Z"
    }
  ]
}