{
  "ts_utc": "2026-04-02T06:15:55Z",
  "threshold_m": 150,
  "source": "stations_override.txt (ICAO list) + aviationweather.gov (METAR/TAF raw)",
  "station_count": 159,
  "stations": [
    {
      "icao": "BIKF",
      "alert": "OK",
      "vis_m": 7000,
      "fzfg": false,
      "metar_trigger": false,
      "taf_trigger": false,
      "metar": "METAR BIKF 020600Z 12033G54KT 7000 -RA OVC018 03/01 Q0995",
      "taf": ""
    },
    {
      "icao": "BKPR",
      "alert": "OK",
      "vis_m": 9999,
      "fzfg": false,
      "metar_trigger": false,
      "taf_trigger": false,
      "metar": "METAR BKPR 020600Z 01017KT 9999 -RA SCT015 BKN030 07/06 Q0998 NOSIG",
      "taf": "TAF BKPR 020530Z 0206/0306 01018KT 9999 SCT015 BKN030"
    },
    {
      "icao": "EBCI",
      "alert": "OK",
      "vis_m": 8000,
      "fzfg": false,
      "metar_trigger": false,
      "taf_trigger": false,
      "metar": "METAR EBCI 020550Z 23007KT 8000 -RADZ FEW008 BKN015 06/03 Q1017 TEMPO 3500 -RADZ BR BKN004",
      "taf": "TAF EBCI 020503Z 0206/0312 26005KT 8000 SCT007 BKN025 BKN040"
    },
    {
      "icao": "EDDB",
      "alert": "OK",
      "vis_m": 300,
      "fzfg": true,
      "metar_trigger": false,
      "taf_trigger": false,
      "metar": "METAR EDDB 020550Z AUTO VRB02KT 0300 0250 R24R/P2000N R24L/0400N FZFG VV004 M01/M02 Q1018 BECMG 3000 BR NSC",
      "taf": "TAF EDDB 020500Z 0206/0306 23004KT 0300 FZFG BKN001"
    },
    {
      "icao": "EDDH",
      "alert": "OK",
      "vis_m": 9999,
      "fzfg": false,
      "metar_trigger": false,
      "taf_trigger": false,
      "metar": "METAR EDDH 020550Z AUTO 16005KT CAVOK 03/01 Q1016 NOSIG",
      "taf": "TAF EDDH 020500Z 0206/0312 18004KT CAVOK"
    },
    {
      "icao": "EDDK",
      "alert": "OK",
      "vis_m": 9999,
      "fzfg": false,
      "metar_trigger": false,
      "taf_trigger": false,
      "metar": "METAR EDDK 020550Z AUTO VRB02KT CAVOK 02/M02 Q1017 NOSIG",
      "taf": "TAF EDDK 020500Z 0206/0312 12004KT CAVOK"
    },
    {
      "icao": "EDDN",
      "alert": "OK",
      "vis_m": 9999,
      "fzfg": false,
      "metar_trigger": false,
      "taf_trigger": false,
      "metar": "METAR EDDN 020550Z AUTO VRB01KT CAVOK M02/M02 Q1017 NOSIG",
      "taf": "TAF EDDN 020500Z 0206/0306 VRB02KT CAVOK"
    },
    {
      "icao": "EDDS",
      "alert": "OK",
      "vis_m": 9999,
      "fzfg": false,
      "metar_trigger": false,
      "taf_trigger": false,
      "metar": "METAR EDDS 020550Z AUTO VRB01KT CAVOK M00/M02 Q1016 NOSIG",
      "taf": "TAF EDDS 020500Z 0206/0306 VRB01KT CAVOK"
    },
    {
      "icao": "EDFH",
      "alert": "OK",
      "vis_m": 9999,
      "fzfg": false,
      "metar_trigger": false,
      "taf_trigger": false,
      "metar": "METAR EDFH 020550Z 22004KT CAVOK 02/M02 Q1017",
      "taf": "TAF EDFH 020500Z 0206/0306 17004KT CAVOK"
    },
    {
      "icao": "EDJA",
      "alert": "OK",
      "vis_m": 9999,
      "fzfg": false,
      "metar_trigger": false,
      "taf_trigger": false,
      "metar": "METAR EDJA 020550Z 04003KT 010V070 CAVOK M01/M02 Q1015",
      "taf": "TAF EDJA 020500Z 0206/0215 05005KT 9999 FEW045"
    },
    {
      "icao": "EDLW",
      "alert": "OK",
      "vis_m": 9999,
      "fzfg": false,
      "metar_trigger": false,
      "taf_trigger": false,
      "metar": "METAR EDLW 020550Z 17009KT CAVOK 03/M01 Q1016",
      "taf": "TAF EDLW 020500Z 0206/0306 18008KT CAVOK"
    },
    {
      "icao": "EDNY",
      "alert": "OK",
      "vis_m": 9999,
      "fzfg": false,
      "metar_trigger": false,
      "taf_trigger": false,
      "metar": "METAR EDNY 020550Z 07004KT CAVOK 00/M01 Q1016",
      "taf": "TAF EDNY 020500Z 0206/0215 04006KT CAVOK"
    },
    {
      "icao": "EDSB",
      "alert": "OK",
      "vis_m": 9999,
      "fzfg": false,
      "metar_trigger": false,
      "taf_trigger": false,
      "metar": "METAR EDSB 020550Z 05003KT CAVOK M00/M02 Q1018",
      "taf": "TAF EDSB 020500Z 0206/0306 VRB02KT CAVOK"
    },
    {
      "icao": "EETN",
      "alert": "OK",
      "vis_m": 9999,
      "fzfg": false,
      "metar_trigger": false,
      "taf_trigger": false,
      "metar": "METAR EETN 020550Z 19010KT CAVOK 01/M00 Q1014 NOSIG",
      "taf": "TAF EETN 020530Z 0206/0306 19010KT 9999 SCT003"
    },
    {
      "icao": "EFTU",
      "alert": "OK",
      "vis_m": 9999,
      "fzfg": false,
      "metar_trigger": false,
      "taf_trigger": false,
      "metar": "METAR EFTU 020550Z AUTO 19007KT 9999 BKN045 04/03 Q1010",
      "taf": "TAF EFTU 020532Z 0206/0306 18005KT 9999 BKN045"
    },
    {
      "icao": "EGBB",
      "alert": "OK",
      "vis_m": 9999,
      "fzfg": false,
      "metar_trigger": false,
      "taf_trigger": false,
      "metar": "METAR EGBB 020550Z 34007KT 9999 OVC036 05/04 Q1021",
      "taf": "TAF EGBB 020457Z 0206/0306 33010KT 9999 SCT025"
    },
    {
      "icao": "EGGP",
      "alert": "OK",
      "vis_m": 9999,
      "fzfg": false,
      "metar_trigger": false,
      "taf_trigger": false,
      "metar": "METAR EGGP 020550Z 05006KT 9999 BKN031 05/02 Q1022",
      "taf": "TAF EGGP 020504Z 0206/0306 VRB03KT 9999 FEW015 SCT030"
    },
    {
      "icao": "EGGW",
      "alert": "OK",
      "vis_m": 9999,
      "fzfg": false,
      "metar_trigger": false,
      "taf_trigger": false,
      "metar": "METAR EGGW 020550Z AUTO 33011KT 300V010 9999 BKN012 BKN029 04/02 Q1020",
      "taf": "TAF EGGW 020458Z 0206/0306 33008KT 9999 SCT025"
    },
    {
      "icao": "EGKK",
      "alert": "OK",
      "vis_m": 9999,
      "fzfg": false,
      "metar_trigger": false,
      "taf_trigger": false,
      "metar": "METAR EGKK 020550Z 32008KT 290V350 CAVOK 06/01 Q1020",
      "taf": "TAF EGKK 020455Z 0206/0312 34009KT 9999 FEW030"
    },
    {
      "icao": "EGNM",
      "alert": "OK",
      "vis_m": 9999,
      "fzfg": false,
      "metar_trigger": false,
      "taf_trigger": false,
      "metar": "METAR EGNM 020550Z 32006KT 9999 FEW021 01/M01 Q1021",
      "taf": "TAF EGNM 020503Z 0206/0306 34004KT 9999 FEW015 SCT030"
    },
    {
      "icao": "EGPD",
      "alert": "OK",
      "vis_m": 9999,
      "fzfg": false,
      "metar_trigger": false,
      "taf_trigger": false,
      "metar": "METAR EGPD 020550Z COR AUTO 28009KT 9999 NCD 03/M01 Q1020 NOSIG",
      "taf": "TAF EGPD 020456Z 0206/0306 28007KT 9999 FEW040"
    },
    {
      "icao": "EGPF",
      "alert": "OK",
      "vis_m": 9999,
      "fzfg": false,
      "metar_trigger": false,
      "taf_trigger": false,
      "metar": "METAR EGPF 020550Z AUTO 00000KT 9999 NCD M02/M02 Q1022",
      "taf": "TAF EGPF 020449Z 0206/0306 VRB02KT 9999 FEW040"
    },
    {
      "icao": "EHBK",
      "alert": "OK",
      "vis_m": 9999,
      "fzfg": false,
      "metar_trigger": false,
      "taf_trigger": false,
      "metar": "METAR EHBK 020555Z AUTO 20009KT 9999 NSC 05/00 Q1017 NOSIG",
      "taf": "TAF EHBK 020514Z 0206/0312 20007KT CAVOK"
    },
    {
      "icao": "EHEH",
      "alert": "OK",
      "vis_m": 9000,
      "fzfg": false,
      "metar_trigger": false,
      "taf_trigger": false,
      "metar": "METAR EHEH 020555Z AUTO 21003KT 140V250 9000 BR OVC007 07/05 Q1016 GRN TEMPO 4500 BR SCT005 BKN007",
      "taf": "TAF EHEH 020513Z 0206/0312 19004KT 9999 SCT008"
    },
    {
      "icao": "EKBI",
      "alert": "OK",
      "vis_m": 9999,
      "fzfg": false,
      "metar_trigger": false,
      "taf_trigger": false,
      "metar": "METAR EKBI 020550Z AUTO 20006KT 9999 -RA OVC010/// 06/05 Q1013",
      "taf": "TAF EKBI 020527Z 0206/0306 19006KT 9999 BKN012"
    },
    {
      "icao": "EKCH",
      "alert": "OK",
      "vis_m": 4000,
      "fzfg": false,
      "metar_trigger": false,
      "taf_trigger": false,
      "metar": "METAR EKCH 020555Z 20006KT 4000 BR NSC 04/03 Q1015 BECMG 9999",
      "taf": ""
    },
    {
      "icao": "ENAL",
      "alert": "OK",
      "vis_m": 9999,
      "fzfg": false,
      "metar_trigger": false,
      "taf_trigger": false,
      "metar": "METAR ENAL 020550Z 19005KT 9999 FEW035 M01/M03 Q1015",
      "taf": "TAF ENAL 020500Z 0206/0215 34008KT 9999 FEW015 BKN030"
    },
    {
      "icao": "ENBR",
      "alert": "OK",
      "vis_m": 9999,
      "fzfg": false,
      "metar_trigger": false,
      "taf_trigger": false,
      "metar": "METAR ENBR 020550Z 34014KT CAVOK 01/M02 Q1012 NOSIG RMK WIND 1200FT 34024KT",
      "taf": "TAF ENBR 020500Z 0206/0306 34012KT CAVOK"
    },
    {
      "icao": "ENGM",
      "alert": "OK",
      "vis_m": 9999,
      "fzfg": false,
      "metar_trigger": false,
      "taf_trigger": false,
      "metar": "METAR ENGM 020550Z 21005KT 9999 -RA BKN007 05/03 Q1008 NOSIG",
      "taf": "TAF ENGM 020500Z 0206/0306 20008KT 9999 BKN008"
    },
    {
      "icao": "ENHD",
      "alert": "OK",
      "vis_m": 9999,
      "fzfg": false,
      "metar_trigger": false,
      "taf_trigger": false,
      "metar": "METAR ENHD 020550Z AUTO 35030G41KT 9999 NCD 05/M00 Q1010",
      "taf": "TAF ENHD 020500Z 0206/0215 35022KT 9999 FEW015 SCT040"
    },
    {
      "icao": "ENTC",
      "alert": "OK",
      "vis_m": 6000,
      "fzfg": false,
      "metar_trigger": false,
      "taf_trigger": false,
      "metar": "METAR ENTC 020550Z 20026KT 6000 -SN BKN021 01/M01 Q0994 TEMPO 21025G35KT 1500 -SHSNRA BKN009 SCT020CB RMK WIND 2600FT 19029G40KT",
      "taf": "TAF ENTC 020500Z 0206/0306 21025KT 9999 -SHSNRA SCT015 BKN030"
    },
    {
      "icao": "ENTO",
      "alert": "OK",
      "vis_m": 1100,
      "fzfg": false,
      "metar_trigger": false,
      "taf_trigger": false,
      "metar": "METAR ENTO 020550Z 21010KT 1100 R18/P2000D R36/P2000N BR VV003 05/05 Q1009 TEMPO 2000 -RADZ BR",
      "taf": ""
    },
    {
      "icao": "ENVA",
      "alert": "OK",
      "vis_m": 9999,
      "fzfg": false,
      "metar_trigger": false,
      "taf_trigger": false,
      "metar": "METAR ENVA 020550Z 23011KT 9999 VCSH FEW018 SCT037 BKN046 01/M01 Q1013 TEMPO 4000 SHRASN SCT020CB RMK WIND 670FT 23014KT",
      "taf": "TAF ENVA 020500Z 0206/0306 24005KT 8000 -RASN SCT007 BKN016"
    },
    {
      "icao": "ENZV",
      "alert": "OK",
      "vis_m": 9999,
      "fzfg": false,
      "metar_trigger": false,
      "taf_trigger": false,
      "metar": "METAR ENZV 020550Z 35014KT 9999 VCSH FEW017 SCT023 BKN028 03/M01 Q1010 NOSIG",
      "taf": "TAF ENZV 020500Z 0206/0306 33012KT 9999 BKN020"
    },
    {
      "icao": "EPGD",
      "alert": "OK",
      "vis_m": 9999,
      "fzfg": false,
      "metar_trigger": false,
      "taf_trigger": false,
      "metar": "METAR EPGD 020600Z 27002KT CAVOK M00/M01 Q1017",
      "taf": "TAF EPGD 020530Z 0206/0306 VRB04KT CAVOK"
    },
    {
      "icao": "EPKK",
      "alert": "OK",
      "vis_m": 8000,
      "fzfg": false,
      "metar_trigger": false,
      "taf_trigger": false,
      "metar": "METAR EPKK 020600Z 22003KT 8000 FEW038 03/02 Q1014",
      "taf": "TAF EPKK 020530Z 0206/0306 VRB02KT 8000 NSC"
    },
    {
      "icao": "EPKT",
      "alert": "OK",
      "vis_m": 9999,
      "fzfg": false,
      "metar_trigger": false,
      "taf_trigger": false,
      "metar": "METAR EPKT 020600Z 01005KT CAVOK 04/M01 Q1014",
      "taf": "TAF EPKT 020530Z 0206/0306 02004KT CAVOK"
    },
    {
      "icao": "EPLB",
      "alert": "OK",
      "vis_m": 9999,
      "fzfg": false,
      "metar_trigger": false,
      "taf_trigger": false,
      "metar": "METAR EPLB 020600Z 36006KT 320V030 CAVOK 07/01 Q1013",
      "taf": "TAF EPLB 020530Z 0206/0306 36006KT 9999 FEW030"
    },
    {
      "icao": "EPMO",
      "alert": "OK",
      "vis_m": 9999,
      "fzfg": false,
      "metar_trigger": false,
      "taf_trigger": false,
      "metar": "METAR EPMO 020600Z 02005KT CAVOK 03/M01 Q1016",
      "taf": "TAF EPMO 020530Z 0206/0306 01006KT CAVOK"
    },
    {
      "icao": "EPPO",
      "alert": "OK",
      "vis_m": 9999,
      "fzfg": false,
      "metar_trigger": false,
      "taf_trigger": false,
      "metar": "METAR EPPO 020600Z 10001KT CAVOK 04/M00 Q1017",
      "taf": "TAF EPPO 020530Z 0206/0306 34003KT CAVOK"
    },
    {
      "icao": "EPRA",
      "alert": "OK",
      "vis_m": 9999,
      "fzfg": false,
      "metar_trigger": false,
      "taf_trigger": false,
      "metar": "METAR EPRA 020600Z 36005KT 9999 SCT041 05/M01 Q1014",
      "taf": "TAF EPRA 020530Z 0206/0215 36008KT CAVOK"
    },
    {
      "icao": "EPRZ",
      "alert": "OK",
      "vis_m": 9999,
      "fzfg": false,
      "metar_trigger": false,
      "taf_trigger": false,
      "metar": "METAR EPRZ 020600Z 33004KT CAVOK 06/02 Q1012",
      "taf": "TAF EPRZ 020530Z 0206/0306 32005KT 9999 BKN043"
    },
    {
      "icao": "EPSC",
      "alert": "OK",
      "vis_m": 9999,
      "fzfg": false,
      "metar_trigger": false,
      "taf_trigger": false,
      "metar": "METAR EPSC 020600Z 13004KT 9999 SCT048 01/00 Q1017",
      "taf": "TAF EPSC 020530Z 0206/0306 VRB02KT CAVOK"
    },
    {
      "icao": "EPSY",
      "alert": "OK",
      "vis_m": 9999,
      "fzfg": false,
      "metar_trigger": false,
      "taf_trigger": false,
      "metar": "METAR EPSY 020600Z 05003KT CAVOK 01/M00 Q1016",
      "taf": "TAF EPSY 020530Z 0206/0215 01006KT CAVOK"
    },
    {
      "icao": "EPWA",
      "alert": "OK",
      "vis_m": 9999,
      "fzfg": false,
      "metar_trigger": false,
      "taf_trigger": false,
      "metar": "METAR EPWA 020600Z 02006KT 330V060 CAVOK 05/M02 Q1015 NOSIG",
      "taf": "TAF EPWA 020530Z 0206/0306 01006KT CAVOK"
    },
    {
      "icao": "EPWR",
      "alert": "OK",
      "vis_m": 9999,
      "fzfg": false,
      "metar_trigger": false,
      "taf_trigger": false,
      "metar": "METAR EPWR 020600Z 28005KT CAVOK 02/00 Q1017",
      "taf": "TAF EPWR 020530Z 0206/0306 28005KT CAVOK"
    },
    {
      "icao": "ESGG",
      "alert": "OK",
      "vis_m": 9999,
      "fzfg": false,
      "metar_trigger": false,
      "taf_trigger": false,
      "metar": "METAR ESGG 020550Z 19010KT 9999 OVC008 05/04 Q1012",
      "taf": "TAF ESGG 020530Z 0206/0306 20009KT 9999 BKN008"
    },
    {
      "icao": "ESKN",
      "alert": "OK",
      "vis_m": 9999,
      "fzfg": false,
      "metar_trigger": false,
      "taf_trigger": false,
      "metar": "METAR ESKN 020550Z 25008KT 9999 SCT049 BKN062 08/06 Q1012",
      "taf": "TAF ESKN 020530Z 0206/0306 23008KT CAVOK"
    },
    {
      "icao": "ESMS",
      "alert": "OK",
      "vis_m": 9999,
      "fzfg": false,
      "metar_trigger": false,
      "taf_trigger": false,
      "metar": "METAR ESMS 020550Z 18004KT CAVOK 01/01 Q1015",
      "taf": "TAF ESMS 020527Z 0206/0306 23007KT CAVOK"
    },
    {
      "icao": "ESSA",
      "alert": "OK",
      "vis_m": 9999,
      "fzfg": false,
      "metar_trigger": false,
      "taf_trigger": false,
      "metar": "METAR ESSA 020550Z 22008KT 9999 BKN012 OVC061 07/05 Q1011 NOSIG",
      "taf": "TAF ESSA 020530Z 0206/0306 22008KT 9999 BKN025"
    },
    {
      "icao": "EYKA",
      "alert": "OK",
      "vis_m": 9999,
      "fzfg": false,
      "metar_trigger": false,
      "taf_trigger": false,
      "metar": "METAR EYKA 020550Z 35004KT CAVOK 02/M02 Q1016",
      "taf": "TAF EYKA 020500Z 0206/0306 VRB04KT 9000 NSC"
    },
    {
      "icao": "EYPA",
      "alert": "OK",
      "vis_m": 600,
      "fzfg": true,
      "metar_trigger": false,
      "taf_trigger": false,
      "metar": "METAR EYPA 020550Z 18004KT 0600 R19/0650N FZFG VV002 M02/M02 Q1017",
      "taf": "TAF EYPA 020500Z 0206/0306 VRB05KT 5000 BR BKN002"
    },
    {
      "icao": "EYVI",
      "alert": "OK",
      "vis_m": 9999,
      "fzfg": false,
      "metar_trigger": false,
      "taf_trigger": false,
      "metar": "METAR EYVI 020550Z 36006KT CAVOK 04/M00 Q1015 NOSIG",
      "taf": "TAF EYVI 020500Z 0206/0306 VRB04KT 9000 NSC"
    },
    {
      "icao": "GCFV",
      "alert": "OK",
      "vis_m": 9999,
      "fzfg": false,
      "metar_trigger": false,
      "taf_trigger": false,
      "metar": "METAR GCFV 020600Z 30004KT CAVOK 13/10 Q1018",
      "taf": "TAF GCFV 020200Z 0203/0303 36007KT CAVOK TX24/0214Z TN16/0206Z"
    },
    {
      "icao": "GCLP",
      "alert": "OK",
      "vis_m": 9999,
      "fzfg": false,
      "metar_trigger": false,
      "taf_trigger": false,
      "metar": "METAR GCLP 020600Z 01014KT CAVOK 18/10 Q1018 NOSIG",
      "taf": "TAF GCLP 020200Z 0203/0303 36012KT CAVOK TX24/0214Z TN18/0206Z"
    },
    {
      "icao": "GCTS",
      "alert": "OK",
      "vis_m": 9999,
      "fzfg": false,
      "metar_trigger": false,
      "taf_trigger": false,
      "metar": "METAR GCTS 020600Z 08018KT CAVOK 19/06 Q1017 WS R07 NOSIG",
      "taf": "TAF GCTS 020200Z 0203/0303 05014KT CAVOK TX25/0214Z TN17/0206Z"
    },
    {
      "icao": "GMAD",
      "alert": "OK",
      "vis_m": 8000,
      "fzfg": false,
      "metar_trigger": false,
      "taf_trigger": false,
      "metar": "METAR GMAD 020600Z 06003KT 8000 FEW020 09/09 Q1014 NOSIG",
      "taf": "TAF GMAD 020500Z 0206/0312 07004KT 6000 SCT010"
    },
    {
      "icao": "GMMN",
      "alert": "OK",
      "vis_m": 4000,
      "fzfg": false,
      "metar_trigger": false,
      "taf_trigger": false,
      "metar": "SPECI GMMN 020609Z 13004KT 110V180 4000 BR BKN005 09/08 Q1018 NOSIG",
      "taf": "TAF GMMN 020500Z 0206/0312 15004KT 8000 BKN006"
    },
    {
      "icao": "GMMX",
      "alert": "OK",
      "vis_m": 9999,
      "fzfg": false,
      "metar_trigger": false,
      "taf_trigger": false,
      "metar": "METAR GMMX 020600Z 16003KT CAVOK 11/08 Q1017 NOSIG",
      "taf": "TAF GMMX 020500Z 0206/0312 06006KT CAVOK"
    },
    {
      "icao": "HEGN",
      "alert": "OK",
      "vis_m": 9999,
      "fzfg": false,
      "metar_trigger": false,
      "taf_trigger": false,
      "metar": "METAR HEGN 020500Z 29008KT 9999 SCT020 BKN025 24/07 Q1008 NOSIG",
      "taf": "TAF HEGN 020500Z 0206/0312 16006G16KT 9999 BKN020"
    },
    {
      "icao": "HEMA",
      "alert": "OK",
      "vis_m": null,
      "fzfg": false,
      "metar_trigger": false,
      "taf_trigger": false,
      "metar": "",
      "taf": "TAF HEMA 020500Z 0206/0312 08006G18KT 9999 BKN020"
    },
    {
      "icao": "HESH",
      "alert": "OK",
      "vis_m": 9999,
      "fzfg": false,
      "metar_trigger": false,
      "taf_trigger": false,
      "metar": "METAR HESH 020500Z 35012KT CAVOK 25/10 Q1008 NOSIG",
      "taf": "TAF HESH 020500Z 0206/0312 12006G16KT 9999 BKN020"
    },
    {
      "icao": "HESX",
      "alert": "OK",
      "vis_m": 9999,
      "fzfg": false,
      "metar_trigger": false,
      "taf_trigger": false,
      "metar": "METAR HESX 020500Z 23012KT CAVOK 21/16 Q1006 NOSIG",
      "taf": "TAF HESX 020500Z 0206/0312 28010KT 9999 SCT025 BKN070"
    },
    {
      "icao": "LATI",
      "alert": "OK",
      "vis_m": 9999,
      "fzfg": false,
      "metar_trigger": false,
      "taf_trigger": false,
      "metar": "METAR LATI 020550Z 32008KT 9999 FEW048 OVC072 13/06 Q0993 NOSIG",
      "taf": "TAF LATI 020500Z 0206/0306 35010KT 9999 SCT050 BKN070 TX16/0211Z TN06/0304Z"
    },
    {
      "icao": "LBPD",
      "alert": "OK",
      "vis_m": 9999,
      "fzfg": false,
      "metar_trigger": false,
      "taf_trigger": false,
      "metar": "METAR LBPD 020600Z AUTO 15007KT 9999 -RA FEW013/// SCT023/// OVC027/// 08/08 Q0999 NOSIG",
      "taf": "TAF LBPD 020500Z 0206/0306 11010KT 6000 -RA SCT015 BKN020 OVC030"
    },
    {
      "icao": "LBSF",
      "alert": "OK",
      "vis_m": 9999,
      "fzfg": false,
      "metar_trigger": false,
      "taf_trigger": false,
      "metar": "METAR LBSF 020600Z 07003KT 050V110 9999 SCT023 BKN028 OVC058 06/05 Q0999 TEMPO 5000 RA",
      "taf": "TAF LBSF 020500Z 0206/0306 09010KT 6000 -RA SCT015 BKN025 OVC040"
    },
    {
      "icao": "LBWN",
      "alert": "OK",
      "vis_m": 9000,
      "fzfg": false,
      "metar_trigger": false,
      "taf_trigger": false,
      "metar": "METAR LBWN 020600Z 03017KT 9000 -RA FEW028 OVC032 09/09 Q1000 TEMPO 5000 RA",
      "taf": "TAF LBWN 020500Z 0206/0306 05014KT 9999 BKN013 BKN040"
    },
    {
      "icao": "LCLK",
      "alert": "OK",
      "vis_m": 8000,
      "fzfg": false,
      "metar_trigger": false,
      "taf_trigger": false,
      "metar": "METAR LCLK 020600Z 08005KT 010V110 8000 FEW003 SCT005 BKN020 17/17 Q1005 NOSIG RMK WINDSHEAR IN APROACH",
      "taf": ""
    },
    {
      "icao": "LCPH",
      "alert": "OK",
      "vis_m": 9999,
      "fzfg": false,
      "metar_trigger": false,
      "taf_trigger": false,
      "metar": "METAR LCPH 020600Z 14009KT 090V160 9999 SCT025 BKN030 20/16 Q1004 NOSIG",
      "taf": ""
    },
    {
      "icao": "LEAL",
      "alert": "OK",
      "vis_m": 9999,
      "fzfg": false,
      "metar_trigger": false,
      "taf_trigger": false,
      "metar": "METAR LEAL 020600Z 30006KT 9999 FEW030 13/01 Q1014 NOSIG",
      "taf": "TAF LEAL 020500Z 0206/0306 30012KT CAVOK TX21/0212Z TN13/0305Z"
    },
    {
      "icao": "LEBB",
      "alert": "OK",
      "vis_m": 4000,
      "fzfg": false,
      "metar_trigger": false,
      "taf_trigger": false,
      "metar": "SPECI LEBB 020605Z VRB02KT 4000 -RA BR FEW006 BKN011 BKN021 10/09 Q1024 TEMPO RA",
      "taf": "TAF LEBB 020500Z 0206/0306 32009KT 9999 FEW020 BKN030 TX13/0214Z TN08/0306Z"
    },
    {
      "icao": "LEBL",
      "alert": "OK",
      "vis_m": 9999,
      "fzfg": false,
      "metar_trigger": false,
      "taf_trigger": false,
      "metar": "METAR LEBL 020600Z 28004KT 240V340 9999 SCT032 10/07 Q1012 NOSIG",
      "taf": "TAF LEBL 020500Z 0206/0306 32006KT 9999 FEW020 SCT030 TX21/0213Z TN09/0206Z"
    },
    {
      "icao": "LECH",
      "alert": "OK",
      "vis_m": 9999,
      "fzfg": false,
      "metar_trigger": false,
      "taf_trigger": false,
      "metar": "METAR LECH 020600Z AUTO 01017G38KT 330V060 CAVOK 12/01 Q1015",
      "taf": "TAF LECH 020500Z 0206/0306 34020KT CAVOK TX19/0213Z TN11/0305Z"
    },
    {
      "icao": "LEMD",
      "alert": "OK",
      "vis_m": 9999,
      "fzfg": false,
      "metar_trigger": false,
      "taf_trigger": false,
      "metar": "METAR LEMD 020600Z 36011KT CAVOK 08/M00 Q1020 NOSIG",
      "taf": "TAF LEMD 020500Z 0206/0312 01010KT CAVOK TX18/0215Z TN02/0306Z"
    },
    {
      "icao": "LEMG",
      "alert": "OK",
      "vis_m": 9999,
      "fzfg": false,
      "metar_trigger": false,
      "taf_trigger": false,
      "metar": "METAR LEMG 020600Z 28013G23KT 9999 FEW080 15/03 Q1016 NOSIG",
      "taf": "TAF LEMG 020500Z 0206/0306 30010KT CAVOK TX24/0213Z TN09/0305Z"
    },
    {
      "icao": "LEVC",
      "alert": "OK",
      "vis_m": 9999,
      "fzfg": false,
      "metar_trigger": false,
      "taf_trigger": false,
      "metar": "METAR LEVC 020600Z 33019KT 300V360 CAVOK 14/00 Q1014 NOSIG",
      "taf": "TAF LEVC 020500Z 0206/0306 31015KT CAVOK TX23/0214Z TN15/0305Z"
    },
    {
      "icao": "LEXJ",
      "alert": "OK",
      "vis_m": 9000,
      "fzfg": false,
      "metar_trigger": false,
      "taf_trigger": false,
      "metar": "METAR LEXJ 020600Z 28006KT 9000 SCT008 BKN025 10/09 Q1025 RERA",
      "taf": "TAF LEXJ 020200Z 0203/0303 32009KT 9999 SCT010 BKN020 TX14/0215Z TN09/0303Z"
    },
    {
      "icao": "LEZG",
      "alert": "OK",
      "vis_m": 9999,
      "fzfg": false,
      "metar_trigger": false,
      "taf_trigger": false,
      "metar": "METAR LEZG 020600Z 28013KT 9999 FEW050 10/05 Q1018 NOSIG",
      "taf": "TAF LEZG 020500Z 0206/0306 29020KT 9999 SCT050 TX17/0214Z TN10/0305Z"
    },
    {
      "icao": "LEZL",
      "alert": "OK",
      "vis_m": 9999,
      "fzfg": false,
      "metar_trigger": false,
      "taf_trigger": false,
      "metar": "METAR LEZL 020600Z 31003KT 280V350 CAVOK 10/06 Q1019 NOSIG",
      "taf": "TAF LEZL 020200Z 0203/0303 VRB03KT CAVOK TX26/0215Z TN09/0207Z"
    },
    {
      "icao": "LFBD",
      "alert": "OK",
      "vis_m": 9999,
      "fzfg": false,
      "metar_trigger": false,
      "taf_trigger": false,
      "metar": "METAR LFBD 020600Z AUTO 33005KT 310V050 CAVOK 09/05 Q1021 TEMPO 4000 -SHRA BKN015TCU",
      "taf": "TAF LFBD 020500Z 0206/0312 33005KT CAVOK TX16/0312Z TN07/0305Z"
    },
    {
      "icao": "LFLL",
      "alert": "OK",
      "vis_m": 9999,
      "fzfg": false,
      "metar_trigger": false,
      "taf_trigger": false,
      "metar": "METAR LFLL 020600Z 34009KT 9999 FEW048 03/M00 Q1015 NOSIG",
      "taf": "TAF LFLL 020500Z 0206/0312 36009KT CAVOK"
    },
    {
      "icao": "LFLS",
      "alert": "OK",
      "vis_m": 9999,
      "fzfg": false,
      "metar_trigger": false,
      "taf_trigger": false,
      "metar": "METAR LFLS 020600Z AUTO VRB03KT CAVOK M02/M03 Q1015 TEMPO BKN009",
      "taf": "TAF LFLS 020200Z 0203/0303 23005KT CAVOK"
    },
    {
      "icao": "LFMN",
      "alert": "OK",
      "vis_m": 9999,
      "fzfg": false,
      "metar_trigger": false,
      "taf_trigger": false,
      "metar": "METAR LFMN 020600Z 35009KT CAVOK 09/M05 Q1007 NOSIG",
      "taf": "TAF LFMN 020200Z 0203/0309 33010KT CAVOK"
    },
    {
      "icao": "LFOB",
      "alert": "OK",
      "vis_m": 9999,
      "fzfg": false,
      "metar_trigger": false,
      "taf_trigger": false,
      "metar": "METAR LFOB 020600Z AUTO 30003KT 9999 FEW015 BKN039 BKN047 07/07 Q1018 TEMPO 4000 -RADZ BKN007",
      "taf": "TAF LFOB 020500Z 0206/0306 VRB04KT 9999 FEW020 BKN035"
    },
    {
      "icao": "LFPO",
      "alert": "OK",
      "vis_m": 9999,
      "fzfg": false,
      "metar_trigger": false,
      "taf_trigger": false,
      "metar": "METAR LFPO 020600Z 27005KT 9999 SCT043 BKN056 08/07 Q1019 NOSIG",
      "taf": "TAF LFPO 020500Z 0206/0312 VRB02KT 8000 NSC"
    },
    {
      "icao": "LFSB",
      "alert": "OK",
      "vis_m": 9999,
      "fzfg": false,
      "metar_trigger": false,
      "taf_trigger": false,
      "metar": "METAR LFSB 020600Z AUTO VRB02KT CAVOK 01/M01 Q1017 NOSIG",
      "taf": "TAF LFSB 020500Z 0206/0306 35005KT 9999 SCT050"
    },
    {
      "icao": "LGAV",
      "alert": "OK",
      "vis_m": 7000,
      "fzfg": false,
      "metar_trigger": false,
      "taf_trigger": false,
      "metar": "METAR LGAV 020550Z 24013KT 7000 -RA SCT018 BKN025 OVC070 11/07 Q0995 NOSIG",
      "taf": "TAF LGAV 020500Z 0206/0306 22014KT 9999 FEW015 BKN025 BKN070"
    },
    {
      "icao": "LGTS",
      "alert": "OK",
      "vis_m": 6000,
      "fzfg": false,
      "metar_trigger": false,
      "taf_trigger": false,
      "metar": "METAR LGTS 020550Z 32011KT 6000 RA SCT006 BKN018 11/10 Q0994 NOSIG",
      "taf": "TAF LGTS 020500Z 0206/0306 33015KT 9999 FEW010 BKN025"
    },
    {
      "icao": "LHBP",
      "alert": "OK",
      "vis_m": 9999,
      "fzfg": false,
      "metar_trigger": false,
      "taf_trigger": false,
      "metar": "METAR LHBP 020600Z 35008KT 9999 FEW032 SCT048 08/04 Q1008 NOSIG",
      "taf": "TAF LHBP 020515Z 0206/0306 34008KT 9999 BKN035"
    },
    {
      "icao": "LHDC",
      "alert": "OK",
      "vis_m": 9999,
      "fzfg": false,
      "metar_trigger": false,
      "taf_trigger": false,
      "metar": "METAR LHDC 020545Z AUTO 04009KT 020V080 CAVOK 06/04 Q1008 NOSIG",
      "taf": "TAF LHDC 020515Z 0206/0215 05012KT CAVOK"
    },
    {
      "icao": "LIBD",
      "alert": "OK",
      "vis_m": 8000,
      "fzfg": false,
      "metar_trigger": false,
      "taf_trigger": false,
      "metar": "METAR LIBD 020550Z 02009KT 340V050 8000 -RA BKN015 11/10 Q0995 RERA",
      "taf": "TAF LIBD 020500Z 0206/0306 04012KT 7000 RA BKN040"
    },
    {
      "icao": "LIBG",
      "alert": "OK",
      "vis_m": 6000,
      "fzfg": false,
      "metar_trigger": false,
      "taf_trigger": false,
      "metar": "SPECI LIBG 020555Z 04011KT 6000 RA SCT010 OVC040 11/11 Q0993",
      "taf": "TAF LIBG 020610Z 0207/0215 04012KT 7000 RA OVC030"
    },
    {
      "icao": "LIBP",
      "alert": "OK",
      "vis_m": 9999,
      "fzfg": false,
      "metar_trigger": false,
      "taf_trigger": false,
      "metar": "METAR LIBP 020550Z AUTO 01010KT 340V040 9999 -RA OVC022/// 10/08 Q1001",
      "taf": "TAF LIBP 020500Z 0206/0306 36015KT 7000 RA OVC030"
    },
    {
      "icao": "LIBR",
      "alert": "OK",
      "vis_m": 6000,
      "fzfg": false,
      "metar_trigger": false,
      "taf_trigger": false,
      "metar": "METAR LIBR 020550Z 07017KT 6000 -RA SCT025 BKN045 13/10 Q0993",
      "taf": "TAF LIBR 020500Z 0206/0306 05015KT 7000 RA OVC040"
    },
    {
      "icao": "LICA",
      "alert": "OK",
      "vis_m": 9999,
      "fzfg": false,
      "metar_trigger": false,
      "taf_trigger": false,
      "metar": "METAR LICA 020550Z AUTO 26006KT 9999 -RA OVC060/// 11/09 Q0993",
      "taf": "TAF LICA 020500Z 0206/0306 VRB05KT 9999 BKN040"
    },
    {
      "icao": "LICC",
      "alert": "OK",
      "vis_m": 8000,
      "fzfg": false,
      "metar_trigger": false,
      "taf_trigger": false,
      "metar": "METAR LICC 020550Z 26007KT 8000 -DZ FEW010 BKN050 10/08 Q0993",
      "taf": "TAF LICC 020500Z 0206/0306 26006KT 9999 SCT030"
    },
    {
      "icao": "LICJ",
      "alert": "OK",
      "vis_m": 9999,
      "fzfg": false,
      "metar_trigger": false,
      "taf_trigger": false,
      "metar": "METAR LICJ 020550Z 34014KT 9999 -RA SCT020 14/10 Q0995",
      "taf": "TAF LICJ 020500Z 0206/0306 35013KT 9999 SCT020"
    },
    {
      "icao": "LIMC",
      "alert": "OK",
      "vis_m": 9999,
      "fzfg": false,
      "metar_trigger": false,
      "taf_trigger": false,
      "metar": "METAR LIMC 020550Z 34004KT CAVOK 01/M04 Q1008 NOSIG",
      "taf": "TAF LIMC 020500Z 0206/0312 VRB05KT CAVOK"
    },
    {
      "icao": "LIME",
      "alert": "OK",
      "vis_m": 9999,
      "fzfg": false,
      "metar_trigger": false,
      "taf_trigger": false,
      "metar": "METAR LIME 020550Z 01004KT CAVOK 04/M03 Q1008 NOSIG",
      "taf": "TAF LIME 020500Z 0206/0306 01005KT CAVOK"
    },
    {
      "icao": "LIMF",
      "alert": "OK",
      "vis_m": 9999,
      "fzfg": false,
      "metar_trigger": false,
      "taf_trigger": false,
      "metar": "METAR LIMF 020550Z 31002KT CAVOK 04/M05 Q1008",
      "taf": "TAF LIMF 020500Z 0206/0306 VRB05KT CAVOK"
    },
    {
      "icao": "LIMJ",
      "alert": "OK",
      "vis_m": 9999,
      "fzfg": false,
      "metar_trigger": false,
      "taf_trigger": false,
      "metar": "METAR LIMJ 020550Z 05010KT CAVOK 11/M05 Q1006",
      "taf": "TAF LIMJ 020500Z 0206/0306 02010KT CAVOK"
    },
    {
      "icao": "LIPE",
      "alert": "OK",
      "vis_m": 9999,
      "fzfg": false,
      "metar_trigger": false,
      "taf_trigger": false,
      "metar": "METAR LIPE 020550Z 27005KT CAVOK 07/M06 Q1008",
      "taf": "TAF LIPE 020500Z 0206/0306 VRB05KT 9999 SCT060"
    },
    {
      "icao": "LIPH",
      "alert": "OK",
      "vis_m": 9999,
      "fzfg": false,
      "metar_trigger": false,
      "taf_trigger": false,
      "metar": "METAR LIPH 020550Z 34003KT 310V010 CAVOK 06/00 Q1008",
      "taf": "TAF LIPH 020500Z 0206/0306 VRB05KT 9999 SCT060"
    },
    {
      "icao": "LIPQ",
      "alert": "OK",
      "vis_m": 9999,
      "fzfg": false,
      "metar_trigger": false,
      "taf_trigger": false,
      "metar": "METAR LIPQ 020550Z AUTO 09005KT 050V120 9999 BKN220/// 11/M01 Q1007",
      "taf": "TAF LIPQ 020500Z 0206/0306 VRB05KT CAVOK"
    },
    {
      "icao": "LIPR",
      "alert": "OK",
      "vis_m": 9999,
      "fzfg": false,
      "metar_trigger": false,
      "taf_trigger": false,
      "metar": "METAR LIPR 020550Z 05010KT 9999 SCT045 11/05 Q1005",
      "taf": "TAF LIPR 020500Z 0206/0306 04015KT 9999 SCT050"
    },
    {
      "icao": "LIPX",
      "alert": "OK",
      "vis_m": 9999,
      "fzfg": false,
      "metar_trigger": false,
      "taf_trigger": false,
      "metar": "METAR LIPX 020550Z 29004KT 230V320 CAVOK 05/M00 Q1008",
      "taf": "TAF LIPX 020500Z 0206/0306 VRB05KT CAVOK"
    },
    {
      "icao": "LIPY",
      "alert": "OK",
      "vis_m": 9999,
      "fzfg": false,
      "metar_trigger": false,
      "taf_trigger": false,
      "metar": "METAR LIPY 020550Z AUTO 03012KT 9999 -RA SCT036/// OVC075/// 11/07 Q1004",
      "taf": "TAF LIPY 020500Z 0206/0306 03015KT 9999 BKN050"
    },
    {
      "icao": "LIPZ",
      "alert": "OK",
      "vis_m": 9999,
      "fzfg": false,
      "metar_trigger": false,
      "taf_trigger": false,
      "metar": "METAR LIPZ 020550Z 35006KT CAVOK 08/M01 Q1008 NOSIG",
      "taf": "TAF LIPZ 020500Z 0206/0312 VRB06KT CAVOK"
    },
    {
      "icao": "LIRF",
      "alert": "OK",
      "vis_m": 9999,
      "fzfg": false,
      "metar_trigger": false,
      "taf_trigger": false,
      "metar": "METAR LIRF 020550Z 02015KT 9999 -RA NSC 11/05 Q0998 NOSIG",
      "taf": "TAF LIRF 020500Z 0206/0312 02016KT CAVOK"
    },
    {
      "icao": "LIRN",
      "alert": "OK",
      "vis_m": 9999,
      "fzfg": false,
      "metar_trigger": false,
      "taf_trigger": false,
      "metar": "METAR LIRN 020550Z 02009KT 310V040 9999 SCT040 BKN080 11/07 Q0996 NOSIG",
      "taf": "TAF LIRN 020500Z 0206/0306 03014KT 9999 SCT050"
    },
    {
      "icao": "LIRP",
      "alert": "OK",
      "vis_m": 9999,
      "fzfg": false,
      "metar_trigger": false,
      "taf_trigger": false,
      "metar": "METAR LIRP 020545Z 09006KT 9999 FEW050 10/M00 Q1005 NOSIG",
      "taf": "TAF LIRP 020500Z 0206/0306 03005KT 9999 SCT080"
    },
    {
      "icao": "LIRZ",
      "alert": "OK",
      "vis_m": 9999,
      "fzfg": false,
      "metar_trigger": false,
      "taf_trigger": false,
      "metar": "METAR LIRZ 020550Z AUTO 02010KT 9999 BKN030/// 09/04 Q1002",
      "taf": "TAF LIRZ 020500Z 0206/0306 03013KT 9999 BKN040"
    },
    {
      "icao": "LJLJ",
      "alert": "OK",
      "vis_m": 9999,
      "fzfg": false,
      "metar_trigger": false,
      "taf_trigger": false,
      "metar": "METAR LJLJ 020600Z 30003KT 9999 BKN055 SCT220 01/M01 Q1009 NOSIG",
      "taf": "TAF LJLJ 020500Z 0206/0306 30003KT 9999 SCT055"
    },
    {
      "icao": "LKMT",
      "alert": "OK",
      "vis_m": 9999,
      "fzfg": false,
      "metar_trigger": false,
      "taf_trigger": false,
      "metar": "METAR LKMT 020600Z 02006KT CAVOK 05/01 Q1014 NOSIG",
      "taf": "TAF LKMT 020500Z 0206/0306 04008KT CAVOK"
    },
    {
      "icao": "LKPR",
      "alert": "OK",
      "vis_m": 9999,
      "fzfg": false,
      "metar_trigger": false,
      "taf_trigger": false,
      "metar": "METAR LKPR 020600Z 30005KT CAVOK 02/M00 Q1016 NOSIG",
      "taf": "TAF LKPR 020500Z 0206/0312 34006KT CAVOK"
    },
    {
      "icao": "LLBG",
      "alert": "OK",
      "vis_m": 9999,
      "fzfg": false,
      "metar_trigger": false,
      "taf_trigger": false,
      "metar": "METAR LLBG 020550Z 18015KT CAVOK 25/14 Q1007 NOSIG RMK BKN120 REP AT 0500Z 1000FT-WIND 180/30KT",
      "taf": "TAF LLBG 020502Z 0206/0306 15012KT CAVOK TX26/0208Z TN16/0303Z"
    },
    {
      "icao": "LMML",
      "alert": "OK",
      "vis_m": 9999,
      "fzfg": false,
      "metar_trigger": false,
      "taf_trigger": false,
      "metar": "METAR LMML 020545Z 28021KT 9999 VCSH SCT017TCU SCT049 11/08 Q0995 NOSIG",
      "taf": "TAF LMML 020500Z 0206/0306 28020G30KT 9999 SCT020"
    },
    {
      "icao": "LOWW",
      "alert": "OK",
      "vis_m": 9999,
      "fzfg": false,
      "metar_trigger": false,
      "taf_trigger": false,
      "metar": "METAR LOWW 020550Z 32015KT 9999 FEW042 07/01 Q1013 NOSIG",
      "taf": "TAF LOWW 020515Z 0206/0312 33015G25KT 9999 BKN040 TX14/0312Z TN06/0206Z"
    },
    {
      "icao": "LPFR",
      "alert": "OK",
      "vis_m": 9999,
      "fzfg": false,
      "metar_trigger": false,
      "taf_trigger": false,
      "metar": "METAR LPFR 020600Z VRB02KT CAVOK 13/07 Q1019",
      "taf": "TAF LPFR 020500Z 0206/0306 02008KT CAVOK"
    },
    {
      "icao": "LPMA",
      "alert": "OK",
      "vis_m": 9999,
      "fzfg": false,
      "metar_trigger": false,
      "taf_trigger": false,
      "metar": "METAR LPMA 020600Z 02011KT 320V090 9999 FEW015 19/05 Q1022",
      "taf": "TAF LPMA 020500Z 0206/0306 01015KT 9999 SCT015"
    },
    {
      "icao": "LPPR",
      "alert": "OK",
      "vis_m": 9999,
      "fzfg": false,
      "metar_trigger": false,
      "taf_trigger": false,
      "metar": "METAR LPPR 020600Z 34004KT CAVOK 07/06 Q1022",
      "taf": "TAF LPPR 020500Z 0206/0306 VRB02KT CAVOK"
    },
    {
      "icao": "LPPS",
      "alert": "OK",
      "vis_m": 9999,
      "fzfg": false,
      "metar_trigger": false,
      "taf_trigger": false,
      "metar": "METAR LPPS 020600Z 01011KT 350V050 9999 FEW012 15/13 Q1022",
      "taf": "TAF LPPS 020500Z 0206/0312 03010KT 9999 SCT012"
    },
    {
      "icao": "LPPT",
      "alert": "OK",
      "vis_m": 9999,
      "fzfg": false,
      "metar_trigger": false,
      "taf_trigger": false,
      "metar": "METAR LPPT 020600Z VRB05KT 9999 FEW007 12/11 Q1021",
      "taf": "TAF LPPT 020500Z 0206/0312 33012KT CAVOK"
    },
    {
      "icao": "LQBK",
      "alert": "OK",
      "vis_m": 9999,
      "fzfg": false,
      "metar_trigger": false,
      "taf_trigger": false,
      "metar": "METAR LQBK 020600Z 29006KT 9999 -RA BKN030 05/02 Q1008 NOSIG",
      "taf": "TAF LQBK 020500Z 0206/0306 29007KT 9999 SCT030 BKN045 TX11/0213Z TN06/0305Z"
    },
    {
      "icao": "LQSA",
      "alert": "OK",
      "vis_m": 9999,
      "fzfg": false,
      "metar_trigger": false,
      "taf_trigger": false,
      "metar": "METAR LQSA 020600Z 29006KT 260V320 9999 BKN015 OVC025 05/03 Q1003 NOSIG",
      "taf": "TAF LQSA 020500Z 0206/0306 28008KT 9999 SCT020 BKN040 TX07/0213Z TN04/0305Z"
    },
    {
      "icao": "LQTZ",
      "alert": "OK",
      "vis_m": 9999,
      "fzfg": false,
      "metar_trigger": false,
      "taf_trigger": false,
      "metar": "METAR LQTZ 020600Z 28004KT 9999 BKN012 OVC030 03/03 Q1006",
      "taf": "TAF LQTZ 020500Z 0206/0306 30005KT 7000 SCT015 OVC030 TX07/0213Z TN03/0305Z"
    },
    {
      "icao": "LRBC",
      "alert": "OK",
      "vis_m": 9999,
      "fzfg": false,
      "metar_trigger": false,
      "taf_trigger": false,
      "metar": "METAR LRBC 020600Z 35011KT 9999 OVC011 07/04 Q1008",
      "taf": "TAF LRBC 020500Z 0206/0215 35012KT 9999 OVC010"
    },
    {
      "icao": "LRBS",
      "alert": "OK",
      "vis_m": 7000,
      "fzfg": false,
      "metar_trigger": false,
      "taf_trigger": false,
      "metar": "METAR LRBS 020600Z 05013KT 020V080 7000 -DZ BKN007 OVC016 08/06 Q1004 NOSIG",
      "taf": "TAF LRBS 020500Z 0206/0306 06018KT 9999 BKN010 OVC020"
    },
    {
      "icao": "LRBV",
      "alert": "OK",
      "vis_m": 8000,
      "fzfg": false,
      "metar_trigger": false,
      "taf_trigger": false,
      "metar": "METAR LRBV 020600Z 36002KT 8000 BKN011 05/04 Q1006",
      "taf": "TAF LRBV 020500Z 0206/0215 VRB04KT 9999 OVC020"
    },
    {
      "icao": "LRCL",
      "alert": "OK",
      "vis_m": 9999,
      "fzfg": false,
      "metar_trigger": false,
      "taf_trigger": false,
      "metar": "METAR LRCL 020600Z 26005KT 230V290 9999 SCT056 04/02 Q1007",
      "taf": "TAF LRCL 020500Z 0206/0215 VRB04KT 9999 SCT055"
    },
    {
      "icao": "LRCV",
      "alert": "OK",
      "vis_m": 9999,
      "fzfg": false,
      "metar_trigger": false,
      "taf_trigger": false,
      "metar": "METAR LRCV 020600Z 08012KT 9999 BKN013 OVC027 07/06 Q1004",
      "taf": "TAF LRCV 020500Z 0206/0215 10014KT 9999 SCT010 BKN020"
    },
    {
      "icao": "LRIA",
      "alert": "OK",
      "vis_m": 700,
      "fzfg": false,
      "metar_trigger": false,
      "taf_trigger": false,
      "metar": "METAR LRIA 020600Z 32009KT 0700 R32/1900N FG OVC001 06/05 Q1009",
      "taf": ""
    },
    {
      "icao": "LROP",
      "alert": "OK",
      "vis_m": 8000,
      "fzfg": false,
      "metar_trigger": false,
      "taf_trigger": false,
      "metar": "METAR LROP 020600Z 05018KT 020V090 8000 OVC011 08/05 Q1004 NOSIG",
      "taf": "TAF LROP 020500Z 0206/0306 06018KT 9999 BKN010 OVC020"
    },
    {
      "icao": "LRSB",
      "alert": "OK",
      "vis_m": 9999,
      "fzfg": false,
      "metar_trigger": false,
      "taf_trigger": false,
      "metar": "METAR LRSB 020600Z VRB02KT 9999 FEW003 BKN034 OVC045 06/05 Q1005",
      "taf": "TAF LRSB 020500Z 0206/0306 VRB04KT 9999 BKN040"
    },
    {
      "icao": "LRSM",
      "alert": "OK",
      "vis_m": 9999,
      "fzfg": false,
      "metar_trigger": false,
      "taf_trigger": false,
      "metar": "METAR LRSM 020600Z VRB01KT CAVOK 03/02 Q1008",
      "taf": "TAF LRSM 020500Z 0206/0215 VRB04KT CAVOK"
    },
    {
      "icao": "LRSV",
      "alert": "OK",
      "vis_m": 5000,
      "fzfg": false,
      "metar_trigger": false,
      "taf_trigger": false,
      "metar": "METAR LRSV 020600Z 33011KT 5000 BR BKN004 06/05 Q1009",
      "taf": "TAF LRSV 020500Z 0206/0215 32010KT 5000 BR BKN005"
    },
    {
      "icao": "LRTM",
      "alert": "OK",
      "vis_m": 200,
      "fzfg": false,
      "metar_trigger": false,
      "taf_trigger": false,
      "metar": "METAR LRTM 020600Z 26003KT 0200 R07/0350N FG VV001 03/03 Q1007",
      "taf": "TAF LRTM 020500Z 0206/0215 VRB04KT 0200 FG VV001"
    },
    {
      "icao": "LRTR",
      "alert": "OK",
      "vis_m": 9999,
      "fzfg": false,
      "metar_trigger": false,
      "taf_trigger": false,
      "metar": "METAR LRTR 020600Z 01007KT CAVOK 05/04 Q1005 NOSIG",
      "taf": "TAF LRTR 020500Z 0206/0306 01010KT CAVOK"
    },
    {
      "icao": "LTAC",
      "alert": "OK",
      "vis_m": 6000,
      "fzfg": false,
      "metar_trigger": false,
      "taf_trigger": false,
      "metar": "METAR LTAC 020550Z 08003KT 020V110 6000 -SHRA SCT010 BKN035 10/09 Q1004 NOSIG RMK RWY21C 08005KT RWY03L 04004KT RWY21R 06004KT RWY03R VRB01KT RWY21L 09004KT 060V120",
      "taf": "TAF LTAC 020440Z 0206/0306 VRB02KT 9999 SCT040 BKN100"
    },
    {
      "icao": "LTFM",
      "alert": "OK",
      "vis_m": 6000,
      "fzfg": false,
      "metar_trigger": false,
      "taf_trigger": false,
      "metar": "METAR LTFM 020550Z 03006KT 6000 BKN002 BKN022 09/09 Q0998 NOSIG RMK RWY17L 04004KT 360V080 RWY34L 01005KT 340V040 RWY16R 02004KT 310V080 RWY36 03006KT RWY18 06005KT 030V100",
      "taf": "TAF LTFM 020440Z 0206/0312 14013KT 9999 BKN004 BKN020"
    },
    {
      "icao": "LUKK",
      "alert": "OK",
      "vis_m": 5000,
      "fzfg": false,
      "metar_trigger": false,
      "taf_trigger": false,
      "metar": "METAR LUKK 020600Z 36008KT 5000 BR OVC006 09/08 Q1007 NOSIG",
      "taf": "TAF LUKK 020506Z 0206/0306 VRB06KT 5000 BR BKN005"
    },
    {
      "icao": "LWOH",
      "alert": "OK",
      "vis_m": 9999,
      "fzfg": false,
      "metar_trigger": false,
      "taf_trigger": false,
      "metar": "METAR LWOH 020550Z 34007KT 300V020 9999 BKN033 07/04 Q0994",
      "taf": "TAF LWOH 020530Z 0206/0306 34010KT 9999 RA SCT020 OVC040"
    },
    {
      "icao": "LWSK",
      "alert": "OK",
      "vis_m": 8000,
      "fzfg": false,
      "metar_trigger": false,
      "taf_trigger": false,
      "metar": "METAR LWSK 020550Z VRB02KT 8000 -RA BKN040 OVC070 08/07 Q0997 NOSIG",
      "taf": "TAF LWSK 020530Z 0206/0306 VRB02KT 7000 -RA FEW020 BKN035 OVC050"
    },
    {
      "icao": "LYBE",
      "alert": "OK",
      "vis_m": 9999,
      "fzfg": false,
      "metar_trigger": false,
      "taf_trigger": false,
      "metar": "METAR LYBE 020600Z 32007KT 9999 FEW010 BKN045 04/03 Q1006 NOSIG",
      "taf": "TAF LYBE 020500Z 0206/0306 35008KT 9999 SCT010 BKN045 TX11/0213Z TN05/0206Z"
    },
    {
      "icao": "LYNI",
      "alert": "OK",
      "vis_m": 9999,
      "fzfg": false,
      "metar_trigger": false,
      "taf_trigger": false,
      "metar": "METAR LYNI 020600Z 03013KT 350V050 9999 FEW020 SCT060 10/05 Q1000 NOSIG",
      "taf": "TAF LYNI 020500Z 0206/0306 04014KT 9999 SCT040 BKN080 TX11/0213Z TN07/0305Z"
    },
    {
      "icao": "LYPG",
      "alert": "OK",
      "vis_m": 9999,
      "fzfg": false,
      "metar_trigger": false,
      "taf_trigger": false,
      "metar": "METAR LYPG 020600Z 01016KT 9999 FEW040 OVC090 14/03 Q0995 TEMPO 01027KT",
      "taf": "TAF LYPG 020500Z 0206/0306 36015KT 9999 FEW050 OVC090 TX16/0212Z TN10/0304Z"
    },
    {
      "icao": "LZIB",
      "alert": "OK",
      "vis_m": 9999,
      "fzfg": false,
      "metar_trigger": false,
      "taf_trigger": false,
      "metar": "METAR LZIB 020600Z 33007KT 9999 -RA BKN043 08/02 Q1011 NOSIG",
      "taf": "TAF LZIB 020515Z 0206/0306 35016KT CAVOK"
    },
    {
      "icao": "LZKZ",
      "alert": "OK",
      "vis_m": 9999,
      "fzfg": false,
      "metar_trigger": false,
      "taf_trigger": false,
      "metar": "METAR LZKZ 020600Z 36022KT CAVOK 09/03 Q1009 NOSIG",
      "taf": "TAF LZKZ 020515Z 0206/0306 01020KT CAVOK"
    },
    {
      "icao": "LZTT",
      "alert": "OK",
      "vis_m": 9999,
      "fzfg": false,
      "metar_trigger": false,
      "taf_trigger": false,
      "metar": "METAR LZTT 020600Z VRB02KT 9999 -RA FEW006 BKN020 02/01 Q1011 NOSIG",
      "taf": "TAF LZTT 020515Z 0206/0306 08013KT 9999 -RA FEW005 OVC026"
    },
    {
      "icao": "OEJN",
      "alert": "OK",
      "vis_m": 9999,
      "fzfg": false,
      "metar_trigger": false,
      "taf_trigger": false,
      "metar": "METAR OEJN 020600Z 16008KT CAVOK 32/16 Q1008 NOSIG",
      "taf": "TAF OEJN 020500Z 0206/0312 20010KT 7000 NSC"
    },
    {
      "icao": "OEMA",
      "alert": "OK",
      "vis_m": 9999,
      "fzfg": false,
      "metar_trigger": false,
      "taf_trigger": false,
      "metar": "METAR OEMA 020600Z 10008KT CAVOK 27/02 Q1016 NOSIG",
      "taf": "TAF OEMA 020500Z 0206/0312 15015KT 7000 FEW040"
    },
    {
      "icao": "OJAI",
      "alert": "OK",
      "vis_m": 4000,
      "fzfg": false,
      "metar_trigger": false,
      "taf_trigger": false,
      "metar": "METAR OJAI 020600Z 16012KT 4000 BR SCT035 SCT080 15/12 Q1013 NOSIG",
      "taf": "TAF OJAI 020500Z 0206/0312 12014KT 4000 BR FEW025TCU SCT030"
    },
    {
      "icao": "OMAA",
      "alert": "OK",
      "vis_m": null,
      "fzfg": false,
      "metar_trigger": false,
      "taf_trigger": false,
      "metar": "",
      "taf": ""
    },
    {
      "icao": "OMDB",
      "alert": "OK",
      "vis_m": null,
      "fzfg": false,
      "metar_trigger": false,
      "taf_trigger": false,
      "metar": "",
      "taf": ""
    },
    {
      "icao": "UAAA",
      "alert": "OK",
      "vis_m": 9999,
      "fzfg": false,
      "metar_trigger": false,
      "taf_trigger": false,
      "metar": "METAR UAAA 020600Z 03004MPS 360V070 9999 FEW100 SCT200 21/04 Q1012 NOSIG",
      "taf": "TAF UAAA 020500Z 0206/0306 03003G08MPS 9999 FEW050 SCT100 TX26/0210Z TN09/0301Z"
    },
    {
      "icao": "UBBB",
      "alert": "OK",
      "vis_m": 9999,
      "fzfg": false,
      "metar_trigger": false,
      "taf_trigger": false,
      "metar": "METAR UBBB 020600Z 15014KT CAVOK 16/10 Q1015 NOSIG",
      "taf": "TAF UBBB 020508Z 0206/0306 15012KT 9999 SCT012 SCT025 TX18/0210Z TN09/0301Z"
    },
    {
      "icao": "UDSG",
      "alert": "OK",
      "vis_m": 9999,
      "fzfg": false,
      "metar_trigger": false,
      "taf_trigger": false,
      "metar": "METAR UDSG 020600Z 26002KT 9999 FEW049 07/M00 Q1017 NOSIG",
      "taf": "TAF UDSG 020458Z 0206/0306 24006KT 9999 SCT050"
    },
    {
      "icao": "UDYZ",
      "alert": "OK",
      "vis_m": 9999,
      "fzfg": false,
      "metar_trigger": false,
      "taf_trigger": false,
      "metar": "METAR UDYZ 020600Z 13003KT 090V170 9999 NSC 12/01 Q1016 NOSIG",
      "taf": "TAF UDYZ 020500Z 0206/0306 22006KT 9999 FEW040"
    },
    {
      "icao": "UGKO",
      "alert": "OK",
      "vis_m": 9999,
      "fzfg": false,
      "metar_trigger": false,
      "taf_trigger": false,
      "metar": "METAR UGKO 020600Z 08023KT CAVOK 18/05 Q1009 NOSIG",
      "taf": "TAF UGKO 020500Z 0206/0306 08010KT CAVOK TX25/0212Z TN13/0302Z"
    }
  ]
}