{
  "ts_utc": "2026-06-26T22:20:40Z",
  "threshold_m": 150,
  "source": "stations_override.txt (ICAO list) + aviationweather.gov (METAR/TAF raw)",
  "station_count": 159,
  "stations": [
    {
      "icao": "BIKF",
      "alert": "OK",
      "vis_m": 9999,
      "fzfg": false,
      "metar_trigger": false,
      "taf_trigger": false,
      "metar": "METAR BIKF 262200Z 15011KT 9999 -SHRA SCT019 BKN040 BKN110 08/07 Q1005",
      "taf": "TAF BIKF 261959Z 2621/2721 14012KT 9999 SCT018 BKN040 TX11/2715Z TN08/2704Z"
    },
    {
      "icao": "BKPR",
      "alert": "OK",
      "vis_m": 9999,
      "fzfg": false,
      "metar_trigger": false,
      "taf_trigger": false,
      "metar": "METAR BKPR 262200Z VRB01KT CAVOK 20/14 Q1021 NOSIG",
      "taf": "TAF BKPR 261730Z 2618/2718 36008KT CAVOK"
    },
    {
      "icao": "EBCI",
      "alert": "OK",
      "vis_m": 9999,
      "fzfg": false,
      "metar_trigger": false,
      "taf_trigger": false,
      "metar": "METAR EBCI 262150Z 29005KT 250V340 CAVOK 27/20 Q1017 NOSIG",
      "taf": "TAF EBCI 261709Z 2618/2724 28006KT CAVOK"
    },
    {
      "icao": "EDDB",
      "alert": "OK",
      "vis_m": 9999,
      "fzfg": false,
      "metar_trigger": false,
      "taf_trigger": false,
      "metar": "METAR EDDB 262150Z AUTO 09008KT CAVOK 24/13 Q1019 NOSIG",
      "taf": "TAF EDDB 261700Z 2618/2718 09006KT CAVOK"
    },
    {
      "icao": "EDDH",
      "alert": "OK",
      "vis_m": 9999,
      "fzfg": false,
      "metar_trigger": false,
      "taf_trigger": false,
      "metar": "METAR EDDH 262150Z AUTO 16005KT CAVOK 27/13 Q1016 NOSIG",
      "taf": "TAF EDDH 261700Z 2618/2724 13009KT CAVOK"
    },
    {
      "icao": "EDDK",
      "alert": "OK",
      "vis_m": 9999,
      "fzfg": false,
      "metar_trigger": false,
      "taf_trigger": false,
      "metar": "METAR EDDK 262150Z AUTO 14003KT 070V190 CAVOK 27/21 Q1016 NOSIG",
      "taf": ""
    },
    {
      "icao": "EDDN",
      "alert": "OK",
      "vis_m": 9999,
      "fzfg": false,
      "metar_trigger": false,
      "taf_trigger": false,
      "metar": "METAR EDDN 262150Z AUTO 10004KT CAVOK 25/16 Q1019",
      "taf": "TAF EDDN 261700Z 2618/2718 06005KT CAVOK"
    },
    {
      "icao": "EDDS",
      "alert": "OK",
      "vis_m": 9999,
      "fzfg": false,
      "metar_trigger": false,
      "taf_trigger": false,
      "metar": "METAR EDDS 262150Z AUTO VRB01KT CAVOK 26/15 Q1019",
      "taf": "TAF EDDS 261700Z 2618/2718 VRB03KT CAVOK"
    },
    {
      "icao": "EDFH",
      "alert": "OK",
      "vis_m": 9999,
      "fzfg": false,
      "metar_trigger": false,
      "taf_trigger": false,
      "metar": "METAR EDFH 262150Z 16005KT CAVOK 27/15 Q1019",
      "taf": "TAF EDFH 261700Z 2618/2718 23006KT CAVOK"
    },
    {
      "icao": "EDJA",
      "alert": "OK",
      "vis_m": 9999,
      "fzfg": false,
      "metar_trigger": false,
      "taf_trigger": false,
      "metar": "METAR EDJA 262150Z AUTO 09003KT 9999 // FEW160/// 21/13 Q1021",
      "taf": "TAF EDJA 261700Z 2618/2703 05005KT CAVOK"
    },
    {
      "icao": "EDLW",
      "alert": "OK",
      "vis_m": 9999,
      "fzfg": false,
      "metar_trigger": false,
      "taf_trigger": false,
      "metar": "METAR EDLW 262150Z AUTO 14004KT 9999 // SCT240/// 30/20 Q1015",
      "taf": "TAF EDLW 261700Z 2618/2718 17004KT CAVOK"
    },
    {
      "icao": "EDNY",
      "alert": "OK",
      "vis_m": 9999,
      "fzfg": false,
      "metar_trigger": false,
      "taf_trigger": false,
      "metar": "METAR EDNY 262150Z AUTO 03003KT 350V060 9999 // NCD 22/14 Q1019",
      "taf": "TAF EDNY 261700Z 2618/2703 VRB03KT CAVOK"
    },
    {
      "icao": "EDSB",
      "alert": "OK",
      "vis_m": 9999,
      "fzfg": false,
      "metar_trigger": false,
      "taf_trigger": false,
      "metar": "METAR EDSB 262150Z AUTO 05006KT 9999 // NCD 28/19 Q1016",
      "taf": "TAF EDSB 261700Z 2618/2718 VRB03KT CAVOK"
    },
    {
      "icao": "EETN",
      "alert": "OK",
      "vis_m": 9999,
      "fzfg": false,
      "metar_trigger": false,
      "taf_trigger": false,
      "metar": "METAR EETN 262150Z 16006KT 9999 OVC040 16/12 Q1017 NOSIG",
      "taf": "TAF EETN 261730Z 2618/2718 21006KT 9999 BKN045"
    },
    {
      "icao": "EFTU",
      "alert": "OK",
      "vis_m": 9999,
      "fzfg": false,
      "metar_trigger": false,
      "taf_trigger": false,
      "metar": "METAR EFTU 262150Z AUTO 22006KT CAVOK 17/15 Q1014",
      "taf": "TAF EFTU 262030Z 2621/2721 21005KT CAVOK"
    },
    {
      "icao": "EGBB",
      "alert": "OK",
      "vis_m": 9999,
      "fzfg": false,
      "metar_trigger": false,
      "taf_trigger": false,
      "metar": "METAR EGBB 262150Z 26005KT CAVOK 22/15 Q1017",
      "taf": ""
    },
    {
      "icao": "EGGP",
      "alert": "OK",
      "vis_m": 9999,
      "fzfg": false,
      "metar_trigger": false,
      "taf_trigger": false,
      "metar": "METAR EGGP 262150Z 26009KT CAVOK 19/14 Q1016",
      "taf": ""
    },
    {
      "icao": "EGGW",
      "alert": "OK",
      "vis_m": 9999,
      "fzfg": false,
      "metar_trigger": false,
      "taf_trigger": false,
      "metar": "METAR EGGW 262150Z AUTO 23005KT 9999 NCD 23/18 Q1017",
      "taf": "TAF EGGW 261658Z 2618/2718 25012KT CAVOK"
    },
    {
      "icao": "EGKK",
      "alert": "OK",
      "vis_m": 9999,
      "fzfg": false,
      "metar_trigger": false,
      "taf_trigger": false,
      "metar": "METAR EGKK 262150Z 19003KT 150V220 CAVOK 23/17 Q1017",
      "taf": "TAF EGKK 261653Z 2618/2724 22010KT CAVOK"
    },
    {
      "icao": "EGNM",
      "alert": "OK",
      "vis_m": 9999,
      "fzfg": false,
      "metar_trigger": false,
      "taf_trigger": false,
      "metar": "METAR EGNM 262150Z 27011KT CAVOK 18/16 Q1015",
      "taf": "TAF EGNM 261659Z 2618/2718 28012KT 9999 FEW035"
    },
    {
      "icao": "EGPD",
      "alert": "OK",
      "vis_m": 750,
      "fzfg": false,
      "metar_trigger": false,
      "taf_trigger": false,
      "metar": "METAR EGPD 262150Z AUTO 06004KT 020V100 0750 R34/0700N FG OVC001/// //////CB 14/13 Q1014",
      "taf": ""
    },
    {
      "icao": "EGPF",
      "alert": "OK",
      "vis_m": 9999,
      "fzfg": false,
      "metar_trigger": false,
      "taf_trigger": false,
      "metar": "METAR EGPF 262150Z AUTO 08008KT 030V120 9999 OVC010 16/15 Q1012",
      "taf": "TAF EGPF 261652Z 2618/2718 08010KT 9999 FEW020"
    },
    {
      "icao": "EHBK",
      "alert": "OK",
      "vis_m": 9999,
      "fzfg": false,
      "metar_trigger": false,
      "taf_trigger": false,
      "metar": "METAR EHBK 262155Z AUTO 36003KT 310V040 9999 NSC 29/21 Q1016",
      "taf": "TAF EHBK 261724Z 2618/2724 26007KT CAVOK"
    },
    {
      "icao": "EHEH",
      "alert": "OK",
      "vis_m": 9999,
      "fzfg": false,
      "metar_trigger": false,
      "taf_trigger": false,
      "metar": "METAR EHEH 262155Z AUTO 30001KT 9999 BKN180 24/21 Q1016 BLU",
      "taf": "TAF EHEH 261749Z 2618/2724 27004KT CAVOK"
    },
    {
      "icao": "EKBI",
      "alert": "OK",
      "vis_m": 9999,
      "fzfg": false,
      "metar_trigger": false,
      "taf_trigger": false,
      "metar": "METAR EKBI 262150Z AUTO 11003KT 9999 NCD 19/16 Q1017",
      "taf": "TAF EKBI 262027Z 2621/2721 13007KT CAVOK"
    },
    {
      "icao": "EKCH",
      "alert": "OK",
      "vis_m": 9999,
      "fzfg": false,
      "metar_trigger": false,
      "taf_trigger": false,
      "metar": "METAR EKCH 262150Z AUTO 15004KT 9999 NCD 21/15 Q1018 NOSIG",
      "taf": "TAF EKCH 262027Z 2621/2721 14008KT CAVOK"
    },
    {
      "icao": "ENAL",
      "alert": "OK",
      "vis_m": 9999,
      "fzfg": false,
      "metar_trigger": false,
      "taf_trigger": false,
      "metar": "METAR ENAL 262150Z 06005KT 9999 FEW004 BKN023 12/11 Q1017",
      "taf": "TAF ENAL 262000Z 2621/2706 30010KT 9999 -RA SCT010 BKN030"
    },
    {
      "icao": "ENBR",
      "alert": "OK",
      "vis_m": 9999,
      "fzfg": false,
      "metar_trigger": false,
      "taf_trigger": false,
      "metar": "METAR ENBR 262150Z 33003KT 9999 BKN036 14/12 Q1016 RMK WIND 1200FT 08003KT",
      "taf": "TAF ENBR 261700Z 2618/2718 18008KT 9999 FEW022 SCT040"
    },
    {
      "icao": "ENGM",
      "alert": "OK",
      "vis_m": 9999,
      "fzfg": false,
      "metar_trigger": false,
      "taf_trigger": false,
      "metar": "METAR ENGM 262150Z VRB02KT 9999 -SHRA NSC 19/15 Q1015",
      "taf": "TAF ENGM 261700Z 2618/2718 20010KT CAVOK"
    },
    {
      "icao": "ENHD",
      "alert": "OK",
      "vis_m": 9999,
      "fzfg": false,
      "metar_trigger": false,
      "taf_trigger": false,
      "metar": "METAR ENHD 262150Z 03004KT 9999 BKN020 15/13 Q1016",
      "taf": "TAF ENHD 261400Z 2615/2622 22008KT 9999 FEW020 SCT040"
    },
    {
      "icao": "ENTC",
      "alert": "OK",
      "vis_m": 9999,
      "fzfg": false,
      "metar_trigger": false,
      "taf_trigger": false,
      "metar": "METAR ENTC 262150Z VRB02KT 9999 BKN038 10/09 Q1009 RMK WIND 2600FT 19019KT",
      "taf": "TAF ENTC 261700Z 2618/2718 20009KT 9999 -DZRA SCT008 BKN020"
    },
    {
      "icao": "ENTO",
      "alert": "OK",
      "vis_m": 2500,
      "fzfg": false,
      "metar_trigger": false,
      "taf_trigger": false,
      "metar": "METAR ENTO 262150Z AUTO 22005KT 2500 // NCD 18/13 Q1015 RERA",
      "taf": "TAF ENTO 261700Z 2618/2718 20005KT 9999 FEW050"
    },
    {
      "icao": "ENVA",
      "alert": "OK",
      "vis_m": 9999,
      "fzfg": false,
      "metar_trigger": false,
      "taf_trigger": false,
      "metar": "METAR ENVA 262150Z 29007KT 9999 FEW014 BKN027 13/12 Q1017 RMK WIND 670FT 29010KT",
      "taf": "TAF ENVA 261700Z 2618/2718 27008KT 9999 FEW008 BKN025"
    },
    {
      "icao": "ENZV",
      "alert": "OK",
      "vis_m": 9999,
      "fzfg": false,
      "metar_trigger": false,
      "taf_trigger": false,
      "metar": "METAR ENZV 262150Z VRB02KT 9999 NSC 15/14 Q1016",
      "taf": "TAF ENZV 261700Z 2618/2718 13008KT 9999 SCT040"
    },
    {
      "icao": "EPGD",
      "alert": "OK",
      "vis_m": 9999,
      "fzfg": false,
      "metar_trigger": false,
      "taf_trigger": false,
      "metar": "METAR EPGD 262200Z VRB01KT CAVOK 20/15 Q1021",
      "taf": "TAF EPGD 261730Z 2618/2718 07010KT CAVOK"
    },
    {
      "icao": "EPKK",
      "alert": "OK",
      "vis_m": 9999,
      "fzfg": false,
      "metar_trigger": false,
      "taf_trigger": false,
      "metar": "METAR EPKK 262200Z VRB01KT CAVOK 22/13 Q1021",
      "taf": "TAF EPKK 262030Z 2621/2721 VRB02KT CAVOK"
    },
    {
      "icao": "EPKT",
      "alert": "OK",
      "vis_m": 9999,
      "fzfg": false,
      "metar_trigger": false,
      "taf_trigger": false,
      "metar": "METAR EPKT 262200Z VRB01KT CAVOK 16/12 Q1021",
      "taf": "TAF EPKT 261730Z 2618/2718 36005KT CAVOK"
    },
    {
      "icao": "EPLB",
      "alert": "OK",
      "vis_m": 9999,
      "fzfg": false,
      "metar_trigger": false,
      "taf_trigger": false,
      "metar": "METAR EPLB 262200Z 28001KT CAVOK 20/14 Q1021",
      "taf": "TAF EPLB 261730Z 2618/2718 01010KT CAVOK"
    },
    {
      "icao": "EPMO",
      "alert": "OK",
      "vis_m": 9999,
      "fzfg": false,
      "metar_trigger": false,
      "taf_trigger": false,
      "metar": "METAR EPMO 262200Z 06003KT CAVOK 21/14 Q1021",
      "taf": "TAF EPMO 261730Z 2618/2718 05006KT CAVOK"
    },
    {
      "icao": "EPPO",
      "alert": "OK",
      "vis_m": 9999,
      "fzfg": false,
      "metar_trigger": false,
      "taf_trigger": false,
      "metar": "METAR EPPO 262200Z 14001KT CAVOK 20/14 Q1020",
      "taf": "TAF EPPO 261730Z 2618/2718 36002KT CAVOK"
    },
    {
      "icao": "EPRA",
      "alert": "OK",
      "vis_m": 9999,
      "fzfg": false,
      "metar_trigger": false,
      "taf_trigger": false,
      "metar": "METAR EPRA 262200Z 10003KT CAVOK 23/14 Q1021",
      "taf": "TAF EPRA 262030Z 2621/2706 08005KT CAVOK"
    },
    {
      "icao": "EPRZ",
      "alert": "OK",
      "vis_m": 9999,
      "fzfg": false,
      "metar_trigger": false,
      "taf_trigger": false,
      "metar": "METAR EPRZ 262200Z VRB01KT CAVOK 22/15 Q1021",
      "taf": "TAF EPRZ 261730Z 2618/2718 33006KT CAVOK"
    },
    {
      "icao": "EPSC",
      "alert": "OK",
      "vis_m": 9999,
      "fzfg": false,
      "metar_trigger": false,
      "taf_trigger": false,
      "metar": "METAR EPSC 262200Z 11005KT CAVOK 20/18 Q1019",
      "taf": "TAF EPSC 261730Z 2618/2718 12004KT CAVOK"
    },
    {
      "icao": "EPSY",
      "alert": "OK",
      "vis_m": 9999,
      "fzfg": false,
      "metar_trigger": false,
      "taf_trigger": false,
      "metar": "METAR EPSY 262200Z 00000KT CAVOK 17/15 Q1021",
      "taf": "TAF EPSY 262030Z 2621/2706 VRB02KT CAVOK"
    },
    {
      "icao": "EPWA",
      "alert": "OK",
      "vis_m": 9999,
      "fzfg": false,
      "metar_trigger": false,
      "taf_trigger": false,
      "metar": "METAR EPWA 262200Z 06005KT 020V080 CAVOK 25/14 Q1021 NOSIG",
      "taf": "TAF EPWA 262030Z 2621/2721 VRB03KT CAVOK"
    },
    {
      "icao": "EPWR",
      "alert": "OK",
      "vis_m": 9999,
      "fzfg": false,
      "metar_trigger": false,
      "taf_trigger": false,
      "metar": "METAR EPWR 262200Z 28002KT CAVOK 21/14 Q1020",
      "taf": "TAF EPWR 262030Z 2621/2721 VRB02KT CAVOK"
    },
    {
      "icao": "ESGG",
      "alert": "OK",
      "vis_m": 9999,
      "fzfg": false,
      "metar_trigger": false,
      "taf_trigger": false,
      "metar": "METAR ESGG 262150Z 16007KT CAVOK 20/12 Q1017",
      "taf": "TAF ESGG 262030Z 2621/2721 17005KT CAVOK"
    },
    {
      "icao": "ESKN",
      "alert": "OK",
      "vis_m": 9999,
      "fzfg": false,
      "metar_trigger": false,
      "taf_trigger": false,
      "metar": "METAR ESKN 262150Z VRB01KT CAVOK 19/18 Q1015",
      "taf": "TAF ESKN 262030Z 2621/2721 VRB02KT CAVOK"
    },
    {
      "icao": "ESMS",
      "alert": "OK",
      "vis_m": 9999,
      "fzfg": false,
      "metar_trigger": false,
      "taf_trigger": false,
      "metar": "METAR ESMS 262150Z 14007KT CAVOK 19/16 Q1018",
      "taf": "TAF ESMS 262027Z 2621/2721 18005KT CAVOK"
    },
    {
      "icao": "ESSA",
      "alert": "OK",
      "vis_m": 9999,
      "fzfg": false,
      "metar_trigger": false,
      "taf_trigger": false,
      "metar": "METAR ESSA 262150Z 23006KT CAVOK 18/15 Q1014 NOSIG",
      "taf": "TAF ESSA 262030Z 2621/2721 23009KT CAVOK"
    },
    {
      "icao": "EYKA",
      "alert": "OK",
      "vis_m": 9999,
      "fzfg": false,
      "metar_trigger": false,
      "taf_trigger": false,
      "metar": "METAR EYKA 262150Z VRB01KT CAVOK 15/13 Q1021",
      "taf": "TAF EYKA 261701Z 2618/2718 VRB02KT 9000 NSC"
    },
    {
      "icao": "EYPA",
      "alert": "OK",
      "vis_m": 9999,
      "fzfg": false,
      "metar_trigger": false,
      "taf_trigger": false,
      "metar": "METAR EYPA 262150Z 19002KT CAVOK 16/15 Q1020",
      "taf": "TAF EYPA 261700Z 2618/2718 VRB03KT 9000 NSC"
    },
    {
      "icao": "EYVI",
      "alert": "OK",
      "vis_m": 9999,
      "fzfg": false,
      "metar_trigger": false,
      "taf_trigger": false,
      "metar": "METAR EYVI 262150Z 02002KT CAVOK 14/12 Q1021 NOSIG",
      "taf": "TAF EYVI 261702Z 2618/2718 34010KT 9000 NSC"
    },
    {
      "icao": "GCFV",
      "alert": "OK",
      "vis_m": 9999,
      "fzfg": false,
      "metar_trigger": false,
      "taf_trigger": false,
      "metar": "METAR GCFV 262200Z 02008KT 9999 FEW015 22/16 Q1020",
      "taf": "TAF GCFV 262000Z 2621/2721 04011KT 9999 FEW025 TX26/2714Z TN20/2706Z"
    },
    {
      "icao": "GCLP",
      "alert": "OK",
      "vis_m": 9999,
      "fzfg": false,
      "metar_trigger": false,
      "taf_trigger": false,
      "metar": "METAR GCLP 262200Z 36014KT 9999 FEW025 23/18 Q1020 NOSIG",
      "taf": "TAF GCLP 262000Z 2621/2721 36012KT 9999 FEW025 TX28/2714Z TN20/2706Z"
    },
    {
      "icao": "GCTS",
      "alert": "OK",
      "vis_m": 9999,
      "fzfg": false,
      "metar_trigger": false,
      "taf_trigger": false,
      "metar": "METAR GCTS 262200Z 06003KT 020V110 9999 FEW030 23/18 Q1021 NOSIG",
      "taf": "TAF GCTS 262000Z 2621/2721 07007KT 9999 BKN030 TX27/2714Z TN20/2706Z"
    },
    {
      "icao": "GMAD",
      "alert": "OK",
      "vis_m": 8000,
      "fzfg": false,
      "metar_trigger": false,
      "taf_trigger": false,
      "metar": "METAR GMAD 262200Z 19008KT 8000 BKN010 22/18 Q1018 NOSIG",
      "taf": "TAF GMAD 261700Z 2618/2724 20003KT 8000 NSC"
    },
    {
      "icao": "GMMN",
      "alert": "OK",
      "vis_m": 9999,
      "fzfg": false,
      "metar_trigger": false,
      "taf_trigger": false,
      "metar": "METAR GMMN 262200Z 04007KT 360V070 9999 BKN016 22/18 Q1020 NOSIG",
      "taf": "TAF GMMN 261700Z 2618/2724 02012KT 9999 FEW020"
    },
    {
      "icao": "GMMX",
      "alert": "OK",
      "vis_m": 9999,
      "fzfg": false,
      "metar_trigger": false,
      "taf_trigger": false,
      "metar": "METAR GMMX 262200Z 01004KT 340V040 CAVOK 26/17 Q1019 NOSIG",
      "taf": "TAF GMMX 261700Z 2618/2724 06006KT 8000 NSC"
    },
    {
      "icao": "HEGN",
      "alert": "OK",
      "vis_m": 9999,
      "fzfg": false,
      "metar_trigger": false,
      "taf_trigger": false,
      "metar": "METAR HEGN 262200Z 29010KT CAVOK 30/09 Q1007 NOSIG",
      "taf": "TAF HEGN 261700Z 2618/2724 32010G22KT CAVOK"
    },
    {
      "icao": "HEMA",
      "alert": "OK",
      "vis_m": 9999,
      "fzfg": false,
      "metar_trigger": false,
      "taf_trigger": false,
      "metar": "METAR HEMA 262200Z 31010KT CAVOK 29/05 Q1007 NOSIG",
      "taf": "TAF HEMA 261700Z 2618/2724 33010G22KT CAVOK"
    },
    {
      "icao": "HESH",
      "alert": "OK",
      "vis_m": 9999,
      "fzfg": false,
      "metar_trigger": false,
      "taf_trigger": false,
      "metar": "METAR HESH 262200Z 35012KT CAVOK 31/16 Q1006 NOSIG",
      "taf": "TAF HESH 261700Z 2618/2724 36013KT CAVOK"
    },
    {
      "icao": "HESX",
      "alert": "OK",
      "vis_m": 9999,
      "fzfg": false,
      "metar_trigger": false,
      "taf_trigger": false,
      "metar": "METAR HESX 262200Z 02004KT CAVOK 23/16 Q1012 NOSIG",
      "taf": "TAF HESX 261700Z 2618/2724 35010KT CAVOK"
    },
    {
      "icao": "LATI",
      "alert": "OK",
      "vis_m": 9999,
      "fzfg": false,
      "metar_trigger": false,
      "taf_trigger": false,
      "metar": "METAR LATI 262220Z VRB02KT CAVOK 24/18 Q1016 NOSIG",
      "taf": "TAF LATI 261700Z 2618/2718 VRB05KT CAVOK TX38/2712Z TN21/2704Z"
    },
    {
      "icao": "LBPD",
      "alert": "OK",
      "vis_m": 9999,
      "fzfg": false,
      "metar_trigger": false,
      "taf_trigger": false,
      "metar": "METAR LBPD 262200Z AUTO 00000KT 9999 NCD 22/19 Q1018",
      "taf": "TAF LBPD 261700Z 2618/2718 13010KT 9999 SCT070"
    },
    {
      "icao": "LBSF",
      "alert": "OK",
      "vis_m": 9999,
      "fzfg": false,
      "metar_trigger": false,
      "taf_trigger": false,
      "metar": "METAR LBSF 262200Z AUTO 18003KT 130V230 9999 NCD 19/16 Q1021 NOSIG",
      "taf": "TAF LBSF 261700Z 2618/2718 04010KT 9999 SCT060"
    },
    {
      "icao": "LBWN",
      "alert": "OK",
      "vis_m": 9999,
      "fzfg": false,
      "metar_trigger": false,
      "taf_trigger": false,
      "metar": "METAR LBWN 262200Z AUTO VRB02KT 9999 NSC 19/13 Q1017 NOSIG",
      "taf": "TAF LBWN 261700Z 2618/2718 11012KT CAVOK"
    },
    {
      "icao": "LCLK",
      "alert": "OK",
      "vis_m": 8000,
      "fzfg": false,
      "metar_trigger": false,
      "taf_trigger": false,
      "metar": "METAR LCLK 262200Z 21003KT 8000 NSC 24/24 Q1007 TEMPO 5000 BR BKN009",
      "taf": "TAF LCLK 261730Z 2618/2718 26007KT 9999 FEW020"
    },
    {
      "icao": "LCPH",
      "alert": "OK",
      "vis_m": 9999,
      "fzfg": false,
      "metar_trigger": false,
      "taf_trigger": false,
      "metar": "METAR LCPH 262200Z AUTO 34005KT 9999 NCD 23/21 Q1008 NOSIG",
      "taf": "TAF LCPH 261730Z 2618/2718 30012KT 9999 FEW012"
    },
    {
      "icao": "LEAL",
      "alert": "OK",
      "vis_m": 9999,
      "fzfg": false,
      "metar_trigger": false,
      "taf_trigger": false,
      "metar": "METAR LEAL 262200Z 09006KT 9999 BKN015 26/22 Q1018 TEMPO BKN010",
      "taf": ""
    },
    {
      "icao": "LEBB",
      "alert": "OK",
      "vis_m": 9999,
      "fzfg": false,
      "metar_trigger": false,
      "taf_trigger": false,
      "metar": "METAR LEBB 262200Z AUTO 30003KT 260V350 9999 SCT012 24/22 Q1017",
      "taf": "TAF LEBB 261700Z 2618/2718 30009KT 9999 FEW040 TX28/2618Z TN20/2703Z"
    },
    {
      "icao": "LEBL",
      "alert": "OK",
      "vis_m": 9999,
      "fzfg": false,
      "metar_trigger": false,
      "taf_trigger": false,
      "metar": "METAR LEBL 262200Z 10001KT CAVOK 27/22 Q1018 NOSIG",
      "taf": "TAF LEBL 261700Z 2618/2718 20008KT CAVOK TX32/2712Z TN23/2705Z"
    },
    {
      "icao": "LECH",
      "alert": "OK",
      "vis_m": 9999,
      "fzfg": false,
      "metar_trigger": false,
      "taf_trigger": false,
      "metar": "METAR LECH 262200Z AUTO 01003KT 9999 SCT012 22/20 Q1020",
      "taf": "TAF LECH 261700Z 2618/2718 VRB04KT 9999 FEW020 TX34/2712Z TN18/2706Z"
    },
    {
      "icao": "LEMD",
      "alert": "OK",
      "vis_m": 9999,
      "fzfg": false,
      "metar_trigger": false,
      "taf_trigger": false,
      "metar": "METAR LEMD 262200Z 31005KT 290V030 CAVOK 28/09 Q1018 NOSIG",
      "taf": "TAF LEMD 261700Z 2618/2724 VRB04KT CAVOK TX35/2716Z TN19/2706Z"
    },
    {
      "icao": "LEMG",
      "alert": "OK",
      "vis_m": 9999,
      "fzfg": false,
      "metar_trigger": false,
      "taf_trigger": false,
      "metar": "METAR LEMG 262200Z 00000KT CAVOK 22/18 Q1017 NOSIG",
      "taf": "TAF LEMG 261700Z 2618/2718 14010KT CAVOK TX33/2713Z TN22/2705Z"
    },
    {
      "icao": "LEVC",
      "alert": "OK",
      "vis_m": 9999,
      "fzfg": false,
      "metar_trigger": false,
      "taf_trigger": false,
      "metar": "METAR LEVC 262200Z 16003KT 9999 SCT016 SCT023 26/22 Q1018 NOSIG",
      "taf": "TAF LEVC 261700Z 2618/2718 09008KT 9999 FEW020 TX32/2712Z TN21/2706Z"
    },
    {
      "icao": "LEXJ",
      "alert": "OK",
      "vis_m": 9000,
      "fzfg": false,
      "metar_trigger": false,
      "taf_trigger": false,
      "metar": "METAR LEXJ 262200Z AUTO VRB01KT 9000 FEW014 22/21 Q1017",
      "taf": "TAF LEXJ 262000Z 2621/2721 VRB03KT 9999 FEW015 TX27/2713Z TN19/2705Z"
    },
    {
      "icao": "LEZG",
      "alert": "OK",
      "vis_m": 9999,
      "fzfg": false,
      "metar_trigger": false,
      "taf_trigger": false,
      "metar": "METAR LEZG 262200Z 10011KT CAVOK 28/10 Q1016 NOSIG",
      "taf": "TAF LEZG 261700Z 2618/2718 10012KT CAVOK TX38/2715Z TN22/2706Z"
    },
    {
      "icao": "LEZL",
      "alert": "OK",
      "vis_m": 9999,
      "fzfg": false,
      "metar_trigger": false,
      "taf_trigger": false,
      "metar": "METAR LEZL 262200Z 22009KT CAVOK 25/18 Q1017 NOSIG",
      "taf": "TAF LEZL 262000Z 2621/2721 21010KT CAVOK TX36/2715Z TN20/2705Z"
    },
    {
      "icao": "LFBD",
      "alert": "OK",
      "vis_m": 9999,
      "fzfg": false,
      "metar_trigger": false,
      "taf_trigger": false,
      "metar": "METAR LFBD 262200Z AUTO 34004KT CAVOK 26/20 Q1016 NOSIG",
      "taf": "TAF LFBD 261700Z 2618/2724 33006KT CAVOK TX37/2715Z TN23/2724Z"
    },
    {
      "icao": "LFLL",
      "alert": "OK",
      "vis_m": 9999,
      "fzfg": false,
      "metar_trigger": false,
      "taf_trigger": false,
      "metar": "METAR LFLL 262200Z 16008KT CAVOK 31/14 Q1018 NOSIG",
      "taf": "TAF LFLL 261700Z 2618/2724 16009KT CAVOK"
    },
    {
      "icao": "LFLS",
      "alert": "OK",
      "vis_m": 9999,
      "fzfg": false,
      "metar_trigger": false,
      "taf_trigger": false,
      "metar": "METAR LFLS 262200Z AUTO 23010KT CAVOK 28/14 Q1020",
      "taf": "TAF LFLS 261400Z 2615/2715 22008KT CAVOK"
    },
    {
      "icao": "LFMN",
      "alert": "OK",
      "vis_m": 9999,
      "fzfg": false,
      "metar_trigger": false,
      "taf_trigger": false,
      "metar": "METAR LFMN 262200Z 34007KT CAVOK 29/17 Q1018 NOSIG",
      "taf": "TAF LFMN 262000Z 2621/2803 34006KT CAVOK"
    },
    {
      "icao": "LFOB",
      "alert": "OK",
      "vis_m": 9999,
      "fzfg": false,
      "metar_trigger": false,
      "taf_trigger": false,
      "metar": "METAR LFOB 262200Z AUTO 31006KT 9999 ///CB 21/15 Q1018 BECMG NSC",
      "taf": "TAF LFOB 261700Z 2618/2718 35010KT CAVOK"
    },
    {
      "icao": "LFPO",
      "alert": "OK",
      "vis_m": 9999,
      "fzfg": false,
      "metar_trigger": false,
      "taf_trigger": false,
      "metar": "METAR LFPO 262200Z AUTO 02010KT CAVOK 27/14 Q1017 NOSIG",
      "taf": "TAF LFPO 261700Z 2618/2724 36007KT CAVOK"
    },
    {
      "icao": "LFSB",
      "alert": "OK",
      "vis_m": 9999,
      "fzfg": false,
      "metar_trigger": false,
      "taf_trigger": false,
      "metar": "METAR LFSB 262200Z AUTO 22002KT CAVOK 25/18 Q1017 NOSIG",
      "taf": "TAF LFSB 261700Z 2618/2718 10005KT CAVOK"
    },
    {
      "icao": "LGAV",
      "alert": "OK",
      "vis_m": 9999,
      "fzfg": false,
      "metar_trigger": false,
      "taf_trigger": false,
      "metar": "METAR LGAV 262150Z 01015KT CAVOK 28/13 Q1014 NOSIG",
      "taf": "TAF LGAV 261700Z 2618/2718 04015G25KT 9999 FEW025"
    },
    {
      "icao": "LGTS",
      "alert": "OK",
      "vis_m": 9999,
      "fzfg": false,
      "metar_trigger": false,
      "taf_trigger": false,
      "metar": "METAR LGTS 262150Z VRB01KT 9999 FEW020 25/21 Q1016 NOSIG",
      "taf": ""
    },
    {
      "icao": "LHBP",
      "alert": "OK",
      "vis_m": 9999,
      "fzfg": false,
      "metar_trigger": false,
      "taf_trigger": false,
      "metar": "METAR LHBP 262200Z VRB02KT CAVOK 25/14 Q1019 NOSIG",
      "taf": "TAF LHBP 261715Z 2618/2718 VRB03KT CAVOK"
    },
    {
      "icao": "LHDC",
      "alert": "OK",
      "vis_m": 9999,
      "fzfg": false,
      "metar_trigger": false,
      "taf_trigger": false,
      "metar": "METAR LHDC 262145Z AUTO 00000KT CAVOK 24/15 Q1019",
      "taf": "TAF LHDC 261415Z 2615/2624 04008KT CAVOK"
    },
    {
      "icao": "LIBD",
      "alert": "OK",
      "vis_m": 9999,
      "fzfg": false,
      "metar_trigger": false,
      "taf_trigger": false,
      "metar": "METAR LIBD 262150Z 24004KT CAVOK 24/18 Q1017",
      "taf": "TAF LIBD 261700Z 2618/2718 VRB05KT CAVOK"
    },
    {
      "icao": "LIBG",
      "alert": "OK",
      "vis_m": 9999,
      "fzfg": false,
      "metar_trigger": false,
      "taf_trigger": false,
      "metar": "METAR LIBG 262150Z AUTO 00000KT 9999 NCD 25/16 Q1016",
      "taf": "TAF LIBG 261700Z 2618/2718 VRB05KT 9999 FEW030"
    },
    {
      "icao": "LIBP",
      "alert": "OK",
      "vis_m": 9999,
      "fzfg": false,
      "metar_trigger": false,
      "taf_trigger": false,
      "metar": "METAR LIBP 262150Z AUTO 23001KT 9999 NCD 24/18 Q1018",
      "taf": "TAF LIBP 261700Z 2618/2718 VRB05KT 9999 FEW030"
    },
    {
      "icao": "LIBR",
      "alert": "OK",
      "vis_m": 9999,
      "fzfg": false,
      "metar_trigger": false,
      "taf_trigger": false,
      "metar": "METAR LIBR 262150Z 33009KT CAVOK 26/25 Q1016",
      "taf": "TAF LIBR 261700Z 2618/2718 33013KT 9999 FEW030"
    },
    {
      "icao": "LICA",
      "alert": "OK",
      "vis_m": 9999,
      "fzfg": false,
      "metar_trigger": false,
      "taf_trigger": false,
      "metar": "METAR LICA 262150Z AUTO VRB02KT 9999 BKN015/// 25/24 Q1018",
      "taf": "TAF LICA 261700Z 2618/2718 26012KT 9999 SCT030"
    },
    {
      "icao": "LICC",
      "alert": "OK",
      "vis_m": 9999,
      "fzfg": false,
      "metar_trigger": false,
      "taf_trigger": false,
      "metar": "METAR LICC 262150Z 24003KT 200V330 CAVOK 24/16 Q1017",
      "taf": "TAF LICC 261700Z 2618/2718 25008KT 9999 SCT050"
    },
    {
      "icao": "LICJ",
      "alert": "OK",
      "vis_m": 9999,
      "fzfg": false,
      "metar_trigger": false,
      "taf_trigger": false,
      "metar": "METAR LICJ 262150Z 05006KT CAVOK 27/24 Q1017",
      "taf": "TAF LICJ 261700Z 2618/2718 04010KT 9999 FEW020"
    },
    {
      "icao": "LIMC",
      "alert": "OK",
      "vis_m": 9999,
      "fzfg": false,
      "metar_trigger": false,
      "taf_trigger": false,
      "metar": "METAR LIMC 262150Z 05004KT 010V070 CAVOK 26/21 Q1019 NOSIG",
      "taf": "TAF LIMC 261700Z 2618/2724 VRB05KT 9999 FEW060"
    },
    {
      "icao": "LIME",
      "alert": "OK",
      "vis_m": 9999,
      "fzfg": false,
      "metar_trigger": false,
      "taf_trigger": false,
      "metar": "METAR LIME 262150Z 02004KT CAVOK 29/21 Q1019 NOSIG",
      "taf": "TAF LIME 261700Z 2618/2718 VRB05KT 9999 FEW060"
    },
    {
      "icao": "LIMF",
      "alert": "OK",
      "vis_m": 9999,
      "fzfg": false,
      "metar_trigger": false,
      "taf_trigger": false,
      "metar": "METAR LIMF 262150Z 35004KT CAVOK 28/21 Q1020",
      "taf": "TAF LIMF 261700Z 2618/2718 VRB05KT CAVOK"
    },
    {
      "icao": "LIMJ",
      "alert": "OK",
      "vis_m": 9999,
      "fzfg": false,
      "metar_trigger": false,
      "taf_trigger": false,
      "metar": "METAR LIMJ 262150Z VRB02KT CAVOK 28/21 Q1018",
      "taf": "TAF LIMJ 261700Z 2618/2718 VRB05KT CAVOK"
    },
    {
      "icao": "LIPE",
      "alert": "OK",
      "vis_m": 9999,
      "fzfg": false,
      "metar_trigger": false,
      "taf_trigger": false,
      "metar": "METAR LIPE 262150Z VRB02KT CAVOK 29/14 Q1018",
      "taf": "TAF LIPE 261700Z 2618/2718 VRB05KT 9999 FEW040"
    },
    {
      "icao": "LIPH",
      "alert": "OK",
      "vis_m": 9999,
      "fzfg": false,
      "metar_trigger": false,
      "taf_trigger": false,
      "metar": "METAR LIPH 262150Z AUTO 19002KT 9999 NCD 25/19 Q1018",
      "taf": "TAF LIPH 261700Z 2618/2718 VRB05KT 9999 FEW040"
    },
    {
      "icao": "LIPQ",
      "alert": "OK",
      "vis_m": 9999,
      "fzfg": false,
      "metar_trigger": false,
      "taf_trigger": false,
      "metar": "METAR LIPQ 262150Z AUTO VRB02KT 9999 NCD 23/21 Q1018",
      "taf": "TAF LIPQ 261700Z 2618/2718 VRB05KT 9999 SCT040"
    },
    {
      "icao": "LIPR",
      "alert": "OK",
      "vis_m": 9999,
      "fzfg": false,
      "metar_trigger": false,
      "taf_trigger": false,
      "metar": "METAR LIPR 262150Z 20003KT CAVOK 24/15 Q1018",
      "taf": "TAF LIPR 261700Z 2618/2718 VRB05KT CAVOK"
    },
    {
      "icao": "LIPX",
      "alert": "OK",
      "vis_m": 9999,
      "fzfg": false,
      "metar_trigger": false,
      "taf_trigger": false,
      "metar": "METAR LIPX 262150Z 07004KT CAVOK 29/16 Q1019",
      "taf": "TAF LIPX 261700Z 2618/2718 VRB05KT CAVOK"
    },
    {
      "icao": "LIPY",
      "alert": "OK",
      "vis_m": 9999,
      "fzfg": false,
      "metar_trigger": false,
      "taf_trigger": false,
      "metar": "METAR LIPY 262150Z AUTO 20004KT 9999 NCD 22/18 Q1018",
      "taf": "TAF LIPY 261700Z 2618/2718 VRB05KT CAVOK"
    },
    {
      "icao": "LIPZ",
      "alert": "OK",
      "vis_m": 9999,
      "fzfg": false,
      "metar_trigger": false,
      "taf_trigger": false,
      "metar": "METAR LIPZ 262150Z VRB02KT CAVOK 29/18 Q1018 NOSIG",
      "taf": "TAF LIPZ 261700Z 2618/2724 VRB05KT CAVOK"
    },
    {
      "icao": "LIRF",
      "alert": "OK",
      "vis_m": 9999,
      "fzfg": false,
      "metar_trigger": false,
      "taf_trigger": false,
      "metar": "METAR LIRF 262150Z 24003KT CAVOK 27/25 Q1017 NOSIG",
      "taf": "TAF LIRF 261700Z 2618/2724 26012KT CAVOK"
    },
    {
      "icao": "LIRN",
      "alert": "OK",
      "vis_m": 9999,
      "fzfg": false,
      "metar_trigger": false,
      "taf_trigger": false,
      "metar": "METAR LIRN 262150Z 03003KT CAVOK 28/20 Q1018 NOSIG",
      "taf": "TAF LIRN 261700Z 2618/2718 VRB05KT CAVOK"
    },
    {
      "icao": "LIRP",
      "alert": "OK",
      "vis_m": 9999,
      "fzfg": false,
      "metar_trigger": false,
      "taf_trigger": false,
      "metar": "METAR LIRP 262145Z 17004KT CAVOK 25/21 Q1018 NOSIG",
      "taf": "TAF LIRP 261700Z 2618/2718 29010KT CAVOK"
    },
    {
      "icao": "LIRZ",
      "alert": "OK",
      "vis_m": 9999,
      "fzfg": false,
      "metar_trigger": false,
      "taf_trigger": false,
      "metar": "METAR LIRZ 262150Z AUTO 02009KT 9999 NCD 24/14 Q1018",
      "taf": "TAF LIRZ 261700Z 2618/2718 04012KT CAVOK"
    },
    {
      "icao": "LJLJ",
      "alert": "OK",
      "vis_m": 9999,
      "fzfg": false,
      "metar_trigger": false,
      "taf_trigger": false,
      "metar": "METAR LJLJ 262200Z 32008KT CAVOK 20/17 Q1021 NOSIG",
      "taf": "TAF LJLJ 261700Z 2618/2718 12006KT 9999 FEW070"
    },
    {
      "icao": "LKMT",
      "alert": "OK",
      "vis_m": 9999,
      "fzfg": false,
      "metar_trigger": false,
      "taf_trigger": false,
      "metar": "METAR LKMT 262200Z 22002KT CAVOK 21/17 Q1021 NOSIG",
      "taf": "TAF LKMT 261700Z 2618/2718 VRB02KT CAVOK"
    },
    {
      "icao": "LKPR",
      "alert": "OK",
      "vis_m": 9999,
      "fzfg": false,
      "metar_trigger": false,
      "taf_trigger": false,
      "metar": "METAR LKPR 262200Z 10005KT 060V140 CAVOK 25/16 Q1020 NOSIG",
      "taf": "TAF LKPR 262000Z 2621/2803 07004KT CAVOK"
    },
    {
      "icao": "LLBG",
      "alert": "OK",
      "vis_m": 9999,
      "fzfg": false,
      "metar_trigger": false,
      "taf_trigger": false,
      "metar": "METAR LLBG 262150Z 16007KT 9999 SCT023 25/20 Q1010 NOSIG",
      "taf": "TAF LLBG 261704Z 2618/2718 VRB04KT 9999 SCT020 TX30/2711Z TN22/2702Z"
    },
    {
      "icao": "LMML",
      "alert": "OK",
      "vis_m": 9999,
      "fzfg": false,
      "metar_trigger": false,
      "taf_trigger": false,
      "metar": "METAR LMML 262215Z 30004KT CAVOK 26/20 Q1017 NOSIG",
      "taf": "TAF LMML 261700Z 2618/2718 35007KT 9999 FEW020"
    },
    {
      "icao": "LOWW",
      "alert": "OK",
      "vis_m": 9999,
      "fzfg": false,
      "metar_trigger": false,
      "taf_trigger": false,
      "metar": "METAR LOWW 262150Z 23003KT 200V260 CAVOK 26/15 Q1019 NOSIG",
      "taf": "TAF LOWW 262015Z 2621/2803 VRB03KT CAVOK TX37/2714Z TN20/2703Z"
    },
    {
      "icao": "LPFR",
      "alert": "OK",
      "vis_m": 9999,
      "fzfg": false,
      "metar_trigger": false,
      "taf_trigger": false,
      "metar": "METAR LPFR 262200Z 30011KT CAVOK 22/16 Q1018",
      "taf": "TAF LPFR 261700Z 2618/2718 23013KT CAVOK"
    },
    {
      "icao": "LPMA",
      "alert": "OK",
      "vis_m": 9999,
      "fzfg": false,
      "metar_trigger": false,
      "taf_trigger": false,
      "metar": "METAR LPMA 262200Z 35012KT 310V030 9999 SCT015 22/16 Q1021",
      "taf": "TAF LPMA 261700Z 2618/2718 VRB05KT 9999 FEW015 SCT030"
    },
    {
      "icao": "LPPR",
      "alert": "OK",
      "vis_m": 9999,
      "fzfg": false,
      "metar_trigger": false,
      "taf_trigger": false,
      "metar": "METAR LPPR 262200Z 25003KT 210V290 9999 FEW020 20/18 Q1019",
      "taf": "TAF LPPR 261700Z 2618/2718 25007KT 9999 FEW015"
    },
    {
      "icao": "LPPS",
      "alert": "OK",
      "vis_m": 9999,
      "fzfg": false,
      "metar_trigger": false,
      "taf_trigger": false,
      "metar": "METAR LPPS 262200Z 34008KT 320V020 9999 SCT013 22/18 Q1021",
      "taf": "TAF LPPS 261700Z 2618/2724 35010KT 9999 SCT015 SCT030"
    },
    {
      "icao": "LPPT",
      "alert": "OK",
      "vis_m": 9999,
      "fzfg": false,
      "metar_trigger": false,
      "taf_trigger": false,
      "metar": "METAR LPPT 262200Z 30005KT 9999 FEW015 19/17 Q1019",
      "taf": "TAF LPPT 261700Z 2618/2724 24010KT 9999 SCT030"
    },
    {
      "icao": "LQBK",
      "alert": "OK",
      "vis_m": 9999,
      "fzfg": false,
      "metar_trigger": false,
      "taf_trigger": false,
      "metar": "METAR LQBK 262200Z 15003KT CAVOK 20/16 Q1019 NOSIG",
      "taf": "TAF LQBK 261700Z 2618/2718 15005KT CAVOK TX34/2713Z TN18/2703Z"
    },
    {
      "icao": "LQSA",
      "alert": "OK",
      "vis_m": 9999,
      "fzfg": false,
      "metar_trigger": false,
      "taf_trigger": false,
      "metar": "METAR LQSA 262200Z VRB02KT CAVOK 20/15 Q1022",
      "taf": "TAF LQSA 261700Z 2618/2718 34006KT CAVOK TX34/2714Z TN17/2703Z"
    },
    {
      "icao": "LQTZ",
      "alert": "OK",
      "vis_m": 9999,
      "fzfg": false,
      "metar_trigger": false,
      "taf_trigger": false,
      "metar": "METAR LQTZ 262200Z 10003KT CAVOK 17/16 Q1020",
      "taf": "TAF LQTZ 261700Z 2618/2718 VRB02KT CAVOK TX34/2714Z TN15/2703Z"
    },
    {
      "icao": "LRBC",
      "alert": "OK",
      "vis_m": 9999,
      "fzfg": false,
      "metar_trigger": false,
      "taf_trigger": false,
      "metar": "METAR LRBC 262200Z 34007KT CAVOK 20/16 Q1020",
      "taf": "TAF LRBC 262000Z 2621/2706 35005KT CAVOK"
    },
    {
      "icao": "LRBS",
      "alert": "OK",
      "vis_m": 9999,
      "fzfg": false,
      "metar_trigger": false,
      "taf_trigger": false,
      "metar": "METAR LRBS 262200Z VRB02KT CAVOK 25/17 Q1018 NOSIG",
      "taf": "TAF LRBS 261700Z 2618/2718 VRB04KT CAVOK"
    },
    {
      "icao": "LRBV",
      "alert": "OK",
      "vis_m": 9999,
      "fzfg": false,
      "metar_trigger": false,
      "taf_trigger": false,
      "metar": "METAR LRBV 262200Z AUTO 22006KT 9999 BKN069/// 19/15 Q1021",
      "taf": "TAF LRBV 261700Z 2618/2703 VRB04KT CAVOK"
    },
    {
      "icao": "LRCL",
      "alert": "OK",
      "vis_m": 9999,
      "fzfg": false,
      "metar_trigger": false,
      "taf_trigger": false,
      "metar": "METAR LRCL 262200Z 29005KT CAVOK 22/15 Q1020",
      "taf": "TAF LRCL 262000Z 2621/2706 VRB04KT CAVOK"
    },
    {
      "icao": "LRCV",
      "alert": "OK",
      "vis_m": 9999,
      "fzfg": false,
      "metar_trigger": false,
      "taf_trigger": false,
      "metar": "METAR LRCV 262200Z 05004KT CAVOK 23/20 Q1018",
      "taf": "TAF LRCV 262000Z 2621/2706 VRB04KT CAVOK"
    },
    {
      "icao": "LRIA",
      "alert": "OK",
      "vis_m": 9999,
      "fzfg": false,
      "metar_trigger": false,
      "taf_trigger": false,
      "metar": "METAR LRIA 262200Z 03006KT CAVOK 21/15 Q1020",
      "taf": "TAF LRIA 262000Z 2621/2706 06005KT CAVOK"
    },
    {
      "icao": "LROP",
      "alert": "OK",
      "vis_m": 9999,
      "fzfg": false,
      "metar_trigger": false,
      "taf_trigger": false,
      "metar": "METAR LROP 262200Z 00000KT CAVOK 24/18 Q1018 NOSIG",
      "taf": "TAF LROP 261700Z 2618/2718 VRB04KT CAVOK"
    },
    {
      "icao": "LRSB",
      "alert": "OK",
      "vis_m": 9999,
      "fzfg": false,
      "metar_trigger": false,
      "taf_trigger": false,
      "metar": "METAR LRSB 262200Z 22003KT 190V250 CAVOK 20/14 Q1021",
      "taf": "TAF LRSB 261700Z 2618/2718 VRB04KT CAVOK"
    },
    {
      "icao": "LRSM",
      "alert": "OK",
      "vis_m": 9999,
      "fzfg": false,
      "metar_trigger": false,
      "taf_trigger": false,
      "metar": "METAR LRSM 262200Z AUTO VRB02KT 9999 NCD 21/17 Q1019",
      "taf": "TAF LRSM 261400Z 2615/2624 VRB04KT CAVOK"
    },
    {
      "icao": "LRSV",
      "alert": "OK",
      "vis_m": 9999,
      "fzfg": false,
      "metar_trigger": false,
      "taf_trigger": false,
      "metar": "METAR LRSV 262200Z 08002KT CAVOK 20/15 Q1021",
      "taf": "TAF LRSV 262000Z 2621/2706 33005KT CAVOK"
    },
    {
      "icao": "LRTM",
      "alert": "OK",
      "vis_m": 9999,
      "fzfg": false,
      "metar_trigger": false,
      "taf_trigger": false,
      "metar": "METAR LRTM 262200Z VRB02KT CAVOK 19/17 Q1019",
      "taf": "TAF LRTM 262000Z 2621/2706 VRB04KT CAVOK"
    },
    {
      "icao": "LRTR",
      "alert": "OK",
      "vis_m": 9999,
      "fzfg": false,
      "metar_trigger": false,
      "taf_trigger": false,
      "metar": "METAR LRTR 262200Z 36006KT CAVOK 22/16 Q1018",
      "taf": "TAF LRTR 261700Z 2618/2718 04010KT CAVOK"
    },
    {
      "icao": "LTAC",
      "alert": "OK",
      "vis_m": 9999,
      "fzfg": false,
      "metar_trigger": false,
      "taf_trigger": false,
      "metar": "METAR LTAC 262150Z 04007KT CAVOK 17/09 Q1018 NOSIG RMK RWY21C 06007KT RWY03L 01004KT 310V040 RWY21R 02006KT RWY03R 02006KT RWY21L 03008KT",
      "taf": "TAF LTAC 261640Z 2618/2718 03012KT CAVOK"
    },
    {
      "icao": "LTFM",
      "alert": "OK",
      "vis_m": 9999,
      "fzfg": false,
      "metar_trigger": false,
      "taf_trigger": false,
      "metar": "METAR LTFM 262150Z 05007KT 9999 SCT008 24/21 Q1016 NOSIG RMK RWY17L 07006KT RWY34L 05006KT RWY16R 06006KT RWY36 07007KT RWY18 07006KT",
      "taf": "TAF LTFM 261640Z 2618/2724 04006KT CAVOK"
    },
    {
      "icao": "LUKK",
      "alert": "OK",
      "vis_m": 9999,
      "fzfg": false,
      "metar_trigger": false,
      "taf_trigger": false,
      "metar": "METAR LUKK 262200Z 35003KT CAVOK 19/17 Q1019 NOSIG",
      "taf": "TAF LUKK 261703Z 2618/2718 VRB05KT CAVOK"
    },
    {
      "icao": "LWOH",
      "alert": "OK",
      "vis_m": 9999,
      "fzfg": false,
      "metar_trigger": false,
      "taf_trigger": false,
      "metar": "METAR LWOH 262220Z 36006KT 9999 SCT090 20/15 Q1021",
      "taf": "TAF LWOH 262005Z 2621/2721 34006KT 9999 FEW090"
    },
    {
      "icao": "LWSK",
      "alert": "OK",
      "vis_m": 9999,
      "fzfg": false,
      "metar_trigger": false,
      "taf_trigger": false,
      "metar": "METAR LWSK 262220Z VRB01KT 9999 FEW085 23/16 Q1018 NOSIG",
      "taf": "TAF LWSK 262005Z 2621/2721 VRB02KT 9999 FEW090"
    },
    {
      "icao": "LYBE",
      "alert": "OK",
      "vis_m": 9999,
      "fzfg": false,
      "metar_trigger": false,
      "taf_trigger": false,
      "metar": "METAR LYBE 262200Z 34004KT 320V070 CAVOK 23/16 Q1018 NOSIG",
      "taf": "TAF LYBE 261700Z 2618/2718 32005KT CAVOK TX37/2713Z TN22/2703Z"
    },
    {
      "icao": "LYNI",
      "alert": "OK",
      "vis_m": 9999,
      "fzfg": false,
      "metar_trigger": false,
      "taf_trigger": false,
      "metar": "METAR LYNI 262200Z VRB01KT CAVOK 22/15 Q1019 NOSIG",
      "taf": "TAF LYNI 261700Z 2618/2718 34012KT CAVOK TX36/2713Z TN19/2703Z"
    },
    {
      "icao": "LYPG",
      "alert": "OK",
      "vis_m": 9999,
      "fzfg": false,
      "metar_trigger": false,
      "taf_trigger": false,
      "metar": "METAR LYPG 262200Z 36010KT CAVOK 29/14 Q1016 NOSIG",
      "taf": "TAF LYPG 261700Z 2618/2718 18005KT 9999 FEW050 TX38/2713Z TN24/2703Z"
    },
    {
      "icao": "LZIB",
      "alert": "OK",
      "vis_m": 9999,
      "fzfg": false,
      "metar_trigger": false,
      "taf_trigger": false,
      "metar": "METAR LZIB 262200Z 35003KT CAVOK 26/16 Q1019 NOSIG",
      "taf": "TAF LZIB 261715Z 2618/2718 05006KT CAVOK"
    },
    {
      "icao": "LZKZ",
      "alert": "OK",
      "vis_m": 9999,
      "fzfg": false,
      "metar_trigger": false,
      "taf_trigger": false,
      "metar": "METAR LZKZ 262200Z 02002KT CAVOK 23/17 Q1020 NOSIG",
      "taf": "TAF LZKZ 261715Z 2618/2718 01007KT CAVOK"
    },
    {
      "icao": "LZTT",
      "alert": "OK",
      "vis_m": 9999,
      "fzfg": false,
      "metar_trigger": false,
      "taf_trigger": false,
      "metar": "METAR LZTT 262200Z 29004KT 9999 FEW060 18/16 Q1024",
      "taf": "TAF LZTT 261715Z 2618/2718 26004KT 9999 FEW060"
    },
    {
      "icao": "OEJN",
      "alert": "OK",
      "vis_m": 9999,
      "fzfg": false,
      "metar_trigger": false,
      "taf_trigger": false,
      "metar": "METAR OEJN 262200Z 32006KT CAVOK 32/16 Q1004 NOSIG",
      "taf": "TAF OEJN 261700Z 2618/2724 02006KT 9999 SCT040"
    },
    {
      "icao": "OEMA",
      "alert": "OK",
      "vis_m": 9999,
      "fzfg": false,
      "metar_trigger": false,
      "taf_trigger": false,
      "metar": "METAR OEMA 262200Z 31005KT CAVOK 34/00 Q1010 NOSIG",
      "taf": "TAF OEMA 261700Z 2618/2724 VRB03KT CAVOK"
    },
    {
      "icao": "OJAI",
      "alert": "OK",
      "vis_m": 5000,
      "fzfg": false,
      "metar_trigger": false,
      "taf_trigger": false,
      "metar": "METAR OJAI 262200Z 28013KT 5000 HZ NSC 21/11 Q1013 NOSIG",
      "taf": "TAF OJAI 261700Z 2618/2724 28010KT 5000 HZ NSC"
    },
    {
      "icao": "OMAA",
      "alert": "OK",
      "vis_m": 9999,
      "fzfg": false,
      "metar_trigger": false,
      "taf_trigger": false,
      "metar": "METAR OMAA 262200Z 19005KT CAVOK 31/23 Q1000 NOSIG",
      "taf": "TAF OMAA 261700Z 2618/2800 28008KT 8000 NSC"
    },
    {
      "icao": "OMDB",
      "alert": "OK",
      "vis_m": 9999,
      "fzfg": false,
      "metar_trigger": false,
      "taf_trigger": false,
      "metar": "METAR OMDB 262200Z 15005KT 120V200 CAVOK 32/25 Q1000 NOSIG",
      "taf": "TAF OMDB 261700Z 2618/2800 VRB02KT 8000 NSC"
    },
    {
      "icao": "UAAA",
      "alert": "OK",
      "vis_m": 9999,
      "fzfg": false,
      "metar_trigger": false,
      "taf_trigger": false,
      "metar": "METAR UAAA 262200Z 11001MPS 9999 FEW100 SCT200 22/13 Q1007 NOSIG",
      "taf": "TAF UAAA 261702Z 2618/2718 17003MPS 9999 SCT050CB BKN100 TX36/2710Z TN20/2701Z"
    },
    {
      "icao": "UBBB",
      "alert": "OK",
      "vis_m": 9999,
      "fzfg": false,
      "metar_trigger": false,
      "taf_trigger": false,
      "metar": "METAR UBBB 262200Z 32006KT 9999 FEW060CB 24/19 Q1010 NOSIG",
      "taf": "TAF UBBB 261711Z 2618/2718 34008KT 9999 FEW060CB TX27/2710Z TN20/2701Z"
    },
    {
      "icao": "UDSG",
      "alert": "OK",
      "vis_m": 9999,
      "fzfg": false,
      "metar_trigger": false,
      "taf_trigger": false,
      "metar": "METAR UDSG 262200Z 31003KT 280V030 9999 NSC 13/07 Q1018 NOSIG",
      "taf": "TAF UDSG 261700Z 2618/2718 36006KT 9999 FEW050"
    },
    {
      "icao": "UDYZ",
      "alert": "OK",
      "vis_m": 9999,
      "fzfg": false,
      "metar_trigger": false,
      "taf_trigger": false,
      "metar": "METAR UDYZ 262200Z 01004KT 9999 SCT043CB 23/12 Q1011 NOSIG",
      "taf": "TAF UDYZ 261700Z 2618/2718 04006KT 9999 SCT040"
    },
    {
      "icao": "UGKO",
      "alert": "OK",
      "vis_m": 9999,
      "fzfg": false,
      "metar_trigger": false,
      "taf_trigger": false,
      "metar": "METAR UGKO 262200Z 09005KT 9999 BKN065 18/18 Q1011 NOSIG",
      "taf": "TAF UGKO 261700Z 2618/2718 26007KT 9999 SCT020 BKN050 TX23/2711Z TN17/2702Z"
    }
  ]
}