{
  "ts_utc": "2026-01-13T19:53:55Z",
  "threshold_m": 150,
  "source": "stations_override.txt (ICAO list) + aviationweather.gov (METAR/TAF raw)",
  "station_count": 159,
  "stations": [
    {
      "icao": "BIKF",
      "alert": "OK",
      "vis_m": 9999,
      "fzfg": false,
      "metar_trigger": false,
      "taf_trigger": false,
      "metar": "METAR BIKF 131930Z 01014KT 9999 SCT034 M02/M09 Q0996",
      "taf": "TAF BIKF 131952Z 1321/1421 01015KT 9999 SCT035 TX01/1419Z TNM04/1403Z"
    },
    {
      "icao": "BKPR",
      "alert": "OK",
      "vis_m": null,
      "fzfg": false,
      "metar_trigger": false,
      "taf_trigger": false,
      "metar": "",
      "taf": "TAF BKPR 131730Z 1318/1418 VRB03KT CAVOK"
    },
    {
      "icao": "EBCI",
      "alert": "OK",
      "vis_m": 9999,
      "fzfg": false,
      "metar_trigger": false,
      "taf_trigger": false,
      "metar": "METAR EBCI 131920Z 20011KT CAVOK 10/05 Q1008 NOSIG",
      "taf": "TAF EBCI 131704Z 1318/1424 21010KT 9999 FEW020 SCT040"
    },
    {
      "icao": "EDDB",
      "alert": "OK",
      "vis_m": 5000,
      "fzfg": false,
      "metar_trigger": false,
      "taf_trigger": false,
      "metar": "METAR EDDB 131920Z AUTO 13006KT 5000 BR SCT002 OVC048 03/03 Q1013 TEMPO 4000 BR BKN002",
      "taf": "TAF EDDB 131700Z 1318/1418 15007KT 1500 BR BKN002"
    },
    {
      "icao": "EDDH",
      "alert": "OK",
      "vis_m": 6000,
      "fzfg": false,
      "metar_trigger": false,
      "taf_trigger": false,
      "metar": "METAR EDDH 131920Z AUTO 15008KT 6000 -SHRA BKN004 OVC016 FEW///TCU 04/04 Q1008 RESHRA TEMPO 2500 RA SCT003 OVC015",
      "taf": "TAF EDDH 131700Z 1318/1424 16008KT 6000 OVC002"
    },
    {
      "icao": "EDDK",
      "alert": "OK",
      "vis_m": 9999,
      "fzfg": false,
      "metar_trigger": false,
      "taf_trigger": false,
      "metar": "METAR EDDK 131920Z AUTO 12004KT CAVOK 08/05 Q1010 NOSIG",
      "taf": "TAF EDDK 131700Z 1318/1424 13008KT CAVOK"
    },
    {
      "icao": "EDDN",
      "alert": "OK",
      "vis_m": 9999,
      "fzfg": false,
      "metar_trigger": false,
      "taf_trigger": false,
      "metar": "METAR EDDN 131920Z AUTO 14006KT CAVOK 03/02 Q1014 NOSIG",
      "taf": "TAF EDDN 131700Z 1318/1418 12007KT 9999 SCT040"
    },
    {
      "icao": "EDDS",
      "alert": "OK",
      "vis_m": 9999,
      "fzfg": false,
      "metar_trigger": false,
      "taf_trigger": false,
      "metar": "METAR EDDS 131920Z AUTO 22003KT 190V250 CAVOK 07/03 Q1013 NOSIG",
      "taf": "TAF EDDS 131700Z 1318/1418 VRB02KT CAVOK"
    },
    {
      "icao": "EDFH",
      "alert": "OK",
      "vis_m": 9999,
      "fzfg": false,
      "metar_trigger": false,
      "taf_trigger": false,
      "metar": "METAR EDFH 131920Z 20008KT CAVOK 08/06 Q1011",
      "taf": "TAF EDFH 131700Z 1318/1418 18008KT 9999 FEW040"
    },
    {
      "icao": "EDJA",
      "alert": "OK",
      "vis_m": 9999,
      "fzfg": false,
      "metar_trigger": false,
      "taf_trigger": false,
      "metar": "METAR EDJA 131920Z 17004KT CAVOK M00/M01 Q1015",
      "taf": "TAF EDJA 131700Z 1318/1403 19005KT CAVOK"
    },
    {
      "icao": "EDLW",
      "alert": "OK",
      "vis_m": 9999,
      "fzfg": false,
      "metar_trigger": false,
      "taf_trigger": false,
      "metar": "METAR EDLW 131920Z 17012KT CAVOK 09/05 Q1008",
      "taf": "TAF EDLW 131700Z 1318/1418 18012KT CAVOK"
    },
    {
      "icao": "EDNY",
      "alert": "OK",
      "vis_m": 4900,
      "fzfg": false,
      "metar_trigger": false,
      "taf_trigger": false,
      "metar": "METAR EDNY 131850Z 00000KT 4900 0950SW R24/2000D NSC 00/00 Q1015",
      "taf": ""
    },
    {
      "icao": "EDSB",
      "alert": "OK",
      "vis_m": 9999,
      "fzfg": false,
      "metar_trigger": false,
      "taf_trigger": false,
      "metar": "METAR EDSB 131920Z 22002KT CAVOK 06/05 Q1013",
      "taf": "TAF EDSB 131700Z 1318/1418 21004KT CAVOK"
    },
    {
      "icao": "EETN",
      "alert": "OK",
      "vis_m": 9999,
      "fzfg": false,
      "metar_trigger": false,
      "taf_trigger": false,
      "metar": "METAR EETN 131950Z 14003KT 110V170 9999 OVC015 M12/M13 Q1022 TEMPO OVC014",
      "taf": "TAF EETN 131730Z 1318/1418 15005KT 9999 OVC020"
    },
    {
      "icao": "EFTU",
      "alert": "OK",
      "vis_m": 9999,
      "fzfg": false,
      "metar_trigger": false,
      "taf_trigger": false,
      "metar": "METAR EFTU 131950Z AUTO 11006KT 9999 -SHSN OVC011 M07/M09 Q1021",
      "taf": "TAF EFTU 131723Z 1318/1418 10007KT 9999 OVC015"
    },
    {
      "icao": "EGBB",
      "alert": "OK",
      "vis_m": 9999,
      "fzfg": false,
      "metar_trigger": false,
      "taf_trigger": false,
      "metar": "METAR EGBB 131920Z 32002KT CAVOK 04/03 Q1007",
      "taf": "TAF EGBB 131655Z 1318/1418 29007KT 9999 FEW025"
    },
    {
      "icao": "EGGP",
      "alert": "OK",
      "vis_m": 9999,
      "fzfg": false,
      "metar_trigger": false,
      "taf_trigger": false,
      "metar": "METAR EGGP 131920Z 26006KT CAVOK 02/00 Q1006",
      "taf": "TAF EGGP 131659Z 1318/1418 28010KT 9999 FEW035"
    },
    {
      "icao": "EGGW",
      "alert": "OK",
      "vis_m": 9999,
      "fzfg": false,
      "metar_trigger": false,
      "taf_trigger": false,
      "metar": "METAR EGGW 131920Z AUTO 33010KT 9999 -RA BKN020 BKN043 06/05 Q1005",
      "taf": "TAF EGGW 131700Z 1318/1418 33007KT 9999 FEW008 BKN030"
    },
    {
      "icao": "EGKK",
      "alert": "OK",
      "vis_m": 7000,
      "fzfg": false,
      "metar_trigger": false,
      "taf_trigger": false,
      "metar": "METAR EGKK 131920Z 22006KT 7000 -RA BKN005 09/09 Q1005",
      "taf": "TAF EGKK 131700Z 1318/1424 19009KT 9999 BKN015"
    },
    {
      "icao": "EGNM",
      "alert": "OK",
      "vis_m": 9999,
      "fzfg": false,
      "metar_trigger": false,
      "taf_trigger": false,
      "metar": "METAR EGNM 131920Z 30005KT 260V010 CAVOK 02/01 Q1004",
      "taf": "TAF EGNM 131659Z 1318/1418 27010KT 9999 FEW025"
    },
    {
      "icao": "EGPD",
      "alert": "OK",
      "vis_m": 9999,
      "fzfg": false,
      "metar_trigger": false,
      "taf_trigger": false,
      "metar": "METAR EGPD 131920Z COR AUTO 25007KT 9999 NCD 03/M01 Q0998 NOSIG",
      "taf": "TAF EGPD 131655Z 1318/1418 27009KT 9999 FEW030"
    },
    {
      "icao": "EGPF",
      "alert": "OK",
      "vis_m": 9999,
      "fzfg": false,
      "metar_trigger": false,
      "taf_trigger": false,
      "metar": "METAR EGPF 131920Z AUTO 20003KT 180V250 9999 FEW031 SCT039 02/00 Q1003",
      "taf": "TAF EGPF 131658Z 1318/1418 26009KT 9999 SCT025"
    },
    {
      "icao": "EHBK",
      "alert": "OK",
      "vis_m": 9999,
      "fzfg": false,
      "metar_trigger": false,
      "taf_trigger": false,
      "metar": "METAR EHBK 131925Z AUTO 19012KT 9999 NSC 10/06 Q1008 NOSIG",
      "taf": "TAF EHBK 131714Z 1318/1424 20013KT 9999 BKN018"
    },
    {
      "icao": "EHEH",
      "alert": "OK",
      "vis_m": 9999,
      "fzfg": false,
      "metar_trigger": false,
      "taf_trigger": false,
      "metar": "METAR EHEH 131925Z AUTO 19008KT 9999 OVC100 10/06 Q1007 BLU NOSIG RMK TREND REMOTE BY EHWX",
      "taf": "TAF EHEH 131758Z 1318/1424 19010KT CAVOK"
    },
    {
      "icao": "EKBI",
      "alert": "OK",
      "vis_m": 2300,
      "fzfg": false,
      "metar_trigger": false,
      "taf_trigger": false,
      "metar": "METAR EKBI 131950Z AUTO 13008KT 2300 -RA BR OVC002/// 03/03 Q1005",
      "taf": "TAF EKBI 131727Z 1318/1418 15007KT 0200 FG VV002"
    },
    {
      "icao": "EKCH",
      "alert": "OK",
      "vis_m": 900,
      "fzfg": false,
      "metar_trigger": false,
      "taf_trigger": false,
      "metar": "METAR EKCH 131950Z 14009KT 0900 R22L/P1500N R04L/P1500N R12/P1500U FG VV003 03/03 Q1010 NOSIG",
      "taf": "TAF EKCH 131727Z 1318/1418 15015KT 1500 BR OVC002"
    },
    {
      "icao": "ENAL",
      "alert": "OK",
      "vis_m": 9999,
      "fzfg": false,
      "metar_trigger": false,
      "taf_trigger": false,
      "metar": "METAR ENAL 131920Z 13016KT 9999 -DZ FEW039 SCT050 04/M00 Q0999",
      "taf": "TAF ENAL 131700Z 1318/1403 13015KT 9999 BKN050"
    },
    {
      "icao": "ENBR",
      "alert": "OK",
      "vis_m": 9999,
      "fzfg": false,
      "metar_trigger": false,
      "taf_trigger": false,
      "metar": "METAR ENBR 131920Z 12009KT 090V150 9999 -RA FEW015 BKN037 03/00 Q0997 TEMPO 4000 RA BKN012 RMK WIND 1200FT 12023KT",
      "taf": "TAF ENBR 131700Z 1318/1418 13015KT 9999 -RA FEW020 BKN035"
    },
    {
      "icao": "ENGM",
      "alert": "OK",
      "vis_m": 3800,
      "fzfg": false,
      "metar_trigger": false,
      "taf_trigger": false,
      "metar": "METAR ENGM 131920Z 04004KT 3800 -SN SCT005 BKN024 M03/M04 Q1009 TEMPO 2500 -SN SCT005 BKN012",
      "taf": "TAF ENGM 131700Z 1318/1418 04010KT 8000 -SN BKN015"
    },
    {
      "icao": "ENHD",
      "alert": "OK",
      "vis_m": 9999,
      "fzfg": false,
      "metar_trigger": false,
      "taf_trigger": false,
      "metar": "METAR ENHD 131920Z 11021KT 9999 -RA BKN023 BKN028 03/01 Q0997",
      "taf": ""
    },
    {
      "icao": "ENTC",
      "alert": "OK",
      "vis_m": 9999,
      "fzfg": false,
      "metar_trigger": false,
      "taf_trigger": false,
      "metar": "METAR ENTC 131920Z 19017KT CAVOK M06/M13 Q1011 NOSIG RMK WIND 2600FT 16011KT",
      "taf": "TAF ENTC 131700Z 1318/1418 19012KT CAVOK"
    },
    {
      "icao": "ENTO",
      "alert": "OK",
      "vis_m": 1700,
      "fzfg": false,
      "metar_trigger": false,
      "taf_trigger": false,
      "metar": "METAR ENTO 131920Z 01006KT 1700 -SN SCT002 OVC005 M03/M03 Q1008 TEMPO 1200 SN OVC004",
      "taf": "TAF ENTO 131700Z 1318/1418 03008KT 3000 -SN BKN005"
    },
    {
      "icao": "ENVA",
      "alert": "OK",
      "vis_m": 9999,
      "fzfg": false,
      "metar_trigger": false,
      "taf_trigger": false,
      "metar": "METAR ENVA 131920Z 10011KT 060V140 CAVOK 01/M08 Q1005 TEMPO 15015G28KT RMK WIND 670FT 15023G41KT",
      "taf": "TAF ENVA 131700Z 1318/1418 13009KT CAVOK"
    },
    {
      "icao": "ENZV",
      "alert": "OK",
      "vis_m": 9999,
      "fzfg": false,
      "metar_trigger": false,
      "taf_trigger": false,
      "metar": "METAR ENZV 131920Z 12020KT 9999 -SHRA FEW021 BKN049 05/00 Q0998 TEMPO 14020G30KT",
      "taf": "TAF ENZV 131700Z 1318/1418 13018KT 9999 -RA FEW020 BKN035"
    },
    {
      "icao": "EPGD",
      "alert": "OK",
      "vis_m": 9000,
      "fzfg": false,
      "metar_trigger": false,
      "taf_trigger": false,
      "metar": "METAR EPGD 131930Z 15009KT 9000 NSC M05/M07 Q1017",
      "taf": "TAF EPGD 131730Z 1318/1418 15010KT 7000 BKN030"
    },
    {
      "icao": "EPKK",
      "alert": "OK",
      "vis_m": 1800,
      "fzfg": false,
      "metar_trigger": false,
      "taf_trigger": false,
      "metar": "METAR EPKK 131930Z 05005KT 1800 -FZDZ BR SCT003 OVC004 M04/M04 Q1018",
      "taf": "TAF EPKK 131730Z 1318/1418 VRB02KT 2000 -RASN BR OVC008"
    },
    {
      "icao": "EPKT",
      "alert": "OK",
      "vis_m": 1100,
      "fzfg": false,
      "metar_trigger": false,
      "taf_trigger": false,
      "metar": "METAR EPKT 131930Z 05004KT 1100 R26/P2000N BR FEW000 BKN007 OVC008 M02/M02 Q1017",
      "taf": "TAF EPKT 131730Z 1318/1418 VRB02KT 1300 BR BKN008"
    },
    {
      "icao": "EPLB",
      "alert": "OK",
      "vis_m": 3000,
      "fzfg": false,
      "metar_trigger": false,
      "taf_trigger": false,
      "metar": "METAR EPLB 131930Z 29001KT 3000 0200W PRFG BR VV002 M14/M15 Q1020",
      "taf": "TAF EPLB 131730Z 1318/1418 VRB02KT 3000 BR NSC"
    },
    {
      "icao": "EPMO",
      "alert": "OK",
      "vis_m": 6000,
      "fzfg": false,
      "metar_trigger": false,
      "taf_trigger": false,
      "metar": "METAR EPMO 131930Z 11005KT 6000 BKN046 M05/M07 Q1019",
      "taf": "TAF EPMO 131730Z 1318/1418 12007KT 6000 NSC"
    },
    {
      "icao": "EPPO",
      "alert": "OK",
      "vis_m": 3900,
      "fzfg": false,
      "metar_trigger": false,
      "taf_trigger": false,
      "metar": "METAR EPPO 131930Z 12007KT 3900 BR OVC010 M02/M03 Q1016",
      "taf": "TAF EPPO 131730Z 1318/1418 15008KT 4000 BR BKN010"
    },
    {
      "icao": "EPRA",
      "alert": "OK",
      "vis_m": 5000,
      "fzfg": false,
      "metar_trigger": false,
      "taf_trigger": false,
      "metar": "METAR EPRA 131930Z 16004KT 5000 BR BKN013 M09/M10 Q1019",
      "taf": "TAF EPRA 131730Z 1318/1403 12004KT 6000 BKN014"
    },
    {
      "icao": "EPRZ",
      "alert": "OK",
      "vis_m": 9999,
      "fzfg": false,
      "metar_trigger": false,
      "taf_trigger": false,
      "metar": "METAR EPRZ 131930Z 22003KT 9999 OVC013 M05/M08 Q1020",
      "taf": ""
    },
    {
      "icao": "EPSC",
      "alert": "OK",
      "vis_m": 2300,
      "fzfg": false,
      "metar_trigger": false,
      "taf_trigger": false,
      "metar": "METAR EPSC 131930Z 14011KT 2300 -FZRA BR OVC003 M00/M01 Q1014",
      "taf": ""
    },
    {
      "icao": "EPSY",
      "alert": "OK",
      "vis_m": 3600,
      "fzfg": false,
      "metar_trigger": false,
      "taf_trigger": false,
      "metar": "METAR EPSY 131930Z VRB02KT 3600 BR NSC M14/M15 Q1019",
      "taf": "TAF EPSY 131730Z 1318/1403 VRB02KT 3000 BR NSC"
    },
    {
      "icao": "EPWA",
      "alert": "OK",
      "vis_m": 5000,
      "fzfg": false,
      "metar_trigger": false,
      "taf_trigger": false,
      "metar": "METAR EPWA 131930Z 12006KT 5000 BR BKN047 M07/M09 Q1020 TEMPO 4000",
      "taf": "TAF EPWA 131730Z 1318/1418 12008KT 6000 NSC"
    },
    {
      "icao": "EPWR",
      "alert": "OK",
      "vis_m": 2400,
      "fzfg": false,
      "metar_trigger": false,
      "taf_trigger": false,
      "metar": "METAR EPWR 131930Z 12007KT 2400 BR BKN003 01/00 Q1017",
      "taf": ""
    },
    {
      "icao": "ESGG",
      "alert": "OK",
      "vis_m": 1200,
      "fzfg": true,
      "metar_trigger": false,
      "taf_trigger": false,
      "metar": "METAR ESGG 131920Z 15010KT 1200 R03/P2000N R21/P2000N FZFG OVC002 00/M00 Q1008",
      "taf": ""
    },
    {
      "icao": "ESKN",
      "alert": "OK",
      "vis_m": 9999,
      "fzfg": false,
      "metar_trigger": false,
      "taf_trigger": false,
      "metar": "METAR ESKN 131920Z 16009KT 9999 -SN BKN033 01/M02 Q1015",
      "taf": ""
    },
    {
      "icao": "ESMS",
      "alert": "OK",
      "vis_m": 150,
      "fzfg": false,
      "metar_trigger": false,
      "taf_trigger": false,
      "metar": "METAR ESMS 131920Z 15007KT 0150 R17/0700N R35/0650N FG VV002 02/02 Q1010",
      "taf": "TAF ESMS 131727Z 1318/1418 13010KT 0200 FG OVC002"
    },
    {
      "icao": "ESSA",
      "alert": "OK",
      "vis_m": 9999,
      "fzfg": false,
      "metar_trigger": false,
      "taf_trigger": false,
      "metar": "METAR ESSA 131920Z 12007KT 9999 BKN006 M01/M02 Q1016 TEMPO SCT006 BKN020",
      "taf": ""
    },
    {
      "icao": "EYKA",
      "alert": "OK",
      "vis_m": 5000,
      "fzfg": false,
      "metar_trigger": false,
      "taf_trigger": false,
      "metar": "METAR EYKA 131950Z 14002KT 5000 -SN BR NSC M11/M12 Q1021",
      "taf": "TAF EYKA 131700Z 1318/1418 VRB03KT 5000 BR SCT005 SCT020"
    },
    {
      "icao": "EYPA",
      "alert": "OK",
      "vis_m": 9999,
      "fzfg": false,
      "metar_trigger": false,
      "taf_trigger": false,
      "metar": "METAR EYPA 131950Z 13008KT CAVOK M12/M13 Q1020",
      "taf": "TAF EYPA 131700Z 1318/1418 VRB04KT 5000 BR SCT005 SCT020"
    },
    {
      "icao": "EYVI",
      "alert": "OK",
      "vis_m": 6000,
      "fzfg": false,
      "metar_trigger": false,
      "taf_trigger": false,
      "metar": "METAR EYVI 131950Z VRB01KT 6000 -SN OVC004 M10/M12 Q1021 NOSIG",
      "taf": "TAF EYVI 131700Z 1318/1418 VRB04KT 5000 BR BKN005"
    },
    {
      "icao": "GCFV",
      "alert": "OK",
      "vis_m": 9999,
      "fzfg": false,
      "metar_trigger": false,
      "taf_trigger": false,
      "metar": "METAR GCFV 131930Z 32009KT 9999 FEW018 SCT030 17/10 Q1019",
      "taf": "TAF GCFV 131400Z 1315/1415 33016KT 9999 SCT020 TX19/1414Z TN12/1406Z"
    },
    {
      "icao": "GCLP",
      "alert": "OK",
      "vis_m": 9999,
      "fzfg": false,
      "metar_trigger": false,
      "taf_trigger": false,
      "metar": "METAR GCLP 131930Z 35012KT 9999 FEW025 SCT045 17/13 Q1020 NOSIG",
      "taf": "TAF GCLP 131400Z 1315/1415 36017KT 9999 FEW025 TX20/1414Z TN16/1406Z"
    },
    {
      "icao": "GCTS",
      "alert": "OK",
      "vis_m": 9999,
      "fzfg": false,
      "metar_trigger": false,
      "taf_trigger": false,
      "metar": "METAR GCTS 131930Z 00000KT 9999 BKN040 19/13 Q1019 NOSIG",
      "taf": "TAF GCTS 131400Z 1315/1415 09010KT 9999 SCT040 TX22/1414Z TN13/1406Z"
    },
    {
      "icao": "GMAD",
      "alert": "OK",
      "vis_m": 6000,
      "fzfg": false,
      "metar_trigger": false,
      "taf_trigger": false,
      "metar": "METAR GMAD 131930Z 00000KT 6000 -RA SCT020 SCT026 BKN080 14/11 Q1018 NOSIG",
      "taf": "TAF GMAD 131700Z 1318/1424 24012KT 6000 BKN020 BKN080"
    },
    {
      "icao": "GMMN",
      "alert": "OK",
      "vis_m": 9999,
      "fzfg": false,
      "metar_trigger": false,
      "taf_trigger": false,
      "metar": "METAR GMMN 131930Z 25003KT 9999 SCT030 SCT100 13/10 Q1017 NOSIG",
      "taf": "TAF GMMN 131700Z 1318/1424 18012KT 9999 SCT024 SCT100"
    },
    {
      "icao": "GMMX",
      "alert": "OK",
      "vis_m": 9999,
      "fzfg": false,
      "metar_trigger": false,
      "taf_trigger": false,
      "metar": "METAR GMMX 131930Z VRB02KT 9999 SCT016 BKN080 13/09 Q1017 NOSIG",
      "taf": "TAF GMMX 131700Z 1318/1424 26010KT 8000 SCT016 BKN080"
    },
    {
      "icao": "HEGN",
      "alert": "OK",
      "vis_m": 9999,
      "fzfg": false,
      "metar_trigger": false,
      "taf_trigger": false,
      "metar": "METAR HEGN 131900Z 29009KT CAVOK 15/05 Q1023 NOSIG",
      "taf": "TAF HEGN 131700Z 1318/1424 30015G25KT 6000 FEW025"
    },
    {
      "icao": "HEMA",
      "alert": "OK",
      "vis_m": 9999,
      "fzfg": false,
      "metar_trigger": false,
      "taf_trigger": false,
      "metar": "METAR HEMA 131900Z 29008KT CAVOK 14/04 Q1022 NOSIG",
      "taf": "TAF HEMA 131720Z 1318/1424 31010G20KT 9999 FEW025"
    },
    {
      "icao": "HESH",
      "alert": "OK",
      "vis_m": null,
      "fzfg": false,
      "metar_trigger": false,
      "taf_trigger": false,
      "metar": "",
      "taf": "TAF HESH 131700Z 1318/1424 36010G20KT 6000 FEW025"
    },
    {
      "icao": "HESX",
      "alert": "OK",
      "vis_m": 9999,
      "fzfg": false,
      "metar_trigger": false,
      "taf_trigger": false,
      "metar": "METAR HESX 131900Z 28006KT CAVOK 12/04 Q1023 NOSIG",
      "taf": "TAF HESX 131720Z 1318/1424 29011KT 6000 SCT020 BKN100"
    },
    {
      "icao": "LATI",
      "alert": "OK",
      "vis_m": 9999,
      "fzfg": false,
      "metar_trigger": false,
      "taf_trigger": false,
      "metar": "METAR LATI 131950Z 18004KT 9999 SCT032 BKN060 07/02 Q1026 NOSIG",
      "taf": "TAF LATI 131700Z 1318/1418 VRB05KT 9999 SCT040 BKN060 TX14/1414Z TN04/1406Z"
    },
    {
      "icao": "LBPD",
      "alert": "OK",
      "vis_m": 9999,
      "fzfg": false,
      "metar_trigger": false,
      "taf_trigger": false,
      "metar": "METAR LBPD 131930Z AUTO 26001KT 9999 OVC059/// 00/M05 Q1021 NOSIG",
      "taf": "TAF LBPD 131700Z 1318/1418 VRB04KT 9999 SCT030 BKN050"
    },
    {
      "icao": "LBSF",
      "alert": "OK",
      "vis_m": 9999,
      "fzfg": false,
      "metar_trigger": false,
      "taf_trigger": false,
      "metar": "METAR LBSF 131930Z AUTO 11005KT 080V140 9999 OVC042/// M00/M04 Q1021 NOSIG",
      "taf": "TAF LBSF 131700Z 1318/1418 VRB04KT 9999 SCT020 BKN040"
    },
    {
      "icao": "LBWN",
      "alert": "OK",
      "vis_m": 9999,
      "fzfg": false,
      "metar_trigger": false,
      "taf_trigger": false,
      "metar": "METAR LBWN 131930Z AUTO 23004KT 9999 -SN FEW038/// 00/M03 Q1021 TEMPO 5000 SN",
      "taf": "TAF LBWN 131700Z 1318/1418 VRB03KT 9999 SCT045"
    },
    {
      "icao": "LCLK",
      "alert": "OK",
      "vis_m": 9999,
      "fzfg": false,
      "metar_trigger": false,
      "taf_trigger": false,
      "metar": "METAR LCLK 131930Z 28005KT 9999 FEW020 SCT060 08/05 Q1016 NOSIG",
      "taf": ""
    },
    {
      "icao": "LCPH",
      "alert": "OK",
      "vis_m": 9999,
      "fzfg": false,
      "metar_trigger": false,
      "taf_trigger": false,
      "metar": "METAR LCPH 131930Z 35007KT 9999 SCT060 10/02 Q1017 NOSIG",
      "taf": ""
    },
    {
      "icao": "LEAL",
      "alert": "OK",
      "vis_m": 5000,
      "fzfg": false,
      "metar_trigger": false,
      "taf_trigger": false,
      "metar": "METAR LEAL 131930Z 30003KT 5000 BR SCT010 10/10 Q1017 NOSIG",
      "taf": "TAF LEAL 131700Z 1318/1418 VRB04KT 9999 FEW010 TX16/1413Z TN06/1406Z"
    },
    {
      "icao": "LEBB",
      "alert": "OK",
      "vis_m": 9999,
      "fzfg": false,
      "metar_trigger": false,
      "taf_trigger": false,
      "metar": "METAR LEBB 131930Z 16008KT 130V200 9999 FEW060 16/05 Q1010 NOSIG",
      "taf": "TAF LEBB 131700Z 1318/1418 15009KT 9999 FEW040 TX13/1416Z TN08/1408Z"
    },
    {
      "icao": "LEBL",
      "alert": "OK",
      "vis_m": 8000,
      "fzfg": false,
      "metar_trigger": false,
      "taf_trigger": false,
      "metar": "METAR LEBL 131930Z 08002KT 8000 SCT015 SCT020 12/10 Q1017 NOSIG",
      "taf": "TAF LEBL 131700Z 1318/1418 VRB03KT 9999 BKN020 TX15/1412Z TN06/1406Z"
    },
    {
      "icao": "LECH",
      "alert": "OK",
      "vis_m": 400,
      "fzfg": false,
      "metar_trigger": false,
      "taf_trigger": false,
      "metar": "METAR LECH 131930Z AUTO 08002KT 0400 R06/0400N FG VV/// 07/07 Q1016",
      "taf": ""
    },
    {
      "icao": "LEMD",
      "alert": "OK",
      "vis_m": 8000,
      "fzfg": false,
      "metar_trigger": false,
      "taf_trigger": false,
      "metar": "METAR LEMD 131930Z 36003KT 340V040 8000 -RA BKN025 SCT040 07/06 Q1015 NOSIG",
      "taf": "TAF LEMD 131700Z 1318/1424 VRB04KT 9999 SCT030 TX12/1414Z TN03/1407Z"
    },
    {
      "icao": "LEMG",
      "alert": "OK",
      "vis_m": 9999,
      "fzfg": false,
      "metar_trigger": false,
      "taf_trigger": false,
      "metar": "METAR LEMG 131930Z 28007KT 9999 FEW020 BKN060 12/10 Q1018 NOSIG",
      "taf": "TAF LEMG 131700Z 1318/1418 15007KT 9999 FEW030 TX17/1414Z TN10/1407Z"
    },
    {
      "icao": "LEVC",
      "alert": "OK",
      "vis_m": 4500,
      "fzfg": false,
      "metar_trigger": false,
      "taf_trigger": false,
      "metar": "METAR LEVC 131930Z 30006KT 4500 BR FEW008 09/08 Q1016 NOSIG",
      "taf": ""
    },
    {
      "icao": "LEXJ",
      "alert": "OK",
      "vis_m": 9999,
      "fzfg": false,
      "metar_trigger": false,
      "taf_trigger": false,
      "metar": "METAR LEXJ 131930Z 21014G25KT 160V250 CAVOK 16/06 Q1009",
      "taf": ""
    },
    {
      "icao": "LEZG",
      "alert": "OK",
      "vis_m": 9999,
      "fzfg": false,
      "metar_trigger": false,
      "taf_trigger": false,
      "metar": "METAR LEZG 131930Z 08005KT 050V140 9999 FEW008 SCT085 08/08 Q1015 NOSIG",
      "taf": "TAF LEZG 131700Z 1318/1418 10005KT 9999 FEW010 TX14/1415Z TN05/1406Z"
    },
    {
      "icao": "LEZL",
      "alert": "OK",
      "vis_m": 9999,
      "fzfg": false,
      "metar_trigger": false,
      "taf_trigger": false,
      "metar": "METAR LEZL 131930Z 18009KT 150V210 9999 FEW025 13/13 Q1015 NOSIG",
      "taf": ""
    },
    {
      "icao": "LFBD",
      "alert": "OK",
      "vis_m": 9999,
      "fzfg": false,
      "metar_trigger": false,
      "taf_trigger": false,
      "metar": "METAR LFBD 131930Z AUTO 14007KT CAVOK 10/08 Q1011 TEMPO SCT050TCU",
      "taf": "TAF LFBD 131700Z 1318/1424 15008KT CAVOK TX14/1414Z TN06/1500Z"
    },
    {
      "icao": "LFLL",
      "alert": "OK",
      "vis_m": 9999,
      "fzfg": false,
      "metar_trigger": false,
      "taf_trigger": false,
      "metar": "METAR LFLL 131930Z 18014KT 150V210 CAVOK 13/05 Q1015 NOSIG",
      "taf": "TAF LFLL 131700Z 1318/1424 18012KT 9999 FEW035"
    },
    {
      "icao": "LFLS",
      "alert": "OK",
      "vis_m": 9999,
      "fzfg": false,
      "metar_trigger": false,
      "taf_trigger": false,
      "metar": "METAR LFLS 131930Z AUTO 19006KT 160V230 CAVOK 09/05 Q1016 NOSIG",
      "taf": "TAF LFLS 131400Z 1315/1415 24008KT 9999 FEW052"
    },
    {
      "icao": "LFMN",
      "alert": "OK",
      "vis_m": 9999,
      "fzfg": false,
      "metar_trigger": false,
      "taf_trigger": false,
      "metar": "METAR LFMN 131930Z 32005KT 9999 FEW025 BKN033 11/08 Q1021 NOSIG",
      "taf": "TAF LFMN 131400Z 1315/1421 25008KT 9999 SCT030 BKN040"
    },
    {
      "icao": "LFOB",
      "alert": "OK",
      "vis_m": 9999,
      "fzfg": false,
      "metar_trigger": false,
      "taf_trigger": false,
      "metar": "METAR LFOB 131930Z AUTO 21009KT CAVOK 10/06 Q1009 NOSIG",
      "taf": "TAF LFOB 131700Z 1318/1418 20007KT CAVOK"
    },
    {
      "icao": "LFPO",
      "alert": "OK",
      "vis_m": 9999,
      "fzfg": false,
      "metar_trigger": false,
      "taf_trigger": false,
      "metar": "METAR LFPO 131930Z 19003KT 170V230 CAVOK 11/06 Q1010 NOSIG",
      "taf": "TAF LFPO 131700Z 1318/1424 19005KT CAVOK"
    },
    {
      "icao": "LFSB",
      "alert": "OK",
      "vis_m": 9999,
      "fzfg": false,
      "metar_trigger": false,
      "taf_trigger": false,
      "metar": "METAR LFSB 131930Z AUTO 18009KT 130V240 CAVOK 05/02 Q1015 NOSIG",
      "taf": "TAF LFSB 131700Z 1318/1418 17005KT CAVOK"
    },
    {
      "icao": "LGAV",
      "alert": "OK",
      "vis_m": 9999,
      "fzfg": false,
      "metar_trigger": false,
      "taf_trigger": false,
      "metar": "METAR LGAV 131920Z 01002KT 9999 FEW025 06/M00 Q1024 NOSIG",
      "taf": "TAF LGAV 131700Z 1318/1418 VRB05KT 9999 FEW025"
    },
    {
      "icao": "LGTS",
      "alert": "OK",
      "vis_m": 9999,
      "fzfg": false,
      "metar_trigger": false,
      "taf_trigger": false,
      "metar": "METAR LGTS 131920Z VRB03KT 9999 FEW025 01/M04 Q1024 NOSIG",
      "taf": "TAF LGTS 131700Z 1318/1418 VRB03KT 9999 FEW025"
    },
    {
      "icao": "LHBP",
      "alert": "OK",
      "vis_m": 9999,
      "fzfg": false,
      "metar_trigger": false,
      "taf_trigger": false,
      "metar": "METAR LHBP 131930Z 14005KT 120V180 9999 OVC012 M06/M08 Q1022 NOSIG",
      "taf": "TAF LHBP 131715Z 1318/1418 VRB03KT 6000 OVC015"
    },
    {
      "icao": "LHDC",
      "alert": "OK",
      "vis_m": 8000,
      "fzfg": false,
      "metar_trigger": false,
      "taf_trigger": false,
      "metar": "METAR LHDC 131915Z AUTO 03005KT 8000 OVC011 M05/M07 Q1022",
      "taf": "TAF LHDC 131415Z 1315/1324 06005KT 8000 BKN010 OVC025"
    },
    {
      "icao": "LIBD",
      "alert": "OK",
      "vis_m": 9999,
      "fzfg": false,
      "metar_trigger": false,
      "taf_trigger": false,
      "metar": "METAR LIBD 131920Z 21007KT 9999 SCT045 07/05 Q1025",
      "taf": "TAF LIBD 131700Z 1318/1418 VRB06KT 9999 FEW040"
    },
    {
      "icao": "LIBG",
      "alert": "OK",
      "vis_m": 9999,
      "fzfg": false,
      "metar_trigger": false,
      "taf_trigger": false,
      "metar": "METAR LIBG 131850Z 10003KT CAVOK 04/04 Q1025",
      "taf": "TAF LIBG 131700Z 1318/1403 VRB04KT 9999 FEW040"
    },
    {
      "icao": "LIBP",
      "alert": "OK",
      "vis_m": 9999,
      "fzfg": false,
      "metar_trigger": false,
      "taf_trigger": false,
      "metar": "METAR LIBP 131920Z AUTO VRB02KT 9999 NCD 07/05 Q1024",
      "taf": "TAF LIBP 131700Z 1318/1418 VRB06KT CAVOK"
    },
    {
      "icao": "LIBR",
      "alert": "OK",
      "vis_m": 9999,
      "fzfg": false,
      "metar_trigger": false,
      "taf_trigger": false,
      "metar": "METAR LIBR 131920Z 18004KT CAVOK 08/04 Q1025",
      "taf": "TAF LIBR 131700Z 1318/1418 VRB06KT 9999 FEW030"
    },
    {
      "icao": "LICA",
      "alert": "OK",
      "vis_m": 9000,
      "fzfg": false,
      "metar_trigger": false,
      "taf_trigger": false,
      "metar": "METAR LICA 131920Z AUTO 08004KT 9000 NCD 04/04 Q1027",
      "taf": "TAF LICA 131700Z 1318/1418 VRB05KT 9999 FEW030"
    },
    {
      "icao": "LICC",
      "alert": "OK",
      "vis_m": 9999,
      "fzfg": false,
      "metar_trigger": false,
      "taf_trigger": false,
      "metar": "METAR LICC 131920Z 28005KT CAVOK 08/03 Q1026",
      "taf": "TAF LICC 131700Z 1318/1418 26010KT CAVOK"
    },
    {
      "icao": "LICJ",
      "alert": "OK",
      "vis_m": 9999,
      "fzfg": false,
      "metar_trigger": false,
      "taf_trigger": false,
      "metar": "METAR LICJ 131920Z 14004KT 090V190 CAVOK 13/07 Q1025",
      "taf": "TAF LICJ 131700Z 1318/1418 18010KT 9999 FEW030"
    },
    {
      "icao": "LIMC",
      "alert": "OK",
      "vis_m": 9999,
      "fzfg": false,
      "metar_trigger": false,
      "taf_trigger": false,
      "metar": "METAR LIMC 131920Z VRB02KT 9999 OVC040 04/00 Q1022 NOSIG",
      "taf": "TAF LIMC 131700Z 1318/1424 VRB05KT 9999 BKN040"
    },
    {
      "icao": "LIME",
      "alert": "OK",
      "vis_m": 5000,
      "fzfg": false,
      "metar_trigger": false,
      "taf_trigger": false,
      "metar": "METAR LIME 131920Z VRB02KT 5000 BR BKN035 04/01 Q1022 NOSIG",
      "taf": "TAF LIME 131700Z 1318/1418 VRB04KT 9999 SCT035"
    },
    {
      "icao": "LIMF",
      "alert": "OK",
      "vis_m": 9999,
      "fzfg": false,
      "metar_trigger": false,
      "taf_trigger": false,
      "metar": "METAR LIMF 131920Z AUTO 26004KT 9999 SCT043/// 04/M04 Q1022",
      "taf": "TAF LIMF 131700Z 1318/1418 VRB03KT CAVOK"
    },
    {
      "icao": "LIMJ",
      "alert": "OK",
      "vis_m": 9999,
      "fzfg": false,
      "metar_trigger": false,
      "taf_trigger": false,
      "metar": "METAR LIMJ 131920Z 30007KT 9999 FEW007 SCT015 BKN045 12/11 Q1022",
      "taf": "TAF LIMJ 131700Z 1318/1418 VRB05KT 9999 BKN020 BKN040"
    },
    {
      "icao": "LIPE",
      "alert": "OK",
      "vis_m": 9999,
      "fzfg": false,
      "metar_trigger": false,
      "taf_trigger": false,
      "metar": "METAR LIPE 131920Z 01002KT 9999 FEW055 BKN070 05/01 Q1023",
      "taf": "TAF LIPE 131700Z 1318/1418 VRB04KT 9999 SCT020 BKN060"
    },
    {
      "icao": "LIPH",
      "alert": "OK",
      "vis_m": 9999,
      "fzfg": false,
      "metar_trigger": false,
      "taf_trigger": false,
      "metar": "METAR LIPH 131920Z 30003KT 9999 SCT040 04/01 Q1023",
      "taf": "TAF LIPH 131700Z 1318/1418 VRB04KT 8000 BKN040"
    },
    {
      "icao": "LIPQ",
      "alert": "OK",
      "vis_m": 9999,
      "fzfg": false,
      "metar_trigger": false,
      "taf_trigger": false,
      "metar": "METAR LIPQ 131920Z AUTO 31003KT 260V350 9999 OVC036/// 06/03 Q1023",
      "taf": "TAF LIPQ 131700Z 1318/1418 VRB04KT 9999 BKN035"
    },
    {
      "icao": "LIPR",
      "alert": "OK",
      "vis_m": 9999,
      "fzfg": false,
      "metar_trigger": false,
      "taf_trigger": false,
      "metar": "METAR LIPR 131920Z 32005KT 9999 BKN050 06/01 Q1023",
      "taf": "TAF LIPR 131700Z 1318/1418 VRB05KT 9999 SCT050"
    },
    {
      "icao": "LIPX",
      "alert": "OK",
      "vis_m": 9999,
      "fzfg": false,
      "metar_trigger": false,
      "taf_trigger": false,
      "metar": "METAR LIPX 131920Z VRB01KT 9999 SCT020 OVC040 05/01 Q1023",
      "taf": "TAF LIPX 131700Z 1318/1418 VRB04KT 9999 BKN040"
    },
    {
      "icao": "LIPY",
      "alert": "OK",
      "vis_m": 9999,
      "fzfg": false,
      "metar_trigger": false,
      "taf_trigger": false,
      "metar": "METAR LIPY 131920Z AUTO 22002KT 9999 OVC064/// 09/05 Q1023",
      "taf": "TAF LIPY 131700Z 1318/1418 VRB05KT 9999 SCT050"
    },
    {
      "icao": "LIPZ",
      "alert": "OK",
      "vis_m": 9999,
      "fzfg": false,
      "metar_trigger": false,
      "taf_trigger": false,
      "metar": "METAR LIPZ 131920Z 29004KT 9999 BKN040 05/01 Q1023 NOSIG",
      "taf": "TAF LIPZ 131700Z 1318/1424 VRB04KT 8000 BKN040"
    },
    {
      "icao": "LIRF",
      "alert": "OK",
      "vis_m": 9999,
      "fzfg": false,
      "metar_trigger": false,
      "taf_trigger": false,
      "metar": "METAR LIRF 131920Z 12007KT CAVOK 10/07 Q1024 NOSIG",
      "taf": "TAF LIRF 131700Z 1318/1424 14010KT 9999 SCT030"
    },
    {
      "icao": "LIRN",
      "alert": "OK",
      "vis_m": 9999,
      "fzfg": false,
      "metar_trigger": false,
      "taf_trigger": false,
      "metar": "METAR LIRN 131920Z 26001KT 9999 FEW040 07/05 Q1026 NOSIG",
      "taf": "TAF LIRN 131700Z 1318/1418 VRB05KT 9999 BKN030"
    },
    {
      "icao": "LIRP",
      "alert": "OK",
      "vis_m": 9999,
      "fzfg": false,
      "metar_trigger": false,
      "taf_trigger": false,
      "metar": "METAR LIRP 131915Z 09004KT 9999 FEW025 BKN040 10/09 Q1023 NOSIG",
      "taf": "TAF LIRP 131700Z 1318/1418 VRB03KT 9999 SCT030 BKN060"
    },
    {
      "icao": "LIRZ",
      "alert": "OK",
      "vis_m": 9999,
      "fzfg": false,
      "metar_trigger": false,
      "taf_trigger": false,
      "metar": "METAR LIRZ 131920Z AUTO 22006KT 170V250 9999 OVC046/// 11/07 Q1024",
      "taf": "TAF LIRZ 131700Z 1318/1418 VRB05KT 9999 SCT040"
    },
    {
      "icao": "LJLJ",
      "alert": "OK",
      "vis_m": 9999,
      "fzfg": false,
      "metar_trigger": false,
      "taf_trigger": false,
      "metar": "METAR LJLJ 131930Z 30005KT 9999 FEW003 OVC025 02/M01 Q1021 NOSIG",
      "taf": "TAF LJLJ 131700Z 1318/1418 28004KT 9999 BKN030"
    },
    {
      "icao": "LKMT",
      "alert": "OK",
      "vis_m": 5000,
      "fzfg": false,
      "metar_trigger": false,
      "taf_trigger": false,
      "metar": "METAR LKMT 131930Z 23007KT 5000 BR FEW007 OVC032 M02/M02 Q1018 NOSIG",
      "taf": "TAF LKMT 131700Z 1318/1418 23007KT 4000 BR SCT005 OVC015"
    },
    {
      "icao": "LKPR",
      "alert": "OK",
      "vis_m": 200,
      "fzfg": false,
      "metar_trigger": false,
      "taf_trigger": false,
      "metar": "METAR LKPR 131930Z VRB02KT 0200 R24/0325D R30/0325N FG VV002 00/00 Q1016 NOSIG",
      "taf": ""
    },
    {
      "icao": "LLBG",
      "alert": "OK",
      "vis_m": 9999,
      "fzfg": false,
      "metar_trigger": false,
      "taf_trigger": false,
      "metar": "METAR LLBG 131950Z 28011KT 9999 SCT045 12/05 Q1019 TEMPO 7000 RA FEW025TCU BKN030",
      "taf": "TAF LLBG 131704Z 1318/1418 27018G28KT 9999 SCT040"
    },
    {
      "icao": "LMML",
      "alert": "OK",
      "vis_m": 9999,
      "fzfg": false,
      "metar_trigger": false,
      "taf_trigger": false,
      "metar": "METAR LMML 131945Z 16006KT 9999 SCT028 13/09 Q1027 NOSIG",
      "taf": "TAF LMML 131700Z 1318/1418 21008KT 9999 SCT028"
    },
    {
      "icao": "LOWW",
      "alert": "OK",
      "vis_m": 4900,
      "fzfg": false,
      "metar_trigger": false,
      "taf_trigger": false,
      "metar": "METAR LOWW 131920Z 14007KT 4900 BR FEW003 BKN004 M01/M02 Q1019 NOSIG",
      "taf": ""
    },
    {
      "icao": "LPFR",
      "alert": "OK",
      "vis_m": 9999,
      "fzfg": false,
      "metar_trigger": false,
      "taf_trigger": false,
      "metar": "METAR LPFR 131930Z 00000KT 9999 FEW020 13/11 Q1014",
      "taf": "TAF LPFR 131700Z 1318/1418 28008KT 9999 SCT020"
    },
    {
      "icao": "LPMA",
      "alert": "OK",
      "vis_m": 9999,
      "fzfg": false,
      "metar_trigger": false,
      "taf_trigger": false,
      "metar": "METAR LPMA 131930Z 01011G22KT 300V080 9999 SCT015 FEW018CB 15/09 Q1021",
      "taf": "TAF LPMA 131700Z 1318/1418 34010KT 9999 SCT015"
    },
    {
      "icao": "LPPR",
      "alert": "OK",
      "vis_m": 9999,
      "fzfg": false,
      "metar_trigger": false,
      "taf_trigger": false,
      "metar": "METAR LPPR 131930Z 20003KT 9999 FEW014 SCT026 BKN030 12/11 Q1010",
      "taf": "TAF LPPR 131700Z 1318/1418 18010KT 9999 SCT015 SCT030"
    },
    {
      "icao": "LPPS",
      "alert": "OK",
      "vis_m": 9999,
      "fzfg": false,
      "metar_trigger": false,
      "taf_trigger": false,
      "metar": "METAR LPPS 131930Z 35017KT 9999 SCT015 15/09 Q1020",
      "taf": "TAF LPPS 131700Z 1318/1424 34015KT 9999 SCT015"
    },
    {
      "icao": "LPPT",
      "alert": "OK",
      "vis_m": 9999,
      "fzfg": false,
      "metar_trigger": false,
      "taf_trigger": false,
      "metar": "METAR LPPT 131930Z 25004KT 220V290 9999 FEW012 12/10 Q1013",
      "taf": "TAF LPPT 131700Z 1318/1424 29008KT 9999 SCT020"
    },
    {
      "icao": "LQBK",
      "alert": "OK",
      "vis_m": 9999,
      "fzfg": false,
      "metar_trigger": false,
      "taf_trigger": false,
      "metar": "METAR LQBK 131930Z 12004KT CAVOK 02/01 Q1021 NOSIG",
      "taf": "TAF LQBK 131700Z 1318/1418 21006KT CAVOK TX11/1413Z TN02/1406Z"
    },
    {
      "icao": "LQSA",
      "alert": "OK",
      "vis_m": 8000,
      "fzfg": false,
      "metar_trigger": false,
      "taf_trigger": false,
      "metar": "METAR LQSA 131930Z VRB03KT 8000 NSC M01/M01 Q1023 NOSIG",
      "taf": "TAF LQSA 131700Z 1318/1418 VRB02KT 8000 NSC TX08/1414Z TNM03/1406Z"
    },
    {
      "icao": "LQTZ",
      "alert": "OK",
      "vis_m": 8000,
      "fzfg": false,
      "metar_trigger": false,
      "taf_trigger": false,
      "metar": "METAR LQTZ 131930Z 12002KT 8000 NSC M01/M01 Q1022",
      "taf": "TAF LQTZ 131700Z 1318/1418 VRB02KT CAVOK TX04/1413Z TNM02/1405Z"
    },
    {
      "icao": "LRBC",
      "alert": "OK",
      "vis_m": 9999,
      "fzfg": false,
      "metar_trigger": false,
      "taf_trigger": false,
      "metar": "METAR LRBC 131930Z 20004KT CAVOK M02/M06 Q1019",
      "taf": "TAF LRBC 131700Z 1318/1403 17007KT CAVOK"
    },
    {
      "icao": "LRBS",
      "alert": "OK",
      "vis_m": 7000,
      "fzfg": false,
      "metar_trigger": false,
      "taf_trigger": false,
      "metar": "METAR LRBS 131930Z 21003KT 7000 -SN OVC034 M04/M06 Q1020 NOSIG",
      "taf": "TAF LRBS 131700Z 1318/1418 25006KT 9999 BKN040"
    },
    {
      "icao": "LRBV",
      "alert": "OK",
      "vis_m": 3100,
      "fzfg": false,
      "metar_trigger": false,
      "taf_trigger": false,
      "metar": "METAR LRBV 131930Z VRB01KT 3100 -SNSG BR FEW008 SCT011 OVC019 M06/M07 Q1018",
      "taf": "TAF LRBV 131700Z 1318/1403 VRB04KT 5000 -SN BR SCT015 OVC030"
    },
    {
      "icao": "LRCL",
      "alert": "OK",
      "vis_m": 9999,
      "fzfg": false,
      "metar_trigger": false,
      "taf_trigger": false,
      "metar": "METAR LRCL 131930Z 04001KT 9999 OVC017 M07/M09 Q1020",
      "taf": "TAF LRCL 131700Z 1318/1403 VRB04KT 9999 OVC030"
    },
    {
      "icao": "LRCV",
      "alert": "OK",
      "vis_m": 4800,
      "fzfg": false,
      "metar_trigger": false,
      "taf_trigger": false,
      "metar": "METAR LRCV 131930Z 35003KT 4800 BR FEW004 OVC018 M04/M04 Q1020",
      "taf": "TAF LRCV 131700Z 1318/1403 VRB04KT 5000 -SN BR SCT005 OVC025"
    },
    {
      "icao": "LRIA",
      "alert": "OK",
      "vis_m": 9999,
      "fzfg": false,
      "metar_trigger": false,
      "taf_trigger": false,
      "metar": "METAR LRIA 131930Z 09007KT CAVOK M05/M07 Q1019",
      "taf": "TAF LRIA 131700Z 1318/1403 10008KT CAVOK"
    },
    {
      "icao": "LROP",
      "alert": "OK",
      "vis_m": 6000,
      "fzfg": false,
      "metar_trigger": false,
      "taf_trigger": false,
      "metar": "METAR LROP 131930Z 21006KT 6000 -SN OVC036 M04/M07 Q1020 NOSIG",
      "taf": "TAF LROP 131700Z 1318/1418 25006KT 9999 BKN040"
    },
    {
      "icao": "LRSB",
      "alert": "OK",
      "vis_m": 3000,
      "fzfg": false,
      "metar_trigger": false,
      "taf_trigger": false,
      "metar": "METAR LRSB 131930Z VRB01KT 3000 -SN BR BKN010 OVC030 M05/M06 Q1019",
      "taf": "TAF LRSB 131700Z 1318/1418 VRB04KT 5000 -SN BR SCT015 OVC045"
    },
    {
      "icao": "LRSM",
      "alert": "OK",
      "vis_m": 9999,
      "fzfg": false,
      "metar_trigger": false,
      "taf_trigger": false,
      "metar": "METAR LRSM 131930Z AUTO 04002KT 9999 FEW021/// BKN034/// OVC055/// M05/M08 Q1022",
      "taf": "TAF LRSM 131400Z 1315/1324 12007KT 9999 OVC030"
    },
    {
      "icao": "LRSV",
      "alert": "OK",
      "vis_m": 9999,
      "fzfg": false,
      "metar_trigger": false,
      "taf_trigger": false,
      "metar": "METAR LRSV 131930Z 31005KT 9999 SCT040 M06/M08 Q1017",
      "taf": "TAF LRSV 131700Z 1318/1403 33006KT CAVOK"
    },
    {
      "icao": "LRTM",
      "alert": "OK",
      "vis_m": 7000,
      "fzfg": false,
      "metar_trigger": false,
      "taf_trigger": false,
      "metar": "METAR LRTM 131930Z AUTO 24006KT 7000 BKN025/// OVC029/// M07/M09 Q1020 RESN",
      "taf": "TAF LRTM 131400Z 1315/1324 VRB02KT 1000 -SN BR BKN010 OVC025"
    },
    {
      "icao": "LRTR",
      "alert": "OK",
      "vis_m": 4000,
      "fzfg": false,
      "metar_trigger": false,
      "taf_trigger": false,
      "metar": "METAR LRTR 131930Z 33007KT 4000 BR BKN017 M01/M01 Q1021",
      "taf": "TAF LRTR 131700Z 1318/1418 VRB04KT 5000 BR SCT025"
    },
    {
      "icao": "LTAC",
      "alert": "OK",
      "vis_m": 9999,
      "fzfg": false,
      "metar_trigger": false,
      "taf_trigger": false,
      "metar": "METAR LTAC 131920Z VRB02KT CAVOK M05/M08 Q1019 NOSIG RMK RWY21C 10003KT RWY03L VRB02KT RWY21R 09003KT RWY03R 00000KT RWY21L 10004KT",
      "taf": "TAF LTAC 131640Z 1318/1418 VRB02KT CAVOK"
    },
    {
      "icao": "LTFM",
      "alert": "OK",
      "vis_m": 9999,
      "fzfg": false,
      "metar_trigger": false,
      "taf_trigger": false,
      "metar": "METAR LTFM 131920Z 20008KT 9999 FEW040 BKN090 01/M05 Q1022 NOSIG RMK RWY17L 21008KT RWY34L 20008KT RWY16R 21007KT RWY36 22009KT RWY18 21011KT",
      "taf": "TAF LTFM 131640Z 1318/1424 19007KT 9999 FEW040"
    },
    {
      "icao": "LUKK",
      "alert": "OK",
      "vis_m": 9999,
      "fzfg": false,
      "metar_trigger": false,
      "taf_trigger": false,
      "metar": "METAR LUKK 131930Z 09003KT 050V110 CAVOK M08/M10 Q1020 NOSIG",
      "taf": "TAF LUKK 131707Z 1318/1418 VRB04KT CAVOK"
    },
    {
      "icao": "LWOH",
      "alert": "OK",
      "vis_m": 9999,
      "fzfg": false,
      "metar_trigger": false,
      "taf_trigger": false,
      "metar": "METAR LWOH 131950Z 05004KT 030V090 9999 SCT040 01/M00 Q1024",
      "taf": "TAF LWOH 131740Z 1318/1418 VRB03KT 9999 SCT040"
    },
    {
      "icao": "LWSK",
      "alert": "OK",
      "vis_m": 9999,
      "fzfg": false,
      "metar_trigger": false,
      "taf_trigger": false,
      "metar": "METAR LWSK 131950Z VRB02KT CAVOK M03/M06 Q1025 NOSIG",
      "taf": "TAF LWSK 131740Z 1318/1418 VRB02KT CAVOK"
    },
    {
      "icao": "LYBE",
      "alert": "OK",
      "vis_m": 8000,
      "fzfg": false,
      "metar_trigger": false,
      "taf_trigger": false,
      "metar": "METAR LYBE 131930Z 20005KT 8000 BKN045 03/M01 Q1021 NOSIG",
      "taf": "TAF LYBE 131700Z 1318/1418 21004KT 7000 BKN040 TX06/1412Z TN00/1405Z"
    },
    {
      "icao": "LYNI",
      "alert": "OK",
      "vis_m": 6000,
      "fzfg": false,
      "metar_trigger": false,
      "taf_trigger": false,
      "metar": "METAR LYNI 131930Z 10004KT 080V160 6000 BKN050 01/M01 Q1022 NOSIG",
      "taf": "TAF LYNI 131700Z 1318/1418 24004KT 7000 BKN050 TX04/1413Z TN00/1406Z"
    },
    {
      "icao": "LYPG",
      "alert": "OK",
      "vis_m": 9999,
      "fzfg": false,
      "metar_trigger": false,
      "taf_trigger": false,
      "metar": "METAR LYPG 131930Z 36003KT 9999 BKN030 OVC070 03/01 Q1027 NOSIG",
      "taf": "TAF LYPG 131700Z 1318/1418 36005KT 9999 FEW015 BKN034 BKN070 TX11/1413Z TN01/1406Z"
    },
    {
      "icao": "LZIB",
      "alert": "OK",
      "vis_m": 3700,
      "fzfg": false,
      "metar_trigger": false,
      "taf_trigger": false,
      "metar": "METAR LZIB 131930Z 09003KT 060V120 3700 BR BKN003 OVC004 M03/M03 Q1020 TEMPO 2000 BR",
      "taf": "TAF LZIB 131715Z 1318/1418 08004KT 7000 BKN007 OVC013"
    },
    {
      "icao": "LZKZ",
      "alert": "OK",
      "vis_m": 4000,
      "fzfg": false,
      "metar_trigger": false,
      "taf_trigger": false,
      "metar": "METAR LZKZ 131930Z 21003KT 4000 -SN SCT015 OVC037 M06/M07 Q1021 TEMPO 2500 -SN BKN014",
      "taf": "TAF LZKZ 131715Z 1318/1418 VRB02KT 9999 OVC018"
    },
    {
      "icao": "LZTT",
      "alert": "OK",
      "vis_m": 9999,
      "fzfg": false,
      "metar_trigger": false,
      "taf_trigger": false,
      "metar": "METAR LZTT 131930Z 04002KT 9999 OVC012 M07/M09 Q1017",
      "taf": ""
    },
    {
      "icao": "OEJN",
      "alert": "OK",
      "vis_m": 9999,
      "fzfg": false,
      "metar_trigger": false,
      "taf_trigger": false,
      "metar": "METAR OEJN 131900Z 35010KT CAVOK 24/16 Q1017 NOSIG",
      "taf": "TAF OEJN 131700Z 1318/1424 36010KT 7000 FEW040"
    },
    {
      "icao": "OEMA",
      "alert": "OK",
      "vis_m": 9999,
      "fzfg": false,
      "metar_trigger": false,
      "taf_trigger": false,
      "metar": "METAR OEMA 131900Z 23006KT CAVOK 22/05 Q1020 NOSIG",
      "taf": "TAF OEMA 131700Z 1318/1424 33008KT CAVOK"
    },
    {
      "icao": "OJAI",
      "alert": "OK",
      "vis_m": 3000,
      "fzfg": false,
      "metar_trigger": false,
      "taf_trigger": false,
      "metar": "METAR OJAI 131900Z 25024KT 3000 RA BKN025 SCT030 06/06 Q1016 NOSIG",
      "taf": "TAF OJAI 131700Z 1318/1424 24018KT 1500 RA BR FEW025TCU SCT035"
    },
    {
      "icao": "OMAA",
      "alert": "OK",
      "vis_m": 9999,
      "fzfg": false,
      "metar_trigger": false,
      "taf_trigger": false,
      "metar": "METAR OMAA 131900Z 06005KT CAVOK 19/14 Q1020 NOSIG",
      "taf": "TAF OMAA 131700Z 1318/1500 10005KT 8000 NSC"
    },
    {
      "icao": "OMDB",
      "alert": "OK",
      "vis_m": 8000,
      "fzfg": false,
      "metar_trigger": false,
      "taf_trigger": false,
      "metar": "METAR OMDB 131930Z 10007KT 8000 NSC 20/14 Q1020 NOSIG",
      "taf": "TAF OMDB 131700Z 1318/1500 12005KT 8000 NSC"
    },
    {
      "icao": "UAAA",
      "alert": "OK",
      "vis_m": 1000,
      "fzfg": true,
      "metar_trigger": false,
      "taf_trigger": false,
      "metar": "METAR UAAA 131930Z 22002MPS 1000 R23L/P2000 BR OVC003 M00/M01 Q1019 NOSIG RMK QBB110",
      "taf": "TAF UAAA 131700Z 1318/1418 22003MPS 0600 FZFG VV003 TX03/1409Z TNM04/1403Z"
    },
    {
      "icao": "UBBB",
      "alert": "OK",
      "vis_m": 9999,
      "fzfg": false,
      "metar_trigger": false,
      "taf_trigger": false,
      "metar": "METAR UBBB 131930Z 33020KT 9999 -SHRA SCT012 BKN035CB OVC035 06/04 Q1010 NOSIG",
      "taf": "TAF UBBB 131712Z 1318/1418 33020KT 9999 SCT010 FEW040CB OVC040 TX06/1410Z TN03/1401Z"
    },
    {
      "icao": "UDSG",
      "alert": "OK",
      "vis_m": 6000,
      "fzfg": false,
      "metar_trigger": false,
      "taf_trigger": false,
      "metar": "METAR UDSG 131930Z 36019G29KT 6000 DRSN OVC033 M04/M08 Q1007 NOSIG",
      "taf": "TAF UDSG 131700Z 1318/1418 VRB06KT 1000 BR OVC010"
    },
    {
      "icao": "UDYZ",
      "alert": "OK",
      "vis_m": 6000,
      "fzfg": false,
      "metar_trigger": false,
      "taf_trigger": false,
      "metar": "METAR UDYZ 131930Z 20006KT 6000 -SHRA SCT003 OVC021CB 01/01 Q1006 NOSIG",
      "taf": "TAF UDYZ 131700Z 1318/1418 23006KT 2300 BR BKN030"
    },
    {
      "icao": "UGKO",
      "alert": "OK",
      "vis_m": 9999,
      "fzfg": false,
      "metar_trigger": false,
      "taf_trigger": false,
      "metar": "METAR UGKO 131930Z 24012KT 9999 -RA SCT010 BKN016 OVC019 02/00 Q1020 NOSIG",
      "taf": "TAF UGKO 131700Z 1318/1418 25010KT 9999 SCT017 OVC040 TX06/1411Z TN01/1403Z"
    }
  ]
}