{
  "ts_utc": "2026-02-28T17:01:00Z",
  "threshold_m": 150,
  "source": "stations_override.txt (ICAO list) + aviationweather.gov (METAR/TAF raw)",
  "station_count": 159,
  "stations": [
    {
      "icao": "BIKF",
      "alert": "OK",
      "vis_m": 5000,
      "fzfg": false,
      "metar_trigger": false,
      "taf_trigger": false,
      "metar": "METAR BIKF 281630Z 14007KT 5000 -SN BR SCT017 OVC040 M01/M02 Q1002",
      "taf": "TAF BIKF 281619Z 2818/0118 14008KT 9999 FEW020 BKN040 TX00/2818Z TNM02/0109Z"
    },
    {
      "icao": "BKPR",
      "alert": "OK",
      "vis_m": 9999,
      "fzfg": false,
      "metar_trigger": false,
      "taf_trigger": false,
      "metar": "METAR BKPR 281700Z 19005KT CAVOK 10/02 Q1024 NOSIG",
      "taf": "TAF BKPR 281130Z 2812/0112 17008KT CAVOK"
    },
    {
      "icao": "EBCI",
      "alert": "OK",
      "vis_m": 9999,
      "fzfg": false,
      "metar_trigger": false,
      "taf_trigger": false,
      "metar": "METAR EBCI 281650Z 25011KT 9999 SCT026 09/04 Q1021 TEMPO 24015G25KT",
      "taf": "TAF EBCI 281110Z 2812/0118 20014KT 9999 SCT018 BKN025"
    },
    {
      "icao": "EDDB",
      "alert": "OK",
      "vis_m": 9999,
      "fzfg": false,
      "metar_trigger": false,
      "taf_trigger": false,
      "metar": "METAR EDDB 281650Z AUTO 24005KT CAVOK 14/07 Q1017 NOSIG",
      "taf": "TAF EDDB 281100Z 2812/0112 22009KT CAVOK"
    },
    {
      "icao": "EDDH",
      "alert": "OK",
      "vis_m": 9999,
      "fzfg": false,
      "metar_trigger": false,
      "taf_trigger": false,
      "metar": "METAR EDDH 281650Z AUTO 20014KT 180V240 CAVOK 13/05 Q1014 NOSIG",
      "taf": "TAF EDDH 281100Z 2812/0118 22011KT 9999 SCT030"
    },
    {
      "icao": "EDDK",
      "alert": "OK",
      "vis_m": 9999,
      "fzfg": false,
      "metar_trigger": false,
      "taf_trigger": false,
      "metar": "METAR EDDK 281650Z AUTO 23023KT 9999 SCT041 BKN047 11/03 Q1021 BECMG 23010KT",
      "taf": "TAF EDDK 281100Z 2812/0118 23015G25KT 9999 BKN040"
    },
    {
      "icao": "EDDN",
      "alert": "OK",
      "vis_m": 9999,
      "fzfg": false,
      "metar_trigger": false,
      "taf_trigger": false,
      "metar": "METAR EDDN 281650Z AUTO 28006KT 9999 FEW039 12/06 Q1021 NOSIG",
      "taf": "TAF EDDN 281100Z 2812/0112 26008KT CAVOK"
    },
    {
      "icao": "EDDS",
      "alert": "OK",
      "vis_m": 9999,
      "fzfg": false,
      "metar_trigger": false,
      "taf_trigger": false,
      "metar": "METAR EDDS 281650Z AUTO 26006KT 220V290 9999 FEW032 BKN048 11/06 Q1022 NOSIG",
      "taf": "TAF EDDS 281100Z 2812/0112 24007KT 9999 FEW040"
    },
    {
      "icao": "EDFH",
      "alert": "OK",
      "vis_m": 9999,
      "fzfg": false,
      "metar_trigger": false,
      "taf_trigger": false,
      "metar": "METAR EDFH 281650Z 24013KT 200V260 9999 BKN032 08/02 Q1021",
      "taf": "TAF EDFH 281100Z 2812/0112 24015KT 9999 SCT025 BKN030"
    },
    {
      "icao": "EDJA",
      "alert": "OK",
      "vis_m": 9999,
      "fzfg": false,
      "metar_trigger": false,
      "taf_trigger": false,
      "metar": "METAR EDJA 281650Z 24007KT 9999 FEW034 11/06 Q1023",
      "taf": "TAF EDJA 281400Z 2815/2824 23010KT 9999 SCT035"
    },
    {
      "icao": "EDLW",
      "alert": "OK",
      "vis_m": 9999,
      "fzfg": false,
      "metar_trigger": false,
      "taf_trigger": false,
      "metar": "METAR EDLW 281650Z COR 21016KT 9999 R24///// -RA OVC043 11/03 Q1018 ARMK ATIS Z",
      "taf": "TAF EDLW 281100Z 2812/0112 22015G25KT 9999 BKN035"
    },
    {
      "icao": "EDNY",
      "alert": "OK",
      "vis_m": 9999,
      "fzfg": false,
      "metar_trigger": false,
      "taf_trigger": false,
      "metar": "METAR EDNY 281650Z 24007KT 9999 BKN042 11/07 Q1024",
      "taf": "TAF EDNY 281400Z 2815/2824 26007KT 9999 SCT035"
    },
    {
      "icao": "EDSB",
      "alert": "OK",
      "vis_m": 9999,
      "fzfg": false,
      "metar_trigger": false,
      "taf_trigger": false,
      "metar": "METAR EDSB 281650Z 20008KT CAVOK 11/05 Q1023",
      "taf": "TAF EDSB 281100Z 2812/0112 23010KT 9999 FEW040"
    },
    {
      "icao": "EETN",
      "alert": "OK",
      "vis_m": 9999,
      "fzfg": false,
      "metar_trigger": false,
      "taf_trigger": false,
      "metar": "METAR EETN 281650Z 23003KT 9999 OVC007 03/02 Q1016 TEMPO OVC004",
      "taf": "TAF EETN 281130Z 2812/0112 25008KT 4000 BR BKN003 OVC006"
    },
    {
      "icao": "EFTU",
      "alert": "OK",
      "vis_m": 9999,
      "fzfg": false,
      "metar_trigger": false,
      "taf_trigger": false,
      "metar": "METAR EFTU 281650Z AUTO 25004KT 220V290 9999 -SHRA OVC002 01/01 Q1016",
      "taf": "TAF EFTU 281431Z 2815/0115 25005KT 9999 OVC003"
    },
    {
      "icao": "EGBB",
      "alert": "OK",
      "vis_m": 9999,
      "fzfg": false,
      "metar_trigger": false,
      "taf_trigger": false,
      "metar": "METAR EGBB 281650Z 27008KT 9999 FEW048 09/M02 Q1018",
      "taf": "TAF EGBB 281054Z 2812/0112 30010KT 9999 SCT025"
    },
    {
      "icao": "EGGP",
      "alert": "OK",
      "vis_m": 9999,
      "fzfg": false,
      "metar_trigger": false,
      "taf_trigger": false,
      "metar": "METAR EGGP 281650Z 27005KT 9999 FEW035 07/00 Q1017",
      "taf": "TAF EGGP 281057Z 2812/0112 28013KT 9999 SCT020"
    },
    {
      "icao": "EGGW",
      "alert": "OK",
      "vis_m": 9999,
      "fzfg": false,
      "metar_trigger": false,
      "taf_trigger": false,
      "metar": "METAR EGGW 281650Z AUTO 23010KT 9999 NCD 06/02 Q1018",
      "taf": "TAF EGGW 281102Z 2812/0112 29012KT 9999 FEW012 SCT030"
    },
    {
      "icao": "EGKK",
      "alert": "OK",
      "vis_m": 9999,
      "fzfg": false,
      "metar_trigger": false,
      "taf_trigger": false,
      "metar": "METAR EGKK 281650Z 25009KT CAVOK 09/00 Q1020",
      "taf": "TAF EGKK 281054Z 2812/0118 28015KT 9999 FEW018 SCT025"
    },
    {
      "icao": "EGNM",
      "alert": "OK",
      "vis_m": 9999,
      "fzfg": false,
      "metar_trigger": false,
      "taf_trigger": false,
      "metar": "METAR EGNM 281650Z 27010KT 9999 FEW015 06/02 Q1015",
      "taf": "TAF EGNM 281057Z 2812/0112 34006KT 9999 SCT016"
    },
    {
      "icao": "EGPD",
      "alert": "OK",
      "vis_m": 9999,
      "fzfg": false,
      "metar_trigger": false,
      "taf_trigger": false,
      "metar": "METAR EGPD 281650Z COR AUTO 15008KT 9999 NCD 05/M01 Q1013 NOSIG",
      "taf": ""
    },
    {
      "icao": "EGPF",
      "alert": "OK",
      "vis_m": 9999,
      "fzfg": false,
      "metar_trigger": false,
      "taf_trigger": false,
      "metar": "METAR EGPF 281650Z AUTO 21007KT 9999 NCD 06/M02 Q1014",
      "taf": ""
    },
    {
      "icao": "EHBK",
      "alert": "OK",
      "vis_m": 9999,
      "fzfg": false,
      "metar_trigger": false,
      "taf_trigger": false,
      "metar": "METAR EHBK 281655Z AUTO 24009KT 200V290 9999 DZRA SCT020/// BKN023/// OVC027/// 08/06 Q1020 TEMPO 7000 -DZRA",
      "taf": "TAF EHBK 281101Z 2812/0118 22022G34KT 9999 BKN035"
    },
    {
      "icao": "EHEH",
      "alert": "OK",
      "vis_m": 9999,
      "fzfg": false,
      "metar_trigger": false,
      "taf_trigger": false,
      "metar": "METAR EHEH 281625Z AUTO 24015KT 210V280 9999 SCT017 BKN020 OVC026 08/06 Q1018 WHT TEMPO 22020G30KT FEW013 SCT015 BKN018CB",
      "taf": ""
    },
    {
      "icao": "EKBI",
      "alert": "OK",
      "vis_m": 9999,
      "fzfg": false,
      "metar_trigger": false,
      "taf_trigger": false,
      "metar": "METAR EKBI 281650Z 21007KT 180V240 9999 SHRA BKN007 FEW020CB 09/08 Q1011",
      "taf": "TAF EKBI 281427Z 2815/0115 20010KT 8000 -DZRA BKN004"
    },
    {
      "icao": "EKCH",
      "alert": "OK",
      "vis_m": 9999,
      "fzfg": false,
      "metar_trigger": false,
      "taf_trigger": false,
      "metar": "METAR EKCH 281650Z AUTO 20006KT 9999 NCD 06/06 Q1014 NOSIG",
      "taf": ""
    },
    {
      "icao": "ENAL",
      "alert": "OK",
      "vis_m": 9999,
      "fzfg": false,
      "metar_trigger": false,
      "taf_trigger": false,
      "metar": "METAR ENAL 281650Z 21004KT CAVOK 04/M00 Q1013",
      "taf": "TAF ENAL 281400Z 2815/2824 20010KT 9999 FEW035"
    },
    {
      "icao": "ENBR",
      "alert": "OK",
      "vis_m": 9999,
      "fzfg": false,
      "metar_trigger": false,
      "taf_trigger": false,
      "metar": "METAR ENBR 281650Z 35008KT CAVOK 05/M03 Q1011 NOSIG RMK WIND 1200FT 35014KT",
      "taf": "TAF ENBR 281100Z 2812/0112 35008KT CAVOK"
    },
    {
      "icao": "ENGM",
      "alert": "OK",
      "vis_m": 9999,
      "fzfg": true,
      "metar_trigger": false,
      "taf_trigger": false,
      "metar": "METAR ENGM 281650Z 01004KT 9999 FEW001 M01/M02 Q1012 NOSIG",
      "taf": "TAF ENGM 281100Z 2812/0112 03005KT 0300 FZFG VV002"
    },
    {
      "icao": "ENHD",
      "alert": "OK",
      "vis_m": 9999,
      "fzfg": false,
      "metar_trigger": false,
      "taf_trigger": false,
      "metar": "METAR ENHD 281650Z 36008KT CAVOK 05/M01 Q1011",
      "taf": "TAF ENHD 281400Z 2815/2823 35010KT CAVOK"
    },
    {
      "icao": "ENTC",
      "alert": "OK",
      "vis_m": 9999,
      "fzfg": false,
      "metar_trigger": false,
      "taf_trigger": false,
      "metar": "METAR ENTC 281650Z 24010KT 9999 FEW028 SCT047 BKN057 01/M02 Q1003 NOSIG RMK WIND 2600FT 19029KT",
      "taf": ""
    },
    {
      "icao": "ENTO",
      "alert": "OK",
      "vis_m": 9999,
      "fzfg": false,
      "metar_trigger": false,
      "taf_trigger": false,
      "metar": "METAR ENTO 281650Z 02005KT 350V050 9999 -SN VV015 01/M00 Q1012 TEMPO 4000 -SN",
      "taf": ""
    },
    {
      "icao": "ENVA",
      "alert": "OK",
      "vis_m": 9999,
      "fzfg": false,
      "metar_trigger": false,
      "taf_trigger": false,
      "metar": "METAR ENVA 281650Z VRB02KT CAVOK 04/M02 Q1014 RMK WIND 670FT 25010KT",
      "taf": "TAF ENVA 281100Z 2812/0112 VRB04KT 9999 SCT050"
    },
    {
      "icao": "ENZV",
      "alert": "OK",
      "vis_m": 9999,
      "fzfg": false,
      "metar_trigger": false,
      "taf_trigger": false,
      "metar": "METAR ENZV 281650Z VRB02KT 9999 -RA OVC025 03/01 Q1011 NOSIG",
      "taf": "TAF ENZV 281100Z 2812/0112 36007KT 9999 -RA FEW015 BKN040"
    },
    {
      "icao": "EPGD",
      "alert": "OK",
      "vis_m": 9999,
      "fzfg": false,
      "metar_trigger": false,
      "taf_trigger": false,
      "metar": "METAR EPGD 281630Z 20003KT CAVOK 11/05 Q1017",
      "taf": "TAF EPGD 281130Z 2812/0112 14008KT CAVOK"
    },
    {
      "icao": "EPKK",
      "alert": "OK",
      "vis_m": 9999,
      "fzfg": false,
      "metar_trigger": false,
      "taf_trigger": false,
      "metar": "METAR EPKK 281630Z 17003KT CAVOK 12/02 Q1021",
      "taf": "TAF EPKK 281430Z 2815/0115 VRB02KT CAVOK"
    },
    {
      "icao": "EPKT",
      "alert": "OK",
      "vis_m": 9999,
      "fzfg": false,
      "metar_trigger": false,
      "taf_trigger": false,
      "metar": "METAR EPKT 281630Z 17003KT CAVOK 12/03 Q1021",
      "taf": "TAF EPKT 281130Z 2812/0112 20012KT CAVOK"
    },
    {
      "icao": "EPLB",
      "alert": "OK",
      "vis_m": 9999,
      "fzfg": false,
      "metar_trigger": false,
      "taf_trigger": false,
      "metar": "METAR EPLB 281630Z 16002KT CAVOK 08/03 Q1023",
      "taf": "TAF EPLB 281130Z 2812/0112 18008KT CAVOK"
    },
    {
      "icao": "EPMO",
      "alert": "OK",
      "vis_m": 9999,
      "fzfg": false,
      "metar_trigger": false,
      "taf_trigger": false,
      "metar": "METAR EPMO 281630Z 18003KT CAVOK 12/05 Q1020",
      "taf": "TAF EPMO 281130Z 2812/0112 18008KT CAVOK"
    },
    {
      "icao": "EPPO",
      "alert": "OK",
      "vis_m": 9999,
      "fzfg": false,
      "metar_trigger": false,
      "taf_trigger": false,
      "metar": "METAR EPPO 281630Z 17007KT CAVOK 14/06 Q1018",
      "taf": "TAF EPPO 281130Z 2812/0112 20008KT CAVOK"
    },
    {
      "icao": "EPRA",
      "alert": "OK",
      "vis_m": 9999,
      "fzfg": false,
      "metar_trigger": false,
      "taf_trigger": false,
      "metar": "METAR EPRA 281630Z 15007KT CAVOK 11/04 Q1021",
      "taf": "TAF EPRA 281430Z 2815/2824 17008KT CAVOK"
    },
    {
      "icao": "EPRZ",
      "alert": "OK",
      "vis_m": 9999,
      "fzfg": false,
      "metar_trigger": false,
      "taf_trigger": false,
      "metar": "METAR EPRZ 281630Z 17005KT CAVOK 11/M01 Q1023",
      "taf": "TAF EPRZ 281130Z 2812/0112 19008KT CAVOK"
    },
    {
      "icao": "EPSC",
      "alert": "OK",
      "vis_m": 9999,
      "fzfg": false,
      "metar_trigger": false,
      "taf_trigger": false,
      "metar": "METAR EPSC 281630Z 15004KT CAVOK 14/08 Q1016",
      "taf": "TAF EPSC 281130Z 2812/0112 14006KT CAVOK"
    },
    {
      "icao": "EPSY",
      "alert": "OK",
      "vis_m": 9999,
      "fzfg": false,
      "metar_trigger": false,
      "taf_trigger": false,
      "metar": "METAR EPSY 281630Z 19003KT CAVOK 05/03 Q1020",
      "taf": "TAF EPSY 281430Z 2815/2824 19008KT CAVOK"
    },
    {
      "icao": "EPWA",
      "alert": "OK",
      "vis_m": 9999,
      "fzfg": false,
      "metar_trigger": false,
      "taf_trigger": false,
      "metar": "METAR EPWA 281630Z 17004KT CAVOK 13/04 Q1020 NOSIG",
      "taf": "TAF EPWA 281430Z 2815/0115 18007KT CAVOK"
    },
    {
      "icao": "EPWR",
      "alert": "OK",
      "vis_m": 9999,
      "fzfg": false,
      "metar_trigger": false,
      "taf_trigger": false,
      "metar": "METAR EPWR 281630Z 16008KT CAVOK 14/06 Q1019",
      "taf": "TAF EPWR 281430Z 2815/0115 16008KT CAVOK"
    },
    {
      "icao": "ESGG",
      "alert": "OK",
      "vis_m": 9999,
      "fzfg": false,
      "metar_trigger": false,
      "taf_trigger": false,
      "metar": "METAR ESGG 281650Z 16008KT 9999 -RA OVC003 07/07 Q1011",
      "taf": "TAF ESGG 281430Z 2815/0115 13004KT 4000 -RADZ OVC002"
    },
    {
      "icao": "ESKN",
      "alert": "OK",
      "vis_m": 6000,
      "fzfg": false,
      "metar_trigger": false,
      "taf_trigger": false,
      "metar": "METAR ESKN 281650Z 13007KT 6000 BKN003 03/03 Q1014",
      "taf": "TAF ESKN 281430Z 2815/0115 VRB02KT 9999 BKN007"
    },
    {
      "icao": "ESMS",
      "alert": "OK",
      "vis_m": 150,
      "fzfg": false,
      "metar_trigger": false,
      "taf_trigger": false,
      "metar": "METAR ESMS 281650Z 21006KT 0150 R17/0500N R35/0900N FG OVC002 07/07 Q1014",
      "taf": ""
    },
    {
      "icao": "ESSA",
      "alert": "OK",
      "vis_m": 2900,
      "fzfg": false,
      "metar_trigger": false,
      "taf_trigger": false,
      "metar": "METAR ESSA 281650Z 09003KT 060V130 2900 R01L/P2000N R19R/P2000N R01R/P2000N R19L/P2000N OVC003 01/01 Q1014 TEMPO 5000",
      "taf": "TAF ESSA 281130Z 2812/0112 26007KT 9999 BKN005"
    },
    {
      "icao": "EYKA",
      "alert": "OK",
      "vis_m": 9999,
      "fzfg": false,
      "metar_trigger": false,
      "taf_trigger": false,
      "metar": "METAR EYKA 281650Z 20004KT 170V240 CAVOK 08/02 Q1019",
      "taf": "TAF EYKA 281100Z 2812/0112 VRB05KT 8000 NSC"
    },
    {
      "icao": "EYPA",
      "alert": "OK",
      "vis_m": 9999,
      "fzfg": false,
      "metar_trigger": false,
      "taf_trigger": false,
      "metar": "METAR EYPA 281650Z 17004KT CAVOK 04/02 Q1017",
      "taf": "TAF EYPA 281700Z 2818/0118 VRB04KT 5000 BR SCT005"
    },
    {
      "icao": "EYVI",
      "alert": "OK",
      "vis_m": 9999,
      "fzfg": false,
      "metar_trigger": false,
      "taf_trigger": false,
      "metar": "METAR EYVI 281650Z 17007KT CAVOK 05/01 Q1020 NOSIG",
      "taf": "TAF EYVI 281100Z 2812/0112 VRB05KT 8000 NSC"
    },
    {
      "icao": "GCFV",
      "alert": "OK",
      "vis_m": 9999,
      "fzfg": false,
      "metar_trigger": false,
      "taf_trigger": false,
      "metar": "METAR GCFV 281630Z 34021KT 310V010 9999 SCT030 20/12 Q1018",
      "taf": "TAF GCFV 281400Z 2815/0115 02022KT 9999 FEW025 TX22/0114Z TN15/0106Z"
    },
    {
      "icao": "GCLP",
      "alert": "OK",
      "vis_m": 9999,
      "fzfg": false,
      "metar_trigger": false,
      "taf_trigger": false,
      "metar": "METAR GCLP 281630Z 01027KT 9999 FEW025 BKN035 18/13 Q1019 NOSIG",
      "taf": "TAF GCLP 281400Z 2815/0115 01025KT 9999 SCT025 TX21/0114Z TN16/0106Z"
    },
    {
      "icao": "GCTS",
      "alert": "OK",
      "vis_m": 9999,
      "fzfg": false,
      "metar_trigger": false,
      "taf_trigger": false,
      "metar": "METAR GCTS 281630Z 07023KT 9999 FEW035 22/11 Q1019 WS R07 NOSIG",
      "taf": "TAF GCTS 281400Z 2815/0115 08025KT 9999 FEW035 TX23/0114Z TN17/0106Z"
    },
    {
      "icao": "GMAD",
      "alert": "OK",
      "vis_m": 6000,
      "fzfg": false,
      "metar_trigger": false,
      "taf_trigger": false,
      "metar": "METAR GMAD 281630Z 21005KT 180V250 6000 NSC 22/12 Q1011 NOSIG",
      "taf": "TAF GMAD 281100Z 2812/0118 09004KT 6000 NSC"
    },
    {
      "icao": "GMMN",
      "alert": "OK",
      "vis_m": 9999,
      "fzfg": false,
      "metar_trigger": false,
      "taf_trigger": false,
      "metar": "METAR GMMN 281630Z 02011KT 9999 BKN025 15/11 Q1019 NOSIG",
      "taf": "TAF GMMN 281100Z 2812/0118 05006KT 9999 BKN014"
    },
    {
      "icao": "GMMX",
      "alert": "OK",
      "vis_m": 8000,
      "fzfg": false,
      "metar_trigger": false,
      "taf_trigger": false,
      "metar": "METAR GMMX 281630Z 10004KT 050V170 8000 OVC020 16/11 Q1017 NOSIG",
      "taf": "TAF GMMX 281100Z 2812/0118 04006KT 8000 FEW013 SCT023"
    },
    {
      "icao": "HEGN",
      "alert": "OK",
      "vis_m": 9999,
      "fzfg": false,
      "metar_trigger": false,
      "taf_trigger": false,
      "metar": "METAR HEGN 281600Z 35015KT CAVOK 18/04 Q1014 NOSIG",
      "taf": "TAF HEGN 281700Z 2818/0124 34018KT CAVOK"
    },
    {
      "icao": "HEMA",
      "alert": "OK",
      "vis_m": 9999,
      "fzfg": false,
      "metar_trigger": false,
      "taf_trigger": false,
      "metar": "METAR HEMA 281600Z 36015KT CAVOK 18/06 Q1013 NOSIG",
      "taf": "TAF HEMA 281700Z 2818/0124 33015KT CAVOK"
    },
    {
      "icao": "HESH",
      "alert": "OK",
      "vis_m": 9999,
      "fzfg": false,
      "metar_trigger": false,
      "taf_trigger": false,
      "metar": "METAR HESH 281600Z 02006KT CAVOK 20/05 Q1013 NOSIG",
      "taf": "TAF HESH 281700Z 2818/0124 35015KT CAVOK"
    },
    {
      "icao": "HESX",
      "alert": "OK",
      "vis_m": 9999,
      "fzfg": false,
      "metar_trigger": false,
      "taf_trigger": false,
      "metar": "METAR HESX 281600Z 03010KT 9999 SCT025 15/02 Q1018 NOSIG",
      "taf": "TAF HESX 281700Z 2818/0124 02010KT 9999 SCT025"
    },
    {
      "icao": "LATI",
      "alert": "OK",
      "vis_m": 9999,
      "fzfg": false,
      "metar_trigger": false,
      "taf_trigger": false,
      "metar": "METAR LATI 281650Z 32005KT CAVOK 12/09 Q1024 NOSIG",
      "taf": "TAF LATI 281700Z 2818/0118 VRB03KT CAVOK TX18/0112Z TN06/0105Z"
    },
    {
      "icao": "LBPD",
      "alert": "OK",
      "vis_m": 7000,
      "fzfg": false,
      "metar_trigger": false,
      "taf_trigger": false,
      "metar": "METAR LBPD 281630Z AUTO 36003KT 340V040 7000 NCD 03/01 Q1028 NOSIG",
      "taf": "TAF LBPD 281100Z 2812/0112 08010KT 9999 OVC009"
    },
    {
      "icao": "LBSF",
      "alert": "OK",
      "vis_m": 9999,
      "fzfg": false,
      "metar_trigger": false,
      "taf_trigger": false,
      "metar": "METAR LBSF 281630Z AUTO 11008KT 9999 NCD 05/M05 Q1026 NOSIG",
      "taf": "TAF LBSF 281100Z 2812/0112 10010KT CAVOK"
    },
    {
      "icao": "LBWN",
      "alert": "OK",
      "vis_m": 9999,
      "fzfg": false,
      "metar_trigger": false,
      "taf_trigger": false,
      "metar": "METAR LBWN 281630Z 14005KT CAVOK 02/M01 Q1030 NOSIG",
      "taf": "TAF LBWN 281100Z 2812/0112 VRB03KT 9999 BKN020"
    },
    {
      "icao": "LCLK",
      "alert": "OK",
      "vis_m": 9999,
      "fzfg": false,
      "metar_trigger": false,
      "taf_trigger": false,
      "metar": "METAR LCLK 281630Z 03006KT 9999 BKN060 14/06 Q1019 NOSIG",
      "taf": "TAF LCLK 281130Z 2812/0112 04010KT 9999 FEW030 SCT060"
    },
    {
      "icao": "LCPH",
      "alert": "OK",
      "vis_m": 9999,
      "fzfg": false,
      "metar_trigger": false,
      "taf_trigger": false,
      "metar": "METAR LCPH 281630Z 01003KT 9999 FEW025 SCT060 12/03 Q1018 NOSIG",
      "taf": "TAF LCPH 281130Z 2812/0112 29010KT 9999 FEW040 SCT060"
    },
    {
      "icao": "LEAL",
      "alert": "OK",
      "vis_m": 9999,
      "fzfg": false,
      "metar_trigger": false,
      "taf_trigger": false,
      "metar": "METAR LEAL 281630Z 08010KT 9999 FEW025 SCT033 BKN048 17/10 Q1022 NOSIG",
      "taf": "TAF LEAL 281100Z 2812/0112 VRB04KT 9999 FEW020 TX19/2812Z TN07/0107Z"
    },
    {
      "icao": "LEBB",
      "alert": "OK",
      "vis_m": 9999,
      "fzfg": false,
      "metar_trigger": false,
      "taf_trigger": false,
      "metar": "METAR LEBB 281630Z 31006KT 280V350 9999 FEW028 SCT042 12/06 Q1027 NOSIG",
      "taf": "TAF LEBB 281100Z 2812/0112 31009KT 9999 FEW025 SCT035 TX17/0112Z TN02/0106Z"
    },
    {
      "icao": "LEBL",
      "alert": "OK",
      "vis_m": 9999,
      "fzfg": false,
      "metar_trigger": false,
      "taf_trigger": false,
      "metar": "METAR LEBL 281630Z 09006KT 060V120 9999 FEW016 SCT029 BKN050 14/10 Q1024 NOSIG",
      "taf": "TAF LEBL 281100Z 2812/0112 09010KT 9999 FEW020 OVC030 TX14/2813Z TN10/0106Z"
    },
    {
      "icao": "LECH",
      "alert": "OK",
      "vis_m": 9999,
      "fzfg": false,
      "metar_trigger": false,
      "taf_trigger": false,
      "metar": "METAR LECH 281630Z AUTO 10006KT 9999 BKN035 BKN043 12/07 Q1024",
      "taf": ""
    },
    {
      "icao": "LEMD",
      "alert": "OK",
      "vis_m": 9999,
      "fzfg": false,
      "metar_trigger": false,
      "taf_trigger": false,
      "metar": "METAR LEMD 281630Z 05003KT 010V090 9999 FEW060 16/03 Q1021 NOSIG",
      "taf": "TAF LEMD 281100Z 2812/0118 02006KT 9999 FEW040 TX18/2815Z TN02/0107Z"
    },
    {
      "icao": "LEMG",
      "alert": "OK",
      "vis_m": 9000,
      "fzfg": false,
      "metar_trigger": false,
      "taf_trigger": false,
      "metar": "METAR LEMG 281630Z 13005KT 080V150 9000 SCT025 OVC035 14/10 Q1022 NOSIG",
      "taf": "TAF LEMG 281100Z 2812/0112 13010KT 9999 SCT025 TX19/2814Z TN13/0106Z"
    },
    {
      "icao": "LEVC",
      "alert": "OK",
      "vis_m": 9999,
      "fzfg": false,
      "metar_trigger": false,
      "taf_trigger": false,
      "metar": "METAR LEVC 281630Z 09006KT 040V120 9999 FEW018 BKN045 14/10 Q1024 NOSIG",
      "taf": "TAF LEVC 281100Z 2812/0112 07007KT 9999 BKN020 TX17/2812Z TN06/0107Z"
    },
    {
      "icao": "LEXJ",
      "alert": "OK",
      "vis_m": 9999,
      "fzfg": false,
      "metar_trigger": false,
      "taf_trigger": false,
      "metar": "METAR LEXJ 281630Z 35005KT 320V030 9999 FEW035 11/04 Q1028",
      "taf": ""
    },
    {
      "icao": "LEZG",
      "alert": "OK",
      "vis_m": 9999,
      "fzfg": false,
      "metar_trigger": false,
      "taf_trigger": false,
      "metar": "METAR LEZG 281630Z 34007KT 290V010 9999 BKN040 15/05 Q1024 NOSIG",
      "taf": "TAF LEZG 281100Z 2812/0112 32010KT CAVOK TX18/2815Z TN03/0106Z"
    },
    {
      "icao": "LEZL",
      "alert": "OK",
      "vis_m": 9999,
      "fzfg": false,
      "metar_trigger": false,
      "taf_trigger": false,
      "metar": "METAR LEZL 281630Z VRB03KT CAVOK 22/10 Q1020 NOSIG",
      "taf": "TAF LEZL 281400Z 2815/0115 VRB02KT CAVOK TX22/2815Z TN09/0107Z"
    },
    {
      "icao": "LFBD",
      "alert": "OK",
      "vis_m": 9999,
      "fzfg": false,
      "metar_trigger": false,
      "taf_trigger": false,
      "metar": "METAR LFBD 281630Z AUTO 27010KT 9999 FEW039 14/05 Q1026 NOSIG",
      "taf": "TAF LFBD 281100Z 2812/0118 26005KT CAVOK TX17/0114Z TN02/0106Z"
    },
    {
      "icao": "LFLL",
      "alert": "OK",
      "vis_m": 9999,
      "fzfg": false,
      "metar_trigger": false,
      "taf_trigger": false,
      "metar": "METAR LFLL 281630Z 06006KT 040V100 9999 -RA FEW044 OVC056 09/07 Q1026 NOSIG",
      "taf": "TAF LFLL 281100Z 2812/0118 36004KT 9999 BKN045"
    },
    {
      "icao": "LFLS",
      "alert": "OK",
      "vis_m": 9999,
      "fzfg": false,
      "metar_trigger": false,
      "taf_trigger": false,
      "metar": "METAR LFLS 281630Z AUTO VRB04KT 9999 -RA SCT019 OVC027 09/06 Q1025 NOSIG",
      "taf": "TAF LFLS 281400Z 2815/0115 VRB03KT 9999 BKN030"
    },
    {
      "icao": "LFMN",
      "alert": "OK",
      "vis_m": 9999,
      "fzfg": false,
      "metar_trigger": false,
      "taf_trigger": false,
      "metar": "METAR LFMN 281630Z 12005KT 9999 SCT050 SCT230 14/11 Q1023 NOSIG",
      "taf": "TAF LFMN 281400Z 2815/0121 14005KT 9999 FEW040"
    },
    {
      "icao": "LFOB",
      "alert": "OK",
      "vis_m": 9999,
      "fzfg": false,
      "metar_trigger": false,
      "taf_trigger": false,
      "metar": "METAR LFOB 281630Z AUTO 25006KT 220V280 CAVOK 11/04 Q1022 NOSIG",
      "taf": "TAF LFOB 281100Z 2812/0112 20013KT 9999 SCT017 BKN020 BKN030"
    },
    {
      "icao": "LFPO",
      "alert": "OK",
      "vis_m": 9999,
      "fzfg": false,
      "metar_trigger": false,
      "taf_trigger": false,
      "metar": "METAR LFPO 281630Z 27008KT 230V310 9999 SCT048 13/02 Q1023 NOSIG",
      "taf": "TAF LFPO 281100Z 2812/0118 24012KT 9999 BKN030"
    },
    {
      "icao": "LFSB",
      "alert": "OK",
      "vis_m": 9999,
      "fzfg": false,
      "metar_trigger": false,
      "taf_trigger": false,
      "metar": "METAR LFSB 281630Z AUTO VRB01KT CAVOK 10/05 Q1025 TEMPO FEW025TCU",
      "taf": "TAF LFSB 281100Z 2812/0112 27010KT 9999 BKN030 OVC055"
    },
    {
      "icao": "LGAV",
      "alert": "OK",
      "vis_m": 9999,
      "fzfg": false,
      "metar_trigger": false,
      "taf_trigger": false,
      "metar": "METAR LGAV 281650Z 03007KT 9999 SCT035 09/02 Q1026 NOSIG",
      "taf": "TAF LGAV 281100Z 2812/0112 01015KT 9999 SCT020"
    },
    {
      "icao": "LGTS",
      "alert": "OK",
      "vis_m": 9999,
      "fzfg": false,
      "metar_trigger": false,
      "taf_trigger": false,
      "metar": "METAR LGTS 281650Z VRB02KT 9999 FEW025 10/05 Q1027 NOSIG",
      "taf": "TAF LGTS 281100Z 2812/0112 12006KT 9999 SCT030"
    },
    {
      "icao": "LHBP",
      "alert": "OK",
      "vis_m": 9999,
      "fzfg": false,
      "metar_trigger": false,
      "taf_trigger": false,
      "metar": "METAR LHBP 281630Z 15005KT CAVOK 10/00 Q1025 NOSIG",
      "taf": "TAF LHBP 281115Z 2812/0112 15009KT CAVOK"
    },
    {
      "icao": "LHDC",
      "alert": "OK",
      "vis_m": 9999,
      "fzfg": false,
      "metar_trigger": false,
      "taf_trigger": false,
      "metar": "METAR LHDC 281615Z AUTO 00000KT CAVOK 11/01 Q1026 NOSIG",
      "taf": "TAF LHDC 281415Z 2815/2824 VRB03KT CAVOK"
    },
    {
      "icao": "LIBD",
      "alert": "OK",
      "vis_m": 9999,
      "fzfg": false,
      "metar_trigger": false,
      "taf_trigger": false,
      "metar": "METAR LIBD 281650Z VRB02KT 9999 BKN015 13/10 Q1024",
      "taf": "TAF LIBD 281100Z 2812/0112 VRB05KT 7000 BKN020"
    },
    {
      "icao": "LIBG",
      "alert": "OK",
      "vis_m": 9999,
      "fzfg": false,
      "metar_trigger": false,
      "taf_trigger": false,
      "metar": "METAR LIBG 281550Z VRB02KT 9999 SCT025 17/11 Q1023",
      "taf": "TAF LIBG 281400Z 2815/2824 20008KT 9999 SCT020"
    },
    {
      "icao": "LIBP",
      "alert": "OK",
      "vis_m": 5000,
      "fzfg": false,
      "metar_trigger": false,
      "taf_trigger": false,
      "metar": "METAR LIBP 281650Z 05005KT 5000 BR OVC020 12/11 Q1024",
      "taf": "TAF LIBP 281100Z 2812/0112 VRB05KT 6000 NSC"
    },
    {
      "icao": "LIBR",
      "alert": "OK",
      "vis_m": 9999,
      "fzfg": false,
      "metar_trigger": false,
      "taf_trigger": false,
      "metar": "METAR LIBR 281650Z 08003KT CAVOK 13/11 Q1024",
      "taf": "TAF LIBR 281100Z 2812/0112 03006KT 9999 BKN020"
    },
    {
      "icao": "LICA",
      "alert": "OK",
      "vis_m": 9999,
      "fzfg": false,
      "metar_trigger": false,
      "taf_trigger": false,
      "metar": "METAR LICA 281650Z VRB01KT CAVOK 14/10 Q1023",
      "taf": "TAF LICA 281100Z 2812/0112 27010KT 9999 SCT020"
    },
    {
      "icao": "LICC",
      "alert": "OK",
      "vis_m": 9999,
      "fzfg": false,
      "metar_trigger": false,
      "taf_trigger": false,
      "metar": "METAR LICC 281650Z 09005KT CAVOK 14/12 Q1023",
      "taf": "TAF LICC 281100Z 2812/0112 08010KT 6000 SCT030"
    },
    {
      "icao": "LICJ",
      "alert": "OK",
      "vis_m": 9999,
      "fzfg": false,
      "metar_trigger": false,
      "taf_trigger": false,
      "metar": "METAR LICJ 281650Z 07007KT CAVOK 15/11 Q1023",
      "taf": "TAF LICJ 281100Z 2812/0112 04010KT 9999 SCT015"
    },
    {
      "icao": "LIMC",
      "alert": "OK",
      "vis_m": 9999,
      "fzfg": false,
      "metar_trigger": false,
      "taf_trigger": false,
      "metar": "METAR LIMC 281650Z 26004KT 240V300 CAVOK 14/07 Q1023 NOSIG",
      "taf": "TAF LIMC 281100Z 2812/0118 VRB04KT 4000 BR BKN030"
    },
    {
      "icao": "LIME",
      "alert": "OK",
      "vis_m": 9999,
      "fzfg": false,
      "metar_trigger": false,
      "taf_trigger": false,
      "metar": "METAR LIME 281650Z 22006KT 9999 BKN040 14/07 Q1023 NOSIG",
      "taf": "TAF LIME 281100Z 2812/0112 VRB05KT 6000 BKN030"
    },
    {
      "icao": "LIMF",
      "alert": "OK",
      "vis_m": 6000,
      "fzfg": false,
      "metar_trigger": false,
      "taf_trigger": false,
      "metar": "METAR LIMF 281650Z 07002KT 6000 BKN060 12/07 Q1022",
      "taf": "TAF LIMF 281100Z 2812/0112 VRB04KT 6000 BKN030"
    },
    {
      "icao": "LIMJ",
      "alert": "OK",
      "vis_m": 9999,
      "fzfg": false,
      "metar_trigger": false,
      "taf_trigger": false,
      "metar": "METAR LIMJ 281650Z 28001KT 9999 FEW020 14/10 Q1023",
      "taf": "TAF LIMJ 281100Z 2812/0112 VRB05KT 9999 SCT020 BKN030"
    },
    {
      "icao": "LIPE",
      "alert": "OK",
      "vis_m": 8000,
      "fzfg": false,
      "metar_trigger": false,
      "taf_trigger": false,
      "metar": "METAR LIPE 281650Z 09005KT 8000 NSC 14/09 Q1023",
      "taf": "TAF LIPE 281100Z 2812/0112 VRB04KT 9999 BKN030"
    },
    {
      "icao": "LIPH",
      "alert": "OK",
      "vis_m": 700,
      "fzfg": false,
      "metar_trigger": false,
      "taf_trigger": false,
      "metar": "METAR LIPH 281650Z 13003KT 0700 R07/1800D FG BKN001 09/09 Q1024",
      "taf": "TAF LIPH 281100Z 2812/0112 VRB04KT 0200 FG BKN003"
    },
    {
      "icao": "LIPQ",
      "alert": "OK",
      "vis_m": 50,
      "fzfg": false,
      "metar_trigger": false,
      "taf_trigger": false,
      "metar": "METAR LIPQ 281650Z 18003KT 150V220 0050 R09/0500D FG VV001 09/09 Q1024",
      "taf": ""
    },
    {
      "icao": "LIPR",
      "alert": "OK",
      "vis_m": 4000,
      "fzfg": false,
      "metar_trigger": false,
      "taf_trigger": false,
      "metar": "METAR LIPR 281650Z 11004KT 4000 BR BKN010 11/10 Q1024",
      "taf": "TAF LIPR 281100Z 2812/0112 VRB04KT 7000 SCT050"
    },
    {
      "icao": "LIPX",
      "alert": "OK",
      "vis_m": 9000,
      "fzfg": false,
      "metar_trigger": false,
      "taf_trigger": false,
      "metar": "METAR LIPX 281650Z 15005KT 9000 FEW045 15/08 Q1023",
      "taf": "TAF LIPX 281100Z 2812/0112 VRB05KT 5000 BR BKN030"
    },
    {
      "icao": "LIPY",
      "alert": "OK",
      "vis_m": 5000,
      "fzfg": false,
      "metar_trigger": false,
      "taf_trigger": false,
      "metar": "METAR LIPY 281650Z VRB02KT 5000 BR NSC 13/10 Q1024",
      "taf": "TAF LIPY 281100Z 2812/0112 VRB04KT 6000 SCT030"
    },
    {
      "icao": "LIPZ",
      "alert": "OK",
      "vis_m": 200,
      "fzfg": false,
      "metar_trigger": false,
      "taf_trigger": false,
      "metar": "METAR LIPZ 281650Z VRB02KT 0200 R04R/0600N FG VV001 09/09 Q1024 NOSIG",
      "taf": "TAF LIPZ 281100Z 2812/0118 VRB04KT 0400 FG OVC001"
    },
    {
      "icao": "LIRF",
      "alert": "OK",
      "vis_m": 9999,
      "fzfg": false,
      "metar_trigger": false,
      "taf_trigger": false,
      "metar": "METAR LIRF 281650Z 27004KT CAVOK 14/07 Q1023 NOSIG",
      "taf": "TAF LIRF 281100Z 2812/0118 26010KT 9999 SCT035"
    },
    {
      "icao": "LIRN",
      "alert": "OK",
      "vis_m": 9999,
      "fzfg": false,
      "metar_trigger": false,
      "taf_trigger": false,
      "metar": "METAR LIRN 281650Z 19003KT CAVOK 14/08 Q1023 NOSIG",
      "taf": "TAF LIRN 281100Z 2812/0112 VRB05KT 7000 BKN030"
    },
    {
      "icao": "LIRP",
      "alert": "OK",
      "vis_m": 9999,
      "fzfg": false,
      "metar_trigger": false,
      "taf_trigger": false,
      "metar": "METAR LIRP 281645Z 26005KT CAVOK 13/08 Q1024 NOSIG",
      "taf": "TAF LIRP 281100Z 2812/0112 10004KT 9999 SCT040"
    },
    {
      "icao": "LIRZ",
      "alert": "OK",
      "vis_m": 9999,
      "fzfg": false,
      "metar_trigger": false,
      "taf_trigger": false,
      "metar": "METAR LIRZ 281650Z VRB01KT CAVOK 15/06 Q1022",
      "taf": "TAF LIRZ 281100Z 2812/0112 VRB05KT 9999 BKN030"
    },
    {
      "icao": "LJLJ",
      "alert": "OK",
      "vis_m": 9999,
      "fzfg": false,
      "metar_trigger": false,
      "taf_trigger": false,
      "metar": "METAR LJLJ 281630Z 24003KT 200V280 9999 FEW060 13/06 Q1022 NOSIG",
      "taf": "TAF LJLJ 281100Z 2812/0112 VRB02KT CAVOK"
    },
    {
      "icao": "LKMT",
      "alert": "OK",
      "vis_m": 9999,
      "fzfg": false,
      "metar_trigger": false,
      "taf_trigger": false,
      "metar": "METAR LKMT 281630Z 22011KT CAVOK 11/03 Q1021 NOSIG",
      "taf": "TAF LKMT 281100Z 2812/0112 25013KT CAVOK"
    },
    {
      "icao": "LKPR",
      "alert": "OK",
      "vis_m": 7000,
      "fzfg": false,
      "metar_trigger": false,
      "taf_trigger": false,
      "metar": "METAR LKPR 281630Z 36003KT 320V030 7000 NSC 07/05 Q1020 NOSIG",
      "taf": "TAF LKPR 281400Z 2815/0121 33003KT CAVOK"
    },
    {
      "icao": "LLBG",
      "alert": "OK",
      "vis_m": 9999,
      "fzfg": false,
      "metar_trigger": false,
      "taf_trigger": false,
      "metar": "METAR LLBG 281650Z 01004KT CAVOK 14/04 Q1018 NOSIG",
      "taf": "TAF LLBG 281106Z 2812/0112 32008KT CAVOK TX16/2812Z TN06/0104Z"
    },
    {
      "icao": "LMML",
      "alert": "OK",
      "vis_m": 9999,
      "fzfg": false,
      "metar_trigger": false,
      "taf_trigger": false,
      "metar": "METAR LMML 281645Z 20004KT 170V230 9999 FEW016 15/12 Q1023 NOSIG",
      "taf": "TAF LMML 281100Z 2812/0112 VRB07KT 9999 FEW017"
    },
    {
      "icao": "LOWW",
      "alert": "OK",
      "vis_m": 9999,
      "fzfg": false,
      "metar_trigger": false,
      "taf_trigger": false,
      "metar": "METAR LOWW 281650Z 14006KT CAVOK 11/03 Q1022 NOSIG",
      "taf": "TAF LOWW 281415Z 2815/0121 13012KT CAVOK TX13/2815Z TN02/0105Z"
    },
    {
      "icao": "LPFR",
      "alert": "OK",
      "vis_m": 9999,
      "fzfg": false,
      "metar_trigger": false,
      "taf_trigger": false,
      "metar": "METAR LPFR 281630Z 18008KT CAVOK 18/08 Q1020",
      "taf": "TAF LPFR 281100Z 2812/0112 36008KT CAVOK"
    },
    {
      "icao": "LPMA",
      "alert": "OK",
      "vis_m": 9999,
      "fzfg": false,
      "metar_trigger": false,
      "taf_trigger": false,
      "metar": "METAR LPMA 281630Z 01015G29KT 320V050 9999 BKN015 16/09 Q1025",
      "taf": "TAF LPMA 281100Z 2812/0112 01015KT 9999 SCT015"
    },
    {
      "icao": "LPPR",
      "alert": "OK",
      "vis_m": 9999,
      "fzfg": false,
      "metar_trigger": false,
      "taf_trigger": false,
      "metar": "METAR LPPR 281630Z 34013KT CAVOK 13/07 Q1025",
      "taf": "TAF LPPR 281100Z 2812/0112 33013KT CAVOK"
    },
    {
      "icao": "LPPS",
      "alert": "OK",
      "vis_m": 9999,
      "fzfg": false,
      "metar_trigger": false,
      "taf_trigger": false,
      "metar": "METAR LPPS 281630Z 03014G25KT 350V070 9999 SCT015 16/08 Q1026",
      "taf": "TAF LPPS 281100Z 2812/0118 02015KT 9999 FEW015 BKN030"
    },
    {
      "icao": "LPPT",
      "alert": "OK",
      "vis_m": 9999,
      "fzfg": false,
      "metar_trigger": false,
      "taf_trigger": false,
      "metar": "METAR LPPT 281630Z 35012KT CAVOK 15/05 Q1023",
      "taf": "TAF LPPT 281100Z 2812/0118 34015KT CAVOK"
    },
    {
      "icao": "LQBK",
      "alert": "OK",
      "vis_m": 9999,
      "fzfg": false,
      "metar_trigger": false,
      "taf_trigger": false,
      "metar": "METAR LQBK 281630Z 02004KT CAVOK 15/05 Q1022 NOSIG",
      "taf": "TAF LQBK 281100Z 2812/0112 34005KT CAVOK TX18/2814Z TN00/0106Z"
    },
    {
      "icao": "LQSA",
      "alert": "OK",
      "vis_m": 9999,
      "fzfg": false,
      "metar_trigger": false,
      "taf_trigger": false,
      "metar": "METAR LQSA 281630Z 16002KT CAVOK 13/01 Q1021 NOSIG",
      "taf": "TAF LQSA 281100Z 2812/0112 VRB02KT CAVOK TX18/2814Z TNM01/0105Z"
    },
    {
      "icao": "LQTZ",
      "alert": "OK",
      "vis_m": 9999,
      "fzfg": false,
      "metar_trigger": false,
      "taf_trigger": false,
      "metar": "METAR LQTZ 281630Z 12008KT CAVOK 13/03 Q1023",
      "taf": "TAF LQTZ 281100Z 2812/0112 10007KT CAVOK TX17/2814Z TNM01/0105Z"
    },
    {
      "icao": "LRBC",
      "alert": "OK",
      "vis_m": 4000,
      "fzfg": false,
      "metar_trigger": false,
      "taf_trigger": false,
      "metar": "METAR LRBC 281630Z 16010KT 4000 BR OVC003 M00/M01 Q1029",
      "taf": "TAF LRBC 281400Z 2815/2824 16010KT 5000 BR BKN005"
    },
    {
      "icao": "LRBS",
      "alert": "OK",
      "vis_m": 4000,
      "fzfg": false,
      "metar_trigger": false,
      "taf_trigger": false,
      "metar": "METAR LRBS 281630Z 00000KT 4000 BR OVC008 00/M02 Q1031 NOSIG",
      "taf": ""
    },
    {
      "icao": "LRBV",
      "alert": "OK",
      "vis_m": 9999,
      "fzfg": false,
      "metar_trigger": false,
      "taf_trigger": false,
      "metar": "METAR LRBV 281630Z 23003KT CAVOK 05/M01 Q1026",
      "taf": "TAF LRBV 281400Z 2815/2824 VRB04KT CAVOK"
    },
    {
      "icao": "LRCL",
      "alert": "OK",
      "vis_m": 9999,
      "fzfg": false,
      "metar_trigger": false,
      "taf_trigger": false,
      "metar": "METAR LRCL 281630Z VRB02KT CAVOK 07/M03 Q1026",
      "taf": "TAF LRCL 281400Z 2815/2824 VRB04KT CAVOK"
    },
    {
      "icao": "LRCV",
      "alert": "OK",
      "vis_m": 1200,
      "fzfg": false,
      "metar_trigger": false,
      "taf_trigger": false,
      "metar": "METAR LRCV 281630Z 28003KT 240V320 1200 R26/1500D BR OVC002 M00/M00 Q1030",
      "taf": "TAF LRCV 281400Z 2815/2824 VRB04KT 3000 BR OVC005"
    },
    {
      "icao": "LRIA",
      "alert": "OK",
      "vis_m": 9999,
      "fzfg": false,
      "metar_trigger": false,
      "taf_trigger": false,
      "metar": "METAR LRIA 281630Z 11008KT CAVOK 00/M01 Q1029",
      "taf": "TAF LRIA 281400Z 2815/2824 09008KT CAVOK"
    },
    {
      "icao": "LROP",
      "alert": "OK",
      "vis_m": 3300,
      "fzfg": false,
      "metar_trigger": false,
      "taf_trigger": false,
      "metar": "METAR LROP 281630Z 29004KT 3300 BR BKN004 OVC005 M01/M01 Q1030 NOSIG",
      "taf": ""
    },
    {
      "icao": "LRSB",
      "alert": "OK",
      "vis_m": 9999,
      "fzfg": false,
      "metar_trigger": false,
      "taf_trigger": false,
      "metar": "METAR LRSB 281630Z 22002KT CAVOK 06/M01 Q1025 NOSIG",
      "taf": "TAF LRSB 281100Z 2812/0112 VRB04KT CAVOK"
    },
    {
      "icao": "LRSM",
      "alert": "OK",
      "vis_m": 9999,
      "fzfg": false,
      "metar_trigger": false,
      "taf_trigger": false,
      "metar": "METAR LRSM 281630Z AUTO 33002KT 9999 NCD 08/M00 Q1026",
      "taf": ""
    },
    {
      "icao": "LRSV",
      "alert": "OK",
      "vis_m": 3000,
      "fzfg": false,
      "metar_trigger": false,
      "taf_trigger": false,
      "metar": "METAR LRSV 281630Z 11007KT 3000 BR NSC M02/M02 Q1026",
      "taf": ""
    },
    {
      "icao": "LRTM",
      "alert": "OK",
      "vis_m": 9999,
      "fzfg": false,
      "metar_trigger": false,
      "taf_trigger": false,
      "metar": "METAR LRTM 281630Z 00000KT CAVOK 05/M02 Q1026",
      "taf": "TAF LRTM 281400Z 2815/2824 VRB04KT CAVOK"
    },
    {
      "icao": "LRTR",
      "alert": "OK",
      "vis_m": 9999,
      "fzfg": false,
      "metar_trigger": false,
      "taf_trigger": false,
      "metar": "METAR LRTR 281630Z 13004KT CAVOK 11/M02 Q1025",
      "taf": "TAF LRTR 281100Z 2812/0112 VRB04KT CAVOK"
    },
    {
      "icao": "LTAC",
      "alert": "OK",
      "vis_m": 9999,
      "fzfg": false,
      "metar_trigger": false,
      "taf_trigger": false,
      "metar": "METAR LTAC 281650Z 06004KT 360V070 9999 SCT040 01/M05 Q1021 NOSIG RMK RWY21C 04008KT RWY03L 06003KT 020V080 RWY21R 04006KT RWY03R 04005KT RWY21L 04008KT",
      "taf": "TAF LTAC 281040Z 2812/0112 01008KT 9999 SCT040"
    },
    {
      "icao": "LTFM",
      "alert": "OK",
      "vis_m": 9999,
      "fzfg": false,
      "metar_trigger": false,
      "taf_trigger": false,
      "metar": "METAR LTFM 281650Z 05009KT 9999 FEW016 BKN025 05/00 Q1029 NOSIG RMK RWY17L 04009KT RWY34L 04009KT RWY16R 04009KT RWY36 04008KT RWY18 05009KT",
      "taf": "TAF LTFM 281040Z 2812/0118 01015G25KT 9999 SCT016 BKN025"
    },
    {
      "icao": "LUKK",
      "alert": "OK",
      "vis_m": 9999,
      "fzfg": false,
      "metar_trigger": false,
      "taf_trigger": false,
      "metar": "METAR LUKK 281630Z 11002KT CAVOK 01/M03 Q1030 NOSIG",
      "taf": "TAF LUKK 281116Z 2812/0112 VRB05KT CAVOK"
    },
    {
      "icao": "LWOH",
      "alert": "OK",
      "vis_m": 9999,
      "fzfg": false,
      "metar_trigger": false,
      "taf_trigger": false,
      "metar": "METAR LWOH 281650Z VRB01KT CAVOK 08/03 Q1023",
      "taf": "TAF LWOH 281450Z 2815/0115 16006KT 9999 FEW040"
    },
    {
      "icao": "LWSK",
      "alert": "OK",
      "vis_m": 9999,
      "fzfg": false,
      "metar_trigger": false,
      "taf_trigger": false,
      "metar": "METAR LWSK 281650Z VRB02KT CAVOK 10/03 Q1025 NOSIG",
      "taf": "TAF LWSK 281450Z 2815/0115 VRB02KT CAVOK"
    },
    {
      "icao": "LYBE",
      "alert": "OK",
      "vis_m": 9999,
      "fzfg": false,
      "metar_trigger": false,
      "taf_trigger": false,
      "metar": "METAR LYBE 281630Z 08006KT CAVOK 11/01 Q1024 NOSIG",
      "taf": "TAF LYBE 281100Z 2812/0112 13010KT CAVOK TX15/0112Z TN01/0106Z"
    },
    {
      "icao": "LYNI",
      "alert": "OK",
      "vis_m": 9999,
      "fzfg": false,
      "metar_trigger": false,
      "taf_trigger": false,
      "metar": "METAR LYNI 281630Z 09008KT CAVOK 09/M01 Q1025 NOSIG",
      "taf": "TAF LYNI 281100Z 2812/0112 07007KT CAVOK TX16/0112Z TNM02/0105Z"
    },
    {
      "icao": "LYPG",
      "alert": "OK",
      "vis_m": 9999,
      "fzfg": false,
      "metar_trigger": false,
      "taf_trigger": false,
      "metar": "METAR LYPG 281630Z 13003KT CAVOK 14/07 Q1023 NOSIG",
      "taf": "TAF LYPG 281100Z 2812/0112 17005KT CAVOK TX18/2813Z TN02/0105Z"
    },
    {
      "icao": "LZIB",
      "alert": "OK",
      "vis_m": 9999,
      "fzfg": false,
      "metar_trigger": false,
      "taf_trigger": false,
      "metar": "METAR LZIB 281630Z 11008KT CAVOK 11/02 Q1022 NOSIG",
      "taf": "TAF LZIB 281115Z 2812/0112 14010KT CAVOK"
    },
    {
      "icao": "LZKZ",
      "alert": "OK",
      "vis_m": 9999,
      "fzfg": false,
      "metar_trigger": false,
      "taf_trigger": false,
      "metar": "METAR LZKZ 281630Z 19006KT CAVOK 08/02 Q1025 NOSIG",
      "taf": "TAF LZKZ 281115Z 2812/0112 19008KT CAVOK"
    },
    {
      "icao": "LZTT",
      "alert": "OK",
      "vis_m": 9999,
      "fzfg": false,
      "metar_trigger": false,
      "taf_trigger": false,
      "metar": "METAR LZTT 281630Z VRB02KT CAVOK 07/01 Q1023 NOSIG",
      "taf": "TAF LZTT 281115Z 2812/0112 28005KT CAVOK"
    },
    {
      "icao": "OEJN",
      "alert": "OK",
      "vis_m": 9999,
      "fzfg": false,
      "metar_trigger": false,
      "taf_trigger": false,
      "metar": "METAR OEJN 281600Z 34013KT CAVOK 24/11 Q1010 NOSIG",
      "taf": "TAF OEJN 281100Z 2812/0118 33014KT 9999 FEW040"
    },
    {
      "icao": "OEMA",
      "alert": "OK",
      "vis_m": 9999,
      "fzfg": false,
      "metar_trigger": false,
      "taf_trigger": false,
      "metar": "METAR OEMA 281600Z 22009KT CAVOK 25/M06 Q1011 NOSIG",
      "taf": "TAF OEMA 281100Z 2812/0118 26012KT 9999 FEW040"
    },
    {
      "icao": "OJAI",
      "alert": "OK",
      "vis_m": 5000,
      "fzfg": false,
      "metar_trigger": false,
      "taf_trigger": false,
      "metar": "METAR OJAI 281600Z 28010KT 5000 HZ SCT030 09/M01 Q1017 NOSIG",
      "taf": "TAF OJAI 281058Z 2812/0118 31012KT 5000 HZ SCT035"
    },
    {
      "icao": "OMAA",
      "alert": "OK",
      "vis_m": 9999,
      "fzfg": false,
      "metar_trigger": false,
      "taf_trigger": false,
      "metar": "METAR OMAA 281630Z 03005KT CAVOK 25/14 Q1010 NOSIG",
      "taf": "TAF OMAA 281700Z 2818/0200 08005KT 8000 NSC"
    },
    {
      "icao": "OMDB",
      "alert": "OK",
      "vis_m": 9999,
      "fzfg": false,
      "metar_trigger": false,
      "taf_trigger": false,
      "metar": "METAR OMDB 281630Z 33004KT CAVOK 24/17 Q1010 NOSIG",
      "taf": "TAF OMDB 281700Z 2818/0200 35010KT 8000 NSC"
    },
    {
      "icao": "UAAA",
      "alert": "OK",
      "vis_m": 9999,
      "fzfg": false,
      "metar_trigger": false,
      "taf_trigger": false,
      "metar": "METAR UAAA 281630Z 36001MPS 9999 OVC036 M09/M14 Q1025 NOSIG",
      "taf": "TAF UAAA 281103Z 2812/0112 04003MPS 3100 BR FU BKN011 OVC030 TXM05/0108Z TNM15/0102Z"
    },
    {
      "icao": "UBBB",
      "alert": "OK",
      "vis_m": 9999,
      "fzfg": false,
      "metar_trigger": false,
      "taf_trigger": false,
      "metar": "METAR UBBB 281630Z 33016KT 9999 SCT016 BKN023 04/01 Q1021 NOSIG",
      "taf": "TAF UBBB 281700Z 2818/0118 33018KT 9999 SCT015 BKN030 TX07/0110Z TN02/0101Z"
    },
    {
      "icao": "UDSG",
      "alert": "OK",
      "vis_m": 9999,
      "fzfg": false,
      "metar_trigger": false,
      "taf_trigger": false,
      "metar": "METAR UDSG 281630Z 12005KT 9999 BKN040 M02/M04 Q1016 NOSIG",
      "taf": ""
    },
    {
      "icao": "UDYZ",
      "alert": "OK",
      "vis_m": 9999,
      "fzfg": false,
      "metar_trigger": false,
      "taf_trigger": false,
      "metar": "METAR UDYZ 281630Z 06004KT 9999 FEW043CB 02/M00 Q1016 NOSIG",
      "taf": "TAF UDYZ 281100Z 2812/0112 02006KT 6000 BKN030"
    },
    {
      "icao": "UGKO",
      "alert": "OK",
      "vis_m": 9999,
      "fzfg": false,
      "metar_trigger": false,
      "taf_trigger": false,
      "metar": "METAR UGKO 281630Z 25012KT 9999 -RA BKN016 OVC025 05/03 Q1020 NOSIG",
      "taf": "TAF UGKO 281100Z 2812/0112 26007KT 9999 SCT020 OVC030 TX07/0112Z TN04/0102Z"
    }
  ]
}