{
  "ts_utc": "2025-12-21T05:23:06Z",
  "threshold_m": 150,
  "source": "stations_override.txt (ICAO list) + aviationweather.gov (METAR/TAF raw)",
  "station_count": 114,
  "stations": [
    {
      "icao": "BIKF",
      "alert": "OK",
      "vis_m": 9999,
      "fzfg": false,
      "metar_trigger": false,
      "taf_trigger": false,
      "metar": "METAR BIKF 210500Z 11013KT 9999 SCT015 09/07 Q1007",
      "taf": "TAF BIKF 210445Z 2106/2206 11018G28KT 9999 BKN025 TX09/2106Z TN06/2205Z"
    },
    {
      "icao": "BKPR",
      "alert": "OK",
      "vis_m": 200,
      "fzfg": true,
      "metar_trigger": false,
      "taf_trigger": false,
      "metar": "METAR BKPR 210500Z 13003KT 0200 R17/0750N R35/0250N FZFG BKN002 M01/M01 Q1019 NOSIG",
      "taf": "TAF BKPR 202330Z 2100/2124 VRB03KT 0150 FZFG BKN002"
    },
    {
      "icao": "EBBR",
      "alert": "OK",
      "vis_m": 6000,
      "fzfg": false,
      "metar_trigger": false,
      "taf_trigger": false,
      "metar": "METAR EBBR 210450Z 12006KT 6000 FEW013 07/06 Q1010 TEMPO 3000 BR BKN012",
      "taf": ""
    },
    {
      "icao": "EBCI",
      "alert": "OK",
      "vis_m": 9999,
      "fzfg": false,
      "metar_trigger": false,
      "taf_trigger": false,
      "metar": "METAR EBCI 210450Z 13003KT 9999 SCT008 BKN010 10/09 Q1010 TEMPO 3000 BR BKN004",
      "taf": ""
    },
    {
      "icao": "EDDB",
      "alert": "OK",
      "vis_m": 4800,
      "fzfg": false,
      "metar_trigger": false,
      "taf_trigger": false,
      "metar": "METAR EDDB 210450Z AUTO 10007KT 4800 BR OVC002 07/07 Q1018 TEMPO 0600 VV002",
      "taf": ""
    },
    {
      "icao": "EDDH",
      "alert": "OK",
      "vis_m": 9999,
      "fzfg": false,
      "metar_trigger": false,
      "taf_trigger": false,
      "metar": "METAR EDDH 210450Z AUTO 10008KT 9999 BKN006 OVC043 05/04 Q1017 TEMPO BKN004",
      "taf": "TAF EDDH 202300Z 2100/2206 09010KT 9000 OVC003"
    },
    {
      "icao": "EDDK",
      "alert": "OK",
      "vis_m": 9999,
      "fzfg": false,
      "metar_trigger": false,
      "taf_trigger": false,
      "metar": "METAR EDDK 210450Z AUTO 08005KT 060V120 9999 SHRA FEW049 FEW///TCU 08/07 Q1013 BECMG NSW",
      "taf": "TAF EDDK 202300Z 2100/2206 11007KT 9999 BKN025"
    },
    {
      "icao": "EDDN",
      "alert": "OK",
      "vis_m": 7000,
      "fzfg": false,
      "metar_trigger": false,
      "taf_trigger": false,
      "metar": "METAR EDDN 210450Z AUTO 13004KT 7000 1500 BR NSC 00/M00 Q1015",
      "taf": "TAF EDDN 202300Z 2100/2124 11005KT CAVOK"
    },
    {
      "icao": "EDFH",
      "alert": "OK",
      "vis_m": 3600,
      "fzfg": false,
      "metar_trigger": false,
      "taf_trigger": false,
      "metar": "METAR EDFH 210450Z 14011KT 3600 R21/1200U BR SCT000 05/05 Q1012",
      "taf": "TAF EDFH 202300Z 2100/2124 13012KT 0300 FG VV001"
    },
    {
      "icao": "EDJA",
      "alert": "OK",
      "vis_m": 600,
      "fzfg": true,
      "metar_trigger": false,
      "taf_trigger": false,
      "metar": "METAR EDJA 210450Z VRB02KT 0600 R24/0750D FZFG VV/// M03/M04 Q1012",
      "taf": "TAF EDJA 210200Z 2103/2112 VRB03KT 0800 FZFG VV001"
    },
    {
      "icao": "EDLW",
      "alert": "OK",
      "vis_m": 9999,
      "fzfg": false,
      "metar_trigger": false,
      "taf_trigger": false,
      "metar": "METAR EDLW 210450Z 10006KT 9999 SCT047 09/06 Q1012",
      "taf": "TAF EDLW 210425Z 2105/2124 08007KT CAVOK"
    },
    {
      "icao": "EDSB",
      "alert": "OK",
      "vis_m": 350,
      "fzfg": false,
      "metar_trigger": false,
      "taf_trigger": false,
      "metar": "METAR EDSB 210450Z VRB02KT 0350 R21/0650N FG VV/// 04/04 Q1013",
      "taf": "TAF EDSB 202300Z 2100/2124 03003KT 0300 FG VV002"
    },
    {
      "icao": "EETN",
      "alert": "OK",
      "vis_m": 9999,
      "fzfg": false,
      "metar_trigger": false,
      "taf_trigger": false,
      "metar": "METAR EETN 210520Z 32010KT 9999 OVC020 06/03 Q1007 TEMPO BKN014",
      "taf": "TAF EETN 202330Z 2100/2124 26014KT 9999 BKN015 BKN025"
    },
    {
      "icao": "EFHK",
      "alert": "OK",
      "vis_m": 9999,
      "fzfg": false,
      "metar_trigger": false,
      "taf_trigger": false,
      "metar": "METAR EFHK 210520Z 31014KT 9999 FEW013 BKN021 04/02 Q1006 TEMPO BKN013",
      "taf": "TAF EFHK 210226Z 2103/2203 26010KT 9999 SCT012 BKN020"
    },
    {
      "icao": "EFTU",
      "alert": "OK",
      "vis_m": 9999,
      "fzfg": false,
      "metar_trigger": false,
      "taf_trigger": false,
      "metar": "METAR EFTU 210520Z AUTO 34008G18KT 300V010 9999 BKN017 05/02 Q1009",
      "taf": "TAF EFTU 210226Z 2103/2203 31009KT 9999 OVC017"
    },
    {
      "icao": "EGGW",
      "alert": "OK",
      "vis_m": 250,
      "fzfg": false,
      "metar_trigger": false,
      "taf_trigger": false,
      "metar": "METAR EGGW 210450Z AUTO 12005KT 0250 R07/0750N FG OVC002 07/07 Q1007",
      "taf": "TAF EGGW 210456Z 2106/2206 12007KT 3000 BR BKN002"
    },
    {
      "icao": "EGKK",
      "alert": "OK",
      "vis_m": 6000,
      "fzfg": false,
      "metar_trigger": false,
      "taf_trigger": false,
      "metar": "METAR EGKK 210450Z 09004KT 6000 SCT006 08/08 Q1006",
      "taf": "TAF EGKK 210454Z 2106/2212 10005KT 9999 SCT010"
    },
    {
      "icao": "EHEH",
      "alert": "OK",
      "vis_m": 5000,
      "fzfg": false,
      "metar_trigger": false,
      "taf_trigger": false,
      "metar": "METAR EHEH 210455Z AUTO 11003KT 5000 BR FEW083 OVC120 08/07 Q1011 WHT",
      "taf": "TAF EHEH 202335Z 2100/2206 11005KT 6000 SCT022"
    },
    {
      "icao": "EKBI",
      "alert": "OK",
      "vis_m": 9000,
      "fzfg": false,
      "metar_trigger": false,
      "taf_trigger": false,
      "metar": "METAR EKBI 210450Z AUTO 11008KT 9000 OVC005/// 05/04 Q1019",
      "taf": "TAF EKBI 210227Z 2103/2203 10008KT 3000 BR BKN003"
    },
    {
      "icao": "EKCH",
      "alert": "OK",
      "vis_m": 9999,
      "fzfg": false,
      "metar_trigger": false,
      "taf_trigger": false,
      "metar": "METAR EKCH 210450Z 13006KT 9999 OVC009 05/04 Q1021 NOSIG",
      "taf": "TAF EKCH 210227Z 2103/2203 16004KT 8000 BKN006"
    },
    {
      "icao": "ENTO",
      "alert": "OK",
      "vis_m": 9999,
      "fzfg": false,
      "metar_trigger": false,
      "taf_trigger": false,
      "metar": "METAR ENTO 210450Z AUTO 01007KT 9999 NCD M01/M02 Q1020",
      "taf": "TAF ENTO 202300Z 2100/2124 35007KT CAVOK"
    },
    {
      "icao": "EPGD",
      "alert": "OK",
      "vis_m": 9999,
      "fzfg": false,
      "metar_trigger": false,
      "taf_trigger": false,
      "metar": "METAR EPGD 210500Z 26005KT 9999 OVC020 05/02 Q1020",
      "taf": "TAF EPGD 202330Z 2100/2124 25005KT 9999 BKN020"
    },
    {
      "icao": "EPKK",
      "alert": "OK",
      "vis_m": 2500,
      "fzfg": false,
      "metar_trigger": false,
      "taf_trigger": false,
      "metar": "METAR EPKK 210500Z VRB01KT 2500 BR OVC005 03/02 Q1019",
      "taf": "TAF EPKK 210230Z 2103/2203 VRB02KT 4000 BR BKN012"
    },
    {
      "icao": "EPKT",
      "alert": "OK",
      "vis_m": 450,
      "fzfg": false,
      "metar_trigger": false,
      "taf_trigger": false,
      "metar": "METAR EPKT 210500Z 08002KT 0450 R26/1300D -DZ FG SCT001 OVC003 04/04 Q1019",
      "taf": "TAF EPKT 202330Z 2100/2124 VRB02KT 1500 BR OVC012"
    },
    {
      "icao": "EPWA",
      "alert": "OK",
      "vis_m": 9999,
      "fzfg": false,
      "metar_trigger": false,
      "taf_trigger": false,
      "metar": "METAR EPWA 210500Z 36003KT 330V050 9999 BKN014 04/03 Q1020 NOSIG",
      "taf": ""
    },
    {
      "icao": "EPWR",
      "alert": "OK",
      "vis_m": 4000,
      "fzfg": false,
      "metar_trigger": false,
      "taf_trigger": false,
      "metar": "METAR EPWR 210500Z 12004KT 4000 BR SCT010 04/03 Q1019",
      "taf": ""
    },
    {
      "icao": "ESGG",
      "alert": "OK",
      "vis_m": 300,
      "fzfg": false,
      "metar_trigger": false,
      "taf_trigger": false,
      "metar": "METAR ESGG 210450Z VRB02KT 0300 R03/1200D R21/1000N FG OVC001 04/04 Q1020",
      "taf": ""
    },
    {
      "icao": "ESKN",
      "alert": "OK",
      "vis_m": 9999,
      "fzfg": false,
      "metar_trigger": false,
      "taf_trigger": false,
      "metar": "METAR ESKN 210450Z 28006KT CAVOK M00/M01 Q1017",
      "taf": "TAF ESKN 210230Z 2103/2203 28007KT CAVOK"
    },
    {
      "icao": "ESMX",
      "alert": "OK",
      "vis_m": 9999,
      "fzfg": false,
      "metar_trigger": false,
      "taf_trigger": false,
      "metar": "METAR ESMX 210450Z AUTO 34002KT 9999 NCD 01/01 Q1019",
      "taf": ""
    },
    {
      "icao": "EVRA",
      "alert": "OK",
      "vis_m": 9999,
      "fzfg": false,
      "metar_trigger": false,
      "taf_trigger": false,
      "metar": "METAR EVRA 210520Z 28005KT 210V340 9999 FEW033 06/04 Q1013 NOSIG",
      "taf": "TAF EVRA 210501Z 2106/2206 30010KT 9999 BKN015"
    },
    {
      "icao": "EYKA",
      "alert": "OK",
      "vis_m": 9999,
      "fzfg": false,
      "metar_trigger": false,
      "taf_trigger": false,
      "metar": "METAR EYKA 210520Z 24006KT 200V280 9999 OVC033 05/03 Q1017",
      "taf": "TAF EYKA 210512Z 2106/2206 26011KT 7000 SCT010 OVC015"
    },
    {
      "icao": "EYVI",
      "alert": "OK",
      "vis_m": 9999,
      "fzfg": false,
      "metar_trigger": false,
      "taf_trigger": false,
      "metar": "METAR EYVI 210520Z 24008KT 9999 OVC025 04/03 Q1016 NOSIG",
      "taf": "TAF EYVI 210500Z 2106/2206 25009KT 9000 SCT010 OVC015"
    },
    {
      "icao": "GCLP",
      "alert": "OK",
      "vis_m": 9999,
      "fzfg": false,
      "metar_trigger": false,
      "taf_trigger": false,
      "metar": "METAR GCLP 210500Z 34009KT 9999 FEW025 BKN040 17/11 Q1020 NOSIG",
      "taf": "TAF GCLP 210200Z 2103/2203 36013KT 9999 SCT035 TX21/2114Z TN15/2106Z"
    },
    {
      "icao": "GCTS",
      "alert": "OK",
      "vis_m": 9999,
      "fzfg": false,
      "metar_trigger": false,
      "taf_trigger": false,
      "metar": "METAR GCTS 210500Z 05007KT 9999 BKN040 17/09 Q1020 NOSIG",
      "taf": "TAF GCTS 210200Z 2103/2203 05009KT 9999 SCT035 TX22/2114Z TN15/2106Z"
    },
    {
      "icao": "HECA",
      "alert": "OK",
      "vis_m": 6000,
      "fzfg": false,
      "metar_trigger": false,
      "taf_trigger": false,
      "metar": "METAR HECA 210500Z 17007KT 6000 NSC 14/03 Q1013 NOSIG",
      "taf": "TAF HECA 210500Z 2106/2212 17009KT 9999 FEW025"
    },
    {
      "icao": "HEGN",
      "alert": "OK",
      "vis_m": 9999,
      "fzfg": false,
      "metar_trigger": false,
      "taf_trigger": false,
      "metar": "METAR HEGN 210500Z 16005KT CAVOK 15/08 Q1014 NOSIG",
      "taf": "TAF HEGN 210500Z 2106/2212 27006KT 9999 FEW025"
    },
    {
      "icao": "HESH",
      "alert": "OK",
      "vis_m": 9999,
      "fzfg": false,
      "metar_trigger": false,
      "taf_trigger": false,
      "metar": "METAR HESH 210500Z 29007KT CAVOK 16/08 Q1015 NOSIG",
      "taf": "TAF HESH 210500Z 2106/2212 33006KT CAVOK"
    },
    {
      "icao": "HESX",
      "alert": "OK",
      "vis_m": 6000,
      "fzfg": false,
      "metar_trigger": false,
      "taf_trigger": false,
      "metar": "METAR HESX 210500Z 18004KT 6000 NSC 13/08 Q1013 NOSIG",
      "taf": "TAF HESX 210500Z 2106/2212 18009KT CAVOK"
    },
    {
      "icao": "LATI",
      "alert": "OK",
      "vis_m": 9999,
      "fzfg": false,
      "metar_trigger": false,
      "taf_trigger": false,
      "metar": "METAR LATI 210520Z 15004KT CAVOK 03/01 Q1016 NOSIG",
      "taf": "TAF LATI 210500Z 2106/2206 VRB05KT CAVOK TX17/2112Z TN00/2205Z"
    },
    {
      "icao": "LBSF",
      "alert": "OK",
      "vis_m": 900,
      "fzfg": true,
      "metar_trigger": false,
      "taf_trigger": false,
      "metar": "METAR LBSF 210500Z 32003KT 0900 R27/1000U FZFG FEW006 SCT031 M01/M01 Q1018 NOSIG",
      "taf": "TAF LBSF 210500Z 2106/2206 VRB04KT 2000 BR OVC020"
    },
    {
      "icao": "LBWN",
      "alert": "OK",
      "vis_m": 9999,
      "fzfg": false,
      "metar_trigger": false,
      "taf_trigger": false,
      "metar": "METAR LBWN 210500Z AUTO 28004KT 9999 FEW010/// BKN012/// OVC025/// 06/06 Q1019 NOSIG",
      "taf": "TAF LBWN 210500Z 2106/2206 02010KT 7000 BKN015 OVC035"
    },
    {
      "icao": "LCLK",
      "alert": "OK",
      "vis_m": 9999,
      "fzfg": false,
      "metar_trigger": false,
      "taf_trigger": false,
      "metar": "METAR LCLK 210500Z 33005KT 9999 FEW030 SCT050 16/13 Q1015 NOSIG",
      "taf": "TAF LCLK 202330Z 2100/2200 04007KT 9999 SCT030"
    },
    {
      "icao": "LDDU",
      "alert": "OK",
      "vis_m": 9999,
      "fzfg": false,
      "metar_trigger": false,
      "taf_trigger": false,
      "metar": "METAR LDDU 210500Z 05004KT 010V080 CAVOK 10/04 Q1015 NOSIG",
      "taf": "TAF LDDU 202325Z 2100/2124 05004KT CAVOK TX15/2112Z TN09/2105Z"
    },
    {
      "icao": "LDSP",
      "alert": "OK",
      "vis_m": 9999,
      "fzfg": false,
      "metar_trigger": false,
      "taf_trigger": false,
      "metar": "METAR LDSP 210500Z VRB02KT CAVOK 07/02 Q1015 NOSIG",
      "taf": "TAF LDSP 202325Z 2100/2124 VRB02KT CAVOK TX16/2113Z TN07/2106Z"
    },
    {
      "icao": "LDZA",
      "alert": "OK",
      "vis_m": 2000,
      "fzfg": false,
      "metar_trigger": false,
      "taf_trigger": false,
      "metar": "METAR LDZA 210500Z 05004KT 2000 -DZ BR OVC002 03/02 Q1020 NOSIG",
      "taf": "TAF LDZA 202325Z 2100/2124 VRB02KT 2000 BR OVC003 TX05/2113Z TN03/2100Z"
    },
    {
      "icao": "LEAL",
      "alert": "OK",
      "vis_m": 9999,
      "fzfg": false,
      "metar_trigger": false,
      "taf_trigger": false,
      "metar": "METAR LEAL 210500Z 26006KT CAVOK 10/06 Q1010 NOSIG",
      "taf": "TAF LEAL 202300Z 2100/2124 31012KT 9999 FEW030 TX15/2112Z TN08/2106Z"
    },
    {
      "icao": "LEBL",
      "alert": "OK",
      "vis_m": 9999,
      "fzfg": false,
      "metar_trigger": false,
      "taf_trigger": false,
      "metar": "METAR LEBL 210500Z 33007KT 9999 FEW030 BKN050 11/10 Q1007 NOSIG",
      "taf": "TAF LEBL 202300Z 2100/2124 33008KT 9999 FEW030 BKN050 TX16/2112Z TN09/2106Z"
    },
    {
      "icao": "LECH",
      "alert": "OK",
      "vis_m": 6000,
      "fzfg": false,
      "metar_trigger": false,
      "taf_trigger": false,
      "metar": "METAR LECH 210500Z AUTO 16002KT 6000 NCD 05/05 Q1007",
      "taf": ""
    },
    {
      "icao": "LEMD",
      "alert": "OK",
      "vis_m": 9999,
      "fzfg": false,
      "metar_trigger": false,
      "taf_trigger": false,
      "metar": "METAR LEMD 210500Z 17012KT 9999 -RA BKN008 BKN015 06/06 Q1004 RERA NOSIG",
      "taf": ""
    },
    {
      "icao": "LEMG",
      "alert": "OK",
      "vis_m": 9999,
      "fzfg": false,
      "metar_trigger": false,
      "taf_trigger": false,
      "metar": "METAR LEMG 210500Z 31004KT 270V340 9999 -RA SCT025 BKN035 08/06 Q1011 NOSIG",
      "taf": "TAF LEMG 202300Z 2100/2124 30006KT 9999 FEW030 TX13/2114Z TN05/2106Z"
    },
    {
      "icao": "LERS",
      "alert": "OK",
      "vis_m": 9999,
      "fzfg": false,
      "metar_trigger": false,
      "taf_trigger": false,
      "metar": "METAR LERS 210500Z AUTO 05004KT 9999 FEW016 07/07 Q1007",
      "taf": "TAF LERS 210200Z 2103/2203 36005KT 9999 FEW020 TX15/2112Z TN06/2106Z"
    },
    {
      "icao": "LEVC",
      "alert": "OK",
      "vis_m": 9999,
      "fzfg": false,
      "metar_trigger": false,
      "taf_trigger": false,
      "metar": "METAR LEVC 210500Z 24009KT CAVOK 08/04 Q1009 NOSIG",
      "taf": "TAF LEVC 202300Z 2100/2124 26008KT 9999 FEW040 TX16/2112Z TN06/2107Z"
    },
    {
      "icao": "LFLL",
      "alert": "OK",
      "vis_m": 9999,
      "fzfg": false,
      "metar_trigger": false,
      "taf_trigger": false,
      "metar": "METAR LFLL 210430Z 16008KT CAVOK 08/06 Q1010 NOSIG",
      "taf": "TAF LFLL 210500Z 2106/2212 14006KT CAVOK"
    },
    {
      "icao": "LFMN",
      "alert": "OK",
      "vis_m": 9999,
      "fzfg": false,
      "metar_trigger": false,
      "taf_trigger": false,
      "metar": "METAR LFMN 210500Z 32010KT 9999 BKN058 BKN100 OVC150 12/10 Q1012 NOSIG",
      "taf": "TAF LFMN 210200Z 2103/2209 33010KT 9999 BKN050"
    },
    {
      "icao": "LFOB",
      "alert": "OK",
      "vis_m": 4200,
      "fzfg": false,
      "metar_trigger": false,
      "taf_trigger": false,
      "metar": "METAR LFOB 210500Z AUTO 10006KT 4200 BR OVC002 09/09 Q1008 TEMPO 0500 FG VV///",
      "taf": "TAF LFOB 202300Z 2100/2124 13005KT 6000 OVC006"
    },
    {
      "icao": "LFPO",
      "alert": "OK",
      "vis_m": 8000,
      "fzfg": false,
      "metar_trigger": false,
      "taf_trigger": false,
      "metar": "METAR LFPO 210500Z 05003KT 8000 NSC 09/09 Q1008 TEMPO 4000 BR",
      "taf": "TAF LFPO 210500Z 2106/2212 12005KT 8000 NSC"
    },
    {
      "icao": "LFSB",
      "alert": "OK",
      "vis_m": 9000,
      "fzfg": false,
      "metar_trigger": false,
      "taf_trigger": false,
      "metar": "METAR LFSB 210500Z AUTO 23002KT 9000 NSC 01/01 Q1012 TEMPO 0500 FG VV///",
      "taf": "TAF LFSB 210500Z 2106/2206 31004KT CAVOK"
    },
    {
      "icao": "LGAV",
      "alert": "OK",
      "vis_m": 9999,
      "fzfg": false,
      "metar_trigger": false,
      "taf_trigger": false,
      "metar": "METAR LGAV 210450Z 03006KT 9999 SCT025 13/08 Q1015 NOSIG",
      "taf": "TAF LGAV 210500Z 2106/2206 02012KT 9999 SCT025"
    },
    {
      "icao": "LGIR",
      "alert": "OK",
      "vis_m": 9999,
      "fzfg": false,
      "metar_trigger": false,
      "taf_trigger": false,
      "metar": "METAR LGIR 210450Z 17005KT 9999 FEW018 SCT025 BKN080 10/09 Q1013 NOSIG",
      "taf": "TAF LGIR 210500Z 2106/2206 18008KT 9999 SCT020 BKN080"
    },
    {
      "icao": "LGKR",
      "alert": "OK",
      "vis_m": 8000,
      "fzfg": false,
      "metar_trigger": false,
      "taf_trigger": false,
      "metar": "METAR LGKR 210450Z 00000KT 8000 FEW010 07/06 Q1014 NOSIG",
      "taf": "TAF LGKR 210500Z 2106/2206 VRB05KT 9999 SCT015"
    },
    {
      "icao": "LGRP",
      "alert": "OK",
      "vis_m": 9999,
      "fzfg": false,
      "metar_trigger": false,
      "taf_trigger": false,
      "metar": "METAR LGRP 210450Z 12005KT 090V210 9999 VCTS FEW018CB SCT020 16/14 Q1012 WS R06 NOSIG",
      "taf": "TAF LGRP 210500Z 2106/2206 14010KT 9999 FEW018 SCT020"
    },
    {
      "icao": "LGTS",
      "alert": "OK",
      "vis_m": 7000,
      "fzfg": false,
      "metar_trigger": false,
      "taf_trigger": false,
      "metar": "METAR LGTS 210450Z 28004KT 7000 SCT008 08/08 Q1018 NOSIG",
      "taf": "TAF LGTS 210500Z 2106/2206 VRB03KT 8000 FEW010"
    },
    {
      "icao": "LGZA",
      "alert": "OK",
      "vis_m": null,
      "fzfg": false,
      "metar_trigger": false,
      "taf_trigger": false,
      "metar": "",
      "taf": "TAF LGZA 210500Z 2106/2115 VRB05KT 9999 SCT020 BKN070"
    },
    {
      "icao": "LHBP",
      "alert": "OK",
      "vis_m": 7000,
      "fzfg": false,
      "metar_trigger": false,
      "taf_trigger": false,
      "metar": "METAR LHBP 210500Z 01002KT 7000 OVC006 05/03 Q1020 NOSIG",
      "taf": "TAF LHBP 202315Z 2100/2124 VRB03KT 8000 OVC010"
    },
    {
      "icao": "LHDC",
      "alert": "OK",
      "vis_m": 4600,
      "fzfg": false,
      "metar_trigger": false,
      "taf_trigger": false,
      "metar": "METAR LHDC 210445Z AUTO 00000KT 4600 BR OVC007 05/05 Q1020",
      "taf": ""
    },
    {
      "icao": "LIBD",
      "alert": "OK",
      "vis_m": 9999,
      "fzfg": false,
      "metar_trigger": false,
      "taf_trigger": false,
      "metar": "METAR LIBD 210450Z 23004KT 9999 FEW020 07/07 Q1015",
      "taf": "TAF LIBD 210500Z 2106/2206 VRB04KT 9999 SCT040"
    },
    {
      "icao": "LICC",
      "alert": "OK",
      "vis_m": 9999,
      "fzfg": false,
      "metar_trigger": false,
      "taf_trigger": false,
      "metar": "METAR LICC 210450Z 06007KT 9999 SCT080 15/14 Q1012",
      "taf": "TAF LICC 202300Z 2100/2124 05008KT 9999 SCT020"
    },
    {
      "icao": "LICJ",
      "alert": "OK",
      "vis_m": 9999,
      "fzfg": false,
      "metar_trigger": false,
      "taf_trigger": false,
      "metar": "METAR LICJ 210450Z 20003KT 160V220 CAVOK 14/11 Q1011",
      "taf": "TAF LICJ 202300Z 2100/2124 VRB06KT 9999 SCT040"
    },
    {
      "icao": "LIEO",
      "alert": "OK",
      "vis_m": 9999,
      "fzfg": false,
      "metar_trigger": false,
      "taf_trigger": false,
      "metar": "METAR LIEO 210450Z VRB02KT 9999 SCT025 10/10 Q1011",
      "taf": "TAF LIEO 202300Z 2100/2124 VRB05KT 9999 BKN020"
    },
    {
      "icao": "LIMC",
      "alert": "OK",
      "vis_m": 9999,
      "fzfg": false,
      "metar_trigger": false,
      "taf_trigger": false,
      "metar": "METAR LIMC 210450Z VRB02KT 9999 R35R/0800N R17L/P2000N R35L/P2000N BCFG BKN060 07/06 Q1016 NOSIG",
      "taf": "TAF LIMC 210500Z 2106/2212 VRB03KT 9999 BKN070"
    },
    {
      "icao": "LIME",
      "alert": "OK",
      "vis_m": 9000,
      "fzfg": false,
      "metar_trigger": false,
      "taf_trigger": false,
      "metar": "METAR LIME 210450Z 01004KT 9000 FEW003 04/04 Q1016 NOSIG",
      "taf": "TAF LIME 210500Z 2106/2206 VRB03KT 9000 SCT080"
    },
    {
      "icao": "LIPH",
      "alert": "OK",
      "vis_m": 7000,
      "fzfg": false,
      "metar_trigger": false,
      "taf_trigger": false,
      "metar": "METAR LIPH 210450Z AUTO 27002KT 7000 NCD 02/02 Q1016",
      "taf": "TAF LIPH 210500Z 2106/2206 VRB04KT 8000 FEW030"
    },
    {
      "icao": "LIPQ",
      "alert": "OK",
      "vis_m": 9999,
      "fzfg": false,
      "metar_trigger": false,
      "taf_trigger": false,
      "metar": "METAR LIPQ 210450Z AUTO 02003KT 9999 NCD 01/01 Q1016",
      "taf": "TAF LIPQ 210500Z 2106/2206 VRB04KT CAVOK"
    },
    {
      "icao": "LIPX",
      "alert": "OK",
      "vis_m": 200,
      "fzfg": false,
      "metar_trigger": false,
      "taf_trigger": false,
      "metar": "METAR LIPX 210450Z VRB02KT 0200 R04/0275N FG VV002 03/03 Q1016",
      "taf": "TAF LIPX 210500Z 2106/2206 VRB03KT 0200 FG OVC002"
    },
    {
      "icao": "LIPY",
      "alert": "OK",
      "vis_m": 5000,
      "fzfg": false,
      "metar_trigger": false,
      "taf_trigger": false,
      "metar": "METAR LIPY 210450Z AUTO 21003KT 5000 BR BKN011/// OVC042/// 11/10 Q1016",
      "taf": "TAF LIPY 210500Z 2106/2206 VRB05KT 8000 OVC020"
    },
    {
      "icao": "LIPZ",
      "alert": "OK",
      "vis_m": 9999,
      "fzfg": false,
      "metar_trigger": false,
      "taf_trigger": false,
      "metar": "METAR LIPZ 210450Z 02004KT CAVOK 05/03 Q1016 NOSIG",
      "taf": "TAF LIPZ 210500Z 2106/2212 VRB04KT 8000 FEW020"
    },
    {
      "icao": "LIRA",
      "alert": "OK",
      "vis_m": 9999,
      "fzfg": false,
      "metar_trigger": false,
      "taf_trigger": false,
      "metar": "METAR LIRA 210450Z 06004KT CAVOK 06/05 Q1013",
      "taf": "TAF LIRA 210500Z 2106/2206 VRB05KT CAVOK"
    },
    {
      "icao": "LIRN",
      "alert": "OK",
      "vis_m": 9999,
      "fzfg": false,
      "metar_trigger": false,
      "taf_trigger": false,
      "metar": "METAR LIRN 210450Z 35004KT CAVOK 08/06 Q1013 NOSIG",
      "taf": "TAF LIRN 210500Z 2106/2206 05006KT CAVOK"
    },
    {
      "icao": "LLBG",
      "alert": "OK",
      "vis_m": 9999,
      "fzfg": false,
      "metar_trigger": false,
      "taf_trigger": false,
      "metar": "METAR LLBG 210450Z VRB02KT CAVOK 11/08 Q1014 NOSIG",
      "taf": "TAF LLBG 210507Z 2106/2206 VRB04KT CAVOK"
    },
    {
      "icao": "LMML",
      "alert": "OK",
      "vis_m": 9999,
      "fzfg": false,
      "metar_trigger": false,
      "taf_trigger": false,
      "metar": "METAR LMML 210515Z 14004KT 110V170 9999 FEW015 15/12 Q1011 NOSIG",
      "taf": "TAF LMML 210500Z 2106/2206 13007KT 9999 SCT014"
    },
    {
      "icao": "LOWW",
      "alert": "OK",
      "vis_m": 2900,
      "fzfg": false,
      "metar_trigger": false,
      "taf_trigger": false,
      "metar": "METAR LOWW 210450Z 13006KT 100V160 2900 -DZ BR VV002 01/01 Q1019 TEMPO 3000 -DZ BR",
      "taf": "TAF LOWW 210515Z 2106/2212 14007KT 3000 BR SCT001 OVC002 TX04/2202Z TN01/2106Z"
    },
    {
      "icao": "LPFR",
      "alert": "OK",
      "vis_m": 9999,
      "fzfg": false,
      "metar_trigger": false,
      "taf_trigger": false,
      "metar": "METAR LPFR 210500Z 28023KT 9999 FEW012 FEW018CB SCT040 13/11 Q1010",
      "taf": "TAF LPFR 210500Z 2106/2206 26017KT 9999 FEW015 SCT030"
    },
    {
      "icao": "LPPR",
      "alert": "OK",
      "vis_m": 9999,
      "fzfg": false,
      "metar_trigger": false,
      "taf_trigger": false,
      "metar": "METAR LPPR 210500Z VRB01KT 9999 -SHRA FEW018 SCT037 06/05 Q1006",
      "taf": "TAF LPPR 210500Z 2106/2206 VRB02KT 9999 SCT018 SCT035"
    },
    {
      "icao": "LPPT",
      "alert": "OK",
      "vis_m": 9999,
      "fzfg": false,
      "metar_trigger": false,
      "taf_trigger": false,
      "metar": "METAR LPPT 210500Z 32005KT 280V010 9999 FEW015 09/07 Q1009",
      "taf": "TAF LPPT 210500Z 2106/2212 29007KT 9999 SCT025"
    },
    {
      "icao": "LQSA",
      "alert": "OK",
      "vis_m": 7000,
      "fzfg": false,
      "metar_trigger": false,
      "taf_trigger": false,
      "metar": "METAR LQSA 210500Z 12003KT 7000 BKN005 OVC018 01/01 Q1019 NOSIG",
      "taf": "TAF LQSA 210500Z 2106/2206 VRB02KT 7000 BKN006 BKN020 TX05/2113Z TNM01/2205Z"
    },
    {
      "icao": "LQTZ",
      "alert": "OK",
      "vis_m": 1300,
      "fzfg": false,
      "metar_trigger": false,
      "taf_trigger": false,
      "metar": "METAR LQTZ 210500Z 12004KT 1300 R09/0700N BR OVC003 03/03 Q1019",
      "taf": "TAF LQTZ 210500Z 2106/2206 10005KT 2000 BR OVC003 TX06/2113Z TN01/2205Z"
    },
    {
      "icao": "LRCL",
      "alert": "OK",
      "vis_m": 7000,
      "fzfg": false,
      "metar_trigger": false,
      "taf_trigger": false,
      "metar": "METAR LRCL 210500Z 08003KT 7000 SCT005 BKN054 02/02 Q1019",
      "taf": "TAF LRCL 210200Z 2103/2112 VRB04KT 3000 BR NSC"
    },
    {
      "icao": "LRCV",
      "alert": "OK",
      "vis_m": 300,
      "fzfg": false,
      "metar_trigger": false,
      "taf_trigger": false,
      "metar": "METAR LRCV 210500Z 00000KT 0300 R26/0550U FG VV001 03/03 Q1020",
      "taf": "TAF LRCV 210200Z 2103/2112 VRB04KT 0200 FG VV001"
    },
    {
      "icao": "LRIA",
      "alert": "OK",
      "vis_m": 300,
      "fzfg": false,
      "metar_trigger": false,
      "taf_trigger": false,
      "metar": "METAR LRIA 210500Z 11005KT 0300 R14/0700N -DZ FG VV001 01/01 Q1020",
      "taf": "TAF LRIA 210200Z 2103/2112 11006KT 0400 FG OVC002"
    },
    {
      "icao": "LROP",
      "alert": "OK",
      "vis_m": 1500,
      "fzfg": false,
      "metar_trigger": false,
      "taf_trigger": false,
      "metar": "METAR LROP 210500Z 24003KT 200V270 1500 BR OVC001 03/03 Q1020 NOSIG",
      "taf": ""
    },
    {
      "icao": "LRSB",
      "alert": "OK",
      "vis_m": 200,
      "fzfg": true,
      "metar_trigger": false,
      "taf_trigger": false,
      "metar": "METAR LRSB 210500Z 06003KT 040V100 0200 R27/0450N FZFG BKN003 M03/M03 Q1019",
      "taf": ""
    },
    {
      "icao": "LRTR",
      "alert": "OK",
      "vis_m": 1000,
      "fzfg": false,
      "metar_trigger": false,
      "taf_trigger": false,
      "metar": "METAR LRTR 210500Z 36007KT 1000 BR BKN002 OVC003 04/04 Q1020",
      "taf": "TAF LRTR 202300Z 2100/2124 VRB04KT 0200 FG VV001"
    },
    {
      "icao": "LTAF",
      "alert": "OK",
      "vis_m": 9999,
      "fzfg": false,
      "metar_trigger": false,
      "taf_trigger": false,
      "metar": "METAR LTAF 210450Z 02005KT 350V060 CAVOK 11/03 Q1018 NOSIG RMK RWY23 05006KT 4AC100",
      "taf": "TAF LTAF 210440Z 2106/2206 02008KT CAVOK"
    },
    {
      "icao": "LTAI",
      "alert": "OK",
      "vis_m": 9999,
      "fzfg": false,
      "metar_trigger": false,
      "taf_trigger": false,
      "metar": "METAR LTAI 210450Z 33006KT 270V050 9999 -TSRA SCT012CB BKN025 12/09 Q1016 RETSRA TEMPO 4000 TSRA RMK RWY18C VRB02KT RWY36R 34005KT 310V010 RWY18L VRB03KT",
      "taf": "TAF LTAI 210440Z 2106/2206 34009KT 9999 -SHRA FEW020CB BKN025"
    },
    {
      "icao": "LTFM",
      "alert": "OK",
      "vis_m": 9999,
      "fzfg": false,
      "metar_trigger": false,
      "taf_trigger": false,
      "metar": "METAR LTFM 210450Z 08004KT 9999 SCT032 BKN100 12/08 Q1017 NOSIG RMK RWY17L 13002KT RWY34L 00000KT RWY16R 00000KT RWY36 09003KT 020V190 RWY18 14002KT",
      "taf": ""
    },
    {
      "icao": "LUBL",
      "alert": "OK",
      "vis_m": null,
      "fzfg": false,
      "metar_trigger": false,
      "taf_trigger": false,
      "metar": "",
      "taf": ""
    },
    {
      "icao": "LUKK",
      "alert": "OK",
      "vis_m": 450,
      "fzfg": true,
      "metar_trigger": false,
      "taf_trigger": false,
      "metar": "METAR LUKK 210500Z VRB02KT 0450 R08/0500N FZFG VV001 M00/M00 Q1020 NOSIG",
      "taf": "TAF LUKK 202317Z 2100/2124 VRB04KT 0300 FZFG VV001"
    },
    {
      "icao": "LWSK",
      "alert": "OK",
      "vis_m": 400,
      "fzfg": true,
      "metar_trigger": false,
      "taf_trigger": false,
      "metar": "METAR LWSK 210520Z VRB01KT 0400 R34/0800N FZFG VV002 M01/M02 Q1020 NOSIG",
      "taf": "TAF LWSK 210230Z 2103/2203 VRB02KT 0200 FZFG VV002"
    },
    {
      "icao": "LYBE",
      "alert": "OK",
      "vis_m": 4000,
      "fzfg": false,
      "metar_trigger": false,
      "taf_trigger": false,
      "metar": "METAR LYBE 210500Z VRB01KT 4000 BR OVC009 04/04 Q1020 NOSIG",
      "taf": "TAF LYBE 210500Z 2106/2206 07004KT 5000 BR BKN010 TX05/2113Z TN02/2206Z"
    },
    {
      "icao": "LZIB",
      "alert": "OK",
      "vis_m": 8000,
      "fzfg": false,
      "metar_trigger": false,
      "taf_trigger": false,
      "metar": "METAR LZIB 210500Z 12004KT 8000 OVC004 03/03 Q1020 TEMPO OVC006",
      "taf": "TAF LZIB 210515Z 2106/2206 14005KT 7000 OVC004"
    },
    {
      "icao": "LZKZ",
      "alert": "OK",
      "vis_m": 9999,
      "fzfg": false,
      "metar_trigger": false,
      "taf_trigger": false,
      "metar": "METAR LZKZ 210500Z VRB01KT 9999 OVC007 04/03 Q1020 NOSIG",
      "taf": "TAF LZKZ 210515Z 2106/2206 VRB02KT 9999 OVC007"
    },
    {
      "icao": "LZTT",
      "alert": "OK",
      "vis_m": 9999,
      "fzfg": false,
      "metar_trigger": false,
      "taf_trigger": false,
      "metar": "METAR LZTT 210500Z 29003KT 250V320 9999 FEW033 SCT050 M03/M03 Q1018",
      "taf": "TAF LZTT 210515Z 2106/2206 VRB02KT 9999 FEW033"
    },
    {
      "icao": "OEJN",
      "alert": "OK",
      "vis_m": 9999,
      "fzfg": false,
      "metar_trigger": false,
      "taf_trigger": false,
      "metar": "METAR OEJN 210500Z 07002KT CAVOK 23/03 Q1013 NOSIG",
      "taf": "TAF OEJN 210500Z 2106/2212 06008KT CAVOK"
    },
    {
      "icao": "OEMA",
      "alert": "OK",
      "vis_m": 9999,
      "fzfg": false,
      "metar_trigger": false,
      "taf_trigger": false,
      "metar": "METAR OEMA 210500Z 04004KT CAVOK 11/M07 Q1021 NOSIG",
      "taf": "TAF OEMA 210500Z 2106/2212 09012KT CAVOK"
    },
    {
      "icao": "OERK",
      "alert": "OK",
      "vis_m": 9999,
      "fzfg": false,
      "metar_trigger": false,
      "taf_trigger": false,
      "metar": "METAR OERK 210500Z 00000KT CAVOK 08/02 Q1023 NOSIG",
      "taf": "TAF OERK 210500Z 2106/2212 30008KT CAVOK"
    },
    {
      "icao": "OJAI",
      "alert": "OK",
      "vis_m": 4000,
      "fzfg": false,
      "metar_trigger": false,
      "taf_trigger": false,
      "metar": "METAR OJAI 210500Z 12012KT 4000 BR NSC 07/05 Q1019 NOSIG",
      "taf": "TAF OJAI 210500Z 2106/2212 13014KT 4000 BR NSC"
    },
    {
      "icao": "OKBK",
      "alert": "OK",
      "vis_m": null,
      "fzfg": false,
      "metar_trigger": false,
      "taf_trigger": false,
      "metar": "",
      "taf": ""
    },
    {
      "icao": "OMAA",
      "alert": "OK",
      "vis_m": 9999,
      "fzfg": false,
      "metar_trigger": false,
      "taf_trigger": false,
      "metar": "METAR OMAA 210500Z 18005KT CAVOK 15/07 Q1020 NOSIG",
      "taf": "TAF OMAA 210500Z 2106/2212 18005KT 8000 FEW040"
    },
    {
      "icao": "UAAA",
      "alert": "OK",
      "vis_m": 5000,
      "fzfg": false,
      "metar_trigger": false,
      "taf_trigger": false,
      "metar": "METAR UAAA 210500Z VRB01MPS 5000 -SN BR BKN009 OVC021 M00/M02 Q1022 NOSIG",
      "taf": "TAF UAAA 210503Z 2106/2206 06003MPS 3100 BR SCT011 BKN020CB OVC050 TX00/2107Z TNM06/2201Z"
    },
    {
      "icao": "UCFM",
      "alert": "OK",
      "vis_m": 500,
      "fzfg": true,
      "metar_trigger": false,
      "taf_trigger": false,
      "metar": "METAR UCFM 210500Z 34001MPS 0500 0300E R07/0550N SN FZFG BKN002 OVC023 M01/M01 Q1022 NOSIG",
      "taf": "TAF UCFM 210458Z 2106/2206 32003MPS 0600 FZFG BKN003 OVC030CB"
    },
    {
      "icao": "UDYZ",
      "alert": "OK",
      "vis_m": 3400,
      "fzfg": false,
      "metar_trigger": false,
      "taf_trigger": false,
      "metar": "METAR UDYZ 210500Z 20001KT 3400 BR FEW006 M07/M09 Q1026 NOSIG",
      "taf": "TAF UDYZ 210500Z 2106/2206 VRB04KT 6000 FEW040"
    },
    {
      "icao": "UGTB",
      "alert": "OK",
      "vis_m": 6000,
      "fzfg": false,
      "metar_trigger": false,
      "taf_trigger": false,
      "metar": "METAR UGTB 210500Z VRB01KT 6000 BKN017 OVC025 01/M01 Q1027 NOSIG",
      "taf": "TAF UGTB 210500Z 2106/2206 VRB02KT 6000 OVC025 TX06/2112Z TNM02/2202Z"
    },
    {
      "icao": "UKKK",
      "alert": "OK",
      "vis_m": null,
      "fzfg": false,
      "metar_trigger": false,
      "taf_trigger": false,
      "metar": "",
      "taf": ""
    },
    {
      "icao": "UTTT",
      "alert": "OK",
      "vis_m": null,
      "fzfg": false,
      "metar_trigger": false,
      "taf_trigger": false,
      "metar": "",
      "taf": ""
    }
  ]
}