{
  "ts_utc": "2026-01-04T21:34:35Z",
  "threshold_m": 150,
  "source": "stations_override.txt (ICAO list) + aviationweather.gov (METAR/TAF raw)",
  "station_count": 159,
  "stations": [
    {
      "icao": "BIKF",
      "alert": "OK",
      "vis_m": 5000,
      "fzfg": false,
      "metar_trigger": false,
      "taf_trigger": false,
      "metar": "METAR BIKF 042130Z 10003KT 5000 -RASN BR OVC011 00/M00 Q1023",
      "taf": "TAF BIKF 041956Z 0421/0521 10008KT 9999 SCT012 BKN020 TX02/0423Z TNM01/0521Z"
    },
    {
      "icao": "BKPR",
      "alert": "OK",
      "vis_m": 9999,
      "fzfg": false,
      "metar_trigger": false,
      "taf_trigger": false,
      "metar": "METAR BKPR 042130Z 35013KT 9999 BKN071 00/M01 Q1011 NOSIG",
      "taf": ""
    },
    {
      "icao": "EBCI",
      "alert": "OK",
      "vis_m": 9999,
      "fzfg": false,
      "metar_trigger": false,
      "taf_trigger": false,
      "metar": "METAR EBCI 042120Z 21006KT CAVOK M03/M06 Q1012 NOSIG",
      "taf": ""
    },
    {
      "icao": "EDDB",
      "alert": "OK",
      "vis_m": 9999,
      "fzfg": false,
      "metar_trigger": false,
      "taf_trigger": false,
      "metar": "METAR EDDB 042120Z AUTO 22012KT 9999 FEW023 SCT033 OVC046 M00/M02 Q1009 NOSIG",
      "taf": "TAF EDDB 041700Z 0418/0518 24007KT 9999 BKN025"
    },
    {
      "icao": "EDDH",
      "alert": "OK",
      "vis_m": 9999,
      "fzfg": false,
      "metar_trigger": false,
      "taf_trigger": false,
      "metar": "METAR EDDH 042120Z AUTO 23006KT 210V270 9999 BKN012 OVC017 01/M01 Q1006 TEMPO 3500 -SN BKN009",
      "taf": "TAF EDDH 041700Z 0418/0524 20004KT 9999 SCT012 BKN015"
    },
    {
      "icao": "EDDK",
      "alert": "OK",
      "vis_m": 9999,
      "fzfg": false,
      "metar_trigger": false,
      "taf_trigger": false,
      "metar": "METAR EDDK 042120Z AUTO 19004KT 9999 BKN035 M01/M05 Q1011 NOSIG",
      "taf": "TAF EDDK 041700Z 0418/0524 22007KT 9999 SCT025"
    },
    {
      "icao": "EDDN",
      "alert": "OK",
      "vis_m": 9999,
      "fzfg": false,
      "metar_trigger": false,
      "taf_trigger": false,
      "metar": "METAR EDDN 042120Z AUTO VRB02KT 9999 OVC038 M03/M07 Q1012",
      "taf": "TAF EDDN 041700Z 0418/0518 VRB03KT 9999 BKN030"
    },
    {
      "icao": "EDDS",
      "alert": "OK",
      "vis_m": 9999,
      "fzfg": false,
      "metar_trigger": false,
      "taf_trigger": false,
      "metar": "METAR EDDS 042120Z AUTO 25004KT 9999 OVC035 M03/M08 Q1011",
      "taf": "TAF EDDS 041700Z 0418/0518 VRB03KT 9999 BKN035"
    },
    {
      "icao": "EDFH",
      "alert": "OK",
      "vis_m": 9999,
      "fzfg": false,
      "metar_trigger": false,
      "taf_trigger": false,
      "metar": "METAR EDFH 042120Z 26007KT 9999 SCT008 M06/M07 Q1010",
      "taf": "TAF EDFH 041700Z 0418/0518 24006KT 9999 SCT020"
    },
    {
      "icao": "EDJA",
      "alert": "OK",
      "vis_m": 9999,
      "fzfg": false,
      "metar_trigger": false,
      "taf_trigger": false,
      "metar": "METAR EDJA 042120Z 00000KT CAVOK M13/M14 Q1010",
      "taf": "TAF EDJA 041700Z 0418/0503 VRB02KT CAVOK"
    },
    {
      "icao": "EDLW",
      "alert": "OK",
      "vis_m": 9999,
      "fzfg": false,
      "metar_trigger": false,
      "taf_trigger": false,
      "metar": "METAR EDLW 042120Z 21013KT CAVOK M01/M04 Q1010",
      "taf": "TAF EDLW 041700Z 0418/0518 22015KT 9999 BKN020"
    },
    {
      "icao": "EDNY",
      "alert": "OK",
      "vis_m": 9999,
      "fzfg": false,
      "metar_trigger": false,
      "taf_trigger": false,
      "metar": "METAR EDNY 042120Z AUTO 09002KT 9999 // NCD M10/M11 Q1012",
      "taf": "TAF EDNY 041400Z 0415/0424 VRB02KT CAVOK"
    },
    {
      "icao": "EDSB",
      "alert": "OK",
      "vis_m": 9999,
      "fzfg": false,
      "metar_trigger": false,
      "taf_trigger": false,
      "metar": "METAR EDSB 042120Z 19003KT CAVOK M05/M06 Q1013",
      "taf": "TAF EDSB 041700Z 0418/0518 20004KT 9999 BKN040"
    },
    {
      "icao": "EETN",
      "alert": "OK",
      "vis_m": 8000,
      "fzfg": false,
      "metar_trigger": false,
      "taf_trigger": false,
      "metar": "METAR EETN 042120Z 04008KT 8000 -SN BKN009 OVC035 M06/M08 Q1003 TEMPO 3000 SN",
      "taf": "TAF EETN 041730Z 0418/0518 05012KT 9999 OVC008"
    },
    {
      "icao": "EFTU",
      "alert": "OK",
      "vis_m": 9999,
      "fzfg": false,
      "metar_trigger": false,
      "taf_trigger": false,
      "metar": "METAR EFTU 042120Z AUTO 05003KT 010V090 CAVOK M18/M20 Q1007",
      "taf": "TAF EFTU 042030Z 0421/0521 05005KT CAVOK"
    },
    {
      "icao": "EGBB",
      "alert": "OK",
      "vis_m": 9999,
      "fzfg": false,
      "metar_trigger": false,
      "taf_trigger": false,
      "metar": "METAR EGBB 042120Z 22006KT CAVOK M01/M02 Q1010",
      "taf": "TAF EGBB 041655Z 0418/0518 VRB04KT 9999 SCT025"
    },
    {
      "icao": "EGGP",
      "alert": "OK",
      "vis_m": 9000,
      "fzfg": false,
      "metar_trigger": false,
      "taf_trigger": false,
      "metar": "METAR EGGP 042120Z COR 25003KT 230V290 9000 VCSH SCT005 BKN013 M00/M01 Q1010",
      "taf": ""
    },
    {
      "icao": "EGGW",
      "alert": "OK",
      "vis_m": 9999,
      "fzfg": false,
      "metar_trigger": false,
      "taf_trigger": false,
      "metar": "METAR EGGW 042120Z AUTO 26009KT 9999 NCD M01/M03 Q1010",
      "taf": "TAF EGGW 041700Z 0418/0518 28008KT CAVOK"
    },
    {
      "icao": "EGKK",
      "alert": "OK",
      "vis_m": 9999,
      "fzfg": false,
      "metar_trigger": false,
      "taf_trigger": false,
      "metar": "METAR EGKK 042120Z 22004KT CAVOK M02/M04 Q1012",
      "taf": "TAF EGKK 041658Z 0418/0524 25005KT 9999 FEW045"
    },
    {
      "icao": "EGNM",
      "alert": "OK",
      "vis_m": 9999,
      "fzfg": false,
      "metar_trigger": false,
      "taf_trigger": false,
      "metar": "METAR EGNM 042120Z 29008KT 9999 FEW010 M01/M02 Q1008",
      "taf": ""
    },
    {
      "icao": "EGPD",
      "alert": "OK",
      "vis_m": 800,
      "fzfg": false,
      "metar_trigger": false,
      "taf_trigger": false,
      "metar": "METAR EGPD 042120Z AUTO 31014KT 0800 R34/0750D SN SCT008/// BKN016/// BKN028/// //////TCU M01/M03 Q1007",
      "taf": "TAF EGPD 041658Z 0418/0518 30012KT 9999 FEW012"
    },
    {
      "icao": "EGPF",
      "alert": "OK",
      "vis_m": 9999,
      "fzfg": false,
      "metar_trigger": false,
      "taf_trigger": false,
      "metar": "METAR EGPF 042120Z AUTO VRB02KT 9999 NCD M03/M07 Q1011",
      "taf": "TAF EGPF 041656Z 0418/0518 36007KT 9999 FEW040"
    },
    {
      "icao": "EHBK",
      "alert": "OK",
      "vis_m": 9999,
      "fzfg": false,
      "metar_trigger": false,
      "taf_trigger": false,
      "metar": "METAR EHBK 042125Z AUTO 21010KT 9999 NCD M03/M06 Q1011 NOSIG",
      "taf": "TAF EHBK 041711Z 0418/0524 23011KT 9999 BKN048"
    },
    {
      "icao": "EHEH",
      "alert": "OK",
      "vis_m": 9999,
      "fzfg": false,
      "metar_trigger": false,
      "taf_trigger": false,
      "metar": "METAR EHEH 042125Z AUTO 21008KT 9999 NCD M03/M06 Q1011 BLU NOSIG RMK TREND REMOTE BY EHWX",
      "taf": "TAF EHEH 041711Z 0418/0524 22010KT 9999 SCT020 BKN030"
    },
    {
      "icao": "EKBI",
      "alert": "OK",
      "vis_m": 9999,
      "fzfg": false,
      "metar_trigger": false,
      "taf_trigger": false,
      "metar": "METAR EKBI 042120Z AUTO 10002KT 9999 NCD M12/M13 Q1005",
      "taf": "TAF EKBI 042027Z 0421/0521 VRB03KT CAVOK"
    },
    {
      "icao": "EKCH",
      "alert": "OK",
      "vis_m": 9999,
      "fzfg": false,
      "metar_trigger": false,
      "taf_trigger": false,
      "metar": "METAR EKCH 042120Z 28007KT 9999 BKN045 M01/M05 Q1006 NOSIG",
      "taf": "TAF EKCH 042027Z 0421/0521 28008KT 9999 BKN045"
    },
    {
      "icao": "ENAL",
      "alert": "OK",
      "vis_m": 9999,
      "fzfg": false,
      "metar_trigger": false,
      "taf_trigger": false,
      "metar": "METAR ENAL 042120Z 14011KT 9999 BKN049 M03/M11 Q1006",
      "taf": "TAF ENAL 042000Z 0421/0506 13012KT 9999 BKN045"
    },
    {
      "icao": "ENBR",
      "alert": "OK",
      "vis_m": 9999,
      "fzfg": false,
      "metar_trigger": false,
      "taf_trigger": false,
      "metar": "METAR ENBR 042120Z 08006KT 9999 FEW050 M05/M13 Q1006 RMK WIND 1200FT 11009KT",
      "taf": "TAF ENBR 041700Z 0418/0518 07005KT CAVOK"
    },
    {
      "icao": "ENGM",
      "alert": "OK",
      "vis_m": 9999,
      "fzfg": false,
      "metar_trigger": false,
      "taf_trigger": false,
      "metar": "METAR ENGM 042120Z 03009KT 9999 -SHSN OVC035 M08/M12 Q1009 NOSIG",
      "taf": "TAF ENGM 041700Z 0418/0518 02009KT 9999 FEW020 BKN030"
    },
    {
      "icao": "ENHD",
      "alert": "OK",
      "vis_m": 9999,
      "fzfg": false,
      "metar_trigger": false,
      "taf_trigger": false,
      "metar": "METAR ENHD 042120Z 09007KT CAVOK M06/M11 Q1007",
      "taf": "TAF ENHD 041400Z 0415/0423 11009KT 9999 FEW040"
    },
    {
      "icao": "ENTC",
      "alert": "OK",
      "vis_m": 9999,
      "fzfg": false,
      "metar_trigger": false,
      "taf_trigger": false,
      "metar": "METAR ENTC 042120Z 36010KT 9999 SCT036 M03/M08 Q1005 TEMPO 2000 -SHSN VV012 RMK WIND 2600FT 35036KT",
      "taf": "TAF ENTC 041700Z 0418/0518 36008KT 8000 -SHSN VV018"
    },
    {
      "icao": "ENTO",
      "alert": "OK",
      "vis_m": 9999,
      "fzfg": false,
      "metar_trigger": false,
      "taf_trigger": false,
      "metar": "METAR ENTO 042120Z 03007KT 9999 -SN OVC019 M06/M09 Q1008 NOSIG",
      "taf": "TAF ENTO 041700Z 0418/0518 36012KT 9000 -SN FEW015 BKN025"
    },
    {
      "icao": "ENVA",
      "alert": "OK",
      "vis_m": 9999,
      "fzfg": false,
      "metar_trigger": false,
      "taf_trigger": false,
      "metar": "METAR ENVA 042120Z 11008KT CAVOK M13/M16 Q1012 RMK WIND 670FT 14006KT",
      "taf": "TAF ENVA 041700Z 0418/0518 11010KT CAVOK"
    },
    {
      "icao": "ENZV",
      "alert": "OK",
      "vis_m": 9999,
      "fzfg": false,
      "metar_trigger": false,
      "taf_trigger": false,
      "metar": "METAR ENZV 042120Z 06002KT CAVOK M10/M13 Q1006",
      "taf": "TAF ENZV 041700Z 0418/0518 12007KT 9999 FEW030"
    },
    {
      "icao": "EPGD",
      "alert": "OK",
      "vis_m": 9999,
      "fzfg": false,
      "metar_trigger": false,
      "taf_trigger": false,
      "metar": "METAR EPGD 042130Z 23012KT 9999 DRSN FEW020 M05/M07 Q1003",
      "taf": "TAF EPGD 041730Z 0418/0518 24015KT 9999 BKN015"
    },
    {
      "icao": "EPKK",
      "alert": "OK",
      "vis_m": 9999,
      "fzfg": false,
      "metar_trigger": false,
      "taf_trigger": false,
      "metar": "METAR EPKK 042130Z 25007KT CAVOK M05/M09 Q1013",
      "taf": "TAF EPKK 042030Z 0421/0521 22010KT CAVOK"
    },
    {
      "icao": "EPKT",
      "alert": "OK",
      "vis_m": 9999,
      "fzfg": false,
      "metar_trigger": false,
      "taf_trigger": false,
      "metar": "METAR EPKT 042130Z 21011KT 9999 FEW041 M02/M08 Q1012",
      "taf": "TAF EPKT 041730Z 0418/0518 23010KT CAVOK"
    },
    {
      "icao": "EPLB",
      "alert": "OK",
      "vis_m": 9999,
      "fzfg": false,
      "metar_trigger": false,
      "taf_trigger": false,
      "metar": "METAR EPLB 042130Z 23013KT 9999 BKN039 M01/M06 Q1012",
      "taf": "TAF EPLB 041730Z 0418/0518 22007KT CAVOK"
    },
    {
      "icao": "EPMO",
      "alert": "OK",
      "vis_m": 9999,
      "fzfg": false,
      "metar_trigger": false,
      "taf_trigger": false,
      "metar": "METAR EPMO 042130Z 21009KT 9999 -SN BKN013 M02/M03 Q1009 RESHSN",
      "taf": "TAF EPMO 041730Z 0418/0518 20007KT 9999 SCT030"
    },
    {
      "icao": "EPPO",
      "alert": "OK",
      "vis_m": 9999,
      "fzfg": false,
      "metar_trigger": false,
      "taf_trigger": false,
      "metar": "METAR EPPO 042130Z 21006KT 9999 FEW007 BKN035 M01/M02 Q1009",
      "taf": ""
    },
    {
      "icao": "EPRA",
      "alert": "OK",
      "vis_m": 9999,
      "fzfg": false,
      "metar_trigger": false,
      "taf_trigger": false,
      "metar": "METAR EPRA 042130Z 24015KT 9999 BKN036 M02/M07 Q1011",
      "taf": "TAF EPRA 042030Z 0421/0506 21010KT 9999 BKN035"
    },
    {
      "icao": "EPRZ",
      "alert": "OK",
      "vis_m": 9999,
      "fzfg": false,
      "metar_trigger": false,
      "taf_trigger": false,
      "metar": "METAR EPRZ 042130Z 18003KT CAVOK M04/M08 Q1013",
      "taf": "TAF EPRZ 041730Z 0418/0518 21007KT CAVOK"
    },
    {
      "icao": "EPSC",
      "alert": "OK",
      "vis_m": 9000,
      "fzfg": false,
      "metar_trigger": false,
      "taf_trigger": false,
      "metar": "METAR EPSC 042130Z VRB02KT 9000 NSC M08/M08 Q1008",
      "taf": "TAF EPSC 041730Z 0418/0518 22005KT 9999 SCT020"
    },
    {
      "icao": "EPSY",
      "alert": "OK",
      "vis_m": 9999,
      "fzfg": false,
      "metar_trigger": false,
      "taf_trigger": false,
      "metar": "METAR EPSY 042130Z 21009KT CAVOK M06/M07 Q1006",
      "taf": "TAF EPSY 042030Z 0421/0506 21010KT CAVOK"
    },
    {
      "icao": "EPWA",
      "alert": "OK",
      "vis_m": 6000,
      "fzfg": false,
      "metar_trigger": false,
      "taf_trigger": false,
      "metar": "METAR EPWA 042130Z 20004KT 6000 -SHSN BKN014CB M02/M03 Q1010 TEMPO 2500 SHSN",
      "taf": "TAF EPWA 042030Z 0421/0521 22010KT 9999 SCT030"
    },
    {
      "icao": "EPWR",
      "alert": "OK",
      "vis_m": 9999,
      "fzfg": false,
      "metar_trigger": false,
      "taf_trigger": false,
      "metar": "METAR EPWR 042130Z 23008KT 9999 FEW036 M01/M06 Q1011",
      "taf": "TAF EPWR 042030Z 0421/0521 22007KT 9999 SCT040"
    },
    {
      "icao": "ESGG",
      "alert": "OK",
      "vis_m": 6000,
      "fzfg": false,
      "metar_trigger": false,
      "taf_trigger": false,
      "metar": "METAR ESGG 042120Z 04007KT 6000 -SN BKN011 M06/M08 Q1005",
      "taf": "TAF ESGG 042030Z 0421/0521 04009KT 9999 -SN SCT011 BKN015"
    },
    {
      "icao": "ESKN",
      "alert": "OK",
      "vis_m": 9999,
      "fzfg": false,
      "metar_trigger": false,
      "taf_trigger": false,
      "metar": "METAR ESKN 042120Z 03006KT 340V080 9999 BKN014 M06/M08 Q1006",
      "taf": ""
    },
    {
      "icao": "ESMS",
      "alert": "OK",
      "vis_m": 9999,
      "fzfg": false,
      "metar_trigger": false,
      "taf_trigger": false,
      "metar": "METAR ESMS 042120Z 25005KT 9999 OVC039 M02/M05 Q1005",
      "taf": "TAF ESMS 042027Z 0421/0521 27006KT 9999 OVC040"
    },
    {
      "icao": "ESSA",
      "alert": "OK",
      "vis_m": 9999,
      "fzfg": false,
      "metar_trigger": false,
      "taf_trigger": false,
      "metar": "METAR ESSA 042120Z 02010KT CAVOK M09/M11 Q1006 NOSIG",
      "taf": "TAF ESSA 042030Z 0421/0521 03014KT 9999 BKN020"
    },
    {
      "icao": "EYKA",
      "alert": "OK",
      "vis_m": 9999,
      "fzfg": false,
      "metar_trigger": false,
      "taf_trigger": false,
      "metar": "METAR EYKA 042120Z 22008KT 170V260 9999 OVC020 M04/M07 Q1004",
      "taf": "TAF EYKA 041705Z 0418/0518 22010KT 7000 SCT010 BKN015"
    },
    {
      "icao": "EYPA",
      "alert": "OK",
      "vis_m": 9999,
      "fzfg": false,
      "metar_trigger": false,
      "taf_trigger": false,
      "metar": "METAR EYPA 042120Z 14012KT 9999 -SN BKN014 OVC021 M02/M03 Q0998 RESN",
      "taf": "TAF EYPA 041706Z 0418/0518 21012KT 6000 SCT005 BKN015"
    },
    {
      "icao": "EYVI",
      "alert": "OK",
      "vis_m": 9999,
      "fzfg": false,
      "metar_trigger": false,
      "taf_trigger": false,
      "metar": "METAR EYVI 042120Z 24013KT 9999 -SHSN BKN013CB M04/M07 Q1004 NOSIG",
      "taf": "TAF EYVI 041705Z 0418/0518 20011KT 6000 SCT010 BKN015"
    },
    {
      "icao": "GCFV",
      "alert": "OK",
      "vis_m": 9999,
      "fzfg": false,
      "metar_trigger": false,
      "taf_trigger": false,
      "metar": "METAR GCFV 042130Z VRB06KT 9999 FEW020 18/14 Q1011",
      "taf": "TAF GCFV 042000Z 0421/0521 28007KT 9999 SCT020 TX21/0514Z TN15/0506Z"
    },
    {
      "icao": "GCLP",
      "alert": "OK",
      "vis_m": 9999,
      "fzfg": false,
      "metar_trigger": false,
      "taf_trigger": false,
      "metar": "METAR GCLP 042130Z VRB02KT 9999 FEW020 19/13 Q1013 NOSIG",
      "taf": "TAF GCLP 042000Z 0421/0521 34007KT 9999 SCT035 TX21/0514Z TN15/0506Z"
    },
    {
      "icao": "GCTS",
      "alert": "OK",
      "vis_m": 9999,
      "fzfg": false,
      "metar_trigger": false,
      "taf_trigger": false,
      "metar": "METAR GCTS 042130Z 35004KT 9999 FEW025 18/14 Q1013 NOSIG",
      "taf": "TAF GCTS 042000Z 0421/0521 36006KT 9999 SCT020 TX22/0514Z TN16/0506Z"
    },
    {
      "icao": "GMAD",
      "alert": "OK",
      "vis_m": 8000,
      "fzfg": false,
      "metar_trigger": false,
      "taf_trigger": false,
      "metar": "METAR GMAD 042130Z 22006KT 8000 SCT023TCU 16/16 Q1009 TEMPO 6000 RA",
      "taf": "TAF GMAD 041700Z 0418/0524 22012KT 6000 FEW010 SCT016 BKN023TCU"
    },
    {
      "icao": "GMMN",
      "alert": "OK",
      "vis_m": 9999,
      "fzfg": false,
      "metar_trigger": false,
      "taf_trigger": false,
      "metar": "METAR GMMN 042130Z 22006KT 9999 BKN013 SCT040TCU 13/12 Q1007 TEMPO 6000 RA",
      "taf": "TAF GMMN 041700Z 0418/0524 22008KT 9999 SCT013 BKN030"
    },
    {
      "icao": "GMMX",
      "alert": "OK",
      "vis_m": 8000,
      "fzfg": false,
      "metar_trigger": false,
      "taf_trigger": false,
      "metar": "METAR GMMX 042130Z 25008KT 8000 SCT020 SCT040 13/12 Q1009 NOSIG",
      "taf": "TAF GMMX 041700Z 0418/0524 24012KT 8000 SCT023 SCT090"
    },
    {
      "icao": "HEGN",
      "alert": "OK",
      "vis_m": null,
      "fzfg": false,
      "metar_trigger": false,
      "taf_trigger": false,
      "metar": "",
      "taf": "TAF HEGN 041700Z 0418/0524 30010KT CAVOK"
    },
    {
      "icao": "HEMA",
      "alert": "OK",
      "vis_m": null,
      "fzfg": false,
      "metar_trigger": false,
      "taf_trigger": false,
      "metar": "",
      "taf": "TAF HEMA 041700Z 0418/0524 32012KT CAVOK"
    },
    {
      "icao": "HESH",
      "alert": "OK",
      "vis_m": null,
      "fzfg": false,
      "metar_trigger": false,
      "taf_trigger": false,
      "metar": "",
      "taf": "TAF HESH 041700Z 0418/0524 35010KT CAVOK"
    },
    {
      "icao": "HESX",
      "alert": "OK",
      "vis_m": null,
      "fzfg": false,
      "metar_trigger": false,
      "taf_trigger": false,
      "metar": "",
      "taf": ""
    },
    {
      "icao": "LATI",
      "alert": "OK",
      "vis_m": 9999,
      "fzfg": false,
      "metar_trigger": false,
      "taf_trigger": false,
      "metar": "METAR LATI 042120Z 16006KT 9999 FEW055 BKN098 13/06 Q1011 NOSIG",
      "taf": "TAF LATI 041700Z 0418/0518 14010KT 9999 BKN060 TX16/0512Z TN12/0505Z"
    },
    {
      "icao": "LBPD",
      "alert": "OK",
      "vis_m": 9999,
      "fzfg": false,
      "metar_trigger": false,
      "taf_trigger": false,
      "metar": "METAR LBPD 042130Z AUTO 35004KT 290V030 9999 FEW077/// OVC170/// 09/05 Q1011",
      "taf": "TAF LBPD 041700Z 0418/0518 24012KT 9999 SCT070"
    },
    {
      "icao": "LBSF",
      "alert": "OK",
      "vis_m": 9999,
      "fzfg": false,
      "metar_trigger": false,
      "taf_trigger": false,
      "metar": "METAR LBSF 042130Z AUTO 30006KT 230V030 9999 FEW068/// 05/02 Q1011 WS ALL RWY NOSIG",
      "taf": "TAF LBSF 041700Z 0418/0518 16012KT 9999 SCT040 BKN060"
    },
    {
      "icao": "LBWN",
      "alert": "OK",
      "vis_m": 9999,
      "fzfg": false,
      "metar_trigger": false,
      "taf_trigger": false,
      "metar": "METAR LBWN 042130Z AUTO VRB03KT 9999 FEW036/// 06/04 Q1015 NOSIG",
      "taf": "TAF LBWN 041700Z 0418/0518 24012KT 9999 SCT030"
    },
    {
      "icao": "LCLK",
      "alert": "OK",
      "vis_m": 9999,
      "fzfg": false,
      "metar_trigger": false,
      "taf_trigger": false,
      "metar": "METAR LCLK 042130Z 35007KT 9999 FEW050 10/08 Q1025 NOSIG",
      "taf": "TAF LCLK 041730Z 0418/0518 36009KT CAVOK"
    },
    {
      "icao": "LCPH",
      "alert": "OK",
      "vis_m": 9999,
      "fzfg": false,
      "metar_trigger": false,
      "taf_trigger": false,
      "metar": "METAR LCPH 042130Z 01006KT 360V080 9999 FEW040 11/05 Q1024 NOSIG",
      "taf": "TAF LCPH 041730Z 0418/0518 07008KT 9999 FEW045"
    },
    {
      "icao": "LEAL",
      "alert": "OK",
      "vis_m": 9999,
      "fzfg": false,
      "metar_trigger": false,
      "taf_trigger": false,
      "metar": "METAR LEAL 042100Z 06014KT 9999 FEW035 13/09 Q1004 NOSIG",
      "taf": "TAF LEAL 041700Z 0418/0518 05012KT 9999 SCT020 TX12/0514Z TN09/0506Z"
    },
    {
      "icao": "LEBB",
      "alert": "OK",
      "vis_m": 9999,
      "fzfg": false,
      "metar_trigger": false,
      "taf_trigger": false,
      "metar": "METAR LEBB 042100Z 12002KT 9999 SCT055 BKN065 M01/M02 Q1015 NOSIG",
      "taf": "TAF LEBB 041700Z 0418/0518 VRB03KT 9999 FEW040 TX08/0514Z TNM00/0420Z"
    },
    {
      "icao": "LEBL",
      "alert": "OK",
      "vis_m": 9999,
      "fzfg": false,
      "metar_trigger": false,
      "taf_trigger": false,
      "metar": "METAR LEBL 042100Z 33009KT 280V010 9999 BKN036 07/06 Q1007 NOSIG",
      "taf": "TAF LEBL 041700Z 0418/0518 34008KT 9999 BKN025 TX09/0418Z TN04/0506Z"
    },
    {
      "icao": "LECH",
      "alert": "OK",
      "vis_m": 9000,
      "fzfg": false,
      "metar_trigger": false,
      "taf_trigger": false,
      "metar": "METAR LECH 042130Z AUTO 03004KT 9000 SCT004 OVC011 06/05 Q1007",
      "taf": ""
    },
    {
      "icao": "LEMD",
      "alert": "OK",
      "vis_m": 6000,
      "fzfg": false,
      "metar_trigger": false,
      "taf_trigger": false,
      "metar": "METAR LEMD 042100Z 06001KT 6000 -RA FEW017 BKN023 BKN034 05/05 Q1005 NOSIG",
      "taf": "TAF LEMD 041700Z 0418/0524 VRB03KT 9999 SCT035 TX08/0418Z TNM02/0523Z"
    },
    {
      "icao": "LEMG",
      "alert": "OK",
      "vis_m": 8000,
      "fzfg": false,
      "metar_trigger": false,
      "taf_trigger": false,
      "metar": "METAR LEMG 042100Z 06012KT 020V100 8000 BKN014 OVC035 13/12 Q1001 NOSIG",
      "taf": ""
    },
    {
      "icao": "LEVC",
      "alert": "OK",
      "vis_m": 4500,
      "fzfg": false,
      "metar_trigger": false,
      "taf_trigger": false,
      "metar": "METAR LEVC 042100Z 01001KT 4500 DZ FEW015 BKN022 09/08 Q1007 NOSIG",
      "taf": "TAF LEVC 041700Z 0418/0518 03009KT 9999 SCT020 TX10/0514Z TN05/0506Z"
    },
    {
      "icao": "LEXJ",
      "alert": "OK",
      "vis_m": 9999,
      "fzfg": false,
      "metar_trigger": false,
      "taf_trigger": false,
      "metar": "METAR LEXJ 042100Z 24003KT 9999 FEW030 BKN056 03/M02 Q1016",
      "taf": "TAF LEXJ 042000Z 0421/0521 20009KT 9999 SCT040 TX09/0515Z TN01/0421Z"
    },
    {
      "icao": "LEZG",
      "alert": "OK",
      "vis_m": 9999,
      "fzfg": false,
      "metar_trigger": false,
      "taf_trigger": false,
      "metar": "METAR LEZG 042130Z 30018KT 9999 SCT035 BKN050 03/M04 Q1010 NOSIG",
      "taf": "TAF LEZG 041700Z 0418/0518 31020G30KT 9999 BKN050 TX05/0515Z TN00/0506Z"
    },
    {
      "icao": "LEZL",
      "alert": "OK",
      "vis_m": 8000,
      "fzfg": false,
      "metar_trigger": false,
      "taf_trigger": false,
      "metar": "METAR LEZL 042100Z 26002KT 8000 NSC 13/13 Q1002 NOSIG",
      "taf": "TAF LEZL 042000Z 0421/0521 VRB03KT CAVOK TX14/0515Z TN06/0507Z"
    },
    {
      "icao": "LFBD",
      "alert": "OK",
      "vis_m": 9999,
      "fzfg": false,
      "metar_trigger": false,
      "taf_trigger": false,
      "metar": "METAR LFBD 042130Z AUTO 01007KT 310V040 CAVOK M02/M04 Q1015 TEMPO 2000 BR",
      "taf": "TAF LFBD 041700Z 0418/0524 36005KT CAVOK TX05/0515Z TNM05/0508Z"
    },
    {
      "icao": "LFLL",
      "alert": "OK",
      "vis_m": 9999,
      "fzfg": false,
      "metar_trigger": false,
      "taf_trigger": false,
      "metar": "METAR LFLL 042130Z 32006KT CAVOK M03/M06 Q1013 NOSIG",
      "taf": "TAF LFLL 041700Z 0418/0524 34010KT CAVOK"
    },
    {
      "icao": "LFLS",
      "alert": "OK",
      "vis_m": 9999,
      "fzfg": false,
      "metar_trigger": false,
      "taf_trigger": false,
      "metar": "METAR LFLS 042130Z AUTO VRB03KT 9999 BKN016 M03/M05 Q1012",
      "taf": ""
    },
    {
      "icao": "LFMN",
      "alert": "OK",
      "vis_m": 9999,
      "fzfg": false,
      "metar_trigger": false,
      "taf_trigger": false,
      "metar": "METAR LFMN 042130Z 33010KT CAVOK 06/M01 Q1006 NOSIG",
      "taf": "TAF LFMN 042000Z 0421/0603 33010KT CAVOK"
    },
    {
      "icao": "LFOB",
      "alert": "OK",
      "vis_m": 9999,
      "fzfg": false,
      "metar_trigger": false,
      "taf_trigger": false,
      "metar": "METAR LFOB 042130Z AUTO 00000KT CAVOK M04/M05 Q1013 NOSIG",
      "taf": "TAF LFOB 041700Z 0418/0518 26005KT CAVOK"
    },
    {
      "icao": "LFPO",
      "alert": "OK",
      "vis_m": 9999,
      "fzfg": false,
      "metar_trigger": false,
      "taf_trigger": false,
      "metar": "METAR LFPO 042130Z 26004KT 9999 FEW040 M02/M05 Q1014 NOSIG",
      "taf": "TAF LFPO 041700Z 0418/0524 29003KT CAVOK"
    },
    {
      "icao": "LFSB",
      "alert": "OK",
      "vis_m": 9999,
      "fzfg": false,
      "metar_trigger": false,
      "taf_trigger": false,
      "metar": "METAR LFSB 042130Z AUTO VRB01KT 9999 BKN039 M04/M06 Q1013 NOSIG",
      "taf": "TAF LFSB 041700Z 0418/0518 VRB03KT 9999 SCT035"
    },
    {
      "icao": "LGAV",
      "alert": "OK",
      "vis_m": 9999,
      "fzfg": false,
      "metar_trigger": false,
      "taf_trigger": false,
      "metar": "METAR LGAV 042120Z 22014KT 9999 FEW025 SCT070 16/10 Q1019 NOSIG",
      "taf": "TAF LGAV 041700Z 0418/0518 21018KT 9999 FEW025 SCT070"
    },
    {
      "icao": "LGTS",
      "alert": "OK",
      "vis_m": 9999,
      "fzfg": false,
      "metar_trigger": false,
      "taf_trigger": false,
      "metar": "METAR LGTS 042120Z 12004KT 9999 FEW025 14/08 Q1014 NOSIG",
      "taf": "TAF LGTS 041700Z 0418/0518 16014KT 9999 SCT030"
    },
    {
      "icao": "LHBP",
      "alert": "OK",
      "vis_m": 9999,
      "fzfg": false,
      "metar_trigger": false,
      "taf_trigger": false,
      "metar": "METAR LHBP 042130Z VRB01KT CAVOK M08/M10 Q1016 NOSIG",
      "taf": "TAF LHBP 041715Z 0418/0518 VRB03KT CAVOK"
    },
    {
      "icao": "LHDC",
      "alert": "OK",
      "vis_m": 4700,
      "fzfg": false,
      "metar_trigger": false,
      "taf_trigger": false,
      "metar": "METAR LHDC 042115Z AUTO 14002KT 4700 BR NSC M05/M06 Q1016 NOSIG",
      "taf": "TAF LHDC 041715Z 0418/0503 VRB03KT 6000 NSC"
    },
    {
      "icao": "LIBD",
      "alert": "OK",
      "vis_m": 9999,
      "fzfg": false,
      "metar_trigger": false,
      "taf_trigger": false,
      "metar": "METAR LIBD 042120Z 33005KT 290V360 CAVOK 12/11 Q1007",
      "taf": "TAF LIBD 041700Z 0418/0518 17008KT 9999 SCT030"
    },
    {
      "icao": "LIBG",
      "alert": "OK",
      "vis_m": null,
      "fzfg": false,
      "metar_trigger": false,
      "taf_trigger": false,
      "metar": "",
      "taf": ""
    },
    {
      "icao": "LIBP",
      "alert": "OK",
      "vis_m": 2000,
      "fzfg": false,
      "metar_trigger": false,
      "taf_trigger": false,
      "metar": "METAR LIBP 042120Z AUTO 25003KT 2000 +DZ OVC003/// 07/07 Q1008",
      "taf": "TAF LIBP 041700Z 0418/0518 35007KT 4000 RA OVC010"
    },
    {
      "icao": "LIBR",
      "alert": "OK",
      "vis_m": 9999,
      "fzfg": false,
      "metar_trigger": false,
      "taf_trigger": false,
      "metar": "METAR LIBR 042120Z 19019G29KT 9999 FEW020 16/13 Q1008",
      "taf": "TAF LIBR 041700Z 0418/0518 17015KT 9999 SCT030"
    },
    {
      "icao": "LICA",
      "alert": "OK",
      "vis_m": 9999,
      "fzfg": false,
      "metar_trigger": false,
      "taf_trigger": false,
      "metar": "METAR LICA 042120Z AUTO 07008KT 9999 BKN100/// 14/08 Q1008",
      "taf": "TAF LICA 041700Z 0418/0518 08012KT 9999 FEW050"
    },
    {
      "icao": "LICC",
      "alert": "OK",
      "vis_m": 9000,
      "fzfg": false,
      "metar_trigger": false,
      "taf_trigger": false,
      "metar": "METAR LICC 042120Z 24004KT 9000 NSC 12/10 Q1009",
      "taf": "TAF LICC 041700Z 0418/0518 VRB05KT 9999 SCT030"
    },
    {
      "icao": "LICJ",
      "alert": "OK",
      "vis_m": 9999,
      "fzfg": false,
      "metar_trigger": false,
      "taf_trigger": false,
      "metar": "METAR LICJ 042120Z 19016KT CAVOK 18/07 Q1005",
      "taf": "TAF LICJ 041700Z 0418/0518 19018G28KT 9999 FEW030"
    },
    {
      "icao": "LIMC",
      "alert": "OK",
      "vis_m": 9999,
      "fzfg": false,
      "metar_trigger": false,
      "taf_trigger": false,
      "metar": "METAR LIMC 042120Z 02005KT CAVOK M03/M04 Q1010 NOSIG",
      "taf": "TAF LIMC 041700Z 0418/0524 VRB04KT CAVOK"
    },
    {
      "icao": "LIME",
      "alert": "OK",
      "vis_m": 9999,
      "fzfg": false,
      "metar_trigger": false,
      "taf_trigger": false,
      "metar": "METAR LIME 042120Z 01005KT CAVOK M01/M05 Q1010 NOSIG",
      "taf": "TAF LIME 041700Z 0418/0518 VRB04KT CAVOK"
    },
    {
      "icao": "LIMF",
      "alert": "OK",
      "vis_m": 9999,
      "fzfg": false,
      "metar_trigger": false,
      "taf_trigger": false,
      "metar": "METAR LIMF 042120Z 30007KT CAVOK 00/M08 Q1010",
      "taf": "TAF LIMF 041700Z 0418/0518 VRB04KT CAVOK"
    },
    {
      "icao": "LIMJ",
      "alert": "OK",
      "vis_m": 9999,
      "fzfg": false,
      "metar_trigger": false,
      "taf_trigger": false,
      "metar": "METAR LIMJ 042120Z 02014KT CAVOK 04/M02 Q1008",
      "taf": "TAF LIMJ 041700Z 0418/0518 03016KT CAVOK"
    },
    {
      "icao": "LIPE",
      "alert": "OK",
      "vis_m": 3500,
      "fzfg": false,
      "metar_trigger": false,
      "taf_trigger": false,
      "metar": "METAR LIPE 042120Z 27007KT 3500 BR OVC030 03/01 Q1010",
      "taf": "TAF LIPE 041700Z 0418/0518 29006KT 4000 -RA BR OVC008"
    },
    {
      "icao": "LIPH",
      "alert": "OK",
      "vis_m": 9999,
      "fzfg": false,
      "metar_trigger": false,
      "taf_trigger": false,
      "metar": "METAR LIPH 042120Z 03005KT CAVOK 02/M06 Q1011",
      "taf": "TAF LIPH 041700Z 0418/0518 04008KT CAVOK"
    },
    {
      "icao": "LIPQ",
      "alert": "OK",
      "vis_m": 9999,
      "fzfg": false,
      "metar_trigger": false,
      "taf_trigger": false,
      "metar": "METAR LIPQ 042120Z AUTO 08015KT 9999 NCD 04/M07 Q1011",
      "taf": "TAF LIPQ 041700Z 0418/0518 08008KT CAVOK"
    },
    {
      "icao": "LIPR",
      "alert": "OK",
      "vis_m": 6000,
      "fzfg": false,
      "metar_trigger": false,
      "taf_trigger": false,
      "metar": "METAR LIPR 042120Z 28006KT 6000 -RA SCT020 BKN040 04/03 Q1009",
      "taf": ""
    },
    {
      "icao": "LIPX",
      "alert": "OK",
      "vis_m": 9999,
      "fzfg": false,
      "metar_trigger": false,
      "taf_trigger": false,
      "metar": "METAR LIPX 042120Z 03002KT CAVOK M01/M05 Q1011",
      "taf": "TAF LIPX 041700Z 0418/0518 VRB04KT 8000 NSC"
    },
    {
      "icao": "LIPY",
      "alert": "OK",
      "vis_m": 9999,
      "fzfg": false,
      "metar_trigger": false,
      "taf_trigger": false,
      "metar": "METAR LIPY 042120Z AUTO 21003KT 9999 -RA OVC021/// 05/05 Q1009",
      "taf": "TAF LIPY 041700Z 0418/0518 30008KT 4000 RA OVC014"
    },
    {
      "icao": "LIPZ",
      "alert": "OK",
      "vis_m": 9999,
      "fzfg": false,
      "metar_trigger": false,
      "taf_trigger": false,
      "metar": "METAR LIPZ 042120Z 02009KT CAVOK 00/M05 Q1011 NOSIG",
      "taf": "TAF LIPZ 041700Z 0418/0524 05012KT CAVOK"
    },
    {
      "icao": "LIRF",
      "alert": "OK",
      "vis_m": 9000,
      "fzfg": false,
      "metar_trigger": false,
      "taf_trigger": false,
      "metar": "METAR LIRF 042120Z 05003KT 010V110 9000 -RA BKN055 13/11 Q1004 NOSIG",
      "taf": "TAF LIRF 041700Z 0418/0524 16010KT 8000 RA SCT020 SCT030"
    },
    {
      "icao": "LIRN",
      "alert": "OK",
      "vis_m": 9999,
      "fzfg": false,
      "metar_trigger": false,
      "taf_trigger": false,
      "metar": "METAR LIRN 042120Z 17005KT 100V220 9999 -RA FEW020 SCT070 15/12 Q1006 NOSIG",
      "taf": "TAF LIRN 041700Z 0418/0518 17010KT 8000 RA BKN020"
    },
    {
      "icao": "LIRP",
      "alert": "OK",
      "vis_m": 9999,
      "fzfg": false,
      "metar_trigger": false,
      "taf_trigger": false,
      "metar": "METAR LIRP 042115Z 15007KT 9999 -RA SCT040 BKN060 07/05 Q1006 NOSIG",
      "taf": "TAF LIRP 041700Z 0418/0518 08010KT 9999 SCT020 BKN050"
    },
    {
      "icao": "LIRZ",
      "alert": "OK",
      "vis_m": 9999,
      "fzfg": false,
      "metar_trigger": false,
      "taf_trigger": false,
      "metar": "METAR LIRZ 042120Z AUTO 35008KT 9999 -RA OVC021/// 06/04 Q1005",
      "taf": "TAF LIRZ 041700Z 0418/0518 01010KT 6000 RA BKN020"
    },
    {
      "icao": "LJLJ",
      "alert": "OK",
      "vis_m": 9999,
      "fzfg": false,
      "metar_trigger": false,
      "taf_trigger": false,
      "metar": "METAR LJLJ 042130Z 35002KT CAVOK M05/M06 Q1013 NOSIG",
      "taf": "TAF LJLJ 041700Z 0418/0518 VRB02KT 9999 FEW030"
    },
    {
      "icao": "LKMT",
      "alert": "OK",
      "vis_m": 9999,
      "fzfg": false,
      "metar_trigger": false,
      "taf_trigger": false,
      "metar": "METAR LKMT 042130Z 20004KT 9999 FEW049 M03/M08 Q1014 NOSIG",
      "taf": "TAF LKMT 041700Z 0418/0518 20005KT CAVOK"
    },
    {
      "icao": "LKPR",
      "alert": "OK",
      "vis_m": 9999,
      "fzfg": false,
      "metar_trigger": false,
      "taf_trigger": false,
      "metar": "METAR LKPR 042130Z 19008KT 9999 SCT043 M02/M07 Q1011 NOSIG",
      "taf": "TAF LKPR 042000Z 0421/0603 20007KT 9999 BKN040"
    },
    {
      "icao": "LLBG",
      "alert": "OK",
      "vis_m": 9999,
      "fzfg": false,
      "metar_trigger": false,
      "taf_trigger": false,
      "metar": "METAR LLBG 042120Z 11016KT CAVOK 19/04 Q1020 NOSIG RMK OBS 1000FT-WIND 120/33KT",
      "taf": "TAF LLBG 041724Z 0418/0518 VRB04KT CAVOK"
    },
    {
      "icao": "LMML",
      "alert": "OK",
      "vis_m": 9999,
      "fzfg": false,
      "metar_trigger": false,
      "taf_trigger": false,
      "metar": "METAR LMML 042115Z 15009KT 130V200 CAVOK 17/14 Q1008 NOSIG",
      "taf": "TAF LMML 041700Z 0418/0518 17012KT 9999 FEW015"
    },
    {
      "icao": "LOWW",
      "alert": "OK",
      "vis_m": 9999,
      "fzfg": false,
      "metar_trigger": false,
      "taf_trigger": false,
      "metar": "METAR LOWW 042120Z 14003KT 9999 NSC M05/M08 Q1015 NOSIG",
      "taf": "TAF LOWW 042015Z 0421/0603 10004KT CAVOK TXM03/0513Z TNM06/0504Z"
    },
    {
      "icao": "LPFR",
      "alert": "OK",
      "vis_m": 9999,
      "fzfg": false,
      "metar_trigger": false,
      "taf_trigger": false,
      "metar": "METAR LPFR 042100Z 30007KT 9999 FEW025 14/11 Q1004",
      "taf": "TAF LPFR 041700Z 0418/0518 34007KT 9999 SCT025"
    },
    {
      "icao": "LPMA",
      "alert": "OK",
      "vis_m": 9999,
      "fzfg": false,
      "metar_trigger": false,
      "taf_trigger": false,
      "metar": "METAR LPMA 042100Z 36010KT 320V030 9999 -SHRA BKN015 FEW018TCU 17/12 Q1012",
      "taf": "TAF LPMA 041700Z 0418/0518 35010KT 9999 SCT015"
    },
    {
      "icao": "LPPR",
      "alert": "OK",
      "vis_m": 9999,
      "fzfg": false,
      "metar_trigger": false,
      "taf_trigger": false,
      "metar": "METAR LPPR 042100Z 08005KT 070V140 9999 BKN047 10/05 Q1008",
      "taf": "TAF LPPR 041700Z 0418/0518 VRB02KT CAVOK"
    },
    {
      "icao": "LPPS",
      "alert": "OK",
      "vis_m": 9999,
      "fzfg": false,
      "metar_trigger": false,
      "taf_trigger": false,
      "metar": "METAR LPPS 042100Z 36016KT 9999 SCT014 16/13 Q1012",
      "taf": ""
    },
    {
      "icao": "LPPT",
      "alert": "OK",
      "vis_m": 9999,
      "fzfg": false,
      "metar_trigger": false,
      "taf_trigger": false,
      "metar": "METAR LPPT 042100Z 32008KT 9999 FEW010 12/10 Q1006",
      "taf": "TAF LPPT 041700Z 0418/0524 33012KT CAVOK"
    },
    {
      "icao": "LQBK",
      "alert": "OK",
      "vis_m": 2000,
      "fzfg": false,
      "metar_trigger": false,
      "taf_trigger": false,
      "metar": "METAR LQBK 042130Z 35005KT 2000 -SN BR SCT005 BKN010 OVC017 M01/M01 Q1014 NOSIG",
      "taf": "TAF LQBK 041700Z 0418/0518 02005KT 7000 -SN SCT012 OVC035 TX00/0513Z TNM01/0505Z"
    },
    {
      "icao": "LQSA",
      "alert": "OK",
      "vis_m": 1000,
      "fzfg": false,
      "metar_trigger": false,
      "taf_trigger": false,
      "metar": "METAR LQSA 042130Z 31002KT 1000 R11/1300D SN BKN005 OVC020 M02/M02 Q1011 NOSIG",
      "taf": ""
    },
    {
      "icao": "LQTZ",
      "alert": "OK",
      "vis_m": 3000,
      "fzfg": false,
      "metar_trigger": false,
      "taf_trigger": false,
      "metar": "METAR LQTZ 042130Z 10005KT 3000 -SN BR BKN003 OVC010 M01/M01 Q1014",
      "taf": "TAF LQTZ 041700Z 0418/0518 30006KT 7000 SCT008 OVC020 TX00/0513Z TNM02/0505Z"
    },
    {
      "icao": "LRBC",
      "alert": "OK",
      "vis_m": 9999,
      "fzfg": false,
      "metar_trigger": false,
      "taf_trigger": false,
      "metar": "METAR LRBC 042100Z 29003KT CAVOK 00/M04 Q1016",
      "taf": "TAF LRBC 042000Z 0421/0506 34008KT 9999 BKN050"
    },
    {
      "icao": "LRBS",
      "alert": "OK",
      "vis_m": 9999,
      "fzfg": false,
      "metar_trigger": false,
      "taf_trigger": false,
      "metar": "METAR LRBS 042100Z 25004KT 9999 SCT007 OVC047 03/02 Q1015 NOSIG",
      "taf": "TAF LRBS 041700Z 0418/0518 23008KT 5000 BR BKN002"
    },
    {
      "icao": "LRBV",
      "alert": "OK",
      "vis_m": 9999,
      "fzfg": false,
      "metar_trigger": false,
      "taf_trigger": false,
      "metar": "METAR LRBV 042100Z 05004KT 9999 FEW029 BKN072 M02/M03 Q1015",
      "taf": "TAF LRBV 042000Z 0421/0506 VRB04KT 5000 -SN BR SCT015 BKN040"
    },
    {
      "icao": "LRCL",
      "alert": "OK",
      "vis_m": 8000,
      "fzfg": false,
      "metar_trigger": false,
      "taf_trigger": false,
      "metar": "METAR LRCL 042100Z 17004KT 8000 NSC M05/M06 Q1016",
      "taf": "TAF LRCL 042000Z 0421/0506 VRB04KT CAVOK"
    },
    {
      "icao": "LRCV",
      "alert": "OK",
      "vis_m": 900,
      "fzfg": false,
      "metar_trigger": false,
      "taf_trigger": false,
      "metar": "METAR LRCV 042100Z 25003KT 220V280 0900 R26/P2000 -RA FG BKN001 BKN022 01/01 Q1014",
      "taf": "TAF LRCV 042000Z 0421/0506 VRB04KT 0600 FG VV001"
    },
    {
      "icao": "LRIA",
      "alert": "OK",
      "vis_m": 9999,
      "fzfg": false,
      "metar_trigger": false,
      "taf_trigger": false,
      "metar": "METAR LRIA 042100Z VRB02KT CAVOK M01/M05 Q1016",
      "taf": "TAF LRIA 042000Z 0421/0506 VRB04KT CAVOK"
    },
    {
      "icao": "LROP",
      "alert": "OK",
      "vis_m": 6000,
      "fzfg": false,
      "metar_trigger": false,
      "taf_trigger": false,
      "metar": "METAR LROP 042100Z VRB02KT 6000 SCT008 BKN048 03/03 Q1015 NOSIG",
      "taf": "TAF LROP 041700Z 0418/0518 23008KT 5000 BR BKN002"
    },
    {
      "icao": "LRSB",
      "alert": "OK",
      "vis_m": 9999,
      "fzfg": false,
      "metar_trigger": false,
      "taf_trigger": false,
      "metar": "METAR LRSB 042100Z 10004KT 9999 FEW016 OVC075 M02/M02 Q1014",
      "taf": "TAF LRSB 041700Z 0418/0518 VRB03KT 3000 -SN BR SCT010 BKN040"
    },
    {
      "icao": "LRSM",
      "alert": "OK",
      "vis_m": 9999,
      "fzfg": false,
      "metar_trigger": false,
      "taf_trigger": false,
      "metar": "METAR LRSM 042100Z AUTO 09004KT 9999 BKN210/// M06/M07 Q1017",
      "taf": "TAF LRSM 041400Z 0415/0424 VRB04KT 9999 SCT030"
    },
    {
      "icao": "LRSV",
      "alert": "OK",
      "vis_m": 9999,
      "fzfg": false,
      "metar_trigger": false,
      "taf_trigger": false,
      "metar": "METAR LRSV 042100Z VRB02KT CAVOK M04/M08 Q1014",
      "taf": "TAF LRSV 042000Z 0421/0506 30005KT CAVOK"
    },
    {
      "icao": "LRTM",
      "alert": "OK",
      "vis_m": 7000,
      "fzfg": false,
      "metar_trigger": false,
      "taf_trigger": false,
      "metar": "METAR LRTM 042100Z AUTO 09004KT 7000 SCT012/// BKN065/// OVC085/// M04/M04 Q1016",
      "taf": "TAF LRTM 041400Z 0415/0424 VRB04KT 5000 -SN BR BKN015 OVC030"
    },
    {
      "icao": "LRTR",
      "alert": "OK",
      "vis_m": 3000,
      "fzfg": false,
      "metar_trigger": false,
      "taf_trigger": false,
      "metar": "METAR LRTR 042100Z 33002KT 3000 BR FEW002 M02/M02 Q1016",
      "taf": "TAF LRTR 041700Z 0418/0518 VRB04KT 3000 BR NSC"
    },
    {
      "icao": "LTAC",
      "alert": "OK",
      "vis_m": 4800,
      "fzfg": false,
      "metar_trigger": false,
      "taf_trigger": false,
      "metar": "METAR LTAC 042120Z VRB02KT 4800 BR SCT040 SCT100 01/M01 Q1023 NOSIG RMK RWY21C 16004KT RWY03L 00000KT RWY21R 15004KT 080V170 RWY03R 00000KT RWY21L 16002KT",
      "taf": "TAF LTAC 041640Z 0418/0518 VRB02KT 6000 SCT040 SCT100"
    },
    {
      "icao": "LTFM",
      "alert": "OK",
      "vis_m": 9999,
      "fzfg": false,
      "metar_trigger": false,
      "taf_trigger": false,
      "metar": "METAR LTFM 042120Z 21025G35KT CAVOK 15/08 Q1016 NOSIG RMK RWY17L 21023G33KT RWY34L 20020KT RWY16R 20020G31KT RWY36 21022KT RWY18 22020G31KT",
      "taf": ""
    },
    {
      "icao": "LUKK",
      "alert": "OK",
      "vis_m": 9999,
      "fzfg": false,
      "metar_trigger": false,
      "taf_trigger": false,
      "metar": "METAR LUKK 042130Z 35006KT 320V050 CAVOK 00/M03 Q1015 NOSIG",
      "taf": "TAF LUKK 041729Z 0418/0518 31006KT 9999 SCT012 BKN025"
    },
    {
      "icao": "LWOH",
      "alert": "OK",
      "vis_m": null,
      "fzfg": false,
      "metar_trigger": false,
      "taf_trigger": false,
      "metar": "",
      "taf": "TAF LWOH 042040Z 0421/0521 15014KT 9999 BKN045"
    },
    {
      "icao": "LWSK",
      "alert": "OK",
      "vis_m": 9999,
      "fzfg": false,
      "metar_trigger": false,
      "taf_trigger": false,
      "metar": "METAR LWSK 042126Z COR 15011KT 9999 FEW050 SCT080 15/05 Q1010 NOSIG",
      "taf": "TAF LWSK 042040Z 0421/0521 12012KT 9999 FEW050 SCT070"
    },
    {
      "icao": "LYBE",
      "alert": "OK",
      "vis_m": 2500,
      "fzfg": false,
      "metar_trigger": false,
      "taf_trigger": false,
      "metar": "METAR LYBE 042130Z 00000KT 2500 SN BKN002 OVC030 M01/M01 Q1015 NOSIG",
      "taf": "TAF LYBE 041700Z 0418/0518 05005KT 2000 SN BKN003 OVC025 TX01/0512Z TNM02/0505Z"
    },
    {
      "icao": "LYNI",
      "alert": "OK",
      "vis_m": 9999,
      "fzfg": false,
      "metar_trigger": false,
      "taf_trigger": false,
      "metar": "METAR LYNI 042130Z 33006KT 9999 SCT008 BKN027 00/M01 Q1014 NOSIG",
      "taf": "TAF LYNI 041700Z 0418/0518 33008KT 9999 SCT010 BKN030 OVC070 TX06/0513Z TNM00/0500Z"
    },
    {
      "icao": "LYPG",
      "alert": "OK",
      "vis_m": 9999,
      "fzfg": false,
      "metar_trigger": false,
      "taf_trigger": false,
      "metar": "METAR LYPG 042130Z 15010G24KT 9999 -SHRA FEW027TCU SCT040 BKN080 15/11 Q1008 TEMPO 5000 SHRA",
      "taf": "TAF LYPG 041700Z 0418/0518 15009KT 9999 FEW015 SCT030 OVC070 TX14/0513Z TN09/0505Z"
    },
    {
      "icao": "LZIB",
      "alert": "OK",
      "vis_m": 9999,
      "fzfg": false,
      "metar_trigger": false,
      "taf_trigger": false,
      "metar": "METAR LZIB 042130Z 00000KT CAVOK M05/M10 Q1015 NOSIG",
      "taf": ""
    },
    {
      "icao": "LZKZ",
      "alert": "OK",
      "vis_m": 9999,
      "fzfg": false,
      "metar_trigger": false,
      "taf_trigger": false,
      "metar": "METAR LZKZ 042130Z VRB02KT CAVOK M07/M09 Q1015 NOSIG",
      "taf": ""
    },
    {
      "icao": "LZTT",
      "alert": "OK",
      "vis_m": 9999,
      "fzfg": false,
      "metar_trigger": false,
      "taf_trigger": false,
      "metar": "METAR LZTT 042130Z 36008KT CAVOK M10/M13 Q1012",
      "taf": ""
    },
    {
      "icao": "OEJN",
      "alert": "OK",
      "vis_m": 9999,
      "fzfg": false,
      "metar_trigger": false,
      "taf_trigger": false,
      "metar": "METAR OEJN 042100Z 00000KT CAVOK 25/10 Q1014 NOSIG",
      "taf": "TAF OEJN 041700Z 0418/0524 VRB03KT 7000 NSC"
    },
    {
      "icao": "OEMA",
      "alert": "OK",
      "vis_m": 9999,
      "fzfg": false,
      "metar_trigger": false,
      "taf_trigger": false,
      "metar": "METAR OEMA 042100Z 06014KT CAVOK 18/00 Q1023 NOSIG",
      "taf": "TAF OEMA 041700Z 0418/0524 08015KT 7000 NSC"
    },
    {
      "icao": "OJAI",
      "alert": "OK",
      "vis_m": 4000,
      "fzfg": false,
      "metar_trigger": false,
      "taf_trigger": false,
      "metar": "METAR OJAI 042100Z 10010KT 4000 HZ FEW025 08/02 Q1026 NOSIG",
      "taf": "TAF OJAI 041700Z 0418/0524 14012KT 5000 HZ NSC"
    },
    {
      "icao": "OMAA",
      "alert": "OK",
      "vis_m": 9999,
      "fzfg": false,
      "metar_trigger": false,
      "taf_trigger": false,
      "metar": "METAR OMAA 042100Z 31007KT 9999 FEW045 20/14 Q1020 NOSIG",
      "taf": "TAF OMAA 041700Z 0418/0600 31010KT 8000 NSC"
    },
    {
      "icao": "OMDB",
      "alert": "OK",
      "vis_m": 9999,
      "fzfg": false,
      "metar_trigger": false,
      "taf_trigger": false,
      "metar": "METAR OMDB 042130Z 28006KT CAVOK 22/12 Q1019 NOSIG",
      "taf": "TAF OMDB 041700Z 0418/0600 28010KT 8000 NSC"
    },
    {
      "icao": "UAAA",
      "alert": "OK",
      "vis_m": 5000,
      "fzfg": true,
      "metar_trigger": false,
      "taf_trigger": false,
      "metar": "SPECI UAAA 042105Z 33002MPS 5000 BR SCT007 BKN100 M02/M03 Q1032 TEMPO 0500 FZFG VV002",
      "taf": "TAF UAAA 041703Z 0418/0518 06003MPS 1200 BR FU BKN020 OVC100 TX03/0509Z TNM03/0502Z"
    },
    {
      "icao": "UBBB",
      "alert": "OK",
      "vis_m": 9999,
      "fzfg": false,
      "metar_trigger": false,
      "taf_trigger": false,
      "metar": "METAR UBBB 042130Z 15008KT CAVOK 02/01 Q1024 NOSIG",
      "taf": "TAF UBBB 041706Z 0418/0518 VRB04KT CAVOK TX12/0510Z TN01/0500Z"
    },
    {
      "icao": "UDSG",
      "alert": "OK",
      "vis_m": 5000,
      "fzfg": false,
      "metar_trigger": false,
      "taf_trigger": false,
      "metar": "METAR UDSG 042100Z 04004KT 5000 BR NSC M18/M20 Q1031 NOSIG",
      "taf": "TAF UDSG 041700Z 0418/0518 VRB06KT 9999 FEW050"
    },
    {
      "icao": "UDYZ",
      "alert": "OK",
      "vis_m": 6000,
      "fzfg": false,
      "metar_trigger": false,
      "taf_trigger": false,
      "metar": "METAR UDYZ 042100Z 05002KT 6000 NSC M10/M13 Q1033 NOSIG",
      "taf": "TAF UDYZ 041700Z 0418/0518 04006KT 6000 NSC"
    },
    {
      "icao": "UGKO",
      "alert": "OK",
      "vis_m": 9999,
      "fzfg": false,
      "metar_trigger": false,
      "taf_trigger": false,
      "metar": "METAR UGKO 042100Z 09007KT 9999 SCT095 06/M01 Q1023 NOSIG",
      "taf": "TAF UGKO 041700Z 0418/0518 09007KT CAVOK TX09/0511Z TN03/0503Z"
    }
  ]
}