{
  "ts_utc": "2026-01-15T19:04:14Z",
  "threshold_m": 150,
  "source": "stations_override.txt (ICAO list) + aviationweather.gov (METAR/TAF raw)",
  "station_count": 159,
  "stations": [
    {
      "icao": "BIKF",
      "alert": "OK",
      "vis_m": 9999,
      "fzfg": false,
      "metar_trigger": false,
      "taf_trigger": false,
      "metar": "METAR BIKF 151900Z 01016KT 9999 SCT017 BKN210 01/M02 Q0990",
      "taf": "TAF BIKF 151640Z 1518/1618 02020KT 9999 FEW025 SCT045 TX02/1614Z TN00/1521Z"
    },
    {
      "icao": "BKPR",
      "alert": "OK",
      "vis_m": 9999,
      "fzfg": false,
      "metar_trigger": false,
      "taf_trigger": false,
      "metar": "METAR BKPR 151900Z VRB01KT 9999 FEW050 03/01 Q1024 NOSIG",
      "taf": "TAF BKPR 151730Z 1518/1618 VRB05KT 9999 SCT050"
    },
    {
      "icao": "EBCI",
      "alert": "OK",
      "vis_m": 9999,
      "fzfg": false,
      "metar_trigger": false,
      "taf_trigger": false,
      "metar": "METAR EBCI 151850Z 15009KT 9999 FEW042 10/06 Q1006 NOSIG",
      "taf": "TAF EBCI 151710Z 1518/1624 18012KT 9999 SCT030"
    },
    {
      "icao": "EDDB",
      "alert": "OK",
      "vis_m": 450,
      "fzfg": false,
      "metar_trigger": false,
      "taf_trigger": false,
      "metar": "METAR EDDB 151850Z AUTO 14005KT 060V200 0450 0400 R24R/0500D R24L/0600N FG FEW002 BKN021 BKN029 03/03 Q1015 TEMPO 0600",
      "taf": "TAF EDDB 151700Z 1518/1618 14006KT 3000 BR SCT002"
    },
    {
      "icao": "EDDH",
      "alert": "OK",
      "vis_m": 9999,
      "fzfg": false,
      "metar_trigger": false,
      "taf_trigger": false,
      "metar": "METAR EDDH 151850Z AUTO 14008KT 9999 BKN048 07/06 Q1011 NOSIG",
      "taf": "TAF EDDH 151700Z 1518/1624 15010KT 9999 BKN025"
    },
    {
      "icao": "EDDK",
      "alert": "OK",
      "vis_m": 9999,
      "fzfg": false,
      "metar_trigger": false,
      "taf_trigger": false,
      "metar": "METAR EDDK 151850Z AUTO 14012KT CAVOK 09/05 Q1010 NOSIG",
      "taf": "TAF EDDK 151700Z 1518/1624 15011KT 9999 SCT030"
    },
    {
      "icao": "EDDN",
      "alert": "OK",
      "vis_m": 9999,
      "fzfg": false,
      "metar_trigger": false,
      "taf_trigger": false,
      "metar": "METAR EDDN 151850Z AUTO 11007KT CAVOK 02/01 Q1015 NOSIG",
      "taf": "TAF EDDN 151700Z 1518/1618 12007KT CAVOK"
    },
    {
      "icao": "EDDS",
      "alert": "OK",
      "vis_m": 9999,
      "fzfg": false,
      "metar_trigger": false,
      "taf_trigger": false,
      "metar": "METAR EDDS 151850Z AUTO VRB02KT CAVOK 05/02 Q1012 NOSIG",
      "taf": "TAF EDDS 151700Z 1518/1618 VRB02KT CAVOK"
    },
    {
      "icao": "EDFH",
      "alert": "OK",
      "vis_m": 9999,
      "fzfg": false,
      "metar_trigger": false,
      "taf_trigger": false,
      "metar": "METAR EDFH 151850Z 16013KT 9999 FEW015 07/05 Q1010",
      "taf": "TAF EDFH 151700Z 1518/1618 16011KT 9999 SCT030"
    },
    {
      "icao": "EDJA",
      "alert": "OK",
      "vis_m": 9999,
      "fzfg": false,
      "metar_trigger": false,
      "taf_trigger": false,
      "metar": "METAR EDJA 151850Z 09002KT CAVOK 03/01 Q1014",
      "taf": "TAF EDJA 151700Z 1518/1603 VRB03KT CAVOK"
    },
    {
      "icao": "EDLW",
      "alert": "OK",
      "vis_m": 9999,
      "fzfg": false,
      "metar_trigger": false,
      "taf_trigger": false,
      "metar": "METAR EDLW 151850Z 16008KT CAVOK 10/05 Q1009",
      "taf": "TAF EDLW 151700Z 1518/1618 17012KT 9999 SCT030"
    },
    {
      "icao": "EDNY",
      "alert": "OK",
      "vis_m": 9999,
      "fzfg": false,
      "metar_trigger": false,
      "taf_trigger": false,
      "metar": "METAR EDNY 151850Z 05003KT CAVOK 02/01 Q1013",
      "taf": "TAF EDNY 151700Z 1518/1603 05003KT CAVOK"
    },
    {
      "icao": "EDSB",
      "alert": "OK",
      "vis_m": 9999,
      "fzfg": false,
      "metar_trigger": false,
      "taf_trigger": false,
      "metar": "METAR EDSB 151850Z VRB02KT CAVOK 05/04 Q1012",
      "taf": "TAF EDSB 151700Z 1518/1618 VRB02KT CAVOK"
    },
    {
      "icao": "EETN",
      "alert": "OK",
      "vis_m": 8000,
      "fzfg": false,
      "metar_trigger": false,
      "taf_trigger": false,
      "metar": "METAR EETN 151850Z 18013KT 8000 -SN SCT010 OVC034 M08/M10 Q1022 TEMPO 5000 SN BKN008",
      "taf": "TAF EETN 151730Z 1518/1618 17012KT 9999 SCT008 BKN035"
    },
    {
      "icao": "EFTU",
      "alert": "OK",
      "vis_m": 9000,
      "fzfg": false,
      "metar_trigger": false,
      "taf_trigger": false,
      "metar": "METAR EFTU 151850Z AUTO 18005KT 9000 -SHRA OVC002 01/01 Q1018",
      "taf": "TAF EFTU 151737Z 1518/1618 17006KT 9000 SCT003 OVC020"
    },
    {
      "icao": "EGBB",
      "alert": "OK",
      "vis_m": 9999,
      "fzfg": false,
      "metar_trigger": false,
      "taf_trigger": false,
      "metar": "METAR EGBB 151850Z 06009KT 020V090 9999 -RA FEW006 BKN040 05/04 Q0996",
      "taf": ""
    },
    {
      "icao": "EGGP",
      "alert": "OK",
      "vis_m": 50,
      "fzfg": false,
      "metar_trigger": false,
      "taf_trigger": false,
      "metar": "METAR EGGP 151850Z 14001KT 0050 R27/0350N FG VV/// 04/03 Q0997",
      "taf": "TAF EGGP 151659Z 1518/1618 VRB03KT 9999 FEW040"
    },
    {
      "icao": "EGGW",
      "alert": "OK",
      "vis_m": 9999,
      "fzfg": false,
      "metar_trigger": false,
      "taf_trigger": false,
      "metar": "METAR EGGW 151850Z AUTO 18010KT 140V210 9999 -RA OVC007 08/08 Q0994",
      "taf": "TAF EGGW 151656Z 1518/1618 16010KT 9999 SCT004 BKN020"
    },
    {
      "icao": "EGKK",
      "alert": "OK",
      "vis_m": 9999,
      "fzfg": false,
      "metar_trigger": false,
      "taf_trigger": false,
      "metar": "METAR EGKK 151850Z 19013KT 140V230 9999 -RA BKN009 09/09 Q0996",
      "taf": "TAF EGKK 151654Z 1518/1624 18015KT 9999 BKN015"
    },
    {
      "icao": "EGNM",
      "alert": "OK",
      "vis_m": 100,
      "fzfg": false,
      "metar_trigger": false,
      "taf_trigger": false,
      "metar": "METAR EGNM 151850Z 04003KT 0100 R32/0225N FG VV/// 04/03 Q0997",
      "taf": "TAF EGNM 151657Z 1518/1618 VRB03KT 9999 FEW010"
    },
    {
      "icao": "EGPD",
      "alert": "OK",
      "vis_m": 9999,
      "fzfg": false,
      "metar_trigger": false,
      "taf_trigger": false,
      "metar": "METAR EGPD 151850Z COR AUTO 17006KT 9999 NCD 02/00 Q0996 NOSIG",
      "taf": "TAF EGPD 151656Z 1518/1618 20010KT 9999 FEW025"
    },
    {
      "icao": "EGPF",
      "alert": "OK",
      "vis_m": 9999,
      "fzfg": false,
      "metar_trigger": false,
      "taf_trigger": false,
      "metar": "METAR EGPF 151850Z AUTO 13006KT 110V180 9999 NCD 02/01 Q0997",
      "taf": "TAF EGPF 151656Z 1518/1618 21010KT 9999 FEW045"
    },
    {
      "icao": "EHBK",
      "alert": "OK",
      "vis_m": 9999,
      "fzfg": false,
      "metar_trigger": false,
      "taf_trigger": false,
      "metar": "METAR EHBK 151855Z AUTO 16009KT 9999 NSC 10/06 Q1007 NOSIG",
      "taf": "TAF EHBK 151707Z 1518/1624 16010KT CAVOK"
    },
    {
      "icao": "EHEH",
      "alert": "OK",
      "vis_m": 9999,
      "fzfg": false,
      "metar_trigger": false,
      "taf_trigger": false,
      "metar": "METAR EHEH 151855Z AUTO 14009KT 120V180 9999 SCT056 SCT064 OVC120 10/06 Q1006 BLU BECMG 17012G22KT",
      "taf": "TAF EHEH 151736Z 1518/1624 16008KT CAVOK"
    },
    {
      "icao": "EKBI",
      "alert": "OK",
      "vis_m": 250,
      "fzfg": false,
      "metar_trigger": false,
      "taf_trigger": false,
      "metar": "METAR EKBI 151850Z AUTO 12006KT 0250 R09/0800N R27/0650N -RA FG VV002 04/04 Q1008",
      "taf": "TAF EKBI 151727Z 1518/1618 15008KT 0300 FG OVC002"
    },
    {
      "icao": "EKCH",
      "alert": "OK",
      "vis_m": 3000,
      "fzfg": false,
      "metar_trigger": false,
      "taf_trigger": false,
      "metar": "METAR EKCH 151850Z 15011KT 3000 BR OVC002 04/04 Q1013 TEMPO 2000",
      "taf": "TAF EKCH 151727Z 1518/1618 16015KT 5000 OVC003"
    },
    {
      "icao": "ENAL",
      "alert": "OK",
      "vis_m": 9999,
      "fzfg": false,
      "metar_trigger": false,
      "taf_trigger": false,
      "metar": "METAR ENAL 151850Z 14009KT 9999 SCT060 06/M01 Q0997",
      "taf": "TAF ENAL 151700Z 1518/1603 12015KT 9999 -SHRA SCT040"
    },
    {
      "icao": "ENBR",
      "alert": "OK",
      "vis_m": 9999,
      "fzfg": false,
      "metar_trigger": false,
      "taf_trigger": false,
      "metar": "METAR ENBR 151850Z 14016KT 9999 -TSRA BKN015CB 05/03 Q1000 TEMPO TSRA BKN012CB RMK WIND 1200FT 15023KT",
      "taf": ""
    },
    {
      "icao": "ENGM",
      "alert": "OK",
      "vis_m": 3700,
      "fzfg": false,
      "metar_trigger": false,
      "taf_trigger": false,
      "metar": "METAR ENGM 151850Z 34003KT 310V010 3700 1600E -SN OVC004 M03/M04 Q1008 TEMPO 1500 -SN BR BKN006",
      "taf": "TAF ENGM 151700Z 1518/1618 VRB03KT 6000 -SN BKN010"
    },
    {
      "icao": "ENHD",
      "alert": "OK",
      "vis_m": 9999,
      "fzfg": false,
      "metar_trigger": false,
      "taf_trigger": false,
      "metar": "METAR ENHD 151850Z 15016KT 9999 SCT008 BKN012 BKN019 06/05 Q1001 RERA REDZRA",
      "taf": "TAF ENHD 151400Z 1515/1523 13018KT 9999 -RA FEW015 BKN030"
    },
    {
      "icao": "ENTC",
      "alert": "OK",
      "vis_m": 9999,
      "fzfg": false,
      "metar_trigger": false,
      "taf_trigger": false,
      "metar": "METAR ENTC 151850Z 20015KT CAVOK M01/M07 Q1007 BECMG 21005KT RMK WIND 2600FT 17019KT",
      "taf": ""
    },
    {
      "icao": "ENTO",
      "alert": "OK",
      "vis_m": 150,
      "fzfg": false,
      "metar_trigger": false,
      "taf_trigger": false,
      "metar": "METAR ENTO 151850Z 16004KT 0150 R18/0900N R36/0600N DZ FG VV001 03/03 Q1007 NOSIG",
      "taf": ""
    },
    {
      "icao": "ENVA",
      "alert": "OK",
      "vis_m": 9999,
      "fzfg": false,
      "metar_trigger": false,
      "taf_trigger": false,
      "metar": "METAR ENVA 151850Z 12008KT 360V170 CAVOK 04/M03 Q1001 TEMPO 16020G30KT RMK WIND 670FT 15023G42KT",
      "taf": "TAF ENVA 151700Z 1518/1618 12015KT 9999 FEW050"
    },
    {
      "icao": "ENZV",
      "alert": "OK",
      "vis_m": 9999,
      "fzfg": false,
      "metar_trigger": false,
      "taf_trigger": false,
      "metar": "METAR ENZV 151850Z 15014KT 9999 VCSH FEW014 SCT017 05/04 Q1002 TEMPO 15020G35KT SHRA",
      "taf": "TAF ENZV 151700Z 1518/1618 14015KT 9999 FEW020 BKN030"
    },
    {
      "icao": "EPGD",
      "alert": "OK",
      "vis_m": 9999,
      "fzfg": false,
      "metar_trigger": false,
      "taf_trigger": false,
      "metar": "METAR EPGD 151900Z 16007KT CAVOK M01/M02 Q1020",
      "taf": "TAF EPGD 151730Z 1518/1618 16010KT 8000 NSC"
    },
    {
      "icao": "EPKK",
      "alert": "OK",
      "vis_m": 5000,
      "fzfg": false,
      "metar_trigger": false,
      "taf_trigger": false,
      "metar": "METAR EPKK 151900Z 05005KT 5000 BR SCT007 BKN020 02/00 Q1020",
      "taf": "TAF EPKK 151730Z 1518/1618 07005KT 5000 BR BKN017"
    },
    {
      "icao": "EPKT",
      "alert": "OK",
      "vis_m": 5000,
      "fzfg": false,
      "metar_trigger": false,
      "taf_trigger": false,
      "metar": "METAR EPKT 151900Z 13003KT 5000 BR OVC036 02/01 Q1020",
      "taf": "TAF EPKT 151730Z 1518/1618 15004KT 5000 BR BKN010"
    },
    {
      "icao": "EPLB",
      "alert": "OK",
      "vis_m": 3000,
      "fzfg": false,
      "metar_trigger": false,
      "taf_trigger": false,
      "metar": "METAR EPLB 151900Z 10006KT 3000 BR OVC004 M03/M04 Q1024",
      "taf": ""
    },
    {
      "icao": "EPMO",
      "alert": "OK",
      "vis_m": 250,
      "fzfg": true,
      "metar_trigger": false,
      "taf_trigger": false,
      "metar": "METAR EPMO 151900Z 08006KT 0250 R08/0250N FZFG VV001 M01/M01 Q1022",
      "taf": ""
    },
    {
      "icao": "EPPO",
      "alert": "OK",
      "vis_m": 1100,
      "fzfg": false,
      "metar_trigger": false,
      "taf_trigger": false,
      "metar": "METAR EPPO 151900Z 11009KT 1100 R28/P2000D BR OVC001 01/01 Q1018",
      "taf": "TAF EPPO 151730Z 1518/1618 13007KT 2500 BR BKN003"
    },
    {
      "icao": "EPRA",
      "alert": "OK",
      "vis_m": 4000,
      "fzfg": false,
      "metar_trigger": false,
      "taf_trigger": false,
      "metar": "METAR EPRA 151900Z 14004KT 4000 BR FEW002 SCT024 M01/M01 Q1022",
      "taf": "TAF EPRA 151730Z 1518/1603 12006KT 9999 SCT040"
    },
    {
      "icao": "EPRZ",
      "alert": "OK",
      "vis_m": 2000,
      "fzfg": false,
      "metar_trigger": false,
      "taf_trigger": false,
      "metar": "METAR EPRZ 151900Z VRB04KT 2000 BR SCT030 00/M00 Q1022",
      "taf": ""
    },
    {
      "icao": "EPSC",
      "alert": "OK",
      "vis_m": 4700,
      "fzfg": false,
      "metar_trigger": false,
      "taf_trigger": false,
      "metar": "METAR EPSC 151900Z 12011KT 4700 BR OVC005 02/01 Q1016",
      "taf": "TAF EPSC 151730Z 1518/1618 14010KT 6000 OVC005"
    },
    {
      "icao": "EPSY",
      "alert": "OK",
      "vis_m": 3700,
      "fzfg": false,
      "metar_trigger": false,
      "taf_trigger": false,
      "metar": "METAR EPSY 151900Z VRB02KT 3700 BR OVC028 M06/M06 Q1023",
      "taf": "TAF EPSY 151730Z 1518/1603 14006KT 3000 BR BKN030"
    },
    {
      "icao": "EPWA",
      "alert": "OK",
      "vis_m": 3600,
      "fzfg": false,
      "metar_trigger": false,
      "taf_trigger": false,
      "metar": "METAR EPWA 151900Z 11008KT 090V180 3600 BR BKN003 M00/M00 Q1022 NOSIG",
      "taf": "TAF EPWA 151730Z 1518/1618 13007KT 2900 BR BKN005"
    },
    {
      "icao": "EPWR",
      "alert": "OK",
      "vis_m": 4000,
      "fzfg": false,
      "metar_trigger": false,
      "taf_trigger": false,
      "metar": "METAR EPWR 151900Z 11008KT 4000 BR NSC 03/02 Q1018",
      "taf": "TAF EPWR 151730Z 1518/1618 12006KT 4000 BR OVC035"
    },
    {
      "icao": "ESGG",
      "alert": "OK",
      "vis_m": 2300,
      "fzfg": false,
      "metar_trigger": false,
      "taf_trigger": false,
      "metar": "METAR ESGG 151850Z 17010KT 2300 BR OVC003 02/02 Q1010",
      "taf": "TAF ESGG 151730Z 1518/1618 18006KT 8000 BKN003"
    },
    {
      "icao": "ESKN",
      "alert": "OK",
      "vis_m": 9999,
      "fzfg": false,
      "metar_trigger": false,
      "taf_trigger": false,
      "metar": "METAR ESKN 151850Z 14010KT 9999 BKN006 BKN098 00/00 Q1016",
      "taf": "TAF ESKN 151730Z 1518/1618 19006KT 9999 BKN005"
    },
    {
      "icao": "ESMS",
      "alert": "OK",
      "vis_m": 200,
      "fzfg": false,
      "metar_trigger": false,
      "taf_trigger": false,
      "metar": "METAR ESMS 151850Z 14012KT 0200 R17/0800N R35/0900U FG VV002 02/02 Q1013",
      "taf": ""
    },
    {
      "icao": "ESSA",
      "alert": "OK",
      "vis_m": 4000,
      "fzfg": false,
      "metar_trigger": false,
      "taf_trigger": false,
      "metar": "METAR ESSA 151850Z 17009KT 4000 BR OVC003 00/00 Q1015 NOSIG",
      "taf": "TAF ESSA 151730Z 1518/1618 18010KT 9999 BKN003"
    },
    {
      "icao": "EYKA",
      "alert": "OK",
      "vis_m": 7000,
      "fzfg": false,
      "metar_trigger": false,
      "taf_trigger": false,
      "metar": "METAR EYKA 151850Z 15008KT 120V220 7000 OVC027 M09/M11 Q1026",
      "taf": "TAF EYKA 151705Z 1518/1618 16010KT 9000 SCT010 OVC020"
    },
    {
      "icao": "EYPA",
      "alert": "OK",
      "vis_m": 7000,
      "fzfg": false,
      "metar_trigger": false,
      "taf_trigger": false,
      "metar": "METAR EYPA 151850Z 14008KT 100V170 7000 SCT006 OVC032 M04/M05 Q1023",
      "taf": "TAF EYPA 151704Z 1518/1618 17012KT 8000 SCT010 OVC020"
    },
    {
      "icao": "EYVI",
      "alert": "OK",
      "vis_m": 9999,
      "fzfg": false,
      "metar_trigger": false,
      "taf_trigger": false,
      "metar": "METAR EYVI 151850Z 16008KT CAVOK M15/M17 Q1027 NOSIG",
      "taf": "TAF EYVI 151705Z 1518/1618 16010KT 8000 OVC005"
    },
    {
      "icao": "GCFV",
      "alert": "OK",
      "vis_m": 9999,
      "fzfg": false,
      "metar_trigger": false,
      "taf_trigger": false,
      "metar": "METAR GCFV 151830Z 03013KT 9999 FEW027 SCT030 18/11 Q1023",
      "taf": "TAF GCFV 151400Z 1515/1615 04010KT 9999 SCT030 TX22/1614Z TN14/1606Z"
    },
    {
      "icao": "GCLP",
      "alert": "OK",
      "vis_m": 9999,
      "fzfg": false,
      "metar_trigger": false,
      "taf_trigger": false,
      "metar": "METAR GCLP 151830Z 36012KT 9999 BKN038 18/10 Q1024 NOSIG",
      "taf": "TAF GCLP 151400Z 1515/1615 02016KT 9999 SCT030 TX22/1614Z TN15/1606Z"
    },
    {
      "icao": "GCTS",
      "alert": "OK",
      "vis_m": 9999,
      "fzfg": false,
      "metar_trigger": false,
      "taf_trigger": false,
      "metar": "METAR GCTS 151830Z 08016KT 9999 BKN040 18/10 Q1024 NOSIG",
      "taf": "TAF GCTS 151400Z 1515/1615 08016KT 9999 BKN030 TX22/1614Z TN13/1606Z"
    },
    {
      "icao": "GMAD",
      "alert": "OK",
      "vis_m": 9999,
      "fzfg": false,
      "metar_trigger": false,
      "taf_trigger": false,
      "metar": "METAR GMAD 151900Z 20004KT CAVOK 14/11 Q1021 NOSIG",
      "taf": "TAF GMAD 151700Z 1518/1624 26010KT 9999 FEW030"
    },
    {
      "icao": "GMMN",
      "alert": "OK",
      "vis_m": 9999,
      "fzfg": false,
      "metar_trigger": false,
      "taf_trigger": false,
      "metar": "METAR GMMN 151900Z 27003KT 9999 SCT020 SCT200 12/10 Q1022 NOSIG",
      "taf": "TAF GMMN 151700Z 1518/1624 32008KT 9999 BKN020 SCT200"
    },
    {
      "icao": "GMMX",
      "alert": "OK",
      "vis_m": 9999,
      "fzfg": false,
      "metar_trigger": false,
      "taf_trigger": false,
      "metar": "METAR GMMX 151900Z 29004KT 9999 FEW030 13/09 Q1022 NOSIG",
      "taf": "TAF GMMX 151700Z 1518/1624 06006KT 8000 SCT026"
    },
    {
      "icao": "HEGN",
      "alert": "OK",
      "vis_m": 9999,
      "fzfg": false,
      "metar_trigger": false,
      "taf_trigger": false,
      "metar": "METAR HEGN 151800Z 31007KT CAVOK 16/08 Q1023 NOSIG",
      "taf": "TAF HEGN 151700Z 1518/1624 33010G20KT CAVOK"
    },
    {
      "icao": "HEMA",
      "alert": "OK",
      "vis_m": null,
      "fzfg": false,
      "metar_trigger": false,
      "taf_trigger": false,
      "metar": "",
      "taf": "TAF HEMA 151700Z 1518/1624 34010G20KT 6000 SCT025"
    },
    {
      "icao": "HESH",
      "alert": "OK",
      "vis_m": 9999,
      "fzfg": false,
      "metar_trigger": false,
      "taf_trigger": false,
      "metar": "METAR HESH 151800Z 35014KT CAVOK 19/07 Q1022 NOSIG",
      "taf": "TAF HESH 151700Z 1518/1624 36015KT CAVOK"
    },
    {
      "icao": "HESX",
      "alert": "OK",
      "vis_m": 9999,
      "fzfg": false,
      "metar_trigger": false,
      "taf_trigger": false,
      "metar": "METAR HESX 151800Z 01005KT CAVOK 13/08 Q1025 NOSIG",
      "taf": "TAF HESX 151700Z 1518/1624 36006KT 9999 SCT020 BKN030"
    },
    {
      "icao": "LATI",
      "alert": "OK",
      "vis_m": 9999,
      "fzfg": false,
      "metar_trigger": false,
      "taf_trigger": false,
      "metar": "METAR LATI 151850Z 14003KT 9999 SCT085 09/05 Q1024 NOSIG",
      "taf": "TAF LATI 151700Z 1518/1618 VRB05KT 9999 SCT025 BKN070 TX16/1612Z TN07/1604Z"
    },
    {
      "icao": "LBPD",
      "alert": "OK",
      "vis_m": 9999,
      "fzfg": false,
      "metar_trigger": false,
      "taf_trigger": false,
      "metar": "METAR LBPD 151900Z AUTO 20006KT 180V240 9999 NCD 06/02 Q1022 NOSIG",
      "taf": "TAF LBPD 151700Z 1518/1618 28010KT 9999 SCT070"
    },
    {
      "icao": "LBSF",
      "alert": "OK",
      "vis_m": 9999,
      "fzfg": false,
      "metar_trigger": false,
      "taf_trigger": false,
      "metar": "METAR LBSF 151900Z AUTO 18003KT 150V230 9999 NSC 02/M01 Q1023 NOSIG",
      "taf": "TAF LBSF 151700Z 1518/1618 VRB03KT 9999 SCT060"
    },
    {
      "icao": "LBWN",
      "alert": "OK",
      "vis_m": 9999,
      "fzfg": false,
      "metar_trigger": false,
      "taf_trigger": false,
      "metar": "METAR LBWN 151900Z AUTO 05007KT 9999 BKN028/// 05/01 Q1023 NOSIG",
      "taf": ""
    },
    {
      "icao": "LCLK",
      "alert": "OK",
      "vis_m": 9999,
      "fzfg": false,
      "metar_trigger": false,
      "taf_trigger": false,
      "metar": "METAR LCLK 151900Z 33005KT 9999 SCT040 10/08 Q1024 NOSIG",
      "taf": "TAF LCLK 151730Z 1518/1618 31006KT 9999 FEW040 SCT050"
    },
    {
      "icao": "LCPH",
      "alert": "OK",
      "vis_m": 9999,
      "fzfg": false,
      "metar_trigger": false,
      "taf_trigger": false,
      "metar": "METAR LCPH 151900Z 06006KT 010V080 CAVOK 10/06 Q1024 NOSIG",
      "taf": "TAF LCPH 151730Z 1518/1618 02007KT 9999 FEW025 SCT040"
    },
    {
      "icao": "LEAL",
      "alert": "OK",
      "vis_m": 9999,
      "fzfg": false,
      "metar_trigger": false,
      "taf_trigger": false,
      "metar": "METAR LEAL 151830Z 31003KT 280V340 CAVOK 13/12 Q1017 NOSIG",
      "taf": "TAF LEAL 151700Z 1518/1618 VRB04KT CAVOK TX17/1613Z TN07/1606Z"
    },
    {
      "icao": "LEBB",
      "alert": "OK",
      "vis_m": 9999,
      "fzfg": false,
      "metar_trigger": false,
      "taf_trigger": false,
      "metar": "METAR LEBB 151830Z 21007G17KT 110V270 9999 SCT070 13/05 Q1012 NOSIG",
      "taf": "TAF LEBB 151700Z 1518/1618 19009KT 9999 FEW025 BKN060 TX16/1612Z TN05/1607Z"
    },
    {
      "icao": "LEBL",
      "alert": "OK",
      "vis_m": 9999,
      "fzfg": false,
      "metar_trigger": false,
      "taf_trigger": false,
      "metar": "METAR LEBL 151830Z 25006KT 9999 FEW015 11/09 Q1016 NOSIG",
      "taf": "TAF LEBL 151700Z 1518/1618 21010KT 9999 SCT015 TX14/1612Z TN06/1606Z"
    },
    {
      "icao": "LECH",
      "alert": "OK",
      "vis_m": 9000,
      "fzfg": false,
      "metar_trigger": false,
      "taf_trigger": false,
      "metar": "METAR LECH 151830Z AUTO VRB01KT 9000 NCD 09/07 Q1016",
      "taf": ""
    },
    {
      "icao": "LEMD",
      "alert": "OK",
      "vis_m": 9999,
      "fzfg": false,
      "metar_trigger": false,
      "taf_trigger": false,
      "metar": "METAR LEMD 151830Z 21008G19KT 160V240 9999 -RA FEW015 SCT025 BKN045 07/06 Q1017 NOSIG",
      "taf": "TAF LEMD 151700Z 1518/1624 22010KT 9999 SCT020 TX11/1615Z TN05/1607Z"
    },
    {
      "icao": "LEMG",
      "alert": "OK",
      "vis_m": 9999,
      "fzfg": false,
      "metar_trigger": false,
      "taf_trigger": false,
      "metar": "METAR LEMG 151830Z VRB02KT 9999 FEW050 BKN075 13/09 Q1019 NOSIG",
      "taf": "TAF LEMG 151700Z 1518/1618 29005KT 9999 FEW040 TX18/1614Z TN11/1607Z"
    },
    {
      "icao": "LEVC",
      "alert": "OK",
      "vis_m": 9999,
      "fzfg": false,
      "metar_trigger": false,
      "taf_trigger": false,
      "metar": "METAR LEVC 151830Z 24007KT CAVOK 12/06 Q1016 NOSIG",
      "taf": "TAF LEVC 151700Z 1518/1618 26005KT CAVOK TX15/1612Z TN06/1606Z"
    },
    {
      "icao": "LEXJ",
      "alert": "OK",
      "vis_m": 8000,
      "fzfg": false,
      "metar_trigger": false,
      "taf_trigger": false,
      "metar": "METAR LEXJ 151830Z 22006KT 180V250 8000 BKN029 OVC035 13/05 Q1012",
      "taf": "TAF LEXJ 151400Z 1515/1615 21009KT 9999 SCT040 BKN070 TX16/1615Z TN07/1608Z"
    },
    {
      "icao": "LEZG",
      "alert": "OK",
      "vis_m": 9999,
      "fzfg": false,
      "metar_trigger": false,
      "taf_trigger": false,
      "metar": "METAR LEZG 151830Z 11003KT 9999 BKN060 10/05 Q1015 NOSIG",
      "taf": "TAF LEZG 151700Z 1518/1618 VRB04KT 9999 FEW020 TX13/1614Z TN05/1606Z"
    },
    {
      "icao": "LEZL",
      "alert": "OK",
      "vis_m": 9000,
      "fzfg": false,
      "metar_trigger": false,
      "taf_trigger": false,
      "metar": "METAR LEZL 151830Z 23004KT 9000 FEW040 BKN049 13/11 Q1019 NOSIG",
      "taf": ""
    },
    {
      "icao": "LFBD",
      "alert": "OK",
      "vis_m": 9999,
      "fzfg": false,
      "metar_trigger": false,
      "taf_trigger": false,
      "metar": "METAR LFBD 151900Z AUTO 21012KT 9999 -RA NSC 10/08 Q1011 TEMPO 22015G25KT 4000 -RA BKN010 BKN040TCU",
      "taf": "TAF LFBD 151700Z 1518/1624 21010KT 9999 BKN040 TX11/1615Z TN05/1624Z"
    },
    {
      "icao": "LFLL",
      "alert": "OK",
      "vis_m": 9999,
      "fzfg": false,
      "metar_trigger": false,
      "taf_trigger": false,
      "metar": "METAR LFLL 151900Z 18013KT CAVOK 12/06 Q1013 NOSIG",
      "taf": "TAF LFLL 151700Z 1518/1624 18015G25KT 9999 FEW030"
    },
    {
      "icao": "LFLS",
      "alert": "OK",
      "vis_m": 9999,
      "fzfg": false,
      "metar_trigger": false,
      "taf_trigger": false,
      "metar": "METAR LFLS 151900Z AUTO 24004KT 200V290 CAVOK 08/05 Q1014 NOSIG",
      "taf": "TAF LFLS 151400Z 1515/1615 20010KT CAVOK"
    },
    {
      "icao": "LFMN",
      "alert": "OK",
      "vis_m": 9999,
      "fzfg": false,
      "metar_trigger": false,
      "taf_trigger": false,
      "metar": "METAR LFMN 151900Z 12008KT 9999 SCT020 SCT040 14/10 Q1020 NOSIG",
      "taf": "TAF LFMN 151400Z 1515/1621 11009KT 9999 SCT024"
    },
    {
      "icao": "LFOB",
      "alert": "OK",
      "vis_m": 9999,
      "fzfg": false,
      "metar_trigger": false,
      "taf_trigger": false,
      "metar": "METAR LFOB 151900Z AUTO 18015KT 9999 SCT033 BKN039 BKN062 12/07 Q1003 TEMPO 19020G30KT 4500 -RA BKN014 OVC025",
      "taf": "TAF LFOB 151700Z 1518/1618 17010G20KT 9999 BKN030"
    },
    {
      "icao": "LFPO",
      "alert": "OK",
      "vis_m": 9999,
      "fzfg": false,
      "metar_trigger": false,
      "taf_trigger": false,
      "metar": "METAR LFPO 151900Z 19011KT 160V220 9999 FEW036 BKN120 12/07 Q1005 TEMPO 21015G30KT",
      "taf": "TAF LFPO 151700Z 1518/1624 18010KT CAVOK"
    },
    {
      "icao": "LFSB",
      "alert": "OK",
      "vis_m": 9999,
      "fzfg": false,
      "metar_trigger": false,
      "taf_trigger": false,
      "metar": "METAR LFSB 151900Z AUTO 13010KT CAVOK 07/04 Q1013 NOSIG",
      "taf": "TAF LFSB 151700Z 1518/1618 12006KT CAVOK"
    },
    {
      "icao": "LGAV",
      "alert": "OK",
      "vis_m": 9999,
      "fzfg": false,
      "metar_trigger": false,
      "taf_trigger": false,
      "metar": "METAR LGAV 151850Z VRB01KT 9999 FEW030 09/05 Q1025 NOSIG",
      "taf": "TAF LGAV 151700Z 1518/1618 VRB03KT 9999 SCT025"
    },
    {
      "icao": "LGTS",
      "alert": "OK",
      "vis_m": 9999,
      "fzfg": false,
      "metar_trigger": false,
      "taf_trigger": false,
      "metar": "METAR LGTS 151850Z 11006KT CAVOK 05/02 Q1024 NOSIG",
      "taf": "TAF LGTS 151700Z 1518/1618 VRB03KT 9999 FEW030"
    },
    {
      "icao": "LHBP",
      "alert": "OK",
      "vis_m": 6000,
      "fzfg": false,
      "metar_trigger": false,
      "taf_trigger": false,
      "metar": "METAR LHBP 151900Z 02003KT 6000 OVC016 M01/M03 Q1023 TEMPO BKN006 OVC015",
      "taf": ""
    },
    {
      "icao": "LHDC",
      "alert": "OK",
      "vis_m": 3800,
      "fzfg": false,
      "metar_trigger": false,
      "taf_trigger": false,
      "metar": "METAR LHDC 151845Z AUTO 08005KT 3800 BR OVC005 01/M00 Q1023 NOSIG",
      "taf": "TAF LHDC 151415Z 1515/1524 VRB03KT 5000 BR SCT004 OVC040"
    },
    {
      "icao": "LIBD",
      "alert": "OK",
      "vis_m": 9000,
      "fzfg": false,
      "metar_trigger": false,
      "taf_trigger": false,
      "metar": "METAR LIBD 151850Z 20005KT 9000 NSC 06/06 Q1022",
      "taf": "TAF LIBD 151700Z 1518/1618 VRB05KT 9999 FEW030"
    },
    {
      "icao": "LIBG",
      "alert": "OK",
      "vis_m": 9999,
      "fzfg": false,
      "metar_trigger": false,
      "taf_trigger": false,
      "metar": "METAR LIBG 151750Z 02003KT 9999 FEW020 08/08 Q1022",
      "taf": "TAF LIBG 151700Z 1518/1603 VRB05KT 8000 FEW025"
    },
    {
      "icao": "LIBP",
      "alert": "OK",
      "vis_m": 9999,
      "fzfg": false,
      "metar_trigger": false,
      "taf_trigger": false,
      "metar": "METAR LIBP 151850Z AUTO 24002KT 9999 NCD 06/05 Q1022",
      "taf": "TAF LIBP 151700Z 1518/1618 VRB05KT CAVOK"
    },
    {
      "icao": "LIBR",
      "alert": "OK",
      "vis_m": 9999,
      "fzfg": false,
      "metar_trigger": false,
      "taf_trigger": false,
      "metar": "METAR LIBR 151850Z 21001KT 9999 SCT020 10/08 Q1023",
      "taf": "TAF LIBR 151700Z 1518/1618 VRB05KT 9999 FEW025"
    },
    {
      "icao": "LICA",
      "alert": "OK",
      "vis_m": 9999,
      "fzfg": false,
      "metar_trigger": false,
      "taf_trigger": false,
      "metar": "METAR LICA 151850Z AUTO 09007KT 9999 NCD 07/06 Q1023",
      "taf": "TAF LICA 151700Z 1518/1618 VRB05KT CAVOK"
    },
    {
      "icao": "LICC",
      "alert": "OK",
      "vis_m": 9999,
      "fzfg": false,
      "metar_trigger": false,
      "taf_trigger": false,
      "metar": "METAR LICC 151850Z 05003KT 020V090 9999 SCT040 14/10 Q1022",
      "taf": "TAF LICC 151700Z 1518/1618 VRB05KT 9999 SCT040"
    },
    {
      "icao": "LICJ",
      "alert": "OK",
      "vis_m": 9999,
      "fzfg": false,
      "metar_trigger": false,
      "taf_trigger": false,
      "metar": "METAR LICJ 151850Z 15004KT CAVOK 12/09 Q1020",
      "taf": "TAF LICJ 151700Z 1518/1618 05010KT CAVOK"
    },
    {
      "icao": "LIMC",
      "alert": "OK",
      "vis_m": 500,
      "fzfg": false,
      "metar_trigger": false,
      "taf_trigger": false,
      "metar": "METAR LIMC 151850Z VRB01KT 0500 R35R/P2000N R17L/0700N R35L/P2000N -RA FG OVC002 07/06 Q1022 NOSIG",
      "taf": "TAF LIMC 151700Z 1518/1624 VRB05KT 3000 -RA BR BKN006"
    },
    {
      "icao": "LIME",
      "alert": "OK",
      "vis_m": 2500,
      "fzfg": false,
      "metar_trigger": false,
      "taf_trigger": false,
      "metar": "METAR LIME 151850Z 01003KT 2500 BR BKN015 05/05 Q1022 NOSIG",
      "taf": "TAF LIME 151700Z 1518/1618 VRB04KT 2000 BR BKN013"
    },
    {
      "icao": "LIMF",
      "alert": "OK",
      "vis_m": 6000,
      "fzfg": false,
      "metar_trigger": false,
      "taf_trigger": false,
      "metar": "METAR LIMF 151850Z VRB01KT 6000 SCT020 SCT040 OVC060 05/02 Q1021",
      "taf": "TAF LIMF 151700Z 1518/1618 VRB03KT 6000 SCT020"
    },
    {
      "icao": "LIMJ",
      "alert": "OK",
      "vis_m": 9999,
      "fzfg": false,
      "metar_trigger": false,
      "taf_trigger": false,
      "metar": "METAR LIMJ 151850Z 06010KT 9999 SCT018 BKN030 11/07 Q1020",
      "taf": "TAF LIMJ 151700Z 1518/1618 04010KT 9999 SCT020 SCT050"
    },
    {
      "icao": "LIPE",
      "alert": "OK",
      "vis_m": 1500,
      "fzfg": false,
      "metar_trigger": false,
      "taf_trigger": false,
      "metar": "METAR LIPE 151850Z 34002KT 1500 BR BKN015 06/06 Q1022",
      "taf": "TAF LIPE 151700Z 1518/1618 VRB04KT 3000 BR BKN040"
    },
    {
      "icao": "LIPH",
      "alert": "OK",
      "vis_m": 8000,
      "fzfg": false,
      "metar_trigger": false,
      "taf_trigger": false,
      "metar": "METAR LIPH 151850Z VRB02KT 8000 NSC 04/04 Q1022",
      "taf": "TAF LIPH 151700Z 1518/1618 VRB04KT 6000 SCT040"
    },
    {
      "icao": "LIPQ",
      "alert": "OK",
      "vis_m": 3900,
      "fzfg": false,
      "metar_trigger": false,
      "taf_trigger": false,
      "metar": "METAR LIPQ 151850Z AUTO 29001KT 3900 BR OVC016/// 08/07 Q1022",
      "taf": "TAF LIPQ 151700Z 1518/1618 VRB04KT 3000 BR BKN035"
    },
    {
      "icao": "LIPR",
      "alert": "OK",
      "vis_m": 3000,
      "fzfg": false,
      "metar_trigger": false,
      "taf_trigger": false,
      "metar": "METAR LIPR 151850Z VRB02KT 3000 BR BKN005 07/06 Q1022",
      "taf": "TAF LIPR 151700Z 1518/1618 VRB04KT 3000 BR SCT020"
    },
    {
      "icao": "LIPX",
      "alert": "OK",
      "vis_m": 6000,
      "fzfg": false,
      "metar_trigger": false,
      "taf_trigger": false,
      "metar": "METAR LIPX 151850Z 21002KT 6000 FEW020 BKN050 06/05 Q1022",
      "taf": "TAF LIPX 151700Z 1518/1618 VRB04KT 4000 BR BKN040"
    },
    {
      "icao": "LIPY",
      "alert": "OK",
      "vis_m": 1800,
      "fzfg": false,
      "metar_trigger": false,
      "taf_trigger": false,
      "metar": "METAR LIPY 151850Z AUTO VRB02KT 1800 BR OVC082/// 09/09 Q1022",
      "taf": "TAF LIPY 151700Z 1518/1618 VRB05KT 7000 SCT060"
    },
    {
      "icao": "LIPZ",
      "alert": "OK",
      "vis_m": 9000,
      "fzfg": false,
      "metar_trigger": false,
      "taf_trigger": false,
      "metar": "METAR LIPZ 151850Z 29003KT 220V310 9000 SCT025 07/05 Q1022 NOSIG",
      "taf": "TAF LIPZ 151700Z 1518/1624 VRB04KT 6000 SCT040"
    },
    {
      "icao": "LIRF",
      "alert": "OK",
      "vis_m": 9999,
      "fzfg": false,
      "metar_trigger": false,
      "taf_trigger": false,
      "metar": "METAR LIRF 151850Z 08006KT CAVOK 11/09 Q1022 NOSIG",
      "taf": "TAF LIRF 151700Z 1518/1624 15012KT 9999 SCT050"
    },
    {
      "icao": "LIRN",
      "alert": "OK",
      "vis_m": 9999,
      "fzfg": false,
      "metar_trigger": false,
      "taf_trigger": false,
      "metar": "METAR LIRN 151850Z 03003KT CAVOK 10/07 Q1022 NOSIG",
      "taf": "TAF LIRN 151700Z 1518/1618 VRB05KT CAVOK"
    },
    {
      "icao": "LIRP",
      "alert": "OK",
      "vis_m": 9999,
      "fzfg": false,
      "metar_trigger": false,
      "taf_trigger": false,
      "metar": "METAR LIRP 151845Z 13005KT 9999 FEW030 SCT070 10/09 Q1021 NOSIG",
      "taf": "TAF LIRP 151700Z 1518/1618 12005KT 9999 SCT020 SCT030"
    },
    {
      "icao": "LIRZ",
      "alert": "OK",
      "vis_m": 9999,
      "fzfg": false,
      "metar_trigger": false,
      "taf_trigger": false,
      "metar": "METAR LIRZ 151850Z AUTO VRB02KT 9999 OVC033/// 11/08 Q1022",
      "taf": "TAF LIRZ 151700Z 1518/1618 VRB05KT 9999 SCT040 BKN070"
    },
    {
      "icao": "LJLJ",
      "alert": "OK",
      "vis_m": 9999,
      "fzfg": false,
      "metar_trigger": false,
      "taf_trigger": false,
      "metar": "METAR LJLJ 151830Z VRB01KT 9999 SCT030 BKN045 02/02 Q1020 NOSIG",
      "taf": "TAF LJLJ 151700Z 1518/1618 30003KT 9999 FEW030 BKN045"
    },
    {
      "icao": "LKMT",
      "alert": "OK",
      "vis_m": 6000,
      "fzfg": false,
      "metar_trigger": false,
      "taf_trigger": false,
      "metar": "METAR LKMT 151900Z 22011KT 6000 OVC046 01/00 Q1020 NOSIG",
      "taf": "TAF LKMT 151700Z 1518/1618 22008KT 4500 BR BKN045"
    },
    {
      "icao": "LKPR",
      "alert": "OK",
      "vis_m": 100,
      "fzfg": false,
      "metar_trigger": false,
      "taf_trigger": false,
      "metar": "METAR LKPR 151900Z 31003KT 260V340 0100 R24/0350N R30/0300N FG VV001 01/01 Q1017 NOSIG",
      "taf": "TAF LKPR 151700Z 1518/1624 VRB02KT 0200 FG VV001"
    },
    {
      "icao": "LLBG",
      "alert": "OK",
      "vis_m": 9999,
      "fzfg": false,
      "metar_trigger": false,
      "taf_trigger": false,
      "metar": "METAR LLBG 151850Z VRB03KT 9999 FEW045 12/08 Q1025 NOSIG",
      "taf": "TAF LLBG 151704Z 1518/1618 VRB03KT 9999 SCT045"
    },
    {
      "icao": "LMML",
      "alert": "OK",
      "vis_m": 9999,
      "fzfg": false,
      "metar_trigger": false,
      "taf_trigger": false,
      "metar": "METAR LMML 151845Z 12009KT CAVOK 14/12 Q1021 NOSIG",
      "taf": "TAF LMML 151700Z 1518/1618 14010KT 9999 FEW017"
    },
    {
      "icao": "LOWW",
      "alert": "OK",
      "vis_m": 600,
      "fzfg": true,
      "metar_trigger": false,
      "taf_trigger": false,
      "metar": "METAR LOWW 151850Z 16006KT 0600 R16/0600N R29/0550N FZFG VV001 M01/M02 Q1021 TEMPO 0400 FZFG",
      "taf": "TAF LOWW 151715Z 1518/1624 14006KT 2000 BR FEW001 BKN002 TX01/1621Z TNM02/1519Z"
    },
    {
      "icao": "LPFR",
      "alert": "OK",
      "vis_m": 9999,
      "fzfg": false,
      "metar_trigger": false,
      "taf_trigger": false,
      "metar": "METAR LPFR 151830Z 24012KT 9999 FEW016 SCT028 15/10 Q1018",
      "taf": "TAF LPFR 151700Z 1518/1618 24013KT 9999 SCT012 BKN025"
    },
    {
      "icao": "LPMA",
      "alert": "OK",
      "vis_m": 9999,
      "fzfg": false,
      "metar_trigger": false,
      "taf_trigger": false,
      "metar": "METAR LPMA 151830Z VRB01KT 9999 FEW015 SCT025 16/11 Q1024",
      "taf": "TAF LPMA 151700Z 1518/1618 18005KT 9999 SCT012 BKN025"
    },
    {
      "icao": "LPPR",
      "alert": "OK",
      "vis_m": 7000,
      "fzfg": false,
      "metar_trigger": false,
      "taf_trigger": false,
      "metar": "METAR LPPR 151830Z VRB02KT 7000 FEW010 SCT017 10/09 Q1014",
      "taf": "TAF LPPR 151700Z 1518/1618 33012KT 9999 FEW015 SCT030"
    },
    {
      "icao": "LPPS",
      "alert": "OK",
      "vis_m": 9999,
      "fzfg": false,
      "metar_trigger": false,
      "taf_trigger": false,
      "metar": "METAR LPPS 151830Z 27011KT 9999 SCT015 BKN030 16/13 Q1023",
      "taf": "TAF LPPS 151700Z 1518/1624 27012KT 9999 SCT015 BKN030"
    },
    {
      "icao": "LPPT",
      "alert": "OK",
      "vis_m": 9999,
      "fzfg": false,
      "metar_trigger": false,
      "taf_trigger": false,
      "metar": "METAR LPPT 151830Z 31005KT 9999 FEW009 SCT012 FEW020TCU 13/13 Q1015",
      "taf": "TAF LPPT 151700Z 1518/1624 22015KT 2000 RADZ BR SCT002 BKN004"
    },
    {
      "icao": "LQBK",
      "alert": "OK",
      "vis_m": 9999,
      "fzfg": false,
      "metar_trigger": false,
      "taf_trigger": false,
      "metar": "METAR LQBK 151830Z 12005KT 080V150 CAVOK 05/03 Q1021 NOSIG",
      "taf": "TAF LQBK 151700Z 1518/1618 15005KT 9999 SCT047 TX08/1613Z TN02/1605Z"
    },
    {
      "icao": "LQSA",
      "alert": "OK",
      "vis_m": 6000,
      "fzfg": false,
      "metar_trigger": false,
      "taf_trigger": false,
      "metar": "METAR LQSA 151830Z VRB01KT 6000 BKN050 02/02 Q1023 NOSIG",
      "taf": "TAF LQSA 151700Z 1518/1618 VRB02KT 8000 FEW012 SCT050 TX04/1614Z TNM03/1605Z"
    },
    {
      "icao": "LQTZ",
      "alert": "OK",
      "vis_m": 5000,
      "fzfg": false,
      "metar_trigger": false,
      "taf_trigger": false,
      "metar": "METAR LQTZ 151830Z VRB02KT 5000 BR SCT060 03/02 Q1022",
      "taf": "TAF LQTZ 151700Z 1518/1618 VRB02KT 6000 BKN050 TX09/1613Z TN00/1605Z"
    },
    {
      "icao": "LRBC",
      "alert": "OK",
      "vis_m": 6000,
      "fzfg": false,
      "metar_trigger": false,
      "taf_trigger": false,
      "metar": "METAR LRBC 151830Z 34005KT 6000 OVC011 M02/M06 Q1025",
      "taf": "TAF LRBC 151700Z 1518/1603 VRB04KT 5000 BR OVC010"
    },
    {
      "icao": "LRBS",
      "alert": "OK",
      "vis_m": 5000,
      "fzfg": false,
      "metar_trigger": false,
      "taf_trigger": false,
      "metar": "METAR LRBS 151830Z 06007KT 5000 BR NSC M01/M02 Q1024 NOSIG",
      "taf": "TAF LRBS 151700Z 1518/1618 06007KT 5000 BR NSC"
    },
    {
      "icao": "LRBV",
      "alert": "OK",
      "vis_m": 9999,
      "fzfg": false,
      "metar_trigger": false,
      "taf_trigger": false,
      "metar": "METAR LRBV 151830Z 00000KT 9999 BKN009 OVC019 01/01 Q1022",
      "taf": "TAF LRBV 151700Z 1518/1603 VRB04KT 9999 SCT010 BKN040"
    },
    {
      "icao": "LRCL",
      "alert": "OK",
      "vis_m": 1800,
      "fzfg": false,
      "metar_trigger": false,
      "taf_trigger": false,
      "metar": "METAR LRCL 151830Z 00000KT 1800 DZ BR BKN005 OVC009 01/M00 Q1023",
      "taf": "TAF LRCL 151700Z 1518/1603 VRB04KT 3000 BR OVC015"
    },
    {
      "icao": "LRCV",
      "alert": "OK",
      "vis_m": 8000,
      "fzfg": false,
      "metar_trigger": false,
      "taf_trigger": false,
      "metar": "METAR LRCV 151830Z 11009KT 8000 NSC 01/00 Q1022",
      "taf": "TAF LRCV 151700Z 1518/1603 29008KT CAVOK"
    },
    {
      "icao": "LRIA",
      "alert": "OK",
      "vis_m": 9999,
      "fzfg": false,
      "metar_trigger": false,
      "taf_trigger": false,
      "metar": "METAR LRIA 151830Z 34004KT 290V360 9999 OVC034 M05/M07 Q1026",
      "taf": "TAF LRIA 151700Z 1518/1603 02006KT 5000 BR SCT010 OVC035"
    },
    {
      "icao": "LROP",
      "alert": "OK",
      "vis_m": 3500,
      "fzfg": false,
      "metar_trigger": false,
      "taf_trigger": false,
      "metar": "METAR LROP 151830Z 06006KT 3500 BR NSC M01/M03 Q1024 NOSIG",
      "taf": "TAF LROP 151700Z 1518/1618 06007KT 5000 BR NSC"
    },
    {
      "icao": "LRSB",
      "alert": "OK",
      "vis_m": 800,
      "fzfg": false,
      "metar_trigger": false,
      "taf_trigger": false,
      "metar": "METAR LRSB 151830Z 30002KT 0800 R27/1100N FG BKN001 OVC003 01/01 Q1022",
      "taf": "TAF LRSB 151700Z 1518/1618 VRB04KT 1500 BR BKN005 OVC010"
    },
    {
      "icao": "LRSM",
      "alert": "OK",
      "vis_m": 4300,
      "fzfg": false,
      "metar_trigger": false,
      "taf_trigger": false,
      "metar": "METAR LRSM 151830Z AUTO 03003KT 4300 BR OVC049/// 00/M01 Q1023",
      "taf": "TAF LRSM 151400Z 1515/1524 VRB04KT 5000 BR BKN005"
    },
    {
      "icao": "LRSV",
      "alert": "OK",
      "vis_m": 500,
      "fzfg": true,
      "metar_trigger": false,
      "taf_trigger": false,
      "metar": "METAR LRSV 151830Z 06005KT 0500 R34/1100U FZFG SG VV002 M07/M08 Q1023",
      "taf": "TAF LRSV 151700Z 1518/1603 07006KT 0300 FZFG VV001"
    },
    {
      "icao": "LRTM",
      "alert": "OK",
      "vis_m": 2300,
      "fzfg": false,
      "metar_trigger": false,
      "taf_trigger": false,
      "metar": "METAR LRTM 151830Z AUTO 06001KT 2300 BR SCT011/// OVC044/// 00/M00 Q1023",
      "taf": "TAF LRTM 151400Z 1515/1524 VRB04KT 3000 BR SCT010 BKN030"
    },
    {
      "icao": "LRTR",
      "alert": "OK",
      "vis_m": 4500,
      "fzfg": false,
      "metar_trigger": false,
      "taf_trigger": false,
      "metar": "METAR LRTR 151830Z 10006KT 4500 BR FEW044 01/01 Q1022",
      "taf": "TAF LRTR 151700Z 1518/1618 10006KT 5000 BR NSC"
    },
    {
      "icao": "LTAC",
      "alert": "OK",
      "vis_m": 9999,
      "fzfg": false,
      "metar_trigger": false,
      "taf_trigger": false,
      "metar": "METAR LTAC 151850Z 24008KT 9999 FEW015 SCT035 BKN090 02/M01 Q1022 NOSIG RMK RWY21C 23010KT RWY03L 24006KT RWY21R 22010KT RWY03R 24005KT RWY21L 24010KT",
      "taf": "TAF LTAC 151640Z 1518/1618 22008KT 9999 SCT035 BKN100"
    },
    {
      "icao": "LTFM",
      "alert": "OK",
      "vis_m": 9999,
      "fzfg": false,
      "metar_trigger": false,
      "taf_trigger": false,
      "metar": "METAR LTFM 151850Z 22010KT 9999 -RA SCT025 BKN070 10/07 Q1023 NOSIG RMK RWY17L 21012KT RWY34L 21010KT RWY16R 21008KT RWY36 22008KT RWY18 21010KT",
      "taf": "TAF LTFM 151640Z 1518/1624 23012KT 9999 FEW025 BKN070"
    },
    {
      "icao": "LUKK",
      "alert": "OK",
      "vis_m": 9999,
      "fzfg": false,
      "metar_trigger": false,
      "taf_trigger": false,
      "metar": "METAR LUKK 151900Z 04010KT CAVOK M09/M12 Q1027 NOSIG",
      "taf": "TAF LUKK 151717Z 1518/1618 01009KT CAVOK"
    },
    {
      "icao": "LWOH",
      "alert": "OK",
      "vis_m": 9999,
      "fzfg": false,
      "metar_trigger": false,
      "taf_trigger": false,
      "metar": "METAR LWOH 151850Z VRB01KT 9999 SCT040 01/M00 Q1024",
      "taf": "TAF LWOH 151740Z 1518/1618 VRB02KT 9999 FEW040"
    },
    {
      "icao": "LWSK",
      "alert": "OK",
      "vis_m": 9999,
      "fzfg": false,
      "metar_trigger": false,
      "taf_trigger": false,
      "metar": "METAR LWSK 151850Z 05003KT 350V120 CAVOK 01/M01 Q1025 NOSIG",
      "taf": "TAF LWSK 151740Z 1518/1618 VRB02KT CAVOK"
    },
    {
      "icao": "LYBE",
      "alert": "OK",
      "vis_m": 8000,
      "fzfg": false,
      "metar_trigger": false,
      "taf_trigger": false,
      "metar": "METAR LYBE 151900Z 17003KT 8000 NSC 05/02 Q1022 NOSIG",
      "taf": "TAF LYBE 151700Z 1518/1618 06004KT 8000 NSC TX08/1613Z TN02/1606Z"
    },
    {
      "icao": "LYNI",
      "alert": "OK",
      "vis_m": 9999,
      "fzfg": false,
      "metar_trigger": false,
      "taf_trigger": false,
      "metar": "METAR LYNI 151900Z 11003KT 9999 BKN067 06/04 Q1024 NOSIG",
      "taf": "TAF LYNI 151700Z 1518/1618 11004KT 6000 BKN060 TX07/1612Z TN01/1606Z"
    },
    {
      "icao": "LYPG",
      "alert": "OK",
      "vis_m": 9999,
      "fzfg": false,
      "metar_trigger": false,
      "taf_trigger": false,
      "metar": "METAR LYPG 151900Z 24003KT 9999 FEW050 BKN070 09/06 Q1025 NOSIG",
      "taf": "TAF LYPG 151700Z 1518/1618 VRB02KT 9999 SCT040 BKN080 TX14/1613Z TN05/1605Z"
    },
    {
      "icao": "LZIB",
      "alert": "OK",
      "vis_m": 4800,
      "fzfg": false,
      "metar_trigger": false,
      "taf_trigger": false,
      "metar": "METAR LZIB 151900Z 05005KT 4800 BR SCT012 OVC014 M00/M01 Q1022 TEMPO 1800 BR BKN008",
      "taf": "TAF LZIB 151715Z 1518/1618 06006KT 6000 FEW007 BKN016"
    },
    {
      "icao": "LZKZ",
      "alert": "OK",
      "vis_m": 6000,
      "fzfg": false,
      "metar_trigger": false,
      "taf_trigger": false,
      "metar": "METAR LZKZ 151900Z 00000KT 6000 BKN026 OVC044 M01/M02 Q1023 NOSIG",
      "taf": "TAF LZKZ 151715Z 1518/1618 VRB02KT 9999 BKN022"
    },
    {
      "icao": "LZTT",
      "alert": "OK",
      "vis_m": 8000,
      "fzfg": false,
      "metar_trigger": false,
      "taf_trigger": false,
      "metar": "METAR LZTT 151900Z 10001KT 8000 FEW010 BKN016 00/M01 Q1020",
      "taf": "TAF LZTT 151715Z 1518/1618 VRB02KT 9999 SCT010 OVC025"
    },
    {
      "icao": "OEJN",
      "alert": "OK",
      "vis_m": 9999,
      "fzfg": false,
      "metar_trigger": false,
      "taf_trigger": false,
      "metar": "METAR OEJN 151900Z 34003KT 9999 FEW040 24/10 Q1015 NOSIG",
      "taf": "TAF OEJN 151700Z 1518/1624 34010KT 7000 FEW040"
    },
    {
      "icao": "OEMA",
      "alert": "OK",
      "vis_m": 9999,
      "fzfg": false,
      "metar_trigger": false,
      "taf_trigger": false,
      "metar": "METAR OEMA 151900Z 07006KT CAVOK 18/M04 Q1023 NOSIG",
      "taf": "TAF OEMA 151700Z 1518/1624 09012KT 7000 NSC"
    },
    {
      "icao": "OJAI",
      "alert": "OK",
      "vis_m": 4500,
      "fzfg": false,
      "metar_trigger": false,
      "taf_trigger": false,
      "metar": "METAR OJAI 151800Z 27006KT 4500 HZ NSC 07/04 Q1025 NOSIG",
      "taf": "TAF OJAI 151653Z 1518/1624 29008KT 5000 HZ FEW030"
    },
    {
      "icao": "OMAA",
      "alert": "OK",
      "vis_m": 9999,
      "fzfg": false,
      "metar_trigger": false,
      "taf_trigger": false,
      "metar": "METAR OMAA 151900Z 32010KT CAVOK 21/12 Q1018 NOSIG",
      "taf": "TAF OMAA 151700Z 1518/1700 32012KT 8000 FEW030"
    },
    {
      "icao": "OMDB",
      "alert": "OK",
      "vis_m": 9999,
      "fzfg": false,
      "metar_trigger": false,
      "taf_trigger": false,
      "metar": "METAR OMDB 151900Z 30016KT CAVOK 22/11 Q1017 NOSIG",
      "taf": "TAF OMDB 151700Z 1518/1700 29015KT 8000 FEW025"
    },
    {
      "icao": "UAAA",
      "alert": "OK",
      "vis_m": 3500,
      "fzfg": false,
      "metar_trigger": false,
      "taf_trigger": false,
      "metar": "METAR UAAA 151830Z 29002MPS 240V330 3500 BR OVC004 M07/M09 Q1022 NOSIG RMK QBB130",
      "taf": "TAF UAAA 151703Z 1518/1618 32003G08MPS 1600 BR FU FEW004 BKN011CB OVC020 TXM08/1608Z TNM11/1603Z"
    },
    {
      "icao": "UBBB",
      "alert": "OK",
      "vis_m": 9999,
      "fzfg": false,
      "metar_trigger": false,
      "taf_trigger": false,
      "metar": "METAR UBBB 151900Z 19004KT CAVOK 01/M01 Q1023 NOSIG",
      "taf": "TAF UBBB 151701Z 1518/1618 VRB04KT CAVOK TX07/1512Z TNM01/1602Z"
    },
    {
      "icao": "UDSG",
      "alert": "OK",
      "vis_m": 9999,
      "fzfg": false,
      "metar_trigger": false,
      "taf_trigger": false,
      "metar": "METAR UDSG 151830Z 07006KT 9999 NSC M20/M23 Q1020 NOSIG",
      "taf": "TAF UDSG 151658Z 1518/1618 VRB06KT 9999 FEW040"
    },
    {
      "icao": "UDYZ",
      "alert": "OK",
      "vis_m": 9999,
      "fzfg": false,
      "metar_trigger": false,
      "taf_trigger": false,
      "metar": "METAR UDYZ 151830Z 09004KT 030V130 9999 NSC M04/M09 Q1022 NOSIG",
      "taf": "TAF UDYZ 151700Z 1518/1618 VRB04KT 6000 NSC"
    },
    {
      "icao": "UGKO",
      "alert": "OK",
      "vis_m": 9999,
      "fzfg": false,
      "metar_trigger": false,
      "taf_trigger": false,
      "metar": "METAR UGKO 151830Z AUTO 08011KT CAVOK M00/M02 Q1022 NOSIG",
      "taf": "TAF UGKO 151700Z 1518/1618 08007KT 9999 BKN050 TX02/1612Z TNM01/1518Z"
    }
  ]
}