{
  "ts_utc": "2026-04-29T12:56:52Z",
  "threshold_m": 150,
  "source": "stations_override.txt (ICAO list) + aviationweather.gov (METAR/TAF raw)",
  "station_count": 159,
  "stations": [
    {
      "icao": "BIKF",
      "alert": "OK",
      "vis_m": 9999,
      "fzfg": false,
      "metar_trigger": false,
      "taf_trigger": false,
      "metar": "METAR BIKF 291230Z 20023G33KT 9999 BKN028 BKN041 BKN059 06/01 Q1009",
      "taf": "TAF BIKF 291033Z 2912/3012 21022G32KT 9999 -SHRA BKN025 TX06/2915Z TN04/3005Z"
    },
    {
      "icao": "BKPR",
      "alert": "OK",
      "vis_m": null,
      "fzfg": false,
      "metar_trigger": false,
      "taf_trigger": false,
      "metar": "",
      "taf": "TAF BKPR 291130Z 2912/3012 01008KT 9999 BKN050"
    },
    {
      "icao": "EBCI",
      "alert": "OK",
      "vis_m": 9999,
      "fzfg": false,
      "metar_trigger": false,
      "taf_trigger": false,
      "metar": "METAR EBCI 291250Z 07018KT CAVOK 19/01 Q1022 TEMPO 06015G25KT",
      "taf": "TAF EBCI 291100Z 2912/3018 07014KT CAVOK"
    },
    {
      "icao": "EDDB",
      "alert": "OK",
      "vis_m": 9999,
      "fzfg": false,
      "metar_trigger": false,
      "taf_trigger": false,
      "metar": "METAR EDDB 291250Z AUTO 05010KT 340V090 CAVOK 13/M03 Q1030 NOSIG",
      "taf": "TAF EDDB 291100Z 2912/3012 07011KT CAVOK"
    },
    {
      "icao": "EDDH",
      "alert": "OK",
      "vis_m": 9999,
      "fzfg": false,
      "metar_trigger": false,
      "taf_trigger": false,
      "metar": "METAR EDDH 291250Z AUTO 05007KT 010V140 CAVOK 16/M01 Q1030 NOSIG",
      "taf": "TAF EDDH 291100Z 2912/3018 06008KT CAVOK"
    },
    {
      "icao": "EDDK",
      "alert": "OK",
      "vis_m": 9999,
      "fzfg": false,
      "metar_trigger": false,
      "taf_trigger": false,
      "metar": "METAR EDDK 291250Z AUTO 06012G22KT CAVOK 19/M02 Q1024 NOSIG",
      "taf": "TAF EDDK 291100Z 2912/3018 08012KT CAVOK"
    },
    {
      "icao": "EDDN",
      "alert": "OK",
      "vis_m": 9999,
      "fzfg": false,
      "metar_trigger": false,
      "taf_trigger": false,
      "metar": "METAR EDDN 291250Z AUTO 09012G22KT 020V130 CAVOK 17/M04 Q1023 NOSIG",
      "taf": "TAF EDDN 291100Z 2912/3012 07011KT CAVOK"
    },
    {
      "icao": "EDDS",
      "alert": "OK",
      "vis_m": 9999,
      "fzfg": false,
      "metar_trigger": false,
      "taf_trigger": false,
      "metar": "METAR EDDS 291250Z AUTO 05013KT CAVOK 19/02 Q1020 NOSIG",
      "taf": "TAF EDDS 291100Z 2912/3012 05010KT CAVOK"
    },
    {
      "icao": "EDFH",
      "alert": "OK",
      "vis_m": 9999,
      "fzfg": false,
      "metar_trigger": false,
      "taf_trigger": false,
      "metar": "METAR EDFH 291250Z 10008KT 030V160 CAVOK 16/M02 Q1023",
      "taf": "TAF EDFH 291100Z 2912/3012 05015G25KT CAVOK"
    },
    {
      "icao": "EDJA",
      "alert": "OK",
      "vis_m": 9999,
      "fzfg": false,
      "metar_trigger": false,
      "taf_trigger": false,
      "metar": "METAR EDJA 291250Z 05014KT CAVOK 17/01 Q1020",
      "taf": "TAF EDJA 291100Z 2912/2921 06012KT CAVOK"
    },
    {
      "icao": "EDLW",
      "alert": "OK",
      "vis_m": 9999,
      "fzfg": false,
      "metar_trigger": false,
      "taf_trigger": false,
      "metar": "METAR EDLW 291250Z 07012KT 010V110 CAVOK 16/M01 Q1026",
      "taf": "TAF EDLW 291100Z 2912/3012 06012KT CAVOK"
    },
    {
      "icao": "EDNY",
      "alert": "OK",
      "vis_m": 9999,
      "fzfg": false,
      "metar_trigger": false,
      "taf_trigger": false,
      "metar": "METAR EDNY 291250Z 06013KT 030V090 CAVOK 19/06 Q1019",
      "taf": "TAF EDNY 291100Z 2912/2921 05012KT CAVOK"
    },
    {
      "icao": "EDSB",
      "alert": "OK",
      "vis_m": 9999,
      "fzfg": false,
      "metar_trigger": false,
      "taf_trigger": false,
      "metar": "METAR EDSB 291250Z 03016KT CAVOK 20/03 Q1020",
      "taf": "TAF EDSB 291100Z 2912/3012 05015G25KT CAVOK"
    },
    {
      "icao": "EETN",
      "alert": "OK",
      "vis_m": 9999,
      "fzfg": false,
      "metar_trigger": false,
      "taf_trigger": false,
      "metar": "METAR EETN 291250Z 29011KT 270V340 CAVOK 07/M07 Q1025 NOSIG",
      "taf": "TAF EETN 290530Z 2906/3006 34010KT 9999 FEW045"
    },
    {
      "icao": "EFTU",
      "alert": "OK",
      "vis_m": 9999,
      "fzfg": false,
      "metar_trigger": false,
      "taf_trigger": false,
      "metar": "METAR EFTU 291250Z AUTO 30013KT 270V330 CAVOK 09/M07 Q1025",
      "taf": "TAF EFTU 291124Z 2912/3012 34010KT CAVOK"
    },
    {
      "icao": "EGBB",
      "alert": "OK",
      "vis_m": 9999,
      "fzfg": false,
      "metar_trigger": false,
      "taf_trigger": false,
      "metar": "METAR EGBB 291250Z 09019KT 060V120 CAVOK 18/M01 Q1025",
      "taf": "TAF EGBB 291058Z 2912/3012 07018G28KT CAVOK"
    },
    {
      "icao": "EGGP",
      "alert": "OK",
      "vis_m": 9999,
      "fzfg": false,
      "metar_trigger": false,
      "taf_trigger": false,
      "metar": "METAR EGGP 291250Z 09018KT 060V120 CAVOK 17/02 Q1026",
      "taf": "TAF EGGP 291055Z 2912/3012 09015KT CAVOK"
    },
    {
      "icao": "EGGW",
      "alert": "OK",
      "vis_m": 9999,
      "fzfg": false,
      "metar_trigger": false,
      "taf_trigger": false,
      "metar": "METAR EGGW 291250Z AUTO 10017KT 9999 NCD 17/M01 Q1024",
      "taf": "TAF EGGW 291055Z 2912/3012 07018G31KT CAVOK"
    },
    {
      "icao": "EGKK",
      "alert": "OK",
      "vis_m": 9999,
      "fzfg": false,
      "metar_trigger": false,
      "taf_trigger": false,
      "metar": "METAR EGKK 291250Z 06019KT CAVOK 17/05 Q1022",
      "taf": "TAF EGKK 291053Z 2912/3018 07020G30KT CAVOK"
    },
    {
      "icao": "EGNM",
      "alert": "OK",
      "vis_m": 9999,
      "fzfg": false,
      "metar_trigger": false,
      "taf_trigger": false,
      "metar": "METAR EGNM 291250Z 09012KT CAVOK 15/03 Q1029",
      "taf": "TAF EGNM 291056Z 2912/3012 09012KT CAVOK"
    },
    {
      "icao": "EGPD",
      "alert": "OK",
      "vis_m": 9999,
      "fzfg": false,
      "metar_trigger": false,
      "taf_trigger": false,
      "metar": "METAR EGPD 291250Z COR AUTO 16011KT 9999 NCD 14/07 Q1031 NOSIG",
      "taf": "TAF EGPD 291058Z 2912/3012 16009KT CAVOK"
    },
    {
      "icao": "EGPF",
      "alert": "OK",
      "vis_m": 9999,
      "fzfg": false,
      "metar_trigger": false,
      "taf_trigger": false,
      "metar": "METAR EGPF 291250Z AUTO 06007KT 010V130 9999 NCD 17/07 Q1030",
      "taf": "TAF EGPF 291055Z 2912/3012 08009KT CAVOK"
    },
    {
      "icao": "EHBK",
      "alert": "OK",
      "vis_m": 9999,
      "fzfg": false,
      "metar_trigger": false,
      "taf_trigger": false,
      "metar": "METAR EHBK 291225Z AUTO 06015KT 020V100 9999 NCD 18/M00 Q1023 NOSIG",
      "taf": "TAF EHBK 291057Z 2912/3018 06016KT CAVOK"
    },
    {
      "icao": "EHEH",
      "alert": "OK",
      "vis_m": 9999,
      "fzfg": false,
      "metar_trigger": false,
      "taf_trigger": false,
      "metar": "METAR EHEH 291225Z AUTO 07014KT 040V130 9999 NCD 18/M01 Q1025 BLU NOSIG",
      "taf": "TAF EHEH 291103Z 2912/3018 06015KT CAVOK"
    },
    {
      "icao": "EKBI",
      "alert": "OK",
      "vis_m": 9999,
      "fzfg": false,
      "metar_trigger": false,
      "taf_trigger": false,
      "metar": "METAR EKBI 291250Z AUTO VRB02KT 9999 NCD 16/M02 Q1031",
      "taf": "TAF EKBI 291127Z 2912/3012 28005KT 9999 FEW020"
    },
    {
      "icao": "EKCH",
      "alert": "OK",
      "vis_m": 9999,
      "fzfg": false,
      "metar_trigger": false,
      "taf_trigger": false,
      "metar": "METAR EKCH 291250Z AUTO 14004KT 080V200 9999 NCD 14/M02 Q1031 NOSIG",
      "taf": "TAF EKCH 291127Z 2912/3012 17005KT CAVOK"
    },
    {
      "icao": "ENAL",
      "alert": "OK",
      "vis_m": 9999,
      "fzfg": false,
      "metar_trigger": false,
      "taf_trigger": false,
      "metar": "METAR ENAL 291250Z 25022KT 9999 FEW025 12/06 Q1030",
      "taf": "TAF ENAL 291100Z 2912/2921 25018KT 9999 FEW025"
    },
    {
      "icao": "ENBR",
      "alert": "OK",
      "vis_m": 9999,
      "fzfg": false,
      "metar_trigger": false,
      "taf_trigger": false,
      "metar": "METAR ENBR 291250Z 33010KT CAVOK 11/05 Q1032 NOSIG RMK WIND 1200FT 30010KT",
      "taf": "TAF ENBR 291100Z 2912/3012 33007KT 9999 FEW012"
    },
    {
      "icao": "ENGM",
      "alert": "OK",
      "vis_m": 9999,
      "fzfg": false,
      "metar_trigger": false,
      "taf_trigger": false,
      "metar": "METAR ENGM 291250Z 20011KT CAVOK 16/M00 Q1027 NOSIG",
      "taf": "TAF ENGM 291100Z 2912/3012 19010KT CAVOK"
    },
    {
      "icao": "ENHD",
      "alert": "OK",
      "vis_m": 9999,
      "fzfg": false,
      "metar_trigger": false,
      "taf_trigger": false,
      "metar": "METAR ENHD 291250Z 34011KT CAVOK 10/05 Q1032",
      "taf": "TAF ENHD 291100Z 2912/2921 34012KT 9999 FEW015"
    },
    {
      "icao": "ENTC",
      "alert": "OK",
      "vis_m": 9999,
      "fzfg": false,
      "metar_trigger": false,
      "taf_trigger": false,
      "metar": "METAR ENTC 291250Z 22015KT 9999 -RASN BKN029 02/M00 Q1017 TEMPO BKN012 RMK WIND 2600FT 19017KT",
      "taf": "TAF ENTC 291100Z 2912/3012 20010KT 9999 BKN030"
    },
    {
      "icao": "ENTO",
      "alert": "OK",
      "vis_m": 9999,
      "fzfg": false,
      "metar_trigger": false,
      "taf_trigger": false,
      "metar": "METAR ENTO 291250Z 18011KT CAVOK 14/02 Q1029 NOSIG",
      "taf": "TAF ENTO 291100Z 2912/3012 19010KT CAVOK"
    },
    {
      "icao": "ENVA",
      "alert": "OK",
      "vis_m": 9999,
      "fzfg": false,
      "metar_trigger": false,
      "taf_trigger": false,
      "metar": "METAR ENVA 291250Z 27009KT 9999 BKN025 09/06 Q1028 NOSIG RMK WIND 670FT 28015KT",
      "taf": "TAF ENVA 291100Z 2912/3012 28009KT 9999 SCT015 BKN025"
    },
    {
      "icao": "ENZV",
      "alert": "OK",
      "vis_m": 9999,
      "fzfg": false,
      "metar_trigger": false,
      "taf_trigger": false,
      "metar": "METAR ENZV 291250Z 29012KT CAVOK 11/07 Q1032 NOSIG",
      "taf": "TAF ENZV 291100Z 2912/3012 34008KT CAVOK"
    },
    {
      "icao": "EPGD",
      "alert": "OK",
      "vis_m": 9999,
      "fzfg": false,
      "metar_trigger": false,
      "taf_trigger": false,
      "metar": "METAR EPGD 291230Z 07009KT 020V100 9999 FEW048 07/M04 Q1030",
      "taf": "TAF EPGD 291130Z 2912/3012 04010KT CAVOK"
    },
    {
      "icao": "EPKK",
      "alert": "OK",
      "vis_m": 9999,
      "fzfg": false,
      "metar_trigger": false,
      "taf_trigger": false,
      "metar": "METAR EPKK 291230Z 02010KT 330V080 CAVOK 09/M11 Q1026",
      "taf": "TAF EPKK 291130Z 2912/3012 03010KT CAVOK"
    },
    {
      "icao": "EPKT",
      "alert": "OK",
      "vis_m": 9999,
      "fzfg": false,
      "metar_trigger": false,
      "taf_trigger": false,
      "metar": "METAR EPKT 291230Z 36012KT 320V030 CAVOK 08/M09 Q1026",
      "taf": "TAF EPKT 291130Z 2912/3012 36011KT CAVOK"
    },
    {
      "icao": "EPLB",
      "alert": "OK",
      "vis_m": 9999,
      "fzfg": false,
      "metar_trigger": false,
      "taf_trigger": false,
      "metar": "METAR EPLB 291230Z 35008KT CAVOK 07/M06 Q1026",
      "taf": "TAF EPLB 291130Z 2912/3012 36010KT 9999 BKN046"
    },
    {
      "icao": "EPMO",
      "alert": "OK",
      "vis_m": 9999,
      "fzfg": false,
      "metar_trigger": false,
      "taf_trigger": false,
      "metar": "METAR EPMO 291230Z 35008KT 310V050 9999 SCT048 07/M05 Q1028",
      "taf": "TAF EPMO 291130Z 2912/3012 36012KT 9999 BKN046"
    },
    {
      "icao": "EPPO",
      "alert": "OK",
      "vis_m": 9999,
      "fzfg": false,
      "metar_trigger": false,
      "taf_trigger": false,
      "metar": "METAR EPPO 291230Z 03011G26KT 350V060 9999 FEW065TCU 10/M07 Q1030",
      "taf": "TAF EPPO 291130Z 2912/3012 03010KT CAVOK"
    },
    {
      "icao": "EPRA",
      "alert": "OK",
      "vis_m": 9999,
      "fzfg": false,
      "metar_trigger": false,
      "taf_trigger": false,
      "metar": "METAR EPRA 291230Z 02008KT 350V050 CAVOK 06/M06 Q1027",
      "taf": "TAF EPRA 291130Z 2912/2921 34010KT 9999 SCT040"
    },
    {
      "icao": "EPRZ",
      "alert": "OK",
      "vis_m": 9999,
      "fzfg": false,
      "metar_trigger": false,
      "taf_trigger": false,
      "metar": "METAR EPRZ 291230Z 01009KT CAVOK 09/M09 Q1025",
      "taf": "TAF EPRZ 291130Z 2912/3012 35010KT CAVOK"
    },
    {
      "icao": "EPSC",
      "alert": "OK",
      "vis_m": 9999,
      "fzfg": false,
      "metar_trigger": false,
      "taf_trigger": false,
      "metar": "METAR EPSC 291230Z 31006KT 240V330 CAVOK 13/M05 Q1030",
      "taf": "TAF EPSC 291130Z 2912/3012 VRB05KT CAVOK"
    },
    {
      "icao": "EPSY",
      "alert": "OK",
      "vis_m": 9999,
      "fzfg": false,
      "metar_trigger": false,
      "taf_trigger": false,
      "metar": "METAR EPSY 291230Z 36008KT 310V040 9999 SCT049 07/M05 Q1028",
      "taf": "TAF EPSY 291130Z 2912/2921 02010KT CAVOK"
    },
    {
      "icao": "EPWA",
      "alert": "OK",
      "vis_m": 9999,
      "fzfg": false,
      "metar_trigger": false,
      "taf_trigger": false,
      "metar": "METAR EPWA 291230Z 36010KT 9999 FEW048 08/M05 Q1028 NOSIG",
      "taf": "TAF EPWA 291130Z 2912/3012 36010KT CAVOK"
    },
    {
      "icao": "EPWR",
      "alert": "OK",
      "vis_m": 9999,
      "fzfg": false,
      "metar_trigger": false,
      "taf_trigger": false,
      "metar": "METAR EPWR 291230Z 04013KT 360V100 CAVOK 11/M10 Q1028",
      "taf": "TAF EPWR 291130Z 2912/3012 04010KT CAVOK"
    },
    {
      "icao": "ESGG",
      "alert": "OK",
      "vis_m": 9999,
      "fzfg": false,
      "metar_trigger": false,
      "taf_trigger": false,
      "metar": "METAR ESGG 291250Z 27011KT 240V310 CAVOK 15/01 Q1029",
      "taf": "TAF ESGG 291130Z 2912/3012 29008KT CAVOK"
    },
    {
      "icao": "ESKN",
      "alert": "OK",
      "vis_m": 9999,
      "fzfg": false,
      "metar_trigger": false,
      "taf_trigger": false,
      "metar": "METAR ESKN 291250Z 14009KT CAVOK 10/M01 Q1028",
      "taf": "TAF ESKN 291130Z 2912/3012 14010KT CAVOK"
    },
    {
      "icao": "ESMS",
      "alert": "OK",
      "vis_m": 9999,
      "fzfg": false,
      "metar_trigger": false,
      "taf_trigger": false,
      "metar": "METAR ESMS 291250Z 29014KT CAVOK 14/M02 Q1029",
      "taf": "TAF ESMS 291127Z 2912/3012 32009KT CAVOK"
    },
    {
      "icao": "ESSA",
      "alert": "OK",
      "vis_m": 9999,
      "fzfg": false,
      "metar_trigger": false,
      "taf_trigger": false,
      "metar": "METAR ESSA 291250Z 27012KT CAVOK 12/M06 Q1026 NOSIG",
      "taf": "TAF ESSA 291130Z 2912/3012 25009KT CAVOK"
    },
    {
      "icao": "EYKA",
      "alert": "OK",
      "vis_m": 9999,
      "fzfg": false,
      "metar_trigger": false,
      "taf_trigger": false,
      "metar": "METAR EYKA 291250Z 36005KT 280V070 CAVOK 08/M05 Q1026",
      "taf": "TAF EYKA 291100Z 2912/3012 33010KT 9000 SCT045"
    },
    {
      "icao": "EYPA",
      "alert": "OK",
      "vis_m": 9999,
      "fzfg": false,
      "metar_trigger": false,
      "taf_trigger": false,
      "metar": "METAR EYPA 291250Z 34009G19KT 250V050 CAVOK 06/M02 Q1028",
      "taf": "TAF EYPA 291100Z 2912/3012 33010KT 9000 NSC"
    },
    {
      "icao": "EYVI",
      "alert": "OK",
      "vis_m": 9999,
      "fzfg": false,
      "metar_trigger": false,
      "taf_trigger": false,
      "metar": "METAR EYVI 291250Z 35008KT 320V020 CAVOK 06/M05 Q1025 NOSIG",
      "taf": "TAF EYVI 291100Z 2912/3012 32008KT 9000 NSC"
    },
    {
      "icao": "GCFV",
      "alert": "OK",
      "vis_m": 9999,
      "fzfg": false,
      "metar_trigger": false,
      "taf_trigger": false,
      "metar": "METAR GCFV 291230Z 06004KT 030V100 9999 BKN035 20/12 Q1014",
      "taf": "TAF GCFV 290800Z 2909/3009 08005KT 9999 BKN030 TX21/2914Z TN17/3006Z"
    },
    {
      "icao": "GCLP",
      "alert": "OK",
      "vis_m": 9999,
      "fzfg": false,
      "metar_trigger": false,
      "taf_trigger": false,
      "metar": "METAR GCLP 291230Z 11006KT 9999 FEW030 BKN045 19/14 Q1014 NOSIG",
      "taf": "TAF GCLP 290800Z 2909/3009 04006KT 9999 BKN040 TX23/2914Z TN16/3006Z"
    },
    {
      "icao": "GCTS",
      "alert": "OK",
      "vis_m": 9999,
      "fzfg": false,
      "metar_trigger": false,
      "taf_trigger": false,
      "metar": "METAR GCTS 291230Z 16006KT 130V210 9999 BKN050 20/13 Q1014 NOSIG",
      "taf": "TAF GCTS 290800Z 2909/3009 09005KT 9999 BKN030 TX23/2914Z TN16/3006Z"
    },
    {
      "icao": "GMAD",
      "alert": "OK",
      "vis_m": 9999,
      "fzfg": false,
      "metar_trigger": false,
      "taf_trigger": false,
      "metar": "METAR GMAD 291230Z 26009KT 220V330 9999 BKN026 25/14 Q1010 NOSIG",
      "taf": "TAF GMAD 291100Z 2912/3018 30004KT 9999 BKN026"
    },
    {
      "icao": "GMMN",
      "alert": "OK",
      "vis_m": 9999,
      "fzfg": false,
      "metar_trigger": false,
      "taf_trigger": false,
      "metar": "METAR GMMN 291230Z 36007KT 320V030 9999 BKN020 19/15 Q1012 NOSIG",
      "taf": "TAF GMMN 291100Z 2912/3018 03007KT 9999 SCT020 SCT040"
    },
    {
      "icao": "GMMX",
      "alert": "OK",
      "vis_m": 8000,
      "fzfg": false,
      "metar_trigger": false,
      "taf_trigger": false,
      "metar": "METAR GMMX 291230Z 32004KT 240V050 8000 BKN023 19/14 Q1012 NOSIG",
      "taf": "TAF GMMX 291100Z 2912/3018 04006KT 8000 BKN023"
    },
    {
      "icao": "HEGN",
      "alert": "OK",
      "vis_m": null,
      "fzfg": false,
      "metar_trigger": false,
      "taf_trigger": false,
      "metar": "",
      "taf": "TAF HEGN 291100Z 2912/3018 36008G20KT CAVOK"
    },
    {
      "icao": "HEMA",
      "alert": "OK",
      "vis_m": null,
      "fzfg": false,
      "metar_trigger": false,
      "taf_trigger": false,
      "metar": "",
      "taf": "TAF HEMA 291100Z 2912/3018 35008G20KT CAVOK"
    },
    {
      "icao": "HESH",
      "alert": "OK",
      "vis_m": null,
      "fzfg": false,
      "metar_trigger": false,
      "taf_trigger": false,
      "metar": "",
      "taf": "TAF HESH 291100Z 2912/3018 12012KT CAVOK"
    },
    {
      "icao": "HESX",
      "alert": "OK",
      "vis_m": null,
      "fzfg": false,
      "metar_trigger": false,
      "taf_trigger": false,
      "metar": "",
      "taf": "TAF HESX 291100Z 2912/3018 30010KT CAVOK"
    },
    {
      "icao": "LATI",
      "alert": "OK",
      "vis_m": 9999,
      "fzfg": false,
      "metar_trigger": false,
      "taf_trigger": false,
      "metar": "METAR LATI 291250Z 26009KT CAVOK 24/12 Q1016 NOSIG",
      "taf": "TAF LATI 291100Z 2912/3012 28010KT CAVOK TX27/2912Z TN11/3003Z"
    },
    {
      "icao": "LBPD",
      "alert": "OK",
      "vis_m": 9999,
      "fzfg": false,
      "metar_trigger": false,
      "taf_trigger": false,
      "metar": "METAR LBPD 291230Z AUTO 11010KT 9999 BKN110/// 18/09 Q1016 NOSIG",
      "taf": "TAF LBPD 291100Z 2912/3012 13012KT 9999 SCT060"
    },
    {
      "icao": "LBSF",
      "alert": "OK",
      "vis_m": 9999,
      "fzfg": false,
      "metar_trigger": false,
      "taf_trigger": false,
      "metar": "METAR LBSF 291230Z 30006KT 250V020 9999 SCT050 BKN066 21/07 Q1016 NOSIG",
      "taf": "TAF LBSF 291100Z 2912/3012 VRB03KT 9999 SCT030 BKN070"
    },
    {
      "icao": "LBWN",
      "alert": "OK",
      "vis_m": 9999,
      "fzfg": false,
      "metar_trigger": false,
      "taf_trigger": false,
      "metar": "METAR LBWN 291230Z 11015KT 9999 FEW026 14/08 Q1018 NOSIG",
      "taf": "TAF LBWN 291100Z 2912/3012 12014KT 9999 SCT040"
    },
    {
      "icao": "LCLK",
      "alert": "OK",
      "vis_m": 9999,
      "fzfg": false,
      "metar_trigger": false,
      "taf_trigger": false,
      "metar": "METAR LCLK 291230Z 21018KT 9999 FEW025 FEW035CB 25/17 Q1013 NOSIG RMK CB TO N",
      "taf": "TAF LCLK 291130Z 2912/3012 21017KT 9999 FEW025"
    },
    {
      "icao": "LCPH",
      "alert": "OK",
      "vis_m": 9999,
      "fzfg": false,
      "metar_trigger": false,
      "taf_trigger": false,
      "metar": "METAR LCPH 291230Z 25005KT 9999 SCT015 FEW030CB 22/16 Q1013 NOSIG RMK DISTANT CB TO N",
      "taf": "TAF LCPH 291130Z 2912/3012 26010KT 9999 FEW015 SCT020"
    },
    {
      "icao": "LEAL",
      "alert": "OK",
      "vis_m": 9999,
      "fzfg": false,
      "metar_trigger": false,
      "taf_trigger": false,
      "metar": "METAR LEAL 291230Z 11011KT 080V140 9999 SCT035 22/15 Q1011 NOSIG",
      "taf": "TAF LEAL 291100Z 2912/3012 11010KT 9999 FEW030 TX24/2913Z TN14/3005Z"
    },
    {
      "icao": "LEBB",
      "alert": "OK",
      "vis_m": 8000,
      "fzfg": false,
      "metar_trigger": false,
      "taf_trigger": false,
      "metar": "METAR LEBB 291230Z 10005KT 050V160 8000 FEW028 22/17 Q1007 NOSIG",
      "taf": "TAF LEBB 291100Z 2912/3012 12009KT 9999 SCT015 BKN030 TX24/2913Z TN12/3006Z"
    },
    {
      "icao": "LEBL",
      "alert": "OK",
      "vis_m": 9999,
      "fzfg": false,
      "metar_trigger": false,
      "taf_trigger": false,
      "metar": "METAR LEBL 291230Z 06015KT 9999 FEW020 21/16 Q1013 NOSIG",
      "taf": "TAF LEBL 291100Z 2912/3012 07012KT 9999 FEW020 TX22/2912Z TN16/3005Z"
    },
    {
      "icao": "LECH",
      "alert": "OK",
      "vis_m": 9999,
      "fzfg": false,
      "metar_trigger": false,
      "taf_trigger": false,
      "metar": "METAR LECH 291230Z AUTO 10010KT 070V140 9999 FEW021 19/13 Q1012",
      "taf": "TAF LECH 291100Z 2912/3012 09010KT 9999 SCT025 TX24/3012Z TN11/3005Z"
    },
    {
      "icao": "LEMD",
      "alert": "OK",
      "vis_m": 9999,
      "fzfg": false,
      "metar_trigger": false,
      "taf_trigger": false,
      "metar": "METAR LEMD 291230Z 16013KT 130V190 9999 FEW030CB SCT070 20/12 Q1009 NOSIG",
      "taf": "TAF LEMD 291100Z 2912/3018 16007KT 9999 SCT045 TX20/2915Z TN10/3005Z"
    },
    {
      "icao": "LEMG",
      "alert": "OK",
      "vis_m": 9999,
      "fzfg": false,
      "metar_trigger": false,
      "taf_trigger": false,
      "metar": "METAR LEMG 291230Z 12009KT 100V160 9999 FEW015 SCT036 20/15 Q1011 NOSIG",
      "taf": "TAF LEMG 291100Z 2912/3012 VRB03KT 9999 BKN020 TX21/2914Z TN15/3006Z"
    },
    {
      "icao": "LEVC",
      "alert": "OK",
      "vis_m": 9999,
      "fzfg": false,
      "metar_trigger": false,
      "taf_trigger": false,
      "metar": "METAR LEVC 291230Z 08009KT 020V120 9999 FEW027 SCT040 22/12 Q1011 NOSIG",
      "taf": "TAF LEVC 291100Z 2912/3012 09010KT 9999 SCT040 TX25/2913Z TN13/3005Z"
    },
    {
      "icao": "LEXJ",
      "alert": "OK",
      "vis_m": 9000,
      "fzfg": false,
      "metar_trigger": false,
      "taf_trigger": false,
      "metar": "METAR LEXJ 291230Z 04004KT 340V110 9000 -RA FEW010 OVC024 15/14 Q1007",
      "taf": "TAF LEXJ 290800Z 2909/3009 33007KT 9999 SCT010 BKN020 TX19/2914Z TN12/3005Z"
    },
    {
      "icao": "LEZG",
      "alert": "OK",
      "vis_m": 9999,
      "fzfg": false,
      "metar_trigger": false,
      "taf_trigger": false,
      "metar": "METAR LEZG 291230Z 09011KT 060V140 9999 FEW030 22/12 Q1010 TEMPO 2000 TSRA FEW040CB",
      "taf": "TAF LEZG 291100Z 2912/3012 11010KT 9999 SCT060 TX26/2914Z TN13/3005Z"
    },
    {
      "icao": "LEZL",
      "alert": "OK",
      "vis_m": 9999,
      "fzfg": false,
      "metar_trigger": false,
      "taf_trigger": false,
      "metar": "METAR LEZL 291230Z 22009KT 9999 SCT027 BKN034 BKN046 19/16 Q1011 NOSIG",
      "taf": "TAF LEZL 290800Z 2909/3009 20008KT 9999 BKN020 TX23/2915Z TN12/3006Z"
    },
    {
      "icao": "LFBD",
      "alert": "OK",
      "vis_m": 9999,
      "fzfg": false,
      "metar_trigger": false,
      "taf_trigger": false,
      "metar": "METAR LFBD 291230Z AUTO 12010KT 9999 -RA SCT028/// SCT039/// BKN056/// ///TCU 19/14 Q1010 BECMG NSC",
      "taf": "TAF LFBD 291100Z 2912/3018 13005KT CAVOK TX24/2915Z TN15/3005Z"
    },
    {
      "icao": "LFLL",
      "alert": "OK",
      "vis_m": 9999,
      "fzfg": false,
      "metar_trigger": false,
      "taf_trigger": false,
      "metar": "METAR LFLL 291230Z VRB04KT 9999 FEW040 BKN260 22/13 Q1015 NOSIG",
      "taf": "TAF LFLL 291100Z 2912/3018 10004KT CAVOK"
    },
    {
      "icao": "LFLS",
      "alert": "OK",
      "vis_m": 9999,
      "fzfg": false,
      "metar_trigger": false,
      "taf_trigger": false,
      "metar": "METAR LFLS 291230Z AUTO VRB02KT 9999 BKN037 BKN043 21/12 Q1015 BECMG FEW055TCU",
      "taf": "TAF LFLS 290800Z 2909/3009 VRB03KT CAVOK"
    },
    {
      "icao": "LFMN",
      "alert": "OK",
      "vis_m": 9999,
      "fzfg": false,
      "metar_trigger": false,
      "taf_trigger": false,
      "metar": "METAR LFMN 291230Z 07003KT 350V130 CAVOK 21/12 Q1015 NOSIG",
      "taf": "TAF LFMN 290800Z 2909/3015 10010KT CAVOK"
    },
    {
      "icao": "LFOB",
      "alert": "OK",
      "vis_m": 9999,
      "fzfg": false,
      "metar_trigger": false,
      "taf_trigger": false,
      "metar": "METAR LFOB 291230Z AUTO 07017KT CAVOK 22/06 Q1018 TEMPO 08015G27KT",
      "taf": "TAF LFOB 291100Z 2912/3012 08013KT CAVOK"
    },
    {
      "icao": "LFPO",
      "alert": "OK",
      "vis_m": 9999,
      "fzfg": false,
      "metar_trigger": false,
      "taf_trigger": false,
      "metar": "METAR LFPO 291230Z 07018KT CAVOK 22/07 Q1016 NOSIG",
      "taf": "TAF LFPO 291100Z 2912/3018 08012KT CAVOK"
    },
    {
      "icao": "LFSB",
      "alert": "OK",
      "vis_m": 9999,
      "fzfg": false,
      "metar_trigger": false,
      "taf_trigger": false,
      "metar": "METAR LFSB 291230Z AUTO 35006KT 310V040 CAVOK 20/07 Q1018 NOSIG",
      "taf": "TAF LFSB 291100Z 2912/3012 03005KT CAVOK"
    },
    {
      "icao": "LGAV",
      "alert": "OK",
      "vis_m": 9999,
      "fzfg": false,
      "metar_trigger": false,
      "taf_trigger": false,
      "metar": "METAR LGAV 291250Z 08007KT 050V110 CAVOK 24/04 Q1016 NOSIG",
      "taf": "TAF LGAV 291100Z 2912/3012 VRB05KT 9999 FEW030"
    },
    {
      "icao": "LGTS",
      "alert": "OK",
      "vis_m": 9999,
      "fzfg": false,
      "metar_trigger": false,
      "taf_trigger": false,
      "metar": "METAR LGTS 291250Z 20011KT 9999 FEW020 21/11 Q1016 NOSIG",
      "taf": "TAF LGTS 291100Z 2912/3012 17010KT 9999 FEW030"
    },
    {
      "icao": "LHBP",
      "alert": "OK",
      "vis_m": 9999,
      "fzfg": false,
      "metar_trigger": false,
      "taf_trigger": false,
      "metar": "METAR LHBP 291230Z 30007KT 200V360 CAVOK 17/M06 Q1021 NOSIG",
      "taf": "TAF LHBP 291115Z 2912/3012 02008KT CAVOK"
    },
    {
      "icao": "LHDC",
      "alert": "OK",
      "vis_m": 9999,
      "fzfg": false,
      "metar_trigger": false,
      "taf_trigger": false,
      "metar": "METAR LHDC 291215Z AUTO 36014G24KT 320V030 CAVOK 15/M07 Q1021 NOSIG",
      "taf": "TAF LHDC 291115Z 2912/2921 02013KT CAVOK"
    },
    {
      "icao": "LIBD",
      "alert": "OK",
      "vis_m": 9999,
      "fzfg": false,
      "metar_trigger": false,
      "taf_trigger": false,
      "metar": "METAR LIBD 291250Z 06007KT 030V100 CAVOK 24/12 Q1014",
      "taf": "TAF LIBD 291100Z 2912/3012 06010KT 9999 FEW040"
    },
    {
      "icao": "LIBG",
      "alert": "OK",
      "vis_m": 9999,
      "fzfg": false,
      "metar_trigger": false,
      "taf_trigger": false,
      "metar": "METAR LIBG 291150Z 18005KT CAVOK 25/12 Q1015",
      "taf": "TAF LIBG 291100Z 2912/2921 17010KT 9999 FEW030"
    },
    {
      "icao": "LIBP",
      "alert": "OK",
      "vis_m": 9999,
      "fzfg": false,
      "metar_trigger": false,
      "taf_trigger": false,
      "metar": "METAR LIBP 291250Z AUTO 06007KT 020V090 9999 NCD 22/14 Q1014",
      "taf": "TAF LIBP 291100Z 2912/3012 05010KT 9999 SCT020"
    },
    {
      "icao": "LIBR",
      "alert": "OK",
      "vis_m": 9999,
      "fzfg": false,
      "metar_trigger": false,
      "taf_trigger": false,
      "metar": "METAR LIBR 291250Z 11010KT CAVOK 23/17 Q1015",
      "taf": "TAF LIBR 291100Z 2912/3012 11010KT CAVOK"
    },
    {
      "icao": "LICA",
      "alert": "OK",
      "vis_m": 9999,
      "fzfg": false,
      "metar_trigger": false,
      "taf_trigger": false,
      "metar": "METAR LICA 291250Z AUTO 28014KT 9999 NCD 24/09 Q1015",
      "taf": "TAF LICA 291100Z 2912/3012 26012KT 9999 SCT040"
    },
    {
      "icao": "LICC",
      "alert": "OK",
      "vis_m": 9999,
      "fzfg": false,
      "metar_trigger": false,
      "taf_trigger": false,
      "metar": "METAR LICC 291250Z 06011KT CAVOK 21/15 Q1016",
      "taf": "TAF LICC 291100Z 2912/3012 09013KT 9999 SCT040"
    },
    {
      "icao": "LICJ",
      "alert": "OK",
      "vis_m": 9999,
      "fzfg": false,
      "metar_trigger": false,
      "taf_trigger": false,
      "metar": "METAR LICJ 291250Z 07014KT CAVOK 23/11 Q1014",
      "taf": "TAF LICJ 291100Z 2912/3012 05010KT 9999 SCT040"
    },
    {
      "icao": "LIMC",
      "alert": "OK",
      "vis_m": 9999,
      "fzfg": false,
      "metar_trigger": false,
      "taf_trigger": false,
      "metar": "METAR LIMC 291250Z VRB03KT 9999 SCT045 22/11 Q1016 NOSIG",
      "taf": "TAF LIMC 291100Z 2912/3018 VRB05KT 9999 SCT060"
    },
    {
      "icao": "LIME",
      "alert": "OK",
      "vis_m": 9999,
      "fzfg": false,
      "metar_trigger": false,
      "taf_trigger": false,
      "metar": "METAR LIME 291250Z 22004KT 160V260 9999 SCT050 SCT080 21/10 Q1016 NOSIG",
      "taf": "TAF LIME 291100Z 2912/3012 VRB05KT 9999 SCT050"
    },
    {
      "icao": "LIMF",
      "alert": "OK",
      "vis_m": 9999,
      "fzfg": false,
      "metar_trigger": false,
      "taf_trigger": false,
      "metar": "METAR LIMF 291250Z VRB04KT 9999 FEW090 20/12 Q1017",
      "taf": "TAF LIMF 291100Z 2912/3012 VRB05KT 9999 SCT050"
    },
    {
      "icao": "LIMJ",
      "alert": "OK",
      "vis_m": 9999,
      "fzfg": false,
      "metar_trigger": false,
      "taf_trigger": false,
      "metar": "METAR LIMJ 291250Z 17005KT 9999 FEW032 19/13 Q1015",
      "taf": "TAF LIMJ 291100Z 2912/3012 VRB06KT 9999 FEW040"
    },
    {
      "icao": "LIPE",
      "alert": "OK",
      "vis_m": 9999,
      "fzfg": false,
      "metar_trigger": false,
      "taf_trigger": false,
      "metar": "METAR LIPE 291250Z 06006KT 020V110 9999 SCT040 23/12 Q1015",
      "taf": "TAF LIPE 291100Z 2912/3012 VRB05KT 9999 SCT030"
    },
    {
      "icao": "LIPH",
      "alert": "OK",
      "vis_m": 9999,
      "fzfg": false,
      "metar_trigger": false,
      "taf_trigger": false,
      "metar": "METAR LIPH 291250Z 07014KT 010V110 CAVOK 20/09 Q1017",
      "taf": "TAF LIPH 291100Z 2912/3012 06010KT 9999 SCT050"
    },
    {
      "icao": "LIPQ",
      "alert": "OK",
      "vis_m": 9999,
      "fzfg": false,
      "metar_trigger": false,
      "taf_trigger": false,
      "metar": "METAR LIPQ 291250Z AUTO 05010KT 9999 BKN067/// 16/09 Q1018",
      "taf": "TAF LIPQ 291100Z 2912/3012 07012KT 9999 BKN050"
    },
    {
      "icao": "LIPR",
      "alert": "OK",
      "vis_m": 9999,
      "fzfg": false,
      "metar_trigger": false,
      "taf_trigger": false,
      "metar": "METAR LIPR 291250Z 07007KT 040V100 9999 FEW030 20/16 Q1015",
      "taf": "TAF LIPR 291100Z 2912/3012 06010KT 9999 SCT030"
    },
    {
      "icao": "LIPX",
      "alert": "OK",
      "vis_m": 9999,
      "fzfg": false,
      "metar_trigger": false,
      "taf_trigger": false,
      "metar": "METAR LIPX 291250Z 12008KT 060V150 9999 FEW050 SCT090 23/10 Q1016",
      "taf": "TAF LIPX 291100Z 2912/3012 09015G25KT 9999 SCT070"
    },
    {
      "icao": "LIPY",
      "alert": "OK",
      "vis_m": 9999,
      "fzfg": false,
      "metar_trigger": false,
      "taf_trigger": false,
      "metar": "METAR LIPY 291250Z AUTO 05010KT 9999 NCD 21/17 Q1015",
      "taf": "TAF LIPY 291100Z 2912/3012 05010KT 9999 SCT030"
    },
    {
      "icao": "LIPZ",
      "alert": "OK",
      "vis_m": 9999,
      "fzfg": false,
      "metar_trigger": false,
      "taf_trigger": false,
      "metar": "METAR LIPZ 291250Z 07013KT 9999 FEW060 21/10 Q1017 NOSIG",
      "taf": "TAF LIPZ 291100Z 2912/3018 06015KT 9999 FEW030"
    },
    {
      "icao": "LIRF",
      "alert": "OK",
      "vis_m": 9999,
      "fzfg": false,
      "metar_trigger": false,
      "taf_trigger": false,
      "metar": "METAR LIRF 291250Z 18006KT 140V210 CAVOK 23/03 Q1016 NOSIG",
      "taf": "TAF LIRF 291100Z 2912/3018 23010KT 9999 FEW030"
    },
    {
      "icao": "LIRN",
      "alert": "OK",
      "vis_m": 9999,
      "fzfg": false,
      "metar_trigger": false,
      "taf_trigger": false,
      "metar": "METAR LIRN 291250Z 18010KT 150V210 CAVOK 24/04 Q1016 NOSIG",
      "taf": "TAF LIRN 291100Z 2912/3012 22010KT 9999 SCT030"
    },
    {
      "icao": "LIRP",
      "alert": "OK",
      "vis_m": 9999,
      "fzfg": false,
      "metar_trigger": false,
      "taf_trigger": false,
      "metar": "METAR LIRP 291245Z 26010KT CAVOK 24/04 Q1015 NOSIG",
      "taf": "TAF LIRP 290500Z 2906/3006 11005KT CAVOK"
    },
    {
      "icao": "LIRZ",
      "alert": "OK",
      "vis_m": 9999,
      "fzfg": false,
      "metar_trigger": false,
      "taf_trigger": false,
      "metar": "METAR LIRZ 291250Z AUTO 27006KT 190V320 9999 FEW089/// 25/05 Q1015",
      "taf": "TAF LIRZ 291100Z 2912/3012 22008KT CAVOK"
    },
    {
      "icao": "LJLJ",
      "alert": "OK",
      "vis_m": 9999,
      "fzfg": false,
      "metar_trigger": false,
      "taf_trigger": false,
      "metar": "METAR LJLJ 291230Z 18004KT 9999 -RA BKN010 OVC040 10/08 Q1022 NOSIG",
      "taf": ""
    },
    {
      "icao": "LKMT",
      "alert": "OK",
      "vis_m": 9999,
      "fzfg": false,
      "metar_trigger": false,
      "taf_trigger": false,
      "metar": "METAR LKMT 291230Z 01013KT 350V050 CAVOK 09/M05 Q1025 NOSIG",
      "taf": "TAF LKMT 291100Z 2912/3012 02014KT CAVOK"
    },
    {
      "icao": "LKPR",
      "alert": "OK",
      "vis_m": 9999,
      "fzfg": false,
      "metar_trigger": false,
      "taf_trigger": false,
      "metar": "METAR LKPR 291230Z 01013KT 340V040 CAVOK 12/M05 Q1025 NOSIG",
      "taf": "TAF LKPR 291100Z 2912/3018 04014KT CAVOK"
    },
    {
      "icao": "LLBG",
      "alert": "OK",
      "vis_m": 9999,
      "fzfg": false,
      "metar_trigger": false,
      "taf_trigger": false,
      "metar": "METAR LLBG 291250Z 32008KT 280V350 9999 FEW040TCU 23/14 Q1013 NOSIG",
      "taf": "TAF LLBG 291104Z 2912/3012 30012KT 9999 FEW040 TX24/2912Z TN14/3003Z"
    },
    {
      "icao": "LMML",
      "alert": "OK",
      "vis_m": 9999,
      "fzfg": false,
      "metar_trigger": false,
      "taf_trigger": false,
      "metar": "METAR LMML 291245Z 11016KT CAVOK 23/15 Q1015 NOSIG",
      "taf": "TAF LMML 291100Z 2912/3012 11015KT CAVOK"
    },
    {
      "icao": "LOWW",
      "alert": "OK",
      "vis_m": 9999,
      "fzfg": false,
      "metar_trigger": false,
      "taf_trigger": false,
      "metar": "METAR LOWW 291250Z 04011KT 360V070 CAVOK 16/M03 Q1022 NOSIG",
      "taf": "TAF LOWW 291115Z 2912/3018 02012KT CAVOK TX16/2914Z TN02/3004Z"
    },
    {
      "icao": "LPFR",
      "alert": "OK",
      "vis_m": 9999,
      "fzfg": false,
      "metar_trigger": false,
      "taf_trigger": false,
      "metar": "METAR LPFR 291230Z 24014KT 9999 FEW020 20/12 Q1011",
      "taf": "TAF LPFR 291100Z 2912/3012 26013KT 9999 SCT030"
    },
    {
      "icao": "LPMA",
      "alert": "OK",
      "vis_m": 9999,
      "fzfg": false,
      "metar_trigger": false,
      "taf_trigger": false,
      "metar": "METAR LPMA 291230Z 15007KT 120V200 9999 SCT016 BKN033 18/11 Q1013",
      "taf": "TAF LPMA 291100Z 2912/3012 VRB05KT 9999 SCT015 BKN030"
    },
    {
      "icao": "LPPR",
      "alert": "OK",
      "vis_m": 9999,
      "fzfg": false,
      "metar_trigger": false,
      "taf_trigger": false,
      "metar": "METAR LPPR 291230Z 22007KT 190V250 9999 BKN009 BKN012 18/15 Q1007",
      "taf": "TAF LPPR 291100Z 2912/3012 25008KT 9999 SCT015 SCT035"
    },
    {
      "icao": "LPPS",
      "alert": "OK",
      "vis_m": 9999,
      "fzfg": false,
      "metar_trigger": false,
      "taf_trigger": false,
      "metar": "METAR LPPS 291230Z 15007KT 110V210 9999 SCT015 BKN030 18/08 Q1013",
      "taf": "TAF LPPS 291100Z 2912/3018 VRB05KT 9999 SCT015 BKN030"
    },
    {
      "icao": "LPPT",
      "alert": "OK",
      "vis_m": 9999,
      "fzfg": false,
      "metar_trigger": false,
      "taf_trigger": false,
      "metar": "METAR LPPT 291230Z 21016KT 9999 SCT022 SCT030 18/10 Q1009",
      "taf": "TAF LPPT 291100Z 2912/3018 23012KT 9999 SCT020 SCT040"
    },
    {
      "icao": "LQBK",
      "alert": "OK",
      "vis_m": 9999,
      "fzfg": false,
      "metar_trigger": false,
      "taf_trigger": false,
      "metar": "METAR LQBK 291230Z VRB02KT 9999 -RA SCT047 13/08 Q1021 NOSIG",
      "taf": ""
    },
    {
      "icao": "LQSA",
      "alert": "OK",
      "vis_m": 9999,
      "fzfg": false,
      "metar_trigger": false,
      "taf_trigger": false,
      "metar": "METAR LQSA 291230Z 32009KT 290V010 9999 FEW065 21/07 Q1016 NOSIG",
      "taf": ""
    },
    {
      "icao": "LQTZ",
      "alert": "OK",
      "vis_m": 9999,
      "fzfg": false,
      "metar_trigger": false,
      "taf_trigger": false,
      "metar": "METAR LQTZ 291230Z 03005KT 350V060 9999 -RA FEW040 SCT055 BKN065 13/10 Q1020",
      "taf": "TAF LQTZ 291100Z 2912/3012 03006KT 9999 SCT030 BKN050 TX16/2912Z TN02/3005Z"
    },
    {
      "icao": "LRBC",
      "alert": "OK",
      "vis_m": 9999,
      "fzfg": false,
      "metar_trigger": false,
      "taf_trigger": false,
      "metar": "METAR LRBC 291230Z 36011KT CAVOK 14/M03 Q1020",
      "taf": "TAF LRBC 291100Z 2912/2921 02008KT CAVOK"
    },
    {
      "icao": "LRBS",
      "alert": "OK",
      "vis_m": 9999,
      "fzfg": false,
      "metar_trigger": false,
      "taf_trigger": false,
      "metar": "METAR LRBS 291230Z 06012KT 020V090 CAVOK 15/02 Q1018 NOSIG",
      "taf": "TAF LRBS 291100Z 2912/3012 06015KT CAVOK"
    },
    {
      "icao": "LRBV",
      "alert": "OK",
      "vis_m": 9999,
      "fzfg": false,
      "metar_trigger": false,
      "taf_trigger": false,
      "metar": "METAR LRBV 291230Z 20005KT 9999 FEW068 13/02 Q1017",
      "taf": "TAF LRBV 291100Z 2912/2921 VRB04KT 9999 BKN050"
    },
    {
      "icao": "LRCL",
      "alert": "OK",
      "vis_m": 9999,
      "fzfg": false,
      "metar_trigger": false,
      "taf_trigger": false,
      "metar": "METAR LRCL 291230Z 31010KT 270V010 CAVOK 16/M02 Q1018",
      "taf": "TAF LRCL 291100Z 2912/2921 34009KT CAVOK"
    },
    {
      "icao": "LRCV",
      "alert": "OK",
      "vis_m": 9999,
      "fzfg": false,
      "metar_trigger": false,
      "taf_trigger": false,
      "metar": "METAR LRCV 291230Z VRB02KT CAVOK 16/05 Q1018",
      "taf": "TAF LRCV 291100Z 2912/2921 10009KT CAVOK"
    },
    {
      "icao": "LRIA",
      "alert": "OK",
      "vis_m": 9999,
      "fzfg": false,
      "metar_trigger": false,
      "taf_trigger": false,
      "metar": "METAR LRIA 291230Z 31008KT 280V360 CAVOK 12/M06 Q1022",
      "taf": "TAF LRIA 291100Z 2912/2921 02008KT CAVOK"
    },
    {
      "icao": "LROP",
      "alert": "OK",
      "vis_m": 9999,
      "fzfg": false,
      "metar_trigger": false,
      "taf_trigger": false,
      "metar": "METAR LROP 291230Z 07016KT CAVOK 15/04 Q1018 NOSIG",
      "taf": "TAF LROP 291100Z 2912/3012 06015KT CAVOK"
    },
    {
      "icao": "LRSB",
      "alert": "OK",
      "vis_m": 9999,
      "fzfg": false,
      "metar_trigger": false,
      "taf_trigger": false,
      "metar": "METAR LRSB 291230Z 34006KT 290V030 CAVOK 16/01 Q1017",
      "taf": "TAF LRSB 291100Z 2912/3012 VRB04KT CAVOK"
    },
    {
      "icao": "LRSM",
      "alert": "OK",
      "vis_m": 9999,
      "fzfg": false,
      "metar_trigger": false,
      "taf_trigger": false,
      "metar": "METAR LRSM 291230Z 33012KT 300V360 CAVOK 16/M08 Q1019",
      "taf": "TAF LRSM 291100Z 2912/2921 36012KT CAVOK"
    },
    {
      "icao": "LRSV",
      "alert": "OK",
      "vis_m": 9999,
      "fzfg": false,
      "metar_trigger": false,
      "taf_trigger": false,
      "metar": "METAR LRSV 291230Z 35006KT 310V020 CAVOK 09/M05 Q1021",
      "taf": "TAF LRSV 291100Z 2912/2921 01006KT CAVOK"
    },
    {
      "icao": "LRTM",
      "alert": "OK",
      "vis_m": 9999,
      "fzfg": false,
      "metar_trigger": false,
      "taf_trigger": false,
      "metar": "METAR LRTM 291230Z 31007KT 250V350 CAVOK 16/M00 Q1017",
      "taf": "TAF LRTM 291100Z 2912/2921 29008KT CAVOK"
    },
    {
      "icao": "LRTR",
      "alert": "OK",
      "vis_m": 9999,
      "fzfg": false,
      "metar_trigger": false,
      "taf_trigger": false,
      "metar": "METAR LRTR 291230Z 35009KT 320V030 CAVOK 18/00 Q1019",
      "taf": "TAF LRTR 291100Z 2912/3012 36012KT CAVOK"
    },
    {
      "icao": "LTAC",
      "alert": "OK",
      "vis_m": 9999,
      "fzfg": false,
      "metar_trigger": false,
      "taf_trigger": false,
      "metar": "METAR LTAC 291250Z 24008KT 200V320 9999 FEW040 20/01 Q1014 NOSIG",
      "taf": "TAF LTAC 291040Z 2912/3012 VRB02KT 9999 SCT040"
    },
    {
      "icao": "LTFM",
      "alert": "OK",
      "vis_m": 9999,
      "fzfg": false,
      "metar_trigger": false,
      "taf_trigger": false,
      "metar": "METAR LTFM 291250Z 07015KT CAVOK 14/07 Q1018 NOSIG",
      "taf": "TAF LTFM 291040Z 2912/3018 08012KT CAVOK"
    },
    {
      "icao": "LUKK",
      "alert": "OK",
      "vis_m": 9999,
      "fzfg": false,
      "metar_trigger": false,
      "taf_trigger": false,
      "metar": "METAR LUKK 291230Z 35008KT 290V030 CAVOK 12/M04 Q1021 NOSIG",
      "taf": "TAF LUKK 291107Z 2912/3012 36008KT CAVOK"
    },
    {
      "icao": "LWOH",
      "alert": "OK",
      "vis_m": 9999,
      "fzfg": false,
      "metar_trigger": false,
      "taf_trigger": false,
      "metar": "METAR LWOH 291250Z 15004KT 110V220 9999 FEW040 21/10 Q1016",
      "taf": "TAF LWOH 291130Z 2912/3012 16006KT 9999 FEW040"
    },
    {
      "icao": "LWSK",
      "alert": "OK",
      "vis_m": 9999,
      "fzfg": false,
      "metar_trigger": false,
      "taf_trigger": false,
      "metar": "METAR LWSK 291250Z VRB03KT 9999 FEW050 SCT060 25/07 Q1014 NOSIG",
      "taf": ""
    },
    {
      "icao": "LYBE",
      "alert": "OK",
      "vis_m": 9999,
      "fzfg": false,
      "metar_trigger": false,
      "taf_trigger": false,
      "metar": "METAR LYBE 291230Z 35004KT 320V030 CAVOK 16/05 Q1020 NOSIG",
      "taf": "TAF LYBE 291100Z 2912/3012 34008KT 9999 SCT040 TX16/3012Z TN06/3004Z"
    },
    {
      "icao": "LYNI",
      "alert": "OK",
      "vis_m": 9999,
      "fzfg": false,
      "metar_trigger": false,
      "taf_trigger": false,
      "metar": "METAR LYNI 291230Z 32014KT 9999 FEW060 20/05 Q1017 NOSIG",
      "taf": "TAF LYNI 291100Z 2912/3012 33008KT 9999 SCT045 BKN080 TX21/2913Z TN08/3004Z"
    },
    {
      "icao": "LYPG",
      "alert": "OK",
      "vis_m": 9999,
      "fzfg": false,
      "metar_trigger": false,
      "taf_trigger": false,
      "metar": "METAR LYPG 291230Z 14007KT 110V180 9999 FEW050 25/09 Q1015 NOSIG",
      "taf": "TAF LYPG 291100Z 2912/3012 16007KT 9999 SCT050 SCT080 TX25/2914Z TN13/3003Z"
    },
    {
      "icao": "LZIB",
      "alert": "OK",
      "vis_m": 9999,
      "fzfg": false,
      "metar_trigger": false,
      "taf_trigger": false,
      "metar": "METAR LZIB 291230Z 34009KT CAVOK 16/M04 Q1021 NOSIG",
      "taf": "TAF LZIB 291115Z 2912/3012 04012KT CAVOK"
    },
    {
      "icao": "LZKZ",
      "alert": "OK",
      "vis_m": 9999,
      "fzfg": false,
      "metar_trigger": false,
      "taf_trigger": false,
      "metar": "METAR LZKZ 291230Z 01019KT CAVOK 12/M05 Q1022 NOSIG",
      "taf": "TAF LZKZ 291115Z 2912/3012 02014KT 9999 FEW045"
    },
    {
      "icao": "LZTT",
      "alert": "OK",
      "vis_m": 9999,
      "fzfg": false,
      "metar_trigger": false,
      "taf_trigger": false,
      "metar": "METAR LZTT 291230Z 06024KT 9999 FEW050 SCT066 08/M04 Q1021 NOSIG",
      "taf": "TAF LZTT 291115Z 2912/3012 07013KT 9999 FEW060"
    },
    {
      "icao": "OEJN",
      "alert": "OK",
      "vis_m": 9999,
      "fzfg": false,
      "metar_trigger": false,
      "taf_trigger": false,
      "metar": "METAR OEJN 291200Z 33018KT CAVOK 33/07 Q1009 NOSIG",
      "taf": "TAF OEJN 291100Z 2912/3018 33016KT 7000 NSC"
    },
    {
      "icao": "OEMA",
      "alert": "OK",
      "vis_m": 9999,
      "fzfg": false,
      "metar_trigger": false,
      "taf_trigger": false,
      "metar": "METAR OEMA 291200Z 23007KT CAVOK 34/M11 Q1011 NOSIG",
      "taf": "TAF OEMA 291100Z 2912/3018 25014KT 7000 NSC"
    },
    {
      "icao": "OJAI",
      "alert": "OK",
      "vis_m": 5000,
      "fzfg": false,
      "metar_trigger": false,
      "taf_trigger": false,
      "metar": "METAR OJAI 291200Z 26012KT 5000 HZ FEW030 25/01 Q1015 NOSIG",
      "taf": "TAF OJAI 290449Z 2906/3012 VRB02KT 5000 HZ NSC"
    },
    {
      "icao": "OMAA",
      "alert": "OK",
      "vis_m": 8000,
      "fzfg": false,
      "metar_trigger": false,
      "taf_trigger": false,
      "metar": "METAR OMAA 291230Z 34015KT 8000 NSC 36/16 Q1004 NOSIG",
      "taf": "TAF OMAA 291100Z 2912/3018 33013KT 8000 NSC"
    },
    {
      "icao": "OMDB",
      "alert": "OK",
      "vis_m": 9999,
      "fzfg": false,
      "metar_trigger": false,
      "taf_trigger": false,
      "metar": "METAR OMDB 291230Z 31011KT 280V350 CAVOK 36/16 Q1004 NOSIG",
      "taf": "TAF OMDB 291100Z 2912/3018 31012KT 8000 NSC"
    },
    {
      "icao": "UAAA",
      "alert": "OK",
      "vis_m": 9999,
      "fzfg": false,
      "metar_trigger": false,
      "taf_trigger": false,
      "metar": "METAR UAAA 291230Z 02004MPS 9999 SCT050CB 25/07 Q1013 NOSIG",
      "taf": "TAF UAAA 291104Z 2912/3012 18002MPS 9999 FEW050CB SCT100 TX28/3009Z TN12/3001Z"
    },
    {
      "icao": "UBBB",
      "alert": "OK",
      "vis_m": 9999,
      "fzfg": false,
      "metar_trigger": false,
      "taf_trigger": false,
      "metar": "METAR UBBB 291230Z 33016KT 9999 OVC035 10/06 Q1016 NOSIG",
      "taf": "TAF UBBB 291055Z 2912/3012 32018G28KT 9999 SCT012 FEW040CB BKN100 TX11/2912Z TN09/3001Z"
    },
    {
      "icao": "UDSG",
      "alert": "OK",
      "vis_m": 9999,
      "fzfg": false,
      "metar_trigger": false,
      "taf_trigger": false,
      "metar": "METAR UDSG 291230Z 34007KT 290V020 9999 FEW043CB 16/00 Q1014 NOSIG",
      "taf": "TAF UDSG 291058Z 2912/3012 24006KT 9999 FEW050"
    },
    {
      "icao": "UDYZ",
      "alert": "OK",
      "vis_m": 9999,
      "fzfg": false,
      "metar_trigger": false,
      "taf_trigger": false,
      "metar": "METAR UDYZ 291230Z 13006KT 9999 SCT046 19/07 Q1011 NOSIG",
      "taf": "TAF UDYZ 291100Z 2912/3012 20006KT 9999 SCT040"
    },
    {
      "icao": "UGKO",
      "alert": "OK",
      "vis_m": 9999,
      "fzfg": false,
      "metar_trigger": false,
      "taf_trigger": false,
      "metar": "METAR UGKO 291230Z 27010KT 250V310 9999 BKN046 14/06 Q1018 NOSIG",
      "taf": "TAF UGKO 291100Z 2912/3012 08007KT CAVOK TX21/3011Z TN04/3002Z"
    }
  ]
}