{
  "ts_utc": "2025-12-21T14:52:54Z",
  "threshold_m": 150,
  "source": "stations_override.txt (ICAO list) + aviationweather.gov (METAR/TAF raw)",
  "station_count": 114,
  "stations": [
    {
      "icao": "BIKF",
      "alert": "OK",
      "vis_m": 9999,
      "fzfg": false,
      "metar_trigger": false,
      "taf_trigger": false,
      "metar": "METAR BIKF 211430Z 13020KT 9999 VCSH BKN010 OVC038 09/08 Q1008",
      "taf": "TAF BIKF 211320Z 2115/2215 11018G28KT 9999 BKN025 TX08/2115Z TN06/2205Z"
    },
    {
      "icao": "BKPR",
      "alert": "OK",
      "vis_m": 400,
      "fzfg": false,
      "metar_trigger": false,
      "taf_trigger": false,
      "metar": "METAR BKPR 211430Z 06003KT 0400 R17/0900D R35/P2000N FG VV001 02/02 Q1018 NOSIG",
      "taf": ""
    },
    {
      "icao": "EBBR",
      "alert": "OK",
      "vis_m": 9999,
      "fzfg": false,
      "metar_trigger": false,
      "taf_trigger": false,
      "metar": "METAR EBBR 211420Z 10004KT CAVOK 12/09 Q1009 NOSIG",
      "taf": "TAF EBBR 211105Z 2112/2218 11006KT CAVOK"
    },
    {
      "icao": "EBCI",
      "alert": "OK",
      "vis_m": 9999,
      "fzfg": false,
      "metar_trigger": false,
      "taf_trigger": false,
      "metar": "METAR EBCI 211420Z 06006KT CAVOK 11/09 Q1008 NOSIG",
      "taf": "TAF EBCI 211105Z 2112/2218 11006KT CAVOK"
    },
    {
      "icao": "EDDB",
      "alert": "OK",
      "vis_m": 9000,
      "fzfg": false,
      "metar_trigger": false,
      "taf_trigger": false,
      "metar": "METAR EDDB 211420Z AUTO 10010KT 9000 OVC006 07/06 Q1018 NOSIG",
      "taf": "TAF EDDB 211100Z 2112/2212 09010KT 8000 OVC006"
    },
    {
      "icao": "EDDH",
      "alert": "OK",
      "vis_m": 9999,
      "fzfg": false,
      "metar_trigger": false,
      "taf_trigger": false,
      "metar": "METAR EDDH 211420Z AUTO 10012KT 9999 OVC005 07/06 Q1017 TEMPO OVC004",
      "taf": "TAF EDDH 211100Z 2112/2218 09009KT 9999 BKN003"
    },
    {
      "icao": "EDDK",
      "alert": "OK",
      "vis_m": 9999,
      "fzfg": false,
      "metar_trigger": false,
      "taf_trigger": false,
      "metar": "METAR EDDK 211420Z AUTO 08005KT 050V130 CAVOK 13/04 Q1010 NOSIG",
      "taf": "TAF EDDK 211100Z 2112/2218 11006KT CAVOK"
    },
    {
      "icao": "EDDN",
      "alert": "OK",
      "vis_m": 9999,
      "fzfg": false,
      "metar_trigger": false,
      "taf_trigger": false,
      "metar": "METAR EDDN 211420Z AUTO 10009KT CAVOK 05/01 Q1012 NOSIG",
      "taf": "TAF EDDN 211100Z 2112/2212 10006KT 9999 FEW010"
    },
    {
      "icao": "EDFH",
      "alert": "OK",
      "vis_m": 9999,
      "fzfg": false,
      "metar_trigger": false,
      "taf_trigger": false,
      "metar": "METAR EDFH 211420Z 09009KT CAVOK 08/02 Q1009",
      "taf": "TAF EDFH 211100Z 2112/2212 13011KT CAVOK"
    },
    {
      "icao": "EDJA",
      "alert": "OK",
      "vis_m": 3900,
      "fzfg": false,
      "metar_trigger": false,
      "taf_trigger": false,
      "metar": "METAR EDJA 211420Z 06008KT 3900 BR OVC002 M01/M02 Q1009",
      "taf": "TAF EDJA 211400Z 2115/2124 06007KT 2000 BR OVC002"
    },
    {
      "icao": "EDLW",
      "alert": "OK",
      "vis_m": 9999,
      "fzfg": false,
      "metar_trigger": false,
      "taf_trigger": false,
      "metar": "METAR EDLW 211420Z 01004KT CAVOK 11/07 Q1011",
      "taf": "TAF EDLW 211100Z 2112/2212 VRB03KT CAVOK"
    },
    {
      "icao": "EDSB",
      "alert": "OK",
      "vis_m": 9999,
      "fzfg": false,
      "metar_trigger": false,
      "taf_trigger": false,
      "metar": "METAR EDSB 211420Z 02008KT CAVOK 09/04 Q1008",
      "taf": "TAF EDSB 211100Z 2112/2212 03005KT CAVOK"
    },
    {
      "icao": "EETN",
      "alert": "OK",
      "vis_m": 9999,
      "fzfg": false,
      "metar_trigger": false,
      "taf_trigger": false,
      "metar": "METAR EETN 211450Z 33014G24KT 9999 BKN013 04/02 Q1012 NOSIG",
      "taf": "TAF EETN 211130Z 2112/2212 33014KT 9999 OVC015"
    },
    {
      "icao": "EFHK",
      "alert": "OK",
      "vis_m": 9999,
      "fzfg": false,
      "metar_trigger": false,
      "taf_trigger": false,
      "metar": "METAR EFHK 211450Z 33014KT 9999 BKN020 03/M00 Q1012 NOSIG",
      "taf": "TAF EFHK 211437Z 2115/2215 32011KT 9999 BKN020"
    },
    {
      "icao": "EFTU",
      "alert": "OK",
      "vis_m": 9999,
      "fzfg": false,
      "metar_trigger": false,
      "taf_trigger": false,
      "metar": "METAR EFTU 211450Z AUTO 33005KT 290V360 CAVOK 03/02 Q1015",
      "taf": "TAF EFTU 211435Z 2115/2215 33007KT 9999 SCT014"
    },
    {
      "icao": "EGGW",
      "alert": "OK",
      "vis_m": 8000,
      "fzfg": false,
      "metar_trigger": false,
      "taf_trigger": false,
      "metar": "METAR EGGW 211420Z AUTO 10006KT 070V130 8000 BKN006 09/08 Q1007",
      "taf": ""
    },
    {
      "icao": "EGKK",
      "alert": "OK",
      "vis_m": 9999,
      "fzfg": false,
      "metar_trigger": false,
      "taf_trigger": false,
      "metar": "METAR EGKK 211420Z 06012G23KT 9999 BKN009 10/09 Q1006",
      "taf": "TAF EGKK 211057Z 2112/2218 10005KT 9999 BKN018"
    },
    {
      "icao": "EHEH",
      "alert": "OK",
      "vis_m": 9999,
      "fzfg": false,
      "metar_trigger": false,
      "taf_trigger": false,
      "metar": "METAR EHEH 211425Z AUTO 06006KT 020V100 9999 OVC290 11/08 Q1010 BLU NOSIG RMK TREND REMOTE BY EHWX",
      "taf": "TAF EHEH 211107Z 2112/2218 09006KT CAVOK"
    },
    {
      "icao": "EKBI",
      "alert": "OK",
      "vis_m": 9999,
      "fzfg": false,
      "metar_trigger": false,
      "taf_trigger": false,
      "metar": "METAR EKBI 211420Z AUTO 08013KT 9999 BKN009/// OVC049/// 05/04 Q1019",
      "taf": "TAF EKBI 211427Z 2115/2215 09012KT 9999 BKN008"
    },
    {
      "icao": "EKCH",
      "alert": "OK",
      "vis_m": 9999,
      "fzfg": false,
      "metar_trigger": false,
      "taf_trigger": false,
      "metar": "METAR EKCH 211420Z AUTO 09004KT 060V120 9999 OVC017/// 06/02 Q1022 TEMPO BKN014",
      "taf": "TAF EKCH 211427Z 2115/2215 10005KT 9999 BKN016"
    },
    {
      "icao": "ENTO",
      "alert": "OK",
      "vis_m": 9999,
      "fzfg": false,
      "metar_trigger": false,
      "taf_trigger": false,
      "metar": "METAR ENTO 211420Z 01007KT CAVOK M00/M02 Q1023 NOSIG",
      "taf": "TAF ENTO 211100Z 2112/2212 02008KT CAVOK"
    },
    {
      "icao": "EPGD",
      "alert": "OK",
      "vis_m": 9999,
      "fzfg": false,
      "metar_trigger": false,
      "taf_trigger": false,
      "metar": "METAR EPGD 211430Z 28005KT 9999 BKN020 05/02 Q1021",
      "taf": "TAF EPGD 211130Z 2112/2212 27005KT 9999 BKN020"
    },
    {
      "icao": "EPKK",
      "alert": "OK",
      "vis_m": 6000,
      "fzfg": false,
      "metar_trigger": false,
      "taf_trigger": false,
      "metar": "METAR EPKK 211430Z 06006KT 6000 SCT003 OVC004 05/04 Q1019",
      "taf": "TAF EPKK 211430Z 2115/2215 07008KT 5000 BR OVC004"
    },
    {
      "icao": "EPKT",
      "alert": "OK",
      "vis_m": 7000,
      "fzfg": false,
      "metar_trigger": false,
      "taf_trigger": false,
      "metar": "METAR EPKT 211430Z 07005KT 7000 OVC004 06/05 Q1019",
      "taf": ""
    },
    {
      "icao": "EPWA",
      "alert": "OK",
      "vis_m": 9999,
      "fzfg": false,
      "metar_trigger": false,
      "taf_trigger": false,
      "metar": "METAR EPWA 211430Z 02005KT 350V060 9999 BKN016 03/M00 Q1022 NOSIG",
      "taf": "TAF EPWA 211430Z 2115/2215 08005KT 9999 BKN018"
    },
    {
      "icao": "EPWR",
      "alert": "OK",
      "vis_m": 6000,
      "fzfg": false,
      "metar_trigger": false,
      "taf_trigger": false,
      "metar": "METAR EPWR 211430Z 09005KT 6000 OVC007 06/05 Q1019",
      "taf": "TAF EPWR 211430Z 2115/2215 08007KT 5000 BR OVC006"
    },
    {
      "icao": "ESGG",
      "alert": "OK",
      "vis_m": 9999,
      "fzfg": false,
      "metar_trigger": false,
      "taf_trigger": false,
      "metar": "METAR ESGG 211420Z 04005KT 9999 BKN005 OVC007 04/03 Q1022",
      "taf": "TAF ESGG 211430Z 2115/2215 VRB03KT 9999 OVC005"
    },
    {
      "icao": "ESKN",
      "alert": "OK",
      "vis_m": 9999,
      "fzfg": false,
      "metar_trigger": false,
      "taf_trigger": false,
      "metar": "METAR ESKN 211420Z 29007KT CAVOK 01/M00 Q1021",
      "taf": "TAF ESKN 211430Z 2115/2215 28006KT CAVOK"
    },
    {
      "icao": "ESMX",
      "alert": "OK",
      "vis_m": 1500,
      "fzfg": false,
      "metar_trigger": false,
      "taf_trigger": false,
      "metar": "METAR ESMX 211420Z 34004KT 1500 R01/1400U R19/P2000N BR VV002 01/01 Q1021",
      "taf": "TAF ESMX 211430Z 2115/2120 34004KT 0300 FG OVC001"
    },
    {
      "icao": "EVRA",
      "alert": "OK",
      "vis_m": 9999,
      "fzfg": false,
      "metar_trigger": false,
      "taf_trigger": false,
      "metar": "METAR EVRA 211450Z 31009KT 260V340 9999 FEW027 OVC031 07/03 Q1015 NOSIG",
      "taf": "TAF EVRA 211402Z 2115/2215 30010KT 9999 BKN030"
    },
    {
      "icao": "EYKA",
      "alert": "OK",
      "vis_m": 9999,
      "fzfg": false,
      "metar_trigger": false,
      "taf_trigger": false,
      "metar": "METAR EYKA 211450Z 27007KT 9999 OVC026 05/03 Q1017",
      "taf": "TAF EYKA 211110Z 2112/2212 28008KT 9000 BKN020"
    },
    {
      "icao": "EYVI",
      "alert": "OK",
      "vis_m": 9999,
      "fzfg": false,
      "metar_trigger": false,
      "taf_trigger": false,
      "metar": "METAR EYVI 211450Z 29008KT 9999 FEW011 BKN028 04/03 Q1016 NOSIG",
      "taf": "TAF EYVI 211100Z 2112/2212 29010KT 9000 BKN010 OVC015"
    },
    {
      "icao": "GCLP",
      "alert": "OK",
      "vis_m": 9999,
      "fzfg": false,
      "metar_trigger": false,
      "taf_trigger": false,
      "metar": "METAR GCLP 211430Z 35012KT 300V020 9999 FEW050 22/10 Q1019 NOSIG",
      "taf": "TAF GCLP 211400Z 2115/2215 36012KT 9999 FEW050 TX20/2214Z TN15/2206Z"
    },
    {
      "icao": "GCTS",
      "alert": "OK",
      "vis_m": 9999,
      "fzfg": false,
      "metar_trigger": false,
      "taf_trigger": false,
      "metar": "METAR GCTS 211430Z 20006KT 150V270 9999 BKN040 20/10 Q1019 NOSIG",
      "taf": "TAF GCTS 211400Z 2115/2215 19007KT 9999 SCT040 TX24/2214Z TN16/2206Z"
    },
    {
      "icao": "HECA",
      "alert": "OK",
      "vis_m": 6000,
      "fzfg": false,
      "metar_trigger": false,
      "taf_trigger": false,
      "metar": "METAR HECA 211430Z 19013KT 6000 NSC 22/01 Q1011 NOSIG",
      "taf": "TAF HECA 211100Z 2112/2218 19012KT CAVOK"
    },
    {
      "icao": "HEGN",
      "alert": "OK",
      "vis_m": 9999,
      "fzfg": false,
      "metar_trigger": false,
      "taf_trigger": false,
      "metar": "METAR HEGN 211400Z 10005KT CAVOK 24/12 Q1013 NOSIG",
      "taf": "TAF HEGN 211100Z 2112/2218 14008KT CAVOK"
    },
    {
      "icao": "HESH",
      "alert": "OK",
      "vis_m": 9999,
      "fzfg": false,
      "metar_trigger": false,
      "taf_trigger": false,
      "metar": "METAR HESH 211400Z 13009KT CAVOK 23/11 Q1013 NOSIG",
      "taf": "TAF HESH 211100Z 2112/2218 19008KT CAVOK"
    },
    {
      "icao": "HESX",
      "alert": "OK",
      "vis_m": 9999,
      "fzfg": false,
      "metar_trigger": false,
      "taf_trigger": false,
      "metar": "METAR HESX 211400Z 18014KT CAVOK 20/01 Q1012 NOSIG",
      "taf": "TAF HESX 211100Z 2112/2218 18009KT CAVOK"
    },
    {
      "icao": "LATI",
      "alert": "OK",
      "vis_m": 9999,
      "fzfg": false,
      "metar_trigger": false,
      "taf_trigger": false,
      "metar": "METAR LATI 211450Z 31004KT CAVOK 15/04 Q1014 NOSIG",
      "taf": "TAF LATI 211100Z 2112/2212 VRB05KT CAVOK TX17/2112Z TN01/2205Z"
    },
    {
      "icao": "LBSF",
      "alert": "OK",
      "vis_m": 9999,
      "fzfg": false,
      "metar_trigger": false,
      "taf_trigger": false,
      "metar": "METAR LBSF 211430Z VRB02KT 9999 FEW032 08/02 Q1017 NOSIG",
      "taf": "TAF LBSF 211100Z 2112/2212 VRB03KT 9999 SCT030"
    },
    {
      "icao": "LBWN",
      "alert": "OK",
      "vis_m": 9999,
      "fzfg": false,
      "metar_trigger": false,
      "taf_trigger": false,
      "metar": "METAR LBWN 211430Z AUTO 32006KT 9999 FEW010/// SCT034/// 08/08 Q1019 NOSIG",
      "taf": "TAF LBWN 211100Z 2112/2212 35008KT 7000 BKN015 OVC035"
    },
    {
      "icao": "LCLK",
      "alert": "OK",
      "vis_m": 9999,
      "fzfg": false,
      "metar_trigger": false,
      "taf_trigger": false,
      "metar": "METAR LCLK 211430Z 13009KT 9999 FEW025 FEW030CB SCT060 20/13 Q1013 NOSIG",
      "taf": "TAF LCLK 211130Z 2112/2212 12012KT 9999 FEW020 SCT030"
    },
    {
      "icao": "LDDU",
      "alert": "OK",
      "vis_m": 9999,
      "fzfg": false,
      "metar_trigger": false,
      "taf_trigger": false,
      "metar": "METAR LDDU 211430Z 29005KT CAVOK 14/08 Q1014 NOSIG",
      "taf": "TAF LDDU 211125Z 2112/2212 VRB02KT CAVOK TX15/2112Z TN08/2203Z"
    },
    {
      "icao": "LDSP",
      "alert": "OK",
      "vis_m": 9999,
      "fzfg": false,
      "metar_trigger": false,
      "taf_trigger": false,
      "metar": "METAR LDSP 211430Z VRB01KT 9999 FEW055 15/06 Q1014 NOSIG",
      "taf": "TAF LDSP 211125Z 2112/2212 VRB02KT CAVOK TX15/2113Z TN07/2205Z"
    },
    {
      "icao": "LDZA",
      "alert": "OK",
      "vis_m": 4500,
      "fzfg": false,
      "metar_trigger": false,
      "taf_trigger": false,
      "metar": "METAR LDZA 211430Z 13004KT 100V220 4500 BR OVC009 04/03 Q1019 TEMPO 6000 NSW",
      "taf": "TAF LDZA 211125Z 2112/2212 VRB02KT 6000 OVC005 TX05/2211Z TN03/2206Z"
    },
    {
      "icao": "LEAL",
      "alert": "OK",
      "vis_m": 9999,
      "fzfg": false,
      "metar_trigger": false,
      "taf_trigger": false,
      "metar": "METAR LEAL 211430Z 24007KT 210V280 9999 FEW020 15/07 Q1005 NOSIG",
      "taf": "TAF LEAL 211100Z 2112/2212 25008KT 9999 FEW020 SCT040 TX16/2113Z TN07/2207Z"
    },
    {
      "icao": "LEBL",
      "alert": "OK",
      "vis_m": 9999,
      "fzfg": false,
      "metar_trigger": false,
      "taf_trigger": false,
      "metar": "METAR LEBL 211430Z 23011KT 9999 FEW025 SCT050 14/10 Q1004 NOSIG",
      "taf": "TAF LEBL 211100Z 2112/2212 21012KT 9999 FEW020 TX16/2112Z TN07/2206Z"
    },
    {
      "icao": "LECH",
      "alert": "OK",
      "vis_m": 9000,
      "fzfg": false,
      "metar_trigger": false,
      "taf_trigger": false,
      "metar": "METAR LECH 211430Z AUTO 24009KT 9000 NSC 13/03 Q1003",
      "taf": ""
    },
    {
      "icao": "LEMD",
      "alert": "OK",
      "vis_m": 9999,
      "fzfg": false,
      "metar_trigger": false,
      "taf_trigger": false,
      "metar": "METAR LEMD 211430Z 21009G20KT 160V250 9999 SCT030 08/01 Q1004 NOSIG",
      "taf": ""
    },
    {
      "icao": "LEMG",
      "alert": "OK",
      "vis_m": 8000,
      "fzfg": false,
      "metar_trigger": false,
      "taf_trigger": false,
      "metar": "METAR LEMG 211430Z 29012KT 250V320 8000 -RA FEW015 BKN050 10/08 Q1008 NOSIG",
      "taf": "TAF LEMG 211100Z 2112/2212 30008KT 9999 FEW012 SCT060 TX14/2114Z TN07/2206Z"
    },
    {
      "icao": "LERS",
      "alert": "OK",
      "vis_m": 9999,
      "fzfg": false,
      "metar_trigger": false,
      "taf_trigger": false,
      "metar": "METAR LERS 211430Z 22004KT 160V260 9999 FEW025 13/08 Q1004",
      "taf": "TAF LERS 211400Z 2115/2215 22008KT 9999 SCT025 TX12/2213Z TN06/2206Z"
    },
    {
      "icao": "LEVC",
      "alert": "OK",
      "vis_m": 9999,
      "fzfg": false,
      "metar_trigger": false,
      "taf_trigger": false,
      "metar": "METAR LEVC 211430Z 27017KT 9999 FEW065 13/04 Q1005 NOSIG",
      "taf": ""
    },
    {
      "icao": "LFLL",
      "alert": "OK",
      "vis_m": 9999,
      "fzfg": false,
      "metar_trigger": false,
      "taf_trigger": false,
      "metar": "METAR LFLL 211430Z 11006KT CAVOK 12/06 Q1005 NOSIG",
      "taf": "TAF LFLL 211100Z 2112/2218 14006KT CAVOK"
    },
    {
      "icao": "LFMN",
      "alert": "OK",
      "vis_m": 9999,
      "fzfg": false,
      "metar_trigger": false,
      "taf_trigger": false,
      "metar": "METAR LFMN 211430Z 10024KT 9999 FEW050 BKN093 OVC260 16/09 Q1010 TEMPO 09025G35KT",
      "taf": "TAF LFMN 211400Z 2115/2221 08020KT 9999 BKN040"
    },
    {
      "icao": "LFOB",
      "alert": "OK",
      "vis_m": 9999,
      "fzfg": false,
      "metar_trigger": false,
      "taf_trigger": false,
      "metar": "METAR LFOB 211430Z AUTO 10013KT 9999 -RA FEW033 SCT054 OVC066 11/11 Q1005 NOSIG",
      "taf": "TAF LFOB 211100Z 2112/2212 08009KT 9999 OVC002"
    },
    {
      "icao": "LFPO",
      "alert": "OK",
      "vis_m": 9999,
      "fzfg": false,
      "metar_trigger": false,
      "taf_trigger": false,
      "metar": "METAR LFPO 211430Z AUTO 10008KT 9999 -RA FEW034/// OVC062/// ///TCU 11/10 Q1005 TEMPO 4500 -RA BECMG BKN040",
      "taf": ""
    },
    {
      "icao": "LFSB",
      "alert": "OK",
      "vis_m": 7000,
      "fzfg": false,
      "metar_trigger": false,
      "taf_trigger": false,
      "metar": "METAR LFSB 211430Z AUTO 34007KT 7000 FEW004 06/05 Q1008 TEMPO 0500 FG VV///",
      "taf": "TAF LFSB 211145Z 2112/2212 01005KT 9999 FEW010"
    },
    {
      "icao": "LGAV",
      "alert": "OK",
      "vis_m": 9999,
      "fzfg": false,
      "metar_trigger": false,
      "taf_trigger": false,
      "metar": "METAR LGAV 211420Z 36014KT 9999 FEW025 15/08 Q1015 NOSIG",
      "taf": "TAF LGAV 211100Z 2112/2212 02012KT 9999 SCT025 SCT070"
    },
    {
      "icao": "LGIR",
      "alert": "OK",
      "vis_m": 9999,
      "fzfg": false,
      "metar_trigger": false,
      "taf_trigger": false,
      "metar": "METAR LGIR 211420Z 04004KT 9999 SCT020 17/12 Q1013 NOSIG",
      "taf": "TAF LGIR 211100Z 2112/2212 33010KT 9999 SCT020 SCT080"
    },
    {
      "icao": "LGKR",
      "alert": "OK",
      "vis_m": 9999,
      "fzfg": false,
      "metar_trigger": false,
      "taf_trigger": false,
      "metar": "METAR LGKR 211420Z VRB02KT 9999 FEW030 18/09 Q1013 NOSIG",
      "taf": "TAF LGKR 211100Z 2112/2212 VRB03KT 9999 SCT015"
    },
    {
      "icao": "LGRP",
      "alert": "OK",
      "vis_m": 9999,
      "fzfg": false,
      "metar_trigger": false,
      "taf_trigger": false,
      "metar": "METAR LGRP 211420Z 07006KT 9999 FEW012 BKN020 17/12 Q1012 NOSIG",
      "taf": "TAF LGRP 211100Z 2112/2212 14010KT 9999 FEW018 SCT020"
    },
    {
      "icao": "LGTS",
      "alert": "OK",
      "vis_m": 9999,
      "fzfg": false,
      "metar_trigger": false,
      "taf_trigger": false,
      "metar": "METAR LGTS 211420Z 24006KT 9999 FEW025 14/08 Q1017 NOSIG",
      "taf": "TAF LGTS 211100Z 2112/2212 VRB03KT 9999 FEW020"
    },
    {
      "icao": "LGZA",
      "alert": "OK",
      "vis_m": 9999,
      "fzfg": false,
      "metar_trigger": false,
      "taf_trigger": false,
      "metar": "METAR LGZA 211420Z VRB03KT 9999 FEW025 BKN080 16/12 Q1013",
      "taf": "TAF LGZA 211400Z 2115/2124 03010KT 9999 FEW020 BKN080"
    },
    {
      "icao": "LHBP",
      "alert": "OK",
      "vis_m": 3000,
      "fzfg": false,
      "metar_trigger": false,
      "taf_trigger": false,
      "metar": "METAR LHBP 211430Z VRB02KT 3000 BR OVC004 05/04 Q1020 TEMPO 2500 -DZ BR",
      "taf": "TAF LHBP 211115Z 2112/2212 21005KT 5000 BR OVC005"
    },
    {
      "icao": "LHDC",
      "alert": "OK",
      "vis_m": 7000,
      "fzfg": false,
      "metar_trigger": false,
      "taf_trigger": false,
      "metar": "METAR LHDC 211415Z AUTO 25004KT 7000 ////// 06/04 Q1020 NOSIG",
      "taf": "TAF LHDC 211415Z 2115/2124 VRB03KT 7000 FEW006 OVC020"
    },
    {
      "icao": "LIBD",
      "alert": "OK",
      "vis_m": 9999,
      "fzfg": false,
      "metar_trigger": false,
      "taf_trigger": false,
      "metar": "METAR LIBD 211420Z 03004KT 360V060 CAVOK 14/11 Q1014",
      "taf": "TAF LIBD 211100Z 2112/2212 VRB04KT 9999 SCT040"
    },
    {
      "icao": "LICC",
      "alert": "OK",
      "vis_m": 6000,
      "fzfg": false,
      "metar_trigger": false,
      "taf_trigger": false,
      "metar": "METAR LICC 211420Z 05011KT 6000 RA SCT020 BKN070 15/14 Q1010",
      "taf": "TAF LICC 211100Z 2112/2212 07012KT 6000 RA BKN010 BKN060"
    },
    {
      "icao": "LICJ",
      "alert": "OK",
      "vis_m": 9999,
      "fzfg": false,
      "metar_trigger": false,
      "taf_trigger": false,
      "metar": "METAR LICJ 211420Z VRB02KT 9999 -RA SCT040 SCT065 16/12 Q1009",
      "taf": "TAF LICJ 211100Z 2112/2212 10010KT 9999 SCT040"
    },
    {
      "icao": "LIEO",
      "alert": "OK",
      "vis_m": 9999,
      "fzfg": false,
      "metar_trigger": false,
      "taf_trigger": false,
      "metar": "METAR LIEO 211420Z VRB02KT 9999 -RA SCT015 BKN030 14/14 Q1009",
      "taf": "TAF LIEO 211100Z 2112/2212 10010KT 6000 RA BKN010"
    },
    {
      "icao": "LIMC",
      "alert": "OK",
      "vis_m": 7000,
      "fzfg": false,
      "metar_trigger": false,
      "taf_trigger": false,
      "metar": "METAR LIMC 211420Z 16003KT 7000 BKN060 10/07 Q1015 NOSIG",
      "taf": "TAF LIMC 211100Z 2112/2218 VRB03KT 7000 SCT040"
    },
    {
      "icao": "LIME",
      "alert": "OK",
      "vis_m": 9999,
      "fzfg": false,
      "metar_trigger": false,
      "taf_trigger": false,
      "metar": "METAR LIME 211420Z VRB01KT CAVOK 10/05 Q1015 NOSIG",
      "taf": "TAF LIME 211100Z 2112/2212 VRB03KT 9000 SCT080"
    },
    {
      "icao": "LIPH",
      "alert": "OK",
      "vis_m": 9999,
      "fzfg": false,
      "metar_trigger": false,
      "taf_trigger": false,
      "metar": "METAR LIPH 211420Z 07004KT CAVOK 12/05 Q1015",
      "taf": "TAF LIPH 211100Z 2112/2212 VRB04KT 8000 FEW030"
    },
    {
      "icao": "LIPQ",
      "alert": "OK",
      "vis_m": 9999,
      "fzfg": false,
      "metar_trigger": false,
      "taf_trigger": false,
      "metar": "METAR LIPQ 211420Z AUTO 12007KT 9999 NCD 12/04 Q1015",
      "taf": "TAF LIPQ 211100Z 2112/2212 VRB04KT CAVOK"
    },
    {
      "icao": "LIPX",
      "alert": "OK",
      "vis_m": 9999,
      "fzfg": false,
      "metar_trigger": false,
      "taf_trigger": false,
      "metar": "METAR LIPX 211420Z 13003KT 100V160 CAVOK 12/07 Q1015",
      "taf": "TAF LIPX 211100Z 2112/2212 VRB03KT 9999 FEW040"
    },
    {
      "icao": "LIPY",
      "alert": "OK",
      "vis_m": 4700,
      "fzfg": false,
      "metar_trigger": false,
      "taf_trigger": false,
      "metar": "METAR LIPY 211420Z AUTO 32005KT 4700 BR OVC047/// 11/10 Q1015",
      "taf": "TAF LIPY 211100Z 2112/2212 VRB05KT 4000 BR OVC020"
    },
    {
      "icao": "LIPZ",
      "alert": "OK",
      "vis_m": 9999,
      "fzfg": false,
      "metar_trigger": false,
      "taf_trigger": false,
      "metar": "METAR LIPZ 211420Z 08004KT CAVOK 11/05 Q1015 NOSIG",
      "taf": "TAF LIPZ 211100Z 2112/2218 02005KT 9999 FEW020"
    },
    {
      "icao": "LIRA",
      "alert": "OK",
      "vis_m": 9999,
      "fzfg": false,
      "metar_trigger": false,
      "taf_trigger": false,
      "metar": "METAR LIRA 211420Z 05004KT CAVOK 14/07 Q1012",
      "taf": "TAF LIRA 211100Z 2112/2212 04005KT 9999 FEW060"
    },
    {
      "icao": "LIRN",
      "alert": "OK",
      "vis_m": 9999,
      "fzfg": false,
      "metar_trigger": false,
      "taf_trigger": false,
      "metar": "METAR LIRN 211420Z VRB02KT CAVOK 17/07 Q1012 NOSIG",
      "taf": "TAF LIRN 211100Z 2112/2212 05006KT 9999 SCT060"
    },
    {
      "icao": "LLBG",
      "alert": "OK",
      "vis_m": 9999,
      "fzfg": false,
      "metar_trigger": false,
      "taf_trigger": false,
      "metar": "METAR LLBG 211450Z 31006KT CAVOK 18/10 Q1013 NOSIG RMK FEW150",
      "taf": "TAF LLBG 211102Z 2112/2212 25010KT CAVOK"
    },
    {
      "icao": "LMML",
      "alert": "OK",
      "vis_m": 9999,
      "fzfg": false,
      "metar_trigger": false,
      "taf_trigger": false,
      "metar": "METAR LMML 211445Z VRB02KT 9999 -RA FEW017 BKN045 15/13 Q1010 NOSIG",
      "taf": "TAF LMML 211100Z 2112/2212 24008KT 9999 FEW015 SCT020"
    },
    {
      "icao": "LOWW",
      "alert": "OK",
      "vis_m": 6000,
      "fzfg": false,
      "metar_trigger": false,
      "taf_trigger": false,
      "metar": "METAR LOWW 211420Z 13009KT 6000 FEW001 OVC003 02/02 Q1018 TEMPO OVC002",
      "taf": "TAF LOWW 211415Z 2115/2221 13013KT 6000 OVC003 TX04/2218Z TN02/2115Z"
    },
    {
      "icao": "LPFR",
      "alert": "OK",
      "vis_m": 9999,
      "fzfg": false,
      "metar_trigger": false,
      "taf_trigger": false,
      "metar": "METAR LPFR 211430Z 32008KT 290V350 9999 -SHRA FEW015 FEW020TCU BKN025 13/08 Q1009",
      "taf": "TAF LPFR 211100Z 2112/2212 27010KT 9999 FEW015 SCT030"
    },
    {
      "icao": "LPPR",
      "alert": "OK",
      "vis_m": 9999,
      "fzfg": false,
      "metar_trigger": false,
      "taf_trigger": false,
      "metar": "METAR LPPR 211430Z 22004KT 170V250 9999 FEW016 BKN040 09/06 Q1007",
      "taf": "TAF LPPR 211100Z 2112/2212 13010KT 9999 FEW012 SCT035"
    },
    {
      "icao": "LPPT",
      "alert": "OK",
      "vis_m": 9999,
      "fzfg": false,
      "metar_trigger": false,
      "taf_trigger": false,
      "metar": "METAR LPPT 211430Z 33009KT 300V360 9999 FEW020 FEW025CB 10/05 Q1009",
      "taf": "TAF LPPT 211100Z 2112/2218 29007KT 9999 SCT035"
    },
    {
      "icao": "LQSA",
      "alert": "OK",
      "vis_m": 8000,
      "fzfg": false,
      "metar_trigger": false,
      "taf_trigger": false,
      "metar": "METAR LQSA 211430Z VRB02KT 8000 BKN012 OVC020 03/01 Q1018 NOSIG",
      "taf": "TAF LQSA 211100Z 2112/2212 VRB02KT 8000 BKN010 OVC020 TX04/2113Z TNM02/2205Z"
    },
    {
      "icao": "LQTZ",
      "alert": "OK",
      "vis_m": 6000,
      "fzfg": false,
      "metar_trigger": false,
      "taf_trigger": false,
      "metar": "METAR LQTZ 211430Z 11002KT 6000 SCT009 OVC016 05/05 Q1019",
      "taf": "TAF LQTZ 211100Z 2112/2212 12005KT 4000 BR OVC006 TX06/2113Z TN02/2205Z"
    },
    {
      "icao": "LRCL",
      "alert": "OK",
      "vis_m": 8000,
      "fzfg": false,
      "metar_trigger": false,
      "taf_trigger": false,
      "metar": "METAR LRCL 211430Z 25004KT 8000 OVC012 05/04 Q1019",
      "taf": "TAF LRCL 211400Z 2115/2124 VRB04KT 5000 BR BKN010"
    },
    {
      "icao": "LRCV",
      "alert": "OK",
      "vis_m": 5000,
      "fzfg": false,
      "metar_trigger": false,
      "taf_trigger": false,
      "metar": "METAR LRCV 211430Z 28003KT 230V320 5000 BR OVC014 06/04 Q1020",
      "taf": "TAF LRCV 211400Z 2115/2124 VRB04KT 5000 BR BKN015"
    },
    {
      "icao": "LRIA",
      "alert": "OK",
      "vis_m": 7000,
      "fzfg": false,
      "metar_trigger": false,
      "taf_trigger": false,
      "metar": "METAR LRIA 211430Z 34003KT 310V020 7000 OVC003 02/02 Q1020",
      "taf": "TAF LRIA 211400Z 2115/2124 VRB03KT 5000 BR OVC002"
    },
    {
      "icao": "LROP",
      "alert": "OK",
      "vis_m": 9999,
      "fzfg": false,
      "metar_trigger": false,
      "taf_trigger": false,
      "metar": "METAR LROP 211430Z 23004KT 9999 SCT018 05/05 Q1020 NOSIG",
      "taf": "TAF LROP 211100Z 2112/2212 23006KT 5000 BR BKN010"
    },
    {
      "icao": "LRSB",
      "alert": "OK",
      "vis_m": 9999,
      "fzfg": false,
      "metar_trigger": false,
      "taf_trigger": false,
      "metar": "METAR LRSB 211430Z 10004KT CAVOK 03/01 Q1018",
      "taf": "TAF LRSB 211100Z 2112/2212 VRB04KT 3000 BR NSC"
    },
    {
      "icao": "LRTR",
      "alert": "OK",
      "vis_m": 5000,
      "fzfg": false,
      "metar_trigger": false,
      "taf_trigger": false,
      "metar": "METAR LRTR 211430Z 36006KT 5000 BR FEW004 BKN005 OVC007 05/05 Q1020",
      "taf": "TAF LRTR 211100Z 2112/2212 VRB04KT 3000 BR OVC002"
    },
    {
      "icao": "LTAF",
      "alert": "OK",
      "vis_m": 9999,
      "fzfg": false,
      "metar_trigger": false,
      "taf_trigger": false,
      "metar": "METAR LTAF 211420Z 05011KT CAVOK 17/M02 Q1015 NOSIG RMK RWY23 07006KT 6CI200",
      "taf": "TAF LTAF 211040Z 2112/2212 05009KT CAVOK"
    },
    {
      "icao": "LTAI",
      "alert": "OK",
      "vis_m": 9999,
      "fzfg": false,
      "metar_trigger": false,
      "taf_trigger": false,
      "metar": "METAR LTAI 211420Z 33005KT 290V360 9999 SCT030 BKN100 14/10 Q1015 NOSIG RMK RWY18C 34004KT 310V010 RWY36R 34004KT RWY18L 34003KT",
      "taf": "TAF LTAI 211040Z 2112/2212 34009KT 4000 SHRA BR FEW015CB BKN025"
    },
    {
      "icao": "LTFM",
      "alert": "OK",
      "vis_m": 9999,
      "fzfg": false,
      "metar_trigger": false,
      "taf_trigger": false,
      "metar": "METAR LTFM 211420Z 03010KT 9999 SCT015 BKN025 12/09 Q1017 NOSIG RMK RWY17L 04008KT RWY34L 03008KT RWY16R 04008KT RWY36 03010KT RWY18 04008KT",
      "taf": "TAF LTFM 211040Z 2112/2218 05008KT 9999 SCT015 BKN025"
    },
    {
      "icao": "LUBL",
      "alert": "OK",
      "vis_m": null,
      "fzfg": false,
      "metar_trigger": false,
      "taf_trigger": false,
      "metar": "",
      "taf": ""
    },
    {
      "icao": "LUKK",
      "alert": "OK",
      "vis_m": 1900,
      "fzfg": false,
      "metar_trigger": false,
      "taf_trigger": false,
      "metar": "METAR LUKK 211430Z VRB03KT 1900 1100SW R08/1400N BR OVC002 01/01 Q1019 TEMPO 1500 BR OVC003",
      "taf": "TAF LUKK 211131Z 2112/2212 VRB04KT 0800 FG VV002"
    },
    {
      "icao": "LWSK",
      "alert": "OK",
      "vis_m": 400,
      "fzfg": false,
      "metar_trigger": false,
      "taf_trigger": false,
      "metar": "METAR LWSK 211450Z VRB02KT 0400 R34/0650D FG VV002 01/01 Q1019 NOSIG",
      "taf": "TAF LWSK 211410Z 2115/2215 VRB02KT 0600 FG OVC002"
    },
    {
      "icao": "LYBE",
      "alert": "OK",
      "vis_m": 4000,
      "fzfg": false,
      "metar_trigger": false,
      "taf_trigger": false,
      "metar": "METAR LYBE 211430Z 00000KT 4000 BR OVC006 05/03 Q1020 NOSIG",
      "taf": "TAF LYBE 211100Z 2112/2212 07006KT 5000 BR OVC008 TX05/2113Z TN02/2206Z"
    },
    {
      "icao": "LZIB",
      "alert": "OK",
      "vis_m": 1500,
      "fzfg": false,
      "metar_trigger": false,
      "taf_trigger": false,
      "metar": "METAR LZIB 211430Z 09005KT 1500 -DZ BR SCT001 BKN002 OVC003 03/03 Q1019 TEMPO 0700 FG OVC001",
      "taf": ""
    },
    {
      "icao": "LZKZ",
      "alert": "OK",
      "vis_m": 6000,
      "fzfg": false,
      "metar_trigger": false,
      "taf_trigger": false,
      "metar": "METAR LZKZ 211430Z 15002KT 6000 SCT011 SCT049 05/04 Q1020 NOSIG",
      "taf": ""
    },
    {
      "icao": "LZTT",
      "alert": "OK",
      "vis_m": 9999,
      "fzfg": false,
      "metar_trigger": false,
      "taf_trigger": false,
      "metar": "METAR LZTT 211430Z 07001KT 9999 FEW004 SCT016 BKN040 03/01 Q1018 NOSIG",
      "taf": "TAF LZTT 211115Z 2112/2212 VRB02KT 9999 FEW033"
    },
    {
      "icao": "OEJN",
      "alert": "OK",
      "vis_m": 9999,
      "fzfg": false,
      "metar_trigger": false,
      "taf_trigger": false,
      "metar": "METAR OEJN 211400Z 25007KT 9999 FEW040 28/18 Q1011 NOSIG",
      "taf": "TAF OEJN 211100Z 2112/2218 27012KT 9999 FEW040"
    },
    {
      "icao": "OEMA",
      "alert": "OK",
      "vis_m": 9999,
      "fzfg": false,
      "metar_trigger": false,
      "taf_trigger": false,
      "metar": "METAR OEMA 211400Z 07008KT CAVOK 22/M04 Q1017 NOSIG",
      "taf": "TAF OEMA 211100Z 2112/2218 14012KT 9999 FEW040"
    },
    {
      "icao": "OERK",
      "alert": "OK",
      "vis_m": 9999,
      "fzfg": false,
      "metar_trigger": false,
      "taf_trigger": false,
      "metar": "METAR OERK 211400Z 05003KT CAVOK 15/M02 Q1021 NOSIG",
      "taf": "TAF OERK 211100Z 2112/2218 10010KT 9999 FEW040"
    },
    {
      "icao": "OJAI",
      "alert": "OK",
      "vis_m": 5000,
      "fzfg": false,
      "metar_trigger": false,
      "taf_trigger": false,
      "metar": "METAR OJAI 211400Z 13006KT 5000 HZ FEW030 16/02 Q1016 NOSIG",
      "taf": "TAF OJAI 211035Z 2112/2218 12010KT 5000 HZ NSC"
    },
    {
      "icao": "OKBK",
      "alert": "OK",
      "vis_m": null,
      "fzfg": false,
      "metar_trigger": false,
      "taf_trigger": false,
      "metar": "",
      "taf": ""
    },
    {
      "icao": "OMAA",
      "alert": "OK",
      "vis_m": 9999,
      "fzfg": false,
      "metar_trigger": false,
      "taf_trigger": false,
      "metar": "METAR OMAA 211400Z 33005KT CAVOK 21/12 Q1019 NOSIG",
      "taf": "TAF OMAA 211100Z 2112/2218 33008KT 8000 FEW040"
    },
    {
      "icao": "UAAA",
      "alert": "OK",
      "vis_m": 600,
      "fzfg": true,
      "metar_trigger": false,
      "taf_trigger": false,
      "metar": "METAR UAAA 211430Z VRB01MPS 0600 R23L/1600N -SHSN FZFG SCT011 BKN028CB OVC100 M01/M01 Q1028 NOSIG",
      "taf": "TAF UAAA 211102Z 2112/2212 19003MPS 3100 BR SCT011 BKN020CB OVC050 TXM00/2207Z TNM06/2201Z"
    },
    {
      "icao": "UCFM",
      "alert": "OK",
      "vis_m": 1000,
      "fzfg": true,
      "metar_trigger": false,
      "taf_trigger": false,
      "metar": "METAR UCFM 211430Z VRB01MPS 1000 0900S R07/P1500D BCFG BKN016 M00/M00 Q1028 NOSIG",
      "taf": "TAF UCFM 211056Z 2112/2212 12003MPS 0800 FZFG FEW003 OVC030CB"
    },
    {
      "icao": "UDYZ",
      "alert": "OK",
      "vis_m": 6000,
      "fzfg": false,
      "metar_trigger": false,
      "taf_trigger": false,
      "metar": "METAR UDYZ 211430Z 00000KT 6000 NSC 01/M05 Q1023 NOSIG",
      "taf": "TAF UDYZ 211100Z 2112/2212 VRB04KT 6000 NSC"
    },
    {
      "icao": "UGTB",
      "alert": "OK",
      "vis_m": 7000,
      "fzfg": false,
      "metar_trigger": false,
      "taf_trigger": false,
      "metar": "METAR UGTB 211430Z VRB01KT 7000 OVC023 03/00 Q1024 NOSIG",
      "taf": "TAF UGTB 211100Z 2112/2212 VRB02KT 6000 SCT014 OVC025 TX09/2212Z TNM02/2203Z"
    },
    {
      "icao": "UKKK",
      "alert": "OK",
      "vis_m": null,
      "fzfg": false,
      "metar_trigger": false,
      "taf_trigger": false,
      "metar": "",
      "taf": ""
    },
    {
      "icao": "UTTT",
      "alert": "OK",
      "vis_m": null,
      "fzfg": false,
      "metar_trigger": false,
      "taf_trigger": false,
      "metar": "",
      "taf": ""
    }
  ]
}