{
  "ts_utc": "2025-12-23T10:57:19Z",
  "threshold_m": 150,
  "source": "stations_override.txt (ICAO list) + aviationweather.gov (METAR/TAF raw)",
  "station_count": 159,
  "stations": [
    {
      "icao": "BIKF",
      "alert": "OK",
      "vis_m": 9999,
      "fzfg": false,
      "metar_trigger": false,
      "taf_trigger": false,
      "metar": "METAR BIKF 231030Z 17018KT 9999 FEW020 OVC070 04/02 Q1011",
      "taf": "TAF BIKF 231044Z 2312/2412 18020G30KT 9999 RA BKN020 OVC030 TX09/2412Z TN05/2312Z"
    },
    {
      "icao": "BKPR",
      "alert": "OK",
      "vis_m": null,
      "fzfg": false,
      "metar_trigger": false,
      "taf_trigger": false,
      "metar": "",
      "taf": "TAF BKPR 230530Z 2306/2406 22008KT 9999 BKN005"
    },
    {
      "icao": "EBCI",
      "alert": "OK",
      "vis_m": 9999,
      "fzfg": false,
      "metar_trigger": false,
      "taf_trigger": false,
      "metar": "METAR EBCI 231050Z 08009KT 050V110 9999 BKN013 03/00 Q1015 BECMG BKN015",
      "taf": "TAF EBCI 230500Z 2306/2412 06008KT 2000 BKN002"
    },
    {
      "icao": "EDDB",
      "alert": "OK",
      "vis_m": 9999,
      "fzfg": false,
      "metar_trigger": false,
      "taf_trigger": false,
      "metar": "METAR EDDB 231050Z AUTO 07010KT 9999 OVC016 02/M01 Q1024 NOSIG",
      "taf": "TAF EDDB 230500Z 2306/2406 06010KT 9999 BKN012"
    },
    {
      "icao": "EDDH",
      "alert": "OK",
      "vis_m": 9999,
      "fzfg": false,
      "metar_trigger": false,
      "taf_trigger": false,
      "metar": "METAR EDDH 231050Z AUTO 09010KT 050V120 9999 OVC018 02/M01 Q1026 TEMPO 08015G25KT",
      "taf": ""
    },
    {
      "icao": "EDDK",
      "alert": "OK",
      "vis_m": 9999,
      "fzfg": false,
      "metar_trigger": false,
      "taf_trigger": false,
      "metar": "METAR EDDK 231050Z AUTO 09006KT 060V130 9999 OVC020 05/01 Q1017 NOSIG",
      "taf": "TAF EDDK 230500Z 2306/2412 10007KT 9999 OVC020"
    },
    {
      "icao": "EDDN",
      "alert": "OK",
      "vis_m": 9999,
      "fzfg": false,
      "metar_trigger": false,
      "taf_trigger": false,
      "metar": "METAR EDDN 231050Z AUTO 09009KT 360V120 9999 -DZ OVC022 04/M00 Q1015 NOSIG",
      "taf": "TAF EDDN 230500Z 2306/2406 08006KT 9000 BKN012"
    },
    {
      "icao": "EDDS",
      "alert": "OK",
      "vis_m": 9999,
      "fzfg": false,
      "metar_trigger": false,
      "taf_trigger": false,
      "metar": "METAR EDDS 231050Z AUTO 09009KT 9999 OVC009 01/M01 Q1013 NOSIG",
      "taf": "TAF EDDS 230500Z 2306/2406 07005KT 9999 BKN008"
    },
    {
      "icao": "EDFH",
      "alert": "OK",
      "vis_m": 9999,
      "fzfg": false,
      "metar_trigger": false,
      "taf_trigger": false,
      "metar": "METAR EDFH 231050Z 09013KT 060V140 9999 OVC008 01/M00 Q1014",
      "taf": ""
    },
    {
      "icao": "EDJA",
      "alert": "OK",
      "vis_m": 3600,
      "fzfg": false,
      "metar_trigger": false,
      "taf_trigger": false,
      "metar": "METAR EDJA 231050Z 07007KT 040V100 3600 BR OVC002 M01/M01 Q1012",
      "taf": "TAF EDJA 230800Z 2309/2318 07009KT 6000 OVC003"
    },
    {
      "icao": "EDLW",
      "alert": "OK",
      "vis_m": 9999,
      "fzfg": false,
      "metar_trigger": false,
      "taf_trigger": false,
      "metar": "METAR EDLW 231050Z 05014KT 9999 OVC024 05/00 Q1017",
      "taf": "TAF EDLW 230500Z 2306/2406 06010KT 9999 OVC020"
    },
    {
      "icao": "EDNY",
      "alert": "OK",
      "vis_m": 8000,
      "fzfg": false,
      "metar_trigger": false,
      "taf_trigger": false,
      "metar": "METAR EDNY 231050Z 06008KT 8000 OVC012 01/M01 Q1012",
      "taf": "TAF EDNY 230800Z 2309/2318 06007KT 9000 OVC008"
    },
    {
      "icao": "EDSB",
      "alert": "OK",
      "vis_m": 9999,
      "fzfg": false,
      "metar_trigger": false,
      "taf_trigger": false,
      "metar": "METAR EDSB 231050Z 05013KT 9999 FEW020 OVC023 04/01 Q1013",
      "taf": ""
    },
    {
      "icao": "EETN",
      "alert": "OK",
      "vis_m": 9999,
      "fzfg": false,
      "metar_trigger": false,
      "taf_trigger": false,
      "metar": "METAR EETN 231050Z 01005KT 9999 BKN037 M03/M09 Q1035 NOSIG",
      "taf": "TAF EETN 230530Z 2306/2406 VRB02KT 9999 BKN040"
    },
    {
      "icao": "EFTU",
      "alert": "OK",
      "vis_m": 9999,
      "fzfg": false,
      "metar_trigger": false,
      "taf_trigger": false,
      "metar": "METAR EFTU 231050Z AUTO VRB02KT CAVOK M08/M10 Q1036",
      "taf": "TAF EFTU 230822Z 2309/2409 VRB02KT CAVOK"
    },
    {
      "icao": "EGBB",
      "alert": "OK",
      "vis_m": 8000,
      "fzfg": false,
      "metar_trigger": false,
      "taf_trigger": false,
      "metar": "METAR EGBB 231050Z VRB08KT 8000 OVC016 07/04 Q1019",
      "taf": ""
    },
    {
      "icao": "EGGP",
      "alert": "OK",
      "vis_m": 9000,
      "fzfg": false,
      "metar_trigger": false,
      "taf_trigger": false,
      "metar": "METAR EGGP 231050Z 07006KT 9000 OVC018 07/05 Q1021",
      "taf": "TAF EGGP 230503Z 2306/2406 11006KT 9999 SCT012"
    },
    {
      "icao": "EGGW",
      "alert": "OK",
      "vis_m": 8000,
      "fzfg": false,
      "metar_trigger": false,
      "taf_trigger": false,
      "metar": "METAR EGGW 231050Z AUTO 06012KT 8000 OVC010 06/04 Q1017",
      "taf": ""
    },
    {
      "icao": "EGKK",
      "alert": "OK",
      "vis_m": 9999,
      "fzfg": false,
      "metar_trigger": false,
      "taf_trigger": false,
      "metar": "METAR EGKK 231050Z 05012KT 9999 BKN015 07/05 Q1016",
      "taf": "TAF EGKK 230456Z 2306/2412 06009KT 9999 SCT016"
    },
    {
      "icao": "EGNM",
      "alert": "OK",
      "vis_m": 5000,
      "fzfg": false,
      "metar_trigger": false,
      "taf_trigger": false,
      "metar": "METAR EGNM 231050Z 07006KT 5000 BR SCT007 BKN012 06/05 Q1021",
      "taf": ""
    },
    {
      "icao": "EGPD",
      "alert": "OK",
      "vis_m": 9000,
      "fzfg": false,
      "metar_trigger": false,
      "taf_trigger": false,
      "metar": "METAR EGPD 231050Z COR 14010KT 9000 SCT007 BKN014 08/07 Q1025 TEMPO BKN009",
      "taf": ""
    },
    {
      "icao": "EGPF",
      "alert": "OK",
      "vis_m": 9999,
      "fzfg": false,
      "metar_trigger": false,
      "taf_trigger": false,
      "metar": "METAR EGPF 231050Z 05009KT 9999 BKN021 OVC027 08/06 Q1023",
      "taf": ""
    },
    {
      "icao": "EHBK",
      "alert": "OK",
      "vis_m": 9999,
      "fzfg": false,
      "metar_trigger": false,
      "taf_trigger": false,
      "metar": "METAR EHBK 231025Z AUTO 09013KT 050V120 9999 OVC017 05/01 Q1016 NOSIG",
      "taf": "TAF EHBK 230514Z 2306/2412 08010KT 9999 BKN016"
    },
    {
      "icao": "EHEH",
      "alert": "OK",
      "vis_m": 9999,
      "fzfg": false,
      "metar_trigger": false,
      "taf_trigger": false,
      "metar": "METAR EHEH 231025Z AUTO 08011KT 360V150 9999 OVC019 06/01 Q1017 WHT NOSIG RMK TREND REMOTE BY EHWX",
      "taf": "TAF EHEH 230527Z 2306/2412 08012KT 9999 BKN018 OVC020"
    },
    {
      "icao": "EKBI",
      "alert": "OK",
      "vis_m": 9999,
      "fzfg": false,
      "metar_trigger": false,
      "taf_trigger": false,
      "metar": "METAR EKBI 231050Z AUTO 07013KT 9999 OVC027/// 05/01 Q1029",
      "taf": "TAF EKBI 230827Z 2309/2409 07012KT 9999 SCT015 OVC030"
    },
    {
      "icao": "EKCH",
      "alert": "OK",
      "vis_m": 9999,
      "fzfg": false,
      "metar_trigger": false,
      "taf_trigger": false,
      "metar": "METAR EKCH 231050Z AUTO 05013KT 9999 FEW012/// SCT031/// 03/01 Q1031 NOSIG",
      "taf": "TAF EKCH 230827Z 2309/2409 06012KT 9999 BKN030"
    },
    {
      "icao": "ENAL",
      "alert": "OK",
      "vis_m": 9999,
      "fzfg": false,
      "metar_trigger": false,
      "taf_trigger": false,
      "metar": "METAR ENAL 231050Z 16010KT CAVOK 04/M05 Q1031",
      "taf": "TAF ENAL 230800Z 2309/2318 15012KT CAVOK"
    },
    {
      "icao": "ENBR",
      "alert": "OK",
      "vis_m": 9999,
      "fzfg": false,
      "metar_trigger": false,
      "taf_trigger": false,
      "metar": "METAR ENBR 231050Z 00000KT CAVOK 02/M02 Q1032 NOSIG RMK WIND 1200FT 22007KT",
      "taf": "TAF ENBR 230500Z 2306/2406 VRB03KT CAVOK"
    },
    {
      "icao": "ENGM",
      "alert": "OK",
      "vis_m": 9999,
      "fzfg": false,
      "metar_trigger": false,
      "taf_trigger": false,
      "metar": "METAR ENGM 231050Z VRB02KT 9999 OVC017 M02/M05 Q1036 NOSIG",
      "taf": ""
    },
    {
      "icao": "ENHD",
      "alert": "OK",
      "vis_m": 9999,
      "fzfg": false,
      "metar_trigger": false,
      "taf_trigger": false,
      "metar": "METAR ENHD 231050Z 18006KT CAVOK 05/00 Q1032",
      "taf": "TAF ENHD 230800Z 2309/2318 16006KT CAVOK"
    },
    {
      "icao": "ENTC",
      "alert": "OK",
      "vis_m": 8000,
      "fzfg": false,
      "metar_trigger": false,
      "taf_trigger": false,
      "metar": "METAR ENTC 231050Z 17006KT 8000 -DZRA FEW005 SCT009 BKN013 03/01 Q1028 TEMPO 4000 RADZ BKN015 RMK WIND 2600FT 30012KT",
      "taf": ""
    },
    {
      "icao": "ENTO",
      "alert": "OK",
      "vis_m": 9999,
      "fzfg": false,
      "metar_trigger": false,
      "taf_trigger": false,
      "metar": "METAR ENTO 231050Z 36006KT 9999 -SN FEW013 OVC019 M01/M01 Q1036 NOSIG",
      "taf": ""
    },
    {
      "icao": "ENVA",
      "alert": "OK",
      "vis_m": 9999,
      "fzfg": false,
      "metar_trigger": false,
      "taf_trigger": false,
      "metar": "METAR ENVA 231050Z 11006KT CAVOK M03/M05 Q1033 NOSIG RMK WIND 670FT 10007KT",
      "taf": "TAF ENVA 230500Z 2306/2406 08005KT CAVOK"
    },
    {
      "icao": "ENZV",
      "alert": "OK",
      "vis_m": 9999,
      "fzfg": false,
      "metar_trigger": false,
      "taf_trigger": false,
      "metar": "METAR ENZV 231050Z VRB01KT CAVOK 04/M02 Q1032 NOSIG",
      "taf": "TAF ENZV 230500Z 2306/2406 13003KT CAVOK"
    },
    {
      "icao": "EPGD",
      "alert": "OK",
      "vis_m": 9999,
      "fzfg": false,
      "metar_trigger": false,
      "taf_trigger": false,
      "metar": "METAR EPGD 231030Z 05007KT 010V080 9999 BKN020 03/01 Q1027",
      "taf": "TAF EPGD 230530Z 2306/2406 VRB02KT 9999 BKN023"
    },
    {
      "icao": "EPKK",
      "alert": "OK",
      "vis_m": 5000,
      "fzfg": false,
      "metar_trigger": false,
      "taf_trigger": false,
      "metar": "METAR EPKK 231030Z 05009KT 5000 BR OVC004 01/M00 Q1020",
      "taf": "TAF EPKK 230830Z 2309/2409 06009KT 4000 -DZ BR BKN004"
    },
    {
      "icao": "EPKT",
      "alert": "OK",
      "vis_m": 5000,
      "fzfg": false,
      "metar_trigger": false,
      "taf_trigger": false,
      "metar": "METAR EPKT 231030Z 07009KT 5000 BR OVC003 00/M00 Q1020",
      "taf": ""
    },
    {
      "icao": "EPLB",
      "alert": "OK",
      "vis_m": 9999,
      "fzfg": false,
      "metar_trigger": false,
      "taf_trigger": false,
      "metar": "METAR EPLB 231030Z 05003KT 9999 FEW025 OVC030 01/M00 Q1023",
      "taf": "TAF EPLB 230530Z 2306/2406 07006KT 9999 BKN030"
    },
    {
      "icao": "EPMO",
      "alert": "OK",
      "vis_m": 9999,
      "fzfg": false,
      "metar_trigger": false,
      "taf_trigger": false,
      "metar": "METAR EPMO 231030Z 04005KT 9999 BKN034 02/M01 Q1024",
      "taf": "TAF EPMO 230530Z 2306/2406 06007KT 9999 BKN030"
    },
    {
      "icao": "EPPO",
      "alert": "OK",
      "vis_m": 9999,
      "fzfg": false,
      "metar_trigger": false,
      "taf_trigger": false,
      "metar": "METAR EPPO 231030Z 08006KT 9999 BKN033 03/M03 Q1025",
      "taf": "TAF EPPO 230530Z 2306/2406 09012KT 9999 OVC018"
    },
    {
      "icao": "EPRA",
      "alert": "OK",
      "vis_m": 9999,
      "fzfg": false,
      "metar_trigger": false,
      "taf_trigger": false,
      "metar": "METAR EPRA 231030Z 04005KT 9999 BKN032 01/M02 Q1023",
      "taf": "TAF EPRA 230830Z 2309/2318 07008KT 9999 BKN030"
    },
    {
      "icao": "EPRZ",
      "alert": "OK",
      "vis_m": 8000,
      "fzfg": false,
      "metar_trigger": false,
      "taf_trigger": false,
      "metar": "METAR EPRZ 231030Z 06008KT 8000 -SN FEW003 OVC013 01/M01 Q1021",
      "taf": ""
    },
    {
      "icao": "EPSC",
      "alert": "OK",
      "vis_m": 9999,
      "fzfg": false,
      "metar_trigger": false,
      "taf_trigger": false,
      "metar": "METAR EPSC 231030Z 06005KT 030V090 9999 BKN039 03/M01 Q1026",
      "taf": "TAF EPSC 230530Z 2306/2406 08007KT 9999 OVC028"
    },
    {
      "icao": "EPSY",
      "alert": "OK",
      "vis_m": 9999,
      "fzfg": false,
      "metar_trigger": false,
      "taf_trigger": false,
      "metar": "METAR EPSY 231030Z 05006KT 020V100 9999 SCT011 BKN018 02/00 Q1025",
      "taf": "TAF EPSY 230830Z 2309/2318 04008KT 9999 BKN035"
    },
    {
      "icao": "EPWA",
      "alert": "OK",
      "vis_m": 9999,
      "fzfg": false,
      "metar_trigger": false,
      "taf_trigger": false,
      "metar": "METAR EPWA 231030Z 06007KT 360V090 9999 BKN036 03/M02 Q1024 NOSIG",
      "taf": "TAF EPWA 230830Z 2309/2409 06008KT 9999 BKN030"
    },
    {
      "icao": "EPWR",
      "alert": "OK",
      "vis_m": 9999,
      "fzfg": false,
      "metar_trigger": false,
      "taf_trigger": false,
      "metar": "METAR EPWR 231030Z 06007KT 9999 OVC010 02/00 Q1022",
      "taf": "TAF EPWR 230830Z 2309/2409 06005KT 5000 BR OVC005"
    },
    {
      "icao": "ESGG",
      "alert": "OK",
      "vis_m": 9999,
      "fzfg": false,
      "metar_trigger": false,
      "taf_trigger": false,
      "metar": "METAR ESGG 231050Z 06008KT 9999 BKN009 M00/M02 Q1033",
      "taf": ""
    },
    {
      "icao": "ESKN",
      "alert": "OK",
      "vis_m": 9999,
      "fzfg": false,
      "metar_trigger": false,
      "taf_trigger": false,
      "metar": "METAR ESKN 231050Z 05005KT 020V080 CAVOK M00/M02 Q1035",
      "taf": "TAF ESKN 230830Z 2309/2409 02005KT 9999 SCT020"
    },
    {
      "icao": "ESMS",
      "alert": "OK",
      "vis_m": 9999,
      "fzfg": false,
      "metar_trigger": false,
      "taf_trigger": false,
      "metar": "METAR ESMS 231050Z 05011KT 9999 FEW012 SCT033 03/01 Q1029",
      "taf": ""
    },
    {
      "icao": "ESSA",
      "alert": "OK",
      "vis_m": 9999,
      "fzfg": false,
      "metar_trigger": false,
      "taf_trigger": false,
      "metar": "METAR ESSA 231050Z 02005KT 9999 FEW029 M03/M05 Q1036 NOSIG",
      "taf": "TAF ESSA 230830Z 2309/2409 06008KT 9999 BKN040"
    },
    {
      "icao": "EYKA",
      "alert": "OK",
      "vis_m": 9999,
      "fzfg": false,
      "metar_trigger": false,
      "taf_trigger": false,
      "metar": "METAR EYKA 231050Z 04010KT 010V080 CAVOK M04/M10 Q1029",
      "taf": "TAF EYKA 230500Z 2306/2406 04010KT 9000 SCT010 BKN015"
    },
    {
      "icao": "EYPA",
      "alert": "OK",
      "vis_m": 9999,
      "fzfg": false,
      "metar_trigger": false,
      "taf_trigger": false,
      "metar": "METAR EYPA 231050Z 08009KT 050V120 9999 OVC022 M02/M06 Q1031",
      "taf": "TAF EYPA 230500Z 2306/2406 06010KT 9000 SCT010 BKN015"
    },
    {
      "icao": "EYVI",
      "alert": "OK",
      "vis_m": 9999,
      "fzfg": false,
      "metar_trigger": false,
      "taf_trigger": false,
      "metar": "METAR EYVI 231050Z 04013KT 9999 FEW020 M07/M11 Q1028 NOSIG",
      "taf": "TAF EYVI 230500Z 2306/2406 03014KT 9000 BKN025"
    },
    {
      "icao": "GCFV",
      "alert": "OK",
      "vis_m": 9999,
      "fzfg": false,
      "metar_trigger": false,
      "taf_trigger": false,
      "metar": "METAR GCFV 231030Z 36015KT 9999 SCT035 19/09 Q1022",
      "taf": "TAF GCFV 230800Z 2309/2409 02012KT 9999 SCT025 TX22/2314Z TN15/2406Z"
    },
    {
      "icao": "GCLP",
      "alert": "OK",
      "vis_m": 9999,
      "fzfg": false,
      "metar_trigger": false,
      "taf_trigger": false,
      "metar": "METAR GCLP 231030Z 36018KT 9999 FEW040 19/10 Q1022 NOSIG",
      "taf": "TAF GCLP 230800Z 2309/2409 36018KT 9999 BKN020 TX21/2314Z TN15/2406Z"
    },
    {
      "icao": "GCTS",
      "alert": "OK",
      "vis_m": 9999,
      "fzfg": false,
      "metar_trigger": false,
      "taf_trigger": false,
      "metar": "METAR GCTS 231030Z 06011KT 010V080 9999 FEW035 20/09 Q1023 NOSIG",
      "taf": "TAF GCTS 230800Z 2309/2409 07012KT 9999 SCT030 TX24/2314Z TN15/2406Z"
    },
    {
      "icao": "GMAD",
      "alert": "OK",
      "vis_m": 9999,
      "fzfg": false,
      "metar_trigger": false,
      "taf_trigger": false,
      "metar": "METAR GMAD 231030Z 00000KT CAVOK 15/11 Q1019 NOSIG",
      "taf": "TAF GMAD 230500Z 2306/2412 22004KT 6000 SCT020"
    },
    {
      "icao": "GMMN",
      "alert": "OK",
      "vis_m": 9999,
      "fzfg": false,
      "metar_trigger": false,
      "taf_trigger": false,
      "metar": "METAR GMMN 231030Z 22012KT 9999 FEW020 BKN100 13/10 Q1019 NOSIG",
      "taf": "TAF GMMN 230500Z 2306/2412 22008KT 6000 SCT020"
    },
    {
      "icao": "GMMX",
      "alert": "OK",
      "vis_m": 9999,
      "fzfg": false,
      "metar_trigger": false,
      "taf_trigger": false,
      "metar": "METAR GMMX 231030Z VRB01KT 9999 SCT090 14/08 Q1020 NOSIG",
      "taf": "TAF GMMX 230500Z 2306/2412 04004KT 8000 SCT023"
    },
    {
      "icao": "HEGN",
      "alert": "OK",
      "vis_m": null,
      "fzfg": false,
      "metar_trigger": false,
      "taf_trigger": false,
      "metar": "",
      "taf": ""
    },
    {
      "icao": "HEMA",
      "alert": "OK",
      "vis_m": 9999,
      "fzfg": false,
      "metar_trigger": false,
      "taf_trigger": false,
      "metar": "METAR HEMA 231000Z 30008KT 9999 SCT020 SCT200 24/00 Q1015 NOSIG",
      "taf": ""
    },
    {
      "icao": "HESH",
      "alert": "OK",
      "vis_m": 9999,
      "fzfg": false,
      "metar_trigger": false,
      "taf_trigger": false,
      "metar": "METAR HESH 231000Z 36010KT CAVOK 23/10 Q1015 NOSIG",
      "taf": ""
    },
    {
      "icao": "HESX",
      "alert": "OK",
      "vis_m": 9999,
      "fzfg": false,
      "metar_trigger": false,
      "taf_trigger": false,
      "metar": "METAR HESX 231000Z 24006KT CAVOK 18/06 Q1017 NOSIG",
      "taf": ""
    },
    {
      "icao": "LATI",
      "alert": "OK",
      "vis_m": 9999,
      "fzfg": false,
      "metar_trigger": false,
      "taf_trigger": false,
      "metar": "METAR LATI 231050Z VRB01KT 9999 -RA SCT064 OVC095 11/06 Q1014 NOSIG",
      "taf": "TAF LATI 230500Z 2306/2406 VRB05KT 9999 SCT040 BKN080 TX14/2312Z TN09/2405Z"
    },
    {
      "icao": "LBPD",
      "alert": "OK",
      "vis_m": 9000,
      "fzfg": false,
      "metar_trigger": false,
      "taf_trigger": false,
      "metar": "METAR LBPD 231030Z AUTO 07003KT 040V110 9000 OVC007/// 06/06 Q1020 NOSIG",
      "taf": "TAF LBPD 230500Z 2306/2406 10006KT 7000 BKN005 OVC010"
    },
    {
      "icao": "LBSF",
      "alert": "OK",
      "vis_m": 9999,
      "fzfg": false,
      "metar_trigger": false,
      "taf_trigger": false,
      "metar": "METAR LBSF 231030Z 10010KT 070V130 9999 FEW021 SCT027 08/03 Q1018 NOSIG",
      "taf": "TAF LBSF 230500Z 2306/2406 VRB03KT 6000 SCT014 BKN050"
    },
    {
      "icao": "LBWN",
      "alert": "OK",
      "vis_m": 5000,
      "fzfg": false,
      "metar_trigger": false,
      "taf_trigger": false,
      "metar": "METAR LBWN 231030Z 27005KT 5000 BR OVC004 04/04 Q1020 TEMPO 5000 BR BKN004",
      "taf": "TAF LBWN 230500Z 2306/2406 VRB03KT 9999 SCT006 OVC010"
    },
    {
      "icao": "LCLK",
      "alert": "OK",
      "vis_m": 8000,
      "fzfg": false,
      "metar_trigger": false,
      "taf_trigger": false,
      "metar": "METAR LCLK 231030Z 08015KT 8000 -TSRA FEW020CB SCT030 17/15 Q1014 TEMPO 3000 TSRA SCT025CB RMK CB TO S",
      "taf": ""
    },
    {
      "icao": "LCPH",
      "alert": "OK",
      "vis_m": 9999,
      "fzfg": false,
      "metar_trigger": false,
      "taf_trigger": false,
      "metar": "METAR LCPH 231030Z 15012KT 9999 FEW025 FEW030CB 20/12 Q1013 NOSIG",
      "taf": "TAF LCPH 230530Z 2306/2406 09010KT 9999 FEW025"
    },
    {
      "icao": "LEAL",
      "alert": "OK",
      "vis_m": 9999,
      "fzfg": false,
      "metar_trigger": false,
      "taf_trigger": false,
      "metar": "METAR LEAL 231030Z 30013G23KT 260V330 9999 FEW030 13/02 Q1009 NOSIG",
      "taf": "TAF LEAL 230500Z 2306/2406 23005KT 9999 FEW040 TX15/2313Z TN07/2307Z"
    },
    {
      "icao": "LEBB",
      "alert": "OK",
      "vis_m": 9999,
      "fzfg": false,
      "metar_trigger": false,
      "taf_trigger": false,
      "metar": "METAR LEBB 231030Z VRB01KT 9999 FEW033 SCT051 11/04 Q1010 NOSIG",
      "taf": "TAF LEBB 230500Z 2306/2406 VRB03KT 9999 SCT035 TX11/2313Z TN07/2307Z"
    },
    {
      "icao": "LEBL",
      "alert": "OK",
      "vis_m": 9000,
      "fzfg": false,
      "metar_trigger": false,
      "taf_trigger": false,
      "metar": "METAR LEBL 231030Z 34006KT 270V030 9000 RA BKN050 07/05 Q1004 NOSIG",
      "taf": "TAF LEBL 230500Z 2306/2406 34012KT 9999 FEW020 TX10/2313Z TN06/2306Z"
    },
    {
      "icao": "LECH",
      "alert": "OK",
      "vis_m": 9999,
      "fzfg": false,
      "metar_trigger": false,
      "taf_trigger": false,
      "metar": "METAR LECH 231030Z AUTO 20003KT 140V230 CAVOK 10/01 Q1005",
      "taf": ""
    },
    {
      "icao": "LEMD",
      "alert": "OK",
      "vis_m": 9999,
      "fzfg": false,
      "metar_trigger": false,
      "taf_trigger": false,
      "metar": "METAR LEMD 231030Z VRB02KT 9999 OVC005 03/03 Q1011 NOSIG",
      "taf": ""
    },
    {
      "icao": "LEMG",
      "alert": "OK",
      "vis_m": 9999,
      "fzfg": false,
      "metar_trigger": false,
      "taf_trigger": false,
      "metar": "METAR LEMG 231030Z 25003KT 210V280 9999 BKN065 13/07 Q1014 NOSIG",
      "taf": "TAF LEMG 230500Z 2306/2406 32006KT 9999 FEW040 SCT050 TX15/2314Z TN07/2406Z"
    },
    {
      "icao": "LEVC",
      "alert": "OK",
      "vis_m": 9999,
      "fzfg": false,
      "metar_trigger": false,
      "taf_trigger": false,
      "metar": "METAR LEVC 231030Z 30012KT 260V320 CAVOK 13/01 Q1007 NOSIG",
      "taf": "TAF LEVC 230500Z 2306/2406 27010KT CAVOK TX14/2313Z TN07/2307Z"
    },
    {
      "icao": "LEXJ",
      "alert": "OK",
      "vis_m": 9999,
      "fzfg": false,
      "metar_trigger": false,
      "taf_trigger": false,
      "metar": "METAR LEXJ 231030Z 22009KT 190V250 9999 FEW030 SCT055 10/03 Q1010",
      "taf": "TAF LEXJ 230800Z 2309/2409 22009KT 9999 FEW030 SCT050 TX12/2313Z TN08/2309Z"
    },
    {
      "icao": "LEZG",
      "alert": "OK",
      "vis_m": 9999,
      "fzfg": false,
      "metar_trigger": false,
      "taf_trigger": false,
      "metar": "METAR LEZG 231030Z 28014KT 9999 FEW085 08/04 Q1007 NOSIG",
      "taf": ""
    },
    {
      "icao": "LEZL",
      "alert": "OK",
      "vis_m": 5000,
      "fzfg": false,
      "metar_trigger": false,
      "taf_trigger": false,
      "metar": "METAR LEZL 231030Z 17005KT 5000 -RA FEW017 BKN020 OVC035 11/11 Q1014 NOSIG",
      "taf": "TAF LEZL 230800Z 2309/2409 22005KT 9999 SCT040 TX15/2315Z TN08/2407Z"
    },
    {
      "icao": "LFBD",
      "alert": "OK",
      "vis_m": 9999,
      "fzfg": false,
      "metar_trigger": false,
      "taf_trigger": false,
      "metar": "METAR LFBD 231030Z AUTO 07006KT 030V100 9999 OVC007 07/06 Q1010 BECMG NSC",
      "taf": ""
    },
    {
      "icao": "LFLL",
      "alert": "OK",
      "vis_m": 8000,
      "fzfg": false,
      "metar_trigger": false,
      "taf_trigger": false,
      "metar": "METAR LFLL 231000Z 34006KT 8000 OVC004 05/04 Q1009 NOSIG",
      "taf": "TAF LFLL 230500Z 2306/2412 34007KT 6000 FEW006 BKN130"
    },
    {
      "icao": "LFLS",
      "alert": "OK",
      "vis_m": 9999,
      "fzfg": false,
      "metar_trigger": false,
      "taf_trigger": false,
      "metar": "METAR LFLS 231030Z AUTO 36008KT 9999 SCT010 OVC016 06/05 Q1008 BECMG OVC007",
      "taf": "TAF LFLS 230800Z 2309/2409 34008KT 9999 OVC007"
    },
    {
      "icao": "LFMN",
      "alert": "OK",
      "vis_m": 9999,
      "fzfg": false,
      "metar_trigger": false,
      "taf_trigger": false,
      "metar": "METAR LFMN 231030Z 06015G25KT 360V090 9999 BKN050 BKN086 16/06 Q1006 NOSIG",
      "taf": "TAF LFMN 230800Z 2309/2415 03015KT 9999 BKN040"
    },
    {
      "icao": "LFOB",
      "alert": "OK",
      "vis_m": 5000,
      "fzfg": false,
      "metar_trigger": false,
      "taf_trigger": false,
      "metar": "METAR LFOB 231030Z AUTO 08011KT 5000 BR OVC004 03/03 Q1013 TEMPO 0900 FG VV///",
      "taf": ""
    },
    {
      "icao": "LFPO",
      "alert": "OK",
      "vis_m": 6000,
      "fzfg": false,
      "metar_trigger": false,
      "taf_trigger": false,
      "metar": "METAR LFPO 231030Z 06008KT 6000 OVC007 03/02 Q1013 NOSIG",
      "taf": "TAF LFPO 230500Z 2306/2412 10005KT 9999 BKN012"
    },
    {
      "icao": "LFSB",
      "alert": "OK",
      "vis_m": 9999,
      "fzfg": false,
      "metar_trigger": false,
      "taf_trigger": false,
      "metar": "METAR LFSB 231030Z AUTO 03005KT 340V070 9999 SCT009 OVC017 02/00 Q1012 TEMPO BKN004",
      "taf": ""
    },
    {
      "icao": "LGAV",
      "alert": "OK",
      "vis_m": 9999,
      "fzfg": false,
      "metar_trigger": false,
      "taf_trigger": false,
      "metar": "METAR LGAV 231050Z 03011KT 9999 FEW020 SCT030 16/08 Q1017 NOSIG",
      "taf": "TAF LGAV 230500Z 2306/2406 36010KT 9999 FEW020 SCT030 BKN070"
    },
    {
      "icao": "LGTS",
      "alert": "OK",
      "vis_m": 9000,
      "fzfg": false,
      "metar_trigger": false,
      "taf_trigger": false,
      "metar": "METAR LGTS 231050Z VRB02KT 9000 -DZ SCT008 BKN030 12/09 Q1019 NOSIG",
      "taf": ""
    },
    {
      "icao": "LHBP",
      "alert": "OK",
      "vis_m": 5000,
      "fzfg": false,
      "metar_trigger": false,
      "taf_trigger": false,
      "metar": "METAR LHBP 231030Z 10009KT 5000 BR OVC005 04/03 Q1019 NOSIG",
      "taf": "TAF LHBP 230515Z 2306/2406 11007KT 9999 OVC020"
    },
    {
      "icao": "LHDC",
      "alert": "OK",
      "vis_m": 8000,
      "fzfg": false,
      "metar_trigger": false,
      "taf_trigger": false,
      "metar": "METAR LHDC 231015Z AUTO 06006KT 8000 SCT006 BKN044 BKN058 05/04 Q1019 NOSIG",
      "taf": "TAF LHDC 230815Z 2309/2318 VRB03KT 3000 BR OVC002"
    },
    {
      "icao": "LIBD",
      "alert": "OK",
      "vis_m": 9999,
      "fzfg": false,
      "metar_trigger": false,
      "taf_trigger": false,
      "metar": "METAR LIBD 231050Z 14011KT 9999 SCT020 16/13 Q1010",
      "taf": "TAF LIBD 230500Z 2306/2406 14007KT 9999 FEW040"
    },
    {
      "icao": "LIBG",
      "alert": "OK",
      "vis_m": 9999,
      "fzfg": false,
      "metar_trigger": false,
      "taf_trigger": false,
      "metar": "METAR LIBG 230950Z 11009KT 9999 SCT010 15/15 Q1012",
      "taf": "TAF LIBG 230800Z 2309/2318 14013KT 9999 SCT035"
    },
    {
      "icao": "LIBP",
      "alert": "OK",
      "vis_m": 9999,
      "fzfg": false,
      "metar_trigger": false,
      "taf_trigger": false,
      "metar": "METAR LIBP 231050Z AUTO VRB02KT 9999 FEW230/// 13/09 Q1010",
      "taf": "TAF LIBP 230500Z 2306/2406 VRB05KT 9999 BKN020"
    },
    {
      "icao": "LIBR",
      "alert": "OK",
      "vis_m": 9999,
      "fzfg": false,
      "metar_trigger": false,
      "taf_trigger": false,
      "metar": "METAR LIBR 231050Z 14009KT 110V170 9999 SCT010 15/14 Q1011",
      "taf": "TAF LIBR 230500Z 2306/2406 15008KT 9999 SCT040"
    },
    {
      "icao": "LICA",
      "alert": "OK",
      "vis_m": 9999,
      "fzfg": false,
      "metar_trigger": false,
      "taf_trigger": false,
      "metar": "METAR LICA 231050Z AUTO 05009KT 9999 RA BKN043/// 16/15 Q1009",
      "taf": "TAF LICA 230500Z 2306/2406 07015KT 9999 SCT040"
    },
    {
      "icao": "LICC",
      "alert": "OK",
      "vis_m": 9999,
      "fzfg": false,
      "metar_trigger": false,
      "taf_trigger": false,
      "metar": "METAR LICC 231050Z 10004KT 070V140 9999 SCT020 SCT050 17/16 Q1009",
      "taf": "TAF LICC 230500Z 2306/2406 VRB05KT 9999 SCT030"
    },
    {
      "icao": "LICJ",
      "alert": "OK",
      "vis_m": 9999,
      "fzfg": false,
      "metar_trigger": false,
      "taf_trigger": false,
      "metar": "METAR LICJ 231050Z 19006KT 140V230 CAVOK 16/09 Q1007",
      "taf": "TAF LICJ 230500Z 2306/2406 19012KT 9999 SCT040"
    },
    {
      "icao": "LIMC",
      "alert": "OK",
      "vis_m": 9999,
      "fzfg": false,
      "metar_trigger": false,
      "taf_trigger": false,
      "metar": "METAR LIMC 231050Z 34007KT 9999 -RA BKN040 08/07 Q1012 NOSIG",
      "taf": "TAF LIMC 230500Z 2306/2412 VRB04KT 9000 BKN050"
    },
    {
      "icao": "LIME",
      "alert": "OK",
      "vis_m": 9999,
      "fzfg": false,
      "metar_trigger": false,
      "taf_trigger": false,
      "metar": "METAR LIME 231050Z VRB01KT 9999 -DZ BKN045 08/05 Q1012 NOSIG",
      "taf": "TAF LIME 230500Z 2306/2406 VRB04KT 9000 SCT050"
    },
    {
      "icao": "LIMF",
      "alert": "OK",
      "vis_m": 4000,
      "fzfg": false,
      "metar_trigger": false,
      "taf_trigger": false,
      "metar": "METAR LIMF 231050Z 15004KT 4000 RA BR BKN025 OVC035 08/06 Q1013",
      "taf": "TAF LIMF 230500Z 2306/2406 VRB04KT 6000 RA SCT030 OVC060"
    },
    {
      "icao": "LIMJ",
      "alert": "OK",
      "vis_m": 9999,
      "fzfg": false,
      "metar_trigger": false,
      "taf_trigger": false,
      "metar": "METAR LIMJ 231050Z 03016KT 9999 FEW028 BKN040 OVC060 09/06 Q1010",
      "taf": "TAF LIMJ 230500Z 2306/2406 03015KT 8000 RA BKN040"
    },
    {
      "icao": "LIPE",
      "alert": "OK",
      "vis_m": 2500,
      "fzfg": false,
      "metar_trigger": false,
      "taf_trigger": false,
      "metar": "METAR LIPE 231050Z 28006KT 2500 -DZ BR SCT003 BKN005 08/08 Q1012",
      "taf": "TAF LIPE 230500Z 2306/2406 VRB05KT 4000 BR BKN012"
    },
    {
      "icao": "LIPH",
      "alert": "OK",
      "vis_m": 9999,
      "fzfg": false,
      "metar_trigger": false,
      "taf_trigger": false,
      "metar": "METAR LIPH 231050Z 06004KT 9999 BKN040 11/06 Q1012",
      "taf": "TAF LIPH 230500Z 2306/2406 05005KT 9999 SCT050"
    },
    {
      "icao": "LIPQ",
      "alert": "OK",
      "vis_m": 9999,
      "fzfg": false,
      "metar_trigger": false,
      "taf_trigger": false,
      "metar": "METAR LIPQ 231050Z AUTO 07004KT 9999 OVC041/// 11/07 Q1012",
      "taf": "TAF LIPQ 230500Z 2306/2406 06005KT 9999 BKN050"
    },
    {
      "icao": "LIPR",
      "alert": "OK",
      "vis_m": 3000,
      "fzfg": false,
      "metar_trigger": false,
      "taf_trigger": false,
      "metar": "METAR LIPR 231050Z 29004KT 3000 BR BKN004 10/09 Q1011",
      "taf": "TAF LIPR 230500Z 2306/2406 30007KT 4000 BR BKN020"
    },
    {
      "icao": "LIPX",
      "alert": "OK",
      "vis_m": 9999,
      "fzfg": false,
      "metar_trigger": false,
      "taf_trigger": false,
      "metar": "METAR LIPX 231050Z 24004KT 9999 BKN044 09/06 Q1012",
      "taf": "TAF LIPX 230500Z 2306/2406 VRB05KT 8000 SCT050"
    },
    {
      "icao": "LIPY",
      "alert": "OK",
      "vis_m": 5000,
      "fzfg": false,
      "metar_trigger": false,
      "taf_trigger": false,
      "metar": "METAR LIPY 231050Z AUTO 35004KT 5000 BR BKN005/// OVC027/// 11/11 Q1011",
      "taf": ""
    },
    {
      "icao": "LIPZ",
      "alert": "OK",
      "vis_m": 9999,
      "fzfg": false,
      "metar_trigger": false,
      "taf_trigger": false,
      "metar": "METAR LIPZ 231050Z 06006KT 9999 BKN045 09/06 Q1012 NOSIG",
      "taf": "TAF LIPZ 230500Z 2306/2412 03008KT 9999 SCT050"
    },
    {
      "icao": "LIRF",
      "alert": "OK",
      "vis_m": 8000,
      "fzfg": false,
      "metar_trigger": false,
      "taf_trigger": false,
      "metar": "METAR LIRF 231050Z 09010KT 8000 -RA SCT055 13/11 Q1008 NOSIG",
      "taf": "TAF LIRF 230500Z 2306/2412 12015KT 9999 BKN030"
    },
    {
      "icao": "LIRN",
      "alert": "OK",
      "vis_m": 9999,
      "fzfg": false,
      "metar_trigger": false,
      "taf_trigger": false,
      "metar": "METAR LIRN 231050Z 20003KT 160V240 9999 FEW030 SCT070 17/09 Q1008 NOSIG",
      "taf": "TAF LIRN 230500Z 2306/2406 05005KT 9999 SCT040"
    },
    {
      "icao": "LIRP",
      "alert": "OK",
      "vis_m": 9999,
      "fzfg": false,
      "metar_trigger": false,
      "taf_trigger": false,
      "metar": "METAR LIRP 231045Z 13006KT 9999 SCT030 SCT070 13/12 Q1008 NOSIG",
      "taf": "TAF LIRP 230500Z 2306/2406 06012KT 9999 SCT040 BKN060"
    },
    {
      "icao": "LIRZ",
      "alert": "OK",
      "vis_m": 9999,
      "fzfg": false,
      "metar_trigger": false,
      "taf_trigger": false,
      "metar": "METAR LIRZ 231050Z AUTO 23004KT 200V270 9999 -RA OVC066/// 10/08 Q1009",
      "taf": "TAF LIRZ 230500Z 2306/2406 VRB05KT 9999 SCT040"
    },
    {
      "icao": "LJLJ",
      "alert": "OK",
      "vis_m": 9999,
      "fzfg": false,
      "metar_trigger": false,
      "taf_trigger": false,
      "metar": "METAR LJLJ 231030Z VRB02KT 9999 FEW003 BKN008 OVC018 03/02 Q1015 NOSIG",
      "taf": "TAF LJLJ 230500Z 2306/2406 VRB02KT 8000 OVC010"
    },
    {
      "icao": "LKMT",
      "alert": "OK",
      "vis_m": 4500,
      "fzfg": false,
      "metar_trigger": false,
      "taf_trigger": false,
      "metar": "METAR LKMT 231030Z 04009KT 4500 BR BKN004 OVC008 02/02 Q1019 TEMPO 2500 BR",
      "taf": "TAF LKMT 230500Z 2306/2406 03008KT 4500 BR OVC008"
    },
    {
      "icao": "LKPR",
      "alert": "OK",
      "vis_m": 9000,
      "fzfg": false,
      "metar_trigger": false,
      "taf_trigger": false,
      "metar": "METAR LKPR 231030Z 08011KT 9000 -RADZ SCT005 BKN006 OVC030 02/02 Q1018 NOSIG",
      "taf": ""
    },
    {
      "icao": "LLBG",
      "alert": "OK",
      "vis_m": 9999,
      "fzfg": false,
      "metar_trigger": false,
      "taf_trigger": false,
      "metar": "METAR LLBG 231050Z 21011KT 9999 SCT045 20/10 Q1015 NOSIG",
      "taf": "TAF LLBG 230501Z 2306/2406 VRB04KT 9999 FEW040"
    },
    {
      "icao": "LMML",
      "alert": "OK",
      "vis_m": 9999,
      "fzfg": false,
      "metar_trigger": false,
      "taf_trigger": false,
      "metar": "METAR LMML 231045Z 20013KT 160V230 9999 FEW035 18/10 Q1010 NOSIG",
      "taf": "TAF LMML 230500Z 2306/2406 19010KT 9999 FEW025"
    },
    {
      "icao": "LOWW",
      "alert": "OK",
      "vis_m": 4500,
      "fzfg": false,
      "metar_trigger": false,
      "taf_trigger": false,
      "metar": "METAR LOWW 231050Z 13008KT 4500 BR FEW003 OVC005 03/02 Q1017 NOSIG",
      "taf": "TAF LOWW 230815Z 2309/2415 14012KT 5000 -RADZ OVC006 TX03/2311Z TNM00/2407Z"
    },
    {
      "icao": "LPFR",
      "alert": "OK",
      "vis_m": 9999,
      "fzfg": false,
      "metar_trigger": false,
      "taf_trigger": false,
      "metar": "METAR LPFR 231030Z 27004KT 230V310 9999 VCSH FEW010 FEW015TCU BKN020 14/13 Q1013",
      "taf": "TAF LPFR 230500Z 2306/2406 27007KT 9999 SCT020"
    },
    {
      "icao": "LPMA",
      "alert": "OK",
      "vis_m": 9999,
      "fzfg": false,
      "metar_trigger": false,
      "taf_trigger": false,
      "metar": "METAR LPMA 231030Z 22005KT 190V250 9999 FEW015 18/10 Q1023",
      "taf": "TAF LPMA 230500Z 2306/2406 33010KT 9999 SCT015"
    },
    {
      "icao": "LPPR",
      "alert": "OK",
      "vis_m": 9999,
      "fzfg": false,
      "metar_trigger": false,
      "taf_trigger": false,
      "metar": "METAR LPPR 231030Z 34004KT 280V010 9999 SCT020 12/10 Q1011",
      "taf": "TAF LPPR 230500Z 2306/2406 26007KT 9999 FEW015 BKN030"
    },
    {
      "icao": "LPPS",
      "alert": "OK",
      "vis_m": 9999,
      "fzfg": false,
      "metar_trigger": false,
      "taf_trigger": false,
      "metar": "METAR LPPS 231030Z 30013KT 9999 FEW015 BKN030 18/11 Q1023",
      "taf": "TAF LPPS 230500Z 2306/2412 33007KT 9999 SCT015 SCT030"
    },
    {
      "icao": "LPPT",
      "alert": "OK",
      "vis_m": 9999,
      "fzfg": false,
      "metar_trigger": false,
      "taf_trigger": false,
      "metar": "METAR LPPT 231030Z 29005KT 250V320 9999 FEW015 14/12 Q1012",
      "taf": "TAF LPPT 230500Z 2306/2412 24007KT 9999 SCT025"
    },
    {
      "icao": "LQBK",
      "alert": "OK",
      "vis_m": 5000,
      "fzfg": false,
      "metar_trigger": false,
      "taf_trigger": false,
      "metar": "METAR LQBK 231030Z VRB01KT 5000 BR OVC011 05/03 Q1016 NOSIG",
      "taf": "TAF LQBK 230500Z 2306/2406 VRB02KT 9999 BKN015 TX06/2313Z TN01/2405Z"
    },
    {
      "icao": "LQSA",
      "alert": "OK",
      "vis_m": 6000,
      "fzfg": false,
      "metar_trigger": false,
      "taf_trigger": false,
      "metar": "METAR LQSA 231030Z VRB02KT 6000 BKN008 01/M00 Q1016 NOSIG",
      "taf": "TAF LQSA 230500Z 2306/2406 VRB02KT 9999 OVC008 TX06/2314Z TNM00/2306Z"
    },
    {
      "icao": "LQTZ",
      "alert": "OK",
      "vis_m": 9999,
      "fzfg": false,
      "metar_trigger": false,
      "taf_trigger": false,
      "metar": "METAR LQTZ 231030Z 14004KT 110V200 CAVOK 06/02 Q1016",
      "taf": "TAF LQTZ 230500Z 2306/2406 10005KT 9999 SCT015 BKN025 TX06/2313Z TN00/2306Z"
    },
    {
      "icao": "LRBC",
      "alert": "OK",
      "vis_m": 9999,
      "fzfg": false,
      "metar_trigger": false,
      "taf_trigger": false,
      "metar": "METAR LRBC 231030Z 15008KT 9999 OVC013 03/02 Q1020",
      "taf": "TAF LRBC 230800Z 2309/2318 15008KT 9999 SCT015 OVC025"
    },
    {
      "icao": "LRBS",
      "alert": "OK",
      "vis_m": 9000,
      "fzfg": false,
      "metar_trigger": false,
      "taf_trigger": false,
      "metar": "METAR LRBS 231030Z 08006KT 9000 OVC004 02/02 Q1021 NOSIG",
      "taf": "TAF LRBS 230500Z 2306/2406 12006KT 0500 -DZ FG OVC001"
    },
    {
      "icao": "LRBV",
      "alert": "OK",
      "vis_m": 900,
      "fzfg": true,
      "metar_trigger": false,
      "taf_trigger": false,
      "metar": "METAR LRBV 231030Z VRB03KT 0900 R21/P2000N PRFG VV002 M01/M01 Q1018",
      "taf": "TAF LRBV 230800Z 2309/2318 VRB04KT 0400 FZFG VV002"
    },
    {
      "icao": "LRCL",
      "alert": "OK",
      "vis_m": 9999,
      "fzfg": false,
      "metar_trigger": false,
      "taf_trigger": false,
      "metar": "METAR LRCL 231030Z VRB02KT 9999 OVC004 01/M01 Q1019",
      "taf": "TAF LRCL 230800Z 2309/2318 VRB04KT 9999 OVC005"
    },
    {
      "icao": "LRCV",
      "alert": "OK",
      "vis_m": 4900,
      "fzfg": false,
      "metar_trigger": false,
      "taf_trigger": false,
      "metar": "METAR LRCV 231030Z 11006KT 4900 BR BKN004 OVC015 03/03 Q1020",
      "taf": "TAF LRCV 230800Z 2309/2318 10008KT 0400 FG OVC001"
    },
    {
      "icao": "LRIA",
      "alert": "OK",
      "vis_m": 8000,
      "fzfg": false,
      "metar_trigger": false,
      "taf_trigger": false,
      "metar": "METAR LRIA 231030Z 10008KT 8000 -DZ OVC004 01/01 Q1021",
      "taf": "TAF LRIA 230800Z 2309/2318 10008KT 9999 OVC005"
    },
    {
      "icao": "LROP",
      "alert": "OK",
      "vis_m": 7000,
      "fzfg": false,
      "metar_trigger": false,
      "taf_trigger": false,
      "metar": "METAR LROP 231030Z 09006KT 7000 OVC004 02/02 Q1020 NOSIG",
      "taf": "TAF LROP 230500Z 2306/2406 12006KT 0500 -DZ FG OVC001"
    },
    {
      "icao": "LRSB",
      "alert": "OK",
      "vis_m": 900,
      "fzfg": true,
      "metar_trigger": false,
      "taf_trigger": false,
      "metar": "METAR LRSB 231030Z 25003KT 0900 R27/1200U FZFG VV003 M01/M01 Q1018",
      "taf": ""
    },
    {
      "icao": "LRSM",
      "alert": "OK",
      "vis_m": 9999,
      "fzfg": false,
      "metar_trigger": false,
      "taf_trigger": false,
      "metar": "METAR LRSM 231030Z VRB02KT 9999 BKN008 05/02 Q1020",
      "taf": "TAF LRSM 230800Z 2309/2318 VRB04KT 9999 BKN025"
    },
    {
      "icao": "LRSV",
      "alert": "CRITICAL",
      "vis_m": 100,
      "fzfg": true,
      "metar_trigger": true,
      "taf_trigger": true,
      "metar": "METAR LRSV 231030Z 06006KT 0100 R34/0325N FZFG VV001 M00/M00 Q1019",
      "taf": "TAF LRSV 230800Z 2309/2318 09006KT 0100 FZFG VV001"
    },
    {
      "icao": "LRTM",
      "alert": "OK",
      "vis_m": 9000,
      "fzfg": false,
      "metar_trigger": false,
      "taf_trigger": false,
      "metar": "METAR LRTM 231030Z VRB02KT 9000 SCT004 BKN008 OVC012 00/M01 Q1019",
      "taf": "TAF LRTM 230800Z 2309/2318 VRB04KT 9999 OVC010"
    },
    {
      "icao": "LRTR",
      "alert": "OK",
      "vis_m": 9999,
      "fzfg": false,
      "metar_trigger": false,
      "taf_trigger": false,
      "metar": "METAR LRTR 231030Z 07005KT 9999 FEW007 BKN035 04/04 Q1018",
      "taf": "TAF LRTR 230500Z 2306/2406 08007KT 3000 BR OVC005"
    },
    {
      "icao": "LTAC",
      "alert": "OK",
      "vis_m": 9999,
      "fzfg": false,
      "metar_trigger": false,
      "taf_trigger": false,
      "metar": "METAR LTAC 231020Z 03004KT 350V050 9999 -RA FEW009 BKN025 BKN080 05/03 Q1016 NOSIG RMK RWY21C 01004KT 320V020 RWY03L 03004KT RWY21R 01004KT RWY03R 03003KT RWY21L 01004KT",
      "taf": "TAF LTAC 230440Z 2306/2406 VRB02KT 9999 SCT035 BKN090"
    },
    {
      "icao": "LTFM",
      "alert": "OK",
      "vis_m": 6000,
      "fzfg": false,
      "metar_trigger": false,
      "taf_trigger": false,
      "metar": "METAR LTFM 231020Z 34017KT 6000 -SHRA SCT005 BKN020 09/08 Q1018 NOSIG RMK RWY17L 34016KT RWY34L 34015KT RWY16R 34012KT RWY36 34016KT RWY18 35017KT",
      "taf": "TAF LTFM 230440Z 2306/2412 01016G26KT 9999 SCT012 BKN022"
    },
    {
      "icao": "LUKK",
      "alert": "OK",
      "vis_m": 9999,
      "fzfg": false,
      "metar_trigger": false,
      "taf_trigger": false,
      "metar": "METAR LUKK 231030Z VRB01KT 9999 OVC023 02/M01 Q1021 NOSIG",
      "taf": ""
    },
    {
      "icao": "LWOH",
      "alert": "OK",
      "vis_m": 9999,
      "fzfg": false,
      "metar_trigger": false,
      "taf_trigger": false,
      "metar": "METAR LWOH 231050Z VRB02KT 9999 SCT020 OVC040 08/06 Q1016",
      "taf": "TAF LWOH 230830Z 2309/2409 VRB02KT 9999 FEW020 BKN040 OVC080"
    },
    {
      "icao": "LWSK",
      "alert": "OK",
      "vis_m": 4000,
      "fzfg": false,
      "metar_trigger": false,
      "taf_trigger": false,
      "metar": "METAR LWSK 231050Z VRB01KT 4000 BR OVC003 03/02 Q1019 NOSIG",
      "taf": "TAF LWSK 230830Z 2309/2409 VRB02KT 4000 BR OVC004"
    },
    {
      "icao": "LYBE",
      "alert": "OK",
      "vis_m": 9999,
      "fzfg": false,
      "metar_trigger": false,
      "taf_trigger": false,
      "metar": "METAR LYBE 231030Z 05005KT 010V090 9999 FEW018 07/02 Q1017 NOSIG",
      "taf": "TAF LYBE 230500Z 2306/2406 12008KT 9999 BKN023 TX08/2313Z TN03/2318Z"
    },
    {
      "icao": "LYNI",
      "alert": "OK",
      "vis_m": 9999,
      "fzfg": false,
      "metar_trigger": false,
      "taf_trigger": false,
      "metar": "METAR LYNI 231030Z VRB02KT 9999 OVC005 03/02 Q1018 BECMG BKN012",
      "taf": ""
    },
    {
      "icao": "LYPG",
      "alert": "OK",
      "vis_m": 9999,
      "fzfg": false,
      "metar_trigger": false,
      "taf_trigger": false,
      "metar": "METAR LYPG 231030Z 00000KT 9999 FEW050 BKN070 07/04 Q1016 NOSIG",
      "taf": "TAF LYPG 230500Z 2306/2406 16005KT 9999 SCT040 BKN070 TX11/2313Z TNM00/2306Z"
    },
    {
      "icao": "LZIB",
      "alert": "OK",
      "vis_m": 3200,
      "fzfg": false,
      "metar_trigger": false,
      "taf_trigger": false,
      "metar": "METAR LZIB 231030Z 08008KT 3200 -DZ BR SCT003 BKN005 OVC010 04/03 Q1018 BECMG SCT007 OVC012",
      "taf": ""
    },
    {
      "icao": "LZKZ",
      "alert": "OK",
      "vis_m": 8000,
      "fzfg": false,
      "metar_trigger": false,
      "taf_trigger": false,
      "metar": "METAR LZKZ 231030Z 20003KT 8000 OVC010 04/03 Q1019 NOSIG",
      "taf": ""
    },
    {
      "icao": "LZTT",
      "alert": "OK",
      "vis_m": 9999,
      "fzfg": false,
      "metar_trigger": false,
      "taf_trigger": false,
      "metar": "METAR LZTT 231030Z 04003KT 020V080 9999 FEW006 OVC011 02/M01 Q1017 TEMPO OVC016",
      "taf": ""
    },
    {
      "icao": "OEJN",
      "alert": "OK",
      "vis_m": 9999,
      "fzfg": false,
      "metar_trigger": false,
      "taf_trigger": false,
      "metar": "METAR OEJN 231000Z 27007KT 9999 FEW040 31/21 Q1012 NOSIG",
      "taf": "TAF OEJN 230500Z 2306/2412 28008KT 7000 FEW040"
    },
    {
      "icao": "OEMA",
      "alert": "OK",
      "vis_m": 9999,
      "fzfg": false,
      "metar_trigger": false,
      "taf_trigger": false,
      "metar": "METAR OEMA 231000Z VRB03KT CAVOK 24/05 Q1017 NOSIG",
      "taf": "TAF OEMA 230500Z 2306/2412 12010KT 9999 SCT040"
    },
    {
      "icao": "OJAI",
      "alert": "OK",
      "vis_m": 5000,
      "fzfg": false,
      "metar_trigger": false,
      "taf_trigger": false,
      "metar": "METAR OJAI 231000Z 25008KT 5000 HZ NSC 14/07 Q1017 NOSIG",
      "taf": "TAF OJAI 230500Z 2306/2412 27012KT 5000 HZ FEW035"
    },
    {
      "icao": "OMAA",
      "alert": "OK",
      "vis_m": 9999,
      "fzfg": false,
      "metar_trigger": false,
      "taf_trigger": false,
      "metar": "METAR OMAA 231000Z 34014KT 300V360 CAVOK 24/10 Q1017 NOSIG",
      "taf": "TAF OMAA 230500Z 2306/2412 VRB02KT CAVOK"
    },
    {
      "icao": "OMDB",
      "alert": "OK",
      "vis_m": 9999,
      "fzfg": false,
      "metar_trigger": false,
      "taf_trigger": false,
      "metar": "METAR OMDB 231030Z 36012KT 330V040 CAVOK 23/10 Q1017 NOSIG",
      "taf": ""
    },
    {
      "icao": "UAAA",
      "alert": "OK",
      "vis_m": 2900,
      "fzfg": false,
      "metar_trigger": false,
      "taf_trigger": false,
      "metar": "METAR UAAA 231030Z VRB01MPS 2900 BR OVC006 M04/M05 Q1026 NOSIG RMK QBB190",
      "taf": "TAF UAAA 230500Z 2306/2406 04003MPS 5000 BR FU BKN011 OVC020 TXM02/2308Z TNM06/2401Z"
    },
    {
      "icao": "UBBB",
      "alert": "OK",
      "vis_m": 9999,
      "fzfg": false,
      "metar_trigger": false,
      "taf_trigger": false,
      "metar": "METAR UBBB 231030Z 32010KT 9999 SCT026 10/05 Q1021 NOSIG",
      "taf": "TAF UBBB 230510Z 2306/2406 33010KT 9999 BKN030 TX11/2310Z TN04/2400Z"
    },
    {
      "icao": "UDSG",
      "alert": "OK",
      "vis_m": 9999,
      "fzfg": false,
      "metar_trigger": false,
      "taf_trigger": false,
      "metar": "METAR UDSG 231030Z 24005KT 9999 NSC 05/M05 Q1020 NOSIG",
      "taf": "TAF UDSG 230458Z 2306/2406 VRB06KT 9999 FEW050"
    },
    {
      "icao": "UDYZ",
      "alert": "OK",
      "vis_m": 4800,
      "fzfg": false,
      "metar_trigger": false,
      "taf_trigger": false,
      "metar": "METAR UDYZ 231030Z 00000KT 4800 HZ NSC 06/M02 Q1021 NOSIG",
      "taf": "TAF UDYZ 230500Z 2306/2406 VRB04KT 5000 BR NSC"
    },
    {
      "icao": "UGKO",
      "alert": "OK",
      "vis_m": 9999,
      "fzfg": false,
      "metar_trigger": false,
      "taf_trigger": false,
      "metar": "METAR UGKO 231030Z 06006KT 030V090 CAVOK 17/03 Q1016 NOSIG",
      "taf": "TAF UGKO 230500Z 2306/2406 07007KT 9999 BKN080 TX16/2312Z TN06/2403Z"
    }
  ]
}