{
  "ts_utc": "2026-02-18T22:03:34Z",
  "threshold_m": 150,
  "source": "stations_override.txt (ICAO list) + aviationweather.gov (METAR/TAF raw)",
  "station_count": 159,
  "stations": [
    {
      "icao": "BIKF",
      "alert": "OK",
      "vis_m": 9999,
      "fzfg": false,
      "metar_trigger": false,
      "taf_trigger": false,
      "metar": "METAR BIKF 182130Z 03018KT CAVOK M04/M11 Q1011",
      "taf": "TAF BIKF 181953Z 1821/1921 04022G32KT 9999 FEW040 TX00/1915Z TNM04/1900Z"
    },
    {
      "icao": "BKPR",
      "alert": "OK",
      "vis_m": 9999,
      "fzfg": false,
      "metar_trigger": false,
      "taf_trigger": false,
      "metar": "METAR BKPR 182200Z VRB02KT CAVOK M02/M04 Q1016 NOSIG",
      "taf": "TAF BKPR 181730Z 1818/1918 20005KT CAVOK"
    },
    {
      "icao": "EBCI",
      "alert": "OK",
      "vis_m": 9999,
      "fzfg": false,
      "metar_trigger": false,
      "taf_trigger": false,
      "metar": "METAR EBCI 182150Z 12011KT 9999 -RA BKN011 BKN030 03/02 Q0997 TEMPO 3500 RADZ",
      "taf": "TAF EBCI 181702Z 1818/1924 11010KT 9999 FEW020 SCT030"
    },
    {
      "icao": "EDDB",
      "alert": "OK",
      "vis_m": 9999,
      "fzfg": false,
      "metar_trigger": false,
      "taf_trigger": false,
      "metar": "METAR EDDB 182150Z AUTO 11002KT CAVOK M07/M09 Q1014 NOSIG",
      "taf": "TAF EDDB 181700Z 1818/1918 34005KT 9999 SCT020"
    },
    {
      "icao": "EDDH",
      "alert": "OK",
      "vis_m": 9999,
      "fzfg": false,
      "metar_trigger": false,
      "taf_trigger": false,
      "metar": "METAR EDDH 182150Z AUTO 11005KT CAVOK M06/M08 Q1013 NOSIG",
      "taf": "TAF EDDH 181700Z 1818/1924 10004KT CAVOK"
    },
    {
      "icao": "EDDK",
      "alert": "OK",
      "vis_m": 9999,
      "fzfg": false,
      "metar_trigger": false,
      "taf_trigger": false,
      "metar": "METAR EDDK 182150Z AUTO 12010KT 090V150 CAVOK 04/M03 Q1004 TEMPO RA",
      "taf": "TAF EDDK 181700Z 1818/1924 12012KT 9999 SCT015 BKN025"
    },
    {
      "icao": "EDDN",
      "alert": "OK",
      "vis_m": 9999,
      "fzfg": false,
      "metar_trigger": false,
      "taf_trigger": false,
      "metar": "METAR EDDN 182150Z AUTO 10009KT CAVOK 00/M04 Q1008",
      "taf": "TAF EDDN 181700Z 1818/1918 09007KT CAVOK"
    },
    {
      "icao": "EDDS",
      "alert": "OK",
      "vis_m": 9999,
      "fzfg": false,
      "metar_trigger": false,
      "taf_trigger": false,
      "metar": "METAR EDDS 182150Z AUTO 11005KT 070V140 9999 -SHRA SCT016 BKN021 OVC028 FEW///CB 03/01 Q1004",
      "taf": "TAF EDDS 181700Z 1818/1918 15005KT 9999 FEW010 BKN020"
    },
    {
      "icao": "EDFH",
      "alert": "OK",
      "vis_m": 3000,
      "fzfg": false,
      "metar_trigger": false,
      "taf_trigger": false,
      "metar": "METAR EDFH 182150Z 12019KT 3000 -SN BKN008 M01/M01 Q1001",
      "taf": ""
    },
    {
      "icao": "EDJA",
      "alert": "OK",
      "vis_m": 5000,
      "fzfg": false,
      "metar_trigger": false,
      "taf_trigger": false,
      "metar": "METAR EDJA 182150Z 08003KT 5000 -SNRA FEW004 SCT018 OVC027 00/M00 Q1005",
      "taf": "TAF EDJA 181700Z 1818/1903 08006KT 4000 -SN BR SCT002 BKN006 OVC013"
    },
    {
      "icao": "EDLW",
      "alert": "OK",
      "vis_m": 9999,
      "fzfg": false,
      "metar_trigger": false,
      "taf_trigger": false,
      "metar": "METAR EDLW 182150Z AUTO 05010KT 9999 // SCT140/// BKN170/// M00/M02 Q1005",
      "taf": "TAF EDLW 181700Z 1818/1918 08012KT 9999 SCT015 BKN025"
    },
    {
      "icao": "EDNY",
      "alert": "OK",
      "vis_m": 9999,
      "fzfg": false,
      "metar_trigger": false,
      "taf_trigger": false,
      "metar": "METAR EDNY 182150Z AUTO 04006KT 010V070 9999 // FEW037/// BKN088/// OVC110/// 02/01 Q1003",
      "taf": "TAF EDNY 181700Z 1818/1903 04006KT 9999 FEW013 OVC045"
    },
    {
      "icao": "EDSB",
      "alert": "OK",
      "vis_m": 9999,
      "fzfg": false,
      "metar_trigger": false,
      "taf_trigger": false,
      "metar": "METAR EDSB 182150Z AUTO 01006KT 9999 // BKN029/// OVC040/// 04/03 Q1002",
      "taf": "TAF EDSB 181700Z 1818/1918 03006KT 9999 SCT020 BKN035"
    },
    {
      "icao": "EETN",
      "alert": "OK",
      "vis_m": 9999,
      "fzfg": false,
      "metar_trigger": false,
      "taf_trigger": false,
      "metar": "METAR EETN 182150Z 12006KT CAVOK M09/M15 Q1011 NOSIG",
      "taf": "TAF EETN 181730Z 1818/1918 12010KT CAVOK"
    },
    {
      "icao": "EFTU",
      "alert": "OK",
      "vis_m": 9999,
      "fzfg": false,
      "metar_trigger": false,
      "taf_trigger": false,
      "metar": "METAR EFTU 182150Z AUTO 08005KT CAVOK M11/M14 Q1011",
      "taf": "TAF EFTU 182029Z 1821/1921 10007KT CAVOK"
    },
    {
      "icao": "EGBB",
      "alert": "OK",
      "vis_m": 4800,
      "fzfg": false,
      "metar_trigger": false,
      "taf_trigger": false,
      "metar": "METAR EGBB 182150Z 08011KT 4800 RA OVC007 02/01 Q0993",
      "taf": "TAF EGBB 181658Z 1818/1918 10013KT 9999 SCT025"
    },
    {
      "icao": "EGGP",
      "alert": "OK",
      "vis_m": 8000,
      "fzfg": false,
      "metar_trigger": false,
      "taf_trigger": false,
      "metar": "METAR EGGP 182150Z 08012KT 8000 -RA BKN017 OVC024 02/M00 Q0996",
      "taf": "TAF EGGP 181705Z 1818/1918 11012KT 9999 FEW015 SCT025"
    },
    {
      "icao": "EGGW",
      "alert": "OK",
      "vis_m": 9000,
      "fzfg": false,
      "metar_trigger": false,
      "taf_trigger": false,
      "metar": "METAR EGGW 182150Z AUTO 11016KT 9000 -RA OVC007/// //////TCU 03/02 Q0992",
      "taf": "TAF EGGW 181657Z 1818/1918 11017G27KT 9999 BKN020"
    },
    {
      "icao": "EGKK",
      "alert": "OK",
      "vis_m": 9000,
      "fzfg": false,
      "metar_trigger": false,
      "taf_trigger": false,
      "metar": "METAR EGKK 182150Z 10011KT 9000 -RA BKN006 06/05 Q0991",
      "taf": "TAF EGKK 181702Z 1818/1924 10012KT 9999 BKN010"
    },
    {
      "icao": "EGNM",
      "alert": "OK",
      "vis_m": 9999,
      "fzfg": false,
      "metar_trigger": false,
      "taf_trigger": false,
      "metar": "METAR EGNM 182150Z 09015KT 9999 -DZ SCT014 BKN020 02/M00 Q0998",
      "taf": "TAF EGNM 181705Z 1818/1918 12012KT 9999 SCT012 BKN025"
    },
    {
      "icao": "EGPD",
      "alert": "OK",
      "vis_m": 9999,
      "fzfg": false,
      "metar_trigger": false,
      "taf_trigger": false,
      "metar": "METAR EGPD 182150Z COR AUTO 15015KT 9999 BKN028 04/M02 Q1004 NOSIG",
      "taf": "TAF EGPD 181656Z 1818/1918 14012KT 9999 SCT040"
    },
    {
      "icao": "EGPF",
      "alert": "OK",
      "vis_m": 9999,
      "fzfg": false,
      "metar_trigger": false,
      "taf_trigger": false,
      "metar": "METAR EGPF 182150Z AUTO 06013KT 9999 NCD 03/M02 Q1000",
      "taf": "TAF EGPF 181700Z 1818/1918 09009KT 9999 SCT040"
    },
    {
      "icao": "EHBK",
      "alert": "OK",
      "vis_m": 9999,
      "fzfg": false,
      "metar_trigger": false,
      "taf_trigger": false,
      "metar": "METAR EHBK 182155Z COR AUTO 10014KT 070V130 9999 -RA SCT020 BKN023 OVC029 03/M01 Q1001",
      "taf": "TAF EHBK 181720Z 1818/1924 09012KT CAVOK"
    },
    {
      "icao": "EHEH",
      "alert": "OK",
      "vis_m": 9999,
      "fzfg": false,
      "metar_trigger": false,
      "taf_trigger": false,
      "metar": "METAR EHEH 182155Z AUTO 09011KT 060V130 9999 SCT086 BKN093 OVC100 03/M02 Q1001 BLU RMK TREND REMOTE BY EHWX",
      "taf": ""
    },
    {
      "icao": "EKBI",
      "alert": "OK",
      "vis_m": 8000,
      "fzfg": false,
      "metar_trigger": false,
      "taf_trigger": false,
      "metar": "METAR EKBI 182156Z 14001KT 8000 BCFG SKC M11/M12 Q1013",
      "taf": "TAF EKBI 182027Z 1821/1921 20004KT CAVOK"
    },
    {
      "icao": "EKCH",
      "alert": "OK",
      "vis_m": 9999,
      "fzfg": false,
      "metar_trigger": false,
      "taf_trigger": false,
      "metar": "METAR EKCH 182150Z AUTO VRB01KT 9999 BKN049/// M04/M06 Q1012 NOSIG",
      "taf": "TAF EKCH 182027Z 1821/1921 25007KT 9999 SCT020"
    },
    {
      "icao": "ENAL",
      "alert": "OK",
      "vis_m": 9999,
      "fzfg": false,
      "metar_trigger": false,
      "taf_trigger": false,
      "metar": "METAR ENAL 182150Z 15013KT 9999 FEW010 SCT013 BKN023 M00/M01 Q1009",
      "taf": "TAF ENAL 182000Z 1821/1906 21012KT 9999 -SHSN SCT010 BKN020"
    },
    {
      "icao": "ENBR",
      "alert": "OK",
      "vis_m": 9999,
      "fzfg": false,
      "metar_trigger": false,
      "taf_trigger": false,
      "metar": "METAR ENBR 182150Z 11006KT 9999 FEW043 M01/M03 Q1011 RMK WIND 1200FT 14013KT",
      "taf": "TAF ENBR 181700Z 1818/1918 11005KT 9999 FEW020 SCT040"
    },
    {
      "icao": "ENGM",
      "alert": "OK",
      "vis_m": 9999,
      "fzfg": false,
      "metar_trigger": false,
      "taf_trigger": false,
      "metar": "METAR ENGM 182150Z VRB02KT 9999 FEW004 M16/M18 Q1011 TEMPO 2000 BCFG BKN002",
      "taf": ""
    },
    {
      "icao": "ENHD",
      "alert": "OK",
      "vis_m": 9999,
      "fzfg": false,
      "metar_trigger": false,
      "taf_trigger": false,
      "metar": "METAR ENHD 182150Z AUTO 11008KT 9999 NCD M02/M03 Q1011",
      "taf": "TAF ENHD 181400Z 1815/1823 10005KT 9999 FEW012 SCT025"
    },
    {
      "icao": "ENTC",
      "alert": "OK",
      "vis_m": 9999,
      "fzfg": false,
      "metar_trigger": false,
      "taf_trigger": false,
      "metar": "METAR ENTC 182150Z 22008KT 9999 BKN012 M04/M07 Q1007 TEMPO BKN012 RMK WIND 2600FT 13009KT",
      "taf": "TAF ENTC 181700Z 1818/1918 25008KT 9999 SCT012 BKN018"
    },
    {
      "icao": "ENTO",
      "alert": "OK",
      "vis_m": 9999,
      "fzfg": false,
      "metar_trigger": false,
      "taf_trigger": false,
      "metar": "METAR ENTO 182150Z 01003KT CAVOK M11/M11 Q1012 NOSIG",
      "taf": ""
    },
    {
      "icao": "ENVA",
      "alert": "OK",
      "vis_m": 9999,
      "fzfg": false,
      "metar_trigger": false,
      "taf_trigger": false,
      "metar": "METAR ENVA 182150Z 09006KT CAVOK M06/M07 Q1009 RMK WIND 670FT 18010KT",
      "taf": ""
    },
    {
      "icao": "ENZV",
      "alert": "OK",
      "vis_m": 9999,
      "fzfg": false,
      "metar_trigger": false,
      "taf_trigger": false,
      "metar": "METAR ENZV 182150Z 14006KT CAVOK M03/M04 Q1012",
      "taf": ""
    },
    {
      "icao": "EPGD",
      "alert": "OK",
      "vis_m": 9999,
      "fzfg": false,
      "metar_trigger": false,
      "taf_trigger": false,
      "metar": "METAR EPGD 182200Z 26006KT 9999 BKN029 M06/M09 Q1011",
      "taf": "TAF EPGD 181730Z 1818/1918 27010KT 9999 SCT037"
    },
    {
      "icao": "EPKK",
      "alert": "OK",
      "vis_m": 9999,
      "fzfg": false,
      "metar_trigger": false,
      "taf_trigger": false,
      "metar": "METAR EPKK 182200Z 25004KT 9999 OVC023 M00/M03 Q1012",
      "taf": "TAF EPKK 182030Z 1821/1921 29005KT 9999 BKN020"
    },
    {
      "icao": "EPKT",
      "alert": "OK",
      "vis_m": 6000,
      "fzfg": false,
      "metar_trigger": false,
      "taf_trigger": false,
      "metar": "METAR EPKT 182200Z 32006KT 290V350 6000 FEW010 OVC013 M02/M05 Q1012",
      "taf": "TAF EPKT 181730Z 1818/1918 33007KT 9999 BKN035"
    },
    {
      "icao": "EPLB",
      "alert": "OK",
      "vis_m": 6000,
      "fzfg": false,
      "metar_trigger": false,
      "taf_trigger": false,
      "metar": "METAR EPLB 182200Z 31009KT 6000 OVC015 M04/M05 Q1011",
      "taf": ""
    },
    {
      "icao": "EPMO",
      "alert": "OK",
      "vis_m": 5000,
      "fzfg": false,
      "metar_trigger": false,
      "taf_trigger": false,
      "metar": "METAR EPMO 182200Z 25005KT 5000 BR BKN035 OVC042 M05/M07 Q1012",
      "taf": ""
    },
    {
      "icao": "EPPO",
      "alert": "OK",
      "vis_m": 9999,
      "fzfg": false,
      "metar_trigger": false,
      "taf_trigger": false,
      "metar": "METAR EPPO 182200Z 32004KT CAVOK M04/M09 Q1014",
      "taf": "TAF EPPO 181730Z 1818/1918 30006KT 9999 BKN040"
    },
    {
      "icao": "EPRA",
      "alert": "OK",
      "vis_m": 8000,
      "fzfg": false,
      "metar_trigger": false,
      "taf_trigger": false,
      "metar": "METAR EPRA 182200Z 31004KT 8000 NSC M05/M08 Q1012",
      "taf": "TAF EPRA 182030Z 1821/1906 30005KT 8000 SCT035"
    },
    {
      "icao": "EPRZ",
      "alert": "OK",
      "vis_m": 6000,
      "fzfg": false,
      "metar_trigger": false,
      "taf_trigger": false,
      "metar": "METAR EPRZ 182200Z 33004KT 6000 BKN009 OVC012 M01/M02 Q1011",
      "taf": "TAF EPRZ 181730Z 1818/1918 29005KT 9999 BKN030"
    },
    {
      "icao": "EPSC",
      "alert": "OK",
      "vis_m": 9999,
      "fzfg": false,
      "metar_trigger": false,
      "taf_trigger": false,
      "metar": "METAR EPSC 182200Z 15002KT 9999 BKN032 M05/M08 Q1014",
      "taf": "TAF EPSC 181730Z 1818/1918 VRB04KT 7000 SCT017 BKN030"
    },
    {
      "icao": "EPSY",
      "alert": "OK",
      "vis_m": 5000,
      "fzfg": false,
      "metar_trigger": false,
      "taf_trigger": false,
      "metar": "METAR EPSY 182200Z 24003KT 5000 BR SCT040 M10/M11 Q1011",
      "taf": "TAF EPSY 182030Z 1821/1906 27006KT 8000 BKN035"
    },
    {
      "icao": "EPWA",
      "alert": "OK",
      "vis_m": 5000,
      "fzfg": false,
      "metar_trigger": false,
      "taf_trigger": false,
      "metar": "METAR EPWA 182200Z 25003KT 5000 -SN BR FEW021 BKN042 M06/M07 Q1012 TEMPO 3000 BR",
      "taf": "TAF EPWA 182030Z 1821/1921 27004KT 6000 SCT025"
    },
    {
      "icao": "EPWR",
      "alert": "OK",
      "vis_m": 6000,
      "fzfg": false,
      "metar_trigger": false,
      "taf_trigger": false,
      "metar": "METAR EPWR 182200Z 28002KT 6000 SCT030 OVC040 M03/M04 Q1014",
      "taf": "TAF EPWR 182030Z 1821/1921 VRB02KT 5000 BR OVC030"
    },
    {
      "icao": "ESGG",
      "alert": "OK",
      "vis_m": 9999,
      "fzfg": false,
      "metar_trigger": false,
      "taf_trigger": false,
      "metar": "METAR ESGG 182150Z 04003KT 9999 BKN015 M05/M06 Q1011",
      "taf": "TAF ESGG 182030Z 1821/1921 VRB03KT 9999 OVC018"
    },
    {
      "icao": "ESKN",
      "alert": "OK",
      "vis_m": 9999,
      "fzfg": false,
      "metar_trigger": false,
      "taf_trigger": false,
      "metar": "METAR ESKN 182150Z 29003KT 9999 FEW035 M13/M15 Q1010",
      "taf": "TAF ESKN 182030Z 1821/1921 34005KT 9999 BKN030"
    },
    {
      "icao": "ESMS",
      "alert": "OK",
      "vis_m": 9999,
      "fzfg": false,
      "metar_trigger": false,
      "taf_trigger": false,
      "metar": "METAR ESMS 182150Z 23004KT CAVOK M06/M07 Q1012",
      "taf": "TAF ESMS 182027Z 1821/1921 26006KT 9999 BKN020"
    },
    {
      "icao": "ESSA",
      "alert": "OK",
      "vis_m": 9999,
      "fzfg": false,
      "metar_trigger": false,
      "taf_trigger": false,
      "metar": "METAR ESSA 182150Z 35003KT 9999 FEW031 M11/M12 Q1010 NOSIG",
      "taf": "TAF ESSA 182030Z 1821/1921 35005KT 9999 SCT018 BKN035"
    },
    {
      "icao": "EYKA",
      "alert": "OK",
      "vis_m": 5000,
      "fzfg": false,
      "metar_trigger": false,
      "taf_trigger": false,
      "metar": "METAR EYKA 182150Z 19004KT 160V220 5000 BR BKN006 OVC032 M07/M07 Q1010",
      "taf": ""
    },
    {
      "icao": "EYPA",
      "alert": "OK",
      "vis_m": 5000,
      "fzfg": false,
      "metar_trigger": false,
      "taf_trigger": false,
      "metar": "METAR EYPA 182150Z 12003KT 5000 -SN FEW009 SCT036 M07/M08 Q1008",
      "taf": "TAF EYPA 181707Z 1818/1918 VRB05KT 8000 SCT015 BKN025"
    },
    {
      "icao": "EYVI",
      "alert": "OK",
      "vis_m": 9999,
      "fzfg": false,
      "metar_trigger": false,
      "taf_trigger": false,
      "metar": "METAR EYVI 182150Z 18006KT 9999 -SN OVC011 M08/M12 Q1009 NOSIG",
      "taf": "TAF EYVI 181707Z 1818/1918 17010KT 8000 OVC015"
    },
    {
      "icao": "GCFV",
      "alert": "OK",
      "vis_m": 9999,
      "fzfg": false,
      "metar_trigger": false,
      "taf_trigger": false,
      "metar": "METAR GCFV 182130Z 02018KT 9999 FEW017 17/13 Q1024",
      "taf": "TAF GCFV 182000Z 1821/1921 03015KT 9999 FEW020 TX19/1914Z TN16/1906Z"
    },
    {
      "icao": "GCLP",
      "alert": "OK",
      "vis_m": 9999,
      "fzfg": false,
      "metar_trigger": false,
      "taf_trigger": false,
      "metar": "METAR GCLP 182130Z 01021KT 9999 SCT018 17/12 Q1023 NOSIG",
      "taf": "TAF GCLP 182000Z 1821/1921 02018KT 9999 FEW025 TX20/1914Z TN14/1906Z"
    },
    {
      "icao": "GCTS",
      "alert": "OK",
      "vis_m": 9999,
      "fzfg": false,
      "metar_trigger": false,
      "taf_trigger": false,
      "metar": "METAR GCTS 182130Z 06012KT CAVOK 17/12 Q1023 NOSIG",
      "taf": "TAF GCTS 182000Z 1821/1921 08020KT CAVOK TX24/1914Z TN16/1906Z"
    },
    {
      "icao": "GMAD",
      "alert": "OK",
      "vis_m": 6000,
      "fzfg": false,
      "metar_trigger": false,
      "taf_trigger": false,
      "metar": "METAR GMAD 182200Z 00000KT 6000 SCT003 11/09 Q1022 NOSIG",
      "taf": "TAF GMAD 181700Z 1818/1924 21005KT CAVOK"
    },
    {
      "icao": "GMMN",
      "alert": "OK",
      "vis_m": 9999,
      "fzfg": false,
      "metar_trigger": false,
      "taf_trigger": false,
      "metar": "METAR GMMN 182130Z 36008KT 9999 BKN016 11/09 Q1025 NOSIG",
      "taf": "TAF GMMN 181700Z 1818/1924 02007KT 9999 FEW016"
    },
    {
      "icao": "GMMX",
      "alert": "OK",
      "vis_m": 9999,
      "fzfg": false,
      "metar_trigger": false,
      "taf_trigger": false,
      "metar": "METAR GMMX 182200Z 24006KT CAVOK 14/10 Q1024 NOSIG",
      "taf": ""
    },
    {
      "icao": "HEGN",
      "alert": "OK",
      "vis_m": 9999,
      "fzfg": false,
      "metar_trigger": false,
      "taf_trigger": false,
      "metar": "METAR HEGN 182200Z 33017KT CAVOK 20/08 Q1017 NOSIG",
      "taf": "TAF HEGN 181700Z 1818/1924 30015KT CAVOK"
    },
    {
      "icao": "HEMA",
      "alert": "OK",
      "vis_m": 9999,
      "fzfg": false,
      "metar_trigger": false,
      "taf_trigger": false,
      "metar": "METAR HEMA 182200Z 31010KT CAVOK 20/09 Q1015 NOSIG",
      "taf": "TAF HEMA 181700Z 1818/1924 31014KT CAVOK"
    },
    {
      "icao": "HESH",
      "alert": "OK",
      "vis_m": 9999,
      "fzfg": false,
      "metar_trigger": false,
      "taf_trigger": false,
      "metar": "METAR HESH 182200Z 35011KT CAVOK 21/10 Q1015 NOSIG",
      "taf": "TAF HESH 181700Z 1818/1924 01012KT CAVOK"
    },
    {
      "icao": "HESX",
      "alert": "OK",
      "vis_m": 9999,
      "fzfg": false,
      "metar_trigger": false,
      "taf_trigger": false,
      "metar": "METAR HESX 182200Z 31005KT CAVOK 11/06 Q1020 NOSIG",
      "taf": "TAF HESX 181700Z 1818/1924 31010KT CAVOK"
    },
    {
      "icao": "LATI",
      "alert": "OK",
      "vis_m": 9999,
      "fzfg": false,
      "metar_trigger": false,
      "taf_trigger": false,
      "metar": "METAR LATI 182150Z 12003KT CAVOK 04/M00 Q1018 NOSIG",
      "taf": "TAF LATI 181700Z 1818/1918 VRB04KT CAVOK TX16/1912Z TN03/1903Z"
    },
    {
      "icao": "LBPD",
      "alert": "OK",
      "vis_m": 9999,
      "fzfg": false,
      "metar_trigger": false,
      "taf_trigger": false,
      "metar": "METAR LBPD 182200Z AUTO 29008KT 9999 NCD 03/M04 Q1016",
      "taf": "TAF LBPD 181700Z 1818/1918 29016KT CAVOK"
    },
    {
      "icao": "LBSF",
      "alert": "OK",
      "vis_m": 9999,
      "fzfg": false,
      "metar_trigger": false,
      "taf_trigger": false,
      "metar": "METAR LBSF 182200Z AUTO 31006KT 9999 NCD M00/M03 Q1016 NOSIG",
      "taf": "TAF LBSF 181700Z 1818/1918 28012KT 9999 SCT025 BKN040"
    },
    {
      "icao": "LBWN",
      "alert": "OK",
      "vis_m": 7000,
      "fzfg": false,
      "metar_trigger": false,
      "taf_trigger": false,
      "metar": "METAR LBWN 182200Z AUTO 34002KT 7000 NSC M01/M01 Q1013 NOSIG",
      "taf": "TAF LBWN 181700Z 1818/1918 VRB03KT 8000 SCT015 OVC030"
    },
    {
      "icao": "LCLK",
      "alert": "OK",
      "vis_m": 9999,
      "fzfg": false,
      "metar_trigger": false,
      "taf_trigger": false,
      "metar": "METAR LCLK 182130Z 22010KT CAVOK 13/09 Q1014 NOSIG",
      "taf": "TAF LCLK 181730Z 1818/1918 24014KT 9999 FEW025"
    },
    {
      "icao": "LCPH",
      "alert": "OK",
      "vis_m": 9999,
      "fzfg": false,
      "metar_trigger": false,
      "taf_trigger": false,
      "metar": "METAR LCPH 182130Z 31021KT 250V320 9999 FEW025TCU SCT035 15/08 Q1014 NOSIG",
      "taf": "TAF LCPH 181730Z 1818/1918 26026KT 8000 SCT020 FEW025TCU BKN035"
    },
    {
      "icao": "LEAL",
      "alert": "OK",
      "vis_m": 9999,
      "fzfg": false,
      "metar_trigger": false,
      "taf_trigger": false,
      "metar": "METAR LEAL 182130Z VRB03KT CAVOK 18/06 Q1014 NOSIG",
      "taf": "TAF LEAL 181700Z 1818/1918 23007KT 9999 FEW030 TX19/1913Z TN12/1906Z"
    },
    {
      "icao": "LEBB",
      "alert": "OK",
      "vis_m": 9999,
      "fzfg": false,
      "metar_trigger": false,
      "taf_trigger": false,
      "metar": "METAR LEBB 182130Z 28013G26KT 230V310 9999 FEW048 SCT065 12/05 Q1010 TEMPO 3000 RA",
      "taf": "TAF LEBB 181700Z 1818/1918 28009KT 9999 FEW010 BKN045 TX12/1818Z TN06/1906Z"
    },
    {
      "icao": "LEBL",
      "alert": "OK",
      "vis_m": 9999,
      "fzfg": false,
      "metar_trigger": false,
      "taf_trigger": false,
      "metar": "METAR LEBL 182130Z 23011KT 9999 FEW010 12/11 Q1007 NOSIG",
      "taf": "TAF LEBL 181700Z 1818/1918 23012KT 9999 FEW015 TX18/1913Z TN11/1906Z"
    },
    {
      "icao": "LECH",
      "alert": "OK",
      "vis_m": 9999,
      "fzfg": false,
      "metar_trigger": false,
      "taf_trigger": false,
      "metar": "METAR LECH 182130Z AUTO 24009KT CAVOK 13/03 Q1010",
      "taf": ""
    },
    {
      "icao": "LEMD",
      "alert": "OK",
      "vis_m": 9999,
      "fzfg": false,
      "metar_trigger": false,
      "taf_trigger": false,
      "metar": "METAR LEMD 182130Z 26006KT 220V290 9999 -RA FEW015 SCT037 BKN050 09/08 Q1014 NOSIG",
      "taf": "TAF LEMD 181700Z 1818/1924 22012KT 9999 FEW012 BKN025 TX13/1915Z TN03/1906Z"
    },
    {
      "icao": "LEMG",
      "alert": "OK",
      "vis_m": 9999,
      "fzfg": false,
      "metar_trigger": false,
      "taf_trigger": false,
      "metar": "METAR LEMG 182130Z 32011G21KT 9999 FEW047 14/08 Q1020 NOSIG",
      "taf": "TAF LEMG 181700Z 1818/1918 31015KT CAVOK TX18/1914Z TN11/1907Z"
    },
    {
      "icao": "LEVC",
      "alert": "OK",
      "vis_m": 9999,
      "fzfg": false,
      "metar_trigger": false,
      "taf_trigger": false,
      "metar": "METAR LEVC 182130Z 24010KT 9999 SCT048 16/06 Q1012 NOSIG",
      "taf": "TAF LEVC 181700Z 1818/1918 27013KT 9999 FEW030 TX20/1914Z TN12/1906Z"
    },
    {
      "icao": "LEXJ",
      "alert": "OK",
      "vis_m": 9999,
      "fzfg": false,
      "metar_trigger": false,
      "taf_trigger": false,
      "metar": "METAR LEXJ 182130Z 29024G35KT CAVOK 12/04 Q1010",
      "taf": "TAF LEXJ 182000Z 1821/1921 28009KT 9999 SCT030 TX12/1915Z TN07/1904Z"
    },
    {
      "icao": "LEZG",
      "alert": "OK",
      "vis_m": 9999,
      "fzfg": false,
      "metar_trigger": false,
      "taf_trigger": false,
      "metar": "METAR LEZG 182130Z 25019KT 220V280 9999 FEW075 13/06 Q1009 NOSIG",
      "taf": "TAF LEZG 181700Z 1818/1918 25009KT 9999 FEW040 TX14/1914Z TN07/1906Z"
    },
    {
      "icao": "LEZL",
      "alert": "OK",
      "vis_m": 9999,
      "fzfg": false,
      "metar_trigger": false,
      "taf_trigger": false,
      "metar": "METAR LEZL 182130Z 22009KT 200V260 9999 BKN013 14/12 Q1021 NOSIG",
      "taf": "TAF LEZL 182000Z 1821/1921 25010KT 9999 SCT030 SCT040 TX17/1915Z TN08/1907Z"
    },
    {
      "icao": "LFBD",
      "alert": "OK",
      "vis_m": 9999,
      "fzfg": false,
      "metar_trigger": false,
      "taf_trigger": false,
      "metar": "METAR LFBD 182200Z AUTO 26021KT 9999 FEW034/// BKN040/// BKN052/// ///CB 10/06 Q1004 TEMPO 29020G45KT 1500 TSRA BKN014 BKN020CB",
      "taf": "TAF LFBD 181700Z 1818/1924 26015G30KT 9999 BKN030 TX12/1912Z TN08/1903Z"
    },
    {
      "icao": "LFLL",
      "alert": "OK",
      "vis_m": 9999,
      "fzfg": false,
      "metar_trigger": false,
      "taf_trigger": false,
      "metar": "METAR LFLL 182200Z 20015KT 9999 -RA NSC 12/05 Q1001 TEMPO 22025G40KT 2000 +RA FEW045CB BKN060TCU",
      "taf": "TAF LFLL 181700Z 1818/1924 19012KT CAVOK"
    },
    {
      "icao": "LFLS",
      "alert": "OK",
      "vis_m": 9999,
      "fzfg": false,
      "metar_trigger": false,
      "taf_trigger": false,
      "metar": "METAR LFLS 182200Z AUTO 32004KT 280V350 9999 BKN054 OVC120 09/06 Q1002",
      "taf": "TAF LFLS 181400Z 1815/1915 22008KT CAVOK"
    },
    {
      "icao": "LFMN",
      "alert": "OK",
      "vis_m": 9999,
      "fzfg": false,
      "metar_trigger": false,
      "taf_trigger": false,
      "metar": "METAR LFMN 182200Z 33008KT 9999 BKN033 11/06 Q1009 NOSIG",
      "taf": "TAF LFMN 182000Z 1821/2003 34010KT 9999 BKN030"
    },
    {
      "icao": "LFOB",
      "alert": "OK",
      "vis_m": 5000,
      "fzfg": false,
      "metar_trigger": false,
      "taf_trigger": false,
      "metar": "METAR LFOB 182200Z AUTO 11006KT 5000 BR OVC002 07/07 Q0992 TEMPO RADZ BKN007",
      "taf": "TAF LFOB 181700Z 1818/1918 12012KT 9999 OVC007"
    },
    {
      "icao": "LFPO",
      "alert": "OK",
      "vis_m": 9999,
      "fzfg": false,
      "metar_trigger": false,
      "taf_trigger": false,
      "metar": "METAR LFPO 182200Z 18007KT CAVOK 09/08 Q0993 TEMPO 4000 -SHRA BKN012TCU",
      "taf": "TAF LFPO 181700Z 1818/1924 17010KT 9999 BKN020"
    },
    {
      "icao": "LFSB",
      "alert": "OK",
      "vis_m": 9999,
      "fzfg": false,
      "metar_trigger": false,
      "taf_trigger": false,
      "metar": "METAR LFSB 182200Z AUTO 10009KT CAVOK 04/02 Q1002 TEMPO 4000 -DZ BKN010",
      "taf": "TAF LFSB 181700Z 1818/1918 13007KT 9999 SCT025 BKN050"
    },
    {
      "icao": "LGAV",
      "alert": "OK",
      "vis_m": 9999,
      "fzfg": false,
      "metar_trigger": false,
      "taf_trigger": false,
      "metar": "METAR LGAV 182150Z VRB01KT 9999 FEW025 04/00 Q1019 NOSIG",
      "taf": "TAF LGAV 181700Z 1818/1918 VRB05KT 9999 FEW025"
    },
    {
      "icao": "LGTS",
      "alert": "OK",
      "vis_m": 9999,
      "fzfg": false,
      "metar_trigger": false,
      "taf_trigger": false,
      "metar": "METAR LGTS 182050Z VRB03KT 9999 FEW020 09/M02 Q1017 NOSIG",
      "taf": "TAF LGTS 181700Z 1818/1918 34015G25KT 9999 FEW030"
    },
    {
      "icao": "LHBP",
      "alert": "OK",
      "vis_m": 9999,
      "fzfg": false,
      "metar_trigger": false,
      "taf_trigger": false,
      "metar": "METAR LHBP 182200Z VRB02KT CAVOK M01/M03 Q1013 NOSIG",
      "taf": "TAF LHBP 181715Z 1818/1918 28007KT CAVOK"
    },
    {
      "icao": "LHDC",
      "alert": "OK",
      "vis_m": 9999,
      "fzfg": false,
      "metar_trigger": false,
      "taf_trigger": false,
      "metar": "METAR LHDC 182145Z AUTO VRB02KT CAVOK 00/M03 Q1012",
      "taf": "TAF LHDC 181415Z 1815/1824 24006KT CAVOK"
    },
    {
      "icao": "LIBD",
      "alert": "OK",
      "vis_m": 9999,
      "fzfg": false,
      "metar_trigger": false,
      "taf_trigger": false,
      "metar": "METAR LIBD 182150Z 18002KT CAVOK 06/03 Q1016",
      "taf": "TAF LIBD 181700Z 1818/1918 17008KT CAVOK"
    },
    {
      "icao": "LIBG",
      "alert": "OK",
      "vis_m": 9999,
      "fzfg": false,
      "metar_trigger": false,
      "taf_trigger": false,
      "metar": "METAR LIBG 182050Z VRB01KT CAVOK 07/05 Q1016",
      "taf": "TAF LIBG 181700Z 1818/1903 VRB05KT CAVOK"
    },
    {
      "icao": "LIBP",
      "alert": "OK",
      "vis_m": 9999,
      "fzfg": false,
      "metar_trigger": false,
      "taf_trigger": false,
      "metar": "METAR LIBP 182150Z AUTO 23005KT 9999 NCD 06/03 Q1013",
      "taf": "TAF LIBP 181700Z 1818/1918 21005KT CAVOK"
    },
    {
      "icao": "LIBR",
      "alert": "OK",
      "vis_m": 9999,
      "fzfg": false,
      "metar_trigger": false,
      "taf_trigger": false,
      "metar": "METAR LIBR 182150Z 18008KT CAVOK 08/03 Q1017",
      "taf": "TAF LIBR 181700Z 1818/1918 16008KT CAVOK"
    },
    {
      "icao": "LICA",
      "alert": "OK",
      "vis_m": 9999,
      "fzfg": false,
      "metar_trigger": false,
      "taf_trigger": false,
      "metar": "METAR LICA 182150Z AUTO 09003KT 060V130 9999 FEW033/// 09/07 Q1018",
      "taf": "TAF LICA 181700Z 1818/1918 VRB06KT 9999 FEW025"
    },
    {
      "icao": "LICC",
      "alert": "OK",
      "vis_m": 9999,
      "fzfg": false,
      "metar_trigger": false,
      "taf_trigger": false,
      "metar": "METAR LICC 182150Z 24006KT CAVOK 10/05 Q1019",
      "taf": "TAF LICC 181700Z 1818/1918 26010KT CAVOK"
    },
    {
      "icao": "LICJ",
      "alert": "OK",
      "vis_m": 9999,
      "fzfg": false,
      "metar_trigger": false,
      "taf_trigger": false,
      "metar": "METAR LICJ 182150Z 19014KT CAVOK 14/08 Q1018",
      "taf": "TAF LICJ 181700Z 1818/1918 26010KT 9999 SCT035"
    },
    {
      "icao": "LIMC",
      "alert": "OK",
      "vis_m": 9999,
      "fzfg": false,
      "metar_trigger": false,
      "taf_trigger": false,
      "metar": "METAR LIMC 182150Z 04004KT 9999 BKN066 06/01 Q1010 NOSIG",
      "taf": "TAF LIMC 181700Z 1818/1924 VRB05KT CAVOK"
    },
    {
      "icao": "LIME",
      "alert": "OK",
      "vis_m": 9999,
      "fzfg": false,
      "metar_trigger": false,
      "taf_trigger": false,
      "metar": "METAR LIME 182150Z 01004KT 9999 SCT070 07/M00 Q1010 NOSIG",
      "taf": "TAF LIME 181700Z 1818/1918 VRB05KT CAVOK"
    },
    {
      "icao": "LIMF",
      "alert": "OK",
      "vis_m": null,
      "fzfg": false,
      "metar_trigger": false,
      "taf_trigger": false,
      "metar": "METAR LIMF 182150Z AUTO 34003KT 300V030 //// // SCT051/// 06/M02 Q1009",
      "taf": "TAF LIMF 181700Z 1818/1918 VRB05KT CAVOK"
    },
    {
      "icao": "LIMJ",
      "alert": "OK",
      "vis_m": 9999,
      "fzfg": false,
      "metar_trigger": false,
      "taf_trigger": false,
      "metar": "METAR LIMJ 182150Z 12018KT 9999 SCT010 SCT040 12/10 Q1009",
      "taf": "TAF LIMJ 181700Z 1818/1918 12017KT 9999 FEW020"
    },
    {
      "icao": "LIPE",
      "alert": "OK",
      "vis_m": 9999,
      "fzfg": false,
      "metar_trigger": false,
      "taf_trigger": false,
      "metar": "METAR LIPE 182150Z 25005KT CAVOK 09/05 Q1010",
      "taf": "TAF LIPE 181700Z 1818/1918 VRB05KT 9999 FEW060"
    },
    {
      "icao": "LIPH",
      "alert": "OK",
      "vis_m": 9999,
      "fzfg": false,
      "metar_trigger": false,
      "taf_trigger": false,
      "metar": "METAR LIPH 182150Z 02004KT CAVOK 07/01 Q1011",
      "taf": "TAF LIPH 181700Z 1818/1918 VRB05KT 9999 FEW050"
    },
    {
      "icao": "LIPQ",
      "alert": "OK",
      "vis_m": 9999,
      "fzfg": false,
      "metar_trigger": false,
      "taf_trigger": false,
      "metar": "METAR LIPQ 182150Z AUTO 09003KT 9999 BKN058/// OVC150/// 07/04 Q1011",
      "taf": "TAF LIPQ 181700Z 1818/1918 VRB05KT CAVOK"
    },
    {
      "icao": "LIPR",
      "alert": "OK",
      "vis_m": 9999,
      "fzfg": false,
      "metar_trigger": false,
      "taf_trigger": false,
      "metar": "METAR LIPR 182150Z 18004KT 9999 FEW060 11/06 Q1011",
      "taf": "TAF LIPR 181700Z 1818/1918 16005KT 9999 FEW050"
    },
    {
      "icao": "LIPX",
      "alert": "OK",
      "vis_m": 9999,
      "fzfg": false,
      "metar_trigger": false,
      "taf_trigger": false,
      "metar": "METAR LIPX 182150Z 01004KT 9999 SCT060 05/00 Q1010",
      "taf": "TAF LIPX 181700Z 1818/1918 07008KT CAVOK"
    },
    {
      "icao": "LIPY",
      "alert": "OK",
      "vis_m": 9999,
      "fzfg": false,
      "metar_trigger": false,
      "taf_trigger": false,
      "metar": "METAR LIPY 182150Z AUTO 16006KT 9999 BKN086/// 11/03 Q1012",
      "taf": "TAF LIPY 181700Z 1818/1918 16006KT CAVOK"
    },
    {
      "icao": "LIPZ",
      "alert": "OK",
      "vis_m": 9999,
      "fzfg": false,
      "metar_trigger": false,
      "taf_trigger": false,
      "metar": "METAR LIPZ 182150Z 05005KT CAVOK 06/06 Q1011 NOSIG",
      "taf": "TAF LIPZ 181700Z 1818/1924 04005KT CAVOK"
    },
    {
      "icao": "LIRF",
      "alert": "OK",
      "vis_m": 9999,
      "fzfg": false,
      "metar_trigger": false,
      "taf_trigger": false,
      "metar": "METAR LIRF 182150Z 19011KT 9999 FEW040 SCT055 14/10 Q1014 NOSIG",
      "taf": "TAF LIRF 181700Z 1818/1924 VRB06KT 9999 FEW025"
    },
    {
      "icao": "LIRN",
      "alert": "OK",
      "vis_m": 9999,
      "fzfg": false,
      "metar_trigger": false,
      "taf_trigger": false,
      "metar": "METAR LIRN 182150Z 20010KT 9999 SCT060 13/07 Q1016 NOSIG",
      "taf": "TAF LIRN 181700Z 1818/1918 VRB05KT 9999 FEW030"
    },
    {
      "icao": "LIRP",
      "alert": "OK",
      "vis_m": 9999,
      "fzfg": false,
      "metar_trigger": false,
      "taf_trigger": false,
      "metar": "METAR LIRP 182145Z 09004KT 9999 BKN030 SCT070 11/11 Q1012 NOSIG",
      "taf": "TAF LIRP 181700Z 1818/1918 22012KT 9999 SCT020 SCT060"
    },
    {
      "icao": "LIRZ",
      "alert": "OK",
      "vis_m": 9999,
      "fzfg": false,
      "metar_trigger": false,
      "taf_trigger": false,
      "metar": "METAR LIRZ 182150Z AUTO 16005KT 130V190 9999 FEW024/// SCT080/// 11/07 Q1013",
      "taf": "TAF LIRZ 181700Z 1818/1918 VRB05KT 9999 SCT035"
    },
    {
      "icao": "LJLJ",
      "alert": "OK",
      "vis_m": 9999,
      "fzfg": false,
      "metar_trigger": false,
      "taf_trigger": false,
      "metar": "METAR LJLJ 182130Z VRB02KT 9999 FEW060 SCT110 BKN200 M00/M02 Q1010 NOSIG",
      "taf": "TAF LJLJ 181700Z 1818/1918 VRB02KT 9999 FEW060"
    },
    {
      "icao": "LKMT",
      "alert": "OK",
      "vis_m": 4500,
      "fzfg": false,
      "metar_trigger": false,
      "taf_trigger": false,
      "metar": "METAR LKMT 182200Z 01007KT 4500 BR OVC009 M01/M01 Q1013 NOSIG",
      "taf": "TAF LKMT 181700Z 1818/1918 04005KT 9999 SCT030"
    },
    {
      "icao": "LKPR",
      "alert": "OK",
      "vis_m": 9999,
      "fzfg": false,
      "metar_trigger": false,
      "taf_trigger": false,
      "metar": "METAR LKPR 182200Z 05006KT 9999 BKN021 M01/M03 Q1011 NOSIG",
      "taf": "TAF LKPR 182000Z 1821/2003 03006KT 9999 SCT020 BKN035"
    },
    {
      "icao": "LLBG",
      "alert": "OK",
      "vis_m": 9999,
      "fzfg": false,
      "metar_trigger": false,
      "taf_trigger": false,
      "metar": "METAR LLBG 182150Z 26010KT 9999 FEW035 16/08 Q1018 NOSIG",
      "taf": "TAF LLBG 181703Z 1818/1918 18005KT 9999 SCT030"
    },
    {
      "icao": "LMML",
      "alert": "OK",
      "vis_m": 9999,
      "fzfg": false,
      "metar_trigger": false,
      "taf_trigger": false,
      "metar": "METAR LMML 182145Z 23004KT 200V270 9999 FEW028 12/10 Q1021 NOSIG",
      "taf": "TAF LMML 181700Z 1818/1918 27009KT 9999 FEW025"
    },
    {
      "icao": "LOWW",
      "alert": "OK",
      "vis_m": 9999,
      "fzfg": false,
      "metar_trigger": false,
      "taf_trigger": false,
      "metar": "METAR LOWW 182150Z 17004KT CAVOK M02/M05 Q1012 NOSIG",
      "taf": "TAF LOWW 182015Z 1821/2003 VRB02KT 9999 FEW050 TX01/1913Z TNM02/1901Z"
    },
    {
      "icao": "LPFR",
      "alert": "OK",
      "vis_m": 9999,
      "fzfg": false,
      "metar_trigger": false,
      "taf_trigger": false,
      "metar": "METAR LPFR 182130Z 30009KT 9999 FEW010 BKN035 15/12 Q1023",
      "taf": "TAF LPFR 181700Z 1818/1918 26012KT 9999 SCT020 BKN035"
    },
    {
      "icao": "LPMA",
      "alert": "OK",
      "vis_m": 9999,
      "fzfg": false,
      "metar_trigger": false,
      "taf_trigger": false,
      "metar": "METAR LPMA 182130Z 01008KT 340V070 9999 FEW014 17/11 Q1027",
      "taf": "TAF LPMA 181700Z 1818/1918 VRB05KT 9999 SCT014"
    },
    {
      "icao": "LPPR",
      "alert": "OK",
      "vis_m": 9999,
      "fzfg": false,
      "metar_trigger": false,
      "taf_trigger": false,
      "metar": "METAR LPPR 182130Z 31013KT 280V340 9999 FEW025 SCT030 12/07 Q1020",
      "taf": "TAF LPPR 181700Z 1818/1918 30010KT 9999 SCT025"
    },
    {
      "icao": "LPPS",
      "alert": "OK",
      "vis_m": 9999,
      "fzfg": false,
      "metar_trigger": false,
      "taf_trigger": false,
      "metar": "METAR LPPS 182130Z 02005KT 9999 BKN012 16/14 Q1027",
      "taf": "TAF LPPS 181700Z 1818/1924 33005KT 9999 SCT015"
    },
    {
      "icao": "LPPT",
      "alert": "OK",
      "vis_m": 9999,
      "fzfg": false,
      "metar_trigger": false,
      "taf_trigger": false,
      "metar": "METAR LPPT 182130Z 30005KT 9999 FEW016 12/09 Q1023",
      "taf": "TAF LPPT 181700Z 1818/1924 30010KT 9999 SCT020"
    },
    {
      "icao": "LQBK",
      "alert": "OK",
      "vis_m": 9999,
      "fzfg": false,
      "metar_trigger": false,
      "taf_trigger": false,
      "metar": "METAR LQBK 182130Z 12005KT CAVOK 03/00 Q1013 NOSIG",
      "taf": "TAF LQBK 181700Z 1818/1918 VRB03KT CAVOK TX15/1913Z TN01/1824Z"
    },
    {
      "icao": "LQSA",
      "alert": "OK",
      "vis_m": 6000,
      "fzfg": false,
      "metar_trigger": false,
      "taf_trigger": false,
      "metar": "METAR LQSA 182130Z 13003KT 6000 NSC M02/M02 Q1015 NOSIG",
      "taf": "TAF LQSA 181700Z 1818/1918 VRB02KT 9999 FEW045 TX10/1913Z TNM02/1902Z"
    },
    {
      "icao": "LQTZ",
      "alert": "OK",
      "vis_m": 9999,
      "fzfg": false,
      "metar_trigger": false,
      "taf_trigger": false,
      "metar": "METAR LQTZ 182130Z 00000KT CAVOK M01/M02 Q1014",
      "taf": "TAF LQTZ 181700Z 1818/1918 10005KT CAVOK TX14/1914Z TNM03/1902Z"
    },
    {
      "icao": "LRBC",
      "alert": "OK",
      "vis_m": 8000,
      "fzfg": false,
      "metar_trigger": false,
      "taf_trigger": false,
      "metar": "METAR LRBC 182130Z 20002KT 8000 NSC M06/M07 Q1010",
      "taf": "TAF LRBC 182000Z 1821/1906 VRB04KT CAVOK"
    },
    {
      "icao": "LRBS",
      "alert": "OK",
      "vis_m": 200,
      "fzfg": true,
      "metar_trigger": false,
      "taf_trigger": false,
      "metar": "METAR LRBS 182130Z VRB02KT 0200 R07/0400N FZFG VV001 M01/M01 Q1012 NOSIG",
      "taf": ""
    },
    {
      "icao": "LRBV",
      "alert": "OK",
      "vis_m": 9999,
      "fzfg": false,
      "metar_trigger": false,
      "taf_trigger": false,
      "metar": "METAR LRBV 182130Z AUTO 29007KT 260V320 9999 OVC037/// 01/M03 Q1010",
      "taf": "TAF LRBV 182000Z 1821/1906 36005KT 9999 BKN025"
    },
    {
      "icao": "LRCL",
      "alert": "OK",
      "vis_m": 9999,
      "fzfg": false,
      "metar_trigger": false,
      "taf_trigger": false,
      "metar": "METAR LRCL 182130Z 26006KT CAVOK 01/M03 Q1011",
      "taf": "TAF LRCL 182000Z 1821/1906 28006KT CAVOK"
    },
    {
      "icao": "LRCV",
      "alert": "OK",
      "vis_m": 9999,
      "fzfg": false,
      "metar_trigger": false,
      "taf_trigger": false,
      "metar": "METAR LRCV 182130Z 29010KT CAVOK 01/M00 Q1014",
      "taf": "TAF LRCV 182000Z 1821/1906 29012KT CAVOK"
    },
    {
      "icao": "LRIA",
      "alert": "OK",
      "vis_m": 9999,
      "fzfg": false,
      "metar_trigger": false,
      "taf_trigger": false,
      "metar": "METAR LRIA 182130Z 29011KT CAVOK M04/M05 Q1009",
      "taf": "TAF LRIA 182000Z 1821/1906 31012KT CAVOK"
    },
    {
      "icao": "LROP",
      "alert": "CRITICAL",
      "vis_m": 100,
      "fzfg": true,
      "metar_trigger": true,
      "taf_trigger": false,
      "metar": "METAR LROP 182130Z VRB02KT 0100 R08R/0300N FZFG VV001 M01/M01 Q1012 NOSIG",
      "taf": ""
    },
    {
      "icao": "LRSB",
      "alert": "OK",
      "vis_m": 9999,
      "fzfg": false,
      "metar_trigger": false,
      "taf_trigger": false,
      "metar": "METAR LRSB 182130Z 29015KT 9999 SCT065 02/M02 Q1011",
      "taf": "TAF LRSB 181700Z 1818/1918 29015KT 9999 BKN050"
    },
    {
      "icao": "LRSM",
      "alert": "OK",
      "vis_m": 9999,
      "fzfg": false,
      "metar_trigger": false,
      "taf_trigger": false,
      "metar": "METAR LRSM 182130Z AUTO 27006KT 9999 FEW055/// BKN070/// 01/M01 Q1012",
      "taf": "TAF LRSM 181400Z 1815/1824 25010KT 9999 SCT030"
    },
    {
      "icao": "LRSV",
      "alert": "OK",
      "vis_m": 9999,
      "fzfg": false,
      "metar_trigger": false,
      "taf_trigger": false,
      "metar": "METAR LRSV 182130Z 30008KT 9999 FEW030 M02/M05 Q1008",
      "taf": "TAF LRSV 182000Z 1821/1906 33007KT CAVOK"
    },
    {
      "icao": "LRTM",
      "alert": "OK",
      "vis_m": 9999,
      "fzfg": false,
      "metar_trigger": false,
      "taf_trigger": false,
      "metar": "METAR LRTM 182130Z AUTO 25005KT 9999 NCD 01/M02 Q1011",
      "taf": "TAF LRTM 181400Z 1815/1824 32010KT 9999 SCT025"
    },
    {
      "icao": "LRTR",
      "alert": "OK",
      "vis_m": 9999,
      "fzfg": false,
      "metar_trigger": false,
      "taf_trigger": false,
      "metar": "METAR LRTR 182130Z 11006KT CAVOK M02/M02 Q1014",
      "taf": "TAF LRTR 181700Z 1818/1918 VRB04KT CAVOK"
    },
    {
      "icao": "LTAC",
      "alert": "OK",
      "vis_m": 9999,
      "fzfg": false,
      "metar_trigger": false,
      "taf_trigger": false,
      "metar": "METAR LTAC 182150Z 27012KT 9999 SCT035 BKN080 M00/M04 Q1010 NOSIG RMK RWY21C 26013KT RWY03L 26010KT RWY21R 25012KT RWY03R 25010KT RWY21L 26012KT",
      "taf": "TAF LTAC 181640Z 1818/1918 24012KT 9999 SCT040 BKN100"
    },
    {
      "icao": "LTFM",
      "alert": "OK",
      "vis_m": 9999,
      "fzfg": false,
      "metar_trigger": false,
      "taf_trigger": false,
      "metar": "METAR LTFM 182150Z 24008KT 9999 SCT035 BKN080 05/03 Q1015 NOSIG RMK RWY17L 24011KT RWY34L 23007KT RWY16R 24007KT RWY36 23008KT RWY18 24012KT",
      "taf": "TAF LTFM 181640Z 1818/1924 24012KT 9999 SCT009 BKN028"
    },
    {
      "icao": "LUKK",
      "alert": "OK",
      "vis_m": 9999,
      "fzfg": false,
      "metar_trigger": false,
      "taf_trigger": false,
      "metar": "METAR LUKK 182130Z 33016KT 9999 DRSN NSC M04/M07 Q1007 NOSIG",
      "taf": "TAF LUKK 181711Z 1818/1918 34014KT 5000 -SN BKN020"
    },
    {
      "icao": "LWOH",
      "alert": "OK",
      "vis_m": null,
      "fzfg": false,
      "metar_trigger": false,
      "taf_trigger": false,
      "metar": "",
      "taf": "TAF LWOH 182020Z 1821/1921 06005KT CAVOK"
    },
    {
      "icao": "LWSK",
      "alert": "OK",
      "vis_m": 9999,
      "fzfg": false,
      "metar_trigger": false,
      "taf_trigger": false,
      "metar": "METAR LWSK 182150Z VRB02KT CAVOK M01/M04 Q1018 NOSIG",
      "taf": "TAF LWSK 182020Z 1821/1921 VRB02KT CAVOK"
    },
    {
      "icao": "LYBE",
      "alert": "OK",
      "vis_m": 9999,
      "fzfg": false,
      "metar_trigger": false,
      "taf_trigger": false,
      "metar": "METAR LYBE 182130Z 16008KT CAVOK 03/M02 Q1015 NOSIG",
      "taf": "TAF LYBE 181700Z 1818/1918 15004KT CAVOK TX13/1913Z TN01/1906Z"
    },
    {
      "icao": "LYNI",
      "alert": "OK",
      "vis_m": 9999,
      "fzfg": false,
      "metar_trigger": false,
      "taf_trigger": false,
      "metar": "METAR LYNI 182130Z 11003KT CAVOK 00/M00 Q1017 NOSIG",
      "taf": "TAF LYNI 181700Z 1818/1918 09004KT 9999 SCT040 TX12/1912Z TNM03/1906Z"
    },
    {
      "icao": "LYPG",
      "alert": "OK",
      "vis_m": 9999,
      "fzfg": false,
      "metar_trigger": false,
      "taf_trigger": false,
      "metar": "METAR LYPG 182130Z 35003KT CAVOK 05/00 Q1018 NOSIG",
      "taf": "TAF LYPG 181700Z 1818/1918 36005KT 9999 FEW040 TX13/1918Z TN02/1902Z"
    },
    {
      "icao": "LZIB",
      "alert": "OK",
      "vis_m": 9999,
      "fzfg": false,
      "metar_trigger": false,
      "taf_trigger": false,
      "metar": "METAR LZIB 182200Z 32003KT CAVOK M01/M04 Q1013 NOSIG",
      "taf": ""
    },
    {
      "icao": "LZKZ",
      "alert": "OK",
      "vis_m": 9999,
      "fzfg": false,
      "metar_trigger": false,
      "taf_trigger": false,
      "metar": "METAR LZKZ 182200Z 09002KT 9999 FEW004 M01/M01 Q1011 NOSIG",
      "taf": ""
    },
    {
      "icao": "LZTT",
      "alert": "OK",
      "vis_m": 9999,
      "fzfg": false,
      "metar_trigger": false,
      "taf_trigger": false,
      "metar": "METAR LZTT 182200Z 26004KT 240V300 9999 FEW012 SCT018 M03/M05 Q1009",
      "taf": "TAF LZTT 181715Z 1818/1918 27013KT 9999 FEW020"
    },
    {
      "icao": "OEJN",
      "alert": "OK",
      "vis_m": 9999,
      "fzfg": false,
      "metar_trigger": false,
      "taf_trigger": false,
      "metar": "METAR OEJN 182200Z 35005KT CAVOK 24/20 Q1012 NOSIG",
      "taf": "TAF OEJN 181700Z 1818/1924 36006KT CAVOK"
    },
    {
      "icao": "OEMA",
      "alert": "OK",
      "vis_m": 9999,
      "fzfg": false,
      "metar_trigger": false,
      "taf_trigger": false,
      "metar": "METAR OEMA 182200Z VRB02KT CAVOK 26/08 Q1016 NOSIG",
      "taf": "TAF OEMA 181700Z 1818/1924 27006KT CAVOK"
    },
    {
      "icao": "OJAI",
      "alert": "OK",
      "vis_m": 4000,
      "fzfg": false,
      "metar_trigger": false,
      "taf_trigger": false,
      "metar": "METAR OJAI 182100Z 27012KT 4000 HZ NSC 09/06 Q1018 NOSIG",
      "taf": "TAF OJAI 181700Z 1818/1924 27010KT 4000 HZ FEW030"
    },
    {
      "icao": "OMAA",
      "alert": "OK",
      "vis_m": 9999,
      "fzfg": false,
      "metar_trigger": false,
      "taf_trigger": false,
      "metar": "METAR OMAA 182200Z 02010KT CAVOK 21/16 Q1015 NOSIG",
      "taf": "TAF OMAA 181700Z 1818/2000 04007KT 8000 NSC"
    },
    {
      "icao": "OMDB",
      "alert": "OK",
      "vis_m": 9999,
      "fzfg": false,
      "metar_trigger": false,
      "taf_trigger": false,
      "metar": "METAR OMDB 182200Z 09004KT 060V120 CAVOK 22/15 Q1016 NOSIG",
      "taf": "TAF OMDB 181700Z 1818/2000 08005KT 8000 NSC"
    },
    {
      "icao": "UAAA",
      "alert": "OK",
      "vis_m": 5000,
      "fzfg": false,
      "metar_trigger": false,
      "taf_trigger": false,
      "metar": "METAR UAAA 182130Z 32002MPS 5000 BR FU BKN200 01/M01 Q1014 NOSIG",
      "taf": "TAF UAAA 181700Z 1818/1918 22002MPS 1200 BR FU SCT030 BKN100 TX20/1909Z TN02/1903Z"
    },
    {
      "icao": "UBBB",
      "alert": "OK",
      "vis_m": 400,
      "fzfg": false,
      "metar_trigger": false,
      "taf_trigger": false,
      "metar": "METAR UBBB 182200Z 12006KT 0400 R17/1000N FG VV002 06/06 Q1007 NOSIG",
      "taf": "TAF UBBB 181713Z 1818/1918 08005KT 3000 BR BKN005 TX20/1910Z TN05/1900Z"
    },
    {
      "icao": "UDSG",
      "alert": "OK",
      "vis_m": 9999,
      "fzfg": false,
      "metar_trigger": false,
      "taf_trigger": false,
      "metar": "METAR UDSG 182130Z 16002KT 9999 OVC040 02/02 Q1010 NOSIG",
      "taf": "TAF UDSG 181700Z 1818/1918 VRB06KT 9999 BKN040"
    },
    {
      "icao": "UDYZ",
      "alert": "OK",
      "vis_m": 9999,
      "fzfg": false,
      "metar_trigger": false,
      "taf_trigger": false,
      "metar": "METAR UDYZ 182130Z COR VRB02KT 9999 FEW046 08/04 Q1007 NOSIG",
      "taf": "TAF UDYZ 181700Z 1818/1918 06006KT 9999 SCT040"
    },
    {
      "icao": "UGKO",
      "alert": "OK",
      "vis_m": 9999,
      "fzfg": false,
      "metar_trigger": false,
      "taf_trigger": false,
      "metar": "METAR UGKO 182130Z 25025KT CAVOK 14/07 Q1003 NOSIG",
      "taf": "TAF UGKO 181700Z 1818/1918 07010KT 9999 BKN050 TX19/1818Z TN05/1916Z"
    }
  ]
}