{
  "ts_utc": "2026-01-11T19:19:52Z",
  "threshold_m": 150,
  "source": "stations_override.txt (ICAO list) + aviationweather.gov (METAR/TAF raw)",
  "station_count": 159,
  "stations": [
    {
      "icao": "BIKF",
      "alert": "OK",
      "vis_m": 9999,
      "fzfg": false,
      "metar_trigger": false,
      "taf_trigger": false,
      "metar": "METAR BIKF 111900Z 02012KT CAVOK M03/M07 Q0993",
      "taf": "TAF BIKF 111625Z 1118/1218 36013KT 9999 FEW030 TX00/1203Z TNM04/1118Z"
    },
    {
      "icao": "BKPR",
      "alert": "OK",
      "vis_m": 9999,
      "fzfg": false,
      "metar_trigger": false,
      "taf_trigger": false,
      "metar": "METAR BKPR 111900Z 30007KT 9999 BKN050 M06/M10 Q1018 NOSIG",
      "taf": ""
    },
    {
      "icao": "EBCI",
      "alert": "OK",
      "vis_m": 9999,
      "fzfg": false,
      "metar_trigger": false,
      "taf_trigger": false,
      "metar": "METAR EBCI 111850Z 17014KT 9999 FEW013 00/M02 Q1018 NOSIG",
      "taf": "TAF EBCI 111700Z 1118/1224 17012KT 9999 BKN014"
    },
    {
      "icao": "EDDB",
      "alert": "OK",
      "vis_m": 9999,
      "fzfg": false,
      "metar_trigger": false,
      "taf_trigger": false,
      "metar": "METAR EDDB 111850Z AUTO 26006KT CAVOK M09/M10 Q1022 NOSIG",
      "taf": "TAF EDDB 111700Z 1118/1218 28009KT CAVOK"
    },
    {
      "icao": "EDDH",
      "alert": "OK",
      "vis_m": 8000,
      "fzfg": false,
      "metar_trigger": false,
      "taf_trigger": false,
      "metar": "METAR EDDH 111850Z AUTO 16004KT 8000 NSC M07/M08 Q1022 NOSIG",
      "taf": "TAF EDDH 111700Z 1118/1224 VRB03KT 6000 NSC"
    },
    {
      "icao": "EDDK",
      "alert": "OK",
      "vis_m": 9999,
      "fzfg": false,
      "metar_trigger": false,
      "taf_trigger": false,
      "metar": "METAR EDDK 111850Z AUTO 13008KT 9999 OVC017 M01/M03 Q1022 NOSIG",
      "taf": "TAF EDDK 111700Z 1118/1224 14009KT 9999 BKN020"
    },
    {
      "icao": "EDDN",
      "alert": "OK",
      "vis_m": 9999,
      "fzfg": false,
      "metar_trigger": false,
      "taf_trigger": false,
      "metar": "METAR EDDN 111850Z AUTO 21004KT 9999 BKN016 M06/M08 Q1025 NOSIG",
      "taf": ""
    },
    {
      "icao": "EDDS",
      "alert": "OK",
      "vis_m": 9999,
      "fzfg": false,
      "metar_trigger": false,
      "taf_trigger": false,
      "metar": "METAR EDDS 111850Z AUTO 13003KT 9999 BKN020 M01/M04 Q1022 NOSIG",
      "taf": "TAF EDDS 111700Z 1118/1218 18004KT 9999 BKN020"
    },
    {
      "icao": "EDFH",
      "alert": "OK",
      "vis_m": 8000,
      "fzfg": false,
      "metar_trigger": false,
      "taf_trigger": false,
      "metar": "METAR EDFH 111850Z 17007KT 8000 BKN003 M03/M04 Q1021",
      "taf": "TAF EDFH 111700Z 1118/1218 16008KT 8000 BKN005"
    },
    {
      "icao": "EDJA",
      "alert": "OK",
      "vis_m": 7000,
      "fzfg": false,
      "metar_trigger": false,
      "taf_trigger": false,
      "metar": "METAR EDJA 111850Z 15004KT 7000 NSC M07/M08 Q1022",
      "taf": "TAF EDJA 111700Z 1118/1203 19004KT CAVOK"
    },
    {
      "icao": "EDLW",
      "alert": "OK",
      "vis_m": 9999,
      "fzfg": false,
      "metar_trigger": false,
      "taf_trigger": false,
      "metar": "METAR EDLW 111850Z VRB04KT 9999 SCT011 BKN015 M02/M05 Q1021",
      "taf": "TAF EDLW 111700Z 1118/1218 17008KT 9999 FEW015"
    },
    {
      "icao": "EDNY",
      "alert": "OK",
      "vis_m": 7000,
      "fzfg": false,
      "metar_trigger": false,
      "taf_trigger": false,
      "metar": "METAR EDNY 111850Z AUTO 06004KT 7000 // NCD M03/M04 Q1023",
      "taf": "TAF EDNY 111700Z 1118/1203 06003KT 9999 BKN020"
    },
    {
      "icao": "EDSB",
      "alert": "OK",
      "vis_m": 9999,
      "fzfg": false,
      "metar_trigger": false,
      "taf_trigger": false,
      "metar": "METAR EDSB 111850Z 28002KT 9999 OVC025 M00/M01 Q1024",
      "taf": "TAF EDSB 111700Z 1118/1218 08004KT 9999 BKN025"
    },
    {
      "icao": "EETN",
      "alert": "OK",
      "vis_m": 1600,
      "fzfg": false,
      "metar_trigger": false,
      "taf_trigger": false,
      "metar": "METAR EETN 111850Z 04008KT 1600 SN FEW009 BKN013 OVC018 M04/M05 Q1013 TEMPO 0800 +SN",
      "taf": "TAF EETN 111730Z 1118/1218 03012KT 5000 SN SCT015 OVC020"
    },
    {
      "icao": "EFTU",
      "alert": "OK",
      "vis_m": 9999,
      "fzfg": false,
      "metar_trigger": false,
      "taf_trigger": false,
      "metar": "METAR EFTU 111850Z AUTO 03005KT 360V060 9999 -SN OVC048 M07/M09 Q1016",
      "taf": "TAF EFTU 111727Z 1118/1218 02006KT 9999 -SN SCT045"
    },
    {
      "icao": "EGBB",
      "alert": "OK",
      "vis_m": 6000,
      "fzfg": false,
      "metar_trigger": false,
      "taf_trigger": false,
      "metar": "METAR EGBB 111850Z 16014KT 6000 RA OVC008 08/07 Q0999",
      "taf": "TAF EGBB 111703Z 1118/1218 17015KT 9999 -RA BKN010"
    },
    {
      "icao": "EGGP",
      "alert": "OK",
      "vis_m": 9999,
      "fzfg": false,
      "metar_trigger": false,
      "taf_trigger": false,
      "metar": "METAR EGGP 111850Z 16016G26KT 9999 -RA BKN012 OVC015 09/07 Q0993",
      "taf": "TAF EGGP 111657Z 1118/1218 16015G28KT 9999 SCT012 BKN014"
    },
    {
      "icao": "EGGW",
      "alert": "OK",
      "vis_m": 8000,
      "fzfg": false,
      "metar_trigger": false,
      "taf_trigger": false,
      "metar": "METAR EGGW 111850Z AUTO 18013G24KT 150V210 8000 OVC005/// //////TCU 06/06 Q1004",
      "taf": "TAF EGGW 111702Z 1118/1218 17018G32KT 8000 -RADZ BKN006"
    },
    {
      "icao": "EGKK",
      "alert": "OK",
      "vis_m": 9999,
      "fzfg": false,
      "metar_trigger": false,
      "taf_trigger": false,
      "metar": "METAR EGKK 111850Z 18014G25KT 9999 BKN009 07/07 Q1007",
      "taf": "TAF EGKK 111657Z 1118/1224 16013KT 9999 BKN010"
    },
    {
      "icao": "EGNM",
      "alert": "OK",
      "vis_m": 9999,
      "fzfg": false,
      "metar_trigger": false,
      "taf_trigger": false,
      "metar": "METAR EGNM 111850Z 15013KT 9999 -RA SCT003 BKN005 06/06 Q0996",
      "taf": "TAF EGNM 111657Z 1118/1218 15015G28KT 9999 BKN006"
    },
    {
      "icao": "EGPD",
      "alert": "OK",
      "vis_m": 5000,
      "fzfg": false,
      "metar_trigger": false,
      "taf_trigger": false,
      "metar": "METAR EGPD 111850Z AUTO 15020KT 5000 -RA OVC006/// //////TCU 05/04 Q0989 RERA TEMPO 4000 RA",
      "taf": "TAF EGPD 111703Z 1118/1218 16020G32KT 9999 BKN010"
    },
    {
      "icao": "EGPF",
      "alert": "OK",
      "vis_m": 9999,
      "fzfg": false,
      "metar_trigger": false,
      "taf_trigger": false,
      "metar": "METAR EGPF 111850Z AUTO 15015KT 9999 BKN017 10/07 Q0984",
      "taf": "TAF EGPF 111702Z 1118/1218 15015G25KT 9999 FEW015 SCT030"
    },
    {
      "icao": "EHBK",
      "alert": "OK",
      "vis_m": 9999,
      "fzfg": false,
      "metar_trigger": false,
      "taf_trigger": false,
      "metar": "METAR EHBK 111855Z AUTO 17012KT 9999 NSC M00/M03 Q1019 NOSIG",
      "taf": "TAF EHBK 111712Z 1118/1224 18008KT 9999 BKN016"
    },
    {
      "icao": "EHEH",
      "alert": "OK",
      "vis_m": 9999,
      "fzfg": false,
      "metar_trigger": false,
      "taf_trigger": false,
      "metar": "SPECI EHEH 111906Z AUTO 16011KT 130V190 9999 BKN082 OVC087 00/M03 Q1018 BLU NOSIG RMK TREND REMOTE BY EHWX",
      "taf": "TAF EHEH 111730Z 1118/1224 17010KT 9999 BKN012"
    },
    {
      "icao": "EKBI",
      "alert": "OK",
      "vis_m": 9999,
      "fzfg": false,
      "metar_trigger": false,
      "taf_trigger": false,
      "metar": "METAR EKBI 111850Z AUTO 12005KT 9999 FEW140/// BKN180/// M06/M08 Q1020",
      "taf": "TAF EKBI 111727Z 1118/1218 12008KT CAVOK"
    },
    {
      "icao": "EKCH",
      "alert": "OK",
      "vis_m": 9999,
      "fzfg": false,
      "metar_trigger": false,
      "taf_trigger": false,
      "metar": "METAR EKCH 111850Z AUTO 33004KT 9999 NCD M05/M09 Q1022 NOSIG",
      "taf": "TAF EKCH 111727Z 1118/1218 33010KT CAVOK"
    },
    {
      "icao": "ENAL",
      "alert": "OK",
      "vis_m": 9999,
      "fzfg": false,
      "metar_trigger": false,
      "taf_trigger": false,
      "metar": "METAR ENAL 111850Z 14010KT CAVOK 04/M08 Q1007",
      "taf": "TAF ENAL 111700Z 1118/1203 12015KT CAVOK"
    },
    {
      "icao": "ENBR",
      "alert": "OK",
      "vis_m": 9999,
      "fzfg": false,
      "metar_trigger": false,
      "taf_trigger": false,
      "metar": "METAR ENBR 111850Z 15020KT CAVOK 02/M10 Q1008 TEMPO 14025G35KT RMK WIND 1200FT 14042KT",
      "taf": "TAF ENBR 111700Z 1118/1218 13022KT 9999 SCT045"
    },
    {
      "icao": "ENGM",
      "alert": "OK",
      "vis_m": 9999,
      "fzfg": false,
      "metar_trigger": false,
      "taf_trigger": false,
      "metar": "METAR ENGM 111850Z VRB01KT 9999 3200W FEW002 BKN004 M19/M21 Q1021 NOSIG",
      "taf": "TAF ENGM 111700Z 1118/1218 VRB03KT 9999 FEW003"
    },
    {
      "icao": "ENHD",
      "alert": "OK",
      "vis_m": 9999,
      "fzfg": false,
      "metar_trigger": false,
      "taf_trigger": false,
      "metar": "METAR ENHD 111850Z 14029G45KT 9999 SCT034 01/M06 Q1009",
      "taf": "TAF ENHD 111400Z 1115/1123 14025KT 9999 BKN040"
    },
    {
      "icao": "ENTC",
      "alert": "OK",
      "vis_m": 9999,
      "fzfg": false,
      "metar_trigger": false,
      "taf_trigger": false,
      "metar": "METAR ENTC 111850Z VRB02KT CAVOK M10/M11 Q1020 NOSIG RMK WIND 2600FT 15013KT",
      "taf": "TAF ENTC 111700Z 1118/1218 20005KT CAVOK"
    },
    {
      "icao": "ENTO",
      "alert": "OK",
      "vis_m": 9999,
      "fzfg": false,
      "metar_trigger": false,
      "taf_trigger": false,
      "metar": "METAR ENTO 111850Z 01009KT 9999 BKN004 M14/M16 Q1021",
      "taf": "TAF ENTO 111700Z 1118/1218 02005KT CAVOK"
    },
    {
      "icao": "ENVA",
      "alert": "OK",
      "vis_m": 9999,
      "fzfg": false,
      "metar_trigger": false,
      "taf_trigger": false,
      "metar": "METAR ENVA 111850Z 08009KT CAVOK M05/M13 Q1015 RMK WIND 670FT 11014KT",
      "taf": "TAF ENVA 111700Z 1118/1218 10008KT CAVOK"
    },
    {
      "icao": "ENZV",
      "alert": "OK",
      "vis_m": 9999,
      "fzfg": false,
      "metar_trigger": false,
      "taf_trigger": false,
      "metar": "METAR ENZV 111850Z 14026G36KT 9999 NSC M00/M06 Q1011 TEMPO 14025KT",
      "taf": "TAF ENZV 111700Z 1118/1218 14022G35KT 9999 SCT045"
    },
    {
      "icao": "EPGD",
      "alert": "OK",
      "vis_m": 9999,
      "fzfg": false,
      "metar_trigger": false,
      "taf_trigger": false,
      "metar": "METAR EPGD 111900Z 33012KT 9999 SCT010 M02/M04 Q1012",
      "taf": "TAF EPGD 111730Z 1118/1218 33012KT 9999 SCT015"
    },
    {
      "icao": "EPKK",
      "alert": "OK",
      "vis_m": 4500,
      "fzfg": false,
      "metar_trigger": false,
      "taf_trigger": false,
      "metar": "METAR EPKK 111900Z 27016KT 4500 -SN DRSN BR FEW013 OVC020 M05/M07 Q1014",
      "taf": "TAF EPKK 111730Z 1118/1218 27015KT 5000 -SN BR BKN020"
    },
    {
      "icao": "EPKT",
      "alert": "OK",
      "vis_m": 800,
      "fzfg": false,
      "metar_trigger": false,
      "taf_trigger": false,
      "metar": "METAR EPKT 111900Z 28014KT 0800 R26/1900N +SN DRSN FEW008 BKN011 M05/M07 Q1015",
      "taf": "TAF EPKT 111730Z 1118/1218 28015KT 3000 SN DRSN BKN013 BKN015"
    },
    {
      "icao": "EPLB",
      "alert": "OK",
      "vis_m": 3100,
      "fzfg": false,
      "metar_trigger": false,
      "taf_trigger": false,
      "metar": "METAR EPLB 111900Z 29004KT 3100 -SN BR FEW012 SCT015 BKN035 M05/M06 Q1009",
      "taf": "TAF EPLB 111730Z 1118/1218 30008KT 8000 -SN BKN020"
    },
    {
      "icao": "EPMO",
      "alert": "OK",
      "vis_m": 1800,
      "fzfg": false,
      "metar_trigger": false,
      "taf_trigger": false,
      "metar": "METAR EPMO 111900Z 03003KT 350V060 1800 R08/1400U SN SCT006 BKN011 M04/M04 Q1010 RESN",
      "taf": "TAF EPMO 111730Z 1118/1218 30006KT 7000 -SN SCT009 BKN015"
    },
    {
      "icao": "EPPO",
      "alert": "OK",
      "vis_m": 9999,
      "fzfg": false,
      "metar_trigger": false,
      "taf_trigger": false,
      "metar": "METAR EPPO 111900Z 29014KT 9999 BKN035 M02/M06 Q1017",
      "taf": "TAF EPPO 111730Z 1118/1218 30012KT 9999 BKN020"
    },
    {
      "icao": "EPRA",
      "alert": "OK",
      "vis_m": 4000,
      "fzfg": false,
      "metar_trigger": false,
      "taf_trigger": false,
      "metar": "METAR EPRA 111900Z 29010KT 4000 -SN BKN008 OVC012 M02/M04 Q1009 RESN",
      "taf": "TAF EPRA 111730Z 1118/1203 28010KT 5000 -SN BKN014 OVC025"
    },
    {
      "icao": "EPRZ",
      "alert": "OK",
      "vis_m": 5000,
      "fzfg": false,
      "metar_trigger": false,
      "taf_trigger": false,
      "metar": "METAR EPRZ 111900Z 27015KT 5000 -SN BR SCT003 OVC011 M04/M05 Q1011",
      "taf": "TAF EPRZ 111730Z 1118/1218 28012KT 3000 -SN BR BKN014"
    },
    {
      "icao": "EPSC",
      "alert": "OK",
      "vis_m": 9999,
      "fzfg": false,
      "metar_trigger": false,
      "taf_trigger": false,
      "metar": "METAR EPSC 111900Z 29009KT CAVOK M04/M08 Q1019",
      "taf": "TAF EPSC 111730Z 1118/1218 28010KT CAVOK"
    },
    {
      "icao": "EPSY",
      "alert": "OK",
      "vis_m": 9999,
      "fzfg": false,
      "metar_trigger": false,
      "taf_trigger": false,
      "metar": "METAR EPSY 111900Z 34006KT 9999 -SN BKN011 M05/M06 Q1009",
      "taf": "TAF EPSY 111730Z 1118/1203 32004KT 4500 -SN BKN014"
    },
    {
      "icao": "EPWA",
      "alert": "OK",
      "vis_m": 2500,
      "fzfg": false,
      "metar_trigger": false,
      "taf_trigger": false,
      "metar": "METAR EPWA 111900Z 01005KT 340V040 2500 SN BKN008 BKN020 M03/M04 Q1010 TEMPO 1500 SN BKN005",
      "taf": "TAF EPWA 111730Z 1118/1218 29008KT 9999 -SN SCT012 BKN016"
    },
    {
      "icao": "EPWR",
      "alert": "OK",
      "vis_m": 9999,
      "fzfg": false,
      "metar_trigger": false,
      "taf_trigger": false,
      "metar": "METAR EPWR 111900Z 28018KT 9999 DRSN BKN029 M04/M08 Q1019",
      "taf": "TAF EPWR 111730Z 1118/1218 29016KT 9999 BKN030"
    },
    {
      "icao": "ESGG",
      "alert": "OK",
      "vis_m": 9999,
      "fzfg": false,
      "metar_trigger": false,
      "taf_trigger": false,
      "metar": "METAR ESGG 111850Z 00000KT CAVOK M12/M13 Q1020",
      "taf": "TAF ESGG 111730Z 1118/1218 08003KT CAVOK"
    },
    {
      "icao": "ESKN",
      "alert": "OK",
      "vis_m": 9999,
      "fzfg": false,
      "metar_trigger": false,
      "taf_trigger": false,
      "metar": "METAR ESKN 111850Z 32010KT 9999 FEW030 M08/M10 Q1018",
      "taf": "TAF ESKN 111730Z 1118/1218 33012KT CAVOK"
    },
    {
      "icao": "ESMS",
      "alert": "OK",
      "vis_m": 9999,
      "fzfg": false,
      "metar_trigger": false,
      "taf_trigger": false,
      "metar": "METAR ESMS 111850Z 30004KT CAVOK M10/M12 Q1021",
      "taf": "TAF ESMS 111727Z 1118/1218 31010KT CAVOK"
    },
    {
      "icao": "ESSA",
      "alert": "OK",
      "vis_m": 7000,
      "fzfg": false,
      "metar_trigger": false,
      "taf_trigger": false,
      "metar": "METAR ESSA 111850Z 33010KT 7000 -SN BKN010 M06/M07 Q1017 TEMPO 2500",
      "taf": "TAF ESSA 111730Z 1118/1218 32012KT 9000 -SN BKN025"
    },
    {
      "icao": "EYKA",
      "alert": "OK",
      "vis_m": 5000,
      "fzfg": false,
      "metar_trigger": false,
      "taf_trigger": false,
      "metar": "METAR EYKA 111850Z VRB02KT 5000 -SN BR BKN012 BKN038 M11/M12 Q1009",
      "taf": "TAF EYKA 111706Z 1118/1218 VRB04KT 5000 BR SCT010 BKN015"
    },
    {
      "icao": "EYPA",
      "alert": "OK",
      "vis_m": 9999,
      "fzfg": false,
      "metar_trigger": false,
      "taf_trigger": false,
      "metar": "METAR EYPA 111850Z 03007KT CAVOK M05/M08 Q1012",
      "taf": "TAF EYPA 111704Z 1118/1218 VRB05KT 5000 BR SCT015"
    },
    {
      "icao": "EYVI",
      "alert": "OK",
      "vis_m": 8000,
      "fzfg": false,
      "metar_trigger": false,
      "taf_trigger": false,
      "metar": "METAR EYVI 111850Z 31003KT 8000 -SN SCT015 M12/M14 Q1007 NOSIG",
      "taf": "TAF EYVI 111707Z 1118/1218 VRB04KT 5000 BR SCT010 BKN015"
    },
    {
      "icao": "GCFV",
      "alert": "OK",
      "vis_m": 9999,
      "fzfg": false,
      "metar_trigger": false,
      "taf_trigger": false,
      "metar": "METAR GCFV 111900Z 04007KT 9999 FEW020 18/12 Q1024",
      "taf": "TAF GCFV 111400Z 1115/1215 05008KT 9999 FEW025 TX21/1214Z TN14/1206Z"
    },
    {
      "icao": "GCLP",
      "alert": "OK",
      "vis_m": 9999,
      "fzfg": false,
      "metar_trigger": false,
      "taf_trigger": false,
      "metar": "METAR GCLP 111900Z 01008KT 9999 FEW025 18/12 Q1023 NOSIG",
      "taf": "TAF GCLP 111400Z 1115/1215 04012KT 9999 FEW030 TX21/1214Z TN15/1206Z"
    },
    {
      "icao": "GCTS",
      "alert": "OK",
      "vis_m": 9999,
      "fzfg": false,
      "metar_trigger": false,
      "taf_trigger": false,
      "metar": "METAR GCTS 111900Z 07010KT 9999 FEW035 18/13 Q1024 NOSIG",
      "taf": "TAF GCTS 111400Z 1115/1215 09017KT 9999 FEW040 TX23/1214Z TN16/1206Z"
    },
    {
      "icao": "GMAD",
      "alert": "OK",
      "vis_m": 9999,
      "fzfg": false,
      "metar_trigger": false,
      "taf_trigger": false,
      "metar": "METAR GMAD 111900Z 23007KT CAVOK 14/09 Q1023 NOSIG",
      "taf": "TAF GMAD 111700Z 1118/1224 20008KT CAVOK"
    },
    {
      "icao": "GMMN",
      "alert": "OK",
      "vis_m": 9999,
      "fzfg": false,
      "metar_trigger": false,
      "taf_trigger": false,
      "metar": "METAR GMMN 111900Z 03007KT CAVOK 11/08 Q1025 NOSIG",
      "taf": "TAF GMMN 111700Z 1118/1224 04008KT CAVOK"
    },
    {
      "icao": "GMMX",
      "alert": "OK",
      "vis_m": 9999,
      "fzfg": false,
      "metar_trigger": false,
      "taf_trigger": false,
      "metar": "METAR GMMX 111900Z VRB01KT CAVOK 14/08 Q1024 NOSIG",
      "taf": "TAF GMMX 111700Z 1118/1224 06006KT CAVOK"
    },
    {
      "icao": "HEGN",
      "alert": "OK",
      "vis_m": 9999,
      "fzfg": false,
      "metar_trigger": false,
      "taf_trigger": false,
      "metar": "METAR HEGN 111900Z 22002KT CAVOK 18/10 Q1017 NOSIG",
      "taf": "TAF HEGN 111700Z 1118/1224 03008KT CAVOK"
    },
    {
      "icao": "HEMA",
      "alert": "OK",
      "vis_m": 9999,
      "fzfg": false,
      "metar_trigger": false,
      "taf_trigger": false,
      "metar": "METAR HEMA 111900Z 26006KT CAVOK 18/13 Q1016 NOSIG",
      "taf": "TAF HEMA 111700Z 1118/1224 32008G20KT CAVOK"
    },
    {
      "icao": "HESH",
      "alert": "OK",
      "vis_m": 9999,
      "fzfg": false,
      "metar_trigger": false,
      "taf_trigger": false,
      "metar": "METAR HESH 111900Z 00000KT CAVOK 19/09 Q1016 NOSIG",
      "taf": "TAF HESH 111700Z 1118/1224 01011KT CAVOK"
    },
    {
      "icao": "HESX",
      "alert": "OK",
      "vis_m": 9999,
      "fzfg": false,
      "metar_trigger": false,
      "taf_trigger": false,
      "metar": "METAR HESX 111900Z 22004KT CAVOK 15/05 Q1016 NOSIG",
      "taf": "TAF HESX 111700Z 1118/1224 26008KT CAVOK"
    },
    {
      "icao": "LATI",
      "alert": "OK",
      "vis_m": null,
      "fzfg": false,
      "metar_trigger": false,
      "taf_trigger": false,
      "metar": "",
      "taf": ""
    },
    {
      "icao": "LBPD",
      "alert": "OK",
      "vis_m": 9999,
      "fzfg": false,
      "metar_trigger": false,
      "taf_trigger": false,
      "metar": "METAR LBPD 111900Z AUTO 28021KT 9999 -SHSN FEW052/// SCT060/// OVC072/// M01/M07 Q1015 NOSIG",
      "taf": "TAF LBPD 111700Z 1118/1218 28020KT 9999 SCT030 BKN050"
    },
    {
      "icao": "LBSF",
      "alert": "OK",
      "vis_m": 9999,
      "fzfg": false,
      "metar_trigger": false,
      "taf_trigger": false,
      "metar": "METAR LBSF 111900Z AUTO 28010KT 9999 NCD M06/M10 Q1016 NOSIG",
      "taf": "TAF LBSF 111700Z 1118/1218 28014KT 9999 BKN025 OVC045"
    },
    {
      "icao": "LBWN",
      "alert": "OK",
      "vis_m": 9999,
      "fzfg": false,
      "metar_trigger": false,
      "taf_trigger": false,
      "metar": "METAR LBWN 111900Z AUTO 26008KT 9999 OVC039/// M02/M05 Q1014 NOSIG",
      "taf": "TAF LBWN 111700Z 1118/1218 31010KT 9999 SCT020 OVC040"
    },
    {
      "icao": "LCLK",
      "alert": "OK",
      "vis_m": 9999,
      "fzfg": false,
      "metar_trigger": false,
      "taf_trigger": false,
      "metar": "METAR LCLK 111900Z 23020G30KT 9999 FEW025 SCT050 18/11 Q1011 NOSIG",
      "taf": "TAF LCLK 111730Z 1118/1218 22023KT 9999 -SHRA FEW025TCU FEW030CB SCT040"
    },
    {
      "icao": "LCPH",
      "alert": "OK",
      "vis_m": 9999,
      "fzfg": false,
      "metar_trigger": false,
      "taf_trigger": false,
      "metar": "METAR LCPH 111900Z 23017KT 190V250 9999 FEW035 BKN060 18/11 Q1011 BECMG 2000 +TSRA",
      "taf": "TAF LCPH 111730Z 1118/1218 26021KT 9999 -SHRA FEW025TCU FEW030CB SCT040"
    },
    {
      "icao": "LEAL",
      "alert": "OK",
      "vis_m": 9999,
      "fzfg": false,
      "metar_trigger": false,
      "taf_trigger": false,
      "metar": "METAR LEAL 111900Z 34003KT CAVOK 12/06 Q1025 NOSIG",
      "taf": "TAF LEAL 111700Z 1118/1218 28008KT CAVOK TX16/1213Z TN07/1206Z"
    },
    {
      "icao": "LEBB",
      "alert": "OK",
      "vis_m": 9999,
      "fzfg": false,
      "metar_trigger": false,
      "taf_trigger": false,
      "metar": "METAR LEBB 111900Z VRB08KT CAVOK 14/07 Q1019 NOSIG",
      "taf": "TAF LEBB 111700Z 1118/1218 18008KT 9999 SCT060 TX15/1214Z TN12/1207Z"
    },
    {
      "icao": "LEBL",
      "alert": "OK",
      "vis_m": 9999,
      "fzfg": false,
      "metar_trigger": false,
      "taf_trigger": false,
      "metar": "METAR LEBL 111900Z 33005KT CAVOK 09/05 Q1024 NOSIG",
      "taf": "TAF LEBL 111700Z 1118/1218 VRB04KT 9999 FEW020 TX15/1213Z TN05/1206Z"
    },
    {
      "icao": "LECH",
      "alert": "OK",
      "vis_m": 9999,
      "fzfg": false,
      "metar_trigger": false,
      "taf_trigger": false,
      "metar": "METAR LECH 111900Z AUTO 21004KT 150V230 CAVOK 07/02 Q1024",
      "taf": ""
    },
    {
      "icao": "LEMD",
      "alert": "OK",
      "vis_m": 9999,
      "fzfg": false,
      "metar_trigger": false,
      "taf_trigger": false,
      "metar": "METAR LEMD 111900Z 20003KT CAVOK 07/02 Q1025 NOSIG",
      "taf": "TAF LEMD 111700Z 1118/1224 VRB03KT CAVOK TX08/1215Z TN02/1200Z"
    },
    {
      "icao": "LEMG",
      "alert": "OK",
      "vis_m": 9999,
      "fzfg": false,
      "metar_trigger": false,
      "taf_trigger": false,
      "metar": "METAR LEMG 111900Z 00000KT CAVOK 10/07 Q1026 NOSIG",
      "taf": "TAF LEMG 111700Z 1118/1218 27006KT CAVOK TX17/1214Z TN07/1207Z"
    },
    {
      "icao": "LEVC",
      "alert": "OK",
      "vis_m": 9999,
      "fzfg": false,
      "metar_trigger": false,
      "taf_trigger": false,
      "metar": "METAR LEVC 111900Z VRB01KT CAVOK 11/05 Q1024 NOSIG",
      "taf": "TAF LEVC 111700Z 1118/1218 26008KT CAVOK TX19/1214Z TN05/1206Z"
    },
    {
      "icao": "LEXJ",
      "alert": "OK",
      "vis_m": 9999,
      "fzfg": false,
      "metar_trigger": false,
      "taf_trigger": false,
      "metar": "METAR LEXJ 111900Z 23009KT 170V270 CAVOK 15/06 Q1017",
      "taf": "TAF LEXJ 111400Z 1115/1215 22009KT 9999 SCT060 TX15/1213Z TN12/1208Z"
    },
    {
      "icao": "LEZG",
      "alert": "OK",
      "vis_m": 9999,
      "fzfg": false,
      "metar_trigger": false,
      "taf_trigger": false,
      "metar": "METAR LEZG 111900Z VRB02KT 9999 FEW060 08/05 Q1023 NOSIG",
      "taf": "TAF LEZG 111700Z 1118/1218 24009KT 9999 FEW050 TX14/1215Z TN04/1206Z"
    },
    {
      "icao": "LEZL",
      "alert": "OK",
      "vis_m": 9999,
      "fzfg": false,
      "metar_trigger": false,
      "taf_trigger": false,
      "metar": "METAR LEZL 111900Z VRB01KT CAVOK 12/08 Q1026 NOSIG",
      "taf": "TAF LEZL 111400Z 1115/1215 06004KT CAVOK TX16/1115Z TN05/1207Z"
    },
    {
      "icao": "LFBD",
      "alert": "OK",
      "vis_m": 9999,
      "fzfg": false,
      "metar_trigger": false,
      "taf_trigger": false,
      "metar": "METAR LFBD 111900Z AUTO 16006KT 9999 FEW027 BKN048 OVC058 06/06 Q1020",
      "taf": ""
    },
    {
      "icao": "LFLL",
      "alert": "OK",
      "vis_m": 9999,
      "fzfg": false,
      "metar_trigger": false,
      "taf_trigger": false,
      "metar": "METAR LFLL 111900Z 14007KT CAVOK 01/M01 Q1023 NOSIG",
      "taf": ""
    },
    {
      "icao": "LFLS",
      "alert": "OK",
      "vis_m": 9999,
      "fzfg": false,
      "metar_trigger": false,
      "taf_trigger": false,
      "metar": "METAR LFLS 111900Z AUTO 07005KT CAVOK M04/M05 Q1023",
      "taf": "TAF LFLS 111400Z 1115/1215 09005KT CAVOK"
    },
    {
      "icao": "LFMN",
      "alert": "OK",
      "vis_m": 9999,
      "fzfg": false,
      "metar_trigger": false,
      "taf_trigger": false,
      "metar": "METAR LFMN 111900Z 32007KT CAVOK 07/M02 Q1022 NOSIG",
      "taf": "TAF LFMN 111400Z 1115/1221 22010KT CAVOK"
    },
    {
      "icao": "LFOB",
      "alert": "OK",
      "vis_m": 9999,
      "fzfg": false,
      "metar_trigger": false,
      "taf_trigger": false,
      "metar": "METAR LFOB 111900Z AUTO 16010KT 9999 OVC046 04/M00 Q1016 BECMG 18015G25KT 4000 RA BKN009 OVC014",
      "taf": ""
    },
    {
      "icao": "LFPO",
      "alert": "OK",
      "vis_m": 9999,
      "fzfg": false,
      "metar_trigger": false,
      "taf_trigger": false,
      "metar": "METAR LFPO 111900Z AUTO 17012KT CAVOK 04/M02 Q1018",
      "taf": ""
    },
    {
      "icao": "LFSB",
      "alert": "OK",
      "vis_m": 9999,
      "fzfg": false,
      "metar_trigger": false,
      "taf_trigger": false,
      "metar": "METAR LFSB 111900Z AUTO 12004KT CAVOK 00/M02 Q1023 NOSIG",
      "taf": "TAF LFSB 111700Z 1118/1218 VRB03KT 9999 OVC025"
    },
    {
      "icao": "LGAV",
      "alert": "OK",
      "vis_m": 9999,
      "fzfg": false,
      "metar_trigger": false,
      "taf_trigger": false,
      "metar": "METAR LGAV 111850Z 33007KT 9999 -RA FEW020 BKN035 10/03 Q1009 NOSIG",
      "taf": "TAF LGAV 111700Z 1118/1218 VRB05KT 9999 FEW018 SCT025"
    },
    {
      "icao": "LGTS",
      "alert": "OK",
      "vis_m": 9999,
      "fzfg": false,
      "metar_trigger": false,
      "taf_trigger": false,
      "metar": "METAR LGTS 111850Z 35022G32KT 9999 FEW015 SCT025 03/M07 Q1014 NOSIG",
      "taf": "TAF LGTS 111700Z 1118/1218 34015G30KT 9999 FEW025"
    },
    {
      "icao": "LHBP",
      "alert": "OK",
      "vis_m": 9999,
      "fzfg": false,
      "metar_trigger": false,
      "taf_trigger": false,
      "metar": "METAR LHBP 111900Z 31018KT 9999 DRSN NSC M04/M09 Q1018 NOSIG",
      "taf": "TAF LHBP 111715Z 1118/1218 30020G30KT 9999 DRSN NSC"
    },
    {
      "icao": "LHDC",
      "alert": "OK",
      "vis_m": 9000,
      "fzfg": false,
      "metar_trigger": false,
      "taf_trigger": false,
      "metar": "METAR LHDC 111815Z AUTO 17008KT 9000 NSC M10/M11 Q1016 NOSIG",
      "taf": "TAF LHDC 111715Z 1118/1203 20008KT CAVOK"
    },
    {
      "icao": "LIBD",
      "alert": "OK",
      "vis_m": 9999,
      "fzfg": false,
      "metar_trigger": false,
      "taf_trigger": false,
      "metar": "METAR LIBD 111850Z 31017G28KT CAVOK 07/M04 Q1018",
      "taf": "TAF LIBD 111700Z 1118/1218 34015KT 9999 FEW040"
    },
    {
      "icao": "LIBG",
      "alert": "OK",
      "vis_m": 9999,
      "fzfg": false,
      "metar_trigger": false,
      "taf_trigger": false,
      "metar": "METAR LIBG 111850Z 30010KT 270V330 CAVOK 06/M04 Q1017",
      "taf": "TAF LIBG 111700Z 1118/1203 33015KT 9999 FEW040"
    },
    {
      "icao": "LIBP",
      "alert": "OK",
      "vis_m": 9999,
      "fzfg": false,
      "metar_trigger": false,
      "taf_trigger": false,
      "metar": "METAR LIBP 111850Z AUTO 22003KT 9999 SCT061/// 03/03 Q1024",
      "taf": "TAF LIBP 111700Z 1118/1218 22006KT 9999 SCT040"
    },
    {
      "icao": "LIBR",
      "alert": "OK",
      "vis_m": 9999,
      "fzfg": false,
      "metar_trigger": false,
      "taf_trigger": false,
      "metar": "METAR LIBR 111850Z 34022G37KT CAVOK 08/M06 Q1015",
      "taf": "TAF LIBR 111700Z 1118/1218 35020G35KT 9999 SCT040"
    },
    {
      "icao": "LICA",
      "alert": "OK",
      "vis_m": 9999,
      "fzfg": false,
      "metar_trigger": false,
      "taf_trigger": false,
      "metar": "METAR LICA 111850Z AUTO 01008KT 350V050 9999 NCD 09/M01 Q1017",
      "taf": "TAF LICA 111700Z 1118/1218 VRB05KT CAVOK"
    },
    {
      "icao": "LICC",
      "alert": "OK",
      "vis_m": 9999,
      "fzfg": false,
      "metar_trigger": false,
      "taf_trigger": false,
      "metar": "METAR LICC 111850Z 23011KT 9999 FEW050 09/04 Q1018",
      "taf": "TAF LICC 111700Z 1118/1218 VRB05KT 9999 FEW040"
    },
    {
      "icao": "LICJ",
      "alert": "OK",
      "vis_m": 9999,
      "fzfg": false,
      "metar_trigger": false,
      "taf_trigger": false,
      "metar": "METAR LICJ 111850Z 32011KT 9999 FEW040 13/06 Q1019",
      "taf": "TAF LICJ 111700Z 1118/1218 34010KT 9999 FEW030"
    },
    {
      "icao": "LIMC",
      "alert": "OK",
      "vis_m": 9999,
      "fzfg": false,
      "metar_trigger": false,
      "taf_trigger": false,
      "metar": "METAR LIMC 111850Z 03004KT 010V080 CAVOK M00/M07 Q1021 NOSIG",
      "taf": "TAF LIMC 111700Z 1118/1224 VRB05KT CAVOK"
    },
    {
      "icao": "LIME",
      "alert": "OK",
      "vis_m": 9999,
      "fzfg": false,
      "metar_trigger": false,
      "taf_trigger": false,
      "metar": "METAR LIME 111850Z 01006KT CAVOK 01/M06 Q1021 NOSIG",
      "taf": "TAF LIME 111700Z 1118/1218 VRB05KT CAVOK"
    },
    {
      "icao": "LIMF",
      "alert": "OK",
      "vis_m": 9999,
      "fzfg": false,
      "metar_trigger": false,
      "taf_trigger": false,
      "metar": "METAR LIMF 111850Z 31005KT CAVOK 04/M08 Q1021",
      "taf": "TAF LIMF 111700Z 1118/1218 VRB05KT CAVOK"
    },
    {
      "icao": "LIMJ",
      "alert": "OK",
      "vis_m": 9999,
      "fzfg": false,
      "metar_trigger": false,
      "taf_trigger": false,
      "metar": "METAR LIMJ 111850Z 03010KT CAVOK 09/M10 Q1021",
      "taf": "TAF LIMJ 111700Z 1118/1218 VRB05KT CAVOK"
    },
    {
      "icao": "LIPE",
      "alert": "OK",
      "vis_m": 9999,
      "fzfg": false,
      "metar_trigger": false,
      "taf_trigger": false,
      "metar": "METAR LIPE 111850Z 20008KT CAVOK 02/M04 Q1022",
      "taf": "TAF LIPE 111700Z 1118/1218 VRB05KT CAVOK"
    },
    {
      "icao": "LIPH",
      "alert": "OK",
      "vis_m": 9999,
      "fzfg": false,
      "metar_trigger": false,
      "taf_trigger": false,
      "metar": "METAR LIPH 111850Z 06003KT 030V090 9999 SCT030 03/01 Q1022",
      "taf": "TAF LIPH 111700Z 1118/1218 VRB05KT 9999 FEW030"
    },
    {
      "icao": "LIPQ",
      "alert": "OK",
      "vis_m": 9999,
      "fzfg": false,
      "metar_trigger": false,
      "taf_trigger": false,
      "metar": "METAR LIPQ 111850Z AUTO 01004KT 9999 SCT051/// 01/M04 Q1023",
      "taf": "TAF LIPQ 111700Z 1118/1218 VRB05KT 9999 SCT040"
    },
    {
      "icao": "LIPR",
      "alert": "OK",
      "vis_m": 9999,
      "fzfg": false,
      "metar_trigger": false,
      "taf_trigger": false,
      "metar": "METAR LIPR 111850Z 19005KT CAVOK 02/M01 Q1022",
      "taf": "TAF LIPR 111700Z 1118/1218 21006KT CAVOK"
    },
    {
      "icao": "LIPX",
      "alert": "OK",
      "vis_m": 9999,
      "fzfg": false,
      "metar_trigger": false,
      "taf_trigger": false,
      "metar": "METAR LIPX 111850Z VRB01KT CAVOK 01/M02 Q1022",
      "taf": "TAF LIPX 111700Z 1118/1218 VRB05KT CAVOK"
    },
    {
      "icao": "LIPY",
      "alert": "OK",
      "vis_m": 9999,
      "fzfg": false,
      "metar_trigger": false,
      "taf_trigger": false,
      "metar": "METAR LIPY 111850Z AUTO 18005KT 9999 NCD 02/M00 Q1023",
      "taf": "TAF LIPY 111700Z 1118/1218 21006KT 9999 FEW040"
    },
    {
      "icao": "LIPZ",
      "alert": "OK",
      "vis_m": 9999,
      "fzfg": false,
      "metar_trigger": false,
      "taf_trigger": false,
      "metar": "METAR LIPZ 111850Z 09006KT 9999 FEW040 02/M00 Q1022 NOSIG",
      "taf": "TAF LIPZ 111700Z 1118/1224 VRB05KT 9999 FEW030"
    },
    {
      "icao": "LIRF",
      "alert": "OK",
      "vis_m": 9999,
      "fzfg": false,
      "metar_trigger": false,
      "taf_trigger": false,
      "metar": "METAR LIRF 111850Z 36007KT CAVOK 06/M02 Q1021 NOSIG",
      "taf": "TAF LIRF 111700Z 1118/1224 02010KT CAVOK"
    },
    {
      "icao": "LIRN",
      "alert": "OK",
      "vis_m": 9999,
      "fzfg": false,
      "metar_trigger": false,
      "taf_trigger": false,
      "metar": "METAR LIRN 111850Z 02006KT 330V040 CAVOK 06/M01 Q1020 NOSIG",
      "taf": "TAF LIRN 111700Z 1118/1218 05010KT CAVOK"
    },
    {
      "icao": "LIRP",
      "alert": "OK",
      "vis_m": 9999,
      "fzfg": false,
      "metar_trigger": false,
      "taf_trigger": false,
      "metar": "METAR LIRP 111845Z VRB02KT CAVOK 03/M01 Q1022 NOSIG",
      "taf": "TAF LIRP 111700Z 1118/1218 12005KT CAVOK"
    },
    {
      "icao": "LIRZ",
      "alert": "OK",
      "vis_m": 9999,
      "fzfg": false,
      "metar_trigger": false,
      "taf_trigger": false,
      "metar": "METAR LIRZ 111850Z AUTO 01009KT 9999 NCD 02/M01 Q1022",
      "taf": "TAF LIRZ 111700Z 1118/1218 VRB05KT 9999 FEW050"
    },
    {
      "icao": "LJLJ",
      "alert": "OK",
      "vis_m": 9999,
      "fzfg": false,
      "metar_trigger": false,
      "taf_trigger": false,
      "metar": "METAR LJLJ 111900Z VRB02KT 9999 MIFG NSC M12/M13 Q1022 NOSIG",
      "taf": "TAF LJLJ 111700Z 1118/1218 29003KT CAVOK"
    },
    {
      "icao": "LKMT",
      "alert": "OK",
      "vis_m": 9000,
      "fzfg": false,
      "metar_trigger": false,
      "taf_trigger": false,
      "metar": "METAR LKMT 111900Z 22010KT 9000 -SN BKN025 OVC038 M06/M08 Q1018 NOSIG",
      "taf": "TAF LKMT 111700Z 1118/1218 22008KT 9999 BKN025"
    },
    {
      "icao": "LKPR",
      "alert": "OK",
      "vis_m": 9999,
      "fzfg": false,
      "metar_trigger": false,
      "taf_trigger": false,
      "metar": "METAR LKPR 111900Z 21010KT CAVOK M10/M15 Q1022 NOSIG",
      "taf": "TAF LKPR 111700Z 1118/1224 28012KT CAVOK"
    },
    {
      "icao": "LLBG",
      "alert": "OK",
      "vis_m": 9999,
      "fzfg": false,
      "metar_trigger": false,
      "taf_trigger": false,
      "metar": "METAR LLBG 111850Z VRB03KT CAVOK 14/10 Q1016 NOSIG",
      "taf": "TAF LLBG 111703Z 1118/1218 14005KT CAVOK"
    },
    {
      "icao": "LMML",
      "alert": "OK",
      "vis_m": 9999,
      "fzfg": false,
      "metar_trigger": false,
      "taf_trigger": false,
      "metar": "METAR LMML 111915Z 31013KT CAVOK 11/05 Q1019 NOSIG",
      "taf": ""
    },
    {
      "icao": "LOWW",
      "alert": "OK",
      "vis_m": 9999,
      "fzfg": false,
      "metar_trigger": false,
      "taf_trigger": false,
      "metar": "METAR LOWW 111850Z 31017KT CAVOK M04/M10 Q1021 NOSIG",
      "taf": "TAF LOWW 111715Z 1118/1224 30010KT CAVOK TXM04/1214Z TNM09/1207Z"
    },
    {
      "icao": "LPFR",
      "alert": "OK",
      "vis_m": 9999,
      "fzfg": false,
      "metar_trigger": false,
      "taf_trigger": false,
      "metar": "METAR LPFR 111900Z 31002KT 9999 FEW020 12/09 Q1026",
      "taf": "TAF LPFR 111700Z 1118/1218 VRB02KT 9999 FEW025"
    },
    {
      "icao": "LPMA",
      "alert": "OK",
      "vis_m": 9999,
      "fzfg": false,
      "metar_trigger": false,
      "taf_trigger": false,
      "metar": "METAR LPMA 111900Z 05003KT 020V120 9999 BKN015 17/13 Q1025",
      "taf": "TAF LPMA 111700Z 1118/1218 VRB05KT 9999 SCT015"
    },
    {
      "icao": "LPPR",
      "alert": "OK",
      "vis_m": 9999,
      "fzfg": false,
      "metar_trigger": false,
      "taf_trigger": false,
      "metar": "METAR LPPR 111900Z 18013KT 9999 SCT003 BKN005 14/13 Q1022",
      "taf": "TAF LPPR 111700Z 1118/1218 18013KT 9999 SCT006 BKN012"
    },
    {
      "icao": "LPPS",
      "alert": "OK",
      "vis_m": 9999,
      "fzfg": false,
      "metar_trigger": false,
      "taf_trigger": false,
      "metar": "METAR LPPS 111900Z 12004KT 9999 FEW010 16/14 Q1025",
      "taf": "TAF LPPS 111700Z 1118/1224 17005KT 9999 SCT015 SCT030"
    },
    {
      "icao": "LPPT",
      "alert": "OK",
      "vis_m": 9999,
      "fzfg": false,
      "metar_trigger": false,
      "taf_trigger": false,
      "metar": "METAR LPPT 111900Z 19010KT 9999 -RADZ FEW005 BKN008 13/13 Q1025",
      "taf": "TAF LPPT 111700Z 1118/1224 21008KT 9999 SCT008 BKN015"
    },
    {
      "icao": "LQBK",
      "alert": "OK",
      "vis_m": 9999,
      "fzfg": false,
      "metar_trigger": false,
      "taf_trigger": false,
      "metar": "METAR LQBK 111900Z 13003KT CAVOK M09/M11 Q1023 NOSIG",
      "taf": "TAF LQBK 111700Z 1118/1218 16005KT CAVOK TX00/1212Z TNM12/1206Z"
    },
    {
      "icao": "LQSA",
      "alert": "OK",
      "vis_m": 9999,
      "fzfg": false,
      "metar_trigger": false,
      "taf_trigger": false,
      "metar": "METAR LQSA 111900Z VRB03KT 9999 BKN045 M04/M09 Q1020 NOSIG",
      "taf": "TAF LQSA 111700Z 1118/1218 29005KT 9999 SCT045 TXM03/1214Z TNM13/1206Z"
    },
    {
      "icao": "LQTZ",
      "alert": "OK",
      "vis_m": 9999,
      "fzfg": false,
      "metar_trigger": false,
      "taf_trigger": false,
      "metar": "METAR LQTZ 111900Z 34002KT 9999 BKN060 M04/M06 Q1021",
      "taf": "TAF LQTZ 111700Z 1118/1218 30005KT 9999 SCT045 TXM01/1213Z TNM13/1206Z"
    },
    {
      "icao": "LRBC",
      "alert": "OK",
      "vis_m": 9999,
      "fzfg": false,
      "metar_trigger": false,
      "taf_trigger": false,
      "metar": "METAR LRBC 111900Z 31008KT CAVOK M03/M13 Q1012",
      "taf": "TAF LRBC 111700Z 1118/1203 VRB04KT CAVOK"
    },
    {
      "icao": "LRBS",
      "alert": "OK",
      "vis_m": 5000,
      "fzfg": false,
      "metar_trigger": false,
      "taf_trigger": false,
      "metar": "METAR LRBS 111900Z 27004KT 5000 BR FEW030 M07/M08 Q1016 BECMG 3000 BR",
      "taf": "TAF LRBS 111700Z 1118/1218 VRB04KT 5000 BR SCT025"
    },
    {
      "icao": "LRBV",
      "alert": "OK",
      "vis_m": 9999,
      "fzfg": false,
      "metar_trigger": false,
      "taf_trigger": false,
      "metar": "METAR LRBV 111900Z 33003KT 290V360 9999 FEW036 OVC054 M06/M10 Q1013",
      "taf": "TAF LRBV 111700Z 1118/1203 VRB04KT 9999 BKN044"
    },
    {
      "icao": "LRCL",
      "alert": "OK",
      "vis_m": 9999,
      "fzfg": false,
      "metar_trigger": false,
      "taf_trigger": false,
      "metar": "METAR LRCL 111900Z 05002KT 9999 OVC065 M07/M09 Q1015",
      "taf": "TAF LRCL 111700Z 1118/1203 VRB04KT 9999 OVC045"
    },
    {
      "icao": "LRCV",
      "alert": "OK",
      "vis_m": 9999,
      "fzfg": false,
      "metar_trigger": false,
      "taf_trigger": false,
      "metar": "METAR LRCV 111900Z 29013KT CAVOK M05/M08 Q1016",
      "taf": ""
    },
    {
      "icao": "LRIA",
      "alert": "OK",
      "vis_m": 9999,
      "fzfg": false,
      "metar_trigger": false,
      "taf_trigger": false,
      "metar": "METAR LRIA 111900Z 26004KT CAVOK M03/M09 Q1011",
      "taf": "TAF LRIA 111700Z 1118/1203 VRB04KT CAVOK"
    },
    {
      "icao": "LROP",
      "alert": "OK",
      "vis_m": 3000,
      "fzfg": false,
      "metar_trigger": false,
      "taf_trigger": false,
      "metar": "METAR LROP 111900Z 27007KT 3000 BR FEW031 M08/M10 Q1016 NOSIG",
      "taf": "TAF LROP 111700Z 1118/1218 VRB04KT 3000 BR SCT025"
    },
    {
      "icao": "LRSB",
      "alert": "OK",
      "vis_m": 9999,
      "fzfg": false,
      "metar_trigger": false,
      "taf_trigger": false,
      "metar": "METAR LRSB 111900Z 31003KT 210V340 9999 BKN060 M06/M09 Q1014",
      "taf": "TAF LRSB 111700Z 1118/1218 31006KT 9999 BKN045"
    },
    {
      "icao": "LRSM",
      "alert": "OK",
      "vis_m": 9999,
      "fzfg": false,
      "metar_trigger": false,
      "taf_trigger": false,
      "metar": "METAR LRSM 111900Z AUTO 25005KT 9999 -SN FEW026/// SCT031/// BKN037/// M07/M10 Q1016",
      "taf": "TAF LRSM 111400Z 1115/1124 27014KT 9999 BKN040"
    },
    {
      "icao": "LRSV",
      "alert": "OK",
      "vis_m": 9999,
      "fzfg": false,
      "metar_trigger": false,
      "taf_trigger": false,
      "metar": "METAR LRSV 111900Z 27006KT CAVOK M07/M13 Q1009",
      "taf": "TAF LRSV 111700Z 1118/1203 28008KT CAVOK"
    },
    {
      "icao": "LRTM",
      "alert": "OK",
      "vis_m": 9999,
      "fzfg": false,
      "metar_trigger": false,
      "taf_trigger": false,
      "metar": "METAR LRTM 111900Z AUTO VRB01KT 9999 -SN FEW034/// OVC049/// M06/M09 Q1015",
      "taf": "TAF LRTM 111400Z 1115/1124 VRB04KT 9999 OVC045"
    },
    {
      "icao": "LRTR",
      "alert": "OK",
      "vis_m": 9999,
      "fzfg": false,
      "metar_trigger": false,
      "taf_trigger": false,
      "metar": "METAR LRTR 111900Z 26004KT 9999 SCT027 OVC038 M05/M07 Q1019",
      "taf": "TAF LRTR 111700Z 1118/1218 24006KT 9999 BKN030"
    },
    {
      "icao": "LTAC",
      "alert": "OK",
      "vis_m": 3600,
      "fzfg": false,
      "metar_trigger": false,
      "taf_trigger": false,
      "metar": "METAR LTAC 111850Z 35003KT 250V030 3600 BR FEW005 BKN020 BKN080 01/00 Q1004 RESN NOSIG RMK RWY21C VRB01KT RWY03L VRB02KT RWY21R 00000KT RWY03R 00000KT RWY21L 00000KT",
      "taf": "TAF LTAC 111640Z 1118/1218 VRB02KT 6000 SCT035 BKN090"
    },
    {
      "icao": "LTFM",
      "alert": "OK",
      "vis_m": 9999,
      "fzfg": false,
      "metar_trigger": false,
      "taf_trigger": false,
      "metar": "METAR LTFM 111850Z 02022KT 9999 -SHRA BKN012 BKN020 04/01 Q1011 NOSIG RMK RWY17L 02023KT RWY34L 01022KT RWY16R 02019KT RWY36 02023KT RWY18 02020KT",
      "taf": "TAF LTFM 111640Z 1118/1224 02020G30KT 9999 -SHRA BKN012 BKN020"
    },
    {
      "icao": "LUKK",
      "alert": "OK",
      "vis_m": 9999,
      "fzfg": false,
      "metar_trigger": false,
      "taf_trigger": false,
      "metar": "METAR LUKK 111900Z 23008KT 190V250 CAVOK M06/M11 Q1011 NOSIG",
      "taf": "TAF LUKK 111716Z 1118/1218 26008KT CAVOK"
    },
    {
      "icao": "LWOH",
      "alert": "OK",
      "vis_m": null,
      "fzfg": false,
      "metar_trigger": false,
      "taf_trigger": false,
      "metar": "",
      "taf": "TAF LWOH 111140Z 1112/1212 36010KT 9999 SCT050"
    },
    {
      "icao": "LWSK",
      "alert": "OK",
      "vis_m": null,
      "fzfg": false,
      "metar_trigger": false,
      "taf_trigger": false,
      "metar": "",
      "taf": "TAF LWSK 111755Z 1118/1218 01014KT 9999 SCT045"
    },
    {
      "icao": "LYBE",
      "alert": "OK",
      "vis_m": 9999,
      "fzfg": false,
      "metar_trigger": false,
      "taf_trigger": false,
      "metar": "METAR LYBE 111900Z 28009KT 9999 FEW040 M05/M08 Q1021 NOSIG",
      "taf": "TAF LYBE 111700Z 1118/1218 27010KT 9999 SCT035 TXM01/1212Z TNM10/1206Z"
    },
    {
      "icao": "LYNI",
      "alert": "OK",
      "vis_m": 9999,
      "fzfg": false,
      "metar_trigger": false,
      "taf_trigger": false,
      "metar": "METAR LYNI 111900Z VRB02KT 9999 -SN SCT015 BKN033 M04/M06 Q1020 NOSIG",
      "taf": "TAF LYNI 111700Z 1118/1218 30005KT 9999 SCT015 BKN025 TXM02/1212Z TNM07/1206Z"
    },
    {
      "icao": "LYPG",
      "alert": "OK",
      "vis_m": 9999,
      "fzfg": false,
      "metar_trigger": false,
      "taf_trigger": false,
      "metar": "METAR LYPG 111900Z 01018G29KT 9999 FEW050 01/M14 Q1018 NOSIG",
      "taf": "TAF LYPG 111700Z 1118/1218 36015G25KT CAVOK TX05/1212Z TNM02/1205Z"
    },
    {
      "icao": "LZIB",
      "alert": "OK",
      "vis_m": 9999,
      "fzfg": false,
      "metar_trigger": false,
      "taf_trigger": false,
      "metar": "METAR LZIB 111900Z VRB04KT CAVOK M03/M12 Q1021 NOSIG",
      "taf": "TAF LZIB 111715Z 1118/1218 29014KT CAVOK"
    },
    {
      "icao": "LZKZ",
      "alert": "OK",
      "vis_m": 7000,
      "fzfg": false,
      "metar_trigger": false,
      "taf_trigger": false,
      "metar": "METAR LZKZ 111900Z VRB02KT 7000 NSC M07/M09 Q1014 NOSIG",
      "taf": "TAF LZKZ 111715Z 1118/1218 VRB02KT 9999 FEW045"
    },
    {
      "icao": "LZTT",
      "alert": "OK",
      "vis_m": 5000,
      "fzfg": false,
      "metar_trigger": false,
      "taf_trigger": false,
      "metar": "METAR LZTT 111900Z 27019KT 5000 -SN DRSN OVC033 M07/M10 Q1011",
      "taf": "TAF LZTT 111715Z 1118/1218 25015KT 9999 -SN DRSN FEW013 OVC040"
    },
    {
      "icao": "OEJN",
      "alert": "OK",
      "vis_m": 9999,
      "fzfg": false,
      "metar_trigger": false,
      "taf_trigger": false,
      "metar": "METAR OEJN 111900Z 28003KT CAVOK 26/17 Q1016 NOSIG",
      "taf": "TAF OEJN 111700Z 1118/1224 36005KT CAVOK"
    },
    {
      "icao": "OEMA",
      "alert": "OK",
      "vis_m": 9999,
      "fzfg": false,
      "metar_trigger": false,
      "taf_trigger": false,
      "metar": "METAR OEMA 111900Z 35005KT CAVOK 19/00 Q1020 NOSIG",
      "taf": "TAF OEMA 111700Z 1118/1224 09008KT CAVOK"
    },
    {
      "icao": "OJAI",
      "alert": "OK",
      "vis_m": 5000,
      "fzfg": false,
      "metar_trigger": false,
      "taf_trigger": false,
      "metar": "METAR OJAI 111900Z 08003KT 5000 HZ NSC 08/05 Q1018 NOSIG",
      "taf": "TAF OJAI 111700Z 1118/1224 24014KT 5000 HZ NSC"
    },
    {
      "icao": "OMAA",
      "alert": "OK",
      "vis_m": 9999,
      "fzfg": false,
      "metar_trigger": false,
      "taf_trigger": false,
      "metar": "METAR OMAA 111900Z 34003KT CAVOK 20/15 Q1021 NOSIG",
      "taf": "TAF OMAA 111700Z 1118/1300 32005KT 8000 NSC"
    },
    {
      "icao": "OMDB",
      "alert": "OK",
      "vis_m": 9999,
      "fzfg": false,
      "metar_trigger": false,
      "taf_trigger": false,
      "metar": "METAR OMDB 111900Z 34004KT 250V030 CAVOK 23/12 Q1021 NOSIG",
      "taf": "TAF OMDB 111700Z 1118/1300 14005KT 8000 NSC"
    },
    {
      "icao": "UAAA",
      "alert": "OK",
      "vis_m": 1500,
      "fzfg": false,
      "metar_trigger": false,
      "taf_trigger": false,
      "metar": "METAR UAAA 111900Z 17002MPS 1500 R05R/P2000U BR FU FEW100 SCT200 M01/M05 Q1021 NOSIG",
      "taf": "TAF UAAA 111707Z 1118/1218 22003MPS 1400 BR FU SCT030 BKN100 TX07/1209Z TNM03/1201Z"
    },
    {
      "icao": "UBBB",
      "alert": "OK",
      "vis_m": 9999,
      "fzfg": false,
      "metar_trigger": false,
      "taf_trigger": false,
      "metar": "METAR UBBB 111900Z 18020G30KT CAVOK 10/02 Q1011 NOSIG",
      "taf": "TAF UBBB 111704Z 1118/1218 19024G34KT CAVOK TX14/1209Z TN07/1200Z"
    },
    {
      "icao": "UDSG",
      "alert": "OK",
      "vis_m": 9999,
      "fzfg": false,
      "metar_trigger": false,
      "taf_trigger": false,
      "metar": "METAR UDSG 111900Z 35001KT 9999 BKN049 M04/M06 Q1019 NOSIG",
      "taf": "TAF UDSG 111658Z 1118/1218 VRB04KT 9999 BKN040"
    },
    {
      "icao": "UDYZ",
      "alert": "OK",
      "vis_m": 2000,
      "fzfg": false,
      "metar_trigger": false,
      "taf_trigger": false,
      "metar": "METAR UDYZ 111900Z VRB01KT 2000 R08/P2000N BR FEW046 M01/M03 Q1020 NOSIG",
      "taf": "TAF UDYZ 111700Z 1118/1218 VRB06KT 2000 BR SCT040"
    },
    {
      "icao": "UGKO",
      "alert": "OK",
      "vis_m": 9999,
      "fzfg": false,
      "metar_trigger": false,
      "taf_trigger": false,
      "metar": "METAR UGKO 111900Z 09019KT CAVOK 12/M02 Q1009 NOSIG",
      "taf": "TAF UGKO 111700Z 1118/1218 08010KT CAVOK TX14/1212Z TN09/1202Z"
    }
  ]
}