{
  "ts_utc": "2026-03-06T16:31:14Z",
  "threshold_m": 150,
  "source": "stations_override.txt (ICAO list) + aviationweather.gov (METAR/TAF raw)",
  "station_count": 159,
  "stations": [
    {
      "icao": "BIKF",
      "alert": "OK",
      "vis_m": 9999,
      "fzfg": false,
      "metar_trigger": false,
      "taf_trigger": false,
      "metar": "METAR BIKF 061600Z 16019KT 9999 SCT012 BKN019 BKN090 04/02 Q0972",
      "taf": "TAF BIKF 061333Z 0615/0715 15023KT 9999 -RA BKN014 OVC022 TX03/0615Z TN02/0624Z"
    },
    {
      "icao": "BKPR",
      "alert": "OK",
      "vis_m": 9999,
      "fzfg": false,
      "metar_trigger": false,
      "taf_trigger": false,
      "metar": "METAR BKPR 061630Z 23003KT CAVOK 12/04 Q1023 NOSIG",
      "taf": "TAF BKPR 061130Z 0612/0712 VRB05KT CAVOK"
    },
    {
      "icao": "EBCI",
      "alert": "OK",
      "vis_m": 9999,
      "fzfg": false,
      "metar_trigger": false,
      "taf_trigger": false,
      "metar": "METAR EBCI 061620Z 36004KT CAVOK 17/06 Q1021 NOSIG",
      "taf": "TAF EBCI 061106Z 0612/0718 VRB03KT CAVOK"
    },
    {
      "icao": "EDDB",
      "alert": "OK",
      "vis_m": 9999,
      "fzfg": false,
      "metar_trigger": false,
      "taf_trigger": false,
      "metar": "METAR EDDB 061620Z AUTO 11006KT 090V150 CAVOK 14/M01 Q1024 NOSIG",
      "taf": "TAF EDDB 061100Z 0612/0712 12005KT CAVOK"
    },
    {
      "icao": "EDDH",
      "alert": "OK",
      "vis_m": 9999,
      "fzfg": false,
      "metar_trigger": false,
      "taf_trigger": false,
      "metar": "METAR EDDH 061620Z AUTO 12005KT 090V150 CAVOK 15/03 Q1022 NOSIG",
      "taf": "TAF EDDH 061100Z 0612/0718 15005KT CAVOK"
    },
    {
      "icao": "EDDK",
      "alert": "OK",
      "vis_m": 9999,
      "fzfg": false,
      "metar_trigger": false,
      "taf_trigger": false,
      "metar": "METAR EDDK 061620Z AUTO 14003KT CAVOK 17/04 Q1021 NOSIG",
      "taf": "TAF EDDK 061100Z 0612/0718 12007KT CAVOK"
    },
    {
      "icao": "EDDN",
      "alert": "OK",
      "vis_m": 9999,
      "fzfg": false,
      "metar_trigger": false,
      "taf_trigger": false,
      "metar": "METAR EDDN 061620Z AUTO 08005KT CAVOK 16/03 Q1021 NOSIG",
      "taf": "TAF EDDN 061100Z 0612/0712 13006KT CAVOK"
    },
    {
      "icao": "EDDS",
      "alert": "OK",
      "vis_m": 9999,
      "fzfg": false,
      "metar_trigger": false,
      "taf_trigger": false,
      "metar": "METAR EDDS 061620Z AUTO 35005KT CAVOK 14/04 Q1020 NOSIG",
      "taf": "TAF EDDS 061100Z 0612/0712 VRB03KT CAVOK"
    },
    {
      "icao": "EDFH",
      "alert": "OK",
      "vis_m": 9999,
      "fzfg": false,
      "metar_trigger": false,
      "taf_trigger": false,
      "metar": "METAR EDFH 061620Z 13002KT CAVOK 14/04 Q1021",
      "taf": "TAF EDFH 061100Z 0612/0712 13007KT CAVOK"
    },
    {
      "icao": "EDJA",
      "alert": "OK",
      "vis_m": 9999,
      "fzfg": false,
      "metar_trigger": false,
      "taf_trigger": false,
      "metar": "METAR EDJA 061620Z 03006KT CAVOK 12/04 Q1020",
      "taf": "TAF EDJA 061400Z 0615/0624 04004KT CAVOK"
    },
    {
      "icao": "EDLW",
      "alert": "OK",
      "vis_m": 9999,
      "fzfg": false,
      "metar_trigger": false,
      "taf_trigger": false,
      "metar": "METAR EDLW 061620Z 35004KT CAVOK 16/05 Q1021",
      "taf": "TAF EDLW 061100Z 0612/0712 VRB03KT CAVOK"
    },
    {
      "icao": "EDNY",
      "alert": "OK",
      "vis_m": 9999,
      "fzfg": false,
      "metar_trigger": false,
      "taf_trigger": false,
      "metar": "METAR EDNY 061620Z VRB01KT CAVOK 11/05 Q1020",
      "taf": "TAF EDNY 061400Z 0615/0624 VRB03KT CAVOK"
    },
    {
      "icao": "EDSB",
      "alert": "OK",
      "vis_m": 9999,
      "fzfg": false,
      "metar_trigger": false,
      "taf_trigger": false,
      "metar": "METAR EDSB 061620Z 01005KT CAVOK 14/05 Q1020",
      "taf": "TAF EDSB 061100Z 0612/0712 VRB03KT CAVOK"
    },
    {
      "icao": "EETN",
      "alert": "OK",
      "vis_m": 9999,
      "fzfg": false,
      "metar_trigger": false,
      "taf_trigger": false,
      "metar": "METAR EETN 061620Z 24011KT CAVOK 05/00 Q1020 NOSIG",
      "taf": "TAF EETN 061130Z 0612/0712 23010KT CAVOK"
    },
    {
      "icao": "EFTU",
      "alert": "OK",
      "vis_m": 9999,
      "fzfg": false,
      "metar_trigger": false,
      "taf_trigger": false,
      "metar": "METAR EFTU 061620Z AUTO 23005KT CAVOK 03/M01 Q1018",
      "taf": "TAF EFTU 061426Z 0615/0715 23008KT CAVOK"
    },
    {
      "icao": "EGBB",
      "alert": "OK",
      "vis_m": 9999,
      "fzfg": false,
      "metar_trigger": false,
      "taf_trigger": false,
      "metar": "METAR EGBB 061620Z 01007KT 9999 BKN013 07/04 Q1024",
      "taf": "TAF EGBB 061102Z 0612/0712 33009KT 9000 OVC007"
    },
    {
      "icao": "EGGP",
      "alert": "OK",
      "vis_m": 9999,
      "fzfg": false,
      "metar_trigger": false,
      "taf_trigger": false,
      "metar": "METAR EGGP 061620Z 31008KT 9999 FEW016 BKN020 06/03 Q1025",
      "taf": "TAF EGGP 061100Z 0612/0712 VRB03KT 9999 SCT016"
    },
    {
      "icao": "EGGW",
      "alert": "OK",
      "vis_m": 9999,
      "fzfg": false,
      "metar_trigger": false,
      "taf_trigger": false,
      "metar": "METAR EGGW 061620Z AUTO 01010KT 9999 -RA OVC004 06/06 Q1022",
      "taf": ""
    },
    {
      "icao": "EGKK",
      "alert": "OK",
      "vis_m": 5000,
      "fzfg": false,
      "metar_trigger": false,
      "taf_trigger": false,
      "metar": "METAR EGKK 061620Z 02006G17KT 350V120 5000 -RA SCT006 BKN009 09/09 Q1022",
      "taf": "TAF EGKK 061056Z 0612/0718 35005KT 9999 BKN016"
    },
    {
      "icao": "EGNM",
      "alert": "OK",
      "vis_m": 9999,
      "fzfg": false,
      "metar_trigger": false,
      "taf_trigger": false,
      "metar": "METAR EGNM 061620Z 02005KT 9999 SCT012 BKN017 05/03 Q1024",
      "taf": "TAF EGNM 061057Z 0612/0712 02012KT 9999 SCT008"
    },
    {
      "icao": "EGPD",
      "alert": "OK",
      "vis_m": 9999,
      "fzfg": false,
      "metar_trigger": false,
      "taf_trigger": false,
      "metar": "METAR EGPD 061620Z COR 20005KT 160V230 9999 FEW044 07/00 Q1023 NOSIG",
      "taf": ""
    },
    {
      "icao": "EGPF",
      "alert": "OK",
      "vis_m": 9999,
      "fzfg": false,
      "metar_trigger": false,
      "taf_trigger": false,
      "metar": "METAR EGPF 061620Z AUTO 25007KT 210V280 9999 SCT041 09/01 Q1024",
      "taf": "TAF EGPF 061056Z 0612/0712 VRB04KT 9999 FEW035"
    },
    {
      "icao": "EHBK",
      "alert": "OK",
      "vis_m": 9999,
      "fzfg": false,
      "metar_trigger": false,
      "taf_trigger": false,
      "metar": "METAR EHBK 061625Z AUTO 04003KT 9999 NSC 15/09 Q1021 NOSIG",
      "taf": "TAF EHBK 061106Z 0612/0718 VRB02KT CAVOK"
    },
    {
      "icao": "EHEH",
      "alert": "OK",
      "vis_m": 9999,
      "fzfg": false,
      "metar_trigger": false,
      "taf_trigger": false,
      "metar": "METAR EHEH 061555Z AUTO VRB02KT 9999 BKN190 18/05 Q1020 BLU NOSIG",
      "taf": ""
    },
    {
      "icao": "EKBI",
      "alert": "OK",
      "vis_m": 9999,
      "fzfg": false,
      "metar_trigger": false,
      "taf_trigger": false,
      "metar": "METAR EKBI 061620Z AUTO 13004KT 9999 FEW230/// 12/04 Q1022",
      "taf": "TAF EKBI 061427Z 0615/0715 14006KT CAVOK"
    },
    {
      "icao": "EKCH",
      "alert": "OK",
      "vis_m": 9999,
      "fzfg": false,
      "metar_trigger": false,
      "taf_trigger": false,
      "metar": "METAR EKCH 061620Z AUTO 16005KT 9999 NCD 06/M01 Q1024 NOSIG",
      "taf": "TAF EKCH 061427Z 0615/0715 15007KT CAVOK"
    },
    {
      "icao": "ENAL",
      "alert": "OK",
      "vis_m": 9999,
      "fzfg": false,
      "metar_trigger": false,
      "taf_trigger": false,
      "metar": "METAR ENAL 061620Z 03006KT 9999 FEW010 06/03 Q1022",
      "taf": "TAF ENAL 061400Z 0615/0624 15008KT 9999 FEW020"
    },
    {
      "icao": "ENBR",
      "alert": "OK",
      "vis_m": 2000,
      "fzfg": false,
      "metar_trigger": false,
      "taf_trigger": false,
      "metar": "METAR ENBR 061620Z 20003KT 170V230 2000 -RADZ BR OVC003 05/04 Q1021 TEMPO 1400 DZRA BR RMK WIND 1200FT 16007KT",
      "taf": "TAF ENBR 061100Z 0612/0712 15005KT 6000 -RADZ SCT005 BKN015"
    },
    {
      "icao": "ENGM",
      "alert": "OK",
      "vis_m": 8000,
      "fzfg": false,
      "metar_trigger": false,
      "taf_trigger": false,
      "metar": "METAR ENGM 061620Z 01004KT 8000 SCT003 01/M00 Q1022 NOSIG",
      "taf": ""
    },
    {
      "icao": "ENHD",
      "alert": "OK",
      "vis_m": 8000,
      "fzfg": false,
      "metar_trigger": false,
      "taf_trigger": false,
      "metar": "METAR ENHD 061620Z 17006KT 8000 -DZ SCT018 OVC037 06/04 Q1021",
      "taf": "TAF ENHD 061400Z 0615/0623 20008KT 9000 -RA BKN020"
    },
    {
      "icao": "ENTC",
      "alert": "OK",
      "vis_m": 9999,
      "fzfg": false,
      "metar_trigger": false,
      "taf_trigger": false,
      "metar": "METAR ENTC 061620Z 28030G51KT 9999 VCSH FEW028 SCT045 BKN061CB 02/M02 Q1007 TEMPO 27025KT 4000 SHRAGS SCT020CB BKN030 RMK WIND 2600FT 29042G60KT",
      "taf": ""
    },
    {
      "icao": "ENTO",
      "alert": "OK",
      "vis_m": 9999,
      "fzfg": false,
      "metar_trigger": false,
      "taf_trigger": false,
      "metar": "METAR ENTO 061620Z 19007KT CAVOK 04/02 Q1022 NOSIG",
      "taf": "TAF ENTO 061100Z 0612/0712 18005KT 9999 FEW040"
    },
    {
      "icao": "ENVA",
      "alert": "OK",
      "vis_m": 9999,
      "fzfg": false,
      "metar_trigger": false,
      "taf_trigger": false,
      "metar": "METAR ENVA 061620Z 15003KT 9999 FEW031 05/02 Q1023 NOSIG RMK WIND 670FT 27005KT",
      "taf": "TAF ENVA 061100Z 0612/0712 25010KT 9999 SCT018 BKN024"
    },
    {
      "icao": "ENZV",
      "alert": "OK",
      "vis_m": 7000,
      "fzfg": false,
      "metar_trigger": false,
      "taf_trigger": false,
      "metar": "METAR ENZV 061620Z 23003KT 7000 OVC045 06/04 Q1021 NOSIG",
      "taf": "TAF ENZV 061100Z 0612/0712 VRB05KT 9999 SCT045"
    },
    {
      "icao": "EPGD",
      "alert": "OK",
      "vis_m": 9999,
      "fzfg": false,
      "metar_trigger": false,
      "taf_trigger": false,
      "metar": "METAR EPGD 061600Z 12008KT CAVOK 10/01 Q1026",
      "taf": "TAF EPGD 061130Z 0612/0712 VRB03KT CAVOK"
    },
    {
      "icao": "EPKK",
      "alert": "OK",
      "vis_m": 9999,
      "fzfg": false,
      "metar_trigger": false,
      "taf_trigger": false,
      "metar": "METAR EPKK 061600Z 07006KT CAVOK 11/M04 Q1026",
      "taf": "TAF EPKK 061430Z 0615/0715 06005KT CAVOK"
    },
    {
      "icao": "EPKT",
      "alert": "OK",
      "vis_m": 9999,
      "fzfg": false,
      "metar_trigger": false,
      "taf_trigger": false,
      "metar": "METAR EPKT 061600Z 06007KT CAVOK 12/M07 Q1025",
      "taf": "TAF EPKT 061130Z 0612/0712 14004KT CAVOK"
    },
    {
      "icao": "EPLB",
      "alert": "OK",
      "vis_m": 9999,
      "fzfg": false,
      "metar_trigger": false,
      "taf_trigger": false,
      "metar": "METAR EPLB 061600Z 02003KT CAVOK 09/M02 Q1026",
      "taf": "TAF EPLB 061130Z 0612/0712 32007KT CAVOK"
    },
    {
      "icao": "EPMO",
      "alert": "OK",
      "vis_m": 9999,
      "fzfg": false,
      "metar_trigger": false,
      "taf_trigger": false,
      "metar": "METAR EPMO 061600Z 26005KT CAVOK 09/01 Q1027",
      "taf": "TAF EPMO 061130Z 0612/0712 VRB03KT CAVOK"
    },
    {
      "icao": "EPPO",
      "alert": "OK",
      "vis_m": 9999,
      "fzfg": false,
      "metar_trigger": false,
      "taf_trigger": false,
      "metar": "METAR EPPO 061600Z 10008KT CAVOK 12/M01 Q1026",
      "taf": "TAF EPPO 061130Z 0612/0712 13006KT CAVOK"
    },
    {
      "icao": "EPRA",
      "alert": "OK",
      "vis_m": 9999,
      "fzfg": false,
      "metar_trigger": false,
      "taf_trigger": false,
      "metar": "METAR EPRA 061600Z VRB03KT CAVOK 11/M05 Q1026",
      "taf": "TAF EPRA 061430Z 0615/0624 VRB02KT CAVOK"
    },
    {
      "icao": "EPRZ",
      "alert": "OK",
      "vis_m": 9999,
      "fzfg": false,
      "metar_trigger": false,
      "taf_trigger": false,
      "metar": "METAR EPRZ 061600Z 02004KT CAVOK 12/M04 Q1026",
      "taf": "TAF EPRZ 061130Z 0612/0712 VRB03KT CAVOK"
    },
    {
      "icao": "EPSC",
      "alert": "OK",
      "vis_m": 9999,
      "fzfg": false,
      "metar_trigger": false,
      "taf_trigger": false,
      "metar": "METAR EPSC 061600Z 14007KT CAVOK 12/M01 Q1025",
      "taf": "TAF EPSC 061130Z 0612/0712 14010KT CAVOK"
    },
    {
      "icao": "EPSY",
      "alert": "OK",
      "vis_m": 9999,
      "fzfg": false,
      "metar_trigger": false,
      "taf_trigger": false,
      "metar": "METAR EPSY 061600Z VRB02KT CAVOK 08/M04 Q1026",
      "taf": "TAF EPSY 061430Z 0615/0624 VRB03KT CAVOK"
    },
    {
      "icao": "EPWA",
      "alert": "OK",
      "vis_m": 9999,
      "fzfg": false,
      "metar_trigger": false,
      "taf_trigger": false,
      "metar": "METAR EPWA 061600Z 26004KT CAVOK 10/M01 Q1026 NOSIG",
      "taf": "TAF EPWA 061430Z 0615/0715 VRB04KT CAVOK"
    },
    {
      "icao": "EPWR",
      "alert": "OK",
      "vis_m": 9999,
      "fzfg": false,
      "metar_trigger": false,
      "taf_trigger": false,
      "metar": "METAR EPWR 061600Z 13009KT CAVOK 13/M01 Q1025",
      "taf": "TAF EPWR 061430Z 0615/0715 14012KT CAVOK"
    },
    {
      "icao": "ESGG",
      "alert": "OK",
      "vis_m": 9999,
      "fzfg": false,
      "metar_trigger": false,
      "taf_trigger": false,
      "metar": "METAR ESGG 061620Z 20005KT CAVOK 07/M01 Q1022",
      "taf": "TAF ESGG 061430Z 0615/0715 19009KT CAVOK"
    },
    {
      "icao": "ESKN",
      "alert": "OK",
      "vis_m": 9999,
      "fzfg": false,
      "metar_trigger": false,
      "taf_trigger": false,
      "metar": "METAR ESKN 061620Z 23005KT CAVOK 08/03 Q1022",
      "taf": "TAF ESKN 061430Z 0615/0715 23009KT CAVOK"
    },
    {
      "icao": "ESMS",
      "alert": "OK",
      "vis_m": 9999,
      "fzfg": false,
      "metar_trigger": false,
      "taf_trigger": false,
      "metar": "METAR ESMS 061620Z 14005KT CAVOK 08/M01 Q1024",
      "taf": "TAF ESMS 061427Z 0615/0715 16008KT CAVOK"
    },
    {
      "icao": "ESSA",
      "alert": "OK",
      "vis_m": 9999,
      "fzfg": false,
      "metar_trigger": false,
      "taf_trigger": false,
      "metar": "METAR ESSA 061620Z 26009KT CAVOK 07/00 Q1021 NOSIG",
      "taf": "TAF ESSA 061430Z 0615/0715 26014KT CAVOK"
    },
    {
      "icao": "EYKA",
      "alert": "OK",
      "vis_m": 9999,
      "fzfg": false,
      "metar_trigger": false,
      "taf_trigger": false,
      "metar": "METAR EYKA 061620Z VRB01KT CAVOK 01/M01 Q1027",
      "taf": ""
    },
    {
      "icao": "EYPA",
      "alert": "OK",
      "vis_m": 9999,
      "fzfg": false,
      "metar_trigger": false,
      "taf_trigger": false,
      "metar": "METAR EYPA 061620Z 21005KT CAVOK 02/01 Q1026",
      "taf": ""
    },
    {
      "icao": "EYVI",
      "alert": "OK",
      "vis_m": 9999,
      "fzfg": false,
      "metar_trigger": false,
      "taf_trigger": false,
      "metar": "METAR EYVI 061620Z 27003KT 240V310 CAVOK 05/M01 Q1026 NOSIG",
      "taf": "TAF EYVI 061100Z 0612/0712 VRB04KT 8000 NSC"
    },
    {
      "icao": "GCFV",
      "alert": "OK",
      "vis_m": 9999,
      "fzfg": false,
      "metar_trigger": false,
      "taf_trigger": false,
      "metar": "METAR GCFV 061600Z 03020KT 9999 FEW030 BKN040 19/11 Q1021",
      "taf": "TAF GCFV 061400Z 0615/0715 03020KT 9999 SCT025 BKN040 TX20/0714Z TN14/0706Z"
    },
    {
      "icao": "GCLP",
      "alert": "OK",
      "vis_m": 9999,
      "fzfg": false,
      "metar_trigger": false,
      "taf_trigger": false,
      "metar": "METAR GCLP 061600Z 02023KT 9999 BKN035 18/10 Q1021 NOSIG",
      "taf": "TAF GCLP 061400Z 0615/0715 03025KT 9999 BKN030 TX18/0714Z TN14/0706Z"
    },
    {
      "icao": "GCTS",
      "alert": "OK",
      "vis_m": 9999,
      "fzfg": false,
      "metar_trigger": false,
      "taf_trigger": false,
      "metar": "METAR GCTS 061600Z 08027KT 9999 FEW040 20/08 Q1021 NOSIG",
      "taf": "TAF GCTS 061400Z 0615/0715 08025KT 9999 SCT040 TX22/0714Z TN14/0706Z"
    },
    {
      "icao": "GMAD",
      "alert": "OK",
      "vis_m": 8000,
      "fzfg": false,
      "metar_trigger": false,
      "taf_trigger": false,
      "metar": "METAR GMAD 061600Z 22009KT 200V260 8000 NSC 21/12 Q1015 NOSIG",
      "taf": "TAF GMAD 061100Z 0612/0718 28012KT 8000 SCT020"
    },
    {
      "icao": "GMMN",
      "alert": "OK",
      "vis_m": 9999,
      "fzfg": false,
      "metar_trigger": false,
      "taf_trigger": false,
      "metar": "METAR GMMN 061600Z 32013KT 290V350 9999 BKN026 14/08 Q1020 NOSIG",
      "taf": "TAF GMMN 061100Z 0612/0718 32014KT 9999 BKN026"
    },
    {
      "icao": "GMMX",
      "alert": "OK",
      "vis_m": 9999,
      "fzfg": false,
      "metar_trigger": false,
      "taf_trigger": false,
      "metar": "METAR GMMX 061600Z 35004KT 310V060 9999 BKN020 16/09 Q1019 NOSIG",
      "taf": ""
    },
    {
      "icao": "HEGN",
      "alert": "OK",
      "vis_m": 9999,
      "fzfg": false,
      "metar_trigger": false,
      "taf_trigger": false,
      "metar": "METAR HEGN 061600Z 35015KT CAVOK 22/09 Q1015 NOSIG",
      "taf": "TAF HEGN 061100Z 0612/0718 36008G20KT CAVOK"
    },
    {
      "icao": "HEMA",
      "alert": "OK",
      "vis_m": 9999,
      "fzfg": false,
      "metar_trigger": false,
      "taf_trigger": false,
      "metar": "METAR HEMA 061600Z 35010KT CAVOK 22/12 Q1014 NOSIG",
      "taf": "TAF HEMA 061100Z 0612/0718 36006G18KT CAVOK"
    },
    {
      "icao": "HESH",
      "alert": "OK",
      "vis_m": 9999,
      "fzfg": false,
      "metar_trigger": false,
      "taf_trigger": false,
      "metar": "METAR HESH 061600Z 01006KT CAVOK 23/09 Q1014 NOSIG",
      "taf": "TAF HESH 061100Z 0612/0718 12008KT CAVOK"
    },
    {
      "icao": "HESX",
      "alert": "OK",
      "vis_m": 9999,
      "fzfg": false,
      "metar_trigger": false,
      "taf_trigger": false,
      "metar": "METAR HESX 061600Z 02008KT CAVOK 18/07 Q1018 NOSIG",
      "taf": "TAF HESX 061100Z 0612/0718 35012KT 9999 SCT025"
    },
    {
      "icao": "LATI",
      "alert": "OK",
      "vis_m": 9999,
      "fzfg": false,
      "metar_trigger": false,
      "taf_trigger": false,
      "metar": "METAR LATI 061620Z VRB03KT CAVOK 15/07 Q1022 NOSIG",
      "taf": "TAF LATI 061100Z 0612/0712 VRB04KT CAVOK TX21/0712Z TN04/0705Z"
    },
    {
      "icao": "LBPD",
      "alert": "OK",
      "vis_m": 9999,
      "fzfg": false,
      "metar_trigger": false,
      "taf_trigger": false,
      "metar": "METAR LBPD 061600Z AUTO VRB02KT 9999 NCD 16/01 Q1022 NOSIG",
      "taf": "TAF LBPD 061100Z 0612/0712 30010KT 9999 SCT070"
    },
    {
      "icao": "LBSF",
      "alert": "OK",
      "vis_m": 9999,
      "fzfg": false,
      "metar_trigger": false,
      "taf_trigger": false,
      "metar": "METAR LBSF 061600Z AUTO 00000KT 9999 SCT062/// 14/01 Q1023 NOSIG",
      "taf": "TAF LBSF 061100Z 0612/0712 32010KT 9999 SCT060"
    },
    {
      "icao": "LBWN",
      "alert": "OK",
      "vis_m": 9999,
      "fzfg": false,
      "metar_trigger": false,
      "taf_trigger": false,
      "metar": "METAR LBWN 061600Z 36005KT 330V030 CAVOK 12/M02 Q1024 NOSIG",
      "taf": "TAF LBWN 061100Z 0612/0712 33010KT 9999 BKN030"
    },
    {
      "icao": "LCLK",
      "alert": "OK",
      "vis_m": 9999,
      "fzfg": false,
      "metar_trigger": false,
      "taf_trigger": false,
      "metar": "METAR LCLK 061600Z 31004KT 9999 FEW025 FEW030TCU BKN048 17/09 Q1018 NOSIG",
      "taf": "TAF LCLK 061130Z 0612/0712 21014KT 9999 FEW025"
    },
    {
      "icao": "LCPH",
      "alert": "OK",
      "vis_m": 9999,
      "fzfg": false,
      "metar_trigger": false,
      "taf_trigger": false,
      "metar": "METAR LCPH 061600Z 32007KT 9999 FEW030 16/09 Q1018 NOSIG",
      "taf": "TAF LCPH 061130Z 0612/0712 29010KT 9999 FEW030 SCT050"
    },
    {
      "icao": "LEAL",
      "alert": "OK",
      "vis_m": 9999,
      "fzfg": false,
      "metar_trigger": false,
      "taf_trigger": false,
      "metar": "METAR LEAL 061600Z 09008KT 9999 FEW022 FEW030TCU 16/10 Q1010 NOSIG",
      "taf": "TAF LEAL 061100Z 0612/0712 VRB04KT 9999 SCT030 TX16/0612Z TN09/0706Z"
    },
    {
      "icao": "LEBB",
      "alert": "OK",
      "vis_m": 3400,
      "fzfg": false,
      "metar_trigger": false,
      "taf_trigger": false,
      "metar": "SPECI LEBB 061624Z 30014KT 3400 RA BR BKN006 BKN010 BKN020 11/11 Q1020 TEMPO 6000 NSW",
      "taf": "TAF LEBB 061100Z 0612/0712 31009KT 9000 SCT010 BKN016 TX12/0712Z TN09/0700Z"
    },
    {
      "icao": "LEBL",
      "alert": "OK",
      "vis_m": 2500,
      "fzfg": false,
      "metar_trigger": false,
      "taf_trigger": false,
      "metar": "METAR LEBL 061600Z 06013KT 2500 R24R/1200N R06L/1600N R06R/1100N R24L/1500N BR FEW005 SCT010 BKN020 15/13 Q1014 NOSIG",
      "taf": ""
    },
    {
      "icao": "LECH",
      "alert": "OK",
      "vis_m": 9000,
      "fzfg": false,
      "metar_trigger": false,
      "taf_trigger": false,
      "metar": "METAR LECH 061600Z AUTO 06010KT 9000 SCT050 BKN066 12/11 Q1011",
      "taf": ""
    },
    {
      "icao": "LEMD",
      "alert": "OK",
      "vis_m": 9999,
      "fzfg": false,
      "metar_trigger": false,
      "taf_trigger": false,
      "metar": "METAR LEMD 061600Z 03011G22KT 340V070 9999 SCT050 BKN070 10/06 Q1012 NOSIG",
      "taf": ""
    },
    {
      "icao": "LEMG",
      "alert": "OK",
      "vis_m": 9999,
      "fzfg": false,
      "metar_trigger": false,
      "taf_trigger": false,
      "metar": "METAR LEMG 061600Z 28011KT 240V320 9999 FEW020 SCT030 13/06 Q1012 NOSIG",
      "taf": ""
    },
    {
      "icao": "LEVC",
      "alert": "OK",
      "vis_m": 9999,
      "fzfg": false,
      "metar_trigger": false,
      "taf_trigger": false,
      "metar": "METAR LEVC 061600Z 07010KT 040V100 9999 -RA SCT010 SCT020 14/12 Q1011 NOSIG",
      "taf": "TAF LEVC 061100Z 0612/0712 07008KT 9999 BKN020 TX15/0612Z TN09/0706Z"
    },
    {
      "icao": "LEXJ",
      "alert": "OK",
      "vis_m": 8000,
      "fzfg": false,
      "metar_trigger": false,
      "taf_trigger": false,
      "metar": "METAR LEXJ 061600Z 34010KT 290V020 8000 -RA BKN012 BKN020 BKN029 10/07 Q1021",
      "taf": ""
    },
    {
      "icao": "LEZG",
      "alert": "OK",
      "vis_m": 8000,
      "fzfg": false,
      "metar_trigger": false,
      "taf_trigger": false,
      "metar": "METAR LEZG 061600Z 33007KT 8000 3000SW RA OVC045 12/12 Q1015 NOSIG",
      "taf": "TAF LEZG 061100Z 0612/0712 31010KT 9999 BKN020 TX13/0614Z TN08/0706Z"
    },
    {
      "icao": "LEZL",
      "alert": "OK",
      "vis_m": 9999,
      "fzfg": false,
      "metar_trigger": false,
      "taf_trigger": false,
      "metar": "METAR LEZL 061600Z 32006KT 280V360 9999 FEW040 14/08 Q1013 NOSIG",
      "taf": "TAF LEZL 061400Z 0615/0715 26006KT 9999 SCT020 BKN030 TX17/0715Z TN08/0707Z"
    },
    {
      "icao": "LFBD",
      "alert": "OK",
      "vis_m": 9999,
      "fzfg": false,
      "metar_trigger": false,
      "taf_trigger": false,
      "metar": "METAR LFBD 061600Z AUTO 13007KT 9999 FEW040 SCT048 OVC056 16/09 Q1018 TEMPO 4000 -SHRA BKN030TCU",
      "taf": "TAF LFBD 061100Z 0612/0718 13010KT 9999 BKN025 TX17/0615Z TN10/0705Z"
    },
    {
      "icao": "LFLL",
      "alert": "OK",
      "vis_m": 9999,
      "fzfg": false,
      "metar_trigger": false,
      "taf_trigger": false,
      "metar": "METAR LFLL 061600Z 36005KT CAVOK 17/06 Q1019 NOSIG",
      "taf": "TAF LFLL 061100Z 0612/0718 36005KT CAVOK"
    },
    {
      "icao": "LFLS",
      "alert": "OK",
      "vis_m": 9999,
      "fzfg": false,
      "metar_trigger": false,
      "taf_trigger": false,
      "metar": "METAR LFLS 061600Z AUTO 33005KT CAVOK 16/08 Q1019 NOSIG",
      "taf": "TAF LFLS 061400Z 0615/0715 03005KT CAVOK"
    },
    {
      "icao": "LFMN",
      "alert": "OK",
      "vis_m": 9999,
      "fzfg": false,
      "metar_trigger": false,
      "taf_trigger": false,
      "metar": "METAR LFMN 061600Z 08018KT 9999 FEW063 BKN120 BKN260 16/10 Q1020 NOSIG",
      "taf": "TAF LFMN 061400Z 0615/0721 10018KT 9999 SCT080 BKN230"
    },
    {
      "icao": "LFOB",
      "alert": "OK",
      "vis_m": 9999,
      "fzfg": false,
      "metar_trigger": false,
      "taf_trigger": false,
      "metar": "METAR LFOB 061600Z AUTO 33007KT CAVOK 18/11 Q1020 NOSIG",
      "taf": "TAF LFOB 061100Z 0612/0712 VRB03KT CAVOK"
    },
    {
      "icao": "LFPO",
      "alert": "OK",
      "vis_m": 9999,
      "fzfg": false,
      "metar_trigger": false,
      "taf_trigger": false,
      "metar": "METAR LFPO 061600Z 30004KT 260V350 CAVOK 18/10 Q1020 NOSIG",
      "taf": "TAF LFPO 061100Z 0612/0718 VRB02KT CAVOK"
    },
    {
      "icao": "LFSB",
      "alert": "OK",
      "vis_m": 9999,
      "fzfg": false,
      "metar_trigger": false,
      "taf_trigger": false,
      "metar": "METAR LFSB 061600Z AUTO 01006KT CAVOK 16/06 Q1019 NOSIG",
      "taf": "TAF LFSB 061100Z 0612/0712 36004KT CAVOK"
    },
    {
      "icao": "LGAV",
      "alert": "OK",
      "vis_m": 9999,
      "fzfg": false,
      "metar_trigger": false,
      "taf_trigger": false,
      "metar": "METAR LGAV 061620Z 04003KT 9999 FEW030 14/08 Q1024 NOSIG",
      "taf": "TAF LGAV 061100Z 0612/0712 03012KT 9999 SCT025"
    },
    {
      "icao": "LGTS",
      "alert": "OK",
      "vis_m": 9999,
      "fzfg": false,
      "metar_trigger": false,
      "taf_trigger": false,
      "metar": "METAR LGTS 061620Z 18005KT 9999 FEW020 14/05 Q1023 NOSIG",
      "taf": "TAF LGTS 061100Z 0612/0712 VRB03KT 9999 FEW025"
    },
    {
      "icao": "LHBP",
      "alert": "OK",
      "vis_m": 9999,
      "fzfg": false,
      "metar_trigger": false,
      "taf_trigger": false,
      "metar": "METAR LHBP 061600Z 10003KT CAVOK 14/M00 Q1025 NOSIG",
      "taf": "TAF LHBP 061115Z 0612/0712 10006KT CAVOK"
    },
    {
      "icao": "LHDC",
      "alert": "OK",
      "vis_m": 9999,
      "fzfg": false,
      "metar_trigger": false,
      "taf_trigger": false,
      "metar": "METAR LHDC 061545Z AUTO 03004KT 340V060 CAVOK 13/M00 Q1025 NOSIG",
      "taf": "TAF LHDC 061415Z 0615/0624 02006KT CAVOK"
    },
    {
      "icao": "LIBD",
      "alert": "OK",
      "vis_m": 9000,
      "fzfg": false,
      "metar_trigger": false,
      "taf_trigger": false,
      "metar": "METAR LIBD 061620Z 35003KT 310V020 9000 FEW010 SCT020 13/11 Q1023",
      "taf": "TAF LIBD 061100Z 0612/0712 VRB04KT 8000 FEW015"
    },
    {
      "icao": "LIBG",
      "alert": "OK",
      "vis_m": 9999,
      "fzfg": false,
      "metar_trigger": false,
      "taf_trigger": false,
      "metar": "METAR LIBG 061550Z 07006KT CAVOK 16/08 Q1022",
      "taf": "TAF LIBG 061400Z 0615/0624 VRB05KT 9999 FEW020"
    },
    {
      "icao": "LIBP",
      "alert": "OK",
      "vis_m": 9999,
      "fzfg": false,
      "metar_trigger": false,
      "taf_trigger": false,
      "metar": "METAR LIBP 061620Z AUTO 09006KT 040V110 9999 NCD 13/10 Q1023",
      "taf": "TAF LIBP 061100Z 0612/0712 VRB05KT 9999 FEW025"
    },
    {
      "icao": "LIBR",
      "alert": "OK",
      "vis_m": 9999,
      "fzfg": false,
      "metar_trigger": false,
      "taf_trigger": false,
      "metar": "METAR LIBR 061620Z 03004KT CAVOK 14/09 Q1022",
      "taf": "TAF LIBR 061100Z 0612/0712 02007KT CAVOK"
    },
    {
      "icao": "LICA",
      "alert": "OK",
      "vis_m": 9999,
      "fzfg": false,
      "metar_trigger": false,
      "taf_trigger": false,
      "metar": "METAR LICA 061620Z AUTO 07010KT 9999 BKN100/// 15/10 Q1021",
      "taf": "TAF LICA 061100Z 0612/0712 08016KT CAVOK"
    },
    {
      "icao": "LICC",
      "alert": "OK",
      "vis_m": 8000,
      "fzfg": false,
      "metar_trigger": false,
      "taf_trigger": false,
      "metar": "METAR LICC 061620Z 09004KT 070V130 8000 -DZ FEW010 BKN070 15/12 Q1021 REDZ",
      "taf": "TAF LICC 061100Z 0612/0712 08012KT 9999 SCT020 BKN040"
    },
    {
      "icao": "LICJ",
      "alert": "OK",
      "vis_m": 9999,
      "fzfg": false,
      "metar_trigger": false,
      "taf_trigger": false,
      "metar": "METAR LICJ 061620Z 21003KT CAVOK 15/12 Q1018",
      "taf": ""
    },
    {
      "icao": "LIMC",
      "alert": "OK",
      "vis_m": 8000,
      "fzfg": false,
      "metar_trigger": false,
      "taf_trigger": false,
      "metar": "METAR LIMC 061620Z 14004KT 8000 NSC 14/06 Q1023 NOSIG",
      "taf": "TAF LIMC 061100Z 0612/0718 VRB05KT 6000 SCT030"
    },
    {
      "icao": "LIME",
      "alert": "OK",
      "vis_m": 9000,
      "fzfg": false,
      "metar_trigger": false,
      "taf_trigger": false,
      "metar": "METAR LIME 061620Z VRB02KT 9000 NSC 13/05 Q1023 NOSIG",
      "taf": "TAF LIME 061100Z 0612/0712 VRB05KT 6000 SCT030"
    },
    {
      "icao": "LIMF",
      "alert": "OK",
      "vis_m": 4000,
      "fzfg": false,
      "metar_trigger": false,
      "taf_trigger": false,
      "metar": "METAR LIMF 061620Z 10002KT 4000 BR NSC 14/05 Q1023",
      "taf": "TAF LIMF 061100Z 0612/0712 VRB04KT 6000 SCT030"
    },
    {
      "icao": "LIMJ",
      "alert": "OK",
      "vis_m": 9000,
      "fzfg": false,
      "metar_trigger": false,
      "taf_trigger": false,
      "metar": "METAR LIMJ 061620Z 03011KT 9000 NSC 15/07 Q1022",
      "taf": "TAF LIMJ 061100Z 0612/0712 35015KT 8000 FEW040"
    },
    {
      "icao": "LIPE",
      "alert": "OK",
      "vis_m": 7000,
      "fzfg": false,
      "metar_trigger": false,
      "taf_trigger": false,
      "metar": "METAR LIPE 061620Z 18003KT 110V220 7000 BKN038 13/06 Q1023",
      "taf": "TAF LIPE 061100Z 0612/0712 VRB04KT 7000 SCT025"
    },
    {
      "icao": "LIPH",
      "alert": "OK",
      "vis_m": 7000,
      "fzfg": false,
      "metar_trigger": false,
      "taf_trigger": false,
      "metar": "METAR LIPH 061620Z 13005KT 7000 NSC 16/09 Q1023",
      "taf": "TAF LIPH 061100Z 0612/0712 VRB03KT CAVOK"
    },
    {
      "icao": "LIPQ",
      "alert": "OK",
      "vis_m": 9999,
      "fzfg": false,
      "metar_trigger": false,
      "taf_trigger": false,
      "metar": "METAR LIPQ 061620Z AUTO 15005KT 140V200 9999 NCD 13/10 Q1023",
      "taf": "TAF LIPQ 061100Z 0612/0712 VRB04KT CAVOK"
    },
    {
      "icao": "LIPR",
      "alert": "OK",
      "vis_m": 9999,
      "fzfg": false,
      "metar_trigger": false,
      "taf_trigger": false,
      "metar": "METAR LIPR 061620Z 06003KT 9999 FEW035 11/09 Q1024",
      "taf": "TAF LIPR 061100Z 0612/0712 VRB04KT 9999 SCT030"
    },
    {
      "icao": "LIPX",
      "alert": "OK",
      "vis_m": 7000,
      "fzfg": false,
      "metar_trigger": false,
      "taf_trigger": false,
      "metar": "METAR LIPX 061620Z 22003KT 190V270 7000 NSC 14/07 Q1023",
      "taf": "TAF LIPX 061100Z 0612/0712 VRB05KT 6000 NSC"
    },
    {
      "icao": "LIPY",
      "alert": "OK",
      "vis_m": 9999,
      "fzfg": false,
      "metar_trigger": false,
      "taf_trigger": false,
      "metar": "METAR LIPY 061620Z AUTO 04006KT 9999 NCD 12/10 Q1024",
      "taf": "TAF LIPY 061100Z 0612/0712 04010KT 7000 SCT020"
    },
    {
      "icao": "LIPZ",
      "alert": "OK",
      "vis_m": 9999,
      "fzfg": false,
      "metar_trigger": false,
      "taf_trigger": false,
      "metar": "METAR LIPZ 061620Z 18002KT CAVOK 14/07 Q1024 NOSIG",
      "taf": "TAF LIPZ 061100Z 0612/0718 VRB03KT 7000 NSC"
    },
    {
      "icao": "LIRF",
      "alert": "OK",
      "vis_m": 9999,
      "fzfg": false,
      "metar_trigger": false,
      "taf_trigger": false,
      "metar": "METAR LIRF 061620Z 19002KT CAVOK 16/10 Q1020 NOSIG",
      "taf": "TAF LIRF 061100Z 0612/0718 17010KT CAVOK"
    },
    {
      "icao": "LIRN",
      "alert": "OK",
      "vis_m": 9999,
      "fzfg": false,
      "metar_trigger": false,
      "taf_trigger": false,
      "metar": "METAR LIRN 061620Z VRB02KT CAVOK 17/08 Q1021 NOSIG",
      "taf": "TAF LIRN 061100Z 0612/0712 04010KT CAVOK"
    },
    {
      "icao": "LIRP",
      "alert": "OK",
      "vis_m": 9999,
      "fzfg": false,
      "metar_trigger": false,
      "taf_trigger": false,
      "metar": "METAR LIRP 061615Z 22002KT 9999 SCT070 16/09 Q1021 NOSIG",
      "taf": "TAF LIRP 061100Z 0612/0712 VRB04KT 9999 SCT060"
    },
    {
      "icao": "LIRZ",
      "alert": "OK",
      "vis_m": 9999,
      "fzfg": false,
      "metar_trigger": false,
      "taf_trigger": false,
      "metar": "METAR LIRZ 061620Z AUTO 36008KT 9999 NCD 15/08 Q1021",
      "taf": "TAF LIRZ 061100Z 0612/0712 04008KT CAVOK"
    },
    {
      "icao": "LJLJ",
      "alert": "OK",
      "vis_m": 9999,
      "fzfg": false,
      "metar_trigger": false,
      "taf_trigger": false,
      "metar": "METAR LJLJ 061600Z 12004KT 070V140 CAVOK 15/05 Q1022 NOSIG",
      "taf": "TAF LJLJ 061100Z 0612/0712 12006KT CAVOK"
    },
    {
      "icao": "LKMT",
      "alert": "OK",
      "vis_m": 9999,
      "fzfg": false,
      "metar_trigger": false,
      "taf_trigger": false,
      "metar": "METAR LKMT 061600Z 03002KT CAVOK 14/M02 Q1025 NOSIG",
      "taf": "TAF LKMT 061100Z 0612/0712 VRB02KT CAVOK"
    },
    {
      "icao": "LKPR",
      "alert": "OK",
      "vis_m": 9999,
      "fzfg": false,
      "metar_trigger": false,
      "taf_trigger": false,
      "metar": "METAR LKPR 061600Z 04006KT CAVOK 13/04 Q1023 NOSIG",
      "taf": "TAF LKPR 061400Z 0615/0721 08006KT CAVOK"
    },
    {
      "icao": "LLBG",
      "alert": "OK",
      "vis_m": 9999,
      "fzfg": false,
      "metar_trigger": false,
      "taf_trigger": false,
      "metar": "METAR LLBG 061620Z 34007KT 9999 FEW037 16/07 Q1018 NOSIG",
      "taf": "TAF LLBG 061103Z 0612/0712 30010KT CAVOK TX20/0612Z TN10/0704Z"
    },
    {
      "icao": "LMML",
      "alert": "OK",
      "vis_m": 9999,
      "fzfg": false,
      "metar_trigger": false,
      "taf_trigger": false,
      "metar": "METAR LMML 061615Z 09012KT 9999 SCT008 BKN030 15/14 Q1019 NOSIG",
      "taf": ""
    },
    {
      "icao": "LOWW",
      "alert": "OK",
      "vis_m": 9999,
      "fzfg": false,
      "metar_trigger": false,
      "taf_trigger": false,
      "metar": "METAR LOWW 061620Z 13008KT CAVOK 14/04 Q1024 NOSIG",
      "taf": "TAF LOWW 061415Z 0615/0721 13012KT CAVOK TX16/0615Z TN05/0705Z"
    },
    {
      "icao": "LPFR",
      "alert": "OK",
      "vis_m": 9999,
      "fzfg": false,
      "metar_trigger": false,
      "taf_trigger": false,
      "metar": "METAR LPFR 061600Z 34011KT 9999 FEW025 BKN040 14/05 Q1015",
      "taf": "TAF LPFR 061100Z 0612/0712 32015KT 9999 SCT030"
    },
    {
      "icao": "LPMA",
      "alert": "OK",
      "vis_m": 9999,
      "fzfg": false,
      "metar_trigger": false,
      "taf_trigger": false,
      "metar": "METAR LPMA 061600Z 02017KT 350V050 9999 SCT016 SCT033 15/05 Q1026",
      "taf": "TAF LPMA 061100Z 0612/0712 01015KT 9999 SCT015"
    },
    {
      "icao": "LPPR",
      "alert": "OK",
      "vis_m": 9999,
      "fzfg": false,
      "metar_trigger": false,
      "taf_trigger": false,
      "metar": "METAR LPPR 061600Z 36012KT CAVOK 14/05 Q1018",
      "taf": "TAF LPPR 061100Z 0612/0712 35015KT 9999 SCT025"
    },
    {
      "icao": "LPPS",
      "alert": "OK",
      "vis_m": 9999,
      "fzfg": false,
      "metar_trigger": false,
      "taf_trigger": false,
      "metar": "METAR LPPS 061600Z 04013KT 360V080 9999 SCT015 BKN030 15/07 Q1027",
      "taf": "TAF LPPS 061100Z 0612/0718 04015KT 9999 FEW015 BKN030"
    },
    {
      "icao": "LPPT",
      "alert": "OK",
      "vis_m": 9999,
      "fzfg": false,
      "metar_trigger": false,
      "taf_trigger": false,
      "metar": "METAR LPPT 061600Z 34020G32KT 9999 FEW028 12/06 Q1017 WS R02",
      "taf": "TAF LPPT 061100Z 0612/0718 33020KT 9999 SCT025"
    },
    {
      "icao": "LQBK",
      "alert": "OK",
      "vis_m": 9999,
      "fzfg": false,
      "metar_trigger": false,
      "taf_trigger": false,
      "metar": "METAR LQBK 061600Z 03007KT CAVOK 16/01 Q1023 NOSIG",
      "taf": "TAF LQBK 061100Z 0612/0712 33005KT CAVOK TX18/0614Z TN00/0706Z"
    },
    {
      "icao": "LQSA",
      "alert": "OK",
      "vis_m": 9999,
      "fzfg": false,
      "metar_trigger": false,
      "taf_trigger": false,
      "metar": "METAR LQSA 061600Z 25003KT CAVOK 15/02 Q1022 NOSIG",
      "taf": "TAF LQSA 061100Z 0612/0712 VRB02KT CAVOK TX16/0614Z TNM00/0705Z"
    },
    {
      "icao": "LQTZ",
      "alert": "OK",
      "vis_m": 9999,
      "fzfg": false,
      "metar_trigger": false,
      "taf_trigger": false,
      "metar": "METAR LQTZ 061600Z 12007KT CAVOK 15/03 Q1023",
      "taf": "TAF LQTZ 061100Z 0612/0712 VRB02KT CAVOK TX18/0614Z TNM02/0706Z"
    },
    {
      "icao": "LRBC",
      "alert": "OK",
      "vis_m": 9999,
      "fzfg": false,
      "metar_trigger": false,
      "taf_trigger": false,
      "metar": "METAR LRBC 061600Z 33009KT CAVOK 09/M02 Q1025",
      "taf": "TAF LRBC 061400Z 0615/0624 36015KT CAVOK"
    },
    {
      "icao": "LRBS",
      "alert": "OK",
      "vis_m": 9999,
      "fzfg": false,
      "metar_trigger": false,
      "taf_trigger": false,
      "metar": "METAR LRBS 061600Z 00000KT CAVOK 12/02 Q1025 NOSIG",
      "taf": "TAF LRBS 061100Z 0612/0712 VRB04KT CAVOK"
    },
    {
      "icao": "LRBV",
      "alert": "OK",
      "vis_m": 9999,
      "fzfg": false,
      "metar_trigger": false,
      "taf_trigger": false,
      "metar": "METAR LRBV 061600Z 29006KT CAVOK 09/M04 Q1024",
      "taf": "TAF LRBV 061400Z 0615/0624 30010KT CAVOK"
    },
    {
      "icao": "LRCL",
      "alert": "OK",
      "vis_m": 9999,
      "fzfg": false,
      "metar_trigger": false,
      "taf_trigger": false,
      "metar": "METAR LRCL 061600Z 31004KT CAVOK 12/M06 Q1025",
      "taf": "TAF LRCL 061400Z 0615/0624 VRB04KT CAVOK"
    },
    {
      "icao": "LRCV",
      "alert": "OK",
      "vis_m": 9999,
      "fzfg": false,
      "metar_trigger": false,
      "taf_trigger": false,
      "metar": "METAR LRCV 061600Z 11003KT CAVOK 12/05 Q1024",
      "taf": "TAF LRCV 061400Z 0615/0624 08007KT CAVOK"
    },
    {
      "icao": "LRIA",
      "alert": "OK",
      "vis_m": 9999,
      "fzfg": false,
      "metar_trigger": false,
      "taf_trigger": false,
      "metar": "METAR LRIA 061600Z COR 32011KT CAVOK 09/M01 Q1026",
      "taf": "TAF LRIA 061400Z 0615/0624 32016KT CAVOK"
    },
    {
      "icao": "LROP",
      "alert": "OK",
      "vis_m": 9999,
      "fzfg": false,
      "metar_trigger": false,
      "taf_trigger": false,
      "metar": "METAR LROP 061600Z 00000KT CAVOK 11/M02 Q1025 NOSIG",
      "taf": "TAF LROP 061100Z 0612/0712 VRB04KT CAVOK"
    },
    {
      "icao": "LRSB",
      "alert": "OK",
      "vis_m": 9999,
      "fzfg": false,
      "metar_trigger": false,
      "taf_trigger": false,
      "metar": "METAR LRSB 061600Z 36003KT CAVOK 13/M06 Q1024",
      "taf": "TAF LRSB 061100Z 0612/0712 VRB04KT CAVOK"
    },
    {
      "icao": "LRSM",
      "alert": "OK",
      "vis_m": 9999,
      "fzfg": false,
      "metar_trigger": false,
      "taf_trigger": false,
      "metar": "METAR LRSM 061600Z 01004KT CAVOK 13/M02 Q1025",
      "taf": "TAF LRSM 061400Z 0615/0624 VRB04KT CAVOK"
    },
    {
      "icao": "LRSV",
      "alert": "OK",
      "vis_m": 9999,
      "fzfg": false,
      "metar_trigger": false,
      "taf_trigger": false,
      "metar": "METAR LRSV 061600Z 33007KT CAVOK 07/M02 Q1025",
      "taf": "TAF LRSV 061400Z 0615/0624 32015KT CAVOK"
    },
    {
      "icao": "LRTM",
      "alert": "OK",
      "vis_m": 9999,
      "fzfg": false,
      "metar_trigger": false,
      "taf_trigger": false,
      "metar": "METAR LRTM 061600Z VRB02KT CAVOK 13/M05 Q1024",
      "taf": "TAF LRTM 061400Z 0615/0624 VRB04KT CAVOK"
    },
    {
      "icao": "LRTR",
      "alert": "OK",
      "vis_m": 9999,
      "fzfg": false,
      "metar_trigger": false,
      "taf_trigger": false,
      "metar": "METAR LRTR 061600Z 35007KT CAVOK 13/00 Q1024",
      "taf": "TAF LRTR 061100Z 0612/0712 01012KT CAVOK"
    },
    {
      "icao": "LTAC",
      "alert": "OK",
      "vis_m": 9999,
      "fzfg": false,
      "metar_trigger": false,
      "taf_trigger": false,
      "metar": "METAR LTAC 061620Z 34005KT 290V010 9999 SCT040 BKN100 04/M04 Q1020 NOSIG RMK RWY21C 33010KT RWY03L 34007KT 300V020 RWY21R 32009KT RWY03R VRB02KT RWY21L 32006KT 280V350",
      "taf": "TAF LTAC 061040Z 0612/0712 31012KT 9999 SCT040 SCT100"
    },
    {
      "icao": "LTFM",
      "alert": "OK",
      "vis_m": 9999,
      "fzfg": false,
      "metar_trigger": false,
      "taf_trigger": false,
      "metar": "METAR LTFM 061620Z 05006KT 030V100 CAVOK 08/04 Q1025 NOSIG RMK RWY17L 08004KT RWY34L 06006KT RWY16R 08004KT RWY36 06007KT 010V080 RWY18 08004KT",
      "taf": "TAF LTFM 061040Z 0612/0718 01012KT CAVOK"
    },
    {
      "icao": "LUKK",
      "alert": "OK",
      "vis_m": 9999,
      "fzfg": false,
      "metar_trigger": false,
      "taf_trigger": false,
      "metar": "METAR LUKK 061600Z 01009KT CAVOK 08/M01 Q1025 NOSIG",
      "taf": "TAF LUKK 061109Z 0612/0712 33012KT 9999 SCT030"
    },
    {
      "icao": "LWOH",
      "alert": "OK",
      "vis_m": 9999,
      "fzfg": false,
      "metar_trigger": false,
      "taf_trigger": false,
      "metar": "METAR LWOH 061620Z 21003KT 100V230 CAVOK 09/03 Q1022",
      "taf": "TAF LWOH 061525Z 0615/0715 16008KT 9999 FEW040"
    },
    {
      "icao": "LWSK",
      "alert": "OK",
      "vis_m": 9999,
      "fzfg": false,
      "metar_trigger": false,
      "taf_trigger": false,
      "metar": "METAR LWSK 061620Z 19002KT CAVOK 14/03 Q1023 NOSIG",
      "taf": "TAF LWSK 061525Z 0615/0715 VRB02KT CAVOK"
    },
    {
      "icao": "LYBE",
      "alert": "OK",
      "vis_m": 9999,
      "fzfg": false,
      "metar_trigger": false,
      "taf_trigger": false,
      "metar": "METAR LYBE 061600Z 02004KT CAVOK 15/01 Q1025 NOSIG",
      "taf": "TAF LYBE 061100Z 0612/0712 05007KT 9999 FEW040 TX17/0712Z TN02/0705Z"
    },
    {
      "icao": "LYNI",
      "alert": "OK",
      "vis_m": 9999,
      "fzfg": false,
      "metar_trigger": false,
      "taf_trigger": false,
      "metar": "METAR LYNI 061600Z 33006KT CAVOK 15/03 Q1024 NOSIG",
      "taf": "TAF LYNI 061100Z 0612/0712 28005KT CAVOK TX17/0614Z TN01/0706Z"
    },
    {
      "icao": "LYPG",
      "alert": "OK",
      "vis_m": 9999,
      "fzfg": false,
      "metar_trigger": false,
      "taf_trigger": false,
      "metar": "METAR LYPG 061600Z 18001KT CAVOK 19/01 Q1021 NOSIG",
      "taf": "TAF LYPG 061100Z 0612/0712 16007KT CAVOK TX19/0614Z TN04/0705Z"
    },
    {
      "icao": "LZIB",
      "alert": "OK",
      "vis_m": 9999,
      "fzfg": false,
      "metar_trigger": false,
      "taf_trigger": false,
      "metar": "METAR LZIB 061600Z 10006KT CAVOK 15/04 Q1024 NOSIG",
      "taf": "TAF LZIB 061115Z 0612/0712 11008KT CAVOK"
    },
    {
      "icao": "LZKZ",
      "alert": "OK",
      "vis_m": 9999,
      "fzfg": false,
      "metar_trigger": false,
      "taf_trigger": false,
      "metar": "METAR LZKZ 061600Z 24004KT CAVOK 13/M03 Q1025 NOSIG",
      "taf": "TAF LZKZ 061115Z 0612/0712 VRB03KT CAVOK"
    },
    {
      "icao": "LZTT",
      "alert": "OK",
      "vis_m": 9999,
      "fzfg": false,
      "metar_trigger": false,
      "taf_trigger": false,
      "metar": "METAR LZTT 061600Z 08003KT CAVOK 11/M05 Q1025 NOSIG",
      "taf": "TAF LZTT 061115Z 0612/0712 VRB04KT CAVOK"
    },
    {
      "icao": "OEJN",
      "alert": "OK",
      "vis_m": 9999,
      "fzfg": false,
      "metar_trigger": false,
      "taf_trigger": false,
      "metar": "METAR OEJN 061600Z 32010KT CAVOK 26/16 Q1011 NOSIG",
      "taf": "TAF OEJN 061100Z 0612/0718 30012KT 7000 FEW040"
    },
    {
      "icao": "OEMA",
      "alert": "OK",
      "vis_m": 9999,
      "fzfg": false,
      "metar_trigger": false,
      "taf_trigger": false,
      "metar": "METAR OEMA 061600Z 33004KT 9999 FEW040 28/00 Q1014 NOSIG",
      "taf": "TAF OEMA 061100Z 0612/0718 27010KT 7000 FEW045"
    },
    {
      "icao": "OJAI",
      "alert": "OK",
      "vis_m": 5000,
      "fzfg": false,
      "metar_trigger": false,
      "taf_trigger": false,
      "metar": "METAR OJAI 061600Z 31009KT 5000 HZ NSC 14/01 Q1017 NOSIG",
      "taf": "TAF OJAI 061021Z 0612/0718 28008KT 5000 HZ NSC"
    },
    {
      "icao": "OMAA",
      "alert": "OK",
      "vis_m": null,
      "fzfg": false,
      "metar_trigger": false,
      "taf_trigger": false,
      "metar": "",
      "taf": ""
    },
    {
      "icao": "OMDB",
      "alert": "OK",
      "vis_m": null,
      "fzfg": false,
      "metar_trigger": false,
      "taf_trigger": false,
      "metar": "",
      "taf": ""
    },
    {
      "icao": "UAAA",
      "alert": "OK",
      "vis_m": 9999,
      "fzfg": false,
      "metar_trigger": false,
      "taf_trigger": false,
      "metar": "METAR UAAA 061600Z 04003MPS 9999 OVC016 01/M01 Q1024 NOSIG",
      "taf": "TAF UAAA 061101Z 0612/0712 04003MPS 3100 BR FU BKN011 OVC030 TX09/0709Z TNM01/0701Z"
    },
    {
      "icao": "UBBB",
      "alert": "OK",
      "vis_m": 9999,
      "fzfg": false,
      "metar_trigger": false,
      "taf_trigger": false,
      "metar": "METAR UBBB 061600Z 21012KT CAVOK 10/04 Q1012 NOSIG",
      "taf": "TAF UBBB 061050Z 0612/0712 19014G24KT CAVOK TX11/0612Z TN05/0701Z"
    },
    {
      "icao": "UDSG",
      "alert": "OK",
      "vis_m": 1600,
      "fzfg": false,
      "metar_trigger": false,
      "taf_trigger": false,
      "metar": "METAR UDSG 061600Z 07002KT 1600 R02/P2000D SN BR OVC023 M03/M03 Q1016 NOSIG",
      "taf": ""
    },
    {
      "icao": "UDYZ",
      "alert": "OK",
      "vis_m": 9999,
      "fzfg": false,
      "metar_trigger": false,
      "taf_trigger": false,
      "metar": "METAR UDYZ 061600Z 06009KT 9999 BKN046 05/M01 Q1017 NOSIG",
      "taf": "TAF UDYZ 061100Z 0612/0712 24006KT 9999 SCT040"
    },
    {
      "icao": "UGKO",
      "alert": "OK",
      "vis_m": 9999,
      "fzfg": false,
      "metar_trigger": false,
      "taf_trigger": false,
      "metar": "METAR UGKO 061600Z 14005KT 9999 -SHRA SCT023CB BKN048 03/02 Q1021 NOSIG",
      "taf": "TAF UGKO 061100Z 0612/0712 26012KT 9999 SCT020 BKN050 TX09/0711Z TN02/0703Z"
    }
  ]
}