{
  "ts_utc": "2026-07-12T20:30:22Z",
  "threshold_m": 150,
  "source": "stations_override.txt (ICAO list) + aviationweather.gov (METAR/TAF raw)",
  "station_count": 159,
  "stations": [
    {
      "icao": "BIKF",
      "alert": "OK",
      "vis_m": 6000,
      "fzfg": false,
      "metar_trigger": false,
      "taf_trigger": false,
      "metar": "METAR BIKF 122000Z 18023KT 6000 DZRA BR BKN008 OVC016 10/10 Q1020",
      "taf": "TAF BIKF 121934Z 1221/1321 18025G35KT 2000 RADZ OVC005 TX11/1314Z TN10/1306Z"
    },
    {
      "icao": "BKPR",
      "alert": "OK",
      "vis_m": null,
      "fzfg": false,
      "metar_trigger": false,
      "taf_trigger": false,
      "metar": "",
      "taf": "TAF BKPR 121730Z 1218/1318 VRB03KT 9999 SCT090"
    },
    {
      "icao": "EBCI",
      "alert": "OK",
      "vis_m": 9999,
      "fzfg": false,
      "metar_trigger": false,
      "taf_trigger": false,
      "metar": "METAR EBCI 122020Z 04011KT CAVOK 25/15 Q1021 NOSIG",
      "taf": "TAF EBCI 121705Z 1218/1324 04012KT CAVOK"
    },
    {
      "icao": "EDDB",
      "alert": "OK",
      "vis_m": 9999,
      "fzfg": false,
      "metar_trigger": false,
      "taf_trigger": false,
      "metar": "METAR EDDB 122020Z AUTO 03006KT CAVOK 23/14 Q1021 NOSIG",
      "taf": "TAF EDDB 121700Z 1218/1318 01012KT CAVOK"
    },
    {
      "icao": "EDDH",
      "alert": "OK",
      "vis_m": 9999,
      "fzfg": false,
      "metar_trigger": false,
      "taf_trigger": false,
      "metar": "METAR EDDH 122020Z AUTO 30007KT CAVOK 18/14 Q1023 NOSIG",
      "taf": "TAF EDDH 121700Z 1218/1324 31010KT CAVOK"
    },
    {
      "icao": "EDDK",
      "alert": "OK",
      "vis_m": 9999,
      "fzfg": false,
      "metar_trigger": false,
      "taf_trigger": false,
      "metar": "METAR EDDK 122020Z AUTO 04005KT CAVOK 25/14 Q1021 NOSIG",
      "taf": "TAF EDDK 121700Z 1218/1324 04007KT CAVOK"
    },
    {
      "icao": "EDDN",
      "alert": "OK",
      "vis_m": 9999,
      "fzfg": false,
      "metar_trigger": false,
      "taf_trigger": false,
      "metar": "METAR EDDN 122020Z AUTO 07004KT CAVOK 23/12 Q1021",
      "taf": "TAF EDDN 121700Z 1218/1318 02007KT CAVOK"
    },
    {
      "icao": "EDDS",
      "alert": "OK",
      "vis_m": 9999,
      "fzfg": false,
      "metar_trigger": false,
      "taf_trigger": false,
      "metar": "METAR EDDS 122020Z AUTO 04007KT CAVOK 24/09 Q1020 NOSIG",
      "taf": "TAF EDDS 121700Z 1218/1318 05008KT CAVOK"
    },
    {
      "icao": "EDFH",
      "alert": "OK",
      "vis_m": 9999,
      "fzfg": false,
      "metar_trigger": false,
      "taf_trigger": false,
      "metar": "METAR EDFH 122020Z 06008KT CAVOK 24/11 Q1022",
      "taf": "TAF EDFH 121700Z 1218/1318 08007KT CAVOK"
    },
    {
      "icao": "EDJA",
      "alert": "OK",
      "vis_m": 9999,
      "fzfg": false,
      "metar_trigger": false,
      "taf_trigger": false,
      "metar": "METAR EDJA 122020Z 08005KT CAVOK 19/09 Q1022",
      "taf": "TAF EDJA 121700Z 1218/1303 05005KT CAVOK"
    },
    {
      "icao": "EDLW",
      "alert": "OK",
      "vis_m": 9999,
      "fzfg": false,
      "metar_trigger": false,
      "taf_trigger": false,
      "metar": "METAR EDLW 122020Z 04005KT CAVOK 23/12 Q1022",
      "taf": "TAF EDLW 121700Z 1218/1318 03006KT CAVOK"
    },
    {
      "icao": "EDNY",
      "alert": "OK",
      "vis_m": 9999,
      "fzfg": false,
      "metar_trigger": false,
      "taf_trigger": false,
      "metar": "METAR EDNY 122020Z AUTO 05006KT 9999 // NCD 24/09 Q1020",
      "taf": "TAF EDNY 121700Z 1218/1303 03007KT CAVOK"
    },
    {
      "icao": "EDSB",
      "alert": "OK",
      "vis_m": 9999,
      "fzfg": false,
      "metar_trigger": false,
      "taf_trigger": false,
      "metar": "METAR EDSB 122020Z 05006KT CAVOK 25/09 Q1019",
      "taf": "TAF EDSB 121700Z 1218/1318 03014KT CAVOK"
    },
    {
      "icao": "EETN",
      "alert": "OK",
      "vis_m": 9999,
      "fzfg": false,
      "metar_trigger": false,
      "taf_trigger": false,
      "metar": "METAR EETN 122020Z 35006KT CAVOK 21/18 Q1017 NOSIG",
      "taf": "TAF EETN 121730Z 1218/1318 34010KT CAVOK"
    },
    {
      "icao": "EFTU",
      "alert": "OK",
      "vis_m": 9999,
      "fzfg": false,
      "metar_trigger": false,
      "taf_trigger": false,
      "metar": "METAR EFTU 122020Z AUTO 01005KT 330V040 CAVOK 19/17 Q1020",
      "taf": "TAF EFTU 121731Z 1218/1318 36005KT 9999 FEW040"
    },
    {
      "icao": "EGBB",
      "alert": "OK",
      "vis_m": 9999,
      "fzfg": false,
      "metar_trigger": false,
      "taf_trigger": false,
      "metar": "METAR EGBB 122020Z 06012KT CAVOK 20/10 Q1027",
      "taf": "TAF EGBB 121654Z 1218/1318 06012KT CAVOK"
    },
    {
      "icao": "EGGP",
      "alert": "OK",
      "vis_m": 9999,
      "fzfg": false,
      "metar_trigger": false,
      "taf_trigger": false,
      "metar": "METAR EGGP 122020Z 08012KT 9999 5000N NSC 21/11 Q1027",
      "taf": "TAF EGGP 121657Z 1218/1318 10012KT CAVOK"
    },
    {
      "icao": "EGGW",
      "alert": "OK",
      "vis_m": 9999,
      "fzfg": false,
      "metar_trigger": false,
      "taf_trigger": false,
      "metar": "METAR EGGW 122020Z AUTO 05014KT 9999 NCD 21/09 Q1025",
      "taf": "TAF EGGW 121659Z 1218/1318 05012KT 9999 FEW020"
    },
    {
      "icao": "EGKK",
      "alert": "OK",
      "vis_m": 9999,
      "fzfg": false,
      "metar_trigger": false,
      "taf_trigger": false,
      "metar": "METAR EGKK 122020Z 06012KT CAVOK 21/07 Q1024",
      "taf": "TAF EGKK 121655Z 1218/1324 07012KT 9999 FEW045"
    },
    {
      "icao": "EGNM",
      "alert": "OK",
      "vis_m": 9999,
      "fzfg": false,
      "metar_trigger": false,
      "taf_trigger": false,
      "metar": "METAR EGNM 122020Z 05008KT 010V090 CAVOK 16/10 Q1029",
      "taf": "TAF EGNM 121657Z 1218/1318 06010KT CAVOK"
    },
    {
      "icao": "EGPD",
      "alert": "OK",
      "vis_m": 9999,
      "fzfg": false,
      "metar_trigger": false,
      "taf_trigger": false,
      "metar": "METAR EGPD 122020Z AUTO 09004KT 9999 NCD 13/10 Q1032",
      "taf": "TAF EGPD 121656Z 1218/1318 10010KT 9999 SCT020"
    },
    {
      "icao": "EGPF",
      "alert": "OK",
      "vis_m": 9999,
      "fzfg": false,
      "metar_trigger": false,
      "taf_trigger": false,
      "metar": "METAR EGPF 122020Z AUTO 06014KT 9999 NCD 16/10 Q1031",
      "taf": "TAF EGPF 121653Z 1218/1318 06009KT 9999 FEW025"
    },
    {
      "icao": "EHBK",
      "alert": "OK",
      "vis_m": 9999,
      "fzfg": false,
      "metar_trigger": false,
      "taf_trigger": false,
      "metar": "METAR EHBK 122025Z AUTO 03015KT 360V060 9999 NCD 25/12 Q1021 NOSIG",
      "taf": "TAF EHBK 121656Z 1218/1324 03008KT CAVOK"
    },
    {
      "icao": "EHEH",
      "alert": "OK",
      "vis_m": 9999,
      "fzfg": false,
      "metar_trigger": false,
      "taf_trigger": false,
      "metar": "METAR EHEH 121955Z AUTO 02009KT 340V080 9999 OVC250 24/11 Q1022 BLU NOSIG RMK TREND REMOTE BY EHWX",
      "taf": ""
    },
    {
      "icao": "EKBI",
      "alert": "OK",
      "vis_m": 9999,
      "fzfg": false,
      "metar_trigger": false,
      "taf_trigger": false,
      "metar": "METAR EKBI 122020Z AUTO 08002KT 9999 FEW052/// 20/17 Q1024",
      "taf": "TAF EKBI 122027Z 1221/1321 06005KT 9999 FEW030"
    },
    {
      "icao": "EKCH",
      "alert": "OK",
      "vis_m": 9999,
      "fzfg": false,
      "metar_trigger": false,
      "taf_trigger": false,
      "metar": "METAR EKCH 122020Z AUTO 35007KT 9999 BKN150/// 22/16 Q1022 NOSIG",
      "taf": "TAF EKCH 122027Z 1221/1321 36005KT CAVOK"
    },
    {
      "icao": "ENAL",
      "alert": "OK",
      "vis_m": 9999,
      "fzfg": false,
      "metar_trigger": false,
      "taf_trigger": false,
      "metar": "METAR ENAL 122020Z 04009KT CAVOK 13/10 Q1031",
      "taf": "TAF ENAL 121700Z 1218/1303 03009KT CAVOK"
    },
    {
      "icao": "ENBR",
      "alert": "OK",
      "vis_m": 9999,
      "fzfg": false,
      "metar_trigger": false,
      "taf_trigger": false,
      "metar": "METAR ENBR 122020Z 32010KT CAVOK 13/10 Q1027 RMK WIND 1200FT 35014KT",
      "taf": "TAF ENBR 121700Z 1218/1318 34009KT CAVOK"
    },
    {
      "icao": "ENGM",
      "alert": "OK",
      "vis_m": 9999,
      "fzfg": false,
      "metar_trigger": false,
      "taf_trigger": false,
      "metar": "METAR ENGM 122020Z VRB01KT CAVOK 20/07 Q1026 NOSIG",
      "taf": "TAF ENGM 121700Z 1218/1318 01008KT CAVOK"
    },
    {
      "icao": "ENHD",
      "alert": "OK",
      "vis_m": 9999,
      "fzfg": false,
      "metar_trigger": false,
      "taf_trigger": false,
      "metar": "METAR ENHD 122020Z 35019KT CAVOK 12/10 Q1027",
      "taf": "TAF ENHD 121400Z 1215/1222 34018KT CAVOK"
    },
    {
      "icao": "ENTC",
      "alert": "OK",
      "vis_m": 9999,
      "fzfg": false,
      "metar_trigger": false,
      "taf_trigger": false,
      "metar": "METAR ENTC 122020Z 22021KT 9999 BKN048 12/07 Q1025 NOSIG RMK WIND 2600FT 20021KT",
      "taf": ""
    },
    {
      "icao": "ENTO",
      "alert": "OK",
      "vis_m": 9999,
      "fzfg": false,
      "metar_trigger": false,
      "taf_trigger": false,
      "metar": "METAR ENTO 122020Z 34002KT CAVOK 20/10 Q1026 NOSIG",
      "taf": "TAF ENTO 121700Z 1218/1318 02008KT CAVOK"
    },
    {
      "icao": "ENVA",
      "alert": "OK",
      "vis_m": 9999,
      "fzfg": false,
      "metar_trigger": false,
      "taf_trigger": false,
      "metar": "METAR ENVA 122020Z 29005KT CAVOK 15/08 Q1030 RMK WIND 670FT 27010KT",
      "taf": "TAF ENVA 121700Z 1218/1318 27005KT CAVOK"
    },
    {
      "icao": "ENZV",
      "alert": "OK",
      "vis_m": 9999,
      "fzfg": false,
      "metar_trigger": false,
      "taf_trigger": false,
      "metar": "METAR ENZV 122020Z 32006KT CAVOK 14/11 Q1027",
      "taf": "TAF ENZV 121700Z 1218/1318 30008KT CAVOK"
    },
    {
      "icao": "EPGD",
      "alert": "OK",
      "vis_m": 9000,
      "fzfg": false,
      "metar_trigger": false,
      "taf_trigger": false,
      "metar": "METAR EPGD 122000Z 32010KT 9000 OVC002 16/15 Q1020",
      "taf": "TAF EPGD 121730Z 1218/1318 33007KT 9999 SCT011"
    },
    {
      "icao": "EPKK",
      "alert": "OK",
      "vis_m": 9999,
      "fzfg": false,
      "metar_trigger": false,
      "taf_trigger": false,
      "metar": "METAR EPKK 122000Z 31004KT 9999 BKN040 18/14 Q1018",
      "taf": "TAF EPKK 121730Z 1218/1318 VRB02KT 9999 SCT035"
    },
    {
      "icao": "EPKT",
      "alert": "OK",
      "vis_m": 9999,
      "fzfg": false,
      "metar_trigger": false,
      "taf_trigger": false,
      "metar": "METAR EPKT 122000Z VRB02KT 9999 BKN032 15/15 Q1018",
      "taf": "TAF EPKT 121730Z 1218/1318 35005KT 9999 SCT030"
    },
    {
      "icao": "EPLB",
      "alert": "OK",
      "vis_m": 9999,
      "fzfg": false,
      "metar_trigger": false,
      "taf_trigger": false,
      "metar": "METAR EPLB 122000Z 31005KT 9999 FEW023 16/14 Q1017",
      "taf": "TAF EPLB 121730Z 1218/1318 VRB04KT 9999 BKN035"
    },
    {
      "icao": "EPMO",
      "alert": "OK",
      "vis_m": 9999,
      "fzfg": false,
      "metar_trigger": false,
      "taf_trigger": false,
      "metar": "METAR EPMO 122000Z 30004KT CAVOK 15/14 Q1018",
      "taf": "TAF EPMO 121730Z 1218/1318 34006KT 9999 BKN030"
    },
    {
      "icao": "EPPO",
      "alert": "OK",
      "vis_m": 9999,
      "fzfg": false,
      "metar_trigger": false,
      "taf_trigger": false,
      "metar": "METAR EPPO 122000Z 34004KT 9999 SCT036 21/16 Q1019",
      "taf": "TAF EPPO 121730Z 1218/1318 36008KT CAVOK"
    },
    {
      "icao": "EPRA",
      "alert": "OK",
      "vis_m": 9999,
      "fzfg": false,
      "metar_trigger": false,
      "taf_trigger": false,
      "metar": "METAR EPRA 122000Z 35003KT CAVOK 16/15 Q1017",
      "taf": "TAF EPRA 121730Z 1218/1303 34004KT 9999 BKN040"
    },
    {
      "icao": "EPRZ",
      "alert": "OK",
      "vis_m": 9999,
      "fzfg": false,
      "metar_trigger": false,
      "taf_trigger": false,
      "metar": "METAR EPRZ 122000Z 25004KT 9999 FEW011 SCT040 16/15 Q1017",
      "taf": "TAF EPRZ 121730Z 1218/1318 24004KT 9999 BKN040"
    },
    {
      "icao": "EPSC",
      "alert": "OK",
      "vis_m": 9999,
      "fzfg": false,
      "metar_trigger": false,
      "taf_trigger": false,
      "metar": "METAR EPSC 122000Z 33006KT CAVOK 19/15 Q1021",
      "taf": "TAF EPSC 121730Z 1218/1318 01006KT 9999 SCT035"
    },
    {
      "icao": "EPSY",
      "alert": "OK",
      "vis_m": 9999,
      "fzfg": false,
      "metar_trigger": false,
      "taf_trigger": false,
      "metar": "METAR EPSY 122000Z 29004KT 250V330 9999 FEW041 18/15 Q1017",
      "taf": "TAF EPSY 121730Z 1218/1303 35004KT 9999 SCT030"
    },
    {
      "icao": "EPWA",
      "alert": "OK",
      "vis_m": 9999,
      "fzfg": false,
      "metar_trigger": false,
      "taf_trigger": false,
      "metar": "METAR EPWA 122000Z 30003KT CAVOK 16/15 Q1017 NOSIG",
      "taf": "TAF EPWA 121730Z 1218/1318 34005KT 9999 BKN030"
    },
    {
      "icao": "EPWR",
      "alert": "OK",
      "vis_m": 9999,
      "fzfg": false,
      "metar_trigger": false,
      "taf_trigger": false,
      "metar": "METAR EPWR 122000Z 31005KT 9999 -SHRA SCT044CB 22/15 Q1018",
      "taf": "TAF EPWR 121730Z 1218/1318 35010KT CAVOK"
    },
    {
      "icao": "ESGG",
      "alert": "OK",
      "vis_m": 9999,
      "fzfg": false,
      "metar_trigger": false,
      "taf_trigger": false,
      "metar": "METAR ESGG 122020Z 02009KT CAVOK 18/15 Q1024",
      "taf": "TAF ESGG 121730Z 1218/1318 03010KT CAVOK"
    },
    {
      "icao": "ESKN",
      "alert": "OK",
      "vis_m": 9999,
      "fzfg": false,
      "metar_trigger": false,
      "taf_trigger": false,
      "metar": "METAR ESKN 122020Z 33006KT CAVOK 18/11 Q1024",
      "taf": "TAF ESKN 121730Z 1218/1318 36007KT CAVOK"
    },
    {
      "icao": "ESMS",
      "alert": "OK",
      "vis_m": 9999,
      "fzfg": false,
      "metar_trigger": false,
      "taf_trigger": false,
      "metar": "METAR ESMS 122020Z 12005KT 090V150 CAVOK 18/14 Q1022",
      "taf": "TAF ESMS 121727Z 1218/1318 16010KT CAVOK"
    },
    {
      "icao": "ESSA",
      "alert": "OK",
      "vis_m": 9999,
      "fzfg": false,
      "metar_trigger": false,
      "taf_trigger": false,
      "metar": "METAR ESSA 122020Z 35011KT CAVOK 15/07 Q1024 NOSIG",
      "taf": "TAF ESSA 121730Z 1218/1318 36008KT CAVOK"
    },
    {
      "icao": "EYKA",
      "alert": "OK",
      "vis_m": 9999,
      "fzfg": false,
      "metar_trigger": false,
      "taf_trigger": false,
      "metar": "METAR EYKA 122020Z 30006KT 9999 FEW025 18/16 Q1015",
      "taf": "TAF EYKA 121700Z 1218/1318 VRB03KT 9000 NSC"
    },
    {
      "icao": "EYPA",
      "alert": "OK",
      "vis_m": 9999,
      "fzfg": false,
      "metar_trigger": false,
      "taf_trigger": false,
      "metar": "METAR EYPA 122020Z VRB02KT CAVOK 18/17 Q1017",
      "taf": "TAF EYPA 121700Z 1218/1318 VRB03KT 9000 NSC"
    },
    {
      "icao": "EYVI",
      "alert": "OK",
      "vis_m": 9999,
      "fzfg": false,
      "metar_trigger": false,
      "taf_trigger": false,
      "metar": "METAR EYVI 122020Z COR 31007KT 9999 VCTS SCT026CB 18/16 Q1014 NOSIG",
      "taf": "TAF EYVI 121710Z 1218/1318 VRB03KT 9000 NSC"
    },
    {
      "icao": "GCFV",
      "alert": "OK",
      "vis_m": 9999,
      "fzfg": false,
      "metar_trigger": false,
      "taf_trigger": false,
      "metar": "METAR GCFV 122000Z 35011KT 9999 FEW035 24/15 Q1016",
      "taf": "TAF GCFV 122000Z 1221/1321 06010KT 9999 SCT030 TX25/1314Z TN21/1306Z"
    },
    {
      "icao": "GCLP",
      "alert": "OK",
      "vis_m": 9999,
      "fzfg": false,
      "metar_trigger": false,
      "taf_trigger": false,
      "metar": "METAR GCLP 122000Z 36016KT 9999 FEW030 23/16 Q1017 NOSIG",
      "taf": "TAF GCLP 122000Z 1221/1321 02016KT 9999 FEW030 TX26/1314Z TN20/1306Z"
    },
    {
      "icao": "GCTS",
      "alert": "OK",
      "vis_m": 9999,
      "fzfg": false,
      "metar_trigger": false,
      "taf_trigger": false,
      "metar": "METAR GCTS 122000Z 12007KT 9999 FEW035 23/17 Q1017 NOSIG",
      "taf": "TAF GCTS 122000Z 1221/1321 05009KT 9999 SCT030 TX26/1314Z TN19/1306Z"
    },
    {
      "icao": "GMAD",
      "alert": "OK",
      "vis_m": 9999,
      "fzfg": false,
      "metar_trigger": false,
      "taf_trigger": false,
      "metar": "METAR GMAD 122000Z 22011KT CAVOK 23/17 Q1014 NOSIG",
      "taf": ""
    },
    {
      "icao": "GMMN",
      "alert": "OK",
      "vis_m": 9999,
      "fzfg": false,
      "metar_trigger": false,
      "taf_trigger": false,
      "metar": "METAR GMMN 122000Z 01009KT 340V040 9999 FEW030 23/17 Q1016 NOSIG",
      "taf": "TAF GMMN 121700Z 1218/1324 36010KT 9999 SCT030"
    },
    {
      "icao": "GMMX",
      "alert": "OK",
      "vis_m": 9999,
      "fzfg": false,
      "metar_trigger": false,
      "taf_trigger": false,
      "metar": "METAR GMMX 122000Z 36011KT 300V040 9999 SCT030 28/17 Q1014 NOSIG",
      "taf": "TAF GMMX 121700Z 1218/1324 30006KT 8000 SCT030"
    },
    {
      "icao": "HEGN",
      "alert": "OK",
      "vis_m": 9999,
      "fzfg": false,
      "metar_trigger": false,
      "taf_trigger": false,
      "metar": "METAR HEGN 122000Z 30010KT CAVOK 32/10 Q1007 NOSIG",
      "taf": "TAF HEGN 121700Z 1218/1324 31015KT CAVOK"
    },
    {
      "icao": "HEMA",
      "alert": "OK",
      "vis_m": 9999,
      "fzfg": false,
      "metar_trigger": false,
      "taf_trigger": false,
      "metar": "METAR HEMA 122000Z 33005KT CAVOK 31/12 Q1006 NOSIG",
      "taf": "TAF HEMA 121700Z 1218/1324 30015KT CAVOK"
    },
    {
      "icao": "HESH",
      "alert": "OK",
      "vis_m": 9999,
      "fzfg": false,
      "metar_trigger": false,
      "taf_trigger": false,
      "metar": "METAR HESH 122000Z 34011KT CAVOK 35/12 Q1005 NOSIG",
      "taf": "TAF HESH 121700Z 1218/1324 35014KT CAVOK"
    },
    {
      "icao": "HESX",
      "alert": "OK",
      "vis_m": 9999,
      "fzfg": false,
      "metar_trigger": false,
      "taf_trigger": false,
      "metar": "METAR HESX 122000Z 01010KT CAVOK 25/16 Q1011 NOSIG",
      "taf": "TAF HESX 121700Z 1218/1324 35015KT CAVOK"
    },
    {
      "icao": "LATI",
      "alert": "OK",
      "vis_m": 9999,
      "fzfg": false,
      "metar_trigger": false,
      "taf_trigger": false,
      "metar": "METAR LATI 122020Z VRB03KT CAVOK 24/17 Q1015 NOSIG",
      "taf": "TAF LATI 121700Z 1218/1318 34008KT CAVOK TX36/1312Z TN17/1304Z"
    },
    {
      "icao": "LBPD",
      "alert": "OK",
      "vis_m": 9999,
      "fzfg": false,
      "metar_trigger": false,
      "taf_trigger": false,
      "metar": "METAR LBPD 122000Z AUTO 17005KT 9999 FEW093/// BKN170/// 20/18 Q1015",
      "taf": "TAF LBPD 121700Z 1218/1318 VRB03KT 9999 SCT070"
    },
    {
      "icao": "LBSF",
      "alert": "OK",
      "vis_m": 9999,
      "fzfg": false,
      "metar_trigger": false,
      "taf_trigger": false,
      "metar": "METAR LBSF 122000Z AUTO 30006KT 9999 NCD 20/16 Q1018 NOSIG",
      "taf": "TAF LBSF 121700Z 1218/1318 29012KT 9999 SCT050"
    },
    {
      "icao": "LBWN",
      "alert": "OK",
      "vis_m": 9999,
      "fzfg": false,
      "metar_trigger": false,
      "taf_trigger": false,
      "metar": "METAR LBWN 122000Z AUTO 17003KT 140V200 9999 NSC 22/18 Q1014 TEMPO 5000 SHRA FEW030TCU",
      "taf": "TAF LBWN 121700Z 1218/1318 VRB04KT 9999 SCT050"
    },
    {
      "icao": "LCLK",
      "alert": "OK",
      "vis_m": 9999,
      "fzfg": false,
      "metar_trigger": false,
      "taf_trigger": false,
      "metar": "METAR LCLK 122000Z 18003KT CAVOK 27/25 Q1007 NOSIG",
      "taf": "TAF LCLK 121730Z 1218/1318 22005KT CAVOK"
    },
    {
      "icao": "LCPH",
      "alert": "OK",
      "vis_m": 9999,
      "fzfg": false,
      "metar_trigger": false,
      "taf_trigger": false,
      "metar": "METAR LCPH 122000Z 33006KT CAVOK 26/24 Q1007 NOSIG",
      "taf": "TAF LCPH 121730Z 1218/1318 34008KT CAVOK"
    },
    {
      "icao": "LEAL",
      "alert": "OK",
      "vis_m": 9999,
      "fzfg": false,
      "metar_trigger": false,
      "taf_trigger": false,
      "metar": "METAR LEAL 122000Z 09005KT 070V130 9999 FEW010 SCT017 28/26 Q1012 NOSIG",
      "taf": "TAF LEAL 121700Z 1218/1318 09010KT 9999 FEW030 TX33/1312Z TN24/1306Z"
    },
    {
      "icao": "LEBB",
      "alert": "OK",
      "vis_m": 9999,
      "fzfg": false,
      "metar_trigger": false,
      "taf_trigger": false,
      "metar": "METAR LEBB 122000Z 32007KT 290V030 9999 FEW015 25/21 Q1010 TEMPO 3000 TSRA SCT040CB",
      "taf": "TAF LEBB 121700Z 1218/1318 34009KT 9999 SCT030 TX28/1314Z TN21/1305Z"
    },
    {
      "icao": "LEBL",
      "alert": "OK",
      "vis_m": 9999,
      "fzfg": false,
      "metar_trigger": false,
      "taf_trigger": false,
      "metar": "METAR LEBL 122000Z 05009KT 9999 FEW015 27/24 Q1014 NOSIG",
      "taf": "TAF LEBL 121700Z 1218/1318 06012KT 9999 SCT015 TX32/1312Z TN25/1306Z"
    },
    {
      "icao": "LECH",
      "alert": "OK",
      "vis_m": 9000,
      "fzfg": false,
      "metar_trigger": false,
      "taf_trigger": false,
      "metar": "METAR LECH 122000Z AUTO 07008KT 9000 NSC 25/22 Q1014",
      "taf": "TAF LECH 121700Z 1218/1318 09010KT CAVOK TX33/1312Z TN19/1306Z"
    },
    {
      "icao": "LEMD",
      "alert": "OK",
      "vis_m": 9999,
      "fzfg": false,
      "metar_trigger": false,
      "taf_trigger": false,
      "metar": "METAR LEMD 122000Z 26010KT CAVOK 28/10 Q1013 NOSIG",
      "taf": ""
    },
    {
      "icao": "LEMG",
      "alert": "OK",
      "vis_m": 9999,
      "fzfg": false,
      "metar_trigger": false,
      "taf_trigger": false,
      "metar": "METAR LEMG 122000Z 31007KT CAVOK 30/14 Q1012 NOSIG",
      "taf": "TAF LEMG 121700Z 1218/1318 VRB03KT CAVOK TX34/1314Z TN21/1305Z"
    },
    {
      "icao": "LEVC",
      "alert": "OK",
      "vis_m": 9999,
      "fzfg": false,
      "metar_trigger": false,
      "taf_trigger": false,
      "metar": "METAR LEVC 122000Z 08006KT 050V130 9999 FEW015 27/24 Q1013 NOSIG",
      "taf": "TAF LEVC 121700Z 1218/1318 07010KT 9999 FEW020 TX31/1314Z TN23/1306Z"
    },
    {
      "icao": "LEXJ",
      "alert": "OK",
      "vis_m": 6000,
      "fzfg": false,
      "metar_trigger": false,
      "taf_trigger": false,
      "metar": "METAR LEXJ 122000Z 29016KT 250V340 6000 -RA SCT010 BKN034CB 21/20 Q1012 RETS RESHRA",
      "taf": "TAF LEXJ 122000Z 1221/1321 28009KT 9999 FEW020 SCT040 TX27/1314Z TN21/1304Z"
    },
    {
      "icao": "LEZG",
      "alert": "OK",
      "vis_m": 9999,
      "fzfg": false,
      "metar_trigger": false,
      "taf_trigger": false,
      "metar": "METAR LEZG 122000Z 10014KT 070V130 CAVOK 29/18 Q1011 NOSIG",
      "taf": "TAF LEZG 121700Z 1218/1318 10010KT CAVOK TX37/1315Z TN23/1306Z"
    },
    {
      "icao": "LEZL",
      "alert": "OK",
      "vis_m": 9999,
      "fzfg": false,
      "metar_trigger": false,
      "taf_trigger": false,
      "metar": "METAR LEZL 122000Z 23009KT 190V260 CAVOK 26/15 Q1014 NOSIG",
      "taf": "TAF LEZL 122000Z 1221/1321 23010KT CAVOK TX33/1315Z TN18/1305Z"
    },
    {
      "icao": "LFBD",
      "alert": "OK",
      "vis_m": 9999,
      "fzfg": false,
      "metar_trigger": false,
      "taf_trigger": false,
      "metar": "METAR LFBD 122000Z AUTO 11003KT 080V140 CAVOK 33/14 Q1008 TEMPO VRB25G40KT 3000 TSRA BKN080CB",
      "taf": "TAF LFBD 121700Z 1218/1324 10010KT CAVOK TX38/1218Z TN24/1305Z"
    },
    {
      "icao": "LFLL",
      "alert": "OK",
      "vis_m": 9999,
      "fzfg": false,
      "metar_trigger": false,
      "taf_trigger": false,
      "metar": "METAR LFLL 122000Z 00000KT CAVOK 32/13 Q1014 NOSIG",
      "taf": "TAF LFLL 121700Z 1218/1324 04005KT CAVOK"
    },
    {
      "icao": "LFLS",
      "alert": "OK",
      "vis_m": 9999,
      "fzfg": false,
      "metar_trigger": false,
      "taf_trigger": false,
      "metar": "METAR LFLS 122000Z AUTO 10006KT CAVOK 24/12 Q1016",
      "taf": ""
    },
    {
      "icao": "LFMN",
      "alert": "OK",
      "vis_m": 9999,
      "fzfg": false,
      "metar_trigger": false,
      "taf_trigger": false,
      "metar": "METAR LFMN 122000Z 21004KT CAVOK 27/24 Q1015 NOSIG",
      "taf": "TAF LFMN 122000Z 1221/1403 VRB04KT CAVOK"
    },
    {
      "icao": "LFOB",
      "alert": "OK",
      "vis_m": 9999,
      "fzfg": false,
      "metar_trigger": false,
      "taf_trigger": false,
      "metar": "METAR LFOB 122000Z AUTO 04015KT CAVOK 29/13 Q1018 BECMG 04012G22KT",
      "taf": "TAF LFOB 121700Z 1218/1318 04012G22KT CAVOK"
    },
    {
      "icao": "LFPO",
      "alert": "OK",
      "vis_m": 9999,
      "fzfg": false,
      "metar_trigger": false,
      "taf_trigger": false,
      "metar": "METAR LFPO 122000Z AUTO 06011KT CAVOK 31/08 Q1016 NOSIG",
      "taf": "TAF LFPO 121700Z 1218/1324 06012KT CAVOK"
    },
    {
      "icao": "LFSB",
      "alert": "OK",
      "vis_m": 9999,
      "fzfg": false,
      "metar_trigger": false,
      "taf_trigger": false,
      "metar": "METAR LFSB 122000Z AUTO 01003KT 340V060 CAVOK 26/10 Q1018 NOSIG",
      "taf": "TAF LFSB 121700Z 1218/1318 02008KT CAVOK"
    },
    {
      "icao": "LGAV",
      "alert": "OK",
      "vis_m": 9999,
      "fzfg": false,
      "metar_trigger": false,
      "taf_trigger": false,
      "metar": "METAR LGAV 122020Z 23006KT CAVOK 26/14 Q1013 NOSIG",
      "taf": "TAF LGAV 121700Z 1218/1318 04010KT 9999 FEW025"
    },
    {
      "icao": "LGTS",
      "alert": "OK",
      "vis_m": 9999,
      "fzfg": false,
      "metar_trigger": false,
      "taf_trigger": false,
      "metar": "METAR LGTS 122020Z 15006KT 9999 FEW020 26/16 Q1013 NOSIG",
      "taf": "TAF LGTS 121700Z 1218/1318 16013KT 9999 FEW030"
    },
    {
      "icao": "LHBP",
      "alert": "OK",
      "vis_m": 9999,
      "fzfg": false,
      "metar_trigger": false,
      "taf_trigger": false,
      "metar": "METAR LHBP 122000Z 33006KT CAVOK 20/14 Q1017 NOSIG",
      "taf": "TAF LHBP 121715Z 1218/1318 31012KT CAVOK"
    },
    {
      "icao": "LHDC",
      "alert": "OK",
      "vis_m": 9999,
      "fzfg": false,
      "metar_trigger": false,
      "taf_trigger": false,
      "metar": "METAR LHDC 121945Z AUTO 30003KT 270V330 9999 SCT078 BKN099 //////TCU 18/14 Q1016 NOSIG",
      "taf": "TAF LHDC 121715Z 1218/1303 33005KT CAVOK"
    },
    {
      "icao": "LIBD",
      "alert": "OK",
      "vis_m": 9999,
      "fzfg": false,
      "metar_trigger": false,
      "taf_trigger": false,
      "metar": "METAR LIBD 122020Z 31005KT 280V350 CAVOK 25/21 Q1016",
      "taf": "TAF LIBD 121700Z 1218/1318 VRB05KT CAVOK"
    },
    {
      "icao": "LIBG",
      "alert": "OK",
      "vis_m": 9999,
      "fzfg": false,
      "metar_trigger": false,
      "taf_trigger": false,
      "metar": "METAR LIBG 122020Z AUTO 01008KT 9999 NCD 25/20 Q1015",
      "taf": "TAF LIBG 121700Z 1218/1318 VRB05KT 9999 FEW040"
    },
    {
      "icao": "LIBP",
      "alert": "OK",
      "vis_m": 9999,
      "fzfg": false,
      "metar_trigger": false,
      "taf_trigger": false,
      "metar": "METAR LIBP 122020Z AUTO VRB01KT 9999 NCD 23/20 Q1017",
      "taf": "TAF LIBP 121700Z 1218/1318 VRB05KT CAVOK"
    },
    {
      "icao": "LIBR",
      "alert": "OK",
      "vis_m": 9999,
      "fzfg": false,
      "metar_trigger": false,
      "taf_trigger": false,
      "metar": "METAR LIBR 122020Z 35010KT CAVOK 26/22 Q1015",
      "taf": "TAF LIBR 121700Z 1218/1318 34013KT CAVOK"
    },
    {
      "icao": "LICA",
      "alert": "OK",
      "vis_m": 9999,
      "fzfg": false,
      "metar_trigger": false,
      "taf_trigger": false,
      "metar": "METAR LICA 122020Z AUTO 06005KT 9999 NCD 26/20 Q1014",
      "taf": "TAF LICA 121700Z 1218/1318 VRB05KT CAVOK"
    },
    {
      "icao": "LICC",
      "alert": "OK",
      "vis_m": 9999,
      "fzfg": false,
      "metar_trigger": false,
      "taf_trigger": false,
      "metar": "METAR LICC 122020Z 27010KT CAVOK 29/13 Q1013",
      "taf": "TAF LICC 121700Z 1218/1318 26009KT CAVOK"
    },
    {
      "icao": "LICJ",
      "alert": "OK",
      "vis_m": 9999,
      "fzfg": false,
      "metar_trigger": false,
      "taf_trigger": false,
      "metar": "METAR LICJ 122020Z 07010KT 9999 FEW025 29/22 Q1015",
      "taf": "TAF LICJ 121700Z 1218/1318 05012KT CAVOK"
    },
    {
      "icao": "LIMC",
      "alert": "OK",
      "vis_m": 9999,
      "fzfg": false,
      "metar_trigger": false,
      "taf_trigger": false,
      "metar": "METAR LIMC 122020Z 16004KT CAVOK 28/17 Q1017 NOSIG",
      "taf": "TAF LIMC 121700Z 1218/1324 VRB05KT CAVOK"
    },
    {
      "icao": "LIME",
      "alert": "OK",
      "vis_m": 9999,
      "fzfg": false,
      "metar_trigger": false,
      "taf_trigger": false,
      "metar": "METAR LIME 122020Z 09003KT CAVOK 28/18 Q1017 NOSIG",
      "taf": "TAF LIME 121700Z 1218/1318 VRB05KT CAVOK"
    },
    {
      "icao": "LIMF",
      "alert": "OK",
      "vis_m": 9999,
      "fzfg": false,
      "metar_trigger": false,
      "taf_trigger": false,
      "metar": "METAR LIMF 122020Z 36007KT CAVOK 27/20 Q1017",
      "taf": "TAF LIMF 121700Z 1218/1318 VRB05KT CAVOK"
    },
    {
      "icao": "LIMJ",
      "alert": "OK",
      "vis_m": 9999,
      "fzfg": false,
      "metar_trigger": false,
      "taf_trigger": false,
      "metar": "METAR LIMJ 122020Z 07005KT CAVOK 27/21 Q1015",
      "taf": "TAF LIMJ 121700Z 1218/1318 VRB05KT CAVOK"
    },
    {
      "icao": "LIPE",
      "alert": "OK",
      "vis_m": 9999,
      "fzfg": false,
      "metar_trigger": false,
      "taf_trigger": false,
      "metar": "METAR LIPE 122020Z 09007KT CAVOK 27/20 Q1016",
      "taf": "TAF LIPE 121700Z 1218/1318 12010KT CAVOK"
    },
    {
      "icao": "LIPH",
      "alert": "OK",
      "vis_m": 9999,
      "fzfg": false,
      "metar_trigger": false,
      "taf_trigger": false,
      "metar": "METAR LIPH 122020Z 12003KT CAVOK 26/22 Q1017",
      "taf": "TAF LIPH 121700Z 1218/1318 VRB05KT CAVOK"
    },
    {
      "icao": "LIPQ",
      "alert": "OK",
      "vis_m": 9999,
      "fzfg": false,
      "metar_trigger": false,
      "taf_trigger": false,
      "metar": "METAR LIPQ 122020Z AUTO VRB02KT 9999 NCD 24/20 Q1017",
      "taf": "TAF LIPQ 121700Z 1218/1318 VRB05KT 9999 SCT040"
    },
    {
      "icao": "LIPR",
      "alert": "OK",
      "vis_m": 9999,
      "fzfg": false,
      "metar_trigger": false,
      "taf_trigger": false,
      "metar": "METAR LIPR 122020Z 11003KT CAVOK 25/16 Q1017",
      "taf": "TAF LIPR 121700Z 1218/1318 VRB05KT CAVOK"
    },
    {
      "icao": "LIPX",
      "alert": "OK",
      "vis_m": 9999,
      "fzfg": false,
      "metar_trigger": false,
      "taf_trigger": false,
      "metar": "METAR LIPX 122020Z 10002KT CAVOK 26/22 Q1016",
      "taf": "TAF LIPX 121700Z 1218/1318 VRB05KT CAVOK"
    },
    {
      "icao": "LIPY",
      "alert": "OK",
      "vis_m": 9999,
      "fzfg": false,
      "metar_trigger": false,
      "taf_trigger": false,
      "metar": "METAR LIPY 122020Z AUTO 01002KT 9999 NCD 24/17 Q1017",
      "taf": "TAF LIPY 121700Z 1218/1318 VRB05KT CAVOK"
    },
    {
      "icao": "LIPZ",
      "alert": "OK",
      "vis_m": 9999,
      "fzfg": false,
      "metar_trigger": false,
      "taf_trigger": false,
      "metar": "METAR LIPZ 122020Z 13006KT CAVOK 27/22 Q1017 NOSIG",
      "taf": "TAF LIPZ 121700Z 1218/1324 VRB05KT CAVOK"
    },
    {
      "icao": "LIRF",
      "alert": "OK",
      "vis_m": 9999,
      "fzfg": false,
      "metar_trigger": false,
      "taf_trigger": false,
      "metar": "METAR LIRF 122020Z 28005KT CAVOK 27/23 Q1015 NOSIG",
      "taf": ""
    },
    {
      "icao": "LIRN",
      "alert": "OK",
      "vis_m": 9999,
      "fzfg": false,
      "metar_trigger": false,
      "taf_trigger": false,
      "metar": "METAR LIRN 122020Z 35004KT 310V030 CAVOK 29/18 Q1016 NOSIG",
      "taf": "TAF LIRN 121700Z 1218/1318 04006KT CAVOK"
    },
    {
      "icao": "LIRP",
      "alert": "OK",
      "vis_m": 9999,
      "fzfg": false,
      "metar_trigger": false,
      "taf_trigger": false,
      "metar": "METAR LIRP 122015Z 23005KT CAVOK 26/21 Q1015 NOSIG",
      "taf": "TAF LIRP 121700Z 1218/1318 27010KT CAVOK"
    },
    {
      "icao": "LIRZ",
      "alert": "OK",
      "vis_m": 9999,
      "fzfg": false,
      "metar_trigger": false,
      "taf_trigger": false,
      "metar": "METAR LIRZ 122020Z AUTO 02005KT 9999 NCD 27/16 Q1016",
      "taf": "TAF LIRZ 121700Z 1218/1318 04013KT CAVOK"
    },
    {
      "icao": "LJLJ",
      "alert": "OK",
      "vis_m": 9999,
      "fzfg": false,
      "metar_trigger": false,
      "taf_trigger": false,
      "metar": "METAR LJLJ 122000Z VRB01KT 9999 FEW070 20/16 Q1020 NOSIG",
      "taf": "TAF LJLJ 121700Z 1218/1318 14007KT 9999 FEW050"
    },
    {
      "icao": "LKMT",
      "alert": "OK",
      "vis_m": 9999,
      "fzfg": false,
      "metar_trigger": false,
      "taf_trigger": false,
      "metar": "METAR LKMT 122000Z 20002KT CAVOK 18/16 Q1019 NOSIG",
      "taf": "TAF LKMT 121700Z 1218/1318 VRB02KT 9999 BKN040"
    },
    {
      "icao": "LKPR",
      "alert": "OK",
      "vis_m": 9999,
      "fzfg": false,
      "metar_trigger": false,
      "taf_trigger": false,
      "metar": "METAR LKPR 122000Z 34007KT CAVOK 22/12 Q1020 NOSIG",
      "taf": "TAF LKPR 122000Z 1221/1403 33008KT CAVOK"
    },
    {
      "icao": "LLBG",
      "alert": "OK",
      "vis_m": 9999,
      "fzfg": false,
      "metar_trigger": false,
      "taf_trigger": false,
      "metar": "METAR LLBG 122020Z 25004KT 9999 FEW020 27/22 Q1009 NOSIG",
      "taf": "TAF LLBG 121705Z 1218/1318 VRB04KT 9999 FEW022 TX31/1311Z TN22/1302Z"
    },
    {
      "icao": "LMML",
      "alert": "OK",
      "vis_m": 9999,
      "fzfg": false,
      "metar_trigger": false,
      "taf_trigger": false,
      "metar": "METAR LMML 122015Z 20004KT 160V230 CAVOK 26/24 Q1014 NOSIG",
      "taf": "TAF LMML 121700Z 1218/1318 18010KT 9999 FEW015"
    },
    {
      "icao": "LOWW",
      "alert": "OK",
      "vis_m": 9999,
      "fzfg": false,
      "metar_trigger": false,
      "taf_trigger": false,
      "metar": "METAR LOWW 122020Z 33007KT CAVOK 23/12 Q1019 NOSIG",
      "taf": "TAF LOWW 122015Z 1221/1403 33005KT CAVOK TX30/1315Z TN17/1403Z"
    },
    {
      "icao": "LPFR",
      "alert": "OK",
      "vis_m": 9999,
      "fzfg": false,
      "metar_trigger": false,
      "taf_trigger": false,
      "metar": "METAR LPFR 122000Z 26012KT CAVOK 22/19 Q1015",
      "taf": "TAF LPFR 121700Z 1218/1318 25010KT 9999 FEW020"
    },
    {
      "icao": "LPMA",
      "alert": "OK",
      "vis_m": 9999,
      "fzfg": false,
      "metar_trigger": false,
      "taf_trigger": false,
      "metar": "METAR LPMA 122000Z 35004KT 300V040 9999 BKN015 22/17 Q1017",
      "taf": "TAF LPMA 121700Z 1218/1318 VRB05KT 9999 SCT016 SCT033"
    },
    {
      "icao": "LPPR",
      "alert": "OK",
      "vis_m": 9999,
      "fzfg": false,
      "metar_trigger": false,
      "taf_trigger": false,
      "metar": "METAR LPPR 122000Z 21006KT CAVOK 20/15 Q1014",
      "taf": "TAF LPPR 121700Z 1218/1318 20010KT 9999 SCT015"
    },
    {
      "icao": "LPPS",
      "alert": "OK",
      "vis_m": 9999,
      "fzfg": false,
      "metar_trigger": false,
      "taf_trigger": false,
      "metar": "METAR LPPS 122000Z 33007KT 9999 FEW015 23/18 Q1017",
      "taf": "TAF LPPS 121700Z 1218/1324 31010KT 9999 SCT015"
    },
    {
      "icao": "LPPT",
      "alert": "OK",
      "vis_m": 9999,
      "fzfg": false,
      "metar_trigger": false,
      "taf_trigger": false,
      "metar": "METAR LPPT 122000Z 26008KT 9999 2500N FU FEW020 21/15 Q1015 NOSIG",
      "taf": "TAF LPPT 121700Z 1218/1324 23012KT 9999 SCT020"
    },
    {
      "icao": "LQBK",
      "alert": "OK",
      "vis_m": 9999,
      "fzfg": false,
      "metar_trigger": false,
      "taf_trigger": false,
      "metar": "METAR LQBK 122000Z VRB02KT CAVOK 20/13 Q1018 NOSIG",
      "taf": "TAF LQBK 121700Z 1218/1318 29006KT CAVOK TX33/1314Z TN16/1304Z"
    },
    {
      "icao": "LQSA",
      "alert": "OK",
      "vis_m": 9999,
      "fzfg": false,
      "metar_trigger": false,
      "taf_trigger": false,
      "metar": "METAR LQSA 122000Z 12004KT CAVOK 17/17 Q1020 NOSIG",
      "taf": "TAF LQSA 121700Z 1218/1318 VRB02KT CAVOK TX27/1313Z TN15/1303Z"
    },
    {
      "icao": "LQTZ",
      "alert": "OK",
      "vis_m": 9999,
      "fzfg": false,
      "metar_trigger": false,
      "taf_trigger": false,
      "metar": "METAR LQTZ 122000Z VRB01KT CAVOK 19/15 Q1018",
      "taf": "TAF LQTZ 121700Z 1218/1318 03006KT 9999 SCT045 TX29/1314Z TN14/1303Z"
    },
    {
      "icao": "LRBC",
      "alert": "OK",
      "vis_m": 9999,
      "fzfg": false,
      "metar_trigger": false,
      "taf_trigger": false,
      "metar": "METAR LRBC 122000Z 36004KT 9999 -RA SCT049 18/16 Q1015",
      "taf": "TAF LRBC 121700Z 1218/1303 VRB04KT 9999 SCT040"
    },
    {
      "icao": "LRBS",
      "alert": "OK",
      "vis_m": 9999,
      "fzfg": false,
      "metar_trigger": false,
      "taf_trigger": false,
      "metar": "METAR LRBS 122000Z 34004KT 300V020 9999 FEW031 FEW045CB 22/14 Q1014 NOSIG",
      "taf": "TAF LRBS 121700Z 1218/1318 VRB04KT 9999 SCT045"
    },
    {
      "icao": "LRBV",
      "alert": "OK",
      "vis_m": 5000,
      "fzfg": false,
      "metar_trigger": false,
      "taf_trigger": false,
      "metar": "METAR LRBV 122000Z 31008KT 260V350 5000 -TSRA FEW005 BKN035CB BKN048 15/14 Q1018 RESHRA",
      "taf": "TAF LRBV 121700Z 1218/1303 20006KT 9999 SCT015 SCT040"
    },
    {
      "icao": "LRCL",
      "alert": "OK",
      "vis_m": 9999,
      "fzfg": false,
      "metar_trigger": false,
      "taf_trigger": false,
      "metar": "METAR LRCL 122000Z VRB02KT CAVOK 17/13 Q1017",
      "taf": "TAF LRCL 122000Z 1221/1306 27005KT 9999 SCT045"
    },
    {
      "icao": "LRCV",
      "alert": "OK",
      "vis_m": 9999,
      "fzfg": false,
      "metar_trigger": false,
      "taf_trigger": false,
      "metar": "METAR LRCV 122000Z 26009KT CAVOK 21/18 Q1015",
      "taf": "TAF LRCV 121700Z 1218/1303 30010KT CAVOK"
    },
    {
      "icao": "LRIA",
      "alert": "OK",
      "vis_m": 9999,
      "fzfg": false,
      "metar_trigger": false,
      "taf_trigger": false,
      "metar": "METAR LRIA 122000Z 30006KT 270V330 CAVOK 19/14 Q1015",
      "taf": "TAF LRIA 121700Z 1218/1303 VRB04KT 9999 SCT040"
    },
    {
      "icao": "LROP",
      "alert": "OK",
      "vis_m": 9999,
      "fzfg": false,
      "metar_trigger": false,
      "taf_trigger": false,
      "metar": "METAR LROP 122000Z 01005KT 340V040 CAVOK 22/14 Q1014 NOSIG",
      "taf": "TAF LROP 121700Z 1218/1318 VRB04KT 9999 SCT045"
    },
    {
      "icao": "LRSB",
      "alert": "OK",
      "vis_m": 9999,
      "fzfg": false,
      "metar_trigger": false,
      "taf_trigger": false,
      "metar": "METAR LRSB 122000Z VRB02KT CAVOK 16/13 Q1017",
      "taf": "TAF LRSB 121700Z 1218/1318 30012KT 9999 SCT045"
    },
    {
      "icao": "LRSM",
      "alert": "OK",
      "vis_m": 9999,
      "fzfg": false,
      "metar_trigger": false,
      "taf_trigger": false,
      "metar": "METAR LRSM 122000Z AUTO 00000KT 9999 BKN100/// 15/13 Q1016",
      "taf": ""
    },
    {
      "icao": "LRSV",
      "alert": "OK",
      "vis_m": 9999,
      "fzfg": false,
      "metar_trigger": false,
      "taf_trigger": false,
      "metar": "METAR LRSV 122000Z 33005KT CAVOK 15/13 Q1016",
      "taf": "TAF LRSV 121700Z 1218/1303 24010KT 9999 SCT045"
    },
    {
      "icao": "LRTM",
      "alert": "OK",
      "vis_m": 9999,
      "fzfg": false,
      "metar_trigger": false,
      "taf_trigger": false,
      "metar": "METAR LRTM 122000Z 01001KT CAVOK 15/15 Q1017",
      "taf": "TAF LRTM 122000Z 1221/1306 VRB04KT 9999 SCT045"
    },
    {
      "icao": "LRTR",
      "alert": "OK",
      "vis_m": 9999,
      "fzfg": false,
      "metar_trigger": false,
      "taf_trigger": false,
      "metar": "METAR LRTR 122000Z VRB01KT CAVOK 17/10 Q1015",
      "taf": "TAF LRTR 121700Z 1218/1318 34008KT CAVOK"
    },
    {
      "icao": "LTAC",
      "alert": "OK",
      "vis_m": 9999,
      "fzfg": false,
      "metar_trigger": false,
      "taf_trigger": false,
      "metar": "METAR LTAC 122020Z 05009KT CAVOK 22/12 Q1015 NOSIG RMK RWY21C 04008KT RWY03L 03010KT RWY21R 02010KT RWY03R 03011KT RWY21L 03006KT 350V050",
      "taf": "TAF LTAC 121640Z 1218/1318 VRB02KT CAVOK"
    },
    {
      "icao": "LTFM",
      "alert": "OK",
      "vis_m": 9999,
      "fzfg": false,
      "metar_trigger": false,
      "taf_trigger": false,
      "metar": "METAR LTFM 122020Z 10006KT 050V120 CAVOK 23/17 Q1014 NOSIG RMK RWY17L 09008KT RWY34L 08006KT 050V110 RWY16R 09008KT RWY36 VRB04KT RWY18 09008KT",
      "taf": "TAF LTFM 121640Z 1218/1324 07012KT CAVOK"
    },
    {
      "icao": "LUKK",
      "alert": "OK",
      "vis_m": 9999,
      "fzfg": false,
      "metar_trigger": false,
      "taf_trigger": false,
      "metar": "METAR LUKK 122000Z 27003KT 9999 FEW049CB 20/15 Q1014 TEMPO SCT045CB",
      "taf": "TAF LUKK 121703Z 1218/1318 VRB05KT CAVOK"
    },
    {
      "icao": "LWOH",
      "alert": "OK",
      "vis_m": 9999,
      "fzfg": false,
      "metar_trigger": false,
      "taf_trigger": false,
      "metar": "METAR LWOH 122020Z VRB01KT 9999 FEW040 19/13 Q1018",
      "taf": "TAF LWOH 122010Z 1221/1321 32006KT 9999 FEW040"
    },
    {
      "icao": "LWSK",
      "alert": "OK",
      "vis_m": 9999,
      "fzfg": false,
      "metar_trigger": false,
      "taf_trigger": false,
      "metar": "METAR LWSK 122020Z 03007KT 9999 FEW040 BKN090 24/17 Q1017 NOSIG",
      "taf": "TAF LWSK 122010Z 1221/1321 VRB03KT 9999 FEW050 SCT100"
    },
    {
      "icao": "LYBE",
      "alert": "OK",
      "vis_m": 9999,
      "fzfg": false,
      "metar_trigger": false,
      "taf_trigger": false,
      "metar": "METAR LYBE 122000Z 27005KT CAVOK 23/12 Q1016 NOSIG",
      "taf": "TAF LYBE 121700Z 1218/1318 26006KT CAVOK TX29/1314Z TN16/1303Z"
    },
    {
      "icao": "LYNI",
      "alert": "OK",
      "vis_m": 9999,
      "fzfg": false,
      "metar_trigger": false,
      "taf_trigger": false,
      "metar": "METAR LYNI 122000Z 33006KT CAVOK 22/18 Q1017 NOSIG",
      "taf": "TAF LYNI 121700Z 1218/1318 33006KT CAVOK TX28/1314Z TN15/1303Z"
    },
    {
      "icao": "LYPG",
      "alert": "OK",
      "vis_m": 9999,
      "fzfg": false,
      "metar_trigger": false,
      "taf_trigger": false,
      "metar": "METAR LYPG 122000Z 35010KT 9999 FEW050 28/15 Q1014 NOSIG",
      "taf": "TAF LYPG 121700Z 1218/1318 34010KT 9999 FEW060 TX34/1314Z TN24/1303Z"
    },
    {
      "icao": "LZIB",
      "alert": "OK",
      "vis_m": 9999,
      "fzfg": false,
      "metar_trigger": false,
      "taf_trigger": false,
      "metar": "METAR LZIB 122000Z 31006KT CAVOK 21/15 Q1018 NOSIG",
      "taf": "TAF LZIB 121715Z 1218/1318 32012KT CAVOK"
    },
    {
      "icao": "LZKZ",
      "alert": "OK",
      "vis_m": 9999,
      "fzfg": false,
      "metar_trigger": false,
      "taf_trigger": false,
      "metar": "METAR LZKZ 122000Z 05003KT 9999 FEW045 16/15 Q1017 NOSIG",
      "taf": "TAF LZKZ 121715Z 1218/1318 VRB02KT CAVOK"
    },
    {
      "icao": "LZTT",
      "alert": "OK",
      "vis_m": 9999,
      "fzfg": false,
      "metar_trigger": false,
      "taf_trigger": false,
      "metar": "METAR LZTT 122000Z 09002KT 9999 -SHRA BKN007 BKN033 13/13 Q1018",
      "taf": ""
    },
    {
      "icao": "OEJN",
      "alert": "OK",
      "vis_m": 9999,
      "fzfg": false,
      "metar_trigger": false,
      "taf_trigger": false,
      "metar": "METAR OEJN 122000Z 36002KT CAVOK 33/16 Q1005 NOSIG",
      "taf": "TAF OEJN 121700Z 1218/1324 36005KT CAVOK"
    },
    {
      "icao": "OEMA",
      "alert": "OK",
      "vis_m": 9999,
      "fzfg": false,
      "metar_trigger": false,
      "taf_trigger": false,
      "metar": "METAR OEMA 122000Z 26015KT CAVOK 40/05 Q1008 NOSIG",
      "taf": "TAF OEMA 121700Z 1218/1324 28008KT CAVOK"
    },
    {
      "icao": "OJAI",
      "alert": "OK",
      "vis_m": 5000,
      "fzfg": false,
      "metar_trigger": false,
      "taf_trigger": false,
      "metar": "METAR OJAI 122000Z 25005KT 5000 HZ NSC 23/15 Q1013 NOSIG",
      "taf": "TAF OJAI 121700Z 1218/1324 30010KT 5000 HZ NSC"
    },
    {
      "icao": "OMAA",
      "alert": "OK",
      "vis_m": null,
      "fzfg": false,
      "metar_trigger": false,
      "taf_trigger": false,
      "metar": "",
      "taf": "TAF OMAA 121700Z 1218/1400 20005KT 8000 NSC"
    },
    {
      "icao": "OMDB",
      "alert": "OK",
      "vis_m": null,
      "fzfg": false,
      "metar_trigger": false,
      "taf_trigger": false,
      "metar": "",
      "taf": "TAF OMDB 121700Z 1218/1400 18005KT 8000 NSC"
    },
    {
      "icao": "UAAA",
      "alert": "OK",
      "vis_m": 9999,
      "fzfg": false,
      "metar_trigger": false,
      "taf_trigger": false,
      "metar": "METAR UAAA 122000Z 19002MPS 9999 FEW100 22/11 Q1005 NOSIG",
      "taf": "TAF UAAA 121703Z 1218/1318 19002MPS 9999 SCT050CB BKN100 TX32/1310Z TN21/1301Z"
    },
    {
      "icao": "UBBB",
      "alert": "OK",
      "vis_m": 9999,
      "fzfg": false,
      "metar_trigger": false,
      "taf_trigger": false,
      "metar": "METAR UBBB 122000Z 32008KT CAVOK 25/23 Q1010 NOSIG",
      "taf": "TAF UBBB 121713Z 1218/1318 32012KT CAVOK TX31/1310Z TN22/1301Z"
    },
    {
      "icao": "UDSG",
      "alert": "OK",
      "vis_m": 9999,
      "fzfg": false,
      "metar_trigger": false,
      "taf_trigger": false,
      "metar": "METAR UDSG 122000Z 05009KT 9999 FEW049 19/15 Q1019 NOSIG",
      "taf": "TAF UDSG 121700Z 1218/1318 VRB06KT 9999 FEW050"
    },
    {
      "icao": "UDYZ",
      "alert": "OK",
      "vis_m": 9999,
      "fzfg": false,
      "metar_trigger": false,
      "taf_trigger": false,
      "metar": "METAR UDYZ 122000Z 01012KT 9999 FEW046 28/15 Q1012 NOSIG",
      "taf": "TAF UDYZ 121700Z 1218/1318 07006KT 9999 FEW040"
    },
    {
      "icao": "UGKO",
      "alert": "OK",
      "vis_m": 9999,
      "fzfg": false,
      "metar_trigger": false,
      "taf_trigger": false,
      "metar": "METAR UGKO 122000Z 12004KT 9999 BKN034 22/20 Q1014 NOSIG",
      "taf": "TAF UGKO 121700Z 1218/1318 26007KT 9999 SCT020 BKN050 TX28/1311Z TN21/1302Z"
    }
  ]
}