{
  "ts_utc": "2026-04-22T10:25:27Z",
  "threshold_m": 150,
  "source": "stations_override.txt (ICAO list) + aviationweather.gov (METAR/TAF raw)",
  "station_count": 159,
  "stations": [
    {
      "icao": "BIKF",
      "alert": "OK",
      "vis_m": 9999,
      "fzfg": false,
      "metar_trigger": false,
      "taf_trigger": false,
      "metar": "METAR BIKF 221000Z 31010KT 9999 OVC013 06/05 Q1035",
      "taf": "TAF BIKF 220742Z 2209/2309 31007KT 9999 OVC012 TX07/2215Z TN05/2303Z"
    },
    {
      "icao": "BKPR",
      "alert": "OK",
      "vis_m": null,
      "fzfg": false,
      "metar_trigger": false,
      "taf_trigger": false,
      "metar": "",
      "taf": "TAF BKPR 220530Z 2206/2306 01010KT 9999 SCT020 BKN040"
    },
    {
      "icao": "EBCI",
      "alert": "OK",
      "vis_m": 9999,
      "fzfg": false,
      "metar_trigger": false,
      "taf_trigger": false,
      "metar": "METAR EBCI 220950Z 07012KT 050V110 CAVOK 14/M00 Q1025 NOSIG",
      "taf": "TAF EBCI 220503Z 2206/2312 08008KT CAVOK"
    },
    {
      "icao": "EDDB",
      "alert": "OK",
      "vis_m": 9999,
      "fzfg": false,
      "metar_trigger": false,
      "taf_trigger": false,
      "metar": "METAR EDDB 221020Z AUTO 30012KT CAVOK 15/01 Q1025 NOSIG",
      "taf": "TAF EDDB 220500Z 2206/2306 32006KT CAVOK"
    },
    {
      "icao": "EDDH",
      "alert": "OK",
      "vis_m": 9999,
      "fzfg": false,
      "metar_trigger": false,
      "taf_trigger": false,
      "metar": "METAR EDDH 221020Z AUTO 29009KT 260V320 CAVOK 15/M01 Q1027 NOSIG",
      "taf": "TAF EDDH 220500Z 2206/2312 VRB03KT CAVOK"
    },
    {
      "icao": "EDDK",
      "alert": "OK",
      "vis_m": 9999,
      "fzfg": false,
      "metar_trigger": false,
      "taf_trigger": false,
      "metar": "METAR EDDK 221020Z AUTO 08008G20KT 010V180 CAVOK 15/M00 Q1026 NOSIG",
      "taf": "TAF EDDK 220500Z 2206/2312 09005KT CAVOK"
    },
    {
      "icao": "EDDN",
      "alert": "OK",
      "vis_m": 9999,
      "fzfg": false,
      "metar_trigger": false,
      "taf_trigger": false,
      "metar": "METAR EDDN 221020Z AUTO VRB06KT CAVOK 13/M01 Q1025 NOSIG",
      "taf": "TAF EDDN 220500Z 2206/2306 04003KT CAVOK"
    },
    {
      "icao": "EDDS",
      "alert": "OK",
      "vis_m": 9999,
      "fzfg": false,
      "metar_trigger": false,
      "taf_trigger": false,
      "metar": "METAR EDDS 221020Z AUTO 08012KT 030V120 CAVOK 13/M01 Q1023 TEMPO 08015G25KT",
      "taf": "TAF EDDS 220500Z 2206/2306 05004KT CAVOK"
    },
    {
      "icao": "EDFH",
      "alert": "OK",
      "vis_m": 9999,
      "fzfg": false,
      "metar_trigger": false,
      "taf_trigger": false,
      "metar": "METAR EDFH 220950Z VRB09KT CAVOK 10/M03 Q1024",
      "taf": "TAF EDFH 220500Z 2206/2306 09010KT CAVOK"
    },
    {
      "icao": "EDJA",
      "alert": "OK",
      "vis_m": 9999,
      "fzfg": false,
      "metar_trigger": false,
      "taf_trigger": false,
      "metar": "METAR EDJA 220950Z 07015KT 040V100 CAVOK 10/M03 Q1022",
      "taf": "TAF EDJA 220800Z 2209/2218 07012KT CAVOK"
    },
    {
      "icao": "EDLW",
      "alert": "OK",
      "vis_m": 9999,
      "fzfg": false,
      "metar_trigger": false,
      "taf_trigger": false,
      "metar": "METAR EDLW 220950Z 06007KT 030V100 CAVOK 12/00 Q1027",
      "taf": "TAF EDLW 220500Z 2206/2306 VRB02KT CAVOK"
    },
    {
      "icao": "EDNY",
      "alert": "OK",
      "vis_m": 9999,
      "fzfg": false,
      "metar_trigger": false,
      "taf_trigger": false,
      "metar": "METAR EDNY 220950Z 06018KT CAVOK 13/M00 Q1021",
      "taf": "TAF EDNY 220800Z 2209/2218 05010KT CAVOK"
    },
    {
      "icao": "EDSB",
      "alert": "OK",
      "vis_m": 9999,
      "fzfg": false,
      "metar_trigger": false,
      "taf_trigger": false,
      "metar": "METAR EDSB 220950Z 04016KT CAVOK 14/01 Q1023",
      "taf": "TAF EDSB 220500Z 2206/2306 03012KT CAVOK"
    },
    {
      "icao": "EETN",
      "alert": "OK",
      "vis_m": 9999,
      "fzfg": false,
      "metar_trigger": false,
      "taf_trigger": false,
      "metar": "METAR EETN 221020Z 28017KT CAVOK 09/02 Q1010 TEMPO 29018G30KT",
      "taf": "TAF EETN 220530Z 2206/2306 28010KT CAVOK"
    },
    {
      "icao": "EFTU",
      "alert": "OK",
      "vis_m": 9999,
      "fzfg": false,
      "metar_trigger": false,
      "taf_trigger": false,
      "metar": "METAR EFTU 221020Z AUTO 33011KT 290V020 CAVOK 07/00 Q1011",
      "taf": "TAF EFTU 220826Z 2209/2309 32012KT CAVOK"
    },
    {
      "icao": "EGBB",
      "alert": "OK",
      "vis_m": 9999,
      "fzfg": false,
      "metar_trigger": false,
      "taf_trigger": false,
      "metar": "METAR EGBB 220950Z 07013KT CAVOK 12/04 Q1027",
      "taf": "TAF EGBB 220459Z 2206/2306 07012KT CAVOK"
    },
    {
      "icao": "EGGP",
      "alert": "OK",
      "vis_m": 9999,
      "fzfg": false,
      "metar_trigger": false,
      "taf_trigger": false,
      "metar": "METAR EGGP 220950Z 09013KT CAVOK 11/03 Q1029",
      "taf": "TAF EGGP 220455Z 2206/2306 07012KT CAVOK"
    },
    {
      "icao": "EGGW",
      "alert": "OK",
      "vis_m": 9999,
      "fzfg": false,
      "metar_trigger": false,
      "taf_trigger": false,
      "metar": "METAR EGGW 220950Z AUTO 09013KT 060V120 9999 NCD 13/03 Q1026",
      "taf": "TAF EGGW 220455Z 2206/2306 06012KT 3000 BR FEW010"
    },
    {
      "icao": "EGKK",
      "alert": "OK",
      "vis_m": 9999,
      "fzfg": false,
      "metar_trigger": false,
      "taf_trigger": false,
      "metar": "METAR EGKK 220950Z 08016KT 9999 FEW044 14/04 Q1024",
      "taf": "TAF EGKK 220455Z 2206/2312 07011KT 9999 FEW045"
    },
    {
      "icao": "EGNM",
      "alert": "OK",
      "vis_m": 9999,
      "fzfg": false,
      "metar_trigger": false,
      "taf_trigger": false,
      "metar": "METAR EGNM 220950Z 06007KT 030V090 9999 FEW020 09/04 Q1030",
      "taf": ""
    },
    {
      "icao": "EGPD",
      "alert": "OK",
      "vis_m": 9999,
      "fzfg": false,
      "metar_trigger": false,
      "taf_trigger": false,
      "metar": "METAR EGPD 220950Z COR AUTO 10007KT 9999 BKN016 OVC024 08/04 Q1034 NOSIG",
      "taf": "TAF EGPD 220454Z 2206/2306 04007KT 9999 BKN020"
    },
    {
      "icao": "EGPF",
      "alert": "OK",
      "vis_m": 9999,
      "fzfg": false,
      "metar_trigger": false,
      "taf_trigger": false,
      "metar": "METAR EGPF 220950Z AUTO 07013KT 9999 BKN028 09/03 Q1033",
      "taf": ""
    },
    {
      "icao": "EHBK",
      "alert": "OK",
      "vis_m": 9999,
      "fzfg": false,
      "metar_trigger": false,
      "taf_trigger": false,
      "metar": "METAR EHBK 220955Z AUTO 06014KT 030V110 9999 NCD 13/02 Q1026 NOSIG",
      "taf": "TAF EHBK 220446Z 2206/2312 08010KT CAVOK"
    },
    {
      "icao": "EHEH",
      "alert": "OK",
      "vis_m": 9999,
      "fzfg": false,
      "metar_trigger": false,
      "taf_trigger": false,
      "metar": "METAR EHEH 220955Z AUTO 09011KT 070V130 9999 NCD 15/M00 Q1027 BLU NOSIG RMK TREND REMOTE BY EHWX",
      "taf": "TAF EHEH 220508Z 2206/2312 04007KT CAVOK"
    },
    {
      "icao": "EKBI",
      "alert": "OK",
      "vis_m": 9999,
      "fzfg": false,
      "metar_trigger": false,
      "taf_trigger": false,
      "metar": "METAR EKBI 221020Z AUTO 28009KT 250V320 9999 NCD 14/02 Q1027",
      "taf": "TAF EKBI 220827Z 2209/2309 30010KT CAVOK"
    },
    {
      "icao": "EKCH",
      "alert": "OK",
      "vis_m": 9999,
      "fzfg": false,
      "metar_trigger": false,
      "taf_trigger": false,
      "metar": "METAR EKCH 221020Z AUTO 32012KT 9999 NCD 17/M01 Q1024 NOSIG",
      "taf": "TAF EKCH 220827Z 2209/2309 32012KT CAVOK"
    },
    {
      "icao": "ENAL",
      "alert": "OK",
      "vis_m": 9999,
      "fzfg": false,
      "metar_trigger": false,
      "taf_trigger": false,
      "metar": "METAR ENAL 220950Z 21008KT 9999 FEW019 BKN043 08/03 Q1031",
      "taf": "TAF ENAL 220800Z 2209/2218 24008KT 9999 SCT020 BKN040"
    },
    {
      "icao": "ENBR",
      "alert": "OK",
      "vis_m": 9999,
      "fzfg": false,
      "metar_trigger": false,
      "taf_trigger": false,
      "metar": "METAR ENBR 220950Z 32005KT CAVOK 09/06 Q1029 NOSIG RMK WIND 1200FT 31007KT",
      "taf": "TAF ENBR 220500Z 2206/2306 36005KT 0200 FG VV001"
    },
    {
      "icao": "ENGM",
      "alert": "OK",
      "vis_m": 9999,
      "fzfg": false,
      "metar_trigger": false,
      "taf_trigger": false,
      "metar": "METAR ENGM 220950Z VRB04KT CAVOK 12/M01 Q1023 NOSIG",
      "taf": "TAF ENGM 220500Z 2206/2306 VRB05KT CAVOK"
    },
    {
      "icao": "ENHD",
      "alert": "OK",
      "vis_m": 9999,
      "fzfg": false,
      "metar_trigger": false,
      "taf_trigger": false,
      "metar": "METAR ENHD 220950Z 33014KT 9999 OVC007 07/05 Q1030",
      "taf": ""
    },
    {
      "icao": "ENTC",
      "alert": "OK",
      "vis_m": 9999,
      "fzfg": false,
      "metar_trigger": false,
      "taf_trigger": false,
      "metar": "METAR ENTC 220950Z 35012KT 9999 -SHRA FEW021 SCT027 BKN057 04/M00 Q1015 TEMPO FEW030CB RMK WIND 2600FT 34032KT",
      "taf": ""
    },
    {
      "icao": "ENTO",
      "alert": "OK",
      "vis_m": 9999,
      "fzfg": false,
      "metar_trigger": false,
      "taf_trigger": false,
      "metar": "METAR ENTO 220950Z 12007KT 080V170 CAVOK 16/00 Q1024 NOSIG",
      "taf": ""
    },
    {
      "icao": "ENVA",
      "alert": "OK",
      "vis_m": 9999,
      "fzfg": false,
      "metar_trigger": false,
      "taf_trigger": false,
      "metar": "METAR ENVA 220950Z 27020KT 9999 VCSH BKN025 08/03 Q1025 TEMPO 27020G30KT BKN014 RMK WIND 670FT 27015G25KT",
      "taf": ""
    },
    {
      "icao": "ENZV",
      "alert": "OK",
      "vis_m": 9999,
      "fzfg": false,
      "metar_trigger": false,
      "taf_trigger": false,
      "metar": "METAR ENZV 220950Z 34010KT 9999 OVC008 07/05 Q1030 BECMG SCT010",
      "taf": ""
    },
    {
      "icao": "EPGD",
      "alert": "OK",
      "vis_m": 9999,
      "fzfg": false,
      "metar_trigger": false,
      "taf_trigger": false,
      "metar": "METAR EPGD 221000Z 30013KT 280V340 CAVOK 16/M01 Q1019",
      "taf": "TAF EPGD 220530Z 2206/2306 28008KT CAVOK"
    },
    {
      "icao": "EPKK",
      "alert": "OK",
      "vis_m": 9999,
      "fzfg": false,
      "metar_trigger": false,
      "taf_trigger": false,
      "metar": "METAR EPKK 221000Z 33010KT 270V360 9999 FEW069 13/M03 Q1020",
      "taf": "TAF EPKK 220830Z 2209/2309 25007KT 9999 SCT050"
    },
    {
      "icao": "EPKT",
      "alert": "OK",
      "vis_m": 9999,
      "fzfg": false,
      "metar_trigger": false,
      "taf_trigger": false,
      "metar": "METAR EPKT 221000Z 35013KT CAVOK 11/M05 Q1021",
      "taf": "TAF EPKT 220530Z 2206/2306 24003KT CAVOK"
    },
    {
      "icao": "EPLB",
      "alert": "OK",
      "vis_m": 9999,
      "fzfg": false,
      "metar_trigger": false,
      "taf_trigger": false,
      "metar": "METAR EPLB 221000Z 30012KT 280V340 CAVOK 14/M02 Q1017",
      "taf": "TAF EPLB 220530Z 2206/2306 31010KT CAVOK"
    },
    {
      "icao": "EPMO",
      "alert": "OK",
      "vis_m": 9999,
      "fzfg": false,
      "metar_trigger": false,
      "taf_trigger": false,
      "metar": "METAR EPMO 221000Z 32013KT 290V360 CAVOK 13/M04 Q1019",
      "taf": "TAF EPMO 220530Z 2206/2306 32013KT CAVOK"
    },
    {
      "icao": "EPPO",
      "alert": "OK",
      "vis_m": 9999,
      "fzfg": false,
      "metar_trigger": false,
      "taf_trigger": false,
      "metar": "METAR EPPO 221000Z 33006KT 300V020 CAVOK 13/M01 Q1022",
      "taf": "TAF EPPO 220530Z 2206/2306 33010KT CAVOK"
    },
    {
      "icao": "EPRA",
      "alert": "OK",
      "vis_m": 9999,
      "fzfg": false,
      "metar_trigger": false,
      "taf_trigger": false,
      "metar": "METAR EPRA 221000Z 31012KT 280V350 CAVOK 12/M05 Q1019",
      "taf": "TAF EPRA 220830Z 2209/2218 31010KT CAVOK"
    },
    {
      "icao": "EPRZ",
      "alert": "OK",
      "vis_m": 9999,
      "fzfg": false,
      "metar_trigger": false,
      "taf_trigger": false,
      "metar": "METAR EPRZ 221000Z 33010KT 290V030 9999 FEW036 13/M04 Q1018",
      "taf": "TAF EPRZ 220530Z 2206/2306 27008KT CAVOK"
    },
    {
      "icao": "EPSC",
      "alert": "OK",
      "vis_m": 9999,
      "fzfg": false,
      "metar_trigger": false,
      "taf_trigger": false,
      "metar": "METAR EPSC 221000Z 30010KT CAVOK 15/03 Q1023",
      "taf": "TAF EPSC 220530Z 2206/2306 VRB02KT CAVOK"
    },
    {
      "icao": "EPSY",
      "alert": "OK",
      "vis_m": 9999,
      "fzfg": false,
      "metar_trigger": false,
      "taf_trigger": false,
      "metar": "METAR EPSY 221000Z 33013KT 300V020 CAVOK 12/M03 Q1018",
      "taf": "TAF EPSY 220830Z 2209/2218 32012KT CAVOK"
    },
    {
      "icao": "EPWA",
      "alert": "OK",
      "vis_m": 9999,
      "fzfg": false,
      "metar_trigger": false,
      "taf_trigger": false,
      "metar": "METAR EPWA 221000Z 33012KT 280V360 CAVOK 13/M03 Q1019 NOSIG",
      "taf": "TAF EPWA 220830Z 2209/2309 32012KT CAVOK"
    },
    {
      "icao": "EPWR",
      "alert": "OK",
      "vis_m": 9999,
      "fzfg": false,
      "metar_trigger": false,
      "taf_trigger": false,
      "metar": "METAR EPWR 221000Z 33010KT 300V360 CAVOK 13/M04 Q1023",
      "taf": "TAF EPWR 220830Z 2209/2309 31010KT CAVOK"
    },
    {
      "icao": "ESGG",
      "alert": "OK",
      "vis_m": 9999,
      "fzfg": false,
      "metar_trigger": false,
      "taf_trigger": false,
      "metar": "METAR ESGG 220950Z 36010KT CAVOK 14/M00 Q1024",
      "taf": "TAF ESGG 220830Z 2209/2309 01007KT CAVOK"
    },
    {
      "icao": "ESKN",
      "alert": "OK",
      "vis_m": 9999,
      "fzfg": false,
      "metar_trigger": false,
      "taf_trigger": false,
      "metar": "METAR ESKN 220950Z 29013KT 260V320 CAVOK 11/01 Q1019",
      "taf": "TAF ESKN 220830Z 2209/2309 30012KT CAVOK"
    },
    {
      "icao": "ESMS",
      "alert": "OK",
      "vis_m": 9999,
      "fzfg": false,
      "metar_trigger": false,
      "taf_trigger": false,
      "metar": "METAR ESMS 220950Z 31014KT CAVOK 15/04 Q1023",
      "taf": "TAF ESMS 220827Z 2209/2309 31010KT CAVOK"
    },
    {
      "icao": "ESSA",
      "alert": "OK",
      "vis_m": 9999,
      "fzfg": false,
      "metar_trigger": false,
      "taf_trigger": false,
      "metar": "METAR ESSA 220950Z 32013KT 290V350 CAVOK 09/M02 Q1018 NOSIG",
      "taf": "TAF ESSA 220830Z 2209/2309 32013KT CAVOK"
    },
    {
      "icao": "EYKA",
      "alert": "OK",
      "vis_m": 9999,
      "fzfg": false,
      "metar_trigger": false,
      "taf_trigger": false,
      "metar": "METAR EYKA 221020Z 34007KT 280V060 CAVOK 14/M03 Q1015",
      "taf": "TAF EYKA 220500Z 2206/2306 VRB04KT 9000 NSC"
    },
    {
      "icao": "EYPA",
      "alert": "OK",
      "vis_m": 9999,
      "fzfg": false,
      "metar_trigger": false,
      "taf_trigger": false,
      "metar": "METAR EYPA 221020Z VRB05KT CAVOK 09/02 Q1017",
      "taf": "TAF EYPA 220500Z 2206/2306 VRB04KT 9000 NSC"
    },
    {
      "icao": "EYVI",
      "alert": "OK",
      "vis_m": 9999,
      "fzfg": false,
      "metar_trigger": false,
      "taf_trigger": false,
      "metar": "METAR EYVI 221020Z 35010KT CAVOK 13/M04 Q1014 NOSIG",
      "taf": "TAF EYVI 220500Z 2206/2306 31012KT 9000 NSC"
    },
    {
      "icao": "GCFV",
      "alert": "OK",
      "vis_m": 9999,
      "fzfg": false,
      "metar_trigger": false,
      "taf_trigger": false,
      "metar": "METAR GCFV 221000Z 05008KT 9999 FEW030 SCT040 20/13 Q1014",
      "taf": "TAF GCFV 220800Z 2209/2309 06007KT 9999 SCT030 TX23/2214Z TN17/2306Z"
    },
    {
      "icao": "GCLP",
      "alert": "OK",
      "vis_m": 9999,
      "fzfg": false,
      "metar_trigger": false,
      "taf_trigger": false,
      "metar": "METAR GCLP 221000Z 06007KT 020V100 9999 BKN040 20/14 Q1014 NOSIG",
      "taf": "TAF GCLP 220800Z 2209/2309 03007KT 9999 BKN040 TX22/2214Z TN17/2306Z"
    },
    {
      "icao": "GCTS",
      "alert": "OK",
      "vis_m": 9999,
      "fzfg": false,
      "metar_trigger": false,
      "taf_trigger": false,
      "metar": "METAR GCTS 221000Z 13006KT 090V180 9999 SCT025 20/14 Q1015 NOSIG",
      "taf": "TAF GCTS 220800Z 2209/2309 09008KT 9999 FEW040 TX23/2214Z TN17/2306Z"
    },
    {
      "icao": "GMAD",
      "alert": "OK",
      "vis_m": 8000,
      "fzfg": false,
      "metar_trigger": false,
      "taf_trigger": false,
      "metar": "METAR GMAD 221000Z 22004KT 8000 SCT026 22/14 Q1011 NOSIG",
      "taf": "TAF GMAD 220500Z 2206/2312 20006KT 8000 BKN020"
    },
    {
      "icao": "GMMN",
      "alert": "OK",
      "vis_m": 9999,
      "fzfg": false,
      "metar_trigger": false,
      "taf_trigger": false,
      "metar": "METAR GMMN 221000Z VRB04KT 9999 BKN016 20/15 Q1014 NOSIG",
      "taf": "TAF GMMN 220500Z 2206/2312 04004KT 9999 FEW014"
    },
    {
      "icao": "GMMX",
      "alert": "OK",
      "vis_m": 9999,
      "fzfg": false,
      "metar_trigger": false,
      "taf_trigger": false,
      "metar": "METAR GMMX 221000Z 06006KT 350V120 9999 FEW030 SCT100 21/13 Q1012 NOSIG",
      "taf": "TAF GMMX 220500Z 2206/2312 30007KT 8000 SCT030 SCT110"
    },
    {
      "icao": "HEGN",
      "alert": "OK",
      "vis_m": 9999,
      "fzfg": false,
      "metar_trigger": false,
      "taf_trigger": false,
      "metar": "METAR HEGN 221000Z 35010KT CAVOK 26/11 Q1011 NOSIG",
      "taf": "TAF HEGN 220500Z 2206/2312 32010G20KT CAVOK"
    },
    {
      "icao": "HEMA",
      "alert": "OK",
      "vis_m": 9999,
      "fzfg": false,
      "metar_trigger": false,
      "taf_trigger": false,
      "metar": "METAR HEMA 221000Z 33020KT CAVOK 28/08 Q1010 NOSIG",
      "taf": ""
    },
    {
      "icao": "HESH",
      "alert": "OK",
      "vis_m": 9999,
      "fzfg": false,
      "metar_trigger": false,
      "taf_trigger": false,
      "metar": "METAR HESH 221000Z 01012KT CAVOK 27/14 Q1011 NOSIG",
      "taf": "TAF HESH 220500Z 2206/2312 36010KT CAVOK"
    },
    {
      "icao": "HESX",
      "alert": "OK",
      "vis_m": 9999,
      "fzfg": false,
      "metar_trigger": false,
      "taf_trigger": false,
      "metar": "METAR HESX 221000Z 36005KT CAVOK 23/06 Q1015 NOSIG",
      "taf": ""
    },
    {
      "icao": "LATI",
      "alert": "OK",
      "vis_m": 9999,
      "fzfg": false,
      "metar_trigger": false,
      "taf_trigger": false,
      "metar": "METAR LATI 221020Z 30006KT 260V340 9999 FEW030TCU SCT045 18/12 Q1012 NOSIG",
      "taf": "TAF LATI 220500Z 2206/2306 VRB05KT 9999 BKN025 TX20/2212Z TN08/2304Z"
    },
    {
      "icao": "LBPD",
      "alert": "OK",
      "vis_m": 9999,
      "fzfg": false,
      "metar_trigger": false,
      "taf_trigger": false,
      "metar": "METAR LBPD 221000Z AUTO 33004KT 290V030 9999 FEW023/// OVC090/// 13/07 Q1015 NOSIG",
      "taf": "TAF LBPD 220500Z 2206/2306 VRB03KT 9999 SCT030 OVC050"
    },
    {
      "icao": "LBSF",
      "alert": "OK",
      "vis_m": 9999,
      "fzfg": false,
      "metar_trigger": false,
      "taf_trigger": false,
      "metar": "METAR LBSF 221000Z 31003KT 260V350 9999 SCT056 BKN065 BKN075 10/02 Q1015 TEMPO 5000 SHRA FEW035TCU",
      "taf": "TAF LBSF 220500Z 2206/2306 VRB03KT 9999 SCT050"
    },
    {
      "icao": "LBWN",
      "alert": "OK",
      "vis_m": 9999,
      "fzfg": false,
      "metar_trigger": false,
      "taf_trigger": false,
      "metar": "METAR LBWN 221000Z 13005KT 090V170 9999 FEW017 SCT025 OVC034 10/06 Q1016 NOSIG",
      "taf": "TAF LBWN 220500Z 2206/2306 VRB03KT 9999 SCT020 BKN040"
    },
    {
      "icao": "LCLK",
      "alert": "OK",
      "vis_m": 9999,
      "fzfg": false,
      "metar_trigger": false,
      "taf_trigger": false,
      "metar": "METAR LCLK 221000Z 17010KT 9999 FEW020 22/15 Q1015 NOSIG",
      "taf": "TAF LCLK 220530Z 2206/2306 32006KT 9999 FEW025"
    },
    {
      "icao": "LCPH",
      "alert": "OK",
      "vis_m": 9999,
      "fzfg": false,
      "metar_trigger": false,
      "taf_trigger": false,
      "metar": "METAR LCPH 221000Z 27009KT 250V320 9999 FEW030 21/15 Q1015 NOSIG",
      "taf": "TAF LCPH 220530Z 2206/2306 20006KT 9999 FEW025"
    },
    {
      "icao": "LEAL",
      "alert": "OK",
      "vis_m": 9999,
      "fzfg": false,
      "metar_trigger": false,
      "taf_trigger": false,
      "metar": "METAR LEAL 221000Z 08006KT 050V110 CAVOK 23/10 Q1014 NOSIG",
      "taf": ""
    },
    {
      "icao": "LEBB",
      "alert": "OK",
      "vis_m": 9999,
      "fzfg": false,
      "metar_trigger": false,
      "taf_trigger": false,
      "metar": "METAR LEBB 221000Z 30011KT 270V360 CAVOK 21/14 Q1013 NOSIG",
      "taf": "TAF LEBB 220500Z 2206/2306 34009KT 9999 FEW040 TX20/2213Z TN10/2306Z"
    },
    {
      "icao": "LEBL",
      "alert": "OK",
      "vis_m": 9999,
      "fzfg": false,
      "metar_trigger": false,
      "taf_trigger": false,
      "metar": "METAR LEBL 221000Z 21006KT 180V240 9999 FEW015 19/16 Q1013 NOSIG",
      "taf": "TAF LEBL 220500Z 2206/2306 VRB03KT 9999 FEW030 TX21/2212Z TN13/2206Z"
    },
    {
      "icao": "LECH",
      "alert": "OK",
      "vis_m": 9999,
      "fzfg": false,
      "metar_trigger": false,
      "taf_trigger": false,
      "metar": "METAR LECH 221000Z AUTO 08004KT CAVOK 22/13 Q1013",
      "taf": "TAF LECH 220500Z 2206/2306 VRB04KT CAVOK TX28/2213Z TN11/2306Z"
    },
    {
      "icao": "LEMD",
      "alert": "OK",
      "vis_m": 9999,
      "fzfg": false,
      "metar_trigger": false,
      "taf_trigger": false,
      "metar": "METAR LEMD 221000Z 21007KT 150V290 9999 SCT030 19/08 Q1015 NOSIG",
      "taf": ""
    },
    {
      "icao": "LEMG",
      "alert": "OK",
      "vis_m": 9999,
      "fzfg": false,
      "metar_trigger": false,
      "taf_trigger": false,
      "metar": "METAR LEMG 221000Z 26009KT 220V300 CAVOK 22/13 Q1013 NOSIG",
      "taf": "TAF LEMG 220500Z 2206/2306 29011KT CAVOK TX25/2214Z TN12/2206Z"
    },
    {
      "icao": "LEVC",
      "alert": "OK",
      "vis_m": 9999,
      "fzfg": false,
      "metar_trigger": false,
      "taf_trigger": false,
      "metar": "METAR LEVC 221000Z 20003KT 120V280 CAVOK 25/08 Q1013 NOSIG",
      "taf": "TAF LEVC 220500Z 2206/2306 VRB04KT CAVOK TX28/2212Z TN13/2306Z"
    },
    {
      "icao": "LEXJ",
      "alert": "OK",
      "vis_m": 9999,
      "fzfg": false,
      "metar_trigger": false,
      "taf_trigger": false,
      "metar": "METAR LEXJ 221000Z 27005KT 230V310 9999 BKN037 OVC046 17/13 Q1014",
      "taf": "TAF LEXJ 220800Z 2209/2309 30008KT 9999 SCT040 TX18/2213Z TN11/2306Z"
    },
    {
      "icao": "LEZG",
      "alert": "OK",
      "vis_m": 9999,
      "fzfg": false,
      "metar_trigger": false,
      "taf_trigger": false,
      "metar": "METAR LEZG 221000Z 08004KT 040V110 CAVOK 22/11 Q1013 NOSIG",
      "taf": ""
    },
    {
      "icao": "LEZL",
      "alert": "OK",
      "vis_m": 9999,
      "fzfg": false,
      "metar_trigger": false,
      "taf_trigger": false,
      "metar": "METAR LEZL 221000Z 13003KT 080V200 9999 SCT036 SCT046 21/13 Q1015 NOSIG",
      "taf": "TAF LEZL 220800Z 2209/2309 25005KT 9999 FEW025 TX25/2215Z TN13/2306Z"
    },
    {
      "icao": "LFBD",
      "alert": "OK",
      "vis_m": 9999,
      "fzfg": false,
      "metar_trigger": false,
      "taf_trigger": false,
      "metar": "METAR LFBD 221000Z AUTO 16006KT 110V190 CAVOK 23/12 Q1011 BECMG 25010KT",
      "taf": "TAF LFBD 220500Z 2206/2312 07006KT CAVOK TX26/2214Z TN15/2206Z"
    },
    {
      "icao": "LFLL",
      "alert": "OK",
      "vis_m": 9999,
      "fzfg": false,
      "metar_trigger": false,
      "taf_trigger": false,
      "metar": "METAR LFLL 221000Z VRB02KT CAVOK 13/05 Q1017 NOSIG",
      "taf": "TAF LFLL 220500Z 2206/2312 36003KT CAVOK"
    },
    {
      "icao": "LFLS",
      "alert": "OK",
      "vis_m": 9999,
      "fzfg": false,
      "metar_trigger": false,
      "taf_trigger": false,
      "metar": "METAR LFLS 221000Z AUTO 08005KT 040V140 CAVOK 15/06 Q1016 NOSIG",
      "taf": "TAF LFLS 220800Z 2209/2309 06005KT CAVOK"
    },
    {
      "icao": "LFMN",
      "alert": "OK",
      "vis_m": 9999,
      "fzfg": false,
      "metar_trigger": false,
      "taf_trigger": false,
      "metar": "METAR LFMN 221000Z 10021KT 9999 FEW021 BKN046 17/12 Q1016 NOSIG",
      "taf": "TAF LFMN 220800Z 2209/2315 11018KT 9999 SCT020 BKN040"
    },
    {
      "icao": "LFOB",
      "alert": "OK",
      "vis_m": 9999,
      "fzfg": false,
      "metar_trigger": false,
      "taf_trigger": false,
      "metar": "METAR LFOB 221000Z AUTO 08017G27KT CAVOK 15/03 Q1022 NOSIG",
      "taf": "TAF LFOB 220500Z 2206/2306 06010KT CAVOK"
    },
    {
      "icao": "LFPO",
      "alert": "OK",
      "vis_m": 9999,
      "fzfg": false,
      "metar_trigger": false,
      "taf_trigger": false,
      "metar": "METAR LFPO 221000Z 09019KT CAVOK 16/M02 Q1020 NOSIG",
      "taf": "TAF LFPO 220500Z 2206/2312 06010KT CAVOK"
    },
    {
      "icao": "LFSB",
      "alert": "OK",
      "vis_m": 9999,
      "fzfg": false,
      "metar_trigger": false,
      "taf_trigger": false,
      "metar": "METAR LFSB 221000Z AUTO VRB04KT CAVOK 14/03 Q1020 NOSIG",
      "taf": "TAF LFSB 220500Z 2206/2306 33005KT CAVOK"
    },
    {
      "icao": "LGAV",
      "alert": "OK",
      "vis_m": 9999,
      "fzfg": false,
      "metar_trigger": false,
      "taf_trigger": false,
      "metar": "METAR LGAV 220950Z 08010KT 9999 SCT025 20/12 Q1012 NOSIG",
      "taf": "TAF LGAV 220500Z 2206/2306 VRB03KT 9999 FEW020"
    },
    {
      "icao": "LGTS",
      "alert": "OK",
      "vis_m": 7000,
      "fzfg": false,
      "metar_trigger": false,
      "taf_trigger": false,
      "metar": "METAR LGTS 220950Z VRB03KT 7000 -RA SCT005 BKN020 13/12 Q1015 NOSIG",
      "taf": "TAF LGTS 220500Z 2206/2306 34015KT 9999 BKN030"
    },
    {
      "icao": "LHBP",
      "alert": "OK",
      "vis_m": 9999,
      "fzfg": false,
      "metar_trigger": false,
      "taf_trigger": false,
      "metar": "METAR LHBP 221000Z VRB08KT CAVOK 15/M06 Q1019 NOSIG",
      "taf": "TAF LHBP 220515Z 2206/2306 36005KT CAVOK"
    },
    {
      "icao": "LHDC",
      "alert": "OK",
      "vis_m": 9999,
      "fzfg": false,
      "metar_trigger": false,
      "taf_trigger": false,
      "metar": "METAR LHDC 220945Z AUTO 04010KT 010V080 CAVOK 15/M03 Q1017 NOSIG",
      "taf": "TAF LHDC 220815Z 2209/2218 36010KT CAVOK"
    },
    {
      "icao": "LIBD",
      "alert": "OK",
      "vis_m": 9999,
      "fzfg": false,
      "metar_trigger": false,
      "taf_trigger": false,
      "metar": "METAR LIBD 220950Z 33006KT 300V360 9999 SCT015 16/12 Q1015",
      "taf": "TAF LIBD 220500Z 2206/2306 35013KT 9999 SCT040"
    },
    {
      "icao": "LIBG",
      "alert": "OK",
      "vis_m": 9999,
      "fzfg": false,
      "metar_trigger": false,
      "taf_trigger": false,
      "metar": "METAR LIBG 220950Z 34007KT 300V020 9999 SCT040 19/11 Q1013",
      "taf": "TAF LIBG 220800Z 2209/2218 35016KT 9999 SCT030"
    },
    {
      "icao": "LIBP",
      "alert": "OK",
      "vis_m": 9999,
      "fzfg": false,
      "metar_trigger": false,
      "taf_trigger": false,
      "metar": "METAR LIBP 220950Z AUTO 32004KT 9999 -RA OVC055/// 13/12 Q1018",
      "taf": "TAF LIBP 220500Z 2206/2306 VRB06KT 9999 SCT030"
    },
    {
      "icao": "LIBR",
      "alert": "OK",
      "vis_m": 9999,
      "fzfg": false,
      "metar_trigger": false,
      "taf_trigger": false,
      "metar": "METAR LIBR 220950Z 03006KT 360V070 9999 FEW015 17/13 Q1014",
      "taf": "TAF LIBR 220500Z 2206/2306 34013KT 9999 SCT040"
    },
    {
      "icao": "LICA",
      "alert": "OK",
      "vis_m": 9999,
      "fzfg": false,
      "metar_trigger": false,
      "taf_trigger": false,
      "metar": "METAR LICA 220950Z AUTO 26005KT 240V300 9999 NCD 22/10 Q1013",
      "taf": "TAF LICA 220500Z 2206/2306 VRB05KT CAVOK"
    },
    {
      "icao": "LICC",
      "alert": "OK",
      "vis_m": 9999,
      "fzfg": false,
      "metar_trigger": false,
      "taf_trigger": false,
      "metar": "METAR LICC 220950Z 10013KT 9999 FEW015 BKN030 19/16 Q1014",
      "taf": ""
    },
    {
      "icao": "LICJ",
      "alert": "OK",
      "vis_m": 9999,
      "fzfg": false,
      "metar_trigger": false,
      "taf_trigger": false,
      "metar": "METAR LICJ 220950Z 33004KT CAVOK 19/16 Q1012",
      "taf": "TAF LICJ 220500Z 2206/2306 VRB05KT CAVOK"
    },
    {
      "icao": "LIMC",
      "alert": "OK",
      "vis_m": 9999,
      "fzfg": false,
      "metar_trigger": false,
      "taf_trigger": false,
      "metar": "METAR LIMC 220950Z VRB03KT 9999 BKN050 14/07 Q1020 NOSIG",
      "taf": "TAF LIMC 220500Z 2206/2312 06010KT 9999 SCT060"
    },
    {
      "icao": "LIME",
      "alert": "OK",
      "vis_m": 9999,
      "fzfg": false,
      "metar_trigger": false,
      "taf_trigger": false,
      "metar": "METAR LIME 220950Z 13004KT 060V200 9999 BKN050 13/07 Q1020 NOSIG",
      "taf": "TAF LIME 220500Z 2206/2306 VRB05KT 9999 SCT040"
    },
    {
      "icao": "LIMF",
      "alert": "OK",
      "vis_m": 9999,
      "fzfg": false,
      "metar_trigger": false,
      "taf_trigger": false,
      "metar": "METAR LIMF 220950Z 02004KT 340V060 9999 BKN030 12/08 Q1020",
      "taf": "TAF LIMF 220500Z 2206/2306 03010KT 9999 SCT050"
    },
    {
      "icao": "LIMJ",
      "alert": "OK",
      "vis_m": 9999,
      "fzfg": false,
      "metar_trigger": false,
      "taf_trigger": false,
      "metar": "METAR LIMJ 220950Z 03014KT 9999 FEW030 17/09 Q1017",
      "taf": "TAF LIMJ 220500Z 2206/2306 01005KT 9999 SCT060"
    },
    {
      "icao": "LIPE",
      "alert": "OK",
      "vis_m": 9999,
      "fzfg": false,
      "metar_trigger": false,
      "taf_trigger": false,
      "metar": "METAR LIPE 220950Z 05006KT 020V080 9999 FEW035 SCT070 16/08 Q1020",
      "taf": "TAF LIPE 220500Z 2206/2306 VRB06KT 9999 SCT040"
    },
    {
      "icao": "LIPH",
      "alert": "OK",
      "vis_m": 9999,
      "fzfg": false,
      "metar_trigger": false,
      "taf_trigger": false,
      "metar": "METAR LIPH 220950Z 08009KT 050V140 9999 FEW080 16/03 Q1020",
      "taf": "TAF LIPH 220500Z 2206/2306 06008KT 9999 SCT050"
    },
    {
      "icao": "LIPQ",
      "alert": "OK",
      "vis_m": 9999,
      "fzfg": false,
      "metar_trigger": false,
      "taf_trigger": false,
      "metar": "METAR LIPQ 220950Z AUTO 09008KT 050V120 9999 NCD 16/M00 Q1019",
      "taf": "TAF LIPQ 220500Z 2206/2306 02008KT 9999 SCT050"
    },
    {
      "icao": "LIPR",
      "alert": "OK",
      "vis_m": 9999,
      "fzfg": false,
      "metar_trigger": false,
      "taf_trigger": false,
      "metar": "METAR LIPR 220950Z 07009KT 040V100 9999 SCT050 15/08 Q1019",
      "taf": "TAF LIPR 220500Z 2206/2306 08017KT 9999 SCT030"
    },
    {
      "icao": "LIPX",
      "alert": "OK",
      "vis_m": 9999,
      "fzfg": false,
      "metar_trigger": false,
      "taf_trigger": false,
      "metar": "METAR LIPX 220950Z AUTO 08008KT 040V120 9999 BKN065/// BKN092/// 16/03 Q1020",
      "taf": "TAF LIPX 220500Z 2206/2306 09012KT 9999 SCT050"
    },
    {
      "icao": "LIPY",
      "alert": "OK",
      "vis_m": 9999,
      "fzfg": false,
      "metar_trigger": false,
      "taf_trigger": false,
      "metar": "METAR LIPY 220950Z AUTO 03005KT 350V080 9999 FEW046/// BKN077/// 16/10 Q1018",
      "taf": "TAF LIPY 220500Z 2206/2306 VRB05KT 9999 SCT040"
    },
    {
      "icao": "LIPZ",
      "alert": "OK",
      "vis_m": 9999,
      "fzfg": false,
      "metar_trigger": false,
      "taf_trigger": false,
      "metar": "METAR LIPZ 220950Z 08008KT 050V110 CAVOK 15/02 Q1020 NOSIG",
      "taf": "TAF LIPZ 220500Z 2206/2312 02014KT 9999 SCT050"
    },
    {
      "icao": "LIRF",
      "alert": "OK",
      "vis_m": 9999,
      "fzfg": false,
      "metar_trigger": false,
      "taf_trigger": false,
      "metar": "METAR LIRF 220950Z 06007KT 9999 SCT030 14/12 Q1015 NOSIG",
      "taf": "TAF LIRF 220500Z 2206/2312 04008KT 9999 SCT020"
    },
    {
      "icao": "LIRN",
      "alert": "OK",
      "vis_m": 9999,
      "fzfg": false,
      "metar_trigger": false,
      "taf_trigger": false,
      "metar": "METAR LIRN 220950Z 36007KT 300V050 9999 FEW050 20/09 Q1013 NOSIG",
      "taf": "TAF LIRN 220500Z 2206/2306 VRB05KT 9999 FEW030"
    },
    {
      "icao": "LIRP",
      "alert": "OK",
      "vis_m": 9999,
      "fzfg": false,
      "metar_trigger": false,
      "taf_trigger": false,
      "metar": "METAR LIRP 220945Z 06013KT 9999 FEW080 18/07 Q1017 NOSIG",
      "taf": "TAF LIRP 220500Z 2206/2306 08010KT 9999 OVC060"
    },
    {
      "icao": "LIRZ",
      "alert": "OK",
      "vis_m": 9999,
      "fzfg": false,
      "metar_trigger": false,
      "taf_trigger": false,
      "metar": "METAR LIRZ 220950Z AUTO 04010KT 9999 SCT034/// BKN057/// 15/08 Q1016",
      "taf": "TAF LIRZ 220500Z 2206/2306 03012KT 9999 BKN060"
    },
    {
      "icao": "LJLJ",
      "alert": "OK",
      "vis_m": 9999,
      "fzfg": false,
      "metar_trigger": false,
      "taf_trigger": false,
      "metar": "METAR LJLJ 221000Z 11005KT 060V160 9999 FEW055 BKN070 11/M02 Q1021 NOSIG",
      "taf": "TAF LJLJ 220500Z 2206/2306 VRB00KT 9999 FEW045 SCT080"
    },
    {
      "icao": "LKMT",
      "alert": "OK",
      "vis_m": 9999,
      "fzfg": false,
      "metar_trigger": false,
      "taf_trigger": false,
      "metar": "METAR LKMT 221000Z 02010KT CAVOK 11/M00 Q1022 NOSIG",
      "taf": "TAF LKMT 220500Z 2206/2306 VRB02KT CAVOK"
    },
    {
      "icao": "LKPR",
      "alert": "OK",
      "vis_m": 9999,
      "fzfg": false,
      "metar_trigger": false,
      "taf_trigger": false,
      "metar": "METAR LKPR 221000Z 33012KT 300V030 CAVOK 10/M02 Q1024 NOSIG",
      "taf": "TAF LKPR 220800Z 2209/2315 35010KT CAVOK"
    },
    {
      "icao": "LLBG",
      "alert": "OK",
      "vis_m": 9999,
      "fzfg": false,
      "metar_trigger": false,
      "taf_trigger": false,
      "metar": "METAR LLBG 221020Z 31010KT CAVOK 23/12 Q1014 NOSIG",
      "taf": "TAF LLBG 220503Z 2206/2306 VRB03KT CAVOK TX24/2210Z TN11/2303Z"
    },
    {
      "icao": "LMML",
      "alert": "OK",
      "vis_m": 9999,
      "fzfg": false,
      "metar_trigger": false,
      "taf_trigger": false,
      "metar": "METAR LMML 221015Z VRB05KT CAVOK 26/14 Q1012 NOSIG",
      "taf": "TAF LMML 220500Z 2206/2306 VRB06KT CAVOK"
    },
    {
      "icao": "LOWW",
      "alert": "OK",
      "vis_m": 9999,
      "fzfg": false,
      "metar_trigger": false,
      "taf_trigger": false,
      "metar": "METAR LOWW 220950Z 35010KT 320V020 CAVOK 13/M00 Q1022 NOSIG",
      "taf": "TAF LOWW 220815Z 2209/2315 34015KT CAVOK TX18/2315Z TN08/2301Z"
    },
    {
      "icao": "LPFR",
      "alert": "OK",
      "vis_m": 9999,
      "fzfg": false,
      "metar_trigger": false,
      "taf_trigger": false,
      "metar": "METAR LPFR 221000Z 25008KT 9999 FEW015 20/11 Q1014",
      "taf": "TAF LPFR 220500Z 2206/2306 31005KT 9999 FEW015 BKN040"
    },
    {
      "icao": "LPMA",
      "alert": "OK",
      "vis_m": 9999,
      "fzfg": false,
      "metar_trigger": false,
      "taf_trigger": false,
      "metar": "METAR LPMA 221000Z 20015KT 9999 SCT015 17/09 Q1013",
      "taf": "TAF LPMA 220500Z 2206/2306 VRB05KT 9999 SCT015"
    },
    {
      "icao": "LPPR",
      "alert": "OK",
      "vis_m": 9999,
      "fzfg": false,
      "metar_trigger": false,
      "taf_trigger": false,
      "metar": "METAR LPPR 221000Z 19011KT 160V220 9999 SCT020 16/10 Q1014",
      "taf": "TAF LPPR 220500Z 2206/2306 19007KT 9999 SCT017 BKN035"
    },
    {
      "icao": "LPPS",
      "alert": "OK",
      "vis_m": 9999,
      "fzfg": false,
      "metar_trigger": false,
      "taf_trigger": false,
      "metar": "METAR LPPS 221000Z 19011KT 9999 FEW015 17/09 Q1013",
      "taf": "TAF LPPS 220500Z 2206/2312 22008KT 9999 SCT015"
    },
    {
      "icao": "LPPT",
      "alert": "OK",
      "vis_m": 9999,
      "fzfg": false,
      "metar_trigger": false,
      "taf_trigger": false,
      "metar": "METAR LPPT 221000Z VRB03KT 9999 FEW025 17/09 Q1015",
      "taf": "TAF LPPT 220500Z 2206/2312 VRB02KT 9999 SCT030"
    },
    {
      "icao": "LQBK",
      "alert": "OK",
      "vis_m": 9999,
      "fzfg": false,
      "metar_trigger": false,
      "taf_trigger": false,
      "metar": "METAR LQBK 221000Z VRB02KT 9999 SCT025 BKN035 10/05 Q1021 NOSIG",
      "taf": "TAF LQBK 220500Z 2206/2306 33005KT 9999 SCT045 TX15/2214Z TN02/2304Z"
    },
    {
      "icao": "LQSA",
      "alert": "OK",
      "vis_m": 9999,
      "fzfg": false,
      "metar_trigger": false,
      "taf_trigger": false,
      "metar": "METAR LQSA 221000Z 15005KT 120V190 9999 FEW025 BKN045 10/04 Q1017 NOSIG",
      "taf": "TAF LQSA 220500Z 2206/2306 VRB02KT 9999 FEW025 BKN040 TX12/2214Z TN03/2305Z"
    },
    {
      "icao": "LQTZ",
      "alert": "OK",
      "vis_m": 9999,
      "fzfg": false,
      "metar_trigger": false,
      "taf_trigger": false,
      "metar": "METAR LQTZ 221000Z 08008KT 050V110 9999 SCT030 BKN050 10/03 Q1019",
      "taf": "TAF LQTZ 220500Z 2206/2306 03005KT 9999 SCT050 TX14/2213Z TN01/2304Z"
    },
    {
      "icao": "LRBC",
      "alert": "OK",
      "vis_m": 9999,
      "fzfg": false,
      "metar_trigger": false,
      "taf_trigger": false,
      "metar": "METAR LRBC 221000Z 31017G28KT 280V340 9999 VCSH FEW040CB BKN053 09/01 Q1016",
      "taf": "TAF LRBC 220800Z 2209/2218 02008KT CAVOK"
    },
    {
      "icao": "LRBS",
      "alert": "OK",
      "vis_m": 9999,
      "fzfg": false,
      "metar_trigger": false,
      "taf_trigger": false,
      "metar": "METAR LRBS 221000Z 03006KT 310V120 9999 BKN035 12/04 Q1016 NOSIG",
      "taf": "TAF LRBS 220500Z 2206/2306 05006KT 9999 SCT045"
    },
    {
      "icao": "LRBV",
      "alert": "OK",
      "vis_m": 9999,
      "fzfg": false,
      "metar_trigger": false,
      "taf_trigger": false,
      "metar": "METAR LRBV 221000Z 21004KT 150V240 9999 FEW021 SCT053 07/02 Q1016",
      "taf": "TAF LRBV 220800Z 2209/2218 VRB04KT 9999 BKN025"
    },
    {
      "icao": "LRCL",
      "alert": "OK",
      "vis_m": 9999,
      "fzfg": false,
      "metar_trigger": false,
      "taf_trigger": false,
      "metar": "METAR LRCL 221000Z 30005KT 250V360 9999 BKN068 11/M03 Q1016",
      "taf": "TAF LRCL 220800Z 2209/2218 VRB04KT 9999 SCT040"
    },
    {
      "icao": "LRCV",
      "alert": "OK",
      "vis_m": 9999,
      "fzfg": false,
      "metar_trigger": false,
      "taf_trigger": false,
      "metar": "METAR LRCV 221000Z 23004KT 9999 SCT025 SCT040 13/06 Q1016",
      "taf": "TAF LRCV 220800Z 2209/2218 VRB04KT 9999 BKN035"
    },
    {
      "icao": "LRIA",
      "alert": "OK",
      "vis_m": 9999,
      "fzfg": false,
      "metar_trigger": false,
      "taf_trigger": false,
      "metar": "METAR LRIA 221000Z 31009KT 260V350 CAVOK 11/M05 Q1016",
      "taf": "TAF LRIA 220800Z 2209/2218 30008KT CAVOK"
    },
    {
      "icao": "LROP",
      "alert": "OK",
      "vis_m": 9999,
      "fzfg": false,
      "metar_trigger": false,
      "taf_trigger": false,
      "metar": "METAR LROP 221000Z 08005KT 010V120 9999 BKN035 12/02 Q1016 NOSIG",
      "taf": "TAF LROP 220500Z 2206/2306 05006KT 9999 SCT045"
    },
    {
      "icao": "LRSB",
      "alert": "OK",
      "vis_m": 9999,
      "fzfg": false,
      "metar_trigger": false,
      "taf_trigger": false,
      "metar": "METAR LRSB 221000Z 25011KT 9999 FEW016 SCT033 BKN060 08/04 Q1016 NOSIG",
      "taf": "TAF LRSB 220500Z 2206/2306 33007KT 9999 BKN030"
    },
    {
      "icao": "LRSM",
      "alert": "OK",
      "vis_m": 9999,
      "fzfg": false,
      "metar_trigger": false,
      "taf_trigger": false,
      "metar": "METAR LRSM 221000Z 01012KT CAVOK 15/M04 Q1017",
      "taf": "TAF LRSM 220800Z 2209/2218 VRB04KT CAVOK"
    },
    {
      "icao": "LRSV",
      "alert": "OK",
      "vis_m": 9999,
      "fzfg": false,
      "metar_trigger": false,
      "taf_trigger": false,
      "metar": "METAR LRSV 221000Z 01008KT 310V030 9999 FEW035CB 09/M03 Q1015",
      "taf": "TAF LRSV 220800Z 2209/2218 30008KT CAVOK"
    },
    {
      "icao": "LRTM",
      "alert": "OK",
      "vis_m": 9999,
      "fzfg": false,
      "metar_trigger": false,
      "taf_trigger": false,
      "metar": "METAR LRTM 221000Z 34007KT 290V010 9999 BKN037 12/M02 Q1016",
      "taf": "TAF LRTM 220800Z 2209/2218 03007KT 9999 SCT030"
    },
    {
      "icao": "LRTR",
      "alert": "OK",
      "vis_m": 9999,
      "fzfg": false,
      "metar_trigger": false,
      "taf_trigger": false,
      "metar": "METAR LRTR 221000Z 01013KT 340V050 CAVOK 13/M02 Q1017",
      "taf": "TAF LRTR 220500Z 2206/2306 35006KT CAVOK"
    },
    {
      "icao": "LTAC",
      "alert": "OK",
      "vis_m": 9999,
      "fzfg": false,
      "metar_trigger": false,
      "taf_trigger": false,
      "metar": "METAR LTAC 220950Z 25018KT 9999 SCT040 BKN100 15/05 Q1011 NOSIG RMK RWY21C 23019KT RWY03L 24016KT RWY21R 23020KT RWY03R 24013KT 190V260 RWY21L 24019KT 200V260",
      "taf": "TAF LTAC 220440Z 2206/2306 23012KT 9999 SCT040 BKN100"
    },
    {
      "icao": "LTFM",
      "alert": "OK",
      "vis_m": 7000,
      "fzfg": false,
      "metar_trigger": false,
      "taf_trigger": false,
      "metar": "METAR LTFM 220950Z 04015KT 7000 -RA BKN008 BKN022 09/07 Q1015 NOSIG RMK RWY17L 05013KT RWY34L 04014KT RWY16R 04013KT RWY36 05015KT RWY18 05013KT",
      "taf": "TAF LTFM 220440Z 2206/2312 05014KT 9999 -RA BKN011 BKN022"
    },
    {
      "icao": "LUKK",
      "alert": "OK",
      "vis_m": 9999,
      "fzfg": false,
      "metar_trigger": false,
      "taf_trigger": false,
      "metar": "METAR LUKK 221000Z 36009KT 290V050 CAVOK 10/M06 Q1015 TEMPO SCT040CB",
      "taf": "TAF LUKK 220508Z 2206/2306 VRB05KT CAVOK"
    },
    {
      "icao": "LWOH",
      "alert": "OK",
      "vis_m": 9999,
      "fzfg": false,
      "metar_trigger": false,
      "taf_trigger": false,
      "metar": "METAR LWOH 221020Z 34010KT 310V010 9999 FEW015 BKN035 12/06 Q1014",
      "taf": "TAF LWOH 220830Z 2209/2309 36008KT 9999 FEW015 BKN035"
    },
    {
      "icao": "LWSK",
      "alert": "OK",
      "vis_m": 9999,
      "fzfg": false,
      "metar_trigger": false,
      "taf_trigger": false,
      "metar": "METAR LWSK 221020Z 32005KT 280V350 9999 SCT035 OVC070 12/07 Q1016 NOSIG",
      "taf": "TAF LWSK 220830Z 2209/2309 VRB02KT 9999 SCT040 OVC080"
    },
    {
      "icao": "LYBE",
      "alert": "OK",
      "vis_m": 9999,
      "fzfg": false,
      "metar_trigger": false,
      "taf_trigger": false,
      "metar": "METAR LYBE 221000Z 36007KT 320V040 9999 SCT040 13/01 Q1019 NOSIG",
      "taf": "TAF LYBE 220500Z 2206/2306 29006KT 9999 SCT040 TX15/2213Z TN03/2304Z"
    },
    {
      "icao": "LYNI",
      "alert": "OK",
      "vis_m": 9999,
      "fzfg": false,
      "metar_trigger": false,
      "taf_trigger": false,
      "metar": "METAR LYNI 221000Z 32009KT 260V010 9999 FEW030 BKN075 14/04 Q1016 NOSIG",
      "taf": "TAF LYNI 220500Z 2206/2306 32010KT 9999 BKN030 BKN080 TX15/2213Z TN04/2304Z"
    },
    {
      "icao": "LYPG",
      "alert": "OK",
      "vis_m": 9999,
      "fzfg": false,
      "metar_trigger": false,
      "taf_trigger": false,
      "metar": "METAR LYPG 221000Z VRB04KT 9999 FEW030 17/03 Q1014 NOSIG",
      "taf": ""
    },
    {
      "icao": "LZIB",
      "alert": "OK",
      "vis_m": 9999,
      "fzfg": false,
      "metar_trigger": false,
      "taf_trigger": false,
      "metar": "METAR LZIB 221000Z 33010KT CAVOK 14/M02 Q1021 NOSIG",
      "taf": "TAF LZIB 220515Z 2206/2306 04005KT CAVOK"
    },
    {
      "icao": "LZKZ",
      "alert": "OK",
      "vis_m": 9999,
      "fzfg": false,
      "metar_trigger": false,
      "taf_trigger": false,
      "metar": "METAR LZKZ 221000Z 03014KT CAVOK 13/M05 Q1018 NOSIG",
      "taf": ""
    },
    {
      "icao": "LZTT",
      "alert": "OK",
      "vis_m": 9999,
      "fzfg": false,
      "metar_trigger": false,
      "taf_trigger": false,
      "metar": "METAR LZTT 221000Z 06013KT 9999 FEW056 11/M06 Q1017 NOSIG",
      "taf": "TAF LZTT 220515Z 2206/2306 27008KT 9999 SCT050"
    },
    {
      "icao": "OEJN",
      "alert": "OK",
      "vis_m": 9999,
      "fzfg": false,
      "metar_trigger": false,
      "taf_trigger": false,
      "metar": "METAR OEJN 221000Z 33016KT CAVOK 33/14 Q1007 NOSIG",
      "taf": "TAF OEJN 220500Z 2206/2312 34015KT 7000 NSC"
    },
    {
      "icao": "OEMA",
      "alert": "OK",
      "vis_m": 9999,
      "fzfg": false,
      "metar_trigger": false,
      "taf_trigger": false,
      "metar": "METAR OEMA 221000Z 14006KT 9999 SCT040 32/09 Q1011 NOSIG",
      "taf": "TAF OEMA 220500Z 2206/2312 26010KT CAVOK"
    },
    {
      "icao": "OJAI",
      "alert": "OK",
      "vis_m": 5000,
      "fzfg": false,
      "metar_trigger": false,
      "taf_trigger": false,
      "metar": "METAR OJAI 221000Z 22006KT 5000 HZ NSC 22/M01 Q1016 NOSIG",
      "taf": "TAF OJAI 220431Z 2206/2312 VRB02KT 5000 HZ NSC"
    },
    {
      "icao": "OMAA",
      "alert": "OK",
      "vis_m": null,
      "fzfg": false,
      "metar_trigger": false,
      "taf_trigger": false,
      "metar": "",
      "taf": ""
    },
    {
      "icao": "OMDB",
      "alert": "OK",
      "vis_m": null,
      "fzfg": false,
      "metar_trigger": false,
      "taf_trigger": false,
      "metar": "",
      "taf": ""
    },
    {
      "icao": "UAAA",
      "alert": "OK",
      "vis_m": 9999,
      "fzfg": false,
      "metar_trigger": false,
      "taf_trigger": false,
      "metar": "METAR UAAA 221000Z 03003MPS 9999 SCT050 BKN100 22/12 Q1008 NOSIG",
      "taf": "TAF UAAA 220501Z 2206/2306 02003G08MPS 9999 SCT050CB OVC100 TX23/2209Z TN12/2301Z"
    },
    {
      "icao": "UBBB",
      "alert": "OK",
      "vis_m": 9999,
      "fzfg": false,
      "metar_trigger": false,
      "taf_trigger": false,
      "metar": "METAR UBBB 221000Z 19012KT 9999 SCT026 16/10 Q1010 NOSIG",
      "taf": "TAF UBBB 220504Z 2206/2306 15006KT 9999 BKN020 TX16/2210Z TN10/2300Z"
    },
    {
      "icao": "UDSG",
      "alert": "OK",
      "vis_m": 9999,
      "fzfg": false,
      "metar_trigger": false,
      "taf_trigger": false,
      "metar": "METAR UDSG 221000Z 23006KT 180V280 9999 FEW049TCU 12/M02 Q1014 NOSIG",
      "taf": "TAF UDSG 220500Z 2206/2306 24006KT 9999 FEW050"
    },
    {
      "icao": "UDYZ",
      "alert": "OK",
      "vis_m": 9999,
      "fzfg": false,
      "metar_trigger": false,
      "taf_trigger": false,
      "metar": "METAR UDYZ 221000Z 18005KT 9999 FEW046 17/03 Q1013 NOSIG",
      "taf": "TAF UDYZ 220500Z 2206/2306 16006KT 9999 FEW040"
    },
    {
      "icao": "UGKO",
      "alert": "OK",
      "vis_m": 9999,
      "fzfg": false,
      "metar_trigger": false,
      "taf_trigger": false,
      "metar": "METAR UGKO 221000Z VRB02KT 9999 BKN093 20/07 Q1009 NOSIG",
      "taf": "TAF UGKO 220500Z 2206/2306 26010KT 9999 SCT023 BKN050 TX22/2211Z TN08/2303Z"
    }
  ]
}