{
  "ts_utc": "2026-04-26T04:32:44Z",
  "threshold_m": 150,
  "source": "stations_override.txt (ICAO list) + aviationweather.gov (METAR/TAF raw)",
  "station_count": 159,
  "stations": [
    {
      "icao": "BIKF",
      "alert": "OK",
      "vis_m": 9999,
      "fzfg": false,
      "metar_trigger": false,
      "taf_trigger": false,
      "metar": "METAR BIKF 260400Z 14014KT 9999 FEW010 SCT038 BKN120 08/06 Q1013",
      "taf": "TAF BIKF 260411Z 2606/2706 14022G32KT 9999 BKN020 TX10/2614Z TN07/2606Z"
    },
    {
      "icao": "BKPR",
      "alert": "OK",
      "vis_m": 9999,
      "fzfg": false,
      "metar_trigger": false,
      "taf_trigger": false,
      "metar": "METAR BKPR 260430Z VRB02KT CAVOK 04/03 Q1016 NOSIG",
      "taf": "TAF BKPR 252330Z 2600/2624 3305KT CAVOK"
    },
    {
      "icao": "EBCI",
      "alert": "OK",
      "vis_m": 9999,
      "fzfg": false,
      "metar_trigger": false,
      "taf_trigger": false,
      "metar": "METAR EBCI 260420Z 06006KT CAVOK 04/01 Q1023 NOSIG",
      "taf": "TAF EBCI 252304Z 2600/2706 04005KT CAVOK"
    },
    {
      "icao": "EDDB",
      "alert": "OK",
      "vis_m": 9999,
      "fzfg": false,
      "metar_trigger": false,
      "taf_trigger": false,
      "metar": "METAR EDDB 260420Z AUTO 31008KT CAVOK 04/01 Q1021 NOSIG",
      "taf": "TAF EDDB 252300Z 2600/2624 30012KT CAVOK"
    },
    {
      "icao": "EDDH",
      "alert": "OK",
      "vis_m": 9999,
      "fzfg": false,
      "metar_trigger": false,
      "taf_trigger": false,
      "metar": "METAR EDDH 260420Z AUTO VRB01KT CAVOK 01/00 Q1023 NOSIG",
      "taf": "TAF EDDH 252300Z 2600/2706 29007KT CAVOK"
    },
    {
      "icao": "EDDK",
      "alert": "OK",
      "vis_m": 9999,
      "fzfg": false,
      "metar_trigger": false,
      "taf_trigger": false,
      "metar": "METAR EDDK 260420Z AUTO 05004KT CAVOK 03/02 Q1023 NOSIG",
      "taf": "TAF EDDK 252300Z 2600/2706 VRB02KT CAVOK"
    },
    {
      "icao": "EDDN",
      "alert": "OK",
      "vis_m": 9999,
      "fzfg": false,
      "metar_trigger": false,
      "taf_trigger": false,
      "metar": "METAR EDDN 260420Z AUTO VRB01KT CAVOK 03/M01 Q1021 NOSIG",
      "taf": "TAF EDDN 252300Z 2600/2624 29003KT CAVOK"
    },
    {
      "icao": "EDDS",
      "alert": "OK",
      "vis_m": 9999,
      "fzfg": false,
      "metar_trigger": false,
      "taf_trigger": false,
      "metar": "METAR EDDS 260420Z AUTO VRB01KT CAVOK 03/M02 Q1021 NOSIG",
      "taf": "TAF EDDS 252300Z 2600/2624 VRB02KT CAVOK"
    },
    {
      "icao": "EDFH",
      "alert": "OK",
      "vis_m": 9999,
      "fzfg": false,
      "metar_trigger": false,
      "taf_trigger": false,
      "metar": "METAR EDFH 260420Z VRB02KT CAVOK 05/00 Q1022",
      "taf": "TAF EDFH 252300Z 2600/2624 35004KT CAVOK"
    },
    {
      "icao": "EDJA",
      "alert": "OK",
      "vis_m": 9999,
      "fzfg": false,
      "metar_trigger": false,
      "taf_trigger": false,
      "metar": "METAR EDJA 260420Z 16003KT CAVOK 00/M02 Q1021",
      "taf": "TAF EDJA 260200Z 2603/2612 VRB03KT CAVOK"
    },
    {
      "icao": "EDLW",
      "alert": "OK",
      "vis_m": 9999,
      "fzfg": false,
      "metar_trigger": false,
      "taf_trigger": false,
      "metar": "METAR EDLW 260420Z 04002KT CAVOK 03/02 Q1023",
      "taf": "TAF EDLW 260350Z 2604/2624 VRB02KT CAVOK"
    },
    {
      "icao": "EDNY",
      "alert": "OK",
      "vis_m": 9999,
      "fzfg": false,
      "metar_trigger": false,
      "taf_trigger": false,
      "metar": "METAR EDNY 260420Z 06005KT CAVOK 04/01 Q1021",
      "taf": "TAF EDNY 260200Z 2603/2612 05005KT CAVOK"
    },
    {
      "icao": "EDSB",
      "alert": "OK",
      "vis_m": 9999,
      "fzfg": false,
      "metar_trigger": false,
      "taf_trigger": false,
      "metar": "METAR EDSB 260420Z 03005KT CAVOK 08/M00 Q1021",
      "taf": "TAF EDSB 252300Z 2600/2624 03004KT CAVOK"
    },
    {
      "icao": "EETN",
      "alert": "OK",
      "vis_m": 9999,
      "fzfg": false,
      "metar_trigger": false,
      "taf_trigger": false,
      "metar": "METAR EETN 260420Z 33018G29KT CAVOK 01/M06 Q0998 NOSIG",
      "taf": "TAF EETN 252330Z 2600/2624 33020G30KT 9999 SCT035"
    },
    {
      "icao": "EFTU",
      "alert": "OK",
      "vis_m": 9999,
      "fzfg": false,
      "metar_trigger": false,
      "taf_trigger": false,
      "metar": "METAR EFTU 260420Z AUTO 35008KT 300V030 CAVOK 01/M07 Q1004",
      "taf": "TAF EFTU 260229Z 2603/2703 34010KT CAVOK"
    },
    {
      "icao": "EGBB",
      "alert": "OK",
      "vis_m": 8000,
      "fzfg": false,
      "metar_trigger": false,
      "taf_trigger": false,
      "metar": "METAR EGBB 260420Z 08008KT 8000 OVC005 06/05 Q1025",
      "taf": "TAF EGBB 252257Z 2600/2624 04006KT CAVOK"
    },
    {
      "icao": "EGGP",
      "alert": "OK",
      "vis_m": 9999,
      "fzfg": false,
      "metar_trigger": false,
      "taf_trigger": false,
      "metar": "METAR EGGP 260420Z 15010KT CAVOK 07/04 Q1024",
      "taf": "TAF EGGP 252258Z 2600/2624 09006KT CAVOK"
    },
    {
      "icao": "EGGW",
      "alert": "OK",
      "vis_m": 300,
      "fzfg": false,
      "metar_trigger": false,
      "taf_trigger": false,
      "metar": "METAR EGGW 260420Z AUTO 07006KT 0300 R07/1100N FG BKN002 05/04 Q1024",
      "taf": "TAF EGGW 252258Z 2600/2624 08003KT CAVOK"
    },
    {
      "icao": "EGKK",
      "alert": "OK",
      "vis_m": 9999,
      "fzfg": false,
      "metar_trigger": false,
      "taf_trigger": false,
      "metar": "METAR EGKK 260420Z 26001KT CAVOK 02/M00 Q1024",
      "taf": ""
    },
    {
      "icao": "EGNM",
      "alert": "OK",
      "vis_m": 9000,
      "fzfg": false,
      "metar_trigger": false,
      "taf_trigger": false,
      "metar": "METAR EGNM 260420Z 13006KT 9000 OVC009 05/04 Q1025",
      "taf": ""
    },
    {
      "icao": "EGPD",
      "alert": "OK",
      "vis_m": 9999,
      "fzfg": false,
      "metar_trigger": false,
      "taf_trigger": false,
      "metar": "METAR EGPD 260420Z COR AUTO 17008KT 9999 OVC018 07/04 Q1024 NOSIG",
      "taf": "TAF EGPD 252255Z 2600/2624 15006KT 9999 SCT015"
    },
    {
      "icao": "EGPF",
      "alert": "OK",
      "vis_m": 9999,
      "fzfg": false,
      "metar_trigger": false,
      "taf_trigger": false,
      "metar": "METAR EGPF 260420Z AUTO 07007KT 9999 NCD 06/04 Q1024",
      "taf": "TAF EGPF 252254Z 2600/2624 07008KT CAVOK"
    },
    {
      "icao": "EHBK",
      "alert": "OK",
      "vis_m": 9000,
      "fzfg": false,
      "metar_trigger": false,
      "taf_trigger": false,
      "metar": "METAR EHBK 260425Z AUTO 04007KT 9000 NSC 04/03 Q1023 NOSIG",
      "taf": "TAF EHBK 252313Z 2600/2706 36005KT CAVOK"
    },
    {
      "icao": "EHEH",
      "alert": "OK",
      "vis_m": 8000,
      "fzfg": false,
      "metar_trigger": false,
      "taf_trigger": false,
      "metar": "METAR EHEH 260425Z AUTO 03001KT 8000 BR OVC190 03/03 Q1024 BLU",
      "taf": "TAF EHEH 252318Z 2600/2706 36002KT CAVOK"
    },
    {
      "icao": "EKBI",
      "alert": "OK",
      "vis_m": 9999,
      "fzfg": false,
      "metar_trigger": false,
      "taf_trigger": false,
      "metar": "METAR EKBI 260418Z 00000KT 9999 BCFG NSC M03/M03 Q1023",
      "taf": ""
    },
    {
      "icao": "EKCH",
      "alert": "OK",
      "vis_m": 9999,
      "fzfg": false,
      "metar_trigger": false,
      "taf_trigger": false,
      "metar": "METAR EKCH 260420Z AUTO 33006G17KT 300V020 9999 NCD 04/M06 Q1021 NOSIG",
      "taf": "TAF EKCH 260227Z 2603/2703 32013KT CAVOK"
    },
    {
      "icao": "ENAL",
      "alert": "OK",
      "vis_m": 9999,
      "fzfg": false,
      "metar_trigger": false,
      "taf_trigger": false,
      "metar": "METAR ENAL 260420Z 34006KT 300V020 9999 FEW036 BKN060 03/M02 Q1024",
      "taf": "TAF ENAL 260200Z 2603/2612 35008KT 9999 FEW030 BKN050"
    },
    {
      "icao": "ENBR",
      "alert": "OK",
      "vis_m": 9999,
      "fzfg": false,
      "metar_trigger": false,
      "taf_trigger": false,
      "metar": "METAR ENBR 260420Z VRB02KT CAVOK M00/M04 Q1024 RMK WIND 1200FT 01010KT",
      "taf": "TAF ENBR 252300Z 2600/2624 33015KT CAVOK"
    },
    {
      "icao": "ENGM",
      "alert": "OK",
      "vis_m": 9999,
      "fzfg": false,
      "metar_trigger": false,
      "taf_trigger": false,
      "metar": "METAR ENGM 260420Z 31003KT 240V010 CAVOK 00/M11 Q1020 NOSIG",
      "taf": "TAF ENGM 252300Z 2600/2624 35008KT CAVOK"
    },
    {
      "icao": "ENHD",
      "alert": "OK",
      "vis_m": 9999,
      "fzfg": false,
      "metar_trigger": false,
      "taf_trigger": false,
      "metar": "METAR ENHD 260420Z AUTO 35016KT 9999 NCD 04/M04 Q1024",
      "taf": "TAF ENHD 260200Z 2603/2612 35015KT CAVOK"
    },
    {
      "icao": "ENTC",
      "alert": "OK",
      "vis_m": 9999,
      "fzfg": false,
      "metar_trigger": false,
      "taf_trigger": false,
      "metar": "METAR ENTC 260420Z VRB02KT 9999 SCT026 BKN033 M01/M03 Q1007 RMK WIND 2600FT 34013KT",
      "taf": ""
    },
    {
      "icao": "ENTO",
      "alert": "OK",
      "vis_m": 9999,
      "fzfg": false,
      "metar_trigger": false,
      "taf_trigger": false,
      "metar": "METAR ENTO 260420Z COR VRB02KT CAVOK 01/M09 Q1022",
      "taf": "TAF ENTO 252300Z 2600/2624 34006KT CAVOK"
    },
    {
      "icao": "ENVA",
      "alert": "OK",
      "vis_m": 9999,
      "fzfg": false,
      "metar_trigger": false,
      "taf_trigger": false,
      "metar": "METAR ENVA 260420Z 30013KT 9999 -SN FEW007 SCT016 01/M00 Q1019 RMK WIND 670FT 31016KT",
      "taf": "TAF ENVA 252300Z 2600/2624 31008KT 9999 FEW008 BKN020"
    },
    {
      "icao": "ENZV",
      "alert": "OK",
      "vis_m": 9999,
      "fzfg": false,
      "metar_trigger": false,
      "taf_trigger": false,
      "metar": "METAR ENZV 260420Z 35007KT 9999 NSC 03/M01 Q1024",
      "taf": "TAF ENZV 252300Z 2600/2624 35008KT CAVOK"
    },
    {
      "icao": "EPGD",
      "alert": "OK",
      "vis_m": 9999,
      "fzfg": false,
      "metar_trigger": false,
      "taf_trigger": false,
      "metar": "METAR EPGD 260400Z 29019KT 9999 SCT010TCU 02/01 Q1013",
      "taf": "TAF EPGD 252330Z 2600/2624 32012KT 9999 BKN025"
    },
    {
      "icao": "EPKK",
      "alert": "OK",
      "vis_m": 9999,
      "fzfg": false,
      "metar_trigger": false,
      "taf_trigger": false,
      "metar": "METAR EPKK 260400Z 32013KT 9999 BKN054 07/M02 Q1014",
      "taf": "TAF EPKK 260230Z 2603/2703 30015G25KT CAVOK"
    },
    {
      "icao": "EPKT",
      "alert": "OK",
      "vis_m": 9999,
      "fzfg": false,
      "metar_trigger": false,
      "taf_trigger": false,
      "metar": "METAR EPKT 260400Z 33017KT 290V350 9999 -SHRA FEW028TCU SCT031 05/00 Q1015",
      "taf": "TAF EPKT 252330Z 2600/2624 29015G25KT CAVOK"
    },
    {
      "icao": "EPLB",
      "alert": "OK",
      "vis_m": 9999,
      "fzfg": false,
      "metar_trigger": false,
      "taf_trigger": false,
      "metar": "METAR EPLB 260400Z 32027G41KT 9999 BKN032 05/M01 Q1007",
      "taf": "TAF EPLB 252330Z 2600/2624 27015KT CAVOK"
    },
    {
      "icao": "EPMO",
      "alert": "OK",
      "vis_m": 9999,
      "fzfg": false,
      "metar_trigger": false,
      "taf_trigger": false,
      "metar": "METAR EPMO 260400Z 31014KT 9999 SCT023 03/00 Q1012",
      "taf": "TAF EPMO 252330Z 2600/2624 30012KT CAVOK"
    },
    {
      "icao": "EPPO",
      "alert": "OK",
      "vis_m": 9999,
      "fzfg": false,
      "metar_trigger": false,
      "taf_trigger": false,
      "metar": "METAR EPPO 260400Z 30007KT 9999 BKN026 05/02 Q1017",
      "taf": "TAF EPPO 252330Z 2600/2624 31018KT 9999 SCT040"
    },
    {
      "icao": "EPRA",
      "alert": "OK",
      "vis_m": 9999,
      "fzfg": false,
      "metar_trigger": false,
      "taf_trigger": false,
      "metar": "METAR EPRA 260400Z 33017KT 9999 SCT032 05/M02 Q1011",
      "taf": "TAF EPRA 260230Z 2603/2612 32016KT 9999 SCT040"
    },
    {
      "icao": "EPRZ",
      "alert": "OK",
      "vis_m": 9999,
      "fzfg": false,
      "metar_trigger": false,
      "taf_trigger": false,
      "metar": "METAR EPRZ 260400Z 29015KT 9999 FEW034 09/01 Q1009",
      "taf": "TAF EPRZ 252330Z 2600/2624 27004KT CAVOK"
    },
    {
      "icao": "EPSC",
      "alert": "OK",
      "vis_m": 9999,
      "fzfg": false,
      "metar_trigger": false,
      "taf_trigger": false,
      "metar": "METAR EPSC 260400Z 29008KT CAVOK 02/M00 Q1018",
      "taf": "TAF EPSC 252330Z 2600/2624 31010KT CAVOK"
    },
    {
      "icao": "EPSY",
      "alert": "OK",
      "vis_m": 9999,
      "fzfg": false,
      "metar_trigger": false,
      "taf_trigger": false,
      "metar": "METAR EPSY 260400Z 32012G25KT 290V350 9999 FEW019 02/M01 Q1010",
      "taf": "TAF EPSY 260230Z 2603/2612 32012KT 9999 BKN030"
    },
    {
      "icao": "EPWA",
      "alert": "OK",
      "vis_m": 9999,
      "fzfg": false,
      "metar_trigger": false,
      "taf_trigger": false,
      "metar": "METAR EPWA 260400Z 31019G29KT 9999 BKN023 04/M01 Q1011 NOSIG",
      "taf": "TAF EPWA 260230Z 2603/2703 31015KT 9999 SCT030"
    },
    {
      "icao": "EPWR",
      "alert": "OK",
      "vis_m": 9999,
      "fzfg": false,
      "metar_trigger": false,
      "taf_trigger": false,
      "metar": "METAR EPWR 260400Z 30012KT CAVOK 06/00 Q1018",
      "taf": "TAF EPWR 260230Z 2603/2703 31016KT 9999 SCT040"
    },
    {
      "icao": "ESGG",
      "alert": "OK",
      "vis_m": 9999,
      "fzfg": false,
      "metar_trigger": false,
      "taf_trigger": false,
      "metar": "METAR ESGG 260420Z 34005KT CAVOK 00/M08 Q1020",
      "taf": "TAF ESGG 260230Z 2603/2703 35008KT CAVOK"
    },
    {
      "icao": "ESKN",
      "alert": "OK",
      "vis_m": 9999,
      "fzfg": false,
      "metar_trigger": false,
      "taf_trigger": false,
      "metar": "METAR ESKN 260420Z 30013KT CAVOK 02/M05 Q1013",
      "taf": "TAF ESKN 260230Z 2603/2703 31012G23KT CAVOK"
    },
    {
      "icao": "ESMS",
      "alert": "OK",
      "vis_m": 9999,
      "fzfg": false,
      "metar_trigger": false,
      "taf_trigger": false,
      "metar": "METAR ESMS 260420Z 30006KT CAVOK 00/M05 Q1020",
      "taf": "TAF ESMS 260227Z 2603/2703 32008KT CAVOK"
    },
    {
      "icao": "ESSA",
      "alert": "OK",
      "vis_m": 9999,
      "fzfg": false,
      "metar_trigger": false,
      "taf_trigger": false,
      "metar": "METAR ESSA 260420Z 31013KT CAVOK 01/M06 Q1011 NOSIG",
      "taf": "TAF ESSA 260230Z 2603/2703 32013KT 9999 SCT040"
    },
    {
      "icao": "EYKA",
      "alert": "OK",
      "vis_m": 9999,
      "fzfg": false,
      "metar_trigger": false,
      "taf_trigger": false,
      "metar": "METAR EYKA 260420Z 31008KT 250V010 CAVOK 02/M04 Q1004",
      "taf": "TAF EYKA 252317Z 2600/2624 34011KT 9000 BKN030"
    },
    {
      "icao": "EYPA",
      "alert": "OK",
      "vis_m": 9999,
      "fzfg": false,
      "metar_trigger": false,
      "taf_trigger": false,
      "metar": "METAR EYPA 260420Z 34010G22KT 280V030 9999 FEW028 04/M02 Q1008",
      "taf": "TAF EYPA 252315Z 2600/2624 34013KT 9000 NSC"
    },
    {
      "icao": "EYVI",
      "alert": "OK",
      "vis_m": 9999,
      "fzfg": false,
      "metar_trigger": false,
      "taf_trigger": false,
      "metar": "METAR EYVI 260420Z 32016KT 9999 SCT025 BKN033 01/M04 Q1001 NOSIG",
      "taf": ""
    },
    {
      "icao": "GCFV",
      "alert": "OK",
      "vis_m": 9999,
      "fzfg": false,
      "metar_trigger": false,
      "taf_trigger": false,
      "metar": "METAR GCFV 260400Z AUTO 34011KT 9999 FEW024 17/13 Q1013",
      "taf": "TAF GCFV 260200Z 2603/2703 35012KT 9999 SCT025 TX23/2614Z TN17/2606Z"
    },
    {
      "icao": "GCLP",
      "alert": "OK",
      "vis_m": 9999,
      "fzfg": false,
      "metar_trigger": false,
      "taf_trigger": false,
      "metar": "METAR GCLP 260400Z 01014KT 9999 SCT020 BKN030 18/14 Q1014 NOSIG",
      "taf": "TAF GCLP 260200Z 2603/2703 01014KT 9999 SCT025 TX23/2614Z TN16/2606Z"
    },
    {
      "icao": "GCTS",
      "alert": "OK",
      "vis_m": 9999,
      "fzfg": false,
      "metar_trigger": false,
      "taf_trigger": false,
      "metar": "METAR GCTS 260400Z 07008KT 9999 FEW025 BKN050 18/14 Q1014 NOSIG",
      "taf": "TAF GCTS 260200Z 2603/2703 05009KT 9999 BKN035 TX22/2614Z TN16/2606Z"
    },
    {
      "icao": "GMAD",
      "alert": "OK",
      "vis_m": 8000,
      "fzfg": false,
      "metar_trigger": false,
      "taf_trigger": false,
      "metar": "METAR GMAD 260400Z 00000KT 8000 FEW010 SCT200 14/12 Q1008 NOSIG",
      "taf": "TAF GMAD 252300Z 2600/2706 06008KT 8000 SCT020"
    },
    {
      "icao": "GMMN",
      "alert": "OK",
      "vis_m": 6000,
      "fzfg": false,
      "metar_trigger": false,
      "taf_trigger": false,
      "metar": "METAR GMMN 260400Z 35005KT 330V030 6000 BKN008 16/13 Q1011 NOSIG",
      "taf": "TAF GMMN 252300Z 2600/2706 02006KT 6000 BKN008"
    },
    {
      "icao": "GMMX",
      "alert": "OK",
      "vis_m": 8000,
      "fzfg": false,
      "metar_trigger": false,
      "taf_trigger": false,
      "metar": "METAR GMMX 260400Z 07004KT 8000 BKN026 16/12 Q1010 NOSIG",
      "taf": "TAF GMMX 252300Z 2600/2706 06006KT 8000 BKN026"
    },
    {
      "icao": "HEGN",
      "alert": "OK",
      "vis_m": 9999,
      "fzfg": false,
      "metar_trigger": false,
      "taf_trigger": false,
      "metar": "METAR HEGN 260400Z 00000KT CAVOK 20/09 Q1010 NOSIG",
      "taf": ""
    },
    {
      "icao": "HEMA",
      "alert": "OK",
      "vis_m": 9999,
      "fzfg": false,
      "metar_trigger": false,
      "taf_trigger": false,
      "metar": "METAR HEMA 260400Z 23009KT CAVOK 25/M05 Q1009 NOSIG",
      "taf": ""
    },
    {
      "icao": "HESH",
      "alert": "OK",
      "vis_m": 9999,
      "fzfg": false,
      "metar_trigger": false,
      "taf_trigger": false,
      "metar": "METAR HESH 260400Z 32004KT CAVOK 21/07 Q1009 NOSIG",
      "taf": ""
    },
    {
      "icao": "HESX",
      "alert": "OK",
      "vis_m": 9999,
      "fzfg": false,
      "metar_trigger": false,
      "taf_trigger": false,
      "metar": "METAR HESX 260400Z 26009KT CAVOK 16/13 Q1012 NOSIG",
      "taf": ""
    },
    {
      "icao": "LATI",
      "alert": "OK",
      "vis_m": 9999,
      "fzfg": false,
      "metar_trigger": false,
      "taf_trigger": false,
      "metar": "METAR LATI 260420Z 15004KT CAVOK 09/05 Q1016 NOSIG",
      "taf": "TAF LATI 252300Z 2600/2624 VRB03KT CAVOK TX25/2611Z TN07/2604Z"
    },
    {
      "icao": "LBPD",
      "alert": "OK",
      "vis_m": 9999,
      "fzfg": false,
      "metar_trigger": false,
      "taf_trigger": false,
      "metar": "METAR LBPD 260430Z AUTO 00000KT 9999 FEW240/// 10/08 Q1014 NOSIG",
      "taf": "TAF LBPD 252300Z 2600/2624 VRB03KT CAVOK"
    },
    {
      "icao": "LBSF",
      "alert": "OK",
      "vis_m": 9000,
      "fzfg": false,
      "metar_trigger": false,
      "taf_trigger": false,
      "metar": "METAR LBSF 260430Z 10003KT 9000 NSC 04/02 Q1015 TEMPO 5000 BR",
      "taf": "TAF LBSF 252300Z 2600/2624 VRB03KT CAVOK"
    },
    {
      "icao": "LBWN",
      "alert": "OK",
      "vis_m": 6000,
      "fzfg": false,
      "metar_trigger": false,
      "taf_trigger": false,
      "metar": "METAR LBWN 260430Z AUTO VRB02KT 6000 NCD 09/08 Q1012 NOSIG",
      "taf": "TAF LBWN 252300Z 2600/2624 VRB03KT 9999 SCT045"
    },
    {
      "icao": "LCLK",
      "alert": "OK",
      "vis_m": 9999,
      "fzfg": false,
      "metar_trigger": false,
      "taf_trigger": false,
      "metar": "METAR LCLK 260430Z 33003KT 9999 FEW030 22/12 Q1009 NOSIG",
      "taf": "TAF LCLK 252330Z 2600/2700 34006KT 9999 FEW030"
    },
    {
      "icao": "LCPH",
      "alert": "OK",
      "vis_m": 9999,
      "fzfg": false,
      "metar_trigger": false,
      "taf_trigger": false,
      "metar": "METAR LCPH 260430Z 28007KT 250V320 9999 FEW040 19/17 Q1012 NOSIG",
      "taf": "TAF LCPH 252330Z 2600/2700 04007KT 9999 FEW020"
    },
    {
      "icao": "LEAL",
      "alert": "OK",
      "vis_m": 9999,
      "fzfg": false,
      "metar_trigger": false,
      "taf_trigger": false,
      "metar": "METAR LEAL 260400Z 33005KT 300V020 9999 SCT017 BKN021 14/13 Q1017 NOSIG",
      "taf": "TAF LEAL 252300Z 2600/2624 VRB04KT 9999 FEW015 TX22/2612Z TN10/2606Z"
    },
    {
      "icao": "LEBB",
      "alert": "OK",
      "vis_m": 9999,
      "fzfg": false,
      "metar_trigger": false,
      "taf_trigger": false,
      "metar": "METAR LEBB 260400Z VRB02KT 9999 OVC017 15/12 Q1020 NOSIG",
      "taf": "TAF LEBB 252300Z 2600/2624 VRB03KT 9999 FEW010 BKN016 TX21/2612Z TN13/2604Z"
    },
    {
      "icao": "LEBL",
      "alert": "OK",
      "vis_m": 9999,
      "fzfg": false,
      "metar_trigger": false,
      "taf_trigger": false,
      "metar": "METAR LEBL 260400Z 33004KT CAVOK 15/11 Q1018 NOSIG",
      "taf": "TAF LEBL 252300Z 2600/2624 22005KT CAVOK TX23/2612Z TN14/2605Z"
    },
    {
      "icao": "LECH",
      "alert": "OK",
      "vis_m": 8000,
      "fzfg": false,
      "metar_trigger": false,
      "taf_trigger": false,
      "metar": "METAR LECH 260400Z AUTO 00000KT 8000 NCD 10/09 Q1018",
      "taf": "TAF LECH 252300Z 2600/2624 VRB03KT 9999 SCT020 TX25/2613Z TN09/2606Z"
    },
    {
      "icao": "LEMD",
      "alert": "OK",
      "vis_m": 9999,
      "fzfg": false,
      "metar_trigger": false,
      "taf_trigger": false,
      "metar": "METAR LEMD 260400Z VRB01KT CAVOK 13/12 Q1018 NOSIG",
      "taf": "TAF LEMD 252300Z 2600/2706 VRB04KT 9999 FEW060 TX27/2615Z TN11/2606Z"
    },
    {
      "icao": "LEMG",
      "alert": "OK",
      "vis_m": 9999,
      "fzfg": false,
      "metar_trigger": false,
      "taf_trigger": false,
      "metar": "METAR LEMG 260400Z 28002KT 9999 FEW035 14/12 Q1017 NOSIG",
      "taf": "TAF LEMG 252300Z 2600/2624 VRB03KT 9999 FEW030 TX20/2615Z TN15/2606Z"
    },
    {
      "icao": "LEVC",
      "alert": "OK",
      "vis_m": 9999,
      "fzfg": false,
      "metar_trigger": false,
      "taf_trigger": false,
      "metar": "METAR LEVC 260400Z VRB02KT CAVOK 11/09 Q1018 NOSIG",
      "taf": "TAF LEVC 252300Z 2600/2624 VRB04KT CAVOK TX25/2612Z TN11/2606Z"
    },
    {
      "icao": "LEXJ",
      "alert": "OK",
      "vis_m": 9999,
      "fzfg": false,
      "metar_trigger": false,
      "taf_trigger": false,
      "metar": "SPECI LEXJ 260417Z 12004KT 060V160 9999 OVC015 14/11 Q1020",
      "taf": "TAF LEXJ 260200Z 2603/2703 20005KT 9999 SCT010 BKN016 TX18/2613Z TN12/2603Z"
    },
    {
      "icao": "LEZG",
      "alert": "OK",
      "vis_m": 9999,
      "fzfg": false,
      "metar_trigger": false,
      "taf_trigger": false,
      "metar": "METAR LEZG 260400Z 28006KT CAVOK 15/11 Q1018 NOSIG",
      "taf": "TAF LEZG 252300Z 2600/2624 29010KT 9999 FEW060 TX29/2615Z TN14/2606Z"
    },
    {
      "icao": "LEZL",
      "alert": "OK",
      "vis_m": 9999,
      "fzfg": false,
      "metar_trigger": false,
      "taf_trigger": false,
      "metar": "METAR LEZL 260400Z 14003KT CAVOK 16/16 Q1015 NOSIG",
      "taf": "TAF LEZL 260200Z 2603/2703 VRB03KT CAVOK TX27/2615Z TN15/2606Z"
    },
    {
      "icao": "LFBD",
      "alert": "OK",
      "vis_m": 9999,
      "fzfg": false,
      "metar_trigger": false,
      "taf_trigger": false,
      "metar": "METAR LFBD 260400Z AUTO VRB01KT 9999 OVC020 14/12 Q1020 TEMPO BKN010",
      "taf": "TAF LFBD 252300Z 2600/2706 24006KT 9999 BKN018 TX25/2616Z TN14/2605Z"
    },
    {
      "icao": "LFLL",
      "alert": "OK",
      "vis_m": 9999,
      "fzfg": false,
      "metar_trigger": false,
      "taf_trigger": false,
      "metar": "METAR LFLL 260400Z 35002KT CAVOK 10/04 Q1019 NOSIG",
      "taf": "TAF LFLL 252300Z 2600/2706 36005KT CAVOK"
    },
    {
      "icao": "LFLS",
      "alert": "OK",
      "vis_m": 9999,
      "fzfg": false,
      "metar_trigger": false,
      "taf_trigger": false,
      "metar": "METAR LFLS 260400Z AUTO 11005KT CAVOK 04/02 Q1018 NOSIG",
      "taf": "TAF LFLS 260200Z 2603/2703 09005KT CAVOK"
    },
    {
      "icao": "LFMN",
      "alert": "OK",
      "vis_m": 9999,
      "fzfg": false,
      "metar_trigger": false,
      "taf_trigger": false,
      "metar": "METAR LFMN 260400Z 04005KT 9999 BKN017 15/12 Q1017 NOSIG",
      "taf": "TAF LFMN 260200Z 2603/2709 33005KT 9999 FEW020"
    },
    {
      "icao": "LFOB",
      "alert": "OK",
      "vis_m": 9999,
      "fzfg": false,
      "metar_trigger": false,
      "taf_trigger": false,
      "metar": "METAR LFOB 260400Z AUTO 30004KT 270V010 CAVOK 02/01 Q1023 NOSIG",
      "taf": "TAF LFOB 252300Z 2600/2624 05005KT CAVOK"
    },
    {
      "icao": "LFPO",
      "alert": "OK",
      "vis_m": 9999,
      "fzfg": false,
      "metar_trigger": false,
      "taf_trigger": false,
      "metar": "METAR LFPO 260400Z 02005KT CAVOK 10/00 Q1022 NOSIG",
      "taf": "TAF LFPO 252300Z 2600/2706 03005KT CAVOK"
    },
    {
      "icao": "LFSB",
      "alert": "OK",
      "vis_m": 9999,
      "fzfg": false,
      "metar_trigger": false,
      "taf_trigger": false,
      "metar": "METAR LFSB 260400Z AUTO 00000KT CAVOK 03/01 Q1021 NOSIG",
      "taf": "TAF LFSB 252300Z 2600/2624 31004KT CAVOK"
    },
    {
      "icao": "LGAV",
      "alert": "OK",
      "vis_m": 9999,
      "fzfg": false,
      "metar_trigger": false,
      "taf_trigger": false,
      "metar": "METAR LGAV 260420Z 25001KT CAVOK 11/04 Q1014 NOSIG",
      "taf": "TAF LGAV 252300Z 2600/2624 VRB03KT 9999 FEW030"
    },
    {
      "icao": "LGTS",
      "alert": "OK",
      "vis_m": 9999,
      "fzfg": false,
      "metar_trigger": false,
      "taf_trigger": false,
      "metar": "METAR LGTS 260420Z VRB03KT CAVOK 09/07 Q1015 NOSIG",
      "taf": "TAF LGTS 252300Z 2600/2624 VRB03KT 9999 FEW030"
    },
    {
      "icao": "LHBP",
      "alert": "OK",
      "vis_m": 9999,
      "fzfg": false,
      "metar_trigger": false,
      "taf_trigger": false,
      "metar": "METAR LHBP 260430Z 30015KT CAVOK 14/M01 Q1013 NOSIG",
      "taf": "TAF LHBP 252315Z 2600/2624 VRB03KT CAVOK"
    },
    {
      "icao": "LHDC",
      "alert": "OK",
      "vis_m": 9999,
      "fzfg": false,
      "metar_trigger": false,
      "taf_trigger": false,
      "metar": "METAR LHDC 260345Z AUTO 23006KT CAVOK 05/02 Q1010",
      "taf": ""
    },
    {
      "icao": "LIBD",
      "alert": "OK",
      "vis_m": 9999,
      "fzfg": false,
      "metar_trigger": false,
      "taf_trigger": false,
      "metar": "METAR LIBD 260420Z VRB02KT CAVOK 10/07 Q1015",
      "taf": "TAF LIBD 252300Z 2600/2624 VRB05KT CAVOK"
    },
    {
      "icao": "LIBG",
      "alert": "OK",
      "vis_m": null,
      "fzfg": false,
      "metar_trigger": false,
      "taf_trigger": false,
      "metar": "",
      "taf": ""
    },
    {
      "icao": "LIBP",
      "alert": "OK",
      "vis_m": 9999,
      "fzfg": false,
      "metar_trigger": false,
      "taf_trigger": false,
      "metar": "METAR LIBP 260420Z AUTO 22004KT 9999 NCD 07/05 Q1015",
      "taf": "TAF LIBP 252300Z 2600/2624 VRB05KT CAVOK"
    },
    {
      "icao": "LIBR",
      "alert": "OK",
      "vis_m": 9999,
      "fzfg": false,
      "metar_trigger": false,
      "taf_trigger": false,
      "metar": "METAR LIBR 260420Z 23005KT CAVOK 10/05 Q1015",
      "taf": ""
    },
    {
      "icao": "LICA",
      "alert": "OK",
      "vis_m": 9999,
      "fzfg": false,
      "metar_trigger": false,
      "taf_trigger": false,
      "metar": "METAR LICA 260420Z AUTO VRB01KT 9999 BKN021/// 13/11 Q1018",
      "taf": "TAF LICA 252300Z 2600/2624 VRB05KT 9999 FEW040"
    },
    {
      "icao": "LICC",
      "alert": "OK",
      "vis_m": 9999,
      "fzfg": false,
      "metar_trigger": false,
      "taf_trigger": false,
      "metar": "METAR LICC 260420Z 25007KT CAVOK 08/04 Q1017",
      "taf": "TAF LICC 252300Z 2600/2624 27007KT CAVOK"
    },
    {
      "icao": "LICJ",
      "alert": "OK",
      "vis_m": 9999,
      "fzfg": false,
      "metar_trigger": false,
      "taf_trigger": false,
      "metar": "METAR LICJ 260420Z 15003KT 130V190 CAVOK 13/11 Q1018",
      "taf": "TAF LICJ 252300Z 2600/2624 VRB05KT CAVOK"
    },
    {
      "icao": "LIMC",
      "alert": "OK",
      "vis_m": 9999,
      "fzfg": false,
      "metar_trigger": false,
      "taf_trigger": false,
      "metar": "METAR LIMC 260420Z VRB02KT 9999 MIFG NSC 08/07 Q1015 NOSIG",
      "taf": "TAF LIMC 252300Z 2600/2706 VRB05KT CAVOK"
    },
    {
      "icao": "LIME",
      "alert": "OK",
      "vis_m": 9999,
      "fzfg": false,
      "metar_trigger": false,
      "taf_trigger": false,
      "metar": "METAR LIME 260420Z 01003KT CAVOK 11/07 Q1016 NOSIG",
      "taf": "TAF LIME 252300Z 2600/2624 VRB05KT CAVOK"
    },
    {
      "icao": "LIMF",
      "alert": "OK",
      "vis_m": 9999,
      "fzfg": false,
      "metar_trigger": false,
      "taf_trigger": false,
      "metar": "METAR LIMF 260420Z 27003KT CAVOK 12/09 Q1016",
      "taf": "TAF LIMF 252300Z 2600/2624 VRB05KT 9999 FEW050"
    },
    {
      "icao": "LIMJ",
      "alert": "OK",
      "vis_m": 9999,
      "fzfg": false,
      "metar_trigger": false,
      "taf_trigger": false,
      "metar": "METAR LIMJ 260420Z 11007KT 070V130 9999 BKN015 17/14 Q1017",
      "taf": "TAF LIMJ 252300Z 2600/2624 12007KT 9999 BKN012"
    },
    {
      "icao": "LIPE",
      "alert": "OK",
      "vis_m": 9999,
      "fzfg": false,
      "metar_trigger": false,
      "taf_trigger": false,
      "metar": "METAR LIPE 260420Z 22006KT 190V280 CAVOK 13/06 Q1015",
      "taf": "TAF LIPE 252300Z 2600/2624 20010KT CAVOK"
    },
    {
      "icao": "LIPH",
      "alert": "OK",
      "vis_m": 9999,
      "fzfg": false,
      "metar_trigger": false,
      "taf_trigger": false,
      "metar": "METAR LIPH 260420Z AUTO 03003KT 9999 NCD 11/07 Q1015",
      "taf": "TAF LIPH 252300Z 2600/2624 VRB05KT CAVOK"
    },
    {
      "icao": "LIPQ",
      "alert": "OK",
      "vis_m": 9999,
      "fzfg": false,
      "metar_trigger": false,
      "taf_trigger": false,
      "metar": "METAR LIPQ 260420Z AUTO VRB01KT 9999 NCD 08/06 Q1015",
      "taf": "TAF LIPQ 252300Z 2600/2624 VRB05KT 9999 FEW050"
    },
    {
      "icao": "LIPR",
      "alert": "OK",
      "vis_m": 9999,
      "fzfg": false,
      "metar_trigger": false,
      "taf_trigger": false,
      "metar": "METAR LIPR 260420Z AUTO 22003KT 9999 NCD 09/05 Q1015",
      "taf": "TAF LIPR 252300Z 2600/2624 20006KT CAVOK"
    },
    {
      "icao": "LIPX",
      "alert": "OK",
      "vis_m": 9999,
      "fzfg": false,
      "metar_trigger": false,
      "taf_trigger": false,
      "metar": "METAR LIPX 260420Z 32002KT CAVOK 10/09 Q1015",
      "taf": "TAF LIPX 252300Z 2600/2624 VRB05KT CAVOK"
    },
    {
      "icao": "LIPY",
      "alert": "OK",
      "vis_m": 9999,
      "fzfg": false,
      "metar_trigger": false,
      "taf_trigger": false,
      "metar": "METAR LIPY 260420Z AUTO 21003KT 9999 NCD 09/03 Q1015",
      "taf": "TAF LIPY 252300Z 2600/2624 19005KT CAVOK"
    },
    {
      "icao": "LIPZ",
      "alert": "OK",
      "vis_m": 9999,
      "fzfg": false,
      "metar_trigger": false,
      "taf_trigger": false,
      "metar": "METAR LIPZ 260420Z 03006KT CAVOK 11/08 Q1015 NOSIG",
      "taf": "TAF LIPZ 252300Z 2600/2706 VRB05KT CAVOK"
    },
    {
      "icao": "LIRF",
      "alert": "OK",
      "vis_m": 9999,
      "fzfg": false,
      "metar_trigger": false,
      "taf_trigger": false,
      "metar": "METAR LIRF 260420Z 04004KT CAVOK 05/05 Q1017 NOSIG",
      "taf": "TAF LIRF 252300Z 2600/2706 VRB05KT CAVOK"
    },
    {
      "icao": "LIRN",
      "alert": "OK",
      "vis_m": 9999,
      "fzfg": false,
      "metar_trigger": false,
      "taf_trigger": false,
      "metar": "METAR LIRN 260420Z 08002KT 9999 FEW020 13/11 Q1018 NOSIG",
      "taf": "TAF LIRN 252300Z 2600/2624 VRB05KT CAVOK"
    },
    {
      "icao": "LIRP",
      "alert": "OK",
      "vis_m": 9999,
      "fzfg": false,
      "metar_trigger": false,
      "taf_trigger": false,
      "metar": "METAR LIRP 260345Z 12004KT 9999 BKN020 06/06 Q1017 NOSIG",
      "taf": "TAF LIRP 252300Z 2600/2624 VRB03KT CAVOK"
    },
    {
      "icao": "LIRZ",
      "alert": "OK",
      "vis_m": 9999,
      "fzfg": false,
      "metar_trigger": false,
      "taf_trigger": false,
      "metar": "METAR LIRZ 260420Z AUTO 01006KT 9999 NCD 03/02 Q1018",
      "taf": "TAF LIRZ 252300Z 2600/2624 VRB05KT CAVOK"
    },
    {
      "icao": "LJLJ",
      "alert": "OK",
      "vis_m": 9999,
      "fzfg": false,
      "metar_trigger": false,
      "taf_trigger": false,
      "metar": "METAR LJLJ 260400Z 27002KT CAVOK 05/04 Q1016 NOSIG",
      "taf": "TAF LJLJ 252300Z 2600/2700 VRB02KT CAVOK"
    },
    {
      "icao": "LKMT",
      "alert": "OK",
      "vis_m": 9999,
      "fzfg": false,
      "metar_trigger": false,
      "taf_trigger": false,
      "metar": "METAR LKMT 260400Z 34015KT CAVOK 06/M01 Q1017 NOSIG",
      "taf": "TAF LKMT 252300Z 2600/2624 24008KT CAVOK"
    },
    {
      "icao": "LKPR",
      "alert": "OK",
      "vis_m": 9999,
      "fzfg": false,
      "metar_trigger": false,
      "taf_trigger": false,
      "metar": "METAR LKPR 260400Z 33008KT 9999 FEW028 02/M01 Q1020 NOSIG",
      "taf": "TAF LKPR 260200Z 2603/2709 32015KT 9999 SCT035"
    },
    {
      "icao": "LLBG",
      "alert": "OK",
      "vis_m": 9999,
      "fzfg": false,
      "metar_trigger": false,
      "taf_trigger": false,
      "metar": "METAR LLBG 260420Z VRB01KT CAVOK 20/04 Q1008 NOSIG",
      "taf": "TAF LLBG 252300Z 2600/2624 VRB04KT CAVOK TX28/2612Z TN15/2603Z"
    },
    {
      "icao": "LMML",
      "alert": "OK",
      "vis_m": 9999,
      "fzfg": false,
      "metar_trigger": false,
      "taf_trigger": false,
      "metar": "METAR LMML 260415Z 29006KT CAVOK 12/09 Q1018 NOSIG",
      "taf": "TAF LMML 252300Z 2600/2624 28006KT CAVOK"
    },
    {
      "icao": "LOWW",
      "alert": "OK",
      "vis_m": 9999,
      "fzfg": false,
      "metar_trigger": false,
      "taf_trigger": false,
      "metar": "METAR LOWW 260420Z 32011KT CAVOK 13/M01 Q1017 NOSIG",
      "taf": ""
    },
    {
      "icao": "LPFR",
      "alert": "OK",
      "vis_m": 9999,
      "fzfg": false,
      "metar_trigger": false,
      "taf_trigger": false,
      "metar": "METAR LPFR 260400Z 04004KT CAVOK 16/14 Q1014",
      "taf": "TAF LPFR 252300Z 2600/2624 14007KT CAVOK"
    },
    {
      "icao": "LPMA",
      "alert": "OK",
      "vis_m": 9999,
      "fzfg": false,
      "metar_trigger": false,
      "taf_trigger": false,
      "metar": "METAR LPMA 260400Z 02012KT 340V040 9999 FEW015 17/12 Q1017",
      "taf": "TAF LPMA 252300Z 2600/2624 01012KT 9999 SCT015"
    },
    {
      "icao": "LPPR",
      "alert": "OK",
      "vis_m": 9999,
      "fzfg": false,
      "metar_trigger": false,
      "taf_trigger": false,
      "metar": "METAR LPPR 260400Z 17003KT CAVOK 13/12 Q1016",
      "taf": "TAF LPPR 252300Z 2600/2624 VRB02KT CAVOK"
    },
    {
      "icao": "LPPS",
      "alert": "OK",
      "vis_m": 9999,
      "fzfg": false,
      "metar_trigger": false,
      "taf_trigger": false,
      "metar": "METAR LPPS 260400Z 03009KT 350V060 9999 SCT015 15/11 Q1018",
      "taf": "TAF LPPS 252300Z 2600/2706 02010KT 9999 SCT015"
    },
    {
      "icao": "LPPT",
      "alert": "OK",
      "vis_m": 9999,
      "fzfg": false,
      "metar_trigger": false,
      "taf_trigger": false,
      "metar": "METAR LPPT 260400Z 32007KT 290V350 CAVOK 15/13 Q1015",
      "taf": "TAF LPPT 252300Z 2600/2706 34007KT CAVOK"
    },
    {
      "icao": "LQBK",
      "alert": "OK",
      "vis_m": 9999,
      "fzfg": false,
      "metar_trigger": false,
      "taf_trigger": false,
      "metar": "METAR LQBK 260400Z 15003KT 120V180 CAVOK 06/03 Q1015 NOSIG",
      "taf": "TAF LQBK 252300Z 2600/2624 16005KT CAVOK TX21/2613Z TN05/2604Z"
    },
    {
      "icao": "LQSA",
      "alert": "OK",
      "vis_m": 9999,
      "fzfg": false,
      "metar_trigger": false,
      "taf_trigger": false,
      "metar": "METAR LQSA 260400Z VRB01KT CAVOK 03/02 Q1017 NOSIG",
      "taf": "TAF LQSA 252300Z 2600/2624 29005KT CAVOK TX23/2614Z TN05/2604Z"
    },
    {
      "icao": "LQTZ",
      "alert": "OK",
      "vis_m": 9999,
      "fzfg": false,
      "metar_trigger": false,
      "taf_trigger": false,
      "metar": "METAR LQTZ 260400Z 00000KT CAVOK 02/02 Q1015",
      "taf": "TAF LQTZ 252300Z 2600/2624 19005KT CAVOK TX21/2613Z TN02/2604Z"
    },
    {
      "icao": "LRBC",
      "alert": "OK",
      "vis_m": 9999,
      "fzfg": false,
      "metar_trigger": false,
      "taf_trigger": false,
      "metar": "METAR LRBC 260400Z 12004KT 080V180 CAVOK 07/05 Q1007",
      "taf": "TAF LRBC 260200Z 2603/2612 19005KT CAVOK"
    },
    {
      "icao": "LRBS",
      "alert": "OK",
      "vis_m": 9999,
      "fzfg": false,
      "metar_trigger": false,
      "taf_trigger": false,
      "metar": "METAR LRBS 260400Z 27006KT CAVOK 10/05 Q1010 NOSIG",
      "taf": "TAF LRBS 252300Z 2600/2624 25006KT CAVOK"
    },
    {
      "icao": "LRBV",
      "alert": "OK",
      "vis_m": 9999,
      "fzfg": false,
      "metar_trigger": false,
      "taf_trigger": false,
      "metar": "METAR LRBV 260400Z VRB03KT CAVOK 06/03 Q1011",
      "taf": "TAF LRBV 260200Z 2603/2612 24004KT CAVOK"
    },
    {
      "icao": "LRCL",
      "alert": "OK",
      "vis_m": 9999,
      "fzfg": false,
      "metar_trigger": false,
      "taf_trigger": false,
      "metar": "METAR LRCL 260400Z 30001KT CAVOK 04/02 Q1010",
      "taf": "TAF LRCL 260200Z 2603/2612 26003KT CAVOK"
    },
    {
      "icao": "LRCV",
      "alert": "OK",
      "vis_m": 9999,
      "fzfg": false,
      "metar_trigger": false,
      "taf_trigger": false,
      "metar": "METAR LRCV 260400Z 27006KT CAVOK 06/05 Q1012",
      "taf": "TAF LRCV 260200Z 2603/2612 VRB04KT CAVOK"
    },
    {
      "icao": "LRIA",
      "alert": "OK",
      "vis_m": 9999,
      "fzfg": false,
      "metar_trigger": false,
      "taf_trigger": false,
      "metar": "METAR LRIA 260400Z 09004KT CAVOK 09/05 Q1006",
      "taf": "TAF LRIA 260200Z 2603/2612 VRB04KT CAVOK"
    },
    {
      "icao": "LROP",
      "alert": "OK",
      "vis_m": 9999,
      "fzfg": false,
      "metar_trigger": false,
      "taf_trigger": false,
      "metar": "METAR LROP 260400Z 25005KT CAVOK 09/05 Q1010 NOSIG",
      "taf": "TAF LROP 252300Z 2600/2624 24006KT CAVOK"
    },
    {
      "icao": "LRSB",
      "alert": "OK",
      "vis_m": 9999,
      "fzfg": false,
      "metar_trigger": false,
      "taf_trigger": false,
      "metar": "METAR LRSB 260400Z 20003KT CAVOK 05/02 Q1011",
      "taf": "TAF LRSB 252300Z 2600/2624 VRB04KT CAVOK"
    },
    {
      "icao": "LRSM",
      "alert": "OK",
      "vis_m": 9999,
      "fzfg": false,
      "metar_trigger": false,
      "taf_trigger": false,
      "metar": "METAR LRSM 260400Z AUTO 25012KT 9999 NCD 11/04 Q1008",
      "taf": ""
    },
    {
      "icao": "LRSV",
      "alert": "OK",
      "vis_m": 9999,
      "fzfg": false,
      "metar_trigger": false,
      "taf_trigger": false,
      "metar": "METAR LRSV 260400Z 23010KT CAVOK 11/03 Q1005",
      "taf": "TAF LRSV 260200Z 2603/2612 22009KT CAVOK"
    },
    {
      "icao": "LRTM",
      "alert": "OK",
      "vis_m": 9999,
      "fzfg": false,
      "metar_trigger": false,
      "taf_trigger": false,
      "metar": "METAR LRTM 260400Z 09004KT CAVOK 03/03 Q1011",
      "taf": "TAF LRTM 260200Z 2603/2612 VRB04KT CAVOK"
    },
    {
      "icao": "LRTR",
      "alert": "OK",
      "vis_m": 9999,
      "fzfg": false,
      "metar_trigger": false,
      "taf_trigger": false,
      "metar": "METAR LRTR 260400Z 10005KT CAVOK 03/02 Q1013",
      "taf": "TAF LRTR 252300Z 2600/2624 VRB04KT CAVOK"
    },
    {
      "icao": "LTAC",
      "alert": "OK",
      "vis_m": 9999,
      "fzfg": false,
      "metar_trigger": false,
      "taf_trigger": false,
      "metar": "METAR LTAC 260420Z VRB02KT CAVOK 05/02 Q1016 NOSIG RMK RWY21C VRB01KT RWY03L VRB01KT RWY21R 00000KT RWY03R 00000KT RWY21L 00000KT",
      "taf": "TAF LTAC 252240Z 2600/2624 VRB02KT CAVOK"
    },
    {
      "icao": "LTFM",
      "alert": "OK",
      "vis_m": 9999,
      "fzfg": false,
      "metar_trigger": false,
      "taf_trigger": false,
      "metar": "METAR LTFM 260420Z VRB06KT CAVOK 12/02 Q1013 NOSIG RMK RWY17L 19004KT 160V240 RWY34L 20004KT 140V290 RWY16R 20002KT RWY36 19005KT 150V220 RWY18 VRB06KT",
      "taf": "TAF LTFM 252240Z 2600/2706 VRB02KT CAVOK"
    },
    {
      "icao": "LUKK",
      "alert": "OK",
      "vis_m": 9999,
      "fzfg": false,
      "metar_trigger": false,
      "taf_trigger": false,
      "metar": "METAR LUKK 260400Z VRB02KT CAVOK 08/04 Q1007 NOSIG",
      "taf": "TAF LUKK 252326Z 2600/2624 22010KT CAVOK"
    },
    {
      "icao": "LWOH",
      "alert": "OK",
      "vis_m": 9999,
      "fzfg": false,
      "metar_trigger": false,
      "taf_trigger": false,
      "metar": "METAR LWOH 260420Z 33003KT CAVOK 04/03 Q1017",
      "taf": "TAF LWOH 260235Z 2603/2703 36005KT 9999 FEW040"
    },
    {
      "icao": "LWSK",
      "alert": "OK",
      "vis_m": 9999,
      "fzfg": false,
      "metar_trigger": false,
      "taf_trigger": false,
      "metar": "METAR LWSK 260420Z 04004KT CAVOK 06/03 Q1016 NOSIG",
      "taf": "TAF LWSK 260235Z 2603/2703 VRB02KT CAVOK"
    },
    {
      "icao": "LYBE",
      "alert": "OK",
      "vis_m": 9999,
      "fzfg": false,
      "metar_trigger": false,
      "taf_trigger": false,
      "metar": "METAR LYBE 260400Z 20007KT 150V220 CAVOK 10/04 Q1014 NOSIG",
      "taf": "TAF LYBE 252300Z 2600/2624 23006KT CAVOK TX23/2613Z TN08/2624Z"
    },
    {
      "icao": "LYNI",
      "alert": "OK",
      "vis_m": 9999,
      "fzfg": false,
      "metar_trigger": false,
      "taf_trigger": false,
      "metar": "METAR LYNI 260400Z 10003KT CAVOK 05/03 Q1015 NOSIG",
      "taf": "TAF LYNI 252300Z 2600/2624 10005KT CAVOK TX24/2613Z TN05/2604Z"
    },
    {
      "icao": "LYPG",
      "alert": "OK",
      "vis_m": 9999,
      "fzfg": false,
      "metar_trigger": false,
      "taf_trigger": false,
      "metar": "METAR LYPG 260400Z 00000KT CAVOK 10/07 Q1016 NOSIG",
      "taf": ""
    },
    {
      "icao": "LZIB",
      "alert": "OK",
      "vis_m": 9999,
      "fzfg": false,
      "metar_trigger": false,
      "taf_trigger": false,
      "metar": "METAR LZIB 260430Z 30013KT CAVOK 12/M01 Q1016 NOSIG",
      "taf": "TAF LZIB 252315Z 2600/2700 30011KT CAVOK"
    },
    {
      "icao": "LZKZ",
      "alert": "OK",
      "vis_m": 9999,
      "fzfg": false,
      "metar_trigger": false,
      "taf_trigger": false,
      "metar": "METAR LZKZ 260430Z 02005KT CAVOK 07/04 Q1009 NOSIG",
      "taf": ""
    },
    {
      "icao": "LZTT",
      "alert": "OK",
      "vis_m": 9999,
      "fzfg": false,
      "metar_trigger": false,
      "taf_trigger": false,
      "metar": "METAR LZTT 260430Z 26009KT 240V310 9999 FEW050 09/M01 Q1010",
      "taf": ""
    },
    {
      "icao": "OEJN",
      "alert": "OK",
      "vis_m": 9999,
      "fzfg": false,
      "metar_trigger": false,
      "taf_trigger": false,
      "metar": "METAR OEJN 260400Z 34008KT CAVOK 27/21 Q1009 NOSIG",
      "taf": "TAF OEJN 252300Z 2600/2706 36006KT 7000 FEW040"
    },
    {
      "icao": "OEMA",
      "alert": "OK",
      "vis_m": 9999,
      "fzfg": false,
      "metar_trigger": false,
      "taf_trigger": false,
      "metar": "METAR OEMA 260400Z 35003KT CAVOK 25/15 Q1015 NOSIG",
      "taf": "TAF OEMA 252300Z 2600/2706 VRB03KT 9999 FEW045"
    },
    {
      "icao": "OJAI",
      "alert": "OK",
      "vis_m": 4000,
      "fzfg": false,
      "metar_trigger": false,
      "taf_trigger": false,
      "metar": "METAR OJAI 260400Z 00000KT 4000 HZ NSC 13/05 Q1014 NOSIG",
      "taf": "TAF OJAI 252300Z 2600/2706 13006KT 5000 HZ NSC"
    },
    {
      "icao": "OMAA",
      "alert": "OK",
      "vis_m": 9999,
      "fzfg": false,
      "metar_trigger": false,
      "taf_trigger": false,
      "metar": "METAR OMAA 260430Z VRB02KT CAVOK 31/19 Q1011 BECMG 33011KT",
      "taf": "TAF OMAA 252300Z 2600/2706 VRB02KT 8000 NSC"
    },
    {
      "icao": "OMDB",
      "alert": "OK",
      "vis_m": 9999,
      "fzfg": false,
      "metar_trigger": false,
      "taf_trigger": false,
      "metar": "METAR OMDB 260430Z 22004KT 180V240 CAVOK 32/17 Q1010 NOSIG",
      "taf": "TAF OMDB 252300Z 2600/2706 20005KT CAVOK"
    },
    {
      "icao": "UAAA",
      "alert": "OK",
      "vis_m": 9999,
      "fzfg": false,
      "metar_trigger": false,
      "taf_trigger": false,
      "metar": "METAR UAAA 260400Z VRB01MPS 9999 NSC 20/08 Q1017 NOSIG",
      "taf": "TAF UAAA 252302Z 2600/2624 02003MPS 9999 NSC TX26/2609Z TN09/2601Z"
    },
    {
      "icao": "UBBB",
      "alert": "OK",
      "vis_m": 9999,
      "fzfg": false,
      "metar_trigger": false,
      "taf_trigger": false,
      "metar": "METAR UBBB 260430Z 16012KT CAVOK 12/08 Q1023 NOSIG",
      "taf": "TAF UBBB 252254Z 2600/2624 18005KT 9999 SCT035 TX16/2610Z TN08/2601Z"
    },
    {
      "icao": "UDSG",
      "alert": "OK",
      "vis_m": 9999,
      "fzfg": false,
      "metar_trigger": false,
      "taf_trigger": false,
      "metar": "METAR UDSG 260400Z 10001KT 9999 -SHRA SCT040CB BKN046 03/02 Q1022 NOSIG",
      "taf": ""
    },
    {
      "icao": "UDYZ",
      "alert": "OK",
      "vis_m": 9999,
      "fzfg": false,
      "metar_trigger": false,
      "taf_trigger": false,
      "metar": "METAR UDYZ 260400Z VRB01KT 9999 SCT046 11/06 Q1019 NOSIG",
      "taf": "TAF UDYZ 252300Z 2600/2624 04006KT 9999 SCT040"
    },
    {
      "icao": "UGKO",
      "alert": "OK",
      "vis_m": 9999,
      "fzfg": false,
      "metar_trigger": false,
      "taf_trigger": false,
      "metar": "METAR UGKO 260400Z 07017KT CAVOK 14/02 Q1015 NOSIG",
      "taf": "TAF UGKO 252300Z 2600/2624 08017KT CAVOK TX24/2611Z TN08/2602Z"
    }
  ]
}