{
  "ts_utc": "2026-03-23T11:11:24Z",
  "threshold_m": 150,
  "source": "stations_override.txt (ICAO list) + aviationweather.gov (METAR/TAF raw)",
  "station_count": 159,
  "stations": [
    {
      "icao": "BIKF",
      "alert": "OK",
      "vis_m": 9999,
      "fzfg": false,
      "metar_trigger": false,
      "taf_trigger": false,
      "metar": "METAR BIKF 231100Z 07022KT 9999 VCSH FEW015 BKN023 OVC052 M01/M03 Q0984",
      "taf": "TAF BIKF 231041Z 2312/2412 07018G30KT 9999 -SN SCT010 BKN020 OVC030 TX01/2315Z TNM02/2406Z"
    },
    {
      "icao": "BKPR",
      "alert": "OK",
      "vis_m": 9000,
      "fzfg": false,
      "metar_trigger": false,
      "taf_trigger": false,
      "metar": "METAR BKPR 231100Z VRB03KT 9000 SCT050 12/02 Q1013 NOSIG",
      "taf": "TAF BKPR 230530Z 2306/2406 02008KT 9999 SCT040 BKN080"
    },
    {
      "icao": "EBCI",
      "alert": "OK",
      "vis_m": 9999,
      "fzfg": false,
      "metar_trigger": false,
      "taf_trigger": false,
      "metar": "METAR EBCI 231050Z 33004KT 280V010 CAVOK 13/04 Q1020 NOSIG",
      "taf": "TAF EBCI 230500Z 2306/2412 34003KT CAVOK"
    },
    {
      "icao": "EDDB",
      "alert": "OK",
      "vis_m": 9999,
      "fzfg": false,
      "metar_trigger": false,
      "taf_trigger": false,
      "metar": "METAR EDDB 231050Z AUTO 33005KT 280V010 CAVOK 15/02 Q1018 NOSIG",
      "taf": "TAF EDDB 230500Z 2306/2406 VRB03KT CAVOK"
    },
    {
      "icao": "EDDH",
      "alert": "OK",
      "vis_m": 9999,
      "fzfg": false,
      "metar_trigger": false,
      "taf_trigger": false,
      "metar": "METAR EDDH 231050Z AUTO 30005KT 240V350 CAVOK 14/02 Q1018 NOSIG",
      "taf": "TAF EDDH 230500Z 2306/2412 26004KT CAVOK"
    },
    {
      "icao": "EDDK",
      "alert": "OK",
      "vis_m": 9999,
      "fzfg": false,
      "metar_trigger": false,
      "taf_trigger": false,
      "metar": "METAR EDDK 231050Z AUTO VRB03KT CAVOK 14/03 Q1019 NOSIG",
      "taf": "TAF EDDK 230500Z 2306/2412 VRB01KT CAVOK"
    },
    {
      "icao": "EDDN",
      "alert": "OK",
      "vis_m": 9999,
      "fzfg": false,
      "metar_trigger": false,
      "taf_trigger": false,
      "metar": "METAR EDDN 231050Z AUTO 29005KT 240V340 CAVOK 11/01 Q1017 NOSIG",
      "taf": "TAF EDDN 230500Z 2306/2406 VRB02KT CAVOK"
    },
    {
      "icao": "EDDS",
      "alert": "OK",
      "vis_m": 9999,
      "fzfg": false,
      "metar_trigger": false,
      "taf_trigger": false,
      "metar": "METAR EDDS 231050Z AUTO VRB02KT CAVOK 11/02 Q1018 NOSIG",
      "taf": "TAF EDDS 230500Z 2306/2406 VRB02KT CAVOK"
    },
    {
      "icao": "EDFH",
      "alert": "OK",
      "vis_m": 9999,
      "fzfg": false,
      "metar_trigger": false,
      "taf_trigger": false,
      "metar": "METAR EDFH 231050Z VRB05KT CAVOK 12/M00 Q1018",
      "taf": "TAF EDFH 230500Z 2306/2406 08004KT CAVOK"
    },
    {
      "icao": "EDJA",
      "alert": "OK",
      "vis_m": 9999,
      "fzfg": false,
      "metar_trigger": false,
      "taf_trigger": false,
      "metar": "METAR EDJA 231050Z COR 35004KT 270V060 9999 FEW045 09/M02 Q1017",
      "taf": "TAF EDJA 230800Z 2309/2318 23004KT 9999 SCT060"
    },
    {
      "icao": "EDLW",
      "alert": "OK",
      "vis_m": 9999,
      "fzfg": false,
      "metar_trigger": false,
      "taf_trigger": false,
      "metar": "METAR EDLW 231050Z 05005KT 300V100 CAVOK 14/02 Q1019",
      "taf": "TAF EDLW 230500Z 2306/2406 16005KT CAVOK"
    },
    {
      "icao": "EDNY",
      "alert": "OK",
      "vis_m": 9999,
      "fzfg": false,
      "metar_trigger": false,
      "taf_trigger": false,
      "metar": "METAR EDNY 231050Z 22006KT 170V310 CAVOK 09/04 Q1018",
      "taf": "TAF EDNY 230800Z 2309/2318 21004KT CAVOK"
    },
    {
      "icao": "EDSB",
      "alert": "OK",
      "vis_m": 9999,
      "fzfg": false,
      "metar_trigger": false,
      "taf_trigger": false,
      "metar": "METAR EDSB 231050Z VRB02KT CAVOK 10/03 Q1019",
      "taf": "TAF EDSB 230500Z 2306/2406 VRB03KT CAVOK"
    },
    {
      "icao": "EETN",
      "alert": "OK",
      "vis_m": 9999,
      "fzfg": false,
      "metar_trigger": false,
      "taf_trigger": false,
      "metar": "METAR EETN 231050Z 24017KT CAVOK 10/M02 Q1012 TEMPO 24018G30KT",
      "taf": "TAF EETN 230530Z 2306/2406 21012KT CAVOK"
    },
    {
      "icao": "EFTU",
      "alert": "OK",
      "vis_m": 9999,
      "fzfg": false,
      "metar_trigger": false,
      "taf_trigger": false,
      "metar": "METAR EFTU 231050Z AUTO 23019KT 9999 FEW024 06/M00 Q1008",
      "taf": "TAF EFTU 230833Z 2309/2409 24016KT 9999 BKN023"
    },
    {
      "icao": "EGBB",
      "alert": "OK",
      "vis_m": 9999,
      "fzfg": false,
      "metar_trigger": false,
      "taf_trigger": false,
      "metar": "METAR EGBB 231050Z VRB02KT 9999 FEW022 BKN037 10/05 Q1021",
      "taf": "TAF EGBB 230455Z 2306/2406 32006KT 9999 SCT025"
    },
    {
      "icao": "EGGP",
      "alert": "OK",
      "vis_m": 9999,
      "fzfg": false,
      "metar_trigger": false,
      "taf_trigger": false,
      "metar": "METAR EGGP 231050Z VRB02KT CAVOK 09/04 Q1021",
      "taf": "TAF EGGP 231058Z 2312/2412 22008KT 9999 FEW030"
    },
    {
      "icao": "EGGW",
      "alert": "OK",
      "vis_m": 8000,
      "fzfg": false,
      "metar_trigger": false,
      "taf_trigger": false,
      "metar": "METAR EGGW 231050Z AUTO 14004KT 110V190 8000 NCD 11/08 Q1021",
      "taf": "TAF EGGW 231059Z 2312/2412 21008KT 8000 SCT030"
    },
    {
      "icao": "EGKK",
      "alert": "OK",
      "vis_m": 9000,
      "fzfg": false,
      "metar_trigger": false,
      "taf_trigger": false,
      "metar": "METAR EGKK 231050Z VRB02KT 9000 NSC 12/04 Q1021",
      "taf": "TAF EGKK 231057Z 2312/2418 23005KT 9999 FEW030"
    },
    {
      "icao": "EGNM",
      "alert": "OK",
      "vis_m": 9999,
      "fzfg": false,
      "metar_trigger": false,
      "taf_trigger": false,
      "metar": "METAR EGNM 231050Z 20006KT 160V240 CAVOK 08/M00 Q1020",
      "taf": "TAF EGNM 230539Z 2306/2406 VRB02KT 9999 FEW045"
    },
    {
      "icao": "EGPD",
      "alert": "OK",
      "vis_m": 9999,
      "fzfg": false,
      "metar_trigger": false,
      "taf_trigger": false,
      "metar": "METAR EGPD 231050Z COR AUTO 17011KT 130V200 9999 FEW043 09/M01 Q1016 NOSIG",
      "taf": "TAF EGPD 231055Z 2312/2412 19012KT 9999 FEW040"
    },
    {
      "icao": "EGPF",
      "alert": "OK",
      "vis_m": 9999,
      "fzfg": false,
      "metar_trigger": false,
      "taf_trigger": false,
      "metar": "METAR EGPF 231050Z AUTO 21011KT 9999 BKN027 BKN047 09/03 Q1018",
      "taf": "TAF EGPF 231102Z 2312/2412 21010KT 9999 FEW015 SCT030"
    },
    {
      "icao": "EHBK",
      "alert": "OK",
      "vis_m": 9999,
      "fzfg": false,
      "metar_trigger": false,
      "taf_trigger": false,
      "metar": "METAR EHBK 231055Z AUTO 35003KT 310V100 9999 NSC 13/04 Q1020 NOSIG",
      "taf": "TAF EHBK 230526Z 2306/2412 20005KT CAVOK"
    },
    {
      "icao": "EHEH",
      "alert": "OK",
      "vis_m": 9999,
      "fzfg": false,
      "metar_trigger": false,
      "taf_trigger": false,
      "metar": "METAR EHEH 231055Z AUTO 03003KT 340V110 9999 OVC220 14/05 Q1020 BLU NOSIG RMK TREND REMOTE BY EHWX",
      "taf": "TAF EHEH 230516Z 2306/2412 33003KT 4000 BR NSC"
    },
    {
      "icao": "EKBI",
      "alert": "OK",
      "vis_m": 9999,
      "fzfg": false,
      "metar_trigger": false,
      "taf_trigger": false,
      "metar": "METAR EKBI 231050Z AUTO 31005KT 270V340 9999 FEW016/// SCT056/// 09/03 Q1019",
      "taf": "TAF EKBI 230843Z 2309/2409 33005KT 9999 SCT020"
    },
    {
      "icao": "EKCH",
      "alert": "OK",
      "vis_m": 9999,
      "fzfg": false,
      "metar_trigger": false,
      "taf_trigger": false,
      "metar": "METAR EKCH 231050Z AUTO 13002KT 9999 NCD 09/02 Q1018 NOSIG",
      "taf": "TAF EKCH 230827Z 2309/2409 28005KT CAVOK"
    },
    {
      "icao": "ENAL",
      "alert": "OK",
      "vis_m": 9999,
      "fzfg": false,
      "metar_trigger": false,
      "taf_trigger": false,
      "metar": "METAR ENAL 231050Z 25020KT 9999 SCT039 05/M02 Q1009",
      "taf": "TAF ENAL 230800Z 2309/2318 25018KT 9999 -SHRASN FEW015TCU BKN030"
    },
    {
      "icao": "ENBR",
      "alert": "OK",
      "vis_m": 9999,
      "fzfg": false,
      "metar_trigger": false,
      "taf_trigger": false,
      "metar": "METAR ENBR 231050Z 25011KT 9999 SCT030 BKN040 05/M01 Q1014 NOSIG RMK WIND 1200FT 27013KT",
      "taf": ""
    },
    {
      "icao": "ENGM",
      "alert": "OK",
      "vis_m": 9999,
      "fzfg": false,
      "metar_trigger": false,
      "taf_trigger": false,
      "metar": "METAR ENGM 231050Z 26008KT 210V320 9999 FEW010 07/M08 Q1010 NOSIG",
      "taf": "TAF ENGM 230500Z 2306/2406 22008KT CAVOK"
    },
    {
      "icao": "ENHD",
      "alert": "OK",
      "vis_m": 9999,
      "fzfg": false,
      "metar_trigger": false,
      "taf_trigger": false,
      "metar": "METAR ENHD 231050Z 23008KT 9999 FEW018 06/02 Q1016",
      "taf": "TAF ENHD 230800Z 2309/2318 27010KT 9999 SCT030"
    },
    {
      "icao": "ENTC",
      "alert": "OK",
      "vis_m": 9999,
      "fzfg": false,
      "metar_trigger": false,
      "taf_trigger": false,
      "metar": "METAR ENTC 231050Z 19021KT 9999 -DZ BKN041 04/M01 Q0977 BECMG 26020KT TEMPO 4000 SHRASN SCT020CB RMK WIND 2600FT 17033KT",
      "taf": "TAF ENTC 230500Z 2306/2406 18018KT 9999 SCT020 BKN040"
    },
    {
      "icao": "ENTO",
      "alert": "OK",
      "vis_m": 9999,
      "fzfg": false,
      "metar_trigger": false,
      "taf_trigger": false,
      "metar": "METAR ENTO 231050Z 26009KT 220V290 CAVOK 08/M05 Q1012 NOSIG",
      "taf": "TAF ENTO 230500Z 2306/2406 26010KT CAVOK"
    },
    {
      "icao": "ENVA",
      "alert": "OK",
      "vis_m": 9999,
      "fzfg": false,
      "metar_trigger": false,
      "taf_trigger": false,
      "metar": "METAR ENVA 231050Z 23023KT 9999 -SHSN FEW020 BKN045 04/M00 Q1005 TEMPO 26025G35KT 2500 SHSNGS BKN012CB RMK WIND 670FT 24020G32KT",
      "taf": ""
    },
    {
      "icao": "ENZV",
      "alert": "OK",
      "vis_m": 9999,
      "fzfg": false,
      "metar_trigger": false,
      "taf_trigger": false,
      "metar": "METAR ENZV 231050Z 29010KT CAVOK 06/01 Q1016 NOSIG",
      "taf": "TAF ENZV 230500Z 2306/2406 28012KT 9999 SCT030"
    },
    {
      "icao": "EPGD",
      "alert": "OK",
      "vis_m": 9999,
      "fzfg": false,
      "metar_trigger": false,
      "taf_trigger": false,
      "metar": "METAR EPGD 231100Z 29004KT 200V360 CAVOK 15/01 Q1017",
      "taf": "TAF EPGD 230530Z 2306/2406 VRB02KT CAVOK"
    },
    {
      "icao": "EPKK",
      "alert": "OK",
      "vis_m": 9999,
      "fzfg": false,
      "metar_trigger": false,
      "taf_trigger": false,
      "metar": "METAR EPKK 231100Z 10004KT 060V150 CAVOK 13/M04 Q1017",
      "taf": "TAF EPKK 230830Z 2309/2409 VRB05KT CAVOK"
    },
    {
      "icao": "EPKT",
      "alert": "OK",
      "vis_m": 9999,
      "fzfg": false,
      "metar_trigger": false,
      "taf_trigger": false,
      "metar": "METAR EPKT 231100Z 19004KT 140V300 CAVOK 14/M02 Q1017",
      "taf": "TAF EPKT 230530Z 2306/2406 VRB02KT CAVOK"
    },
    {
      "icao": "EPLB",
      "alert": "OK",
      "vis_m": 9999,
      "fzfg": false,
      "metar_trigger": false,
      "taf_trigger": false,
      "metar": "METAR EPLB 231100Z 18006KT 070V220 CAVOK 13/M02 Q1018",
      "taf": "TAF EPLB 230530Z 2306/2406 VRB03KT CAVOK"
    },
    {
      "icao": "EPMO",
      "alert": "OK",
      "vis_m": 9999,
      "fzfg": false,
      "metar_trigger": false,
      "taf_trigger": false,
      "metar": "METAR EPMO 231100Z 15004KT 070V240 CAVOK 14/M03 Q1018",
      "taf": "TAF EPMO 230530Z 2306/2406 VRB04KT CAVOK"
    },
    {
      "icao": "EPPO",
      "alert": "OK",
      "vis_m": 9999,
      "fzfg": false,
      "metar_trigger": false,
      "taf_trigger": false,
      "metar": "METAR EPPO 231100Z 23003KT 170V280 CAVOK 13/02 Q1017",
      "taf": "TAF EPPO 230530Z 2306/2406 VRB02KT CAVOK"
    },
    {
      "icao": "EPRA",
      "alert": "OK",
      "vis_m": 9999,
      "fzfg": false,
      "metar_trigger": false,
      "taf_trigger": false,
      "metar": "METAR EPRA 231100Z VRB07KT CAVOK 12/M03 Q1018",
      "taf": "TAF EPRA 230830Z 2309/2318 15006KT CAVOK"
    },
    {
      "icao": "EPRZ",
      "alert": "OK",
      "vis_m": 9999,
      "fzfg": false,
      "metar_trigger": false,
      "taf_trigger": false,
      "metar": "METAR EPRZ 231100Z 09006KT 060V130 CAVOK 13/M03 Q1017",
      "taf": "TAF EPRZ 230530Z 2306/2406 10004KT CAVOK"
    },
    {
      "icao": "EPSC",
      "alert": "OK",
      "vis_m": 9999,
      "fzfg": false,
      "metar_trigger": false,
      "taf_trigger": false,
      "metar": "METAR EPSC 231100Z 27006KT 230V310 CAVOK 15/M01 Q1018",
      "taf": "TAF EPSC 230530Z 2306/2406 VRB02KT CAVOK"
    },
    {
      "icao": "EPSY",
      "alert": "OK",
      "vis_m": 9999,
      "fzfg": false,
      "metar_trigger": false,
      "taf_trigger": false,
      "metar": "METAR EPSY 231100Z 17009KT 110V230 CAVOK 13/M04 Q1018",
      "taf": "TAF EPSY 230830Z 2309/2318 18005KT CAVOK"
    },
    {
      "icao": "EPWA",
      "alert": "OK",
      "vis_m": 9999,
      "fzfg": false,
      "metar_trigger": false,
      "taf_trigger": false,
      "metar": "METAR EPWA 231100Z VRB03KT CAVOK 14/M04 Q1018 NOSIG",
      "taf": "TAF EPWA 230830Z 2309/2409 14005KT CAVOK"
    },
    {
      "icao": "EPWR",
      "alert": "OK",
      "vis_m": 9999,
      "fzfg": false,
      "metar_trigger": false,
      "taf_trigger": false,
      "metar": "METAR EPWR 231100Z 29006KT 270V330 CAVOK 16/M00 Q1017",
      "taf": "TAF EPWR 230830Z 2309/2409 VRB02KT CAVOK"
    },
    {
      "icao": "ESGG",
      "alert": "OK",
      "vis_m": 9999,
      "fzfg": false,
      "metar_trigger": false,
      "taf_trigger": false,
      "metar": "METAR ESGG 231050Z 25009KT 9999 FEW028 07/01 Q1015",
      "taf": "TAF ESGG 230830Z 2309/2409 25007KT 9999 BKN004"
    },
    {
      "icao": "ESKN",
      "alert": "OK",
      "vis_m": 9999,
      "fzfg": false,
      "metar_trigger": false,
      "taf_trigger": false,
      "metar": "METAR ESKN 231050Z 24015KT 9999 BKN022 08/02 Q1011",
      "taf": "TAF ESKN 230830Z 2309/2409 25012KT 9999 SCT020"
    },
    {
      "icao": "ESMS",
      "alert": "OK",
      "vis_m": 9999,
      "fzfg": false,
      "metar_trigger": false,
      "taf_trigger": false,
      "metar": "METAR ESMS 231050Z 31007KT 280V340 CAVOK 09/02 Q1017",
      "taf": "TAF ESMS 230827Z 2309/2409 24005KT CAVOK"
    },
    {
      "icao": "ESSA",
      "alert": "OK",
      "vis_m": 9999,
      "fzfg": false,
      "metar_trigger": false,
      "taf_trigger": false,
      "metar": "METAR ESSA 231050Z 26013KT 9999 BKN017 05/01 Q1010 NOSIG",
      "taf": ""
    },
    {
      "icao": "EYKA",
      "alert": "OK",
      "vis_m": 9999,
      "fzfg": false,
      "metar_trigger": false,
      "taf_trigger": false,
      "metar": "METAR EYKA 231050Z 19006KT CAVOK 12/M00 Q1019",
      "taf": "TAF EYKA 231100Z 2312/2412 VRB04KT 8000 NSC"
    },
    {
      "icao": "EYPA",
      "alert": "OK",
      "vis_m": 9999,
      "fzfg": false,
      "metar_trigger": false,
      "taf_trigger": false,
      "metar": "METAR EYPA 231050Z 22006KT 170V270 CAVOK 09/00 Q1017",
      "taf": "TAF EYPA 231100Z 2312/2412 VRB04KT 8000 NSC"
    },
    {
      "icao": "EYVI",
      "alert": "OK",
      "vis_m": 9999,
      "fzfg": false,
      "metar_trigger": false,
      "taf_trigger": false,
      "metar": "METAR EYVI 231050Z VRB02KT CAVOK 12/M02 Q1019 NOSIG",
      "taf": "TAF EYVI 231102Z 2312/2412 VRB03KT 9000 NSC"
    },
    {
      "icao": "GCFV",
      "alert": "OK",
      "vis_m": 9999,
      "fzfg": false,
      "metar_trigger": false,
      "taf_trigger": false,
      "metar": "METAR GCFV 231100Z 14012KT 120V180 9999 VCSH SCT010TCU BKN040 18/17 Q1009",
      "taf": "TAF GCFV 230800Z 2309/2409 17016KT 9999 BKN020 TX21/2314Z TN16/2406Z"
    },
    {
      "icao": "GCLP",
      "alert": "OK",
      "vis_m": 9999,
      "fzfg": false,
      "metar_trigger": false,
      "taf_trigger": false,
      "metar": "METAR GCLP 231100Z 20014KT 9999 FEW030 21/15 Q1006 NOSIG",
      "taf": "TAF GCLP 230800Z 2309/2409 20017KT 9999 FEW025 SCT050 TX21/2314Z TN15/2406Z"
    },
    {
      "icao": "GCTS",
      "alert": "OK",
      "vis_m": 9999,
      "fzfg": false,
      "metar_trigger": false,
      "taf_trigger": false,
      "metar": "METAR GCTS 231100Z 15006KT 120V180 9999 SCT020 18/14 Q1007 NOSIG",
      "taf": "TAF GCTS 230800Z 2309/2409 20006KT 9999 SCT030 TX20/2314Z TN15/2406Z"
    },
    {
      "icao": "GMAD",
      "alert": "OK",
      "vis_m": 9999,
      "fzfg": false,
      "metar_trigger": false,
      "taf_trigger": false,
      "metar": "METAR GMAD 231100Z 10004KT 020V130 9999 FEW026 24/16 Q1010 NOSIG",
      "taf": "TAF GMAD 230500Z 2306/2412 07006KT 8000 SCT020 SCT080"
    },
    {
      "icao": "GMMN",
      "alert": "OK",
      "vis_m": 9999,
      "fzfg": false,
      "metar_trigger": false,
      "taf_trigger": false,
      "metar": "METAR GMMN 231100Z VRB01KT 9999 FEW020 BKN100 20/14 Q1013 NOSIG",
      "taf": "TAF GMMN 230500Z 2306/2412 14004KT 9999 FEW040 SCT100"
    },
    {
      "icao": "GMMX",
      "alert": "OK",
      "vis_m": 8000,
      "fzfg": false,
      "metar_trigger": false,
      "taf_trigger": false,
      "metar": "METAR GMMX 231100Z 09008KT 030V130 8000 SCT016 SCT200 20/13 Q1012 NOSIG",
      "taf": "TAF GMMX 230500Z 2306/2412 24008KT 3000 TSRA BKN023 FEW030CB"
    },
    {
      "icao": "HEGN",
      "alert": "OK",
      "vis_m": 9999,
      "fzfg": false,
      "metar_trigger": false,
      "taf_trigger": false,
      "metar": "METAR HEGN 231000Z 36006KT CAVOK 23/11 Q1009 NOSIG",
      "taf": "TAF HEGN 231100Z 2312/2418 10012KT 9999 SCT025"
    },
    {
      "icao": "HEMA",
      "alert": "OK",
      "vis_m": 9999,
      "fzfg": false,
      "metar_trigger": false,
      "taf_trigger": false,
      "metar": "METAR HEMA 231000Z 06009KT 9999 SCT020 BKN100 24/16 Q1008 NOSIG",
      "taf": "TAF HEMA 231100Z 2312/2418 09012KT 9999 SCT025"
    },
    {
      "icao": "HESH",
      "alert": "OK",
      "vis_m": 9999,
      "fzfg": false,
      "metar_trigger": false,
      "taf_trigger": false,
      "metar": "METAR HESH 231000Z 09005KT CAVOK 24/08 Q1009 NOSIG",
      "taf": "TAF HESH 231100Z 2312/2418 17010KT 9999 SCT025"
    },
    {
      "icao": "HESX",
      "alert": "OK",
      "vis_m": 9999,
      "fzfg": false,
      "metar_trigger": false,
      "taf_trigger": false,
      "metar": "METAR HESX 231000Z 24005KT 9999 SCT030 20/02 Q1009 NOSIG",
      "taf": "TAF HESX 231100Z 2312/2418 30010KT 9999 SCT020"
    },
    {
      "icao": "LATI",
      "alert": "OK",
      "vis_m": 9999,
      "fzfg": false,
      "metar_trigger": false,
      "taf_trigger": false,
      "metar": "METAR LATI 231050Z 26005KT 200V330 9999 SCT060 17/M00 Q1012 BECMG TL1130 30010KT",
      "taf": "TAF LATI 230500Z 2306/2406 VRB05KT 9999 FEW050 BKN080 TX18/2312Z TN07/2405Z"
    },
    {
      "icao": "LBPD",
      "alert": "OK",
      "vis_m": 9999,
      "fzfg": false,
      "metar_trigger": false,
      "taf_trigger": false,
      "metar": "METAR LBPD 231100Z AUTO 08003KT 360V140 9999 OVC049/// 11/02 Q1014 NOSIG",
      "taf": "TAF LBPD 230500Z 2306/2406 VRB03KT 9999 SCT030 BKN050"
    },
    {
      "icao": "LBSF",
      "alert": "OK",
      "vis_m": 9999,
      "fzfg": false,
      "metar_trigger": false,
      "taf_trigger": false,
      "metar": "METAR LBSF 231100Z 34004KT 300V040 9999 SCT026 BKN034 08/01 Q1014 NOSIG",
      "taf": "TAF LBSF 230500Z 2306/2406 VRB03KT 9999 SCT030 BKN050"
    },
    {
      "icao": "LBWN",
      "alert": "OK",
      "vis_m": 9999,
      "fzfg": false,
      "metar_trigger": false,
      "taf_trigger": false,
      "metar": "METAR LBWN 231100Z 01005KT 330V060 9999 -RA OVC015 09/06 Q1014 TEMPO RA",
      "taf": "TAF LBWN 230500Z 2306/2406 31010KT 9999 BKN020 OVC040"
    },
    {
      "icao": "LCLK",
      "alert": "OK",
      "vis_m": 9999,
      "fzfg": false,
      "metar_trigger": false,
      "taf_trigger": false,
      "metar": "METAR LCLK 231100Z 18012KT 9999 FEW020 FEW025CB SCT040 19/14 Q1008 NOSIG",
      "taf": "TAF LCLK 230530Z 2306/2406 28006KT 9999 FEW030"
    },
    {
      "icao": "LCPH",
      "alert": "OK",
      "vis_m": 9999,
      "fzfg": false,
      "metar_trigger": false,
      "taf_trigger": false,
      "metar": "METAR LCPH 231100Z 24008KT 9999 FEW025 FEW028TCU SCT040 18/13 Q1009 NOSIG",
      "taf": "TAF LCPH 230530Z 2306/2406 03008KT 9999 FEW020 SCT040"
    },
    {
      "icao": "LEAL",
      "alert": "OK",
      "vis_m": 9999,
      "fzfg": false,
      "metar_trigger": false,
      "taf_trigger": false,
      "metar": "METAR LEAL 231100Z 10006KT 060V160 9999 FEW030 18/09 Q1015 NOSIG",
      "taf": "TAF LEAL 230500Z 2306/2406 VRB04KT CAVOK TX18/2312Z TN07/2306Z"
    },
    {
      "icao": "LEBB",
      "alert": "OK",
      "vis_m": 9999,
      "fzfg": false,
      "metar_trigger": false,
      "taf_trigger": false,
      "metar": "METAR LEBB 231100Z 31010KT 280V350 9999 SCT027 15/09 Q1021 NOSIG",
      "taf": "TAF LEBB 230500Z 2306/2406 32008KT 9999 FEW020 SCT030 TX16/2315Z TN04/2406Z"
    },
    {
      "icao": "LEBL",
      "alert": "OK",
      "vis_m": 9999,
      "fzfg": false,
      "metar_trigger": false,
      "taf_trigger": false,
      "metar": "METAR LEBL 231100Z 08009KT 9999 FEW020 14/09 Q1017 NOSIG",
      "taf": "TAF LEBL 230500Z 2306/2406 07010KT 9999 FEW020 TX17/2312Z TN10/2306Z"
    },
    {
      "icao": "LECH",
      "alert": "OK",
      "vis_m": 9999,
      "fzfg": false,
      "metar_trigger": false,
      "taf_trigger": false,
      "metar": "METAR LECH 231100Z AUTO 05011KT 020V080 9999 -RA BKN026 OVC031 10/08 Q1018",
      "taf": "TAF LECH 230500Z 2306/2406 01010KT 9999 FEW030 TX16/2312Z TN05/2306Z"
    },
    {
      "icao": "LEMD",
      "alert": "OK",
      "vis_m": 9999,
      "fzfg": false,
      "metar_trigger": false,
      "taf_trigger": false,
      "metar": "METAR LEMD 231100Z 03008KT 330V090 CAVOK 13/M03 Q1016 NOSIG",
      "taf": "TAF LEMD 230500Z 2306/2412 VRB04KT CAVOK TX17/2316Z TN02/2406Z"
    },
    {
      "icao": "LEMG",
      "alert": "OK",
      "vis_m": 9999,
      "fzfg": false,
      "metar_trigger": false,
      "taf_trigger": false,
      "metar": "METAR LEMG 231100Z 13006KT 080V150 9999 FEW020 17/10 Q1013 NOSIG",
      "taf": "TAF LEMG 230500Z 2306/2406 31005KT CAVOK TX19/2313Z TN11/2306Z"
    },
    {
      "icao": "LEVC",
      "alert": "OK",
      "vis_m": 9999,
      "fzfg": false,
      "metar_trigger": false,
      "taf_trigger": false,
      "metar": "METAR LEVC 231100Z 09010KT 050V120 9999 FEW043 SCT050 17/07 Q1016 NOSIG",
      "taf": "TAF LEVC 230500Z 2306/2406 VRB03KT CAVOK TX18/2312Z TN06/2306Z"
    },
    {
      "icao": "LEXJ",
      "alert": "OK",
      "vis_m": 9999,
      "fzfg": false,
      "metar_trigger": false,
      "taf_trigger": false,
      "metar": "METAR LEXJ 231100Z 29005KT 250V320 9999 SCT025 BKN035 12/07 Q1021",
      "taf": "TAF LEXJ 230800Z 2309/2409 31009KT 9999 SCT020 BKN040 TX16/2314Z TN04/2406Z"
    },
    {
      "icao": "LEZG",
      "alert": "OK",
      "vis_m": 9999,
      "fzfg": false,
      "metar_trigger": false,
      "taf_trigger": false,
      "metar": "METAR LEZG 231100Z 32009KT 280V010 CAVOK 14/04 Q1018 NOSIG",
      "taf": "TAF LEZG 230500Z 2306/2406 30011KT CAVOK TX18/2314Z TN08/2306Z"
    },
    {
      "icao": "LEZL",
      "alert": "OK",
      "vis_m": 9999,
      "fzfg": false,
      "metar_trigger": false,
      "taf_trigger": false,
      "metar": "METAR LEZL 231100Z 07004KT 350V120 CAVOK 20/12 Q1013 NOSIG",
      "taf": "TAF LEZL 230800Z 2309/2409 06005KT CAVOK TX25/2315Z TN12/2407Z"
    },
    {
      "icao": "LFBD",
      "alert": "OK",
      "vis_m": 9999,
      "fzfg": false,
      "metar_trigger": false,
      "taf_trigger": false,
      "metar": "METAR LFBD 231100Z AUTO 04007KT 350V140 CAVOK 15/04 Q1020 NOSIG",
      "taf": "TAF LFBD 230500Z 2306/2412 03005KT CAVOK TX18/2314Z TN05/2306Z"
    },
    {
      "icao": "LFLL",
      "alert": "OK",
      "vis_m": 9999,
      "fzfg": false,
      "metar_trigger": false,
      "taf_trigger": false,
      "metar": "METAR LFLL 231100Z 01004KT 310V080 7000 SCT009 08/05 Q1020 BECMG 36010KT CAVOK",
      "taf": ""
    },
    {
      "icao": "LFLS",
      "alert": "OK",
      "vis_m": 9999,
      "fzfg": false,
      "metar_trigger": false,
      "taf_trigger": false,
      "metar": "METAR LFLS 231100Z AUTO 27005KT 220V310 9999 BKN026 OVC032 11/05 Q1018 NOSIG",
      "taf": "TAF LFLS 230800Z 2309/2409 09006KT CAVOK"
    },
    {
      "icao": "LFMN",
      "alert": "OK",
      "vis_m": 9999,
      "fzfg": false,
      "metar_trigger": false,
      "taf_trigger": false,
      "metar": "METAR LFMN 231100Z 11003KT 060V150 CAVOK 16/02 Q1016 NOSIG",
      "taf": "TAF LFMN 230800Z 2309/2415 34005KT CAVOK"
    },
    {
      "icao": "LFOB",
      "alert": "OK",
      "vis_m": 6000,
      "fzfg": false,
      "metar_trigger": false,
      "taf_trigger": false,
      "metar": "METAR LFOB 231100Z AUTO VRB02KT 6000 NSC 14/08 Q1021 NOSIG",
      "taf": ""
    },
    {
      "icao": "LFPO",
      "alert": "OK",
      "vis_m": 9999,
      "fzfg": false,
      "metar_trigger": false,
      "taf_trigger": false,
      "metar": "METAR LFPO 231100Z 01006KT 290V070 CAVOK 14/05 Q1021 NOSIG",
      "taf": "TAF LFPO 230500Z 2306/2412 33006KT CAVOK"
    },
    {
      "icao": "LFSB",
      "alert": "OK",
      "vis_m": 9999,
      "fzfg": false,
      "metar_trigger": false,
      "taf_trigger": false,
      "metar": "METAR LFSB 231100Z AUTO 23003KT 170V320 CAVOK 13/05 Q1018 TEMPO FEW035TCU",
      "taf": "TAF LFSB 230500Z 2306/2406 VRB03KT 9999 FEW050"
    },
    {
      "icao": "LGAV",
      "alert": "OK",
      "vis_m": 9999,
      "fzfg": false,
      "metar_trigger": false,
      "taf_trigger": false,
      "metar": "METAR LGAV 231050Z 04012KT 9999 FEW025 SCT035 BKN070 13/05 Q1013 NOSIG",
      "taf": "TAF LGAV 230500Z 2306/2406 01013KT 9999 SCT020 SCT070"
    },
    {
      "icao": "LGTS",
      "alert": "OK",
      "vis_m": 9999,
      "fzfg": false,
      "metar_trigger": false,
      "taf_trigger": false,
      "metar": "METAR LGTS 231050Z 28005KT 9999 SCT025 14/08 Q1013 NOSIG",
      "taf": "TAF LGTS 230500Z 2306/2406 VRB03KT 9999 SCT025"
    },
    {
      "icao": "LHBP",
      "alert": "OK",
      "vis_m": 9999,
      "fzfg": false,
      "metar_trigger": false,
      "taf_trigger": false,
      "metar": "METAR LHBP 231100Z VRB03KT CAVOK 15/M00 Q1016 NOSIG",
      "taf": "TAF LHBP 230515Z 2306/2406 VRB03KT CAVOK"
    },
    {
      "icao": "LHDC",
      "alert": "OK",
      "vis_m": 9999,
      "fzfg": false,
      "metar_trigger": false,
      "taf_trigger": false,
      "metar": "METAR LHDC 231045Z AUTO VRB05KT CAVOK 15/03 Q1016 NOSIG",
      "taf": "TAF LHDC 230815Z 2309/2318 24012KT CAVOK"
    },
    {
      "icao": "LIBD",
      "alert": "OK",
      "vis_m": 9999,
      "fzfg": false,
      "metar_trigger": false,
      "taf_trigger": false,
      "metar": "METAR LIBD 231050Z 34007KT 300V010 9999 FEW035 13/09 Q1014",
      "taf": "TAF LIBD 230500Z 2306/2406 22005KT 9999 FEW050"
    },
    {
      "icao": "LIBG",
      "alert": "OK",
      "vis_m": 9999,
      "fzfg": false,
      "metar_trigger": false,
      "taf_trigger": false,
      "metar": "METAR LIBG 230950Z 04010KT 010V070 9999 SCT040 14/06 Q1013",
      "taf": "TAF LIBG 230800Z 2309/2318 03008KT 9999 SCT040"
    },
    {
      "icao": "LIBP",
      "alert": "OK",
      "vis_m": 9999,
      "fzfg": false,
      "metar_trigger": false,
      "taf_trigger": false,
      "metar": "METAR LIBP 231050Z AUTO 06006KT 360V100 9999 BKN065/// 13/06 Q1015",
      "taf": "TAF LIBP 230500Z 2306/2406 24005KT 9999 SCT060"
    },
    {
      "icao": "LIBR",
      "alert": "OK",
      "vis_m": 9999,
      "fzfg": false,
      "metar_trigger": false,
      "taf_trigger": false,
      "metar": "METAR LIBR 231050Z 06009KT CAVOK 14/07 Q1013",
      "taf": "TAF LIBR 230500Z 2306/2406 VRB05KT 9999 FEW050"
    },
    {
      "icao": "LICA",
      "alert": "OK",
      "vis_m": 9999,
      "fzfg": false,
      "metar_trigger": false,
      "taf_trigger": false,
      "metar": "METAR LICA 231050Z AUTO 25008KT 220V280 9999 NCD 16/10 Q1012",
      "taf": "TAF LICA 230500Z 2306/2406 VRB06KT 9999 SCT030"
    },
    {
      "icao": "LICC",
      "alert": "OK",
      "vis_m": 9999,
      "fzfg": false,
      "metar_trigger": false,
      "taf_trigger": false,
      "metar": "METAR LICC 231050Z VRB04KT 9999 FEW030 SCT090 16/13 Q1012",
      "taf": "TAF LICC 230500Z 2306/2406 VRB05KT 9999 SCT020"
    },
    {
      "icao": "LICJ",
      "alert": "OK",
      "vis_m": 9999,
      "fzfg": false,
      "metar_trigger": false,
      "taf_trigger": false,
      "metar": "METAR LICJ 231050Z 32004KT 9999 FEW030 15/08 Q1013",
      "taf": "TAF LICJ 230500Z 2306/2406 VRB05KT 9999 SCT030"
    },
    {
      "icao": "LIMC",
      "alert": "OK",
      "vis_m": 9999,
      "fzfg": false,
      "metar_trigger": false,
      "taf_trigger": false,
      "metar": "METAR LIMC 231050Z 22007KT 190V280 CAVOK 14/M00 Q1016 NOSIG",
      "taf": "TAF LIMC 230500Z 2306/2412 VRB05KT CAVOK"
    },
    {
      "icao": "LIME",
      "alert": "OK",
      "vis_m": 9999,
      "fzfg": false,
      "metar_trigger": false,
      "taf_trigger": false,
      "metar": "METAR LIME 231050Z 21006KT 170V260 9999 FEW025 13/02 Q1016 NOSIG",
      "taf": "TAF LIME 230500Z 2306/2406 VRB05KT CAVOK"
    },
    {
      "icao": "LIMF",
      "alert": "OK",
      "vis_m": 9999,
      "fzfg": false,
      "metar_trigger": false,
      "taf_trigger": false,
      "metar": "METAR LIMF 231050Z 18004KT 150V220 CAVOK 13/01 Q1016",
      "taf": "TAF LIMF 230500Z 2306/2406 VRB05KT CAVOK"
    },
    {
      "icao": "LIMJ",
      "alert": "OK",
      "vis_m": 9999,
      "fzfg": false,
      "metar_trigger": false,
      "taf_trigger": false,
      "metar": "METAR LIMJ 231050Z 05011KT 010V080 CAVOK 16/M00 Q1015",
      "taf": "TAF LIMJ 230500Z 2306/2406 04013KT CAVOK"
    },
    {
      "icao": "LIPE",
      "alert": "OK",
      "vis_m": 9999,
      "fzfg": false,
      "metar_trigger": false,
      "taf_trigger": false,
      "metar": "METAR LIPE 231050Z VRB04KT CAVOK 14/04 Q1016",
      "taf": "TAF LIPE 230500Z 2306/2406 VRB05KT 9999 FEW050"
    },
    {
      "icao": "LIPH",
      "alert": "OK",
      "vis_m": 9999,
      "fzfg": false,
      "metar_trigger": false,
      "taf_trigger": false,
      "metar": "METAR LIPH 231050Z VRB03KT CAVOK 15/00 Q1016",
      "taf": "TAF LIPH 230500Z 2306/2406 VRB05KT 9999 SCT060"
    },
    {
      "icao": "LIPQ",
      "alert": "OK",
      "vis_m": 9999,
      "fzfg": false,
      "metar_trigger": false,
      "taf_trigger": false,
      "metar": "METAR LIPQ 231050Z AUTO VRB04KT 9999 BKN063/// 17/02 Q1015",
      "taf": "TAF LIPQ 230500Z 2306/2406 03005KT 9999 FEW060"
    },
    {
      "icao": "LIPR",
      "alert": "OK",
      "vis_m": 9999,
      "fzfg": false,
      "metar_trigger": false,
      "taf_trigger": false,
      "metar": "METAR LIPR 231050Z 35010KT 9999 BKN070 13/05 Q1016",
      "taf": "TAF LIPR 230500Z 2306/2406 VRB05KT 9999 FEW060"
    },
    {
      "icao": "LIPX",
      "alert": "OK",
      "vis_m": 9999,
      "fzfg": false,
      "metar_trigger": false,
      "taf_trigger": false,
      "metar": "METAR LIPX 231050Z 28010KT 250V310 9999 FEW040 15/00 Q1016",
      "taf": "TAF LIPX 230500Z 2306/2406 VRB05KT CAVOK"
    },
    {
      "icao": "LIPY",
      "alert": "OK",
      "vis_m": 9999,
      "fzfg": false,
      "metar_trigger": false,
      "taf_trigger": false,
      "metar": "METAR LIPY 231050Z AUTO 06006KT 290V100 9999 RA OVC027/// 10/07 Q1016",
      "taf": "TAF LIPY 230500Z 2306/2406 VRB05KT 9999 SCT060"
    },
    {
      "icao": "LIPZ",
      "alert": "OK",
      "vis_m": 9999,
      "fzfg": false,
      "metar_trigger": false,
      "taf_trigger": false,
      "metar": "METAR LIPZ 231050Z 06005KT 360V130 CAVOK 16/03 Q1016 NOSIG",
      "taf": "TAF LIPZ 230500Z 2306/2412 03006KT 9999 SCT060"
    },
    {
      "icao": "LIRF",
      "alert": "OK",
      "vis_m": 9999,
      "fzfg": false,
      "metar_trigger": false,
      "taf_trigger": false,
      "metar": "METAR LIRF 231050Z VRB03KT 9999 FEW040 15/05 Q1013 NOSIG",
      "taf": "TAF LIRF 230500Z 2306/2412 04008KT 9999 SCT030"
    },
    {
      "icao": "LIRN",
      "alert": "OK",
      "vis_m": 9999,
      "fzfg": false,
      "metar_trigger": false,
      "taf_trigger": false,
      "metar": "METAR LIRN 231050Z VRB03KT 9999 SCT050 15/06 Q1013 NOSIG",
      "taf": "TAF LIRN 230500Z 2306/2406 VRB05KT 9999 SCT030"
    },
    {
      "icao": "LIRP",
      "alert": "OK",
      "vis_m": 9999,
      "fzfg": false,
      "metar_trigger": false,
      "taf_trigger": false,
      "metar": "METAR LIRP 231045Z VRB03KT 9999 SCT040 16/03 Q1015 NOSIG",
      "taf": "TAF LIRP 230500Z 2306/2406 08005KT 9999 FEW070"
    },
    {
      "icao": "LIRZ",
      "alert": "OK",
      "vis_m": 9999,
      "fzfg": false,
      "metar_trigger": false,
      "taf_trigger": false,
      "metar": "METAR LIRZ 231050Z AUTO 03015KT 9999 FEW041/// 13/04 Q1014",
      "taf": "TAF LIRZ 230500Z 2306/2406 VRB06KT 9999 SCT020"
    },
    {
      "icao": "LJLJ",
      "alert": "OK",
      "vis_m": 9999,
      "fzfg": false,
      "metar_trigger": false,
      "taf_trigger": false,
      "metar": "METAR LJLJ 231100Z 08005KT 030V150 9999 SCT060 BKN070 12/03 Q1016 NOSIG",
      "taf": "TAF LJLJ 231100Z 2312/2412 VRB02KT 9999 SCT055"
    },
    {
      "icao": "LKMT",
      "alert": "OK",
      "vis_m": 9999,
      "fzfg": false,
      "metar_trigger": false,
      "taf_trigger": false,
      "metar": "METAR LKMT 231100Z 05005KT 350V100 CAVOK 14/M00 Q1017 NOSIG",
      "taf": "TAF LKMT 230500Z 2306/2406 VRB02KT CAVOK"
    },
    {
      "icao": "LKPR",
      "alert": "OK",
      "vis_m": 9999,
      "fzfg": false,
      "metar_trigger": false,
      "taf_trigger": false,
      "metar": "METAR LKPR 231100Z 09005KT 020V120 CAVOK 12/M01 Q1017 NOSIG",
      "taf": "TAF LKPR 230800Z 2309/2415 02004KT CAVOK"
    },
    {
      "icao": "LLBG",
      "alert": "OK",
      "vis_m": 9999,
      "fzfg": false,
      "metar_trigger": false,
      "taf_trigger": false,
      "metar": "METAR LLBG 231050Z VRB03KT 9999 FEW050 21/05 Q1009 NOSIG RMK SCT080",
      "taf": "TAF LLBG 231105Z 2312/2412 28010KT 9999 FEW040 TX21/2312Z TN08/2404Z"
    },
    {
      "icao": "LMML",
      "alert": "OK",
      "vis_m": 9999,
      "fzfg": false,
      "metar_trigger": false,
      "taf_trigger": false,
      "metar": "METAR LMML 231045Z VRB02KT 9999 FEW020 SCT049 14/12 Q1013 RERA NOSIG",
      "taf": "TAF LMML 231100Z 2312/2412 VRB06KT 9999 SCT020"
    },
    {
      "icao": "LOWW",
      "alert": "OK",
      "vis_m": 9999,
      "fzfg": false,
      "metar_trigger": false,
      "taf_trigger": false,
      "metar": "METAR LOWW 231050Z VRB02KT CAVOK 13/01 Q1017 NOSIG",
      "taf": "TAF LOWW 230815Z 2309/2415 VRB04KT 9999 FEW050 TX16/2413Z TN05/2404Z"
    },
    {
      "icao": "LPFR",
      "alert": "OK",
      "vis_m": 9999,
      "fzfg": false,
      "metar_trigger": false,
      "taf_trigger": false,
      "metar": "METAR LPFR 231100Z 17007KT 110V210 9999 FEW020 18/15 Q1013",
      "taf": "TAF LPFR 230500Z 2306/2406 01005KT 9999 FEW030"
    },
    {
      "icao": "LPMA",
      "alert": "OK",
      "vis_m": 9999,
      "fzfg": false,
      "metar_trigger": false,
      "taf_trigger": false,
      "metar": "METAR LPMA 231100Z 03016KT 9999 SCT013 FEW018CB 18/15 Q1011",
      "taf": "TAF LPMA 230500Z 2306/2406 02015KT 9999 SCT015"
    },
    {
      "icao": "LPPR",
      "alert": "OK",
      "vis_m": 9999,
      "fzfg": false,
      "metar_trigger": false,
      "taf_trigger": false,
      "metar": "METAR LPPR 231100Z VRB05KT CAVOK 20/07 Q1015",
      "taf": "TAF LPPR 230500Z 2306/2406 VRB02KT CAVOK"
    },
    {
      "icao": "LPPS",
      "alert": "OK",
      "vis_m": 9999,
      "fzfg": false,
      "metar_trigger": false,
      "taf_trigger": false,
      "metar": "METAR LPPS 231100Z 07014KT 9999 SCT013 FEW018CB 17/15 Q1012",
      "taf": "TAF LPPS 230500Z 2306/2412 06018KT 9999 SCT013"
    },
    {
      "icao": "LPPT",
      "alert": "OK",
      "vis_m": 9999,
      "fzfg": false,
      "metar_trigger": false,
      "taf_trigger": false,
      "metar": "METAR LPPT 231100Z VRB02KT 9999 FEW025 19/12 Q1014",
      "taf": "TAF LPPT 230500Z 2306/2412 33007KT 9999 FEW018"
    },
    {
      "icao": "LQBK",
      "alert": "OK",
      "vis_m": 9999,
      "fzfg": false,
      "metar_trigger": false,
      "taf_trigger": false,
      "metar": "METAR LQBK 231100Z 31005KT 270V020 CAVOK 12/03 Q1015 NOSIG",
      "taf": "TAF LQBK 231100Z 2312/2412 34005KT CAVOK TX15/2313Z TN04/2406Z"
    },
    {
      "icao": "LQSA",
      "alert": "OK",
      "vis_m": 9999,
      "fzfg": false,
      "metar_trigger": false,
      "taf_trigger": false,
      "metar": "METAR LQSA 231100Z VRB03KT CAVOK 13/M00 Q1013 NOSIG",
      "taf": "TAF LQSA 231100Z 2312/2412 VRB02KT 9999 SCT055 TX14/2314Z TN04/2405Z"
    },
    {
      "icao": "LQTZ",
      "alert": "OK",
      "vis_m": 9999,
      "fzfg": false,
      "metar_trigger": false,
      "taf_trigger": false,
      "metar": "METAR LQTZ 231100Z 34004KT 260V060 9999 SCT045 15/04 Q1014",
      "taf": "TAF LQTZ 231100Z 2312/2412 VRB02KT 9999 SCT040 TX14/2313Z TN03/2406Z"
    },
    {
      "icao": "LRBC",
      "alert": "OK",
      "vis_m": 9999,
      "fzfg": false,
      "metar_trigger": false,
      "taf_trigger": false,
      "metar": "METAR LRBC 231100Z 33005KT 290V020 CAVOK 13/01 Q1017",
      "taf": "TAF LRBC 230800Z 2309/2318 34010KT CAVOK"
    },
    {
      "icao": "LRBS",
      "alert": "OK",
      "vis_m": 9999,
      "fzfg": false,
      "metar_trigger": false,
      "taf_trigger": false,
      "metar": "METAR LRBS 231100Z 04012KT 010V070 9999 BKN040 OVC045 11/02 Q1016 RERA NOSIG",
      "taf": "TAF LRBS 230500Z 2306/2406 VRB04KT 9999 BKN045"
    },
    {
      "icao": "LRBV",
      "alert": "OK",
      "vis_m": 9999,
      "fzfg": false,
      "metar_trigger": false,
      "taf_trigger": false,
      "metar": "METAR LRBV 231100Z 11003KT 030V160 9999 SCT050 BKN070 09/M00 Q1016",
      "taf": "TAF LRBV 230800Z 2309/2318 VRB04KT 9999 BKN060"
    },
    {
      "icao": "LRCL",
      "alert": "OK",
      "vis_m": 9999,
      "fzfg": false,
      "metar_trigger": false,
      "taf_trigger": false,
      "metar": "METAR LRCL 231100Z 12004KT 040V170 CAVOK 12/M02 Q1016",
      "taf": "TAF LRCL 230800Z 2309/2318 VRB04KT CAVOK"
    },
    {
      "icao": "LRCV",
      "alert": "OK",
      "vis_m": 9999,
      "fzfg": false,
      "metar_trigger": false,
      "taf_trigger": false,
      "metar": "METAR LRCV 231100Z 07005KT 9999 BKN023 OVC028 09/04 Q1017",
      "taf": "TAF LRCV 230800Z 2309/2318 07008KT 9999 BKN040"
    },
    {
      "icao": "LRIA",
      "alert": "OK",
      "vis_m": 9999,
      "fzfg": false,
      "metar_trigger": false,
      "taf_trigger": false,
      "metar": "METAR LRIA 231100Z VRB03KT CAVOK 13/M00 Q1017",
      "taf": "TAF LRIA 230800Z 2309/2318 VRB04KT CAVOK"
    },
    {
      "icao": "LROP",
      "alert": "OK",
      "vis_m": 9999,
      "fzfg": false,
      "metar_trigger": false,
      "taf_trigger": false,
      "metar": "METAR LROP 231100Z 06014KT 9999 -RA OVC042 11/M01 Q1016 NOSIG",
      "taf": "TAF LROP 230500Z 2306/2406 VRB04KT 9999 BKN045"
    },
    {
      "icao": "LRSB",
      "alert": "OK",
      "vis_m": 9999,
      "fzfg": false,
      "metar_trigger": false,
      "taf_trigger": false,
      "metar": "METAR LRSB 231100Z 16004KT 110V210 9999 FEW065 BKN080 09/02 Q1016",
      "taf": "TAF LRSB 230500Z 2306/2406 VRB04KT CAVOK"
    },
    {
      "icao": "LRSM",
      "alert": "OK",
      "vis_m": 9999,
      "fzfg": false,
      "metar_trigger": false,
      "taf_trigger": false,
      "metar": "METAR LRSM 231100Z VRB04KT CAVOK 15/M02 Q1017",
      "taf": "TAF LRSM 230800Z 2309/2318 VRB04KT CAVOK"
    },
    {
      "icao": "LRSV",
      "alert": "OK",
      "vis_m": 9999,
      "fzfg": false,
      "metar_trigger": false,
      "taf_trigger": false,
      "metar": "METAR LRSV 231100Z 07005KT 360V120 9999 FEW048 10/M01 Q1017",
      "taf": "TAF LRSV 230800Z 2309/2318 VRB04KT CAVOK"
    },
    {
      "icao": "LRTM",
      "alert": "OK",
      "vis_m": 9999,
      "fzfg": false,
      "metar_trigger": false,
      "taf_trigger": false,
      "metar": "METAR LRTM 231100Z VRB04KT 9999 SCT039 14/01 Q1016",
      "taf": "TAF LRTM 230800Z 2309/2318 VRB04KT CAVOK"
    },
    {
      "icao": "LRTR",
      "alert": "OK",
      "vis_m": 9999,
      "fzfg": false,
      "metar_trigger": false,
      "taf_trigger": false,
      "metar": "METAR LRTR 231100Z 01004KT 320V080 9999 FEW046 14/03 Q1016 NOSIG",
      "taf": "TAF LRTR 230500Z 2306/2406 09006KT CAVOK"
    },
    {
      "icao": "LTAC",
      "alert": "OK",
      "vis_m": 9999,
      "fzfg": false,
      "metar_trigger": false,
      "taf_trigger": false,
      "metar": "METAR LTAC 231050Z 25005KT 150V310 9999 TS FEW025CB BKN033 13/04 Q1008 TEMPO -TSRA RMK RWY21C 07005KT 030V090 RWY03L VRB04KT RWY21R 07006KT 030V100 RWY03R 22005KT 140V280 RWY21L 05007KT",
      "taf": "TAF LTAC 231040Z 2312/2412 VRB02KT 9999 SCT040 BKN100"
    },
    {
      "icao": "LTFM",
      "alert": "OK",
      "vis_m": 2200,
      "fzfg": false,
      "metar_trigger": false,
      "taf_trigger": false,
      "metar": "METAR LTFM 231050Z 33013KT 2200 1100S R35R/P1500N R17L/P1500N R34L/1100N R36/P1500D -RA BR BKN002 BKN018 07/06 Q1012 NOSIG RMK RWY17L 32013KT RWY34L 32013KT RWY16R 32010KT RWY36 33015KT RWY18 32014KT",
      "taf": "TAF LTFM 231040Z 2312/2418 33012KT 2000 -RA BR BKN004 BKN020"
    },
    {
      "icao": "LUKK",
      "alert": "OK",
      "vis_m": 9999,
      "fzfg": false,
      "metar_trigger": false,
      "taf_trigger": false,
      "metar": "METAR LUKK 231100Z 04005KT 350V130 CAVOK 14/00 Q1017 NOSIG",
      "taf": "TAF LUKK 231102Z 2312/2412 05008KT CAVOK"
    },
    {
      "icao": "LWOH",
      "alert": "OK",
      "vis_m": 9999,
      "fzfg": false,
      "metar_trigger": false,
      "taf_trigger": false,
      "metar": "METAR LWOH 231050Z 06011KT 020V130 9999 FEW040 SCT050 10/02 Q1012",
      "taf": "TAF LWOH 231105Z 2312/2412 06010KT 9999 SCT040 BKN080"
    },
    {
      "icao": "LWSK",
      "alert": "OK",
      "vis_m": 9999,
      "fzfg": false,
      "metar_trigger": false,
      "taf_trigger": false,
      "metar": "METAR LWSK 231050Z 22003KT 130V270 9999 FEW033 SCT100 14/04 Q1013 NOSIG",
      "taf": "TAF LWSK 231105Z 2312/2412 VRB02KT 9999 SCT040 BKN100"
    },
    {
      "icao": "LYBE",
      "alert": "OK",
      "vis_m": 9999,
      "fzfg": false,
      "metar_trigger": false,
      "taf_trigger": false,
      "metar": "METAR LYBE 231100Z 07007KT 020V120 CAVOK 15/02 Q1015 NOSIG",
      "taf": "TAF LYBE 230500Z 2306/2406 10010KT CAVOK TX15/2313Z TN06/2405Z"
    },
    {
      "icao": "LYNI",
      "alert": "OK",
      "vis_m": 9999,
      "fzfg": false,
      "metar_trigger": false,
      "taf_trigger": false,
      "metar": "METAR LYNI 231100Z 35005KT 270V040 9999 FEW040 14/02 Q1014 TEMPO 05014KT",
      "taf": "TAF LYNI 230500Z 2306/2406 05004KT 9999 SCT040 TX14/2313Z TN04/2405Z"
    },
    {
      "icao": "LYPG",
      "alert": "OK",
      "vis_m": 9999,
      "fzfg": false,
      "metar_trigger": false,
      "taf_trigger": false,
      "metar": "METAR LYPG 231100Z 18003KT 130V240 9999 FEW060 17/01 Q1012 NOSIG",
      "taf": "TAF LYPG 230500Z 2306/2406 18006KT 9999 FEW040 BKN080 TX16/2313Z TN08/2400Z"
    },
    {
      "icao": "LZIB",
      "alert": "OK",
      "vis_m": 9999,
      "fzfg": false,
      "metar_trigger": false,
      "taf_trigger": false,
      "metar": "METAR LZIB 231100Z VRB01KT CAVOK 14/02 Q1017 NOSIG",
      "taf": "TAF LZIB 230515Z 2306/2406 05005KT CAVOK"
    },
    {
      "icao": "LZKZ",
      "alert": "OK",
      "vis_m": 9999,
      "fzfg": false,
      "metar_trigger": false,
      "taf_trigger": false,
      "metar": "METAR LZKZ 231100Z 08006KT 050V110 9999 FEW045 14/M01 Q1016 NOSIG",
      "taf": "TAF LZKZ 230515Z 2306/2406 01008KT CAVOK"
    },
    {
      "icao": "LZTT",
      "alert": "OK",
      "vis_m": 9999,
      "fzfg": false,
      "metar_trigger": false,
      "taf_trigger": false,
      "metar": "METAR LZTT 231100Z 02008KT 350V060 9999 VCSH FEW020 BKN050 11/M01 Q1016 NOSIG",
      "taf": "TAF LZTT 230515Z 2306/2406 26005KT 9999 FEW070"
    },
    {
      "icao": "OEJN",
      "alert": "OK",
      "vis_m": 4000,
      "fzfg": false,
      "metar_trigger": false,
      "taf_trigger": false,
      "metar": "METAR OEJN 231100Z 23010KT 4000 DU NSC 32/17 Q1007 NOSIG",
      "taf": "TAF OEJN 231100Z 2312/2418 22012KT 7000 FEW040"
    },
    {
      "icao": "OEMA",
      "alert": "OK",
      "vis_m": 9999,
      "fzfg": false,
      "metar_trigger": false,
      "taf_trigger": false,
      "metar": "METAR OEMA 231100Z 22010KT 9999 SCT040 30/M05 Q1010 NOSIG",
      "taf": "TAF OEMA 231100Z 2312/2418 25015KT 7000 FEW040"
    },
    {
      "icao": "OJAI",
      "alert": "OK",
      "vis_m": 5000,
      "fzfg": false,
      "metar_trigger": false,
      "taf_trigger": false,
      "metar": "METAR OJAI 231000Z 16005KT 5000 HZ FEW030 SCT030 15/03 Q1012 NOSIG",
      "taf": "TAF OJAI 230500Z 2306/2412 24012KT 4000 BR FEW025TCU SCT030"
    },
    {
      "icao": "OMAA",
      "alert": "OK",
      "vis_m": null,
      "fzfg": false,
      "metar_trigger": false,
      "taf_trigger": false,
      "metar": "",
      "taf": ""
    },
    {
      "icao": "OMDB",
      "alert": "OK",
      "vis_m": null,
      "fzfg": false,
      "metar_trigger": false,
      "taf_trigger": false,
      "metar": "",
      "taf": ""
    },
    {
      "icao": "UAAA",
      "alert": "OK",
      "vis_m": 9999,
      "fzfg": false,
      "metar_trigger": false,
      "taf_trigger": false,
      "metar": "METAR UAAA 231100Z 28004MPS 9999 BKN050CB OVC100 16/04 Q1016 NOSIG",
      "taf": "TAF UAAA 230505Z 2306/2406 28003G08MPS 9999 SCT050CB BKN100 TX18/2309Z TN06/2401Z"
    },
    {
      "icao": "UBBB",
      "alert": "OK",
      "vis_m": 9999,
      "fzfg": false,
      "metar_trigger": false,
      "taf_trigger": false,
      "metar": "METAR UBBB 231100Z 34004KT 290V040 CAVOK 16/08 Q1009 NOSIG",
      "taf": "TAF UBBB 231056Z 2312/2412 34006KT CAVOK TX16/2312Z TN08/2400Z"
    },
    {
      "icao": "UDSG",
      "alert": "OK",
      "vis_m": 9999,
      "fzfg": false,
      "metar_trigger": false,
      "taf_trigger": false,
      "metar": "METAR UDSG 231100Z 28013KT 9999 BKN036CB 08/03 Q1013 NOSIG",
      "taf": "TAF UDSG 230458Z 2306/2406 24006KT 9999 SCT040"
    },
    {
      "icao": "UDYZ",
      "alert": "OK",
      "vis_m": 9999,
      "fzfg": false,
      "metar_trigger": false,
      "taf_trigger": false,
      "metar": "METAR UDYZ 231100Z 27004KT 220V330 9999 SCT043CB 16/02 Q1011 NOSIG",
      "taf": "TAF UDYZ 230500Z 2306/2406 22006KT 9999 SCT040"
    },
    {
      "icao": "UGKO",
      "alert": "OK",
      "vis_m": 9999,
      "fzfg": false,
      "metar_trigger": false,
      "taf_trigger": false,
      "metar": "METAR UGKO 231100Z 26010KT 9999 BKN017 OVC019 15/09 Q1010 NOSIG",
      "taf": "TAF UGKO 231100Z 2312/2412 26007KT 9000 SCT023 BKN040 TX20/2411Z TN06/2403Z"
    }
  ]
}