{
  "ts_utc": "2026-03-14T06:37:44Z",
  "threshold_m": 150,
  "source": "stations_override.txt (ICAO list) + aviationweather.gov (METAR/TAF raw)",
  "station_count": 159,
  "stations": [
    {
      "icao": "BIKF",
      "alert": "OK",
      "vis_m": 9999,
      "fzfg": false,
      "metar_trigger": false,
      "taf_trigger": false,
      "metar": "METAR BIKF 140630Z 22005KT 210V290 9999 FEW030 SCT038 M01/M03 Q0990",
      "taf": "TAF BIKF 140444Z 1406/1506 30005KT 9999 FEW025 SCT035 TX04/1415Z TNM02/1407Z"
    },
    {
      "icao": "BKPR",
      "alert": "OK",
      "vis_m": 9999,
      "fzfg": false,
      "metar_trigger": false,
      "taf_trigger": false,
      "metar": "METAR BKPR 140630Z VRB01KT CAVOK 02/M00 Q1013 NOSIG",
      "taf": "TAF BKPR 140530Z 1406/1506 16007KT CAVOK"
    },
    {
      "icao": "EBCI",
      "alert": "OK",
      "vis_m": 3500,
      "fzfg": false,
      "metar_trigger": false,
      "taf_trigger": false,
      "metar": "METAR EBCI 140620Z 28003KT 250V320 3500 -SN SCT003 BKN004 01/00 Q1000 TEMPO 2500 -SNRA",
      "taf": "TAF EBCI 140503Z 1406/1512 29008KT 9999 BKN012"
    },
    {
      "icao": "EDDB",
      "alert": "OK",
      "vis_m": 9999,
      "fzfg": false,
      "metar_trigger": false,
      "taf_trigger": false,
      "metar": "METAR EDDB 140620Z AUTO 16011KT 9999 -RA NSC 10/03 Q0998 NOSIG",
      "taf": "TAF EDDB 140500Z 1406/1506 17008KT 9999 SCT020"
    },
    {
      "icao": "EDDH",
      "alert": "OK",
      "vis_m": 9999,
      "fzfg": false,
      "metar_trigger": false,
      "taf_trigger": false,
      "metar": "METAR EDDH 140620Z AUTO 14003KT 9999 -RA FEW028 BKN039 04/02 Q0999 TEMPO RA BKN014",
      "taf": "TAF EDDH 140500Z 1406/1512 28004KT 9999 BKN020"
    },
    {
      "icao": "EDDK",
      "alert": "OK",
      "vis_m": 9999,
      "fzfg": false,
      "metar_trigger": false,
      "taf_trigger": false,
      "metar": "METAR EDDK 140620Z AUTO VRB02KT 9999 -RA FEW006 BKN011 OVC017 03/03 Q0999 TEMPO RA BKN007",
      "taf": "TAF EDDK 140500Z 1406/1512 19004KT 9999 SCT010 BKN020"
    },
    {
      "icao": "EDDN",
      "alert": "OK",
      "vis_m": 9999,
      "fzfg": false,
      "metar_trigger": false,
      "taf_trigger": false,
      "metar": "METAR EDDN 140620Z AUTO 14005KT 100V160 CAVOK 08/02 Q0999 BECMG 26008KT",
      "taf": "TAF EDDN 140500Z 1406/1506 13007KT CAVOK"
    },
    {
      "icao": "EDDS",
      "alert": "OK",
      "vis_m": 9999,
      "fzfg": false,
      "metar_trigger": false,
      "taf_trigger": false,
      "metar": "METAR EDDS 140620Z AUTO 24010KT 180V310 9999 -RA FEW028 SCT039 BKN045 07/04 Q0999 RESHRA NOSIG",
      "taf": "TAF EDDS 140500Z 1406/1506 26010KT 9999 BKN040"
    },
    {
      "icao": "EDFH",
      "alert": "OK",
      "vis_m": 9999,
      "fzfg": false,
      "metar_trigger": false,
      "taf_trigger": false,
      "metar": "METAR EDFH 140620Z 22007KT 9999 -RA SCT016 BKN024 02/01 Q0998",
      "taf": "TAF EDFH 140500Z 1406/1506 26010KT 9999 BKN020"
    },
    {
      "icao": "EDJA",
      "alert": "OK",
      "vis_m": 9999,
      "fzfg": false,
      "metar_trigger": false,
      "taf_trigger": false,
      "metar": "METAR EDJA 140620Z 24003KT 170V330 CAVOK 05/01 Q0999",
      "taf": "TAF EDJA 140500Z 1406/1415 19004KT 9999 FEW040"
    },
    {
      "icao": "EDLW",
      "alert": "OK",
      "vis_m": 9000,
      "fzfg": false,
      "metar_trigger": false,
      "taf_trigger": false,
      "metar": "METAR EDLW 140620Z 15005KT 9000 -RA OVC038 02/02 Q0999",
      "taf": "TAF EDLW 140500Z 1406/1506 19005KT 9999 SCT010 BKN020"
    },
    {
      "icao": "EDNY",
      "alert": "OK",
      "vis_m": 9999,
      "fzfg": false,
      "metar_trigger": false,
      "taf_trigger": false,
      "metar": "METAR EDNY 140620Z VRB01KT CAVOK 03/02 Q1000",
      "taf": "TAF EDNY 140500Z 1406/1415 VRB02KT 9999 BKN045"
    },
    {
      "icao": "EDSB",
      "alert": "OK",
      "vis_m": 9999,
      "fzfg": false,
      "metar_trigger": false,
      "taf_trigger": false,
      "metar": "METAR EDSB 140620Z 24003KT 9999 RA FEW033 OVC043 06/06 Q1001",
      "taf": "TAF EDSB 140500Z 1406/1506 23008KT 9999 BKN015"
    },
    {
      "icao": "EETN",
      "alert": "OK",
      "vis_m": 9999,
      "fzfg": false,
      "metar_trigger": false,
      "taf_trigger": false,
      "metar": "METAR EETN 140620Z 17010KT 140V200 CAVOK 07/03 Q1006 NOSIG",
      "taf": "TAF EETN 140530Z 1406/1506 17012KT CAVOK"
    },
    {
      "icao": "EFTU",
      "alert": "OK",
      "vis_m": 6000,
      "fzfg": false,
      "metar_trigger": false,
      "taf_trigger": false,
      "metar": "METAR EFTU 140620Z AUTO 14007KT 6000 -RA SCT006 03/02 Q1003",
      "taf": "TAF EFTU 140528Z 1406/1506 16006KT 4000 -DZRA FEW009 BKN040"
    },
    {
      "icao": "EGBB",
      "alert": "OK",
      "vis_m": 9999,
      "fzfg": false,
      "metar_trigger": false,
      "taf_trigger": false,
      "metar": "METAR EGBB 140620Z 29007KT CAVOK 03/01 Q1002",
      "taf": "TAF EGBB 140456Z 1406/1506 28008KT 9999 FEW045"
    },
    {
      "icao": "EGGP",
      "alert": "OK",
      "vis_m": 9999,
      "fzfg": false,
      "metar_trigger": false,
      "taf_trigger": false,
      "metar": "METAR EGGP 140620Z 28009KT 9999 FEW016 BKN022 05/04 Q1002",
      "taf": "TAF EGGP 140455Z 1406/1506 27008KT 9999 FEW030"
    },
    {
      "icao": "EGGW",
      "alert": "OK",
      "vis_m": 9999,
      "fzfg": false,
      "metar_trigger": false,
      "taf_trigger": false,
      "metar": "METAR EGGW 140620Z AUTO 29012KT 9999 SCT048 01/00 Q1001",
      "taf": "TAF EGGW 140456Z 1406/1506 29010KT 9999 FEW045"
    },
    {
      "icao": "EGKK",
      "alert": "OK",
      "vis_m": 9999,
      "fzfg": false,
      "metar_trigger": false,
      "taf_trigger": false,
      "metar": "METAR EGKK 140620Z VRB02KT CAVOK 00/M00 Q1002",
      "taf": "TAF EGKK 140454Z 1406/1512 22004KT CAVOK"
    },
    {
      "icao": "EGNM",
      "alert": "OK",
      "vis_m": 9999,
      "fzfg": false,
      "metar_trigger": false,
      "taf_trigger": false,
      "metar": "METAR EGNM 140620Z 27008KT 9999 FEW014 02/01 Q1000",
      "taf": "TAF EGNM 140558Z 1406/1506 27009KT 9999 FEW020"
    },
    {
      "icao": "EGPD",
      "alert": "OK",
      "vis_m": 9999,
      "fzfg": false,
      "metar_trigger": false,
      "taf_trigger": false,
      "metar": "METAR EGPD 140620Z COR AUTO 25004KT 190V290 9999 NCD 02/M02 Q0996 NOSIG",
      "taf": "TAF EGPD 140456Z 1406/1506 25009KT 9999 FEW040"
    },
    {
      "icao": "EGPF",
      "alert": "OK",
      "vis_m": 9999,
      "fzfg": false,
      "metar_trigger": false,
      "taf_trigger": false,
      "metar": "METAR EGPF 140620Z AUTO 24008KT 9999 NCD 01/M00 Q1000",
      "taf": "TAF EGPF 140456Z 1406/1506 26006KT 9999 FEW030"
    },
    {
      "icao": "EHBK",
      "alert": "OK",
      "vis_m": 9999,
      "fzfg": false,
      "metar_trigger": false,
      "taf_trigger": false,
      "metar": "METAR EHBK 140625Z AUTO 26004KT 210V300 9999 -RA FEW009/// BKN010/// BKN013/// 02/01 Q0999 TEMPO 7000 BKN006",
      "taf": "TAF EHBK 140506Z 1406/1512 19006KT 9999 -RA BKN016"
    },
    {
      "icao": "EHEH",
      "alert": "OK",
      "vis_m": 9999,
      "fzfg": false,
      "metar_trigger": false,
      "taf_trigger": false,
      "metar": "METAR EHEH 140625Z AUTO VRB01KT 9999 -SHRA FEW001 SCT002 BKN015 04/04 Q0999 WHT TEMPO 4500 RA SCT010 BKN014",
      "taf": "TAF EHEH 140530Z 1406/1512 20003KT 6000 BKN018"
    },
    {
      "icao": "EKBI",
      "alert": "OK",
      "vis_m": 6000,
      "fzfg": false,
      "metar_trigger": false,
      "taf_trigger": false,
      "metar": "METAR EKBI 140620Z AUTO 14003KT 6000 OVC004/// 03/03 Q0998",
      "taf": "TAF EKBI 140527Z 1406/1506 16004KT 8000 BKN006"
    },
    {
      "icao": "EKCH",
      "alert": "OK",
      "vis_m": 9999,
      "fzfg": false,
      "metar_trigger": false,
      "taf_trigger": false,
      "metar": "METAR EKCH 140620Z 03005KT 9999 -RA BKN012 03/02 Q0999 TEMPO BKN008",
      "taf": "TAF EKCH 140527Z 1406/1506 18007KT 9999 -RA BKN020"
    },
    {
      "icao": "ENAL",
      "alert": "OK",
      "vis_m": 9999,
      "fzfg": false,
      "metar_trigger": false,
      "taf_trigger": false,
      "metar": "METAR ENAL 140620Z 20012KT 9999 FEW032 SCT057 06/00 Q0987",
      "taf": "TAF ENAL 140500Z 1406/1415 18015KT 9999 SCT025"
    },
    {
      "icao": "ENBR",
      "alert": "OK",
      "vis_m": 9999,
      "fzfg": false,
      "metar_trigger": false,
      "taf_trigger": false,
      "metar": "METAR ENBR 140620Z 15013KT 9999 -SHRA FEW005 SCT009 BKN011 04/02 Q0992 TEMPO 4000 SHRA BKN007 SCT014CB RMK WIND 1200FT 20022G32KT",
      "taf": "TAF ENBR 140500Z 1406/1506 17015KT 9999 FEW007 BKN020"
    },
    {
      "icao": "ENGM",
      "alert": "OK",
      "vis_m": 2500,
      "fzfg": false,
      "metar_trigger": false,
      "taf_trigger": false,
      "metar": "METAR ENGM 140620Z 17009KT 2500 -DZ BR OVC002 02/01 Q0996 TEMPO 1200",
      "taf": "TAF ENGM 140500Z 1406/1506 18007KT 9000 BKN005"
    },
    {
      "icao": "ENHD",
      "alert": "OK",
      "vis_m": 9999,
      "fzfg": false,
      "metar_trigger": false,
      "taf_trigger": false,
      "metar": "METAR ENHD 140620Z AUTO 16010KT 9999 OVC005/// 05/04 Q0993",
      "taf": "TAF ENHD 140500Z 1406/1415 16010KT 9999 FEW008 BKN020"
    },
    {
      "icao": "ENTC",
      "alert": "OK",
      "vis_m": 9999,
      "fzfg": false,
      "metar_trigger": false,
      "taf_trigger": false,
      "metar": "METAR ENTC 140620Z 20008KT 170V240 9999 -RA BKN026 03/01 Q0984 NOSIG RMK WIND 2600FT 26014KT",
      "taf": "TAF ENTC 140500Z 1406/1506 21010KT 9999 FEW015 SCT030"
    },
    {
      "icao": "ENTO",
      "alert": "OK",
      "vis_m": 9000,
      "fzfg": false,
      "metar_trigger": false,
      "taf_trigger": false,
      "metar": "METAR ENTO 140620Z 18007KT 9000 OVC003 03/03 Q0997 NOSIG",
      "taf": "TAF ENTO 140500Z 1406/1506 20007KT 8000 BKN005"
    },
    {
      "icao": "ENVA",
      "alert": "OK",
      "vis_m": 9999,
      "fzfg": false,
      "metar_trigger": false,
      "taf_trigger": false,
      "metar": "METAR ENVA 140620Z 16017G27KT CAVOK 04/M02 Q0990 NOSIG RMK WIND 670FT 17027KT",
      "taf": "TAF ENVA 140500Z 1406/1506 15015KT CAVOK"
    },
    {
      "icao": "ENZV",
      "alert": "OK",
      "vis_m": 9999,
      "fzfg": false,
      "metar_trigger": false,
      "taf_trigger": false,
      "metar": "METAR ENZV 140620Z 18006KT 9999 FEW010 BKN021 04/03 Q0994 NOSIG",
      "taf": "TAF ENZV 140500Z 1406/1506 19009KT 9999 SCT015 BKN030"
    },
    {
      "icao": "EPGD",
      "alert": "OK",
      "vis_m": 9999,
      "fzfg": false,
      "metar_trigger": false,
      "taf_trigger": false,
      "metar": "METAR EPGD 140630Z 18011KT CAVOK 08/04 Q1002",
      "taf": "TAF EPGD 140530Z 1406/1506 17010KT CAVOK"
    },
    {
      "icao": "EPKK",
      "alert": "OK",
      "vis_m": 9999,
      "fzfg": false,
      "metar_trigger": false,
      "taf_trigger": false,
      "metar": "METAR EPKK 140630Z 05006KT CAVOK 06/02 Q1008",
      "taf": "TAF EPKK 140530Z 1406/1506 06006KT CAVOK"
    },
    {
      "icao": "EPKT",
      "alert": "OK",
      "vis_m": 9999,
      "fzfg": false,
      "metar_trigger": false,
      "taf_trigger": false,
      "metar": "METAR EPKT 140630Z 13012KT CAVOK 09/00 Q1007",
      "taf": "TAF EPKT 140530Z 1406/1506 13010KT CAVOK"
    },
    {
      "icao": "EPLB",
      "alert": "OK",
      "vis_m": 9999,
      "fzfg": false,
      "metar_trigger": false,
      "taf_trigger": false,
      "metar": "METAR EPLB 140630Z 13005KT CAVOK 06/01 Q1011",
      "taf": "TAF EPLB 140530Z 1406/1506 13007KT CAVOK"
    },
    {
      "icao": "EPMO",
      "alert": "OK",
      "vis_m": 9999,
      "fzfg": false,
      "metar_trigger": false,
      "taf_trigger": false,
      "metar": "METAR EPMO 140630Z 13009KT CAVOK 09/04 Q1008",
      "taf": "TAF EPMO 140530Z 1406/1506 16008KT CAVOK"
    },
    {
      "icao": "EPPO",
      "alert": "OK",
      "vis_m": 9999,
      "fzfg": false,
      "metar_trigger": false,
      "taf_trigger": false,
      "metar": "METAR EPPO 140630Z 16012KT CAVOK 10/04 Q1001",
      "taf": "TAF EPPO 140530Z 1406/1506 16010KT CAVOK"
    },
    {
      "icao": "EPRA",
      "alert": "OK",
      "vis_m": 9999,
      "fzfg": false,
      "metar_trigger": false,
      "taf_trigger": false,
      "metar": "METAR EPRA 140630Z 16008KT CAVOK 06/01 Q1009",
      "taf": "TAF EPRA 140530Z 1406/1415 15012KT CAVOK"
    },
    {
      "icao": "EPRZ",
      "alert": "OK",
      "vis_m": 9999,
      "fzfg": false,
      "metar_trigger": false,
      "taf_trigger": false,
      "metar": "METAR EPRZ 140630Z 09006KT CAVOK 05/00 Q1011",
      "taf": "TAF EPRZ 140530Z 1406/1506 12006KT CAVOK"
    },
    {
      "icao": "EPSC",
      "alert": "OK",
      "vis_m": 9999,
      "fzfg": false,
      "metar_trigger": false,
      "taf_trigger": false,
      "metar": "METAR EPSC 140630Z 14012KT CAVOK 09/03 Q0998",
      "taf": "TAF EPSC 140530Z 1406/1506 14010KT CAVOK"
    },
    {
      "icao": "EPSY",
      "alert": "OK",
      "vis_m": 9999,
      "fzfg": false,
      "metar_trigger": false,
      "taf_trigger": false,
      "metar": "METAR EPSY 140630Z 16007KT CAVOK 07/03 Q1007",
      "taf": "TAF EPSY 140530Z 1406/1415 16004KT CAVOK"
    },
    {
      "icao": "EPWA",
      "alert": "OK",
      "vis_m": 9999,
      "fzfg": false,
      "metar_trigger": false,
      "taf_trigger": false,
      "metar": "METAR EPWA 140630Z 15009KT CAVOK 08/03 Q1008 NOSIG",
      "taf": "TAF EPWA 140530Z 1406/1506 16008KT CAVOK"
    },
    {
      "icao": "EPWR",
      "alert": "OK",
      "vis_m": 9999,
      "fzfg": false,
      "metar_trigger": false,
      "taf_trigger": false,
      "metar": "METAR EPWR 140630Z 13011KT CAVOK 07/04 Q1003",
      "taf": "TAF EPWR 140530Z 1406/1506 13010KT CAVOK"
    },
    {
      "icao": "ESGG",
      "alert": "OK",
      "vis_m": 2100,
      "fzfg": false,
      "metar_trigger": false,
      "taf_trigger": false,
      "metar": "METAR ESGG 140620Z 16005KT 2100 BR VV003 02/02 Q0998",
      "taf": "TAF ESGG 140530Z 1406/1506 16005KT 9999 OVC003"
    },
    {
      "icao": "ESKN",
      "alert": "OK",
      "vis_m": 9999,
      "fzfg": false,
      "metar_trigger": false,
      "taf_trigger": false,
      "metar": "METAR ESKN 140620Z 10003KT 9999 -DZ BKN025 03/03 Q1000",
      "taf": "TAF ESKN 140530Z 1406/1506 VRB02KT 9999 BKN025"
    },
    {
      "icao": "ESMS",
      "alert": "OK",
      "vis_m": 6000,
      "fzfg": false,
      "metar_trigger": false,
      "taf_trigger": false,
      "metar": "METAR ESMS 140620Z 36009KT 6000 -RA FEW014 BKN020 02/02 Q0998",
      "taf": "TAF ESMS 140527Z 1406/1506 VRB02KT 7000 -RA BKN015"
    },
    {
      "icao": "ESSA",
      "alert": "OK",
      "vis_m": 9000,
      "fzfg": false,
      "metar_trigger": false,
      "taf_trigger": false,
      "metar": "METAR ESSA 140620Z 11003KT 100V160 9000 FEW015 BKN021 03/03 Q1001 NOSIG",
      "taf": "TAF ESSA 140530Z 1406/1506 VRB02KT 9999 -RA BKN020"
    },
    {
      "icao": "EYKA",
      "alert": "OK",
      "vis_m": 9999,
      "fzfg": false,
      "metar_trigger": false,
      "taf_trigger": false,
      "metar": "METAR EYKA 140620Z 15011KT CAVOK 08/M00 Q1011",
      "taf": "TAF EYKA 140502Z 1406/1506 15011KT 9000 NSC"
    },
    {
      "icao": "EYPA",
      "alert": "OK",
      "vis_m": 9999,
      "fzfg": false,
      "metar_trigger": false,
      "taf_trigger": false,
      "metar": "METAR EYPA 140620Z 15013KT CAVOK 08/03 Q1005",
      "taf": "TAF EYPA 140506Z 1406/1506 16014KT 9000 NSC"
    },
    {
      "icao": "EYVI",
      "alert": "OK",
      "vis_m": 9999,
      "fzfg": false,
      "metar_trigger": false,
      "taf_trigger": false,
      "metar": "METAR EYVI 140620Z 16012KT CAVOK 06/M01 Q1013 NOSIG",
      "taf": "TAF EYVI 140500Z 1406/1506 16012KT 9000 NSC"
    },
    {
      "icao": "GCFV",
      "alert": "OK",
      "vis_m": 9999,
      "fzfg": false,
      "metar_trigger": false,
      "taf_trigger": false,
      "metar": "METAR GCFV 140630Z 03018KT 9999 BKN024 17/13 Q1020",
      "taf": "TAF GCFV 140200Z 1403/1503 03017KT 9999 FEW015 TX20/1414Z TN16/1406Z"
    },
    {
      "icao": "GCLP",
      "alert": "OK",
      "vis_m": 9999,
      "fzfg": false,
      "metar_trigger": false,
      "taf_trigger": false,
      "metar": "METAR GCLP 140630Z 01018KT 9999 SCT020 BKN030 18/13 Q1019 NOSIG",
      "taf": "TAF GCLP 140200Z 1403/1503 01020KT 9999 SCT020 TX21/1414Z TN16/1406Z"
    },
    {
      "icao": "GCTS",
      "alert": "OK",
      "vis_m": 9999,
      "fzfg": false,
      "metar_trigger": false,
      "taf_trigger": false,
      "metar": "METAR GCTS 140630Z 07027KT 9999 FEW025 17/12 Q1018 WS R07 NOSIG",
      "taf": ""
    },
    {
      "icao": "GMAD",
      "alert": "OK",
      "vis_m": 8000,
      "fzfg": false,
      "metar_trigger": false,
      "taf_trigger": false,
      "metar": "METAR GMAD 140630Z COR 00000KT 8000 FEW010 08/06 Q1018 NOSIG",
      "taf": "TAF GMAD 140500Z 1406/1512 22004KT CAVOK"
    },
    {
      "icao": "GMMN",
      "alert": "OK",
      "vis_m": 3000,
      "fzfg": false,
      "metar_trigger": false,
      "taf_trigger": false,
      "metar": "METAR GMMN 140630Z VRB02KT 3000 BR BKN010 11/10 Q1020 NOSIG",
      "taf": "TAF GMMN 140500Z 1406/1512 26003KT 3000 BR BKN010"
    },
    {
      "icao": "GMMX",
      "alert": "OK",
      "vis_m": 4000,
      "fzfg": false,
      "metar_trigger": false,
      "taf_trigger": false,
      "metar": "METAR GMMX 140630Z VRB01KT 4000 BR BKN006 12/12 Q1019 NOSIG",
      "taf": "TAF GMMX 140500Z 1406/1512 04006KT 8000 SCT026"
    },
    {
      "icao": "HEGN",
      "alert": "OK",
      "vis_m": null,
      "fzfg": false,
      "metar_trigger": false,
      "taf_trigger": false,
      "metar": "",
      "taf": "TAF HEGN 140500Z 1406/1512 14012KT 6000 SCT025"
    },
    {
      "icao": "HEMA",
      "alert": "OK",
      "vis_m": null,
      "fzfg": false,
      "metar_trigger": false,
      "taf_trigger": false,
      "metar": "",
      "taf": "TAF HEMA 140500Z 1406/1512 17012KT 6000 SCT025"
    },
    {
      "icao": "HESH",
      "alert": "OK",
      "vis_m": null,
      "fzfg": false,
      "metar_trigger": false,
      "taf_trigger": false,
      "metar": "",
      "taf": "TAF HESH 140500Z 1406/1512 29010KT 9999 SCT025"
    },
    {
      "icao": "HESX",
      "alert": "OK",
      "vis_m": null,
      "fzfg": false,
      "metar_trigger": false,
      "taf_trigger": false,
      "metar": "",
      "taf": "TAF HESX 140500Z 1406/1512 21014G28KT 6000 SCT025"
    },
    {
      "icao": "LATI",
      "alert": "OK",
      "vis_m": 8000,
      "fzfg": false,
      "metar_trigger": false,
      "taf_trigger": false,
      "metar": "METAR LATI 140620Z 18003KT 8000 NSC 07/05 Q1012 NOSIG",
      "taf": "TAF LATI 140500Z 1406/1506 VRB03KT CAVOK TX19/1413Z TN04/1504Z"
    },
    {
      "icao": "LBPD",
      "alert": "OK",
      "vis_m": 9999,
      "fzfg": false,
      "metar_trigger": false,
      "taf_trigger": false,
      "metar": "METAR LBPD 140630Z AUTO 28003KT 230V330 9999 NCD 04/M01 Q1016 NOSIG",
      "taf": "TAF LBPD 140500Z 1406/1506 VRB04KT CAVOK"
    },
    {
      "icao": "LBSF",
      "alert": "OK",
      "vis_m": 9999,
      "fzfg": false,
      "metar_trigger": false,
      "taf_trigger": false,
      "metar": "METAR LBSF 140630Z 00000KT CAVOK 02/M02 Q1015 NOSIG",
      "taf": "TAF LBSF 140500Z 1406/1506 VRB04KT CAVOK"
    },
    {
      "icao": "LBWN",
      "alert": "OK",
      "vis_m": 9999,
      "fzfg": false,
      "metar_trigger": false,
      "taf_trigger": false,
      "metar": "METAR LBWN 140630Z 26003KT 220V280 9999 OVC012 05/04 Q1017 NOSIG",
      "taf": "TAF LBWN 140500Z 1406/1506 VRB03KT 8000 SCT005 BKN010"
    },
    {
      "icao": "LCLK",
      "alert": "OK",
      "vis_m": 6000,
      "fzfg": false,
      "metar_trigger": false,
      "taf_trigger": false,
      "metar": "METAR LCLK 140630Z 05019KT 6000 -RA FEW012 FEW035TCU SCT050 15/14 Q1006 NOSIG RMK RAIN",
      "taf": "TAF LCLK 140530Z 1406/1506 05020KT 9999 SCT040"
    },
    {
      "icao": "LCPH",
      "alert": "OK",
      "vis_m": 5000,
      "fzfg": false,
      "metar_trigger": false,
      "taf_trigger": false,
      "metar": "METAR LCPH 140630Z 07017G28KT 5000 -TSRA FEW050CB BKN060 13/10 Q1003 RERA TEMPO 3000 TSRA",
      "taf": "TAF LCPH 140530Z 1406/1506 05017KT 9999 SCT040"
    },
    {
      "icao": "LEAL",
      "alert": "OK",
      "vis_m": 9999,
      "fzfg": false,
      "metar_trigger": false,
      "taf_trigger": false,
      "metar": "METAR LEAL 140630Z 27003KT 190V340 9999 FEW010 12/10 Q1009 NOSIG",
      "taf": "TAF LEAL 140500Z 1406/1506 VRB04KT CAVOK TX21/1412Z TN12/1406Z"
    },
    {
      "icao": "LEBB",
      "alert": "OK",
      "vis_m": 8000,
      "fzfg": false,
      "metar_trigger": false,
      "taf_trigger": false,
      "metar": "METAR LEBB 140630Z 29006KT 220V320 8000 -RA BKN029 BKN040 08/07 Q1011 TEMPO 3000 RA",
      "taf": "TAF LEBB 140500Z 1406/1506 32009KT 9999 SCT015 BKN025 TX09/1418Z TN08/1506Z"
    },
    {
      "icao": "LEBL",
      "alert": "OK",
      "vis_m": 5000,
      "fzfg": false,
      "metar_trigger": false,
      "taf_trigger": false,
      "metar": "METAR LEBL 140630Z 25003KT 200V310 5000 -RA BR FEW025TCU 13/13 Q1004 NOSIG",
      "taf": "TAF LEBL 140500Z 1406/1506 33008KT 9999 SCT015 SCT040 TX14/1413Z TN08/1406Z"
    },
    {
      "icao": "LECH",
      "alert": "OK",
      "vis_m": 9000,
      "fzfg": false,
      "metar_trigger": false,
      "taf_trigger": false,
      "metar": "METAR LECH 140630Z AUTO 22003KT 9000 SCT060 12/06 Q1006",
      "taf": ""
    },
    {
      "icao": "LEMD",
      "alert": "OK",
      "vis_m": 9999,
      "fzfg": false,
      "metar_trigger": false,
      "taf_trigger": false,
      "metar": "METAR LEMD 140630Z 25020KT 220V280 9999 FEW060 SCT070 10/03 Q1010 NOSIG",
      "taf": "TAF LEMD 140500Z 1406/1512 VRB05KT CAVOK TX13/1415Z TN08/1407Z"
    },
    {
      "icao": "LEMG",
      "alert": "OK",
      "vis_m": 9999,
      "fzfg": false,
      "metar_trigger": false,
      "taf_trigger": false,
      "metar": "METAR LEMG 140630Z 30016KT CAVOK 13/08 Q1014 NOSIG",
      "taf": "TAF LEMG 140500Z 1406/1506 31015KT 9999 FEW040 TX19/1415Z TN10/1407Z"
    },
    {
      "icao": "LEVC",
      "alert": "OK",
      "vis_m": 9999,
      "fzfg": false,
      "metar_trigger": false,
      "taf_trigger": false,
      "metar": "METAR LEVC 140630Z 24012KT CAVOK 15/07 Q1007 NOSIG",
      "taf": "TAF LEVC 140500Z 1406/1506 VRB04KT CAVOK TX18/1414Z TN11/1406Z"
    },
    {
      "icao": "LEXJ",
      "alert": "OK",
      "vis_m": 6000,
      "fzfg": false,
      "metar_trigger": false,
      "taf_trigger": false,
      "metar": "METAR LEXJ 140630Z 28013KT 6000 RA FEW015 BKN048 07/05 Q1012",
      "taf": "TAF LEXJ 140200Z 1403/1503 29009KT 9999 SCT020 BKN035 TX10/1413Z TN08/1408Z"
    },
    {
      "icao": "LEZG",
      "alert": "OK",
      "vis_m": 9999,
      "fzfg": false,
      "metar_trigger": false,
      "taf_trigger": false,
      "metar": "METAR LEZG 140630Z 30015KT 9999 OVC075 09/08 Q1009 NOSIG",
      "taf": "TAF LEZG 140500Z 1406/1506 31014KT CAVOK TX13/1414Z TN07/1406Z"
    },
    {
      "icao": "LEZL",
      "alert": "OK",
      "vis_m": 9999,
      "fzfg": false,
      "metar_trigger": false,
      "taf_trigger": false,
      "metar": "METAR LEZL 140630Z 20004KT 170V230 9999 FEW030 13/10 Q1016 NOSIG",
      "taf": "TAF LEZL 140200Z 1403/1503 VRB03KT 9999 FEW030 TX21/1415Z TN10/1407Z"
    },
    {
      "icao": "LFBD",
      "alert": "OK",
      "vis_m": 9999,
      "fzfg": false,
      "metar_trigger": false,
      "taf_trigger": false,
      "metar": "METAR LFBD 140630Z AUTO 28004KT 9999 FEW041/// BKN094/// OVC110/// ///TCU 06/05 Q1009 TEMPO 3000 SHRA BKN010",
      "taf": "TAF LFBD 140500Z 1406/1512 27008KT 9999 BKN030 TX12/1413Z TN03/1505Z"
    },
    {
      "icao": "LFLL",
      "alert": "OK",
      "vis_m": 6000,
      "fzfg": false,
      "metar_trigger": false,
      "taf_trigger": false,
      "metar": "METAR LFLL 140630Z 02006KT 6000 -RA BKN013 BKN020 05/03 Q1005 TEMPO 2500 RA",
      "taf": "TAF LFLL 140500Z 1406/1512 34010KT 9999 FEW010 OVC025"
    },
    {
      "icao": "LFLS",
      "alert": "OK",
      "vis_m": 9999,
      "fzfg": false,
      "metar_trigger": false,
      "taf_trigger": false,
      "metar": "METAR LFLS 140630Z AUTO 35016KT 9999 -RA FEW014/// BKN022/// BKN030/// ///TCU 03/02 Q1004 TEMPO 09007G30KT 2000 SNRA BKN004",
      "taf": ""
    },
    {
      "icao": "LFMN",
      "alert": "OK",
      "vis_m": 4000,
      "fzfg": false,
      "metar_trigger": false,
      "taf_trigger": false,
      "metar": "METAR LFMN 140630Z 34009KT 4000 -RA SCT016 BKN030 09/07 Q1005 NOSIG",
      "taf": ""
    },
    {
      "icao": "LFOB",
      "alert": "OK",
      "vis_m": 9999,
      "fzfg": false,
      "metar_trigger": false,
      "taf_trigger": false,
      "metar": "METAR LFOB 140630Z AUTO 26007KT 9999 FEW009 BKN150 02/02 Q1003 TEMPO 4000 SHRA SCT009 BKN013 SCT025TCU",
      "taf": "TAF LFOB 140500Z 1406/1506 26009KT 9999 BKN025 OVC040"
    },
    {
      "icao": "LFPO",
      "alert": "OK",
      "vis_m": 9999,
      "fzfg": false,
      "metar_trigger": false,
      "taf_trigger": false,
      "metar": "METAR LFPO 140630Z 27011KT 9999 BKN011 03/02 Q1004 NOSIG",
      "taf": "TAF LFPO 140500Z 1406/1512 25008KT 9999 BKN020 BKN040"
    },
    {
      "icao": "LFSB",
      "alert": "OK",
      "vis_m": 9999,
      "fzfg": false,
      "metar_trigger": false,
      "taf_trigger": false,
      "metar": "METAR LFSB 140630Z AUTO 27011KT 9999 -RA BKN018/// BKN023/// BKN029/// ///TCU 05/03 Q1002 TEMPO BKN010 FEW015TCU",
      "taf": "TAF LFSB 140500Z 1406/1506 26012KT 9999 SCT030 BKN050"
    },
    {
      "icao": "LGAV",
      "alert": "OK",
      "vis_m": 9999,
      "fzfg": false,
      "metar_trigger": false,
      "taf_trigger": false,
      "metar": "METAR LGAV 140620Z 01009KT 330V040 9999 FEW025 12/04 Q1012 NOSIG",
      "taf": "TAF LGAV 140500Z 1406/1506 35010KT 9999 FEW025"
    },
    {
      "icao": "LGTS",
      "alert": "OK",
      "vis_m": 8000,
      "fzfg": false,
      "metar_trigger": false,
      "taf_trigger": false,
      "metar": "METAR LGTS 140620Z 10004KT 8000 4000W BR SCT005 SCT012 06/05 Q1015 NOSIG",
      "taf": "TAF LGTS 140500Z 1406/1506 VRB03KT 9999 FEW030"
    },
    {
      "icao": "LHBP",
      "alert": "OK",
      "vis_m": 9999,
      "fzfg": false,
      "metar_trigger": false,
      "taf_trigger": false,
      "metar": "METAR LHBP 140630Z 11007KT CAVOK 07/01 Q1010 NOSIG",
      "taf": "TAF LHBP 140515Z 1406/1506 12008KT CAVOK"
    },
    {
      "icao": "LHDC",
      "alert": "OK",
      "vis_m": 9000,
      "fzfg": false,
      "metar_trigger": false,
      "taf_trigger": false,
      "metar": "METAR LHDC 140615Z AUTO 07004KT 9000 NCD 04/02 Q1013 NOSIG",
      "taf": "TAF LHDC 140515Z 1406/1415 08005KT CAVOK"
    },
    {
      "icao": "LIBD",
      "alert": "OK",
      "vis_m": 9999,
      "fzfg": false,
      "metar_trigger": false,
      "taf_trigger": false,
      "metar": "METAR LIBD 140620Z 20007KT CAVOK 08/08 Q1011",
      "taf": "TAF LIBD 140500Z 1406/1506 VRB05KT 9999 FEW020"
    },
    {
      "icao": "LIBG",
      "alert": "OK",
      "vis_m": null,
      "fzfg": false,
      "metar_trigger": false,
      "taf_trigger": false,
      "metar": "",
      "taf": ""
    },
    {
      "icao": "LIBP",
      "alert": "OK",
      "vis_m": 7000,
      "fzfg": false,
      "metar_trigger": false,
      "taf_trigger": false,
      "metar": "METAR LIBP 140620Z AUTO 23003KT 7000 NCD 06/06 Q1010",
      "taf": "TAF LIBP 140500Z 1406/1506 VRB05KT 0600 FG NSC"
    },
    {
      "icao": "LIBR",
      "alert": "OK",
      "vis_m": 7000,
      "fzfg": false,
      "metar_trigger": false,
      "taf_trigger": false,
      "metar": "METAR LIBR 140620Z 25005KT 7000 2000 BCFG NSC 08/08 Q1012",
      "taf": "TAF LIBR 140500Z 1406/1506 VRB05KT 3000 BR SCT020"
    },
    {
      "icao": "LICA",
      "alert": "OK",
      "vis_m": 9999,
      "fzfg": false,
      "metar_trigger": false,
      "taf_trigger": false,
      "metar": "METAR LICA 140620Z AUTO 05008KT 9999 NCD 12/09 Q1012",
      "taf": "TAF LICA 140500Z 1406/1506 07006KT 9999 FEW040"
    },
    {
      "icao": "LICC",
      "alert": "OK",
      "vis_m": 9999,
      "fzfg": false,
      "metar_trigger": false,
      "taf_trigger": false,
      "metar": "METAR LICC 140620Z 24006KT CAVOK 09/06 Q1011",
      "taf": "TAF LICC 140500Z 1406/1506 26008KT 9999 SCT030"
    },
    {
      "icao": "LICJ",
      "alert": "OK",
      "vis_m": 9999,
      "fzfg": false,
      "metar_trigger": false,
      "taf_trigger": false,
      "metar": "METAR LICJ 140620Z 19005KT CAVOK 10/06 Q1011",
      "taf": "TAF LICJ 140500Z 1406/1506 18010KT 9999 FEW040"
    },
    {
      "icao": "LIMC",
      "alert": "OK",
      "vis_m": 9999,
      "fzfg": false,
      "metar_trigger": false,
      "taf_trigger": false,
      "metar": "METAR LIMC 140620Z 13008KT 9999 BKN035 11/08 Q1005 NOSIG",
      "taf": "TAF LIMC 140500Z 1406/1512 VRB04KT 7000 SCT030"
    },
    {
      "icao": "LIME",
      "alert": "OK",
      "vis_m": 9999,
      "fzfg": false,
      "metar_trigger": false,
      "taf_trigger": false,
      "metar": "METAR LIME 140620Z 10007KT 9999 SCT045 BKN070 11/07 Q1006 NOSIG",
      "taf": "TAF LIME 140500Z 1406/1506 VRB04KT 8000 SCT030"
    },
    {
      "icao": "LIMF",
      "alert": "OK",
      "vis_m": 9999,
      "fzfg": false,
      "metar_trigger": false,
      "taf_trigger": false,
      "metar": "METAR LIMF 140620Z 36004KT 9999 SCT030 BKN050 09/06 Q1004",
      "taf": "TAF LIMF 140500Z 1406/1506 VRB06KT 7000 BKN035"
    },
    {
      "icao": "LIMJ",
      "alert": "OK",
      "vis_m": 9999,
      "fzfg": false,
      "metar_trigger": false,
      "taf_trigger": false,
      "metar": "METAR LIMJ 140620Z 17013KT 9999 BKN016 BKN040 14/11 Q1006",
      "taf": "TAF LIMJ 140500Z 1406/1506 17012KT 9999 BKN010"
    },
    {
      "icao": "LIPE",
      "alert": "OK",
      "vis_m": 9999,
      "fzfg": false,
      "metar_trigger": false,
      "taf_trigger": false,
      "metar": "METAR LIPE 140620Z 19007KT CAVOK 12/05 Q1007",
      "taf": "TAF LIPE 140500Z 1406/1506 VRB05KT CAVOK"
    },
    {
      "icao": "LIPH",
      "alert": "OK",
      "vis_m": 1500,
      "fzfg": false,
      "metar_trigger": false,
      "taf_trigger": false,
      "metar": "METAR LIPH 140620Z 05005KT 1500 BR SCT002 BKN015 09/09 Q1007",
      "taf": "TAF LIPH 140500Z 1406/1506 VRB05KT 2000 -RA BR BKN006"
    },
    {
      "icao": "LIPQ",
      "alert": "OK",
      "vis_m": 9999,
      "fzfg": false,
      "metar_trigger": false,
      "taf_trigger": false,
      "metar": "METAR LIPQ 140620Z AUTO VRB02KT 9999 FEW037/// BKN054/// 07/06 Q1008",
      "taf": "TAF LIPQ 140500Z 1406/1506 VRB05KT 9999 SCT030"
    },
    {
      "icao": "LIPR",
      "alert": "OK",
      "vis_m": 9999,
      "fzfg": false,
      "metar_trigger": false,
      "taf_trigger": false,
      "metar": "METAR LIPR 140620Z 18006KT CAVOK 11/08 Q1008",
      "taf": "TAF LIPR 140500Z 1406/1506 16010KT CAVOK"
    },
    {
      "icao": "LIPX",
      "alert": "OK",
      "vis_m": 6000,
      "fzfg": false,
      "metar_trigger": false,
      "taf_trigger": false,
      "metar": "METAR LIPX 140620Z VRB01KT 6000 NSC 08/07 Q1007",
      "taf": "TAF LIPX 140500Z 1406/1506 VRB04KT 2000 BR BKN007"
    },
    {
      "icao": "LIPY",
      "alert": "OK",
      "vis_m": 9999,
      "fzfg": false,
      "metar_trigger": false,
      "taf_trigger": false,
      "metar": "METAR LIPY 140620Z AUTO VRB02KT 9999 OVC070/// 08/08 Q1009",
      "taf": "TAF LIPY 140500Z 1406/1506 VRB05KT CAVOK"
    },
    {
      "icao": "LIPZ",
      "alert": "OK",
      "vis_m": 1500,
      "fzfg": false,
      "metar_trigger": false,
      "taf_trigger": false,
      "metar": "METAR LIPZ 140620Z 04005KT 1500 BR VCFG FEW002 BKN010 10/10 Q1007 BECMG 3000 BR",
      "taf": "TAF LIPZ 140500Z 1406/1512 VRB05KT 2000 -RA BR BKN010"
    },
    {
      "icao": "LIRF",
      "alert": "OK",
      "vis_m": 9999,
      "fzfg": false,
      "metar_trigger": false,
      "taf_trigger": false,
      "metar": "METAR LIRF 140620Z 08004KT 9999 4500N -SHRA SCT020TCU BKN040 08/08 Q1010 TEMPO SHRA",
      "taf": "TAF LIRF 140500Z 1406/1512 08006KT 9999 FEW040"
    },
    {
      "icao": "LIRN",
      "alert": "OK",
      "vis_m": 9999,
      "fzfg": false,
      "metar_trigger": false,
      "taf_trigger": false,
      "metar": "METAR LIRN 140620Z 03004KT 330V050 CAVOK 10/07 Q1011 NOSIG",
      "taf": "TAF LIRN 140500Z 1406/1506 VRB05KT 9999 FEW040"
    },
    {
      "icao": "LIRP",
      "alert": "OK",
      "vis_m": 9999,
      "fzfg": false,
      "metar_trigger": false,
      "taf_trigger": false,
      "metar": "METAR LIRP 140615Z 12007KT 9999 BKN050 09/09 Q1008 NOSIG",
      "taf": "TAF LIRP 140500Z 1406/1506 10012KT 9999 SCT025 SCT080"
    },
    {
      "icao": "LIRZ",
      "alert": "OK",
      "vis_m": 9999,
      "fzfg": false,
      "metar_trigger": false,
      "taf_trigger": false,
      "metar": "METAR LIRZ 140620Z AUTO VRB01KT 9999 BKN062/// 06/06 Q1010",
      "taf": "TAF LIRZ 140500Z 1406/1506 VRB05KT CAVOK"
    },
    {
      "icao": "LJLJ",
      "alert": "OK",
      "vis_m": 9999,
      "fzfg": false,
      "metar_trigger": false,
      "taf_trigger": false,
      "metar": "METAR LJLJ 140630Z 17001KT 9999 FEW001 BKN040 03/02 Q1007 NOSIG",
      "taf": "TAF LJLJ 140500Z 1406/1506 VRB02KT 9999 SCT050"
    },
    {
      "icao": "LKMT",
      "alert": "OK",
      "vis_m": 9999,
      "fzfg": false,
      "metar_trigger": false,
      "taf_trigger": false,
      "metar": "METAR LKMT 140630Z 20007KT 150V220 CAVOK 12/03 Q1005 NOSIG",
      "taf": "TAF LKMT 140500Z 1406/1506 20014KT CAVOK"
    },
    {
      "icao": "LKPR",
      "alert": "OK",
      "vis_m": 9999,
      "fzfg": false,
      "metar_trigger": false,
      "taf_trigger": false,
      "metar": "METAR LKPR 140630Z 08005KT CAVOK 07/03 Q1000 NOSIG",
      "taf": "TAF LKPR 140500Z 1406/1512 13010KT CAVOK"
    },
    {
      "icao": "LLBG",
      "alert": "OK",
      "vis_m": 9999,
      "fzfg": false,
      "metar_trigger": false,
      "taf_trigger": false,
      "metar": "METAR LLBG 140620Z 15018KT CAVOK 24/08 Q1003 BECMG 18020G30KT RMK BKN100",
      "taf": "TAF LLBG 140508Z 1406/1506 20008KT 6000 NSC TX28/1412Z TN15/1504Z"
    },
    {
      "icao": "LMML",
      "alert": "OK",
      "vis_m": 9999,
      "fzfg": false,
      "metar_trigger": false,
      "taf_trigger": false,
      "metar": "METAR LMML 140615Z 26008KT 220V300 9999 -RA FEW011 FEW018TCU SCT037 11/09 Q1012 TEMPO 7000 SHRA",
      "taf": "TAF LMML 140500Z 1406/1506 26010KT 9999 SCT017"
    },
    {
      "icao": "LOWW",
      "alert": "OK",
      "vis_m": 9999,
      "fzfg": false,
      "metar_trigger": false,
      "taf_trigger": false,
      "metar": "METAR LOWW 140620Z 15018KT CAVOK 08/04 Q1004 NOSIG",
      "taf": "TAF LOWW 140515Z 1406/1512 15015G25KT CAVOK TX18/1414Z TN06/1505Z"
    },
    {
      "icao": "LPFR",
      "alert": "OK",
      "vis_m": 9999,
      "fzfg": false,
      "metar_trigger": false,
      "taf_trigger": false,
      "metar": "METAR LPFR 140630Z 30009KT 9999 SCT020 BKN026 14/11 Q1018",
      "taf": "TAF LPFR 140500Z 1406/1506 30008KT 9999 SCT015"
    },
    {
      "icao": "LPMA",
      "alert": "OK",
      "vis_m": 9999,
      "fzfg": false,
      "metar_trigger": false,
      "taf_trigger": false,
      "metar": "METAR LPMA 140630Z 36010KT 310V030 9999 BKN015 15/10 Q1024",
      "taf": "TAF LPMA 140500Z 1406/1506 02012KT 9999 BKN015"
    },
    {
      "icao": "LPPR",
      "alert": "OK",
      "vis_m": 9999,
      "fzfg": false,
      "metar_trigger": false,
      "taf_trigger": false,
      "metar": "METAR LPPR 140630Z 33005KT 290V360 9999 FEW006 BKN012 BKN025 11/10 Q1017",
      "taf": "TAF LPPR 140500Z 1406/1506 31007KT 9999 BKN020"
    },
    {
      "icao": "LPPS",
      "alert": "OK",
      "vis_m": 9999,
      "fzfg": false,
      "metar_trigger": false,
      "taf_trigger": false,
      "metar": "METAR LPPS 140630Z 02007KT 340V040 9999 FEW014 13/13 Q1024",
      "taf": "TAF LPPS 140500Z 1406/1512 03012KT 9999 SCT015 BKN030"
    },
    {
      "icao": "LPPT",
      "alert": "OK",
      "vis_m": 9999,
      "fzfg": false,
      "metar_trigger": false,
      "taf_trigger": false,
      "metar": "METAR LPPT 140630Z 32004KT 270V020 9999 BKN015 12/10 Q1019",
      "taf": "TAF LPPT 140500Z 1406/1512 29007KT 9999 BKN020"
    },
    {
      "icao": "LQBK",
      "alert": "OK",
      "vis_m": 9999,
      "fzfg": false,
      "metar_trigger": false,
      "taf_trigger": false,
      "metar": "METAR LQBK 140630Z 14008KT CAVOK 06/03 Q1009 NOSIG",
      "taf": "TAF LQBK 140500Z 1406/1506 16006KT CAVOK TX20/1413Z TN03/1505Z"
    },
    {
      "icao": "LQSA",
      "alert": "OK",
      "vis_m": 9999,
      "fzfg": false,
      "metar_trigger": false,
      "taf_trigger": false,
      "metar": "METAR LQSA 140630Z 00000KT CAVOK 03/01 Q1011 NOSIG",
      "taf": "TAF LQSA 140500Z 1406/1506 VRB02KT CAVOK TX17/1414Z TN00/1505Z"
    },
    {
      "icao": "LQTZ",
      "alert": "OK",
      "vis_m": 6000,
      "fzfg": false,
      "metar_trigger": false,
      "taf_trigger": false,
      "metar": "METAR LQTZ 140630Z 00000KT 6000 NSC 03/02 Q1010",
      "taf": "TAF LQTZ 140500Z 1406/1506 VRB02KT CAVOK TX19/1413Z TN02/1505Z"
    },
    {
      "icao": "LRBC",
      "alert": "OK",
      "vis_m": 9999,
      "fzfg": false,
      "metar_trigger": false,
      "taf_trigger": false,
      "metar": "METAR LRBC 140630Z VRB02KT CAVOK 03/M01 Q1018",
      "taf": "TAF LRBC 140500Z 1406/1415 VRB04KT CAVOK"
    },
    {
      "icao": "LRBS",
      "alert": "OK",
      "vis_m": 9999,
      "fzfg": false,
      "metar_trigger": false,
      "taf_trigger": false,
      "metar": "METAR LRBS 140630Z 07008KT 9999 BKN008 05/04 Q1017 BECMG SCT020",
      "taf": "TAF LRBS 140500Z 1406/1506 07008KT 5000 BR OVC005"
    },
    {
      "icao": "LRBV",
      "alert": "OK",
      "vis_m": 9999,
      "fzfg": false,
      "metar_trigger": false,
      "taf_trigger": false,
      "metar": "METAR LRBV 140630Z 12003KT 080V150 CAVOK 02/M04 Q1015",
      "taf": "TAF LRBV 140500Z 1406/1415 VRB04KT CAVOK"
    },
    {
      "icao": "LRCL",
      "alert": "OK",
      "vis_m": 9999,
      "fzfg": false,
      "metar_trigger": false,
      "taf_trigger": false,
      "metar": "METAR LRCL 140630Z 00000KT CAVOK 02/M03 Q1014",
      "taf": "TAF LRCL 140500Z 1406/1415 VRB04KT CAVOK"
    },
    {
      "icao": "LRCV",
      "alert": "OK",
      "vis_m": 9999,
      "fzfg": false,
      "metar_trigger": false,
      "taf_trigger": false,
      "metar": "METAR LRCV 140630Z 06011KT CAVOK 05/03 Q1016",
      "taf": "TAF LRCV 140500Z 1406/1415 07009KT CAVOK"
    },
    {
      "icao": "LRIA",
      "alert": "OK",
      "vis_m": 9999,
      "fzfg": false,
      "metar_trigger": false,
      "taf_trigger": false,
      "metar": "METAR LRIA 140630Z 11012KT CAVOK 03/M00 Q1019",
      "taf": "TAF LRIA 140500Z 1406/1415 12012KT CAVOK"
    },
    {
      "icao": "LROP",
      "alert": "OK",
      "vis_m": 9000,
      "fzfg": false,
      "metar_trigger": false,
      "taf_trigger": false,
      "metar": "METAR LROP 140630Z 08009KT 9000 BKN007 05/03 Q1017 BECMG SCT020",
      "taf": "TAF LROP 140500Z 1406/1506 07008KT 5000 BR OVC005"
    },
    {
      "icao": "LRSB",
      "alert": "OK",
      "vis_m": 9999,
      "fzfg": false,
      "metar_trigger": false,
      "taf_trigger": false,
      "metar": "METAR LRSB 140630Z VRB02KT CAVOK 06/M02 Q1013",
      "taf": "TAF LRSB 140500Z 1406/1506 VRB04KT CAVOK"
    },
    {
      "icao": "LRSM",
      "alert": "OK",
      "vis_m": 9999,
      "fzfg": false,
      "metar_trigger": false,
      "taf_trigger": false,
      "metar": "METAR LRSM 140630Z AUTO VRB01KT 9999 NCD 09/02 Q1014",
      "taf": ""
    },
    {
      "icao": "LRSV",
      "alert": "OK",
      "vis_m": 9999,
      "fzfg": false,
      "metar_trigger": false,
      "taf_trigger": false,
      "metar": "METAR LRSV 140630Z 12009KT CAVOK 05/M02 Q1016",
      "taf": "TAF LRSV 140500Z 1406/1415 14015KT CAVOK"
    },
    {
      "icao": "LRTM",
      "alert": "OK",
      "vis_m": 9999,
      "fzfg": false,
      "metar_trigger": false,
      "taf_trigger": false,
      "metar": "METAR LRTM 140630Z 10005KT CAVOK 02/M03 Q1015",
      "taf": "TAF LRTM 140500Z 1406/1415 VRB04KT CAVOK"
    },
    {
      "icao": "LRTR",
      "alert": "OK",
      "vis_m": 9999,
      "fzfg": false,
      "metar_trigger": false,
      "taf_trigger": false,
      "metar": "METAR LRTR 140630Z 09009KT CAVOK 07/00 Q1012",
      "taf": "TAF LRTR 140500Z 1406/1506 09008KT CAVOK"
    },
    {
      "icao": "LTAC",
      "alert": "OK",
      "vis_m": 9999,
      "fzfg": false,
      "metar_trigger": false,
      "taf_trigger": false,
      "metar": "METAR LTAC 140620Z VRB02KT CAVOK 04/M06 Q1013 NOSIG RMK RWY21C VRB01KT RWY03L VRB01KT RWY21R 00000KT RWY03R 00000KT RWY21L VRB01KT",
      "taf": "TAF LTAC 140440Z 1406/1506 VRB02KT CAVOK"
    },
    {
      "icao": "LTFM",
      "alert": "OK",
      "vis_m": 9999,
      "fzfg": false,
      "metar_trigger": false,
      "taf_trigger": false,
      "metar": "METAR LTFM 140620Z 04011KT 9999 BKN022 08/02 Q1015 NOSIG RMK RWY17L 04010KT RWY34L 03010KT RWY16R 04010KT RWY36 04012KT RWY18 05011KT",
      "taf": "TAF LTFM 140440Z 1406/1512 04013KT 9999 BKN022"
    },
    {
      "icao": "LUKK",
      "alert": "OK",
      "vis_m": 9999,
      "fzfg": false,
      "metar_trigger": false,
      "taf_trigger": false,
      "metar": "METAR LUKK 140630Z 09006KT 9999 OVC010 01/M02 Q1020 NOSIG",
      "taf": "TAF LUKK 140515Z 1406/1506 11010KT 9999 BKN008"
    },
    {
      "icao": "LWOH",
      "alert": "OK",
      "vis_m": 9999,
      "fzfg": false,
      "metar_trigger": false,
      "taf_trigger": false,
      "metar": "METAR LWOH 140620Z 32003KT 290V360 CAVOK 03/00 Q1013",
      "taf": "TAF LWOH 140550Z 1406/1506 VRB02KT CAVOK"
    },
    {
      "icao": "LWSK",
      "alert": "OK",
      "vis_m": 9999,
      "fzfg": false,
      "metar_trigger": false,
      "taf_trigger": false,
      "metar": "METAR LWSK 140620Z VRB02KT CAVOK 04/01 Q1014 NOSIG",
      "taf": "TAF LWSK 140550Z 1406/1506 VRB02KT CAVOK"
    },
    {
      "icao": "LYBE",
      "alert": "OK",
      "vis_m": 9999,
      "fzfg": false,
      "metar_trigger": false,
      "taf_trigger": false,
      "metar": "METAR LYBE 140630Z 14014KT CAVOK 10/00 Q1011 NOSIG",
      "taf": "TAF LYBE 140500Z 1406/1506 13015KT CAVOK TX20/1413Z TN08/1505Z"
    },
    {
      "icao": "LYNI",
      "alert": "OK",
      "vis_m": 9999,
      "fzfg": false,
      "metar_trigger": false,
      "taf_trigger": false,
      "metar": "METAR LYNI 140630Z 19004KT 150V220 CAVOK 04/01 Q1014 NOSIG",
      "taf": "TAF LYNI 140500Z 1406/1506 12006KT CAVOK TX20/1414Z TN03/1505Z"
    },
    {
      "icao": "LYPG",
      "alert": "OK",
      "vis_m": 9999,
      "fzfg": false,
      "metar_trigger": false,
      "taf_trigger": false,
      "metar": "METAR LYPG 140630Z 35004KT 9999 FEW016 09/04 Q1012 NOSIG",
      "taf": "TAF LYPG 140500Z 1406/1506 16008KT CAVOK TX19/1413Z TN06/1505Z"
    },
    {
      "icao": "LZIB",
      "alert": "OK",
      "vis_m": 9999,
      "fzfg": false,
      "metar_trigger": false,
      "taf_trigger": false,
      "metar": "METAR LZIB 140630Z 04006KT CAVOK 06/02 Q1007 NOSIG",
      "taf": "TAF LZIB 140515Z 1406/1506 14005KT CAVOK"
    },
    {
      "icao": "LZKZ",
      "alert": "OK",
      "vis_m": 9999,
      "fzfg": false,
      "metar_trigger": false,
      "taf_trigger": false,
      "metar": "METAR LZKZ 140630Z VRB02KT CAVOK 04/01 Q1012 NOSIG",
      "taf": "TAF LZKZ 140515Z 1406/1506 VRB02KT CAVOK"
    },
    {
      "icao": "LZTT",
      "alert": "OK",
      "vis_m": 9999,
      "fzfg": false,
      "metar_trigger": false,
      "taf_trigger": false,
      "metar": "METAR LZTT 140630Z 26010KT 9999 FEW056 06/M04 Q1010 NOSIG",
      "taf": "TAF LZTT 140515Z 1406/1506 23005KT 9999 FEW050"
    },
    {
      "icao": "OEJN",
      "alert": "OK",
      "vis_m": 4000,
      "fzfg": false,
      "metar_trigger": false,
      "taf_trigger": false,
      "metar": "METAR OEJN 140600Z 12005KT 4000 HZ NSC 29/16 Q1008 NOSIG",
      "taf": "TAF OEJN 140500Z 1406/1512 20016KT 7000 NSC"
    },
    {
      "icao": "OEMA",
      "alert": "OK",
      "vis_m": 9999,
      "fzfg": false,
      "metar_trigger": false,
      "taf_trigger": false,
      "metar": "METAR OEMA 140600Z 11005KT CAVOK 23/M03 Q1015 NOSIG",
      "taf": "TAF OEMA 140500Z 1406/1512 11008KT CAVOK"
    },
    {
      "icao": "OJAI",
      "alert": "OK",
      "vis_m": 3500,
      "fzfg": false,
      "metar_trigger": false,
      "taf_trigger": false,
      "metar": "METAR OJAI 140600Z 14010KT 3500 HZ NSC 15/09 Q1010 NOSIG",
      "taf": "TAF OJAI 140439Z 1406/1512 20008KT 3500 -RA FEW035TCU BKN045 OVC080"
    },
    {
      "icao": "OMAA",
      "alert": "OK",
      "vis_m": null,
      "fzfg": false,
      "metar_trigger": false,
      "taf_trigger": false,
      "metar": "",
      "taf": ""
    },
    {
      "icao": "OMDB",
      "alert": "OK",
      "vis_m": null,
      "fzfg": false,
      "metar_trigger": false,
      "taf_trigger": false,
      "metar": "",
      "taf": ""
    },
    {
      "icao": "UAAA",
      "alert": "OK",
      "vis_m": 9999,
      "fzfg": false,
      "metar_trigger": false,
      "taf_trigger": false,
      "metar": "METAR UAAA 140630Z 35003MPS 280V050 9999 NSC 03/M04 Q1027 NOSIG",
      "taf": "TAF UAAA 140504Z 1406/1506 25002MPS 9999 SCT100 TX05/1409Z TNM06/1501Z"
    },
    {
      "icao": "UBBB",
      "alert": "OK",
      "vis_m": 9999,
      "fzfg": false,
      "metar_trigger": false,
      "taf_trigger": false,
      "metar": "METAR UBBB 140630Z 16010KT CAVOK 10/M00 Q1024 NOSIG",
      "taf": "TAF UBBB 140456Z 1406/1506 15008KT CAVOK TX13/1410Z TN04/1502Z"
    },
    {
      "icao": "UDSG",
      "alert": "OK",
      "vis_m": 6000,
      "fzfg": false,
      "metar_trigger": false,
      "taf_trigger": false,
      "metar": "METAR UDSG 140630Z 33001KT 6000 OVC033 M00/M02 Q1020 NOSIG",
      "taf": "TAF UDSG 140500Z 1406/1506 VRB06KT 5000 BR BKN030"
    },
    {
      "icao": "UDYZ",
      "alert": "OK",
      "vis_m": 9999,
      "fzfg": false,
      "metar_trigger": false,
      "taf_trigger": false,
      "metar": "METAR UDYZ 140630Z VRB02KT 9999 SCT038 06/01 Q1021 NOSIG",
      "taf": "TAF UDYZ 140500Z 1406/1506 24006KT 9999 SCT040"
    },
    {
      "icao": "UGKO",
      "alert": "OK",
      "vis_m": 9999,
      "fzfg": false,
      "metar_trigger": false,
      "taf_trigger": false,
      "metar": "METAR UGKO 140630Z 08028G39KT CAVOK 12/M00 Q1017 NOSIG",
      "taf": "TAF UGKO 140500Z 1406/1506 08025G39KT CAVOK TX17/1412Z TN10/1501Z"
    }
  ]
}