{
  "ts_utc": "2026-02-05T22:25:39Z",
  "threshold_m": 150,
  "source": "stations_override.txt (ICAO list) + aviationweather.gov (METAR/TAF raw)",
  "station_count": 159,
  "stations": [
    {
      "icao": "BIKF",
      "alert": "OK",
      "vis_m": 9999,
      "fzfg": false,
      "metar_trigger": false,
      "taf_trigger": false,
      "metar": "METAR BIKF 052200Z 02010KT CAVOK M01/M04 Q1005",
      "taf": "TAF BIKF 051952Z 0521/0621 05008KT CAVOK TX04/0617Z TNM00/0603Z"
    },
    {
      "icao": "BKPR",
      "alert": "OK",
      "vis_m": null,
      "fzfg": false,
      "metar_trigger": false,
      "taf_trigger": false,
      "metar": "",
      "taf": "TAF BKPR 051730Z 0518/0618 24007KT 9999 SCT040"
    },
    {
      "icao": "EBCI",
      "alert": "OK",
      "vis_m": 9999,
      "fzfg": false,
      "metar_trigger": false,
      "taf_trigger": false,
      "metar": "METAR EBCI 052150Z 15004KT 9999 FEW030 06/04 Q0986 NOSIG",
      "taf": "TAF EBCI 051703Z 0518/0624 13007KT 9999 SCT020 BKN035"
    },
    {
      "icao": "EDDB",
      "alert": "OK",
      "vis_m": 3000,
      "fzfg": false,
      "metar_trigger": false,
      "taf_trigger": false,
      "metar": "METAR EDDB 052220Z AUTO 09008KT 3000 -FZRA BR OVC004 M01/M02 Q0994 TEMPO 2000",
      "taf": "TAF EDDB 051700Z 0518/0618 09008KT 4000 BR BKN004"
    },
    {
      "icao": "EDDH",
      "alert": "OK",
      "vis_m": 9999,
      "fzfg": false,
      "metar_trigger": false,
      "taf_trigger": false,
      "metar": "METAR EDDH 052220Z AUTO 08007KT 9999 OVC008 OVC016 M02/M04 Q0994 NOSIG",
      "taf": "TAF EDDH 051700Z 0518/0624 08008KT 8000 OVC008"
    },
    {
      "icao": "EDDK",
      "alert": "OK",
      "vis_m": 9999,
      "fzfg": false,
      "metar_trigger": false,
      "taf_trigger": false,
      "metar": "METAR EDDK 052220Z AUTO 12007KT 9999 OVC009 02/01 Q0989 NOSIG",
      "taf": ""
    },
    {
      "icao": "EDDN",
      "alert": "OK",
      "vis_m": 9999,
      "fzfg": false,
      "metar_trigger": false,
      "taf_trigger": false,
      "metar": "METAR EDDN 052220Z AUTO 13008KT 9999 OVC009 01/M01 Q0990",
      "taf": ""
    },
    {
      "icao": "EDDS",
      "alert": "OK",
      "vis_m": 9999,
      "fzfg": false,
      "metar_trigger": false,
      "taf_trigger": false,
      "metar": "METAR EDDS 052220Z AUTO 11004KT 060V130 CAVOK M00/M02 Q0988",
      "taf": "TAF EDDS 051700Z 0518/0618 VRB03KT CAVOK"
    },
    {
      "icao": "EDFH",
      "alert": "OK",
      "vis_m": 400,
      "fzfg": true,
      "metar_trigger": false,
      "taf_trigger": false,
      "metar": "METAR EDFH 052150Z 14013KT 0400 R21/0450N FZFG VV/// 00/00 Q0987",
      "taf": "TAF EDFH 051700Z 0518/0618 14013KT 0200 FZFG VV000"
    },
    {
      "icao": "EDJA",
      "alert": "OK",
      "vis_m": 5000,
      "fzfg": false,
      "metar_trigger": false,
      "taf_trigger": false,
      "metar": "METAR EDJA 052150Z 04009KT 5000 NSC M00/M01 Q0987",
      "taf": "TAF EDJA 051700Z 0518/0603 06006KT CAVOK"
    },
    {
      "icao": "EDLW",
      "alert": "OK",
      "vis_m": 8000,
      "fzfg": false,
      "metar_trigger": false,
      "taf_trigger": false,
      "metar": "METAR EDLW 052150Z 03004KT 8000 NSC 01/00 Q0988",
      "taf": "TAF EDLW 051700Z 0518/0618 09007KT CAVOK"
    },
    {
      "icao": "EDNY",
      "alert": "OK",
      "vis_m": 9999,
      "fzfg": false,
      "metar_trigger": false,
      "taf_trigger": false,
      "metar": "METAR EDNY 052150Z AUTO 04005KT 010V070 9999 // BKN210/// 01/M00 Q0987",
      "taf": ""
    },
    {
      "icao": "EDSB",
      "alert": "OK",
      "vis_m": 7000,
      "fzfg": false,
      "metar_trigger": false,
      "taf_trigger": false,
      "metar": "METAR EDSB 052150Z 02005KT 7000 NSC 02/00 Q0988",
      "taf": "TAF EDSB 051700Z 0518/0618 02004KT CAVOK"
    },
    {
      "icao": "EETN",
      "alert": "OK",
      "vis_m": 9999,
      "fzfg": false,
      "metar_trigger": false,
      "taf_trigger": false,
      "metar": "METAR EETN 052220Z 07008KT CAVOK M16/M18 Q1015",
      "taf": "TAF EETN 051730Z 0518/0618 08010KT CAVOK"
    },
    {
      "icao": "EFTU",
      "alert": "OK",
      "vis_m": 9999,
      "fzfg": false,
      "metar_trigger": false,
      "taf_trigger": false,
      "metar": "METAR EFTU 052220Z AUTO 07007KT CAVOK M18/M19 Q1017",
      "taf": "TAF EFTU 052027Z 0521/0621 07008KT CAVOK"
    },
    {
      "icao": "EGBB",
      "alert": "OK",
      "vis_m": 6000,
      "fzfg": false,
      "metar_trigger": false,
      "taf_trigger": false,
      "metar": "METAR EGBB 052220Z 08009KT 6000 -RA OVC005 04/04 Q0983",
      "taf": "TAF EGBB 051658Z 0518/0618 09012KT 9999 -RA SCT006 BKN012"
    },
    {
      "icao": "EGGP",
      "alert": "OK",
      "vis_m": 9999,
      "fzfg": false,
      "metar_trigger": false,
      "taf_trigger": false,
      "metar": "METAR EGGP 052220Z 07015KT 9999 -RA OVC017 03/00 Q0984",
      "taf": "TAF EGGP 051703Z 0518/0618 09020G30KT 9999 BKN020"
    },
    {
      "icao": "EGGW",
      "alert": "OK",
      "vis_m": 3500,
      "fzfg": false,
      "metar_trigger": false,
      "taf_trigger": false,
      "metar": "METAR EGGW 052220Z AUTO 11008KT 3500 -RADZ OVC002 07/07 Q0982",
      "taf": "TAF EGGW 051704Z 0518/0618 11010KT 6000 -RA SCT003 BKN006"
    },
    {
      "icao": "EGKK",
      "alert": "OK",
      "vis_m": 8000,
      "fzfg": false,
      "metar_trigger": false,
      "taf_trigger": false,
      "metar": "METAR EGKK 052220Z 09004KT 8000 -RA SCT008 BKN046 08/08 Q0982",
      "taf": "TAF EGKK 051703Z 0518/0624 09010KT 9999 SCT007 BKN020"
    },
    {
      "icao": "EGNM",
      "alert": "OK",
      "vis_m": 1400,
      "fzfg": false,
      "metar_trigger": false,
      "taf_trigger": false,
      "metar": "METAR EGNM 052220Z 07011KT 030V090 1400 R14/P1500N -RA BR BKN003 01/01 Q0987",
      "taf": ""
    },
    {
      "icao": "EGPD",
      "alert": "OK",
      "vis_m": 9999,
      "fzfg": false,
      "metar_trigger": false,
      "taf_trigger": false,
      "metar": "METAR EGPD 052220Z COR AUTO 10012KT 9999 SCT018 BKN024 OVC043 03/01 Q0997 RERA TEMPO RA BKN012",
      "taf": "TAF EGPD 051656Z 0518/0618 09015KT 9999 BKN016"
    },
    {
      "icao": "EGPF",
      "alert": "OK",
      "vis_m": 9999,
      "fzfg": false,
      "metar_trigger": false,
      "taf_trigger": false,
      "metar": "METAR EGPF 052220Z AUTO 07015G27KT 9999 BKN017 OVC045 04/01 Q0992",
      "taf": "TAF EGPF 051658Z 0518/0618 08018G30KT 9999 SCT020"
    },
    {
      "icao": "EHBK",
      "alert": "OK",
      "vis_m": 7000,
      "fzfg": false,
      "metar_trigger": false,
      "taf_trigger": false,
      "metar": "METAR EHBK 052155Z AUTO 08006KT 7000 SCT041 04/03 Q0987 NOSIG",
      "taf": "TAF EHBK 051720Z 0518/0624 10008KT 9999 OVC040"
    },
    {
      "icao": "EHEH",
      "alert": "OK",
      "vis_m": null,
      "fzfg": false,
      "metar_trigger": false,
      "taf_trigger": false,
      "metar": "",
      "taf": "TAF EHEH 051748Z 0518/0624 09007KT 9999 BKN025"
    },
    {
      "icao": "EKBI",
      "alert": "OK",
      "vis_m": 9999,
      "fzfg": false,
      "metar_trigger": false,
      "taf_trigger": false,
      "metar": "METAR EKBI 052221Z 07019G32KT 9999 -SN DRSN BKN010 M02/M03 Q0998",
      "taf": ""
    },
    {
      "icao": "EKCH",
      "alert": "OK",
      "vis_m": 3000,
      "fzfg": false,
      "metar_trigger": false,
      "taf_trigger": false,
      "metar": "METAR EKCH 052220Z 08017KT 3000 -SN DRSN FEW008 BKN010 M01/M01 Q0999 TEMPO 07015G25KT 2500 SN BKN008",
      "taf": "TAF EKCH 052027Z 0521/0621 07018G28KT 1200 SN DRSN BKN005"
    },
    {
      "icao": "ENAL",
      "alert": "OK",
      "vis_m": 9999,
      "fzfg": false,
      "metar_trigger": false,
      "taf_trigger": false,
      "metar": "METAR ENAL 052150Z AUTO VRB01KT 9999 NCD M07/M12 Q1008",
      "taf": "TAF ENAL 052000Z 0521/0606 09008KT CAVOK"
    },
    {
      "icao": "ENBR",
      "alert": "OK",
      "vis_m": 9999,
      "fzfg": false,
      "metar_trigger": false,
      "taf_trigger": false,
      "metar": "METAR ENBR 052150Z 00000KT CAVOK M04/M12 Q1006 RMK WIND 1200FT 13007KT",
      "taf": "TAF ENBR 051700Z 0518/0618 04005KT CAVOK"
    },
    {
      "icao": "ENGM",
      "alert": "OK",
      "vis_m": 9999,
      "fzfg": false,
      "metar_trigger": false,
      "taf_trigger": false,
      "metar": "METAR ENGM 052150Z 02008KT 9999 -SN OVC019 M10/M13 Q1014 NOSIG",
      "taf": "TAF ENGM 051700Z 0518/0618 02010KT 9999 -SN BKN020"
    },
    {
      "icao": "ENHD",
      "alert": "OK",
      "vis_m": 9999,
      "fzfg": false,
      "metar_trigger": false,
      "taf_trigger": false,
      "metar": "METAR ENHD 052150Z 08011KT CAVOK M01/M13 Q1005",
      "taf": "TAF ENHD 051400Z 0515/0523 06008KT CAVOK"
    },
    {
      "icao": "ENTC",
      "alert": "OK",
      "vis_m": 9999,
      "fzfg": false,
      "metar_trigger": false,
      "taf_trigger": false,
      "metar": "METAR ENTC 052150Z 23013KT 9999 BKN026 00/M02 Q1013 TEMPO 2000 SHSNRA BKN005 RMK WIND 2600FT 23012KT",
      "taf": "TAF ENTC 051700Z 0518/0618 25005KT 9999 FEW005 BKN025"
    },
    {
      "icao": "ENTO",
      "alert": "OK",
      "vis_m": 9999,
      "fzfg": false,
      "metar_trigger": false,
      "taf_trigger": false,
      "metar": "METAR ENTO 052150Z AUTO 02015KT 9999 -SN OVC017/// M08/M11 Q1012",
      "taf": "TAF ENTO 051700Z 0518/0618 03012KT 8000 -SN BKN025"
    },
    {
      "icao": "ENVA",
      "alert": "OK",
      "vis_m": 9999,
      "fzfg": false,
      "metar_trigger": false,
      "taf_trigger": false,
      "metar": "METAR ENVA 052150Z 13006KT CAVOK M11/M20 Q1014 RMK WIND 670FT 10011KT",
      "taf": "TAF ENVA 051700Z 0518/0618 11008KT CAVOK"
    },
    {
      "icao": "ENZV",
      "alert": "OK",
      "vis_m": 9999,
      "fzfg": false,
      "metar_trigger": false,
      "taf_trigger": false,
      "metar": "METAR ENZV 052150Z 36003KT CAVOK M05/M11 Q1005",
      "taf": "TAF ENZV 051700Z 0518/0618 08008KT CAVOK"
    },
    {
      "icao": "EPGD",
      "alert": "OK",
      "vis_m": 6000,
      "fzfg": false,
      "metar_trigger": false,
      "taf_trigger": false,
      "metar": "METAR EPGD 052200Z 09008KT 6000 BKN009 M04/M05 Q1001",
      "taf": ""
    },
    {
      "icao": "EPKK",
      "alert": "OK",
      "vis_m": 1900,
      "fzfg": false,
      "metar_trigger": false,
      "taf_trigger": false,
      "metar": "METAR EPKK 052200Z 06009KT 1900 BR OVC002 01/00 Q0996",
      "taf": "TAF EPKK 052030Z 0521/0621 06010KT 3500 BR OVC003"
    },
    {
      "icao": "EPKT",
      "alert": "OK",
      "vis_m": 6000,
      "fzfg": false,
      "metar_trigger": false,
      "taf_trigger": false,
      "metar": "METAR EPKT 052200Z 10007KT 6000 SCT005 BKN007 01/00 Q0995",
      "taf": ""
    },
    {
      "icao": "EPLB",
      "alert": "OK",
      "vis_m": 1800,
      "fzfg": false,
      "metar_trigger": false,
      "taf_trigger": false,
      "metar": "METAR EPLB 052200Z 11010KT 1800 -FZDZ BR OVC002 M01/M01 Q1000",
      "taf": ""
    },
    {
      "icao": "EPMO",
      "alert": "OK",
      "vis_m": 7000,
      "fzfg": false,
      "metar_trigger": false,
      "taf_trigger": false,
      "metar": "METAR EPMO 052200Z 09012KT 7000 OVC006 M01/M01 Q1000",
      "taf": ""
    },
    {
      "icao": "EPPO",
      "alert": "OK",
      "vis_m": 2500,
      "fzfg": false,
      "metar_trigger": false,
      "taf_trigger": false,
      "metar": "METAR EPPO 052200Z 09008KT 2500 BR OVC002 M01/M02 Q0997",
      "taf": "TAF EPPO 051730Z 0518/0618 09008KT 3000 BR OVC005"
    },
    {
      "icao": "EPRA",
      "alert": "OK",
      "vis_m": 2300,
      "fzfg": false,
      "metar_trigger": false,
      "taf_trigger": false,
      "metar": "METAR EPRA 052200Z 10010KT 2300 BR OVC002 00/M00 Q0999",
      "taf": "TAF EPRA 052030Z 0521/0606 11010KT 2000 BR OVC003"
    },
    {
      "icao": "EPRZ",
      "alert": "OK",
      "vis_m": 1100,
      "fzfg": false,
      "metar_trigger": false,
      "taf_trigger": false,
      "metar": "METAR EPRZ 052200Z 09011KT 1100 R27/P2000N BR OVC002 01/01 Q0998",
      "taf": "TAF EPRZ 051730Z 0518/0618 09012KT 6000 OVC003"
    },
    {
      "icao": "EPSC",
      "alert": "OK",
      "vis_m": 4000,
      "fzfg": false,
      "metar_trigger": false,
      "taf_trigger": false,
      "metar": "METAR EPSC 052200Z 10006KT 4000 BR BKN006 OVC008 M02/M03 Q0997",
      "taf": ""
    },
    {
      "icao": "EPSY",
      "alert": "OK",
      "vis_m": 7000,
      "fzfg": false,
      "metar_trigger": false,
      "taf_trigger": false,
      "metar": "METAR EPSY 052200Z 10006KT 060V150 7000 OVC005 M03/M03 Q1001",
      "taf": "TAF EPSY 052030Z 0521/0606 11008KT 8000 OVC006"
    },
    {
      "icao": "EPWA",
      "alert": "OK",
      "vis_m": 7000,
      "fzfg": false,
      "metar_trigger": false,
      "taf_trigger": false,
      "metar": "METAR EPWA 052200Z 10011KT 7000 -FZRA BKN004 M01/M01 Q1000 BECMG 4000 BR",
      "taf": "TAF EPWA 052030Z 0521/0621 10011KT 7000 OVC004"
    },
    {
      "icao": "EPWR",
      "alert": "OK",
      "vis_m": 2200,
      "fzfg": false,
      "metar_trigger": false,
      "taf_trigger": false,
      "metar": "METAR EPWR 052200Z 09003KT 2200 BR FEW006 BKN012 00/00 Q0995",
      "taf": "TAF EPWR 052030Z 0521/0621 10006KT 2500 BR BKN006"
    },
    {
      "icao": "ESGG",
      "alert": "OK",
      "vis_m": 9999,
      "fzfg": false,
      "metar_trigger": false,
      "taf_trigger": false,
      "metar": "METAR ESGG 052220Z 06017KT 9999 OVC012 M03/M06 Q1004",
      "taf": ""
    },
    {
      "icao": "ESKN",
      "alert": "OK",
      "vis_m": 9999,
      "fzfg": false,
      "metar_trigger": false,
      "taf_trigger": false,
      "metar": "METAR ESKN 052220Z AUTO 03014KT 9999 OVC023/// M04/M06 Q1011",
      "taf": "TAF ESKN 052030Z 0521/0621 04009KT 9999 OVC018"
    },
    {
      "icao": "ESMS",
      "alert": "OK",
      "vis_m": 3300,
      "fzfg": false,
      "metar_trigger": false,
      "taf_trigger": false,
      "metar": "METAR ESMS 052220Z 08021KT 3300 -SN SCT009 BKN010 OVC014 M01/M02 Q0999",
      "taf": ""
    },
    {
      "icao": "ESSA",
      "alert": "OK",
      "vis_m": 9999,
      "fzfg": false,
      "metar_trigger": false,
      "taf_trigger": false,
      "metar": "METAR ESSA 052220Z 04010KT 9999 -SN OVC009 M08/M11 Q1015 NOSIG",
      "taf": "TAF ESSA 052030Z 0521/0621 05010KT 9999 -SN OVC009"
    },
    {
      "icao": "EYKA",
      "alert": "OK",
      "vis_m": 9000,
      "fzfg": false,
      "metar_trigger": false,
      "taf_trigger": false,
      "metar": "METAR EYKA 052220Z AUTO 09007KT 9000 OVC010/// M05/M07 Q1007",
      "taf": "TAF EYKA 051711Z 0518/0618 09009KT 8000 SCT010 OVC020"
    },
    {
      "icao": "EYPA",
      "alert": "OK",
      "vis_m": 9999,
      "fzfg": false,
      "metar_trigger": false,
      "taf_trigger": false,
      "metar": "METAR EYPA 052220Z 10007KT 9999 OVC036 M06/M09 Q1006",
      "taf": "TAF EYPA 051711Z 0518/0618 10010KT 8000 OVC020"
    },
    {
      "icao": "EYVI",
      "alert": "OK",
      "vis_m": 6000,
      "fzfg": false,
      "metar_trigger": false,
      "taf_trigger": false,
      "metar": "METAR EYVI 052220Z 12008KT 6000 -SN OVC006 M06/M07 Q1007 NOSIG",
      "taf": ""
    },
    {
      "icao": "GCFV",
      "alert": "OK",
      "vis_m": 9999,
      "fzfg": false,
      "metar_trigger": false,
      "taf_trigger": false,
      "metar": "METAR GCFV 052200Z VRB02KT 9999 FEW020 BKN045 20/15 Q1017",
      "taf": "TAF GCFV 052000Z 0521/0621 17007KT 9999 BKN025 TX21/0614Z TN16/0606Z"
    },
    {
      "icao": "GCLP",
      "alert": "OK",
      "vis_m": 9999,
      "fzfg": false,
      "metar_trigger": false,
      "taf_trigger": false,
      "metar": "METAR GCLP 052200Z VRB01KT 9999 SCT030 20/15 Q1017 NOSIG",
      "taf": "TAF GCLP 052000Z 0521/0621 VRB05KT 9999 SCT025 TX21/0614Z TN16/0606Z"
    },
    {
      "icao": "GCTS",
      "alert": "OK",
      "vis_m": 9999,
      "fzfg": false,
      "metar_trigger": false,
      "taf_trigger": false,
      "metar": "METAR GCTS 052200Z 31003KT 9999 SCT035 19/12 Q1017 NOSIG",
      "taf": "TAF GCTS 052000Z 0521/0621 VRB05KT 9999 SCT025 TX24/0614Z TN16/0606Z"
    },
    {
      "icao": "GMAD",
      "alert": "OK",
      "vis_m": 9999,
      "fzfg": false,
      "metar_trigger": false,
      "taf_trigger": false,
      "metar": "METAR GMAD 052200Z 19003KT 9999 FEW023 BKN033 15/14 Q1015 NOSIG",
      "taf": "TAF GMAD 051700Z 0518/0624 22006KT 8000 BKN016"
    },
    {
      "icao": "GMMN",
      "alert": "OK",
      "vis_m": 9999,
      "fzfg": false,
      "metar_trigger": false,
      "taf_trigger": false,
      "metar": "METAR GMMN 052200Z 24013KT 9999 OVC015 15/14 Q1012 REDZ NOSIG",
      "taf": "TAF GMMN 051700Z 0518/0624 23018KT 9999 SCT008 BKN020"
    },
    {
      "icao": "GMMX",
      "alert": "OK",
      "vis_m": 7000,
      "fzfg": false,
      "metar_trigger": false,
      "taf_trigger": false,
      "metar": "METAR GMMX 052200Z 23003KT 210V270 7000 FEW016 BKN026 15/13 Q1014 TEMPO 3000 RA BKN013",
      "taf": "TAF GMMX 051700Z 0518/0624 22006KT 8000 SCT026 SCT080"
    },
    {
      "icao": "HEGN",
      "alert": "OK",
      "vis_m": 9999,
      "fzfg": false,
      "metar_trigger": false,
      "taf_trigger": false,
      "metar": "METAR HEGN 052200Z 00000KT CAVOK 17/02 Q1012 NOSIG",
      "taf": "TAF HEGN 051700Z 0518/0624 30007KT CAVOK"
    },
    {
      "icao": "HEMA",
      "alert": "OK",
      "vis_m": 9999,
      "fzfg": false,
      "metar_trigger": false,
      "taf_trigger": false,
      "metar": "METAR HEMA 052200Z 21005KT CAVOK 16/08 Q1012 NOSIG",
      "taf": "TAF HEMA 051700Z 0518/0624 28009KT CAVOK"
    },
    {
      "icao": "HESH",
      "alert": "OK",
      "vis_m": 9999,
      "fzfg": false,
      "metar_trigger": false,
      "taf_trigger": false,
      "metar": "METAR HESH 052200Z 02003KT CAVOK 19/07 Q1013 NOSIG",
      "taf": "TAF HESH 051700Z 0518/0624 28007KT CAVOK"
    },
    {
      "icao": "HESX",
      "alert": "OK",
      "vis_m": 9999,
      "fzfg": false,
      "metar_trigger": false,
      "taf_trigger": false,
      "metar": "METAR HESX 052200Z 19010KT CAVOK 18/04 Q1011 NOSIG",
      "taf": "TAF HESX 051100Z 0512/0618 20010KT 9999 SCT020"
    },
    {
      "icao": "LATI",
      "alert": "OK",
      "vis_m": 7000,
      "fzfg": false,
      "metar_trigger": false,
      "taf_trigger": false,
      "metar": "METAR LATI 052220Z 16004KT 7000 BKN047 09/06 Q1000 NOSIG",
      "taf": "TAF LATI 051700Z 0518/0618 14006KT 9999 SCT050 BKN080 TX16/0615Z TN08/0605Z"
    },
    {
      "icao": "LBPD",
      "alert": "OK",
      "vis_m": 9999,
      "fzfg": false,
      "metar_trigger": false,
      "taf_trigger": false,
      "metar": "METAR LBPD 052200Z AUTO VRB02KT 9999 SCT019/// SCT096/// BKN110/// 03/03 Q1000",
      "taf": "TAF LBPD 051700Z 0518/0618 VRB04KT 9999 BKN015 OVC025"
    },
    {
      "icao": "LBSF",
      "alert": "OK",
      "vis_m": 9000,
      "fzfg": false,
      "metar_trigger": false,
      "taf_trigger": false,
      "metar": "METAR LBSF 052200Z AUTO 00000KT 9000 OVC022/// 03/03 Q1000 TEMPO 1500 BR",
      "taf": "TAF LBSF 051700Z 0518/0618 10010KT 9999 BKN020 OVC040"
    },
    {
      "icao": "LBWN",
      "alert": "OK",
      "vis_m": 9999,
      "fzfg": false,
      "metar_trigger": false,
      "taf_trigger": false,
      "metar": "METAR LBWN 052200Z AUTO 11012KT 9999 -SHRA OVC031/// 09/09 Q1000 NOSIG",
      "taf": "TAF LBWN 051700Z 0518/0618 10010KT 6000 RA BKN020 OVC040"
    },
    {
      "icao": "LCLK",
      "alert": "OK",
      "vis_m": 9999,
      "fzfg": false,
      "metar_trigger": false,
      "taf_trigger": false,
      "metar": "METAR LCLK 052200Z 04011KT CAVOK 15/12 Q1011 NOSIG",
      "taf": "TAF LCLK 051730Z 0518/0618 35006KT 9999 FEW025"
    },
    {
      "icao": "LCPH",
      "alert": "OK",
      "vis_m": 9999,
      "fzfg": false,
      "metar_trigger": false,
      "taf_trigger": false,
      "metar": "METAR LCPH 052200Z 10011KT 090V160 9999 FEW025 17/06 Q1010 NOSIG",
      "taf": "TAF LCPH 051730Z 0518/0618 12015KT 9999 FEW020"
    },
    {
      "icao": "LEAL",
      "alert": "OK",
      "vis_m": 9999,
      "fzfg": false,
      "metar_trigger": false,
      "taf_trigger": false,
      "metar": "METAR LEAL 052200Z 25008KT CAVOK 16/07 Q1000 NOSIG",
      "taf": "TAF LEAL 051700Z 0518/0618 25020KT 9999 FEW020 TX18/0615Z TN08/0606Z"
    },
    {
      "icao": "LEBB",
      "alert": "OK",
      "vis_m": 9999,
      "fzfg": false,
      "metar_trigger": false,
      "taf_trigger": false,
      "metar": "METAR LEBB 052200Z VRB02KT CAVOK 11/08 Q0990 NOSIG",
      "taf": ""
    },
    {
      "icao": "LEBL",
      "alert": "OK",
      "vis_m": 9999,
      "fzfg": false,
      "metar_trigger": false,
      "taf_trigger": false,
      "metar": "METAR LEBL 052200Z 24005KT CAVOK 14/08 Q0991 NOSIG",
      "taf": ""
    },
    {
      "icao": "LECH",
      "alert": "OK",
      "vis_m": 9999,
      "fzfg": false,
      "metar_trigger": false,
      "taf_trigger": false,
      "metar": "METAR LECH 052200Z AUTO 25022G34KT 220V280 CAVOK 13/03 Q0994",
      "taf": ""
    },
    {
      "icao": "LEMD",
      "alert": "OK",
      "vis_m": 9999,
      "fzfg": false,
      "metar_trigger": false,
      "taf_trigger": false,
      "metar": "METAR LEMD 052200Z 23015KT 9999 SCT030 08/06 Q0998 NOSIG",
      "taf": "TAF LEMD 051700Z 0518/0624 23015KT 9999 SCT020 TX10/0615Z TN06/0607Z"
    },
    {
      "icao": "LEMG",
      "alert": "OK",
      "vis_m": 9999,
      "fzfg": false,
      "metar_trigger": false,
      "taf_trigger": false,
      "metar": "METAR LEMG 052200Z 00000KT 9999 FEW070 12/07 Q1006 NOSIG",
      "taf": ""
    },
    {
      "icao": "LEVC",
      "alert": "OK",
      "vis_m": 9999,
      "fzfg": false,
      "metar_trigger": false,
      "taf_trigger": false,
      "metar": "METAR LEVC 052200Z 26019KT 9999 -RA FEW024 15/07 Q0998 NOSIG",
      "taf": "TAF LEVC 051700Z 0518/0618 27015KT 9999 FEW035 TX20/0614Z TN11/0606Z"
    },
    {
      "icao": "LEXJ",
      "alert": "OK",
      "vis_m": 9999,
      "fzfg": false,
      "metar_trigger": false,
      "taf_trigger": false,
      "metar": "METAR LEXJ 052200Z VRB02KT 9999 FEW020 10/06 Q0989",
      "taf": ""
    },
    {
      "icao": "LEZG",
      "alert": "OK",
      "vis_m": 9999,
      "fzfg": false,
      "metar_trigger": false,
      "taf_trigger": false,
      "metar": "METAR LEZG 052200Z 25024KT 9999 FEW050 14/05 Q0994 NOSIG",
      "taf": ""
    },
    {
      "icao": "LEZL",
      "alert": "OK",
      "vis_m": 9000,
      "fzfg": false,
      "metar_trigger": false,
      "taf_trigger": false,
      "metar": "METAR LEZL 052200Z 23012KT 200V260 9000 FEW040 15/12 Q1005 NOSIG",
      "taf": "TAF LEZL 052000Z 0521/0621 23010KT 9999 FEW030 TX18/0615Z TN12/0607Z"
    },
    {
      "icao": "LFBD",
      "alert": "OK",
      "vis_m": 9999,
      "fzfg": false,
      "metar_trigger": false,
      "taf_trigger": false,
      "metar": "METAR LFBD 052200Z AUTO 25013KT 9999 BKN022/// BKN029/// BKN043/// //////TCU 12/10 Q0988 TEMPO 24015G25KT 3000 SHRA BKN025TCU SCT030CB",
      "taf": "TAF LFBD 051700Z 0518/0624 22008KT 9999 BKN040 TX15/0614Z TN08/0624Z"
    },
    {
      "icao": "LFLL",
      "alert": "OK",
      "vis_m": 5000,
      "fzfg": false,
      "metar_trigger": false,
      "taf_trigger": false,
      "metar": "METAR LFLL 052200Z 12006KT 5000 RA BR SCT018 BKN023 BKN033 08/08 Q0987 BECMG NSW",
      "taf": ""
    },
    {
      "icao": "LFLS",
      "alert": "OK",
      "vis_m": 4300,
      "fzfg": false,
      "metar_trigger": false,
      "taf_trigger": false,
      "metar": "METAR LFLS 052200Z AUTO VRB02KT 4300 -RA BR BKN006/// OVC017/// //////TCU 07/07 Q0988",
      "taf": "TAF LFLS 051400Z 0515/0615 24007KT CAVOK"
    },
    {
      "icao": "LFMN",
      "alert": "OK",
      "vis_m": 6000,
      "fzfg": false,
      "metar_trigger": false,
      "taf_trigger": false,
      "metar": "METAR LFMN 052200Z 02014KT 6000 -RA SCT010 SCT016 10/09 Q0986 TEMPO TSRA",
      "taf": ""
    },
    {
      "icao": "LFOB",
      "alert": "OK",
      "vis_m": 9999,
      "fzfg": false,
      "metar_trigger": false,
      "taf_trigger": false,
      "metar": "METAR LFOB 052200Z AUTO 11008KT 9999 -DZ SCT043 BKN049 BKN060 09/08 Q0983 TEMPO 4500 -RA BKN010 OVC050",
      "taf": "TAF LFOB 051700Z 0518/0618 12010KT 9999 BKN045"
    },
    {
      "icao": "LFPO",
      "alert": "OK",
      "vis_m": 9999,
      "fzfg": false,
      "metar_trigger": false,
      "taf_trigger": false,
      "metar": "METAR LFPO 052200Z AUTO 16004KT 9999 BKN027 BKN032 OVC045 10/08 Q0983 TEMPO SCT030TCU",
      "taf": "TAF LFPO 051700Z 0518/0624 10005KT 9999 SCT040 BKN060"
    },
    {
      "icao": "LFSB",
      "alert": "OK",
      "vis_m": 4800,
      "fzfg": false,
      "metar_trigger": false,
      "taf_trigger": false,
      "metar": "METAR LFSB 052200Z AUTO 32004KT 4800 BR BKN003 BKN100 OVC120 03/02 Q0988 NOSIG",
      "taf": "TAF LFSB 051700Z 0518/0618 35004KT CAVOK"
    },
    {
      "icao": "LGAV",
      "alert": "OK",
      "vis_m": 9999,
      "fzfg": false,
      "metar_trigger": false,
      "taf_trigger": false,
      "metar": "METAR LGAV 052220Z 23006KT 9999 FEW025 13/07 Q1001 NOSIG",
      "taf": "TAF LGAV 051700Z 0518/0618 23012KT 9999 FEW020 SCT030"
    },
    {
      "icao": "LGTS",
      "alert": "OK",
      "vis_m": 9999,
      "fzfg": false,
      "metar_trigger": false,
      "taf_trigger": false,
      "metar": "METAR LGTS 052150Z 10006KT 9999 FEW025 08/07 Q1000 NOSIG",
      "taf": "TAF LGTS 051700Z 0518/0618 VRB03KT 9999 FEW010 SCT025"
    },
    {
      "icao": "LHBP",
      "alert": "OK",
      "vis_m": 9999,
      "fzfg": false,
      "metar_trigger": false,
      "taf_trigger": false,
      "metar": "METAR LHBP 052200Z 11007KT 9999 FEW046 BKN060 06/05 Q0996 NOSIG",
      "taf": "TAF LHBP 051715Z 0518/0618 08006KT 9999 BKN025"
    },
    {
      "icao": "LHDC",
      "alert": "OK",
      "vis_m": 8000,
      "fzfg": false,
      "metar_trigger": false,
      "taf_trigger": false,
      "metar": "METAR LHDC 052145Z AUTO 00000KT 8000 NSC 05/05 Q0997",
      "taf": "TAF LHDC 051415Z 0515/0524 07005KT CAVOK"
    },
    {
      "icao": "LIBD",
      "alert": "OK",
      "vis_m": 9999,
      "fzfg": false,
      "metar_trigger": false,
      "taf_trigger": false,
      "metar": "METAR LIBD 052150Z 22005KT CAVOK 08/06 Q0999",
      "taf": "TAF LIBD 051700Z 0518/0618 VRB05KT CAVOK"
    },
    {
      "icao": "LIBG",
      "alert": "OK",
      "vis_m": null,
      "fzfg": false,
      "metar_trigger": false,
      "taf_trigger": false,
      "metar": "",
      "taf": "TAF LIBG 051700Z 0518/0603 VRB05KT 9999 SCT030"
    },
    {
      "icao": "LIBP",
      "alert": "OK",
      "vis_m": 9999,
      "fzfg": false,
      "metar_trigger": false,
      "taf_trigger": false,
      "metar": "METAR LIBP 052150Z AUTO 14010KT 9999 BKN140/// BKN230/// 12/09 Q0995",
      "taf": "TAF LIBP 051700Z 0518/0618 VRB05KT 9999 BKN030"
    },
    {
      "icao": "LIBR",
      "alert": "OK",
      "vis_m": 9999,
      "fzfg": false,
      "metar_trigger": false,
      "taf_trigger": false,
      "metar": "METAR LIBR 052150Z 23007KT 9999 SCT045 11/09 Q1000",
      "taf": "TAF LIBR 051700Z 0518/0618 20014KT CAVOK"
    },
    {
      "icao": "LICA",
      "alert": "OK",
      "vis_m": 9999,
      "fzfg": false,
      "metar_trigger": false,
      "taf_trigger": false,
      "metar": "METAR LICA 052150Z AUTO VRB01KT 9999 FEW150/// BKN200/// 10/09 Q1003",
      "taf": "TAF LICA 051700Z 0518/0618 27010KT 9999 SCT040"
    },
    {
      "icao": "LICC",
      "alert": "OK",
      "vis_m": 9999,
      "fzfg": false,
      "metar_trigger": false,
      "taf_trigger": false,
      "metar": "METAR LICC 052150Z 28006KT 9999 FEW060 12/09 Q1002",
      "taf": "TAF LICC 051700Z 0518/0618 25010KT 9999 FEW030"
    },
    {
      "icao": "LICJ",
      "alert": "OK",
      "vis_m": 9999,
      "fzfg": false,
      "metar_trigger": false,
      "taf_trigger": false,
      "metar": "METAR LICJ 052150Z 20017KT 9999 FEW030 17/12 Q1000",
      "taf": "TAF LICJ 051700Z 0518/0618 22013KT 9999 FEW030"
    },
    {
      "icao": "LIMC",
      "alert": "OK",
      "vis_m": 5000,
      "fzfg": false,
      "metar_trigger": false,
      "taf_trigger": false,
      "metar": "METAR LIMC 052150Z 02007KT 5000 RA BR BKN029 OVC039 06/06 Q0993 NOSIG",
      "taf": "TAF LIMC 051700Z 0518/0624 VRB05KT 8000 OVC040"
    },
    {
      "icao": "LIME",
      "alert": "OK",
      "vis_m": 9999,
      "fzfg": false,
      "metar_trigger": false,
      "taf_trigger": false,
      "metar": "METAR LIME 052150Z 12006KT 9999 -RA BKN040 08/05 Q0993 BECMG 4000 RA",
      "taf": "TAF LIME 051700Z 0518/0618 VRB06KT 7000 BKN045"
    },
    {
      "icao": "LIMF",
      "alert": "OK",
      "vis_m": 2500,
      "fzfg": false,
      "metar_trigger": false,
      "taf_trigger": false,
      "metar": "METAR LIMF 052150Z 02004KT 2500 RA BR SCT001 BKN004 OVC010 06/05 Q0992",
      "taf": "TAF LIMF 051700Z 0518/0618 VRB05KT 7000 BKN040"
    },
    {
      "icao": "LIMJ",
      "alert": "OK",
      "vis_m": 9000,
      "fzfg": false,
      "metar_trigger": false,
      "taf_trigger": false,
      "metar": "METAR LIMJ 052150Z AUTO 13015KT 9000 -RA OVC014/// 12/10 Q0990",
      "taf": "TAF LIMJ 051700Z 0518/0618 15022KT 7000 OVC014"
    },
    {
      "icao": "LIPE",
      "alert": "OK",
      "vis_m": 9999,
      "fzfg": false,
      "metar_trigger": false,
      "taf_trigger": false,
      "metar": "METAR LIPE 052150Z 09007KT 9999 SCT070 08/07 Q0993",
      "taf": "TAF LIPE 051700Z 0518/0618 27008KT CAVOK"
    },
    {
      "icao": "LIPH",
      "alert": "OK",
      "vis_m": 9999,
      "fzfg": false,
      "metar_trigger": false,
      "taf_trigger": false,
      "metar": "METAR LIPH 052150Z 04004KT 010V070 9999 BKN008 08/07 Q0995",
      "taf": "TAF LIPH 051700Z 0518/0618 04009KT 8000 BKN040"
    },
    {
      "icao": "LIPQ",
      "alert": "OK",
      "vis_m": 6000,
      "fzfg": false,
      "metar_trigger": false,
      "taf_trigger": false,
      "metar": "METAR LIPQ 052150Z AUTO 04004KT 6000 +DZ SCT014/// OVC024/// 07/07 Q0996",
      "taf": "TAF LIPQ 051700Z 0518/0618 VRB05KT 9999 BKN040"
    },
    {
      "icao": "LIPR",
      "alert": "OK",
      "vis_m": 9999,
      "fzfg": false,
      "metar_trigger": false,
      "taf_trigger": false,
      "metar": "METAR LIPR 052150Z VRB02KT CAVOK 11/06 Q0995",
      "taf": "TAF LIPR 051700Z 0518/0618 15010KT 9999 BKN040"
    },
    {
      "icao": "LIPX",
      "alert": "OK",
      "vis_m": 9999,
      "fzfg": false,
      "metar_trigger": false,
      "taf_trigger": false,
      "metar": "METAR LIPX 052150Z 08005KT 050V110 9999 BKN045 BKN060 09/07 Q0994",
      "taf": "TAF LIPX 051700Z 0518/0618 VRB05KT 6000 SCT030 BKN050"
    },
    {
      "icao": "LIPY",
      "alert": "OK",
      "vis_m": 9999,
      "fzfg": false,
      "metar_trigger": false,
      "taf_trigger": false,
      "metar": "METAR LIPY 052150Z AUTO 15005KT 120V180 9999 OVC160/// 11/09 Q0995",
      "taf": "TAF LIPY 051700Z 0518/0618 VRB05KT 9999 BKN020"
    },
    {
      "icao": "LIPZ",
      "alert": "OK",
      "vis_m": 9999,
      "fzfg": false,
      "metar_trigger": false,
      "taf_trigger": false,
      "metar": "METAR LIPZ 052150Z 05006KT 9999 SCT065 07/07 Q0995 NOSIG",
      "taf": "TAF LIPZ 051700Z 0518/0624 VRB05KT 9999 BKN030"
    },
    {
      "icao": "LIRF",
      "alert": "OK",
      "vis_m": 9000,
      "fzfg": false,
      "metar_trigger": false,
      "taf_trigger": false,
      "metar": "METAR LIRF 052150Z 14014KT 120V180 9000 -RA FEW015 SCT030 12/10 Q0996 RERA NOSIG",
      "taf": "TAF LIRF 051700Z 0518/0624 14015KT 9999 BKN040"
    },
    {
      "icao": "LIRN",
      "alert": "OK",
      "vis_m": 9999,
      "fzfg": false,
      "metar_trigger": false,
      "taf_trigger": false,
      "metar": "METAR LIRN 052150Z 19006KT 150V220 9999 -RA SCT035 13/10 Q0999 NOSIG",
      "taf": "TAF LIRN 051700Z 0518/0618 VRB05KT 9999 SCT020"
    },
    {
      "icao": "LIRP",
      "alert": "OK",
      "vis_m": 8000,
      "fzfg": false,
      "metar_trigger": false,
      "taf_trigger": false,
      "metar": "METAR LIRP 052145Z 12011KT 8000 RA SCT025 BKN040 11/10 Q0993 NOSIG",
      "taf": "TAF LIRP 051700Z 0518/0618 10005KT 9999 SCT025 BKN060"
    },
    {
      "icao": "LIRZ",
      "alert": "OK",
      "vis_m": 9999,
      "fzfg": false,
      "metar_trigger": false,
      "taf_trigger": false,
      "metar": "METAR LIRZ 052150Z AUTO 18004KT 100V220 9999 -RA BKN049/// 09/07 Q0995",
      "taf": "TAF LIRZ 051700Z 0518/0618 VRB05KT 9999 BKN060"
    },
    {
      "icao": "LJLJ",
      "alert": "OK",
      "vis_m": 7000,
      "fzfg": false,
      "metar_trigger": false,
      "taf_trigger": false,
      "metar": "METAR LJLJ 052200Z 25002KT 7000 FEW002 BKN030 03/03 Q0995 NOSIG",
      "taf": "TAF LJLJ 051700Z 0518/0618 VRB02KT 9999 FEW013 BKN035"
    },
    {
      "icao": "LKMT",
      "alert": "OK",
      "vis_m": 1800,
      "fzfg": false,
      "metar_trigger": false,
      "taf_trigger": false,
      "metar": "METAR LKMT 052200Z 00000KT 1800 BR OVC028 01/01 Q0995 NOSIG",
      "taf": "TAF LKMT 051700Z 0518/0618 VRB02KT 4000 BR SCT014 OVC030"
    },
    {
      "icao": "LKPR",
      "alert": "OK",
      "vis_m": 5000,
      "fzfg": false,
      "metar_trigger": false,
      "taf_trigger": false,
      "metar": "METAR LKPR 052200Z 08003KT 5000 BR FEW006 OVC012 02/02 Q0992 NOSIG",
      "taf": "TAF LKPR 052000Z 0521/0703 08004KT 3000 BR SCT003 OVC012"
    },
    {
      "icao": "LLBG",
      "alert": "OK",
      "vis_m": 9999,
      "fzfg": false,
      "metar_trigger": false,
      "taf_trigger": false,
      "metar": "METAR LLBG 052220Z 14004KT CAVOK 14/11 Q1011 NOSIG",
      "taf": "TAF LLBG 051719Z 0518/0618 VRB04KT CAVOK"
    },
    {
      "icao": "LMML",
      "alert": "OK",
      "vis_m": 9999,
      "fzfg": false,
      "metar_trigger": false,
      "taf_trigger": false,
      "metar": "METAR LMML 052215Z 21007KT CAVOK 15/13 Q1005 NOSIG",
      "taf": ""
    },
    {
      "icao": "LOWW",
      "alert": "OK",
      "vis_m": 9999,
      "fzfg": false,
      "metar_trigger": false,
      "taf_trigger": false,
      "metar": "METAR LOWW 052150Z 14010KT 9999 FEW009 BKN012 04/03 Q0994 TEMPO BKN030",
      "taf": "TAF LOWW 052015Z 0521/0703 14010KT 7000 FEW005 BKN012 TX04/0614Z TN02/0619Z"
    },
    {
      "icao": "LPFR",
      "alert": "OK",
      "vis_m": 9999,
      "fzfg": false,
      "metar_trigger": false,
      "taf_trigger": false,
      "metar": "METAR LPFR 052200Z 24013KT 9999 FEW025 15/12 Q1006",
      "taf": "TAF LPFR 051700Z 0518/0618 23017KT 9999 SCT025"
    },
    {
      "icao": "LPMA",
      "alert": "OK",
      "vis_m": 9999,
      "fzfg": false,
      "metar_trigger": false,
      "taf_trigger": false,
      "metar": "METAR LPMA 052200Z 28003KT 200V340 9999 FEW015 16/10 Q1012",
      "taf": "TAF LPMA 051700Z 0518/0618 VRB08G18KT 9999 SCT015"
    },
    {
      "icao": "LPPR",
      "alert": "OK",
      "vis_m": 9999,
      "fzfg": false,
      "metar_trigger": false,
      "taf_trigger": false,
      "metar": "METAR LPPR 052200Z 24013KT 220V280 9999 -SHRA SCT018 FEW025CB SCT030 11/08 Q0996 RESHRA",
      "taf": "TAF LPPR 051700Z 0518/0618 24012KT 9999 SCT025"
    },
    {
      "icao": "LPPS",
      "alert": "OK",
      "vis_m": 9999,
      "fzfg": false,
      "metar_trigger": false,
      "taf_trigger": false,
      "metar": "METAR LPPS 052200Z 27016KT 9999 SCT014 SCT030 17/13 Q1012",
      "taf": "TAF LPPS 051700Z 0518/0624 27015KT 9999 SCT015"
    },
    {
      "icao": "LPPT",
      "alert": "OK",
      "vis_m": 9999,
      "fzfg": false,
      "metar_trigger": false,
      "taf_trigger": false,
      "metar": "METAR LPPT 052200Z 24012KT 9999 FEW020 13/10 Q1002",
      "taf": "TAF LPPT 051700Z 0518/0624 25012KT 9999 SCT025"
    },
    {
      "icao": "LQBK",
      "alert": "OK",
      "vis_m": 6000,
      "fzfg": false,
      "metar_trigger": false,
      "taf_trigger": false,
      "metar": "METAR LQBK 052200Z VRB02KT 6000 OVC005 06/06 Q0996 NOSIG",
      "taf": ""
    },
    {
      "icao": "LQSA",
      "alert": "OK",
      "vis_m": 9999,
      "fzfg": false,
      "metar_trigger": false,
      "taf_trigger": false,
      "metar": "METAR LQSA 052200Z 33002KT CAVOK 04/04 Q0997",
      "taf": "TAF LQSA 051700Z 0518/0618 VRB02KT 9999 BKN055 TX10/0613Z TN05/0605Z"
    },
    {
      "icao": "LQTZ",
      "alert": "OK",
      "vis_m": 5000,
      "fzfg": false,
      "metar_trigger": false,
      "taf_trigger": false,
      "metar": "METAR LQTZ 052200Z 10002KT 5000 BR NSC 04/04 Q0996",
      "taf": "TAF LQTZ 051700Z 0518/0618 10005KT 9999 SCT050 TX10/0613Z TN03/0605Z"
    },
    {
      "icao": "LRBC",
      "alert": "OK",
      "vis_m": 8000,
      "fzfg": false,
      "metar_trigger": false,
      "taf_trigger": false,
      "metar": "METAR LRBC 052200Z VRB02KT 8000 -RA OVC005 03/03 Q1004",
      "taf": "TAF LRBC 052000Z 0521/0606 15006KT 9999 -DZ OVC010"
    },
    {
      "icao": "LRBS",
      "alert": "OK",
      "vis_m": 6000,
      "fzfg": false,
      "metar_trigger": false,
      "taf_trigger": false,
      "metar": "METAR LRBS 052200Z 09007KT 6000 -RA BKN003 OVC017 07/07 Q1000 NOSIG",
      "taf": "TAF LRBS 051700Z 0518/0618 08010KT 9999 SCT020 OVC030"
    },
    {
      "icao": "LRBV",
      "alert": "OK",
      "vis_m": 9999,
      "fzfg": false,
      "metar_trigger": false,
      "taf_trigger": false,
      "metar": "METAR LRBV 052200Z AUTO 05008KT 9999 BKN039/// OVC079/// 04/02 Q0999",
      "taf": "TAF LRBV 052000Z 0521/0606 08010KT 9999 BKN040"
    },
    {
      "icao": "LRCL",
      "alert": "OK",
      "vis_m": 9999,
      "fzfg": false,
      "metar_trigger": false,
      "taf_trigger": false,
      "metar": "METAR LRCL 052200Z 03003KT 350V050 9999 SCT051 OVC065 06/05 Q0998",
      "taf": "TAF LRCL 052000Z 0521/0606 VRB04KT 9999 OVC035"
    },
    {
      "icao": "LRCV",
      "alert": "OK",
      "vis_m": 250,
      "fzfg": false,
      "metar_trigger": false,
      "taf_trigger": false,
      "metar": "METAR LRCV 052200Z 26004KT 0250 R26/0300N FG VV001 02/02 Q1000",
      "taf": "TAF LRCV 052000Z 0521/0606 VRB04KT 0800 FG OVC003"
    },
    {
      "icao": "LRIA",
      "alert": "OK",
      "vis_m": 4000,
      "fzfg": false,
      "metar_trigger": false,
      "taf_trigger": false,
      "metar": "METAR LRIA 052200Z 10019KT 4000 -DZ BR OVC003 01/00 Q1005",
      "taf": "TAF LRIA 052000Z 0521/0606 11018KT 5000 -DZ BR OVC002"
    },
    {
      "icao": "LROP",
      "alert": "OK",
      "vis_m": 5000,
      "fzfg": false,
      "metar_trigger": false,
      "taf_trigger": false,
      "metar": "METAR LROP 052200Z 10007KT 5000 -RA OVC002 07/07 Q1000 NOSIG",
      "taf": "TAF LROP 051700Z 0518/0618 08010KT 9999 SCT020 OVC030"
    },
    {
      "icao": "LRSB",
      "alert": "OK",
      "vis_m": 9999,
      "fzfg": false,
      "metar_trigger": false,
      "taf_trigger": false,
      "metar": "METAR LRSB 052200Z 25005KT 220V280 9999 BKN060 06/04 Q0998",
      "taf": "TAF LRSB 051700Z 0518/0618 VRB04KT 9999 BKN070"
    },
    {
      "icao": "LRSM",
      "alert": "OK",
      "vis_m": 9999,
      "fzfg": false,
      "metar_trigger": false,
      "taf_trigger": false,
      "metar": "METAR LRSM 052200Z AUTO 12008KT 9999 -SHRA OVC049/// 08/06 Q0998",
      "taf": "TAF LRSM 051400Z 0515/0524 14008KT 9999 SCT045"
    },
    {
      "icao": "LRSV",
      "alert": "OK",
      "vis_m": 250,
      "fzfg": false,
      "metar_trigger": false,
      "taf_trigger": false,
      "metar": "METAR LRSV 052200Z 12010KT 0250 R34/0550N -RA FG VV002 00/00 Q1002",
      "taf": "TAF LRSV 052000Z 0521/0606 12010KT 0150 -DZ FG VV001"
    },
    {
      "icao": "LRTM",
      "alert": "OK",
      "vis_m": 9999,
      "fzfg": false,
      "metar_trigger": false,
      "taf_trigger": false,
      "metar": "METAR LRTM 052200Z AUTO 06006KT 9999 BKN048/// 07/03 Q0999",
      "taf": "TAF LRTM 052000Z 0521/0606 10006KT 9999 BKN040"
    },
    {
      "icao": "LRTR",
      "alert": "OK",
      "vis_m": 9999,
      "fzfg": false,
      "metar_trigger": false,
      "taf_trigger": false,
      "metar": "METAR LRTR 052200Z 09005KT CAVOK 04/04 Q0997",
      "taf": "TAF LRTR 051700Z 0518/0618 11006KT CAVOK"
    },
    {
      "icao": "LTAC",
      "alert": "OK",
      "vis_m": 9999,
      "fzfg": false,
      "metar_trigger": false,
      "taf_trigger": false,
      "metar": "METAR LTAC 052150Z 01003KT 9999 -SHRA BKN030 BKN080 04/02 Q1009 NOSIG",
      "taf": "TAF LTAC 051640Z 0518/0618 VRB02KT 9999 SCT040 BKN100"
    },
    {
      "icao": "LTFM",
      "alert": "OK",
      "vis_m": 9999,
      "fzfg": false,
      "metar_trigger": false,
      "taf_trigger": false,
      "metar": "METAR LTFM 052150Z 18005KT 9999 -RA SCT035 BKN080 10/08 Q1001 NOSIG",
      "taf": "TAF LTFM 051640Z 0518/0624 14014KT 9999 -RA SCT035 BKN080"
    },
    {
      "icao": "LUKK",
      "alert": "OK",
      "vis_m": 9000,
      "fzfg": false,
      "metar_trigger": false,
      "taf_trigger": false,
      "metar": "METAR LUKK 052200Z 10013KT 9000 -FZRA OVC006 M01/M02 Q1008 NOSIG",
      "taf": "TAF LUKK 051718Z 0518/0618 12010KT 6000 OVC005"
    },
    {
      "icao": "LWOH",
      "alert": "OK",
      "vis_m": null,
      "fzfg": false,
      "metar_trigger": false,
      "taf_trigger": false,
      "metar": "",
      "taf": "TAF LWOH 052050Z 0521/0621 16005KT 9999 BKN040"
    },
    {
      "icao": "LWSK",
      "alert": "OK",
      "vis_m": 9999,
      "fzfg": false,
      "metar_trigger": false,
      "taf_trigger": false,
      "metar": "METAR LWSK 052220Z VRB02KT 9999 FEW060 05/05 Q1000 NOSIG",
      "taf": "TAF LWSK 052050Z 0521/0621 VRB02KT 9999 SCT045"
    },
    {
      "icao": "LYBE",
      "alert": "OK",
      "vis_m": 9999,
      "fzfg": false,
      "metar_trigger": false,
      "taf_trigger": false,
      "metar": "METAR LYBE 052200Z 15004KT CAVOK 05/02 Q0997 NOSIG",
      "taf": "TAF LYBE 051700Z 0518/0618 09007KT CAVOK TX13/0613Z TN04/0606Z"
    },
    {
      "icao": "LYNI",
      "alert": "OK",
      "vis_m": 9999,
      "fzfg": false,
      "metar_trigger": false,
      "taf_trigger": false,
      "metar": "METAR LYNI 052200Z VRB01KT CAVOK 02/02 Q0999 NOSIG",
      "taf": "TAF LYNI 051700Z 0518/0618 10006KT 9999 SCT050 TX11/0613Z TN02/0606Z"
    },
    {
      "icao": "LYPG",
      "alert": "OK",
      "vis_m": 600,
      "fzfg": false,
      "metar_trigger": false,
      "taf_trigger": false,
      "metar": "METAR LYPG 052200Z VRB01KT 0600 R18/0650N R36/0600D FG SCT010 BKN050 08/08 Q1000 NOSIG",
      "taf": "TAF LYPG 051700Z 0518/0618 36005KT 8000 FEW020 SCT040 TX14/0615Z TN08/0602Z"
    },
    {
      "icao": "LZIB",
      "alert": "OK",
      "vis_m": 7000,
      "fzfg": false,
      "metar_trigger": false,
      "taf_trigger": false,
      "metar": "METAR LZIB 052200Z 10005KT 7000 FEW010 OVC016 05/04 Q0995 NOSIG",
      "taf": "TAF LZIB 051715Z 0518/0618 12007KT 9999 BKN020"
    },
    {
      "icao": "LZKZ",
      "alert": "OK",
      "vis_m": 9999,
      "fzfg": false,
      "metar_trigger": false,
      "taf_trigger": false,
      "metar": "METAR LZKZ 052200Z 02006KT CAVOK 03/02 Q0997 NOSIG",
      "taf": "TAF LZKZ 051715Z 0518/0618 01009KT 9999 BKN030"
    },
    {
      "icao": "LZTT",
      "alert": "OK",
      "vis_m": 1200,
      "fzfg": false,
      "metar_trigger": false,
      "taf_trigger": false,
      "metar": "METAR LZTT 052200Z 31002KT 1200 R27/1500U BR BKN003 OVC026 01/01 Q0996",
      "taf": ""
    },
    {
      "icao": "OEJN",
      "alert": "OK",
      "vis_m": 9999,
      "fzfg": false,
      "metar_trigger": false,
      "taf_trigger": false,
      "metar": "METAR OEJN 052200Z 32009KT CAVOK 26/17 Q1011 NOSIG",
      "taf": "TAF OEJN 051700Z 0518/0624 36006KT 7000 FEW040"
    },
    {
      "icao": "OEMA",
      "alert": "OK",
      "vis_m": 9999,
      "fzfg": false,
      "metar_trigger": false,
      "taf_trigger": false,
      "metar": "METAR OEMA 052200Z VRB03KT 9999 FEW040 21/00 Q1015 NOSIG",
      "taf": "TAF OEMA 051700Z 0518/0624 28006KT 7000 SCT045"
    },
    {
      "icao": "OJAI",
      "alert": "OK",
      "vis_m": 4000,
      "fzfg": false,
      "metar_trigger": false,
      "taf_trigger": false,
      "metar": "METAR OJAI 052200Z 09004KT 4000 HZ NSC 11/01 Q1014 NOSIG",
      "taf": "TAF OJAI 051700Z 0518/0624 12006KT 5000 HZ NSC"
    },
    {
      "icao": "OMAA",
      "alert": "OK",
      "vis_m": 9999,
      "fzfg": false,
      "metar_trigger": false,
      "taf_trigger": false,
      "metar": "METAR OMAA 052200Z 03004KT CAVOK 19/15 Q1019 NOSIG",
      "taf": "TAF OMAA 051700Z 0518/0700 33010KT 8000 NSC"
    },
    {
      "icao": "OMDB",
      "alert": "OK",
      "vis_m": 9999,
      "fzfg": false,
      "metar_trigger": false,
      "taf_trigger": false,
      "metar": "METAR OMDB 052200Z 35005KT 330V030 CAVOK 21/15 Q1019 NOSIG",
      "taf": "TAF OMDB 051700Z 0518/0700 30010KT 8000 NSC"
    },
    {
      "icao": "UAAA",
      "alert": "OK",
      "vis_m": 5000,
      "fzfg": false,
      "metar_trigger": false,
      "taf_trigger": false,
      "metar": "METAR UAAA 052200Z 15001MPS 5000 BR FU BKN100 M02/M04 Q1013 NOSIG",
      "taf": "TAF UAAA 051709Z 0518/0618 20003MPS 1200 BR FU SCT050CB BKN100 TX04/0607Z TNM02/0602Z"
    },
    {
      "icao": "UBBB",
      "alert": "OK",
      "vis_m": 3000,
      "fzfg": false,
      "metar_trigger": false,
      "taf_trigger": false,
      "metar": "METAR UBBB 052200Z 28004KT 3000 -RA BR BKN006 OVC022 02/01 Q1023 NOSIG",
      "taf": "TAF UBBB 051702Z 0518/0618 13008KT 9999 BKN012 BKN020 TX08/0611Z TN02/0600Z"
    },
    {
      "icao": "UDSG",
      "alert": "OK",
      "vis_m": 9999,
      "fzfg": false,
      "metar_trigger": false,
      "taf_trigger": false,
      "metar": "METAR UDSG 052200Z 04001KT 9999 NSC M11/M13 Q1021 NOSIG",
      "taf": "TAF UDSG 051700Z 0518/0618 VRB06KT 9999 FEW040"
    },
    {
      "icao": "UDYZ",
      "alert": "OK",
      "vis_m": 5000,
      "fzfg": false,
      "metar_trigger": false,
      "taf_trigger": false,
      "metar": "METAR UDYZ 052200Z 24001KT 5000 BR NSC M02/M04 Q1022 NOSIG",
      "taf": "TAF UDYZ 051700Z 0518/0618 VRB04KT 6000 NSC"
    },
    {
      "icao": "UGKO",
      "alert": "OK",
      "vis_m": 9999,
      "fzfg": false,
      "metar_trigger": false,
      "taf_trigger": false,
      "metar": "METAR UGKO 052200Z 08030G44KT CAVOK 07/M02 Q1012 NOSIG",
      "taf": "TAF UGKO 051700Z 0518/0618 08032G45KT CAVOK TX15/0611Z TN05/0604Z"
    }
  ]
}