{
  "ts_utc": "2026-03-21T10:00:51Z",
  "threshold_m": 150,
  "source": "stations_override.txt (ICAO list) + aviationweather.gov (METAR/TAF raw)",
  "station_count": 159,
  "stations": [
    {
      "icao": "BIKF",
      "alert": "OK",
      "vis_m": 9999,
      "fzfg": false,
      "metar_trigger": false,
      "taf_trigger": false,
      "metar": "METAR BIKF 210930Z 22025KT 9999 VCSH DRSN FEW016 SCT032CB BKN180 00/M04 Q0992",
      "taf": "TAF BIKF 210726Z 2109/2209 24028G40KT 9999 -SHSN FEW010CB BKN025 TX02/2115Z TNM02/2206Z"
    },
    {
      "icao": "BKPR",
      "alert": "OK",
      "vis_m": 9999,
      "fzfg": false,
      "metar_trigger": false,
      "taf_trigger": false,
      "metar": "METAR BKPR 211000Z VRB04KT 9999 FEW030 SCT050 10/M01 Q1011 NOSIG",
      "taf": "TAF BKPR 210530Z 2106/2206 03009KT 9999 SCT060"
    },
    {
      "icao": "EBCI",
      "alert": "OK",
      "vis_m": 9999,
      "fzfg": false,
      "metar_trigger": false,
      "taf_trigger": false,
      "metar": "METAR EBCI 210950Z 02007KT CAVOK 08/04 Q1017 NOSIG",
      "taf": "TAF EBCI 210500Z 2106/2212 04006KT CAVOK"
    },
    {
      "icao": "EDDB",
      "alert": "OK",
      "vis_m": 6000,
      "fzfg": false,
      "metar_trigger": false,
      "taf_trigger": false,
      "metar": "METAR EDDB 210950Z AUTO 08009KT 050V110 6000 BKN009 OVC012 06/04 Q1020 BECMG BKN015",
      "taf": ""
    },
    {
      "icao": "EDDH",
      "alert": "OK",
      "vis_m": 9999,
      "fzfg": false,
      "metar_trigger": false,
      "taf_trigger": false,
      "metar": "METAR EDDH 210950Z AUTO 07004KT 360V110 9999 OVC009 06/03 Q1022 BECMG BKN010",
      "taf": "TAF EDDH 210500Z 2106/2212 07006KT 9999 BKN004"
    },
    {
      "icao": "EDDK",
      "alert": "OK",
      "vis_m": 9999,
      "fzfg": false,
      "metar_trigger": false,
      "taf_trigger": false,
      "metar": "METAR EDDK 210950Z AUTO VRB02KT CAVOK 13/04 Q1017 NOSIG",
      "taf": "TAF EDDK 210500Z 2106/2212 VRB03KT CAVOK"
    },
    {
      "icao": "EDDN",
      "alert": "OK",
      "vis_m": 9999,
      "fzfg": false,
      "metar_trigger": false,
      "taf_trigger": false,
      "metar": "METAR EDDN 210950Z AUTO 02007KT 320V080 9999 FEW036 11/03 Q1015 NOSIG",
      "taf": ""
    },
    {
      "icao": "EDDS",
      "alert": "OK",
      "vis_m": 9999,
      "fzfg": false,
      "metar_trigger": false,
      "taf_trigger": false,
      "metar": "METAR EDDS 210950Z AUTO 10004KT 060V140 CAVOK 10/03 Q1014 NOSIG",
      "taf": "TAF EDDS 210500Z 2106/2206 VRB03KT CAVOK"
    },
    {
      "icao": "EDFH",
      "alert": "OK",
      "vis_m": 9999,
      "fzfg": false,
      "metar_trigger": false,
      "taf_trigger": false,
      "metar": "METAR EDFH 210950Z VRB05KT CAVOK 09/02 Q1015",
      "taf": "TAF EDFH 210500Z 2106/2206 08005KT CAVOK"
    },
    {
      "icao": "EDJA",
      "alert": "OK",
      "vis_m": 9999,
      "fzfg": false,
      "metar_trigger": false,
      "taf_trigger": false,
      "metar": "METAR EDJA 210950Z 03008KT CAVOK 07/01 Q1014",
      "taf": "TAF EDJA 210800Z 2109/2118 04008KT CAVOK"
    },
    {
      "icao": "EDLW",
      "alert": "OK",
      "vis_m": 9999,
      "fzfg": false,
      "metar_trigger": false,
      "taf_trigger": false,
      "metar": "METAR EDLW 210950Z 03005KT 360V060 CAVOK 09/03 Q1018",
      "taf": "TAF EDLW 210500Z 2106/2206 VRB03KT CAVOK"
    },
    {
      "icao": "EDNY",
      "alert": "OK",
      "vis_m": 9999,
      "fzfg": false,
      "metar_trigger": false,
      "taf_trigger": false,
      "metar": "METAR EDNY 210950Z 10003KT 070V150 CAVOK 10/01 Q1014",
      "taf": "TAF EDNY 210800Z 2109/2118 05006KT CAVOK"
    },
    {
      "icao": "EDSB",
      "alert": "OK",
      "vis_m": 9999,
      "fzfg": false,
      "metar_trigger": false,
      "taf_trigger": false,
      "metar": "METAR EDSB 210950Z 02009KT 350V050 CAVOK 10/04 Q1015",
      "taf": "TAF EDSB 210500Z 2106/2206 VRB03KT CAVOK"
    },
    {
      "icao": "EETN",
      "alert": "OK",
      "vis_m": 9999,
      "fzfg": false,
      "metar_trigger": false,
      "taf_trigger": false,
      "metar": "METAR EETN 210950Z 22010KT CAVOK 09/M02 Q1022 NOSIG",
      "taf": "TAF EETN 210530Z 2106/2206 22003KT CAVOK"
    },
    {
      "icao": "EFTU",
      "alert": "OK",
      "vis_m": 9999,
      "fzfg": false,
      "metar_trigger": false,
      "taf_trigger": false,
      "metar": "METAR EFTU 210950Z AUTO 23014KT CAVOK 08/M00 Q1019",
      "taf": "TAF EFTU 210824Z 2109/2209 21009KT CAVOK"
    },
    {
      "icao": "EGBB",
      "alert": "OK",
      "vis_m": 9000,
      "fzfg": false,
      "metar_trigger": false,
      "taf_trigger": false,
      "metar": "METAR EGBB 210950Z VRB02KT 9000 NSC 07/06 Q1021",
      "taf": "TAF EGBB 210457Z 2106/2206 13002KT 0100 FG OVC001"
    },
    {
      "icao": "EGGP",
      "alert": "OK",
      "vis_m": 5000,
      "fzfg": false,
      "metar_trigger": false,
      "taf_trigger": false,
      "metar": "METAR EGGP 210950Z VRB02KT 5000 HZ NSC 08/06 Q1020",
      "taf": ""
    },
    {
      "icao": "EGGW",
      "alert": "OK",
      "vis_m": 9999,
      "fzfg": false,
      "metar_trigger": false,
      "taf_trigger": false,
      "metar": "METAR EGGW 210950Z AUTO 04006KT 360V120 9999 NCD 06/03 Q1020",
      "taf": ""
    },
    {
      "icao": "EGKK",
      "alert": "OK",
      "vis_m": 9999,
      "fzfg": false,
      "metar_trigger": false,
      "taf_trigger": false,
      "metar": "METAR EGKK 210950Z 06007KT 030V100 9999 FEW010 07/04 Q1020",
      "taf": "TAF EGKK 210455Z 2106/2212 05005KT 9999 FEW030"
    },
    {
      "icao": "EGNM",
      "alert": "OK",
      "vis_m": 4000,
      "fzfg": false,
      "metar_trigger": false,
      "taf_trigger": false,
      "metar": "METAR EGNM 210950Z VRB02KT 4000 HZ NSC 10/07 Q1020",
      "taf": "TAF EGNM 210527Z 2106/2206 15005KT 4000 BR FEW005"
    },
    {
      "icao": "EGPD",
      "alert": "OK",
      "vis_m": 9999,
      "fzfg": false,
      "metar_trigger": false,
      "taf_trigger": false,
      "metar": "METAR EGPD 210950Z COR AUTO VRB01KT 9999 NCD 12/04 Q1018 NOSIG",
      "taf": "TAF EGPD 210453Z 2106/2206 21006KT 9999 SCT035"
    },
    {
      "icao": "EGPF",
      "alert": "OK",
      "vis_m": 8000,
      "fzfg": false,
      "metar_trigger": false,
      "taf_trigger": false,
      "metar": "METAR EGPF 210950Z AUTO VRB01KT 8000 NCD 09/06 Q1020",
      "taf": "TAF EGPF 210502Z 2106/2206 25006KT 0300 FG VV///"
    },
    {
      "icao": "EHBK",
      "alert": "OK",
      "vis_m": 9999,
      "fzfg": false,
      "metar_trigger": false,
      "taf_trigger": false,
      "metar": "METAR EHBK 210955Z AUTO 04008KT 360V080 9999 NCD 09/04 Q1017 NOSIG",
      "taf": "TAF EHBK 210514Z 2106/2212 04006KT CAVOK"
    },
    {
      "icao": "EHEH",
      "alert": "OK",
      "vis_m": 9999,
      "fzfg": false,
      "metar_trigger": false,
      "taf_trigger": false,
      "metar": "METAR EHEH 210925Z AUTO 01006KT 330V070 9999 OVC007 06/04 Q1019 GRN BECMG 5000 NSW FEW005",
      "taf": "TAF EHEH 210544Z 2106/2212 03004KT 3000 OVC002"
    },
    {
      "icao": "EKBI",
      "alert": "OK",
      "vis_m": 3600,
      "fzfg": false,
      "metar_trigger": false,
      "taf_trigger": false,
      "metar": "METAR EKBI 210950Z AUTO 13002KT 3600 R09/P1500U R27/1300D BR OVC002/// 03/03 Q1023",
      "taf": "TAF EKBI 210827Z 2109/2209 16004KT 0300 FG VV002"
    },
    {
      "icao": "EKCH",
      "alert": "OK",
      "vis_m": 2000,
      "fzfg": false,
      "metar_trigger": false,
      "taf_trigger": false,
      "metar": "METAR EKCH 210950Z 05002KT 2000 BR SCT002 BKN003 02/02 Q1024 TEMPO 3000 BKN005",
      "taf": "TAF EKCH 210827Z 2109/2209 17006KT 0700 FG BKN002"
    },
    {
      "icao": "ENAL",
      "alert": "OK",
      "vis_m": 9999,
      "fzfg": false,
      "metar_trigger": false,
      "taf_trigger": false,
      "metar": "METAR ENAL 210950Z 23015KT 9999 -RA SCT018 BKN036 07/05 Q1014",
      "taf": "TAF ENAL 210800Z 2109/2118 23020KT 9999 -RA FEW015 OVC035"
    },
    {
      "icao": "ENBR",
      "alert": "OK",
      "vis_m": 9999,
      "fzfg": false,
      "metar_trigger": false,
      "taf_trigger": false,
      "metar": "METAR ENBR 210950Z 18011KT 9999 VCSH SCT005 BKN008 06/04 Q1018 NOSIG RMK WIND 1200FT 18016KT",
      "taf": ""
    },
    {
      "icao": "ENGM",
      "alert": "OK",
      "vis_m": 9999,
      "fzfg": false,
      "metar_trigger": false,
      "taf_trigger": false,
      "metar": "METAR ENGM 210950Z 17009KT 9999 BKN007 02/M00 Q1017 BECMG SCT015",
      "taf": "TAF ENGM 210500Z 2106/2206 20008KT 8000 BKN003"
    },
    {
      "icao": "ENHD",
      "alert": "OK",
      "vis_m": 9999,
      "fzfg": false,
      "metar_trigger": false,
      "taf_trigger": false,
      "metar": "METAR ENHD 210950Z 17010KT 140V210 9999 SCT005 BKN007 07/05 Q1018",
      "taf": "TAF ENHD 210800Z 2109/2118 15010KT 9999 BKN012"
    },
    {
      "icao": "ENTC",
      "alert": "OK",
      "vis_m": 9999,
      "fzfg": false,
      "metar_trigger": false,
      "taf_trigger": false,
      "metar": "METAR ENTC 210950Z 22017KT 9999 SCT038 BKN051 05/00 Q0994 TEMPO 23018G30KT SHRAGS BKN012 SCT020CB RMK WIND 2600FT 21020KT",
      "taf": "TAF ENTC 210500Z 2106/2206 21018KT 9999 -RA BKN018"
    },
    {
      "icao": "ENTO",
      "alert": "OK",
      "vis_m": 1600,
      "fzfg": false,
      "metar_trigger": false,
      "taf_trigger": false,
      "metar": "METAR ENTO 210950Z 00000KT 1600 BR BKN002 BKN004 02/02 Q1019 TEMPO 3500 BR BKN005",
      "taf": "TAF ENTO 210500Z 2106/2206 VRB03KT 0200 FG VV002"
    },
    {
      "icao": "ENVA",
      "alert": "OK",
      "vis_m": 9999,
      "fzfg": false,
      "metar_trigger": false,
      "taf_trigger": false,
      "metar": "METAR ENVA 210950Z 24003KT 190V250 9999 -RA SCT011 BKN024 04/03 Q1012 REDZRA NOSIG RMK WIND 670FT 27009KT",
      "taf": "TAF ENVA 210500Z 2106/2206 VRB04KT 9999 FEW030 OVC050"
    },
    {
      "icao": "ENZV",
      "alert": "OK",
      "vis_m": 9999,
      "fzfg": false,
      "metar_trigger": false,
      "taf_trigger": false,
      "metar": "METAR ENZV 210950Z 18012KT 9999 SCT013 OVC015 08/04 Q1019 TEMPO BKN010",
      "taf": "TAF ENZV 210500Z 2106/2206 17010KT 9999 FEW010 BKN025"
    },
    {
      "icao": "EPGD",
      "alert": "OK",
      "vis_m": 9999,
      "fzfg": false,
      "metar_trigger": false,
      "taf_trigger": false,
      "metar": "METAR EPGD 210930Z 05007KT 010V090 9999 FEW032 07/M01 Q1023",
      "taf": "TAF EPGD 210530Z 2106/2206 01005KT CAVOK"
    },
    {
      "icao": "EPKK",
      "alert": "OK",
      "vis_m": 9999,
      "fzfg": false,
      "metar_trigger": false,
      "taf_trigger": false,
      "metar": "METAR EPKK 210930Z 09013KT 9999 SCT028 08/M02 Q1019",
      "taf": "TAF EPKK 210830Z 2109/2209 07010KT CAVOK"
    },
    {
      "icao": "EPKT",
      "alert": "OK",
      "vis_m": 9999,
      "fzfg": false,
      "metar_trigger": false,
      "taf_trigger": false,
      "metar": "METAR EPKT 210930Z 09011KT 060V130 9999 SCT041 09/M03 Q1018",
      "taf": "TAF EPKT 210530Z 2106/2206 VRB02KT 3000 BR NSC"
    },
    {
      "icao": "EPLB",
      "alert": "OK",
      "vis_m": 9999,
      "fzfg": false,
      "metar_trigger": false,
      "taf_trigger": false,
      "metar": "METAR EPLB 210930Z 10008KT 9999 FEW028 08/01 Q1021",
      "taf": ""
    },
    {
      "icao": "EPMO",
      "alert": "OK",
      "vis_m": 9999,
      "fzfg": false,
      "metar_trigger": false,
      "taf_trigger": false,
      "metar": "METAR EPMO 210930Z 05007KT 9999 SCT033 09/01 Q1021",
      "taf": "TAF EPMO 210530Z 2106/2206 03004KT 9999 SCT035"
    },
    {
      "icao": "EPPO",
      "alert": "OK",
      "vis_m": 9999,
      "fzfg": false,
      "metar_trigger": false,
      "taf_trigger": false,
      "metar": "METAR EPPO 210930Z 09007KT CAVOK 06/01 Q1021",
      "taf": ""
    },
    {
      "icao": "EPRA",
      "alert": "OK",
      "vis_m": 9999,
      "fzfg": false,
      "metar_trigger": false,
      "taf_trigger": false,
      "metar": "METAR EPRA 210930Z 09005KT 050V170 9999 FEW030 07/M01 Q1021",
      "taf": "TAF EPRA 210830Z 2109/2118 09006KT CAVOK"
    },
    {
      "icao": "EPRZ",
      "alert": "OK",
      "vis_m": 9999,
      "fzfg": false,
      "metar_trigger": false,
      "taf_trigger": false,
      "metar": "METAR EPRZ 210930Z 10013KT 9999 SCT033 08/M01 Q1020",
      "taf": "TAF EPRZ 210530Z 2106/2206 VRB02KT CAVOK"
    },
    {
      "icao": "EPSC",
      "alert": "OK",
      "vis_m": 9999,
      "fzfg": false,
      "metar_trigger": false,
      "taf_trigger": false,
      "metar": "METAR EPSC 210930Z 07008KT 030V090 CAVOK 08/00 Q1022",
      "taf": "TAF EPSC 210530Z 2106/2206 VRB02KT 0800 FG BKN002"
    },
    {
      "icao": "EPSY",
      "alert": "OK",
      "vis_m": 9999,
      "fzfg": false,
      "metar_trigger": false,
      "taf_trigger": false,
      "metar": "METAR EPSY 210930Z 08006KT 030V130 9999 BKN019 06/01 Q1022",
      "taf": ""
    },
    {
      "icao": "EPWA",
      "alert": "OK",
      "vis_m": 9999,
      "fzfg": false,
      "metar_trigger": false,
      "taf_trigger": false,
      "metar": "METAR EPWA 210930Z 09006KT 050V150 9999 SCT030 08/00 Q1021 NOSIG",
      "taf": "TAF EPWA 210830Z 2109/2209 10007KT CAVOK"
    },
    {
      "icao": "EPWR",
      "alert": "OK",
      "vis_m": 9999,
      "fzfg": false,
      "metar_trigger": false,
      "taf_trigger": false,
      "metar": "METAR EPWR 210930Z 08003KT 040V120 9999 BKN012 07/04 Q1020",
      "taf": "TAF EPWR 210830Z 2109/2209 08010KT 4500 BR BKN008"
    },
    {
      "icao": "ESGG",
      "alert": "OK",
      "vis_m": 4300,
      "fzfg": false,
      "metar_trigger": false,
      "taf_trigger": false,
      "metar": "METAR ESGG 210950Z 19009KT 4300 BR VV004 02/02 Q1022",
      "taf": ""
    },
    {
      "icao": "ESKN",
      "alert": "OK",
      "vis_m": 9999,
      "fzfg": false,
      "metar_trigger": false,
      "taf_trigger": false,
      "metar": "METAR ESKN 210950Z 23012KT CAVOK 11/M01 Q1020",
      "taf": "TAF ESKN 210830Z 2109/2209 24008KT CAVOK"
    },
    {
      "icao": "ESMS",
      "alert": "OK",
      "vis_m": 9999,
      "fzfg": false,
      "metar_trigger": false,
      "taf_trigger": false,
      "metar": "METAR ESMS 210950Z 17008KT CAVOK 07/01 Q1023",
      "taf": ""
    },
    {
      "icao": "ESSA",
      "alert": "OK",
      "vis_m": 9999,
      "fzfg": false,
      "metar_trigger": false,
      "taf_trigger": false,
      "metar": "METAR ESSA 210950Z 23012KT CAVOK 09/01 Q1019 NOSIG",
      "taf": "TAF ESSA 210830Z 2109/2209 23010KT CAVOK"
    },
    {
      "icao": "EYKA",
      "alert": "OK",
      "vis_m": 9999,
      "fzfg": false,
      "metar_trigger": false,
      "taf_trigger": false,
      "metar": "METAR EYKA 210950Z 14004G14KT 050V190 9999 BKN021 07/02 Q1024",
      "taf": "TAF EYKA 210500Z 2106/2206 VRB03KT 9000 BKN045"
    },
    {
      "icao": "EYPA",
      "alert": "OK",
      "vis_m": 9999,
      "fzfg": false,
      "metar_trigger": false,
      "taf_trigger": false,
      "metar": "METAR EYPA 210950Z 28003KT 230V340 CAVOK 08/01 Q1024",
      "taf": "TAF EYPA 210500Z 2106/2206 VRB03KT 9000 NSC"
    },
    {
      "icao": "EYVI",
      "alert": "OK",
      "vis_m": 9999,
      "fzfg": false,
      "metar_trigger": false,
      "taf_trigger": false,
      "metar": "METAR EYVI 210950Z 21003KT 080V250 9999 BKN011 04/01 Q1024 BECMG BKN015",
      "taf": "TAF EYVI 210500Z 2106/2206 VRB05KT 9000 SCT005 OVC010"
    },
    {
      "icao": "GCFV",
      "alert": "OK",
      "vis_m": 9999,
      "fzfg": false,
      "metar_trigger": false,
      "taf_trigger": false,
      "metar": "METAR GCFV 210930Z COR 19018G28KT 9999 FEW025 BKN035 20/13 Q1004",
      "taf": "TAF GCFV 210800Z 2109/2209 20022KT 9999 SCT035 TX22/2114Z TN17/2206Z"
    },
    {
      "icao": "GCLP",
      "alert": "OK",
      "vis_m": 5000,
      "fzfg": false,
      "metar_trigger": false,
      "taf_trigger": false,
      "metar": "SPECI GCLP 210945Z 23027KT 5000 RA FEW020 BKN038 BKN050 19/15 Q1002 TEMPO 4500 SHRA SCT025TCU",
      "taf": "TAF GCLP 210800Z 2109/2209 21023KT 9999 SCT035 TX23/2114Z TN17/2206Z"
    },
    {
      "icao": "GCTS",
      "alert": "OK",
      "vis_m": 9999,
      "fzfg": false,
      "metar_trigger": false,
      "taf_trigger": false,
      "metar": "METAR GCTS 210930Z 27016KT 9999 VCSH FEW020TCU BKN045 19/14 Q1002 NOSIG",
      "taf": "TAF GCTS 210800Z 2109/2209 24022KT 9999 BKN030 TX22/2114Z TN15/2206Z"
    },
    {
      "icao": "GMAD",
      "alert": "OK",
      "vis_m": 6000,
      "fzfg": false,
      "metar_trigger": false,
      "taf_trigger": false,
      "metar": "METAR GMAD 210930Z 08007KT 6000 -RA FEW003 SCT023 BKN083 16/14 Q1007 NOSIG",
      "taf": "TAF GMAD 210500Z 2106/2212 06005KT 6000 BKN020 BKN080"
    },
    {
      "icao": "GMMN",
      "alert": "OK",
      "vis_m": 9999,
      "fzfg": false,
      "metar_trigger": false,
      "taf_trigger": false,
      "metar": "METAR GMMN 210930Z 11003KT 030V190 9999 SCT020 BKN100 16/14 Q1007 NOSIG",
      "taf": "TAF GMMN 210500Z 2106/2212 12006KT 9999 BKN020"
    },
    {
      "icao": "GMMX",
      "alert": "OK",
      "vis_m": 9999,
      "fzfg": false,
      "metar_trigger": false,
      "taf_trigger": false,
      "metar": "METAR GMMX 210930Z 34003KT 290V040 9999 SCT013 BKN023 17/14 Q1007 NOSIG",
      "taf": "TAF GMMX 210500Z 2106/2212 06006KT 8000 SCT023"
    },
    {
      "icao": "HEGN",
      "alert": "OK",
      "vis_m": 9999,
      "fzfg": false,
      "metar_trigger": false,
      "taf_trigger": false,
      "metar": "METAR HEGN 210900Z 03006KT CAVOK 26/02 Q1008 NOSIG",
      "taf": "TAF HEGN 210500Z 2106/2212 28012G22KT 6000 NSC"
    },
    {
      "icao": "HEMA",
      "alert": "OK",
      "vis_m": 9999,
      "fzfg": false,
      "metar_trigger": false,
      "taf_trigger": false,
      "metar": "METAR HEMA 210900Z 26010KT CAVOK 28/M01 Q1009 NOSIG",
      "taf": "TAF HEMA 210500Z 2106/2212 27012G22KT 6000 NSC"
    },
    {
      "icao": "HESH",
      "alert": "OK",
      "vis_m": 6000,
      "fzfg": false,
      "metar_trigger": false,
      "taf_trigger": false,
      "metar": "METAR HESH 210900Z 22008KT 6000 NSC 26/03 Q1008 NOSIG",
      "taf": "TAF HESH 210500Z 2106/2212 26012G22KT 6000 NSC"
    },
    {
      "icao": "HESX",
      "alert": "OK",
      "vis_m": 9999,
      "fzfg": false,
      "metar_trigger": false,
      "taf_trigger": false,
      "metar": "METAR HESX 210900Z 21006KT 9999 FEW020 BKN100 16/06 Q1007 NOSIG",
      "taf": "TAF HESX 210500Z 2106/2212 23012KT 8000 SCT025"
    },
    {
      "icao": "LATI",
      "alert": "OK",
      "vis_m": 9999,
      "fzfg": false,
      "metar_trigger": false,
      "taf_trigger": false,
      "metar": "METAR LATI 210950Z 30004KT 250V350 CAVOK 15/M06 Q1009 NOSIG",
      "taf": "TAF LATI 210500Z 2106/2206 VRB03KT CAVOK TX18/2112Z TN04/2205Z"
    },
    {
      "icao": "LBPD",
      "alert": "OK",
      "vis_m": 9999,
      "fzfg": false,
      "metar_trigger": false,
      "taf_trigger": false,
      "metar": "METAR LBPD 210930Z AUTO VRB05KT 9999 SCT054/// 11/M01 Q1011 NOSIG",
      "taf": "TAF LBPD 210500Z 2106/2206 30010KT 9999 BKN050"
    },
    {
      "icao": "LBSF",
      "alert": "OK",
      "vis_m": 9999,
      "fzfg": false,
      "metar_trigger": false,
      "taf_trigger": false,
      "metar": "METAR LBSF 210930Z 06011KT 030V090 9999 SCT066 09/M02 Q1012 NOSIG",
      "taf": "TAF LBSF 210500Z 2106/2206 VRB03KT 9999 SCT030 BKN050"
    },
    {
      "icao": "LBWN",
      "alert": "OK",
      "vis_m": 9999,
      "fzfg": false,
      "metar_trigger": false,
      "taf_trigger": false,
      "metar": "METAR LBWN 210930Z 36009KT 330V060 9999 -RA FEW016 BKN036 07/04 Q1011 NOSIG",
      "taf": "TAF LBWN 210500Z 2106/2206 01014KT 9999 SCT025 OVC040"
    },
    {
      "icao": "LCLK",
      "alert": "OK",
      "vis_m": 9999,
      "fzfg": false,
      "metar_trigger": false,
      "taf_trigger": false,
      "metar": "METAR LCLK 210930Z 23011KT 9999 FEW020 FEW025CB FEW030TCU SCT060 17/13 Q1001 NOSIG",
      "taf": "TAF LCLK 210530Z 2106/2206 21020KT 9999 FEW020 FEW025CB SCT050"
    },
    {
      "icao": "LCPH",
      "alert": "OK",
      "vis_m": 1500,
      "fzfg": false,
      "metar_trigger": false,
      "taf_trigger": false,
      "metar": "METAR LCPH 210930Z 25016G26KT 1500 R29/1600 R11/1200 -SHRA FEW015 SCT020 FEW025TCU FEW030CB BKN050 13/10 Q1001 RERA NOSIG",
      "taf": "TAF LCPH 210530Z 2106/2206 24018KT 9999 FEW020 FEW025CB SCT050"
    },
    {
      "icao": "LEAL",
      "alert": "OK",
      "vis_m": 9999,
      "fzfg": false,
      "metar_trigger": false,
      "taf_trigger": false,
      "metar": "METAR LEAL 210930Z 01007KT 350V060 9999 FEW033 BKN054 14/08 Q1013 NOSIG",
      "taf": ""
    },
    {
      "icao": "LEBB",
      "alert": "OK",
      "vis_m": 9999,
      "fzfg": false,
      "metar_trigger": false,
      "taf_trigger": false,
      "metar": "METAR LEBB 210930Z VRB04KT CAVOK 17/01 Q1012 NOSIG",
      "taf": "TAF LEBB 210500Z 2106/2206 13009KT CAVOK TX21/2113Z TN05/2206Z"
    },
    {
      "icao": "LEBL",
      "alert": "OK",
      "vis_m": 9999,
      "fzfg": false,
      "metar_trigger": false,
      "taf_trigger": false,
      "metar": "METAR LEBL 210930Z 31007G20KT 270V350 CAVOK 14/07 Q1013 NOSIG",
      "taf": "TAF LEBL 210500Z 2106/2206 33010KT 9999 FEW040 TX16/2112Z TN06/2106Z"
    },
    {
      "icao": "LECH",
      "alert": "OK",
      "vis_m": 6000,
      "fzfg": false,
      "metar_trigger": false,
      "taf_trigger": false,
      "metar": "METAR LECH 210930Z AUTO VRB02KT 6000 NSC 09/06 Q1014",
      "taf": "TAF LECH 210500Z 2106/2206 01005KT 9999 SCT020 TX15/2112Z TN03/2206Z"
    },
    {
      "icao": "LEMD",
      "alert": "OK",
      "vis_m": 9999,
      "fzfg": false,
      "metar_trigger": false,
      "taf_trigger": false,
      "metar": "METAR LEMD 210930Z 06001KT 9999 FEW027 BKN050 09/07 Q1013 NOSIG",
      "taf": ""
    },
    {
      "icao": "LEMG",
      "alert": "OK",
      "vis_m": 9999,
      "fzfg": false,
      "metar_trigger": false,
      "taf_trigger": false,
      "metar": "METAR LEMG 210930Z 12005KT 080V150 9999 FEW030 BKN040 15/09 Q1012 NOSIG",
      "taf": "TAF LEMG 210500Z 2106/2206 11009KT 9999 SCT025 SCT040 TX17/2113Z TN13/2106Z"
    },
    {
      "icao": "LEVC",
      "alert": "OK",
      "vis_m": 9999,
      "fzfg": false,
      "metar_trigger": false,
      "taf_trigger": false,
      "metar": "METAR LEVC 210930Z 32006KT 9999 -RA FEW054 BKN065 12/09 Q1014 NOSIG",
      "taf": "TAF LEVC 210500Z 2106/2206 34006KT 9999 FEW020 TX16/2112Z TN04/2206Z"
    },
    {
      "icao": "LEXJ",
      "alert": "OK",
      "vis_m": 9999,
      "fzfg": false,
      "metar_trigger": false,
      "taf_trigger": false,
      "metar": "METAR LEXJ 210930Z 00000KT CAVOK 14/08 Q1012",
      "taf": ""
    },
    {
      "icao": "LEZG",
      "alert": "OK",
      "vis_m": 9000,
      "fzfg": false,
      "metar_trigger": false,
      "taf_trigger": false,
      "metar": "METAR LEZG 210930Z 31001KT 9000 NSC 10/05 Q1013 NOSIG",
      "taf": "TAF LEZG 210500Z 2106/2206 VRB04KT 9999 FEW010 TX19/2114Z TN04/2206Z"
    },
    {
      "icao": "LEZL",
      "alert": "OK",
      "vis_m": 9999,
      "fzfg": false,
      "metar_trigger": false,
      "taf_trigger": false,
      "metar": "METAR LEZL 210930Z 05007KT 9999 BKN049 15/12 Q1010 NOSIG",
      "taf": "TAF LEZL 210800Z 2109/2209 04007KT 9999 SCT040 TX21/2115Z TN11/2207Z"
    },
    {
      "icao": "LFBD",
      "alert": "OK",
      "vis_m": 9999,
      "fzfg": false,
      "metar_trigger": false,
      "taf_trigger": false,
      "metar": "METAR LFBD 210930Z AUTO VRB03KT CAVOK 15/06 Q1012 NOSIG",
      "taf": "TAF LFBD 210500Z 2106/2212 VRB03KT CAVOK TX19/2114Z TN04/2106Z"
    },
    {
      "icao": "LFLL",
      "alert": "OK",
      "vis_m": 9999,
      "fzfg": false,
      "metar_trigger": false,
      "taf_trigger": false,
      "metar": "METAR LFLL 210930Z VRB02KT CAVOK 11/04 Q1013 NOSIG",
      "taf": "TAF LFLL 210500Z 2106/2212 VRB02KT CAVOK"
    },
    {
      "icao": "LFLS",
      "alert": "OK",
      "vis_m": 9999,
      "fzfg": false,
      "metar_trigger": false,
      "taf_trigger": false,
      "metar": "METAR LFLS 210930Z AUTO VRB02KT 9999 FEW060 12/02 Q1013 NOSIG",
      "taf": "TAF LFLS 210800Z 2109/2209 09005KT CAVOK"
    },
    {
      "icao": "LFMN",
      "alert": "OK",
      "vis_m": 9999,
      "fzfg": false,
      "metar_trigger": false,
      "taf_trigger": false,
      "metar": "METAR LFMN 210930Z VRB02KT 9999 FEW033 BKN210 15/07 Q1014 NOSIG",
      "taf": "TAF LFMN 210800Z 2109/2215 33005KT 9999 FEW030"
    },
    {
      "icao": "LFOB",
      "alert": "OK",
      "vis_m": 9999,
      "fzfg": false,
      "metar_trigger": false,
      "taf_trigger": false,
      "metar": "METAR LFOB 210930Z AUTO 02008KT CAVOK 10/06 Q1017 NOSIG",
      "taf": "TAF LFOB 210500Z 2106/2206 02008KT CAVOK"
    },
    {
      "icao": "LFPO",
      "alert": "OK",
      "vis_m": 7000,
      "fzfg": false,
      "metar_trigger": false,
      "taf_trigger": false,
      "metar": "METAR LFPO 210930Z 05007KT 7000 NSC 11/05 Q1016 NOSIG",
      "taf": ""
    },
    {
      "icao": "LFSB",
      "alert": "OK",
      "vis_m": 9999,
      "fzfg": false,
      "metar_trigger": false,
      "taf_trigger": false,
      "metar": "METAR LFSB 210930Z AUTO 34003KT 280V040 CAVOK 10/01 Q1014 NOSIG",
      "taf": "TAF LFSB 210500Z 2106/2206 VRB02KT CAVOK"
    },
    {
      "icao": "LGAV",
      "alert": "OK",
      "vis_m": 9999,
      "fzfg": false,
      "metar_trigger": false,
      "taf_trigger": false,
      "metar": "METAR LGAV 210950Z 01014KT 9999 SCT030 11/03 Q1009 NOSIG",
      "taf": "TAF LGAV 210500Z 2106/2206 36012KT 9999 SCT025 BKN070"
    },
    {
      "icao": "LGTS",
      "alert": "OK",
      "vis_m": 9999,
      "fzfg": false,
      "metar_trigger": false,
      "taf_trigger": false,
      "metar": "METAR LGTS 210950Z 30006KT 9999 FEW030 13/M00 Q1011 NOSIG",
      "taf": "TAF LGTS 210500Z 2106/2206 34013KT 9999 SCT025"
    },
    {
      "icao": "LHBP",
      "alert": "OK",
      "vis_m": 9999,
      "fzfg": false,
      "metar_trigger": false,
      "taf_trigger": false,
      "metar": "METAR LHBP 210930Z 09011KT 050V110 CAVOK 12/00 Q1016 NOSIG",
      "taf": "TAF LHBP 210515Z 2106/2206 35004KT CAVOK"
    },
    {
      "icao": "LHDC",
      "alert": "OK",
      "vis_m": 9999,
      "fzfg": false,
      "metar_trigger": false,
      "taf_trigger": false,
      "metar": "METAR LHDC 210915Z AUTO 05008KT 360V100 CAVOK 13/M01 Q1016 NOSIG",
      "taf": "TAF LHDC 210815Z 2109/2118 06012KT CAVOK"
    },
    {
      "icao": "LIBD",
      "alert": "OK",
      "vis_m": 9999,
      "fzfg": false,
      "metar_trigger": false,
      "taf_trigger": false,
      "metar": "METAR LIBD 210950Z 29009KT 260V330 CAVOK 13/06 Q1011",
      "taf": "TAF LIBD 210500Z 2106/2206 26008KT 9999 SCT040"
    },
    {
      "icao": "LIBG",
      "alert": "OK",
      "vis_m": 9999,
      "fzfg": false,
      "metar_trigger": false,
      "taf_trigger": false,
      "metar": "METAR LIBG 210850Z 01008KT 340V040 9999 FEW040 13/02 Q1010",
      "taf": "TAF LIBG 210800Z 2109/2118 35010KT 9999 SCT030"
    },
    {
      "icao": "LIBP",
      "alert": "OK",
      "vis_m": 9999,
      "fzfg": false,
      "metar_trigger": false,
      "taf_trigger": false,
      "metar": "METAR LIBP 210950Z AUTO 30005KT 270V350 9999 OVC064/// 11/03 Q1013",
      "taf": "TAF LIBP 210500Z 2106/2206 22006KT 9999 BKN070"
    },
    {
      "icao": "LIBR",
      "alert": "OK",
      "vis_m": 9999,
      "fzfg": false,
      "metar_trigger": false,
      "taf_trigger": false,
      "metar": "METAR LIBR 210950Z 03012KT CAVOK 13/01 Q1010",
      "taf": "TAF LIBR 210500Z 2106/2206 04016KT CAVOK"
    },
    {
      "icao": "LICA",
      "alert": "OK",
      "vis_m": 9999,
      "fzfg": false,
      "metar_trigger": false,
      "taf_trigger": false,
      "metar": "METAR LICA 210950Z AUTO 23006KT 190V280 9999 NCD 14/07 Q1011",
      "taf": "TAF LICA 210500Z 2106/2206 08008KT 9999 SCT040"
    },
    {
      "icao": "LICC",
      "alert": "OK",
      "vis_m": 9999,
      "fzfg": false,
      "metar_trigger": false,
      "taf_trigger": false,
      "metar": "METAR LICC 210950Z 23006KT 180V270 9999 FEW030 15/14 Q1011",
      "taf": "TAF LICC 210500Z 2106/2206 24008KT 8000 NSC"
    },
    {
      "icao": "LICJ",
      "alert": "OK",
      "vis_m": 9999,
      "fzfg": false,
      "metar_trigger": false,
      "taf_trigger": false,
      "metar": "METAR LICJ 210950Z AUTO 03009KT 9999 FEW077/// 15/06 Q1011",
      "taf": "TAF LICJ 210500Z 2106/2206 VRB06KT 9999 SCT030"
    },
    {
      "icao": "LIMC",
      "alert": "OK",
      "vis_m": 9999,
      "fzfg": false,
      "metar_trigger": false,
      "taf_trigger": false,
      "metar": "METAR LIMC 210950Z 13005KT 090V180 CAVOK 13/01 Q1013 NOSIG",
      "taf": "TAF LIMC 210500Z 2106/2212 VRB05KT 9999 FEW070"
    },
    {
      "icao": "LIME",
      "alert": "OK",
      "vis_m": 9999,
      "fzfg": false,
      "metar_trigger": false,
      "taf_trigger": false,
      "metar": "METAR LIME 210950Z VRB02KT 9999 SCT070 BKN090 12/M01 Q1013 NOSIG",
      "taf": "TAF LIME 210500Z 2106/2206 VRB05KT 9999 FEW060"
    },
    {
      "icao": "LIMF",
      "alert": "OK",
      "vis_m": 9999,
      "fzfg": false,
      "metar_trigger": false,
      "taf_trigger": false,
      "metar": "METAR LIMF 210950Z VRB02KT 9999 BKN070 12/00 Q1013",
      "taf": "TAF LIMF 210500Z 2106/2206 VRB05KT 9999 SCT060"
    },
    {
      "icao": "LIMJ",
      "alert": "OK",
      "vis_m": 9999,
      "fzfg": false,
      "metar_trigger": false,
      "taf_trigger": false,
      "metar": "METAR LIMJ 210950Z 02003KT 330V060 9999 FEW030 BKN080 13/06 Q1014",
      "taf": "TAF LIMJ 210500Z 2106/2206 03005KT CAVOK"
    },
    {
      "icao": "LIPE",
      "alert": "OK",
      "vis_m": 9999,
      "fzfg": false,
      "metar_trigger": false,
      "taf_trigger": false,
      "metar": "METAR LIPE 210950Z VRB03KT CAVOK 14/M01 Q1014",
      "taf": "TAF LIPE 210500Z 2106/2206 VRB05KT CAVOK"
    },
    {
      "icao": "LIPH",
      "alert": "OK",
      "vis_m": 9999,
      "fzfg": false,
      "metar_trigger": false,
      "taf_trigger": false,
      "metar": "METAR LIPH 210950Z VRB02KT CAVOK 14/02 Q1014",
      "taf": "TAF LIPH 210500Z 2106/2206 VRB05KT CAVOK"
    },
    {
      "icao": "LIPQ",
      "alert": "OK",
      "vis_m": 9999,
      "fzfg": false,
      "metar_trigger": false,
      "taf_trigger": false,
      "metar": "METAR LIPQ 210950Z AUTO VRB02KT 9999 BKN100/// 15/M01 Q1014",
      "taf": "TAF LIPQ 210500Z 2106/2206 VRB05KT 9999 SCT080"
    },
    {
      "icao": "LIPR",
      "alert": "OK",
      "vis_m": 9999,
      "fzfg": false,
      "metar_trigger": false,
      "taf_trigger": false,
      "metar": "METAR LIPR 210950Z 35007KT CAVOK 13/05 Q1014",
      "taf": "TAF LIPR 210500Z 2106/2206 VRB05KT 9999 FEW050"
    },
    {
      "icao": "LIPX",
      "alert": "OK",
      "vis_m": 9999,
      "fzfg": false,
      "metar_trigger": false,
      "taf_trigger": false,
      "metar": "METAR LIPX 210950Z VRB01KT 9999 OVC070 12/02 Q1014",
      "taf": "TAF LIPX 210500Z 2106/2206 VRB05KT 9999 FEW060"
    },
    {
      "icao": "LIPY",
      "alert": "OK",
      "vis_m": 9999,
      "fzfg": false,
      "metar_trigger": false,
      "taf_trigger": false,
      "metar": "METAR LIPY 210950Z AUTO 35004KT 260V030 9999 BKN081/// 14/04 Q1013",
      "taf": "TAF LIPY 210500Z 2106/2206 VRB05KT 9999 FEW060"
    },
    {
      "icao": "LIPZ",
      "alert": "OK",
      "vis_m": 9999,
      "fzfg": false,
      "metar_trigger": false,
      "taf_trigger": false,
      "metar": "METAR LIPZ 210950Z 13006KT 100V160 CAVOK 13/03 Q1014 NOSIG",
      "taf": "TAF LIPZ 210500Z 2106/2212 VRB05KT CAVOK"
    },
    {
      "icao": "LIRF",
      "alert": "OK",
      "vis_m": 9999,
      "fzfg": false,
      "metar_trigger": false,
      "taf_trigger": false,
      "metar": "METAR LIRF 210950Z VRB04KT 9999 SCT055 15/02 Q1012 NOSIG",
      "taf": "TAF LIRF 210500Z 2106/2212 04012KT CAVOK"
    },
    {
      "icao": "LIRN",
      "alert": "OK",
      "vis_m": 9999,
      "fzfg": false,
      "metar_trigger": false,
      "taf_trigger": false,
      "metar": "METAR LIRN 210950Z 04010KT 360V070 9999 FEW050 13/01 Q1011 NOSIG",
      "taf": "TAF LIRN 210500Z 2106/2206 04006KT CAVOK"
    },
    {
      "icao": "LIRP",
      "alert": "OK",
      "vis_m": 9999,
      "fzfg": false,
      "metar_trigger": false,
      "taf_trigger": false,
      "metar": "METAR LIRP 210945Z VRB02KT CAVOK 13/02 Q1013 NOSIG",
      "taf": "TAF LIRP 210500Z 2106/2206 09010KT CAVOK"
    },
    {
      "icao": "LIRZ",
      "alert": "OK",
      "vis_m": 9999,
      "fzfg": false,
      "metar_trigger": false,
      "taf_trigger": false,
      "metar": "METAR LIRZ 210950Z AUTO 04010KT 9999 BKN064/// 11/02 Q1012",
      "taf": "TAF LIRZ 210500Z 2106/2206 03006KT 9999 FEW045"
    },
    {
      "icao": "LJLJ",
      "alert": "OK",
      "vis_m": 9999,
      "fzfg": false,
      "metar_trigger": false,
      "taf_trigger": false,
      "metar": "METAR LJLJ 210930Z VRB02KT 9999 FEW055 BKN075 08/01 Q1014 NOSIG",
      "taf": "TAF LJLJ 210500Z 2106/2206 13005KT 9999 FEW065 BKN085"
    },
    {
      "icao": "LKMT",
      "alert": "OK",
      "vis_m": 9999,
      "fzfg": false,
      "metar_trigger": false,
      "taf_trigger": false,
      "metar": "METAR LKMT 210930Z 04010KT 9999 SCT018 08/03 Q1017 NOSIG",
      "taf": "TAF LKMT 210500Z 2106/2206 06012KT 8000 SCT015 BKN030"
    },
    {
      "icao": "LKPR",
      "alert": "OK",
      "vis_m": 9999,
      "fzfg": false,
      "metar_trigger": false,
      "taf_trigger": false,
      "metar": "METAR LKPR 210930Z 08009KT 9999 -RA BKN014 BKN020 06/04 Q1017 NOSIG",
      "taf": "TAF LKPR 210800Z 2109/2215 04007KT 9999 BKN040"
    },
    {
      "icao": "LLBG",
      "alert": "OK",
      "vis_m": 9999,
      "fzfg": false,
      "metar_trigger": false,
      "taf_trigger": false,
      "metar": "METAR LLBG 210950Z 22018KT 9999 FEW040 19/09 Q1006 TEMPO 7000 RA FEW025TCU RMK BKN060",
      "taf": "TAF LLBG 210507Z 2106/2206 18010KT 9999 SCT035 TX18/2111Z TN12/2204Z"
    },
    {
      "icao": "LMML",
      "alert": "OK",
      "vis_m": 9999,
      "fzfg": false,
      "metar_trigger": false,
      "taf_trigger": false,
      "metar": "METAR LMML 210945Z 09005KT 040V140 9999 FEW028 16/08 Q1011 NOSIG",
      "taf": "TAF LMML 210500Z 2106/2206 29010KT 9999 FEW025"
    },
    {
      "icao": "LOWW",
      "alert": "OK",
      "vis_m": 9999,
      "fzfg": false,
      "metar_trigger": false,
      "taf_trigger": false,
      "metar": "METAR LOWW 210950Z VRB03KT 9999 FEW030 11/02 Q1016 BECMG 12010KT",
      "taf": "TAF LOWW 210815Z 2109/2215 07005KT 9999 FEW040 SCT050 TX13/2215Z TN03/2204Z"
    },
    {
      "icao": "LPFR",
      "alert": "OK",
      "vis_m": 9000,
      "fzfg": false,
      "metar_trigger": false,
      "taf_trigger": false,
      "metar": "METAR LPFR 210930Z 14015KT 9000 FEW007 SCT016 16/14 Q1008",
      "taf": "TAF LPFR 210500Z 2106/2206 13012KT 9999 SCT015 BKN030"
    },
    {
      "icao": "LPMA",
      "alert": "OK",
      "vis_m": 9000,
      "fzfg": false,
      "metar_trigger": false,
      "taf_trigger": false,
      "metar": "METAR LPMA 210930Z VRB04KT 9000 3000NE SHRA BKN012 FEW018CB 14/12 Q0998",
      "taf": "TAF LPMA 210500Z 2106/2206 20012KT 9999 SCT015"
    },
    {
      "icao": "LPPR",
      "alert": "OK",
      "vis_m": 9999,
      "fzfg": false,
      "metar_trigger": false,
      "taf_trigger": false,
      "metar": "METAR LPPR 210930Z 16006KT CAVOK 15/11 Q1010",
      "taf": "TAF LPPR 210500Z 2106/2206 09005KT 9999 FEW040"
    },
    {
      "icao": "LPPS",
      "alert": "OK",
      "vis_m": 9999,
      "fzfg": false,
      "metar_trigger": false,
      "taf_trigger": false,
      "metar": "METAR LPPS 210930Z 12010KT 9999 SCT008 15/14 Q0998",
      "taf": "TAF LPPS 210500Z 2106/2212 15012KT 9999 SCT015 SCT030"
    },
    {
      "icao": "LPPT",
      "alert": "OK",
      "vis_m": 9000,
      "fzfg": false,
      "metar_trigger": false,
      "taf_trigger": false,
      "metar": "METAR LPPT 210930Z 11007KT 9000 FEW004 BKN010 14/13 Q1009",
      "taf": ""
    },
    {
      "icao": "LQBK",
      "alert": "OK",
      "vis_m": 9999,
      "fzfg": false,
      "metar_trigger": false,
      "taf_trigger": false,
      "metar": "METAR LQBK 210930Z 04004KT 350V100 CAVOK 11/M01 Q1014 NOSIG",
      "taf": "TAF LQBK 210500Z 2106/2206 32005KT CAVOK TX13/2113Z TN03/2205Z"
    },
    {
      "icao": "LQSA",
      "alert": "OK",
      "vis_m": 9999,
      "fzfg": false,
      "metar_trigger": false,
      "taf_trigger": false,
      "metar": "METAR LQSA 210930Z 11010KT 9999 BKN065 08/M04 Q1012 NOSIG",
      "taf": "TAF LQSA 210500Z 2106/2206 34005KT 9999 SCT060 TX10/2113Z TN02/2205Z"
    },
    {
      "icao": "LQTZ",
      "alert": "OK",
      "vis_m": 9999,
      "fzfg": false,
      "metar_trigger": false,
      "taf_trigger": false,
      "metar": "METAR LQTZ 210930Z VRB06KT 9999 FEW060 11/00 Q1013",
      "taf": "TAF LQTZ 210500Z 2106/2206 27005KT 9999 SCT060 TX11/2113Z TN01/2205Z"
    },
    {
      "icao": "LRBC",
      "alert": "OK",
      "vis_m": 9999,
      "fzfg": false,
      "metar_trigger": false,
      "taf_trigger": false,
      "metar": "METAR LRBC 210930Z 01014KT 9999 SCT037 11/01 Q1016",
      "taf": "TAF LRBC 210800Z 2109/2118 36016KT CAVOK"
    },
    {
      "icao": "LRBS",
      "alert": "OK",
      "vis_m": 9999,
      "fzfg": false,
      "metar_trigger": false,
      "taf_trigger": false,
      "metar": "METAR LRBS 210930Z 04013KT 350V080 CAVOK 12/M01 Q1013 NOSIG",
      "taf": "TAF LRBS 210500Z 2106/2206 33005KT CAVOK"
    },
    {
      "icao": "LRBV",
      "alert": "OK",
      "vis_m": 9999,
      "fzfg": false,
      "metar_trigger": false,
      "taf_trigger": false,
      "metar": "METAR LRBV 210930Z 03004KT 340V100 9999 SCT054 BKN069 08/M03 Q1015",
      "taf": "TAF LRBV 210800Z 2109/2118 VRB04KT 9999 BKN045"
    },
    {
      "icao": "LRCL",
      "alert": "OK",
      "vis_m": 9999,
      "fzfg": false,
      "metar_trigger": false,
      "taf_trigger": false,
      "metar": "METAR LRCL 210930Z 08005KT 020V130 9999 FEW032 10/M01 Q1016",
      "taf": "TAF LRCL 210800Z 2109/2118 VRB04KT 9999 SCT045"
    },
    {
      "icao": "LRCV",
      "alert": "OK",
      "vis_m": 9999,
      "fzfg": false,
      "metar_trigger": false,
      "taf_trigger": false,
      "metar": "METAR LRCV 210930Z 10007KT 9999 SCT047 12/M01 Q1014",
      "taf": "TAF LRCV 210800Z 2109/2118 VRB04KT 9999 SCT045"
    },
    {
      "icao": "LRIA",
      "alert": "OK",
      "vis_m": 9999,
      "fzfg": false,
      "metar_trigger": false,
      "taf_trigger": false,
      "metar": "METAR LRIA 210930Z AUTO 36012KT 9999 SCT028 SCT037 09/01 Q1017",
      "taf": "TAF LRIA 210800Z 2109/2118 02012KT CAVOK"
    },
    {
      "icao": "LROP",
      "alert": "OK",
      "vis_m": 9999,
      "fzfg": false,
      "metar_trigger": false,
      "taf_trigger": false,
      "metar": "METAR LROP 210930Z 06020KT CAVOK 13/M05 Q1013 NOSIG",
      "taf": "TAF LROP 210500Z 2106/2206 33005KT CAVOK"
    },
    {
      "icao": "LRSB",
      "alert": "OK",
      "vis_m": 9999,
      "fzfg": false,
      "metar_trigger": false,
      "taf_trigger": false,
      "metar": "METAR LRSB 210930Z 07005KT 040V100 9999 FEW042 SCT055 BKN078 09/M03 Q1015 NOSIG",
      "taf": "TAF LRSB 210500Z 2106/2206 VRB04KT 9999 BKN070"
    },
    {
      "icao": "LRSM",
      "alert": "OK",
      "vis_m": 9999,
      "fzfg": false,
      "metar_trigger": false,
      "taf_trigger": false,
      "metar": "METAR LRSM 210930Z AUTO 02005KT 340V070 9999 BKN095/// 13/M01 Q1016",
      "taf": "TAF LRSM 210200Z 2103/2112 08005KT CAVOK"
    },
    {
      "icao": "LRSV",
      "alert": "OK",
      "vis_m": 9999,
      "fzfg": false,
      "metar_trigger": false,
      "taf_trigger": false,
      "metar": "METAR LRSV 210930Z 33012KT CAVOK 08/01 Q1017",
      "taf": "TAF LRSV 210800Z 2109/2118 34013KT CAVOK"
    },
    {
      "icao": "LRTM",
      "alert": "OK",
      "vis_m": 9999,
      "fzfg": false,
      "metar_trigger": false,
      "taf_trigger": false,
      "metar": "METAR LRTM 210930Z 03007KT 350V070 9999 SCT029 11/M03 Q1016",
      "taf": "TAF LRTM 210800Z 2109/2118 VRB04KT 9999 SCT045"
    },
    {
      "icao": "LRTR",
      "alert": "OK",
      "vis_m": 9999,
      "fzfg": false,
      "metar_trigger": false,
      "taf_trigger": false,
      "metar": "METAR LRTR 210930Z 11006KT 050V170 9999 FEW048 14/M08 Q1014",
      "taf": "TAF LRTR 210500Z 2106/2206 10008KT CAVOK"
    },
    {
      "icao": "LTAC",
      "alert": "OK",
      "vis_m": 9999,
      "fzfg": false,
      "metar_trigger": false,
      "taf_trigger": false,
      "metar": "METAR LTAC 210950Z 06011KT 030V090 9999 FEW015 SCT030 BKN080 09/05 Q1001 NOSIG RMK RWY21C 05015KT RWY03L 05012KT RWY21R 05014KT RWY03R 07011KT 030V090 RWY21L 08012KT 040V100",
      "taf": ""
    },
    {
      "icao": "LTFM",
      "alert": "OK",
      "vis_m": 4000,
      "fzfg": false,
      "metar_trigger": false,
      "taf_trigger": false,
      "metar": "METAR LTFM 210950Z 02019KT 4000 1100S R35R/1100N R17L/P1500N R34L/1500N R36/1100N -RA BR BKN004 BKN020 08/07 Q1007 NOSIG RMK RWY17L 02017KT RWY34L 01018KT RWY16R 02017KT RWY36 02019KT RWY18 03015KT",
      "taf": "TAF LTFM 210440Z 2106/2212 01018G28KT 3600 -RA BR BKN009 BKN022"
    },
    {
      "icao": "LUKK",
      "alert": "OK",
      "vis_m": 9999,
      "fzfg": false,
      "metar_trigger": false,
      "taf_trigger": false,
      "metar": "METAR LUKK 210930Z 03013KT 9999 OVC013 06/02 Q1016 NOSIG",
      "taf": "TAF LUKK 210513Z 2106/2206 03012KT 9999 SCT025"
    },
    {
      "icao": "LWOH",
      "alert": "OK",
      "vis_m": 9999,
      "fzfg": false,
      "metar_trigger": false,
      "taf_trigger": false,
      "metar": "METAR LWOH 210950Z 29007KT 240V350 9999 BKN050 08/M03 Q1010",
      "taf": "TAF LWOH 210815Z 2109/2209 34008KT 9999 FEW040 BKN070"
    },
    {
      "icao": "LWSK",
      "alert": "OK",
      "vis_m": 9999,
      "fzfg": false,
      "metar_trigger": false,
      "taf_trigger": false,
      "metar": "METAR LWSK 210950Z 30005KT 240V010 9999 FEW050 12/M00 Q1012 NOSIG",
      "taf": "TAF LWSK 210815Z 2109/2209 VRB02KT 9999 FEW060 SCT080"
    },
    {
      "icao": "LYBE",
      "alert": "OK",
      "vis_m": 9999,
      "fzfg": false,
      "metar_trigger": false,
      "taf_trigger": false,
      "metar": "METAR LYBE 210930Z 10005KT 010V150 CAVOK 12/M02 Q1014 NOSIG",
      "taf": "TAF LYBE 210500Z 2106/2206 02006KT 9999 SCT045 TX13/2113Z TN05/2205Z"
    },
    {
      "icao": "LYNI",
      "alert": "OK",
      "vis_m": 9999,
      "fzfg": false,
      "metar_trigger": false,
      "taf_trigger": false,
      "metar": "METAR LYNI 210930Z VRB03KT CAVOK 11/M00 Q1013 NOSIG",
      "taf": "TAF LYNI 210500Z 2106/2206 35004KT 9999 SCT050 SCT090 TX12/2113Z TN00/2106Z"
    },
    {
      "icao": "LYPG",
      "alert": "OK",
      "vis_m": 9999,
      "fzfg": false,
      "metar_trigger": false,
      "taf_trigger": false,
      "metar": "METAR LYPG 210930Z 22004KT 150V280 9999 FEW050 14/M05 Q1011 NOSIG",
      "taf": "TAF LYPG 210500Z 2106/2206 36006KT CAVOK TX16/2113Z TN03/2106Z"
    },
    {
      "icao": "LZIB",
      "alert": "OK",
      "vis_m": 9999,
      "fzfg": false,
      "metar_trigger": false,
      "taf_trigger": false,
      "metar": "METAR LZIB 210930Z 12005KT 060V160 CAVOK 11/00 Q1016 NOSIG",
      "taf": "TAF LZIB 210515Z 2106/2206 02004KT CAVOK"
    },
    {
      "icao": "LZKZ",
      "alert": "OK",
      "vis_m": 9999,
      "fzfg": false,
      "metar_trigger": false,
      "taf_trigger": false,
      "metar": "METAR LZKZ 210930Z 36011KT CAVOK 09/02 Q1017 NOSIG",
      "taf": "TAF LZKZ 210515Z 2106/2206 01008KT 9999 SCT043"
    },
    {
      "icao": "LZTT",
      "alert": "OK",
      "vis_m": 9999,
      "fzfg": false,
      "metar_trigger": false,
      "taf_trigger": false,
      "metar": "METAR LZTT 210930Z 08008KT 9999 FEW018 BKN026 04/M00 Q1017 NOSIG",
      "taf": "TAF LZTT 210515Z 2106/2206 VRB02KT 9999 SCT020 BKN040"
    },
    {
      "icao": "OEJN",
      "alert": "OK",
      "vis_m": 5000,
      "fzfg": false,
      "metar_trigger": false,
      "taf_trigger": false,
      "metar": "METAR OEJN 210900Z 33014KT 5000 BLDU NSC 30/07 Q1010 NOSIG",
      "taf": "TAF OEJN 210500Z 2106/2212 35012KT 7000 NSC"
    },
    {
      "icao": "OEMA",
      "alert": "OK",
      "vis_m": 5000,
      "fzfg": false,
      "metar_trigger": false,
      "taf_trigger": false,
      "metar": "METAR OEMA 210900Z 21005KT 5000 DU NSC 24/00 Q1013 NOSIG",
      "taf": "TAF OEMA 210500Z 2106/2212 28010KT 7000 NSC"
    },
    {
      "icao": "OJAI",
      "alert": "OK",
      "vis_m": 3500,
      "fzfg": false,
      "metar_trigger": false,
      "taf_trigger": false,
      "metar": "METAR OJAI 210900Z 24018KT 3500 BLDU NSC 14/04 Q1007 NOSIG",
      "taf": "TAF OJAI 210442Z 2106/2212 25012KT 5000 HZ SCT030 BKN035"
    },
    {
      "icao": "OMAA",
      "alert": "OK",
      "vis_m": null,
      "fzfg": false,
      "metar_trigger": false,
      "taf_trigger": false,
      "metar": "",
      "taf": ""
    },
    {
      "icao": "OMDB",
      "alert": "OK",
      "vis_m": null,
      "fzfg": false,
      "metar_trigger": false,
      "taf_trigger": false,
      "metar": "",
      "taf": ""
    },
    {
      "icao": "UAAA",
      "alert": "OK",
      "vis_m": 9999,
      "fzfg": false,
      "metar_trigger": false,
      "taf_trigger": false,
      "metar": "METAR UAAA 210930Z 02002MPS 9999 FEW050 SCT200 16/M01 Q1011 NOSIG",
      "taf": "TAF UAAA 210501Z 2106/2206 30005MPS 9999 FEW050 SCT100 TX15/2109Z TN02/2201Z"
    },
    {
      "icao": "UBBB",
      "alert": "OK",
      "vis_m": 9999,
      "fzfg": false,
      "metar_trigger": false,
      "taf_trigger": false,
      "metar": "METAR UBBB 210930Z 33006KT 9999 FEW028 16/07 Q1006 NOSIG",
      "taf": "TAF UBBB 210508Z 2106/2206 35008KT 9999 SCT025 TX15/2109Z TN09/2201Z"
    },
    {
      "icao": "UDSG",
      "alert": "OK",
      "vis_m": 9999,
      "fzfg": false,
      "metar_trigger": false,
      "taf_trigger": false,
      "metar": "METAR UDSG 210930Z 25013KT 210V280 9999 SCT030CB BKN046 09/02 Q1009 NOSIG",
      "taf": "TAF UDSG 210500Z 2106/2206 VRB06KT 9999 SCT050"
    },
    {
      "icao": "UDYZ",
      "alert": "OK",
      "vis_m": 9999,
      "fzfg": false,
      "metar_trigger": false,
      "taf_trigger": false,
      "metar": "METAR UDYZ 210930Z 19003KT 100V230 9999 SCT043CB 16/04 Q1006 NOSIG",
      "taf": "TAF UDYZ 210500Z 2106/2206 23006KT 9999 SCT040"
    },
    {
      "icao": "UGKO",
      "alert": "OK",
      "vis_m": 9999,
      "fzfg": false,
      "metar_trigger": false,
      "taf_trigger": false,
      "metar": "METAR UGKO 210930Z 25004KT 190V330 CAVOK 16/09 Q1004 NOSIG",
      "taf": "TAF UGKO 210500Z 2106/2206 26007KT CAVOK TX21/2111Z TN07/2203Z"
    }
  ]
}