{
  "ts_utc": "2025-12-27T13:53:47Z",
  "threshold_m": 150,
  "source": "stations_override.txt (ICAO list) + aviationweather.gov (METAR/TAF raw)",
  "station_count": 159,
  "stations": [
    {
      "icao": "BIKF",
      "alert": "OK",
      "vis_m": 9999,
      "fzfg": false,
      "metar_trigger": false,
      "taf_trigger": false,
      "metar": "METAR BIKF 271330Z 19016KT 9999 OVC028 06/02 Q1042",
      "taf": "TAF BIKF 271330Z 2715/2815 18015KT 9999 SCT015 OVC024 TX07/2721Z TN06/2815Z"
    },
    {
      "icao": "BKPR",
      "alert": "OK",
      "vis_m": null,
      "fzfg": false,
      "metar_trigger": false,
      "taf_trigger": false,
      "metar": "",
      "taf": "TAF BKPR 271130Z 2712/2812 35008KT 9999 FEW030"
    },
    {
      "icao": "EBCI",
      "alert": "OK",
      "vis_m": 9999,
      "fzfg": false,
      "metar_trigger": false,
      "taf_trigger": false,
      "metar": "METAR EBCI 271320Z 05009KT CAVOK 03/M04 Q1030 NOSIG",
      "taf": "TAF EBCI 271100Z 2712/2818 05008KT CAVOK"
    },
    {
      "icao": "EDDB",
      "alert": "OK",
      "vis_m": 1700,
      "fzfg": false,
      "metar_trigger": false,
      "taf_trigger": false,
      "metar": "METAR EDDB 271320Z AUTO 24012KT 1700 BR OVC002 M00/M00 Q1025 TEMPO 1400 BR",
      "taf": "TAF EDDB 271100Z 2712/2812 26010KT 5000 BR BKN005"
    },
    {
      "icao": "EDDH",
      "alert": "OK",
      "vis_m": 9999,
      "fzfg": false,
      "metar_trigger": false,
      "taf_trigger": false,
      "metar": "METAR EDDH 271320Z AUTO 31012KT 9999 OVC011 07/05 Q1029 BECMG BKN015",
      "taf": "TAF EDDH 271100Z 2712/2818 27004KT 8000 OVC008"
    },
    {
      "icao": "EDDK",
      "alert": "OK",
      "vis_m": 9999,
      "fzfg": false,
      "metar_trigger": false,
      "taf_trigger": false,
      "metar": "METAR EDDK 271320Z AUTO 25003KT 210V280 CAVOK 02/M02 Q1032 NOSIG",
      "taf": "TAF EDDK 271100Z 2712/2818 VRB03KT CAVOK"
    },
    {
      "icao": "EDDN",
      "alert": "OK",
      "vis_m": 9999,
      "fzfg": false,
      "metar_trigger": false,
      "taf_trigger": false,
      "metar": "METAR EDDN 271320Z AUTO 34004KT CAVOK 05/M06 Q1029 NOSIG",
      "taf": "TAF EDDN 271100Z 2712/2812 VRB02KT CAVOK"
    },
    {
      "icao": "EDDS",
      "alert": "OK",
      "vis_m": 9999,
      "fzfg": false,
      "metar_trigger": false,
      "taf_trigger": false,
      "metar": "METAR EDDS 271320Z AUTO 17003KT 120V210 CAVOK 04/M01 Q1027 NOSIG",
      "taf": "TAF EDDS 271100Z 2712/2812 04003KT CAVOK"
    },
    {
      "icao": "EDFH",
      "alert": "OK",
      "vis_m": 9999,
      "fzfg": false,
      "metar_trigger": false,
      "taf_trigger": false,
      "metar": "METAR EDFH 271320Z 04005KT CAVOK 06/M10 Q1029",
      "taf": "TAF EDFH 271100Z 2712/2812 07007KT CAVOK"
    },
    {
      "icao": "EDJA",
      "alert": "OK",
      "vis_m": 4400,
      "fzfg": false,
      "metar_trigger": false,
      "taf_trigger": false,
      "metar": "METAR EDJA 271320Z 33003KT 260V020 4400 BR SCT001 BKN003 OVC013 M03/M04 Q1027",
      "taf": "TAF EDJA 271100Z 2712/2721 VRB03KT 1000 BR BKN001"
    },
    {
      "icao": "EDLW",
      "alert": "OK",
      "vis_m": 9999,
      "fzfg": false,
      "metar_trigger": false,
      "taf_trigger": false,
      "metar": "METAR EDLW 271320Z 34006KT CAVOK 01/M06 Q1032",
      "taf": "TAF EDLW 271100Z 2712/2812 VRB03KT CAVOK"
    },
    {
      "icao": "EDNY",
      "alert": "OK",
      "vis_m": 9999,
      "fzfg": false,
      "metar_trigger": false,
      "taf_trigger": false,
      "metar": "METAR EDNY 271320Z 08003KT 050V120 9999 OVC010 M01/M03 Q1029",
      "taf": "TAF EDNY 271100Z 2712/2721 VRB03KT 9999 OVC009"
    },
    {
      "icao": "EDSB",
      "alert": "OK",
      "vis_m": 9999,
      "fzfg": false,
      "metar_trigger": false,
      "taf_trigger": false,
      "metar": "METAR EDSB 271320Z 00000KT CAVOK 04/M01 Q1029",
      "taf": "TAF EDSB 271100Z 2712/2812 VRB03KT 9000 FEW010"
    },
    {
      "icao": "EETN",
      "alert": "OK",
      "vis_m": 9999,
      "fzfg": false,
      "metar_trigger": false,
      "taf_trigger": false,
      "metar": "METAR EETN 271350Z 31019G31KT 9999 BKN040 04/M04 Q0997 NOSIG",
      "taf": "TAF EETN 271130Z 2712/2812 30016G28KT 9999 SCT025"
    },
    {
      "icao": "EFTU",
      "alert": "OK",
      "vis_m": 9000,
      "fzfg": false,
      "metar_trigger": false,
      "taf_trigger": false,
      "metar": "METAR EFTU 271350Z AUTO 30012KT 270V340 9000 -SN OVC010 01/M00 Q0999",
      "taf": "TAF EFTU 271124Z 2712/2812 31015G28KT 9999 SCT040"
    },
    {
      "icao": "EGBB",
      "alert": "OK",
      "vis_m": 6000,
      "fzfg": false,
      "metar_trigger": false,
      "taf_trigger": false,
      "metar": "METAR EGBB 271320Z 05011KT 030V090 6000 OVC009 06/04 Q1036",
      "taf": ""
    },
    {
      "icao": "EGGP",
      "alert": "OK",
      "vis_m": 9999,
      "fzfg": false,
      "metar_trigger": false,
      "taf_trigger": false,
      "metar": "METAR EGGP 271320Z 06006KT 9999 BKN024 06/02 Q1038",
      "taf": "TAF EGGP 271100Z 2712/2812 04008KT 9999 SCT018"
    },
    {
      "icao": "EGGW",
      "alert": "OK",
      "vis_m": 9999,
      "fzfg": false,
      "metar_trigger": false,
      "taf_trigger": false,
      "metar": "METAR EGGW 271320Z AUTO 05012KT 030V090 9999 OVC012 05/04 Q1034",
      "taf": ""
    },
    {
      "icao": "EGKK",
      "alert": "OK",
      "vis_m": 9999,
      "fzfg": false,
      "metar_trigger": false,
      "taf_trigger": false,
      "metar": "METAR EGKK 271320Z 05016KT 9999 SCT018 08/05 Q1033",
      "taf": "TAF EGKK 271055Z 2712/2818 05012KT 9999 SCT018"
    },
    {
      "icao": "EGNM",
      "alert": "OK",
      "vis_m": 9999,
      "fzfg": false,
      "metar_trigger": false,
      "taf_trigger": false,
      "metar": "METAR EGNM 271320Z 03008KT 360V070 9999 SCT011 BKN017 05/04 Q1038",
      "taf": "TAF EGNM 271100Z 2712/2812 04008KT 9999 BKN018"
    },
    {
      "icao": "EGPD",
      "alert": "OK",
      "vis_m": 9999,
      "fzfg": false,
      "metar_trigger": false,
      "taf_trigger": false,
      "metar": "METAR EGPD 271320Z COR AUTO 34007KT 9999 OVC031 07/05 Q1043 NOSIG",
      "taf": "TAF EGPD 271056Z 2712/2812 33006KT 9999 SCT015"
    },
    {
      "icao": "EGPF",
      "alert": "OK",
      "vis_m": 9999,
      "fzfg": false,
      "metar_trigger": false,
      "taf_trigger": false,
      "metar": "METAR EGPF 271320Z AUTO 08005KT 030V120 9999 OVC025 06/03 Q1042",
      "taf": "TAF EGPF 271055Z 2712/2812 06006KT 9999 SCT025"
    },
    {
      "icao": "EHBK",
      "alert": "OK",
      "vis_m": 9999,
      "fzfg": false,
      "metar_trigger": false,
      "taf_trigger": false,
      "metar": "METAR EHBK 271325Z AUTO 03011KT 360V060 9999 NSC 03/M05 Q1031 NOSIG",
      "taf": "TAF EHBK 271122Z 2712/2818 04008KT CAVOK"
    },
    {
      "icao": "EHEH",
      "alert": "OK",
      "vis_m": 9999,
      "fzfg": false,
      "metar_trigger": false,
      "taf_trigger": false,
      "metar": "METAR EHEH 271325Z AUTO 05010KT 030V090 9999 BKN006/// OVC007/// 03/01 Q1033 YLO TEMPO 2500 BR SCT002 BKN003 RMK TREND REMOTE BY EHWX",
      "taf": "TAF EHEH 271129Z 2712/2818 05007KT CAVOK"
    },
    {
      "icao": "EKBI",
      "alert": "OK",
      "vis_m": 9999,
      "fzfg": false,
      "metar_trigger": false,
      "taf_trigger": false,
      "metar": "METAR EKBI 271320Z AUTO 32012KT 290V350 9999 NCD 07/02 Q1028",
      "taf": "TAF EKBI 271127Z 2712/2812 31015KT 9999 FEW015"
    },
    {
      "icao": "EKCH",
      "alert": "OK",
      "vis_m": 9999,
      "fzfg": false,
      "metar_trigger": false,
      "taf_trigger": false,
      "metar": "METAR EKCH 271320Z AUTO 34015KT 9999 NCD 08/02 Q1025 NOSIG",
      "taf": "TAF EKCH 271127Z 2712/2812 30015KT CAVOK"
    },
    {
      "icao": "ENAL",
      "alert": "OK",
      "vis_m": 9999,
      "fzfg": false,
      "metar_trigger": false,
      "taf_trigger": false,
      "metar": "METAR ENAL 271320Z 34011KT 300V010 9999 VCSH SCT043 BKN051 04/M02 Q1039",
      "taf": "TAF ENAL 271100Z 2712/2721 30018KT 9999 FEW030 BKN040"
    },
    {
      "icao": "ENBR",
      "alert": "OK",
      "vis_m": 9999,
      "fzfg": false,
      "metar_trigger": false,
      "taf_trigger": false,
      "metar": "METAR ENBR 271320Z 33019G30KT 9999 SCT038 05/M03 Q1035 TEMPO 34018KT RMK WIND 1200FT 35029G40KT",
      "taf": "TAF ENBR 271100Z 2712/2812 34018KT 9999 FEW040"
    },
    {
      "icao": "ENGM",
      "alert": "OK",
      "vis_m": 9999,
      "fzfg": false,
      "metar_trigger": false,
      "taf_trigger": false,
      "metar": "METAR ENGM 271320Z 36014KT 310V030 CAVOK 03/M09 Q1024 WS ALL RWY TEMPO 34018G30KT",
      "taf": "TAF ENGM 271100Z 2712/2812 34015G28KT CAVOK"
    },
    {
      "icao": "ENHD",
      "alert": "OK",
      "vis_m": 9999,
      "fzfg": false,
      "metar_trigger": false,
      "taf_trigger": false,
      "metar": "METAR ENHD 271320Z 35027G38KT 9999 BKN036 07/M01 Q1034",
      "taf": "TAF ENHD 271100Z 2712/2721 35030KT 9999 FEW030"
    },
    {
      "icao": "ENTC",
      "alert": "OK",
      "vis_m": 9999,
      "fzfg": false,
      "metar_trigger": false,
      "taf_trigger": false,
      "metar": "METAR ENTC 271320Z 35023G35KT 9999 -SHSN FEW020 SCT033 BKN052 M02/M06 Q1012 TEMPO 35025G35KT 0500 +SHSN VV004 RMK WIND 2600FT 35059G72KT",
      "taf": "TAF ENTC 271100Z 2712/2812 36018KT 9999 SCT018CB BKN025"
    },
    {
      "icao": "ENTO",
      "alert": "OK",
      "vis_m": 9999,
      "fzfg": false,
      "metar_trigger": false,
      "taf_trigger": false,
      "metar": "METAR ENTO 271320Z 25004KT CAVOK 05/M04 Q1026 NOSIG",
      "taf": "TAF ENTO 271100Z 2712/2812 32008KT CAVOK"
    },
    {
      "icao": "ENVA",
      "alert": "OK",
      "vis_m": 4000,
      "fzfg": false,
      "metar_trigger": false,
      "taf_trigger": false,
      "metar": "METAR ENVA 271320Z 31020KT 4000 -SHSN VV017 01/M00 Q1030 TEMPO 30035G35KT 1500 SHSN VV010 RMK WIND 670FT 32030KT",
      "taf": ""
    },
    {
      "icao": "ENZV",
      "alert": "OK",
      "vis_m": 9999,
      "fzfg": false,
      "metar_trigger": false,
      "taf_trigger": false,
      "metar": "METAR ENZV 271320Z 34024G35KT CAVOK 06/M02 Q1034 TEMPO 34022KT",
      "taf": "TAF ENZV 271100Z 2712/2812 34025KT 9999 FEW008"
    },
    {
      "icao": "EPGD",
      "alert": "OK",
      "vis_m": 9999,
      "fzfg": false,
      "metar_trigger": false,
      "taf_trigger": false,
      "metar": "METAR EPGD 271330Z 30019KT 9999 BKN012 04/03 Q1016",
      "taf": ""
    },
    {
      "icao": "EPKK",
      "alert": "OK",
      "vis_m": 2500,
      "fzfg": false,
      "metar_trigger": false,
      "taf_trigger": false,
      "metar": "METAR EPKK 271330Z 25014KT 2500 BR OVC003 M02/M03 Q1021",
      "taf": "TAF EPKK 271130Z 2712/2812 25015KT 5000 BR OVC003"
    },
    {
      "icao": "EPKT",
      "alert": "OK",
      "vis_m": 1200,
      "fzfg": false,
      "metar_trigger": false,
      "taf_trigger": false,
      "metar": "METAR EPKT 271330Z 23010KT 1200 R26/1400D BR OVC002 M02/M02 Q1021",
      "taf": ""
    },
    {
      "icao": "EPLB",
      "alert": "OK",
      "vis_m": 1700,
      "fzfg": false,
      "metar_trigger": false,
      "taf_trigger": false,
      "metar": "METAR EPLB 271330Z 27019KT 1700 -FZDZ BR OVC002 M01/M01 Q1015",
      "taf": "TAF EPLB 271130Z 2712/2812 28013KT 3000 -DZ BR OVC003"
    },
    {
      "icao": "EPMO",
      "alert": "OK",
      "vis_m": 550,
      "fzfg": true,
      "metar_trigger": false,
      "taf_trigger": false,
      "metar": "METAR EPMO 271330Z 24018KT 0550 R08/0800N -FZDZ FZFG OVC001 M00/M00 Q1015",
      "taf": "TAF EPMO 271130Z 2712/2812 27015KT 2000 -DZ BR OVC002"
    },
    {
      "icao": "EPPO",
      "alert": "OK",
      "vis_m": 6000,
      "fzfg": false,
      "metar_trigger": false,
      "taf_trigger": false,
      "metar": "METAR EPPO 271330Z 27013KT 6000 OVC002 M01/M01 Q1020",
      "taf": "TAF EPPO 271130Z 2712/2812 28010KT 1400 BR OVC001"
    },
    {
      "icao": "EPRA",
      "alert": "OK",
      "vis_m": 3000,
      "fzfg": false,
      "metar_trigger": false,
      "taf_trigger": false,
      "metar": "METAR EPRA 271330Z 28014KT 3000 BR OVC003 M01/M01 Q1016",
      "taf": "TAF EPRA 271130Z 2712/2721 27012KT 3000 BR OVC003"
    },
    {
      "icao": "EPRZ",
      "alert": "OK",
      "vis_m": 1400,
      "fzfg": false,
      "metar_trigger": false,
      "taf_trigger": false,
      "metar": "METAR EPRZ 271330Z 25017KT 1400 R27/P2000N BR OVC002 M01/M02 Q1018",
      "taf": ""
    },
    {
      "icao": "EPSC",
      "alert": "OK",
      "vis_m": 4100,
      "fzfg": false,
      "metar_trigger": false,
      "taf_trigger": false,
      "metar": "METAR EPSC 271330Z 25007KT 4100 -DZ BR OVC002 02/02 Q1022",
      "taf": ""
    },
    {
      "icao": "EPSY",
      "alert": "OK",
      "vis_m": 9999,
      "fzfg": false,
      "metar_trigger": false,
      "taf_trigger": false,
      "metar": "METAR EPSY 271330Z 27012KT 220V300 9999 BKN004 OVC010 02/01 Q1013",
      "taf": "TAF EPSY 271130Z 2712/2721 26010KT 4000 BR OVC001"
    },
    {
      "icao": "EPWA",
      "alert": "OK",
      "vis_m": 1000,
      "fzfg": false,
      "metar_trigger": false,
      "taf_trigger": false,
      "metar": "METAR EPWA 271330Z 26017KT 1000 R33/1200N -FZDZ BR OVC001 M00/M00 Q1015 NOSIG",
      "taf": ""
    },
    {
      "icao": "EPWR",
      "alert": "OK",
      "vis_m": 9999,
      "fzfg": false,
      "metar_trigger": false,
      "taf_trigger": false,
      "metar": "METAR EPWR 271330Z 29013KT CAVOK 01/M03 Q1023",
      "taf": ""
    },
    {
      "icao": "ESGG",
      "alert": "OK",
      "vis_m": 9999,
      "fzfg": false,
      "metar_trigger": false,
      "taf_trigger": false,
      "metar": "METAR ESGG 271320Z 34009KT CAVOK 04/M02 Q1025",
      "taf": "TAF ESGG 271130Z 2712/2812 36012G22KT CAVOK"
    },
    {
      "icao": "ESKN",
      "alert": "OK",
      "vis_m": 9999,
      "fzfg": false,
      "metar_trigger": false,
      "taf_trigger": false,
      "metar": "METAR ESKN 271320Z 28017G28KT CAVOK 04/M05 Q1015",
      "taf": "TAF ESKN 271130Z 2712/2812 33018G32KT CAVOK"
    },
    {
      "icao": "ESMS",
      "alert": "OK",
      "vis_m": 9999,
      "fzfg": false,
      "metar_trigger": false,
      "taf_trigger": false,
      "metar": "METAR ESMS 271320Z 33012KT CAVOK 06/05 Q1023",
      "taf": "TAF ESMS 271127Z 2712/2812 32012KT CAVOK"
    },
    {
      "icao": "ESSA",
      "alert": "OK",
      "vis_m": 9999,
      "fzfg": false,
      "metar_trigger": false,
      "taf_trigger": false,
      "metar": "METAR ESSA 271320Z 28014KT CAVOK 03/M06 Q1011 BECMG 34020G32KT",
      "taf": ""
    },
    {
      "icao": "EYKA",
      "alert": "OK",
      "vis_m": 9999,
      "fzfg": false,
      "metar_trigger": false,
      "taf_trigger": false,
      "metar": "METAR EYKA 271350Z 28011KT 250V320 9999 BKN017 OVC028 06/03 Q1003",
      "taf": "TAF EYKA 271114Z 2712/2812 30015KT 9000 BKN030"
    },
    {
      "icao": "EYPA",
      "alert": "OK",
      "vis_m": 9999,
      "fzfg": false,
      "metar_trigger": false,
      "taf_trigger": false,
      "metar": "METAR EYPA 271350Z 35013G28KT 270V040 9999 SCT041 BKN049 06/M01 Q1009",
      "taf": "TAF EYPA 271106Z 2712/2812 33012G23KT 9000 SCT030"
    },
    {
      "icao": "EYVI",
      "alert": "OK",
      "vis_m": 8000,
      "fzfg": false,
      "metar_trigger": false,
      "taf_trigger": false,
      "metar": "METAR EYVI 271350Z 28012KT 240V320 8000 -DZ BKN005 04/03 Q1001 NOSIG",
      "taf": "TAF EYVI 271110Z 2712/2812 26016G26KT 9000 OVC002"
    },
    {
      "icao": "GCFV",
      "alert": "OK",
      "vis_m": 9999,
      "fzfg": false,
      "metar_trigger": false,
      "taf_trigger": false,
      "metar": "METAR GCFV 271330Z 28015KT 230V320 9999 FEW030 BKN040 20/12 Q1017",
      "taf": "TAF GCFV 270800Z 2709/2809 28005KT 9999 SCT035 TX22/2714Z TN15/2806Z"
    },
    {
      "icao": "GCLP",
      "alert": "OK",
      "vis_m": 9999,
      "fzfg": false,
      "metar_trigger": false,
      "taf_trigger": false,
      "metar": "METAR GCLP 271330Z 14009KT 9999 SCT045 21/12 Q1018 NOSIG",
      "taf": ""
    },
    {
      "icao": "GCTS",
      "alert": "OK",
      "vis_m": 9999,
      "fzfg": false,
      "metar_trigger": false,
      "taf_trigger": false,
      "metar": "METAR GCTS 271330Z 10007KT 060V140 9999 SCT040 21/10 Q1018 WS R07 NOSIG",
      "taf": "TAF GCTS 270800Z 2709/2809 VRB07KT 9999 SCT040 TX23/2714Z TN15/2806Z"
    },
    {
      "icao": "GMAD",
      "alert": "OK",
      "vis_m": 6000,
      "fzfg": false,
      "metar_trigger": false,
      "taf_trigger": false,
      "metar": "METAR GMAD 271330Z 25016KT 200V270 6000 BKN020TCU BKN080 15/15 Q1014 RESHRA NOSIG",
      "taf": "TAF GMAD 271100Z 2712/2818 05004KT 6000 BKN020TCU BKN080"
    },
    {
      "icao": "GMMN",
      "alert": "OK",
      "vis_m": 9999,
      "fzfg": false,
      "metar_trigger": false,
      "taf_trigger": false,
      "metar": "METAR GMMN 271330Z 25015KT 230V290 9999 SCT013TCU BKN020 17/13 Q1010 NOSIG",
      "taf": "TAF GMMN 271100Z 2712/2818 20018KT 9999 SCT008 SCT013TCU BKN020"
    },
    {
      "icao": "GMMX",
      "alert": "OK",
      "vis_m": 6000,
      "fzfg": false,
      "metar_trigger": false,
      "taf_trigger": false,
      "metar": "METAR GMMX 271330Z 20012KT 160V240 6000 FEW010 BKN016 12/10 Q1012 TEMPO 3000 RA",
      "taf": ""
    },
    {
      "icao": "HEGN",
      "alert": "OK",
      "vis_m": 9999,
      "fzfg": false,
      "metar_trigger": false,
      "taf_trigger": false,
      "metar": "METAR HEGN 271300Z 34018KT CAVOK 23/06 Q1011 NOSIG",
      "taf": "TAF HEGN 271100Z 2712/2818 34016KT CAVOK"
    },
    {
      "icao": "HEMA",
      "alert": "OK",
      "vis_m": null,
      "fzfg": false,
      "metar_trigger": false,
      "taf_trigger": false,
      "metar": "",
      "taf": "TAF HEMA 271100Z 2712/2818 35016KT CAVOK"
    },
    {
      "icao": "HESH",
      "alert": "OK",
      "vis_m": 9999,
      "fzfg": false,
      "metar_trigger": false,
      "taf_trigger": false,
      "metar": "METAR HESH 271300Z 02005KT CAVOK 24/09 Q1010 NOSIG",
      "taf": "TAF HESH 271100Z 2712/2818 36014KT CAVOK"
    },
    {
      "icao": "HESX",
      "alert": "OK",
      "vis_m": 9999,
      "fzfg": false,
      "metar_trigger": false,
      "taf_trigger": false,
      "metar": "METAR HESX 271300Z 30012KT 9999 SCT020 21/06 Q1012 NOSIG",
      "taf": "TAF HESX 271103Z 2712/2818 28012KT 9999 FEW025"
    },
    {
      "icao": "LATI",
      "alert": "OK",
      "vis_m": 9999,
      "fzfg": false,
      "metar_trigger": false,
      "taf_trigger": false,
      "metar": "METAR LATI 271350Z 34003KT 320V030 CAVOK 15/M02 Q1019 NOSIG",
      "taf": "TAF LATI 271100Z 2712/2812 VRB05KT CAVOK TX16/2712Z TNM01/2805Z"
    },
    {
      "icao": "LBPD",
      "alert": "OK",
      "vis_m": 9999,
      "fzfg": false,
      "metar_trigger": false,
      "taf_trigger": false,
      "metar": "METAR LBPD 271330Z AUTO 29018KT 9999 NCD 08/M01 Q1019 NOSIG",
      "taf": "TAF LBPD 271100Z 2712/2812 29018KT 9999 SCT020"
    },
    {
      "icao": "LBSF",
      "alert": "OK",
      "vis_m": 9999,
      "fzfg": false,
      "metar_trigger": false,
      "taf_trigger": false,
      "metar": "METAR LBSF 271330Z 30016KT 9999 SCT017 BKN020 01/M03 Q1022 NOSIG",
      "taf": "TAF LBSF 271100Z 2712/2812 29018KT 9999 BKN015"
    },
    {
      "icao": "LBWN",
      "alert": "OK",
      "vis_m": 9999,
      "fzfg": false,
      "metar_trigger": false,
      "taf_trigger": false,
      "metar": "METAR LBWN 271330Z 28009KT 9999 SCT046 04/M02 Q1019 NOSIG",
      "taf": "TAF LBWN 271100Z 2712/2812 32012KT 9999 SCT030"
    },
    {
      "icao": "LCLK",
      "alert": "OK",
      "vis_m": 9999,
      "fzfg": false,
      "metar_trigger": false,
      "taf_trigger": false,
      "metar": "METAR LCLK 271330Z 32016KT 9999 FEW020 FEW030TCU SCT050 18/09 Q1004 NOSIG",
      "taf": "TAF LCLK 271130Z 2712/2812 31009KT 9999 FEW025"
    },
    {
      "icao": "LCPH",
      "alert": "OK",
      "vis_m": 9999,
      "fzfg": false,
      "metar_trigger": false,
      "taf_trigger": false,
      "metar": "METAR LCPH 271330Z 33011KT 9999 FEW030 17/06 Q1006 NOSIG",
      "taf": "TAF LCPH 271130Z 2712/2812 30014KT 9999 FEW020 SCT035"
    },
    {
      "icao": "LEAL",
      "alert": "OK",
      "vis_m": 9999,
      "fzfg": false,
      "metar_trigger": false,
      "taf_trigger": false,
      "metar": "METAR LEAL 271330Z 11004KT 080V140 9999 SCT020 15/09 Q1015 NOSIG",
      "taf": "TAF LEAL 271100Z 2712/2812 31005KT 9999 SCT030 TX15/2713Z TN11/2806Z"
    },
    {
      "icao": "LEBB",
      "alert": "OK",
      "vis_m": 9999,
      "fzfg": false,
      "metar_trigger": false,
      "taf_trigger": false,
      "metar": "METAR LEBB 271330Z 27003KT 240V300 9999 BKN050 12/10 Q1018 NOSIG",
      "taf": "TAF LEBB 271100Z 2712/2812 11005KT 9999 FEW040 TX14/2715Z TN04/2806Z"
    },
    {
      "icao": "LEBL",
      "alert": "OK",
      "vis_m": 4000,
      "fzfg": false,
      "metar_trigger": false,
      "taf_trigger": false,
      "metar": "METAR LEBL 271330Z 04014G24KT 4000 SHRA FEW010CB BKN040 OVC050 11/11 Q1017 NOSIG",
      "taf": "TAF LEBL 271100Z 2712/2812 07012KT 9999 SCT014 TX14/2712Z TN11/2807Z"
    },
    {
      "icao": "LECH",
      "alert": "OK",
      "vis_m": 8000,
      "fzfg": false,
      "metar_trigger": false,
      "taf_trigger": false,
      "metar": "METAR LECH 271330Z AUTO 02009KT 340V050 8000 -RA SCT006 BKN021 OVC036 10/09 Q1016",
      "taf": ""
    },
    {
      "icao": "LEMD",
      "alert": "OK",
      "vis_m": 9999,
      "fzfg": false,
      "metar_trigger": false,
      "taf_trigger": false,
      "metar": "METAR LEMD 271330Z 08004KT 010V150 9999 SCT039 BKN047 10/04 Q1014 NOSIG",
      "taf": "TAF LEMD 271100Z 2712/2818 VRB03KT CAVOK TX12/2715Z TN00/2806Z"
    },
    {
      "icao": "LEMG",
      "alert": "OK",
      "vis_m": 9999,
      "fzfg": false,
      "metar_trigger": false,
      "taf_trigger": false,
      "metar": "METAR LEMG 271330Z 10020G30KT 9999 -RA FEW018 BKN068 14/10 Q1010 NOSIG",
      "taf": "TAF LEMG 271100Z 2712/2812 11020KT 9999 FEW045 TX15/2714Z TN12/2806Z"
    },
    {
      "icao": "LEVC",
      "alert": "OK",
      "vis_m": 9999,
      "fzfg": false,
      "metar_trigger": false,
      "taf_trigger": false,
      "metar": "METAR LEVC 271330Z VRB02KT 9999 FEW015 BKN020 13/10 Q1015 NOSIG",
      "taf": "TAF LEVC 271100Z 2712/2812 30005KT 9999 FEW015 BKN030 TX14/2713Z TN09/2806Z"
    },
    {
      "icao": "LEXJ",
      "alert": "OK",
      "vis_m": 9999,
      "fzfg": false,
      "metar_trigger": false,
      "taf_trigger": false,
      "metar": "METAR LEXJ 271330Z 11005KT 060V160 CAVOK 14/09 Q1017",
      "taf": "TAF LEXJ 270800Z 2709/2809 10009KT 9999 FEW060 TX13/2714Z TN06/2709Z"
    },
    {
      "icao": "LEZG",
      "alert": "OK",
      "vis_m": 8000,
      "fzfg": false,
      "metar_trigger": false,
      "taf_trigger": false,
      "metar": "METAR LEZG 271330Z VRB01KT 8000 2000SW SCT007 BKN010 10/09 Q1018 NOSIG",
      "taf": "TAF LEZG 271100Z 2712/2812 VRB05KT 9999 FEW010 BKN015 TX11/2714Z TN05/2806Z"
    },
    {
      "icao": "LEZL",
      "alert": "OK",
      "vis_m": 8000,
      "fzfg": false,
      "metar_trigger": false,
      "taf_trigger": false,
      "metar": "METAR LEZL 271330Z 34003KT 300V020 8000 -RA BKN038 11/08 Q1009 NOSIG",
      "taf": "TAF LEZL 270800Z 2709/2809 07007KT 9999 FEW030 TX16/2715Z TN08/2806Z"
    },
    {
      "icao": "LFBD",
      "alert": "OK",
      "vis_m": 9999,
      "fzfg": false,
      "metar_trigger": false,
      "taf_trigger": false,
      "metar": "METAR LFBD 271330Z AUTO 09011KT 050V120 9999 FEW030 BKN240 13/05 Q1020 NOSIG",
      "taf": "TAF LFBD 271100Z 2712/2818 06010KT CAVOK TX13/2714Z TN03/2805Z"
    },
    {
      "icao": "LFLL",
      "alert": "OK",
      "vis_m": 6000,
      "fzfg": false,
      "metar_trigger": false,
      "taf_trigger": false,
      "metar": "METAR LFLL 271330Z 03006KT 360V070 6000 OVC006 02/01 Q1027 NOSIG",
      "taf": "TAF LFLL 271100Z 2712/2818 36004KT 7000 BKN007"
    },
    {
      "icao": "LFLS",
      "alert": "OK",
      "vis_m": 9999,
      "fzfg": false,
      "metar_trigger": false,
      "taf_trigger": false,
      "metar": "METAR LFLS 271330Z AUTO 09008KT CAVOK 06/01 Q1025 NOSIG",
      "taf": ""
    },
    {
      "icao": "LFMN",
      "alert": "OK",
      "vis_m": 9999,
      "fzfg": false,
      "metar_trigger": false,
      "taf_trigger": false,
      "metar": "METAR LFMN 271330Z 27004KT CAVOK 16/03 Q1023 NOSIG",
      "taf": "TAF LFMN 270800Z 2709/2815 34014KT CAVOK"
    },
    {
      "icao": "LFOB",
      "alert": "OK",
      "vis_m": 9999,
      "fzfg": false,
      "metar_trigger": false,
      "taf_trigger": false,
      "metar": "METAR LFOB 271330Z AUTO 05009KT CAVOK 04/M01 Q1029 NOSIG",
      "taf": "TAF LFOB 271100Z 2712/2812 01006KT 8000 NSC"
    },
    {
      "icao": "LFPO",
      "alert": "OK",
      "vis_m": 9999,
      "fzfg": false,
      "metar_trigger": false,
      "taf_trigger": false,
      "metar": "METAR LFPO 271330Z AUTO 08007KT 9999 OVC011 01/M02 Q1029",
      "taf": "TAF LFPO 270500Z 2706/2812 03008KT CAVOK"
    },
    {
      "icao": "LFSB",
      "alert": "OK",
      "vis_m": 9999,
      "fzfg": false,
      "metar_trigger": false,
      "taf_trigger": false,
      "metar": "METAR LFSB 271330Z AUTO 08007KT 050V110 CAVOK 04/M01 Q1028 NOSIG",
      "taf": "TAF LFSB 271100Z 2712/2812 11008KT 9999 FEW016"
    },
    {
      "icao": "LGAV",
      "alert": "OK",
      "vis_m": 9999,
      "fzfg": false,
      "metar_trigger": false,
      "taf_trigger": false,
      "metar": "METAR LGAV 271320Z 35009KT 9999 -RA FEW020 BKN035 10/07 Q1020 NOSIG",
      "taf": "TAF LGAV 271100Z 2712/2812 02013KT 9999 FEW020 BKN030"
    },
    {
      "icao": "LGTS",
      "alert": "OK",
      "vis_m": 9999,
      "fzfg": false,
      "metar_trigger": false,
      "taf_trigger": false,
      "metar": "METAR LGTS 271320Z 34014KT CAVOK 10/00 Q1021 NOSIG",
      "taf": "TAF LGTS 271100Z 2712/2812 33015KT 9999 FEW025"
    },
    {
      "icao": "LHBP",
      "alert": "OK",
      "vis_m": 9999,
      "fzfg": false,
      "metar_trigger": false,
      "taf_trigger": false,
      "metar": "METAR LHBP 271330Z 23008KT CAVOK 05/M03 Q1023 NOSIG",
      "taf": "TAF LHBP 271115Z 2712/2812 24007KT CAVOK"
    },
    {
      "icao": "LHDC",
      "alert": "OK",
      "vis_m": 9999,
      "fzfg": false,
      "metar_trigger": false,
      "taf_trigger": false,
      "metar": "METAR LHDC 271315Z AUTO 22011KT 9999 FEW017 04/00 Q1023",
      "taf": "TAF LHDC 270815Z 2709/2718 22005KT CAVOK"
    },
    {
      "icao": "LIBD",
      "alert": "OK",
      "vis_m": 9999,
      "fzfg": false,
      "metar_trigger": false,
      "taf_trigger": false,
      "metar": "METAR LIBD 271320Z 31009KT 280V340 9999 SCT020 SCT035 13/07 Q1022",
      "taf": "TAF LIBD 271100Z 2712/2812 32013KT 9999 SCT020"
    },
    {
      "icao": "LIBG",
      "alert": "OK",
      "vis_m": 9999,
      "fzfg": false,
      "metar_trigger": false,
      "taf_trigger": false,
      "metar": "METAR LIBG 271250Z 35012KT 9999 FEW030 14/08 Q1020",
      "taf": "TAF LIBG 271100Z 2712/2721 35010KT 9999 FEW025"
    },
    {
      "icao": "LIBP",
      "alert": "OK",
      "vis_m": 9999,
      "fzfg": false,
      "metar_trigger": false,
      "taf_trigger": false,
      "metar": "METAR LIBP 271320Z AUTO 35006KT 310V010 9999 OVC027/// 10/05 Q1025",
      "taf": "TAF LIBP 271100Z 2712/2812 VRB05KT 9999 BKN030"
    },
    {
      "icao": "LIBR",
      "alert": "OK",
      "vis_m": 9999,
      "fzfg": false,
      "metar_trigger": false,
      "taf_trigger": false,
      "metar": "METAR LIBR 271320Z 36015KT 9999 FEW030 14/06 Q1020",
      "taf": "TAF LIBR 271100Z 2712/2812 35015KT 9999 SCT030"
    },
    {
      "icao": "LICA",
      "alert": "OK",
      "vis_m": 9999,
      "fzfg": false,
      "metar_trigger": false,
      "taf_trigger": false,
      "metar": "METAR LICA 271320Z AUTO 27005KT 9999 NCD 17/06 Q1019",
      "taf": "TAF LICA 271100Z 2712/2812 04010KT CAVOK"
    },
    {
      "icao": "LICC",
      "alert": "OK",
      "vis_m": 9999,
      "fzfg": false,
      "metar_trigger": false,
      "taf_trigger": false,
      "metar": "METAR LICC 271320Z 06013KT 9999 FEW020 BKN045 15/13 Q1020",
      "taf": "TAF LICC 271100Z 2712/2812 07016KT 9999 SCT040"
    },
    {
      "icao": "LICJ",
      "alert": "OK",
      "vis_m": 9999,
      "fzfg": false,
      "metar_trigger": false,
      "taf_trigger": false,
      "metar": "METAR LICJ 271320Z 06014KT CAVOK 17/12 Q1018",
      "taf": "TAF LICJ 271100Z 2712/2812 05012KT 9999 FEW040"
    },
    {
      "icao": "LIMC",
      "alert": "OK",
      "vis_m": 9999,
      "fzfg": false,
      "metar_trigger": false,
      "taf_trigger": false,
      "metar": "METAR LIMC 271320Z 25005KT CAVOK 10/03 Q1026 NOSIG",
      "taf": "TAF LIMC 271100Z 2712/2818 VRB05KT CAVOK"
    },
    {
      "icao": "LIME",
      "alert": "OK",
      "vis_m": 9999,
      "fzfg": false,
      "metar_trigger": false,
      "taf_trigger": false,
      "metar": "METAR LIME 271320Z 29003KT 230V340 CAVOK 10/03 Q1026 NOSIG",
      "taf": "TAF LIME 271100Z 2712/2812 VRB05KT CAVOK"
    },
    {
      "icao": "LIMF",
      "alert": "OK",
      "vis_m": 9999,
      "fzfg": false,
      "metar_trigger": false,
      "taf_trigger": false,
      "metar": "METAR LIMF 271320Z VRB01KT CAVOK 12/03 Q1026",
      "taf": "TAF LIMF 271100Z 2712/2812 VRB06KT CAVOK"
    },
    {
      "icao": "LIMJ",
      "alert": "OK",
      "vis_m": 9999,
      "fzfg": false,
      "metar_trigger": false,
      "taf_trigger": false,
      "metar": "METAR LIMJ 271320Z 04017KT CAVOK 13/01 Q1023",
      "taf": "TAF LIMJ 271100Z 2712/2812 03015KT CAVOK"
    },
    {
      "icao": "LIPE",
      "alert": "OK",
      "vis_m": 9999,
      "fzfg": false,
      "metar_trigger": false,
      "taf_trigger": false,
      "metar": "METAR LIPE 271320Z 29009KT CAVOK 10/03 Q1026",
      "taf": "TAF LIPE 271100Z 2712/2812 27010KT CAVOK"
    },
    {
      "icao": "LIPH",
      "alert": "OK",
      "vis_m": 9999,
      "fzfg": false,
      "metar_trigger": false,
      "taf_trigger": false,
      "metar": "METAR LIPH 271320Z 25006KT CAVOK 12/02 Q1024",
      "taf": "TAF LIPH 271100Z 2712/2812 VRB03KT CAVOK"
    },
    {
      "icao": "LIPQ",
      "alert": "OK",
      "vis_m": 9999,
      "fzfg": false,
      "metar_trigger": false,
      "taf_trigger": false,
      "metar": "METAR LIPQ 271320Z AUTO 31005KT 280V340 9999 NCD 13/02 Q1024",
      "taf": "TAF LIPQ 271100Z 2712/2812 VRB04KT CAVOK"
    },
    {
      "icao": "LIPR",
      "alert": "OK",
      "vis_m": 9999,
      "fzfg": false,
      "metar_trigger": false,
      "taf_trigger": false,
      "metar": "METAR LIPR 271320Z 30013KT CAVOK 10/03 Q1025",
      "taf": "TAF LIPR 271100Z 2712/2812 31012KT CAVOK"
    },
    {
      "icao": "LIPX",
      "alert": "OK",
      "vis_m": 9999,
      "fzfg": false,
      "metar_trigger": false,
      "taf_trigger": false,
      "metar": "METAR LIPX 271320Z 28008KT CAVOK 11/01 Q1025",
      "taf": "TAF LIPX 271100Z 2712/2812 VRB06KT CAVOK"
    },
    {
      "icao": "LIPY",
      "alert": "OK",
      "vis_m": 9999,
      "fzfg": false,
      "metar_trigger": false,
      "taf_trigger": false,
      "metar": "METAR LIPY 271320Z AUTO 34010KT 9999 NCD 10/04 Q1025",
      "taf": "TAF LIPY 271100Z 2712/2812 31010KT 9999 SCT030"
    },
    {
      "icao": "LIPZ",
      "alert": "OK",
      "vis_m": 9999,
      "fzfg": false,
      "metar_trigger": false,
      "taf_trigger": false,
      "metar": "METAR LIPZ 271320Z 26007KT 240V300 CAVOK 11/02 Q1025 NOSIG",
      "taf": "TAF LIPZ 271100Z 2712/2818 VRB05KT CAVOK"
    },
    {
      "icao": "LIRF",
      "alert": "OK",
      "vis_m": 9999,
      "fzfg": false,
      "metar_trigger": false,
      "taf_trigger": false,
      "metar": "METAR LIRF 271320Z 35004KT 320V040 CAVOK 15/03 Q1021 NOSIG",
      "taf": "TAF LIRF 271100Z 2712/2818 05010KT CAVOK"
    },
    {
      "icao": "LIRN",
      "alert": "OK",
      "vis_m": 9999,
      "fzfg": false,
      "metar_trigger": false,
      "taf_trigger": false,
      "metar": "METAR LIRN 271320Z AUTO 05007KT 010V080 9999 NCD 15/03 Q1021",
      "taf": "TAF LIRN 271100Z 2712/2812 03011KT CAVOK"
    },
    {
      "icao": "LIRP",
      "alert": "OK",
      "vis_m": 9999,
      "fzfg": false,
      "metar_trigger": false,
      "taf_trigger": false,
      "metar": "METAR LIRP 271315Z 12005KT CAVOK 13/03 Q1023 NOSIG",
      "taf": "TAF LIRP 271100Z 2712/2812 09008KT CAVOK"
    },
    {
      "icao": "LIRZ",
      "alert": "OK",
      "vis_m": 9999,
      "fzfg": false,
      "metar_trigger": false,
      "taf_trigger": false,
      "metar": "METAR LIRZ 271320Z AUTO 01010KT 9999 NCD 12/03 Q1022",
      "taf": "TAF LIRZ 271100Z 2712/2812 01010KT 9999 FEW030"
    },
    {
      "icao": "LJLJ",
      "alert": "OK",
      "vis_m": 500,
      "fzfg": true,
      "metar_trigger": false,
      "taf_trigger": false,
      "metar": "METAR LJLJ 271330Z 00000KT 0500 R30/0600N FZFG VV002 M01/M01 Q1026 NOSIG",
      "taf": "TAF LJLJ 271100Z 2712/2812 30002KT 0400 FZFG VV002"
    },
    {
      "icao": "LKMT",
      "alert": "OK",
      "vis_m": 9999,
      "fzfg": false,
      "metar_trigger": false,
      "taf_trigger": false,
      "metar": "METAR LKMT 271330Z 23008KT 4500 BR BKN005 M01/M01 Q1023 BECMG CAVOK",
      "taf": "TAF LKMT 271100Z 2712/2812 23008KT 6000 OVC007"
    },
    {
      "icao": "LKPR",
      "alert": "OK",
      "vis_m": 9999,
      "fzfg": false,
      "metar_trigger": false,
      "taf_trigger": false,
      "metar": "METAR LKPR 271330Z 20010KT CAVOK 04/M03 Q1025 NOSIG",
      "taf": "TAF LKPR 271100Z 2712/2818 23005KT CAVOK"
    },
    {
      "icao": "LLBG",
      "alert": "OK",
      "vis_m": 9999,
      "fzfg": false,
      "metar_trigger": false,
      "taf_trigger": false,
      "metar": "METAR LLBG 271350Z 20013KT 9999 FEW030TCU 16/14 Q1009 TEMPO 24020G30KT 5000 TSRA FEW025CB RMK SCT060 BKN070",
      "taf": "TAF LLBG 271111Z 2712/2812 22012KT 9999 SCT030 BKN040"
    },
    {
      "icao": "LMML",
      "alert": "OK",
      "vis_m": 9999,
      "fzfg": false,
      "metar_trigger": false,
      "taf_trigger": false,
      "metar": "METAR LMML 271345Z 06017KT 9999 FEW013TCU 16/13 Q1017 NOSIG",
      "taf": "TAF LMML 271100Z 2712/2812 07017KT 9999 SCT020"
    },
    {
      "icao": "LOWW",
      "alert": "OK",
      "vis_m": 9999,
      "fzfg": false,
      "metar_trigger": false,
      "taf_trigger": false,
      "metar": "METAR LOWW 271320Z 36006KT 340V040 CAVOK 04/M03 Q1026 NOSIG",
      "taf": "TAF LOWW 271115Z 2712/2818 35007KT CAVOK TX04/2814Z TN01/2807Z"
    },
    {
      "icao": "LPFR",
      "alert": "OK",
      "vis_m": 2500,
      "fzfg": false,
      "metar_trigger": false,
      "taf_trigger": false,
      "metar": "METAR LPFR 271330Z 05017KT 2500 R10/0800N RA BR SCT007 SCT012 FEW018CB BKN020 11/10 Q1004",
      "taf": "TAF LPFR 271100Z 2712/2812 09017KT 9999 SCT015 BKN030"
    },
    {
      "icao": "LPMA",
      "alert": "OK",
      "vis_m": 9999,
      "fzfg": false,
      "metar_trigger": false,
      "taf_trigger": false,
      "metar": "METAR LPMA 271330Z 35015G25KT 9999 SCT015 19/09 Q1015",
      "taf": "TAF LPMA 271100Z 2712/2812 32010KT 9999 SCT015"
    },
    {
      "icao": "LPPR",
      "alert": "OK",
      "vis_m": 9999,
      "fzfg": false,
      "metar_trigger": false,
      "taf_trigger": false,
      "metar": "METAR LPPR 271330Z 11006KT 060V140 CAVOK 13/02 Q1012",
      "taf": "TAF LPPR 271100Z 2712/2812 08010KT CAVOK"
    },
    {
      "icao": "LPPS",
      "alert": "OK",
      "vis_m": 9999,
      "fzfg": false,
      "metar_trigger": false,
      "taf_trigger": false,
      "metar": "METAR LPPS 271330Z 33019G30KT 9999 SCT015 FEW018TCU 16/10 Q1015",
      "taf": "TAF LPPS 271100Z 2712/2818 30017KT 9999 SCT015"
    },
    {
      "icao": "LPPT",
      "alert": "OK",
      "vis_m": 9999,
      "fzfg": false,
      "metar_trigger": false,
      "taf_trigger": false,
      "metar": "METAR LPPT 271330Z 05012KT 020V080 9999 FEW020 BKN030 10/06 Q1007",
      "taf": "TAF LPPT 271100Z 2712/2818 05013KT 9999 FEW030"
    },
    {
      "icao": "LQBK",
      "alert": "OK",
      "vis_m": 9999,
      "fzfg": false,
      "metar_trigger": false,
      "taf_trigger": false,
      "metar": "METAR LQBK 271330Z VRB02KT CAVOK 07/01 Q1026 NOSIG",
      "taf": "TAF LQBK 271100Z 2712/2812 VRB03KT CAVOK TX08/2713Z TNM03/2805Z"
    },
    {
      "icao": "LQSA",
      "alert": "OK",
      "vis_m": 9999,
      "fzfg": false,
      "metar_trigger": false,
      "taf_trigger": false,
      "metar": "METAR LQSA 271330Z VRB02KT 9999 FEW020 BKN035 01/M01 Q1026 NOSIG",
      "taf": "TAF LQSA 271100Z 2712/2812 VRB02KT 9999 FEW025 BKN030 TX04/2713Z TNM04/2805Z"
    },
    {
      "icao": "LQTZ",
      "alert": "OK",
      "vis_m": 9999,
      "fzfg": false,
      "metar_trigger": false,
      "taf_trigger": false,
      "metar": "METAR LQTZ 271330Z 30005KT 260V350 CAVOK 07/M00 Q1026",
      "taf": "TAF LQTZ 271100Z 2712/2812 30005KT CAVOK TX06/2713Z TNM04/2805Z"
    },
    {
      "icao": "LRBC",
      "alert": "OK",
      "vis_m": 9999,
      "fzfg": false,
      "metar_trigger": false,
      "taf_trigger": false,
      "metar": "METAR LRBC 271330Z 01005KT 340V040 9999 SCT023 03/M01 Q1017",
      "taf": "TAF LRBC 271100Z 2712/2721 32012KT 9999 BKN025"
    },
    {
      "icao": "LRBS",
      "alert": "OK",
      "vis_m": 700,
      "fzfg": true,
      "metar_trigger": false,
      "taf_trigger": false,
      "metar": "METAR LRBS 271330Z 24005KT 0700 R07/1600D FZFG OVC001 M01/M01 Q1020 NOSIG",
      "taf": "TAF LRBS 271100Z 2712/2812 25008KT 0800 FZFG OVC002"
    },
    {
      "icao": "LRBV",
      "alert": "OK",
      "vis_m": 9999,
      "fzfg": false,
      "metar_trigger": false,
      "taf_trigger": false,
      "metar": "METAR LRBV 271330Z 30008KT 270V350 9999 BKN026 00/M04 Q1020",
      "taf": "TAF LRBV 271100Z 2712/2721 31010KT 9999 BKN025"
    },
    {
      "icao": "LRCL",
      "alert": "OK",
      "vis_m": 9999,
      "fzfg": false,
      "metar_trigger": false,
      "taf_trigger": false,
      "metar": "METAR LRCL 271330Z 35007KT 9999 FEW030 04/M03 Q1022",
      "taf": "TAF LRCL 271100Z 2712/2721 30009KT CAVOK"
    },
    {
      "icao": "LRCV",
      "alert": "OK",
      "vis_m": 9999,
      "fzfg": false,
      "metar_trigger": false,
      "taf_trigger": false,
      "metar": "METAR LRCV 271330Z 27009KT CAVOK 03/M00 Q1020",
      "taf": "TAF LRCV 271100Z 2712/2721 27010KT CAVOK"
    },
    {
      "icao": "LRIA",
      "alert": "OK",
      "vis_m": 9999,
      "fzfg": false,
      "metar_trigger": false,
      "taf_trigger": false,
      "metar": "METAR LRIA 271330Z 29008KT 250V330 9999 FEW014 BKN019 02/M01 Q1017",
      "taf": "TAF LRIA 271100Z 2712/2721 30014KT 9999 BKN015 OVC025"
    },
    {
      "icao": "LROP",
      "alert": "OK",
      "vis_m": 500,
      "fzfg": true,
      "metar_trigger": false,
      "taf_trigger": false,
      "metar": "METAR LROP 271330Z 23005KT 0500 R08R/1000N R08L/1300U FZFG OVC001 M01/M01 Q1020 NOSIG",
      "taf": "TAF LROP 271100Z 2712/2812 25008KT 0600 FZFG OVC002"
    },
    {
      "icao": "LRSB",
      "alert": "OK",
      "vis_m": 9999,
      "fzfg": false,
      "metar_trigger": false,
      "taf_trigger": false,
      "metar": "METAR LRSB 271330Z 30006KT 9999 FEW022 02/M02 Q1021",
      "taf": "TAF LRSB 271100Z 2712/2812 VRB04KT 9999 SCT020"
    },
    {
      "icao": "LRSM",
      "alert": "OK",
      "vis_m": 9999,
      "fzfg": false,
      "metar_trigger": false,
      "taf_trigger": false,
      "metar": "METAR LRSM 271330Z AUTO 24008KT 9999 FEW240/// 03/M01 Q1022",
      "taf": ""
    },
    {
      "icao": "LRSV",
      "alert": "OK",
      "vis_m": 9999,
      "fzfg": false,
      "metar_trigger": false,
      "taf_trigger": false,
      "metar": "METAR LRSV 271330Z 33006KT CAVOK 00/M02 Q1015",
      "taf": "TAF LRSV 271100Z 2712/2721 33016KT 9999 SCT025"
    },
    {
      "icao": "LRTM",
      "alert": "OK",
      "vis_m": 9999,
      "fzfg": false,
      "metar_trigger": false,
      "taf_trigger": false,
      "metar": "METAR LRTM 271330Z VRB02KT 9999 FEW020 BKN037 01/M03 Q1022",
      "taf": "TAF LRTM 271100Z 2712/2721 31006KT 9999 SCT015 BKN025"
    },
    {
      "icao": "LRTR",
      "alert": "OK",
      "vis_m": 8000,
      "fzfg": false,
      "metar_trigger": false,
      "taf_trigger": false,
      "metar": "METAR LRTR 271330Z 26006KT 230V310 8000 SCT004 SCT013 01/00 Q1026",
      "taf": "TAF LRTR 271100Z 2712/2812 30006KT 9999 BKN010"
    },
    {
      "icao": "LTAC",
      "alert": "OK",
      "vis_m": 9999,
      "fzfg": false,
      "metar_trigger": false,
      "taf_trigger": false,
      "metar": "METAR LTAC 271320Z 33006KT 300V360 9999 SCT040 BKN100 01/M08 Q1010 NOSIG RMK RWY21C 32010KT RWY03L 34006KT RWY21R 31009KT RWY03R 31008KT RWY21L 32009KT 270V330",
      "taf": "TAF LTAC 271040Z 2712/2812 32012KT 9999 SCT040 BKN100"
    },
    {
      "icao": "LTFM",
      "alert": "OK",
      "vis_m": 9999,
      "fzfg": false,
      "metar_trigger": false,
      "taf_trigger": false,
      "metar": "METAR LTFM 271320Z 34017KT 9999 BKN025 05/M01 Q1019 NOSIG RMK RWY17L 34016KT RWY34L 33017KT RWY16R 34014KT RWY36 34018KT RWY18 35018KT",
      "taf": "TAF LTFM 271040Z 2712/2818 35020G30KT 9999 BKN025"
    },
    {
      "icao": "LUKK",
      "alert": "OK",
      "vis_m": 9999,
      "fzfg": false,
      "metar_trigger": false,
      "taf_trigger": false,
      "metar": "METAR LUKK 271330Z 32010KT 9999 BKN019 BKN025 OVC030 02/M01 Q1015 NOSIG",
      "taf": "TAF LUKK 271109Z 2712/2812 33014KT 9999 SCT015 OVC020"
    },
    {
      "icao": "LWOH",
      "alert": "OK",
      "vis_m": 9999,
      "fzfg": false,
      "metar_trigger": false,
      "taf_trigger": false,
      "metar": "METAR LWOH 271350Z 27007KT 240V320 CAVOK 09/M01 Q1020",
      "taf": "TAF LWOH 271110Z 2712/2812 33010KT CAVOK"
    },
    {
      "icao": "LWSK",
      "alert": "OK",
      "vis_m": 9999,
      "fzfg": false,
      "metar_trigger": false,
      "taf_trigger": false,
      "metar": "METAR LWSK 271350Z 02014KT CAVOK 07/M01 Q1023 NOSIG",
      "taf": "TAF LWSK 271110Z 2712/2812 02015KT CAVOK"
    },
    {
      "icao": "LYBE",
      "alert": "OK",
      "vis_m": 9999,
      "fzfg": false,
      "metar_trigger": false,
      "taf_trigger": false,
      "metar": "METAR LYBE 271330Z 29006KT 9999 SCT019 04/M00 Q1026 NOSIG",
      "taf": "TAF LYBE 271100Z 2712/2812 30008KT 9999 BKN015 TX04/2812Z TNM01/2803Z"
    },
    {
      "icao": "LYNI",
      "alert": "OK",
      "vis_m": 9999,
      "fzfg": false,
      "metar_trigger": false,
      "taf_trigger": false,
      "metar": "METAR LYNI 271330Z 32008KT 9999 SCT013 BKN017 02/M01 Q1026 NOSIG",
      "taf": "TAF LYNI 271100Z 2712/2812 31008KT 9999 BKN012 TX02/2712Z TNM01/2802Z"
    },
    {
      "icao": "LYPG",
      "alert": "OK",
      "vis_m": 9999,
      "fzfg": false,
      "metar_trigger": false,
      "taf_trigger": false,
      "metar": "METAR LYPG 271330Z 11005KT CAVOK 12/M01 Q1020 NOSIG",
      "taf": "TAF LYPG 271100Z 2712/2812 16007KT CAVOK TX15/2713Z TN02/2801Z"
    },
    {
      "icao": "LZIB",
      "alert": "OK",
      "vis_m": 9999,
      "fzfg": false,
      "metar_trigger": false,
      "taf_trigger": false,
      "metar": "METAR LZIB 271330Z 26007KT CAVOK 05/M03 Q1025 NOSIG",
      "taf": "TAF LZIB 271115Z 2712/2812 30011KT CAVOK"
    },
    {
      "icao": "LZKZ",
      "alert": "OK",
      "vis_m": 9999,
      "fzfg": false,
      "metar_trigger": false,
      "taf_trigger": false,
      "metar": "METAR LZKZ 271330Z 15005KT CAVOK 03/M01 Q1021 NOSIG",
      "taf": "TAF LZKZ 271115Z 2712/2812 VRB02KT CAVOK"
    },
    {
      "icao": "LZTT",
      "alert": "OK",
      "vis_m": 9999,
      "fzfg": false,
      "metar_trigger": false,
      "taf_trigger": false,
      "metar": "METAR LZTT 271330Z 26011KT CAVOK 04/M05 Q1018 NOSIG",
      "taf": "TAF LZTT 271115Z 2712/2812 26010KT CAVOK"
    },
    {
      "icao": "OEJN",
      "alert": "OK",
      "vis_m": 9999,
      "fzfg": false,
      "metar_trigger": false,
      "taf_trigger": false,
      "metar": "METAR OEJN 271300Z 29007KT CAVOK 28/18 Q1009 NOSIG",
      "taf": "TAF OEJN 271100Z 2712/2818 30010KT 9999 SCT040"
    },
    {
      "icao": "OEMA",
      "alert": "OK",
      "vis_m": 9999,
      "fzfg": false,
      "metar_trigger": false,
      "taf_trigger": false,
      "metar": "METAR OEMA 271300Z 22011KT 9999 FEW045 26/03 Q1011 NOSIG",
      "taf": "TAF OEMA 271100Z 2712/2818 27014KT 7000 SCT045"
    },
    {
      "icao": "OJAI",
      "alert": "OK",
      "vis_m": 3000,
      "fzfg": false,
      "metar_trigger": false,
      "taf_trigger": false,
      "metar": "METAR OJAI 271300Z 23019KT 3000 BLDU SCT025 SCT030 11/08 Q1010 NOSIG",
      "taf": "TAF OJAI 271100Z 2712/2818 25018KT 3000 RA BR SCT025TCU BKN030"
    },
    {
      "icao": "OMAA",
      "alert": "OK",
      "vis_m": 9999,
      "fzfg": false,
      "metar_trigger": false,
      "taf_trigger": false,
      "metar": "METAR OMAA 271300Z 32008KT CAVOK 24/14 Q1013 NOSIG",
      "taf": "TAF OMAA 271100Z 2712/2818 34008KT 8000 FEW040"
    },
    {
      "icao": "OMDB",
      "alert": "OK",
      "vis_m": 9999,
      "fzfg": false,
      "metar_trigger": false,
      "taf_trigger": false,
      "metar": "METAR OMDB 271330Z 34004KT 280V030 CAVOK 24/15 Q1013 NOSIG",
      "taf": "TAF OMDB 271100Z 2712/2818 32010KT 8000 FEW040"
    },
    {
      "icao": "UAAA",
      "alert": "OK",
      "vis_m": 3000,
      "fzfg": false,
      "metar_trigger": false,
      "taf_trigger": false,
      "metar": "METAR UAAA 271330Z VRB01MPS 3000 BR BKN007 OVC100 M00/M02 Q1019 NOSIG",
      "taf": "TAF UAAA 271102Z 2712/2812 20003MPS 1500 BR FU BKN011 OVC030 TX00/2809Z TNM05/2801Z"
    },
    {
      "icao": "UBBB",
      "alert": "OK",
      "vis_m": 8000,
      "fzfg": false,
      "metar_trigger": false,
      "taf_trigger": false,
      "metar": "METAR UBBB 271330Z 19012KT 8000 SCT014 08/06 Q1002 NOSIG",
      "taf": "TAF UBBB 271036Z 2712/2812 20020G30KT 9999 SCT025 TX09/2711Z TN04/2802Z"
    },
    {
      "icao": "UDSG",
      "alert": "OK",
      "vis_m": 1200,
      "fzfg": false,
      "metar_trigger": false,
      "taf_trigger": false,
      "metar": "METAR UDSG 271330Z 36011KT 1200 R02/1200U SN BR OVC010 M03/M03 Q1001 NOSIG",
      "taf": "TAF UDSG 271100Z 2712/2812 VRB06KT 3000 BR BKN020"
    },
    {
      "icao": "UDYZ",
      "alert": "OK",
      "vis_m": 9000,
      "fzfg": false,
      "metar_trigger": false,
      "taf_trigger": false,
      "metar": "METAR UDYZ 271330Z 34003KT 9000 BKN046 06/00 Q1000 NOSIG",
      "taf": "TAF UDYZ 271100Z 2712/2812 VRB06KT 3500 BR SCT040"
    },
    {
      "icao": "UGKO",
      "alert": "OK",
      "vis_m": 9999,
      "fzfg": false,
      "metar_trigger": false,
      "taf_trigger": false,
      "metar": "METAR UGKO 271330Z 24005KT 9999 -SHRA SCT019CB OVC050 03/02 Q1009 NOSIG",
      "taf": "TAF UGKO 271100Z 2712/2812 24007KT 9999 SCT015 OVC050 TX04/2811Z TNM01/2804Z"
    }
  ]
}