{
  "ts_utc": "2026-02-16T23:03:16Z",
  "threshold_m": 150,
  "source": "stations_override.txt (ICAO list) + aviationweather.gov (METAR/TAF raw)",
  "station_count": 159,
  "stations": [
    {
      "icao": "BIKF",
      "alert": "OK",
      "vis_m": 9999,
      "fzfg": false,
      "metar_trigger": false,
      "taf_trigger": false,
      "metar": "METAR BIKF 162230Z 08006KT CAVOK M04/M12 Q1013",
      "taf": "TAF BIKF 162234Z 1700/1800 02010KT 9999 FEW025 TXM01/1714Z TNM05/1700Z"
    },
    {
      "icao": "BKPR",
      "alert": "OK",
      "vis_m": 9999,
      "fzfg": false,
      "metar_trigger": false,
      "taf_trigger": false,
      "metar": "METAR BKPR 162300Z 16005KT 9999 BKN055 05/04 Q0999 NOSIG",
      "taf": "TAF BKPR 161730Z 1618/1718 23010KT 9999 SCT030 BKN080"
    },
    {
      "icao": "EBCI",
      "alert": "OK",
      "vis_m": 9999,
      "fzfg": false,
      "metar_trigger": false,
      "taf_trigger": false,
      "metar": "METAR EBCI 162250Z 26007KT 230V290 9999 FEW009 SCT014 BKN017 04/02 Q1002 NOSIG",
      "taf": "TAF EBCI 161710Z 1618/1724 26013KT 9999 FEW015TCU SCT030"
    },
    {
      "icao": "EDDB",
      "alert": "OK",
      "vis_m": 9999,
      "fzfg": false,
      "metar_trigger": false,
      "taf_trigger": false,
      "metar": "METAR EDDB 162250Z AUTO 09006KT 060V120 9999 BKN010 OVC035 M03/M06 Q0998 TEMPO 4500 -SN BKN008",
      "taf": "TAF EDDB 161700Z 1618/1718 09006KT 8000 BKN012"
    },
    {
      "icao": "EDDH",
      "alert": "OK",
      "vis_m": 4700,
      "fzfg": false,
      "metar_trigger": false,
      "taf_trigger": false,
      "metar": "METAR EDDH 162250Z AUTO 12005KT 4700 -SN BR FEW010 BKN027 BKN035 M03/M04 Q0997 TEMPO 5000 BKN012",
      "taf": ""
    },
    {
      "icao": "EDDK",
      "alert": "OK",
      "vis_m": 9999,
      "fzfg": false,
      "metar_trigger": false,
      "taf_trigger": false,
      "metar": "METAR EDDK 162250Z AUTO 27006KT 9999 -RA OVC006 02/01 Q0999 TEMPO SHRA SCT006 BKN010CB",
      "taf": ""
    },
    {
      "icao": "EDDN",
      "alert": "OK",
      "vis_m": 9999,
      "fzfg": false,
      "metar_trigger": false,
      "taf_trigger": false,
      "metar": "METAR EDDN 162250Z AUTO 25008KT 9999 SCT029 03/01 Q0999",
      "taf": ""
    },
    {
      "icao": "EDDS",
      "alert": "OK",
      "vis_m": 9999,
      "fzfg": false,
      "metar_trigger": false,
      "taf_trigger": false,
      "metar": "METAR EDDS 162250Z AUTO 19005KT 160V220 9999 FEW026 03/01 Q1000 RESHRA",
      "taf": "TAF EDDS 161700Z 1618/1718 24010KT 9999 BKN020"
    },
    {
      "icao": "EDFH",
      "alert": "OK",
      "vis_m": 9999,
      "fzfg": false,
      "metar_trigger": false,
      "taf_trigger": false,
      "metar": "METAR EDFH 162250Z 28015KT 9999 -RA FEW003 BKN006 02/01 Q0998",
      "taf": "TAF EDFH 161700Z 1618/1718 27012KT 9999 BKN006"
    },
    {
      "icao": "EDJA",
      "alert": "OK",
      "vis_m": 9999,
      "fzfg": false,
      "metar_trigger": false,
      "taf_trigger": false,
      "metar": "METAR EDJA 162250Z AUTO 23014KT 9999 // FEW008/// BKN040/// BKN063/// 01/M00 Q1001",
      "taf": "TAF EDJA 161700Z 1618/1703 24010KT 9999 SCT007 BKN015"
    },
    {
      "icao": "EDLW",
      "alert": "OK",
      "vis_m": 9999,
      "fzfg": false,
      "metar_trigger": false,
      "taf_trigger": false,
      "metar": "METAR EDLW 162250Z AUTO 25007KT 230V290 9999 // BKN007/// BKN009/// OVC022/// 04/03 Q0998",
      "taf": "TAF EDLW 161700Z 1618/1718 23009KT 9999 SCT012 BKN020"
    },
    {
      "icao": "EDNY",
      "alert": "OK",
      "vis_m": 9999,
      "fzfg": false,
      "metar_trigger": false,
      "taf_trigger": false,
      "metar": "METAR EDNY 162250Z AUTO 22005KT 9999 // BKN013/// BKN017/// OVC026/// 03/02 Q1003",
      "taf": "TAF EDNY 161700Z 1618/1703 24012KT 9999 SCT012 BKN015"
    },
    {
      "icao": "EDSB",
      "alert": "OK",
      "vis_m": 9999,
      "fzfg": false,
      "metar_trigger": false,
      "taf_trigger": false,
      "metar": "METAR EDSB 162250Z 19012KT 9999 -RA FEW035 06/03 Q1001",
      "taf": "TAF EDSB 161700Z 1618/1718 23009KT 9999 BKN020"
    },
    {
      "icao": "EETN",
      "alert": "OK",
      "vis_m": 9999,
      "fzfg": false,
      "metar_trigger": false,
      "taf_trigger": false,
      "metar": "METAR EETN 162250Z 09003KT CAVOK M12/M13 Q1013",
      "taf": "TAF EETN 161730Z 1618/1718 VRB02KT 9999 OVC020"
    },
    {
      "icao": "EFTU",
      "alert": "OK",
      "vis_m": 9999,
      "fzfg": false,
      "metar_trigger": false,
      "taf_trigger": false,
      "metar": "METAR EFTU 162250Z AUTO 11006KT 9999 -SN OVC002 M13/M14 Q1013",
      "taf": "TAF EFTU 162034Z 1621/1721 12005KT 6000 -SN OVC002"
    },
    {
      "icao": "EGBB",
      "alert": "OK",
      "vis_m": 9999,
      "fzfg": false,
      "metar_trigger": false,
      "taf_trigger": false,
      "metar": "METAR EGBB 162250Z 30014KT 9999 SCT046 05/M01 Q1005",
      "taf": "TAF EGBB 161656Z 1618/1718 27011KT 9999 SCT025"
    },
    {
      "icao": "EGGP",
      "alert": "OK",
      "vis_m": 9999,
      "fzfg": false,
      "metar_trigger": false,
      "taf_trigger": false,
      "metar": "METAR EGGP 162250Z 32019KT 9999 FEW037 SCT042 05/M03 Q1006",
      "taf": "TAF EGGP 161702Z 1618/1718 31016KT 9999 SCT020"
    },
    {
      "icao": "EGGW",
      "alert": "OK",
      "vis_m": 9999,
      "fzfg": false,
      "metar_trigger": false,
      "taf_trigger": false,
      "metar": "METAR EGGW 162250Z AUTO 30021KT 9999 NCD 05/01 Q1003",
      "taf": "TAF EGGW 161651Z 1618/1718 29012KT 9999 SCT030"
    },
    {
      "icao": "EGKK",
      "alert": "OK",
      "vis_m": 9999,
      "fzfg": false,
      "metar_trigger": false,
      "taf_trigger": false,
      "metar": "METAR EGKK 162250Z 29009KT 9999 BKN034 07/04 Q1005",
      "taf": "TAF EGKK 161659Z 1618/1724 28012KT 9999 FEW040"
    },
    {
      "icao": "EGNM",
      "alert": "OK",
      "vis_m": 9999,
      "fzfg": false,
      "metar_trigger": false,
      "taf_trigger": false,
      "metar": "METAR EGNM 162220Z 34012KT 9999 -SHRA SCT008 BKN025 02/01 Q1002",
      "taf": ""
    },
    {
      "icao": "EGPD",
      "alert": "OK",
      "vis_m": 2900,
      "fzfg": false,
      "metar_trigger": false,
      "taf_trigger": false,
      "metar": "METAR EGPD 162250Z AUTO 34017G29KT 2900 -RASN FEW011/// BKN017/// BKN024/// //////CB 02/00 Q1000 TEMPO 1200 SN BKN012",
      "taf": ""
    },
    {
      "icao": "EGPF",
      "alert": "OK",
      "vis_m": 9999,
      "fzfg": false,
      "metar_trigger": false,
      "taf_trigger": false,
      "metar": "METAR EGPF 162250Z AUTO 24005KT 210V280 9999 NCD 00/M03 Q1006",
      "taf": ""
    },
    {
      "icao": "EHBK",
      "alert": "OK",
      "vis_m": 9999,
      "fzfg": false,
      "metar_trigger": false,
      "taf_trigger": false,
      "metar": "METAR EHBK 162255Z AUTO 23007KT 210V270 9999 SCT003/// SCT004/// OVC021/// 03/02 Q1000",
      "taf": "TAF EHBK 161720Z 1618/1724 24007KT 9999 BKN025"
    },
    {
      "icao": "EHEH",
      "alert": "OK",
      "vis_m": 9999,
      "fzfg": false,
      "metar_trigger": false,
      "taf_trigger": false,
      "metar": "METAR EHEH 162225Z AUTO 24007KT 210V270 9999 BKN041 BKN047 03/02 Q0999 BLU RMK TREND REMOTE BY EHWX",
      "taf": "TAF EHEH 161815Z 1618/1800 26008KT 9999 SCT016 BKN025"
    },
    {
      "icao": "EKBI",
      "alert": "OK",
      "vis_m": 9999,
      "fzfg": false,
      "metar_trigger": false,
      "taf_trigger": false,
      "metar": "METAR EKBI 162250Z AUTO 11010KT 9999 OVC017/// M04/M07 Q0998",
      "taf": ""
    },
    {
      "icao": "EKCH",
      "alert": "OK",
      "vis_m": 9999,
      "fzfg": false,
      "metar_trigger": false,
      "taf_trigger": false,
      "metar": "METAR EKCH 162250Z AUTO 11016KT 9999 FEW028/// BKN110/// M03/M08 Q1002 NOSIG",
      "taf": "TAF EKCH 162027Z 1621/1721 11018KT 9999 FEW030"
    },
    {
      "icao": "ENAL",
      "alert": "OK",
      "vis_m": 9999,
      "fzfg": false,
      "metar_trigger": false,
      "taf_trigger": false,
      "metar": "METAR ENAL 162250Z AUTO 20007KT 9999 SCT052/// 02/M08 Q0997",
      "taf": "TAF ENAL 162000Z 1621/1706 19009KT 9999 BKN050"
    },
    {
      "icao": "ENBR",
      "alert": "OK",
      "vis_m": 9999,
      "fzfg": false,
      "metar_trigger": false,
      "taf_trigger": false,
      "metar": "METAR ENBR 162250Z 11009KT 9999 -SHSN BKN045 M00/M09 Q0999 RMK WIND 1200FT 12015KT",
      "taf": ""
    },
    {
      "icao": "ENGM",
      "alert": "OK",
      "vis_m": 9999,
      "fzfg": false,
      "metar_trigger": false,
      "taf_trigger": false,
      "metar": "METAR ENGM 162250Z 04004KT CAVOK M12/M14 Q1005",
      "taf": "TAF ENGM 161700Z 1618/1718 04005KT 9999 FEW020"
    },
    {
      "icao": "ENHD",
      "alert": "OK",
      "vis_m": 9999,
      "fzfg": false,
      "metar_trigger": false,
      "taf_trigger": false,
      "metar": "METAR ENHD 162250Z AUTO 11016KT 9999 -SN SCT029/// OVC038/// M01/M08 Q0999 RESN",
      "taf": "TAF ENHD 161400Z 1615/1623 11015KT 9999 BKN040"
    },
    {
      "icao": "ENTC",
      "alert": "OK",
      "vis_m": 9999,
      "fzfg": false,
      "metar_trigger": false,
      "taf_trigger": false,
      "metar": "METAR ENTC 162250Z 22010KT 9999 BKN053 M04/M08 Q0997 RMK WIND 2600FT 14008KT",
      "taf": "TAF ENTC 161700Z 1618/1718 20006KT 9999 SCT050"
    },
    {
      "icao": "ENTO",
      "alert": "OK",
      "vis_m": 9999,
      "fzfg": false,
      "metar_trigger": false,
      "taf_trigger": false,
      "metar": "METAR ENTO 162250Z AUTO 01004KT 9999 NCD M07/M11 Q1005",
      "taf": "TAF ENTO 161700Z 1618/1718 08005KT 9999 FEW020"
    },
    {
      "icao": "ENVA",
      "alert": "OK",
      "vis_m": 9999,
      "fzfg": false,
      "metar_trigger": false,
      "taf_trigger": false,
      "metar": "METAR ENVA 162250Z 14002KT CAVOK M04/M13 Q1000 RMK WIND 670FT 15016KT",
      "taf": ""
    },
    {
      "icao": "ENZV",
      "alert": "OK",
      "vis_m": 9999,
      "fzfg": false,
      "metar_trigger": false,
      "taf_trigger": false,
      "metar": "METAR ENZV 162250Z 11008KT 080V140 CAVOK M00/M09 Q0998",
      "taf": ""
    },
    {
      "icao": "EPGD",
      "alert": "OK",
      "vis_m": 9999,
      "fzfg": false,
      "metar_trigger": false,
      "taf_trigger": false,
      "metar": "METAR EPGD 162230Z 09010KT CAVOK M11/M17 Q1004",
      "taf": "TAF EPGD 161730Z 1618/1718 09010KT CAVOK"
    },
    {
      "icao": "EPKK",
      "alert": "OK",
      "vis_m": 3700,
      "fzfg": false,
      "metar_trigger": false,
      "taf_trigger": false,
      "metar": "METAR EPKK 162230Z 05005KT 3700 BR OVC025 M04/M06 Q0999",
      "taf": "TAF EPKK 162030Z 1621/1721 05005KT 5000 BR FEW012 BKN030"
    },
    {
      "icao": "EPKT",
      "alert": "OK",
      "vis_m": 4600,
      "fzfg": false,
      "metar_trigger": false,
      "taf_trigger": false,
      "metar": "METAR EPKT 162230Z 12006KT 4600 -SN BR FEW006 OVC011 M04/M06 Q0998",
      "taf": ""
    },
    {
      "icao": "EPLB",
      "alert": "OK",
      "vis_m": 9999,
      "fzfg": false,
      "metar_trigger": false,
      "taf_trigger": false,
      "metar": "METAR EPLB 162230Z 10012KT 9999 OVC039 M08/M12 Q1003",
      "taf": "TAF EPLB 161730Z 1618/1718 10012KT CAVOK"
    },
    {
      "icao": "EPMO",
      "alert": "OK",
      "vis_m": 9999,
      "fzfg": false,
      "metar_trigger": false,
      "taf_trigger": false,
      "metar": "METAR EPMO 162230Z 09012KT 9999 -SN SCT034 M07/M11 Q1003",
      "taf": "TAF EPMO 161730Z 1618/1718 10012KT CAVOK"
    },
    {
      "icao": "EPPO",
      "alert": "OK",
      "vis_m": 9999,
      "fzfg": false,
      "metar_trigger": false,
      "taf_trigger": false,
      "metar": "METAR EPPO 162230Z 10009KT 9999 -SN OVC014 M06/M09 Q0999",
      "taf": ""
    },
    {
      "icao": "EPRA",
      "alert": "OK",
      "vis_m": 7000,
      "fzfg": false,
      "metar_trigger": false,
      "taf_trigger": false,
      "metar": "METAR EPRA 162230Z 10010KT 7000 -SN BKN015 OVC035 M07/M09 Q1001",
      "taf": "TAF EPRA 162030Z 1621/1706 10008KT 5000 -SN BKN025"
    },
    {
      "icao": "EPRZ",
      "alert": "OK",
      "vis_m": 9999,
      "fzfg": false,
      "metar_trigger": false,
      "taf_trigger": false,
      "metar": "METAR EPRZ 162230Z 08010KT 9999 -SN BKN023 M06/M08 Q1001",
      "taf": "TAF EPRZ 161730Z 1618/1718 09010KT 9999 BKN020"
    },
    {
      "icao": "EPSC",
      "alert": "OK",
      "vis_m": 9999,
      "fzfg": false,
      "metar_trigger": false,
      "taf_trigger": false,
      "metar": "METAR EPSC 162230Z 09007KT 050V130 9999 FEW027 M06/M12 Q1000",
      "taf": ""
    },
    {
      "icao": "EPSY",
      "alert": "OK",
      "vis_m": 9999,
      "fzfg": false,
      "metar_trigger": false,
      "taf_trigger": false,
      "metar": "METAR EPSY 162230Z 08006KT 020V120 CAVOK M10/M20 Q1005",
      "taf": "TAF EPSY 162030Z 1621/1706 09008KT CAVOK"
    },
    {
      "icao": "EPWA",
      "alert": "OK",
      "vis_m": 9999,
      "fzfg": false,
      "metar_trigger": false,
      "taf_trigger": false,
      "metar": "METAR EPWA 162230Z 10014KT 9999 FEW033 M06/M11 Q1002 TEMPO 4500 -SN",
      "taf": "TAF EPWA 162030Z 1621/1721 09012KT CAVOK"
    },
    {
      "icao": "EPWR",
      "alert": "OK",
      "vis_m": 6000,
      "fzfg": false,
      "metar_trigger": false,
      "taf_trigger": false,
      "metar": "METAR EPWR 162230Z VRB01KT 6000 BKN021 M03/M04 Q0998",
      "taf": "TAF EPWR 162030Z 1621/1721 11006KT 8000 -SN FEW012 OVC025"
    },
    {
      "icao": "ESGG",
      "alert": "OK",
      "vis_m": 9999,
      "fzfg": false,
      "metar_trigger": false,
      "taf_trigger": false,
      "metar": "METAR ESGG 162250Z 12010KT CAVOK M06/M10 Q1003",
      "taf": "TAF ESGG 162030Z 1621/1721 11012KT CAVOK"
    },
    {
      "icao": "ESKN",
      "alert": "OK",
      "vis_m": 9999,
      "fzfg": false,
      "metar_trigger": false,
      "taf_trigger": false,
      "metar": "METAR ESKN 162250Z 13008KT 9999 OVC030 M03/M08 Q1010",
      "taf": "TAF ESKN 162030Z 1621/1721 14011KT 9999 BKN025"
    },
    {
      "icao": "ESMS",
      "alert": "OK",
      "vis_m": 9999,
      "fzfg": false,
      "metar_trigger": false,
      "taf_trigger": false,
      "metar": "METAR ESMS 162250Z 11011KT CAVOK M04/M10 Q1001",
      "taf": "TAF ESMS 162027Z 1621/1721 12012KT CAVOK"
    },
    {
      "icao": "ESSA",
      "alert": "OK",
      "vis_m": 9999,
      "fzfg": false,
      "metar_trigger": false,
      "taf_trigger": false,
      "metar": "METAR ESSA 162250Z 07005KT 9999 BKN035 M10/M12 Q1010 NOSIG",
      "taf": "TAF ESSA 162030Z 1621/1721 10004KT 9999 SCT025"
    },
    {
      "icao": "EYKA",
      "alert": "OK",
      "vis_m": 9999,
      "fzfg": false,
      "metar_trigger": false,
      "taf_trigger": false,
      "metar": "METAR EYKA 162250Z 06005KT CAVOK M18/M21 Q1011",
      "taf": "TAF EYKA 161707Z 1618/1718 08006KT 9000 NSC"
    },
    {
      "icao": "EYPA",
      "alert": "OK",
      "vis_m": 9999,
      "fzfg": false,
      "metar_trigger": false,
      "taf_trigger": false,
      "metar": "METAR EYPA 162250Z 10007KT CAVOK M12/M15 Q1010",
      "taf": "TAF EYPA 161706Z 1618/1718 11007KT 9000 NSC"
    },
    {
      "icao": "EYVI",
      "alert": "OK",
      "vis_m": 9999,
      "fzfg": false,
      "metar_trigger": false,
      "taf_trigger": false,
      "metar": "METAR EYVI 162250Z 13004KT 100V160 CAVOK M14/M21 Q1010 NOSIG",
      "taf": "TAF EYVI 161707Z 1618/1718 08008KT 9000 NSC"
    },
    {
      "icao": "GCFV",
      "alert": "OK",
      "vis_m": 9999,
      "fzfg": false,
      "metar_trigger": false,
      "taf_trigger": false,
      "metar": "METAR GCFV 162230Z 34007KT CAVOK 17/15 Q1027",
      "taf": "TAF GCFV 162000Z 1621/1721 34005KT 9999 FEW010 TX23/1714Z TN16/1706Z"
    },
    {
      "icao": "GCLP",
      "alert": "OK",
      "vis_m": 6000,
      "fzfg": false,
      "metar_trigger": false,
      "taf_trigger": false,
      "metar": "METAR GCLP 162230Z 35009KT 320V020 6000 NSC 18/10 Q1027 NOSIG",
      "taf": "TAF GCLP 162000Z 1621/1721 36005KT 6000 NSC TX24/1714Z TN17/1706Z"
    },
    {
      "icao": "GCTS",
      "alert": "OK",
      "vis_m": 4000,
      "fzfg": false,
      "metar_trigger": false,
      "taf_trigger": false,
      "metar": "METAR GCTS 162230Z 08009KT 4000 HZ NSC 19/M02 Q1027 NOSIG",
      "taf": "TAF GCTS 162000Z 1621/1721 05005KT 4000 HZ NSC TX27/1714Z TN18/1706Z"
    },
    {
      "icao": "GMAD",
      "alert": "OK",
      "vis_m": 9999,
      "fzfg": false,
      "metar_trigger": false,
      "taf_trigger": false,
      "metar": "METAR GMAD 162230Z 04006KT CAVOK 10/08 Q1026 NOSIG",
      "taf": "TAF GMAD 161700Z 1618/1724 20010KT CAVOK"
    },
    {
      "icao": "GMMN",
      "alert": "OK",
      "vis_m": 9999,
      "fzfg": false,
      "metar_trigger": false,
      "taf_trigger": false,
      "metar": "METAR GMMN 162230Z 04010KT CAVOK 11/10 Q1029 TEMPO 4000 BR",
      "taf": "TAF GMMN 161700Z 1618/1724 03010KT CAVOK"
    },
    {
      "icao": "GMMX",
      "alert": "OK",
      "vis_m": 9999,
      "fzfg": false,
      "metar_trigger": false,
      "taf_trigger": false,
      "metar": "METAR GMMX 162230Z 07003KT CAVOK 14/06 Q1027 NOSIG",
      "taf": "TAF GMMX 161700Z 1618/1724 06006KT CAVOK"
    },
    {
      "icao": "HEGN",
      "alert": "OK",
      "vis_m": 4000,
      "fzfg": false,
      "metar_trigger": false,
      "taf_trigger": false,
      "metar": "METAR HEGN 162200Z 24010KT 4000 SA NSC 19/12 Q1011 NOSIG",
      "taf": "TAF HEGN 162300Z 1700/1806 28012KT 6000 NSC"
    },
    {
      "icao": "HEMA",
      "alert": "OK",
      "vis_m": 9999,
      "fzfg": false,
      "metar_trigger": false,
      "taf_trigger": false,
      "metar": "METAR HEMA 162200Z 27002KT CAVOK 20/18 Q1011 NOSIG",
      "taf": "TAF HEMA 162300Z 1700/1806 29010KT CAVOK"
    },
    {
      "icao": "HESH",
      "alert": "OK",
      "vis_m": 9999,
      "fzfg": false,
      "metar_trigger": false,
      "taf_trigger": false,
      "metar": "METAR HESH 162200Z 35003KT CAVOK 23/03 Q1012 NOSIG",
      "taf": "TAF HESH 162300Z 1700/1806 35010KT CAVOK"
    },
    {
      "icao": "HESX",
      "alert": "OK",
      "vis_m": 9999,
      "fzfg": false,
      "metar_trigger": false,
      "taf_trigger": false,
      "metar": "METAR HESX 162200Z 30010KT 9999 FEW030 BKN100 16/12 Q1014 NOSIG",
      "taf": "TAF HESX 162300Z 1700/1806 18010KT CAVOK"
    },
    {
      "icao": "LATI",
      "alert": "OK",
      "vis_m": 9999,
      "fzfg": false,
      "metar_trigger": false,
      "taf_trigger": false,
      "metar": "METAR LATI 162250Z 14008KT 9999 -RA BKN040 OVC053 11/05 Q0999 NOSIG",
      "taf": "TAF LATI 162300Z 1700/1724 15012KT 9999 RA SCT030 OVC060 TX13/1712Z TN05/1724Z"
    },
    {
      "icao": "LBPD",
      "alert": "OK",
      "vis_m": 9999,
      "fzfg": false,
      "metar_trigger": false,
      "taf_trigger": false,
      "metar": "METAR LBPD 162300Z AUTO 11008KT 9999 OVC003/// 06/06 Q1002",
      "taf": "TAF LBPD 161700Z 1618/1718 VRB04KT 9999 SCT020 BKN040"
    },
    {
      "icao": "LBSF",
      "alert": "OK",
      "vis_m": 6000,
      "fzfg": false,
      "metar_trigger": false,
      "taf_trigger": false,
      "metar": "METAR LBSF 162300Z AUTO 09006KT 040V140 6000 -SHRA FEW042/// SCT058/// OVC073/// 02/02 Q1001 NOSIG",
      "taf": ""
    },
    {
      "icao": "LBWN",
      "alert": "OK",
      "vis_m": 7000,
      "fzfg": false,
      "metar_trigger": false,
      "taf_trigger": false,
      "metar": "METAR LBWN 162300Z AUTO VRB02KT 7000 FEW009/// BKN011/// OVC017/// 04/04 Q1004 NOSIG",
      "taf": "TAF LBWN 161700Z 1618/1718 12008KT 9999 SCT010 OVC025"
    },
    {
      "icao": "LCLK",
      "alert": "OK",
      "vis_m": 7000,
      "fzfg": false,
      "metar_trigger": false,
      "taf_trigger": false,
      "metar": "METAR LCLK 162230Z 01005KT 340V060 7000 FEW060 17/16 Q1009 NOSIG",
      "taf": "TAF LCLK 161730Z 1618/1718 33005KT 8000 FEW035"
    },
    {
      "icao": "LCPH",
      "alert": "OK",
      "vis_m": 9000,
      "fzfg": false,
      "metar_trigger": false,
      "taf_trigger": false,
      "metar": "METAR LCPH 162230Z VRB02KT 9000 NSC 19/15 Q1009 NOSIG",
      "taf": "TAF LCPH 161730Z 1618/1718 10010KT 7000 FEW020"
    },
    {
      "icao": "LEAL",
      "alert": "OK",
      "vis_m": 9999,
      "fzfg": false,
      "metar_trigger": false,
      "taf_trigger": false,
      "metar": "METAR LEAL 162230Z 20009KT 170V250 9999 FEW045 19/09 Q1022 NOSIG",
      "taf": "TAF LEAL 161700Z 1618/1718 29012KT 9999 FEW040 TX24/1713Z TN15/1706Z"
    },
    {
      "icao": "LEBB",
      "alert": "OK",
      "vis_m": 7000,
      "fzfg": false,
      "metar_trigger": false,
      "taf_trigger": false,
      "metar": "METAR LEBB 162230Z 25005KT 200V290 7000 -RA SCT013 BKN019 OVC024 11/10 Q1023 TEMPO 3000 RA",
      "taf": ""
    },
    {
      "icao": "LEBL",
      "alert": "OK",
      "vis_m": 9999,
      "fzfg": false,
      "metar_trigger": false,
      "taf_trigger": false,
      "metar": "METAR LEBL 162230Z 36010KT 9999 FEW055 16/09 Q1013 NOSIG",
      "taf": "TAF LEBL 161700Z 1618/1718 29008KT 9999 FEW030 TX19/1713Z TN10/1706Z"
    },
    {
      "icao": "LECH",
      "alert": "OK",
      "vis_m": 9999,
      "fzfg": false,
      "metar_trigger": false,
      "taf_trigger": false,
      "metar": "METAR LECH 162230Z AUTO 29012KT 230V320 9999 OVC066 19/07 Q1017",
      "taf": ""
    },
    {
      "icao": "LEMD",
      "alert": "OK",
      "vis_m": 9999,
      "fzfg": false,
      "metar_trigger": false,
      "taf_trigger": false,
      "metar": "METAR LEMD 162230Z 22013KT 9999 FEW070 13/09 Q1024 NOSIG",
      "taf": ""
    },
    {
      "icao": "LEMG",
      "alert": "OK",
      "vis_m": 9999,
      "fzfg": false,
      "metar_trigger": false,
      "taf_trigger": false,
      "metar": "METAR LEMG 162230Z 30017KT 9999 FEW040 14/09 Q1027 NOSIG",
      "taf": "TAF LEMG 161700Z 1618/1718 29015KT 9999 FEW040 TX24/1714Z TN11/1707Z"
    },
    {
      "icao": "LEVC",
      "alert": "OK",
      "vis_m": 9999,
      "fzfg": false,
      "metar_trigger": false,
      "taf_trigger": false,
      "metar": "METAR LEVC 162230Z 21012KT 180V260 CAVOK 17/10 Q1019 NOSIG",
      "taf": ""
    },
    {
      "icao": "LEXJ",
      "alert": "OK",
      "vis_m": 3400,
      "fzfg": false,
      "metar_trigger": false,
      "taf_trigger": false,
      "metar": "METAR LEXJ 162230Z AUTO 27009KT 240V300 3400 -RA BR SCT012 BKN017 OVC022 11/10 Q1023",
      "taf": "TAF LEXJ 162000Z 1621/1721 27009KT 9000 SCT020 BKN030 TX15/1714Z TN11/1706Z"
    },
    {
      "icao": "LEZG",
      "alert": "OK",
      "vis_m": 9999,
      "fzfg": false,
      "metar_trigger": false,
      "taf_trigger": false,
      "metar": "METAR LEZG 162230Z 30016KT 9999 DZ FEW020 OVC060 12/12 Q1020 RERA NOSIG",
      "taf": "TAF LEZG 161700Z 1618/1718 29014KT 9999 SCT040 TX18/1714Z TN10/1706Z"
    },
    {
      "icao": "LEZL",
      "alert": "OK",
      "vis_m": 9999,
      "fzfg": false,
      "metar_trigger": false,
      "taf_trigger": false,
      "metar": "METAR LEZL 162230Z 00000KT 9999 BKN032 14/12 Q1030 NOSIG",
      "taf": "TAF LEZL 162000Z 1621/1721 VRB02KT CAVOK TX19/1715Z TN08/1707Z"
    },
    {
      "icao": "LFBD",
      "alert": "OK",
      "vis_m": 9999,
      "fzfg": false,
      "metar_trigger": false,
      "taf_trigger": false,
      "metar": "METAR LFBD 162230Z AUTO 27007KT 9999 FEW047/// OVC060/// //////TCU 10/07 Q1019 TEMPO 29020G30KT 4000 SHRA BKN008 BKN020TCU",
      "taf": "TAF LFBD 161700Z 1618/1724 28015KT 9999 BKN020 TX13/1713Z TN07/1706Z"
    },
    {
      "icao": "LFLL",
      "alert": "OK",
      "vis_m": 9999,
      "fzfg": false,
      "metar_trigger": false,
      "taf_trigger": false,
      "metar": "METAR LFLL 162230Z 27005KT 9999 VCSH FEW030TCU BKN035 BKN056 07/03 Q1010 TEMPO SHRA",
      "taf": "TAF LFLL 161700Z 1618/1724 27008KT 9999 SCT046 BKN240"
    },
    {
      "icao": "LFLS",
      "alert": "OK",
      "vis_m": 9999,
      "fzfg": false,
      "metar_trigger": false,
      "taf_trigger": false,
      "metar": "METAR LFLS 162230Z AUTO 25008KT 9999 FEW027/// BKN036/// BKN044/// //////TCU 05/03 Q1010",
      "taf": "TAF LFLS 161400Z 1615/1715 VRB05KT 9999 FEW030TCU BKN050"
    },
    {
      "icao": "LFMN",
      "alert": "OK",
      "vis_m": 9999,
      "fzfg": false,
      "metar_trigger": false,
      "taf_trigger": false,
      "metar": "METAR LFMN 162230Z 28011KT 240V300 CAVOK 12/02 Q1003 TEMPO 28025G35KT",
      "taf": "TAF LFMN 162000Z 1621/1803 27020KT CAVOK"
    },
    {
      "icao": "LFOB",
      "alert": "OK",
      "vis_m": 9999,
      "fzfg": false,
      "metar_trigger": false,
      "taf_trigger": false,
      "metar": "METAR LFOB 162230Z AUTO 28011KT 9999 FEW006 BKN049 BKN058 07/04 Q1005 TEMPO 30015G25KT 3500 SHRA SCT014 SCT020CB SCT030TCU",
      "taf": "TAF LFOB 161700Z 1618/1718 30012KT 9999 BKN030"
    },
    {
      "icao": "LFPO",
      "alert": "OK",
      "vis_m": 9999,
      "fzfg": false,
      "metar_trigger": false,
      "taf_trigger": false,
      "metar": "METAR LFPO 162230Z 28014KT 9999 FEW030 SCT150 07/04 Q1006 TEMPO SCT030TCU",
      "taf": ""
    },
    {
      "icao": "LFSB",
      "alert": "OK",
      "vis_m": 9999,
      "fzfg": false,
      "metar_trigger": false,
      "taf_trigger": false,
      "metar": "METAR LFSB 162230Z AUTO 26014KT 220V290 9999 SCT042 SCT054 BKN070 05/02 Q1005 TEMPO 26015G25KT 4000 SHRA SCT030TCU",
      "taf": "TAF LFSB 161700Z 1618/1718 25012KT 9999 SCT030 BKN050"
    },
    {
      "icao": "LGAV",
      "alert": "OK",
      "vis_m": 9999,
      "fzfg": false,
      "metar_trigger": false,
      "taf_trigger": false,
      "metar": "METAR LGAV 162250Z 23005KT 9999 FEW025 12/07 Q1005 NOSIG",
      "taf": "TAF LGAV 161700Z 1618/1718 26014KT 9999 SCT020"
    },
    {
      "icao": "LGTS",
      "alert": "OK",
      "vis_m": 9999,
      "fzfg": false,
      "metar_trigger": false,
      "taf_trigger": false,
      "metar": "METAR LGTS 162220Z VRB03KT 9999 FEW025 10/09 Q1002 NOSIG",
      "taf": "TAF LGTS 161700Z 1618/1718 VRB03KT 9999 FEW025"
    },
    {
      "icao": "LHBP",
      "alert": "OK",
      "vis_m": 9000,
      "fzfg": false,
      "metar_trigger": false,
      "taf_trigger": false,
      "metar": "METAR LHBP 162230Z 10003KT 9000 OVC010 M01/M02 Q1002 NOSIG",
      "taf": "TAF LHBP 161715Z 1618/1718 10005KT 8000 BKN030 OVC050"
    },
    {
      "icao": "LHDC",
      "alert": "OK",
      "vis_m": 4200,
      "fzfg": false,
      "metar_trigger": false,
      "taf_trigger": false,
      "metar": "METAR LHDC 162215Z AUTO 12003KT 4200 -SN BR FEW006 BKN019 OVC028 M00/M01 Q1002",
      "taf": "TAF LHDC 161715Z 1618/1703 VRB03KT 9999 BKN025 OVC050"
    },
    {
      "icao": "LIBD",
      "alert": "OK",
      "vis_m": 9999,
      "fzfg": false,
      "metar_trigger": false,
      "taf_trigger": false,
      "metar": "METAR LIBD 162250Z 24026KT 9999 -RA VCTS FEW030CB 13/07 Q0995",
      "taf": "TAF LIBD 161700Z 1618/1718 19013KT 9999 FEW030"
    },
    {
      "icao": "LIBG",
      "alert": "OK",
      "vis_m": null,
      "fzfg": false,
      "metar_trigger": false,
      "taf_trigger": false,
      "metar": "",
      "taf": "TAF LIBG 161700Z 1618/1703 16014KT 9999 FEW020 SCT040"
    },
    {
      "icao": "LIBP",
      "alert": "OK",
      "vis_m": 9999,
      "fzfg": false,
      "metar_trigger": false,
      "taf_trigger": false,
      "metar": "METAR LIBP 162250Z AUTO 20004KT 190V250 9999 BKN055/// BKN130/// 09/07 Q0997",
      "taf": ""
    },
    {
      "icao": "LIBR",
      "alert": "OK",
      "vis_m": 9999,
      "fzfg": false,
      "metar_trigger": false,
      "taf_trigger": false,
      "metar": "METAR LIBR 162250Z 20012KT CAVOK 12/10 Q0997 RERA",
      "taf": "TAF LIBR 161700Z 1618/1718 21015KT 9999 FEW030"
    },
    {
      "icao": "LICA",
      "alert": "OK",
      "vis_m": 9999,
      "fzfg": false,
      "metar_trigger": false,
      "taf_trigger": false,
      "metar": "METAR LICA 162250Z AUTO 23019KT 9999 SCT023/// OVC072/// 15/12 Q1004",
      "taf": "TAF LICA 161700Z 1618/1718 26022G33KT 9999 SCT015"
    },
    {
      "icao": "LICC",
      "alert": "OK",
      "vis_m": 9999,
      "fzfg": false,
      "metar_trigger": false,
      "taf_trigger": false,
      "metar": "METAR LICC 162250Z 23011KT CAVOK 12/09 Q1007",
      "taf": "TAF LICC 161700Z 1618/1718 26015KT 9999 SCT030"
    },
    {
      "icao": "LICJ",
      "alert": "OK",
      "vis_m": 9999,
      "fzfg": false,
      "metar_trigger": false,
      "taf_trigger": false,
      "metar": "METAR LICJ 162250Z 26030KT 9999 SCT025 15/12 Q1008",
      "taf": "TAF LICJ 161700Z 1618/1718 25025KT 9999 SCT020"
    },
    {
      "icao": "LIMC",
      "alert": "OK",
      "vis_m": 9999,
      "fzfg": false,
      "metar_trigger": false,
      "taf_trigger": false,
      "metar": "METAR LIMC 162250Z 36014KT CAVOK 08/M00 Q1000 NOSIG",
      "taf": "TAF LIMC 161700Z 1618/1724 31007KT 9999 FEW090"
    },
    {
      "icao": "LIME",
      "alert": "OK",
      "vis_m": 9999,
      "fzfg": false,
      "metar_trigger": false,
      "taf_trigger": false,
      "metar": "METAR LIME 162250Z VRB02KT CAVOK 04/01 Q0998 NOSIG",
      "taf": "TAF LIME 161700Z 1618/1718 VRB05KT CAVOK"
    },
    {
      "icao": "LIMF",
      "alert": "OK",
      "vis_m": null,
      "fzfg": false,
      "metar_trigger": false,
      "taf_trigger": false,
      "metar": "METAR LIMF 162250Z AUTO VRB02KT //// // SCT120/// 08/M01 Q1001",
      "taf": "TAF LIMF 161700Z 1618/1718 VRB05KT 9999 FEW100"
    },
    {
      "icao": "LIMJ",
      "alert": "OK",
      "vis_m": 9999,
      "fzfg": false,
      "metar_trigger": false,
      "taf_trigger": false,
      "metar": "METAR LIMJ 162250Z 08010KT 040V110 CAVOK 11/01 Q1000",
      "taf": "TAF LIMJ 161700Z 1618/1718 VRB05KT CAVOK"
    },
    {
      "icao": "LIPE",
      "alert": "OK",
      "vis_m": 9999,
      "fzfg": false,
      "metar_trigger": false,
      "taf_trigger": false,
      "metar": "METAR LIPE 162250Z 19003KT 090V210 CAVOK 06/06 Q0999",
      "taf": "TAF LIPE 161700Z 1618/1718 30005KT 9999 FEW040"
    },
    {
      "icao": "LIPH",
      "alert": "OK",
      "vis_m": 9999,
      "fzfg": false,
      "metar_trigger": false,
      "taf_trigger": false,
      "metar": "METAR LIPH 162250Z AUTO 21002KT 9999 BKN220/// 03/03 Q0998",
      "taf": "TAF LIPH 161700Z 1618/1718 06006KT 9999 FEW030"
    },
    {
      "icao": "LIPQ",
      "alert": "OK",
      "vis_m": 9999,
      "fzfg": false,
      "metar_trigger": false,
      "taf_trigger": false,
      "metar": "METAR LIPQ 162250Z AUTO 01005KT 9999 OVC100/// 07/04 Q0998",
      "taf": "TAF LIPQ 161700Z 1618/1718 VRB05KT 9999 FEW040"
    },
    {
      "icao": "LIPR",
      "alert": "OK",
      "vis_m": 6000,
      "fzfg": false,
      "metar_trigger": false,
      "taf_trigger": false,
      "metar": "METAR LIPR 162250Z AUTO 28003KT 6000 BKN037/// 07/06 Q0998",
      "taf": "TAF LIPR 161700Z 1618/1718 VRB05KT 9999 SCT040"
    },
    {
      "icao": "LIPX",
      "alert": "OK",
      "vis_m": 9999,
      "fzfg": false,
      "metar_trigger": false,
      "taf_trigger": false,
      "metar": "METAR LIPX 162250Z 36006KT CAVOK 02/01 Q0999",
      "taf": "TAF LIPX 161700Z 1618/1718 VRB05KT CAVOK"
    },
    {
      "icao": "LIPY",
      "alert": "OK",
      "vis_m": 9999,
      "fzfg": false,
      "metar_trigger": false,
      "taf_trigger": false,
      "metar": "METAR LIPY 162250Z AUTO VRB02KT 9999 FEW060/// 08/07 Q0998",
      "taf": "TAF LIPY 161700Z 1618/1718 VRB05KT 9999 SCT050"
    },
    {
      "icao": "LIPZ",
      "alert": "OK",
      "vis_m": 9999,
      "fzfg": false,
      "metar_trigger": false,
      "taf_trigger": false,
      "metar": "METAR LIPZ 162250Z 31003KT CAVOK 04/03 Q0998 NOSIG",
      "taf": "TAF LIPZ 161700Z 1618/1724 VRB05KT 9999 FEW050"
    },
    {
      "icao": "LIRF",
      "alert": "OK",
      "vis_m": 9999,
      "fzfg": false,
      "metar_trigger": false,
      "taf_trigger": false,
      "metar": "METAR LIRF 162250Z 31014KT CAVOK 14/07 Q0999 NOSIG",
      "taf": "TAF LIRF 161700Z 1618/1724 31020G33KT 9999 SCT020"
    },
    {
      "icao": "LIRN",
      "alert": "OK",
      "vis_m": 9999,
      "fzfg": false,
      "metar_trigger": false,
      "taf_trigger": false,
      "metar": "METAR LIRN 162250Z 26017KT 9999 SCT030 14/11 Q0998 WS R24 NOSIG",
      "taf": ""
    },
    {
      "icao": "LIRP",
      "alert": "OK",
      "vis_m": 9999,
      "fzfg": false,
      "metar_trigger": false,
      "taf_trigger": false,
      "metar": "METAR LIRP 162245Z VRB01KT CAVOK 07/07 Q0999 NOSIG",
      "taf": "TAF LIRP 161700Z 1618/1718 28007KT CAVOK"
    },
    {
      "icao": "LIRZ",
      "alert": "OK",
      "vis_m": 9999,
      "fzfg": false,
      "metar_trigger": false,
      "taf_trigger": false,
      "metar": "METAR LIRZ 162250Z AUTO 28003KT 240V010 9999 FEW020/// 09/07 Q0998",
      "taf": "TAF LIRZ 161700Z 1618/1718 VRB05KT 9999 SCT025"
    },
    {
      "icao": "LJLJ",
      "alert": "OK",
      "vis_m": 9999,
      "fzfg": false,
      "metar_trigger": false,
      "taf_trigger": false,
      "metar": "METAR LJLJ 162230Z VRB02KT 9999 BKN025 BKN230 M00/M01 Q0999 NOSIG",
      "taf": "TAF LJLJ 162300Z 1700/1800 VRB02KT 9999 SCT030"
    },
    {
      "icao": "LKMT",
      "alert": "OK",
      "vis_m": 9999,
      "fzfg": false,
      "metar_trigger": false,
      "taf_trigger": false,
      "metar": "METAR LKMT 162230Z 24013KT CAVOK M01/M03 Q0998 NOSIG",
      "taf": "TAF LKMT 161700Z 1618/1718 22008KT 9999 BKN035"
    },
    {
      "icao": "LKPR",
      "alert": "OK",
      "vis_m": 1200,
      "fzfg": true,
      "metar_trigger": false,
      "taf_trigger": false,
      "metar": "METAR LKPR 162230Z VRB01KT 1200 0500W R24/P2000N R30/P2000N BR BCFG VV003 M03/M03 Q0996 BECMG 2500 BR",
      "taf": "TAF LKPR 162000Z 1621/1803 VRB02KT 0400 FZFG VV001"
    },
    {
      "icao": "LLBG",
      "alert": "OK",
      "vis_m": 9000,
      "fzfg": false,
      "metar_trigger": false,
      "taf_trigger": false,
      "metar": "METAR LLBG 162250Z VRB03KT 9000 NSC 18/08 Q1012 NOSIG",
      "taf": "TAF LLBG 161703Z 1618/1718 VRB03KT 9000 NSC"
    },
    {
      "icao": "LMML",
      "alert": "OK",
      "vis_m": 9999,
      "fzfg": false,
      "metar_trigger": false,
      "taf_trigger": false,
      "metar": "METAR LMML 162245Z 26013KT 230V300 9999 FEW019 BKN034 15/11 Q1012 NOSIG",
      "taf": "TAF LMML 162300Z 1700/1724 28020G30KT 9999 SCT018"
    },
    {
      "icao": "LOWW",
      "alert": "OK",
      "vis_m": 7000,
      "fzfg": false,
      "metar_trigger": false,
      "taf_trigger": false,
      "metar": "METAR LOWW 162250Z 14009KT 7000 -SNPL FEW008 SCT022 BKN042 M01/M03 Q1000 RESN TEMPO 2000 SN -FZRA BKN010",
      "taf": "TAF LOWW 162015Z 1621/1803 15008KT 9999 FEW010 BKN030 TX05/1714Z TNM01/1701Z"
    },
    {
      "icao": "LPFR",
      "alert": "OK",
      "vis_m": 9999,
      "fzfg": false,
      "metar_trigger": false,
      "taf_trigger": false,
      "metar": "METAR LPFR 162230Z 33004KT 9999 FEW025 12/10 Q1031",
      "taf": "TAF LPFR 161700Z 1618/1718 24010KT 9999 SCT015"
    },
    {
      "icao": "LPMA",
      "alert": "OK",
      "vis_m": 9999,
      "fzfg": false,
      "metar_trigger": false,
      "taf_trigger": false,
      "metar": "METAR LPMA 162230Z 11005KT 070V170 9999 SCT014 16/13 Q1029",
      "taf": "TAF LPMA 161700Z 1618/1718 09008KT 9999 SCT014"
    },
    {
      "icao": "LPPR",
      "alert": "OK",
      "vis_m": 2500,
      "fzfg": false,
      "metar_trigger": false,
      "taf_trigger": false,
      "metar": "METAR LPPR 162230Z 25004KT 180V310 2500 DZRA BR BKN001 13/13 Q1028",
      "taf": "TAF LPPR 161700Z 1618/1718 26008KT 8000 SCT004 BKN008"
    },
    {
      "icao": "LPPS",
      "alert": "OK",
      "vis_m": 9999,
      "fzfg": false,
      "metar_trigger": false,
      "taf_trigger": false,
      "metar": "METAR LPPS 162230Z 12013KT 9999 SCT012 16/13 Q1029",
      "taf": "TAF LPPS 161700Z 1618/1724 11013KT 9999 SCT015"
    },
    {
      "icao": "LPPT",
      "alert": "OK",
      "vis_m": 9999,
      "fzfg": false,
      "metar_trigger": false,
      "taf_trigger": false,
      "metar": "METAR LPPT 162230Z 28004KT 9999 OVC013 13/11 Q1031",
      "taf": ""
    },
    {
      "icao": "LQBK",
      "alert": "OK",
      "vis_m": 4000,
      "fzfg": false,
      "metar_trigger": false,
      "taf_trigger": false,
      "metar": "METAR LQBK 162230Z 06002KT 4000 RA BR BKN007 OVC027 03/03 Q0999 NOSIG",
      "taf": "TAF LQBK 161700Z 1618/1718 14004KT 9999 SCT040 TX05/1713Z TN01/1706Z"
    },
    {
      "icao": "LQSA",
      "alert": "OK",
      "vis_m": 9999,
      "fzfg": false,
      "metar_trigger": false,
      "taf_trigger": false,
      "metar": "METAR LQSA 162230Z 33003KT 300V010 9999 FEW015 BKN050 03/03 Q0997",
      "taf": ""
    },
    {
      "icao": "LQTZ",
      "alert": "OK",
      "vis_m": 3000,
      "fzfg": false,
      "metar_trigger": false,
      "taf_trigger": false,
      "metar": "METAR LQTZ 162230Z VRB02KT 3000 -RA BR OVC025 04/04 Q0999",
      "taf": ""
    },
    {
      "icao": "LRBC",
      "alert": "OK",
      "vis_m": 8000,
      "fzfg": false,
      "metar_trigger": false,
      "taf_trigger": false,
      "metar": "METAR LRBC 162230Z 17003KT 8000 OVC006 M01/M02 Q1005",
      "taf": "TAF LRBC 162000Z 1621/1706 VRB04KT 9999 OVC010"
    },
    {
      "icao": "LRBS",
      "alert": "OK",
      "vis_m": 5000,
      "fzfg": false,
      "metar_trigger": false,
      "taf_trigger": false,
      "metar": "METAR LRBS 162230Z 02005KT 5000 BR OVC005 01/01 Q1005 NOSIG",
      "taf": ""
    },
    {
      "icao": "LRBV",
      "alert": "OK",
      "vis_m": 8000,
      "fzfg": false,
      "metar_trigger": false,
      "taf_trigger": false,
      "metar": "METAR LRBV 162230Z AUTO VRB01KT 8000 NCD M02/M03 Q1001",
      "taf": "TAF LRBV 162000Z 1621/1706 VRB04KT CAVOK"
    },
    {
      "icao": "LRCL",
      "alert": "OK",
      "vis_m": 9999,
      "fzfg": false,
      "metar_trigger": false,
      "taf_trigger": false,
      "metar": "METAR LRCL 162230Z 09004KT CAVOK M01/M03 Q1002",
      "taf": "TAF LRCL 162000Z 1621/1706 VRB04KT 9999 BKN065"
    },
    {
      "icao": "LRCV",
      "alert": "OK",
      "vis_m": 1300,
      "fzfg": false,
      "metar_trigger": false,
      "taf_trigger": false,
      "metar": "METAR LRCV 162230Z 10011KT 1300 R26/1700D BR OVC001 01/01 Q1003",
      "taf": "TAF LRCV 162000Z 1621/1706 09012KT 0800 FG OVC001"
    },
    {
      "icao": "LRIA",
      "alert": "OK",
      "vis_m": 9999,
      "fzfg": false,
      "metar_trigger": false,
      "taf_trigger": false,
      "metar": "METAR LRIA 162230Z 08005KT 9999 OVC015 M04/M07 Q1006",
      "taf": "TAF LRIA 162000Z 1621/1706 VRB04KT 9999 OVC020"
    },
    {
      "icao": "LROP",
      "alert": "OK",
      "vis_m": 5000,
      "fzfg": false,
      "metar_trigger": false,
      "taf_trigger": false,
      "metar": "METAR LROP 162230Z 03007KT 5000 BR FEW008 BKN013 OVC024 02/01 Q1005 NOSIG",
      "taf": ""
    },
    {
      "icao": "LRSB",
      "alert": "OK",
      "vis_m": 8000,
      "fzfg": false,
      "metar_trigger": false,
      "taf_trigger": false,
      "metar": "METAR LRSB 162230Z VRB02KT 8000 SCT065 M00/M01 Q1000",
      "taf": "TAF LRSB 161700Z 1618/1718 VRB04KT CAVOK"
    },
    {
      "icao": "LRSM",
      "alert": "OK",
      "vis_m": 9999,
      "fzfg": false,
      "metar_trigger": false,
      "taf_trigger": false,
      "metar": "METAR LRSM 162230Z AUTO VRB02KT 9999 OVC050/// 00/M02 Q1003",
      "taf": "TAF LRSM 161400Z 1615/1624 21008KT 9999 BKN045"
    },
    {
      "icao": "LRSV",
      "alert": "OK",
      "vis_m": 5000,
      "fzfg": false,
      "metar_trigger": false,
      "taf_trigger": false,
      "metar": "METAR LRSV 162230Z 10005KT 5000 BR OVC009 M05/M06 Q1003",
      "taf": "TAF LRSV 162000Z 1621/1706 07006KT 7000 OVC010"
    },
    {
      "icao": "LRTM",
      "alert": "OK",
      "vis_m": 4100,
      "fzfg": false,
      "metar_trigger": false,
      "taf_trigger": false,
      "metar": "METAR LRTM 162230Z AUTO 09003KT 4100 BR NCD M01/M02 Q1002",
      "taf": "TAF LRTM 162000Z 1621/1706 VRB04KT CAVOK"
    },
    {
      "icao": "LRTR",
      "alert": "OK",
      "vis_m": 8000,
      "fzfg": false,
      "metar_trigger": false,
      "taf_trigger": false,
      "metar": "METAR LRTR 162230Z 09009KT 8000 -RA BKN023 BKN035 02/02 Q1001",
      "taf": "TAF LRTR 161700Z 1618/1718 11006KT 9999 BKN045"
    },
    {
      "icao": "LTAC",
      "alert": "OK",
      "vis_m": 9999,
      "fzfg": false,
      "metar_trigger": false,
      "taf_trigger": false,
      "metar": "METAR LTAC 162250Z 24006KT 9999 SCT035 BKN080 10/04 Q1008 NOSIG RMK RWY21C 24007KT RWY03L 25004KT RWY21R 23006KT RWY03R 24005KT RWY21L 23007KT",
      "taf": "TAF LTAC 162240Z 1700/1724 21009KT 9999 SCT035 BKN100"
    },
    {
      "icao": "LTFM",
      "alert": "OK",
      "vis_m": 4800,
      "fzfg": false,
      "metar_trigger": false,
      "taf_trigger": false,
      "metar": "METAR LTFM 162250Z 35003KT 250V030 4800 2200NW -SHRA BR FEW002 SCT022 BKN080 08/07 Q1003 NOSIG RMK RWY17L VRB02KT RWY34L VRB02KT RWY16R 00000KT RWY36 33003KT 240V010 RWY18 33003KT 280V060",
      "taf": "TAF LTFM 162240Z 1700/1806 32007KT 6000 -SHRA SCT002 BKN020"
    },
    {
      "icao": "LUKK",
      "alert": "OK",
      "vis_m": 9999,
      "fzfg": false,
      "metar_trigger": false,
      "taf_trigger": false,
      "metar": "METAR LUKK 162230Z 07005KT 9999 OVC044 M04/M07 Q1007 NOSIG",
      "taf": "TAF LUKK 161713Z 1618/1718 VRB05KT 9999 BKN020"
    },
    {
      "icao": "LWOH",
      "alert": "OK",
      "vis_m": null,
      "fzfg": false,
      "metar_trigger": false,
      "taf_trigger": false,
      "metar": "",
      "taf": "TAF LWOH 162010Z 1621/1721 16012KT 9999 BKN035"
    },
    {
      "icao": "LWSK",
      "alert": "OK",
      "vis_m": 9999,
      "fzfg": false,
      "metar_trigger": false,
      "taf_trigger": false,
      "metar": "METAR LWSK 162220Z 11002KT 9999 BKN090 03/02 Q1001 NOSIG",
      "taf": "TAF LWSK 162010Z 1621/1721 VRB02KT CAVOK"
    },
    {
      "icao": "LYBE",
      "alert": "OK",
      "vis_m": 9999,
      "fzfg": false,
      "metar_trigger": false,
      "taf_trigger": false,
      "metar": "METAR LYBE 162230Z 04004KT CAVOK 05/02 Q1000 NOSIG",
      "taf": "TAF LYBE 161700Z 1618/1718 05007KT 9999 SCT040 TX05/1714Z TN01/1709Z"
    },
    {
      "icao": "LYNI",
      "alert": "OK",
      "vis_m": 9999,
      "fzfg": false,
      "metar_trigger": false,
      "taf_trigger": false,
      "metar": "METAR LYNI 162230Z VRB02KT 9999 FEW060 06/04 Q1000 NOSIG",
      "taf": "TAF LYNI 161700Z 1618/1718 33004KT 9999 SCT060 TX06/1618Z TN01/1718Z"
    },
    {
      "icao": "LYPG",
      "alert": "OK",
      "vis_m": 9999,
      "fzfg": false,
      "metar_trigger": false,
      "taf_trigger": false,
      "metar": "METAR LYPG 162230Z 11011KT 9999 RA FEW020 SCT040 OVC070 10/08 Q0998 NOSIG",
      "taf": "TAF LYPG 161700Z 1618/1718 14005KT 8000 SCT030 BKN060 TX11/1712Z TN08/1706Z"
    },
    {
      "icao": "LZIB",
      "alert": "OK",
      "vis_m": 3800,
      "fzfg": false,
      "metar_trigger": false,
      "taf_trigger": false,
      "metar": "METAR LZIB 162230Z 06005KT 3800 SN OVC006 M02/M03 Q1001 TEMPO 4000 SN BKN005",
      "taf": ""
    },
    {
      "icao": "LZKZ",
      "alert": "OK",
      "vis_m": 7000,
      "fzfg": false,
      "metar_trigger": false,
      "taf_trigger": false,
      "metar": "METAR LZKZ 162230Z 15002KT 7000 OVC009 M03/M04 Q1002 TEMPO OVC012",
      "taf": ""
    },
    {
      "icao": "LZTT",
      "alert": "OK",
      "vis_m": 9999,
      "fzfg": false,
      "metar_trigger": false,
      "taf_trigger": false,
      "metar": "METAR LZTT 162230Z 00000KT 9999 FEW016 SCT026 M08/M10 Q0998",
      "taf": "TAF LZTT 161715Z 1618/1718 24005KT 9999 FEW012 SCT030"
    },
    {
      "icao": "OEJN",
      "alert": "OK",
      "vis_m": 9999,
      "fzfg": false,
      "metar_trigger": false,
      "taf_trigger": false,
      "metar": "METAR OEJN 162200Z 35003KT CAVOK 24/19 Q1011 NOSIG",
      "taf": "TAF OEJN 161700Z 1618/1724 VRB03KT CAVOK"
    },
    {
      "icao": "OEMA",
      "alert": "OK",
      "vis_m": 9999,
      "fzfg": false,
      "metar_trigger": false,
      "taf_trigger": false,
      "metar": "METAR OEMA 162200Z 09009KT CAVOK 25/M02 Q1017 NOSIG",
      "taf": "TAF OEMA 161700Z 1618/1724 09006KT CAVOK"
    },
    {
      "icao": "OJAI",
      "alert": "OK",
      "vis_m": 4000,
      "fzfg": false,
      "metar_trigger": false,
      "taf_trigger": false,
      "metar": "METAR OJAI 162200Z 06004KT 4000 HZ NSC 15/M01 Q1015 NOSIG",
      "taf": "TAF OJAI 161643Z 1618/1724 09010KT 3000 DU NSC"
    },
    {
      "icao": "OMAA",
      "alert": "OK",
      "vis_m": 9999,
      "fzfg": false,
      "metar_trigger": false,
      "taf_trigger": false,
      "metar": "METAR OMAA 162230Z 31003KT CAVOK 21/19 Q1013 NOSIG",
      "taf": "TAF OMAA 162300Z 1700/1806 31007KT 8000 NSC"
    },
    {
      "icao": "OMDB",
      "alert": "OK",
      "vis_m": 9999,
      "fzfg": false,
      "metar_trigger": false,
      "taf_trigger": false,
      "metar": "METAR OMDB 162230Z 11006KT 060V140 CAVOK 23/16 Q1013 NOSIG",
      "taf": "TAF OMDB 162300Z 1700/1806 12005KT 8000 NSC"
    },
    {
      "icao": "UAAA",
      "alert": "OK",
      "vis_m": 1400,
      "fzfg": false,
      "metar_trigger": false,
      "taf_trigger": false,
      "metar": "METAR UAAA 162230Z 25002MPS 210V270 1400 R23L/P2000 -SHRA BR BKN035CB OVC100 04/03 Q1020 NOSIG",
      "taf": "TAF UAAA 161703Z 1618/1718 22003MPS 3100 -SHRA BR BKN011CB OVC050 TX07/1709Z TNM00/1702Z"
    },
    {
      "icao": "UBBB",
      "alert": "OK",
      "vis_m": 9999,
      "fzfg": false,
      "metar_trigger": false,
      "taf_trigger": false,
      "metar": "METAR UBBB 162230Z 18013KT 150V210 CAVOK 12/08 Q1010 NOSIG",
      "taf": "TAF UBBB 162301Z 1700/1724 18012KT CAVOK TX16/1710Z TN10/1702Z"
    },
    {
      "icao": "UDSG",
      "alert": "OK",
      "vis_m": 800,
      "fzfg": true,
      "metar_trigger": false,
      "taf_trigger": false,
      "metar": "METAR UDSG 162230Z 11001KT 0800 R02/P2000U FZFG VV003 M04/M04 Q1020 NOSIG",
      "taf": "TAF UDSG 161658Z 1618/1718 VRB06KT 5000 BR SCT040"
    },
    {
      "icao": "UDYZ",
      "alert": "OK",
      "vis_m": 2900,
      "fzfg": false,
      "metar_trigger": false,
      "taf_trigger": false,
      "metar": "METAR UDYZ 162230Z 25001KT 2900 BR NSC 01/01 Q1019 NOSIG",
      "taf": "TAF UDYZ 161700Z 1618/1718 03006KT 9999 NSC"
    },
    {
      "icao": "UGKO",
      "alert": "OK",
      "vis_m": 9999,
      "fzfg": false,
      "metar_trigger": false,
      "taf_trigger": false,
      "metar": "METAR UGKO 162230Z 08017KT CAVOK 19/01 Q1006 NOSIG",
      "taf": "TAF UGKO 161700Z 1618/1718 08017KT CAVOK TX21/1711Z TN13/1703Z"
    }
  ]
}