{
  "ts_utc": "2026-01-22T16:19:53Z",
  "threshold_m": 150,
  "source": "stations_override.txt (ICAO list) + aviationweather.gov (METAR/TAF raw)",
  "station_count": 159,
  "stations": [
    {
      "icao": "BIKF",
      "alert": "OK",
      "vis_m": 9999,
      "fzfg": false,
      "metar_trigger": false,
      "taf_trigger": false,
      "metar": "METAR BIKF 221600Z 08021KT 9999 -RA OVC027 06/05 Q0984",
      "taf": "TAF BIKF 221331Z 2215/2315 07020KT 9999 SCT020 BKN030 TX08/2216Z TN04/2312Z"
    },
    {
      "icao": "BKPR",
      "alert": "OK",
      "vis_m": 9999,
      "fzfg": false,
      "metar_trigger": false,
      "taf_trigger": false,
      "metar": "METAR BKPR 221600Z 17002KT 9999 BKN035 04/01 Q1002 NOSIG",
      "taf": "TAF BKPR 221130Z 2212/2312 VRB03KT 9999 BKN040"
    },
    {
      "icao": "EBCI",
      "alert": "OK",
      "vis_m": 9999,
      "fzfg": false,
      "metar_trigger": false,
      "taf_trigger": false,
      "metar": "METAR EBCI 221550Z 14006KT 100V170 9999 BKN028 07/03 Q0993 NOSIG",
      "taf": "TAF EBCI 221120Z 2212/2318 17010KT CAVOK"
    },
    {
      "icao": "EDDB",
      "alert": "OK",
      "vis_m": 9000,
      "fzfg": false,
      "metar_trigger": false,
      "taf_trigger": false,
      "metar": "METAR EDDB 221550Z AUTO 07005KT 9000 NCD M03/M06 Q1002 NOSIG",
      "taf": "TAF EDDB 221100Z 2212/2312 08008KT CAVOK"
    },
    {
      "icao": "EDDH",
      "alert": "OK",
      "vis_m": 9999,
      "fzfg": false,
      "metar_trigger": false,
      "taf_trigger": false,
      "metar": "METAR EDDH 221550Z AUTO 08011KT CAVOK M01/M05 Q1002 NOSIG",
      "taf": "TAF EDDH 221100Z 2212/2318 08010KT 9999 FEW025"
    },
    {
      "icao": "EDDK",
      "alert": "OK",
      "vis_m": 9999,
      "fzfg": false,
      "metar_trigger": false,
      "taf_trigger": false,
      "metar": "METAR EDDK 221550Z AUTO 13010KT CAVOK 05/M03 Q0996 NOSIG",
      "taf": "TAF EDDK 221100Z 2212/2318 12008KT CAVOK"
    },
    {
      "icao": "EDDN",
      "alert": "OK",
      "vis_m": 9999,
      "fzfg": false,
      "metar_trigger": false,
      "taf_trigger": false,
      "metar": "METAR EDDN 221550Z AUTO 16007KT 9999 BKN016 M06/M09 Q1000 TEMPO OVC014",
      "taf": ""
    },
    {
      "icao": "EDDS",
      "alert": "OK",
      "vis_m": 9999,
      "fzfg": false,
      "metar_trigger": false,
      "taf_trigger": false,
      "metar": "METAR EDDS 221550Z AUTO VRB01KT CAVOK 02/M03 Q0997 NOSIG",
      "taf": "TAF EDDS 221100Z 2212/2312 VRB02KT CAVOK"
    },
    {
      "icao": "EDFH",
      "alert": "OK",
      "vis_m": 7000,
      "fzfg": false,
      "metar_trigger": false,
      "taf_trigger": false,
      "metar": "METAR EDFH 221550Z 14011KT 7000 OVC012 M00/M01 Q0996",
      "taf": "TAF EDFH 221100Z 2212/2312 14014KT CAVOK"
    },
    {
      "icao": "EDJA",
      "alert": "OK",
      "vis_m": 250,
      "fzfg": true,
      "metar_trigger": false,
      "taf_trigger": false,
      "metar": "METAR EDJA 221550Z VRB01KT 0250 R06/0325N FZFG VV/// M03/M04 Q0997",
      "taf": "TAF EDJA 221400Z 2215/2224 VRB03KT 0500 FZFG VV002"
    },
    {
      "icao": "EDLW",
      "alert": "OK",
      "vis_m": 9999,
      "fzfg": false,
      "metar_trigger": false,
      "taf_trigger": false,
      "metar": "METAR EDLW 221550Z 04007KT CAVOK 02/M04 Q0996",
      "taf": "TAF EDLW 221100Z 2212/2312 VRB03KT CAVOK"
    },
    {
      "icao": "EDNY",
      "alert": "OK",
      "vis_m": 3400,
      "fzfg": false,
      "metar_trigger": false,
      "taf_trigger": false,
      "metar": "METAR EDNY 221550Z VRB01KT 3400 BR OVC005 M01/M01 Q0999",
      "taf": "TAF EDNY 221400Z 2215/2224 VRB02KT 4000 BR OVC003"
    },
    {
      "icao": "EDSB",
      "alert": "OK",
      "vis_m": 4200,
      "fzfg": false,
      "metar_trigger": false,
      "taf_trigger": false,
      "metar": "METAR EDSB 221550Z 07003KT 020V100 4200 BR OVC004 M01/M01 Q0999",
      "taf": "TAF EDSB 221100Z 2212/2312 VRB02KT 3000 BR OVC005"
    },
    {
      "icao": "EETN",
      "alert": "OK",
      "vis_m": 9999,
      "fzfg": false,
      "metar_trigger": false,
      "taf_trigger": false,
      "metar": "METAR EETN 221550Z 09009KT 9999 BKN024 M09/M11 Q1024 NOSIG",
      "taf": "TAF EETN 221130Z 2212/2312 10012KT 9999 OVC015"
    },
    {
      "icao": "EFTU",
      "alert": "OK",
      "vis_m": 9999,
      "fzfg": false,
      "metar_trigger": false,
      "taf_trigger": false,
      "metar": "METAR EFTU 221550Z AUTO 09010KT 9999 OVC016 M06/M09 Q1025",
      "taf": "TAF EFTU 221433Z 2215/2315 09010KT 9999 OVC017"
    },
    {
      "icao": "EGBB",
      "alert": "OK",
      "vis_m": 9000,
      "fzfg": false,
      "metar_trigger": false,
      "taf_trigger": false,
      "metar": "METAR EGBB 221550Z 11011KT 9000 BKN010 08/07 Q0985",
      "taf": ""
    },
    {
      "icao": "EGGP",
      "alert": "OK",
      "vis_m": 9999,
      "fzfg": false,
      "metar_trigger": false,
      "taf_trigger": false,
      "metar": "METAR EGGP 221550Z 11013KT 9999 BKN012 08/06 Q0985",
      "taf": "TAF EGGP 221054Z 2212/2312 12012KT 9999 BKN020"
    },
    {
      "icao": "EGGW",
      "alert": "OK",
      "vis_m": 9999,
      "fzfg": false,
      "metar_trigger": false,
      "taf_trigger": false,
      "metar": "METAR EGGW 221550Z AUTO 11010KT 9999 OVC006 07/07 Q0986",
      "taf": ""
    },
    {
      "icao": "EGKK",
      "alert": "OK",
      "vis_m": 9000,
      "fzfg": false,
      "metar_trigger": false,
      "taf_trigger": false,
      "metar": "METAR EGKK 221550Z 13006KT 9000 -RA BKN008 09/08 Q0985",
      "taf": ""
    },
    {
      "icao": "EGNM",
      "alert": "OK",
      "vis_m": 1800,
      "fzfg": false,
      "metar_trigger": false,
      "taf_trigger": false,
      "metar": "METAR EGNM 221550Z 09011KT 1800 -RA BR SCT002 OVC003 04/04 Q0988",
      "taf": "TAF EGNM 221100Z 2212/2312 12012KT 6000 BKN008"
    },
    {
      "icao": "EGPD",
      "alert": "OK",
      "vis_m": 8000,
      "fzfg": false,
      "metar_trigger": false,
      "taf_trigger": false,
      "metar": "METAR EGPD 221550Z 12015G26KT 8000 BKN015 06/02 Q0997 TEMPO BKN012",
      "taf": "TAF EGPD 221054Z 2212/2312 13020G35KT 9999 BKN016"
    },
    {
      "icao": "EGPF",
      "alert": "OK",
      "vis_m": 6000,
      "fzfg": false,
      "metar_trigger": false,
      "taf_trigger": false,
      "metar": "METAR EGPF 221550Z AUTO 07015KT 6000 -RA BKN014/// OVC019/// //////TCU 06/05 Q0989",
      "taf": "TAF EGPF 221057Z 2212/2312 08011KT 9999 FEW012 BKN025"
    },
    {
      "icao": "EHBK",
      "alert": "OK",
      "vis_m": 9999,
      "fzfg": false,
      "metar_trigger": false,
      "taf_trigger": false,
      "metar": "METAR EHBK 221555Z AUTO 15006KT 9999 BKN048 08/03 Q0994 NOSIG",
      "taf": "TAF EHBK 221119Z 2212/2318 15007KT CAVOK"
    },
    {
      "icao": "EHEH",
      "alert": "OK",
      "vis_m": 9999,
      "fzfg": false,
      "metar_trigger": false,
      "taf_trigger": false,
      "metar": "METAR EHEH 221555Z AUTO 10005KT 060V180 9999 OVC160 05/M01 Q0994 BLU NOSIG",
      "taf": ""
    },
    {
      "icao": "EKBI",
      "alert": "OK",
      "vis_m": 9999,
      "fzfg": false,
      "metar_trigger": false,
      "taf_trigger": false,
      "metar": "METAR EKBI 221550Z 07019KT 9999 BKN026 M01/M05 Q1006",
      "taf": "TAF EKBI 221427Z 2215/2315 08015KT 9999 -SG OVC020"
    },
    {
      "icao": "EKCH",
      "alert": "OK",
      "vis_m": 9999,
      "fzfg": false,
      "metar_trigger": false,
      "taf_trigger": false,
      "metar": "METAR EKCH 221550Z AUTO 07015KT 9999 OVC019/// 00/M03 Q1008 NOSIG",
      "taf": "TAF EKCH 221427Z 2215/2315 07018KT 9999 BKN020"
    },
    {
      "icao": "ENAL",
      "alert": "OK",
      "vis_m": 9999,
      "fzfg": false,
      "metar_trigger": false,
      "taf_trigger": false,
      "metar": "METAR ENAL 221550Z 12014KT CAVOK 04/M10 Q1012",
      "taf": "TAF ENAL 221400Z 2215/2224 13008KT CAVOK"
    },
    {
      "icao": "ENBR",
      "alert": "OK",
      "vis_m": 9999,
      "fzfg": false,
      "metar_trigger": false,
      "taf_trigger": false,
      "metar": "METAR ENBR 221550Z 02004KT CAVOK 01/M06 Q1010 NOSIG RMK WIND 1200FT 03004KT",
      "taf": "TAF ENBR 221100Z 2212/2312 07005KT CAVOK"
    },
    {
      "icao": "ENGM",
      "alert": "OK",
      "vis_m": 9999,
      "fzfg": false,
      "metar_trigger": false,
      "taf_trigger": false,
      "metar": "METAR ENGM 221550Z 04008KT 360V060 9999 BKN019 M03/M07 Q1019 NOSIG",
      "taf": "TAF ENGM 221100Z 2212/2312 02008KT 9999 OVC020"
    },
    {
      "icao": "ENHD",
      "alert": "OK",
      "vis_m": 9999,
      "fzfg": false,
      "metar_trigger": false,
      "taf_trigger": false,
      "metar": "METAR ENHD 221550Z 09008KT 060V120 CAVOK 02/M09 Q1010",
      "taf": "TAF ENHD 221400Z 2215/2223 10012KT CAVOK"
    },
    {
      "icao": "ENTC",
      "alert": "OK",
      "vis_m": 9999,
      "fzfg": false,
      "metar_trigger": false,
      "taf_trigger": false,
      "metar": "METAR ENTC 221550Z VRB02KT 9999 FEW005 M09/M11 Q1024 NOSIG RMK WIND 2600FT 13004KT",
      "taf": "TAF ENTC 221100Z 2212/2312 VRB02KT 9999 FEW001"
    },
    {
      "icao": "ENTO",
      "alert": "OK",
      "vis_m": 9999,
      "fzfg": false,
      "metar_trigger": false,
      "taf_trigger": false,
      "metar": "METAR ENTO 221550Z 04010KT 9999 BKN022 M02/M05 Q1017 NOSIG",
      "taf": "TAF ENTO 221100Z 2212/2312 04012KT 9999 OVC020"
    },
    {
      "icao": "ENVA",
      "alert": "OK",
      "vis_m": 9999,
      "fzfg": false,
      "metar_trigger": false,
      "taf_trigger": false,
      "metar": "METAR ENVA 221550Z 09008KT CAVOK M02/M09 Q1021 TEMPO 14015G25KT RMK WIND 670FT 13011KT",
      "taf": "TAF ENVA 221100Z 2212/2312 11010KT CAVOK"
    },
    {
      "icao": "ENZV",
      "alert": "OK",
      "vis_m": 9999,
      "fzfg": false,
      "metar_trigger": false,
      "taf_trigger": false,
      "metar": "METAR ENZV 221550Z 10018KT CAVOK 01/M08 Q1010 NOSIG",
      "taf": "TAF ENZV 221100Z 2212/2312 09008KT CAVOK"
    },
    {
      "icao": "EPGD",
      "alert": "OK",
      "vis_m": 6000,
      "fzfg": false,
      "metar_trigger": false,
      "taf_trigger": false,
      "metar": "METAR EPGD 221600Z 08007KT 6000 NSC M08/M09 Q1008",
      "taf": "TAF EPGD 221130Z 2212/2312 11007KT 4500 BR NSC"
    },
    {
      "icao": "EPKK",
      "alert": "OK",
      "vis_m": 4500,
      "fzfg": false,
      "metar_trigger": false,
      "taf_trigger": false,
      "metar": "METAR EPKK 221600Z 09002KT 4500 HZ BKN063 M03/M08 Q1003",
      "taf": "TAF EPKK 221430Z 2215/2315 07004KT 5000 HZ NSC"
    },
    {
      "icao": "EPKT",
      "alert": "OK",
      "vis_m": 9000,
      "fzfg": false,
      "metar_trigger": false,
      "taf_trigger": false,
      "metar": "METAR EPKT 221600Z 10004KT 9000 NSC M02/M08 Q1002",
      "taf": "TAF EPKT 221130Z 2212/2312 10004KT 7000 NSC"
    },
    {
      "icao": "EPLB",
      "alert": "OK",
      "vis_m": 3000,
      "fzfg": false,
      "metar_trigger": false,
      "taf_trigger": false,
      "metar": "METAR EPLB 221600Z 07011KT 3000 BR OVC002 M12/M13 Q1007",
      "taf": ""
    },
    {
      "icao": "EPMO",
      "alert": "OK",
      "vis_m": 6000,
      "fzfg": false,
      "metar_trigger": false,
      "taf_trigger": false,
      "metar": "METAR EPMO 221600Z 08014KT 6000 NSC M08/M11 Q1008",
      "taf": "TAF EPMO 221130Z 2212/2312 08012KT 6000 NSC"
    },
    {
      "icao": "EPPO",
      "alert": "OK",
      "vis_m": 8000,
      "fzfg": false,
      "metar_trigger": false,
      "taf_trigger": false,
      "metar": "METAR EPPO 221600Z 08006KT 8000 NSC M03/M08 Q1004",
      "taf": "TAF EPPO 221130Z 2212/2312 10006KT CAVOK"
    },
    {
      "icao": "EPRA",
      "alert": "OK",
      "vis_m": 9000,
      "fzfg": false,
      "metar_trigger": false,
      "taf_trigger": false,
      "metar": "METAR EPRA 221600Z 08008KT 9000 NSC M11/M15 Q1006",
      "taf": "TAF EPRA 221430Z 2215/2224 09007KT 8000 NSC"
    },
    {
      "icao": "EPRZ",
      "alert": "OK",
      "vis_m": 5000,
      "fzfg": false,
      "metar_trigger": false,
      "taf_trigger": false,
      "metar": "METAR EPRZ 221600Z 08013KT 5000 BR NSC M09/M13 Q1005",
      "taf": "TAF EPRZ 221130Z 2212/2312 09009KT 4000 BR HZ NSC"
    },
    {
      "icao": "EPSC",
      "alert": "OK",
      "vis_m": 6000,
      "fzfg": false,
      "metar_trigger": false,
      "taf_trigger": false,
      "metar": "METAR EPSC 221600Z 04004KT 010V070 6000 NSC M03/M06 Q1004",
      "taf": "TAF EPSC 221130Z 2212/2312 09006KT 7000 NSC"
    },
    {
      "icao": "EPSY",
      "alert": "OK",
      "vis_m": 6000,
      "fzfg": false,
      "metar_trigger": false,
      "taf_trigger": false,
      "metar": "METAR EPSY 221600Z VRB05KT 6000 NSC M12/M14 Q1010",
      "taf": "TAF EPSY 221430Z 2215/2224 09008KT 7000 NSC"
    },
    {
      "icao": "EPWA",
      "alert": "OK",
      "vis_m": 9000,
      "fzfg": false,
      "metar_trigger": false,
      "taf_trigger": false,
      "metar": "METAR EPWA 221600Z 08013KT 9000 NSC M08/M12 Q1008 NOSIG",
      "taf": "TAF EPWA 221430Z 2215/2315 08010KT 9000 NSC"
    },
    {
      "icao": "EPWR",
      "alert": "OK",
      "vis_m": 9999,
      "fzfg": false,
      "metar_trigger": false,
      "taf_trigger": false,
      "metar": "METAR EPWR 221600Z VRB02KT CAVOK M01/M06 Q1002",
      "taf": "TAF EPWR 221430Z 2215/2315 12007KT CAVOK"
    },
    {
      "icao": "ESGG",
      "alert": "OK",
      "vis_m": 9999,
      "fzfg": false,
      "metar_trigger": false,
      "taf_trigger": false,
      "metar": "METAR ESGG 221550Z 07015KT 9999 BKN022 M01/M05 Q1012",
      "taf": "TAF ESGG 221430Z 2215/2315 07014G24KT 9999 BKN020"
    },
    {
      "icao": "ESKN",
      "alert": "OK",
      "vis_m": 9999,
      "fzfg": false,
      "metar_trigger": false,
      "taf_trigger": false,
      "metar": "METAR ESKN 221550Z 06009KT 9999 SN DRSN SCT006 BKN017 M03/M03 Q1019",
      "taf": ""
    },
    {
      "icao": "ESMS",
      "alert": "OK",
      "vis_m": 8000,
      "fzfg": false,
      "metar_trigger": false,
      "taf_trigger": false,
      "metar": "METAR ESMS 221550Z 08018KT 8000 BKN015 OVC024 M01/M04 Q1007",
      "taf": "TAF ESMS 221427Z 2215/2315 07015KT 9000 BKN020"
    },
    {
      "icao": "ESSA",
      "alert": "OK",
      "vis_m": 9999,
      "fzfg": false,
      "metar_trigger": false,
      "taf_trigger": false,
      "metar": "METAR ESSA 221550Z 07011KT 9999 BKN015 M03/M06 Q1021 NOSIG",
      "taf": "TAF ESSA 221430Z 2215/2315 08014KT 9999 SCT008 OVC015"
    },
    {
      "icao": "EYKA",
      "alert": "OK",
      "vis_m": 9999,
      "fzfg": false,
      "metar_trigger": false,
      "taf_trigger": false,
      "metar": "METAR EYKA 221550Z 09013KT 9999 OVC013 M07/M10 Q1016",
      "taf": "TAF EYKA 221100Z 2212/2312 09012KT 8000 OVC015"
    },
    {
      "icao": "EYPA",
      "alert": "OK",
      "vis_m": 9999,
      "fzfg": false,
      "metar_trigger": false,
      "taf_trigger": false,
      "metar": "METAR EYPA 221550Z 09012KT 9999 OVC014 M05/M09 Q1015",
      "taf": "TAF EYPA 221100Z 2212/2312 10012KT 9000 OVC015"
    },
    {
      "icao": "EYVI",
      "alert": "OK",
      "vis_m": 9999,
      "fzfg": false,
      "metar_trigger": false,
      "taf_trigger": false,
      "metar": "METAR EYVI 221550Z 09009KT 060V130 9999 -SN OVC009 M09/M10 Q1015 NOSIG",
      "taf": "TAF EYVI 221100Z 2212/2312 08010KT 8000 BKN010"
    },
    {
      "icao": "GCFV",
      "alert": "OK",
      "vis_m": 9999,
      "fzfg": false,
      "metar_trigger": false,
      "taf_trigger": false,
      "metar": "METAR GCFV 221600Z 27011G21KT 240V320 9999 SCT020 BKN030 21/16 Q1018",
      "taf": "TAF GCFV 221400Z 2215/2315 31008KT 9999 SCT025 TX22/2314Z TN16/2306Z"
    },
    {
      "icao": "GCLP",
      "alert": "OK",
      "vis_m": 9999,
      "fzfg": false,
      "metar_trigger": false,
      "taf_trigger": false,
      "metar": "METAR GCLP 221600Z 17006KT 100V210 9999 FEW022 BKN030 20/15 Q1019 NOSIG",
      "taf": "TAF GCLP 221400Z 2215/2315 36010KT 9999 FEW025 TX23/2314Z TN15/2306Z"
    },
    {
      "icao": "GCTS",
      "alert": "OK",
      "vis_m": 9999,
      "fzfg": false,
      "metar_trigger": false,
      "taf_trigger": false,
      "metar": "METAR GCTS 221600Z 21007KT 160V260 9999 FEW025 20/14 Q1019 NOSIG",
      "taf": "TAF GCTS 221400Z 2215/2315 16008KT 9999 SCT025 TX23/2314Z TN15/2306Z"
    },
    {
      "icao": "GMAD",
      "alert": "OK",
      "vis_m": 8000,
      "fzfg": false,
      "metar_trigger": false,
      "taf_trigger": false,
      "metar": "METAR GMAD 221600Z 03004KT 8000 BKN009 15/15 Q1016 NOSIG",
      "taf": "TAF GMAD 221100Z 2212/2318 24006KT 6000 SCT010 BKN026"
    },
    {
      "icao": "GMMN",
      "alert": "OK",
      "vis_m": 6000,
      "fzfg": false,
      "metar_trigger": false,
      "taf_trigger": false,
      "metar": "METAR GMMN 221600Z 27011KT 240V300 6000 BKN020 17/12 Q1015 NOSIG",
      "taf": "TAF GMMN 221100Z 2212/2318 22012KT 9999 SCT012 BKN018"
    },
    {
      "icao": "GMMX",
      "alert": "OK",
      "vis_m": 9999,
      "fzfg": false,
      "metar_trigger": false,
      "taf_trigger": false,
      "metar": "METAR GMMX 221600Z 29009KT 260V320 9999 SCT010 BKN020 17/14 Q1015 NOSIG",
      "taf": "TAF GMMX 221100Z 2212/2318 24014KT 8000 SCT020 SCT080"
    },
    {
      "icao": "HEGN",
      "alert": "OK",
      "vis_m": 9999,
      "fzfg": false,
      "metar_trigger": false,
      "taf_trigger": false,
      "metar": "METAR HEGN 221500Z 13006KT CAVOK 23/18 Q1011 NOSIG",
      "taf": "TAF HEGN 221100Z 2212/2318 12012KT CAVOK"
    },
    {
      "icao": "HEMA",
      "alert": "OK",
      "vis_m": 9999,
      "fzfg": false,
      "metar_trigger": false,
      "taf_trigger": false,
      "metar": "METAR HEMA 221500Z 12010KT CAVOK 24/17 Q1010 NOSIG",
      "taf": "TAF HEMA 221100Z 2212/2318 13014KT CAVOK"
    },
    {
      "icao": "HESH",
      "alert": "OK",
      "vis_m": 9999,
      "fzfg": false,
      "metar_trigger": false,
      "taf_trigger": false,
      "metar": "METAR HESH 221500Z 01003KT CAVOK 23/12 Q1012 NOSIG",
      "taf": "TAF HESH 221100Z 2212/2318 15012KT CAVOK"
    },
    {
      "icao": "HESX",
      "alert": "OK",
      "vis_m": 9999,
      "fzfg": false,
      "metar_trigger": false,
      "taf_trigger": false,
      "metar": "METAR HESX 221500Z 16007KT CAVOK 21/01 Q1009 NOSIG",
      "taf": "TAF HESX 221100Z 2212/2318 25008KT 6000 SCT020 OVC070"
    },
    {
      "icao": "LATI",
      "alert": "OK",
      "vis_m": null,
      "fzfg": false,
      "metar_trigger": false,
      "taf_trigger": false,
      "metar": "",
      "taf": "TAF LATI 221100Z 2212/2312 VRB05KT 9999 -RA SCT035 BKN070 TX15/2312Z TN07/2304Z"
    },
    {
      "icao": "LBPD",
      "alert": "OK",
      "vis_m": 9999,
      "fzfg": false,
      "metar_trigger": false,
      "taf_trigger": false,
      "metar": "METAR LBPD 221600Z AUTO 00000KT 9999 NCD 01/01 Q1004 TEMPO 5000 BR",
      "taf": "TAF LBPD 221100Z 2212/2312 VRB04KT 5000 BR OVC015"
    },
    {
      "icao": "LBSF",
      "alert": "OK",
      "vis_m": 9999,
      "fzfg": false,
      "metar_trigger": false,
      "taf_trigger": false,
      "metar": "METAR LBSF 221600Z AUTO 16003KT 110V220 9999 OVC022/// 02/M00 Q1003 NOSIG",
      "taf": "TAF LBSF 221100Z 2212/2312 12006KT 9999 SCT020 BKN030 OVC040"
    },
    {
      "icao": "LBWN",
      "alert": "OK",
      "vis_m": 7000,
      "fzfg": false,
      "metar_trigger": false,
      "taf_trigger": false,
      "metar": "METAR LBWN 221600Z 27002KT 7000 -RA FEW017 OVC045 05/05 Q1004 TEMPO 5000 BR",
      "taf": "TAF LBWN 221100Z 2212/2312 11010KT 7000 BKN020 OVC040"
    },
    {
      "icao": "LCLK",
      "alert": "OK",
      "vis_m": 9000,
      "fzfg": false,
      "metar_trigger": false,
      "taf_trigger": false,
      "metar": "METAR LCLK 221600Z 06018KT 9000 -RA BKN016 13/11 Q1013 NOSIG",
      "taf": "TAF LCLK 221130Z 2212/2312 04020KT 9999 SCT025"
    },
    {
      "icao": "LCPH",
      "alert": "OK",
      "vis_m": 9999,
      "fzfg": false,
      "metar_trigger": false,
      "taf_trigger": false,
      "metar": "METAR LCPH 221600Z 10017KT 090V160 9999 FEW030 15/06 Q1009 NOSIG",
      "taf": "TAF LCPH 221130Z 2212/2312 13020KT 9999 SCT025"
    },
    {
      "icao": "LEAL",
      "alert": "OK",
      "vis_m": 9999,
      "fzfg": false,
      "metar_trigger": false,
      "taf_trigger": false,
      "metar": "METAR LEAL 221600Z 30011KT 9999 SCT060 16/02 Q1004 NOSIG",
      "taf": "TAF LEAL 221100Z 2212/2312 29015KT 9999 SCT040 TX17/2213Z TN09/2306Z"
    },
    {
      "icao": "LEBB",
      "alert": "OK",
      "vis_m": 9999,
      "fzfg": false,
      "metar_trigger": false,
      "taf_trigger": false,
      "metar": "METAR LEBB 221600Z 18007KT 140V240 9999 FEW045 13/03 Q0999 NOSIG",
      "taf": "TAF LEBB 221100Z 2212/2312 22009KT 9999 FEW040 TX14/2215Z TN07/2306Z"
    },
    {
      "icao": "LEBL",
      "alert": "OK",
      "vis_m": 9999,
      "fzfg": false,
      "metar_trigger": false,
      "taf_trigger": false,
      "metar": "METAR LEBL 221600Z 22005KT 9999 FEW030 15/08 Q0999 NOSIG",
      "taf": ""
    },
    {
      "icao": "LECH",
      "alert": "OK",
      "vis_m": 9999,
      "fzfg": false,
      "metar_trigger": false,
      "taf_trigger": false,
      "metar": "METAR LECH 221600Z AUTO 30011KT 260V330 CAVOK 14/M00 Q1001",
      "taf": ""
    },
    {
      "icao": "LEMD",
      "alert": "OK",
      "vis_m": 9999,
      "fzfg": false,
      "metar_trigger": false,
      "taf_trigger": false,
      "metar": "METAR LEMD 221600Z 21013G24KT 170V280 9999 FEW060 08/03 Q1005 NOSIG",
      "taf": "TAF LEMD 221100Z 2212/2318 21010KT 9999 FEW030 TX10/2214Z TN03/2308Z"
    },
    {
      "icao": "LEMG",
      "alert": "OK",
      "vis_m": 9999,
      "fzfg": false,
      "metar_trigger": false,
      "taf_trigger": false,
      "metar": "METAR LEMG 221600Z 31009KT 9999 FEW040 SCT055 15/05 Q1010 NOSIG",
      "taf": "TAF LEMG 221100Z 2212/2312 30012KT 9999 FEW040 TX17/2214Z TN10/2307Z"
    },
    {
      "icao": "LEVC",
      "alert": "OK",
      "vis_m": 9999,
      "fzfg": false,
      "metar_trigger": false,
      "taf_trigger": false,
      "metar": "METAR LEVC 221600Z 28019KT 9999 FEW050 15/02 Q1002 NOSIG",
      "taf": "TAF LEVC 221100Z 2212/2312 27010KT 9999 SCT040 TX17/2213Z TN07/2305Z"
    },
    {
      "icao": "LEXJ",
      "alert": "OK",
      "vis_m": 9999,
      "fzfg": false,
      "metar_trigger": false,
      "taf_trigger": false,
      "metar": "METAR LEXJ 221600Z 19007KT 130V230 CAVOK 13/03 Q0997",
      "taf": "TAF LEXJ 221400Z 2215/2315 24009KT 9999 SCT040 TX13/2215Z TN08/2306Z"
    },
    {
      "icao": "LEZG",
      "alert": "OK",
      "vis_m": 9999,
      "fzfg": false,
      "metar_trigger": false,
      "taf_trigger": false,
      "metar": "METAR LEZG 221600Z 29006KT 9999 FEW050 BKN060 12/05 Q1001 NOSIG",
      "taf": "TAF LEZG 221100Z 2212/2312 28008KT 9999 FEW040 TX13/2215Z TN05/2306Z"
    },
    {
      "icao": "LEZL",
      "alert": "OK",
      "vis_m": 9999,
      "fzfg": false,
      "metar_trigger": false,
      "taf_trigger": false,
      "metar": "METAR LEZL 221600Z 21004KT 170V240 9999 FEW030 14/09 Q1010 NOSIG",
      "taf": "TAF LEZL 221400Z 2215/2315 22010KT 9999 SCT030 TX15/2215Z TN08/2307Z"
    },
    {
      "icao": "LFBD",
      "alert": "OK",
      "vis_m": 9999,
      "fzfg": false,
      "metar_trigger": false,
      "taf_trigger": false,
      "metar": "METAR LFBD 221600Z AUTO 25010KT 9999 -RA FEW027/// BKN040/// BKN062/// ///TCU 10/07 Q0998 TEMPO 25015G25KT 3000 SHRA FEW020CB BKN035TCU",
      "taf": ""
    },
    {
      "icao": "LFLL",
      "alert": "OK",
      "vis_m": 9999,
      "fzfg": false,
      "metar_trigger": false,
      "taf_trigger": false,
      "metar": "METAR LFLL 221600Z 17007KT CAVOK 09/04 Q0998 NOSIG",
      "taf": "TAF LFLL 221100Z 2212/2318 15009KT CAVOK"
    },
    {
      "icao": "LFLS",
      "alert": "OK",
      "vis_m": 9999,
      "fzfg": false,
      "metar_trigger": false,
      "taf_trigger": false,
      "metar": "METAR LFLS 221600Z AUTO 08006KT CAVOK 07/05 Q0998 NOSIG",
      "taf": "TAF LFLS 221400Z 2215/2315 09004KT CAVOK"
    },
    {
      "icao": "LFMN",
      "alert": "OK",
      "vis_m": 9999,
      "fzfg": false,
      "metar_trigger": false,
      "taf_trigger": false,
      "metar": "METAR LFMN 221600Z 34006KT 320V020 9999 -RA SCT050 BKN070 09/06 Q0999 TEMPO 05010KT",
      "taf": "TAF LFMN 221400Z 2215/2321 34010KT 9999 FEW040 BKN050"
    },
    {
      "icao": "LFOB",
      "alert": "OK",
      "vis_m": 9999,
      "fzfg": false,
      "metar_trigger": false,
      "taf_trigger": false,
      "metar": "METAR LFOB 221600Z AUTO 19010KT 160V220 9999 -RA BKN014/// BKN022/// BKN033/// ///CB 09/08 Q0991 TEMPO 4000 -SHRA BKN009 BKN014TCU",
      "taf": "TAF LFOB 221100Z 2212/2312 15012KT 9999 BKN015"
    },
    {
      "icao": "LFPO",
      "alert": "OK",
      "vis_m": 9999,
      "fzfg": false,
      "metar_trigger": false,
      "taf_trigger": false,
      "metar": "METAR LFPO 221600Z 21008KT 180V250 9999 SCT020 BKN050 10/07 Q0992 NOSIG",
      "taf": "TAF LFPO 221100Z 2212/2318 18012KT 9999 BKN016"
    },
    {
      "icao": "LFSB",
      "alert": "OK",
      "vis_m": 9999,
      "fzfg": false,
      "metar_trigger": false,
      "taf_trigger": false,
      "metar": "METAR LFSB 221600Z AUTO 19004KT CAVOK 04/00 Q0998 NOSIG",
      "taf": "TAF LFSB 221100Z 2212/2312 15005KT CAVOK"
    },
    {
      "icao": "LGAV",
      "alert": "OK",
      "vis_m": 8000,
      "fzfg": false,
      "metar_trigger": false,
      "taf_trigger": false,
      "metar": "METAR LGAV 221550Z COR 20006KT 8000 SCT018 SCT030 13/09 Q1002 NOSIG",
      "taf": "TAF LGAV 221100Z 2212/2312 22010KT 9999 FEW015 SCT025 BKN070"
    },
    {
      "icao": "LGTS",
      "alert": "OK",
      "vis_m": 9999,
      "fzfg": false,
      "metar_trigger": false,
      "taf_trigger": false,
      "metar": "METAR LGTS 221550Z 00000KT 9999 SCT010 BKN025 09/07 Q1003 NOSIG",
      "taf": "TAF LGTS 221100Z 2212/2312 VRB03KT 9999 FEW010 BKN030"
    },
    {
      "icao": "LHBP",
      "alert": "OK",
      "vis_m": 8000,
      "fzfg": false,
      "metar_trigger": false,
      "taf_trigger": false,
      "metar": "METAR LHBP 221600Z 09004KT 040V110 8000 OVC030 M00/M02 Q1004 NOSIG",
      "taf": ""
    },
    {
      "icao": "LHDC",
      "alert": "OK",
      "vis_m": 9000,
      "fzfg": false,
      "metar_trigger": false,
      "taf_trigger": false,
      "metar": "METAR LHDC 221545Z AUTO 02005KT 9000 FEW048 BKN088 02/M03 Q1004 NOSIG",
      "taf": "TAF LHDC 221415Z 2215/2224 03006KT 8000 OVC045"
    },
    {
      "icao": "LIBD",
      "alert": "OK",
      "vis_m": 9999,
      "fzfg": false,
      "metar_trigger": false,
      "taf_trigger": false,
      "metar": "METAR LIBD 221550Z 34002KT 9999 SCT045 11/09 Q0999",
      "taf": "TAF LIBD 221100Z 2212/2312 25006KT 8000 SCT030"
    },
    {
      "icao": "LIBG",
      "alert": "OK",
      "vis_m": 9999,
      "fzfg": false,
      "metar_trigger": false,
      "taf_trigger": false,
      "metar": "METAR LIBG 221550Z 26002KT 9999 FEW030 12/09 Q0999",
      "taf": "TAF LIBG 221400Z 2215/2224 VRB05KT 9999 SCT020"
    },
    {
      "icao": "LIBP",
      "alert": "OK",
      "vis_m": 9999,
      "fzfg": false,
      "metar_trigger": false,
      "taf_trigger": false,
      "metar": "METAR LIBP 221550Z AUTO 01006KT 9999 BKN075/// 10/07 Q1000",
      "taf": "TAF LIBP 221100Z 2212/2312 VRB05KT 9999 SCT020"
    },
    {
      "icao": "LIBR",
      "alert": "OK",
      "vis_m": 9999,
      "fzfg": false,
      "metar_trigger": false,
      "taf_trigger": false,
      "metar": "METAR LIBR 221550Z VRB01KT CAVOK 11/09 Q0999",
      "taf": "TAF LIBR 221100Z 2212/2312 VRB05KT 9999 FEW020"
    },
    {
      "icao": "LICA",
      "alert": "OK",
      "vis_m": 9999,
      "fzfg": false,
      "metar_trigger": false,
      "taf_trigger": false,
      "metar": "METAR LICA 221550Z AUTO 30003KT 9999 BKN020/// 13/12 Q1000",
      "taf": "TAF LICA 221100Z 2212/2312 25012KT 9999 SCT040"
    },
    {
      "icao": "LICC",
      "alert": "OK",
      "vis_m": 9999,
      "fzfg": false,
      "metar_trigger": false,
      "taf_trigger": false,
      "metar": "METAR LICC 221550Z 07009KT 9999 FEW030 SCT060 15/13 Q1000",
      "taf": "TAF LICC 221100Z 2212/2312 26012KT 7000 FEW050"
    },
    {
      "icao": "LICJ",
      "alert": "OK",
      "vis_m": 9999,
      "fzfg": false,
      "metar_trigger": false,
      "taf_trigger": false,
      "metar": "METAR LICJ 221550Z 24010KT CAVOK 15/08 Q1000",
      "taf": "TAF LICJ 221100Z 2212/2312 26013KT 9999 SCT025"
    },
    {
      "icao": "LIMC",
      "alert": "OK",
      "vis_m": 1000,
      "fzfg": false,
      "metar_trigger": false,
      "taf_trigger": false,
      "metar": "METAR LIMC 221550Z VRB02KT 1000 R35R/1100D R17L/1900D R35L/1400U BCFG OVC001 02/02 Q1000 NOSIG",
      "taf": ""
    },
    {
      "icao": "LIME",
      "alert": "OK",
      "vis_m": 4000,
      "fzfg": false,
      "metar_trigger": false,
      "taf_trigger": false,
      "metar": "METAR LIME 221550Z 20003KT 160V260 4000 BR NSC 04/02 Q1000 NOSIG",
      "taf": "TAF LIME 221100Z 2212/2312 VRB04KT CAVOK"
    },
    {
      "icao": "LIMF",
      "alert": "OK",
      "vis_m": 7000,
      "fzfg": false,
      "metar_trigger": false,
      "taf_trigger": false,
      "metar": "METAR LIMF 221550Z 23003KT 7000 FEW140 05/00 Q1000",
      "taf": "TAF LIMF 221100Z 2212/2312 VRB04KT 4000 BR NSC"
    },
    {
      "icao": "LIMJ",
      "alert": "OK",
      "vis_m": 9999,
      "fzfg": false,
      "metar_trigger": false,
      "taf_trigger": false,
      "metar": "METAR LIMJ 221550Z 04011KT CAVOK 09/M00 Q0999",
      "taf": "TAF LIMJ 221100Z 2212/2312 03013KT 9999 FEW040"
    },
    {
      "icao": "LIPE",
      "alert": "OK",
      "vis_m": 7000,
      "fzfg": false,
      "metar_trigger": false,
      "taf_trigger": false,
      "metar": "METAR LIPE 221550Z VRB01KT 7000 BKN035 06/M00 Q1001",
      "taf": "TAF LIPE 221100Z 2212/2312 VRB05KT 9999 SCT020 SCT040"
    },
    {
      "icao": "LIPH",
      "alert": "OK",
      "vis_m": 9999,
      "fzfg": false,
      "metar_trigger": false,
      "taf_trigger": false,
      "metar": "METAR LIPH 221550Z 31002KT CAVOK 07/M05 Q1000",
      "taf": "TAF LIPH 221100Z 2212/2312 VRB05KT 9999 SCT060"
    },
    {
      "icao": "LIPQ",
      "alert": "OK",
      "vis_m": 9999,
      "fzfg": false,
      "metar_trigger": false,
      "taf_trigger": false,
      "metar": "METAR LIPQ 221550Z AUTO 27003KT 9999 BKN059/// 06/M04 Q1001",
      "taf": "TAF LIPQ 221100Z 2212/2312 VRB05KT 9999 SCT050"
    },
    {
      "icao": "LIPR",
      "alert": "OK",
      "vis_m": 8000,
      "fzfg": false,
      "metar_trigger": false,
      "taf_trigger": false,
      "metar": "METAR LIPR 221550Z 36003KT 8000 BKN017 05/02 Q1001",
      "taf": "TAF LIPR 221100Z 2212/2312 30006KT 9999 SCT020"
    },
    {
      "icao": "LIPX",
      "alert": "OK",
      "vis_m": 9999,
      "fzfg": false,
      "metar_trigger": false,
      "taf_trigger": false,
      "metar": "METAR LIPX 221550Z 22005KT CAVOK 06/M00 Q1000",
      "taf": "TAF LIPX 221100Z 2212/2312 VRB04KT 9999 SCT050"
    },
    {
      "icao": "LIPY",
      "alert": "OK",
      "vis_m": 9999,
      "fzfg": false,
      "metar_trigger": false,
      "taf_trigger": false,
      "metar": "METAR LIPY 221550Z AUTO 30005KT 9999 SCT021/// OVC028/// 07/03 Q1001",
      "taf": "TAF LIPY 221100Z 2212/2312 25008KT 9999 SCT070"
    },
    {
      "icao": "LIPZ",
      "alert": "OK",
      "vis_m": 9999,
      "fzfg": false,
      "metar_trigger": false,
      "taf_trigger": false,
      "metar": "METAR LIPZ 221550Z 21006KT 9999 FEW050 05/M01 Q1001 NOSIG",
      "taf": "TAF LIPZ 221100Z 2212/2318 VRB05KT CAVOK"
    },
    {
      "icao": "LIRF",
      "alert": "OK",
      "vis_m": 9999,
      "fzfg": false,
      "metar_trigger": false,
      "taf_trigger": false,
      "metar": "METAR LIRF 221550Z 26003KT 9999 FEW030 11/05 Q0999 NOSIG",
      "taf": "TAF LIRF 221100Z 2212/2318 24010KT 9999 FEW040"
    },
    {
      "icao": "LIRN",
      "alert": "OK",
      "vis_m": 9999,
      "fzfg": false,
      "metar_trigger": false,
      "taf_trigger": false,
      "metar": "METAR LIRN 221550Z 27005KT 260V050 9999 SCT060 13/05 Q0999 NOSIG",
      "taf": "TAF LIRN 221100Z 2212/2312 VRB05KT 9999 SCT050"
    },
    {
      "icao": "LIRP",
      "alert": "OK",
      "vis_m": 9999,
      "fzfg": false,
      "metar_trigger": false,
      "taf_trigger": false,
      "metar": "METAR LIRP 221545Z 16001KT CAVOK 09/02 Q0999 NOSIG",
      "taf": "TAF LIRP 221100Z 2212/2312 08005KT CAVOK"
    },
    {
      "icao": "LIRZ",
      "alert": "OK",
      "vis_m": 9999,
      "fzfg": false,
      "metar_trigger": false,
      "taf_trigger": false,
      "metar": "METAR LIRZ 221550Z AUTO 17002KT 9999 FEW047/// 11/05 Q0998",
      "taf": "TAF LIRZ 221100Z 2212/2312 VRB05KT 9999 BKN045"
    },
    {
      "icao": "LJLJ",
      "alert": "OK",
      "vis_m": 9999,
      "fzfg": false,
      "metar_trigger": false,
      "taf_trigger": false,
      "metar": "METAR LJLJ 221600Z 27002KT 9999 SCT050 M02/M05 Q1000 NOSIG",
      "taf": "TAF LJLJ 221100Z 2212/2312 12003KT 9999 FEW010 BKN060"
    },
    {
      "icao": "LKMT",
      "alert": "OK",
      "vis_m": 9999,
      "fzfg": false,
      "metar_trigger": false,
      "taf_trigger": false,
      "metar": "METAR LKMT 221600Z 28002KT CAVOK M00/M06 Q1002 NOSIG",
      "taf": "TAF LKMT 221100Z 2212/2312 VRB02KT CAVOK"
    },
    {
      "icao": "LKPR",
      "alert": "OK",
      "vis_m": 9999,
      "fzfg": false,
      "metar_trigger": false,
      "taf_trigger": false,
      "metar": "METAR LKPR 221600Z 18005KT 9999 OVC016 M05/M08 Q1001 NOSIG",
      "taf": "TAF LKPR 221400Z 2215/2321 14006KT 9999 BKN015"
    },
    {
      "icao": "LLBG",
      "alert": "OK",
      "vis_m": 9999,
      "fzfg": false,
      "metar_trigger": false,
      "taf_trigger": false,
      "metar": "METAR LLBG 221550Z 13014KT CAVOK 21/04 Q1009 NOSIG",
      "taf": "TAF LLBG 221105Z 2212/2312 10012KT CAVOK"
    },
    {
      "icao": "LMML",
      "alert": "OK",
      "vis_m": 9999,
      "fzfg": false,
      "metar_trigger": false,
      "taf_trigger": false,
      "metar": "METAR LMML 221615Z 25009KT 9999 FEW026 14/10 Q1003 NOSIG",
      "taf": "TAF LMML 221100Z 2212/2312 29015KT 9999 FEW025"
    },
    {
      "icao": "LOWW",
      "alert": "OK",
      "vis_m": 7000,
      "fzfg": false,
      "metar_trigger": false,
      "taf_trigger": false,
      "metar": "METAR LOWW 221550Z 14006KT 7000 FEW009 BKN011 M04/M06 Q1003 TEMPO 2000 -SG OVC007",
      "taf": "TAF LOWW 221415Z 2215/2321 13005KT 4000 BR OVC006 TXM01/2321Z TNM06/2305Z"
    },
    {
      "icao": "LPFR",
      "alert": "OK",
      "vis_m": 8000,
      "fzfg": false,
      "metar_trigger": false,
      "taf_trigger": false,
      "metar": "METAR LPFR 221600Z 24013KT 8000 -RA FEW015 SCT025 BKN040 15/12 Q1010",
      "taf": "TAF LPFR 221100Z 2212/2312 VRB02KT 9999 FEW020 BKN040"
    },
    {
      "icao": "LPMA",
      "alert": "OK",
      "vis_m": 9999,
      "fzfg": false,
      "metar_trigger": false,
      "taf_trigger": false,
      "metar": "METAR LPMA 221600Z 13003KT 090V200 9999 SCT012 SCT030 19/16 Q1017",
      "taf": "TAF LPMA 221100Z 2212/2312 VRB05KT 9999 SCT015"
    },
    {
      "icao": "LPPR",
      "alert": "OK",
      "vis_m": 2000,
      "fzfg": false,
      "metar_trigger": false,
      "taf_trigger": false,
      "metar": "METAR LPPR 221600Z 17019KT 2000 -RA BR BKN007 BKN012 11/10 Q0998",
      "taf": "TAF LPPR 221100Z 2212/2312 19015KT 6000 -RA SCT008 BKN015"
    },
    {
      "icao": "LPPS",
      "alert": "OK",
      "vis_m": 9999,
      "fzfg": false,
      "metar_trigger": false,
      "taf_trigger": false,
      "metar": "METAR LPPS 221600Z 29015KT 9999 SCT010 SCT030 18/16 Q1017",
      "taf": "TAF LPPS 221100Z 2212/2318 30015KT 9999 SCT015 SCT030"
    },
    {
      "icao": "LPPT",
      "alert": "OK",
      "vis_m": 1600,
      "fzfg": false,
      "metar_trigger": false,
      "taf_trigger": false,
      "metar": "METAR LPPT 221600Z 22018G28KT 1600 RADZ BR SCT004 BKN006 13/13 Q1005 WS R20",
      "taf": ""
    },
    {
      "icao": "LQBK",
      "alert": "OK",
      "vis_m": 5000,
      "fzfg": false,
      "metar_trigger": false,
      "taf_trigger": false,
      "metar": "METAR LQBK 221600Z 34003KT 5000 BR NSC M01/M04 Q1003 NOSIG",
      "taf": "TAF LQBK 221100Z 2212/2312 VRB02KT 4000 BR OVC008 TX01/2312Z TNM04/2224Z"
    },
    {
      "icao": "LQSA",
      "alert": "OK",
      "vis_m": 4000,
      "fzfg": false,
      "metar_trigger": false,
      "taf_trigger": false,
      "metar": "METAR LQSA 221600Z 00000KT 4000 -RA BR SCT038 02/M01 Q1001 NOSIG",
      "taf": "TAF LQSA 221100Z 2212/2312 VRB02KT 4000 BR FEW010 SCT045 TX05/2312Z TNM02/2305Z"
    },
    {
      "icao": "LQTZ",
      "alert": "OK",
      "vis_m": 4500,
      "fzfg": false,
      "metar_trigger": false,
      "taf_trigger": false,
      "metar": "METAR LQTZ 221600Z VRB01KT 4500 -RA BR BKN055 00/M01 Q1002",
      "taf": "TAF LQTZ 221100Z 2212/2312 VRB02KT 6000 SCT007 BKN045 TX04/2312Z TNM03/2303Z"
    },
    {
      "icao": "LRBC",
      "alert": "OK",
      "vis_m": 6000,
      "fzfg": false,
      "metar_trigger": false,
      "taf_trigger": false,
      "metar": "METAR LRBC 221600Z 16005KT 6000 -DZ BKN016 OVC050 02/00 Q1005",
      "taf": "TAF LRBC 221400Z 2215/2224 17007KT 9999 BKN015"
    },
    {
      "icao": "LRBS",
      "alert": "OK",
      "vis_m": 600,
      "fzfg": false,
      "metar_trigger": false,
      "taf_trigger": false,
      "metar": "METAR LRBS 221600Z VRB02KT 0600 R07/1300D FG OVC001 02/01 Q1005 NOSIG",
      "taf": "TAF LRBS 221100Z 2212/2312 VRB04KT 3000 -RA BR OVC002"
    },
    {
      "icao": "LRBV",
      "alert": "OK",
      "vis_m": 9999,
      "fzfg": false,
      "metar_trigger": false,
      "taf_trigger": false,
      "metar": "METAR LRBV 221600Z 28002KT 9999 -RA BKN023 OVC030 01/00 Q1002",
      "taf": "TAF LRBV 221400Z 2215/2224 VRB04KT 9999 BKN040"
    },
    {
      "icao": "LRCL",
      "alert": "OK",
      "vis_m": 1800,
      "fzfg": false,
      "metar_trigger": false,
      "taf_trigger": false,
      "metar": "METAR LRCL 221600Z 03001KT 1800 -SN BR BKN010 OVC030 M01/M03 Q1004",
      "taf": "TAF LRCL 221400Z 2215/2224 VRB04KT 5000 -SN BR OVC040"
    },
    {
      "icao": "LRCV",
      "alert": "OK",
      "vis_m": 2500,
      "fzfg": false,
      "metar_trigger": false,
      "taf_trigger": false,
      "metar": "METAR LRCV 221600Z 00000KT 2500 BR OVC003 01/00 Q1004",
      "taf": "TAF LRCV 221400Z 2215/2224 VRB04KT 3000 BR OVC005"
    },
    {
      "icao": "LRIA",
      "alert": "OK",
      "vis_m": 9999,
      "fzfg": false,
      "metar_trigger": false,
      "taf_trigger": false,
      "metar": "METAR LRIA 221600Z 11014KT 9999 -DZ OVC004 02/01 Q1006",
      "taf": ""
    },
    {
      "icao": "LROP",
      "alert": "OK",
      "vis_m": 2000,
      "fzfg": false,
      "metar_trigger": false,
      "taf_trigger": false,
      "metar": "METAR LROP 221600Z 05004KT 2000 -DZ BR OVC002 02/02 Q1005 NOSIG",
      "taf": "TAF LROP 221100Z 2212/2312 VRB04KT 3000 -RA BR OVC002"
    },
    {
      "icao": "LRSB",
      "alert": "OK",
      "vis_m": 9999,
      "fzfg": false,
      "metar_trigger": false,
      "taf_trigger": false,
      "metar": "METAR LRSB 221600Z 30003KT 9999 FEW060 BKN080 M01/M02 Q1002",
      "taf": "TAF LRSB 221100Z 2212/2312 VRB04KT 9999 BKN050"
    },
    {
      "icao": "LRSM",
      "alert": "OK",
      "vis_m": 8000,
      "fzfg": false,
      "metar_trigger": false,
      "taf_trigger": false,
      "metar": "METAR LRSM 221600Z 00000KT 8000 NSC 00/M04 Q1004",
      "taf": "TAF LRSM 221400Z 2215/2224 VRB04KT CAVOK"
    },
    {
      "icao": "LRSV",
      "alert": "OK",
      "vis_m": 9999,
      "fzfg": false,
      "metar_trigger": false,
      "taf_trigger": false,
      "metar": "METAR LRSV 221600Z 12007KT 9999 BKN010 01/00 Q1004",
      "taf": "TAF LRSV 221400Z 2215/2224 13007KT 9999 BKN010"
    },
    {
      "icao": "LRTM",
      "alert": "OK",
      "vis_m": 1600,
      "fzfg": false,
      "metar_trigger": false,
      "taf_trigger": false,
      "metar": "METAR LRTM 221600Z 26002KT 1600 -SN BR SCT010 BKN023 OVC035 M03/M04 Q1004",
      "taf": "TAF LRTM 221400Z 2215/2224 VRB04KT 3000 -SN BR BKN040"
    },
    {
      "icao": "LRTR",
      "alert": "OK",
      "vis_m": 8000,
      "fzfg": false,
      "metar_trigger": false,
      "taf_trigger": false,
      "metar": "METAR LRTR 221600Z 05003KT 8000 OVC044 01/M01 Q1003",
      "taf": "TAF LRTR 221100Z 2212/2312 VRB04KT 9999 BKN045"
    },
    {
      "icao": "LTAC",
      "alert": "OK",
      "vis_m": 2000,
      "fzfg": false,
      "metar_trigger": false,
      "taf_trigger": false,
      "metar": "METAR LTAC 221550Z 03004KT 2000 -SN BR SCT004 BKN021 BKN080 M01/M02 Q1010 BECMG 4000",
      "taf": "TAF LTAC 221040Z 2212/2312 VRB02KT 9999 SCT035 BKN090"
    },
    {
      "icao": "LTFM",
      "alert": "OK",
      "vis_m": 9999,
      "fzfg": false,
      "metar_trigger": false,
      "taf_trigger": false,
      "metar": "METAR LTFM 221550Z 20010KT 9999 -SHRA BKN040 BKN100 09/06 Q1004 NOSIG RMK RWY17L 20010KT RWY34L 20010KT RWY16R 20011KT RWY36 19010KT RWY18 20010KT",
      "taf": "TAF LTFM 221040Z 2212/2318 20012KT 9999 SCT040 BKN100"
    },
    {
      "icao": "LUKK",
      "alert": "OK",
      "vis_m": 9999,
      "fzfg": false,
      "metar_trigger": false,
      "taf_trigger": false,
      "metar": "METAR LUKK 221600Z 12010KT 9999 BKN021 OVC031 00/M01 Q1008 NOSIG",
      "taf": "TAF LUKK 221119Z 2212/2312 09009KT 5000 BR OVC008"
    },
    {
      "icao": "LWOH",
      "alert": "OK",
      "vis_m": null,
      "fzfg": false,
      "metar_trigger": false,
      "taf_trigger": false,
      "metar": "",
      "taf": "TAF LWOH 221415Z 2215/2315 VRB03KT 9999 BKN040"
    },
    {
      "icao": "LWSK",
      "alert": "OK",
      "vis_m": null,
      "fzfg": false,
      "metar_trigger": false,
      "taf_trigger": false,
      "metar": "",
      "taf": "TAF LWSK 221415Z 2215/2315 VRB02KT 6000 FEW015 SCT040"
    },
    {
      "icao": "LYBE",
      "alert": "OK",
      "vis_m": 6000,
      "fzfg": false,
      "metar_trigger": false,
      "taf_trigger": false,
      "metar": "METAR LYBE 221600Z 25005KT 6000 NSC M01/M03 Q1003 NOSIG",
      "taf": "TAF LYBE 221100Z 2212/2312 30004KT 3000 BR NSC TX00/2212Z TNM03/2306Z"
    },
    {
      "icao": "LYNI",
      "alert": "OK",
      "vis_m": 9999,
      "fzfg": false,
      "metar_trigger": false,
      "taf_trigger": false,
      "metar": "METAR LYNI 221600Z 11008KT CAVOK 06/M01 Q1002 NOSIG",
      "taf": "TAF LYNI 221100Z 2212/2312 06006KT 9999 SCT040 BKN090 TX09/2312Z TN00/2305Z"
    },
    {
      "icao": "LYPG",
      "alert": "OK",
      "vis_m": 9999,
      "fzfg": false,
      "metar_trigger": false,
      "taf_trigger": false,
      "metar": "METAR LYPG 221600Z 17002KT 9999 -RA FEW014 BKN050 OVC070 08/06 Q1001 NOSIG",
      "taf": "TAF LYPG 221100Z 2212/2312 12005KT 9999 FEW013 BKN050 OVC073 TX10/2213Z TN05/2305Z"
    },
    {
      "icao": "LZIB",
      "alert": "OK",
      "vis_m": 5000,
      "fzfg": false,
      "metar_trigger": false,
      "taf_trigger": false,
      "metar": "METAR LZIB 221600Z 14004KT 5000 BR BKN014 M02/M05 Q1003 NOSIG",
      "taf": "TAF LZIB 221115Z 2212/2312 12008KT 9999 FEW008 SCT020"
    },
    {
      "icao": "LZKZ",
      "alert": "OK",
      "vis_m": 9999,
      "fzfg": false,
      "metar_trigger": false,
      "taf_trigger": false,
      "metar": "METAR LZKZ 221600Z 26002KT CAVOK M01/M05 Q1004 NOSIG",
      "taf": "TAF LZKZ 221115Z 2212/2312 VRB02KT 8000 BKN035"
    },
    {
      "icao": "LZTT",
      "alert": "OK",
      "vis_m": 4000,
      "fzfg": false,
      "metar_trigger": false,
      "taf_trigger": false,
      "metar": "METAR LZTT 221600Z VRB01KT 4000 -SN BR BKN009 OVC016 M02/M02 Q1001 TEMPO 1400 -SN BR BKN004",
      "taf": ""
    },
    {
      "icao": "OEJN",
      "alert": "OK",
      "vis_m": 9999,
      "fzfg": false,
      "metar_trigger": false,
      "taf_trigger": false,
      "metar": "METAR OEJN 221600Z 19006KT CAVOK 27/20 Q1011 NOSIG",
      "taf": "TAF OEJN 221100Z 2212/2318 22010KT 7000 FEW040"
    },
    {
      "icao": "OEMA",
      "alert": "OK",
      "vis_m": 7000,
      "fzfg": false,
      "metar_trigger": false,
      "taf_trigger": false,
      "metar": "METAR OEMA 221600Z 07012KT 7000 NSC 22/M02 Q1019 NOSIG",
      "taf": "TAF OEMA 221100Z 2212/2318 10015KT 7000 NSC"
    },
    {
      "icao": "OJAI",
      "alert": "OK",
      "vis_m": 3000,
      "fzfg": false,
      "metar_trigger": false,
      "taf_trigger": false,
      "metar": "METAR OJAI 221600Z 09009KT 3000 HZ NSC 09/M02 Q1017 NOSIG",
      "taf": "TAF OJAI 221003Z 2212/2318 08012KT 4000 -RA SCT035 BKN035"
    },
    {
      "icao": "OMAA",
      "alert": "OK",
      "vis_m": 9999,
      "fzfg": false,
      "metar_trigger": false,
      "taf_trigger": false,
      "metar": "METAR OMAA 221600Z 01009KT CAVOK 17/M01 Q1021 NOSIG",
      "taf": "TAF OMAA 221100Z 2212/2318 33015KT 8000 NSC"
    },
    {
      "icao": "OMDB",
      "alert": "OK",
      "vis_m": 9999,
      "fzfg": false,
      "metar_trigger": false,
      "taf_trigger": false,
      "metar": "METAR OMDB 221600Z 02010KT 360V070 CAVOK 19/00 Q1021 NOSIG",
      "taf": "TAF OMDB 221100Z 2212/2318 36014KT 8000 NSC"
    },
    {
      "icao": "UAAA",
      "alert": "OK",
      "vis_m": 3500,
      "fzfg": false,
      "metar_trigger": false,
      "taf_trigger": false,
      "metar": "METAR UAAA 221600Z 03003MPS 3500 BR FU BKN100 BKN200 M10/M13 Q1015 NOSIG",
      "taf": "TAF UAAA 221103Z 2212/2312 32003MPS 3100 BR FU SCT011 BKN050 TXM04/2308Z TNM10/2302Z"
    },
    {
      "icao": "UBBB",
      "alert": "OK",
      "vis_m": 9999,
      "fzfg": false,
      "metar_trigger": false,
      "taf_trigger": false,
      "metar": "METAR UBBB 221600Z 14006KT CAVOK 04/M02 Q1017 NOSIG",
      "taf": "TAF UBBB 221054Z 2212/2312 21014KT CAVOK TX07/2212Z TNM02/2300Z"
    },
    {
      "icao": "UDSG",
      "alert": "OK",
      "vis_m": 9000,
      "fzfg": false,
      "metar_trigger": false,
      "taf_trigger": false,
      "metar": "METAR UDSG 221600Z 29002KT 9000 SCT043 M11/M14 Q1019 NOSIG",
      "taf": "TAF UDSG 221058Z 2212/2312 VRB06KT 9999 SCT040"
    },
    {
      "icao": "UDYZ",
      "alert": "OK",
      "vis_m": 9999,
      "fzfg": false,
      "metar_trigger": false,
      "taf_trigger": false,
      "metar": "METAR UDYZ 221600Z 19002KT 9999 NSC M04/M10 Q1023 NOSIG",
      "taf": "TAF UDYZ 221100Z 2212/2312 VRB04KT 9999 FEW040"
    },
    {
      "icao": "UGKO",
      "alert": "OK",
      "vis_m": 9999,
      "fzfg": false,
      "metar_trigger": false,
      "taf_trigger": false,
      "metar": "METAR UGKO 221600Z 09023KT CAVOK 08/M07 Q1011 NOSIG",
      "taf": "TAF UGKO 221100Z 2212/2312 08017KT CAVOK TX10/2311Z TN05/2303Z"
    }
  ]
}