{
  "ts_utc": "2026-01-13T14:30:39Z",
  "threshold_m": 150,
  "source": "stations_override.txt (ICAO list) + aviationweather.gov (METAR/TAF raw)",
  "station_count": 159,
  "stations": [
    {
      "icao": "BIKF",
      "alert": "OK",
      "vis_m": 9999,
      "fzfg": false,
      "metar_trigger": false,
      "taf_trigger": false,
      "metar": "METAR BIKF 131400Z 35014KT 9999 FEW030 M02/M10 Q0998",
      "taf": "TAF BIKF 131347Z 1315/1415 35015G25KT 9999 FEW030 TX00/1415Z TNM04/1404Z"
    },
    {
      "icao": "BKPR",
      "alert": "OK",
      "vis_m": null,
      "fzfg": false,
      "metar_trigger": false,
      "taf_trigger": false,
      "metar": "",
      "taf": "TAF BKPR 131130Z 1312/1412 VRB03KT 9999 BKN060"
    },
    {
      "icao": "EBCI",
      "alert": "OK",
      "vis_m": 9999,
      "fzfg": false,
      "metar_trigger": false,
      "taf_trigger": false,
      "metar": "METAR EBCI 131420Z 19012KT CAVOK 11/05 Q1008 NOSIG",
      "taf": "TAF EBCI 131100Z 1312/1418 19010KT 9999 SCT020"
    },
    {
      "icao": "EDDB",
      "alert": "OK",
      "vis_m": 700,
      "fzfg": false,
      "metar_trigger": false,
      "taf_trigger": false,
      "metar": "METAR EDDB 131420Z AUTO 12005KT 0700 0450 R24R/0900N R24L/P2000N FG BKN002 02/02 Q1013 TEMPO 0900 FG BKN001",
      "taf": "TAF EDDB 131100Z 1312/1412 17005KT 0800 FG BKN002"
    },
    {
      "icao": "EDDH",
      "alert": "OK",
      "vis_m": 750,
      "fzfg": false,
      "metar_trigger": false,
      "taf_trigger": false,
      "metar": "METAR EDDH 131420Z AUTO 15008KT 0750 0200 R23/P2000N R15/0375N FG BKN002 BKN010 OVC035 05/05 Q1009 TEMPO 3500 BR",
      "taf": "TAF EDDH 131100Z 1312/1418 16004KT 0300 FG OVC001"
    },
    {
      "icao": "EDDK",
      "alert": "OK",
      "vis_m": 9999,
      "fzfg": false,
      "metar_trigger": false,
      "taf_trigger": false,
      "metar": "METAR EDDK 131420Z AUTO 13006KT 090V150 CAVOK 10/06 Q1010 NOSIG",
      "taf": "TAF EDDK 131100Z 1312/1418 15007KT 9999 BKN025"
    },
    {
      "icao": "EDDN",
      "alert": "OK",
      "vis_m": 9999,
      "fzfg": false,
      "metar_trigger": false,
      "taf_trigger": false,
      "metar": "METAR EDDN 131420Z AUTO 12006KT 9999 FEW011 07/06 Q1014 NOSIG",
      "taf": "TAF EDDN 131100Z 1312/1412 14005KT 9000 SCT010 BKN015"
    },
    {
      "icao": "EDDS",
      "alert": "OK",
      "vis_m": 9999,
      "fzfg": false,
      "metar_trigger": false,
      "taf_trigger": false,
      "metar": "METAR EDDS 131420Z AUTO VRB02KT CAVOK 11/06 Q1012 NOSIG",
      "taf": "TAF EDDS 131100Z 1312/1412 17004KT 9999 FEW040"
    },
    {
      "icao": "EDFH",
      "alert": "OK",
      "vis_m": 9999,
      "fzfg": false,
      "metar_trigger": false,
      "taf_trigger": false,
      "metar": "METAR EDFH 131420Z 15008KT CAVOK 08/05 Q1010",
      "taf": "TAF EDFH 131100Z 1312/1412 18008KT 9999 SCT020 BKN045"
    },
    {
      "icao": "EDJA",
      "alert": "OK",
      "vis_m": 9999,
      "fzfg": false,
      "metar_trigger": false,
      "taf_trigger": false,
      "metar": "METAR EDJA 131420Z 18004KT CAVOK 07/03 Q1014",
      "taf": "TAF EDJA 131400Z 1315/1324 18004KT CAVOK"
    },
    {
      "icao": "EDLW",
      "alert": "OK",
      "vis_m": 9999,
      "fzfg": false,
      "metar_trigger": false,
      "taf_trigger": false,
      "metar": "METAR EDLW 131420Z 18012KT CAVOK 10/07 Q1009",
      "taf": "TAF EDLW 131100Z 1312/1412 20011KT 9999 BKN020"
    },
    {
      "icao": "EDNY",
      "alert": "OK",
      "vis_m": 9999,
      "fzfg": false,
      "metar_trigger": false,
      "taf_trigger": false,
      "metar": "METAR EDNY 131420Z 25003KT 220V280 CAVOK 06/04 Q1015",
      "taf": "TAF EDNY 131400Z 1315/1324 VRB03KT CAVOK"
    },
    {
      "icao": "EDSB",
      "alert": "OK",
      "vis_m": 9999,
      "fzfg": false,
      "metar_trigger": false,
      "taf_trigger": false,
      "metar": "METAR EDSB 131420Z 23005KT 200V280 9999 13/06 Q1012",
      "taf": "TAF EDSB 131100Z 1312/1412 21004KT CAVOK"
    },
    {
      "icao": "EETN",
      "alert": "OK",
      "vis_m": 9999,
      "fzfg": false,
      "metar_trigger": false,
      "taf_trigger": false,
      "metar": "METAR EETN 131420Z 14004KT 9999 OVC011 M10/M12 Q1021 NOSIG",
      "taf": "TAF EETN 131130Z 1312/1412 11007KT 9999 FEW009 BKN014"
    },
    {
      "icao": "EFTU",
      "alert": "OK",
      "vis_m": 9999,
      "fzfg": false,
      "metar_trigger": false,
      "taf_trigger": false,
      "metar": "METAR EFTU 131420Z AUTO 10008KT 9999 OVC015 M06/M08 Q1020",
      "taf": "TAF EFTU 131136Z 1312/1412 12007KT 9999 OVC012"
    },
    {
      "icao": "EGBB",
      "alert": "OK",
      "vis_m": 9999,
      "fzfg": false,
      "metar_trigger": false,
      "taf_trigger": false,
      "metar": "METAR EGBB 131420Z 30006KT 9999 BKN011 09/07 Q1002",
      "taf": "TAF EGBB 131055Z 1312/1412 17010KT 9999 BKN007"
    },
    {
      "icao": "EGGP",
      "alert": "OK",
      "vis_m": 9999,
      "fzfg": false,
      "metar_trigger": false,
      "taf_trigger": false,
      "metar": "METAR EGGP 131420Z 30010KT 9999 SCT013 06/04 Q1003",
      "taf": "TAF EGGP 131057Z 1312/1412 28010KT 9999 SCT030"
    },
    {
      "icao": "EGGW",
      "alert": "OK",
      "vis_m": 9000,
      "fzfg": false,
      "metar_trigger": false,
      "taf_trigger": false,
      "metar": "METAR EGGW 131420Z AUTO 21006KT 180V240 9000 -RA //////TCU 09/08 Q1002",
      "taf": ""
    },
    {
      "icao": "EGKK",
      "alert": "OK",
      "vis_m": 9999,
      "fzfg": false,
      "metar_trigger": false,
      "taf_trigger": false,
      "metar": "METAR EGKK 131420Z 21009KT 180V240 9999 -RA BKN007 11/10 Q1003",
      "taf": ""
    },
    {
      "icao": "EGNM",
      "alert": "OK",
      "vis_m": 9999,
      "fzfg": false,
      "metar_trigger": false,
      "taf_trigger": false,
      "metar": "METAR EGNM 131420Z 28012KT 9999 FEW008 SCT015 06/03 Q1000",
      "taf": "TAF EGNM 131057Z 1312/1412 20007KT 9999 SCT025"
    },
    {
      "icao": "EGPD",
      "alert": "OK",
      "vis_m": 9999,
      "fzfg": false,
      "metar_trigger": false,
      "taf_trigger": false,
      "metar": "METAR EGPD 131420Z AUTO 29007KT 9999 NCD 04/02 Q0996 TEMPO RA",
      "taf": "TAF EGPD 131055Z 1312/1412 30005KT 9999 FEW005 SCT025"
    },
    {
      "icao": "EGPF",
      "alert": "OK",
      "vis_m": 9999,
      "fzfg": false,
      "metar_trigger": false,
      "taf_trigger": false,
      "metar": "METAR EGPF 131420Z AUTO 23011KT 9999 //////TCU 06/03 Q0999",
      "taf": "TAF EGPF 131057Z 1312/1412 25009KT 9999 FEW015 SCT025"
    },
    {
      "icao": "EHBK",
      "alert": "OK",
      "vis_m": 9999,
      "fzfg": false,
      "metar_trigger": false,
      "taf_trigger": false,
      "metar": "METAR EHBK 131425Z AUTO 19008KT 9999 SCT047 11/07 Q1008 NOSIG",
      "taf": "TAF EHBK 131124Z 1312/1418 20013KT 9999 BKN018"
    },
    {
      "icao": "EHEH",
      "alert": "OK",
      "vis_m": 9999,
      "fzfg": false,
      "metar_trigger": false,
      "taf_trigger": false,
      "metar": "METAR EHEH 131355Z AUTO 17007KT 9999 OVC078 10/08 Q1007 BLU NOSIG",
      "taf": "TAF EHEH 131140Z 1312/1418 18009KT 9999 BKN018"
    },
    {
      "icao": "EKBI",
      "alert": "OK",
      "vis_m": 400,
      "fzfg": false,
      "metar_trigger": false,
      "taf_trigger": false,
      "metar": "METAR EKBI 131420Z AUTO 17006KT 0400 R09/0800N R27/0700N FG OVC002/// 04/04 Q1007",
      "taf": "TAF EKBI 131427Z 1315/1415 15007KT 0200 FG VV002"
    },
    {
      "icao": "EKCH",
      "alert": "OK",
      "vis_m": 1400,
      "fzfg": false,
      "metar_trigger": false,
      "taf_trigger": false,
      "metar": "METAR EKCH 131420Z 15011KT 1400 R22L/P1500N R04L/P1500N R12/P1500N BR OVC002 02/02 Q1010 TEMPO 2000",
      "taf": "TAF EKCH 131427Z 1315/1415 15012KT 4000 BR OVC002"
    },
    {
      "icao": "ENAL",
      "alert": "OK",
      "vis_m": 9999,
      "fzfg": false,
      "metar_trigger": false,
      "taf_trigger": false,
      "metar": "METAR ENAL 131420Z 12016KT 9999 BKN053 05/M04 Q1000",
      "taf": "TAF ENAL 131100Z 1312/1321 14012KT 9999 FEW025 BKN040"
    },
    {
      "icao": "ENBR",
      "alert": "OK",
      "vis_m": 9999,
      "fzfg": false,
      "metar_trigger": false,
      "taf_trigger": false,
      "metar": "METAR ENBR 131420Z 12011KT 9999 BKN028 03/00 Q1000 NOSIG RMK WIND 1200FT 13024KT",
      "taf": "TAF ENBR 131100Z 1312/1412 13015KT 9999 -RA BKN035"
    },
    {
      "icao": "ENGM",
      "alert": "OK",
      "vis_m": 2700,
      "fzfg": false,
      "metar_trigger": false,
      "taf_trigger": false,
      "metar": "METAR ENGM 131420Z 03004KT 2700 -SN BR SCT007 BKN019 M04/M05 Q1011 TEMPO 0800 SN BKN008",
      "taf": ""
    },
    {
      "icao": "ENHD",
      "alert": "OK",
      "vis_m": 9999,
      "fzfg": false,
      "metar_trigger": false,
      "taf_trigger": false,
      "metar": "METAR ENHD 131420Z 11020KT 9999 SCT023 BKN036 03/M00 Q1000 RERA",
      "taf": "TAF ENHD 131100Z 1312/1321 11022KT 9999 BKN025"
    },
    {
      "icao": "ENTC",
      "alert": "OK",
      "vis_m": 9999,
      "fzfg": false,
      "metar_trigger": false,
      "taf_trigger": false,
      "metar": "METAR ENTC 131420Z 18012KT CAVOK M05/M12 Q1010 NOSIG RMK WIND 2600FT 18017KT",
      "taf": "TAF ENTC 131100Z 1312/1412 19010KT CAVOK"
    },
    {
      "icao": "ENTO",
      "alert": "OK",
      "vis_m": 1900,
      "fzfg": false,
      "metar_trigger": false,
      "taf_trigger": false,
      "metar": "METAR ENTO 131420Z 36006KT 1900 -SN VV005 M03/M03 Q1009 NOSIG",
      "taf": ""
    },
    {
      "icao": "ENVA",
      "alert": "OK",
      "vis_m": 9999,
      "fzfg": false,
      "metar_trigger": false,
      "taf_trigger": false,
      "metar": "METAR ENVA 131420Z 11010KT 070V150 CAVOK 00/M08 Q1006 TEMPO 15018G30KT RMK WIND 670FT 16021KT",
      "taf": "TAF ENVA 131100Z 1312/1412 11009KT CAVOK"
    },
    {
      "icao": "ENZV",
      "alert": "OK",
      "vis_m": 9999,
      "fzfg": false,
      "metar_trigger": false,
      "taf_trigger": false,
      "metar": "METAR ENZV 131420Z 12015KT CAVOK 05/M01 Q1000 NOSIG",
      "taf": "TAF ENZV 131100Z 1312/1412 13015KT 9999 SCT040"
    },
    {
      "icao": "EPGD",
      "alert": "OK",
      "vis_m": 6000,
      "fzfg": false,
      "metar_trigger": false,
      "taf_trigger": false,
      "metar": "METAR EPGD 131400Z 13006KT 6000 BKN036 M04/M06 Q1016",
      "taf": "TAF EPGD 131130Z 1312/1412 17010KT 9999 BKN030"
    },
    {
      "icao": "EPKK",
      "alert": "OK",
      "vis_m": 1500,
      "fzfg": false,
      "metar_trigger": false,
      "taf_trigger": false,
      "metar": "METAR EPKK 131400Z VRB02KT 1500 -FZDZ BR SCT004 OVC007 M04/M05 Q1016",
      "taf": "TAF EPKK 131430Z 1315/1415 VRB02KT 2000 -RASN BR OVC008"
    },
    {
      "icao": "EPKT",
      "alert": "OK",
      "vis_m": 1500,
      "fzfg": false,
      "metar_trigger": false,
      "taf_trigger": false,
      "metar": "METAR EPKT 131400Z 05002KT 1500 BR SCT002 OVC003 M02/M03 Q1015 REFZDZ",
      "taf": ""
    },
    {
      "icao": "EPLB",
      "alert": "OK",
      "vis_m": 9999,
      "fzfg": false,
      "metar_trigger": false,
      "taf_trigger": false,
      "metar": "METAR EPLB 131400Z VRB01KT CAVOK M07/M10 Q1017",
      "taf": "TAF EPLB 131130Z 1312/1412 VRB04KT 7000 NSC"
    },
    {
      "icao": "EPMO",
      "alert": "OK",
      "vis_m": 9999,
      "fzfg": false,
      "metar_trigger": false,
      "taf_trigger": false,
      "metar": "METAR EPMO 131400Z 11005KT 070V130 CAVOK M02/M06 Q1017",
      "taf": "TAF EPMO 131130Z 1312/1412 12007KT 3500 BR NSC"
    },
    {
      "icao": "EPPO",
      "alert": "OK",
      "vis_m": 5000,
      "fzfg": false,
      "metar_trigger": false,
      "taf_trigger": false,
      "metar": "METAR EPPO 131400Z 12005KT 5000 -FZRA BR FEW008 OVC025 M02/M05 Q1016",
      "taf": "TAF EPPO 131130Z 1312/1412 13005KT 6000 BKN017"
    },
    {
      "icao": "EPRA",
      "alert": "OK",
      "vis_m": 9999,
      "fzfg": false,
      "metar_trigger": false,
      "taf_trigger": false,
      "metar": "METAR EPRA 131400Z 11003KT CAVOK M07/M10 Q1017",
      "taf": "TAF EPRA 131430Z 1315/1324 12004KT 8000 NSC"
    },
    {
      "icao": "EPRZ",
      "alert": "OK",
      "vis_m": 9999,
      "fzfg": false,
      "metar_trigger": false,
      "taf_trigger": false,
      "metar": "METAR EPRZ 131400Z 21006KT CAVOK M05/M08 Q1016",
      "taf": ""
    },
    {
      "icao": "EPSC",
      "alert": "OK",
      "vis_m": 2500,
      "fzfg": false,
      "metar_trigger": false,
      "taf_trigger": false,
      "metar": "METAR EPSC 131400Z 14011KT 2500 BR OVC003 M01/M02 Q1014",
      "taf": "TAF EPSC 131130Z 1312/1412 14010KT 3000 BR OVC003"
    },
    {
      "icao": "EPSY",
      "alert": "OK",
      "vis_m": 3100,
      "fzfg": false,
      "metar_trigger": false,
      "taf_trigger": false,
      "metar": "METAR EPSY 131400Z VRB02KT 3100 BR NSC M06/M07 Q1017",
      "taf": "TAF EPSY 131430Z 1315/1324 VRB02KT 4000 BR NSC"
    },
    {
      "icao": "EPWA",
      "alert": "OK",
      "vis_m": 9999,
      "fzfg": false,
      "metar_trigger": false,
      "taf_trigger": false,
      "metar": "METAR EPWA 131400Z 12005KT CAVOK M03/M07 Q1017 NOSIG",
      "taf": "TAF EPWA 131430Z 1315/1415 12008KT 7000 NSC"
    },
    {
      "icao": "EPWR",
      "alert": "OK",
      "vis_m": 7000,
      "fzfg": false,
      "metar_trigger": false,
      "taf_trigger": false,
      "metar": "METAR EPWR 131400Z 30001KT 7000 OVC008 01/M00 Q1016",
      "taf": "TAF EPWR 131430Z 1315/1415 VRB02KT 6000 SCT007 BKN012"
    },
    {
      "icao": "ESGG",
      "alert": "OK",
      "vis_m": 3900,
      "fzfg": false,
      "metar_trigger": false,
      "taf_trigger": false,
      "metar": "METAR ESGG 131420Z 14010KT 3900 BR OVC003 M01/M01 Q1008",
      "taf": "TAF ESGG 131101Z 1312/1412 12009KT 5000 -SN BKN008"
    },
    {
      "icao": "ESKN",
      "alert": "OK",
      "vis_m": 9999,
      "fzfg": false,
      "metar_trigger": false,
      "taf_trigger": false,
      "metar": "METAR ESKN 131420Z 10005KT 9999 SCT009 BKN012 M01/M01 Q1015",
      "taf": "TAF ESKN 131130Z 1312/1412 11007KT 8000 -SN SCT007 BKN018"
    },
    {
      "icao": "ESMS",
      "alert": "OK",
      "vis_m": 1600,
      "fzfg": false,
      "metar_trigger": false,
      "taf_trigger": false,
      "metar": "METAR ESMS 131420Z 14008KT 1600 OVC002 01/01 Q1010",
      "taf": "TAF ESMS 131127Z 1312/1412 13010KT 5000 -RA BR OVC006"
    },
    {
      "icao": "ESSA",
      "alert": "OK",
      "vis_m": 5000,
      "fzfg": false,
      "metar_trigger": false,
      "taf_trigger": false,
      "metar": "METAR ESSA 131420Z 09006KT 5000 -SN BKN016 M02/M03 Q1016 BECMG BKN012",
      "taf": "TAF ESSA 131130Z 1312/1412 09006KT 9999 BKN030"
    },
    {
      "icao": "EYKA",
      "alert": "OK",
      "vis_m": 6000,
      "fzfg": false,
      "metar_trigger": false,
      "taf_trigger": false,
      "metar": "METAR EYKA 131420Z 06001KT 6000 -SN NSC M10/M12 Q1019",
      "taf": "TAF EYKA 131100Z 1312/1412 VRB04KT 5000 BR SCT010 BKN015"
    },
    {
      "icao": "EYPA",
      "alert": "OK",
      "vis_m": 9999,
      "fzfg": false,
      "metar_trigger": false,
      "taf_trigger": false,
      "metar": "METAR EYPA 131420Z 10003KT 070V130 CAVOK M11/M13 Q1019",
      "taf": "TAF EYPA 131100Z 1312/1412 VRB04KT 5000 BR FEW005"
    },
    {
      "icao": "EYVI",
      "alert": "OK",
      "vis_m": 5000,
      "fzfg": false,
      "metar_trigger": false,
      "taf_trigger": false,
      "metar": "METAR EYVI 131420Z VRB01KT 5000 -SN BR NSC M10/M11 Q1018 NOSIG",
      "taf": "TAF EYVI 131100Z 1312/1412 VRB04KT 5000 BR SCT005 BKN020"
    },
    {
      "icao": "GCFV",
      "alert": "OK",
      "vis_m": 9999,
      "fzfg": false,
      "metar_trigger": false,
      "taf_trigger": false,
      "metar": "METAR GCFV 131400Z 30015KT 260V330 9999 FEW015 SCT049 20/13 Q1017",
      "taf": "TAF GCFV 131400Z 1315/1415 33016KT 9999 SCT020 TX19/1414Z TN12/1406Z"
    },
    {
      "icao": "GCLP",
      "alert": "OK",
      "vis_m": 9999,
      "fzfg": false,
      "metar_trigger": false,
      "taf_trigger": false,
      "metar": "METAR GCLP 131400Z 01017KT 9999 FEW020 BKN060 22/13 Q1018 TEMPO 4500 RA",
      "taf": "TAF GCLP 131400Z 1315/1415 36017KT 9999 FEW025 TX20/1414Z TN16/1406Z"
    },
    {
      "icao": "GCTS",
      "alert": "OK",
      "vis_m": 9999,
      "fzfg": false,
      "metar_trigger": false,
      "taf_trigger": false,
      "metar": "METAR GCTS 131400Z 11008KT 080V150 9999 SCT050 21/12 Q1018 NOSIG",
      "taf": "TAF GCTS 131400Z 1315/1415 09010KT 9999 SCT040 TX22/1414Z TN13/1406Z"
    },
    {
      "icao": "GMAD",
      "alert": "OK",
      "vis_m": 9999,
      "fzfg": false,
      "metar_trigger": false,
      "taf_trigger": false,
      "metar": "METAR GMAD 131400Z 02007KT CAVOK 22/06 Q1015 NOSIG",
      "taf": "TAF GMAD 131100Z 1312/1418 24014KT 8000 SCT016 BKN080"
    },
    {
      "icao": "GMMN",
      "alert": "OK",
      "vis_m": 9999,
      "fzfg": false,
      "metar_trigger": false,
      "taf_trigger": false,
      "metar": "METAR GMMN 131400Z 26008KT 230V310 9999 SCT016 BKN100 18/13 Q1016 NOSIG",
      "taf": "TAF GMMN 131100Z 1312/1418 22010KT 9999 SCT016 BKN100"
    },
    {
      "icao": "GMMX",
      "alert": "OK",
      "vis_m": 9999,
      "fzfg": false,
      "metar_trigger": false,
      "taf_trigger": false,
      "metar": "METAR GMMX 131400Z 35006KT 310V020 9999 SCT080 20/04 Q1015 NOSIG",
      "taf": "TAF GMMX 131100Z 1312/1418 12006KT 8000 NSC"
    },
    {
      "icao": "HEGN",
      "alert": "OK",
      "vis_m": 9999,
      "fzfg": false,
      "metar_trigger": false,
      "taf_trigger": false,
      "metar": "METAR HEGN 131400Z 36011KT CAVOK 19/04 Q1020 NOSIG",
      "taf": "TAF HEGN 131100Z 1312/1418 33015G25KT 6000 FEW025"
    },
    {
      "icao": "HEMA",
      "alert": "OK",
      "vis_m": 9999,
      "fzfg": false,
      "metar_trigger": false,
      "taf_trigger": false,
      "metar": "METAR HEMA 131400Z 30007KT CAVOK 19/04 Q1019 NOSIG",
      "taf": "TAF HEMA 131100Z 1312/1418 32010G20KT 9999 FEW025"
    },
    {
      "icao": "HESH",
      "alert": "OK",
      "vis_m": 9999,
      "fzfg": false,
      "metar_trigger": false,
      "taf_trigger": false,
      "metar": "METAR HESH 131400Z 06007KT CAVOK 19/05 Q1018 NOSIG",
      "taf": "TAF HESH 131100Z 1312/1418 01010G20KT 9999 FEW025"
    },
    {
      "icao": "HESX",
      "alert": "OK",
      "vis_m": 9999,
      "fzfg": false,
      "metar_trigger": false,
      "taf_trigger": false,
      "metar": "METAR HESX 131400Z 29012KT 9999 SCT020 SCT100 13/05 Q1020 NOSIG",
      "taf": "TAF HESX 131100Z 1312/1418 26013G25KT 6000 SCT020 BKN100"
    },
    {
      "icao": "LATI",
      "alert": "OK",
      "vis_m": 9999,
      "fzfg": false,
      "metar_trigger": false,
      "taf_trigger": false,
      "metar": "METAR LATI 131420Z 11004KT 9999 SCT039 BKN059 09/00 Q1026 NOSIG",
      "taf": "TAF LATI 131100Z 1312/1412 VRB05KT 9999 SCT040 BKN070 TX10/1312Z TN03/1405Z"
    },
    {
      "icao": "LBPD",
      "alert": "OK",
      "vis_m": 9999,
      "fzfg": false,
      "metar_trigger": false,
      "taf_trigger": false,
      "metar": "METAR LBPD 131400Z AUTO 07003KT 9999 BKN064/// OVC077/// 02/M09 Q1021 NOSIG",
      "taf": "TAF LBPD 131100Z 1312/1412 VRB03KT 9999 SCT050 BKN070"
    },
    {
      "icao": "LBSF",
      "alert": "OK",
      "vis_m": 9999,
      "fzfg": false,
      "metar_trigger": false,
      "taf_trigger": false,
      "metar": "METAR LBSF 131400Z 11003KT 9999 FEW038 BKN044 00/M08 Q1020 NOSIG",
      "taf": "TAF LBSF 131100Z 1312/1412 VRB03KT 9999 SCT050 BKN070"
    },
    {
      "icao": "LBWN",
      "alert": "OK",
      "vis_m": 9999,
      "fzfg": false,
      "metar_trigger": false,
      "taf_trigger": false,
      "metar": "METAR LBWN 131400Z 12003KT 060V170 CAVOK 02/M09 Q1021 NOSIG",
      "taf": "TAF LBWN 131100Z 1312/1412 VRB04KT 9999 SCT050"
    },
    {
      "icao": "LCLK",
      "alert": "OK",
      "vis_m": 9999,
      "fzfg": false,
      "metar_trigger": false,
      "taf_trigger": false,
      "metar": "METAR LCLK 131400Z 35007KT 9999 FEW020 FEW025CB BKN030 12/07 Q1012 NOSIG RMK CB TO N",
      "taf": "TAF LCLK 131130Z 1312/1412 30018KT 9999 FEW020CB SCT040"
    },
    {
      "icao": "LCPH",
      "alert": "OK",
      "vis_m": 9999,
      "fzfg": false,
      "metar_trigger": false,
      "taf_trigger": false,
      "metar": "METAR LCPH 131400Z 33018KT 9999 FEW025 SCT045 13/02 Q1012 TEMPO 5000 SHRA",
      "taf": "TAF LCPH 131130Z 1312/1412 30023G33KT 9999 FEW025CB SCT040"
    },
    {
      "icao": "LEAL",
      "alert": "OK",
      "vis_m": 4500,
      "fzfg": false,
      "metar_trigger": false,
      "taf_trigger": false,
      "metar": "METAR LEAL 131400Z 19004KT 130V230 4500 BR FEW025 15/11 Q1016 NOSIG",
      "taf": ""
    },
    {
      "icao": "LEBB",
      "alert": "OK",
      "vis_m": 9999,
      "fzfg": false,
      "metar_trigger": false,
      "taf_trigger": false,
      "metar": "METAR LEBB 131400Z 15012G23KT 100V240 CAVOK 18/04 Q1008 NOSIG",
      "taf": "TAF LEBB 131100Z 1312/1412 15009KT CAVOK TX16/1316Z TN09/1408Z"
    },
    {
      "icao": "LEBL",
      "alert": "OK",
      "vis_m": 9999,
      "fzfg": false,
      "metar_trigger": false,
      "taf_trigger": false,
      "metar": "METAR LEBL 131400Z 24011KT 9999 FEW015 16/11 Q1016 NOSIG",
      "taf": "TAF LEBL 131100Z 1312/1412 23008KT 9999 SCT020 TX16/1312Z TN07/1406Z"
    },
    {
      "icao": "LECH",
      "alert": "OK",
      "vis_m": 9999,
      "fzfg": false,
      "metar_trigger": false,
      "taf_trigger": false,
      "metar": "METAR LECH 131400Z AUTO 11005KT 070V160 CAVOK 14/09 Q1015",
      "taf": ""
    },
    {
      "icao": "LEMD",
      "alert": "OK",
      "vis_m": 9999,
      "fzfg": false,
      "metar_trigger": false,
      "taf_trigger": false,
      "metar": "METAR LEMD 131400Z 16009KT 130V200 9999 BKN050 11/01 Q1013 NOSIG",
      "taf": "TAF LEMD 131100Z 1312/1418 VRB03KT 9999 SCT030 TX12/1314Z TN00/1407Z"
    },
    {
      "icao": "LEMG",
      "alert": "OK",
      "vis_m": 9999,
      "fzfg": false,
      "metar_trigger": false,
      "taf_trigger": false,
      "metar": "METAR LEMG 131400Z 12004KT 080V160 9999 FEW005 13/10 Q1016 NOSIG",
      "taf": "TAF LEMG 131100Z 1312/1412 13009KT 9999 FEW020 TX16/1314Z TN10/1407Z"
    },
    {
      "icao": "LEVC",
      "alert": "OK",
      "vis_m": 9999,
      "fzfg": false,
      "metar_trigger": false,
      "taf_trigger": false,
      "metar": "METAR LEVC 131400Z 12003KT 080V160 CAVOK 15/08 Q1015 NOSIG",
      "taf": "TAF LEVC 131100Z 1312/1412 VRB04KT CAVOK TX16/1314Z TN04/1406Z"
    },
    {
      "icao": "LEXJ",
      "alert": "OK",
      "vis_m": 9999,
      "fzfg": false,
      "metar_trigger": false,
      "taf_trigger": false,
      "metar": "METAR LEXJ 131400Z VRB12G28KT CAVOK 18/05 Q1006",
      "taf": "TAF LEXJ 131400Z 1315/1415 19009KT CAVOK TX17/1316Z TN11/1408Z"
    },
    {
      "icao": "LEZG",
      "alert": "OK",
      "vis_m": 8000,
      "fzfg": false,
      "metar_trigger": false,
      "taf_trigger": false,
      "metar": "METAR LEZG 131400Z 09008KT 8000 FEW007 09/08 Q1014 NOSIG",
      "taf": ""
    },
    {
      "icao": "LEZL",
      "alert": "OK",
      "vis_m": 6000,
      "fzfg": false,
      "metar_trigger": false,
      "taf_trigger": false,
      "metar": "SPECI LEZL 131411Z 21012G23KT 170V250 6000 RA FEW015 BKN020 17/13 Q1013 NOSIG",
      "taf": "TAF LEZL 131400Z 1315/1415 22010KT 9999 SCT030 TX18/1315Z TN08/1407Z"
    },
    {
      "icao": "LFBD",
      "alert": "OK",
      "vis_m": 9999,
      "fzfg": false,
      "metar_trigger": false,
      "taf_trigger": false,
      "metar": "METAR LFBD 131400Z AUTO 13008KT CAVOK 12/08 Q1009 NOSIG",
      "taf": "TAF LFBD 131100Z 1312/1418 15010KT CAVOK TX14/1314Z TN06/1407Z"
    },
    {
      "icao": "LFLL",
      "alert": "OK",
      "vis_m": 9999,
      "fzfg": false,
      "metar_trigger": false,
      "taf_trigger": false,
      "metar": "METAR LFLL 131400Z 18017KT 9999 FEW036 BKN260 14/07 Q1014 NOSIG",
      "taf": "TAF LFLL 131100Z 1312/1418 17015KT 9999 FEW035"
    },
    {
      "icao": "LFLS",
      "alert": "OK",
      "vis_m": 9999,
      "fzfg": false,
      "metar_trigger": false,
      "taf_trigger": false,
      "metar": "METAR LFLS 131400Z AUTO 22009KT 9999 FEW052 13/06 Q1015 NOSIG",
      "taf": "TAF LFLS 131400Z 1315/1415 24008KT 9999 FEW052"
    },
    {
      "icao": "LFMN",
      "alert": "OK",
      "vis_m": 9999,
      "fzfg": false,
      "metar_trigger": false,
      "taf_trigger": false,
      "metar": "METAR LFMN 131400Z 25008KT 9999 FEW040 BKN260 15/09 Q1020 NOSIG",
      "taf": "TAF LFMN 131400Z 1315/1421 25008KT 9999 SCT030 BKN040"
    },
    {
      "icao": "LFOB",
      "alert": "OK",
      "vis_m": 9999,
      "fzfg": false,
      "metar_trigger": false,
      "taf_trigger": false,
      "metar": "METAR LFOB 131400Z AUTO 17007KT 140V200 9999 // NSC 12/06 Q1007",
      "taf": "TAF LFOB 131100Z 1312/1412 18008KT CAVOK"
    },
    {
      "icao": "LFPO",
      "alert": "OK",
      "vis_m": 9999,
      "fzfg": false,
      "metar_trigger": false,
      "taf_trigger": false,
      "metar": "METAR LFPO 131400Z 19006KT 160V220 CAVOK 12/05 Q1008 NOSIG",
      "taf": "TAF LFPO 131100Z 1312/1418 19008KT CAVOK"
    },
    {
      "icao": "LFSB",
      "alert": "OK",
      "vis_m": 9999,
      "fzfg": false,
      "metar_trigger": false,
      "taf_trigger": false,
      "metar": "METAR LFSB 131400Z AUTO 13006KT CAVOK 11/04 Q1013 NOSIG",
      "taf": "TAF LFSB 131100Z 1312/1412 17005KT CAVOK"
    },
    {
      "icao": "LGAV",
      "alert": "OK",
      "vis_m": 9999,
      "fzfg": false,
      "metar_trigger": false,
      "taf_trigger": false,
      "metar": "METAR LGAV 131420Z 13007KT 9999 FEW025 11/M03 Q1024 NOSIG",
      "taf": "TAF LGAV 131100Z 1312/1412 VRB05KT 9999 FEW025"
    },
    {
      "icao": "LGTS",
      "alert": "OK",
      "vis_m": 9999,
      "fzfg": false,
      "metar_trigger": false,
      "taf_trigger": false,
      "metar": "METAR LGTS 131420Z VRB02KT 9999 FEW025 07/M09 Q1023 NOSIG",
      "taf": "TAF LGTS 131100Z 1312/1412 VRB03KT 9999 FEW025"
    },
    {
      "icao": "LHBP",
      "alert": "OK",
      "vis_m": 7000,
      "fzfg": false,
      "metar_trigger": false,
      "taf_trigger": false,
      "metar": "METAR LHBP 131400Z 03003KT 360V060 7000 SCT011 OVC014 M05/M07 Q1018 TEMPO OVC009",
      "taf": ""
    },
    {
      "icao": "LHDC",
      "alert": "OK",
      "vis_m": 8000,
      "fzfg": false,
      "metar_trigger": false,
      "taf_trigger": false,
      "metar": "METAR LHDC 131345Z AUTO 08005KT 060V140 8000 BKN014 M04/M06 Q1018 NOSIG",
      "taf": "TAF LHDC 131415Z 1315/1324 06005KT 8000 BKN010 OVC025"
    },
    {
      "icao": "LIBD",
      "alert": "OK",
      "vis_m": 9999,
      "fzfg": false,
      "metar_trigger": false,
      "taf_trigger": false,
      "metar": "METAR LIBD 131420Z 05003KT 350V080 CAVOK 15/05 Q1023",
      "taf": "TAF LIBD 131100Z 1312/1412 23007KT CAVOK"
    },
    {
      "icao": "LIBG",
      "alert": "OK",
      "vis_m": 9999,
      "fzfg": false,
      "metar_trigger": false,
      "taf_trigger": false,
      "metar": "METAR LIBG 131350Z 26004KT 220V300 CAVOK 14/04 Q1024",
      "taf": "TAF LIBG 131400Z 1315/1324 VRB05KT 9999 FEW040"
    },
    {
      "icao": "LIBP",
      "alert": "OK",
      "vis_m": 9999,
      "fzfg": false,
      "metar_trigger": false,
      "taf_trigger": false,
      "metar": "METAR LIBP 131420Z AUTO 03007KT 9999 NCD 12/06 Q1022",
      "taf": "TAF LIBP 131100Z 1312/1412 VRB06KT CAVOK"
    },
    {
      "icao": "LIBR",
      "alert": "OK",
      "vis_m": 9999,
      "fzfg": false,
      "metar_trigger": false,
      "taf_trigger": false,
      "metar": "METAR LIBR 131420Z 10005KT CAVOK 12/04 Q1024",
      "taf": "TAF LIBR 131100Z 1312/1412 22008KT CAVOK"
    },
    {
      "icao": "LICA",
      "alert": "OK",
      "vis_m": 9999,
      "fzfg": false,
      "metar_trigger": false,
      "taf_trigger": false,
      "metar": "METAR LICA 131420Z AUTO 24008KT 9999 NCD 13/07 Q1026",
      "taf": "TAF LICA 131100Z 1312/1412 26010KT 9999 SCT030"
    },
    {
      "icao": "LICC",
      "alert": "OK",
      "vis_m": 9999,
      "fzfg": false,
      "metar_trigger": false,
      "taf_trigger": false,
      "metar": "METAR LICC 131420Z 25010KT 9999 FEW050 17/11 Q1025",
      "taf": "TAF LICC 131100Z 1312/1412 26010KT CAVOK"
    },
    {
      "icao": "LICJ",
      "alert": "OK",
      "vis_m": 9999,
      "fzfg": false,
      "metar_trigger": false,
      "taf_trigger": false,
      "metar": "METAR LICJ 131420Z 20012KT CAVOK 16/07 Q1024",
      "taf": "TAF LICJ 131100Z 1312/1412 18010KT 9999 FEW030"
    },
    {
      "icao": "LIMC",
      "alert": "OK",
      "vis_m": 9999,
      "fzfg": false,
      "metar_trigger": false,
      "taf_trigger": false,
      "metar": "METAR LIMC 131420Z 17002KT 9999 BKN035 07/M02 Q1021 NOSIG",
      "taf": "TAF LIMC 131100Z 1312/1418 VRB05KT 9999 BKN040"
    },
    {
      "icao": "LIME",
      "alert": "OK",
      "vis_m": 9000,
      "fzfg": false,
      "metar_trigger": false,
      "taf_trigger": false,
      "metar": "METAR LIME 131420Z 19003KT 160V230 9000 OVC040 05/01 Q1021 NOSIG",
      "taf": "TAF LIME 131100Z 1312/1412 VRB04KT 9999 SCT035"
    },
    {
      "icao": "LIMF",
      "alert": "OK",
      "vis_m": 9999,
      "fzfg": false,
      "metar_trigger": false,
      "taf_trigger": false,
      "metar": "METAR LIMF 131420Z 14003KT CAVOK 09/M06 Q1021",
      "taf": "TAF LIMF 131100Z 1312/1412 VRB03KT CAVOK"
    },
    {
      "icao": "LIMJ",
      "alert": "OK",
      "vis_m": 9999,
      "fzfg": false,
      "metar_trigger": false,
      "taf_trigger": false,
      "metar": "METAR LIMJ 131420Z 34003KT 9999 SCT016 BKN035 12/11 Q1021",
      "taf": "TAF LIMJ 131100Z 1312/1412 VRB05KT 9999 BKN020"
    },
    {
      "icao": "LIPE",
      "alert": "OK",
      "vis_m": 9999,
      "fzfg": false,
      "metar_trigger": false,
      "taf_trigger": false,
      "metar": "METAR LIPE 131420Z 33003KT 300V020 9999 FEW035 BKN060 07/00 Q1022",
      "taf": "TAF LIPE 131100Z 1312/1412 VRB04KT 9999 SCT040"
    },
    {
      "icao": "LIPH",
      "alert": "OK",
      "vis_m": 9999,
      "fzfg": false,
      "metar_trigger": false,
      "taf_trigger": false,
      "metar": "METAR LIPH 131420Z 07002KT 9999 FEW040 07/00 Q1022",
      "taf": "TAF LIPH 131100Z 1312/1412 VRB04KT 9999 SCT040"
    },
    {
      "icao": "LIPQ",
      "alert": "OK",
      "vis_m": 9999,
      "fzfg": false,
      "metar_trigger": false,
      "taf_trigger": false,
      "metar": "METAR LIPQ 131420Z AUTO VRB01KT 9999 OVC041/// 08/03 Q1022",
      "taf": "TAF LIPQ 131100Z 1312/1412 VRB04KT 9999 SCT040"
    },
    {
      "icao": "LIPR",
      "alert": "OK",
      "vis_m": 8000,
      "fzfg": false,
      "metar_trigger": false,
      "taf_trigger": false,
      "metar": "METAR LIPR 131420Z 30006KT 8000 BKN050 08/04 Q1022",
      "taf": "TAF LIPR 131100Z 1312/1412 VRB05KT 9999 FEW040"
    },
    {
      "icao": "LIPX",
      "alert": "OK",
      "vis_m": 9999,
      "fzfg": false,
      "metar_trigger": false,
      "taf_trigger": false,
      "metar": "METAR LIPX 131420Z VRB02KT 9999 OVC040 05/M00 Q1022",
      "taf": "TAF LIPX 131100Z 1312/1412 VRB04KT 9999 BKN040"
    },
    {
      "icao": "LIPY",
      "alert": "OK",
      "vis_m": 9999,
      "fzfg": false,
      "metar_trigger": false,
      "taf_trigger": false,
      "metar": "METAR LIPY 131420Z AUTO 01002KT 9999 FEW230/// 13/07 Q1022",
      "taf": "TAF LIPY 131100Z 1312/1412 19007KT 9999 FEW050"
    },
    {
      "icao": "LIPZ",
      "alert": "OK",
      "vis_m": 9999,
      "fzfg": false,
      "metar_trigger": false,
      "taf_trigger": false,
      "metar": "METAR LIPZ 131420Z 15002KT 9999 BKN040 05/01 Q1022 NOSIG",
      "taf": "TAF LIPZ 131100Z 1312/1418 VRB05KT 9999 SCT040"
    },
    {
      "icao": "LIRF",
      "alert": "OK",
      "vis_m": 9999,
      "fzfg": false,
      "metar_trigger": false,
      "taf_trigger": false,
      "metar": "METAR LIRF 131420Z 17005KT 9999 FEW025 SCT040 15/07 Q1024 NOSIG",
      "taf": "TAF LIRF 131100Z 1312/1418 16010KT 9999 SCT030"
    },
    {
      "icao": "LIRN",
      "alert": "OK",
      "vis_m": 9999,
      "fzfg": false,
      "metar_trigger": false,
      "taf_trigger": false,
      "metar": "METAR LIRN 131420Z 20007KT 160V230 9999 BKN040 14/06 Q1025 NOSIG",
      "taf": "TAF LIRN 131100Z 1312/1412 VRB05KT 9999 BKN030"
    },
    {
      "icao": "LIRP",
      "alert": "OK",
      "vis_m": 9999,
      "fzfg": false,
      "metar_trigger": false,
      "taf_trigger": false,
      "metar": "METAR LIRP 131415Z 12005KT 9999 SCT020 BKN060 12/11 Q1022 NOSIG",
      "taf": "TAF LIRP 131100Z 1312/1412 VRB03KT 9999 SCT030 BKN060"
    },
    {
      "icao": "LIRZ",
      "alert": "OK",
      "vis_m": 9999,
      "fzfg": false,
      "metar_trigger": false,
      "taf_trigger": false,
      "metar": "METAR LIRZ 131420Z AUTO 21006KT 9999 BKN049/// 12/08 Q1023",
      "taf": "TAF LIRZ 131100Z 1312/1412 VRB04KT 9999 SCT040"
    },
    {
      "icao": "LJLJ",
      "alert": "OK",
      "vis_m": 9999,
      "fzfg": false,
      "metar_trigger": false,
      "taf_trigger": false,
      "metar": "METAR LJLJ 131400Z 31004KT 9999 FEW035 BKN180 01/M00 Q1020 NOSIG",
      "taf": "TAF LJLJ 131100Z 1312/1412 30007KT 9999 SCT025"
    },
    {
      "icao": "LKMT",
      "alert": "OK",
      "vis_m": 7000,
      "fzfg": false,
      "metar_trigger": false,
      "taf_trigger": false,
      "metar": "METAR LKMT 131400Z 22013KT 7000 SCT006 OVC016 M01/M02 Q1017 NOSIG",
      "taf": "TAF LKMT 131100Z 1312/1412 23010KT 9999 BKN012 OVC025"
    },
    {
      "icao": "LKPR",
      "alert": "OK",
      "vis_m": 9999,
      "fzfg": false,
      "metar_trigger": false,
      "taf_trigger": false,
      "metar": "METAR LKPR 131400Z 18007KT 9999 FEW017 BKN038 04/03 Q1015 NOSIG",
      "taf": "TAF LKPR 131400Z 1315/1421 21004KT 7000 SCT008 BKN017"
    },
    {
      "icao": "LLBG",
      "alert": "OK",
      "vis_m": 9999,
      "fzfg": false,
      "metar_trigger": false,
      "taf_trigger": false,
      "metar": "METAR LLBG 131420Z 24013KT 9999 -RA SCT027 BKN050 13/09 Q1016 RESHRA TEMPO 27025G35KT 7000 RA FEW020TCU",
      "taf": "TAF LLBG 131110Z 1312/1412 27018G28KT 9999 SCT040"
    },
    {
      "icao": "LMML",
      "alert": "OK",
      "vis_m": 9999,
      "fzfg": false,
      "metar_trigger": false,
      "taf_trigger": false,
      "metar": "METAR LMML 131415Z 22006KT 170V260 9999 FEW032 15/08 Q1026 NOSIG",
      "taf": "TAF LMML 131100Z 1312/1412 24008KT 9999 SCT028"
    },
    {
      "icao": "LOWW",
      "alert": "OK",
      "vis_m": 4100,
      "fzfg": false,
      "metar_trigger": false,
      "taf_trigger": false,
      "metar": "METAR LOWW 131420Z 16006KT 4100 BR FEW024 SCT028 BKN034 M01/M02 Q1018 TEMPO 5000 BR",
      "taf": "TAF LOWW 131415Z 1315/1421 14005KT 6000 FEW020 BKN040 TXM00/1315Z TNM02/1418Z"
    },
    {
      "icao": "LPFR",
      "alert": "OK",
      "vis_m": 9000,
      "fzfg": false,
      "metar_trigger": false,
      "taf_trigger": false,
      "metar": "METAR LPFR 131400Z 24021G31KT 9000 4000W -SHRA FEW015 FEW018CB 15/12 Q1012",
      "taf": "TAF LPFR 131100Z 1312/1412 21017KT 9999 SCT020"
    },
    {
      "icao": "LPMA",
      "alert": "OK",
      "vis_m": 9999,
      "fzfg": false,
      "metar_trigger": false,
      "taf_trigger": false,
      "metar": "METAR LPMA 131400Z VRB07KT 9999 BKN015 FEW018CB 17/09 Q1018",
      "taf": "TAF LPMA 131100Z 1312/1412 34010KT 9999 SCT015"
    },
    {
      "icao": "LPPR",
      "alert": "OK",
      "vis_m": 9999,
      "fzfg": false,
      "metar_trigger": false,
      "taf_trigger": false,
      "metar": "METAR LPPR 131400Z 22009KT 190V260 9999 VCSH FEW011 SCT020 FEW023TCU 14/12 Q1007",
      "taf": "TAF LPPR 131100Z 1312/1412 18012KT 9999 SCT015 BKN030"
    },
    {
      "icao": "LPPS",
      "alert": "OK",
      "vis_m": 9999,
      "fzfg": false,
      "metar_trigger": false,
      "taf_trigger": false,
      "metar": "METAR LPPS 131400Z 33017G28KT 9999 SCT014 FEW018CB 18/10 Q1018",
      "taf": "TAF LPPS 131100Z 1312/1418 34015KT 9999 SCT015"
    },
    {
      "icao": "LPPT",
      "alert": "OK",
      "vis_m": 9999,
      "fzfg": false,
      "metar_trigger": false,
      "taf_trigger": false,
      "metar": "METAR LPPT 131400Z 27008KT 240V300 9999 FEW014 SCT020 14/11 Q1010",
      "taf": "TAF LPPT 131100Z 1312/1418 25010KT 9999 SCT020 BKN045"
    },
    {
      "icao": "LQBK",
      "alert": "OK",
      "vis_m": 9999,
      "fzfg": false,
      "metar_trigger": false,
      "taf_trigger": false,
      "metar": "METAR LQBK 131400Z 21007KT CAVOK 11/03 Q1018 NOSIG",
      "taf": "TAF LQBK 131100Z 1312/1412 15007KT CAVOK TX14/1313Z TN00/1406Z"
    },
    {
      "icao": "LQSA",
      "alert": "OK",
      "vis_m": 9999,
      "fzfg": false,
      "metar_trigger": false,
      "taf_trigger": false,
      "metar": "METAR LQSA 131400Z VRB06KT CAVOK 09/01 Q1020 NOSIG",
      "taf": "TAF LQSA 131100Z 1312/1412 VRB02KT 8000 NSC TX04/1314Z TNM03/1406Z"
    },
    {
      "icao": "LQTZ",
      "alert": "OK",
      "vis_m": 9999,
      "fzfg": false,
      "metar_trigger": false,
      "taf_trigger": false,
      "metar": "METAR LQTZ 131400Z 35004KT CAVOK 09/02 Q1018",
      "taf": "TAF LQTZ 131100Z 1312/1412 VRB02KT CAVOK TX04/1313Z TNM02/1405Z"
    },
    {
      "icao": "LRBC",
      "alert": "OK",
      "vis_m": 9999,
      "fzfg": false,
      "metar_trigger": false,
      "taf_trigger": false,
      "metar": "METAR LRBC 131400Z 16009KT CAVOK 00/M06 Q1017",
      "taf": "TAF LRBC 131100Z 1312/1321 15010KT CAVOK"
    },
    {
      "icao": "LRBS",
      "alert": "OK",
      "vis_m": 9999,
      "fzfg": false,
      "metar_trigger": false,
      "taf_trigger": false,
      "metar": "METAR LRBS 131400Z 23006KT CAVOK M04/M09 Q1021 NOSIG",
      "taf": "TAF LRBS 131100Z 1312/1412 25006KT CAVOK"
    },
    {
      "icao": "LRBV",
      "alert": "OK",
      "vis_m": 1800,
      "fzfg": false,
      "metar_trigger": false,
      "taf_trigger": false,
      "metar": "METAR LRBV 131400Z VRB02KT 1800 -SN BR FEW025 SCT036 OVC047 M05/M09 Q1017",
      "taf": "TAF LRBV 131100Z 1312/1321 VRB04KT 9999 SCT010 BKN045"
    },
    {
      "icao": "LRCL",
      "alert": "OK",
      "vis_m": 3000,
      "fzfg": false,
      "metar_trigger": false,
      "taf_trigger": false,
      "metar": "METAR LRCL 131400Z 07007KT 3000 -SN BR BKN030 OVC052 M08/M10 Q1018 RESN",
      "taf": "TAF LRCL 131100Z 1312/1321 08006KT 5000 -SN BR SCT010 BKN045"
    },
    {
      "icao": "LRCV",
      "alert": "OK",
      "vis_m": 2000,
      "fzfg": false,
      "metar_trigger": false,
      "taf_trigger": false,
      "metar": "METAR LRCV 131400Z 04004KT 2000 SN BR BKN023 OVC030 M04/M05 Q1020",
      "taf": "TAF LRCV 131100Z 1312/1321 VRB04KT 5000 -SN BR BKN035"
    },
    {
      "icao": "LRIA",
      "alert": "OK",
      "vis_m": 9999,
      "fzfg": false,
      "metar_trigger": false,
      "taf_trigger": false,
      "metar": "METAR LRIA 131400Z 10007KT CAVOK M03/M06 Q1018",
      "taf": "TAF LRIA 131100Z 1312/1321 11008KT CAVOK"
    },
    {
      "icao": "LROP",
      "alert": "OK",
      "vis_m": 9999,
      "fzfg": false,
      "metar_trigger": false,
      "taf_trigger": false,
      "metar": "METAR LROP 131400Z 22007KT CAVOK M04/M09 Q1021 NOSIG",
      "taf": "TAF LROP 131100Z 1312/1412 25006KT CAVOK"
    },
    {
      "icao": "LRSB",
      "alert": "OK",
      "vis_m": 1100,
      "fzfg": false,
      "metar_trigger": false,
      "taf_trigger": false,
      "metar": "METAR LRSB 131400Z 09002KT 1100 R27/1300U SN OVC008 M06/M07 Q1016",
      "taf": "TAF LRSB 131100Z 1312/1412 VRB04KT 9999 -SN OVC035"
    },
    {
      "icao": "LRSM",
      "alert": "OK",
      "vis_m": 9999,
      "fzfg": false,
      "metar_trigger": false,
      "taf_trigger": false,
      "metar": "METAR LRSM 131400Z 13005KT 9999 OVC030 M05/M07 Q1019",
      "taf": "TAF LRSM 131100Z 1312/1321 11007KT 1000 SN BKN005 OVC015"
    },
    {
      "icao": "LRSV",
      "alert": "OK",
      "vis_m": 9999,
      "fzfg": false,
      "metar_trigger": false,
      "taf_trigger": false,
      "metar": "METAR LRSV 131400Z 07005KT CAVOK M04/M07 Q1015",
      "taf": "TAF LRSV 131100Z 1312/1321 VRB04KT CAVOK"
    },
    {
      "icao": "LRTM",
      "alert": "OK",
      "vis_m": 700,
      "fzfg": false,
      "metar_trigger": false,
      "taf_trigger": false,
      "metar": "METAR LRTM 131400Z 09002KT 0700 R07/1000N SN BR SCT009 BKN012 BKN017 M07/M09 Q1018",
      "taf": "TAF LRTM 131100Z 1312/1321 VRB02KT 5000 BR BKN010"
    },
    {
      "icao": "LRTR",
      "alert": "OK",
      "vis_m": 9999,
      "fzfg": false,
      "metar_trigger": false,
      "taf_trigger": false,
      "metar": "METAR LRTR 131400Z 10007KT 9999 -SN BKN005 OVC029 M03/M03 Q1018 NOSIG",
      "taf": "TAF LRTR 131100Z 1312/1412 11010KT 3000 SN BKN005 OVC030"
    },
    {
      "icao": "LTAC",
      "alert": "OK",
      "vis_m": 9999,
      "fzfg": false,
      "metar_trigger": false,
      "taf_trigger": false,
      "metar": "METAR LTAC 131420Z 36006KT 320V020 9999 SCT040 M01/M07 Q1017 NOSIG RMK RWY21C 32006KT RWY03L 35006KT RWY21R 33004KT 280V340 RWY03R 33006KT RWY21L 33006KT",
      "taf": "TAF LTAC 131040Z 1312/1412 VRB02KT 9999 SCT035 BKN100"
    },
    {
      "icao": "LTFM",
      "alert": "OK",
      "vis_m": 9999,
      "fzfg": false,
      "metar_trigger": false,
      "taf_trigger": false,
      "metar": "METAR LTFM 131420Z 23010KT 9999 SCT035 03/M04 Q1023 NOSIG RMK RWY17L 22009KT RWY34L 21008KT RWY16R 22008KT RWY36 23009KT RWY18 23010KT",
      "taf": "TAF LTFM 131040Z 1312/1418 30010KT 9999 BKN028"
    },
    {
      "icao": "LUKK",
      "alert": "OK",
      "vis_m": 9999,
      "fzfg": false,
      "metar_trigger": false,
      "taf_trigger": false,
      "metar": "METAR LUKK 131400Z 19006KT CAVOK M04/M08 Q1019 NOSIG",
      "taf": "TAF LUKK 131115Z 1312/1412 VRB05KT CAVOK"
    },
    {
      "icao": "LWOH",
      "alert": "OK",
      "vis_m": 9999,
      "fzfg": false,
      "metar_trigger": false,
      "taf_trigger": false,
      "metar": "METAR LWOH 131420Z 10006KT 070V130 9999 BKN035 04/00 Q1023",
      "taf": "TAF LWOH 131115Z 1312/1412 16005KT 9999 FEW035"
    },
    {
      "icao": "LWSK",
      "alert": "OK",
      "vis_m": 9999,
      "fzfg": false,
      "metar_trigger": false,
      "taf_trigger": false,
      "metar": "METAR LWSK 131420Z VRB02KT 9999 FEW070 04/M06 Q1023 NOSIG",
      "taf": "TAF LWSK 131115Z 1312/1412 VRB02KT 9999 FEW060"
    },
    {
      "icao": "LYBE",
      "alert": "OK",
      "vis_m": 9999,
      "fzfg": false,
      "metar_trigger": false,
      "taf_trigger": false,
      "metar": "METAR LYBE 131400Z 07003KT 030V090 9999 SCT043 02/M01 Q1019 NOSIG",
      "taf": "TAF LYBE 131100Z 1312/1412 VRB02KT 9999 SCT040 TX05/1412Z TN00/1405Z"
    },
    {
      "icao": "LYNI",
      "alert": "OK",
      "vis_m": 9999,
      "fzfg": false,
      "metar_trigger": false,
      "taf_trigger": false,
      "metar": "METAR LYNI 131400Z VRB01KT 9999 SCT060 BKN083 01/M03 Q1021 NOSIG",
      "taf": "TAF LYNI 131100Z 1312/1412 24004KT 9999 SCT043 BKN070 TX03/1412Z TNM01/1315Z"
    },
    {
      "icao": "LYPG",
      "alert": "OK",
      "vis_m": 9999,
      "fzfg": false,
      "metar_trigger": false,
      "taf_trigger": false,
      "metar": "METAR LYPG 131400Z VRB01KT 9999 FEW030 BKN040 OVC070 05/M05 Q1026 NOSIG",
      "taf": "TAF LYPG 131100Z 1312/1412 16006KT 9999 FEW027 BKN040 BKN080 TX09/1412Z TN01/1406Z"
    },
    {
      "icao": "LZIB",
      "alert": "OK",
      "vis_m": 5000,
      "fzfg": false,
      "metar_trigger": false,
      "taf_trigger": false,
      "metar": "METAR LZIB 131400Z 06004KT 5000 BR SCT005 BKN007 OVC010 M03/M03 Q1018 NOSIG",
      "taf": "TAF LZIB 131115Z 1312/1412 08004KT 8000 SCT007 OVC014"
    },
    {
      "icao": "LZKZ",
      "alert": "OK",
      "vis_m": 9999,
      "fzfg": false,
      "metar_trigger": false,
      "taf_trigger": false,
      "metar": "METAR LZKZ 131400Z 03002KT 9999 FEW026 BKN037 M07/M09 Q1018 NOSIG",
      "taf": "TAF LZKZ 131115Z 1312/1412 VRB02KT 6000 -SN OVC017"
    },
    {
      "icao": "LZTT",
      "alert": "OK",
      "vis_m": 9000,
      "fzfg": false,
      "metar_trigger": false,
      "taf_trigger": false,
      "metar": "METAR LZTT 131400Z 05003KT 9000 FEW013 BKN030 M07/M09 Q1013 NOSIG",
      "taf": "TAF LZTT 131115Z 1312/1412 VRB02KT 6000 -SN SCT012 BKN020"
    },
    {
      "icao": "OEJN",
      "alert": "OK",
      "vis_m": 9999,
      "fzfg": false,
      "metar_trigger": false,
      "taf_trigger": false,
      "metar": "METAR OEJN 131400Z 33013KT 9999 FEW040 28/17 Q1015 NOSIG",
      "taf": "TAF OEJN 131100Z 1312/1418 35010KT 7000 SCT040"
    },
    {
      "icao": "OEMA",
      "alert": "OK",
      "vis_m": 9999,
      "fzfg": false,
      "metar_trigger": false,
      "taf_trigger": false,
      "metar": "METAR OEMA 131400Z 22011KT CAVOK 27/07 Q1017 NOSIG",
      "taf": "TAF OEMA 131100Z 1312/1418 33010KT 7000 FEW040"
    },
    {
      "icao": "OJAI",
      "alert": "OK",
      "vis_m": 3000,
      "fzfg": false,
      "metar_trigger": false,
      "taf_trigger": false,
      "metar": "METAR OJAI 131400Z 24020KT 3000 BR SCT025 BKN030 08/06 Q1015 NOSIG",
      "taf": "TAF OJAI 131051Z 1312/1418 24020KT 1500 RA BR FEW025TCU SCT035"
    },
    {
      "icao": "OMAA",
      "alert": "OK",
      "vis_m": 9999,
      "fzfg": false,
      "metar_trigger": false,
      "taf_trigger": false,
      "metar": "METAR OMAA 131400Z 34009KT CAVOK 22/12 Q1019 NOSIG",
      "taf": "TAF OMAA 131100Z 1312/1418 34010KT 8000 NSC"
    },
    {
      "icao": "OMDB",
      "alert": "OK",
      "vis_m": null,
      "fzfg": false,
      "metar_trigger": false,
      "taf_trigger": false,
      "metar": "",
      "taf": "TAF OMDB 131100Z 1312/1418 32010KT 8000 NSC"
    },
    {
      "icao": "UAAA",
      "alert": "CRITICAL",
      "vis_m": 100,
      "fzfg": true,
      "metar_trigger": true,
      "taf_trigger": false,
      "metar": "METAR UAAA 131400Z 15002MPS 0100 R23L/0375N FZFG VV001 M01/M01 Q1023 NOSIG RMK QBB050",
      "taf": ""
    },
    {
      "icao": "UBBB",
      "alert": "OK",
      "vis_m": 9999,
      "fzfg": false,
      "metar_trigger": false,
      "taf_trigger": false,
      "metar": "METAR UBBB 131400Z 01012KT 9999 OVC021 08/04 Q1009 NOSIG",
      "taf": "TAF UBBB 131057Z 1312/1412 35014KT 9999 BKN020 TX08/1312Z TN03/1401Z"
    },
    {
      "icao": "UDSG",
      "alert": "OK",
      "vis_m": 9000,
      "fzfg": false,
      "metar_trigger": false,
      "taf_trigger": false,
      "metar": "METAR UDSG 131400Z 32006KT 9000 -SN OVC036 01/M01 Q1005 NOSIG",
      "taf": "TAF UDSG 131100Z 1312/1412 VRB06KT 5000 BR BKN030"
    },
    {
      "icao": "UDYZ",
      "alert": "OK",
      "vis_m": 9000,
      "fzfg": false,
      "metar_trigger": false,
      "taf_trigger": false,
      "metar": "METAR UDYZ 131400Z VRB01KT 9000 SCT046 04/M00 Q1004 NOSIG",
      "taf": "TAF UDYZ 131100Z 1312/1412 23006KT 9999 SCT040"
    },
    {
      "icao": "UGKO",
      "alert": "OK",
      "vis_m": 9999,
      "fzfg": false,
      "metar_trigger": false,
      "taf_trigger": false,
      "metar": "METAR UGKO 131400Z 25012KT 9999 SCT017 BKN023 03/02 Q1017 NOSIG",
      "taf": "TAF UGKO 131100Z 1312/1412 25007KT 9999 OVC045 TX06/1411Z TN01/1403Z"
    }
  ]
}