{
  "ts_utc": "2026-02-25T07:37:05Z",
  "threshold_m": 150,
  "source": "stations_override.txt (ICAO list) + aviationweather.gov (METAR/TAF raw)",
  "station_count": 159,
  "stations": [
    {
      "icao": "BIKF",
      "alert": "OK",
      "vis_m": 9999,
      "fzfg": false,
      "metar_trigger": false,
      "taf_trigger": false,
      "metar": "METAR BIKF 250730Z 26017KT 9999 BKN039 M02/M09 Q1002",
      "taf": "TAF BIKF 250434Z 2506/2606 27022KT 9999 -SHSN SCT020 BKN030 TX03/2604Z TNM02/2506Z"
    },
    {
      "icao": "BKPR",
      "alert": "OK",
      "vis_m": 9999,
      "fzfg": false,
      "metar_trigger": false,
      "taf_trigger": false,
      "metar": "METAR BKPR 250730Z VRB01KT CAVOK 05/02 Q1024 NOSIG",
      "taf": "TAF BKPR 250530Z 2506/2606 34008KT 9999 SCT040"
    },
    {
      "icao": "EBCI",
      "alert": "OK",
      "vis_m": 9999,
      "fzfg": false,
      "metar_trigger": false,
      "taf_trigger": false,
      "metar": "METAR EBCI 250720Z 16005KT CAVOK 09/08 Q1019 NOSIG",
      "taf": "TAF EBCI 250521Z 2506/2612 16006KT CAVOK"
    },
    {
      "icao": "EDDB",
      "alert": "OK",
      "vis_m": 550,
      "fzfg": true,
      "metar_trigger": false,
      "taf_trigger": false,
      "metar": "METAR EDDB 250720Z AUTO 10003KT 0550 0250 R06L/0600D R06R/1800U FG VV002 01/01 Q1024 BECMG 9999",
      "taf": "TAF EDDB 250500Z 2506/2606 12005KT 0400 FZFG OVC000"
    },
    {
      "icao": "EDDH",
      "alert": "OK",
      "vis_m": 9999,
      "fzfg": false,
      "metar_trigger": false,
      "taf_trigger": false,
      "metar": "METAR EDDH 250720Z AUTO 16005KT 130V190 9999 OVC023 07/05 Q1021 NOSIG",
      "taf": "TAF EDDH 250500Z 2506/2612 15006KT 9999 BKN020"
    },
    {
      "icao": "EDDK",
      "alert": "OK",
      "vis_m": 9999,
      "fzfg": false,
      "metar_trigger": false,
      "taf_trigger": false,
      "metar": "METAR EDDK 250720Z AUTO 12007KT 070V150 9999 OVC012 11/08 Q1021 BECMG BKN015",
      "taf": ""
    },
    {
      "icao": "EDDN",
      "alert": "OK",
      "vis_m": 600,
      "fzfg": false,
      "metar_trigger": false,
      "taf_trigger": false,
      "metar": "METAR EDDN 250720Z AUTO 13006KT 0600 0500 R28/0800N FG BKN001 03/03 Q1024 TEMPO 1200 BCFG OVC002",
      "taf": ""
    },
    {
      "icao": "EDDS",
      "alert": "OK",
      "vis_m": 350,
      "fzfg": false,
      "metar_trigger": false,
      "taf_trigger": false,
      "metar": "METAR EDDS 250720Z AUTO 17003KT 110V200 0350 R07/0450N FG VV003 05/05 Q1021 NOSIG",
      "taf": "TAF EDDS 250500Z 2506/2606 VRB03KT 1500 BCFG SCT002"
    },
    {
      "icao": "EDFH",
      "alert": "OK",
      "vis_m": 250,
      "fzfg": false,
      "metar_trigger": false,
      "taf_trigger": false,
      "metar": "METAR EDFH 250720Z 14016KT 0250 R21/0275N FG VV/// 07/07 Q1021",
      "taf": "TAF EDFH 250500Z 2506/2606 15010KT 0800 FG SCT002"
    },
    {
      "icao": "EDJA",
      "alert": "OK",
      "vis_m": 450,
      "fzfg": false,
      "metar_trigger": false,
      "taf_trigger": false,
      "metar": "METAR EDJA 250650Z VRB01KT 0450 R06/0900U FG SCT001 SCT003 00/M00 Q1022",
      "taf": "TAF EDJA 250500Z 2506/2515 VRB02KT 0400 FG VV001"
    },
    {
      "icao": "EDLW",
      "alert": "OK",
      "vis_m": 9999,
      "fzfg": false,
      "metar_trigger": false,
      "taf_trigger": false,
      "metar": "METAR EDLW 250720Z 13004KT 070V170 CAVOK 07/07 Q1021",
      "taf": ""
    },
    {
      "icao": "EDNY",
      "alert": "OK",
      "vis_m": 550,
      "fzfg": false,
      "metar_trigger": false,
      "taf_trigger": false,
      "metar": "METAR EDNY 250720Z 04007KT 0550 R06/0800N FG VV/// 04/04 Q1023",
      "taf": "TAF EDNY 250500Z 2506/2515 03005KT 2000 BR BKN004"
    },
    {
      "icao": "EDSB",
      "alert": "OK",
      "vis_m": 500,
      "fzfg": false,
      "metar_trigger": false,
      "taf_trigger": false,
      "metar": "METAR EDSB 250720Z 14003KT 110V170 0500 R21/0550N FG VV/// 07/06 Q1022",
      "taf": "TAF EDSB 250500Z 2506/2606 02004KT 0800 FG SCT002"
    },
    {
      "icao": "EETN",
      "alert": "OK",
      "vis_m": 9999,
      "fzfg": false,
      "metar_trigger": false,
      "taf_trigger": false,
      "metar": "METAR EETN 250720Z 08006KT CAVOK M08/M10 Q1025 NOSIG",
      "taf": "TAF EETN 250530Z 2506/2606 06010KT CAVOK"
    },
    {
      "icao": "EFTU",
      "alert": "OK",
      "vis_m": 9999,
      "fzfg": false,
      "metar_trigger": false,
      "taf_trigger": false,
      "metar": "METAR EFTU 250720Z AUTO 10005KT CAVOK M13/M14 Q1025",
      "taf": "TAF EFTU 250521Z 2506/2606 VRB02KT CAVOK"
    },
    {
      "icao": "EGBB",
      "alert": "OK",
      "vis_m": 9999,
      "fzfg": false,
      "metar_trigger": false,
      "taf_trigger": false,
      "metar": "METAR EGBB 250720Z 19006KT 150V220 9999 BKN009 10/09 Q1013",
      "taf": "TAF EGBB 250458Z 2506/2606 18006KT 6000 BKN006"
    },
    {
      "icao": "EGGP",
      "alert": "OK",
      "vis_m": 9999,
      "fzfg": false,
      "metar_trigger": false,
      "taf_trigger": false,
      "metar": "METAR EGGP 250720Z 16007KT 9999 BKN034 08/07 Q1011",
      "taf": "TAF EGGP 250454Z 2506/2606 16008KT 9999 FEW030"
    },
    {
      "icao": "EGGW",
      "alert": "OK",
      "vis_m": 1000,
      "fzfg": false,
      "metar_trigger": false,
      "taf_trigger": false,
      "metar": "METAR EGGW 250720Z 19007KT 150V220 1000 R25/P1500N BR OVC001 09/09 Q1014",
      "taf": "TAF EGGW 250453Z 2506/2606 16010KT 4000 BR BKN002"
    },
    {
      "icao": "EGKK",
      "alert": "OK",
      "vis_m": 4000,
      "fzfg": false,
      "metar_trigger": false,
      "taf_trigger": false,
      "metar": "METAR EGKK 250650Z 16003KT 120V200 4000 1500W PRFG OVC002 09/09 Q1015",
      "taf": "TAF EGKK 250452Z 2506/2612 15004KT 9999 FEW035"
    },
    {
      "icao": "EGNM",
      "alert": "OK",
      "vis_m": 7000,
      "fzfg": false,
      "metar_trigger": false,
      "taf_trigger": false,
      "metar": "METAR EGNM 250720Z 21008KT 7000 SCT011 SCT043 07/06 Q1011",
      "taf": "TAF EGNM 250455Z 2506/2606 21007KT 9999 FEW008"
    },
    {
      "icao": "EGPD",
      "alert": "OK",
      "vis_m": 9999,
      "fzfg": false,
      "metar_trigger": false,
      "taf_trigger": false,
      "metar": "METAR EGPD 250720Z COR AUTO 15004KT 110V190 9999 NCD 09/07 Q1006 NOSIG",
      "taf": "TAF EGPD 250455Z 2506/2606 18009KT 9999 FEW025"
    },
    {
      "icao": "EGPF",
      "alert": "OK",
      "vis_m": 3500,
      "fzfg": false,
      "metar_trigger": false,
      "taf_trigger": false,
      "metar": "METAR EGPF 250720Z AUTO 18007KT 3500 -RADZ BKN007 OVC011 10/09 Q1007 REDZ",
      "taf": "TAF EGPF 250455Z 2506/2606 18007KT 9999 SCT025"
    },
    {
      "icao": "EHBK",
      "alert": "OK",
      "vis_m": 9999,
      "fzfg": false,
      "metar_trigger": false,
      "taf_trigger": false,
      "metar": "METAR EHBK 250725Z AUTO 14005KT 9999 NCD 08/08 Q1020 NOSIG",
      "taf": "TAF EHBK 250454Z 2506/2612 11005KT CAVOK"
    },
    {
      "icao": "EHEH",
      "alert": "OK",
      "vis_m": 9999,
      "fzfg": false,
      "metar_trigger": false,
      "taf_trigger": false,
      "metar": "SPECI EHEH 250728Z AUTO 13005KT 100V160 9999 NCD 10/09 Q1019 BLU NOSIG RMK TREND REMOTE BY EHWX",
      "taf": ""
    },
    {
      "icao": "EKBI",
      "alert": "OK",
      "vis_m": 500,
      "fzfg": false,
      "metar_trigger": false,
      "taf_trigger": false,
      "metar": "METAR EKBI 250720Z AUTO 13008KT 0500 R09/1000N R27/1000N FG VV003 02/02 Q1020",
      "taf": ""
    },
    {
      "icao": "EKCH",
      "alert": "OK",
      "vis_m": 9999,
      "fzfg": false,
      "metar_trigger": false,
      "taf_trigger": false,
      "metar": "METAR EKCH 250720Z 14011KT 9999 SCT014 BKN040 01/M01 Q1024 NOSIG",
      "taf": "TAF EKCH 250527Z 2506/2606 13012KT 9999 BKN018"
    },
    {
      "icao": "ENAL",
      "alert": "OK",
      "vis_m": 9999,
      "fzfg": false,
      "metar_trigger": false,
      "taf_trigger": false,
      "metar": "METAR ENAL 250720Z 20013KT 9999 VCSH FEW013 BKN045 08/03 Q1004",
      "taf": "TAF ENAL 250500Z 2506/2515 20010KT 9999 -RA FEW020 BKN030"
    },
    {
      "icao": "ENBR",
      "alert": "OK",
      "vis_m": 8000,
      "fzfg": false,
      "metar_trigger": false,
      "taf_trigger": false,
      "metar": "METAR ENBR 250720Z 15015KT 8000 -SHRA SCT006 BKN018 06/04 Q1010 TEMPO BKN006 RMK WIND 1200FT 16020KT",
      "taf": "TAF ENBR 250500Z 2506/2606 14015KT 9999 -RA OVC018"
    },
    {
      "icao": "ENGM",
      "alert": "OK",
      "vis_m": 9999,
      "fzfg": false,
      "metar_trigger": false,
      "taf_trigger": false,
      "metar": "METAR ENGM 250720Z 15004KT 090V170 9999 -SN OVC007 M04/M06 Q1020 TEMPO 4000 BKN004",
      "taf": "TAF ENGM 250500Z 2506/2606 16008KT 9999 BKN020"
    },
    {
      "icao": "ENHD",
      "alert": "OK",
      "vis_m": 9999,
      "fzfg": false,
      "metar_trigger": false,
      "taf_trigger": false,
      "metar": "METAR ENHD 250720Z 15013KT 9999 BKN018 OVC022 06/02 Q1012",
      "taf": "TAF ENHD 250500Z 2506/2515 14022KT 9999 SCT012 BKN020"
    },
    {
      "icao": "ENTC",
      "alert": "OK",
      "vis_m": 9999,
      "fzfg": false,
      "metar_trigger": false,
      "taf_trigger": false,
      "metar": "METAR ENTC 250720Z 06003KT 010V110 CAVOK M08/M11 Q1013 NOSIG RMK WIND 2600FT 16023KT",
      "taf": "TAF ENTC 250500Z 2506/2606 22004KT CAVOK"
    },
    {
      "icao": "ENTO",
      "alert": "OK",
      "vis_m": 9999,
      "fzfg": false,
      "metar_trigger": false,
      "taf_trigger": false,
      "metar": "METAR ENTO 250720Z 13004KT 110V170 9999 -SHSN OVC018 M02/M03 Q1021 TEMPO 4000 BKN012",
      "taf": "TAF ENTO 250500Z 2506/2606 10005KT 9999 BKN030"
    },
    {
      "icao": "ENVA",
      "alert": "OK",
      "vis_m": 5000,
      "fzfg": false,
      "metar_trigger": false,
      "taf_trigger": false,
      "metar": "METAR ENVA 250720Z 09008KT 060V120 5000 -SN VV019 M00/M03 Q1009 TEMPO 15015G25KT 2000 SNRA VV012 RMK WIND 670FT 16020KT",
      "taf": ""
    },
    {
      "icao": "ENZV",
      "alert": "OK",
      "vis_m": 9999,
      "fzfg": false,
      "metar_trigger": false,
      "taf_trigger": false,
      "metar": "METAR ENZV 250720Z 13015KT 9999 BKN023 06/01 Q1012 NOSIG",
      "taf": "TAF ENZV 250500Z 2506/2606 14018KT 9999 BKN025"
    },
    {
      "icao": "EPGD",
      "alert": "OK",
      "vis_m": 9999,
      "fzfg": false,
      "metar_trigger": false,
      "taf_trigger": false,
      "metar": "METAR EPGD 250730Z 36008KT 350V060 9999 BKN017 M01/M04 Q1024",
      "taf": "TAF EPGD 250530Z 2506/2606 35005KT 9999 SCT012 BKN035"
    },
    {
      "icao": "EPKK",
      "alert": "OK",
      "vis_m": 8000,
      "fzfg": false,
      "metar_trigger": false,
      "taf_trigger": false,
      "metar": "METAR EPKK 250730Z 27009KT 8000 FEW010 BKN020 04/02 Q1022",
      "taf": "TAF EPKK 250530Z 2506/2606 24006KT 9999 BKN030"
    },
    {
      "icao": "EPKT",
      "alert": "OK",
      "vis_m": 9999,
      "fzfg": false,
      "metar_trigger": false,
      "taf_trigger": false,
      "metar": "METAR EPKT 250730Z 29005KT 9999 FEW004 BKN020 03/02 Q1022",
      "taf": "TAF EPKT 250530Z 2506/2606 28004KT 9999 BKN020"
    },
    {
      "icao": "EPLB",
      "alert": "OK",
      "vis_m": 6000,
      "fzfg": false,
      "metar_trigger": false,
      "taf_trigger": false,
      "metar": "METAR EPLB 250730Z 30011KT 6000 -RA SCT005 BKN007 OVC009 01/00 Q1019",
      "taf": "TAF EPLB 250530Z 2506/2606 33010KT 9999 BKN030"
    },
    {
      "icao": "EPMO",
      "alert": "OK",
      "vis_m": 9999,
      "fzfg": false,
      "metar_trigger": false,
      "taf_trigger": false,
      "metar": "METAR EPMO 250730Z 31009KT 9999 SCT014 BKN028 01/M01 Q1021",
      "taf": "TAF EPMO 250530Z 2506/2606 34007KT 9999 BKN011"
    },
    {
      "icao": "EPPO",
      "alert": "OK",
      "vis_m": 9999,
      "fzfg": false,
      "metar_trigger": false,
      "taf_trigger": false,
      "metar": "METAR EPPO 250730Z 03007KT 9999 OVC005 00/M01 Q1025",
      "taf": "TAF EPPO 250530Z 2506/2606 34010KT 9999 BKN005"
    },
    {
      "icao": "EPRA",
      "alert": "OK",
      "vis_m": 9999,
      "fzfg": false,
      "metar_trigger": false,
      "taf_trigger": false,
      "metar": "METAR EPRA 250730Z 34010KT 9999 -RA BKN005 OVC010 01/M00 Q1020",
      "taf": "TAF EPRA 250530Z 2506/2515 28008KT 9999 BKN010"
    },
    {
      "icao": "EPRZ",
      "alert": "OK",
      "vis_m": 9999,
      "fzfg": false,
      "metar_trigger": false,
      "taf_trigger": false,
      "metar": "METAR EPRZ 250730Z 26013KT 9999 BKN015 03/01 Q1020",
      "taf": "TAF EPRZ 250530Z 2506/2606 28012KT 9999 BKN020"
    },
    {
      "icao": "EPSC",
      "alert": "OK",
      "vis_m": 9999,
      "fzfg": false,
      "metar_trigger": false,
      "taf_trigger": false,
      "metar": "METAR EPSC 250730Z 10004KT 040V140 9999 FEW004 OVC005 00/M01 Q1025",
      "taf": "TAF EPSC 250530Z 2506/2606 01005KT 9999 BKN005"
    },
    {
      "icao": "EPSY",
      "alert": "OK",
      "vis_m": 8000,
      "fzfg": false,
      "metar_trigger": false,
      "taf_trigger": false,
      "metar": "METAR EPSY 250730Z 36014KT 8000 -SHSN SCT006 BKN012CB M01/M02 Q1021 RESHSN",
      "taf": "TAF EPSY 250530Z 2506/2515 34010KT 9999 BKN010 BKN020"
    },
    {
      "icao": "EPWA",
      "alert": "OK",
      "vis_m": 9999,
      "fzfg": false,
      "metar_trigger": false,
      "taf_trigger": false,
      "metar": "METAR EPWA 250730Z 32011KT 9999 BKN014 01/M01 Q1021 NOSIG",
      "taf": "TAF EPWA 250530Z 2506/2606 34010KT 9999 BKN013"
    },
    {
      "icao": "EPWR",
      "alert": "OK",
      "vis_m": 9999,
      "fzfg": false,
      "metar_trigger": false,
      "taf_trigger": false,
      "metar": "METAR EPWR 250730Z 27004KT 9999 BKN030 04/03 Q1024",
      "taf": "TAF EPWR 250530Z 2506/2606 31004KT 9999 BKN035"
    },
    {
      "icao": "ESGG",
      "alert": "OK",
      "vis_m": 9999,
      "fzfg": false,
      "metar_trigger": false,
      "taf_trigger": false,
      "metar": "METAR ESGG 250720Z 15010KT 9999 OVC036 M02/M04 Q1021",
      "taf": "TAF ESGG 250530Z 2506/2606 14010KT 9999 BKN045"
    },
    {
      "icao": "ESKN",
      "alert": "OK",
      "vis_m": 9999,
      "fzfg": false,
      "metar_trigger": false,
      "taf_trigger": false,
      "metar": "METAR ESKN 250720Z 26003KT 9999 BKN007 M06/M06 Q1026",
      "taf": "TAF ESKN 250530Z 2506/2606 VRB03KT 9999 FEW008"
    },
    {
      "icao": "ESMS",
      "alert": "OK",
      "vis_m": 9999,
      "fzfg": false,
      "metar_trigger": false,
      "taf_trigger": false,
      "metar": "METAR ESMS 250720Z COR 12009KT 090V160 9999 BKN008 M00/M01 Q1024",
      "taf": "TAF ESMS 250527Z 2506/2606 13010KT 9999 SCT020"
    },
    {
      "icao": "ESSA",
      "alert": "OK",
      "vis_m": 9999,
      "fzfg": true,
      "metar_trigger": false,
      "taf_trigger": false,
      "metar": "METAR ESSA 250720Z 00000KT 9999 SCT002 M10/M12 Q1025 NOSIG",
      "taf": "TAF ESSA 250530Z 2506/2606 VRB02KT 0200 FZFG VV002"
    },
    {
      "icao": "EYKA",
      "alert": "OK",
      "vis_m": 9999,
      "fzfg": false,
      "metar_trigger": false,
      "taf_trigger": false,
      "metar": "METAR EYKA 250720Z 36004KT 280V080 9999 OVC014 M02/M05 Q1020",
      "taf": "TAF EYKA 250500Z 2506/2606 35011KT 9000 OVC015"
    },
    {
      "icao": "EYPA",
      "alert": "OK",
      "vis_m": 9999,
      "fzfg": false,
      "metar_trigger": false,
      "taf_trigger": false,
      "metar": "METAR EYPA 250720Z 02005KT 340V040 CAVOK M03/M06 Q1023",
      "taf": "TAF EYPA 250500Z 2506/2606 VRB04KT 9000 SCT015"
    },
    {
      "icao": "EYVI",
      "alert": "OK",
      "vis_m": 9999,
      "fzfg": false,
      "metar_trigger": false,
      "taf_trigger": false,
      "metar": "METAR EYVI 250720Z 35011KT 9999 -SN BKN008 M03/M05 Q1017 NOSIG",
      "taf": "TAF EYVI 250500Z 2506/2606 33010KT 5000 SN OVC005"
    },
    {
      "icao": "GCFV",
      "alert": "OK",
      "vis_m": 9999,
      "fzfg": false,
      "metar_trigger": false,
      "taf_trigger": false,
      "metar": "METAR GCFV 250730Z 31006KT 9999 FEW015 17/13 Q1018",
      "taf": "TAF GCFV 250200Z 2503/2603 32010KT 9999 FEW015 TX22/2514Z TN15/2506Z"
    },
    {
      "icao": "GCLP",
      "alert": "OK",
      "vis_m": 9999,
      "fzfg": false,
      "metar_trigger": false,
      "taf_trigger": false,
      "metar": "METAR GCLP 250730Z 02017KT 9999 FEW020 18/12 Q1017 NOSIG",
      "taf": "TAF GCLP 250200Z 2503/2603 36020KT 9999 FEW015 TX23/2514Z TN14/2506Z"
    },
    {
      "icao": "GCTS",
      "alert": "OK",
      "vis_m": 9999,
      "fzfg": false,
      "metar_trigger": false,
      "taf_trigger": false,
      "metar": "METAR GCTS 250730Z 31006KT CAVOK 16/07 Q1018 NOSIG",
      "taf": "TAF GCTS 250200Z 2503/2603 VRB05KT 9999 SCT020 TX24/2514Z TN14/2506Z"
    },
    {
      "icao": "GMAD",
      "alert": "OK",
      "vis_m": 9999,
      "fzfg": false,
      "metar_trigger": false,
      "taf_trigger": false,
      "metar": "METAR GMAD 250730Z 07007KT CAVOK 11/02 Q1017 NOSIG",
      "taf": "TAF GMAD 250500Z 2506/2612 06008KT CAVOK"
    },
    {
      "icao": "GMMN",
      "alert": "OK",
      "vis_m": 9999,
      "fzfg": false,
      "metar_trigger": false,
      "taf_trigger": false,
      "metar": "METAR GMMN 250730Z 17008KT CAVOK 09/06 Q1016 NOSIG",
      "taf": "TAF GMMN 250500Z 2506/2612 18007KT CAVOK"
    },
    {
      "icao": "GMMX",
      "alert": "OK",
      "vis_m": 9999,
      "fzfg": false,
      "metar_trigger": false,
      "taf_trigger": false,
      "metar": "METAR GMMX 250730Z 09003KT 050V150 9999 SCT100 12/04 Q1017 NOSIG",
      "taf": "TAF GMMX 250500Z 2506/2612 12006KT 8000 NSC"
    },
    {
      "icao": "HEGN",
      "alert": "OK",
      "vis_m": 9999,
      "fzfg": false,
      "metar_trigger": false,
      "taf_trigger": false,
      "metar": "METAR HEGN 250700Z 30013KT CAVOK 19/05 Q1021 NOSIG",
      "taf": "TAF HEGN 250500Z 2506/2612 32015KT CAVOK"
    },
    {
      "icao": "HEMA",
      "alert": "OK",
      "vis_m": 9999,
      "fzfg": false,
      "metar_trigger": false,
      "taf_trigger": false,
      "metar": "METAR HEMA 250700Z 32018KT CAVOK 21/06 Q1019 NOSIG",
      "taf": "TAF HEMA 250500Z 2506/2612 31015KT CAVOK"
    },
    {
      "icao": "HESH",
      "alert": "OK",
      "vis_m": 9999,
      "fzfg": false,
      "metar_trigger": false,
      "taf_trigger": false,
      "metar": "METAR HESH 250700Z 35012KT CAVOK 21/06 Q1020 NOSIG",
      "taf": "TAF HESH 250500Z 2506/2612 03012KT CAVOK"
    },
    {
      "icao": "HESX",
      "alert": "OK",
      "vis_m": 2000,
      "fzfg": false,
      "metar_trigger": false,
      "taf_trigger": false,
      "metar": "METAR HESX 250700Z 20006KT 2000 HZ NSC 15/07 Q1021 NOSIG",
      "taf": "TAF HESX 250500Z 2506/2612 29009KT 9999 SCT020"
    },
    {
      "icao": "LATI",
      "alert": "OK",
      "vis_m": 1000,
      "fzfg": false,
      "metar_trigger": false,
      "taf_trigger": false,
      "metar": "METAR LATI 250720Z VRB01KT 1000 R17/P2000N R35/1200U BCFG BKN002 07/07 Q1022 TEMPO 2000",
      "taf": "TAF LATI 250500Z 2506/2606 VRB03KT 2000 BCFG BKN003 TX18/2512Z TN03/2605Z"
    },
    {
      "icao": "LBPD",
      "alert": "OK",
      "vis_m": 9999,
      "fzfg": false,
      "metar_trigger": false,
      "taf_trigger": false,
      "metar": "METAR LBPD 250730Z AUTO 28020KT 9999 NCD 10/01 Q1020 TEMPO 27018G28KT",
      "taf": "TAF LBPD 250500Z 2506/2606 29016G26KT 9999 SCT050 BKN070"
    },
    {
      "icao": "LBSF",
      "alert": "OK",
      "vis_m": 9999,
      "fzfg": false,
      "metar_trigger": false,
      "taf_trigger": false,
      "metar": "METAR LBSF 250730Z 28015KT 9999 FEW022 SCT058 06/01 Q1021 NOSIG",
      "taf": ""
    },
    {
      "icao": "LBWN",
      "alert": "OK",
      "vis_m": 9999,
      "fzfg": false,
      "metar_trigger": false,
      "taf_trigger": false,
      "metar": "METAR LBWN 250730Z 33014KT 300V360 CAVOK 07/00 Q1019 NOSIG",
      "taf": "TAF LBWN 250500Z 2506/2606 33014KT 9999 SCT030"
    },
    {
      "icao": "LCLK",
      "alert": "OK",
      "vis_m": 9999,
      "fzfg": false,
      "metar_trigger": false,
      "taf_trigger": false,
      "metar": "METAR LCLK 250730Z 22013KT 9999 FEW030 18/12 Q1017 NOSIG",
      "taf": "TAF LCLK 250530Z 2506/2606 22007KT 9999 FEW020"
    },
    {
      "icao": "LCPH",
      "alert": "OK",
      "vis_m": 9999,
      "fzfg": false,
      "metar_trigger": false,
      "taf_trigger": false,
      "metar": "METAR LCPH 250730Z VRB02KT 9999 FEW025 BKN045 17/11 Q1017 BECMG 24014KT",
      "taf": "TAF LCPH 250530Z 2506/2606 26008KT 9999 FEW018 SCT040"
    },
    {
      "icao": "LEAL",
      "alert": "OK",
      "vis_m": 9999,
      "fzfg": false,
      "metar_trigger": false,
      "taf_trigger": false,
      "metar": "METAR LEAL 250730Z VRB01KT CAVOK 07/06 Q1019 NOSIG",
      "taf": "TAF LEAL 250500Z 2506/2606 VRB04KT CAVOK TX21/2512Z TN07/2506Z"
    },
    {
      "icao": "LEBB",
      "alert": "OK",
      "vis_m": 9999,
      "fzfg": false,
      "metar_trigger": false,
      "taf_trigger": false,
      "metar": "METAR LEBB 250730Z VRB05KT CAVOK 18/05 Q1015 NOSIG",
      "taf": "TAF LEBB 250500Z 2506/2606 13008KT CAVOK TX28/2514Z TN06/2606Z"
    },
    {
      "icao": "LEBL",
      "alert": "OK",
      "vis_m": 2400,
      "fzfg": false,
      "metar_trigger": false,
      "taf_trigger": false,
      "metar": "METAR LEBL 250730Z 06007KT 2400 0900 BR BCFG BKN006 09/08 Q1021 NOSIG",
      "taf": ""
    },
    {
      "icao": "LECH",
      "alert": "OK",
      "vis_m": 9999,
      "fzfg": false,
      "metar_trigger": false,
      "taf_trigger": false,
      "metar": "METAR LECH 250730Z AUTO 20002KT CAVOK 09/03 Q1019",
      "taf": ""
    },
    {
      "icao": "LEMD",
      "alert": "OK",
      "vis_m": 9999,
      "fzfg": false,
      "metar_trigger": false,
      "taf_trigger": false,
      "metar": "METAR LEMD 250730Z VRB02KT CAVOK 03/03 Q1019 NOSIG",
      "taf": "TAF LEMD 250500Z 2506/2612 VRB04KT CAVOK TX23/2515Z TN02/2507Z"
    },
    {
      "icao": "LEMG",
      "alert": "OK",
      "vis_m": 9999,
      "fzfg": false,
      "metar_trigger": false,
      "taf_trigger": false,
      "metar": "METAR LEMG 250730Z 29008KT CAVOK 06/05 Q1018 NOSIG",
      "taf": "TAF LEMG 250500Z 2506/2606 VRB03KT CAVOK TX20/2514Z TN06/2507Z"
    },
    {
      "icao": "LEVC",
      "alert": "OK",
      "vis_m": 9999,
      "fzfg": false,
      "metar_trigger": false,
      "taf_trigger": false,
      "metar": "METAR LEVC 250730Z 27004KT CAVOK 07/04 Q1019 NOSIG",
      "taf": "TAF LEVC 250500Z 2506/2606 VRB04KT 9999 FEW020 TX20/2512Z TN06/2506Z"
    },
    {
      "icao": "LEXJ",
      "alert": "OK",
      "vis_m": 9999,
      "fzfg": false,
      "metar_trigger": false,
      "taf_trigger": false,
      "metar": "METAR LEXJ 250730Z 27014KT 230V290 CAVOK 20/03 Q1014",
      "taf": ""
    },
    {
      "icao": "LEZG",
      "alert": "OK",
      "vis_m": 9999,
      "fzfg": false,
      "metar_trigger": false,
      "taf_trigger": false,
      "metar": "METAR LEZG 250730Z 13006KT CAVOK 07/04 Q1019 NOSIG",
      "taf": "TAF LEZG 250500Z 2506/2606 VRB04KT CAVOK TX21/2515Z TN07/2506Z"
    },
    {
      "icao": "LEZL",
      "alert": "OK",
      "vis_m": 9999,
      "fzfg": false,
      "metar_trigger": false,
      "taf_trigger": false,
      "metar": "METAR LEZL 250730Z 04005KT CAVOK 11/09 Q1016 NOSIG",
      "taf": "TAF LEZL 250200Z 2503/2603 04004KT CAVOK TX23/2515Z TN09/2507Z"
    },
    {
      "icao": "LFBD",
      "alert": "OK",
      "vis_m": 9999,
      "fzfg": false,
      "metar_trigger": false,
      "taf_trigger": false,
      "metar": "METAR LFBD 250730Z AUTO 14006KT CAVOK 10/07 Q1016 NOSIG",
      "taf": "TAF LFBD 250500Z 2506/2612 13005KT CAVOK TX21/2515Z TN09/2506Z"
    },
    {
      "icao": "LFLL",
      "alert": "OK",
      "vis_m": 9999,
      "fzfg": false,
      "metar_trigger": false,
      "taf_trigger": false,
      "metar": "METAR LFLL 250730Z 14011KT CAVOK 09/07 Q1021 NOSIG",
      "taf": "TAF LFLL 250500Z 2506/2612 16010KT CAVOK"
    },
    {
      "icao": "LFLS",
      "alert": "OK",
      "vis_m": 9999,
      "fzfg": false,
      "metar_trigger": false,
      "taf_trigger": false,
      "metar": "METAR LFLS 250730Z AUTO 07007KT 9999 FEW015 07/05 Q1022 NOSIG",
      "taf": "TAF LFLS 250200Z 2503/2603 08006KT CAVOK"
    },
    {
      "icao": "LFMN",
      "alert": "OK",
      "vis_m": 9999,
      "fzfg": false,
      "metar_trigger": false,
      "taf_trigger": false,
      "metar": "METAR LFMN 250730Z 34008KT 9999 BKN027 13/08 Q1024 NOSIG",
      "taf": "TAF LFMN 250200Z 2503/2609 33010KT 9999 BKN025"
    },
    {
      "icao": "LFOB",
      "alert": "OK",
      "vis_m": 9999,
      "fzfg": false,
      "metar_trigger": false,
      "taf_trigger": false,
      "metar": "METAR LFOB 250730Z AUTO 10002KT 0400 0350 R30/0450U R12/0600U FG VV/// 05/05 Q1018 BECMG 18010KT CAVOK",
      "taf": ""
    },
    {
      "icao": "LFPO",
      "alert": "OK",
      "vis_m": 9999,
      "fzfg": false,
      "metar_trigger": false,
      "taf_trigger": false,
      "metar": "METAR LFPO 250730Z 18002KT CAVOK 08/08 Q1018 NOSIG",
      "taf": "TAF LFPO 250500Z 2506/2612 12005KT CAVOK"
    },
    {
      "icao": "LFSB",
      "alert": "OK",
      "vis_m": 6000,
      "fzfg": false,
      "metar_trigger": false,
      "taf_trigger": false,
      "metar": "METAR LFSB 250730Z AUTO 00000KT 6000 NSC 05/05 Q1022 NOSIG",
      "taf": ""
    },
    {
      "icao": "LGAV",
      "alert": "OK",
      "vis_m": 9999,
      "fzfg": false,
      "metar_trigger": false,
      "taf_trigger": false,
      "metar": "METAR LGAV 250720Z 01010KT 9999 FEW025 13/02 Q1020 NOSIG",
      "taf": "TAF LGAV 250500Z 2506/2606 01014G24KT 9999 FEW020"
    },
    {
      "icao": "LGTS",
      "alert": "OK",
      "vis_m": 9999,
      "fzfg": false,
      "metar_trigger": false,
      "taf_trigger": false,
      "metar": "METAR LGTS 250720Z 33012KT 9999 FEW025 12/03 Q1022 NOSIG",
      "taf": ""
    },
    {
      "icao": "LHBP",
      "alert": "OK",
      "vis_m": 9999,
      "fzfg": false,
      "metar_trigger": false,
      "taf_trigger": false,
      "metar": "METAR LHBP 250730Z 25005KT CAVOK 05/01 Q1023 NOSIG",
      "taf": "TAF LHBP 250515Z 2506/2606 30005KT CAVOK"
    },
    {
      "icao": "LHDC",
      "alert": "OK",
      "vis_m": 9999,
      "fzfg": false,
      "metar_trigger": false,
      "taf_trigger": false,
      "metar": "METAR LHDC 250645Z AUTO VRB02KT 9999 SCT025 BKN052 03/M01 Q1023 NOSIG",
      "taf": "TAF LHDC 250515Z 2506/2515 19005KT 9999 BKN025 BKN050"
    },
    {
      "icao": "LIBD",
      "alert": "OK",
      "vis_m": 9999,
      "fzfg": false,
      "metar_trigger": false,
      "taf_trigger": false,
      "metar": "METAR LIBD 250720Z 31005KT 9999 SCT025 11/11 Q1024",
      "taf": "TAF LIBD 250500Z 2506/2606 27006KT CAVOK"
    },
    {
      "icao": "LIBG",
      "alert": "OK",
      "vis_m": 9999,
      "fzfg": false,
      "metar_trigger": false,
      "taf_trigger": false,
      "metar": "SPECI LIBG 250651Z 33004KT CAVOK 13/09 Q1023",
      "taf": "TAF LIBG 250702Z 2508/2515 VRB05KT CAVOK"
    },
    {
      "icao": "LIBP",
      "alert": "OK",
      "vis_m": 9999,
      "fzfg": false,
      "metar_trigger": false,
      "taf_trigger": false,
      "metar": "METAR LIBP 250720Z AUTO 23004KT 9999 BKN016/// 09/07 Q1025",
      "taf": "TAF LIBP 250500Z 2506/2606 VRB06KT CAVOK"
    },
    {
      "icao": "LIBR",
      "alert": "OK",
      "vis_m": 9999,
      "fzfg": false,
      "metar_trigger": false,
      "taf_trigger": false,
      "metar": "METAR LIBR 250720Z 04008KT CAVOK 14/08 Q1022",
      "taf": "TAF LIBR 250500Z 2506/2606 34008KT 8000 FEW015"
    },
    {
      "icao": "LICA",
      "alert": "OK",
      "vis_m": 9999,
      "fzfg": false,
      "metar_trigger": false,
      "taf_trigger": false,
      "metar": "METAR LICA 250720Z AUTO 08004KT 9999 NCD 11/10 Q1023",
      "taf": "TAF LICA 250500Z 2506/2606 VRB05KT 9999 SCT020"
    },
    {
      "icao": "LICC",
      "alert": "OK",
      "vis_m": 9999,
      "fzfg": false,
      "metar_trigger": false,
      "taf_trigger": false,
      "metar": "METAR LICC 250720Z 23005KT CAVOK 09/07 Q1023",
      "taf": "TAF LICC 250500Z 2506/2606 VRB05KT CAVOK"
    },
    {
      "icao": "LICJ",
      "alert": "OK",
      "vis_m": 9999,
      "fzfg": false,
      "metar_trigger": false,
      "taf_trigger": false,
      "metar": "METAR LICJ 250720Z 16002KT CAVOK 11/10 Q1022",
      "taf": "TAF LICJ 250500Z 2506/2606 VRB05KT CAVOK"
    },
    {
      "icao": "LIMC",
      "alert": "OK",
      "vis_m": 7000,
      "fzfg": false,
      "metar_trigger": false,
      "taf_trigger": false,
      "metar": "METAR LIMC 250720Z 36005KT 7000 BKN035 10/07 Q1025 NOSIG",
      "taf": "TAF LIMC 250500Z 2506/2612 VRB05KT 7000 SCT030"
    },
    {
      "icao": "LIME",
      "alert": "OK",
      "vis_m": 9999,
      "fzfg": false,
      "metar_trigger": false,
      "taf_trigger": false,
      "metar": "METAR LIME 250720Z 02002KT 9999 SCT035 10/06 Q1025 NOSIG",
      "taf": "TAF LIME 250500Z 2506/2606 VRB05KT 7000 SCT030"
    },
    {
      "icao": "LIMF",
      "alert": "OK",
      "vis_m": 3000,
      "fzfg": false,
      "metar_trigger": false,
      "taf_trigger": false,
      "metar": "METAR LIMF 250720Z 34004KT 3000 BR OVC025 10/06 Q1025",
      "taf": "TAF LIMF 250500Z 2506/2606 VRB05KT 4000 BR BKN013"
    },
    {
      "icao": "LIMJ",
      "alert": "OK",
      "vis_m": 7000,
      "fzfg": false,
      "metar_trigger": false,
      "taf_trigger": false,
      "metar": "METAR LIMJ 250720Z 04013KT 7000 NSC 12/08 Q1024",
      "taf": "TAF LIMJ 250500Z 2506/2606 04012KT 9999 BKN030"
    },
    {
      "icao": "LIPE",
      "alert": "OK",
      "vis_m": 3000,
      "fzfg": false,
      "metar_trigger": false,
      "taf_trigger": false,
      "metar": "METAR LIPE 250720Z 28003KT 3000 BR SCT025 BKN045 11/09 Q1025",
      "taf": "TAF LIPE 250500Z 2506/2606 VRB03KT 3000 BR BKN012"
    },
    {
      "icao": "LIPH",
      "alert": "OK",
      "vis_m": 9999,
      "fzfg": false,
      "metar_trigger": false,
      "taf_trigger": false,
      "metar": "METAR LIPH 250720Z VRB01KT 9999 BKN050 07/06 Q1025",
      "taf": "TAF LIPH 250500Z 2506/2606 VRB04KT 8000 SCT045"
    },
    {
      "icao": "LIPQ",
      "alert": "OK",
      "vis_m": 9999,
      "fzfg": false,
      "metar_trigger": false,
      "taf_trigger": false,
      "metar": "METAR LIPQ 250720Z AUTO 02003KT 9999 NCD 08/06 Q1025",
      "taf": "TAF LIPQ 250500Z 2506/2606 VRB04KT CAVOK"
    },
    {
      "icao": "LIPR",
      "alert": "OK",
      "vis_m": 4000,
      "fzfg": false,
      "metar_trigger": false,
      "taf_trigger": false,
      "metar": "METAR LIPR 250720Z 23003KT 4000 BR BKN045 10/10 Q1025",
      "taf": "TAF LIPR 250500Z 2506/2606 VRB04KT 5000 BR SCT016"
    },
    {
      "icao": "LIPX",
      "alert": "OK",
      "vis_m": 7000,
      "fzfg": false,
      "metar_trigger": false,
      "taf_trigger": false,
      "metar": "METAR LIPX 250720Z 33003KT 7000 BKN045 09/06 Q1025",
      "taf": "TAF LIPX 250500Z 2506/2606 VRB05KT 8000 SCT020"
    },
    {
      "icao": "LIPY",
      "alert": "OK",
      "vis_m": 9999,
      "fzfg": false,
      "metar_trigger": false,
      "taf_trigger": false,
      "metar": "METAR LIPY 250720Z AUTO VRB02KT 9999 SCT015/// BKN049/// 11/08 Q1025",
      "taf": "TAF LIPY 250500Z 2506/2606 VRB04KT 8000 FEW050"
    },
    {
      "icao": "LIPZ",
      "alert": "OK",
      "vis_m": 9000,
      "fzfg": false,
      "metar_trigger": false,
      "taf_trigger": false,
      "metar": "METAR LIPZ 250720Z 33002KT 9000 BKN055 08/06 Q1025 NOSIG",
      "taf": "TAF LIPZ 250500Z 2506/2612 VRB04KT 8000 FEW045"
    },
    {
      "icao": "LIRF",
      "alert": "OK",
      "vis_m": 9999,
      "fzfg": false,
      "metar_trigger": false,
      "taf_trigger": false,
      "metar": "METAR LIRF 250720Z 09003KT 9999 BKN035 12/11 Q1023 NOSIG",
      "taf": "TAF LIRF 250500Z 2506/2612 VRB06KT 9999 BKN030"
    },
    {
      "icao": "LIRN",
      "alert": "OK",
      "vis_m": 9999,
      "fzfg": false,
      "metar_trigger": false,
      "taf_trigger": false,
      "metar": "METAR LIRN 250720Z 02004KT 340V050 CAVOK 11/08 Q1023 NOSIG",
      "taf": "TAF LIRN 250500Z 2506/2606 VRB05KT CAVOK"
    },
    {
      "icao": "LIRP",
      "alert": "OK",
      "vis_m": 4000,
      "fzfg": false,
      "metar_trigger": false,
      "taf_trigger": false,
      "metar": "METAR LIRP 250715Z 12003KT 4000 BR FEW003 07/07 Q1024 BECMG 8000",
      "taf": "TAF LIRP 250500Z 2506/2606 VRB03KT CAVOK"
    },
    {
      "icao": "LIRZ",
      "alert": "OK",
      "vis_m": 9999,
      "fzfg": false,
      "metar_trigger": false,
      "taf_trigger": false,
      "metar": "METAR LIRZ 250720Z AUTO VRB01KT 9999 BKN017/// 06/05 Q1024",
      "taf": "TAF LIRZ 250500Z 2506/2606 VRB05KT 6000 SCT030"
    },
    {
      "icao": "LJLJ",
      "alert": "OK",
      "vis_m": 9999,
      "fzfg": false,
      "metar_trigger": false,
      "taf_trigger": false,
      "metar": "METAR LJLJ 250730Z 31003KT 9999 FEW003 SCT250 04/04 Q1025 NOSIG",
      "taf": "TAF LJLJ 250500Z 2506/2606 VRB02KT 9999 SCT045"
    },
    {
      "icao": "LKMT",
      "alert": "OK",
      "vis_m": 9999,
      "fzfg": false,
      "metar_trigger": false,
      "taf_trigger": false,
      "metar": "METAR LKMT 250730Z 23009KT 9999 BKN040 03/02 Q1023 NOSIG",
      "taf": "TAF LKMT 250500Z 2506/2606 23005KT 9999 BKN035"
    },
    {
      "icao": "LKPR",
      "alert": "OK",
      "vis_m": 9999,
      "fzfg": false,
      "metar_trigger": false,
      "taf_trigger": false,
      "metar": "METAR LKPR 250730Z 22007KT 9999 FEW035 03/02 Q1024 NOSIG",
      "taf": "TAF LKPR 250500Z 2506/2612 23006KT 9999 FEW030"
    },
    {
      "icao": "LLBG",
      "alert": "OK",
      "vis_m": 9999,
      "fzfg": false,
      "metar_trigger": false,
      "taf_trigger": false,
      "metar": "METAR LLBG 250720Z 19009KT 9999 SCT038 16/10 Q1021 NOSIG RMK SCT060",
      "taf": "TAF LLBG 250510Z 2506/2606 14005KT 9999 SCT035 TX18/2512Z TN10/2604Z"
    },
    {
      "icao": "LMML",
      "alert": "OK",
      "vis_m": 9999,
      "fzfg": false,
      "metar_trigger": false,
      "taf_trigger": false,
      "metar": "METAR LMML 250715Z 32006KT 280V360 9999 FEW015 15/12 Q1022 NOSIG",
      "taf": "TAF LMML 250500Z 2506/2606 29010KT 9999 FEW015"
    },
    {
      "icao": "LOWW",
      "alert": "OK",
      "vis_m": 9999,
      "fzfg": false,
      "metar_trigger": false,
      "taf_trigger": false,
      "metar": "METAR LOWW 250720Z VRB02KT CAVOK 05/03 Q1024 NOSIG",
      "taf": "TAF LOWW 250515Z 2506/2612 33004KT CAVOK TX13/2514Z TNM00/2605Z"
    },
    {
      "icao": "LPFR",
      "alert": "OK",
      "vis_m": 9999,
      "fzfg": false,
      "metar_trigger": false,
      "taf_trigger": false,
      "metar": "METAR LPFR 250730Z 04007KT 9999 FEW010 13/12 Q1015",
      "taf": "TAF LPFR 250500Z 2506/2606 06005KT 9999 SCT012"
    },
    {
      "icao": "LPMA",
      "alert": "OK",
      "vis_m": 9999,
      "fzfg": false,
      "metar_trigger": false,
      "taf_trigger": false,
      "metar": "METAR LPMA 250730Z 33008KT 9999 FEW015 15/08 Q1018",
      "taf": "TAF LPMA 250500Z 2506/2606 34008KT 9999 SCT015"
    },
    {
      "icao": "LPPR",
      "alert": "OK",
      "vis_m": 5000,
      "fzfg": false,
      "metar_trigger": false,
      "taf_trigger": false,
      "metar": "METAR LPPR 250730Z 21005KT 5000 -RADZ BR BKN006 BKN034 13/12 Q1015",
      "taf": "TAF LPPR 250500Z 2506/2606 18012KT 9999 BKN015"
    },
    {
      "icao": "LPPS",
      "alert": "OK",
      "vis_m": 9999,
      "fzfg": false,
      "metar_trigger": false,
      "taf_trigger": false,
      "metar": "METAR LPPS 250730Z 30008KT 9999 SCT015 SCT030 15/12 Q1018",
      "taf": "TAF LPPS 250500Z 2506/2612 31012KT 9999 SCT015"
    },
    {
      "icao": "LPPT",
      "alert": "OK",
      "vis_m": 5000,
      "fzfg": false,
      "metar_trigger": false,
      "taf_trigger": false,
      "metar": "METAR LPPT 250730Z 22004KT 5000 1800E BR VCFG SCT002 BKN006 14/13 Q1015",
      "taf": "TAF LPPT 250500Z 2506/2612 VRB05KT 9999 SCT008 BKN015"
    },
    {
      "icao": "LQBK",
      "alert": "OK",
      "vis_m": 9999,
      "fzfg": false,
      "metar_trigger": false,
      "taf_trigger": false,
      "metar": "METAR LQBK 250730Z VRB02KT CAVOK 06/04 Q1026 NOSIG",
      "taf": "TAF LQBK 250500Z 2506/2606 15005KT CAVOK TX15/2514Z TN01/2606Z"
    },
    {
      "icao": "LQSA",
      "alert": "OK",
      "vis_m": 400,
      "fzfg": true,
      "metar_trigger": false,
      "taf_trigger": false,
      "metar": "METAR LQSA 250730Z VRB01KT 0400 R11/0300N FG VV003 01/01 Q1026 BECMG 1200 BR SCT005",
      "taf": "TAF LQSA 250500Z 2506/2606 VRB02KT 0500 FZFG OVC002 TX13/2514Z TNM00/2506Z"
    },
    {
      "icao": "LQTZ",
      "alert": "OK",
      "vis_m": 250,
      "fzfg": false,
      "metar_trigger": false,
      "taf_trigger": false,
      "metar": "METAR LQTZ 250730Z VRB01KT 0250 R09/0300N FG VV002 01/01 Q1026",
      "taf": "TAF LQTZ 250500Z 2506/2606 27005KT 4000 BR SCT005 TX14/2514Z TNM01/2606Z"
    },
    {
      "icao": "LRBC",
      "alert": "OK",
      "vis_m": 9999,
      "fzfg": false,
      "metar_trigger": false,
      "taf_trigger": false,
      "metar": "METAR LRBC 250730Z 36009KT 9999 OVC017 03/00 Q1019",
      "taf": "TAF LRBC 250500Z 2506/2515 35012KT 9999 SCT025 BKN050"
    },
    {
      "icao": "LRBS",
      "alert": "OK",
      "vis_m": 9999,
      "fzfg": false,
      "metar_trigger": false,
      "taf_trigger": false,
      "metar": "METAR LRBS 250730Z VRB01KT CAVOK 05/01 Q1019 NOSIG",
      "taf": "TAF LRBS 250500Z 2506/2606 VRB04KT 5000 BR NSC"
    },
    {
      "icao": "LRBV",
      "alert": "OK",
      "vis_m": 9999,
      "fzfg": false,
      "metar_trigger": false,
      "taf_trigger": false,
      "metar": "METAR LRBV 250730Z 30013KT 9999 SCT016 OVC025 02/M01 Q1019",
      "taf": "TAF LRBV 250500Z 2506/2515 30012KT 9999 BKN015"
    },
    {
      "icao": "LRCL",
      "alert": "OK",
      "vis_m": 9999,
      "fzfg": false,
      "metar_trigger": false,
      "taf_trigger": false,
      "metar": "METAR LRCL 250730Z 30013KT 9999 BKN024 04/M02 Q1021",
      "taf": "TAF LRCL 250500Z 2506/2515 29012KT 9999 BKN040"
    },
    {
      "icao": "LRCV",
      "alert": "OK",
      "vis_m": 9999,
      "fzfg": false,
      "metar_trigger": false,
      "taf_trigger": false,
      "metar": "METAR LRCV 250730Z 25010KT CAVOK 06/03 Q1020",
      "taf": "TAF LRCV 250500Z 2506/2515 29010KT CAVOK"
    },
    {
      "icao": "LRIA",
      "alert": "OK",
      "vis_m": 9999,
      "fzfg": false,
      "metar_trigger": false,
      "taf_trigger": false,
      "metar": "METAR LRIA 250730Z 30013KT 270V330 9999 FEW008 OVC038 02/M00 Q1018",
      "taf": "TAF LRIA 250500Z 2506/2515 32015KT 9999 SCT025 BKN040"
    },
    {
      "icao": "LROP",
      "alert": "OK",
      "vis_m": 8000,
      "fzfg": false,
      "metar_trigger": false,
      "taf_trigger": false,
      "metar": "METAR LROP 250730Z VRB02KT 8000 NSC 04/02 Q1019 NOSIG",
      "taf": "TAF LROP 250500Z 2506/2606 VRB04KT 3000 BR NSC"
    },
    {
      "icao": "LRSB",
      "alert": "OK",
      "vis_m": 9999,
      "fzfg": false,
      "metar_trigger": false,
      "taf_trigger": false,
      "metar": "METAR LRSB 250730Z 30003KT 270V330 9999 SCT035 SCT045 04/01 Q1021",
      "taf": "TAF LRSB 250500Z 2506/2606 VRB04KT 9999 BKN050"
    },
    {
      "icao": "LRSM",
      "alert": "OK",
      "vis_m": 9999,
      "fzfg": false,
      "metar_trigger": false,
      "taf_trigger": false,
      "metar": "METAR LRSM 250730Z 02007KT CAVOK 04/M01 Q1022",
      "taf": "TAF LRSM 250500Z 2506/2515 32008KT CAVOK"
    },
    {
      "icao": "LRSV",
      "alert": "OK",
      "vis_m": 9999,
      "fzfg": false,
      "metar_trigger": false,
      "taf_trigger": false,
      "metar": "METAR LRSV 250730Z 30014KT 9999 BKN018 00/M03 Q1018",
      "taf": "TAF LRSV 250500Z 2506/2515 32016KT 9999 BKN010 BKN025"
    },
    {
      "icao": "LRTM",
      "alert": "OK",
      "vis_m": 9999,
      "fzfg": false,
      "metar_trigger": false,
      "taf_trigger": false,
      "metar": "METAR LRTM 250730Z 28010KT 9999 FEW019 BKN036 04/00 Q1021",
      "taf": "TAF LRTM 250500Z 2506/2515 VRB04KT 9999 SCT045"
    },
    {
      "icao": "LRTR",
      "alert": "OK",
      "vis_m": 8000,
      "fzfg": false,
      "metar_trigger": false,
      "taf_trigger": false,
      "metar": "METAR LRTR 250730Z 33005KT 8000 BKN048 05/05 Q1023",
      "taf": "TAF LRTR 250500Z 2506/2606 VRB04KT CAVOK"
    },
    {
      "icao": "LTAC",
      "alert": "OK",
      "vis_m": 9999,
      "fzfg": false,
      "metar_trigger": false,
      "taf_trigger": false,
      "metar": "METAR LTAC 250720Z 22006KT 190V260 9999 FEW015 BKN030 BKN080 04/02 Q1013 NOSIG RMK RWY21C 25009KT 210V270 RWY03L 25007KT 210V290 RWY21R 26009KT 220V280 RWY03R 22007KT 180V240 RWY21L 22007KT 200V260",
      "taf": "TAF LTAC 250440Z 2506/2606 VRB02KT 9999 BKN030 BKN090"
    },
    {
      "icao": "LTFM",
      "alert": "OK",
      "vis_m": 9999,
      "fzfg": false,
      "metar_trigger": false,
      "taf_trigger": false,
      "metar": "METAR LTFM 250720Z 34015KT 9999 BKN025 07/02 Q1019 NOSIG RMK RWY17L 33016KT RWY34L 33015KT RWY16R 33014KT RWY36 34016KT RWY18 34014KT",
      "taf": "TAF LTFM 250440Z 2506/2612 33015G25KT 9999 BKN025"
    },
    {
      "icao": "LUKK",
      "alert": "OK",
      "vis_m": 9999,
      "fzfg": false,
      "metar_trigger": false,
      "taf_trigger": false,
      "metar": "METAR LUKK 250730Z 34012KT 310V010 9999 SCT014 BKN019 OVC045 02/00 Q1016 TEMPO 35018G28KT",
      "taf": "TAF LUKK 250520Z 2506/2606 33014KT 9999 BKN020"
    },
    {
      "icao": "LWOH",
      "alert": "OK",
      "vis_m": 9999,
      "fzfg": false,
      "metar_trigger": false,
      "taf_trigger": false,
      "metar": "METAR LWOH 250720Z 32005KT 290V350 9999 FEW045 06/M00 Q1022",
      "taf": "TAF LWOH 250530Z 2506/2606 31010KT CAVOK"
    },
    {
      "icao": "LWSK",
      "alert": "OK",
      "vis_m": 9999,
      "fzfg": false,
      "metar_trigger": false,
      "taf_trigger": false,
      "metar": "METAR LWSK 250720Z 28005KT 220V010 9999 FEW060 10/02 Q1024 NOSIG",
      "taf": "TAF LWSK 250530Z 2506/2606 34010KT CAVOK"
    },
    {
      "icao": "LYBE",
      "alert": "OK",
      "vis_m": 9999,
      "fzfg": false,
      "metar_trigger": false,
      "taf_trigger": false,
      "metar": "METAR LYBE 250730Z 28007KT CAVOK 05/03 Q1025 NOSIG",
      "taf": "TAF LYBE 250500Z 2506/2606 24007KT 9999 SCT030 TX12/2513Z TN00/2606Z"
    },
    {
      "icao": "LYNI",
      "alert": "OK",
      "vis_m": 9999,
      "fzfg": false,
      "metar_trigger": false,
      "taf_trigger": false,
      "metar": "METAR LYNI 250730Z 31004KT 280V340 9999 FEW027 BKN037 07/04 Q1024 NOSIG",
      "taf": "TAF LYNI 250500Z 2506/2606 27006KT 9999 BKN030 TX12/2514Z TN02/2606Z"
    },
    {
      "icao": "LYPG",
      "alert": "OK",
      "vis_m": 9999,
      "fzfg": false,
      "metar_trigger": false,
      "taf_trigger": false,
      "metar": "METAR LYPG 250730Z 36015G25KT CAVOK 13/M04 Q1023 NOSIG",
      "taf": "TAF LYPG 250500Z 2506/2606 34009KT CAVOK TX16/2513Z TN06/2605Z"
    },
    {
      "icao": "LZIB",
      "alert": "OK",
      "vis_m": 9999,
      "fzfg": false,
      "metar_trigger": false,
      "taf_trigger": false,
      "metar": "METAR LZIB 250730Z VRB01KT 9999 FEW045 05/03 Q1024 NOSIG",
      "taf": "TAF LZIB 250515Z 2506/2606 34005KT CAVOK"
    },
    {
      "icao": "LZKZ",
      "alert": "OK",
      "vis_m": 9999,
      "fzfg": false,
      "metar_trigger": false,
      "taf_trigger": false,
      "metar": "METAR LZKZ 250730Z VRB02KT 9999 BKN042 03/00 Q1022 NOSIG",
      "taf": "TAF LZKZ 250515Z 2506/2606 01009KT 9999 SCT040"
    },
    {
      "icao": "LZTT",
      "alert": "OK",
      "vis_m": 9999,
      "fzfg": false,
      "metar_trigger": false,
      "taf_trigger": false,
      "metar": "METAR LZTT 250730Z 30012KT 9999 SCT023 01/M02 Q1020 NOSIG",
      "taf": "TAF LZTT 250515Z 2506/2606 27009KT CAVOK"
    },
    {
      "icao": "OEJN",
      "alert": "OK",
      "vis_m": 5000,
      "fzfg": false,
      "metar_trigger": false,
      "taf_trigger": false,
      "metar": "METAR OEJN 250700Z 04015KT 5000 BLDU NSC 27/M03 Q1014 TEMPO 3000",
      "taf": "TAF OEJN 250500Z 2506/2612 03013KT 7000 NSC"
    },
    {
      "icao": "OEMA",
      "alert": "OK",
      "vis_m": 9999,
      "fzfg": false,
      "metar_trigger": false,
      "taf_trigger": false,
      "metar": "METAR OEMA 250700Z 09008KT CAVOK 19/M03 Q1023 NOSIG",
      "taf": "TAF OEMA 250500Z 2506/2612 09012KT 7000 NSC"
    },
    {
      "icao": "OJAI",
      "alert": "OK",
      "vis_m": 3500,
      "fzfg": false,
      "metar_trigger": false,
      "taf_trigger": false,
      "metar": "METAR OJAI 250700Z 00000KT 3500 HZ FEW030 10/07 Q1022 NOSIG",
      "taf": "TAF OJAI 250427Z 2506/2612 VRB02KT 0800 FG SCT035"
    },
    {
      "icao": "OMAA",
      "alert": "OK",
      "vis_m": 9999,
      "fzfg": false,
      "metar_trigger": false,
      "taf_trigger": false,
      "metar": "METAR OMAA 250730Z VRB02KT CAVOK 31/03 Q1014 NOSIG",
      "taf": "TAF OMAA 250500Z 2506/2612 18005KT 8000 NSC"
    },
    {
      "icao": "OMDB",
      "alert": "OK",
      "vis_m": 9999,
      "fzfg": false,
      "metar_trigger": false,
      "taf_trigger": false,
      "metar": "METAR OMDB 250730Z 28005KT 220V330 CAVOK 31/04 Q1013 NOSIG",
      "taf": "TAF OMDB 250500Z 2506/2612 22005KT 8000 NSC"
    },
    {
      "icao": "UAAA",
      "alert": "OK",
      "vis_m": 1700,
      "fzfg": false,
      "metar_trigger": false,
      "taf_trigger": false,
      "metar": "METAR UAAA 250730Z VRB01MPS 1700 R23L/1700 -SN BR OVC026 M03/M05 Q1021 NOSIG",
      "taf": "TAF UAAA 250503Z 2506/2606 29003MPS 1500 -SHSN BR BKN011CB OVC030 TXM02/2509Z TNM07/2602Z"
    },
    {
      "icao": "UBBB",
      "alert": "OK",
      "vis_m": 9999,
      "fzfg": false,
      "metar_trigger": false,
      "taf_trigger": false,
      "metar": "METAR UBBB 250730Z 00000KT 9999 OVC010 07/05 Q1015 NOSIG",
      "taf": "TAF UBBB 250512Z 2506/2606 VRB04KT 8000 BKN007 OVC016 TX08/2511Z TN04/2601Z"
    },
    {
      "icao": "UDSG",
      "alert": "OK",
      "vis_m": 9999,
      "fzfg": false,
      "metar_trigger": false,
      "taf_trigger": false,
      "metar": "METAR UDSG 250730Z 28004KT 250V320 9999 NSC 02/M04 Q1015 NOSIG",
      "taf": ""
    },
    {
      "icao": "UDYZ",
      "alert": "OK",
      "vis_m": 9999,
      "fzfg": false,
      "metar_trigger": false,
      "taf_trigger": false,
      "metar": "METAR UDYZ 250730Z 19003KT 9999 FEW046 08/M01 Q1015 NOSIG",
      "taf": "TAF UDYZ 250500Z 2506/2606 04006KT 9999 FEW040"
    },
    {
      "icao": "UGKO",
      "alert": "OK",
      "vis_m": 9999,
      "fzfg": false,
      "metar_trigger": false,
      "taf_trigger": false,
      "metar": "METAR UGKO 250730Z AUTO 07014KT CAVOK 11/05 Q1014 NOSIG",
      "taf": "TAF UGKO 250500Z 2506/2606 26007KT 9999 SCT023 OVC050 TX17/2511Z TN06/2506Z"
    }
  ]
}