{
  "ts_utc": "2025-12-31T07:48:14Z",
  "threshold_m": 150,
  "source": "stations_override.txt (ICAO list) + aviationweather.gov (METAR/TAF raw)",
  "station_count": 159,
  "stations": [
    {
      "icao": "BIKF",
      "alert": "OK",
      "vis_m": 9999,
      "fzfg": false,
      "metar_trigger": false,
      "taf_trigger": false,
      "metar": "METAR BIKF 310730Z 29020KT 9999 FEW018 SCT250 05/03 Q1024",
      "taf": "TAF BIKF 310731Z 3109/0109 31022KT 9999 FEW020 BKN040 TX05/3109Z TNM04/0105Z"
    },
    {
      "icao": "BKPR",
      "alert": "OK",
      "vis_m": 9999,
      "fzfg": false,
      "metar_trigger": false,
      "taf_trigger": false,
      "metar": "METAR BKPR 310730Z VRB02KT CAVOK M07/M10 Q1017 NOSIG",
      "taf": "TAF BKPR 310530Z 3106/0106 33008KT 9999 FEW050"
    },
    {
      "icao": "EBCI",
      "alert": "OK",
      "vis_m": 4300,
      "fzfg": false,
      "metar_trigger": false,
      "taf_trigger": false,
      "metar": "METAR EBCI 310720Z 27004KT 240V300 4300 BR BKN024 M02/M02 Q1028 BECMG 6000 NSW",
      "taf": "TAF EBCI 310510Z 3106/0112 26005KT 3500 BR FEW012 SCT040"
    },
    {
      "icao": "EDDB",
      "alert": "OK",
      "vis_m": 9999,
      "fzfg": false,
      "metar_trigger": false,
      "taf_trigger": false,
      "metar": "METAR EDDB 310720Z AUTO 24009KT 9999 3600 -SN BR BKN012 M02/M05 Q1016 TEMPO 1400 SN BKN008",
      "taf": "TAF EDDB 310500Z 3106/0106 26010KT 9999 SCT030"
    },
    {
      "icao": "EDDH",
      "alert": "OK",
      "vis_m": 7000,
      "fzfg": false,
      "metar_trigger": false,
      "taf_trigger": false,
      "metar": "METAR EDDH 310720Z AUTO 26012KT 230V300 7000 -SHRA BKN005 BKN024 OVC037 SCT///TCU 03/03 Q1016 RESHRA TEMPO BKN004",
      "taf": "TAF EDDH 310500Z 3106/0112 28009KT 9999 BKN025"
    },
    {
      "icao": "EDDK",
      "alert": "OK",
      "vis_m": 7000,
      "fzfg": false,
      "metar_trigger": false,
      "taf_trigger": false,
      "metar": "METAR EDDK 310720Z AUTO 16003KT 7000 BKN008 OVC013 M01/M02 Q1026 TEMPO 4500 BR BKN012",
      "taf": "TAF EDDK 310500Z 3106/0112 VRB03KT 9999 SCT010 BKN020"
    },
    {
      "icao": "EDDN",
      "alert": "OK",
      "vis_m": 9999,
      "fzfg": false,
      "metar_trigger": false,
      "taf_trigger": false,
      "metar": "METAR EDDN 310720Z AUTO 11007KT 9999 BKN034 OVC046 M08/M10 Q1024 BECMG 22007KT",
      "taf": "TAF EDDN 310500Z 3106/0106 10004KT CAVOK"
    },
    {
      "icao": "EDDS",
      "alert": "OK",
      "vis_m": 9999,
      "fzfg": false,
      "metar_trigger": false,
      "taf_trigger": false,
      "metar": "METAR EDDS 310720Z AUTO VRB01KT CAVOK M10/M12 Q1025 NOSIG",
      "taf": "TAF EDDS 310500Z 3106/0106 VRB02KT CAVOK"
    },
    {
      "icao": "EDFH",
      "alert": "OK",
      "vis_m": 7000,
      "fzfg": false,
      "metar_trigger": false,
      "taf_trigger": false,
      "metar": "METAR EDFH 310720Z 28007KT 7000 BKN002 M04/M05 Q1024",
      "taf": ""
    },
    {
      "icao": "EDJA",
      "alert": "OK",
      "vis_m": 9999,
      "fzfg": false,
      "metar_trigger": false,
      "taf_trigger": false,
      "metar": "METAR EDJA 310720Z 18004KT CAVOK M12/M13 Q1024",
      "taf": "TAF EDJA 310500Z 3106/3115 20003KT CAVOK"
    },
    {
      "icao": "EDLW",
      "alert": "OK",
      "vis_m": 3500,
      "fzfg": false,
      "metar_trigger": false,
      "taf_trigger": false,
      "metar": "METAR EDLW 310720Z 23008KT 3500 BR OVC004 M00/M01 Q1024",
      "taf": ""
    },
    {
      "icao": "EDNY",
      "alert": "OK",
      "vis_m": 9999,
      "fzfg": false,
      "metar_trigger": false,
      "taf_trigger": false,
      "metar": "METAR EDNY 310720Z 07005KT CAVOK M08/M09 Q1025",
      "taf": "TAF EDNY 310500Z 3106/3115 VRB03KT CAVOK"
    },
    {
      "icao": "EDSB",
      "alert": "OK",
      "vis_m": 9999,
      "fzfg": false,
      "metar_trigger": false,
      "taf_trigger": false,
      "metar": "METAR EDSB 310720Z 17004KT CAVOK M08/M09 Q1027",
      "taf": "TAF EDSB 310500Z 3106/0106 20005KT CAVOK"
    },
    {
      "icao": "EETN",
      "alert": "OK",
      "vis_m": 9999,
      "fzfg": false,
      "metar_trigger": false,
      "taf_trigger": false,
      "metar": "METAR EETN 310720Z 01010KT 9999 FEW030 M06/M13 Q1006 NOSIG",
      "taf": "TAF EETN 310530Z 3106/0106 36012KT CAVOK"
    },
    {
      "icao": "EFTU",
      "alert": "OK",
      "vis_m": 9999,
      "fzfg": false,
      "metar_trigger": false,
      "taf_trigger": false,
      "metar": "METAR EFTU 310720Z AUTO 25002KT CAVOK M14/M16 Q1008",
      "taf": "TAF EFTU 310524Z 3106/0106 27001KT CAVOK"
    },
    {
      "icao": "EGBB",
      "alert": "OK",
      "vis_m": 9999,
      "fzfg": false,
      "metar_trigger": false,
      "taf_trigger": false,
      "metar": "METAR EGBB 310720Z 29002KT CAVOK M03/M04 Q1031",
      "taf": "TAF EGBB 310454Z 3106/0106 VRB04KT 9999 SCT035"
    },
    {
      "icao": "EGGP",
      "alert": "OK",
      "vis_m": 9999,
      "fzfg": false,
      "metar_trigger": false,
      "taf_trigger": false,
      "metar": "METAR EGGP 310720Z 31004KT 9999 BKN030 01/00 Q1032",
      "taf": ""
    },
    {
      "icao": "EGGW",
      "alert": "OK",
      "vis_m": 8000,
      "fzfg": false,
      "metar_trigger": false,
      "taf_trigger": false,
      "metar": "METAR EGGW 310720Z AUTO 30006KT 8000 BKN026 01/M00 Q1030",
      "taf": "TAF EGGW 310500Z 3106/0106 31006KT 9999 SCT025"
    },
    {
      "icao": "EGKK",
      "alert": "OK",
      "vis_m": 7000,
      "fzfg": false,
      "metar_trigger": false,
      "taf_trigger": false,
      "metar": "METAR EGKK 310720Z 30004KT 7000 SCT022 M00/M00 Q1031",
      "taf": ""
    },
    {
      "icao": "EGNM",
      "alert": "OK",
      "vis_m": 9999,
      "fzfg": false,
      "metar_trigger": false,
      "taf_trigger": false,
      "metar": "METAR EGNM 310720Z 27018KT CAVOK M00/M02 Q1029",
      "taf": ""
    },
    {
      "icao": "EGPD",
      "alert": "OK",
      "vis_m": 9999,
      "fzfg": false,
      "metar_trigger": false,
      "taf_trigger": false,
      "metar": "METAR EGPD 310720Z COR AUTO 26009KT 9999 NCD 04/M01 Q1025 NOSIG",
      "taf": "TAF EGPD 310457Z 3106/0106 28009KT 9999 SCT030"
    },
    {
      "icao": "EGPF",
      "alert": "OK",
      "vis_m": 9999,
      "fzfg": false,
      "metar_trigger": false,
      "taf_trigger": false,
      "metar": "METAR EGPF 310720Z AUTO 22008KT 9999 BKN022 01/00 Q1030",
      "taf": "TAF EGPF 310452Z 3106/0106 VRB02KT 9999 FEW040"
    },
    {
      "icao": "EHBK",
      "alert": "OK",
      "vis_m": 4800,
      "fzfg": false,
      "metar_trigger": false,
      "taf_trigger": false,
      "metar": "METAR EHBK 310725Z AUTO 22009KT 4800 BR BKN002 BKN004 OVC022 M01/M01 Q1027 BECMG SCT040",
      "taf": "TAF EHBK 310517Z 3106/0112 24003KT 6000 BKN002"
    },
    {
      "icao": "EHEH",
      "alert": "OK",
      "vis_m": 6000,
      "fzfg": false,
      "metar_trigger": false,
      "taf_trigger": false,
      "metar": "METAR EHEH 310725Z AUTO 24005KT 6000 BR BKN025 OVC029 M01/M01 Q1027 WHT TEMPO 3500 BR MIFG RMK TREND REMOTE BY EHWX",
      "taf": ""
    },
    {
      "icao": "EKBI",
      "alert": "OK",
      "vis_m": 9999,
      "fzfg": false,
      "metar_trigger": false,
      "taf_trigger": false,
      "metar": "METAR EKBI 310720Z AUTO 29009KT 9999 FEW024/// 03/02 Q1013",
      "taf": "TAF EKBI 310527Z 3106/0106 29008KT 9999 SCT020"
    },
    {
      "icao": "EKCH",
      "alert": "OK",
      "vis_m": 9999,
      "fzfg": false,
      "metar_trigger": false,
      "taf_trigger": false,
      "metar": "METAR EKCH 310720Z 27008KT 9999 BKN006 01/01 Q1011 TEMPO BKN020",
      "taf": ""
    },
    {
      "icao": "ENAL",
      "alert": "OK",
      "vis_m": 9999,
      "fzfg": false,
      "metar_trigger": false,
      "taf_trigger": false,
      "metar": "METAR ENAL 310650Z 27007KT 9999 VCSH FEW007 SCT016 BKN026 04/01 Q1011",
      "taf": "TAF ENAL 310500Z 3106/3115 32008KT 9999 FEW020 SCT040"
    },
    {
      "icao": "ENBR",
      "alert": "OK",
      "vis_m": 9999,
      "fzfg": false,
      "metar_trigger": false,
      "taf_trigger": false,
      "metar": "METAR ENBR 310720Z 00000KT 9999 -DZ FEW015 SCT028 BKN040 01/01 Q1014 TEMPO 1500 SHSNRA VV010 RMK WIND 1200FT 34012KT",
      "taf": "TAF ENBR 310500Z 3106/0106 VRB05KT 9999 -SHRASN SCT010 BKN020"
    },
    {
      "icao": "ENGM",
      "alert": "OK",
      "vis_m": 9999,
      "fzfg": false,
      "metar_trigger": false,
      "taf_trigger": false,
      "metar": "METAR ENGM 310720Z 33004KT 310V040 CAVOK M01/M06 Q1009 NOSIG",
      "taf": "TAF ENGM 310500Z 3106/0106 35005KT CAVOK"
    },
    {
      "icao": "ENHD",
      "alert": "OK",
      "vis_m": 9999,
      "fzfg": false,
      "metar_trigger": false,
      "taf_trigger": false,
      "metar": "METAR ENHD 310720Z 33011KT 290V350 9999 -SHRA FEW020 SCT027 BKN034 05/03 Q1015",
      "taf": ""
    },
    {
      "icao": "ENTC",
      "alert": "OK",
      "vis_m": 9999,
      "fzfg": false,
      "metar_trigger": false,
      "taf_trigger": false,
      "metar": "METAR ENTC 310720Z 08003KT CAVOK M10/M12 Q1009 NOSIG RMK WIND 2600FT 04008KT",
      "taf": "TAF ENTC 310500Z 3106/0106 22006KT 9999 -SHSN SCT040"
    },
    {
      "icao": "ENTO",
      "alert": "OK",
      "vis_m": 9999,
      "fzfg": false,
      "metar_trigger": false,
      "taf_trigger": false,
      "metar": "METAR ENTO 310720Z 32002KT CAVOK 00/M06 Q1010 NOSIG",
      "taf": "TAF ENTO 310500Z 3106/0106 28005KT CAVOK"
    },
    {
      "icao": "ENVA",
      "alert": "OK",
      "vis_m": 8000,
      "fzfg": false,
      "metar_trigger": false,
      "taf_trigger": false,
      "metar": "METAR ENVA 310720Z 10007KT 8000 -SN FEW024 BKN033 M02/M02 Q1009 TEMPO 1500 SHSN FEW010 BKN018CB RMK WIND 670FT 19006KT",
      "taf": "TAF ENVA 310500Z 3106/0106 12008KT 9999 -SHSNRA FEW010TCU BKN025"
    },
    {
      "icao": "ENZV",
      "alert": "OK",
      "vis_m": 9999,
      "fzfg": false,
      "metar_trigger": false,
      "taf_trigger": false,
      "metar": "METAR ENZV 310720Z 34005KT 9999 -SHRA SCT025 BKN030 BKN037 04/03 Q1016 TEMPO 4000 SHRA BKN010 SCT015CB",
      "taf": "TAF ENZV 310500Z 3106/0106 35005KT 9999 FEW015 BKN030"
    },
    {
      "icao": "EPGD",
      "alert": "OK",
      "vis_m": 5000,
      "fzfg": false,
      "metar_trigger": false,
      "taf_trigger": false,
      "metar": "METAR EPGD 310730Z 28007KT 5000 -SHSN FEW002 SCT010CB BKN015 M03/M04 Q1010 RESHSN",
      "taf": "TAF EPGD 310530Z 3106/0106 30012KT 9999 SCT035"
    },
    {
      "icao": "EPKK",
      "alert": "OK",
      "vis_m": 9999,
      "fzfg": false,
      "metar_trigger": false,
      "taf_trigger": false,
      "metar": "METAR EPKK 310730Z 28011KT 9999 BKN018 M04/M07 Q1013",
      "taf": "TAF EPKK 310530Z 3106/0106 27012KT 9999 BKN020"
    },
    {
      "icao": "EPKT",
      "alert": "OK",
      "vis_m": 9999,
      "fzfg": false,
      "metar_trigger": false,
      "taf_trigger": false,
      "metar": "METAR EPKT 310730Z 29008KT 9999 -SHSN FEW002 SCT008CB BKN013 M05/M06 Q1013 RESHSN",
      "taf": ""
    },
    {
      "icao": "EPLB",
      "alert": "OK",
      "vis_m": 9999,
      "fzfg": false,
      "metar_trigger": false,
      "taf_trigger": false,
      "metar": "METAR EPLB 310730Z 30012KT 9999 FEW012 SCT014 BKN027 M04/M05 Q1007",
      "taf": "TAF EPLB 310504Z 3106/0106 30014KT 9999 DRSN BKN025"
    },
    {
      "icao": "EPMO",
      "alert": "OK",
      "vis_m": 1000,
      "fzfg": false,
      "metar_trigger": false,
      "taf_trigger": false,
      "metar": "METAR EPMO 310730Z 31007KT 1000 R08/1400D SHSN DRSN SCT006 BKN019CB M04/M05 Q1010",
      "taf": ""
    },
    {
      "icao": "EPPO",
      "alert": "OK",
      "vis_m": 9999,
      "fzfg": false,
      "metar_trigger": false,
      "taf_trigger": false,
      "metar": "METAR EPPO 310730Z 28006KT 9999 -SN OVC048 M03/M04 Q1014",
      "taf": ""
    },
    {
      "icao": "EPRA",
      "alert": "OK",
      "vis_m": 9999,
      "fzfg": false,
      "metar_trigger": false,
      "taf_trigger": false,
      "metar": "METAR EPRA 310730Z 31013KT 270V330 9999 BKN012 M04/M07 Q1010",
      "taf": "TAF EPRA 310530Z 3106/3115 30012KT 9999 BKN030"
    },
    {
      "icao": "EPRZ",
      "alert": "OK",
      "vis_m": 1500,
      "fzfg": false,
      "metar_trigger": false,
      "taf_trigger": false,
      "metar": "METAR EPRZ 310730Z 28014KT 1500 SHSN DRSN BKN015CB M04/M06 Q1010",
      "taf": ""
    },
    {
      "icao": "EPSC",
      "alert": "OK",
      "vis_m": 9999,
      "fzfg": false,
      "metar_trigger": false,
      "taf_trigger": false,
      "metar": "METAR EPSC 310730Z 19003KT CAVOK M05/M06 Q1013",
      "taf": "TAF EPSC 310530Z 3106/0106 22005KT CAVOK"
    },
    {
      "icao": "EPSY",
      "alert": "OK",
      "vis_m": 2300,
      "fzfg": false,
      "metar_trigger": false,
      "taf_trigger": false,
      "metar": "METAR EPSY 310730Z 32008KT 290V010 2300 -SHSN SCT014CB BKN028 M04/M05 Q1009 RESHSN",
      "taf": "TAF EPSY 310530Z 3106/3115 31006KT CAVOK"
    },
    {
      "icao": "EPWA",
      "alert": "OK",
      "vis_m": 9999,
      "fzfg": false,
      "metar_trigger": false,
      "taf_trigger": false,
      "metar": "METAR EPWA 310730Z 30014KT 9999 BKN008 BKN045 M04/M05 Q1010 TEMPO 1500 SHSN",
      "taf": "TAF EPWA 310530Z 3106/0106 29012KT 9999 BKN025"
    },
    {
      "icao": "EPWR",
      "alert": "OK",
      "vis_m": 9999,
      "fzfg": false,
      "metar_trigger": false,
      "taf_trigger": false,
      "metar": "METAR EPWR 310730Z 29013KT 9999 FEW020 SCT030 M03/M05 Q1016",
      "taf": "TAF EPWR 310530Z 3106/0106 29012KT CAVOK"
    },
    {
      "icao": "ESGG",
      "alert": "OK",
      "vis_m": 9999,
      "fzfg": false,
      "metar_trigger": false,
      "taf_trigger": false,
      "metar": "METAR ESGG 310720Z 32003KT 250V020 CAVOK M01/M02 Q1009",
      "taf": "TAF ESGG 310530Z 3106/0106 29003KT CAVOK"
    },
    {
      "icao": "ESKN",
      "alert": "OK",
      "vis_m": 9999,
      "fzfg": false,
      "metar_trigger": false,
      "taf_trigger": false,
      "metar": "METAR ESKN 310720Z VRB02KT 9999 -SN FEW023 BKN046 M08/M08 Q1009",
      "taf": "TAF ESKN 310530Z 3106/0106 36003KT CAVOK"
    },
    {
      "icao": "ESMS",
      "alert": "OK",
      "vis_m": 9999,
      "fzfg": false,
      "metar_trigger": false,
      "taf_trigger": false,
      "metar": "METAR ESMS 310720Z 36005KT 9999 BKN005 00/00 Q1011",
      "taf": "TAF ESMS 310527Z 3106/0106 27009KT 9999 FEW040"
    },
    {
      "icao": "ESSA",
      "alert": "OK",
      "vis_m": 9999,
      "fzfg": false,
      "metar_trigger": false,
      "taf_trigger": false,
      "metar": "METAR ESSA 310720Z 32003KT CAVOK M09/M10 Q1009 NOSIG",
      "taf": "TAF ESSA 310530Z 3106/0106 34003KT 9999 SCT020 BKN040"
    },
    {
      "icao": "EYKA",
      "alert": "OK",
      "vis_m": 9999,
      "fzfg": false,
      "metar_trigger": false,
      "taf_trigger": false,
      "metar": "METAR EYKA 310720Z 31004KT 250V030 CAVOK M07/M12 Q1004",
      "taf": "TAF EYKA 310500Z 3106/0106 VRB04KT 8000 SCT030"
    },
    {
      "icao": "EYPA",
      "alert": "OK",
      "vis_m": 9999,
      "fzfg": false,
      "metar_trigger": false,
      "taf_trigger": false,
      "metar": "METAR EYPA 310720Z 07003KT CAVOK M08/M15 Q1008",
      "taf": "TAF EYPA 310500Z 3106/0106 VRB05KT 8000 SCT040"
    },
    {
      "icao": "EYVI",
      "alert": "OK",
      "vis_m": 9999,
      "fzfg": false,
      "metar_trigger": false,
      "taf_trigger": false,
      "metar": "METAR EYVI 310720Z 34012KT 9999 BKN016 M06/M09 Q1001 NOSIG",
      "taf": ""
    },
    {
      "icao": "GCFV",
      "alert": "OK",
      "vis_m": 9999,
      "fzfg": false,
      "metar_trigger": false,
      "taf_trigger": false,
      "metar": "METAR GCFV 310730Z 28006KT 9999 FEW025 12/10 Q1020",
      "taf": "TAF GCFV 310200Z 3103/0103 30005KT 9999 FEW025 TX21/3114Z TN14/3106Z"
    },
    {
      "icao": "GCLP",
      "alert": "OK",
      "vis_m": 9999,
      "fzfg": false,
      "metar_trigger": false,
      "taf_trigger": false,
      "metar": "METAR GCLP 310730Z 26005KT 230V300 9999 FEW025 15/12 Q1020 NOSIG",
      "taf": "TAF GCLP 310200Z 3103/0103 29005KT 9999 SCT030 TX22/3114Z TN15/3106Z"
    },
    {
      "icao": "GCTS",
      "alert": "OK",
      "vis_m": 9999,
      "fzfg": false,
      "metar_trigger": false,
      "taf_trigger": false,
      "metar": "METAR GCTS 310730Z 33007KT 300V010 9999 FEW025 16/12 Q1020 NOSIG",
      "taf": "TAF GCTS 310200Z 3103/0103 33004KT 9999 FEW025 TX24/3114Z TN16/3106Z"
    },
    {
      "icao": "GMAD",
      "alert": "OK",
      "vis_m": 9999,
      "fzfg": false,
      "metar_trigger": false,
      "taf_trigger": false,
      "metar": "METAR GMAD 310730Z 07008KT 9999 BKN040 11/10 Q1020 NOSIG",
      "taf": "TAF GMAD 310500Z 3106/0112 06008KT CAVOK"
    },
    {
      "icao": "GMMN",
      "alert": "OK",
      "vis_m": 9999,
      "fzfg": false,
      "metar_trigger": false,
      "taf_trigger": false,
      "metar": "METAR GMMN 310730Z 20011KT 9999 BKN015 13/10 Q1018 NOSIG",
      "taf": ""
    },
    {
      "icao": "GMMX",
      "alert": "OK",
      "vis_m": 9999,
      "fzfg": false,
      "metar_trigger": false,
      "taf_trigger": false,
      "metar": "METAR GMMX 310730Z VRB01KT 9999 SCT023 BKN080 11/08 Q1020 NOSIG",
      "taf": "TAF GMMX 310500Z 3106/0112 06006KT 8000 SCT020 SCT080"
    },
    {
      "icao": "HEGN",
      "alert": "OK",
      "vis_m": 9999,
      "fzfg": false,
      "metar_trigger": false,
      "taf_trigger": false,
      "metar": "METAR HEGN 310700Z 30006KT CAVOK 18/05 Q1017 NOSIG",
      "taf": "TAF HEGN 310500Z 3106/0112 32010KT CAVOK"
    },
    {
      "icao": "HEMA",
      "alert": "OK",
      "vis_m": 9999,
      "fzfg": false,
      "metar_trigger": false,
      "taf_trigger": false,
      "metar": "METAR HEMA 310700Z 17005KT CAVOK 21/11 Q1017 NOSIG",
      "taf": "TAF HEMA 310500Z 3106/0112 29010KT CAVOK"
    },
    {
      "icao": "HESH",
      "alert": "OK",
      "vis_m": 9999,
      "fzfg": false,
      "metar_trigger": false,
      "taf_trigger": false,
      "metar": "METAR HESH 310700Z 17002KT CAVOK 21/11 Q1017 NOSIG",
      "taf": "TAF HESH 310500Z 3106/0112 25010KT CAVOK"
    },
    {
      "icao": "HESX",
      "alert": "OK",
      "vis_m": 9999,
      "fzfg": false,
      "metar_trigger": false,
      "taf_trigger": false,
      "metar": "METAR HESX 310700Z 20009KT CAVOK 14/04 Q1015 NOSIG",
      "taf": "TAF HESX 310501Z 3106/0112 20009KT 6000 NSC"
    },
    {
      "icao": "LATI",
      "alert": "OK",
      "vis_m": null,
      "fzfg": false,
      "metar_trigger": false,
      "taf_trigger": false,
      "metar": "",
      "taf": "TAF LATI 310500Z 3106/0106 31008KT CAVOK TX07/3112Z TNM05/0105Z"
    },
    {
      "icao": "LBPD",
      "alert": "OK",
      "vis_m": 9999,
      "fzfg": false,
      "metar_trigger": false,
      "taf_trigger": false,
      "metar": "METAR LBPD 310730Z AUTO 28018KT 9999 NCD M01/M10 Q1016 NOSIG",
      "taf": "TAF LBPD 310500Z 3106/0106 27016KT CAVOK"
    },
    {
      "icao": "LBSF",
      "alert": "OK",
      "vis_m": 9999,
      "fzfg": false,
      "metar_trigger": false,
      "taf_trigger": false,
      "metar": "METAR LBSF 310730Z 29006KT 260V320 9999 FEW032 M05/M11 Q1015 NOSIG",
      "taf": "TAF LBSF 310500Z 3106/0106 28012KT CAVOK"
    },
    {
      "icao": "LBWN",
      "alert": "OK",
      "vis_m": 9999,
      "fzfg": false,
      "metar_trigger": false,
      "taf_trigger": false,
      "metar": "METAR LBWN 310730Z AUTO 24009KT 9999 NCD M02/M07 Q1012 NOSIG",
      "taf": "TAF LBWN 310500Z 3106/0106 29012KT 9999 SCT030"
    },
    {
      "icao": "LCLK",
      "alert": "OK",
      "vis_m": 9999,
      "fzfg": false,
      "metar_trigger": false,
      "taf_trigger": false,
      "metar": "METAR LCLK 310730Z 23009KT 9999 -RA FEW025 FEW030CB BKN040 15/13 Q1007 NOSIG",
      "taf": ""
    },
    {
      "icao": "LCPH",
      "alert": "OK",
      "vis_m": 9999,
      "fzfg": false,
      "metar_trigger": false,
      "taf_trigger": false,
      "metar": "METAR LCPH 310730Z 26014KT 9999 R29/P2000 R11/1300 FEW020 FEW025CB SCT040 BKN070 18/12 Q1008 NOSIG",
      "taf": ""
    },
    {
      "icao": "LEAL",
      "alert": "OK",
      "vis_m": 9999,
      "fzfg": false,
      "metar_trigger": false,
      "taf_trigger": false,
      "metar": "METAR LEAL 310730Z 27009KT CAVOK 10/05 Q1018 NOSIG",
      "taf": "TAF LEAL 310500Z 3106/0106 29006KT CAVOK TX17/3114Z TN07/3106Z"
    },
    {
      "icao": "LEBB",
      "alert": "OK",
      "vis_m": 9999,
      "fzfg": false,
      "metar_trigger": false,
      "taf_trigger": false,
      "metar": "METAR LEBB 310730Z 00000KT 9999 BKN027 BKN037 08/05 Q1023 NOSIG",
      "taf": "TAF LEBB 310500Z 3106/0106 VRB03KT 9999 SCT010 BKN020 TX10/3114Z TN01/3124Z"
    },
    {
      "icao": "LEBL",
      "alert": "OK",
      "vis_m": 9999,
      "fzfg": false,
      "metar_trigger": false,
      "taf_trigger": false,
      "metar": "METAR LEBL 310730Z 33013G25KT 300V010 9999 SCT030 SCT044 08/05 Q1018 NOSIG",
      "taf": "TAF LEBL 310500Z 3106/0106 34010KT 9999 FEW020 TX15/3112Z TN08/3107Z"
    },
    {
      "icao": "LECH",
      "alert": "OK",
      "vis_m": 9999,
      "fzfg": false,
      "metar_trigger": false,
      "taf_trigger": false,
      "metar": "METAR LECH 310730Z AUTO 18005KT 160V220 CAVOK 05/01 Q1018",
      "taf": ""
    },
    {
      "icao": "LEMD",
      "alert": "OK",
      "vis_m": 9999,
      "fzfg": false,
      "metar_trigger": false,
      "taf_trigger": false,
      "metar": "METAR LEMD 310730Z 00000KT 9999 FEW050 M03/M03 Q1019 NOSIG",
      "taf": "TAF LEMD 310500Z 3106/0112 VRB03KT CAVOK TX08/3114Z TNM02/0106Z"
    },
    {
      "icao": "LEMG",
      "alert": "OK",
      "vis_m": 9999,
      "fzfg": false,
      "metar_trigger": false,
      "taf_trigger": false,
      "metar": "METAR LEMG 310730Z 30010KT 9999 FEW030 05/04 Q1019 NOSIG",
      "taf": "TAF LEMG 310500Z 3106/0106 29010KT CAVOK TX18/3114Z TN08/3106Z"
    },
    {
      "icao": "LEVC",
      "alert": "OK",
      "vis_m": 9999,
      "fzfg": false,
      "metar_trigger": false,
      "taf_trigger": false,
      "metar": "METAR LEVC 310730Z 29003KT 270V330 CAVOK 03/02 Q1018 NOSIG",
      "taf": "TAF LEVC 310500Z 3106/0106 29006KT 9999 FEW020 TX17/3114Z TN05/3106Z"
    },
    {
      "icao": "LEXJ",
      "alert": "OK",
      "vis_m": 7000,
      "fzfg": false,
      "metar_trigger": false,
      "taf_trigger": false,
      "metar": "METAR LEXJ 310730Z VRB02KT 7000 BKN021 OVC035 08/06 Q1023",
      "taf": "TAF LEXJ 310200Z 3103/0103 VRB03KT 9999 SCT015 BKN035 TX10/3115Z TN03/0103Z"
    },
    {
      "icao": "LEZG",
      "alert": "OK",
      "vis_m": 9999,
      "fzfg": false,
      "metar_trigger": false,
      "taf_trigger": false,
      "metar": "METAR LEZG 310730Z 26010KT CAVOK 06/03 Q1019 NOSIG",
      "taf": "TAF LEZG 310500Z 3106/0106 29010KT 9999 FEW020 TX12/3114Z TN05/3106Z"
    },
    {
      "icao": "LEZL",
      "alert": "OK",
      "vis_m": 500,
      "fzfg": false,
      "metar_trigger": false,
      "taf_trigger": false,
      "metar": "METAR LEZL 310730Z 05005KT 0500 R27/1000D R09/1100N FG VV001 07/07 Q1019 NOSIG",
      "taf": "TAF LEZL 310200Z 3103/0103 05005KT CAVOK TX15/3115Z TN04/3106Z"
    },
    {
      "icao": "LFBD",
      "alert": "OK",
      "vis_m": 9999,
      "fzfg": false,
      "metar_trigger": false,
      "taf_trigger": false,
      "metar": "METAR LFBD 310730Z AUTO 05005KT CAVOK M03/M04 Q1023 NOSIG",
      "taf": "TAF LFBD 310500Z 3106/0112 04005KT CAVOK TX04/3114Z TNM05/0106Z"
    },
    {
      "icao": "LFLL",
      "alert": "OK",
      "vis_m": 9999,
      "fzfg": false,
      "metar_trigger": false,
      "taf_trigger": false,
      "metar": "METAR LFLL 310730Z 29004KT 9999 FEW016 M04/M06 Q1024 NOSIG",
      "taf": "TAF LFLL 310500Z 3106/0112 36005KT CAVOK"
    },
    {
      "icao": "LFLS",
      "alert": "OK",
      "vis_m": 9999,
      "fzfg": false,
      "metar_trigger": false,
      "taf_trigger": false,
      "metar": "METAR LFLS 310730Z AUTO VRB02KT 9999 SCT011 M05/M06 Q1023 TEMPO BKN013",
      "taf": "TAF LFLS 310200Z 3103/0103 36005KT CAVOK"
    },
    {
      "icao": "LFMN",
      "alert": "OK",
      "vis_m": 9999,
      "fzfg": false,
      "metar_trigger": false,
      "taf_trigger": false,
      "metar": "METAR LFMN 310730Z 33011KT 9999 FEW043 06/M00 Q1017 NOSIG",
      "taf": "TAF LFMN 310200Z 3103/0109 33010KT CAVOK"
    },
    {
      "icao": "LFOB",
      "alert": "OK",
      "vis_m": 9999,
      "fzfg": false,
      "metar_trigger": false,
      "taf_trigger": false,
      "metar": "METAR LFOB 310730Z AUTO VRB02KT CAVOK M04/M04 Q1029 TEMPO 4000 BR",
      "taf": "TAF LFOB 310500Z 3106/0106 26005KT CAVOK"
    },
    {
      "icao": "LFPO",
      "alert": "OK",
      "vis_m": 6000,
      "fzfg": false,
      "metar_trigger": false,
      "taf_trigger": false,
      "metar": "METAR LFPO 310730Z 01005KT 350V050 6000 NSC M01/M02 Q1029 NOSIG",
      "taf": "TAF LFPO 310500Z 3106/0112 36005KT CAVOK"
    },
    {
      "icao": "LFSB",
      "alert": "OK",
      "vis_m": 7000,
      "fzfg": false,
      "metar_trigger": false,
      "taf_trigger": false,
      "metar": "METAR LFSB 310730Z AUTO 00000KT 7000 VV/// M08/M09 Q1027 TEMPO 2500 BCFG BECMG NSC",
      "taf": "TAF LFSB 310500Z 3106/0106 VRB03KT 6000 NSC"
    },
    {
      "icao": "LGAV",
      "alert": "OK",
      "vis_m": 9999,
      "fzfg": false,
      "metar_trigger": false,
      "taf_trigger": false,
      "metar": "METAR LGAV 310720Z 03011KT 360V060 9999 FEW018 BKN045 08/02 Q1010 NOSIG",
      "taf": "TAF LGAV 310500Z 3106/0106 01020G30KT 9999 SCT020"
    },
    {
      "icao": "LGTS",
      "alert": "OK",
      "vis_m": 9999,
      "fzfg": false,
      "metar_trigger": false,
      "taf_trigger": false,
      "metar": "METAR LGTS 310720Z 33025KT 9999 FEW025 02/M08 Q1016 NOSIG",
      "taf": "TAF LGTS 310500Z 3106/0106 34017G27KT 9999 SCT030"
    },
    {
      "icao": "LHBP",
      "alert": "OK",
      "vis_m": 9999,
      "fzfg": false,
      "metar_trigger": false,
      "taf_trigger": false,
      "metar": "METAR LHBP 310730Z 31018KT 9999 FEW020 BKN150 M03/M07 Q1017 NOSIG",
      "taf": "TAF LHBP 310515Z 3106/0106 31014G24KT CAVOK"
    },
    {
      "icao": "LHDC",
      "alert": "OK",
      "vis_m": 9999,
      "fzfg": false,
      "metar_trigger": false,
      "taf_trigger": false,
      "metar": "METAR LHDC 310715Z AUTO 26004KT CAVOK M05/M08 Q1015 NOSIG",
      "taf": "TAF LHDC 310515Z 3106/3115 29008KT CAVOK"
    },
    {
      "icao": "LIBD",
      "alert": "OK",
      "vis_m": 9999,
      "fzfg": false,
      "metar_trigger": false,
      "taf_trigger": false,
      "metar": "METAR LIBD 310720Z 36010KT 330V030 9999 FEW030 06/M05 Q1018",
      "taf": "TAF LIBD 310500Z 3106/0106 36015KT 9999 FEW050"
    },
    {
      "icao": "LIBG",
      "alert": "OK",
      "vis_m": null,
      "fzfg": false,
      "metar_trigger": false,
      "taf_trigger": false,
      "metar": "",
      "taf": ""
    },
    {
      "icao": "LIBP",
      "alert": "OK",
      "vis_m": 9999,
      "fzfg": false,
      "metar_trigger": false,
      "taf_trigger": false,
      "metar": "METAR LIBP 310720Z AUTO 10004KT 9999 BKN065/// BKN077/// 07/M04 Q1020",
      "taf": "TAF LIBP 310500Z 3106/0106 04012KT 9999 SCT045"
    },
    {
      "icao": "LIBR",
      "alert": "OK",
      "vis_m": 9999,
      "fzfg": false,
      "metar_trigger": false,
      "taf_trigger": false,
      "metar": "METAR LIBR 310720Z 36018KT CAVOK 07/M02 Q1015",
      "taf": "TAF LIBR 310500Z 3106/0106 35016KT 9999 FEW030"
    },
    {
      "icao": "LICA",
      "alert": "OK",
      "vis_m": 9999,
      "fzfg": false,
      "metar_trigger": false,
      "taf_trigger": false,
      "metar": "METAR LICA 310720Z AUTO 05007KT 020V080 9999 -RA OVC045/// 10/02 Q1013",
      "taf": "TAF LICA 310500Z 3106/0106 08010KT 9999 SCT060"
    },
    {
      "icao": "LICC",
      "alert": "OK",
      "vis_m": 9999,
      "fzfg": false,
      "metar_trigger": false,
      "taf_trigger": false,
      "metar": "METAR LICC 310720Z 29006KT 9999 SCT060 08/05 Q1013",
      "taf": "TAF LICC 310500Z 3106/0106 30007KT 9999 SCT030"
    },
    {
      "icao": "LICJ",
      "alert": "OK",
      "vis_m": 7000,
      "fzfg": false,
      "metar_trigger": false,
      "taf_trigger": false,
      "metar": "METAR LICJ 310720Z 20005KT 7000 RA SCT020 SCT045 12/10 Q1014",
      "taf": "TAF LICJ 310500Z 3106/0106 22007KT 9999 SCT030"
    },
    {
      "icao": "LIMC",
      "alert": "OK",
      "vis_m": 9999,
      "fzfg": false,
      "metar_trigger": false,
      "taf_trigger": false,
      "metar": "METAR LIMC 310720Z 02003KT 350V060 9999 SCT030 02/M00 Q1020 NOSIG",
      "taf": "TAF LIMC 310500Z 3106/0112 03006KT 9999 BKN030"
    },
    {
      "icao": "LIME",
      "alert": "OK",
      "vis_m": 9999,
      "fzfg": false,
      "metar_trigger": false,
      "taf_trigger": false,
      "metar": "METAR LIME 310720Z 02005KT 9999 SCT035 02/00 Q1020 NOSIG",
      "taf": "TAF LIME 310500Z 3106/0106 VRB05KT 9999 BKN030"
    },
    {
      "icao": "LIMF",
      "alert": "OK",
      "vis_m": 5000,
      "fzfg": false,
      "metar_trigger": false,
      "taf_trigger": false,
      "metar": "METAR LIMF 310720Z 32003KT 5000 BR BKN050 03/M00 Q1019",
      "taf": "TAF LIMF 310500Z 3106/0106 VRB05KT 3000 BR SCT010"
    },
    {
      "icao": "LIMJ",
      "alert": "OK",
      "vis_m": 9999,
      "fzfg": false,
      "metar_trigger": false,
      "taf_trigger": false,
      "metar": "METAR LIMJ 310720Z 02018KT 9999 FEW030 07/M00 Q1018",
      "taf": "TAF LIMJ 310500Z 3106/0106 02018KT 9999 FEW020"
    },
    {
      "icao": "LIPE",
      "alert": "OK",
      "vis_m": 5000,
      "fzfg": false,
      "metar_trigger": false,
      "taf_trigger": false,
      "metar": "METAR LIPE 310720Z 26003KT 5000 BR SCT005 SCT070 00/00 Q1020",
      "taf": "TAF LIPE 310500Z 3106/0106 VRB04KT 3000 BR BKN020"
    },
    {
      "icao": "LIPH",
      "alert": "OK",
      "vis_m": 9999,
      "fzfg": false,
      "metar_trigger": false,
      "taf_trigger": false,
      "metar": "METAR LIPH 310720Z VRB02KT 9999 FEW050 M01/M04 Q1021",
      "taf": "TAF LIPH 310500Z 3106/0106 VRB04KT 9999 SCT045"
    },
    {
      "icao": "LIPQ",
      "alert": "OK",
      "vis_m": 9999,
      "fzfg": false,
      "metar_trigger": false,
      "taf_trigger": false,
      "metar": "METAR LIPQ 310720Z AUTO 05003KT 010V070 9999 NCD M04/M07 Q1021",
      "taf": "TAF LIPQ 310500Z 3106/0106 VRB05KT 9999 SCT050"
    },
    {
      "icao": "LIPR",
      "alert": "OK",
      "vis_m": 2500,
      "fzfg": false,
      "metar_trigger": false,
      "taf_trigger": false,
      "metar": "METAR LIPR 310720Z VRB02KT 2500 BR BKN045 02/02 Q1020",
      "taf": "TAF LIPR 310500Z 3106/0106 17008KT 3000 BR BKN020"
    },
    {
      "icao": "LIPX",
      "alert": "OK",
      "vis_m": 9999,
      "fzfg": false,
      "metar_trigger": false,
      "taf_trigger": false,
      "metar": "METAR LIPX 310720Z 35003KT 9999 BKN040 01/M02 Q1020",
      "taf": "TAF LIPX 310500Z 3106/0106 VRB05KT 9999 SCT040"
    },
    {
      "icao": "LIPY",
      "alert": "OK",
      "vis_m": 9999,
      "fzfg": false,
      "metar_trigger": false,
      "taf_trigger": false,
      "metar": "METAR LIPY 310720Z AUTO 22004KT 9999 OVC064/// 03/M03 Q1020",
      "taf": "TAF LIPY 310500Z 3106/0106 13006KT 6000 SCT045"
    },
    {
      "icao": "LIPZ",
      "alert": "OK",
      "vis_m": 9999,
      "fzfg": false,
      "metar_trigger": false,
      "taf_trigger": false,
      "metar": "METAR LIPZ 310720Z 02006KT 9999 FEW040 M01/M05 Q1021 NOSIG",
      "taf": "TAF LIPZ 310500Z 3106/0112 06006KT 9999 SCT040"
    },
    {
      "icao": "LIRF",
      "alert": "OK",
      "vis_m": 9999,
      "fzfg": false,
      "metar_trigger": false,
      "taf_trigger": false,
      "metar": "METAR LIRF 310720Z 01007KT 9999 SCT040 06/M02 Q1015 NOSIG",
      "taf": "TAF LIRF 310500Z 3106/0112 03010KT 9999 SCT040"
    },
    {
      "icao": "LIRN",
      "alert": "OK",
      "vis_m": 9999,
      "fzfg": false,
      "metar_trigger": false,
      "taf_trigger": false,
      "metar": "METAR LIRN 310720Z 05011KT CAVOK 06/M06 Q1016 NOSIG",
      "taf": "TAF LIRN 310500Z 3106/0106 05015KT 9999 FEW060"
    },
    {
      "icao": "LIRP",
      "alert": "OK",
      "vis_m": 9999,
      "fzfg": false,
      "metar_trigger": false,
      "taf_trigger": false,
      "metar": "METAR LIRP 310715Z 07003KT 9999 FEW050 05/M00 Q1017 NOSIG",
      "taf": "TAF LIRP 310500Z 3106/0106 09011KT 9999 FEW060"
    },
    {
      "icao": "LIRZ",
      "alert": "OK",
      "vis_m": 9999,
      "fzfg": false,
      "metar_trigger": false,
      "taf_trigger": false,
      "metar": "METAR LIRZ 310720Z AUTO 03007KT 9999 NCD 02/M04 Q1017",
      "taf": "TAF LIRZ 310500Z 3106/0106 04010KT CAVOK"
    },
    {
      "icao": "LJLJ",
      "alert": "OK",
      "vis_m": 9999,
      "fzfg": true,
      "metar_trigger": false,
      "taf_trigger": false,
      "metar": "METAR LJLJ 310730Z 00000KT 9999 0800S MIFG BCFG SCT002 M09/M10 Q1020 TEMPO 0500 FZFG BKN001",
      "taf": "TAF LJLJ 310500Z 3106/0106 VRB02KT 9999 FEW005"
    },
    {
      "icao": "LKMT",
      "alert": "OK",
      "vis_m": 9999,
      "fzfg": false,
      "metar_trigger": false,
      "taf_trigger": false,
      "metar": "METAR LKMT 310730Z 22009KT 9999 BKN038 M06/M09 Q1016 NOSIG",
      "taf": "TAF LKMT 310500Z 3106/0106 24012KT 9999 BKN030"
    },
    {
      "icao": "LKPR",
      "alert": "OK",
      "vis_m": 9999,
      "fzfg": false,
      "metar_trigger": false,
      "taf_trigger": false,
      "metar": "METAR LKPR 310730Z 22012KT CAVOK M06/M08 Q1019 NOSIG",
      "taf": "TAF LKPR 310500Z 3106/0112 25012KT 9999 SCT025 BKN040"
    },
    {
      "icao": "LLBG",
      "alert": "OK",
      "vis_m": 9999,
      "fzfg": false,
      "metar_trigger": false,
      "taf_trigger": false,
      "metar": "METAR LLBG 310720Z 19013KT 9999 FEW045 17/07 Q1015 NOSIG",
      "taf": "TAF LLBG 310504Z 3106/0106 17007KT 9999 FEW035"
    },
    {
      "icao": "LMML",
      "alert": "OK",
      "vis_m": 9999,
      "fzfg": false,
      "metar_trigger": false,
      "taf_trigger": false,
      "metar": "METAR LMML 310715Z 23006KT 9999 VCSH SCT018TCU 12/10 Q1014 NOSIG",
      "taf": "TAF LMML 310500Z 3106/0106 29012KT 9999 SCT020TCU"
    },
    {
      "icao": "LOWW",
      "alert": "OK",
      "vis_m": 9999,
      "fzfg": false,
      "metar_trigger": false,
      "taf_trigger": false,
      "metar": "METAR LOWW 310720Z 29013KT 260V320 CAVOK M03/M08 Q1020 NOSIG",
      "taf": "TAF LOWW 310515Z 3106/0112 30017KT CAVOK TX06/0111Z TNM03/3106Z"
    },
    {
      "icao": "LPFR",
      "alert": "OK",
      "vis_m": 9999,
      "fzfg": false,
      "metar_trigger": false,
      "taf_trigger": false,
      "metar": "METAR LPFR 310730Z 06013KT 9999 BKN032 12/08 Q1018",
      "taf": "TAF LPFR 310500Z 3106/0106 04007KT CAVOK"
    },
    {
      "icao": "LPMA",
      "alert": "OK",
      "vis_m": 9999,
      "fzfg": false,
      "metar_trigger": false,
      "taf_trigger": false,
      "metar": "METAR LPMA 310730Z 34004KT 9999 FEW015 16/12 Q1016",
      "taf": "TAF LPMA 310500Z 3106/0106 VRB05KT 9999 SCT015"
    },
    {
      "icao": "LPPR",
      "alert": "OK",
      "vis_m": 9999,
      "fzfg": false,
      "metar_trigger": false,
      "taf_trigger": false,
      "metar": "METAR LPPR 310730Z 07003KT 030V140 CAVOK 07/05 Q1019",
      "taf": "TAF LPPR 310500Z 3106/0106 09005KT CAVOK"
    },
    {
      "icao": "LPPS",
      "alert": "OK",
      "vis_m": 9999,
      "fzfg": false,
      "metar_trigger": false,
      "taf_trigger": false,
      "metar": "METAR LPPS 310730Z 00000KT 9999 FEW010 16/15 Q1017",
      "taf": "TAF LPPS 310500Z 3106/0112 20007KT 9999 SCT010"
    },
    {
      "icao": "LPPT",
      "alert": "OK",
      "vis_m": 100,
      "fzfg": false,
      "metar_trigger": false,
      "taf_trigger": false,
      "metar": "METAR LPPT 310730Z 03003KT 010V070 0100 R02/0350N FG VV001 05/05 Q1019",
      "taf": "TAF LPPT 310500Z 3106/0112 06005KT 5000 BR SCT002"
    },
    {
      "icao": "LQBK",
      "alert": "OK",
      "vis_m": 9999,
      "fzfg": false,
      "metar_trigger": false,
      "taf_trigger": false,
      "metar": "METAR LQBK 310730Z 15005KT CAVOK M07/M08 Q1022 NOSIG",
      "taf": ""
    },
    {
      "icao": "LQSA",
      "alert": "OK",
      "vis_m": 9999,
      "fzfg": false,
      "metar_trigger": false,
      "taf_trigger": false,
      "metar": "METAR LQSA 310730Z VRB03KT 9999 SCT045 M05/M09 Q1019 NOSIG",
      "taf": "TAF LQSA 310500Z 3106/0106 29005KT 9999 SCT045 TXM00/3113Z TNM08/0104Z"
    },
    {
      "icao": "LQTZ",
      "alert": "OK",
      "vis_m": 7000,
      "fzfg": false,
      "metar_trigger": false,
      "taf_trigger": false,
      "metar": "METAR LQTZ 310730Z VRB01KT 7000 NSC M08/M08 Q1021",
      "taf": "TAF LQTZ 310500Z 3106/0106 27006KT 9999 SCT040 TX00/3113Z TNM09/3106Z"
    },
    {
      "icao": "LRBC",
      "alert": "OK",
      "vis_m": 9999,
      "fzfg": false,
      "metar_trigger": false,
      "taf_trigger": false,
      "metar": "METAR LRBC 310730Z 27014KT CAVOK M02/M11 Q1008",
      "taf": "TAF LRBC 310500Z 3106/3115 28010KT CAVOK"
    },
    {
      "icao": "LRBS",
      "alert": "OK",
      "vis_m": 9999,
      "fzfg": false,
      "metar_trigger": false,
      "taf_trigger": false,
      "metar": "METAR LRBS 310730Z 28006KT 230V360 CAVOK M03/M09 Q1012 NOSIG",
      "taf": "TAF LRBS 310500Z 3106/0106 27010KT CAVOK"
    },
    {
      "icao": "LRBV",
      "alert": "OK",
      "vis_m": 9999,
      "fzfg": false,
      "metar_trigger": false,
      "taf_trigger": false,
      "metar": "METAR LRBV 310730Z 28009KT 250V320 9999 4000S SCT025 SCT035 BKN050 M06/M10 Q1010",
      "taf": "TAF LRBV 310500Z 3106/3115 30012KT 9999 -SN SCT025 BKN040"
    },
    {
      "icao": "LRCL",
      "alert": "OK",
      "vis_m": 9999,
      "fzfg": false,
      "metar_trigger": false,
      "taf_trigger": false,
      "metar": "METAR LRCL 310730Z 27009KT 9999 BKN058 M03/M09 Q1012",
      "taf": "TAF LRCL 310500Z 3106/3115 26008KT 9999 BKN040"
    },
    {
      "icao": "LRCV",
      "alert": "OK",
      "vis_m": 9999,
      "fzfg": false,
      "metar_trigger": false,
      "taf_trigger": false,
      "metar": "METAR LRCV 310730Z 29014KT CAVOK M03/M06 Q1014",
      "taf": "TAF LRCV 310500Z 3106/3115 28014KT CAVOK"
    },
    {
      "icao": "LRIA",
      "alert": "OK",
      "vis_m": 9999,
      "fzfg": false,
      "metar_trigger": false,
      "taf_trigger": false,
      "metar": "METAR LRIA 310730Z 25004KT 220V280 9999 BKN032 M03/M05 Q1007",
      "taf": ""
    },
    {
      "icao": "LROP",
      "alert": "OK",
      "vis_m": 9999,
      "fzfg": false,
      "metar_trigger": false,
      "taf_trigger": false,
      "metar": "METAR LROP 310730Z 27011KT CAVOK M03/M11 Q1012 NOSIG",
      "taf": "TAF LROP 310500Z 3106/0106 27010KT CAVOK"
    },
    {
      "icao": "LRSB",
      "alert": "OK",
      "vis_m": 9999,
      "fzfg": false,
      "metar_trigger": false,
      "taf_trigger": false,
      "metar": "METAR LRSB 310730Z AUTO 29012KT 9999 OVC050/// M05/M09 Q1012",
      "taf": "TAF LRSB 310500Z 3106/0106 29010KT 9999 SCT045"
    },
    {
      "icao": "LRSM",
      "alert": "OK",
      "vis_m": 9999,
      "fzfg": false,
      "metar_trigger": false,
      "taf_trigger": false,
      "metar": "METAR LRSM 310730Z 26011KT 9999 SCT043 M04/M08 Q1013",
      "taf": "TAF LRSM 310500Z 3106/3115 26012KT 9999 BKN040"
    },
    {
      "icao": "LRSV",
      "alert": "OK",
      "vis_m": 5000,
      "fzfg": false,
      "metar_trigger": false,
      "taf_trigger": false,
      "metar": "METAR LRSV 310730Z COR 28013KT 5000 -SN DRSN BR OVC027 M04/M07 Q1005",
      "taf": "TAF LRSV 310500Z 3106/3115 29014KT 9999 BKN025"
    },
    {
      "icao": "LRTM",
      "alert": "OK",
      "vis_m": 9999,
      "fzfg": false,
      "metar_trigger": false,
      "taf_trigger": false,
      "metar": "METAR LRTM 310730Z 24011KT 9999 -SN FEW024 SCT038 BKN048 M04/M08 Q1012",
      "taf": "TAF LRTM 310500Z 3106/3115 24008KT 9999 OVC040"
    },
    {
      "icao": "LRTR",
      "alert": "OK",
      "vis_m": 9999,
      "fzfg": false,
      "metar_trigger": false,
      "taf_trigger": false,
      "metar": "METAR LRTR 310730Z VRB01KT CAVOK M08/M09 Q1017",
      "taf": "TAF LRTR 310500Z 3106/0106 28008KT CAVOK"
    },
    {
      "icao": "LTAC",
      "alert": "OK",
      "vis_m": 9999,
      "fzfg": false,
      "metar_trigger": false,
      "taf_trigger": false,
      "metar": "METAR LTAC 310720Z 31008KT 9999 FEW011 BKN025 BKN080 00/M03 Q1003 RERASN NOSIG RMK RWY21C 28008KT RWY03L 30007KT RWY21R 27006KT 230V290 RWY03R 30009KT RWY21L 30010KT",
      "taf": "TAF LTAC 310440Z 3106/0106 VRB02KT 9999 SCT040 BKN100"
    },
    {
      "icao": "LTFM",
      "alert": "OK",
      "vis_m": 9999,
      "fzfg": false,
      "metar_trigger": false,
      "taf_trigger": false,
      "metar": "METAR LTFM 310720Z 33013KT 9999 SCT035 BKN080 03/M06 Q1012 NOSIG RMK RWY17L 33013KT RWY34L 32010KT RWY16R 32012KT RWY36 33014KT RWY18 33015KT",
      "taf": "TAF LTFM 310440Z 3106/0112 33018G28KT 9999 SCT035 BKN080"
    },
    {
      "icao": "LUKK",
      "alert": "OK",
      "vis_m": 9999,
      "fzfg": false,
      "metar_trigger": false,
      "taf_trigger": false,
      "metar": "METAR LUKK 310730Z 29013KT 9999 FEW044 M03/M08 Q1006 TEMPO 30016G26KT",
      "taf": "TAF LUKK 310522Z 3106/0106 29014KT 9999 BKN030"
    },
    {
      "icao": "LWOH",
      "alert": "OK",
      "vis_m": 9999,
      "fzfg": false,
      "metar_trigger": false,
      "taf_trigger": false,
      "metar": "METAR LWOH 310720Z 33014KT 290V010 9999 BKN045 M03/M14 Q1014",
      "taf": "TAF LWOH 310530Z 3106/0106 33010KT 9999 BKM050"
    },
    {
      "icao": "LWSK",
      "alert": "OK",
      "vis_m": null,
      "fzfg": false,
      "metar_trigger": false,
      "taf_trigger": false,
      "metar": "",
      "taf": "TAF LWSK 310530Z 3106/0106 02005KT CAVOK"
    },
    {
      "icao": "LYBE",
      "alert": "OK",
      "vis_m": 9999,
      "fzfg": false,
      "metar_trigger": false,
      "taf_trigger": false,
      "metar": "METAR LYBE 310730Z 27011KT CAVOK M04/M07 Q1020 NOSIG",
      "taf": "TAF LYBE 310500Z 3106/0106 30014KT CAVOK TX00/3112Z TNM06/3106Z"
    },
    {
      "icao": "LYNI",
      "alert": "OK",
      "vis_m": 9999,
      "fzfg": false,
      "metar_trigger": false,
      "taf_trigger": false,
      "metar": "METAR LYNI 310730Z 30011KT 9999 -SHSN FEW025TCU SCT040 M02/M07 Q1019 BECMG BKN035",
      "taf": "TAF LYNI 310500Z 3106/0106 28008KT 9999 SCT040 TXM00/3112Z TNM03/3106Z"
    },
    {
      "icao": "LYPG",
      "alert": "OK",
      "vis_m": 9999,
      "fzfg": false,
      "metar_trigger": false,
      "taf_trigger": false,
      "metar": "METAR LYPG 310730Z 36015KT CAVOK 02/M15 Q1018 NOSIG",
      "taf": "TAF LYPG 310500Z 3106/0106 36015G25KT CAVOK TX07/3112Z TNM05/0106Z"
    },
    {
      "icao": "LZIB",
      "alert": "OK",
      "vis_m": 9999,
      "fzfg": false,
      "metar_trigger": false,
      "taf_trigger": false,
      "metar": "METAR LZIB 310730Z 29011KT 9999 FEW024 M02/M08 Q1019 NOSIG",
      "taf": "TAF LZIB 310515Z 3106/0106 31012KT 9999 FEW035"
    },
    {
      "icao": "LZKZ",
      "alert": "OK",
      "vis_m": 9999,
      "fzfg": false,
      "metar_trigger": false,
      "taf_trigger": false,
      "metar": "METAR LZKZ 310730Z 25005KT CAVOK M03/M11 Q1012 NOSIG",
      "taf": "TAF LZKZ 310515Z 3106/0106 31009KT 9999 SCT030"
    },
    {
      "icao": "LZTT",
      "alert": "OK",
      "vis_m": 9999,
      "fzfg": false,
      "metar_trigger": false,
      "taf_trigger": false,
      "metar": "METAR LZTT 310730Z 29013KT 270V330 9999 FEW033 SCT056 M06/M14 Q1009 NOSIG",
      "taf": ""
    },
    {
      "icao": "OEJN",
      "alert": "OK",
      "vis_m": 9999,
      "fzfg": false,
      "metar_trigger": false,
      "taf_trigger": false,
      "metar": "METAR OEJN 310700Z 36003KT CAVOK 24/03 Q1016 NOSIG",
      "taf": "TAF OEJN 310500Z 3106/0112 27005KT CAVOK"
    },
    {
      "icao": "OEMA",
      "alert": "OK",
      "vis_m": 9999,
      "fzfg": false,
      "metar_trigger": false,
      "taf_trigger": false,
      "metar": "METAR OEMA 310700Z 07008KT CAVOK 17/M03 Q1022 NOSIG",
      "taf": "TAF OEMA 310500Z 3106/0112 12010KT 7000 NSC"
    },
    {
      "icao": "OJAI",
      "alert": "OK",
      "vis_m": 4000,
      "fzfg": false,
      "metar_trigger": false,
      "taf_trigger": false,
      "metar": "METAR OJAI 310700Z 20003KT 4000 HZ NSC 09/04 Q1017 NOSIG",
      "taf": "TAF OJAI 310420Z 3106/0112 VRB02KT 3000 BR FEW030"
    },
    {
      "icao": "OMAA",
      "alert": "OK",
      "vis_m": 9999,
      "fzfg": false,
      "metar_trigger": false,
      "taf_trigger": false,
      "metar": "METAR OMAA 310700Z 32018KT 9999 SCT040 21/11 Q1019 NOSIG",
      "taf": "TAF OMAA 310500Z 3106/0112 31014KT 8000 SCT040"
    },
    {
      "icao": "OMDB",
      "alert": "OK",
      "vis_m": 9999,
      "fzfg": false,
      "metar_trigger": false,
      "taf_trigger": false,
      "metar": "METAR OMDB 310730Z 28015KT 200V310 9999 BKN040 21/11 Q1018 NOSIG",
      "taf": "TAF OMDB 310500Z 3106/0112 29012KT 8000 FEW040"
    },
    {
      "icao": "UAAA",
      "alert": "OK",
      "vis_m": 9999,
      "fzfg": false,
      "metar_trigger": false,
      "taf_trigger": false,
      "metar": "METAR UAAA 310730Z 03002MPS 340V070 9999 SCT100 BKN200 07/02 Q1011 NOSIG",
      "taf": "TAF UAAA 310505Z 3106/0106 29003G08MPS 5000 BR FU BKN050CB BKN100 TX08/3109Z TNM01/0101Z"
    },
    {
      "icao": "UBBB",
      "alert": "OK",
      "vis_m": 9999,
      "fzfg": false,
      "metar_trigger": false,
      "taf_trigger": false,
      "metar": "METAR UBBB 310730Z 23026G36KT CAVOK 10/M06 Q1006 NOSIG",
      "taf": "TAF UBBB 310509Z 3106/0106 19020G30KT CAVOK TX11/3110Z TN04/0103Z"
    },
    {
      "icao": "UDSG",
      "alert": "OK",
      "vis_m": 9999,
      "fzfg": false,
      "metar_trigger": false,
      "taf_trigger": false,
      "metar": "METAR UDSG 310730Z 30003KT 9999 BKN040 M09/M13 Q1012 NOSIG",
      "taf": "TAF UDSG 310458Z 3106/0106 VRB06KT 5000 BR BKN030"
    },
    {
      "icao": "UDYZ",
      "alert": "OK",
      "vis_m": 9999,
      "fzfg": false,
      "metar_trigger": false,
      "taf_trigger": false,
      "metar": "METAR UDYZ 310730Z VRB01KT 9999 FEW046 M05/M10 Q1016 NOSIG",
      "taf": "TAF UDYZ 310500Z 3106/0106 VRB04KT 9999 SCT040"
    },
    {
      "icao": "UGKO",
      "alert": "OK",
      "vis_m": 9999,
      "fzfg": false,
      "metar_trigger": false,
      "taf_trigger": false,
      "metar": "METAR UGKO 310730Z 10013KT CAVOK 04/M05 Q1007 NOSIG",
      "taf": "TAF UGKO 310500Z 3106/0106 08007KT CAVOK TX05/3112Z TNM00/0101Z"
    }
  ]
}