{
  "ts_utc": "2025-12-21T16:31:38Z",
  "threshold_m": 150,
  "source": "stations_override.txt (ICAO list) + aviationweather.gov (METAR/TAF raw)",
  "station_count": 114,
  "stations": [
    {
      "icao": "BIKF",
      "alert": "OK",
      "vis_m": 9999,
      "fzfg": false,
      "metar_trigger": false,
      "taf_trigger": false,
      "metar": "METAR BIKF 211600Z 14019KT 9999 BKN008 BKN032 09/08 Q1007",
      "taf": "TAF BIKF 211320Z 2115/2215 11018G28KT 9999 BKN025 TX08/2115Z TN06/2205Z"
    },
    {
      "icao": "BKPR",
      "alert": "OK",
      "vis_m": 2500,
      "fzfg": false,
      "metar_trigger": false,
      "taf_trigger": false,
      "metar": "METAR BKPR 211630Z VRB02KT 2500 BR BKN008 01/01 Q1018 NOSIG",
      "taf": ""
    },
    {
      "icao": "EBBR",
      "alert": "OK",
      "vis_m": 9999,
      "fzfg": false,
      "metar_trigger": false,
      "taf_trigger": false,
      "metar": "METAR EBBR 211620Z 08005KT CAVOK 10/08 Q1008 NOSIG",
      "taf": "TAF EBBR 211105Z 2112/2218 11006KT CAVOK"
    },
    {
      "icao": "EBCI",
      "alert": "OK",
      "vis_m": 9999,
      "fzfg": false,
      "metar_trigger": false,
      "taf_trigger": false,
      "metar": "METAR EBCI 211620Z 06007KT CAVOK 10/08 Q1007 NOSIG",
      "taf": "TAF EBCI 211105Z 2112/2218 11006KT CAVOK"
    },
    {
      "icao": "EDDB",
      "alert": "OK",
      "vis_m": 8000,
      "fzfg": false,
      "metar_trigger": false,
      "taf_trigger": false,
      "metar": "METAR EDDB 211620Z AUTO 12009KT 8000 OVC005 06/06 Q1018 TEMPO 4000 BR BKN004",
      "taf": "TAF EDDB 211100Z 2112/2212 09010KT 8000 OVC006"
    },
    {
      "icao": "EDDH",
      "alert": "OK",
      "vis_m": 9999,
      "fzfg": false,
      "metar_trigger": false,
      "taf_trigger": false,
      "metar": "METAR EDDH 211620Z AUTO 10014KT 070V130 9999 BKN005 06/05 Q1017 TEMPO 4500 OVC004",
      "taf": "TAF EDDH 211100Z 2112/2218 09009KT 9999 BKN003"
    },
    {
      "icao": "EDDK",
      "alert": "OK",
      "vis_m": 9999,
      "fzfg": false,
      "metar_trigger": false,
      "taf_trigger": false,
      "metar": "METAR EDDK 211620Z AUTO 08005KT CAVOK 09/03 Q1010 NOSIG",
      "taf": "TAF EDDK 211100Z 2112/2218 11006KT CAVOK"
    },
    {
      "icao": "EDDN",
      "alert": "OK",
      "vis_m": 9999,
      "fzfg": false,
      "metar_trigger": false,
      "taf_trigger": false,
      "metar": "METAR EDDN 211620Z AUTO 13006KT CAVOK 02/M01 Q1012 NOSIG",
      "taf": "TAF EDDN 211100Z 2112/2212 10006KT 9999 FEW010"
    },
    {
      "icao": "EDFH",
      "alert": "OK",
      "vis_m": 9999,
      "fzfg": false,
      "metar_trigger": false,
      "taf_trigger": false,
      "metar": "METAR EDFH 211620Z 11011KT CAVOK 05/01 Q1008",
      "taf": "TAF EDFH 211100Z 2112/2212 13011KT CAVOK"
    },
    {
      "icao": "EDJA",
      "alert": "OK",
      "vis_m": 3500,
      "fzfg": false,
      "metar_trigger": false,
      "taf_trigger": false,
      "metar": "METAR EDJA 211620Z 06010KT 3500 BR OVC002 M01/M02 Q1009",
      "taf": "TAF EDJA 211400Z 2115/2124 06007KT 2000 BR OVC002"
    },
    {
      "icao": "EDLW",
      "alert": "OK",
      "vis_m": 9999,
      "fzfg": false,
      "metar_trigger": false,
      "taf_trigger": false,
      "metar": "METAR EDLW 211620Z 03006KT CAVOK 08/05 Q1011",
      "taf": "TAF EDLW 211100Z 2112/2212 VRB03KT CAVOK"
    },
    {
      "icao": "EDSB",
      "alert": "OK",
      "vis_m": 9999,
      "fzfg": false,
      "metar_trigger": false,
      "taf_trigger": false,
      "metar": "METAR EDSB 211620Z 02007KT CAVOK 06/02 Q1008",
      "taf": "TAF EDSB 211100Z 2112/2212 03005KT CAVOK"
    },
    {
      "icao": "EETN",
      "alert": "OK",
      "vis_m": 9999,
      "fzfg": false,
      "metar_trigger": false,
      "taf_trigger": false,
      "metar": "METAR EETN 211620Z 34010KT 310V010 9999 OVC017 04/00 Q1013 NOSIG",
      "taf": "TAF EETN 211130Z 2112/2212 33014KT 9999 OVC015"
    },
    {
      "icao": "EFHK",
      "alert": "OK",
      "vis_m": 9999,
      "fzfg": false,
      "metar_trigger": false,
      "taf_trigger": false,
      "metar": "METAR EFHK 211620Z 33011KT 9999 FEW018 02/M01 Q1013 NOSIG",
      "taf": "TAF EFHK 211437Z 2115/2215 32011KT 9999 BKN020"
    },
    {
      "icao": "EFTU",
      "alert": "OK",
      "vis_m": 9999,
      "fzfg": false,
      "metar_trigger": false,
      "taf_trigger": false,
      "metar": "METAR EFTU 211620Z AUTO 31005KT 290V010 9999 FEW009 02/01 Q1015",
      "taf": "TAF EFTU 211435Z 2115/2215 33007KT 9999 SCT014"
    },
    {
      "icao": "EGGW",
      "alert": "OK",
      "vis_m": 3300,
      "fzfg": false,
      "metar_trigger": false,
      "taf_trigger": false,
      "metar": "METAR EGGW 211620Z AUTO 10010KT 3300 -RADZ OVC003 08/08 Q1007",
      "taf": ""
    },
    {
      "icao": "EGKK",
      "alert": "OK",
      "vis_m": 9000,
      "fzfg": false,
      "metar_trigger": false,
      "taf_trigger": false,
      "metar": "METAR EGKK 211550Z 06010KT 9000 -RA BKN009 09/09 Q1005",
      "taf": ""
    },
    {
      "icao": "EHEH",
      "alert": "OK",
      "vis_m": 9999,
      "fzfg": false,
      "metar_trigger": false,
      "taf_trigger": false,
      "metar": "METAR EHEH 211625Z AUTO 07005KT 9999 OVC310 10/06 Q1009 BLU NOSIG RMK TREND REMOTE BY EHWX",
      "taf": "TAF EHEH 211107Z 2112/2218 09006KT CAVOK"
    },
    {
      "icao": "EKBI",
      "alert": "OK",
      "vis_m": 9999,
      "fzfg": false,
      "metar_trigger": false,
      "taf_trigger": false,
      "metar": "METAR EKBI 211620Z AUTO 09012KT 9999 OVC010/// 05/04 Q1020",
      "taf": "TAF EKBI 211427Z 2115/2215 09012KT 9999 BKN008"
    },
    {
      "icao": "EKCH",
      "alert": "OK",
      "vis_m": 9999,
      "fzfg": false,
      "metar_trigger": false,
      "taf_trigger": false,
      "metar": "METAR EKCH 211620Z AUTO 11006KT 9999 OVC018/// 06/02 Q1022 NOSIG",
      "taf": "TAF EKCH 211427Z 2115/2215 10005KT 9999 BKN016"
    },
    {
      "icao": "ENTO",
      "alert": "OK",
      "vis_m": 9999,
      "fzfg": false,
      "metar_trigger": false,
      "taf_trigger": false,
      "metar": "METAR ENTO 211620Z 36006KT CAVOK M01/M03 Q1023 NOSIG",
      "taf": "TAF ENTO 211100Z 2112/2212 02008KT CAVOK"
    },
    {
      "icao": "EPGD",
      "alert": "OK",
      "vis_m": 9999,
      "fzfg": false,
      "metar_trigger": false,
      "taf_trigger": false,
      "metar": "METAR EPGD 211600Z 31005KT 9999 FEW021 02/01 Q1021",
      "taf": "TAF EPGD 211130Z 2112/2212 27005KT 9999 BKN020"
    },
    {
      "icao": "EPKK",
      "alert": "OK",
      "vis_m": 5000,
      "fzfg": false,
      "metar_trigger": false,
      "taf_trigger": false,
      "metar": "METAR EPKK 211600Z 05008KT 5000 BR BKN003 OVC004 04/04 Q1019",
      "taf": "TAF EPKK 211430Z 2115/2215 07008KT 5000 BR OVC004"
    },
    {
      "icao": "EPKT",
      "alert": "OK",
      "vis_m": 5000,
      "fzfg": false,
      "metar_trigger": false,
      "taf_trigger": false,
      "metar": "METAR EPKT 211600Z 07007KT 5000 BR OVC003 05/05 Q1019",
      "taf": ""
    },
    {
      "icao": "EPWA",
      "alert": "OK",
      "vis_m": 9999,
      "fzfg": false,
      "metar_trigger": false,
      "taf_trigger": false,
      "metar": "METAR EPWA 211600Z 12003KT 090V150 9999 BKN017 03/M00 Q1022 NOSIG",
      "taf": "TAF EPWA 211430Z 2115/2215 08005KT 9999 BKN018"
    },
    {
      "icao": "EPWR",
      "alert": "OK",
      "vis_m": 5000,
      "fzfg": false,
      "metar_trigger": false,
      "taf_trigger": false,
      "metar": "METAR EPWR 211600Z 09007KT 5000 BR OVC004 06/05 Q1019",
      "taf": "TAF EPWR 211430Z 2115/2215 08007KT 5000 BR OVC006"
    },
    {
      "icao": "ESGG",
      "alert": "OK",
      "vis_m": 2500,
      "fzfg": false,
      "metar_trigger": false,
      "taf_trigger": false,
      "metar": "METAR ESGG 211620Z 07004KT 2500 BR OVC002 02/02 Q1022",
      "taf": "TAF ESGG 211430Z 2115/2215 VRB03KT 9999 OVC005"
    },
    {
      "icao": "ESKN",
      "alert": "OK",
      "vis_m": 9999,
      "fzfg": false,
      "metar_trigger": false,
      "taf_trigger": false,
      "metar": "METAR ESKN 211620Z 30007KT CAVOK 01/M00 Q1021",
      "taf": "TAF ESKN 211430Z 2115/2215 28006KT CAVOK"
    },
    {
      "icao": "ESMX",
      "alert": "OK",
      "vis_m": 800,
      "fzfg": false,
      "metar_trigger": false,
      "taf_trigger": false,
      "metar": "METAR ESMX 211620Z VRB03KT 0800 R01/0700N R19/0800N FG VV002 01/01 Q1022",
      "taf": "TAF ESMX 211430Z 2115/2120 34004KT 0300 FG OVC001"
    },
    {
      "icao": "EVRA",
      "alert": "OK",
      "vis_m": 9999,
      "fzfg": false,
      "metar_trigger": false,
      "taf_trigger": false,
      "metar": "METAR EVRA 211620Z 32010KT 280V340 9999 SCT025 SCT030 OVC034 06/03 Q1015 NOSIG",
      "taf": "TAF EVRA 211402Z 2115/2215 30010KT 9999 BKN030"
    },
    {
      "icao": "EYKA",
      "alert": "OK",
      "vis_m": 9999,
      "fzfg": false,
      "metar_trigger": false,
      "taf_trigger": false,
      "metar": "METAR EYKA 211620Z 27008KT 9999 OVC025 05/03 Q1018",
      "taf": "TAF EYKA 211110Z 2112/2212 28008KT 9000 BKN020"
    },
    {
      "icao": "EYVI",
      "alert": "OK",
      "vis_m": 9999,
      "fzfg": false,
      "metar_trigger": false,
      "taf_trigger": false,
      "metar": "METAR EYVI 211620Z 29008KT 9999 FEW010 BKN035 04/03 Q1016 TEMPO BKN010",
      "taf": "TAF EYVI 211100Z 2112/2212 29010KT 9000 BKN010 OVC015"
    },
    {
      "icao": "GCLP",
      "alert": "OK",
      "vis_m": 9999,
      "fzfg": false,
      "metar_trigger": false,
      "taf_trigger": false,
      "metar": "METAR GCLP 211600Z 01015KT 340V040 9999 BKN050 21/11 Q1018 NOSIG",
      "taf": "TAF GCLP 211400Z 2115/2215 36012KT 9999 FEW050 TX20/2214Z TN15/2206Z"
    },
    {
      "icao": "GCTS",
      "alert": "OK",
      "vis_m": 9999,
      "fzfg": false,
      "metar_trigger": false,
      "taf_trigger": false,
      "metar": "METAR GCTS 211600Z 19005KT 150V250 9999 BKN045 19/10 Q1019 NOSIG",
      "taf": "TAF GCTS 211400Z 2115/2215 19007KT 9999 SCT040 TX24/2214Z TN16/2206Z"
    },
    {
      "icao": "HECA",
      "alert": "OK",
      "vis_m": 9999,
      "fzfg": false,
      "metar_trigger": false,
      "taf_trigger": false,
      "metar": "METAR HECA 211600Z 20005KT CAVOK 19/01 Q1012 NOSIG",
      "taf": "TAF HECA 211100Z 2112/2218 19012KT CAVOK"
    },
    {
      "icao": "HEGN",
      "alert": "OK",
      "vis_m": 9999,
      "fzfg": false,
      "metar_trigger": false,
      "taf_trigger": false,
      "metar": "METAR HEGN 211600Z 13002KT CAVOK 22/11 Q1013 NOSIG",
      "taf": "TAF HEGN 211100Z 2112/2218 14008KT CAVOK"
    },
    {
      "icao": "HESH",
      "alert": "OK",
      "vis_m": 9999,
      "fzfg": false,
      "metar_trigger": false,
      "taf_trigger": false,
      "metar": "METAR HESH 211600Z 16005KT CAVOK 22/12 Q1013 NOSIG",
      "taf": "TAF HESH 211100Z 2112/2218 19008KT CAVOK"
    },
    {
      "icao": "HESX",
      "alert": "OK",
      "vis_m": 9999,
      "fzfg": false,
      "metar_trigger": false,
      "taf_trigger": false,
      "metar": "METAR HESX 211600Z 19007KT CAVOK 19/02 Q1011 NOSIG",
      "taf": "TAF HESX 211100Z 2112/2218 18009KT CAVOK"
    },
    {
      "icao": "LATI",
      "alert": "OK",
      "vis_m": 9999,
      "fzfg": false,
      "metar_trigger": false,
      "taf_trigger": false,
      "metar": "METAR LATI 211620Z 04003KT CAVOK 09/03 Q1014 NOSIG",
      "taf": "TAF LATI 211100Z 2112/2212 VRB05KT CAVOK TX17/2112Z TN01/2205Z"
    },
    {
      "icao": "LBSF",
      "alert": "OK",
      "vis_m": 9999,
      "fzfg": false,
      "metar_trigger": false,
      "taf_trigger": false,
      "metar": "METAR LBSF 211630Z AUTO 19004KT 170V240 9999 NCD 03/01 Q1017 TEMPO 5000 BR",
      "taf": "TAF LBSF 211100Z 2112/2212 VRB03KT 9999 SCT030"
    },
    {
      "icao": "LBWN",
      "alert": "OK",
      "vis_m": 9999,
      "fzfg": false,
      "metar_trigger": false,
      "taf_trigger": false,
      "metar": "METAR LBWN 211630Z AUTO 34007KT 9999 FEW009/// 07/07 Q1019 NOSIG",
      "taf": "TAF LBWN 211100Z 2112/2212 35008KT 7000 BKN015 OVC035"
    },
    {
      "icao": "LCLK",
      "alert": "OK",
      "vis_m": 9999,
      "fzfg": false,
      "metar_trigger": false,
      "taf_trigger": false,
      "metar": "METAR LCLK 211600Z 12009KT 9999 FEW030 SCT060 19/13 Q1013 NOSIG",
      "taf": "TAF LCLK 211130Z 2112/2212 12012KT 9999 FEW020 SCT030"
    },
    {
      "icao": "LDDU",
      "alert": "OK",
      "vis_m": 9999,
      "fzfg": false,
      "metar_trigger": false,
      "taf_trigger": false,
      "metar": "METAR LDDU 211600Z 33003KT 290V350 CAVOK 11/08 Q1014 NOSIG",
      "taf": "TAF LDDU 211125Z 2112/2212 VRB02KT CAVOK TX15/2112Z TN08/2203Z"
    },
    {
      "icao": "LDSP",
      "alert": "OK",
      "vis_m": 9999,
      "fzfg": false,
      "metar_trigger": false,
      "taf_trigger": false,
      "metar": "METAR LDSP 211600Z 33004KT 290V020 9999 FEW065 12/06 Q1014 NOSIG",
      "taf": "TAF LDSP 211125Z 2112/2212 VRB02KT CAVOK TX15/2113Z TN07/2205Z"
    },
    {
      "icao": "LDZA",
      "alert": "OK",
      "vis_m": 6000,
      "fzfg": false,
      "metar_trigger": false,
      "taf_trigger": false,
      "metar": "METAR LDZA 211600Z 02003KT 340V050 6000 OVC015 04/03 Q1019 TEMPO OVC008",
      "taf": "TAF LDZA 211125Z 2112/2212 VRB02KT 6000 OVC005 TX05/2211Z TN03/2206Z"
    },
    {
      "icao": "LEAL",
      "alert": "OK",
      "vis_m": 9999,
      "fzfg": false,
      "metar_trigger": false,
      "taf_trigger": false,
      "metar": "METAR LEAL 211600Z 31011KT 9999 FEW020 BKN050 14/06 Q1005 NOSIG",
      "taf": "TAF LEAL 211100Z 2112/2212 25008KT 9999 FEW020 SCT040 TX16/2113Z TN07/2207Z"
    },
    {
      "icao": "LEBL",
      "alert": "OK",
      "vis_m": 9999,
      "fzfg": false,
      "metar_trigger": false,
      "taf_trigger": false,
      "metar": "METAR LEBL 211600Z 23008KT 9999 FEW035 SCT045 14/10 Q1004 REDZ NOSIG",
      "taf": "TAF LEBL 211100Z 2112/2212 21012KT 9999 FEW020 TX16/2112Z TN07/2206Z"
    },
    {
      "icao": "LECH",
      "alert": "OK",
      "vis_m": 9999,
      "fzfg": false,
      "metar_trigger": false,
      "taf_trigger": false,
      "metar": "METAR LECH 211600Z AUTO 25011KT 210V280 CAVOK 12/01 Q1003",
      "taf": ""
    },
    {
      "icao": "LEMD",
      "alert": "OK",
      "vis_m": 9999,
      "fzfg": false,
      "metar_trigger": false,
      "taf_trigger": false,
      "metar": "METAR LEMD 211600Z 27015KT 9999 -RA FEW035TCU SCT050 BKN065 04/00 Q1005 NOSIG",
      "taf": ""
    },
    {
      "icao": "LEMG",
      "alert": "OK",
      "vis_m": 9999,
      "fzfg": false,
      "metar_trigger": false,
      "taf_trigger": false,
      "metar": "METAR LEMG 211600Z 29008KT 9999 -RA FEW015 BKN075 09/08 Q1007 RERA NOSIG",
      "taf": "TAF LEMG 211100Z 2112/2212 30008KT 9999 FEW012 SCT060 TX14/2114Z TN07/2206Z"
    },
    {
      "icao": "LERS",
      "alert": "OK",
      "vis_m": 9999,
      "fzfg": false,
      "metar_trigger": false,
      "taf_trigger": false,
      "metar": "METAR LERS 211600Z 36003KT 9999 FEW025 13/09 Q1004",
      "taf": "TAF LERS 211400Z 2115/2215 22008KT 9999 SCT025 TX12/2213Z TN06/2206Z"
    },
    {
      "icao": "LEVC",
      "alert": "OK",
      "vis_m": 9999,
      "fzfg": false,
      "metar_trigger": false,
      "taf_trigger": false,
      "metar": "METAR LEVC 211600Z 27010KT 240V300 CAVOK 12/04 Q1005 NOSIG",
      "taf": ""
    },
    {
      "icao": "LFLL",
      "alert": "OK",
      "vis_m": 9999,
      "fzfg": false,
      "metar_trigger": false,
      "taf_trigger": false,
      "metar": "METAR LFLL 211600Z 14007KT CAVOK 11/06 Q1005 NOSIG",
      "taf": "TAF LFLL 211100Z 2112/2218 14006KT CAVOK"
    },
    {
      "icao": "LFMN",
      "alert": "OK",
      "vis_m": 9999,
      "fzfg": false,
      "metar_trigger": false,
      "taf_trigger": false,
      "metar": "METAR LFMN 211600Z 09024KT 9999 FEW050 BKN083 15/10 Q1010 NOSIG",
      "taf": "TAF LFMN 211400Z 2115/2221 08020KT 9999 BKN040"
    },
    {
      "icao": "LFOB",
      "alert": "OK",
      "vis_m": 9999,
      "fzfg": false,
      "metar_trigger": false,
      "taf_trigger": false,
      "metar": "METAR LFOB 211600Z AUTO 10009KT 9999 -RADZ SCT049 OVC060 10/10 Q1005 NOSIG",
      "taf": "TAF LFOB 211100Z 2112/2212 08009KT 9999 OVC002"
    },
    {
      "icao": "LFPO",
      "alert": "OK",
      "vis_m": 9000,
      "fzfg": false,
      "metar_trigger": false,
      "taf_trigger": false,
      "metar": "METAR LFPO 211600Z AUTO 10011KT 9000 -RA FEW043/// BKN060/// OVC072/// ///TCU 11/10 Q1004 TEMPO 4500 -RA BECMG BKN040",
      "taf": ""
    },
    {
      "icao": "LFSB",
      "alert": "OK",
      "vis_m": 3500,
      "fzfg": false,
      "metar_trigger": false,
      "taf_trigger": false,
      "metar": "METAR LFSB 211600Z AUTO 36004KT 3500 BR VV/// 05/04 Q1008 TEMPO 0500 FG",
      "taf": ""
    },
    {
      "icao": "LGAV",
      "alert": "OK",
      "vis_m": 9999,
      "fzfg": false,
      "metar_trigger": false,
      "taf_trigger": false,
      "metar": "METAR LGAV 211620Z 03005KT 9999 SCT035 14/07 Q1016 NOSIG",
      "taf": "TAF LGAV 211100Z 2112/2212 02012KT 9999 SCT025 SCT070"
    },
    {
      "icao": "LGIR",
      "alert": "OK",
      "vis_m": 9999,
      "fzfg": false,
      "metar_trigger": false,
      "taf_trigger": false,
      "metar": "METAR LGIR 211620Z 03004KT 9999 SCT020 15/11 Q1013 NOSIG",
      "taf": "TAF LGIR 211100Z 2112/2212 33010KT 9999 SCT020 SCT080"
    },
    {
      "icao": "LGKR",
      "alert": "OK",
      "vis_m": 9999,
      "fzfg": false,
      "metar_trigger": false,
      "taf_trigger": false,
      "metar": "METAR LGKR 211620Z 00000KT 9999 FEW010 12/09 Q1013 NOSIG",
      "taf": "TAF LGKR 211100Z 2112/2212 VRB03KT 9999 SCT015"
    },
    {
      "icao": "LGRP",
      "alert": "OK",
      "vis_m": 9000,
      "fzfg": false,
      "metar_trigger": false,
      "taf_trigger": false,
      "metar": "METAR LGRP 211620Z VRB02KT 9000 -RA FEW012 FEW018TCU SCT020 15/13 Q1012 NOSIG",
      "taf": "TAF LGRP 211100Z 2112/2212 14010KT 9999 FEW018 SCT020"
    },
    {
      "icao": "LGTS",
      "alert": "OK",
      "vis_m": 9999,
      "fzfg": false,
      "metar_trigger": false,
      "taf_trigger": false,
      "metar": "METAR LGTS 211620Z 26006KT 9999 FEW025 12/09 Q1017 NOSIG",
      "taf": "TAF LGTS 211100Z 2112/2212 VRB03KT 9999 FEW020"
    },
    {
      "icao": "LGZA",
      "alert": "OK",
      "vis_m": 9000,
      "fzfg": false,
      "metar_trigger": false,
      "taf_trigger": false,
      "metar": "METAR LGZA 211620Z 00000KT 9000 FEW020 BKN080 14/12 Q1013",
      "taf": "TAF LGZA 211400Z 2115/2124 03010KT 9999 FEW020 BKN080"
    },
    {
      "icao": "LHBP",
      "alert": "OK",
      "vis_m": 3000,
      "fzfg": false,
      "metar_trigger": false,
      "taf_trigger": false,
      "metar": "METAR LHBP 211600Z VRB02KT 3000 -DZ BR OVC003 04/04 Q1020 NOSIG",
      "taf": "TAF LHBP 211115Z 2112/2212 21005KT 5000 BR OVC005"
    },
    {
      "icao": "LHDC",
      "alert": "OK",
      "vis_m": 8000,
      "fzfg": false,
      "metar_trigger": false,
      "taf_trigger": false,
      "metar": "METAR LHDC 211545Z AUTO 00000KT 8000 OVC014 05/04 Q1020",
      "taf": ""
    },
    {
      "icao": "LIBD",
      "alert": "OK",
      "vis_m": 9999,
      "fzfg": false,
      "metar_trigger": false,
      "taf_trigger": false,
      "metar": "METAR LIBD 211620Z VRB01KT CAVOK 10/10 Q1014",
      "taf": "TAF LIBD 211100Z 2112/2212 VRB04KT 9999 SCT040"
    },
    {
      "icao": "LICC",
      "alert": "OK",
      "vis_m": 8000,
      "fzfg": false,
      "metar_trigger": false,
      "taf_trigger": false,
      "metar": "METAR LICC 211620Z 02005KT 350V050 8000 RA FEW020 BKN070 14/13 Q1011",
      "taf": "TAF LICC 211100Z 2112/2212 07012KT 6000 RA BKN010 BKN060"
    },
    {
      "icao": "LICJ",
      "alert": "OK",
      "vis_m": 9999,
      "fzfg": false,
      "metar_trigger": false,
      "taf_trigger": false,
      "metar": "METAR LICJ 211620Z VRB02KT 9999 SCT045 15/12 Q1009",
      "taf": "TAF LICJ 211100Z 2112/2212 10010KT 9999 SCT040"
    },
    {
      "icao": "LIEO",
      "alert": "OK",
      "vis_m": 8000,
      "fzfg": false,
      "metar_trigger": false,
      "taf_trigger": false,
      "metar": "METAR LIEO 211620Z VRB02KT 8000 FEW015 BKN040 14/13 Q1009",
      "taf": "TAF LIEO 211100Z 2112/2212 10010KT 6000 RA BKN010"
    },
    {
      "icao": "LIMC",
      "alert": "OK",
      "vis_m": 9000,
      "fzfg": false,
      "metar_trigger": false,
      "taf_trigger": false,
      "metar": "METAR LIMC 211620Z 10006KT 9000 BKN030 09/06 Q1015 NOSIG",
      "taf": "TAF LIMC 211100Z 2112/2218 VRB03KT 7000 SCT040"
    },
    {
      "icao": "LIME",
      "alert": "OK",
      "vis_m": 9999,
      "fzfg": false,
      "metar_trigger": false,
      "taf_trigger": false,
      "metar": "METAR LIME 211620Z VRB02KT 9999 BKN030 08/06 Q1015 NOSIG",
      "taf": "TAF LIME 211100Z 2112/2212 VRB03KT 9000 SCT080"
    },
    {
      "icao": "LIPH",
      "alert": "OK",
      "vis_m": 9999,
      "fzfg": false,
      "metar_trigger": false,
      "taf_trigger": false,
      "metar": "METAR LIPH 211620Z 33002KT CAVOK 08/05 Q1015",
      "taf": "TAF LIPH 211100Z 2112/2212 VRB04KT 8000 FEW030"
    },
    {
      "icao": "LIPQ",
      "alert": "OK",
      "vis_m": 9999,
      "fzfg": false,
      "metar_trigger": false,
      "taf_trigger": false,
      "metar": "METAR LIPQ 211620Z AUTO 09003KT 020V120 9999 NCD 08/03 Q1015",
      "taf": "TAF LIPQ 211100Z 2112/2212 VRB04KT CAVOK"
    },
    {
      "icao": "LIPX",
      "alert": "OK",
      "vis_m": 9999,
      "fzfg": false,
      "metar_trigger": false,
      "taf_trigger": false,
      "metar": "METAR LIPX 211620Z 32003KT 9999 SCT050 07/06 Q1015",
      "taf": "TAF LIPX 211100Z 2112/2212 VRB03KT 9999 FEW040"
    },
    {
      "icao": "LIPY",
      "alert": "OK",
      "vis_m": 4500,
      "fzfg": false,
      "metar_trigger": false,
      "taf_trigger": false,
      "metar": "METAR LIPY 211550Z AUTO VRB01KT 4500 BR OVC056/// 11/10 Q1015",
      "taf": "TAF LIPY 211100Z 2112/2212 VRB05KT 4000 BR OVC020"
    },
    {
      "icao": "LIPZ",
      "alert": "OK",
      "vis_m": 9999,
      "fzfg": false,
      "metar_trigger": false,
      "taf_trigger": false,
      "metar": "METAR LIPZ 211620Z 33003KT CAVOK 09/06 Q1015 NOSIG",
      "taf": "TAF LIPZ 211100Z 2112/2218 02005KT 9999 FEW020"
    },
    {
      "icao": "LIRA",
      "alert": "OK",
      "vis_m": 9999,
      "fzfg": false,
      "metar_trigger": false,
      "taf_trigger": false,
      "metar": "METAR LIRA 211620Z 08004KT 040V110 CAVOK 13/06 Q1012",
      "taf": "TAF LIRA 211100Z 2112/2212 04005KT 9999 FEW060"
    },
    {
      "icao": "LIRN",
      "alert": "OK",
      "vis_m": 9999,
      "fzfg": false,
      "metar_trigger": false,
      "taf_trigger": false,
      "metar": "METAR LIRN 211620Z 07003KT CAVOK 14/07 Q1012 NOSIG",
      "taf": "TAF LIRN 211100Z 2112/2212 05006KT 9999 SCT060"
    },
    {
      "icao": "LLBG",
      "alert": "OK",
      "vis_m": 9999,
      "fzfg": false,
      "metar_trigger": false,
      "taf_trigger": false,
      "metar": "METAR LLBG 211620Z 08005KT CAVOK 17/08 Q1014 NOSIG",
      "taf": "TAF LLBG 211102Z 2112/2212 25010KT CAVOK"
    },
    {
      "icao": "LMML",
      "alert": "OK",
      "vis_m": 9999,
      "fzfg": false,
      "metar_trigger": false,
      "taf_trigger": false,
      "metar": "METAR LMML 211615Z VRB02KT 9999 FEW017 BKN045 14/13 Q1010 NOSIG",
      "taf": "TAF LMML 211100Z 2112/2212 24008KT 9999 FEW015 SCT020"
    },
    {
      "icao": "LOWW",
      "alert": "OK",
      "vis_m": 4600,
      "fzfg": false,
      "metar_trigger": false,
      "taf_trigger": false,
      "metar": "METAR LOWW 211620Z 14011KT 4600 BR FEW001 BKN002 02/02 Q1018 TEMPO 2500 BR",
      "taf": "TAF LOWW 211415Z 2115/2221 13013KT 6000 OVC003 TX04/2218Z TN02/2115Z"
    },
    {
      "icao": "LPFR",
      "alert": "OK",
      "vis_m": 9999,
      "fzfg": false,
      "metar_trigger": false,
      "taf_trigger": false,
      "metar": "METAR LPFR 211600Z 31009KT 9999 FEW015 SCT035 12/07 Q1009",
      "taf": "TAF LPFR 211100Z 2112/2212 27010KT 9999 FEW015 SCT030"
    },
    {
      "icao": "LPPR",
      "alert": "OK",
      "vis_m": 9999,
      "fzfg": false,
      "metar_trigger": false,
      "taf_trigger": false,
      "metar": "METAR LPPR 211600Z 05004KT 010V090 9999 FEW016 SCT040 07/06 Q1007 RERA",
      "taf": "TAF LPPR 211100Z 2112/2212 13010KT 9999 FEW012 SCT035"
    },
    {
      "icao": "LPPT",
      "alert": "OK",
      "vis_m": 9999,
      "fzfg": false,
      "metar_trigger": false,
      "taf_trigger": false,
      "metar": "METAR LPPT 211600Z 01004KT 9999 FEW020 FEW025TCU 09/05 Q1009",
      "taf": "TAF LPPT 211100Z 2112/2218 29007KT 9999 SCT035"
    },
    {
      "icao": "LQSA",
      "alert": "OK",
      "vis_m": 7000,
      "fzfg": false,
      "metar_trigger": false,
      "taf_trigger": false,
      "metar": "METAR LQSA 211600Z VRB02KT 7000 BKN012 OVC020 03/02 Q1017 NOSIG",
      "taf": "TAF LQSA 211100Z 2112/2212 VRB02KT 8000 BKN010 OVC020 TX04/2113Z TNM02/2205Z"
    },
    {
      "icao": "LQTZ",
      "alert": "OK",
      "vis_m": 6000,
      "fzfg": false,
      "metar_trigger": false,
      "taf_trigger": false,
      "metar": "METAR LQTZ 211600Z 00000KT 6000 OVC012 05/05 Q1018",
      "taf": "TAF LQTZ 211100Z 2112/2212 12005KT 4000 BR OVC006 TX06/2113Z TN02/2205Z"
    },
    {
      "icao": "LRCL",
      "alert": "OK",
      "vis_m": 6000,
      "fzfg": false,
      "metar_trigger": false,
      "taf_trigger": false,
      "metar": "METAR LRCL 211600Z 26002KT 6000 OVC011 05/04 Q1019",
      "taf": "TAF LRCL 211400Z 2115/2124 VRB04KT 5000 BR BKN010"
    },
    {
      "icao": "LRCV",
      "alert": "OK",
      "vis_m": 6000,
      "fzfg": false,
      "metar_trigger": false,
      "taf_trigger": false,
      "metar": "METAR LRCV 211600Z 22003KT 160V270 6000 OVC011 05/03 Q1020",
      "taf": "TAF LRCV 211400Z 2115/2124 VRB04KT 5000 BR BKN015"
    },
    {
      "icao": "LRIA",
      "alert": "OK",
      "vis_m": 9999,
      "fzfg": false,
      "metar_trigger": false,
      "taf_trigger": false,
      "metar": "METAR LRIA 211600Z 33005KT 9999 OVC004 02/02 Q1021",
      "taf": "TAF LRIA 211400Z 2115/2124 VRB03KT 5000 BR OVC002"
    },
    {
      "icao": "LROP",
      "alert": "OK",
      "vis_m": 6000,
      "fzfg": false,
      "metar_trigger": false,
      "taf_trigger": false,
      "metar": "METAR LROP 211600Z 21004KT 6000 BKN007 BKN018 06/05 Q1020 BECMG 3000 BR BKN005",
      "taf": "TAF LROP 211100Z 2112/2212 23006KT 5000 BR BKN010"
    },
    {
      "icao": "LRSB",
      "alert": "OK",
      "vis_m": 5000,
      "fzfg": false,
      "metar_trigger": false,
      "taf_trigger": false,
      "metar": "METAR LRSB 211600Z 07003KT 5000 MIFG BR NSC 01/01 Q1018",
      "taf": "TAF LRSB 211100Z 2112/2212 VRB04KT 3000 BR NSC"
    },
    {
      "icao": "LRTR",
      "alert": "OK",
      "vis_m": 5000,
      "fzfg": false,
      "metar_trigger": false,
      "taf_trigger": false,
      "metar": "METAR LRTR 211600Z 01006KT 5000 BR SCT004 BKN005 OVC007 05/05 Q1020",
      "taf": "TAF LRTR 211100Z 2112/2212 VRB04KT 3000 BR OVC002"
    },
    {
      "icao": "LTAF",
      "alert": "OK",
      "vis_m": 9999,
      "fzfg": false,
      "metar_trigger": false,
      "taf_trigger": false,
      "metar": "METAR LTAF 211620Z 05011KT CAVOK 14/M02 Q1015 NOSIG",
      "taf": "TAF LTAF 211040Z 2112/2212 05009KT CAVOK"
    },
    {
      "icao": "LTAI",
      "alert": "OK",
      "vis_m": 9999,
      "fzfg": false,
      "metar_trigger": false,
      "taf_trigger": false,
      "metar": "METAR LTAI 211620Z 35004KT 9999 SCT030 BKN100 13/10 Q1014 NOSIG",
      "taf": "TAF LTAI 211040Z 2112/2212 34009KT 4000 SHRA BR FEW015CB BKN025"
    },
    {
      "icao": "LTFM",
      "alert": "OK",
      "vis_m": 9999,
      "fzfg": false,
      "metar_trigger": false,
      "taf_trigger": false,
      "metar": "METAR LTFM 211620Z 05009KT 9999 SCT015 BKN028 12/09 Q1017 NOSIG",
      "taf": "TAF LTFM 211040Z 2112/2218 05008KT 9999 SCT015 BKN025"
    },
    {
      "icao": "LUBL",
      "alert": "OK",
      "vis_m": null,
      "fzfg": false,
      "metar_trigger": false,
      "taf_trigger": false,
      "metar": "",
      "taf": ""
    },
    {
      "icao": "LUKK",
      "alert": "OK",
      "vis_m": 7000,
      "fzfg": false,
      "metar_trigger": false,
      "taf_trigger": false,
      "metar": "METAR LUKK 211600Z VRB03KT 7000 OVC003 01/01 Q1020 TEMPO 1500 BR OVC003",
      "taf": ""
    },
    {
      "icao": "LWSK",
      "alert": "OK",
      "vis_m": 300,
      "fzfg": false,
      "metar_trigger": false,
      "taf_trigger": false,
      "metar": "METAR LWSK 211620Z 27002KT 0300 R34/0550N FG VV001 02/01 Q1019 NOSIG",
      "taf": "TAF LWSK 211410Z 2115/2215 VRB02KT 0600 FG OVC002"
    },
    {
      "icao": "LYBE",
      "alert": "OK",
      "vis_m": 4500,
      "fzfg": false,
      "metar_trigger": false,
      "taf_trigger": false,
      "metar": "METAR LYBE 211600Z 02004KT 4500 BR OVC005 04/03 Q1020 NOSIG",
      "taf": "TAF LYBE 211100Z 2112/2212 07006KT 5000 BR OVC008 TX05/2113Z TN02/2206Z"
    },
    {
      "icao": "LZIB",
      "alert": "OK",
      "vis_m": 2300,
      "fzfg": false,
      "metar_trigger": false,
      "taf_trigger": false,
      "metar": "METAR LZIB 211630Z 12004KT 2300 -DZ BR SCT001 OVC002 03/03 Q1019 NOSIG",
      "taf": ""
    },
    {
      "icao": "LZKZ",
      "alert": "OK",
      "vis_m": 7000,
      "fzfg": false,
      "metar_trigger": false,
      "taf_trigger": false,
      "metar": "METAR LZKZ 211630Z 15001KT 7000 FEW012 SCT034 04/04 Q1020 BECMG 2800 BR BKN009",
      "taf": ""
    },
    {
      "icao": "LZTT",
      "alert": "OK",
      "vis_m": 9999,
      "fzfg": false,
      "metar_trigger": false,
      "taf_trigger": false,
      "metar": "METAR LZTT 211630Z 28003KT 9999 FEW004 BKN012 02/01 Q1018 NOSIG",
      "taf": ""
    },
    {
      "icao": "OEJN",
      "alert": "OK",
      "vis_m": 9999,
      "fzfg": false,
      "metar_trigger": false,
      "taf_trigger": false,
      "metar": "METAR OEJN 211600Z 23004KT CAVOK 27/19 Q1012 NOSIG",
      "taf": "TAF OEJN 211100Z 2112/2218 27012KT 9999 FEW040"
    },
    {
      "icao": "OEMA",
      "alert": "OK",
      "vis_m": 9999,
      "fzfg": false,
      "metar_trigger": false,
      "taf_trigger": false,
      "metar": "METAR OEMA 211600Z 33004KT CAVOK 18/M03 Q1017 NOSIG",
      "taf": "TAF OEMA 211100Z 2112/2218 14012KT 9999 FEW040"
    },
    {
      "icao": "OERK",
      "alert": "OK",
      "vis_m": 9999,
      "fzfg": false,
      "metar_trigger": false,
      "taf_trigger": false,
      "metar": "METAR OERK 211600Z 09004KT CAVOK 13/00 Q1022 NOSIG",
      "taf": "TAF OERK 211100Z 2112/2218 10010KT 9999 FEW040"
    },
    {
      "icao": "OJAI",
      "alert": "OK",
      "vis_m": 5000,
      "fzfg": false,
      "metar_trigger": false,
      "taf_trigger": false,
      "metar": "METAR OJAI 211600Z 10004KT 5000 HZ NSC 12/02 Q1016 NOSIG",
      "taf": "TAF OJAI 211035Z 2112/2218 12010KT 5000 HZ NSC"
    },
    {
      "icao": "OKBK",
      "alert": "OK",
      "vis_m": null,
      "fzfg": false,
      "metar_trigger": false,
      "taf_trigger": false,
      "metar": "",
      "taf": ""
    },
    {
      "icao": "OMAA",
      "alert": "OK",
      "vis_m": 9999,
      "fzfg": false,
      "metar_trigger": false,
      "taf_trigger": false,
      "metar": "METAR OMAA 211600Z 34005KT CAVOK 20/12 Q1019 NOSIG",
      "taf": "TAF OMAA 211100Z 2112/2218 33008KT 8000 FEW040"
    },
    {
      "icao": "UAAA",
      "alert": "OK",
      "vis_m": 600,
      "fzfg": true,
      "metar_trigger": false,
      "taf_trigger": false,
      "metar": "METAR UAAA 211600Z 02002MPS 360V070 0600 R23L/1600N -SN FZFG BKN003 OVC020 M01/M01 Q1029 NOSIG RMK QBB100",
      "taf": "TAF UAAA 211102Z 2112/2212 19003MPS 3100 BR SCT011 BKN020CB OVC050 TXM00/2207Z TNM06/2201Z"
    },
    {
      "icao": "UCFM",
      "alert": "CRITICAL",
      "vis_m": 50,
      "fzfg": true,
      "metar_trigger": true,
      "taf_trigger": false,
      "metar": "METAR UCFM 211600Z 13002MPS 0050 0000E R25/0150N FZFG VV001 M01/M01 Q1029 NOSIG",
      "taf": ""
    },
    {
      "icao": "UDYZ",
      "alert": "OK",
      "vis_m": 3100,
      "fzfg": false,
      "metar_trigger": false,
      "taf_trigger": false,
      "metar": "METAR UDYZ 211600Z 03001KT 3100 BR NSC M01/M05 Q1023 NOSIG",
      "taf": "TAF UDYZ 211100Z 2112/2212 VRB04KT 6000 NSC"
    },
    {
      "icao": "UGTB",
      "alert": "OK",
      "vis_m": 5000,
      "fzfg": false,
      "metar_trigger": false,
      "taf_trigger": false,
      "metar": "METAR UGTB 211600Z VRB01KT 5000 BR OVC025 02/00 Q1024 NOSIG",
      "taf": "TAF UGTB 211100Z 2112/2212 VRB02KT 6000 SCT014 OVC025 TX09/2212Z TNM02/2203Z"
    },
    {
      "icao": "UKKK",
      "alert": "OK",
      "vis_m": null,
      "fzfg": false,
      "metar_trigger": false,
      "taf_trigger": false,
      "metar": "",
      "taf": ""
    },
    {
      "icao": "UTTT",
      "alert": "OK",
      "vis_m": null,
      "fzfg": false,
      "metar_trigger": false,
      "taf_trigger": false,
      "metar": "",
      "taf": ""
    }
  ]
}