{
  "ts_utc": "2026-02-01T02:37:30Z",
  "threshold_m": 150,
  "source": "stations_override.txt (ICAO list) + aviationweather.gov (METAR/TAF raw)",
  "station_count": 159,
  "stations": [
    {
      "icao": "BIKF",
      "alert": "OK",
      "vis_m": 9999,
      "fzfg": false,
      "metar_trigger": false,
      "taf_trigger": false,
      "metar": "METAR BIKF 010230Z 06009KT CAVOK M00/M03 Q0999",
      "taf": "TAF BIKF 010112Z 0103/0203 08013KT 9999 SCT035 TX04/0115Z TNM00/0103Z"
    },
    {
      "icao": "BKPR",
      "alert": "OK",
      "vis_m": 9999,
      "fzfg": false,
      "metar_trigger": false,
      "taf_trigger": false,
      "metar": "METAR BKPR 010230Z 36010KT 9999 BKN060 04/03 Q1005 NOSIG",
      "taf": "TAF BKPR 312330Z 0100/0124 01008KT 9999 SCT012 BKN040"
    },
    {
      "icao": "EBCI",
      "alert": "OK",
      "vis_m": 9999,
      "fzfg": false,
      "metar_trigger": false,
      "taf_trigger": false,
      "metar": "METAR EBCI 010220Z 16005KT 9999 SCT012 BKN045 05/04 Q1006 TEMPO BKN012",
      "taf": "TAF EBCI 312311Z 0100/0206 18006KT 9999 SCT012 BKN018"
    },
    {
      "icao": "EDDB",
      "alert": "OK",
      "vis_m": 9999,
      "fzfg": false,
      "metar_trigger": false,
      "taf_trigger": false,
      "metar": "METAR EDDB 010220Z AUTO 09011KT 9999 BKN022 OVC030 M07/M10 Q1015 NOSIG",
      "taf": "TAF EDDB 312300Z 0100/0124 08011KT 9999 BKN025"
    },
    {
      "icao": "EDDH",
      "alert": "OK",
      "vis_m": 9999,
      "fzfg": false,
      "metar_trigger": false,
      "taf_trigger": false,
      "metar": "METAR EDDH 010220Z AUTO 11011KT 9999 FEW014 OVC036 M05/M08 Q1013 TEMPO BKN014",
      "taf": "TAF EDDH 312300Z 0100/0206 11012KT 9999 BKN013"
    },
    {
      "icao": "EDDK",
      "alert": "OK",
      "vis_m": 9999,
      "fzfg": false,
      "metar_trigger": false,
      "taf_trigger": false,
      "metar": "METAR EDDK 010220Z AUTO 12007KT 080V150 9999 OVC045 04/02 Q1008 NOSIG",
      "taf": "TAF EDDK 312300Z 0100/0206 12009KT 9999 BKN020"
    },
    {
      "icao": "EDDN",
      "alert": "OK",
      "vis_m": 9999,
      "fzfg": false,
      "metar_trigger": false,
      "taf_trigger": false,
      "metar": "METAR EDDN 010220Z AUTO 10005KT 9999 OVC028 01/M01 Q1010",
      "taf": "TAF EDDN 312300Z 0100/0124 11006KT 9000 SCT015 OVC030"
    },
    {
      "icao": "EDDS",
      "alert": "OK",
      "vis_m": 9999,
      "fzfg": false,
      "metar_trigger": false,
      "taf_trigger": false,
      "metar": "METAR EDDS 010220Z AUTO 16003KT 080V180 9999 SCT009 01/M01 Q1008",
      "taf": "TAF EDDS 312300Z 0100/0124 VRB02KT 6000 SCT007"
    },
    {
      "icao": "EDFH",
      "alert": "OK",
      "vis_m": 400,
      "fzfg": false,
      "metar_trigger": false,
      "taf_trigger": false,
      "metar": "METAR EDFH 010220Z 14012KT 0400 R21/0450N FG VV/// 01/01 Q1007",
      "taf": "TAF EDFH 312300Z 0100/0124 14012KT 0350 FG OVC003"
    },
    {
      "icao": "EDJA",
      "alert": "OK",
      "vis_m": 7000,
      "fzfg": false,
      "metar_trigger": false,
      "taf_trigger": false,
      "metar": "METAR EDJA 010220Z AUTO 28003KT 7000 // OVC004/// 00/M00 Q1008",
      "taf": "TAF EDJA 010200Z 0103/0112 20003KT 6000 OVC003"
    },
    {
      "icao": "EDLW",
      "alert": "OK",
      "vis_m": 9999,
      "fzfg": false,
      "metar_trigger": false,
      "taf_trigger": false,
      "metar": "METAR EDLW 010220Z AUTO 16010KT 9999 // BKN027/// OVC052/// 05/02 Q1007",
      "taf": "TAF EDLW 311700Z 3118/0118 12005KT 9999 BKN025"
    },
    {
      "icao": "EDNY",
      "alert": "OK",
      "vis_m": 7000,
      "fzfg": false,
      "metar_trigger": false,
      "taf_trigger": false,
      "metar": "METAR EDNY 010220Z AUTO 07003KT 7000 // OVC010/// 02/01 Q1009",
      "taf": "TAF EDNY 010200Z 0103/0112 VRB03KT 9999 OVC010"
    },
    {
      "icao": "EDSB",
      "alert": "OK",
      "vis_m": 2900,
      "fzfg": false,
      "metar_trigger": false,
      "taf_trigger": false,
      "metar": "METAR EDSB 010220Z AUTO 00000KT 2900 // OVC003/// 02/02 Q1009",
      "taf": "TAF EDSB 312300Z 0100/0124 VRB02KT 6000 SCT007"
    },
    {
      "icao": "EETN",
      "alert": "OK",
      "vis_m": 9999,
      "fzfg": false,
      "metar_trigger": false,
      "taf_trigger": false,
      "metar": "METAR EETN 010220Z 12002KT 9999 FEW006 M21/M23 Q1034",
      "taf": "TAF EETN 312330Z 0100/0124 07005KT 9999 SCT002 SCT014"
    },
    {
      "icao": "EFTU",
      "alert": "OK",
      "vis_m": 9999,
      "fzfg": false,
      "metar_trigger": false,
      "taf_trigger": false,
      "metar": "METAR EFTU 010220Z AUTO 09005KT CAVOK M18/M20 Q1033",
      "taf": "TAF EFTU 312329Z 0100/0124 10005KT CAVOK"
    },
    {
      "icao": "EGBB",
      "alert": "OK",
      "vis_m": 6000,
      "fzfg": false,
      "metar_trigger": false,
      "taf_trigger": false,
      "metar": "METAR EGBB 010220Z 20006KT 170V230 6000 BKN004 06/05 Q1000",
      "taf": "TAF EGBB 312300Z 0100/0124 18006KT 9999 FEW030"
    },
    {
      "icao": "EGGP",
      "alert": "OK",
      "vis_m": 9999,
      "fzfg": false,
      "metar_trigger": false,
      "taf_trigger": false,
      "metar": "METAR EGGP 010220Z AUTO 19003KT 9999 BKN037/// OVC045/// 05/05 Q0999",
      "taf": "TAF EGGP 312305Z 0100/0124 16003KT 9999 BKN030"
    },
    {
      "icao": "EGGW",
      "alert": "OK",
      "vis_m": 9999,
      "fzfg": false,
      "metar_trigger": false,
      "taf_trigger": false,
      "metar": "METAR EGGW 010220Z AUTO 18005KT 150V210 9999 BKN005 BKN008 OVC032 06/06 Q1001",
      "taf": "TAF EGGW 312259Z 0100/0124 17007KT 9999 FEW008 SCT045"
    },
    {
      "icao": "EGKK",
      "alert": "OK",
      "vis_m": 9999,
      "fzfg": false,
      "metar_trigger": false,
      "taf_trigger": false,
      "metar": "METAR EGKK 010220Z VRB01KT 9999 BKN037 07/07 Q1002",
      "taf": "TAF EGKK 312251Z 0100/0206 18004KT 9999 SCT012"
    },
    {
      "icao": "EGNM",
      "alert": "OK",
      "vis_m": null,
      "fzfg": false,
      "metar_trigger": false,
      "taf_trigger": false,
      "metar": "",
      "taf": "TAF EGNM 311705Z 3118/0118 14010KT 9999 SCT015"
    },
    {
      "icao": "EGPD",
      "alert": "OK",
      "vis_m": 7000,
      "fzfg": false,
      "metar_trigger": false,
      "taf_trigger": false,
      "metar": "METAR EGPD 010220Z AUTO 12012KT 7000 OVC004 07/06 Q1000 TEMPO BKN005",
      "taf": ""
    },
    {
      "icao": "EGPF",
      "alert": "OK",
      "vis_m": 9999,
      "fzfg": false,
      "metar_trigger": false,
      "taf_trigger": false,
      "metar": "METAR EGPF 010220Z AUTO 07007KT 9999 BKN020/// BKN042/// //////TCU 06/05 Q0997",
      "taf": "TAF EGPF 312258Z 0100/0124 08010KT 9999 BKN025"
    },
    {
      "icao": "EHBK",
      "alert": "OK",
      "vis_m": 9999,
      "fzfg": false,
      "metar_trigger": false,
      "taf_trigger": false,
      "metar": "METAR EHBK 010225Z AUTO 19004KT 9999 NCD 03/02 Q1007",
      "taf": "TAF EHBK 312316Z 0100/0206 16005KT CAVOK"
    },
    {
      "icao": "EHEH",
      "alert": "OK",
      "vis_m": null,
      "fzfg": false,
      "metar_trigger": false,
      "taf_trigger": false,
      "metar": "",
      "taf": "TAF EHEH 312347Z 0100/0206 14004KT 2500 BR MIFG NSC"
    },
    {
      "icao": "EKBI",
      "alert": "OK",
      "vis_m": 9999,
      "fzfg": false,
      "metar_trigger": false,
      "taf_trigger": false,
      "metar": "METAR EKBI 010220Z AUTO 10015KT 9999 FEW015/// OVC031/// M04/M08 Q1014",
      "taf": "TAF EKBI 010227Z 0103/0203 10015KT 9999 BKN015"
    },
    {
      "icao": "EKCH",
      "alert": "OK",
      "vis_m": 9999,
      "fzfg": false,
      "metar_trigger": false,
      "taf_trigger": false,
      "metar": "METAR EKCH 010220Z AUTO 11016KT 9999 OVC140/// M03/M10 Q1020 TEMPO 11020G30KT",
      "taf": "TAF EKCH 010227Z 0103/0203 12020KT 9999 FEW025"
    },
    {
      "icao": "ENAL",
      "alert": "OK",
      "vis_m": 9999,
      "fzfg": false,
      "metar_trigger": false,
      "taf_trigger": false,
      "metar": "METAR ENAL 010220Z AUTO 14013KT 9999 BKN048/// 01/M09 Q1016",
      "taf": "TAF ENAL 010200Z 0103/0112 14012KT 9999 BKN060"
    },
    {
      "icao": "ENBR",
      "alert": "OK",
      "vis_m": 9999,
      "fzfg": false,
      "metar_trigger": false,
      "taf_trigger": false,
      "metar": "METAR ENBR 010220Z AUTO 08006KT 9999 NCD M01/M11 Q1015 RMK WIND 1200FT 11010KT",
      "taf": "TAF ENBR 312300Z 0100/0124 09005KT CAVOK"
    },
    {
      "icao": "ENGM",
      "alert": "OK",
      "vis_m": 9999,
      "fzfg": false,
      "metar_trigger": false,
      "taf_trigger": false,
      "metar": "METAR ENGM 010220Z 36003KT 9999 OVC023 M13/M15 Q1024",
      "taf": "TAF ENGM 312300Z 0100/0124 03005KT CAVOK"
    },
    {
      "icao": "ENHD",
      "alert": "OK",
      "vis_m": 9999,
      "fzfg": false,
      "metar_trigger": false,
      "taf_trigger": false,
      "metar": "METAR ENHD 010220Z AUTO 11016KT 9999 NCD M01/M09 Q1015",
      "taf": "TAF ENHD 010200Z 0103/0112 11018KT CAVOK"
    },
    {
      "icao": "ENTC",
      "alert": "OK",
      "vis_m": 9999,
      "fzfg": false,
      "metar_trigger": false,
      "taf_trigger": false,
      "metar": "METAR ENTC 010220Z AUTO 19019KT 9999 NCD M06/M14 Q1015 RMK WIND 2600FT 19018KT",
      "taf": "TAF ENTC 312300Z 0100/0124 19018KT 9999 BKN050"
    },
    {
      "icao": "ENTO",
      "alert": "OK",
      "vis_m": 9999,
      "fzfg": false,
      "metar_trigger": false,
      "taf_trigger": false,
      "metar": "METAR ENTO 010220Z AUTO 14010KT 9999 BKN030/// M04/M09 Q1023",
      "taf": "TAF ENTO 312300Z 0100/0124 09005KT CAVOK"
    },
    {
      "icao": "ENVA",
      "alert": "OK",
      "vis_m": 9999,
      "fzfg": false,
      "metar_trigger": false,
      "taf_trigger": false,
      "metar": "METAR ENVA 010220Z AUTO 16014KT 9999 NCD M03/M11 Q1018 RMK WIND 670FT 17020G31KT",
      "taf": "TAF ENVA 312300Z 0100/0124 14012KT CAVOK"
    },
    {
      "icao": "ENZV",
      "alert": "OK",
      "vis_m": 9999,
      "fzfg": false,
      "metar_trigger": false,
      "taf_trigger": false,
      "metar": "METAR ENZV 010220Z AUTO 12017KT 090V150 9999 FEW039/// M01/M09 Q1015",
      "taf": "TAF ENZV 312300Z 0100/0124 10012KT CAVOK"
    },
    {
      "icao": "EPGD",
      "alert": "OK",
      "vis_m": 9999,
      "fzfg": false,
      "metar_trigger": false,
      "taf_trigger": false,
      "metar": "METAR EPGD 010230Z 12012KT CAVOK M15/M19 Q1024",
      "taf": "TAF EPGD 312330Z 0100/0124 10010KT CAVOK"
    },
    {
      "icao": "EPKK",
      "alert": "OK",
      "vis_m": 9999,
      "fzfg": false,
      "metar_trigger": false,
      "taf_trigger": false,
      "metar": "METAR EPKK 010230Z 07012KT 9999 -SN FEW009 OVC015 M10/M13 Q1016",
      "taf": "TAF EPKK 010230Z 0103/0203 07014KT 9999 OVC015"
    },
    {
      "icao": "EPKT",
      "alert": "OK",
      "vis_m": 9999,
      "fzfg": false,
      "metar_trigger": false,
      "taf_trigger": false,
      "metar": "METAR EPKT 010230Z 07010KT 9999 -SN SCT005 OVC012 M10/M13 Q1015",
      "taf": "TAF EPKT 312330Z 0100/0124 07010KT 9999 FEW018 BKN023"
    },
    {
      "icao": "EPLB",
      "alert": "OK",
      "vis_m": 9999,
      "fzfg": false,
      "metar_trigger": false,
      "taf_trigger": false,
      "metar": "METAR EPLB 010230Z 06007KT CAVOK M18/M19 Q1021",
      "taf": "TAF EPLB 312330Z 0100/0124 09010KT CAVOK"
    },
    {
      "icao": "EPMO",
      "alert": "OK",
      "vis_m": 9999,
      "fzfg": false,
      "metar_trigger": false,
      "taf_trigger": false,
      "metar": "METAR EPMO 010230Z 08011KT CAVOK M16/M18 Q1022",
      "taf": "TAF EPMO 312330Z 0100/0124 09011KT CAVOK"
    },
    {
      "icao": "EPPO",
      "alert": "OK",
      "vis_m": 9999,
      "fzfg": false,
      "metar_trigger": false,
      "taf_trigger": false,
      "metar": "METAR EPPO 010230Z 11011KT CAVOK M12/M17 Q1019",
      "taf": "TAF EPPO 312330Z 0100/0124 09012KT CAVOK"
    },
    {
      "icao": "EPRA",
      "alert": "OK",
      "vis_m": 9999,
      "fzfg": false,
      "metar_trigger": false,
      "taf_trigger": false,
      "metar": "METAR EPRA 010230Z 07010KT CAVOK M18/M21 Q1020",
      "taf": "TAF EPRA 010230Z 0103/0112 07008KT CAVOK"
    },
    {
      "icao": "EPRZ",
      "alert": "OK",
      "vis_m": 9999,
      "fzfg": false,
      "metar_trigger": false,
      "taf_trigger": false,
      "metar": "METAR EPRZ 010230Z 06009KT CAVOK M14/M17 Q1018",
      "taf": "TAF EPRZ 312330Z 0100/0124 07014KT 9999 OVC016"
    },
    {
      "icao": "EPSC",
      "alert": "OK",
      "vis_m": 9999,
      "fzfg": false,
      "metar_trigger": false,
      "taf_trigger": false,
      "metar": "METAR EPSC 010230Z 09010KT CAVOK M11/M15 Q1019",
      "taf": "TAF EPSC 312330Z 0100/0124 09012KT CAVOK"
    },
    {
      "icao": "EPSY",
      "alert": "OK",
      "vis_m": 9999,
      "fzfg": false,
      "metar_trigger": false,
      "taf_trigger": false,
      "metar": "METAR EPSY 010230Z 05004KT CAVOK M18/M19 Q1024",
      "taf": "TAF EPSY 010230Z 0103/0112 06005KT CAVOK"
    },
    {
      "icao": "EPWA",
      "alert": "OK",
      "vis_m": 9999,
      "fzfg": false,
      "metar_trigger": false,
      "taf_trigger": false,
      "metar": "METAR EPWA 010230Z 07009KT CAVOK M14/M17 Q1022 NOSIG",
      "taf": "TAF EPWA 010230Z 0103/0203 08010KT CAVOK"
    },
    {
      "icao": "EPWR",
      "alert": "OK",
      "vis_m": 9999,
      "fzfg": false,
      "metar_trigger": false,
      "taf_trigger": false,
      "metar": "METAR EPWR 010230Z 09010KT 9999 FEW015 M10/M13 Q1017",
      "taf": "TAF EPWR 010230Z 0103/0203 09012KT 9999 BKN020"
    },
    {
      "icao": "ESGG",
      "alert": "OK",
      "vis_m": 9999,
      "fzfg": false,
      "metar_trigger": false,
      "taf_trigger": false,
      "metar": "METAR ESGG 010220Z 10009KT CAVOK M06/M11 Q1021",
      "taf": "TAF ESGG 010230Z 0103/0203 11010KT CAVOK"
    },
    {
      "icao": "ESKN",
      "alert": "OK",
      "vis_m": 9999,
      "fzfg": false,
      "metar_trigger": false,
      "taf_trigger": false,
      "metar": "METAR ESKN 010150Z 11009KT 9999 -SN BKN021 M05/M09 Q1028",
      "taf": "TAF ESKN 010230Z 0103/0203 11010KT 9999 BKN020"
    },
    {
      "icao": "ESMS",
      "alert": "OK",
      "vis_m": 9000,
      "fzfg": false,
      "metar_trigger": false,
      "taf_trigger": false,
      "metar": "METAR ESMS 010220Z AUTO 11016KT 9000 NCD M04/M12 Q1019",
      "taf": "TAF ESMS 010227Z 0103/0203 11018KT 9999 FEW030"
    },
    {
      "icao": "ESSA",
      "alert": "OK",
      "vis_m": 9999,
      "fzfg": false,
      "metar_trigger": false,
      "taf_trigger": false,
      "metar": "METAR ESSA 010220Z 08005KT 9999 OVC024 M06/M10 Q1029 NOSIG",
      "taf": "TAF ESSA 010230Z 0103/0203 13008KT 9999 BKN025"
    },
    {
      "icao": "EYKA",
      "alert": "OK",
      "vis_m": 9999,
      "fzfg": false,
      "metar_trigger": false,
      "taf_trigger": false,
      "metar": "METAR EYKA 010220Z VRB02KT CAVOK M22/M24 Q1028",
      "taf": "TAF EYKA 312300Z 0100/0124 VRB04KT 8000 NSC"
    },
    {
      "icao": "EYPA",
      "alert": "OK",
      "vis_m": 9999,
      "fzfg": false,
      "metar_trigger": false,
      "taf_trigger": false,
      "metar": "METAR EYPA 010220Z 09006KT CAVOK M18/M21 Q1029",
      "taf": "TAF EYPA 312300Z 0100/0124 10008KT 6000 NSC"
    },
    {
      "icao": "EYVI",
      "alert": "OK",
      "vis_m": 9999,
      "fzfg": false,
      "metar_trigger": false,
      "taf_trigger": false,
      "metar": "METAR EYVI 010220Z 04008KT 9999 SCT004 M21/M24 Q1025 BECMG BKN002",
      "taf": "TAF EYVI 312301Z 0100/0124 VRB04KT 8000 NSC"
    },
    {
      "icao": "GCFV",
      "alert": "OK",
      "vis_m": 9999,
      "fzfg": false,
      "metar_trigger": false,
      "taf_trigger": false,
      "metar": "METAR GCFV 010230Z AUTO 32005KT 9999 FEW014 15/12 Q1022",
      "taf": "TAF GCFV 312000Z 3121/0121 33006KT 9999 FEW015 TX22/0114Z TN15/0106Z"
    },
    {
      "icao": "GCLP",
      "alert": "OK",
      "vis_m": 9999,
      "fzfg": false,
      "metar_trigger": false,
      "taf_trigger": false,
      "metar": "METAR GCLP 010230Z 01016KT 9999 FEW020 17/13 Q1022 NOSIG",
      "taf": "TAF GCLP 312000Z 3121/0121 36014KT 9999 SCT015 TX21/0114Z TN16/0106Z"
    },
    {
      "icao": "GCTS",
      "alert": "OK",
      "vis_m": 9999,
      "fzfg": false,
      "metar_trigger": false,
      "taf_trigger": false,
      "metar": "METAR GCTS 010230Z 02006KT 9999 FEW020 16/12 Q1022 NOSIG",
      "taf": "TAF GCTS 312000Z 3121/0121 36005KT 9999 SCT020 TX23/0114Z TN15/0106Z"
    },
    {
      "icao": "GMAD",
      "alert": "OK",
      "vis_m": 5000,
      "fzfg": false,
      "metar_trigger": false,
      "taf_trigger": false,
      "metar": "METAR GMAD 010230Z 10003KT 5000 BKN008 15/15 Q1019 NOSIG",
      "taf": "TAF GMAD 312300Z 0100/0206 22005KT 6000 BKN006 SCT020"
    },
    {
      "icao": "GMMN",
      "alert": "OK",
      "vis_m": 6000,
      "fzfg": false,
      "metar_trigger": false,
      "taf_trigger": false,
      "metar": "METAR GMMN 010230Z VRB02KT 6000 FEW006 09/09 Q1021 NOSIG",
      "taf": "TAF GMMN 312300Z 0100/0206 14005KT 8000 NSC"
    },
    {
      "icao": "GMMX",
      "alert": "OK",
      "vis_m": 9999,
      "fzfg": false,
      "metar_trigger": false,
      "taf_trigger": false,
      "metar": "METAR GMMX 010230Z 10003KT CAVOK 12/10 Q1021 NOSIG",
      "taf": "TAF GMMX 312300Z 0100/0206 24006KT 8000 SCT023"
    },
    {
      "icao": "HEGN",
      "alert": "OK",
      "vis_m": 9999,
      "fzfg": false,
      "metar_trigger": false,
      "taf_trigger": false,
      "metar": "METAR HEGN 010200Z 28002KT CAVOK 15/06 Q1014 NOSIG",
      "taf": "TAF HEGN 312300Z 0100/0206 24008KT CAVOK"
    },
    {
      "icao": "HEMA",
      "alert": "OK",
      "vis_m": 9999,
      "fzfg": false,
      "metar_trigger": false,
      "taf_trigger": false,
      "metar": "METAR HEMA 010200Z 25006KT CAVOK 16/06 Q1014 NOSIG",
      "taf": "TAF HEMA 312300Z 0100/0206 23008KT CAVOK"
    },
    {
      "icao": "HESH",
      "alert": "OK",
      "vis_m": 9999,
      "fzfg": false,
      "metar_trigger": false,
      "taf_trigger": false,
      "metar": "METAR HESH 010200Z 26004KT CAVOK 18/16 Q1015 NOSIG",
      "taf": "TAF HESH 312300Z 0100/0206 29008KT CAVOK"
    },
    {
      "icao": "HESX",
      "alert": "OK",
      "vis_m": 9999,
      "fzfg": false,
      "metar_trigger": false,
      "taf_trigger": false,
      "metar": "METAR HESX 010200Z 20009KT CAVOK 18/M02 Q1011 NOSIG",
      "taf": "TAF HESX 312300Z 0100/0206 20009KT CAVOK"
    },
    {
      "icao": "LATI",
      "alert": "OK",
      "vis_m": 8000,
      "fzfg": false,
      "metar_trigger": false,
      "taf_trigger": false,
      "metar": "METAR LATI 010220Z VRB01KT 8000 NSC 04/02 Q0999 NOSIG",
      "taf": "TAF LATI 312300Z 0100/0124 VRB05KT CAVOK TX14/0112Z TN04/0105Z"
    },
    {
      "icao": "LBPD",
      "alert": "OK",
      "vis_m": 7000,
      "fzfg": false,
      "metar_trigger": false,
      "taf_trigger": false,
      "metar": "METAR LBPD 010230Z AUTO 12011KT 7000 OVC005/// 04/04 Q1010",
      "taf": "TAF LBPD 312300Z 0100/0124 10012KT 8000 SCT010 OVC015"
    },
    {
      "icao": "LBSF",
      "alert": "OK",
      "vis_m": 9999,
      "fzfg": false,
      "metar_trigger": false,
      "taf_trigger": false,
      "metar": "METAR LBSF 010230Z AUTO 11010KT 9999 SCT015/// OVC019/// 04/02 Q1008 NOSIG",
      "taf": "TAF LBSF 312300Z 0100/0124 07010KT 9999 SCT010 BKN020 OVC040"
    },
    {
      "icao": "LBWN",
      "alert": "OK",
      "vis_m": 9999,
      "fzfg": false,
      "metar_trigger": false,
      "taf_trigger": false,
      "metar": "METAR LBWN 010230Z AUTO 07005KT 9999 OVC015/// M01/M02 Q1014 NOSIG",
      "taf": "TAF LBWN 312300Z 0100/0124 03010KT 8000 BKN020 OVC035"
    },
    {
      "icao": "LCLK",
      "alert": "OK",
      "vis_m": 9999,
      "fzfg": false,
      "metar_trigger": false,
      "taf_trigger": false,
      "metar": "METAR LCLK 010230Z 29003KT CAVOK 12/11 Q1011 NOSIG",
      "taf": ""
    },
    {
      "icao": "LCPH",
      "alert": "OK",
      "vis_m": 9999,
      "fzfg": false,
      "metar_trigger": false,
      "taf_trigger": false,
      "metar": "METAR LCPH 010230Z AUTO 01004KT 9999 NCD 12/11 Q1012 NOSIG",
      "taf": ""
    },
    {
      "icao": "LEAL",
      "alert": "OK",
      "vis_m": 9999,
      "fzfg": false,
      "metar_trigger": false,
      "taf_trigger": false,
      "metar": "METAR LEAL 010230Z VRB07KT CAVOK 13/03 Q1017 NOSIG",
      "taf": "TAF LEAL 312300Z 0100/0124 24007KT 9999 FEW030 TX16/0113Z TN10/0106Z"
    },
    {
      "icao": "LEBB",
      "alert": "OK",
      "vis_m": 9999,
      "fzfg": false,
      "metar_trigger": false,
      "taf_trigger": false,
      "metar": "METAR LEBB 010230Z AUTO 09004KT 060V120 CAVOK 08/06 Q1013",
      "taf": "TAF LEBB 312300Z 0100/0124 14009KT 9999 BKN040 TX13/0115Z TN08/0106Z"
    },
    {
      "icao": "LEBL",
      "alert": "OK",
      "vis_m": 9999,
      "fzfg": false,
      "metar_trigger": false,
      "taf_trigger": false,
      "metar": "METAR LEBL 010230Z 33014KT 300V360 CAVOK 10/04 Q1010 NOSIG",
      "taf": "TAF LEBL 312300Z 0100/0124 32009KT CAVOK TX14/0112Z TN07/0106Z"
    },
    {
      "icao": "LECH",
      "alert": "OK",
      "vis_m": 9999,
      "fzfg": false,
      "metar_trigger": false,
      "taf_trigger": false,
      "metar": "METAR LECH 010230Z AUTO 23003KT 170V300 CAVOK 09/M01 Q1014",
      "taf": ""
    },
    {
      "icao": "LEMD",
      "alert": "OK",
      "vis_m": 9999,
      "fzfg": false,
      "metar_trigger": false,
      "taf_trigger": false,
      "metar": "METAR LEMD 010230Z 13003KT 090V170 CAVOK 05/05 Q1016 NOSIG",
      "taf": "TAF LEMD 312300Z 0100/0206 24007KT CAVOK TX09/0204Z TN03/0104Z"
    },
    {
      "icao": "LEMG",
      "alert": "OK",
      "vis_m": 9999,
      "fzfg": false,
      "metar_trigger": false,
      "taf_trigger": false,
      "metar": "METAR LEMG 010230Z 28009KT 250V310 CAVOK 13/06 Q1020 NOSIG",
      "taf": "TAF LEMG 312300Z 0100/0124 28006KT 9999 FEW045 TX19/0115Z TN12/0106Z"
    },
    {
      "icao": "LEVC",
      "alert": "OK",
      "vis_m": 9999,
      "fzfg": false,
      "metar_trigger": false,
      "taf_trigger": false,
      "metar": "METAR LEVC 010230Z 22005KT 180V260 CAVOK 10/03 Q1015 NOSIG",
      "taf": "TAF LEVC 312300Z 0100/0124 27008KT CAVOK TX18/0113Z TN10/0106Z"
    },
    {
      "icao": "LEXJ",
      "alert": "OK",
      "vis_m": 9999,
      "fzfg": false,
      "metar_trigger": false,
      "taf_trigger": false,
      "metar": "METAR LEXJ 010230Z AUTO 19001KT 9999 3400E BKN078 09/06 Q1013",
      "taf": "TAF LEXJ 010200Z 0103/0203 22007KT 9999 SCT040 TX14/0115Z TN10/0103Z"
    },
    {
      "icao": "LEZG",
      "alert": "OK",
      "vis_m": 9999,
      "fzfg": false,
      "metar_trigger": false,
      "taf_trigger": false,
      "metar": "METAR LEZG 010230Z VRB02KT CAVOK 05/04 Q1014 NOSIG",
      "taf": "TAF LEZG 312300Z 0100/0124 24007KT 9999 FEW050 TX14/0114Z TN06/0106Z"
    },
    {
      "icao": "LEZL",
      "alert": "OK",
      "vis_m": 6000,
      "fzfg": false,
      "metar_trigger": false,
      "taf_trigger": false,
      "metar": "METAR LEZL 010230Z AUTO 22004KT 6000 NSC 13/12 Q1020",
      "taf": "TAF LEZL 010200Z 0103/0203 VRB02KT 9999 SCT020 TX17/0115Z TN10/0107Z"
    },
    {
      "icao": "LFBD",
      "alert": "OK",
      "vis_m": 9999,
      "fzfg": false,
      "metar_trigger": false,
      "taf_trigger": false,
      "metar": "METAR LFBD 010230Z AUTO 20006KT 9999 FEW048/// SCT054/// OVC120/// ///TCU 09/08 Q1011 TEMPO 3000 SHRA BKN006 BKN015TCU",
      "taf": "TAF LFBD 312300Z 0100/0206 25008KT 9999 BKN030 TX12/0115Z TN07/0203Z"
    },
    {
      "icao": "LFLL",
      "alert": "OK",
      "vis_m": 7000,
      "fzfg": false,
      "metar_trigger": false,
      "taf_trigger": false,
      "metar": "METAR LFLL 010230Z 16005KT 7000 NSC 05/04 Q1009 NOSIG",
      "taf": "TAF LFLL 312300Z 0100/0206 16006KT 9999 BKN050"
    },
    {
      "icao": "LFLS",
      "alert": "OK",
      "vis_m": 9999,
      "fzfg": false,
      "metar_trigger": false,
      "taf_trigger": false,
      "metar": "METAR LFLS 010230Z AUTO VRB02KT 9999 FEW022 BKN037 BKN044 04/03 Q1009 NOSIG",
      "taf": "TAF LFLS 010200Z 0103/0203 09008KT CAVOK"
    },
    {
      "icao": "LFMN",
      "alert": "OK",
      "vis_m": 9999,
      "fzfg": false,
      "metar_trigger": false,
      "taf_trigger": false,
      "metar": "METAR LFMN 010230Z 34009KT 9999 FEW031 SCT250 08/02 Q1006 NOSIG",
      "taf": "TAF LFMN 010200Z 0103/0209 33010KT 9999 FEW025"
    },
    {
      "icao": "LFOB",
      "alert": "OK",
      "vis_m": 9000,
      "fzfg": false,
      "metar_trigger": false,
      "taf_trigger": false,
      "metar": "METAR LFOB 010230Z AUTO 15005KT 9000 BKN005 BKN030 OVC038 05/05 Q1005 TEMPO 0500 FG VV///",
      "taf": "TAF LFOB 312300Z 0100/0124 16004KT 4000 BR BKN008"
    },
    {
      "icao": "LFPO",
      "alert": "OK",
      "vis_m": 1400,
      "fzfg": false,
      "metar_trigger": false,
      "taf_trigger": false,
      "metar": "METAR LFPO 010230Z AUTO 20006KT 1400 0800 R02/1500D R25/1700D R07/1200D R24/1300D R06/1400D BCFG VV/// 06/06 Q1006",
      "taf": "TAF LFPO 311700Z 3118/0124 16004KT 9999 SCT020 BKN030"
    },
    {
      "icao": "LFSB",
      "alert": "OK",
      "vis_m": 9999,
      "fzfg": false,
      "metar_trigger": false,
      "taf_trigger": false,
      "metar": "METAR LFSB 010230Z AUTO 14004KT 9999 FEW027 BKN100 02/01 Q1009 NOSIG",
      "taf": "TAF LFSB 312300Z 0100/0124 12005KT 9999 BKN050"
    },
    {
      "icao": "LGAV",
      "alert": "OK",
      "vis_m": 9999,
      "fzfg": false,
      "metar_trigger": false,
      "taf_trigger": false,
      "metar": "METAR LGAV 010220Z 12009KT 9999 FEW015 SCT025 BKN060 14/10 Q1002 NOSIG",
      "taf": "TAF LGAV 312300Z 0100/0124 14010KT 9999 SCT018 BKN070"
    },
    {
      "icao": "LGTS",
      "alert": "OK",
      "vis_m": 9999,
      "fzfg": false,
      "metar_trigger": false,
      "taf_trigger": false,
      "metar": "METAR LGTS 010220Z 10015G25KT 9999 -RA FEW015TCU SCT025 11/06 Q1004 BECMG 10035KT",
      "taf": "TAF LGTS 312300Z 0100/0124 10013KT 9999 FEW010 BKN025"
    },
    {
      "icao": "LHBP",
      "alert": "OK",
      "vis_m": 9000,
      "fzfg": false,
      "metar_trigger": false,
      "taf_trigger": false,
      "metar": "METAR LHBP 010230Z 06003KT 360V100 9000 -RASN FEW018 OVC037 00/M02 Q1011 NOSIG",
      "taf": "TAF LHBP 312315Z 0100/0124 08006KT 9999 OVC030"
    },
    {
      "icao": "LHDC",
      "alert": "OK",
      "vis_m": 9999,
      "fzfg": false,
      "metar_trigger": false,
      "taf_trigger": false,
      "metar": "METAR LHDC 010215Z AUTO 04010KT 9999 BKN012 OVC023 M02/M05 Q1011",
      "taf": ""
    },
    {
      "icao": "LIBD",
      "alert": "OK",
      "vis_m": 9999,
      "fzfg": false,
      "metar_trigger": false,
      "taf_trigger": false,
      "metar": "METAR LIBD 010220Z AUTO 03008KT 360V060 9999 SCT026/// BKN069/// 12/07 Q1000",
      "taf": "TAF LIBD 312300Z 0100/0124 02010KT 9999 SCT020"
    },
    {
      "icao": "LIBG",
      "alert": "OK",
      "vis_m": null,
      "fzfg": false,
      "metar_trigger": false,
      "taf_trigger": false,
      "metar": "",
      "taf": "TAF LIBG 311700Z 3118/0103 06005KT 9999 SCT030"
    },
    {
      "icao": "LIBP",
      "alert": "OK",
      "vis_m": 9999,
      "fzfg": false,
      "metar_trigger": false,
      "taf_trigger": false,
      "metar": "METAR LIBP 010220Z AUTO VRB02KT 9999 FEW046/// OVC054/// 08/07 Q1005",
      "taf": "TAF LIBP 312300Z 0100/0124 VRB05KT 9999 FEW020"
    },
    {
      "icao": "LIBR",
      "alert": "OK",
      "vis_m": 9999,
      "fzfg": false,
      "metar_trigger": false,
      "taf_trigger": false,
      "metar": "METAR LIBR 010220Z 06017KT 9999 FEW045 13/08 Q0998",
      "taf": "TAF LIBR 312300Z 0100/0124 05018KT 9999 FEW040"
    },
    {
      "icao": "LICA",
      "alert": "OK",
      "vis_m": 9999,
      "fzfg": false,
      "metar_trigger": false,
      "taf_trigger": false,
      "metar": "METAR LICA 010220Z AUTO VRB03KT 9999 -RA OVC058/// 10/08 Q0993",
      "taf": "TAF LICA 312300Z 0100/0124 29013KT 9999 BKN030"
    },
    {
      "icao": "LICC",
      "alert": "OK",
      "vis_m": 9999,
      "fzfg": false,
      "metar_trigger": false,
      "taf_trigger": false,
      "metar": "METAR LICC 010220Z 27006KT 9999 BKN050 09/07 Q0993",
      "taf": "TAF LICC 312300Z 0100/0124 28012KT 9999 SCT030"
    },
    {
      "icao": "LICJ",
      "alert": "OK",
      "vis_m": 9999,
      "fzfg": false,
      "metar_trigger": false,
      "taf_trigger": false,
      "metar": "METAR LICJ 010220Z 31009KT 9999 FEW020 SCT060 12/10 Q0998",
      "taf": "TAF LICJ 312300Z 0100/0124 35015KT 9999 SCT030"
    },
    {
      "icao": "LIMC",
      "alert": "OK",
      "vis_m": 200,
      "fzfg": false,
      "metar_trigger": false,
      "taf_trigger": false,
      "metar": "METAR LIMC 010220Z 05005KT 0200 R35R/0800N R17L/1200U R35L/0550N FG VV001 01/01 Q1007 NOSIG",
      "taf": "TAF LIMC 312300Z 0100/0206 VRB05KT 5000 BR FEW020"
    },
    {
      "icao": "LIME",
      "alert": "OK",
      "vis_m": 9999,
      "fzfg": false,
      "metar_trigger": false,
      "taf_trigger": false,
      "metar": "METAR LIME 010220Z 36002KT 9999 SCT020 01/01 Q1007 NOSIG",
      "taf": "TAF LIME 312300Z 0100/0124 VRB05KT 6000 FEW020"
    },
    {
      "icao": "LIMF",
      "alert": "OK",
      "vis_m": 9999,
      "fzfg": false,
      "metar_trigger": false,
      "taf_trigger": false,
      "metar": "METAR LIMF 010220Z 29003KT CAVOK 01/M02 Q1007",
      "taf": "TAF LIMF 312300Z 0100/0124 VRB04KT CAVOK"
    },
    {
      "icao": "LIMJ",
      "alert": "OK",
      "vis_m": 9999,
      "fzfg": false,
      "metar_trigger": false,
      "taf_trigger": false,
      "metar": "METAR LIMJ 010220Z 03015KT CAVOK 07/02 Q1006",
      "taf": "TAF LIMJ 312300Z 0100/0124 04016KT 9999 FEW050"
    },
    {
      "icao": "LIPE",
      "alert": "OK",
      "vis_m": 9999,
      "fzfg": false,
      "metar_trigger": false,
      "taf_trigger": false,
      "metar": "METAR LIPE 010220Z 23004KT 9999 BKN025 05/04 Q1008",
      "taf": "TAF LIPE 312300Z 0100/0124 VRB05KT 9999 BKN020"
    },
    {
      "icao": "LIPH",
      "alert": "OK",
      "vis_m": 9999,
      "fzfg": false,
      "metar_trigger": false,
      "taf_trigger": false,
      "metar": "METAR LIPH 010220Z AUTO 03003KT 9999 NCD 03/00 Q1007",
      "taf": "TAF LIPH 312300Z 0100/0124 VRB04KT 9999 FEW040"
    },
    {
      "icao": "LIPQ",
      "alert": "OK",
      "vis_m": 9999,
      "fzfg": false,
      "metar_trigger": false,
      "taf_trigger": false,
      "metar": "METAR LIPQ 010220Z AUTO 34003KT 9999 NCD 01/M01 Q1007",
      "taf": "TAF LIPQ 312300Z 0100/0124 VRB05KT CAVOK"
    },
    {
      "icao": "LIPR",
      "alert": "OK",
      "vis_m": 8000,
      "fzfg": false,
      "metar_trigger": false,
      "taf_trigger": false,
      "metar": "METAR LIPR 010220Z AUTO 30004KT 8000 OVC018/// 06/05 Q1007",
      "taf": "TAF LIPR 312300Z 0100/0124 30010KT 7000 BKN020"
    },
    {
      "icao": "LIPX",
      "alert": "OK",
      "vis_m": 1500,
      "fzfg": false,
      "metar_trigger": false,
      "taf_trigger": false,
      "metar": "METAR LIPX 010220Z 04002KT 1500 BR NSC 01/01 Q1007",
      "taf": "TAF LIPX 312300Z 0100/0124 VRB05KT 0300 FG BKN002"
    },
    {
      "icao": "LIPY",
      "alert": "OK",
      "vis_m": 6000,
      "fzfg": false,
      "metar_trigger": false,
      "taf_trigger": false,
      "metar": "METAR LIPY 010220Z AUTO 32009KT 290V350 6000 FEW007/// OVC044/// 07/06 Q1006",
      "taf": "TAF LIPY 312300Z 0100/0124 31010KT 8000 BKN007"
    },
    {
      "icao": "LIPZ",
      "alert": "OK",
      "vis_m": 9999,
      "fzfg": false,
      "metar_trigger": false,
      "taf_trigger": false,
      "metar": "METAR LIPZ 010220Z 03008KT CAVOK 03/00 Q1007 NOSIG",
      "taf": "TAF LIPZ 312300Z 0100/0206 VRB05KT CAVOK"
    },
    {
      "icao": "LIRF",
      "alert": "OK",
      "vis_m": 9999,
      "fzfg": false,
      "metar_trigger": false,
      "taf_trigger": false,
      "metar": "METAR LIRF 010220Z 35007KT CAVOK 07/04 Q1002 NOSIG",
      "taf": "TAF LIRF 312300Z 0100/0206 02010KT CAVOK"
    },
    {
      "icao": "LIRN",
      "alert": "OK",
      "vis_m": 9999,
      "fzfg": false,
      "metar_trigger": false,
      "taf_trigger": false,
      "metar": "METAR LIRN 010220Z 03017KT 9999 FEW045 11/04 Q1000 NOSIG",
      "taf": "TAF LIRN 312300Z 0100/0124 03012KT 8000 FEW030"
    },
    {
      "icao": "LIRP",
      "alert": "OK",
      "vis_m": 9999,
      "fzfg": false,
      "metar_trigger": false,
      "taf_trigger": false,
      "metar": "METAR LIRP 010215Z VRB03KT CAVOK 05/05 Q1006 NOSIG",
      "taf": "TAF LIRP 312300Z 0100/0124 12005KT 9999 FEW060"
    },
    {
      "icao": "LIRZ",
      "alert": "OK",
      "vis_m": 9999,
      "fzfg": false,
      "metar_trigger": false,
      "taf_trigger": false,
      "metar": "METAR LIRZ 010220Z AUTO 01008KT 9999 NCD 06/04 Q1004",
      "taf": "TAF LIRZ 312300Z 0100/0124 03012KT CAVOK"
    },
    {
      "icao": "LJLJ",
      "alert": "OK",
      "vis_m": 8000,
      "fzfg": false,
      "metar_trigger": false,
      "taf_trigger": false,
      "metar": "METAR LJLJ 010130Z VRB02KT 8000 FEW003 OVC038 02/02 Q1008 NOSIG",
      "taf": "TAF LJLJ 312300Z 0100/0200 VRB02KT 9999 OVC035"
    },
    {
      "icao": "LKMT",
      "alert": "OK",
      "vis_m": 9999,
      "fzfg": false,
      "metar_trigger": false,
      "taf_trigger": false,
      "metar": "METAR LKMT 010230Z 03009KT 9999 OVC015 M09/M11 Q1014 NOSIG",
      "taf": "TAF LKMT 312300Z 0100/0124 02012KT 9999 SCT013 OVC017"
    },
    {
      "icao": "LKPR",
      "alert": "OK",
      "vis_m": 9000,
      "fzfg": false,
      "metar_trigger": false,
      "taf_trigger": false,
      "metar": "METAR LKPR 010230Z 05004KT 9000 OVC023 M03/M05 Q1011 NOSIG",
      "taf": "TAF LKPR 010200Z 0103/0209 06006KT 7000 SCT012 OVC025"
    },
    {
      "icao": "LLBG",
      "alert": "OK",
      "vis_m": 9999,
      "fzfg": false,
      "metar_trigger": false,
      "taf_trigger": false,
      "metar": "METAR LLBG 010220Z 13004KT CAVOK 15/07 Q1013 NOSIG",
      "taf": "TAF LLBG 312319Z 0100/0124 VRB04KT CAVOK"
    },
    {
      "icao": "LMML",
      "alert": "OK",
      "vis_m": 9999,
      "fzfg": false,
      "metar_trigger": false,
      "taf_trigger": false,
      "metar": "METAR LMML 010215Z 26018G28KT 9999 -RA BKN018 12/09 Q0996 NOSIG",
      "taf": "TAF LMML 312300Z 0100/0124 25020G30KT 9999 FEW018 SCT040"
    },
    {
      "icao": "LOWW",
      "alert": "OK",
      "vis_m": 6000,
      "fzfg": false,
      "metar_trigger": false,
      "taf_trigger": false,
      "metar": "METAR LOWW 010220Z 36006KT 6000 -SG FEW006 SCT008 BKN010 M03/M04 Q1012 TEMPO BKN009",
      "taf": "TAF LOWW 010215Z 0103/0209 35005KT 5000 BR BKN006 TX00/0209Z TNM03/0109Z"
    },
    {
      "icao": "LPFR",
      "alert": "OK",
      "vis_m": 9999,
      "fzfg": false,
      "metar_trigger": false,
      "taf_trigger": false,
      "metar": "METAR LPFR 010230Z 22007KT 9999 FEW012 SCT032 15/14 Q1019",
      "taf": "TAF LPFR 312300Z 0100/0124 VRB02KT 9999 SCT015 BKN030"
    },
    {
      "icao": "LPMA",
      "alert": "OK",
      "vis_m": 9999,
      "fzfg": false,
      "metar_trigger": false,
      "taf_trigger": false,
      "metar": "METAR LPMA 010230Z VRB02KT 9999 FEW015 16/12 Q1023",
      "taf": "TAF LPMA 312300Z 0100/0124 VRB05KT 9999 SCT015"
    },
    {
      "icao": "LPPR",
      "alert": "OK",
      "vis_m": 4500,
      "fzfg": false,
      "metar_trigger": false,
      "taf_trigger": false,
      "metar": "METAR LPPR 010230Z 14010KT 4500 -RADZ BR BKN005 BKN012 11/11 Q1013",
      "taf": "TAF LPPR 312300Z 0100/0124 17012KT 6000 -RA SCT008 BKN015"
    },
    {
      "icao": "LPPS",
      "alert": "OK",
      "vis_m": 9999,
      "fzfg": false,
      "metar_trigger": false,
      "taf_trigger": false,
      "metar": "METAR LPPS 010230Z 29007KT 9999 FEW008 15/14 Q1023",
      "taf": "TAF LPPS 312300Z 0100/0206 28007KT 9999 SCT012 SCT030"
    },
    {
      "icao": "LPPT",
      "alert": "OK",
      "vis_m": 2500,
      "fzfg": false,
      "metar_trigger": false,
      "taf_trigger": false,
      "metar": "METAR LPPT 010230Z 23011KT 2500 -RADZ BR FEW002 BKN004 15/15 Q1016",
      "taf": "TAF LPPT 312300Z 0100/0206 23013KT 6000 -RA SCT006 BKN012"
    },
    {
      "icao": "LQBK",
      "alert": "OK",
      "vis_m": 9999,
      "fzfg": false,
      "metar_trigger": false,
      "taf_trigger": false,
      "metar": "METAR LQBK 010230Z 34003KT 9999 SCT017 OVC033 04/03 Q1009 NOSIG",
      "taf": "TAF LQBK 312300Z 0100/0124 06005KT 7000 SCT013 BKN030 TX04/0113Z TN01/0124Z"
    },
    {
      "icao": "LQSA",
      "alert": "OK",
      "vis_m": 8000,
      "fzfg": false,
      "metar_trigger": false,
      "taf_trigger": false,
      "metar": "METAR LQSA 010230Z 30003KT 8000 SCT015 OVC030 03/03 Q1005",
      "taf": "TAF LQSA 312300Z 0100/0124 29006KT 9999 BKN025 TX05/0113Z TN01/0105Z"
    },
    {
      "icao": "LQTZ",
      "alert": "OK",
      "vis_m": 8000,
      "fzfg": false,
      "metar_trigger": false,
      "taf_trigger": false,
      "metar": "METAR LQTZ 010230Z 10002KT 8000 OVC012 04/04 Q1008",
      "taf": "TAF LQTZ 312300Z 0100/0124 03005KT 6000 SCT012 OVC025 TX04/0113Z TN00/0124Z"
    },
    {
      "icao": "LRBC",
      "alert": "OK",
      "vis_m": 9999,
      "fzfg": false,
      "metar_trigger": false,
      "taf_trigger": false,
      "metar": "METAR LRBC 010230Z 36011KT 9999 OVC014 M07/M10 Q1018",
      "taf": "TAF LRBC 010200Z 0103/0112 35012KT 9999 OVC015"
    },
    {
      "icao": "LRBS",
      "alert": "OK",
      "vis_m": 9999,
      "fzfg": false,
      "metar_trigger": false,
      "taf_trigger": false,
      "metar": "METAR LRBS 010230Z 07014KT 9999 FEW016 OVC037 M03/M06 Q1015 NOSIG",
      "taf": "TAF LRBS 312300Z 0100/0124 08012KT 9999 OVC040"
    },
    {
      "icao": "LRBV",
      "alert": "OK",
      "vis_m": 9999,
      "fzfg": false,
      "metar_trigger": false,
      "taf_trigger": false,
      "metar": "METAR LRBV 010230Z AUTO 08009KT 9999 FEW011/// OVC062/// M02/M05 Q1010",
      "taf": "TAF LRBV 010200Z 0103/0112 10004KT 9999 OVC025"
    },
    {
      "icao": "LRCL",
      "alert": "OK",
      "vis_m": 1200,
      "fzfg": false,
      "metar_trigger": false,
      "taf_trigger": false,
      "metar": "METAR LRCL 010230Z VRB02KT 1200 R25/1800D BR OVC002 02/01 Q1010",
      "taf": "TAF LRCL 010200Z 0103/0112 VRB04KT 1500 BR OVC003"
    },
    {
      "icao": "LRCV",
      "alert": "OK",
      "vis_m": 8000,
      "fzfg": false,
      "metar_trigger": false,
      "taf_trigger": false,
      "metar": "METAR LRCV 010230Z 10013KT 8000 -SN FEW012 OVC029 M01/M03 Q1012",
      "taf": "TAF LRCV 010200Z 0103/0112 10014KT 7000 SCT010 OVC025"
    },
    {
      "icao": "LRIA",
      "alert": "OK",
      "vis_m": 9999,
      "fzfg": false,
      "metar_trigger": false,
      "taf_trigger": false,
      "metar": "METAR LRIA 010230Z 34011KT 9999 -SN SCT025 OVC030 M09/M13 Q1019",
      "taf": "TAF LRIA 010200Z 0103/0112 34010KT 9999 OVC030"
    },
    {
      "icao": "LROP",
      "alert": "OK",
      "vis_m": 9999,
      "fzfg": false,
      "metar_trigger": false,
      "taf_trigger": false,
      "metar": "METAR LROP 010230Z 08017KT 9999 -SN OVC038 M03/M07 Q1015 NOSIG",
      "taf": "TAF LROP 312300Z 0100/0124 09012KT 9999 OVC040"
    },
    {
      "icao": "LRSB",
      "alert": "OK",
      "vis_m": 9999,
      "fzfg": false,
      "metar_trigger": false,
      "taf_trigger": false,
      "metar": "METAR LRSB 010230Z 32002KT 9999 FEW025 OVC047 02/02 Q1009",
      "taf": "TAF LRSB 312300Z 0100/0124 VRB04KT 9999 OVC025"
    },
    {
      "icao": "LRSM",
      "alert": "OK",
      "vis_m": 9999,
      "fzfg": false,
      "metar_trigger": false,
      "taf_trigger": false,
      "metar": "METAR LRSM 010230Z AUTO 33003KT 310V010 9999 OVC029/// M00/M03 Q1011",
      "taf": "TAF LRSM 010200Z 0103/0112 VRB04KT 9999 BKN025"
    },
    {
      "icao": "LRSV",
      "alert": "OK",
      "vis_m": 9999,
      "fzfg": false,
      "metar_trigger": false,
      "taf_trigger": false,
      "metar": "METAR LRSV 010230Z 36008KT 9999 -SN BKN018 M13/M14 Q1016",
      "taf": "TAF LRSV 010200Z 0103/0112 01012KT 9999 BKN020"
    },
    {
      "icao": "LRTM",
      "alert": "OK",
      "vis_m": 9000,
      "fzfg": false,
      "metar_trigger": false,
      "taf_trigger": false,
      "metar": "METAR LRTM 010230Z AUTO 09004KT 9000 SCT014/// OVC021/// 02/01 Q1010",
      "taf": "TAF LRTM 010200Z 0103/0112 VRB04KT 9999 OVC015"
    },
    {
      "icao": "LRTR",
      "alert": "OK",
      "vis_m": 4000,
      "fzfg": false,
      "metar_trigger": false,
      "taf_trigger": false,
      "metar": "METAR LRTR 010230Z 06005KT 4000 BR SCT017 SCT040 01/01 Q1010 BECMG 5000",
      "taf": "TAF LRTR 312300Z 0100/0124 VRB04KT 5000 BR OVC035"
    },
    {
      "icao": "LTAC",
      "alert": "OK",
      "vis_m": 9999,
      "fzfg": false,
      "metar_trigger": false,
      "taf_trigger": false,
      "metar": "METAR LTAC 010220Z 21009KT 9999 BKN030 05/03 Q1010 NOSIG RMK RWY21C 21011KT RWY03L 21008KT RWY21R 21011KT RWY03R 20007KT RWY21L 22009KT",
      "taf": "TAF LTAC 312240Z 0100/0124 VRB02KT 9999 SCT035 BKN090"
    },
    {
      "icao": "LTFM",
      "alert": "OK",
      "vis_m": 9999,
      "fzfg": false,
      "metar_trigger": false,
      "taf_trigger": false,
      "metar": "METAR LTFM 010220Z 06012KT 9999 BKN012 BKN025 05/03 Q1012 NOSIG RMK RWY17L 05011KT RWY34L 04011KT RWY16R 05012KT RWY36 06012KT 020V080 RWY18 06012KT",
      "taf": "TAF LTFM 312240Z 0100/0206 03012KT 9999 -SHRA BKN011 BKN025"
    },
    {
      "icao": "LUKK",
      "alert": "OK",
      "vis_m": 9999,
      "fzfg": false,
      "metar_trigger": false,
      "taf_trigger": false,
      "metar": "METAR LUKK 010230Z 01009KT 9999 -SN FEW013 BKN020 OVC028 M09/M11 Q1017 NOSIG",
      "taf": "TAF LUKK 312317Z 0100/0124 01010KT 9999 BKN015"
    },
    {
      "icao": "LWOH",
      "alert": "OK",
      "vis_m": null,
      "fzfg": false,
      "metar_trigger": false,
      "taf_trigger": false,
      "metar": "",
      "taf": "TAF LWOH 312315Z 0100/0124 34008KT 9999 SCT030 BKN050"
    },
    {
      "icao": "LWSK",
      "alert": "OK",
      "vis_m": 8000,
      "fzfg": false,
      "metar_trigger": false,
      "taf_trigger": false,
      "metar": "METAR LWSK 010150Z VRB01KT 8000 -RASN SCT019 BKN029 05/04 Q1006 NOSIG",
      "taf": "TAF LWSK 312315Z 0100/0124 04006KT 9999 BKN030 BKN080"
    },
    {
      "icao": "LYBE",
      "alert": "OK",
      "vis_m": 9999,
      "fzfg": false,
      "metar_trigger": false,
      "taf_trigger": false,
      "metar": "METAR LYBE 010230Z 07005KT 9999 BKN040 04/00 Q1009 NOSIG",
      "taf": "TAF LYBE 312300Z 0100/0124 05006KT 9999 BKN033 TX05/0113Z TN00/0124Z"
    },
    {
      "icao": "LYNI",
      "alert": "OK",
      "vis_m": 9999,
      "fzfg": false,
      "metar_trigger": false,
      "taf_trigger": false,
      "metar": "METAR LYNI 010230Z 03008KT 350V060 9999 BKN023 BKN040 04/01 Q1007 NOSIG",
      "taf": "TAF LYNI 312300Z 0100/0124 09004KT 9999 BKN033 TX05/0100Z TNM02/0124Z"
    },
    {
      "icao": "LYPG",
      "alert": "OK",
      "vis_m": 8000,
      "fzfg": false,
      "metar_trigger": false,
      "taf_trigger": false,
      "metar": "METAR LYPG 010230Z 30003KT 8000 NSC 03/02 Q1002 NOSIG",
      "taf": "TAF LYPG 312300Z 0100/0124 36005KT 9999 FEW040 TX10/0112Z TN04/0105Z"
    },
    {
      "icao": "LZIB",
      "alert": "OK",
      "vis_m": 6000,
      "fzfg": false,
      "metar_trigger": false,
      "taf_trigger": false,
      "metar": "METAR LZIB 010230Z 23004KT 6000 BKN006 OVC007 01/M01 Q1011 NOSIG",
      "taf": "TAF LZIB 312315Z 0100/0200 VRB02KT 7000 SCT009 OVC013"
    },
    {
      "icao": "LZKZ",
      "alert": "OK",
      "vis_m": 9999,
      "fzfg": false,
      "metar_trigger": false,
      "taf_trigger": false,
      "metar": "METAR LZKZ 010230Z 02016KT 9999 SCT040 M07/M11 Q1012 NOSIG",
      "taf": "TAF LZKZ 312315Z 0100/0200 01018KT 9999 BKN032"
    },
    {
      "icao": "LZTT",
      "alert": "OK",
      "vis_m": 5000,
      "fzfg": false,
      "metar_trigger": false,
      "taf_trigger": false,
      "metar": "METAR LZTT 010230Z 05004KT 5000 BR OVC006 M10/M12 Q1010",
      "taf": "TAF LZTT 312315Z 0100/0200 06007KT 6000 BKN005 OVC013"
    },
    {
      "icao": "OEJN",
      "alert": "OK",
      "vis_m": 9999,
      "fzfg": false,
      "metar_trigger": false,
      "taf_trigger": false,
      "metar": "METAR OEJN 010200Z 34003KT CAVOK 23/17 Q1012 NOSIG",
      "taf": "TAF OEJN 312300Z 0100/0206 02006KT CAVOK"
    },
    {
      "icao": "OEMA",
      "alert": "OK",
      "vis_m": 9999,
      "fzfg": false,
      "metar_trigger": false,
      "taf_trigger": false,
      "metar": "METAR OEMA 010200Z 03003KT CAVOK 20/09 Q1018 NOSIG",
      "taf": "TAF OEMA 312300Z 0100/0206 VRB03KT CAVOK"
    },
    {
      "icao": "OJAI",
      "alert": "OK",
      "vis_m": 5000,
      "fzfg": false,
      "metar_trigger": false,
      "taf_trigger": false,
      "metar": "METAR OJAI 010200Z 04003KT 5000 HZ FEW025 09/03 Q1017 NOSIG",
      "taf": "TAF OJAI 312300Z 0100/0206 20010KT 5000 HZ NSC"
    },
    {
      "icao": "OMAA",
      "alert": "OK",
      "vis_m": 8000,
      "fzfg": false,
      "metar_trigger": false,
      "taf_trigger": false,
      "metar": "METAR OMAA 010230Z 09003KT 8000 NSC 15/11 Q1018 NOSIG",
      "taf": "TAF OMAA 312300Z 0100/0206 VRB02KT 8000 NSC"
    },
    {
      "icao": "OMDB",
      "alert": "OK",
      "vis_m": 8000,
      "fzfg": false,
      "metar_trigger": false,
      "taf_trigger": false,
      "metar": "METAR OMDB 010230Z 17004KT 140V200 8000 NSC 16/13 Q1018 NOSIG",
      "taf": "TAF OMDB 312300Z 0100/0206 14005KT 8000 NSC"
    },
    {
      "icao": "UAAA",
      "alert": "OK",
      "vis_m": 4500,
      "fzfg": false,
      "metar_trigger": false,
      "taf_trigger": false,
      "metar": "METAR UAAA 010230Z 00000MPS 4500 BR SCT100 BKN200 M05/M07 Q1019 NOSIG",
      "taf": ""
    },
    {
      "icao": "UBBB",
      "alert": "OK",
      "vis_m": 7000,
      "fzfg": false,
      "metar_trigger": false,
      "taf_trigger": false,
      "metar": "METAR UBBB 010230Z 33008KT 7000 OVC006 05/04 Q1008 NOSIG",
      "taf": "TAF UBBB 312259Z 0100/0124 32006KT 5000 BR BKN008 TX10/0110Z TN04/0100Z"
    },
    {
      "icao": "UDSG",
      "alert": "OK",
      "vis_m": 2100,
      "fzfg": false,
      "metar_trigger": false,
      "taf_trigger": false,
      "metar": "METAR UDSG 010230Z 04003KT 2100 -SN BR OVC006 M02/M02 Q1013 NOSIG",
      "taf": "TAF UDSG 312258Z 0100/0124 VRB06KT 1500 BR OVC010"
    },
    {
      "icao": "UDYZ",
      "alert": "OK",
      "vis_m": 1100,
      "fzfg": true,
      "metar_trigger": false,
      "taf_trigger": false,
      "metar": "METAR UDYZ 010230Z 24004KT 1100 0900W R08/1800D BCFG BKN046 M00/M01 Q1015 NOSIG",
      "taf": "TAF UDYZ 312300Z 0100/0124 VRB06KT 0600 FZFG VV003"
    },
    {
      "icao": "UGKO",
      "alert": "OK",
      "vis_m": 9999,
      "fzfg": false,
      "metar_trigger": false,
      "taf_trigger": false,
      "metar": "METAR UGKO 010230Z 09012KT 060V180 9999 -RA SCT020 BKN050 09/06 Q1007 NOSIG",
      "taf": "TAF UGKO 312300Z 0100/0124 08007KT 9999 BKN050 TX11/0111Z TN06/0124Z"
    }
  ]
}