{
  "ts_utc": "2026-01-17T23:48:39Z",
  "threshold_m": 150,
  "source": "stations_override.txt (ICAO list) + aviationweather.gov (METAR/TAF raw)",
  "station_count": 159,
  "stations": [
    {
      "icao": "BIKF",
      "alert": "OK",
      "vis_m": 9999,
      "fzfg": false,
      "metar_trigger": false,
      "taf_trigger": false,
      "metar": "METAR BIKF 172330Z 14031G44KT 9999 BKN013 OVC150 07/04 Q0998",
      "taf": "TAF BIKF 172239Z 1800/1900 13038G54KT 9999 BKN020 TX07/1801Z TN02/1821Z"
    },
    {
      "icao": "BKPR",
      "alert": "OK",
      "vis_m": 9999,
      "fzfg": false,
      "metar_trigger": false,
      "taf_trigger": false,
      "metar": "METAR BKPR 172330Z 35010KT 9999 SCT010 BKN025 01/M01 Q1027 NOSIG",
      "taf": "TAF BKPR 172330Z 1800/1824 35008KT 9999 SCT012 BKN030"
    },
    {
      "icao": "EBCI",
      "alert": "OK",
      "vis_m": 9999,
      "fzfg": false,
      "metar_trigger": false,
      "taf_trigger": false,
      "metar": "METAR EBCI 172320Z 11004KT CAVOK 07/04 Q1019 NOSIG",
      "taf": "TAF EBCI 172310Z 1800/1906 10004KT CAVOK"
    },
    {
      "icao": "EDDB",
      "alert": "OK",
      "vis_m": 5000,
      "fzfg": false,
      "metar_trigger": false,
      "taf_trigger": false,
      "metar": "METAR EDDB 172320Z AUTO 09008KT 5000 BR BKN004 03/02 Q1027 NOSIG",
      "taf": "TAF EDDB 172300Z 1800/1824 10009KT 5000 BR BKN005"
    },
    {
      "icao": "EDDH",
      "alert": "OK",
      "vis_m": 9999,
      "fzfg": false,
      "metar_trigger": false,
      "taf_trigger": false,
      "metar": "METAR EDDH 172320Z AUTO 11009KT 060V150 9999 BKN011 OVC016 04/02 Q1025 TEMPO BKN009",
      "taf": "TAF EDDH 172300Z 1800/1906 11009KT 9999 OVC012"
    },
    {
      "icao": "EDDK",
      "alert": "OK",
      "vis_m": 9999,
      "fzfg": false,
      "metar_trigger": false,
      "taf_trigger": false,
      "metar": "METAR EDDK 172320Z AUTO 10004KT 070V130 CAVOK 03/M00 Q1022 NOSIG",
      "taf": "TAF EDDK 172300Z 1800/1906 11007KT CAVOK"
    },
    {
      "icao": "EDDN",
      "alert": "OK",
      "vis_m": 9999,
      "fzfg": false,
      "metar_trigger": false,
      "taf_trigger": false,
      "metar": "METAR EDDN 172320Z AUTO 10005KT 9999 OVC009 01/M01 Q1023",
      "taf": "TAF EDDN 172300Z 1800/1824 10007KT 9999 OVC009"
    },
    {
      "icao": "EDDS",
      "alert": "OK",
      "vis_m": 9999,
      "fzfg": false,
      "metar_trigger": false,
      "taf_trigger": false,
      "metar": "METAR EDDS 172320Z AUTO 34004KT 9999 BKN007 M02/M03 Q1020",
      "taf": "TAF EDDS 172300Z 1800/1824 VRB03KT CAVOK"
    },
    {
      "icao": "EDFH",
      "alert": "OK",
      "vis_m": 300,
      "fzfg": true,
      "metar_trigger": false,
      "taf_trigger": false,
      "metar": "METAR EDFH 172320Z 13018KT 0300 R21/0450U FZFG VV/// M01/M01 Q1020",
      "taf": "TAF EDFH 172300Z 1800/1824 14013KT 6000 BKN005"
    },
    {
      "icao": "EDJA",
      "alert": "OK",
      "vis_m": 2000,
      "fzfg": true,
      "metar_trigger": false,
      "taf_trigger": false,
      "metar": "METAR EDJA 172320Z AUTO 07007KT 040V110 2000 // SCT001/// OVC005/// M02/M03 Q1019",
      "taf": "TAF EDJA 171700Z 1718/1803 05005KT 0900 FZFG OVC002"
    },
    {
      "icao": "EDLW",
      "alert": "OK",
      "vis_m": 9999,
      "fzfg": false,
      "metar_trigger": false,
      "taf_trigger": false,
      "metar": "METAR EDLW 172320Z AUTO 17006KT 9999 // NCD 04/02 Q1021",
      "taf": "TAF EDLW 171700Z 1718/1818 09004KT CAVOK"
    },
    {
      "icao": "EDNY",
      "alert": "OK",
      "vis_m": 9999,
      "fzfg": false,
      "metar_trigger": false,
      "taf_trigger": false,
      "metar": "METAR EDNY 172320Z AUTO 03008KT 9999 // OVC008/// M01/M02 Q1020",
      "taf": "TAF EDNY 171700Z 1718/1803 02007KT 9000 BKN006"
    },
    {
      "icao": "EDSB",
      "alert": "OK",
      "vis_m": 9000,
      "fzfg": false,
      "metar_trigger": false,
      "taf_trigger": false,
      "metar": "METAR EDSB 172250Z 03010KT 9000 FEW010 01/M01 Q1021",
      "taf": "TAF EDSB 172300Z 1800/1824 03008KT 9000 BKN008"
    },
    {
      "icao": "EETN",
      "alert": "OK",
      "vis_m": 3200,
      "fzfg": false,
      "metar_trigger": false,
      "taf_trigger": false,
      "metar": "METAR EETN 172320Z 21006KT 3200 -FZDZ BR OVC004 M03/M04 Q1037",
      "taf": "TAF EETN 172330Z 1800/1824 19010KT 8000 BKN005 OVC010"
    },
    {
      "icao": "EFTU",
      "alert": "OK",
      "vis_m": 1500,
      "fzfg": false,
      "metar_trigger": false,
      "taf_trigger": false,
      "metar": "METAR EFTU 172320Z AUTO 22005KT 1500 1000 R26/1700U -SHRA OVC001 02/02 Q1034",
      "taf": "TAF EFTU 172335Z 1800/1824 22005KT 1500 -DZ BR OVC001"
    },
    {
      "icao": "EGBB",
      "alert": "OK",
      "vis_m": 2000,
      "fzfg": false,
      "metar_trigger": false,
      "taf_trigger": false,
      "metar": "METAR EGBB 172320Z 14003KT 2000 BR SCT005 BKN018 BKN023 05/05 Q1019",
      "taf": "TAF EGBB 172300Z 1800/1824 13005KT 4000 BR BKN020"
    },
    {
      "icao": "EGGP",
      "alert": "OK",
      "vis_m": 9999,
      "fzfg": false,
      "metar_trigger": false,
      "taf_trigger": false,
      "metar": "METAR EGGP 172320Z 04004KT 9999 SCT047 04/02 Q1019",
      "taf": "TAF EGGP 172257Z 1800/1824 07004KT 9999 SCT045"
    },
    {
      "icao": "EGGW",
      "alert": "OK",
      "vis_m": 150,
      "fzfg": false,
      "metar_trigger": false,
      "taf_trigger": false,
      "metar": "METAR EGGW 172320Z AUTO 11006KT 070V130 0150 R25/0600U FG OVC001 05/05 Q1019",
      "taf": "TAF EGGW 172258Z 1800/1824 10006KT 2000 BR BKN002"
    },
    {
      "icao": "EGKK",
      "alert": "OK",
      "vis_m": 6000,
      "fzfg": false,
      "metar_trigger": false,
      "taf_trigger": false,
      "metar": "METAR EGKK 172320Z 07005KT 6000 BKN006 07/06 Q1019",
      "taf": "TAF EGKK 172300Z 1800/1906 08006KT 9999 BKN006"
    },
    {
      "icao": "EGNM",
      "alert": "OK",
      "vis_m": 200,
      "fzfg": false,
      "metar_trigger": false,
      "taf_trigger": false,
      "metar": "METAR EGNM 172250Z VRB01KT 0200 R32/0300N FG VV/// 05/05 Q1020",
      "taf": "TAF EGNM 172257Z 1800/1824 13003KT 0300 FG VV///"
    },
    {
      "icao": "EGPD",
      "alert": "OK",
      "vis_m": 9000,
      "fzfg": false,
      "metar_trigger": false,
      "taf_trigger": false,
      "metar": "METAR EGPD 172320Z AUTO 16008KT 9000 BKN007 BKN039 07/06 Q1020 TEMPO 4000 RA",
      "taf": "TAF EGPD 172258Z 1800/1824 16004KT 9999 SCT006 BKN015"
    },
    {
      "icao": "EGPF",
      "alert": "OK",
      "vis_m": 9999,
      "fzfg": false,
      "metar_trigger": false,
      "taf_trigger": false,
      "metar": "METAR EGPF 172320Z 06003KT 9999 OVC042 04/04 Q1019",
      "taf": "TAF EGPF 172253Z 1800/1824 04003KT 9999 SCT040"
    },
    {
      "icao": "EHBK",
      "alert": "OK",
      "vis_m": 9999,
      "fzfg": false,
      "metar_trigger": false,
      "taf_trigger": false,
      "metar": "METAR EHBK 172325Z AUTO VRB02KT 9999 NSC 04/02 Q1020",
      "taf": "TAF EHBK 172319Z 1800/1906 12006KT CAVOK"
    },
    {
      "icao": "EHEH",
      "alert": "OK",
      "vis_m": 350,
      "fzfg": false,
      "metar_trigger": false,
      "taf_trigger": false,
      "metar": "METAR EHEH 172325Z AUTO 09002KT 0350 FG OVC350 02/02 Q1021 RED",
      "taf": "TAF EHEH 172313Z 1800/1906 09004KT CAVOK"
    },
    {
      "icao": "EKBI",
      "alert": "OK",
      "vis_m": 2000,
      "fzfg": false,
      "metar_trigger": false,
      "taf_trigger": false,
      "metar": "METAR EKBI 172320Z AUTO 09009KT 2000 BR OVC002/// 01/01 Q1027",
      "taf": "TAF EKBI 172327Z 1800/1824 11010KT 2000 BR BKN003"
    },
    {
      "icao": "EKCH",
      "alert": "OK",
      "vis_m": 3000,
      "fzfg": false,
      "metar_trigger": false,
      "taf_trigger": false,
      "metar": "METAR EKCH 172320Z 12010KT 3000 BR OVC003 02/02 Q1030 TEMPO 1500",
      "taf": "TAF EKCH 172327Z 1800/1824 13010KT 5000 BKN003"
    },
    {
      "icao": "ENAL",
      "alert": "OK",
      "vis_m": 9999,
      "fzfg": false,
      "metar_trigger": false,
      "taf_trigger": false,
      "metar": "METAR ENAL 172320Z AUTO 15007KT 9999 NCD 02/M03 Q1028",
      "taf": "TAF ENAL 172300Z 1800/1809 14008KT CAVOK"
    },
    {
      "icao": "ENBR",
      "alert": "OK",
      "vis_m": 9999,
      "fzfg": false,
      "metar_trigger": false,
      "taf_trigger": false,
      "metar": "METAR ENBR 172320Z 00000KT 9999 -RA BKN034 02/M00 Q1027 RMK WIND 1200FT 11009KT",
      "taf": "TAF ENBR 172300Z 1800/1824 VRB05KT 9999 -RA FEW012 BKN025"
    },
    {
      "icao": "ENGM",
      "alert": "OK",
      "vis_m": 7000,
      "fzfg": false,
      "metar_trigger": false,
      "taf_trigger": false,
      "metar": "METAR ENGM 172320Z 01005KT 330V030 7000 BKN002 00/M00 Q1032",
      "taf": "TAF ENGM 172300Z 1800/1824 04005KT 9999 BKN005"
    },
    {
      "icao": "ENHD",
      "alert": "OK",
      "vis_m": 9999,
      "fzfg": false,
      "metar_trigger": false,
      "taf_trigger": false,
      "metar": "METAR ENHD 172320Z AUTO VRB02KT 9999 -RA BKN029/// BKN037/// 05/03 Q1026",
      "taf": "TAF ENHD 171400Z 1715/1723 11008KT 9999 FEW025 BKN040"
    },
    {
      "icao": "ENTC",
      "alert": "OK",
      "vis_m": 9999,
      "fzfg": false,
      "metar_trigger": false,
      "taf_trigger": false,
      "metar": "METAR ENTC 172320Z AUTO 18012KT 9999 -RA OVC020/// 02/M00 Q1022 RMK WIND 2600FT 19020KT",
      "taf": "TAF ENTC 172300Z 1800/1824 19012KT 9999 BKN020"
    },
    {
      "icao": "ENTO",
      "alert": "OK",
      "vis_m": 5000,
      "fzfg": false,
      "metar_trigger": false,
      "taf_trigger": false,
      "metar": "METAR ENTO 172320Z AUTO 01009KT 5000 RA VV002 00/00 Q1031",
      "taf": "TAF ENTO 172300Z 1800/1824 01005KT 4000 DZ BR BKN004"
    },
    {
      "icao": "ENVA",
      "alert": "OK",
      "vis_m": 9999,
      "fzfg": false,
      "metar_trigger": false,
      "taf_trigger": false,
      "metar": "METAR ENVA 172320Z 12006KT CAVOK M02/M03 Q1030 RMK WIND 670FT 11008KT",
      "taf": "TAF ENVA 172300Z 1800/1824 12008KT 9999 FEW040"
    },
    {
      "icao": "ENZV",
      "alert": "OK",
      "vis_m": 9999,
      "fzfg": false,
      "metar_trigger": false,
      "taf_trigger": false,
      "metar": "METAR ENZV 172320Z 25003KT 9999 BKN039 04/03 Q1026",
      "taf": "TAF ENZV 172300Z 1800/1824 VRB05KT 9999 FEW020 BKN040"
    },
    {
      "icao": "EPGD",
      "alert": "OK",
      "vis_m": 9999,
      "fzfg": false,
      "metar_trigger": false,
      "taf_trigger": false,
      "metar": "METAR EPGD 172330Z VRB04KT CAVOK M09/M10 Q1034",
      "taf": "TAF EPGD 172330Z 1800/1824 16005KT CAVOK"
    },
    {
      "icao": "EPKK",
      "alert": "OK",
      "vis_m": 9999,
      "fzfg": false,
      "metar_trigger": false,
      "taf_trigger": false,
      "metar": "METAR EPKK 172330Z 05006KT CAVOK M07/M11 Q1032",
      "taf": "TAF EPKK 172330Z 1800/1824 06010KT CAVOK"
    },
    {
      "icao": "EPKT",
      "alert": "OK",
      "vis_m": 9999,
      "fzfg": false,
      "metar_trigger": false,
      "taf_trigger": false,
      "metar": "METAR EPKT 172330Z 11006KT CAVOK M06/M08 Q1031",
      "taf": "TAF EPKT 172330Z 1800/1824 10010KT CAVOK"
    },
    {
      "icao": "EPLB",
      "alert": "OK",
      "vis_m": 8000,
      "fzfg": false,
      "metar_trigger": false,
      "taf_trigger": false,
      "metar": "METAR EPLB 172330Z 10009KT 8000 NSC M15/M16 Q1037",
      "taf": "TAF EPLB 172330Z 1800/1824 10008KT CAVOK"
    },
    {
      "icao": "EPMO",
      "alert": "OK",
      "vis_m": 9999,
      "fzfg": false,
      "metar_trigger": false,
      "taf_trigger": false,
      "metar": "METAR EPMO 172330Z 10008KT CAVOK M09/M12 Q1036",
      "taf": "TAF EPMO 172330Z 1800/1824 10008KT CAVOK"
    },
    {
      "icao": "EPPO",
      "alert": "OK",
      "vis_m": 8000,
      "fzfg": false,
      "metar_trigger": false,
      "taf_trigger": false,
      "metar": "METAR EPPO 172330Z 09008KT 8000 NSC M02/M04 Q1031",
      "taf": "TAF EPPO 172330Z 1800/1824 12010KT 8000 NSC"
    },
    {
      "icao": "EPRA",
      "alert": "OK",
      "vis_m": 9999,
      "fzfg": false,
      "metar_trigger": false,
      "taf_trigger": false,
      "metar": "METAR EPRA 172330Z 11009KT CAVOK M11/M14 Q1035",
      "taf": "TAF EPRA 172330Z 1800/1809 10008KT CAVOK"
    },
    {
      "icao": "EPRZ",
      "alert": "OK",
      "vis_m": 9999,
      "fzfg": false,
      "metar_trigger": false,
      "taf_trigger": false,
      "metar": "METAR EPRZ 172330Z 10012KT CAVOK M11/M14 Q1035",
      "taf": "TAF EPRZ 172330Z 1800/1824 09012KT CAVOK"
    },
    {
      "icao": "EPSC",
      "alert": "OK",
      "vis_m": 2300,
      "fzfg": false,
      "metar_trigger": false,
      "taf_trigger": false,
      "metar": "METAR EPSC 172330Z 11010KT 2300 BR OVC002 00/00 Q1030",
      "taf": "TAF EPSC 172330Z 1800/1824 11010KT 2000 BR OVC002"
    },
    {
      "icao": "EPSY",
      "alert": "OK",
      "vis_m": 9999,
      "fzfg": false,
      "metar_trigger": false,
      "taf_trigger": false,
      "metar": "METAR EPSY 172330Z VRB03KT CAVOK M11/M13 Q1037",
      "taf": "TAF EPSY 172330Z 1800/1809 12006KT CAVOK"
    },
    {
      "icao": "EPWA",
      "alert": "OK",
      "vis_m": 9999,
      "fzfg": false,
      "metar_trigger": false,
      "taf_trigger": false,
      "metar": "METAR EPWA 172330Z 11010KT CAVOK M09/M12 Q1036 NOSIG",
      "taf": "TAF EPWA 172330Z 1800/1824 11008KT CAVOK"
    },
    {
      "icao": "EPWR",
      "alert": "OK",
      "vis_m": 2500,
      "fzfg": false,
      "metar_trigger": false,
      "taf_trigger": false,
      "metar": "METAR EPWR 172330Z 11007KT 2500 BR SCT003 M01/M02 Q1030",
      "taf": "TAF EPWR 172330Z 1800/1824 13010KT 2000 BR NSC"
    },
    {
      "icao": "ESGG",
      "alert": "OK",
      "vis_m": 550,
      "fzfg": false,
      "metar_trigger": false,
      "taf_trigger": false,
      "metar": "METAR ESGG 172320Z 11006KT 0550 R03/P2000N R21/P2000N FG OVC003 01/01 Q1030",
      "taf": "TAF ESGG 172330Z 1800/1824 12004KT 0300 FG VV002"
    },
    {
      "icao": "ESKN",
      "alert": "OK",
      "vis_m": 200,
      "fzfg": false,
      "metar_trigger": false,
      "taf_trigger": false,
      "metar": "METAR ESKN 172320Z 13005KT 0200 R08/0750N R26/0800N FG VV001 02/02 Q1033",
      "taf": "TAF ESKN 172330Z 1800/1824 14004KT 0300 FG VV002"
    },
    {
      "icao": "ESMS",
      "alert": "OK",
      "vis_m": 450,
      "fzfg": false,
      "metar_trigger": false,
      "taf_trigger": false,
      "metar": "METAR ESMS 172320Z 12008KT 0450 R17/1800N R35/P2000N FG VV002 02/02 Q1030",
      "taf": "TAF ESMS 172327Z 1800/1824 13008KT 0200 FG VV002"
    },
    {
      "icao": "ESSA",
      "alert": "OK",
      "vis_m": 250,
      "fzfg": false,
      "metar_trigger": false,
      "taf_trigger": false,
      "metar": "METAR ESSA 172320Z 17004KT 0250 R01L/0800N R19R/0800N R01R/0800N R19L/1100D FG VV003 01/01 Q1033 NOSIG",
      "taf": "TAF ESSA 172330Z 1800/1824 17003KT 0300 FG VV002"
    },
    {
      "icao": "EYKA",
      "alert": "OK",
      "vis_m": 9999,
      "fzfg": false,
      "metar_trigger": false,
      "taf_trigger": false,
      "metar": "METAR EYKA 172320Z AUTO 18008KT 120V240 9999 NCD M11/M14 Q1041",
      "taf": "TAF EYKA 172304Z 1800/1824 16008KT 8000 NSC"
    },
    {
      "icao": "EYPA",
      "alert": "OK",
      "vis_m": 9999,
      "fzfg": false,
      "metar_trigger": false,
      "taf_trigger": false,
      "metar": "METAR EYPA 172320Z AUTO 16010KT 9999 NCD M07/M13 Q1037",
      "taf": "TAF EYPA 172303Z 1800/1824 16011KT 7000 NSC"
    },
    {
      "icao": "EYVI",
      "alert": "OK",
      "vis_m": 9999,
      "fzfg": false,
      "metar_trigger": false,
      "taf_trigger": false,
      "metar": "METAR EYVI 172320Z 17012KT CAVOK M14/M16 Q1041 NOSIG",
      "taf": "TAF EYVI 172311Z 1800/1824 16009KT 6000 NSC"
    },
    {
      "icao": "GCFV",
      "alert": "OK",
      "vis_m": 9999,
      "fzfg": false,
      "metar_trigger": false,
      "taf_trigger": false,
      "metar": "METAR GCFV 172330Z AUTO 31009KT 260V330 CAVOK 16/10 Q1018",
      "taf": "TAF GCFV 172000Z 1721/1821 35010KT 9999 SCT035 TX20/1814Z TN15/1806Z"
    },
    {
      "icao": "GCLP",
      "alert": "OK",
      "vis_m": 9999,
      "fzfg": false,
      "metar_trigger": false,
      "taf_trigger": false,
      "metar": "METAR GCLP 172330Z 35013KT 9999 FEW030 16/10 Q1019 NOSIG",
      "taf": "TAF GCLP 172000Z 1721/1821 36010KT 9999 BKN035 TX21/1814Z TN15/1806Z"
    },
    {
      "icao": "GCTS",
      "alert": "OK",
      "vis_m": 9999,
      "fzfg": false,
      "metar_trigger": false,
      "taf_trigger": false,
      "metar": "METAR GCTS 172330Z 30009KT 260V320 9999 SCT027 18/12 Q1020 NOSIG",
      "taf": "TAF GCTS 172000Z 1721/1821 25005KT 9999 FEW030 TX22/1814Z TN14/1806Z"
    },
    {
      "icao": "GMAD",
      "alert": "OK",
      "vis_m": 9999,
      "fzfg": false,
      "metar_trigger": false,
      "taf_trigger": false,
      "metar": "METAR GMAD 172330Z 24007KT 9999 FEW030 BKN090 12/11 Q1014 NOSIG",
      "taf": "TAF GMAD 172300Z 1800/1906 22008KT 8000 SCT020 BKN080"
    },
    {
      "icao": "GMMN",
      "alert": "OK",
      "vis_m": 9999,
      "fzfg": false,
      "metar_trigger": false,
      "taf_trigger": false,
      "metar": "METAR GMMN 172330Z 21013KT 9999 SCT020 SCT040 08/06 Q1012 NOSIG",
      "taf": "TAF GMMN 172300Z 1800/1906 22007KT 9999 SCT020 SCT030"
    },
    {
      "icao": "GMMX",
      "alert": "OK",
      "vis_m": 9999,
      "fzfg": false,
      "metar_trigger": false,
      "taf_trigger": false,
      "metar": "METAR GMMX 172330Z 21006KT 9999 SCT026 09/07 Q1013 NOSIG",
      "taf": "TAF GMMX 172300Z 1800/1906 22007KT 8000 BKN026 SCT080"
    },
    {
      "icao": "HEGN",
      "alert": "OK",
      "vis_m": 9999,
      "fzfg": false,
      "metar_trigger": false,
      "taf_trigger": false,
      "metar": "METAR HEGN 172300Z 29008KT CAVOK 14/04 Q1015 NOSIG",
      "taf": "TAF HEGN 172300Z 1800/1906 28010KT CAVOK"
    },
    {
      "icao": "HEMA",
      "alert": "OK",
      "vis_m": 9999,
      "fzfg": false,
      "metar_trigger": false,
      "taf_trigger": false,
      "metar": "METAR HEMA 172300Z 22005KT CAVOK 14/10 Q1015 NOSIG",
      "taf": "TAF HEMA 172300Z 1800/1906 27010KT CAVOK"
    },
    {
      "icao": "HESH",
      "alert": "OK",
      "vis_m": 9999,
      "fzfg": false,
      "metar_trigger": false,
      "taf_trigger": false,
      "metar": "METAR HESH 172300Z 35008KT CAVOK 17/07 Q1014 NOSIG",
      "taf": "TAF HESH 172300Z 1800/1906 33010KT CAVOK"
    },
    {
      "icao": "HESX",
      "alert": "OK",
      "vis_m": 9999,
      "fzfg": false,
      "metar_trigger": false,
      "taf_trigger": false,
      "metar": "METAR HESX 172300Z 27003KT CAVOK 10/07 Q1017 NOSIG",
      "taf": "TAF HESX 172300Z 1800/1906 33009KT CAVOK"
    },
    {
      "icao": "LATI",
      "alert": "OK",
      "vis_m": null,
      "fzfg": false,
      "metar_trigger": false,
      "taf_trigger": false,
      "metar": "",
      "taf": "TAF LATI 172300Z 1800/1824 VRB05KT CAVOK TX18/1812Z TN01/1805Z"
    },
    {
      "icao": "LBPD",
      "alert": "OK",
      "vis_m": 9999,
      "fzfg": false,
      "metar_trigger": false,
      "taf_trigger": false,
      "metar": "METAR LBPD 172330Z AUTO 00000KT 9999 SCT034/// M05/M06 Q1032",
      "taf": "TAF LBPD 172300Z 1800/1824 VRB04KT 9999 SCT070"
    },
    {
      "icao": "LBSF",
      "alert": "OK",
      "vis_m": 9999,
      "fzfg": false,
      "metar_trigger": false,
      "taf_trigger": false,
      "metar": "METAR LBSF 172330Z AUTO VRB02KT 9999 NCD M07/M08 Q1029 NOSIG",
      "taf": "TAF LBSF 172300Z 1800/1824 10010KT 9999 SCT070"
    },
    {
      "icao": "LBWN",
      "alert": "OK",
      "vis_m": 9999,
      "fzfg": false,
      "metar_trigger": false,
      "taf_trigger": false,
      "metar": "METAR LBWN 172330Z AUTO 33011KT 280V360 9999 OVC049/// M09/M12 Q1033 NOSIG",
      "taf": "TAF LBWN 172300Z 1800/1824 35018KT 9999 BKN025 OVC040"
    },
    {
      "icao": "LCLK",
      "alert": "OK",
      "vis_m": 9999,
      "fzfg": false,
      "metar_trigger": false,
      "taf_trigger": false,
      "metar": "METAR LCLK 172330Z 02012KT 9999 SCT009 SCT050 12/11 Q1015 NOSIG",
      "taf": "TAF LCLK 172330Z 1800/1900 02009KT 9999 SCT025 SCT050"
    },
    {
      "icao": "LCPH",
      "alert": "OK",
      "vis_m": 7000,
      "fzfg": false,
      "metar_trigger": false,
      "taf_trigger": false,
      "metar": "METAR LCPH 172330Z VRB02KT 7000 -RA FEW022 FEW025CB SCT045 BKN070 12/11 Q1014 RETSRA BECMG 9999",
      "taf": "TAF LCPH 172330Z 1800/1900 07008KT 9999 SCT025"
    },
    {
      "icao": "LEAL",
      "alert": "OK",
      "vis_m": 9999,
      "fzfg": false,
      "metar_trigger": false,
      "taf_trigger": false,
      "metar": "METAR LEAL 172330Z 30013KT 9999 BKN050 11/04 Q1009 NOSIG",
      "taf": "TAF LEAL 172300Z 1800/1824 31009KT 9999 FEW020 TX15/1812Z TN06/1806Z"
    },
    {
      "icao": "LEBB",
      "alert": "OK",
      "vis_m": 9000,
      "fzfg": false,
      "metar_trigger": false,
      "taf_trigger": false,
      "metar": "METAR LEBB 172330Z AUTO 00000KT 9000 FEW005 OVC010 08/08 Q1011",
      "taf": "TAF LEBB 172300Z 1800/1824 29008KT 9000 FEW010 BKN020 TX10/1814Z TN08/1806Z"
    },
    {
      "icao": "LEBL",
      "alert": "OK",
      "vis_m": 9999,
      "fzfg": false,
      "metar_trigger": false,
      "taf_trigger": false,
      "metar": "METAR LEBL 172330Z 30004KT 9999 -RA FEW010 SCT017 BKN028 11/11 Q1009 RERA NOSIG",
      "taf": "TAF LEBL 172300Z 1800/1824 33005KT 9999 SCT020 TX13/1812Z TN10/1806Z"
    },
    {
      "icao": "LECH",
      "alert": "OK",
      "vis_m": 1800,
      "fzfg": false,
      "metar_trigger": false,
      "taf_trigger": false,
      "metar": "METAR LECH 172330Z AUTO 09001KT 1800 BR OVC011 07/06 Q1008",
      "taf": ""
    },
    {
      "icao": "LEMD",
      "alert": "OK",
      "vis_m": 9999,
      "fzfg": false,
      "metar_trigger": false,
      "taf_trigger": false,
      "metar": "METAR LEMD 172330Z 16003KT 130V200 9999 FEW010 SCT018 OVC030 04/03 Q1009 NOSIG",
      "taf": "TAF LEMD 172300Z 1800/1906 VRB04KT 9999 SCT035 TX09/1814Z TNM00/1808Z"
    },
    {
      "icao": "LEMG",
      "alert": "OK",
      "vis_m": 9999,
      "fzfg": false,
      "metar_trigger": false,
      "taf_trigger": false,
      "metar": "METAR LEMG 172330Z 28005KT CAVOK 06/03 Q1010 NOSIG",
      "taf": "TAF LEMG 172300Z 1800/1824 29005KT 9999 FEW030 TX13/1814Z TN06/1806Z"
    },
    {
      "icao": "LEVC",
      "alert": "OK",
      "vis_m": 9999,
      "fzfg": false,
      "metar_trigger": false,
      "taf_trigger": false,
      "metar": "METAR LEVC 172330Z 27008KT CAVOK 07/02 Q1009 NOSIG",
      "taf": "TAF LEVC 172300Z 1800/1824 27007KT 9999 FEW020 TX14/1812Z TN04/1806Z"
    },
    {
      "icao": "LEXJ",
      "alert": "OK",
      "vis_m": 6000,
      "fzfg": false,
      "metar_trigger": false,
      "taf_trigger": false,
      "metar": "METAR LEXJ 172330Z AUTO 22006KT 190V250 6000 -RA SCT028 BKN034 OVC055 07/06 Q1011",
      "taf": "TAF LEXJ 172000Z 1721/1821 25009KT 9999 SCT015 BKN020 TX11/1814Z TN07/1801Z"
    },
    {
      "icao": "LEZG",
      "alert": "OK",
      "vis_m": 9999,
      "fzfg": false,
      "metar_trigger": false,
      "taf_trigger": false,
      "metar": "METAR LEZG 172330Z 28006KT 9999 -RA OVC007 07/07 Q1009 NOSIG",
      "taf": "TAF LEZG 172300Z 1800/1824 29007KT 6000 SCT005 TX10/1814Z TN05/1806Z"
    },
    {
      "icao": "LEZL",
      "alert": "OK",
      "vis_m": 9999,
      "fzfg": false,
      "metar_trigger": false,
      "taf_trigger": false,
      "metar": "METAR LEZL 172330Z 09005KT CAVOK 08/07 Q1010 NOSIG",
      "taf": "TAF LEZL 172000Z 1721/1821 VRB03KT 9999 SCT020 TX14/1815Z TN04/1807Z"
    },
    {
      "icao": "LFBD",
      "alert": "OK",
      "vis_m": 6000,
      "fzfg": false,
      "metar_trigger": false,
      "taf_trigger": false,
      "metar": "METAR LFBD 172330Z AUTO 06003KT 6000 BKN003 BKN022 OVC030 09/09 Q1010 TEMPO 2000 BR",
      "taf": "TAF LFBD 172300Z 1800/1906 04010KT 8000 BKN015 TX11/1815Z TN07/1806Z"
    },
    {
      "icao": "LFLL",
      "alert": "OK",
      "vis_m": 4700,
      "fzfg": false,
      "metar_trigger": false,
      "taf_trigger": false,
      "metar": "METAR LFLL 172330Z 14005KT 4700 BR NSC 06/06 Q1016 NOSIG",
      "taf": "TAF LFLL 172300Z 1800/1906 VRB02KT 3000 BR NSC"
    },
    {
      "icao": "LFLS",
      "alert": "OK",
      "vis_m": 9999,
      "fzfg": false,
      "metar_trigger": false,
      "taf_trigger": false,
      "metar": "METAR LFLS 172330Z AUTO 07007KT CAVOK 05/04 Q1016",
      "taf": "TAF LFLS 171400Z 1715/1815 09005KT CAVOK"
    },
    {
      "icao": "LFMN",
      "alert": "OK",
      "vis_m": 9999,
      "fzfg": false,
      "metar_trigger": false,
      "taf_trigger": false,
      "metar": "METAR LFMN 172330Z 07023G33KT 9999 FEW066 BKN130 16/08 Q1017 NOSIG",
      "taf": "TAF LFMN 172000Z 1721/1903 09025KT CAVOK"
    },
    {
      "icao": "LFOB",
      "alert": "OK",
      "vis_m": 9999,
      "fzfg": false,
      "metar_trigger": false,
      "taf_trigger": false,
      "metar": "METAR LFOB 172330Z AUTO VRB02KT CAVOK 06/05 Q1017 TEMPO 0900 FG VV///",
      "taf": "TAF LFOB 172300Z 1800/1824 10005KT CAVOK"
    },
    {
      "icao": "LFPO",
      "alert": "OK",
      "vis_m": 9999,
      "fzfg": false,
      "metar_trigger": false,
      "taf_trigger": false,
      "metar": "METAR LFPO 172330Z AUTO VRB03KT 9999 ///TCU 09/06 Q1016 BECMG NSC",
      "taf": "TAF LFPO 172300Z 1800/1906 09006KT CAVOK"
    },
    {
      "icao": "LFSB",
      "alert": "OK",
      "vis_m": 4900,
      "fzfg": false,
      "metar_trigger": false,
      "taf_trigger": false,
      "metar": "METAR LFSB 172330Z AUTO 33004KT 4900 BR OVC003 01/00 Q1019 TEMPO 0300 FG VV///",
      "taf": "TAF LFSB 172300Z 1800/1824 VRB03KT 5000 BR OVC010"
    },
    {
      "icao": "LGAV",
      "alert": "OK",
      "vis_m": 9999,
      "fzfg": false,
      "metar_trigger": false,
      "taf_trigger": false,
      "metar": "METAR LGAV 172320Z 01020KT 9999 FEW020 07/02 Q1025 NOSIG",
      "taf": "TAF LGAV 172300Z 1800/1824 03015G25KT 9999 FEW018 SCT030"
    },
    {
      "icao": "LGTS",
      "alert": "OK",
      "vis_m": 9999,
      "fzfg": false,
      "metar_trigger": false,
      "taf_trigger": false,
      "metar": "METAR LGTS 172320Z VRB03KT 9999 FEW020 BKN035 05/00 Q1029 NOSIG",
      "taf": "TAF LGTS 172300Z 1800/1824 09007KT 9999 FEW015 BKN030"
    },
    {
      "icao": "LHBP",
      "alert": "OK",
      "vis_m": 9999,
      "fzfg": false,
      "metar_trigger": false,
      "taf_trigger": false,
      "metar": "METAR LHBP 172330Z 01003KT CAVOK M06/M07 Q1032 NOSIG",
      "taf": "TAF LHBP 172315Z 1800/1824 VRB03KT CAVOK"
    },
    {
      "icao": "LHDC",
      "alert": "OK",
      "vis_m": 9999,
      "fzfg": false,
      "metar_trigger": false,
      "taf_trigger": false,
      "metar": "METAR LHDC 172315Z AUTO VRB01KT CAVOK M06/M08 Q1032",
      "taf": "TAF LHDC 171415Z 1715/1724 08005KT CAVOK"
    },
    {
      "icao": "LIBD",
      "alert": "OK",
      "vis_m": 4300,
      "fzfg": false,
      "metar_trigger": false,
      "taf_trigger": false,
      "metar": "METAR LIBD 172320Z AUTO 21004KT 4300 BR NCD 05/05 Q1022",
      "taf": "TAF LIBD 172300Z 1800/1824 VRB05KT 7000 FEW015"
    },
    {
      "icao": "LIBG",
      "alert": "OK",
      "vis_m": null,
      "fzfg": false,
      "metar_trigger": false,
      "taf_trigger": false,
      "metar": "",
      "taf": "TAF LIBG 171700Z 1718/1803 VRB05KT 9999 FEW020"
    },
    {
      "icao": "LIBP",
      "alert": "OK",
      "vis_m": 1600,
      "fzfg": false,
      "metar_trigger": false,
      "taf_trigger": false,
      "metar": "METAR LIBP 172320Z AUTO VRB02KT 1600 BR FEW015/// 09/09 Q1023",
      "taf": "TAF LIBP 172300Z 1800/1824 VRB05KT 2000 BR BKN010"
    },
    {
      "icao": "LIBR",
      "alert": "OK",
      "vis_m": 9999,
      "fzfg": false,
      "metar_trigger": false,
      "taf_trigger": false,
      "metar": "METAR LIBR 172320Z 26004KT CAVOK 07/06 Q1022",
      "taf": "TAF LIBR 172300Z 1800/1824 VRB05KT CAVOK"
    },
    {
      "icao": "LICA",
      "alert": "OK",
      "vis_m": 9999,
      "fzfg": false,
      "metar_trigger": false,
      "taf_trigger": false,
      "metar": "METAR LICA 172320Z AUTO 06010KT 9999 OVC100/// 13/10 Q1020",
      "taf": "TAF LICA 172300Z 1800/1824 08018KT 9999 BKN040"
    },
    {
      "icao": "LICC",
      "alert": "OK",
      "vis_m": 9999,
      "fzfg": false,
      "metar_trigger": false,
      "taf_trigger": false,
      "metar": "METAR LICC 172320Z 13008KT 9999 FEW015 BKN040 14/13 Q1019",
      "taf": "TAF LICC 172300Z 1800/1824 08013KT 9999 SCT015 BKN040"
    },
    {
      "icao": "LICJ",
      "alert": "OK",
      "vis_m": 9999,
      "fzfg": false,
      "metar_trigger": false,
      "taf_trigger": false,
      "metar": "METAR LICJ 172320Z 16003KT 130V190 CAVOK 13/09 Q1017",
      "taf": "TAF LICJ 172300Z 1800/1824 11008KT 9999 FEW040"
    },
    {
      "icao": "LIMC",
      "alert": "OK",
      "vis_m": 9999,
      "fzfg": false,
      "metar_trigger": false,
      "taf_trigger": false,
      "metar": "METAR LIMC 172320Z 01006KT 9999 BKN025 08/06 Q1024 NOSIG",
      "taf": "TAF LIMC 172300Z 1800/1906 VRB04KT 7000 BKN040"
    },
    {
      "icao": "LIME",
      "alert": "OK",
      "vis_m": 9999,
      "fzfg": false,
      "metar_trigger": false,
      "taf_trigger": false,
      "metar": "METAR LIME 172320Z 01005KT 9999 BKN070 08/06 Q1023 NOSIG",
      "taf": "TAF LIME 172300Z 1800/1824 VRB03KT 6000 SCT040"
    },
    {
      "icao": "LIMF",
      "alert": "OK",
      "vis_m": 8000,
      "fzfg": false,
      "metar_trigger": false,
      "taf_trigger": false,
      "metar": "METAR LIMF 172320Z 30008KT 8000 -RA OVC040 08/05 Q1024",
      "taf": "TAF LIMF 172300Z 1800/1824 30007KT 4000 -RA BKN035"
    },
    {
      "icao": "LIMJ",
      "alert": "OK",
      "vis_m": 9999,
      "fzfg": false,
      "metar_trigger": false,
      "taf_trigger": false,
      "metar": "METAR LIMJ 172320Z 03015KT CAVOK 10/06 Q1021",
      "taf": "TAF LIMJ 172300Z 1800/1824 02014KT 9999 FEW040"
    },
    {
      "icao": "LIPE",
      "alert": "OK",
      "vis_m": 1000,
      "fzfg": false,
      "metar_trigger": false,
      "taf_trigger": false,
      "metar": "METAR LIPE 172320Z AUTO 26002KT 1000 0900N R12/P2000N R30/P2000N BR OVC005/// 08/08 Q1024",
      "taf": "TAF LIPE 172300Z 1800/1824 VRB04KT 1400 BR BKN004"
    },
    {
      "icao": "LIPH",
      "alert": "OK",
      "vis_m": 9999,
      "fzfg": false,
      "metar_trigger": false,
      "taf_trigger": false,
      "metar": "METAR LIPH 172320Z AUTO 05006KT 9999 BKN066/// 09/04 Q1024",
      "taf": "TAF LIPH 172300Z 1800/1824 04005KT 9999 SCT060"
    },
    {
      "icao": "LIPQ",
      "alert": "OK",
      "vis_m": 9999,
      "fzfg": false,
      "metar_trigger": false,
      "taf_trigger": false,
      "metar": "METAR LIPQ 172320Z AUTO VRB02KT 9999 OVC086/// 09/02 Q1024",
      "taf": "TAF LIPQ 172300Z 1800/1824 02005KT 9999 FEW070"
    },
    {
      "icao": "LIPR",
      "alert": "OK",
      "vis_m": 2500,
      "fzfg": false,
      "metar_trigger": false,
      "taf_trigger": false,
      "metar": "METAR LIPR 172320Z AUTO 26003KT 2500 BR OVC005/// 07/07 Q1024",
      "taf": "TAF LIPR 172300Z 1800/1824 VRB05KT 4000 BR BKN005"
    },
    {
      "icao": "LIPX",
      "alert": "OK",
      "vis_m": 6000,
      "fzfg": false,
      "metar_trigger": false,
      "taf_trigger": false,
      "metar": "METAR LIPX 172320Z 17003KT 6000 FEW050 06/06 Q1024",
      "taf": "TAF LIPX 172300Z 1800/1824 VRB04KT 6000 BKN040"
    },
    {
      "icao": "LIPY",
      "alert": "OK",
      "vis_m": 1100,
      "fzfg": false,
      "metar_trigger": false,
      "taf_trigger": false,
      "metar": "METAR LIPY 172320Z AUTO VRB02KT 1100 R22/P2000N BR BKN002/// OVC022/// 09/09 Q1023",
      "taf": "TAF LIPY 172300Z 1800/1824 VRB05KT 3000 BR BKN005"
    },
    {
      "icao": "LIPZ",
      "alert": "OK",
      "vis_m": 9999,
      "fzfg": false,
      "metar_trigger": false,
      "taf_trigger": false,
      "metar": "METAR LIPZ 172320Z 05008KT CAVOK 06/03 Q1024 NOSIG",
      "taf": "TAF LIPZ 172300Z 1800/1906 04010KT 9999 SCT060"
    },
    {
      "icao": "LIRF",
      "alert": "OK",
      "vis_m": 9999,
      "fzfg": false,
      "metar_trigger": false,
      "taf_trigger": false,
      "metar": "METAR LIRF 172320Z 05009KT CAVOK 10/06 Q1019 NOSIG",
      "taf": "TAF LIRF 172300Z 1800/1906 05008KT 9999 FEW040"
    },
    {
      "icao": "LIRN",
      "alert": "OK",
      "vis_m": 9999,
      "fzfg": false,
      "metar_trigger": false,
      "taf_trigger": false,
      "metar": "METAR LIRN 172320Z AUTO 02008KT 9999 FEW090/// 12/06 Q1020",
      "taf": "TAF LIRN 172300Z 1800/1824 05008KT 9999 FEW040"
    },
    {
      "icao": "LIRP",
      "alert": "OK",
      "vis_m": 9999,
      "fzfg": false,
      "metar_trigger": false,
      "taf_trigger": false,
      "metar": "METAR LIRP 172315Z 13007KT CAVOK 08/07 Q1021 NOSIG",
      "taf": "TAF LIRP 172300Z 1800/1824 14008KT 9999 SCT070"
    },
    {
      "icao": "LIRZ",
      "alert": "OK",
      "vis_m": 9999,
      "fzfg": false,
      "metar_trigger": false,
      "taf_trigger": false,
      "metar": "METAR LIRZ 172320Z AUTO 35008KT 9999 NCD 06/05 Q1021",
      "taf": "TAF LIRZ 172300Z 1800/1824 02008KT CAVOK"
    },
    {
      "icao": "LJLJ",
      "alert": "OK",
      "vis_m": 5000,
      "fzfg": false,
      "metar_trigger": false,
      "taf_trigger": false,
      "metar": "METAR LJLJ 172330Z 12004KT 5000 BR OVC013 02/00 Q1029 NOSIG",
      "taf": "TAF LJLJ 172300Z 1800/1900 12003KT 6000 OVC016"
    },
    {
      "icao": "LKMT",
      "alert": "OK",
      "vis_m": 350,
      "fzfg": true,
      "metar_trigger": false,
      "taf_trigger": false,
      "metar": "METAR LKMT 172330Z VRB01KT 0350 R22/0450N R04/0400N FZFG VV002 M03/M03 Q1031 NOSIG",
      "taf": "TAF LKMT 172300Z 1800/1824 VRB02KT 0200 FZFG VV002"
    },
    {
      "icao": "LKPR",
      "alert": "OK",
      "vis_m": 9999,
      "fzfg": false,
      "metar_trigger": false,
      "taf_trigger": false,
      "metar": "METAR LKPR 172330Z 09007KT CAVOK M01/M01 Q1026 NOSIG",
      "taf": "TAF LKPR 172300Z 1800/1906 12012KT CAVOK"
    },
    {
      "icao": "LLBG",
      "alert": "OK",
      "vis_m": 9999,
      "fzfg": false,
      "metar_trigger": false,
      "taf_trigger": false,
      "metar": "METAR LLBG 172320Z VRB03KT 9999 FEW050 13/10 Q1015 NOSIG",
      "taf": "TAF LLBG 172321Z 1800/1824 15006KT 9999 SCT035"
    },
    {
      "icao": "LMML",
      "alert": "OK",
      "vis_m": 9999,
      "fzfg": false,
      "metar_trigger": false,
      "taf_trigger": false,
      "metar": "METAR LMML 172345Z 14004KT 9999 FEW018 12/10 Q1017 NOSIG",
      "taf": "TAF LMML 172300Z 1800/1824 10008KT 9999 FEW015"
    },
    {
      "icao": "LOWW",
      "alert": "OK",
      "vis_m": 9999,
      "fzfg": false,
      "metar_trigger": false,
      "taf_trigger": false,
      "metar": "METAR LOWW 172320Z 13006KT 9999 FEW022 M01/M04 Q1030 NOSIG",
      "taf": "TAF LOWW 172315Z 1800/1906 12008KT 9999 FEW030 TXM00/1813Z TNM06/1906Z"
    },
    {
      "icao": "LPFR",
      "alert": "OK",
      "vis_m": 9999,
      "fzfg": false,
      "metar_trigger": false,
      "taf_trigger": false,
      "metar": "METAR LPFR 172330Z 29003KT 260V330 9999 FEW020 FEW025CB SCT045 09/07 Q1009",
      "taf": "TAF LPFR 172300Z 1800/1824 VRB02KT 9999 SCT035"
    },
    {
      "icao": "LPMA",
      "alert": "OK",
      "vis_m": 9999,
      "fzfg": false,
      "metar_trigger": false,
      "taf_trigger": false,
      "metar": "METAR LPMA 172330Z 26005KT 230V290 9999 BKN015 16/11 Q1016",
      "taf": "TAF LPMA 172300Z 1800/1824 VRB05KT 9999 SCT015 SCT030"
    },
    {
      "icao": "LPPR",
      "alert": "OK",
      "vis_m": 8000,
      "fzfg": false,
      "metar_trigger": false,
      "taf_trigger": false,
      "metar": "METAR LPPR 172330Z VRB02KT 8000 FEW009 04/04 Q1011",
      "taf": "TAF LPPR 172300Z 1800/1824 05005KT CAVOK"
    },
    {
      "icao": "LPPS",
      "alert": "OK",
      "vis_m": 8000,
      "fzfg": false,
      "metar_trigger": false,
      "taf_trigger": false,
      "metar": "METAR LPPS 172330Z 29024G34KT 8000 -RADZ SCT010 BKN030 16/15 Q1015",
      "taf": "TAF LPPS 172300Z 1800/1906 31018KT 9999 SCT012 BKN030"
    },
    {
      "icao": "LPPT",
      "alert": "OK",
      "vis_m": 9999,
      "fzfg": false,
      "metar_trigger": false,
      "taf_trigger": false,
      "metar": "METAR LPPT 172330Z 32006KT 9999 FEW025 06/05 Q1009",
      "taf": "TAF LPPT 172300Z 1800/1906 VRB02KT 9999 SCT030"
    },
    {
      "icao": "LQBK",
      "alert": "OK",
      "vis_m": 9999,
      "fzfg": false,
      "metar_trigger": false,
      "taf_trigger": false,
      "metar": "METAR LQBK 172330Z 32005KT 9999 OVC021 01/M01 Q1030 NOSIG",
      "taf": "TAF LQBK 172300Z 1800/1824 34006KT 9999 BKN018 TX00/1812Z TNM04/1824Z"
    },
    {
      "icao": "LQSA",
      "alert": "OK",
      "vis_m": 500,
      "fzfg": true,
      "metar_trigger": false,
      "taf_trigger": false,
      "metar": "METAR LQSA 172330Z 13003KT 0500 R11/0700U FZFG VV004 M02/M02 Q1027",
      "taf": "TAF LQSA 172300Z 1800/1824 VRB02KT 0300 FZFG BKN003 TX02/1813Z TNM02/1800Z"
    },
    {
      "icao": "LQTZ",
      "alert": "OK",
      "vis_m": 7000,
      "fzfg": false,
      "metar_trigger": false,
      "taf_trigger": false,
      "metar": "METAR LQTZ 172330Z 25002KT 7000 BKN016 OVC023 M00/M00 Q1029",
      "taf": "TAF LQTZ 172300Z 1800/1824 10006KT 6000 BKN015 TX01/1813Z TNM05/1824Z"
    },
    {
      "icao": "LRBC",
      "alert": "OK",
      "vis_m": 9999,
      "fzfg": false,
      "metar_trigger": false,
      "taf_trigger": false,
      "metar": "METAR LRBC 172330Z 35010KT 9999 OVC023 M11/M15 Q1039",
      "taf": "TAF LRBC 172300Z 1800/1809 01008KT 9999 BKN025"
    },
    {
      "icao": "LRBS",
      "alert": "OK",
      "vis_m": 9999,
      "fzfg": false,
      "metar_trigger": false,
      "taf_trigger": false,
      "metar": "METAR LRBS 172330Z 06008KT 9999 OVC025 M09/M12 Q1037 NOSIG",
      "taf": "TAF LRBS 172300Z 1800/1824 07011KT 9999 SCT015 BKN025"
    },
    {
      "icao": "LRBV",
      "alert": "OK",
      "vis_m": 9999,
      "fzfg": false,
      "metar_trigger": false,
      "taf_trigger": false,
      "metar": "METAR LRBV 172330Z AUTO 16003KT 100V180 9999 BKN021/// M08/M11 Q1032",
      "taf": "TAF LRBV 172000Z 1721/1806 VRB04KT CAVOK"
    },
    {
      "icao": "LRCL",
      "alert": "OK",
      "vis_m": 7000,
      "fzfg": false,
      "metar_trigger": false,
      "taf_trigger": false,
      "metar": "METAR LRCL 172330Z 09002KT 7000 NSC M13/M14 Q1033",
      "taf": "TAF LRCL 172300Z 1800/1809 VRB04KT 5000 BR NSC"
    },
    {
      "icao": "LRCV",
      "alert": "OK",
      "vis_m": 9999,
      "fzfg": false,
      "metar_trigger": false,
      "taf_trigger": false,
      "metar": "METAR LRCV 172330Z 12011KT 9999 OVC036 M08/M10 Q1035",
      "taf": "TAF LRCV 172300Z 1800/1809 11007KT 9999 BKN025"
    },
    {
      "icao": "LRIA",
      "alert": "OK",
      "vis_m": 9999,
      "fzfg": false,
      "metar_trigger": false,
      "taf_trigger": false,
      "metar": "METAR LRIA 172330Z 30006KT CAVOK M15/M17 Q1040",
      "taf": "TAF LRIA 172300Z 1800/1809 30005KT CAVOK"
    },
    {
      "icao": "LROP",
      "alert": "OK",
      "vis_m": 9000,
      "fzfg": false,
      "metar_trigger": false,
      "taf_trigger": false,
      "metar": "METAR LROP 172330Z 08013KT 9000 OVC024 M09/M13 Q1037 NOSIG",
      "taf": "TAF LROP 172300Z 1800/1824 07011KT 9999 SCT015 BKN025"
    },
    {
      "icao": "LRSB",
      "alert": "OK",
      "vis_m": 4000,
      "fzfg": false,
      "metar_trigger": false,
      "taf_trigger": false,
      "metar": "METAR LRSB 172330Z VRB01KT 4000 BCFG BR NSC M12/M13 Q1031",
      "taf": "TAF LRSB 172300Z 1800/1824 VRB04KT CAVOK"
    },
    {
      "icao": "LRSM",
      "alert": "OK",
      "vis_m": 9999,
      "fzfg": false,
      "metar_trigger": false,
      "taf_trigger": false,
      "metar": "METAR LRSM 172330Z AUTO 08004KT 9999 NCD M10/M12 Q1033",
      "taf": ""
    },
    {
      "icao": "LRSV",
      "alert": "OK",
      "vis_m": 7000,
      "fzfg": false,
      "metar_trigger": false,
      "taf_trigger": false,
      "metar": "METAR LRSV 172330Z 34003KT 7000 BKN009 M13/M15 Q1037",
      "taf": "TAF LRSV 172300Z 1800/1809 36005KT 5000 BR SCT015"
    },
    {
      "icao": "LRTM",
      "alert": "OK",
      "vis_m": 7000,
      "fzfg": false,
      "metar_trigger": false,
      "taf_trigger": false,
      "metar": "METAR LRTM 172330Z AUTO 10003KT 7000 NCD M16/M18 Q1033",
      "taf": "TAF LRTM 171400Z 1715/1724 VRB04KT CAVOK"
    },
    {
      "icao": "LRTR",
      "alert": "OK",
      "vis_m": 9999,
      "fzfg": false,
      "metar_trigger": false,
      "taf_trigger": false,
      "metar": "METAR LRTR 172330Z COR 18003KT 120V210 CAVOK M04/M04 Q1032",
      "taf": "TAF LRTR 172300Z 1800/1824 VRB04KT CAVOK"
    },
    {
      "icao": "LTAC",
      "alert": "OK",
      "vis_m": 9999,
      "fzfg": false,
      "metar_trigger": false,
      "taf_trigger": false,
      "metar": "METAR LTAC 172320Z 26004KT 9999 SCT040 SCT080 M04/M08 Q1020 NOSIG RMK RWY21C 17002KT RWY03L 25003KT RWY21R 20002KT RWY03R VRB01KT RWY21L 18002KT",
      "taf": "TAF LTAC 172240Z 1800/1824 VRB02KT 9999 SCT040 SCT100"
    },
    {
      "icao": "LTFM",
      "alert": "OK",
      "vis_m": 9999,
      "fzfg": false,
      "metar_trigger": false,
      "taf_trigger": false,
      "metar": "METAR LTFM 172320Z 36017KT 9999 -SHSNRA SCT012 BKN028 01/M01 Q1028 NOSIG RMK RWY17L 35016KT RWY34L 35017KT RWY16R 35017KT RWY36 36019KT RWY18 36016KT",
      "taf": "TAF LTFM 172240Z 1800/1906 03018KT 9999 -SHSNRA SCT016 BKN028"
    },
    {
      "icao": "LUKK",
      "alert": "OK",
      "vis_m": 9999,
      "fzfg": false,
      "metar_trigger": false,
      "taf_trigger": false,
      "metar": "METAR LUKK 172330Z 01009KT CAVOK M13/M16 Q1038 NOSIG",
      "taf": "TAF LUKK 172324Z 1800/1824 01009KT 9999 SCT020"
    },
    {
      "icao": "LWOH",
      "alert": "OK",
      "vis_m": null,
      "fzfg": false,
      "metar_trigger": false,
      "taf_trigger": false,
      "metar": "",
      "taf": "TAF LWOH 172320Z 1800/1824 VRB02KT 9999 BKN040"
    },
    {
      "icao": "LWSK",
      "alert": "OK",
      "vis_m": 7000,
      "fzfg": false,
      "metar_trigger": false,
      "taf_trigger": false,
      "metar": "METAR LWSK 172320Z 00000KT 7000 SCT015 OVC035 02/01 Q1028 NOSIG",
      "taf": "TAF LWSK 172320Z 1800/1824 VRB02KT 5000 BR SCT015 OVC040"
    },
    {
      "icao": "LYBE",
      "alert": "OK",
      "vis_m": 9999,
      "fzfg": false,
      "metar_trigger": false,
      "taf_trigger": false,
      "metar": "METAR LYBE 172330Z 10009KT CAVOK M02/M07 Q1031 NOSIG",
      "taf": "TAF LYBE 172300Z 1800/1824 11012KT CAVOK TX01/1813Z TNM05/1806Z"
    },
    {
      "icao": "LYNI",
      "alert": "OK",
      "vis_m": 9999,
      "fzfg": false,
      "metar_trigger": false,
      "taf_trigger": false,
      "metar": "METAR LYNI 172330Z 01004KT 330V040 CAVOK M05/M06 Q1030 NOSIG",
      "taf": "TAF LYNI 172300Z 1800/1824 04006KT 9999 SCT040 TX02/1813Z TNM06/1806Z"
    },
    {
      "icao": "LYPG",
      "alert": "OK",
      "vis_m": 7000,
      "fzfg": false,
      "metar_trigger": false,
      "taf_trigger": false,
      "metar": "METAR LYPG 172330Z 34006KT 7000 NSC 03/01 Q1025 NOSIG",
      "taf": "TAF LYPG 172300Z 1800/1824 36004KT CAVOK TX11/1813Z TN00/1805Z"
    },
    {
      "icao": "LZIB",
      "alert": "OK",
      "vis_m": 5000,
      "fzfg": false,
      "metar_trigger": false,
      "taf_trigger": false,
      "metar": "METAR LZIB 172330Z 08004KT 5000 BR FEW007 BKN031 M01/M01 Q1032 BECMG 2500 BR BKN006",
      "taf": "TAF LZIB 172315Z 1800/1900 05005KT 4500 BR SCT006"
    },
    {
      "icao": "LZKZ",
      "alert": "OK",
      "vis_m": 9999,
      "fzfg": false,
      "metar_trigger": false,
      "taf_trigger": false,
      "metar": "METAR LZKZ 172330Z 22003KT CAVOK M07/M11 Q1032 NOSIG",
      "taf": "TAF LZKZ 172315Z 1800/1900 VRB02KT CAVOK"
    },
    {
      "icao": "LZTT",
      "alert": "OK",
      "vis_m": 9999,
      "fzfg": false,
      "metar_trigger": false,
      "taf_trigger": false,
      "metar": "METAR LZTT 172330Z 28005KT CAVOK M11/M13 Q1030",
      "taf": "TAF LZTT 172315Z 1800/1900 28005KT CAVOK"
    },
    {
      "icao": "OEJN",
      "alert": "OK",
      "vis_m": 9999,
      "fzfg": false,
      "metar_trigger": false,
      "taf_trigger": false,
      "metar": "METAR OEJN 172300Z 00000KT CAVOK 23/16 Q1012 NOSIG",
      "taf": "TAF OEJN 172300Z 1800/1906 VRB03KT 7000 FEW040"
    },
    {
      "icao": "OEMA",
      "alert": "OK",
      "vis_m": 8000,
      "fzfg": false,
      "metar_trigger": false,
      "taf_trigger": false,
      "metar": "METAR OEMA 172300Z VRB02KT 8000 NSC 18/05 Q1015 NOSIG",
      "taf": "TAF OEMA 172300Z 1800/1906 VRB03KT 7000 FEW045"
    },
    {
      "icao": "OJAI",
      "alert": "OK",
      "vis_m": 4000,
      "fzfg": false,
      "metar_trigger": false,
      "taf_trigger": false,
      "metar": "METAR OJAI 172300Z 30003KT 4000 HZ NSC 05/03 Q1017 NOSIG",
      "taf": "TAF OJAI 172300Z 1800/1906 25010KT 4000 BR FEW020 SCT025"
    },
    {
      "icao": "OMAA",
      "alert": "OK",
      "vis_m": 9999,
      "fzfg": false,
      "metar_trigger": false,
      "taf_trigger": false,
      "metar": "METAR OMAA 172300Z 25003KT 9999 SCT030 16/12 Q1016 NOSIG",
      "taf": "TAF OMAA 172300Z 1800/1906 21004KT 9999 FEW040"
    },
    {
      "icao": "OMDB",
      "alert": "OK",
      "vis_m": 9999,
      "fzfg": false,
      "metar_trigger": false,
      "taf_trigger": false,
      "metar": "METAR OMDB 172300Z 16005KT 9999 FEW035 17/11 Q1016 NOSIG",
      "taf": "TAF OMDB 172300Z 1800/1906 20006KT 8000 FEW030"
    },
    {
      "icao": "UAAA",
      "alert": "OK",
      "vis_m": 9999,
      "fzfg": false,
      "metar_trigger": false,
      "taf_trigger": false,
      "metar": "METAR UAAA 172330Z 01002MPS 9999 SCT050 BKN100 M18/M21 Q1030 NOSIG",
      "taf": "TAF UAAA 172300Z 1800/1824 33003MPS 6000 BKN015CB OVC050 TXM15/1808Z TNM22/1803Z"
    },
    {
      "icao": "UBBB",
      "alert": "OK",
      "vis_m": 8000,
      "fzfg": false,
      "metar_trigger": false,
      "taf_trigger": false,
      "metar": "METAR UBBB 172330Z 31014KT 8000 -RA BKN005 OVC022 04/03 Q1026 NOSIG",
      "taf": "TAF UBBB 172302Z 1800/1824 31014KT 8000 BKN007 OVC025 TX06/1810Z TN02/1801Z"
    },
    {
      "icao": "UDSG",
      "alert": "OK",
      "vis_m": 2700,
      "fzfg": false,
      "metar_trigger": false,
      "taf_trigger": false,
      "metar": "METAR UDSG 172330Z 00000KT 2700 -SN BR OVC026 M08/M08 Q1018 NOSIG",
      "taf": "TAF UDSG 172300Z 1800/1824 VRB06KT 2000 BR OVC020"
    },
    {
      "icao": "UDYZ",
      "alert": "OK",
      "vis_m": 5000,
      "fzfg": false,
      "metar_trigger": false,
      "taf_trigger": false,
      "metar": "METAR UDYZ 172330Z 25003KT 5000 BR BKN046 M03/M05 Q1020 NOSIG",
      "taf": "TAF UDYZ 172300Z 1800/1824 14006KT 3500 BR BKN040"
    },
    {
      "icao": "UGKO",
      "alert": "OK",
      "vis_m": 9999,
      "fzfg": false,
      "metar_trigger": false,
      "taf_trigger": false,
      "metar": "METAR UGKO 172330Z 09004KT 9999 SCT006 BKN012 01/00 Q1025 NOSIG",
      "taf": "TAF UGKO 172300Z 1800/1824 08007KT 9999 SCT020 BKN050 TX06/1811Z TN00/1803Z"
    }
  ]
}