{
  "ts_utc": "2026-02-06T22:57:12Z",
  "threshold_m": 150,
  "source": "stations_override.txt (ICAO list) + aviationweather.gov (METAR/TAF raw)",
  "station_count": 159,
  "stations": [
    {
      "icao": "BIKF",
      "alert": "OK",
      "vis_m": 9999,
      "fzfg": false,
      "metar_trigger": false,
      "taf_trigger": false,
      "metar": "METAR BIKF 062230Z 11009KT CAVOK 04/M00 Q1008",
      "taf": "TAF BIKF 062242Z 0700/0800 06008KT CAVOK TX03/0714Z TNM03/0800Z"
    },
    {
      "icao": "BKPR",
      "alert": "OK",
      "vis_m": null,
      "fzfg": false,
      "metar_trigger": false,
      "taf_trigger": false,
      "metar": "",
      "taf": "TAF BKPR 061730Z 0618/0718 19007KT 9999 SCT020 BKN040"
    },
    {
      "icao": "EBCI",
      "alert": "OK",
      "vis_m": 9999,
      "fzfg": false,
      "metar_trigger": false,
      "taf_trigger": false,
      "metar": "METAR EBCI 062250Z 19006KT 9999 FEW022 SCT046 08/07 Q0997 NOSIG",
      "taf": "TAF EBCI 061707Z 0618/0724 19007KT 9999 SCT015 SCT300"
    },
    {
      "icao": "EDDB",
      "alert": "OK",
      "vis_m": 400,
      "fzfg": false,
      "metar_trigger": false,
      "taf_trigger": false,
      "metar": "METAR EDDB 062250Z AUTO 08003KT 0400 R06L/0900N R06R/0450N FG VV003 01/01 Q1000 NOSIG",
      "taf": "TAF EDDB 061700Z 0618/0718 08003KT 3000 BR OVC003"
    },
    {
      "icao": "EDDH",
      "alert": "OK",
      "vis_m": 3800,
      "fzfg": false,
      "metar_trigger": false,
      "taf_trigger": false,
      "metar": "METAR EDDH 062250Z AUTO 10006KT 3800 BR OVC003 01/00 Q1000 TEMPO 2500",
      "taf": "TAF EDDH 061700Z 0618/0724 08007KT 3500 BR OVC003"
    },
    {
      "icao": "EDDK",
      "alert": "OK",
      "vis_m": 9999,
      "fzfg": false,
      "metar_trigger": false,
      "taf_trigger": false,
      "metar": "METAR EDDK 062250Z AUTO 11004KT 070V140 9999 -SHRA FEW029 SCT043 FEW///TCU 06/05 Q0998 TEMPO SHRA",
      "taf": "TAF EDDK 061700Z 0618/0724 13010KT 9999 BKN030"
    },
    {
      "icao": "EDDN",
      "alert": "OK",
      "vis_m": 3600,
      "fzfg": false,
      "metar_trigger": false,
      "taf_trigger": false,
      "metar": "METAR EDDN 062250Z AUTO 10005KT 3600 -SHRA BR FEW013 SCT036 BKN044 FEW///TCU 02/01 Q1000",
      "taf": ""
    },
    {
      "icao": "EDDS",
      "alert": "OK",
      "vis_m": 9999,
      "fzfg": false,
      "metar_trigger": false,
      "taf_trigger": false,
      "metar": "METAR EDDS 062250Z AUTO 21004KT 180V240 9999 BKN038 07/05 Q0999",
      "taf": "TAF EDDS 061700Z 0618/0718 VRB03KT 9999 BKN030"
    },
    {
      "icao": "EDFH",
      "alert": "OK",
      "vis_m": 9999,
      "fzfg": false,
      "metar_trigger": false,
      "taf_trigger": false,
      "metar": "METAR EDFH 062220Z 19005KT 150V230 9999 R21/1300D -RA FEW002 BKN009 06/06 Q0997",
      "taf": ""
    },
    {
      "icao": "EDJA",
      "alert": "OK",
      "vis_m": 9999,
      "fzfg": false,
      "metar_trigger": false,
      "taf_trigger": false,
      "metar": "METAR EDJA 062220Z AUTO 20007KT 9999 // FEW051/// SCT068/// 03/02 Q1000",
      "taf": "TAF EDJA 061700Z 0618/0703 24013KT 9999 FEW015 BKN035"
    },
    {
      "icao": "EDLW",
      "alert": "OK",
      "vis_m": 9999,
      "fzfg": false,
      "metar_trigger": false,
      "taf_trigger": false,
      "metar": "METAR EDLW 062220Z AUTO 16010KT 9999 // FEW027/// BKN049/// 07/05 Q0996",
      "taf": "TAF EDLW 061700Z 0618/0718 VRB03KT 9999 BKN020"
    },
    {
      "icao": "EDNY",
      "alert": "OK",
      "vis_m": 8000,
      "fzfg": false,
      "metar_trigger": false,
      "taf_trigger": false,
      "metar": "METAR EDNY 062220Z AUTO 00000KT 8000 // FEW046/// BKN062/// OVC089/// 04/04 Q1001",
      "taf": "TAF EDNY 061700Z 0618/0703 VRB03KT 9999 BKN035"
    },
    {
      "icao": "EDSB",
      "alert": "OK",
      "vis_m": 9999,
      "fzfg": false,
      "metar_trigger": false,
      "taf_trigger": false,
      "metar": "METAR EDSB 062220Z 19009KT 9999 -RA OVC038 08/07 Q1000",
      "taf": "TAF EDSB 061700Z 0618/0718 22003KT 8000 FEW001 BKN040"
    },
    {
      "icao": "EETN",
      "alert": "OK",
      "vis_m": 7000,
      "fzfg": false,
      "metar_trigger": false,
      "taf_trigger": false,
      "metar": "METAR EETN 062250Z 07008KT 7000 FEW004 BKN036 M07/M08 Q1013",
      "taf": "TAF EETN 061730Z 0618/0718 08010KT 8000 OVC007"
    },
    {
      "icao": "EFTU",
      "alert": "OK",
      "vis_m": 9999,
      "fzfg": false,
      "metar_trigger": false,
      "taf_trigger": false,
      "metar": "METAR EFTU 062250Z AUTO 05003KT CAVOK M17/M18 Q1015",
      "taf": "TAF EFTU 062029Z 0621/0721 07005KT 9999 FEW040"
    },
    {
      "icao": "EGBB",
      "alert": "OK",
      "vis_m": 800,
      "fzfg": false,
      "metar_trigger": false,
      "taf_trigger": false,
      "metar": "METAR EGBB 062250Z 14003KT 0800 R15/P1500U FG BKN002 06/06 Q0990",
      "taf": ""
    },
    {
      "icao": "EGGP",
      "alert": "OK",
      "vis_m": 9999,
      "fzfg": false,
      "metar_trigger": false,
      "taf_trigger": false,
      "metar": "METAR EGGP 062250Z 08006KT 9999 -RA FEW008 OVC013 05/04 Q0989",
      "taf": "TAF EGGP 061700Z 0618/0718 08008KT 9999 BKN016"
    },
    {
      "icao": "EGGW",
      "alert": "OK",
      "vis_m": 7000,
      "fzfg": false,
      "metar_trigger": false,
      "taf_trigger": false,
      "metar": "METAR EGGW 062250Z AUTO 20006KT 160V230 7000 BKN005 08/07 Q0991",
      "taf": "TAF EGGW 061654Z 0618/0718 22007KT 9999 SCT015"
    },
    {
      "icao": "EGKK",
      "alert": "OK",
      "vis_m": 9999,
      "fzfg": false,
      "metar_trigger": false,
      "taf_trigger": false,
      "metar": "METAR EGKK 062220Z 19006KT 9999 BKN036 09/08 Q0992",
      "taf": "TAF EGKK 061701Z 0618/0724 19008KT 9999 SCT010"
    },
    {
      "icao": "EGNM",
      "alert": "OK",
      "vis_m": 400,
      "fzfg": false,
      "metar_trigger": false,
      "taf_trigger": false,
      "metar": "METAR EGNM 062220Z 04004KT 0400 R32/0450N -RADZ FG OVC002 04/04 Q0990",
      "taf": "TAF EGNM 061702Z 0618/0718 08008KT 2000 -RA BR SCT002 BKN003"
    },
    {
      "icao": "EGPD",
      "alert": "OK",
      "vis_m": 5000,
      "fzfg": false,
      "metar_trigger": false,
      "taf_trigger": false,
      "metar": "METAR EGPD 062250Z COR AUTO 10011KT 5000 -RA BKN007/// BKN011/// OVC017/// //////CB 04/02 Q0997 TEMPO 4000 RA",
      "taf": "TAF EGPD 061659Z 0618/0718 10012KT 9999 SCT012 BKN020"
    },
    {
      "icao": "EGPF",
      "alert": "OK",
      "vis_m": 9999,
      "fzfg": false,
      "metar_trigger": false,
      "taf_trigger": false,
      "metar": "METAR EGPF 062250Z AUTO 06011KT 9999 -RA OVC011 05/03 Q0993",
      "taf": "TAF EGPF 061655Z 0618/0718 07014KT 9999 SCT018 BKN025"
    },
    {
      "icao": "EHBK",
      "alert": "OK",
      "vis_m": 9999,
      "fzfg": false,
      "metar_trigger": false,
      "taf_trigger": false,
      "metar": "METAR EHBK 062225Z AUTO 23007KT 210V270 9999 -DZ FEW015CB SCT020 BKN027 OVC030 09/08 Q0997",
      "taf": "TAF EHBK 061719Z 0618/0724 18007KT CAVOK"
    },
    {
      "icao": "EHEH",
      "alert": "OK",
      "vis_m": 9999,
      "fzfg": false,
      "metar_trigger": false,
      "taf_trigger": false,
      "metar": "METAR EHEH 062225Z AUTO 18006KT 9999 OVC230 08/07 Q0996 BLU",
      "taf": ""
    },
    {
      "icao": "EKBI",
      "alert": "OK",
      "vis_m": 4500,
      "fzfg": false,
      "metar_trigger": false,
      "taf_trigger": false,
      "metar": "METAR EKBI 062250Z AUTO 09014KT 4500 BR OVC004/// 00/00 Q1002",
      "taf": "TAF EKBI 062027Z 0621/0721 07014KT 9000 OVC004"
    },
    {
      "icao": "EKCH",
      "alert": "OK",
      "vis_m": 9999,
      "fzfg": false,
      "metar_trigger": false,
      "taf_trigger": false,
      "metar": "METAR EKCH 062250Z 08011KT 9999 BKN011 01/M01 Q1004 TEMPO BKN008",
      "taf": "TAF EKCH 062027Z 0621/0721 09012KT 9999 BKN012"
    },
    {
      "icao": "ENAL",
      "alert": "OK",
      "vis_m": 9999,
      "fzfg": false,
      "metar_trigger": false,
      "taf_trigger": false,
      "metar": "METAR ENAL 062250Z AUTO 13012KT 9999 NCD 03/M12 Q1008",
      "taf": "TAF ENAL 062000Z 0621/0706 13009KT CAVOK"
    },
    {
      "icao": "ENBR",
      "alert": "OK",
      "vis_m": 9999,
      "fzfg": false,
      "metar_trigger": false,
      "taf_trigger": false,
      "metar": "METAR ENBR 062250Z 05002KT CAVOK 00/M06 Q1006 RMK WIND 1200FT 09003KT",
      "taf": "TAF ENBR 061700Z 0618/0718 06005KT CAVOK"
    },
    {
      "icao": "ENGM",
      "alert": "OK",
      "vis_m": 9999,
      "fzfg": false,
      "metar_trigger": false,
      "taf_trigger": false,
      "metar": "METAR ENGM 062250Z 02010KT 9999 -SN OVC017 M08/M13 Q1014",
      "taf": "TAF ENGM 061700Z 0618/0718 02012KT 9999 BKN030"
    },
    {
      "icao": "ENHD",
      "alert": "OK",
      "vis_m": 9999,
      "fzfg": false,
      "metar_trigger": false,
      "taf_trigger": false,
      "metar": "METAR ENHD 062250Z AUTO 10007KT 9999 NCD 01/M09 Q1006",
      "taf": "TAF ENHD 061400Z 0615/0623 08008KT 9999 FEW030 BKN040"
    },
    {
      "icao": "ENTC",
      "alert": "OK",
      "vis_m": 9999,
      "fzfg": false,
      "metar_trigger": false,
      "taf_trigger": false,
      "metar": "METAR ENTC 062250Z 04003KT 010V070 9999 -SHSN FEW030 SCT039 BKN057 M02/M05 Q1018 RMK WIND 2600FT 36028KT",
      "taf": "TAF ENTC 061700Z 0618/0718 04006KT 9999 SCT020 BKN040"
    },
    {
      "icao": "ENTO",
      "alert": "OK",
      "vis_m": 3200,
      "fzfg": false,
      "metar_trigger": false,
      "taf_trigger": false,
      "metar": "METAR ENTO 062250Z AUTO 01014KT 3200 -SN VV008 M07/M08 Q1013",
      "taf": "TAF ENTO 061700Z 0618/0718 02016KT 9999 -SN BKN018"
    },
    {
      "icao": "ENVA",
      "alert": "OK",
      "vis_m": 9999,
      "fzfg": false,
      "metar_trigger": false,
      "taf_trigger": false,
      "metar": "METAR ENVA 062250Z 10009KT CAVOK M13/M19 Q1015 RMK WIND 670FT 12007KT",
      "taf": "TAF ENVA 061700Z 0618/0718 12008KT CAVOK"
    },
    {
      "icao": "ENZV",
      "alert": "OK",
      "vis_m": 9999,
      "fzfg": false,
      "metar_trigger": false,
      "taf_trigger": false,
      "metar": "METAR ENZV 062250Z 10007KT CAVOK M00/M08 Q1006",
      "taf": "TAF ENZV 061700Z 0618/0718 13007KT CAVOK"
    },
    {
      "icao": "EPGD",
      "alert": "OK",
      "vis_m": 4600,
      "fzfg": false,
      "metar_trigger": false,
      "taf_trigger": false,
      "metar": "METAR EPGD 062230Z 08005KT 050V110 4600 BR OVC003 M02/M02 Q1002",
      "taf": "TAF EPGD 061730Z 0618/0718 08006KT 5000 BR OVC005"
    },
    {
      "icao": "EPKK",
      "alert": "OK",
      "vis_m": 1500,
      "fzfg": false,
      "metar_trigger": false,
      "taf_trigger": false,
      "metar": "METAR EPKK 062230Z 09002KT 1500 BR BKN040 02/01 Q0998",
      "taf": ""
    },
    {
      "icao": "EPKT",
      "alert": "OK",
      "vis_m": 3100,
      "fzfg": false,
      "metar_trigger": false,
      "taf_trigger": false,
      "metar": "METAR EPKT 062230Z 09002KT 3100 BR BKN039 00/M00 Q0998",
      "taf": "TAF EPKT 061730Z 0618/0718 06003KT 6000 SCT040"
    },
    {
      "icao": "EPLB",
      "alert": "OK",
      "vis_m": 2500,
      "fzfg": false,
      "metar_trigger": false,
      "taf_trigger": false,
      "metar": "METAR EPLB 062230Z 09005KT 2500 -RA BR BKN003 OVC006 00/00 Q1000",
      "taf": "TAF EPLB 061730Z 0618/0718 10009KT 6000 -RA OVC005"
    },
    {
      "icao": "EPMO",
      "alert": "OK",
      "vis_m": 650,
      "fzfg": true,
      "metar_trigger": false,
      "taf_trigger": false,
      "metar": "METAR EPMO 062230Z 06007KT 0650 R08/0650N FZFG OVC001 M00/M00 Q1001",
      "taf": "TAF EPMO 061730Z 0618/0718 09010KT 1500 BR OVC003"
    },
    {
      "icao": "EPPO",
      "alert": "OK",
      "vis_m": 700,
      "fzfg": false,
      "metar_trigger": false,
      "taf_trigger": false,
      "metar": "METAR EPPO 062230Z 06005KT 0700 R28/P2000D FG OVC001 01/00 Q1001",
      "taf": ""
    },
    {
      "icao": "EPRA",
      "alert": "OK",
      "vis_m": 4500,
      "fzfg": false,
      "metar_trigger": false,
      "taf_trigger": false,
      "metar": "METAR EPRA 062230Z 08004KT 4500 BR OVC004 01/M00 Q1000",
      "taf": "TAF EPRA 062030Z 0621/0706 09006KT 4000 BR OVC003"
    },
    {
      "icao": "EPRZ",
      "alert": "OK",
      "vis_m": 1600,
      "fzfg": false,
      "metar_trigger": false,
      "taf_trigger": false,
      "metar": "METAR EPRZ 062230Z 08007KT 1600 BR OVC002 01/00 Q0999",
      "taf": ""
    },
    {
      "icao": "EPSC",
      "alert": "OK",
      "vis_m": 4800,
      "fzfg": false,
      "metar_trigger": false,
      "taf_trigger": false,
      "metar": "METAR EPSC 062230Z 05002KT 4800 BR BKN009 OVC015 00/M00 Q1001",
      "taf": "TAF EPSC 061730Z 0618/0718 08004KT 4000 BR OVC005"
    },
    {
      "icao": "EPSY",
      "alert": "OK",
      "vis_m": 3200,
      "fzfg": false,
      "metar_trigger": false,
      "taf_trigger": false,
      "metar": "METAR EPSY 062230Z 07004KT 020V110 3200 BR OVC001 M02/M02 Q1002",
      "taf": "TAF EPSY 062030Z 0621/0706 09006KT 2500 BR OVC004"
    },
    {
      "icao": "EPWA",
      "alert": "OK",
      "vis_m": 7000,
      "fzfg": false,
      "metar_trigger": false,
      "taf_trigger": false,
      "metar": "METAR EPWA 062230Z 08006KT 7000 OVC005 01/00 Q1000 TEMPO BKN004",
      "taf": "TAF EPWA 062030Z 0621/0721 08006KT 6000 OVC004"
    },
    {
      "icao": "EPWR",
      "alert": "OK",
      "vis_m": 3300,
      "fzfg": false,
      "metar_trigger": false,
      "taf_trigger": false,
      "metar": "METAR EPWR 062230Z 02004KT 3300 BR BKN029 02/01 Q0999",
      "taf": "TAF EPWR 062030Z 0621/0721 VRB02KT 4000 BR BKN040"
    },
    {
      "icao": "ESGG",
      "alert": "OK",
      "vis_m": 7000,
      "fzfg": false,
      "metar_trigger": false,
      "taf_trigger": false,
      "metar": "METAR ESGG 062250Z 05013KT 7000 -SN OVC030 M05/M07 Q1007",
      "taf": "TAF ESGG 062030Z 0621/0721 05012KT 6000 -SN BKN030"
    },
    {
      "icao": "ESKN",
      "alert": "OK",
      "vis_m": 9999,
      "fzfg": false,
      "metar_trigger": false,
      "taf_trigger": false,
      "metar": "METAR ESKN 062250Z 03009KT 9999 BKN003 M05/M06 Q1012",
      "taf": ""
    },
    {
      "icao": "ESMS",
      "alert": "OK",
      "vis_m": 9999,
      "fzfg": false,
      "metar_trigger": false,
      "taf_trigger": false,
      "metar": "METAR ESMS 062250Z 08017KT 9999 OVC007 01/M00 Q1003",
      "taf": "TAF ESMS 062027Z 0621/0721 09018KT 9000 OVC008"
    },
    {
      "icao": "ESSA",
      "alert": "OK",
      "vis_m": 9999,
      "fzfg": false,
      "metar_trigger": false,
      "taf_trigger": false,
      "metar": "METAR ESSA 062250Z 04009KT 9999 BKN017 M05/M09 Q1013 NOSIG",
      "taf": "TAF ESSA 062030Z 0621/0721 05008KT 9999 BKN020"
    },
    {
      "icao": "EYKA",
      "alert": "OK",
      "vis_m": 3500,
      "fzfg": false,
      "metar_trigger": false,
      "taf_trigger": false,
      "metar": "METAR EYKA 062250Z 05005KT 020V080 3500 -FZDZ BR BKN006 OVC014 M05/M05 Q1005",
      "taf": "TAF EYKA 061722Z 0618/0718 08006KT 9000 OVC015"
    },
    {
      "icao": "EYPA",
      "alert": "OK",
      "vis_m": 9999,
      "fzfg": false,
      "metar_trigger": false,
      "taf_trigger": false,
      "metar": "METAR EYPA 062250Z 07007KT 9999 SCT012 OVC020 M05/M07 Q1007",
      "taf": "TAF EYPA 061701Z 0618/0718 08007KT 9000 FEW010 OVC025"
    },
    {
      "icao": "EYVI",
      "alert": "OK",
      "vis_m": 4600,
      "fzfg": false,
      "metar_trigger": false,
      "taf_trigger": false,
      "metar": "METAR EYVI 062250Z 09005KT 060V120 4600 -SN BR OVC017 M05/M06 Q1004 NOSIG",
      "taf": ""
    },
    {
      "icao": "GCFV",
      "alert": "OK",
      "vis_m": 9999,
      "fzfg": false,
      "metar_trigger": false,
      "taf_trigger": false,
      "metar": "METAR GCFV 062230Z 31004KT 210V340 9999 FEW020 16/10 Q1024",
      "taf": "TAF GCFV 062000Z 0621/0721 33005KT 9999 FEW025 TX22/0714Z TN16/0706Z"
    },
    {
      "icao": "GCLP",
      "alert": "OK",
      "vis_m": 9999,
      "fzfg": false,
      "metar_trigger": false,
      "taf_trigger": false,
      "metar": "METAR GCLP 062230Z 35009KT 9999 FEW040 17/10 Q1024 NOSIG",
      "taf": "TAF GCLP 062000Z 0621/0721 34009KT CAVOK TX22/0714Z TN16/0706Z"
    },
    {
      "icao": "GCTS",
      "alert": "OK",
      "vis_m": 9999,
      "fzfg": false,
      "metar_trigger": false,
      "taf_trigger": false,
      "metar": "METAR GCTS 062230Z 10006KT 9999 FEW030 18/12 Q1024 NOSIG",
      "taf": "TAF GCTS 062000Z 0621/0721 05007KT 9999 FEW035 TX24/0714Z TN16/0706Z"
    },
    {
      "icao": "GMAD",
      "alert": "OK",
      "vis_m": 8000,
      "fzfg": false,
      "metar_trigger": false,
      "taf_trigger": false,
      "metar": "METAR GMAD 062230Z 25011KT 8000 FEW020 13/12 Q1021 NOSIG",
      "taf": "TAF GMAD 061700Z 0618/0724 20008KT 8000 SCT020 SCT200"
    },
    {
      "icao": "GMMN",
      "alert": "OK",
      "vis_m": 9999,
      "fzfg": false,
      "metar_trigger": false,
      "taf_trigger": false,
      "metar": "METAR GMMN 062230Z 23009KT 190V260 9999 SCT016 11/10 Q1020 NOSIG",
      "taf": "TAF GMMN 061700Z 0618/0724 26014KT 9999 BKN030"
    },
    {
      "icao": "GMMX",
      "alert": "OK",
      "vis_m": 8000,
      "fzfg": false,
      "metar_trigger": false,
      "taf_trigger": false,
      "metar": "METAR GMMX 062230Z 23006KT 8000 SCT026 12/10 Q1022 NOSIG",
      "taf": "TAF GMMX 061700Z 0618/0724 26008KT 8000 SCT026 SCT090"
    },
    {
      "icao": "HEGN",
      "alert": "OK",
      "vis_m": 9999,
      "fzfg": false,
      "metar_trigger": false,
      "taf_trigger": false,
      "metar": "METAR HEGN 062200Z 00000KT CAVOK 18/13 Q1015 NOSIG",
      "taf": ""
    },
    {
      "icao": "HEMA",
      "alert": "OK",
      "vis_m": 9999,
      "fzfg": false,
      "metar_trigger": false,
      "taf_trigger": false,
      "metar": "METAR HEMA 062200Z 22008KT CAVOK 18/05 Q1014 NOSIG",
      "taf": ""
    },
    {
      "icao": "HESH",
      "alert": "OK",
      "vis_m": 9999,
      "fzfg": false,
      "metar_trigger": false,
      "taf_trigger": false,
      "metar": "METAR HESH 062200Z 27004KT CAVOK 18/14 Q1015 NOSIG",
      "taf": ""
    },
    {
      "icao": "HESX",
      "alert": "OK",
      "vis_m": 9999,
      "fzfg": false,
      "metar_trigger": false,
      "taf_trigger": false,
      "metar": "METAR HESX 062200Z 25006KT CAVOK 16/04 Q1014 NOSIG",
      "taf": ""
    },
    {
      "icao": "LATI",
      "alert": "OK",
      "vis_m": 9999,
      "fzfg": false,
      "metar_trigger": false,
      "taf_trigger": false,
      "metar": "METAR LATI 062250Z 15007KT 9999 SCT046 OVC090 13/10 Q1000 NOSIG",
      "taf": "TAF LATI 061700Z 0618/0718 22008KT 9999 SCT025 BKN070 TX16/0712Z TN11/0704Z"
    },
    {
      "icao": "LBPD",
      "alert": "OK",
      "vis_m": 5000,
      "fzfg": false,
      "metar_trigger": false,
      "taf_trigger": false,
      "metar": "METAR LBPD 062230Z AUTO 27004KT 5000 BR FEW003/// OVC017/// 07/07 Q0999",
      "taf": "TAF LBPD 061700Z 0618/0718 VRB04KT 9999 SCT015 BKN033"
    },
    {
      "icao": "LBSF",
      "alert": "OK",
      "vis_m": 5000,
      "fzfg": false,
      "metar_trigger": false,
      "taf_trigger": false,
      "metar": "METAR LBSF 062230Z AUTO 00000KT 5000 BR BKN052/// OVC061/// 04/04 Q0999 TEMPO 2000 BR",
      "taf": "TAF LBSF 061700Z 0618/0718 VRB04KT 5000 BR SCT020 OVC040"
    },
    {
      "icao": "LBWN",
      "alert": "OK",
      "vis_m": 1000,
      "fzfg": false,
      "metar_trigger": false,
      "taf_trigger": false,
      "metar": "METAR LBWN 062230Z AUTO VRB02KT 1000 0700S R09/1200N BR FEW001/// BKN004/// OVC025/// 07/07 Q0998 TEMPO 0800 BCFG",
      "taf": "TAF LBWN 061700Z 0618/0718 VRB04KT 7000 BKN015"
    },
    {
      "icao": "LCLK",
      "alert": "OK",
      "vis_m": 8000,
      "fzfg": false,
      "metar_trigger": false,
      "taf_trigger": false,
      "metar": "METAR LCLK 062230Z VRB03KT 8000 FEW009 SCT035 13/13 Q1011 NOSIG",
      "taf": "TAF LCLK 061730Z 0618/0718 30007KT 8000 BR DU FEW018"
    },
    {
      "icao": "LCPH",
      "alert": "OK",
      "vis_m": 9000,
      "fzfg": false,
      "metar_trigger": false,
      "taf_trigger": false,
      "metar": "METAR LCPH 062230Z 29007KT 250V320 9000 SCT014 SCT020 17/14 Q1011 TEMPO BKN015",
      "taf": "TAF LCPH 061730Z 0618/0718 02007KT 7000 BR DU FEW009 SCT012"
    },
    {
      "icao": "LEAL",
      "alert": "OK",
      "vis_m": 9999,
      "fzfg": false,
      "metar_trigger": false,
      "taf_trigger": false,
      "metar": "METAR LEAL 062230Z 25008KT CAVOK 12/05 Q1008 NOSIG",
      "taf": "TAF LEAL 061700Z 0618/0718 25015KT 9999 FEW015 BKN050 TX15/0714Z TN08/0706Z"
    },
    {
      "icao": "LEBB",
      "alert": "OK",
      "vis_m": 9999,
      "fzfg": false,
      "metar_trigger": false,
      "taf_trigger": false,
      "metar": "METAR LEBB 062230Z 21009KT 140V280 CAVOK 12/03 Q1001 NOSIG",
      "taf": "TAF LEBB 061700Z 0618/0718 22009KT 9999 FEW040 TX14/0713Z TN09/0707Z"
    },
    {
      "icao": "LEBL",
      "alert": "OK",
      "vis_m": 9999,
      "fzfg": false,
      "metar_trigger": false,
      "taf_trigger": false,
      "metar": "METAR LEBL 062230Z 26004KT 220V300 9999 FEW045 11/06 Q1001 NOSIG",
      "taf": "TAF LEBL 061700Z 0618/0718 25009KT 9999 FEW025 TX15/0713Z TN09/0706Z"
    },
    {
      "icao": "LECH",
      "alert": "OK",
      "vis_m": 9999,
      "fzfg": false,
      "metar_trigger": false,
      "taf_trigger": false,
      "metar": "METAR LECH 062230Z AUTO 21006KT CAVOK 10/02 Q1004",
      "taf": ""
    },
    {
      "icao": "LEMD",
      "alert": "OK",
      "vis_m": 9999,
      "fzfg": false,
      "metar_trigger": false,
      "taf_trigger": false,
      "metar": "METAR LEMD 062230Z 23010KT 9999 FEW020 SCT060 06/03 Q1006 NOSIG",
      "taf": ""
    },
    {
      "icao": "LEMG",
      "alert": "OK",
      "vis_m": 9999,
      "fzfg": false,
      "metar_trigger": false,
      "taf_trigger": false,
      "metar": "METAR LEMG 062230Z 29006KT 9999 FEW036TCU SCT042 09/08 Q1013 NOSIG",
      "taf": ""
    },
    {
      "icao": "LEVC",
      "alert": "OK",
      "vis_m": 9999,
      "fzfg": false,
      "metar_trigger": false,
      "taf_trigger": false,
      "metar": "METAR LEVC 062230Z 26010KT 9999 FEW045 12/05 Q1006 NOSIG",
      "taf": "TAF LEVC 061700Z 0618/0718 24014KT 9999 BKN050 TX16/0714Z TN08/0706Z"
    },
    {
      "icao": "LEXJ",
      "alert": "OK",
      "vis_m": 9999,
      "fzfg": false,
      "metar_trigger": false,
      "taf_trigger": false,
      "metar": "METAR LEXJ 062230Z AUTO 22008KT 160V260 CAVOK 11/02 Q1000",
      "taf": "TAF LEXJ 062000Z 0621/0721 20009KT CAVOK TX14/0712Z TN09/0706Z"
    },
    {
      "icao": "LEZG",
      "alert": "OK",
      "vis_m": 9999,
      "fzfg": false,
      "metar_trigger": false,
      "taf_trigger": false,
      "metar": "METAR LEZG 062230Z 25017KT 9999 FEW050 10/03 Q1004 NOSIG",
      "taf": ""
    },
    {
      "icao": "LEZL",
      "alert": "OK",
      "vis_m": 9999,
      "fzfg": false,
      "metar_trigger": false,
      "taf_trigger": false,
      "metar": "METAR LEZL 062230Z 23008KT 200V260 9999 FEW048 11/09 Q1013 NOSIG",
      "taf": "TAF LEZL 062000Z 0621/0721 23008KT 9999 SCT030 SCT040 TX15/0715Z TN12/0707Z"
    },
    {
      "icao": "LFBD",
      "alert": "OK",
      "vis_m": 9999,
      "fzfg": false,
      "metar_trigger": false,
      "taf_trigger": false,
      "metar": "METAR LFBD 062230Z AUTO 18009KT 9999 ///TCU 10/07 Q0999 TEMPO 4000 SHRA FEW035CB BKN040TCU",
      "taf": ""
    },
    {
      "icao": "LFLL",
      "alert": "OK",
      "vis_m": 9999,
      "fzfg": false,
      "metar_trigger": false,
      "taf_trigger": false,
      "metar": "METAR LFLL 062230Z 09003KT CAVOK 07/05 Q1002 NOSIG",
      "taf": "TAF LFLL 061700Z 0618/0724 19008KT CAVOK"
    },
    {
      "icao": "LFLS",
      "alert": "OK",
      "vis_m": 9999,
      "fzfg": false,
      "metar_trigger": false,
      "taf_trigger": false,
      "metar": "METAR LFLS 062230Z AUTO 07006KT 9999 FEW056 BKN082 06/05 Q1002",
      "taf": "TAF LFLS 061400Z 0615/0715 08007KT 9999 SCT050"
    },
    {
      "icao": "LFMN",
      "alert": "OK",
      "vis_m": 9999,
      "fzfg": false,
      "metar_trigger": false,
      "taf_trigger": false,
      "metar": "METAR LFMN 062230Z 32005KT 300V360 CAVOK 08/06 Q1000 NOSIG",
      "taf": "TAF LFMN 062000Z 0621/0803 33010KT CAVOK"
    },
    {
      "icao": "LFOB",
      "alert": "OK",
      "vis_m": 9999,
      "fzfg": false,
      "metar_trigger": false,
      "taf_trigger": false,
      "metar": "METAR LFOB 062230Z AUTO 19004KT 150V220 CAVOK 07/06 Q0997 NOSIG",
      "taf": "TAF LFOB 061700Z 0618/0718 20007KT 9999 BKN020"
    },
    {
      "icao": "LFPO",
      "alert": "OK",
      "vis_m": 9999,
      "fzfg": false,
      "metar_trigger": false,
      "taf_trigger": false,
      "metar": "METAR LFPO 062230Z AUTO 18004KT CAVOK 08/06 Q0998 NOSIG",
      "taf": "TAF LFPO 061700Z 0618/0724 22010KT 9999 SCT030TCU SCT100"
    },
    {
      "icao": "LFSB",
      "alert": "OK",
      "vis_m": 9999,
      "fzfg": false,
      "metar_trigger": false,
      "taf_trigger": false,
      "metar": "METAR LFSB 062230Z AUTO 17003KT 140V210 9999 FEW054 BKN094 BKN110 07/04 Q1001 NOSIG",
      "taf": "TAF LFSB 061700Z 0618/0718 16004KT 9999 SCT050"
    },
    {
      "icao": "LGAV",
      "alert": "OK",
      "vis_m": 9999,
      "fzfg": false,
      "metar_trigger": false,
      "taf_trigger": false,
      "metar": "METAR LGAV 062250Z 26008KT 9999 FEW020 15/09 Q1003 NOSIG",
      "taf": "TAF LGAV 061700Z 0618/0718 25012KT 9999 FEW020"
    },
    {
      "icao": "LGTS",
      "alert": "OK",
      "vis_m": 6000,
      "fzfg": false,
      "metar_trigger": false,
      "taf_trigger": false,
      "metar": "METAR LGTS 062250Z VRB03KT 6000 3000E BR SCT005 SCT020 10/10 Q1000 NOSIG",
      "taf": "TAF LGTS 061700Z 0618/0718 VRB03KT 8000 FEW008 SCT025"
    },
    {
      "icao": "LHBP",
      "alert": "OK",
      "vis_m": 5000,
      "fzfg": false,
      "metar_trigger": false,
      "taf_trigger": false,
      "metar": "METAR LHBP 062230Z 32004KT 5000 -RA BR FEW022 OVC042 06/05 Q1000 NOSIG",
      "taf": "TAF LHBP 061715Z 0618/0718 VRB03KT 8000 NSC"
    },
    {
      "icao": "LHDC",
      "alert": "OK",
      "vis_m": 4100,
      "fzfg": false,
      "metar_trigger": false,
      "taf_trigger": false,
      "metar": "METAR LHDC 062215Z AUTO 00000KT 4100 BR FEW026 OVC081 06/05 Q0999",
      "taf": "TAF LHDC 061415Z 0615/0624 VRB02KT CAVOK"
    },
    {
      "icao": "LIBD",
      "alert": "OK",
      "vis_m": 9999,
      "fzfg": false,
      "metar_trigger": false,
      "taf_trigger": false,
      "metar": "METAR LIBD 062250Z 24006KT CAVOK 09/06 Q1002",
      "taf": "TAF LIBD 061700Z 0618/0718 26016KT 9999 FEW030"
    },
    {
      "icao": "LIBG",
      "alert": "OK",
      "vis_m": null,
      "fzfg": false,
      "metar_trigger": false,
      "taf_trigger": false,
      "metar": "",
      "taf": "TAF LIBG 061700Z 0618/0703 25010KT CAVOK"
    },
    {
      "icao": "LIBP",
      "alert": "OK",
      "vis_m": 9999,
      "fzfg": false,
      "metar_trigger": false,
      "taf_trigger": false,
      "metar": "METAR LIBP 062250Z AUTO VRB04KT 9999 NCD 09/07 Q1001",
      "taf": "TAF LIBP 061700Z 0618/0718 VRB05KT 9999 FEW060"
    },
    {
      "icao": "LIBR",
      "alert": "OK",
      "vis_m": 9999,
      "fzfg": false,
      "metar_trigger": false,
      "taf_trigger": false,
      "metar": "METAR LIBR 062250Z 26012KT CAVOK 13/07 Q1001",
      "taf": "TAF LIBR 061700Z 0618/0718 24010KT 9999 FEW040"
    },
    {
      "icao": "LICA",
      "alert": "OK",
      "vis_m": 9000,
      "fzfg": false,
      "metar_trigger": false,
      "taf_trigger": false,
      "metar": "METAR LICA 062250Z AUTO 25017KT 9000 OVC015/// 15/13 Q1006",
      "taf": "TAF LICA 061700Z 0618/0718 26018G30KT 9999 SCT020"
    },
    {
      "icao": "LICC",
      "alert": "OK",
      "vis_m": 9999,
      "fzfg": false,
      "metar_trigger": false,
      "taf_trigger": false,
      "metar": "METAR LICC 062250Z 28010KT CAVOK 13/09 Q1008",
      "taf": "TAF LICC 061700Z 0618/0718 25015KT 9999 FEW040"
    },
    {
      "icao": "LICJ",
      "alert": "OK",
      "vis_m": 9999,
      "fzfg": false,
      "metar_trigger": false,
      "taf_trigger": false,
      "metar": "METAR LICJ 062250Z 20010KT 9999 FEW030 15/10 Q1009",
      "taf": "TAF LICJ 061700Z 0618/0718 25018KT 9999 FEW020"
    },
    {
      "icao": "LIMC",
      "alert": "OK",
      "vis_m": 9999,
      "fzfg": false,
      "metar_trigger": false,
      "taf_trigger": false,
      "metar": "METAR LIMC 062250Z VRB02KT CAVOK 03/03 Q1000 NOSIG",
      "taf": "TAF LIMC 061700Z 0618/0724 VRB05KT 8000 SCT040"
    },
    {
      "icao": "LIME",
      "alert": "OK",
      "vis_m": 9999,
      "fzfg": false,
      "metar_trigger": false,
      "taf_trigger": false,
      "metar": "METAR LIME 062250Z 02003KT 010V070 CAVOK 06/05 Q1000 NOSIG",
      "taf": "TAF LIME 061700Z 0618/0718 VRB05KT 9999 SCT040"
    },
    {
      "icao": "LIMF",
      "alert": "OK",
      "vis_m": 9999,
      "fzfg": false,
      "metar_trigger": false,
      "taf_trigger": false,
      "metar": "METAR LIMF 062250Z VRB02KT CAVOK 06/03 Q0999",
      "taf": "TAF LIMF 061700Z 0618/0718 VRB05KT CAVOK"
    },
    {
      "icao": "LIMJ",
      "alert": "OK",
      "vis_m": 9999,
      "fzfg": false,
      "metar_trigger": false,
      "taf_trigger": false,
      "metar": "METAR LIMJ 062250Z AUTO 05006KT 9999 ///////// 10/07 Q1000",
      "taf": "TAF LIMJ 061700Z 0618/0718 VRB05KT 9999 SCT040"
    },
    {
      "icao": "LIPE",
      "alert": "OK",
      "vis_m": 9999,
      "fzfg": false,
      "metar_trigger": false,
      "taf_trigger": false,
      "metar": "METAR LIPE 062250Z VRB02KT CAVOK 07/06 Q1000",
      "taf": "TAF LIPE 061700Z 0618/0718 VRB05KT 9000 FEW060"
    },
    {
      "icao": "LIPH",
      "alert": "OK",
      "vis_m": 3800,
      "fzfg": false,
      "metar_trigger": false,
      "taf_trigger": false,
      "metar": "METAR LIPH 062250Z AUTO 00000KT 3800 BR BKN110/// OVC140/// 08/08 Q1000",
      "taf": "TAF LIPH 061700Z 0618/0718 VRB05KT 7000 SCT060"
    },
    {
      "icao": "LIPQ",
      "alert": "OK",
      "vis_m": 4800,
      "fzfg": false,
      "metar_trigger": false,
      "taf_trigger": false,
      "metar": "METAR LIPQ 062250Z AUTO 13002KT 4800 BR SCT110/// BKN130/// 08/08 Q1000",
      "taf": "TAF LIPQ 061700Z 0618/0718 VRB04KT 7000 SCT070"
    },
    {
      "icao": "LIPR",
      "alert": "OK",
      "vis_m": 9999,
      "fzfg": false,
      "metar_trigger": false,
      "taf_trigger": false,
      "metar": "METAR LIPR 062250Z AUTO VRB01KT 9999 BKN100/// 06/06 Q1001",
      "taf": "TAF LIPR 061700Z 0618/0718 VRB05KT 9999 SCT060"
    },
    {
      "icao": "LIPX",
      "alert": "OK",
      "vis_m": 7000,
      "fzfg": false,
      "metar_trigger": false,
      "taf_trigger": false,
      "metar": "METAR LIPX 062250Z VRB02KT 7000 R04/1300D BCFG NSC 05/05 Q1000",
      "taf": "TAF LIPX 061700Z 0618/0718 VRB05KT 9999 SCT050"
    },
    {
      "icao": "LIPY",
      "alert": "OK",
      "vis_m": 9999,
      "fzfg": false,
      "metar_trigger": false,
      "taf_trigger": false,
      "metar": "METAR LIPY 062250Z AUTO 16003KT 9999 NCD 07/07 Q1001",
      "taf": "TAF LIPY 061700Z 0618/0718 29010KT 9999 SCT050"
    },
    {
      "icao": "LIPZ",
      "alert": "OK",
      "vis_m": 9999,
      "fzfg": false,
      "metar_trigger": false,
      "taf_trigger": false,
      "metar": "METAR LIPZ 062250Z 22003KT CAVOK 08/07 Q1000 NOSIG",
      "taf": "TAF LIPZ 061700Z 0618/0724 VRB05KT 7000 FEW060"
    },
    {
      "icao": "LIRF",
      "alert": "OK",
      "vis_m": 9999,
      "fzfg": false,
      "metar_trigger": false,
      "taf_trigger": false,
      "metar": "METAR LIRF 062250Z VRB02KT 9999 3500SW NSC 10/09 Q1003 NOSIG",
      "taf": "TAF LIRF 061700Z 0618/0724 VRB05KT 9999 SCT030"
    },
    {
      "icao": "LIRN",
      "alert": "OK",
      "vis_m": 9999,
      "fzfg": false,
      "metar_trigger": false,
      "taf_trigger": false,
      "metar": "METAR LIRN 062250Z 23007KT 190V250 9999 SCT030 14/11 Q1004 NOSIG",
      "taf": "TAF LIRN 061700Z 0618/0718 26012KT 9999 SCT030"
    },
    {
      "icao": "LIRP",
      "alert": "OK",
      "vis_m": 9999,
      "fzfg": false,
      "metar_trigger": false,
      "taf_trigger": false,
      "metar": "METAR LIRP 062245Z 24009KT 9999 SCT020 BKN030 13/11 Q1002 NOSIG",
      "taf": "TAF LIRP 061700Z 0618/0718 VRB03KT CAVOK"
    },
    {
      "icao": "LIRZ",
      "alert": "OK",
      "vis_m": 9999,
      "fzfg": false,
      "metar_trigger": false,
      "taf_trigger": false,
      "metar": "METAR LIRZ 062250Z AUTO VRB02KT 9999 SCT033/// BKN048/// BKN068/// 09/07 Q1002",
      "taf": "TAF LIRZ 061700Z 0618/0718 VRB05KT 9999 SCT030"
    },
    {
      "icao": "LJLJ",
      "alert": "OK",
      "vis_m": 500,
      "fzfg": false,
      "metar_trigger": false,
      "taf_trigger": false,
      "metar": "METAR LJLJ 062230Z 00000KT 0500 R30/1100N FG FEW001 BKN003 04/04 Q1000 NOSIG",
      "taf": "TAF LJLJ 061700Z 0618/0718 VRB02KT 9999 FEW007"
    },
    {
      "icao": "LKMT",
      "alert": "OK",
      "vis_m": 2500,
      "fzfg": false,
      "metar_trigger": false,
      "taf_trigger": false,
      "metar": "METAR LKMT 062230Z 25002KT 2500 BR BKN028 02/01 Q0998 NOSIG",
      "taf": "TAF LKMT 061700Z 0618/0718 VRB02KT 3000 BR OVC035"
    },
    {
      "icao": "LKPR",
      "alert": "OK",
      "vis_m": 9000,
      "fzfg": false,
      "metar_trigger": false,
      "taf_trigger": false,
      "metar": "METAR LKPR 062230Z 20006KT 9000 -DZ FEW005 OVC009 01/01 Q0999 NOSIG",
      "taf": "TAF LKPR 062000Z 0621/0803 23008KT 8000 OVC012"
    },
    {
      "icao": "LLBG",
      "alert": "OK",
      "vis_m": 9999,
      "fzfg": false,
      "metar_trigger": false,
      "taf_trigger": false,
      "metar": "METAR LLBG 062250Z VRB02KT CAVOK 15/07 Q1013 NOSIG",
      "taf": "TAF LLBG 061705Z 0618/0718 15005KT CAVOK"
    },
    {
      "icao": "LMML",
      "alert": "OK",
      "vis_m": 9999,
      "fzfg": false,
      "metar_trigger": false,
      "taf_trigger": false,
      "metar": "METAR LMML 062245Z 30007KT CAVOK 13/11 Q1010 NOSIG",
      "taf": "TAF LMML 061700Z 0618/0718 31015KT 9999 FEW015"
    },
    {
      "icao": "LOWW",
      "alert": "OK",
      "vis_m": 9999,
      "fzfg": false,
      "metar_trigger": false,
      "taf_trigger": false,
      "metar": "METAR LOWW 062250Z 36003KT 9999 FEW038 BKN040 03/01 Q1000 NOSIG",
      "taf": "TAF LOWW 062015Z 0621/0803 31006KT 9999 BKN030 TX06/0714Z TN03/0621Z"
    },
    {
      "icao": "LPFR",
      "alert": "OK",
      "vis_m": 9999,
      "fzfg": false,
      "metar_trigger": false,
      "taf_trigger": false,
      "metar": "METAR LPFR 062230Z 29010KT 9999 -SHRA FEW015 FEW020CB SCT035 10/08 Q1014",
      "taf": "TAF LPFR 061700Z 0618/0718 26017KT 9999 SCT025"
    },
    {
      "icao": "LPMA",
      "alert": "OK",
      "vis_m": 9999,
      "fzfg": false,
      "metar_trigger": false,
      "taf_trigger": false,
      "metar": "METAR LPMA 062230Z 30004KT 9999 FEW015 15/09 Q1021",
      "taf": "TAF LPMA 061700Z 0618/0718 VRB05KT 9999 SCT015"
    },
    {
      "icao": "LPPR",
      "alert": "OK",
      "vis_m": 9999,
      "fzfg": false,
      "metar_trigger": false,
      "taf_trigger": false,
      "metar": "METAR LPPR 062230Z 23011KT 9999 -SHRA FEW018 FEW020CB SCT030 12/06 Q1005",
      "taf": "TAF LPPR 061700Z 0618/0718 25015KT 9999 SCT025"
    },
    {
      "icao": "LPPS",
      "alert": "OK",
      "vis_m": 9999,
      "fzfg": false,
      "metar_trigger": false,
      "taf_trigger": false,
      "metar": "METAR LPPS 062230Z 26012KT 9999 FEW014 16/11 Q1021",
      "taf": "TAF LPPS 061700Z 0618/0724 29015KT 9999 SCT015"
    },
    {
      "icao": "LPPT",
      "alert": "OK",
      "vis_m": 9999,
      "fzfg": false,
      "metar_trigger": false,
      "taf_trigger": false,
      "metar": "METAR LPPT 062230Z 26003KT 220V350 9999 -SHRA FEW015 FEW020CB SCT030 08/07 Q1011 RESHRA WS R20",
      "taf": ""
    },
    {
      "icao": "LQBK",
      "alert": "OK",
      "vis_m": 6000,
      "fzfg": false,
      "metar_trigger": false,
      "taf_trigger": false,
      "metar": "METAR LQBK 062230Z 14004KT 6000 -RA FEW010 BKN043 07/07 Q0999 NOSIG",
      "taf": "TAF LQBK 061700Z 0618/0718 VRB03KT 3500 BR BKN012 OVC025 TX08/0713Z TN05/0706Z"
    },
    {
      "icao": "LQSA",
      "alert": "OK",
      "vis_m": 6000,
      "fzfg": false,
      "metar_trigger": false,
      "taf_trigger": false,
      "metar": "METAR LQSA 062230Z VRB01KT 6000 FEW010 BKN040 04/04 Q0998",
      "taf": "TAF LQSA 061700Z 0618/0718 VRB02KT 9999 SCT030 BKN050 TX10/0713Z TN03/0705Z"
    },
    {
      "icao": "LQTZ",
      "alert": "OK",
      "vis_m": 400,
      "fzfg": false,
      "metar_trigger": false,
      "taf_trigger": false,
      "metar": "METAR LQTZ 062230Z 31003KT 0400 R09/0450N FG OVC002 06/06 Q0999",
      "taf": ""
    },
    {
      "icao": "LRBC",
      "alert": "OK",
      "vis_m": 7000,
      "fzfg": false,
      "metar_trigger": false,
      "taf_trigger": false,
      "metar": "METAR LRBC 062230Z 17004KT 7000 FEW001 OVC010 M00/M00 Q1001",
      "taf": "TAF LRBC 062000Z 0621/0706 VRB04KT 3000 BR BKN002 OVC010"
    },
    {
      "icao": "LRBS",
      "alert": "OK",
      "vis_m": 4000,
      "fzfg": false,
      "metar_trigger": false,
      "taf_trigger": false,
      "metar": "METAR LRBS 062230Z 02004KT 330V070 4000 BR OVC002 01/01 Q1001 TEMPO 5000",
      "taf": ""
    },
    {
      "icao": "LRBV",
      "alert": "OK",
      "vis_m": 9999,
      "fzfg": false,
      "metar_trigger": false,
      "taf_trigger": false,
      "metar": "METAR LRBV 062230Z AUTO 25002KT 9999 NCD M00/M01 Q0998",
      "taf": "TAF LRBV 062000Z 0621/0706 VRB04KT CAVOK"
    },
    {
      "icao": "LRCL",
      "alert": "OK",
      "vis_m": 9999,
      "fzfg": false,
      "metar_trigger": false,
      "taf_trigger": false,
      "metar": "METAR LRCL 062230Z 00000KT 9999 SCT063 04/03 Q0998",
      "taf": "TAF LRCL 062000Z 0621/0706 VRB04KT 9999 SCT045"
    },
    {
      "icao": "LRCV",
      "alert": "OK",
      "vis_m": 300,
      "fzfg": false,
      "metar_trigger": false,
      "taf_trigger": false,
      "metar": "METAR LRCV 062230Z 00000KT 0300 R26/0350N FG VV002 03/03 Q1000",
      "taf": ""
    },
    {
      "icao": "LRIA",
      "alert": "OK",
      "vis_m": 9999,
      "fzfg": false,
      "metar_trigger": false,
      "taf_trigger": false,
      "metar": "METAR LRIA 062230Z 08004KT 9999 OVC011 M02/M03 Q1002",
      "taf": "TAF LRIA 062000Z 0621/0706 VRB04KT 9999 BKN015"
    },
    {
      "icao": "LROP",
      "alert": "OK",
      "vis_m": 7000,
      "fzfg": false,
      "metar_trigger": false,
      "taf_trigger": false,
      "metar": "METAR LROP 062230Z 04007KT 7000 OVC002 01/01 Q1001 NOSIG",
      "taf": ""
    },
    {
      "icao": "LRSB",
      "alert": "OK",
      "vis_m": 9999,
      "fzfg": false,
      "metar_trigger": false,
      "taf_trigger": false,
      "metar": "METAR LRSB 062230Z 08003KT 9999 FEW040 BKN080 04/03 Q0998",
      "taf": "TAF LRSB 061700Z 0618/0718 VRB04KT 9999 SCT050"
    },
    {
      "icao": "LRSM",
      "alert": "OK",
      "vis_m": 4200,
      "fzfg": false,
      "metar_trigger": false,
      "taf_trigger": false,
      "metar": "METAR LRSM 062230Z AUTO 00000KT 4200 BR OVC042/// 07/06 Q0999",
      "taf": "TAF LRSM 061400Z 0615/0624 VRB04KT CAVOK"
    },
    {
      "icao": "LRSV",
      "alert": "OK",
      "vis_m": 200,
      "fzfg": true,
      "metar_trigger": false,
      "taf_trigger": false,
      "metar": "METAR LRSV 062230Z 05004KT 0200 R34/0400N FZFG VV001 M03/M04 Q1000",
      "taf": "TAF LRSV 062000Z 0621/0706 07006KT 0300 FZFG OVC001"
    },
    {
      "icao": "LRTM",
      "alert": "OK",
      "vis_m": 4800,
      "fzfg": false,
      "metar_trigger": false,
      "taf_trigger": false,
      "metar": "METAR LRTM 062230Z AUTO 00000KT 4800 BR NCD 02/01 Q0999",
      "taf": "TAF LRTM 062000Z 0621/0706 VRB04KT 3000 BR BKN005"
    },
    {
      "icao": "LRTR",
      "alert": "OK",
      "vis_m": 9999,
      "fzfg": false,
      "metar_trigger": false,
      "taf_trigger": false,
      "metar": "METAR LRTR 062230Z 05002KT CAVOK 06/06 Q0999",
      "taf": "TAF LRTR 061700Z 0618/0718 VRB04KT 9999 SCT045"
    },
    {
      "icao": "LTAC",
      "alert": "OK",
      "vis_m": 9999,
      "fzfg": false,
      "metar_trigger": false,
      "taf_trigger": false,
      "metar": "METAR LTAC 062250Z VRB01KT 9999 -SHRA BKN025 BKN080 06/04 Q1004 NOSIG",
      "taf": "TAF LTAC 061640Z 0618/0718 18008KT 9999 BKN035 BKN080"
    },
    {
      "icao": "LTFM",
      "alert": "OK",
      "vis_m": 9999,
      "fzfg": false,
      "metar_trigger": false,
      "taf_trigger": false,
      "metar": "METAR LTFM 062250Z 22012KT 170V230 9999 -SHRA SCT032 BKN080 12/10 Q0999 NOSIG",
      "taf": "TAF LTFM 061640Z 0618/0724 22015KT 9999 SCT032 BKN080"
    },
    {
      "icao": "LUKK",
      "alert": "OK",
      "vis_m": 9999,
      "fzfg": false,
      "metar_trigger": false,
      "taf_trigger": false,
      "metar": "METAR LUKK 062230Z 06004KT 9999 OVC004 M02/M02 Q1001 REFZDZ TEMPO 3000 FZDZ",
      "taf": "TAF LUKK 061703Z 0618/0718 07008KT 5000 -FZDZ BR OVC008"
    },
    {
      "icao": "LWOH",
      "alert": "OK",
      "vis_m": null,
      "fzfg": false,
      "metar_trigger": false,
      "taf_trigger": false,
      "metar": "",
      "taf": "TAF LWOH 062015Z 0621/0721 11006KT 9999 FEW020 BKN040"
    },
    {
      "icao": "LWSK",
      "alert": "OK",
      "vis_m": 7000,
      "fzfg": false,
      "metar_trigger": false,
      "taf_trigger": false,
      "metar": "METAR LWSK 062250Z VRB02KT 7000 BKN014 OVC045 07/06 Q1000 NOSIG",
      "taf": "TAF LWSK 062015Z 0621/0721 VRB02KT 9999 SCT015 OVC040"
    },
    {
      "icao": "LYBE",
      "alert": "OK",
      "vis_m": 9999,
      "fzfg": false,
      "metar_trigger": false,
      "taf_trigger": false,
      "metar": "METAR LYBE 062230Z 06004KT CAVOK 07/04 Q0999 NOSIG",
      "taf": "TAF LYBE 061700Z 0618/0718 10005KT CAVOK TX11/0713Z TN04/0706Z"
    },
    {
      "icao": "LYNI",
      "alert": "OK",
      "vis_m": 9999,
      "fzfg": false,
      "metar_trigger": false,
      "taf_trigger": false,
      "metar": "METAR LYNI 062230Z 00000KT 9999 FEW017 BKN040 BKN073 07/07 Q0998 NOSIG",
      "taf": "TAF LYNI 061700Z 0618/0718 07003KT 9999 BKN040 OVC070 TX10/0713Z TN05/0706Z"
    },
    {
      "icao": "LYPG",
      "alert": "OK",
      "vis_m": 2000,
      "fzfg": false,
      "metar_trigger": false,
      "taf_trigger": false,
      "metar": "METAR LYPG 062230Z VRB01KT 2000 BR FEW007 SCT030 BKN070 08/08 Q1000 TEMPO 3000",
      "taf": "TAF LYPG 061700Z 0618/0718 36005KT 9999 FEW010 SCT030 BKN070 TX13/0712Z TN07/0705Z"
    },
    {
      "icao": "LZIB",
      "alert": "OK",
      "vis_m": 9999,
      "fzfg": false,
      "metar_trigger": false,
      "taf_trigger": false,
      "metar": "METAR LZIB 062230Z 20006KT 9999 BKN039 01/00 Q1000 NOSIG",
      "taf": "TAF LZIB 061715Z 0618/0718 28006KT 9999 SCT013 BKN020"
    },
    {
      "icao": "LZKZ",
      "alert": "OK",
      "vis_m": 7000,
      "fzfg": false,
      "metar_trigger": false,
      "taf_trigger": false,
      "metar": "METAR LZKZ 062230Z 29001KT 7000 OVC017 04/03 Q0999 NOSIG",
      "taf": ""
    },
    {
      "icao": "LZTT",
      "alert": "OK",
      "vis_m": 9999,
      "fzfg": false,
      "metar_trigger": false,
      "taf_trigger": false,
      "metar": "METAR LZTT 062230Z VRB01KT 9999 0900SE -RA BCFG SCT003 BKN040 01/01 Q0998",
      "taf": ""
    },
    {
      "icao": "OEJN",
      "alert": "OK",
      "vis_m": 9999,
      "fzfg": false,
      "metar_trigger": false,
      "taf_trigger": false,
      "metar": "METAR OEJN 062200Z 00000KT CAVOK 24/17 Q1014 NOSIG",
      "taf": "TAF OEJN 061700Z 0618/0724 36005KT 7000 FEW040"
    },
    {
      "icao": "OEMA",
      "alert": "OK",
      "vis_m": 9999,
      "fzfg": false,
      "metar_trigger": false,
      "taf_trigger": false,
      "metar": "METAR OEMA 062200Z 27004KT CAVOK 22/11 Q1018 NOSIG",
      "taf": "TAF OEMA 061700Z 0618/0724 26006KT CAVOK"
    },
    {
      "icao": "OJAI",
      "alert": "OK",
      "vis_m": 5000,
      "fzfg": false,
      "metar_trigger": false,
      "taf_trigger": false,
      "metar": "METAR OJAI 062200Z 27007KT 5000 HZ NSC 12/04 Q1016 NOSIG",
      "taf": "TAF OJAI 061626Z 0618/0724 25006KT 4000 DU FEW040"
    },
    {
      "icao": "OMAA",
      "alert": "OK",
      "vis_m": 9999,
      "fzfg": false,
      "metar_trigger": false,
      "taf_trigger": false,
      "metar": "METAR OMAA 062230Z 06004KT CAVOK 19/16 Q1018 NOSIG",
      "taf": "TAF OMAA 061700Z 0618/0800 05005KT 8000 NSC"
    },
    {
      "icao": "OMDB",
      "alert": "OK",
      "vis_m": 8000,
      "fzfg": false,
      "metar_trigger": false,
      "taf_trigger": false,
      "metar": "METAR OMDB 062230Z 08003KT 020V100 8000 NSC 21/18 Q1018 NOSIG",
      "taf": ""
    },
    {
      "icao": "UAAA",
      "alert": "OK",
      "vis_m": 9999,
      "fzfg": false,
      "metar_trigger": false,
      "taf_trigger": false,
      "metar": "METAR UAAA 062230Z 09003MPS 9999 BKN025CB OVC100 M01/M02 Q1028 NOSIG",
      "taf": "TAF UAAA 061702Z 0618/0718 04003G08MPS 3100 BR BKN011CB OVC020 TX02/0707Z TNM04/0702Z"
    },
    {
      "icao": "UBBB",
      "alert": "OK",
      "vis_m": 9999,
      "fzfg": false,
      "metar_trigger": false,
      "taf_trigger": false,
      "metar": "METAR UBBB 062230Z 14010KT 9999 OVC042 07/05 Q1017 NOSIG",
      "taf": "TAF UBBB 061702Z 0618/0718 15010KT 9999 BKN010 OVC020 TX08/0710Z TN03/0700Z"
    },
    {
      "icao": "UDSG",
      "alert": "OK",
      "vis_m": 5000,
      "fzfg": false,
      "metar_trigger": false,
      "taf_trigger": false,
      "metar": "METAR UDSG 062230Z 03002KT 5000 BR OVC043 M03/M04 Q1017 NOSIG",
      "taf": "TAF UDSG 061700Z 0618/0718 VRB06KT 5000 BR BKN030"
    },
    {
      "icao": "UDYZ",
      "alert": "OK",
      "vis_m": 7000,
      "fzfg": false,
      "metar_trigger": false,
      "taf_trigger": false,
      "metar": "METAR UDYZ 062230Z 00000KT 7000 SCT046 02/M01 Q1017 NOSIG",
      "taf": "TAF UDYZ 061700Z 0618/0718 VRB06KT 6000 SCT040"
    },
    {
      "icao": "UGKO",
      "alert": "OK",
      "vis_m": 9999,
      "fzfg": false,
      "metar_trigger": false,
      "taf_trigger": false,
      "metar": "METAR UGKO 062230Z 09016KT CAVOK 12/M02 Q1009 NOSIG",
      "taf": "TAF UGKO 061700Z 0618/0718 08022G33KT CAVOK TX18/0711Z TN09/0703Z"
    }
  ]
}