{
  "ts_utc": "2026-05-10T08:30:31Z",
  "threshold_m": 150,
  "source": "stations_override.txt (ICAO list) + aviationweather.gov (METAR/TAF raw)",
  "station_count": 159,
  "stations": [
    {
      "icao": "BIKF",
      "alert": "OK",
      "vis_m": 4000,
      "fzfg": false,
      "metar_trigger": false,
      "taf_trigger": false,
      "metar": "METAR BIKF 100800Z 06001KT 4000 BR BKN002 OVC044 06/06 Q1021",
      "taf": "TAF BIKF 100759Z 1009/1109 27005KT 9999 BKN008 TX07/1013Z TN06/1106Z"
    },
    {
      "icao": "BKPR",
      "alert": "OK",
      "vis_m": null,
      "fzfg": false,
      "metar_trigger": false,
      "taf_trigger": false,
      "metar": "",
      "taf": "TAF BKPR 100530Z 1006/1106 24006KT 0200 FG BKN003"
    },
    {
      "icao": "EBCI",
      "alert": "OK",
      "vis_m": 9999,
      "fzfg": false,
      "metar_trigger": false,
      "taf_trigger": false,
      "metar": "METAR EBCI 100820Z 04012KT 350V060 CAVOK 13/08 Q1014 NOSIG",
      "taf": "TAF EBCI 100501Z 1006/1112 04008KT CAVOK"
    },
    {
      "icao": "EDDB",
      "alert": "OK",
      "vis_m": 9999,
      "fzfg": false,
      "metar_trigger": false,
      "taf_trigger": false,
      "metar": "METAR EDDB 100820Z AUTO 18006KT 140V210 CAVOK 16/08 Q1014 NOSIG",
      "taf": "TAF EDDB 100500Z 1006/1106 12005KT CAVOK"
    },
    {
      "icao": "EDDH",
      "alert": "OK",
      "vis_m": 9999,
      "fzfg": false,
      "metar_trigger": false,
      "taf_trigger": false,
      "metar": "METAR EDDH 100820Z AUTO VRB03KT CAVOK 17/07 Q1014 NOSIG",
      "taf": "TAF EDDH 100500Z 1006/1112 VRB03KT 9999 SCT040"
    },
    {
      "icao": "EDDK",
      "alert": "OK",
      "vis_m": 9999,
      "fzfg": false,
      "metar_trigger": false,
      "taf_trigger": false,
      "metar": "METAR EDDK 100820Z AUTO 29004KT 240V330 CAVOK 15/10 Q1013 NOSIG",
      "taf": "TAF EDDK 100500Z 1006/1112 VRB03KT CAVOK"
    },
    {
      "icao": "EDDN",
      "alert": "OK",
      "vis_m": 9999,
      "fzfg": false,
      "metar_trigger": false,
      "taf_trigger": false,
      "metar": "METAR EDDN 100820Z AUTO 12006KT 080V190 CAVOK 19/09 Q1012 NOSIG",
      "taf": "TAF EDDN 100500Z 1006/1106 08007KT CAVOK"
    },
    {
      "icao": "EDDS",
      "alert": "OK",
      "vis_m": 9999,
      "fzfg": false,
      "metar_trigger": false,
      "taf_trigger": false,
      "metar": "METAR EDDS 100820Z AUTO 07006KT 030V100 CAVOK 18/09 Q1011 NOSIG",
      "taf": "TAF EDDS 100500Z 1006/1106 VRB03KT CAVOK"
    },
    {
      "icao": "EDFH",
      "alert": "OK",
      "vis_m": 9999,
      "fzfg": false,
      "metar_trigger": false,
      "taf_trigger": false,
      "metar": "METAR EDFH 100820Z 04005KT 360V080 CAVOK 16/11 Q1012",
      "taf": "TAF EDFH 100500Z 1006/1106 07006KT CAVOK"
    },
    {
      "icao": "EDJA",
      "alert": "OK",
      "vis_m": 9999,
      "fzfg": false,
      "metar_trigger": false,
      "taf_trigger": false,
      "metar": "METAR EDJA 100820Z 03004KT 350V080 CAVOK 16/08 Q1011",
      "taf": "TAF EDJA 100500Z 1006/1015 VRB02KT CAVOK"
    },
    {
      "icao": "EDLW",
      "alert": "OK",
      "vis_m": 9999,
      "fzfg": false,
      "metar_trigger": false,
      "taf_trigger": false,
      "metar": "METAR EDLW 100820Z 35006KT CAVOK 15/09 Q1013",
      "taf": "TAF EDLW 100500Z 1006/1106 VRB03KT CAVOK"
    },
    {
      "icao": "EDNY",
      "alert": "OK",
      "vis_m": 9999,
      "fzfg": false,
      "metar_trigger": false,
      "taf_trigger": false,
      "metar": "METAR EDNY 100820Z VRB02KT CAVOK 18/08 Q1010",
      "taf": "TAF EDNY 100500Z 1006/1015 05006KT CAVOK"
    },
    {
      "icao": "EDSB",
      "alert": "OK",
      "vis_m": 9999,
      "fzfg": false,
      "metar_trigger": false,
      "taf_trigger": false,
      "metar": "METAR EDSB 100820Z 01006KT 340V040 CAVOK 17/12 Q1010",
      "taf": "TAF EDSB 100500Z 1006/1106 02006KT CAVOK"
    },
    {
      "icao": "EETN",
      "alert": "OK",
      "vis_m": 9999,
      "fzfg": false,
      "metar_trigger": false,
      "taf_trigger": false,
      "metar": "METAR EETN 100820Z 10007KT CAVOK 13/02 Q1017 NOSIG",
      "taf": "TAF EETN 100530Z 1006/1106 12006KT CAVOK"
    },
    {
      "icao": "EFTU",
      "alert": "OK",
      "vis_m": 9999,
      "fzfg": false,
      "metar_trigger": false,
      "taf_trigger": false,
      "metar": "METAR EFTU 100820Z AUTO VRB08KT CAVOK 14/M04 Q1016",
      "taf": "TAF EFTU 100535Z 1006/1106 17009KT CAVOK"
    },
    {
      "icao": "EGBB",
      "alert": "OK",
      "vis_m": 9999,
      "fzfg": false,
      "metar_trigger": false,
      "taf_trigger": false,
      "metar": "METAR EGBB 100820Z 04011KT 9999 OVC021 09/04 Q1020",
      "taf": "TAF EGBB 100454Z 1006/1106 03010KT 9999 BKN012"
    },
    {
      "icao": "EGGP",
      "alert": "OK",
      "vis_m": 9999,
      "fzfg": false,
      "metar_trigger": false,
      "taf_trigger": false,
      "metar": "METAR EGGP 100820Z 08010KT 050V110 9999 FEW028 09/03 Q1022",
      "taf": "TAF EGGP 100456Z 1006/1106 05008KT 9999 FEW030"
    },
    {
      "icao": "EGGW",
      "alert": "OK",
      "vis_m": 9999,
      "fzfg": false,
      "metar_trigger": false,
      "taf_trigger": false,
      "metar": "METAR EGGW 100820Z AUTO 04013KT 010V070 9999 BKN012 OVC021 09/07 Q1018",
      "taf": "TAF EGGW 100458Z 1006/1106 03010KT 9999 BKN006"
    },
    {
      "icao": "EGKK",
      "alert": "OK",
      "vis_m": 9999,
      "fzfg": false,
      "metar_trigger": false,
      "taf_trigger": false,
      "metar": "METAR EGKK 100820Z 04013KT 9999 SCT021 11/06 Q1017",
      "taf": "TAF EGKK 100503Z 1006/1112 03012KT CAVOK"
    },
    {
      "icao": "EGNM",
      "alert": "OK",
      "vis_m": 9999,
      "fzfg": false,
      "metar_trigger": false,
      "taf_trigger": false,
      "metar": "METAR EGNM 100820Z 03008KT 010V090 9999 FEW018 07/03 Q1022",
      "taf": "TAF EGNM 100455Z 1006/1106 03009KT 9999 FEW015"
    },
    {
      "icao": "EGPD",
      "alert": "OK",
      "vis_m": 9999,
      "fzfg": false,
      "metar_trigger": false,
      "taf_trigger": false,
      "metar": "METAR EGPD 100820Z COR AUTO 27008KT 9999 NCD 07/M00 Q1022 NOSIG",
      "taf": "TAF EGPD 100456Z 1006/1106 29008KT 9999 SCT030"
    },
    {
      "icao": "EGPF",
      "alert": "OK",
      "vis_m": 9999,
      "fzfg": false,
      "metar_trigger": false,
      "taf_trigger": false,
      "metar": "METAR EGPF 100820Z AUTO 28004KT 230V310 9999 FEW014 09/05 Q1024",
      "taf": "TAF EGPF 100500Z 1006/1106 VRB03KT 9999 FEW030"
    },
    {
      "icao": "EHBK",
      "alert": "OK",
      "vis_m": 9999,
      "fzfg": false,
      "metar_trigger": false,
      "taf_trigger": false,
      "metar": "METAR EHBK 100825Z AUTO 03010KT 9999 NSC 14/09 Q1014 NOSIG",
      "taf": "TAF EHBK 100450Z 1006/1112 02008KT CAVOK"
    },
    {
      "icao": "EHEH",
      "alert": "OK",
      "vis_m": 9999,
      "fzfg": false,
      "metar_trigger": false,
      "taf_trigger": false,
      "metar": "METAR EHEH 100755Z AUTO 02009KT 310V060 9999 OVC170 14/08 Q1015 BLU NOSIG RMK TREND REMOTE BY EHWX",
      "taf": "TAF EHEH 100500Z 1006/1112 01004KT CAVOK"
    },
    {
      "icao": "EKBI",
      "alert": "OK",
      "vis_m": 9999,
      "fzfg": false,
      "metar_trigger": false,
      "taf_trigger": false,
      "metar": "METAR EKBI 100820Z AUTO 31010KT 270V340 9999 FEW025/// SCT094/// 12/05 Q1015",
      "taf": "TAF EKBI 100827Z 1009/1109 34008KT CAVOK"
    },
    {
      "icao": "EKCH",
      "alert": "OK",
      "vis_m": 9999,
      "fzfg": false,
      "metar_trigger": false,
      "taf_trigger": false,
      "metar": "METAR EKCH 100820Z AUTO 14009KT 9999 OVC073/// 10/05 Q1015 NOSIG",
      "taf": "TAF EKCH 100827Z 1009/1109 14010KT CAVOK"
    },
    {
      "icao": "ENAL",
      "alert": "OK",
      "vis_m": 9999,
      "fzfg": false,
      "metar_trigger": false,
      "taf_trigger": false,
      "metar": "METAR ENAL 100820Z 23019KT 9999 -RA BKN030 03/01 Q1013",
      "taf": "TAF ENAL 100500Z 1006/1015 23015KT 9999 -SHRA FEW015 BKN025"
    },
    {
      "icao": "ENBR",
      "alert": "OK",
      "vis_m": 9999,
      "fzfg": false,
      "metar_trigger": false,
      "taf_trigger": false,
      "metar": "METAR ENBR 100820Z 18006KT 150V220 9999 -SHRA FEW010 SCT020CB BKN038 03/02 Q1016 RESHRA TEMPO SHRA RMK WIND 1200FT 00000KT",
      "taf": "TAF ENBR 100500Z 1006/1106 26005KT 9999 -SHRA FEW018 BKN035"
    },
    {
      "icao": "ENGM",
      "alert": "OK",
      "vis_m": 9999,
      "fzfg": false,
      "metar_trigger": false,
      "taf_trigger": false,
      "metar": "METAR ENGM 100820Z VRB02KT 9999 -RA SCT008 BKN014 04/01 Q1012 TEMPO SCT008 BKN018",
      "taf": "TAF ENGM 100500Z 1006/1106 36005KT 9999 BKN040"
    },
    {
      "icao": "ENHD",
      "alert": "OK",
      "vis_m": 9999,
      "fzfg": false,
      "metar_trigger": false,
      "taf_trigger": false,
      "metar": "METAR ENHD 100820Z 35005KT 330V030 9999 VCSH FEW013TCU FEW036 07/02 Q1016",
      "taf": "TAF ENHD 100500Z 1006/1015 33005KT 9999 -RA FEW008 BKN020"
    },
    {
      "icao": "ENTC",
      "alert": "OK",
      "vis_m": 9999,
      "fzfg": false,
      "metar_trigger": false,
      "taf_trigger": false,
      "metar": "METAR ENTC 100820Z 26004KT 9999 FEW044 SCT058 07/02 Q1007 TEMPO BKN014 RMK WIND 2600FT 22006KT",
      "taf": "TAF ENTC 100500Z 1006/1106 18005KT 9999 FEW020 BKN050"
    },
    {
      "icao": "ENTO",
      "alert": "OK",
      "vis_m": 9999,
      "fzfg": false,
      "metar_trigger": false,
      "taf_trigger": false,
      "metar": "METAR ENTO 100820Z 34008KT 9999 -RA SCT008 SCT028 04/04 Q1013 TEMPO BKN010",
      "taf": "TAF ENTO 100500Z 1006/1106 35008KT 9999 BKN040"
    },
    {
      "icao": "ENVA",
      "alert": "OK",
      "vis_m": 9999,
      "fzfg": false,
      "metar_trigger": false,
      "taf_trigger": false,
      "metar": "METAR ENVA 100820Z 30004KT 9999 FEW038 08/01 Q1011 NOSIG RMK WIND 670FT 27004KT",
      "taf": "TAF ENVA 100500Z 1006/1106 09005KT 9999 SCT045"
    },
    {
      "icao": "ENZV",
      "alert": "OK",
      "vis_m": 9999,
      "fzfg": false,
      "metar_trigger": false,
      "taf_trigger": false,
      "metar": "METAR ENZV 100820Z 29010KT 9999 SCT020 07/02 Q1017 NOSIG",
      "taf": "TAF ENZV 100500Z 1006/1106 34005KT 9999 FEW010 SCT035"
    },
    {
      "icao": "EPGD",
      "alert": "OK",
      "vis_m": 9999,
      "fzfg": false,
      "metar_trigger": false,
      "taf_trigger": false,
      "metar": "METAR EPGD 100800Z 11007KT CAVOK 14/M00 Q1017",
      "taf": "TAF EPGD 100530Z 1006/1106 VRB03KT CAVOK"
    },
    {
      "icao": "EPKK",
      "alert": "OK",
      "vis_m": 9999,
      "fzfg": false,
      "metar_trigger": false,
      "taf_trigger": false,
      "metar": "METAR EPKK 100800Z 09010KT CAVOK 13/05 Q1018",
      "taf": "TAF EPKK 100830Z 1009/1109 11013KT CAVOK"
    },
    {
      "icao": "EPKT",
      "alert": "OK",
      "vis_m": 9999,
      "fzfg": false,
      "metar_trigger": false,
      "taf_trigger": false,
      "metar": "METAR EPKT 100800Z 11012KT 080V150 9999 FEW038 14/05 Q1017",
      "taf": "TAF EPKT 100530Z 1006/1106 06003KT CAVOK"
    },
    {
      "icao": "EPLB",
      "alert": "OK",
      "vis_m": 9999,
      "fzfg": false,
      "metar_trigger": false,
      "taf_trigger": false,
      "metar": "METAR EPLB 100800Z VRB02KT 9999 FEW039 13/04 Q1018",
      "taf": "TAF EPLB 100530Z 1006/1106 VRB03KT CAVOK"
    },
    {
      "icao": "EPMO",
      "alert": "OK",
      "vis_m": 9999,
      "fzfg": false,
      "metar_trigger": false,
      "taf_trigger": false,
      "metar": "METAR EPMO 100800Z VRB04KT 9999 FEW040 14/05 Q1017",
      "taf": "TAF EPMO 100530Z 1006/1106 VRB02KT CAVOK"
    },
    {
      "icao": "EPPO",
      "alert": "OK",
      "vis_m": 9999,
      "fzfg": false,
      "metar_trigger": false,
      "taf_trigger": false,
      "metar": "METAR EPPO 100800Z 18008KT 9999 FEW023 16/05 Q1017",
      "taf": "TAF EPPO 100530Z 1006/1106 VRB02KT CAVOK"
    },
    {
      "icao": "EPRA",
      "alert": "OK",
      "vis_m": 9999,
      "fzfg": false,
      "metar_trigger": false,
      "taf_trigger": false,
      "metar": "METAR EPRA 100800Z 27006KT 210V360 9999 FEW037 14/04 Q1017",
      "taf": "TAF EPRA 100830Z 1009/1018 27008KT 9999 SCT040"
    },
    {
      "icao": "EPRZ",
      "alert": "OK",
      "vis_m": 9999,
      "fzfg": false,
      "metar_trigger": false,
      "taf_trigger": false,
      "metar": "METAR EPRZ 100800Z 12004KT 050V160 9999 FEW020 13/05 Q1018",
      "taf": "TAF EPRZ 100530Z 1006/1106 VRB02KT 0200 FG BKN001"
    },
    {
      "icao": "EPSC",
      "alert": "OK",
      "vis_m": 9999,
      "fzfg": false,
      "metar_trigger": false,
      "taf_trigger": false,
      "metar": "METAR EPSC 100800Z 15011KT CAVOK 15/07 Q1015",
      "taf": "TAF EPSC 100530Z 1006/1106 VRB02KT CAVOK"
    },
    {
      "icao": "EPSY",
      "alert": "OK",
      "vis_m": 9999,
      "fzfg": false,
      "metar_trigger": false,
      "taf_trigger": false,
      "metar": "METAR EPSY 100800Z 06005KT 020V150 CAVOK 12/02 Q1017",
      "taf": "TAF EPSY 100830Z 1009/1018 VRB02KT 9999 SCT040"
    },
    {
      "icao": "EPWA",
      "alert": "OK",
      "vis_m": 9999,
      "fzfg": false,
      "metar_trigger": false,
      "taf_trigger": false,
      "metar": "METAR EPWA 100800Z 08006KT 030V140 9999 FEW043 14/03 Q1017 NOSIG",
      "taf": "TAF EPWA 100830Z 1009/1109 VRB05KT 9999 FEW045"
    },
    {
      "icao": "EPWR",
      "alert": "OK",
      "vis_m": 9999,
      "fzfg": false,
      "metar_trigger": false,
      "taf_trigger": false,
      "metar": "METAR EPWR 100800Z 14009KT 100V170 9999 FEW030 14/08 Q1017",
      "taf": "TAF EPWR 100830Z 1009/1109 11005KT CAVOK"
    },
    {
      "icao": "ESGG",
      "alert": "OK",
      "vis_m": 9999,
      "fzfg": false,
      "metar_trigger": false,
      "taf_trigger": false,
      "metar": "METAR ESGG 100820Z 19012KT 160V220 9999 SCT028 13/04 Q1012",
      "taf": "TAF ESGG 100530Z 1006/1106 16006KT CAVOK"
    },
    {
      "icao": "ESKN",
      "alert": "OK",
      "vis_m": 9999,
      "fzfg": false,
      "metar_trigger": false,
      "taf_trigger": false,
      "metar": "METAR ESKN 100820Z 14007KT 110V170 CAVOK 12/06 Q1014",
      "taf": "TAF ESKN 100530Z 1006/1106 14008KT CAVOK"
    },
    {
      "icao": "ESMS",
      "alert": "OK",
      "vis_m": 9999,
      "fzfg": false,
      "metar_trigger": false,
      "taf_trigger": false,
      "metar": "METAR ESMS 100820Z 11005KT CAVOK 10/04 Q1014",
      "taf": "TAF ESMS 100527Z 1006/1106 14010KT CAVOK"
    },
    {
      "icao": "ESSA",
      "alert": "OK",
      "vis_m": 9999,
      "fzfg": false,
      "metar_trigger": false,
      "taf_trigger": false,
      "metar": "METAR ESSA 100820Z 17011KT CAVOK 13/M02 Q1013 NOSIG",
      "taf": "TAF ESSA 100530Z 1006/1106 15009KT CAVOK"
    },
    {
      "icao": "EYKA",
      "alert": "OK",
      "vis_m": 9999,
      "fzfg": false,
      "metar_trigger": false,
      "taf_trigger": false,
      "metar": "METAR EYKA 100820Z 32005KT 290V010 9999 OVC014 08/06 Q1016",
      "taf": "TAF EYKA 100500Z 1006/1106 VRB03KT 5000 BR OVC005"
    },
    {
      "icao": "EYPA",
      "alert": "OK",
      "vis_m": 9999,
      "fzfg": false,
      "metar_trigger": false,
      "taf_trigger": false,
      "metar": "METAR EYPA 100820Z 30004KT 240V010 CAVOK 11/03 Q1017",
      "taf": "TAF EYPA 100500Z 1006/1106 VRB03KT 9000 NSC"
    },
    {
      "icao": "EYVI",
      "alert": "OK",
      "vis_m": 9999,
      "fzfg": false,
      "metar_trigger": false,
      "taf_trigger": false,
      "metar": "METAR EYVI 100820Z 30006KT 260V320 9999 OVC003 07/06 Q1015 NOSIG",
      "taf": "TAF EYVI 100520Z 1006/1106 30005KT 6000 OVC005"
    },
    {
      "icao": "GCFV",
      "alert": "OK",
      "vis_m": 9999,
      "fzfg": false,
      "metar_trigger": false,
      "taf_trigger": false,
      "metar": "METAR GCFV 100800Z 00000KT 9999 FEW025 21/14 Q1018",
      "taf": "TAF GCFV 100800Z 1009/1109 09007KT 9999 SCT035 TX24/1014Z TN17/1106Z"
    },
    {
      "icao": "GCLP",
      "alert": "OK",
      "vis_m": 9999,
      "fzfg": false,
      "metar_trigger": false,
      "taf_trigger": false,
      "metar": "METAR GCLP 100800Z 02005KT 320V080 9999 FEW025 SCT055 21/14 Q1018 NOSIG",
      "taf": "TAF GCLP 100800Z 1009/1109 10006KT 9999 FEW025 BKN040 TX23/1014Z TN17/1106Z"
    },
    {
      "icao": "GCTS",
      "alert": "OK",
      "vis_m": 9999,
      "fzfg": false,
      "metar_trigger": false,
      "taf_trigger": false,
      "metar": "METAR GCTS 100800Z VRB02KT 9999 SCT025 BKN060 20/14 Q1018 NOSIG",
      "taf": "TAF GCTS 100800Z 1009/1109 14005KT 9999 BKN040 TX25/1014Z TN18/1106Z"
    },
    {
      "icao": "GMAD",
      "alert": "OK",
      "vis_m": 9999,
      "fzfg": false,
      "metar_trigger": false,
      "taf_trigger": false,
      "metar": "METAR GMAD 100800Z 03004KT 350V060 9999 SCT016 17/13 Q1017 NOSIG",
      "taf": "TAF GMAD 100500Z 1006/1112 07004KT 8000 SCT026"
    },
    {
      "icao": "GMMN",
      "alert": "OK",
      "vis_m": 9999,
      "fzfg": false,
      "metar_trigger": false,
      "taf_trigger": false,
      "metar": "METAR GMMN 100800Z 20010KT 170V240 9999 FEW020 16/13 Q1017 NOSIG",
      "taf": "TAF GMMN 100500Z 1006/1112 18008KT 9999 FEW020"
    },
    {
      "icao": "GMMX",
      "alert": "OK",
      "vis_m": 9999,
      "fzfg": false,
      "metar_trigger": false,
      "taf_trigger": false,
      "metar": "METAR GMMX 100800Z VRB04KT CAVOK 17/10 Q1017 NOSIG",
      "taf": "TAF GMMX 100500Z 1006/1112 26006KT 8000 SCT023"
    },
    {
      "icao": "HEGN",
      "alert": "OK",
      "vis_m": 9999,
      "fzfg": false,
      "metar_trigger": false,
      "taf_trigger": false,
      "metar": "METAR HEGN 100800Z 34020KT CAVOK 29/05 Q1012 NOSIG",
      "taf": "TAF HEGN 100500Z 1006/1112 33010G20KT CAVOK"
    },
    {
      "icao": "HEMA",
      "alert": "OK",
      "vis_m": 9999,
      "fzfg": false,
      "metar_trigger": false,
      "taf_trigger": false,
      "metar": "METAR HEMA 100800Z 33016KT CAVOK 32/05 Q1012 NOSIG",
      "taf": "TAF HEMA 100500Z 1006/1112 32010G20KT CAVOK"
    },
    {
      "icao": "HESH",
      "alert": "OK",
      "vis_m": 9999,
      "fzfg": false,
      "metar_trigger": false,
      "taf_trigger": false,
      "metar": "METAR HESH 100800Z 35014KT CAVOK 29/14 Q1012 NOSIG",
      "taf": "TAF HESH 100500Z 1006/1112 36010G20KT CAVOK"
    },
    {
      "icao": "HESX",
      "alert": "OK",
      "vis_m": 9999,
      "fzfg": false,
      "metar_trigger": false,
      "taf_trigger": false,
      "metar": "METAR HESX 100800Z 08010KT CAVOK 26/09 Q1016 NOSIG",
      "taf": "TAF HESX 100500Z 1006/1112 03010KT CAVOK"
    },
    {
      "icao": "LATI",
      "alert": "OK",
      "vis_m": 9999,
      "fzfg": false,
      "metar_trigger": false,
      "taf_trigger": false,
      "metar": "METAR LATI 100820Z VRB03KT 9999 BKN160 20/14 Q1017 NOSIG",
      "taf": "TAF LATI 100500Z 1006/1106 VRB05KT 9999 SCT060 TX23/1013Z TN15/1104Z"
    },
    {
      "icao": "LBPD",
      "alert": "OK",
      "vis_m": 9999,
      "fzfg": false,
      "metar_trigger": false,
      "taf_trigger": false,
      "metar": "METAR LBPD 100800Z AUTO 31013KT 9999 NCD 21/13 Q1015 NOSIG",
      "taf": "TAF LBPD 100500Z 1006/1106 VRB04KT 9999 SCT050"
    },
    {
      "icao": "LBSF",
      "alert": "OK",
      "vis_m": 9999,
      "fzfg": false,
      "metar_trigger": false,
      "taf_trigger": false,
      "metar": "METAR LBSF 100800Z 35004KT 250V060 CAVOK 18/10 Q1017 NOSIG",
      "taf": "TAF LBSF 100500Z 1006/1106 32010KT 9999 SCT040"
    },
    {
      "icao": "LBWN",
      "alert": "OK",
      "vis_m": 9999,
      "fzfg": false,
      "metar_trigger": false,
      "taf_trigger": false,
      "metar": "METAR LBWN 100800Z 30008KT 280V340 9999 SCT018 BKN021 OVC024 18/14 Q1014 NOSIG",
      "taf": "TAF LBWN 100500Z 1006/1106 30010KT 9999 BKN015 BKN040"
    },
    {
      "icao": "LCLK",
      "alert": "OK",
      "vis_m": 9999,
      "fzfg": false,
      "metar_trigger": false,
      "taf_trigger": false,
      "metar": "METAR LCLK 100800Z 19009KT CAVOK 27/15 Q1015 NOSIG",
      "taf": "TAF LCLK 100530Z 1006/1106 14006KT CAVOK"
    },
    {
      "icao": "LCPH",
      "alert": "OK",
      "vis_m": 9999,
      "fzfg": false,
      "metar_trigger": false,
      "taf_trigger": false,
      "metar": "METAR LCPH 100800Z COR 31011KT 250V320 CAVOK 22/18 Q1016 NOSIG",
      "taf": "TAF LCPH 100530Z 1006/1106 05005KT CAVOK"
    },
    {
      "icao": "LEAL",
      "alert": "OK",
      "vis_m": 9999,
      "fzfg": false,
      "metar_trigger": false,
      "taf_trigger": false,
      "metar": "METAR LEAL 100800Z VRB02KT CAVOK 20/14 Q1015 NOSIG",
      "taf": "TAF LEAL 100500Z 1006/1106 VRB04KT 9999 FEW035 TX26/1012Z TN13/1105Z"
    },
    {
      "icao": "LEBB",
      "alert": "OK",
      "vis_m": 9999,
      "fzfg": false,
      "metar_trigger": false,
      "taf_trigger": false,
      "metar": "METAR LEBB 100800Z 25007KT 200V300 CAVOK 19/09 Q1010 NOSIG",
      "taf": "TAF LEBB 100500Z 1006/1106 24009KT CAVOK TX20/1015Z TN10/1104Z"
    },
    {
      "icao": "LEBL",
      "alert": "OK",
      "vis_m": 9999,
      "fzfg": false,
      "metar_trigger": false,
      "taf_trigger": false,
      "metar": "METAR LEBL 100800Z 24015KT 9999 SCT017 18/16 Q1013 NOSIG",
      "taf": "TAF LEBL 100500Z 1006/1106 VRB04KT 9999 FEW050 TX21/1013Z TN13/1006Z"
    },
    {
      "icao": "LECH",
      "alert": "OK",
      "vis_m": 9999,
      "fzfg": false,
      "metar_trigger": false,
      "taf_trigger": false,
      "metar": "METAR LECH 100800Z AUTO 22005KT CAVOK 14/11 Q1014",
      "taf": ""
    },
    {
      "icao": "LEMD",
      "alert": "OK",
      "vis_m": 9999,
      "fzfg": false,
      "metar_trigger": false,
      "taf_trigger": false,
      "metar": "METAR LEMD 100800Z 17010KT 9999 -SHRA FEW015 SCT030TCU BKN060 12/11 Q1013 NOSIG",
      "taf": "TAF LEMD 100500Z 1006/1112 20007KT 9999 SCT030 TX16/1015Z TN07/1105Z"
    },
    {
      "icao": "LEMG",
      "alert": "OK",
      "vis_m": 9999,
      "fzfg": false,
      "metar_trigger": false,
      "taf_trigger": false,
      "metar": "METAR LEMG 100800Z VRB03KT 9999 FEW030 SCT050 BKN075 18/13 Q1016 NOSIG",
      "taf": "TAF LEMG 100500Z 1006/1106 16006KT 9999 FEW015 SCT030 TX22/1014Z TN13/1106Z"
    },
    {
      "icao": "LEVC",
      "alert": "OK",
      "vis_m": 9999,
      "fzfg": false,
      "metar_trigger": false,
      "taf_trigger": false,
      "metar": "METAR LEVC 100800Z 21003KT 180V270 9999 FEW020 17/13 Q1015 NOSIG",
      "taf": "TAF LEVC 100500Z 1006/1106 VRB04KT 9999 FEW020 TX24/1012Z TN13/1105Z"
    },
    {
      "icao": "LEXJ",
      "alert": "OK",
      "vis_m": 9999,
      "fzfg": false,
      "metar_trigger": false,
      "taf_trigger": false,
      "metar": "METAR LEXJ 100800Z 18003KT 110V280 9999 FEW050 19/08 Q1009",
      "taf": "TAF LEXJ 100800Z 1009/1109 21009KT 9999 FEW050 TX21/1014Z TN11/1105Z"
    },
    {
      "icao": "LEZG",
      "alert": "OK",
      "vis_m": 9999,
      "fzfg": false,
      "metar_trigger": false,
      "taf_trigger": false,
      "metar": "METAR LEZG 100800Z 23008KT 170V280 9999 FEW089 18/08 Q1013 NOSIG",
      "taf": "TAF LEZG 100500Z 1006/1106 VRB04KT 9999 FEW020 TX23/1014Z TN10/1105Z"
    },
    {
      "icao": "LEZL",
      "alert": "OK",
      "vis_m": 9999,
      "fzfg": false,
      "metar_trigger": false,
      "taf_trigger": false,
      "metar": "METAR LEZL 100800Z 19008KT 150V230 9999 -RA FEW010 SCT025 17/16 Q1014 NOSIG",
      "taf": "TAF LEZL 100800Z 1009/1109 20008KT 9999 SCT030 TX22/1015Z TN11/1107Z"
    },
    {
      "icao": "LFBD",
      "alert": "OK",
      "vis_m": 9999,
      "fzfg": false,
      "metar_trigger": false,
      "taf_trigger": false,
      "metar": "METAR LFBD 100800Z AUTO 22010KT 190V250 CAVOK 19/12 Q1008 TEMPO 24015G25KT 4500 -SHRA FEW020CB BKN040TCU",
      "taf": "TAF LFBD 100500Z 1006/1112 16010KT CAVOK TX22/1013Z TN11/1105Z"
    },
    {
      "icao": "LFLL",
      "alert": "OK",
      "vis_m": 9999,
      "fzfg": false,
      "metar_trigger": false,
      "taf_trigger": false,
      "metar": "METAR LFLL 100800Z VRB03KT 9999 -RA SCT007 SCT036 BKN060 14/12 Q1012 NOSIG",
      "taf": "TAF LFLL 100500Z 1006/1112 18005KT CAVOK"
    },
    {
      "icao": "LFLS",
      "alert": "OK",
      "vis_m": 9999,
      "fzfg": false,
      "metar_trigger": false,
      "taf_trigger": false,
      "metar": "METAR LFLS 100800Z AUTO 09002KT 9999 -RA SCT007/// BKN045/// OVC064/// ///TCU 13/13 Q1012 TEMPO 2000 TSRA SCT060CB",
      "taf": "TAF LFLS 100800Z 1009/1109 VRB02KT 9999 BKN045"
    },
    {
      "icao": "LFMN",
      "alert": "OK",
      "vis_m": 9999,
      "fzfg": false,
      "metar_trigger": false,
      "taf_trigger": false,
      "metar": "METAR LFMN 100800Z 10021KT 9999 FEW016 BKN076 19/15 Q1012 NOSIG",
      "taf": "TAF LFMN 100800Z 1009/1115 08015KT 9999 FEW016 OVC060"
    },
    {
      "icao": "LFOB",
      "alert": "OK",
      "vis_m": 9999,
      "fzfg": false,
      "metar_trigger": false,
      "taf_trigger": false,
      "metar": "METAR LFOB 100800Z AUTO 05011KT 030V100 9999 ///TCU 14/09 Q1012 TEMPO 4000 SHRA",
      "taf": ""
    },
    {
      "icao": "LFPO",
      "alert": "OK",
      "vis_m": 9999,
      "fzfg": false,
      "metar_trigger": false,
      "taf_trigger": false,
      "metar": "METAR LFPO 100800Z 05009KT CAVOK 15/11 Q1010 NOSIG",
      "taf": "TAF LFPO 100500Z 1006/1112 04010KT CAVOK"
    },
    {
      "icao": "LFSB",
      "alert": "OK",
      "vis_m": 9999,
      "fzfg": false,
      "metar_trigger": false,
      "taf_trigger": false,
      "metar": "METAR LFSB 100800Z AUTO 28004KT 240V320 CAVOK 17/12 Q1011 NOSIG",
      "taf": ""
    },
    {
      "icao": "LGAV",
      "alert": "OK",
      "vis_m": 9999,
      "fzfg": false,
      "metar_trigger": false,
      "taf_trigger": false,
      "metar": "METAR LGAV 100820Z 13004KT 080V230 CAVOK 24/13 Q1017 NOSIG",
      "taf": "TAF LGAV 100500Z 1006/1106 VRB05KT 9999 FEW025"
    },
    {
      "icao": "LGTS",
      "alert": "OK",
      "vis_m": 9999,
      "fzfg": false,
      "metar_trigger": false,
      "taf_trigger": false,
      "metar": "METAR LGTS 100820Z 27007KT 9999 FEW010 21/14 Q1016 NOSIG",
      "taf": "TAF LGTS 100500Z 1006/1106 VRB03KT 9999 FEW025"
    },
    {
      "icao": "LHBP",
      "alert": "OK",
      "vis_m": 9999,
      "fzfg": false,
      "metar_trigger": false,
      "taf_trigger": false,
      "metar": "METAR LHBP 100800Z 14006KT 090V180 CAVOK 18/06 Q1016 NOSIG",
      "taf": "TAF LHBP 100515Z 1006/1106 08008KT CAVOK"
    },
    {
      "icao": "LHDC",
      "alert": "OK",
      "vis_m": 9999,
      "fzfg": false,
      "metar_trigger": false,
      "taf_trigger": false,
      "metar": "METAR LHDC 100745Z AUTO 07005KT 340V140 CAVOK 18/08 Q1016 NOSIG",
      "taf": "TAF LHDC 100815Z 1009/1018 VRB05KT CAVOK"
    },
    {
      "icao": "LIBD",
      "alert": "OK",
      "vis_m": 9000,
      "fzfg": false,
      "metar_trigger": false,
      "taf_trigger": false,
      "metar": "METAR LIBD 100820Z VRB02KT 9000 NSC 18/13 Q1015",
      "taf": "TAF LIBD 100709Z 1006/1106 20005KT CAVOK"
    },
    {
      "icao": "LIBG",
      "alert": "OK",
      "vis_m": 9999,
      "fzfg": false,
      "metar_trigger": false,
      "taf_trigger": false,
      "metar": "METAR LIBG 100750Z 13004KT 100V160 CAVOK 19/14 Q1016",
      "taf": "TAF LIBG 100800Z 1009/1018 VRB05KT CAVOK"
    },
    {
      "icao": "LIBP",
      "alert": "OK",
      "vis_m": 9999,
      "fzfg": false,
      "metar_trigger": false,
      "taf_trigger": false,
      "metar": "METAR LIBP 100820Z AUTO 13003KT 100V160 9999 BKN100/// BKN140/// 19/16 Q1014",
      "taf": "TAF LIBP 100708Z 1006/1106 VRB05KT 9999 FEW080"
    },
    {
      "icao": "LIBR",
      "alert": "OK",
      "vis_m": 9999,
      "fzfg": false,
      "metar_trigger": false,
      "taf_trigger": false,
      "metar": "METAR LIBR 100820Z 12004KT 090V150 CAVOK 18/14 Q1016",
      "taf": "TAF LIBR 100707Z 1006/1106 25005KT CAVOK"
    },
    {
      "icao": "LICA",
      "alert": "OK",
      "vis_m": 9999,
      "fzfg": false,
      "metar_trigger": false,
      "taf_trigger": false,
      "metar": "METAR LICA 100820Z AUTO 06013KT 9999 RA BKN024/// BKN110/// 18/16 Q1013",
      "taf": ""
    },
    {
      "icao": "LICC",
      "alert": "OK",
      "vis_m": 9999,
      "fzfg": false,
      "metar_trigger": false,
      "taf_trigger": false,
      "metar": "METAR LICC 100820Z 08007KT CAVOK 21/18 Q1016",
      "taf": "TAF LICC 100701Z 1006/1106 VRB05KT 9999 SCT025"
    },
    {
      "icao": "LICJ",
      "alert": "OK",
      "vis_m": 9999,
      "fzfg": false,
      "metar_trigger": false,
      "taf_trigger": false,
      "metar": "METAR LICJ 100820Z 23014KT CAVOK 22/16 Q1014 WS R25",
      "taf": "TAF LICJ 100702Z 1006/1106 VRB05KT 9999 FEW040"
    },
    {
      "icao": "LIMC",
      "alert": "OK",
      "vis_m": 7000,
      "fzfg": false,
      "metar_trigger": false,
      "taf_trigger": false,
      "metar": "METAR LIMC 100820Z 01003KT 7000 RA BKN030 15/14 Q1015 NOSIG",
      "taf": "TAF LIMC 100500Z 1006/1112 VRB05KT 4000 RA BKN050"
    },
    {
      "icao": "LIME",
      "alert": "OK",
      "vis_m": 6000,
      "fzfg": false,
      "metar_trigger": false,
      "taf_trigger": false,
      "metar": "METAR LIME 100820Z 32003KT 6000 -RA FEW030 BKN040 15/14 Q1015 RERA NOSIG",
      "taf": "TAF LIME 100646Z 1006/1106 VRB05KT 9999 SCT050"
    },
    {
      "icao": "LIMF",
      "alert": "OK",
      "vis_m": 5000,
      "fzfg": false,
      "metar_trigger": false,
      "taf_trigger": false,
      "metar": "METAR LIMF 100820Z 03005KT 5000 -RA BR FEW005 BKN020 14/13 Q1014",
      "taf": "TAF LIMF 100648Z 1006/1106 1106 VRB05KT 4000 RA BKN050"
    },
    {
      "icao": "LIMJ",
      "alert": "OK",
      "vis_m": 9999,
      "fzfg": false,
      "metar_trigger": false,
      "taf_trigger": false,
      "metar": "METAR LIMJ 100820Z 02008KT 9999 -RA SCT020 BKN050 17/15 Q1013 RERA",
      "taf": "TAF LIMJ 100649Z 1006/1106 VRB05KT 4000 RA SCT020"
    },
    {
      "icao": "LIPE",
      "alert": "OK",
      "vis_m": 9999,
      "fzfg": false,
      "metar_trigger": false,
      "taf_trigger": false,
      "metar": "METAR LIPE 100820Z 08005KT 030V110 9999 BKN050 17/15 Q1013",
      "taf": "TAF LIPE 100649Z 1006/1106 VRB05KT 9999 FEW060"
    },
    {
      "icao": "LIPH",
      "alert": "OK",
      "vis_m": 9999,
      "fzfg": false,
      "metar_trigger": false,
      "taf_trigger": false,
      "metar": "METAR LIPH 100820Z 10005KT 040V150 CAVOK 20/12 Q1014",
      "taf": "TAF LIPH 100705Z 1006/1106 VRB05KT CAVOK"
    },
    {
      "icao": "LIPQ",
      "alert": "OK",
      "vis_m": 9999,
      "fzfg": false,
      "metar_trigger": false,
      "taf_trigger": false,
      "metar": "METAR LIPQ 100820Z AUTO 18005KT 140V230 9999 FEW220/// 20/12 Q1014",
      "taf": "TAF LIPQ 100650Z 1006/1106 VRB05KT CAVOK"
    },
    {
      "icao": "LIPR",
      "alert": "OK",
      "vis_m": 9999,
      "fzfg": false,
      "metar_trigger": false,
      "taf_trigger": false,
      "metar": "METAR LIPR 100820Z 21004KT 150V250 9999 BKN070 20/14 Q1013",
      "taf": "TAF LIPR 100705Z 1006/1106 VRB05KT 9999 FEW060"
    },
    {
      "icao": "LIPX",
      "alert": "OK",
      "vis_m": 9999,
      "fzfg": false,
      "metar_trigger": false,
      "taf_trigger": false,
      "metar": "METAR LIPX 100820Z 10005KT 9999 -RA BKN060 18/11 Q1014",
      "taf": "TAF LIPX 100648Z 1006/1106 VRB05KT 9999 SCT040"
    },
    {
      "icao": "LIPY",
      "alert": "OK",
      "vis_m": 9999,
      "fzfg": false,
      "metar_trigger": false,
      "taf_trigger": false,
      "metar": "METAR LIPY 100820Z AUTO 16005KT 120V200 9999 BKN130/// 20/14 Q1013",
      "taf": "TAF LIPY 100706Z 1006/1106 VRB05KT 9999 FEW060"
    },
    {
      "icao": "LIPZ",
      "alert": "OK",
      "vis_m": 9999,
      "fzfg": false,
      "metar_trigger": false,
      "taf_trigger": false,
      "metar": "METAR LIPZ 100820Z 06004KT 9999 SCT070 18/14 Q1014 NOSIG",
      "taf": "TAF LIPZ 100500Z 1006/1112 VRB05KT 9999 FEW060"
    },
    {
      "icao": "LIRF",
      "alert": "OK",
      "vis_m": 9999,
      "fzfg": false,
      "metar_trigger": false,
      "taf_trigger": false,
      "metar": "METAR LIRF 100820Z 08004KT 050V130 9999 FEW055 19/15 Q1013 NOSIG",
      "taf": "TAF LIRF 100500Z 1006/1112 10010KT 9999 SCT040"
    },
    {
      "icao": "LIRN",
      "alert": "OK",
      "vis_m": 9999,
      "fzfg": false,
      "metar_trigger": false,
      "taf_trigger": false,
      "metar": "METAR LIRN 100820Z 33003KT 290V040 CAVOK 21/14 Q1014 NOSIG",
      "taf": "TAF LIRN 100650Z 1006/1106 VRB05KT 9999 FEW050"
    },
    {
      "icao": "LIRP",
      "alert": "OK",
      "vis_m": 7000,
      "fzfg": false,
      "metar_trigger": false,
      "taf_trigger": false,
      "metar": "METAR LIRP 100815Z 08006KT 7000 RA SCT030 BKN050 15/14 Q1013 NOSIG",
      "taf": "TAF LIRP 100500Z 1006/1106 08005KT 9999 FEW020 SCT070"
    },
    {
      "icao": "LIRZ",
      "alert": "OK",
      "vis_m": 9999,
      "fzfg": false,
      "metar_trigger": false,
      "taf_trigger": false,
      "metar": "METAR LIRZ 100820Z AUTO VRB02KT 9999 FEW012/// BKN082/// 16/13 Q1014",
      "taf": "TAF LIRZ 100648Z 1006/1106 VRB05KT 9999 FEW060"
    },
    {
      "icao": "LJLJ",
      "alert": "OK",
      "vis_m": 9999,
      "fzfg": false,
      "metar_trigger": false,
      "taf_trigger": false,
      "metar": "METAR LJLJ 100800Z 12003KT 060V170 9999 FEW044 BKN200 16/10 Q1015 NOSIG",
      "taf": "TAF LJLJ 100500Z 1006/1106 VRB02KT 9999 SCT060"
    },
    {
      "icao": "LKMT",
      "alert": "OK",
      "vis_m": 6000,
      "fzfg": false,
      "metar_trigger": false,
      "taf_trigger": false,
      "metar": "METAR LKMT 100800Z VRB03KT 6000 SCT008 10/07 Q1017 NOSIG",
      "taf": "TAF LKMT 100500Z 1006/1106 VRB02KT 0200 FG VV002"
    },
    {
      "icao": "LKPR",
      "alert": "OK",
      "vis_m": 9999,
      "fzfg": false,
      "metar_trigger": false,
      "taf_trigger": false,
      "metar": "METAR LKPR 100800Z VRB04KT CAVOK 14/06 Q1015 NOSIG",
      "taf": "TAF LKPR 100800Z 1009/1115 09005KT CAVOK"
    },
    {
      "icao": "LLBG",
      "alert": "OK",
      "vis_m": 9999,
      "fzfg": false,
      "metar_trigger": false,
      "taf_trigger": false,
      "metar": "METAR LLBG 100820Z 30008KT CAVOK 25/15 Q1015 NOSIG",
      "taf": "TAF LLBG 100501Z 1006/1106 VRB03KT CAVOK TX28/1011Z TN16/1104Z"
    },
    {
      "icao": "LMML",
      "alert": "OK",
      "vis_m": 9999,
      "fzfg": false,
      "metar_trigger": false,
      "taf_trigger": false,
      "metar": "METAR LMML 100815Z 08020KT CAVOK 22/15 Q1014 NOSIG",
      "taf": "TAF LMML 100500Z 1006/1106 08017KT 9999 FEW012"
    },
    {
      "icao": "LOWW",
      "alert": "OK",
      "vis_m": 9999,
      "fzfg": false,
      "metar_trigger": false,
      "taf_trigger": false,
      "metar": "METAR LOWW 100820Z VRB04KT CAVOK 17/08 Q1015 BECMG 14008KT",
      "taf": "TAF LOWW 100815Z 1009/1115 13007KT CAVOK TX25/1015Z TN14/1103Z"
    },
    {
      "icao": "LPFR",
      "alert": "OK",
      "vis_m": 9999,
      "fzfg": false,
      "metar_trigger": false,
      "taf_trigger": false,
      "metar": "METAR LPFR 100800Z 23010KT 9999 FEW018 18/14 Q1013",
      "taf": "TAF LPFR 100500Z 1006/1106 23012KT 9999 SCT020"
    },
    {
      "icao": "LPMA",
      "alert": "OK",
      "vis_m": 9999,
      "fzfg": false,
      "metar_trigger": false,
      "taf_trigger": false,
      "metar": "METAR LPMA 100800Z 04004KT 340V070 9999 FEW015 17/10 Q1016",
      "taf": "TAF LPMA 100500Z 1006/1106 VRB05KT 9999 SCT015"
    },
    {
      "icao": "LPPR",
      "alert": "OK",
      "vis_m": 9999,
      "fzfg": false,
      "metar_trigger": false,
      "taf_trigger": false,
      "metar": "METAR LPPR 100800Z 17015KT 9999 -SHRA FEW020 FEW025CB BKN030 13/10 Q1008",
      "taf": "TAF LPPR 100500Z 1006/1106 15010KT 9999 SCT020"
    },
    {
      "icao": "LPPS",
      "alert": "OK",
      "vis_m": 9999,
      "fzfg": false,
      "metar_trigger": false,
      "taf_trigger": false,
      "metar": "METAR LPPS 100800Z 27012KT 9999 FEW015 16/09 Q1016",
      "taf": "TAF LPPS 100500Z 1006/1112 27013KT 9999 SCT015"
    },
    {
      "icao": "LPPT",
      "alert": "OK",
      "vis_m": 9999,
      "fzfg": false,
      "metar_trigger": false,
      "taf_trigger": false,
      "metar": "METAR LPPT 100800Z 21016KT 9999 FEW025 15/09 Q1010",
      "taf": "TAF LPPT 100500Z 1006/1112 21010KT 9999 SCT020"
    },
    {
      "icao": "LQBK",
      "alert": "OK",
      "vis_m": 9999,
      "fzfg": false,
      "metar_trigger": false,
      "taf_trigger": false,
      "metar": "METAR LQBK 100800Z 01004KT 320V050 CAVOK 18/11 Q1015 NOSIG",
      "taf": "TAF LQBK 100500Z 1006/1106 16005KT CAVOK TX25/1013Z TN12/1104Z"
    },
    {
      "icao": "LQSA",
      "alert": "OK",
      "vis_m": 9999,
      "fzfg": false,
      "metar_trigger": false,
      "taf_trigger": false,
      "metar": "METAR LQSA 100800Z VRB02KT 9999 FEW045 14/09 Q1017 NOSIG",
      "taf": "TAF LQSA 100500Z 1006/1106 VRB02KT 3000 BR BKN004 TX23/1013Z TN09/1104Z"
    },
    {
      "icao": "LQTZ",
      "alert": "OK",
      "vis_m": 9999,
      "fzfg": false,
      "metar_trigger": false,
      "taf_trigger": false,
      "metar": "METAR LQTZ 100800Z VRB02KT CAVOK 18/13 Q1016",
      "taf": "TAF LQTZ 100500Z 1006/1106 10005KT CAVOK TX25/1013Z TN10/1104Z"
    },
    {
      "icao": "LRBC",
      "alert": "OK",
      "vis_m": 9999,
      "fzfg": false,
      "metar_trigger": false,
      "taf_trigger": false,
      "metar": "METAR LRBC 100800Z 34009KT 9999 FEW007 OVC010 14/13 Q1016",
      "taf": "TAF LRBC 100800Z 1009/1018 34010KT 9999 BKN010 BKN040"
    },
    {
      "icao": "LRBS",
      "alert": "OK",
      "vis_m": 9999,
      "fzfg": false,
      "metar_trigger": false,
      "taf_trigger": false,
      "metar": "METAR LRBS 100800Z VRB02KT 9999 SCT012 BKN040 18/15 Q1015 NOSIG",
      "taf": "TAF LRBS 100500Z 1006/1106 24005KT 5000 RA BR BKN035"
    },
    {
      "icao": "LRBV",
      "alert": "OK",
      "vis_m": 9999,
      "fzfg": false,
      "metar_trigger": false,
      "taf_trigger": false,
      "metar": "METAR LRBV 100800Z 31006KT 270V340 9999 FEW018 SCT038 15/11 Q1016",
      "taf": "TAF LRBV 100800Z 1009/1018 30009KT 9999 SCT045"
    },
    {
      "icao": "LRCL",
      "alert": "OK",
      "vis_m": 9999,
      "fzfg": false,
      "metar_trigger": false,
      "taf_trigger": false,
      "metar": "METAR LRCL 100800Z 05006KT 9999 FEW042 16/13 Q1016",
      "taf": "TAF LRCL 100800Z 1009/1018 VRB04KT 9999 SCT045"
    },
    {
      "icao": "LRCV",
      "alert": "OK",
      "vis_m": 9999,
      "fzfg": false,
      "metar_trigger": false,
      "taf_trigger": false,
      "metar": "METAR LRCV 100800Z 29004KT 250V320 9999 SCT003 OVC005 15/15 Q1016",
      "taf": "TAF LRCV 100800Z 1009/1018 VRB04KT 9999 BKN005"
    },
    {
      "icao": "LRIA",
      "alert": "OK",
      "vis_m": 8000,
      "fzfg": false,
      "metar_trigger": false,
      "taf_trigger": false,
      "metar": "METAR LRIA 100800Z 30011KT 8000 -RA OVC007 14/12 Q1015",
      "taf": "TAF LRIA 100800Z 1009/1018 30010KT 9999 OVC010"
    },
    {
      "icao": "LROP",
      "alert": "OK",
      "vis_m": 9999,
      "fzfg": false,
      "metar_trigger": false,
      "taf_trigger": false,
      "metar": "METAR LROP 100800Z VRB01KT 9999 SCT012 18/15 Q1015 NOSIG",
      "taf": "TAF LROP 100500Z 1006/1106 24005KT 3000 RA BR BKN035"
    },
    {
      "icao": "LRSB",
      "alert": "OK",
      "vis_m": 9999,
      "fzfg": false,
      "metar_trigger": false,
      "taf_trigger": false,
      "metar": "METAR LRSB 100800Z VRB02KT 9999 FEW045 18/12 Q1016 NOSIG",
      "taf": "TAF LRSB 100500Z 1006/1106 VRB04KT CAVOK"
    },
    {
      "icao": "LRSM",
      "alert": "OK",
      "vis_m": 9999,
      "fzfg": false,
      "metar_trigger": false,
      "taf_trigger": false,
      "metar": "METAR LRSM 100800Z AUTO VRB03KT 9999 NCD 16/10 Q1016",
      "taf": ""
    },
    {
      "icao": "LRSV",
      "alert": "OK",
      "vis_m": 9999,
      "fzfg": false,
      "metar_trigger": false,
      "taf_trigger": false,
      "metar": "METAR LRSV 100800Z 33011KT 9999 BKN009 SCT035 12/10 Q1016",
      "taf": "TAF LRSV 100800Z 1009/1018 33010KT 9999 BKN010 BKN035"
    },
    {
      "icao": "LRTM",
      "alert": "OK",
      "vis_m": 8000,
      "fzfg": false,
      "metar_trigger": false,
      "taf_trigger": false,
      "metar": "METAR LRTM 100800Z 33003KT 270V030 8000 BKN003 BKN007 13/13 Q1017",
      "taf": "TAF LRTM 100800Z 1009/1018 26005KT 9999 BKN005"
    },
    {
      "icao": "LRTR",
      "alert": "OK",
      "vis_m": 9999,
      "fzfg": false,
      "metar_trigger": false,
      "taf_trigger": false,
      "metar": "METAR LRTR 100800Z 17006KT 130V220 CAVOK 20/13 Q1015 NOSIG",
      "taf": "TAF LRTR 100500Z 1006/1106 10007KT CAVOK"
    },
    {
      "icao": "LTAC",
      "alert": "OK",
      "vis_m": 9999,
      "fzfg": false,
      "metar_trigger": false,
      "taf_trigger": false,
      "metar": "METAR LTAC 100820Z 21008KT 190V250 9999 SCT029 SCT100 19/09 Q1018 NOSIG RMK RWY21C 24006KT 170V320 RWY03L 22008KT 170V280 RWY21R 20007KT 160V250 RWY03R 21008KT 180V250 RWY21L 23008KT 170V260",
      "taf": "TAF LTAC 100440Z 1006/1106 VRB02KT 9999 SCT040 SCT100"
    },
    {
      "icao": "LTFM",
      "alert": "OK",
      "vis_m": 9999,
      "fzfg": false,
      "metar_trigger": false,
      "taf_trigger": false,
      "metar": "METAR LTFM 100820Z 03008KT 330V050 9999 FEW040 SCT090 19/13 Q1016 NOSIG RMK RWY17L 02007KT RWY34L 01007KT 320V030 RWY16R 02007KT 330V030 RWY36 03007KT RWY18 03006KT 340V070",
      "taf": "TAF LTFM 100440Z 1006/1112 33008KT 9999 FEW040 BKN090"
    },
    {
      "icao": "LUKK",
      "alert": "OK",
      "vis_m": 9999,
      "fzfg": false,
      "metar_trigger": false,
      "taf_trigger": false,
      "metar": "METAR LUKK 100800Z 21005KT 180V250 9999 -RA SCT006 SCT011 OVC021 15/14 Q1014 NOSIG",
      "taf": "TAF LUKK 100501Z 1006/1106 VRB06KT 9999 SCT040"
    },
    {
      "icao": "LWOH",
      "alert": "OK",
      "vis_m": 9999,
      "fzfg": false,
      "metar_trigger": false,
      "taf_trigger": false,
      "metar": "METAR LWOH 100820Z 15005KT 9999 SCT008 BKN018 14/11 Q1019",
      "taf": "TAF LWOH 100540Z 1006/1106 VRB02KT 9999 SCT015"
    },
    {
      "icao": "LWSK",
      "alert": "OK",
      "vis_m": 9999,
      "fzfg": false,
      "metar_trigger": false,
      "taf_trigger": false,
      "metar": "METAR LWSK 100823Z COR 16001KT 9999 FEW050 21/12 Q1017 NOSIG",
      "taf": ""
    },
    {
      "icao": "LYBE",
      "alert": "OK",
      "vis_m": 9999,
      "fzfg": false,
      "metar_trigger": false,
      "taf_trigger": false,
      "metar": "METAR LYBE 100800Z 21004KT 170V280 CAVOK 20/13 Q1016 NOSIG",
      "taf": "TAF LYBE 100500Z 1006/1106 16005KT 9999 SCT040 TX26/1014Z TN14/1103Z"
    },
    {
      "icao": "LYNI",
      "alert": "OK",
      "vis_m": 9999,
      "fzfg": false,
      "metar_trigger": false,
      "taf_trigger": false,
      "metar": "METAR LYNI 100800Z 21003KT 150V270 9999 FEW025 18/14 Q1017 NOSIG",
      "taf": "TAF LYNI 100500Z 1006/1106 15004KT 1500 BR BKN006 TX24/1013Z TN11/1103Z"
    },
    {
      "icao": "LYPG",
      "alert": "OK",
      "vis_m": 9999,
      "fzfg": false,
      "metar_trigger": false,
      "taf_trigger": false,
      "metar": "METAR LYPG 100800Z 16002KT 9999 FEW026 20/12 Q1016 NOSIG",
      "taf": "TAF LYPG 100500Z 1006/1106 18008KT 9999 FEW050 BKN090 TX23/1014Z TN15/1104Z"
    },
    {
      "icao": "LZIB",
      "alert": "OK",
      "vis_m": 9999,
      "fzfg": false,
      "metar_trigger": false,
      "taf_trigger": false,
      "metar": "METAR LZIB 100800Z 08004KT 350V150 CAVOK 16/08 Q1016 NOSIG",
      "taf": "TAF LZIB 100515Z 1006/1106 VRB02KT CAVOK"
    },
    {
      "icao": "LZKZ",
      "alert": "OK",
      "vis_m": 9999,
      "fzfg": false,
      "metar_trigger": false,
      "taf_trigger": false,
      "metar": "METAR LZKZ 100800Z 03012KT CAVOK 15/06 Q1017 NOSIG",
      "taf": "TAF LZKZ 100515Z 1006/1106 02012KT CAVOK"
    },
    {
      "icao": "LZTT",
      "alert": "OK",
      "vis_m": 9999,
      "fzfg": false,
      "metar_trigger": false,
      "taf_trigger": false,
      "metar": "METAR LZTT 100800Z 20006KT 150V230 9999 FEW020 BKN035 10/04 Q1017 NOSIG",
      "taf": "TAF LZTT 100515Z 1006/1106 VRB02KT 9999 SCT035"
    },
    {
      "icao": "OEJN",
      "alert": "OK",
      "vis_m": 9999,
      "fzfg": false,
      "metar_trigger": false,
      "taf_trigger": false,
      "metar": "METAR OEJN 100800Z 26005KT CAVOK 32/21 Q1009 NOSIG",
      "taf": "TAF OEJN 100500Z 1006/1112 24012KT CAVOK"
    },
    {
      "icao": "OEMA",
      "alert": "OK",
      "vis_m": 9999,
      "fzfg": false,
      "metar_trigger": false,
      "taf_trigger": false,
      "metar": "METAR OEMA 100800Z 20006KT CAVOK 38/00 Q1015 NOSIG",
      "taf": "TAF OEMA 100500Z 1006/1112 22012KT 7000 FEW040"
    },
    {
      "icao": "OJAI",
      "alert": "OK",
      "vis_m": 5000,
      "fzfg": false,
      "metar_trigger": false,
      "taf_trigger": false,
      "metar": "METAR OJAI 100800Z 30006KT 5000 HZ NSC 28/06 Q1017 NOSIG",
      "taf": "TAF OJAI 100500Z 1006/1112 29010KT 6000 NSC"
    },
    {
      "icao": "OMAA",
      "alert": "OK",
      "vis_m": null,
      "fzfg": false,
      "metar_trigger": false,
      "taf_trigger": false,
      "metar": "",
      "taf": "TAF OMAA 100500Z 1006/1112 30014KT 8000 NSC"
    },
    {
      "icao": "OMDB",
      "alert": "OK",
      "vis_m": null,
      "fzfg": false,
      "metar_trigger": false,
      "taf_trigger": false,
      "metar": "",
      "taf": "TAF OMDB 100500Z 1006/1112 21007KT CAVOK"
    },
    {
      "icao": "UAAA",
      "alert": "OK",
      "vis_m": 9999,
      "fzfg": false,
      "metar_trigger": false,
      "taf_trigger": false,
      "metar": "METAR UAAA 100800Z 01004MPS 9999 SCT012 BKN026CB OVC100 17/16 Q1014 NOSIG",
      "taf": "TAF UAAA 100501Z 1006/1106 23003G08MPS 9999 BKN050CB OVC100 TX22/1006Z TN12/1100Z"
    },
    {
      "icao": "UBBB",
      "alert": "OK",
      "vis_m": 9999,
      "fzfg": false,
      "metar_trigger": false,
      "taf_trigger": false,
      "metar": "METAR UBBB 100800Z 12004KT CAVOK 27/12 Q1017 NOSIG",
      "taf": "TAF UBBB 100500Z 1006/1106 VRB04KT CAVOK TX26/1010Z TN14/1101Z"
    },
    {
      "icao": "UDSG",
      "alert": "OK",
      "vis_m": 9999,
      "fzfg": false,
      "metar_trigger": false,
      "taf_trigger": false,
      "metar": "METAR UDSG 100800Z 24004KT 190V290 9999 FEW049 18/04 Q1022 NOSIG",
      "taf": "TAF UDSG 100458Z 1006/1106 23006KT 9999 SCT050"
    },
    {
      "icao": "UDYZ",
      "alert": "OK",
      "vis_m": 9999,
      "fzfg": false,
      "metar_trigger": false,
      "taf_trigger": false,
      "metar": "METAR UDYZ 100800Z 12003KT 050V190 9999 FEW046 23/04 Q1019 NOSIG",
      "taf": "TAF UDYZ 100500Z 1006/1106 20006KT 9999 FEW040"
    },
    {
      "icao": "UGKO",
      "alert": "OK",
      "vis_m": 9999,
      "fzfg": false,
      "metar_trigger": false,
      "taf_trigger": false,
      "metar": "METAR UGKO 100800Z 09016KT 050V120 CAVOK 27/11 Q1013 NOSIG",
      "taf": "TAF UGKO 100500Z 1006/1106 09010KT CAVOK TX29/1011Z TN13/1102Z"
    }
  ]
}