{
  "ts_utc": "2026-01-17T06:53:00Z",
  "threshold_m": 150,
  "source": "stations_override.txt (ICAO list) + aviationweather.gov (METAR/TAF raw)",
  "station_count": 159,
  "stations": [
    {
      "icao": "BIKF",
      "alert": "OK",
      "vis_m": 9999,
      "fzfg": false,
      "metar_trigger": false,
      "taf_trigger": false,
      "metar": "METAR BIKF 170630Z 07008KT CAVOK M02/M03 Q1012",
      "taf": "TAF BIKF 170439Z 1706/1806 05007KT CAVOK TX06/1800Z TNM02/1706Z"
    },
    {
      "icao": "BKPR",
      "alert": "OK",
      "vis_m": 8000,
      "fzfg": false,
      "metar_trigger": false,
      "taf_trigger": false,
      "metar": "METAR BKPR 170630Z 36008KT 8000 SCT006 BKN030 M00/M01 Q1026 TEMPO 4000 BR",
      "taf": "TAF BKPR 170530Z 1706/1806 36009KT 9999 SCT006 BKN030"
    },
    {
      "icao": "EBCI",
      "alert": "OK",
      "vis_m": 9999,
      "fzfg": false,
      "metar_trigger": false,
      "taf_trigger": false,
      "metar": "METAR EBCI 170620Z VRB02KT 9999 BKN018 08/06 Q1015 NOSIG",
      "taf": "TAF EBCI 170516Z 1706/1812 13004KT 9999 SCT012 BKN014"
    },
    {
      "icao": "EDDB",
      "alert": "OK",
      "vis_m": 2100,
      "fzfg": false,
      "metar_trigger": false,
      "taf_trigger": false,
      "metar": "METAR EDDB 170620Z AUTO 10008KT 2100 BR OVC001 00/00 Q1024 TEMPO 1200 BR",
      "taf": "TAF EDDB 170500Z 1706/1806 11007KT 2000 BR BKN002"
    },
    {
      "icao": "EDDH",
      "alert": "OK",
      "vis_m": 9999,
      "fzfg": false,
      "metar_trigger": false,
      "taf_trigger": false,
      "metar": "METAR EDDH 170620Z AUTO 11005KT 070V160 CAVOK 02/02 Q1020 NOSIG",
      "taf": "TAF EDDH 170500Z 1706/1812 11005KT CAVOK"
    },
    {
      "icao": "EDDK",
      "alert": "OK",
      "vis_m": 9999,
      "fzfg": false,
      "metar_trigger": false,
      "taf_trigger": false,
      "metar": "METAR EDDK 170620Z AUTO 09007KT 070V130 CAVOK 07/03 Q1017 NOSIG",
      "taf": "TAF EDDK 170500Z 1706/1812 12007KT CAVOK"
    },
    {
      "icao": "EDDN",
      "alert": "OK",
      "vis_m": 9999,
      "fzfg": false,
      "metar_trigger": false,
      "taf_trigger": false,
      "metar": "METAR EDDN 170620Z AUTO 13007KT 9999 OVC009 00/M02 Q1020 NOSIG",
      "taf": "TAF EDDN 170500Z 1706/1806 11006KT 9999 OVC008"
    },
    {
      "icao": "EDDS",
      "alert": "OK",
      "vis_m": 9999,
      "fzfg": false,
      "metar_trigger": false,
      "taf_trigger": false,
      "metar": "METAR EDDS 170620Z AUTO 09004KT 070V130 CAVOK M01/M02 Q1017 NOSIG",
      "taf": "TAF EDDS 170500Z 1706/1806 VRB03KT CAVOK"
    },
    {
      "icao": "EDFH",
      "alert": "OK",
      "vis_m": 9999,
      "fzfg": false,
      "metar_trigger": false,
      "taf_trigger": false,
      "metar": "METAR EDFH 170620Z 14010KT CAVOK 03/02 Q1017",
      "taf": "TAF EDFH 170500Z 1706/1806 14008KT CAVOK"
    },
    {
      "icao": "EDJA",
      "alert": "OK",
      "vis_m": 550,
      "fzfg": true,
      "metar_trigger": false,
      "taf_trigger": false,
      "metar": "METAR EDJA 170620Z 06003KT 0550 R06/0650N FZFG VV/// M02/M03 Q1018",
      "taf": ""
    },
    {
      "icao": "EDLW",
      "alert": "OK",
      "vis_m": 9999,
      "fzfg": false,
      "metar_trigger": false,
      "taf_trigger": false,
      "metar": "METAR EDLW 170620Z COR 08005KT 060V120 CAVOK 07/03 Q1017",
      "taf": "TAF EDLW 170500Z 1706/1806 10004KT CAVOK"
    },
    {
      "icao": "EDNY",
      "alert": "OK",
      "vis_m": 9999,
      "fzfg": false,
      "metar_trigger": false,
      "taf_trigger": false,
      "metar": "METAR EDNY 170620Z 05005KT CAVOK 01/M00 Q1018",
      "taf": "TAF EDNY 170500Z 1706/1715 04005KT CAVOK"
    },
    {
      "icao": "EDSB",
      "alert": "OK",
      "vis_m": 9999,
      "fzfg": false,
      "metar_trigger": false,
      "taf_trigger": false,
      "metar": "METAR EDSB 170620Z 03003KT CAVOK 03/02 Q1018",
      "taf": "TAF EDSB 170500Z 1706/1806 VRB03KT CAVOK"
    },
    {
      "icao": "EETN",
      "alert": "OK",
      "vis_m": 9999,
      "fzfg": false,
      "metar_trigger": false,
      "taf_trigger": false,
      "metar": "METAR EETN 170650Z 18008KT 9999 OVC008 M08/M10 Q1032 NOSIG",
      "taf": "TAF EETN 170530Z 1706/1806 18010KT 9999 OVC010"
    },
    {
      "icao": "EFTU",
      "alert": "OK",
      "vis_m": 3500,
      "fzfg": false,
      "metar_trigger": false,
      "taf_trigger": false,
      "metar": "METAR EFTU 170650Z AUTO 18009KT 3500 -FZRA OVC002 M00/M00 Q1027 RESG REFZDZ",
      "taf": "TAF EFTU 170524Z 1706/1806 18012G22KT 2500 -FZDZ OVC002"
    },
    {
      "icao": "EGBB",
      "alert": "OK",
      "vis_m": 9999,
      "fzfg": false,
      "metar_trigger": false,
      "taf_trigger": false,
      "metar": "METAR EGBB 170620Z 11004KT 090V150 9999 BKN006 06/05 Q1010",
      "taf": "TAF EGBB 170454Z 1706/1806 14007KT 9999 FEW012 SCT025"
    },
    {
      "icao": "EGGP",
      "alert": "OK",
      "vis_m": 9999,
      "fzfg": false,
      "metar_trigger": false,
      "taf_trigger": false,
      "metar": "METAR EGGP 170620Z 11003KT 080V140 9999 BKN010 06/04 Q1010",
      "taf": "TAF EGGP 170457Z 1706/1806 14007KT 9999 SCT025"
    },
    {
      "icao": "EGGW",
      "alert": "OK",
      "vis_m": 4400,
      "fzfg": false,
      "metar_trigger": false,
      "taf_trigger": false,
      "metar": "METAR EGGW 170620Z AUTO 15007KT 4400 RADZ BKN002/// //////TCU 07/06 Q1011 RERA",
      "taf": ""
    },
    {
      "icao": "EGKK",
      "alert": "OK",
      "vis_m": 9999,
      "fzfg": false,
      "metar_trigger": false,
      "taf_trigger": false,
      "metar": "METAR EGKK 170620Z 13006KT 9999 FEW011 SCT023 BKN031 08/08 Q1012",
      "taf": "TAF EGKK 170453Z 1706/1812 15006KT 9999 SCT030"
    },
    {
      "icao": "EGNM",
      "alert": "OK",
      "vis_m": 200,
      "fzfg": false,
      "metar_trigger": false,
      "taf_trigger": false,
      "metar": "METAR EGNM 170620Z 12007KT 0200 R14/0350N -RA FG VV/// 05/04 Q1010",
      "taf": ""
    },
    {
      "icao": "EGPD",
      "alert": "OK",
      "vis_m": 9999,
      "fzfg": false,
      "metar_trigger": false,
      "taf_trigger": false,
      "metar": "METAR EGPD 170620Z AUTO 12005KT 9999 BKN013 OVC032 06/03 Q1013 TEMPO SCT013",
      "taf": "TAF EGPD 170502Z 1706/1806 14006KT 9999 SCT010"
    },
    {
      "icao": "EGPF",
      "alert": "OK",
      "vis_m": 9000,
      "fzfg": false,
      "metar_trigger": false,
      "taf_trigger": false,
      "metar": "METAR EGPF 170620Z AUTO 07009KT 9000 -RA SCT045/// //////TCU 04/03 Q1011",
      "taf": "TAF EGPF 170457Z 1706/1806 07008KT 9999 FEW030"
    },
    {
      "icao": "EHBK",
      "alert": "OK",
      "vis_m": 9999,
      "fzfg": false,
      "metar_trigger": false,
      "taf_trigger": false,
      "metar": "METAR EHBK 170625Z AUTO 15006KT 9999 NSC 08/05 Q1015 NOSIG",
      "taf": "TAF EHBK 170502Z 1706/1812 16006KT 9999 BKN040"
    },
    {
      "icao": "EHEH",
      "alert": "OK",
      "vis_m": 9999,
      "fzfg": false,
      "metar_trigger": false,
      "taf_trigger": false,
      "metar": "METAR EHEH 170625Z AUTO 14005KT 120V200 9999 BKN054 OVC240 08/06 Q1015 BLU NOSIG RMK TREND REMOTE BY EHWX",
      "taf": "TAF EHEH 170517Z 1706/1812 13005KT CAVOK"
    },
    {
      "icao": "EKBI",
      "alert": "OK",
      "vis_m": 9999,
      "fzfg": false,
      "metar_trigger": false,
      "taf_trigger": false,
      "metar": "METAR EKBI 170620Z AUTO 09008KT 9999 FEW015/// OVC033/// 05/04 Q1021",
      "taf": "TAF EKBI 170527Z 1706/1806 11010KT 9000 BKN020"
    },
    {
      "icao": "EKCH",
      "alert": "OK",
      "vis_m": 400,
      "fzfg": false,
      "metar_trigger": false,
      "taf_trigger": false,
      "metar": "METAR EKCH 170620Z 11012KT 0400 R22L/1400U R04L/1100N R12/1000N FG VV002 02/02 Q1025 TEMPO 0500",
      "taf": "TAF EKCH 170527Z 1706/1806 13010KT 0100 FG VV001"
    },
    {
      "icao": "ENAL",
      "alert": "OK",
      "vis_m": 9999,
      "fzfg": false,
      "metar_trigger": false,
      "taf_trigger": false,
      "metar": "METAR ENAL 170620Z AUTO 17007KT 9999 BKN034/// OVC040/// 06/03 Q1020",
      "taf": "TAF ENAL 170500Z 1706/1715 16008KT 9999 BKN050"
    },
    {
      "icao": "ENBR",
      "alert": "OK",
      "vis_m": 9999,
      "fzfg": false,
      "metar_trigger": false,
      "taf_trigger": false,
      "metar": "METAR ENBR 170620Z 10007KT 9999 FEW025 BKN030 04/01 Q1021 NOSIG RMK WIND 1200FT 14014KT",
      "taf": "TAF ENBR 170500Z 1706/1806 11008KT 9999 BKN025"
    },
    {
      "icao": "ENGM",
      "alert": "OK",
      "vis_m": 600,
      "fzfg": true,
      "metar_trigger": false,
      "taf_trigger": false,
      "metar": "METAR ENGM 170620Z VRB02KT 0600 0300NW R19R/0450N R01R/1000N R19L/0700N R01L/0600N FG VV002 01/00 Q1022 TEMPO FZFG",
      "taf": "TAF ENGM 170500Z 1706/1806 VRB03KT 6000 SCT003"
    },
    {
      "icao": "ENHD",
      "alert": "OK",
      "vis_m": 9999,
      "fzfg": false,
      "metar_trigger": false,
      "taf_trigger": false,
      "metar": "METAR ENHD 170620Z AUTO 12011KT 9999 OVC036/// 05/03 Q1021",
      "taf": "TAF ENHD 170500Z 1706/1715 12012KT 9999 FEW025 BKN040"
    },
    {
      "icao": "ENTC",
      "alert": "OK",
      "vis_m": 9999,
      "fzfg": false,
      "metar_trigger": false,
      "taf_trigger": false,
      "metar": "METAR ENTC 170620Z VRB01KT CAVOK M08/M09 Q1013 NOSIG RMK WIND 2600FT 20004KT",
      "taf": "TAF ENTC 170500Z 1706/1806 06010KT CAVOK"
    },
    {
      "icao": "ENTO",
      "alert": "OK",
      "vis_m": 9999,
      "fzfg": false,
      "metar_trigger": false,
      "taf_trigger": false,
      "metar": "METAR ENTO 170620Z 19002KT CAVOK 01/01 Q1022 NOSIG",
      "taf": "TAF ENTO 170500Z 1706/1806 24005KT 9999 FEW008"
    },
    {
      "icao": "ENVA",
      "alert": "OK",
      "vis_m": 9999,
      "fzfg": false,
      "metar_trigger": false,
      "taf_trigger": false,
      "metar": "METAR ENVA 170620Z 25009KT 9999 BKN024 05/02 Q1019 RERA NOSIG RMK WIND 670FT 24012KT",
      "taf": "TAF ENVA 170500Z 1706/1806 22008KT 9999 FEW012 BKN025"
    },
    {
      "icao": "ENZV",
      "alert": "OK",
      "vis_m": 9999,
      "fzfg": false,
      "metar_trigger": false,
      "taf_trigger": false,
      "metar": "METAR ENZV 170620Z 11007KT 9999 SCT042 05/02 Q1021 NOSIG",
      "taf": "TAF ENZV 170500Z 1706/1806 12008KT 9999 FEW025 SCT040"
    },
    {
      "icao": "EPGD",
      "alert": "OK",
      "vis_m": 500,
      "fzfg": true,
      "metar_trigger": false,
      "taf_trigger": false,
      "metar": "METAR EPGD 170630Z 16009KT 0500 R29/1400D FZFG OVC001 M05/M06 Q1028",
      "taf": "TAF EPGD 170530Z 1706/1806 16010KT 1200 BR OVC002"
    },
    {
      "icao": "EPKK",
      "alert": "OK",
      "vis_m": 400,
      "fzfg": true,
      "metar_trigger": false,
      "taf_trigger": false,
      "metar": "METAR EPKK 170630Z 06008KT 0400 R25/0900N FZFG OVC002 M04/M05 Q1029",
      "taf": "TAF EPKK 170530Z 1706/1806 06010KT 0200 FZFG OVC001"
    },
    {
      "icao": "EPKT",
      "alert": "OK",
      "vis_m": 300,
      "fzfg": true,
      "metar_trigger": false,
      "taf_trigger": false,
      "metar": "METAR EPKT 170630Z 11005KT 0300 R26/0900N FZFG OVC001 M02/M02 Q1027",
      "taf": "TAF EPKT 170530Z 1706/1806 11008KT 0200 FZFG OVC001"
    },
    {
      "icao": "EPLB",
      "alert": "OK",
      "vis_m": 9999,
      "fzfg": false,
      "metar_trigger": false,
      "taf_trigger": false,
      "metar": "METAR EPLB 170630Z 08007KT CAVOK M14/M16 Q1034",
      "taf": "TAF EPLB 170530Z 1706/1806 11010KT CAVOK"
    },
    {
      "icao": "EPMO",
      "alert": "OK",
      "vis_m": 8000,
      "fzfg": false,
      "metar_trigger": false,
      "taf_trigger": false,
      "metar": "METAR EPMO 170630Z 09008KT 8000 BKN009 M11/M12 Q1032",
      "taf": "TAF EPMO 170530Z 1706/1806 10009KT 8000 FEW010"
    },
    {
      "icao": "EPPO",
      "alert": "OK",
      "vis_m": 1400,
      "fzfg": false,
      "metar_trigger": false,
      "taf_trigger": false,
      "metar": "METAR EPPO 170630Z 10012KT 1400 R28/P2000D BR OVC002 00/M00 Q1027",
      "taf": "TAF EPPO 170530Z 1706/1806 13010KT 1500 BR OVC002"
    },
    {
      "icao": "EPRA",
      "alert": "OK",
      "vis_m": 9999,
      "fzfg": false,
      "metar_trigger": false,
      "taf_trigger": false,
      "metar": "METAR EPRA 170630Z 13008KT CAVOK M11/M13 Q1031",
      "taf": "TAF EPRA 170530Z 1706/1715 13008KT CAVOK"
    },
    {
      "icao": "EPRZ",
      "alert": "OK",
      "vis_m": 9999,
      "fzfg": false,
      "metar_trigger": false,
      "taf_trigger": false,
      "metar": "METAR EPRZ 170630Z 09010KT CAVOK M11/M13 Q1032",
      "taf": "TAF EPRZ 170530Z 1706/1806 09012KT CAVOK"
    },
    {
      "icao": "EPSC",
      "alert": "OK",
      "vis_m": 2000,
      "fzfg": false,
      "metar_trigger": false,
      "taf_trigger": false,
      "metar": "METAR EPSC 170630Z 13012KT 2000 BR OVC002 01/01 Q1026",
      "taf": "TAF EPSC 170530Z 1706/1806 13012KT 1500 BR OVC002"
    },
    {
      "icao": "EPSY",
      "alert": "OK",
      "vis_m": 9999,
      "fzfg": false,
      "metar_trigger": false,
      "taf_trigger": false,
      "metar": "METAR EPSY 170630Z 13006KT 090V170 9999 BKN007 M10/M13 Q1033",
      "taf": "TAF EPSY 170530Z 1706/1715 13008KT 8000 BKN007"
    },
    {
      "icao": "EPWA",
      "alert": "OK",
      "vis_m": 9999,
      "fzfg": false,
      "metar_trigger": false,
      "taf_trigger": false,
      "metar": "METAR EPWA 170630Z 12009KT 9999 SCT010 M10/M13 Q1032 TEMPO BKN010",
      "taf": "TAF EPWA 170530Z 1706/1806 11010KT 9999 FEW010"
    },
    {
      "icao": "EPWR",
      "alert": "OK",
      "vis_m": 400,
      "fzfg": false,
      "metar_trigger": false,
      "taf_trigger": false,
      "metar": "METAR EPWR 170630Z 12017KT 0400 R29/1700N FG OVC001 00/00 Q1026",
      "taf": "TAF EPWR 170530Z 1706/1806 12010KT 0500 FG OVC002"
    },
    {
      "icao": "ESGG",
      "alert": "OK",
      "vis_m": 250,
      "fzfg": false,
      "metar_trigger": false,
      "taf_trigger": false,
      "metar": "METAR ESGG 170620Z 13004KT 0250 R03/P2000N R21/0900N FG VV002 02/02 Q1024",
      "taf": "TAF ESGG 170530Z 1706/1806 20008KT 9999 BKN006"
    },
    {
      "icao": "ESKN",
      "alert": "OK",
      "vis_m": 3600,
      "fzfg": false,
      "metar_trigger": false,
      "taf_trigger": false,
      "metar": "METAR ESKN 170620Z 19005KT 3600 BR BKN003 02/02 Q1025",
      "taf": "TAF ESKN 170530Z 1706/1806 18006KT 0300 FG VV002"
    },
    {
      "icao": "ESMS",
      "alert": "OK",
      "vis_m": 100,
      "fzfg": false,
      "metar_trigger": false,
      "taf_trigger": false,
      "metar": "METAR ESMS 170620Z 14008KT 0100 R17/0600N R35/0600N FG VV001 02/02 Q1025",
      "taf": "TAF ESMS 170527Z 1706/1806 13008KT 0100 FG VV001"
    },
    {
      "icao": "ESSA",
      "alert": "OK",
      "vis_m": 6000,
      "fzfg": false,
      "metar_trigger": false,
      "taf_trigger": false,
      "metar": "METAR ESSA 170620Z 21007KT 6000 BKN026 02/02 Q1024 NOSIG",
      "taf": "TAF ESSA 170530Z 1706/1806 18010KT 6000 SCT007 BKN025"
    },
    {
      "icao": "EYKA",
      "alert": "OK",
      "vis_m": 9999,
      "fzfg": false,
      "metar_trigger": false,
      "taf_trigger": false,
      "metar": "METAR EYKA 170650Z 18006KT 140V220 CAVOK M12/M16 Q1037",
      "taf": "TAF EYKA 170502Z 1706/1806 16010KT 9000 NSC"
    },
    {
      "icao": "EYPA",
      "alert": "OK",
      "vis_m": 9999,
      "fzfg": false,
      "metar_trigger": false,
      "taf_trigger": false,
      "metar": "METAR EYPA 170650Z 16011KT CAVOK M10/M14 Q1032",
      "taf": "TAF EYPA 170509Z 1706/1806 15012KT 7000 NSC"
    },
    {
      "icao": "EYVI",
      "alert": "OK",
      "vis_m": 9999,
      "fzfg": false,
      "metar_trigger": false,
      "taf_trigger": false,
      "metar": "METAR EYVI 170650Z 17009KT CAVOK M13/M17 Q1037 NOSIG",
      "taf": "TAF EYVI 170501Z 1706/1806 16010KT 8000 NSC"
    },
    {
      "icao": "GCFV",
      "alert": "OK",
      "vis_m": 9999,
      "fzfg": false,
      "metar_trigger": false,
      "taf_trigger": false,
      "metar": "METAR GCFV 170630Z 33010KT 9999 FEW030 SCT040 16/11 Q1021",
      "taf": "TAF GCFV 170200Z 1703/1803 35009KT 9999 SCT035 TX20/1714Z TN15/1706Z"
    },
    {
      "icao": "GCLP",
      "alert": "OK",
      "vis_m": 9999,
      "fzfg": false,
      "metar_trigger": false,
      "taf_trigger": false,
      "metar": "METAR GCLP 170630Z 34010KT 9999 SCT030 16/12 Q1022 NOSIG",
      "taf": "TAF GCLP 170200Z 1703/1803 36017KT 9999 SCT035 TX21/1714Z TN15/1706Z"
    },
    {
      "icao": "GCTS",
      "alert": "OK",
      "vis_m": 9999,
      "fzfg": false,
      "metar_trigger": false,
      "taf_trigger": false,
      "metar": "METAR GCTS 170630Z 32006KT 300V360 9999 FEW030 SCT040 15/11 Q1022 NOSIG",
      "taf": "TAF GCTS 170200Z 1703/1803 35006KT 9999 FEW035 TX22/1714Z TN14/1706Z"
    },
    {
      "icao": "GMAD",
      "alert": "OK",
      "vis_m": 9999,
      "fzfg": false,
      "metar_trigger": false,
      "taf_trigger": false,
      "metar": "METAR GMAD 170630Z 23009KT CAVOK 11/09 Q1017 NOSIG",
      "taf": "TAF GMAD 170500Z 1706/1812 22006KT CAVOK"
    },
    {
      "icao": "GMMN",
      "alert": "OK",
      "vis_m": 9999,
      "fzfg": false,
      "metar_trigger": false,
      "taf_trigger": false,
      "metar": "METAR GMMN 170630Z 22007KT 9999 SCT006 BKN020 08/07 Q1017 NOSIG",
      "taf": "TAF GMMN 170500Z 1706/1812 24008KT 8000 SCT006 BKN020"
    },
    {
      "icao": "GMMX",
      "alert": "OK",
      "vis_m": 8000,
      "fzfg": false,
      "metar_trigger": false,
      "taf_trigger": false,
      "metar": "METAR GMMX 170630Z 23006KT 8000 RA SCT013 BKN020 09/08 Q1018 NOSIG",
      "taf": "TAF GMMX 170500Z 1706/1812 34017KT 3000 SHRA SCT013 BKN020 FEW030TCU"
    },
    {
      "icao": "HEGN",
      "alert": "OK",
      "vis_m": 9999,
      "fzfg": false,
      "metar_trigger": false,
      "taf_trigger": false,
      "metar": "METAR HEGN 170600Z 30004KT CAVOK 12/02 Q1018 NOSIG",
      "taf": "TAF HEGN 170500Z 1706/1812 28010KT CAVOK"
    },
    {
      "icao": "HEMA",
      "alert": "OK",
      "vis_m": 9999,
      "fzfg": false,
      "metar_trigger": false,
      "taf_trigger": false,
      "metar": "METAR HEMA 170600Z 28009KT 9999 FEW020 17/07 Q1017 NOSIG",
      "taf": "TAF HEMA 170500Z 1706/1812 29008KT CAVOK"
    },
    {
      "icao": "HESH",
      "alert": "OK",
      "vis_m": 9999,
      "fzfg": false,
      "metar_trigger": false,
      "taf_trigger": false,
      "metar": "METAR HESH 170600Z 34006KT CAVOK 18/06 Q1017 NOSIG",
      "taf": "TAF HESH 170500Z 1706/1812 31008KT CAVOK"
    },
    {
      "icao": "HESX",
      "alert": "OK",
      "vis_m": 200,
      "fzfg": false,
      "metar_trigger": false,
      "taf_trigger": false,
      "metar": "METAR HESX 170600Z 00000KT 0200 R34/0200 FG NSC 07/06 Q1019 NOSIG",
      "taf": "TAF HESX 170512Z 1706/1812 VRB03KT 6000 NSC"
    },
    {
      "icao": "LATI",
      "alert": "OK",
      "vis_m": 9999,
      "fzfg": false,
      "metar_trigger": false,
      "taf_trigger": false,
      "metar": "METAR LATI 170650Z 13002KT CAVOK 03/01 Q1022 NOSIG",
      "taf": "TAF LATI 170500Z 1706/1806 VRB04KT CAVOK TX17/1712Z TN01/1804Z"
    },
    {
      "icao": "LBPD",
      "alert": "OK",
      "vis_m": 9999,
      "fzfg": false,
      "metar_trigger": false,
      "taf_trigger": false,
      "metar": "METAR LBPD 170630Z AUTO 09008KT 9999 NCD M05/M06 Q1033 TEMPO SCT012",
      "taf": "TAF LBPD 170500Z 1706/1806 10010KT 9999 SCT040"
    },
    {
      "icao": "LBSF",
      "alert": "OK",
      "vis_m": 9999,
      "fzfg": false,
      "metar_trigger": false,
      "taf_trigger": false,
      "metar": "METAR LBSF 170630Z 09011KT 9999 FEW029 BKN036 M02/M04 Q1028 NOSIG",
      "taf": "TAF LBSF 170500Z 1706/1806 10012KT 9999 SCT015 BKN030"
    },
    {
      "icao": "LBWN",
      "alert": "OK",
      "vis_m": 9999,
      "fzfg": false,
      "metar_trigger": false,
      "taf_trigger": false,
      "metar": "METAR LBWN 170630Z VRB05KT CAVOK M05/M08 Q1033 NOSIG",
      "taf": "TAF LBWN 170500Z 1706/1806 35013KT 9999 BKN020"
    },
    {
      "icao": "LCLK",
      "alert": "OK",
      "vis_m": 9999,
      "fzfg": false,
      "metar_trigger": false,
      "taf_trigger": false,
      "metar": "METAR LCLK 170630Z 32005KT 9999 FEW030 BKN060 12/11 Q1017 NOSIG",
      "taf": "TAF LCLK 170530Z 1706/1806 31006KT 9999 -RA FEW030 SCT045"
    },
    {
      "icao": "LCPH",
      "alert": "OK",
      "vis_m": 9999,
      "fzfg": false,
      "metar_trigger": false,
      "taf_trigger": false,
      "metar": "METAR LCPH 170630Z AUTO VRB02KT 9999 FEW028 14/11 Q1018 NOSIG",
      "taf": "TAF LCPH 170530Z 1706/1806 04007KT 8000 -RA FEW020 SCT030 BKN045"
    },
    {
      "icao": "LEAL",
      "alert": "OK",
      "vis_m": 9999,
      "fzfg": false,
      "metar_trigger": false,
      "taf_trigger": false,
      "metar": "METAR LEAL 170630Z 00000KT 9999 -RA SCT015 BKN030 12/12 Q1008 RERA NOSIG",
      "taf": "TAF LEAL 170500Z 1706/1806 VRB04KT 9999 FEW020 TX14/1713Z TN07/1706Z"
    },
    {
      "icao": "LEBB",
      "alert": "OK",
      "vis_m": 9999,
      "fzfg": false,
      "metar_trigger": false,
      "taf_trigger": false,
      "metar": "METAR LEBB 170630Z 08003KT 9999 FEW042 SCT070 06/05 Q1012 NOSIG",
      "taf": "TAF LEBB 170500Z 1706/1806 10005KT 9999 FEW020 BKN040 TX09/1712Z TN05/1706Z"
    },
    {
      "icao": "LEBL",
      "alert": "OK",
      "vis_m": 9999,
      "fzfg": false,
      "metar_trigger": false,
      "taf_trigger": false,
      "metar": "METAR LEBL 170530Z 11009KT 9999 FEW015 SCT045 14/13 Q1010 NOSIG",
      "taf": "TAF LEBL 170500Z 1706/1806 11012KT 9000 SCT010 BKN050 TX16/1712Z TN14/1706Z"
    },
    {
      "icao": "LECH",
      "alert": "OK",
      "vis_m": 9999,
      "fzfg": false,
      "metar_trigger": false,
      "taf_trigger": false,
      "metar": "METAR LECH 170630Z AUTO 02007KT 350V050 9999 BKN026 OVC034 09/08 Q1008",
      "taf": ""
    },
    {
      "icao": "LEMD",
      "alert": "OK",
      "vis_m": 9999,
      "fzfg": false,
      "metar_trigger": false,
      "taf_trigger": false,
      "metar": "METAR LEMD 170630Z 20003KT 9999 RA SCT013 BKN020 OVC030 03/02 Q1008 NOSIG",
      "taf": "TAF LEMD 170500Z 1706/1812 VRB04KT 9999 SCT035 TX07/1714Z TNM01/1808Z"
    },
    {
      "icao": "LEMG",
      "alert": "OK",
      "vis_m": 9999,
      "fzfg": false,
      "metar_trigger": false,
      "taf_trigger": false,
      "metar": "METAR LEMG 170630Z 28004KT 250V310 9999 FEW035 08/04 Q1012 NOSIG",
      "taf": "TAF LEMG 170500Z 1706/1806 27006KT 9999 FEW030 TX15/1714Z TN06/1806Z"
    },
    {
      "icao": "LEVC",
      "alert": "OK",
      "vis_m": 9999,
      "fzfg": false,
      "metar_trigger": false,
      "taf_trigger": false,
      "metar": "METAR LEVC 170630Z 27003KT 240V300 9999 -DZ FEW040 BKN063 09/08 Q1009 NOSIG",
      "taf": "TAF LEVC 170500Z 1706/1806 VRB04KT 9999 FEW060 TX13/1712Z TN04/1706Z"
    },
    {
      "icao": "LEXJ",
      "alert": "OK",
      "vis_m": 9999,
      "fzfg": false,
      "metar_trigger": false,
      "taf_trigger": false,
      "metar": "METAR LEXJ 170630Z 22006KT 9999 -RA SCT040 SCT070 08/06 Q1011",
      "taf": "TAF LEXJ 170200Z 1703/1803 22007KT 9999 BKN040 TX11/1714Z TN07/1802Z"
    },
    {
      "icao": "LEZG",
      "alert": "OK",
      "vis_m": 3000,
      "fzfg": false,
      "metar_trigger": false,
      "taf_trigger": false,
      "metar": "METAR LEZG 170630Z 24003KT 170V290 3000 DZ BR BKN002 OVC007 07/07 Q1010 NOSIG",
      "taf": "TAF LEZG 170500Z 1706/1806 VRB04KT 9999 FEW060 TX09/1714Z TN04/1706Z"
    },
    {
      "icao": "LEZL",
      "alert": "OK",
      "vis_m": 9999,
      "fzfg": false,
      "metar_trigger": false,
      "taf_trigger": false,
      "metar": "METAR LEZL 170630Z 27003KT CAVOK 06/06 Q1013 NOSIG",
      "taf": "TAF LEZL 170200Z 1703/1803 VRB03KT CAVOK TX13/1715Z TN05/1707Z"
    },
    {
      "icao": "LFBD",
      "alert": "OK",
      "vis_m": 2900,
      "fzfg": false,
      "metar_trigger": false,
      "taf_trigger": false,
      "metar": "METAR LFBD 170630Z AUTO 18003KT 2900 0650 R23/P2300 R05/0800N R29/P2300 BCFG NSC 05/05 Q1012 TEMPO 0400 FG VV///",
      "taf": "TAF LFBD 170500Z 1706/1812 VRB03KT CAVOK TX10/1812Z TN05/1706Z"
    },
    {
      "icao": "LFLL",
      "alert": "OK",
      "vis_m": 9999,
      "fzfg": false,
      "metar_trigger": false,
      "taf_trigger": false,
      "metar": "METAR LFLL 170630Z 15010KT CAVOK 08/03 Q1015 NOSIG",
      "taf": "TAF LFLL 170500Z 1706/1812 14008KT CAVOK"
    },
    {
      "icao": "LFLS",
      "alert": "OK",
      "vis_m": 9999,
      "fzfg": false,
      "metar_trigger": false,
      "taf_trigger": false,
      "metar": "METAR LFLS 170630Z AUTO 07008KT CAVOK 08/03 Q1015 TEMPO 4500 RA",
      "taf": "TAF LFLS 170200Z 1703/1803 09010KT 9999 BKN060"
    },
    {
      "icao": "LFMN",
      "alert": "OK",
      "vis_m": 9999,
      "fzfg": false,
      "metar_trigger": false,
      "taf_trigger": false,
      "metar": "METAR LFMN 170630Z 02009KT 9999 FEW040 BKN076 10/08 Q1017 NOSIG",
      "taf": "TAF LFMN 170200Z 1703/1809 34012KT 9999 SCT030 BKN100"
    },
    {
      "icao": "LFOB",
      "alert": "OK",
      "vis_m": 8000,
      "fzfg": false,
      "metar_trigger": false,
      "taf_trigger": false,
      "metar": "METAR LFOB 170630Z AUTO 11003KT 8000 OVC005 07/07 Q1013 TEMPO 0900 FG VV///",
      "taf": "TAF LFOB 170500Z 1706/1806 11005KT 8000 OVC006"
    },
    {
      "icao": "LFPO",
      "alert": "OK",
      "vis_m": 5000,
      "fzfg": false,
      "metar_trigger": false,
      "taf_trigger": false,
      "metar": "METAR LFPO 170630Z AUTO 10003KT 5000 1700 BR VV/// 07/07 Q1013",
      "taf": ""
    },
    {
      "icao": "LFSB",
      "alert": "OK",
      "vis_m": 9999,
      "fzfg": false,
      "metar_trigger": false,
      "taf_trigger": false,
      "metar": "METAR LFSB 170630Z AUTO 19002KT CAVOK 03/02 Q1017 NOSIG",
      "taf": "TAF LFSB 170500Z 1706/1806 16003KT CAVOK"
    },
    {
      "icao": "LGAV",
      "alert": "OK",
      "vis_m": 9999,
      "fzfg": false,
      "metar_trigger": false,
      "taf_trigger": false,
      "metar": "METAR LGAV 170620Z 04016G26KT 9999 FEW015 BKN025 10/04 Q1024 NOSIG",
      "taf": "TAF LGAV 170500Z 1706/1806 03018G28KT 9000 FEW010 SCT018 BKN025"
    },
    {
      "icao": "LGTS",
      "alert": "OK",
      "vis_m": 9999,
      "fzfg": false,
      "metar_trigger": false,
      "taf_trigger": false,
      "metar": "METAR LGTS 170620Z 15008KT 9999 BKN030 08/02 Q1027 NOSIG",
      "taf": "TAF LGTS 170500Z 1706/1806 08013KT 9999 FEW012 BKN025"
    },
    {
      "icao": "LHBP",
      "alert": "OK",
      "vis_m": 8000,
      "fzfg": false,
      "metar_trigger": false,
      "taf_trigger": false,
      "metar": "METAR LHBP 170630Z 10010KT 8000 BKN018 01/M00 Q1029 NOSIG",
      "taf": "TAF LHBP 170515Z 1706/1806 08007KT 9999 BKN030"
    },
    {
      "icao": "LHDC",
      "alert": "OK",
      "vis_m": 3700,
      "fzfg": false,
      "metar_trigger": false,
      "taf_trigger": false,
      "metar": "METAR LHDC 170615Z AUTO 08003KT 3700 BR OVC004 01/01 Q1030 NOSIG",
      "taf": ""
    },
    {
      "icao": "LIBD",
      "alert": "OK",
      "vis_m": 6000,
      "fzfg": false,
      "metar_trigger": false,
      "taf_trigger": false,
      "metar": "METAR LIBD 170620Z AUTO 28003KT 6000 BKN011/// BKN024/// 09/09 Q1021",
      "taf": "TAF LIBD 170500Z 1706/1806 VRB05KT 9999 FEW030"
    },
    {
      "icao": "LIBG",
      "alert": "OK",
      "vis_m": null,
      "fzfg": false,
      "metar_trigger": false,
      "taf_trigger": false,
      "metar": "",
      "taf": ""
    },
    {
      "icao": "LIBP",
      "alert": "OK",
      "vis_m": 3400,
      "fzfg": false,
      "metar_trigger": false,
      "taf_trigger": false,
      "metar": "METAR LIBP 170620Z AUTO 26002KT 3400 BR NCD 04/04 Q1022",
      "taf": "TAF LIBP 170500Z 1706/1806 VRB03KT 0300 FG OVC002"
    },
    {
      "icao": "LIBR",
      "alert": "OK",
      "vis_m": 2500,
      "fzfg": false,
      "metar_trigger": false,
      "taf_trigger": false,
      "metar": "METAR LIBR 170620Z 27005KT 2500 BR NSC 08/08 Q1020",
      "taf": "TAF LIBR 170500Z 1706/1806 VRB05KT 3000 BR BKN010"
    },
    {
      "icao": "LICA",
      "alert": "OK",
      "vis_m": 9999,
      "fzfg": false,
      "metar_trigger": false,
      "taf_trigger": false,
      "metar": "METAR LICA 170620Z AUTO 07010KT 9999 -RA OVC059/// 12/11 Q1018",
      "taf": ""
    },
    {
      "icao": "LICC",
      "alert": "OK",
      "vis_m": 9999,
      "fzfg": false,
      "metar_trigger": false,
      "taf_trigger": false,
      "metar": "METAR LICC 170620Z 24003KT 9999 -DZRA FEW020 BKN070 11/09 Q1017",
      "taf": "TAF LICC 170500Z 1706/1806 06010KT 8000 RA SCT020 BKN050"
    },
    {
      "icao": "LICJ",
      "alert": "OK",
      "vis_m": 9999,
      "fzfg": false,
      "metar_trigger": false,
      "taf_trigger": false,
      "metar": "METAR LICJ 170620Z VRB03KT 9999 FEW062 15/10 Q1015",
      "taf": "TAF LICJ 170500Z 1706/1806 10012KT 9999 SCT060"
    },
    {
      "icao": "LIMC",
      "alert": "OK",
      "vis_m": 4000,
      "fzfg": false,
      "metar_trigger": false,
      "taf_trigger": false,
      "metar": "METAR LIMC 170620Z 02005KT 4000 -DZ BR BKN016 BKN030 07/06 Q1023 NOSIG",
      "taf": "TAF LIMC 170500Z 1706/1812 VRB03KT 3000 BR BKN020"
    },
    {
      "icao": "LIME",
      "alert": "OK",
      "vis_m": 3000,
      "fzfg": false,
      "metar_trigger": false,
      "taf_trigger": false,
      "metar": "METAR LIME 170620Z 36003KT 3000 BR SCT020 07/06 Q1022 NOSIG",
      "taf": "TAF LIME 170500Z 1706/1806 VRB04KT 1500 BCFG BKN008"
    },
    {
      "icao": "LIMF",
      "alert": "OK",
      "vis_m": 9999,
      "fzfg": false,
      "metar_trigger": false,
      "taf_trigger": false,
      "metar": "METAR LIMF 170620Z 31005KT 9999 -RA OVC013 06/05 Q1022 RERA",
      "taf": ""
    },
    {
      "icao": "LIMJ",
      "alert": "OK",
      "vis_m": 9999,
      "fzfg": false,
      "metar_trigger": false,
      "taf_trigger": false,
      "metar": "METAR LIMJ 170620Z 04015KT CAVOK 09/05 Q1019",
      "taf": "TAF LIMJ 170500Z 1706/1806 03017KT 8000 SCT030"
    },
    {
      "icao": "LIPE",
      "alert": "OK",
      "vis_m": 800,
      "fzfg": false,
      "metar_trigger": false,
      "taf_trigger": false,
      "metar": "METAR LIPE 170620Z 36001KT 0800 R12/1200D R30/1100N -DZ FG VV002 06/06 Q1022",
      "taf": "TAF LIPE 170500Z 1706/1806 VRB04KT 2000 BR BKN020"
    },
    {
      "icao": "LIPH",
      "alert": "OK",
      "vis_m": 3000,
      "fzfg": false,
      "metar_trigger": false,
      "taf_trigger": false,
      "metar": "METAR LIPH 170620Z 27003KT 3000 BR SCT008 BKN010 05/04 Q1023",
      "taf": "TAF LIPH 170500Z 1706/1806 03007KT 7000 SCT040"
    },
    {
      "icao": "LIPQ",
      "alert": "OK",
      "vis_m": 1300,
      "fzfg": false,
      "metar_trigger": false,
      "taf_trigger": false,
      "metar": "METAR LIPQ 170620Z AUTO 36004KT 1300 R09/P2000N BR BKN075/// 08/07 Q1022",
      "taf": "TAF LIPQ 170500Z 1706/1806 03007KT 2500 BR BKN020"
    },
    {
      "icao": "LIPR",
      "alert": "OK",
      "vis_m": 1300,
      "fzfg": false,
      "metar_trigger": false,
      "taf_trigger": false,
      "metar": "METAR LIPR 170620Z 30005KT 1300 R30/P2000N BR BKN002 07/07 Q1022",
      "taf": "TAF LIPR 170500Z 1706/1806 VRB04KT 0300 FG OVC003"
    },
    {
      "icao": "LIPX",
      "alert": "OK",
      "vis_m": 100,
      "fzfg": false,
      "metar_trigger": false,
      "taf_trigger": false,
      "metar": "METAR LIPX 170620Z 26001KT 0100 R04/0225N FG VV001 02/02 Q1023",
      "taf": "TAF LIPX 170500Z 1706/1806 VRB04KT 2000 BR BKN012"
    },
    {
      "icao": "LIPY",
      "alert": "OK",
      "vis_m": 1300,
      "fzfg": false,
      "metar_trigger": false,
      "taf_trigger": false,
      "metar": "METAR LIPY 170620Z AUTO VRB02KT 1300 R22/P2000N BR OVC003/// 09/09 Q1021",
      "taf": "TAF LIPY 170500Z 1706/1806 VRB05KT 0300 FG OVC001"
    },
    {
      "icao": "LIPZ",
      "alert": "OK",
      "vis_m": 2000,
      "fzfg": false,
      "metar_trigger": false,
      "taf_trigger": false,
      "metar": "METAR LIPZ 170620Z 31004KT 2000 BR BKN005 06/06 Q1023 NOSIG",
      "taf": "TAF LIPZ 170500Z 1706/1812 VRB04KT 6000 SCT030"
    },
    {
      "icao": "LIRF",
      "alert": "OK",
      "vis_m": 9999,
      "fzfg": false,
      "metar_trigger": false,
      "taf_trigger": false,
      "metar": "METAR LIRF 170620Z 04007KT CAVOK 07/05 Q1018 NOSIG",
      "taf": "TAF LIRF 170500Z 1706/1812 05008KT CAVOK"
    },
    {
      "icao": "LIRN",
      "alert": "OK",
      "vis_m": 9999,
      "fzfg": false,
      "metar_trigger": false,
      "taf_trigger": false,
      "metar": "METAR LIRN 170620Z 35005KT CAVOK 08/04 Q1018 NOSIG",
      "taf": "TAF LIRN 170500Z 1706/1806 05007KT CAVOK"
    },
    {
      "icao": "LIRP",
      "alert": "OK",
      "vis_m": 9999,
      "fzfg": false,
      "metar_trigger": false,
      "taf_trigger": false,
      "metar": "METAR LIRP 170615Z 10012KT CAVOK 08/05 Q1018 NOSIG",
      "taf": "TAF LIRP 170500Z 1706/1806 12005KT CAVOK"
    },
    {
      "icao": "LIRZ",
      "alert": "OK",
      "vis_m": 200,
      "fzfg": true,
      "metar_trigger": false,
      "taf_trigger": false,
      "metar": "METAR LIRZ 170620Z AUTO VRB01KT 0200 R01/0700D FZFG VV002 M01/M01 Q1019",
      "taf": ""
    },
    {
      "icao": "LJLJ",
      "alert": "OK",
      "vis_m": 6000,
      "fzfg": false,
      "metar_trigger": false,
      "taf_trigger": false,
      "metar": "METAR LJLJ 170630Z 07003KT 6000 BKN004 OVC010 03/02 Q1024 NOSIG",
      "taf": "TAF LJLJ 170500Z 1706/1806 30004KT 6000 FEW005 OVC015"
    },
    {
      "icao": "LKMT",
      "alert": "OK",
      "vis_m": 300,
      "fzfg": true,
      "metar_trigger": false,
      "taf_trigger": false,
      "metar": "METAR LKMT 170630Z 09003KT 070V130 0300 R22/0500D R04/0500N FZFG VV002 M02/M02 Q1027 NOSIG",
      "taf": "TAF LKMT 170500Z 1706/1806 VRB02KT 0300 FZFG VV002"
    },
    {
      "icao": "LKPR",
      "alert": "OK",
      "vis_m": 900,
      "fzfg": false,
      "metar_trigger": false,
      "taf_trigger": false,
      "metar": "METAR LKPR 170630Z 07007KT 0900 R24/0900N R30/P2000U -DZ PRFG VV002 01/01 Q1022 TEMPO 1000 BR",
      "taf": "TAF LKPR 170500Z 1706/1812 11005KT 0400 FG SCT001 BKN002"
    },
    {
      "icao": "LLBG",
      "alert": "OK",
      "vis_m": 9999,
      "fzfg": false,
      "metar_trigger": false,
      "taf_trigger": false,
      "metar": "METAR LLBG 170620Z VRB02KT 9999 FEW050 11/06 Q1019 NOSIG",
      "taf": "TAF LLBG 170506Z 1706/1806 VRB03KT 9999 SCT050"
    },
    {
      "icao": "LMML",
      "alert": "OK",
      "vis_m": 9999,
      "fzfg": false,
      "metar_trigger": false,
      "taf_trigger": false,
      "metar": "METAR LMML 170645Z 04005KT 360V120 9999 FEW020 12/10 Q1015 NOSIG",
      "taf": ""
    },
    {
      "icao": "LOWW",
      "alert": "OK",
      "vis_m": 4100,
      "fzfg": false,
      "metar_trigger": false,
      "taf_trigger": false,
      "metar": "METAR LOWW 170620Z 13015KT 4100 BR OVC004 01/00 Q1025 BECMG 5000 BR OVC005",
      "taf": "TAF LOWW 170515Z 1706/1812 14010KT 3000 BR SCT001 OVC002 TX02/1713Z TNM03/1807Z"
    },
    {
      "icao": "LPFR",
      "alert": "OK",
      "vis_m": 9999,
      "fzfg": false,
      "metar_trigger": false,
      "taf_trigger": false,
      "metar": "METAR LPFR 170630Z 31004KT CAVOK 06/05 Q1014",
      "taf": "TAF LPFR 170500Z 1706/1806 30007KT 9999 SCT030"
    },
    {
      "icao": "LPMA",
      "alert": "OK",
      "vis_m": 9999,
      "fzfg": false,
      "metar_trigger": false,
      "taf_trigger": false,
      "metar": "METAR LPMA 170630Z 36008KT 290V070 9999 SCT015 15/09 Q1022",
      "taf": "TAF LPMA 170500Z 1706/1806 32010KT 9999 SCT015"
    },
    {
      "icao": "LPPR",
      "alert": "OK",
      "vis_m": 8000,
      "fzfg": false,
      "metar_trigger": false,
      "taf_trigger": false,
      "metar": "METAR LPPR 170630Z 07005KT 040V130 8000 -RA FEW015 BKN048 05/05 Q1012",
      "taf": "TAF LPPR 170500Z 1706/1806 12007KT 9999 FEW008 BKN035"
    },
    {
      "icao": "LPPS",
      "alert": "OK",
      "vis_m": 9999,
      "fzfg": false,
      "metar_trigger": false,
      "taf_trigger": false,
      "metar": "METAR LPPS 170630Z 35025KT 9999 SCT014 15/09 Q1022",
      "taf": "TAF LPPS 170500Z 1706/1812 34018KT 9999 SCT015"
    },
    {
      "icao": "LPPT",
      "alert": "OK",
      "vis_m": 9999,
      "fzfg": false,
      "metar_trigger": false,
      "taf_trigger": false,
      "metar": "METAR LPPT 170630Z 26004KT 9999 FEW025 07/05 Q1013",
      "taf": "TAF LPPT 170500Z 1706/1812 31007KT 9999 FEW018 SCT030"
    },
    {
      "icao": "LQBK",
      "alert": "OK",
      "vis_m": 6000,
      "fzfg": false,
      "metar_trigger": false,
      "taf_trigger": false,
      "metar": "METAR LQBK 170630Z 30003KT 6000 NSC 02/01 Q1025 NOSIG",
      "taf": "TAF LQBK 170500Z 1706/1806 04005KT 9999 SCT020 TX05/1714Z TNM03/1805Z"
    },
    {
      "icao": "LQSA",
      "alert": "OK",
      "vis_m": 300,
      "fzfg": true,
      "metar_trigger": false,
      "taf_trigger": false,
      "metar": "METAR LQSA 170630Z 00000KT 0300 R11/0500N FZFG VV003 M03/M03 Q1025 NOSIG",
      "taf": "TAF LQSA 170500Z 1706/1806 VRB02KT 0300 FZFG BKN002 TX03/1714Z TNM04/1806Z"
    },
    {
      "icao": "LQTZ",
      "alert": "OK",
      "vis_m": 9999,
      "fzfg": false,
      "metar_trigger": false,
      "taf_trigger": false,
      "metar": "METAR LQTZ 170630Z 14005KT CAVOK 02/01 Q1025",
      "taf": "TAF LQTZ 170500Z 1706/1806 12005KT CAVOK TX06/1713Z TNM03/1805Z"
    },
    {
      "icao": "LRBC",
      "alert": "OK",
      "vis_m": 7000,
      "fzfg": false,
      "metar_trigger": false,
      "taf_trigger": false,
      "metar": "METAR LRBC 170630Z 03004KT 7000 NSC M13/M16 Q1035",
      "taf": "TAF LRBC 170500Z 1706/1715 03006KT 5000 BR NSC"
    },
    {
      "icao": "LRBS",
      "alert": "OK",
      "vis_m": 9999,
      "fzfg": false,
      "metar_trigger": false,
      "taf_trigger": false,
      "metar": "METAR LRBS 170630Z 00000KT CAVOK M09/M11 Q1035 NOSIG",
      "taf": "TAF LRBS 170500Z 1706/1806 VRB04KT CAVOK"
    },
    {
      "icao": "LRBV",
      "alert": "OK",
      "vis_m": 9999,
      "fzfg": false,
      "metar_trigger": false,
      "taf_trigger": false,
      "metar": "METAR LRBV 170630Z 21003KT 170V230 CAVOK M11/M13 Q1030",
      "taf": "TAF LRBV 170500Z 1706/1715 VRB04KT CAVOK"
    },
    {
      "icao": "LRCL",
      "alert": "OK",
      "vis_m": 9999,
      "fzfg": false,
      "metar_trigger": false,
      "taf_trigger": false,
      "metar": "METAR LRCL 170630Z VRB01KT CAVOK M11/M12 Q1031",
      "taf": "TAF LRCL 170500Z 1706/1715 08007KT CAVOK"
    },
    {
      "icao": "LRCV",
      "alert": "OK",
      "vis_m": 9999,
      "fzfg": false,
      "metar_trigger": false,
      "taf_trigger": false,
      "metar": "METAR LRCV 170630Z COR 12005KT CAVOK M07/M09 Q1034",
      "taf": "TAF LRCV 170500Z 1706/1715 11005KT CAVOK"
    },
    {
      "icao": "LRIA",
      "alert": "OK",
      "vis_m": 7000,
      "fzfg": false,
      "metar_trigger": false,
      "taf_trigger": false,
      "metar": "METAR LRIA 170630Z 28004KT 7000 NSC M16/M19 Q1036",
      "taf": "TAF LRIA 170500Z 1706/1715 VRB04KT 5000 BR NSC"
    },
    {
      "icao": "LROP",
      "alert": "OK",
      "vis_m": 7000,
      "fzfg": false,
      "metar_trigger": false,
      "taf_trigger": false,
      "metar": "METAR LROP 170630Z 00000KT 7000 NSC M10/M12 Q1035 NOSIG",
      "taf": "TAF LROP 170500Z 1706/1806 VRB04KT CAVOK"
    },
    {
      "icao": "LRSB",
      "alert": "OK",
      "vis_m": 9999,
      "fzfg": false,
      "metar_trigger": false,
      "taf_trigger": false,
      "metar": "METAR LRSB 170630Z VRB01KT 9999 MIFG NSC M10/M11 Q1029",
      "taf": "TAF LRSB 170500Z 1706/1806 VRB04KT CAVOK"
    },
    {
      "icao": "LRSM",
      "alert": "OK",
      "vis_m": 9999,
      "fzfg": false,
      "metar_trigger": false,
      "taf_trigger": false,
      "metar": "METAR LRSM 170630Z AUTO 08003KT 9999 NCD M08/M11 Q1031",
      "taf": ""
    },
    {
      "icao": "LRSV",
      "alert": "OK",
      "vis_m": 9999,
      "fzfg": false,
      "metar_trigger": false,
      "taf_trigger": false,
      "metar": "METAR LRSV 170630Z 02007KT CAVOK M14/M16 Q1033",
      "taf": "TAF LRSV 170500Z 1706/1715 VRB04KT CAVOK"
    },
    {
      "icao": "LRTM",
      "alert": "OK",
      "vis_m": 9999,
      "fzfg": false,
      "metar_trigger": false,
      "taf_trigger": false,
      "metar": "METAR LRTM 170630Z 10004KT CAVOK M13/M15 Q1032",
      "taf": "TAF LRTM 170500Z 1706/1715 10004KT CAVOK"
    },
    {
      "icao": "LRTR",
      "alert": "OK",
      "vis_m": 9999,
      "fzfg": false,
      "metar_trigger": false,
      "taf_trigger": false,
      "metar": "METAR LRTR 170630Z 11009KT 9999 BKN046 M01/M04 Q1030",
      "taf": "TAF LRTR 170500Z 1706/1806 08006KT 9999 BKN045"
    },
    {
      "icao": "LTAC",
      "alert": "OK",
      "vis_m": 9999,
      "fzfg": false,
      "metar_trigger": false,
      "taf_trigger": false,
      "metar": "METAR LTAC 170620Z VRB02KT 9999 FEW040 M04/M09 Q1022 NOSIG RMK RWY21C 17003KT RWY03L VRB02KT RWY21R 16003KT 130V190 RWY03R VRB01KT RWY21L 00000KT",
      "taf": "TAF LTAC 170440Z 1706/1806 34008KT 9999 SCT040 BKN100"
    },
    {
      "icao": "LTFM",
      "alert": "OK",
      "vis_m": 9999,
      "fzfg": false,
      "metar_trigger": false,
      "taf_trigger": false,
      "metar": "METAR LTFM 170620Z 03013KT 9999 -SHRA SCT012 BKN025 04/00 Q1029 NOSIG RMK RWY17L 04015KT 010V070 RWY34L 02013KT RWY16R 02011KT RWY36 04016KT 010V070 RWY18 05016G28KT",
      "taf": "TAF LTFM 170440Z 1706/1812 04018KT 9999 -SHRA SCT014 BKN025 BKN080"
    },
    {
      "icao": "LUKK",
      "alert": "OK",
      "vis_m": 9999,
      "fzfg": false,
      "metar_trigger": false,
      "taf_trigger": false,
      "metar": "METAR LUKK 170630Z 01007KT CAVOK M14/M16 Q1035 NOSIG",
      "taf": "TAF LUKK 170514Z 1706/1806 01009KT CAVOK"
    },
    {
      "icao": "LWOH",
      "alert": "OK",
      "vis_m": 9999,
      "fzfg": false,
      "metar_trigger": false,
      "taf_trigger": false,
      "metar": "METAR LWOH 170650Z VRB02KT 9999 SCT035 BKN070 02/00 Q1023",
      "taf": "TAF LWOH 170530Z 1706/1806 VRB02KT 9999 FEW035 SCT070"
    },
    {
      "icao": "LWSK",
      "alert": "OK",
      "vis_m": 2500,
      "fzfg": false,
      "metar_trigger": false,
      "taf_trigger": false,
      "metar": "METAR LWSK 170650Z VRB02KT 2500 BR OVC030 M00/M01 Q1027 NOSIG",
      "taf": "TAF LWSK 170530Z 1706/1806 VRB02KT 5000 BR SCT020 BKN035"
    },
    {
      "icao": "LYBE",
      "alert": "OK",
      "vis_m": 9999,
      "fzfg": false,
      "metar_trigger": false,
      "taf_trigger": false,
      "metar": "METAR LYBE 170630Z 12013KT CAVOK M00/M05 Q1028 NOSIG",
      "taf": "TAF LYBE 170500Z 1706/1806 11014KT CAVOK TX04/1712Z TNM05/1806Z"
    },
    {
      "icao": "LYNI",
      "alert": "OK",
      "vis_m": 9999,
      "fzfg": false,
      "metar_trigger": false,
      "taf_trigger": false,
      "metar": "METAR LYNI 170630Z 04005KT 010V100 9999 FEW017 M01/M05 Q1029 NOSIG",
      "taf": "TAF LYNI 170500Z 1706/1806 05008KT 9999 SCT040 TX03/1712Z TNM04/1806Z"
    },
    {
      "icao": "LYPG",
      "alert": "OK",
      "vis_m": 300,
      "fzfg": false,
      "metar_trigger": false,
      "taf_trigger": false,
      "metar": "METAR LYPG 170630Z 32002KT 0300 R18/0350D R36/0500D FG NSC 01/01 Q1023 BECMG FM0700 3000 BR",
      "taf": ""
    },
    {
      "icao": "LZIB",
      "alert": "OK",
      "vis_m": 6000,
      "fzfg": false,
      "metar_trigger": false,
      "taf_trigger": false,
      "metar": "METAR LZIB 170630Z 04008KT 6000 -DZ SCT007 BKN009 01/01 Q1027 NOSIG",
      "taf": "TAF LZIB 170515Z 1706/1806 06008KT 9999 BKN018 OVC022"
    },
    {
      "icao": "LZKZ",
      "alert": "OK",
      "vis_m": 9999,
      "fzfg": false,
      "metar_trigger": false,
      "taf_trigger": false,
      "metar": "METAR LZKZ 170630Z 34006KT CAVOK M01/M06 Q1030 NOSIG",
      "taf": "TAF LZKZ 170515Z 1706/1806 32006KT CAVOK"
    },
    {
      "icao": "LZTT",
      "alert": "OK",
      "vis_m": 8000,
      "fzfg": false,
      "metar_trigger": false,
      "taf_trigger": false,
      "metar": "METAR LZTT 170630Z 00000KT 8000 3500W BR SCT004 BKN009 M01/M01 Q1027 NOSIG",
      "taf": "TAF LZTT 170515Z 1706/1806 VRB02KT 9999 OVC012"
    },
    {
      "icao": "OEJN",
      "alert": "OK",
      "vis_m": 9999,
      "fzfg": false,
      "metar_trigger": false,
      "taf_trigger": false,
      "metar": "METAR OEJN 170600Z 15003KT CAVOK 25/11 Q1014 NOSIG",
      "taf": "TAF OEJN 170500Z 1706/1812 28012KT 7000 FEW040"
    },
    {
      "icao": "OEMA",
      "alert": "OK",
      "vis_m": 9999,
      "fzfg": false,
      "metar_trigger": false,
      "taf_trigger": false,
      "metar": "METAR OEMA 170600Z 05009KT CAVOK 15/02 Q1021 NOSIG",
      "taf": "TAF OEMA 170500Z 1706/1812 09010KT CAVOK"
    },
    {
      "icao": "OJAI",
      "alert": "OK",
      "vis_m": 3000,
      "fzfg": false,
      "metar_trigger": false,
      "taf_trigger": false,
      "metar": "METAR OJAI 170600Z 06005KT 3000 BR NSC 05/04 Q1019 NOSIG",
      "taf": "TAF OJAI 170448Z 1706/1812 06005KT 2000 BR FEW035"
    },
    {
      "icao": "OMAA",
      "alert": "OK",
      "vis_m": 9999,
      "fzfg": false,
      "metar_trigger": false,
      "taf_trigger": false,
      "metar": "METAR OMAA 170600Z 30013KT 9999 SCT035 20/11 Q1020 NOSIG",
      "taf": "TAF OMAA 170500Z 1706/1812 31013KT 9999 SCT040"
    },
    {
      "icao": "OMDB",
      "alert": "OK",
      "vis_m": 9999,
      "fzfg": false,
      "metar_trigger": false,
      "taf_trigger": false,
      "metar": "METAR OMDB 170630Z 29012KT 210V320 9999 SCT040 22/11 Q1020 NOSIG",
      "taf": "TAF OMDB 170500Z 1706/1812 28012KT 8000 SCT040"
    },
    {
      "icao": "UAAA",
      "alert": "OK",
      "vis_m": 9999,
      "fzfg": false,
      "metar_trigger": false,
      "taf_trigger": false,
      "metar": "METAR UAAA 170630Z 29004MPS 9999 SCT050 BKN100 M17/M20 Q1029 NOSIG",
      "taf": "TAF UAAA 170501Z 1706/1806 28003MPS 5000 BR BKN020CB OVC040 TXM15/1708Z TNM20/1803Z"
    },
    {
      "icao": "UBBB",
      "alert": "OK",
      "vis_m": 9999,
      "fzfg": false,
      "metar_trigger": false,
      "taf_trigger": false,
      "metar": "METAR UBBB 170630Z 32008KT 9999 BKN009 BKN022 05/03 Q1026 NOSIG",
      "taf": "TAF UBBB 170459Z 1706/1806 33010KT 9999 BKN020 TX07/1710Z TN02/1801Z"
    },
    {
      "icao": "UDSG",
      "alert": "OK",
      "vis_m": 3700,
      "fzfg": false,
      "metar_trigger": false,
      "taf_trigger": false,
      "metar": "METAR UDSG 170630Z 00000KT 3700 -SN BR OVC036 M08/M12 Q1020 NOSIG",
      "taf": "TAF UDSG 170500Z 1706/1806 VRB06KT 2000 BR BKN020"
    },
    {
      "icao": "UDYZ",
      "alert": "OK",
      "vis_m": 9999,
      "fzfg": false,
      "metar_trigger": false,
      "taf_trigger": false,
      "metar": "METAR UDYZ 170630Z VRB01KT 9999 FEW046 M04/M07 Q1023 NOSIG",
      "taf": "TAF UDYZ 170500Z 1706/1806 24006KT 6000 SCT040"
    },
    {
      "icao": "UGKO",
      "alert": "OK",
      "vis_m": 9999,
      "fzfg": false,
      "metar_trigger": false,
      "taf_trigger": false,
      "metar": "METAR UGKO 170630Z 10003KT 9999 -RA SCT013 OVC040 03/02 Q1023 NOSIG",
      "taf": "TAF UGKO 170500Z 1706/1806 09007KT 9999 SCT012 OVC040 TX04/1711Z TN00/1806Z"
    }
  ]
}