{
  "ts_utc": "2026-01-29T04:17:22Z",
  "threshold_m": 150,
  "source": "stations_override.txt (ICAO list) + aviationweather.gov (METAR/TAF raw)",
  "station_count": 159,
  "stations": [
    {
      "icao": "BIKF",
      "alert": "OK",
      "vis_m": 9999,
      "fzfg": false,
      "metar_trigger": false,
      "taf_trigger": false,
      "metar": "METAR BIKF 290400Z 06015KT CAVOK 04/M04 Q0999",
      "taf": "TAF BIKF 290101Z 2903/3003 05014KT 9999 FEW025 TX05/2915Z TN02/2906Z"
    },
    {
      "icao": "BKPR",
      "alert": "OK",
      "vis_m": 9999,
      "fzfg": false,
      "metar_trigger": false,
      "taf_trigger": false,
      "metar": "METAR BKPR 290400Z 20008KT 9999 FEW070 05/03 Q0997 NOSIG",
      "taf": "TAF BKPR 282345Z 2900/2924 20008KT BKN040"
    },
    {
      "icao": "EBCI",
      "alert": "OK",
      "vis_m": 1200,
      "fzfg": false,
      "metar_trigger": false,
      "taf_trigger": false,
      "metar": "METAR EBCI 290350Z 01004KT 1200 R24/P2000N -DZ BR OVC001 02/01 Q0997 NOSIG",
      "taf": "TAF EBCI 282301Z 2900/3006 01004KT 3000 BR BKN003"
    },
    {
      "icao": "EDDB",
      "alert": "OK",
      "vis_m": 9999,
      "fzfg": false,
      "metar_trigger": false,
      "taf_trigger": false,
      "metar": "METAR EDDB 290350Z AUTO 07010KT 9999 OVC013 M01/M03 Q1002 NOSIG",
      "taf": "TAF EDDB 282300Z 2900/2924 07010KT 9999 OVC012"
    },
    {
      "icao": "EDDH",
      "alert": "OK",
      "vis_m": 9999,
      "fzfg": false,
      "metar_trigger": false,
      "taf_trigger": false,
      "metar": "METAR EDDH 290350Z AUTO 08010KT 9999 OVC016 00/M03 Q1003 TEMPO BKN014",
      "taf": ""
    },
    {
      "icao": "EDDK",
      "alert": "OK",
      "vis_m": 4200,
      "fzfg": false,
      "metar_trigger": false,
      "taf_trigger": false,
      "metar": "METAR EDDK 290350Z AUTO VRB03KT 4200 -SN BR BKN003 BKN006 00/M00 Q0997 BECMG 5000 BKN005",
      "taf": "TAF EDDK 282300Z 2900/3006 11003KT 6000 OVC007"
    },
    {
      "icao": "EDDN",
      "alert": "OK",
      "vis_m": 3600,
      "fzfg": false,
      "metar_trigger": false,
      "taf_trigger": false,
      "metar": "METAR EDDN 290350Z AUTO 01003KT 3600 SN BR SCT008 OVC016 00/M00 Q0995",
      "taf": "TAF EDDN 282300Z 2900/2924 VRB03KT 9999 OVC012"
    },
    {
      "icao": "EDDS",
      "alert": "OK",
      "vis_m": 1300,
      "fzfg": false,
      "metar_trigger": false,
      "taf_trigger": false,
      "metar": "METAR EDDS 290350Z AUTO 31004KT 1300 1000 R25/1800U BR OVC002 01/01 Q0994",
      "taf": "TAF EDDS 282300Z 2900/2924 VRB03KT 6000 BKN005"
    },
    {
      "icao": "EDFH",
      "alert": "OK",
      "vis_m": 500,
      "fzfg": true,
      "metar_trigger": false,
      "taf_trigger": false,
      "metar": "METAR EDFH 290350Z 15004KT 0500 R21/0500N FZFG VV/// M00/M00 Q0995",
      "taf": "TAF EDFH 282300Z 2900/2924 VRB03KT 3000 -SN OVC005"
    },
    {
      "icao": "EDJA",
      "alert": "OK",
      "vis_m": 2600,
      "fzfg": false,
      "metar_trigger": false,
      "taf_trigger": false,
      "metar": "METAR EDJA 290350Z AUTO 21005KT 2600 // BKN002/// OVC007/// 00/M00 Q0994",
      "taf": "TAF EDJA 290200Z 2903/2912 25007KT 2500 -SN SCT002 SCT004 OVC007"
    },
    {
      "icao": "EDLW",
      "alert": "OK",
      "vis_m": 4600,
      "fzfg": false,
      "metar_trigger": false,
      "taf_trigger": false,
      "metar": "METAR EDLW 290350Z AUTO 04006KT 4600 // OVC004/// M01/M01 Q0997",
      "taf": "TAF EDLW 281700Z 2818/2918 07007KT 5000 BR SCT003 BKN005"
    },
    {
      "icao": "EDNY",
      "alert": "OK",
      "vis_m": 9999,
      "fzfg": false,
      "metar_trigger": false,
      "taf_trigger": false,
      "metar": "METAR EDNY 290350Z AUTO 26004KT 9999 // BKN007/// OVC014/// 02/01 Q0995",
      "taf": "TAF EDNY 290200Z 2903/2912 VRB03KT 9999 OVC010"
    },
    {
      "icao": "EDSB",
      "alert": "OK",
      "vis_m": 5000,
      "fzfg": false,
      "metar_trigger": false,
      "taf_trigger": false,
      "metar": "METAR EDSB 290350Z AUTO VRB02KT 5000 FEW003/// BKN015/// OVC021/// 02/02 Q0997",
      "taf": "TAF EDSB 282300Z 2900/2924 VRB03KT 6000 BKN008"
    },
    {
      "icao": "EETN",
      "alert": "OK",
      "vis_m": 9999,
      "fzfg": false,
      "metar_trigger": false,
      "taf_trigger": false,
      "metar": "METAR EETN 290350Z 09006KT CAVOK M13/M14 Q1017 NOSIG",
      "taf": "TAF EETN 282330Z 2900/2924 09014KT 9999 BKN015"
    },
    {
      "icao": "EFTU",
      "alert": "OK",
      "vis_m": 9999,
      "fzfg": false,
      "metar_trigger": false,
      "taf_trigger": false,
      "metar": "METAR EFTU 290350Z AUTO 06004KT 9999 FEW014 BKN018 M13/M14 Q1019",
      "taf": ""
    },
    {
      "icao": "EGBB",
      "alert": "OK",
      "vis_m": 300,
      "fzfg": false,
      "metar_trigger": false,
      "taf_trigger": false,
      "metar": "METAR EGBB 290350Z 13006KT 0300 R15/0450N FG OVC002 02/02 Q0997",
      "taf": ""
    },
    {
      "icao": "EGGP",
      "alert": "OK",
      "vis_m": 9999,
      "fzfg": false,
      "metar_trigger": false,
      "taf_trigger": false,
      "metar": "METAR EGGP 290350Z AUTO 17003KT 130V230 9999 BKN008/// BKN046/// 03/02 Q0996",
      "taf": "TAF EGGP 282258Z 2900/2924 10006KT 9999 FEW020"
    },
    {
      "icao": "EGGW",
      "alert": "OK",
      "vis_m": 100,
      "fzfg": false,
      "metar_trigger": false,
      "taf_trigger": false,
      "metar": "METAR EGGW 290350Z AUTO 13006KT 0100 FG OVC001 02/02 Q0997",
      "taf": "TAF EGGW 282257Z 2900/2924 12005KT 9999 SCT030"
    },
    {
      "icao": "EGKK",
      "alert": "OK",
      "vis_m": 200,
      "fzfg": false,
      "metar_trigger": false,
      "taf_trigger": false,
      "metar": "METAR EGKK 290350Z 08005KT 0200 R26L/0500N FG OVC001 00/00 Q0997",
      "taf": ""
    },
    {
      "icao": "EGNM",
      "alert": "OK",
      "vis_m": null,
      "fzfg": false,
      "metar_trigger": false,
      "taf_trigger": false,
      "metar": "",
      "taf": "TAF EGNM 281658Z 2818/2918 VRB02KT 0100 FG VV///"
    },
    {
      "icao": "EGPD",
      "alert": "OK",
      "vis_m": 9999,
      "fzfg": false,
      "metar_trigger": false,
      "taf_trigger": false,
      "metar": "METAR EGPD 290350Z AUTO 14011KT 9999 SCT015 BKN025 BKN031 05/03 Q1000 TEMPO BKN012",
      "taf": "TAF EGPD 282254Z 2900/2924 13012KT 9999 SCT012 BKN025"
    },
    {
      "icao": "EGPF",
      "alert": "OK",
      "vis_m": 8000,
      "fzfg": false,
      "metar_trigger": false,
      "taf_trigger": false,
      "metar": "METAR EGPF 290350Z AUTO 09004KT 8000 SCT019 02/02 Q0997",
      "taf": ""
    },
    {
      "icao": "EHBK",
      "alert": "OK",
      "vis_m": 3400,
      "fzfg": false,
      "metar_trigger": false,
      "taf_trigger": false,
      "metar": "METAR EHBK 290355Z AUTO 32003KT 290V350 3400 -FZRA -SN SCT003 BKN004 OVC006 M00/M00 Q0997",
      "taf": "TAF EHBK 282309Z 2900/3006 36005KT 3000 BR BKN004"
    },
    {
      "icao": "EHEH",
      "alert": "OK",
      "vis_m": null,
      "fzfg": false,
      "metar_trigger": false,
      "taf_trigger": false,
      "metar": "",
      "taf": "TAF EHEH 282326Z 2900/3006 03006KT 7000 BKN008 OVC012"
    },
    {
      "icao": "EKBI",
      "alert": "OK",
      "vis_m": 9999,
      "fzfg": false,
      "metar_trigger": false,
      "taf_trigger": false,
      "metar": "METAR EKBI 290350Z AUTO 07014KT 9999 -SN OVC017/// M02/M05 Q1008",
      "taf": "TAF EKBI 290227Z 2903/3003 08015KT 9999 BKN020"
    },
    {
      "icao": "EKCH",
      "alert": "OK",
      "vis_m": 9999,
      "fzfg": false,
      "metar_trigger": false,
      "taf_trigger": false,
      "metar": "METAR EKCH 290350Z AUTO 05016KT 9999 OVC026/// M02/M06 Q1009 NOSIG",
      "taf": "TAF EKCH 290227Z 2903/3003 05015KT 9999 BKN018"
    },
    {
      "icao": "ENAL",
      "alert": "OK",
      "vis_m": 9999,
      "fzfg": false,
      "metar_trigger": false,
      "taf_trigger": false,
      "metar": "METAR ENAL 290350Z AUTO 15012KT 9999 OVC032/// M01/M07 Q1011",
      "taf": "TAF ENAL 290200Z 2903/2912 14008KT 9999 BKN030"
    },
    {
      "icao": "ENBR",
      "alert": "OK",
      "vis_m": 9999,
      "fzfg": false,
      "metar_trigger": false,
      "taf_trigger": false,
      "metar": "METAR ENBR 290350Z 11004KT 9999 BKN035 M03/M06 Q1011 RMK WIND 1200FT 15006KT",
      "taf": "TAF ENBR 282300Z 2900/2924 10003KT 9999 FEW025"
    },
    {
      "icao": "ENGM",
      "alert": "OK",
      "vis_m": 9999,
      "fzfg": false,
      "metar_trigger": false,
      "taf_trigger": false,
      "metar": "METAR ENGM 290350Z 01004KT 9999 OVC031 M11/M13 Q1016",
      "taf": "TAF ENGM 282300Z 2900/2924 02007KT 9999 -SN BKN025"
    },
    {
      "icao": "ENHD",
      "alert": "OK",
      "vis_m": 9999,
      "fzfg": false,
      "metar_trigger": false,
      "taf_trigger": false,
      "metar": "METAR ENHD 290350Z AUTO 09006KT 9999 NCD M05/M13 Q1012",
      "taf": "TAF ENHD 290200Z 2903/2912 10008KT CAVOK"
    },
    {
      "icao": "ENTC",
      "alert": "OK",
      "vis_m": 9999,
      "fzfg": false,
      "metar_trigger": false,
      "taf_trigger": false,
      "metar": "METAR ENTC 290350Z 23004KT 190V250 9999 BKN006 M07/M09 Q1020 RMK WIND 2600FT 10010KT",
      "taf": "TAF ENTC 282300Z 2900/2924 22005KT 9999 FEW008 SCT025"
    },
    {
      "icao": "ENTO",
      "alert": "OK",
      "vis_m": 9999,
      "fzfg": false,
      "metar_trigger": false,
      "taf_trigger": false,
      "metar": "METAR ENTO 290350Z AUTO 01010KT 9999 -SN OVC017/// M08/M11 Q1016 RESN",
      "taf": "TAF ENTO 282300Z 2900/2924 02008KT 9999 -SN BKN025"
    },
    {
      "icao": "ENVA",
      "alert": "OK",
      "vis_m": 9999,
      "fzfg": false,
      "metar_trigger": false,
      "taf_trigger": false,
      "metar": "METAR ENVA 290350Z AUTO 11005KT 9999 NCD M15/M19 Q1015 RMK WIND 670FT 14004KT",
      "taf": "TAF ENVA 282300Z 2900/2924 10008KT CAVOK"
    },
    {
      "icao": "ENZV",
      "alert": "OK",
      "vis_m": 9999,
      "fzfg": false,
      "metar_trigger": false,
      "taf_trigger": false,
      "metar": "METAR ENZV 290350Z AUTO 21003KT 9999 NCD M08/M13 Q1012",
      "taf": "TAF ENZV 282300Z 2900/2924 13005KT CAVOK"
    },
    {
      "icao": "EPGD",
      "alert": "OK",
      "vis_m": 9999,
      "fzfg": false,
      "metar_trigger": false,
      "taf_trigger": false,
      "metar": "METAR EPGD 290400Z 06008KT 9999 OVC004 M07/M07 Q1006",
      "taf": "TAF EPGD 282330Z 2900/2924 07008KT 9999 OVC007"
    },
    {
      "icao": "EPKK",
      "alert": "OK",
      "vis_m": 4000,
      "fzfg": false,
      "metar_trigger": false,
      "taf_trigger": false,
      "metar": "METAR EPKK 290400Z 06011KT 4000 -SN BR BKN006 M01/M02 Q0999",
      "taf": "TAF EPKK 290230Z 2903/3003 06010KT 4000 BR BKN005"
    },
    {
      "icao": "EPKT",
      "alert": "OK",
      "vis_m": 7000,
      "fzfg": false,
      "metar_trigger": false,
      "taf_trigger": false,
      "metar": "METAR EPKT 290400Z 06009KT 7000 OVC005 M01/M02 Q0999",
      "taf": ""
    },
    {
      "icao": "EPLB",
      "alert": "OK",
      "vis_m": 4600,
      "fzfg": false,
      "metar_trigger": false,
      "taf_trigger": false,
      "metar": "METAR EPLB 290400Z 03003KT 4600 BR OVC003 M00/M01 Q1001",
      "taf": ""
    },
    {
      "icao": "EPMO",
      "alert": "OK",
      "vis_m": 5000,
      "fzfg": false,
      "metar_trigger": false,
      "taf_trigger": false,
      "metar": "METAR EPMO 290400Z 03007KT 5000 BR FEW008 BKN020 M04/M05 Q1003",
      "taf": ""
    },
    {
      "icao": "EPPO",
      "alert": "OK",
      "vis_m": 5000,
      "fzfg": false,
      "metar_trigger": false,
      "taf_trigger": false,
      "metar": "METAR EPPO 290400Z 04008KT 5000 BR OVC007 M03/M05 Q1003",
      "taf": "TAF EPPO 282330Z 2900/2924 07006KT 6000 OVC006"
    },
    {
      "icao": "EPRA",
      "alert": "OK",
      "vis_m": 7000,
      "fzfg": false,
      "metar_trigger": false,
      "taf_trigger": false,
      "metar": "METAR EPRA 290400Z 06004KT 7000 BKN006 M01/M01 Q1001",
      "taf": "TAF EPRA 290230Z 2903/2912 06008KT 8000 BKN005 OVC010"
    },
    {
      "icao": "EPRZ",
      "alert": "OK",
      "vis_m": 7000,
      "fzfg": false,
      "metar_trigger": false,
      "taf_trigger": false,
      "metar": "METAR EPRZ 290400Z 03007KT 7000 OVC003 M01/M01 Q1000",
      "taf": "TAF EPRZ 282330Z 2900/2924 02006KT 4000 BR OVC005"
    },
    {
      "icao": "EPSC",
      "alert": "OK",
      "vis_m": 9000,
      "fzfg": false,
      "metar_trigger": false,
      "taf_trigger": false,
      "metar": "METAR EPSC 290400Z 07008KT 030V090 9000 OVC005 M02/M03 Q1004",
      "taf": "TAF EPSC 282330Z 2900/2924 05008KT 9999 BKN007"
    },
    {
      "icao": "EPSY",
      "alert": "OK",
      "vis_m": 8000,
      "fzfg": false,
      "metar_trigger": false,
      "taf_trigger": false,
      "metar": "METAR EPSY 290400Z 01009KT 8000 OVC005 M08/M09 Q1004",
      "taf": "TAF EPSY 290230Z 2903/2912 02010KT 7000 OVC006"
    },
    {
      "icao": "EPWA",
      "alert": "OK",
      "vis_m": 8000,
      "fzfg": false,
      "metar_trigger": false,
      "taf_trigger": false,
      "metar": "METAR EPWA 290400Z 03006KT 010V080 8000 BKN006 M02/M03 Q1003 NOSIG",
      "taf": "TAF EPWA 290230Z 2903/3003 04008KT 8000 OVC007"
    },
    {
      "icao": "EPWR",
      "alert": "OK",
      "vis_m": 9999,
      "fzfg": false,
      "metar_trigger": false,
      "taf_trigger": false,
      "metar": "METAR EPWR 290400Z 07005KT 9999 OVC012 M01/M03 Q1001",
      "taf": "TAF EPWR 290230Z 2903/3003 06010KT 9999 OVC013"
    },
    {
      "icao": "ESGG",
      "alert": "OK",
      "vis_m": 9999,
      "fzfg": false,
      "metar_trigger": false,
      "taf_trigger": false,
      "metar": "METAR ESGG 290350Z 02006KT 9999 OVC028 M05/M07 Q1011",
      "taf": "TAF ESGG 290230Z 2903/3003 04006KT 9999 OVC030"
    },
    {
      "icao": "ESKN",
      "alert": "OK",
      "vis_m": 9999,
      "fzfg": false,
      "metar_trigger": false,
      "taf_trigger": false,
      "metar": "METAR ESKN 290350Z 01008KT 320V040 9999 BKN035 M06/M08 Q1015",
      "taf": "TAF ESKN 290230Z 2903/3003 03007KT 9999 BKN035"
    },
    {
      "icao": "ESMS",
      "alert": "OK",
      "vis_m": 9999,
      "fzfg": false,
      "metar_trigger": false,
      "taf_trigger": false,
      "metar": "METAR ESMS 290350Z 08016KT 9999 OVC022 M02/M07 Q1007",
      "taf": "TAF ESMS 290227Z 2903/3003 05012KT 9999 OVC020"
    },
    {
      "icao": "ESSA",
      "alert": "OK",
      "vis_m": 9999,
      "fzfg": false,
      "metar_trigger": false,
      "taf_trigger": false,
      "metar": "METAR ESSA 290350Z 03006KT 9999 OVC020 M08/M09 Q1016 NOSIG",
      "taf": "TAF ESSA 290230Z 2903/3003 04007KT 9999 BKN015"
    },
    {
      "icao": "EYKA",
      "alert": "OK",
      "vis_m": 9999,
      "fzfg": false,
      "metar_trigger": false,
      "taf_trigger": false,
      "metar": "METAR EYKA 290350Z 02006KT 350V060 9999 OVC012 M09/M11 Q1007",
      "taf": "TAF EYKA 282300Z 2900/2924 03009KT 8000 OVC010"
    },
    {
      "icao": "EYPA",
      "alert": "OK",
      "vis_m": 9999,
      "fzfg": false,
      "metar_trigger": false,
      "taf_trigger": false,
      "metar": "METAR EYPA 290350Z 06009KT 9999 -SN FEW016 OVC020 M09/M13 Q1010",
      "taf": ""
    },
    {
      "icao": "EYVI",
      "alert": "OK",
      "vis_m": 9999,
      "fzfg": false,
      "metar_trigger": false,
      "taf_trigger": false,
      "metar": "METAR EYVI 290350Z 05010KT 9999 OVC004 M09/M10 Q1004 NOSIG",
      "taf": "TAF EYVI 282300Z 2900/2924 04010KT 8000 OVC005"
    },
    {
      "icao": "GCFV",
      "alert": "OK",
      "vis_m": 9999,
      "fzfg": false,
      "metar_trigger": false,
      "taf_trigger": false,
      "metar": "METAR GCFV 290400Z AUTO 34005KT 9999 OVC031 19/13 Q1022",
      "taf": "TAF GCFV 290200Z 2903/3003 32003KT 9999 FEW020 BKN025 TX23/2914Z TN14/2906Z"
    },
    {
      "icao": "GCLP",
      "alert": "OK",
      "vis_m": 9999,
      "fzfg": false,
      "metar_trigger": false,
      "taf_trigger": false,
      "metar": "METAR GCLP 290400Z 36006KT 9999 BKN030 18/13 Q1023 NOSIG",
      "taf": "TAF GCLP 290200Z 2903/3003 33003KT 9999 FEW020 BKN030 TX22/2914Z TN15/2906Z"
    },
    {
      "icao": "GCTS",
      "alert": "OK",
      "vis_m": 9999,
      "fzfg": false,
      "metar_trigger": false,
      "taf_trigger": false,
      "metar": "METAR GCTS 290330Z 18003KT 150V210 9999 BKN025 19/17 Q1023 NOSIG",
      "taf": "TAF GCTS 290200Z 2903/3003 28003KT 9999 BKN030 TX23/2914Z TN16/2906Z"
    },
    {
      "icao": "GMAD",
      "alert": "OK",
      "vis_m": 6000,
      "fzfg": false,
      "metar_trigger": false,
      "taf_trigger": false,
      "metar": "METAR GMAD 290400Z 22006KT 6000 BKN006 15/15 Q1021 NOSIG",
      "taf": "TAF GMAD 282300Z 2900/3006 06008KT 8000 BKN016"
    },
    {
      "icao": "GMMN",
      "alert": "OK",
      "vis_m": 9999,
      "fzfg": false,
      "metar_trigger": false,
      "taf_trigger": false,
      "metar": "METAR GMMN 290400Z 22012KT 9999 BKN008 BKN016 15/13 Q1020 NOSIG",
      "taf": "TAF GMMN 282300Z 2900/3006 22016KT 9999 BKN008 BKN016"
    },
    {
      "icao": "GMMX",
      "alert": "OK",
      "vis_m": 9999,
      "fzfg": false,
      "metar_trigger": false,
      "taf_trigger": false,
      "metar": "METAR GMMX 290400Z VRB02KT 9999 FEW080 BKN200 14/12 Q1021 NOSIG",
      "taf": "TAF GMMX 281700Z 2818/2924 28006KT 9999 SCT020 SCT090"
    },
    {
      "icao": "HEGN",
      "alert": "OK",
      "vis_m": 6000,
      "fzfg": false,
      "metar_trigger": false,
      "taf_trigger": false,
      "metar": "METAR HEGN 290400Z 27008KT 6000 NSC 12/03 Q1021 NOSIG",
      "taf": "TAF HEGN 282300Z 2900/3006 26008KT 6000 NSC"
    },
    {
      "icao": "HEMA",
      "alert": "OK",
      "vis_m": 6000,
      "fzfg": false,
      "metar_trigger": false,
      "taf_trigger": false,
      "metar": "METAR HEMA 290400Z 29010KT 6000 NSC 16/02 Q1020 NOSIG",
      "taf": "TAF HEMA 282300Z 2900/3006 26008KT 6000 NSC"
    },
    {
      "icao": "HESH",
      "alert": "OK",
      "vis_m": 9999,
      "fzfg": false,
      "metar_trigger": false,
      "taf_trigger": false,
      "metar": "METAR HESH 290400Z 33006KT CAVOK 16/05 Q1020 NOSIG",
      "taf": "TAF HESH 282300Z 2900/3006 30008KT 6000 NSC"
    },
    {
      "icao": "HESX",
      "alert": "OK",
      "vis_m": 9999,
      "fzfg": false,
      "metar_trigger": false,
      "taf_trigger": false,
      "metar": "METAR HESX 290400Z 18005KT CAVOK 09/02 Q1020 NOSIG",
      "taf": "TAF HESX 282300Z 2900/3006 24009KT 9999 SCT020"
    },
    {
      "icao": "LATI",
      "alert": "OK",
      "vis_m": 9999,
      "fzfg": false,
      "metar_trigger": false,
      "taf_trigger": false,
      "metar": "METAR LATI 290350Z 15003KT 9999 SCT051 BKN088 08/06 Q0996 NOSIG",
      "taf": "TAF LATI 282300Z 2900/2924 VRB05KT 9999 SCT030 BKN050 TX12/2912Z TN08/2905Z"
    },
    {
      "icao": "LBPD",
      "alert": "OK",
      "vis_m": 9999,
      "fzfg": false,
      "metar_trigger": false,
      "taf_trigger": false,
      "metar": "METAR LBPD 290400Z AUTO 29006KT 250V320 9999 OVC170/// 02/02 Q1000 NOSIG",
      "taf": "TAF LBPD 282300Z 2900/2924 VRB04KT 9999 BKN040"
    },
    {
      "icao": "LBSF",
      "alert": "OK",
      "vis_m": 9999,
      "fzfg": false,
      "metar_trigger": false,
      "taf_trigger": false,
      "metar": "METAR LBSF 290400Z AUTO 34004KT 300V030 9999 FEW051/// 02/01 Q0998 NOSIG",
      "taf": ""
    },
    {
      "icao": "LBWN",
      "alert": "OK",
      "vis_m": 9999,
      "fzfg": false,
      "metar_trigger": false,
      "taf_trigger": false,
      "metar": "METAR LBWN 290400Z AUTO 03003KT 350V120 9999 NSC 08/06 Q1000 NOSIG",
      "taf": "TAF LBWN 282300Z 2900/2924 09008KT 7000 SCT020 BKN050"
    },
    {
      "icao": "LCLK",
      "alert": "OK",
      "vis_m": 9999,
      "fzfg": false,
      "metar_trigger": false,
      "taf_trigger": false,
      "metar": "METAR LCLK 290400Z 28003KT 250V330 9999 FEW020 13/10 Q1015 NOSIG",
      "taf": "TAF LCLK 282330Z 2900/3000 28006KT 9999 FEW030"
    },
    {
      "icao": "LCPH",
      "alert": "OK",
      "vis_m": 9999,
      "fzfg": false,
      "metar_trigger": false,
      "taf_trigger": false,
      "metar": "METAR LCPH 290400Z 06006KT 010V080 9999 SCT030 15/09 Q1015 NOSIG",
      "taf": "TAF LCPH 282330Z 2900/3000 02008KT 9999 FEW030 SCT040"
    },
    {
      "icao": "LEAL",
      "alert": "OK",
      "vis_m": 9999,
      "fzfg": false,
      "metar_trigger": false,
      "taf_trigger": false,
      "metar": "METAR LEAL 290400Z COR VRB02KT 9999 OVC062 12/06 Q1004 NOSIG",
      "taf": "TAF LEAL 282300Z 2900/2924 VRB04KT 9999 FEW040 TX22/2914Z TN11/2906Z"
    },
    {
      "icao": "LEBB",
      "alert": "OK",
      "vis_m": 9999,
      "fzfg": false,
      "metar_trigger": false,
      "taf_trigger": false,
      "metar": "METAR LEBB 290400Z VRB04KT 9999 -RA SCT055 BKN070 10/05 Q0998 TEMPO 3000 RA",
      "taf": "TAF LEBB 282300Z 2900/2924 22009KT 9999 FEW030 TX16/2914Z TN08/2906Z"
    },
    {
      "icao": "LEBL",
      "alert": "OK",
      "vis_m": 9999,
      "fzfg": false,
      "metar_trigger": false,
      "taf_trigger": false,
      "metar": "METAR LEBL 290400Z 31007KT 9999 FEW020 07/03 Q1001 NOSIG",
      "taf": "TAF LEBL 282300Z 2900/2924 27008KT 9999 FEW020 TX14/2912Z TN07/2906Z"
    },
    {
      "icao": "LECH",
      "alert": "OK",
      "vis_m": 9999,
      "fzfg": false,
      "metar_trigger": false,
      "taf_trigger": false,
      "metar": "METAR LECH 290400Z AUTO VRB02KT CAVOK 07/03 Q1002",
      "taf": ""
    },
    {
      "icao": "LEMD",
      "alert": "OK",
      "vis_m": 4000,
      "fzfg": false,
      "metar_trigger": false,
      "taf_trigger": false,
      "metar": "METAR LEMD 290400Z 16003KT 110V190 4000 -RA BR OVC006 06/06 Q1002 NOSIG",
      "taf": "TAF LEMD 282300Z 2900/3006 25010KT 9999 SCT050 TX14/2915Z TN05/2904Z"
    },
    {
      "icao": "LEMG",
      "alert": "OK",
      "vis_m": 9999,
      "fzfg": false,
      "metar_trigger": false,
      "taf_trigger": false,
      "metar": "METAR LEMG 290400Z 21005KT 9999 FEW030 SCT045 BKN055 14/12 Q1010 NOSIG",
      "taf": "TAF LEMG 282300Z 2900/2924 29006KT 9999 FEW020 BKN025 TX19/2914Z TN13/2907Z"
    },
    {
      "icao": "LEVC",
      "alert": "OK",
      "vis_m": 9999,
      "fzfg": false,
      "metar_trigger": false,
      "taf_trigger": false,
      "metar": "METAR LEVC 290400Z 20005KT 150V250 9999 SCT060 12/05 Q1003 NOSIG",
      "taf": ""
    },
    {
      "icao": "LEXJ",
      "alert": "OK",
      "vis_m": 9999,
      "fzfg": false,
      "metar_trigger": false,
      "taf_trigger": false,
      "metar": "METAR LEXJ 290400Z AUTO 22010G23KT 170V260 9999 2800E OVC077 11/03 Q0996",
      "taf": "TAF LEXJ 290200Z 2903/3003 22009KT 9999 FEW040 TX16/2914Z TN09/2905Z"
    },
    {
      "icao": "LEZG",
      "alert": "OK",
      "vis_m": 9999,
      "fzfg": false,
      "metar_trigger": false,
      "taf_trigger": false,
      "metar": "METAR LEZG 290400Z 21003KT 170V240 9999 -RA BKN050 07/07 Q1002 NOSIG",
      "taf": "TAF LEZG 282300Z 2900/2924 26010KT 9999 FEW040 TX14/2913Z TN06/2900Z"
    },
    {
      "icao": "LEZL",
      "alert": "OK",
      "vis_m": 8000,
      "fzfg": false,
      "metar_trigger": false,
      "taf_trigger": false,
      "metar": "METAR LEZL 290400Z AUTO 24015G25KT 210V270 8000 BKN011 OVC016 17/16 Q1010",
      "taf": "TAF LEZL 290200Z 2903/3003 24012KT 8000 FEW010 BKN016 TX18/2915Z TN14/2907Z"
    },
    {
      "icao": "LFBD",
      "alert": "OK",
      "vis_m": 9999,
      "fzfg": false,
      "metar_trigger": false,
      "taf_trigger": false,
      "metar": "METAR LFBD 290400Z AUTO 20006KT 9999 FEW043 BKN150 OVC170 06/05 Q0997 TEMPO 4000 SHRA BKN015 FEW025CB BKN030TCU",
      "taf": "TAF LFBD 282300Z 2900/3006 18010KT CAVOK TX12/2915Z TN06/2900Z"
    },
    {
      "icao": "LFLL",
      "alert": "OK",
      "vis_m": 9999,
      "fzfg": false,
      "metar_trigger": false,
      "taf_trigger": false,
      "metar": "METAR LFLL 290400Z 13006KT 9999 SCT035 BKN046 04/04 Q0999 NOSIG",
      "taf": "TAF LFLL 282300Z 2900/3006 VRB02KT 9999 BKN020"
    },
    {
      "icao": "LFLS",
      "alert": "OK",
      "vis_m": 9999,
      "fzfg": false,
      "metar_trigger": false,
      "taf_trigger": false,
      "metar": "METAR LFLS 290400Z AUTO VRB03KT 9999 -RA FEW015 BKN022 BKN027 03/03 Q0999 BECMG OVC009",
      "taf": "TAF LFLS 290200Z 2903/3003 09005KT 7000 OVC009"
    },
    {
      "icao": "LFMN",
      "alert": "OK",
      "vis_m": 9999,
      "fzfg": false,
      "metar_trigger": false,
      "taf_trigger": false,
      "metar": "METAR LFMN 290400Z 34012KT 9999 FEW025 06/04 Q0992 NOSIG",
      "taf": "TAF LFMN 290200Z 2903/3009 33010KT CAVOK"
    },
    {
      "icao": "LFOB",
      "alert": "OK",
      "vis_m": 350,
      "fzfg": true,
      "metar_trigger": false,
      "taf_trigger": false,
      "metar": "METAR LFOB 290400Z AUTO 11003KT 0350 0250 R30/0300N R12/0400N FZFG VV/// M01/M01 Q0998 NOSIG",
      "taf": "TAF LFOB 282300Z 2900/2924 VRB03KT 3000 BR OVC003"
    },
    {
      "icao": "LFPO",
      "alert": "OK",
      "vis_m": 200,
      "fzfg": false,
      "metar_trigger": false,
      "taf_trigger": false,
      "metar": "METAR LFPO 290400Z 20004KT 0200 R02/0375N R25/0400N R07/0375N R24/0350N R06/0400N FG VV/// 00/00 Q0998 NOSIG",
      "taf": "TAF LFPO 282300Z 2900/3006 VRB03KT 3000 BR NSC"
    },
    {
      "icao": "LFSB",
      "alert": "OK",
      "vis_m": 9999,
      "fzfg": false,
      "metar_trigger": false,
      "taf_trigger": false,
      "metar": "METAR LFSB 290400Z AUTO VRB01KT 9999 OVC009 02/02 Q0997 BECMG FEW010 OVC016",
      "taf": ""
    },
    {
      "icao": "LGAV",
      "alert": "OK",
      "vis_m": 9999,
      "fzfg": false,
      "metar_trigger": false,
      "taf_trigger": false,
      "metar": "METAR LGAV 290350Z 19019KT 9999 SCT015 16/11 Q1002 NOSIG",
      "taf": ""
    },
    {
      "icao": "LGTS",
      "alert": "OK",
      "vis_m": 9999,
      "fzfg": false,
      "metar_trigger": false,
      "taf_trigger": false,
      "metar": "METAR LGTS 290350Z VRB02KT 9999 -RA FEW010 SCT030 08/08 Q1000 NOSIG",
      "taf": "TAF LGTS 282300Z 2900/2924 34008KT 9999 FEW010 BKN025"
    },
    {
      "icao": "LHBP",
      "alert": "OK",
      "vis_m": 9999,
      "fzfg": false,
      "metar_trigger": false,
      "taf_trigger": false,
      "metar": "METAR LHBP 290400Z 06008KT 9999 BKN019 OVC060 04/02 Q0995 NOSIG",
      "taf": "TAF LHBP 282315Z 2900/2924 06010KT 8000 -RA FEW005 OVC045"
    },
    {
      "icao": "LHDC",
      "alert": "OK",
      "vis_m": 9999,
      "fzfg": false,
      "metar_trigger": false,
      "taf_trigger": false,
      "metar": "METAR LHDC 290345Z AUTO 06006KT CAVOK 04/03 Q0996",
      "taf": ""
    },
    {
      "icao": "LIBD",
      "alert": "OK",
      "vis_m": 9999,
      "fzfg": false,
      "metar_trigger": false,
      "taf_trigger": false,
      "metar": "METAR LIBD 290350Z 23012KT 9999 -RA SCT045 10/07 Q0994",
      "taf": "TAF LIBD 282300Z 2900/2924 19006KT CAVOK"
    },
    {
      "icao": "LIBG",
      "alert": "OK",
      "vis_m": null,
      "fzfg": false,
      "metar_trigger": false,
      "taf_trigger": false,
      "metar": "",
      "taf": "TAF LIBG 281700Z 2818/2903 21012KT 9999 FEW020"
    },
    {
      "icao": "LIBP",
      "alert": "OK",
      "vis_m": 9999,
      "fzfg": false,
      "metar_trigger": false,
      "taf_trigger": false,
      "metar": "METAR LIBP 290350Z AUTO 34004KT 9999 FEW093/// BKN130/// 10/03 Q0994",
      "taf": "TAF LIBP 282300Z 2900/2924 23008KT 9999 SCT070"
    },
    {
      "icao": "LIBR",
      "alert": "OK",
      "vis_m": 9999,
      "fzfg": false,
      "metar_trigger": false,
      "taf_trigger": false,
      "metar": "METAR LIBR 290350Z VRB02KT CAVOK 09/08 Q0994",
      "taf": "TAF LIBR 282300Z 2900/2924 17008KT CAVOK"
    },
    {
      "icao": "LICA",
      "alert": "OK",
      "vis_m": 9999,
      "fzfg": false,
      "metar_trigger": false,
      "taf_trigger": false,
      "metar": "METAR LICA 290350Z AUTO 05007KT 9999 -RA BKN045/// BKN100/// 11/10 Q0993",
      "taf": "TAF LICA 282300Z 2900/2924 27016KT 9999 SCT040"
    },
    {
      "icao": "LICC",
      "alert": "OK",
      "vis_m": 9999,
      "fzfg": false,
      "metar_trigger": false,
      "taf_trigger": false,
      "metar": "METAR LICC 290350Z 27009KT 9999 -RA FEW020 BKN050 11/08 Q0995",
      "taf": "TAF LICC 282300Z 2900/2924 25016KT 9999 SCT030"
    },
    {
      "icao": "LICJ",
      "alert": "OK",
      "vis_m": 9999,
      "fzfg": false,
      "metar_trigger": false,
      "taf_trigger": false,
      "metar": "METAR LICJ 290350Z 22023G33KT 9999 -RA SCT020 BKN030 13/11 Q0992",
      "taf": "TAF LICJ 282300Z 2900/2924 22022G35KT 9999 SCT040"
    },
    {
      "icao": "LIMC",
      "alert": "OK",
      "vis_m": 2000,
      "fzfg": false,
      "metar_trigger": false,
      "taf_trigger": false,
      "metar": "METAR LIMC 290350Z 36005KT 2000 R35R/1300D R17L/1200U R35L/P2000N BCFG SCT060 02/02 Q0992 BECMG 0800 FG",
      "taf": "TAF LIMC 282300Z 2900/3006 VRB05KT 6000 BKN020"
    },
    {
      "icao": "LIME",
      "alert": "OK",
      "vis_m": 3500,
      "fzfg": false,
      "metar_trigger": false,
      "taf_trigger": false,
      "metar": "METAR LIME 290350Z VRB02KT 3500 BR BKN005 05/05 Q0992 TEMPO 0800 FG",
      "taf": "TAF LIME 282300Z 2900/2924 VRB04KT 6000 SCT010 BKN025"
    },
    {
      "icao": "LIMF",
      "alert": "OK",
      "vis_m": 9000,
      "fzfg": false,
      "metar_trigger": false,
      "taf_trigger": false,
      "metar": "METAR LIMF 290350Z 23002KT 9000 OVC130 04/02 Q0992",
      "taf": "TAF LIMF 282300Z 2900/2924 VRB04KT 7000 BKN040"
    },
    {
      "icao": "LIMJ",
      "alert": "OK",
      "vis_m": 9999,
      "fzfg": false,
      "metar_trigger": false,
      "taf_trigger": false,
      "metar": "METAR LIMJ 290350Z 03014KT 9999 SCT024 BKN080 08/03 Q0991",
      "taf": "TAF LIMJ 282300Z 2900/2924 04008KT 9999 SCT040"
    },
    {
      "icao": "LIPE",
      "alert": "OK",
      "vis_m": 600,
      "fzfg": false,
      "metar_trigger": false,
      "taf_trigger": false,
      "metar": "METAR LIPE 290350Z VRB01KT 0600 R12/0400U R30/0400U FG NSC 01/01 Q0993",
      "taf": "TAF LIPE 282300Z 2900/2924 VRB05KT 4000 BR BKN006"
    },
    {
      "icao": "LIPH",
      "alert": "OK",
      "vis_m": 500,
      "fzfg": false,
      "metar_trigger": false,
      "taf_trigger": false,
      "metar": "METAR LIPH 290350Z AUTO 25004KT 0500 0350E R07/1200U FG VV002 05/05 Q0992",
      "taf": "TAF LIPH 282300Z 2900/2924 VRB05KT 0800 FG BKN002"
    },
    {
      "icao": "LIPQ",
      "alert": "OK",
      "vis_m": 6000,
      "fzfg": false,
      "metar_trigger": false,
      "taf_trigger": false,
      "metar": "METAR LIPQ 290350Z AUTO 21007KT 6000 OVC003/// 08/07 Q0993",
      "taf": "TAF LIPQ 282300Z 2900/2924 VRB05KT 4000 BR OVC005"
    },
    {
      "icao": "LIPR",
      "alert": "OK",
      "vis_m": 100,
      "fzfg": false,
      "metar_trigger": false,
      "taf_trigger": false,
      "metar": "METAR LIPR 290350Z AUTO 31003KT 260V340 0100 R30/0400N FG VV002 05/05 Q0993",
      "taf": "TAF LIPR 282300Z 2900/2924 VRB05KT 2000 BR FEW005"
    },
    {
      "icao": "LIPX",
      "alert": "OK",
      "vis_m": 200,
      "fzfg": false,
      "metar_trigger": false,
      "taf_trigger": false,
      "metar": "METAR LIPX 290350Z 26004KT 0200 R04/1600U FG VV002 05/05 Q0992",
      "taf": "TAF LIPX 282300Z 2900/2924 24006KT 6000 SCT020"
    },
    {
      "icao": "LIPY",
      "alert": "OK",
      "vis_m": 9999,
      "fzfg": false,
      "metar_trigger": false,
      "taf_trigger": false,
      "metar": "METAR LIPY 290350Z AUTO VRB02KT 9999 BKN130/// 06/03 Q0993",
      "taf": "TAF LIPY 282300Z 2900/2924 VRB05KT 9999 FEW030"
    },
    {
      "icao": "LIPZ",
      "alert": "OK",
      "vis_m": 500,
      "fzfg": false,
      "metar_trigger": false,
      "taf_trigger": false,
      "metar": "METAR LIPZ 290350Z 29004KT 0500 R04R/P2000N FG VV002 05/05 Q0993 NOSIG",
      "taf": "TAF LIPZ 282300Z 2900/3006 24006KT 0400 FG OVC001"
    },
    {
      "icao": "LIRF",
      "alert": "OK",
      "vis_m": 9999,
      "fzfg": false,
      "metar_trigger": false,
      "taf_trigger": false,
      "metar": "METAR LIRF 290350Z 07004KT 9999 FEW030 08/08 Q0994 NOSIG",
      "taf": "TAF LIRF 282300Z 2900/3006 07007KT 9999 SCT030"
    },
    {
      "icao": "LIRN",
      "alert": "OK",
      "vis_m": 8000,
      "fzfg": false,
      "metar_trigger": false,
      "taf_trigger": false,
      "metar": "METAR LIRN 290350Z 05004KT 8000 SCT050 10/09 Q0993 NOSIG",
      "taf": "TAF LIRN 282300Z 2900/2924 17010KT 9999 SCT030"
    },
    {
      "icao": "LIRP",
      "alert": "OK",
      "vis_m": 9999,
      "fzfg": false,
      "metar_trigger": false,
      "taf_trigger": false,
      "metar": "METAR LIRP 290345Z 12008KT 9999 SCT030 SCT040 08/08 Q0992 NOSIG",
      "taf": "TAF LIRP 282300Z 2900/2924 12007KT 9999 SCT020 SCT050"
    },
    {
      "icao": "LIRZ",
      "alert": "OK",
      "vis_m": 9999,
      "fzfg": false,
      "metar_trigger": false,
      "taf_trigger": false,
      "metar": "METAR LIRZ 290350Z AUTO VRB02KT 9999 OVC054/// 06/06 Q0994",
      "taf": "TAF LIRZ 282300Z 2900/2924 VRB05KT 7000 BKN025"
    },
    {
      "icao": "LJLJ",
      "alert": "OK",
      "vis_m": 8000,
      "fzfg": false,
      "metar_trigger": false,
      "taf_trigger": false,
      "metar": "METAR LJLJ 290400Z VRB01KT 8000 FEW005 BKN030 04/03 Q0992 NOSIG",
      "taf": "TAF LJLJ 282300Z 2900/3000 29005KT 7000 -RA SCT010 BKN020"
    },
    {
      "icao": "LKMT",
      "alert": "OK",
      "vis_m": 3500,
      "fzfg": false,
      "metar_trigger": false,
      "taf_trigger": false,
      "metar": "METAR LKMT 290400Z 03010KT 3500 -SN BR OVC003 00/00 Q0998 NOSIG",
      "taf": "TAF LKMT 282300Z 2900/2924 03009KT 4000 BR SCT004 OVC008"
    },
    {
      "icao": "LKPR",
      "alert": "OK",
      "vis_m": 4000,
      "fzfg": false,
      "metar_trigger": false,
      "taf_trigger": false,
      "metar": "METAR LKPR 290400Z 04007KT 4000 -FZDZ BR OVC005 M00/M01 Q0996 BECMG 2500 -FZRASN BKN003",
      "taf": "TAF LKPR 290200Z 2903/3009 06009KT 7000 BKN017"
    },
    {
      "icao": "LLBG",
      "alert": "OK",
      "vis_m": 9999,
      "fzfg": false,
      "metar_trigger": false,
      "taf_trigger": false,
      "metar": "METAR LLBG 290350Z 18008KT 9999 SCT034 13/11 Q1019 NOSIG RMK SCT062",
      "taf": "TAF LLBG 282302Z 2900/2924 15005KT 9999 SCT035"
    },
    {
      "icao": "LMML",
      "alert": "OK",
      "vis_m": 9999,
      "fzfg": false,
      "metar_trigger": false,
      "taf_trigger": false,
      "metar": "METAR LMML 290415Z 25025G35KT 9999 FEW045 16/10 Q0999 NOSIG",
      "taf": "TAF LMML 282300Z 2900/2924 20015KT 9999 FEW017"
    },
    {
      "icao": "LOWW",
      "alert": "OK",
      "vis_m": 7000,
      "fzfg": false,
      "metar_trigger": false,
      "taf_trigger": false,
      "metar": "METAR LOWW 290350Z 07003KT 030V110 7000 -RA FEW003 BKN005 03/02 Q0994 TEMPO 4000 BR",
      "taf": "TAF LOWW 290215Z 2903/3009 VRB04KT 4000 -RA OVC005 TX02/2903Z TN01/2915Z"
    },
    {
      "icao": "LPFR",
      "alert": "OK",
      "vis_m": 7000,
      "fzfg": false,
      "metar_trigger": false,
      "taf_trigger": false,
      "metar": "METAR LPFR 290400Z 25014KT 7000 BKN006 16/15 Q1012",
      "taf": "TAF LPFR 282300Z 2900/2924 25018KT 8000 SCT008 BKN015"
    },
    {
      "icao": "LPMA",
      "alert": "OK",
      "vis_m": 9999,
      "fzfg": false,
      "metar_trigger": false,
      "taf_trigger": false,
      "metar": "METAR LPMA 290400Z 31003KT 9999 FEW015 16/13 Q1020",
      "taf": "TAF LPMA 282300Z 2900/2924 VRB05KT 9999 SCT015"
    },
    {
      "icao": "LPPR",
      "alert": "OK",
      "vis_m": 5000,
      "fzfg": false,
      "metar_trigger": false,
      "taf_trigger": false,
      "metar": "METAR LPPR 290400Z 21008KT 190V250 5000 BR BKN008 15/14 Q1002",
      "taf": "TAF LPPR 282300Z 2900/2924 23020G32KT 3000 RADZ BR BKN003 FEW015CB"
    },
    {
      "icao": "LPPS",
      "alert": "OK",
      "vis_m": 9999,
      "fzfg": false,
      "metar_trigger": false,
      "taf_trigger": false,
      "metar": "METAR LPPS 290400Z 28015KT 9999 FEW014 SCT030 18/15 Q1020",
      "taf": "TAF LPPS 282300Z 2900/3006 27015KT 9999 SCT012 SCT030"
    },
    {
      "icao": "LPPT",
      "alert": "OK",
      "vis_m": 6000,
      "fzfg": false,
      "metar_trigger": false,
      "taf_trigger": false,
      "metar": "METAR LPPT 290400Z 24015KT 6000 -DZRA SCT004 BKN006 16/16 Q1008",
      "taf": "TAF LPPT 282300Z 2900/3006 23015KT 6000 -RA SCT004 BKN008"
    },
    {
      "icao": "LQBK",
      "alert": "OK",
      "vis_m": 2500,
      "fzfg": false,
      "metar_trigger": false,
      "taf_trigger": false,
      "metar": "METAR LQBK 290400Z VRB02KT 2500 R16/0450D BR NSC 03/03 Q0993 NOSIG",
      "taf": "TAF LQBK 282300Z 2900/2924 16005KT 9999 SCT040 TX10/2913Z TN01/2906Z"
    },
    {
      "icao": "LQSA",
      "alert": "OK",
      "vis_m": 9999,
      "fzfg": false,
      "metar_trigger": false,
      "taf_trigger": false,
      "metar": "METAR LQSA 290400Z VRB02KT 9999 BKN055 03/03 Q0994",
      "taf": "TAF LQSA 282300Z 2900/2924 VRB02KT 9999 SCT050 TX10/2914Z TN03/2905Z"
    },
    {
      "icao": "LQTZ",
      "alert": "OK",
      "vis_m": 9999,
      "fzfg": false,
      "metar_trigger": false,
      "taf_trigger": false,
      "metar": "METAR LQTZ 290400Z 32006KT CAVOK 08/03 Q0993",
      "taf": "TAF LQTZ 282300Z 2900/2924 13005KT CAVOK TX13/2913Z TN03/2905Z"
    },
    {
      "icao": "LRBC",
      "alert": "OK",
      "vis_m": 7000,
      "fzfg": false,
      "metar_trigger": false,
      "taf_trigger": false,
      "metar": "METAR LRBC 290400Z 34005KT 7000 OVC004 01/01 Q0998",
      "taf": ""
    },
    {
      "icao": "LRBS",
      "alert": "OK",
      "vis_m": 7000,
      "fzfg": false,
      "metar_trigger": false,
      "taf_trigger": false,
      "metar": "METAR LRBS 290400Z 25003KT 7000 NSC 02/02 Q0998 NOSIG",
      "taf": "TAF LRBS 282300Z 2900/2924 VRB04KT 1500 BR SCT002"
    },
    {
      "icao": "LRBV",
      "alert": "OK",
      "vis_m": 9999,
      "fzfg": false,
      "metar_trigger": false,
      "taf_trigger": false,
      "metar": "METAR LRBV 290400Z AUTO 16007G19KT 040V210 9999 FEW019/// OVC057/// 05/00 Q0996",
      "taf": "TAF LRBV 290200Z 2903/2912 15006KT 9999 BKN050"
    },
    {
      "icao": "LRCL",
      "alert": "OK",
      "vis_m": 4000,
      "fzfg": false,
      "metar_trigger": false,
      "taf_trigger": false,
      "metar": "METAR LRCL 290400Z 00000KT 4000 BR OVC059 01/00 Q0996",
      "taf": "TAF LRCL 290200Z 2903/2912 VRB04KT 5000 BR BKN050"
    },
    {
      "icao": "LRCV",
      "alert": "OK",
      "vis_m": 5000,
      "fzfg": false,
      "metar_trigger": false,
      "taf_trigger": false,
      "metar": "METAR LRCV 290400Z 05004KT 5000 BR NSC 03/03 Q0998",
      "taf": "TAF LRCV 290200Z 2903/2912 08007KT 5000 -RA BR OVC045"
    },
    {
      "icao": "LRIA",
      "alert": "OK",
      "vis_m": 150,
      "fzfg": false,
      "metar_trigger": false,
      "taf_trigger": false,
      "metar": "METAR LRIA 290400Z 30003KT 0150 R14/0600N FG VV001 01/01 Q0999",
      "taf": "TAF LRIA 290200Z 2903/2912 11007KT 0150 FG VV001"
    },
    {
      "icao": "LROP",
      "alert": "OK",
      "vis_m": 5000,
      "fzfg": false,
      "metar_trigger": false,
      "taf_trigger": false,
      "metar": "METAR LROP 290400Z 28004KT 5000 BR NSC 01/01 Q0998 NOSIG",
      "taf": "TAF LROP 282300Z 2900/2924 VRB04KT 1500 BR SCT001"
    },
    {
      "icao": "LRSB",
      "alert": "OK",
      "vis_m": 7000,
      "fzfg": false,
      "metar_trigger": false,
      "taf_trigger": false,
      "metar": "METAR LRSB 290400Z 22003KT 7000 -RA FEW037 SCT042 BKN050 02/02 Q0996",
      "taf": "TAF LRSB 282300Z 2900/2924 VRB04KT 5000 BR NSC"
    },
    {
      "icao": "LRSM",
      "alert": "OK",
      "vis_m": 9999,
      "fzfg": false,
      "metar_trigger": false,
      "taf_trigger": false,
      "metar": "METAR LRSM 290400Z AUTO 09004KT 9999 BKN055/// OVC110/// 04/02 Q0996",
      "taf": "TAF LRSM 290200Z 2903/2912 VRB04KT 9999 BKN040"
    },
    {
      "icao": "LRSV",
      "alert": "OK",
      "vis_m": 700,
      "fzfg": true,
      "metar_trigger": false,
      "taf_trigger": false,
      "metar": "METAR LRSV 290400Z 29004KT 0700 R34/0900N FZFG VV001 M01/M01 Q0997",
      "taf": "TAF LRSV 290200Z 2903/2912 VRB04KT 0150 FG VV001"
    },
    {
      "icao": "LRTM",
      "alert": "OK",
      "vis_m": 1000,
      "fzfg": false,
      "metar_trigger": false,
      "taf_trigger": false,
      "metar": "METAR LRTM 290400Z AUTO 10003KT 1000 R07/P2000N BR BKN000/// OVC002/// 00/00 Q0997",
      "taf": "TAF LRTM 290200Z 2903/2912 VRB04KT 5000 BR BKN050"
    },
    {
      "icao": "LRTR",
      "alert": "OK",
      "vis_m": 9999,
      "fzfg": false,
      "metar_trigger": false,
      "taf_trigger": false,
      "metar": "METAR LRTR 290400Z 09011KT 9999 -RA SCT037 OVC043 06/06 Q0994",
      "taf": "TAF LRTR 282300Z 2900/2924 11008KT 9999 -RA BKN040"
    },
    {
      "icao": "LTAC",
      "alert": "OK",
      "vis_m": 400,
      "fzfg": false,
      "metar_trigger": false,
      "taf_trigger": false,
      "metar": "SPECI LTAC 290410Z 28002KT 0400 R03C/P1500D R21C/0300N R03L/0500N R03R/P1500N BCFG SCT001 SCT180 00/M00 Q1011 BECMG 2000 BR",
      "taf": ""
    },
    {
      "icao": "LTFM",
      "alert": "OK",
      "vis_m": 9999,
      "fzfg": false,
      "metar_trigger": false,
      "taf_trigger": false,
      "metar": "METAR LTFM 290350Z 21020KT 9999 FEW035 BKN100 13/07 Q1003 NOSIG RMK RWY17L 20021KT RWY34L 20018KT RWY16R 20022KT RWY36 20018KT RWY18 21022KT",
      "taf": "TAF LTFM 282240Z 2900/3006 20014KT CAVOK"
    },
    {
      "icao": "LUKK",
      "alert": "OK",
      "vis_m": 400,
      "fzfg": false,
      "metar_trigger": false,
      "taf_trigger": false,
      "metar": "METAR LUKK 290400Z 09003KT 0400 0350SW R08/0450N FG VV001 03/03 Q0999 TEMPO 0200 FG",
      "taf": "TAF LUKK 282318Z 2900/2924 VRB05KT 0500 FG VV002"
    },
    {
      "icao": "LWOH",
      "alert": "OK",
      "vis_m": null,
      "fzfg": false,
      "metar_trigger": false,
      "taf_trigger": false,
      "metar": "",
      "taf": "TAF LWOH 290208Z 2903/3003 VRB03KT 9999 FEW020 OVC040"
    },
    {
      "icao": "LWSK",
      "alert": "OK",
      "vis_m": null,
      "fzfg": false,
      "metar_trigger": false,
      "taf_trigger": false,
      "metar": "",
      "taf": "TAF LWSK 290208Z 2903/3003 VRB02KT 9999 FEW050 BKN070"
    },
    {
      "icao": "LYBE",
      "alert": "OK",
      "vis_m": 9999,
      "fzfg": false,
      "metar_trigger": false,
      "taf_trigger": false,
      "metar": "METAR LYBE 290400Z 13008KT CAVOK 07/05 Q0993 NOSIG",
      "taf": "TAF LYBE 282300Z 2900/2924 15008KT CAVOK TX14/2913Z TN06/2906Z"
    },
    {
      "icao": "LYNI",
      "alert": "OK",
      "vis_m": 9999,
      "fzfg": false,
      "metar_trigger": false,
      "taf_trigger": false,
      "metar": "METAR LYNI 290400Z 21003KT 170V250 CAVOK 06/03 Q0997 NOSIG",
      "taf": "TAF LYNI 282300Z 2900/2924 16005KT 9999 SCT050 TX13/2913Z TN02/2906Z"
    },
    {
      "icao": "LYPG",
      "alert": "OK",
      "vis_m": 9999,
      "fzfg": false,
      "metar_trigger": false,
      "taf_trigger": false,
      "metar": "METAR LYPG 290400Z 35008KT 9999 FEW050 06/06 Q0996 NOSIG",
      "taf": "TAF LYPG 282300Z 2900/2924 36005KT 9999 SCT040 BKN080 TX13/2913Z TN04/2905Z"
    },
    {
      "icao": "LZIB",
      "alert": "OK",
      "vis_m": 6000,
      "fzfg": false,
      "metar_trigger": false,
      "taf_trigger": false,
      "metar": "METAR LZIB 290400Z 03008KT 6000 -RA SCT004 OVC005 03/03 Q0994 NOSIG",
      "taf": "TAF LZIB 282315Z 2900/3000 06009KT 9999 -RA SCT004 OVC010"
    },
    {
      "icao": "LZKZ",
      "alert": "OK",
      "vis_m": 9999,
      "fzfg": false,
      "metar_trigger": false,
      "taf_trigger": false,
      "metar": "METAR LZKZ 290400Z 01009KT 9999 SCT009 BKN040 02/01 Q0997 NOSIG",
      "taf": "TAF LZKZ 282315Z 2900/3000 01006KT 7000 -RA SCT013 OVC020"
    },
    {
      "icao": "LZTT",
      "alert": "OK",
      "vis_m": 4000,
      "fzfg": false,
      "metar_trigger": false,
      "taf_trigger": false,
      "metar": "METAR LZTT 290400Z 07004KT 4000 -SN OVC008 M01/M01 Q0996",
      "taf": "TAF LZTT 282315Z 2900/3000 VRB02KT 6000 -SN SCT008 BKN025"
    },
    {
      "icao": "OEJN",
      "alert": "OK",
      "vis_m": 9999,
      "fzfg": false,
      "metar_trigger": false,
      "taf_trigger": false,
      "metar": "METAR OEJN 290400Z 06006KT CAVOK 21/09 Q1016 NOSIG",
      "taf": "TAF OEJN 282300Z 2900/3006 03005KT 7000 FEW040"
    },
    {
      "icao": "OEMA",
      "alert": "OK",
      "vis_m": 9999,
      "fzfg": false,
      "metar_trigger": false,
      "taf_trigger": false,
      "metar": "METAR OEMA 290400Z VRB01KT CAVOK 12/M02 Q1022 NOSIG",
      "taf": "TAF OEMA 282300Z 2900/3006 30004KT CAVOK"
    },
    {
      "icao": "OJAI",
      "alert": "OK",
      "vis_m": 4000,
      "fzfg": false,
      "metar_trigger": false,
      "taf_trigger": false,
      "metar": "METAR OJAI 290300Z 24008KT 4000 BR NSC 08/07 Q1020 NOSIG",
      "taf": "TAF OJAI 282300Z 2900/3006 24014KT 3000 BR SCT025TCU BKN030"
    },
    {
      "icao": "OMAA",
      "alert": "OK",
      "vis_m": 9999,
      "fzfg": false,
      "metar_trigger": false,
      "taf_trigger": false,
      "metar": "METAR OMAA 290400Z 15007KT CAVOK 17/12 Q1017 NOSIG",
      "taf": "TAF OMAA 282300Z 2900/3006 10005KT 8000 NSC"
    },
    {
      "icao": "OMDB",
      "alert": "OK",
      "vis_m": 9999,
      "fzfg": false,
      "metar_trigger": false,
      "taf_trigger": false,
      "metar": "METAR OMDB 290400Z 10007KT CAVOK 19/14 Q1017 NOSIG",
      "taf": "TAF OMDB 282300Z 2900/3006 10005KT 8000 NSC"
    },
    {
      "icao": "UAAA",
      "alert": "OK",
      "vis_m": 1600,
      "fzfg": false,
      "metar_trigger": false,
      "taf_trigger": false,
      "metar": "METAR UAAA 290400Z 11002MPS 080V140 1600 R23L/1600N BR OVC004 M03/M04 Q1030 NOSIG RMK QBB120",
      "taf": ""
    },
    {
      "icao": "UBBB",
      "alert": "OK",
      "vis_m": 9999,
      "fzfg": false,
      "metar_trigger": false,
      "taf_trigger": false,
      "metar": "METAR UBBB 290400Z 17006KT 9999 OVC012 07/03 Q1014 NOSIG",
      "taf": "TAF UBBB 282302Z 2900/2924 14005KT 9999 SCT012 BKN025 TX09/2911Z TN04/2901Z"
    },
    {
      "icao": "UDSG",
      "alert": "OK",
      "vis_m": 1200,
      "fzfg": false,
      "metar_trigger": false,
      "taf_trigger": false,
      "metar": "METAR UDSG 290400Z 06004KT 1200 R02/1200U BR SCT013 M17/M19 Q1015 NOSIG",
      "taf": "TAF UDSG 282300Z 2900/2924 VRB06KT 2000 BR BKN020"
    },
    {
      "icao": "UDYZ",
      "alert": "OK",
      "vis_m": 1800,
      "fzfg": false,
      "metar_trigger": false,
      "taf_trigger": false,
      "metar": "METAR UDYZ 290400Z 23002KT 1800 R08/1900N -SN BR OVC010 M06/M07 Q1017 NOSIG",
      "taf": ""
    },
    {
      "icao": "UGKO",
      "alert": "OK",
      "vis_m": 9999,
      "fzfg": false,
      "metar_trigger": false,
      "taf_trigger": false,
      "metar": "METAR UGKO 290400Z AUTO 09008KT CAVOK 04/M02 Q1012 NOSIG",
      "taf": "TAF UGKO 282300Z 2900/2924 09006KT CAVOK TX16/2911Z TN03/2905Z"
    }
  ]
}