{
  "ts_utc": "2025-12-30T08:59:43Z",
  "threshold_m": 150,
  "source": "stations_override.txt (ICAO list) + aviationweather.gov (METAR/TAF raw)",
  "station_count": 159,
  "stations": [
    {
      "icao": "BIKF",
      "alert": "OK",
      "vis_m": 9999,
      "fzfg": false,
      "metar_trigger": false,
      "taf_trigger": false,
      "metar": "METAR BIKF 300830Z 30006KT 9999 SCT025 04/03 Q1038",
      "taf": "TAF BIKF 300744Z 3009/3109 27005KT 9999 BKN020 OVC030 TX06/3021Z TN04/3009Z"
    },
    {
      "icao": "BKPR",
      "alert": "OK",
      "vis_m": null,
      "fzfg": false,
      "metar_trigger": false,
      "taf_trigger": false,
      "metar": "",
      "taf": "TAF BKPR 300530Z 3006/3106 35008KT CAVOK"
    },
    {
      "icao": "EBCI",
      "alert": "OK",
      "vis_m": 9999,
      "fzfg": false,
      "metar_trigger": false,
      "taf_trigger": false,
      "metar": "METAR EBCI 300850Z 01004KT CAVOK M00/M01 Q1029 NOSIG",
      "taf": "TAF EBCI 300502Z 3006/3112 36006KT 8000 FEW012 SCT030"
    },
    {
      "icao": "EDDB",
      "alert": "OK",
      "vis_m": 9999,
      "fzfg": false,
      "metar_trigger": false,
      "taf_trigger": false,
      "metar": "METAR EDDB 300850Z AUTO 29012KT CAVOK 00/M03 Q1021 NOSIG",
      "taf": "TAF EDDB 300500Z 3006/3106 31010KT CAVOK"
    },
    {
      "icao": "EDDH",
      "alert": "OK",
      "vis_m": 9999,
      "fzfg": false,
      "metar_trigger": false,
      "taf_trigger": false,
      "metar": "METAR EDDH 300850Z AUTO 32006KT CAVOK M01/M06 Q1026 NOSIG",
      "taf": "TAF EDDH 300500Z 3006/3112 31008KT CAVOK"
    },
    {
      "icao": "EDDK",
      "alert": "OK",
      "vis_m": 300,
      "fzfg": true,
      "metar_trigger": false,
      "taf_trigger": false,
      "metar": "METAR EDDK 300850Z AUTO 31003KT 240V360 0300 0200 R31R/0375N R06/0400N FZFG VV002 M01/M01 Q1028 BECMG 1200 BR",
      "taf": ""
    },
    {
      "icao": "EDDN",
      "alert": "OK",
      "vis_m": 9999,
      "fzfg": false,
      "metar_trigger": false,
      "taf_trigger": false,
      "metar": "METAR EDDN 300850Z AUTO 31004KT 9999 SCT012 M00/M02 Q1024 NOSIG",
      "taf": "TAF EDDN 300500Z 3006/3106 30006KT 9999 FEW025"
    },
    {
      "icao": "EDDS",
      "alert": "OK",
      "vis_m": 9999,
      "fzfg": false,
      "metar_trigger": false,
      "taf_trigger": false,
      "metar": "METAR EDDS 300850Z AUTO VRB02KT 9999 BKN047 M01/M02 Q1024 NOSIG",
      "taf": "TAF EDDS 300500Z 3006/3106 VRB02KT 9999 OVC015"
    },
    {
      "icao": "EDFH",
      "alert": "OK",
      "vis_m": 7000,
      "fzfg": false,
      "metar_trigger": false,
      "taf_trigger": false,
      "metar": "METAR EDFH 300850Z 36005KT 7000 BKN005 M01/M02 Q1026",
      "taf": "TAF EDFH 300500Z 3006/3106 35006KT 9999 BKN030"
    },
    {
      "icao": "EDJA",
      "alert": "OK",
      "vis_m": 9999,
      "fzfg": false,
      "metar_trigger": false,
      "taf_trigger": false,
      "metar": "METAR EDJA 300850Z 21005KT 9999 OVC038 M03/M04 Q1023",
      "taf": "TAF EDJA 300800Z 3009/3018 25004KT 7000 FEW009 BKN020"
    },
    {
      "icao": "EDLW",
      "alert": "OK",
      "vis_m": 9999,
      "fzfg": false,
      "metar_trigger": false,
      "taf_trigger": false,
      "metar": "METAR EDLW 300850Z 29002KT CAVOK M01/M03 Q1027",
      "taf": "TAF EDLW 300500Z 3006/3106 29004KT 9999 SCT030"
    },
    {
      "icao": "EDNY",
      "alert": "OK",
      "vis_m": 9999,
      "fzfg": false,
      "metar_trigger": false,
      "taf_trigger": false,
      "metar": "METAR EDNY 300850Z VRB02KT 9999 OVC038 M01/M04 Q1024",
      "taf": "TAF EDNY 300800Z 3009/3018 04004KT 9999 OVC030"
    },
    {
      "icao": "EDSB",
      "alert": "OK",
      "vis_m": 3700,
      "fzfg": false,
      "metar_trigger": false,
      "taf_trigger": false,
      "metar": "METAR EDSB 300850Z VRB01KT 3700 BR FEW004 M02/M02 Q1027",
      "taf": "TAF EDSB 300500Z 3006/3106 20004KT 9999 BKN030"
    },
    {
      "icao": "EETN",
      "alert": "OK",
      "vis_m": 4800,
      "fzfg": false,
      "metar_trigger": false,
      "taf_trigger": false,
      "metar": "METAR EETN 300850Z 02012G22KT 4800 SHSN DRSN SCT015CB OVC023 M03/M05 Q0999 TEMPO 2000",
      "taf": "TAF EETN 300530Z 3006/3106 01016G30KT 9999 FEW018CB BKN025"
    },
    {
      "icao": "EFTU",
      "alert": "OK",
      "vis_m": 9999,
      "fzfg": false,
      "metar_trigger": false,
      "taf_trigger": false,
      "metar": "METAR EFTU 300850Z AUTO 01011G21KT 320V050 9999 BKN029 M03/M08 Q1005",
      "taf": "TAF EFTU 300827Z 3009/3109 36015KT 9999 SCT030"
    },
    {
      "icao": "EGBB",
      "alert": "OK",
      "vis_m": 9999,
      "fzfg": false,
      "metar_trigger": false,
      "taf_trigger": false,
      "metar": "METAR EGBB 300850Z COR 36005KT 9999 BKN041 03/02 Q1035",
      "taf": "TAF EGBB 300455Z 3006/3106 02006KT 9999 BKN030"
    },
    {
      "icao": "EGGP",
      "alert": "OK",
      "vis_m": 9999,
      "fzfg": false,
      "metar_trigger": false,
      "taf_trigger": false,
      "metar": "METAR EGGP 300850Z 02005KT 9999 OVC042 03/00 Q1037",
      "taf": "TAF EGGP 300453Z 3006/3106 01005KT 9999 BKN035"
    },
    {
      "icao": "EGGW",
      "alert": "OK",
      "vis_m": 9999,
      "fzfg": false,
      "metar_trigger": false,
      "taf_trigger": false,
      "metar": "METAR EGGW 300850Z 03007KT 010V090 9999 BKN038 03/01 Q1034",
      "taf": "TAF EGGW 300455Z 3006/3106 03008KT 9999 FEW036"
    },
    {
      "icao": "EGKK",
      "alert": "OK",
      "vis_m": 9999,
      "fzfg": false,
      "metar_trigger": false,
      "taf_trigger": false,
      "metar": "METAR EGKK 300850Z 03005KT 9999 FEW042 03/01 Q1033",
      "taf": "TAF EGKK 300453Z 3006/3112 03006KT 9999 SCT035"
    },
    {
      "icao": "EGNM",
      "alert": "OK",
      "vis_m": 9999,
      "fzfg": false,
      "metar_trigger": false,
      "taf_trigger": false,
      "metar": "METAR EGNM 300850Z 36006KT 9999 BKN039 03/01 Q1036",
      "taf": "TAF EGNM 300523Z 3006/3106 01005KT 9999 SCT035"
    },
    {
      "icao": "EGPD",
      "alert": "OK",
      "vis_m": 9999,
      "fzfg": false,
      "metar_trigger": false,
      "taf_trigger": false,
      "metar": "METAR EGPD 300850Z COR AUTO 30007KT 9999 BKN038 03/M00 Q1038 NOSIG",
      "taf": "TAF EGPD 300452Z 3006/3106 30006KT 9999 FEW020 SCT035"
    },
    {
      "icao": "EGPF",
      "alert": "OK",
      "vis_m": 9999,
      "fzfg": false,
      "metar_trigger": false,
      "taf_trigger": false,
      "metar": "METAR EGPF 300850Z VRB01KT 9999 PRFG NSC M04/M04 Q1040",
      "taf": ""
    },
    {
      "icao": "EHBK",
      "alert": "OK",
      "vis_m": 9999,
      "fzfg": false,
      "metar_trigger": false,
      "taf_trigger": false,
      "metar": "METAR EHBK 300855Z AUTO 34004KT 9999 BKN047/// 01/M00 Q1029 NOSIG",
      "taf": "TAF EHBK 300508Z 3006/3112 34005KT 9999 FEW040"
    },
    {
      "icao": "EHEH",
      "alert": "OK",
      "vis_m": 9999,
      "fzfg": false,
      "metar_trigger": false,
      "taf_trigger": false,
      "metar": "METAR EHEH 300825Z AUTO 32005KT 290V010 9999 NCD M00/M02 Q1030 BLU NOSIG RMK TREND REMOTE BY EHWX",
      "taf": "TAF EHEH 300540Z 3006/3112 33005KT 9999 SCT040"
    },
    {
      "icao": "EKBI",
      "alert": "OK",
      "vis_m": 9999,
      "fzfg": false,
      "metar_trigger": false,
      "taf_trigger": false,
      "metar": "METAR EKBI 300850Z AUTO 31006KT 9999 NCD M03/M07 Q1026",
      "taf": "TAF EKBI 300827Z 3009/3109 32008KT 9999 SCT040"
    },
    {
      "icao": "EKCH",
      "alert": "OK",
      "vis_m": 9999,
      "fzfg": false,
      "metar_trigger": false,
      "taf_trigger": false,
      "metar": "METAR EKCH 300850Z AUTO 35021KT 9999 NCD 01/M07 Q1021 NOSIG",
      "taf": "TAF EKCH 300827Z 3009/3109 33018KT CAVOK"
    },
    {
      "icao": "ENAL",
      "alert": "OK",
      "vis_m": 9999,
      "fzfg": false,
      "metar_trigger": false,
      "taf_trigger": false,
      "metar": "METAR ENAL 300850Z 33008KT 290V010 9999 VCSH SCT035 BKN050 02/M02 Q1027",
      "taf": "TAF ENAL 300800Z 3009/3018 32012KT 9999 FEW012CB BKN030"
    },
    {
      "icao": "ENBR",
      "alert": "OK",
      "vis_m": 9999,
      "fzfg": false,
      "metar_trigger": false,
      "taf_trigger": false,
      "metar": "METAR ENBR 300850Z VRB01KT 9999 VCSH FEW018 SCT025 BKN033 M02/M03 Q1029 TEMPO 34012KT 0800 SHSN BKN008 RMK WIND 1200FT 34013KT",
      "taf": ""
    },
    {
      "icao": "ENGM",
      "alert": "OK",
      "vis_m": 9999,
      "fzfg": false,
      "metar_trigger": false,
      "taf_trigger": false,
      "metar": "METAR ENGM 300850Z VRB02KT CAVOK M05/M11 Q1023 NOSIG",
      "taf": ""
    },
    {
      "icao": "ENHD",
      "alert": "OK",
      "vis_m": 9999,
      "fzfg": false,
      "metar_trigger": false,
      "taf_trigger": false,
      "metar": "METAR ENHD 300850Z 02010KT 330V050 9999 VCSH FEW018CB SCT043 03/M03 Q1030",
      "taf": "TAF ENHD 300800Z 3009/3018 02008KT 9999 FEW020 SCT040"
    },
    {
      "icao": "ENTC",
      "alert": "OK",
      "vis_m": 1500,
      "fzfg": false,
      "metar_trigger": false,
      "taf_trigger": false,
      "metar": "METAR ENTC 300850Z 03003KT 1500 R36/P2000N R18/P2000N -SHSN VV010 M06/M07 Q1013 TEMPO 0800 SHSN VV006 RMK WIND 2600FT 35011KT",
      "taf": "TAF ENTC 300500Z 3006/3106 01008KT 8000 -SHSN FEW008 SCT020CB BKN030"
    },
    {
      "icao": "ENTO",
      "alert": "OK",
      "vis_m": 9999,
      "fzfg": false,
      "metar_trigger": false,
      "taf_trigger": false,
      "metar": "METAR ENTO 300850Z 32003KT 300V040 CAVOK M02/M11 Q1025 NOSIG",
      "taf": "TAF ENTO 300500Z 3006/3106 32010KT CAVOK"
    },
    {
      "icao": "ENVA",
      "alert": "OK",
      "vis_m": 9999,
      "fzfg": false,
      "metar_trigger": false,
      "taf_trigger": false,
      "metar": "METAR ENVA 300850Z 28010KT 9999 VCSH FEW012 BKN030 M03/M03 Q1023 TEMPO 0500 SHSN VV005 RMK WIND 670FT 28014KT",
      "taf": "TAF ENVA 300500Z 3006/3106 30009KT 9999 -SHSN SCT015CB BKN025"
    },
    {
      "icao": "ENZV",
      "alert": "OK",
      "vis_m": 9999,
      "fzfg": false,
      "metar_trigger": false,
      "taf_trigger": false,
      "metar": "METAR ENZV 300850Z VRB02KT CAVOK M02/M05 Q1030 NOSIG",
      "taf": "TAF ENZV 300500Z 3006/3106 35005KT CAVOK"
    },
    {
      "icao": "EPGD",
      "alert": "OK",
      "vis_m": 9999,
      "fzfg": false,
      "metar_trigger": false,
      "taf_trigger": false,
      "metar": "METAR EPGD 300830Z 31018KT 9999 -SHSN FEW020CB SCT042 M01/M06 Q1009",
      "taf": "TAF EPGD 300530Z 3006/3106 32018KT 9999 SCT040"
    },
    {
      "icao": "EPKK",
      "alert": "OK",
      "vis_m": 9999,
      "fzfg": false,
      "metar_trigger": false,
      "taf_trigger": false,
      "metar": "METAR EPKK 300830Z 29015KT 9999 SCT026 M02/M07 Q1013",
      "taf": "TAF EPKK 300830Z 3009/3109 28014KT 9999 BKN025"
    },
    {
      "icao": "EPKT",
      "alert": "OK",
      "vis_m": 9999,
      "fzfg": false,
      "metar_trigger": false,
      "taf_trigger": false,
      "metar": "METAR EPKT 300830Z 28013KT CAVOK M04/M07 Q1013",
      "taf": "TAF EPKT 300530Z 3006/3106 30012KT 9999 SCT040"
    },
    {
      "icao": "EPLB",
      "alert": "OK",
      "vis_m": 9999,
      "fzfg": false,
      "metar_trigger": false,
      "taf_trigger": false,
      "metar": "METAR EPLB 300830Z 29011KT 9999 BKN026 M03/M06 Q1006",
      "taf": "TAF EPLB 300530Z 3006/3106 28014KT 9999 SCT040"
    },
    {
      "icao": "EPMO",
      "alert": "OK",
      "vis_m": 6000,
      "fzfg": false,
      "metar_trigger": false,
      "taf_trigger": false,
      "metar": "METAR EPMO 300830Z 29017KT 6000 FEW008 BKN047CB M02/M05 Q1008",
      "taf": "TAF EPMO 300530Z 3006/3106 28012KT 9999 BKN030"
    },
    {
      "icao": "EPPO",
      "alert": "OK",
      "vis_m": 9999,
      "fzfg": false,
      "metar_trigger": false,
      "taf_trigger": false,
      "metar": "METAR EPPO 300830Z 30010KT CAVOK M02/M06 Q1015",
      "taf": "TAF EPPO 300530Z 3006/3106 32010KT CAVOK"
    },
    {
      "icao": "EPRA",
      "alert": "OK",
      "vis_m": 9999,
      "fzfg": false,
      "metar_trigger": false,
      "taf_trigger": false,
      "metar": "METAR EPRA 300830Z 31014KT 280V340 9999 BKN015 M03/M06 Q1008",
      "taf": "TAF EPRA 300830Z 3009/3018 30014KT 9999 BKN025"
    },
    {
      "icao": "EPRZ",
      "alert": "OK",
      "vis_m": 9999,
      "fzfg": false,
      "metar_trigger": false,
      "taf_trigger": false,
      "metar": "METAR EPRZ 300830Z 29018KT 9999 BKN030 M03/M07 Q1008",
      "taf": ""
    },
    {
      "icao": "EPSC",
      "alert": "OK",
      "vis_m": 9999,
      "fzfg": false,
      "metar_trigger": false,
      "taf_trigger": false,
      "metar": "METAR EPSC 300830Z 30008KT 9999 FEW036 M00/M05 Q1017",
      "taf": "TAF EPSC 300530Z 3006/3106 30010KT CAVOK"
    },
    {
      "icao": "EPSY",
      "alert": "OK",
      "vis_m": 9999,
      "fzfg": false,
      "metar_trigger": false,
      "taf_trigger": false,
      "metar": "METAR EPSY 300830Z 29009KT 260V320 9999 FEW042 M03/M04 Q1005",
      "taf": "TAF EPSY 300830Z 3009/3018 28010KT 9999 SCT030"
    },
    {
      "icao": "EPWA",
      "alert": "OK",
      "vis_m": 9999,
      "fzfg": false,
      "metar_trigger": false,
      "taf_trigger": false,
      "metar": "METAR EPWA 300830Z 29019KT 9999 BKN017 M02/M05 Q1008 NOSIG",
      "taf": "TAF EPWA 300830Z 3009/3109 30015KT 9999 BKN018"
    },
    {
      "icao": "EPWR",
      "alert": "OK",
      "vis_m": 9999,
      "fzfg": false,
      "metar_trigger": false,
      "taf_trigger": false,
      "metar": "METAR EPWR 300830Z 29015KT CAVOK M02/M05 Q1017",
      "taf": "TAF EPWR 300830Z 3009/3109 30014KT CAVOK"
    },
    {
      "icao": "ESGG",
      "alert": "OK",
      "vis_m": 9999,
      "fzfg": false,
      "metar_trigger": false,
      "taf_trigger": false,
      "metar": "METAR ESGG 300850Z 34006KT CAVOK M02/M10 Q1021",
      "taf": "TAF ESGG 300830Z 3009/3109 34010KT CAVOK"
    },
    {
      "icao": "ESKN",
      "alert": "OK",
      "vis_m": 9999,
      "fzfg": false,
      "metar_trigger": false,
      "taf_trigger": false,
      "metar": "METAR ESKN 300850Z 33019KT 300V360 CAVOK M02/M10 Q1014",
      "taf": "TAF ESKN 300830Z 3009/3109 32016G26KT CAVOK"
    },
    {
      "icao": "ESMS",
      "alert": "OK",
      "vis_m": 9999,
      "fzfg": false,
      "metar_trigger": false,
      "taf_trigger": false,
      "metar": "METAR ESMS 300850Z 32013KT CAVOK M01/M08 Q1020",
      "taf": "TAF ESMS 300827Z 3009/3109 33014KT CAVOK"
    },
    {
      "icao": "ESSA",
      "alert": "OK",
      "vis_m": 9999,
      "fzfg": false,
      "metar_trigger": false,
      "taf_trigger": false,
      "metar": "METAR ESSA 300850Z 32018KT 9999 SCT031 M03/M10 Q1012 TEMPO 3000 SHSN SCT040TCU",
      "taf": "TAF ESSA 300830Z 3009/3109 32018G30KT CAVOK"
    },
    {
      "icao": "EYKA",
      "alert": "OK",
      "vis_m": 9999,
      "fzfg": false,
      "metar_trigger": false,
      "taf_trigger": false,
      "metar": "METAR EYKA 300850Z 29010KT 230V340 9999 -SN OVC031 M02/M06 Q0997",
      "taf": ""
    },
    {
      "icao": "EYPA",
      "alert": "OK",
      "vis_m": 9000,
      "fzfg": false,
      "metar_trigger": false,
      "taf_trigger": false,
      "metar": "METAR EYPA 300850Z 01012G23KT 320V040 9000 -SHSN SCT008 BKN013CB BKN021 M01/M03 Q1001",
      "taf": "TAF EYPA 300510Z 3006/3106 36014KT 9000 BKN025"
    },
    {
      "icao": "EYVI",
      "alert": "OK",
      "vis_m": 3800,
      "fzfg": false,
      "metar_trigger": false,
      "taf_trigger": false,
      "metar": "METAR EYVI 300850Z 30010KT 270V330 3800 SHSN BKN015CB OVC039 M04/M06 Q0995 TEMPO 0600 +SHSN BKN010",
      "taf": "TAF EYVI 300510Z 3006/3106 30013KT 8000 SCT015 BKN035"
    },
    {
      "icao": "GCFV",
      "alert": "OK",
      "vis_m": 9999,
      "fzfg": false,
      "metar_trigger": false,
      "taf_trigger": false,
      "metar": "METAR GCFV 300830Z 28008KT 9999 FEW035 15/11 Q1022",
      "taf": "TAF GCFV 300800Z 3009/3109 14005KT 9999 FEW030 TX21/3014Z TN14/3106Z"
    },
    {
      "icao": "GCLP",
      "alert": "OK",
      "vis_m": 9999,
      "fzfg": false,
      "metar_trigger": false,
      "taf_trigger": false,
      "metar": "METAR GCLP 300830Z 28004KT 250V340 9999 FEW030 16/12 Q1022 NOSIG",
      "taf": "TAF GCLP 300800Z 3009/3109 15006KT 9999 SCT030 TX22/3014Z TN15/3106Z"
    },
    {
      "icao": "GCTS",
      "alert": "OK",
      "vis_m": 9999,
      "fzfg": false,
      "metar_trigger": false,
      "taf_trigger": false,
      "metar": "METAR GCTS 300830Z 35004KT 9999 SCT020 16/12 Q1022 NOSIG",
      "taf": "TAF GCTS 300800Z 3009/3109 21007KT 9999 SCT030 TX24/3014Z TN16/3106Z"
    },
    {
      "icao": "GMAD",
      "alert": "OK",
      "vis_m": 9999,
      "fzfg": false,
      "metar_trigger": false,
      "taf_trigger": false,
      "metar": "METAR GMAD 300830Z 07004KT CAVOK 09/09 Q1021 NOSIG",
      "taf": "TAF GMAD 300500Z 3006/3112 06005KT 8000 SCT020"
    },
    {
      "icao": "GMMN",
      "alert": "OK",
      "vis_m": 9999,
      "fzfg": false,
      "metar_trigger": false,
      "taf_trigger": false,
      "metar": "METAR GMMN 300830Z 17005KT CAVOK 07/07 Q1021 NOSIG",
      "taf": "TAF GMMN 300500Z 3006/3112 18003KT 3000 BR FEW005 SCT016"
    },
    {
      "icao": "GMMX",
      "alert": "OK",
      "vis_m": 8000,
      "fzfg": false,
      "metar_trigger": false,
      "taf_trigger": false,
      "metar": "METAR GMMX 300830Z 09003KT 8000 FEW020 SCT080 08/07 Q1021 NOSIG",
      "taf": "TAF GMMX 300500Z 3006/3112 10006KT 8000 SCT020 SCT090"
    },
    {
      "icao": "HEGN",
      "alert": "OK",
      "vis_m": 9999,
      "fzfg": false,
      "metar_trigger": false,
      "taf_trigger": false,
      "metar": "METAR HEGN 300800Z 33010KT CAVOK 18/06 Q1022 NOSIG",
      "taf": "TAF HEGN 300500Z 3006/3112 34012KT CAVOK"
    },
    {
      "icao": "HEMA",
      "alert": "OK",
      "vis_m": 9999,
      "fzfg": false,
      "metar_trigger": false,
      "taf_trigger": false,
      "metar": "METAR HEMA 300800Z 33009KT CAVOK 22/08 Q1022 NOSIG",
      "taf": "TAF HEMA 300500Z 3006/3112 35012KT CAVOK"
    },
    {
      "icao": "HESH",
      "alert": "OK",
      "vis_m": 9999,
      "fzfg": false,
      "metar_trigger": false,
      "taf_trigger": false,
      "metar": "METAR HESH 300800Z 01007KT CAVOK 22/08 Q1021 NOSIG",
      "taf": "TAF HESH 300500Z 3006/3112 35012KT CAVOK"
    },
    {
      "icao": "HESX",
      "alert": "OK",
      "vis_m": 9999,
      "fzfg": false,
      "metar_trigger": false,
      "taf_trigger": false,
      "metar": "METAR HESX 300800Z 14004KT 9999 FEW030 17/08 Q1021 NOSIG",
      "taf": "TAF HESX 300500Z 3006/3112 23009KT 9999 SCT030 SCT100"
    },
    {
      "icao": "LATI",
      "alert": "OK",
      "vis_m": 9999,
      "fzfg": false,
      "metar_trigger": false,
      "taf_trigger": false,
      "metar": "METAR LATI 300850Z 17004KT 140V200 9999 SCT040 10/03 Q1013 NOSIG",
      "taf": "TAF LATI 300500Z 3006/3106 VRB05KT CAVOK TX15/3012Z TNM02/3105Z"
    },
    {
      "icao": "LBPD",
      "alert": "OK",
      "vis_m": 9999,
      "fzfg": false,
      "metar_trigger": false,
      "taf_trigger": false,
      "metar": "METAR LBPD 300830Z AUTO 03003KT 9999 NCD 03/M02 Q1008 NOSIG",
      "taf": "TAF LBPD 300500Z 3006/3106 VRB04KT CAVOK"
    },
    {
      "icao": "LBSF",
      "alert": "OK",
      "vis_m": 9999,
      "fzfg": false,
      "metar_trigger": false,
      "taf_trigger": false,
      "metar": "METAR LBSF 300830Z 27007KT CAVOK 01/M06 Q1010 BECMG 30014KT",
      "taf": "TAF LBSF 300500Z 3006/3106 VRB04KT CAVOK"
    },
    {
      "icao": "LBWN",
      "alert": "OK",
      "vis_m": 9999,
      "fzfg": false,
      "metar_trigger": false,
      "taf_trigger": false,
      "metar": "METAR LBWN 300830Z VRB04KT CAVOK 07/M05 Q1007 BECMG 27018G30KT",
      "taf": "TAF LBWN 300500Z 3006/3106 29008KT CAVOK"
    },
    {
      "icao": "LCLK",
      "alert": "OK",
      "vis_m": 9999,
      "fzfg": false,
      "metar_trigger": false,
      "taf_trigger": false,
      "metar": "METAR LCLK 300830Z VRB03KT 9999 FEW030 15/06 Q1020 NOSIG",
      "taf": "TAF LCLK 300530Z 3006/3106 33010KT 9999 FEW025"
    },
    {
      "icao": "LCPH",
      "alert": "OK",
      "vis_m": 9999,
      "fzfg": false,
      "metar_trigger": false,
      "taf_trigger": false,
      "metar": "METAR LCPH 300830Z 10004KT 070V160 9999 FEW025 SCT050 16/06 Q1019 NOSIG",
      "taf": "TAF LCPH 300530Z 3006/3106 07008KT 9999 FEW020"
    },
    {
      "icao": "LEAL",
      "alert": "OK",
      "vis_m": 9999,
      "fzfg": false,
      "metar_trigger": false,
      "taf_trigger": false,
      "metar": "METAR LEAL 300830Z 20003KT 170V230 CAVOK 10/08 Q1020 NOSIG",
      "taf": "TAF LEAL 300500Z 3006/3106 29008KT CAVOK TX18/3014Z TN07/3006Z"
    },
    {
      "icao": "LEBB",
      "alert": "OK",
      "vis_m": 9000,
      "fzfg": false,
      "metar_trigger": false,
      "taf_trigger": false,
      "metar": "METAR LEBB 300830Z 00000KT 9000 SCT015 BKN026 08/08 Q1022 NOSIG",
      "taf": "TAF LEBB 300500Z 3006/3106 VRB03KT 9999 SCT020 BKN030 TX12/3014Z TN05/3006Z"
    },
    {
      "icao": "LEBL",
      "alert": "OK",
      "vis_m": 9999,
      "fzfg": false,
      "metar_trigger": false,
      "taf_trigger": false,
      "metar": "METAR LEBL 300830Z 31010KT 280V340 9999 FEW020 09/07 Q1017 NOSIG",
      "taf": "TAF LEBL 300500Z 3006/3106 32008KT 9999 FEW020 TX15/3012Z TN07/3007Z"
    },
    {
      "icao": "LECH",
      "alert": "OK",
      "vis_m": 9000,
      "fzfg": false,
      "metar_trigger": false,
      "taf_trigger": false,
      "metar": "METAR LECH 300830Z AUTO 20003KT 160V270 9000 NCD 06/04 Q1019",
      "taf": ""
    },
    {
      "icao": "LEMD",
      "alert": "OK",
      "vis_m": 9999,
      "fzfg": false,
      "metar_trigger": false,
      "taf_trigger": false,
      "metar": "METAR LEMD 300830Z VRB02KT 9999 VCFG FEW002 M01/M01 Q1021 NOSIG",
      "taf": "TAF LEMD 300500Z 3006/3112 VRB04KT CAVOK TX11/3015Z TNM02/3107Z"
    },
    {
      "icao": "LEMG",
      "alert": "OK",
      "vis_m": 9999,
      "fzfg": false,
      "metar_trigger": false,
      "taf_trigger": false,
      "metar": "METAR LEMG 300830Z 31007KT CAVOK 07/06 Q1022 NOSIG",
      "taf": "TAF LEMG 300500Z 3006/3106 30009KT CAVOK TX18/3014Z TN06/3006Z"
    },
    {
      "icao": "LEVC",
      "alert": "OK",
      "vis_m": 9999,
      "fzfg": false,
      "metar_trigger": false,
      "taf_trigger": false,
      "metar": "METAR LEVC 300830Z 27004KT CAVOK 07/06 Q1019 NOSIG",
      "taf": "TAF LEVC 300500Z 3006/3106 29006KT CAVOK TX17/3014Z TN04/3106Z"
    },
    {
      "icao": "LEXJ",
      "alert": "OK",
      "vis_m": 9999,
      "fzfg": false,
      "metar_trigger": false,
      "taf_trigger": false,
      "metar": "METAR LEXJ 300830Z VRB01KT 9999 FEW015 BKN035 09/07 Q1023",
      "taf": "TAF LEXJ 300800Z 3009/3109 VRB03KT 9999 SCT015 BKN035 TX12/3015Z TN07/3108Z"
    },
    {
      "icao": "LEZG",
      "alert": "OK",
      "vis_m": 9999,
      "fzfg": false,
      "metar_trigger": false,
      "taf_trigger": false,
      "metar": "METAR LEZG 300830Z VRB01KT CAVOK 05/05 Q1020 NOSIG",
      "taf": "TAF LEZG 300500Z 3006/3106 29008KT 9999 FEW010 TX12/3014Z TN04/3006Z"
    },
    {
      "icao": "LEZL",
      "alert": "OK",
      "vis_m": 4800,
      "fzfg": false,
      "metar_trigger": false,
      "taf_trigger": false,
      "metar": "METAR LEZL 300830Z VRB01KT 4800 BR FEW009 06/06 Q1022 NOSIG",
      "taf": "TAF LEZL 300800Z 3009/3109 05005KT CAVOK TX16/3015Z TN04/3106Z"
    },
    {
      "icao": "LFBD",
      "alert": "OK",
      "vis_m": 1500,
      "fzfg": false,
      "metar_trigger": false,
      "taf_trigger": false,
      "metar": "METAR LFBD 300830Z AUTO 01008KT 1500 1400 R23/2000U R05/2200U R29/2100N BR OVC002 00/M00 Q1023 BECMG 9999 NSW BKN008",
      "taf": ""
    },
    {
      "icao": "LFLL",
      "alert": "OK",
      "vis_m": 6000,
      "fzfg": false,
      "metar_trigger": false,
      "taf_trigger": false,
      "metar": "METAR LFLL 300830Z 36015KT 6000 OVC008 M02/M04 Q1023 NOSIG",
      "taf": "TAF LFLL 300500Z 3006/3112 36005KT 9999 OVC009"
    },
    {
      "icao": "LFLS",
      "alert": "OK",
      "vis_m": 4400,
      "fzfg": false,
      "metar_trigger": false,
      "taf_trigger": false,
      "metar": "METAR LFLS 300830Z AUTO 34013KT 4400 BR OVC004 M02/M03 Q1021 NOSIG",
      "taf": "TAF LFLS 300800Z 3009/3109 34009KT 9999 OVC008"
    },
    {
      "icao": "LFMN",
      "alert": "OK",
      "vis_m": 9999,
      "fzfg": false,
      "metar_trigger": false,
      "taf_trigger": false,
      "metar": "METAR LFMN 300830Z 33013KT CAVOK 06/M03 Q1012 NOSIG",
      "taf": "TAF LFMN 300800Z 3009/3115 33010KT CAVOK"
    },
    {
      "icao": "LFOB",
      "alert": "OK",
      "vis_m": 700,
      "fzfg": false,
      "metar_trigger": false,
      "taf_trigger": false,
      "metar": "METAR LFOB 300830Z AUTO 02007KT 350V050 0700 0650 R30/0800D R12/1300U FG VV/// 01/01 Q1030 TEMPO 4000 BR OVC002",
      "taf": ""
    },
    {
      "icao": "LFPO",
      "alert": "OK",
      "vis_m": 7000,
      "fzfg": false,
      "metar_trigger": false,
      "taf_trigger": false,
      "metar": "METAR LFPO 300830Z AUTO 03007KT 7000 FEW008 BKN039 03/01 Q1029 TEMPO BKN008",
      "taf": "TAF LFPO 300500Z 3006/3112 02007KT 9999 BKN035"
    },
    {
      "icao": "LFSB",
      "alert": "OK",
      "vis_m": 9000,
      "fzfg": false,
      "metar_trigger": false,
      "taf_trigger": false,
      "metar": "METAR LFSB 300830Z AUTO 23001KT 9000 FEW022 OVC042 M02/M04 Q1025 TEMPO 3000 BR OVC006",
      "taf": ""
    },
    {
      "icao": "LGAV",
      "alert": "OK",
      "vis_m": 9999,
      "fzfg": false,
      "metar_trigger": false,
      "taf_trigger": false,
      "metar": "METAR LGAV 300850Z 24009KT 9999 FEW025 14/07 Q1012 NOSIG",
      "taf": "TAF LGAV 300500Z 3006/3106 25010KT 9999 FEW025"
    },
    {
      "icao": "LGTS",
      "alert": "OK",
      "vis_m": 9999,
      "fzfg": false,
      "metar_trigger": false,
      "taf_trigger": false,
      "metar": "METAR LGTS 300850Z VRB01KT CAVOK 07/01 Q1011 NOSIG",
      "taf": "TAF LGTS 300500Z 3006/3106 VRB03KT CAVOK"
    },
    {
      "icao": "LHBP",
      "alert": "OK",
      "vis_m": 9999,
      "fzfg": false,
      "metar_trigger": false,
      "taf_trigger": false,
      "metar": "METAR LHBP 300830Z 31016KT CAVOK 01/M03 Q1014 NOSIG",
      "taf": "TAF LHBP 300515Z 3006/3106 31015G27KT 9999 SCT040"
    },
    {
      "icao": "LHDC",
      "alert": "OK",
      "vis_m": 4100,
      "fzfg": false,
      "metar_trigger": false,
      "taf_trigger": false,
      "metar": "METAR LHDC 300815Z AUTO 18005KT 150V210 4100 BR NSC M04/M05 Q1013 NOSIG",
      "taf": "TAF LHDC 300815Z 3009/3018 18005KT 9999 BKN045"
    },
    {
      "icao": "LIBD",
      "alert": "OK",
      "vis_m": 9999,
      "fzfg": false,
      "metar_trigger": false,
      "taf_trigger": false,
      "metar": "METAR LIBD 300850Z 23002KT CAVOK 10/05 Q1011",
      "taf": "TAF LIBD 300500Z 3006/3106 20006KT 9999 SCT030"
    },
    {
      "icao": "LIBG",
      "alert": "OK",
      "vis_m": 9999,
      "fzfg": false,
      "metar_trigger": false,
      "taf_trigger": false,
      "metar": "METAR LIBG 300750Z 09002KT CAVOK 05/05 Q1012",
      "taf": "TAF LIBG 300800Z 3009/3018 VRB05KT CAVOK"
    },
    {
      "icao": "LIBP",
      "alert": "OK",
      "vis_m": 9999,
      "fzfg": false,
      "metar_trigger": false,
      "taf_trigger": false,
      "metar": "METAR LIBP 300850Z AUTO 24006KT 9999 SCT013/// BKN030/// 04/00 Q1014",
      "taf": "TAF LIBP 300500Z 3006/3106 VRB05KT 1200 BCFG FEW030"
    },
    {
      "icao": "LIBR",
      "alert": "OK",
      "vis_m": 9999,
      "fzfg": false,
      "metar_trigger": false,
      "taf_trigger": false,
      "metar": "METAR LIBR 300850Z 18005KT CAVOK 11/08 Q1012",
      "taf": "TAF LIBR 300500Z 3006/3106 23006KT 9999 FEW025"
    },
    {
      "icao": "LICA",
      "alert": "OK",
      "vis_m": 9999,
      "fzfg": false,
      "metar_trigger": false,
      "taf_trigger": false,
      "metar": "METAR LICA 300850Z AUTO 28006KT 9999 FEW071/// 13/10 Q1012",
      "taf": "TAF LICA 300500Z 3006/3106 07006KT 9999 SCT030"
    },
    {
      "icao": "LICC",
      "alert": "OK",
      "vis_m": 9999,
      "fzfg": false,
      "metar_trigger": false,
      "taf_trigger": false,
      "metar": "METAR LICC 300850Z 25008KT CAVOK 13/10 Q1013",
      "taf": "TAF LICC 300500Z 3006/3106 26010KT 9999 SCT030"
    },
    {
      "icao": "LICJ",
      "alert": "OK",
      "vis_m": 9999,
      "fzfg": false,
      "metar_trigger": false,
      "taf_trigger": false,
      "metar": "METAR LICJ 300850Z 20006KT CAVOK 13/10 Q1014",
      "taf": "TAF LICJ 300500Z 3006/3106 17006KT 9999 SCT020"
    },
    {
      "icao": "LIMC",
      "alert": "OK",
      "vis_m": 9999,
      "fzfg": false,
      "metar_trigger": false,
      "taf_trigger": false,
      "metar": "METAR LIMC 300850Z VRB02KT CAVOK 01/00 Q1012 NOSIG",
      "taf": "TAF LIMC 300500Z 3006/3112 VRB04KT CAVOK"
    },
    {
      "icao": "LIME",
      "alert": "OK",
      "vis_m": 9999,
      "fzfg": false,
      "metar_trigger": false,
      "taf_trigger": false,
      "metar": "METAR LIME 300850Z 12007KT 9999 SCT003 03/00 Q1013 NOSIG",
      "taf": "TAF LIME 300500Z 3006/3106 VRB04KT CAVOK"
    },
    {
      "icao": "LIMF",
      "alert": "OK",
      "vis_m": 9999,
      "fzfg": false,
      "metar_trigger": false,
      "taf_trigger": false,
      "metar": "METAR LIMF 300850Z 24003KT 200V300 CAVOK 04/M03 Q1012",
      "taf": "TAF LIMF 300500Z 3006/3106 VRB05KT CAVOK"
    },
    {
      "icao": "LIMJ",
      "alert": "OK",
      "vis_m": 9999,
      "fzfg": false,
      "metar_trigger": false,
      "taf_trigger": false,
      "metar": "METAR LIMJ 300850Z VRB01KT 9999 BKN040 10/08 Q1012",
      "taf": "TAF LIMJ 300500Z 3006/3106 VRB05KT 9999 FEW020"
    },
    {
      "icao": "LIPE",
      "alert": "CRITICAL",
      "vis_m": 100,
      "fzfg": true,
      "metar_trigger": true,
      "taf_trigger": false,
      "metar": "METAR LIPE 300850Z 08003KT 040V110 0100 R12/0450N R30/0325N FZFG VV001 M01/M01 Q1014",
      "taf": ""
    },
    {
      "icao": "LIPH",
      "alert": "OK",
      "vis_m": 8000,
      "fzfg": false,
      "metar_trigger": false,
      "taf_trigger": false,
      "metar": "METAR LIPH 300850Z 02005KT 8000 SCT015 BKN025 04/03 Q1015",
      "taf": "TAF LIPH 300500Z 3006/3106 VRB05KT 7000 BKN013"
    },
    {
      "icao": "LIPQ",
      "alert": "OK",
      "vis_m": 9999,
      "fzfg": false,
      "metar_trigger": false,
      "taf_trigger": false,
      "metar": "METAR LIPQ 300850Z AUTO 36003KT 300V040 9999 NCD 05/M00 Q1015",
      "taf": "TAF LIPQ 300500Z 3006/3106 VRB05KT 9999 FEW020"
    },
    {
      "icao": "LIPR",
      "alert": "OK",
      "vis_m": 8000,
      "fzfg": false,
      "metar_trigger": false,
      "taf_trigger": false,
      "metar": "METAR LIPR 300850Z 28005KT 8000 NSC 02/01 Q1014",
      "taf": "TAF LIPR 300500Z 3006/3106 VRB05KT 7000 FEW020"
    },
    {
      "icao": "LIPX",
      "alert": "CRITICAL",
      "vis_m": 100,
      "fzfg": true,
      "metar_trigger": true,
      "taf_trigger": false,
      "metar": "METAR LIPX 300850Z VRB01KT 0100 R04/0250N FZFG VV001 M03/M03 Q1014",
      "taf": "TAF LIPX 300500Z 3006/3106 VRB05KT 1000 BCFG NSC"
    },
    {
      "icao": "LIPY",
      "alert": "OK",
      "vis_m": 9999,
      "fzfg": false,
      "metar_trigger": false,
      "taf_trigger": false,
      "metar": "METAR LIPY 300850Z AUTO 25003KT 200V310 9999 NCD 06/05 Q1013",
      "taf": "TAF LIPY 300500Z 3006/3106 VRB05KT 7000 SCT015"
    },
    {
      "icao": "LIPZ",
      "alert": "OK",
      "vis_m": 7000,
      "fzfg": false,
      "metar_trigger": false,
      "taf_trigger": false,
      "metar": "METAR LIPZ 300850Z 02006KT 340V040 7000 BKN020 04/03 Q1014 NOSIG",
      "taf": "TAF LIPZ 300500Z 3006/3112 VRB05KT 2000 BR SCT012"
    },
    {
      "icao": "LIRF",
      "alert": "OK",
      "vis_m": 9999,
      "fzfg": false,
      "metar_trigger": false,
      "taf_trigger": false,
      "metar": "METAR LIRF 300850Z 06004KT CAVOK 09/05 Q1013 NOSIG",
      "taf": "TAF LIRF 300500Z 3006/3112 07007KT 9999 SCT025"
    },
    {
      "icao": "LIRN",
      "alert": "OK",
      "vis_m": 9999,
      "fzfg": false,
      "metar_trigger": false,
      "taf_trigger": false,
      "metar": "METAR LIRN 300850Z 02003KT 340V070 9999 BKN030 10/05 Q1013 NOSIG",
      "taf": "TAF LIRN 300500Z 3006/3106 VRB05KT 9999 FEW025"
    },
    {
      "icao": "LIRP",
      "alert": "OK",
      "vis_m": 9999,
      "fzfg": false,
      "metar_trigger": false,
      "taf_trigger": false,
      "metar": "METAR LIRP 300845Z 12005KT 9999 FEW040 06/04 Q1012 NOSIG",
      "taf": "TAF LIRP 300500Z 3006/3106 14005KT 9999 SCT020 SCT040"
    },
    {
      "icao": "LIRZ",
      "alert": "OK",
      "vis_m": 9999,
      "fzfg": false,
      "metar_trigger": false,
      "taf_trigger": false,
      "metar": "METAR LIRZ 300850Z AUTO VRB01KT 9999 BKN040/// 04/02 Q1014",
      "taf": "TAF LIRZ 300500Z 3006/3106 VRB03KT 9999 FEW030"
    },
    {
      "icao": "LJLJ",
      "alert": "OK",
      "vis_m": 9999,
      "fzfg": false,
      "metar_trigger": false,
      "taf_trigger": false,
      "metar": "METAR LJLJ 300830Z 27003KT 9999 FEW010 M04/M04 Q1018 NOSIG",
      "taf": "TAF LJLJ 300500Z 3006/3106 30002KT 9999 FEW002"
    },
    {
      "icao": "LKMT",
      "alert": "OK",
      "vis_m": 9999,
      "fzfg": false,
      "metar_trigger": false,
      "taf_trigger": false,
      "metar": "METAR LKMT 300830Z 31009KT 9999 FEW033 M02/M07 Q1016 NOSIG",
      "taf": "TAF LKMT 300500Z 3006/3106 34010KT CAVOK"
    },
    {
      "icao": "LKPR",
      "alert": "OK",
      "vis_m": 9999,
      "fzfg": false,
      "metar_trigger": false,
      "taf_trigger": false,
      "metar": "METAR LKPR 300830Z 25009KT 9999 FEW047 M03/M06 Q1020 NOSIG",
      "taf": "TAF LKPR 300800Z 3009/3115 30015KT 9999 SCT025"
    },
    {
      "icao": "LLBG",
      "alert": "OK",
      "vis_m": 9999,
      "fzfg": false,
      "metar_trigger": false,
      "taf_trigger": false,
      "metar": "METAR LLBG 300850Z 17009KT 9999 FEW050 16/10 Q1021 NOSIG RMK BKN070",
      "taf": "TAF LLBG 300504Z 3006/3106 17006KT 9999 SCT040"
    },
    {
      "icao": "LMML",
      "alert": "OK",
      "vis_m": 9999,
      "fzfg": false,
      "metar_trigger": false,
      "taf_trigger": false,
      "metar": "METAR LMML 300845Z 29006KT 250V310 9999 FEW020 16/11 Q1014 NOSIG",
      "taf": "TAF LMML 300500Z 3006/3106 27005KT 9999 SCT023"
    },
    {
      "icao": "LOWW",
      "alert": "OK",
      "vis_m": 9999,
      "fzfg": false,
      "metar_trigger": false,
      "taf_trigger": false,
      "metar": "METAR LOWW 300850Z 33017KT CAVOK 01/M07 Q1019 NOSIG",
      "taf": "TAF LOWW 300815Z 3009/3115 31015KT CAVOK TX02/3012Z TNM02/3106Z"
    },
    {
      "icao": "LPFR",
      "alert": "OK",
      "vis_m": 9999,
      "fzfg": false,
      "metar_trigger": false,
      "taf_trigger": false,
      "metar": "METAR LPFR 300830Z 04005KT 9999 FEW025 08/07 Q1021",
      "taf": "TAF LPFR 300500Z 3006/3106 03005KT CAVOK"
    },
    {
      "icao": "LPMA",
      "alert": "OK",
      "vis_m": 9999,
      "fzfg": false,
      "metar_trigger": false,
      "taf_trigger": false,
      "metar": "METAR LPMA 300830Z 00000KT 9999 FEW012 16/13 Q1018",
      "taf": "TAF LPMA 300500Z 3006/3106 22012KT 9999 SCT015"
    },
    {
      "icao": "LPPR",
      "alert": "OK",
      "vis_m": 9999,
      "fzfg": false,
      "metar_trigger": false,
      "taf_trigger": false,
      "metar": "METAR LPPR 300830Z 11009KT CAVOK 06/05 Q1022",
      "taf": "TAF LPPR 300500Z 3006/3106 09007KT 6000 FEW004"
    },
    {
      "icao": "LPPS",
      "alert": "OK",
      "vis_m": 9999,
      "fzfg": false,
      "metar_trigger": false,
      "taf_trigger": false,
      "metar": "METAR LPPS 300830Z 27003KT 9999 SCT006 18/16 Q1018",
      "taf": "TAF LPPS 300500Z 3006/3112 29010KT 9999 SCT015"
    },
    {
      "icao": "LPPT",
      "alert": "OK",
      "vis_m": 200,
      "fzfg": false,
      "metar_trigger": false,
      "taf_trigger": false,
      "metar": "METAR LPPT 300830Z 00000KT 0200 R02/0300N FG VV001 04/04 Q1021",
      "taf": "TAF LPPT 300500Z 3006/3112 VRB02KT 0100 FG VV001"
    },
    {
      "icao": "LQBK",
      "alert": "OK",
      "vis_m": 1200,
      "fzfg": false,
      "metar_trigger": false,
      "taf_trigger": false,
      "metar": "METAR LQBK 300830Z 30004KT 1200 R16/1200N BCFG BKN003 M04/M04 Q1019 BECMG 36010KT 7000 NSW SCT003",
      "taf": "TAF LQBK 300500Z 3006/3106 30005KT 9999 SCT030 TX03/3013Z TNM07/3105Z"
    },
    {
      "icao": "LQSA",
      "alert": "OK",
      "vis_m": 6000,
      "fzfg": false,
      "metar_trigger": false,
      "taf_trigger": false,
      "metar": "METAR LQSA 300830Z VRB01KT 6000 NSC M04/M06 Q1017 NOSIG",
      "taf": "TAF LQSA 300500Z 3006/3106 VRB02KT CAVOK TX03/3013Z TNM09/3106Z"
    },
    {
      "icao": "LQTZ",
      "alert": "OK",
      "vis_m": 3200,
      "fzfg": false,
      "metar_trigger": false,
      "taf_trigger": false,
      "metar": "METAR LQTZ 300830Z VRB02KT 3200 BR SCT036 BKN042 M04/M04 Q1018",
      "taf": "TAF LQTZ 300500Z 3006/3106 29005KT 9999 BKN030 TX02/3013Z TNM08/3105Z"
    },
    {
      "icao": "LRBC",
      "alert": "OK",
      "vis_m": 9999,
      "fzfg": false,
      "metar_trigger": false,
      "taf_trigger": false,
      "metar": "METAR LRBC 300830Z 02009G21KT 9999 -SN FEW038 OVC049 M02/M04 Q1007",
      "taf": "TAF LRBC 300800Z 3009/3018 11006KT 9999 BKN055"
    },
    {
      "icao": "LRBS",
      "alert": "OK",
      "vis_m": 9999,
      "fzfg": false,
      "metar_trigger": false,
      "taf_trigger": false,
      "metar": "METAR LRBS 300830Z VRB02KT CAVOK M01/M05 Q1007 NOSIG",
      "taf": "TAF LRBS 300500Z 3006/3106 VRB04KT CAVOK"
    },
    {
      "icao": "LRBV",
      "alert": "OK",
      "vis_m": 5000,
      "fzfg": false,
      "metar_trigger": false,
      "taf_trigger": false,
      "metar": "METAR LRBV 300830Z 29009KT 260V320 5000 -SN SCT016 BKN025 M03/M06 Q1008",
      "taf": "TAF LRBV 300800Z 3009/3018 30015KT 9999 -SN BKN030"
    },
    {
      "icao": "LRCL",
      "alert": "OK",
      "vis_m": 9999,
      "fzfg": false,
      "metar_trigger": false,
      "taf_trigger": false,
      "metar": "METAR LRCL 300830Z 24006KT 200V290 9999 -SN BKN025 OVC062 M01/M04 Q1010",
      "taf": "TAF LRCL 300800Z 3009/3018 27005KT 9999 -SN BKN035"
    },
    {
      "icao": "LRCV",
      "alert": "OK",
      "vis_m": 9999,
      "fzfg": false,
      "metar_trigger": false,
      "taf_trigger": false,
      "metar": "METAR LRCV 300830Z 29023KT CAVOK 01/M04 Q1008",
      "taf": "TAF LRCV 300800Z 3009/3018 28018KT CAVOK"
    },
    {
      "icao": "LRIA",
      "alert": "OK",
      "vis_m": 9999,
      "fzfg": false,
      "metar_trigger": false,
      "taf_trigger": false,
      "metar": "METAR LRIA 300830Z 30012KT 9999 SCT016 SCT040 00/M03 Q1006",
      "taf": "TAF LRIA 300800Z 3009/3018 30012KT 9999 SCT040"
    },
    {
      "icao": "LROP",
      "alert": "OK",
      "vis_m": 9999,
      "fzfg": false,
      "metar_trigger": false,
      "taf_trigger": false,
      "metar": "METAR LROP 300830Z 31003KT 260V010 CAVOK M02/M06 Q1007 NOSIG",
      "taf": "TAF LROP 300500Z 3006/3106 VRB04KT CAVOK"
    },
    {
      "icao": "LRSB",
      "alert": "OK",
      "vis_m": 9999,
      "fzfg": false,
      "metar_trigger": false,
      "taf_trigger": false,
      "metar": "METAR LRSB 300830Z 31010KT 9999 FEW034 BKN047 M02/M06 Q1009",
      "taf": "TAF LRSB 300500Z 3006/3106 30012KT 9999 SCT020 BKN050"
    },
    {
      "icao": "LRSM",
      "alert": "OK",
      "vis_m": 9999,
      "fzfg": false,
      "metar_trigger": false,
      "taf_trigger": false,
      "metar": "METAR LRSM 300830Z 26008KT CAVOK M03/M05 Q1011",
      "taf": "TAF LRSM 300800Z 3009/3018 29010KT 9999 BKN040"
    },
    {
      "icao": "LRSV",
      "alert": "OK",
      "vis_m": 9999,
      "fzfg": false,
      "metar_trigger": false,
      "taf_trigger": false,
      "metar": "METAR LRSV 300830Z COR 32014KT 9999 SCT025 M03/M07 Q1005",
      "taf": "TAF LRSV 300800Z 3009/3018 32014KT 9999 BKN045"
    },
    {
      "icao": "LRTM",
      "alert": "OK",
      "vis_m": 4200,
      "fzfg": false,
      "metar_trigger": false,
      "taf_trigger": false,
      "metar": "METAR LRTM 300830Z 26004KT 230V290 4200 -SN BR SCT017 BKN026 OVC035 M04/M05 Q1010",
      "taf": "TAF LRTM 300800Z 3009/3018 VRB04KT 5000 -SN BR BKN035"
    },
    {
      "icao": "LRTR",
      "alert": "OK",
      "vis_m": 9999,
      "fzfg": false,
      "metar_trigger": false,
      "taf_trigger": false,
      "metar": "METAR LRTR 300830Z VRB02KT 9999 OVC030 M02/M02 Q1014",
      "taf": "TAF LRTR 300500Z 3006/3106 26008KT 9999 BKN025"
    },
    {
      "icao": "LTAC",
      "alert": "OK",
      "vis_m": 9999,
      "fzfg": false,
      "metar_trigger": false,
      "taf_trigger": false,
      "metar": "METAR LTAC 300850Z 25006KT 210V270 9999 FEW040 M00/M08 Q1013 NOSIG",
      "taf": "TAF LTAC 300440Z 3006/3106 19007KT 9999 SCT040"
    },
    {
      "icao": "LTFM",
      "alert": "OK",
      "vis_m": 9999,
      "fzfg": false,
      "metar_trigger": false,
      "taf_trigger": false,
      "metar": "METAR LTFM 300850Z 22028KT 9999 SCT025 11/03 Q1009 NOSIG",
      "taf": "TAF LTFM 300440Z 3006/3112 21023G33KT 9999 SCT025"
    },
    {
      "icao": "LUKK",
      "alert": "OK",
      "vis_m": 9999,
      "fzfg": false,
      "metar_trigger": false,
      "taf_trigger": false,
      "metar": "METAR LUKK 300830Z 31016KT 9999 -SN SCT023 BKN028 OVC036 M00/M02 Q1005 NOSIG",
      "taf": "TAF LUKK 300510Z 3006/3106 29012KT 9999 BKN040"
    },
    {
      "icao": "LWOH",
      "alert": "OK",
      "vis_m": 9999,
      "fzfg": false,
      "metar_trigger": false,
      "taf_trigger": false,
      "metar": "METAR LWOH 300850Z 00000KT CAVOK 04/M01 Q1012",
      "taf": "TAF LWOH 300825Z 3009/3109 16006KT CAVOK"
    },
    {
      "icao": "LWSK",
      "alert": "OK",
      "vis_m": 9999,
      "fzfg": false,
      "metar_trigger": false,
      "taf_trigger": false,
      "metar": "METAR LWSK 300850Z VRB02KT CAVOK M01/M05 Q1013 NOSIG",
      "taf": "TAF LWSK 300825Z 3009/3109 VRB02KT CAVOK"
    },
    {
      "icao": "LYBE",
      "alert": "OK",
      "vis_m": 9999,
      "fzfg": false,
      "metar_trigger": false,
      "taf_trigger": false,
      "metar": "METAR LYBE 300830Z 27011KT 9999 BKN035 M01/M03 Q1016 NOSIG",
      "taf": "TAF LYBE 300500Z 3006/3106 27010KT 9999 SCT027 TX04/3013Z TNM05/3106Z"
    },
    {
      "icao": "LYNI",
      "alert": "OK",
      "vis_m": 9999,
      "fzfg": false,
      "metar_trigger": false,
      "taf_trigger": false,
      "metar": "METAR LYNI 300830Z 35007KT 300V030 9999 FEW040 01/M04 Q1015 NOSIG",
      "taf": "TAF LYNI 300500Z 3006/3106 30006KT 9999 SCT030 TX03/3012Z TNM05/3006Z"
    },
    {
      "icao": "LYPG",
      "alert": "OK",
      "vis_m": 9999,
      "fzfg": false,
      "metar_trigger": false,
      "taf_trigger": false,
      "metar": "METAR LYPG 300830Z VRB02KT 9999 BKN040 03/M03 Q1014 NOSIG",
      "taf": "TAF LYPG 300500Z 3006/3106 36006KT 9999 SCT050 TX10/3013Z TNM02/3006Z"
    },
    {
      "icao": "LZIB",
      "alert": "OK",
      "vis_m": 9999,
      "fzfg": false,
      "metar_trigger": false,
      "taf_trigger": false,
      "metar": "METAR LZIB 300830Z 33014KT 9999 FEW028 01/M06 Q1018 NOSIG",
      "taf": "TAF LZIB 300515Z 3006/3106 30010KT CAVOK"
    },
    {
      "icao": "LZKZ",
      "alert": "OK",
      "vis_m": 9999,
      "fzfg": false,
      "metar_trigger": false,
      "taf_trigger": false,
      "metar": "METAR LZKZ 300830Z 31011KT 9999 FEW048 M00/M09 Q1011 NOSIG",
      "taf": "TAF LZKZ 300515Z 3006/3106 35008KT CAVOK"
    },
    {
      "icao": "LZTT",
      "alert": "OK",
      "vis_m": 9999,
      "fzfg": false,
      "metar_trigger": false,
      "taf_trigger": false,
      "metar": "METAR LZTT 300830Z 27012KT 9999 SCT033 M03/M14 Q1008 NOSIG",
      "taf": "TAF LZTT 300515Z 3006/3106 27007KT 9999 -SN SCT012 BKN018"
    },
    {
      "icao": "OEJN",
      "alert": "OK",
      "vis_m": 9999,
      "fzfg": false,
      "metar_trigger": false,
      "taf_trigger": false,
      "metar": "METAR OEJN 300800Z 03007KT CAVOK 27/04 Q1019 NOSIG",
      "taf": "TAF OEJN 300500Z 3006/3112 33014KT 7000 NSC"
    },
    {
      "icao": "OEMA",
      "alert": "OK",
      "vis_m": 9999,
      "fzfg": false,
      "metar_trigger": false,
      "taf_trigger": false,
      "metar": "METAR OEMA 300800Z VRB03KT CAVOK 19/04 Q1024 NOSIG",
      "taf": "TAF OEMA 300500Z 3006/3112 09008KT CAVOK"
    },
    {
      "icao": "OJAI",
      "alert": "OK",
      "vis_m": 4000,
      "fzfg": false,
      "metar_trigger": false,
      "taf_trigger": false,
      "metar": "METAR OJAI 300800Z 23010KT 4000 BR SCT025 BKN030 10/08 Q1022 NOSIG",
      "taf": "TAF OJAI 300446Z 3006/3112 25012KT 3000 BR SCT030"
    },
    {
      "icao": "OMAA",
      "alert": "OK",
      "vis_m": 9999,
      "fzfg": false,
      "metar_trigger": false,
      "taf_trigger": false,
      "metar": "METAR OMAA 300800Z 31014KT 9999 FEW045 24/06 Q1017 NOSIG",
      "taf": "TAF OMAA 300500Z 3006/3112 31013KT 8000 FEW040"
    },
    {
      "icao": "OMDB",
      "alert": "OK",
      "vis_m": 9999,
      "fzfg": false,
      "metar_trigger": false,
      "taf_trigger": false,
      "metar": "METAR OMDB 300830Z 29021KT CAVOK 25/06 Q1015 TEMPO 28022G32KT",
      "taf": "TAF OMDB 300500Z 3006/3112 29014KT 8000 FEW040"
    },
    {
      "icao": "UAAA",
      "alert": "OK",
      "vis_m": 9999,
      "fzfg": false,
      "metar_trigger": false,
      "taf_trigger": false,
      "metar": "METAR UAAA 300830Z 22005MPS 9999 SCT100 BKN200 09/M02 Q1006 NOSIG",
      "taf": "TAF UAAA 300504Z 3006/3106 03003MPS 6000 FEW050CB BKN100 TX07/3009Z TNM03/3101Z"
    },
    {
      "icao": "UBBB",
      "alert": "OK",
      "vis_m": 9999,
      "fzfg": false,
      "metar_trigger": false,
      "taf_trigger": false,
      "metar": "METAR UBBB 300830Z 31020G30KT 9999 BKN024 07/02 Q1009 NOSIG",
      "taf": "TAF UBBB 300505Z 3006/3106 32016G26KT 9999 SCT030 TX08/3006Z TN02/3102Z"
    },
    {
      "icao": "UDSG",
      "alert": "OK",
      "vis_m": 9999,
      "fzfg": false,
      "metar_trigger": false,
      "taf_trigger": false,
      "metar": "METAR UDSG 300830Z 24005KT 9999 NSC M05/M14 Q1011 NOSIG",
      "taf": "TAF UDSG 300458Z 3006/3106 VRB06KT 9999 FEW050"
    },
    {
      "icao": "UDYZ",
      "alert": "OK",
      "vis_m": 5000,
      "fzfg": false,
      "metar_trigger": false,
      "taf_trigger": false,
      "metar": "METAR UDYZ 300830Z 00000KT 5000 BR NSC M02/M06 Q1015 NOSIG",
      "taf": "TAF UDYZ 300500Z 3006/3106 VRB04KT 3500 BR FEW040"
    },
    {
      "icao": "UGKO",
      "alert": "OK",
      "vis_m": 5000,
      "fzfg": false,
      "metar_trigger": false,
      "taf_trigger": false,
      "metar": "METAR UGKO 300830Z 23014KT 5000 -RA BR SCT006 BKN020 OVC030 01/00 Q1015 NOSIG",
      "taf": "TAF UGKO 300500Z 3006/3106 25010KT 7000 -SNRA SCT015 OVC035 TX02/3009Z TNM01/3015Z"
    }
  ]
}