{
  "ts_utc": "2026-04-21T15:52:15Z",
  "threshold_m": 150,
  "source": "stations_override.txt (ICAO list) + aviationweather.gov (METAR/TAF raw)",
  "station_count": 159,
  "stations": [
    {
      "icao": "BIKF",
      "alert": "OK",
      "vis_m": 9999,
      "fzfg": false,
      "metar_trigger": false,
      "taf_trigger": false,
      "metar": "METAR BIKF 211530Z 31007KT 280V350 9999 VCFG BKN005 07/05 Q1040",
      "taf": "TAF BIKF 211348Z 2115/2215 31005KT 9999 BKN008 TX10/2115Z TN04/2206Z"
    },
    {
      "icao": "BKPR",
      "alert": "OK",
      "vis_m": 9999,
      "fzfg": false,
      "metar_trigger": false,
      "taf_trigger": false,
      "metar": "METAR BKPR 211530Z 20003KT 160V230 9999 BKN050 08/05 Q1014 NOSIG",
      "taf": "TAF BKPR 211130Z 2112/2212 01009KT 9999 SCT020 BKN040"
    },
    {
      "icao": "EBCI",
      "alert": "OK",
      "vis_m": 9999,
      "fzfg": false,
      "metar_trigger": false,
      "taf_trigger": false,
      "metar": "METAR EBCI 211520Z 06013G23KT 9999 FEW045 15/02 Q1021 NOSIG",
      "taf": "TAF EBCI 211100Z 2112/2218 05010KT 9999 SCT035"
    },
    {
      "icao": "EDDB",
      "alert": "OK",
      "vis_m": 9999,
      "fzfg": false,
      "metar_trigger": false,
      "taf_trigger": false,
      "metar": "METAR EDDB 211520Z AUTO 01008KT 320V090 CAVOK 14/M02 Q1023 NOSIG",
      "taf": "TAF EDDB 211100Z 2112/2212 03010KT 9999 FEW045"
    },
    {
      "icao": "EDDH",
      "alert": "OK",
      "vis_m": 9999,
      "fzfg": false,
      "metar_trigger": false,
      "taf_trigger": false,
      "metar": "METAR EDDH 211520Z AUTO 06010KT 020V090 CAVOK 12/M02 Q1026 NOSIG",
      "taf": "TAF EDDH 211100Z 2112/2218 04010KT CAVOK"
    },
    {
      "icao": "EDDK",
      "alert": "OK",
      "vis_m": 9999,
      "fzfg": false,
      "metar_trigger": false,
      "taf_trigger": false,
      "metar": "METAR EDDK 211520Z AUTO 04007KT CAVOK 14/03 Q1022 NOSIG",
      "taf": "TAF EDDK 211100Z 2112/2218 03009KT 9999 SCT040"
    },
    {
      "icao": "EDDN",
      "alert": "OK",
      "vis_m": 9999,
      "fzfg": false,
      "metar_trigger": false,
      "taf_trigger": false,
      "metar": "METAR EDDN 211520Z AUTO 33004KT 290V360 9999 FEW043 11/03 Q1020 NOSIG",
      "taf": "TAF EDDN 211100Z 2112/2212 04008KT 9999 BKN030"
    },
    {
      "icao": "EDDS",
      "alert": "OK",
      "vis_m": 9999,
      "fzfg": false,
      "metar_trigger": false,
      "taf_trigger": false,
      "metar": "METAR EDDS 211520Z AUTO 07008KT CAVOK 10/03 Q1019 NOSIG",
      "taf": "TAF EDDS 211100Z 2112/2212 04007KT 9999 BKN040"
    },
    {
      "icao": "EDFH",
      "alert": "OK",
      "vis_m": 9999,
      "fzfg": false,
      "metar_trigger": false,
      "taf_trigger": false,
      "metar": "METAR EDFH 211520Z COR 06007KT 360V150 CAVOK 10/M00 Q1020",
      "taf": "TAF EDFH 211100Z 2112/2212 07009KT 9999 SCT040"
    },
    {
      "icao": "EDJA",
      "alert": "OK",
      "vis_m": 9999,
      "fzfg": false,
      "metar_trigger": false,
      "taf_trigger": false,
      "metar": "METAR EDJA 211520Z COR 05011KT 020V090 9999 FEW039 09/01 Q1018",
      "taf": "TAF EDJA 211400Z 2115/2124 05012KT 9999 SCT040"
    },
    {
      "icao": "EDLW",
      "alert": "OK",
      "vis_m": 9999,
      "fzfg": false,
      "metar_trigger": false,
      "taf_trigger": false,
      "metar": "METAR EDLW 211520Z 05008KT 010V100 9999 FEW049 13/02 Q1023",
      "taf": "TAF EDLW 211100Z 2112/2212 05010KT 9999 SCT040"
    },
    {
      "icao": "EDNY",
      "alert": "OK",
      "vis_m": 9999,
      "fzfg": false,
      "metar_trigger": false,
      "taf_trigger": false,
      "metar": "METAR EDNY 211520Z 01011KT 340V050 9999 FEW056 13/01 Q1017",
      "taf": "TAF EDNY 211400Z 2115/2124 03010KT 9999 FEW060"
    },
    {
      "icao": "EDSB",
      "alert": "OK",
      "vis_m": 9999,
      "fzfg": false,
      "metar_trigger": false,
      "taf_trigger": false,
      "metar": "METAR EDSB 211520Z 04014KT CAVOK 12/05 Q1019",
      "taf": "TAF EDSB 211100Z 2112/2212 04013KT CAVOK"
    },
    {
      "icao": "EETN",
      "alert": "OK",
      "vis_m": 9999,
      "fzfg": false,
      "metar_trigger": false,
      "taf_trigger": false,
      "metar": "METAR EETN 211550Z 29008KT CAVOK 13/M04 Q1018 NOSIG",
      "taf": "TAF EETN 211130Z 2112/2212 32010KT CAVOK"
    },
    {
      "icao": "EFTU",
      "alert": "OK",
      "vis_m": 9999,
      "fzfg": false,
      "metar_trigger": false,
      "taf_trigger": false,
      "metar": "METAR EFTU 211520Z AUTO 34008KT 300V020 CAVOK 14/M03 Q1019",
      "taf": "TAF EFTU 211423Z 2115/2215 36009KT CAVOK"
    },
    {
      "icao": "EGBB",
      "alert": "OK",
      "vis_m": 9999,
      "fzfg": false,
      "metar_trigger": false,
      "taf_trigger": false,
      "metar": "METAR EGBB 211520Z 06015KT 9999 SCT042 13/03 Q1026",
      "taf": "TAF EGBB 211059Z 2112/2212 05012KT 9999 SCT035"
    },
    {
      "icao": "EGGP",
      "alert": "OK",
      "vis_m": 9999,
      "fzfg": false,
      "metar_trigger": false,
      "taf_trigger": false,
      "metar": "METAR EGGP 211520Z 10018G28KT CAVOK 13/M01 Q1027",
      "taf": "TAF EGGP 211101Z 2112/2212 07014KT 9999 FEW040"
    },
    {
      "icao": "EGGW",
      "alert": "OK",
      "vis_m": 9999,
      "fzfg": false,
      "metar_trigger": false,
      "taf_trigger": false,
      "metar": "METAR EGGW 211520Z AUTO 06015KT 9999 BKN041 12/03 Q1025",
      "taf": "TAF EGGW 211056Z 2112/2212 06014KT 9999 SCT035"
    },
    {
      "icao": "EGKK",
      "alert": "OK",
      "vis_m": 9999,
      "fzfg": false,
      "metar_trigger": false,
      "taf_trigger": false,
      "metar": "METAR EGKK 211520Z 07018KT 9999 FEW031 12/05 Q1024",
      "taf": "TAF EGKK 211105Z 2112/2218 05012KT 9999 SCT035"
    },
    {
      "icao": "EGNM",
      "alert": "OK",
      "vis_m": 9999,
      "fzfg": false,
      "metar_trigger": false,
      "taf_trigger": false,
      "metar": "METAR EGNM 211520Z 08013G23KT 030V100 9999 FEW049 11/M00 Q1029",
      "taf": "TAF EGNM 211103Z 2112/2212 07010KT 9999 FEW030"
    },
    {
      "icao": "EGPD",
      "alert": "OK",
      "vis_m": 9999,
      "fzfg": false,
      "metar_trigger": false,
      "taf_trigger": false,
      "metar": "METAR EGPD 211520Z COR AUTO 06009KT 010V100 9999 BKN019 OVC023 09/05 Q1035 NOSIG",
      "taf": "TAF EGPD 211055Z 2112/2212 07010KT 9999 SCT020"
    },
    {
      "icao": "EGPF",
      "alert": "OK",
      "vis_m": 9999,
      "fzfg": false,
      "metar_trigger": false,
      "taf_trigger": false,
      "metar": "METAR EGPF 211520Z AUTO 07016KT 9999 FEW048 12/01 Q1032",
      "taf": "TAF EGPF 211102Z 2112/2212 07014KT 9999 SCT020"
    },
    {
      "icao": "EHBK",
      "alert": "OK",
      "vis_m": 9999,
      "fzfg": false,
      "metar_trigger": false,
      "taf_trigger": false,
      "metar": "METAR EHBK 211525Z AUTO 04012KT 340V080 9999 NSC 14/04 Q1022 NOSIG",
      "taf": "TAF EHBK 211037Z 2112/2218 05009KT CAVOK"
    },
    {
      "icao": "EHEH",
      "alert": "OK",
      "vis_m": 9999,
      "fzfg": false,
      "metar_trigger": false,
      "taf_trigger": false,
      "metar": "METAR EHEH 211525Z AUTO 03010KT 310V080 9999 BKN054 BKN061 15/02 Q1023 BLU NOSIG",
      "taf": "TAF EHEH 211134Z 2112/2218 05011KT CAVOK"
    },
    {
      "icao": "EKBI",
      "alert": "OK",
      "vis_m": 9999,
      "fzfg": false,
      "metar_trigger": false,
      "taf_trigger": false,
      "metar": "METAR EKBI 211520Z AUTO 09007KT 050V130 9999 NCD 14/M02 Q1028",
      "taf": "TAF EKBI 211427Z 2115/2215 09010KT CAVOK"
    },
    {
      "icao": "EKCH",
      "alert": "OK",
      "vis_m": 9999,
      "fzfg": false,
      "metar_trigger": false,
      "taf_trigger": false,
      "metar": "METAR EKCH 211520Z AUTO 13003KT 9999 NCD 11/M02 Q1027 NOSIG",
      "taf": "TAF EKCH 211427Z 2115/2215 35010KT CAVOK"
    },
    {
      "icao": "ENAL",
      "alert": "OK",
      "vis_m": 9999,
      "fzfg": false,
      "metar_trigger": false,
      "taf_trigger": false,
      "metar": "METAR ENAL 211520Z 36007KT 320V030 9999 BKN024 08/04 Q1034",
      "taf": "TAF ENAL 211400Z 2115/2124 05008KT 9999 BKN025"
    },
    {
      "icao": "ENBR",
      "alert": "OK",
      "vis_m": 9999,
      "fzfg": false,
      "metar_trigger": false,
      "taf_trigger": false,
      "metar": "METAR ENBR 211520Z 33011KT CAVOK 11/04 Q1031 NOSIG RMK WIND 1200FT 33011KT",
      "taf": "TAF ENBR 211100Z 2112/2212 31008KT CAVOK"
    },
    {
      "icao": "ENGM",
      "alert": "OK",
      "vis_m": 9999,
      "fzfg": false,
      "metar_trigger": false,
      "taf_trigger": false,
      "metar": "METAR ENGM 211520Z 36011KT CAVOK 16/M02 Q1027 NOSIG",
      "taf": "TAF ENGM 211100Z 2112/2212 36008KT CAVOK"
    },
    {
      "icao": "ENHD",
      "alert": "OK",
      "vis_m": 9999,
      "fzfg": false,
      "metar_trigger": false,
      "taf_trigger": false,
      "metar": "METAR ENHD 211520Z 34012KT CAVOK 09/05 Q1031",
      "taf": "TAF ENHD 211400Z 2115/2122 33012KT CAVOK"
    },
    {
      "icao": "ENTC",
      "alert": "OK",
      "vis_m": 9999,
      "fzfg": false,
      "metar_trigger": false,
      "taf_trigger": false,
      "metar": "METAR ENTC 211520Z 25017KT 9999 BKN030 08/03 Q1015 TEMPO 25020G30KT RMK WIND 2600FT 25036KT",
      "taf": "TAF ENTC 211100Z 2112/2212 22018KT 9999 FEW010 BKN020"
    },
    {
      "icao": "ENTO",
      "alert": "OK",
      "vis_m": 9999,
      "fzfg": false,
      "metar_trigger": false,
      "taf_trigger": false,
      "metar": "METAR ENTO 211520Z 05004KT 360V080 CAVOK 17/M02 Q1028 NOSIG",
      "taf": "TAF ENTO 211100Z 2112/2212 36008KT CAVOK"
    },
    {
      "icao": "ENVA",
      "alert": "OK",
      "vis_m": 9999,
      "fzfg": false,
      "metar_trigger": false,
      "taf_trigger": false,
      "metar": "METAR ENVA 211520Z 27012KT 9999 FEW023 BKN032 08/04 Q1033 NOSIG RMK WIND 670FT 28014KT",
      "taf": "TAF ENVA 211100Z 2112/2212 26005KT 9999 FEW008 BKN018"
    },
    {
      "icao": "ENZV",
      "alert": "OK",
      "vis_m": 9999,
      "fzfg": false,
      "metar_trigger": false,
      "taf_trigger": false,
      "metar": "METAR ENZV 211520Z 31010KT CAVOK 11/05 Q1031 NOSIG",
      "taf": "TAF ENZV 211100Z 2112/2212 31008KT CAVOK"
    },
    {
      "icao": "EPGD",
      "alert": "OK",
      "vis_m": 9999,
      "fzfg": false,
      "metar_trigger": false,
      "taf_trigger": false,
      "metar": "METAR EPGD 211530Z 36013KT CAVOK 10/M04 Q1023",
      "taf": "TAF EPGD 211130Z 2112/2212 01010KT CAVOK"
    },
    {
      "icao": "EPKK",
      "alert": "OK",
      "vis_m": 9999,
      "fzfg": false,
      "metar_trigger": false,
      "taf_trigger": false,
      "metar": "METAR EPKK 211530Z 03006KT 330V080 CAVOK 11/M05 Q1018",
      "taf": "TAF EPKK 211430Z 2115/2215 03010KT 9999 SCT060"
    },
    {
      "icao": "EPKT",
      "alert": "OK",
      "vis_m": 9999,
      "fzfg": false,
      "metar_trigger": false,
      "taf_trigger": false,
      "metar": "METAR EPKT 211530Z 01008KT CAVOK 10/M05 Q1018",
      "taf": "TAF EPKT 211130Z 2112/2212 05008KT CAVOK"
    },
    {
      "icao": "EPLB",
      "alert": "OK",
      "vis_m": 9999,
      "fzfg": false,
      "metar_trigger": false,
      "taf_trigger": false,
      "metar": "METAR EPLB 211530Z 34008KT CAVOK 12/M05 Q1016",
      "taf": "TAF EPLB 211130Z 2112/2212 02012KT CAVOK"
    },
    {
      "icao": "EPMO",
      "alert": "OK",
      "vis_m": 9999,
      "fzfg": false,
      "metar_trigger": false,
      "taf_trigger": false,
      "metar": "METAR EPMO 211530Z 02012KT CAVOK 13/M06 Q1018",
      "taf": "TAF EPMO 211130Z 2112/2212 01014KT CAVOK"
    },
    {
      "icao": "EPPO",
      "alert": "OK",
      "vis_m": 9999,
      "fzfg": false,
      "metar_trigger": false,
      "taf_trigger": false,
      "metar": "METAR EPPO 211530Z 01010KT 330V030 CAVOK 14/M07 Q1021",
      "taf": "TAF EPPO 211130Z 2112/2212 04010KT CAVOK"
    },
    {
      "icao": "EPRA",
      "alert": "OK",
      "vis_m": 9999,
      "fzfg": false,
      "metar_trigger": false,
      "taf_trigger": false,
      "metar": "METAR EPRA 211530Z 34010KT 290V040 CAVOK 13/M08 Q1017",
      "taf": "TAF EPRA 211430Z 2115/2124 02008KT CAVOK"
    },
    {
      "icao": "EPRZ",
      "alert": "OK",
      "vis_m": 9999,
      "fzfg": false,
      "metar_trigger": false,
      "taf_trigger": false,
      "metar": "METAR EPRZ 211530Z 01007KT CAVOK 12/M04 Q1016",
      "taf": ""
    },
    {
      "icao": "EPSC",
      "alert": "OK",
      "vis_m": 9999,
      "fzfg": false,
      "metar_trigger": false,
      "taf_trigger": false,
      "metar": "METAR EPSC 211530Z 36012KT 320V040 CAVOK 12/M04 Q1024",
      "taf": "TAF EPSC 211130Z 2112/2212 01010KT CAVOK"
    },
    {
      "icao": "EPSY",
      "alert": "OK",
      "vis_m": 9999,
      "fzfg": false,
      "metar_trigger": false,
      "taf_trigger": false,
      "metar": "METAR EPSY 211530Z 36012KT 330V040 CAVOK 13/M07 Q1019",
      "taf": "TAF EPSY 211430Z 2115/2124 36010KT CAVOK"
    },
    {
      "icao": "EPWA",
      "alert": "OK",
      "vis_m": 9999,
      "fzfg": false,
      "metar_trigger": false,
      "taf_trigger": false,
      "metar": "METAR EPWA 211530Z 35011KT 300V020 CAVOK 14/M07 Q1017 NOSIG",
      "taf": "TAF EPWA 211430Z 2115/2215 01014KT CAVOK"
    },
    {
      "icao": "EPWR",
      "alert": "OK",
      "vis_m": 9999,
      "fzfg": false,
      "metar_trigger": false,
      "taf_trigger": false,
      "metar": "METAR EPWR 211530Z 02011KT 340V050 CAVOK 12/M04 Q1020",
      "taf": "TAF EPWR 211430Z 2115/2215 03009KT CAVOK"
    },
    {
      "icao": "ESGG",
      "alert": "OK",
      "vis_m": 9999,
      "fzfg": false,
      "metar_trigger": false,
      "taf_trigger": false,
      "metar": "METAR ESGG 211520Z 35009KT 330V030 CAVOK 16/M05 Q1026",
      "taf": "TAF ESGG 211430Z 2115/2215 03010KT CAVOK"
    },
    {
      "icao": "ESKN",
      "alert": "OK",
      "vis_m": 9999,
      "fzfg": false,
      "metar_trigger": false,
      "taf_trigger": false,
      "metar": "METAR ESKN 211520Z 35006KT 320V020 CAVOK 17/M02 Q1023",
      "taf": "TAF ESKN 211430Z 2115/2215 35007KT CAVOK"
    },
    {
      "icao": "ESMS",
      "alert": "OK",
      "vis_m": 9999,
      "fzfg": false,
      "metar_trigger": false,
      "taf_trigger": false,
      "metar": "METAR ESMS 211520Z 21010KT CAVOK 13/M03 Q1026",
      "taf": "TAF ESMS 211427Z 2115/2215 21010KT CAVOK"
    },
    {
      "icao": "ESSA",
      "alert": "OK",
      "vis_m": 9999,
      "fzfg": false,
      "metar_trigger": false,
      "taf_trigger": false,
      "metar": "METAR ESSA 211520Z 36012KT CAVOK 15/M04 Q1023 NOSIG",
      "taf": "TAF ESSA 211430Z 2115/2215 35013KT CAVOK"
    },
    {
      "icao": "EYKA",
      "alert": "OK",
      "vis_m": 9999,
      "fzfg": false,
      "metar_trigger": false,
      "taf_trigger": false,
      "metar": "METAR EYKA 211550Z 36008KT 330V030 CAVOK 13/M08 Q1017",
      "taf": "TAF EYKA 211100Z 2112/2212 36010KT 9000 NSC"
    },
    {
      "icao": "EYPA",
      "alert": "OK",
      "vis_m": 9999,
      "fzfg": false,
      "metar_trigger": false,
      "taf_trigger": false,
      "metar": "METAR EYPA 211550Z 35007KT 310V020 CAVOK 07/02 Q1021",
      "taf": "TAF EYPA 211100Z 2112/2212 35009KT 9000 NSC"
    },
    {
      "icao": "EYVI",
      "alert": "OK",
      "vis_m": 9999,
      "fzfg": false,
      "metar_trigger": false,
      "taf_trigger": false,
      "metar": "METAR EYVI 211550Z 01015KT CAVOK 11/M08 Q1016 NOSIG",
      "taf": "TAF EYVI 211100Z 2112/2212 01012KT 9000 NSC"
    },
    {
      "icao": "GCFV",
      "alert": "OK",
      "vis_m": 9999,
      "fzfg": false,
      "metar_trigger": false,
      "taf_trigger": false,
      "metar": "METAR GCFV 211530Z VRB04KT 9999 SCT035 24/12 Q1011",
      "taf": "TAF GCFV 211400Z 2115/2215 33007KT 9999 SCT035 TX23/2214Z TN17/2206Z"
    },
    {
      "icao": "GCLP",
      "alert": "OK",
      "vis_m": 9999,
      "fzfg": false,
      "metar_trigger": false,
      "taf_trigger": false,
      "metar": "METAR GCLP 211530Z 36014KT 9999 FEW020 BKN035 20/14 Q1012 NOSIG",
      "taf": "TAF GCLP 211400Z 2115/2215 03017KT 9999 BKN040 TX23/2214Z TN17/2206Z"
    },
    {
      "icao": "GCTS",
      "alert": "OK",
      "vis_m": 9999,
      "fzfg": false,
      "metar_trigger": false,
      "taf_trigger": false,
      "metar": "METAR GCTS 211530Z 15007KT 080V210 9999 SCT040 22/13 Q1012 NOSIG",
      "taf": "TAF GCTS 211400Z 2115/2215 08012KT 9999 SCT040 TX23/2214Z TN17/2206Z"
    },
    {
      "icao": "GMAD",
      "alert": "OK",
      "vis_m": 8000,
      "fzfg": false,
      "metar_trigger": false,
      "taf_trigger": false,
      "metar": "METAR GMAD 211530Z 28015KT 8000 SCT020 23/13 Q1009 NOSIG",
      "taf": "TAF GMAD 211100Z 2112/2218 26006KT 8000 BKN020"
    },
    {
      "icao": "GMMN",
      "alert": "OK",
      "vis_m": 9999,
      "fzfg": false,
      "metar_trigger": false,
      "taf_trigger": false,
      "metar": "METAR GMMN 211530Z 28011KT 240V340 9999 SCT020 24/15 Q1009 NOSIG",
      "taf": "TAF GMMN 211100Z 2112/2218 26012KT 9999 BKN020"
    },
    {
      "icao": "GMMX",
      "alert": "OK",
      "vis_m": 9999,
      "fzfg": false,
      "metar_trigger": false,
      "taf_trigger": false,
      "metar": "METAR GMMX 211530Z 29006KT 250V320 9999 SCT040 SCT120 24/14 Q1009 NOSIG",
      "taf": "TAF GMMX 211100Z 2112/2218 12008KT 8000 SCT030"
    },
    {
      "icao": "HEGN",
      "alert": "OK",
      "vis_m": 9999,
      "fzfg": false,
      "metar_trigger": false,
      "taf_trigger": false,
      "metar": "METAR HEGN 211500Z 36020KT CAVOK 25/05 Q1010",
      "taf": "TAF HEGN 211100Z 2112/2218 34018KT CAVOK"
    },
    {
      "icao": "HEMA",
      "alert": "OK",
      "vis_m": 9999,
      "fzfg": false,
      "metar_trigger": false,
      "taf_trigger": false,
      "metar": "METAR HEMA 211500Z 01015KT CAVOK 24/12 Q1009",
      "taf": "TAF HEMA 211100Z 2112/2218 02018G28KT CAVOK"
    },
    {
      "icao": "HESH",
      "alert": "OK",
      "vis_m": 9999,
      "fzfg": false,
      "metar_trigger": false,
      "taf_trigger": false,
      "metar": "METAR HESH 211500Z 35011KT CAVOK 27/07 Q1009",
      "taf": "TAF HESH 211100Z 2112/2218 03012KT CAVOK"
    },
    {
      "icao": "HESX",
      "alert": "OK",
      "vis_m": 9999,
      "fzfg": false,
      "metar_trigger": false,
      "taf_trigger": false,
      "metar": "METAR HESX 211500Z 36010KT CAVOK 24/05 Q1013",
      "taf": "TAF HESX 211100Z 2112/2218 35008KT CAVOK"
    },
    {
      "icao": "LATI",
      "alert": "OK",
      "vis_m": 9999,
      "fzfg": false,
      "metar_trigger": false,
      "taf_trigger": false,
      "metar": "METAR LATI 211550Z VRB02KT 9999 SCT045 BKN072 18/12 Q1011 NOSIG",
      "taf": "TAF LATI 211100Z 2112/2212 24012KT 9999 FEW030TCU BKN070 TX21/2112Z TN13/2204Z"
    },
    {
      "icao": "LBPD",
      "alert": "OK",
      "vis_m": 9999,
      "fzfg": false,
      "metar_trigger": false,
      "taf_trigger": false,
      "metar": "METAR LBPD 211530Z AUTO 06007KT 9999 FEW038/// OVC048/// 11/10 Q1012 TEMPO 5000 RA",
      "taf": "TAF LBPD 211100Z 2112/2212 30010KT 9999 RA BKN015 OVC040"
    },
    {
      "icao": "LBSF",
      "alert": "OK",
      "vis_m": 9999,
      "fzfg": false,
      "metar_trigger": false,
      "taf_trigger": false,
      "metar": "METAR LBSF 211530Z AUTO 25003KT 220V300 9999 -RA BKN047/// OVC068/// 09/06 Q1014 NOSIG",
      "taf": "TAF LBSF 211100Z 2112/2212 32010KT 9999 RA BKN015 BKN040"
    },
    {
      "icao": "LBWN",
      "alert": "OK",
      "vis_m": 9999,
      "fzfg": false,
      "metar_trigger": false,
      "taf_trigger": false,
      "metar": "METAR LBWN 211530Z AUTO 12008KT 9999 -RA SCT013/// SCT016/// OVC021/// 09/09 Q1014 NOSIG",
      "taf": "TAF LBWN 211100Z 2112/2212 11012KT 7000 -RA SCT015 BKN040"
    },
    {
      "icao": "LCLK",
      "alert": "OK",
      "vis_m": 9999,
      "fzfg": false,
      "metar_trigger": false,
      "taf_trigger": false,
      "metar": "METAR LCLK 211530Z 22017KT 9999 FEW045 20/13 Q1012 NOSIG",
      "taf": "TAF LCLK 211130Z 2112/2212 22015KT 9999 FEW025"
    },
    {
      "icao": "LCPH",
      "alert": "OK",
      "vis_m": 9999,
      "fzfg": false,
      "metar_trigger": false,
      "taf_trigger": false,
      "metar": "METAR LCPH 211530Z AUTO 31007KT 250V320 9999 NCD 19/14 Q1013 NOSIG",
      "taf": "TAF LCPH 211130Z 2112/2212 26010KT 9999 FEW025"
    },
    {
      "icao": "LEAL",
      "alert": "OK",
      "vis_m": 9999,
      "fzfg": false,
      "metar_trigger": false,
      "taf_trigger": false,
      "metar": "METAR LEAL 211530Z 08006KT 050V110 9999 FEW010 22/11 Q1009 NOSIG",
      "taf": "TAF LEAL 211100Z 2112/2212 09009KT CAVOK TX24/2112Z TN13/2206Z"
    },
    {
      "icao": "LEBB",
      "alert": "OK",
      "vis_m": 9999,
      "fzfg": false,
      "metar_trigger": false,
      "taf_trigger": false,
      "metar": "METAR LEBB 211530Z 10008KT 060V130 9999 FEW055 31/16 Q1004 NOSIG",
      "taf": "TAF LEBB 211100Z 2112/2212 10009KT 9999 FEW040 TX29/2113Z TN14/2206Z"
    },
    {
      "icao": "LEBL",
      "alert": "OK",
      "vis_m": 9999,
      "fzfg": false,
      "metar_trigger": false,
      "taf_trigger": false,
      "metar": "METAR LEBL 211530Z 19007KT 160V220 9999 FEW024 20/13 Q1010 NOSIG",
      "taf": "TAF LEBL 211100Z 2112/2212 VRB04KT 9999 FEW030 TX21/2112Z TN13/2206Z"
    },
    {
      "icao": "LECH",
      "alert": "OK",
      "vis_m": 9999,
      "fzfg": false,
      "metar_trigger": false,
      "taf_trigger": false,
      "metar": "METAR LECH 211530Z AUTO 14009KT CAVOK 22/09 Q1010",
      "taf": "TAF LECH 211100Z 2112/2212 12007KT CAVOK TX26/2113Z TN12/2206Z"
    },
    {
      "icao": "LEMD",
      "alert": "OK",
      "vis_m": 9999,
      "fzfg": false,
      "metar_trigger": false,
      "taf_trigger": false,
      "metar": "METAR LEMD 211530Z 21005KT 180V250 CAVOK 26/06 Q1008 NOSIG",
      "taf": ""
    },
    {
      "icao": "LEMG",
      "alert": "OK",
      "vis_m": 9999,
      "fzfg": false,
      "metar_trigger": false,
      "taf_trigger": false,
      "metar": "METAR LEMG 211530Z 15005KT 110V240 CAVOK 21/12 Q1009 NOSIG",
      "taf": "TAF LEMG 211100Z 2112/2212 13007KT CAVOK TX24/2114Z TN12/2206Z"
    },
    {
      "icao": "LEVC",
      "alert": "OK",
      "vis_m": 9999,
      "fzfg": false,
      "metar_trigger": false,
      "taf_trigger": false,
      "metar": "METAR LEVC 211530Z 12009KT 090V150 CAVOK 22/11 Q1009 NOSIG",
      "taf": "TAF LEVC 211100Z 2112/2212 09009KT CAVOK TX26/2112Z TN12/2206Z"
    },
    {
      "icao": "LEXJ",
      "alert": "OK",
      "vis_m": 9999,
      "fzfg": false,
      "metar_trigger": false,
      "taf_trigger": false,
      "metar": "METAR LEXJ 211530Z 33004KT 280V050 9999 FEW040 21/17 Q1004",
      "taf": "TAF LEXJ 211400Z 2115/2215 08009KT 9000 SCT040 TX26/2213Z TN15/2206Z"
    },
    {
      "icao": "LEZG",
      "alert": "OK",
      "vis_m": 9999,
      "fzfg": false,
      "metar_trigger": false,
      "taf_trigger": false,
      "metar": "METAR LEZG 211530Z 12009KT 080V160 9999 FEW020CB 28/08 Q1006 NOSIG",
      "taf": "TAF LEZG 211100Z 2112/2212 10009KT CAVOK TX31/2115Z TN15/2206Z"
    },
    {
      "icao": "LEZL",
      "alert": "OK",
      "vis_m": 9999,
      "fzfg": false,
      "metar_trigger": false,
      "taf_trigger": false,
      "metar": "METAR LEZL 211530Z 13006KT 080V170 CAVOK 28/12 Q1005 NOSIG",
      "taf": "TAF LEZL 211400Z 2115/2215 21015KT CAVOK TX32/2115Z TN16/2206Z"
    },
    {
      "icao": "LFBD",
      "alert": "OK",
      "vis_m": 9999,
      "fzfg": false,
      "metar_trigger": false,
      "taf_trigger": false,
      "metar": "METAR LFBD 211530Z AUTO 06013KT 030V100 CAVOK 26/09 Q1008 NOSIG",
      "taf": "TAF LFBD 211100Z 2112/2218 06010KT CAVOK TX28/2115Z TN14/2206Z"
    },
    {
      "icao": "LFLL",
      "alert": "OK",
      "vis_m": 9999,
      "fzfg": false,
      "metar_trigger": false,
      "taf_trigger": false,
      "metar": "METAR LFLL 211530Z 35012KT 310V020 CAVOK 19/03 Q1013 NOSIG",
      "taf": "TAF LFLL 211100Z 2112/2218 35007KT CAVOK"
    },
    {
      "icao": "LFLS",
      "alert": "OK",
      "vis_m": 9999,
      "fzfg": false,
      "metar_trigger": false,
      "taf_trigger": false,
      "metar": "METAR LFLS 211530Z AUTO 34010KT 310V020 CAVOK 18/06 Q1013 NOSIG",
      "taf": "TAF LFLS 211400Z 2115/2215 36007KT CAVOK"
    },
    {
      "icao": "LFMN",
      "alert": "OK",
      "vis_m": 9999,
      "fzfg": false,
      "metar_trigger": false,
      "taf_trigger": false,
      "metar": "METAR LFMN 211530Z 15004KT 9999 FEW016 SCT260 19/15 Q1010 NOSIG",
      "taf": "TAF LFMN 211400Z 2115/2221 13005KT 9999 FEW020 SCT050"
    },
    {
      "icao": "LFOB",
      "alert": "OK",
      "vis_m": 9999,
      "fzfg": false,
      "metar_trigger": false,
      "taf_trigger": false,
      "metar": "METAR LFOB 211530Z AUTO 07013KT 040V100 9999 FEW047 SCT058 14/05 Q1020 NOSIG",
      "taf": "TAF LFOB 211100Z 2112/2212 04008KT CAVOK"
    },
    {
      "icao": "LFPO",
      "alert": "OK",
      "vis_m": 9999,
      "fzfg": false,
      "metar_trigger": false,
      "taf_trigger": false,
      "metar": "METAR LFPO 211530Z 06015KT CAVOK 14/04 Q1019 NOSIG",
      "taf": "TAF LFPO 211100Z 2112/2218 05015KT 9999 FEW046"
    },
    {
      "icao": "LFSB",
      "alert": "OK",
      "vis_m": 9999,
      "fzfg": false,
      "metar_trigger": false,
      "taf_trigger": false,
      "metar": "METAR LFSB 211530Z AUTO 36012KT 320V030 CAVOK 16/02 Q1016 NOSIG",
      "taf": "TAF LFSB 211100Z 2112/2212 36010KT 9999 SCT045"
    },
    {
      "icao": "LGAV",
      "alert": "OK",
      "vis_m": 9999,
      "fzfg": false,
      "metar_trigger": false,
      "taf_trigger": false,
      "metar": "METAR LGAV 211520Z 24009KT 9999 FEW025 21/08 Q1011 NOSIG",
      "taf": "TAF LGAV 211100Z 2112/2212 20013KT 9999 FEW025"
    },
    {
      "icao": "LGTS",
      "alert": "OK",
      "vis_m": 7000,
      "fzfg": false,
      "metar_trigger": false,
      "taf_trigger": false,
      "metar": "METAR LGTS 211520Z 32013KT 7000 RA FEW018TCU FEW020CB SCT025 17/15 Q1010 TEMPO 5000 TSRA",
      "taf": "TAF LGTS 211100Z 2112/2212 17010KT 9999 SCT030"
    },
    {
      "icao": "LHBP",
      "alert": "OK",
      "vis_m": 9999,
      "fzfg": false,
      "metar_trigger": false,
      "taf_trigger": false,
      "metar": "METAR LHBP 211530Z 12008KT 9999 VCSH FEW047TCU BKN060 10/06 Q1016 BECMG CAVOK",
      "taf": "TAF LHBP 211115Z 2112/2212 36007KT CAVOK"
    },
    {
      "icao": "LHDC",
      "alert": "OK",
      "vis_m": 9999,
      "fzfg": false,
      "metar_trigger": false,
      "taf_trigger": false,
      "metar": "METAR LHDC 211515Z AUTO 03008KT 340V070 9999 FEW046 BKN067 12/02 Q1015 NOSIG",
      "taf": "TAF LHDC 211415Z 2115/2124 03010KT 9999 SCT030 BKN050"
    },
    {
      "icao": "LIBD",
      "alert": "OK",
      "vis_m": 9999,
      "fzfg": false,
      "metar_trigger": false,
      "taf_trigger": false,
      "metar": "METAR LIBD 211520Z 07011KT CAVOK 18/15 Q1010",
      "taf": "TAF LIBD 211100Z 2112/2212 05015KT 9999 SCT040"
    },
    {
      "icao": "LIBG",
      "alert": "OK",
      "vis_m": 9999,
      "fzfg": false,
      "metar_trigger": false,
      "taf_trigger": false,
      "metar": "METAR LIBG 211450Z 15006KT 9999 FEW040 21/15 Q1010",
      "taf": "TAF LIBG 211100Z 2112/2121 18010KT 9999 SCT030"
    },
    {
      "icao": "LIBP",
      "alert": "OK",
      "vis_m": 9000,
      "fzfg": false,
      "metar_trigger": false,
      "taf_trigger": false,
      "metar": "METAR LIBP 211520Z AUTO 33007KT 290V360 9000 -RA FEW007/// SCT009/// OVC056/// 14/14 Q1013 RERA",
      "taf": "TAF LIBP 211100Z 2112/2212 04012KT 9999 SCT030"
    },
    {
      "icao": "LIBR",
      "alert": "OK",
      "vis_m": 9999,
      "fzfg": false,
      "metar_trigger": false,
      "taf_trigger": false,
      "metar": "METAR LIBR 211520Z 10004KT 070V130 9999 FEW035 19/16 Q1010",
      "taf": "TAF LIBR 211100Z 2112/2212 VRB06KT 9999 SCT040"
    },
    {
      "icao": "LICA",
      "alert": "OK",
      "vis_m": 9999,
      "fzfg": false,
      "metar_trigger": false,
      "taf_trigger": false,
      "metar": "METAR LICA 211520Z AUTO 23009KT 200V260 9999 NCD 21/12 Q1010",
      "taf": "TAF LICA 211100Z 2112/2212 26012KT CAVOK"
    },
    {
      "icao": "LICC",
      "alert": "OK",
      "vis_m": 9999,
      "fzfg": false,
      "metar_trigger": false,
      "taf_trigger": false,
      "metar": "METAR LICC 211520Z 07012KT CAVOK 22/16 Q1009",
      "taf": "TAF LICC 211100Z 2112/2212 24012KT CAVOK"
    },
    {
      "icao": "LICJ",
      "alert": "OK",
      "vis_m": 9999,
      "fzfg": false,
      "metar_trigger": false,
      "taf_trigger": false,
      "metar": "METAR LICJ 211520Z 03011KT CAVOK 19/16 Q1010",
      "taf": "TAF LICJ 211100Z 2112/2212 03010KT CAVOK"
    },
    {
      "icao": "LIMC",
      "alert": "OK",
      "vis_m": 9999,
      "fzfg": false,
      "metar_trigger": false,
      "taf_trigger": false,
      "metar": "METAR LIMC 211520Z 12005KT 080V160 9999 SCT040 19/10 Q1011 NOSIG",
      "taf": "TAF LIMC 211100Z 2112/2218 VRB05KT 9999 SCT015"
    },
    {
      "icao": "LIME",
      "alert": "OK",
      "vis_m": 9999,
      "fzfg": false,
      "metar_trigger": false,
      "taf_trigger": false,
      "metar": "METAR LIME 211520Z 14010KT 120V190 9999 TS VCSH FEW033CB SCT035 18/09 Q1011 BECMG NSW",
      "taf": ""
    },
    {
      "icao": "LIMF",
      "alert": "OK",
      "vis_m": 9999,
      "fzfg": false,
      "metar_trigger": false,
      "taf_trigger": false,
      "metar": "METAR LIMF 211520Z 09004KT 040V150 9999 SCT035 19/10 Q1010",
      "taf": "TAF LIMF 211100Z 2112/2212 VRB05KT CAVOK"
    },
    {
      "icao": "LIMJ",
      "alert": "OK",
      "vis_m": 9999,
      "fzfg": false,
      "metar_trigger": false,
      "taf_trigger": false,
      "metar": "METAR LIMJ 211520Z 20003KT 9999 SCT030 18/15 Q1010",
      "taf": "TAF LIMJ 211100Z 2112/2212 VRB06KT 9999 BKN030"
    },
    {
      "icao": "LIPE",
      "alert": "OK",
      "vis_m": 9999,
      "fzfg": false,
      "metar_trigger": false,
      "taf_trigger": false,
      "metar": "METAR LIPE 211520Z 09009KT 060V120 9999 FEW050 17/12 Q1012",
      "taf": "TAF LIPE 211100Z 2112/2212 08010KT 9999 BKN020"
    },
    {
      "icao": "LIPH",
      "alert": "OK",
      "vis_m": 9999,
      "fzfg": false,
      "metar_trigger": false,
      "taf_trigger": false,
      "metar": "METAR LIPH 211520Z 15005KT 9999 SCT080 19/02 Q1013",
      "taf": "TAF LIPH 211100Z 2112/2212 12010KT 9999 SCT030"
    },
    {
      "icao": "LIPQ",
      "alert": "OK",
      "vis_m": 9999,
      "fzfg": false,
      "metar_trigger": false,
      "taf_trigger": false,
      "metar": "METAR LIPQ 211520Z AUTO 04012KT 010V070 9999 OVC075/// 14/06 Q1014",
      "taf": "TAF LIPQ 211100Z 2112/2212 07012KT 9999 SCT050"
    },
    {
      "icao": "LIPR",
      "alert": "OK",
      "vis_m": 9999,
      "fzfg": false,
      "metar_trigger": false,
      "taf_trigger": false,
      "metar": "METAR LIPR 211520Z 06004KT 020V110 9999 FEW030 16/11 Q1013",
      "taf": "TAF LIPR 211100Z 2112/2212 08012KT 9999 BKN030"
    },
    {
      "icao": "LIPX",
      "alert": "OK",
      "vis_m": 9999,
      "fzfg": false,
      "metar_trigger": false,
      "taf_trigger": false,
      "metar": "METAR LIPX 211520Z 13008KT 090V160 9999 BKN040 19/10 Q1012",
      "taf": "TAF LIPX 211100Z 2112/2212 10010KT 9999 FEW040"
    },
    {
      "icao": "LIPY",
      "alert": "OK",
      "vis_m": 9999,
      "fzfg": false,
      "metar_trigger": false,
      "taf_trigger": false,
      "metar": "METAR LIPY 211520Z AUTO 30003KT 9999 BKN089/// 14/13 Q1013",
      "taf": "TAF LIPY 211100Z 2112/2212 VRB05KT 9999 BKN040"
    },
    {
      "icao": "LIPZ",
      "alert": "OK",
      "vis_m": 9999,
      "fzfg": false,
      "metar_trigger": false,
      "taf_trigger": false,
      "metar": "METAR LIPZ 211520Z 19004KT 160V230 CAVOK 18/07 Q1013 NOSIG",
      "taf": "TAF LIPZ 211100Z 2112/2218 14010KT 9999 SCT030"
    },
    {
      "icao": "LIRF",
      "alert": "OK",
      "vis_m": 9999,
      "fzfg": false,
      "metar_trigger": false,
      "taf_trigger": false,
      "metar": "METAR LIRF 211520Z 22009KT 9999 SCT020 20/15 Q1010 NOSIG",
      "taf": "TAF LIRF 211100Z 2112/2218 20011KT 9999 FEW020"
    },
    {
      "icao": "LIRN",
      "alert": "OK",
      "vis_m": 9999,
      "fzfg": false,
      "metar_trigger": false,
      "taf_trigger": false,
      "metar": "METAR LIRN 211520Z 20010KT CAVOK 20/09 Q1011 NOSIG",
      "taf": "TAF LIRN 211100Z 2112/2212 20010KT 9999 FEW040"
    },
    {
      "icao": "LIRP",
      "alert": "OK",
      "vis_m": 9999,
      "fzfg": false,
      "metar_trigger": false,
      "taf_trigger": false,
      "metar": "METAR LIRP 211515Z 04004KT 9999 FEW030 22/11 Q1010 NOSIG",
      "taf": "TAF LIRP 211100Z 2112/2212 VRB04KT 9999 SCT030"
    },
    {
      "icao": "LIRZ",
      "alert": "OK",
      "vis_m": 9999,
      "fzfg": false,
      "metar_trigger": false,
      "taf_trigger": false,
      "metar": "METAR LIRZ 211520Z AUTO 09011KT 9999 SCT057/// 17/09 Q1011",
      "taf": "TAF LIRZ 211100Z 2112/2212 VRB05KT 9999 BKN030"
    },
    {
      "icao": "LJLJ",
      "alert": "OK",
      "vis_m": 9999,
      "fzfg": false,
      "metar_trigger": false,
      "taf_trigger": false,
      "metar": "METAR LJLJ 211530Z 14009KT 9999 FEW040 SCT070 BKN100 13/05 Q1014 NOSIG",
      "taf": "TAF LJLJ 211100Z 2112/2212 19003KT 9999 FEW025 BKN035"
    },
    {
      "icao": "LKMT",
      "alert": "OK",
      "vis_m": 9999,
      "fzfg": false,
      "metar_trigger": false,
      "taf_trigger": false,
      "metar": "METAR LKMT 211530Z 05006KT 350V100 CAVOK 11/M02 Q1018 NOSIG",
      "taf": "TAF LKMT 211100Z 2112/2212 03012KT 9999 SCT045"
    },
    {
      "icao": "LKPR",
      "alert": "OK",
      "vis_m": 9999,
      "fzfg": false,
      "metar_trigger": false,
      "taf_trigger": false,
      "metar": "METAR LKPR 211530Z 36004KT 310V110 9999 FEW048 09/M00 Q1021 NOSIG",
      "taf": "TAF LKPR 211400Z 2115/2221 05010KT 9999 SCT035"
    },
    {
      "icao": "LLBG",
      "alert": "OK",
      "vis_m": 9999,
      "fzfg": false,
      "metar_trigger": false,
      "taf_trigger": false,
      "metar": "METAR LLBG 211550Z 33007KT 9999 FEW040 19/09 Q1014 NOSIG",
      "taf": "TAF LLBG 211103Z 2112/2212 29012KT 9999 FEW040 TX22/2112Z TN12/2203Z"
    },
    {
      "icao": "LMML",
      "alert": "OK",
      "vis_m": 9999,
      "fzfg": false,
      "metar_trigger": false,
      "taf_trigger": false,
      "metar": "METAR LMML 211545Z 18007KT 140V230 CAVOK 21/16 Q1011 NOSIG",
      "taf": "TAF LMML 211100Z 2112/2212 18007KT CAVOK"
    },
    {
      "icao": "LOWW",
      "alert": "OK",
      "vis_m": 9999,
      "fzfg": false,
      "metar_trigger": false,
      "taf_trigger": false,
      "metar": "METAR LOWW 211520Z 35012KT 320V020 9999 FEW050 11/01 Q1018 NOSIG",
      "taf": "TAF LOWW 211415Z 2115/2221 34010KT CAVOK TX15/2213Z TN03/2204Z"
    },
    {
      "icao": "LPFR",
      "alert": "OK",
      "vis_m": 9999,
      "fzfg": false,
      "metar_trigger": false,
      "taf_trigger": false,
      "metar": "METAR LPFR 211530Z 25016KT 9999 FEW010 SCT020 20/16 Q1007",
      "taf": "TAF LPFR 211100Z 2112/2212 12013KT CAVOK"
    },
    {
      "icao": "LPMA",
      "alert": "OK",
      "vis_m": 9999,
      "fzfg": false,
      "metar_trigger": false,
      "taf_trigger": false,
      "metar": "METAR LPMA 211530Z 34013KT 280V010 9999 SCT015 SCT028 17/08 Q1011",
      "taf": "TAF LPMA 211100Z 2112/2212 35015KT 9999 SCT015 SCT030"
    },
    {
      "icao": "LPPR",
      "alert": "OK",
      "vis_m": 9999,
      "fzfg": false,
      "metar_trigger": false,
      "taf_trigger": false,
      "metar": "METAR LPPR 211530Z 20011KT 9999 FEW020 18/14 Q1004",
      "taf": "TAF LPPR 211100Z 2112/2212 20015KT 9999 FEW020"
    },
    {
      "icao": "LPPS",
      "alert": "OK",
      "vis_m": 9999,
      "fzfg": false,
      "metar_trigger": false,
      "taf_trigger": false,
      "metar": "METAR LPPS 211530Z 32015KT 9999 FEW015 17/08 Q1012",
      "taf": "TAF LPPS 211100Z 2112/2218 33017KT 9999 SCT015 SCT030"
    },
    {
      "icao": "LPPT",
      "alert": "OK",
      "vis_m": 9999,
      "fzfg": false,
      "metar_trigger": false,
      "taf_trigger": false,
      "metar": "METAR LPPT 211530Z 21012KT 180V250 9999 SCT018 19/14 Q1005",
      "taf": "TAF LPPT 211100Z 2112/2218 22013KT 9999 SCT025"
    },
    {
      "icao": "LQBK",
      "alert": "OK",
      "vis_m": 9999,
      "fzfg": false,
      "metar_trigger": false,
      "taf_trigger": false,
      "metar": "METAR LQBK 211530Z VRB02KT 9999 -RA SCT025 BKN033 10/07 Q1016 BECMG NSW",
      "taf": "TAF LQBK 211100Z 2112/2212 33005KT 9999 SCT020 BKN045 TX16/2114Z TN05/2204Z"
    },
    {
      "icao": "LQSA",
      "alert": "OK",
      "vis_m": 9999,
      "fzfg": false,
      "metar_trigger": false,
      "taf_trigger": false,
      "metar": "METAR LQSA 211530Z VRB03KT 9999 SCT050 12/04 Q1013 NOSIG",
      "taf": "TAF LQSA 211100Z 2112/2212 30006KT 9999 FEW025 BKN040 TX14/2114Z TN04/2205Z"
    },
    {
      "icao": "LQTZ",
      "alert": "OK",
      "vis_m": 9999,
      "fzfg": false,
      "metar_trigger": false,
      "taf_trigger": false,
      "metar": "METAR LQTZ 211530Z 04006KT 010V070 9999 FEW045 BKN060 13/06 Q1014",
      "taf": "TAF LQTZ 211100Z 2112/2212 03005KT 9999 FEW025 BKN040 TX15/2113Z TN04/2202Z"
    },
    {
      "icao": "LRBC",
      "alert": "OK",
      "vis_m": 9999,
      "fzfg": false,
      "metar_trigger": false,
      "taf_trigger": false,
      "metar": "METAR LRBC 211530Z 33005KT 9999 OVC055 09/03 Q1015",
      "taf": "TAF LRBC 211400Z 2115/2124 31007KT 9999 BKN035"
    },
    {
      "icao": "LRBS",
      "alert": "OK",
      "vis_m": 9999,
      "fzfg": false,
      "metar_trigger": false,
      "taf_trigger": false,
      "metar": "METAR LRBS 211530Z 05012KT 9999 OVC032 09/04 Q1015 NOSIG",
      "taf": "TAF LRBS 211100Z 2112/2212 08012KT 9999 BKN025"
    },
    {
      "icao": "LRBV",
      "alert": "OK",
      "vis_m": 9999,
      "fzfg": false,
      "metar_trigger": false,
      "taf_trigger": false,
      "metar": "METAR LRBV 211530Z 09008KT 9999 SCT010 BKN046 05/03 Q1014",
      "taf": "TAF LRBV 211400Z 2115/2124 07007KT 9999 SCT015 OVC030"
    },
    {
      "icao": "LRCL",
      "alert": "OK",
      "vis_m": 9999,
      "fzfg": false,
      "metar_trigger": false,
      "taf_trigger": false,
      "metar": "METAR LRCL 211530Z 26004KT 230V310 9999 SCT032 BKN045 09/05 Q1013 RERA",
      "taf": "TAF LRCL 211400Z 2115/2124 31010KT 9999 BKN040"
    },
    {
      "icao": "LRCV",
      "alert": "OK",
      "vis_m": 9999,
      "fzfg": false,
      "metar_trigger": false,
      "taf_trigger": false,
      "metar": "METAR LRCV 211530Z 11017KT 9999 SCT050CB 12/09 Q1012",
      "taf": "TAF LRCV 211400Z 2115/2124 09010KT 9999 SCT040CB"
    },
    {
      "icao": "LRIA",
      "alert": "OK",
      "vis_m": 9999,
      "fzfg": false,
      "metar_trigger": false,
      "taf_trigger": false,
      "metar": "METAR LRIA 211530Z 31007KT CAVOK 10/M01 Q1015",
      "taf": "TAF LRIA 211400Z 2115/2124 35010KT CAVOK"
    },
    {
      "icao": "LROP",
      "alert": "OK",
      "vis_m": 9999,
      "fzfg": false,
      "metar_trigger": false,
      "taf_trigger": false,
      "metar": "METAR LROP 211530Z 05007KT 020V090 9999 OVC040 09/02 Q1015 NOSIG",
      "taf": "TAF LROP 211100Z 2112/2212 08012KT 9999 BKN025"
    },
    {
      "icao": "LRSB",
      "alert": "OK",
      "vis_m": 9999,
      "fzfg": false,
      "metar_trigger": false,
      "taf_trigger": false,
      "metar": "METAR LRSB 211530Z 01006KT 340V060 9999 SCT040 BKN050 12/03 Q1012",
      "taf": "TAF LRSB 211100Z 2112/2212 36014KT 9999 SCT040CB"
    },
    {
      "icao": "LRSM",
      "alert": "OK",
      "vis_m": 9999,
      "fzfg": false,
      "metar_trigger": false,
      "taf_trigger": false,
      "metar": "METAR LRSM 211530Z 05009KT 9999 FEW030CB 11/03 Q1014",
      "taf": "TAF LRSM 211400Z 2115/2124 03009KT 9999 BKN030"
    },
    {
      "icao": "LRSV",
      "alert": "OK",
      "vis_m": 9999,
      "fzfg": false,
      "metar_trigger": false,
      "taf_trigger": false,
      "metar": "METAR LRSV 211530Z 29004KT CAVOK 07/M01 Q1014",
      "taf": "TAF LRSV 211400Z 2115/2124 35008KT 9999 BKN040"
    },
    {
      "icao": "LRTM",
      "alert": "OK",
      "vis_m": 9999,
      "fzfg": false,
      "metar_trigger": false,
      "taf_trigger": false,
      "metar": "METAR LRTM 211530Z 03003KT 340V060 9999 VCSH SCT038 SCT043CB 10/06 Q1013",
      "taf": "TAF LRTM 211400Z 2115/2124 VRB04KT 9999 BKN020 SCT040CB"
    },
    {
      "icao": "LRTR",
      "alert": "OK",
      "vis_m": 9999,
      "fzfg": false,
      "metar_trigger": false,
      "taf_trigger": false,
      "metar": "METAR LRTR 211530Z 34009KT 9999 FEW048 13/05 Q1014",
      "taf": "TAF LRTR 211100Z 2112/2212 VRB04KT CAVOK"
    },
    {
      "icao": "LTAC",
      "alert": "OK",
      "vis_m": 9999,
      "fzfg": false,
      "metar_trigger": false,
      "taf_trigger": false,
      "metar": "METAR LTAC 211520Z 25010KT 9999 -SHRA SCT040 BKN080 16/02 Q1011 NOSIG RMK RWY21C 24008KT RWY03L 24008KT 200V270 RWY21R 24008KT RWY03R 25009KT 210V290 RWY21L 25008KT",
      "taf": "TAF LTAC 211040Z 2112/2212 27012KT 9999 SCT040 BKN100"
    },
    {
      "icao": "LTFM",
      "alert": "OK",
      "vis_m": 9999,
      "fzfg": false,
      "metar_trigger": false,
      "taf_trigger": false,
      "metar": "METAR LTFM 211520Z COR 05018KT 9999 SCT010 BKN022 12/09 Q1012 NOSIG RMK RWY17L 05016KT RWY34L 04016KT RWY16R 05017KT RWY36 05017KT RWY18 06016KT",
      "taf": "TAF LTFM 211040Z 2112/2218 05015G25KT 9999 FEW040 BKN090"
    },
    {
      "icao": "LUKK",
      "alert": "OK",
      "vis_m": 9999,
      "fzfg": false,
      "metar_trigger": false,
      "taf_trigger": false,
      "metar": "METAR LUKK 211530Z 02008KT CAVOK 10/M02 Q1014 NOSIG",
      "taf": "TAF LUKK 211105Z 2112/2212 01012KT CAVOK"
    },
    {
      "icao": "LWOH",
      "alert": "OK",
      "vis_m": 9999,
      "fzfg": false,
      "metar_trigger": false,
      "taf_trigger": false,
      "metar": "METAR LWOH 211550Z 14010KT 9999 FEW010 BKN035 12/10 Q1012",
      "taf": "TAF LWOH 211155Z 2112/2212 VRB02KT 9999 SCT030 BKN050"
    },
    {
      "icao": "LWSK",
      "alert": "OK",
      "vis_m": 9999,
      "fzfg": false,
      "metar_trigger": false,
      "taf_trigger": false,
      "metar": "METAR LWSK 211550Z 34003KT 300V010 9999 DZ BKN025 OVC040 11/07 Q1014 NOSIG",
      "taf": "TAF LWSK 211155Z 2112/2212 36010KT 9999 SCT025 BKN045"
    },
    {
      "icao": "LYBE",
      "alert": "OK",
      "vis_m": 9999,
      "fzfg": false,
      "metar_trigger": false,
      "taf_trigger": false,
      "metar": "METAR LYBE 211530Z 22008KT CAVOK 13/06 Q1014 TEMPO 33015G25KT 5000 SHRA SCT030TCU SCT040",
      "taf": "TAF LYBE 211100Z 2112/2212 30010KT 9999 BKN033 TX16/2113Z TN04/2204Z"
    },
    {
      "icao": "LYNI",
      "alert": "OK",
      "vis_m": 9999,
      "fzfg": false,
      "metar_trigger": false,
      "taf_trigger": false,
      "metar": "METAR LYNI 211530Z 21003KT 130V260 9999 FEW040 13/06 Q1014 NOSIG",
      "taf": "TAF LYNI 211100Z 2112/2212 30006KT 9999 SCT030 BKN080 TX15/2212Z TN07/2204Z"
    },
    {
      "icao": "LYPG",
      "alert": "OK",
      "vis_m": 9999,
      "fzfg": false,
      "metar_trigger": false,
      "taf_trigger": false,
      "metar": "METAR LYPG 211530Z 25004KT 9999 -RA FEW010 BKN040 OVC080 13/13 Q1012 NOSIG",
      "taf": "TAF LYPG 211100Z 2112/2212 16005KT 9999 FEW030 SCT040 BKN080 TX19/2212Z TN11/2204Z"
    },
    {
      "icao": "LZIB",
      "alert": "OK",
      "vis_m": 9999,
      "fzfg": false,
      "metar_trigger": false,
      "taf_trigger": false,
      "metar": "METAR LZIB 211530Z 36014KT CAVOK 13/M02 Q1016 NOSIG",
      "taf": ""
    },
    {
      "icao": "LZKZ",
      "alert": "OK",
      "vis_m": 9999,
      "fzfg": false,
      "metar_trigger": false,
      "taf_trigger": false,
      "metar": "METAR LZKZ 211530Z 01013KT CAVOK 11/M04 Q1016 NOSIG",
      "taf": "TAF LZKZ 211115Z 2112/2212 02015KT 9999 FEW045"
    },
    {
      "icao": "LZTT",
      "alert": "OK",
      "vis_m": 9999,
      "fzfg": false,
      "metar_trigger": false,
      "taf_trigger": false,
      "metar": "METAR LZTT 211530Z 05015KT 9999 FEW040 BKN060 08/M05 Q1016 NOSIG",
      "taf": "TAF LZTT 211115Z 2112/2212 03010KT 9999 FEW040 SCT060"
    },
    {
      "icao": "OEJN",
      "alert": "OK",
      "vis_m": 9999,
      "fzfg": false,
      "metar_trigger": false,
      "taf_trigger": false,
      "metar": "METAR OEJN 211500Z 33021KT CAVOK 31/05 Q1006 NOSIG",
      "taf": "TAF OEJN 211100Z 2112/2218 34013KT 7000 NSC"
    },
    {
      "icao": "OEMA",
      "alert": "OK",
      "vis_m": 9999,
      "fzfg": false,
      "metar_trigger": false,
      "taf_trigger": false,
      "metar": "METAR OEMA 211500Z 27004KT CAVOK 33/M09 Q1009 NOSIG",
      "taf": "TAF OEMA 211100Z 2112/2218 31012KT CAVOK"
    },
    {
      "icao": "OJAI",
      "alert": "OK",
      "vis_m": 5000,
      "fzfg": false,
      "metar_trigger": false,
      "taf_trigger": false,
      "metar": "METAR OJAI 211500Z 27010KT 5000 HZ NSC 18/07 Q1015 NOSIG",
      "taf": "TAF OJAI 211100Z 2112/2218 30010KT 5000 HZ NSC"
    },
    {
      "icao": "OMAA",
      "alert": "OK",
      "vis_m": null,
      "fzfg": false,
      "metar_trigger": false,
      "taf_trigger": false,
      "metar": "",
      "taf": ""
    },
    {
      "icao": "OMDB",
      "alert": "OK",
      "vis_m": null,
      "fzfg": false,
      "metar_trigger": false,
      "taf_trigger": false,
      "metar": "",
      "taf": ""
    },
    {
      "icao": "UAAA",
      "alert": "OK",
      "vis_m": 9999,
      "fzfg": false,
      "metar_trigger": false,
      "taf_trigger": false,
      "metar": "METAR UAAA 211530Z 25002MPS 9999 SCT050CB BKN100 15/05 Q1012 NOSIG",
      "taf": "TAF UAAA 211102Z 2112/2212 17003MPS 9999 SCT050CB BKN100 TX24/2209Z TN08/2201Z"
    },
    {
      "icao": "UBBB",
      "alert": "OK",
      "vis_m": 9999,
      "fzfg": false,
      "metar_trigger": false,
      "taf_trigger": false,
      "metar": "METAR UBBB 211530Z 36008KT CAVOK 10/07 Q1012 NOSIG",
      "taf": "TAF UBBB 211052Z 2112/2212 33005KT 9999 FEW040CB BKN040 TX10/2112Z TN07/2200Z"
    },
    {
      "icao": "UDSG",
      "alert": "OK",
      "vis_m": 9999,
      "fzfg": false,
      "metar_trigger": false,
      "taf_trigger": false,
      "metar": "METAR UDSG 211530Z 07006KT 9999 BKN043CB 06/04 Q1012 NOSIG",
      "taf": "TAF UDSG 211058Z 2112/2212 24006KT 9999 BKN040"
    },
    {
      "icao": "UDYZ",
      "alert": "OK",
      "vis_m": 9999,
      "fzfg": false,
      "metar_trigger": false,
      "taf_trigger": false,
      "metar": "METAR UDYZ 211530Z 19003KT 9999 BKN043CB 12/08 Q1010 NOSIG",
      "taf": "TAF UDYZ 211100Z 2112/2212 04006KT 9999 BKN040"
    },
    {
      "icao": "UGKO",
      "alert": "OK",
      "vis_m": 9999,
      "fzfg": false,
      "metar_trigger": false,
      "taf_trigger": false,
      "metar": "METAR UGKO 211530Z VRB02KT CAVOK 17/07 Q1012 NOSIG",
      "taf": "TAF UGKO 211100Z 2112/2212 25007KT CAVOK TX22/2211Z TN07/2203Z"
    }
  ]
}