{
  "ts_utc": "2026-05-11T05:13:00Z",
  "threshold_m": 150,
  "source": "stations_override.txt (ICAO list) + aviationweather.gov (METAR/TAF raw)",
  "station_count": 159,
  "stations": [
    {
      "icao": "BIKF",
      "alert": "OK",
      "vis_m": 2500,
      "fzfg": false,
      "metar_trigger": false,
      "taf_trigger": false,
      "metar": "METAR BIKF 110500Z 25019KT 2500 -RA BKN010 OVC026 06/05 Q1006",
      "taf": "TAF BIKF 110457Z 1106/1206 24020KT 9999 -SHRA BKN009 TX08/1115Z TN05/1206Z"
    },
    {
      "icao": "BKPR",
      "alert": "OK",
      "vis_m": 9999,
      "fzfg": false,
      "metar_trigger": false,
      "taf_trigger": false,
      "metar": "METAR BKPR 110500Z VRB02KT 9999 FEW090 13/11 Q1013 NOSIG",
      "taf": ""
    },
    {
      "icao": "EBCI",
      "alert": "OK",
      "vis_m": 9000,
      "fzfg": false,
      "metar_trigger": false,
      "taf_trigger": false,
      "metar": "METAR EBCI 110450Z 36007KT 290V030 9000 -RADZ FEW004 BKN007 BKN030 07/05 Q1006 BECMG FEW010 BKN040",
      "taf": "TAF EBCI 102301Z 1100/1206 02008KT 9999 BKN045"
    },
    {
      "icao": "EDDB",
      "alert": "OK",
      "vis_m": 9999,
      "fzfg": false,
      "metar_trigger": false,
      "taf_trigger": false,
      "metar": "METAR EDDB 110450Z AUTO 11003KT 070V140 CAVOK 12/09 Q1001 BECMG 17010KT",
      "taf": "TAF EDDB 102300Z 1100/1124 06005KT CAVOK"
    },
    {
      "icao": "EDDH",
      "alert": "OK",
      "vis_m": 9999,
      "fzfg": false,
      "metar_trigger": false,
      "taf_trigger": false,
      "metar": "METAR EDDH 110450Z AUTO 34006KT 310V010 9999 BKN049 08/04 Q1002 NOSIG",
      "taf": "TAF EDDH 102300Z 1100/1206 33006KT 9999 SCT030"
    },
    {
      "icao": "EDDK",
      "alert": "OK",
      "vis_m": 9999,
      "fzfg": false,
      "metar_trigger": false,
      "taf_trigger": false,
      "metar": "METAR EDDK 110450Z AUTO 31009KT 9999 -RADZ OVC008 08/07 Q1003 TEMPO RA OVC010",
      "taf": "TAF EDDK 102300Z 1100/1206 34007KT 9999 RA BKN025"
    },
    {
      "icao": "EDDN",
      "alert": "OK",
      "vis_m": 9999,
      "fzfg": false,
      "metar_trigger": false,
      "taf_trigger": false,
      "metar": "METAR EDDN 110450Z AUTO 22003KT 190V250 9999 FEW040 13/11 Q1003 NOSIG",
      "taf": "TAF EDDN 102300Z 1100/1124 20005KT 9999 SCT020"
    },
    {
      "icao": "EDDS",
      "alert": "OK",
      "vis_m": 9999,
      "fzfg": false,
      "metar_trigger": false,
      "taf_trigger": false,
      "metar": "METAR EDDS 110450Z AUTO VRB02KT CAVOK 13/11 Q1004 NOSIG",
      "taf": "TAF EDDS 102300Z 1100/1124 VRB03KT 9999 FEW040"
    },
    {
      "icao": "EDFH",
      "alert": "OK",
      "vis_m": 2300,
      "fzfg": false,
      "metar_trigger": false,
      "taf_trigger": false,
      "metar": "METAR EDFH 110450Z 16004KT 2300 -RA BR FEW002 BKN004 11/10 Q1002",
      "taf": ""
    },
    {
      "icao": "EDJA",
      "alert": "OK",
      "vis_m": 9999,
      "fzfg": false,
      "metar_trigger": false,
      "taf_trigger": false,
      "metar": "METAR EDJA 110450Z 23012KT 9999 FEW015 12/10 Q1006",
      "taf": "TAF EDJA 110200Z 1103/1112 20007KT 9999 BKN050"
    },
    {
      "icao": "EDLW",
      "alert": "OK",
      "vis_m": 9999,
      "fzfg": false,
      "metar_trigger": false,
      "taf_trigger": false,
      "metar": "METAR EDLW 110450Z 32006KT 290V360 9999 BKN004 OVC006 06/05 Q1003",
      "taf": "TAF EDLW 110320Z 1104/1124 36004KT 9999 OVC005"
    },
    {
      "icao": "EDNY",
      "alert": "OK",
      "vis_m": 9999,
      "fzfg": false,
      "metar_trigger": false,
      "taf_trigger": false,
      "metar": "METAR EDNY 110450Z 24006KT 9999 FEW024 13/11 Q1006",
      "taf": "TAF EDNY 110200Z 1103/1112 23002KT 9000 BKN025"
    },
    {
      "icao": "EDSB",
      "alert": "OK",
      "vis_m": 9999,
      "fzfg": false,
      "metar_trigger": false,
      "taf_trigger": false,
      "metar": "METAR EDSB 110450Z 20010KT 9999 FEW039 BKN047 14/12 Q1003",
      "taf": "TAF EDSB 102300Z 1100/1124 VRB03KT 9999 FEW040"
    },
    {
      "icao": "EETN",
      "alert": "OK",
      "vis_m": 9999,
      "fzfg": false,
      "metar_trigger": false,
      "taf_trigger": false,
      "metar": "METAR EETN 110450Z 18005KT CAVOK 09/04 Q1008 NOSIG",
      "taf": "TAF EETN 102330Z 1100/1124 19006KT 9999 SCT045"
    },
    {
      "icao": "EFTU",
      "alert": "OK",
      "vis_m": 9999,
      "fzfg": false,
      "metar_trigger": false,
      "taf_trigger": false,
      "metar": "METAR EFTU 110450Z AUTO 19006KT 160V220 9999 OVC036 07/03 Q1006",
      "taf": "TAF EFTU 110236Z 1103/1203 18007KT CAVOK"
    },
    {
      "icao": "EGBB",
      "alert": "OK",
      "vis_m": 9999,
      "fzfg": false,
      "metar_trigger": false,
      "taf_trigger": false,
      "metar": "METAR EGBB 110450Z 31007KT CAVOK 06/03 Q1011",
      "taf": "TAF EGBB 110459Z 1106/1206 31007KT 9999 FEW045"
    },
    {
      "icao": "EGGP",
      "alert": "OK",
      "vis_m": 9999,
      "fzfg": false,
      "metar_trigger": false,
      "taf_trigger": false,
      "metar": "METAR EGGP 110450Z 29013KT 9999 -RADZ SCT015 BKN027 09/06 Q1011",
      "taf": "TAF EGGP 110454Z 1106/1206 31010KT 9999 SCT025"
    },
    {
      "icao": "EGGW",
      "alert": "OK",
      "vis_m": 9999,
      "fzfg": false,
      "metar_trigger": false,
      "taf_trigger": false,
      "metar": "METAR EGGW 110450Z AUTO 29011KT 9999 NCD 04/00 Q1010",
      "taf": "TAF EGGW 110459Z 1106/1206 28008KT 9999 FEW040"
    },
    {
      "icao": "EGKK",
      "alert": "OK",
      "vis_m": 9999,
      "fzfg": false,
      "metar_trigger": false,
      "taf_trigger": false,
      "metar": "METAR EGKK 110450Z 28004KT CAVOK 02/00 Q1011",
      "taf": "TAF EGKK 110456Z 1106/1212 29005KT CAVOK"
    },
    {
      "icao": "EGNM",
      "alert": "OK",
      "vis_m": 9999,
      "fzfg": false,
      "metar_trigger": false,
      "taf_trigger": false,
      "metar": "METAR EGNM 110450Z 36010KT 9999 FEW015 SCT019 BKN032 04/02 Q1010",
      "taf": "TAF EGNM 110453Z 1106/1206 01012KT 9999 SCT025"
    },
    {
      "icao": "EGPD",
      "alert": "OK",
      "vis_m": 9999,
      "fzfg": false,
      "metar_trigger": false,
      "taf_trigger": false,
      "metar": "METAR EGPD 110450Z COR AUTO 33009KT 9999 BKN048 03/00 Q1013 NOSIG",
      "taf": "TAF EGPD 110455Z 1106/1206 33012KT 9999 SCT018"
    },
    {
      "icao": "EGPF",
      "alert": "OK",
      "vis_m": 9999,
      "fzfg": false,
      "metar_trigger": false,
      "taf_trigger": false,
      "metar": "METAR EGPF 110450Z AUTO 09004KT 060V140 9999 NCD 04/M00 Q1014",
      "taf": "TAF EGPF 110457Z 1106/1206 03006KT 9999 FEW040"
    },
    {
      "icao": "EHBK",
      "alert": "OK",
      "vis_m": 9999,
      "fzfg": false,
      "metar_trigger": false,
      "taf_trigger": false,
      "metar": "METAR EHBK 110455Z AUTO 36007KT 320V030 9999 -RA FEW006/// OVC010/// 06/05 Q1005 TEMPO BKN006",
      "taf": "TAF EHBK 102302Z 1100/1206 02010KT 9999 -RA BKN040"
    },
    {
      "icao": "EHEH",
      "alert": "OK",
      "vis_m": 9999,
      "fzfg": false,
      "metar_trigger": false,
      "taf_trigger": false,
      "metar": "METAR EHEH 110455Z AUTO 35004KT 320V030 9999 +DZRA FEW015CB OVC062 07/04 Q1006 BLU NOSIG RMK TREND REMOTE BY EHWX",
      "taf": "TAF EHEH 102309Z 1100/1206 02007KT 9999 FEW024"
    },
    {
      "icao": "EKBI",
      "alert": "OK",
      "vis_m": 9999,
      "fzfg": false,
      "metar_trigger": false,
      "taf_trigger": false,
      "metar": "METAR EKBI 110450Z AUTO 08002KT 9999 BKN150/// 01/00 Q1004",
      "taf": "TAF EKBI 110227Z 1103/1203 30005KT CAVOK"
    },
    {
      "icao": "EKCH",
      "alert": "OK",
      "vis_m": 9999,
      "fzfg": false,
      "metar_trigger": false,
      "taf_trigger": false,
      "metar": "METAR EKCH 110450Z AUTO 03008KT 9999 SCT032/// OVC045/// 09/03 Q1005 NOSIG",
      "taf": "TAF EKCH 110227Z 1103/1203 03004KT CAVOK"
    },
    {
      "icao": "ENAL",
      "alert": "OK",
      "vis_m": 9999,
      "fzfg": false,
      "metar_trigger": false,
      "taf_trigger": false,
      "metar": "METAR ENAL 110450Z 12006KT 9999 -RASN FEW007 SCT012 BKN018 02/01 Q1008",
      "taf": "TAF ENAL 110200Z 1103/1112 24005KT 9999 FEW015 BKN025"
    },
    {
      "icao": "ENBR",
      "alert": "OK",
      "vis_m": 9999,
      "fzfg": false,
      "metar_trigger": false,
      "taf_trigger": false,
      "metar": "METAR ENBR 110450Z 34008KT 9999 FEW010CB 01/M01 Q1006 NOSIG RMK WIND 1200FT 35011KT",
      "taf": "TAF ENBR 102300Z 1100/1124 34008KT 9999 FEW020 SCT040"
    },
    {
      "icao": "ENGM",
      "alert": "OK",
      "vis_m": 9999,
      "fzfg": false,
      "metar_trigger": false,
      "taf_trigger": false,
      "metar": "METAR ENGM 110450Z 03007KT CAVOK 04/00 Q1003 NOSIG",
      "taf": "TAF ENGM 102300Z 1100/1124 36006KT CAVOK"
    },
    {
      "icao": "ENHD",
      "alert": "OK",
      "vis_m": 9999,
      "fzfg": false,
      "metar_trigger": false,
      "taf_trigger": false,
      "metar": "METAR ENHD 110450Z 36017KT 9999 FEW015 03/M01 Q1005",
      "taf": "TAF ENHD 110200Z 1103/1112 35012KT 9999 FEW020"
    },
    {
      "icao": "ENTC",
      "alert": "OK",
      "vis_m": 9999,
      "fzfg": false,
      "metar_trigger": false,
      "taf_trigger": false,
      "metar": "METAR ENTC 110450Z VRB02KT 9999 FEW047 SCT056 05/02 Q1005 RMK WIND 2600FT 14012KT",
      "taf": "TAF ENTC 102300Z 1100/1124 04006KT 9999 FEW050"
    },
    {
      "icao": "ENTO",
      "alert": "OK",
      "vis_m": 9999,
      "fzfg": false,
      "metar_trigger": false,
      "taf_trigger": false,
      "metar": "METAR ENTO 110450Z 01005KT 9999 FEW030 04/M00 Q1002 NOSIG",
      "taf": "TAF ENTO 102300Z 1100/1124 36005KT CAVOK"
    },
    {
      "icao": "ENVA",
      "alert": "OK",
      "vis_m": 9999,
      "fzfg": false,
      "metar_trigger": false,
      "taf_trigger": false,
      "metar": "METAR ENVA 110450Z 16001KT 9999 SCT020 BKN047 03/02 Q1007 BECMG 27010KT RMK WIND 670FT 24009KT",
      "taf": "TAF ENVA 102300Z 1100/1124 28008KT 9999 FEW020 SCT045"
    },
    {
      "icao": "ENZV",
      "alert": "OK",
      "vis_m": 9999,
      "fzfg": false,
      "metar_trigger": false,
      "taf_trigger": false,
      "metar": "METAR ENZV 110450Z 36013KT 9999 SCT013 04/02 Q1004 NOSIG",
      "taf": "TAF ENZV 102300Z 1100/1124 36008KT 9999 FEW015 SCT025"
    },
    {
      "icao": "EPGD",
      "alert": "OK",
      "vis_m": 9999,
      "fzfg": false,
      "metar_trigger": false,
      "taf_trigger": false,
      "metar": "METAR EPGD 110500Z VRB02KT CAVOK 11/05 Q1005",
      "taf": "TAF EPGD 102330Z 1100/1124 VRB02KT CAVOK"
    },
    {
      "icao": "EPKK",
      "alert": "OK",
      "vis_m": 9999,
      "fzfg": false,
      "metar_trigger": false,
      "taf_trigger": false,
      "metar": "METAR EPKK 110500Z 05005KT CAVOK 11/06 Q1006",
      "taf": "TAF EPKK 110230Z 1103/1203 06010KT CAVOK"
    },
    {
      "icao": "EPKT",
      "alert": "OK",
      "vis_m": 9999,
      "fzfg": false,
      "metar_trigger": false,
      "taf_trigger": false,
      "metar": "METAR EPKT 110500Z 13009KT CAVOK 12/06 Q1005",
      "taf": "TAF EPKT 102330Z 1100/1124 12010KT CAVOK"
    },
    {
      "icao": "EPLB",
      "alert": "OK",
      "vis_m": 9999,
      "fzfg": false,
      "metar_trigger": false,
      "taf_trigger": false,
      "metar": "METAR EPLB 110500Z 10004KT CAVOK 09/07 Q1009",
      "taf": "TAF EPLB 102330Z 1100/1124 11010KT CAVOK"
    },
    {
      "icao": "EPMO",
      "alert": "OK",
      "vis_m": 9999,
      "fzfg": false,
      "metar_trigger": false,
      "taf_trigger": false,
      "metar": "METAR EPMO 110500Z 09008KT CAVOK 09/06 Q1007",
      "taf": "TAF EPMO 102330Z 1100/1124 11010KT CAVOK"
    },
    {
      "icao": "EPPO",
      "alert": "OK",
      "vis_m": 9999,
      "fzfg": false,
      "metar_trigger": false,
      "taf_trigger": false,
      "metar": "METAR EPPO 110500Z 10004KT CAVOK 12/06 Q1004",
      "taf": "TAF EPPO 102330Z 1100/1124 14004KT CAVOK"
    },
    {
      "icao": "EPRA",
      "alert": "OK",
      "vis_m": 9999,
      "fzfg": false,
      "metar_trigger": false,
      "taf_trigger": false,
      "metar": "METAR EPRA 110500Z 13009KT CAVOK 10/04 Q1007",
      "taf": "TAF EPRA 110230Z 1103/1112 14008KT CAVOK"
    },
    {
      "icao": "EPRZ",
      "alert": "OK",
      "vis_m": 9999,
      "fzfg": false,
      "metar_trigger": false,
      "taf_trigger": false,
      "metar": "METAR EPRZ 110500Z 10005KT CAVOK 10/06 Q1009",
      "taf": "TAF EPRZ 102330Z 1100/1124 11010KT CAVOK"
    },
    {
      "icao": "EPSC",
      "alert": "OK",
      "vis_m": 9999,
      "fzfg": false,
      "metar_trigger": false,
      "taf_trigger": false,
      "metar": "METAR EPSC 110500Z 10008KT CAVOK 12/06 Q1002",
      "taf": "TAF EPSC 102330Z 1100/1124 05004KT CAVOK"
    },
    {
      "icao": "EPSY",
      "alert": "OK",
      "vis_m": 9999,
      "fzfg": false,
      "metar_trigger": false,
      "taf_trigger": false,
      "metar": "METAR EPSY 110500Z 14005KT 100V180 CAVOK 08/04 Q1008",
      "taf": "TAF EPSY 110230Z 1103/1112 15008KT CAVOK"
    },
    {
      "icao": "EPWA",
      "alert": "OK",
      "vis_m": 9999,
      "fzfg": false,
      "metar_trigger": false,
      "taf_trigger": false,
      "metar": "METAR EPWA 110500Z 11009KT CAVOK 10/04 Q1008 NOSIG",
      "taf": "TAF EPWA 110230Z 1103/1203 12010KT CAVOK"
    },
    {
      "icao": "EPWR",
      "alert": "OK",
      "vis_m": 9999,
      "fzfg": false,
      "metar_trigger": false,
      "taf_trigger": false,
      "metar": "METAR EPWR 110500Z 11005KT CAVOK 12/06 Q1003",
      "taf": "TAF EPWR 110230Z 1103/1203 11004KT CAVOK"
    },
    {
      "icao": "ESGG",
      "alert": "OK",
      "vis_m": 9999,
      "fzfg": false,
      "metar_trigger": false,
      "taf_trigger": false,
      "metar": "METAR ESGG 110450Z 18006KT CAVOK 04/02 Q1003",
      "taf": "TAF ESGG 110230Z 1103/1203 19005KT 9999 SCT030"
    },
    {
      "icao": "ESKN",
      "alert": "OK",
      "vis_m": 9999,
      "fzfg": false,
      "metar_trigger": false,
      "taf_trigger": false,
      "metar": "METAR ESKN 110450Z 25006KT CAVOK 06/05 Q1004",
      "taf": "TAF ESKN 110230Z 1103/1203 VRB03KT CAVOK"
    },
    {
      "icao": "ESMS",
      "alert": "OK",
      "vis_m": 9999,
      "fzfg": false,
      "metar_trigger": false,
      "taf_trigger": false,
      "metar": "METAR ESMS 110450Z 08005KT CAVOK 08/06 Q1004",
      "taf": "TAF ESMS 110227Z 1103/1203 08006KT CAVOK"
    },
    {
      "icao": "ESSA",
      "alert": "OK",
      "vis_m": 9999,
      "fzfg": false,
      "metar_trigger": false,
      "taf_trigger": false,
      "metar": "METAR ESSA 110450Z 19005KT 9999 FEW046 07/05 Q1004 NOSIG",
      "taf": "TAF ESSA 110230Z 1103/1203 20003KT CAVOK"
    },
    {
      "icao": "EYKA",
      "alert": "OK",
      "vis_m": 9999,
      "fzfg": false,
      "metar_trigger": false,
      "taf_trigger": false,
      "metar": "METAR EYKA 110450Z 15005KT CAVOK 07/05 Q1011",
      "taf": "TAF EYKA 110510Z 1106/1206 16010KT 9000 FEW035"
    },
    {
      "icao": "EYPA",
      "alert": "OK",
      "vis_m": 9999,
      "fzfg": false,
      "metar_trigger": false,
      "taf_trigger": false,
      "metar": "METAR EYPA 110450Z 17012KT CAVOK 10/05 Q1007",
      "taf": "TAF EYPA 102300Z 1100/1124 15010KT 9000 SCT045"
    },
    {
      "icao": "EYVI",
      "alert": "OK",
      "vis_m": 9999,
      "fzfg": false,
      "metar_trigger": false,
      "taf_trigger": false,
      "metar": "METAR EYVI 110450Z 17005KT 9999 FEW001 06/06 Q1012 NOSIG",
      "taf": "TAF EYVI 110502Z 1106/1206 VRB05KT 9000 NSC"
    },
    {
      "icao": "GCFV",
      "alert": "OK",
      "vis_m": 9999,
      "fzfg": false,
      "metar_trigger": false,
      "taf_trigger": false,
      "metar": "METAR GCFV 110500Z 33006KT 9999 FEW025 18/14 Q1016",
      "taf": "TAF GCFV 110200Z 1103/1203 36004KT 9999 FEW030 TX24/1114Z TN17/1106Z"
    },
    {
      "icao": "GCLP",
      "alert": "OK",
      "vis_m": 9999,
      "fzfg": false,
      "metar_trigger": false,
      "taf_trigger": false,
      "metar": "METAR GCLP 110500Z 33004KT 9999 FEW050 16/12 Q1016 WS R21 NOSIG",
      "taf": "TAF GCLP 110200Z 1103/1203 31005KT 9999 FEW025 BKN040 TX23/1114Z TN17/1106Z"
    },
    {
      "icao": "GCTS",
      "alert": "OK",
      "vis_m": 9999,
      "fzfg": false,
      "metar_trigger": false,
      "taf_trigger": false,
      "metar": "METAR GCTS 110500Z 25004KT 9999 FEW060 17/11 Q1017 NOSIG",
      "taf": "TAF GCTS 110200Z 1103/1203 34005KT 9999 FEW030 TX23/1114Z TN16/1106Z"
    },
    {
      "icao": "GMAD",
      "alert": "OK",
      "vis_m": 9999,
      "fzfg": false,
      "metar_trigger": false,
      "taf_trigger": false,
      "metar": "METAR GMAD 110500Z 06006KT CAVOK 15/14 Q1016 NOSIG",
      "taf": "TAF GMAD 102300Z 1100/1206 12010KT 8000 SCT020"
    },
    {
      "icao": "GMMN",
      "alert": "OK",
      "vis_m": 9999,
      "fzfg": false,
      "metar_trigger": false,
      "taf_trigger": false,
      "metar": "METAR GMMN 110500Z 23004KT 9999 BKN030 13/10 Q1017 NOSIG",
      "taf": "TAF GMMN 102300Z 1100/1206 20006KT 9999 SCT030"
    },
    {
      "icao": "GMMX",
      "alert": "OK",
      "vis_m": 9999,
      "fzfg": false,
      "metar_trigger": false,
      "taf_trigger": false,
      "metar": "METAR GMMX 110500Z VRB02KT 9999 BKN026 SCT200 14/11 Q1017 NOSIG",
      "taf": "TAF GMMX 102300Z 1100/1206 32006KT 9999 SCT026"
    },
    {
      "icao": "HEGN",
      "alert": "OK",
      "vis_m": 9999,
      "fzfg": false,
      "metar_trigger": false,
      "taf_trigger": false,
      "metar": "METAR HEGN 110500Z 35003KT CAVOK 25/02 Q1013 NOSIG",
      "taf": "TAF HEGN 110500Z 1106/1212 32012G22KT CAVOK"
    },
    {
      "icao": "HEMA",
      "alert": "OK",
      "vis_m": 9999,
      "fzfg": false,
      "metar_trigger": false,
      "taf_trigger": false,
      "metar": "METAR HEMA 110500Z 32016KT CAVOK 27/08 Q1011 NOSIG",
      "taf": "TAF HEMA 110500Z 1106/1212 33012G22KT CAVOK"
    },
    {
      "icao": "HESH",
      "alert": "OK",
      "vis_m": 9999,
      "fzfg": false,
      "metar_trigger": false,
      "taf_trigger": false,
      "metar": "METAR HESH 110500Z 35010KT CAVOK 27/13 Q1012 NOSIG",
      "taf": "TAF HESH 110500Z 1106/1212 36012G22KT CAVOK"
    },
    {
      "icao": "HESX",
      "alert": "OK",
      "vis_m": 9999,
      "fzfg": false,
      "metar_trigger": false,
      "taf_trigger": false,
      "metar": "METAR HESX 110500Z 10007KT CAVOK 22/07 Q1015 NOSIG",
      "taf": "TAF HESX 110500Z 1106/1212 09007KT CAVOK"
    },
    {
      "icao": "LATI",
      "alert": "OK",
      "vis_m": 9999,
      "fzfg": false,
      "metar_trigger": false,
      "taf_trigger": false,
      "metar": "METAR LATI 110450Z 17003KT 140V200 9999 BKN080 16/13 Q1013 NOSIG",
      "taf": "TAF LATI 110500Z 1106/1206 VRB03KT 9999 FEW040 SCT090 TX26/1112Z TN13/1204Z"
    },
    {
      "icao": "LBPD",
      "alert": "OK",
      "vis_m": 9999,
      "fzfg": false,
      "metar_trigger": false,
      "taf_trigger": false,
      "metar": "METAR LBPD 110500Z AUTO VRB02KT 9999 NCD 17/15 Q1014 NOSIG",
      "taf": "TAF LBPD 102300Z 1100/1124 VRB04KT 9999 SCT060"
    },
    {
      "icao": "LBSF",
      "alert": "OK",
      "vis_m": 9999,
      "fzfg": false,
      "metar_trigger": false,
      "taf_trigger": false,
      "metar": "METAR LBSF 110500Z 10005KT 060V130 CAVOK 15/12 Q1014 NOSIG",
      "taf": "TAF LBSF 102300Z 1100/1124 VRB04KT 9999 SCT040 SCT060"
    },
    {
      "icao": "LBWN",
      "alert": "OK",
      "vis_m": 9999,
      "fzfg": false,
      "metar_trigger": false,
      "taf_trigger": false,
      "metar": "METAR LBWN 110500Z AUTO VRB01KT 9999 NSC 15/15 Q1014 NOSIG",
      "taf": "TAF LBWN 102300Z 1100/1124 VRB03KT 7000 SCT045"
    },
    {
      "icao": "LCLK",
      "alert": "OK",
      "vis_m": 9999,
      "fzfg": false,
      "metar_trigger": false,
      "taf_trigger": false,
      "metar": "METAR LCLK 110500Z 33004KT CAVOK 22/09 Q1014 NOSIG",
      "taf": "TAF LCLK 102330Z 1100/1200 34006KT CAVOK"
    },
    {
      "icao": "LCPH",
      "alert": "OK",
      "vis_m": 9999,
      "fzfg": false,
      "metar_trigger": false,
      "taf_trigger": false,
      "metar": "METAR LCPH 110500Z 02002KT CAVOK 19/08 Q1015 NOSIG",
      "taf": "TAF LCPH 102330Z 1100/1200 02005KT CAVOK"
    },
    {
      "icao": "LEAL",
      "alert": "OK",
      "vis_m": 9999,
      "fzfg": false,
      "metar_trigger": false,
      "taf_trigger": false,
      "metar": "METAR LEAL 110500Z 29004KT CAVOK 15/11 Q1014 NOSIG",
      "taf": "TAF LEAL 102300Z 1100/1124 VRB04KT 9999 FEW035 TX26/1112Z TN16/1105Z"
    },
    {
      "icao": "LEBB",
      "alert": "OK",
      "vis_m": 9999,
      "fzfg": false,
      "metar_trigger": false,
      "taf_trigger": false,
      "metar": "METAR LEBB 110500Z VRB02KT 9999 FEW060 09/08 Q1011 NOSIG",
      "taf": "TAF LEBB 102300Z 1100/1124 13008KT 9999 FEW045 TX21/1112Z TN10/1103Z"
    },
    {
      "icao": "LEBL",
      "alert": "OK",
      "vis_m": 9999,
      "fzfg": false,
      "metar_trigger": false,
      "taf_trigger": false,
      "metar": "METAR LEBL 110430Z 27009KT 230V290 9999 FEW030 16/09 Q1011 NOSIG",
      "taf": "TAF LEBL 102300Z 1100/1124 VRB04KT 9999 FEW050 TX21/1113Z TN15/1106Z"
    },
    {
      "icao": "LECH",
      "alert": "OK",
      "vis_m": 9999,
      "fzfg": false,
      "metar_trigger": false,
      "taf_trigger": false,
      "metar": "METAR LECH 110500Z AUTO VRB02KT CAVOK 11/09 Q1013",
      "taf": "TAF LECH 102300Z 1100/1124 VRB04KT 9999 FEW020 TX24/1114Z TN10/1105Z"
    },
    {
      "icao": "LEMD",
      "alert": "OK",
      "vis_m": 9999,
      "fzfg": false,
      "metar_trigger": false,
      "taf_trigger": false,
      "metar": "METAR LEMD 110500Z 13004KT 9999 FEW022 07/07 Q1014 NOSIG",
      "taf": "TAF LEMD 102300Z 1100/1206 VRB04KT 9999 FEW020 TX18/1116Z TN07/1105Z"
    },
    {
      "icao": "LEMG",
      "alert": "OK",
      "vis_m": 9999,
      "fzfg": false,
      "metar_trigger": false,
      "taf_trigger": false,
      "metar": "METAR LEMG 110500Z 29007KT 9999 FEW080 11/08 Q1016 NOSIG",
      "taf": "TAF LEMG 102300Z 1100/1124 29007KT CAVOK TX23/1114Z TN13/1106Z"
    },
    {
      "icao": "LEVC",
      "alert": "OK",
      "vis_m": 9999,
      "fzfg": false,
      "metar_trigger": false,
      "taf_trigger": false,
      "metar": "METAR LEVC 110500Z 24011KT CAVOK 15/10 Q1014 NOSIG",
      "taf": ""
    },
    {
      "icao": "LEXJ",
      "alert": "OK",
      "vis_m": 9999,
      "fzfg": false,
      "metar_trigger": false,
      "taf_trigger": false,
      "metar": "METAR LEXJ 110500Z VRB01KT CAVOK 09/09 Q1011",
      "taf": "TAF LEXJ 110200Z 1103/1203 22009KT 9999 FEW045 TX20/1112Z TN11/1104Z"
    },
    {
      "icao": "LEZG",
      "alert": "OK",
      "vis_m": 9999,
      "fzfg": false,
      "metar_trigger": false,
      "taf_trigger": false,
      "metar": "METAR LEZG 110500Z 32003KT 9999 FEW065 12/08 Q1013 NOSIG",
      "taf": ""
    },
    {
      "icao": "LEZL",
      "alert": "OK",
      "vis_m": 7000,
      "fzfg": false,
      "metar_trigger": false,
      "taf_trigger": false,
      "metar": "METAR LEZL 110500Z 09001KT 7000 -RA FEW028 SCT035 BKN048 13/13 Q1016 NOSIG",
      "taf": "TAF LEZL 110200Z 1103/1203 VRB02KT 9999 FEW030 SCT040 TX23/1115Z TN11/1107Z"
    },
    {
      "icao": "LFBD",
      "alert": "OK",
      "vis_m": 9999,
      "fzfg": false,
      "metar_trigger": false,
      "taf_trigger": false,
      "metar": "METAR LFBD 110500Z AUTO 21005KT 9999 FEW022 12/11 Q1010 NOSIG",
      "taf": "TAF LFBD 102300Z 1100/1206 24006KT CAVOK TX21/1114Z TN11/1105Z"
    },
    {
      "icao": "LFLL",
      "alert": "OK",
      "vis_m": 9999,
      "fzfg": false,
      "metar_trigger": false,
      "taf_trigger": false,
      "metar": "METAR LFLL 110500Z 22006KT 9999 FEW036 BKN053 13/11 Q1009 NOSIG",
      "taf": "TAF LFLL 102300Z 1100/1206 18006KT 9999 FEW030 BKN055"
    },
    {
      "icao": "LFLS",
      "alert": "OK",
      "vis_m": 9999,
      "fzfg": false,
      "metar_trigger": false,
      "taf_trigger": false,
      "metar": "METAR LFLS 110500Z AUTO VRB02KT 9999 BKN054 BKN064 OVC076 11/10 Q1009 TEMPO 3000 -SHRA BR BKN007 SCT030TCU",
      "taf": ""
    },
    {
      "icao": "LFMN",
      "alert": "OK",
      "vis_m": 9999,
      "fzfg": false,
      "metar_trigger": false,
      "taf_trigger": false,
      "metar": "METAR LFMN 110500Z 32007KT 9999 FEW030 SCT033TCU BKN086 15/13 Q1009 TEMPO 4000 SHRA",
      "taf": "TAF LFMN 110200Z 1103/1209 33005KT 9999 FEW020"
    },
    {
      "icao": "LFOB",
      "alert": "OK",
      "vis_m": 9999,
      "fzfg": false,
      "metar_trigger": false,
      "taf_trigger": false,
      "metar": "METAR LFOB 110500Z AUTO 35009KT 9999 -RA OVC009/// ///TCU 08/08 Q1007 TEMPO 3000 RA",
      "taf": "TAF LFOB 102300Z 1100/1124 04013KT 9999 BKN020"
    },
    {
      "icao": "LFPO",
      "alert": "OK",
      "vis_m": 6000,
      "fzfg": false,
      "metar_trigger": false,
      "taf_trigger": false,
      "metar": "METAR LFPO 110500Z AUTO 36008KT 330V030 6000 -RA BKN008 OVC014 10/09 Q1006 TEMPO 4000 -RADZ",
      "taf": "TAF LFPO 102300Z 1100/1206 01008KT 9999 BKN012"
    },
    {
      "icao": "LFSB",
      "alert": "OK",
      "vis_m": 9999,
      "fzfg": false,
      "metar_trigger": false,
      "taf_trigger": false,
      "metar": "METAR LFSB 110500Z AUTO VRB01KT 9999 -RA SCT049/// OVC058/// ///TCU 13/12 Q1006 TEMPO FEW040CB BKN050",
      "taf": "TAF LFSB 102300Z 1100/1124 18003KT CAVOK"
    },
    {
      "icao": "LGAV",
      "alert": "OK",
      "vis_m": 9999,
      "fzfg": false,
      "metar_trigger": false,
      "taf_trigger": false,
      "metar": "METAR LGAV 110450Z 02001KT 9999 FEW030 16/12 Q1014 NOSIG",
      "taf": "TAF LGAV 110500Z 1106/1206 VRB05KT 9999 FEW025"
    },
    {
      "icao": "LGTS",
      "alert": "OK",
      "vis_m": 9999,
      "fzfg": false,
      "metar_trigger": false,
      "taf_trigger": false,
      "metar": "METAR LGTS 110450Z 11004KT CAVOK 15/14 Q1014 NOSIG",
      "taf": "TAF LGTS 110500Z 1106/1206 VRB03KT 9999 FEW030"
    },
    {
      "icao": "LHBP",
      "alert": "OK",
      "vis_m": 9999,
      "fzfg": false,
      "metar_trigger": false,
      "taf_trigger": false,
      "metar": "METAR LHBP 110500Z 15005KT CAVOK 15/10 Q1008 NOSIG",
      "taf": "TAF LHBP 102315Z 1100/1124 12005KT CAVOK"
    },
    {
      "icao": "LHDC",
      "alert": "OK",
      "vis_m": 9999,
      "fzfg": false,
      "metar_trigger": false,
      "taf_trigger": false,
      "metar": "METAR LHDC 110445Z AUTO 09004KT 050V130 CAVOK 14/09 Q1009 NOSIG",
      "taf": "TAF LHDC 110215Z 1103/1112 12004KT CAVOK"
    },
    {
      "icao": "LIBD",
      "alert": "OK",
      "vis_m": 9999,
      "fzfg": false,
      "metar_trigger": false,
      "taf_trigger": false,
      "metar": "METAR LIBD 110450Z 19003KT CAVOK 16/13 Q1012",
      "taf": "TAF LIBD 102300Z 1100/1124 VRB05KT CAVOK"
    },
    {
      "icao": "LIBG",
      "alert": "OK",
      "vis_m": null,
      "fzfg": false,
      "metar_trigger": false,
      "taf_trigger": false,
      "metar": "",
      "taf": ""
    },
    {
      "icao": "LIBP",
      "alert": "OK",
      "vis_m": 9999,
      "fzfg": false,
      "metar_trigger": false,
      "taf_trigger": false,
      "metar": "METAR LIBP 110450Z AUTO 22004KT 9999 SCT088/// 14/14 Q1011",
      "taf": "TAF LIBP 102300Z 1100/1124 VRB05KT CAVOK"
    },
    {
      "icao": "LIBR",
      "alert": "OK",
      "vis_m": 9999,
      "fzfg": false,
      "metar_trigger": false,
      "taf_trigger": false,
      "metar": "METAR LIBR 110450Z VRB01KT CAVOK 17/16 Q1012",
      "taf": "TAF LIBR 102300Z 1100/1124 18010KT 9999 FEW040"
    },
    {
      "icao": "LICA",
      "alert": "OK",
      "vis_m": 9999,
      "fzfg": false,
      "metar_trigger": false,
      "taf_trigger": false,
      "metar": "METAR LICA 110450Z AUTO 25008KT 9999 BKN027/// 19/17 Q1015",
      "taf": "TAF LICA 102300Z 1100/1124 26005KT 9999 SCT020"
    },
    {
      "icao": "LICC",
      "alert": "OK",
      "vis_m": 9999,
      "fzfg": false,
      "metar_trigger": false,
      "taf_trigger": false,
      "metar": "METAR LICC 110450Z 25004KT CAVOK 14/11 Q1014",
      "taf": "TAF LICC 102300Z 1100/1124 28005KT CAVOK"
    },
    {
      "icao": "LICJ",
      "alert": "OK",
      "vis_m": 9999,
      "fzfg": false,
      "metar_trigger": false,
      "taf_trigger": false,
      "metar": "METAR LICJ 110450Z 20006KT CAVOK 16/14 Q1015",
      "taf": "TAF LICJ 102300Z 1100/1124 24007KT 9999 FEW020"
    },
    {
      "icao": "LIMC",
      "alert": "OK",
      "vis_m": 3000,
      "fzfg": false,
      "metar_trigger": false,
      "taf_trigger": false,
      "metar": "METAR LIMC 110450Z VRB02KT 3000 -DZ BR SCT004 BKN015 13/13 Q1008 NOSIG",
      "taf": "TAF LIMC 102300Z 1100/1206 VRB05KT 9999 BKN040"
    },
    {
      "icao": "LIME",
      "alert": "OK",
      "vis_m": 8000,
      "fzfg": false,
      "metar_trigger": false,
      "taf_trigger": false,
      "metar": "METAR LIME 110450Z VRB02KT 8000 SCT010 BKN020 13/13 Q1009 NOSIG",
      "taf": "TAF LIME 102300Z 1100/1124 VRB05KT 9999 SCT030"
    },
    {
      "icao": "LIMF",
      "alert": "OK",
      "vis_m": 1500,
      "fzfg": false,
      "metar_trigger": false,
      "taf_trigger": false,
      "metar": "METAR LIMF 110450Z 05002KT 1500 -DZ BR BKN007 OVC018 13/13 Q1008",
      "taf": "TAF LIMF 102300Z 1100/1124 VRB05KT 4000 BR BKN005 BKN030"
    },
    {
      "icao": "LIMJ",
      "alert": "OK",
      "vis_m": 9999,
      "fzfg": false,
      "metar_trigger": false,
      "taf_trigger": false,
      "metar": "METAR LIMJ 110450Z 22015KT 9999 FEW012 SCT022 18/16 Q1009",
      "taf": "TAF LIMJ 102300Z 1100/1124 19012KT 9999 SCT020"
    },
    {
      "icao": "LIPE",
      "alert": "OK",
      "vis_m": 3000,
      "fzfg": false,
      "metar_trigger": false,
      "taf_trigger": false,
      "metar": "METAR LIPE 110450Z 30003KT 260V340 3000 BR FEW070 14/14 Q1009",
      "taf": "TAF LIPE 102300Z 1100/1124 VRB05KT 6000 FEW015 BKN045"
    },
    {
      "icao": "LIPH",
      "alert": "OK",
      "vis_m": 9999,
      "fzfg": false,
      "metar_trigger": false,
      "taf_trigger": false,
      "metar": "METAR LIPH 110450Z AUTO VRB02KT 9999 BKN029/// OVC071/// 15/15 Q1009",
      "taf": "TAF LIPH 102300Z 1100/1124 VRB05KT 9999 BKN050"
    },
    {
      "icao": "LIPQ",
      "alert": "OK",
      "vis_m": 9999,
      "fzfg": false,
      "metar_trigger": false,
      "taf_trigger": false,
      "metar": "METAR LIPQ 110450Z AUTO VRB01KT 9999 -RA OVC041/// 15/14 Q1009",
      "taf": "TAF LIPQ 102300Z 1100/1124 VRB05KT 9999 OVC070"
    },
    {
      "icao": "LIPR",
      "alert": "OK",
      "vis_m": 9999,
      "fzfg": false,
      "metar_trigger": false,
      "taf_trigger": false,
      "metar": "METAR LIPR 110450Z AUTO 20002KT 9999 FEW077/// 14/13 Q1009",
      "taf": "TAF LIPR 102300Z 1100/1124 VRB05KT 6000 FEW060"
    },
    {
      "icao": "LIPX",
      "alert": "OK",
      "vis_m": 9999,
      "fzfg": false,
      "metar_trigger": false,
      "taf_trigger": false,
      "metar": "METAR LIPX 110450Z VRB02KT 9999 BKN050 13/13 Q1009",
      "taf": "TAF LIPX 102300Z 1100/1124 VRB05KT 8000 SCT030"
    },
    {
      "icao": "LIPY",
      "alert": "OK",
      "vis_m": 9999,
      "fzfg": false,
      "metar_trigger": false,
      "taf_trigger": false,
      "metar": "METAR LIPY 110450Z AUTO 18004KT 9999 NCD 16/15 Q1010",
      "taf": "TAF LIPY 102300Z 1100/1124 VRB05KT 9999 BKN005 OVC070"
    },
    {
      "icao": "LIPZ",
      "alert": "OK",
      "vis_m": 9999,
      "fzfg": false,
      "metar_trigger": false,
      "taf_trigger": false,
      "metar": "METAR LIPZ 110450Z 34003KT 9999 BKN025 BKN060 15/14 Q1009 NOSIG",
      "taf": "TAF LIPZ 102300Z 1100/1206 VRB05KT 9999 SCT070"
    },
    {
      "icao": "LIRF",
      "alert": "OK",
      "vis_m": 8000,
      "fzfg": false,
      "metar_trigger": false,
      "taf_trigger": false,
      "metar": "METAR LIRF 110450Z 25008KT 8000 SCT005 SCT040 18/17 Q1012 NOSIG",
      "taf": "TAF LIRF 102300Z 1100/1206 VRB05KT 7000 SCT015"
    },
    {
      "icao": "LIRN",
      "alert": "OK",
      "vis_m": 5000,
      "fzfg": false,
      "metar_trigger": false,
      "taf_trigger": false,
      "metar": "METAR LIRN 110450Z 20006KT 170V230 5000 BR FEW005 BKN015 18/17 Q1013 NOSIG",
      "taf": "TAF LIRN 102300Z 1100/1124 20008KT 8000 SCT015"
    },
    {
      "icao": "LIRP",
      "alert": "OK",
      "vis_m": 9999,
      "fzfg": false,
      "metar_trigger": false,
      "taf_trigger": false,
      "metar": "METAR LIRP 110445Z 25006KT 9999 SCT018 SCT030 17/14 Q1011 TEMPO 5000 RA",
      "taf": "TAF LIRP 102300Z 1100/1124 24004KT 9999 SCT030 SCT050"
    },
    {
      "icao": "LIRZ",
      "alert": "OK",
      "vis_m": 9999,
      "fzfg": false,
      "metar_trigger": false,
      "taf_trigger": false,
      "metar": "METAR LIRZ 110450Z AUTO VRB01KT 9999 BKN012/// 15/15 Q1012",
      "taf": "TAF LIRZ 102300Z 1100/1124 VRB05KT 9000 BKN020"
    },
    {
      "icao": "LJLJ",
      "alert": "OK",
      "vis_m": 9999,
      "fzfg": false,
      "metar_trigger": false,
      "taf_trigger": false,
      "metar": "METAR LJLJ 110500Z VRB02KT 9999 FEW033 BKN050 13/11 Q1008 NOSIG",
      "taf": "TAF LJLJ 110500Z 1106/1206 VRB02KT 9999 FEW007 SCT045"
    },
    {
      "icao": "LKMT",
      "alert": "OK",
      "vis_m": 9999,
      "fzfg": false,
      "metar_trigger": false,
      "taf_trigger": false,
      "metar": "METAR LKMT 110500Z VRB02KT CAVOK 11/10 Q1004 NOSIG",
      "taf": "TAF LKMT 102300Z 1100/1124 VRB02KT CAVOK"
    },
    {
      "icao": "LKPR",
      "alert": "OK",
      "vis_m": 9999,
      "fzfg": false,
      "metar_trigger": false,
      "taf_trigger": false,
      "metar": "METAR LKPR 110500Z 26008KT 9999 -RA FEW020 SCT040 11/08 Q1002 NOSIG",
      "taf": "TAF LKPR 110200Z 1103/1209 22007KT 9999 SCT040"
    },
    {
      "icao": "LLBG",
      "alert": "OK",
      "vis_m": 5000,
      "fzfg": false,
      "metar_trigger": false,
      "taf_trigger": false,
      "metar": "METAR LLBG 110450Z 14004KT 100V180 5000 BR FEW007 18/17 Q1015 BECMG 8000 NSW",
      "taf": "TAF LLBG 110509Z 1106/1206 VRB03KT 6000 SCT007 TX27/1111Z TN15/1204Z"
    },
    {
      "icao": "LMML",
      "alert": "OK",
      "vis_m": 9999,
      "fzfg": false,
      "metar_trigger": false,
      "taf_trigger": false,
      "metar": "METAR LMML 110445Z 29009KT 9999 FEW012 17/16 Q1015 NOSIG",
      "taf": "TAF LMML 110500Z 1106/1206 31014KT 9999 FEW012"
    },
    {
      "icao": "LOWW",
      "alert": "OK",
      "vis_m": 9999,
      "fzfg": false,
      "metar_trigger": false,
      "taf_trigger": false,
      "metar": "METAR LOWW 110450Z 14007KT CAVOK 16/11 Q1004 NOSIG",
      "taf": "TAF LOWW 110215Z 1103/1209 15010KT CAVOK TX21/1113Z TN10/1206Z"
    },
    {
      "icao": "LPFR",
      "alert": "OK",
      "vis_m": 9999,
      "fzfg": false,
      "metar_trigger": false,
      "taf_trigger": false,
      "metar": "METAR LPFR 110500Z 21007KT 9999 FEW035 16/13 Q1014",
      "taf": "TAF LPFR 102300Z 1100/1124 23008KT 9999 SCT020"
    },
    {
      "icao": "LPMA",
      "alert": "OK",
      "vis_m": 9999,
      "fzfg": false,
      "metar_trigger": false,
      "taf_trigger": false,
      "metar": "METAR LPMA 110500Z 25007KT 9999 FEW016 15/07 Q1015",
      "taf": "TAF LPMA 102300Z 1100/1124 VRB05KT 9999 SCT015"
    },
    {
      "icao": "LPPR",
      "alert": "OK",
      "vis_m": 8000,
      "fzfg": false,
      "metar_trigger": false,
      "taf_trigger": false,
      "metar": "METAR LPPR 110500Z 16013KT 8000 SHRA FEW008 BKN015 FEW020CB 14/13 Q1010",
      "taf": "TAF LPPR 102300Z 1100/1124 18010KT 9999 SCT020"
    },
    {
      "icao": "LPPS",
      "alert": "OK",
      "vis_m": 9999,
      "fzfg": false,
      "metar_trigger": false,
      "taf_trigger": false,
      "metar": "METAR LPPS 110500Z 27004KT 9999 FEW014 14/11 Q1015",
      "taf": "TAF LPPS 102300Z 1100/1206 27010KT 9999 SCT015"
    },
    {
      "icao": "LPPT",
      "alert": "OK",
      "vis_m": 9999,
      "fzfg": false,
      "metar_trigger": false,
      "taf_trigger": false,
      "metar": "METAR LPPT 110500Z 21010KT 9999 FEW012 SCT018 14/13 Q1011",
      "taf": "TAF LPPT 102300Z 1100/1206 21013KT 9999 SCT025"
    },
    {
      "icao": "LQBK",
      "alert": "OK",
      "vis_m": 9999,
      "fzfg": false,
      "metar_trigger": false,
      "taf_trigger": false,
      "metar": "METAR LQBK 110500Z 14004KT 110V170 CAVOK 15/12 Q1009 NOSIG",
      "taf": "TAF LQBK 110500Z 1106/1206 16005KT CAVOK TX24/1113Z TN11/1204Z"
    },
    {
      "icao": "LQSA",
      "alert": "OK",
      "vis_m": 9999,
      "fzfg": false,
      "metar_trigger": false,
      "taf_trigger": false,
      "metar": "METAR LQSA 110500Z VRB02KT 9999 SCT055 14/11 Q1011 NOSIG",
      "taf": "TAF LQSA 110500Z 1106/1206 20006KT 9999 SCT055 TX24/1112Z TN06/1204Z"
    },
    {
      "icao": "LQTZ",
      "alert": "OK",
      "vis_m": 9999,
      "fzfg": false,
      "metar_trigger": false,
      "taf_trigger": false,
      "metar": "METAR LQTZ 110500Z VRB01KT 9999 SCT060 14/14 Q1009",
      "taf": "TAF LQTZ 110500Z 1106/1206 VRB02KT CAVOK TX24/1113Z TN10/1204Z"
    },
    {
      "icao": "LRBC",
      "alert": "OK",
      "vis_m": 300,
      "fzfg": false,
      "metar_trigger": false,
      "taf_trigger": false,
      "metar": "METAR LRBC 110500Z 17004KT 0300 R16/0350N FG VV002 11/11 Q1013",
      "taf": ""
    },
    {
      "icao": "LRBS",
      "alert": "OK",
      "vis_m": 9999,
      "fzfg": false,
      "metar_trigger": false,
      "taf_trigger": false,
      "metar": "METAR LRBS 110500Z 04004KT 010V080 CAVOK 14/13 Q1013 NOSIG",
      "taf": "TAF LRBS 102300Z 1100/1124 VRB04KT CAVOK"
    },
    {
      "icao": "LRBV",
      "alert": "OK",
      "vis_m": 9999,
      "fzfg": false,
      "metar_trigger": false,
      "taf_trigger": false,
      "metar": "METAR LRBV 110500Z VRB03KT 9999 VCFG FEW003 10/08 Q1013",
      "taf": "TAF LRBV 110200Z 1103/1112 VRB04KT 5000 BR NSC"
    },
    {
      "icao": "LRCL",
      "alert": "OK",
      "vis_m": 1400,
      "fzfg": false,
      "metar_trigger": false,
      "taf_trigger": false,
      "metar": "METAR LRCL 110500Z 00000KT 1400 R25/0550D BR FEW002 08/08 Q1012",
      "taf": ""
    },
    {
      "icao": "LRCV",
      "alert": "OK",
      "vis_m": 9999,
      "fzfg": false,
      "metar_trigger": false,
      "taf_trigger": false,
      "metar": "METAR LRCV 110500Z 08007KT CAVOK 13/13 Q1012",
      "taf": "TAF LRCV 110200Z 1103/1112 08007KT CAVOK"
    },
    {
      "icao": "LRIA",
      "alert": "OK",
      "vis_m": 9999,
      "fzfg": false,
      "metar_trigger": false,
      "taf_trigger": false,
      "metar": "METAR LRIA 110500Z 10004KT CAVOK 13/11 Q1013",
      "taf": "TAF LRIA 110200Z 1103/1112 VRB04KT 5000 BR NSC"
    },
    {
      "icao": "LROP",
      "alert": "OK",
      "vis_m": 9999,
      "fzfg": false,
      "metar_trigger": false,
      "taf_trigger": false,
      "metar": "METAR LROP 110500Z 07005KT CAVOK 15/13 Q1013 NOSIG",
      "taf": "TAF LROP 102300Z 1100/1124 09004KT CAVOK"
    },
    {
      "icao": "LRSB",
      "alert": "OK",
      "vis_m": 9999,
      "fzfg": false,
      "metar_trigger": false,
      "taf_trigger": false,
      "metar": "METAR LRSB 110500Z VRB01KT CAVOK 12/10 Q1012",
      "taf": "TAF LRSB 102300Z 1100/1124 VRB04KT CAVOK"
    },
    {
      "icao": "LRSM",
      "alert": "OK",
      "vis_m": 9999,
      "fzfg": false,
      "metar_trigger": false,
      "taf_trigger": false,
      "metar": "METAR LRSM 110500Z 09004KT CAVOK 15/10 Q1010",
      "taf": "TAF LRSM 110200Z 1103/1112 12006KT CAVOK"
    },
    {
      "icao": "LRSV",
      "alert": "OK",
      "vis_m": 9999,
      "fzfg": false,
      "metar_trigger": false,
      "taf_trigger": false,
      "metar": "METAR LRSV 110500Z 19003KT 150V220 CAVOK 12/10 Q1012",
      "taf": "TAF LRSV 110200Z 1103/1112 VRB04KT 5000 BR NSC"
    },
    {
      "icao": "LRTM",
      "alert": "OK",
      "vis_m": 9999,
      "fzfg": false,
      "metar_trigger": false,
      "taf_trigger": false,
      "metar": "METAR LRTM 110500Z 07006KT CAVOK 11/10 Q1012",
      "taf": "TAF LRTM 110200Z 1103/1112 VRB04KT 5000 BR NSC"
    },
    {
      "icao": "LRTR",
      "alert": "OK",
      "vis_m": 9999,
      "fzfg": false,
      "metar_trigger": false,
      "taf_trigger": false,
      "metar": "METAR LRTR 110500Z 11009KT CAVOK 15/12 Q1009",
      "taf": "TAF LRTR 102300Z 1100/1124 09007KT CAVOK"
    },
    {
      "icao": "LTAC",
      "alert": "OK",
      "vis_m": 9999,
      "fzfg": false,
      "metar_trigger": false,
      "taf_trigger": false,
      "metar": "METAR LTAC 110450Z 13004KT 040V200 9999 SCT040 BKN080 14/10 Q1017 NOSIG RMK RWY21C 14003KT RWY03L 10003KT 040V130 RWY21R VRB02KT RWY03R VRB01KT RWY21L VRB02KT",
      "taf": "TAF LTAC 110440Z 1106/1206 VRB02KT 9999 SCT040 BKN100"
    },
    {
      "icao": "LTFM",
      "alert": "OK",
      "vis_m": 6000,
      "fzfg": false,
      "metar_trigger": false,
      "taf_trigger": false,
      "metar": "METAR LTFM 110450Z 36004KT 320V030 6000 FEW025TCU SCT035 BKN070 15/14 Q1014 NOSIG RMK RWY17L 02003KT 340V040 RWY34L 36004KT RWY16R VRB02KT RWY36 03005KT 350V060 RWY18 03004KT",
      "taf": "TAF LTFM 110440Z 1106/1212 08013KT 9999 SCT040 BKN100"
    },
    {
      "icao": "LUKK",
      "alert": "OK",
      "vis_m": 550,
      "fzfg": false,
      "metar_trigger": false,
      "taf_trigger": false,
      "metar": "METAR LUKK 110500Z VRB03KT 0550 0450S R08/P2000N FG VV001 09/09 Q1014 BECMG 3000 BR",
      "taf": "TAF LUKK 110505Z 1106/1206 20008KT CAVOK"
    },
    {
      "icao": "LWOH",
      "alert": "OK",
      "vis_m": 9999,
      "fzfg": false,
      "metar_trigger": false,
      "taf_trigger": false,
      "metar": "METAR LWOH 110450Z VRB01KT 9999 FEW040 10/10 Q1015",
      "taf": "TAF LWOH 110230Z 1103/1203 32005KT 9999 FEW040"
    },
    {
      "icao": "LWSK",
      "alert": "OK",
      "vis_m": 9999,
      "fzfg": false,
      "metar_trigger": false,
      "taf_trigger": false,
      "metar": "METAR LWSK 110450Z VRB02KT CAVOK 14/12 Q1014 NOSIG",
      "taf": "TAF LWSK 110230Z 1103/1203 VRB02KT CAVOK"
    },
    {
      "icao": "LYBE",
      "alert": "OK",
      "vis_m": 9999,
      "fzfg": false,
      "metar_trigger": false,
      "taf_trigger": false,
      "metar": "METAR LYBE 110500Z 18007KT 150V210 CAVOK 18/12 Q1009 NOSIG",
      "taf": "TAF LYBE 102300Z 1100/1124 15005KT CAVOK TX25/1113Z TN15/1103Z"
    },
    {
      "icao": "LYNI",
      "alert": "OK",
      "vis_m": 9999,
      "fzfg": false,
      "metar_trigger": false,
      "taf_trigger": false,
      "metar": "METAR LYNI 110500Z VRB01KT CAVOK 16/11 Q1012 NOSIG",
      "taf": "TAF LYNI 102300Z 1100/1124 08004KT CAVOK TX27/1113Z TN11/1103Z"
    },
    {
      "icao": "LYPG",
      "alert": "OK",
      "vis_m": 9999,
      "fzfg": false,
      "metar_trigger": false,
      "taf_trigger": false,
      "metar": "METAR LYPG 110500Z VRB01KT 9999 FEW040 BKN070 17/13 Q1013 NOSIG",
      "taf": "TAF LYPG 102300Z 1100/1124 16005KT 9999 BKN040 TX24/1114Z TN15/1104Z"
    },
    {
      "icao": "LZIB",
      "alert": "OK",
      "vis_m": 9999,
      "fzfg": false,
      "metar_trigger": false,
      "taf_trigger": false,
      "metar": "METAR LZIB 110500Z 04003KT 9999 -RA NSC 14/12 Q1005 NOSIG",
      "taf": ""
    },
    {
      "icao": "LZKZ",
      "alert": "OK",
      "vis_m": 9999,
      "fzfg": false,
      "metar_trigger": false,
      "taf_trigger": false,
      "metar": "METAR LZKZ 110500Z 36005KT CAVOK 13/08 Q1009 NOSIG",
      "taf": ""
    },
    {
      "icao": "LZTT",
      "alert": "OK",
      "vis_m": 9999,
      "fzfg": false,
      "metar_trigger": false,
      "taf_trigger": false,
      "metar": "METAR LZTT 110500Z 00000KT 9999 BKN043 10/08 Q1009 NOSIG",
      "taf": ""
    },
    {
      "icao": "OEJN",
      "alert": "OK",
      "vis_m": 9999,
      "fzfg": false,
      "metar_trigger": false,
      "taf_trigger": false,
      "metar": "METAR OEJN 110500Z VRB02KT CAVOK 32/18 Q1009 NOSIG",
      "taf": "TAF OEJN 102300Z 1100/1206 VRB03KT CAVOK"
    },
    {
      "icao": "OEMA",
      "alert": "OK",
      "vis_m": 9999,
      "fzfg": false,
      "metar_trigger": false,
      "taf_trigger": false,
      "metar": "METAR OEMA 110500Z VRB02KT CAVOK 31/M01 Q1016 NOSIG",
      "taf": "TAF OEMA 102300Z 1100/1206 VRB03KT CAVOK"
    },
    {
      "icao": "OJAI",
      "alert": "OK",
      "vis_m": 5000,
      "fzfg": false,
      "metar_trigger": false,
      "taf_trigger": false,
      "metar": "METAR OJAI 110500Z 31003KT 5000 HZ NSC 17/05 Q1018 NOSIG",
      "taf": "TAF OJAI 110500Z 1106/1212 30008KT 5000 HZ NSC"
    },
    {
      "icao": "OMAA",
      "alert": "OK",
      "vis_m": 9999,
      "fzfg": false,
      "metar_trigger": false,
      "taf_trigger": false,
      "metar": "METAR OMAA 110500Z 22007KT 180V270 CAVOK 30/18 Q1008 NOSIG",
      "taf": "TAF OMAA 110500Z 1106/1212 24008KT 8000 NSC"
    },
    {
      "icao": "OMDB",
      "alert": "OK",
      "vis_m": 9999,
      "fzfg": false,
      "metar_trigger": false,
      "taf_trigger": false,
      "metar": "METAR OMDB 110500Z 20008KT 160V220 CAVOK 29/18 Q1008 NOSIG",
      "taf": "TAF OMDB 110500Z 1106/1212 22008KT 8000 NSC"
    },
    {
      "icao": "UAAA",
      "alert": "OK",
      "vis_m": 9999,
      "fzfg": false,
      "metar_trigger": false,
      "taf_trigger": false,
      "metar": "METAR UAAA 110500Z 26005MPS 9999 BKN045CB OVC100 16/12 Q1019 NOSIG",
      "taf": ""
    },
    {
      "icao": "UBBB",
      "alert": "OK",
      "vis_m": 9999,
      "fzfg": false,
      "metar_trigger": false,
      "taf_trigger": false,
      "metar": "METAR UBBB 110500Z 17012KT CAVOK 20/14 Q1018 NOSIG",
      "taf": "TAF UBBB 110457Z 1106/1206 15010KT CAVOK TX24/1110Z TN14/1201Z"
    },
    {
      "icao": "UDSG",
      "alert": "OK",
      "vis_m": 9999,
      "fzfg": false,
      "metar_trigger": false,
      "taf_trigger": false,
      "metar": "METAR UDSG 110500Z 18001KT 9999 NSC 11/07 Q1023 NOSIG",
      "taf": "TAF UDSG 102258Z 1100/1124 VRB06KT 9999 SCT050"
    },
    {
      "icao": "UDYZ",
      "alert": "OK",
      "vis_m": 9999,
      "fzfg": false,
      "metar_trigger": false,
      "taf_trigger": false,
      "metar": "METAR UDYZ 110500Z 16002KT 9999 NSC 18/09 Q1020 NOSIG",
      "taf": "TAF UDYZ 102300Z 1100/1124 16006KT 9999 FEW040"
    },
    {
      "icao": "UGKO",
      "alert": "OK",
      "vis_m": 9999,
      "fzfg": false,
      "metar_trigger": false,
      "taf_trigger": false,
      "metar": "METAR UGKO 110500Z VRB02KT CAVOK 19/14 Q1015 NOSIG",
      "taf": "TAF UGKO 110500Z 1106/1206 08007KT CAVOK TX29/1112Z TN12/1202Z"
    }
  ]
}