{
  "ts_utc": "2026-04-21T10:40:33Z",
  "threshold_m": 150,
  "source": "stations_override.txt (ICAO list) + aviationweather.gov (METAR/TAF raw)",
  "station_count": 159,
  "stations": [
    {
      "icao": "BIKF",
      "alert": "OK",
      "vis_m": 9999,
      "fzfg": false,
      "metar_trigger": false,
      "taf_trigger": false,
      "metar": "METAR BIKF 211030Z 30006KT 280V340 9999 BKN005 06/05 Q1041",
      "taf": "TAF BIKF 211038Z 2112/2212 31005KT 9999 BKN008 TX08/2114Z TN04/2206Z"
    },
    {
      "icao": "BKPR",
      "alert": "OK",
      "vis_m": 8000,
      "fzfg": false,
      "metar_trigger": false,
      "taf_trigger": false,
      "metar": "METAR BKPR 211030Z 01009KT 8000 -RA SCT010 BKN020 07/06 Q1015 NOSIG",
      "taf": "TAF BKPR 210530Z 2106/2206 01009KT 9999 SCT020 BKN040"
    },
    {
      "icao": "EBCI",
      "alert": "OK",
      "vis_m": 9999,
      "fzfg": false,
      "metar_trigger": false,
      "taf_trigger": false,
      "metar": "METAR EBCI 211020Z 06011KT 020V080 9999 FEW020 BKN029 10/05 Q1023 NOSIG",
      "taf": "TAF EBCI 210509Z 2106/2212 05008KT 9999 SCT020"
    },
    {
      "icao": "EDDB",
      "alert": "OK",
      "vis_m": 9999,
      "fzfg": false,
      "metar_trigger": false,
      "taf_trigger": false,
      "metar": "METAR EDDB 211020Z AUTO 05007KT 350V110 CAVOK 12/00 Q1024 NOSIG",
      "taf": "TAF EDDB 210500Z 2106/2206 03009KT CAVOK"
    },
    {
      "icao": "EDDH",
      "alert": "OK",
      "vis_m": 9999,
      "fzfg": false,
      "metar_trigger": false,
      "taf_trigger": false,
      "metar": "METAR EDDH 211020Z AUTO 06011KT 020V100 CAVOK 11/M01 Q1027 NOSIG",
      "taf": "TAF EDDH 210500Z 2106/2212 05005KT CAVOK"
    },
    {
      "icao": "EDDK",
      "alert": "OK",
      "vis_m": 9999,
      "fzfg": false,
      "metar_trigger": false,
      "taf_trigger": false,
      "metar": "METAR EDDK 211020Z AUTO 03007KT 310V120 9999 FEW028 12/05 Q1023 NOSIG",
      "taf": "TAF EDDK 210500Z 2106/2212 04005KT CAVOK"
    },
    {
      "icao": "EDDN",
      "alert": "OK",
      "vis_m": 9999,
      "fzfg": false,
      "metar_trigger": false,
      "taf_trigger": false,
      "metar": "METAR EDDN 211020Z AUTO 05009KT 360V080 9999 SCT028 BKN034 BKN043 09/02 Q1020 NOSIG",
      "taf": "TAF EDDN 210500Z 2106/2206 03007KT 9999 BKN025"
    },
    {
      "icao": "EDDS",
      "alert": "OK",
      "vis_m": 9999,
      "fzfg": false,
      "metar_trigger": false,
      "taf_trigger": false,
      "metar": "METAR EDDS 211020Z AUTO 06008KT 010V100 9999 FEW020 BKN025 BKN041 09/03 Q1019 NOSIG",
      "taf": "TAF EDDS 210500Z 2106/2206 VRB03KT CAVOK"
    },
    {
      "icao": "EDFH",
      "alert": "OK",
      "vis_m": 9999,
      "fzfg": false,
      "metar_trigger": false,
      "taf_trigger": false,
      "metar": "METAR EDFH 211020Z 06007KT 010V120 9999 SCT023 BKN045 08/02 Q1021",
      "taf": "TAF EDFH 210500Z 2106/2206 04005KT 9999 SCT025"
    },
    {
      "icao": "EDJA",
      "alert": "OK",
      "vis_m": 9999,
      "fzfg": false,
      "metar_trigger": false,
      "taf_trigger": false,
      "metar": "METAR EDJA 211020Z COR 02008KT 340V050 9999 FEW043 BKN049 09/01 Q1018",
      "taf": "TAF EDJA 210800Z 2109/2118 05009KT 9999 FEW040"
    },
    {
      "icao": "EDLW",
      "alert": "OK",
      "vis_m": 9999,
      "fzfg": false,
      "metar_trigger": false,
      "taf_trigger": false,
      "metar": "METAR EDLW 211020Z 05007KT 360V080 9999 FEW022 10/04 Q1024",
      "taf": "TAF EDLW 210500Z 2106/2206 04004KT 9999 OVC008"
    },
    {
      "icao": "EDNY",
      "alert": "OK",
      "vis_m": 9999,
      "fzfg": false,
      "metar_trigger": false,
      "taf_trigger": false,
      "metar": "METAR EDNY 211020Z 05009KT 010V080 9999 FEW049 12/01 Q1017",
      "taf": "TAF EDNY 210800Z 2109/2118 03011KT 9999 FEW045"
    },
    {
      "icao": "EDSB",
      "alert": "OK",
      "vis_m": 9999,
      "fzfg": false,
      "metar_trigger": false,
      "taf_trigger": false,
      "metar": "METAR EDSB 211020Z 03013KT 360V080 9999 SCT033 12/04 Q1019",
      "taf": "TAF EDSB 210500Z 2106/2206 03008KT CAVOK"
    },
    {
      "icao": "EETN",
      "alert": "OK",
      "vis_m": 9999,
      "fzfg": false,
      "metar_trigger": false,
      "taf_trigger": false,
      "metar": "METAR EETN 211020Z 31008KT CAVOK 12/M07 Q1021 NOSIG",
      "taf": "TAF EETN 210530Z 2106/2206 32008KT CAVOK"
    },
    {
      "icao": "EFTU",
      "alert": "OK",
      "vis_m": 9999,
      "fzfg": false,
      "metar_trigger": false,
      "taf_trigger": false,
      "metar": "METAR EFTU 211020Z AUTO 34009G19KT 310V020 CAVOK 13/M04 Q1022",
      "taf": "TAF EFTU 210824Z 2109/2209 02010KT CAVOK"
    },
    {
      "icao": "EGBB",
      "alert": "OK",
      "vis_m": 9999,
      "fzfg": false,
      "metar_trigger": false,
      "taf_trigger": false,
      "metar": "METAR EGBB 211020Z 08015KT 9999 BKN035 10/02 Q1027",
      "taf": "TAF EGBB 210458Z 2106/2206 05008KT 9999 FEW045"
    },
    {
      "icao": "EGGP",
      "alert": "OK",
      "vis_m": 9999,
      "fzfg": false,
      "metar_trigger": false,
      "taf_trigger": false,
      "metar": "METAR EGGP 211020Z 09015KT 9999 SCT037 11/01 Q1028",
      "taf": "TAF EGGP 210459Z 2106/2206 07009KT 9999 FEW030"
    },
    {
      "icao": "EGGW",
      "alert": "OK",
      "vis_m": 9999,
      "fzfg": false,
      "metar_trigger": false,
      "taf_trigger": false,
      "metar": "METAR EGGW 211020Z AUTO 07015KT 9999 SCT030 11/03 Q1025",
      "taf": ""
    },
    {
      "icao": "EGKK",
      "alert": "OK",
      "vis_m": 9999,
      "fzfg": false,
      "metar_trigger": false,
      "taf_trigger": false,
      "metar": "METAR EGKK 211020Z 05013KT 9999 FEW032 12/04 Q1024",
      "taf": "TAF EGKK 210459Z 2106/2212 05009KT 9999 SCT025"
    },
    {
      "icao": "EGNM",
      "alert": "OK",
      "vis_m": 9999,
      "fzfg": false,
      "metar_trigger": false,
      "taf_trigger": false,
      "metar": "METAR EGNM 211020Z 06007KT 9999 FEW025 09/01 Q1029",
      "taf": "TAF EGNM 210459Z 2106/2206 06009KT 9999 FEW030"
    },
    {
      "icao": "EGPD",
      "alert": "OK",
      "vis_m": 9999,
      "fzfg": false,
      "metar_trigger": false,
      "taf_trigger": false,
      "metar": "METAR EGPD 211020Z 06010KT 9999 BKN015 09/05 Q1035 TEMPO BKN014",
      "taf": ""
    },
    {
      "icao": "EGPF",
      "alert": "OK",
      "vis_m": 9999,
      "fzfg": false,
      "metar_trigger": false,
      "taf_trigger": false,
      "metar": "METAR EGPF 211020Z AUTO 06017KT 9999 BKN024 OVC043 09/04 Q1034",
      "taf": "TAF EGPF 210457Z 2106/2206 08009KT 9999 SCT020"
    },
    {
      "icao": "EHBK",
      "alert": "OK",
      "vis_m": 9999,
      "fzfg": false,
      "metar_trigger": false,
      "taf_trigger": false,
      "metar": "METAR EHBK 211025Z AUTO 04010KT 010V080 9999 FEW023 12/06 Q1023 NOSIG",
      "taf": "TAF EHBK 210507Z 2106/2212 05008KT CAVOK"
    },
    {
      "icao": "EHEH",
      "alert": "OK",
      "vis_m": 9999,
      "fzfg": false,
      "metar_trigger": false,
      "taf_trigger": false,
      "metar": "METAR EHEH 211025Z AUTO 05007KT 320V090 9999 NCD 12/05 Q1024 BLU NOSIG RMK TREND REMOTE BY EHWX",
      "taf": ""
    },
    {
      "icao": "EKBI",
      "alert": "OK",
      "vis_m": 9999,
      "fzfg": false,
      "metar_trigger": false,
      "taf_trigger": false,
      "metar": "METAR EKBI 211020Z AUTO 06010KT 020V100 9999 NCD 13/M03 Q1029",
      "taf": "TAF EKBI 210827Z 2109/2209 07006KT CAVOK"
    },
    {
      "icao": "EKCH",
      "alert": "OK",
      "vis_m": 9999,
      "fzfg": false,
      "metar_trigger": false,
      "taf_trigger": false,
      "metar": "METAR EKCH 211020Z AUTO 35008KT 320V030 9999 NCD 11/M05 Q1029 NOSIG",
      "taf": "TAF EKCH 210827Z 2109/2209 02010KT CAVOK"
    },
    {
      "icao": "ENAL",
      "alert": "OK",
      "vis_m": 9999,
      "fzfg": false,
      "metar_trigger": false,
      "taf_trigger": false,
      "metar": "METAR ENAL 211020Z VRB02KT 9999 SCT015 BKN020 08/04 Q1035",
      "taf": "TAF ENAL 210800Z 2109/2118 15003KT 9999 BKN018"
    },
    {
      "icao": "ENBR",
      "alert": "OK",
      "vis_m": 9999,
      "fzfg": false,
      "metar_trigger": false,
      "taf_trigger": false,
      "metar": "METAR ENBR 211020Z 30004KT 260V330 CAVOK 10/M02 Q1033 NOSIG RMK WIND 1200FT 36004KT",
      "taf": "TAF ENBR 210500Z 2106/2206 VRB03KT CAVOK"
    },
    {
      "icao": "ENGM",
      "alert": "OK",
      "vis_m": 9999,
      "fzfg": false,
      "metar_trigger": false,
      "taf_trigger": false,
      "metar": "METAR ENGM 211020Z 35009KT 310V010 CAVOK 14/M03 Q1030 NOSIG",
      "taf": "TAF ENGM 210500Z 2106/2206 01005KT CAVOK"
    },
    {
      "icao": "ENHD",
      "alert": "OK",
      "vis_m": 9999,
      "fzfg": false,
      "metar_trigger": false,
      "taf_trigger": false,
      "metar": "METAR ENHD 211020Z 29007KT CAVOK 09/03 Q1033",
      "taf": "TAF ENHD 210800Z 2109/2118 VRB03KT CAVOK"
    },
    {
      "icao": "ENTC",
      "alert": "OK",
      "vis_m": 9999,
      "fzfg": false,
      "metar_trigger": false,
      "taf_trigger": false,
      "metar": "METAR ENTC 211020Z 21023KT 9999 -RA BKN027 07/03 Q1020 NOSIG RMK WIND 2600FT 26036G56KT",
      "taf": "TAF ENTC 210500Z 2106/2206 22020KT 9999 FEW010 BKN020"
    },
    {
      "icao": "ENTO",
      "alert": "OK",
      "vis_m": 9999,
      "fzfg": false,
      "metar_trigger": false,
      "taf_trigger": false,
      "metar": "METAR ENTO 211020Z 02009KT 350V050 CAVOK 14/M01 Q1030 NOSIG",
      "taf": "TAF ENTO 210500Z 2106/2206 34008KT CAVOK"
    },
    {
      "icao": "ENVA",
      "alert": "OK",
      "vis_m": 9999,
      "fzfg": false,
      "metar_trigger": false,
      "taf_trigger": false,
      "metar": "METAR ENVA 211020Z 00000KT 9999 -DZ FEW009 BKN015 07/06 Q1033 NOSIG RMK WIND 670FT 27005KT",
      "taf": "TAF ENVA 210500Z 2106/2206 26005KT 9999 BKN010"
    },
    {
      "icao": "ENZV",
      "alert": "OK",
      "vis_m": 9999,
      "fzfg": false,
      "metar_trigger": false,
      "taf_trigger": false,
      "metar": "METAR ENZV 211020Z 29010KT CAVOK 11/M02 Q1033 NOSIG",
      "taf": "TAF ENZV 210500Z 2106/2206 VRB03KT CAVOK"
    },
    {
      "icao": "EPGD",
      "alert": "OK",
      "vis_m": 9999,
      "fzfg": false,
      "metar_trigger": false,
      "taf_trigger": false,
      "metar": "METAR EPGD 211030Z 02013KT 350V080 CAVOK 09/M05 Q1024",
      "taf": "TAF EPGD 210530Z 2106/2206 36010KT CAVOK"
    },
    {
      "icao": "EPKK",
      "alert": "OK",
      "vis_m": 9999,
      "fzfg": false,
      "metar_trigger": false,
      "taf_trigger": false,
      "metar": "METAR EPKK 211030Z 05008KT 360V090 9999 SCT050TCU 09/M02 Q1018",
      "taf": "TAF EPKK 210830Z 2109/2209 03010KT CAVOK"
    },
    {
      "icao": "EPKT",
      "alert": "OK",
      "vis_m": 9999,
      "fzfg": false,
      "metar_trigger": false,
      "taf_trigger": false,
      "metar": "METAR EPKT 211030Z 03008KT 350V060 CAVOK 10/M05 Q1019",
      "taf": "TAF EPKT 210530Z 2106/2206 03007KT 9999 BKN025"
    },
    {
      "icao": "EPLB",
      "alert": "OK",
      "vis_m": 9999,
      "fzfg": false,
      "metar_trigger": false,
      "taf_trigger": false,
      "metar": "METAR EPLB 211030Z 02010KT CAVOK 12/M05 Q1017",
      "taf": "TAF EPLB 210530Z 2106/2206 VRB04KT CAVOK"
    },
    {
      "icao": "EPMO",
      "alert": "OK",
      "vis_m": 9999,
      "fzfg": false,
      "metar_trigger": false,
      "taf_trigger": false,
      "metar": "METAR EPMO 211030Z 01010KT 310V050 CAVOK 12/M05 Q1019",
      "taf": "TAF EPMO 210530Z 2106/2206 02010KT CAVOK"
    },
    {
      "icao": "EPPO",
      "alert": "OK",
      "vis_m": 9999,
      "fzfg": false,
      "metar_trigger": false,
      "taf_trigger": false,
      "metar": "METAR EPPO 211030Z 04009KT 340V070 CAVOK 12/M05 Q1022",
      "taf": "TAF EPPO 210530Z 2106/2206 04008KT CAVOK"
    },
    {
      "icao": "EPRA",
      "alert": "OK",
      "vis_m": 9999,
      "fzfg": false,
      "metar_trigger": false,
      "taf_trigger": false,
      "metar": "METAR EPRA 211030Z 02008KT 360V080 CAVOK 11/M08 Q1018",
      "taf": "TAF EPRA 210830Z 2109/2118 01008KT CAVOK"
    },
    {
      "icao": "EPRZ",
      "alert": "OK",
      "vis_m": 9999,
      "fzfg": false,
      "metar_trigger": false,
      "taf_trigger": false,
      "metar": "METAR EPRZ 211030Z 04008KT CAVOK 10/M03 Q1017",
      "taf": "TAF EPRZ 210530Z 2106/2206 04007KT CAVOK"
    },
    {
      "icao": "EPSC",
      "alert": "OK",
      "vis_m": 9999,
      "fzfg": false,
      "metar_trigger": false,
      "taf_trigger": false,
      "metar": "METAR EPSC 211030Z 35011G21KT CAVOK 12/M04 Q1024",
      "taf": "TAF EPSC 210530Z 2106/2206 01010KT CAVOK"
    },
    {
      "icao": "EPSY",
      "alert": "OK",
      "vis_m": 9999,
      "fzfg": false,
      "metar_trigger": false,
      "taf_trigger": false,
      "metar": "METAR EPSY 211030Z 03014KT 360V080 CAVOK 11/M05 Q1020",
      "taf": "TAF EPSY 210830Z 2109/2118 36010KT CAVOK"
    },
    {
      "icao": "EPWA",
      "alert": "OK",
      "vis_m": 9999,
      "fzfg": false,
      "metar_trigger": false,
      "taf_trigger": false,
      "metar": "METAR EPWA 211030Z 35010KT 310V040 CAVOK 13/M08 Q1019 NOSIG",
      "taf": "TAF EPWA 210830Z 2109/2209 03014KT CAVOK"
    },
    {
      "icao": "EPWR",
      "alert": "OK",
      "vis_m": 9999,
      "fzfg": false,
      "metar_trigger": false,
      "taf_trigger": false,
      "metar": "METAR EPWR 211030Z 03009KT 360V060 CAVOK 12/M06 Q1020",
      "taf": "TAF EPWR 210830Z 2109/2209 01007KT CAVOK"
    },
    {
      "icao": "ESGG",
      "alert": "OK",
      "vis_m": 9999,
      "fzfg": false,
      "metar_trigger": false,
      "taf_trigger": false,
      "metar": "METAR ESGG 211020Z 01009KT 330V030 CAVOK 15/M03 Q1028",
      "taf": "TAF ESGG 210830Z 2109/2209 VRB03KT CAVOK"
    },
    {
      "icao": "ESKN",
      "alert": "OK",
      "vis_m": 9999,
      "fzfg": false,
      "metar_trigger": false,
      "taf_trigger": false,
      "metar": "METAR ESKN 211020Z 34006KT 290V060 CAVOK 14/M03 Q1026",
      "taf": "TAF ESKN 210830Z 2109/2209 33006KT CAVOK"
    },
    {
      "icao": "ESMS",
      "alert": "OK",
      "vis_m": 9999,
      "fzfg": false,
      "metar_trigger": false,
      "taf_trigger": false,
      "metar": "METAR ESMS 211020Z 05010KT 010V070 CAVOK 12/M06 Q1027",
      "taf": "TAF ESMS 210827Z 2109/2209 05008KT CAVOK"
    },
    {
      "icao": "ESSA",
      "alert": "OK",
      "vis_m": 9999,
      "fzfg": false,
      "metar_trigger": false,
      "taf_trigger": false,
      "metar": "METAR ESSA 211020Z 34009KT 300V030 CAVOK 14/M02 Q1026 NOSIG",
      "taf": "TAF ESSA 210830Z 2109/2209 35006KT CAVOK"
    },
    {
      "icao": "EYKA",
      "alert": "OK",
      "vis_m": 9999,
      "fzfg": false,
      "metar_trigger": false,
      "taf_trigger": false,
      "metar": "METAR EYKA 211020Z 03011KT CAVOK 11/M05 Q1020",
      "taf": "TAF EYKA 210500Z 2106/2206 36012KT 9000 NSC"
    },
    {
      "icao": "EYPA",
      "alert": "OK",
      "vis_m": 9999,
      "fzfg": false,
      "metar_trigger": false,
      "taf_trigger": false,
      "metar": "METAR EYPA 211020Z VRB05KT CAVOK 10/02 Q1023",
      "taf": "TAF EYPA 210500Z 2106/2206 35008KT 9000 NSC"
    },
    {
      "icao": "EYVI",
      "alert": "OK",
      "vis_m": 9999,
      "fzfg": false,
      "metar_trigger": false,
      "taf_trigger": false,
      "metar": "METAR EYVI 211020Z 01012KT CAVOK 10/M05 Q1018 NOSIG",
      "taf": "TAF EYVI 210500Z 2106/2206 VRB04KT 9000 NSC"
    },
    {
      "icao": "GCFV",
      "alert": "OK",
      "vis_m": 9999,
      "fzfg": false,
      "metar_trigger": false,
      "taf_trigger": false,
      "metar": "METAR GCFV 211030Z 30008KT 250V350 9999 FEW032 SCT035 BKN040 23/12 Q1011",
      "taf": "TAF GCFV 210800Z 2109/2209 31007KT 9999 SCT030 TX27/2114Z TN17/2206Z"
    },
    {
      "icao": "GCLP",
      "alert": "OK",
      "vis_m": 9999,
      "fzfg": false,
      "metar_trigger": false,
      "taf_trigger": false,
      "metar": "METAR GCLP 211030Z 35014KT 320V020 9999 BKN045 22/14 Q1011 NOSIG",
      "taf": "TAF GCLP 210800Z 2109/2209 04010KT 9999 BKN035 TX23/2114Z TN17/2206Z"
    },
    {
      "icao": "GCTS",
      "alert": "OK",
      "vis_m": 9999,
      "fzfg": false,
      "metar_trigger": false,
      "taf_trigger": false,
      "metar": "METAR GCTS 211030Z 16006KT 130V190 9999 SCT040 20/16 Q1012 NOSIG",
      "taf": "TAF GCTS 210800Z 2109/2209 14008KT 9999 BKN035 TX26/2114Z TN16/2206Z"
    },
    {
      "icao": "GMAD",
      "alert": "OK",
      "vis_m": 8000,
      "fzfg": false,
      "metar_trigger": false,
      "taf_trigger": false,
      "metar": "METAR GMAD 211030Z 27005KT 210V330 8000 BKN020 24/15 Q1009 NOSIG",
      "taf": "TAF GMAD 210500Z 2106/2212 18005KT 8000 FEW020 SCT083"
    },
    {
      "icao": "GMMN",
      "alert": "OK",
      "vis_m": 5000,
      "fzfg": false,
      "metar_trigger": false,
      "taf_trigger": false,
      "metar": "METAR GMMN 211030Z 25013KT 230V290 5000 SCT016 20/15 Q1009 NOSIG",
      "taf": "TAF GMMN 210500Z 2106/2212 19007KT CAVOK"
    },
    {
      "icao": "GMMX",
      "alert": "OK",
      "vis_m": 9999,
      "fzfg": false,
      "metar_trigger": false,
      "taf_trigger": false,
      "metar": "METAR GMMX 211030Z VRB03KT 9999 SCT040 SCT120 21/14 Q1009 NOSIG",
      "taf": "TAF GMMX 210500Z 2106/2212 12008KT CAVOK"
    },
    {
      "icao": "HEGN",
      "alert": "OK",
      "vis_m": 9999,
      "fzfg": false,
      "metar_trigger": false,
      "taf_trigger": false,
      "metar": "METAR HEGN 211000Z 36016KT CAVOK 25/07 Q1013 NOSIG",
      "taf": "TAF HEGN 210500Z 2106/2212 32010G20KT 6000 NSC"
    },
    {
      "icao": "HEMA",
      "alert": "OK",
      "vis_m": 9999,
      "fzfg": false,
      "metar_trigger": false,
      "taf_trigger": false,
      "metar": "METAR HEMA 211000Z 36020KT CAVOK 25/08 Q1012 NOSIG",
      "taf": "TAF HEMA 210500Z 2106/2212 33010G20KT 6000 NSC"
    },
    {
      "icao": "HESH",
      "alert": "OK",
      "vis_m": 9999,
      "fzfg": false,
      "metar_trigger": false,
      "taf_trigger": false,
      "metar": "METAR HESH 211000Z 01008KT CAVOK 26/10 Q1012 NOSIG",
      "taf": "TAF HESH 210500Z 2106/2212 01010G20KT 6000 NSC"
    },
    {
      "icao": "HESX",
      "alert": "OK",
      "vis_m": 9999,
      "fzfg": false,
      "metar_trigger": false,
      "taf_trigger": false,
      "metar": "METAR HESX 211000Z 35004KT CAVOK 22/07 Q1016 NOSIG",
      "taf": "TAF HESX 210500Z 2106/2212 33008KT 9999 SCT025"
    },
    {
      "icao": "LATI",
      "alert": "OK",
      "vis_m": 9999,
      "fzfg": false,
      "metar_trigger": false,
      "taf_trigger": false,
      "metar": "METAR LATI 211020Z 22008KT 190V260 9999 FEW030TCU SCT040 BKN062 20/11 Q1012 NOSIG",
      "taf": "TAF LATI 210500Z 2106/2206 VRB04KT 9999 BKN070 TX22/2111Z TN10/2204Z"
    },
    {
      "icao": "LBPD",
      "alert": "OK",
      "vis_m": 9999,
      "fzfg": false,
      "metar_trigger": false,
      "taf_trigger": false,
      "metar": "METAR LBPD 211030Z AUTO 15005KT 9999 -RA SCT054/// OVC068/// 15/12 Q1011 NOSIG",
      "taf": "TAF LBPD 210500Z 2106/2206 VRB04KT 9999 SCT060"
    },
    {
      "icao": "LBSF",
      "alert": "OK",
      "vis_m": 8000,
      "fzfg": false,
      "metar_trigger": false,
      "taf_trigger": false,
      "metar": "METAR LBSF 211030Z 30008KT 270V330 8000 -RA FEW009 BKN024 OVC033 08/06 Q1014 NOSIG",
      "taf": "TAF LBSF 210500Z 2106/2206 VRB04KT 9999 BKN050"
    },
    {
      "icao": "LBWN",
      "alert": "OK",
      "vis_m": 9999,
      "fzfg": false,
      "metar_trigger": false,
      "taf_trigger": false,
      "metar": "METAR LBWN 211030Z 23003KT 180V260 9999 SCT025 BKN030 13/08 Q1013 NOSIG",
      "taf": "TAF LBWN 210500Z 2106/2206 26010KT 9999 SCT020 BKN045"
    },
    {
      "icao": "LCLK",
      "alert": "OK",
      "vis_m": 9999,
      "fzfg": false,
      "metar_trigger": false,
      "taf_trigger": false,
      "metar": "METAR LCLK 211030Z 20012KT 170V230 9999 FEW020 24/12 Q1013 NOSIG",
      "taf": ""
    },
    {
      "icao": "LCPH",
      "alert": "OK",
      "vis_m": 9999,
      "fzfg": false,
      "metar_trigger": false,
      "taf_trigger": false,
      "metar": "METAR LCPH 211030Z 25009KT 240V320 9999 FEW025 21/13 Q1014 NOSIG",
      "taf": "TAF LCPH 210530Z 2106/2206 03007KT 9999 FEW025"
    },
    {
      "icao": "LEAL",
      "alert": "OK",
      "vis_m": 9999,
      "fzfg": false,
      "metar_trigger": false,
      "taf_trigger": false,
      "metar": "METAR LEAL 211030Z 09005KT 050V150 9999 FEW008 22/14 Q1012 NOSIG",
      "taf": "TAF LEAL 210500Z 2106/2206 VRB04KT CAVOK TX24/2112Z TN11/2106Z"
    },
    {
      "icao": "LEBB",
      "alert": "OK",
      "vis_m": 9999,
      "fzfg": false,
      "metar_trigger": false,
      "taf_trigger": false,
      "metar": "METAR LEBB 211030Z 10006KT 060V140 CAVOK 26/15 Q1007 NOSIG",
      "taf": ""
    },
    {
      "icao": "LEBL",
      "alert": "OK",
      "vis_m": 9999,
      "fzfg": false,
      "metar_trigger": false,
      "taf_trigger": false,
      "metar": "METAR LEBL 211030Z 21005KT 150V240 CAVOK 20/16 Q1012 NOSIG",
      "taf": "TAF LEBL 210500Z 2106/2206 VRB04KT 9999 FEW030 TX21/2112Z TN13/2106Z"
    },
    {
      "icao": "LECH",
      "alert": "OK",
      "vis_m": 9999,
      "fzfg": false,
      "metar_trigger": false,
      "taf_trigger": false,
      "metar": "METAR LECH 211030Z AUTO 10007KT 050V140 CAVOK 21/11 Q1012",
      "taf": "TAF LECH 210500Z 2106/2206 VRB04KT CAVOK TX26/2113Z TN12/2106Z"
    },
    {
      "icao": "LEMD",
      "alert": "OK",
      "vis_m": 9999,
      "fzfg": false,
      "metar_trigger": false,
      "taf_trigger": false,
      "metar": "METAR LEMD 211030Z 15003KT CAVOK 23/07 Q1011 NOSIG",
      "taf": "TAF LEMD 210500Z 2106/2212 VRB04KT CAVOK TX29/2116Z TN11/2106Z"
    },
    {
      "icao": "LEMG",
      "alert": "OK",
      "vis_m": 9999,
      "fzfg": false,
      "metar_trigger": false,
      "taf_trigger": false,
      "metar": "METAR LEMG 211030Z 14006KT 100V160 CAVOK 19/11 Q1010 NOSIG",
      "taf": "TAF LEMG 210500Z 2106/2206 30006KT CAVOK TX24/2114Z TN11/2106Z"
    },
    {
      "icao": "LEVC",
      "alert": "OK",
      "vis_m": 9999,
      "fzfg": false,
      "metar_trigger": false,
      "taf_trigger": false,
      "metar": "METAR LEVC 211030Z VRB03KT CAVOK 24/09 Q1011 NOSIG",
      "taf": "TAF LEVC 210500Z 2106/2206 VRB04KT CAVOK TX26/2112Z TN13/2106Z"
    },
    {
      "icao": "LEXJ",
      "alert": "OK",
      "vis_m": 9000,
      "fzfg": false,
      "metar_trigger": false,
      "taf_trigger": false,
      "metar": "METAR LEXJ 211030Z 05003KT 350V120 9000 NSC 20/16 Q1006",
      "taf": ""
    },
    {
      "icao": "LEZG",
      "alert": "OK",
      "vis_m": 9999,
      "fzfg": false,
      "metar_trigger": false,
      "taf_trigger": false,
      "metar": "METAR LEZG 211030Z 08008KT CAVOK 23/11 Q1010 NOSIG",
      "taf": ""
    },
    {
      "icao": "LEZL",
      "alert": "OK",
      "vis_m": 9999,
      "fzfg": false,
      "metar_trigger": false,
      "taf_trigger": false,
      "metar": "METAR LEZL 211030Z 06007KT 030V100 CAVOK 27/07 Q1005 NOSIG",
      "taf": "TAF LEZL 210800Z 2109/2209 07005KT CAVOK TX32/2115Z TN16/2206Z"
    },
    {
      "icao": "LFBD",
      "alert": "OK",
      "vis_m": 9999,
      "fzfg": false,
      "metar_trigger": false,
      "taf_trigger": false,
      "metar": "METAR LFBD 211030Z AUTO 06009KT 360V100 CAVOK 21/08 Q1010 NOSIG",
      "taf": "TAF LFBD 210500Z 2106/2212 06010KT CAVOK TX28/2115Z TN12/2106Z"
    },
    {
      "icao": "LFLL",
      "alert": "OK",
      "vis_m": 9999,
      "fzfg": false,
      "metar_trigger": false,
      "taf_trigger": false,
      "metar": "METAR LFLL 211030Z 05004KT 020V150 CAVOK 14/06 Q1014 NOSIG",
      "taf": "TAF LFLL 210500Z 2106/2212 31006KT CAVOK"
    },
    {
      "icao": "LFLS",
      "alert": "OK",
      "vis_m": 9999,
      "fzfg": false,
      "metar_trigger": false,
      "taf_trigger": false,
      "metar": "METAR LFLS 211030Z AUTO VRB05KT 9999 // NSC 16/07 Q1014",
      "taf": "TAF LFLS 210800Z 2109/2209 36005KT CAVOK"
    },
    {
      "icao": "LFMN",
      "alert": "OK",
      "vis_m": 9999,
      "fzfg": false,
      "metar_trigger": false,
      "taf_trigger": false,
      "metar": "METAR LFMN 211030Z 11006KT 9999 FEW016 BKN260 20/15 Q1011 NOSIG",
      "taf": "TAF LFMN 210800Z 2109/2215 17005KT 9999 SCT020 BKN030"
    },
    {
      "icao": "LFOB",
      "alert": "OK",
      "vis_m": 9999,
      "fzfg": false,
      "metar_trigger": false,
      "taf_trigger": false,
      "metar": "METAR LFOB 211030Z AUTO 04013KT 010V080 9999 SCT032 SCT040 BKN062 13/05 Q1021 TEMPO SCT040TCU",
      "taf": "TAF LFOB 210500Z 2106/2206 01005KT CAVOK"
    },
    {
      "icao": "LFPO",
      "alert": "OK",
      "vis_m": 9999,
      "fzfg": false,
      "metar_trigger": false,
      "taf_trigger": false,
      "metar": "METAR LFPO 211030Z 08014G25KT 030V130 CAVOK 14/M01 Q1020 TEMPO 05015G25KT",
      "taf": "TAF LFPO 210500Z 2106/2212 02012KT CAVOK"
    },
    {
      "icao": "LFSB",
      "alert": "OK",
      "vis_m": 9999,
      "fzfg": false,
      "metar_trigger": false,
      "taf_trigger": false,
      "metar": "METAR LFSB 211030Z AUTO 36007KT 320V060 CAVOK 14/03 Q1017 NOSIG",
      "taf": "TAF LFSB 210500Z 2106/2206 34006KT CAVOK"
    },
    {
      "icao": "LGAV",
      "alert": "OK",
      "vis_m": 9999,
      "fzfg": false,
      "metar_trigger": false,
      "taf_trigger": false,
      "metar": "METAR LGAV 211020Z 19009KT 9999 FEW025 24/11 Q1012 NOSIG",
      "taf": "TAF LGAV 210500Z 2106/2206 VRB05KT 9999 FEW025"
    },
    {
      "icao": "LGTS",
      "alert": "OK",
      "vis_m": 8000,
      "fzfg": false,
      "metar_trigger": false,
      "taf_trigger": false,
      "metar": "METAR LGTS 211020Z 32007KT 8000 FEW008 FEW015TCU BKN030 18/14 Q1011 NOSIG",
      "taf": "TAF LGTS 210500Z 2106/2206 VRB03KT 9999 FEW030"
    },
    {
      "icao": "LHBP",
      "alert": "OK",
      "vis_m": 9999,
      "fzfg": false,
      "metar_trigger": false,
      "taf_trigger": false,
      "metar": "METAR LHBP 211030Z 30005KT 250V340 9999 FEW040CB BKN050 13/02 Q1015 TEMPO 34015G25KT 4000 TSRAGS",
      "taf": "TAF LHBP 210515Z 2106/2206 33007KT CAVOK"
    },
    {
      "icao": "LHDC",
      "alert": "OK",
      "vis_m": 9999,
      "fzfg": false,
      "metar_trigger": false,
      "taf_trigger": false,
      "metar": "METAR LHDC 211015Z AUTO 01011KT 9999 BKN031 BKN089 11/03 Q1015 NOSIG",
      "taf": "TAF LHDC 210815Z 2109/2118 34010KT 9999 SCT030 SCT050"
    },
    {
      "icao": "LIBD",
      "alert": "OK",
      "vis_m": 9999,
      "fzfg": false,
      "metar_trigger": false,
      "taf_trigger": false,
      "metar": "METAR LIBD 211020Z 01007KT 330V050 CAVOK 20/12 Q1011",
      "taf": "TAF LIBD 210500Z 2106/2206 VRB05KT CAVOK"
    },
    {
      "icao": "LIBG",
      "alert": "OK",
      "vis_m": 9999,
      "fzfg": false,
      "metar_trigger": false,
      "taf_trigger": false,
      "metar": "METAR LIBG 210950Z VRB04KT CAVOK 23/13 Q1011",
      "taf": "TAF LIBG 210800Z 2109/2118 18010KT 9999 SCT030"
    },
    {
      "icao": "LIBP",
      "alert": "OK",
      "vis_m": 9999,
      "fzfg": false,
      "metar_trigger": false,
      "taf_trigger": false,
      "metar": "METAR LIBP 211020Z AUTO 07008KT 040V110 9999 SCT012/// BKN054/// 19/14 Q1012",
      "taf": "TAF LIBP 210500Z 2106/2206 VRB04KT 9999 SCT030"
    },
    {
      "icao": "LIBR",
      "alert": "OK",
      "vis_m": 9999,
      "fzfg": false,
      "metar_trigger": false,
      "taf_trigger": false,
      "metar": "METAR LIBR 210950Z 23007KT 180V270 CAVOK 22/14 Q1011",
      "taf": "TAF LIBR 210500Z 2106/2206 22008KT 9999 FEW040"
    },
    {
      "icao": "LICA",
      "alert": "OK",
      "vis_m": 9999,
      "fzfg": false,
      "metar_trigger": false,
      "taf_trigger": false,
      "metar": "METAR LICA 211020Z AUTO 25009KT 9999 NCD 22/09 Q1012",
      "taf": "TAF LICA 210500Z 2106/2206 07007KT 9999 FEW015"
    },
    {
      "icao": "LICC",
      "alert": "OK",
      "vis_m": 9999,
      "fzfg": false,
      "metar_trigger": false,
      "taf_trigger": false,
      "metar": "METAR LICC 211020Z 24011KT CAVOK 26/21 Q1012",
      "taf": "TAF LICC 210500Z 2106/2206 25010KT CAVOK"
    },
    {
      "icao": "LICJ",
      "alert": "OK",
      "vis_m": 9999,
      "fzfg": false,
      "metar_trigger": false,
      "taf_trigger": false,
      "metar": "METAR LICJ 211020Z 03008KT CAVOK 20/16 Q1011",
      "taf": "TAF LICJ 210500Z 2106/2206 03010KT CAVOK"
    },
    {
      "icao": "LIMC",
      "alert": "OK",
      "vis_m": 9999,
      "fzfg": false,
      "metar_trigger": false,
      "taf_trigger": false,
      "metar": "METAR LIMC 211020Z VRB04KT 9999 BKN030 17/11 Q1013 NOSIG",
      "taf": "TAF LIMC 210500Z 2106/2212 VRB05KT 9999 SCT015"
    },
    {
      "icao": "LIME",
      "alert": "OK",
      "vis_m": 9999,
      "fzfg": false,
      "metar_trigger": false,
      "taf_trigger": false,
      "metar": "METAR LIME 211020Z 12008KT 090V150 9999 SCT040 16/08 Q1013 NOSIG",
      "taf": "TAF LIME 210500Z 2106/2206 VRB05KT 9999 FEW040"
    },
    {
      "icao": "LIMF",
      "alert": "OK",
      "vis_m": 9999,
      "fzfg": false,
      "metar_trigger": false,
      "taf_trigger": false,
      "metar": "METAR LIMF 211020Z 10006KT 050V120 9999 SCT030 16/12 Q1013",
      "taf": "TAF LIMF 210500Z 2106/2206 VRB05KT CAVOK"
    },
    {
      "icao": "LIMJ",
      "alert": "OK",
      "vis_m": 9999,
      "fzfg": false,
      "metar_trigger": false,
      "taf_trigger": false,
      "metar": "METAR LIMJ 211020Z 21004KT 9999 SCT025 19/14 Q1011",
      "taf": "TAF LIMJ 210500Z 2106/2206 VRB06KT 9999 BKN030"
    },
    {
      "icao": "LIPE",
      "alert": "OK",
      "vis_m": 7000,
      "fzfg": false,
      "metar_trigger": false,
      "taf_trigger": false,
      "metar": "METAR LIPE 211020Z 07006KT 030V090 7000 SCT010 BKN025 14/13 Q1013",
      "taf": "TAF LIPE 210500Z 2106/2206 08010KT 9999 BKN020"
    },
    {
      "icao": "LIPH",
      "alert": "OK",
      "vis_m": 9999,
      "fzfg": false,
      "metar_trigger": false,
      "taf_trigger": false,
      "metar": "METAR LIPH 211020Z 08008KT 030V100 CAVOK 19/06 Q1013",
      "taf": "TAF LIPH 210500Z 2106/2206 VRB05KT 9999 SCT030"
    },
    {
      "icao": "LIPQ",
      "alert": "OK",
      "vis_m": 9999,
      "fzfg": false,
      "metar_trigger": false,
      "taf_trigger": false,
      "metar": "METAR LIPQ 211020Z AUTO 12009KT 9999 FEW085/// BKN110/// 18/03 Q1013",
      "taf": ""
    },
    {
      "icao": "LIPR",
      "alert": "OK",
      "vis_m": 7000,
      "fzfg": false,
      "metar_trigger": false,
      "taf_trigger": false,
      "metar": "METAR LIPR 211020Z 06008KT 7000 -RA BKN040 14/12 Q1013",
      "taf": "TAF LIPR 210500Z 2106/2206 VRB05KT 9999 BKN030"
    },
    {
      "icao": "LIPX",
      "alert": "OK",
      "vis_m": 9999,
      "fzfg": false,
      "metar_trigger": false,
      "taf_trigger": false,
      "metar": "METAR LIPX 211020Z 13009KT 090V170 CAVOK 18/08 Q1013",
      "taf": "TAF LIPX 210500Z 2106/2206 10010KT 9999 FEW040"
    },
    {
      "icao": "LIPY",
      "alert": "OK",
      "vis_m": 9999,
      "fzfg": false,
      "metar_trigger": false,
      "taf_trigger": false,
      "metar": "METAR LIPY 211020Z AUTO 05007KT 9999 RA OVC010/// 14/14 Q1012",
      "taf": "TAF LIPY 210500Z 2106/2206 VRB05KT 9999 BKN040"
    },
    {
      "icao": "LIPZ",
      "alert": "OK",
      "vis_m": 9999,
      "fzfg": false,
      "metar_trigger": false,
      "taf_trigger": false,
      "metar": "METAR LIPZ 211020Z 10009KT 070V130 CAVOK 17/08 Q1013 NOSIG",
      "taf": "TAF LIPZ 210500Z 2106/2212 06008KT 9999 SCT030"
    },
    {
      "icao": "LIRF",
      "alert": "OK",
      "vis_m": 9999,
      "fzfg": false,
      "metar_trigger": false,
      "taf_trigger": false,
      "metar": "METAR LIRF 211020Z 19011KT 9999 FEW015 21/15 Q1012 NOSIG",
      "taf": "TAF LIRF 210500Z 2106/2212 17010KT 8000 SCT005"
    },
    {
      "icao": "LIRN",
      "alert": "OK",
      "vis_m": 9999,
      "fzfg": false,
      "metar_trigger": false,
      "taf_trigger": false,
      "metar": "METAR LIRN 211020Z 19008KT 150V240 CAVOK 21/09 Q1012 NOSIG",
      "taf": "TAF LIRN 210500Z 2106/2206 VRB05KT 9999 FEW020"
    },
    {
      "icao": "LIRP",
      "alert": "OK",
      "vis_m": 9999,
      "fzfg": false,
      "metar_trigger": false,
      "taf_trigger": false,
      "metar": "METAR LIRP 211015Z 24005KT 9999 FEW030 SCT040 21/13 Q1011 NOSIG",
      "taf": "TAF LIRP 210500Z 2106/2206 VRB03KT 9999 BKN030 SCT060"
    },
    {
      "icao": "LIRZ",
      "alert": "OK",
      "vis_m": 9999,
      "fzfg": false,
      "metar_trigger": false,
      "taf_trigger": false,
      "metar": "METAR LIRZ 211020Z AUTO 16005KT 130V200 9999 SCT031/// BKN042/// 19/12 Q1011",
      "taf": "TAF LIRZ 210500Z 2106/2206 VRB05KT 9999 SCT050"
    },
    {
      "icao": "LJLJ",
      "alert": "OK",
      "vis_m": 9999,
      "fzfg": false,
      "metar_trigger": false,
      "taf_trigger": false,
      "metar": "METAR LJLJ 211030Z VRB02KT 9999 FEW020 SCT027 BKN035 13/06 Q1015 NOSIG",
      "taf": "TAF LJLJ 210500Z 2106/2206 19003KT 9999 FEW001 BKN012"
    },
    {
      "icao": "LKMT",
      "alert": "OK",
      "vis_m": 9999,
      "fzfg": false,
      "metar_trigger": false,
      "taf_trigger": false,
      "metar": "METAR LKMT 211030Z 06013KT 9999 BKN049 10/00 Q1018 NOSIG",
      "taf": "TAF LKMT 210500Z 2106/2206 04015KT 9999 FEW020 BKN045"
    },
    {
      "icao": "LKPR",
      "alert": "OK",
      "vis_m": 9999,
      "fzfg": false,
      "metar_trigger": false,
      "taf_trigger": false,
      "metar": "METAR LKPR 211030Z 06007KT 360V100 9999 FEW040 10/02 Q1020 NOSIG",
      "taf": "TAF LKPR 210800Z 2109/2215 05010KT 9999 BKN018"
    },
    {
      "icao": "LLBG",
      "alert": "OK",
      "vis_m": 9999,
      "fzfg": false,
      "metar_trigger": false,
      "taf_trigger": false,
      "metar": "METAR LLBG 211020Z 29011KT 260V320 9999 FEW045 21/09 Q1015 NOSIG",
      "taf": "TAF LLBG 210504Z 2106/2206 VRB04KT 9999 SCT025 TX21/2110Z TN10/2204Z"
    },
    {
      "icao": "LMML",
      "alert": "OK",
      "vis_m": 9999,
      "fzfg": false,
      "metar_trigger": false,
      "taf_trigger": false,
      "metar": "METAR LMML 211015Z 16011KT 9999 FEW010 21/16 Q1014 NOSIG",
      "taf": "TAF LMML 210500Z 2106/2206 15009KT 9999 FEW015"
    },
    {
      "icao": "LOWW",
      "alert": "OK",
      "vis_m": 9999,
      "fzfg": false,
      "metar_trigger": false,
      "taf_trigger": false,
      "metar": "METAR LOWW 211020Z 32011KT 9999 FEW018 BKN022 09/04 Q1018 NOSIG",
      "taf": "TAF LOWW 210815Z 2109/2215 36010KT 9999 SCT040 TX15/2214Z TN05/2204Z"
    },
    {
      "icao": "LPFR",
      "alert": "OK",
      "vis_m": 9999,
      "fzfg": false,
      "metar_trigger": false,
      "taf_trigger": false,
      "metar": "METAR LPFR 211030Z 10010KT 9999 FEW040 21/13 Q1006",
      "taf": "TAF LPFR 210500Z 2106/2206 07012KT CAVOK"
    },
    {
      "icao": "LPMA",
      "alert": "OK",
      "vis_m": 9999,
      "fzfg": false,
      "metar_trigger": false,
      "taf_trigger": false,
      "metar": "METAR LPMA 211030Z 35018KT 310V010 9999 VCSH SCT015 SCT028 16/10 Q1009",
      "taf": ""
    },
    {
      "icao": "LPPR",
      "alert": "OK",
      "vis_m": 9999,
      "fzfg": false,
      "metar_trigger": false,
      "taf_trigger": false,
      "metar": "METAR LPPR 211030Z 19014KT 9999 SCT018 18/15 Q1003",
      "taf": "TAF LPPR 210500Z 2106/2206 11013KT CAVOK"
    },
    {
      "icao": "LPPS",
      "alert": "OK",
      "vis_m": 9999,
      "fzfg": false,
      "metar_trigger": false,
      "taf_trigger": false,
      "metar": "METAR LPPS 211030Z 33015KT 9999 SCT010 BKN030 17/12 Q1010",
      "taf": "TAF LPPS 210500Z 2106/2212 30017KT 9999 SCT015"
    },
    {
      "icao": "LPPT",
      "alert": "OK",
      "vis_m": 9999,
      "fzfg": false,
      "metar_trigger": false,
      "taf_trigger": false,
      "metar": "METAR LPPT 211030Z 20010KT 9999 FEW020 20/13 Q1004",
      "taf": ""
    },
    {
      "icao": "LQBK",
      "alert": "OK",
      "vis_m": 9999,
      "fzfg": false,
      "metar_trigger": false,
      "taf_trigger": false,
      "metar": "METAR LQBK 211030Z 32004KT 260V350 9999 FEW030 SCT045 15/07 Q1015 TEMPO 33015KT SHRA FEW035TCU",
      "taf": "TAF LQBK 210500Z 2106/2206 33005KT 9999 SCT020 BKN045 TX16/2114Z TN05/2204Z"
    },
    {
      "icao": "LQSA",
      "alert": "OK",
      "vis_m": 9999,
      "fzfg": false,
      "metar_trigger": false,
      "taf_trigger": false,
      "metar": "METAR LQSA 211030Z VRB03KT 9999 FEW025 SCT035 BKN040 11/05 Q1014 NOSIG",
      "taf": "TAF LQSA 210500Z 2106/2206 30006KT 9999 SCT025 BKN040 TX14/2114Z TN04/2205Z"
    },
    {
      "icao": "LQTZ",
      "alert": "OK",
      "vis_m": 9999,
      "fzfg": false,
      "metar_trigger": false,
      "taf_trigger": false,
      "metar": "METAR LQTZ 211030Z 04009KT 9999 BKN040 11/08 Q1015 REDZ",
      "taf": ""
    },
    {
      "icao": "LRBC",
      "alert": "OK",
      "vis_m": 9999,
      "fzfg": false,
      "metar_trigger": false,
      "taf_trigger": false,
      "metar": "METAR LRBC 211030Z 34012KT 9999 BKN030 08/03 Q1015",
      "taf": "TAF LRBC 210800Z 2109/2118 34009KT 9999 BKN020"
    },
    {
      "icao": "LRBS",
      "alert": "OK",
      "vis_m": 9999,
      "fzfg": false,
      "metar_trigger": false,
      "taf_trigger": false,
      "metar": "METAR LRBS 211030Z 08013KT 9999 BKN023 OVC040 10/05 Q1014 NOSIG",
      "taf": "TAF LRBS 210500Z 2106/2206 09012KT 9999 SCT045"
    },
    {
      "icao": "LRBV",
      "alert": "OK",
      "vis_m": 9999,
      "fzfg": false,
      "metar_trigger": false,
      "taf_trigger": false,
      "metar": "METAR LRBV 211030Z 10011KT 9999 FEW009 SCT017 FEW030CB BKN038 06/04 Q1013",
      "taf": "TAF LRBV 210800Z 2109/2118 10012KT 9999 BKN020 SCT035CB"
    },
    {
      "icao": "LRCL",
      "alert": "OK",
      "vis_m": 9999,
      "fzfg": false,
      "metar_trigger": false,
      "taf_trigger": false,
      "metar": "METAR LRCL 211030Z 30014KT 270V330 9999 SCT036 SCT066 12/03 Q1012",
      "taf": "TAF LRCL 210800Z 2109/2118 VRB04KT 9999 BKN020 SCT035CB"
    },
    {
      "icao": "LRCV",
      "alert": "OK",
      "vis_m": 9999,
      "fzfg": false,
      "metar_trigger": false,
      "taf_trigger": false,
      "metar": "METAR LRCV 211030Z 02005KT 360V060 9999 SCT044 15/07 Q1012",
      "taf": "TAF LRCV 210800Z 2109/2118 29010KT CAVOK"
    },
    {
      "icao": "LRIA",
      "alert": "OK",
      "vis_m": 9999,
      "fzfg": false,
      "metar_trigger": false,
      "taf_trigger": false,
      "metar": "METAR LRIA 211030Z 36009KT 310V020 CAVOK 10/M02 Q1015",
      "taf": "TAF LRIA 210800Z 2109/2118 35007KT 9999 BKN030"
    },
    {
      "icao": "LROP",
      "alert": "OK",
      "vis_m": 9999,
      "fzfg": false,
      "metar_trigger": false,
      "taf_trigger": false,
      "metar": "METAR LROP 211030Z 09013KT 9999 SCT023 BKN043 10/01 Q1015 NOSIG",
      "taf": "TAF LROP 210500Z 2106/2206 09012KT 9999 SCT045"
    },
    {
      "icao": "LRSB",
      "alert": "OK",
      "vis_m": 9999,
      "fzfg": false,
      "metar_trigger": false,
      "taf_trigger": false,
      "metar": "METAR LRSB 211030Z 22007KT 150V250 9999 FEW038CB SCT050 13/04 Q1012",
      "taf": "TAF LRSB 210500Z 2106/2206 VRB04KT 9999 SCT040"
    },
    {
      "icao": "LRSM",
      "alert": "OK",
      "vis_m": 9999,
      "fzfg": false,
      "metar_trigger": false,
      "taf_trigger": false,
      "metar": "METAR LRSM 211030Z 01008KT 9999 SCT009 BKN017 08/05 Q1014",
      "taf": "TAF LRSM 210800Z 2109/2118 VRB04KT 9999 BKN035"
    },
    {
      "icao": "LRSV",
      "alert": "OK",
      "vis_m": 9999,
      "fzfg": false,
      "metar_trigger": false,
      "taf_trigger": false,
      "metar": "METAR LRSV 211030Z 33005KT 270V030 9999 BKN048 07/M02 Q1015",
      "taf": "TAF LRSV 210800Z 2109/2118 35006KT 9999 SCT035"
    },
    {
      "icao": "LRTM",
      "alert": "OK",
      "vis_m": 9999,
      "fzfg": false,
      "metar_trigger": false,
      "taf_trigger": false,
      "metar": "METAR LRTM 211030Z 30009KT 270V340 9999 SCT036 FEW040CB 13/04 Q1012",
      "taf": "TAF LRTM 210800Z 2109/2118 VRB04KT 9999 BKN020 SCT035CB"
    },
    {
      "icao": "LRTR",
      "alert": "OK",
      "vis_m": 9999,
      "fzfg": false,
      "metar_trigger": false,
      "taf_trigger": false,
      "metar": "METAR LRTR 211030Z 35008KT 290V040 9999 SCT048 16/03 Q1014",
      "taf": "TAF LRTR 210500Z 2106/2206 VRB04KT CAVOK"
    },
    {
      "icao": "LTAC",
      "alert": "OK",
      "vis_m": 9999,
      "fzfg": false,
      "metar_trigger": false,
      "taf_trigger": false,
      "metar": "METAR LTAC 211020Z 27010KT 220V290 9999 SCT040 BKN100 16/03 Q1013 NOSIG RMK RWY21C 29010KT RWY03L 27010KT 230V290 RWY21R 27009KT 220V290 RWY03R 25010KT 210V270 RWY21L 27007KT 230V320",
      "taf": "TAF LTAC 210440Z 2106/2206 VRB02KT CAVOK"
    },
    {
      "icao": "LTFM",
      "alert": "OK",
      "vis_m": 9999,
      "fzfg": false,
      "metar_trigger": false,
      "taf_trigger": false,
      "metar": "METAR LTFM 211020Z 03010KT 9999 FEW040 BKN090 16/07 Q1012 NOSIG RMK RWY17L 02010KT RWY34L 02009KT RWY16R 04009KT RWY36 04011KT RWY18 04009KT",
      "taf": "TAF LTFM 210440Z 2106/2212 VRB02KT CAVOK"
    },
    {
      "icao": "LUKK",
      "alert": "OK",
      "vis_m": 9999,
      "fzfg": false,
      "metar_trigger": false,
      "taf_trigger": false,
      "metar": "METAR LUKK 211030Z 01012KT CAVOK 11/M02 Q1014 NOSIG",
      "taf": "TAF LUKK 210501Z 2106/2206 35009KT 9999 SCT040"
    },
    {
      "icao": "LWOH",
      "alert": "OK",
      "vis_m": 9999,
      "fzfg": false,
      "metar_trigger": false,
      "taf_trigger": false,
      "metar": "METAR LWOH 211020Z VRB02KT 9999 FEW011 BKN045 12/09 Q1013",
      "taf": "TAF LWOH 210840Z 2109/2209 18006KT 9999 SCT030 BKN050"
    },
    {
      "icao": "LWSK",
      "alert": "OK",
      "vis_m": 9999,
      "fzfg": false,
      "metar_trigger": false,
      "taf_trigger": false,
      "metar": "METAR LWSK 211020Z 36011KT 9999 FEW003 SCT020 OVC032 13/08 Q1013 NOSIG",
      "taf": "TAF LWSK 210840Z 2109/2209 01008KT 9999 SCT025 OVC045"
    },
    {
      "icao": "LYBE",
      "alert": "OK",
      "vis_m": 9999,
      "fzfg": false,
      "metar_trigger": false,
      "taf_trigger": false,
      "metar": "METAR LYBE 211030Z 36011KT 9999 FEW033TCU SCT040 14/06 Q1015 TEMPO 5000 SHRA",
      "taf": "TAF LYBE 210500Z 2106/2206 26006KT 9999 SCT025 TX15/2113Z TN05/2204Z"
    },
    {
      "icao": "LYNI",
      "alert": "OK",
      "vis_m": 9999,
      "fzfg": false,
      "metar_trigger": false,
      "taf_trigger": false,
      "metar": "METAR LYNI 211030Z 18004KT 130V270 9999 SCT023 BKN070 13/07 Q1015 NOSIG",
      "taf": "TAF LYNI 210500Z 2106/2206 32006KT 9999 SCT040 BKN070 TX12/2113Z TN05/2204Z"
    },
    {
      "icao": "LYPG",
      "alert": "OK",
      "vis_m": 9999,
      "fzfg": false,
      "metar_trigger": false,
      "taf_trigger": false,
      "metar": "METAR LYPG 211030Z 17006KT 130V210 9999 FEW020 SCT040 17/12 Q1012 NOSIG",
      "taf": "TAF LYPG 210500Z 2106/2206 16005KT 8000 BKN040 OVC070 TX16/2113Z TN12/2204Z"
    },
    {
      "icao": "LZIB",
      "alert": "OK",
      "vis_m": 9999,
      "fzfg": false,
      "metar_trigger": false,
      "taf_trigger": false,
      "metar": "METAR LZIB 211030Z 31014KT 9999 FEW018 SCT027 BKN034 12/06 Q1016 NOSIG",
      "taf": "TAF LZIB 210515Z 2106/2206 34008KT CAVOK"
    },
    {
      "icao": "LZKZ",
      "alert": "OK",
      "vis_m": 9999,
      "fzfg": false,
      "metar_trigger": false,
      "taf_trigger": false,
      "metar": "METAR LZKZ 211030Z 01020KT CAVOK 11/M01 Q1016 NOSIG",
      "taf": "TAF LZKZ 210515Z 2106/2206 02015KT CAVOK"
    },
    {
      "icao": "LZTT",
      "alert": "OK",
      "vis_m": 9999,
      "fzfg": false,
      "metar_trigger": false,
      "taf_trigger": false,
      "metar": "METAR LZTT 211030Z 03016KT 9999 SCT038 BKN063 06/M03 Q1016 NOSIG",
      "taf": "TAF LZTT 210515Z 2106/2206 06012KT CAVOK"
    },
    {
      "icao": "OEJN",
      "alert": "OK",
      "vis_m": 9999,
      "fzfg": false,
      "metar_trigger": false,
      "taf_trigger": false,
      "metar": "METAR OEJN 211000Z 34016KT CAVOK 35/05 Q1008 NOSIG",
      "taf": "TAF OEJN 210500Z 2106/2212 34015KT 7000 FEW040"
    },
    {
      "icao": "OEMA",
      "alert": "OK",
      "vis_m": 9999,
      "fzfg": false,
      "metar_trigger": false,
      "taf_trigger": false,
      "metar": "METAR OEMA 211000Z 27007KT CAVOK 30/M11 Q1012 NOSIG",
      "taf": "TAF OEMA 210500Z 2106/2212 29010KT CAVOK"
    },
    {
      "icao": "OJAI",
      "alert": "OK",
      "vis_m": 5000,
      "fzfg": false,
      "metar_trigger": false,
      "taf_trigger": false,
      "metar": "METAR OJAI 211000Z 29009KT 5000 HZ SCT035 18/05 Q1016 NOSIG",
      "taf": "TAF OJAI 210450Z 2106/2212 27012KT 5000 HZ SCT035"
    },
    {
      "icao": "OMAA",
      "alert": "OK",
      "vis_m": null,
      "fzfg": false,
      "metar_trigger": false,
      "taf_trigger": false,
      "metar": "",
      "taf": ""
    },
    {
      "icao": "OMDB",
      "alert": "OK",
      "vis_m": null,
      "fzfg": false,
      "metar_trigger": false,
      "taf_trigger": false,
      "metar": "",
      "taf": ""
    },
    {
      "icao": "UAAA",
      "alert": "OK",
      "vis_m": 9999,
      "fzfg": false,
      "metar_trigger": false,
      "taf_trigger": false,
      "metar": "METAR UAAA 211030Z 35002MPS 280V060 9999 SCT050CB BKN100 23/05 Q1011 NOSIG",
      "taf": "TAF UAAA 210502Z 2106/2206 04005MPS 9999 SCT050CB BKN100 TX22/2109Z TN08/2201Z"
    },
    {
      "icao": "UBBB",
      "alert": "OK",
      "vis_m": 9999,
      "fzfg": false,
      "metar_trigger": false,
      "taf_trigger": false,
      "metar": "METAR UBBB 211030Z 34012KT 9999 FEW045CB OVC045 11/08 Q1012 NOSIG",
      "taf": "TAF UBBB 210500Z 2106/2206 33010KT 9999 FEW050CB BKN050 TX13/2110Z TN07/2200Z"
    },
    {
      "icao": "UDSG",
      "alert": "OK",
      "vis_m": 9999,
      "fzfg": false,
      "metar_trigger": false,
      "taf_trigger": false,
      "metar": "METAR UDSG 211030Z 11002KT 9999 BKN030CB 10/04 Q1011 NOSIG",
      "taf": "TAF UDSG 210458Z 2106/2206 24006KT 9999 BKN040"
    },
    {
      "icao": "UDYZ",
      "alert": "OK",
      "vis_m": 9999,
      "fzfg": false,
      "metar_trigger": false,
      "taf_trigger": false,
      "metar": "METAR UDYZ 211030Z 25006KT 9999 SCT040CB 17/06 Q1008 NOSIG",
      "taf": "TAF UDYZ 210500Z 2106/2206 20006KT 9999 SCT040"
    },
    {
      "icao": "UGKO",
      "alert": "OK",
      "vis_m": 9999,
      "fzfg": false,
      "metar_trigger": false,
      "taf_trigger": false,
      "metar": "METAR UGKO 211030Z VRB02KT 9999 SCT042 BKN054 17/06 Q1012 NOSIG",
      "taf": "TAF UGKO 210500Z 2106/2206 25007KT 9999 SCT023 BKN050 TX18/2112Z TN07/2203Z"
    }
  ]
}