{
  "ts_utc": "2026-03-06T11:52:07Z",
  "threshold_m": 150,
  "source": "stations_override.txt (ICAO list) + aviationweather.gov (METAR/TAF raw)",
  "station_count": 159,
  "stations": [
    {
      "icao": "BIKF",
      "alert": "OK",
      "vis_m": 9999,
      "fzfg": false,
      "metar_trigger": false,
      "taf_trigger": false,
      "metar": "METAR BIKF 061130Z 16022KT 9999 VCSH SCT022 BKN036 04/02 Q0979",
      "taf": "TAF BIKF 061053Z 0612/0712 15025KT 9999 -RA BKN014 OVC022 TX05/0612Z TN01/0624Z"
    },
    {
      "icao": "BKPR",
      "alert": "OK",
      "vis_m": null,
      "fzfg": false,
      "metar_trigger": false,
      "taf_trigger": false,
      "metar": "",
      "taf": "TAF BKPR 061130Z 0612/0712 VRB05KT CAVOK"
    },
    {
      "icao": "EBCI",
      "alert": "OK",
      "vis_m": 9999,
      "fzfg": false,
      "metar_trigger": false,
      "taf_trigger": false,
      "metar": "METAR EBCI 061120Z 00000KT CAVOK 17/06 Q1021 NOSIG",
      "taf": "TAF EBCI 061106Z 0612/0718 VRB03KT CAVOK"
    },
    {
      "icao": "EDDB",
      "alert": "OK",
      "vis_m": 9999,
      "fzfg": false,
      "metar_trigger": false,
      "taf_trigger": false,
      "metar": "METAR EDDB 061120Z AUTO 13007KT 100V160 CAVOK 15/01 Q1025 NOSIG",
      "taf": "TAF EDDB 061100Z 0612/0712 12005KT CAVOK"
    },
    {
      "icao": "EDDH",
      "alert": "OK",
      "vis_m": 9999,
      "fzfg": false,
      "metar_trigger": false,
      "taf_trigger": false,
      "metar": "METAR EDDH 061120Z AUTO 15007KT CAVOK 14/02 Q1023 NOSIG",
      "taf": "TAF EDDH 061100Z 0612/0718 15005KT CAVOK"
    },
    {
      "icao": "EDDK",
      "alert": "OK",
      "vis_m": 9999,
      "fzfg": false,
      "metar_trigger": false,
      "taf_trigger": false,
      "metar": "METAR EDDK 061120Z AUTO 10005KT 060V160 CAVOK 16/05 Q1022 NOSIG",
      "taf": "TAF EDDK 061100Z 0612/0718 12007KT CAVOK"
    },
    {
      "icao": "EDDN",
      "alert": "OK",
      "vis_m": 9999,
      "fzfg": false,
      "metar_trigger": false,
      "taf_trigger": false,
      "metar": "METAR EDDN 061120Z AUTO 13005KT 060V230 CAVOK 14/03 Q1022 NOSIG",
      "taf": "TAF EDDN 061100Z 0612/0712 13006KT CAVOK"
    },
    {
      "icao": "EDDS",
      "alert": "OK",
      "vis_m": 9999,
      "fzfg": false,
      "metar_trigger": false,
      "taf_trigger": false,
      "metar": "METAR EDDS 061120Z AUTO VRB02KT CAVOK 14/05 Q1021 NOSIG",
      "taf": "TAF EDDS 061100Z 0612/0712 VRB03KT CAVOK"
    },
    {
      "icao": "EDFH",
      "alert": "OK",
      "vis_m": 9999,
      "fzfg": false,
      "metar_trigger": false,
      "taf_trigger": false,
      "metar": "METAR EDFH 061120Z 14007KT CAVOK 12/05 Q1022",
      "taf": "TAF EDFH 061100Z 0612/0712 13007KT CAVOK"
    },
    {
      "icao": "EDJA",
      "alert": "OK",
      "vis_m": 9999,
      "fzfg": false,
      "metar_trigger": false,
      "taf_trigger": false,
      "metar": "METAR EDJA 061120Z 02005KT 340V050 CAVOK 14/04 Q1021",
      "taf": "TAF EDJA 061100Z 0612/0621 06005KT CAVOK"
    },
    {
      "icao": "EDLW",
      "alert": "OK",
      "vis_m": 9999,
      "fzfg": false,
      "metar_trigger": false,
      "taf_trigger": false,
      "metar": "METAR EDLW 061120Z VRB02KT CAVOK 16/04 Q1021",
      "taf": "TAF EDLW 061100Z 0612/0712 VRB03KT CAVOK"
    },
    {
      "icao": "EDNY",
      "alert": "OK",
      "vis_m": 9999,
      "fzfg": false,
      "metar_trigger": false,
      "taf_trigger": false,
      "metar": "METAR EDNY 061120Z 23005KT CAVOK 09/05 Q1022",
      "taf": "TAF EDNY 061100Z 0612/0621 24004KT 9999 SCT025"
    },
    {
      "icao": "EDSB",
      "alert": "OK",
      "vis_m": 9999,
      "fzfg": false,
      "metar_trigger": false,
      "taf_trigger": false,
      "metar": "METAR EDSB 061120Z VRB02KT 9999 FEW002 12/06 Q1022",
      "taf": "TAF EDSB 061100Z 0612/0712 VRB03KT CAVOK"
    },
    {
      "icao": "EETN",
      "alert": "OK",
      "vis_m": 9999,
      "fzfg": false,
      "metar_trigger": false,
      "taf_trigger": false,
      "metar": "METAR EETN 061150Z 22010KT 190V250 CAVOK 08/M00 Q1021 NOSIG",
      "taf": "TAF EETN 061130Z 0612/0712 23010KT CAVOK"
    },
    {
      "icao": "EFTU",
      "alert": "OK",
      "vis_m": 9999,
      "fzfg": false,
      "metar_trigger": false,
      "taf_trigger": false,
      "metar": "METAR EFTU 061120Z AUTO 24008KT CAVOK 06/M02 Q1019",
      "taf": "TAF EFTU 061125Z 0612/0712 22008KT CAVOK"
    },
    {
      "icao": "EGBB",
      "alert": "OK",
      "vis_m": 9999,
      "fzfg": false,
      "metar_trigger": false,
      "taf_trigger": false,
      "metar": "METAR EGBB 061120Z 34006KT 9999 OVC009 06/05 Q1023",
      "taf": "TAF EGBB 061102Z 0612/0712 33009KT 9000 OVC007"
    },
    {
      "icao": "EGGP",
      "alert": "OK",
      "vis_m": 9999,
      "fzfg": false,
      "metar_trigger": false,
      "taf_trigger": false,
      "metar": "METAR EGGP 061120Z 34007KT 9999 -DZ BKN009 BKN015 05/03 Q1024",
      "taf": "TAF EGGP 061100Z 0612/0712 VRB03KT 9999 SCT016"
    },
    {
      "icao": "EGGW",
      "alert": "OK",
      "vis_m": 2500,
      "fzfg": false,
      "metar_trigger": false,
      "taf_trigger": false,
      "metar": "METAR EGGW 061120Z COR 33009KT 300V360 2500 BR OVC003 07/06 Q1022",
      "taf": "TAF EGGW 061102Z 0612/0712 01006KT 8000 BKN011"
    },
    {
      "icao": "EGKK",
      "alert": "OK",
      "vis_m": 6000,
      "fzfg": false,
      "metar_trigger": false,
      "taf_trigger": false,
      "metar": "METAR EGKK 061120Z 33007KT 6000 BKN006 09/08 Q1022",
      "taf": "TAF EGKK 061056Z 0612/0718 35005KT 9999 BKN016"
    },
    {
      "icao": "EGNM",
      "alert": "OK",
      "vis_m": 9999,
      "fzfg": false,
      "metar_trigger": false,
      "taf_trigger": false,
      "metar": "METAR EGNM 061120Z 35010KT 300V020 9999 BKN008 04/02 Q1023",
      "taf": "TAF EGNM 061057Z 0612/0712 02012KT 9999 SCT008"
    },
    {
      "icao": "EGPD",
      "alert": "OK",
      "vis_m": 9999,
      "fzfg": false,
      "metar_trigger": false,
      "taf_trigger": false,
      "metar": "METAR EGPD 061120Z COR AUTO 31004KT 270V350 9999 NCD 06/02 Q1024 NOSIG",
      "taf": "TAF EGPD 061057Z 0612/0712 30008KT 9999 FEW045"
    },
    {
      "icao": "EGPF",
      "alert": "OK",
      "vis_m": 9999,
      "fzfg": false,
      "metar_trigger": false,
      "taf_trigger": false,
      "metar": "METAR EGPF 061120Z AUTO VRB03KT 9999 NCD 06/02 Q1026",
      "taf": "TAF EGPF 061056Z 0612/0712 VRB04KT 9999 FEW035"
    },
    {
      "icao": "EHBK",
      "alert": "OK",
      "vis_m": 9999,
      "fzfg": false,
      "metar_trigger": false,
      "taf_trigger": false,
      "metar": "METAR EHBK 061125Z AUTO 04004KT 340V080 9999 NCD 17/06 Q1021 NOSIG",
      "taf": "TAF EHBK 061106Z 0612/0718 VRB02KT CAVOK"
    },
    {
      "icao": "EHEH",
      "alert": "OK",
      "vis_m": 9999,
      "fzfg": false,
      "metar_trigger": false,
      "taf_trigger": false,
      "metar": "METAR EHEH 061125Z AUTO 15004KT 090V170 9999 NCD 16/06 Q1021 BLU NOSIG RMK TREND REMOTE BY EHWX",
      "taf": "TAF EHEH 060503Z 0606/0712 15002KT CAVOK"
    },
    {
      "icao": "EKBI",
      "alert": "OK",
      "vis_m": 9999,
      "fzfg": false,
      "metar_trigger": false,
      "taf_trigger": false,
      "metar": "METAR EKBI 061120Z AUTO 19004KT 150V220 9999 NCD 12/03 Q1023",
      "taf": "TAF EKBI 061127Z 0612/0712 14006KT CAVOK"
    },
    {
      "icao": "EKCH",
      "alert": "OK",
      "vis_m": 9999,
      "fzfg": false,
      "metar_trigger": false,
      "taf_trigger": false,
      "metar": "METAR EKCH 061120Z AUTO 15006KT 9999 NCD 08/M01 Q1025 NOSIG",
      "taf": "TAF EKCH 061127Z 0612/0712 15007KT CAVOK"
    },
    {
      "icao": "ENAL",
      "alert": "OK",
      "vis_m": 9999,
      "fzfg": false,
      "metar_trigger": false,
      "taf_trigger": false,
      "metar": "METAR ENAL 061120Z 15007KT 9999 FEW020 05/02 Q1022",
      "taf": "TAF ENAL 061100Z 0612/0621 15008KT 9999 FEW030"
    },
    {
      "icao": "ENBR",
      "alert": "OK",
      "vis_m": 3000,
      "fzfg": false,
      "metar_trigger": false,
      "taf_trigger": false,
      "metar": "METAR ENBR 061120Z 16006KT 090V180 3000 -RA BR FEW003 BKN007 05/04 Q1021 TEMPO 2000 DZRA BR BKN004 RMK WIND 1200FT 17004KT",
      "taf": "TAF ENBR 061100Z 0612/0712 15005KT 6000 -RADZ SCT005 BKN015"
    },
    {
      "icao": "ENGM",
      "alert": "OK",
      "vis_m": 350,
      "fzfg": true,
      "metar_trigger": false,
      "taf_trigger": false,
      "metar": "METAR ENGM 061120Z 21003KT 180V240 0350 R19R/0375N R01R/0400N R19L/0500N R01L/0450D FZFG VV002 M00/M01 Q1021 BECMG 0600 FG",
      "taf": "TAF ENGM 061100Z 0612/0712 18005KT 0300 FG VV002"
    },
    {
      "icao": "ENHD",
      "alert": "OK",
      "vis_m": 9999,
      "fzfg": false,
      "metar_trigger": false,
      "taf_trigger": false,
      "metar": "METAR ENHD 061120Z 19011KT 9999 BKN020 06/04 Q1021",
      "taf": "TAF ENHD 061100Z 0612/0621 20008KT 9000 -RA BKN018"
    },
    {
      "icao": "ENTC",
      "alert": "OK",
      "vis_m": 9999,
      "fzfg": false,
      "metar_trigger": false,
      "taf_trigger": false,
      "metar": "METAR ENTC 061120Z 22017KT 9999 -SHRA SCT017CB BKN022 02/M00 Q1004 TEMPO 24018G28KT 4000 SHRASN BKN008 SCT020CB RMK WIND 2600FT 23030G51KT",
      "taf": ""
    },
    {
      "icao": "ENTO",
      "alert": "OK",
      "vis_m": 9999,
      "fzfg": false,
      "metar_trigger": false,
      "taf_trigger": false,
      "metar": "METAR ENTO 061120Z 17005KT 9999 FEW039 08/03 Q1023 NOSIG",
      "taf": "TAF ENTO 061100Z 0612/0712 18005KT 9999 FEW040"
    },
    {
      "icao": "ENVA",
      "alert": "OK",
      "vis_m": 9999,
      "fzfg": false,
      "metar_trigger": false,
      "taf_trigger": false,
      "metar": "METAR ENVA 061120Z 25007KT 9999 SCT017 BKN024 06/03 Q1022 NOSIG RMK WIND 670FT 26009KT",
      "taf": "TAF ENVA 061100Z 0612/0712 25010KT 9999 SCT018 BKN024"
    },
    {
      "icao": "ENZV",
      "alert": "OK",
      "vis_m": 9999,
      "fzfg": false,
      "metar_trigger": false,
      "taf_trigger": false,
      "metar": "METAR ENZV 061050Z VRB02KT CAVOK 08/04 Q1021 NOSIG",
      "taf": "TAF ENZV 061100Z 0612/0712 VRB05KT 9999 SCT045"
    },
    {
      "icao": "EPGD",
      "alert": "OK",
      "vis_m": 9999,
      "fzfg": false,
      "metar_trigger": false,
      "taf_trigger": false,
      "metar": "METAR EPGD 061130Z VRB02KT CAVOK 12/M06 Q1027",
      "taf": "TAF EPGD 061130Z 0612/0712 VRB03KT CAVOK"
    },
    {
      "icao": "EPKK",
      "alert": "OK",
      "vis_m": 9999,
      "fzfg": false,
      "metar_trigger": false,
      "taf_trigger": false,
      "metar": "METAR EPKK 061130Z 07005KT 340V090 CAVOK 12/M05 Q1027",
      "taf": "TAF EPKK 061130Z 0612/0712 08007KT CAVOK"
    },
    {
      "icao": "EPKT",
      "alert": "OK",
      "vis_m": 9999,
      "fzfg": false,
      "metar_trigger": false,
      "taf_trigger": false,
      "metar": "METAR EPKT 061130Z VRB04KT CAVOK 13/M06 Q1026",
      "taf": "TAF EPKT 061130Z 0612/0712 14004KT CAVOK"
    },
    {
      "icao": "EPLB",
      "alert": "OK",
      "vis_m": 9999,
      "fzfg": false,
      "metar_trigger": false,
      "taf_trigger": false,
      "metar": "METAR EPLB 061130Z 30006KT 260V330 CAVOK 10/M00 Q1027",
      "taf": "TAF EPLB 061130Z 0612/0712 32007KT CAVOK"
    },
    {
      "icao": "EPMO",
      "alert": "OK",
      "vis_m": 9999,
      "fzfg": false,
      "metar_trigger": false,
      "taf_trigger": false,
      "metar": "METAR EPMO 061130Z VRB04KT CAVOK 10/01 Q1028",
      "taf": "TAF EPMO 061130Z 0612/0712 VRB03KT CAVOK"
    },
    {
      "icao": "EPPO",
      "alert": "OK",
      "vis_m": 9999,
      "fzfg": false,
      "metar_trigger": false,
      "taf_trigger": false,
      "metar": "METAR EPPO 061130Z 12007KT 100V160 CAVOK 13/M01 Q1027",
      "taf": "TAF EPPO 061130Z 0612/0712 13006KT CAVOK"
    },
    {
      "icao": "EPRA",
      "alert": "OK",
      "vis_m": 9999,
      "fzfg": false,
      "metar_trigger": false,
      "taf_trigger": false,
      "metar": "METAR EPRA 061130Z VRB03KT CAVOK 10/M02 Q1028",
      "taf": "TAF EPRA 061130Z 0612/0621 VRB02KT CAVOK"
    },
    {
      "icao": "EPRZ",
      "alert": "OK",
      "vis_m": 9999,
      "fzfg": false,
      "metar_trigger": false,
      "taf_trigger": false,
      "metar": "METAR EPRZ 061130Z VRB02KT CAVOK 12/M01 Q1027",
      "taf": "TAF EPRZ 061130Z 0612/0712 VRB03KT CAVOK"
    },
    {
      "icao": "EPSC",
      "alert": "OK",
      "vis_m": 9999,
      "fzfg": false,
      "metar_trigger": false,
      "taf_trigger": false,
      "metar": "METAR EPSC 061130Z 15011KT CAVOK 12/M01 Q1026",
      "taf": "TAF EPSC 061130Z 0612/0712 14010KT CAVOK"
    },
    {
      "icao": "EPSY",
      "alert": "OK",
      "vis_m": 9999,
      "fzfg": false,
      "metar_trigger": false,
      "taf_trigger": false,
      "metar": "METAR EPSY 061130Z 01004KT 300V060 CAVOK 09/M03 Q1027",
      "taf": "TAF EPSY 061130Z 0612/0621 VRB03KT CAVOK"
    },
    {
      "icao": "EPWA",
      "alert": "OK",
      "vis_m": 9999,
      "fzfg": false,
      "metar_trigger": false,
      "taf_trigger": false,
      "metar": "METAR EPWA 061130Z 25003KT 180V320 CAVOK 10/M01 Q1028 NOSIG",
      "taf": "TAF EPWA 061130Z 0612/0712 VRB04KT CAVOK"
    },
    {
      "icao": "EPWR",
      "alert": "OK",
      "vis_m": 9999,
      "fzfg": false,
      "metar_trigger": false,
      "taf_trigger": false,
      "metar": "METAR EPWR 061130Z 12013KT CAVOK 13/M01 Q1026",
      "taf": "TAF EPWR 061130Z 0612/0712 14012KT CAVOK"
    },
    {
      "icao": "ESGG",
      "alert": "OK",
      "vis_m": 9999,
      "fzfg": false,
      "metar_trigger": false,
      "taf_trigger": false,
      "metar": "METAR ESGG 061120Z 21012KT CAVOK 09/M01 Q1023",
      "taf": "TAF ESGG 061130Z 0612/0712 18009KT CAVOK"
    },
    {
      "icao": "ESKN",
      "alert": "OK",
      "vis_m": 9999,
      "fzfg": false,
      "metar_trigger": false,
      "taf_trigger": false,
      "metar": "METAR ESKN 061120Z 24007KT CAVOK 10/M01 Q1022",
      "taf": "TAF ESKN 061130Z 0612/0712 23007KT CAVOK"
    },
    {
      "icao": "ESMS",
      "alert": "OK",
      "vis_m": 9999,
      "fzfg": false,
      "metar_trigger": false,
      "taf_trigger": false,
      "metar": "METAR ESMS 061120Z 16009KT CAVOK 10/01 Q1025",
      "taf": "TAF ESMS 061127Z 0612/0712 14008KT CAVOK"
    },
    {
      "icao": "ESSA",
      "alert": "OK",
      "vis_m": 9999,
      "fzfg": false,
      "metar_trigger": false,
      "taf_trigger": false,
      "metar": "METAR ESSA 061120Z 25013KT CAVOK 08/03 Q1020 NOSIG",
      "taf": "TAF ESSA 061130Z 0612/0712 24011KT CAVOK"
    },
    {
      "icao": "EYKA",
      "alert": "OK",
      "vis_m": 9999,
      "fzfg": false,
      "metar_trigger": false,
      "taf_trigger": false,
      "metar": "METAR EYKA 061150Z 25003KT 220V280 9999 OVC005 00/00 Q1027",
      "taf": "TAF EYKA 061100Z 0612/0712 VRB04KT 5000 BR BKN003"
    },
    {
      "icao": "EYPA",
      "alert": "OK",
      "vis_m": 8000,
      "fzfg": false,
      "metar_trigger": false,
      "taf_trigger": false,
      "metar": "METAR EYPA 061150Z 19005KT 8000 NSC 04/02 Q1027",
      "taf": "TAF EYPA 061100Z 0612/0712 VRB04KT 5000 BR BKN002"
    },
    {
      "icao": "EYVI",
      "alert": "OK",
      "vis_m": 9999,
      "fzfg": false,
      "metar_trigger": false,
      "taf_trigger": false,
      "metar": "METAR EYVI 061120Z 30004KT 270V340 CAVOK 04/M00 Q1026 NOSIG",
      "taf": "TAF EYVI 061100Z 0612/0712 VRB04KT 8000 NSC"
    },
    {
      "icao": "GCFV",
      "alert": "OK",
      "vis_m": 9999,
      "fzfg": false,
      "metar_trigger": false,
      "taf_trigger": false,
      "metar": "METAR GCFV 061130Z 01021KT 9999 FEW020 BKN040 18/10 Q1022",
      "taf": "TAF GCFV 060800Z 0609/0709 03020KT 9999 SCT025 TX20/0614Z TN14/0706Z"
    },
    {
      "icao": "GCLP",
      "alert": "OK",
      "vis_m": 9999,
      "fzfg": false,
      "metar_trigger": false,
      "taf_trigger": false,
      "metar": "METAR GCLP 061130Z 03026KT 9999 SCT025 20/13 Q1023 NOSIG",
      "taf": "TAF GCLP 060800Z 0609/0709 03022KT 9999 SCT030 TX18/0614Z TN14/0706Z"
    },
    {
      "icao": "GCTS",
      "alert": "OK",
      "vis_m": 9999,
      "fzfg": false,
      "metar_trigger": false,
      "taf_trigger": false,
      "metar": "METAR GCTS 061130Z 08026KT 9999 BKN040 20/10 Q1023 NOSIG",
      "taf": ""
    },
    {
      "icao": "GMAD",
      "alert": "OK",
      "vis_m": 8000,
      "fzfg": false,
      "metar_trigger": false,
      "taf_trigger": false,
      "metar": "METAR GMAD 061130Z 32004KT 230V360 8000 SCT020 18/14 Q1018 NOSIG",
      "taf": "TAF GMAD 061100Z 0612/0718 28012KT 8000 SCT020"
    },
    {
      "icao": "GMMN",
      "alert": "OK",
      "vis_m": 9999,
      "fzfg": false,
      "metar_trigger": false,
      "taf_trigger": false,
      "metar": "METAR GMMN 061130Z 32013KT 9999 BKN026 14/09 Q1022 NOSIG",
      "taf": "TAF GMMN 061100Z 0612/0718 32014KT 9999 BKN026"
    },
    {
      "icao": "GMMX",
      "alert": "OK",
      "vis_m": 9999,
      "fzfg": false,
      "metar_trigger": false,
      "taf_trigger": false,
      "metar": "METAR GMMX 061130Z 05006KT 360V120 9999 FEW013 BKN020 14/09 Q1021 NOSIG",
      "taf": ""
    },
    {
      "icao": "HEGN",
      "alert": "OK",
      "vis_m": 9999,
      "fzfg": false,
      "metar_trigger": false,
      "taf_trigger": false,
      "metar": "METAR HEGN 061100Z 36015KT CAVOK 24/08 Q1018 NOSIG",
      "taf": "TAF HEGN 061100Z 0612/0718 36008G20KT CAVOK"
    },
    {
      "icao": "HEMA",
      "alert": "OK",
      "vis_m": 9999,
      "fzfg": false,
      "metar_trigger": false,
      "taf_trigger": false,
      "metar": "METAR HEMA 061100Z 35018KT CAVOK 24/06 Q1016 NOSIG",
      "taf": "TAF HEMA 061100Z 0612/0718 36006G18KT CAVOK"
    },
    {
      "icao": "HESH",
      "alert": "OK",
      "vis_m": 9999,
      "fzfg": false,
      "metar_trigger": false,
      "taf_trigger": false,
      "metar": "METAR HESH 061100Z 02008KT CAVOK 24/11 Q1017 NOSIG",
      "taf": "TAF HESH 061100Z 0612/0718 12008KT CAVOK"
    },
    {
      "icao": "HESX",
      "alert": "OK",
      "vis_m": 9999,
      "fzfg": false,
      "metar_trigger": false,
      "taf_trigger": false,
      "metar": "METAR HESX 061100Z 35011KT CAVOK 19/09 Q1020 NOSIG",
      "taf": "TAF HESX 061100Z 0612/0718 35012KT 9999 SCT025"
    },
    {
      "icao": "LATI",
      "alert": "OK",
      "vis_m": 9999,
      "fzfg": false,
      "metar_trigger": false,
      "taf_trigger": false,
      "metar": "METAR LATI 061150Z VRB01KT CAVOK 21/M02 Q1022 NOSIG",
      "taf": "TAF LATI 061100Z 0612/0712 VRB04KT CAVOK TX21/0712Z TN04/0705Z"
    },
    {
      "icao": "LBPD",
      "alert": "OK",
      "vis_m": 9999,
      "fzfg": false,
      "metar_trigger": false,
      "taf_trigger": false,
      "metar": "METAR LBPD 061130Z AUTO 30006KT 260V340 9999 NCD 18/M00 Q1023 NOSIG",
      "taf": "TAF LBPD 061100Z 0612/0712 30010KT 9999 SCT070"
    },
    {
      "icao": "LBSF",
      "alert": "OK",
      "vis_m": 9999,
      "fzfg": false,
      "metar_trigger": false,
      "taf_trigger": false,
      "metar": "METAR LBSF 061130Z 26008KT CAVOK 13/03 Q1024 NOSIG",
      "taf": "TAF LBSF 061100Z 0612/0712 32010KT 9999 SCT060"
    },
    {
      "icao": "LBWN",
      "alert": "OK",
      "vis_m": 9999,
      "fzfg": false,
      "metar_trigger": false,
      "taf_trigger": false,
      "metar": "METAR LBWN 061130Z 28009KT 240V350 CAVOK 14/00 Q1024 NOSIG",
      "taf": "TAF LBWN 061100Z 0612/0712 33010KT 9999 BKN030"
    },
    {
      "icao": "LCLK",
      "alert": "OK",
      "vis_m": 9999,
      "fzfg": false,
      "metar_trigger": false,
      "taf_trigger": false,
      "metar": "METAR LCLK 061130Z 22015KT 9999 -SHRA FEW025 FEW030TCU BKN048 18/12 Q1018 NOSIG",
      "taf": "TAF LCLK 061130Z 0612/0712 21014KT 9999 FEW025"
    },
    {
      "icao": "LCPH",
      "alert": "OK",
      "vis_m": 9999,
      "fzfg": false,
      "metar_trigger": false,
      "taf_trigger": false,
      "metar": "METAR LCPH 061130Z 29009KT 250V320 9999 FEW035TCU SCT045 19/11 Q1018 NOSIG",
      "taf": "TAF LCPH 061130Z 0612/0712 29010KT 9999 FEW030 SCT050"
    },
    {
      "icao": "LEAL",
      "alert": "OK",
      "vis_m": 9999,
      "fzfg": false,
      "metar_trigger": false,
      "taf_trigger": false,
      "metar": "METAR LEAL 061130Z 18003KT 080V220 9999 FEW025 17/10 Q1011 NOSIG",
      "taf": "TAF LEAL 061100Z 0612/0712 VRB04KT 9999 SCT030 TX16/0612Z TN09/0706Z"
    },
    {
      "icao": "LEBB",
      "alert": "OK",
      "vis_m": 4000,
      "fzfg": false,
      "metar_trigger": false,
      "taf_trigger": false,
      "metar": "METAR LEBB 061130Z 30011KT 270V340 4000 RA BKN007 BKN013 BKN042 12/11 Q1020 TEMPO 6000 NSW",
      "taf": "TAF LEBB 061100Z 0612/0712 31009KT 9000 SCT010 BKN016 TX12/0712Z TN09/0700Z"
    },
    {
      "icao": "LEBL",
      "alert": "OK",
      "vis_m": 2500,
      "fzfg": false,
      "metar_trigger": false,
      "taf_trigger": false,
      "metar": "METAR LEBL 061130Z 08017G28KT 040V120 2500 R24R/1200N R06L/1600D R06R/0900N R24L/1500D BR BKN005 FEW013TCU BKN021 OVC040 15/14 Q1013 NOSIG",
      "taf": "TAF LEBL 061100Z 0612/0712 06012KT 9999 SCT020 TX15/0612Z TN11/0706Z"
    },
    {
      "icao": "LECH",
      "alert": "OK",
      "vis_m": 9999,
      "fzfg": false,
      "metar_trigger": false,
      "taf_trigger": false,
      "metar": "METAR LECH 061130Z AUTO 08005KT 9999 SCT010 SCT021 BKN059 11/10 Q1012",
      "taf": ""
    },
    {
      "icao": "LEMD",
      "alert": "OK",
      "vis_m": 9999,
      "fzfg": false,
      "metar_trigger": false,
      "taf_trigger": false,
      "metar": "SPECI LEMD 061147Z 02004KT 320V080 9999 RA FEW035TCU BKN043 08/08 Q1013 NOSIG",
      "taf": "TAF LEMD 061100Z 0612/0718 04010KT 9999 FEW040 TX14/0714Z TN06/0707Z"
    },
    {
      "icao": "LEMG",
      "alert": "OK",
      "vis_m": 9999,
      "fzfg": false,
      "metar_trigger": false,
      "taf_trigger": false,
      "metar": "METAR LEMG 061130Z 17009KT 140V220 9999 BKN065 13/05 Q1013 NOSIG",
      "taf": "TAF LEMG 061100Z 0612/0712 17007KT 9999 FEW035 TX14/0614Z TN07/0707Z"
    },
    {
      "icao": "LEVC",
      "alert": "OK",
      "vis_m": 9999,
      "fzfg": false,
      "metar_trigger": false,
      "taf_trigger": false,
      "metar": "METAR LEVC 061130Z 06010KT 010V100 9999 -RA FEW009 BKN012 FEW020TCU 13/11 Q1011 NOSIG",
      "taf": "TAF LEVC 061100Z 0612/0712 07008KT 9999 BKN020 TX15/0612Z TN09/0706Z"
    },
    {
      "icao": "LEXJ",
      "alert": "OK",
      "vis_m": 9999,
      "fzfg": false,
      "metar_trigger": false,
      "taf_trigger": false,
      "metar": "METAR LEXJ 061130Z 33010KT 280V010 9999 SCT016 BKN026 BKN034 10/07 Q1022",
      "taf": "TAF LEXJ 060800Z 0609/0709 30009KT 9000 FEW015 BKN025 TX11/0612Z TN09/0705Z"
    },
    {
      "icao": "LEZG",
      "alert": "OK",
      "vis_m": 4000,
      "fzfg": false,
      "metar_trigger": false,
      "taf_trigger": false,
      "metar": "METAR LEZG 061130Z 30010KT 4000 1500SW RA FEW006 BKN030 11/11 Q1015 NOSIG",
      "taf": "TAF LEZG 061100Z 0612/0712 31010KT 9999 BKN020 TX13/0614Z TN08/0706Z"
    },
    {
      "icao": "LEZL",
      "alert": "OK",
      "vis_m": 9999,
      "fzfg": false,
      "metar_trigger": false,
      "taf_trigger": false,
      "metar": "METAR LEZL 061130Z 30007KT 9999 BKN025 OVC030 11/08 Q1014 NOSIG",
      "taf": "TAF LEZL 060800Z 0609/0709 26009KT 9999 SCT020 BKN030 TX15/0615Z TN08/0707Z"
    },
    {
      "icao": "LFBD",
      "alert": "OK",
      "vis_m": 9999,
      "fzfg": false,
      "metar_trigger": false,
      "taf_trigger": false,
      "metar": "METAR LFBD 061130Z AUTO 13008KT 9999 FEW019 OVC026 15/11 Q1019 NOSIG",
      "taf": "TAF LFBD 061100Z 0612/0718 13010KT 9999 BKN025 TX17/0615Z TN10/0705Z"
    },
    {
      "icao": "LFLL",
      "alert": "OK",
      "vis_m": 9999,
      "fzfg": false,
      "metar_trigger": false,
      "taf_trigger": false,
      "metar": "METAR LFLL 061130Z VRB02KT CAVOK 16/07 Q1020 NOSIG",
      "taf": "TAF LFLL 061100Z 0612/0718 36005KT CAVOK"
    },
    {
      "icao": "LFLS",
      "alert": "OK",
      "vis_m": 9999,
      "fzfg": false,
      "metar_trigger": false,
      "taf_trigger": false,
      "metar": "METAR LFLS 061130Z AUTO VRB02KT 9999 FEW040 17/07 Q1020 NOSIG",
      "taf": "TAF LFLS 060800Z 0609/0709 10006KT CAVOK"
    },
    {
      "icao": "LFMN",
      "alert": "OK",
      "vis_m": 9999,
      "fzfg": false,
      "metar_trigger": false,
      "taf_trigger": false,
      "metar": "METAR LFMN 061130Z 08019KT CAVOK 17/10 Q1020 NOSIG",
      "taf": "TAF LFMN 060800Z 0609/0715 10018KT 9999 SCT070 BKN230"
    },
    {
      "icao": "LFOB",
      "alert": "OK",
      "vis_m": 9999,
      "fzfg": false,
      "metar_trigger": false,
      "taf_trigger": false,
      "metar": "METAR LFOB 061130Z AUTO 29003KT 270V330 CAVOK 14/11 Q1021 NOSIG",
      "taf": "TAF LFOB 061100Z 0612/0712 VRB03KT CAVOK"
    },
    {
      "icao": "LFPO",
      "alert": "OK",
      "vis_m": 9999,
      "fzfg": false,
      "metar_trigger": false,
      "taf_trigger": false,
      "metar": "METAR LFPO 061130Z VRB02KT CAVOK 15/08 Q1021 NOSIG",
      "taf": "TAF LFPO 061100Z 0612/0718 VRB02KT CAVOK"
    },
    {
      "icao": "LFSB",
      "alert": "OK",
      "vis_m": 9999,
      "fzfg": false,
      "metar_trigger": false,
      "taf_trigger": false,
      "metar": "METAR LFSB 061130Z AUTO VRB03KT CAVOK 15/06 Q1021 NOSIG",
      "taf": "TAF LFSB 061100Z 0612/0712 36004KT CAVOK"
    },
    {
      "icao": "LGAV",
      "alert": "OK",
      "vis_m": 9999,
      "fzfg": false,
      "metar_trigger": false,
      "taf_trigger": false,
      "metar": "METAR LGAV 061120Z 05017KT 9999 SCT030 16/07 Q1024 NOSIG",
      "taf": "TAF LGAV 061100Z 0612/0712 03012KT 9999 SCT025"
    },
    {
      "icao": "LGTS",
      "alert": "OK",
      "vis_m": 9999,
      "fzfg": false,
      "metar_trigger": false,
      "taf_trigger": false,
      "metar": "METAR LGTS 061120Z 26006KT 9999 FEW016 16/07 Q1025 NOSIG",
      "taf": "TAF LGTS 061100Z 0612/0712 VRB03KT 9999 FEW025"
    },
    {
      "icao": "LHBP",
      "alert": "OK",
      "vis_m": 9999,
      "fzfg": false,
      "metar_trigger": false,
      "taf_trigger": false,
      "metar": "METAR LHBP 061130Z VRB03KT CAVOK 14/M01 Q1027 NOSIG",
      "taf": "TAF LHBP 061115Z 0612/0712 10006KT CAVOK"
    },
    {
      "icao": "LHDC",
      "alert": "OK",
      "vis_m": 9999,
      "fzfg": false,
      "metar_trigger": false,
      "taf_trigger": false,
      "metar": "METAR LHDC 061115Z AUTO VRB04KT CAVOK 14/M02 Q1026 NOSIG",
      "taf": "TAF LHDC 061115Z 0612/0621 03007KT CAVOK"
    },
    {
      "icao": "LIBD",
      "alert": "OK",
      "vis_m": 7000,
      "fzfg": false,
      "metar_trigger": false,
      "taf_trigger": false,
      "metar": "METAR LIBD 061120Z 35005KT 300V040 7000 FEW015 14/12 Q1024",
      "taf": "TAF LIBD 061100Z 0612/0712 VRB04KT 8000 FEW015"
    },
    {
      "icao": "LIBG",
      "alert": "OK",
      "vis_m": 9999,
      "fzfg": false,
      "metar_trigger": false,
      "taf_trigger": false,
      "metar": "METAR LIBG 061050Z 06005KT 360V120 CAVOK 17/09 Q1023",
      "taf": "TAF LIBG 061100Z 0612/0621 VRB05KT 9999 FEW020"
    },
    {
      "icao": "LIBP",
      "alert": "OK",
      "vis_m": 9999,
      "fzfg": false,
      "metar_trigger": false,
      "taf_trigger": false,
      "metar": "METAR LIBP 061120Z AUTO 06006KT 030V090 9999 NCD 14/11 Q1025",
      "taf": "TAF LIBP 061100Z 0612/0712 VRB05KT 9999 FEW025"
    },
    {
      "icao": "LIBR",
      "alert": "OK",
      "vis_m": 9999,
      "fzfg": false,
      "metar_trigger": false,
      "taf_trigger": false,
      "metar": "METAR LIBR 061120Z 34008KT 310V010 CAVOK 15/10 Q1023",
      "taf": "TAF LIBR 061100Z 0612/0712 02007KT CAVOK"
    },
    {
      "icao": "LICA",
      "alert": "OK",
      "vis_m": 9999,
      "fzfg": false,
      "metar_trigger": false,
      "taf_trigger": false,
      "metar": "METAR LICA 061120Z AUTO 10015KT 9999 NCD 17/09 Q1022",
      "taf": "TAF LICA 061100Z 0612/0712 08016KT CAVOK"
    },
    {
      "icao": "LICC",
      "alert": "OK",
      "vis_m": 9999,
      "fzfg": false,
      "metar_trigger": false,
      "taf_trigger": false,
      "metar": "METAR LICC 061120Z 09011KT 9999 SCT015 BKN050 16/13 Q1021",
      "taf": "TAF LICC 061100Z 0612/0712 08012KT 9999 SCT020 BKN040"
    },
    {
      "icao": "LICJ",
      "alert": "OK",
      "vis_m": 9999,
      "fzfg": false,
      "metar_trigger": false,
      "taf_trigger": false,
      "metar": "METAR LICJ 061120Z 35009KT 9999 FEW060 15/11 Q1019",
      "taf": "TAF LICJ 061100Z 0612/0712 04013KT CAVOK"
    },
    {
      "icao": "LIMC",
      "alert": "OK",
      "vis_m": 5000,
      "fzfg": false,
      "metar_trigger": false,
      "taf_trigger": false,
      "metar": "METAR LIMC 061120Z 17004KT 140V210 5000 BR NSC 14/07 Q1024 NOSIG",
      "taf": "TAF LIMC 061100Z 0612/0718 VRB05KT 6000 SCT030"
    },
    {
      "icao": "LIME",
      "alert": "OK",
      "vis_m": 4500,
      "fzfg": false,
      "metar_trigger": false,
      "taf_trigger": false,
      "metar": "METAR LIME 061120Z 19004KT 140V260 4500 BR NSC 13/06 Q1024 NOSIG",
      "taf": "TAF LIME 061100Z 0612/0712 VRB05KT 6000 SCT030"
    },
    {
      "icao": "LIMF",
      "alert": "OK",
      "vis_m": 4000,
      "fzfg": false,
      "metar_trigger": false,
      "taf_trigger": false,
      "metar": "METAR LIMF 061120Z VRB03KT 4000 BR NSC 13/06 Q1024",
      "taf": "TAF LIMF 061100Z 0612/0712 VRB04KT 6000 SCT030"
    },
    {
      "icao": "LIMJ",
      "alert": "OK",
      "vis_m": 6000,
      "fzfg": false,
      "metar_trigger": false,
      "taf_trigger": false,
      "metar": "METAR LIMJ 061120Z 05016KT 6000 NSC 15/06 Q1023",
      "taf": "TAF LIMJ 061100Z 0612/0712 35015KT 8000 FEW040"
    },
    {
      "icao": "LIPE",
      "alert": "OK",
      "vis_m": 5000,
      "fzfg": false,
      "metar_trigger": false,
      "taf_trigger": false,
      "metar": "METAR LIPE 061120Z 02004KT 330V090 5000 BR BKN020 BKN035 12/07 Q1025",
      "taf": "TAF LIPE 061100Z 0612/0712 VRB04KT 7000 SCT025"
    },
    {
      "icao": "LIPH",
      "alert": "OK",
      "vis_m": 9999,
      "fzfg": false,
      "metar_trigger": false,
      "taf_trigger": false,
      "metar": "METAR LIPH 061120Z VRB02KT CAVOK 15/06 Q1025",
      "taf": "TAF LIPH 061100Z 0612/0712 VRB03KT CAVOK"
    },
    {
      "icao": "LIPQ",
      "alert": "OK",
      "vis_m": 9999,
      "fzfg": false,
      "metar_trigger": false,
      "taf_trigger": false,
      "metar": "METAR LIPQ 061120Z AUTO VRB01KT 9999 NCD 14/07 Q1025",
      "taf": "TAF LIPQ 061100Z 0612/0712 VRB04KT CAVOK"
    },
    {
      "icao": "LIPR",
      "alert": "OK",
      "vis_m": 8000,
      "fzfg": false,
      "metar_trigger": false,
      "taf_trigger": false,
      "metar": "METAR LIPR 061050Z 02006KT 8000 BKN040 12/09 Q1025",
      "taf": "TAF LIPR 061100Z 0612/0712 VRB04KT 9999 SCT030"
    },
    {
      "icao": "LIPX",
      "alert": "OK",
      "vis_m": 8000,
      "fzfg": false,
      "metar_trigger": false,
      "taf_trigger": false,
      "metar": "METAR LIPX 061120Z 17003KT 080V230 8000 NSC 14/08 Q1025",
      "taf": "TAF LIPX 061100Z 0612/0712 VRB05KT 6000 NSC"
    },
    {
      "icao": "LIPY",
      "alert": "OK",
      "vis_m": 9999,
      "fzfg": false,
      "metar_trigger": false,
      "taf_trigger": false,
      "metar": "METAR LIPY 061120Z AUTO 05007KT 020V080 9999 FEW036/// 13/10 Q1025",
      "taf": "TAF LIPY 061100Z 0612/0712 04010KT 7000 SCT020"
    },
    {
      "icao": "LIPZ",
      "alert": "OK",
      "vis_m": 4000,
      "fzfg": false,
      "metar_trigger": false,
      "taf_trigger": false,
      "metar": "METAR LIPZ 061120Z 15004KT 4000 BR NSC 13/08 Q1025 BECMG 6000",
      "taf": "TAF LIPZ 061100Z 0612/0718 VRB03KT 7000 NSC"
    },
    {
      "icao": "LIRF",
      "alert": "OK",
      "vis_m": 9999,
      "fzfg": false,
      "metar_trigger": false,
      "taf_trigger": false,
      "metar": "METAR LIRF 061120Z 12007KT 060V160 CAVOK 18/09 Q1022 NOSIG",
      "taf": "TAF LIRF 061100Z 0612/0718 17010KT CAVOK"
    },
    {
      "icao": "LIRN",
      "alert": "OK",
      "vis_m": 9999,
      "fzfg": false,
      "metar_trigger": false,
      "taf_trigger": false,
      "metar": "METAR LIRN 061120Z 06003KT 010V120 CAVOK 17/07 Q1022 NOSIG",
      "taf": "TAF LIRN 061100Z 0612/0712 04010KT CAVOK"
    },
    {
      "icao": "LIRP",
      "alert": "OK",
      "vis_m": 9999,
      "fzfg": false,
      "metar_trigger": false,
      "taf_trigger": false,
      "metar": "METAR LIRP 061115Z 12011KT 9999 SCT080 16/09 Q1022 NOSIG",
      "taf": "TAF LIRP 061100Z 0612/0712 VRB04KT 9999 SCT060"
    },
    {
      "icao": "LIRZ",
      "alert": "OK",
      "vis_m": 9999,
      "fzfg": false,
      "metar_trigger": false,
      "taf_trigger": false,
      "metar": "METAR LIRZ 061120Z AUTO 35006KT 310V040 9999 NCD 16/07 Q1022",
      "taf": "TAF LIRZ 061100Z 0612/0712 04008KT CAVOK"
    },
    {
      "icao": "LJLJ",
      "alert": "OK",
      "vis_m": 9999,
      "fzfg": false,
      "metar_trigger": false,
      "taf_trigger": false,
      "metar": "METAR LJLJ 061130Z VRB03KT CAVOK 14/03 Q1024 NOSIG",
      "taf": "TAF LJLJ 061100Z 0612/0712 12006KT CAVOK"
    },
    {
      "icao": "LKMT",
      "alert": "OK",
      "vis_m": 9999,
      "fzfg": false,
      "metar_trigger": false,
      "taf_trigger": false,
      "metar": "METAR LKMT 061130Z VRB02KT CAVOK 12/M02 Q1026 NOSIG",
      "taf": "TAF LKMT 061100Z 0612/0712 VRB02KT CAVOK"
    },
    {
      "icao": "LKPR",
      "alert": "OK",
      "vis_m": 9999,
      "fzfg": false,
      "metar_trigger": false,
      "taf_trigger": false,
      "metar": "METAR LKPR 061130Z 08005KT 040V160 CAVOK 11/02 Q1024 NOSIG",
      "taf": "TAF LKPR 061100Z 0612/0718 08006KT CAVOK"
    },
    {
      "icao": "LLBG",
      "alert": "OK",
      "vis_m": 9999,
      "fzfg": false,
      "metar_trigger": false,
      "taf_trigger": false,
      "metar": "METAR LLBG 061150Z 30012KT CAVOK 18/04 Q1018 NOSIG",
      "taf": "TAF LLBG 061103Z 0612/0712 30010KT CAVOK TX20/0612Z TN10/0704Z"
    },
    {
      "icao": "LMML",
      "alert": "OK",
      "vis_m": 9999,
      "fzfg": false,
      "metar_trigger": false,
      "taf_trigger": false,
      "metar": "METAR LMML 061145Z 11013KT 9999 -RA FEW010 BKN045 15/14 Q1020 NOSIG",
      "taf": "TAF LMML 061100Z 0612/0712 11016KT 9999 FEW012"
    },
    {
      "icao": "LOWW",
      "alert": "OK",
      "vis_m": 9999,
      "fzfg": false,
      "metar_trigger": false,
      "taf_trigger": false,
      "metar": "METAR LOWW 061120Z 13012KT CAVOK 14/04 Q1025 NOSIG",
      "taf": "TAF LOWW 061115Z 0612/0718 13012KT CAVOK TX16/0714Z TN05/0705Z"
    },
    {
      "icao": "LPFR",
      "alert": "OK",
      "vis_m": 9999,
      "fzfg": false,
      "metar_trigger": false,
      "taf_trigger": false,
      "metar": "METAR LPFR 061130Z 32014G24KT 290V350 9999 FEW020 BKN032 13/05 Q1017",
      "taf": "TAF LPFR 061100Z 0612/0712 32015KT 9999 SCT030"
    },
    {
      "icao": "LPMA",
      "alert": "OK",
      "vis_m": 9999,
      "fzfg": false,
      "metar_trigger": false,
      "taf_trigger": false,
      "metar": "METAR LPMA 061130Z 01016KT 340V040 9999 BKN016 15/06 Q1029",
      "taf": "TAF LPMA 061100Z 0612/0712 01015KT 9999 SCT015"
    },
    {
      "icao": "LPPR",
      "alert": "OK",
      "vis_m": 9999,
      "fzfg": false,
      "metar_trigger": false,
      "taf_trigger": false,
      "metar": "METAR LPPR 061130Z 36016KT CAVOK 11/03 Q1021",
      "taf": "TAF LPPR 061100Z 0612/0712 35015KT 9999 SCT025"
    },
    {
      "icao": "LPPS",
      "alert": "OK",
      "vis_m": 9999,
      "fzfg": false,
      "metar_trigger": false,
      "taf_trigger": false,
      "metar": "METAR LPPS 061130Z 07011KT 020V100 9999 FEW015 BKN030 15/05 Q1029",
      "taf": "TAF LPPS 061100Z 0612/0718 04015KT 9999 FEW015 BKN030"
    },
    {
      "icao": "LPPT",
      "alert": "OK",
      "vis_m": 9999,
      "fzfg": false,
      "metar_trigger": false,
      "taf_trigger": false,
      "metar": "METAR LPPT 061130Z 34024KT 310V010 9999 SCT028 12/06 Q1019 WS R02",
      "taf": "TAF LPPT 061100Z 0612/0718 33020KT 9999 SCT025"
    },
    {
      "icao": "LQBK",
      "alert": "OK",
      "vis_m": 9999,
      "fzfg": false,
      "metar_trigger": false,
      "taf_trigger": false,
      "metar": "METAR LQBK 061130Z 33005KT 270V360 CAVOK 16/04 Q1025 NOSIG",
      "taf": "TAF LQBK 061100Z 0612/0712 33005KT CAVOK TX18/0614Z TN00/0706Z"
    },
    {
      "icao": "LQSA",
      "alert": "OK",
      "vis_m": 9999,
      "fzfg": false,
      "metar_trigger": false,
      "taf_trigger": false,
      "metar": "METAR LQSA 061130Z VRB02KT CAVOK 13/03 Q1024 NOSIG",
      "taf": "TAF LQSA 061100Z 0612/0712 VRB02KT CAVOK TX16/0614Z TNM00/0705Z"
    },
    {
      "icao": "LQTZ",
      "alert": "OK",
      "vis_m": 9999,
      "fzfg": false,
      "metar_trigger": false,
      "taf_trigger": false,
      "metar": "METAR LQTZ 061130Z 09008KT 050V120 CAVOK 16/00 Q1025",
      "taf": "TAF LQTZ 061100Z 0612/0712 VRB02KT CAVOK TX18/0614Z TNM02/0706Z"
    },
    {
      "icao": "LRBC",
      "alert": "OK",
      "vis_m": 9999,
      "fzfg": false,
      "metar_trigger": false,
      "taf_trigger": false,
      "metar": "METAR LRBC 061130Z 35018KT 9999 FEW055 13/M02 Q1025",
      "taf": "TAF LRBC 061100Z 0612/0621 36016KT CAVOK"
    },
    {
      "icao": "LRBS",
      "alert": "OK",
      "vis_m": 9999,
      "fzfg": false,
      "metar_trigger": false,
      "taf_trigger": false,
      "metar": "METAR LRBS 061130Z VRB03KT CAVOK 13/00 Q1025 NOSIG",
      "taf": "TAF LRBS 061100Z 0612/0712 VRB04KT CAVOK"
    },
    {
      "icao": "LRBV",
      "alert": "OK",
      "vis_m": 9999,
      "fzfg": false,
      "metar_trigger": false,
      "taf_trigger": false,
      "metar": "METAR LRBV 061130Z 32010KT 290V350 CAVOK 11/M03 Q1024",
      "taf": "TAF LRBV 061100Z 0612/0621 31010KT CAVOK"
    },
    {
      "icao": "LRCL",
      "alert": "OK",
      "vis_m": 9999,
      "fzfg": false,
      "metar_trigger": false,
      "taf_trigger": false,
      "metar": "METAR LRCL 061130Z 36006KT 310V060 CAVOK 13/M05 Q1025",
      "taf": "TAF LRCL 061100Z 0612/0621 VRB04KT CAVOK"
    },
    {
      "icao": "LRCV",
      "alert": "OK",
      "vis_m": 9999,
      "fzfg": false,
      "metar_trigger": false,
      "taf_trigger": false,
      "metar": "METAR LRCV 061130Z 09005KT 050V110 CAVOK 14/05 Q1024",
      "taf": "TAF LRCV 061100Z 0612/0621 06006KT CAVOK"
    },
    {
      "icao": "LRIA",
      "alert": "OK",
      "vis_m": 9999,
      "fzfg": false,
      "metar_trigger": false,
      "taf_trigger": false,
      "metar": "METAR LRIA 061130Z COR 34019KT 9999 FEW039 12/M01 Q1024",
      "taf": "TAF LRIA 061100Z 0612/0621 32016KT 9999 SCT035"
    },
    {
      "icao": "LROP",
      "alert": "OK",
      "vis_m": 9999,
      "fzfg": false,
      "metar_trigger": false,
      "taf_trigger": false,
      "metar": "METAR LROP 061130Z 27007KT 220V300 CAVOK 13/M04 Q1025 NOSIG",
      "taf": "TAF LROP 061100Z 0612/0712 VRB04KT CAVOK"
    },
    {
      "icao": "LRSB",
      "alert": "OK",
      "vis_m": 9999,
      "fzfg": false,
      "metar_trigger": false,
      "taf_trigger": false,
      "metar": "METAR LRSB 061130Z 33004KT 270V080 CAVOK 13/M02 Q1025",
      "taf": "TAF LRSB 061100Z 0612/0712 VRB04KT CAVOK"
    },
    {
      "icao": "LRSM",
      "alert": "OK",
      "vis_m": 9999,
      "fzfg": false,
      "metar_trigger": false,
      "taf_trigger": false,
      "metar": "METAR LRSM 061130Z VRB02KT CAVOK 13/M02 Q1026",
      "taf": "TAF LRSM 061100Z 0612/0621 VRB04KT CAVOK"
    },
    {
      "icao": "LRSV",
      "alert": "OK",
      "vis_m": 9999,
      "fzfg": false,
      "metar_trigger": false,
      "taf_trigger": false,
      "metar": "METAR LRSV 061130Z 32015KT 9999 FEW044 10/M01 Q1025",
      "taf": "TAF LRSV 061100Z 0612/0621 32015KT CAVOK"
    },
    {
      "icao": "LRTM",
      "alert": "OK",
      "vis_m": 9999,
      "fzfg": false,
      "metar_trigger": false,
      "taf_trigger": false,
      "metar": "METAR LRTM 061130Z 26004KT 210V010 CAVOK 13/M02 Q1025",
      "taf": "TAF LRTM 061100Z 0612/0621 VRB04KT CAVOK"
    },
    {
      "icao": "LRTR",
      "alert": "OK",
      "vis_m": 9999,
      "fzfg": false,
      "metar_trigger": false,
      "taf_trigger": false,
      "metar": "METAR LRTR 061130Z 02011KT 350V060 CAVOK 15/M02 Q1025",
      "taf": "TAF LRTR 061100Z 0612/0712 01012KT CAVOK"
    },
    {
      "icao": "LTAC",
      "alert": "OK",
      "vis_m": 9999,
      "fzfg": false,
      "metar_trigger": false,
      "taf_trigger": false,
      "metar": "METAR LTAC 061120Z 31010KT 9999 -SHRA BKN030 BKN100 08/M02 Q1019 NOSIG RMK RWY21C 29011KT RWY03L 30011KT 270V330 RWY21R 28010KT 250V310 RWY03R 29010KT RWY21L 29011KT",
      "taf": "TAF LTAC 061040Z 0612/0712 31012KT 9999 SCT040 SCT100"
    },
    {
      "icao": "LTFM",
      "alert": "OK",
      "vis_m": 9999,
      "fzfg": false,
      "metar_trigger": false,
      "taf_trigger": false,
      "metar": "METAR LTFM 061120Z 02008KT 350V050 CAVOK 11/05 Q1024 NOSIG RMK RWY17L 36007KT RWY34L 01008KT RWY16R 01008KT RWY36 36007KT RWY18 35006KT 310V010",
      "taf": "TAF LTFM 061040Z 0612/0718 01012KT CAVOK"
    },
    {
      "icao": "LUKK",
      "alert": "OK",
      "vis_m": 9999,
      "fzfg": false,
      "metar_trigger": false,
      "taf_trigger": false,
      "metar": "METAR LUKK 061130Z 36015KT 330V030 9999 SCT044 11/00 Q1023 TEMPO 31018G28KT",
      "taf": "TAF LUKK 061109Z 0612/0712 33012KT 9999 SCT030"
    },
    {
      "icao": "LWOH",
      "alert": "OK",
      "vis_m": 9999,
      "fzfg": false,
      "metar_trigger": false,
      "taf_trigger": false,
      "metar": "METAR LWOH 061150Z 16008KT 9999 FEW040 10/05 Q1024",
      "taf": "TAF LWOH 061110Z 0612/0712 16008KT 9999 FEW040"
    },
    {
      "icao": "LWSK",
      "alert": "OK",
      "vis_m": 9999,
      "fzfg": false,
      "metar_trigger": false,
      "taf_trigger": false,
      "metar": "METAR LWSK 061150Z VRB03KT CAVOK 16/07 Q1025 NOSIG",
      "taf": "TAF LWSK 061110Z 0612/0712 VRB02KT CAVOK"
    },
    {
      "icao": "LYBE",
      "alert": "OK",
      "vis_m": 9999,
      "fzfg": false,
      "metar_trigger": false,
      "taf_trigger": false,
      "metar": "METAR LYBE 061130Z 04006KT 350V070 CAVOK 15/M02 Q1026 NOSIG",
      "taf": "TAF LYBE 061100Z 0612/0712 05007KT 9999 FEW040 TX17/0712Z TN02/0705Z"
    },
    {
      "icao": "LYNI",
      "alert": "OK",
      "vis_m": 9999,
      "fzfg": false,
      "metar_trigger": false,
      "taf_trigger": false,
      "metar": "METAR LYNI 061130Z VRB03KT 9999 FEW030 14/07 Q1025 TEMPO FM1230 32013KT",
      "taf": "TAF LYNI 061100Z 0612/0712 28005KT CAVOK TX17/0614Z TN01/0706Z"
    },
    {
      "icao": "LYPG",
      "alert": "OK",
      "vis_m": 9999,
      "fzfg": false,
      "metar_trigger": false,
      "taf_trigger": false,
      "metar": "METAR LYPG 061130Z 20003KT 120V280 CAVOK 18/03 Q1023 NOSIG",
      "taf": "TAF LYPG 061100Z 0612/0712 16007KT CAVOK TX19/0614Z TN04/0705Z"
    },
    {
      "icao": "LZIB",
      "alert": "OK",
      "vis_m": 9999,
      "fzfg": false,
      "metar_trigger": false,
      "taf_trigger": false,
      "metar": "METAR LZIB 061130Z 09006KT 060V130 CAVOK 14/03 Q1026 NOSIG",
      "taf": "TAF LZIB 061115Z 0612/0712 11008KT CAVOK"
    },
    {
      "icao": "LZKZ",
      "alert": "OK",
      "vis_m": 9999,
      "fzfg": false,
      "metar_trigger": false,
      "taf_trigger": false,
      "metar": "METAR LZKZ 061130Z VRB02KT CAVOK 13/M05 Q1026 NOSIG",
      "taf": "TAF LZKZ 061115Z 0612/0712 VRB03KT CAVOK"
    },
    {
      "icao": "LZTT",
      "alert": "OK",
      "vis_m": 9999,
      "fzfg": false,
      "metar_trigger": false,
      "taf_trigger": false,
      "metar": "METAR LZTT 061130Z 08003KT 360V160 CAVOK 12/M06 Q1026 NOSIG",
      "taf": "TAF LZTT 061115Z 0612/0712 VRB04KT CAVOK"
    },
    {
      "icao": "OEJN",
      "alert": "OK",
      "vis_m": 9999,
      "fzfg": false,
      "metar_trigger": false,
      "taf_trigger": false,
      "metar": "METAR OEJN 061100Z 29011KT CAVOK 29/15 Q1011 NOSIG",
      "taf": "TAF OEJN 061100Z 0612/0718 30012KT 7000 FEW040"
    },
    {
      "icao": "OEMA",
      "alert": "OK",
      "vis_m": 9999,
      "fzfg": false,
      "metar_trigger": false,
      "taf_trigger": false,
      "metar": "METAR OEMA 061100Z 12005KT CAVOK 28/03 Q1015 NOSIG",
      "taf": "TAF OEMA 061100Z 0612/0718 27010KT 7000 FEW045"
    },
    {
      "icao": "OJAI",
      "alert": "OK",
      "vis_m": 5000,
      "fzfg": false,
      "metar_trigger": false,
      "taf_trigger": false,
      "metar": "METAR OJAI 061100Z 25009KT 5000 HZ NSC 18/M01 Q1018 NOSIG",
      "taf": "TAF OJAI 061021Z 0612/0718 28008KT 5000 HZ NSC"
    },
    {
      "icao": "OMAA",
      "alert": "OK",
      "vis_m": null,
      "fzfg": false,
      "metar_trigger": false,
      "taf_trigger": false,
      "metar": "",
      "taf": ""
    },
    {
      "icao": "OMDB",
      "alert": "OK",
      "vis_m": null,
      "fzfg": false,
      "metar_trigger": false,
      "taf_trigger": false,
      "metar": "",
      "taf": ""
    },
    {
      "icao": "UAAA",
      "alert": "OK",
      "vis_m": 9999,
      "fzfg": false,
      "metar_trigger": false,
      "taf_trigger": false,
      "metar": "METAR UAAA 061130Z 06003MPS 9999 BKN010 OVC100 04/02 Q1023 NOSIG",
      "taf": "TAF UAAA 061101Z 0612/0712 04003MPS 3100 BR FU BKN011 OVC030 TX09/0709Z TNM01/0701Z"
    },
    {
      "icao": "UBBB",
      "alert": "OK",
      "vis_m": 9999,
      "fzfg": false,
      "metar_trigger": false,
      "taf_trigger": false,
      "metar": "METAR UBBB 061130Z 20020G30KT CAVOK 13/M01 Q1012 NOSIG",
      "taf": "TAF UBBB 061050Z 0612/0712 19014G24KT CAVOK TX11/0612Z TN05/0701Z"
    },
    {
      "icao": "UDSG",
      "alert": "OK",
      "vis_m": 9999,
      "fzfg": false,
      "metar_trigger": false,
      "taf_trigger": false,
      "metar": "METAR UDSG 061130Z 27003KT 9999 SCT049 M02/M09 Q1016 NOSIG",
      "taf": "TAF UDSG 061100Z 0612/0712 VRB06KT 9999 BKN040"
    },
    {
      "icao": "UDYZ",
      "alert": "OK",
      "vis_m": 9999,
      "fzfg": false,
      "metar_trigger": false,
      "taf_trigger": false,
      "metar": "METAR UDYZ 061130Z VRB02KT 9999 SCT046 07/M06 Q1017 NOSIG",
      "taf": "TAF UDYZ 061100Z 0612/0712 24006KT 9999 SCT040"
    },
    {
      "icao": "UGKO",
      "alert": "OK",
      "vis_m": 5000,
      "fzfg": false,
      "metar_trigger": false,
      "taf_trigger": false,
      "metar": "METAR UGKO 061130Z 29005KT 260V330 5000 -RA BR SCT025 BKN077 06/03 Q1019 NOSIG",
      "taf": "TAF UGKO 061100Z 0612/0712 26012KT 9999 SCT020 BKN050 TX09/0711Z TN02/0703Z"
    }
  ]
}