{
  "ts_utc": "2026-05-10T09:58:09Z",
  "threshold_m": 150,
  "source": "stations_override.txt (ICAO list) + aviationweather.gov (METAR/TAF raw)",
  "station_count": 159,
  "stations": [
    {
      "icao": "BIKF",
      "alert": "OK",
      "vis_m": 9999,
      "fzfg": false,
      "metar_trigger": false,
      "taf_trigger": false,
      "metar": "METAR BIKF 100930Z 22003KT 9999 -RA SCT008 BKN032 OVC060 07/06 Q1021",
      "taf": "TAF BIKF 100759Z 1009/1109 27005KT 9999 BKN008 TX07/1013Z TN06/1106Z"
    },
    {
      "icao": "BKPR",
      "alert": "OK",
      "vis_m": null,
      "fzfg": false,
      "metar_trigger": false,
      "taf_trigger": false,
      "metar": "",
      "taf": "TAF BKPR 100530Z 1006/1106 24006KT 0200 FG BKN003"
    },
    {
      "icao": "EBCI",
      "alert": "OK",
      "vis_m": 9999,
      "fzfg": false,
      "metar_trigger": false,
      "taf_trigger": false,
      "metar": "METAR EBCI 100950Z 05014KT CAVOK 15/08 Q1013 NOSIG",
      "taf": "TAF EBCI 100501Z 1006/1112 04008KT CAVOK"
    },
    {
      "icao": "EDDB",
      "alert": "OK",
      "vis_m": 9999,
      "fzfg": false,
      "metar_trigger": false,
      "taf_trigger": false,
      "metar": "METAR EDDB 100950Z AUTO 15007KT 110V180 CAVOK 18/09 Q1014 NOSIG",
      "taf": "TAF EDDB 100500Z 1006/1106 12005KT CAVOK"
    },
    {
      "icao": "EDDH",
      "alert": "OK",
      "vis_m": 9999,
      "fzfg": false,
      "metar_trigger": false,
      "taf_trigger": false,
      "metar": "METAR EDDH 100950Z AUTO VRB04KT CAVOK 18/05 Q1013 NOSIG",
      "taf": "TAF EDDH 100500Z 1006/1112 VRB03KT 9999 SCT040"
    },
    {
      "icao": "EDDK",
      "alert": "OK",
      "vis_m": 9999,
      "fzfg": false,
      "metar_trigger": false,
      "taf_trigger": false,
      "metar": "METAR EDDK 100950Z AUTO VRB05G16KT CAVOK 19/11 Q1012 NOSIG",
      "taf": "TAF EDDK 100500Z 1006/1112 VRB03KT CAVOK"
    },
    {
      "icao": "EDDN",
      "alert": "OK",
      "vis_m": 9999,
      "fzfg": false,
      "metar_trigger": false,
      "taf_trigger": false,
      "metar": "METAR EDDN 100950Z AUTO 14009KT 120V180 CAVOK 21/08 Q1011 NOSIG",
      "taf": "TAF EDDN 100500Z 1006/1106 08007KT CAVOK"
    },
    {
      "icao": "EDDS",
      "alert": "OK",
      "vis_m": 9999,
      "fzfg": false,
      "metar_trigger": false,
      "taf_trigger": false,
      "metar": "METAR EDDS 100950Z AUTO 06008KT 030V120 CAVOK 21/09 Q1010 NOSIG",
      "taf": "TAF EDDS 100500Z 1006/1106 VRB03KT CAVOK"
    },
    {
      "icao": "EDFH",
      "alert": "OK",
      "vis_m": 9999,
      "fzfg": false,
      "metar_trigger": false,
      "taf_trigger": false,
      "metar": "METAR EDFH 100950Z 03009KT 360V100 CAVOK 18/12 Q1012",
      "taf": "TAF EDFH 100500Z 1006/1106 07006KT CAVOK"
    },
    {
      "icao": "EDJA",
      "alert": "OK",
      "vis_m": 9999,
      "fzfg": false,
      "metar_trigger": false,
      "taf_trigger": false,
      "metar": "METAR EDJA 100950Z 04005KT 340V070 CAVOK 18/09 Q1011",
      "taf": "TAF EDJA 100800Z 1009/1018 04004KT CAVOK"
    },
    {
      "icao": "EDLW",
      "alert": "OK",
      "vis_m": 9999,
      "fzfg": false,
      "metar_trigger": false,
      "taf_trigger": false,
      "metar": "METAR EDLW 100950Z 33006KT 300V020 CAVOK 16/09 Q1013",
      "taf": "TAF EDLW 100500Z 1006/1106 VRB03KT CAVOK"
    },
    {
      "icao": "EDNY",
      "alert": "OK",
      "vis_m": 9999,
      "fzfg": false,
      "metar_trigger": false,
      "taf_trigger": false,
      "metar": "METAR EDNY 100950Z 22006KT CAVOK 19/10 Q1010",
      "taf": "TAF EDNY 100800Z 1009/1018 05006KT CAVOK"
    },
    {
      "icao": "EDSB",
      "alert": "OK",
      "vis_m": 9999,
      "fzfg": false,
      "metar_trigger": false,
      "taf_trigger": false,
      "metar": "METAR EDSB 100950Z 35007KT 310V030 CAVOK 20/12 Q1009",
      "taf": "TAF EDSB 100500Z 1006/1106 02006KT CAVOK"
    },
    {
      "icao": "EETN",
      "alert": "OK",
      "vis_m": 9999,
      "fzfg": false,
      "metar_trigger": false,
      "taf_trigger": false,
      "metar": "METAR EETN 100950Z 07007KT 040V130 CAVOK 13/02 Q1016 NOSIG",
      "taf": "TAF EETN 100530Z 1006/1106 12006KT CAVOK"
    },
    {
      "icao": "EFTU",
      "alert": "OK",
      "vis_m": 9999,
      "fzfg": false,
      "metar_trigger": false,
      "taf_trigger": false,
      "metar": "METAR EFTU 100950Z AUTO 19012KT 160V230 CAVOK 15/M04 Q1015",
      "taf": "TAF EFTU 100827Z 1009/1109 17009KT CAVOK"
    },
    {
      "icao": "EGBB",
      "alert": "OK",
      "vis_m": 9999,
      "fzfg": false,
      "metar_trigger": false,
      "taf_trigger": false,
      "metar": "METAR EGBB 100950Z 06012KT 020V090 9999 BKN025 11/03 Q1020",
      "taf": "TAF EGBB 100454Z 1006/1106 03010KT 9999 BKN012"
    },
    {
      "icao": "EGGP",
      "alert": "OK",
      "vis_m": 9999,
      "fzfg": false,
      "metar_trigger": false,
      "taf_trigger": false,
      "metar": "METAR EGGP 100950Z 05010KT 9999 FEW031 11/02 Q1022",
      "taf": "TAF EGGP 100456Z 1006/1106 05008KT 9999 FEW030"
    },
    {
      "icao": "EGGW",
      "alert": "OK",
      "vis_m": 9999,
      "fzfg": false,
      "metar_trigger": false,
      "taf_trigger": false,
      "metar": "METAR EGGW 100950Z AUTO 03013KT 9999 BKN018 OVC023 10/06 Q1018",
      "taf": ""
    },
    {
      "icao": "EGKK",
      "alert": "OK",
      "vis_m": 9999,
      "fzfg": false,
      "metar_trigger": false,
      "taf_trigger": false,
      "metar": "METAR EGKK 100950Z 04016KT 9999 -RA SCT025 12/06 Q1016",
      "taf": "TAF EGKK 100503Z 1006/1112 03012KT CAVOK"
    },
    {
      "icao": "EGNM",
      "alert": "OK",
      "vis_m": 9999,
      "fzfg": false,
      "metar_trigger": false,
      "taf_trigger": false,
      "metar": "METAR EGNM 100950Z 04005KT 020V100 9999 SCT026 09/02 Q1021",
      "taf": "TAF EGNM 100455Z 1006/1106 03009KT 9999 FEW015"
    },
    {
      "icao": "EGPD",
      "alert": "OK",
      "vis_m": 9999,
      "fzfg": false,
      "metar_trigger": false,
      "taf_trigger": false,
      "metar": "METAR EGPD 100950Z COR AUTO 32009KT 280V350 9999 BKN039 09/00 Q1020 NOSIG",
      "taf": "TAF EGPD 100456Z 1006/1106 29008KT 9999 SCT030"
    },
    {
      "icao": "EGPF",
      "alert": "OK",
      "vis_m": 9999,
      "fzfg": false,
      "metar_trigger": false,
      "taf_trigger": false,
      "metar": "METAR EGPF 100950Z AUTO 29008KT 9999 NCD 11/00 Q1022",
      "taf": "TAF EGPF 100500Z 1006/1106 VRB03KT 9999 FEW030"
    },
    {
      "icao": "EHBK",
      "alert": "OK",
      "vis_m": 9999,
      "fzfg": false,
      "metar_trigger": false,
      "taf_trigger": false,
      "metar": "METAR EHBK 100925Z AUTO 03010KT 360V070 9999 NSC 15/08 Q1013 NOSIG",
      "taf": "TAF EHBK 100450Z 1006/1112 02008KT CAVOK"
    },
    {
      "icao": "EHEH",
      "alert": "OK",
      "vis_m": 9999,
      "fzfg": false,
      "metar_trigger": false,
      "taf_trigger": false,
      "metar": "METAR EHEH 100925Z AUTO 36009KT 320V050 9999 OVC170 16/08 Q1014 BLU NOSIG RMK TREND REMOTE BY EHWX",
      "taf": "TAF EHEH 100500Z 1006/1112 01004KT CAVOK"
    },
    {
      "icao": "EKBI",
      "alert": "OK",
      "vis_m": 9999,
      "fzfg": false,
      "metar_trigger": false,
      "taf_trigger": false,
      "metar": "METAR EKBI 100950Z AUTO 31009KT 290V350 9999 SCT025/// BKN080/// 11/05 Q1015",
      "taf": "TAF EKBI 100827Z 1009/1109 34008KT CAVOK"
    },
    {
      "icao": "EKCH",
      "alert": "OK",
      "vis_m": 9999,
      "fzfg": false,
      "metar_trigger": false,
      "taf_trigger": false,
      "metar": "METAR EKCH 100950Z AUTO 20006KT 170V230 9999 FEW070/// OVC087/// 11/06 Q1014 NOSIG",
      "taf": "TAF EKCH 100827Z 1009/1109 14010KT CAVOK"
    },
    {
      "icao": "ENAL",
      "alert": "OK",
      "vis_m": 9999,
      "fzfg": false,
      "metar_trigger": false,
      "taf_trigger": false,
      "metar": "METAR ENAL 100950Z 24016KT 9999 FEW018 SCT056 06/00 Q1012",
      "taf": "TAF ENAL 100800Z 1009/1018 24012KT 9999 -SHRA FEW015TCU BKN025"
    },
    {
      "icao": "ENBR",
      "alert": "OK",
      "vis_m": 9999,
      "fzfg": false,
      "metar_trigger": false,
      "taf_trigger": false,
      "metar": "METAR ENBR 100950Z 21005KT 9999 FEW015 FEW020CB SCT030 05/01 Q1015 NOSIG RMK WIND 1200FT 28009KT",
      "taf": "TAF ENBR 100500Z 1006/1106 26005KT 9999 -SHRA FEW018 BKN035"
    },
    {
      "icao": "ENGM",
      "alert": "OK",
      "vis_m": 9999,
      "fzfg": false,
      "metar_trigger": false,
      "taf_trigger": false,
      "metar": "METAR ENGM 100950Z 17004KT 130V210 9999 FEW009 06/03 Q1011 NOSIG",
      "taf": ""
    },
    {
      "icao": "ENHD",
      "alert": "OK",
      "vis_m": 9999,
      "fzfg": false,
      "metar_trigger": false,
      "taf_trigger": false,
      "metar": "METAR ENHD 100950Z 28015KT 9999 -RA SCT018 BKN025 06/02 Q1016",
      "taf": "TAF ENHD 100800Z 1009/1018 31009KT 9999 -RA FEW012 BKN020"
    },
    {
      "icao": "ENTC",
      "alert": "OK",
      "vis_m": 9999,
      "fzfg": false,
      "metar_trigger": false,
      "taf_trigger": false,
      "metar": "METAR ENTC 100950Z 26008KT 9999 -RA BKN031 06/02 Q1008 TEMPO BKN014 RMK WIND 2600FT 23014KT",
      "taf": "TAF ENTC 100500Z 1006/1106 18005KT 9999 FEW020 BKN050"
    },
    {
      "icao": "ENTO",
      "alert": "OK",
      "vis_m": 9999,
      "fzfg": false,
      "metar_trigger": false,
      "taf_trigger": false,
      "metar": "METAR ENTO 100950Z 01005KT 330V050 9999 -RA FEW008 SCT012 BKN028 05/04 Q1012 NOSIG",
      "taf": "TAF ENTO 100500Z 1006/1106 35008KT 9999 BKN040"
    },
    {
      "icao": "ENVA",
      "alert": "OK",
      "vis_m": 9999,
      "fzfg": false,
      "metar_trigger": false,
      "taf_trigger": false,
      "metar": "METAR ENVA 100950Z 28012KT 9999 SCT049CB 09/00 Q1011 NOSIG RMK WIND 670FT 29012KT",
      "taf": ""
    },
    {
      "icao": "ENZV",
      "alert": "OK",
      "vis_m": 9999,
      "fzfg": false,
      "metar_trigger": false,
      "taf_trigger": false,
      "metar": "METAR ENZV 100950Z 30010KT 9999 SCT023 08/02 Q1016 NOSIG",
      "taf": "TAF ENZV 100500Z 1006/1106 34005KT 9999 FEW010 SCT035"
    },
    {
      "icao": "EPGD",
      "alert": "OK",
      "vis_m": 9999,
      "fzfg": false,
      "metar_trigger": false,
      "taf_trigger": false,
      "metar": "METAR EPGD 100930Z 12006KT 070V160 CAVOK 15/M01 Q1016",
      "taf": "TAF EPGD 100530Z 1006/1106 VRB03KT CAVOK"
    },
    {
      "icao": "EPKK",
      "alert": "OK",
      "vis_m": 9999,
      "fzfg": false,
      "metar_trigger": false,
      "taf_trigger": false,
      "metar": "METAR EPKK 100930Z 11009KT 070V150 9999 FEW039 15/06 Q1017",
      "taf": "TAF EPKK 100830Z 1009/1109 11013KT CAVOK"
    },
    {
      "icao": "EPKT",
      "alert": "OK",
      "vis_m": 9999,
      "fzfg": false,
      "metar_trigger": false,
      "taf_trigger": false,
      "metar": "METAR EPKT 100930Z 11010KT 090V170 CAVOK 16/03 Q1016",
      "taf": "TAF EPKT 100530Z 1006/1106 06003KT CAVOK"
    },
    {
      "icao": "EPLB",
      "alert": "OK",
      "vis_m": 9999,
      "fzfg": false,
      "metar_trigger": false,
      "taf_trigger": false,
      "metar": "METAR EPLB 100930Z VRB02KT 9999 BKN043 14/04 Q1017",
      "taf": "TAF EPLB 100530Z 1006/1106 VRB03KT CAVOK"
    },
    {
      "icao": "EPMO",
      "alert": "OK",
      "vis_m": 9999,
      "fzfg": false,
      "metar_trigger": false,
      "taf_trigger": false,
      "metar": "METAR EPMO 100930Z VRB04KT CAVOK 16/01 Q1016",
      "taf": "TAF EPMO 100530Z 1006/1106 VRB02KT CAVOK"
    },
    {
      "icao": "EPPO",
      "alert": "OK",
      "vis_m": 9999,
      "fzfg": false,
      "metar_trigger": false,
      "taf_trigger": false,
      "metar": "METAR EPPO 100930Z 19008KT 150V210 9999 SCT040 18/04 Q1016",
      "taf": "TAF EPPO 100530Z 1006/1106 VRB02KT CAVOK"
    },
    {
      "icao": "EPRA",
      "alert": "OK",
      "vis_m": 9999,
      "fzfg": false,
      "metar_trigger": false,
      "taf_trigger": false,
      "metar": "METAR EPRA 100930Z 32005KT 250V040 9999 FEW047 16/02 Q1016",
      "taf": "TAF EPRA 100830Z 1009/1018 27008KT 9999 SCT040"
    },
    {
      "icao": "EPRZ",
      "alert": "OK",
      "vis_m": 9999,
      "fzfg": false,
      "metar_trigger": false,
      "taf_trigger": false,
      "metar": "METAR EPRZ 100930Z VRB04KT 9999 SCT033 14/05 Q1017",
      "taf": "TAF EPRZ 100530Z 1006/1106 VRB02KT 0200 FG BKN001"
    },
    {
      "icao": "EPSC",
      "alert": "OK",
      "vis_m": 9999,
      "fzfg": false,
      "metar_trigger": false,
      "taf_trigger": false,
      "metar": "METAR EPSC 100930Z 15011KT 130V200 9999 FEW042 17/06 Q1014",
      "taf": "TAF EPSC 100530Z 1006/1106 VRB02KT CAVOK"
    },
    {
      "icao": "EPSY",
      "alert": "OK",
      "vis_m": 9999,
      "fzfg": false,
      "metar_trigger": false,
      "taf_trigger": false,
      "metar": "METAR EPSY 100930Z VRB04KT CAVOK 13/01 Q1016",
      "taf": "TAF EPSY 100830Z 1009/1018 VRB02KT 9999 SCT040"
    },
    {
      "icao": "EPWA",
      "alert": "OK",
      "vis_m": 9999,
      "fzfg": false,
      "metar_trigger": false,
      "taf_trigger": false,
      "metar": "METAR EPWA 100930Z VRB03KT CAVOK 15/01 Q1016 NOSIG",
      "taf": "TAF EPWA 100830Z 1009/1109 VRB05KT 9999 FEW045"
    },
    {
      "icao": "EPWR",
      "alert": "OK",
      "vis_m": 9999,
      "fzfg": false,
      "metar_trigger": false,
      "taf_trigger": false,
      "metar": "METAR EPWR 100930Z 13016KT 9999 FEW040 16/06 Q1016",
      "taf": "TAF EPWR 100830Z 1009/1109 11005KT CAVOK"
    },
    {
      "icao": "ESGG",
      "alert": "OK",
      "vis_m": 9999,
      "fzfg": false,
      "metar_trigger": false,
      "taf_trigger": false,
      "metar": "METAR ESGG 100950Z 20009KT 9999 FEW027CB BKN066 10/08 Q1012",
      "taf": "TAF ESGG 100830Z 1009/1109 19012KT CAVOK"
    },
    {
      "icao": "ESKN",
      "alert": "OK",
      "vis_m": 9999,
      "fzfg": false,
      "metar_trigger": false,
      "taf_trigger": false,
      "metar": "METAR ESKN 100950Z 11010KT 070V150 CAVOK 14/05 Q1012",
      "taf": "TAF ESKN 100830Z 1009/1109 15008KT CAVOK"
    },
    {
      "icao": "ESMS",
      "alert": "OK",
      "vis_m": 9999,
      "fzfg": false,
      "metar_trigger": false,
      "taf_trigger": false,
      "metar": "METAR ESMS 100950Z 14005KT 090V180 CAVOK 14/05 Q1014",
      "taf": "TAF ESMS 100827Z 1009/1109 14010KT CAVOK"
    },
    {
      "icao": "ESSA",
      "alert": "OK",
      "vis_m": 9999,
      "fzfg": false,
      "metar_trigger": false,
      "taf_trigger": false,
      "metar": "METAR ESSA 100950Z 18014KT CAVOK 15/M04 Q1012 NOSIG",
      "taf": "TAF ESSA 100830Z 1009/1109 17010KT CAVOK"
    },
    {
      "icao": "EYKA",
      "alert": "OK",
      "vis_m": 9999,
      "fzfg": false,
      "metar_trigger": false,
      "taf_trigger": false,
      "metar": "METAR EYKA 100950Z 33004KT 280V020 9999 OVC017 09/06 Q1016",
      "taf": "TAF EYKA 100500Z 1006/1106 VRB03KT 5000 BR OVC005"
    },
    {
      "icao": "EYPA",
      "alert": "OK",
      "vis_m": 9999,
      "fzfg": false,
      "metar_trigger": false,
      "taf_trigger": false,
      "metar": "METAR EYPA 100950Z 27005KT 230V320 CAVOK 12/04 Q1016",
      "taf": "TAF EYPA 100500Z 1006/1106 VRB03KT 9000 NSC"
    },
    {
      "icao": "EYVI",
      "alert": "OK",
      "vis_m": 9999,
      "fzfg": false,
      "metar_trigger": false,
      "taf_trigger": false,
      "metar": "METAR EYVI 100950Z 30005KT 270V340 9999 OVC004 07/07 Q1015 NOSIG",
      "taf": "TAF EYVI 100520Z 1006/1106 30005KT 6000 OVC005"
    },
    {
      "icao": "GCFV",
      "alert": "OK",
      "vis_m": 9999,
      "fzfg": false,
      "metar_trigger": false,
      "taf_trigger": false,
      "metar": "METAR GCFV 100930Z 12005KT 080V160 9999 FEW025 SCT035 21/15 Q1018",
      "taf": "TAF GCFV 100800Z 1009/1109 09007KT 9999 SCT035 TX24/1014Z TN17/1106Z"
    },
    {
      "icao": "GCLP",
      "alert": "OK",
      "vis_m": 9999,
      "fzfg": false,
      "metar_trigger": false,
      "taf_trigger": false,
      "metar": "METAR GCLP 100930Z 08006KT 040V100 9999 FEW020 BKN045 21/15 Q1019 NOSIG",
      "taf": "TAF GCLP 100800Z 1009/1109 10006KT 9999 FEW025 BKN040 TX23/1014Z TN17/1106Z"
    },
    {
      "icao": "GCTS",
      "alert": "OK",
      "vis_m": 9999,
      "fzfg": false,
      "metar_trigger": false,
      "taf_trigger": false,
      "metar": "METAR GCTS 100930Z 15008KT 120V190 9999 SCT030 BKN060 21/15 Q1018 TEMPO RA",
      "taf": "TAF GCTS 100800Z 1009/1109 14005KT 9999 BKN040 TX25/1014Z TN18/1106Z"
    },
    {
      "icao": "GMAD",
      "alert": "OK",
      "vis_m": 9999,
      "fzfg": false,
      "metar_trigger": false,
      "taf_trigger": false,
      "metar": "METAR GMAD 100930Z 21004KT 140V240 9999 SCT016 20/13 Q1017 NOSIG",
      "taf": "TAF GMAD 100500Z 1006/1112 07004KT 8000 SCT026"
    },
    {
      "icao": "GMMN",
      "alert": "OK",
      "vis_m": 9999,
      "fzfg": false,
      "metar_trigger": false,
      "taf_trigger": false,
      "metar": "METAR GMMN 100930Z 24011KT 120V270 9999 BKN020 21/14 Q1017 NOSIG",
      "taf": "TAF GMMN 100500Z 1006/1112 18008KT 9999 FEW020"
    },
    {
      "icao": "GMMX",
      "alert": "OK",
      "vis_m": 9999,
      "fzfg": false,
      "metar_trigger": false,
      "taf_trigger": false,
      "metar": "METAR GMMX 100930Z VRB04KT CAVOK 19/10 Q1018 NOSIG",
      "taf": "TAF GMMX 100500Z 1006/1112 26006KT 8000 SCT023"
    },
    {
      "icao": "HEGN",
      "alert": "OK",
      "vis_m": 9999,
      "fzfg": false,
      "metar_trigger": false,
      "taf_trigger": false,
      "metar": "METAR HEGN 100900Z 35015KT CAVOK 30/08 Q1012 NOSIG",
      "taf": "TAF HEGN 100500Z 1006/1112 33010G20KT CAVOK"
    },
    {
      "icao": "HEMA",
      "alert": "OK",
      "vis_m": 9999,
      "fzfg": false,
      "metar_trigger": false,
      "taf_trigger": false,
      "metar": "METAR HEMA 100900Z 36016KT CAVOK 30/10 Q1012 NOSIG",
      "taf": "TAF HEMA 100500Z 1006/1112 32010G20KT CAVOK"
    },
    {
      "icao": "HESH",
      "alert": "OK",
      "vis_m": 9999,
      "fzfg": false,
      "metar_trigger": false,
      "taf_trigger": false,
      "metar": "METAR HESH 100900Z 36018KT CAVOK 30/14 Q1011 NOSIG",
      "taf": "TAF HESH 100500Z 1006/1112 36010G20KT CAVOK"
    },
    {
      "icao": "HESX",
      "alert": "OK",
      "vis_m": 9999,
      "fzfg": false,
      "metar_trigger": false,
      "taf_trigger": false,
      "metar": "METAR HESX 100900Z 05007KT CAVOK 33/06 Q1016 NOSIG",
      "taf": "TAF HESX 100500Z 1006/1112 03010KT CAVOK"
    },
    {
      "icao": "LATI",
      "alert": "OK",
      "vis_m": 9999,
      "fzfg": false,
      "metar_trigger": false,
      "taf_trigger": false,
      "metar": "METAR LATI 100950Z VRB01KT 9999 BKN150 21/14 Q1017 NOSIG",
      "taf": "TAF LATI 100500Z 1006/1106 VRB05KT 9999 SCT060 TX23/1013Z TN15/1104Z"
    },
    {
      "icao": "LBPD",
      "alert": "OK",
      "vis_m": 9999,
      "fzfg": false,
      "metar_trigger": false,
      "taf_trigger": false,
      "metar": "METAR LBPD 100930Z AUTO 29010KT 250V320 9999 NCD 23/10 Q1015 NOSIG",
      "taf": "TAF LBPD 100500Z 1006/1106 VRB04KT 9999 SCT050"
    },
    {
      "icao": "LBSF",
      "alert": "OK",
      "vis_m": 9999,
      "fzfg": false,
      "metar_trigger": false,
      "taf_trigger": false,
      "metar": "METAR LBSF 100930Z 32003KT 270V060 9999 SCT046 20/09 Q1017 NOSIG",
      "taf": "TAF LBSF 100500Z 1006/1106 32010KT 9999 SCT040"
    },
    {
      "icao": "LBWN",
      "alert": "OK",
      "vis_m": 9999,
      "fzfg": false,
      "metar_trigger": false,
      "taf_trigger": false,
      "metar": "METAR LBWN 100930Z 31010KT 280V350 9999 SCT032 BKN040 19/14 Q1015 NOSIG",
      "taf": "TAF LBWN 100500Z 1006/1106 30010KT 9999 BKN015 BKN040"
    },
    {
      "icao": "LCLK",
      "alert": "OK",
      "vis_m": 9999,
      "fzfg": false,
      "metar_trigger": false,
      "taf_trigger": false,
      "metar": "METAR LCLK 100930Z 19011KT 150V230 CAVOK 29/14 Q1015 NOSIG",
      "taf": "TAF LCLK 100530Z 1006/1106 14006KT CAVOK"
    },
    {
      "icao": "LCPH",
      "alert": "OK",
      "vis_m": 9999,
      "fzfg": false,
      "metar_trigger": false,
      "taf_trigger": false,
      "metar": "METAR LCPH 100930Z 31013KT 250V320 9999 FEW040 23/18 Q1016 NOSIG",
      "taf": "TAF LCPH 100530Z 1006/1106 05005KT CAVOK"
    },
    {
      "icao": "LEAL",
      "alert": "OK",
      "vis_m": 9999,
      "fzfg": false,
      "metar_trigger": false,
      "taf_trigger": false,
      "metar": "METAR LEAL 100930Z 25002KT CAVOK 23/14 Q1015 NOSIG",
      "taf": "TAF LEAL 100500Z 1006/1106 VRB04KT 9999 FEW035 TX26/1012Z TN13/1105Z"
    },
    {
      "icao": "LEBB",
      "alert": "OK",
      "vis_m": 9999,
      "fzfg": false,
      "metar_trigger": false,
      "taf_trigger": false,
      "metar": "METAR LEBB 100930Z VRB02KT 9999 FEW059 20/10 Q1010 NOSIG",
      "taf": "TAF LEBB 100500Z 1006/1106 24009KT CAVOK TX20/1015Z TN10/1104Z"
    },
    {
      "icao": "LEBL",
      "alert": "OK",
      "vis_m": 9999,
      "fzfg": false,
      "metar_trigger": false,
      "taf_trigger": false,
      "metar": "METAR LEBL 100930Z 23018KT 9999 FEW013 19/16 Q1013 NOSIG",
      "taf": "TAF LEBL 100500Z 1006/1106 VRB04KT 9999 FEW050 TX21/1013Z TN13/1006Z"
    },
    {
      "icao": "LECH",
      "alert": "OK",
      "vis_m": 9999,
      "fzfg": false,
      "metar_trigger": false,
      "taf_trigger": false,
      "metar": "METAR LECH 100930Z AUTO 23008KT CAVOK 18/09 Q1014",
      "taf": ""
    },
    {
      "icao": "LEMD",
      "alert": "OK",
      "vis_m": 9999,
      "fzfg": false,
      "metar_trigger": false,
      "taf_trigger": false,
      "metar": "METAR LEMD 100930Z 17011KT 130V200 9999 FEW015 FEW050TCU BKN065 13/11 Q1012 TEMPO 4000 SHRA SCT040TCU",
      "taf": "TAF LEMD 100500Z 1006/1112 20007KT 9999 SCT030 TX16/1015Z TN07/1105Z"
    },
    {
      "icao": "LEMG",
      "alert": "OK",
      "vis_m": 9999,
      "fzfg": false,
      "metar_trigger": false,
      "taf_trigger": false,
      "metar": "METAR LEMG 100930Z 14006KT 110V170 9999 VCSH FEW030TCU BKN060 18/13 Q1016 NOSIG",
      "taf": ""
    },
    {
      "icao": "LEVC",
      "alert": "OK",
      "vis_m": 9999,
      "fzfg": false,
      "metar_trigger": false,
      "taf_trigger": false,
      "metar": "METAR LEVC 100930Z 24006KT 200V290 9999 FEW030 20/12 Q1014 NOSIG",
      "taf": "TAF LEVC 100500Z 1006/1106 VRB04KT 9999 FEW020 TX24/1012Z TN13/1105Z"
    },
    {
      "icao": "LEXJ",
      "alert": "OK",
      "vis_m": 9999,
      "fzfg": false,
      "metar_trigger": false,
      "taf_trigger": false,
      "metar": "METAR LEXJ 100930Z 18008KT 140V240 9999 FEW050 20/08 Q1009",
      "taf": "TAF LEXJ 100800Z 1009/1109 21009KT 9999 FEW050 TX21/1014Z TN11/1105Z"
    },
    {
      "icao": "LEZG",
      "alert": "OK",
      "vis_m": 9999,
      "fzfg": false,
      "metar_trigger": false,
      "taf_trigger": false,
      "metar": "METAR LEZG 100930Z 24011KT 9999 BKN089 19/08 Q1012 NOSIG",
      "taf": "TAF LEZG 100500Z 1006/1106 VRB04KT 9999 FEW020 TX23/1014Z TN10/1105Z"
    },
    {
      "icao": "LEZL",
      "alert": "OK",
      "vis_m": 9999,
      "fzfg": false,
      "metar_trigger": false,
      "taf_trigger": false,
      "metar": "METAR LEZL 100930Z 21012KT 170V260 9999 VCSH FEW016 FEW020TCU SCT023 19/15 Q1014 NOSIG",
      "taf": "TAF LEZL 100800Z 1009/1109 20008KT 9999 SCT030 TX22/1015Z TN11/1107Z"
    },
    {
      "icao": "LFBD",
      "alert": "OK",
      "vis_m": 9999,
      "fzfg": false,
      "metar_trigger": false,
      "taf_trigger": false,
      "metar": "METAR LFBD 100930Z AUTO 23016KT 9999 BKN043 BKN050 21/11 Q1009 TEMPO 24015G25KT",
      "taf": "TAF LFBD 100500Z 1006/1112 16010KT CAVOK TX22/1013Z TN11/1105Z"
    },
    {
      "icao": "LFLL",
      "alert": "OK",
      "vis_m": 9999,
      "fzfg": false,
      "metar_trigger": false,
      "taf_trigger": false,
      "metar": "METAR LFLL 100930Z VRB02KT 9999 -RA FEW011 SCT033 BKN063 14/13 Q1012 NOSIG",
      "taf": "TAF LFLL 100500Z 1006/1112 18005KT CAVOK"
    },
    {
      "icao": "LFLS",
      "alert": "OK",
      "vis_m": 9999,
      "fzfg": false,
      "metar_trigger": false,
      "taf_trigger": false,
      "metar": "METAR LFLS 100930Z AUTO 00000KT 9999 -DZ FEW011 BKN016 OVC058 14/13 Q1012 TEMPO SHRA SCT040TCU",
      "taf": "TAF LFLS 100800Z 1009/1109 VRB02KT 9999 BKN045"
    },
    {
      "icao": "LFMN",
      "alert": "OK",
      "vis_m": 9999,
      "fzfg": false,
      "metar_trigger": false,
      "taf_trigger": false,
      "metar": "METAR LFMN 100930Z 09019KT 9999 FEW016 BKN076 20/15 Q1012 NOSIG",
      "taf": "TAF LFMN 100800Z 1009/1115 08015KT 9999 FEW016 OVC060"
    },
    {
      "icao": "LFOB",
      "alert": "OK",
      "vis_m": 9999,
      "fzfg": false,
      "metar_trigger": false,
      "taf_trigger": false,
      "metar": "METAR LFOB 100930Z AUTO 04016KT 9999 4900 -RA FEW026/// BKN058/// BKN068/// ///TCU 13/10 Q1011 TEMPO 2000 TSRA BKN014 BKN020CB",
      "taf": ""
    },
    {
      "icao": "LFPO",
      "alert": "OK",
      "vis_m": 9999,
      "fzfg": false,
      "metar_trigger": false,
      "taf_trigger": false,
      "metar": "METAR LFPO 100930Z 06007KT 030V100 9999 SCT010 BKN086 BKN120 17/12 Q1010 NOSIG",
      "taf": "TAF LFPO 100500Z 1006/1112 04010KT CAVOK"
    },
    {
      "icao": "LFSB",
      "alert": "OK",
      "vis_m": 9999,
      "fzfg": false,
      "metar_trigger": false,
      "taf_trigger": false,
      "metar": "METAR LFSB 100930Z AUTO 29005KT 240V320 CAVOK 18/12 Q1010 NOSIG",
      "taf": ""
    },
    {
      "icao": "LGAV",
      "alert": "OK",
      "vis_m": 9999,
      "fzfg": false,
      "metar_trigger": false,
      "taf_trigger": false,
      "metar": "METAR LGAV 100950Z 12007KT 070V160 9999 FEW025 24/12 Q1017 NOSIG",
      "taf": "TAF LGAV 100500Z 1006/1106 VRB05KT 9999 FEW025"
    },
    {
      "icao": "LGTS",
      "alert": "OK",
      "vis_m": 9999,
      "fzfg": false,
      "metar_trigger": false,
      "taf_trigger": false,
      "metar": "METAR LGTS 100950Z 27007KT 9999 FEW020 23/14 Q1015 NOSIG",
      "taf": "TAF LGTS 100500Z 1006/1106 VRB03KT 9999 FEW025"
    },
    {
      "icao": "LHBP",
      "alert": "OK",
      "vis_m": 9999,
      "fzfg": false,
      "metar_trigger": false,
      "taf_trigger": false,
      "metar": "METAR LHBP 100930Z VRB05KT CAVOK 20/06 Q1016 NOSIG",
      "taf": "TAF LHBP 100515Z 1006/1106 08008KT CAVOK"
    },
    {
      "icao": "LHDC",
      "alert": "OK",
      "vis_m": 9999,
      "fzfg": false,
      "metar_trigger": false,
      "taf_trigger": false,
      "metar": "METAR LHDC 100915Z AUTO VRB02KT CAVOK 20/07 Q1015 NOSIG",
      "taf": "TAF LHDC 100815Z 1009/1018 VRB05KT CAVOK"
    },
    {
      "icao": "LIBD",
      "alert": "OK",
      "vis_m": 9999,
      "fzfg": false,
      "metar_trigger": false,
      "taf_trigger": false,
      "metar": "METAR LIBD 100950Z 16004KT 050V210 CAVOK 22/13 Q1015",
      "taf": "TAF LIBD 100709Z 1006/1106 20005KT CAVOK"
    },
    {
      "icao": "LIBG",
      "alert": "OK",
      "vis_m": 9999,
      "fzfg": false,
      "metar_trigger": false,
      "taf_trigger": false,
      "metar": "METAR LIBG 100850Z 14004KT 110V180 CAVOK 22/13 Q1016",
      "taf": "TAF LIBG 100800Z 1009/1018 VRB05KT CAVOK"
    },
    {
      "icao": "LIBP",
      "alert": "OK",
      "vis_m": 9999,
      "fzfg": false,
      "metar_trigger": false,
      "taf_trigger": false,
      "metar": "METAR LIBP 100950Z AUTO 12004KT 070V200 9999 FEW150/// 23/16 Q1013",
      "taf": "TAF LIBP 100708Z 1006/1106 VRB05KT 9999 FEW080"
    },
    {
      "icao": "LIBR",
      "alert": "OK",
      "vis_m": 9999,
      "fzfg": false,
      "metar_trigger": false,
      "taf_trigger": false,
      "metar": "METAR LIBR 100950Z 13008KT CAVOK 19/16 Q1016",
      "taf": "TAF LIBR 100707Z 1006/1106 25005KT CAVOK"
    },
    {
      "icao": "LICA",
      "alert": "OK",
      "vis_m": 9999,
      "fzfg": false,
      "metar_trigger": false,
      "taf_trigger": false,
      "metar": "METAR LICA 100950Z AUTO 04013KT 9999 NCD 22/18 Q1014",
      "taf": ""
    },
    {
      "icao": "LICC",
      "alert": "OK",
      "vis_m": 9999,
      "fzfg": false,
      "metar_trigger": false,
      "taf_trigger": false,
      "metar": "METAR LICC 100950Z 08006KT 040V120 CAVOK 23/19 Q1016",
      "taf": "TAF LICC 100701Z 1006/1106 VRB05KT 9999 SCT025"
    },
    {
      "icao": "LICJ",
      "alert": "OK",
      "vis_m": 9999,
      "fzfg": false,
      "metar_trigger": false,
      "taf_trigger": false,
      "metar": "METAR LICJ 100950Z 25015KT CAVOK 20/17 Q1014",
      "taf": "TAF LICJ 100702Z 1006/1106 VRB05KT 9999 FEW040"
    },
    {
      "icao": "LIMC",
      "alert": "OK",
      "vis_m": 7000,
      "fzfg": false,
      "metar_trigger": false,
      "taf_trigger": false,
      "metar": "METAR LIMC 100950Z 05006KT 7000 -RA BKN040 15/13 Q1015 NOSIG",
      "taf": "TAF LIMC 100500Z 1006/1112 VRB05KT 4000 RA BKN050"
    },
    {
      "icao": "LIME",
      "alert": "OK",
      "vis_m": 7000,
      "fzfg": false,
      "metar_trigger": false,
      "taf_trigger": false,
      "metar": "METAR LIME 100950Z 32003KT 7000 -RA SCT030 BKN040 15/14 Q1015 NOSIG",
      "taf": "TAF LIME 100646Z 1006/1106 VRB05KT 9999 SCT050"
    },
    {
      "icao": "LIMF",
      "alert": "OK",
      "vis_m": 4000,
      "fzfg": false,
      "metar_trigger": false,
      "taf_trigger": false,
      "metar": "METAR LIMF 100950Z VRB02KT 4000 RA OVC015 14/13 Q1015",
      "taf": "TAF LIMF 100648Z 1006/1106 1106 VRB05KT 4000 RA BKN050"
    },
    {
      "icao": "LIMJ",
      "alert": "OK",
      "vis_m": 9999,
      "fzfg": false,
      "metar_trigger": false,
      "taf_trigger": false,
      "metar": "METAR LIMJ 100950Z 05006KT 020V080 9999 SCT021 BKN035 17/14 Q1013",
      "taf": "TAF LIMJ 100649Z 1006/1106 VRB05KT 4000 RA SCT020"
    },
    {
      "icao": "LIPE",
      "alert": "OK",
      "vis_m": 9999,
      "fzfg": false,
      "metar_trigger": false,
      "taf_trigger": false,
      "metar": "METAR LIPE 100950Z 08005KT 9999 FEW040 SCT070 20/15 Q1013",
      "taf": "TAF LIPE 100649Z 1006/1106 VRB05KT 9999 FEW060"
    },
    {
      "icao": "LIPH",
      "alert": "OK",
      "vis_m": 9999,
      "fzfg": false,
      "metar_trigger": false,
      "taf_trigger": false,
      "metar": "METAR LIPH 100950Z 12004KT 060V160 9999 BKN070 20/12 Q1014",
      "taf": "TAF LIPH 100705Z 1006/1106 VRB05KT CAVOK"
    },
    {
      "icao": "LIPQ",
      "alert": "OK",
      "vis_m": 9999,
      "fzfg": false,
      "metar_trigger": false,
      "taf_trigger": false,
      "metar": "METAR LIPQ 100950Z AUTO 22008KT 160V250 9999 SCT077/// BKN220/// 22/10 Q1014",
      "taf": "TAF LIPQ 100650Z 1006/1106 VRB05KT CAVOK"
    },
    {
      "icao": "LIPR",
      "alert": "OK",
      "vis_m": 9999,
      "fzfg": false,
      "metar_trigger": false,
      "taf_trigger": false,
      "metar": "METAR LIPR 100950Z 08005KT 9999 SCT070 20/15 Q1013",
      "taf": "TAF LIPR 100705Z 1006/1106 VRB05KT 9999 FEW060"
    },
    {
      "icao": "LIPX",
      "alert": "OK",
      "vis_m": 9999,
      "fzfg": false,
      "metar_trigger": false,
      "taf_trigger": false,
      "metar": "METAR LIPX 100950Z 07006KT 9999 -RA FEW050 BKN080 17/11 Q1014",
      "taf": "TAF LIPX 100648Z 1006/1106 VRB05KT 9999 SCT040"
    },
    {
      "icao": "LIPY",
      "alert": "OK",
      "vis_m": 9999,
      "fzfg": false,
      "metar_trigger": false,
      "taf_trigger": false,
      "metar": "METAR LIPY 100950Z AUTO 11007KT 060V170 9999 FEW130/// 22/14 Q1013",
      "taf": "TAF LIPY 100706Z 1006/1106 VRB05KT 9999 FEW060"
    },
    {
      "icao": "LIPZ",
      "alert": "OK",
      "vis_m": 9999,
      "fzfg": false,
      "metar_trigger": false,
      "taf_trigger": false,
      "metar": "METAR LIPZ 100950Z 08003KT 030V140 9999 BKN070 19/15 Q1014 NOSIG",
      "taf": "TAF LIPZ 100500Z 1006/1112 VRB05KT 9999 FEW060"
    },
    {
      "icao": "LIRF",
      "alert": "OK",
      "vis_m": 9999,
      "fzfg": false,
      "metar_trigger": false,
      "taf_trigger": false,
      "metar": "METAR LIRF 100950Z 13014KT 9999 FEW040 SCT055 22/15 Q1012 NOSIG",
      "taf": "TAF LIRF 100500Z 1006/1112 10010KT 9999 SCT040"
    },
    {
      "icao": "LIRN",
      "alert": "OK",
      "vis_m": 9999,
      "fzfg": false,
      "metar_trigger": false,
      "taf_trigger": false,
      "metar": "METAR LIRN 100950Z VRB02KT CAVOK 24/13 Q1014 NOSIG",
      "taf": "TAF LIRN 100650Z 1006/1106 VRB05KT 9999 FEW050"
    },
    {
      "icao": "LIRP",
      "alert": "OK",
      "vis_m": 9999,
      "fzfg": false,
      "metar_trigger": false,
      "taf_trigger": false,
      "metar": "METAR LIRP 100945Z 11007KT 9999 SCT030 BKN050 17/15 Q1014 NOSIG",
      "taf": "TAF LIRP 100500Z 1006/1106 08005KT 9999 FEW020 SCT070"
    },
    {
      "icao": "LIRZ",
      "alert": "OK",
      "vis_m": 9999,
      "fzfg": false,
      "metar_trigger": false,
      "taf_trigger": false,
      "metar": "METAR LIRZ 100950Z AUTO 32004KT 290V360 9999 -RA FEW027/// BKN046/// 16/15 Q1014",
      "taf": "TAF LIRZ 100648Z 1006/1106 VRB05KT 9999 FEW060"
    },
    {
      "icao": "LJLJ",
      "alert": "OK",
      "vis_m": 9999,
      "fzfg": false,
      "metar_trigger": false,
      "taf_trigger": false,
      "metar": "METAR LJLJ 100930Z 11004KT 060V140 9999 FEW040 BKN230 17/10 Q1015 NOSIG",
      "taf": "TAF LJLJ 100500Z 1006/1106 VRB02KT 9999 SCT060"
    },
    {
      "icao": "LKMT",
      "alert": "OK",
      "vis_m": 9999,
      "fzfg": false,
      "metar_trigger": false,
      "taf_trigger": false,
      "metar": "METAR LKMT 100930Z VRB02KT CAVOK 14/08 Q1016 NOSIG",
      "taf": "TAF LKMT 100500Z 1006/1106 VRB02KT 0200 FG VV002"
    },
    {
      "icao": "LKPR",
      "alert": "OK",
      "vis_m": 9999,
      "fzfg": false,
      "metar_trigger": false,
      "taf_trigger": false,
      "metar": "METAR LKPR 100930Z 09006KT 050V140 CAVOK 16/08 Q1014 NOSIG",
      "taf": "TAF LKPR 100800Z 1009/1115 09005KT CAVOK"
    },
    {
      "icao": "LLBG",
      "alert": "OK",
      "vis_m": 9999,
      "fzfg": false,
      "metar_trigger": false,
      "taf_trigger": false,
      "metar": "METAR LLBG 100950Z 29012KT CAVOK 26/15 Q1015 NOSIG",
      "taf": "TAF LLBG 100501Z 1006/1106 VRB03KT CAVOK TX28/1011Z TN16/1104Z"
    },
    {
      "icao": "LMML",
      "alert": "OK",
      "vis_m": 9999,
      "fzfg": false,
      "metar_trigger": false,
      "taf_trigger": false,
      "metar": "METAR LMML 100945Z 07018KT 9999 FEW020 22/16 Q1014 NOSIG",
      "taf": "TAF LMML 100500Z 1006/1106 08017KT 9999 FEW012"
    },
    {
      "icao": "LOWW",
      "alert": "OK",
      "vis_m": 9999,
      "fzfg": false,
      "metar_trigger": false,
      "taf_trigger": false,
      "metar": "METAR LOWW 100950Z 13013KT CAVOK 20/08 Q1014 NOSIG",
      "taf": "TAF LOWW 100815Z 1009/1115 13007KT CAVOK TX25/1015Z TN14/1103Z"
    },
    {
      "icao": "LPFR",
      "alert": "OK",
      "vis_m": 9999,
      "fzfg": false,
      "metar_trigger": false,
      "taf_trigger": false,
      "metar": "METAR LPFR 100930Z 24017KT 9999 FEW018 17/13 Q1013",
      "taf": "TAF LPFR 100500Z 1006/1106 23012KT 9999 SCT020"
    },
    {
      "icao": "LPMA",
      "alert": "OK",
      "vis_m": 9999,
      "fzfg": false,
      "metar_trigger": false,
      "taf_trigger": false,
      "metar": "METAR LPMA 100930Z 05005KT 010V080 9999 FEW015 18/09 Q1016",
      "taf": "TAF LPMA 100500Z 1006/1106 VRB05KT 9999 SCT015"
    },
    {
      "icao": "LPPR",
      "alert": "OK",
      "vis_m": 9999,
      "fzfg": false,
      "metar_trigger": false,
      "taf_trigger": false,
      "metar": "METAR LPPR 100930Z 18016KT 9999 FEW020 FEW025CB 15/10 Q1008",
      "taf": "TAF LPPR 100500Z 1006/1106 15010KT 9999 SCT020"
    },
    {
      "icao": "LPPS",
      "alert": "OK",
      "vis_m": 9999,
      "fzfg": false,
      "metar_trigger": false,
      "taf_trigger": false,
      "metar": "METAR LPPS 100930Z 27012KT 9999 FEW015 17/08 Q1016",
      "taf": "TAF LPPS 100500Z 1006/1112 27013KT 9999 SCT015"
    },
    {
      "icao": "LPPT",
      "alert": "OK",
      "vis_m": 9999,
      "fzfg": false,
      "metar_trigger": false,
      "taf_trigger": false,
      "metar": "METAR LPPT 100930Z 22018KT 9999 SCT028 FEW030CB 16/10 Q1010",
      "taf": "TAF LPPT 100500Z 1006/1112 21010KT 9999 SCT020"
    },
    {
      "icao": "LQBK",
      "alert": "OK",
      "vis_m": 9999,
      "fzfg": false,
      "metar_trigger": false,
      "taf_trigger": false,
      "metar": "METAR LQBK 100930Z VRB03KT CAVOK 21/10 Q1015 NOSIG",
      "taf": "TAF LQBK 100500Z 1006/1106 16005KT CAVOK TX25/1013Z TN12/1104Z"
    },
    {
      "icao": "LQSA",
      "alert": "OK",
      "vis_m": 9999,
      "fzfg": false,
      "metar_trigger": false,
      "taf_trigger": false,
      "metar": "METAR LQSA 100930Z VRB02KT 9999 FEW050 18/11 Q1016 NOSIG",
      "taf": "TAF LQSA 100500Z 1006/1106 VRB02KT 3000 BR BKN004 TX23/1013Z TN09/1104Z"
    },
    {
      "icao": "LQTZ",
      "alert": "OK",
      "vis_m": 9999,
      "fzfg": false,
      "metar_trigger": false,
      "taf_trigger": false,
      "metar": "METAR LQTZ 100930Z VRB02KT CAVOK 22/13 Q1015",
      "taf": "TAF LQTZ 100500Z 1006/1106 10005KT CAVOK TX25/1013Z TN10/1104Z"
    },
    {
      "icao": "LRBC",
      "alert": "OK",
      "vis_m": 9999,
      "fzfg": false,
      "metar_trigger": false,
      "taf_trigger": false,
      "metar": "METAR LRBC 100930Z 35010KT 320V020 9999 FEW010 BKN018 16/13 Q1016",
      "taf": "TAF LRBC 100800Z 1009/1018 34010KT 9999 BKN010 BKN040"
    },
    {
      "icao": "LRBS",
      "alert": "OK",
      "vis_m": 9999,
      "fzfg": false,
      "metar_trigger": false,
      "taf_trigger": false,
      "metar": "METAR LRBS 100930Z VRB01KT 9999 BKN025 BKN045 18/14 Q1016 NOSIG",
      "taf": "TAF LRBS 100500Z 1006/1106 24005KT 5000 RA BR BKN035"
    },
    {
      "icao": "LRBV",
      "alert": "OK",
      "vis_m": 9999,
      "fzfg": false,
      "metar_trigger": false,
      "taf_trigger": false,
      "metar": "METAR LRBV 100930Z 30006KT 250V350 9999 FEW026 SCT069 17/11 Q1016",
      "taf": "TAF LRBV 100800Z 1009/1018 30009KT 9999 SCT045"
    },
    {
      "icao": "LRCL",
      "alert": "OK",
      "vis_m": 9999,
      "fzfg": false,
      "metar_trigger": false,
      "taf_trigger": false,
      "metar": "METAR LRCL 100930Z 10009KT 070V140 9999 VCTS FEW036CB 19/14 Q1015",
      "taf": "TAF LRCL 100800Z 1009/1018 VRB04KT 9999 SCT045"
    },
    {
      "icao": "LRCV",
      "alert": "OK",
      "vis_m": 9999,
      "fzfg": false,
      "metar_trigger": false,
      "taf_trigger": false,
      "metar": "METAR LRCV 100930Z VRB03KT 9999 FEW010 19/15 Q1016",
      "taf": "TAF LRCV 100800Z 1009/1018 VRB04KT 9999 BKN005"
    },
    {
      "icao": "LRIA",
      "alert": "OK",
      "vis_m": 9999,
      "fzfg": false,
      "metar_trigger": false,
      "taf_trigger": false,
      "metar": "METAR LRIA 100930Z 30010KT 9999 BKN007 14/13 Q1015",
      "taf": "TAF LRIA 100800Z 1009/1018 30010KT 9999 OVC010"
    },
    {
      "icao": "LROP",
      "alert": "OK",
      "vis_m": 9999,
      "fzfg": false,
      "metar_trigger": false,
      "taf_trigger": false,
      "metar": "METAR LROP 100930Z 23003KT 160V270 9999 FEW017TCU BKN020 19/16 Q1016 NOSIG",
      "taf": "TAF LROP 100500Z 1006/1106 24005KT 3000 RA BR BKN035"
    },
    {
      "icao": "LRSB",
      "alert": "OK",
      "vis_m": 9999,
      "fzfg": false,
      "metar_trigger": false,
      "taf_trigger": false,
      "metar": "METAR LRSB 100930Z VRB03KT 9999 FEW045 20/10 Q1016 NOSIG",
      "taf": "TAF LRSB 100500Z 1006/1106 VRB04KT CAVOK"
    },
    {
      "icao": "LRSM",
      "alert": "OK",
      "vis_m": 9999,
      "fzfg": false,
      "metar_trigger": false,
      "taf_trigger": false,
      "metar": "METAR LRSM 100930Z AUTO VRB04KT 9999 FEW180/// 19/10 Q1015",
      "taf": ""
    },
    {
      "icao": "LRSV",
      "alert": "OK",
      "vis_m": 9999,
      "fzfg": false,
      "metar_trigger": false,
      "taf_trigger": false,
      "metar": "METAR LRSV 100930Z 33010KT 300V360 9999 SCT016 BKN038 14/09 Q1016",
      "taf": "TAF LRSV 100800Z 1009/1018 33010KT 9999 BKN010 BKN035"
    },
    {
      "icao": "LRTM",
      "alert": "OK",
      "vis_m": 9999,
      "fzfg": false,
      "metar_trigger": false,
      "taf_trigger": false,
      "metar": "METAR LRTM 100930Z 14004KT 080V250 9999 FEW010 SCT012 16/13 Q1016",
      "taf": "TAF LRTM 100800Z 1009/1018 26005KT 9999 BKN005"
    },
    {
      "icao": "LRTR",
      "alert": "OK",
      "vis_m": 9999,
      "fzfg": false,
      "metar_trigger": false,
      "taf_trigger": false,
      "metar": "METAR LRTR 100930Z 29004KT 210V010 9999 FEW035 23/12 Q1015 NOSIG",
      "taf": "TAF LRTR 100500Z 1006/1106 10007KT CAVOK"
    },
    {
      "icao": "LTAC",
      "alert": "OK",
      "vis_m": 9999,
      "fzfg": false,
      "metar_trigger": false,
      "taf_trigger": false,
      "metar": "METAR LTAC 100950Z 26008KT 200V280 9999 SCT040 SCT100 20/07 Q1018 NOSIG",
      "taf": "TAF LTAC 100440Z 1006/1106 VRB02KT 9999 SCT040 SCT100"
    },
    {
      "icao": "LTFM",
      "alert": "OK",
      "vis_m": 9999,
      "fzfg": false,
      "metar_trigger": false,
      "taf_trigger": false,
      "metar": "METAR LTFM 100950Z 03009KT 350V050 9999 FEW040 SCT090 20/12 Q1016 NOSIG",
      "taf": "TAF LTFM 100440Z 1006/1112 33008KT 9999 FEW040 BKN090"
    },
    {
      "icao": "LUKK",
      "alert": "OK",
      "vis_m": 9999,
      "fzfg": false,
      "metar_trigger": false,
      "taf_trigger": false,
      "metar": "METAR LUKK 100930Z 21007KT 180V240 9999 -RA FEW007 BKN011 BKN017 15/14 Q1014 NOSIG",
      "taf": "TAF LUKK 100501Z 1006/1106 VRB06KT 9999 SCT040"
    },
    {
      "icao": "LWOH",
      "alert": "OK",
      "vis_m": 9999,
      "fzfg": false,
      "metar_trigger": false,
      "taf_trigger": false,
      "metar": "METAR LWOH 100950Z 15007KT 9999 FEW015 SCT035 BKN080 15/12 Q1019",
      "taf": "TAF LWOH 100835Z 1009/1109 16006KT 9999 SCT020 BKN040"
    },
    {
      "icao": "LWSK",
      "alert": "OK",
      "vis_m": 9999,
      "fzfg": false,
      "metar_trigger": false,
      "taf_trigger": false,
      "metar": "METAR LWSK 100950Z VRB02KT 9999 FEW050 22/12 Q1016 NOSIG",
      "taf": "TAF LWSK 100835Z 1009/1109 VRB02KT 9999 FEW050 SCT100"
    },
    {
      "icao": "LYBE",
      "alert": "OK",
      "vis_m": 9999,
      "fzfg": false,
      "metar_trigger": false,
      "taf_trigger": false,
      "metar": "METAR LYBE 100930Z 19006KT 160V220 9999 FEW030 23/12 Q1015 NOSIG",
      "taf": "TAF LYBE 100500Z 1006/1106 16005KT 9999 SCT040 TX26/1014Z TN14/1103Z"
    },
    {
      "icao": "LYNI",
      "alert": "OK",
      "vis_m": 9999,
      "fzfg": false,
      "metar_trigger": false,
      "taf_trigger": false,
      "metar": "METAR LYNI 100930Z VRB02KT 9999 FEW033 21/13 Q1016 NOSIG",
      "taf": "TAF LYNI 100500Z 1006/1106 15004KT 1500 BR BKN006 TX24/1013Z TN11/1103Z"
    },
    {
      "icao": "LYPG",
      "alert": "OK",
      "vis_m": 9999,
      "fzfg": false,
      "metar_trigger": false,
      "taf_trigger": false,
      "metar": "METAR LYPG 100930Z 14005KT 090V190 9999 FEW026 21/13 Q1016 NOSIG",
      "taf": "TAF LYPG 100500Z 1006/1106 18008KT 9999 FEW050 BKN090 TX23/1014Z TN15/1104Z"
    },
    {
      "icao": "LZIB",
      "alert": "OK",
      "vis_m": 9999,
      "fzfg": false,
      "metar_trigger": false,
      "taf_trigger": false,
      "metar": "METAR LZIB 100930Z VRB04KT CAVOK 19/07 Q1015 NOSIG",
      "taf": "TAF LZIB 100515Z 1006/1106 VRB02KT CAVOK"
    },
    {
      "icao": "LZKZ",
      "alert": "OK",
      "vis_m": 9999,
      "fzfg": false,
      "metar_trigger": false,
      "taf_trigger": false,
      "metar": "METAR LZKZ 100930Z 04009KT 360V060 CAVOK 17/05 Q1016 NOSIG",
      "taf": "TAF LZKZ 100515Z 1006/1106 02012KT CAVOK"
    },
    {
      "icao": "LZTT",
      "alert": "OK",
      "vis_m": 9999,
      "fzfg": false,
      "metar_trigger": false,
      "taf_trigger": false,
      "metar": "METAR LZTT 100930Z VRB03KT 9999 FEW043 14/05 Q1016 NOSIG",
      "taf": ""
    },
    {
      "icao": "OEJN",
      "alert": "OK",
      "vis_m": 9999,
      "fzfg": false,
      "metar_trigger": false,
      "taf_trigger": false,
      "metar": "METAR OEJN 100900Z 27007KT 9999 FEW040 33/22 Q1009 NOSIG",
      "taf": "TAF OEJN 100500Z 1006/1112 24012KT CAVOK"
    },
    {
      "icao": "OEMA",
      "alert": "OK",
      "vis_m": 9999,
      "fzfg": false,
      "metar_trigger": false,
      "taf_trigger": false,
      "metar": "METAR OEMA 100900Z 23005KT CAVOK 39/M01 Q1014 NOSIG",
      "taf": "TAF OEMA 100500Z 1006/1112 22012KT 7000 FEW040"
    },
    {
      "icao": "OJAI",
      "alert": "OK",
      "vis_m": 5000,
      "fzfg": false,
      "metar_trigger": false,
      "taf_trigger": false,
      "metar": "METAR OJAI 100900Z 24010KT 5000 HZ NSC 30/06 Q1016 NOSIG",
      "taf": "TAF OJAI 100500Z 1006/1112 29010KT 6000 NSC"
    },
    {
      "icao": "OMAA",
      "alert": "OK",
      "vis_m": 9999,
      "fzfg": false,
      "metar_trigger": false,
      "taf_trigger": false,
      "metar": "METAR OMAA 100930Z 29014KT CAVOK 36/14 Q1008 NOSIG",
      "taf": "TAF OMAA 100500Z 1006/1112 30014KT 8000 NSC"
    },
    {
      "icao": "OMDB",
      "alert": "OK",
      "vis_m": 9999,
      "fzfg": false,
      "metar_trigger": false,
      "taf_trigger": false,
      "metar": "METAR OMDB 100930Z 28012KT CAVOK 35/19 Q1007 NOSIG",
      "taf": "TAF OMDB 100500Z 1006/1112 21007KT CAVOK"
    },
    {
      "icao": "UAAA",
      "alert": "OK",
      "vis_m": 3200,
      "fzfg": false,
      "metar_trigger": false,
      "taf_trigger": false,
      "metar": "METAR UAAA 100930Z 01003MPS 340V040 3200 -SHRA BR SCT010 BKN026CB OVC100 16/15 Q1014 NOSIG",
      "taf": "TAF UAAA 100501Z 1006/1106 23003G08MPS 9999 BKN050CB OVC100 TX22/1006Z TN12/1100Z"
    },
    {
      "icao": "UBBB",
      "alert": "OK",
      "vis_m": 9999,
      "fzfg": false,
      "metar_trigger": false,
      "taf_trigger": false,
      "metar": "METAR UBBB 100930Z 15010KT 130V190 CAVOK 27/11 Q1016 NOSIG",
      "taf": "TAF UBBB 100500Z 1006/1106 VRB04KT CAVOK TX26/1010Z TN14/1101Z"
    },
    {
      "icao": "UDSG",
      "alert": "OK",
      "vis_m": 9999,
      "fzfg": false,
      "metar_trigger": false,
      "taf_trigger": false,
      "metar": "METAR UDSG 100930Z 17004KT 100V210 9999 SCT049CB 19/04 Q1021 NOSIG",
      "taf": "TAF UDSG 100458Z 1006/1106 23006KT 9999 SCT050"
    },
    {
      "icao": "UDYZ",
      "alert": "OK",
      "vis_m": 9999,
      "fzfg": false,
      "metar_trigger": false,
      "taf_trigger": false,
      "metar": "METAR UDYZ 100930Z VRB02KT 9999 FEW046 25/03 Q1018 NOSIG",
      "taf": "TAF UDYZ 100500Z 1006/1106 20006KT 9999 FEW040"
    },
    {
      "icao": "UGKO",
      "alert": "OK",
      "vis_m": 9999,
      "fzfg": false,
      "metar_trigger": false,
      "taf_trigger": false,
      "metar": "METAR UGKO 100930Z 14010KT 110V190 CAVOK 28/11 Q1012 NOSIG",
      "taf": "TAF UGKO 100500Z 1006/1106 09010KT CAVOK TX29/1011Z TN13/1102Z"
    }
  ]
}