{
  "ts_utc": "2026-06-10T11:57:13Z",
  "threshold_m": 150,
  "source": "stations_override.txt (ICAO list) + aviationweather.gov (METAR/TAF raw)",
  "station_count": 159,
  "stations": [
    {
      "icao": "BIKF",
      "alert": "OK",
      "vis_m": 9999,
      "fzfg": false,
      "metar_trigger": false,
      "taf_trigger": false,
      "metar": "METAR BIKF 101130Z VRB01KT 9999 VCSH FEW025TCU SCT032 BKN200 11/05 Q1005",
      "taf": "TAF BIKF 101010Z 1012/1112 07008KT 9999 FEW020 BKN040 TX13/1112Z TN05/1104Z"
    },
    {
      "icao": "BKPR",
      "alert": "OK",
      "vis_m": null,
      "fzfg": false,
      "metar_trigger": false,
      "taf_trigger": false,
      "metar": "",
      "taf": "TAF BKPR 101130Z 1012/1112 20008KT 9999 SCT050"
    },
    {
      "icao": "EBCI",
      "alert": "OK",
      "vis_m": 9999,
      "fzfg": false,
      "metar_trigger": false,
      "taf_trigger": false,
      "metar": "METAR EBCI 101150Z 28004KT 170V340 9999 VCSH SCT024TCU 14/07 Q1018 TEMPO 26015G25KT 3500 SHRA SCT020CB",
      "taf": "TAF EBCI 101100Z 1012/1118 26008KT 9999 SCT035"
    },
    {
      "icao": "EDDB",
      "alert": "OK",
      "vis_m": 9999,
      "fzfg": false,
      "metar_trigger": false,
      "taf_trigger": false,
      "metar": "METAR EDDB 101150Z AUTO VRB01KT CAVOK 17/11 Q1015 RESHRA NOSIG",
      "taf": ""
    },
    {
      "icao": "EDDH",
      "alert": "OK",
      "vis_m": 9999,
      "fzfg": false,
      "metar_trigger": false,
      "taf_trigger": false,
      "metar": "METAR EDDH 101150Z AUTO 24009KT 210V280 9999 -SHRA FEW049 FEW///TCU 18/07 Q1014 RESHRA TEMPO SHRA BKN040CB",
      "taf": "TAF EDDH 101100Z 1012/1118 23012KT 9999 SCT040"
    },
    {
      "icao": "EDDK",
      "alert": "OK",
      "vis_m": 9999,
      "fzfg": false,
      "metar_trigger": false,
      "taf_trigger": false,
      "metar": "METAR EDDK 101150Z AUTO 24008KT 210V290 CAVOK 18/05 Q1017 NOSIG",
      "taf": "TAF EDDK 101100Z 1012/1118 26009KT 9999 SCT045"
    },
    {
      "icao": "EDDN",
      "alert": "OK",
      "vis_m": 9999,
      "fzfg": false,
      "metar_trigger": false,
      "taf_trigger": false,
      "metar": "METAR EDDN 101150Z AUTO 24007KT 170V280 9999 FEW041 16/06 Q1017 TEMPO SHRA BKN040TCU",
      "taf": "TAF EDDN 101100Z 1012/1112 21005KT 9999 FEW040"
    },
    {
      "icao": "EDDS",
      "alert": "OK",
      "vis_m": 9999,
      "fzfg": false,
      "metar_trigger": false,
      "taf_trigger": false,
      "metar": "METAR EDDS 101150Z AUTO VRB02KT CAVOK 17/06 Q1016 NOSIG",
      "taf": "TAF EDDS 101100Z 1012/1112 25005KT 9999 FEW045"
    },
    {
      "icao": "EDFH",
      "alert": "OK",
      "vis_m": 9999,
      "fzfg": false,
      "metar_trigger": false,
      "taf_trigger": false,
      "metar": "METAR EDFH 101150Z 25005KT 210V300 9999 FEW007 13/08 Q1018",
      "taf": "TAF EDFH 101100Z 1012/1112 26007KT 9999 FEW030"
    },
    {
      "icao": "EDJA",
      "alert": "OK",
      "vis_m": 9999,
      "fzfg": false,
      "metar_trigger": false,
      "taf_trigger": false,
      "metar": "METAR EDJA 101150Z 11006KT 070V160 9999 FEW056 13/08 Q1018",
      "taf": "TAF EDJA 101100Z 1012/1021 09005KT 9999 SCT020 BKN040"
    },
    {
      "icao": "EDLW",
      "alert": "OK",
      "vis_m": 9999,
      "fzfg": false,
      "metar_trigger": false,
      "taf_trigger": false,
      "metar": "METAR EDLW 101150Z COR 21010KT 170V250 9999 FEW047 17/06 Q1015",
      "taf": "TAF EDLW 101100Z 1012/1112 24010KT 9999 SCT045"
    },
    {
      "icao": "EDNY",
      "alert": "OK",
      "vis_m": 9999,
      "fzfg": false,
      "metar_trigger": false,
      "taf_trigger": false,
      "metar": "METAR EDNY 101150Z 08003KT 360V120 9999 FEW019 BKN052 OVC060 14/11 Q1017",
      "taf": "TAF EDNY 101100Z 1012/1021 VRB03KT 9999 SCT015 BKN040"
    },
    {
      "icao": "EDSB",
      "alert": "OK",
      "vis_m": 9999,
      "fzfg": false,
      "metar_trigger": false,
      "taf_trigger": false,
      "metar": "METAR EDSB 101150Z 25007KT 210V280 CAVOK 18/06 Q1017",
      "taf": "TAF EDSB 101100Z 1012/1112 23006KT 9999 FEW045"
    },
    {
      "icao": "EETN",
      "alert": "OK",
      "vis_m": 9999,
      "fzfg": false,
      "metar_trigger": false,
      "taf_trigger": false,
      "metar": "METAR EETN 101150Z 26015KT 9999 FEW042 19/07 Q1014 TEMPO 27017G27KT",
      "taf": "TAF EETN 101130Z 1012/1112 26014KT CAVOK"
    },
    {
      "icao": "EFTU",
      "alert": "OK",
      "vis_m": 9999,
      "fzfg": false,
      "metar_trigger": false,
      "taf_trigger": false,
      "metar": "METAR EFTU 101150Z AUTO 22012KT 180V250 9999 BKN028 15/08 Q1011",
      "taf": "TAF EFTU 101125Z 1012/1112 23015KT 9999 BKN030"
    },
    {
      "icao": "EGBB",
      "alert": "OK",
      "vis_m": 9999,
      "fzfg": false,
      "metar_trigger": false,
      "taf_trigger": false,
      "metar": "METAR EGBB 101150Z 28005KT 220V350 9999 VCSH SCT049CB 14/07 Q1015",
      "taf": "TAF EGBB 101058Z 1012/1112 24007KT 9999 FEW020 SCT030"
    },
    {
      "icao": "EGGP",
      "alert": "OK",
      "vis_m": 9999,
      "fzfg": false,
      "metar_trigger": false,
      "taf_trigger": false,
      "metar": "METAR EGGP 101150Z 29009KT 240V320 9999 -SHRA SCT032 BKN046CB 12/08 Q1015",
      "taf": "TAF EGGP 101056Z 1012/1112 29012KT 9999 SCT040"
    },
    {
      "icao": "EGGW",
      "alert": "OK",
      "vis_m": 9999,
      "fzfg": false,
      "metar_trigger": false,
      "taf_trigger": false,
      "metar": "METAR EGGW 101150Z 23004KT 140V280 9999 -RA FEW022CB 10/08 Q1016",
      "taf": "TAF EGGW 101058Z 1012/1112 28012KT 9999 SCT030"
    },
    {
      "icao": "EGKK",
      "alert": "OK",
      "vis_m": 9999,
      "fzfg": false,
      "metar_trigger": false,
      "taf_trigger": false,
      "metar": "METAR EGKK 101150Z 27013KT 9999 SCT042 17/07 Q1016",
      "taf": "TAF EGKK 101054Z 1012/1118 28010KT 9999 SCT040"
    },
    {
      "icao": "EGNM",
      "alert": "OK",
      "vis_m": 9999,
      "fzfg": false,
      "metar_trigger": false,
      "taf_trigger": false,
      "metar": "METAR EGNM 101150Z 30016KT 9999 VCSH SCT018CB SCT031 11/06 Q1014",
      "taf": "TAF EGNM 101057Z 1012/1112 27009KT 9999 SCT030"
    },
    {
      "icao": "EGPD",
      "alert": "OK",
      "vis_m": 9999,
      "fzfg": false,
      "metar_trigger": false,
      "taf_trigger": false,
      "metar": "METAR EGPD 101150Z COR 16013KT 9999 VCSH BKN044CB 14/07 Q1009 TEMPO SHRA",
      "taf": "TAF EGPD 101057Z 1012/1112 26009KT 9999 SCT045"
    },
    {
      "icao": "EGPF",
      "alert": "OK",
      "vis_m": 9999,
      "fzfg": false,
      "metar_trigger": false,
      "taf_trigger": false,
      "metar": "METAR EGPF 101150Z AUTO 25011KT 220V280 9999 SCT028/// BKN036/// BKN045/// //////TCU 13/07 Q1012",
      "taf": "TAF EGPF 101056Z 1012/1112 24009KT 9999 FEW018 SCT030"
    },
    {
      "icao": "EHBK",
      "alert": "OK",
      "vis_m": 9999,
      "fzfg": false,
      "metar_trigger": false,
      "taf_trigger": false,
      "metar": "METAR EHBK 101125Z AUTO 21008KT 180V240 9999 TS FEW017CB SCT043 BKN049 14/09 Q1017 TEMPO 6000 SHRA FEW020CB",
      "taf": "TAF EHBK 101119Z 1012/1118 25010KT 9999 BKN035"
    },
    {
      "icao": "EHEH",
      "alert": "OK",
      "vis_m": 9999,
      "fzfg": false,
      "metar_trigger": false,
      "taf_trigger": false,
      "metar": "METAR EHEH 101125Z AUTO 21007KT 170V250 9999 -SHRA FEW002 FEW015CB SCT044 BKN050 12/09 Q1016 RERA REDZ BLU TEMPO 25010G25KT 4000 SHRA SCT020CB BKN030",
      "taf": "TAF EHEH 100512Z 1006/1112 21007KT 9999 CAVOK"
    },
    {
      "icao": "EKBI",
      "alert": "OK",
      "vis_m": 9999,
      "fzfg": false,
      "metar_trigger": false,
      "taf_trigger": false,
      "metar": "METAR EKBI 101150Z AUTO 23015KT 200V260 9999 FEW027/// SCT053/// SCT060/// 15/09 Q1012",
      "taf": "TAF EKBI 101127Z 1012/1112 23010KT 9999 SCT030"
    },
    {
      "icao": "EKCH",
      "alert": "OK",
      "vis_m": 9999,
      "fzfg": false,
      "metar_trigger": false,
      "taf_trigger": false,
      "metar": "METAR EKCH 101150Z AUTO 21011KT 180V250 9999 FEW044/// 17/07 Q1014 NOSIG",
      "taf": "TAF EKCH 101127Z 1012/1112 22012KT 9999 SCT030"
    },
    {
      "icao": "ENAL",
      "alert": "OK",
      "vis_m": 9999,
      "fzfg": false,
      "metar_trigger": false,
      "taf_trigger": false,
      "metar": "METAR ENAL 101150Z 24017KT 9999 SCT035 BKN044 12/07 Q1002",
      "taf": "TAF ENAL 101100Z 1012/1021 24018KT 9999 -SHRA FEW015 BKN030"
    },
    {
      "icao": "ENBR",
      "alert": "OK",
      "vis_m": 9999,
      "fzfg": false,
      "metar_trigger": false,
      "taf_trigger": false,
      "metar": "METAR ENBR 101150Z 19009KT 9999 SCT012 SCT017CB BKN020 11/09 Q1006 BECMG 24008KT TEMPO SHRA BKN008 SCT012CB RMK WIND 1200FT 23011KT",
      "taf": "TAF ENBR 101100Z 1012/1112 18010KT 9999 SCT018 BKN035"
    },
    {
      "icao": "ENGM",
      "alert": "OK",
      "vis_m": 9999,
      "fzfg": false,
      "metar_trigger": false,
      "taf_trigger": false,
      "metar": "METAR ENGM 101150Z 21013KT 180V240 9999 VCSH FEW045CB SCT047 16/05 Q1004 TEMPO SHRA",
      "taf": "TAF ENGM 101100Z 1012/1112 22010KT 9999 SCT045"
    },
    {
      "icao": "ENHD",
      "alert": "OK",
      "vis_m": 9999,
      "fzfg": false,
      "metar_trigger": false,
      "taf_trigger": false,
      "metar": "METAR ENHD 101150Z 25011KT 9999 FEW014CB 14/08 Q1007",
      "taf": "TAF ENHD 101100Z 1012/1021 26012KT 9999 FEW015TCU SCT025"
    },
    {
      "icao": "ENTC",
      "alert": "OK",
      "vis_m": 9999,
      "fzfg": false,
      "metar_trigger": false,
      "taf_trigger": false,
      "metar": "METAR ENTC 101150Z 03011KT CAVOK 22/10 Q1005 NOSIG RMK WIND 2600FT 09005KT",
      "taf": "TAF ENTC 101100Z 1012/1112 03009KT CAVOK"
    },
    {
      "icao": "ENTO",
      "alert": "OK",
      "vis_m": 9999,
      "fzfg": false,
      "metar_trigger": false,
      "taf_trigger": false,
      "metar": "METAR ENTO 101150Z 20017KT 9999 VCSH SCT026TCU 15/09 Q1007 NOSIG",
      "taf": "TAF ENTO 101100Z 1012/1112 21012KT 9999 FEW030"
    },
    {
      "icao": "ENVA",
      "alert": "OK",
      "vis_m": 9999,
      "fzfg": false,
      "metar_trigger": false,
      "taf_trigger": false,
      "metar": "METAR ENVA 101150Z 29008KT 9999 -RA SCT017 BKN035 BKN053 11/09 Q1002 TEMPO 4000 SHRA BKN012 SCT020CB RMK WIND 670FT 29010KT",
      "taf": "TAF ENVA 101100Z 1012/1112 27012KT 9999 BKN020"
    },
    {
      "icao": "ENZV",
      "alert": "OK",
      "vis_m": 9999,
      "fzfg": false,
      "metar_trigger": false,
      "taf_trigger": false,
      "metar": "METAR ENZV 101150Z 26009KT 9999 FEW017 12/09 Q1007 TEMPO SHRA FEW009 BKN014CB",
      "taf": "TAF ENZV 101100Z 1012/1112 18007KT 9999 FEW018 SCT030"
    },
    {
      "icao": "EPGD",
      "alert": "OK",
      "vis_m": 9999,
      "fzfg": false,
      "metar_trigger": false,
      "taf_trigger": false,
      "metar": "METAR EPGD 101130Z 22007KT 160V330 9999 SCT046 19/07 Q1017",
      "taf": "TAF EPGD 101130Z 1012/1112 22010KT 9999 SCT045"
    },
    {
      "icao": "EPKK",
      "alert": "OK",
      "vis_m": 9000,
      "fzfg": false,
      "metar_trigger": false,
      "taf_trigger": false,
      "metar": "METAR EPKK 101130Z 06008KT 030V090 9000 -SHRA SCT014CB BKN045 15/14 Q1016",
      "taf": "TAF EPKK 101130Z 1012/1112 06010KT 9999 BKN020"
    },
    {
      "icao": "EPKT",
      "alert": "OK",
      "vis_m": 9000,
      "fzfg": false,
      "metar_trigger": false,
      "taf_trigger": false,
      "metar": "METAR EPKT 101130Z 05003KT 020V090 9000 -RA FEW015 SCT026 BKN049 15/13 Q1017",
      "taf": "TAF EPKT 101130Z 1012/1112 03004KT 9999 BKN020"
    },
    {
      "icao": "EPLB",
      "alert": "OK",
      "vis_m": 9999,
      "fzfg": false,
      "metar_trigger": false,
      "taf_trigger": false,
      "metar": "METAR EPLB 101130Z 36005KT 330V030 9999 FEW022 19/14 Q1017",
      "taf": "TAF EPLB 101130Z 1012/1112 01006KT 9999 FEW025"
    },
    {
      "icao": "EPMO",
      "alert": "OK",
      "vis_m": 9999,
      "fzfg": false,
      "metar_trigger": false,
      "taf_trigger": false,
      "metar": "METAR EPMO 101130Z VRB02KT 9999 FEW030 19/10 Q1018",
      "taf": "TAF EPMO 101130Z 1012/1112 VRB03KT 9999 FEW030"
    },
    {
      "icao": "EPPO",
      "alert": "OK",
      "vis_m": 9999,
      "fzfg": false,
      "metar_trigger": false,
      "taf_trigger": false,
      "metar": "METAR EPPO 101130Z 18006KT 110V200 CAVOK 19/06 Q1017",
      "taf": "TAF EPPO 101130Z 1012/1112 13006KT CAVOK"
    },
    {
      "icao": "EPRA",
      "alert": "OK",
      "vis_m": 9999,
      "fzfg": false,
      "metar_trigger": false,
      "taf_trigger": false,
      "metar": "METAR EPRA 101130Z 36007KT CAVOK 17/09 Q1018",
      "taf": "TAF EPRA 101130Z 1012/1021 36006KT CAVOK"
    },
    {
      "icao": "EPRZ",
      "alert": "OK",
      "vis_m": 9999,
      "fzfg": false,
      "metar_trigger": false,
      "taf_trigger": false,
      "metar": "METAR EPRZ 101130Z 36009KT 9999 SCT030 20/14 Q1016",
      "taf": "TAF EPRZ 101130Z 1012/1112 02010KT 9999 BKN040"
    },
    {
      "icao": "EPSC",
      "alert": "OK",
      "vis_m": 9999,
      "fzfg": false,
      "metar_trigger": false,
      "taf_trigger": false,
      "metar": "METAR EPSC 101130Z 16009KT 9999 FEW034 SCT050CB 18/08 Q1016",
      "taf": "TAF EPSC 101130Z 1012/1112 20007KT CAVOK"
    },
    {
      "icao": "EPSY",
      "alert": "OK",
      "vis_m": 9999,
      "fzfg": false,
      "metar_trigger": false,
      "taf_trigger": false,
      "metar": "METAR EPSY 101130Z VRB04KT CAVOK 18/06 Q1018",
      "taf": "TAF EPSY 101130Z 1012/1021 VRB02KT CAVOK"
    },
    {
      "icao": "EPWA",
      "alert": "OK",
      "vis_m": 9999,
      "fzfg": false,
      "metar_trigger": false,
      "taf_trigger": false,
      "metar": "METAR EPWA 101130Z 30004KT 250V350 9999 SCT036 19/10 Q1018 NOSIG",
      "taf": "TAF EPWA 101130Z 1012/1112 VRB03KT 9999 FEW035"
    },
    {
      "icao": "EPWR",
      "alert": "OK",
      "vis_m": 9999,
      "fzfg": false,
      "metar_trigger": false,
      "taf_trigger": false,
      "metar": "METAR EPWR 101130Z 17005KT 140V200 9999 -RA NSC 15/13 Q1018",
      "taf": "TAF EPWR 101130Z 1012/1112 15008KT 9999 BKN040"
    },
    {
      "icao": "ESGG",
      "alert": "OK",
      "vis_m": 9999,
      "fzfg": false,
      "metar_trigger": false,
      "taf_trigger": false,
      "metar": "METAR ESGG 101150Z 21017KT 9999 FEW031CB SCT046 BKN062 14/06 Q1010",
      "taf": "TAF ESGG 101130Z 1012/1112 23015KT 9999 BKN035"
    },
    {
      "icao": "ESKN",
      "alert": "OK",
      "vis_m": 9999,
      "fzfg": false,
      "metar_trigger": false,
      "taf_trigger": false,
      "metar": "METAR ESKN 101150Z 22016KT 180V250 9999 VCSH FEW047 FEW050TCU SCT065 18/06 Q1010",
      "taf": "TAF ESKN 101130Z 1012/1112 22013KT 9999 SCT040"
    },
    {
      "icao": "ESMS",
      "alert": "OK",
      "vis_m": 9999,
      "fzfg": false,
      "metar_trigger": false,
      "taf_trigger": false,
      "metar": "METAR ESMS 101150Z 22015KT 190V250 9999 SCT033 17/09 Q1014",
      "taf": "TAF ESMS 101127Z 1012/1112 22012KT 9999 SCT030"
    },
    {
      "icao": "ESSA",
      "alert": "OK",
      "vis_m": 9999,
      "fzfg": false,
      "metar_trigger": false,
      "taf_trigger": false,
      "metar": "METAR ESSA 101150Z 22017KT CAVOK 16/05 Q1009 NOSIG",
      "taf": "TAF ESSA 101130Z 1012/1112 23015KT 9999 SCT040"
    },
    {
      "icao": "EYKA",
      "alert": "OK",
      "vis_m": 9999,
      "fzfg": false,
      "metar_trigger": false,
      "taf_trigger": false,
      "metar": "METAR EYKA 101150Z 01004KT 280V060 9999 SCT045 19/09 Q1018",
      "taf": "TAF EYKA 101100Z 1012/1112 VRB03KT 9000 SCT040"
    },
    {
      "icao": "EYPA",
      "alert": "OK",
      "vis_m": 9999,
      "fzfg": false,
      "metar_trigger": false,
      "taf_trigger": false,
      "metar": "METAR EYPA 101150Z 25005KT 210V310 CAVOK 17/10 Q1018",
      "taf": "TAF EYPA 101100Z 1012/1112 VRB03KT 9000 NSC"
    },
    {
      "icao": "EYVI",
      "alert": "OK",
      "vis_m": 9999,
      "fzfg": false,
      "metar_trigger": false,
      "taf_trigger": false,
      "metar": "METAR EYVI 101150Z 35007KT 260V040 9999 SCT040 20/09 Q1017 NOSIG",
      "taf": "TAF EYVI 101100Z 1012/1112 VRB03KT 9000 SCT030"
    },
    {
      "icao": "GCFV",
      "alert": "OK",
      "vis_m": 9999,
      "fzfg": false,
      "metar_trigger": false,
      "taf_trigger": false,
      "metar": "METAR GCFV 101130Z 05018KT 9999 FEW022 23/16 Q1017",
      "taf": "TAF GCFV 100800Z 1009/1109 03014KT 9999 FEW020 TX24/1014Z TN18/1106Z"
    },
    {
      "icao": "GCLP",
      "alert": "OK",
      "vis_m": 9999,
      "fzfg": false,
      "metar_trigger": false,
      "taf_trigger": false,
      "metar": "METAR GCLP 101130Z 01026KT 9999 SCT020 24/15 Q1017 NOSIG",
      "taf": "TAF GCLP 100800Z 1009/1109 01023KT 9999 FEW020 TX24/1014Z TN18/1106Z"
    },
    {
      "icao": "GCTS",
      "alert": "OK",
      "vis_m": 9999,
      "fzfg": false,
      "metar_trigger": false,
      "taf_trigger": false,
      "metar": "METAR GCTS 101130Z 08019KT 050V110 9999 FEW020 25/15 Q1017 NOSIG",
      "taf": "TAF GCTS 100800Z 1009/1109 08020KT 9999 FEW025 TX26/1014Z TN18/1106Z"
    },
    {
      "icao": "GMAD",
      "alert": "OK",
      "vis_m": 8000,
      "fzfg": false,
      "metar_trigger": false,
      "taf_trigger": false,
      "metar": "METAR GMAD 101130Z 26004KT 8000 BKN016 23/16 Q1014 NOSIG",
      "taf": "TAF GMAD 101100Z 1012/1118 28012KT 8000 SCT016"
    },
    {
      "icao": "GMMN",
      "alert": "OK",
      "vis_m": 9999,
      "fzfg": false,
      "metar_trigger": false,
      "taf_trigger": false,
      "metar": "METAR GMMN 101130Z 31008KT 270V350 CAVOK 27/18 Q1015 NOSIG",
      "taf": "TAF GMMN 101100Z 1012/1118 32006KT CAVOK"
    },
    {
      "icao": "GMMX",
      "alert": "OK",
      "vis_m": 8000,
      "fzfg": false,
      "metar_trigger": false,
      "taf_trigger": false,
      "metar": "METAR GMMX 101130Z 30006KT 250V360 8000 NSC 29/17 Q1015 NOSIG",
      "taf": "TAF GMMX 101100Z 1012/1118 06006KT 8000 NSC"
    },
    {
      "icao": "HEGN",
      "alert": "OK",
      "vis_m": 9999,
      "fzfg": false,
      "metar_trigger": false,
      "taf_trigger": false,
      "metar": "METAR HEGN 101100Z 03007KT CAVOK 37/14 Q1008 NOSIG",
      "taf": "TAF HEGN 101100Z 1012/1118 02014KT CAVOK"
    },
    {
      "icao": "HEMA",
      "alert": "OK",
      "vis_m": 9999,
      "fzfg": false,
      "metar_trigger": false,
      "taf_trigger": false,
      "metar": "METAR HEMA 101100Z 01014KT CAVOK 35/15 Q1009 NOSIG",
      "taf": "TAF HEMA 101100Z 1012/1118 36015KT CAVOK"
    },
    {
      "icao": "HESH",
      "alert": "OK",
      "vis_m": 9999,
      "fzfg": false,
      "metar_trigger": false,
      "taf_trigger": false,
      "metar": "METAR HESH 101100Z 02007KT CAVOK 37/14 Q1008 NOSIG",
      "taf": "TAF HESH 101100Z 1012/1118 03012KT CAVOK"
    },
    {
      "icao": "HESX",
      "alert": "OK",
      "vis_m": 9999,
      "fzfg": false,
      "metar_trigger": false,
      "taf_trigger": false,
      "metar": "METAR HESX 101100Z 01006KT CAVOK 33/15 Q1010 NOSIG",
      "taf": "TAF HESX 101100Z 1012/1118 33009KT CAVOK"
    },
    {
      "icao": "LATI",
      "alert": "OK",
      "vis_m": 9999,
      "fzfg": false,
      "metar_trigger": false,
      "taf_trigger": false,
      "metar": "METAR LATI 101150Z 25008KT 210V290 CAVOK 30/19 Q1013 NOSIG",
      "taf": "TAF LATI 101100Z 1012/1112 30010KT CAVOK TX32/1012Z TN18/1104Z"
    },
    {
      "icao": "LBPD",
      "alert": "OK",
      "vis_m": 9999,
      "fzfg": false,
      "metar_trigger": false,
      "taf_trigger": false,
      "metar": "METAR LBPD 101130Z AUTO 07006KT 020V120 9999 NCD 29/16 Q1014 NOSIG",
      "taf": "TAF LBPD 101100Z 1012/1112 11010KT 9999 SCT060"
    },
    {
      "icao": "LBSF",
      "alert": "OK",
      "vis_m": 9999,
      "fzfg": false,
      "metar_trigger": false,
      "taf_trigger": false,
      "metar": "METAR LBSF 101130Z VRB02KT 9999 SCT066 28/12 Q1015 NOSIG",
      "taf": "TAF LBSF 101100Z 1012/1112 11008KT 9999 SCT060"
    },
    {
      "icao": "LBWN",
      "alert": "OK",
      "vis_m": 9999,
      "fzfg": false,
      "metar_trigger": false,
      "taf_trigger": false,
      "metar": "METAR LBWN 101130Z 11010KT 080V150 9999 FEW025 26/17 Q1015 NOSIG",
      "taf": "TAF LBWN 101100Z 1012/1112 14010KT CAVOK"
    },
    {
      "icao": "LCLK",
      "alert": "OK",
      "vis_m": 9999,
      "fzfg": false,
      "metar_trigger": false,
      "taf_trigger": false,
      "metar": "METAR LCLK 101130Z 20014KT 9999 FEW030CB 29/22 Q1009 NOSIG RMK CB TO NW",
      "taf": "TAF LCLK 101130Z 1012/1112 20016KT 9999 FEW015"
    },
    {
      "icao": "LCPH",
      "alert": "OK",
      "vis_m": 9999,
      "fzfg": false,
      "metar_trigger": false,
      "taf_trigger": false,
      "metar": "METAR LCPH 101130Z 27009KT 230V320 9999 FEW017 FEW025CB 27/22 Q1010 NOSIG",
      "taf": "TAF LCPH 101130Z 1012/1112 26010KT 9999 FEW015"
    },
    {
      "icao": "LEAL",
      "alert": "OK",
      "vis_m": 9999,
      "fzfg": false,
      "metar_trigger": false,
      "taf_trigger": false,
      "metar": "METAR LEAL 101130Z 09013KT 9999 FEW025 27/18 Q1018 NOSIG",
      "taf": "TAF LEAL 101100Z 1012/1112 08012KT 9999 FEW020 TX27/1012Z TN20/1105Z"
    },
    {
      "icao": "LEBB",
      "alert": "OK",
      "vis_m": 9999,
      "fzfg": false,
      "metar_trigger": false,
      "taf_trigger": false,
      "metar": "METAR LEBB 101130Z 32010KT 290V350 9999 FEW040 SCT065 20/10 Q1025 NOSIG",
      "taf": "TAF LEBB 101100Z 1012/1112 34009KT 9999 SCT035 TX20/1013Z TN13/1104Z"
    },
    {
      "icao": "LEBL",
      "alert": "OK",
      "vis_m": 9999,
      "fzfg": false,
      "metar_trigger": false,
      "taf_trigger": false,
      "metar": "METAR LEBL 101130Z 15008KT 120V180 9999 FEW020 SCT057 22/16 Q1019 NOSIG",
      "taf": "TAF LEBL 101100Z 1012/1112 13010KT 9999 FEW025 TX24/1012Z TN19/1105Z"
    },
    {
      "icao": "LECH",
      "alert": "OK",
      "vis_m": 9999,
      "fzfg": false,
      "metar_trigger": false,
      "taf_trigger": false,
      "metar": "METAR LECH 101130Z AUTO 12008KT 080V170 9999 BKN036 OVC043 22/14 Q1020",
      "taf": "TAF LECH 101100Z 1012/1112 14009KT 9999 FEW040 TX28/1013Z TN14/1105Z"
    },
    {
      "icao": "LEMD",
      "alert": "OK",
      "vis_m": 9999,
      "fzfg": false,
      "metar_trigger": false,
      "taf_trigger": false,
      "metar": "METAR LEMD 101130Z 31004KT CAVOK 27/06 Q1019 NOSIG",
      "taf": "TAF LEMD 101100Z 1012/1118 03006KT CAVOK TX35/1116Z TN15/1105Z"
    },
    {
      "icao": "LEMG",
      "alert": "OK",
      "vis_m": 9999,
      "fzfg": false,
      "metar_trigger": false,
      "taf_trigger": false,
      "metar": "METAR LEMG 101130Z 14007KT 070V170 9999 SCT030 26/19 Q1017 NOSIG",
      "taf": "TAF LEMG 101100Z 1012/1112 13009KT 9999 SCT025 TX27/1014Z TN19/1107Z"
    },
    {
      "icao": "LEVC",
      "alert": "OK",
      "vis_m": 9999,
      "fzfg": false,
      "metar_trigger": false,
      "taf_trigger": false,
      "metar": "METAR LEVC 101130Z 09011KT 050V120 9999 SCT023 BKN044 24/17 Q1019 NOSIG",
      "taf": "TAF LEVC 101100Z 1012/1112 11010KT 9999 FEW020 TX25/1012Z TN18/1105Z"
    },
    {
      "icao": "LEXJ",
      "alert": "OK",
      "vis_m": 9999,
      "fzfg": false,
      "metar_trigger": false,
      "taf_trigger": false,
      "metar": "METAR LEXJ 101130Z 16005KT 120V200 9999 BKN042 OVC053 15/13 Q1025",
      "taf": ""
    },
    {
      "icao": "LEZG",
      "alert": "OK",
      "vis_m": 9999,
      "fzfg": false,
      "metar_trigger": false,
      "taf_trigger": false,
      "metar": "METAR LEZG 101130Z 31017KT 260V340 CAVOK 22/05 Q1021 NOSIG",
      "taf": "TAF LEZG 101100Z 1012/1112 31018KT CAVOK TX25/1015Z TN13/1105Z"
    },
    {
      "icao": "LEZL",
      "alert": "OK",
      "vis_m": 9999,
      "fzfg": false,
      "metar_trigger": false,
      "taf_trigger": false,
      "metar": "METAR LEZL 101130Z 21003KT CAVOK 31/15 Q1015 NOSIG",
      "taf": "TAF LEZL 100800Z 1009/1109 23008KT CAVOK TX37/1015Z TN20/1106Z"
    },
    {
      "icao": "LFBD",
      "alert": "OK",
      "vis_m": 9999,
      "fzfg": false,
      "metar_trigger": false,
      "taf_trigger": false,
      "metar": "METAR LFBD 101130Z AUTO 35003KT 290V090 9999 FEW021/// SCT052/// BKN068/// ///TCU 18/12 Q1023 TEMPO 4000 -SHRA",
      "taf": "TAF LFBD 101100Z 1012/1118 30010KT 9999 BKN040 TX23/1115Z TN10/1103Z"
    },
    {
      "icao": "LFLL",
      "alert": "OK",
      "vis_m": 9999,
      "fzfg": false,
      "metar_trigger": false,
      "taf_trigger": false,
      "metar": "METAR LFLL 101130Z 36008KT 9999 SCT040 18/09 Q1020 NOSIG",
      "taf": "TAF LFLL 101100Z 1012/1118 36010KT CAVOK"
    },
    {
      "icao": "LFLS",
      "alert": "OK",
      "vis_m": 9999,
      "fzfg": false,
      "metar_trigger": false,
      "taf_trigger": false,
      "metar": "METAR LFLS 101130Z AUTO 31011KT 280V350 9999 FEW052 19/07 Q1020 TEMPO FEW060TCU",
      "taf": "TAF LFLS 100800Z 1009/1109 36010KT CAVOK"
    },
    {
      "icao": "LFMN",
      "alert": "OK",
      "vis_m": 9999,
      "fzfg": false,
      "metar_trigger": false,
      "taf_trigger": false,
      "metar": "METAR LFMN 101130Z 22023KT CAVOK 28/13 Q1008 NOSIG",
      "taf": "TAF LFMN 100800Z 1009/1115 20010KT CAVOK"
    },
    {
      "icao": "LFOB",
      "alert": "OK",
      "vis_m": 9999,
      "fzfg": false,
      "metar_trigger": false,
      "taf_trigger": false,
      "metar": "METAR LFOB 101130Z AUTO 29010KT 9999 FEW046 BKN066 BKN082 16/08 Q1019 TEMPO 26015G25KT 4000 SHRA SCT014 BKN025CB",
      "taf": "TAF LFOB 101100Z 1012/1112 28010KT 9999 SCT030"
    },
    {
      "icao": "LFPO",
      "alert": "OK",
      "vis_m": 9999,
      "fzfg": false,
      "metar_trigger": false,
      "taf_trigger": false,
      "metar": "METAR LFPO 101130Z 24010KT 190V290 9999 SCT043 SCT260 18/07 Q1020 NOSIG",
      "taf": "TAF LFPO 101100Z 1012/1118 29010KT 9999 BKN050"
    },
    {
      "icao": "LFSB",
      "alert": "OK",
      "vis_m": 9999,
      "fzfg": false,
      "metar_trigger": false,
      "taf_trigger": false,
      "metar": "METAR LFSB 101130Z AUTO 27015KT 9999 RA BKN056/// BKN068/// OVC092/// ///CB 13/08 Q1019 TEMPO 27020G30KT 4000 TSRA",
      "taf": "TAF LFSB 101100Z 1012/1112 27007KT 9999 FEW030 BKN090"
    },
    {
      "icao": "LGAV",
      "alert": "OK",
      "vis_m": 9999,
      "fzfg": false,
      "metar_trigger": false,
      "taf_trigger": false,
      "metar": "METAR LGAV 101150Z 05012KT 9999 FEW020 31/04 Q1013 NOSIG",
      "taf": "TAF LGAV 101100Z 1012/1112 05014KT 9999 FEW025"
    },
    {
      "icao": "LGTS",
      "alert": "OK",
      "vis_m": 9999,
      "fzfg": false,
      "metar_trigger": false,
      "taf_trigger": false,
      "metar": "METAR LGTS 101150Z 19012KT 9999 FEW020TCU 31/14 Q1013 NOSIG",
      "taf": "TAF LGTS 101100Z 1012/1112 17013KT 9999 FEW030"
    },
    {
      "icao": "LHBP",
      "alert": "OK",
      "vis_m": 9999,
      "fzfg": false,
      "metar_trigger": false,
      "taf_trigger": false,
      "metar": "METAR LHBP 101130Z VRB04KT CAVOK 28/16 Q1013 NOSIG",
      "taf": "TAF LHBP 101115Z 1012/1112 22009KT CAVOK"
    },
    {
      "icao": "LHDC",
      "alert": "OK",
      "vis_m": 9999,
      "fzfg": false,
      "metar_trigger": false,
      "taf_trigger": false,
      "metar": "METAR LHDC 101115Z AUTO 19007KT 140V270 9999 FEW078 //////CB 32/12 Q1013 TEMPO 6000 SHRA SCT050CB",
      "taf": "TAF LHDC 101115Z 1012/1021 20009KT CAVOK"
    },
    {
      "icao": "LIBD",
      "alert": "OK",
      "vis_m": 9999,
      "fzfg": false,
      "metar_trigger": false,
      "taf_trigger": false,
      "metar": "METAR LIBD 101150Z 07012KT CAVOK 30/19 Q1012",
      "taf": "TAF LIBD 101100Z 1012/1112 10014KT 9999 FEW040"
    },
    {
      "icao": "LIBG",
      "alert": "OK",
      "vis_m": 9999,
      "fzfg": false,
      "metar_trigger": false,
      "taf_trigger": false,
      "metar": "METAR LIBG 101150Z AUTO 20008KT 170V250 9999 NCD 32/13 Q1013",
      "taf": "TAF LIBG 101100Z 1012/1112 19010KT CAVOK"
    },
    {
      "icao": "LIBP",
      "alert": "OK",
      "vis_m": 9999,
      "fzfg": false,
      "metar_trigger": false,
      "taf_trigger": false,
      "metar": "METAR LIBP 101150Z AUTO 08011KT 9999 NCD 32/18 Q1010",
      "taf": "TAF LIBP 101100Z 1012/1112 10012KT 9999 FEW070"
    },
    {
      "icao": "LIBR",
      "alert": "OK",
      "vis_m": 9999,
      "fzfg": false,
      "metar_trigger": false,
      "taf_trigger": false,
      "metar": "METAR LIBR 101150Z 11009KT CAVOK 27/18 Q1013",
      "taf": "TAF LIBR 101100Z 1012/1112 11012KT 9999 FEW040"
    },
    {
      "icao": "LICA",
      "alert": "OK",
      "vis_m": 9999,
      "fzfg": false,
      "metar_trigger": false,
      "taf_trigger": false,
      "metar": "METAR LICA 101150Z AUTO 26011KT 230V300 9999 NCD 26/21 Q1014",
      "taf": "TAF LICA 101100Z 1012/1112 26012KT 9999 FEW020"
    },
    {
      "icao": "LICC",
      "alert": "OK",
      "vis_m": 9999,
      "fzfg": false,
      "metar_trigger": false,
      "taf_trigger": false,
      "metar": "METAR LICC 101150Z 07011KT CAVOK 29/19 Q1014",
      "taf": "TAF LICC 101100Z 1012/1112 10012KT CAVOK"
    },
    {
      "icao": "LICJ",
      "alert": "OK",
      "vis_m": 9999,
      "fzfg": false,
      "metar_trigger": false,
      "taf_trigger": false,
      "metar": "METAR LICJ 101150Z 05012KT CAVOK 31/09 Q1013",
      "taf": "TAF LICJ 101100Z 1012/1112 35010KT CAVOK"
    },
    {
      "icao": "LIMC",
      "alert": "OK",
      "vis_m": 9999,
      "fzfg": false,
      "metar_trigger": false,
      "taf_trigger": false,
      "metar": "METAR LIMC 101150Z VRB04KT 9999 BKN040 24/16 Q1010 NOSIG",
      "taf": "TAF LIMC 101100Z 1012/1118 VRB05KT 9999 BKN030"
    },
    {
      "icao": "LIME",
      "alert": "OK",
      "vis_m": 9999,
      "fzfg": false,
      "metar_trigger": false,
      "taf_trigger": false,
      "metar": "METAR LIME 101120Z 25007KT 9999 SCT015 SCT063 24/17 Q1010 RERA NOSIG",
      "taf": "TAF LIME 101100Z 1012/1112 12007KT 9999 SCT040"
    },
    {
      "icao": "LIMF",
      "alert": "OK",
      "vis_m": 9999,
      "fzfg": false,
      "metar_trigger": false,
      "taf_trigger": false,
      "metar": "METAR LIMF 101150Z 10006KT 060V140 9999 FEW025TCU SCT030 25/18 Q1009",
      "taf": "TAF LIMF 101100Z 1012/1112 VRB04KT 9999 SCT030"
    },
    {
      "icao": "LIMJ",
      "alert": "OK",
      "vis_m": 9999,
      "fzfg": false,
      "metar_trigger": false,
      "taf_trigger": false,
      "metar": "METAR LIMJ 101150Z 14013KT 9999 FEW015 SCT035 22/20 Q1010",
      "taf": "TAF LIMJ 101100Z 1012/1112 15015KT 9999 SCT040"
    },
    {
      "icao": "LIPE",
      "alert": "OK",
      "vis_m": 9999,
      "fzfg": false,
      "metar_trigger": false,
      "taf_trigger": false,
      "metar": "METAR LIPE 101150Z VRB04KT 9999 FEW070 31/14 Q1008",
      "taf": "TAF LIPE 101100Z 1012/1112 23013KT 9999 FEW050"
    },
    {
      "icao": "LIPH",
      "alert": "OK",
      "vis_m": 9999,
      "fzfg": false,
      "metar_trigger": false,
      "taf_trigger": false,
      "metar": "METAR LIPH 101150Z 07012KT 9999 FEW080 25/18 Q1009",
      "taf": "TAF LIPH 101100Z 1012/1112 07010KT 9999 BKN020"
    },
    {
      "icao": "LIPQ",
      "alert": "OK",
      "vis_m": 9999,
      "fzfg": false,
      "metar_trigger": false,
      "taf_trigger": false,
      "metar": "METAR LIPQ 101150Z AUTO 16008KT 9999 BKN074/// BKN085/// 26/17 Q1010",
      "taf": "TAF LIPQ 101100Z 1012/1112 VRB06KT 9999 SCT040"
    },
    {
      "icao": "LIPR",
      "alert": "OK",
      "vis_m": 9999,
      "fzfg": false,
      "metar_trigger": false,
      "taf_trigger": false,
      "metar": "METAR LIPR 101150Z 22014KT 9999 FEW070 30/15 Q1010",
      "taf": "TAF LIPR 101100Z 1012/1112 22012KT 9999 FEW060"
    },
    {
      "icao": "LIPX",
      "alert": "OK",
      "vis_m": 9999,
      "fzfg": false,
      "metar_trigger": false,
      "taf_trigger": false,
      "metar": "METAR LIPX 101150Z 11009KT 050V150 9999 FEW030 SCT050 26/17 Q1009",
      "taf": "TAF LIPX 101100Z 1012/1112 10012KT 9999 SCT030"
    },
    {
      "icao": "LIPY",
      "alert": "OK",
      "vis_m": 9999,
      "fzfg": false,
      "metar_trigger": false,
      "taf_trigger": false,
      "metar": "METAR LIPY 101150Z AUTO VRB04KT 9999 FEW084/// SCT100/// 30/17 Q1010",
      "taf": "TAF LIPY 101100Z 1012/1112 22008KT 9999 SCT060"
    },
    {
      "icao": "LIPZ",
      "alert": "OK",
      "vis_m": 9999,
      "fzfg": false,
      "metar_trigger": false,
      "taf_trigger": false,
      "metar": "METAR LIPZ 101150Z 13006KT 090V150 9999 FEW020 26/18 Q1009 NOSIG",
      "taf": "TAF LIPZ 101100Z 1012/1118 13012KT 9999 SCT030"
    },
    {
      "icao": "LIRF",
      "alert": "OK",
      "vis_m": 9999,
      "fzfg": false,
      "metar_trigger": false,
      "taf_trigger": false,
      "metar": "METAR LIRF 101150Z 19008KT 160V220 CAVOK 27/18 Q1014 NOSIG",
      "taf": "TAF LIRF 101100Z 1012/1118 19010KT CAVOK"
    },
    {
      "icao": "LIRN",
      "alert": "OK",
      "vis_m": 9999,
      "fzfg": false,
      "metar_trigger": false,
      "taf_trigger": false,
      "metar": "METAR LIRN 101150Z 19009KT 150V230 CAVOK 27/18 Q1015 NOSIG",
      "taf": "TAF LIRN 101100Z 1012/1112 23010KT CAVOK"
    },
    {
      "icao": "LIRP",
      "alert": "OK",
      "vis_m": 9999,
      "fzfg": false,
      "metar_trigger": false,
      "taf_trigger": false,
      "metar": "METAR LIRP 101145Z 24008KT CAVOK 25/14 Q1012 NOSIG",
      "taf": "TAF LIRP 101100Z 1012/1112 25013KT CAVOK"
    },
    {
      "icao": "LIRZ",
      "alert": "OK",
      "vis_m": 9999,
      "fzfg": false,
      "metar_trigger": false,
      "taf_trigger": false,
      "metar": "METAR LIRZ 101150Z AUTO 21012KT 160V250 9999 FEW058/// 30/14 Q1013",
      "taf": "TAF LIRZ 101100Z 1012/1112 20014KT CAVOK"
    },
    {
      "icao": "LJLJ",
      "alert": "OK",
      "vis_m": 9999,
      "fzfg": false,
      "metar_trigger": false,
      "taf_trigger": false,
      "metar": "METAR LJLJ 101130Z 11007KT 9999 FEW003 FEW020TCU BKN033 18/14 Q1014 NOSIG",
      "taf": "TAF LJLJ 101100Z 1012/1112 12008KT 9999 FEW003 BKN035"
    },
    {
      "icao": "LKMT",
      "alert": "OK",
      "vis_m": 7000,
      "fzfg": false,
      "metar_trigger": false,
      "taf_trigger": false,
      "metar": "METAR LKMT 101130Z 36005KT 330V030 7000 -RA BKN006 BKN038 14/13 Q1017 NOSIG",
      "taf": "TAF LKMT 101100Z 1012/1112 01010KT 9999 -RA BKN040"
    },
    {
      "icao": "LKPR",
      "alert": "OK",
      "vis_m": 9999,
      "fzfg": false,
      "metar_trigger": false,
      "taf_trigger": false,
      "metar": "METAR LKPR 101130Z 19008KT 9999 FEW028 15/09 Q1017 NOSIG",
      "taf": "TAF LKPR 101100Z 1012/1118 20004KT 9999 BKN030"
    },
    {
      "icao": "LLBG",
      "alert": "OK",
      "vis_m": 9999,
      "fzfg": false,
      "metar_trigger": false,
      "taf_trigger": false,
      "metar": "METAR LLBG 101150Z 29011KT CAVOK 29/18 Q1010 NOSIG",
      "taf": "TAF LLBG 101115Z 1012/1112 28010KT CAVOK TX30/1012Z TN20/1104Z"
    },
    {
      "icao": "LMML",
      "alert": "OK",
      "vis_m": 9999,
      "fzfg": false,
      "metar_trigger": false,
      "taf_trigger": false,
      "metar": "METAR LMML 101145Z 16008KT 130V200 9999 FEW022 29/20 Q1015 NOSIG",
      "taf": "TAF LMML 101100Z 1012/1112 18006KT 9999 FEW018"
    },
    {
      "icao": "LOWW",
      "alert": "OK",
      "vis_m": 9999,
      "fzfg": false,
      "metar_trigger": false,
      "taf_trigger": false,
      "metar": "METAR LOWW 101150Z 33008KT 9999 FEW022 SCT026 BKN050 18/12 Q1015 NOSIG",
      "taf": "TAF LOWW 101115Z 1012/1118 32010KT 9999 FEW030 SCT050 TX18/1013Z TN11/1103Z"
    },
    {
      "icao": "LPFR",
      "alert": "OK",
      "vis_m": 9999,
      "fzfg": false,
      "metar_trigger": false,
      "taf_trigger": false,
      "metar": "METAR LPFR 101130Z 18009KT CAVOK 24/14 Q1016",
      "taf": "TAF LPFR 101100Z 1012/1112 19010KT CAVOK"
    },
    {
      "icao": "LPMA",
      "alert": "OK",
      "vis_m": 9999,
      "fzfg": false,
      "metar_trigger": false,
      "taf_trigger": false,
      "metar": "METAR LPMA 101130Z 01025KT 9999 FEW015 23/12 Q1021",
      "taf": "TAF LPMA 101100Z 1012/1112 01018G30KT 9999 SCT015"
    },
    {
      "icao": "LPPR",
      "alert": "OK",
      "vis_m": 9999,
      "fzfg": false,
      "metar_trigger": false,
      "taf_trigger": false,
      "metar": "METAR LPPR 101130Z 31008KT 280V340 CAVOK 22/12 Q1020",
      "taf": "TAF LPPR 101100Z 1012/1112 33013KT CAVOK"
    },
    {
      "icao": "LPPS",
      "alert": "OK",
      "vis_m": 9999,
      "fzfg": false,
      "metar_trigger": false,
      "taf_trigger": false,
      "metar": "METAR LPPS 101130Z 02016KT 9999 SCT015 21/13 Q1022",
      "taf": "TAF LPPS 101100Z 1012/1118 02013KT 9999 SCT015"
    },
    {
      "icao": "LPPT",
      "alert": "OK",
      "vis_m": 9999,
      "fzfg": false,
      "metar_trigger": false,
      "taf_trigger": false,
      "metar": "METAR LPPT 101130Z 34013KT CAVOK 25/07 Q1018",
      "taf": "TAF LPPT 101100Z 1012/1118 34015KT CAVOK"
    },
    {
      "icao": "LQBK",
      "alert": "OK",
      "vis_m": 9999,
      "fzfg": false,
      "metar_trigger": false,
      "taf_trigger": false,
      "metar": "METAR LQBK 101130Z 34004KT 250V060 9999 FEW023 23/15 Q1014 NOSIG",
      "taf": "TAF LQBK 101100Z 1012/1112 30006KT 9999 SCT035 TX27/1013Z TN14/1103Z"
    },
    {
      "icao": "LQSA",
      "alert": "OK",
      "vis_m": 9999,
      "fzfg": false,
      "metar_trigger": false,
      "taf_trigger": false,
      "metar": "METAR LQSA 101130Z 30005KT 250V340 9999 FEW055 28/12 Q1013 NOSIG",
      "taf": "TAF LQSA 101100Z 1012/1112 VRB02KT CAVOK TX30/1013Z TN13/1103Z"
    },
    {
      "icao": "LQTZ",
      "alert": "OK",
      "vis_m": 9999,
      "fzfg": false,
      "metar_trigger": false,
      "taf_trigger": false,
      "metar": "METAR LQTZ 101130Z 30004KT 260V340 9999 FEW045 26/19 Q1013",
      "taf": "TAF LQTZ 101100Z 1012/1112 07005KT CAVOK TX28/1013Z TN15/1103Z"
    },
    {
      "icao": "LRBC",
      "alert": "OK",
      "vis_m": 9999,
      "fzfg": false,
      "metar_trigger": false,
      "taf_trigger": false,
      "metar": "METAR LRBC 101130Z VRB04KT 9999 SCT050 28/16 Q1015",
      "taf": "TAF LRBC 101100Z 1012/1021 VRB04KT 9999 SCT050"
    },
    {
      "icao": "LRBS",
      "alert": "OK",
      "vis_m": 9999,
      "fzfg": false,
      "metar_trigger": false,
      "taf_trigger": false,
      "metar": "METAR LRBS 101130Z VRB02KT 9999 BKN049 29/16 Q1014 NOSIG",
      "taf": "TAF LRBS 101100Z 1012/1112 VRB04KT CAVOK"
    },
    {
      "icao": "LRBV",
      "alert": "OK",
      "vis_m": 9999,
      "fzfg": false,
      "metar_trigger": false,
      "taf_trigger": false,
      "metar": "METAR LRBV 101130Z VRB01KT 9999 FEW050 26/11 Q1016",
      "taf": "TAF LRBV 101100Z 1012/1021 VRB04KT CAVOK"
    },
    {
      "icao": "LRCL",
      "alert": "OK",
      "vis_m": 9999,
      "fzfg": false,
      "metar_trigger": false,
      "taf_trigger": false,
      "metar": "METAR LRCL 101130Z 09004KT 020V150 9999 FEW040 28/10 Q1014",
      "taf": "TAF LRCL 101100Z 1012/1021 VRB04KT CAVOK"
    },
    {
      "icao": "LRCV",
      "alert": "OK",
      "vis_m": 9999,
      "fzfg": false,
      "metar_trigger": false,
      "taf_trigger": false,
      "metar": "METAR LRCV 101130Z 10005KT 060V150 CAVOK 30/16 Q1014",
      "taf": "TAF LRCV 101100Z 1012/1021 VRB04KT CAVOK"
    },
    {
      "icao": "LRIA",
      "alert": "OK",
      "vis_m": 9999,
      "fzfg": false,
      "metar_trigger": false,
      "taf_trigger": false,
      "metar": "METAR LRIA 101130Z 08006KT 040V120 CAVOK 27/10 Q1015",
      "taf": "TAF LRIA 101100Z 1012/1021 VRB04KT CAVOK"
    },
    {
      "icao": "LROP",
      "alert": "OK",
      "vis_m": 9999,
      "fzfg": false,
      "metar_trigger": false,
      "taf_trigger": false,
      "metar": "METAR LROP 101130Z VRB03KT CAVOK 28/17 Q1014 NOSIG",
      "taf": "TAF LROP 101100Z 1012/1112 VRB04KT CAVOK"
    },
    {
      "icao": "LRSB",
      "alert": "OK",
      "vis_m": 9999,
      "fzfg": false,
      "metar_trigger": false,
      "taf_trigger": false,
      "metar": "METAR LRSB 101130Z VRB04KT 9999 FEW050TCU 28/14 Q1015",
      "taf": "TAF LRSB 101100Z 1012/1112 VRB04KT CAVOK"
    },
    {
      "icao": "LRSM",
      "alert": "OK",
      "vis_m": 9999,
      "fzfg": false,
      "metar_trigger": false,
      "taf_trigger": false,
      "metar": "METAR LRSM 101130Z 21004KT 140V280 CAVOK 31/13 Q1013",
      "taf": "TAF LRSM 101100Z 1012/1021 18006KT CAVOK"
    },
    {
      "icao": "LRSV",
      "alert": "OK",
      "vis_m": 9999,
      "fzfg": false,
      "metar_trigger": false,
      "taf_trigger": false,
      "metar": "METAR LRSV 101130Z 08006KT 030V150 9999 FEW030 25/13 Q1016",
      "taf": "TAF LRSV 101100Z 1012/1021 07007KT 9999 SCT035"
    },
    {
      "icao": "LRTM",
      "alert": "OK",
      "vis_m": 9999,
      "fzfg": false,
      "metar_trigger": false,
      "taf_trigger": false,
      "metar": "METAR LRTM 101130Z VRB04KT 9999 FEW038TCU 29/15 Q1014",
      "taf": "TAF LRTM 101100Z 1012/1021 VRB04KT CAVOK"
    },
    {
      "icao": "LRTR",
      "alert": "OK",
      "vis_m": 9999,
      "fzfg": false,
      "metar_trigger": false,
      "taf_trigger": false,
      "metar": "METAR LRTR 101130Z 15007KT 090V200 CAVOK 32/11 Q1012",
      "taf": "TAF LRTR 101100Z 1012/1112 VRB04KT 9999 SCT040"
    },
    {
      "icao": "LTAC",
      "alert": "OK",
      "vis_m": 9999,
      "fzfg": false,
      "metar_trigger": false,
      "taf_trigger": false,
      "metar": "METAR LTAC 101150Z 06012KT 9999 FEW030CB SCT040 BKN100 21/11 Q1016 TEMPO -TSRA",
      "taf": "TAF LTAC 101040Z 1012/1112 03008KT 9999 SCT040 BKN100"
    },
    {
      "icao": "LTFM",
      "alert": "OK",
      "vis_m": 9999,
      "fzfg": false,
      "metar_trigger": false,
      "taf_trigger": false,
      "metar": "METAR LTFM 101150Z 04013KT 360V060 9999 FEW018 23/17 Q1015 NOSIG",
      "taf": "TAF LTFM 101040Z 1012/1118 05014KT CAVOK"
    },
    {
      "icao": "LUKK",
      "alert": "OK",
      "vis_m": 9999,
      "fzfg": false,
      "metar_trigger": false,
      "taf_trigger": false,
      "metar": "METAR LUKK 101130Z VRB03KT CAVOK 27/13 Q1015 NOSIG",
      "taf": "TAF LUKK 101114Z 1012/1112 VRB04KT CAVOK"
    },
    {
      "icao": "LWOH",
      "alert": "OK",
      "vis_m": 9999,
      "fzfg": false,
      "metar_trigger": false,
      "taf_trigger": false,
      "metar": "METAR LWOH 101150Z 15003KT 100V190 9999 SCT035TCU SCT040 26/14 Q1016",
      "taf": "TAF LWOH 101130Z 1012/1112 16010KT 9999 FEW040"
    },
    {
      "icao": "LWSK",
      "alert": "OK",
      "vis_m": 9999,
      "fzfg": false,
      "metar_trigger": false,
      "taf_trigger": false,
      "metar": "METAR LWSK 101150Z VRB04KT 9999 FEW050CB 33/16 Q1013 NOSIG",
      "taf": "TAF LWSK 101130Z 1012/1112 VRB02KT 9999 FEW080"
    },
    {
      "icao": "LYBE",
      "alert": "OK",
      "vis_m": 9999,
      "fzfg": false,
      "metar_trigger": false,
      "taf_trigger": false,
      "metar": "METAR LYBE 101130Z VRB04KT CAVOK 29/16 Q1013 NOSIG",
      "taf": "TAF LYBE 101100Z 1012/1112 24005KT CAVOK TX32/1013Z TN17/1103Z"
    },
    {
      "icao": "LYNI",
      "alert": "OK",
      "vis_m": 9999,
      "fzfg": false,
      "metar_trigger": false,
      "taf_trigger": false,
      "metar": "METAR LYNI 101130Z VRB02KT CAVOK 31/16 Q1013 NOSIG",
      "taf": "TAF LYNI 101100Z 1012/1112 18005KT CAVOK TX32/1013Z TN15/1103Z"
    },
    {
      "icao": "LYPG",
      "alert": "OK",
      "vis_m": 9999,
      "fzfg": false,
      "metar_trigger": false,
      "taf_trigger": false,
      "metar": "METAR LYPG 101130Z 16005KT 100V210 9999 FEW040 30/18 Q1013 NOSIG",
      "taf": "TAF LYPG 101100Z 1012/1112 16005KT 9999 FEW040 TX33/1014Z TN20/1103Z"
    },
    {
      "icao": "LZIB",
      "alert": "OK",
      "vis_m": 9999,
      "fzfg": false,
      "metar_trigger": false,
      "taf_trigger": false,
      "metar": "METAR LZIB 101130Z 36006KT 310V030 9999 FEW036 20/11 Q1015 NOSIG",
      "taf": "TAF LZIB 101115Z 1012/1112 31009KT 9999 SCT035"
    },
    {
      "icao": "LZKZ",
      "alert": "OK",
      "vis_m": 9999,
      "fzfg": false,
      "metar_trigger": false,
      "taf_trigger": false,
      "metar": "METAR LZKZ 101130Z 02008KT CAVOK 22/15 Q1015 NOSIG",
      "taf": "TAF LZKZ 101115Z 1012/1112 02010KT 9999 FEW040"
    },
    {
      "icao": "LZTT",
      "alert": "OK",
      "vis_m": 9999,
      "fzfg": false,
      "metar_trigger": false,
      "taf_trigger": false,
      "metar": "METAR LZTT 101130Z 04002KT 9999 FEW005 BKN010 OVC020 15/14 Q1017 NOSIG",
      "taf": "TAF LZTT 101115Z 1012/1112 15006KT 9999 FEW014 BKN035"
    },
    {
      "icao": "OEJN",
      "alert": "OK",
      "vis_m": 9999,
      "fzfg": false,
      "metar_trigger": false,
      "taf_trigger": false,
      "metar": "METAR OEJN 101100Z 27010KT CAVOK 36/24 Q1005 NOSIG",
      "taf": "TAF OEJN 101100Z 1012/1118 29012KT CAVOK"
    },
    {
      "icao": "OEMA",
      "alert": "OK",
      "vis_m": 9999,
      "fzfg": false,
      "metar_trigger": false,
      "taf_trigger": false,
      "metar": "METAR OEMA 101100Z 22003KT CAVOK 41/M02 Q1011 NOSIG",
      "taf": "TAF OEMA 101100Z 1012/1118 27012KT CAVOK"
    },
    {
      "icao": "OJAI",
      "alert": "OK",
      "vis_m": 5000,
      "fzfg": false,
      "metar_trigger": false,
      "taf_trigger": false,
      "metar": "METAR OJAI 101100Z 27014KT 5000 HZ NSC 31/04 Q1014 NOSIG",
      "taf": "TAF OJAI 101100Z 1012/1118 28014KT 5000 HZ NSC"
    },
    {
      "icao": "OMAA",
      "alert": "OK",
      "vis_m": 9999,
      "fzfg": false,
      "metar_trigger": false,
      "taf_trigger": false,
      "metar": "METAR OMAA 101130Z 30012KT CAVOK 40/17 Q1001 NOSIG",
      "taf": "TAF OMAA 101100Z 1012/1118 30013KT 8000 NSC"
    },
    {
      "icao": "OMDB",
      "alert": "OK",
      "vis_m": 9999,
      "fzfg": false,
      "metar_trigger": false,
      "taf_trigger": false,
      "metar": "METAR OMDB 101130Z 31010KT CAVOK 39/23 Q1000 NOSIG",
      "taf": "TAF OMDB 101100Z 1012/1118 29010KT CAVOK"
    },
    {
      "icao": "UAAA",
      "alert": "OK",
      "vis_m": 9999,
      "fzfg": false,
      "metar_trigger": false,
      "taf_trigger": false,
      "metar": "METAR UAAA 101130Z VRB01MPS 9999 FEW050CB SCT100 31/12 Q1011 NOSIG",
      "taf": "TAF UAAA 101103Z 1012/1112 20003G08MPS 9999 SCT050CB BKN100 TX27/1110Z TN17/1101Z"
    },
    {
      "icao": "UBBB",
      "alert": "OK",
      "vis_m": 9999,
      "fzfg": false,
      "metar_trigger": false,
      "taf_trigger": false,
      "metar": "METAR UBBB 101130Z 16012KT CAVOK 28/08 Q1014 NOSIG",
      "taf": "TAF UBBB 101042Z 1012/1112 18010KT 9999 SCT040 TX29/1012Z TN19/1100Z"
    },
    {
      "icao": "UDSG",
      "alert": "OK",
      "vis_m": 9999,
      "fzfg": false,
      "metar_trigger": false,
      "taf_trigger": false,
      "metar": "METAR UDSG 101130Z 24002KT 9999 VCTS SCT046CB 22/11 Q1018 TEMPO -TSRA",
      "taf": "TAF UDSG 101100Z 1012/1112 24006KT 9999 SCT050"
    },
    {
      "icao": "UDYZ",
      "alert": "OK",
      "vis_m": 9999,
      "fzfg": false,
      "metar_trigger": false,
      "taf_trigger": false,
      "metar": "METAR UDYZ 101130Z VRB04KT 9999 FEW043CB 29/11 Q1013 NOSIG",
      "taf": "TAF UDYZ 101100Z 1012/1112 23006KT 9999 SCT040"
    },
    {
      "icao": "UGKO",
      "alert": "OK",
      "vis_m": 9999,
      "fzfg": false,
      "metar_trigger": false,
      "taf_trigger": false,
      "metar": "METAR UGKO 101130Z 27011KT 240V300 CAVOK 28/18 Q1011 NOSIG",
      "taf": "TAF UGKO 101100Z 1012/1112 26010KT 9999 SCT026 BKN050 TX28/1012Z TN17/1102Z"
    }
  ]
}