{
  "ts_utc": "2026-05-08T13:02:13Z",
  "threshold_m": 150,
  "source": "stations_override.txt (ICAO list) + aviationweather.gov (METAR/TAF raw)",
  "station_count": 159,
  "stations": [
    {
      "icao": "BIKF",
      "alert": "OK",
      "vis_m": 9999,
      "fzfg": false,
      "metar_trigger": false,
      "taf_trigger": false,
      "metar": "METAR BIKF 081230Z 23007KT 200V280 9999 FEW036 BKN074 05/M03 Q1024",
      "taf": "TAF BIKF 081057Z 0812/0912 02006KT 9999 SCT050 TX06/0815Z TN04/0902Z"
    },
    {
      "icao": "BKPR",
      "alert": "OK",
      "vis_m": 9999,
      "fzfg": false,
      "metar_trigger": false,
      "taf_trigger": false,
      "metar": "METAR BKPR 081300Z 32011KT 9999 FEW025TCU SCT035 BKN050 14/11 Q1015 NOSIG",
      "taf": "TAF BKPR 081130Z 0812/0912 14006KT 9999 SCT040 BKN090"
    },
    {
      "icao": "EBCI",
      "alert": "OK",
      "vis_m": 9999,
      "fzfg": false,
      "metar_trigger": false,
      "taf_trigger": false,
      "metar": "METAR EBCI 081250Z 04008KT 010V070 9999 FEW040 15/08 Q1017 NOSIG",
      "taf": "TAF EBCI 081115Z 0812/0918 06008KT 9999 FEW030"
    },
    {
      "icao": "EDDB",
      "alert": "OK",
      "vis_m": 9999,
      "fzfg": false,
      "metar_trigger": false,
      "taf_trigger": false,
      "metar": "METAR EDDB 081250Z AUTO VRB02KT 9999 OVC036 13/05 Q1020 NOSIG",
      "taf": "TAF EDDB 081100Z 0812/0912 05005KT 9999 BKN025"
    },
    {
      "icao": "EDDH",
      "alert": "OK",
      "vis_m": 9999,
      "fzfg": false,
      "metar_trigger": false,
      "taf_trigger": false,
      "metar": "METAR EDDH 081250Z AUTO VRB05KT CAVOK 16/M00 Q1020 NOSIG",
      "taf": "TAF EDDH 081100Z 0812/0918 08010KT CAVOK"
    },
    {
      "icao": "EDDK",
      "alert": "OK",
      "vis_m": 9999,
      "fzfg": false,
      "metar_trigger": false,
      "taf_trigger": false,
      "metar": "METAR EDDK 081250Z AUTO 03004KT 340V090 CAVOK 18/05 Q1017 NOSIG",
      "taf": "TAF EDDK 081100Z 0812/0918 09004KT CAVOK"
    },
    {
      "icao": "EDDN",
      "alert": "OK",
      "vis_m": 9999,
      "fzfg": false,
      "metar_trigger": false,
      "taf_trigger": false,
      "metar": "METAR EDDN 081250Z AUTO 03006KT 360V070 9999 SCT044 16/06 Q1017 NOSIG",
      "taf": "TAF EDDN 081100Z 0812/0912 VRB03KT 9999 SCT035"
    },
    {
      "icao": "EDDS",
      "alert": "OK",
      "vis_m": 9999,
      "fzfg": false,
      "metar_trigger": false,
      "taf_trigger": false,
      "metar": "METAR EDDS 081250Z AUTO VRB03KT 9999 FEW042 18/08 Q1015 NOSIG",
      "taf": "TAF EDDS 081100Z 0812/0912 03006KT CAVOK"
    },
    {
      "icao": "EDFH",
      "alert": "OK",
      "vis_m": 9999,
      "fzfg": false,
      "metar_trigger": false,
      "taf_trigger": false,
      "metar": "METAR EDFH 081250Z 04004KT 330V140 9999 FEW037 14/06 Q1017",
      "taf": "TAF EDFH 081100Z 0812/0912 10007KT CAVOK"
    },
    {
      "icao": "EDJA",
      "alert": "OK",
      "vis_m": 9999,
      "fzfg": false,
      "metar_trigger": false,
      "taf_trigger": false,
      "metar": "METAR EDJA 081250Z 02008KT 340V070 9999 SCT043 18/07 Q1016",
      "taf": "TAF EDJA 081100Z 0812/0821 05007KT 9999 FEW030"
    },
    {
      "icao": "EDLW",
      "alert": "OK",
      "vis_m": 9999,
      "fzfg": false,
      "metar_trigger": false,
      "taf_trigger": false,
      "metar": "METAR EDLW 081250Z 02007KT 320V070 9999 SCT041 16/07 Q1018",
      "taf": "TAF EDLW 081100Z 0812/0912 07004KT 9999 FEW040"
    },
    {
      "icao": "EDNY",
      "alert": "OK",
      "vis_m": 9999,
      "fzfg": false,
      "metar_trigger": false,
      "taf_trigger": false,
      "metar": "METAR EDNY 081250Z 17005KT 110V240 CAVOK 19/08 Q1015",
      "taf": "TAF EDNY 081100Z 0812/0821 24005KT 9999 FEW030"
    },
    {
      "icao": "EDSB",
      "alert": "OK",
      "vis_m": 9999,
      "fzfg": false,
      "metar_trigger": false,
      "taf_trigger": false,
      "metar": "METAR EDSB 081250Z 01011KT 350V050 9999 FEW044 19/10 Q1015",
      "taf": "TAF EDSB 081100Z 0812/0912 35004KT CAVOK"
    },
    {
      "icao": "EETN",
      "alert": "OK",
      "vis_m": 9999,
      "fzfg": false,
      "metar_trigger": false,
      "taf_trigger": false,
      "metar": "METAR EETN 081250Z 04009KT 360V070 CAVOK 13/M05 Q1026 NOSIG",
      "taf": "TAF EETN 081130Z 0812/0912 04010KT CAVOK"
    },
    {
      "icao": "EFTU",
      "alert": "OK",
      "vis_m": 9999,
      "fzfg": false,
      "metar_trigger": false,
      "taf_trigger": false,
      "metar": "METAR EFTU 081250Z AUTO VRB05KT CAVOK 14/M06 Q1026",
      "taf": "TAF EFTU 081123Z 0812/0912 05006KT CAVOK"
    },
    {
      "icao": "EGBB",
      "alert": "OK",
      "vis_m": 9999,
      "fzfg": false,
      "metar_trigger": false,
      "taf_trigger": false,
      "metar": "METAR EGBB 081250Z 13007KT 100V160 9999 SCT041 16/06 Q1016",
      "taf": "TAF EGBB 081056Z 0812/0912 12009KT 9999 SCT030"
    },
    {
      "icao": "EGGP",
      "alert": "OK",
      "vis_m": 9999,
      "fzfg": false,
      "metar_trigger": false,
      "taf_trigger": false,
      "metar": "METAR EGGP 081250Z 11007KT 9999 FEW039 15/05 Q1016",
      "taf": "TAF EGGP 081057Z 0812/0912 14005KT 9999 FEW045"
    },
    {
      "icao": "EGGW",
      "alert": "OK",
      "vis_m": 9999,
      "fzfg": false,
      "metar_trigger": false,
      "taf_trigger": false,
      "metar": "METAR EGGW 081250Z AUTO 15007KT 110V170 9999 NCD 15/06 Q1017",
      "taf": "TAF EGGW 081055Z 0812/0912 12006KT 9999 FEW045"
    },
    {
      "icao": "EGKK",
      "alert": "OK",
      "vis_m": 9999,
      "fzfg": false,
      "metar_trigger": false,
      "taf_trigger": false,
      "metar": "METAR EGKK 081250Z VRB03KT 9999 BKN044 17/07 Q1016",
      "taf": "TAF EGKK 081053Z 0812/0918 09004KT 9999 FEW045"
    },
    {
      "icao": "EGNM",
      "alert": "OK",
      "vis_m": 9999,
      "fzfg": false,
      "metar_trigger": false,
      "taf_trigger": false,
      "metar": "METAR EGNM 081250Z 12003KT 040V210 9999 FEW043 14/05 Q1017",
      "taf": "TAF EGNM 081058Z 0812/0912 14005KT 9999 FEW025"
    },
    {
      "icao": "EGPD",
      "alert": "OK",
      "vis_m": 9999,
      "fzfg": false,
      "metar_trigger": false,
      "taf_trigger": false,
      "metar": "METAR EGPD 081250Z COR AUTO 23009KT 210V280 9999 NCD 15/02 Q1015 NOSIG",
      "taf": "TAF EGPD 081054Z 0812/0912 24010KT 9999 SCT030"
    },
    {
      "icao": "EGPF",
      "alert": "OK",
      "vis_m": 9999,
      "fzfg": false,
      "metar_trigger": false,
      "taf_trigger": false,
      "metar": "METAR EGPF 081250Z AUTO 26009KT 230V300 9999 BKN043 14/04 Q1017",
      "taf": "TAF EGPF 081059Z 0812/0912 28010KT 9999 FEW030 SCT040"
    },
    {
      "icao": "EHBK",
      "alert": "OK",
      "vis_m": 9999,
      "fzfg": false,
      "metar_trigger": false,
      "taf_trigger": false,
      "metar": "METAR EHBK 081255Z AUTO 06007KT 020V090 9999 NSC 17/07 Q1017 NOSIG",
      "taf": "TAF EHBK 081109Z 0812/0918 06005KT CAVOK"
    },
    {
      "icao": "EHEH",
      "alert": "OK",
      "vis_m": 9999,
      "fzfg": false,
      "metar_trigger": false,
      "taf_trigger": false,
      "metar": "METAR EHEH 081255Z AUTO 08004KT 350V130 9999 FEW057 OVC064 16/07 Q1018 BLU NOSIG RMK TREND REMOTE BY EHWX",
      "taf": "TAF EHEH 081126Z 0812/0918 06005KT CAVOK"
    },
    {
      "icao": "EKBI",
      "alert": "OK",
      "vis_m": 9999,
      "fzfg": false,
      "metar_trigger": false,
      "taf_trigger": false,
      "metar": "METAR EKBI 081250Z AUTO 11007KT 070V150 9999 BKN078/// 15/M00 Q1022",
      "taf": "TAF EKBI 081127Z 0812/0912 12010KT CAVOK"
    },
    {
      "icao": "EKCH",
      "alert": "OK",
      "vis_m": 9999,
      "fzfg": false,
      "metar_trigger": false,
      "taf_trigger": false,
      "metar": "METAR EKCH 081250Z AUTO 19008KT 150V230 9999 NCD 13/M00 Q1024 NOSIG",
      "taf": "TAF EKCH 081127Z 0812/0912 19010KT CAVOK"
    },
    {
      "icao": "ENAL",
      "alert": "OK",
      "vis_m": 9999,
      "fzfg": false,
      "metar_trigger": false,
      "taf_trigger": false,
      "metar": "METAR ENAL 081250Z 21008KT 170V230 CAVOK 13/01 Q1017",
      "taf": ""
    },
    {
      "icao": "ENBR",
      "alert": "OK",
      "vis_m": 9999,
      "fzfg": false,
      "metar_trigger": false,
      "taf_trigger": false,
      "metar": "METAR ENBR 081250Z 18012KT 9999 -RA SCT043 BKN051 08/03 Q1020 NOSIG RMK WIND 1200FT 17020KT",
      "taf": "TAF ENBR 081100Z 0812/0912 17015KT 9999 BKN050"
    },
    {
      "icao": "ENGM",
      "alert": "OK",
      "vis_m": 9999,
      "fzfg": false,
      "metar_trigger": false,
      "taf_trigger": false,
      "metar": "METAR ENGM 081250Z 21015KT CAVOK 14/M03 Q1022 NOSIG",
      "taf": "TAF ENGM 081100Z 0812/0912 18012KT CAVOK"
    },
    {
      "icao": "ENHD",
      "alert": "OK",
      "vis_m": 9999,
      "fzfg": false,
      "metar_trigger": false,
      "taf_trigger": false,
      "metar": "METAR ENHD 081250Z 17013KT 140V200 CAVOK 11/M00 Q1021",
      "taf": "TAF ENHD 081100Z 0812/0821 17016KT 9999 FEW020"
    },
    {
      "icao": "ENTC",
      "alert": "OK",
      "vis_m": 9999,
      "fzfg": false,
      "metar_trigger": false,
      "taf_trigger": false,
      "metar": "METAR ENTC 081250Z 20008KT 9999 SCT034TCU BKN044 BKN064 06/00 Q1024 NOSIG RMK WIND 2600FT VRB02KT",
      "taf": "TAF ENTC 081100Z 0812/0912 24009KT 9999 FEW012 SCT020"
    },
    {
      "icao": "ENTO",
      "alert": "OK",
      "vis_m": 9999,
      "fzfg": false,
      "metar_trigger": false,
      "taf_trigger": false,
      "metar": "METAR ENTO 081250Z 20013KT CAVOK 14/05 Q1023 NOSIG",
      "taf": "TAF ENTO 081100Z 0812/0912 16010KT CAVOK"
    },
    {
      "icao": "ENVA",
      "alert": "OK",
      "vis_m": 9999,
      "fzfg": false,
      "metar_trigger": false,
      "taf_trigger": false,
      "metar": "METAR ENVA 081250Z 18014KT 140V210 CAVOK 17/M08 Q1018 NOSIG RMK WIND 670FT 18016KT",
      "taf": ""
    },
    {
      "icao": "ENZV",
      "alert": "OK",
      "vis_m": 9999,
      "fzfg": false,
      "metar_trigger": false,
      "taf_trigger": false,
      "metar": "METAR ENZV 081250Z 19014KT CAVOK 13/01 Q1021 NOSIG",
      "taf": "TAF ENZV 081100Z 0812/0912 17012KT 9999 FEW020"
    },
    {
      "icao": "EPGD",
      "alert": "OK",
      "vis_m": 9999,
      "fzfg": false,
      "metar_trigger": false,
      "taf_trigger": false,
      "metar": "METAR EPGD 081230Z 04014G24KT CAVOK 10/02 Q1021",
      "taf": "TAF EPGD 081130Z 0812/0912 04010KT CAVOK"
    },
    {
      "icao": "EPKK",
      "alert": "OK",
      "vis_m": 9999,
      "fzfg": false,
      "metar_trigger": false,
      "taf_trigger": false,
      "metar": "METAR EPKK 081230Z 29010KT 9999 FEW023TCU BKN030 14/08 Q1017",
      "taf": "TAF EPKK 081130Z 0812/0912 32010KT 9999 BKN022"
    },
    {
      "icao": "EPKT",
      "alert": "OK",
      "vis_m": 9999,
      "fzfg": false,
      "metar_trigger": false,
      "taf_trigger": false,
      "metar": "METAR EPKT 081230Z 33005KT 9999 FEW012 BKN014 11/08 Q1018",
      "taf": "TAF EPKT 081130Z 0812/0912 32006KT 9999 BKN008"
    },
    {
      "icao": "EPLB",
      "alert": "OK",
      "vis_m": 9999,
      "fzfg": false,
      "metar_trigger": false,
      "taf_trigger": false,
      "metar": "METAR EPLB 081230Z 33007KT 9999 FEW020 BKN030 14/09 Q1017",
      "taf": "TAF EPLB 081130Z 0812/0912 33008KT 9999 BKN030"
    },
    {
      "icao": "EPMO",
      "alert": "OK",
      "vis_m": 9999,
      "fzfg": false,
      "metar_trigger": false,
      "taf_trigger": false,
      "metar": "METAR EPMO 081230Z 30008KT 270V330 9999 SCT021 BKN034 12/08 Q1018",
      "taf": "TAF EPMO 081130Z 0812/0912 33005KT 9999 BKN030"
    },
    {
      "icao": "EPPO",
      "alert": "OK",
      "vis_m": 9999,
      "fzfg": false,
      "metar_trigger": false,
      "taf_trigger": false,
      "metar": "METAR EPPO 081230Z 33006KT 9999 OVC021 11/06 Q1020",
      "taf": "TAF EPPO 081130Z 0812/0912 03006KT 9999 BKN040"
    },
    {
      "icao": "EPRA",
      "alert": "OK",
      "vis_m": 9999,
      "fzfg": false,
      "metar_trigger": false,
      "taf_trigger": false,
      "metar": "METAR EPRA 081230Z 31007KT 9999 BKN022 12/07 Q1017",
      "taf": "TAF EPRA 081130Z 0812/0821 32008KT 9999 BKN030"
    },
    {
      "icao": "EPRZ",
      "alert": "OK",
      "vis_m": 9999,
      "fzfg": false,
      "metar_trigger": false,
      "taf_trigger": false,
      "metar": "METAR EPRZ 081230Z 28006KT 9999 SCT013CB 15/12 Q1017",
      "taf": "TAF EPRZ 081130Z 0812/0912 34005KT 9999 SCT030"
    },
    {
      "icao": "EPSC",
      "alert": "OK",
      "vis_m": 9999,
      "fzfg": false,
      "metar_trigger": false,
      "taf_trigger": false,
      "metar": "METAR EPSC 081230Z 03005KT 9999 BKN043 BKN049 14/04 Q1021",
      "taf": "TAF EPSC 081130Z 0812/0912 05010KT 9999 SCT035"
    },
    {
      "icao": "EPSY",
      "alert": "OK",
      "vis_m": 9999,
      "fzfg": false,
      "metar_trigger": false,
      "taf_trigger": false,
      "metar": "METAR EPSY 081230Z 02009KT 9999 SCT008 OVC011 08/06 Q1019",
      "taf": "TAF EPSY 081130Z 0812/0821 01008KT 9999 BKN014"
    },
    {
      "icao": "EPWA",
      "alert": "OK",
      "vis_m": 9999,
      "fzfg": false,
      "metar_trigger": false,
      "taf_trigger": false,
      "metar": "METAR EPWA 081230Z 29008KT 260V330 9999 BKN025 12/07 Q1018 NOSIG",
      "taf": "TAF EPWA 081130Z 0812/0912 34008KT 9999 BKN030"
    },
    {
      "icao": "EPWR",
      "alert": "OK",
      "vis_m": 9999,
      "fzfg": false,
      "metar_trigger": false,
      "taf_trigger": false,
      "metar": "METAR EPWR 081230Z 31006KT 290V350 9999 BKN025 BKN032 13/07 Q1019",
      "taf": "TAF EPWR 081130Z 0812/0912 33006KT 9999 BKN033"
    },
    {
      "icao": "ESGG",
      "alert": "OK",
      "vis_m": 9999,
      "fzfg": false,
      "metar_trigger": false,
      "taf_trigger": false,
      "metar": "METAR ESGG 081250Z 27007KT CAVOK 15/03 Q1023",
      "taf": ""
    },
    {
      "icao": "ESKN",
      "alert": "OK",
      "vis_m": 9999,
      "fzfg": false,
      "metar_trigger": false,
      "taf_trigger": false,
      "metar": "METAR ESKN 081250Z 12012KT 090V150 CAVOK 12/M05 Q1027",
      "taf": "TAF ESKN 081130Z 0812/0912 13012KT CAVOK"
    },
    {
      "icao": "ESMS",
      "alert": "OK",
      "vis_m": 9999,
      "fzfg": false,
      "metar_trigger": false,
      "taf_trigger": false,
      "metar": "METAR ESMS 081250Z 09013KT CAVOK 14/M05 Q1023",
      "taf": "TAF ESMS 081127Z 0812/0912 09012KT CAVOK"
    },
    {
      "icao": "ESSA",
      "alert": "OK",
      "vis_m": 9999,
      "fzfg": false,
      "metar_trigger": false,
      "taf_trigger": false,
      "metar": "METAR ESSA 081250Z 14012KT CAVOK 14/M05 Q1026 NOSIG",
      "taf": "TAF ESSA 081130Z 0812/0912 17010KT CAVOK"
    },
    {
      "icao": "EYKA",
      "alert": "OK",
      "vis_m": 9999,
      "fzfg": false,
      "metar_trigger": false,
      "taf_trigger": false,
      "metar": "METAR EYKA 081250Z 05011KT CAVOK 12/03 Q1019",
      "taf": ""
    },
    {
      "icao": "EYPA",
      "alert": "OK",
      "vis_m": 9999,
      "fzfg": false,
      "metar_trigger": false,
      "taf_trigger": false,
      "metar": "METAR EYPA 081250Z 07009KT 040V100 CAVOK 16/M03 Q1021",
      "taf": "TAF EYPA 081100Z 0812/0912 06013KT 9000 NSC"
    },
    {
      "icao": "EYVI",
      "alert": "OK",
      "vis_m": 9999,
      "fzfg": false,
      "metar_trigger": false,
      "taf_trigger": false,
      "metar": "METAR EYVI 081250Z 03014KT 9999 -RA SCT017 OVC030 08/05 Q1017 NOSIG",
      "taf": "TAF EYVI 081100Z 0812/0912 03010KT 8000 BKN020"
    },
    {
      "icao": "GCFV",
      "alert": "OK",
      "vis_m": 9999,
      "fzfg": false,
      "metar_trigger": false,
      "taf_trigger": false,
      "metar": "METAR GCFV 081230Z 31009KT 260V350 9999 FEW035 25/09 Q1013",
      "taf": ""
    },
    {
      "icao": "GCLP",
      "alert": "OK",
      "vis_m": 9999,
      "fzfg": false,
      "metar_trigger": false,
      "taf_trigger": false,
      "metar": "METAR GCLP 081230Z 19009KT 110V240 9999 SCT030 25/15 Q1013 NOSIG",
      "taf": "TAF GCLP 080800Z 0809/0909 18015KT 9999 FEW030 TX24/0814Z TN16/0906Z"
    },
    {
      "icao": "GCTS",
      "alert": "OK",
      "vis_m": 9999,
      "fzfg": false,
      "metar_trigger": false,
      "taf_trigger": false,
      "metar": "METAR GCTS 081230Z 27019KT 9999 FEW030 23/11 Q1013 NOSIG",
      "taf": "TAF GCTS 080800Z 0809/0909 27015KT 9999 SCT030 TX26/0814Z TN16/0906Z"
    },
    {
      "icao": "GMAD",
      "alert": "OK",
      "vis_m": 9999,
      "fzfg": false,
      "metar_trigger": false,
      "taf_trigger": false,
      "metar": "METAR GMAD 081230Z 26011KT 230V300 9999 SCT033 SCT200 23/12 Q1011 NOSIG",
      "taf": "TAF GMAD 081100Z 0812/0918 19003KT 9999 BKN033"
    },
    {
      "icao": "GMMN",
      "alert": "OK",
      "vis_m": 9999,
      "fzfg": false,
      "metar_trigger": false,
      "taf_trigger": false,
      "metar": "METAR GMMN 081230Z VRB06KT 9999 FEW016 BKN200 24/10 Q1010 NOSIG",
      "taf": "TAF GMMN 081100Z 0812/0918 VRB02KT CAVOK"
    },
    {
      "icao": "GMMX",
      "alert": "OK",
      "vis_m": 9999,
      "fzfg": false,
      "metar_trigger": false,
      "taf_trigger": false,
      "metar": "METAR GMMX 081230Z VRB07KT CAVOK 23/08 Q1011 NOSIG",
      "taf": "TAF GMMX 081100Z 0812/0918 26006KT 8000 NSC"
    },
    {
      "icao": "HEGN",
      "alert": "OK",
      "vis_m": 9999,
      "fzfg": false,
      "metar_trigger": false,
      "taf_trigger": false,
      "metar": "METAR HEGN 081200Z 36016KT CAVOK 27/11 Q1011 NOSIG",
      "taf": "TAF HEGN 081100Z 0812/0918 36015G25KT CAVOK"
    },
    {
      "icao": "HEMA",
      "alert": "OK",
      "vis_m": 9999,
      "fzfg": false,
      "metar_trigger": false,
      "taf_trigger": false,
      "metar": "METAR HEMA 081200Z 36016KT CAVOK 28/15 Q1010 NOSIG",
      "taf": "TAF HEMA 081100Z 0812/0918 35015G25KT CAVOK"
    },
    {
      "icao": "HESH",
      "alert": "OK",
      "vis_m": 9999,
      "fzfg": false,
      "metar_trigger": false,
      "taf_trigger": false,
      "metar": "METAR HESH 081200Z 35017KT CAVOK 31/13 Q1011 NOSIG",
      "taf": "TAF HESH 081100Z 0812/0918 01010G20KT CAVOK"
    },
    {
      "icao": "HESX",
      "alert": "OK",
      "vis_m": 9999,
      "fzfg": false,
      "metar_trigger": false,
      "taf_trigger": false,
      "metar": "METAR HESX 081200Z 07018KT CAVOK 27/09 Q1015 NOSIG",
      "taf": "TAF HESX 081100Z 0812/0918 04015KT CAVOK"
    },
    {
      "icao": "LATI",
      "alert": "OK",
      "vis_m": 9999,
      "fzfg": false,
      "metar_trigger": false,
      "taf_trigger": false,
      "metar": "METAR LATI 081250Z 32005KT 290V010 9999 DZ FEW055 OVC080 19/11 Q1013 NOSIG",
      "taf": "TAF LATI 081100Z 0812/0912 16014KT 9999 FEW040 OVC080 TX24/0912Z TN14/0904Z"
    },
    {
      "icao": "LBPD",
      "alert": "OK",
      "vis_m": 9999,
      "fzfg": false,
      "metar_trigger": false,
      "taf_trigger": false,
      "metar": "METAR LBPD 081300Z AUTO 00000KT 9999 -SHRA FEW080/// OVC097/// 19/15 Q1015 TEMPO 5000 RA",
      "taf": "TAF LBPD 081100Z 0812/0912 10008KT 9999 BKN080"
    },
    {
      "icao": "LBSF",
      "alert": "OK",
      "vis_m": 9999,
      "fzfg": false,
      "metar_trigger": false,
      "taf_trigger": false,
      "metar": "METAR LBSF 081300Z 17010KT 120V180 9999 SCT042 OVC054 19/10 Q1016 NOSIG",
      "taf": "TAF LBSF 081100Z 0812/0912 30008KT 9999 BKN070"
    },
    {
      "icao": "LBWN",
      "alert": "OK",
      "vis_m": 9999,
      "fzfg": false,
      "metar_trigger": false,
      "taf_trigger": false,
      "metar": "METAR LBWN 081300Z 11013KT 9999 FEW025 16/12 Q1015 NOSIG",
      "taf": "TAF LBWN 081100Z 0812/0912 12012KT 9999 SCT045"
    },
    {
      "icao": "LCLK",
      "alert": "OK",
      "vis_m": 9999,
      "fzfg": false,
      "metar_trigger": false,
      "taf_trigger": false,
      "metar": "METAR LCLK 081230Z 15009KT 110V170 9999 FEW030 26/15 Q1016 NOSIG",
      "taf": "TAF LCLK 081130Z 0812/0912 18012KT 9999 FEW035"
    },
    {
      "icao": "LCPH",
      "alert": "OK",
      "vis_m": 9999,
      "fzfg": false,
      "metar_trigger": false,
      "taf_trigger": false,
      "metar": "METAR LCPH 081230Z 31010KT 250V320 9999 FEW040 23/17 Q1017 NOSIG",
      "taf": "TAF LCPH 081130Z 0812/0912 29010KT 9999 FEW030"
    },
    {
      "icao": "LEAL",
      "alert": "OK",
      "vis_m": 9999,
      "fzfg": false,
      "metar_trigger": false,
      "taf_trigger": false,
      "metar": "METAR LEAL 081230Z 06003KT 360V100 9999 FEW035 20/10 Q1013 NOSIG",
      "taf": "TAF LEAL 081100Z 0812/0912 VRB04KT 9999 FEW035 TX22/0812Z TN14/0905Z"
    },
    {
      "icao": "LEBB",
      "alert": "OK",
      "vis_m": 9999,
      "fzfg": false,
      "metar_trigger": false,
      "taf_trigger": false,
      "metar": "METAR LEBB 081230Z 16005KT 080V240 9999 FEW030 23/11 Q1009 NOSIG",
      "taf": "TAF LEBB 081100Z 0812/0912 13007KT 9999 FEW045 TX22/0815Z TN09/0904Z"
    },
    {
      "icao": "LEBL",
      "alert": "OK",
      "vis_m": 9999,
      "fzfg": false,
      "metar_trigger": false,
      "taf_trigger": false,
      "metar": "SPECI LEBL 081244Z 14008KT 110V170 9999 3000E SHRA BKN022 FEW025TCU BKN029 19/14 Q1014 NOSIG",
      "taf": "TAF LEBL 081100Z 0812/0912 14007KT 9999 FEW020 TX20/0813Z TN15/0905Z"
    },
    {
      "icao": "LECH",
      "alert": "OK",
      "vis_m": 9999,
      "fzfg": false,
      "metar_trigger": false,
      "taf_trigger": false,
      "metar": "METAR LECH 081230Z AUTO 09007KT 040V140 9999 SCT021 BKN029 BKN037 17/12 Q1014",
      "taf": "TAF LECH 081100Z 0812/0912 09010KT 9999 FEW020 TX20/0814Z TN11/0905Z"
    },
    {
      "icao": "LEMD",
      "alert": "OK",
      "vis_m": 9999,
      "fzfg": false,
      "metar_trigger": false,
      "taf_trigger": false,
      "metar": "SPECI LEMD 081242Z 01005KT 340V120 9999 4000SW SHRA FEW015 SCT035CB BKN060 12/12 Q1011 TEMPO 3000 TSRA",
      "taf": ""
    },
    {
      "icao": "LEMG",
      "alert": "OK",
      "vis_m": 9999,
      "fzfg": false,
      "metar_trigger": false,
      "taf_trigger": false,
      "metar": "METAR LEMG 081230Z 11010KT 080V150 9999 FEW020 SCT040 19/13 Q1012 NOSIG",
      "taf": "TAF LEMG 081100Z 0812/0912 13010KT 9999 FEW030 TX21/0814Z TN16/0906Z"
    },
    {
      "icao": "LEVC",
      "alert": "OK",
      "vis_m": 9999,
      "fzfg": false,
      "metar_trigger": false,
      "taf_trigger": false,
      "metar": "METAR LEVC 081230Z 08004KT 040V210 9999 FEW020 BKN039 18/12 Q1014 NOSIG",
      "taf": "TAF LEVC 081100Z 0812/0912 09010KT 9999 FEW040 TX22/0812Z TN14/0905Z"
    },
    {
      "icao": "LEXJ",
      "alert": "OK",
      "vis_m": 9999,
      "fzfg": false,
      "metar_trigger": false,
      "taf_trigger": false,
      "metar": "METAR LEXJ 081230Z 24004KT 210V280 CAVOK 20/10 Q1009",
      "taf": ""
    },
    {
      "icao": "LEZG",
      "alert": "OK",
      "vis_m": 9999,
      "fzfg": false,
      "metar_trigger": false,
      "taf_trigger": false,
      "metar": "METAR LEZG 081230Z 09011KT 060V130 9999 FEW080CB 19/10 Q1012 NOSIG",
      "taf": "TAF LEZG 081100Z 0812/0912 12010KT 9999 FEW050 TX22/0814Z TN13/0905Z"
    },
    {
      "icao": "LEZL",
      "alert": "OK",
      "vis_m": 9999,
      "fzfg": false,
      "metar_trigger": false,
      "taf_trigger": false,
      "metar": "METAR LEZL 081230Z 20006KT 160V260 CAVOK 23/08 Q1011 NOSIG",
      "taf": "TAF LEZL 080800Z 0809/0909 20010KT CAVOK TX25/0814Z TN15/0906Z"
    },
    {
      "icao": "LFBD",
      "alert": "OK",
      "vis_m": 9999,
      "fzfg": false,
      "metar_trigger": false,
      "taf_trigger": false,
      "metar": "METAR LFBD 081230Z AUTO 14011KT CAVOK 23/10 Q1011 NOSIG",
      "taf": "TAF LFBD 081100Z 0812/0918 12010KT CAVOK TX25/0814Z TN12/0905Z"
    },
    {
      "icao": "LFLL",
      "alert": "OK",
      "vis_m": 9999,
      "fzfg": false,
      "metar_trigger": false,
      "taf_trigger": false,
      "metar": "METAR LFLL 081230Z VRB03KT 9999 FEW040 21/10 Q1013 NOSIG",
      "taf": "TAF LFLL 081100Z 0812/0918 VRB02KT CAVOK"
    },
    {
      "icao": "LFLS",
      "alert": "OK",
      "vis_m": 9999,
      "fzfg": false,
      "metar_trigger": false,
      "taf_trigger": false,
      "metar": "METAR LFLS 081230Z AUTO 26004KT 160V330 9999 FEW047 21/11 Q1014 TEMPO FEW040TCU",
      "taf": "TAF LFLS 080800Z 0809/0909 VRB04KT CAVOK"
    },
    {
      "icao": "LFMN",
      "alert": "OK",
      "vis_m": 9999,
      "fzfg": false,
      "metar_trigger": false,
      "taf_trigger": false,
      "metar": "METAR LFMN 081230Z 19008KT 9999 FEW050 SCT260 20/14 Q1014 NOSIG",
      "taf": "TAF LFMN 080800Z 0809/0915 20010KT CAVOK"
    },
    {
      "icao": "LFOB",
      "alert": "OK",
      "vis_m": 9999,
      "fzfg": false,
      "metar_trigger": false,
      "taf_trigger": false,
      "metar": "METAR LFOB 081230Z AUTO 12008KT 090V150 9999 FEW046 19/07 Q1016 NOSIG",
      "taf": "TAF LFOB 081100Z 0812/0912 06007KT 9999 SCT045"
    },
    {
      "icao": "LFPO",
      "alert": "OK",
      "vis_m": 9999,
      "fzfg": false,
      "metar_trigger": false,
      "taf_trigger": false,
      "metar": "METAR LFPO 081230Z 04006KT 350V080 9999 SCT046 18/05 Q1015 NOSIG",
      "taf": "TAF LFPO 081100Z 0812/0918 04006KT CAVOK"
    },
    {
      "icao": "LFSB",
      "alert": "OK",
      "vis_m": 9999,
      "fzfg": false,
      "metar_trigger": false,
      "taf_trigger": false,
      "metar": "METAR LFSB 081230Z AUTO 36006KT 310V040 CAVOK 20/10 Q1015 NOSIG",
      "taf": "TAF LFSB 081100Z 0812/0912 36005KT CAVOK"
    },
    {
      "icao": "LGAV",
      "alert": "OK",
      "vis_m": 9999,
      "fzfg": false,
      "metar_trigger": false,
      "taf_trigger": false,
      "metar": "METAR LGAV 081250Z 20014KT 9999 FEW025 23/07 Q1017 NOSIG",
      "taf": "TAF LGAV 081100Z 0812/0912 22013KT 9999 FEW025"
    },
    {
      "icao": "LGTS",
      "alert": "OK",
      "vis_m": 8000,
      "fzfg": false,
      "metar_trigger": false,
      "taf_trigger": false,
      "metar": "METAR LGTS 081250Z 30005KT 8000 SCT010 BKN025 17/16 Q1016 NOSIG",
      "taf": "TAF LGTS 081100Z 0812/0912 VRB03KT 9999 SCT030"
    },
    {
      "icao": "LHBP",
      "alert": "OK",
      "vis_m": 9999,
      "fzfg": false,
      "metar_trigger": false,
      "taf_trigger": false,
      "metar": "METAR LHBP 081230Z VRB05KT CAVOK 22/09 Q1015 NOSIG",
      "taf": "TAF LHBP 081115Z 0812/0912 VRB04KT CAVOK"
    },
    {
      "icao": "LHDC",
      "alert": "OK",
      "vis_m": 9999,
      "fzfg": false,
      "metar_trigger": false,
      "taf_trigger": false,
      "metar": "METAR LHDC 081215Z AUTO VRB06KT 9999 FEW036 SCT084 21/12 Q1015 NOSIG",
      "taf": "TAF LHDC 081115Z 0812/0821 26006KT 9999 SCT030 SCT080"
    },
    {
      "icao": "LIBD",
      "alert": "OK",
      "vis_m": 8000,
      "fzfg": false,
      "metar_trigger": false,
      "taf_trigger": false,
      "metar": "METAR LIBD 081250Z 07014KT 030V090 8000 -DZ SCT008 BKN020 14/13 Q1013",
      "taf": "TAF LIBD 081100Z 0812/0912 VRB05KT 9999 BKN030"
    },
    {
      "icao": "LIBG",
      "alert": "OK",
      "vis_m": 9999,
      "fzfg": false,
      "metar_trigger": false,
      "taf_trigger": false,
      "metar": "METAR LIBG 081150Z VRB02KT 9999 FEW008 SCT020 19/19 Q1010",
      "taf": "TAF LIBG 081100Z 0812/0821 10010KT 9999 BKN030"
    },
    {
      "icao": "LIBP",
      "alert": "OK",
      "vis_m": 9999,
      "fzfg": false,
      "metar_trigger": false,
      "taf_trigger": false,
      "metar": "METAR LIBP 081250Z AUTO 05008KT 010V070 9999 BKN100/// 20/14 Q1014",
      "taf": "TAF LIBP 081100Z 0812/0912 VRB05KT 9999 BKN015"
    },
    {
      "icao": "LIBR",
      "alert": "OK",
      "vis_m": 6000,
      "fzfg": false,
      "metar_trigger": false,
      "taf_trigger": false,
      "metar": "METAR LIBR 081250Z 13008KT 6000 -RA BKN020 17/15 Q1011",
      "taf": "TAF LIBR 081100Z 0812/0912 14015KT 9999 SCT030"
    },
    {
      "icao": "LICA",
      "alert": "OK",
      "vis_m": 9999,
      "fzfg": false,
      "metar_trigger": false,
      "taf_trigger": false,
      "metar": "METAR LICA 081250Z AUTO 26009KT 9999 NCD 23/11 Q1012",
      "taf": "TAF LICA 081100Z 0812/0912 26013KT 9999 SCT050"
    },
    {
      "icao": "LICC",
      "alert": "OK",
      "vis_m": 9999,
      "fzfg": false,
      "metar_trigger": false,
      "taf_trigger": false,
      "metar": "METAR LICC 081250Z 08010KT 9999 FEW050 23/19 Q1011",
      "taf": "TAF LICC 081100Z 0812/0912 07012KT 9999 FEW020"
    },
    {
      "icao": "LICJ",
      "alert": "OK",
      "vis_m": 9999,
      "fzfg": false,
      "metar_trigger": false,
      "taf_trigger": false,
      "metar": "METAR LICJ 081250Z 28009KT 9999 SCT050 19/16 Q1012",
      "taf": "TAF LICJ 081100Z 0812/0912 31012KT 9999 SCT035"
    },
    {
      "icao": "LIMC",
      "alert": "OK",
      "vis_m": 9999,
      "fzfg": false,
      "metar_trigger": false,
      "taf_trigger": false,
      "metar": "METAR LIMC 081250Z VRB01KT 9999 -RA BKN035 BKN090 19/14 Q1016 TEMPO 4000 TSRA",
      "taf": "TAF LIMC 081100Z 0812/0918 VRB05KT 9999 SCT040"
    },
    {
      "icao": "LIME",
      "alert": "OK",
      "vis_m": 9999,
      "fzfg": false,
      "metar_trigger": false,
      "taf_trigger": false,
      "metar": "METAR LIME 081250Z 16003KT 060V210 9999 SCT030 20/11 Q1016 NOSIG",
      "taf": "TAF LIME 081100Z 0812/0912 VRB05KT 9999 SCT050"
    },
    {
      "icao": "LIMF",
      "alert": "OK",
      "vis_m": 9999,
      "fzfg": false,
      "metar_trigger": false,
      "taf_trigger": false,
      "metar": "METAR LIMF 081250Z 28004KT 9999 SCT040 BKN070 15/12 Q1017",
      "taf": "TAF LIMF 081100Z 0812/0912 VRB05KT 9999 SCT030"
    },
    {
      "icao": "LIMJ",
      "alert": "OK",
      "vis_m": 9999,
      "fzfg": false,
      "metar_trigger": false,
      "taf_trigger": false,
      "metar": "METAR LIMJ 081250Z 03013KT 9999 FEW035 SCT080 21/12 Q1014",
      "taf": "TAF LIMJ 081100Z 0812/0912 03012KT 9999 SCT020"
    },
    {
      "icao": "LIPE",
      "alert": "OK",
      "vis_m": 9999,
      "fzfg": false,
      "metar_trigger": false,
      "taf_trigger": false,
      "metar": "METAR LIPE 081250Z 10008KT 070V130 9999 SCT040 SCT070 21/13 Q1015",
      "taf": "TAF LIPE 081100Z 0812/0912 VRB05KT 9999 SCT030"
    },
    {
      "icao": "LIPH",
      "alert": "OK",
      "vis_m": 9999,
      "fzfg": false,
      "metar_trigger": false,
      "taf_trigger": false,
      "metar": "METAR LIPH 081250Z VRB04KT 9999 SCT030 23/12 Q1015",
      "taf": "TAF LIPH 081100Z 0812/0912 VRB05KT 9999 SCT015"
    },
    {
      "icao": "LIPQ",
      "alert": "OK",
      "vis_m": 9999,
      "fzfg": false,
      "metar_trigger": false,
      "taf_trigger": false,
      "metar": "METAR LIPQ 081250Z AUTO 33004KT 260V030 9999 NCD 23/12 Q1014",
      "taf": "TAF LIPQ 081100Z 0812/0912 VRB05KT CAVOK"
    },
    {
      "icao": "LIPR",
      "alert": "OK",
      "vis_m": 9999,
      "fzfg": false,
      "metar_trigger": false,
      "taf_trigger": false,
      "metar": "METAR LIPR 081250Z 07005KT 010V110 9999 SCT040 19/15 Q1015",
      "taf": "TAF LIPR 081100Z 0812/0912 VRB05KT 9999 SCT015"
    },
    {
      "icao": "LIPX",
      "alert": "OK",
      "vis_m": 9999,
      "fzfg": false,
      "metar_trigger": false,
      "taf_trigger": false,
      "metar": "METAR LIPX 081250Z VRB03KT 320V130 9999 SCT050 21/11 Q1015",
      "taf": "TAF LIPX 081100Z 0812/0912 VRB05KT 9999 FEW050"
    },
    {
      "icao": "LIPY",
      "alert": "OK",
      "vis_m": 9999,
      "fzfg": false,
      "metar_trigger": false,
      "taf_trigger": false,
      "metar": "METAR LIPY 081250Z AUTO 05009KT 9999 BKN180/// 20/14 Q1015",
      "taf": "TAF LIPY 081100Z 0812/0912 VRB05KT 9999 BKN020"
    },
    {
      "icao": "LIPZ",
      "alert": "OK",
      "vis_m": 9999,
      "fzfg": false,
      "metar_trigger": false,
      "taf_trigger": false,
      "metar": "METAR LIPZ 081250Z 16007KT 9999 FEW030 20/15 Q1015 NOSIG",
      "taf": "TAF LIPZ 081100Z 0812/0918 16010KT 9999 SCT020"
    },
    {
      "icao": "LIRF",
      "alert": "OK",
      "vis_m": 9999,
      "fzfg": false,
      "metar_trigger": false,
      "taf_trigger": false,
      "metar": "METAR LIRF 081250Z 17006KT 130V210 CAVOK 20/16 Q1013 NOSIG",
      "taf": "TAF LIRF 081100Z 0812/0918 22012KT 9999 SCT050"
    },
    {
      "icao": "LIRN",
      "alert": "OK",
      "vis_m": 9999,
      "fzfg": false,
      "metar_trigger": false,
      "taf_trigger": false,
      "metar": "METAR LIRN 081250Z 06008KT 010V090 9999 SCT050 SCT070 22/11 Q1012 NOSIG",
      "taf": "TAF LIRN 081100Z 0812/0912 VRB05KT 9999 SCT050"
    },
    {
      "icao": "LIRP",
      "alert": "OK",
      "vis_m": 9999,
      "fzfg": false,
      "metar_trigger": false,
      "taf_trigger": false,
      "metar": "METAR LIRP 081245Z 30007KT 9999 BKN080 22/13 Q1013 NOSIG",
      "taf": "TAF LIRP 081100Z 0812/0912 30010KT 9999 SCT050 BKN070"
    },
    {
      "icao": "LIRZ",
      "alert": "OK",
      "vis_m": 9999,
      "fzfg": false,
      "metar_trigger": false,
      "taf_trigger": false,
      "metar": "METAR LIRZ 081250Z AUTO 03015KT 9999 BKN054/// 22/11 Q1012",
      "taf": "TAF LIRZ 081100Z 0812/0912 06012KT 9999 SCT060"
    },
    {
      "icao": "LJLJ",
      "alert": "OK",
      "vis_m": 9999,
      "fzfg": false,
      "metar_trigger": false,
      "taf_trigger": false,
      "metar": "METAR LJLJ 081230Z 04001KT 9999 FEW048 SCT200 21/07 Q1016 NOSIG",
      "taf": "TAF LJLJ 081100Z 0812/0912 13005KT 9999 FEW040"
    },
    {
      "icao": "LKMT",
      "alert": "OK",
      "vis_m": 9999,
      "fzfg": false,
      "metar_trigger": false,
      "taf_trigger": false,
      "metar": "METAR LKMT 081230Z 06007KT 030V100 9999 SCT021 15/09 Q1018 NOSIG",
      "taf": "TAF LKMT 081100Z 0812/0912 01008KT 9999 BKN030"
    },
    {
      "icao": "LKPR",
      "alert": "OK",
      "vis_m": 9999,
      "fzfg": false,
      "metar_trigger": false,
      "taf_trigger": false,
      "metar": "METAR LKPR 081230Z 02008KT 360V060 9999 FEW024 BKN033 12/07 Q1018 NOSIG",
      "taf": "TAF LKPR 081100Z 0812/0918 35006KT 9999 BKN040"
    },
    {
      "icao": "LLBG",
      "alert": "OK",
      "vis_m": 9999,
      "fzfg": false,
      "metar_trigger": false,
      "taf_trigger": false,
      "metar": "METAR LLBG 081250Z 33012KT CAVOK 24/15 Q1014 NOSIG",
      "taf": "TAF LLBG 081105Z 0812/0912 33014KT CAVOK TX25/0812Z TN16/0903Z"
    },
    {
      "icao": "LMML",
      "alert": "OK",
      "vis_m": 9999,
      "fzfg": false,
      "metar_trigger": false,
      "taf_trigger": false,
      "metar": "METAR LMML 081245Z 34008KT 300V050 CAVOK 26/15 Q1012 NOSIG",
      "taf": "TAF LMML 081100Z 0812/0912 29008KT 9999 FEW010"
    },
    {
      "icao": "LOWW",
      "alert": "OK",
      "vis_m": 9999,
      "fzfg": false,
      "metar_trigger": false,
      "taf_trigger": false,
      "metar": "METAR LOWW 081250Z 33006KT 290V040 9999 FEW050 21/07 Q1016 NOSIG",
      "taf": "TAF LOWW 081115Z 0812/0918 32008KT 9999 FEW050 TX22/0814Z TN10/0904Z"
    },
    {
      "icao": "LPFR",
      "alert": "OK",
      "vis_m": 9999,
      "fzfg": false,
      "metar_trigger": false,
      "taf_trigger": false,
      "metar": "METAR LPFR 081230Z 16009KT 120V190 9999 FEW026 19/11 Q1011",
      "taf": "TAF LPFR 081100Z 0812/0912 16012KT 9999 SCT025"
    },
    {
      "icao": "LPMA",
      "alert": "OK",
      "vis_m": 9999,
      "fzfg": false,
      "metar_trigger": false,
      "taf_trigger": false,
      "metar": "METAR LPMA 081230Z 23017G27KT 200V270 9999 FEW016 20/08 Q1007",
      "taf": "TAF LPMA 081100Z 0812/0912 23013KT 9999 SCT015"
    },
    {
      "icao": "LPPR",
      "alert": "OK",
      "vis_m": 9999,
      "fzfg": false,
      "metar_trigger": false,
      "taf_trigger": false,
      "metar": "METAR LPPR 081230Z 18011KT 9999 SCT025 FEW030CB 17/10 Q1009",
      "taf": "TAF LPPR 081100Z 0812/0912 20012KT 9999 SCT020"
    },
    {
      "icao": "LPPS",
      "alert": "OK",
      "vis_m": 9999,
      "fzfg": false,
      "metar_trigger": false,
      "taf_trigger": false,
      "metar": "METAR LPPS 081230Z 27020KT 9999 SCT014 19/10 Q1008",
      "taf": "TAF LPPS 081100Z 0812/0918 27018KT 9999 SCT015"
    },
    {
      "icao": "LPPT",
      "alert": "OK",
      "vis_m": 9999,
      "fzfg": false,
      "metar_trigger": false,
      "taf_trigger": false,
      "metar": "METAR LPPT 081230Z 17013G25KT 140V230 9999 FEW030 SCT040 20/08 Q1009",
      "taf": "TAF LPPT 081100Z 0812/0918 17013KT 9999 SCT025"
    },
    {
      "icao": "LQBK",
      "alert": "OK",
      "vis_m": 9999,
      "fzfg": false,
      "metar_trigger": false,
      "taf_trigger": false,
      "metar": "METAR LQBK 081230Z VRB03KT 9999 FEW045 22/09 Q1015 NOSIG",
      "taf": "TAF LQBK 081100Z 0812/0912 34007KT 9999 SCT045 TX22/0814Z TN10/0904Z"
    },
    {
      "icao": "LQSA",
      "alert": "OK",
      "vis_m": 9999,
      "fzfg": false,
      "metar_trigger": false,
      "taf_trigger": false,
      "metar": "METAR LQSA 081230Z 00000KT 9999 FEW060 18/06 Q1015 NOSIG",
      "taf": "TAF LQSA 081100Z 0812/0912 VRB02KT 9999 SCT055 TX20/0813Z TN10/0904Z"
    },
    {
      "icao": "LQTZ",
      "alert": "OK",
      "vis_m": 9999,
      "fzfg": false,
      "metar_trigger": false,
      "taf_trigger": false,
      "metar": "METAR LQTZ 081230Z 04004KT 320V100 9999 FEW052 22/10 Q1015",
      "taf": "TAF LQTZ 081100Z 0812/0912 06006KT 9999 SCT050 TX23/0813Z TN09/0904Z"
    },
    {
      "icao": "LRBC",
      "alert": "OK",
      "vis_m": 9999,
      "fzfg": false,
      "metar_trigger": false,
      "taf_trigger": false,
      "metar": "METAR LRBC 081230Z 15015KT 9999 FEW050TCU 22/14 Q1014",
      "taf": "TAF LRBC 081100Z 0812/0821 17010KT 9999 SCT035 BKN050"
    },
    {
      "icao": "LRBS",
      "alert": "OK",
      "vis_m": 9999,
      "fzfg": false,
      "metar_trigger": false,
      "taf_trigger": false,
      "metar": "METAR LRBS 081230Z VRB03KT CAVOK 26/12 Q1014 NOSIG",
      "taf": "TAF LRBS 081100Z 0812/0912 VRB04KT 9999 SCT035"
    },
    {
      "icao": "LRBV",
      "alert": "OK",
      "vis_m": 9999,
      "fzfg": false,
      "metar_trigger": false,
      "taf_trigger": false,
      "metar": "METAR LRBV 081230Z 29007KT 260V320 9999 VCSH FEW052CB SCT060 BKN074 19/12 Q1016",
      "taf": "TAF LRBV 081100Z 0812/0821 30010KT 9999 SCT050"
    },
    {
      "icao": "LRCL",
      "alert": "OK",
      "vis_m": 9999,
      "fzfg": false,
      "metar_trigger": false,
      "taf_trigger": false,
      "metar": "METAR LRCL 081230Z 06003KT 360V130 9999 SCT025 FEW030CB 20/12 Q1015",
      "taf": "TAF LRCL 081100Z 0812/0821 VRB04KT 9999 BKN030 BKN050"
    },
    {
      "icao": "LRCV",
      "alert": "OK",
      "vis_m": 9999,
      "fzfg": false,
      "metar_trigger": false,
      "taf_trigger": false,
      "metar": "METAR LRCV 081230Z VRB02KT CAVOK 24/11 Q1014",
      "taf": "TAF LRCV 081100Z 0812/0821 VRB04KT CAVOK"
    },
    {
      "icao": "LRIA",
      "alert": "OK",
      "vis_m": 9999,
      "fzfg": false,
      "metar_trigger": false,
      "taf_trigger": false,
      "metar": "METAR LRIA 081230Z 10010KT 070V130 9999 FEW040 BKN046 23/13 Q1014",
      "taf": "TAF LRIA 081100Z 0812/0821 12010KT CAVOK"
    },
    {
      "icao": "LROP",
      "alert": "OK",
      "vis_m": 9999,
      "fzfg": false,
      "metar_trigger": false,
      "taf_trigger": false,
      "metar": "METAR LROP 081230Z 22004KT 150V300 CAVOK 26/11 Q1014 NOSIG",
      "taf": "TAF LROP 081100Z 0812/0912 VRB04KT 9999 SCT035"
    },
    {
      "icao": "LRSB",
      "alert": "OK",
      "vis_m": 9999,
      "fzfg": false,
      "metar_trigger": false,
      "taf_trigger": false,
      "metar": "METAR LRSB 081230Z 34003KT 300V060 9999 VCSH FEW035 FEW045CB BKN065 22/11 Q1015",
      "taf": "TAF LRSB 081100Z 0812/0912 VRB04KT 9999 SCT040CB"
    },
    {
      "icao": "LRSM",
      "alert": "OK",
      "vis_m": 9999,
      "fzfg": false,
      "metar_trigger": false,
      "taf_trigger": false,
      "metar": "METAR LRSM 081230Z 33016KT 9999 VCSH FEW040 SCT043CB 19/13 Q1015",
      "taf": ""
    },
    {
      "icao": "LRSV",
      "alert": "OK",
      "vis_m": 9999,
      "fzfg": false,
      "metar_trigger": false,
      "taf_trigger": false,
      "metar": "METAR LRSV 081230Z 03006KT 9999 SCT047 16/15 Q1015",
      "taf": "TAF LRSV 081100Z 0812/0821 35010KT 9999 SCT015 SCT035CB BKN045"
    },
    {
      "icao": "LRTM",
      "alert": "OK",
      "vis_m": 9999,
      "fzfg": false,
      "metar_trigger": false,
      "taf_trigger": false,
      "metar": "METAR LRTM 081230Z 35005KT 300V070 9999 FEW035 FEW038CB 22/12 Q1015",
      "taf": "TAF LRTM 081100Z 0812/0821 VRB04KT 9999 SCT030 SCT045"
    },
    {
      "icao": "LRTR",
      "alert": "OK",
      "vis_m": 9999,
      "fzfg": false,
      "metar_trigger": false,
      "taf_trigger": false,
      "metar": "METAR LRTR 081230Z 35009KT 300V020 9999 SCT040 FEW045TCU 23/12 Q1014",
      "taf": "TAF LRTR 081100Z 0812/0912 25006KT 9999 SCT030"
    },
    {
      "icao": "LTAC",
      "alert": "OK",
      "vis_m": 9999,
      "fzfg": false,
      "metar_trigger": false,
      "taf_trigger": false,
      "metar": "METAR LTAC 081250Z 36003KT 9999 SCT040 SCT100 22/04 Q1020 NOSIG RMK RWY21C 29005KT 230V320 RWY03L VRB02KT RWY21R VRB04KT RWY03R 24006KT 170V270 RWY21L VRB04KT",
      "taf": "TAF LTAC 081040Z 0812/0912 VRB02KT 9999 SCT040 SCT100"
    },
    {
      "icao": "LTFM",
      "alert": "OK",
      "vis_m": 9999,
      "fzfg": false,
      "metar_trigger": false,
      "taf_trigger": false,
      "metar": "METAR LTFM 081250Z 24016KT CAVOK 24/05 Q1017 NOSIG RMK RWY17L 24017KT RWY34L 23015KT RWY16R 23013KT RWY36 24016KT RWY18 25019KT",
      "taf": "TAF LTFM 081040Z 0812/0918 22015KT CAVOK"
    },
    {
      "icao": "LUKK",
      "alert": "OK",
      "vis_m": 9999,
      "fzfg": false,
      "metar_trigger": false,
      "taf_trigger": false,
      "metar": "METAR LUKK 081230Z 16012KT CAVOK 23/14 Q1015 NOSIG",
      "taf": "TAF LUKK 081101Z 0812/0912 18009KT 9999 SCT035"
    },
    {
      "icao": "LWOH",
      "alert": "OK",
      "vis_m": 9999,
      "fzfg": false,
      "metar_trigger": false,
      "taf_trigger": false,
      "metar": "METAR LWOH 081250Z COR 24003KT 9999 -RA FEW020 BKN040 13/10 Q1016",
      "taf": "TAF LWOH 081130Z 0812/0912 32008KT 9999 SCT040 BKN080"
    },
    {
      "icao": "LWSK",
      "alert": "OK",
      "vis_m": 9999,
      "fzfg": false,
      "metar_trigger": false,
      "taf_trigger": false,
      "metar": "METAR LWSK 081250Z 11015KT 070V150 9999 BKN035 BKN080 20/13 Q1015 NOSIG",
      "taf": "TAF LWSK 081130Z 0812/0912 16008KT 9999 SCT040 BKN080"
    },
    {
      "icao": "LYBE",
      "alert": "OK",
      "vis_m": 9999,
      "fzfg": false,
      "metar_trigger": false,
      "taf_trigger": false,
      "metar": "METAR LYBE 081230Z 33005KT 270V030 CAVOK 23/11 Q1015 NOSIG",
      "taf": "TAF LYBE 081100Z 0812/0912 30005KT 9999 BKN040 TX25/0813Z TN13/0903Z"
    },
    {
      "icao": "LYNI",
      "alert": "OK",
      "vis_m": 9999,
      "fzfg": false,
      "metar_trigger": false,
      "taf_trigger": false,
      "metar": "METAR LYNI 081230Z 19005KT 140V240 9999 FEW043 22/13 Q1014 TEMPO 22015KT SHRA FEW043TCU SCT060",
      "taf": ""
    },
    {
      "icao": "LYPG",
      "alert": "OK",
      "vis_m": 9999,
      "fzfg": false,
      "metar_trigger": false,
      "taf_trigger": false,
      "metar": "METAR LYPG 081230Z 15003KT 120V190 9999 FEW050 BKN090 20/09 Q1013 NOSIG",
      "taf": "TAF LYPG 081100Z 0812/0912 16007KT 9999 FEW050 BKN080 TX23/0813Z TN15/0906Z"
    },
    {
      "icao": "LZIB",
      "alert": "OK",
      "vis_m": 9999,
      "fzfg": false,
      "metar_trigger": false,
      "taf_trigger": false,
      "metar": "METAR LZIB 081230Z 27009KT 210V310 CAVOK 21/07 Q1016 NOSIG",
      "taf": "TAF LZIB 081115Z 0812/0912 30007KT CAVOK"
    },
    {
      "icao": "LZKZ",
      "alert": "OK",
      "vis_m": 9999,
      "fzfg": false,
      "metar_trigger": false,
      "taf_trigger": false,
      "metar": "METAR LZKZ 081230Z 33004KT 290V020 9999 FEW030 17/12 Q1016 NOSIG",
      "taf": "TAF LZKZ 081115Z 0812/0912 01008KT 9999 FEW040"
    },
    {
      "icao": "LZTT",
      "alert": "OK",
      "vis_m": 9999,
      "fzfg": false,
      "metar_trigger": false,
      "taf_trigger": false,
      "metar": "METAR LZTT 081230Z 14006KT 080V200 9999 FEW023 FEW030CB 16/10 Q1016 NOSIG",
      "taf": ""
    },
    {
      "icao": "OEJN",
      "alert": "OK",
      "vis_m": 9999,
      "fzfg": false,
      "metar_trigger": false,
      "taf_trigger": false,
      "metar": "METAR OEJN 081300Z 32015KT CAVOK 33/17 Q1006 NOSIG",
      "taf": "TAF OEJN 081100Z 0812/0918 34014KT 9999 FEW040"
    },
    {
      "icao": "OEMA",
      "alert": "OK",
      "vis_m": 9999,
      "fzfg": false,
      "metar_trigger": false,
      "taf_trigger": false,
      "metar": "METAR OEMA 081300Z 24007KT 9999 FEW040 39/M05 Q1009 NOSIG",
      "taf": "TAF OEMA 081100Z 0812/0918 24015KT 9999 SCT040"
    },
    {
      "icao": "OJAI",
      "alert": "OK",
      "vis_m": 5000,
      "fzfg": false,
      "metar_trigger": false,
      "taf_trigger": false,
      "metar": "METAR OJAI 081200Z 15004KT 5000 HZ NSC 29/06 Q1017 NOSIG",
      "taf": "TAF OJAI 081030Z 0812/0918 15006KT 5000 HZ NSC"
    },
    {
      "icao": "OMAA",
      "alert": "OK",
      "vis_m": 9999,
      "fzfg": false,
      "metar_trigger": false,
      "taf_trigger": false,
      "metar": "METAR OMAA 081300Z 29010KT CAVOK 35/17 Q1005 NOSIG",
      "taf": "TAF OMAA 081100Z 0812/0918 30012KT 8000 NSC"
    },
    {
      "icao": "OMDB",
      "alert": "OK",
      "vis_m": 9999,
      "fzfg": false,
      "metar_trigger": false,
      "taf_trigger": false,
      "metar": "METAR OMDB 081300Z 26008KT 160V330 CAVOK 35/22 Q1005 NOSIG",
      "taf": "TAF OMDB 081100Z 0812/0918 28012KT CAVOK"
    },
    {
      "icao": "UAAA",
      "alert": "OK",
      "vis_m": 9999,
      "fzfg": false,
      "metar_trigger": false,
      "taf_trigger": false,
      "metar": "METAR UAAA 081230Z 00000MPS 9999 SCT050CB BKN200 31/05 Q1014 NOSIG",
      "taf": "TAF UAAA 081102Z 0812/0912 17003MPS 9999 SCT050CB BKN100 TX30/0910Z TN16/0900Z"
    },
    {
      "icao": "UBBB",
      "alert": "OK",
      "vis_m": 9999,
      "fzfg": false,
      "metar_trigger": false,
      "taf_trigger": false,
      "metar": "METAR UBBB 081230Z 04008KT CAVOK 21/08 Q1017 NOSIG",
      "taf": "TAF UBBB 081059Z 0812/0912 04006KT 9999 FEW050CB TX22/0812Z TN12/0901Z"
    },
    {
      "icao": "UDSG",
      "alert": "OK",
      "vis_m": 9999,
      "fzfg": false,
      "metar_trigger": false,
      "taf_trigger": false,
      "metar": "METAR UDSG 081230Z 23006KT 9999 TS BKN036CB 12/01 Q1021 TEMPO -TSRA",
      "taf": "TAF UDSG 081100Z 0812/0912 VRB06KT 9999 SCT050"
    },
    {
      "icao": "UDYZ",
      "alert": "OK",
      "vis_m": 9999,
      "fzfg": false,
      "metar_trigger": false,
      "taf_trigger": false,
      "metar": "METAR UDYZ 081230Z 03014KT 9999 BKN043CB 20/04 Q1017 NOSIG",
      "taf": "TAF UDYZ 081100Z 0812/0912 04006KT 9999 SCT040"
    },
    {
      "icao": "UGKO",
      "alert": "OK",
      "vis_m": 9999,
      "fzfg": false,
      "metar_trigger": false,
      "taf_trigger": false,
      "metar": "METAR UGKO 081230Z 28010KT 240V310 CAVOK 22/10 Q1018 NOSIG",
      "taf": "TAF UGKO 081100Z 0812/0912 27007KT CAVOK TX26/0912Z TN08/0902Z"
    }
  ]
}