{
  "ts_utc": "2026-01-31T11:59:19Z",
  "threshold_m": 150,
  "source": "stations_override.txt (ICAO list) + aviationweather.gov (METAR/TAF raw)",
  "station_count": 159,
  "stations": [
    {
      "icao": "BIKF",
      "alert": "OK",
      "vis_m": 9999,
      "fzfg": false,
      "metar_trigger": false,
      "taf_trigger": false,
      "metar": "METAR BIKF 311130Z 04007KT 9999 BKN036 02/01 Q1002",
      "taf": "TAF BIKF 311049Z 3112/0112 04008KT 9999 BKN030 TX03/3115Z TN03/0112Z"
    },
    {
      "icao": "BKPR",
      "alert": "OK",
      "vis_m": null,
      "fzfg": false,
      "metar_trigger": false,
      "taf_trigger": false,
      "metar": "",
      "taf": "TAF BKPR 311130Z 3112/0112 02008KT 9999 BKN040"
    },
    {
      "icao": "EBCI",
      "alert": "OK",
      "vis_m": 9999,
      "fzfg": false,
      "metar_trigger": false,
      "taf_trigger": false,
      "metar": "METAR EBCI 311150Z 19006KT 9999 SCT014 SCT038 10/06 Q1001 NOSIG",
      "taf": "TAF EBCI 311120Z 3112/0118 19007KT 9999 SCT013"
    },
    {
      "icao": "EDDB",
      "alert": "OK",
      "vis_m": 9000,
      "fzfg": false,
      "metar_trigger": false,
      "taf_trigger": false,
      "metar": "METAR EDDB 311150Z AUTO 08010KT 9000 OVC012 M05/M07 Q1011 BECMG BKN015",
      "taf": "TAF EDDB 311100Z 3112/0112 08012KT 9000 OVC011"
    },
    {
      "icao": "EDDH",
      "alert": "OK",
      "vis_m": 9000,
      "fzfg": false,
      "metar_trigger": false,
      "taf_trigger": false,
      "metar": "METAR EDDH 311150Z AUTO 11010KT 080V140 9000 OVC011 M02/M05 Q1009 TEMPO OVC009",
      "taf": "TAF EDDH 311100Z 3112/0118 10011KT 8000 OVC008"
    },
    {
      "icao": "EDDK",
      "alert": "OK",
      "vis_m": 9999,
      "fzfg": false,
      "metar_trigger": false,
      "taf_trigger": false,
      "metar": "METAR EDDK 311150Z AUTO 12008KT 080V140 9999 SHRA FEW029 BKN046 FEW///TCU 06/03 Q1003 TEMPO RA",
      "taf": "TAF EDDK 311100Z 3112/0118 12008KT 9999 SCT012 BKN030"
    },
    {
      "icao": "EDDN",
      "alert": "OK",
      "vis_m": 9999,
      "fzfg": false,
      "metar_trigger": false,
      "taf_trigger": false,
      "metar": "METAR EDDN 311150Z AUTO 12008KT 9999 BKN018 OVC027 02/M01 Q1004 NOSIG",
      "taf": "TAF EDDN 311100Z 3112/0112 12004KT 9999 OVC020"
    },
    {
      "icao": "EDDS",
      "alert": "OK",
      "vis_m": 4400,
      "fzfg": false,
      "metar_trigger": false,
      "taf_trigger": false,
      "metar": "METAR EDDS 311150Z AUTO VRB02KT 4400 BR OVC002 02/02 Q1002 BECMG 9999 SCT002",
      "taf": "TAF EDDS 311100Z 3112/0112 VRB02KT 0400 FG OVC002"
    },
    {
      "icao": "EDFH",
      "alert": "OK",
      "vis_m": 500,
      "fzfg": false,
      "metar_trigger": false,
      "taf_trigger": false,
      "metar": "METAR EDFH 311150Z 14012KT 0500 R21/1000U FG OVC001 02/02 Q1002",
      "taf": "TAF EDFH 311100Z 3112/0112 14011KT 0300 FG VV002"
    },
    {
      "icao": "EDJA",
      "alert": "OK",
      "vis_m": 400,
      "fzfg": true,
      "metar_trigger": false,
      "taf_trigger": false,
      "metar": "METAR EDJA 311150Z 07003KT 0400 R06/0500D FZFG VV/// M00/M01 Q1002",
      "taf": "TAF EDJA 311100Z 3112/3121 05005KT 0300 FZFG VV001"
    },
    {
      "icao": "EDLW",
      "alert": "OK",
      "vis_m": 9999,
      "fzfg": false,
      "metar_trigger": false,
      "taf_trigger": false,
      "metar": "METAR EDLW 311120Z 11004KT 090V150 9999 FEW020 07/03 Q1002",
      "taf": "TAF EDLW 311100Z 3112/0112 11005KT 9999 SCT045"
    },
    {
      "icao": "EDNY",
      "alert": "OK",
      "vis_m": 9999,
      "fzfg": false,
      "metar_trigger": false,
      "taf_trigger": false,
      "metar": "METAR EDNY 311150Z VRB02KT 9999 SCT011 05/03 Q1002",
      "taf": "TAF EDNY 311100Z 3112/3121 VRB03KT 9999 BKN007"
    },
    {
      "icao": "EDSB",
      "alert": "OK",
      "vis_m": 400,
      "fzfg": false,
      "metar_trigger": false,
      "taf_trigger": false,
      "metar": "METAR EDSB 311150Z VRB02KT 0400 R21/0600U FG VV/// 03/03 Q1003",
      "taf": "TAF EDSB 311100Z 3112/0112 VRB03KT 0400 FG VV002"
    },
    {
      "icao": "EETN",
      "alert": "OK",
      "vis_m": 9999,
      "fzfg": false,
      "metar_trigger": false,
      "taf_trigger": false,
      "metar": "METAR EETN 311150Z 08008KT 9999 BKN011 M11/M12 Q1031 NOSIG",
      "taf": "TAF EETN 311130Z 3112/0112 08010KT 9999 SCT015"
    },
    {
      "icao": "EFTU",
      "alert": "OK",
      "vis_m": 9999,
      "fzfg": false,
      "metar_trigger": false,
      "taf_trigger": false,
      "metar": "METAR EFTU 311150Z AUTO 09005KT CAVOK M13/M16 Q1032",
      "taf": "TAF EFTU 311132Z 3112/0112 09006KT CAVOK"
    },
    {
      "icao": "EGBB",
      "alert": "OK",
      "vis_m": 9999,
      "fzfg": false,
      "metar_trigger": false,
      "taf_trigger": false,
      "metar": "METAR EGBB 311150Z 16010KT 9999 FEW016 08/05 Q0995",
      "taf": "TAF EGBB 311056Z 3112/0112 17007KT 9999 FEW030"
    },
    {
      "icao": "EGGP",
      "alert": "OK",
      "vis_m": 9999,
      "fzfg": false,
      "metar_trigger": false,
      "taf_trigger": false,
      "metar": "METAR EGGP 311150Z 16013G23KT 9999 SCT015 BKN032 08/05 Q0993",
      "taf": "TAF EGGP 311104Z 3112/0112 15012KT 9999 BKN020"
    },
    {
      "icao": "EGGW",
      "alert": "OK",
      "vis_m": 9999,
      "fzfg": false,
      "metar_trigger": false,
      "taf_trigger": false,
      "metar": "METAR EGGW 311150Z AUTO 19007KT 160V230 9999 OVC011 08/06 Q0997",
      "taf": "TAF EGGW 311101Z 3112/0112 17008KT 9999 FEW010 SCT030"
    },
    {
      "icao": "EGKK",
      "alert": "OK",
      "vis_m": 9999,
      "fzfg": false,
      "metar_trigger": false,
      "taf_trigger": false,
      "metar": "METAR EGKK 311150Z 18006KT 9999 SCT015 10/07 Q0998",
      "taf": "TAF EGKK 311057Z 3112/0118 17006KT 9999 SCT015"
    },
    {
      "icao": "EGNM",
      "alert": "OK",
      "vis_m": 8000,
      "fzfg": false,
      "metar_trigger": false,
      "taf_trigger": false,
      "metar": "METAR EGNM 311150Z 14009KT 8000 BKN006 06/05 Q0995",
      "taf": "TAF EGNM 311105Z 3112/0112 14010KT 9999 SCT004 BKN006"
    },
    {
      "icao": "EGPD",
      "alert": "OK",
      "vis_m": 2200,
      "fzfg": false,
      "metar_trigger": false,
      "taf_trigger": false,
      "metar": "METAR EGPD 311150Z 12011G22KT 2200 -RA DZ BKN005 05/04 Q0999 TEMPO 4000 BKN007",
      "taf": "TAF EGPD 311059Z 3112/0112 12012KT 9999 BKN012"
    },
    {
      "icao": "EGPF",
      "alert": "OK",
      "vis_m": 9999,
      "fzfg": false,
      "metar_trigger": false,
      "taf_trigger": false,
      "metar": "METAR EGPF 311150Z AUTO 06015KT 9999 -RA FEW013 BKN022 07/05 Q0994",
      "taf": "TAF EGPF 311055Z 3112/0112 08012KT 9999 BKN018"
    },
    {
      "icao": "EHBK",
      "alert": "OK",
      "vis_m": 9999,
      "fzfg": false,
      "metar_trigger": false,
      "taf_trigger": false,
      "metar": "METAR EHBK 311155Z AUTO 21007KT 9999 -RADZ SCT013/// OVC016/// 09/07 Q1001 REDZRA NOSIG",
      "taf": "TAF EHBK 311122Z 3112/0118 16006KT 9999 BKN040"
    },
    {
      "icao": "EHEH",
      "alert": "OK",
      "vis_m": null,
      "fzfg": false,
      "metar_trigger": false,
      "taf_trigger": false,
      "metar": "",
      "taf": "TAF EHEH 310547Z 3106/0112 14008KT 6000 BR BKN020"
    },
    {
      "icao": "EKBI",
      "alert": "OK",
      "vis_m": 9999,
      "fzfg": false,
      "metar_trigger": false,
      "taf_trigger": false,
      "metar": "METAR EKBI 311150Z AUTO 10021G33KT 9999 SCT023/// BKN054/// BKN084/// M00/M04 Q1011",
      "taf": "TAF EKBI 311127Z 3112/0112 10020KT 9999 SCT020"
    },
    {
      "icao": "EKCH",
      "alert": "OK",
      "vis_m": 9999,
      "fzfg": false,
      "metar_trigger": false,
      "taf_trigger": false,
      "metar": "METAR EKCH 311149Z 11021G32KT 9999 SCT017 BKN024 M02/M07 Q1017 TEMPO 09020G30KT",
      "taf": "TAF EKCH 311127Z 3112/0112 10018KT 9999 SCT020"
    },
    {
      "icao": "ENAL",
      "alert": "OK",
      "vis_m": 9999,
      "fzfg": false,
      "metar_trigger": false,
      "taf_trigger": false,
      "metar": "METAR ENAL 311150Z 13014KT CAVOK 00/M13 Q1014",
      "taf": "TAF ENAL 311100Z 3112/3121 14012KT CAVOK"
    },
    {
      "icao": "ENBR",
      "alert": "OK",
      "vis_m": 9999,
      "fzfg": false,
      "metar_trigger": false,
      "taf_trigger": false,
      "metar": "METAR ENBR 311150Z 10006KT 060V120 9999 BKN045 M01/M13 Q1014 NOSIG RMK WIND 1200FT 12013KT",
      "taf": "TAF ENBR 311100Z 3112/0112 VRB04KT CAVOK"
    },
    {
      "icao": "ENGM",
      "alert": "OK",
      "vis_m": 9999,
      "fzfg": false,
      "metar_trigger": false,
      "taf_trigger": false,
      "metar": "METAR ENGM 311150Z VRB06KT 9999 -SN OVC026 M06/M10 Q1022 NOSIG",
      "taf": "TAF ENGM 311100Z 3112/0112 04007KT 9999 -SN FEW020 BKN030"
    },
    {
      "icao": "ENHD",
      "alert": "OK",
      "vis_m": 9999,
      "fzfg": false,
      "metar_trigger": false,
      "taf_trigger": false,
      "metar": "METAR ENHD 311150Z 09019KT CAVOK M02/M08 Q1013",
      "taf": "TAF ENHD 311100Z 3112/3121 09018KT CAVOK"
    },
    {
      "icao": "ENTC",
      "alert": "OK",
      "vis_m": 9999,
      "fzfg": false,
      "metar_trigger": false,
      "taf_trigger": false,
      "metar": "METAR ENTC 311150Z 19018KT CAVOK M08/M14 Q1019 NOSIG RMK WIND 2600FT 20016KT",
      "taf": "TAF ENTC 311100Z 3112/0112 20020KT CAVOK"
    },
    {
      "icao": "ENTO",
      "alert": "OK",
      "vis_m": 9999,
      "fzfg": false,
      "metar_trigger": false,
      "taf_trigger": false,
      "metar": "METAR ENTO 311150Z 10006KT 060V140 9999 -SN BKN026 OVC031 M04/M09 Q1021 NOSIG",
      "taf": "TAF ENTO 311100Z 3112/0112 10008KT 9999 -SN SCT020 BKN035"
    },
    {
      "icao": "ENVA",
      "alert": "OK",
      "vis_m": 9999,
      "fzfg": false,
      "metar_trigger": false,
      "taf_trigger": false,
      "metar": "METAR ENVA 311150Z 14010KT 100V220 CAVOK M04/M14 Q1018 TEMPO 15018G30KT RMK WIND 670FT 16022G36KT",
      "taf": "TAF ENVA 311100Z 3112/0112 12012KT CAVOK"
    },
    {
      "icao": "ENZV",
      "alert": "OK",
      "vis_m": 9999,
      "fzfg": false,
      "metar_trigger": false,
      "taf_trigger": false,
      "metar": "METAR ENZV 311150Z 10009KT 9999 OVC041 M00/M10 Q1013 TEMPO 11018G28KT",
      "taf": "TAF ENZV 311100Z 3112/0112 09015KT CAVOK"
    },
    {
      "icao": "EPGD",
      "alert": "OK",
      "vis_m": 9999,
      "fzfg": false,
      "metar_trigger": false,
      "taf_trigger": false,
      "metar": "METAR EPGD 311130Z 12015KT CAVOK M10/M17 Q1020",
      "taf": "TAF EPGD 311130Z 3112/0112 11013KT CAVOK"
    },
    {
      "icao": "EPKK",
      "alert": "OK",
      "vis_m": 9999,
      "fzfg": false,
      "metar_trigger": false,
      "taf_trigger": false,
      "metar": "METAR EPKK 311130Z 06013KT 9999 -SN OVC011 M08/M11 Q1011",
      "taf": "TAF EPKK 311130Z 3112/0112 07015KT 9999 SCT008 OVC011"
    },
    {
      "icao": "EPKT",
      "alert": "OK",
      "vis_m": 9999,
      "fzfg": false,
      "metar_trigger": false,
      "taf_trigger": false,
      "metar": "METAR EPKT 311130Z 05013KT 9999 FEW017 M07/M11 Q1011",
      "taf": "TAF EPKT 311130Z 3112/0112 07013KT CAVOK"
    },
    {
      "icao": "EPLB",
      "alert": "OK",
      "vis_m": 9999,
      "fzfg": false,
      "metar_trigger": false,
      "taf_trigger": false,
      "metar": "METAR EPLB 311130Z 06010KT CAVOK M11/M15 Q1016",
      "taf": "TAF EPLB 311130Z 3112/0112 07012KT CAVOK"
    },
    {
      "icao": "EPMO",
      "alert": "OK",
      "vis_m": 9999,
      "fzfg": false,
      "metar_trigger": false,
      "taf_trigger": false,
      "metar": "METAR EPMO 311130Z 07016KT CAVOK M10/M14 Q1018",
      "taf": "TAF EPMO 311130Z 3112/0112 08014KT CAVOK"
    },
    {
      "icao": "EPPO",
      "alert": "OK",
      "vis_m": 9999,
      "fzfg": false,
      "metar_trigger": false,
      "taf_trigger": false,
      "metar": "METAR EPPO 311130Z 08015KT CAVOK M08/M13 Q1015",
      "taf": "TAF EPPO 311130Z 3112/0112 09015KT CAVOK"
    },
    {
      "icao": "EPRA",
      "alert": "OK",
      "vis_m": 9999,
      "fzfg": false,
      "metar_trigger": false,
      "taf_trigger": false,
      "metar": "METAR EPRA 311130Z 07012KT CAVOK M11/M16 Q1016",
      "taf": "TAF EPRA 311130Z 3112/3121 08011KT CAVOK"
    },
    {
      "icao": "EPRZ",
      "alert": "OK",
      "vis_m": 9999,
      "fzfg": false,
      "metar_trigger": false,
      "taf_trigger": false,
      "metar": "METAR EPRZ 311130Z 05010KT 9999 FEW020 OVC036 M10/M14 Q1013",
      "taf": "TAF EPRZ 311130Z 3112/0112 06013KT 9999 BKN035"
    },
    {
      "icao": "EPSC",
      "alert": "OK",
      "vis_m": 9999,
      "fzfg": false,
      "metar_trigger": false,
      "taf_trigger": false,
      "metar": "METAR EPSC 311130Z 09011KT 9999 FEW013 M08/M10 Q1015",
      "taf": "TAF EPSC 311130Z 3112/0112 10011KT 9999 BKN044"
    },
    {
      "icao": "EPSY",
      "alert": "OK",
      "vis_m": 9999,
      "fzfg": false,
      "metar_trigger": false,
      "taf_trigger": false,
      "metar": "METAR EPSY 311130Z 08010KT 050V130 CAVOK M09/M19 Q1020",
      "taf": "TAF EPSY 311130Z 3112/3121 09008KT CAVOK"
    },
    {
      "icao": "EPWA",
      "alert": "OK",
      "vis_m": 9999,
      "fzfg": false,
      "metar_trigger": false,
      "taf_trigger": false,
      "metar": "METAR EPWA 311130Z 08011KT CAVOK M09/M15 Q1018 NOSIG",
      "taf": "TAF EPWA 311130Z 3112/0112 08014KT CAVOK"
    },
    {
      "icao": "EPWR",
      "alert": "OK",
      "vis_m": 9999,
      "fzfg": false,
      "metar_trigger": false,
      "taf_trigger": false,
      "metar": "METAR EPWR 311130Z 10013KT 9999 OVC022 M05/M10 Q1012",
      "taf": "TAF EPWR 311130Z 3112/0112 09012KT 9999 OVC021"
    },
    {
      "icao": "ESGG",
      "alert": "OK",
      "vis_m": 9999,
      "fzfg": false,
      "metar_trigger": false,
      "taf_trigger": false,
      "metar": "METAR ESGG 311150Z 11010KT CAVOK M03/M10 Q1018",
      "taf": "TAF ESGG 311130Z 3112/0112 12010KT CAVOK"
    },
    {
      "icao": "ESKN",
      "alert": "OK",
      "vis_m": 9999,
      "fzfg": false,
      "metar_trigger": false,
      "taf_trigger": false,
      "metar": "METAR ESKN 311150Z 13014KT CAVOK M02/M09 Q1027",
      "taf": "TAF ESKN 311130Z 3112/0112 12010G20KT CAVOK"
    },
    {
      "icao": "ESMS",
      "alert": "OK",
      "vis_m": 9999,
      "fzfg": false,
      "metar_trigger": false,
      "taf_trigger": false,
      "metar": "METAR ESMS 311150Z 11018G29KT 9999 FEW022 M03/M08 Q1016",
      "taf": "TAF ESMS 311127Z 3112/0112 10018KT 9999 SCT020"
    },
    {
      "icao": "ESSA",
      "alert": "OK",
      "vis_m": 9999,
      "fzfg": false,
      "metar_trigger": false,
      "taf_trigger": false,
      "metar": "METAR ESSA 311150Z 12008KT 9999 FEW032 M03/M08 Q1028 NOSIG",
      "taf": "TAF ESSA 311130Z 3112/0112 13010KT CAVOK"
    },
    {
      "icao": "EYKA",
      "alert": "OK",
      "vis_m": 9999,
      "fzfg": false,
      "metar_trigger": false,
      "taf_trigger": false,
      "metar": "METAR EYKA 311150Z 35004KT CAVOK M14/M19 Q1025",
      "taf": "TAF EYKA 311100Z 3112/0112 VRB04KT 9000 NSC"
    },
    {
      "icao": "EYPA",
      "alert": "OK",
      "vis_m": 9999,
      "fzfg": false,
      "metar_trigger": false,
      "taf_trigger": false,
      "metar": "METAR EYPA 311150Z 08005KT CAVOK M07/M21 Q1026",
      "taf": "TAF EYPA 311100Z 3112/0112 08007KT 9000 NSC"
    },
    {
      "icao": "EYVI",
      "alert": "OK",
      "vis_m": 9999,
      "fzfg": false,
      "metar_trigger": false,
      "taf_trigger": false,
      "metar": "METAR EYVI 311150Z 02005KT CAVOK M12/M17 Q1023 NOSIG",
      "taf": "TAF EYVI 311100Z 3112/0112 VRB04KT 8000 NSC"
    },
    {
      "icao": "GCFV",
      "alert": "OK",
      "vis_m": 9999,
      "fzfg": false,
      "metar_trigger": false,
      "taf_trigger": false,
      "metar": "METAR GCFV 311130Z 01012KT 340V040 9999 FEW015 BKN020 19/16 Q1024",
      "taf": ""
    },
    {
      "icao": "GCLP",
      "alert": "OK",
      "vis_m": 9999,
      "fzfg": false,
      "metar_trigger": false,
      "taf_trigger": false,
      "metar": "METAR GCLP 311130Z 02024KT 9999 FEW015 SCT020 21/16 Q1024 NOSIG",
      "taf": "TAF GCLP 310800Z 3109/0109 01020KT 9999 SCT025 TX22/3114Z TN16/0106Z"
    },
    {
      "icao": "GCTS",
      "alert": "OK",
      "vis_m": 9999,
      "fzfg": false,
      "metar_trigger": false,
      "taf_trigger": false,
      "metar": "METAR GCTS 311130Z 11012KT 9999 FEW020 22/15 Q1025 NOSIG",
      "taf": "TAF GCTS 310800Z 3109/0109 03007KT 9999 FEW025 TX23/3114Z TN14/0106Z"
    },
    {
      "icao": "GMAD",
      "alert": "OK",
      "vis_m": 5000,
      "fzfg": false,
      "metar_trigger": false,
      "taf_trigger": false,
      "metar": "METAR GMAD 311130Z 00000KT 5000 BKN016 18/18 Q1022 NOSIG",
      "taf": "TAF GMAD 311100Z 3112/0118 22008KT 8000 SCT020"
    },
    {
      "icao": "GMMN",
      "alert": "OK",
      "vis_m": 9999,
      "fzfg": false,
      "metar_trigger": false,
      "taf_trigger": false,
      "metar": "METAR GMMN 311130Z 01003KT 310V060 9999 SCT010 SCT020 17/14 Q1024 NOSIG",
      "taf": "TAF GMMN 311100Z 3112/0118 VRB02KT 9999 SCT010 SCT020"
    },
    {
      "icao": "GMMX",
      "alert": "OK",
      "vis_m": 9999,
      "fzfg": false,
      "metar_trigger": false,
      "taf_trigger": false,
      "metar": "METAR GMMX 311130Z 05006KT 020V090 9999 SCT023 17/13 Q1023 NOSIG",
      "taf": "TAF GMMX 311100Z 3112/0118 06006KT 8000 SCT023"
    },
    {
      "icao": "HEGN",
      "alert": "OK",
      "vis_m": 9999,
      "fzfg": false,
      "metar_trigger": false,
      "taf_trigger": false,
      "metar": "METAR HEGN 311100Z 12005KT CAVOK 26/13 Q1014 NOSIG",
      "taf": "TAF HEGN 311100Z 3112/0118 11008KT CAVOK"
    },
    {
      "icao": "HEMA",
      "alert": "OK",
      "vis_m": 9999,
      "fzfg": false,
      "metar_trigger": false,
      "taf_trigger": false,
      "metar": "METAR HEMA 311100Z 00000KT CAVOK 27/03 Q1015 NOSIG",
      "taf": "TAF HEMA 311100Z 3112/0118 10008KT CAVOK"
    },
    {
      "icao": "HESH",
      "alert": "OK",
      "vis_m": 9999,
      "fzfg": false,
      "metar_trigger": false,
      "taf_trigger": false,
      "metar": "METAR HESH 311100Z 14006KT CAVOK 25/14 Q1015 NOSIG",
      "taf": "TAF HESH 311100Z 3112/0118 15008KT CAVOK"
    },
    {
      "icao": "HESX",
      "alert": "OK",
      "vis_m": 6000,
      "fzfg": false,
      "metar_trigger": false,
      "taf_trigger": false,
      "metar": "METAR HESX 311100Z 20016KT 6000 NSC 25/01 Q1012 NOSIG",
      "taf": "TAF HESX 311100Z 3112/0118 20017KT 6000 NSC"
    },
    {
      "icao": "LATI",
      "alert": "OK",
      "vis_m": 9999,
      "fzfg": false,
      "metar_trigger": false,
      "taf_trigger": false,
      "metar": "METAR LATI 311150Z 25004KT 9999 FEW038 13/03 Q1003 NOSIG",
      "taf": "TAF LATI 311100Z 3112/0112 VRB05KT 9999 FEW050 SCT090 TX15/3112Z TN04/0105Z"
    },
    {
      "icao": "LBPD",
      "alert": "OK",
      "vis_m": 6000,
      "fzfg": false,
      "metar_trigger": false,
      "taf_trigger": false,
      "metar": "METAR LBPD 311130Z AUTO 10003KT 6000 OVC005/// 06/06 Q1004 NOSIG",
      "taf": "TAF LBPD 311100Z 3112/0112 10010KT 7000 OVC005"
    },
    {
      "icao": "LBSF",
      "alert": "OK",
      "vis_m": 9999,
      "fzfg": false,
      "metar_trigger": false,
      "taf_trigger": false,
      "metar": "METAR LBSF 311130Z 08006KT 9999 FEW021 OVC027 08/03 Q1003 NOSIG",
      "taf": "TAF LBSF 311100Z 3112/0112 11010KT 9999 SCT004 SCT015 OVC030"
    },
    {
      "icao": "LBWN",
      "alert": "OK",
      "vis_m": 9999,
      "fzfg": false,
      "metar_trigger": false,
      "taf_trigger": false,
      "metar": "METAR LBWN 311130Z 13004KT 110V170 9999 OVC020 04/01 Q1006 NOSIG",
      "taf": "TAF LBWN 311100Z 3112/0112 03010KT 9999 BKN020 OVC035"
    },
    {
      "icao": "LCLK",
      "alert": "OK",
      "vis_m": 9999,
      "fzfg": false,
      "metar_trigger": false,
      "taf_trigger": false,
      "metar": "METAR LCLK 311130Z 20014KT 9999 FEW011 SCT028 20/17 Q1009 TEMPO BKN012",
      "taf": "TAF LCLK 311130Z 3112/0112 22014KT 9999 FEW012 SCT020"
    },
    {
      "icao": "LCPH",
      "alert": "OK",
      "vis_m": 9999,
      "fzfg": false,
      "metar_trigger": false,
      "taf_trigger": false,
      "metar": "METAR LCPH 311130Z AUTO 15008KT 100V160 9999 OVC075 19/15 Q1009 NOSIG",
      "taf": "TAF LCPH 311130Z 3112/0112 14010KT 7000 BR FEW015 SCT045"
    },
    {
      "icao": "LEAL",
      "alert": "OK",
      "vis_m": 9999,
      "fzfg": false,
      "metar_trigger": false,
      "taf_trigger": false,
      "metar": "METAR LEAL 311130Z 29030G43KT 260V320 9999 FEW025 16/03 Q1011 NOSIG",
      "taf": "TAF LEAL 311100Z 3112/0112 30020KT 9999 FEW010 TX18/3114Z TN10/0106Z"
    },
    {
      "icao": "LEBB",
      "alert": "OK",
      "vis_m": 9999,
      "fzfg": false,
      "metar_trigger": false,
      "taf_trigger": false,
      "metar": "METAR LEBB 311130Z 26010G22KT 210V300 9999 -RA BKN032 BKN041 OVC048 10/07 Q1010 TEMPO 3000 SHRA SCT035TCU",
      "taf": "TAF LEBB 311100Z 3112/0112 28009KT 9999 FEW030 BKN050 TX13/3113Z TN07/0106Z"
    },
    {
      "icao": "LEBL",
      "alert": "OK",
      "vis_m": 9999,
      "fzfg": false,
      "metar_trigger": false,
      "taf_trigger": false,
      "metar": "METAR LEBL 311130Z 32020G34KT CAVOK 15/03 Q1003 NOSIG",
      "taf": "TAF LEBL 311100Z 3112/0112 32009KT CAVOK TX16/3112Z TN07/0106Z"
    },
    {
      "icao": "LECH",
      "alert": "OK",
      "vis_m": 9000,
      "fzfg": false,
      "metar_trigger": false,
      "taf_trigger": false,
      "metar": "METAR LECH 311130Z AUTO 32033G49KT 280V010 9000 NCD 13/M03 Q1004",
      "taf": ""
    },
    {
      "icao": "LEMD",
      "alert": "OK",
      "vis_m": 9999,
      "fzfg": false,
      "metar_trigger": false,
      "taf_trigger": false,
      "metar": "METAR LEMD 311130Z 28020KT 9999 FEW042 10/01 Q1014 NOSIG",
      "taf": "TAF LEMD 311100Z 3112/0118 27015KT CAVOK TX12/3115Z TN02/0104Z"
    },
    {
      "icao": "LEMG",
      "alert": "OK",
      "vis_m": 9999,
      "fzfg": false,
      "metar_trigger": false,
      "taf_trigger": false,
      "metar": "METAR LEMG 311130Z 30018KT 9999 FEW041 14/05 Q1020 NOSIG",
      "taf": "TAF LEMG 311100Z 3112/0112 30015KT 9999 FEW045 TX18/3115Z TN12/0106Z"
    },
    {
      "icao": "LEVC",
      "alert": "OK",
      "vis_m": 9999,
      "fzfg": false,
      "metar_trigger": false,
      "taf_trigger": false,
      "metar": "METAR LEVC 311130Z 30032G43KT CAVOK 16/00 Q1008 NOSIG",
      "taf": "TAF LEVC 311100Z 3112/0112 30022KT CAVOK TX18/3114Z TN10/0106Z"
    },
    {
      "icao": "LEXJ",
      "alert": "OK",
      "vis_m": 9999,
      "fzfg": false,
      "metar_trigger": false,
      "taf_trigger": false,
      "metar": "METAR LEXJ 311130Z 28021G31KT 250V320 9999 -RA SCT046 BKN055 11/06 Q1011",
      "taf": ""
    },
    {
      "icao": "LEZG",
      "alert": "OK",
      "vis_m": 9999,
      "fzfg": false,
      "metar_trigger": false,
      "taf_trigger": false,
      "metar": "METAR LEZG 311130Z 27011KT 230V300 9999 BKN065 09/03 Q1010 NOSIG",
      "taf": "TAF LEZG 311100Z 3112/0112 27009KT 9999 FEW030 TX14/3113Z TN06/0106Z"
    },
    {
      "icao": "LEZL",
      "alert": "OK",
      "vis_m": 9999,
      "fzfg": false,
      "metar_trigger": false,
      "taf_trigger": false,
      "metar": "METAR LEZL 311130Z 27012KT 9999 FEW030 15/08 Q1022 NOSIG",
      "taf": "TAF LEZL 310800Z 3109/0109 27010KT CAVOK TX17/3115Z TN10/0107Z"
    },
    {
      "icao": "LFBD",
      "alert": "OK",
      "vis_m": 9999,
      "fzfg": false,
      "metar_trigger": false,
      "taf_trigger": false,
      "metar": "METAR LFBD 311130Z AUTO 23012KT 9999 2700 -RA FEW023/// SCT031/// BKN039/// ///CB 10/09 Q1003 BECMG 29010KT BKN030",
      "taf": "TAF LFBD 311100Z 3112/0118 27010KT 9999 BKN030 TX12/3114Z TN07/0105Z"
    },
    {
      "icao": "LFLL",
      "alert": "OK",
      "vis_m": 9999,
      "fzfg": false,
      "metar_trigger": false,
      "taf_trigger": false,
      "metar": "METAR LFLL 311130Z 15008KT 9999 SCT026 BKN065 08/03 Q1003 NOSIG",
      "taf": "TAF LFLL 311100Z 3112/0118 17005KT 9999 BKN035"
    },
    {
      "icao": "LFLS",
      "alert": "OK",
      "vis_m": 9999,
      "fzfg": false,
      "metar_trigger": false,
      "taf_trigger": false,
      "metar": "METAR LFLS 311130Z AUTO 10008KT 9999 BKN039 BKN056 07/02 Q1003 TEMPO 4000 -SHRA BKN015 BKN030TCU",
      "taf": "TAF LFLS 310800Z 3109/0109 08005KT 9999 BKN040"
    },
    {
      "icao": "LFMN",
      "alert": "OK",
      "vis_m": 9999,
      "fzfg": false,
      "metar_trigger": false,
      "taf_trigger": false,
      "metar": "METAR LFMN 311130Z 33010KT 9999 BKN063 BKN110 11/03 Q1000 BECMG 08010KT",
      "taf": "TAF LFMN 310800Z 3109/0115 34010KT 9999 SCT050 BKN120"
    },
    {
      "icao": "LFOB",
      "alert": "OK",
      "vis_m": 9999,
      "fzfg": false,
      "metar_trigger": false,
      "taf_trigger": false,
      "metar": "METAR LFOB 311130Z AUTO 16006KT 9999 OVC004 07/06 Q1000 BECMG BKN014",
      "taf": "TAF LFOB 311100Z 3112/0112 17005KT 8000 OVC005"
    },
    {
      "icao": "LFPO",
      "alert": "OK",
      "vis_m": 4000,
      "fzfg": false,
      "metar_trigger": false,
      "taf_trigger": false,
      "metar": "METAR LFPO 311130Z 17008KT 4000 BR OVC003 06/06 Q1001 BECMG 8000 NSW BKN008",
      "taf": "TAF LFPO 311100Z 3112/0118 18005KT 4000 BR OVC003"
    },
    {
      "icao": "LFSB",
      "alert": "OK",
      "vis_m": 9999,
      "fzfg": false,
      "metar_trigger": false,
      "taf_trigger": false,
      "metar": "METAR LFSB 311130Z AUTO 15009KT CAVOK 07/03 Q1003 NOSIG",
      "taf": "TAF LFSB 311100Z 3112/0112 12007KT 9999 FEW030"
    },
    {
      "icao": "LGAV",
      "alert": "OK",
      "vis_m": 9999,
      "fzfg": false,
      "metar_trigger": false,
      "taf_trigger": false,
      "metar": "METAR LGAV 311150Z 30007KT 9999 FEW020 BKN035 16/07 Q1002 NOSIG",
      "taf": "TAF LGAV 311100Z 3112/0112 27010KT 9999 FEW020"
    },
    {
      "icao": "LGTS",
      "alert": "OK",
      "vis_m": 9999,
      "fzfg": false,
      "metar_trigger": false,
      "taf_trigger": false,
      "metar": "METAR LGTS 311150Z VRB03KT 9999 FEW025 13/08 Q1002 NOSIG",
      "taf": "TAF LGTS 311100Z 3112/0112 08010KT 9999 SCT030"
    },
    {
      "icao": "LHBP",
      "alert": "OK",
      "vis_m": 9999,
      "fzfg": false,
      "metar_trigger": false,
      "taf_trigger": false,
      "metar": "SPECI LHBP 311144Z 11003KT 070V140 9999 -RA BKN008 OVC015 04/02 Q1006 NOSIG",
      "taf": "TAF LHBP 311115Z 3112/0112 08007KT 9999 SCT012 OVC030"
    },
    {
      "icao": "LHDC",
      "alert": "OK",
      "vis_m": 6000,
      "fzfg": false,
      "metar_trigger": false,
      "taf_trigger": false,
      "metar": "METAR LHDC 311115Z AUTO 04008KT 010V080 6000 -RA BKN005 02/01 Q1006 TEMPO BKN004",
      "taf": "TAF LHDC 311115Z 3112/3121 04008KT 9000 -RASN SCT004 OVC015"
    },
    {
      "icao": "LIBD",
      "alert": "OK",
      "vis_m": 9999,
      "fzfg": false,
      "metar_trigger": false,
      "taf_trigger": false,
      "metar": "METAR LIBD 311150Z 09008KT 050V130 9999 SCT040 15/08 Q1001",
      "taf": "TAF LIBD 311100Z 3112/0112 11010KT CAVOK"
    },
    {
      "icao": "LIBG",
      "alert": "OK",
      "vis_m": 9999,
      "fzfg": false,
      "metar_trigger": false,
      "taf_trigger": false,
      "metar": "METAR LIBG 311050Z 15005KT 110V190 9999 SCT030 14/08 Q1002",
      "taf": "TAF LIBG 311100Z 3112/3121 15010KT 9999 SCT040"
    },
    {
      "icao": "LIBP",
      "alert": "OK",
      "vis_m": 9999,
      "fzfg": false,
      "metar_trigger": false,
      "taf_trigger": false,
      "metar": "METAR LIBP 311150Z AUTO 04008KT 020V080 9999 NCD 12/08 Q1001",
      "taf": "TAF LIBP 311100Z 3112/0112 VRB05KT 9999 FEW030"
    },
    {
      "icao": "LIBR",
      "alert": "OK",
      "vis_m": 9999,
      "fzfg": false,
      "metar_trigger": false,
      "taf_trigger": false,
      "metar": "METAR LIBR 311150Z 15005KT 100V180 9999 FEW025 14/09 Q1002",
      "taf": "TAF LIBR 311100Z 3112/0112 12010KT 9999 SCT020"
    },
    {
      "icao": "LICA",
      "alert": "OK",
      "vis_m": 9999,
      "fzfg": false,
      "metar_trigger": false,
      "taf_trigger": false,
      "metar": "METAR LICA 311150Z AUTO 08013KT 9999 BKN130/// 16/09 Q1000",
      "taf": "TAF LICA 311100Z 3112/0112 08014KT 9999 SCT020"
    },
    {
      "icao": "LICC",
      "alert": "OK",
      "vis_m": 4000,
      "fzfg": false,
      "metar_trigger": false,
      "taf_trigger": false,
      "metar": "METAR LICC 311150Z VRB02KT 4000 RA BR SCT020 BKN045 10/07 Q1001",
      "taf": "TAF LICC 310500Z 3106/0106 26010KT 9999 FEW030"
    },
    {
      "icao": "LICJ",
      "alert": "OK",
      "vis_m": 9999,
      "fzfg": false,
      "metar_trigger": false,
      "taf_trigger": false,
      "metar": "METAR LICJ 311150Z 05012KT 010V080 9999 BKN060 12/07 Q0996",
      "taf": "TAF LICJ 310500Z 3106/0106 18011KT 9999 SCT030"
    },
    {
      "icao": "LIMC",
      "alert": "OK",
      "vis_m": 9999,
      "fzfg": false,
      "metar_trigger": false,
      "taf_trigger": false,
      "metar": "METAR LIMC 311150Z 28004KT 9999 BKN040 07/04 Q1004 NOSIG",
      "taf": "TAF LIMC 311100Z 3112/0118 VRB05KT 9000 BKN030"
    },
    {
      "icao": "LIME",
      "alert": "OK",
      "vis_m": 8000,
      "fzfg": false,
      "metar_trigger": false,
      "taf_trigger": false,
      "metar": "METAR LIME 311150Z 22009KT 8000 SCT015 SCT040 08/04 Q1003 NOSIG",
      "taf": "TAF LIME 311100Z 3112/0112 VRB04KT 9999 SCT020"
    },
    {
      "icao": "LIMF",
      "alert": "OK",
      "vis_m": 6000,
      "fzfg": false,
      "metar_trigger": false,
      "taf_trigger": false,
      "metar": "METAR LIMF 311150Z VRB02KT 6000 NSC 06/02 Q1004",
      "taf": "TAF LIMF 311100Z 3112/0112 VRB04KT 4000 BR SCT040"
    },
    {
      "icao": "LIMJ",
      "alert": "OK",
      "vis_m": 9999,
      "fzfg": false,
      "metar_trigger": false,
      "taf_trigger": false,
      "metar": "METAR LIMJ 311150Z 04016KT 9999 FEW070 09/03 Q1002",
      "taf": "TAF LIMJ 311100Z 3112/0112 04015KT 9999 SCT030"
    },
    {
      "icao": "LIPE",
      "alert": "OK",
      "vis_m": 4000,
      "fzfg": false,
      "metar_trigger": false,
      "taf_trigger": false,
      "metar": "METAR LIPE 311150Z VRB02KT 4000 BR BKN006 05/05 Q1004",
      "taf": "TAF LIPE 311100Z 3112/0112 VRB04KT 3000 BR BKN008"
    },
    {
      "icao": "LIPH",
      "alert": "OK",
      "vis_m": 9999,
      "fzfg": false,
      "metar_trigger": false,
      "taf_trigger": false,
      "metar": "METAR LIPH 311150Z 08005KT 020V110 CAVOK 10/04 Q1003",
      "taf": "TAF LIPH 311100Z 3112/0112 VRB04KT 9999 FEW050"
    },
    {
      "icao": "LIPQ",
      "alert": "OK",
      "vis_m": 9999,
      "fzfg": false,
      "metar_trigger": false,
      "taf_trigger": false,
      "metar": "METAR LIPQ 311150Z AUTO 03003KT 320V100 9999 NCD 13/02 Q1003",
      "taf": "TAF LIPQ 311100Z 3112/0112 VRB05KT CAVOK"
    },
    {
      "icao": "LIPR",
      "alert": "OK",
      "vis_m": 6000,
      "fzfg": false,
      "metar_trigger": false,
      "taf_trigger": false,
      "metar": "METAR LIPR 311150Z AUTO 30008KT 6000 -DZ OVC004/// 06/06 Q1003",
      "taf": "TAF LIPR 311100Z 3112/0112 29008KT 4000 BR BKN008"
    },
    {
      "icao": "LIPX",
      "alert": "OK",
      "vis_m": 7000,
      "fzfg": false,
      "metar_trigger": false,
      "taf_trigger": false,
      "metar": "METAR LIPX 311150Z VRB02KT 7000 SCT010 07/06 Q1004",
      "taf": "TAF LIPX 311100Z 3112/0112 VRB05KT 3000 BR NSC"
    },
    {
      "icao": "LIPY",
      "alert": "OK",
      "vis_m": 9000,
      "fzfg": false,
      "metar_trigger": false,
      "taf_trigger": false,
      "metar": "METAR LIPY 311150Z AUTO 32005KT 290V350 9000 -RA OVC004/// 08/08 Q1003",
      "taf": "TAF LIPY 311100Z 3112/0112 VRB05KT 6000 BKN005"
    },
    {
      "icao": "LIPZ",
      "alert": "OK",
      "vis_m": 9999,
      "fzfg": false,
      "metar_trigger": false,
      "taf_trigger": false,
      "metar": "METAR LIPZ 311150Z 13003KT 060V180 CAVOK 09/05 Q1003 NOSIG",
      "taf": "TAF LIPZ 311100Z 3112/0118 03006KT 9999 FEW040"
    },
    {
      "icao": "LIRF",
      "alert": "OK",
      "vis_m": 9999,
      "fzfg": false,
      "metar_trigger": false,
      "taf_trigger": false,
      "metar": "METAR LIRF 311150Z 11008KT 9999 FEW035 SCT050 14/08 Q0999 NOSIG",
      "taf": "TAF LIRF 311100Z 3112/0118 14012KT 9999 SCT030"
    },
    {
      "icao": "LIRN",
      "alert": "OK",
      "vis_m": 9999,
      "fzfg": false,
      "metar_trigger": false,
      "taf_trigger": false,
      "metar": "METAR LIRN 311150Z 19003KT 130V240 9999 SCT040 14/07 Q0999 NOSIG",
      "taf": "TAF LIRN 311100Z 3112/0112 VRB06KT 8000 SCT040"
    },
    {
      "icao": "LIRP",
      "alert": "OK",
      "vis_m": 9999,
      "fzfg": false,
      "metar_trigger": false,
      "taf_trigger": false,
      "metar": "METAR LIRP 311145Z 09010KT 9999 FEW040 BKN060 11/07 Q1001 NOSIG",
      "taf": "TAF LIRP 311100Z 3112/0112 08010KT 9999 FEW030 SCT060"
    },
    {
      "icao": "LIRZ",
      "alert": "OK",
      "vis_m": 9999,
      "fzfg": false,
      "metar_trigger": false,
      "taf_trigger": false,
      "metar": "METAR LIRZ 311150Z AUTO VRB02KT 9999 BKN061/// 12/07 Q1000",
      "taf": "TAF LIRZ 311100Z 3112/0112 03012KT 9999 SCT040"
    },
    {
      "icao": "LJLJ",
      "alert": "OK",
      "vis_m": 9999,
      "fzfg": false,
      "metar_trigger": false,
      "taf_trigger": false,
      "metar": "METAR LJLJ 311130Z VRB01KT 9999 FEW017 OVC037 05/02 Q1004 NOSIG",
      "taf": "TAF LJLJ 311100Z 3112/0112 VRB02KT 9999 FEW020 OVC035"
    },
    {
      "icao": "LKMT",
      "alert": "OK",
      "vis_m": 5000,
      "fzfg": false,
      "metar_trigger": false,
      "taf_trigger": false,
      "metar": "METAR LKMT 311130Z 05010KT 5000 BR OVC009 M05/M06 Q1009 NOSIG",
      "taf": "TAF LKMT 311100Z 3112/0112 03010KT 7000 SCT010 BKN014 OVC018"
    },
    {
      "icao": "LKPR",
      "alert": "OK",
      "vis_m": 4000,
      "fzfg": false,
      "metar_trigger": false,
      "taf_trigger": false,
      "metar": "METAR LKPR 311130Z 08006KT 4000 BR BKN005 OVC007 M01/M02 Q1006 NOSIG",
      "taf": "TAF LKPR 311100Z 3112/0118 06006KT 1700 BR BKN003 OVC005"
    },
    {
      "icao": "LLBG",
      "alert": "OK",
      "vis_m": 9999,
      "fzfg": false,
      "metar_trigger": false,
      "taf_trigger": false,
      "metar": "METAR LLBG 311150Z 17007KT 140V220 CAVOK 24/08 Q1012 NOSIG RMK FEW075",
      "taf": "TAF LLBG 311101Z 3112/0112 18010KT CAVOK"
    },
    {
      "icao": "LMML",
      "alert": "OK",
      "vis_m": 9999,
      "fzfg": false,
      "metar_trigger": false,
      "taf_trigger": false,
      "metar": "METAR LMML 311145Z 20011KT 150V230 9999 FEW020 18/14 Q0998 NOSIG",
      "taf": "TAF LMML 311100Z 3112/0112 21018KT 9999 FEW020"
    },
    {
      "icao": "LOWW",
      "alert": "OK",
      "vis_m": 4800,
      "fzfg": false,
      "metar_trigger": false,
      "taf_trigger": false,
      "metar": "METAR LOWW 311150Z 01007KT 4800 BR FEW002 BKN003 01/M00 Q1006 TEMPO 5000 BR BKN005",
      "taf": "TAF LOWW 311115Z 3112/0118 35005KT 4000 BR BKN012 TX02/3113Z TNM02/0106Z"
    },
    {
      "icao": "LPFR",
      "alert": "OK",
      "vis_m": 9999,
      "fzfg": false,
      "metar_trigger": false,
      "taf_trigger": false,
      "metar": "METAR LPFR 311130Z 26007KT 230V300 9999 FEW030 15/11 Q1022",
      "taf": "TAF LPFR 311100Z 3112/0112 28005KT 9999 SCT035"
    },
    {
      "icao": "LPMA",
      "alert": "OK",
      "vis_m": 9999,
      "fzfg": false,
      "metar_trigger": false,
      "taf_trigger": false,
      "metar": "METAR LPMA 311130Z 17005KT 130V210 9999 FEW011 20/16 Q1025",
      "taf": "TAF LPMA 311100Z 3112/0112 VRB05KT 9999 SCT015"
    },
    {
      "icao": "LPPR",
      "alert": "OK",
      "vis_m": 9999,
      "fzfg": false,
      "metar_trigger": false,
      "taf_trigger": false,
      "metar": "METAR LPPR 311130Z 28005KT 230V330 9999 FEW020 14/09 Q1018",
      "taf": "TAF LPPR 311100Z 3112/0112 30008KT 9999 SCT035"
    },
    {
      "icao": "LPPS",
      "alert": "OK",
      "vis_m": 9999,
      "fzfg": false,
      "metar_trigger": false,
      "taf_trigger": false,
      "metar": "METAR LPPS 311130Z 32006KT 300V360 9999 FEW014 19/14 Q1026",
      "taf": "TAF LPPS 311100Z 3112/0118 VRB05KT 9999 SCT012"
    },
    {
      "icao": "LPPT",
      "alert": "OK",
      "vis_m": 9999,
      "fzfg": false,
      "metar_trigger": false,
      "taf_trigger": false,
      "metar": "METAR LPPT 311130Z 29011KT 250V320 9999 FEW032 14/08 Q1021",
      "taf": "TAF LPPT 311100Z 3112/0118 25008KT 9999 SCT030"
    },
    {
      "icao": "LQBK",
      "alert": "OK",
      "vis_m": 9999,
      "fzfg": false,
      "metar_trigger": false,
      "taf_trigger": false,
      "metar": "METAR LQBK 311130Z 34004KT 9999 SCT013 BKN047 06/03 Q1005 NOSIG",
      "taf": "TAF LQBK 311100Z 3112/0112 06005KT 9999 SCT017 BKN035 TX07/3113Z TN01/0105Z"
    },
    {
      "icao": "LQSA",
      "alert": "OK",
      "vis_m": 9999,
      "fzfg": false,
      "metar_trigger": false,
      "taf_trigger": false,
      "metar": "METAR LQSA 311130Z VRB03KT 9999 FEW022 BKN045 07/03 Q1002 NOSIG",
      "taf": "TAF LQSA 311100Z 3112/0112 VRB02KT 9999 BKN045 TX08/3113Z TN01/0105Z"
    },
    {
      "icao": "LQTZ",
      "alert": "OK",
      "vis_m": 9999,
      "fzfg": false,
      "metar_trigger": false,
      "taf_trigger": false,
      "metar": "METAR LQTZ 311130Z 13005KT 100V180 9999 FEW014 SCT020 BKN026 06/04 Q1004",
      "taf": "TAF LQTZ 311100Z 3112/0112 10005KT 9999 SCT015 BKN025 TX07/3113Z TN01/0105Z"
    },
    {
      "icao": "LRBC",
      "alert": "OK",
      "vis_m": 9999,
      "fzfg": false,
      "metar_trigger": false,
      "taf_trigger": false,
      "metar": "METAR LRBC 311130Z 36011KT 9999 SCT015 OVC064 M03/M06 Q1009",
      "taf": "TAF LRBC 311100Z 3112/3121 35012KT 9999 BKN015 OVC030"
    },
    {
      "icao": "LRBS",
      "alert": "OK",
      "vis_m": 9999,
      "fzfg": false,
      "metar_trigger": false,
      "taf_trigger": false,
      "metar": "METAR LRBS 311130Z COR 07007KT 9999 BKN012 OVC033 01/M01 Q1008 NOSIG",
      "taf": "TAF LRBS 311100Z 3112/0112 09012KT 5000 -SN BR BKN010 OVC025"
    },
    {
      "icao": "LRBV",
      "alert": "OK",
      "vis_m": 9999,
      "fzfg": false,
      "metar_trigger": false,
      "taf_trigger": false,
      "metar": "METAR LRBV 311130Z 09007KT 9999 -SN FEW012 BKN017 01/M01 Q1004",
      "taf": "TAF LRBV 311100Z 3112/3121 12006KT 9999 -SN BKN010 OVC030"
    },
    {
      "icao": "LRCL",
      "alert": "OK",
      "vis_m": 4000,
      "fzfg": false,
      "metar_trigger": false,
      "taf_trigger": false,
      "metar": "METAR LRCL 311130Z 08004KT 050V110 4000 -RA BR SCT005 OVC011 03/02 Q1004",
      "taf": "TAF LRCL 311100Z 3112/3121 VRB04KT 5000 -RA BR BKN005 OVC020"
    },
    {
      "icao": "LRCV",
      "alert": "OK",
      "vis_m": 5000,
      "fzfg": false,
      "metar_trigger": false,
      "taf_trigger": false,
      "metar": "METAR LRCV 311130Z 10012KT 5000 BR OVC005 01/01 Q1006",
      "taf": "TAF LRCV 311100Z 3112/3121 11015KT 5000 BR OVC005"
    },
    {
      "icao": "LRIA",
      "alert": "OK",
      "vis_m": 9999,
      "fzfg": false,
      "metar_trigger": false,
      "taf_trigger": false,
      "metar": "METAR LRIA 311130Z 32012KT 290V350 9999 SCT012 OVC024 M06/M10 Q1010",
      "taf": "TAF LRIA 311100Z 3112/3121 34012KT 9999 BKN015 OVC025"
    },
    {
      "icao": "LROP",
      "alert": "OK",
      "vis_m": 9000,
      "fzfg": false,
      "metar_trigger": false,
      "taf_trigger": false,
      "metar": "METAR LROP 311130Z 07006KT 020V090 9000 -SN BKN007 OVC010 01/M00 Q1007 NOSIG",
      "taf": "TAF LROP 311100Z 3112/0112 09012KT 5000 -SN BR BKN010 OVC025"
    },
    {
      "icao": "LRSB",
      "alert": "OK",
      "vis_m": 4000,
      "fzfg": false,
      "metar_trigger": false,
      "taf_trigger": false,
      "metar": "METAR LRSB 311130Z VRB01KT 4000 BR BKN006 OVC010 04/03 Q1004 BECMG 3000 BR",
      "taf": "TAF LRSB 311100Z 3112/0112 VRB04KT 9999 BKN015 OVC030"
    },
    {
      "icao": "LRSM",
      "alert": "OK",
      "vis_m": 9999,
      "fzfg": false,
      "metar_trigger": false,
      "taf_trigger": false,
      "metar": "METAR LRSM 311130Z AUTO VRB02KT 9999 FEW039/// OVC047/// 05/01 Q1006",
      "taf": ""
    },
    {
      "icao": "LRSV",
      "alert": "OK",
      "vis_m": 8000,
      "fzfg": false,
      "metar_trigger": false,
      "taf_trigger": false,
      "metar": "METAR LRSV 311130Z COR 36010KT 8000 SCT008 BKN044 M08/M09 Q1009",
      "taf": "TAF LRSV 311100Z 3112/3121 36010KT 9999 BKN010 BKN030"
    },
    {
      "icao": "LRTM",
      "alert": "OK",
      "vis_m": 9999,
      "fzfg": false,
      "metar_trigger": false,
      "taf_trigger": false,
      "metar": "METAR LRTM 311130Z 06002KT 9999 -RA SCT007 BKN013 OVC035 04/03 Q1005",
      "taf": "TAF LRTM 311100Z 3112/3121 VRB04KT 8000 -RA BKN015 OVC020"
    },
    {
      "icao": "LRTR",
      "alert": "OK",
      "vis_m": 6000,
      "fzfg": false,
      "metar_trigger": false,
      "taf_trigger": false,
      "metar": "METAR LRTR 311130Z VRB01KT 6000 -DZ SCT006 BKN008 OVC016 05/05 Q1005",
      "taf": "TAF LRTR 311100Z 3112/0112 VRB04KT 9999 BKN010 OVC020"
    },
    {
      "icao": "LTAC",
      "alert": "OK",
      "vis_m": 9999,
      "fzfg": false,
      "metar_trigger": false,
      "taf_trigger": false,
      "metar": "METAR LTAC 311150Z 22008KT 170V230 9999 -SHRA BKN021 BKN080 07/05 Q1004 NOSIG RMK RWY21C 20009KT RWY03L 21007KT RWY21R 20009KT RWY03R 20010KT RWY21L 21009KT",
      "taf": "TAF LTAC 311040Z 3112/0112 VRB02KT 9999 SCT035 BKN090"
    },
    {
      "icao": "LTFM",
      "alert": "OK",
      "vis_m": 8000,
      "fzfg": false,
      "metar_trigger": false,
      "taf_trigger": false,
      "metar": "METAR LTFM 311150Z 04019KT 8000 -SHRA BKN011 BKN025 07/05 Q1003 NOSIG RMK RWY17L 04015KT RWY34L 04017KT RWY16R 04015KT RWY36 04017KT RWY18 05016KT",
      "taf": "TAF LTFM 311040Z 3112/0118 05017G27KT 9999 BKN011 BKN025"
    },
    {
      "icao": "LUKK",
      "alert": "OK",
      "vis_m": 9999,
      "fzfg": false,
      "metar_trigger": false,
      "taf_trigger": false,
      "metar": "METAR LUKK 311130Z 35014KT 9999 FEW035 M06/M09 Q1008 NOSIG",
      "taf": "TAF LUKK 311116Z 3112/0112 36014KT 9999 BKN015"
    },
    {
      "icao": "LWOH",
      "alert": "OK",
      "vis_m": 9999,
      "fzfg": false,
      "metar_trigger": false,
      "taf_trigger": false,
      "metar": "METAR LWOH 311150Z 15004KT 120V190 9999 SCT045 07/04 Q1002",
      "taf": "TAF LWOH 311115Z 3112/0112 VRB02KT 9999 SCT045"
    },
    {
      "icao": "LWSK",
      "alert": "OK",
      "vis_m": 9999,
      "fzfg": false,
      "metar_trigger": false,
      "taf_trigger": false,
      "metar": "METAR LWSK 311150Z VRB02KT 9999 FEW030 12/07 Q1003 NOSIG",
      "taf": "TAF LWSK 311115Z 3112/0112 VRB02KT 9999 FEW040"
    },
    {
      "icao": "LYBE",
      "alert": "OK",
      "vis_m": 9999,
      "fzfg": false,
      "metar_trigger": false,
      "taf_trigger": false,
      "metar": "METAR LYBE 311130Z VRB01KT 9999 SCT017 BKN030 07/02 Q1005 NOSIG",
      "taf": "TAF LYBE 311100Z 3112/0112 04005KT 9999 SCT015 BKN030 TX08/3113Z TN03/0106Z"
    },
    {
      "icao": "LYNI",
      "alert": "OK",
      "vis_m": 9999,
      "fzfg": false,
      "metar_trigger": false,
      "taf_trigger": false,
      "metar": "METAR LYNI 311130Z 33010KT 9999 SCT013 BKN020 07/05 Q1004 NOSIG",
      "taf": "TAF LYNI 311100Z 3112/0112 34008KT 9999 FEW015 BKN030 TX08/3113Z TN02/0106Z"
    },
    {
      "icao": "LYPG",
      "alert": "OK",
      "vis_m": 9999,
      "fzfg": false,
      "metar_trigger": false,
      "taf_trigger": false,
      "metar": "METAR LYPG 311130Z VRB02KT 9999 FEW017 SCT050 BKN070 11/06 Q1003 NOSIG",
      "taf": "TAF LYPG 311100Z 3112/0112 18005KT 9999 FEW020 SCT050 TX13/3112Z TN05/0106Z"
    },
    {
      "icao": "LZIB",
      "alert": "OK",
      "vis_m": 7000,
      "fzfg": false,
      "metar_trigger": false,
      "taf_trigger": false,
      "metar": "METAR LZIB 311130Z VRB01KT 7000 BKN008 03/00 Q1006 TEMPO SCT009 OVC011",
      "taf": ""
    },
    {
      "icao": "LZKZ",
      "alert": "OK",
      "vis_m": 9999,
      "fzfg": false,
      "metar_trigger": false,
      "taf_trigger": false,
      "metar": "METAR LZKZ 311130Z 02016KT 9999 BKN032 M01/M06 Q1007 NOSIG",
      "taf": "TAF LZKZ 311115Z 3112/0112 01013KT 9999 BKN032"
    },
    {
      "icao": "LZTT",
      "alert": "OK",
      "vis_m": 9999,
      "fzfg": false,
      "metar_trigger": false,
      "taf_trigger": false,
      "metar": "METAR LZTT 311130Z 06009KT 9999 OVC011 M05/M07 Q1005 NOSIG",
      "taf": "TAF LZTT 311115Z 3112/0112 06009KT 9999 OVC009"
    },
    {
      "icao": "OEJN",
      "alert": "OK",
      "vis_m": 9999,
      "fzfg": false,
      "metar_trigger": false,
      "taf_trigger": false,
      "metar": "METAR OEJN 311100Z 27009KT CAVOK 30/16 Q1012 NOSIG",
      "taf": "TAF OEJN 311100Z 3112/0118 27010KT 9999 FEW040"
    },
    {
      "icao": "OEMA",
      "alert": "OK",
      "vis_m": 9999,
      "fzfg": false,
      "metar_trigger": false,
      "taf_trigger": false,
      "metar": "METAR OEMA 311100Z 23008KT CAVOK 27/09 Q1016 NOSIG",
      "taf": "TAF OEMA 311100Z 3112/0118 26008KT CAVOK"
    },
    {
      "icao": "OJAI",
      "alert": "OK",
      "vis_m": 5000,
      "fzfg": false,
      "metar_trigger": false,
      "taf_trigger": false,
      "metar": "METAR OJAI 311100Z 24012KT 5000 HZ NSC 18/06 Q1015 NOSIG",
      "taf": "TAF OJAI 311032Z 3112/0118 24012KT 5000 HZ NSC"
    },
    {
      "icao": "OMAA",
      "alert": "OK",
      "vis_m": 9999,
      "fzfg": false,
      "metar_trigger": false,
      "taf_trigger": false,
      "metar": "METAR OMAA 311130Z 31010KT CAVOK 22/12 Q1017 NOSIG",
      "taf": "TAF OMAA 311100Z 3112/0118 32011KT 8000 NSC"
    },
    {
      "icao": "OMDB",
      "alert": "OK",
      "vis_m": 9999,
      "fzfg": false,
      "metar_trigger": false,
      "taf_trigger": false,
      "metar": "METAR OMDB 311130Z 28010KT 220V320 9999 FEW033 23/12 Q1017 NOSIG",
      "taf": "TAF OMDB 311100Z 3112/0118 27012KT 9999 FEW033"
    },
    {
      "icao": "UAAA",
      "alert": "OK",
      "vis_m": 5000,
      "fzfg": false,
      "metar_trigger": false,
      "taf_trigger": false,
      "metar": "METAR UAAA 311130Z 28002MPS 220V320 5000 FU SCT100 BKN200 01/M04 Q1016 NOSIG",
      "taf": "TAF UAAA 311103Z 3112/0112 20003MPS 1200 BR FU SCT011 BKN020 TX04/0109Z TNM05/0102Z"
    },
    {
      "icao": "UBBB",
      "alert": "OK",
      "vis_m": 9999,
      "fzfg": false,
      "metar_trigger": false,
      "taf_trigger": false,
      "metar": "METAR UBBB 311130Z 33009KT CAVOK 10/05 Q1003 NOSIG",
      "taf": "TAF UBBB 311054Z 3112/0112 31005KT 9999 FEW030 TX12/3112Z TN02/0100Z"
    },
    {
      "icao": "UDSG",
      "alert": "OK",
      "vis_m": 1700,
      "fzfg": false,
      "metar_trigger": false,
      "taf_trigger": false,
      "metar": "METAR UDSG 311100Z 10002KT 1700 R02/2000U SN BR OVC013 M02/M04 Q1013 NOSIG",
      "taf": "TAF UDSG 311058Z 3112/0112 VRB04KT 1500 BR OVC010"
    },
    {
      "icao": "UDYZ",
      "alert": "OK",
      "vis_m": 2400,
      "fzfg": false,
      "metar_trigger": false,
      "taf_trigger": false,
      "metar": "METAR UDYZ 311130Z 26003KT 2400 BR FEW013 BKN040 M00/M03 Q1014 NOSIG",
      "taf": "TAF UDYZ 311100Z 3112/0112 VRB04KT 2000 BR SCT007 BKN020"
    },
    {
      "icao": "UGKO",
      "alert": "OK",
      "vis_m": 9999,
      "fzfg": false,
      "metar_trigger": false,
      "taf_trigger": false,
      "metar": "METAR UGKO 311130Z 15005KT 110V220 9999 BKN032 15/03 Q1007 NOSIG",
      "taf": "TAF UGKO 311100Z 3112/0112 08007KT 9999 BKN050 TX14/3112Z TN08/0103Z"
    }
  ]
}