{
  "ts_utc": "2026-04-14T16:51:58Z",
  "threshold_m": 150,
  "source": "stations_override.txt (ICAO list) + aviationweather.gov (METAR/TAF raw)",
  "station_count": 159,
  "stations": [
    {
      "icao": "BIKF",
      "alert": "OK",
      "vis_m": 9999,
      "fzfg": false,
      "metar_trigger": false,
      "taf_trigger": false,
      "metar": "METAR BIKF 141630Z 06014KT 9999 VCSH FEW013CB BKN019 06/04 Q1002 RESHRA",
      "taf": "TAF BIKF 141640Z 1418/1518 06012KT 9999 -SHRA SCT018 BKN027 TX09/1515Z TN03/1506Z"
    },
    {
      "icao": "BKPR",
      "alert": "OK",
      "vis_m": 9999,
      "fzfg": false,
      "metar_trigger": false,
      "taf_trigger": false,
      "metar": "METAR BKPR 141630Z 14012KT CAVOK 18/08 Q1016 NOSIG",
      "taf": "TAF BKPR 141130Z 1412/1512 15010KT 9999 SCT050"
    },
    {
      "icao": "EBCI",
      "alert": "OK",
      "vis_m": 9999,
      "fzfg": false,
      "metar_trigger": false,
      "taf_trigger": false,
      "metar": "METAR EBCI 141620Z 24005KT 180V300 CAVOK 15/01 Q1021 NOSIG",
      "taf": "TAF EBCI 141120Z 1412/1518 VRB03KT 9999 SCT030"
    },
    {
      "icao": "EDDB",
      "alert": "OK",
      "vis_m": 9999,
      "fzfg": false,
      "metar_trigger": false,
      "taf_trigger": false,
      "metar": "METAR EDDB 141620Z AUTO 29011KT 9999 FEW020 OVC035 12/07 Q1020 NOSIG",
      "taf": "TAF EDDB 141100Z 1412/1512 28008KT 9999 SCT030"
    },
    {
      "icao": "EDDH",
      "alert": "OK",
      "vis_m": 9999,
      "fzfg": false,
      "metar_trigger": false,
      "taf_trigger": false,
      "metar": "METAR EDDH 141620Z AUTO 31009KT 290V360 9999 SCT041 13/04 Q1021 BECMG 29004KT",
      "taf": "TAF EDDH 141100Z 1412/1518 31011KT 9999 SCT030"
    },
    {
      "icao": "EDDK",
      "alert": "OK",
      "vis_m": 9999,
      "fzfg": false,
      "metar_trigger": false,
      "taf_trigger": false,
      "metar": "METAR EDDK 141620Z AUTO 32003KT 280V050 CAVOK 16/03 Q1021 NOSIG",
      "taf": "TAF EDDK 141100Z 1412/1518 VRB03KT 9999 FEW035"
    },
    {
      "icao": "EDDN",
      "alert": "OK",
      "vis_m": 9999,
      "fzfg": false,
      "metar_trigger": false,
      "taf_trigger": false,
      "metar": "METAR EDDN 141620Z AUTO 35005KT 320V030 9999 BKN013 OVC037 OVC047 10/06 Q1021 BECMG SCT012 BKN035",
      "taf": ""
    },
    {
      "icao": "EDDS",
      "alert": "OK",
      "vis_m": 9999,
      "fzfg": false,
      "metar_trigger": false,
      "taf_trigger": false,
      "metar": "METAR EDDS 141620Z AUTO 32004KT 300V360 9999 FEW021 OVC029 10/06 Q1020 NOSIG",
      "taf": "TAF EDDS 141100Z 1412/1512 34005KT 9999 BKN020"
    },
    {
      "icao": "EDFH",
      "alert": "OK",
      "vis_m": 9999,
      "fzfg": false,
      "metar_trigger": false,
      "taf_trigger": false,
      "metar": "METAR EDFH 141620Z 04005KT 360V090 CAVOK 12/01 Q1021",
      "taf": "TAF EDFH 141100Z 1412/1512 36005KT 9999 SCT020"
    },
    {
      "icao": "EDJA",
      "alert": "OK",
      "vis_m": 9999,
      "fzfg": false,
      "metar_trigger": false,
      "taf_trigger": false,
      "metar": "METAR EDJA 141620Z 33004KT 300V360 9999 BKN023 OVC029 09/06 Q1020",
      "taf": "TAF EDJA 141400Z 1415/1424 34005KT 9999 FEW009 BKN015"
    },
    {
      "icao": "EDLW",
      "alert": "OK",
      "vis_m": 9999,
      "fzfg": false,
      "metar_trigger": false,
      "taf_trigger": false,
      "metar": "METAR EDLW 141620Z 04003KT 010V070 CAVOK 15/04 Q1021",
      "taf": "TAF EDLW 141100Z 1412/1512 VRB03KT 9999 SCT035"
    },
    {
      "icao": "EDNY",
      "alert": "OK",
      "vis_m": 9999,
      "fzfg": false,
      "metar_trigger": false,
      "taf_trigger": false,
      "metar": "METAR EDNY 141620Z 02007KT 9999 SCT022 OVC039 10/06 Q1021",
      "taf": "TAF EDNY 141400Z 1415/1424 VRB03KT 9999 FEW025"
    },
    {
      "icao": "EDSB",
      "alert": "OK",
      "vis_m": 9999,
      "fzfg": false,
      "metar_trigger": false,
      "taf_trigger": false,
      "metar": "METAR EDSB 141620Z 12005KT 090V150 9999 FEW037 13/05 Q1021",
      "taf": ""
    },
    {
      "icao": "EETN",
      "alert": "OK",
      "vis_m": 9999,
      "fzfg": false,
      "metar_trigger": false,
      "taf_trigger": false,
      "metar": "METAR EETN 141620Z 06009KT CAVOK 11/01 Q1029 NOSIG",
      "taf": "TAF EETN 141130Z 1412/1512 04012KT CAVOK"
    },
    {
      "icao": "EFTU",
      "alert": "OK",
      "vis_m": 9999,
      "fzfg": false,
      "metar_trigger": false,
      "taf_trigger": false,
      "metar": "METAR EFTU 141620Z AUTO 24004KT CAVOK 13/00 Q1030",
      "taf": "TAF EFTU 141423Z 1415/1515 12008KT CAVOK"
    },
    {
      "icao": "EGBB",
      "alert": "OK",
      "vis_m": 9999,
      "fzfg": false,
      "metar_trigger": false,
      "taf_trigger": false,
      "metar": "METAR EGBB 141620Z 17011KT 9999 -RA BKN012 12/10 Q1015",
      "taf": "TAF EGBB 141056Z 1412/1512 17013KT 9999 FEW030"
    },
    {
      "icao": "EGGP",
      "alert": "OK",
      "vis_m": 9999,
      "fzfg": false,
      "metar_trigger": false,
      "taf_trigger": false,
      "metar": "METAR EGGP 141620Z 16013KT 130V190 9999 BKN023 13/08 Q1013",
      "taf": "TAF EGGP 141103Z 1412/1512 15012KT 9999 FEW015 SCT025"
    },
    {
      "icao": "EGGW",
      "alert": "OK",
      "vis_m": 9999,
      "fzfg": false,
      "metar_trigger": false,
      "taf_trigger": false,
      "metar": "METAR EGGW 141620Z AUTO 19012KT 150V220 9999 OVC033 14/06 Q1017",
      "taf": "TAF EGGW 141056Z 1412/1512 17012KT 9999 FEW025"
    },
    {
      "icao": "EGKK",
      "alert": "OK",
      "vis_m": 9999,
      "fzfg": false,
      "metar_trigger": false,
      "taf_trigger": false,
      "metar": "METAR EGKK 141620Z 19009KT 9999 BKN033 14/06 Q1018",
      "taf": "TAF EGKK 141056Z 1412/1518 18010KT 9999 SCT030"
    },
    {
      "icao": "EGNM",
      "alert": "OK",
      "vis_m": 9999,
      "fzfg": false,
      "metar_trigger": false,
      "taf_trigger": false,
      "metar": "METAR EGNM 141620Z 16012KT 9999 FEW024 SCT033 12/06 Q1014",
      "taf": "TAF EGNM 141057Z 1412/1512 17009KT 9999 FEW020 SCT035"
    },
    {
      "icao": "EGPD",
      "alert": "OK",
      "vis_m": 9999,
      "fzfg": false,
      "metar_trigger": false,
      "taf_trigger": false,
      "metar": "METAR EGPD 141620Z COR AUTO 14011KT 9999 NCD 10/04 Q1014 NOSIG",
      "taf": "TAF EGPD 141058Z 1412/1512 15010KT 9999 FEW025"
    },
    {
      "icao": "EGPF",
      "alert": "OK",
      "vis_m": 9999,
      "fzfg": false,
      "metar_trigger": false,
      "taf_trigger": false,
      "metar": "METAR EGPF 141620Z AUTO 07008KT 9999 -RA SCT027 OVC038 10/08 Q1011",
      "taf": "TAF EGPF 141055Z 1412/1512 11008KT 9999 FEW045"
    },
    {
      "icao": "EHBK",
      "alert": "OK",
      "vis_m": 9999,
      "fzfg": false,
      "metar_trigger": false,
      "taf_trigger": false,
      "metar": "METAR EHBK 141625Z AUTO VRB01KT 9999 NCD 15/03 Q1021 NOSIG",
      "taf": "TAF EHBK 141108Z 1412/1518 22004KT CAVOK"
    },
    {
      "icao": "EHEH",
      "alert": "OK",
      "vis_m": 9999,
      "fzfg": false,
      "metar_trigger": false,
      "taf_trigger": false,
      "metar": "METAR EHEH 141625Z AUTO 22004KT 180V290 9999 NCD 16/04 Q1021 BLU NOSIG",
      "taf": ""
    },
    {
      "icao": "EKBI",
      "alert": "OK",
      "vis_m": 9999,
      "fzfg": false,
      "metar_trigger": false,
      "taf_trigger": false,
      "metar": "METAR EKBI 141620Z AUTO 27011KT 9999 FEW029/// 10/05 Q1020",
      "taf": "TAF EKBI 141427Z 1415/1515 26010KT 9999 BKN025"
    },
    {
      "icao": "EKCH",
      "alert": "OK",
      "vis_m": 9999,
      "fzfg": false,
      "metar_trigger": false,
      "taf_trigger": false,
      "metar": "METAR EKCH 141620Z AUTO 16005KT 9999 OVC050/// 08/03 Q1020 NOSIG",
      "taf": "TAF EKCH 141427Z 1415/1515 13010KT 9999 BKN045"
    },
    {
      "icao": "ENAL",
      "alert": "OK",
      "vis_m": 9999,
      "fzfg": false,
      "metar_trigger": false,
      "taf_trigger": false,
      "metar": "METAR ENAL 141620Z 25008KT 9999 FEW056 09/02 Q1021",
      "taf": "TAF ENAL 141400Z 1415/1424 15006KT 9999 FEW035 BKN050"
    },
    {
      "icao": "ENBR",
      "alert": "OK",
      "vis_m": 9999,
      "fzfg": false,
      "metar_trigger": false,
      "taf_trigger": false,
      "metar": "METAR ENBR 141620Z 33004KT 9999 -RA FEW007 BKN040 06/04 Q1020 NOSIG RMK WIND 1200FT 13005KT",
      "taf": "TAF ENBR 141100Z 1412/1512 12005KT 9999 -RA BKN050"
    },
    {
      "icao": "ENGM",
      "alert": "OK",
      "vis_m": 9999,
      "fzfg": false,
      "metar_trigger": false,
      "taf_trigger": false,
      "metar": "METAR ENGM 141620Z 09006KT 060V120 CAVOK 09/M01 Q1022 NOSIG",
      "taf": "TAF ENGM 141100Z 1412/1512 10010KT 9999 BKN040"
    },
    {
      "icao": "ENHD",
      "alert": "OK",
      "vis_m": 9999,
      "fzfg": false,
      "metar_trigger": false,
      "taf_trigger": false,
      "metar": "METAR ENHD 141620Z 04005KT 010V100 9999 -DZ BKN045 07/04 Q1020",
      "taf": "TAF ENHD 141400Z 1415/1422 VRB05KT 9999 -RA FEW015 BKN040"
    },
    {
      "icao": "ENTC",
      "alert": "OK",
      "vis_m": 9999,
      "fzfg": false,
      "metar_trigger": false,
      "taf_trigger": false,
      "metar": "METAR ENTC 141620Z 02004KT 360V060 CAVOK 08/M03 Q1030 NOSIG RMK WIND 2600FT 17014KT",
      "taf": "TAF ENTC 141100Z 1412/1512 VRB04KT CAVOK"
    },
    {
      "icao": "ENTO",
      "alert": "OK",
      "vis_m": 9999,
      "fzfg": false,
      "metar_trigger": false,
      "taf_trigger": false,
      "metar": "METAR ENTO 141620Z 23003KT 9999 -RA SCT008 BKN022 06/06 Q1022 TEMPO BKN012",
      "taf": "TAF ENTO 141100Z 1412/1512 08008KT 9999 -RA FEW010 BKN025"
    },
    {
      "icao": "ENVA",
      "alert": "OK",
      "vis_m": 9999,
      "fzfg": false,
      "metar_trigger": false,
      "taf_trigger": false,
      "metar": "METAR ENVA 141620Z 13011KT 090V160 CAVOK 11/M01 Q1025 NOSIG RMK WIND 670FT 14024KT",
      "taf": "TAF ENVA 141100Z 1412/1512 10008KT CAVOK"
    },
    {
      "icao": "ENZV",
      "alert": "OK",
      "vis_m": 9999,
      "fzfg": false,
      "metar_trigger": false,
      "taf_trigger": false,
      "metar": "METAR ENZV 141620Z 02004KT 360V060 9999 -SHRA FEW012 SCT018 BKN032 07/04 Q1019 RERA NOSIG",
      "taf": "TAF ENZV 141100Z 1412/1512 10008KT 9999 -RA BKN030"
    },
    {
      "icao": "EPGD",
      "alert": "OK",
      "vis_m": 9999,
      "fzfg": false,
      "metar_trigger": false,
      "taf_trigger": false,
      "metar": "METAR EPGD 141630Z 18009KT 9999 -RA SCT025 BKN044 11/02 Q1021",
      "taf": "TAF EPGD 141130Z 1412/1512 12012KT CAVOK"
    },
    {
      "icao": "EPKK",
      "alert": "OK",
      "vis_m": 9999,
      "fzfg": false,
      "metar_trigger": false,
      "taf_trigger": false,
      "metar": "METAR EPKK 141630Z 04006KT 9999 FEW066 16/03 Q1018",
      "taf": "TAF EPKK 141430Z 1415/1515 06006KT CAVOK"
    },
    {
      "icao": "EPKT",
      "alert": "OK",
      "vis_m": 9999,
      "fzfg": false,
      "metar_trigger": false,
      "taf_trigger": false,
      "metar": "METAR EPKT 141630Z 07008KT CAVOK 15/02 Q1019",
      "taf": "TAF EPKT 141130Z 1412/1512 15006KT CAVOK"
    },
    {
      "icao": "EPLB",
      "alert": "OK",
      "vis_m": 9999,
      "fzfg": false,
      "metar_trigger": false,
      "taf_trigger": false,
      "metar": "METAR EPLB 141630Z 11006KT CAVOK 15/M01 Q1021",
      "taf": "TAF EPLB 141130Z 1412/1512 12015KT CAVOK"
    },
    {
      "icao": "EPMO",
      "alert": "OK",
      "vis_m": 9999,
      "fzfg": false,
      "metar_trigger": false,
      "taf_trigger": false,
      "metar": "METAR EPMO 141630Z 08010KT 9999 -SHRA FEW047CB 11/04 Q1021",
      "taf": "TAF EPMO 141130Z 1412/1512 12014KT CAVOK"
    },
    {
      "icao": "EPPO",
      "alert": "OK",
      "vis_m": 9999,
      "fzfg": false,
      "metar_trigger": false,
      "taf_trigger": false,
      "metar": "METAR EPPO 141630Z 36004KT CAVOK 12/05 Q1019",
      "taf": "TAF EPPO 141130Z 1412/1512 11012KT CAVOK"
    },
    {
      "icao": "EPRA",
      "alert": "OK",
      "vis_m": 9999,
      "fzfg": false,
      "metar_trigger": false,
      "taf_trigger": false,
      "metar": "METAR EPRA 141630Z 10005KT CAVOK 14/02 Q1020",
      "taf": "TAF EPRA 141430Z 1415/1424 12006KT CAVOK"
    },
    {
      "icao": "EPRZ",
      "alert": "OK",
      "vis_m": 9999,
      "fzfg": false,
      "metar_trigger": false,
      "taf_trigger": false,
      "metar": "METAR EPRZ 141630Z 09009KT CAVOK 16/01 Q1019",
      "taf": "TAF EPRZ 141130Z 1412/1512 11012KT CAVOK"
    },
    {
      "icao": "EPSC",
      "alert": "OK",
      "vis_m": 9999,
      "fzfg": false,
      "metar_trigger": false,
      "taf_trigger": false,
      "metar": "METAR EPSC 141630Z 34003KT 9999 FEW045 11/06 Q1019",
      "taf": "TAF EPSC 141130Z 1412/1512 13010KT CAVOK"
    },
    {
      "icao": "EPSY",
      "alert": "OK",
      "vis_m": 9999,
      "fzfg": false,
      "metar_trigger": false,
      "taf_trigger": false,
      "metar": "METAR EPSY 141630Z 16006KT CAVOK 13/00 Q1022",
      "taf": "TAF EPSY 141430Z 1415/1424 13010KT CAVOK"
    },
    {
      "icao": "EPWA",
      "alert": "OK",
      "vis_m": 9999,
      "fzfg": false,
      "metar_trigger": false,
      "taf_trigger": false,
      "metar": "METAR EPWA 141630Z 09007KT CAVOK 14/M00 Q1020 NOSIG",
      "taf": "TAF EPWA 141430Z 1415/1515 11008KT CAVOK"
    },
    {
      "icao": "EPWR",
      "alert": "OK",
      "vis_m": 9999,
      "fzfg": false,
      "metar_trigger": false,
      "taf_trigger": false,
      "metar": "METAR EPWR 141630Z 14005KT CAVOK 13/09 Q1018",
      "taf": "TAF EPWR 141430Z 1415/1515 18006KT CAVOK"
    },
    {
      "icao": "ESGG",
      "alert": "OK",
      "vis_m": 9999,
      "fzfg": false,
      "metar_trigger": false,
      "taf_trigger": false,
      "metar": "METAR ESGG 141620Z 15007KT 110V190 9999 -RA BKN021 OVC027 06/04 Q1020",
      "taf": "TAF ESGG 141430Z 1415/1515 11014G25KT 9999 SCT025"
    },
    {
      "icao": "ESKN",
      "alert": "OK",
      "vis_m": 9999,
      "fzfg": false,
      "metar_trigger": false,
      "taf_trigger": false,
      "metar": "METAR ESKN 141620Z 10014KT CAVOK 09/00 Q1026",
      "taf": "TAF ESKN 141430Z 1415/1515 12016KT CAVOK"
    },
    {
      "icao": "ESMS",
      "alert": "OK",
      "vis_m": 9999,
      "fzfg": false,
      "metar_trigger": false,
      "taf_trigger": false,
      "metar": "METAR ESMS 141620Z 10006KT 9999 SCT049 07/04 Q1019",
      "taf": "TAF ESMS 141427Z 1415/1515 10010KT 9999 FEW040"
    },
    {
      "icao": "ESSA",
      "alert": "OK",
      "vis_m": 9999,
      "fzfg": false,
      "metar_trigger": false,
      "taf_trigger": false,
      "metar": "METAR ESSA 141620Z 11011KT CAVOK 09/01 Q1028 NOSIG",
      "taf": "TAF ESSA 141430Z 1415/1515 12012KT CAVOK"
    },
    {
      "icao": "EYKA",
      "alert": "OK",
      "vis_m": 9999,
      "fzfg": false,
      "metar_trigger": false,
      "taf_trigger": false,
      "metar": "METAR EYKA 141620Z 10006KT CAVOK 14/M01 Q1024",
      "taf": "TAF EYKA 141100Z 1412/1512 11010KT 9000 NSC"
    },
    {
      "icao": "EYPA",
      "alert": "OK",
      "vis_m": 9999,
      "fzfg": false,
      "metar_trigger": false,
      "taf_trigger": false,
      "metar": "METAR EYPA 141620Z 13007KT 100V180 CAVOK 15/M02 Q1023",
      "taf": "TAF EYPA 141100Z 1412/1512 12010G20KT 9000 BKN045"
    },
    {
      "icao": "EYVI",
      "alert": "OK",
      "vis_m": 9999,
      "fzfg": false,
      "metar_trigger": false,
      "taf_trigger": false,
      "metar": "METAR EYVI 141620Z 11006KT CAVOK 13/M01 Q1024 NOSIG",
      "taf": "TAF EYVI 141100Z 1412/1512 11010KT 9000 NSC"
    },
    {
      "icao": "GCFV",
      "alert": "OK",
      "vis_m": 9999,
      "fzfg": false,
      "metar_trigger": false,
      "taf_trigger": false,
      "metar": "METAR GCFV 141630Z 03017KT 9999 FEW030 21/14 Q1017",
      "taf": "TAF GCFV 141400Z 1415/1515 04015KT 9999 FEW025 TX23/1514Z TN16/1506Z"
    },
    {
      "icao": "GCLP",
      "alert": "OK",
      "vis_m": 9999,
      "fzfg": false,
      "metar_trigger": false,
      "taf_trigger": false,
      "metar": "METAR GCLP 141630Z 02025KT 9999 FEW040 20/11 Q1018 NOSIG",
      "taf": "TAF GCLP 141400Z 1415/1515 36024KT 9999 FEW025 TX23/1514Z TN17/1506Z"
    },
    {
      "icao": "GCTS",
      "alert": "OK",
      "vis_m": 9999,
      "fzfg": false,
      "metar_trigger": false,
      "taf_trigger": false,
      "metar": "METAR GCTS 141630Z 08022KT 050V110 9999 FEW030 21/13 Q1018 WS R07 NOSIG",
      "taf": "TAF GCTS 141400Z 1415/1515 08020KT 9999 FEW030 TX24/1514Z TN16/1506Z"
    },
    {
      "icao": "GMAD",
      "alert": "OK",
      "vis_m": 9999,
      "fzfg": false,
      "metar_trigger": false,
      "taf_trigger": false,
      "metar": "METAR GMAD 141630Z 23010KT CAVOK 26/09 Q1013 NOSIG",
      "taf": "TAF GMAD 141100Z 1412/1518 21003KT CAVOK"
    },
    {
      "icao": "GMMN",
      "alert": "OK",
      "vis_m": 9999,
      "fzfg": false,
      "metar_trigger": false,
      "taf_trigger": false,
      "metar": "METAR GMMN 141630Z 02015KT 350V050 CAVOK 19/13 Q1020 NOSIG",
      "taf": "TAF GMMN 141100Z 1412/1518 03015KT 9999 FEW030"
    },
    {
      "icao": "GMMX",
      "alert": "OK",
      "vis_m": 9999,
      "fzfg": false,
      "metar_trigger": false,
      "taf_trigger": false,
      "metar": "METAR GMMX 141630Z 02007KT 320V090 9999 FEW030 24/07 Q1017 NOSIG",
      "taf": "TAF GMMX 141100Z 1412/1518 06006KT 8000 NSC"
    },
    {
      "icao": "HEGN",
      "alert": "OK",
      "vis_m": 9999,
      "fzfg": false,
      "metar_trigger": false,
      "taf_trigger": false,
      "metar": "METAR HEGN 141600Z 34004KT CAVOK 29/06 Q1011 NOSIG",
      "taf": "TAF HEGN 141100Z 1412/1518 01014KT CAVOK"
    },
    {
      "icao": "HEMA",
      "alert": "OK",
      "vis_m": 9999,
      "fzfg": false,
      "metar_trigger": false,
      "taf_trigger": false,
      "metar": "METAR HEMA 141600Z 34016KT CAVOK 26/10 Q1010 NOSIG",
      "taf": "TAF HEMA 141100Z 1412/1518 36012G22KT CAVOK"
    },
    {
      "icao": "HESH",
      "alert": "OK",
      "vis_m": 9999,
      "fzfg": false,
      "metar_trigger": false,
      "taf_trigger": false,
      "metar": "METAR HESH 141600Z 02006KT CAVOK 32/06 Q1011 NOSIG",
      "taf": "TAF HESH 141100Z 1412/1518 02015KT CAVOK"
    },
    {
      "icao": "HESX",
      "alert": "OK",
      "vis_m": 9999,
      "fzfg": false,
      "metar_trigger": false,
      "taf_trigger": false,
      "metar": "METAR HESX 141600Z 03014KT CAVOK 25/06 Q1013 NOSIG",
      "taf": "TAF HESX 141100Z 1412/1518 04014KT CAVOK"
    },
    {
      "icao": "LATI",
      "alert": "OK",
      "vis_m": 9999,
      "fzfg": false,
      "metar_trigger": false,
      "taf_trigger": false,
      "metar": "METAR LATI 141650Z 31008KT CAVOK 21/10 Q1013 NOSIG",
      "taf": "TAF LATI 141100Z 1412/1512 34012KT 9999 SCT090 TX25/1412Z TN10/1504Z"
    },
    {
      "icao": "LBPD",
      "alert": "OK",
      "vis_m": 9999,
      "fzfg": false,
      "metar_trigger": false,
      "taf_trigger": false,
      "metar": "METAR LBPD 141630Z AUTO 06004KT 9999 NCD 14/06 Q1021 NOSIG",
      "taf": "TAF LBPD 141100Z 1412/1512 11010KT 9999 SCT070"
    },
    {
      "icao": "LBSF",
      "alert": "OK",
      "vis_m": 9999,
      "fzfg": false,
      "metar_trigger": false,
      "taf_trigger": false,
      "metar": "METAR LBSF 141630Z AUTO 11016KT 9999 NSC 13/04 Q1019 NOSIG",
      "taf": "TAF LBSF 141100Z 1412/1512 10014KT 9999 SCT070"
    },
    {
      "icao": "LBWN",
      "alert": "OK",
      "vis_m": 9999,
      "fzfg": false,
      "metar_trigger": false,
      "taf_trigger": false,
      "metar": "METAR LBWN 141630Z AUTO 12011KT 9999 FEW017/// 10/06 Q1023 NOSIG",
      "taf": "TAF LBWN 141100Z 1412/1512 12018KT 9999 SCT012 SCT020"
    },
    {
      "icao": "LCLK",
      "alert": "OK",
      "vis_m": 9999,
      "fzfg": false,
      "metar_trigger": false,
      "taf_trigger": false,
      "metar": "METAR LCLK 141630Z 03010KT CAVOK 19/12 Q1019 NOSIG",
      "taf": "TAF LCLK 141130Z 1412/1512 09012KT CAVOK"
    },
    {
      "icao": "LCPH",
      "alert": "OK",
      "vis_m": 9999,
      "fzfg": false,
      "metar_trigger": false,
      "taf_trigger": false,
      "metar": "METAR LCPH 141630Z AUTO 31004KT 9999 NCD 18/13 Q1019 NOSIG",
      "taf": "TAF LCPH 141130Z 1412/1512 30010KT CAVOK"
    },
    {
      "icao": "LEAL",
      "alert": "OK",
      "vis_m": 9999,
      "fzfg": false,
      "metar_trigger": false,
      "taf_trigger": false,
      "metar": "METAR LEAL 141630Z 09007KT CAVOK 18/08 Q1018 NOSIG",
      "taf": "TAF LEAL 141100Z 1412/1512 13010KT 9999 FEW030 TX21/1413Z TN10/1506Z"
    },
    {
      "icao": "LEBB",
      "alert": "OK",
      "vis_m": 7000,
      "fzfg": false,
      "metar_trigger": false,
      "taf_trigger": false,
      "metar": "METAR LEBB 141630Z 30008KT 7000 FEW009 BKN016 OVC020 15/14 Q1022 NOSIG",
      "taf": "TAF LEBB 141100Z 1412/1512 13005KT 9999 FEW020 BKN030 TX20/1512Z TN09/1504Z"
    },
    {
      "icao": "LEBL",
      "alert": "OK",
      "vis_m": 9999,
      "fzfg": false,
      "metar_trigger": false,
      "taf_trigger": false,
      "metar": "METAR LEBL 141630Z 20009KT CAVOK 16/11 Q1016 NOSIG",
      "taf": "TAF LEBL 141100Z 1412/1512 22010KT CAVOK TX19/1413Z TN08/1505Z"
    },
    {
      "icao": "LECH",
      "alert": "OK",
      "vis_m": 9999,
      "fzfg": false,
      "metar_trigger": false,
      "taf_trigger": false,
      "metar": "METAR LECH 141630Z AUTO 14007KT 110V170 9999 SCT069 17/03 Q1017",
      "taf": "TAF LECH 141100Z 1412/1512 35010KT 9999 FEW030 TX22/1413Z TN10/1506Z"
    },
    {
      "icao": "LEMD",
      "alert": "OK",
      "vis_m": 9999,
      "fzfg": false,
      "metar_trigger": false,
      "taf_trigger": false,
      "metar": "METAR LEMD 141630Z 36008KT 320V050 9999 FEW077 21/02 Q1019 NOSIG",
      "taf": "TAF LEMD 141100Z 1412/1518 VRB03KT CAVOK TX21/1416Z TN06/1506Z"
    },
    {
      "icao": "LEMG",
      "alert": "OK",
      "vis_m": 9999,
      "fzfg": false,
      "metar_trigger": false,
      "taf_trigger": false,
      "metar": "METAR LEMG 141630Z 28011KT 9999 FEW050 23/08 Q1018 NOSIG",
      "taf": "TAF LEMG 141100Z 1412/1512 31012KT CAVOK TX23/1414Z TN12/1507Z"
    },
    {
      "icao": "LEVC",
      "alert": "OK",
      "vis_m": 9999,
      "fzfg": false,
      "metar_trigger": false,
      "taf_trigger": false,
      "metar": "METAR LEVC 141630Z 11011KT 080V140 CAVOK 19/04 Q1017 NOSIG",
      "taf": "TAF LEVC 141100Z 1412/1512 11010KT 9999 FEW030 TX23/1413Z TN10/1506Z"
    },
    {
      "icao": "LEXJ",
      "alert": "OK",
      "vis_m": 9999,
      "fzfg": false,
      "metar_trigger": false,
      "taf_trigger": false,
      "metar": "METAR LEXJ 141630Z 32003KT 290V010 9999 SCT046 OVC060 17/12 Q1021",
      "taf": "TAF LEXJ 141400Z 1415/1515 20006KT 9999 SCT020 BKN040 TX18/1514Z TN12/1506Z"
    },
    {
      "icao": "LEZG",
      "alert": "OK",
      "vis_m": 9999,
      "fzfg": false,
      "metar_trigger": false,
      "taf_trigger": false,
      "metar": "METAR LEZG 141630Z 30022KT 280V340 9999 FEW050 21/08 Q1017 NOSIG",
      "taf": "TAF LEZG 141100Z 1412/1512 33020KT 9999 FEW040 TX21/1413Z TN12/1506Z"
    },
    {
      "icao": "LEZL",
      "alert": "OK",
      "vis_m": 9999,
      "fzfg": false,
      "metar_trigger": false,
      "taf_trigger": false,
      "metar": "METAR LEZL 141630Z 28008KT 230V330 9999 FEW049 24/10 Q1019 NOSIG",
      "taf": "TAF LEZL 141400Z 1415/1515 34004KT CAVOK TX25/1415Z TN09/1507Z"
    },
    {
      "icao": "LFBD",
      "alert": "OK",
      "vis_m": 9999,
      "fzfg": false,
      "metar_trigger": false,
      "taf_trigger": false,
      "metar": "METAR LFBD 141630Z AUTO 28008KT 9999 FEW049 19/08 Q1020 NOSIG",
      "taf": ""
    },
    {
      "icao": "LFLL",
      "alert": "OK",
      "vis_m": 9999,
      "fzfg": false,
      "metar_trigger": false,
      "taf_trigger": false,
      "metar": "METAR LFLL 141630Z 36010KT 9999 BKN045 13/06 Q1020 NOSIG",
      "taf": "TAF LFLL 141100Z 1412/1518 36015KT 9999 BKN035"
    },
    {
      "icao": "LFLS",
      "alert": "OK",
      "vis_m": 9999,
      "fzfg": false,
      "metar_trigger": false,
      "taf_trigger": false,
      "metar": "METAR LFLS 141630Z AUTO 34009KT 9999 OVC043 11/06 Q1019 NOSIG",
      "taf": "TAF LFLS 141400Z 1415/1515 36010KT 9999 BKN045"
    },
    {
      "icao": "LFMN",
      "alert": "OK",
      "vis_m": 9999,
      "fzfg": false,
      "metar_trigger": false,
      "taf_trigger": false,
      "metar": "METAR LFMN 141630Z 21007KT 9999 FEW066 SCT130 18/13 Q1012 NOSIG",
      "taf": "TAF LFMN 141400Z 1415/1521 21008KT CAVOK"
    },
    {
      "icao": "LFOB",
      "alert": "OK",
      "vis_m": 9999,
      "fzfg": false,
      "metar_trigger": false,
      "taf_trigger": false,
      "metar": "METAR LFOB 141630Z AUTO 16006KT 120V200 CAVOK 17/04 Q1020 NOSIG",
      "taf": "TAF LFOB 141100Z 1412/1512 VRB04KT 9999 SCT030"
    },
    {
      "icao": "LFPO",
      "alert": "OK",
      "vis_m": 9999,
      "fzfg": false,
      "metar_trigger": false,
      "taf_trigger": false,
      "metar": "METAR LFPO 141630Z 23006KT 170V270 CAVOK 17/02 Q1020 NOSIG",
      "taf": "TAF LFPO 141100Z 1412/1518 18005KT 9999 SCT045"
    },
    {
      "icao": "LFSB",
      "alert": "OK",
      "vis_m": 9999,
      "fzfg": false,
      "metar_trigger": false,
      "taf_trigger": false,
      "metar": "METAR LFSB 141630Z AUTO 36010KT 9999 FEW047 BKN054 BKN076 14/05 Q1020 NOSIG",
      "taf": "TAF LFSB 141100Z 1412/1512 36008KT 9999 SCT030 BKN060"
    },
    {
      "icao": "LGAV",
      "alert": "OK",
      "vis_m": 9999,
      "fzfg": false,
      "metar_trigger": false,
      "taf_trigger": false,
      "metar": "METAR LGAV 141620Z 19004KT 9999 FEW025 SCT070 16/11 Q1021 NOSIG",
      "taf": "TAF LGAV 141100Z 1412/1512 12010KT 9999 SCT020 BKN070"
    },
    {
      "icao": "LGTS",
      "alert": "OK",
      "vis_m": 9999,
      "fzfg": false,
      "metar_trigger": false,
      "taf_trigger": false,
      "metar": "METAR LGTS 141620Z VRB03KT 9999 FEW018 16/10 Q1020 NOSIG",
      "taf": "TAF LGTS 141100Z 1412/1512 16008KT 9999 FEW025"
    },
    {
      "icao": "LHBP",
      "alert": "OK",
      "vis_m": 9999,
      "fzfg": false,
      "metar_trigger": false,
      "taf_trigger": false,
      "metar": "METAR LHBP 141630Z 13008KT CAVOK 16/06 Q1018 NOSIG",
      "taf": "TAF LHBP 141115Z 1412/1512 11011KT CAVOK"
    },
    {
      "icao": "LHDC",
      "alert": "OK",
      "vis_m": 9999,
      "fzfg": false,
      "metar_trigger": false,
      "taf_trigger": false,
      "metar": "METAR LHDC 141615Z AUTO VRB02KT CAVOK 21/05 Q1017 NOSIG",
      "taf": "TAF LHDC 141415Z 1415/1424 VRB03KT CAVOK"
    },
    {
      "icao": "LIBD",
      "alert": "OK",
      "vis_m": 8000,
      "fzfg": false,
      "metar_trigger": false,
      "taf_trigger": false,
      "metar": "METAR LIBD 141620Z 17005KT 8000 SCT030 20/14 Q1011",
      "taf": "TAF LIBD 141100Z 1412/1512 17012KT 9999 BKN020"
    },
    {
      "icao": "LIBG",
      "alert": "OK",
      "vis_m": 8000,
      "fzfg": false,
      "metar_trigger": false,
      "taf_trigger": false,
      "metar": "METAR LIBG 141550Z 14014KT 8000 SCT015 SCT020 18/15 Q1012",
      "taf": "TAF LIBG 141400Z 1415/1424 14012KT 6000 BKN015"
    },
    {
      "icao": "LIBP",
      "alert": "OK",
      "vis_m": 9999,
      "fzfg": false,
      "metar_trigger": false,
      "taf_trigger": false,
      "metar": "METAR LIBP 141620Z AUTO 05006KT 9999 FEW053/// BKN100/// 18/15 Q1012",
      "taf": "TAF LIBP 141100Z 1412/1512 VRB06KT 9999 SCT040"
    },
    {
      "icao": "LIBR",
      "alert": "OK",
      "vis_m": 9999,
      "fzfg": false,
      "metar_trigger": false,
      "taf_trigger": false,
      "metar": "METAR LIBR 141620Z 17013KT 9999 BKN030 19/13 Q1012",
      "taf": "TAF LIBR 141100Z 1412/1512 16015KT 8000 BKN020"
    },
    {
      "icao": "LICA",
      "alert": "OK",
      "vis_m": 9999,
      "fzfg": false,
      "metar_trigger": false,
      "taf_trigger": false,
      "metar": "METAR LICA 141620Z AUTO 08016KT 9999 FEW095/// 19/15 Q1009",
      "taf": "TAF LICA 141100Z 1412/1512 08012KT 7000 FEW040"
    },
    {
      "icao": "LICC",
      "alert": "OK",
      "vis_m": 6000,
      "fzfg": false,
      "metar_trigger": false,
      "taf_trigger": false,
      "metar": "METAR LICC 141620Z 07015KT 6000 FEW010 SCT100 19/16 Q1008",
      "taf": "TAF LICC 141100Z 1412/1512 08012KT 6000 SCT020"
    },
    {
      "icao": "LICJ",
      "alert": "OK",
      "vis_m": 4900,
      "fzfg": false,
      "metar_trigger": false,
      "taf_trigger": false,
      "metar": "METAR LICJ 141620Z AUTO 27009KT 4900 TSRA BR ///////// 16/14 Q1010",
      "taf": "TAF LICJ 141100Z 1412/1512 03010KT 7000 FEW040"
    },
    {
      "icao": "LIMC",
      "alert": "OK",
      "vis_m": 9999,
      "fzfg": false,
      "metar_trigger": false,
      "taf_trigger": false,
      "metar": "METAR LIMC 141620Z 17005KT 9999 SCT030 18/12 Q1014 NOSIG",
      "taf": "TAF LIMC 141100Z 1412/1518 VRB05KT 9999 BKN040"
    },
    {
      "icao": "LIME",
      "alert": "OK",
      "vis_m": 7000,
      "fzfg": false,
      "metar_trigger": false,
      "taf_trigger": false,
      "metar": "METAR LIME 141620Z 13003KT 7000 -RA SCT015 BKN035 14/13 Q1015 NOSIG",
      "taf": "TAF LIME 141100Z 1412/1512 VRB05KT 6000 BKN015"
    },
    {
      "icao": "LIMF",
      "alert": "OK",
      "vis_m": 5000,
      "fzfg": false,
      "metar_trigger": false,
      "taf_trigger": false,
      "metar": "METAR LIMF 141620Z 10004KT 040V140 5000 -SHRA SCT035TCU BKN050 17/12 Q1014",
      "taf": "TAF LIMF 141100Z 1412/1512 VRB06KT 8000 BKN030"
    },
    {
      "icao": "LIMJ",
      "alert": "OK",
      "vis_m": 9999,
      "fzfg": false,
      "metar_trigger": false,
      "taf_trigger": false,
      "metar": "METAR LIMJ 141620Z 02007KT 340V050 CAVOK 21/09 Q1011",
      "taf": "TAF LIMJ 141100Z 1412/1512 05015KT 9999 SCT060"
    },
    {
      "icao": "LIPE",
      "alert": "OK",
      "vis_m": 6000,
      "fzfg": false,
      "metar_trigger": false,
      "taf_trigger": false,
      "metar": "METAR LIPE 141620Z 02005KT 6000 BKN009 BKN015 14/13 Q1014",
      "taf": "TAF LIPE 141100Z 1412/1512 VRB05KT 3000 RA BR BKN005 BKN010"
    },
    {
      "icao": "LIPH",
      "alert": "OK",
      "vis_m": 9999,
      "fzfg": false,
      "metar_trigger": false,
      "taf_trigger": false,
      "metar": "METAR LIPH 141620Z 07007KT 9999 BKN050 16/12 Q1014",
      "taf": "TAF LIPH 141100Z 1412/1512 05010KT 8000 BKN040"
    },
    {
      "icao": "LIPQ",
      "alert": "OK",
      "vis_m": 9999,
      "fzfg": false,
      "metar_trigger": false,
      "taf_trigger": false,
      "metar": "METAR LIPQ 141620Z AUTO 36003KT 290V030 9999 -RA OVC081/// 14/12 Q1015",
      "taf": "TAF LIPQ 141100Z 1412/1512 06010KT 9999 BKN050"
    },
    {
      "icao": "LIPR",
      "alert": "OK",
      "vis_m": 9999,
      "fzfg": false,
      "metar_trigger": false,
      "taf_trigger": false,
      "metar": "METAR LIPR 141620Z 33008KT 9999 FEW008 SCT020 16/14 Q1013",
      "taf": "TAF LIPR 141100Z 1412/1512 32010KT 8000 BKN015"
    },
    {
      "icao": "LIPX",
      "alert": "OK",
      "vis_m": 9999,
      "fzfg": false,
      "metar_trigger": false,
      "taf_trigger": false,
      "metar": "METAR LIPX 141620Z VRB01KT 9999 FEW020 BKN045 14/13 Q1015",
      "taf": "TAF LIPX 141100Z 1412/1512 VRB05KT 9999 BKN040"
    },
    {
      "icao": "LIPY",
      "alert": "OK",
      "vis_m": 9999,
      "fzfg": false,
      "metar_trigger": false,
      "taf_trigger": false,
      "metar": "METAR LIPY 141620Z AUTO 33008KT 9999 BKN009/// 15/14 Q1013",
      "taf": "TAF LIPY 141100Z 1412/1512 34010KT 7000 BKN015"
    },
    {
      "icao": "LIPZ",
      "alert": "OK",
      "vis_m": 9999,
      "fzfg": false,
      "metar_trigger": false,
      "taf_trigger": false,
      "metar": "METAR LIPZ 141620Z 07011KT 9999 BKN055 16/11 Q1014 NOSIG",
      "taf": "TAF LIPZ 141100Z 1412/1518 05012KT 9999 BKN030"
    },
    {
      "icao": "LIRF",
      "alert": "OK",
      "vis_m": 9999,
      "fzfg": false,
      "metar_trigger": false,
      "taf_trigger": false,
      "metar": "METAR LIRF 141620Z 16004KT 110V200 CAVOK 17/14 Q1010 NOSIG",
      "taf": ""
    },
    {
      "icao": "LIRN",
      "alert": "OK",
      "vis_m": 9999,
      "fzfg": false,
      "metar_trigger": false,
      "taf_trigger": false,
      "metar": "METAR LIRN 141620Z VRB05KT CAVOK 20/12 Q1009 NOSIG",
      "taf": "TAF LIRN 141100Z 1412/1512 18010KT 9999 BKN040"
    },
    {
      "icao": "LIRP",
      "alert": "OK",
      "vis_m": 9999,
      "fzfg": false,
      "metar_trigger": false,
      "taf_trigger": false,
      "metar": "METAR LIRP 141615Z 11005KT 9999 SCT030 SCT070 17/13 Q1011 NOSIG",
      "taf": "TAF LIRP 141100Z 1412/1512 09008KT 9999 SCT030 BKN080"
    },
    {
      "icao": "LIRZ",
      "alert": "OK",
      "vis_m": 9999,
      "fzfg": false,
      "metar_trigger": false,
      "taf_trigger": false,
      "metar": "METAR LIRZ 141620Z AUTO 35007KT 9999 FEW049/// SCT082/// 18/14 Q1011",
      "taf": "TAF LIRZ 141100Z 1412/1512 VRB06KT 9999 BKN030"
    },
    {
      "icao": "LJLJ",
      "alert": "OK",
      "vis_m": 9999,
      "fzfg": false,
      "metar_trigger": false,
      "taf_trigger": false,
      "metar": "METAR LJLJ 141630Z 19005KT 160V220 9999 BKN043 12/08 Q1017 NOSIG",
      "taf": "TAF LJLJ 141100Z 1412/1512 12003KT 9999 FEW010 OVC045"
    },
    {
      "icao": "LKMT",
      "alert": "OK",
      "vis_m": 9000,
      "fzfg": false,
      "metar_trigger": false,
      "taf_trigger": false,
      "metar": "METAR LKMT 141630Z 23006KT 9000 -RA NSC 11/08 Q1019 NOSIG",
      "taf": "TAF LKMT 141100Z 1412/1512 02008KT 9999 BKN025"
    },
    {
      "icao": "LKPR",
      "alert": "OK",
      "vis_m": 9999,
      "fzfg": false,
      "metar_trigger": false,
      "taf_trigger": false,
      "metar": "METAR LKPR 141630Z 34012KT 9999 -RA NSC 12/07 Q1019 NOSIG",
      "taf": "TAF LKPR 141400Z 1415/1521 33008KT CAVOK"
    },
    {
      "icao": "LLBG",
      "alert": "OK",
      "vis_m": 9999,
      "fzfg": false,
      "metar_trigger": false,
      "taf_trigger": false,
      "metar": "METAR LLBG 141620Z 01007KT CAVOK 27/07 Q1014 NOSIG",
      "taf": "TAF LLBG 141101Z 1412/1512 32010KT CAVOK TX28/1412Z TN12/1504Z"
    },
    {
      "icao": "LMML",
      "alert": "OK",
      "vis_m": 7000,
      "fzfg": false,
      "metar_trigger": false,
      "taf_trigger": false,
      "metar": "METAR LMML 141645Z 28013KT 7000 FEW009 19/15 Q1008 BECMG BKN009",
      "taf": ""
    },
    {
      "icao": "LOWW",
      "alert": "OK",
      "vis_m": 9999,
      "fzfg": false,
      "metar_trigger": false,
      "taf_trigger": false,
      "metar": "METAR LOWW 141620Z VRB01KT 9999 FEW050 12/07 Q1019 NOSIG",
      "taf": "TAF LOWW 141415Z 1415/1521 VRB04KT 9999 SCT040 TX18/1514Z TN11/1500Z"
    },
    {
      "icao": "LPFR",
      "alert": "OK",
      "vis_m": 9999,
      "fzfg": false,
      "metar_trigger": false,
      "taf_trigger": false,
      "metar": "METAR LPFR 141630Z 25010KT 9999 FEW030 19/14 Q1021",
      "taf": "TAF LPFR 141100Z 1412/1512 33008KT 9999 FEW015"
    },
    {
      "icao": "LPMA",
      "alert": "OK",
      "vis_m": 9999,
      "fzfg": false,
      "metar_trigger": false,
      "taf_trigger": false,
      "metar": "METAR LPMA 141630Z 03011KT 350V060 9999 SCT023 18/11 Q1024",
      "taf": "TAF LPMA 141100Z 1412/1512 03013KT 9999 SCT015 BKN030"
    },
    {
      "icao": "LPPR",
      "alert": "OK",
      "vis_m": 9999,
      "fzfg": false,
      "metar_trigger": false,
      "taf_trigger": false,
      "metar": "METAR LPPR 141630Z 24006KT 210V300 9999 FEW010 SCT013 17/13 Q1023",
      "taf": "TAF LPPR 141100Z 1412/1512 26007KT 9999 SCT008 BKN016"
    },
    {
      "icao": "LPPS",
      "alert": "OK",
      "vis_m": 9999,
      "fzfg": false,
      "metar_trigger": false,
      "taf_trigger": false,
      "metar": "METAR LPPS 141630Z 02010KT 350V050 9999 FEW015 BKN030 17/10 Q1024",
      "taf": "TAF LPPS 141100Z 1412/1518 04013KT 9999 FEW015 BKN030"
    },
    {
      "icao": "LPPT",
      "alert": "OK",
      "vis_m": 9999,
      "fzfg": false,
      "metar_trigger": false,
      "taf_trigger": false,
      "metar": "METAR LPPT 141630Z 30009KT 270V340 9999 FEW020 SCT028 18/12 Q1022",
      "taf": "TAF LPPT 141100Z 1412/1518 VRB05KT 9999 FEW015 BKN030"
    },
    {
      "icao": "LQBK",
      "alert": "OK",
      "vis_m": 9999,
      "fzfg": false,
      "metar_trigger": false,
      "taf_trigger": false,
      "metar": "METAR LQBK 141630Z 31005KT 9999 SCT040 15/12 Q1016 NOSIG",
      "taf": "TAF LQBK 141100Z 1412/1512 32005KT 9999 SCT040 TX18/1413Z TN10/1504Z"
    },
    {
      "icao": "LQSA",
      "alert": "OK",
      "vis_m": 9999,
      "fzfg": false,
      "metar_trigger": false,
      "taf_trigger": false,
      "metar": "METAR LQSA 141630Z 16007KT 9999 SCT065 19/06 Q1014 NOSIG",
      "taf": "TAF LQSA 141100Z 1412/1512 33006KT 9999 BKN055 TX18/1413Z TN08/1504Z"
    },
    {
      "icao": "LQTZ",
      "alert": "OK",
      "vis_m": 9999,
      "fzfg": false,
      "metar_trigger": false,
      "taf_trigger": false,
      "metar": "METAR LQTZ 141630Z 13004KT CAVOK 16/13 Q1015",
      "taf": "TAF LQTZ 141100Z 1412/1512 15005KT 9999 BKN050 TX17/1413Z TN09/1504Z"
    },
    {
      "icao": "LRBC",
      "alert": "OK",
      "vis_m": 9999,
      "fzfg": false,
      "metar_trigger": false,
      "taf_trigger": false,
      "metar": "METAR LRBC 141630Z 15012KT CAVOK 13/02 Q1022",
      "taf": "TAF LRBC 141400Z 1415/1424 15014KT CAVOK"
    },
    {
      "icao": "LRBS",
      "alert": "OK",
      "vis_m": 9999,
      "fzfg": false,
      "metar_trigger": false,
      "taf_trigger": false,
      "metar": "METAR LRBS 141630Z 06010KT CAVOK 14/05 Q1021 NOSIG",
      "taf": "TAF LRBS 141100Z 1412/1512 09012KT CAVOK"
    },
    {
      "icao": "LRBV",
      "alert": "OK",
      "vis_m": 9999,
      "fzfg": false,
      "metar_trigger": false,
      "taf_trigger": false,
      "metar": "METAR LRBV 141630Z 19009KT CAVOK 13/01 Q1020",
      "taf": ""
    },
    {
      "icao": "LRCL",
      "alert": "OK",
      "vis_m": 9999,
      "fzfg": false,
      "metar_trigger": false,
      "taf_trigger": false,
      "metar": "METAR LRCL 141630Z 12005KT 100V160 CAVOK 17/03 Q1018",
      "taf": "TAF LRCL 141400Z 1415/1424 12007KT CAVOK"
    },
    {
      "icao": "LRCV",
      "alert": "OK",
      "vis_m": 9999,
      "fzfg": false,
      "metar_trigger": false,
      "taf_trigger": false,
      "metar": "METAR LRCV 141630Z 07010KT CAVOK 14/06 Q1021",
      "taf": "TAF LRCV 141400Z 1415/1424 10014KT CAVOK"
    },
    {
      "icao": "LRIA",
      "alert": "OK",
      "vis_m": 9999,
      "fzfg": false,
      "metar_trigger": false,
      "taf_trigger": false,
      "metar": "METAR LRIA 141630Z 15007KT CAVOK 13/M01 Q1022",
      "taf": "TAF LRIA 141400Z 1415/1424 15007KT CAVOK"
    },
    {
      "icao": "LROP",
      "alert": "OK",
      "vis_m": 9999,
      "fzfg": false,
      "metar_trigger": false,
      "taf_trigger": false,
      "metar": "METAR LROP 141630Z 09011KT CAVOK 14/01 Q1022 NOSIG",
      "taf": "TAF LROP 141100Z 1412/1512 09012KT CAVOK"
    },
    {
      "icao": "LRSB",
      "alert": "OK",
      "vis_m": 9999,
      "fzfg": false,
      "metar_trigger": false,
      "taf_trigger": false,
      "metar": "METAR LRSB 141630Z 14008KT CAVOK 15/00 Q1018",
      "taf": "TAF LRSB 141100Z 1412/1512 14014KT CAVOK"
    },
    {
      "icao": "LRSM",
      "alert": "OK",
      "vis_m": 9999,
      "fzfg": false,
      "metar_trigger": false,
      "taf_trigger": false,
      "metar": "METAR LRSM 141630Z 10003KT CAVOK 20/03 Q1018",
      "taf": "TAF LRSM 141400Z 1415/1424 12007KT CAVOK"
    },
    {
      "icao": "LRSV",
      "alert": "OK",
      "vis_m": 9999,
      "fzfg": false,
      "metar_trigger": false,
      "taf_trigger": false,
      "metar": "METAR LRSV 141630Z 14010KT CAVOK 11/02 Q1021",
      "taf": "TAF LRSV 141400Z 1415/1424 14012KT CAVOK"
    },
    {
      "icao": "LRTM",
      "alert": "OK",
      "vis_m": 9999,
      "fzfg": false,
      "metar_trigger": false,
      "taf_trigger": false,
      "metar": "METAR LRTM 141630Z 09006KT CAVOK 16/05 Q1018",
      "taf": "TAF LRTM 141400Z 1415/1424 09007KT CAVOK"
    },
    {
      "icao": "LRTR",
      "alert": "OK",
      "vis_m": 9999,
      "fzfg": false,
      "metar_trigger": false,
      "taf_trigger": false,
      "metar": "METAR LRTR 141630Z VRB02KT 9999 FEW043 15/10 Q1017",
      "taf": "TAF LRTR 141100Z 1412/1512 19010KT CAVOK"
    },
    {
      "icao": "LTAC",
      "alert": "OK",
      "vis_m": 9999,
      "fzfg": false,
      "metar_trigger": false,
      "taf_trigger": false,
      "metar": "METAR LTAC 141620Z 25008KT CAVOK 13/02 Q1021 NOSIG RMK RWY21C 25008KT RWY03L 25007KT RWY21R 24008KT RWY03R 24007KT RWY21L 24007KT",
      "taf": "TAF LTAC 141040Z 1412/1512 VRB02KT 9999 FEW040 BKN180"
    },
    {
      "icao": "LTFM",
      "alert": "OK",
      "vis_m": 9999,
      "fzfg": false,
      "metar_trigger": false,
      "taf_trigger": false,
      "metar": "METAR LTFM 141620Z 06014KT CAVOK 11/06 Q1023 NOSIG RMK RWY17L 07013KT RWY34L 06012KT RWY16R 07013KT RWY36 06016KT 020V080 RWY18 07014KT",
      "taf": "TAF LTFM 141040Z 1412/1518 07018KT CAVOK"
    },
    {
      "icao": "LUKK",
      "alert": "OK",
      "vis_m": 9999,
      "fzfg": false,
      "metar_trigger": false,
      "taf_trigger": false,
      "metar": "METAR LUKK 141630Z 18004KT CAVOK 13/00 Q1023 NOSIG",
      "taf": "TAF LUKK 141101Z 1412/1512 VRB06KT CAVOK"
    },
    {
      "icao": "LWOH",
      "alert": "OK",
      "vis_m": 9999,
      "fzfg": false,
      "metar_trigger": false,
      "taf_trigger": false,
      "metar": "METAR LWOH 141650Z VRB01KT 9999 FEW035 SCT090 15/09 Q1017",
      "taf": "TAF LWOH 141420Z 1415/1515 19008KT 9999 FEW040 SCT090"
    },
    {
      "icao": "LWSK",
      "alert": "OK",
      "vis_m": 9999,
      "fzfg": false,
      "metar_trigger": false,
      "taf_trigger": false,
      "metar": "METAR LWSK 141620Z 12009KT 9999 FEW065 18/07 Q1017 NOSIG",
      "taf": "TAF LWSK 141420Z 1415/1515 16012KT 9999 SCT060"
    },
    {
      "icao": "LYBE",
      "alert": "OK",
      "vis_m": 9999,
      "fzfg": false,
      "metar_trigger": false,
      "taf_trigger": false,
      "metar": "METAR LYBE 141630Z 11010KT CAVOK 16/06 Q1016 NOSIG",
      "taf": "TAF LYBE 141100Z 1412/1512 13015KT CAVOK TX20/1512Z TN11/1504Z"
    },
    {
      "icao": "LYNI",
      "alert": "OK",
      "vis_m": 9999,
      "fzfg": false,
      "metar_trigger": false,
      "taf_trigger": false,
      "metar": "METAR LYNI 141630Z 06013KT CAVOK 17/06 Q1016 NOSIG",
      "taf": "TAF LYNI 141100Z 1412/1512 08007KT 9999 SCT060 TX21/1414Z TN08/1504Z"
    },
    {
      "icao": "LYPG",
      "alert": "OK",
      "vis_m": 9999,
      "fzfg": false,
      "metar_trigger": false,
      "taf_trigger": false,
      "metar": "METAR LYPG 141630Z 25004KT 9999 FEW060 22/08 Q1014 NOSIG",
      "taf": "TAF LYPG 141100Z 1412/1512 34010KT 9999 SCT040 BKN090 TX23/1413Z TN11/1504Z"
    },
    {
      "icao": "LZIB",
      "alert": "OK",
      "vis_m": 9999,
      "fzfg": false,
      "metar_trigger": false,
      "taf_trigger": false,
      "metar": "METAR LZIB 141630Z 31004KT 9999 -RA NSC 13/07 Q1018 NOSIG",
      "taf": "TAF LZIB 141115Z 1412/1512 07007KT CAVOK"
    },
    {
      "icao": "LZKZ",
      "alert": "OK",
      "vis_m": 9999,
      "fzfg": false,
      "metar_trigger": false,
      "taf_trigger": false,
      "metar": "METAR LZKZ 141630Z 24003KT CAVOK 18/05 Q1018 NOSIG",
      "taf": "TAF LZKZ 141115Z 1412/1512 12006KT CAVOK"
    },
    {
      "icao": "LZTT",
      "alert": "OK",
      "vis_m": 9999,
      "fzfg": false,
      "metar_trigger": false,
      "taf_trigger": false,
      "metar": "METAR LZTT 141630Z 26003KT 230V290 9999 FEW033 BKN053 14/03 Q1018 NOSIG",
      "taf": "TAF LZTT 141115Z 1412/1512 24007KT 9999 SCT040"
    },
    {
      "icao": "OEJN",
      "alert": "OK",
      "vis_m": 9999,
      "fzfg": false,
      "metar_trigger": false,
      "taf_trigger": false,
      "metar": "METAR OEJN 141600Z 30003KT CAVOK 29/17 Q1008 NOSIG",
      "taf": "TAF OEJN 141100Z 1412/1518 30014KT 7000 SCT040"
    },
    {
      "icao": "OEMA",
      "alert": "OK",
      "vis_m": 9999,
      "fzfg": false,
      "metar_trigger": false,
      "taf_trigger": false,
      "metar": "METAR OEMA 141600Z 10004KT 9999 FEW035CB SCT040 26/18 Q1015 NOSIG",
      "taf": "TAF OEMA 141100Z 1412/1518 12015KT 7000 SCT040"
    },
    {
      "icao": "OJAI",
      "alert": "OK",
      "vis_m": 5000,
      "fzfg": false,
      "metar_trigger": false,
      "taf_trigger": false,
      "metar": "METAR OJAI 141600Z 05007KT 5000 HZ NSC 21/05 Q1019 NOSIG",
      "taf": "TAF OJAI 141100Z 1412/1518 15010KT 5000 HZ NSC"
    },
    {
      "icao": "OMAA",
      "alert": "OK",
      "vis_m": null,
      "fzfg": false,
      "metar_trigger": false,
      "taf_trigger": false,
      "metar": "",
      "taf": ""
    },
    {
      "icao": "OMDB",
      "alert": "OK",
      "vis_m": null,
      "fzfg": false,
      "metar_trigger": false,
      "taf_trigger": false,
      "metar": "",
      "taf": ""
    },
    {
      "icao": "UAAA",
      "alert": "OK",
      "vis_m": 9999,
      "fzfg": false,
      "metar_trigger": false,
      "taf_trigger": false,
      "metar": "METAR UAAA 141630Z 06002MPS 030V090 9999 FEW200 13/02 Q1017 NOSIG",
      "taf": "TAF UAAA 141102Z 1412/1512 04005MPS 9999 FEW050 SCT100 TX23/1509Z TN06/1501Z"
    },
    {
      "icao": "UBBB",
      "alert": "OK",
      "vis_m": 9999,
      "fzfg": false,
      "metar_trigger": false,
      "taf_trigger": false,
      "metar": "METAR UBBB 141630Z 13008KT 9999 SCT040CB BKN040 11/07 Q1019 NOSIG",
      "taf": "TAF UBBB 141057Z 1412/1512 13006KT 9999 SCT012 BKN030 TX12/1412Z TN09/1501Z"
    },
    {
      "icao": "UDSG",
      "alert": "OK",
      "vis_m": 9999,
      "fzfg": false,
      "metar_trigger": false,
      "taf_trigger": false,
      "metar": "METAR UDSG 141630Z 29002KT 9999 SCT046CB 01/M05 Q1022 NOSIG",
      "taf": "TAF UDSG 141100Z 1412/1512 24006KT 9999 SCT040"
    },
    {
      "icao": "UDYZ",
      "alert": "OK",
      "vis_m": 9999,
      "fzfg": false,
      "metar_trigger": false,
      "taf_trigger": false,
      "metar": "METAR UDYZ 141630Z 13004KT 040V170 9999 -SHRA OVC033CB 06/M00 Q1021 NOSIG",
      "taf": "TAF UDYZ 141100Z 1412/1512 28006KT 9999 SCT040"
    },
    {
      "icao": "UGKO",
      "alert": "OK",
      "vis_m": 9999,
      "fzfg": false,
      "metar_trigger": false,
      "taf_trigger": false,
      "metar": "METAR UGKO 141630Z 25013KT 9999 SCT052 08/05 Q1027 NOSIG",
      "taf": "TAF UGKO 141100Z 1412/1512 26007KT 9999 SCT050 TX16/1512Z TN02/1501Z"
    }
  ]
}