{
  "ts_utc": "2026-04-09T14:32:21Z",
  "threshold_m": 150,
  "source": "stations_override.txt (ICAO list) + aviationweather.gov (METAR/TAF raw)",
  "station_count": 159,
  "stations": [
    {
      "icao": "BIKF",
      "alert": "OK",
      "vis_m": 9999,
      "fzfg": false,
      "metar_trigger": false,
      "taf_trigger": false,
      "metar": "METAR BIKF 091400Z 22033KT 9999 -DZRA BKN013 BKN027 05/03 Q0981",
      "taf": "TAF BIKF 091331Z 0915/1015 23032G42KT 9999 SCT020 BKN030 TX05/0915Z TNM00/1006Z"
    },
    {
      "icao": "BKPR",
      "alert": "OK",
      "vis_m": 9999,
      "fzfg": false,
      "metar_trigger": false,
      "taf_trigger": false,
      "metar": "METAR BKPR 091430Z 02015KT 9999 SCT050 13/M01 Q1014 NOSIG",
      "taf": "TAF BKPR 091130Z 0912/1012 35007KT 9999 FEW040"
    },
    {
      "icao": "EBCI",
      "alert": "OK",
      "vis_m": 9999,
      "fzfg": false,
      "metar_trigger": false,
      "taf_trigger": false,
      "metar": "METAR EBCI 091420Z 25008KT 200V290 CAVOK 23/08 Q1017 NOSIG",
      "taf": "TAF EBCI 091115Z 0912/1018 24005KT CAVOK"
    },
    {
      "icao": "EDDB",
      "alert": "OK",
      "vis_m": 9999,
      "fzfg": false,
      "metar_trigger": false,
      "taf_trigger": false,
      "metar": "METAR EDDB 091420Z AUTO 05005KT 320V090 CAVOK 12/M05 Q1022 NOSIG",
      "taf": "TAF EDDB 091100Z 0912/1012 06007KT CAVOK"
    },
    {
      "icao": "EDDH",
      "alert": "OK",
      "vis_m": 9999,
      "fzfg": false,
      "metar_trigger": false,
      "taf_trigger": false,
      "metar": "METAR EDDH 091420Z AUTO 14014KT 090V160 CAVOK 13/M05 Q1021 TEMPO 12015G25KT",
      "taf": "TAF EDDH 091100Z 0912/1018 11012KT CAVOK"
    },
    {
      "icao": "EDDK",
      "alert": "OK",
      "vis_m": 9999,
      "fzfg": false,
      "metar_trigger": false,
      "taf_trigger": false,
      "metar": "METAR EDDK 091420Z AUTO 16006KT 100V200 CAVOK 22/02 Q1017 NOSIG",
      "taf": "TAF EDDK 091100Z 0912/1018 12007KT CAVOK"
    },
    {
      "icao": "EDDN",
      "alert": "OK",
      "vis_m": 9999,
      "fzfg": false,
      "metar_trigger": false,
      "taf_trigger": false,
      "metar": "METAR EDDN 091420Z AUTO 33004KT 230V030 CAVOK 16/M02 Q1018 NOSIG",
      "taf": "TAF EDDN 091100Z 0912/1012 14005KT 9999 SCT030"
    },
    {
      "icao": "EDDS",
      "alert": "OK",
      "vis_m": 9999,
      "fzfg": false,
      "metar_trigger": false,
      "taf_trigger": false,
      "metar": "METAR EDDS 091420Z AUTO 02004KT 350V080 CAVOK 19/M01 Q1017 NOSIG",
      "taf": "TAF EDDS 091100Z 0912/1012 04004KT CAVOK"
    },
    {
      "icao": "EDFH",
      "alert": "OK",
      "vis_m": 9999,
      "fzfg": false,
      "metar_trigger": false,
      "taf_trigger": false,
      "metar": "METAR EDFH 091420Z VRB02KT CAVOK 19/01 Q1018",
      "taf": "TAF EDFH 091100Z 0912/1012 15006KT CAVOK"
    },
    {
      "icao": "EDJA",
      "alert": "OK",
      "vis_m": 9999,
      "fzfg": false,
      "metar_trigger": false,
      "taf_trigger": false,
      "metar": "METAR EDJA 091420Z 27003KT 190V310 CAVOK 18/00 Q1018",
      "taf": "TAF EDJA 091400Z 0915/0924 30004KT CAVOK"
    },
    {
      "icao": "EDLW",
      "alert": "OK",
      "vis_m": 9999,
      "fzfg": false,
      "metar_trigger": false,
      "taf_trigger": false,
      "metar": "METAR EDLW 091420Z 07008KT CAVOK 19/04 Q1017",
      "taf": "TAF EDLW 091100Z 0912/1012 09007KT CAVOK"
    },
    {
      "icao": "EDNY",
      "alert": "OK",
      "vis_m": 9999,
      "fzfg": false,
      "metar_trigger": false,
      "taf_trigger": false,
      "metar": "METAR EDNY 091420Z 20004KT 180V240 CAVOK 20/04 Q1017",
      "taf": "TAF EDNY 091400Z 0915/0924 24005KT CAVOK"
    },
    {
      "icao": "EDSB",
      "alert": "OK",
      "vis_m": 9999,
      "fzfg": false,
      "metar_trigger": false,
      "taf_trigger": false,
      "metar": "METAR EDSB 091420Z 03004KT 360V080 CAVOK 20/02 Q1017",
      "taf": "TAF EDSB 091100Z 0912/1012 01004KT CAVOK"
    },
    {
      "icao": "EETN",
      "alert": "OK",
      "vis_m": 9999,
      "fzfg": false,
      "metar_trigger": false,
      "taf_trigger": false,
      "metar": "METAR EETN 091420Z 07016KT CAVOK 04/M06 Q1028 NOSIG",
      "taf": "TAF EETN 091130Z 0912/1012 04012KT 9999 FEW030"
    },
    {
      "icao": "EFTU",
      "alert": "OK",
      "vis_m": 9999,
      "fzfg": false,
      "metar_trigger": false,
      "taf_trigger": false,
      "metar": "METAR EFTU 091420Z AUTO 10009KT 060V120 CAVOK 09/M13 Q1028",
      "taf": "TAF EFTU 091136Z 0912/1012 06008KT CAVOK"
    },
    {
      "icao": "EGBB",
      "alert": "OK",
      "vis_m": 9999,
      "fzfg": false,
      "metar_trigger": false,
      "taf_trigger": false,
      "metar": "METAR EGBB 091420Z 26013KT 220V300 9999 5000NE VCSH BKN027 13/06 Q1016",
      "taf": "TAF EGBB 091105Z 0912/1012 28009KT 9999 FEW045"
    },
    {
      "icao": "EGGP",
      "alert": "OK",
      "vis_m": 9999,
      "fzfg": false,
      "metar_trigger": false,
      "taf_trigger": false,
      "metar": "METAR EGGP 091420Z 28019KT 9999 -RA SCT035 BKN045 08/06 Q1016",
      "taf": ""
    },
    {
      "icao": "EGGW",
      "alert": "OK",
      "vis_m": 9999,
      "fzfg": false,
      "metar_trigger": false,
      "taf_trigger": false,
      "metar": "METAR EGGW 091420Z AUTO 26016KT 9999 NCD 14/06 Q1016",
      "taf": "TAF EGGW 091059Z 0912/1012 26012KT CAVOK"
    },
    {
      "icao": "EGKK",
      "alert": "OK",
      "vis_m": 9999,
      "fzfg": false,
      "metar_trigger": false,
      "taf_trigger": false,
      "metar": "METAR EGKK 091420Z 27015KT 9999 FEW034 19/12 Q1016",
      "taf": "TAF EGKK 091055Z 0912/1018 24010KT CAVOK"
    },
    {
      "icao": "EGNM",
      "alert": "OK",
      "vis_m": 9999,
      "fzfg": false,
      "metar_trigger": false,
      "taf_trigger": false,
      "metar": "METAR EGNM 091420Z 27016KT 9999 -RA FEW015 BKN035 09/05 Q1013",
      "taf": "TAF EGNM 091056Z 0912/1012 26018G28KT 9999 SCT020"
    },
    {
      "icao": "EGPD",
      "alert": "OK",
      "vis_m": 9999,
      "fzfg": false,
      "metar_trigger": false,
      "taf_trigger": false,
      "metar": "METAR EGPD 091420Z 33011KT 9999 -RA SCT018 BKN025 10/07 Q1007 TEMPO RA",
      "taf": ""
    },
    {
      "icao": "EGPF",
      "alert": "OK",
      "vis_m": 6000,
      "fzfg": false,
      "metar_trigger": false,
      "taf_trigger": false,
      "metar": "METAR EGPF 091420Z 27023G35KT 6000 -SHRA BKN023TCU BKN028 07/03 Q1012",
      "taf": "TAF EGPF 091057Z 0912/1012 26012KT 9999 FEW020"
    },
    {
      "icao": "EHBK",
      "alert": "OK",
      "vis_m": 9999,
      "fzfg": false,
      "metar_trigger": false,
      "taf_trigger": false,
      "metar": "METAR EHBK 091425Z AUTO 23005KT 190V280 9999 NSC 22/08 Q1016 NOSIG",
      "taf": "TAF EHBK 091117Z 0912/1018 19005KT CAVOK"
    },
    {
      "icao": "EHEH",
      "alert": "OK",
      "vis_m": 9999,
      "fzfg": false,
      "metar_trigger": false,
      "taf_trigger": false,
      "metar": "METAR EHEH 091425Z AUTO 25005KT 180V280 9999 FEW082 BKN091 OVC096 23/07 Q1015 BLU NOSIG RMK TREND REMOTE BY EHWX",
      "taf": "TAF EHEH 091103Z 0912/1018 15004KT CAVOK"
    },
    {
      "icao": "EKBI",
      "alert": "OK",
      "vis_m": 9999,
      "fzfg": false,
      "metar_trigger": false,
      "taf_trigger": false,
      "metar": "METAR EKBI 091420Z AUTO 13016G27KT 100V170 9999 NCD 10/M03 Q1022",
      "taf": "TAF EKBI 091427Z 0915/1015 13015KT CAVOK"
    },
    {
      "icao": "EKCH",
      "alert": "OK",
      "vis_m": 9999,
      "fzfg": false,
      "metar_trigger": false,
      "taf_trigger": false,
      "metar": "METAR EKCH 091420Z AUTO 16014KT 9999 NCD 07/M04 Q1026 NOSIG",
      "taf": "TAF EKCH 091427Z 0915/1015 13012KT CAVOK"
    },
    {
      "icao": "ENAL",
      "alert": "OK",
      "vis_m": 9999,
      "fzfg": false,
      "metar_trigger": false,
      "taf_trigger": false,
      "metar": "METAR ENAL 091420Z 22004KT 190V250 CAVOK 12/01 Q1012 RMK WIND RWY 06 19011KT",
      "taf": "TAF ENAL 091100Z 0912/0921 18008KT CAVOK"
    },
    {
      "icao": "ENBR",
      "alert": "OK",
      "vis_m": 9999,
      "fzfg": false,
      "metar_trigger": false,
      "taf_trigger": false,
      "metar": "METAR ENBR 091420Z 15020KT CAVOK 10/M03 Q1014 TEMPO 16022G32KT RMK WIND 1200FT 14033G43KT",
      "taf": "TAF ENBR 091100Z 0912/1012 14015KT 9999 -RA FEW035 SCT050"
    },
    {
      "icao": "ENGM",
      "alert": "OK",
      "vis_m": 9999,
      "fzfg": false,
      "metar_trigger": false,
      "taf_trigger": false,
      "metar": "METAR ENGM 091420Z 22010KT 190V250 CAVOK 11/M03 Q1023 NOSIG",
      "taf": "TAF ENGM 091100Z 0912/1012 17008KT CAVOK"
    },
    {
      "icao": "ENHD",
      "alert": "OK",
      "vis_m": 9999,
      "fzfg": false,
      "metar_trigger": false,
      "taf_trigger": false,
      "metar": "METAR ENHD 091420Z 14024G36KT CAVOK 11/M00 Q1016",
      "taf": "TAF ENHD 091100Z 0912/0921 14018KT 9999 -RA SCT050"
    },
    {
      "icao": "ENTC",
      "alert": "OK",
      "vis_m": 9999,
      "fzfg": false,
      "metar_trigger": false,
      "taf_trigger": false,
      "metar": "METAR ENTC 091420Z 19011KT 9999 BKN063 09/M02 Q1017 NOSIG RMK WIND 2600FT 19030KT",
      "taf": "TAF ENTC 091100Z 0912/1012 21009KT 9999 BKN060"
    },
    {
      "icao": "ENTO",
      "alert": "OK",
      "vis_m": 9999,
      "fzfg": false,
      "metar_trigger": false,
      "taf_trigger": false,
      "metar": "METAR ENTO 091420Z 17009KT CAVOK 09/02 Q1024 NOSIG",
      "taf": "TAF ENTO 091100Z 0912/1012 17010KT CAVOK"
    },
    {
      "icao": "ENVA",
      "alert": "OK",
      "vis_m": 9999,
      "fzfg": false,
      "metar_trigger": false,
      "taf_trigger": false,
      "metar": "METAR ENVA 091420Z 15015KT CAVOK 12/00 Q1016 TEMPO16020G32KT RMK WIND 670FT 17023KT",
      "taf": "TAF ENVA 091100Z 0912/1012 14015KT CAVOK"
    },
    {
      "icao": "ENZV",
      "alert": "OK",
      "vis_m": 9999,
      "fzfg": false,
      "metar_trigger": false,
      "taf_trigger": false,
      "metar": "METAR ENZV 091420Z 15026KT CAVOK 11/M01 Q1017 TEMPO 16025G35KT",
      "taf": "TAF ENZV 091100Z 0912/1012 14020KT CAVOK"
    },
    {
      "icao": "EPGD",
      "alert": "OK",
      "vis_m": 9999,
      "fzfg": false,
      "metar_trigger": false,
      "taf_trigger": false,
      "metar": "METAR EPGD 091400Z 01012KT 9999 SCT024 03/M03 Q1024",
      "taf": "TAF EPGD 091130Z 0912/1012 04013KT 9999 FEW030"
    },
    {
      "icao": "EPKK",
      "alert": "OK",
      "vis_m": 9999,
      "fzfg": false,
      "metar_trigger": false,
      "taf_trigger": false,
      "metar": "METAR EPKK 091400Z 32006KT 9999 BKN034 04/M04 Q1021",
      "taf": "TAF EPKK 091430Z 0915/1015 31007KT 9999 BKN030"
    },
    {
      "icao": "EPKT",
      "alert": "OK",
      "vis_m": 9999,
      "fzfg": false,
      "metar_trigger": false,
      "taf_trigger": false,
      "metar": "METAR EPKT 091400Z 33007KT 290V350 9999 FEW013 OVC016 01/M03 Q1021",
      "taf": ""
    },
    {
      "icao": "EPLB",
      "alert": "OK",
      "vis_m": 9999,
      "fzfg": false,
      "metar_trigger": false,
      "taf_trigger": false,
      "metar": "METAR EPLB 091400Z 29007KT 9999 SCT020TCU SCT035 04/00 Q1019",
      "taf": "TAF EPLB 091130Z 0912/1012 33010KT 9999 BKN017"
    },
    {
      "icao": "EPMO",
      "alert": "OK",
      "vis_m": 9999,
      "fzfg": false,
      "metar_trigger": false,
      "taf_trigger": false,
      "metar": "METAR EPMO 091400Z 35007KT 310V020 CAVOK 06/M05 Q1021",
      "taf": "TAF EPMO 091130Z 0912/1012 35010KT CAVOK"
    },
    {
      "icao": "EPPO",
      "alert": "OK",
      "vis_m": 9999,
      "fzfg": false,
      "metar_trigger": false,
      "taf_trigger": false,
      "metar": "METAR EPPO 091400Z 06006KT 010V110 CAVOK 10/M06 Q1022",
      "taf": "TAF EPPO 091130Z 0912/1012 02010KT CAVOK"
    },
    {
      "icao": "EPRA",
      "alert": "OK",
      "vis_m": 9999,
      "fzfg": false,
      "metar_trigger": false,
      "taf_trigger": false,
      "metar": "METAR EPRA 091400Z 02005KT 350V100 9999 SCT045 06/M05 Q1019",
      "taf": "TAF EPRA 091430Z 0915/0924 01006KT 9999 SCT040"
    },
    {
      "icao": "EPRZ",
      "alert": "OK",
      "vis_m": 9999,
      "fzfg": false,
      "metar_trigger": false,
      "taf_trigger": false,
      "metar": "METAR EPRZ 091400Z 32007KT 9999 FEW030CB BKN046 04/M01 Q1019",
      "taf": "TAF EPRZ 091130Z 0912/1012 32010KT 9999 BKN030"
    },
    {
      "icao": "EPSC",
      "alert": "OK",
      "vis_m": 9999,
      "fzfg": false,
      "metar_trigger": false,
      "taf_trigger": false,
      "metar": "METAR EPSC 091400Z 34009KT 310V010 CAVOK 09/M04 Q1023",
      "taf": "TAF EPSC 091130Z 0912/1012 03010KT CAVOK"
    },
    {
      "icao": "EPSY",
      "alert": "OK",
      "vis_m": 9999,
      "fzfg": false,
      "metar_trigger": false,
      "taf_trigger": false,
      "metar": "METAR EPSY 091400Z 02012KT 9999 BKN043 04/M06 Q1021",
      "taf": "TAF EPSY 091430Z 0915/0924 03010KT 9999 BKN040"
    },
    {
      "icao": "EPWA",
      "alert": "OK",
      "vis_m": 9999,
      "fzfg": false,
      "metar_trigger": false,
      "taf_trigger": false,
      "metar": "METAR EPWA 091400Z 36010KT 320V020 CAVOK 07/M04 Q1020 NOSIG",
      "taf": "TAF EPWA 091430Z 0915/1015 36010KT CAVOK"
    },
    {
      "icao": "EPWR",
      "alert": "OK",
      "vis_m": 9999,
      "fzfg": false,
      "metar_trigger": false,
      "taf_trigger": false,
      "metar": "METAR EPWR 091400Z VRB05KT 9999 FEW033 06/M04 Q1022",
      "taf": "TAF EPWR 091430Z 0915/1015 34004KT CAVOK"
    },
    {
      "icao": "ESGG",
      "alert": "OK",
      "vis_m": 9999,
      "fzfg": false,
      "metar_trigger": false,
      "taf_trigger": false,
      "metar": "METAR ESGG 091420Z 25008KT CAVOK 11/M03 Q1024",
      "taf": "TAF ESGG 091430Z 0915/1015 28008KT CAVOK"
    },
    {
      "icao": "ESKN",
      "alert": "OK",
      "vis_m": 9999,
      "fzfg": false,
      "metar_trigger": false,
      "taf_trigger": false,
      "metar": "METAR ESKN 091420Z 14012KT CAVOK 05/M04 Q1028",
      "taf": "TAF ESKN 091430Z 0915/1015 15009KT CAVOK"
    },
    {
      "icao": "ESMS",
      "alert": "OK",
      "vis_m": 9999,
      "fzfg": false,
      "metar_trigger": false,
      "taf_trigger": false,
      "metar": "METAR ESMS 091420Z 11012KT 080V140 CAVOK 07/M07 Q1025",
      "taf": "TAF ESMS 091427Z 0915/1015 11012KT CAVOK"
    },
    {
      "icao": "ESSA",
      "alert": "OK",
      "vis_m": 9999,
      "fzfg": false,
      "metar_trigger": false,
      "taf_trigger": false,
      "metar": "METAR ESSA 091420Z 08006KT 020V130 CAVOK 09/M09 Q1028 NOSIG",
      "taf": "TAF ESSA 091430Z 0915/1015 12009KT CAVOK"
    },
    {
      "icao": "EYKA",
      "alert": "OK",
      "vis_m": 9999,
      "fzfg": false,
      "metar_trigger": false,
      "taf_trigger": false,
      "metar": "METAR EYKA 091420Z 05010KT 360V070 9999 OVC045 04/M05 Q1022",
      "taf": "TAF EYKA 091100Z 0912/1012 04010KT 9000 BKN040"
    },
    {
      "icao": "EYPA",
      "alert": "OK",
      "vis_m": 9999,
      "fzfg": false,
      "metar_trigger": false,
      "taf_trigger": false,
      "metar": "METAR EYPA 091420Z 07011KT 040V100 9999 SCT049 07/M05 Q1024",
      "taf": "TAF EYPA 091100Z 0912/1012 05012KT 9000 SCT045"
    },
    {
      "icao": "EYVI",
      "alert": "OK",
      "vis_m": 9999,
      "fzfg": false,
      "metar_trigger": false,
      "taf_trigger": false,
      "metar": "METAR EYVI 091420Z 05010KT 360V080 9999 FEW034 OVC042 02/M05 Q1021 NOSIG",
      "taf": "TAF EYVI 091100Z 0912/1012 03012KT 9000 OVC035"
    },
    {
      "icao": "GCFV",
      "alert": "OK",
      "vis_m": 9999,
      "fzfg": false,
      "metar_trigger": false,
      "taf_trigger": false,
      "metar": "METAR GCFV 091400Z 29027KT 260V320 9999 FEW030 19/13 Q1015",
      "taf": "TAF GCFV 091400Z 0915/1015 30020KT 9999 SCT030 TX21/1014Z TN15/1006Z"
    },
    {
      "icao": "GCLP",
      "alert": "OK",
      "vis_m": 9999,
      "fzfg": false,
      "metar_trigger": false,
      "taf_trigger": false,
      "metar": "METAR GCLP 091400Z 34021KT 300V010 9999 FEW030 24/08 Q1016 WS R03 NOSIG",
      "taf": "TAF GCLP 091400Z 0915/1015 33020KT 9999 SCT030 TX22/1014Z TN15/1006Z"
    },
    {
      "icao": "GCTS",
      "alert": "OK",
      "vis_m": 9999,
      "fzfg": false,
      "metar_trigger": false,
      "taf_trigger": false,
      "metar": "METAR GCTS 091400Z 17008KT 120V210 9999 FEW040 20/11 Q1018 NOSIG",
      "taf": "TAF GCTS 091400Z 0915/1015 18010KT 9999 SCT030 TX23/1014Z TN15/1006Z"
    },
    {
      "icao": "GMAD",
      "alert": "OK",
      "vis_m": 9999,
      "fzfg": false,
      "metar_trigger": false,
      "taf_trigger": false,
      "metar": "METAR GMAD 091400Z 28006KT 9999 BKN030TCU FEW040CB 20/10 Q1013 TEMPO 4000 RA",
      "taf": "TAF GMAD 091100Z 0912/1018 26005KT 6000 SCT020 SCT080"
    },
    {
      "icao": "GMMN",
      "alert": "OK",
      "vis_m": 9999,
      "fzfg": false,
      "metar_trigger": false,
      "taf_trigger": false,
      "metar": "METAR GMMN 091400Z 02009KT 320V050 9999 BKN040 17/11 Q1014 NOSIG",
      "taf": "TAF GMMN 091100Z 0912/1018 32008KT 9999 SCT008 BKN023"
    },
    {
      "icao": "GMMX",
      "alert": "OK",
      "vis_m": 9999,
      "fzfg": false,
      "metar_trigger": false,
      "taf_trigger": false,
      "metar": "METAR GMMX 091400Z VRB02KT 9999 BKN023 20/09 Q1012 NOSIG",
      "taf": "TAF GMMX 091100Z 0912/1018 08006KT 8000 SCT016 SCT023"
    },
    {
      "icao": "HEGN",
      "alert": "OK",
      "vis_m": 9999,
      "fzfg": false,
      "metar_trigger": false,
      "taf_trigger": false,
      "metar": "METAR HEGN 091400Z 29005KT CAVOK 26/04 Q1015 NOSIG",
      "taf": "TAF HEGN 091100Z 0912/1018 02015KT CAVOK"
    },
    {
      "icao": "HEMA",
      "alert": "OK",
      "vis_m": 9999,
      "fzfg": false,
      "metar_trigger": false,
      "taf_trigger": false,
      "metar": "METAR HEMA 091400Z 03010KT CAVOK 24/11 Q1014 NOSIG",
      "taf": "TAF HEMA 091100Z 0912/1018 03015KT CAVOK"
    },
    {
      "icao": "HESH",
      "alert": "OK",
      "vis_m": 9999,
      "fzfg": false,
      "metar_trigger": false,
      "taf_trigger": false,
      "metar": "METAR HESH 091400Z 16015KT CAVOK 25/09 Q1014 NOSIG",
      "taf": "TAF HESH 091100Z 0912/1018 03010KT CAVOK"
    },
    {
      "icao": "HESX",
      "alert": "OK",
      "vis_m": 9999,
      "fzfg": false,
      "metar_trigger": false,
      "taf_trigger": false,
      "metar": "METAR HESX 091400Z 26012KT CAVOK 24/00 Q1016 NOSIG",
      "taf": "TAF HESX 091100Z 0912/1018 27010KT CAVOK"
    },
    {
      "icao": "LATI",
      "alert": "OK",
      "vis_m": 9999,
      "fzfg": false,
      "metar_trigger": false,
      "taf_trigger": false,
      "metar": "METAR LATI 091420Z 28010KT 250V320 CAVOK 18/02 Q1015 NOSIG",
      "taf": "TAF LATI 091100Z 0912/1012 32015KT CAVOK TX20/0912Z TN05/1003Z"
    },
    {
      "icao": "LBPD",
      "alert": "OK",
      "vis_m": 9999,
      "fzfg": false,
      "metar_trigger": false,
      "taf_trigger": false,
      "metar": "METAR LBPD 091430Z AUTO 02005KT 9999 SCT052/// OVC068/// 13/M01 Q1013 NOSIG",
      "taf": "TAF LBPD 091100Z 0912/1012 28018KT 9999 SCT060"
    },
    {
      "icao": "LBSF",
      "alert": "OK",
      "vis_m": 9999,
      "fzfg": false,
      "metar_trigger": false,
      "taf_trigger": false,
      "metar": "METAR LBSF 091430Z 01006KT 9999 BKN076 10/M05 Q1014 NOSIG",
      "taf": "TAF LBSF 091100Z 0912/1012 31015KT 9999 SCT050"
    },
    {
      "icao": "LBWN",
      "alert": "OK",
      "vis_m": 9999,
      "fzfg": false,
      "metar_trigger": false,
      "taf_trigger": false,
      "metar": "METAR LBWN 091430Z AUTO 00000KT 9999 NSC 11/01 Q1014 TEMPO 5000 SHRA FEW030TCU",
      "taf": "TAF LBWN 091100Z 0912/1012 13010KT 9999 BKN040"
    },
    {
      "icao": "LCLK",
      "alert": "OK",
      "vis_m": 9999,
      "fzfg": false,
      "metar_trigger": false,
      "taf_trigger": false,
      "metar": "METAR LCLK 091400Z 22017KT 9999 -SHRA FEW016 FEW030CB BKN055 18/17 Q1011 NOSIG RMK CB TO S. E",
      "taf": "TAF LCLK 091130Z 0912/1012 22020KT 9999 FEW020 FEW025TCU SCT045"
    },
    {
      "icao": "LCPH",
      "alert": "OK",
      "vis_m": 9999,
      "fzfg": false,
      "metar_trigger": false,
      "taf_trigger": false,
      "metar": "METAR LCPH 091400Z 26010KT 9999 SCT011 19/15 Q1012 TEMPO BKN012",
      "taf": "TAF LCPH 091130Z 0912/1012 27008KT 9999 FEW025"
    },
    {
      "icao": "LEAL",
      "alert": "OK",
      "vis_m": 9999,
      "fzfg": false,
      "metar_trigger": false,
      "taf_trigger": false,
      "metar": "METAR LEAL 091400Z 08015KT CAVOK 23/07 Q1018 NOSIG",
      "taf": "TAF LEAL 091100Z 0912/1012 08013KT CAVOK TX24/0913Z TN15/1006Z"
    },
    {
      "icao": "LEBB",
      "alert": "OK",
      "vis_m": 9999,
      "fzfg": false,
      "metar_trigger": false,
      "taf_trigger": false,
      "metar": "METAR LEBB 091400Z 28010KT 250V310 9999 FEW030 20/14 Q1021 NOSIG",
      "taf": "TAF LEBB 091100Z 0912/1012 31009KT 9999 FEW005 TX27/1012Z TN11/1006Z"
    },
    {
      "icao": "LEBL",
      "alert": "OK",
      "vis_m": 7000,
      "fzfg": false,
      "metar_trigger": false,
      "taf_trigger": false,
      "metar": "METAR LEBL 091400Z 20009KT 7000 2400S PRFG FEW001 17/14 Q1018 TEMPO 1000 BCFG VV002",
      "taf": ""
    },
    {
      "icao": "LECH",
      "alert": "OK",
      "vis_m": 9999,
      "fzfg": false,
      "metar_trigger": false,
      "taf_trigger": false,
      "metar": "METAR LECH 091400Z AUTO 12009KT 100V170 CAVOK 25/02 Q1019",
      "taf": "TAF LECH 091100Z 0912/1012 VRB04KT CAVOK TX26/0914Z TN09/1006Z"
    },
    {
      "icao": "LEMD",
      "alert": "OK",
      "vis_m": 9999,
      "fzfg": false,
      "metar_trigger": false,
      "taf_trigger": false,
      "metar": "METAR LEMD 091400Z 07003KT CAVOK 26/04 Q1018 NOSIG",
      "taf": "TAF LEMD 091100Z 0912/1018 01006KT CAVOK TX27/1015Z TN09/1006Z"
    },
    {
      "icao": "LEMG",
      "alert": "OK",
      "vis_m": 9999,
      "fzfg": false,
      "metar_trigger": false,
      "taf_trigger": false,
      "metar": "METAR LEMG 091400Z 14006KT 110V200 9999 FEW030 19/12 Q1013 NOSIG",
      "taf": "TAF LEMG 091100Z 0912/1012 13010KT 9999 FEW015 SCT025 TX21/0914Z TN14/1007Z"
    },
    {
      "icao": "LEVC",
      "alert": "OK",
      "vis_m": 9999,
      "fzfg": false,
      "metar_trigger": false,
      "taf_trigger": false,
      "metar": "METAR LEVC 091400Z 10008KT 050V130 CAVOK 25/05 Q1018 NOSIG",
      "taf": "TAF LEVC 091100Z 0912/1012 10008KT 9999 FEW010 TX26/0914Z TN13/1006Z"
    },
    {
      "icao": "LEXJ",
      "alert": "OK",
      "vis_m": 9999,
      "fzfg": false,
      "metar_trigger": false,
      "taf_trigger": false,
      "metar": "METAR LEXJ 091400Z 32008KT 280V020 9999 SCT014 17/13 Q1022",
      "taf": "TAF LEXJ 091400Z 0915/1015 29009KT 9000 SCT005 TX26/1014Z TN12/1007Z"
    },
    {
      "icao": "LEZG",
      "alert": "OK",
      "vis_m": 9999,
      "fzfg": false,
      "metar_trigger": false,
      "taf_trigger": false,
      "metar": "METAR LEZG 091400Z 34003KT 260V050 CAVOK 26/05 Q1018 NOSIG",
      "taf": "TAF LEZG 091100Z 0912/1012 30003KT CAVOK TX29/0915Z TN12/1006Z"
    },
    {
      "icao": "LEZL",
      "alert": "OK",
      "vis_m": 9999,
      "fzfg": false,
      "metar_trigger": false,
      "taf_trigger": false,
      "metar": "METAR LEZL 091400Z 36003KT 260V070 CAVOK 23/12 Q1012 NOSIG",
      "taf": "TAF LEZL 091400Z 0915/1015 26008KT CAVOK TX26/1015Z TN11/1007Z"
    },
    {
      "icao": "LFBD",
      "alert": "OK",
      "vis_m": 9999,
      "fzfg": false,
      "metar_trigger": false,
      "taf_trigger": false,
      "metar": "METAR LFBD 091400Z AUTO 26013KT CAVOK 28/13 Q1018 NOSIG",
      "taf": "TAF LFBD 091100Z 0912/1018 24005KT CAVOK TX29/0914Z TN13/1001Z"
    },
    {
      "icao": "LFLL",
      "alert": "OK",
      "vis_m": 9999,
      "fzfg": false,
      "metar_trigger": false,
      "taf_trigger": false,
      "metar": "METAR LFLL 091400Z VRB06KT CAVOK 25/09 Q1017 NOSIG",
      "taf": "TAF LFLL 091100Z 0912/1018 35006KT CAVOK"
    },
    {
      "icao": "LFLS",
      "alert": "OK",
      "vis_m": 9999,
      "fzfg": false,
      "metar_trigger": false,
      "taf_trigger": false,
      "metar": "METAR LFLS 091400Z AUTO 32009KT 290V350 CAVOK 24/08 Q1017 NOSIG",
      "taf": "TAF LFLS 090800Z 0909/1009 09005KT CAVOK"
    },
    {
      "icao": "LFMN",
      "alert": "OK",
      "vis_m": 9999,
      "fzfg": false,
      "metar_trigger": false,
      "taf_trigger": false,
      "metar": "METAR LFMN 091400Z 17004KT 9999 FEW013 18/13 Q1016 NOSIG",
      "taf": "TAF LFMN 091400Z 0915/1021 18006KT 9999 FEW013"
    },
    {
      "icao": "LFOB",
      "alert": "OK",
      "vis_m": 9999,
      "fzfg": false,
      "metar_trigger": false,
      "taf_trigger": false,
      "metar": "METAR LFOB 091400Z AUTO 28009KT 250V320 CAVOK 25/15 Q1017 NOSIG",
      "taf": "TAF LFOB 091100Z 0912/1012 24010KT CAVOK"
    },
    {
      "icao": "LFPO",
      "alert": "OK",
      "vis_m": 9999,
      "fzfg": false,
      "metar_trigger": false,
      "taf_trigger": false,
      "metar": "METAR LFPO 091400Z 31005KT 260V340 CAVOK 25/09 Q1017 TEMPO 4000 -TSRA BKN050CB",
      "taf": ""
    },
    {
      "icao": "LFSB",
      "alert": "OK",
      "vis_m": 9999,
      "fzfg": false,
      "metar_trigger": false,
      "taf_trigger": false,
      "metar": "METAR LFSB 091400Z AUTO 01006KT 290V060 CAVOK 23/06 Q1017 NOSIG",
      "taf": "TAF LFSB 091100Z 0912/1012 35004KT CAVOK"
    },
    {
      "icao": "LGAV",
      "alert": "OK",
      "vis_m": 9999,
      "fzfg": false,
      "metar_trigger": false,
      "taf_trigger": false,
      "metar": "METAR LGAV 091420Z 05012KT 9999 FEW025 16/08 Q1014 NOSIG",
      "taf": "TAF LGAV 091100Z 0912/1012 02010KT 9999 SCT030 SCT070"
    },
    {
      "icao": "LGTS",
      "alert": "OK",
      "vis_m": 9999,
      "fzfg": false,
      "metar_trigger": false,
      "taf_trigger": false,
      "metar": "METAR LGTS 091420Z 25005KT 9999 FEW030 19/M03 Q1013 NOSIG",
      "taf": "TAF LGTS 091100Z 0912/1012 VRB03KT 9999 FEW025"
    },
    {
      "icao": "LHBP",
      "alert": "OK",
      "vis_m": 9999,
      "fzfg": false,
      "metar_trigger": false,
      "taf_trigger": false,
      "metar": "METAR LHBP 091400Z 30006KT 260V360 CAVOK 13/M04 Q1016 NOSIG",
      "taf": "TAF LHBP 091115Z 0912/1012 32009KT CAVOK"
    },
    {
      "icao": "LHDC",
      "alert": "OK",
      "vis_m": 9999,
      "fzfg": false,
      "metar_trigger": false,
      "taf_trigger": false,
      "metar": "METAR LHDC 091345Z AUTO 01006KT 280V080 CAVOK 11/M04 Q1017 NOSIG",
      "taf": "TAF LHDC 091415Z 0915/0924 03008KT CAVOK"
    },
    {
      "icao": "LIBD",
      "alert": "OK",
      "vis_m": 9999,
      "fzfg": false,
      "metar_trigger": false,
      "taf_trigger": false,
      "metar": "METAR LIBD 091420Z 04005KT 360V080 CAVOK 16/00 Q1016",
      "taf": "TAF LIBD 091100Z 0912/1012 03010KT CAVOK"
    },
    {
      "icao": "LIBG",
      "alert": "OK",
      "vis_m": 9999,
      "fzfg": false,
      "metar_trigger": false,
      "taf_trigger": false,
      "metar": "METAR LIBG 091350Z 02009KT 340V060 CAVOK 19/M00 Q1016",
      "taf": "TAF LIBG 091400Z 0915/0924 01012KT CAVOK"
    },
    {
      "icao": "LIBP",
      "alert": "OK",
      "vis_m": 9999,
      "fzfg": false,
      "metar_trigger": false,
      "taf_trigger": false,
      "metar": "METAR LIBP 091420Z AUTO 06009KT 030V090 9999 NCD 17/08 Q1016",
      "taf": "TAF LIBP 091100Z 0912/1012 08010KT CAVOK"
    },
    {
      "icao": "LIBR",
      "alert": "OK",
      "vis_m": 9999,
      "fzfg": false,
      "metar_trigger": false,
      "taf_trigger": false,
      "metar": "METAR LIBR 091420Z 33011KT CAVOK 16/04 Q1016",
      "taf": "TAF LIBR 091100Z 0912/1012 34014KT CAVOK"
    },
    {
      "icao": "LICA",
      "alert": "OK",
      "vis_m": 9999,
      "fzfg": false,
      "metar_trigger": false,
      "taf_trigger": false,
      "metar": "METAR LICA 091420Z AUTO 26011KT 9999 NCD 18/15 Q1018",
      "taf": "TAF LICA 091100Z 0912/1012 26012KT 9999 FEW020"
    },
    {
      "icao": "LICC",
      "alert": "OK",
      "vis_m": 9999,
      "fzfg": false,
      "metar_trigger": false,
      "taf_trigger": false,
      "metar": "METAR LICC 091420Z 10010KT CAVOK 21/15 Q1017",
      "taf": "TAF LICC 091100Z 0912/1012 VRB05KT CAVOK"
    },
    {
      "icao": "LICJ",
      "alert": "OK",
      "vis_m": 9999,
      "fzfg": false,
      "metar_trigger": false,
      "taf_trigger": false,
      "metar": "METAR LICJ 091420Z 02005KT CAVOK 19/13 Q1018",
      "taf": "TAF LICJ 091100Z 0912/1012 33010KT CAVOK"
    },
    {
      "icao": "LIMC",
      "alert": "OK",
      "vis_m": 9999,
      "fzfg": false,
      "metar_trigger": false,
      "taf_trigger": false,
      "metar": "METAR LIMC 091420Z VRB03KT CAVOK 22/08 Q1015 NOSIG",
      "taf": "TAF LIMC 091100Z 0912/1018 VRB05KT CAVOK"
    },
    {
      "icao": "LIME",
      "alert": "OK",
      "vis_m": 9999,
      "fzfg": false,
      "metar_trigger": false,
      "taf_trigger": false,
      "metar": "METAR LIME 091420Z VRB04KT CAVOK 20/08 Q1015 NOSIG",
      "taf": "TAF LIME 091100Z 0912/1012 VRB05KT CAVOK"
    },
    {
      "icao": "LIMF",
      "alert": "OK",
      "vis_m": 9999,
      "fzfg": false,
      "metar_trigger": false,
      "taf_trigger": false,
      "metar": "METAR LIMF 091420Z VRB04KT CAVOK 22/09 Q1015",
      "taf": "TAF LIMF 091100Z 0912/1012 VRB05KT CAVOK"
    },
    {
      "icao": "LIMJ",
      "alert": "OK",
      "vis_m": 9999,
      "fzfg": false,
      "metar_trigger": false,
      "taf_trigger": false,
      "metar": "METAR LIMJ 091420Z 21004KT 9999 FEW012 17/13 Q1016",
      "taf": "TAF LIMJ 091100Z 0912/1012 18006KT 9999 FEW020"
    },
    {
      "icao": "LIPE",
      "alert": "OK",
      "vis_m": 9999,
      "fzfg": false,
      "metar_trigger": false,
      "taf_trigger": false,
      "metar": "METAR LIPE 091420Z 07006KT 010V150 CAVOK 21/08 Q1015",
      "taf": "TAF LIPE 091100Z 0912/1012 08010KT 9999 SCT050"
    },
    {
      "icao": "LIPH",
      "alert": "OK",
      "vis_m": 9999,
      "fzfg": false,
      "metar_trigger": false,
      "taf_trigger": false,
      "metar": "METAR LIPH 091420Z 17004KT 110V200 CAVOK 17/06 Q1016",
      "taf": "TAF LIPH 091100Z 0912/1012 VRB05KT 9999 SCT050"
    },
    {
      "icao": "LIPQ",
      "alert": "OK",
      "vis_m": 9999,
      "fzfg": false,
      "metar_trigger": false,
      "taf_trigger": false,
      "metar": "METAR LIPQ 091420Z AUTO 22006KT 190V250 9999 FEW230/// 17/04 Q1017",
      "taf": "TAF LIPQ 091100Z 0912/1012 19010KT CAVOK"
    },
    {
      "icao": "LIPR",
      "alert": "OK",
      "vis_m": 9999,
      "fzfg": false,
      "metar_trigger": false,
      "taf_trigger": false,
      "metar": "METAR LIPR 091420Z 11012KT CAVOK 16/08 Q1015",
      "taf": "TAF LIPR 091100Z 0912/1012 12012KT 9999 FEW050"
    },
    {
      "icao": "LIPX",
      "alert": "OK",
      "vis_m": 9999,
      "fzfg": false,
      "metar_trigger": false,
      "taf_trigger": false,
      "metar": "METAR LIPX 091420Z 12005KT 050V220 CAVOK 20/06 Q1015",
      "taf": "TAF LIPX 091100Z 0912/1012 10006KT CAVOK"
    },
    {
      "icao": "LIPY",
      "alert": "OK",
      "vis_m": 9999,
      "fzfg": false,
      "metar_trigger": false,
      "taf_trigger": false,
      "metar": "METAR LIPY 091420Z AUTO 12008KT 080V170 9999 NCD 19/06 Q1016",
      "taf": "TAF LIPY 091100Z 0912/1012 14012KT CAVOK"
    },
    {
      "icao": "LIPZ",
      "alert": "OK",
      "vis_m": 9999,
      "fzfg": false,
      "metar_trigger": false,
      "taf_trigger": false,
      "metar": "METAR LIPZ 091420Z 16005KT 130V190 CAVOK 16/06 Q1017 NOSIG",
      "taf": "TAF LIPZ 091100Z 0912/1018 16010KT CAVOK"
    },
    {
      "icao": "LIRF",
      "alert": "OK",
      "vis_m": 9999,
      "fzfg": false,
      "metar_trigger": false,
      "taf_trigger": false,
      "metar": "METAR LIRF 091420Z 24009KT 210V280 CAVOK 18/13 Q1016 NOSIG",
      "taf": "TAF LIRF 091100Z 0912/1018 26010KT CAVOK"
    },
    {
      "icao": "LIRN",
      "alert": "OK",
      "vis_m": 9999,
      "fzfg": false,
      "metar_trigger": false,
      "taf_trigger": false,
      "metar": "METAR LIRN 091420Z 19009KT 170V230 CAVOK 17/12 Q1017 NOSIG",
      "taf": "TAF LIRN 091100Z 0912/1012 22010KT 9999 FEW020"
    },
    {
      "icao": "LIRP",
      "alert": "OK",
      "vis_m": 9999,
      "fzfg": false,
      "metar_trigger": false,
      "taf_trigger": false,
      "metar": "METAR LIRP 091415Z 24009KT CAVOK 20/10 Q1016 NOSIG",
      "taf": "TAF LIRP 091100Z 0912/1012 27007KT CAVOK"
    },
    {
      "icao": "LIRZ",
      "alert": "OK",
      "vis_m": 9999,
      "fzfg": false,
      "metar_trigger": false,
      "taf_trigger": false,
      "metar": "METAR LIRZ 091420Z AUTO 27008KT 9999 NCD 24/09 Q1014",
      "taf": "TAF LIRZ 091100Z 0912/1012 VRB05KT CAVOK"
    },
    {
      "icao": "LJLJ",
      "alert": "OK",
      "vis_m": 9999,
      "fzfg": false,
      "metar_trigger": false,
      "taf_trigger": false,
      "metar": "METAR LJLJ 091400Z 10004KT 060V200 CAVOK 15/M00 Q1016 NOSIG",
      "taf": "TAF LJLJ 091100Z 0912/1012 10005KT CAVOK"
    },
    {
      "icao": "LKMT",
      "alert": "OK",
      "vis_m": 9999,
      "fzfg": false,
      "metar_trigger": false,
      "taf_trigger": false,
      "metar": "METAR LKMT 091400Z 03009KT 9999 SCT036 06/M02 Q1020 NOSIG",
      "taf": "TAF LKMT 091100Z 0912/1012 01010KT 9999 BKN030"
    },
    {
      "icao": "LKPR",
      "alert": "OK",
      "vis_m": 9999,
      "fzfg": false,
      "metar_trigger": false,
      "taf_trigger": false,
      "metar": "METAR LKPR 091400Z 35009KT 310V030 CAVOK 12/M08 Q1020 NOSIG",
      "taf": "TAF LKPR 091400Z 0915/1021 02010KT CAVOK"
    },
    {
      "icao": "LLBG",
      "alert": "OK",
      "vis_m": 9999,
      "fzfg": false,
      "metar_trigger": false,
      "taf_trigger": false,
      "metar": "METAR LLBG 091420Z 26009KT CAVOK 20/11 Q1015 NOSIG",
      "taf": "TAF LLBG 091104Z 0912/1012 24012KT 9999 FEW030 TX21/0912Z TN13/1003Z"
    },
    {
      "icao": "LMML",
      "alert": "OK",
      "vis_m": 9999,
      "fzfg": false,
      "metar_trigger": false,
      "taf_trigger": false,
      "metar": "METAR LMML 091415Z 08007KT 040V130 CAVOK 23/08 Q1017 NOSIG",
      "taf": "TAF LMML 091100Z 0912/1012 VRB07KT CAVOK"
    },
    {
      "icao": "LOWW",
      "alert": "OK",
      "vis_m": 9999,
      "fzfg": false,
      "metar_trigger": false,
      "taf_trigger": false,
      "metar": "METAR LOWW 091420Z 33013KT 300V010 CAVOK 14/M03 Q1017 NOSIG",
      "taf": "TAF LOWW 091415Z 0915/1021 34012KT 9999 FEW050 TX14/0915Z TN00/1004Z"
    },
    {
      "icao": "LPFR",
      "alert": "OK",
      "vis_m": 9999,
      "fzfg": false,
      "metar_trigger": false,
      "taf_trigger": false,
      "metar": "METAR LPFR 091400Z 24010KT 9999 FEW025 16/12 Q1013",
      "taf": "TAF LPFR 091100Z 0912/1012 24010KT 9999 SCT030"
    },
    {
      "icao": "LPMA",
      "alert": "OK",
      "vis_m": 9999,
      "fzfg": false,
      "metar_trigger": false,
      "taf_trigger": false,
      "metar": "METAR LPMA 091400Z 36020G32KT 320V040 9999 VCSH SCT013 FEW016TCU 17/12 Q1019",
      "taf": "TAF LPMA 091100Z 0912/1012 36018G30KT 9999 SCT015"
    },
    {
      "icao": "LPPR",
      "alert": "OK",
      "vis_m": 9999,
      "fzfg": false,
      "metar_trigger": false,
      "taf_trigger": false,
      "metar": "METAR LPPR 091400Z 34007KT 290V010 CAVOK 20/15 Q1017",
      "taf": "TAF LPPR 091100Z 0912/1012 32010KT CAVOK"
    },
    {
      "icao": "LPPS",
      "alert": "OK",
      "vis_m": 9999,
      "fzfg": false,
      "metar_trigger": false,
      "taf_trigger": false,
      "metar": "METAR LPPS 091400Z 02020KT 9999 FEW014 FEW016TCU 17/11 Q1020",
      "taf": "TAF LPPS 091100Z 0912/1018 01020KT 9999 SCT012 SCT030"
    },
    {
      "icao": "LPPT",
      "alert": "OK",
      "vis_m": 9999,
      "fzfg": false,
      "metar_trigger": false,
      "taf_trigger": false,
      "metar": "METAR LPPT 091400Z 04012KT 360V070 9999 FEW042 21/11 Q1014",
      "taf": "TAF LPPT 091100Z 0912/1018 05008KT 9999 SCT030"
    },
    {
      "icao": "LQBK",
      "alert": "OK",
      "vis_m": 9999,
      "fzfg": false,
      "metar_trigger": false,
      "taf_trigger": false,
      "metar": "METAR LQBK 091400Z 34009KT CAVOK 14/M02 Q1018 NOSIG",
      "taf": "TAF LQBK 091100Z 0912/1012 29005KT CAVOK TX14/0913Z TN01/1004Z"
    },
    {
      "icao": "LQSA",
      "alert": "OK",
      "vis_m": 9999,
      "fzfg": false,
      "metar_trigger": false,
      "taf_trigger": false,
      "metar": "METAR LQSA 091400Z 33005KT 220V030 CAVOK 14/M06 Q1016 NOSIG",
      "taf": "TAF LQSA 091100Z 0912/1012 34006KT CAVOK TX15/0914Z TNM02/1005Z"
    },
    {
      "icao": "LQTZ",
      "alert": "OK",
      "vis_m": 9999,
      "fzfg": false,
      "metar_trigger": false,
      "taf_trigger": false,
      "metar": "METAR LQTZ 091400Z 34007KT 300V020 9999 FEW065 14/M03 Q1017",
      "taf": "TAF LQTZ 091100Z 0912/1012 28006KT CAVOK TX13/0913Z TNM01/1004Z"
    },
    {
      "icao": "LRBC",
      "alert": "OK",
      "vis_m": 9999,
      "fzfg": false,
      "metar_trigger": false,
      "taf_trigger": false,
      "metar": "METAR LRBC 091400Z 34016KT 9999 BKN032 07/M00 Q1015",
      "taf": "TAF LRBC 091400Z 0915/0924 03012KT 9999 BKN035"
    },
    {
      "icao": "LRBS",
      "alert": "OK",
      "vis_m": 9999,
      "fzfg": false,
      "metar_trigger": false,
      "taf_trigger": false,
      "metar": "METAR LRBS 091400Z VRB03KT 9999 FEW030 SCT046CB 09/01 Q1015 NOSIG",
      "taf": "TAF LRBS 091100Z 0912/1012 VRB04KT CAVOK"
    },
    {
      "icao": "LRBV",
      "alert": "OK",
      "vis_m": 9999,
      "fzfg": false,
      "metar_trigger": false,
      "taf_trigger": false,
      "metar": "METAR LRBV 091400Z 28006KT 240V320 9999 VCSH FEW006 BKN029 SCT038CB 02/01 Q1015",
      "taf": "TAF LRBV 091400Z 0915/0924 29009KT 9999 BKN030"
    },
    {
      "icao": "LRCL",
      "alert": "OK",
      "vis_m": 9999,
      "fzfg": false,
      "metar_trigger": false,
      "taf_trigger": false,
      "metar": "METAR LRCL 091400Z 30013KT 270V350 9999 SCT062 08/M04 Q1015",
      "taf": "TAF LRCL 091400Z 0915/0924 30012KT 9999 BKN040"
    },
    {
      "icao": "LRCV",
      "alert": "OK",
      "vis_m": 9999,
      "fzfg": false,
      "metar_trigger": false,
      "taf_trigger": false,
      "metar": "METAR LRCV 091400Z 33011KT CAVOK 11/M01 Q1015",
      "taf": "TAF LRCV 091400Z 0915/0924 30009KT CAVOK"
    },
    {
      "icao": "LRIA",
      "alert": "OK",
      "vis_m": 9999,
      "fzfg": false,
      "metar_trigger": false,
      "taf_trigger": false,
      "metar": "METAR LRIA 091400Z 32008KT 290V350 9999 -RA FEW014 SCT030CB 06/03 Q1015",
      "taf": "TAF LRIA 091400Z 0915/0924 32012KT 9999 BKN030"
    },
    {
      "icao": "LROP",
      "alert": "OK",
      "vis_m": 9999,
      "fzfg": false,
      "metar_trigger": false,
      "taf_trigger": false,
      "metar": "METAR LROP 091400Z 03008KT 9999 FEW046CB 09/M02 Q1015 NOSIG",
      "taf": "TAF LROP 091100Z 0912/1012 VRB04KT CAVOK"
    },
    {
      "icao": "LRSB",
      "alert": "OK",
      "vis_m": 9999,
      "fzfg": false,
      "metar_trigger": false,
      "taf_trigger": false,
      "metar": "METAR LRSB 091400Z 26007KT 9999 FEW030CB SCT048 BKN070 06/01 Q1015 NOSIG",
      "taf": "TAF LRSB 091100Z 0912/1012 VRB04KT 9999 SCT045"
    },
    {
      "icao": "LRSM",
      "alert": "OK",
      "vis_m": 9999,
      "fzfg": false,
      "metar_trigger": false,
      "taf_trigger": false,
      "metar": "METAR LRSM 091400Z 35011KT 320V020 CAVOK 10/M04 Q1017",
      "taf": "TAF LRSM 091400Z 0915/0924 34012KT 9999 SCT045"
    },
    {
      "icao": "LRSV",
      "alert": "OK",
      "vis_m": 9999,
      "fzfg": false,
      "metar_trigger": false,
      "taf_trigger": false,
      "metar": "METAR LRSV 091400Z 31017KT 9999 FEW012 FEW030CB BKN040 03/M01 Q1015",
      "taf": "TAF LRSV 091400Z 0915/0924 31014KT 9999 BKN040"
    },
    {
      "icao": "LRTM",
      "alert": "OK",
      "vis_m": 9999,
      "fzfg": false,
      "metar_trigger": false,
      "taf_trigger": false,
      "metar": "METAR LRTM 091400Z 30008KT 270V330 9999 SCT040 FEW042CB 08/M03 Q1015",
      "taf": "TAF LRTM 091400Z 0915/0924 30009KT 9999 BKN035"
    },
    {
      "icao": "LRTR",
      "alert": "OK",
      "vis_m": 9999,
      "fzfg": false,
      "metar_trigger": false,
      "taf_trigger": false,
      "metar": "METAR LRTR 091400Z 35008KT 290V030 9999 FEW040 BKN047 10/M01 Q1018",
      "taf": "TAF LRTR 091100Z 0912/1012 01010KT CAVOK"
    },
    {
      "icao": "LTAC",
      "alert": "OK",
      "vis_m": 9999,
      "fzfg": false,
      "metar_trigger": false,
      "taf_trigger": false,
      "metar": "METAR LTAC 091420Z 25005KT 220V280 9999 SCT040 BKN100 07/M06 Q1011 NOSIG RMK RWY21C 24008KT RWY03L 26006KT RWY21R 22008KT RWY03R 26006KT RWY21L 24006KT 190V290",
      "taf": "TAF LTAC 091040Z 0912/1012 VRB02KT 9999 SCT040 BKN100"
    },
    {
      "icao": "LTFM",
      "alert": "OK",
      "vis_m": 9999,
      "fzfg": false,
      "metar_trigger": false,
      "taf_trigger": false,
      "metar": "METAR LTFM 091420Z 03008KT 330V060 9999 FEW035 BKN090 10/01 Q1015 NOSIG RMK RWY17L 03006KT RWY34L 03007KT 350V060 RWY16R 05006KT RWY36 02009KT RWY18 05005KT 010V080",
      "taf": "TAF LTFM 091040Z 0912/1018 20010KT 9999 SCT035 BKN090"
    },
    {
      "icao": "LUKK",
      "alert": "OK",
      "vis_m": 9999,
      "fzfg": false,
      "metar_trigger": false,
      "taf_trigger": false,
      "metar": "METAR LUKK 091400Z 02012KT 350V050 9999 FEW047CB 09/M01 Q1013 TEMPO 34015G25KT SCT030CB",
      "taf": "TAF LUKK 091106Z 0912/1012 34012KT 9999 SCT030"
    },
    {
      "icao": "LWOH",
      "alert": "OK",
      "vis_m": 9999,
      "fzfg": false,
      "metar_trigger": false,
      "taf_trigger": false,
      "metar": "METAR LWOH 091420Z 17006KT 140V200 9999 FEW040 14/01 Q1013",
      "taf": "TAF LWOH 091420Z 0915/1015 16006KT 9999 FEW040"
    },
    {
      "icao": "LWSK",
      "alert": "OK",
      "vis_m": 9999,
      "fzfg": false,
      "metar_trigger": false,
      "taf_trigger": false,
      "metar": "METAR LWSK 091420Z 35010KT 290V030 CAVOK 17/M03 Q1013 NOSIG",
      "taf": "TAF LWSK 091420Z 0915/1015 36010KT CAVOK"
    },
    {
      "icao": "LYBE",
      "alert": "OK",
      "vis_m": 9999,
      "fzfg": false,
      "metar_trigger": false,
      "taf_trigger": false,
      "metar": "METAR LYBE 091400Z 32005KT 270V010 9999 FEW040 11/00 Q1019 NOSIG",
      "taf": "TAF LYBE 091100Z 0912/1012 33012KT 9999 SCT040 TX13/0913Z TN01/1004Z"
    },
    {
      "icao": "LYNI",
      "alert": "OK",
      "vis_m": 9999,
      "fzfg": false,
      "metar_trigger": false,
      "taf_trigger": false,
      "metar": "METAR LYNI 091400Z 32012KT 290V360 9999 FEW045 SCT060 12/M02 Q1017 NOSIG",
      "taf": "TAF LYNI 091100Z 0912/1012 32018KT 9999 SCT050 TX15/1012Z TN00/1004Z"
    },
    {
      "icao": "LYPG",
      "alert": "OK",
      "vis_m": 9999,
      "fzfg": false,
      "metar_trigger": false,
      "taf_trigger": false,
      "metar": "METAR LYPG 091400Z 32003KT 260V040 CAVOK 21/M06 Q1013 NOSIG",
      "taf": "TAF LYPG 091100Z 0912/1012 16008KT CAVOK TX22/1012Z TN06/1004Z"
    },
    {
      "icao": "LZIB",
      "alert": "OK",
      "vis_m": 9999,
      "fzfg": false,
      "metar_trigger": false,
      "taf_trigger": false,
      "metar": "METAR LZIB 091400Z 32012KT 290V350 CAVOK 14/M04 Q1018 NOSIG",
      "taf": "TAF LZIB 091115Z 0912/1012 35013KT CAVOK"
    },
    {
      "icao": "LZKZ",
      "alert": "OK",
      "vis_m": 9999,
      "fzfg": false,
      "metar_trigger": false,
      "taf_trigger": false,
      "metar": "METAR LZKZ 091400Z 02017KT CAVOK 08/M04 Q1018 NOSIG",
      "taf": "TAF LZKZ 091115Z 0912/1012 01013KT CAVOK"
    },
    {
      "icao": "LZTT",
      "alert": "OK",
      "vis_m": 9999,
      "fzfg": false,
      "metar_trigger": false,
      "taf_trigger": false,
      "metar": "METAR LZTT 091400Z 07025KT 9999 FEW043 BKN066 04/M05 Q1015 NOSIG",
      "taf": ""
    },
    {
      "icao": "OEJN",
      "alert": "OK",
      "vis_m": 9999,
      "fzfg": false,
      "metar_trigger": false,
      "taf_trigger": false,
      "metar": "METAR OEJN 091400Z 31012KT CAVOK 28/08 Q1011 NOSIG",
      "taf": "TAF OEJN 091100Z 0912/1018 34012KT CAVOK"
    },
    {
      "icao": "OEMA",
      "alert": "OK",
      "vis_m": 9999,
      "fzfg": false,
      "metar_trigger": false,
      "taf_trigger": false,
      "metar": "METAR OEMA 091400Z VRB03KT CAVOK 28/M11 Q1015 NOSIG",
      "taf": "TAF OEMA 091100Z 0912/1018 35005KT CAVOK"
    },
    {
      "icao": "OJAI",
      "alert": "OK",
      "vis_m": 5000,
      "fzfg": false,
      "metar_trigger": false,
      "taf_trigger": false,
      "metar": "METAR OJAI 091400Z 26017KT 5000 BLDU NSC 18/05 Q1015 NOSIG",
      "taf": "TAF OJAI 091049Z 0912/1018 26014KT 4000 HZ FEW035"
    },
    {
      "icao": "OMAA",
      "alert": "OK",
      "vis_m": null,
      "fzfg": false,
      "metar_trigger": false,
      "taf_trigger": false,
      "metar": "",
      "taf": ""
    },
    {
      "icao": "OMDB",
      "alert": "OK",
      "vis_m": null,
      "fzfg": false,
      "metar_trigger": false,
      "taf_trigger": false,
      "metar": "",
      "taf": ""
    },
    {
      "icao": "UAAA",
      "alert": "OK",
      "vis_m": 9999,
      "fzfg": false,
      "metar_trigger": false,
      "taf_trigger": false,
      "metar": "METAR UAAA 091400Z 15003MPS 9999 BKN050CB OVC100 11/10 Q1018 NOSIG",
      "taf": "TAF UAAA 091108Z 0912/1012 17003G08MPS 9999 SCT011 BKN020CB OVC050 TX19/1008Z TN08/1001Z"
    },
    {
      "icao": "UBBB",
      "alert": "OK",
      "vis_m": 9999,
      "fzfg": false,
      "metar_trigger": false,
      "taf_trigger": false,
      "metar": "METAR UBBB 091430Z 16010KT 9999 BKN025 12/07 Q1012 NOSIG",
      "taf": "TAF UBBB 091053Z 0912/1012 36005KT 9999 SCT014 BKN025 TX12/0912Z TN07/1001Z"
    },
    {
      "icao": "UDSG",
      "alert": "OK",
      "vis_m": 9999,
      "fzfg": false,
      "metar_trigger": false,
      "taf_trigger": false,
      "metar": "METAR UDSG 091400Z 01007KT 330V040 9999 SCT043CB 06/M05 Q1013 NOSIG",
      "taf": "TAF UDSG 091058Z 0912/1012 24006KT 9999 BKN040"
    },
    {
      "icao": "UDYZ",
      "alert": "OK",
      "vis_m": 9999,
      "fzfg": false,
      "metar_trigger": false,
      "taf_trigger": false,
      "metar": "METAR UDYZ 091400Z 17006KT 9999 FEW043CB 15/M00 Q1010 NOSIG",
      "taf": "TAF UDYZ 091100Z 0912/1012 23006KT 9999 FEW040"
    },
    {
      "icao": "UGKO",
      "alert": "OK",
      "vis_m": 9999,
      "fzfg": false,
      "metar_trigger": false,
      "taf_trigger": false,
      "metar": "METAR UGKO 091400Z VRB02KT 9999 BKN045CB 11/03 Q1017 NOSIG",
      "taf": "TAF UGKO 091100Z 0912/1012 25007KT 9999 SCT020 OVC050 TX12/1011Z TN05/1003Z"
    }
  ]
}