{
  "ts_utc": "2026-04-13T23:11:39Z",
  "threshold_m": 150,
  "source": "stations_override.txt (ICAO list) + aviationweather.gov (METAR/TAF raw)",
  "station_count": 159,
  "stations": [
    {
      "icao": "BIKF",
      "alert": "OK",
      "vis_m": 9999,
      "fzfg": false,
      "metar_trigger": false,
      "taf_trigger": false,
      "metar": "METAR BIKF 132300Z 07006KT 9999 VCSH SCT025TCU BKN035 04/03 Q0999",
      "taf": "TAF BIKF 132231Z 1400/1500 07010KT 9999 -SHRA SCT018 BKN028 TX07/1415Z TN02/1404Z"
    },
    {
      "icao": "BKPR",
      "alert": "OK",
      "vis_m": 9999,
      "fzfg": false,
      "metar_trigger": false,
      "taf_trigger": false,
      "metar": "METAR BKPR 132300Z 14003KT 110V190 CAVOK 10/07 Q1016 NOSIG",
      "taf": "TAF BKPR 131730Z 1318/1418 13009KT 9999 SCT090"
    },
    {
      "icao": "EBCI",
      "alert": "OK",
      "vis_m": 7000,
      "fzfg": false,
      "metar_trigger": false,
      "taf_trigger": false,
      "metar": "METAR EBCI 132250Z 27004KT 7000 NSC 06/04 Q1016 TEMPO 4000 BR",
      "taf": ""
    },
    {
      "icao": "EDDB",
      "alert": "OK",
      "vis_m": 9999,
      "fzfg": false,
      "metar_trigger": false,
      "taf_trigger": false,
      "metar": "METAR EDDB 132250Z AUTO 10010KT CAVOK 12/01 Q1013 NOSIG",
      "taf": "TAF EDDB 131700Z 1318/1418 09012KT 9999 SCT030"
    },
    {
      "icao": "EDDH",
      "alert": "OK",
      "vis_m": 9999,
      "fzfg": false,
      "metar_trigger": false,
      "taf_trigger": false,
      "metar": "METAR EDDH 132250Z AUTO 09005KT 9999 OVC042 08/06 Q1013 NOSIG",
      "taf": "TAF EDDH 131700Z 1318/1424 08007KT 9999 BKN025"
    },
    {
      "icao": "EDDK",
      "alert": "OK",
      "vis_m": 6000,
      "fzfg": false,
      "metar_trigger": false,
      "taf_trigger": false,
      "metar": "METAR EDDK 132250Z AUTO 31003KT 6000 2600 BR BKN033 07/06 Q1015 TEMPO 4000 BR",
      "taf": "TAF EDDK 131700Z 1318/1424 32005KT 9999 BKN020"
    },
    {
      "icao": "EDDN",
      "alert": "OK",
      "vis_m": 9999,
      "fzfg": false,
      "metar_trigger": false,
      "taf_trigger": false,
      "metar": "METAR EDDN 132250Z AUTO 30005KT 9999 FEW025 SCT044 10/08 Q1012",
      "taf": "TAF EDDN 131700Z 1318/1418 30007KT CAVOK"
    },
    {
      "icao": "EDDS",
      "alert": "OK",
      "vis_m": 6000,
      "fzfg": false,
      "metar_trigger": false,
      "taf_trigger": false,
      "metar": "METAR EDDS 132250Z AUTO 31003KT 6000 -SHRA BKN009 BKN017 OVC021 FEW///TCU 08/07 Q1013 RESHRA",
      "taf": "TAF EDDS 131700Z 1318/1418 30007KT 9999 BKN010"
    },
    {
      "icao": "EDFH",
      "alert": "OK",
      "vis_m": 3000,
      "fzfg": false,
      "metar_trigger": false,
      "taf_trigger": false,
      "metar": "METAR EDFH 132250Z 29005KT 260V320 3000 BR BKN001 OVC004 05/05 Q1014",
      "taf": "TAF EDFH 131700Z 1318/1418 33005KT 9999 SCT002 BKN004"
    },
    {
      "icao": "EDJA",
      "alert": "OK",
      "vis_m": 3100,
      "fzfg": false,
      "metar_trigger": false,
      "taf_trigger": false,
      "metar": "METAR EDJA 132250Z AUTO 29005KT 3100 // OVC002/// 07/07 Q1013",
      "taf": "TAF EDJA 131700Z 1318/1403 28007KT 9999 SCT006 OVC012"
    },
    {
      "icao": "EDLW",
      "alert": "OK",
      "vis_m": 7000,
      "fzfg": false,
      "metar_trigger": false,
      "taf_trigger": false,
      "metar": "METAR EDLW 132250Z AUTO 21004KT 7000 // OVC039/// 07/07 Q1014",
      "taf": "TAF EDLW 131700Z 1318/1418 VRB03KT 9999 BKN020"
    },
    {
      "icao": "EDNY",
      "alert": "OK",
      "vis_m": 4100,
      "fzfg": false,
      "metar_trigger": false,
      "taf_trigger": false,
      "metar": "METAR EDNY 132250Z AUTO 25009KT 4100 // OVC005/// 08/07 Q1014",
      "taf": "TAF EDNY 131700Z 1318/1403 24005KT 9999 FEW008 OVC015"
    },
    {
      "icao": "EDSB",
      "alert": "OK",
      "vis_m": 9000,
      "fzfg": false,
      "metar_trigger": false,
      "taf_trigger": false,
      "metar": "METAR EDSB 132250Z AUTO 25005KT 210V290 9000 // BKN021/// OVC030/// 08/07 Q1015",
      "taf": "TAF EDSB 131700Z 1318/1418 22004KT 9000 FEW005 BKN015"
    },
    {
      "icao": "EETN",
      "alert": "OK",
      "vis_m": 9999,
      "fzfg": false,
      "metar_trigger": false,
      "taf_trigger": false,
      "metar": "METAR EETN 132250Z 11005KT CAVOK 03/01 Q1032",
      "taf": "TAF EETN 131730Z 1318/1418 10007KT CAVOK"
    },
    {
      "icao": "EFTU",
      "alert": "OK",
      "vis_m": 9999,
      "fzfg": false,
      "metar_trigger": false,
      "taf_trigger": false,
      "metar": "METAR EFTU 132250Z AUTO 03001KT CAVOK M01/M03 Q1032",
      "taf": "TAF EFTU 132027Z 1321/1421 VRB02KT CAVOK"
    },
    {
      "icao": "EGBB",
      "alert": "OK",
      "vis_m": 9999,
      "fzfg": false,
      "metar_trigger": false,
      "taf_trigger": false,
      "metar": "METAR EGBB 132250Z 17003KT CAVOK 04/02 Q1014",
      "taf": "TAF EGBB 131706Z 1318/1418 18008KT 9999 SCT030"
    },
    {
      "icao": "EGGP",
      "alert": "OK",
      "vis_m": 9999,
      "fzfg": false,
      "metar_trigger": false,
      "taf_trigger": false,
      "metar": "METAR EGGP 132250Z 13004KT CAVOK 05/03 Q1014",
      "taf": "TAF EGGP 131657Z 1318/1418 17007KT 9999 FEW035"
    },
    {
      "icao": "EGGW",
      "alert": "OK",
      "vis_m": 9999,
      "fzfg": false,
      "metar_trigger": false,
      "taf_trigger": false,
      "metar": "METAR EGGW 132250Z AUTO 19004KT 9999 NCD 05/03 Q1015",
      "taf": "TAF EGGW 131700Z 1318/1418 24004KT 9999 FEW045"
    },
    {
      "icao": "EGKK",
      "alert": "OK",
      "vis_m": 9999,
      "fzfg": false,
      "metar_trigger": false,
      "taf_trigger": false,
      "metar": "METAR EGKK 132250Z 21001KT CAVOK 04/03 Q1016",
      "taf": "TAF EGKK 131654Z 1318/1424 VRB04KT 9999 SCT030"
    },
    {
      "icao": "EGNM",
      "alert": "OK",
      "vis_m": 9999,
      "fzfg": false,
      "metar_trigger": false,
      "taf_trigger": false,
      "metar": "METAR EGNM 132250Z VRB02KT CAVOK 04/02 Q1013",
      "taf": ""
    },
    {
      "icao": "EGPD",
      "alert": "OK",
      "vis_m": 7000,
      "fzfg": false,
      "metar_trigger": false,
      "taf_trigger": false,
      "metar": "METAR EGPD 132250Z AUTO 17004KT 7000 NCD 05/04 Q1014 TEMPO 4000 BR",
      "taf": "TAF EGPD 131655Z 1318/1418 17010KT 9999 FEW040"
    },
    {
      "icao": "EGPF",
      "alert": "OK",
      "vis_m": 9999,
      "fzfg": false,
      "metar_trigger": false,
      "taf_trigger": false,
      "metar": "METAR EGPF 132250Z AUTO 09003KT 040V130 9999 NCD 05/03 Q1013",
      "taf": "TAF EGPF 131655Z 1318/1418 19004KT 9999 FEW020"
    },
    {
      "icao": "EHBK",
      "alert": "OK",
      "vis_m": 9999,
      "fzfg": false,
      "metar_trigger": false,
      "taf_trigger": false,
      "metar": "METAR EHBK 132255Z AUTO 22002KT 9999 NSC 07/05 Q1015",
      "taf": "TAF EHBK 131701Z 1318/1424 VRB02KT CAVOK"
    },
    {
      "icao": "EHEH",
      "alert": "OK",
      "vis_m": 2300,
      "fzfg": false,
      "metar_trigger": false,
      "taf_trigger": false,
      "metar": "METAR EHEH 132255Z AUTO 22002KT 2300 BR NCD 05/04 Q1015 YLO",
      "taf": "TAF EHEH 131739Z 1318/1424 10005KT FEW025 SCT048"
    },
    {
      "icao": "EKBI",
      "alert": "OK",
      "vis_m": 8000,
      "fzfg": false,
      "metar_trigger": false,
      "taf_trigger": false,
      "metar": "METAR EKBI 132250Z AUTO 08011KT 8000 -RA OVC009/// 06/05 Q1016",
      "taf": ""
    },
    {
      "icao": "EKCH",
      "alert": "OK",
      "vis_m": 9999,
      "fzfg": false,
      "metar_trigger": false,
      "taf_trigger": false,
      "metar": "METAR EKCH 132250Z AUTO 08014KT 9999 BKN077/// BKN130/// 07/02 Q1019 NOSIG",
      "taf": "TAF EKCH 132027Z 1321/1421 09014KT CAVOK"
    },
    {
      "icao": "ENAL",
      "alert": "OK",
      "vis_m": 9999,
      "fzfg": false,
      "metar_trigger": false,
      "taf_trigger": false,
      "metar": "METAR ENAL 132250Z AUTO 05007KT 9999 NCD 07/04 Q1021",
      "taf": "TAF ENAL 132000Z 1321/1406 36008KT 9999 SCT055"
    },
    {
      "icao": "ENBR",
      "alert": "OK",
      "vis_m": 9999,
      "fzfg": false,
      "metar_trigger": false,
      "taf_trigger": false,
      "metar": "METAR ENBR 132250Z 14007KT 9999 -SHRA FEW011 SCT022 BKN046 08/01 Q1020 RMK WIND 1200FT 13028G45KT",
      "taf": ""
    },
    {
      "icao": "ENGM",
      "alert": "OK",
      "vis_m": 9999,
      "fzfg": false,
      "metar_trigger": false,
      "taf_trigger": false,
      "metar": "METAR ENGM 132250Z 13008KT CAVOK 07/M03 Q1025",
      "taf": "TAF ENGM 131700Z 1318/1418 06007KT CAVOK"
    },
    {
      "icao": "ENHD",
      "alert": "OK",
      "vis_m": 9999,
      "fzfg": false,
      "metar_trigger": false,
      "taf_trigger": false,
      "metar": "METAR ENHD 132250Z AUTO 13005KT 100V160 9999 -RA OVC041/// 08/03 Q1020",
      "taf": "TAF ENHD 131400Z 1315/1322 14012KT 9999 -SHRA FEW030 SCT040"
    },
    {
      "icao": "ENTC",
      "alert": "OK",
      "vis_m": 9999,
      "fzfg": false,
      "metar_trigger": false,
      "taf_trigger": false,
      "metar": "METAR ENTC 132250Z AUTO 00000KT 9999 NCD 02/M04 Q1029 RMK WIND 2600FT 19006KT",
      "taf": "TAF ENTC 131700Z 1318/1418 VRB03KT CAVOK"
    },
    {
      "icao": "ENTO",
      "alert": "OK",
      "vis_m": 9999,
      "fzfg": false,
      "metar_trigger": false,
      "taf_trigger": false,
      "metar": "METAR ENTO 132250Z AUTO 10007KT 060V150 9999 NCD 07/M01 Q1024",
      "taf": "TAF ENTO 131700Z 1318/1418 04008KT CAVOK"
    },
    {
      "icao": "ENVA",
      "alert": "OK",
      "vis_m": 9999,
      "fzfg": false,
      "metar_trigger": false,
      "taf_trigger": false,
      "metar": "METAR ENVA 132250Z AUTO 13007KT 9999 NCD 11/00 Q1025 RMK WIND 670FT 16014KT",
      "taf": ""
    },
    {
      "icao": "ENZV",
      "alert": "OK",
      "vis_m": 9999,
      "fzfg": false,
      "metar_trigger": false,
      "taf_trigger": false,
      "metar": "METAR ENZV 132250Z 14015KT 9999 FEW030 09/02 Q1020",
      "taf": "TAF ENZV 131700Z 1318/1418 14015KT 9999 SCT030"
    },
    {
      "icao": "EPGD",
      "alert": "OK",
      "vis_m": 9999,
      "fzfg": false,
      "metar_trigger": false,
      "taf_trigger": false,
      "metar": "METAR EPGD 132300Z 11011KT CAVOK 07/M01 Q1022",
      "taf": "TAF EPGD 131730Z 1318/1418 09010KT CAVOK"
    },
    {
      "icao": "EPKK",
      "alert": "OK",
      "vis_m": 9999,
      "fzfg": false,
      "metar_trigger": false,
      "taf_trigger": false,
      "metar": "METAR EPKK 132300Z 05007KT CAVOK 09/M01 Q1017",
      "taf": "TAF EPKK 132030Z 1321/1421 07011KT CAVOK"
    },
    {
      "icao": "EPKT",
      "alert": "OK",
      "vis_m": 9999,
      "fzfg": false,
      "metar_trigger": false,
      "taf_trigger": false,
      "metar": "METAR EPKT 132300Z 11014KT CAVOK 09/M02 Q1016",
      "taf": "TAF EPKT 131730Z 1318/1418 10016KT CAVOK"
    },
    {
      "icao": "EPLB",
      "alert": "OK",
      "vis_m": 9999,
      "fzfg": false,
      "metar_trigger": false,
      "taf_trigger": false,
      "metar": "METAR EPLB 132300Z 10008KT CAVOK 05/M01 Q1023",
      "taf": "TAF EPLB 131730Z 1318/1418 10008KT CAVOK"
    },
    {
      "icao": "EPMO",
      "alert": "OK",
      "vis_m": 9999,
      "fzfg": false,
      "metar_trigger": false,
      "taf_trigger": false,
      "metar": "METAR EPMO 132300Z 08009KT CAVOK 08/M01 Q1022",
      "taf": "TAF EPMO 131730Z 1318/1418 10008KT CAVOK"
    },
    {
      "icao": "EPPO",
      "alert": "OK",
      "vis_m": 9999,
      "fzfg": false,
      "metar_trigger": false,
      "taf_trigger": false,
      "metar": "METAR EPPO 132300Z 11013KT CAVOK 10/M01 Q1017",
      "taf": "TAF EPPO 131730Z 1318/1418 10015KT CAVOK"
    },
    {
      "icao": "EPRA",
      "alert": "OK",
      "vis_m": 9999,
      "fzfg": false,
      "metar_trigger": false,
      "taf_trigger": false,
      "metar": "METAR EPRA 132300Z 10012KT CAVOK 08/M02 Q1021",
      "taf": "TAF EPRA 132030Z 1321/1406 11012KT CAVOK"
    },
    {
      "icao": "EPRZ",
      "alert": "OK",
      "vis_m": 9999,
      "fzfg": false,
      "metar_trigger": false,
      "taf_trigger": false,
      "metar": "METAR EPRZ 132300Z 09014KT CAVOK 08/M02 Q1020",
      "taf": "TAF EPRZ 131730Z 1318/1418 11014KT CAVOK"
    },
    {
      "icao": "EPSC",
      "alert": "OK",
      "vis_m": 9999,
      "fzfg": false,
      "metar_trigger": false,
      "taf_trigger": false,
      "metar": "METAR EPSC 132300Z 10012KT CAVOK 11/M02 Q1016",
      "taf": "TAF EPSC 131730Z 1318/1418 10016KT CAVOK"
    },
    {
      "icao": "EPSY",
      "alert": "OK",
      "vis_m": 9999,
      "fzfg": false,
      "metar_trigger": false,
      "taf_trigger": false,
      "metar": "METAR EPSY 132300Z 10005KT 040V150 CAVOK 06/M02 Q1024",
      "taf": "TAF EPSY 132030Z 1321/1406 11005KT CAVOK"
    },
    {
      "icao": "EPWA",
      "alert": "OK",
      "vis_m": 9999,
      "fzfg": false,
      "metar_trigger": false,
      "taf_trigger": false,
      "metar": "METAR EPWA 132300Z 11011KT CAVOK 09/M02 Q1021 NOSIG",
      "taf": "TAF EPWA 132030Z 1321/1421 11007KT CAVOK"
    },
    {
      "icao": "EPWR",
      "alert": "OK",
      "vis_m": 9999,
      "fzfg": false,
      "metar_trigger": false,
      "taf_trigger": false,
      "metar": "METAR EPWR 132300Z 10008KT CAVOK 11/01 Q1015",
      "taf": "TAF EPWR 132030Z 1321/1421 13012KT CAVOK"
    },
    {
      "icao": "ESGG",
      "alert": "OK",
      "vis_m": 9999,
      "fzfg": false,
      "metar_trigger": false,
      "taf_trigger": false,
      "metar": "METAR ESGG 132250Z 10011KT CAVOK 06/M03 Q1022",
      "taf": "TAF ESGG 132030Z 1321/1421 11009KT CAVOK"
    },
    {
      "icao": "ESKN",
      "alert": "OK",
      "vis_m": 9999,
      "fzfg": false,
      "metar_trigger": false,
      "taf_trigger": false,
      "metar": "METAR ESKN 132250Z 08006KT CAVOK 03/M01 Q1029",
      "taf": "TAF ESKN 132030Z 1321/1421 09005KT CAVOK"
    },
    {
      "icao": "ESMS",
      "alert": "OK",
      "vis_m": 9999,
      "fzfg": false,
      "metar_trigger": false,
      "taf_trigger": false,
      "metar": "METAR ESMS 132220Z 08014KT CAVOK 06/01 Q1019",
      "taf": "TAF ESMS 132027Z 1321/1421 09014KT CAVOK"
    },
    {
      "icao": "ESSA",
      "alert": "OK",
      "vis_m": 9999,
      "fzfg": false,
      "metar_trigger": false,
      "taf_trigger": false,
      "metar": "METAR ESSA 132250Z 07005KT CAVOK 03/M01 Q1030 NOSIG",
      "taf": "TAF ESSA 132030Z 1321/1421 10005KT CAVOK"
    },
    {
      "icao": "EYKA",
      "alert": "OK",
      "vis_m": 9999,
      "fzfg": false,
      "metar_trigger": false,
      "taf_trigger": false,
      "metar": "METAR EYKA 132250Z AUTO 08006KT 9999 SCT094/// 03/M00 Q1028",
      "taf": "TAF EYKA 132300Z 1400/1424 VRB05KT 9000 NSC"
    },
    {
      "icao": "EYPA",
      "alert": "OK",
      "vis_m": 9999,
      "fzfg": false,
      "metar_trigger": false,
      "taf_trigger": false,
      "metar": "METAR EYPA 132250Z AUTO 09005KT 060V120 9999 FEW083/// 06/M00 Q1027",
      "taf": "TAF EYPA 132300Z 1400/1424 VRB05KT 9000 NSC"
    },
    {
      "icao": "EYVI",
      "alert": "OK",
      "vis_m": 9999,
      "fzfg": false,
      "metar_trigger": false,
      "taf_trigger": false,
      "metar": "METAR EYVI 132250Z 09003KT CAVOK 05/M01 Q1028 NOSIG",
      "taf": "TAF EYVI 132300Z 1400/1424 VRB05KT 9000 NSC"
    },
    {
      "icao": "GCFV",
      "alert": "OK",
      "vis_m": 9000,
      "fzfg": false,
      "metar_trigger": false,
      "taf_trigger": false,
      "metar": "METAR GCFV 132300Z AUTO 02021KT 9000 OVC027 17/11 Q1021",
      "taf": "TAF GCFV 132000Z 1321/1421 02020KT 9999 FEW025 TX23/1414Z TN16/1406Z"
    },
    {
      "icao": "GCLP",
      "alert": "OK",
      "vis_m": 9999,
      "fzfg": false,
      "metar_trigger": false,
      "taf_trigger": false,
      "metar": "METAR GCLP 132300Z 01023KT 9999 FEW030 BKN035 17/10 Q1021 NOSIG",
      "taf": "TAF GCLP 132000Z 1321/1421 01024KT 9999 SCT035 TX22/1414Z TN15/1406Z"
    },
    {
      "icao": "GCTS",
      "alert": "OK",
      "vis_m": 9999,
      "fzfg": false,
      "metar_trigger": false,
      "taf_trigger": false,
      "metar": "METAR GCTS 132300Z 07019KT 9999 FEW030 17/09 Q1021 WS R07 NOSIG",
      "taf": "TAF GCTS 132000Z 1321/1421 07018KT 9999 FEW030 TX23/1414Z TN15/1406Z"
    },
    {
      "icao": "GMAD",
      "alert": "OK",
      "vis_m": 9999,
      "fzfg": false,
      "metar_trigger": false,
      "taf_trigger": false,
      "metar": "METAR GMAD 132300Z 00000KT CAVOK 15/12 Q1015 NOSIG",
      "taf": ""
    },
    {
      "icao": "GMMN",
      "alert": "OK",
      "vis_m": 9999,
      "fzfg": false,
      "metar_trigger": false,
      "taf_trigger": false,
      "metar": "METAR GMMN 132300Z 11004KT CAVOK 09/06 Q1023 NOSIG",
      "taf": "TAF GMMN 131700Z 1318/1424 03011KT 9999 SCT030"
    },
    {
      "icao": "GMMX",
      "alert": "OK",
      "vis_m": 9999,
      "fzfg": false,
      "metar_trigger": false,
      "taf_trigger": false,
      "metar": "METAR GMMX 132300Z 06008KT 040V100 CAVOK 12/08 Q1021 NOSIG",
      "taf": "TAF GMMX 131700Z 1318/1424 06006KT 8000 NSC"
    },
    {
      "icao": "HEGN",
      "alert": "OK",
      "vis_m": 9999,
      "fzfg": false,
      "metar_trigger": false,
      "taf_trigger": false,
      "metar": "METAR HEGN 132200Z 29010KT CAVOK 22/02 Q1015 NOSIG",
      "taf": "TAF HEGN 132300Z 1400/1506 29012KT CAVOK"
    },
    {
      "icao": "HEMA",
      "alert": "OK",
      "vis_m": 9999,
      "fzfg": false,
      "metar_trigger": false,
      "taf_trigger": false,
      "metar": "METAR HEMA 132200Z 32006KT CAVOK 18/06 Q1014 NOSIG",
      "taf": "TAF HEMA 132300Z 1400/1506 30014KT CAVOK"
    },
    {
      "icao": "HESH",
      "alert": "OK",
      "vis_m": 9999,
      "fzfg": false,
      "metar_trigger": false,
      "taf_trigger": false,
      "metar": "METAR HESH 132200Z 34006KT CAVOK 25/03 Q1015 NOSIG",
      "taf": "TAF HESH 132300Z 1400/1506 32010KT CAVOK"
    },
    {
      "icao": "HESX",
      "alert": "OK",
      "vis_m": 9999,
      "fzfg": false,
      "metar_trigger": false,
      "taf_trigger": false,
      "metar": "METAR HESX 132200Z 05011KT CAVOK 16/11 Q1019 NOSIG",
      "taf": "TAF HESX 132300Z 1400/1506 01010KT CAVOK"
    },
    {
      "icao": "LATI",
      "alert": "OK",
      "vis_m": 5000,
      "fzfg": false,
      "metar_trigger": false,
      "taf_trigger": false,
      "metar": "METAR LATI 132250Z VRB02KT 5000 BR NSC 13/09 Q1013 NOSIG",
      "taf": "TAF LATI 132300Z 1400/1424 VRB05KT CAVOK TX26/1412Z TN10/1404Z"
    },
    {
      "icao": "LBPD",
      "alert": "OK",
      "vis_m": 9999,
      "fzfg": false,
      "metar_trigger": false,
      "taf_trigger": false,
      "metar": "METAR LBPD 132300Z AUTO 12007KT 9999 BKN170/// 07/04 Q1021",
      "taf": "TAF LBPD 131700Z 1318/1418 VRB04KT 9999 SCT060"
    },
    {
      "icao": "LBSF",
      "alert": "OK",
      "vis_m": 9999,
      "fzfg": false,
      "metar_trigger": false,
      "taf_trigger": false,
      "metar": "METAR LBSF 132300Z AUTO 11012KT 9999 NSC 09/02 Q1020 NOSIG",
      "taf": "TAF LBSF 131700Z 1318/1418 10012KT 9999 SCT050"
    },
    {
      "icao": "LBWN",
      "alert": "OK",
      "vis_m": 9999,
      "fzfg": false,
      "metar_trigger": false,
      "taf_trigger": false,
      "metar": "METAR LBWN 132300Z AUTO 12008KT 9999 FEW017/// 09/06 Q1023 NOSIG",
      "taf": "TAF LBWN 131700Z 1318/1418 12010KT 9999 SCT040"
    },
    {
      "icao": "LCLK",
      "alert": "OK",
      "vis_m": 9999,
      "fzfg": false,
      "metar_trigger": false,
      "taf_trigger": false,
      "metar": "METAR LCLK 132300Z 30003KT CAVOK 11/10 Q1021 NOSIG",
      "taf": "TAF LCLK 131730Z 1318/1418 31007KT 9999 FEW040"
    },
    {
      "icao": "LCPH",
      "alert": "OK",
      "vis_m": 9999,
      "fzfg": false,
      "metar_trigger": false,
      "taf_trigger": false,
      "metar": "METAR LCPH 132300Z 06008KT 010V080 CAVOK 13/09 Q1020 NOSIG",
      "taf": "TAF LCPH 131730Z 1318/1418 04008KT 9999 FEW025"
    },
    {
      "icao": "LEAL",
      "alert": "OK",
      "vis_m": 9999,
      "fzfg": false,
      "metar_trigger": false,
      "taf_trigger": false,
      "metar": "METAR LEAL 132300Z VRB02KT 9999 FEW012 10/08 Q1016 NOSIG",
      "taf": "TAF LEAL 131700Z 1318/1418 VRB04KT 9999 FEW030 TX22/1413Z TN10/1406Z"
    },
    {
      "icao": "LEBB",
      "alert": "OK",
      "vis_m": 9999,
      "fzfg": false,
      "metar_trigger": false,
      "taf_trigger": false,
      "metar": "METAR LEBB 132300Z AUTO 09003KT 060V120 9999 BKN066 08/07 Q1020",
      "taf": "TAF LEBB 131700Z 1318/1418 VRB03KT 9999 FEW030 SCT045 TX15/1414Z TN07/1400Z"
    },
    {
      "icao": "LEBL",
      "alert": "OK",
      "vis_m": 9999,
      "fzfg": false,
      "metar_trigger": false,
      "taf_trigger": false,
      "metar": "METAR LEBL 132300Z 16004KT 120V190 CAVOK 15/10 Q1014 NOSIG",
      "taf": ""
    },
    {
      "icao": "LECH",
      "alert": "OK",
      "vis_m": 9999,
      "fzfg": false,
      "metar_trigger": false,
      "taf_trigger": false,
      "metar": "METAR LECH 132300Z AUTO 33023G36KT 290V010 CAVOK 12/M01 Q1014",
      "taf": "TAF LECH 131700Z 1318/1418 33013KT 9999 FEW030 TX23/1414Z TN07/1406Z"
    },
    {
      "icao": "LEMD",
      "alert": "OK",
      "vis_m": 9999,
      "fzfg": false,
      "metar_trigger": false,
      "taf_trigger": false,
      "metar": "METAR LEMD 132300Z 32005KT 270V080 9999 FEW065 09/01 Q1019 NOSIG",
      "taf": "TAF LEMD 131700Z 1318/1424 VRB03KT CAVOK TX21/1416Z TN04/1406Z"
    },
    {
      "icao": "LEMG",
      "alert": "OK",
      "vis_m": 9999,
      "fzfg": false,
      "metar_trigger": false,
      "taf_trigger": false,
      "metar": "METAR LEMG 132300Z 31005KT 9999 FEW075 13/05 Q1021 NOSIG",
      "taf": "TAF LEMG 131700Z 1318/1418 31012KT CAVOK TX23/1414Z TN13/1407Z"
    },
    {
      "icao": "LEVC",
      "alert": "OK",
      "vis_m": 9999,
      "fzfg": false,
      "metar_trigger": false,
      "taf_trigger": false,
      "metar": "METAR LEVC 132300Z 31006KT CAVOK 12/03 Q1016 NOSIG",
      "taf": "TAF LEVC 131700Z 1318/1418 10007KT 9999 FEW030 TX23/1413Z TN08/1406Z"
    },
    {
      "icao": "LEXJ",
      "alert": "OK",
      "vis_m": 9999,
      "fzfg": false,
      "metar_trigger": false,
      "taf_trigger": false,
      "metar": "METAR LEXJ 132300Z AUTO VRB01KT 9999 BKN055 BKN070 OVC080 11/07 Q1019",
      "taf": "TAF LEXJ 132000Z 1321/1421 20009KT 9999 SCT040 TX18/1412Z TN09/1321Z"
    },
    {
      "icao": "LEZG",
      "alert": "OK",
      "vis_m": 9999,
      "fzfg": false,
      "metar_trigger": false,
      "taf_trigger": false,
      "metar": "METAR LEZG 132300Z 27015KT CAVOK 09/03 Q1018 NOSIG",
      "taf": "TAF LEZG 131700Z 1318/1418 31018KT 9999 FEW040 TX22/1413Z TN07/1406Z"
    },
    {
      "icao": "LEZL",
      "alert": "OK",
      "vis_m": 9999,
      "fzfg": false,
      "metar_trigger": false,
      "taf_trigger": false,
      "metar": "METAR LEZL 132300Z 31006KT CAVOK 13/08 Q1022 NOSIG",
      "taf": "TAF LEZL 132000Z 1321/1421 26005KT CAVOK TX25/1415Z TN10/1407Z"
    },
    {
      "icao": "LFBD",
      "alert": "OK",
      "vis_m": 9999,
      "fzfg": false,
      "metar_trigger": false,
      "taf_trigger": false,
      "metar": "METAR LFBD 132300Z AUTO 24003KT CAVOK 06/04 Q1019 NOSIG",
      "taf": "TAF LFBD 131700Z 1318/1424 30010KT CAVOK TX19/1414Z TN03/1406Z"
    },
    {
      "icao": "LFLL",
      "alert": "OK",
      "vis_m": 9999,
      "fzfg": false,
      "metar_trigger": false,
      "taf_trigger": false,
      "metar": "METAR LFLL 132300Z 32007KT 300V360 9999 FEW013 BKN100 07/06 Q1016 NOSIG",
      "taf": "TAF LFLL 131700Z 1318/1424 34006KT 9999 -RA FEW015 BKN025"
    },
    {
      "icao": "LFLS",
      "alert": "OK",
      "vis_m": 9999,
      "fzfg": false,
      "metar_trigger": false,
      "taf_trigger": false,
      "metar": "METAR LFLS 132300Z AUTO 34003KT 280V040 9999 FEW019 SCT039 BKN060 06/04 Q1015",
      "taf": "TAF LFLS 131400Z 1315/1415 35007KT 9999 -RA SCT013 OVC020"
    },
    {
      "icao": "LFMN",
      "alert": "OK",
      "vis_m": 9999,
      "fzfg": false,
      "metar_trigger": false,
      "taf_trigger": false,
      "metar": "METAR LFMN 132300Z 32009KT CAVOK 15/10 Q1006 NOSIG",
      "taf": "TAF LFMN 132000Z 1321/1503 VRB05KT 9999 BKN100"
    },
    {
      "icao": "LFOB",
      "alert": "OK",
      "vis_m": 8000,
      "fzfg": false,
      "metar_trigger": false,
      "taf_trigger": false,
      "metar": "METAR LFOB 132300Z AUTO 28002KT 8000 0700 R30/1900D R12/P5000 BCFG NSC 03/03 Q1017 TEMPO 0700 FG VV///",
      "taf": "TAF LFOB 131700Z 1318/1418 33007KT CAVOK"
    },
    {
      "icao": "LFPO",
      "alert": "OK",
      "vis_m": 9999,
      "fzfg": false,
      "metar_trigger": false,
      "taf_trigger": false,
      "metar": "METAR LFPO 132300Z 25003KT CAVOK 07/05 Q1017 NOSIG",
      "taf": "TAF LFPO 131700Z 1318/1424 32005KT 9999 SCT040"
    },
    {
      "icao": "LFSB",
      "alert": "OK",
      "vis_m": 9999,
      "fzfg": false,
      "metar_trigger": false,
      "taf_trigger": false,
      "metar": "METAR LFSB 132300Z AUTO 25007KT 9999 -RA OVC022 07/06 Q1016 TEMPO BKN012",
      "taf": "TAF LFSB 131700Z 1318/1418 25007KT 9999 SCT015 BKN025"
    },
    {
      "icao": "LGAV",
      "alert": "OK",
      "vis_m": 9999,
      "fzfg": false,
      "metar_trigger": false,
      "taf_trigger": false,
      "metar": "METAR LGAV 132250Z 00000KT 9999 FEW025 09/08 Q1020 NOSIG",
      "taf": "TAF LGAV 132300Z 1400/1424 VRB05KT 9999 FEW020 SCT070"
    },
    {
      "icao": "LGTS",
      "alert": "OK",
      "vis_m": 9999,
      "fzfg": false,
      "metar_trigger": false,
      "taf_trigger": false,
      "metar": "METAR LGTS 132250Z VRB02KT 9999 SCT025 13/09 Q1020 NOSIG",
      "taf": "TAF LGTS 132300Z 1400/1424 12008KT 9999 FEW025"
    },
    {
      "icao": "LHBP",
      "alert": "OK",
      "vis_m": 9999,
      "fzfg": false,
      "metar_trigger": false,
      "taf_trigger": false,
      "metar": "METAR LHBP 132300Z 07010KT 040V100 CAVOK 12/M02 Q1016 NOSIG",
      "taf": "TAF LHBP 131715Z 1318/1418 08011KT CAVOK"
    },
    {
      "icao": "LHDC",
      "alert": "OK",
      "vis_m": 9999,
      "fzfg": false,
      "metar_trigger": false,
      "taf_trigger": false,
      "metar": "METAR LHDC 132245Z AUTO 07008KT CAVOK 11/M00 Q1016",
      "taf": "TAF LHDC 131415Z 1315/1324 08012KT CAVOK"
    },
    {
      "icao": "LIBD",
      "alert": "OK",
      "vis_m": 9999,
      "fzfg": false,
      "metar_trigger": false,
      "taf_trigger": false,
      "metar": "METAR LIBD 132250Z 18010KT 9999 FEW015 BKN030 17/14 Q1008",
      "taf": "TAF LIBD 131700Z 1318/1418 16016G26KT 9999 BKN030"
    },
    {
      "icao": "LIBG",
      "alert": "OK",
      "vis_m": null,
      "fzfg": false,
      "metar_trigger": false,
      "taf_trigger": false,
      "metar": "",
      "taf": "TAF LIBG 131400Z 1315/1324 16020G30KT 9999 BKN015"
    },
    {
      "icao": "LIBP",
      "alert": "OK",
      "vis_m": 3700,
      "fzfg": false,
      "metar_trigger": false,
      "taf_trigger": false,
      "metar": "METAR LIBP 132250Z AUTO VRB01KT 3700 BR NCD 13/13 Q1005",
      "taf": "TAF LIBP 131700Z 1318/1418 VRB05KT 9999 BKN040"
    },
    {
      "icao": "LIBR",
      "alert": "OK",
      "vis_m": 7000,
      "fzfg": false,
      "metar_trigger": false,
      "taf_trigger": false,
      "metar": "METAR LIBR 132250Z 17010KT 7000 BKN020 17/14 Q1010",
      "taf": "TAF LIBR 131700Z 1318/1418 16020G30KT 9999 FEW030"
    },
    {
      "icao": "LICA",
      "alert": "OK",
      "vis_m": 9999,
      "fzfg": false,
      "metar_trigger": false,
      "taf_trigger": false,
      "metar": "METAR LICA 132250Z AUTO 06007KT 9999 NCD 16/14 Q1009",
      "taf": "TAF LICA 131700Z 1318/1418 08016KT 9999 FEW040"
    },
    {
      "icao": "LICC",
      "alert": "OK",
      "vis_m": 6000,
      "fzfg": false,
      "metar_trigger": false,
      "taf_trigger": false,
      "metar": "METAR LICC 132250Z 26004KT 6000 FEW030 14/11 Q1008",
      "taf": "TAF LICC 131700Z 1318/1418 07013KT 7000 FEW020"
    },
    {
      "icao": "LICJ",
      "alert": "OK",
      "vis_m": 9999,
      "fzfg": false,
      "metar_trigger": false,
      "taf_trigger": false,
      "metar": "METAR LICJ 132250Z 21011KT CAVOK 17/11 Q1008",
      "taf": "TAF LICJ 131700Z 1318/1418 23014KT 7000 FEW040"
    },
    {
      "icao": "LIMC",
      "alert": "OK",
      "vis_m": 9999,
      "fzfg": false,
      "metar_trigger": false,
      "taf_trigger": false,
      "metar": "METAR LIMC 132250Z 34003KT 320V020 9999 -RA BKN060 12/11 Q1009 NOSIG",
      "taf": "TAF LIMC 131700Z 1318/1424 35010KT 9999 BKN040"
    },
    {
      "icao": "LIME",
      "alert": "OK",
      "vis_m": 9999,
      "fzfg": false,
      "metar_trigger": false,
      "taf_trigger": false,
      "metar": "METAR LIME 132250Z VRB02KT 9999 BKN060 14/11 Q1008 NOSIG",
      "taf": "TAF LIME 131700Z 1318/1418 VRB05KT 8000 BKN040"
    },
    {
      "icao": "LIMF",
      "alert": "OK",
      "vis_m": 9999,
      "fzfg": false,
      "metar_trigger": false,
      "taf_trigger": false,
      "metar": "METAR LIMF 132250Z 35005KT 330V030 9999 OVC050 12/08 Q1009",
      "taf": "TAF LIMF 131700Z 1318/1418 36010KT 8000 BKN030"
    },
    {
      "icao": "LIMJ",
      "alert": "OK",
      "vis_m": 9999,
      "fzfg": false,
      "metar_trigger": false,
      "taf_trigger": false,
      "metar": "METAR LIMJ 132250Z 04010KT 9999 SCT055 16/11 Q1006",
      "taf": "TAF LIMJ 131700Z 1318/1418 05013KT 9999 SCT060"
    },
    {
      "icao": "LIPE",
      "alert": "OK",
      "vis_m": 4000,
      "fzfg": false,
      "metar_trigger": false,
      "taf_trigger": false,
      "metar": "METAR LIPE 132250Z 04004KT 010V070 4000 BR BKN005 14/14 Q1007",
      "taf": "TAF LIPE 131700Z 1318/1418 07008KT 6000 RA BKN014"
    },
    {
      "icao": "LIPH",
      "alert": "OK",
      "vis_m": null,
      "fzfg": false,
      "metar_trigger": false,
      "taf_trigger": false,
      "metar": "",
      "taf": "TAF LIPH 131700Z 1318/1418 04010KT 6000 RA SCT060"
    },
    {
      "icao": "LIPQ",
      "alert": "OK",
      "vis_m": 9999,
      "fzfg": false,
      "metar_trigger": false,
      "taf_trigger": false,
      "metar": "METAR LIPQ 132250Z AUTO 07006KT 030V110 9999 SCT080/// BKN140/// 18/05 Q1009",
      "taf": "TAF LIPQ 131700Z 1318/1418 08008KT 9999 SCT060"
    },
    {
      "icao": "LIPR",
      "alert": "OK",
      "vis_m": 2200,
      "fzfg": false,
      "metar_trigger": false,
      "taf_trigger": false,
      "metar": "METAR LIPR 132250Z AUTO VRB02KT 2200 BR FEW003/// BKN073/// 14/14 Q1006",
      "taf": "TAF LIPR 131700Z 1318/1418 10010KT 8000 BKN030"
    },
    {
      "icao": "LIPX",
      "alert": "OK",
      "vis_m": 7000,
      "fzfg": false,
      "metar_trigger": false,
      "taf_trigger": false,
      "metar": "METAR LIPX 132250Z 07008KT 040V100 7000 -RA BKN030 13/11 Q1008",
      "taf": "TAF LIPX 131700Z 1318/1418 08014KT 9999 BKN040"
    },
    {
      "icao": "LIPY",
      "alert": "OK",
      "vis_m": 5000,
      "fzfg": false,
      "metar_trigger": false,
      "taf_trigger": false,
      "metar": "METAR LIPY 132250Z AUTO VRB02KT 5000 BR OVC010/// 15/15 Q1006",
      "taf": "TAF LIPY 131700Z 1318/1418 13008KT 8000 BKN015"
    },
    {
      "icao": "LIPZ",
      "alert": "OK",
      "vis_m": 9999,
      "fzfg": false,
      "metar_trigger": false,
      "taf_trigger": false,
      "metar": "METAR LIPZ 132250Z 02006KT 9999 -RA BKN055 14/13 Q1009 NOSIG",
      "taf": "TAF LIPZ 131700Z 1318/1424 05010KT 9999 BKN050"
    },
    {
      "icao": "LIRF",
      "alert": "OK",
      "vis_m": 9999,
      "fzfg": false,
      "metar_trigger": false,
      "taf_trigger": false,
      "metar": "METAR LIRF 132250Z 13011KT 9999 FEW015 BKN035 16/14 Q1005 NOSIG",
      "taf": "TAF LIRF 131700Z 1318/1424 15013KT 8000 SCT030"
    },
    {
      "icao": "LIRN",
      "alert": "OK",
      "vis_m": 8000,
      "fzfg": false,
      "metar_trigger": false,
      "taf_trigger": false,
      "metar": "METAR LIRN 132250Z 18004KT 100V230 8000 SCT020 16/14 Q1007 NOSIG",
      "taf": "TAF LIRN 131700Z 1318/1418 17010KT 9999 SCT040"
    },
    {
      "icao": "LIRP",
      "alert": "OK",
      "vis_m": 9999,
      "fzfg": false,
      "metar_trigger": false,
      "taf_trigger": false,
      "metar": "METAR LIRP 132245Z 20003KT 9999 BKN080 13/12 Q1004 NOSIG",
      "taf": "TAF LIRP 131700Z 1318/1418 10010KT 9999 RA SCT030 BKN050"
    },
    {
      "icao": "LIRZ",
      "alert": "OK",
      "vis_m": 9999,
      "fzfg": false,
      "metar_trigger": false,
      "taf_trigger": false,
      "metar": "METAR LIRZ 132250Z AUTO 02005KT 9999 FEW044/// 12/11 Q1005",
      "taf": "TAF LIRZ 131700Z 1318/1418 02011KT 9999 SCT040"
    },
    {
      "icao": "LJLJ",
      "alert": "OK",
      "vis_m": 9999,
      "fzfg": false,
      "metar_trigger": false,
      "taf_trigger": false,
      "metar": "METAR LJLJ 132300Z 00000KT 9999 BKN050 OVC100 12/06 Q1011 NOSIG",
      "taf": "TAF LJLJ 132300Z 1400/1500 VRB02KT 9999 BKN050"
    },
    {
      "icao": "LKMT",
      "alert": "OK",
      "vis_m": 9999,
      "fzfg": false,
      "metar_trigger": false,
      "taf_trigger": false,
      "metar": "METAR LKMT 132300Z VRB01KT 9999 -RA NSC 09/04 Q1016 NOSIG",
      "taf": "TAF LKMT 131700Z 1318/1418 05010KT CAVOK"
    },
    {
      "icao": "LKPR",
      "alert": "OK",
      "vis_m": 9999,
      "fzfg": false,
      "metar_trigger": false,
      "taf_trigger": false,
      "metar": "METAR LKPR 132300Z 09005KT CAVOK 09/03 Q1012 NOSIG",
      "taf": "TAF LKPR 132000Z 1321/1503 12008KT CAVOK"
    },
    {
      "icao": "LLBG",
      "alert": "OK",
      "vis_m": 9999,
      "fzfg": false,
      "metar_trigger": false,
      "taf_trigger": false,
      "metar": "METAR LLBG 132250Z VRB02KT CAVOK 13/09 Q1019 NOSIG",
      "taf": "TAF LLBG 131703Z 1318/1418 02007KT CAVOK TX30/1412Z TN10/1403Z"
    },
    {
      "icao": "LMML",
      "alert": "OK",
      "vis_m": 8000,
      "fzfg": false,
      "metar_trigger": false,
      "taf_trigger": false,
      "metar": "METAR LMML 132245Z 22005KT 8000 FEW001 16/15 Q1009 NOSIG",
      "taf": "TAF LMML 132300Z 1400/1424 21005KT 4000 BR FEW003"
    },
    {
      "icao": "LOWW",
      "alert": "OK",
      "vis_m": 9999,
      "fzfg": false,
      "metar_trigger": false,
      "taf_trigger": false,
      "metar": "METAR LOWW 132250Z 14006KT CAVOK 11/01 Q1015 NOSIG",
      "taf": "TAF LOWW 132015Z 1321/1503 13007KT CAVOK TX17/1413Z TN09/1404Z"
    },
    {
      "icao": "LPFR",
      "alert": "OK",
      "vis_m": 9999,
      "fzfg": false,
      "metar_trigger": false,
      "taf_trigger": false,
      "metar": "METAR LPFR 132300Z 31007KT CAVOK 13/09 Q1024",
      "taf": "TAF LPFR 131700Z 1318/1418 32015KT 9999 SCT030"
    },
    {
      "icao": "LPMA",
      "alert": "OK",
      "vis_m": 9999,
      "fzfg": false,
      "metar_trigger": false,
      "taf_trigger": false,
      "metar": "METAR LPMA 132300Z 01009KT 330V040 9999 SCT016 15/08 Q1026",
      "taf": "TAF LPMA 131700Z 1318/1418 02012KT 9999 SCT015"
    },
    {
      "icao": "LPPR",
      "alert": "OK",
      "vis_m": 9999,
      "fzfg": false,
      "metar_trigger": false,
      "taf_trigger": false,
      "metar": "METAR LPPR 132300Z 17008KT 9999 -DZRA OVC004 12/12 Q1021",
      "taf": "TAF LPPR 131700Z 1318/1418 21008KT 9999 SCT008 BKN016"
    },
    {
      "icao": "LPPS",
      "alert": "OK",
      "vis_m": 9999,
      "fzfg": false,
      "metar_trigger": false,
      "taf_trigger": false,
      "metar": "METAR LPPS 132300Z 03008KT 9999 FEW015 BKN030 15/07 Q1026",
      "taf": "TAF LPPS 131700Z 1318/1424 04010KT 9999 SCT015"
    },
    {
      "icao": "LPPT",
      "alert": "OK",
      "vis_m": 8000,
      "fzfg": false,
      "metar_trigger": false,
      "taf_trigger": false,
      "metar": "METAR LPPT 132300Z 24006KT 210V270 8000 -DZRA FEW005 SCT007 BKN010 13/12 Q1023",
      "taf": "TAF LPPT 131700Z 1318/1424 31010KT 9999 SCT030"
    },
    {
      "icao": "LQBK",
      "alert": "OK",
      "vis_m": 9999,
      "fzfg": false,
      "metar_trigger": false,
      "taf_trigger": false,
      "metar": "METAR LQBK 132300Z VRB03KT CAVOK 11/07 Q1011 NOSIG",
      "taf": "TAF LQBK 132300Z 1400/1424 08007KT 9999 SCT040 TX18/1413Z TN09/1404Z"
    },
    {
      "icao": "LQSA",
      "alert": "OK",
      "vis_m": 9999,
      "fzfg": false,
      "metar_trigger": false,
      "taf_trigger": false,
      "metar": "METAR LQSA 132300Z 13010KT 9999 BKN060 16/03 Q1012",
      "taf": "TAF LQSA 132300Z 1400/1424 14007KT 9999 SCT055 TX20/1413Z TN10/1404Z"
    },
    {
      "icao": "LQTZ",
      "alert": "OK",
      "vis_m": 9999,
      "fzfg": false,
      "metar_trigger": false,
      "taf_trigger": false,
      "metar": "METAR LQTZ 132300Z VRB02KT CAVOK 11/10 Q1011",
      "taf": "TAF LQTZ 132300Z 1400/1424 15005KT CAVOK TX20/1413Z TN08/1404Z"
    },
    {
      "icao": "LRBC",
      "alert": "OK",
      "vis_m": 9999,
      "fzfg": false,
      "metar_trigger": false,
      "taf_trigger": false,
      "metar": "METAR LRBC 132300Z 25003KT 220V280 CAVOK 06/03 Q1024",
      "taf": "TAF LRBC 132000Z 1321/1406 VRB04KT CAVOK"
    },
    {
      "icao": "LRBS",
      "alert": "OK",
      "vis_m": 9999,
      "fzfg": false,
      "metar_trigger": false,
      "taf_trigger": false,
      "metar": "METAR LRBS 132300Z 06008KT CAVOK 08/03 Q1023 NOSIG",
      "taf": "TAF LRBS 131700Z 1318/1418 08010KT CAVOK"
    },
    {
      "icao": "LRBV",
      "alert": "OK",
      "vis_m": 9999,
      "fzfg": false,
      "metar_trigger": false,
      "taf_trigger": false,
      "metar": "METAR LRBV 132300Z AUTO 36003KT 310V040 9999 OVC100/// 07/02 Q1020",
      "taf": "TAF LRBV 131700Z 1318/1403 09006KT 9999 SCT055"
    },
    {
      "icao": "LRCL",
      "alert": "OK",
      "vis_m": 9999,
      "fzfg": false,
      "metar_trigger": false,
      "taf_trigger": false,
      "metar": "METAR LRCL 132300Z 12008KT CAVOK 10/02 Q1019",
      "taf": "TAF LRCL 132000Z 1321/1406 12009KT CAVOK"
    },
    {
      "icao": "LRCV",
      "alert": "OK",
      "vis_m": 9999,
      "fzfg": false,
      "metar_trigger": false,
      "taf_trigger": false,
      "metar": "METAR LRCV 132300Z 08015KT CAVOK 10/05 Q1020",
      "taf": "TAF LRCV 132000Z 1321/1406 08017KT CAVOK"
    },
    {
      "icao": "LRIA",
      "alert": "OK",
      "vis_m": 9999,
      "fzfg": false,
      "metar_trigger": false,
      "taf_trigger": false,
      "metar": "METAR LRIA 132300Z 10004KT CAVOK 05/01 Q1025",
      "taf": "TAF LRIA 132000Z 1321/1406 VRB04KT CAVOK"
    },
    {
      "icao": "LROP",
      "alert": "OK",
      "vis_m": 9999,
      "fzfg": false,
      "metar_trigger": false,
      "taf_trigger": false,
      "metar": "METAR LROP 132300Z 07007KT CAVOK 07/01 Q1023 NOSIG",
      "taf": "TAF LROP 131700Z 1318/1418 08010KT CAVOK"
    },
    {
      "icao": "LRSB",
      "alert": "OK",
      "vis_m": 9999,
      "fzfg": false,
      "metar_trigger": false,
      "taf_trigger": false,
      "metar": "METAR LRSB 132300Z 14012KT CAVOK 10/02 Q1018",
      "taf": "TAF LRSB 131700Z 1318/1418 15014KT CAVOK"
    },
    {
      "icao": "LRSM",
      "alert": "OK",
      "vis_m": 9999,
      "fzfg": false,
      "metar_trigger": false,
      "taf_trigger": false,
      "metar": "METAR LRSM 132300Z AUTO 13008KT 9999 BKN150/// BKN220/// 12/00 Q1017",
      "taf": "TAF LRSM 131400Z 1315/1324 13008KT CAVOK"
    },
    {
      "icao": "LRSV",
      "alert": "OK",
      "vis_m": 9999,
      "fzfg": false,
      "metar_trigger": false,
      "taf_trigger": false,
      "metar": "METAR LRSV 132300Z 16006KT CAVOK 04/M00 Q1023",
      "taf": "TAF LRSV 132000Z 1321/1406 14008KT CAVOK"
    },
    {
      "icao": "LRTM",
      "alert": "OK",
      "vis_m": 9999,
      "fzfg": false,
      "metar_trigger": false,
      "taf_trigger": false,
      "metar": "METAR LRTM 132300Z 06007KT 030V090 CAVOK 09/02 Q1020",
      "taf": "TAF LRTM 132000Z 1321/1406 11009KT CAVOK"
    },
    {
      "icao": "LRTR",
      "alert": "OK",
      "vis_m": 9999,
      "fzfg": false,
      "metar_trigger": false,
      "taf_trigger": false,
      "metar": "METAR LRTR 132300Z 09007KT CAVOK 08/04 Q1015 NOSIG",
      "taf": "TAF LRTR 131700Z 1318/1418 09010KT CAVOK"
    },
    {
      "icao": "LTAC",
      "alert": "OK",
      "vis_m": 9999,
      "fzfg": false,
      "metar_trigger": false,
      "taf_trigger": false,
      "metar": "METAR LTAC 132250Z 24002KT CAVOK 02/M02 Q1020 NOSIG RMK RWY21C 16002KT RWY03L 27001KT RWY21R VRB01KT RWY03R 00000KT RWY21L VRB02KT",
      "taf": "TAF LTAC 132240Z 1400/1424 VRB02KT CAVOK"
    },
    {
      "icao": "LTFM",
      "alert": "OK",
      "vis_m": 9999,
      "fzfg": false,
      "metar_trigger": false,
      "taf_trigger": false,
      "metar": "METAR LTFM 132250Z 09008KT CAVOK 08/03 Q1022 NOSIG RMK RWY17L 11007KT RWY34L 08008KT RWY16R 11007KT RWY36 10009KT RWY18 10009KT",
      "taf": "TAF LTFM 132240Z 1400/1506 10008KT CAVOK"
    },
    {
      "icao": "LUKK",
      "alert": "OK",
      "vis_m": 9999,
      "fzfg": false,
      "metar_trigger": false,
      "taf_trigger": false,
      "metar": "METAR LUKK 132300Z 26003KT CAVOK 03/02 Q1025 BECMG 5000 BR",
      "taf": "TAF LUKK 131703Z 1318/1418 VRB05KT CAVOK"
    },
    {
      "icao": "LWOH",
      "alert": "OK",
      "vis_m": null,
      "fzfg": false,
      "metar_trigger": false,
      "taf_trigger": false,
      "metar": "",
      "taf": "TAF LWOH 132030Z 1321/1421 33006KT 9999 FEW040"
    },
    {
      "icao": "LWSK",
      "alert": "OK",
      "vis_m": 9999,
      "fzfg": false,
      "metar_trigger": false,
      "taf_trigger": false,
      "metar": "METAR LWSK 132250Z VRB04KT 9999 SCT047 12/07 Q1018 NOSIG",
      "taf": "TAF LWSK 132030Z 1321/1421 VRB02KT CAVOK"
    },
    {
      "icao": "LYBE",
      "alert": "OK",
      "vis_m": 9999,
      "fzfg": false,
      "metar_trigger": false,
      "taf_trigger": false,
      "metar": "METAR LYBE 132300Z 14017G27KT CAVOK 14/04 Q1013 NOSIG",
      "taf": "TAF LYBE 131700Z 1318/1418 11018KT CAVOK TX16/1413Z TN10/1404Z"
    },
    {
      "icao": "LYNI",
      "alert": "OK",
      "vis_m": 9999,
      "fzfg": false,
      "metar_trigger": false,
      "taf_trigger": false,
      "metar": "METAR LYNI 132300Z 09014KT CAVOK 14/06 Q1016 NOSIG",
      "taf": "TAF LYNI 131700Z 1318/1418 11007KT CAVOK TX19/1413Z TN09/1404Z"
    },
    {
      "icao": "LYPG",
      "alert": "OK",
      "vis_m": 9999,
      "fzfg": false,
      "metar_trigger": false,
      "taf_trigger": false,
      "metar": "METAR LYPG 132300Z 35005KT 9999 SCT080 17/08 Q1012 NOSIG",
      "taf": "TAF LYPG 131700Z 1318/1418 16010KT 9999 SCT080 TX23/1413Z TN12/1404Z"
    },
    {
      "icao": "LZIB",
      "alert": "OK",
      "vis_m": 9999,
      "fzfg": false,
      "metar_trigger": false,
      "taf_trigger": false,
      "metar": "METAR LZIB 132300Z 02006KT CAVOK 09/01 Q1015 NOSIG",
      "taf": ""
    },
    {
      "icao": "LZKZ",
      "alert": "OK",
      "vis_m": 9999,
      "fzfg": false,
      "metar_trigger": false,
      "taf_trigger": false,
      "metar": "METAR LZKZ 132300Z 02005KT CAVOK 10/M01 Q1018 NOSIG",
      "taf": ""
    },
    {
      "icao": "LZTT",
      "alert": "OK",
      "vis_m": 9999,
      "fzfg": false,
      "metar_trigger": false,
      "taf_trigger": false,
      "metar": "METAR LZTT 132300Z 29003KT CAVOK 04/M01 Q1017",
      "taf": ""
    },
    {
      "icao": "OEJN",
      "alert": "OK",
      "vis_m": 9999,
      "fzfg": false,
      "metar_trigger": false,
      "taf_trigger": false,
      "metar": "METAR OEJN 132300Z 36006KT 9999 FEW040 25/18 Q1010 NOSIG",
      "taf": "TAF OEJN 131700Z 1318/1424 36008KT CAVOK"
    },
    {
      "icao": "OEMA",
      "alert": "OK",
      "vis_m": 9999,
      "fzfg": false,
      "metar_trigger": false,
      "taf_trigger": false,
      "metar": "METAR OEMA 132300Z 02003KT CAVOK 22/M11 Q1015 NOSIG",
      "taf": "TAF OEMA 131700Z 1318/1424 VRB03KT CAVOK"
    },
    {
      "icao": "OJAI",
      "alert": "OK",
      "vis_m": 5000,
      "fzfg": false,
      "metar_trigger": false,
      "taf_trigger": false,
      "metar": "METAR OJAI 132300Z 03004KT 5000 HZ NSC 09/07 Q1021 NOSIG",
      "taf": "TAF OJAI 131649Z 1318/1424 VRB02KT 5000 HZ NSC"
    },
    {
      "icao": "OMAA",
      "alert": "OK",
      "vis_m": null,
      "fzfg": false,
      "metar_trigger": false,
      "taf_trigger": false,
      "metar": "",
      "taf": ""
    },
    {
      "icao": "OMDB",
      "alert": "OK",
      "vis_m": null,
      "fzfg": false,
      "metar_trigger": false,
      "taf_trigger": false,
      "metar": "",
      "taf": ""
    },
    {
      "icao": "UAAA",
      "alert": "OK",
      "vis_m": 9999,
      "fzfg": false,
      "metar_trigger": false,
      "taf_trigger": false,
      "metar": "METAR UAAA 132300Z VRB01MPS 9999 SCT100 08/03 Q1019 NOSIG",
      "taf": "TAF UAAA 131700Z 1318/1418 22002MPS 9999 FEW050CB SCT100 TX22/1409Z TN06/1401Z"
    },
    {
      "icao": "UBBB",
      "alert": "OK",
      "vis_m": 9999,
      "fzfg": false,
      "metar_trigger": false,
      "taf_trigger": false,
      "metar": "METAR UBBB 132300Z 32010KT 9999 FEW050CB BKN050 10/07 Q1017 NOSIG",
      "taf": "TAF UBBB 132302Z 1400/1424 33010KT 9999 SCT012 BKN040 TX14/1410Z TN09/1401Z"
    },
    {
      "icao": "UDSG",
      "alert": "OK",
      "vis_m": 9999,
      "fzfg": false,
      "metar_trigger": false,
      "taf_trigger": false,
      "metar": "METAR UDSG 132300Z 36004KT 9999 SCT040CB BKN049 M02/M06 Q1019 NOSIG",
      "taf": "TAF UDSG 131658Z 1318/1418 36006KT 9999 SCT050"
    },
    {
      "icao": "UDYZ",
      "alert": "OK",
      "vis_m": 9999,
      "fzfg": false,
      "metar_trigger": false,
      "taf_trigger": false,
      "metar": "METAR UDYZ 132300Z 18006KT 150V220 9999 BKN033CB 04/01 Q1018 NOSIG",
      "taf": "TAF UDYZ 131700Z 1318/1418 03006KT 9999 BKN040"
    },
    {
      "icao": "UGKO",
      "alert": "OK",
      "vis_m": 9999,
      "fzfg": false,
      "metar_trigger": false,
      "taf_trigger": false,
      "metar": "METAR UGKO 132300Z 19005KT 9999 -SHRA SCT013 BKN030CB OVC052 06/05 Q1023 NOSIG",
      "taf": "TAF UGKO 132300Z 1400/1424 25007KT 9999 SCT023 OVC045 TX13/1411Z TN05/1403Z"
    }
  ]
}