{
  "ts_utc": "2026-03-19T03:15:13Z",
  "threshold_m": 150,
  "source": "stations_override.txt (ICAO list) + aviationweather.gov (METAR/TAF raw)",
  "station_count": 159,
  "stations": [
    {
      "icao": "BIKF",
      "alert": "OK",
      "vis_m": 9999,
      "fzfg": false,
      "metar_trigger": false,
      "taf_trigger": false,
      "metar": "METAR BIKF 190300Z 18029G39KT 9999 -RA OVC009 04/02 Q1004",
      "taf": "TAF BIKF 190104Z 1903/2003 18032G42KT 7000 RA BKN010 OVC020 TX07/1912Z TNM01/2003Z"
    },
    {
      "icao": "BKPR",
      "alert": "OK",
      "vis_m": 9999,
      "fzfg": false,
      "metar_trigger": false,
      "taf_trigger": false,
      "metar": "METAR BKPR 190300Z 01009KT 9999 BKN045 05/01 Q1015 NOSIG",
      "taf": "TAF BKPR 182330Z 1900/1924 03008KT 9999 BKN040"
    },
    {
      "icao": "EBCI",
      "alert": "OK",
      "vis_m": 9999,
      "fzfg": false,
      "metar_trigger": false,
      "taf_trigger": false,
      "metar": "METAR EBCI 190250Z 03006KT CAVOK 04/01 Q1024 NOSIG",
      "taf": "TAF EBCI 182300Z 1900/2006 06006KT CAVOK"
    },
    {
      "icao": "EDDB",
      "alert": "OK",
      "vis_m": 9999,
      "fzfg": false,
      "metar_trigger": false,
      "taf_trigger": false,
      "metar": "METAR EDDB 190250Z AUTO 36002KT CAVOK 02/00 Q1028 NOSIG",
      "taf": "TAF EDDB 182300Z 1900/1924 07004KT CAVOK"
    },
    {
      "icao": "EDDH",
      "alert": "OK",
      "vis_m": 9999,
      "fzfg": false,
      "metar_trigger": false,
      "taf_trigger": false,
      "metar": "METAR EDDH 190250Z AUTO 06003KT CAVOK 02/01 Q1028 NOSIG",
      "taf": "TAF EDDH 182300Z 1900/2006 VRB02KT CAVOK"
    },
    {
      "icao": "EDDK",
      "alert": "OK",
      "vis_m": 9999,
      "fzfg": false,
      "metar_trigger": false,
      "taf_trigger": false,
      "metar": "METAR EDDK 190250Z AUTO 11004KT 070V140 CAVOK 06/02 Q1026 NOSIG",
      "taf": "TAF EDDK 182300Z 1900/2006 09006KT CAVOK"
    },
    {
      "icao": "EDDN",
      "alert": "OK",
      "vis_m": 9999,
      "fzfg": false,
      "metar_trigger": false,
      "taf_trigger": false,
      "metar": "METAR EDDN 190250Z AUTO 35003KT 320V020 CAVOK 02/M01 Q1024",
      "taf": "TAF EDDN 182300Z 1900/1924 09004KT CAVOK"
    },
    {
      "icao": "EDDS",
      "alert": "OK",
      "vis_m": 9999,
      "fzfg": false,
      "metar_trigger": false,
      "taf_trigger": false,
      "metar": "METAR EDDS 190250Z AUTO 05003KT CAVOK 03/M00 Q1021",
      "taf": "TAF EDDS 182300Z 1900/1924 05007KT CAVOK"
    },
    {
      "icao": "EDFH",
      "alert": "OK",
      "vis_m": 9999,
      "fzfg": false,
      "metar_trigger": false,
      "taf_trigger": false,
      "metar": "METAR EDFH 190250Z 09006KT 020V150 CAVOK 06/01 Q1023",
      "taf": "TAF EDFH 182300Z 1900/1924 09008KT CAVOK"
    },
    {
      "icao": "EDJA",
      "alert": "OK",
      "vis_m": 7000,
      "fzfg": false,
      "metar_trigger": false,
      "taf_trigger": false,
      "metar": "METAR EDJA 190250Z AUTO 05003KT 7000 // NCD 01/M00 Q1020",
      "taf": "TAF EDJA 190200Z 1903/1912 06007KT 6000 NSC"
    },
    {
      "icao": "EDLW",
      "alert": "OK",
      "vis_m": 9999,
      "fzfg": false,
      "metar_trigger": false,
      "taf_trigger": false,
      "metar": "METAR EDLW 190250Z AUTO 07004KT 9999 // NCD 05/02 Q1026",
      "taf": "TAF EDLW 182300Z 1900/1924 VRB03KT CAVOK"
    },
    {
      "icao": "EDNY",
      "alert": "OK",
      "vis_m": 9999,
      "fzfg": false,
      "metar_trigger": false,
      "taf_trigger": false,
      "metar": "METAR EDNY 190250Z AUTO 04007KT 9999 // NCD 04/01 Q1020",
      "taf": "TAF EDNY 190200Z 1903/1912 04009KT CAVOK"
    },
    {
      "icao": "EDSB",
      "alert": "OK",
      "vis_m": 9999,
      "fzfg": false,
      "metar_trigger": false,
      "taf_trigger": false,
      "metar": "METAR EDSB 190250Z AUTO 03013KT 9999 // NCD 07/02 Q1022",
      "taf": "TAF EDSB 182300Z 1900/1924 03012KT CAVOK"
    },
    {
      "icao": "EETN",
      "alert": "OK",
      "vis_m": 9999,
      "fzfg": false,
      "metar_trigger": false,
      "taf_trigger": false,
      "metar": "METAR EETN 190250Z 21008KT 9999 FEW007 OVC041 01/M00 Q1022",
      "taf": "TAF EETN 182330Z 1900/1924 20012KT 9999 SCT005 BKN030"
    },
    {
      "icao": "EFTU",
      "alert": "OK",
      "vis_m": 9999,
      "fzfg": false,
      "metar_trigger": false,
      "taf_trigger": false,
      "metar": "METAR EFTU 190250Z AUTO 23008KT 9999 OVC020 03/02 Q1019",
      "taf": "TAF EFTU 190233Z 1903/2003 23008KT 9999 OVC020"
    },
    {
      "icao": "EGBB",
      "alert": "OK",
      "vis_m": 9999,
      "fzfg": false,
      "metar_trigger": false,
      "taf_trigger": false,
      "metar": "METAR EGBB 190250Z 31002KT CAVOK 01/00 Q1026",
      "taf": "TAF EGBB 182256Z 1900/1924 10006KT CAVOK"
    },
    {
      "icao": "EGGP",
      "alert": "OK",
      "vis_m": 9999,
      "fzfg": false,
      "metar_trigger": false,
      "taf_trigger": false,
      "metar": "METAR EGGP 190250Z 12006KT CAVOK 09/05 Q1026",
      "taf": "TAF EGGP 182302Z 1900/1924 16004KT CAVOK"
    },
    {
      "icao": "EGGW",
      "alert": "OK",
      "vis_m": 9999,
      "fzfg": false,
      "metar_trigger": false,
      "taf_trigger": false,
      "metar": "METAR EGGW 190250Z AUTO 05004KT 020V090 9999 NCD 04/01 Q1025",
      "taf": "TAF EGGW 182257Z 1900/1924 09010KT CAVOK"
    },
    {
      "icao": "EGKK",
      "alert": "OK",
      "vis_m": 9999,
      "fzfg": false,
      "metar_trigger": false,
      "taf_trigger": false,
      "metar": "METAR EGKK 190250Z 09003KT CAVOK 05/03 Q1025",
      "taf": "TAF EGKK 182254Z 1900/2006 05006KT CAVOK"
    },
    {
      "icao": "EGNM",
      "alert": "OK",
      "vis_m": null,
      "fzfg": false,
      "metar_trigger": false,
      "taf_trigger": false,
      "metar": "",
      "taf": "TAF EGNM 182302Z 1900/1924 VRB03KT 9999 FEW030"
    },
    {
      "icao": "EGPD",
      "alert": "OK",
      "vis_m": 9999,
      "fzfg": false,
      "metar_trigger": false,
      "taf_trigger": false,
      "metar": "METAR EGPD 190250Z COR AUTO 31005KT 9999 SCT046 08/04 Q1029 NOSIG",
      "taf": "TAF EGPD 182256Z 1900/1924 29004KT 9999 FEW040"
    },
    {
      "icao": "EGPF",
      "alert": "OK",
      "vis_m": 9999,
      "fzfg": false,
      "metar_trigger": false,
      "taf_trigger": false,
      "metar": "METAR EGPF 190250Z AUTO VRB02KT 9999 NCD 05/04 Q1029",
      "taf": "TAF EGPF 182300Z 1900/1924 VRB03KT 9999 SCT040"
    },
    {
      "icao": "EHBK",
      "alert": "OK",
      "vis_m": 9999,
      "fzfg": false,
      "metar_trigger": false,
      "taf_trigger": false,
      "metar": "METAR EHBK 190255Z AUTO 06005KT 9999 NCD 05/01 Q1025",
      "taf": "TAF EHBK 182310Z 1900/2006 07007KT CAVOK"
    },
    {
      "icao": "EHEH",
      "alert": "OK",
      "vis_m": 9999,
      "fzfg": false,
      "metar_trigger": false,
      "taf_trigger": false,
      "metar": "METAR EHEH 190255Z AUTO 01003KT 9999 NCD 02/01 Q1026 BLU",
      "taf": "TAF EHEH 182329Z 1900/2006 08005KT CAVOK"
    },
    {
      "icao": "EKBI",
      "alert": "OK",
      "vis_m": 9999,
      "fzfg": false,
      "metar_trigger": false,
      "taf_trigger": false,
      "metar": "METAR EKBI 190250Z AUTO 11002KT 9999 NCD M00/M02 Q1028",
      "taf": "TAF EKBI 190227Z 1903/2003 19005KT CAVOK"
    },
    {
      "icao": "EKCH",
      "alert": "OK",
      "vis_m": 4200,
      "fzfg": false,
      "metar_trigger": false,
      "taf_trigger": false,
      "metar": "METAR EKCH 190250Z AUTO 23004KT 4200 BR FEW052/// M00/M01 Q1029 NOSIG",
      "taf": ""
    },
    {
      "icao": "ENAL",
      "alert": "OK",
      "vis_m": 9999,
      "fzfg": false,
      "metar_trigger": false,
      "taf_trigger": false,
      "metar": "METAR ENAL 190250Z AUTO 25010KT 9999 NCD 06/05 Q1022",
      "taf": "TAF ENAL 190200Z 1903/1912 26012KT 9999 SCT038"
    },
    {
      "icao": "ENBR",
      "alert": "OK",
      "vis_m": 9000,
      "fzfg": false,
      "metar_trigger": false,
      "taf_trigger": false,
      "metar": "METAR ENBR 190250Z 17008KT 9000 VV003 05/05 Q1026 RMK WIND 1200FT 22010KT",
      "taf": "TAF ENBR 182300Z 1900/1924 18008KT 9000 BKN006"
    },
    {
      "icao": "ENGM",
      "alert": "OK",
      "vis_m": 2000,
      "fzfg": false,
      "metar_trigger": false,
      "taf_trigger": false,
      "metar": "METAR ENGM 190250Z 23004KT 210V270 2000 1100E BCFG SCT001 03/02 Q1022",
      "taf": ""
    },
    {
      "icao": "ENHD",
      "alert": "OK",
      "vis_m": 400,
      "fzfg": false,
      "metar_trigger": false,
      "taf_trigger": false,
      "metar": "METAR ENHD 190250Z AUTO 12006KT 0400 R13/1200U R31/1300U FG VV002 05/05 Q1027",
      "taf": "TAF ENHD 190200Z 1903/1912 14005KT 0300 FG VV002"
    },
    {
      "icao": "ENTC",
      "alert": "OK",
      "vis_m": 9999,
      "fzfg": false,
      "metar_trigger": false,
      "taf_trigger": false,
      "metar": "METAR ENTC 190250Z AUTO 22022KT 9999 -DZRA FEW027/// BKN036/// BKN048/// 03/01 Q0990 RMK WIND 2600FT 22022KT",
      "taf": "TAF ENTC 182300Z 1900/1924 22018KT 9999 BKN020"
    },
    {
      "icao": "ENTO",
      "alert": "OK",
      "vis_m": 9999,
      "fzfg": false,
      "metar_trigger": false,
      "taf_trigger": false,
      "metar": "METAR ENTO 190250Z AUTO 28004KT 9999 // NCD 04/04 Q1023",
      "taf": ""
    },
    {
      "icao": "ENVA",
      "alert": "OK",
      "vis_m": 9999,
      "fzfg": false,
      "metar_trigger": false,
      "taf_trigger": false,
      "metar": "METAR ENVA 190250Z AUTO 27018KT 9999 FEW025/// BKN032/// BKN040/// 06/03 Q1019 RERA REDZ RMK WIND 670FT 28020KT",
      "taf": "TAF ENVA 182300Z 1900/1924 28018KT 9999 BKN040"
    },
    {
      "icao": "ENZV",
      "alert": "OK",
      "vis_m": 250,
      "fzfg": false,
      "metar_trigger": false,
      "taf_trigger": false,
      "metar": "METAR ENZV 190250Z 00000KT 0250 R18/1100U R36/1000D R10/0800N FG VV002 06/06 Q1027",
      "taf": "TAF ENZV 182300Z 1900/1924 19008KT 6000 SCT004 BKN012"
    },
    {
      "icao": "EPGD",
      "alert": "OK",
      "vis_m": 5000,
      "fzfg": false,
      "metar_trigger": false,
      "taf_trigger": false,
      "metar": "METAR EPGD 190300Z 30003KT 5000 BR NSC M02/M02 Q1028",
      "taf": ""
    },
    {
      "icao": "EPKK",
      "alert": "OK",
      "vis_m": 9999,
      "fzfg": false,
      "metar_trigger": false,
      "taf_trigger": false,
      "metar": "METAR EPKK 190300Z 24001KT CAVOK M00/M03 Q1026",
      "taf": "TAF EPKK 190230Z 1903/2003 06005KT CAVOK"
    },
    {
      "icao": "EPKT",
      "alert": "OK",
      "vis_m": 6000,
      "fzfg": false,
      "metar_trigger": false,
      "taf_trigger": false,
      "metar": "METAR EPKT 190300Z VRB01KT 6000 NSC M04/M05 Q1026",
      "taf": "TAF EPKT 182330Z 1900/1924 06005KT CAVOK"
    },
    {
      "icao": "EPLB",
      "alert": "OK",
      "vis_m": 8000,
      "fzfg": false,
      "metar_trigger": false,
      "taf_trigger": false,
      "metar": "METAR EPLB 190300Z VRB02KT 8000 NSC M02/M03 Q1026",
      "taf": "TAF EPLB 182330Z 1900/1924 VRB02KT CAVOK"
    },
    {
      "icao": "EPMO",
      "alert": "OK",
      "vis_m": 9999,
      "fzfg": false,
      "metar_trigger": false,
      "taf_trigger": false,
      "metar": "METAR EPMO 190300Z 01003KT CAVOK 01/M00 Q1027",
      "taf": "TAF EPMO 182330Z 1900/1924 03004KT 8000 NSC"
    },
    {
      "icao": "EPPO",
      "alert": "OK",
      "vis_m": 9999,
      "fzfg": false,
      "metar_trigger": false,
      "taf_trigger": false,
      "metar": "METAR EPPO 190300Z 36002KT CAVOK 02/00 Q1028",
      "taf": "TAF EPPO 182330Z 1900/1924 04004KT CAVOK"
    },
    {
      "icao": "EPRA",
      "alert": "OK",
      "vis_m": 9000,
      "fzfg": false,
      "metar_trigger": false,
      "taf_trigger": false,
      "metar": "METAR EPRA 190300Z 32002KT 9000 NSC 01/M01 Q1026",
      "taf": "TAF EPRA 190230Z 1903/1912 VRB02KT CAVOK"
    },
    {
      "icao": "EPRZ",
      "alert": "OK",
      "vis_m": 9999,
      "fzfg": false,
      "metar_trigger": false,
      "taf_trigger": false,
      "metar": "METAR EPRZ 190300Z 29003KT CAVOK M01/M03 Q1025",
      "taf": "TAF EPRZ 182330Z 1900/1924 06006KT 9999 BKN050"
    },
    {
      "icao": "EPSC",
      "alert": "OK",
      "vis_m": 9999,
      "fzfg": false,
      "metar_trigger": false,
      "taf_trigger": false,
      "metar": "METAR EPSC 190300Z 11002KT CAVOK M02/M02 Q1029",
      "taf": "TAF EPSC 182330Z 1900/1924 VRB02KT CAVOK"
    },
    {
      "icao": "EPSY",
      "alert": "OK",
      "vis_m": 9999,
      "fzfg": false,
      "metar_trigger": false,
      "taf_trigger": false,
      "metar": "METAR EPSY 190300Z 00000KT CAVOK M04/M05 Q1028",
      "taf": "TAF EPSY 190230Z 1903/1912 VRB02KT CAVOK"
    },
    {
      "icao": "EPWA",
      "alert": "OK",
      "vis_m": 9999,
      "fzfg": false,
      "metar_trigger": false,
      "taf_trigger": false,
      "metar": "METAR EPWA 190300Z 03003KT 9999 BKN046 04/01 Q1027 NOSIG",
      "taf": "TAF EPWA 190230Z 1903/2003 02003KT CAVOK"
    },
    {
      "icao": "EPWR",
      "alert": "OK",
      "vis_m": 6000,
      "fzfg": false,
      "metar_trigger": false,
      "taf_trigger": false,
      "metar": "METAR EPWR 190300Z 26001KT 6000 NSC 01/00 Q1027",
      "taf": "TAF EPWR 190230Z 1903/2003 VRB02KT CAVOK"
    },
    {
      "icao": "ESGG",
      "alert": "OK",
      "vis_m": 9999,
      "fzfg": false,
      "metar_trigger": false,
      "taf_trigger": false,
      "metar": "METAR ESGG 190250Z 21006KT 9999 FEW043 05/03 Q1025",
      "taf": "TAF ESGG 190230Z 1903/2003 22012KT 9999 BKN020"
    },
    {
      "icao": "ESKN",
      "alert": "OK",
      "vis_m": 9999,
      "fzfg": false,
      "metar_trigger": false,
      "taf_trigger": false,
      "metar": "METAR ESKN 190250Z 25009KT 9999 BKN017 07/03 Q1022",
      "taf": "TAF ESKN 190230Z 1903/2003 24014KT 9999 BKN025"
    },
    {
      "icao": "ESMS",
      "alert": "OK",
      "vis_m": 9999,
      "fzfg": false,
      "metar_trigger": false,
      "taf_trigger": false,
      "metar": "METAR ESMS 190250Z 21003KT 9999 OVC049 04/01 Q1028",
      "taf": "TAF ESMS 190227Z 1903/2003 19005KT CAVOK"
    },
    {
      "icao": "ESSA",
      "alert": "OK",
      "vis_m": 9999,
      "fzfg": false,
      "metar_trigger": false,
      "taf_trigger": false,
      "metar": "METAR ESSA 190250Z 25009KT 9999 OVC014 06/04 Q1021 NOSIG",
      "taf": "TAF ESSA 190230Z 1903/2003 26014KT 9999 BKN015"
    },
    {
      "icao": "EYKA",
      "alert": "OK",
      "vis_m": 3600,
      "fzfg": false,
      "metar_trigger": false,
      "taf_trigger": false,
      "metar": "METAR EYKA 190250Z 00000KT 3600 0500E BR BCFG NSC M01/M01 Q1028",
      "taf": ""
    },
    {
      "icao": "EYPA",
      "alert": "OK",
      "vis_m": 700,
      "fzfg": true,
      "metar_trigger": false,
      "taf_trigger": false,
      "metar": "METAR EYPA 190250Z 19003KT 0700 R19/0800N FZFG VV002 M03/M03 Q1028",
      "taf": "TAF EYPA 182300Z 1900/1924 VRB03KT 0700 FZFG VV001"
    },
    {
      "icao": "EYVI",
      "alert": "OK",
      "vis_m": 6000,
      "fzfg": false,
      "metar_trigger": false,
      "taf_trigger": false,
      "metar": "METAR EYVI 190250Z 01003KT 340V050 6000 NSC M00/M01 Q1027 NOSIG",
      "taf": "TAF EYVI 182300Z 1900/1924 VRB03KT 8000 NSC"
    },
    {
      "icao": "GCFV",
      "alert": "OK",
      "vis_m": 9999,
      "fzfg": false,
      "metar_trigger": false,
      "taf_trigger": false,
      "metar": "METAR GCFV 190300Z AUTO 22004KT 9999 FEW027 13/11 Q1003",
      "taf": "TAF GCFV 190200Z 1903/2003 24008KT 9999 SCT035 TX22/1914Z TN15/1906Z"
    },
    {
      "icao": "GCLP",
      "alert": "OK",
      "vis_m": 9999,
      "fzfg": false,
      "metar_trigger": false,
      "taf_trigger": false,
      "metar": "METAR GCLP 190300Z 22009KT 190V280 9999 FEW035 17/07 Q1003 NOSIG",
      "taf": "TAF GCLP 190200Z 1903/2003 24006KT 9999 FEW035 TX22/1914Z TN15/1906Z"
    },
    {
      "icao": "GCTS",
      "alert": "OK",
      "vis_m": 9999,
      "fzfg": false,
      "metar_trigger": false,
      "taf_trigger": false,
      "metar": "METAR GCTS 190300Z 27014KT 9999 SCT035 16/08 Q1003 NOSIG",
      "taf": "TAF GCTS 190200Z 1903/2003 28018KT 9999 SCT030 TX23/1914Z TN15/1906Z"
    },
    {
      "icao": "GMAD",
      "alert": "OK",
      "vis_m": 8000,
      "fzfg": false,
      "metar_trigger": false,
      "taf_trigger": false,
      "metar": "METAR GMAD 190230Z 08003KT 8000 SCT020 SCT083 15/13 Q1005 NOSIG",
      "taf": "TAF GMAD 182300Z 1900/2006 12004KT 8000 SCT020 SCT080"
    },
    {
      "icao": "GMMN",
      "alert": "OK",
      "vis_m": 9999,
      "fzfg": false,
      "metar_trigger": false,
      "taf_trigger": false,
      "metar": "METAR GMMN 190300Z VRB03KT 9999 FEW008 SCT100 11/10 Q1004 NOSIG",
      "taf": "TAF GMMN 182300Z 1900/2006 18004KT 9999 SCT020"
    },
    {
      "icao": "GMMX",
      "alert": "OK",
      "vis_m": 8000,
      "fzfg": false,
      "metar_trigger": false,
      "taf_trigger": false,
      "metar": "METAR GMMX 190300Z 06006KT 010V090 8000 FEW023 14/11 Q1003 NOSIG",
      "taf": "TAF GMMX 182300Z 1900/2006 04006KT 8000 SCT080"
    },
    {
      "icao": "HEGN",
      "alert": "OK",
      "vis_m": 6000,
      "fzfg": false,
      "metar_trigger": false,
      "taf_trigger": false,
      "metar": "METAR HEGN 190200Z 32012KT 6000 NSC 23/M06 Q1002 NOSIG",
      "taf": "TAF HEGN 182300Z 1900/2006 28012G25KT 6000 FEW025"
    },
    {
      "icao": "HEMA",
      "alert": "OK",
      "vis_m": 9999,
      "fzfg": false,
      "metar_trigger": false,
      "taf_trigger": false,
      "metar": "METAR HEMA 190200Z 29011KT CAVOK 23/M07 Q1003 NOSIG",
      "taf": "TAF HEMA 182300Z 1900/2006 27012G25KT 6000 FEW025"
    },
    {
      "icao": "HESH",
      "alert": "OK",
      "vis_m": 9999,
      "fzfg": false,
      "metar_trigger": false,
      "taf_trigger": false,
      "metar": "METAR HESH 190200Z 00000KT CAVOK 19/11 Q1001 NOSIG",
      "taf": "TAF HESH 182300Z 1900/2006 35014KT 9999 SCT025"
    },
    {
      "icao": "HESX",
      "alert": "OK",
      "vis_m": 9999,
      "fzfg": false,
      "metar_trigger": false,
      "taf_trigger": false,
      "metar": "METAR HESX 190200Z 24008KT CAVOK 13/01 Q1001 NOSIG",
      "taf": "TAF HESX 182300Z 1900/2006 24011KT 9999 SCT025 BKN070"
    },
    {
      "icao": "LATI",
      "alert": "OK",
      "vis_m": 9999,
      "fzfg": false,
      "metar_trigger": false,
      "taf_trigger": false,
      "metar": "METAR LATI 190250Z VRB02KT 9999 BKN092 09/06 Q1010 NOSIG",
      "taf": "TAF LATI 182300Z 1900/1924 VRB05KT 9999 FEW040 BKN080 TX16/1912Z TN06/1924Z"
    },
    {
      "icao": "LBPD",
      "alert": "OK",
      "vis_m": 5000,
      "fzfg": false,
      "metar_trigger": false,
      "taf_trigger": false,
      "metar": "METAR LBPD 190300Z AUTO 32003KT 5000 BR SCT046/// OVC086/// 05/05 Q1018",
      "taf": "TAF LBPD 182300Z 1900/1924 VRB04KT 9999 SCT030 OVC050"
    },
    {
      "icao": "LBSF",
      "alert": "OK",
      "vis_m": 9999,
      "fzfg": false,
      "metar_trigger": false,
      "taf_trigger": false,
      "metar": "METAR LBSF 190300Z AUTO 11004KT 9999 BKN061/// 03/02 Q1017 NOSIG",
      "taf": "TAF LBSF 182300Z 1900/1924 12010KT 9999 SCT030 OVC050"
    },
    {
      "icao": "LBWN",
      "alert": "OK",
      "vis_m": 9999,
      "fzfg": false,
      "metar_trigger": false,
      "taf_trigger": false,
      "metar": "METAR LBWN 190300Z AUTO 03011KT 360V060 9999 NSC 05/01 Q1018 NOSIG",
      "taf": "TAF LBWN 182300Z 1900/1924 04010KT 9999 SCT040"
    },
    {
      "icao": "LCLK",
      "alert": "OK",
      "vis_m": 9999,
      "fzfg": false,
      "metar_trigger": false,
      "taf_trigger": false,
      "metar": "METAR LCLK 190300Z 36009KT 9999 TS FEW020CB BKN050 16/14 Q0999 TEMPO 4000 TSRA SCT020CB",
      "taf": "TAF LCLK 182330Z 1900/2000 15010KT 8000 FEW030 SCT060"
    },
    {
      "icao": "LCPH",
      "alert": "OK",
      "vis_m": 9999,
      "fzfg": false,
      "metar_trigger": false,
      "taf_trigger": false,
      "metar": "METAR LCPH 190300Z AUTO 01005KT 9999 BKN039 OVC050 16/09 Q0998 NOSIG",
      "taf": "TAF LCPH 182330Z 1900/2000 07009KT 9999 FEW030 SCT070"
    },
    {
      "icao": "LEAL",
      "alert": "OK",
      "vis_m": 9999,
      "fzfg": false,
      "metar_trigger": false,
      "taf_trigger": false,
      "metar": "METAR LEAL 190300Z 04007KT CAVOK 15/05 Q1011 NOSIG",
      "taf": "TAF LEAL 182300Z 1900/1924 07010KT 9999 SCT020 TX19/1912Z TN11/1907Z"
    },
    {
      "icao": "LEBB",
      "alert": "OK",
      "vis_m": 9999,
      "fzfg": false,
      "metar_trigger": false,
      "taf_trigger": false,
      "metar": "METAR LEBB 190300Z AUTO 12010KT 080V140 CAVOK 14/07 Q1009",
      "taf": "TAF LEBB 182300Z 1900/1924 14009KT CAVOK TX20/1914Z TN08/1906Z"
    },
    {
      "icao": "LEBL",
      "alert": "OK",
      "vis_m": 9999,
      "fzfg": false,
      "metar_trigger": false,
      "taf_trigger": false,
      "metar": "METAR LEBL 190300Z 08013KT 9999 SCT025 SCT035 BKN055 13/08 Q1016 NOSIG",
      "taf": "TAF LEBL 182300Z 1900/1924 07012KT 9999 FEW020 TX16/1912Z TN10/1906Z"
    },
    {
      "icao": "LECH",
      "alert": "OK",
      "vis_m": 8000,
      "fzfg": false,
      "metar_trigger": false,
      "taf_trigger": false,
      "metar": "METAR LECH 190300Z AUTO 03006KT 8000 BKN013 BKN050 09/08 Q1014",
      "taf": "TAF LECH 182300Z 1900/1924 04009KT 9999 FEW010 BKN020 TX16/1912Z TN06/1907Z"
    },
    {
      "icao": "LEMD",
      "alert": "OK",
      "vis_m": 9999,
      "fzfg": false,
      "metar_trigger": false,
      "taf_trigger": false,
      "metar": "METAR LEMD 190300Z 34003KT CAVOK 05/01 Q1010 NOSIG",
      "taf": "TAF LEMD 182300Z 1900/2006 VRB04KT CAVOK TX21/1915Z TN06/1907Z"
    },
    {
      "icao": "LEMG",
      "alert": "OK",
      "vis_m": 9999,
      "fzfg": false,
      "metar_trigger": false,
      "taf_trigger": false,
      "metar": "METAR LEMG 190300Z 31005KT CAVOK 09/08 Q1007 NOSIG",
      "taf": "TAF LEMG 182300Z 1900/1924 VRB03KT CAVOK TX20/1913Z TN10/1906Z"
    },
    {
      "icao": "LEVC",
      "alert": "OK",
      "vis_m": 9999,
      "fzfg": false,
      "metar_trigger": false,
      "taf_trigger": false,
      "metar": "METAR LEVC 190300Z 04007KT 010V070 9999 FEW015 12/08 Q1014 NOSIG",
      "taf": "TAF LEVC 182300Z 1900/1924 02006KT 9999 SCT015 TX17/1912Z TN10/1907Z"
    },
    {
      "icao": "LEXJ",
      "alert": "OK",
      "vis_m": 7000,
      "fzfg": false,
      "metar_trigger": false,
      "taf_trigger": false,
      "metar": "METAR LEXJ 190300Z AUTO VRB01KT 7000 NSC 06/05 Q1008",
      "taf": "TAF LEXJ 190200Z 1903/2003 VRB03KT CAVOK TX21/1913Z TN09/1907Z"
    },
    {
      "icao": "LEZG",
      "alert": "OK",
      "vis_m": 9999,
      "fzfg": false,
      "metar_trigger": false,
      "taf_trigger": false,
      "metar": "METAR LEZG 190300Z 10004KT 070V140 9999 OVC020 10/08 Q1013 NOSIG",
      "taf": "TAF LEZG 182300Z 1900/1924 10012KT 9999 BKN020 TX18/1914Z TN08/1907Z"
    },
    {
      "icao": "LEZL",
      "alert": "OK",
      "vis_m": 9999,
      "fzfg": false,
      "metar_trigger": false,
      "taf_trigger": false,
      "metar": "METAR LEZL 190300Z AUTO 04006KT CAVOK 13/10 Q1004",
      "taf": "TAF LEZL 190200Z 1903/2003 08009KT 9999 FEW035 TX24/1915Z TN13/1907Z"
    },
    {
      "icao": "LFBD",
      "alert": "OK",
      "vis_m": 9999,
      "fzfg": false,
      "metar_trigger": false,
      "taf_trigger": false,
      "metar": "METAR LFBD 190300Z AUTO 10012KT CAVOK 11/04 Q1013 NOSIG",
      "taf": "TAF LFBD 182300Z 1900/2006 12012KT CAVOK TX18/1914Z TN04/2006Z"
    },
    {
      "icao": "LFLL",
      "alert": "OK",
      "vis_m": 9999,
      "fzfg": false,
      "metar_trigger": false,
      "taf_trigger": false,
      "metar": "METAR LFLL 190300Z 00000KT CAVOK 04/02 Q1018 NOSIG",
      "taf": "TAF LFLL 182300Z 1900/2006 VRB03KT CAVOK"
    },
    {
      "icao": "LFLS",
      "alert": "OK",
      "vis_m": 9999,
      "fzfg": false,
      "metar_trigger": false,
      "taf_trigger": false,
      "metar": "METAR LFLS 190300Z AUTO 09008KT CAVOK 01/00 Q1018 NOSIG",
      "taf": "TAF LFLS 190200Z 1903/2003 09006KT CAVOK"
    },
    {
      "icao": "LFMN",
      "alert": "OK",
      "vis_m": 9999,
      "fzfg": false,
      "metar_trigger": false,
      "taf_trigger": false,
      "metar": "METAR LFMN 190300Z 32011KT CAVOK 08/M00 Q1017 NOSIG",
      "taf": "TAF LFMN 190200Z 1903/2009 34010KT CAVOK"
    },
    {
      "icao": "LFOB",
      "alert": "OK",
      "vis_m": 9999,
      "fzfg": false,
      "metar_trigger": false,
      "taf_trigger": false,
      "metar": "METAR LFOB 190300Z AUTO 05008KT CAVOK 05/03 Q1022 NOSIG",
      "taf": "TAF LFOB 182300Z 1900/1924 08010KT CAVOK"
    },
    {
      "icao": "LFPO",
      "alert": "OK",
      "vis_m": 9999,
      "fzfg": false,
      "metar_trigger": false,
      "taf_trigger": false,
      "metar": "METAR LFPO 190300Z AUTO 06008KT CAVOK 08/02 Q1021 NOSIG",
      "taf": "TAF LFPO 182300Z 1900/2006 07008KT CAVOK"
    },
    {
      "icao": "LFSB",
      "alert": "OK",
      "vis_m": 9999,
      "fzfg": false,
      "metar_trigger": false,
      "taf_trigger": false,
      "metar": "METAR LFSB 190300Z AUTO VRB01KT CAVOK 01/M01 Q1020 TEMPO 3000 BCFG",
      "taf": "TAF LFSB 182300Z 1900/1924 VRB04KT CAVOK"
    },
    {
      "icao": "LGAV",
      "alert": "OK",
      "vis_m": 9999,
      "fzfg": false,
      "metar_trigger": false,
      "taf_trigger": false,
      "metar": "METAR LGAV 190250Z 35015KT 9999 SCT025 BKN070 11/05 Q1010 NOSIG",
      "taf": "TAF LGAV 182300Z 1900/1924 36016KT 9999 FEW018 SCT025 BKN070"
    },
    {
      "icao": "LGTS",
      "alert": "OK",
      "vis_m": 9999,
      "fzfg": false,
      "metar_trigger": false,
      "taf_trigger": false,
      "metar": "METAR LGTS 190250Z VRB03KT 9999 SCT030 09/03 Q1014 NOSIG",
      "taf": "TAF LGTS 182300Z 1900/1924 VRB03KT 9999 BKN030"
    },
    {
      "icao": "LHBP",
      "alert": "OK",
      "vis_m": 9999,
      "fzfg": false,
      "metar_trigger": false,
      "taf_trigger": false,
      "metar": "METAR LHBP 190300Z 33006KT CAVOK 04/M03 Q1022 NOSIG",
      "taf": "TAF LHBP 182315Z 1900/1924 03006KT CAVOK"
    },
    {
      "icao": "LHDC",
      "alert": "OK",
      "vis_m": 9999,
      "fzfg": false,
      "metar_trigger": false,
      "taf_trigger": false,
      "metar": "METAR LHDC 190245Z AUTO 04009KT CAVOK 04/M03 Q1022",
      "taf": ""
    },
    {
      "icao": "LIBD",
      "alert": "OK",
      "vis_m": 9999,
      "fzfg": false,
      "metar_trigger": false,
      "taf_trigger": false,
      "metar": "METAR LIBD 190250Z 26007KT 9999 SCT020 07/07 Q1010",
      "taf": "TAF LIBD 182300Z 1900/1924 VRB06KT 9999 SCT030"
    },
    {
      "icao": "LIBG",
      "alert": "OK",
      "vis_m": null,
      "fzfg": false,
      "metar_trigger": false,
      "taf_trigger": false,
      "metar": "",
      "taf": "TAF LIBG 181700Z 1818/1903 VRB06KT 9999 SCT025"
    },
    {
      "icao": "LIBP",
      "alert": "OK",
      "vis_m": 9999,
      "fzfg": false,
      "metar_trigger": false,
      "taf_trigger": false,
      "metar": "METAR LIBP 190250Z AUTO 22005KT 9999 -RA SCT034/// OVC058/// 08/07 Q1014",
      "taf": "TAF LIBP 182300Z 1900/1924 VRB05KT 9999 BKN020"
    },
    {
      "icao": "LIBR",
      "alert": "OK",
      "vis_m": 7000,
      "fzfg": false,
      "metar_trigger": false,
      "taf_trigger": false,
      "metar": "METAR LIBR 190250Z 30007KT 7000 -RA SCT020 09/08 Q1009 RERA",
      "taf": "TAF LIBR 182300Z 1900/1924 VRB05KT 9999 BKN020"
    },
    {
      "icao": "LICA",
      "alert": "OK",
      "vis_m": 9999,
      "fzfg": false,
      "metar_trigger": false,
      "taf_trigger": false,
      "metar": "METAR LICA 190250Z AUTO 07005KT 9999 BKN110/// 06/05 Q1010",
      "taf": "TAF LICA 182300Z 1900/1924 08006KT 8000 SCT050"
    },
    {
      "icao": "LICC",
      "alert": "OK",
      "vis_m": 9999,
      "fzfg": false,
      "metar_trigger": false,
      "taf_trigger": false,
      "metar": "METAR LICC 190250Z 31003KT 280V340 9999 FEW100 10/08 Q1009",
      "taf": "TAF LICC 182300Z 1900/1924 25006KT 9999 SCT035"
    },
    {
      "icao": "LICJ",
      "alert": "OK",
      "vis_m": 9999,
      "fzfg": false,
      "metar_trigger": false,
      "taf_trigger": false,
      "metar": "METAR LICJ 190250Z 13005KT CAVOK 10/06 Q1010",
      "taf": "TAF LICJ 182300Z 1900/1924 VRB05KT 9999 SCT030"
    },
    {
      "icao": "LIMC",
      "alert": "OK",
      "vis_m": 9999,
      "fzfg": false,
      "metar_trigger": false,
      "taf_trigger": false,
      "metar": "METAR LIMC 190250Z 34005KT CAVOK 04/02 Q1021 NOSIG",
      "taf": "TAF LIMC 182300Z 1900/2006 35010KT 9999 FEW050"
    },
    {
      "icao": "LIME",
      "alert": "OK",
      "vis_m": 9999,
      "fzfg": false,
      "metar_trigger": false,
      "taf_trigger": false,
      "metar": "METAR LIME 190250Z 01006KT 9999 FEW060 07/01 Q1020 NOSIG",
      "taf": "TAF LIME 182300Z 1900/1924 01006KT 9999 FEW050"
    },
    {
      "icao": "LIMF",
      "alert": "OK",
      "vis_m": 9999,
      "fzfg": false,
      "metar_trigger": false,
      "taf_trigger": false,
      "metar": "METAR LIMF 190250Z 31008KT 9999 SCT090 08/M01 Q1021",
      "taf": "TAF LIMF 182300Z 1900/1924 32010KT 9999 BKN060"
    },
    {
      "icao": "LIMJ",
      "alert": "OK",
      "vis_m": 9999,
      "fzfg": false,
      "metar_trigger": false,
      "taf_trigger": false,
      "metar": "METAR LIMJ 190250Z 06008KT CAVOK 12/M00 Q1019",
      "taf": "TAF LIMJ 182300Z 1900/1924 02016KT 9999 SCT060"
    },
    {
      "icao": "LIPE",
      "alert": "OK",
      "vis_m": 9999,
      "fzfg": false,
      "metar_trigger": false,
      "taf_trigger": false,
      "metar": "METAR LIPE 190250Z 27005KT CAVOK 05/02 Q1019",
      "taf": "TAF LIPE 182300Z 1900/1924 VRB05KT 9999 SCT050"
    },
    {
      "icao": "LIPH",
      "alert": "OK",
      "vis_m": 9999,
      "fzfg": false,
      "metar_trigger": false,
      "taf_trigger": false,
      "metar": "METAR LIPH 190250Z AUTO 06003KT 350V130 9999 NCD 07/00 Q1019",
      "taf": "TAF LIPH 182300Z 1900/1924 08010KT 9999 SCT060"
    },
    {
      "icao": "LIPQ",
      "alert": "OK",
      "vis_m": 9999,
      "fzfg": false,
      "metar_trigger": false,
      "taf_trigger": false,
      "metar": "METAR LIPQ 190250Z AUTO 08005KT 9999 BKN250/// 12/M02 Q1019",
      "taf": "TAF LIPQ 182300Z 1900/1924 07012KT 9999 FEW060 SCT090"
    },
    {
      "icao": "LIPR",
      "alert": "OK",
      "vis_m": 9999,
      "fzfg": false,
      "metar_trigger": false,
      "taf_trigger": false,
      "metar": "METAR LIPR 190250Z AUTO 04012KT 9999 BKN087/// BKN099/// 12/05 Q1016",
      "taf": "TAF LIPR 182300Z 1900/1924 04013KT 9999 BKN050"
    },
    {
      "icao": "LIPX",
      "alert": "OK",
      "vis_m": 9999,
      "fzfg": false,
      "metar_trigger": false,
      "taf_trigger": false,
      "metar": "METAR LIPX 190250Z AUTO 33007KT 9999 SCT220/// 07/M01 Q1019",
      "taf": "TAF LIPX 182300Z 1900/1924 VRB05KT CAVOK"
    },
    {
      "icao": "LIPY",
      "alert": "OK",
      "vis_m": 9999,
      "fzfg": false,
      "metar_trigger": false,
      "taf_trigger": false,
      "metar": "METAR LIPY 190250Z AUTO 20002KT 9999 FEW081/// 06/04 Q1015",
      "taf": "TAF LIPY 182300Z 1900/1924 03013KT 9999 BKN040"
    },
    {
      "icao": "LIPZ",
      "alert": "OK",
      "vis_m": 9999,
      "fzfg": false,
      "metar_trigger": false,
      "taf_trigger": false,
      "metar": "METAR LIPZ 190250Z 02008KT CAVOK 09/M01 Q1019 NOSIG",
      "taf": "TAF LIPZ 182300Z 1900/2006 02007KT 9999 SCT060"
    },
    {
      "icao": "LIRF",
      "alert": "OK",
      "vis_m": 9999,
      "fzfg": false,
      "metar_trigger": false,
      "taf_trigger": false,
      "metar": "METAR LIRF 190250Z 02003KT CAVOK 05/04 Q1012 NOSIG",
      "taf": "TAF LIRF 182300Z 1900/2006 VRB05KT 9999 FEW050"
    },
    {
      "icao": "LIRN",
      "alert": "OK",
      "vis_m": 9999,
      "fzfg": false,
      "metar_trigger": false,
      "taf_trigger": false,
      "metar": "METAR LIRN 190250Z 01003KT 350V070 CAVOK 08/04 Q1011 NOSIG",
      "taf": "TAF LIRN 182300Z 1900/1924 03008KT 9999 SCT035"
    },
    {
      "icao": "LIRP",
      "alert": "OK",
      "vis_m": 9999,
      "fzfg": false,
      "metar_trigger": false,
      "taf_trigger": false,
      "metar": "METAR LIRP 190245Z 07009KT CAVOK 12/M02 Q1016 NOSIG",
      "taf": "TAF LIRP 182300Z 1900/1924 04015KT 9999 SCT050"
    },
    {
      "icao": "LIRZ",
      "alert": "OK",
      "vis_m": 9999,
      "fzfg": false,
      "metar_trigger": false,
      "taf_trigger": false,
      "metar": "METAR LIRZ 190250Z AUTO 31006KT 9999 FEW055/// 08/01 Q1014",
      "taf": "TAF LIRZ 182300Z 1900/1924 02010KT 9999 SCT030"
    },
    {
      "icao": "LJLJ",
      "alert": "OK",
      "vis_m": 9999,
      "fzfg": false,
      "metar_trigger": false,
      "taf_trigger": false,
      "metar": "METAR LJLJ 190300Z 08007KT 040V110 9999 FEW070 08/M03 Q1021 NOSIG",
      "taf": "TAF LJLJ 182300Z 1900/2000 06008KT 9999 FEW075"
    },
    {
      "icao": "LKMT",
      "alert": "OK",
      "vis_m": 9999,
      "fzfg": false,
      "metar_trigger": false,
      "taf_trigger": false,
      "metar": "METAR LKMT 190300Z 08003KT CAVOK 02/M02 Q1025 NOSIG",
      "taf": "TAF LKMT 182300Z 1900/1924 04006KT CAVOK"
    },
    {
      "icao": "LKPR",
      "alert": "OK",
      "vis_m": 9999,
      "fzfg": false,
      "metar_trigger": false,
      "taf_trigger": false,
      "metar": "METAR LKPR 190300Z VRB01KT CAVOK 03/01 Q1026 NOSIG",
      "taf": "TAF LKPR 190200Z 1903/2009 VRB02KT CAVOK"
    },
    {
      "icao": "LLBG",
      "alert": "OK",
      "vis_m": 9999,
      "fzfg": false,
      "metar_trigger": false,
      "taf_trigger": false,
      "metar": "METAR LLBG 190250Z 17007KT CAVOK 20/11 Q1000 NOSIG RMK SCT092",
      "taf": "TAF LLBG 182302Z 1900/1924 17007KT CAVOK TX21/1910Z TN17/1904Z"
    },
    {
      "icao": "LMML",
      "alert": "OK",
      "vis_m": 9999,
      "fzfg": false,
      "metar_trigger": false,
      "taf_trigger": false,
      "metar": "METAR LMML 190245Z 35005KT 9999 FEW012 BKN040 12/10 Q1009 RERA NOSIG",
      "taf": "TAF LMML 182300Z 1900/1924 26008KT 9999 SCT018"
    },
    {
      "icao": "LOWW",
      "alert": "OK",
      "vis_m": 9999,
      "fzfg": false,
      "metar_trigger": false,
      "taf_trigger": false,
      "metar": "METAR LOWW 190250Z 01002KT CAVOK 03/M03 Q1024 NOSIG",
      "taf": "TAF LOWW 190215Z 1903/2009 35006KT CAVOK TX14/1914Z TN01/1904Z"
    },
    {
      "icao": "LPFR",
      "alert": "OK",
      "vis_m": 9999,
      "fzfg": false,
      "metar_trigger": false,
      "taf_trigger": false,
      "metar": "METAR LPFR 190300Z 11011KT 9999 -RA FEW015 SCT030 15/13 Q1003",
      "taf": "TAF LPFR 182300Z 1900/1924 10010KT 9999 SCT020"
    },
    {
      "icao": "LPMA",
      "alert": "OK",
      "vis_m": 9999,
      "fzfg": false,
      "metar_trigger": false,
      "taf_trigger": false,
      "metar": "METAR LPMA 190300Z 25014KT 9999 SCT013 FEW018CB 11/05 Q0996 RERA",
      "taf": "TAF LPMA 182300Z 1900/1924 VRB05KT 9999 SCT015"
    },
    {
      "icao": "LPPR",
      "alert": "OK",
      "vis_m": 9999,
      "fzfg": false,
      "metar_trigger": false,
      "taf_trigger": false,
      "metar": "METAR LPPR 190300Z 07007KT CAVOK 16/08 Q1004",
      "taf": "TAF LPPR 182300Z 1900/1924 09010KT 9999 SCT030"
    },
    {
      "icao": "LPPS",
      "alert": "OK",
      "vis_m": 9999,
      "fzfg": false,
      "metar_trigger": false,
      "taf_trigger": false,
      "metar": "METAR LPPS 190300Z 22011KT 9999 FEW014 12/07 Q0996",
      "taf": "TAF LPPS 182300Z 1900/2006 27013KT 9999 SCT015 SCT030"
    },
    {
      "icao": "LPPT",
      "alert": "OK",
      "vis_m": 9999,
      "fzfg": false,
      "metar_trigger": false,
      "taf_trigger": false,
      "metar": "METAR LPPT 190300Z 12012KT 9999 -RA FEW040 15/11 Q1001",
      "taf": "TAF LPPT 182300Z 1900/2006 11013KT 9999 SCT030"
    },
    {
      "icao": "LQBK",
      "alert": "OK",
      "vis_m": 9999,
      "fzfg": false,
      "metar_trigger": false,
      "taf_trigger": false,
      "metar": "METAR LQBK 190300Z 27004KT CAVOK 02/M02 Q1019 NOSIG",
      "taf": "TAF LQBK 182300Z 1900/1924 34005KT CAVOK TX13/1913Z TN01/1905Z"
    },
    {
      "icao": "LQSA",
      "alert": "OK",
      "vis_m": 9999,
      "fzfg": false,
      "metar_trigger": false,
      "taf_trigger": false,
      "metar": "METAR LQSA 190300Z VRB01KT 9999 BKN040 03/00 Q1016",
      "taf": "TAF LQSA 182300Z 1900/1924 27005KT 9999 SCT060 TX08/1914Z TNM02/1905Z"
    },
    {
      "icao": "LQTZ",
      "alert": "OK",
      "vis_m": 9999,
      "fzfg": false,
      "metar_trigger": false,
      "taf_trigger": false,
      "metar": "METAR LQTZ 190300Z VRB02KT CAVOK 02/00 Q1018",
      "taf": "TAF LQTZ 182300Z 1900/1924 11005KT CAVOK TX12/1913Z TN00/1905Z"
    },
    {
      "icao": "LRBC",
      "alert": "OK",
      "vis_m": 9999,
      "fzfg": false,
      "metar_trigger": false,
      "taf_trigger": false,
      "metar": "METAR LRBC 190300Z 35010KT 9999 OVC030 04/01 Q1023",
      "taf": "TAF LRBC 190200Z 1903/1912 34011KT 9999 OVC025"
    },
    {
      "icao": "LRBS",
      "alert": "OK",
      "vis_m": 9999,
      "fzfg": false,
      "metar_trigger": false,
      "taf_trigger": false,
      "metar": "METAR LRBS 190300Z 04007KT 010V070 CAVOK 06/M00 Q1020 NOSIG",
      "taf": "TAF LRBS 182300Z 1900/1924 05009KT CAVOK"
    },
    {
      "icao": "LRBV",
      "alert": "OK",
      "vis_m": 9999,
      "fzfg": false,
      "metar_trigger": false,
      "taf_trigger": false,
      "metar": "METAR LRBV 190300Z AUTO 08007KT 9999 UP OVC034/// 03/M01 Q1020 REUP",
      "taf": "TAF LRBV 190200Z 1903/1912 VRB04KT 9999 BKN040"
    },
    {
      "icao": "LRCL",
      "alert": "OK",
      "vis_m": 9999,
      "fzfg": false,
      "metar_trigger": false,
      "taf_trigger": false,
      "metar": "METAR LRCL 190300Z 14002KT CAVOK 04/M02 Q1021",
      "taf": "TAF LRCL 190200Z 1903/1912 VRB04KT 9999 SCT060"
    },
    {
      "icao": "LRCV",
      "alert": "OK",
      "vis_m": 9999,
      "fzfg": false,
      "metar_trigger": false,
      "taf_trigger": false,
      "metar": "METAR LRCV 190300Z 04005KT CAVOK 03/01 Q1020",
      "taf": "TAF LRCV 190200Z 1903/1912 06008KT CAVOK"
    },
    {
      "icao": "LRIA",
      "alert": "OK",
      "vis_m": 9999,
      "fzfg": false,
      "metar_trigger": false,
      "taf_trigger": false,
      "metar": "METAR LRIA 190300Z 31008KT 9999 BKN030 01/M01 Q1023",
      "taf": "TAF LRIA 190200Z 1903/1912 36007KT 9999 OVC025"
    },
    {
      "icao": "LROP",
      "alert": "OK",
      "vis_m": 9999,
      "fzfg": false,
      "metar_trigger": false,
      "taf_trigger": false,
      "metar": "METAR LROP 190300Z 05010KT CAVOK 05/M03 Q1020 NOSIG",
      "taf": "TAF LROP 182300Z 1900/1924 05009KT CAVOK"
    },
    {
      "icao": "LRSB",
      "alert": "OK",
      "vis_m": 9999,
      "fzfg": false,
      "metar_trigger": false,
      "taf_trigger": false,
      "metar": "METAR LRSB 190300Z 31005KT 9999 SCT060 BKN074 04/M02 Q1020",
      "taf": "TAF LRSB 182300Z 1900/1924 10008KT 9999 BKN060"
    },
    {
      "icao": "LRSM",
      "alert": "OK",
      "vis_m": 9999,
      "fzfg": false,
      "metar_trigger": false,
      "taf_trigger": false,
      "metar": "METAR LRSM 190300Z AUTO 09004KT 060V120 9999 OVC065/// 04/M01 Q1023",
      "taf": "TAF LRSM 190200Z 1903/1912 VRB04KT CAVOK"
    },
    {
      "icao": "LRSV",
      "alert": "OK",
      "vis_m": 9999,
      "fzfg": false,
      "metar_trigger": false,
      "taf_trigger": false,
      "metar": "METAR LRSV 190300Z 32006KT CAVOK 02/00 Q1022",
      "taf": "TAF LRSV 190200Z 1903/1912 33006KT 9999 BKN025"
    },
    {
      "icao": "LRTM",
      "alert": "OK",
      "vis_m": 9999,
      "fzfg": false,
      "metar_trigger": false,
      "taf_trigger": false,
      "metar": "METAR LRTM 190300Z AUTO 08004KT 9999 NCD 04/M01 Q1021",
      "taf": "TAF LRTM 190200Z 1903/1912 VRB04KT CAVOK"
    },
    {
      "icao": "LRTR",
      "alert": "OK",
      "vis_m": 9999,
      "fzfg": false,
      "metar_trigger": false,
      "taf_trigger": false,
      "metar": "METAR LRTR 190300Z 08005KT CAVOK 01/M01 Q1020",
      "taf": "TAF LRTR 182300Z 1900/1924 VRB04KT CAVOK"
    },
    {
      "icao": "LTAC",
      "alert": "OK",
      "vis_m": 9999,
      "fzfg": false,
      "metar_trigger": false,
      "taf_trigger": false,
      "metar": "METAR LTAC 190250Z 03007KT 9999 SCT040 BKN080 08/01 Q1006 NOSIG RMK RWY21C VRB02KT RWY03L 03007KT RWY21R VRB01KT RWY03R 03004KT RWY21L 03004KT 340V070",
      "taf": "TAF LTAC 182240Z 1900/1924 03008KT 9999 SCT040 BKN080"
    },
    {
      "icao": "LTFM",
      "alert": "OK",
      "vis_m": 9999,
      "fzfg": false,
      "metar_trigger": false,
      "taf_trigger": false,
      "metar": "METAR LTFM 190250Z 04019KT 9999 SCT014 BKN032 08/05 Q1014 NOSIG RMK RWY17L 04017KT RWY34L 02017KT RWY16R 03018KT RWY36 04018KT RWY18 04019KT",
      "taf": "TAF LTFM 182240Z 1900/2006 04018G28KT 9999 SCT014 BKN028"
    },
    {
      "icao": "LUKK",
      "alert": "OK",
      "vis_m": 9999,
      "fzfg": false,
      "metar_trigger": false,
      "taf_trigger": false,
      "metar": "METAR LUKK 190300Z 01008KT 9999 OVC041 02/00 Q1022 NOSIG",
      "taf": "TAF LUKK 182313Z 1900/1924 03009KT 9999 BKN025"
    },
    {
      "icao": "LWOH",
      "alert": "OK",
      "vis_m": null,
      "fzfg": false,
      "metar_trigger": false,
      "taf_trigger": false,
      "metar": "",
      "taf": "TAF LWOH 190210Z 1903/2003 36010KT 9999 BKN040 BKN080"
    },
    {
      "icao": "LWSK",
      "alert": "OK",
      "vis_m": 9999,
      "fzfg": false,
      "metar_trigger": false,
      "taf_trigger": false,
      "metar": "METAR LWSK 190250Z VRB02KT 9999 OVC062 07/02 Q1015 NOSIG",
      "taf": "TAF LWSK 190210Z 1903/2003 VRB02KT 9999 BKN050"
    },
    {
      "icao": "LYBE",
      "alert": "OK",
      "vis_m": 9999,
      "fzfg": false,
      "metar_trigger": false,
      "taf_trigger": false,
      "metar": "METAR LYBE 190300Z 11009KT CAVOK 07/M01 Q1019 NOSIG",
      "taf": "TAF LYBE 182300Z 1900/1924 06008KT CAVOK TX13/1913Z TN04/1905Z"
    },
    {
      "icao": "LYNI",
      "alert": "OK",
      "vis_m": 9999,
      "fzfg": false,
      "metar_trigger": false,
      "taf_trigger": false,
      "metar": "METAR LYNI 190300Z 04006KT CAVOK 08/M01 Q1017 NOSIG",
      "taf": "TAF LYNI 182300Z 1900/1924 10005KT 9999 SCT080 TX14/1913Z TN03/1905Z"
    },
    {
      "icao": "LYPG",
      "alert": "OK",
      "vis_m": 9999,
      "fzfg": false,
      "metar_trigger": false,
      "taf_trigger": false,
      "metar": "METAR LYPG 190300Z 01009KT 9999 SCT080 11/M00 Q1012 NOSIG",
      "taf": "TAF LYPG 182300Z 1900/1924 36010KT 9999 FEW050 BKN090 TX16/1913Z TN10/1905Z"
    },
    {
      "icao": "LZIB",
      "alert": "OK",
      "vis_m": 9999,
      "fzfg": false,
      "metar_trigger": false,
      "taf_trigger": false,
      "metar": "METAR LZIB 190300Z VRB02KT CAVOK 05/M03 Q1024 NOSIG",
      "taf": "TAF LZIB 182315Z 1900/2000 05007KT CAVOK"
    },
    {
      "icao": "LZKZ",
      "alert": "OK",
      "vis_m": 9999,
      "fzfg": false,
      "metar_trigger": false,
      "taf_trigger": false,
      "metar": "METAR LZKZ 190300Z 36012KT CAVOK 07/M02 Q1023 NOSIG",
      "taf": "TAF LZKZ 182315Z 1900/2000 01012KT CAVOK"
    },
    {
      "icao": "LZTT",
      "alert": "OK",
      "vis_m": 9999,
      "fzfg": false,
      "metar_trigger": false,
      "taf_trigger": false,
      "metar": "METAR LZTT 190300Z 04010KT 9999 BKN043 04/M04 Q1023",
      "taf": "TAF LZTT 182315Z 1900/2000 08006KT 9999 FEW045"
    },
    {
      "icao": "OEJN",
      "alert": "OK",
      "vis_m": 9999,
      "fzfg": false,
      "metar_trigger": false,
      "taf_trigger": false,
      "metar": "METAR OEJN 190300Z 14005KT 9999 SCT040 28/19 Q1003 NOSIG",
      "taf": "TAF OEJN 182300Z 1900/2006 15012KT 7000 SCT040"
    },
    {
      "icao": "OEMA",
      "alert": "OK",
      "vis_m": 9999,
      "fzfg": false,
      "metar_trigger": false,
      "taf_trigger": false,
      "metar": "METAR OEMA 190300Z VRB01KT 9999 SCT040 20/15 Q1009 NOSIG",
      "taf": "TAF OEMA 182300Z 1900/2006 08010KT 7000 SCT040"
    },
    {
      "icao": "OJAI",
      "alert": "OK",
      "vis_m": 3000,
      "fzfg": false,
      "metar_trigger": false,
      "taf_trigger": false,
      "metar": "METAR OJAI 190300Z 09010KT 3000 -RA FEW020CB BKN030 12/09 Q1002 NOSIG",
      "taf": "TAF OJAI 182300Z 1900/2006 13018KT 4000 RA BR FEW020CB SCT025TCU"
    },
    {
      "icao": "OMAA",
      "alert": "OK",
      "vis_m": null,
      "fzfg": false,
      "metar_trigger": false,
      "taf_trigger": false,
      "metar": "",
      "taf": ""
    },
    {
      "icao": "OMDB",
      "alert": "OK",
      "vis_m": null,
      "fzfg": false,
      "metar_trigger": false,
      "taf_trigger": false,
      "metar": "",
      "taf": ""
    },
    {
      "icao": "UAAA",
      "alert": "OK",
      "vis_m": 9999,
      "fzfg": false,
      "metar_trigger": false,
      "taf_trigger": false,
      "metar": "METAR UAAA 190300Z 00000MPS 9999 SCT200 04/M02 Q1019 NOSIG",
      "taf": "TAF UAAA 182302Z 1900/1924 16003MPS 9999 NSC TX14/1909Z TNM03/1901Z"
    },
    {
      "icao": "UBBB",
      "alert": "OK",
      "vis_m": 9999,
      "fzfg": false,
      "metar_trigger": false,
      "taf_trigger": false,
      "metar": "METAR UBBB 190300Z 18006KT 9999 BKN018 09/06 Q1020 NOSIG",
      "taf": "TAF UBBB 182307Z 1900/1924 18006KT 9999 SCT030 TX14/1910Z TN05/1901Z"
    },
    {
      "icao": "UDSG",
      "alert": "OK",
      "vis_m": 9999,
      "fzfg": false,
      "metar_trigger": false,
      "taf_trigger": false,
      "metar": "METAR UDSG 190300Z 18001KT 9999 NSC M05/M05 Q1017 NOSIG",
      "taf": "TAF UDSG 182300Z 1900/1924 VRB06KT 9999 FEW050"
    },
    {
      "icao": "UDYZ",
      "alert": "OK",
      "vis_m": 9999,
      "fzfg": false,
      "metar_trigger": false,
      "taf_trigger": false,
      "metar": "METAR UDYZ 190300Z 09003KT 9999 NSC 01/M00 Q1016 NOSIG",
      "taf": "TAF UDYZ 182300Z 1900/1924 VRB06KT 9999 FEW050"
    },
    {
      "icao": "UGKO",
      "alert": "OK",
      "vis_m": 9999,
      "fzfg": false,
      "metar_trigger": false,
      "taf_trigger": false,
      "metar": "METAR UGKO 190300Z 07022G33KT CAVOK 11/04 Q1011 NOSIG",
      "taf": "TAF UGKO 182300Z 1900/1924 08027G39KT CAVOK TX21/1911Z TN13/1903Z"
    }
  ]
}