{
  "ts_utc": "2026-01-22T20:50:00Z",
  "threshold_m": 150,
  "source": "stations_override.txt (ICAO list) + aviationweather.gov (METAR/TAF raw)",
  "station_count": 159,
  "stations": [
    {
      "icao": "BIKF",
      "alert": "OK",
      "vis_m": 9999,
      "fzfg": false,
      "metar_trigger": false,
      "taf_trigger": false,
      "metar": "METAR BIKF 222030Z 11034G48KT 9999 BKN018 BKN038 09/06 Q0986",
      "taf": "TAF BIKF 221959Z 2221/2321 10028G45KT 9999 BKN025 TX08/2221Z TN02/2321Z"
    },
    {
      "icao": "BKPR",
      "alert": "OK",
      "vis_m": 8000,
      "fzfg": false,
      "metar_trigger": false,
      "taf_trigger": false,
      "metar": "METAR BKPR 222030Z VRB01KT 8000 NSC M01/M02 Q1003 NOSIG",
      "taf": "TAF BKPR 221730Z 2218/2318 VRB03KT 9999 BKN040"
    },
    {
      "icao": "EBCI",
      "alert": "OK",
      "vis_m": 8000,
      "fzfg": false,
      "metar_trigger": false,
      "taf_trigger": false,
      "metar": "METAR EBCI 222020Z 17008KT 8000 -RA SCT020 BKN040 07/05 Q0993 NOSIG",
      "taf": "TAF EBCI 221720Z 2218/2324 16007KT 9999 BKN030"
    },
    {
      "icao": "EDDB",
      "alert": "OK",
      "vis_m": 5000,
      "fzfg": false,
      "metar_trigger": false,
      "taf_trigger": false,
      "metar": "METAR EDDB 222020Z AUTO 07005KT 5000 BR NCD M06/M07 Q1003 TEMPO 4500 BR",
      "taf": "TAF EDDB 221700Z 2218/2318 08006KT CAVOK"
    },
    {
      "icao": "EDDH",
      "alert": "OK",
      "vis_m": 8000,
      "fzfg": false,
      "metar_trigger": false,
      "taf_trigger": false,
      "metar": "METAR EDDH 222020Z AUTO 09010KT 8000 NSC M03/M05 Q1002 NOSIG",
      "taf": "TAF EDDH 221700Z 2218/2324 09010KT CAVOK"
    },
    {
      "icao": "EDDK",
      "alert": "OK",
      "vis_m": 9999,
      "fzfg": false,
      "metar_trigger": false,
      "taf_trigger": false,
      "metar": "METAR EDDK 222020Z AUTO 11006KT 060V140 9999 -SHRA FEW029 BKN037 BKN044 BKN///TCU 03/M01 Q0997 NOSIG",
      "taf": "TAF EDDK 221700Z 2218/2324 12009KT 9999 BKN030"
    },
    {
      "icao": "EDDN",
      "alert": "OK",
      "vis_m": 7000,
      "fzfg": false,
      "metar_trigger": false,
      "taf_trigger": false,
      "metar": "METAR EDDN 222020Z AUTO 14008KT 7000 OVC010 M07/M10 Q1001 NOSIG",
      "taf": "TAF EDDN 221700Z 2218/2318 13007KT 9999 OVC012"
    },
    {
      "icao": "EDDS",
      "alert": "OK",
      "vis_m": 7000,
      "fzfg": false,
      "metar_trigger": false,
      "taf_trigger": false,
      "metar": "METAR EDDS 222020Z AUTO 11003KT 080V150 7000 NSC M01/M03 Q0998 TEMPO 4000 BR",
      "taf": "TAF EDDS 221700Z 2218/2318 VRB03KT CAVOK"
    },
    {
      "icao": "EDFH",
      "alert": "OK",
      "vis_m": 6000,
      "fzfg": false,
      "metar_trigger": false,
      "taf_trigger": false,
      "metar": "METAR EDFH 222020Z 14013KT 6000 SCT025 OVC030 M02/M03 Q0996",
      "taf": "TAF EDFH 221700Z 2218/2318 14014KT 9999 BKN014"
    },
    {
      "icao": "EDJA",
      "alert": "OK",
      "vis_m": 400,
      "fzfg": true,
      "metar_trigger": false,
      "taf_trigger": false,
      "metar": "METAR EDJA 222020Z VRB02KT 0400 R06/0900U FZFG VV/// M04/M05 Q0998",
      "taf": "TAF EDJA 221700Z 2218/2303 VRB03KT 0300 FZFG VV001"
    },
    {
      "icao": "EDLW",
      "alert": "OK",
      "vis_m": 9999,
      "fzfg": false,
      "metar_trigger": false,
      "taf_trigger": false,
      "metar": "METAR EDLW 222020Z 05003KT CAVOK M01/M05 Q0996",
      "taf": "TAF EDLW 221700Z 2218/2318 11006KT 9999 SCT040"
    },
    {
      "icao": "EDNY",
      "alert": "OK",
      "vis_m": 4300,
      "fzfg": false,
      "metar_trigger": false,
      "taf_trigger": false,
      "metar": "METAR EDNY 222020Z 03002KT 4300 BR OVC003 M01/M01 Q0999",
      "taf": "TAF EDNY 221700Z 2218/2303 VRB03KT 5000 BR OVC005"
    },
    {
      "icao": "EDSB",
      "alert": "OK",
      "vis_m": 2600,
      "fzfg": false,
      "metar_trigger": false,
      "taf_trigger": false,
      "metar": "METAR EDSB 222020Z 08002KT 2600 BR OVC002 M01/M01 Q0999",
      "taf": "TAF EDSB 221700Z 2218/2318 VRB02KT 3000 BR OVC005"
    },
    {
      "icao": "EETN",
      "alert": "OK",
      "vis_m": 9999,
      "fzfg": false,
      "metar_trigger": false,
      "taf_trigger": false,
      "metar": "METAR EETN 222020Z 08010KT 9999 OVC013 M08/M10 Q1024 NOSIG",
      "taf": "TAF EETN 221730Z 2218/2318 09010KT 9999 BKN012 OVC020"
    },
    {
      "icao": "EFTU",
      "alert": "OK",
      "vis_m": 9999,
      "fzfg": false,
      "metar_trigger": false,
      "taf_trigger": false,
      "metar": "METAR EFTU 222020Z AUTO 07007KT 9999 OVC021 M06/M10 Q1024",
      "taf": "TAF EFTU 222036Z 2221/2321 08007KT 9999 BKN020"
    },
    {
      "icao": "EGBB",
      "alert": "OK",
      "vis_m": 6000,
      "fzfg": false,
      "metar_trigger": false,
      "taf_trigger": false,
      "metar": "METAR EGBB 222020Z 11007KT 6000 -RADZ BKN005 07/06 Q0983",
      "taf": "TAF EGBB 221655Z 2218/2318 12012KT 9999 BKN010"
    },
    {
      "icao": "EGGP",
      "alert": "OK",
      "vis_m": 9999,
      "fzfg": false,
      "metar_trigger": false,
      "taf_trigger": false,
      "metar": "METAR EGGP 222020Z 09012KT 9999 OVC012 07/05 Q0983",
      "taf": "TAF EGGP 221656Z 2218/2318 12012KT 9999 BKN016"
    },
    {
      "icao": "EGGW",
      "alert": "OK",
      "vis_m": 9999,
      "fzfg": false,
      "metar_trigger": false,
      "taf_trigger": false,
      "metar": "METAR EGGW 222020Z AUTO 15011KT 9999 FEW008 SCT015 OVC022 07/06 Q0984",
      "taf": "TAF EGGW 221657Z 2218/2318 12010KT 9999 SCT020"
    },
    {
      "icao": "EGKK",
      "alert": "OK",
      "vis_m": 9999,
      "fzfg": false,
      "metar_trigger": false,
      "taf_trigger": false,
      "metar": "METAR EGKK 222020Z 19010KT 160V230 9999 SCT017 SCT026 09/07 Q0986",
      "taf": "TAF EGKK 221654Z 2218/2324 13008KT 9999 SCT015"
    },
    {
      "icao": "EGNM",
      "alert": "OK",
      "vis_m": 700,
      "fzfg": false,
      "metar_trigger": false,
      "taf_trigger": false,
      "metar": "METAR EGNM 222020Z 09014G24KT 0700 R14/P1500N -RA FG OVC002 04/04 Q0986",
      "taf": "TAF EGNM 221657Z 2218/2318 12012KT 6000 BKN008"
    },
    {
      "icao": "EGPD",
      "alert": "OK",
      "vis_m": 9999,
      "fzfg": false,
      "metar_trigger": false,
      "taf_trigger": false,
      "metar": "METAR EGPD 222020Z AUTO 12018G33KT 9999 BKN015 OVC019 05/01 Q0997 TEMPO BKN012",
      "taf": "TAF EGPD 221656Z 2218/2318 13019G33KT 9999 BKN016"
    },
    {
      "icao": "EGPF",
      "alert": "OK",
      "vis_m": 6000,
      "fzfg": false,
      "metar_trigger": false,
      "taf_trigger": false,
      "metar": "METAR EGPF 222020Z AUTO 08018KT 6000 -RA OVC013/// //////TCU 05/03 Q0988",
      "taf": "TAF EGPF 221700Z 2218/2318 08011KT 9999 FEW012 BKN025"
    },
    {
      "icao": "EHBK",
      "alert": "OK",
      "vis_m": 9999,
      "fzfg": false,
      "metar_trigger": false,
      "taf_trigger": false,
      "metar": "METAR EHBK 222025Z AUTO 15009KT 9999 OVC039/// 07/03 Q0994 NOSIG",
      "taf": "TAF EHBK 221719Z 2218/2324 16005KT 9999 BKN045"
    },
    {
      "icao": "EHEH",
      "alert": "OK",
      "vis_m": 9999,
      "fzfg": false,
      "metar_trigger": false,
      "taf_trigger": false,
      "metar": "METAR EHEH 222025Z AUTO 12005KT 080V180 9999 SCT041 OVC046 06/01 Q0994 BLU NOSIG RMK TREND REMOTE BY EHWX",
      "taf": "TAF EHEH 221716Z 2218/2324 11005KT 9999 SCT030"
    },
    {
      "icao": "EKBI",
      "alert": "OK",
      "vis_m": 9999,
      "fzfg": false,
      "metar_trigger": false,
      "taf_trigger": false,
      "metar": "METAR EKBI 222020Z AUTO 08016KT 9999 OVC017/// M00/M03 Q1005",
      "taf": "TAF EKBI 222027Z 2221/2321 09018G32KT 9999 OVC020"
    },
    {
      "icao": "EKCH",
      "alert": "OK",
      "vis_m": 9999,
      "fzfg": false,
      "metar_trigger": false,
      "taf_trigger": false,
      "metar": "METAR EKCH 222020Z AUTO 09018KT 9999 OVC018/// 01/M02 Q1008 NOSIG",
      "taf": "TAF EKCH 222027Z 2221/2321 09020G30KT 9999 BKN020"
    },
    {
      "icao": "ENAL",
      "alert": "OK",
      "vis_m": 9999,
      "fzfg": false,
      "metar_trigger": false,
      "taf_trigger": false,
      "metar": "METAR ENAL 222020Z 12013KT CAVOK 04/M11 Q1011",
      "taf": "TAF ENAL 222000Z 2221/2306 12012KT CAVOK"
    },
    {
      "icao": "ENBR",
      "alert": "OK",
      "vis_m": 9999,
      "fzfg": false,
      "metar_trigger": false,
      "taf_trigger": false,
      "metar": "METAR ENBR 222020Z VRB01KT CAVOK M03/M06 Q1010 NOSIG RMK WIND 1200FT 07004KT",
      "taf": "TAF ENBR 221700Z 2218/2318 07005KT CAVOK"
    },
    {
      "icao": "ENGM",
      "alert": "OK",
      "vis_m": 9999,
      "fzfg": false,
      "metar_trigger": false,
      "taf_trigger": false,
      "metar": "METAR ENGM 222020Z 07006KT 9999 -SN OVC028 M04/M08 Q1020 NOSIG",
      "taf": ""
    },
    {
      "icao": "ENHD",
      "alert": "OK",
      "vis_m": 9999,
      "fzfg": false,
      "metar_trigger": false,
      "taf_trigger": false,
      "metar": "METAR ENHD 222020Z 09003KT 040V130 CAVOK M02/M09 Q1010",
      "taf": "TAF ENHD 221400Z 2215/2223 10012KT CAVOK"
    },
    {
      "icao": "ENTC",
      "alert": "OK",
      "vis_m": 9999,
      "fzfg": false,
      "metar_trigger": false,
      "taf_trigger": false,
      "metar": "METAR ENTC 222020Z 09002KT CAVOK M10/M11 Q1023 NOSIG RMK WIND 2600FT 16003KT",
      "taf": "TAF ENTC 221700Z 2218/2318 VRB02KT 9999 FEW005"
    },
    {
      "icao": "ENTO",
      "alert": "OK",
      "vis_m": 9999,
      "fzfg": false,
      "metar_trigger": false,
      "taf_trigger": false,
      "metar": "METAR ENTO 222020Z 04011KT 9999 -SHSN OVC026 M02/M07 Q1017 NOSIG",
      "taf": "TAF ENTO 221700Z 2218/2318 04012KT 9999 BKN020"
    },
    {
      "icao": "ENVA",
      "alert": "OK",
      "vis_m": 9999,
      "fzfg": false,
      "metar_trigger": false,
      "taf_trigger": false,
      "metar": "METAR ENVA 222020Z 10010KT CAVOK M03/M10 Q1021 NOSIG RMK WIND 670FT 14015KT",
      "taf": "TAF ENVA 221700Z 2218/2318 11010KT CAVOK"
    },
    {
      "icao": "ENZV",
      "alert": "OK",
      "vis_m": 9999,
      "fzfg": false,
      "metar_trigger": false,
      "taf_trigger": false,
      "metar": "METAR ENZV 222020Z 10010KT CAVOK M00/M09 Q1010 TEMPO 10018G28KT",
      "taf": ""
    },
    {
      "icao": "EPGD",
      "alert": "OK",
      "vis_m": 6000,
      "fzfg": false,
      "metar_trigger": false,
      "taf_trigger": false,
      "metar": "METAR EPGD 222030Z 11008KT 6000 NSC M13/M15 Q1010",
      "taf": "TAF EPGD 221730Z 2218/2318 09010KT 6000 NSC"
    },
    {
      "icao": "EPKK",
      "alert": "OK",
      "vis_m": 4400,
      "fzfg": false,
      "metar_trigger": false,
      "taf_trigger": false,
      "metar": "METAR EPKK 222030Z 07009KT 4400 BR SCT047 M04/M08 Q1004",
      "taf": "TAF EPKK 222030Z 2221/2321 07004KT 6000 BKN040"
    },
    {
      "icao": "EPKT",
      "alert": "OK",
      "vis_m": 6000,
      "fzfg": false,
      "metar_trigger": false,
      "taf_trigger": false,
      "metar": "METAR EPKT 222030Z 05006KT 6000 BKN047 M01/M07 Q1002",
      "taf": "TAF EPKT 221730Z 2218/2318 09004KT 7000 NSC"
    },
    {
      "icao": "EPLB",
      "alert": "OK",
      "vis_m": 3800,
      "fzfg": false,
      "metar_trigger": false,
      "taf_trigger": false,
      "metar": "METAR EPLB 222030Z 07007KT 3800 BR OVC003 M10/M10 Q1008",
      "taf": "TAF EPLB 221730Z 2218/2318 08008KT 2000 BR BKN002"
    },
    {
      "icao": "EPMO",
      "alert": "OK",
      "vis_m": 5000,
      "fzfg": false,
      "metar_trigger": false,
      "taf_trigger": false,
      "metar": "METAR EPMO 222030Z 07013KT 5000 BR OVC006 M11/M11 Q1009",
      "taf": "TAF EPMO 221730Z 2218/2318 08012KT 6000 NSC"
    },
    {
      "icao": "EPPO",
      "alert": "OK",
      "vis_m": 7000,
      "fzfg": false,
      "metar_trigger": false,
      "taf_trigger": false,
      "metar": "METAR EPPO 222030Z 09011KT 7000 NSC M06/M11 Q1005",
      "taf": "TAF EPPO 221730Z 2218/2318 09007KT CAVOK"
    },
    {
      "icao": "EPRA",
      "alert": "OK",
      "vis_m": 5000,
      "fzfg": false,
      "metar_trigger": false,
      "taf_trigger": false,
      "metar": "METAR EPRA 222030Z 07009KT 5000 BR OVC003 M10/M12 Q1007",
      "taf": "TAF EPRA 222030Z 2221/2306 06008KT 5000 BR OVC004"
    },
    {
      "icao": "EPRZ",
      "alert": "OK",
      "vis_m": 6000,
      "fzfg": false,
      "metar_trigger": false,
      "taf_trigger": false,
      "metar": "METAR EPRZ 222030Z 07012KT 6000 FEW026 M09/M12 Q1005",
      "taf": "TAF EPRZ 221730Z 2218/2318 09009KT 5000 BR NSC"
    },
    {
      "icao": "EPSC",
      "alert": "OK",
      "vis_m": 8000,
      "fzfg": false,
      "metar_trigger": false,
      "taf_trigger": false,
      "metar": "METAR EPSC 222030Z 10006KT 8000 NSC M05/M09 Q1005",
      "taf": "TAF EPSC 221730Z 2218/2318 04004KT 5000 BR NSC"
    },
    {
      "icao": "EPSY",
      "alert": "OK",
      "vis_m": 5000,
      "fzfg": false,
      "metar_trigger": false,
      "taf_trigger": false,
      "metar": "METAR EPSY 222030Z VRB10G20KT 5000 BR BKN006 OVC011 M13/M15 Q1012",
      "taf": "TAF EPSY 222030Z 2221/2306 09008KT 6000 BKN010"
    },
    {
      "icao": "EPWA",
      "alert": "OK",
      "vis_m": 5000,
      "fzfg": false,
      "metar_trigger": false,
      "taf_trigger": false,
      "metar": "METAR EPWA 222030Z 08009KT 5000 BR OVC004 M10/M11 Q1009 TEMPO 4000",
      "taf": "TAF EPWA 222030Z 2221/2321 08010KT 6000 OVC005"
    },
    {
      "icao": "EPWR",
      "alert": "OK",
      "vis_m": 8000,
      "fzfg": false,
      "metar_trigger": false,
      "taf_trigger": false,
      "metar": "METAR EPWR 222030Z 10003KT 8000 NSC M03/M07 Q1003",
      "taf": "TAF EPWR 222030Z 2221/2321 10005KT 8000 NSC"
    },
    {
      "icao": "ESGG",
      "alert": "OK",
      "vis_m": 9999,
      "fzfg": false,
      "metar_trigger": false,
      "taf_trigger": false,
      "metar": "METAR ESGG 222020Z 08013KT 9999 OVC022 M01/M06 Q1012",
      "taf": "TAF ESGG 222030Z 2221/2321 08012G22KT 9999 OVC020"
    },
    {
      "icao": "ESKN",
      "alert": "OK",
      "vis_m": 9999,
      "fzfg": false,
      "metar_trigger": false,
      "taf_trigger": false,
      "metar": "METAR ESKN 222020Z 09015KT 9999 OVC016 M02/M05 Q1019",
      "taf": "TAF ESKN 222030Z 2221/2321 09014KT 9999 -SN SCT009 OVC016"
    },
    {
      "icao": "ESMS",
      "alert": "OK",
      "vis_m": 9999,
      "fzfg": false,
      "metar_trigger": false,
      "taf_trigger": false,
      "metar": "METAR ESMS 222020Z 09019KT 9999 BKN016 00/M02 Q1007",
      "taf": "TAF ESMS 222027Z 2221/2321 09018G32KT 9000 BKN020"
    },
    {
      "icao": "ESSA",
      "alert": "OK",
      "vis_m": 9999,
      "fzfg": false,
      "metar_trigger": false,
      "taf_trigger": false,
      "metar": "METAR ESSA 222020Z 07010KT 9999 BKN019 OVC026 M03/M06 Q1021 NOSIG",
      "taf": "TAF ESSA 222030Z 2221/2321 08012KT 9999 OVC018"
    },
    {
      "icao": "EYKA",
      "alert": "OK",
      "vis_m": 9999,
      "fzfg": false,
      "metar_trigger": false,
      "taf_trigger": false,
      "metar": "METAR EYKA 222020Z 11012KT 9999 -SN OVC017 M07/M10 Q1017",
      "taf": "TAF EYKA 221700Z 2218/2318 10012KT 9000 BKN015"
    },
    {
      "icao": "EYPA",
      "alert": "OK",
      "vis_m": 9999,
      "fzfg": false,
      "metar_trigger": false,
      "taf_trigger": false,
      "metar": "METAR EYPA 222020Z 10012KT 9999 OVC017 M04/M08 Q1015",
      "taf": "TAF EYPA 221700Z 2218/2318 10012KT 9000 OVC015"
    },
    {
      "icao": "EYVI",
      "alert": "OK",
      "vis_m": 9999,
      "fzfg": false,
      "metar_trigger": false,
      "taf_trigger": false,
      "metar": "METAR EYVI 222020Z 10008KT 070V130 9999 -SN OVC013 M09/M12 Q1016 NOSIG",
      "taf": "TAF EYVI 221700Z 2218/2318 10012KT 9000 BKN010"
    },
    {
      "icao": "GCFV",
      "alert": "OK",
      "vis_m": 9999,
      "fzfg": false,
      "metar_trigger": false,
      "taf_trigger": false,
      "metar": "METAR GCFV 222030Z 31005KT 270V340 9999 FEW017 SCT035 18/16 Q1019",
      "taf": "TAF GCFV 222000Z 2221/2321 30005KT 9999 SCT025 TX22/2314Z TN16/2306Z"
    },
    {
      "icao": "GCLP",
      "alert": "OK",
      "vis_m": 9999,
      "fzfg": false,
      "metar_trigger": false,
      "taf_trigger": false,
      "metar": "METAR GCLP 222030Z VRB02KT 9999 FEW025 SCT040 18/15 Q1020 NOSIG",
      "taf": "TAF GCLP 222000Z 2221/2321 35008KT 9999 BKN020 TX23/2314Z TN15/2306Z"
    },
    {
      "icao": "GCTS",
      "alert": "OK",
      "vis_m": 9999,
      "fzfg": false,
      "metar_trigger": false,
      "taf_trigger": false,
      "metar": "METAR GCTS 222030Z 07008KT 9999 SCT020 19/13 Q1020 NOSIG",
      "taf": ""
    },
    {
      "icao": "GMAD",
      "alert": "OK",
      "vis_m": 8000,
      "fzfg": false,
      "metar_trigger": false,
      "taf_trigger": false,
      "metar": "METAR GMAD 222030Z 00000KT 8000 BKN006 BKN016 14/14 Q1017 NOSIG",
      "taf": "TAF GMAD 221700Z 2218/2324 24008KT 8000 SCT008 BKN016"
    },
    {
      "icao": "GMMN",
      "alert": "OK",
      "vis_m": 8000,
      "fzfg": false,
      "metar_trigger": false,
      "taf_trigger": false,
      "metar": "METAR GMMN 222030Z 21006KT 8000 FEW020 SCT100 12/10 Q1016 NOSIG",
      "taf": "TAF GMMN 221700Z 2218/2324 27010KT 8000 BKN020"
    },
    {
      "icao": "GMMX",
      "alert": "OK",
      "vis_m": 9999,
      "fzfg": false,
      "metar_trigger": false,
      "taf_trigger": false,
      "metar": "METAR GMMX 222030Z 29008KT 260V330 9999 BKN026 14/11 Q1017 NOSIG",
      "taf": "TAF GMMX 221700Z 2218/2324 24014KT 8000 SCT020 SCT080"
    },
    {
      "icao": "HEGN",
      "alert": "OK",
      "vis_m": 9999,
      "fzfg": false,
      "metar_trigger": false,
      "taf_trigger": false,
      "metar": "METAR HEGN 222000Z 31005KT CAVOK 20/16 Q1013 NOSIG",
      "taf": "TAF HEGN 221700Z 2218/2324 12012KT CAVOK"
    },
    {
      "icao": "HEMA",
      "alert": "OK",
      "vis_m": 9999,
      "fzfg": false,
      "metar_trigger": false,
      "taf_trigger": false,
      "metar": "METAR HEMA 222000Z 19005KT CAVOK 21/18 Q1012 NOSIG",
      "taf": "TAF HEMA 221700Z 2218/2324 15012KT CAVOK"
    },
    {
      "icao": "HESH",
      "alert": "OK",
      "vis_m": 9999,
      "fzfg": false,
      "metar_trigger": false,
      "taf_trigger": false,
      "metar": "METAR HESH 222000Z 35006KT CAVOK 21/12 Q1013 NOSIG",
      "taf": "TAF HESH 221700Z 2218/2324 35012KT CAVOK"
    },
    {
      "icao": "HESX",
      "alert": "OK",
      "vis_m": 9999,
      "fzfg": false,
      "metar_trigger": false,
      "taf_trigger": false,
      "metar": "METAR HESX 222000Z 31010KT CAVOK 16/04 Q1011 NOSIG",
      "taf": "TAF HESX 222000Z 2218/2324 22008KT 6000 SCT025 OVC070"
    },
    {
      "icao": "LATI",
      "alert": "OK",
      "vis_m": null,
      "fzfg": false,
      "metar_trigger": false,
      "taf_trigger": false,
      "metar": "",
      "taf": "TAF LATI 221700Z 2218/2318 VRB05KT 9999 SCT040 BKN070 TX14/2312Z TN05/2305Z"
    },
    {
      "icao": "LBPD",
      "alert": "OK",
      "vis_m": 8000,
      "fzfg": false,
      "metar_trigger": false,
      "taf_trigger": false,
      "metar": "METAR LBPD 222030Z AUTO 23004KT 8000 OVC018/// M01/M01 Q1004",
      "taf": "TAF LBPD 221700Z 2218/2318 VRB03KT 3000 BR SCT050"
    },
    {
      "icao": "LBSF",
      "alert": "OK",
      "vis_m": 8000,
      "fzfg": false,
      "metar_trigger": false,
      "taf_trigger": false,
      "metar": "METAR LBSF 222030Z AUTO 27002KT 8000 OVC017/// 01/M00 Q1003 TEMPO 4000 BR",
      "taf": "TAF LBSF 221700Z 2218/2318 VRB03KT 6000 SCT010 BKN015 OVC020"
    },
    {
      "icao": "LBWN",
      "alert": "OK",
      "vis_m": 8000,
      "fzfg": false,
      "metar_trigger": false,
      "taf_trigger": false,
      "metar": "METAR LBWN 222030Z AUTO VRB02KT 8000 NSC 03/03 Q1004 TEMPO 3000 BR",
      "taf": "TAF LBWN 221700Z 2218/2318 VRB04KT 8000 SCT015 BKN040"
    },
    {
      "icao": "LCLK",
      "alert": "OK",
      "vis_m": 6000,
      "fzfg": false,
      "metar_trigger": false,
      "taf_trigger": false,
      "metar": "METAR LCLK 222030Z 05018KT 6000 -RA SCT008 SCT022 BKN070 12/11 Q1011 RERA NOSIG",
      "taf": "TAF LCLK 221730Z 2218/2318 04015KT 9999 SCT020"
    },
    {
      "icao": "LCPH",
      "alert": "OK",
      "vis_m": 9999,
      "fzfg": false,
      "metar_trigger": false,
      "taf_trigger": false,
      "metar": "METAR LCPH 222030Z 09009KT 9999 FEW030 SCT060 13/11 Q1009 NOSIG",
      "taf": "TAF LCPH 221730Z 2218/2318 13015KT 9999 SCT020"
    },
    {
      "icao": "LEAL",
      "alert": "OK",
      "vis_m": 9999,
      "fzfg": false,
      "metar_trigger": false,
      "taf_trigger": false,
      "metar": "METAR LEAL 222030Z 23005KT CAVOK 14/03 Q1006 NOSIG",
      "taf": ""
    },
    {
      "icao": "LEBB",
      "alert": "OK",
      "vis_m": 9999,
      "fzfg": false,
      "metar_trigger": false,
      "taf_trigger": false,
      "metar": "METAR LEBB 222030Z 17014G27KT 120V230 9999 FEW040 14/03 Q0993 NOSIG",
      "taf": "TAF LEBB 221700Z 2218/2318 20009KT 9999 FEW040 TX12/2218Z TN08/2307Z"
    },
    {
      "icao": "LEBL",
      "alert": "OK",
      "vis_m": 9999,
      "fzfg": false,
      "metar_trigger": false,
      "taf_trigger": false,
      "metar": "METAR LEBL 222030Z 29005KT 9999 FEW040 08/06 Q1001 NOSIG",
      "taf": "TAF LEBL 221700Z 2218/2318 34006KT 9999 FEW030 TX15/2313Z TN05/2303Z"
    },
    {
      "icao": "LECH",
      "alert": "OK",
      "vis_m": 9000,
      "fzfg": false,
      "metar_trigger": false,
      "taf_trigger": false,
      "metar": "METAR LECH 222030Z AUTO 25005KT 190V290 9000 NSC 08/01 Q1002",
      "taf": ""
    },
    {
      "icao": "LEMD",
      "alert": "OK",
      "vis_m": 9999,
      "fzfg": false,
      "metar_trigger": false,
      "taf_trigger": false,
      "metar": "SPECI LEMD 222043Z 19010KT 160V220 9999 -RA FEW012 FEW020TCU BKN030 04/04 Q1003 RERA NOSIG",
      "taf": ""
    },
    {
      "icao": "LEMG",
      "alert": "OK",
      "vis_m": 9999,
      "fzfg": false,
      "metar_trigger": false,
      "taf_trigger": false,
      "metar": "METAR LEMG 222030Z 00000KT 9999 FEW040 BKN070 12/09 Q1010 NOSIG",
      "taf": "TAF LEMG 221700Z 2218/2318 VRB03KT 9999 SCT040 TX17/2314Z TN10/2307Z"
    },
    {
      "icao": "LEVC",
      "alert": "OK",
      "vis_m": 9999,
      "fzfg": false,
      "metar_trigger": false,
      "taf_trigger": false,
      "metar": "METAR LEVC 222030Z 26020KT CAVOK 12/03 Q1003 NOSIG",
      "taf": "TAF LEVC 221700Z 2218/2318 27010KT 9999 SCT040 TX16/2313Z TN07/2305Z"
    },
    {
      "icao": "LEXJ",
      "alert": "OK",
      "vis_m": 9999,
      "fzfg": false,
      "metar_trigger": false,
      "taf_trigger": false,
      "metar": "METAR LEXJ 222030Z 21021G35KT 150V260 CAVOK 13/02 Q0989",
      "taf": "TAF LEXJ 222000Z 2221/2321 24009KT 9999 SCT040 TX14/2312Z TN08/2306Z"
    },
    {
      "icao": "LEZG",
      "alert": "OK",
      "vis_m": 9999,
      "fzfg": false,
      "metar_trigger": false,
      "taf_trigger": false,
      "metar": "METAR LEZG 222030Z 22005KT CAVOK 09/03 Q1000 NOSIG",
      "taf": "TAF LEZG 221700Z 2218/2318 28008KT 9999 FEW040 TX13/2315Z TN05/2306Z"
    },
    {
      "icao": "LEZL",
      "alert": "OK",
      "vis_m": 5000,
      "fzfg": false,
      "metar_trigger": false,
      "taf_trigger": false,
      "metar": "METAR LEZL 222030Z 22014KT 190V250 5000 -RA BKN005 OVC010 13/13 Q1008 RERA NOSIG",
      "taf": "TAF LEZL 222000Z 2221/2321 22012KT 9999 BKN025 TX15/2315Z TN08/2307Z"
    },
    {
      "icao": "LFBD",
      "alert": "OK",
      "vis_m": 9999,
      "fzfg": false,
      "metar_trigger": false,
      "taf_trigger": false,
      "metar": "METAR LFBD 222030Z AUTO 16009KT CAVOK 07/06 Q0994 NOSIG",
      "taf": "TAF LFBD 221700Z 2218/2324 19005KT CAVOK TX10/2314Z TN06/2223Z"
    },
    {
      "icao": "LFLL",
      "alert": "OK",
      "vis_m": 9999,
      "fzfg": false,
      "metar_trigger": false,
      "taf_trigger": false,
      "metar": "METAR LFLL 222030Z 12007KT CAVOK 06/04 Q0998 NOSIG",
      "taf": "TAF LFLL 221700Z 2218/2324 16005KT CAVOK"
    },
    {
      "icao": "LFLS",
      "alert": "OK",
      "vis_m": 2200,
      "fzfg": false,
      "metar_trigger": false,
      "taf_trigger": false,
      "metar": "METAR LFLS 222030Z AUTO VRB03KT 2200 1100 R09/1400D R27/1600D BR FEW014 BKN150 OVC190 02/02 Q0999",
      "taf": "TAF LFLS 221400Z 2215/2315 09004KT CAVOK"
    },
    {
      "icao": "LFMN",
      "alert": "OK",
      "vis_m": 9999,
      "fzfg": false,
      "metar_trigger": false,
      "taf_trigger": false,
      "metar": "METAR LFMN 222030Z 33006KT 9999 -RA OVC050 08/06 Q1000 NOSIG",
      "taf": "TAF LFMN 222000Z 2221/2403 34010KT 9999 BKN050"
    },
    {
      "icao": "LFOB",
      "alert": "OK",
      "vis_m": 9999,
      "fzfg": false,
      "metar_trigger": false,
      "taf_trigger": false,
      "metar": "METAR LFOB 222030Z AUTO 10006KT 9999 FEW005 SCT058 BKN130 07/06 Q0991 NOSIG",
      "taf": "TAF LFOB 221700Z 2218/2318 15010KT 9999 SCT025"
    },
    {
      "icao": "LFPO",
      "alert": "OK",
      "vis_m": 9999,
      "fzfg": false,
      "metar_trigger": false,
      "taf_trigger": false,
      "metar": "METAR LFPO 222030Z 18006KT CAVOK 08/06 Q0992 NOSIG",
      "taf": ""
    },
    {
      "icao": "LFSB",
      "alert": "OK",
      "vis_m": 9999,
      "fzfg": false,
      "metar_trigger": false,
      "taf_trigger": false,
      "metar": "METAR LFSB 222030Z AUTO 16006KT CAVOK 02/M00 Q0998 NOSIG",
      "taf": "TAF LFSB 221700Z 2218/2318 16005KT CAVOK"
    },
    {
      "icao": "LGAV",
      "alert": "OK",
      "vis_m": 9999,
      "fzfg": false,
      "metar_trigger": false,
      "taf_trigger": false,
      "metar": "METAR LGAV 222020Z VRB02KT 9999 -RA FEW020TCU BKN035 OVC070 11/09 Q1002 NOSIG",
      "taf": "TAF LGAV 221700Z 2218/2318 20010KT 9999 FEW015 SCT025 BKN070"
    },
    {
      "icao": "LGTS",
      "alert": "OK",
      "vis_m": 9999,
      "fzfg": false,
      "metar_trigger": false,
      "taf_trigger": false,
      "metar": "METAR LGTS 222020Z VRB03KT 9999 SCT010 BKN025 07/07 Q1004 NOSIG",
      "taf": "TAF LGTS 221700Z 2218/2318 VRB03KT 8000 FEW010 BKN030"
    },
    {
      "icao": "LHBP",
      "alert": "OK",
      "vis_m": 7000,
      "fzfg": false,
      "metar_trigger": false,
      "taf_trigger": false,
      "metar": "METAR LHBP 222030Z 36003KT 7000 -SN BKN008 OVC031 M00/M02 Q1004 TEMPO SCT007 OVC030",
      "taf": ""
    },
    {
      "icao": "LHDC",
      "alert": "OK",
      "vis_m": 7000,
      "fzfg": false,
      "metar_trigger": false,
      "taf_trigger": false,
      "metar": "METAR LHDC 222015Z AUTO 06004KT 7000 NSC 00/M03 Q1004 NOSIG",
      "taf": "TAF LHDC 221415Z 2215/2224 03006KT 8000 OVC045"
    },
    {
      "icao": "LIBD",
      "alert": "OK",
      "vis_m": 9999,
      "fzfg": false,
      "metar_trigger": false,
      "taf_trigger": false,
      "metar": "METAR LIBD 222020Z VRB01KT 9999 SCT030 10/09 Q1001",
      "taf": "TAF LIBD 221700Z 2218/2318 VRB05KT 9999 SCT030"
    },
    {
      "icao": "LIBG",
      "alert": "OK",
      "vis_m": null,
      "fzfg": false,
      "metar_trigger": false,
      "taf_trigger": false,
      "metar": "",
      "taf": "TAF LIBG 221700Z 2218/2303 VRB05KT 9999 SCT020"
    },
    {
      "icao": "LIBP",
      "alert": "OK",
      "vis_m": 9000,
      "fzfg": false,
      "metar_trigger": false,
      "taf_trigger": false,
      "metar": "METAR LIBP 222020Z AUTO 22002KT 9000 BKN024/// OVC073/// 09/08 Q1001",
      "taf": "TAF LIBP 221700Z 2218/2318 VRB05KT 9999 BKN020"
    },
    {
      "icao": "LIBR",
      "alert": "OK",
      "vis_m": 9999,
      "fzfg": false,
      "metar_trigger": false,
      "taf_trigger": false,
      "metar": "METAR LIBR 222020Z 25004KT 9999 BKN025 10/09 Q1001",
      "taf": "TAF LIBR 221700Z 2218/2318 VRB05KT 9999 FEW020"
    },
    {
      "icao": "LICA",
      "alert": "OK",
      "vis_m": 9999,
      "fzfg": false,
      "metar_trigger": false,
      "taf_trigger": false,
      "metar": "METAR LICA 222020Z AUTO 15004KT 9999 BKN023/// OVC052/// 11/11 Q1002",
      "taf": "TAF LICA 221700Z 2218/2318 VRB05KT 9999 BKN020"
    },
    {
      "icao": "LICC",
      "alert": "OK",
      "vis_m": 9999,
      "fzfg": false,
      "metar_trigger": false,
      "taf_trigger": false,
      "metar": "METAR LICC 222020Z 27006KT 9999 FEW050 08/07 Q1002",
      "taf": "TAF LICC 221700Z 2218/2318 26008KT 7000 SCT030"
    },
    {
      "icao": "LICJ",
      "alert": "OK",
      "vis_m": 9999,
      "fzfg": false,
      "metar_trigger": false,
      "taf_trigger": false,
      "metar": "METAR LICJ 222020Z VRB01KT CAVOK 12/07 Q1001",
      "taf": "TAF LICJ 221700Z 2218/2318 16008KT 9999 FEW030"
    },
    {
      "icao": "LIMC",
      "alert": "OK",
      "vis_m": 100,
      "fzfg": false,
      "metar_trigger": false,
      "taf_trigger": false,
      "metar": "METAR LIMC 222020Z VRB01KT 0100 R35R/0350N R17L/0500N R35L/0325N FG OVC001 00/00 Q1001 NOSIG",
      "taf": ""
    },
    {
      "icao": "LIME",
      "alert": "OK",
      "vis_m": 5000,
      "fzfg": false,
      "metar_trigger": false,
      "taf_trigger": false,
      "metar": "METAR LIME 222020Z 01003KT 5000 2000S R28/1400U BR NSC M01/M01 Q1001 NOSIG",
      "taf": ""
    },
    {
      "icao": "LIMF",
      "alert": "OK",
      "vis_m": 2000,
      "fzfg": false,
      "metar_trigger": false,
      "taf_trigger": false,
      "metar": "METAR LIMF 222020Z 04003KT 2000 BR SCT150 01/M00 Q1001",
      "taf": "TAF LIMF 221700Z 2218/2318 VRB04KT 4000 BR NSC"
    },
    {
      "icao": "LIMJ",
      "alert": "OK",
      "vis_m": 9999,
      "fzfg": false,
      "metar_trigger": false,
      "taf_trigger": false,
      "metar": "METAR LIMJ 222020Z 03008KT 9999 BKN055 08/M01 Q1000",
      "taf": "TAF LIMJ 221700Z 2218/2318 03014KT 9999 FEW040"
    },
    {
      "icao": "LIPE",
      "alert": "OK",
      "vis_m": 7000,
      "fzfg": false,
      "metar_trigger": false,
      "taf_trigger": false,
      "metar": "METAR LIPE 222020Z 24002KT 7000 NSC 02/00 Q1002",
      "taf": "TAF LIPE 221700Z 2218/2318 VRB05KT 7000 BKN030"
    },
    {
      "icao": "LIPH",
      "alert": "OK",
      "vis_m": 9999,
      "fzfg": false,
      "metar_trigger": false,
      "taf_trigger": false,
      "metar": "METAR LIPH 222020Z 01003KT CAVOK 03/M04 Q1002",
      "taf": "TAF LIPH 221700Z 2218/2318 VRB05KT 9999 SCT060"
    },
    {
      "icao": "LIPQ",
      "alert": "OK",
      "vis_m": 9999,
      "fzfg": false,
      "metar_trigger": false,
      "taf_trigger": false,
      "metar": "METAR LIPQ 222020Z AUTO 35003KT 9999 BKN052/// M00/M03 Q1002",
      "taf": "TAF LIPQ 221700Z 2218/2318 VRB05KT 9999 BKN050"
    },
    {
      "icao": "LIPR",
      "alert": "OK",
      "vis_m": 8000,
      "fzfg": false,
      "metar_trigger": false,
      "taf_trigger": false,
      "metar": "METAR LIPR 222020Z VRB01KT 8000 BKN020 05/03 Q1002",
      "taf": "TAF LIPR 221700Z 2218/2318 VRB05KT 9999 BKN020"
    },
    {
      "icao": "LIPX",
      "alert": "OK",
      "vis_m": 9999,
      "fzfg": false,
      "metar_trigger": false,
      "taf_trigger": false,
      "metar": "METAR LIPX 222020Z VRB01KT CAVOK 01/M00 Q1001",
      "taf": "TAF LIPX 221700Z 2218/2318 VRB04KT 6000 SCT050"
    },
    {
      "icao": "LIPY",
      "alert": "OK",
      "vis_m": 9999,
      "fzfg": false,
      "metar_trigger": false,
      "taf_trigger": false,
      "metar": "METAR LIPY 222020Z AUTO 23004KT 9999 OVC023/// 06/03 Q1002",
      "taf": "TAF LIPY 221700Z 2218/2318 28006KT 9999 SCT030"
    },
    {
      "icao": "LIPZ",
      "alert": "OK",
      "vis_m": 9999,
      "fzfg": false,
      "metar_trigger": false,
      "taf_trigger": false,
      "metar": "METAR LIPZ 222020Z 24004KT 9999 BKN050 04/01 Q1002 NOSIG",
      "taf": "TAF LIPZ 221700Z 2218/2324 VRB05KT 9999 SCT050"
    },
    {
      "icao": "LIRF",
      "alert": "OK",
      "vis_m": 9999,
      "fzfg": false,
      "metar_trigger": false,
      "taf_trigger": false,
      "metar": "METAR LIRF 222020Z 08004KT CAVOK 06/04 Q1001 NOSIG",
      "taf": "TAF LIRF 221700Z 2218/2324 VRB05KT 9999 FEW040"
    },
    {
      "icao": "LIRN",
      "alert": "OK",
      "vis_m": 9999,
      "fzfg": false,
      "metar_trigger": false,
      "taf_trigger": false,
      "metar": "METAR LIRN 222020Z 05002KT 9999 SCT040 11/06 Q1001 NOSIG",
      "taf": "TAF LIRN 221700Z 2218/2318 VRB05KT 9999 SCT050"
    },
    {
      "icao": "LIRP",
      "alert": "OK",
      "vis_m": 9999,
      "fzfg": false,
      "metar_trigger": false,
      "taf_trigger": false,
      "metar": "METAR LIRP 222015Z 13004KT 9999 SCT070 06/05 Q1000 NOSIG",
      "taf": "TAF LIRP 221700Z 2218/2318 VRB03KT CAVOK"
    },
    {
      "icao": "LIRZ",
      "alert": "OK",
      "vis_m": 9999,
      "fzfg": false,
      "metar_trigger": false,
      "taf_trigger": false,
      "metar": "METAR LIRZ 222020Z AUTO 33003KT 9999 BKN047/// 07/04 Q1000",
      "taf": "TAF LIRZ 221700Z 2218/2318 VRB05KT 9999 BKN045"
    },
    {
      "icao": "LJLJ",
      "alert": "OK",
      "vis_m": 9999,
      "fzfg": false,
      "metar_trigger": false,
      "taf_trigger": false,
      "metar": "METAR LJLJ 222030Z VRB01KT 9999 SCT047 M05/M07 Q1002 NOSIG",
      "taf": "TAF LJLJ 221700Z 2218/2318 12003KT 9999 FEW050"
    },
    {
      "icao": "LKMT",
      "alert": "OK",
      "vis_m": 9999,
      "fzfg": false,
      "metar_trigger": false,
      "taf_trigger": false,
      "metar": "METAR LKMT 222030Z 23003KT CAVOK M01/M05 Q1002 NOSIG",
      "taf": "TAF LKMT 221700Z 2218/2318 VRB02KT 9999 SCT025 OVC035"
    },
    {
      "icao": "LKPR",
      "alert": "OK",
      "vis_m": 9999,
      "fzfg": false,
      "metar_trigger": false,
      "taf_trigger": false,
      "metar": "METAR LKPR 222030Z 16005KT 9999 OVC015 M06/M08 Q1001 NOSIG",
      "taf": "TAF LKPR 222000Z 2221/2403 14005KT 9999 BKN017"
    },
    {
      "icao": "LLBG",
      "alert": "OK",
      "vis_m": 9999,
      "fzfg": false,
      "metar_trigger": false,
      "taf_trigger": false,
      "metar": "METAR LLBG 222020Z 32009KT CAVOK 19/11 Q1009 NOSIG RMK SCT120",
      "taf": "TAF LLBG 221706Z 2218/2318 13010KT CAVOK"
    },
    {
      "icao": "LMML",
      "alert": "OK",
      "vis_m": 9999,
      "fzfg": false,
      "metar_trigger": false,
      "taf_trigger": false,
      "metar": "METAR LMML 222045Z 22012KT 9999 FEW019 14/11 Q1003 NOSIG",
      "taf": "TAF LMML 221700Z 2218/2318 24015KT 9999 FEW025"
    },
    {
      "icao": "LOWW",
      "alert": "OK",
      "vis_m": 6000,
      "fzfg": false,
      "metar_trigger": false,
      "taf_trigger": false,
      "metar": "METAR LOWW 222020Z 16007KT 6000 FEW010 BKN012 M04/M06 Q1003 TEMPO BKN009",
      "taf": "TAF LOWW 222015Z 2221/2403 13005KT 6000 OVC010 TXM00/2323Z TNM06/2303Z"
    },
    {
      "icao": "LPFR",
      "alert": "OK",
      "vis_m": 9000,
      "fzfg": false,
      "metar_trigger": false,
      "taf_trigger": false,
      "metar": "METAR LPFR 222030Z 23016KT 9000 BKN005 BKN012 15/14 Q1008",
      "taf": ""
    },
    {
      "icao": "LPMA",
      "alert": "OK",
      "vis_m": 9999,
      "fzfg": false,
      "metar_trigger": false,
      "taf_trigger": false,
      "metar": "METAR LPMA 222030Z VRB01KT 9999 SCT015 18/12 Q1018",
      "taf": "TAF LPMA 221700Z 2218/2318 VRB05KT 9999 SCT015"
    },
    {
      "icao": "LPPR",
      "alert": "OK",
      "vis_m": 7000,
      "fzfg": false,
      "metar_trigger": false,
      "taf_trigger": false,
      "metar": "METAR LPPR 222030Z 28011G24KT 230V330 7000 -SHRA SCT020 FEW023CB BKN044 14/10 Q0997",
      "taf": "TAF LPPR 221700Z 2218/2318 17018KT 2000 RADZ BR SCT002 BKN004"
    },
    {
      "icao": "LPPS",
      "alert": "OK",
      "vis_m": 9999,
      "fzfg": false,
      "metar_trigger": false,
      "taf_trigger": false,
      "metar": "METAR LPPS 222030Z 29014KT 9999 FEW014 18/14 Q1017",
      "taf": "TAF LPPS 221700Z 2218/2324 30015KT 9999 SCT015 SCT030"
    },
    {
      "icao": "LPPT",
      "alert": "OK",
      "vis_m": 9000,
      "fzfg": false,
      "metar_trigger": false,
      "taf_trigger": false,
      "metar": "METAR LPPT 222030Z 26018G28KT 9000 FEW006 SCT010 15/14 Q1003",
      "taf": "TAF LPPT 221700Z 2218/2324 22015KT 5000 -RADZ BR SCT006 BKN012"
    },
    {
      "icao": "LQBK",
      "alert": "OK",
      "vis_m": 6000,
      "fzfg": false,
      "metar_trigger": false,
      "taf_trigger": false,
      "metar": "METAR LQBK 222030Z 00000KT 6000 -FZRA BKN047 M01/M02 Q1004 NOSIG",
      "taf": "TAF LQBK 221700Z 2218/2318 VRB02KT 7000 SCT045 TX03/2313Z TNM02/2224Z"
    },
    {
      "icao": "LQSA",
      "alert": "OK",
      "vis_m": 2500,
      "fzfg": false,
      "metar_trigger": false,
      "taf_trigger": false,
      "metar": "METAR LQSA 222030Z VRB01KT 2500 BR SCT055 M01/M01 Q1001 NOSIG",
      "taf": "TAF LQSA 221700Z 2218/2318 VRB02KT 4000 BR FEW010 SCT045 TX04/2314Z TNM02/2305Z"
    },
    {
      "icao": "LQTZ",
      "alert": "OK",
      "vis_m": 1800,
      "fzfg": false,
      "metar_trigger": false,
      "taf_trigger": false,
      "metar": "METAR LQTZ 222030Z 27001KT 1800 BR SCT070 M01/M01 Q1002",
      "taf": "TAF LQTZ 221700Z 2218/2318 VRB02KT 6000 FEW005 BKN040 TX05/2313Z TNM03/2303Z"
    },
    {
      "icao": "LRBC",
      "alert": "OK",
      "vis_m": 2000,
      "fzfg": false,
      "metar_trigger": false,
      "taf_trigger": false,
      "metar": "METAR LRBC 222030Z 16006KT 2000 DZ BR OVC002 02/02 Q1005 RERA",
      "taf": "TAF LRBC 222000Z 2221/2306 16006KT 1500 -RA BR BKN005 OVC020"
    },
    {
      "icao": "LRBS",
      "alert": "OK",
      "vis_m": 500,
      "fzfg": false,
      "metar_trigger": false,
      "taf_trigger": false,
      "metar": "METAR LRBS 222030Z 26002KT 0500 R07/1000N -RA FG VV002 01/01 Q1005 NOSIG",
      "taf": "TAF LRBS 221700Z 2218/2318 VRB04KT 0800 FG OVC002"
    },
    {
      "icao": "LRBV",
      "alert": "OK",
      "vis_m": 6000,
      "fzfg": false,
      "metar_trigger": false,
      "taf_trigger": false,
      "metar": "METAR LRBV 222030Z 22002KT 6000 -DZ SCT004 SCT012 BKN034 00/M00 Q1002",
      "taf": ""
    },
    {
      "icao": "LRCL",
      "alert": "OK",
      "vis_m": 1500,
      "fzfg": false,
      "metar_trigger": false,
      "taf_trigger": false,
      "metar": "METAR LRCL 222030Z 00000KT 1500 -SN SCT023 OVC043 M01/M02 Q1004",
      "taf": "TAF LRCL 222000Z 2221/2306 VRB04KT 3000 -SN BR BKN010 OVC030"
    },
    {
      "icao": "LRCV",
      "alert": "OK",
      "vis_m": 200,
      "fzfg": true,
      "metar_trigger": false,
      "taf_trigger": false,
      "metar": "METAR LRCV 222030Z 00000KT 0200 R26/0250N FG VV002 00/00 Q1005",
      "taf": "TAF LRCV 222000Z 2221/2306 VRB04KT 0350 FZFG VV002"
    },
    {
      "icao": "LRIA",
      "alert": "OK",
      "vis_m": 7000,
      "fzfg": false,
      "metar_trigger": false,
      "taf_trigger": false,
      "metar": "METAR LRIA 222030Z 11012KT 7000 -SN BKN011 OVC013 01/M01 Q1007",
      "taf": "TAF LRIA 222000Z 2221/2306 11010KT 9999 BKN010 OVC020"
    },
    {
      "icao": "LROP",
      "alert": "OK",
      "vis_m": 700,
      "fzfg": false,
      "metar_trigger": false,
      "taf_trigger": false,
      "metar": "METAR LROP 222030Z VRB02KT 0700 R08R/0800D R08L/0700N -RA FG OVC001 01/01 Q1005 NOSIG",
      "taf": "TAF LROP 221700Z 2218/2318 VRB04KT 0800 FG OVC002"
    },
    {
      "icao": "LRSB",
      "alert": "OK",
      "vis_m": 9000,
      "fzfg": false,
      "metar_trigger": false,
      "taf_trigger": false,
      "metar": "METAR LRSB 222030Z 35002KT 9000 FEW025 SCT055 BKN080 M01/M04 Q1003",
      "taf": "TAF LRSB 221700Z 2218/2318 VRB04KT 9999 BKN070"
    },
    {
      "icao": "LRSM",
      "alert": "OK",
      "vis_m": 6000,
      "fzfg": false,
      "metar_trigger": false,
      "taf_trigger": false,
      "metar": "METAR LRSM 222030Z AUTO 18001KT 6000 FEW034/// SCT065/// OVC080/// M00/M02 Q1004",
      "taf": "TAF LRSM 221400Z 2215/2224 VRB04KT CAVOK"
    },
    {
      "icao": "LRSV",
      "alert": "OK",
      "vis_m": 200,
      "fzfg": true,
      "metar_trigger": false,
      "taf_trigger": false,
      "metar": "METAR LRSV 222030Z 09005KT 0200 R34/0450N -SN FZFG VV002 M00/M00 Q1004",
      "taf": "TAF LRSV 222000Z 2221/2306 12006KT 0200 -SN FG BKN001 OVC005"
    },
    {
      "icao": "LRTM",
      "alert": "OK",
      "vis_m": 2000,
      "fzfg": false,
      "metar_trigger": false,
      "taf_trigger": false,
      "metar": "METAR LRTM 222030Z AUTO 25003KT 2000 -SN BR FEW010/// SCT031/// BKN045/// M02/M03 Q1004",
      "taf": "TAF LRTM 221400Z 2215/2224 VRB04KT 3000 -SN BR BKN040"
    },
    {
      "icao": "LRTR",
      "alert": "OK",
      "vis_m": 5000,
      "fzfg": false,
      "metar_trigger": false,
      "taf_trigger": false,
      "metar": "METAR LRTR 222030Z 06003KT 5000 BR SCT042 00/M01 Q1003 NOSIG",
      "taf": "TAF LRTR 221700Z 2218/2318 VRB04KT 9999 OVC045"
    },
    {
      "icao": "LTAC",
      "alert": "OK",
      "vis_m": 4800,
      "fzfg": false,
      "metar_trigger": false,
      "taf_trigger": false,
      "metar": "METAR LTAC 222020Z VRB02KT 4800 -SN FEW010 BKN025 BKN080 M01/M02 Q1008 BECMG 6000 RMK RWY21C 19002KT RWY03L 00000KT RWY21R VRB02KT RWY03R VRB01KT RWY21L 18003KT",
      "taf": "TAF LTAC 221640Z 2218/2318 VRB02KT 9999 SCT035 BKN090"
    },
    {
      "icao": "LTFM",
      "alert": "OK",
      "vis_m": 9999,
      "fzfg": false,
      "metar_trigger": false,
      "taf_trigger": false,
      "metar": "METAR LTFM 222020Z 18010KT 9999 -SHRA SCT040 BKN100 09/07 Q1004 NOSIG RMK RWY17L 18012KT RWY34L 18012KT RWY16R 18011KT RWY36 18010KT RWY18 19011KT",
      "taf": "TAF LTFM 221640Z 2218/2324 20010KT 9999 SCT040 BKN100"
    },
    {
      "icao": "LUKK",
      "alert": "OK",
      "vis_m": 9999,
      "fzfg": false,
      "metar_trigger": false,
      "taf_trigger": false,
      "metar": "METAR LUKK 222030Z 09007KT 9999 OVC007 M01/M02 Q1008 TEMPO OVC005",
      "taf": "TAF LUKK 221721Z 2218/2318 09008KT 9999 BKN008 OVC015"
    },
    {
      "icao": "LWOH",
      "alert": "OK",
      "vis_m": 9999,
      "fzfg": false,
      "metar_trigger": false,
      "taf_trigger": false,
      "metar": "METAR LWOH 221950Z VRB01KT 9999 BKN040 01/00 Q1002",
      "taf": "TAF LWOH 222035Z 2221/2321 VRB02KT 9999 BKN040"
    },
    {
      "icao": "LWSK",
      "alert": "OK",
      "vis_m": null,
      "fzfg": false,
      "metar_trigger": false,
      "taf_trigger": false,
      "metar": "",
      "taf": "TAF LWSK 222035Z 2221/2321 VRB02KT 4000 BR BKN030"
    },
    {
      "icao": "LYBE",
      "alert": "OK",
      "vis_m": 5000,
      "fzfg": false,
      "metar_trigger": false,
      "taf_trigger": false,
      "metar": "METAR LYBE 222030Z 29003KT 5000 BR NSC M02/M03 Q1003 NOSIG",
      "taf": ""
    },
    {
      "icao": "LYNI",
      "alert": "OK",
      "vis_m": 9999,
      "fzfg": false,
      "metar_trigger": false,
      "taf_trigger": false,
      "metar": "METAR LYNI 222030Z VRB02KT CAVOK 02/M01 Q1003 NOSIG",
      "taf": "TAF LYNI 221700Z 2218/2318 09007KT 9999 SCT050 BKN090 TX10/2313Z TNM01/2305Z"
    },
    {
      "icao": "LYPG",
      "alert": "OK",
      "vis_m": 8000,
      "fzfg": false,
      "metar_trigger": false,
      "taf_trigger": false,
      "metar": "METAR LYPG 222030Z 00000KT 8000 FEW014 BKN034 OVC070 07/06 Q1002 NOSIG",
      "taf": "TAF LYPG 221700Z 2218/2318 16006KT 9999 FEW013 BKN040 OVC080 TX12/2313Z TN05/2305Z"
    },
    {
      "icao": "LZIB",
      "alert": "OK",
      "vis_m": 5000,
      "fzfg": false,
      "metar_trigger": false,
      "taf_trigger": false,
      "metar": "METAR LZIB 222030Z 06002KT 5000 BR FEW007 BKN021 M04/M05 Q1004 TEMPO BKN008",
      "taf": ""
    },
    {
      "icao": "LZKZ",
      "alert": "OK",
      "vis_m": 4500,
      "fzfg": false,
      "metar_trigger": false,
      "taf_trigger": false,
      "metar": "METAR LZKZ 222030Z VRB01KT 4500 -SN BR FEW009 SCT010 OVC035 M01/M02 Q1004 NOSIG",
      "taf": "TAF LZKZ 221715Z 2218/2318 VRB02KT 9999 SCT045"
    },
    {
      "icao": "LZTT",
      "alert": "OK",
      "vis_m": 3000,
      "fzfg": false,
      "metar_trigger": false,
      "taf_trigger": false,
      "metar": "METAR LZTT 222030Z 36003KT 3000 -SN BR OVC013 M02/M03 Q1001",
      "taf": "TAF LZTT 221715Z 2218/2318 VRB02KT 6000 SCT009 BKN030"
    },
    {
      "icao": "OEJN",
      "alert": "OK",
      "vis_m": 9999,
      "fzfg": false,
      "metar_trigger": false,
      "taf_trigger": false,
      "metar": "METAR OEJN 222000Z 15006KT CAVOK 27/20 Q1013 NOSIG",
      "taf": "TAF OEJN 221700Z 2218/2324 13004KT 7000 FEW030"
    },
    {
      "icao": "OEMA",
      "alert": "OK",
      "vis_m": 9999,
      "fzfg": false,
      "metar_trigger": false,
      "taf_trigger": false,
      "metar": "METAR OEMA 222000Z 09014KT CAVOK 20/M03 Q1019 NOSIG",
      "taf": "TAF OEMA 221700Z 2218/2324 09014KT 7000 NSC"
    },
    {
      "icao": "OJAI",
      "alert": "OK",
      "vis_m": 2500,
      "fzfg": false,
      "metar_trigger": false,
      "taf_trigger": false,
      "metar": "METAR OJAI 222000Z 15016KT 2500 BLDU NSC 11/M04 Q1014 NOSIG",
      "taf": "TAF OJAI 221700Z 2218/2324 18012KT 3000 HZ SCT035"
    },
    {
      "icao": "OMAA",
      "alert": "OK",
      "vis_m": 9999,
      "fzfg": false,
      "metar_trigger": false,
      "taf_trigger": false,
      "metar": "METAR OMAA 222030Z 01004KT CAVOK 16/02 Q1022 NOSIG",
      "taf": "TAF OMAA 221700Z 2218/2400 04006KT 8000 NSC"
    },
    {
      "icao": "OMDB",
      "alert": "OK",
      "vis_m": 9999,
      "fzfg": false,
      "metar_trigger": false,
      "taf_trigger": false,
      "metar": "METAR OMDB 222030Z 06006KT 030V100 CAVOK 17/01 Q1022 NOSIG",
      "taf": "TAF OMDB 221700Z 2218/2400 06006KT 8000 NSC"
    },
    {
      "icao": "UAAA",
      "alert": "OK",
      "vis_m": 5000,
      "fzfg": false,
      "metar_trigger": false,
      "taf_trigger": false,
      "metar": "METAR UAAA 222030Z 22004MPS 190V250 5000 -SHSN BR BKN031CB OVC100 M03/M07 Q1019 NOSIG",
      "taf": "TAF UAAA 221701Z 2218/2318 32003MPS 3100 -SHSN BR BKN011CB OVC050 TXM04/2308Z TNM10/2302Z"
    },
    {
      "icao": "UBBB",
      "alert": "OK",
      "vis_m": 9999,
      "fzfg": false,
      "metar_trigger": false,
      "taf_trigger": false,
      "metar": "METAR UBBB 222030Z 31004KT CAVOK 04/M03 Q1015 NOSIG",
      "taf": "TAF UBBB 221702Z 2218/2318 16006KT CAVOK TX07/2310Z TNM01/2300Z"
    },
    {
      "icao": "UDSG",
      "alert": "OK",
      "vis_m": 9000,
      "fzfg": false,
      "metar_trigger": false,
      "taf_trigger": false,
      "metar": "METAR UDSG 222030Z 31001KT 9000 SCT046 M12/M14 Q1017 NOSIG",
      "taf": "TAF UDSG 221658Z 2218/2318 VRB06KT 9999 BKN040"
    },
    {
      "icao": "UDYZ",
      "alert": "OK",
      "vis_m": 7000,
      "fzfg": false,
      "metar_trigger": false,
      "taf_trigger": false,
      "metar": "METAR UDYZ 222030Z VRB02KT 7000 NSC M05/M09 Q1020 NOSIG",
      "taf": "TAF UDYZ 221700Z 2218/2318 VRB04KT 9999 FEW040"
    },
    {
      "icao": "UGKO",
      "alert": "OK",
      "vis_m": 9999,
      "fzfg": false,
      "metar_trigger": false,
      "taf_trigger": false,
      "metar": "METAR UGKO 222030Z 10014KT CAVOK 07/M06 Q1011 NOSIG",
      "taf": "TAF UGKO 221700Z 2218/2318 08017KT CAVOK TX09/2311Z TN05/2303Z"
    }
  ]
}