{
  "ts_utc": "2026-03-03T21:26:55Z",
  "threshold_m": 150,
  "source": "stations_override.txt (ICAO list) + aviationweather.gov (METAR/TAF raw)",
  "station_count": 159,
  "stations": [
    {
      "icao": "BIKF",
      "alert": "OK",
      "vis_m": 9999,
      "fzfg": false,
      "metar_trigger": false,
      "taf_trigger": false,
      "metar": "METAR BIKF 032100Z 14003KT 9999 BKN016 04/04 Q0988",
      "taf": "TAF BIKF 031958Z 0321/0421 26009KT 5000 RADZ BKN012 TX03/0321Z TN00/0408Z"
    },
    {
      "icao": "BKPR",
      "alert": "OK",
      "vis_m": null,
      "fzfg": false,
      "metar_trigger": false,
      "taf_trigger": false,
      "metar": "",
      "taf": "TAF BKPR 031730Z 0318/0418 VRB05KT CAVOK"
    },
    {
      "icao": "EBCI",
      "alert": "OK",
      "vis_m": 9999,
      "fzfg": false,
      "metar_trigger": false,
      "taf_trigger": false,
      "metar": "METAR EBCI 032120Z VRB02KT CAVOK 11/05 Q1027 NOSIG",
      "taf": ""
    },
    {
      "icao": "EDDB",
      "alert": "OK",
      "vis_m": 9999,
      "fzfg": false,
      "metar_trigger": false,
      "taf_trigger": false,
      "metar": "METAR EDDB 032120Z AUTO 23003KT CAVOK 06/02 Q1026 NOSIG",
      "taf": "TAF EDDB 031700Z 0318/0418 26005KT CAVOK"
    },
    {
      "icao": "EDDH",
      "alert": "OK",
      "vis_m": 9999,
      "fzfg": false,
      "metar_trigger": false,
      "taf_trigger": false,
      "metar": "METAR EDDH 032120Z AUTO 33005KT CAVOK 04/03 Q1028 NOSIG",
      "taf": "TAF EDDH 031700Z 0318/0424 31005KT CAVOK"
    },
    {
      "icao": "EDDK",
      "alert": "OK",
      "vis_m": 9999,
      "fzfg": false,
      "metar_trigger": false,
      "taf_trigger": false,
      "metar": "METAR EDDK 032120Z AUTO 18001KT CAVOK 07/05 Q1027 NOSIG",
      "taf": "TAF EDDK 031700Z 0318/0424 VRB03KT CAVOK"
    },
    {
      "icao": "EDDN",
      "alert": "OK",
      "vis_m": 9999,
      "fzfg": false,
      "metar_trigger": false,
      "taf_trigger": false,
      "metar": "METAR EDDN 032120Z AUTO 12003KT CAVOK 05/03 Q1026",
      "taf": "TAF EDDN 031700Z 0318/0418 VRB02KT CAVOK"
    },
    {
      "icao": "EDDS",
      "alert": "OK",
      "vis_m": 9999,
      "fzfg": false,
      "metar_trigger": false,
      "taf_trigger": false,
      "metar": "METAR EDDS 032120Z AUTO 06002KT CAVOK 06/03 Q1026",
      "taf": "TAF EDDS 031700Z 0318/0418 VRB03KT CAVOK"
    },
    {
      "icao": "EDFH",
      "alert": "OK",
      "vis_m": 9999,
      "fzfg": false,
      "metar_trigger": false,
      "taf_trigger": false,
      "metar": "METAR EDFH 032120Z 15006KT CAVOK 05/02 Q1026",
      "taf": "TAF EDFH 031700Z 0318/0418 18004KT CAVOK"
    },
    {
      "icao": "EDJA",
      "alert": "OK",
      "vis_m": 8000,
      "fzfg": false,
      "metar_trigger": false,
      "taf_trigger": false,
      "metar": "METAR EDJA 032120Z VRB02KT 8000 NSC 01/00 Q1026",
      "taf": "TAF EDJA 031700Z 0318/0403 VRB03KT CAVOK"
    },
    {
      "icao": "EDLW",
      "alert": "OK",
      "vis_m": 9999,
      "fzfg": false,
      "metar_trigger": false,
      "taf_trigger": false,
      "metar": "METAR EDLW 032120Z 16003KT CAVOK 10/04 Q1026",
      "taf": "TAF EDLW 031700Z 0318/0418 VRB03KT CAVOK"
    },
    {
      "icao": "EDNY",
      "alert": "OK",
      "vis_m": 9999,
      "fzfg": false,
      "metar_trigger": false,
      "taf_trigger": false,
      "metar": "METAR EDNY 032120Z AUTO VRB02KT 9999 // NCD 01/01 Q1027",
      "taf": "TAF EDNY 031700Z 0318/0403 VRB02KT CAVOK"
    },
    {
      "icao": "EDSB",
      "alert": "OK",
      "vis_m": 9999,
      "fzfg": false,
      "metar_trigger": false,
      "taf_trigger": false,
      "metar": "METAR EDSB 032120Z AUTO VRB01KT 9999 // NCD 06/04 Q1026",
      "taf": "TAF EDSB 031700Z 0318/0418 04004KT CAVOK"
    },
    {
      "icao": "EETN",
      "alert": "OK",
      "vis_m": 9999,
      "fzfg": false,
      "metar_trigger": false,
      "taf_trigger": false,
      "metar": "METAR EETN 032120Z 26013KT 9999 SCT012 OVC037 04/02 Q1010 NOSIG",
      "taf": "TAF EETN 031730Z 0318/0418 20014KT 9999 BKN004 OVC010"
    },
    {
      "icao": "EFTU",
      "alert": "OK",
      "vis_m": 9999,
      "fzfg": false,
      "metar_trigger": false,
      "taf_trigger": false,
      "metar": "METAR EFTU 032120Z AUTO 27006KT CAVOK M00/M01 Q1009",
      "taf": "TAF EFTU 032037Z 0321/0421 28008KT 9999 FEW010"
    },
    {
      "icao": "EGBB",
      "alert": "OK",
      "vis_m": 9999,
      "fzfg": false,
      "metar_trigger": false,
      "taf_trigger": false,
      "metar": "METAR EGBB 032120Z 10007KT 9999 OVC033 08/05 Q1028",
      "taf": "TAF EGBB 031655Z 0318/0418 07007KT 9999 SCT040"
    },
    {
      "icao": "EGGP",
      "alert": "OK",
      "vis_m": 9999,
      "fzfg": false,
      "metar_trigger": false,
      "taf_trigger": false,
      "metar": "METAR EGGP 032120Z 12007KT 9999 BKN029 08/04 Q1028",
      "taf": "TAF EGGP 031658Z 0318/0418 14007KT 9999 FEW035"
    },
    {
      "icao": "EGGW",
      "alert": "OK",
      "vis_m": 9999,
      "fzfg": false,
      "metar_trigger": false,
      "taf_trigger": false,
      "metar": "METAR EGGW 032120Z AUTO 09006KT 9999 NCD 07/05 Q1028",
      "taf": "TAF EGGW 031655Z 0318/0418 07006KT 9999 SCT030"
    },
    {
      "icao": "EGKK",
      "alert": "OK",
      "vis_m": 9999,
      "fzfg": false,
      "metar_trigger": false,
      "taf_trigger": false,
      "metar": "METAR EGKK 032120Z 06005KT 040V100 CAVOK 06/04 Q1028",
      "taf": ""
    },
    {
      "icao": "EGNM",
      "alert": "OK",
      "vis_m": 9999,
      "fzfg": false,
      "metar_trigger": false,
      "taf_trigger": false,
      "metar": "METAR EGNM 032120Z 12006KT 9999 BKN023 04/02 Q1029",
      "taf": "TAF EGNM 031656Z 0318/0418 11005KT 9999 FEW030"
    },
    {
      "icao": "EGPD",
      "alert": "OK",
      "vis_m": 9999,
      "fzfg": false,
      "metar_trigger": false,
      "taf_trigger": false,
      "metar": "METAR EGPD 032120Z COR AUTO 18009KT 9999 NCD 05/01 Q1027 NOSIG",
      "taf": "TAF EGPD 031656Z 0318/0418 19005KT 9999 FEW040"
    },
    {
      "icao": "EGPF",
      "alert": "OK",
      "vis_m": 9999,
      "fzfg": false,
      "metar_trigger": false,
      "taf_trigger": false,
      "metar": "METAR EGPF 032120Z AUTO VRB01KT 9999 NCD 01/M00 Q1028",
      "taf": "TAF EGPF 031658Z 0318/0418 11004KT 9999 FEW030"
    },
    {
      "icao": "EHBK",
      "alert": "OK",
      "vis_m": 9999,
      "fzfg": false,
      "metar_trigger": false,
      "taf_trigger": false,
      "metar": "METAR EHBK 032055Z AUTO 34003KT 310V060 9999 NCD 10/06 Q1026 NOSIG",
      "taf": "TAF EHBK 031717Z 0318/0424 09006KT CAVOK"
    },
    {
      "icao": "EHEH",
      "alert": "OK",
      "vis_m": 8000,
      "fzfg": false,
      "metar_trigger": false,
      "taf_trigger": false,
      "metar": "METAR EHEH 032055Z AUTO 03004KT 8000 BR NCD 07/06 Q1027 BLU NOSIG RMK TREND REMOTE BY EHWX",
      "taf": "TAF EHEH 031739Z 0318/0424 02005KT CAVOK"
    },
    {
      "icao": "EKBI",
      "alert": "OK",
      "vis_m": 7000,
      "fzfg": false,
      "metar_trigger": false,
      "taf_trigger": false,
      "metar": "METAR EKBI 032120Z AUTO 26007KT 7000 NCD M01/M01 Q1028",
      "taf": "TAF EKBI 032027Z 0321/0421 28006KT 9999 SCT020"
    },
    {
      "icao": "EKCH",
      "alert": "OK",
      "vis_m": 9999,
      "fzfg": false,
      "metar_trigger": false,
      "taf_trigger": false,
      "metar": "METAR EKCH 032120Z AUTO 28008KT 9999 NCD 03/00 Q1026 NOSIG",
      "taf": "TAF EKCH 032027Z 0321/0421 27008KT CAVOK"
    },
    {
      "icao": "ENAL",
      "alert": "OK",
      "vis_m": 9999,
      "fzfg": false,
      "metar_trigger": false,
      "taf_trigger": false,
      "metar": "METAR ENAL 032120Z AUTO 25017KT 9999 FEW020/// BKN025/// BKN034/// 05/02 Q1017 REDZRA",
      "taf": "TAF ENAL 032000Z 0321/0406 24018KT 9999 -SHRA FEW020TCU SCT040"
    },
    {
      "icao": "ENBR",
      "alert": "OK",
      "vis_m": 9999,
      "fzfg": false,
      "metar_trigger": false,
      "taf_trigger": false,
      "metar": "METAR ENBR 032120Z 24006KT 9999 FEW019 SCT025 BKN032 05/02 Q1024 RMK WIND 1200FT 27017KT",
      "taf": "TAF ENBR 031700Z 0318/0418 25008KT 9999 FEW015TCU SCT040"
    },
    {
      "icao": "ENGM",
      "alert": "OK",
      "vis_m": 9999,
      "fzfg": false,
      "metar_trigger": false,
      "taf_trigger": false,
      "metar": "METAR ENGM 032120Z 22008KT CAVOK 03/M05 Q1016 NOSIG",
      "taf": "TAF ENGM 031700Z 0318/0418 24008KT CAVOK"
    },
    {
      "icao": "ENHD",
      "alert": "OK",
      "vis_m": 8000,
      "fzfg": false,
      "metar_trigger": false,
      "taf_trigger": false,
      "metar": "METAR ENHD 032120Z AUTO 27014KT 8000 VV008 06/05 Q1025",
      "taf": "TAF ENHD 031400Z 0315/0323 27015KT 9999 FEW010 SCT030"
    },
    {
      "icao": "ENTC",
      "alert": "OK",
      "vis_m": 9999,
      "fzfg": false,
      "metar_trigger": false,
      "taf_trigger": false,
      "metar": "METAR ENTC 032120Z 24010KT 9999 SCT049 00/M04 Q0991 NOSIG RMK WIND 2600FT 18013KT",
      "taf": "TAF ENTC 031700Z 0318/0418 20015KT 9999 FEW015 BKN040"
    },
    {
      "icao": "ENTO",
      "alert": "OK",
      "vis_m": 9999,
      "fzfg": false,
      "metar_trigger": false,
      "taf_trigger": false,
      "metar": "METAR ENTO 032120Z AUTO 22008KT 9999 NCD 03/M03 Q1020",
      "taf": "TAF ENTO 031700Z 0318/0418 24008KT CAVOK"
    },
    {
      "icao": "ENVA",
      "alert": "OK",
      "vis_m": 9999,
      "fzfg": false,
      "metar_trigger": false,
      "taf_trigger": false,
      "metar": "METAR ENVA 032120Z 24020KT 9999 -RA SCT036TCU BKN050 04/00 Q1009 RMK WIND 670FT 24021G35KT",
      "taf": "TAF ENVA 031700Z 0318/0418 25025KT 9999 FEW020TCU BKN030"
    },
    {
      "icao": "ENZV",
      "alert": "OK",
      "vis_m": 8000,
      "fzfg": false,
      "metar_trigger": false,
      "taf_trigger": false,
      "metar": "METAR ENZV 032120Z 28011KT 8000 FEW013 05/04 Q1026",
      "taf": "TAF ENZV 031700Z 0318/0418 28012KT 9999 FEW020 SCT040"
    },
    {
      "icao": "EPGD",
      "alert": "OK",
      "vis_m": 9999,
      "fzfg": false,
      "metar_trigger": false,
      "taf_trigger": false,
      "metar": "METAR EPGD 032100Z 27006KT CAVOK 07/01 Q1023",
      "taf": "TAF EPGD 031730Z 0318/0418 23004KT CAVOK"
    },
    {
      "icao": "EPKK",
      "alert": "OK",
      "vis_m": 9999,
      "fzfg": false,
      "metar_trigger": false,
      "taf_trigger": false,
      "metar": "METAR EPKK 032100Z VRB01KT CAVOK 03/M02 Q1027",
      "taf": "TAF EPKK 032030Z 0321/0421 VRB02KT CAVOK"
    },
    {
      "icao": "EPKT",
      "alert": "OK",
      "vis_m": 9999,
      "fzfg": false,
      "metar_trigger": false,
      "taf_trigger": false,
      "metar": "METAR EPKT 032100Z 34002KT CAVOK M01/M03 Q1026",
      "taf": "TAF EPKT 031730Z 0318/0418 VRB02KT CAVOK"
    },
    {
      "icao": "EPLB",
      "alert": "OK",
      "vis_m": 9999,
      "fzfg": false,
      "metar_trigger": false,
      "taf_trigger": false,
      "metar": "METAR EPLB 032100Z VRB02KT CAVOK 04/03 Q1026",
      "taf": "TAF EPLB 031730Z 0318/0418 21004KT 9999 SCT040"
    },
    {
      "icao": "EPMO",
      "alert": "OK",
      "vis_m": 9999,
      "fzfg": false,
      "metar_trigger": false,
      "taf_trigger": false,
      "metar": "METAR EPMO 032100Z 22008KT CAVOK 07/01 Q1025",
      "taf": "TAF EPMO 031730Z 0318/0418 22005KT CAVOK"
    },
    {
      "icao": "EPPO",
      "alert": "OK",
      "vis_m": 9999,
      "fzfg": false,
      "metar_trigger": false,
      "taf_trigger": false,
      "metar": "METAR EPPO 032100Z VRB01KT 9999 3400W NSC 02/M00 Q1025",
      "taf": "TAF EPPO 031730Z 0318/0418 VRB02KT CAVOK"
    },
    {
      "icao": "EPRA",
      "alert": "OK",
      "vis_m": 9999,
      "fzfg": false,
      "metar_trigger": false,
      "taf_trigger": false,
      "metar": "METAR EPRA 032100Z 21006KT CAVOK 04/M00 Q1026",
      "taf": "TAF EPRA 032030Z 0321/0406 21006KT 8000 NSC"
    },
    {
      "icao": "EPRZ",
      "alert": "OK",
      "vis_m": 6000,
      "fzfg": false,
      "metar_trigger": false,
      "taf_trigger": false,
      "metar": "METAR EPRZ 032100Z VRB01KT 6000 NSC 03/01 Q1027",
      "taf": ""
    },
    {
      "icao": "EPSC",
      "alert": "OK",
      "vis_m": 9999,
      "fzfg": false,
      "metar_trigger": false,
      "taf_trigger": false,
      "metar": "METAR EPSC 032100Z 32005KT CAVOK 05/03 Q1026",
      "taf": "TAF EPSC 031730Z 0318/0418 22010KT CAVOK"
    },
    {
      "icao": "EPSY",
      "alert": "OK",
      "vis_m": 9999,
      "fzfg": false,
      "metar_trigger": false,
      "taf_trigger": false,
      "metar": "METAR EPSY 032100Z 21004KT CAVOK 00/00 Q1023",
      "taf": "TAF EPSY 032030Z 0321/0406 21006KT CAVOK"
    },
    {
      "icao": "EPWA",
      "alert": "OK",
      "vis_m": 9999,
      "fzfg": false,
      "metar_trigger": false,
      "taf_trigger": false,
      "metar": "METAR EPWA 032100Z 22005KT CAVOK 04/01 Q1025 NOSIG",
      "taf": "TAF EPWA 032030Z 0321/0421 23005KT CAVOK"
    },
    {
      "icao": "EPWR",
      "alert": "OK",
      "vis_m": 9999,
      "fzfg": false,
      "metar_trigger": false,
      "taf_trigger": false,
      "metar": "METAR EPWR 032100Z 19004KT CAVOK 03/00 Q1026",
      "taf": "TAF EPWR 032030Z 0321/0421 VRB02KT CAVOK"
    },
    {
      "icao": "ESGG",
      "alert": "OK",
      "vis_m": 9999,
      "fzfg": false,
      "metar_trigger": false,
      "taf_trigger": false,
      "metar": "METAR ESGG 032120Z 26007KT CAVOK 03/M00 Q1021",
      "taf": "TAF ESGG 032030Z 0321/0421 27008KT CAVOK"
    },
    {
      "icao": "ESKN",
      "alert": "OK",
      "vis_m": 9999,
      "fzfg": false,
      "metar_trigger": false,
      "taf_trigger": false,
      "metar": "METAR ESKN 032120Z 25012KT CAVOK 03/M01 Q1016",
      "taf": "TAF ESKN 032030Z 0321/0421 26012KT CAVOK"
    },
    {
      "icao": "ESMS",
      "alert": "OK",
      "vis_m": 9999,
      "fzfg": false,
      "metar_trigger": false,
      "taf_trigger": false,
      "metar": "METAR ESMS 032120Z 29008KT CAVOK 03/00 Q1025",
      "taf": "TAF ESMS 032027Z 0321/0421 30008KT CAVOK"
    },
    {
      "icao": "ESSA",
      "alert": "OK",
      "vis_m": 9999,
      "fzfg": false,
      "metar_trigger": false,
      "taf_trigger": false,
      "metar": "METAR ESSA 032120Z 25011KT CAVOK 02/M01 Q1013 NOSIG",
      "taf": "TAF ESSA 032030Z 0321/0421 25008KT CAVOK"
    },
    {
      "icao": "EYKA",
      "alert": "OK",
      "vis_m": 9999,
      "fzfg": false,
      "metar_trigger": false,
      "taf_trigger": false,
      "metar": "METAR EYKA 032120Z 21005KT 170V240 CAVOK 03/01 Q1021",
      "taf": "TAF EYKA 031705Z 0318/0418 VRB04KT 5000 BR SCT005 BKN015"
    },
    {
      "icao": "EYPA",
      "alert": "OK",
      "vis_m": 9999,
      "fzfg": false,
      "metar_trigger": false,
      "taf_trigger": false,
      "metar": "METAR EYPA 032120Z 26005KT 200V310 CAVOK 03/01 Q1019",
      "taf": "TAF EYPA 031700Z 0318/0418 28008KT 9000 NSC"
    },
    {
      "icao": "EYVI",
      "alert": "OK",
      "vis_m": 9999,
      "fzfg": false,
      "metar_trigger": false,
      "taf_trigger": false,
      "metar": "METAR EYVI 032120Z 18005KT 9999 SCT008 BKN038 02/M02 Q1021 NOSIG",
      "taf": "TAF EYVI 031710Z 0318/0418 20010KT 5000 BR SCT005 BKN015"
    },
    {
      "icao": "GCFV",
      "alert": "OK",
      "vis_m": 9999,
      "fzfg": false,
      "metar_trigger": false,
      "taf_trigger": false,
      "metar": "METAR GCFV 032100Z 28008KT 9999 SCT035 14/09 Q1015",
      "taf": ""
    },
    {
      "icao": "GCLP",
      "alert": "OK",
      "vis_m": 9999,
      "fzfg": false,
      "metar_trigger": false,
      "taf_trigger": false,
      "metar": "METAR GCLP 032100Z 02003KT 330V050 9999 FEW035 14/09 Q1017 NOSIG",
      "taf": "TAF GCLP 032000Z 0321/0421 34012KT 9999 SCT030 TX21/0414Z TN14/0406Z"
    },
    {
      "icao": "GCTS",
      "alert": "OK",
      "vis_m": 9999,
      "fzfg": false,
      "metar_trigger": false,
      "taf_trigger": false,
      "metar": "METAR GCTS 032100Z 27004KT 230V300 9999 FEW035 SCT060 17/08 Q1017 NOSIG",
      "taf": "TAF GCTS 032000Z 0321/0421 33008KT 9999 SCT035 TX22/0414Z TN13/0406Z"
    },
    {
      "icao": "GMAD",
      "alert": "OK",
      "vis_m": 8000,
      "fzfg": false,
      "metar_trigger": false,
      "taf_trigger": false,
      "metar": "METAR GMAD 032100Z 00000KT 8000 FEW020TCU SCT080 09/07 Q1012 NOSIG",
      "taf": ""
    },
    {
      "icao": "GMMN",
      "alert": "OK",
      "vis_m": 9999,
      "fzfg": false,
      "metar_trigger": false,
      "taf_trigger": false,
      "metar": "METAR GMMN 032100Z 19005KT 160V220 9999 SCT030 SCT080 09/07 Q1011 NOSIG",
      "taf": "TAF GMMN 031700Z 0318/0424 16012KT 9999 SCT030"
    },
    {
      "icao": "GMMX",
      "alert": "OK",
      "vis_m": 8000,
      "fzfg": false,
      "metar_trigger": false,
      "taf_trigger": false,
      "metar": "METAR GMMX 032100Z 29003KT 230V340 8000 SCT030 09/05 Q1011 NOSIG",
      "taf": "TAF GMMX 031700Z 0318/0424 28012KT 8000 BKN023"
    },
    {
      "icao": "HEGN",
      "alert": "OK",
      "vis_m": 9999,
      "fzfg": false,
      "metar_trigger": false,
      "taf_trigger": false,
      "metar": "METAR HEGN 032100Z 29012KT CAVOK 16/03 Q1020 NOSIG",
      "taf": "TAF HEGN 031700Z 0318/0424 33008G20KT CAVOK"
    },
    {
      "icao": "HEMA",
      "alert": "OK",
      "vis_m": 9999,
      "fzfg": false,
      "metar_trigger": false,
      "taf_trigger": false,
      "metar": "METAR HEMA 032100Z 30011KT CAVOK 18/06 Q1019 NOSIG",
      "taf": "TAF HEMA 031700Z 0318/0424 34008G20KT 6000 NSC"
    },
    {
      "icao": "HESH",
      "alert": "OK",
      "vis_m": 9999,
      "fzfg": false,
      "metar_trigger": false,
      "taf_trigger": false,
      "metar": "METAR HESH 032100Z 34013KT CAVOK 20/07 Q1019 NOSIG",
      "taf": "TAF HESH 031700Z 0318/0424 03006G18KT CAVOK"
    },
    {
      "icao": "HESX",
      "alert": "OK",
      "vis_m": 9999,
      "fzfg": false,
      "metar_trigger": false,
      "taf_trigger": false,
      "metar": "METAR HESX 032100Z 02004KT CAVOK 11/07 Q1024 NOSIG",
      "taf": "TAF HESX 031700Z 0318/0424 01009KT 9999 SCT020"
    },
    {
      "icao": "LATI",
      "alert": "OK",
      "vis_m": 5000,
      "fzfg": false,
      "metar_trigger": false,
      "taf_trigger": false,
      "metar": "METAR LATI 032120Z VRB02KT 5000 NSC 09/06 Q1027 NOSIG",
      "taf": "TAF LATI 031700Z 0318/0418 VRB03KT CAVOK TX19/0412Z TN04/0403Z"
    },
    {
      "icao": "LBPD",
      "alert": "OK",
      "vis_m": 9999,
      "fzfg": false,
      "metar_trigger": false,
      "taf_trigger": false,
      "metar": "METAR LBPD 032100Z AUTO 00000KT 9999 FEW084/// 04/01 Q1028",
      "taf": "TAF LBPD 031700Z 0318/0418 VRB03KT 9999 SCT080"
    },
    {
      "icao": "LBSF",
      "alert": "OK",
      "vis_m": 9999,
      "fzfg": false,
      "metar_trigger": false,
      "taf_trigger": false,
      "metar": "METAR LBSF 032100Z AUTO VRB02KT 9999 NSC 04/00 Q1028 NOSIG",
      "taf": "TAF LBSF 031700Z 0318/0418 VRB03KT 9999 SCT060"
    },
    {
      "icao": "LBWN",
      "alert": "OK",
      "vis_m": 9000,
      "fzfg": false,
      "metar_trigger": false,
      "taf_trigger": false,
      "metar": "METAR LBWN 032100Z AUTO 31002KT 9000 NCD 03/03 Q1028 NOSIG",
      "taf": "TAF LBWN 031700Z 0318/0418 VRB04KT CAVOK"
    },
    {
      "icao": "LCLK",
      "alert": "OK",
      "vis_m": 9999,
      "fzfg": false,
      "metar_trigger": false,
      "taf_trigger": false,
      "metar": "METAR LCLK 032100Z 31005KT CAVOK 09/05 Q1022 NOSIG",
      "taf": "TAF LCLK 031730Z 0318/0418 30006KT 9999 FEW030"
    },
    {
      "icao": "LCPH",
      "alert": "OK",
      "vis_m": 9999,
      "fzfg": false,
      "metar_trigger": false,
      "taf_trigger": false,
      "metar": "METAR LCPH 032100Z 01006KT 9999 FEW030 10/06 Q1023 NOSIG",
      "taf": "TAF LCPH 031730Z 0318/0418 03010KT 9999 FEW020"
    },
    {
      "icao": "LEAL",
      "alert": "OK",
      "vis_m": 9999,
      "fzfg": false,
      "metar_trigger": false,
      "taf_trigger": false,
      "metar": "METAR LEAL 032100Z 07005KT 020V100 CAVOK 16/10 Q1015 NOSIG",
      "taf": "TAF LEAL 031700Z 0318/0418 05015KT 9999 FEW020 TX20/0412Z TN12/0407Z"
    },
    {
      "icao": "LEBB",
      "alert": "OK",
      "vis_m": 9999,
      "fzfg": false,
      "metar_trigger": false,
      "taf_trigger": false,
      "metar": "METAR LEBB 032100Z 09005KT 070V140 CAVOK 13/08 Q1020 NOSIG",
      "taf": "TAF LEBB 031700Z 0318/0418 13009KT CAVOK TX21/0415Z TN09/0407Z"
    },
    {
      "icao": "LEBL",
      "alert": "OK",
      "vis_m": 9999,
      "fzfg": false,
      "metar_trigger": false,
      "taf_trigger": false,
      "metar": "METAR LEBL 032100Z 06024G34KT 9999 FEW015 SCT060 15/10 Q1021 NOSIG",
      "taf": "TAF LEBL 031700Z 0318/0418 05015KT 9999 FEW020 TX17/0412Z TN13/0406Z"
    },
    {
      "icao": "LECH",
      "alert": "OK",
      "vis_m": 9999,
      "fzfg": false,
      "metar_trigger": false,
      "taf_trigger": false,
      "metar": "METAR LECH 032100Z AUTO 05013KT 9999 FEW020 12/09 Q1021",
      "taf": ""
    },
    {
      "icao": "LEMD",
      "alert": "OK",
      "vis_m": 9999,
      "fzfg": false,
      "metar_trigger": false,
      "taf_trigger": false,
      "metar": "METAR LEMD 032100Z 05003KT 310V120 CAVOK 11/06 Q1017 NOSIG",
      "taf": "TAF LEMD 031700Z 0318/0424 02006KT 9999 SCT060 TX18/0414Z TN07/0407Z"
    },
    {
      "icao": "LEMG",
      "alert": "OK",
      "vis_m": 9999,
      "fzfg": false,
      "metar_trigger": false,
      "taf_trigger": false,
      "metar": "METAR LEMG 032100Z VRB02KT 9999 FEW050 14/10 Q1010 NOSIG",
      "taf": "TAF LEMG 031700Z 0318/0418 18005KT 9999 FEW040 TX17/0414Z TN12/0407Z"
    },
    {
      "icao": "LEVC",
      "alert": "OK",
      "vis_m": 9999,
      "fzfg": false,
      "metar_trigger": false,
      "taf_trigger": false,
      "metar": "METAR LEVC 032100Z 05013KT 020V080 9999 BKN019 OVC021 14/10 Q1020 NOSIG",
      "taf": "TAF LEVC 031700Z 0318/0418 05010KT 9999 BKN020 TX16/0412Z TN13/0407Z"
    },
    {
      "icao": "LEXJ",
      "alert": "OK",
      "vis_m": 9999,
      "fzfg": false,
      "metar_trigger": false,
      "taf_trigger": false,
      "metar": "METAR LEXJ 032100Z 16004KT 100V210 CAVOK 13/05 Q1019",
      "taf": "TAF LEXJ 032000Z 0321/0421 13007KT CAVOK TX21/0412Z TN09/0407Z"
    },
    {
      "icao": "LEZG",
      "alert": "OK",
      "vis_m": 9999,
      "fzfg": false,
      "metar_trigger": false,
      "taf_trigger": false,
      "metar": "METAR LEZG 032100Z 20003KT CAVOK 12/10 Q1021 NOSIG",
      "taf": "TAF LEZG 031700Z 0318/0418 VRB03KT 9999 FEW030 TX18/0415Z TN07/0406Z"
    },
    {
      "icao": "LEZL",
      "alert": "OK",
      "vis_m": 9999,
      "fzfg": false,
      "metar_trigger": false,
      "taf_trigger": false,
      "metar": "METAR LEZL 032100Z VRB02KT CAVOK 16/12 Q1010 NOSIG",
      "taf": "TAF LEZL 032000Z 0321/0421 VRB03KT CAVOK TX18/0415Z TN11/0407Z"
    },
    {
      "icao": "LFBD",
      "alert": "OK",
      "vis_m": 9999,
      "fzfg": false,
      "metar_trigger": false,
      "taf_trigger": false,
      "metar": "METAR LFBD 032100Z AUTO 10006KT CAVOK 14/09 Q1022 NOSIG",
      "taf": "TAF LFBD 031700Z 0318/0424 12010KT CAVOK TX19/0414Z TN07/0406Z"
    },
    {
      "icao": "LFLL",
      "alert": "OK",
      "vis_m": 9999,
      "fzfg": false,
      "metar_trigger": false,
      "taf_trigger": false,
      "metar": "METAR LFLL 032100Z 13004KT 360V150 CAVOK 10/05 Q1025 NOSIG",
      "taf": "TAF LFLL 031700Z 0318/0424 14004KT CAVOK"
    },
    {
      "icao": "LFLS",
      "alert": "OK",
      "vis_m": 9999,
      "fzfg": false,
      "metar_trigger": false,
      "taf_trigger": false,
      "metar": "METAR LFLS 032100Z AUTO 09006KT CAVOK 06/05 Q1025",
      "taf": "TAF LFLS 031400Z 0315/0415 VRB03KT CAVOK"
    },
    {
      "icao": "LFMN",
      "alert": "OK",
      "vis_m": 9999,
      "fzfg": false,
      "metar_trigger": false,
      "taf_trigger": false,
      "metar": "METAR LFMN 032100Z 34006KT 320V050 CAVOK 12/08 Q1025 NOSIG",
      "taf": "TAF LFMN 032000Z 0321/0503 08015KT CAVOK"
    },
    {
      "icao": "LFOB",
      "alert": "OK",
      "vis_m": 9999,
      "fzfg": false,
      "metar_trigger": false,
      "taf_trigger": false,
      "metar": "METAR LFOB 032100Z AUTO 00000KT CAVOK 09/07 Q1026 NOSIG",
      "taf": "TAF LFOB 031700Z 0318/0418 04005KT CAVOK"
    },
    {
      "icao": "LFPO",
      "alert": "OK",
      "vis_m": 9999,
      "fzfg": false,
      "metar_trigger": false,
      "taf_trigger": false,
      "metar": "METAR LFPO 032100Z 05005KT CAVOK 11/06 Q1025 NOSIG",
      "taf": "TAF LFPO 031700Z 0318/0424 09004KT CAVOK"
    },
    {
      "icao": "LFSB",
      "alert": "OK",
      "vis_m": 9999,
      "fzfg": false,
      "metar_trigger": false,
      "taf_trigger": false,
      "metar": "METAR LFSB 032100Z AUTO 00000KT CAVOK 07/04 Q1026 NOSIG",
      "taf": "TAF LFSB 031700Z 0318/0418 34003KT CAVOK"
    },
    {
      "icao": "LGAV",
      "alert": "OK",
      "vis_m": 9999,
      "fzfg": false,
      "metar_trigger": false,
      "taf_trigger": false,
      "metar": "METAR LGAV 032120Z 28004KT 9999 FEW025 07/05 Q1027 NOSIG",
      "taf": "TAF LGAV 031700Z 0318/0418 VRB05KT 9999 FEW020"
    },
    {
      "icao": "LGTS",
      "alert": "OK",
      "vis_m": 9999,
      "fzfg": false,
      "metar_trigger": false,
      "taf_trigger": false,
      "metar": "METAR LGTS 032120Z VRB03KT 9999 FEW025 08/08 Q1027 NOSIG",
      "taf": "TAF LGTS 031700Z 0318/0418 VRB03KT 9999 FEW025"
    },
    {
      "icao": "LHBP",
      "alert": "OK",
      "vis_m": 9999,
      "fzfg": false,
      "metar_trigger": false,
      "taf_trigger": false,
      "metar": "METAR LHBP 032100Z 00000KT CAVOK 02/M02 Q1028 NOSIG",
      "taf": "TAF LHBP 031715Z 0318/0418 36003KT CAVOK"
    },
    {
      "icao": "LHDC",
      "alert": "OK",
      "vis_m": 9999,
      "fzfg": false,
      "metar_trigger": false,
      "taf_trigger": false,
      "metar": "METAR LHDC 032045Z AUTO 07002KT CAVOK 03/M01 Q1028",
      "taf": ""
    },
    {
      "icao": "LIBD",
      "alert": "OK",
      "vis_m": 8000,
      "fzfg": false,
      "metar_trigger": false,
      "taf_trigger": false,
      "metar": "METAR LIBD 032120Z 22005KT 8000 NSC 08/08 Q1028",
      "taf": "TAF LIBD 031700Z 0318/0418 VRB05KT 7000 SCT030"
    },
    {
      "icao": "LIBG",
      "alert": "OK",
      "vis_m": null,
      "fzfg": false,
      "metar_trigger": false,
      "taf_trigger": false,
      "metar": "",
      "taf": "TAF LIBG 031700Z 0318/0403 VRB06KT 9999 FEW020"
    },
    {
      "icao": "LIBP",
      "alert": "OK",
      "vis_m": 3900,
      "fzfg": false,
      "metar_trigger": false,
      "taf_trigger": false,
      "metar": "METAR LIBP 032120Z AUTO VRB02KT 3900 BR NCD 09/09 Q1028",
      "taf": "TAF LIBP 031700Z 0318/0418 VRB05KT 7000 FEW020"
    },
    {
      "icao": "LIBR",
      "alert": "OK",
      "vis_m": 9999,
      "fzfg": false,
      "metar_trigger": false,
      "taf_trigger": false,
      "metar": "METAR LIBR 032120Z 29004KT CAVOK 10/10 Q1027",
      "taf": "TAF LIBR 031700Z 0318/0418 VRB05KT 7000 SCT020"
    },
    {
      "icao": "LICA",
      "alert": "OK",
      "vis_m": 9999,
      "fzfg": false,
      "metar_trigger": false,
      "taf_trigger": false,
      "metar": "METAR LICA 032120Z AUTO 03012KT 9999 NCD 13/11 Q1027",
      "taf": "TAF LICA 031700Z 0318/0418 07015G25KT CAVOK"
    },
    {
      "icao": "LICC",
      "alert": "OK",
      "vis_m": 9999,
      "fzfg": false,
      "metar_trigger": false,
      "taf_trigger": false,
      "metar": "METAR LICC 032120Z 09003KT 9999 FEW020 BKN130 15/12 Q1027",
      "taf": "TAF LICC 031700Z 0318/0418 08010KT 9999 SCT040"
    },
    {
      "icao": "LICJ",
      "alert": "OK",
      "vis_m": 9999,
      "fzfg": false,
      "metar_trigger": false,
      "taf_trigger": false,
      "metar": "METAR LICJ 032120Z 09008KT CAVOK 14/10 Q1024",
      "taf": "TAF LICJ 031700Z 0318/0418 04013KT 9999 SCT025"
    },
    {
      "icao": "LIMC",
      "alert": "OK",
      "vis_m": 9999,
      "fzfg": false,
      "metar_trigger": false,
      "taf_trigger": false,
      "metar": "METAR LIMC 032120Z VRB01KT CAVOK 07/06 Q1027 NOSIG",
      "taf": "TAF LIMC 031700Z 0318/0424 VRB05KT 9999 FEW030"
    },
    {
      "icao": "LIME",
      "alert": "OK",
      "vis_m": 8000,
      "fzfg": false,
      "metar_trigger": false,
      "taf_trigger": false,
      "metar": "METAR LIME 032120Z 36002KT 8000 BKN060 11/08 Q1028 NOSIG",
      "taf": "TAF LIME 031700Z 0318/0418 VRB05KT 9999 SCT030"
    },
    {
      "icao": "LIMF",
      "alert": "OK",
      "vis_m": 6000,
      "fzfg": false,
      "metar_trigger": false,
      "taf_trigger": false,
      "metar": "METAR LIMF 032120Z VRB02KT 6000 NSC 09/06 Q1027",
      "taf": "TAF LIMF 031700Z 0318/0418 VRB04KT 6000 SCT030"
    },
    {
      "icao": "LIMJ",
      "alert": "OK",
      "vis_m": 9999,
      "fzfg": false,
      "metar_trigger": false,
      "taf_trigger": false,
      "metar": "METAR LIMJ 032120Z AUTO 03007KT 9999 SCT081/// BKN210/// 13/08 Q1027",
      "taf": "TAF LIMJ 031700Z 0318/0418 VRB05KT 9999 FEW050"
    },
    {
      "icao": "LIPE",
      "alert": "OK",
      "vis_m": 8000,
      "fzfg": false,
      "metar_trigger": false,
      "taf_trigger": false,
      "metar": "METAR LIPE 032050Z 20003KT 8000 NSC 09/07 Q1028",
      "taf": "TAF LIPE 031700Z 0318/0418 VRB04KT 6000 SCT015"
    },
    {
      "icao": "LIPH",
      "alert": "OK",
      "vis_m": 4000,
      "fzfg": false,
      "metar_trigger": false,
      "taf_trigger": false,
      "metar": "METAR LIPH 032120Z 36002KT 4000 BR NSC 08/07 Q1028",
      "taf": "TAF LIPH 031700Z 0318/0418 VRB04KT 5000 BR SCT030"
    },
    {
      "icao": "LIPQ",
      "alert": "OK",
      "vis_m": 350,
      "fzfg": false,
      "metar_trigger": false,
      "taf_trigger": false,
      "metar": "METAR LIPQ 032120Z AUTO 13002KT 0350 R09/1500U FG NCD 07/07 Q1028",
      "taf": "TAF LIPQ 031700Z 0318/0418 VRB05KT 6000 SCT030"
    },
    {
      "icao": "LIPR",
      "alert": "OK",
      "vis_m": 5000,
      "fzfg": false,
      "metar_trigger": false,
      "taf_trigger": false,
      "metar": "METAR LIPR 032120Z 13002KT 5000 BR BKN015 10/09 Q1028",
      "taf": "TAF LIPR 031700Z 0318/0418 VRB05KT 5000 BR BKN010"
    },
    {
      "icao": "LIPX",
      "alert": "OK",
      "vis_m": 7000,
      "fzfg": false,
      "metar_trigger": false,
      "taf_trigger": false,
      "metar": "METAR LIPX 032120Z 09002KT 7000 MIFG NSC 09/07 Q1028",
      "taf": "TAF LIPX 031700Z 0318/0418 VRB05KT 7000 SCT025"
    },
    {
      "icao": "LIPY",
      "alert": "OK",
      "vis_m": 7000,
      "fzfg": false,
      "metar_trigger": false,
      "taf_trigger": false,
      "metar": "METAR LIPY 032120Z AUTO VRB02KT 7000 OVC007/// 10/09 Q1028",
      "taf": "TAF LIPY 031700Z 0318/0418 VRB05KT 6000 BKN006"
    },
    {
      "icao": "LIPZ",
      "alert": "OK",
      "vis_m": 9999,
      "fzfg": false,
      "metar_trigger": false,
      "taf_trigger": false,
      "metar": "METAR LIPZ 032120Z VRB01KT CAVOK 08/08 Q1028 NOSIG",
      "taf": "TAF LIPZ 031700Z 0318/0424 VRB04KT CAVOK"
    },
    {
      "icao": "LIRF",
      "alert": "OK",
      "vis_m": 9999,
      "fzfg": false,
      "metar_trigger": false,
      "taf_trigger": false,
      "metar": "METAR LIRF 032120Z 06004KT CAVOK 11/10 Q1026 NOSIG",
      "taf": "TAF LIRF 031700Z 0318/0424 04006KT CAVOK"
    },
    {
      "icao": "LIRN",
      "alert": "OK",
      "vis_m": 6000,
      "fzfg": false,
      "metar_trigger": false,
      "taf_trigger": false,
      "metar": "METAR LIRN 032120Z 05001KT 6000 NSC 11/10 Q1026 NOSIG",
      "taf": "TAF LIRN 031700Z 0318/0418 VRB05KT CAVOK"
    },
    {
      "icao": "LIRP",
      "alert": "OK",
      "vis_m": 9999,
      "fzfg": false,
      "metar_trigger": false,
      "taf_trigger": false,
      "metar": "METAR LIRP 032115Z VRB01KT CAVOK 12/12 Q1026 NOSIG",
      "taf": "TAF LIRP 031700Z 0318/0418 26006KT 9999 SCT030 SCT060"
    },
    {
      "icao": "LIRZ",
      "alert": "OK",
      "vis_m": 9999,
      "fzfg": false,
      "metar_trigger": false,
      "taf_trigger": false,
      "metar": "METAR LIRZ 032120Z 35007KT CAVOK 10/08 Q1026",
      "taf": "TAF LIRZ 031700Z 0318/0418 VRB05KT 9999 SCT040"
    },
    {
      "icao": "LJLJ",
      "alert": "OK",
      "vis_m": 9999,
      "fzfg": false,
      "metar_trigger": false,
      "taf_trigger": false,
      "metar": "METAR LJLJ 032100Z 26002KT CAVOK 04/02 Q1028 NOSIG",
      "taf": "TAF LJLJ 031700Z 0318/0418 VRB02KT 9999 FEW040"
    },
    {
      "icao": "LKMT",
      "alert": "OK",
      "vis_m": 9999,
      "fzfg": false,
      "metar_trigger": false,
      "taf_trigger": false,
      "metar": "METAR LKMT 032100Z 22004KT CAVOK 05/02 Q1027 NOSIG",
      "taf": "TAF LKMT 031700Z 0318/0418 23003KT CAVOK"
    },
    {
      "icao": "LKPR",
      "alert": "OK",
      "vis_m": 5000,
      "fzfg": false,
      "metar_trigger": false,
      "taf_trigger": false,
      "metar": "METAR LKPR 032100Z VRB02KT 5000 BR NSC 00/M00 Q1027 NOSIG",
      "taf": "TAF LKPR 032000Z 0321/0503 VRB02KT 6000 NSC"
    },
    {
      "icao": "LLBG",
      "alert": "OK",
      "vis_m": 9999,
      "fzfg": false,
      "metar_trigger": false,
      "taf_trigger": false,
      "metar": "METAR LLBG 032120Z 15005KT CAVOK 12/05 Q1023 NOSIG",
      "taf": "TAF LLBG 031703Z 0318/0418 VRB04KT CAVOK TX19/0412Z TN07/0404Z"
    },
    {
      "icao": "LMML",
      "alert": "OK",
      "vis_m": 9999,
      "fzfg": false,
      "metar_trigger": false,
      "taf_trigger": false,
      "metar": "METAR LMML 032115Z 10010KT 9999 FEW008 SCT010 15/14 Q1025 TEMPO BKN010",
      "taf": "TAF LMML 031910Z 0319/0418 12012KT 9999 SCT013"
    },
    {
      "icao": "LOWW",
      "alert": "OK",
      "vis_m": 9999,
      "fzfg": false,
      "metar_trigger": false,
      "taf_trigger": false,
      "metar": "METAR LOWW 032120Z 25003KT CAVOK 07/03 Q1027 NOSIG",
      "taf": "TAF LOWW 032015Z 0321/0503 VRB04KT CAVOK TX13/0414Z TN02/0405Z"
    },
    {
      "icao": "LPFR",
      "alert": "OK",
      "vis_m": 9999,
      "fzfg": false,
      "metar_trigger": false,
      "taf_trigger": false,
      "metar": "METAR LPFR 032100Z VRB02KT 9999 FEW018 15/11 Q1012",
      "taf": "TAF LPFR 031700Z 0318/0418 05007KT 9999 SCT020"
    },
    {
      "icao": "LPMA",
      "alert": "OK",
      "vis_m": 9999,
      "fzfg": false,
      "metar_trigger": false,
      "taf_trigger": false,
      "metar": "METAR LPMA 032100Z 35023G37KT 300V030 9999 BKN015 FEW018CB 15/08 Q1016",
      "taf": "TAF LPMA 031700Z 0318/0418 35020G32KT 9999 SCT015"
    },
    {
      "icao": "LPPR",
      "alert": "OK",
      "vis_m": 9999,
      "fzfg": false,
      "metar_trigger": false,
      "taf_trigger": false,
      "metar": "METAR LPPR 032100Z 01004KT CAVOK 12/11 Q1015",
      "taf": "TAF LPPR 031700Z 0318/0418 33007KT CAVOK"
    },
    {
      "icao": "LPPS",
      "alert": "OK",
      "vis_m": 9999,
      "fzfg": false,
      "metar_trigger": false,
      "taf_trigger": false,
      "metar": "METAR LPPS 032100Z 35030G43KT 9999 -SHRA BKN012 FEW016TCU 14/11 Q1016",
      "taf": "TAF LPPS 031700Z 0318/0424 34023KT 9999 SCT015"
    },
    {
      "icao": "LPPT",
      "alert": "OK",
      "vis_m": 9999,
      "fzfg": false,
      "metar_trigger": false,
      "taf_trigger": false,
      "metar": "METAR LPPT 032100Z 36006KT CAVOK 15/09 Q1014",
      "taf": "TAF LPPT 031700Z 0318/0424 04013KT CAVOK"
    },
    {
      "icao": "LQBK",
      "alert": "OK",
      "vis_m": 9999,
      "fzfg": false,
      "metar_trigger": false,
      "taf_trigger": false,
      "metar": "METAR LQBK 032100Z 29004KT CAVOK 05/02 Q1028 NOSIG",
      "taf": "TAF LQBK 031700Z 0318/0418 VRB02KT CAVOK TX17/0414Z TN03/0406Z"
    },
    {
      "icao": "LQSA",
      "alert": "OK",
      "vis_m": 9999,
      "fzfg": false,
      "metar_trigger": false,
      "taf_trigger": false,
      "metar": "METAR LQSA 032100Z VRB02KT CAVOK 04/02 Q1027 NOSIG",
      "taf": "TAF LQSA 031700Z 0318/0418 VRB02KT 9999 SCT050 TX17/0414Z TN01/0405Z"
    },
    {
      "icao": "LQTZ",
      "alert": "OK",
      "vis_m": 9999,
      "fzfg": false,
      "metar_trigger": false,
      "taf_trigger": false,
      "metar": "METAR LQTZ 032100Z 25002KT CAVOK 04/03 Q1028",
      "taf": "TAF LQTZ 031700Z 0318/0418 06005KT 9999 SCT050 TX16/0414Z TN01/0405Z"
    },
    {
      "icao": "LRBC",
      "alert": "OK",
      "vis_m": 9999,
      "fzfg": false,
      "metar_trigger": false,
      "taf_trigger": false,
      "metar": "METAR LRBC 032100Z 36005KT 9999 SCT041 05/01 Q1029",
      "taf": "TAF LRBC 032000Z 0321/0406 VRB04KT CAVOK"
    },
    {
      "icao": "LRBS",
      "alert": "OK",
      "vis_m": 3000,
      "fzfg": false,
      "metar_trigger": false,
      "taf_trigger": false,
      "metar": "METAR LRBS 032100Z 00000KT 3000 MIFG BR NSC 02/01 Q1029 BECMG 0800 FG",
      "taf": "TAF LRBS 031700Z 0318/0418 25004KT CAVOK"
    },
    {
      "icao": "LRBV",
      "alert": "OK",
      "vis_m": 9999,
      "fzfg": false,
      "metar_trigger": false,
      "taf_trigger": false,
      "metar": "METAR LRBV 032100Z 20012KT CAVOK 02/M01 Q1027",
      "taf": "TAF LRBV 032000Z 0321/0406 24008KT CAVOK"
    },
    {
      "icao": "LRCL",
      "alert": "OK",
      "vis_m": 9999,
      "fzfg": false,
      "metar_trigger": false,
      "taf_trigger": false,
      "metar": "METAR LRCL 032100Z VRB02KT CAVOK 03/M02 Q1028",
      "taf": "TAF LRCL 032000Z 0321/0406 VRB04KT CAVOK"
    },
    {
      "icao": "LRCV",
      "alert": "OK",
      "vis_m": 4900,
      "fzfg": false,
      "metar_trigger": false,
      "taf_trigger": false,
      "metar": "METAR LRCV 032100Z VRB01KT 4900 BR NSC 01/01 Q1028",
      "taf": "TAF LRCV 032000Z 0321/0406 VRB04KT 5000 BR NSC"
    },
    {
      "icao": "LRIA",
      "alert": "OK",
      "vis_m": 9999,
      "fzfg": false,
      "metar_trigger": false,
      "taf_trigger": false,
      "metar": "METAR LRIA 032100Z 24006KT CAVOK 03/01 Q1028",
      "taf": "TAF LRIA 032000Z 0321/0406 VRB04KT CAVOK"
    },
    {
      "icao": "LROP",
      "alert": "OK",
      "vis_m": 5000,
      "fzfg": false,
      "metar_trigger": false,
      "taf_trigger": false,
      "metar": "METAR LROP 032100Z VRB01KT 5000 BR NSC 02/02 Q1029 BECMG 3000 BR",
      "taf": "TAF LROP 031700Z 0318/0418 25004KT CAVOK"
    },
    {
      "icao": "LRSB",
      "alert": "OK",
      "vis_m": 9999,
      "fzfg": false,
      "metar_trigger": false,
      "taf_trigger": false,
      "metar": "METAR LRSB 032100Z 16002KT CAVOK 04/01 Q1027",
      "taf": "TAF LRSB 031700Z 0318/0418 VRB04KT CAVOK"
    },
    {
      "icao": "LRSM",
      "alert": "OK",
      "vis_m": 9999,
      "fzfg": false,
      "metar_trigger": false,
      "taf_trigger": false,
      "metar": "METAR LRSM 032100Z AUTO 22004KT 9999 NCD 03/00 Q1028",
      "taf": "TAF LRSM 031400Z 0315/0324 VRB04KT CAVOK"
    },
    {
      "icao": "LRSV",
      "alert": "OK",
      "vis_m": 9999,
      "fzfg": false,
      "metar_trigger": false,
      "taf_trigger": false,
      "metar": "METAR LRSV 032100Z 27005KT CAVOK 03/01 Q1027",
      "taf": "TAF LRSV 032000Z 0321/0406 27006KT CAVOK"
    },
    {
      "icao": "LRTM",
      "alert": "OK",
      "vis_m": 9999,
      "fzfg": false,
      "metar_trigger": false,
      "taf_trigger": false,
      "metar": "METAR LRTM 032100Z AUTO VRB01KT 9999 NCD 01/M02 Q1028",
      "taf": "TAF LRTM 031400Z 0315/0324 VRB04KT CAVOK"
    },
    {
      "icao": "LRTR",
      "alert": "OK",
      "vis_m": 9999,
      "fzfg": false,
      "metar_trigger": false,
      "taf_trigger": false,
      "metar": "METAR LRTR 032100Z COR 00000KT CAVOK 03/03 Q1028",
      "taf": "TAF LRTR 031700Z 0318/0418 VRB04KT CAVOK"
    },
    {
      "icao": "LTAC",
      "alert": "OK",
      "vis_m": 9999,
      "fzfg": false,
      "metar_trigger": false,
      "taf_trigger": false,
      "metar": "METAR LTAC 032120Z 32013KT 290V010 9999 FEW040 BKN180 05/M03 Q1021 NOSIG",
      "taf": "TAF LTAC 031640Z 0318/0418 VRB02KT 9999 FEW040 SCT100 BKN180"
    },
    {
      "icao": "LTFM",
      "alert": "OK",
      "vis_m": 4800,
      "fzfg": false,
      "metar_trigger": false,
      "taf_trigger": false,
      "metar": "METAR LTFM 032120Z VRB02KT 4800 BR SCT006 05/04 Q1028 NOSIG",
      "taf": "TAF LTFM 031640Z 0318/0424 VRB02KT 3200 BR BKN004"
    },
    {
      "icao": "LUKK",
      "alert": "OK",
      "vis_m": 9999,
      "fzfg": false,
      "metar_trigger": false,
      "taf_trigger": false,
      "metar": "METAR LUKK 032100Z 33003KT 290V350 CAVOK 03/00 Q1027 NOSIG",
      "taf": "TAF LUKK 031711Z 0318/0418 33009KT 9999 SCT035"
    },
    {
      "icao": "LWOH",
      "alert": "OK",
      "vis_m": null,
      "fzfg": false,
      "metar_trigger": false,
      "taf_trigger": false,
      "metar": "",
      "taf": "TAF LWOH 032010Z 0321/0421 VRB02KT CAVOK"
    },
    {
      "icao": "LWSK",
      "alert": "OK",
      "vis_m": 9999,
      "fzfg": false,
      "metar_trigger": false,
      "taf_trigger": false,
      "metar": "METAR LWSK 032120Z VRB01KT CAVOK 06/01 Q1027 NOSIG",
      "taf": "TAF LWSK 032010Z 0321/0421 VRB02KT CAVOK"
    },
    {
      "icao": "LYBE",
      "alert": "OK",
      "vis_m": 7000,
      "fzfg": false,
      "metar_trigger": false,
      "taf_trigger": false,
      "metar": "METAR LYBE 032100Z 01003KT 7000 NSC 05/03 Q1028 NOSIG",
      "taf": "TAF LYBE 031700Z 0318/0418 VRB02KT 8000 NSC TX17/0413Z TN02/0405Z"
    },
    {
      "icao": "LYNI",
      "alert": "OK",
      "vis_m": 9999,
      "fzfg": false,
      "metar_trigger": false,
      "taf_trigger": false,
      "metar": "METAR LYNI 032100Z VRB01KT 9999 BKN080 09/04 Q1028 NOSIG",
      "taf": "TAF LYNI 031700Z 0318/0418 34005KT 9999 SCT080 TX19/0414Z TN01/0405Z"
    },
    {
      "icao": "LYPG",
      "alert": "OK",
      "vis_m": 9999,
      "fzfg": false,
      "metar_trigger": false,
      "taf_trigger": false,
      "metar": "METAR LYPG 032100Z 36003KT CAVOK 10/07 Q1027 NOSIG",
      "taf": "TAF LYPG 031700Z 0318/0418 36005KT CAVOK TX18/0413Z TN06/0405Z"
    },
    {
      "icao": "LZIB",
      "alert": "OK",
      "vis_m": 9999,
      "fzfg": false,
      "metar_trigger": false,
      "taf_trigger": false,
      "metar": "METAR LZIB 032100Z 36003KT CAVOK 06/04 Q1027 NOSIG",
      "taf": "TAF LZIB 031715Z 0318/0418 VRB02KT CAVOK"
    },
    {
      "icao": "LZKZ",
      "alert": "OK",
      "vis_m": 9999,
      "fzfg": false,
      "metar_trigger": false,
      "taf_trigger": false,
      "metar": "METAR LZKZ 032100Z 36002KT CAVOK 04/M02 Q1027 NOSIG",
      "taf": "TAF LZKZ 031715Z 0318/0418 VRB02KT CAVOK"
    },
    {
      "icao": "LZTT",
      "alert": "OK",
      "vis_m": 9999,
      "fzfg": false,
      "metar_trigger": false,
      "taf_trigger": false,
      "metar": "METAR LZTT 032100Z 30004KT CAVOK 02/M03 Q1027",
      "taf": "TAF LZTT 031715Z 0318/0418 24005KT CAVOK"
    },
    {
      "icao": "OEJN",
      "alert": "OK",
      "vis_m": 9999,
      "fzfg": false,
      "metar_trigger": false,
      "taf_trigger": false,
      "metar": "METAR OEJN 032100Z 02003KT CAVOK 20/05 Q1016 NOSIG",
      "taf": "TAF OEJN 031700Z 0318/0424 34006KT 9999 FEW040"
    },
    {
      "icao": "OEMA",
      "alert": "OK",
      "vis_m": 9999,
      "fzfg": false,
      "metar_trigger": false,
      "taf_trigger": false,
      "metar": "METAR OEMA 032100Z 04014KT CAVOK 18/M07 Q1020 NOSIG",
      "taf": "TAF OEMA 031700Z 0318/0424 02008KT CAVOK"
    },
    {
      "icao": "OJAI",
      "alert": "OK",
      "vis_m": 5000,
      "fzfg": false,
      "metar_trigger": false,
      "taf_trigger": false,
      "metar": "METAR OJAI 032100Z 00000KT 5000 HZ NSC 07/M05 Q1023 NOSIG",
      "taf": "TAF OJAI 031650Z 0318/0424 29008KT 5000 HZ NSC"
    },
    {
      "icao": "OMAA",
      "alert": "OK",
      "vis_m": 9999,
      "fzfg": false,
      "metar_trigger": false,
      "taf_trigger": false,
      "metar": "METAR OMAA 032100Z 29005KT CAVOK 24/17 Q1011 NOSIG",
      "taf": "TAF OMAA 031700Z 0318/0500 04006KT 8000 NSC"
    },
    {
      "icao": "OMDB",
      "alert": "OK",
      "vis_m": 9999,
      "fzfg": false,
      "metar_trigger": false,
      "taf_trigger": false,
      "metar": "METAR OMDB 032100Z 09003KT 040V160 CAVOK 27/12 Q1011 NOSIG",
      "taf": "TAF OMDB 031700Z 0318/0500 08005KT 8000 NSC"
    },
    {
      "icao": "UAAA",
      "alert": "OK",
      "vis_m": 150,
      "fzfg": false,
      "metar_trigger": false,
      "taf_trigger": false,
      "metar": "METAR UAAA 032100Z 34002MPS 270V040 0150 R23L/0550N FG VV001 00/00 Q1020 NOSIG RMK QBB050",
      "taf": ""
    },
    {
      "icao": "UBBB",
      "alert": "OK",
      "vis_m": 9999,
      "fzfg": false,
      "metar_trigger": false,
      "taf_trigger": false,
      "metar": "METAR UBBB 032100Z 20008KT CAVOK 07/02 Q1018 NOSIG",
      "taf": "TAF UBBB 031704Z 0318/0418 19008KT 9999 SCT030 TX12/0410Z TN04/0401Z"
    },
    {
      "icao": "UDSG",
      "alert": "OK",
      "vis_m": 9999,
      "fzfg": false,
      "metar_trigger": false,
      "taf_trigger": false,
      "metar": "METAR UDSG 032100Z 13002KT 9999 BKN043 M06/M07 Q1019 NOSIG",
      "taf": "TAF UDSG 031658Z 0318/0418 VRB06KT 9999 SCT040"
    },
    {
      "icao": "UDYZ",
      "alert": "OK",
      "vis_m": 9999,
      "fzfg": false,
      "metar_trigger": false,
      "taf_trigger": false,
      "metar": "METAR UDYZ 032100Z 11002KT 9999 NSC M00/M03 Q1019 NOSIG",
      "taf": "TAF UDYZ 031700Z 0318/0418 VRB06KT 9999 FEW040"
    },
    {
      "icao": "UGKO",
      "alert": "OK",
      "vis_m": 9999,
      "fzfg": false,
      "metar_trigger": false,
      "taf_trigger": false,
      "metar": "METAR UGKO 032100Z 23005KT 190V250 9999 -RA SCT024 OVC038 07/05 Q1021 NOSIG",
      "taf": "TAF UGKO 031700Z 0318/0418 25006KT 9999 SCT030 OVC050 TX08/0318Z TN04/0403Z"
    }
  ]
}