{
  "ts_utc": "2026-02-20T02:49:47Z",
  "threshold_m": 150,
  "source": "stations_override.txt (ICAO list) + aviationweather.gov (METAR/TAF raw)",
  "station_count": 159,
  "stations": [
    {
      "icao": "BIKF",
      "alert": "OK",
      "vis_m": 9999,
      "fzfg": false,
      "metar_trigger": false,
      "taf_trigger": false,
      "metar": "METAR BIKF 200230Z 05014KT CAVOK M01/M08 Q1007",
      "taf": "TAF BIKF 200155Z 2003/2103 06012KT CAVOK TX02/2015Z TNM06/2101Z"
    },
    {
      "icao": "BKPR",
      "alert": "OK",
      "vis_m": 9999,
      "fzfg": false,
      "metar_trigger": false,
      "taf_trigger": false,
      "metar": "METAR BKPR 200230Z 19008KT CAVOK 06/02 Q1007 NOSIG",
      "taf": "TAF BKPR 192330Z 2000/2024 18008KT 9999 FEW015 BKN030"
    },
    {
      "icao": "EBCI",
      "alert": "OK",
      "vis_m": 3000,
      "fzfg": false,
      "metar_trigger": false,
      "taf_trigger": false,
      "metar": "METAR EBCI 200220Z COR 25004KT 230V300 3000 -DZ BKN003 05/04 Q1015 NOSIG",
      "taf": "TAF EBCI 192300Z 2000/2106 VRB03KT 9999 SCT007 BKN014"
    },
    {
      "icao": "EDDB",
      "alert": "OK",
      "vis_m": 9999,
      "fzfg": false,
      "metar_trigger": false,
      "taf_trigger": false,
      "metar": "METAR EDDB 200220Z AUTO 06006KT CAVOK M07/M09 Q1021 NOSIG",
      "taf": "TAF EDDB 192300Z 2000/2024 06006KT CAVOK"
    },
    {
      "icao": "EDDH",
      "alert": "OK",
      "vis_m": 9999,
      "fzfg": false,
      "metar_trigger": false,
      "taf_trigger": false,
      "metar": "METAR EDDH 200220Z AUTO 12007KT CAVOK M05/M08 Q1020 NOSIG",
      "taf": "TAF EDDH 192300Z 2000/2106 10008KT CAVOK"
    },
    {
      "icao": "EDDK",
      "alert": "OK",
      "vis_m": 9999,
      "fzfg": false,
      "metar_trigger": false,
      "taf_trigger": false,
      "metar": "METAR EDDK 200220Z AUTO 08004KT CAVOK M00/M03 Q1016 NOSIG",
      "taf": "TAF EDDK 192300Z 2000/2106 11007KT CAVOK"
    },
    {
      "icao": "EDDN",
      "alert": "OK",
      "vis_m": 9999,
      "fzfg": false,
      "metar_trigger": false,
      "taf_trigger": false,
      "metar": "METAR EDDN 200220Z AUTO VRB02KT CAVOK M00/M03 Q1014",
      "taf": "TAF EDDN 192300Z 2000/2024 03003KT CAVOK"
    },
    {
      "icao": "EDDS",
      "alert": "OK",
      "vis_m": 9999,
      "fzfg": false,
      "metar_trigger": false,
      "taf_trigger": false,
      "metar": "METAR EDDS 200220Z AUTO VRB02KT 9999 BKN008 OVC015 01/00 Q1013",
      "taf": "TAF EDDS 192300Z 2000/2024 03006KT 6000 BKN010"
    },
    {
      "icao": "EDFH",
      "alert": "OK",
      "vis_m": 9999,
      "fzfg": false,
      "metar_trigger": false,
      "taf_trigger": false,
      "metar": "METAR EDFH 200220Z 12008KT 9999 SCT011 M01/M02 Q1014",
      "taf": "TAF EDFH 192300Z 2000/2024 12009KT 9999 BKN010"
    },
    {
      "icao": "EDJA",
      "alert": "OK",
      "vis_m": 4700,
      "fzfg": false,
      "metar_trigger": false,
      "taf_trigger": false,
      "metar": "METAR EDJA 200220Z AUTO 01006KT 4700 // BKN002/// OVC023/// M01/M01 Q1012",
      "taf": "TAF EDJA 200200Z 2003/2012 02006KT 4000 -SN BKN002 OVC015"
    },
    {
      "icao": "EDLW",
      "alert": "OK",
      "vis_m": 9999,
      "fzfg": false,
      "metar_trigger": false,
      "taf_trigger": false,
      "metar": "METAR EDLW 200220Z AUTO 08007KT 9999 // NCD M02/M06 Q1016",
      "taf": "TAF EDLW 191700Z 1918/2018 08011KT 9999 SCT030"
    },
    {
      "icao": "EDNY",
      "alert": "OK",
      "vis_m": 8000,
      "fzfg": false,
      "metar_trigger": false,
      "taf_trigger": false,
      "metar": "METAR EDNY 200220Z AUTO 00000KT 8000 // FEW007/// OVC027/// 01/01 Q1013",
      "taf": "TAF EDNY 200200Z 2003/2012 02003KT 9000 BKN020"
    },
    {
      "icao": "EDSB",
      "alert": "OK",
      "vis_m": 9999,
      "fzfg": false,
      "metar_trigger": false,
      "taf_trigger": false,
      "metar": "METAR EDSB 200220Z AUTO 36007KT 9999 // FEW012/// BKN015/// BKN053/// 03/01 Q1015",
      "taf": "TAF EDSB 192300Z 2000/2024 02012KT 9999 SCT010 BKN025"
    },
    {
      "icao": "EETN",
      "alert": "OK",
      "vis_m": 9999,
      "fzfg": false,
      "metar_trigger": false,
      "taf_trigger": false,
      "metar": "METAR EETN 200220Z 30008KT 9999 BKN007 M10/M11 Q1013",
      "taf": "TAF EETN 192330Z 2000/2024 32010KT 9999 BKN010"
    },
    {
      "icao": "EFTU",
      "alert": "OK",
      "vis_m": 9999,
      "fzfg": false,
      "metar_trigger": false,
      "taf_trigger": false,
      "metar": "METAR EFTU 200220Z AUTO 27002KT CAVOK M19/M21 Q1015",
      "taf": "TAF EFTU 200227Z 2003/2103 30002KT CAVOK"
    },
    {
      "icao": "EGBB",
      "alert": "OK",
      "vis_m": 9999,
      "fzfg": false,
      "metar_trigger": false,
      "taf_trigger": false,
      "metar": "METAR EGBB 200220Z 23005KT 200V270 CAVOK 04/02 Q1015",
      "taf": ""
    },
    {
      "icao": "EGGP",
      "alert": "OK",
      "vis_m": 9999,
      "fzfg": false,
      "metar_trigger": false,
      "taf_trigger": false,
      "metar": "METAR EGGP 200220Z 23005KT CAVOK 04/02 Q1013",
      "taf": "TAF EGGP 192256Z 2000/2024 VRB04KT 9999 SCT025"
    },
    {
      "icao": "EGGW",
      "alert": "OK",
      "vis_m": 9999,
      "fzfg": false,
      "metar_trigger": false,
      "taf_trigger": false,
      "metar": "METAR EGGW 200220Z AUTO 26005KT 9999 FEW025 OVC031 04/03 Q1014",
      "taf": "TAF EGGW 192259Z 2000/2024 27007KT 9999 FEW012 SCT025"
    },
    {
      "icao": "EGKK",
      "alert": "OK",
      "vis_m": 9999,
      "fzfg": false,
      "metar_trigger": false,
      "taf_trigger": false,
      "metar": "METAR EGKK 200220Z VRB01KT 9999 BKN039 05/03 Q1016",
      "taf": "TAF EGKK 192255Z 2000/2106 25005KT 9999 BKN025"
    },
    {
      "icao": "EGNM",
      "alert": "OK",
      "vis_m": null,
      "fzfg": false,
      "metar_trigger": false,
      "taf_trigger": false,
      "metar": "",
      "taf": "TAF EGNM 191703Z 1918/2018 VRB02KT 3000 -DZ BKN003"
    },
    {
      "icao": "EGPD",
      "alert": "OK",
      "vis_m": 9999,
      "fzfg": false,
      "metar_trigger": false,
      "taf_trigger": false,
      "metar": "METAR EGPD 200220Z COR AUTO 17005KT 9999 NCD 03/01 Q1005 NOSIG",
      "taf": "TAF EGPD 192256Z 2000/2024 17010KT 9999 SCT020"
    },
    {
      "icao": "EGPF",
      "alert": "OK",
      "vis_m": 9999,
      "fzfg": false,
      "metar_trigger": false,
      "taf_trigger": false,
      "metar": "METAR EGPF 200220Z AUTO 20013KT 9999 NCD 06/04 Q1008",
      "taf": ""
    },
    {
      "icao": "EHBK",
      "alert": "OK",
      "vis_m": 9999,
      "fzfg": false,
      "metar_trigger": false,
      "taf_trigger": false,
      "metar": "METAR EHBK 200225Z AUTO 14004KT 9999 OVC018 01/00 Q1015",
      "taf": "TAF EHBK 192316Z 2000/2106 10005KT 9999 BKN035"
    },
    {
      "icao": "EHEH",
      "alert": "OK",
      "vis_m": 9999,
      "fzfg": false,
      "metar_trigger": false,
      "taf_trigger": false,
      "metar": "METAR EHEH 200225Z AUTO 13005KT 9999 FEW017 SCT023 BKN027 03/00 Q1015 BLU",
      "taf": "TAF EHEH 192338Z 2000/2106 10005KT 9999 SCT030"
    },
    {
      "icao": "EKBI",
      "alert": "OK",
      "vis_m": 9999,
      "fzfg": false,
      "metar_trigger": false,
      "taf_trigger": false,
      "metar": "METAR EKBI 200220Z AUTO 12005KT 9999 OVC006/// M05/M06 Q1020",
      "taf": "TAF EKBI 200227Z 2003/2103 10008KT CAVOK"
    },
    {
      "icao": "EKCH",
      "alert": "OK",
      "vis_m": 9999,
      "fzfg": false,
      "metar_trigger": false,
      "taf_trigger": false,
      "metar": "METAR EKCH 200220Z 16003KT 9999 NSC M07/M08 Q1023 NOSIG",
      "taf": "TAF EKCH 200227Z 2003/2103 12008KT CAVOK"
    },
    {
      "icao": "ENAL",
      "alert": "OK",
      "vis_m": 9999,
      "fzfg": false,
      "metar_trigger": false,
      "taf_trigger": false,
      "metar": "METAR ENAL 200220Z AUTO 21019KT 160V230 9999 FEW040/// BKN053/// 04/M10 Q1004",
      "taf": "TAF ENAL 200200Z 2003/2012 21020KT 9999 BKN055"
    },
    {
      "icao": "ENBR",
      "alert": "OK",
      "vis_m": 9999,
      "fzfg": false,
      "metar_trigger": false,
      "taf_trigger": false,
      "metar": "METAR ENBR 200220Z AUTO 16024KT 9999 -RA NCD 02/M08 Q1011 RMK WIND 1200FT 16030G41KT",
      "taf": ""
    },
    {
      "icao": "ENGM",
      "alert": "OK",
      "vis_m": 9999,
      "fzfg": false,
      "metar_trigger": false,
      "taf_trigger": false,
      "metar": "METAR ENGM 200220Z VRB01KT 9999 OVC004 M12/M14 Q1016",
      "taf": "TAF ENGM 192300Z 2000/2024 17005KT 9999 FEW002"
    },
    {
      "icao": "ENHD",
      "alert": "OK",
      "vis_m": 9999,
      "fzfg": false,
      "metar_trigger": false,
      "taf_trigger": false,
      "metar": "METAR ENHD 200220Z AUTO 15021KT 9999 NCD 01/M03 Q1013",
      "taf": "TAF ENHD 200200Z 2003/2012 15020G30KT 9999 SCT020"
    },
    {
      "icao": "ENTC",
      "alert": "OK",
      "vis_m": 9999,
      "fzfg": false,
      "metar_trigger": false,
      "taf_trigger": false,
      "metar": "METAR ENTC 200150Z AUTO 20017KT 9999 NCD M06/M12 Q1007 RMK WIND 2600FT 19016KT",
      "taf": "TAF ENTC 192300Z 2000/2024 22009KT CAVOK"
    },
    {
      "icao": "ENTO",
      "alert": "OK",
      "vis_m": 9999,
      "fzfg": false,
      "metar_trigger": false,
      "taf_trigger": false,
      "metar": "METAR ENTO 200220Z AUTO 20009KT 9999 NCD M04/M06 Q1018",
      "taf": "TAF ENTO 192300Z 2000/2024 22005KT 9999 FEW010"
    },
    {
      "icao": "ENVA",
      "alert": "OK",
      "vis_m": 9999,
      "fzfg": false,
      "metar_trigger": false,
      "taf_trigger": false,
      "metar": "METAR ENVA 200220Z AUTO 18011KT 9999 NCD 03/M10 Q1005 RMK WIND 670FT 19020KT",
      "taf": "TAF ENVA 192300Z 2000/2024 17009KT 9999 FEW025 BKN040"
    },
    {
      "icao": "ENZV",
      "alert": "OK",
      "vis_m": 9999,
      "fzfg": false,
      "metar_trigger": false,
      "taf_trigger": false,
      "metar": "METAR ENZV 200220Z AUTO 15017KT 9999 NCD 01/M04 Q1014",
      "taf": "TAF ENZV 192300Z 2000/2024 16018KT CAVOK"
    },
    {
      "icao": "EPGD",
      "alert": "OK",
      "vis_m": 9999,
      "fzfg": false,
      "metar_trigger": false,
      "taf_trigger": false,
      "metar": "METAR EPGD 200230Z 31005KT 9999 BKN028 M06/M09 Q1021",
      "taf": "TAF EPGD 192330Z 2000/2024 28005KT 9999 BKN033"
    },
    {
      "icao": "EPKK",
      "alert": "OK",
      "vis_m": 9999,
      "fzfg": false,
      "metar_trigger": false,
      "taf_trigger": false,
      "metar": "METAR EPKK 200230Z 09004KT CAVOK M07/M11 Q1018",
      "taf": "TAF EPKK 200230Z 2003/2103 05008KT 9999 OVC024"
    },
    {
      "icao": "EPKT",
      "alert": "OK",
      "vis_m": 9999,
      "fzfg": false,
      "metar_trigger": false,
      "taf_trigger": false,
      "metar": "METAR EPKT 200230Z 07004KT CAVOK M09/M11 Q1018",
      "taf": "TAF EPKT 192330Z 2000/2024 05006KT CAVOK"
    },
    {
      "icao": "EPLB",
      "alert": "OK",
      "vis_m": 2600,
      "fzfg": false,
      "metar_trigger": false,
      "taf_trigger": false,
      "metar": "METAR EPLB 200230Z 30006KT 2600 BR NSC M13/M14 Q1019",
      "taf": "TAF EPLB 192330Z 2000/2024 30003KT 2500 BR NSC"
    },
    {
      "icao": "EPMO",
      "alert": "OK",
      "vis_m": 4500,
      "fzfg": false,
      "metar_trigger": false,
      "taf_trigger": false,
      "metar": "METAR EPMO 200230Z 31005KT 4500 BR NSC M09/M09 Q1020",
      "taf": "TAF EPMO 192330Z 2000/2024 30004KT 8000 NSC"
    },
    {
      "icao": "EPPO",
      "alert": "OK",
      "vis_m": 9999,
      "fzfg": false,
      "metar_trigger": false,
      "taf_trigger": false,
      "metar": "METAR EPPO 200230Z 04006KT CAVOK M07/M10 Q1022",
      "taf": "TAF EPPO 192330Z 2000/2024 05005KT CAVOK"
    },
    {
      "icao": "EPRA",
      "alert": "OK",
      "vis_m": 4500,
      "fzfg": false,
      "metar_trigger": false,
      "taf_trigger": false,
      "metar": "METAR EPRA 200230Z VRB03KT 4500 BR NSC M10/M12 Q1019",
      "taf": "TAF EPRA 200230Z 2003/2012 VRB03KT 5000 BR SCT020"
    },
    {
      "icao": "EPRZ",
      "alert": "OK",
      "vis_m": 9999,
      "fzfg": false,
      "metar_trigger": false,
      "taf_trigger": false,
      "metar": "METAR EPRZ 200230Z 03005KT 9999 BKN030 M08/M10 Q1018",
      "taf": "TAF EPRZ 192330Z 2000/2024 03005KT 9999 BKN033"
    },
    {
      "icao": "EPSC",
      "alert": "OK",
      "vis_m": 9999,
      "fzfg": false,
      "metar_trigger": false,
      "taf_trigger": false,
      "metar": "METAR EPSC 200230Z VRB02KT CAVOK M11/M13 Q1022",
      "taf": "TAF EPSC 192330Z 2000/2024 VRB02KT CAVOK"
    },
    {
      "icao": "EPSY",
      "alert": "OK",
      "vis_m": 9999,
      "fzfg": false,
      "metar_trigger": false,
      "taf_trigger": false,
      "metar": "METAR EPSY 200230Z 31004KT 9999 -SN SCT037 OVC043 M05/M07 Q1020",
      "taf": "TAF EPSY 200230Z 2003/2012 28004KT 9999 BKN030"
    },
    {
      "icao": "EPWA",
      "alert": "OK",
      "vis_m": 6000,
      "fzfg": false,
      "metar_trigger": false,
      "taf_trigger": false,
      "metar": "METAR EPWA 200230Z 26005KT 6000 NSC M10/M11 Q1020 BECMG 3000 BR",
      "taf": "TAF EPWA 200230Z 2003/2103 29004KT 7000 NSC"
    },
    {
      "icao": "EPWR",
      "alert": "OK",
      "vis_m": 7000,
      "fzfg": false,
      "metar_trigger": false,
      "taf_trigger": false,
      "metar": "METAR EPWR 200230Z 22001KT 7000 NSC M09/M10 Q1020",
      "taf": "TAF EPWR 200230Z 2003/2103 VRB02KT 7000 NSC"
    },
    {
      "icao": "ESGG",
      "alert": "OK",
      "vis_m": 9999,
      "fzfg": false,
      "metar_trigger": false,
      "taf_trigger": false,
      "metar": "METAR ESGG 200220Z 16004KT 9999 NSC M12/M14 Q1020",
      "taf": "TAF ESGG 200230Z 2003/2103 16005KT CAVOK"
    },
    {
      "icao": "ESKN",
      "alert": "OK",
      "vis_m": 9999,
      "fzfg": false,
      "metar_trigger": false,
      "taf_trigger": false,
      "metar": "METAR ESKN 200220Z 23002KT CAVOK M13/M14 Q1018",
      "taf": "TAF ESKN 200230Z 2003/2103 25004KT CAVOK"
    },
    {
      "icao": "ESMS",
      "alert": "OK",
      "vis_m": 9999,
      "fzfg": false,
      "metar_trigger": false,
      "taf_trigger": false,
      "metar": "METAR ESMS 200220Z AUTO 11003KT 9999 NCD M14/M15 Q1022",
      "taf": "TAF ESMS 200227Z 2003/2103 04006KT CAVOK"
    },
    {
      "icao": "ESSA",
      "alert": "OK",
      "vis_m": 9999,
      "fzfg": false,
      "metar_trigger": false,
      "taf_trigger": false,
      "metar": "METAR ESSA 200220Z 22005KT CAVOK M12/M14 Q1017 NOSIG",
      "taf": "TAF ESSA 200230Z 2003/2103 24006KT CAVOK"
    },
    {
      "icao": "EYKA",
      "alert": "OK",
      "vis_m": 9999,
      "fzfg": false,
      "metar_trigger": false,
      "taf_trigger": false,
      "metar": "METAR EYKA 200220Z 29005KT 250V320 9999 OVC015 M09/M12 Q1018",
      "taf": "TAF EYKA 192300Z 2000/2024 VRB04KT 9000 BKN020"
    },
    {
      "icao": "EYPA",
      "alert": "OK",
      "vis_m": 9999,
      "fzfg": false,
      "metar_trigger": false,
      "taf_trigger": false,
      "metar": "METAR EYPA 200220Z VRB02KT 9999 -SN OVC036 M06/M08 Q1019",
      "taf": "TAF EYPA 192300Z 2000/2024 VRB04KT 9000 BKN025"
    },
    {
      "icao": "EYVI",
      "alert": "OK",
      "vis_m": 4100,
      "fzfg": false,
      "metar_trigger": false,
      "taf_trigger": false,
      "metar": "METAR EYVI 200220Z 29004KT 250V340 4100 -SN BR OVC013 M09/M11 Q1016 NOSIG",
      "taf": ""
    },
    {
      "icao": "GCFV",
      "alert": "OK",
      "vis_m": 9000,
      "fzfg": false,
      "metar_trigger": false,
      "taf_trigger": false,
      "metar": "METAR GCFV 200230Z AUTO 02015KT 9000 OVC022 18/13 Q1023",
      "taf": "TAF GCFV 200200Z 2003/2103 03015KT 9999 SCT015 TX21/2014Z TN16/2006Z"
    },
    {
      "icao": "GCLP",
      "alert": "OK",
      "vis_m": 9999,
      "fzfg": false,
      "metar_trigger": false,
      "taf_trigger": false,
      "metar": "METAR GCLP 200230Z 02014KT 9999 BKN025 18/12 Q1023 NOSIG",
      "taf": "TAF GCLP 200200Z 2003/2103 01018KT 9999 SCT020 TX20/2014Z TN16/2006Z"
    },
    {
      "icao": "GCTS",
      "alert": "OK",
      "vis_m": 9999,
      "fzfg": false,
      "metar_trigger": false,
      "taf_trigger": false,
      "metar": "METAR GCTS 200230Z 06015KT 9999 FEW020 16/11 Q1023 NOSIG",
      "taf": "TAF GCTS 200200Z 2003/2103 05010KT 9999 FEW020 TX23/2014Z TN16/2006Z"
    },
    {
      "icao": "GMAD",
      "alert": "OK",
      "vis_m": 600,
      "fzfg": false,
      "metar_trigger": false,
      "taf_trigger": false,
      "metar": "METAR GMAD 200230Z COR 18004KT 0600 R27/0900N FG BKN002 08/06 Q1020 NOSIG",
      "taf": "TAF GMAD 192300Z 2000/2106 06008KT 8000 NSC"
    },
    {
      "icao": "GMMN",
      "alert": "OK",
      "vis_m": 9999,
      "fzfg": false,
      "metar_trigger": false,
      "taf_trigger": false,
      "metar": "METAR GMMN 200230Z 07008KT 9999 FEW020 08/06 Q1025 NOSIG",
      "taf": "TAF GMMN 192300Z 2000/2106 04008KT 9999 FEW020"
    },
    {
      "icao": "GMMX",
      "alert": "OK",
      "vis_m": 9999,
      "fzfg": false,
      "metar_trigger": false,
      "taf_trigger": false,
      "metar": "METAR GMMX 200230Z 09003KT CAVOK 09/08 Q1023 NOSIG",
      "taf": "TAF GMMX 192300Z 2000/2106 04006KT CAVOK"
    },
    {
      "icao": "HEGN",
      "alert": "OK",
      "vis_m": 9999,
      "fzfg": false,
      "metar_trigger": false,
      "taf_trigger": false,
      "metar": "METAR HEGN 200200Z 30012KT CAVOK 15/05 Q1018 NOSIG",
      "taf": "TAF HEGN 192300Z 2000/2106 29014KT CAVOK"
    },
    {
      "icao": "HEMA",
      "alert": "OK",
      "vis_m": 9999,
      "fzfg": false,
      "metar_trigger": false,
      "taf_trigger": false,
      "metar": "METAR HEMA 200200Z 29008KT CAVOK 17/07 Q1016 NOSIG",
      "taf": "TAF HEMA 192300Z 2000/2106 30014KT CAVOK"
    },
    {
      "icao": "HESH",
      "alert": "OK",
      "vis_m": 9999,
      "fzfg": false,
      "metar_trigger": false,
      "taf_trigger": false,
      "metar": "METAR HESH 200200Z 35010KT CAVOK 18/10 Q1018 NOSIG",
      "taf": "TAF HESH 192300Z 2000/2106 35012KT CAVOK"
    },
    {
      "icao": "HESX",
      "alert": "OK",
      "vis_m": 2000,
      "fzfg": false,
      "metar_trigger": false,
      "taf_trigger": false,
      "metar": "METAR HESX 200200Z 04005KT 2000 BR NSC 09/07 Q1023 NOSIG",
      "taf": "TAF HESX 192300Z 2000/2106 02007KT CAVOK"
    },
    {
      "icao": "LATI",
      "alert": "OK",
      "vis_m": null,
      "fzfg": false,
      "metar_trigger": false,
      "taf_trigger": false,
      "metar": "",
      "taf": "TAF LATI 192300Z 2000/2024 14012KT 9999 SCT040 BKN060 TX14/2013Z TN09/2004Z"
    },
    {
      "icao": "LBPD",
      "alert": "OK",
      "vis_m": 9999,
      "fzfg": false,
      "metar_trigger": false,
      "taf_trigger": false,
      "metar": "METAR LBPD 200230Z AUTO 14003KT 090V190 9999 BKN240/// 01/01 Q1015",
      "taf": "TAF LBPD 192300Z 2000/2024 VRB03KT 9999 SCT080"
    },
    {
      "icao": "LBSF",
      "alert": "OK",
      "vis_m": 9999,
      "fzfg": false,
      "metar_trigger": false,
      "taf_trigger": false,
      "metar": "METAR LBSF 200230Z AUTO 09009KT 9999 NSC 05/M01 Q1011 NOSIG",
      "taf": "TAF LBSF 192300Z 2000/2024 11012KT 9999 BKN070"
    },
    {
      "icao": "LBWN",
      "alert": "OK",
      "vis_m": 9999,
      "fzfg": false,
      "metar_trigger": false,
      "taf_trigger": false,
      "metar": "METAR LBWN 200230Z AUTO 09005KT 9999 NSC 05/01 Q1015 NOSIG",
      "taf": "TAF LBWN 192300Z 2000/2024 09008KT 9999 SCT050"
    },
    {
      "icao": "LCLK",
      "alert": "OK",
      "vis_m": 9999,
      "fzfg": false,
      "metar_trigger": false,
      "taf_trigger": false,
      "metar": "METAR LCLK 200230Z 02010KT 9999 SCT028 BKN050 14/08 Q1023 NOSIG",
      "taf": "TAF LCLK 192330Z 2000/2100 35007KT 9999 FEW030"
    },
    {
      "icao": "LCPH",
      "alert": "OK",
      "vis_m": 9999,
      "fzfg": false,
      "metar_trigger": false,
      "taf_trigger": false,
      "metar": "METAR LCPH 200230Z AUTO 01008KT 010V080 9999 NCD 10/06 Q1023 NOSIG",
      "taf": "TAF LCPH 192330Z 2000/2100 04007KT 9999 FEW025"
    },
    {
      "icao": "LEAL",
      "alert": "OK",
      "vis_m": 9999,
      "fzfg": false,
      "metar_trigger": false,
      "taf_trigger": false,
      "metar": "METAR LEAL 200230Z 27006KT 240V310 CAVOK 13/M00 Q1025 NOSIG",
      "taf": "TAF LEAL 192300Z 2000/2024 31013KT CAVOK TX18/2013Z TN09/2006Z"
    },
    {
      "icao": "LEBB",
      "alert": "OK",
      "vis_m": 6000,
      "fzfg": false,
      "metar_trigger": false,
      "taf_trigger": false,
      "metar": "METAR LEBB 200230Z AUTO VRB01KT 6000 SCT027 BKN032 OVC038 09/08 Q1029",
      "taf": "TAF LEBB 192300Z 2000/2024 30009KT 9999 FEW020 BKN025 TX14/2013Z TN07/2005Z"
    },
    {
      "icao": "LEBL",
      "alert": "OK",
      "vis_m": 9999,
      "fzfg": false,
      "metar_trigger": false,
      "taf_trigger": false,
      "metar": "METAR LEBL 200230Z 33018G29KT 9999 FEW035 10/01 Q1018 NOSIG",
      "taf": "TAF LEBL 192300Z 2000/2024 31012KT 9999 FEW040 TX18/2013Z TN09/2006Z"
    },
    {
      "icao": "LECH",
      "alert": "OK",
      "vis_m": 9999,
      "fzfg": false,
      "metar_trigger": false,
      "taf_trigger": false,
      "metar": "METAR LECH 200230Z AUTO 31009KT 280V340 CAVOK 10/M02 Q1023",
      "taf": ""
    },
    {
      "icao": "LEMD",
      "alert": "OK",
      "vis_m": 9999,
      "fzfg": false,
      "metar_trigger": false,
      "taf_trigger": false,
      "metar": "METAR LEMD 200230Z 11001KT CAVOK M00/M00 Q1028 NOSIG",
      "taf": "TAF LEMD 192300Z 2000/2106 VRB04KT CAVOK TX14/2015Z TNM00/2006Z"
    },
    {
      "icao": "LEMG",
      "alert": "OK",
      "vis_m": 9999,
      "fzfg": false,
      "metar_trigger": false,
      "taf_trigger": false,
      "metar": "METAR LEMG 200230Z 28012KT CAVOK 12/02 Q1026 NOSIG",
      "taf": "TAF LEMG 192300Z 2000/2024 29012KT CAVOK TX18/2014Z TN11/2007Z"
    },
    {
      "icao": "LEVC",
      "alert": "OK",
      "vis_m": 9999,
      "fzfg": false,
      "metar_trigger": false,
      "taf_trigger": false,
      "metar": "METAR LEVC 200230Z 30008KT 260V330 CAVOK 11/M02 Q1024 NOSIG",
      "taf": "TAF LEVC 192300Z 2000/2024 27009KT CAVOK TX21/2014Z TN08/2006Z"
    },
    {
      "icao": "LEXJ",
      "alert": "OK",
      "vis_m": 9999,
      "fzfg": false,
      "metar_trigger": false,
      "taf_trigger": false,
      "metar": "METAR LEXJ 200230Z AUTO 26008KT 9999 3400E FEW029 SCT045 OVC050 10/05 Q1029",
      "taf": "TAF LEXJ 200200Z 2003/2103 22009KT 9999 SCT040 TX15/2013Z TN07/2103Z"
    },
    {
      "icao": "LEZG",
      "alert": "OK",
      "vis_m": 9999,
      "fzfg": false,
      "metar_trigger": false,
      "taf_trigger": false,
      "metar": "METAR LEZG 200230Z 29017KT CAVOK 07/03 Q1026 NOSIG",
      "taf": "TAF LEZG 192300Z 2000/2024 28010KT CAVOK TX13/2014Z TN07/2006Z"
    },
    {
      "icao": "LEZL",
      "alert": "OK",
      "vis_m": 9999,
      "fzfg": false,
      "metar_trigger": false,
      "taf_trigger": false,
      "metar": "METAR LEZL 200230Z AUTO 07002KT CAVOK 07/06 Q1028",
      "taf": "TAF LEZL 200200Z 2003/2103 03006KT CAVOK TX19/2015Z TN06/2007Z"
    },
    {
      "icao": "LFBD",
      "alert": "OK",
      "vis_m": 9999,
      "fzfg": false,
      "metar_trigger": false,
      "taf_trigger": false,
      "metar": "METAR LFBD 200230Z AUTO 26005KT 9999 FEW030 OVC058 09/07 Q1025 NOSIG",
      "taf": "TAF LFBD 192300Z 2000/2106 29010KT 9999 BKN030 TX13/2013Z TN07/2006Z"
    },
    {
      "icao": "LFLL",
      "alert": "OK",
      "vis_m": 9999,
      "fzfg": false,
      "metar_trigger": false,
      "taf_trigger": false,
      "metar": "METAR LFLL 200230Z 32014KT 9999 FEW016 BKN021 08/05 Q1016 NOSIG",
      "taf": "TAF LFLL 192300Z 2000/2106 30010KT 9999 BKN030"
    },
    {
      "icao": "LFLS",
      "alert": "OK",
      "vis_m": 9999,
      "fzfg": false,
      "metar_trigger": false,
      "taf_trigger": false,
      "metar": "METAR LFLS 200230Z AUTO 31013KT 9999 OVC015 06/05 Q1016 TEMPO 4000 -RA BKN012 SCT020TCU",
      "taf": "TAF LFLS 200200Z 2003/2103 33010KT 9999 SCT015 OVC030"
    },
    {
      "icao": "LFMN",
      "alert": "OK",
      "vis_m": 9999,
      "fzfg": false,
      "metar_trigger": false,
      "taf_trigger": false,
      "metar": "METAR LFMN 200230Z 32004KT 290V010 CAVOK 12/01 Q1005 NOSIG",
      "taf": "TAF LFMN 200200Z 2003/2109 33010KT CAVOK"
    },
    {
      "icao": "LFOB",
      "alert": "OK",
      "vis_m": 9999,
      "fzfg": false,
      "metar_trigger": false,
      "taf_trigger": false,
      "metar": "METAR LFOB 200230Z AUTO 27006KT 9999 -RA OVC014 06/04 Q1017 BECMG BKN030",
      "taf": "TAF LFOB 192300Z 2000/2024 32012KT 9999 BKN012 BKN020"
    },
    {
      "icao": "LFPO",
      "alert": "OK",
      "vis_m": 9999,
      "fzfg": false,
      "metar_trigger": false,
      "taf_trigger": false,
      "metar": "METAR LFPO 200230Z AUTO 29009KT 9999 FEW016 BKN024 OVC031 06/04 Q1018 TEMPO BKN012",
      "taf": "TAF LFPO 192300Z 2000/2106 30010G20KT 9999 SCT020"
    },
    {
      "icao": "LFSB",
      "alert": "OK",
      "vis_m": 6000,
      "fzfg": false,
      "metar_trigger": false,
      "taf_trigger": false,
      "metar": "METAR LFSB 200230Z AUTO 33006KT 6000 OVC003 04/04 Q1014 TEMPO OVC008",
      "taf": ""
    },
    {
      "icao": "LGAV",
      "alert": "OK",
      "vis_m": 9999,
      "fzfg": false,
      "metar_trigger": false,
      "taf_trigger": false,
      "metar": "METAR LGAV 200220Z 00000KT 9999 FEW025 07/04 Q1018 NOSIG",
      "taf": "TAF LGAV 192300Z 2000/2024 21010KT 9999 FEW018"
    },
    {
      "icao": "LGTS",
      "alert": "OK",
      "vis_m": 9999,
      "fzfg": false,
      "metar_trigger": false,
      "taf_trigger": false,
      "metar": "METAR LGTS 200150Z 11004KT 9999 FEW008 07/06 Q1015 NOSIG",
      "taf": "TAF LGTS 192300Z 2000/2024 14013KT 9999 SCT025"
    },
    {
      "icao": "LHBP",
      "alert": "OK",
      "vis_m": 9999,
      "fzfg": false,
      "metar_trigger": false,
      "taf_trigger": false,
      "metar": "METAR LHBP 200230Z 07012G22KT 9999 SCT012 BKN130 03/01 Q1009 NOSIG",
      "taf": "TAF LHBP 192315Z 2000/2024 05012KT 9999 SCT008 BKN070"
    },
    {
      "icao": "LHDC",
      "alert": "OK",
      "vis_m": 9999,
      "fzfg": false,
      "metar_trigger": false,
      "taf_trigger": false,
      "metar": "METAR LHDC 200215Z AUTO 04016KT CAVOK 03/01 Q1010",
      "taf": ""
    },
    {
      "icao": "LIBD",
      "alert": "OK",
      "vis_m": 9999,
      "fzfg": false,
      "metar_trigger": false,
      "taf_trigger": false,
      "metar": "METAR LIBD 200220Z 27003KT 230V320 CAVOK 11/04 Q1005",
      "taf": "TAF LIBD 192300Z 2000/2024 24012KT 9999 SCT040"
    },
    {
      "icao": "LIBG",
      "alert": "OK",
      "vis_m": null,
      "fzfg": false,
      "metar_trigger": false,
      "taf_trigger": false,
      "metar": "",
      "taf": "TAF LIBG 191700Z 1918/2003 17015G30KT 9999 SCT020"
    },
    {
      "icao": "LIBP",
      "alert": "OK",
      "vis_m": 9999,
      "fzfg": false,
      "metar_trigger": false,
      "taf_trigger": false,
      "metar": "METAR LIBP 200220Z AUTO 24006KT 9999 SCT068/// BKN085/// 10/04 Q1004",
      "taf": "TAF LIBP 192300Z 2000/2024 23010KT 9999 SCT040"
    },
    {
      "icao": "LIBR",
      "alert": "OK",
      "vis_m": 9999,
      "fzfg": false,
      "metar_trigger": false,
      "taf_trigger": false,
      "metar": "METAR LIBR 200220Z 23009KT CAVOK 12/10 Q1005",
      "taf": "TAF LIBR 192300Z 2000/2024 23013G25KT 9999 SCT025"
    },
    {
      "icao": "LICA",
      "alert": "OK",
      "vis_m": 9999,
      "fzfg": false,
      "metar_trigger": false,
      "taf_trigger": false,
      "metar": "METAR LICA 200220Z AUTO 24014KT 9999 -RA FEW016/// OVC049/// 11/09 Q1010",
      "taf": "TAF LICA 192300Z 2000/2024 26020G30KT 9999 SCT030 BKN050"
    },
    {
      "icao": "LICC",
      "alert": "OK",
      "vis_m": 9999,
      "fzfg": false,
      "metar_trigger": false,
      "taf_trigger": false,
      "metar": "METAR LICC 200220Z 27016KT CAVOK 10/06 Q1012",
      "taf": "TAF LICC 192300Z 2000/2024 26018G28KT 9999 FEW040"
    },
    {
      "icao": "LICJ",
      "alert": "OK",
      "vis_m": 9999,
      "fzfg": false,
      "metar_trigger": false,
      "taf_trigger": false,
      "metar": "METAR LICJ 200220Z 28025KT 9999 FEW030 SCT050 15/08 Q1013",
      "taf": "TAF LICJ 192300Z 2000/2024 27020G30KT 9999 SCT035"
    },
    {
      "icao": "LIMC",
      "alert": "OK",
      "vis_m": 9999,
      "fzfg": false,
      "metar_trigger": false,
      "taf_trigger": false,
      "metar": "METAR LIMC 200220Z 33005KT CAVOK 04/03 Q1004 NOSIG",
      "taf": "TAF LIMC 192300Z 2000/2106 33007KT 9999 BKN025"
    },
    {
      "icao": "LIME",
      "alert": "OK",
      "vis_m": 9999,
      "fzfg": false,
      "metar_trigger": false,
      "taf_trigger": false,
      "metar": "METAR LIME 200220Z 01003KT CAVOK 03/03 Q1003 NOSIG",
      "taf": "TAF LIME 192300Z 2000/2024 VRB05KT 8000 BKN020"
    },
    {
      "icao": "LIMF",
      "alert": "OK",
      "vis_m": 9999,
      "fzfg": false,
      "metar_trigger": false,
      "taf_trigger": false,
      "metar": "METAR LIMF 200220Z 31005KT 270V350 CAVOK 04/01 Q1005",
      "taf": "TAF LIMF 192300Z 2000/2024 VRB05KT 8000 FEW040"
    },
    {
      "icao": "LIMJ",
      "alert": "OK",
      "vis_m": 9999,
      "fzfg": false,
      "metar_trigger": false,
      "taf_trigger": false,
      "metar": "METAR LIMJ 200220Z 04011KT CAVOK 10/03 Q1004",
      "taf": "TAF LIMJ 192300Z 2000/2024 VRB05KT 9999 SCT030"
    },
    {
      "icao": "LIPE",
      "alert": "OK",
      "vis_m": 9999,
      "fzfg": false,
      "metar_trigger": false,
      "taf_trigger": false,
      "metar": "METAR LIPE 200150Z 23006KT CAVOK 04/02 Q1004",
      "taf": "TAF LIPE 192300Z 2000/2024 29007KT 9999 FEW060"
    },
    {
      "icao": "LIPH",
      "alert": "OK",
      "vis_m": 9999,
      "fzfg": false,
      "metar_trigger": false,
      "taf_trigger": false,
      "metar": "METAR LIPH 200220Z AUTO 29003KT 9999 OVC110/// 06/05 Q1003",
      "taf": "TAF LIPH 192300Z 2000/2024 VRB05KT 8000 SCT050"
    },
    {
      "icao": "LIPQ",
      "alert": "OK",
      "vis_m": 9000,
      "fzfg": false,
      "metar_trigger": false,
      "taf_trigger": false,
      "metar": "METAR LIPQ 200220Z AUTO 11003KT 9000 FEW026/// BKN054/// 08/07 Q1002",
      "taf": "TAF LIPQ 192300Z 2000/2024 VRB05KT 7000 BKN040"
    },
    {
      "icao": "LIPR",
      "alert": "OK",
      "vis_m": 9999,
      "fzfg": false,
      "metar_trigger": false,
      "taf_trigger": false,
      "metar": "METAR LIPR 200220Z AUTO 23004KT 9999 FEW075/// BKN110/// 06/04 Q1003",
      "taf": "TAF LIPR 192300Z 2000/2024 VRB05KT 9999 SCT040"
    },
    {
      "icao": "LIPX",
      "alert": "OK",
      "vis_m": 9999,
      "fzfg": false,
      "metar_trigger": false,
      "taf_trigger": false,
      "metar": "METAR LIPX 200220Z 28003KT 240V330 CAVOK 04/03 Q1003",
      "taf": "TAF LIPX 192300Z 2000/2024 VRB06KT 8000 BKN030"
    },
    {
      "icao": "LIPY",
      "alert": "OK",
      "vis_m": 9999,
      "fzfg": false,
      "metar_trigger": false,
      "taf_trigger": false,
      "metar": "METAR LIPY 200220Z AUTO VRB01KT 9999 BKN100/// 06/06 Q1003",
      "taf": "TAF LIPY 192300Z 2000/2024 VRB05KT 9999 SCT040"
    },
    {
      "icao": "LIPZ",
      "alert": "OK",
      "vis_m": 9999,
      "fzfg": false,
      "metar_trigger": false,
      "taf_trigger": false,
      "metar": "METAR LIPZ 200220Z 25004KT CAVOK 05/05 Q1003 NOSIG",
      "taf": "TAF LIPZ 192300Z 2000/2106 31005KT 9000 FEW030"
    },
    {
      "icao": "LIRF",
      "alert": "OK",
      "vis_m": 9999,
      "fzfg": false,
      "metar_trigger": false,
      "taf_trigger": false,
      "metar": "METAR LIRF 200150Z 17002KT 9999 FEW030 09/08 Q1006 NOSIG",
      "taf": "TAF LIRF 192300Z 2000/2106 VRB05KT 9999 FEW025"
    },
    {
      "icao": "LIRN",
      "alert": "OK",
      "vis_m": 9999,
      "fzfg": false,
      "metar_trigger": false,
      "taf_trigger": false,
      "metar": "METAR LIRN 200220Z VRB02KT CAVOK 08/07 Q1006 NOSIG",
      "taf": "TAF LIRN 192300Z 2000/2024 24008KT 9999 SCT030"
    },
    {
      "icao": "LIRP",
      "alert": "OK",
      "vis_m": 9999,
      "fzfg": false,
      "metar_trigger": false,
      "taf_trigger": false,
      "metar": "METAR LIRP 200215Z 09005KT 9999 FEW025 07/07 Q1003 NOSIG",
      "taf": "TAF LIRP 192300Z 2000/2024 11004KT 9999 FEW020 SCT060"
    },
    {
      "icao": "LIRZ",
      "alert": "OK",
      "vis_m": 9999,
      "fzfg": false,
      "metar_trigger": false,
      "taf_trigger": false,
      "metar": "METAR LIRZ 200220Z AUTO VRB03KT 9999 -RA BKN026/// 07/07 Q1004",
      "taf": "TAF LIRZ 192300Z 2000/2024 VRB05KT 8000 SCT035"
    },
    {
      "icao": "LJLJ",
      "alert": "OK",
      "vis_m": 4000,
      "fzfg": false,
      "metar_trigger": false,
      "taf_trigger": false,
      "metar": "METAR LJLJ 200230Z 13004KT 110V170 4000 -RA BR FEW003 OVC020 03/02 Q1003 NOSIG",
      "taf": "TAF LJLJ 192300Z 2000/2100 VRB02KT 7000 -RA OVC020"
    },
    {
      "icao": "LKMT",
      "alert": "OK",
      "vis_m": 6000,
      "fzfg": false,
      "metar_trigger": false,
      "taf_trigger": false,
      "metar": "METAR LKMT 200230Z 02013KT 6000 NSC M05/M07 Q1016 NOSIG",
      "taf": "TAF LKMT 192300Z 2000/2024 03014KT 8000 SCT012 OVC020"
    },
    {
      "icao": "LKPR",
      "alert": "OK",
      "vis_m": 9000,
      "fzfg": false,
      "metar_trigger": false,
      "taf_trigger": false,
      "metar": "METAR LKPR 200230Z 02005KT 9000 NSC M05/M07 Q1016 NOSIG",
      "taf": "TAF LKPR 200200Z 2003/2109 04007KT CAVOK"
    },
    {
      "icao": "LLBG",
      "alert": "OK",
      "vis_m": 9999,
      "fzfg": false,
      "metar_trigger": false,
      "taf_trigger": false,
      "metar": "METAR LLBG 200220Z 01005KT CAVOK 10/06 Q1022 NOSIG",
      "taf": "TAF LLBG 192303Z 2000/2024 VRB04KT CAVOK"
    },
    {
      "icao": "LMML",
      "alert": "OK",
      "vis_m": 9999,
      "fzfg": false,
      "metar_trigger": false,
      "taf_trigger": false,
      "metar": "METAR LMML 200245Z 30015KT CAVOK 12/06 Q1016 NOSIG",
      "taf": "TAF LMML 192300Z 2000/2024 31017KT 9999 FEW025"
    },
    {
      "icao": "LOWW",
      "alert": "OK",
      "vis_m": 2200,
      "fzfg": false,
      "metar_trigger": false,
      "taf_trigger": false,
      "metar": "METAR LOWW 200220Z 35011KT 2200 -SN BR FEW003 BKN004 M01/M02 Q1012 RESN TEMPO 3200 -SN",
      "taf": "TAF LOWW 200215Z 2003/2109 36012KT 1400 SN BKN003 TXM01/2015Z TNM06/2105Z"
    },
    {
      "icao": "LPFR",
      "alert": "OK",
      "vis_m": 9999,
      "fzfg": false,
      "metar_trigger": false,
      "taf_trigger": false,
      "metar": "METAR LPFR 200230Z 27004KT 240V300 CAVOK 08/06 Q1028",
      "taf": "TAF LPFR 192300Z 2000/2024 36005KT CAVOK"
    },
    {
      "icao": "LPMA",
      "alert": "OK",
      "vis_m": 9999,
      "fzfg": false,
      "metar_trigger": false,
      "taf_trigger": false,
      "metar": "METAR LPMA 200230Z 02009KT 330V050 9999 BKN016 16/09 Q1027",
      "taf": "TAF LPMA 192300Z 2000/2024 02012KT 9999 SCT015"
    },
    {
      "icao": "LPPR",
      "alert": "OK",
      "vis_m": 9999,
      "fzfg": false,
      "metar_trigger": false,
      "taf_trigger": false,
      "metar": "METAR LPPR 200230Z VRB03KT CAVOK 07/05 Q1030",
      "taf": "TAF LPPR 192300Z 2000/2024 VRB02KT 9999 SCT030"
    },
    {
      "icao": "LPPS",
      "alert": "OK",
      "vis_m": 9999,
      "fzfg": false,
      "metar_trigger": false,
      "taf_trigger": false,
      "metar": "METAR LPPS 200230Z 08011KT 9999 FEW015 BKN030 15/09 Q1027",
      "taf": "TAF LPPS 192300Z 2000/2106 07010KT 9999 FEW015 BKN030"
    },
    {
      "icao": "LPPT",
      "alert": "OK",
      "vis_m": 9999,
      "fzfg": false,
      "metar_trigger": false,
      "taf_trigger": false,
      "metar": "METAR LPPT 200230Z 00000KT CAVOK 08/06 Q1030",
      "taf": "TAF LPPT 192300Z 2000/2106 32008KT CAVOK"
    },
    {
      "icao": "LQBK",
      "alert": "OK",
      "vis_m": 6000,
      "fzfg": false,
      "metar_trigger": false,
      "taf_trigger": false,
      "metar": "METAR LQBK 200230Z 30006KT 250V340 6000 RA BKN047 08/07 Q1001 NOSIG",
      "taf": "TAF LQBK 192300Z 2000/2024 33006KT 9999 SCT015 BKN035 TX10/2000Z TNM00/2024Z"
    },
    {
      "icao": "LQSA",
      "alert": "OK",
      "vis_m": 8000,
      "fzfg": false,
      "metar_trigger": false,
      "taf_trigger": false,
      "metar": "METAR LQSA 200230Z 12009KT 8000 SHRA FEW035TCU BKN045 07/07 Q1002",
      "taf": ""
    },
    {
      "icao": "LQTZ",
      "alert": "OK",
      "vis_m": 9999,
      "fzfg": false,
      "metar_trigger": false,
      "taf_trigger": false,
      "metar": "METAR LQTZ 200230Z 12009KT 9999 BKN060 10/03 Q1002",
      "taf": "TAF LQTZ 192300Z 2000/2024 09006KT CAVOK TX10/2000Z TNM01/2024Z"
    },
    {
      "icao": "LRBC",
      "alert": "OK",
      "vis_m": 9999,
      "fzfg": false,
      "metar_trigger": false,
      "taf_trigger": false,
      "metar": "METAR LRBC 200230Z 17006KT CAVOK M01/M03 Q1013",
      "taf": "TAF LRBC 200200Z 2003/2012 VRB04KT CAVOK"
    },
    {
      "icao": "LRBS",
      "alert": "OK",
      "vis_m": 4000,
      "fzfg": false,
      "metar_trigger": false,
      "taf_trigger": false,
      "metar": "METAR LRBS 200230Z 00000KT 4000 BR NSC M03/M04 Q1013 BECMG 3000 BR",
      "taf": "TAF LRBS 192300Z 2000/2024 VRB03KT CAVOK"
    },
    {
      "icao": "LRBV",
      "alert": "OK",
      "vis_m": 9999,
      "fzfg": false,
      "metar_trigger": false,
      "taf_trigger": false,
      "metar": "METAR LRBV 200230Z AUTO VRB02KT 9999 FEW210/// M03/M06 Q1011",
      "taf": "TAF LRBV 200200Z 2003/2012 VRB04KT CAVOK"
    },
    {
      "icao": "LRCL",
      "alert": "OK",
      "vis_m": 9999,
      "fzfg": false,
      "metar_trigger": false,
      "taf_trigger": false,
      "metar": "METAR LRCL 200230Z 05004KT 9999 OVC054 03/M02 Q1010",
      "taf": "TAF LRCL 200200Z 2003/2012 06005KT 9999 BKN050"
    },
    {
      "icao": "LRCV",
      "alert": "OK",
      "vis_m": 9999,
      "fzfg": false,
      "metar_trigger": false,
      "taf_trigger": false,
      "metar": "METAR LRCV 200230Z 09008KT CAVOK 02/M02 Q1011",
      "taf": "TAF LRCV 200200Z 2003/2012 08010KT CAVOK"
    },
    {
      "icao": "LRIA",
      "alert": "OK",
      "vis_m": 9999,
      "fzfg": false,
      "metar_trigger": false,
      "taf_trigger": false,
      "metar": "METAR LRIA 200230Z 10007KT CAVOK M01/M03 Q1014",
      "taf": "TAF LRIA 200200Z 2003/2012 10007KT CAVOK"
    },
    {
      "icao": "LROP",
      "alert": "OK",
      "vis_m": 5000,
      "fzfg": false,
      "metar_trigger": false,
      "taf_trigger": false,
      "metar": "METAR LROP 200230Z 04003KT 5000 BR NSC M02/M04 Q1013 BECMG 3000 BR",
      "taf": "TAF LROP 192300Z 2000/2024 VRB03KT 5000 BR NSC"
    },
    {
      "icao": "LRSB",
      "alert": "OK",
      "vis_m": 9999,
      "fzfg": false,
      "metar_trigger": false,
      "taf_trigger": false,
      "metar": "METAR LRSB 200230Z 26003KT 9999 SCT070 01/M00 Q1009",
      "taf": "TAF LRSB 192300Z 2000/2024 VRB04KT CAVOK"
    },
    {
      "icao": "LRSM",
      "alert": "OK",
      "vis_m": 9999,
      "fzfg": false,
      "metar_trigger": false,
      "taf_trigger": false,
      "metar": "METAR LRSM 200230Z AUTO 04006KT 9999 OVC055/// 04/02 Q1011",
      "taf": "TAF LRSM 200200Z 2003/2012 03008KT 9999 BKN045"
    },
    {
      "icao": "LRSV",
      "alert": "OK",
      "vis_m": 8000,
      "fzfg": false,
      "metar_trigger": false,
      "taf_trigger": false,
      "metar": "METAR LRSV 200230Z 33009KT 8000 NSC M01/M02 Q1013",
      "taf": "TAF LRSV 200200Z 2003/2012 34010KT 9999 SCT015 BKN040"
    },
    {
      "icao": "LRTM",
      "alert": "OK",
      "vis_m": 9999,
      "fzfg": false,
      "metar_trigger": false,
      "taf_trigger": false,
      "metar": "METAR LRTM 200230Z AUTO 08004KT 9999 -RA NCD 02/01 Q1011",
      "taf": "TAF LRTM 200200Z 2003/2012 VRB04KT CAVOK"
    },
    {
      "icao": "LRTR",
      "alert": "OK",
      "vis_m": 9999,
      "fzfg": false,
      "metar_trigger": false,
      "taf_trigger": false,
      "metar": "METAR LRTR 200230Z 09013KT CAVOK 07/02 Q1007 NOSIG",
      "taf": "TAF LRTR 192300Z 2000/2024 08010KT CAVOK"
    },
    {
      "icao": "LTAC",
      "alert": "OK",
      "vis_m": 9999,
      "fzfg": false,
      "metar_trigger": false,
      "taf_trigger": false,
      "metar": "METAR LTAC 200220Z 04002KT CAVOK M04/M06 Q1023 NOSIG RMK RWY21C 00000KT RWY03L 36002KT RWY21R 02001KT RWY03R 00000KT RWY21L 00000KT",
      "taf": "TAF LTAC 192240Z 2000/2024 VRB02KT CAVOK"
    },
    {
      "icao": "LTFM",
      "alert": "OK",
      "vis_m": 9999,
      "fzfg": false,
      "metar_trigger": false,
      "taf_trigger": false,
      "metar": "METAR LTFM 200220Z 18011KT CAVOK 07/03 Q1019 NOSIG RMK RWY17L 18013KT RWY34L 17009KT RWY16R 18012KT RWY36 19013KT RWY18 19015KT",
      "taf": "TAF LTFM 192240Z 2000/2106 19013KT CAVOK"
    },
    {
      "icao": "LUKK",
      "alert": "OK",
      "vis_m": 9999,
      "fzfg": false,
      "metar_trigger": false,
      "taf_trigger": false,
      "metar": "METAR LUKK 200230Z 18007KT 150V210 CAVOK M00/M02 Q1014 NOSIG",
      "taf": "TAF LUKK 192306Z 2000/2024 VRB04KT 5000 BR SCT012"
    },
    {
      "icao": "LWOH",
      "alert": "OK",
      "vis_m": null,
      "fzfg": false,
      "metar_trigger": false,
      "taf_trigger": false,
      "metar": "",
      "taf": "TAF LWOH 192330Z 2000/2024 18012KT 9999 BKN040"
    },
    {
      "icao": "LWSK",
      "alert": "OK",
      "vis_m": null,
      "fzfg": false,
      "metar_trigger": false,
      "taf_trigger": false,
      "metar": "",
      "taf": "TAF LWSK 192330Z 2000/2024 15012KT 9999 BKN070"
    },
    {
      "icao": "LYBE",
      "alert": "OK",
      "vis_m": 9999,
      "fzfg": false,
      "metar_trigger": false,
      "taf_trigger": false,
      "metar": "METAR LYBE 200230Z 13017KT CAVOK 10/02 Q1004 NOSIG",
      "taf": "TAF LYBE 192300Z 2000/2024 13017KT CAVOK TX09/2000Z TN02/2024Z"
    },
    {
      "icao": "LYNI",
      "alert": "OK",
      "vis_m": 9999,
      "fzfg": false,
      "metar_trigger": false,
      "taf_trigger": false,
      "metar": "METAR LYNI 200230Z 00000KT 9999 BKN083 08/02 Q1008 NOSIG",
      "taf": "TAF LYNI 192300Z 2000/2024 11005KT CAVOK TX08/2012Z TN03/2024Z"
    },
    {
      "icao": "LYPG",
      "alert": "OK",
      "vis_m": 8000,
      "fzfg": false,
      "metar_trigger": false,
      "taf_trigger": false,
      "metar": "METAR LYPG 200230Z 15018KT 8000 -TSRA FEW023 FEW027CB BKN040 12/10 Q1005 BECMG 15028KT 3000 TSRA",
      "taf": "TAF LYPG 192300Z 2000/2024 14015G25KT 9999 FEW025 SCT040 OVC070 TX15/2000Z TN06/2024Z"
    },
    {
      "icao": "LZIB",
      "alert": "OK",
      "vis_m": 4000,
      "fzfg": false,
      "metar_trigger": false,
      "taf_trigger": false,
      "metar": "METAR LZIB 200230Z 01009KT 4000 -SN BR FEW003 SCT007 BKN017 00/00 Q1010 RESN TEMPO 1500 +SN BR BKN009",
      "taf": "TAF LZIB 192315Z 2000/2100 02012KT 7000 -RASN FEW004 BKN018"
    },
    {
      "icao": "LZKZ",
      "alert": "OK",
      "vis_m": 8000,
      "fzfg": false,
      "metar_trigger": false,
      "taf_trigger": false,
      "metar": "METAR LZKZ 200230Z 36019KT 8000 NSC 00/M03 Q1013 NOSIG",
      "taf": "TAF LZKZ 192315Z 2000/2100 01012KT 7000 FEW023 BKN032 OVC040"
    },
    {
      "icao": "LZTT",
      "alert": "OK",
      "vis_m": 8000,
      "fzfg": false,
      "metar_trigger": false,
      "taf_trigger": false,
      "metar": "METAR LZTT 200230Z 06012KT 8000 OVC008 M03/M05 Q1012",
      "taf": "TAF LZTT 192315Z 2000/2100 07012KT 9999 FEW010 OVC022"
    },
    {
      "icao": "OEJN",
      "alert": "OK",
      "vis_m": 9999,
      "fzfg": false,
      "metar_trigger": false,
      "taf_trigger": false,
      "metar": "METAR OEJN 200200Z 35005KT 9999 FEW020 24/19 Q1012 NOSIG",
      "taf": "TAF OEJN 192300Z 2000/2106 02006KT 7000 NSC"
    },
    {
      "icao": "OEMA",
      "alert": "OK",
      "vis_m": 9999,
      "fzfg": false,
      "metar_trigger": false,
      "taf_trigger": false,
      "metar": "METAR OEMA 200200Z 03013KT CAVOK 20/00 Q1020 NOSIG",
      "taf": "TAF OEMA 192300Z 2000/2106 VRB03KT 7000 NSC"
    },
    {
      "icao": "OJAI",
      "alert": "OK",
      "vis_m": 4000,
      "fzfg": false,
      "metar_trigger": false,
      "taf_trigger": false,
      "metar": "METAR OJAI 200200Z 04008KT 4000 BR NSC 06/03 Q1023 NOSIG",
      "taf": ""
    },
    {
      "icao": "OMAA",
      "alert": "OK",
      "vis_m": 9999,
      "fzfg": false,
      "metar_trigger": false,
      "taf_trigger": false,
      "metar": "METAR OMAA 200230Z 09007KT CAVOK 17/10 Q1018 NOSIG",
      "taf": "TAF OMAA 192300Z 2000/2106 06007KT 8000 NSC"
    },
    {
      "icao": "OMDB",
      "alert": "OK",
      "vis_m": 9999,
      "fzfg": false,
      "metar_trigger": false,
      "taf_trigger": false,
      "metar": "METAR OMDB 200230Z VRB02KT CAVOK 21/08 Q1018 NOSIG",
      "taf": "TAF OMDB 192300Z 2000/2106 08005KT CAVOK"
    },
    {
      "icao": "UAAA",
      "alert": "OK",
      "vis_m": 7000,
      "fzfg": false,
      "metar_trigger": false,
      "taf_trigger": false,
      "metar": "METAR UAAA 200230Z 06001MPS 7000 FEW100 BKN200 05/03 Q1024 NOSIG",
      "taf": "TAF UAAA 192302Z 2000/2024 21003MPS 9999 SCT050CB BKN100 TX12/2009Z TN06/2003Z"
    },
    {
      "icao": "UBBB",
      "alert": "OK",
      "vis_m": 9999,
      "fzfg": false,
      "metar_trigger": false,
      "taf_trigger": false,
      "metar": "METAR UBBB 200230Z 34010KT CAVOK 08/03 Q1026 NOSIG",
      "taf": "TAF UBBB 192304Z 2000/2024 32018G28KT 9999 BKN030 TX10/2010Z TN07/2002Z"
    },
    {
      "icao": "UDSG",
      "alert": "OK",
      "vis_m": 9999,
      "fzfg": false,
      "metar_trigger": false,
      "taf_trigger": false,
      "metar": "METAR UDSG 200230Z 05004KT 9999 SCT049 M08/M09 Q1026 NOSIG",
      "taf": "TAF UDSG 192258Z 2000/2024 VRB06KT 9999 SCT040"
    },
    {
      "icao": "UDYZ",
      "alert": "OK",
      "vis_m": 9999,
      "fzfg": false,
      "metar_trigger": false,
      "taf_trigger": false,
      "metar": "METAR UDYZ 200230Z VRB02KT 9999 FEW043CB M02/M05 Q1027 NOSIG",
      "taf": "TAF UDYZ 192300Z 2000/2024 16006KT 9999 FEW040"
    },
    {
      "icao": "UGKO",
      "alert": "OK",
      "vis_m": 9999,
      "fzfg": false,
      "metar_trigger": false,
      "taf_trigger": false,
      "metar": "METAR UGKO 200230Z 11005KT CAVOK 01/01 Q1028 NOSIG",
      "taf": "TAF UGKO 192300Z 2000/2024 08007KT CAVOK TX17/2011Z TN02/2003Z"
    }
  ]
}