{
  "ts_utc": "2026-01-09T11:18:03Z",
  "threshold_m": 150,
  "source": "stations_override.txt (ICAO list) + aviationweather.gov (METAR/TAF raw)",
  "station_count": 159,
  "stations": [
    {
      "icao": "BIKF",
      "alert": "OK",
      "vis_m": 9999,
      "fzfg": false,
      "metar_trigger": false,
      "taf_trigger": false,
      "metar": "METAR BIKF 091100Z 03012KT 9999 FEW035 SCT220 M02/M07 Q1009",
      "taf": "TAF BIKF 091034Z 0912/1012 03010KT 9999 FEW040 TXM01/0916Z TNM07/1010Z"
    },
    {
      "icao": "BKPR",
      "alert": "OK",
      "vis_m": 9999,
      "fzfg": false,
      "metar_trigger": false,
      "taf_trigger": false,
      "metar": "METAR BKPR 091100Z 18003KT 9999 FEW080 M03/M06 Q1009 NOSIG",
      "taf": ""
    },
    {
      "icao": "EBCI",
      "alert": "OK",
      "vis_m": 6000,
      "fzfg": false,
      "metar_trigger": false,
      "taf_trigger": false,
      "metar": "METAR EBCI 091050Z 23022KT 6000 -RASN FEW007 BKN008 02/00 Q0984 TEMPO 22020G40KT 4000 MODRASN",
      "taf": "TAF EBCI 090500Z 0906/1012 21020G35KT 6000 -RA SCT003 BKN005"
    },
    {
      "icao": "EDDB",
      "alert": "OK",
      "vis_m": 9999,
      "fzfg": false,
      "metar_trigger": false,
      "taf_trigger": false,
      "metar": "METAR EDDB 091050Z AUTO 10015KT 9999 FEW033 BKN049 M06/M09 Q1001 TEMPO 09015G25KT",
      "taf": "TAF EDDB 090500Z 0906/1006 09013KT 9999 FEW025"
    },
    {
      "icao": "EDDH",
      "alert": "OK",
      "vis_m": 1700,
      "fzfg": false,
      "metar_trigger": false,
      "taf_trigger": false,
      "metar": "METAR EDDH 091050Z AUTO 09020G31KT 1700 1100 R05/P2000N R15/2000N -SN BR FEW006 SCT025 M04/M06 Q0997 TEMPO 09020G35KT 1000 -SN BLSN BKN003",
      "taf": "TAF EDDH 090500Z 0906/1012 09015G25KT 9999 BKN015"
    },
    {
      "icao": "EDDK",
      "alert": "OK",
      "vis_m": 9999,
      "fzfg": false,
      "metar_trigger": false,
      "taf_trigger": false,
      "metar": "METAR EDDK 091050Z AUTO 19016G29KT 150V230 9999 BKN033 BKN047 07/01 Q0985 TEMPO RA",
      "taf": "TAF EDDK 090500Z 0906/1012 16013KT 9999 OVC030"
    },
    {
      "icao": "EDDN",
      "alert": "OK",
      "vis_m": 9999,
      "fzfg": false,
      "metar_trigger": false,
      "taf_trigger": false,
      "metar": "METAR EDDN 091050Z AUTO 14005KT CAVOK 06/02 Q0994 NOSIG",
      "taf": "TAF EDDN 090500Z 0906/1006 13010KT 9999 FEW015 BKN025"
    },
    {
      "icao": "EDDS",
      "alert": "OK",
      "vis_m": 9999,
      "fzfg": false,
      "metar_trigger": false,
      "taf_trigger": false,
      "metar": "METAR EDDS 091050Z AUTO 22016G30KT 170V260 9999 BKN040 08/01 Q0993 NOSIG",
      "taf": "TAF EDDS 090500Z 0906/1006 20010KT 9999 SCT030"
    },
    {
      "icao": "EDFH",
      "alert": "OK",
      "vis_m": 9999,
      "fzfg": false,
      "metar_trigger": false,
      "taf_trigger": false,
      "metar": "METAR EDFH 091050Z 22014KT 9999 -RA FEW003 OVC005 02/01 Q0987",
      "taf": "TAF EDFH 090500Z 0906/1006 22020G35KT 9999 SCT010 BKN030"
    },
    {
      "icao": "EDJA",
      "alert": "OK",
      "vis_m": 9999,
      "fzfg": false,
      "metar_trigger": false,
      "taf_trigger": false,
      "metar": "METAR EDJA 091050Z 24022G33KT CAVOK 06/01 Q0996",
      "taf": "TAF EDJA 090800Z 0909/0918 24020G35KT 9999 SCT020"
    },
    {
      "icao": "EDLW",
      "alert": "OK",
      "vis_m": 9999,
      "fzfg": false,
      "metar_trigger": false,
      "taf_trigger": false,
      "metar": "METAR EDLW 091050Z 17013G24KT 9999 FEW027 07/02 Q0984",
      "taf": "TAF EDLW 090500Z 0906/1006 15012KT 9999 SCT040"
    },
    {
      "icao": "EDNY",
      "alert": "OK",
      "vis_m": 8000,
      "fzfg": false,
      "metar_trigger": false,
      "taf_trigger": false,
      "metar": "METAR EDNY 091050Z 25018KT 8000 RA FEW019 BKN022 BKN035 05/02 Q0999",
      "taf": "TAF EDNY 090800Z 0909/0918 24015G25KT 9999 SCT020"
    },
    {
      "icao": "EDSB",
      "alert": "OK",
      "vis_m": 9999,
      "fzfg": false,
      "metar_trigger": false,
      "taf_trigger": false,
      "metar": "METAR EDSB 091050Z 21024G36KT 9999 BKN048 09/02 Q0993",
      "taf": "TAF EDSB 090500Z 0906/1006 20020G30KT 9999 SCT030"
    },
    {
      "icao": "EETN",
      "alert": "OK",
      "vis_m": 9999,
      "fzfg": false,
      "metar_trigger": false,
      "taf_trigger": false,
      "metar": "METAR EETN 091050Z 05015KT 9999 DRSN BKN021 M05/M08 Q1018 TEMPO 06018G30KT",
      "taf": "TAF EETN 090530Z 0906/1006 07014KT 9999 DRSN SCT020"
    },
    {
      "icao": "EFTU",
      "alert": "OK",
      "vis_m": 9999,
      "fzfg": false,
      "metar_trigger": false,
      "taf_trigger": false,
      "metar": "METAR EFTU 091050Z AUTO 06007KT CAVOK M14/M16 Q1023",
      "taf": "TAF EFTU 090826Z 0909/1009 08007KT CAVOK"
    },
    {
      "icao": "EGBB",
      "alert": "OK",
      "vis_m": 9999,
      "fzfg": false,
      "metar_trigger": false,
      "taf_trigger": false,
      "metar": "METAR EGBB 091050Z 31013KT 9999 SCT024 BKN031 03/01 Q0996",
      "taf": "TAF EGBB 091057Z 0912/1012 32014KT 9999 SCT024"
    },
    {
      "icao": "EGGP",
      "alert": "OK",
      "vis_m": 9999,
      "fzfg": false,
      "metar_trigger": false,
      "taf_trigger": false,
      "metar": "METAR EGGP 091050Z 34011KT 9999 -RA SCT021 BKN040 04/01 Q0999",
      "taf": "TAF EGGP 091105Z 0912/1012 34010KT 9999 SCT020"
    },
    {
      "icao": "EGGW",
      "alert": "OK",
      "vis_m": 9999,
      "fzfg": false,
      "metar_trigger": false,
      "taf_trigger": false,
      "metar": "METAR EGGW 091050Z AUTO 33020KT 9999 OVC009 03/02 Q0992",
      "taf": "TAF EGGW 091103Z 0912/1012 32018G28KT 9999 SCT008 BKN015"
    },
    {
      "icao": "EGKK",
      "alert": "OK",
      "vis_m": 9999,
      "fzfg": false,
      "metar_trigger": false,
      "taf_trigger": false,
      "metar": "METAR EGKK 091050Z 30019KT 9999 BKN011 04/02 Q0992",
      "taf": "TAF EGKK 091055Z 0912/1018 31016G26KT 9999 BKN011"
    },
    {
      "icao": "EGNM",
      "alert": "OK",
      "vis_m": 9999,
      "fzfg": false,
      "metar_trigger": false,
      "taf_trigger": false,
      "metar": "METAR EGNM 091050Z 34011KT 9999 -SHRA FEW009 SCT025 02/01 Q0997",
      "taf": "TAF EGNM 091100Z 0912/1012 01010KT 9999 SCT025"
    },
    {
      "icao": "EGPD",
      "alert": "OK",
      "vis_m": 9999,
      "fzfg": false,
      "metar_trigger": false,
      "taf_trigger": false,
      "metar": "METAR EGPD 091050Z COR VRB02KT 9999 FEW025 SCT032 OVC047 M02/M03 Q1002 REFZRA NOSIG",
      "taf": "TAF EGPD 091058Z 0912/1012 30005KT 9999 FEW015 SCT040"
    },
    {
      "icao": "EGPF",
      "alert": "OK",
      "vis_m": 9999,
      "fzfg": false,
      "metar_trigger": false,
      "taf_trigger": false,
      "metar": "METAR EGPF 091050Z AUTO 24003KT 9999 NCD 00/M00 Q1002",
      "taf": "TAF EGPF 091058Z 0912/1012 VRB03KT 9999 SCT025"
    },
    {
      "icao": "EHBK",
      "alert": "OK",
      "vis_m": 9999,
      "fzfg": false,
      "metar_trigger": false,
      "taf_trigger": false,
      "metar": "METAR EHBK 091055Z AUTO 21026G36KT 180V240 9999 SCT014 OVC017 04/02 Q0981 BECMG BKN014",
      "taf": "TAF EHBK 090516Z 0906/1012 19018G28KT 9999 -RADZ BKN035"
    },
    {
      "icao": "EHEH",
      "alert": "OK",
      "vis_m": 6000,
      "fzfg": false,
      "metar_trigger": false,
      "taf_trigger": false,
      "metar": "METAR EHEH 091055Z AUTO 16016KT 120V200 6000 -RASN FEW006 BKN008 OVC010 03/02 Q0977 GRN TEMPO 17012G25KT 4000 -RA SCT015 BKN020",
      "taf": "TAF EHEH 090549Z 0906/1012 16010KT 9999 SCT018 BKN030"
    },
    {
      "icao": "EKBI",
      "alert": "OK",
      "vis_m": 9999,
      "fzfg": false,
      "metar_trigger": false,
      "taf_trigger": false,
      "metar": "METAR EKBI 091050Z 09023G35KT 9999 DRSN BKN030 M00/M05 Q1004",
      "taf": "TAF EKBI 090827Z 0909/1009 10018KT 9000 SCT020"
    },
    {
      "icao": "EKCH",
      "alert": "OK",
      "vis_m": 9999,
      "fzfg": false,
      "metar_trigger": false,
      "taf_trigger": false,
      "metar": "METAR EKCH 091050Z AUTO 09020KT 9999 BKN042/// 00/M06 Q1008 TEMPO 09020G30KT",
      "taf": "TAF EKCH 090827Z 0909/1009 09015KT 9999 BKN030"
    },
    {
      "icao": "ENAL",
      "alert": "OK",
      "vis_m": 9999,
      "fzfg": false,
      "metar_trigger": false,
      "taf_trigger": false,
      "metar": "METAR ENAL 091050Z 14013KT CAVOK 00/M07 Q1010",
      "taf": "TAF ENAL 090800Z 0909/0918 14012KT 9999 BKN060"
    },
    {
      "icao": "ENBR",
      "alert": "OK",
      "vis_m": 9999,
      "fzfg": false,
      "metar_trigger": false,
      "taf_trigger": false,
      "metar": "METAR ENBR 091050Z 00000KT CAVOK M03/M10 Q1010 NOSIG RMK WIND 1200FT 14011KT",
      "taf": "TAF ENBR 090500Z 0906/1006 06005KT CAVOK"
    },
    {
      "icao": "ENGM",
      "alert": "OK",
      "vis_m": 8000,
      "fzfg": false,
      "metar_trigger": false,
      "taf_trigger": false,
      "metar": "METAR ENGM 091050Z 02007KT 8000 -SN SCT032 BKN048 M07/M08 Q1017 NOSIG",
      "taf": ""
    },
    {
      "icao": "ENHD",
      "alert": "OK",
      "vis_m": 9999,
      "fzfg": false,
      "metar_trigger": false,
      "taf_trigger": false,
      "metar": "METAR ENHD 091050Z 11012KT CAVOK 01/M09 Q1010",
      "taf": "TAF ENHD 090800Z 0909/0918 11012KT CAVOK"
    },
    {
      "icao": "ENTC",
      "alert": "OK",
      "vis_m": 9999,
      "fzfg": false,
      "metar_trigger": false,
      "taf_trigger": false,
      "metar": "METAR ENTC 091050Z 10003KT 010V150 CAVOK M09/M12 Q1024 NOSIG RMK WIND 2600FT 18028KT",
      "taf": "TAF ENTC 090500Z 0906/1006 20005KT CAVOK"
    },
    {
      "icao": "ENTO",
      "alert": "OK",
      "vis_m": 9999,
      "fzfg": false,
      "metar_trigger": false,
      "taf_trigger": false,
      "metar": "METAR ENTO 091050Z 01009KT 9999 -SHSN BKN044 M06/M08 Q1016 NOSIG",
      "taf": "TAF ENTO 090500Z 0906/1006 03010KT 9999 -SN SCT012 BKN020"
    },
    {
      "icao": "ENVA",
      "alert": "OK",
      "vis_m": 9999,
      "fzfg": false,
      "metar_trigger": false,
      "taf_trigger": false,
      "metar": "METAR ENVA 091050Z 14011G23KT 110V170 CAVOK M02/M10 Q1014 NOSIG RMK WIND 670FT 17026G38KT",
      "taf": "TAF ENVA 090500Z 0906/1006 10008KT CAVOK"
    },
    {
      "icao": "ENZV",
      "alert": "OK",
      "vis_m": 9999,
      "fzfg": false,
      "metar_trigger": false,
      "taf_trigger": false,
      "metar": "METAR ENZV 091050Z 11006KT 070V140 9999 FEW045 01/M08 Q1010 NOSIG",
      "taf": "TAF ENZV 090500Z 0906/1006 12008KT CAVOK"
    },
    {
      "icao": "EPGD",
      "alert": "OK",
      "vis_m": 9999,
      "fzfg": false,
      "metar_trigger": false,
      "taf_trigger": false,
      "metar": "METAR EPGD 091100Z 05012KT 9999 BKN018 M03/M06 Q1006",
      "taf": "TAF EPGD 090530Z 0906/1006 06006KT 9999 SCT015"
    },
    {
      "icao": "EPKK",
      "alert": "OK",
      "vis_m": 9999,
      "fzfg": false,
      "metar_trigger": false,
      "taf_trigger": false,
      "metar": "METAR EPKK 091100Z VRB01KT CAVOK M04/M10 Q1003",
      "taf": "TAF EPKK 090830Z 0909/1009 25006KT 9999 BKN010"
    },
    {
      "icao": "EPKT",
      "alert": "OK",
      "vis_m": 9999,
      "fzfg": false,
      "metar_trigger": false,
      "taf_trigger": false,
      "metar": "METAR EPKT 091100Z 26002KT CAVOK M06/M09 Q1003",
      "taf": ""
    },
    {
      "icao": "EPLB",
      "alert": "OK",
      "vis_m": 6000,
      "fzfg": false,
      "metar_trigger": false,
      "taf_trigger": false,
      "metar": "METAR EPLB 091100Z 31010KT 6000 -SN DRSN BKN014 M09/M10 Q1000",
      "taf": "TAF EPLB 090530Z 0906/1006 30012KT 8000 -SN BKN013 BKN030"
    },
    {
      "icao": "EPMO",
      "alert": "OK",
      "vis_m": 9999,
      "fzfg": false,
      "metar_trigger": false,
      "taf_trigger": false,
      "metar": "METAR EPMO 091100Z 29006KT 9999 FEW042 M10/M11 Q1004",
      "taf": "TAF EPMO 090530Z 0906/1006 31008KT 8000 NSC"
    },
    {
      "icao": "EPPO",
      "alert": "OK",
      "vis_m": 6000,
      "fzfg": false,
      "metar_trigger": false,
      "taf_trigger": false,
      "metar": "METAR EPPO 091100Z 08004KT 6000 -SN BKN007 M09/M11 Q1006",
      "taf": ""
    },
    {
      "icao": "EPRA",
      "alert": "OK",
      "vis_m": 9999,
      "fzfg": false,
      "metar_trigger": false,
      "taf_trigger": false,
      "metar": "METAR EPRA 091100Z 29008KT 9999 BKN010 OVC036 M09/M12 Q1003",
      "taf": "TAF EPRA 090830Z 0909/0918 30010KT 8000 BKN010 BKN030"
    },
    {
      "icao": "EPRZ",
      "alert": "OK",
      "vis_m": 9999,
      "fzfg": false,
      "metar_trigger": false,
      "taf_trigger": false,
      "metar": "METAR EPRZ 091100Z 26015KT 9999 SCT036 M06/M09 Q1002",
      "taf": "TAF EPRZ 090530Z 0906/1006 31015KT 9999 -SN OVC013"
    },
    {
      "icao": "EPSC",
      "alert": "OK",
      "vis_m": 9999,
      "fzfg": false,
      "metar_trigger": false,
      "taf_trigger": false,
      "metar": "METAR EPSC 091100Z 08008KT CAVOK M07/M11 Q1006",
      "taf": "TAF EPSC 090530Z 0906/1006 10008KT CAVOK"
    },
    {
      "icao": "EPSY",
      "alert": "OK",
      "vis_m": 9999,
      "fzfg": false,
      "metar_trigger": false,
      "taf_trigger": false,
      "metar": "METAR EPSY 091100Z 36010KT 320V030 9999 FEW012 M10/M12 Q1003",
      "taf": "TAF EPSY 090830Z 0909/0918 36010KT CAVOK"
    },
    {
      "icao": "EPWA",
      "alert": "OK",
      "vis_m": 9999,
      "fzfg": false,
      "metar_trigger": false,
      "taf_trigger": false,
      "metar": "METAR EPWA 091100Z 29010KT 9999 FEW009 SCT048 M10/M12 Q1003 NOSIG",
      "taf": "TAF EPWA 090830Z 0909/1009 30010KT 9999 SCT030"
    },
    {
      "icao": "EPWR",
      "alert": "OK",
      "vis_m": 5000,
      "fzfg": false,
      "metar_trigger": false,
      "taf_trigger": false,
      "metar": "METAR EPWR 091100Z 10005KT 5000 BR NSC M08/M10 Q1004",
      "taf": "TAF EPWR 090830Z 0909/1009 10006KT 3500 BR FEW002"
    },
    {
      "icao": "ESGG",
      "alert": "OK",
      "vis_m": 9999,
      "fzfg": false,
      "metar_trigger": false,
      "taf_trigger": false,
      "metar": "METAR ESGG 091050Z 08010KT 9999 FEW020 M04/M06 Q1012",
      "taf": "TAF ESGG 090830Z 0909/1009 08010KT 9999 SCT030"
    },
    {
      "icao": "ESKN",
      "alert": "OK",
      "vis_m": 9999,
      "fzfg": false,
      "metar_trigger": false,
      "taf_trigger": false,
      "metar": "METAR ESKN 091050Z 08011KT 9999 FEW025 BKN032 M03/M07 Q1018",
      "taf": "TAF ESKN 090830Z 0909/1009 07010KT 9999 BKN030"
    },
    {
      "icao": "ESMS",
      "alert": "OK",
      "vis_m": 9999,
      "fzfg": false,
      "metar_trigger": false,
      "taf_trigger": false,
      "metar": "METAR ESMS 091050Z 08017KT 9999 SCT027 BKN038 M01/M07 Q1008",
      "taf": "TAF ESMS 090827Z 0909/1009 09012KT 9999 BKN040"
    },
    {
      "icao": "ESSA",
      "alert": "OK",
      "vis_m": 9999,
      "fzfg": false,
      "metar_trigger": false,
      "taf_trigger": false,
      "metar": "METAR ESSA 091050Z 07009KT 9999 BKN032 M04/M06 Q1020 NOSIG",
      "taf": "TAF ESSA 090830Z 0909/1009 10012KT 9999 SCT035"
    },
    {
      "icao": "EYKA",
      "alert": "OK",
      "vis_m": 5000,
      "fzfg": false,
      "metar_trigger": false,
      "taf_trigger": false,
      "metar": "METAR EYKA 091050Z 36014KT 330V060 5000 -SN BLSN NSC M10/M13 Q1003",
      "taf": "TAF EYKA 091100Z 0912/1012 01012KT 3000 SN BKN015 OVC030"
    },
    {
      "icao": "EYPA",
      "alert": "OK",
      "vis_m": 9999,
      "fzfg": false,
      "metar_trigger": false,
      "taf_trigger": false,
      "metar": "METAR EYPA 091050Z 05014KT CAVOK M07/M11 Q1009",
      "taf": "TAF EYPA 091100Z 0912/1012 04014KT 9000 NSC"
    },
    {
      "icao": "EYVI",
      "alert": "OK",
      "vis_m": 1300,
      "fzfg": false,
      "metar_trigger": false,
      "taf_trigger": false,
      "metar": "METAR EYVI 091050Z 01018KT 1300 R01/1400N SN BLSN OVC015 M11/M13 Q0998 NOSIG",
      "taf": "TAF EYVI 091100Z 0912/1012 02013KT 1500 SN BLSN OVC015"
    },
    {
      "icao": "GCFV",
      "alert": "OK",
      "vis_m": 9999,
      "fzfg": false,
      "metar_trigger": false,
      "taf_trigger": false,
      "metar": "METAR GCFV 091100Z 04010KT 9999 SCT030 19/09 Q1032",
      "taf": "TAF GCFV 090800Z 0909/1009 05013KT 9999 FEW025 TX20/0914Z TN15/1006Z"
    },
    {
      "icao": "GCLP",
      "alert": "OK",
      "vis_m": 9999,
      "fzfg": false,
      "metar_trigger": false,
      "taf_trigger": false,
      "metar": "METAR GCLP 091100Z 01005KT 330V060 9999 FEW030 19/09 Q1031 NOSIG",
      "taf": "TAF GCLP 090800Z 0909/1009 03012KT 9999 FEW030 TX20/0914Z TN15/1006Z"
    },
    {
      "icao": "GCTS",
      "alert": "OK",
      "vis_m": 9999,
      "fzfg": false,
      "metar_trigger": false,
      "taf_trigger": false,
      "metar": "METAR GCTS 091100Z 07014KT 030V100 9999 FEW030 20/09 Q1031 NOSIG",
      "taf": "TAF GCTS 090800Z 0909/1009 03010KT 9999 FEW030 TX22/0914Z TN15/1006Z"
    },
    {
      "icao": "GMAD",
      "alert": "OK",
      "vis_m": 9999,
      "fzfg": false,
      "metar_trigger": false,
      "taf_trigger": false,
      "metar": "METAR GMAD 091100Z 05006KT 030V090 CAVOK 14/07 Q1031 NOSIG",
      "taf": "TAF GMAD 091100Z 0912/1018 28012KT CAVOK"
    },
    {
      "icao": "GMMN",
      "alert": "OK",
      "vis_m": 9999,
      "fzfg": false,
      "metar_trigger": false,
      "taf_trigger": false,
      "metar": "METAR GMMN 091100Z VRB02KT 9999 SCT030 16/11 Q1032 NOSIG",
      "taf": "TAF GMMN 091100Z 0912/1018 06002KT 9999 FEW030"
    },
    {
      "icao": "GMMX",
      "alert": "OK",
      "vis_m": 9999,
      "fzfg": false,
      "metar_trigger": false,
      "taf_trigger": false,
      "metar": "METAR GMMX 091100Z VRB01KT CAVOK 13/08 Q1031 NOSIG",
      "taf": "TAF GMMX 090500Z 0906/1012 24004KT 8000 NSC"
    },
    {
      "icao": "HEGN",
      "alert": "OK",
      "vis_m": 1000,
      "fzfg": false,
      "metar_trigger": false,
      "taf_trigger": false,
      "metar": "METAR HEGN 091000Z 34026KT 1000 R34 1000 R16 1000 SA NSC 23/12 Q1015 NOSIG",
      "taf": ""
    },
    {
      "icao": "HEMA",
      "alert": "OK",
      "vis_m": 9999,
      "fzfg": false,
      "metar_trigger": false,
      "taf_trigger": false,
      "metar": "METAR HEMA 091000Z 09007KT CAVOK 27/17 Q1014 NOSIG",
      "taf": "TAF HEMA 091100Z 0912/1018 36008G20KT 6000 NSC"
    },
    {
      "icao": "HESH",
      "alert": "OK",
      "vis_m": 8000,
      "fzfg": false,
      "metar_trigger": false,
      "taf_trigger": false,
      "metar": "METAR HESH 091000Z 35012KT 8000 NSC 25/17 Q1013 NOSIG",
      "taf": ""
    },
    {
      "icao": "HESX",
      "alert": "OK",
      "vis_m": 9999,
      "fzfg": false,
      "metar_trigger": false,
      "taf_trigger": false,
      "metar": "METAR HESX 091000Z 27016KT CAVOK 18/04 Q1019 NOSIG",
      "taf": "TAF HESX 091100Z 0912/1018 28015KT 9999 FEW025"
    },
    {
      "icao": "LATI",
      "alert": "OK",
      "vis_m": null,
      "fzfg": false,
      "metar_trigger": false,
      "taf_trigger": false,
      "metar": "",
      "taf": "TAF LATI 091100Z 0912/1012 14015KT 9999 BKN040 OVC060 TX14/1001Z TN08/1007Z"
    },
    {
      "icao": "LBPD",
      "alert": "OK",
      "vis_m": 9999,
      "fzfg": false,
      "metar_trigger": false,
      "taf_trigger": false,
      "metar": "METAR LBPD 091100Z AUTO 30009KT 9999 BKN120/// BKN160/// 07/M08 Q1008 NOSIG",
      "taf": "TAF LBPD 091100Z 0912/1012 28012KT 9999 SCT050"
    },
    {
      "icao": "LBSF",
      "alert": "OK",
      "vis_m": 9999,
      "fzfg": false,
      "metar_trigger": false,
      "taf_trigger": false,
      "metar": "METAR LBSF 091100Z 35008KT CAVOK 02/M07 Q1008 NOSIG",
      "taf": "TAF LBSF 091100Z 0912/1012 32010KT 9999 SCT040"
    },
    {
      "icao": "LBWN",
      "alert": "OK",
      "vis_m": 9999,
      "fzfg": false,
      "metar_trigger": false,
      "taf_trigger": false,
      "metar": "METAR LBWN 091100Z 27016KT CAVOK 01/M06 Q1007 NOSIG",
      "taf": "TAF LBWN 091100Z 0912/1012 28012KT CAVOK"
    },
    {
      "icao": "LCLK",
      "alert": "OK",
      "vis_m": 9999,
      "fzfg": false,
      "metar_trigger": false,
      "taf_trigger": false,
      "metar": "METAR LCLK 091100Z 29013KT 260V320 9999 FEW020 FEW030TCU FEW035CB SCT045 18/09 Q1006 NOSIG RMK CB TO S",
      "taf": "TAF LCLK 090530Z 0906/1006 24014KT 9999 FEW020 SCT040"
    },
    {
      "icao": "LCPH",
      "alert": "OK",
      "vis_m": 9000,
      "fzfg": false,
      "metar_trigger": false,
      "taf_trigger": false,
      "metar": "METAR LCPH 091100Z 31020KT 9000 R29/P2000 R11/0500 -SHRA FEW025 FEW030CB SCT050 BKN060 15/09 Q1008 TEMPO 5000 TSRA BKN005",
      "taf": "TAF LCPH 090530Z 0906/1006 30025G35KT 9999 FEW025 SCT040"
    },
    {
      "icao": "LEAL",
      "alert": "OK",
      "vis_m": 9999,
      "fzfg": false,
      "metar_trigger": false,
      "taf_trigger": false,
      "metar": "METAR LEAL 091100Z 22008KT 170V260 CAVOK 16/07 Q1022 NOSIG",
      "taf": "TAF LEAL 090500Z 0906/1006 23008KT CAVOK TX18/0914Z TN10/0906Z"
    },
    {
      "icao": "LEBB",
      "alert": "OK",
      "vis_m": 4000,
      "fzfg": false,
      "metar_trigger": false,
      "taf_trigger": false,
      "metar": "SPECI LEBB 091110Z 29031G43KT 260V320 4000 RA SCT025 BKN035 BKN050 07/05 Q1020 WS ALL RWY TEMPO NSW",
      "taf": "TAF LEBB 090500Z 0906/1006 29009KT 9999 FEW020 SCT040 TX12/0914Z TN07/0923Z"
    },
    {
      "icao": "LEBL",
      "alert": "OK",
      "vis_m": 9999,
      "fzfg": false,
      "metar_trigger": false,
      "taf_trigger": false,
      "metar": "METAR LEBL 091100Z 28017G29KT 9999 FEW030 17/05 Q1014 NOSIG",
      "taf": ""
    },
    {
      "icao": "LECH",
      "alert": "OK",
      "vis_m": 9999,
      "fzfg": false,
      "metar_trigger": false,
      "taf_trigger": false,
      "metar": "METAR LECH 091100Z AUTO 18007G17KT 140V250 CAVOK 15/03 Q1017",
      "taf": ""
    },
    {
      "icao": "LEMD",
      "alert": "OK",
      "vis_m": 9999,
      "fzfg": false,
      "metar_trigger": false,
      "taf_trigger": false,
      "metar": "METAR LEMD 091100Z 26012KT 220V290 9999 FEW048 11/01 Q1023 NOSIG",
      "taf": "TAF LEMD 090500Z 0906/1012 23010KT 9999 SCT030 TX11/0912Z TN01/1006Z"
    },
    {
      "icao": "LEMG",
      "alert": "OK",
      "vis_m": 9999,
      "fzfg": false,
      "metar_trigger": false,
      "taf_trigger": false,
      "metar": "METAR LEMG 091100Z 30017G28KT 9999 FEW030 14/08 Q1028 NOSIG",
      "taf": "TAF LEMG 090500Z 0906/1006 29013KT CAVOK TX18/0914Z TN08/0906Z"
    },
    {
      "icao": "LEVC",
      "alert": "OK",
      "vis_m": 9999,
      "fzfg": false,
      "metar_trigger": false,
      "taf_trigger": false,
      "metar": "METAR LEVC 091100Z 25012G22KT 200V290 9999 FEW045 16/08 Q1019 NOSIG",
      "taf": "TAF LEVC 090500Z 0906/1006 27015KT 9999 FEW020 TX18/0914Z TN09/0906Z"
    },
    {
      "icao": "LEXJ",
      "alert": "OK",
      "vis_m": 8000,
      "fzfg": false,
      "metar_trigger": false,
      "taf_trigger": false,
      "metar": "METAR LEXJ 091100Z 29032G50KT 250V320 8000 R29/1300U R11/P2000 RA BKN035 BKN045 08/03 Q1020",
      "taf": "TAF LEXJ 090800Z 0909/1009 29015KT 9999 SCT025 TX12/0913Z TN07/0921Z"
    },
    {
      "icao": "LEZG",
      "alert": "OK",
      "vis_m": 9999,
      "fzfg": false,
      "metar_trigger": false,
      "taf_trigger": false,
      "metar": "METAR LEZG 091100Z 26021G33KT 9999 FEW065 14/02 Q1017 NOSIG",
      "taf": ""
    },
    {
      "icao": "LEZL",
      "alert": "OK",
      "vis_m": 9999,
      "fzfg": false,
      "metar_trigger": false,
      "taf_trigger": false,
      "metar": "METAR LEZL 091100Z 23006KT 200V260 9999 SCT012 BKN022 OVC031 12/10 Q1030 NOSIG",
      "taf": "TAF LEZL 090800Z 0909/1009 VRB03KT 9999 BKN020 TX16/0915Z TN06/1007Z"
    },
    {
      "icao": "LFBD",
      "alert": "OK",
      "vis_m": 9999,
      "fzfg": false,
      "metar_trigger": false,
      "taf_trigger": false,
      "metar": "METAR LFBD 091100Z AUTO 28021KT 9999 RA SCT030/// BKN036/// BKN044/// ///CB 09/05 Q1010",
      "taf": "TAF LFBD 090500Z 0906/1012 26015G25KT 9999 BKN030 TX11/0914Z TN09/0906Z"
    },
    {
      "icao": "LFLL",
      "alert": "OK",
      "vis_m": 9999,
      "fzfg": false,
      "metar_trigger": false,
      "taf_trigger": false,
      "metar": "METAR LFLL 091100Z 23008KT 200V260 9999 FEW033 SCT066 BKN100 08/01 Q1006 NOSIG",
      "taf": "TAF LFLL 090500Z 0906/1012 22012KT 9999 BKN045"
    },
    {
      "icao": "LFLS",
      "alert": "OK",
      "vis_m": 9999,
      "fzfg": false,
      "metar_trigger": false,
      "taf_trigger": false,
      "metar": "METAR LFLS 091100Z AUTO 24011KT 9999 -RA FEW031/// BKN040/// OVC048/// ///TCU 06/03 Q1007 BECMG SCT045 SCT100",
      "taf": "TAF LFLS 090800Z 0909/1009 20014KT 9999 SCT045 SCT100"
    },
    {
      "icao": "LFMN",
      "alert": "OK",
      "vis_m": 9999,
      "fzfg": false,
      "metar_trigger": false,
      "taf_trigger": false,
      "metar": "METAR LFMN 091100Z 25026KT CAVOK 15/04 Q1004 TEMPO 25025KT",
      "taf": "TAF LFMN 090800Z 0909/1015 25020G30KT CAVOK"
    },
    {
      "icao": "LFOB",
      "alert": "OK",
      "vis_m": 9999,
      "fzfg": false,
      "metar_trigger": false,
      "taf_trigger": false,
      "metar": "METAR LFOB 091100Z AUTO 26018KT 9999 -RA OVC015 05/03 Q0992 TEMPO 4000 SHRA BKN012TCU BECMG 25025G40KT",
      "taf": "TAF LFOB 090500Z 0906/1006 25025G40KT 9999 OVC020"
    },
    {
      "icao": "LFPO",
      "alert": "OK",
      "vis_m": 9999,
      "fzfg": false,
      "metar_trigger": false,
      "taf_trigger": false,
      "metar": "METAR LFPO 091113Z 26020G32KT 9999 -RA BKN029 07/02 Q0995 NOSIG",
      "taf": "TAF LFPO 090500Z 0906/1012 24025G40KT 9999 BKN030"
    },
    {
      "icao": "LFSB",
      "alert": "OK",
      "vis_m": 9999,
      "fzfg": false,
      "metar_trigger": false,
      "taf_trigger": false,
      "metar": "METAR LFSB 091100Z AUTO 25024G37KT 9999 FEW018 BKN038 BKN045 07/02 Q0998 NOSIG",
      "taf": ""
    },
    {
      "icao": "LGAV",
      "alert": "OK",
      "vis_m": 9999,
      "fzfg": false,
      "metar_trigger": false,
      "taf_trigger": false,
      "metar": "METAR LGAV 091050Z 26008KT 210V290 9999 FEW025 BKN070 13/01 Q1014 NOSIG",
      "taf": "TAF LGAV 091100Z 0912/1012 24012KT 9999 SCT025 SCT070"
    },
    {
      "icao": "LGTS",
      "alert": "OK",
      "vis_m": 9999,
      "fzfg": false,
      "metar_trigger": false,
      "taf_trigger": false,
      "metar": "METAR LGTS 091050Z 21004KT 9999 FEW030 08/M03 Q1012 NOSIG",
      "taf": "TAF LGTS 091100Z 0912/1012 VRB03KT 9999 FEW025"
    },
    {
      "icao": "LHBP",
      "alert": "OK",
      "vis_m": 5000,
      "fzfg": false,
      "metar_trigger": false,
      "taf_trigger": false,
      "metar": "METAR LHBP 091100Z 14003KT 5000 -SN SCT040 OVC070 M06/M08 Q1005 NOSIG",
      "taf": "TAF LHBP 090515Z 0906/1006 VRB03KT CAVOK"
    },
    {
      "icao": "LHDC",
      "alert": "OK",
      "vis_m": 6000,
      "fzfg": false,
      "metar_trigger": false,
      "taf_trigger": false,
      "metar": "METAR LHDC 091045Z AUTO 17007KT 6000 NSC M08/M11 Q1007 NOSIG",
      "taf": "TAF LHDC 090815Z 0909/0918 19008KT 7000 NSC"
    },
    {
      "icao": "LIBD",
      "alert": "OK",
      "vis_m": 9999,
      "fzfg": false,
      "metar_trigger": false,
      "taf_trigger": false,
      "metar": "METAR LIBD 091050Z 25011KT 9999 FEW030 17/08 Q1008",
      "taf": "TAF LIBD 090500Z 0906/1006 17008KT 9999 FEW020"
    },
    {
      "icao": "LIBG",
      "alert": "OK",
      "vis_m": 9999,
      "fzfg": false,
      "metar_trigger": false,
      "taf_trigger": false,
      "metar": "METAR LIBG 091050Z 19006KT 170V240 9999 FEW020 16/15 Q1010",
      "taf": "TAF LIBG 090800Z 0909/0918 21008KT 9999 SCT040"
    },
    {
      "icao": "LIBP",
      "alert": "OK",
      "vis_m": 9999,
      "fzfg": false,
      "metar_trigger": false,
      "taf_trigger": false,
      "metar": "METAR LIBP 091050Z AUTO 23021G31KT 9999 NCD 18/06 Q1003",
      "taf": "TAF LIBP 090500Z 0906/1006 VRB06KT 9999 SCT025"
    },
    {
      "icao": "LIBR",
      "alert": "OK",
      "vis_m": 9999,
      "fzfg": false,
      "metar_trigger": false,
      "taf_trigger": false,
      "metar": "METAR LIBR 091050Z 18006KT CAVOK 15/11 Q1010",
      "taf": "TAF LIBR 090500Z 0906/1006 17010KT 9999 FEW040"
    },
    {
      "icao": "LICA",
      "alert": "OK",
      "vis_m": 9999,
      "fzfg": false,
      "metar_trigger": false,
      "taf_trigger": false,
      "metar": "METAR LICA 091050Z AUTO 25019G30KT 9999 BKN021/// 15/13 Q1014 REDZ",
      "taf": "TAF LICA 090500Z 0906/1006 27026G38KT 9999 BKN016"
    },
    {
      "icao": "LICC",
      "alert": "OK",
      "vis_m": 9999,
      "fzfg": false,
      "metar_trigger": false,
      "taf_trigger": false,
      "metar": "METAR LICC 091050Z 26020KT 9999 BKN030 18/13 Q1017",
      "taf": "TAF LICC 090500Z 0906/1006 26013KT 9999 FEW050"
    },
    {
      "icao": "LICJ",
      "alert": "OK",
      "vis_m": 9999,
      "fzfg": false,
      "metar_trigger": false,
      "taf_trigger": false,
      "metar": "METAR LICJ 091050Z 21021KT 9999 SCT035 SCT050 15/10 Q1017",
      "taf": "TAF LICJ 090500Z 0906/1006 23020G35KT 9999 SCT020"
    },
    {
      "icao": "LIMC",
      "alert": "OK",
      "vis_m": 7000,
      "fzfg": false,
      "metar_trigger": false,
      "taf_trigger": false,
      "metar": "METAR LIMC 091050Z VRB02KT 7000 BKN025 01/M02 Q1004 NOSIG",
      "taf": "TAF LIMC 090500Z 0906/1012 VRB04KT 9999 BKN025"
    },
    {
      "icao": "LIME",
      "alert": "OK",
      "vis_m": 9000,
      "fzfg": false,
      "metar_trigger": false,
      "taf_trigger": false,
      "metar": "METAR LIME 091050Z 23004KT 200V270 9000 SCT035 01/M04 Q1004 NOSIG",
      "taf": "TAF LIME 090500Z 0906/1006 VRB04KT 9999 SCT050"
    },
    {
      "icao": "LIMF",
      "alert": "OK",
      "vis_m": 7000,
      "fzfg": false,
      "metar_trigger": false,
      "taf_trigger": false,
      "metar": "METAR LIMF 091050Z 11004KT 070V150 7000 FEW050 02/M04 Q1003",
      "taf": "TAF LIMF 090500Z 0906/1006 VRB03KT 9999 BKN030"
    },
    {
      "icao": "LIMJ",
      "alert": "OK",
      "vis_m": 9999,
      "fzfg": false,
      "metar_trigger": false,
      "taf_trigger": false,
      "metar": "METAR LIMJ 091050Z 04009KT CAVOK 10/01 Q1002",
      "taf": "TAF LIMJ 090500Z 0906/1006 03012KT 9999 SCT020 BKN030"
    },
    {
      "icao": "LIPE",
      "alert": "OK",
      "vis_m": 9999,
      "fzfg": false,
      "metar_trigger": false,
      "taf_trigger": false,
      "metar": "METAR LIPE 091050Z 24005KT 9999 BKN017 SCT020 00/M02 Q1005",
      "taf": "TAF LIPE 090500Z 0906/1006 VRB05KT 9999 BKN020"
    },
    {
      "icao": "LIPH",
      "alert": "OK",
      "vis_m": 9999,
      "fzfg": false,
      "metar_trigger": false,
      "taf_trigger": false,
      "metar": "METAR LIPH 091050Z 28007KT 260V320 9999 BKN040 04/M03 Q1004",
      "taf": "TAF LIPH 090500Z 0906/1006 VRB05KT 9999 BKN030"
    },
    {
      "icao": "LIPQ",
      "alert": "OK",
      "vis_m": 8000,
      "fzfg": false,
      "metar_trigger": false,
      "taf_trigger": false,
      "metar": "METAR LIPQ 091050Z AUTO 34004KT 8000 -RA OVC021/// 03/03 Q1003",
      "taf": "TAF LIPQ 090500Z 0906/1006 VRB05KT 9999 BKN030"
    },
    {
      "icao": "LIPR",
      "alert": "OK",
      "vis_m": 9999,
      "fzfg": false,
      "metar_trigger": false,
      "taf_trigger": false,
      "metar": "METAR LIPR 091050Z 30006KT 9999 FEW010 SCT060 04/M00 Q1004",
      "taf": "TAF LIPR 090500Z 0906/1006 VRB05KT 9999 BKN040"
    },
    {
      "icao": "LIPX",
      "alert": "OK",
      "vis_m": 9999,
      "fzfg": false,
      "metar_trigger": false,
      "taf_trigger": false,
      "metar": "METAR LIPX 091050Z 29005KT 9999 BKN025 03/M03 Q1004",
      "taf": "TAF LIPX 090500Z 0906/1006 VRB05KT 7000 FEW020"
    },
    {
      "icao": "LIPY",
      "alert": "OK",
      "vis_m": 9999,
      "fzfg": false,
      "metar_trigger": false,
      "taf_trigger": false,
      "metar": "METAR LIPY 091050Z AUTO 15004KT 120V180 9999 NCD 14/07 Q1003",
      "taf": "TAF LIPY 090500Z 0906/1006 VRB05KT 9999 SCT035"
    },
    {
      "icao": "LIPZ",
      "alert": "OK",
      "vis_m": 9999,
      "fzfg": false,
      "metar_trigger": false,
      "taf_trigger": false,
      "metar": "METAR LIPZ 091050Z 30004KT 270V360 9999 SCT030 BKN050 03/00 Q1003 NOSIG",
      "taf": "TAF LIPZ 090500Z 0906/1012 VRB06KT 9999 BKN020"
    },
    {
      "icao": "LIRF",
      "alert": "OK",
      "vis_m": 9000,
      "fzfg": false,
      "metar_trigger": false,
      "taf_trigger": false,
      "metar": "METAR LIRF 091050Z 24021KT 9000 BKN020 16/11 Q1008 NOSIG",
      "taf": "TAF LIRF 090500Z 0906/1012 25016G26KT 9999 SCT020"
    },
    {
      "icao": "LIRN",
      "alert": "OK",
      "vis_m": 9999,
      "fzfg": false,
      "metar_trigger": false,
      "taf_trigger": false,
      "metar": "METAR LIRN 091050Z 22009KT 180V240 9999 -RA FEW020 SCT040 14/12 Q1010 NOSIG",
      "taf": "TAF LIRN 090500Z 0906/1006 VRB05KT 9999 BKN025"
    },
    {
      "icao": "LIRP",
      "alert": "OK",
      "vis_m": 9999,
      "fzfg": false,
      "metar_trigger": false,
      "taf_trigger": false,
      "metar": "METAR LIRP 091045Z 27020G33KT 9999 FEW015 SCT025 13/10 Q1003 NOSIG",
      "taf": "TAF LIRP 090500Z 0906/1006 12003KT 9999 SCT020 SCT030"
    },
    {
      "icao": "LIRZ",
      "alert": "OK",
      "vis_m": 9999,
      "fzfg": false,
      "metar_trigger": false,
      "taf_trigger": false,
      "metar": "METAR LIRZ 091050Z AUTO 20014KT 9999 NCD 13/09 Q1005",
      "taf": "TAF LIRZ 090500Z 0906/1006 VRB05KT 9999 BKN040"
    },
    {
      "icao": "LJLJ",
      "alert": "OK",
      "vis_m": 9999,
      "fzfg": false,
      "metar_trigger": false,
      "taf_trigger": false,
      "metar": "METAR LJLJ 091100Z VRB02KT 9999 -FZRA OVC025 M02/M03 Q1002 NOSIG",
      "taf": "TAF LJLJ 091100Z 0912/1012 29006KT 9999 BKN025"
    },
    {
      "icao": "LKMT",
      "alert": "OK",
      "vis_m": 9999,
      "fzfg": false,
      "metar_trigger": false,
      "taf_trigger": false,
      "metar": "METAR LKMT 091100Z VRB01KT CAVOK M07/M09 Q1003 NOSIG",
      "taf": ""
    },
    {
      "icao": "LKPR",
      "alert": "OK",
      "vis_m": 6000,
      "fzfg": false,
      "metar_trigger": false,
      "taf_trigger": false,
      "metar": "METAR LKPR 091100Z 11008KT 6000 FEW005 BKN007 OVC015 M04/M05 Q0998 NOSIG",
      "taf": "TAF LKPR 090800Z 0909/1015 09007KT 6000 -SN SCT010 OVC015"
    },
    {
      "icao": "LLBG",
      "alert": "OK",
      "vis_m": 9999,
      "fzfg": false,
      "metar_trigger": false,
      "taf_trigger": false,
      "metar": "METAR LLBG 091050Z 24007KT 9999 SCT045 16/11 Q1012 RERA TEMPO 28020G30KT 5000 TSRA FEW025CB BKN030 RMK SCT070",
      "taf": "TAF LLBG 091113Z 0912/1012 24015KT 9999 SCT035"
    },
    {
      "icao": "LMML",
      "alert": "OK",
      "vis_m": 9999,
      "fzfg": false,
      "metar_trigger": false,
      "taf_trigger": false,
      "metar": "METAR LMML 091115Z 23019G30KT 200V270 9999 FEW024 16/09 Q1020 NOSIG",
      "taf": "TAF LMML 091100Z 0912/1012 24018KT 9999 FEW020"
    },
    {
      "icao": "LOWW",
      "alert": "OK",
      "vis_m": 2300,
      "fzfg": false,
      "metar_trigger": false,
      "taf_trigger": false,
      "metar": "METAR LOWW 091050Z 12006KT 2300 -SN BR FEW012 SCT017 BKN028 M06/M08 Q1003 BECMG 6000",
      "taf": "TAF LOWW 091115Z 0912/1018 12008KT 8000 BKN020 TXM02/1013Z TNM06/0917Z"
    },
    {
      "icao": "LPFR",
      "alert": "OK",
      "vis_m": 9999,
      "fzfg": false,
      "metar_trigger": false,
      "taf_trigger": false,
      "metar": "METAR LPFR 091100Z 25006KT 9999 FEW020 BKN030 14/13 Q1030",
      "taf": "TAF LPFR 091100Z 0912/1012 31005KT 9999 SCT012 BKN020"
    },
    {
      "icao": "LPMA",
      "alert": "OK",
      "vis_m": 9999,
      "fzfg": false,
      "metar_trigger": false,
      "taf_trigger": false,
      "metar": "METAR LPMA 091100Z 04007KT 9999 SCT015 16/12 Q1034",
      "taf": "TAF LPMA 091100Z 0912/1012 05010KT 9999 SCT015"
    },
    {
      "icao": "LPPR",
      "alert": "OK",
      "vis_m": 9999,
      "fzfg": false,
      "metar_trigger": false,
      "taf_trigger": false,
      "metar": "METAR LPPR 091100Z 31007KT 280V340 9999 FEW018 SCT043 13/08 Q1028",
      "taf": "TAF LPPR 091100Z 0912/1012 30010KT 9999 FEW020 SCT040"
    },
    {
      "icao": "LPPS",
      "alert": "OK",
      "vis_m": 7000,
      "fzfg": false,
      "metar_trigger": false,
      "taf_trigger": false,
      "metar": "METAR LPPS 091100Z 08006KT 7000 -RADZ FEW005 BKN010 15/14 Q1034",
      "taf": "TAF LPPS 091100Z 0912/1018 06008KT 9999 SCT015 SCT030"
    },
    {
      "icao": "LPPT",
      "alert": "OK",
      "vis_m": 9999,
      "fzfg": false,
      "metar_trigger": false,
      "taf_trigger": false,
      "metar": "METAR LPPT 091100Z 34008KT 9999 BKN018 14/10 Q1029",
      "taf": "TAF LPPT 091100Z 0912/1018 32010KT 9999 SCT020"
    },
    {
      "icao": "LQBK",
      "alert": "OK",
      "vis_m": 6000,
      "fzfg": false,
      "metar_trigger": false,
      "taf_trigger": false,
      "metar": "METAR LQBK 091100Z 00000KT 6000 -FZRA SCT047 M03/M06 Q1004 NOSIG",
      "taf": ""
    },
    {
      "icao": "LQSA",
      "alert": "OK",
      "vis_m": 4000,
      "fzfg": false,
      "metar_trigger": false,
      "taf_trigger": false,
      "metar": "METAR LQSA 091100Z VRB01KT 4000 BR FEW035 SCT065 M05/M08 Q1006 NOSIG",
      "taf": "TAF LQSA 091100Z 0912/1012 14008KT 6000 FEW005 SCT050 TX01/1011Z TNM04/0912Z"
    },
    {
      "icao": "LQTZ",
      "alert": "OK",
      "vis_m": 2500,
      "fzfg": false,
      "metar_trigger": false,
      "taf_trigger": false,
      "metar": "METAR LQTZ 091100Z VRB02KT 2500 BR BKN035 M05/M05 Q1004",
      "taf": "TAF LQTZ 091100Z 0912/1012 16005KT 7000 SCT045 TX02/1012Z TNM02/1006Z"
    },
    {
      "icao": "LRBC",
      "alert": "OK",
      "vis_m": 9999,
      "fzfg": false,
      "metar_trigger": false,
      "taf_trigger": false,
      "metar": "METAR LRBC 091100Z 25017KT CAVOK M01/M11 Q1002",
      "taf": "TAF LRBC 090800Z 0909/0918 26016KT CAVOK"
    },
    {
      "icao": "LRBS",
      "alert": "OK",
      "vis_m": 9999,
      "fzfg": false,
      "metar_trigger": false,
      "taf_trigger": false,
      "metar": "METAR LRBS 091100Z 27010KT 250V310 CAVOK 01/M06 Q1007 NOSIG",
      "taf": "TAF LRBS 090500Z 0906/1006 25012KT CAVOK"
    },
    {
      "icao": "LRBV",
      "alert": "OK",
      "vis_m": 9999,
      "fzfg": false,
      "metar_trigger": false,
      "taf_trigger": false,
      "metar": "METAR LRBV 091100Z 31009KT 9999 FEW024 M05/M10 Q1004",
      "taf": "TAF LRBV 090800Z 0909/0918 VRB04KT 9999 -SN SCT015 OVC030"
    },
    {
      "icao": "LRCL",
      "alert": "OK",
      "vis_m": 9999,
      "fzfg": false,
      "metar_trigger": false,
      "taf_trigger": false,
      "metar": "METAR LRCL 091100Z 06005KT 9999 CAVOK M05/M10 Q1005",
      "taf": "TAF LRCL 090800Z 0909/0918 VRB04KT CAVOK"
    },
    {
      "icao": "LRCV",
      "alert": "OK",
      "vis_m": 9999,
      "fzfg": false,
      "metar_trigger": false,
      "taf_trigger": false,
      "metar": "METAR LRCV 091100Z 29011KT CAVOK 01/M05 Q1006",
      "taf": "TAF LRCV 090800Z 0909/0918 29008KT CAVOK"
    },
    {
      "icao": "LRIA",
      "alert": "OK",
      "vis_m": 9999,
      "fzfg": false,
      "metar_trigger": false,
      "taf_trigger": false,
      "metar": "METAR LRIA 091100Z 23009KT 190V280 CAVOK M00/M09 Q1001",
      "taf": "TAF LRIA 090800Z 0909/0918 24010KT CAVOK"
    },
    {
      "icao": "LROP",
      "alert": "OK",
      "vis_m": 9999,
      "fzfg": false,
      "metar_trigger": false,
      "taf_trigger": false,
      "metar": "METAR LROP 091100Z 26010KT CAVOK 01/M05 Q1006 NOSIG",
      "taf": "TAF LROP 090500Z 0906/1006 25012KT CAVOK"
    },
    {
      "icao": "LRSB",
      "alert": "OK",
      "vis_m": 9999,
      "fzfg": false,
      "metar_trigger": false,
      "taf_trigger": false,
      "metar": "METAR LRSB 091100Z 20003KT 160V250 CAVOK M03/M10 Q1004",
      "taf": "TAF LRSB 090500Z 0906/1006 29012KT 9999 OVC050"
    },
    {
      "icao": "LRSM",
      "alert": "OK",
      "vis_m": 9999,
      "fzfg": false,
      "metar_trigger": false,
      "taf_trigger": false,
      "metar": "METAR LRSM 091100Z 18003KT CAVOK M08/M11 Q1007",
      "taf": "TAF LRSM 090800Z 0909/0918 VRB04KT CAVOK"
    },
    {
      "icao": "LRSV",
      "alert": "OK",
      "vis_m": 9999,
      "fzfg": false,
      "metar_trigger": false,
      "taf_trigger": false,
      "metar": "METAR LRSV 091100Z 26015KT 9999 SCT049 M03/M11 Q0998",
      "taf": "TAF LRSV 090800Z 0909/0918 25008KT 9999 BKN045"
    },
    {
      "icao": "LRTM",
      "alert": "OK",
      "vis_m": 9999,
      "fzfg": false,
      "metar_trigger": false,
      "taf_trigger": false,
      "metar": "METAR LRTM 091100Z 18003KT 150V210 CAVOK M05/M09 Q1006",
      "taf": "TAF LRTM 090800Z 0909/0918 24007KT 9999 SCT040"
    },
    {
      "icao": "LRTR",
      "alert": "OK",
      "vis_m": 8000,
      "fzfg": false,
      "metar_trigger": false,
      "taf_trigger": false,
      "metar": "METAR LRTR 091100Z 11012KT 8000 NSC M07/M08 Q1007 NOSIG",
      "taf": ""
    },
    {
      "icao": "LTAC",
      "alert": "OK",
      "vis_m": 9999,
      "fzfg": false,
      "metar_trigger": false,
      "taf_trigger": false,
      "metar": "METAR LTAC 091050Z 24014KT 9999 SCT030 SCT080 02/M03 Q1005 NOSIG RMK RWY21C 23016KT RWY03L 24012KT RWY21R 22016KT RWY03R 24011KT RWY21L 23015KT",
      "taf": "TAF LTAC 091040Z 0912/1012 24012KT 9999 SCT040 BKN100"
    },
    {
      "icao": "LTFM",
      "alert": "OK",
      "vis_m": 9999,
      "fzfg": false,
      "metar_trigger": false,
      "taf_trigger": false,
      "metar": "METAR LTFM 091050Z 24013KT CAVOK 05/M08 Q1010 NOSIG RMK RWY17L 24014KT RWY34L 24012KT RWY16R 24012KT RWY36 25012KT 210V270 RWY18 24012KT",
      "taf": "TAF LTFM 091040Z 0912/1018 26012KT CAVOK"
    },
    {
      "icao": "LUKK",
      "alert": "OK",
      "vis_m": 9999,
      "fzfg": false,
      "metar_trigger": false,
      "taf_trigger": false,
      "metar": "METAR LUKK 091100Z 28013KT CAVOK M01/M08 Q1001 NOSIG",
      "taf": "TAF LUKK 091106Z 0912/1012 27010KT 9999 SCT030"
    },
    {
      "icao": "LWOH",
      "alert": "OK",
      "vis_m": null,
      "fzfg": false,
      "metar_trigger": false,
      "taf_trigger": false,
      "metar": "",
      "taf": ""
    },
    {
      "icao": "LWSK",
      "alert": "OK",
      "vis_m": null,
      "fzfg": false,
      "metar_trigger": false,
      "taf_trigger": false,
      "metar": "",
      "taf": "TAF LWSK 090810Z 0909/1009 VRB02KT CAVOK"
    },
    {
      "icao": "LYBE",
      "alert": "OK",
      "vis_m": 9999,
      "fzfg": false,
      "metar_trigger": false,
      "taf_trigger": false,
      "metar": "METAR LYBE 091100Z 08004KT 030V100 CAVOK M01/M04 Q1006 NOSIG",
      "taf": "TAF LYBE 090500Z 0906/1006 10005KT CAVOK TX01/0919Z TNM12/0906Z"
    },
    {
      "icao": "LYNI",
      "alert": "OK",
      "vis_m": 9999,
      "fzfg": false,
      "metar_trigger": false,
      "taf_trigger": false,
      "metar": "METAR LYNI 091100Z VRB02KT 9999 BKN060 M01/M04 Q1010 NOSIG",
      "taf": "TAF LYNI 090500Z 0906/1006 19004KT CAVOK TX02/0914Z TNM10/0906Z"
    },
    {
      "icao": "LYPG",
      "alert": "OK",
      "vis_m": 6000,
      "fzfg": false,
      "metar_trigger": false,
      "taf_trigger": false,
      "metar": "METAR LYPG 091100Z 32005KT 6000 -SNRA FEW023 SCT040 OVC070 01/M00 Q1014 TEMPO 4000",
      "taf": "TAF LYPG 090500Z 0906/1006 02008KT 9999 BKN034 BKN070 TX07/0923Z TN00/0906Z"
    },
    {
      "icao": "LZIB",
      "alert": "OK",
      "vis_m": 1400,
      "fzfg": false,
      "metar_trigger": false,
      "taf_trigger": false,
      "metar": "METAR LZIB 091100Z 03010KT 1400 R31/1600D R22/1800D -SN BR FEW016 BKN026 M06/M07 Q1003 TEMPO 2000 SN BKN012",
      "taf": "TAF LZIB 091115Z 0912/1012 05005KT 6000 SCT014 BKN030"
    },
    {
      "icao": "LZKZ",
      "alert": "OK",
      "vis_m": 9999,
      "fzfg": false,
      "metar_trigger": false,
      "taf_trigger": false,
      "metar": "METAR LZKZ 091100Z 16007KT CAVOK M09/M11 Q1004 NOSIG",
      "taf": "TAF LZKZ 091115Z 0912/1012 22005KT 9999 SCT025"
    },
    {
      "icao": "LZTT",
      "alert": "OK",
      "vis_m": 9999,
      "fzfg": false,
      "metar_trigger": false,
      "taf_trigger": false,
      "metar": "METAR LZTT 091100Z 00000KT CAVOK M11/M15 Q1000 NOSIG",
      "taf": "TAF LZTT 091115Z 0912/1012 VRB02KT CAVOK"
    },
    {
      "icao": "OEJN",
      "alert": "OK",
      "vis_m": 9999,
      "fzfg": false,
      "metar_trigger": false,
      "taf_trigger": false,
      "metar": "METAR OEJN 091100Z 23011KT 9999 SCT040 29/18 Q1012 NOSIG",
      "taf": "TAF OEJN 090500Z 0906/1012 23010KT 7000 FEW040"
    },
    {
      "icao": "OEMA",
      "alert": "OK",
      "vis_m": 9999,
      "fzfg": false,
      "metar_trigger": false,
      "taf_trigger": false,
      "metar": "METAR OEMA 091100Z VRB03KT CAVOK 26/M05 Q1016 NOSIG",
      "taf": "TAF OEMA 090500Z 0906/1012 25018KT 7000 FEW045"
    },
    {
      "icao": "OJAI",
      "alert": "OK",
      "vis_m": 3000,
      "fzfg": false,
      "metar_trigger": false,
      "taf_trigger": false,
      "metar": "METAR OJAI 091100Z 26018KT 3000 BLDU FEW020 SCT025 12/09 Q1012 NOSIG",
      "taf": "TAF OJAI 091101Z 0912/1018 26016KT 2500 -RA BR SCT030 BKN035"
    },
    {
      "icao": "OMAA",
      "alert": "OK",
      "vis_m": 9999,
      "fzfg": false,
      "metar_trigger": false,
      "taf_trigger": false,
      "metar": "METAR OMAA 091100Z 31008KT 9999 FEW035 23/13 Q1017 NOSIG",
      "taf": "TAF OMAA 091100Z 0912/1018 33010KT CAVOK"
    },
    {
      "icao": "OMDB",
      "alert": "OK",
      "vis_m": 9999,
      "fzfg": false,
      "metar_trigger": false,
      "taf_trigger": false,
      "metar": "METAR OMDB 091100Z 33010KT 290V040 9999 FEW045 24/11 Q1017 NOSIG",
      "taf": "TAF OMDB 091100Z 0912/1018 34010KT 8000 FEW040"
    },
    {
      "icao": "UAAA",
      "alert": "OK",
      "vis_m": 3600,
      "fzfg": false,
      "metar_trigger": false,
      "taf_trigger": false,
      "metar": "METAR UAAA 091100Z 01003MPS 3600 BR FU SCT010 BKN100 M04/M06 Q1023 NOSIG",
      "taf": "TAF UAAA 090505Z 0906/1006 06003G08MPS 4000 BR FU BKN011 OVC020 TXM02/0909Z TNM07/1001Z"
    },
    {
      "icao": "UBBB",
      "alert": "OK",
      "vis_m": 9999,
      "fzfg": false,
      "metar_trigger": false,
      "taf_trigger": false,
      "metar": "METAR UBBB 091100Z 18010KT CAVOK 13/04 Q1000 NOSIG",
      "taf": "TAF UBBB 091055Z 0912/1012 20012KT 8000 FEW020 TX12/0912Z TN08/1000Z"
    },
    {
      "icao": "UDSG",
      "alert": "OK",
      "vis_m": 1900,
      "fzfg": false,
      "metar_trigger": false,
      "taf_trigger": false,
      "metar": "METAR UDSG 091100Z 26003KT 1900 R02/1900N SN BR OVC026 M02/M03 Q1006 NOSIG",
      "taf": "TAF UDSG 090500Z 0906/1006 VRB06KT 1200 BR OVC020"
    },
    {
      "icao": "UDYZ",
      "alert": "OK",
      "vis_m": 2700,
      "fzfg": false,
      "metar_trigger": false,
      "taf_trigger": false,
      "metar": "METAR UDYZ 091100Z 20003KT 2700 BR BKN046 M00/M05 Q1007 NOSIG",
      "taf": "TAF UDYZ 090500Z 0906/1006 23006KT 2300 BR BKN030"
    },
    {
      "icao": "UGKO",
      "alert": "OK",
      "vis_m": 9999,
      "fzfg": false,
      "metar_trigger": false,
      "taf_trigger": false,
      "metar": "METAR UGKO 091100Z 26013KT 9999 -SHRA SCT009 BKN034CB 09/08 Q1005 NOSIG",
      "taf": "TAF UGKO 091100Z 0912/1012 25010KT 9999 OVC050 TX09/0912Z TN04/1003Z"
    }
  ]
}