{
  "ts_utc": "2026-04-10T21:59:39Z",
  "threshold_m": 150,
  "source": "stations_override.txt (ICAO list) + aviationweather.gov (METAR/TAF raw)",
  "station_count": 159,
  "stations": [
    {
      "icao": "BIKF",
      "alert": "OK",
      "vis_m": 9999,
      "fzfg": false,
      "metar_trigger": false,
      "taf_trigger": false,
      "metar": "METAR BIKF 102130Z 06007KT CAVOK 02/M01 Q1005",
      "taf": "TAF BIKF 101955Z 1021/1121 07010KT 9999 SCT030 TX03/1118Z TNM03/1103Z"
    },
    {
      "icao": "BKPR",
      "alert": "OK",
      "vis_m": null,
      "fzfg": false,
      "metar_trigger": false,
      "taf_trigger": false,
      "metar": "",
      "taf": "TAF BKPR 101730Z 1018/1118 01009KT 9999 SCT040 BKN070"
    },
    {
      "icao": "EBCI",
      "alert": "OK",
      "vis_m": 9999,
      "fzfg": false,
      "metar_trigger": false,
      "taf_trigger": false,
      "metar": "METAR EBCI 102150Z 12004KT CAVOK 09/01 Q1015 NOSIG",
      "taf": "TAF EBCI 101702Z 1018/1124 VRB03KT 9999 FEW040"
    },
    {
      "icao": "EDDB",
      "alert": "OK",
      "vis_m": 9999,
      "fzfg": false,
      "metar_trigger": false,
      "taf_trigger": false,
      "metar": "METAR EDDB 102150Z AUTO 24004KT CAVOK 01/M01 Q1019 NOSIG",
      "taf": "TAF EDDB 101700Z 1018/1118 27007KT CAVOK"
    },
    {
      "icao": "EDDH",
      "alert": "OK",
      "vis_m": 9999,
      "fzfg": false,
      "metar_trigger": false,
      "taf_trigger": false,
      "metar": "METAR EDDH 102150Z AUTO VRB01KT CAVOK 03/02 Q1019 NOSIG",
      "taf": "TAF EDDH 101700Z 1018/1124 29005KT CAVOK"
    },
    {
      "icao": "EDDK",
      "alert": "OK",
      "vis_m": 9999,
      "fzfg": false,
      "metar_trigger": false,
      "taf_trigger": false,
      "metar": "METAR EDDK 102150Z AUTO 10003KT 050V130 CAVOK 07/01 Q1017 NOSIG",
      "taf": "TAF EDDK 101700Z 1018/1124 VRB03KT CAVOK"
    },
    {
      "icao": "EDDN",
      "alert": "OK",
      "vis_m": 9999,
      "fzfg": false,
      "metar_trigger": false,
      "taf_trigger": false,
      "metar": "METAR EDDN 102150Z AUTO 10005KT CAVOK 06/04 Q1018",
      "taf": "TAF EDDN 101700Z 1018/1118 VRB03KT CAVOK"
    },
    {
      "icao": "EDDS",
      "alert": "OK",
      "vis_m": 9999,
      "fzfg": false,
      "metar_trigger": false,
      "taf_trigger": false,
      "metar": "METAR EDDS 102150Z AUTO VRB01KT CAVOK 08/03 Q1016",
      "taf": "TAF EDDS 101700Z 1018/1118 01005KT CAVOK"
    },
    {
      "icao": "EDFH",
      "alert": "OK",
      "vis_m": 9999,
      "fzfg": false,
      "metar_trigger": false,
      "taf_trigger": false,
      "metar": "METAR EDFH 102150Z 11007KT CAVOK 07/M02 Q1016",
      "taf": "TAF EDFH 101700Z 1018/1118 05004KT 9999 SCT040"
    },
    {
      "icao": "EDJA",
      "alert": "OK",
      "vis_m": 2800,
      "fzfg": false,
      "metar_trigger": false,
      "taf_trigger": false,
      "metar": "METAR EDJA 102150Z AUTO 08003KT 2800 1100 R24/P2000N // FEW025/// OVC100/// 07/06 Q1017",
      "taf": ""
    },
    {
      "icao": "EDLW",
      "alert": "OK",
      "vis_m": 9999,
      "fzfg": false,
      "metar_trigger": false,
      "taf_trigger": false,
      "metar": "METAR EDLW 102150Z AUTO 14006KT 9999 // NCD 07/01 Q1017",
      "taf": "TAF EDLW 101700Z 1018/1118 VRB03KT CAVOK"
    },
    {
      "icao": "EDNY",
      "alert": "OK",
      "vis_m": 9999,
      "fzfg": false,
      "metar_trigger": false,
      "taf_trigger": false,
      "metar": "METAR EDNY 102150Z AUTO 06005KT 9999 FEW065/// OVC120/// 10/08 Q1016",
      "taf": "TAF EDNY 101700Z 1018/1103 05004KT 9999 SCT030"
    },
    {
      "icao": "EDSB",
      "alert": "OK",
      "vis_m": 9999,
      "fzfg": false,
      "metar_trigger": false,
      "taf_trigger": false,
      "metar": "METAR EDSB 102150Z AUTO 02006KT 9999 // BKN110/// 09/03 Q1016",
      "taf": "TAF EDSB 101700Z 1018/1118 03004KT CAVOK"
    },
    {
      "icao": "EETN",
      "alert": "OK",
      "vis_m": 9999,
      "fzfg": false,
      "metar_trigger": false,
      "taf_trigger": false,
      "metar": "METAR EETN 102150Z 07005KT CAVOK M00/M09 Q1022",
      "taf": "TAF EETN 101730Z 1018/1118 07010KT CAVOK"
    },
    {
      "icao": "EFTU",
      "alert": "OK",
      "vis_m": 9999,
      "fzfg": false,
      "metar_trigger": false,
      "taf_trigger": false,
      "metar": "METAR EFTU 102150Z AUTO VRB01KT CAVOK M03/M06 Q1023",
      "taf": "TAF EFTU 102024Z 1021/1121 VRB02KT CAVOK"
    },
    {
      "icao": "EGBB",
      "alert": "OK",
      "vis_m": 9999,
      "fzfg": false,
      "metar_trigger": false,
      "taf_trigger": false,
      "metar": "METAR EGBB 102120Z 14010KT CAVOK 08/01 Q1009",
      "taf": "TAF EGBB 101705Z 1018/1118 17010KT 9999 FEW045"
    },
    {
      "icao": "EGGP",
      "alert": "OK",
      "vis_m": 9999,
      "fzfg": false,
      "metar_trigger": false,
      "taf_trigger": false,
      "metar": "METAR EGGP 102150Z 15013KT 130V190 9999 SCT049 08/02 Q1006",
      "taf": "TAF EGGP 101657Z 1018/1118 16014KT 9999 FEW025"
    },
    {
      "icao": "EGGW",
      "alert": "OK",
      "vis_m": 9999,
      "fzfg": false,
      "metar_trigger": false,
      "taf_trigger": false,
      "metar": "METAR EGGW 102150Z AUTO 16008KT 9999 NCD 08/M02 Q1011",
      "taf": "TAF EGGW 101703Z 1018/1118 16013KT 9999 SCT040"
    },
    {
      "icao": "EGKK",
      "alert": "OK",
      "vis_m": 9999,
      "fzfg": false,
      "metar_trigger": false,
      "taf_trigger": false,
      "metar": "METAR EGKK 102150Z 12005KT CAVOK 08/03 Q1012",
      "taf": "TAF EGKK 101655Z 1018/1124 14008KT 9999 FEW040"
    },
    {
      "icao": "EGNM",
      "alert": "OK",
      "vis_m": 9999,
      "fzfg": false,
      "metar_trigger": false,
      "taf_trigger": false,
      "metar": "METAR EGNM 102150Z 14011KT 9999 FEW035 07/M00 Q1007",
      "taf": "TAF EGNM 101657Z 1018/1118 16012KT 9999 FEW025"
    },
    {
      "icao": "EGPD",
      "alert": "OK",
      "vis_m": 9999,
      "fzfg": false,
      "metar_trigger": false,
      "taf_trigger": false,
      "metar": "METAR EGPD 102150Z COR AUTO 15018KT 9999 NCD 06/02 Q1006 NOSIG",
      "taf": "TAF EGPD 101653Z 1018/1118 16010KT 9999 FEW045"
    },
    {
      "icao": "EGPF",
      "alert": "OK",
      "vis_m": 9999,
      "fzfg": false,
      "metar_trigger": false,
      "taf_trigger": false,
      "metar": "METAR EGPF 102150Z AUTO 12013KT 090V150 9999 BKN036/// //////TCU 08/01 Q1001",
      "taf": "TAF EGPF 101655Z 1018/1118 14012KT 9999 SCT030"
    },
    {
      "icao": "EHBK",
      "alert": "OK",
      "vis_m": 9999,
      "fzfg": false,
      "metar_trigger": false,
      "taf_trigger": false,
      "metar": "METAR EHBK 102155Z AUTO 10007KT 9999 NSC 09/02 Q1015",
      "taf": "TAF EHBK 101659Z 1018/1124 VRB02KT CAVOK"
    },
    {
      "icao": "EHEH",
      "alert": "OK",
      "vis_m": 9999,
      "fzfg": false,
      "metar_trigger": false,
      "taf_trigger": false,
      "metar": "METAR EHEH 102125Z AUTO 08006KT 050V140 9999 SCT093 OVC270 08/02 Q1016 BLU",
      "taf": "TAF EHEH 101736Z 1018/1124 VRB02KT CAVOK"
    },
    {
      "icao": "EKBI",
      "alert": "OK",
      "vis_m": 9999,
      "fzfg": false,
      "metar_trigger": false,
      "taf_trigger": false,
      "metar": "METAR EKBI 102150Z AUTO 11002KT 9999 NCD 01/00 Q1018",
      "taf": "TAF EKBI 102027Z 1021/1121 19004KT 9999 BKN012"
    },
    {
      "icao": "EKCH",
      "alert": "OK",
      "vis_m": 9999,
      "fzfg": false,
      "metar_trigger": false,
      "taf_trigger": false,
      "metar": "METAR EKCH 102150Z AUTO 14009KT 9999 OVC023/// 05/02 Q1019 NOSIG",
      "taf": "TAF EKCH 102027Z 1021/1121 14009KT 9999 SCT025"
    },
    {
      "icao": "ENAL",
      "alert": "OK",
      "vis_m": 9999,
      "fzfg": false,
      "metar_trigger": false,
      "taf_trigger": false,
      "metar": "METAR ENAL 102150Z 05009KT CAVOK 05/02 Q1015",
      "taf": "TAF ENAL 102000Z 1021/1106 12008KT CAVOK"
    },
    {
      "icao": "ENBR",
      "alert": "OK",
      "vis_m": 9999,
      "fzfg": false,
      "metar_trigger": false,
      "taf_trigger": false,
      "metar": "METAR ENBR 102150Z 13003KT 9999 BKN052 03/M02 Q1015 RMK WIND 1200FT 14013KT",
      "taf": "TAF ENBR 101700Z 1018/1118 10005KT 9999 SCT025 BKN040"
    },
    {
      "icao": "ENGM",
      "alert": "OK",
      "vis_m": 9999,
      "fzfg": false,
      "metar_trigger": false,
      "taf_trigger": false,
      "metar": "METAR ENGM 102150Z 03003KT CAVOK 02/M03 Q1018",
      "taf": ""
    },
    {
      "icao": "ENHD",
      "alert": "OK",
      "vis_m": 9999,
      "fzfg": false,
      "metar_trigger": false,
      "taf_trigger": false,
      "metar": "METAR ENHD 102150Z AUTO 14006KT 9999 OVC037/// 04/02 Q1015",
      "taf": "TAF ENHD 101400Z 1015/1022 12012KT 9999 -RA FEW012 BKN028"
    },
    {
      "icao": "ENTC",
      "alert": "OK",
      "vis_m": 9999,
      "fzfg": false,
      "metar_trigger": false,
      "taf_trigger": false,
      "metar": "METAR ENTC 102150Z 00000KT CAVOK 02/M02 Q1018 RMK WIND 2600FT 19003KT",
      "taf": "TAF ENTC 101700Z 1018/1118 20006KT CAVOK"
    },
    {
      "icao": "ENTO",
      "alert": "OK",
      "vis_m": 9999,
      "fzfg": false,
      "metar_trigger": false,
      "taf_trigger": false,
      "metar": "METAR ENTO 102150Z 15007KT 9999 BKN016 OVC020 05/02 Q1018",
      "taf": "TAF ENTO 101700Z 1018/1118 10008KT 9999 BKN025"
    },
    {
      "icao": "ENVA",
      "alert": "OK",
      "vis_m": 9999,
      "fzfg": false,
      "metar_trigger": false,
      "taf_trigger": false,
      "metar": "METAR ENVA 102150Z 15005KT 120V180 CAVOK 07/M05 Q1018 RMK WIND 670FT 16009KT",
      "taf": "TAF ENVA 101700Z 1018/1118 14012KT CAVOK"
    },
    {
      "icao": "ENZV",
      "alert": "OK",
      "vis_m": 9999,
      "fzfg": false,
      "metar_trigger": false,
      "taf_trigger": false,
      "metar": "METAR ENZV 102150Z 16002KT 9999 SCT037 03/02 Q1015",
      "taf": "TAF ENZV 101700Z 1018/1118 14005KT 9999 FEW035 BKN045"
    },
    {
      "icao": "EPGD",
      "alert": "OK",
      "vis_m": 9999,
      "fzfg": false,
      "metar_trigger": false,
      "taf_trigger": false,
      "metar": "METAR EPGD 102130Z 27004KT CAVOK M01/M02 Q1019",
      "taf": "TAF EPGD 101730Z 1018/1118 05010KT CAVOK"
    },
    {
      "icao": "EPKK",
      "alert": "OK",
      "vis_m": 9999,
      "fzfg": false,
      "metar_trigger": false,
      "taf_trigger": false,
      "metar": "METAR EPKK 102130Z 04003KT 360V070 9999 FEW062 02/M05 Q1018",
      "taf": "TAF EPKK 102030Z 1021/1121 05004KT CAVOK"
    },
    {
      "icao": "EPKT",
      "alert": "OK",
      "vis_m": 9999,
      "fzfg": false,
      "metar_trigger": false,
      "taf_trigger": false,
      "metar": "METAR EPKT 102130Z 09004KT CAVOK M04/M07 Q1018",
      "taf": "TAF EPKT 101730Z 1018/1118 VRB02KT CAVOK"
    },
    {
      "icao": "EPLB",
      "alert": "OK",
      "vis_m": 9999,
      "fzfg": false,
      "metar_trigger": false,
      "taf_trigger": false,
      "metar": "METAR EPLB 102130Z 29005KT CAVOK 00/M03 Q1018",
      "taf": "TAF EPLB 101730Z 1018/1118 30005KT CAVOK"
    },
    {
      "icao": "EPMO",
      "alert": "OK",
      "vis_m": 9999,
      "fzfg": false,
      "metar_trigger": false,
      "taf_trigger": false,
      "metar": "METAR EPMO 102130Z VRB02KT CAVOK 04/M03 Q1018",
      "taf": "TAF EPMO 101730Z 1018/1118 VRB05KT CAVOK"
    },
    {
      "icao": "EPPO",
      "alert": "OK",
      "vis_m": 9999,
      "fzfg": false,
      "metar_trigger": false,
      "taf_trigger": false,
      "metar": "METAR EPPO 102130Z 10002KT CAVOK 03/M04 Q1019",
      "taf": "TAF EPPO 101730Z 1018/1118 22004KT CAVOK"
    },
    {
      "icao": "EPRA",
      "alert": "OK",
      "vis_m": 9999,
      "fzfg": false,
      "metar_trigger": false,
      "taf_trigger": false,
      "metar": "METAR EPRA 102130Z 18004KT CAVOK 02/M03 Q1018",
      "taf": "TAF EPRA 102030Z 1021/1106 VRB02KT CAVOK"
    },
    {
      "icao": "EPRZ",
      "alert": "OK",
      "vis_m": 9999,
      "fzfg": false,
      "metar_trigger": false,
      "taf_trigger": false,
      "metar": "METAR EPRZ 102130Z VRB01KT CAVOK M00/M02 Q1018",
      "taf": "TAF EPRZ 101730Z 1018/1118 VRB02KT CAVOK"
    },
    {
      "icao": "EPSC",
      "alert": "OK",
      "vis_m": 9999,
      "fzfg": false,
      "metar_trigger": false,
      "taf_trigger": false,
      "metar": "METAR EPSC 102130Z 30002KT CAVOK 05/M02 Q1019",
      "taf": "TAF EPSC 101730Z 1018/1118 VRB04KT CAVOK"
    },
    {
      "icao": "EPSY",
      "alert": "OK",
      "vis_m": 9999,
      "fzfg": false,
      "metar_trigger": false,
      "taf_trigger": false,
      "metar": "METAR EPSY 102130Z VRB02KT CAVOK 00/M02 Q1018",
      "taf": "TAF EPSY 102030Z 1021/1106 VRB02KT CAVOK"
    },
    {
      "icao": "EPWA",
      "alert": "OK",
      "vis_m": 9999,
      "fzfg": false,
      "metar_trigger": false,
      "taf_trigger": false,
      "metar": "METAR EPWA 102130Z 26003KT CAVOK 02/M04 Q1018 NOSIG",
      "taf": "TAF EPWA 102030Z 1021/1121 VRB04KT 9999 BKN040"
    },
    {
      "icao": "EPWR",
      "alert": "OK",
      "vis_m": 9999,
      "fzfg": false,
      "metar_trigger": false,
      "taf_trigger": false,
      "metar": "METAR EPWR 102130Z 28007KT CAVOK 03/M05 Q1019",
      "taf": "TAF EPWR 102030Z 1021/1121 VRB02KT CAVOK"
    },
    {
      "icao": "ESGG",
      "alert": "OK",
      "vis_m": 9999,
      "fzfg": false,
      "metar_trigger": false,
      "taf_trigger": false,
      "metar": "METAR ESGG 102150Z 16005KT 9999 SCT028 OVC038 03/M00 Q1018",
      "taf": "TAF ESGG 102030Z 1021/1121 16007KT 9999 BKN045"
    },
    {
      "icao": "ESKN",
      "alert": "OK",
      "vis_m": 9999,
      "fzfg": false,
      "metar_trigger": false,
      "taf_trigger": false,
      "metar": "METAR ESKN 102150Z 05003KT CAVOK M01/M01 Q1022",
      "taf": "TAF ESKN 102030Z 1021/1121 08005KT CAVOK"
    },
    {
      "icao": "ESMS",
      "alert": "OK",
      "vis_m": 9999,
      "fzfg": false,
      "metar_trigger": false,
      "taf_trigger": false,
      "metar": "METAR ESMS 102150Z 15006KT 9999 SCT028 BKN039 OVC051 04/01 Q1019",
      "taf": "TAF ESMS 102027Z 1021/1121 14005KT 9999 SCT025"
    },
    {
      "icao": "ESSA",
      "alert": "OK",
      "vis_m": 9999,
      "fzfg": false,
      "metar_trigger": false,
      "taf_trigger": false,
      "metar": "METAR ESSA 102150Z 05004KT CAVOK M02/M04 Q1022 NOSIG",
      "taf": "TAF ESSA 102030Z 1021/1121 08006KT CAVOK"
    },
    {
      "icao": "EYKA",
      "alert": "OK",
      "vis_m": 9999,
      "fzfg": false,
      "metar_trigger": false,
      "taf_trigger": false,
      "metar": "METAR EYKA 102150Z AUTO 07005KT 020V090 9999 NCD 01/M05 Q1018",
      "taf": "TAF EYKA 101700Z 1018/1118 VRB04KT 9000 NSC"
    },
    {
      "icao": "EYPA",
      "alert": "OK",
      "vis_m": 9999,
      "fzfg": false,
      "metar_trigger": false,
      "taf_trigger": false,
      "metar": "METAR EYPA 102150Z VRB02KT CAVOK M00/M02 Q1019",
      "taf": "TAF EYPA 101700Z 1018/1118 VRB04KT 9000 NSC"
    },
    {
      "icao": "EYVI",
      "alert": "OK",
      "vis_m": 9999,
      "fzfg": false,
      "metar_trigger": false,
      "taf_trigger": false,
      "metar": "METAR EYVI 102150Z 02004KT CAVOK M03/M08 Q1016 NOSIG",
      "taf": "TAF EYVI 101700Z 1018/1118 VRB04KT 9000 NSC"
    },
    {
      "icao": "GCFV",
      "alert": "OK",
      "vis_m": 9999,
      "fzfg": false,
      "metar_trigger": false,
      "taf_trigger": false,
      "metar": "METAR GCFV 102130Z 33011KT 9999 FEW025 SCT040 17/11 Q1019",
      "taf": "TAF GCFV 102000Z 1021/1121 33013KT 9999 SCT030 TX21/1114Z TN15/1106Z"
    },
    {
      "icao": "GCLP",
      "alert": "OK",
      "vis_m": 9999,
      "fzfg": false,
      "metar_trigger": false,
      "taf_trigger": false,
      "metar": "METAR GCLP 102130Z 35013KT 320V020 9999 FEW035 SCT050 18/12 Q1020 NOSIG",
      "taf": "TAF GCLP 102000Z 1021/1121 34015KT 9999 SCT035 TX22/1114Z TN15/1106Z"
    },
    {
      "icao": "GCTS",
      "alert": "OK",
      "vis_m": 9999,
      "fzfg": false,
      "metar_trigger": false,
      "taf_trigger": false,
      "metar": "METAR GCTS 102130Z VRB05KT 9999 FEW030 18/13 Q1020 NOSIG",
      "taf": "TAF GCTS 102000Z 1021/1121 VRB06KT 9999 FEW030 SCT050 TX22/1114Z TN16/1106Z"
    },
    {
      "icao": "GMAD",
      "alert": "OK",
      "vis_m": 8000,
      "fzfg": false,
      "metar_trigger": false,
      "taf_trigger": false,
      "metar": "METAR GMAD 102130Z 24009KT 8000 SCT030TCU 14/10 Q1015 NOSIG",
      "taf": "TAF GMAD 101700Z 1018/1124 18010KT 8000 SCT020 BKN080"
    },
    {
      "icao": "GMMN",
      "alert": "OK",
      "vis_m": 9999,
      "fzfg": false,
      "metar_trigger": false,
      "taf_trigger": false,
      "metar": "METAR GMMN 102130Z 15003KT 9999 BKN020 SCT100 13/10 Q1016 NOSIG",
      "taf": "TAF GMMN 101700Z 1018/1124 34010KT 9999 BKN020"
    },
    {
      "icao": "GMMX",
      "alert": "OK",
      "vis_m": 6000,
      "fzfg": false,
      "metar_trigger": false,
      "taf_trigger": false,
      "metar": "METAR GMMX 102130Z 15006KT 120V180 6000 -RA SCT015 BKN023 FEW030CB 11/10 Q1016 RETS NOSIG",
      "taf": ""
    },
    {
      "icao": "HEGN",
      "alert": "OK",
      "vis_m": 9999,
      "fzfg": false,
      "metar_trigger": false,
      "taf_trigger": false,
      "metar": "METAR HEGN 102100Z 29010KT CAVOK 22/M03 Q1015 NOSIG",
      "taf": "TAF HEGN 101715Z 1018/1124 26015KT CAVOK"
    },
    {
      "icao": "HEMA",
      "alert": "OK",
      "vis_m": 9999,
      "fzfg": false,
      "metar_trigger": false,
      "taf_trigger": false,
      "metar": "METAR HEMA 102100Z 27008KT CAVOK 19/02 Q1015 NOSIG",
      "taf": "TAF HEMA 101722Z 1018/1124 29010KT CAVOK"
    },
    {
      "icao": "HESH",
      "alert": "OK",
      "vis_m": 9999,
      "fzfg": false,
      "metar_trigger": false,
      "taf_trigger": false,
      "metar": "METAR HESH 102100Z 34009KT CAVOK 24/08 Q1014 NOSIG",
      "taf": "TAF HESH 101715Z 1018/1124 33010KT CAVOK"
    },
    {
      "icao": "HESX",
      "alert": "OK",
      "vis_m": 9999,
      "fzfg": false,
      "metar_trigger": false,
      "taf_trigger": false,
      "metar": "METAR HESX 102100Z 02008KT CAVOK 15/09 Q1018 NOSIG",
      "taf": "TAF HESX 101720Z 1018/1124 30012KT CAVOK"
    },
    {
      "icao": "LATI",
      "alert": "OK",
      "vis_m": 9999,
      "fzfg": false,
      "metar_trigger": false,
      "taf_trigger": false,
      "metar": "METAR LATI 102150Z 14002KT CAVOK 08/02 Q1016 NOSIG",
      "taf": "TAF LATI 101700Z 1018/1118 VRB05KT CAVOK TX22/1112Z TN07/1104Z"
    },
    {
      "icao": "LBPD",
      "alert": "OK",
      "vis_m": 9999,
      "fzfg": false,
      "metar_trigger": false,
      "taf_trigger": false,
      "metar": "METAR LBPD 102130Z AUTO 07010KT 9999 OVC180/// 05/01 Q1019",
      "taf": "TAF LBPD 101700Z 1018/1118 09010KT 9999 SCT060"
    },
    {
      "icao": "LBSF",
      "alert": "OK",
      "vis_m": 9999,
      "fzfg": false,
      "metar_trigger": false,
      "taf_trigger": false,
      "metar": "METAR LBSF 102130Z AUTO 10008KT 9999 BKN073/// 06/M04 Q1018 NOSIG",
      "taf": "TAF LBSF 101700Z 1018/1118 09010KT 9999 BKN050"
    },
    {
      "icao": "LBWN",
      "alert": "OK",
      "vis_m": 9999,
      "fzfg": false,
      "metar_trigger": false,
      "taf_trigger": false,
      "metar": "METAR LBWN 102130Z AUTO 02005KT 9999 NCD 02/02 Q1020 NOSIG",
      "taf": "TAF LBWN 101700Z 1018/1118 01010KT 9999 SCT025 BKN045"
    },
    {
      "icao": "LCLK",
      "alert": "OK",
      "vis_m": 9999,
      "fzfg": false,
      "metar_trigger": false,
      "taf_trigger": false,
      "metar": "METAR LCLK 102130Z 28003KT 240V330 CAVOK 12/07 Q1014 NOSIG",
      "taf": "TAF LCLK 101730Z 1018/1118 24008KT 9999 FEW040"
    },
    {
      "icao": "LCPH",
      "alert": "OK",
      "vis_m": 9999,
      "fzfg": false,
      "metar_trigger": false,
      "taf_trigger": false,
      "metar": "METAR LCPH 102130Z 02004KT 010V080 9999 BKN026 14/10 Q1015 NOSIG",
      "taf": "TAF LCPH 101730Z 1018/1118 30007KT 9999 FEW020 SCT025"
    },
    {
      "icao": "LEAL",
      "alert": "OK",
      "vis_m": 9999,
      "fzfg": false,
      "metar_trigger": false,
      "taf_trigger": false,
      "metar": "METAR LEAL 102130Z 05009KT 020V080 CAVOK 22/03 Q1014 NOSIG",
      "taf": "TAF LEAL 101700Z 1018/1118 05015KT CAVOK TX24/1113Z TN15/1106Z"
    },
    {
      "icao": "LEBB",
      "alert": "OK",
      "vis_m": 9999,
      "fzfg": false,
      "metar_trigger": false,
      "taf_trigger": false,
      "metar": "METAR LEBB 102130Z 28002KT CAVOK 15/13 Q1011 NOSIG",
      "taf": "TAF LEBB 101700Z 1018/1118 32008KT 9999 FEW035 TX21/1018Z TN13/1107Z"
    },
    {
      "icao": "LEBL",
      "alert": "OK",
      "vis_m": 9999,
      "fzfg": false,
      "metar_trigger": false,
      "taf_trigger": false,
      "metar": "METAR LEBL 102130Z 20006KT CAVOK 19/09 Q1015 NOSIG",
      "taf": "TAF LEBL 101700Z 1018/1118 20009KT CAVOK TX22/1112Z TN12/1106Z"
    },
    {
      "icao": "LECH",
      "alert": "OK",
      "vis_m": 9000,
      "fzfg": false,
      "metar_trigger": false,
      "taf_trigger": false,
      "metar": "METAR LECH 102130Z AUTO VRB02KT 9000 NCD 17/03 Q1016",
      "taf": "TAF LECH 101700Z 1018/1118 VRB04KT CAVOK TX25/1114Z TN10/1106Z"
    },
    {
      "icao": "LEMD",
      "alert": "OK",
      "vis_m": 9999,
      "fzfg": false,
      "metar_trigger": false,
      "taf_trigger": false,
      "metar": "METAR LEMD 102130Z 13002KT CAVOK 19/05 Q1014 NOSIG",
      "taf": "TAF LEMD 101700Z 1018/1124 VRB04KT CAVOK TX25/1115Z TN08/1106Z"
    },
    {
      "icao": "LEMG",
      "alert": "OK",
      "vis_m": 9999,
      "fzfg": false,
      "metar_trigger": false,
      "taf_trigger": false,
      "metar": "METAR LEMG 102130Z 27013KT 9999 TS FEW050CB 20/13 Q1011 NOSIG",
      "taf": ""
    },
    {
      "icao": "LEVC",
      "alert": "OK",
      "vis_m": 9999,
      "fzfg": false,
      "metar_trigger": false,
      "taf_trigger": false,
      "metar": "METAR LEVC 102130Z 32006KT 300V360 CAVOK 18/05 Q1015 NOSIG",
      "taf": "TAF LEVC 101700Z 1018/1118 VRB03KT CAVOK TX24/1113Z TN13/1106Z"
    },
    {
      "icao": "LEXJ",
      "alert": "OK",
      "vis_m": 6000,
      "fzfg": false,
      "metar_trigger": false,
      "taf_trigger": false,
      "metar": "METAR LEXJ 102130Z AUTO VRB01KT 6000 NSC 14/12 Q1011",
      "taf": "TAF LEXJ 102000Z 1021/1121 28009KT 9000 SCT020 TX15/1021Z TN10/1121Z"
    },
    {
      "icao": "LEZG",
      "alert": "OK",
      "vis_m": 9999,
      "fzfg": false,
      "metar_trigger": false,
      "taf_trigger": false,
      "metar": "METAR LEZG 102130Z 09007KT CAVOK 22/07 Q1013 NOSIG",
      "taf": "TAF LEZG 101700Z 1018/1118 11009KT CAVOK TX29/1018Z TN08/1106Z"
    },
    {
      "icao": "LEZL",
      "alert": "OK",
      "vis_m": 9999,
      "fzfg": false,
      "metar_trigger": false,
      "taf_trigger": false,
      "metar": "SPECI LEZL 102141Z 21010KT 160V240 9999 -SHRA FEW045 FEW050CB 18/15 Q1012 RESHRA NOSIG",
      "taf": ""
    },
    {
      "icao": "LFBD",
      "alert": "OK",
      "vis_m": 9999,
      "fzfg": false,
      "metar_trigger": false,
      "taf_trigger": false,
      "metar": "METAR LFBD 102130Z AUTO 14009KT CAVOK 17/13 Q1011 NOSIG",
      "taf": "TAF LFBD 101700Z 1018/1124 14010KT CAVOK TX24/1018Z TN10/1200Z"
    },
    {
      "icao": "LFLL",
      "alert": "OK",
      "vis_m": 9999,
      "fzfg": false,
      "metar_trigger": false,
      "taf_trigger": false,
      "metar": "METAR LFLL 102130Z 02003KT 350V050 CAVOK 15/11 Q1014 NOSIG",
      "taf": "TAF LFLL 101700Z 1018/1124 36004KT CAVOK"
    },
    {
      "icao": "LFLS",
      "alert": "OK",
      "vis_m": 9999,
      "fzfg": false,
      "metar_trigger": false,
      "taf_trigger": false,
      "metar": "METAR LFLS 102130Z AUTO 11003KT CAVOK 10/08 Q1015",
      "taf": "TAF LFLS 101400Z 1015/1115 35006KT CAVOK"
    },
    {
      "icao": "LFMN",
      "alert": "OK",
      "vis_m": 9999,
      "fzfg": false,
      "metar_trigger": false,
      "taf_trigger": false,
      "metar": "METAR LFMN 102130Z 12006KT 9999 BKN013 16/13 Q1015 NOSIG",
      "taf": "TAF LFMN 102000Z 1021/1203 10005KT 9999 BKN012"
    },
    {
      "icao": "LFOB",
      "alert": "OK",
      "vis_m": 9999,
      "fzfg": false,
      "metar_trigger": false,
      "taf_trigger": false,
      "metar": "METAR LFOB 102130Z AUTO 09005KT CAVOK 07/04 Q1014 NOSIG",
      "taf": "TAF LFOB 101700Z 1018/1118 10008KT CAVOK"
    },
    {
      "icao": "LFPO",
      "alert": "OK",
      "vis_m": 9999,
      "fzfg": false,
      "metar_trigger": false,
      "taf_trigger": false,
      "metar": "METAR LFPO 102130Z 12006KT CAVOK 11/04 Q1014 NOSIG",
      "taf": "TAF LFPO 101700Z 1018/1124 12005KT CAVOK"
    },
    {
      "icao": "LFSB",
      "alert": "OK",
      "vis_m": 9999,
      "fzfg": false,
      "metar_trigger": false,
      "taf_trigger": false,
      "metar": "METAR LFSB 102130Z AUTO 32006KT 9999 OVC050 11/08 Q1016 NOSIG",
      "taf": "TAF LFSB 101700Z 1018/1118 30003KT CAVOK"
    },
    {
      "icao": "LGAV",
      "alert": "OK",
      "vis_m": 9999,
      "fzfg": false,
      "metar_trigger": false,
      "taf_trigger": false,
      "metar": "METAR LGAV 102150Z VRB02KT 9999 FEW030 SCT070 10/07 Q1018 NOSIG",
      "taf": "TAF LGAV 101700Z 1018/1118 VRB05KT 9999 SCT025 SCT070"
    },
    {
      "icao": "LGTS",
      "alert": "OK",
      "vis_m": 9999,
      "fzfg": false,
      "metar_trigger": false,
      "taf_trigger": false,
      "metar": "METAR LGTS 102150Z 11007KT 9999 FEW025 11/07 Q1018 NOSIG",
      "taf": "TAF LGTS 101700Z 1018/1118 13012KT 9999 SCT025"
    },
    {
      "icao": "LHBP",
      "alert": "OK",
      "vis_m": 9999,
      "fzfg": false,
      "metar_trigger": false,
      "taf_trigger": false,
      "metar": "METAR LHBP 102130Z 30008KT CAVOK 07/M01 Q1018 NOSIG",
      "taf": "TAF LHBP 101715Z 1018/1118 26008KT CAVOK"
    },
    {
      "icao": "LHDC",
      "alert": "OK",
      "vis_m": 9999,
      "fzfg": false,
      "metar_trigger": false,
      "taf_trigger": false,
      "metar": "METAR LHDC 102115Z AUTO 00000KT CAVOK 02/M04 Q1017",
      "taf": "TAF LHDC 101715Z 1018/1103 32007KT CAVOK"
    },
    {
      "icao": "LIBD",
      "alert": "OK",
      "vis_m": 9999,
      "fzfg": false,
      "metar_trigger": false,
      "taf_trigger": false,
      "metar": "METAR LIBD 102150Z 20004KT CAVOK 13/07 Q1014",
      "taf": "TAF LIBD 101700Z 1018/1118 10010KT CAVOK"
    },
    {
      "icao": "LIBG",
      "alert": "OK",
      "vis_m": null,
      "fzfg": false,
      "metar_trigger": false,
      "taf_trigger": false,
      "metar": "",
      "taf": "TAF LIBG 101400Z 1015/1024 19010KT CAVOK"
    },
    {
      "icao": "LIBP",
      "alert": "OK",
      "vis_m": 9999,
      "fzfg": false,
      "metar_trigger": false,
      "taf_trigger": false,
      "metar": "METAR LIBP 102150Z AUTO 26002KT 9999 NCD 11/11 Q1014",
      "taf": "TAF LIBP 101700Z 1018/1118 VRB04KT 8000 NSC"
    },
    {
      "icao": "LIBR",
      "alert": "OK",
      "vis_m": 9999,
      "fzfg": false,
      "metar_trigger": false,
      "taf_trigger": false,
      "metar": "METAR LIBR 102150Z 21006KT CAVOK 15/13 Q1015",
      "taf": ""
    },
    {
      "icao": "LICA",
      "alert": "OK",
      "vis_m": 9999,
      "fzfg": false,
      "metar_trigger": false,
      "taf_trigger": false,
      "metar": "METAR LICA 102150Z AUTO 07002KT 9999 NCD 10/08 Q1017",
      "taf": "TAF LICA 101700Z 1018/1118 VRB05KT CAVOK"
    },
    {
      "icao": "LICC",
      "alert": "OK",
      "vis_m": 9999,
      "fzfg": false,
      "metar_trigger": false,
      "taf_trigger": false,
      "metar": "METAR LICC 102150Z 26006KT CAVOK 13/07 Q1016",
      "taf": "TAF LICC 101700Z 1018/1118 26006KT CAVOK"
    },
    {
      "icao": "LICJ",
      "alert": "OK",
      "vis_m": 9999,
      "fzfg": false,
      "metar_trigger": false,
      "taf_trigger": false,
      "metar": "METAR LICJ 102150Z 19007KT CAVOK 18/04 Q1016",
      "taf": "TAF LICJ 101700Z 1018/1118 28010KT CAVOK"
    },
    {
      "icao": "LIMC",
      "alert": "OK",
      "vis_m": 9999,
      "fzfg": false,
      "metar_trigger": false,
      "taf_trigger": false,
      "metar": "METAR LIMC 102150Z 04003KT 010V070 CAVOK 14/10 Q1014 NOSIG",
      "taf": "TAF LIMC 101700Z 1018/1124 VRB05KT CAVOK"
    },
    {
      "icao": "LIME",
      "alert": "OK",
      "vis_m": 9999,
      "fzfg": false,
      "metar_trigger": false,
      "taf_trigger": false,
      "metar": "METAR LIME 102150Z 12006KT CAVOK 14/08 Q1015 NOSIG",
      "taf": "TAF LIME 101700Z 1018/1118 VRB05KT CAVOK"
    },
    {
      "icao": "LIMF",
      "alert": "OK",
      "vis_m": 9999,
      "fzfg": false,
      "metar_trigger": false,
      "taf_trigger": false,
      "metar": "METAR LIMF 102150Z 02008KT CAVOK 16/10 Q1014",
      "taf": "TAF LIMF 101700Z 1018/1118 VRB05KT CAVOK"
    },
    {
      "icao": "LIMJ",
      "alert": "OK",
      "vis_m": 9999,
      "fzfg": false,
      "metar_trigger": false,
      "taf_trigger": false,
      "metar": "METAR LIMJ 102150Z 02003KT 9999 FEW012 SCT017 15/12 Q1015",
      "taf": "TAF LIMJ 101700Z 1018/1118 VRB05KT 9999 BKN015"
    },
    {
      "icao": "LIPE",
      "alert": "OK",
      "vis_m": 9999,
      "fzfg": false,
      "metar_trigger": false,
      "taf_trigger": false,
      "metar": "METAR LIPE 102150Z 10006KT CAVOK 13/11 Q1015",
      "taf": "TAF LIPE 101700Z 1018/1118 09010KT CAVOK"
    },
    {
      "icao": "LIPH",
      "alert": "OK",
      "vis_m": 9999,
      "fzfg": false,
      "metar_trigger": false,
      "taf_trigger": false,
      "metar": "METAR LIPH 102050Z VRB01KT CAVOK 12/05 Q1016",
      "taf": "TAF LIPH 101700Z 1018/1118 VRB05KT CAVOK"
    },
    {
      "icao": "LIPQ",
      "alert": "OK",
      "vis_m": 9999,
      "fzfg": false,
      "metar_trigger": false,
      "taf_trigger": false,
      "metar": "METAR LIPQ 102150Z AUTO 03002KT 9999 SCT140/// 11/06 Q1015",
      "taf": "TAF LIPQ 101700Z 1018/1118 VRB04KT 9999 FEW050"
    },
    {
      "icao": "LIPR",
      "alert": "OK",
      "vis_m": 9999,
      "fzfg": false,
      "metar_trigger": false,
      "taf_trigger": false,
      "metar": "METAR LIPR 102150Z 25004KT CAVOK 12/11 Q1015",
      "taf": "TAF LIPR 101700Z 1018/1118 VRB05KT CAVOK"
    },
    {
      "icao": "LIPX",
      "alert": "OK",
      "vis_m": 9999,
      "fzfg": false,
      "metar_trigger": false,
      "taf_trigger": false,
      "metar": "METAR LIPX 102150Z 11005KT CAVOK 14/05 Q1015",
      "taf": "TAF LIPX 101700Z 1018/1118 VRB05KT CAVOK"
    },
    {
      "icao": "LIPY",
      "alert": "OK",
      "vis_m": 9999,
      "fzfg": false,
      "metar_trigger": false,
      "taf_trigger": false,
      "metar": "METAR LIPY 102150Z AUTO 18003KT 9999 NCD 13/10 Q1014",
      "taf": "TAF LIPY 101700Z 1018/1118 VRB05KT CAVOK"
    },
    {
      "icao": "LIPZ",
      "alert": "OK",
      "vis_m": 9999,
      "fzfg": false,
      "metar_trigger": false,
      "taf_trigger": false,
      "metar": "METAR LIPZ 102150Z 03004KT CAVOK 12/07 Q1015 NOSIG",
      "taf": "TAF LIPZ 101700Z 1018/1124 VRB04KT CAVOK"
    },
    {
      "icao": "LIRF",
      "alert": "OK",
      "vis_m": 9999,
      "fzfg": false,
      "metar_trigger": false,
      "taf_trigger": false,
      "metar": "METAR LIRF 102150Z 08003KT 060V130 CAVOK 13/12 Q1015 NOSIG",
      "taf": "TAF LIRF 101700Z 1018/1124 20007KT CAVOK"
    },
    {
      "icao": "LIRN",
      "alert": "OK",
      "vis_m": 9999,
      "fzfg": false,
      "metar_trigger": false,
      "taf_trigger": false,
      "metar": "METAR LIRN 102150Z 04001KT CAVOK 14/11 Q1016 NOSIG",
      "taf": "TAF LIRN 101700Z 1018/1118 19006KT CAVOK"
    },
    {
      "icao": "LIRP",
      "alert": "OK",
      "vis_m": 9999,
      "fzfg": false,
      "metar_trigger": false,
      "taf_trigger": false,
      "metar": "METAR LIRP 102145Z 24002KT CAVOK 10/08 Q1015 NOSIG",
      "taf": "TAF LIRP 101700Z 1018/1118 27006KT CAVOK"
    },
    {
      "icao": "LIRZ",
      "alert": "OK",
      "vis_m": 9999,
      "fzfg": false,
      "metar_trigger": false,
      "taf_trigger": false,
      "metar": "METAR LIRZ 102150Z AUTO 36004KT 9999 NCD 11/08 Q1015",
      "taf": "TAF LIRZ 101700Z 1018/1118 VRB05KT CAVOK"
    },
    {
      "icao": "LJLJ",
      "alert": "OK",
      "vis_m": 9999,
      "fzfg": false,
      "metar_trigger": false,
      "taf_trigger": false,
      "metar": "METAR LJLJ 102130Z VRB01KT 9999 FEW060 BKN120 07/03 Q1017 NOSIG",
      "taf": "TAF LJLJ 101700Z 1018/1118 10007KT 9999 FEW070 BKN090"
    },
    {
      "icao": "LKMT",
      "alert": "OK",
      "vis_m": 9999,
      "fzfg": false,
      "metar_trigger": false,
      "taf_trigger": false,
      "metar": "METAR LKMT 102130Z 20005KT CAVOK 01/M05 Q1018 NOSIG",
      "taf": "TAF LKMT 101700Z 1018/1118 20005KT CAVOK"
    },
    {
      "icao": "LKPR",
      "alert": "OK",
      "vis_m": 5000,
      "fzfg": false,
      "metar_trigger": false,
      "taf_trigger": false,
      "metar": "METAR LKPR 102130Z 25004KT 5000 BR BKN016 01/00 Q1019 BECMG BKN014",
      "taf": "TAF LKPR 102000Z 1021/1203 32005KT 9999 SCT017"
    },
    {
      "icao": "LLBG",
      "alert": "OK",
      "vis_m": 9999,
      "fzfg": false,
      "metar_trigger": false,
      "taf_trigger": false,
      "metar": "METAR LLBG 102150Z 15005KT 9999 BKN021 15/13 Q1016 NOSIG",
      "taf": "TAF LLBG 101707Z 1018/1118 VRB04KT 9999 SCT025 TX21/1112Z TN13/1103Z"
    },
    {
      "icao": "LMML",
      "alert": "OK",
      "vis_m": 9999,
      "fzfg": false,
      "metar_trigger": false,
      "taf_trigger": false,
      "metar": "METAR LMML 102145Z 24006KT CAVOK 16/06 Q1018 NOSIG",
      "taf": "TAF LMML 101700Z 1018/1118 24006KT CAVOK"
    },
    {
      "icao": "LOWW",
      "alert": "OK",
      "vis_m": 9999,
      "fzfg": false,
      "metar_trigger": false,
      "taf_trigger": false,
      "metar": "METAR LOWW 102150Z 33004KT 9999 FEW008 SCT013 BKN020 04/02 Q1019 NOSIG",
      "taf": ""
    },
    {
      "icao": "LPFR",
      "alert": "OK",
      "vis_m": 9999,
      "fzfg": false,
      "metar_trigger": false,
      "taf_trigger": false,
      "metar": "METAR LPFR 102130Z 27013KT CAVOK 16/15 Q1013",
      "taf": "TAF LPFR 101700Z 1018/1118 25010KT 9999 FEW030"
    },
    {
      "icao": "LPMA",
      "alert": "OK",
      "vis_m": 9999,
      "fzfg": false,
      "metar_trigger": false,
      "taf_trigger": false,
      "metar": "METAR LPMA 102130Z 35020G30KT 9999 FEW014 17/10 Q1019",
      "taf": "TAF LPMA 101700Z 1018/1118 36015KT 9999 SCT015"
    },
    {
      "icao": "LPPR",
      "alert": "OK",
      "vis_m": 8000,
      "fzfg": false,
      "metar_trigger": false,
      "taf_trigger": false,
      "metar": "METAR LPPR 102130Z 33010KT 8000 OVC005 13/12 Q1014",
      "taf": "TAF LPPR 101700Z 1018/1118 32010KT CAVOK"
    },
    {
      "icao": "LPPS",
      "alert": "OK",
      "vis_m": 9999,
      "fzfg": false,
      "metar_trigger": false,
      "taf_trigger": false,
      "metar": "METAR LPPS 102130Z 33019KT 9999 SCT012 SCT030 15/13 Q1021",
      "taf": "TAF LPPS 101700Z 1018/1124 36018KT 9999 SCT012 SCT030"
    },
    {
      "icao": "LPPT",
      "alert": "OK",
      "vis_m": 9999,
      "fzfg": false,
      "metar_trigger": false,
      "taf_trigger": false,
      "metar": "METAR LPPT 102130Z 29007KT 9999 FEW008 17/12 Q1013",
      "taf": "TAF LPPT 101700Z 1018/1124 23010KT 9999 FEW030"
    },
    {
      "icao": "LQBK",
      "alert": "OK",
      "vis_m": 9999,
      "fzfg": false,
      "metar_trigger": false,
      "taf_trigger": false,
      "metar": "METAR LQBK 102130Z 17005KT 070V210 CAVOK 09/03 Q1016 NOSIG",
      "taf": "TAF LQBK 101700Z 1018/1118 34005KT 9999 SCT045 TX16/1113Z TN05/1104Z"
    },
    {
      "icao": "LQSA",
      "alert": "OK",
      "vis_m": 8000,
      "fzfg": false,
      "metar_trigger": false,
      "taf_trigger": false,
      "metar": "METAR LQSA 102130Z 34004KT 290V060 8000 -RA FEW025 BKN040 BKN050 09/05 Q1018",
      "taf": "TAF LQSA 101700Z 1018/1118 VRB02KT 9999 SCT060 TX16/1114Z TN08/1104Z"
    },
    {
      "icao": "LQTZ",
      "alert": "OK",
      "vis_m": 9999,
      "fzfg": false,
      "metar_trigger": false,
      "taf_trigger": false,
      "metar": "METAR LQTZ 102130Z 04003KT 9999 FEW050 BKN070 08/08 Q1017",
      "taf": "TAF LQTZ 101700Z 1018/1118 32005KT 9999 BKN050 TX15/1113Z TN04/1104Z"
    },
    {
      "icao": "LRBC",
      "alert": "OK",
      "vis_m": 9999,
      "fzfg": false,
      "metar_trigger": false,
      "taf_trigger": false,
      "metar": "METAR LRBC 102130Z 29003KT 9999 SCT050 03/M00 Q1019",
      "taf": "TAF LRBC 102000Z 1021/1106 VRB04KT CAVOK"
    },
    {
      "icao": "LRBS",
      "alert": "OK",
      "vis_m": 9999,
      "fzfg": false,
      "metar_trigger": false,
      "taf_trigger": false,
      "metar": "METAR LRBS 102130Z 08004KT 9999 FEW047 05/03 Q1019 NOSIG",
      "taf": "TAF LRBS 101700Z 1018/1118 VRB04KT 9999 SCT045"
    },
    {
      "icao": "LRBV",
      "alert": "OK",
      "vis_m": 9999,
      "fzfg": false,
      "metar_trigger": false,
      "taf_trigger": false,
      "metar": "METAR LRBV 102130Z AUTO VRB02KT 9999 BKN079/// 02/M01 Q1017",
      "taf": "TAF LRBV 101700Z 1018/1103 23006KT 9999 SCT045"
    },
    {
      "icao": "LRCL",
      "alert": "OK",
      "vis_m": 9999,
      "fzfg": false,
      "metar_trigger": false,
      "taf_trigger": false,
      "metar": "METAR LRCL 102130Z 00000KT CAVOK 03/M03 Q1017",
      "taf": "TAF LRCL 102000Z 1021/1106 VRB04KT 9999 BKN045"
    },
    {
      "icao": "LRCV",
      "alert": "OK",
      "vis_m": 9999,
      "fzfg": false,
      "metar_trigger": false,
      "taf_trigger": false,
      "metar": "METAR LRCV 102130Z 10004KT CAVOK 04/03 Q1018",
      "taf": "TAF LRCV 102000Z 1021/1106 11006KT CAVOK"
    },
    {
      "icao": "LRIA",
      "alert": "OK",
      "vis_m": 9999,
      "fzfg": false,
      "metar_trigger": false,
      "taf_trigger": false,
      "metar": "METAR LRIA 102130Z 24004KT CAVOK 02/M02 Q1019",
      "taf": "TAF LRIA 102000Z 1021/1106 VRB04KT CAVOK"
    },
    {
      "icao": "LROP",
      "alert": "OK",
      "vis_m": 9999,
      "fzfg": false,
      "metar_trigger": false,
      "taf_trigger": false,
      "metar": "METAR LROP 102130Z 10004KT CAVOK 06/01 Q1019 NOSIG",
      "taf": "TAF LROP 101700Z 1018/1118 VRB04KT 9999 SCT045"
    },
    {
      "icao": "LRSB",
      "alert": "OK",
      "vis_m": 9999,
      "fzfg": false,
      "metar_trigger": false,
      "taf_trigger": false,
      "metar": "METAR LRSB 102130Z COR 26008KT 9999 FEW050 05/M00 Q1016",
      "taf": "TAF LRSB 101700Z 1018/1118 VRB04KT 9999 SCT045"
    },
    {
      "icao": "LRSM",
      "alert": "OK",
      "vis_m": 9999,
      "fzfg": false,
      "metar_trigger": false,
      "taf_trigger": false,
      "metar": "METAR LRSM 102130Z AUTO 17003KT 9999 NCD 01/M05 Q1017",
      "taf": "TAF LRSM 101400Z 1015/1024 VRB04KT CAVOK"
    },
    {
      "icao": "LRSV",
      "alert": "OK",
      "vis_m": 9999,
      "fzfg": false,
      "metar_trigger": false,
      "taf_trigger": false,
      "metar": "METAR LRSV 102130Z 23004KT 9999 BKN042 02/M03 Q1017",
      "taf": "TAF LRSV 102000Z 1021/1106 VRB04KT CAVOK"
    },
    {
      "icao": "LRTM",
      "alert": "OK",
      "vis_m": 9999,
      "fzfg": false,
      "metar_trigger": false,
      "taf_trigger": false,
      "metar": "METAR LRTM 102130Z 08006KT CAVOK 02/M02 Q1017",
      "taf": "TAF LRTM 102000Z 1021/1106 VRB04KT 9999 SCT040"
    },
    {
      "icao": "LRTR",
      "alert": "OK",
      "vis_m": 9999,
      "fzfg": false,
      "metar_trigger": false,
      "taf_trigger": false,
      "metar": "METAR LRTR 102130Z 00000KT CAVOK 06/01 Q1018",
      "taf": "TAF LRTR 101700Z 1018/1118 VRB04KT 9999 SCT035"
    },
    {
      "icao": "LTAC",
      "alert": "OK",
      "vis_m": 9999,
      "fzfg": false,
      "metar_trigger": false,
      "taf_trigger": false,
      "metar": "METAR LTAC 102150Z 01003KT 330V030 9999 -SN BKN030 BKN080 01/M00 Q1015 NOSIG RMK RWY21C 01004KT RWY03L 01003KT RWY21R 01004KT RWY03R VRB02KT RWY21L 05003KT 360V070",
      "taf": "TAF LTAC 101640Z 1018/1118 VRB02KT 9999 SCT035 BKN100"
    },
    {
      "icao": "LTFM",
      "alert": "OK",
      "vis_m": 9999,
      "fzfg": false,
      "metar_trigger": false,
      "taf_trigger": false,
      "metar": "METAR LTFM 102150Z 08005KT 9999 FEW016 SCT025 07/03 Q1020 NOSIG RMK RWY17L 13003KT RWY34L 08004KT RWY16R 10003KT RWY36 14003KT RWY18 VRB02KT",
      "taf": ""
    },
    {
      "icao": "LUKK",
      "alert": "OK",
      "vis_m": 9999,
      "fzfg": false,
      "metar_trigger": false,
      "taf_trigger": false,
      "metar": "METAR LUKK 102130Z 33004KT CAVOK 01/M04 Q1018 NOSIG",
      "taf": "TAF LUKK 101717Z 1018/1118 VRB05KT CAVOK"
    },
    {
      "icao": "LWOH",
      "alert": "OK",
      "vis_m": null,
      "fzfg": false,
      "metar_trigger": false,
      "taf_trigger": false,
      "metar": "",
      "taf": "TAF LWOH 102015Z 1021/1121 VRB02KT 9999 FEW040 BKN090"
    },
    {
      "icao": "LWSK",
      "alert": "OK",
      "vis_m": 9999,
      "fzfg": false,
      "metar_trigger": false,
      "taf_trigger": false,
      "metar": "METAR LWSK 102150Z VRB01KT 9999 BKN090 09/01 Q1017 NOSIG",
      "taf": "TAF LWSK 102015Z 1021/1121 VRB02KT 9999 FEW040 BKN090"
    },
    {
      "icao": "LYBE",
      "alert": "OK",
      "vis_m": 9999,
      "fzfg": false,
      "metar_trigger": false,
      "taf_trigger": false,
      "metar": "METAR LYBE 102130Z 01003KT 9999 -RA BKN036 08/05 Q1019 NOSIG",
      "taf": "TAF LYBE 101700Z 1018/1118 03005KT 9999 BKN045 TX15/1113Z TN06/1104Z"
    },
    {
      "icao": "LYNI",
      "alert": "OK",
      "vis_m": 9999,
      "fzfg": false,
      "metar_trigger": false,
      "taf_trigger": false,
      "metar": "METAR LYNI 102130Z VRB02KT 9999 SCT060 BKN090 09/00 Q1018 NOSIG",
      "taf": "TAF LYNI 101700Z 1018/1118 27005KT 9999 SCT050 BKN080 TX15/1112Z TN06/1105Z"
    },
    {
      "icao": "LYPG",
      "alert": "OK",
      "vis_m": 9999,
      "fzfg": false,
      "metar_trigger": false,
      "taf_trigger": false,
      "metar": "METAR LYPG 102130Z 15002KT CAVOK 13/05 Q1016 NOSIG",
      "taf": "TAF LYPG 101700Z 1018/1118 36006KT 9999 BKN090 TX22/1113Z TN12/1104Z"
    },
    {
      "icao": "LZIB",
      "alert": "OK",
      "vis_m": 9999,
      "fzfg": false,
      "metar_trigger": false,
      "taf_trigger": false,
      "metar": "METAR LZIB 102130Z 30008KT 9999 BKN043 06/01 Q1019 NOSIG",
      "taf": "TAF LZIB 101715Z 1018/1118 24005KT 9999 FEW030"
    },
    {
      "icao": "LZKZ",
      "alert": "OK",
      "vis_m": 9999,
      "fzfg": false,
      "metar_trigger": false,
      "taf_trigger": false,
      "metar": "METAR LZKZ 102130Z 02003KT CAVOK 03/M06 Q1017 NOSIG",
      "taf": "TAF LZKZ 101715Z 1018/1118 01006KT 9999 FEW045"
    },
    {
      "icao": "LZTT",
      "alert": "OK",
      "vis_m": 9999,
      "fzfg": false,
      "metar_trigger": false,
      "taf_trigger": false,
      "metar": "METAR LZTT 102130Z 29004KT CAVOK M02/M06 Q1016",
      "taf": ""
    },
    {
      "icao": "OEJN",
      "alert": "OK",
      "vis_m": 9999,
      "fzfg": false,
      "metar_trigger": false,
      "taf_trigger": false,
      "metar": "METAR OEJN 102100Z 35007KT CAVOK 24/14 Q1012 NOSIG",
      "taf": "TAF OEJN 101700Z 1018/1124 01005KT CAVOK"
    },
    {
      "icao": "OEMA",
      "alert": "OK",
      "vis_m": 9999,
      "fzfg": false,
      "metar_trigger": false,
      "taf_trigger": false,
      "metar": "METAR OEMA 102100Z 21004KT CAVOK 24/M04 Q1015 NOSIG",
      "taf": "TAF OEMA 101700Z 1018/1124 VRB03KT CAVOK"
    },
    {
      "icao": "OJAI",
      "alert": "OK",
      "vis_m": 5000,
      "fzfg": false,
      "metar_trigger": false,
      "taf_trigger": false,
      "metar": "METAR OJAI 102100Z 24003KT 5000 HZ NSC 10/08 Q1018 NOSIG",
      "taf": "TAF OJAI 101653Z 1018/1124 26012KT 5000 HZ NSC"
    },
    {
      "icao": "OMAA",
      "alert": "OK",
      "vis_m": null,
      "fzfg": false,
      "metar_trigger": false,
      "taf_trigger": false,
      "metar": "",
      "taf": ""
    },
    {
      "icao": "OMDB",
      "alert": "OK",
      "vis_m": null,
      "fzfg": false,
      "metar_trigger": false,
      "taf_trigger": false,
      "metar": "",
      "taf": ""
    },
    {
      "icao": "UAAA",
      "alert": "OK",
      "vis_m": 9999,
      "fzfg": false,
      "metar_trigger": false,
      "taf_trigger": false,
      "metar": "METAR UAAA 102130Z 15003MPS 9999 BKN100 11/07 Q1020 NOSIG",
      "taf": "TAF UAAA 101701Z 1018/1118 20002MPS 9999 SCT050CB BKN100 TX19/1108Z TN07/1101Z"
    },
    {
      "icao": "UBBB",
      "alert": "OK",
      "vis_m": 9999,
      "fzfg": false,
      "metar_trigger": false,
      "taf_trigger": false,
      "metar": "METAR UBBB 102130Z 31010KT 9999 BKN011 11/08 Q1013 NOSIG",
      "taf": "TAF UBBB 101702Z 1018/1118 22010KT 6000 SCT008 BKN025 TX14/1110Z TN07/1101Z"
    },
    {
      "icao": "UDSG",
      "alert": "OK",
      "vis_m": 9999,
      "fzfg": false,
      "metar_trigger": false,
      "taf_trigger": false,
      "metar": "METAR UDSG 102130Z 31004KT 9999 -SHRA BKN033CB 04/03 Q1015 NOSIG",
      "taf": "TAF UDSG 101700Z 1018/1118 22006KT 9999 BKN040"
    },
    {
      "icao": "UDYZ",
      "alert": "OK",
      "vis_m": 9999,
      "fzfg": false,
      "metar_trigger": false,
      "taf_trigger": false,
      "metar": "METAR UDYZ 102130Z 04008KT 9999 -SHRA BKN043CB 11/05 Q1013 NOSIG",
      "taf": "TAF UDYZ 101700Z 1018/1118 32006KT 9999 SCT040"
    },
    {
      "icao": "UGKO",
      "alert": "OK",
      "vis_m": 9999,
      "fzfg": false,
      "metar_trigger": false,
      "taf_trigger": false,
      "metar": "METAR UGKO 102130Z 24007KT 9999 SCT024 OVC034 08/06 Q1018 NOSIG",
      "taf": "TAF UGKO 101700Z 1018/1118 26007KT 9999 SCT020 OVC040 TX13/1111Z TN05/1103Z"
    }
  ]
}