{
  "ts_utc": "2026-06-28T22:16:47Z",
  "threshold_m": 150,
  "source": "stations_override.txt (ICAO list) + aviationweather.gov (METAR/TAF raw)",
  "station_count": 159,
  "stations": [
    {
      "icao": "BIKF",
      "alert": "OK",
      "vis_m": 9999,
      "fzfg": false,
      "metar_trigger": false,
      "taf_trigger": false,
      "metar": "METAR BIKF 282200Z 30007KT 9999 -RA FEW027 BKN055 OVC080 10/09 Q0993",
      "taf": "TAF BIKF 281956Z 2821/2921 28008KT 9999 -RA SCT030 BKN040 TX11/2915Z TN08/2906Z"
    },
    {
      "icao": "BKPR",
      "alert": "OK",
      "vis_m": 9999,
      "fzfg": false,
      "metar_trigger": false,
      "taf_trigger": false,
      "metar": "METAR BKPR 282200Z 30004KT CAVOK 23/16 Q1021 NOSIG",
      "taf": "TAF BKPR 281730Z 2818/2918 03008KT CAVOK"
    },
    {
      "icao": "EBCI",
      "alert": "OK",
      "vis_m": 9999,
      "fzfg": false,
      "metar_trigger": false,
      "taf_trigger": false,
      "metar": "METAR EBCI 282150Z VRB02KT CAVOK 21/15 Q1023 NOSIG",
      "taf": "TAF EBCI 281726Z 2818/2924 28008KT 9999 FEW040"
    },
    {
      "icao": "EDDB",
      "alert": "OK",
      "vis_m": 9999,
      "fzfg": false,
      "metar_trigger": false,
      "taf_trigger": false,
      "metar": "METAR EDDB 282150Z AUTO 02007KT CAVOK 27/19 Q1018 NOSIG",
      "taf": "TAF EDDB 281700Z 2818/2918 31012KT CAVOK"
    },
    {
      "icao": "EDDH",
      "alert": "OK",
      "vis_m": 9999,
      "fzfg": false,
      "metar_trigger": false,
      "taf_trigger": false,
      "metar": "METAR EDDH 282150Z AUTO 33004KT CAVOK 24/19 Q1019 NOSIG",
      "taf": "TAF EDDH 281700Z 2818/2924 32007KT 9999 SCT040"
    },
    {
      "icao": "EDDK",
      "alert": "OK",
      "vis_m": 9999,
      "fzfg": false,
      "metar_trigger": false,
      "taf_trigger": false,
      "metar": "METAR EDDK 282150Z AUTO 31007KT 260V010 CAVOK 23/20 Q1021 NOSIG",
      "taf": ""
    },
    {
      "icao": "EDDN",
      "alert": "OK",
      "vis_m": 9999,
      "fzfg": false,
      "metar_trigger": false,
      "taf_trigger": false,
      "metar": "METAR EDDN 282150Z AUTO 09009KT 9999 TSRA SCT///CB 21/19 Q1021",
      "taf": ""
    },
    {
      "icao": "EDDS",
      "alert": "OK",
      "vis_m": 9999,
      "fzfg": false,
      "metar_trigger": false,
      "taf_trigger": false,
      "metar": "METAR EDDS 282150Z AUTO 08007KT 9999 -SHRA FEW///CB 28/16 Q1020",
      "taf": ""
    },
    {
      "icao": "EDFH",
      "alert": "OK",
      "vis_m": 9999,
      "fzfg": false,
      "metar_trigger": false,
      "taf_trigger": false,
      "metar": "METAR EDFH 282150Z 36008KT CAVOK 24/17 Q1022",
      "taf": "TAF EDFH 281700Z 2818/2918 33007KT CAVOK"
    },
    {
      "icao": "EDJA",
      "alert": "OK",
      "vis_m": 9999,
      "fzfg": false,
      "metar_trigger": false,
      "taf_trigger": false,
      "metar": "METAR EDJA 282150Z AUTO VRB02KT 9999 // BKN220/// 20/15 Q1022",
      "taf": "TAF EDJA 281700Z 2818/2903 VRB03KT CAVOK"
    },
    {
      "icao": "EDLW",
      "alert": "OK",
      "vis_m": 9999,
      "fzfg": false,
      "metar_trigger": false,
      "taf_trigger": false,
      "metar": "METAR EDLW 282150Z AUTO VRB02KT 9999 // SCT160/// 23/19 Q1021",
      "taf": "TAF EDLW 281700Z 2818/2918 28006KT CAVOK"
    },
    {
      "icao": "EDNY",
      "alert": "OK",
      "vis_m": 9999,
      "fzfg": false,
      "metar_trigger": false,
      "taf_trigger": false,
      "metar": "METAR EDNY 282150Z AUTO 09004KT 060V120 9999 // OVC210/// 24/14 Q1020",
      "taf": ""
    },
    {
      "icao": "EDSB",
      "alert": "OK",
      "vis_m": 9999,
      "fzfg": false,
      "metar_trigger": false,
      "taf_trigger": false,
      "metar": "METAR EDSB 282150Z AUTO 22004KT 9999 // BKN150/// 27/19 Q1018",
      "taf": "TAF EDSB 281700Z 2818/2918 32004KT CAVOK"
    },
    {
      "icao": "EETN",
      "alert": "OK",
      "vis_m": 9999,
      "fzfg": false,
      "metar_trigger": false,
      "taf_trigger": false,
      "metar": "METAR EETN 282150Z 19004KT CAVOK 18/18 Q1014 TEMPO 3000 BR",
      "taf": "TAF EETN 281730Z 2818/2918 24007KT 9999 SCT035"
    },
    {
      "icao": "EFTU",
      "alert": "OK",
      "vis_m": 9999,
      "fzfg": false,
      "metar_trigger": false,
      "taf_trigger": false,
      "metar": "METAR EFTU 282150Z AUTO 29005KT 250V320 CAVOK 17/17 Q1013",
      "taf": "TAF EFTU 282022Z 2821/2921 23007KT CAVOK"
    },
    {
      "icao": "EGBB",
      "alert": "OK",
      "vis_m": 9999,
      "fzfg": false,
      "metar_trigger": false,
      "taf_trigger": false,
      "metar": "METAR EGBB 282150Z 23004KT 160V300 CAVOK 16/08 Q1022",
      "taf": "TAF EGBB 281657Z 2818/2918 25009KT 9999 SCT045"
    },
    {
      "icao": "EGGP",
      "alert": "OK",
      "vis_m": 9999,
      "fzfg": false,
      "metar_trigger": false,
      "taf_trigger": false,
      "metar": "METAR EGGP 282150Z 23010KT CAVOK 15/09 Q1021",
      "taf": "TAF EGGP 281659Z 2818/2918 23013KT 9999 FEW030"
    },
    {
      "icao": "EGGW",
      "alert": "OK",
      "vis_m": 9999,
      "fzfg": false,
      "metar_trigger": false,
      "taf_trigger": false,
      "metar": "METAR EGGW 282150Z AUTO 25009KT 9999 NCD 15/07 Q1022",
      "taf": "TAF EGGW 281659Z 2818/2918 26009KT 9999 FEW045"
    },
    {
      "icao": "EGKK",
      "alert": "OK",
      "vis_m": 9999,
      "fzfg": false,
      "metar_trigger": false,
      "taf_trigger": false,
      "metar": "METAR EGKK 282150Z 27006KT 9999 SCT049 18/12 Q1023",
      "taf": "TAF EGKK 281658Z 2818/2924 22014KT 9999 FEW040"
    },
    {
      "icao": "EGNM",
      "alert": "OK",
      "vis_m": 9999,
      "fzfg": false,
      "metar_trigger": false,
      "taf_trigger": false,
      "metar": "METAR EGNM 282150Z 24007KT CAVOK 13/07 Q1020",
      "taf": "TAF EGNM 281657Z 2818/2918 27012KT 9999 FEW025"
    },
    {
      "icao": "EGPD",
      "alert": "OK",
      "vis_m": 9999,
      "fzfg": false,
      "metar_trigger": false,
      "taf_trigger": false,
      "metar": "METAR EGPD 282150Z AUTO 22006KT 9999 NCD 13/08 Q1014",
      "taf": "TAF EGPD 281657Z 2818/2918 23010KT 9999 SCT045"
    },
    {
      "icao": "EGPF",
      "alert": "OK",
      "vis_m": 9999,
      "fzfg": false,
      "metar_trigger": false,
      "taf_trigger": false,
      "metar": "METAR EGPF 282150Z AUTO 24008KT 9999 BKN047 13/09 Q1016",
      "taf": "TAF EGPF 281655Z 2818/2918 22010KT 9999 SCT035"
    },
    {
      "icao": "EHBK",
      "alert": "OK",
      "vis_m": 9999,
      "fzfg": false,
      "metar_trigger": false,
      "taf_trigger": false,
      "metar": "METAR EHBK 282155Z AUTO 33004KT 290V010 9999 NSC 23/17 Q1022",
      "taf": "TAF EHBK 281714Z 2818/2924 32005KT CAVOK"
    },
    {
      "icao": "EHEH",
      "alert": "OK",
      "vis_m": 9999,
      "fzfg": false,
      "metar_trigger": false,
      "taf_trigger": false,
      "metar": "METAR EHEH 282155Z AUTO 24003KT 210V300 9999 FEW015CB SCT086 OVC110 21/18 Q1021 REDZ BLU",
      "taf": "TAF EHEH 281707Z 2818/2924 33007KT CAVOK"
    },
    {
      "icao": "EKBI",
      "alert": "OK",
      "vis_m": 9999,
      "fzfg": false,
      "metar_trigger": false,
      "taf_trigger": false,
      "metar": "METAR EKBI 282150Z AUTO 21005KT 9999 FEW054/// 19/17 Q1019",
      "taf": "TAF EKBI 282027Z 2821/2921 23006KT CAVOK"
    },
    {
      "icao": "EKCH",
      "alert": "OK",
      "vis_m": 9999,
      "fzfg": false,
      "metar_trigger": false,
      "taf_trigger": false,
      "metar": "METAR EKCH 282150Z AUTO 23006KT 9999 NCD 22/19 Q1018 NOSIG",
      "taf": "TAF EKCH 282027Z 2821/2921 24008KT CAVOK"
    },
    {
      "icao": "ENAL",
      "alert": "OK",
      "vis_m": 9000,
      "fzfg": false,
      "metar_trigger": false,
      "taf_trigger": false,
      "metar": "METAR ENAL 282150Z 25016KT 9000 -SHRA BKN004 15/14 Q1010",
      "taf": ""
    },
    {
      "icao": "ENBR",
      "alert": "OK",
      "vis_m": 9999,
      "fzfg": false,
      "metar_trigger": false,
      "taf_trigger": false,
      "metar": "METAR ENBR 282150Z 18013KT 9999 FEW004 BKN006 15/14 Q1013 RMK WIND 1200FT 20014KT",
      "taf": ""
    },
    {
      "icao": "ENGM",
      "alert": "OK",
      "vis_m": 9999,
      "fzfg": false,
      "metar_trigger": false,
      "taf_trigger": false,
      "metar": "METAR ENGM 282150Z 18009KT CAVOK 19/12 Q1013",
      "taf": "TAF ENGM 281700Z 2818/2918 20012KT CAVOK"
    },
    {
      "icao": "ENHD",
      "alert": "OK",
      "vis_m": 9999,
      "fzfg": false,
      "metar_trigger": false,
      "taf_trigger": false,
      "metar": "METAR ENHD 282150Z AUTO 20011KT 9999 NCD 16/14 Q1014",
      "taf": "TAF ENHD 281400Z 2815/2822 18012KT 9999 BKN045"
    },
    {
      "icao": "ENTC",
      "alert": "OK",
      "vis_m": 9999,
      "fzfg": false,
      "metar_trigger": false,
      "taf_trigger": false,
      "metar": "METAR ENTC 282150Z 01011KT CAVOK 09/06 Q1012 RMK WIND 2600FT 20004KT",
      "taf": "TAF ENTC 281700Z 2818/2918 02008KT 9999 FEW040"
    },
    {
      "icao": "ENTO",
      "alert": "OK",
      "vis_m": 9999,
      "fzfg": false,
      "metar_trigger": false,
      "taf_trigger": false,
      "metar": "METAR ENTO 282150Z 19010KT CAVOK 18/18 Q1014",
      "taf": "TAF ENTO 281700Z 2818/2918 18008KT CAVOK"
    },
    {
      "icao": "ENVA",
      "alert": "OK",
      "vis_m": 9999,
      "fzfg": false,
      "metar_trigger": false,
      "taf_trigger": false,
      "metar": "METAR ENVA 282150Z VRB02KT CAVOK 18/17 Q1010 RMK WIND 670FT 10007KT",
      "taf": "TAF ENVA 281700Z 2818/2918 25008KT CAVOK"
    },
    {
      "icao": "ENZV",
      "alert": "OK",
      "vis_m": 9999,
      "fzfg": false,
      "metar_trigger": false,
      "taf_trigger": false,
      "metar": "METAR ENZV 282150Z 19007KT CAVOK 17/15 Q1015",
      "taf": ""
    },
    {
      "icao": "EPGD",
      "alert": "OK",
      "vis_m": 9999,
      "fzfg": false,
      "metar_trigger": false,
      "taf_trigger": false,
      "metar": "METAR EPGD 282200Z 30009KT CAVOK 23/18 Q1017",
      "taf": "TAF EPGD 281730Z 2818/2918 VRB05KT CAVOK"
    },
    {
      "icao": "EPKK",
      "alert": "OK",
      "vis_m": 9999,
      "fzfg": false,
      "metar_trigger": false,
      "taf_trigger": false,
      "metar": "METAR EPKK 282200Z VRB02KT CAVOK 25/19 Q1019",
      "taf": "TAF EPKK 282030Z 2821/2921 VRB02KT CAVOK"
    },
    {
      "icao": "EPKT",
      "alert": "OK",
      "vis_m": 9999,
      "fzfg": false,
      "metar_trigger": false,
      "taf_trigger": false,
      "metar": "METAR EPKT 282200Z 07003KT CAVOK 24/18 Q1019",
      "taf": "TAF EPKT 281730Z 2818/2918 25006KT CAVOK"
    },
    {
      "icao": "EPLB",
      "alert": "OK",
      "vis_m": 9999,
      "fzfg": false,
      "metar_trigger": false,
      "taf_trigger": false,
      "metar": "METAR EPLB 282200Z 28005KT CAVOK 29/19 Q1017",
      "taf": "TAF EPLB 281730Z 2818/2918 26005KT CAVOK"
    },
    {
      "icao": "EPMO",
      "alert": "OK",
      "vis_m": 9999,
      "fzfg": false,
      "metar_trigger": false,
      "taf_trigger": false,
      "metar": "METAR EPMO 282200Z 23003KT 160V320 CAVOK 28/20 Q1016",
      "taf": "TAF EPMO 281730Z 2818/2918 27005KT CAVOK"
    },
    {
      "icao": "EPPO",
      "alert": "OK",
      "vis_m": 9999,
      "fzfg": false,
      "metar_trigger": false,
      "taf_trigger": false,
      "metar": "METAR EPPO 282200Z 27003KT 260V350 CAVOK 26/19 Q1017",
      "taf": "TAF EPPO 281730Z 2818/2918 16008KT CAVOK"
    },
    {
      "icao": "EPRA",
      "alert": "OK",
      "vis_m": 9999,
      "fzfg": false,
      "metar_trigger": false,
      "taf_trigger": false,
      "metar": "METAR EPRA 282200Z 25007KT CAVOK 29/16 Q1017",
      "taf": "TAF EPRA 282030Z 2821/2906 25006KT CAVOK"
    },
    {
      "icao": "EPRZ",
      "alert": "OK",
      "vis_m": 9999,
      "fzfg": false,
      "metar_trigger": false,
      "taf_trigger": false,
      "metar": "METAR EPRZ 282200Z 23003KT CAVOK 27/19 Q1019",
      "taf": "TAF EPRZ 281730Z 2818/2918 23006KT CAVOK"
    },
    {
      "icao": "EPSC",
      "alert": "OK",
      "vis_m": 9999,
      "fzfg": false,
      "metar_trigger": false,
      "taf_trigger": false,
      "metar": "METAR EPSC 282200Z VRB01KT CAVOK 20/18 Q1019",
      "taf": "TAF EPSC 281730Z 2818/2918 34012KT CAVOK"
    },
    {
      "icao": "EPSY",
      "alert": "OK",
      "vis_m": 9999,
      "fzfg": false,
      "metar_trigger": false,
      "taf_trigger": false,
      "metar": "METAR EPSY 282200Z 34001KT CAVOK 23/19 Q1016",
      "taf": "TAF EPSY 282030Z 2821/2906 VRB02KT CAVOK"
    },
    {
      "icao": "EPWA",
      "alert": "OK",
      "vis_m": 9999,
      "fzfg": false,
      "metar_trigger": false,
      "taf_trigger": false,
      "metar": "METAR EPWA 282200Z 00000KT CAVOK 28/18 Q1016 NOSIG",
      "taf": "TAF EPWA 282030Z 2821/2921 VRB03KT CAVOK"
    },
    {
      "icao": "EPWR",
      "alert": "OK",
      "vis_m": 9999,
      "fzfg": false,
      "metar_trigger": false,
      "taf_trigger": false,
      "metar": "METAR EPWR 282200Z 18003KT 160V220 CAVOK 26/19 Q1016",
      "taf": "TAF EPWR 282030Z 2821/2921 VRB02KT CAVOK"
    },
    {
      "icao": "ESGG",
      "alert": "OK",
      "vis_m": 9999,
      "fzfg": false,
      "metar_trigger": false,
      "taf_trigger": false,
      "metar": "METAR ESGG 282150Z 21005KT CAVOK 19/18 Q1016",
      "taf": "TAF ESGG 282030Z 2821/2921 21005KT CAVOK"
    },
    {
      "icao": "ESKN",
      "alert": "OK",
      "vis_m": 9999,
      "fzfg": false,
      "metar_trigger": false,
      "taf_trigger": false,
      "metar": "METAR ESKN 282150Z 22003KT CAVOK 19/19 Q1014",
      "taf": "TAF ESKN 282030Z 2821/2921 25004KT CAVOK"
    },
    {
      "icao": "ESMS",
      "alert": "OK",
      "vis_m": 9999,
      "fzfg": false,
      "metar_trigger": false,
      "taf_trigger": false,
      "metar": "METAR ESMS 282150Z 22005KT CAVOK 22/20 Q1018",
      "taf": "TAF ESMS 282027Z 2821/2921 25006KT CAVOK"
    },
    {
      "icao": "ESSA",
      "alert": "OK",
      "vis_m": 9999,
      "fzfg": false,
      "metar_trigger": false,
      "taf_trigger": false,
      "metar": "METAR ESSA 282150Z 17003KT CAVOK 17/16 Q1013 NOSIG",
      "taf": "TAF ESSA 282030Z 2821/2921 24004KT CAVOK"
    },
    {
      "icao": "EYKA",
      "alert": "OK",
      "vis_m": 9999,
      "fzfg": false,
      "metar_trigger": false,
      "taf_trigger": false,
      "metar": "METAR EYKA 282150Z 08002KT CAVOK 22/19 Q1016",
      "taf": "TAF EYKA 281700Z 2818/2918 VRB03KT 9000 NSC"
    },
    {
      "icao": "EYPA",
      "alert": "OK",
      "vis_m": 9999,
      "fzfg": false,
      "metar_trigger": false,
      "taf_trigger": false,
      "metar": "METAR EYPA 282150Z VRB01KT 9999 VCTS FEW110CB 21/20 Q1015",
      "taf": "TAF EYPA 281700Z 2818/2918 VRB03KT 9000 NSC"
    },
    {
      "icao": "EYVI",
      "alert": "OK",
      "vis_m": 9999,
      "fzfg": false,
      "metar_trigger": false,
      "taf_trigger": false,
      "metar": "METAR EYVI 282150Z 19003KT CAVOK 20/18 Q1017 NOSIG",
      "taf": "TAF EYVI 281700Z 2818/2918 VRB03KT 9000 NSC"
    },
    {
      "icao": "GCFV",
      "alert": "OK",
      "vis_m": 9999,
      "fzfg": false,
      "metar_trigger": false,
      "taf_trigger": false,
      "metar": "METAR GCFV 282200Z 01013KT CAVOK 22/18 Q1018",
      "taf": "TAF GCFV 282000Z 2821/2921 02015KT 9999 FEW020 TX27/2914Z TN22/2906Z"
    },
    {
      "icao": "GCLP",
      "alert": "OK",
      "vis_m": 9999,
      "fzfg": false,
      "metar_trigger": false,
      "taf_trigger": false,
      "metar": "METAR GCLP 282200Z 36022KT 9999 FEW025 23/18 Q1018 NOSIG",
      "taf": "TAF GCLP 282000Z 2821/2921 36023KT 9999 FEW025 TX30/2914Z TN22/2906Z"
    },
    {
      "icao": "GCTS",
      "alert": "OK",
      "vis_m": 9999,
      "fzfg": false,
      "metar_trigger": false,
      "taf_trigger": false,
      "metar": "METAR GCTS 282200Z 06008KT 040V100 9999 FEW025 23/17 Q1019 WS R07 NOSIG",
      "taf": "TAF GCTS 282000Z 2821/2921 06017KT 9999 FEW025 TX32/2914Z TN22/2906Z"
    },
    {
      "icao": "GMAD",
      "alert": "OK",
      "vis_m": 8000,
      "fzfg": false,
      "metar_trigger": false,
      "taf_trigger": false,
      "metar": "METAR GMAD 282200Z 20006KT 8000 FEW013 SCT200 23/18 Q1016 NOSIG",
      "taf": "TAF GMAD 281700Z 2818/2924 2600KT 8000 SCT016 BKN100"
    },
    {
      "icao": "GMMN",
      "alert": "OK",
      "vis_m": 9999,
      "fzfg": false,
      "metar_trigger": false,
      "taf_trigger": false,
      "metar": "METAR GMMN 282200Z 02006KT 340V040 CAVOK 21/18 Q1022 NOSIG",
      "taf": "TAF GMMN 281700Z 2818/2924 36012KT CAVOK"
    },
    {
      "icao": "GMMX",
      "alert": "OK",
      "vis_m": 9999,
      "fzfg": false,
      "metar_trigger": false,
      "taf_trigger": false,
      "metar": "METAR GMMX 282200Z 04007KT 010V070 9999 FEW033 SCT200 29/17 Q1020 NOSIG",
      "taf": "TAF GMMX 281700Z 2818/2924 24006KT 8000 SCT033 SCT100"
    },
    {
      "icao": "HEGN",
      "alert": "OK",
      "vis_m": 9999,
      "fzfg": false,
      "metar_trigger": false,
      "taf_trigger": false,
      "metar": "METAR HEGN 282200Z 29009KT CAVOK 31/08 Q1007 NOSIG",
      "taf": ""
    },
    {
      "icao": "HEMA",
      "alert": "OK",
      "vis_m": 9999,
      "fzfg": false,
      "metar_trigger": false,
      "taf_trigger": false,
      "metar": "METAR HEMA 282200Z 23006KT CAVOK 29/11 Q1007 NOSIG",
      "taf": ""
    },
    {
      "icao": "HESH",
      "alert": "OK",
      "vis_m": 9999,
      "fzfg": false,
      "metar_trigger": false,
      "taf_trigger": false,
      "metar": "METAR HESH 282200Z 36008KT CAVOK 33/09 Q1006 NOSIG",
      "taf": ""
    },
    {
      "icao": "HESX",
      "alert": "OK",
      "vis_m": 9999,
      "fzfg": false,
      "metar_trigger": false,
      "taf_trigger": false,
      "metar": "METAR HESX 282200Z 04008KT CAVOK 25/20 Q1011 NOSIG",
      "taf": ""
    },
    {
      "icao": "LATI",
      "alert": "OK",
      "vis_m": null,
      "fzfg": false,
      "metar_trigger": false,
      "taf_trigger": false,
      "metar": "",
      "taf": "TAF LATI 281700Z 2818/2918 VRB05KT CAVOK TX37/2912Z TN21/2904Z"
    },
    {
      "icao": "LBPD",
      "alert": "OK",
      "vis_m": 9999,
      "fzfg": false,
      "metar_trigger": false,
      "taf_trigger": false,
      "metar": "METAR LBPD 282200Z AUTO 25003KT 9999 NCD 21/12 Q1020",
      "taf": "TAF LBPD 281700Z 2818/2918 VRB03KT CAVOK"
    },
    {
      "icao": "LBSF",
      "alert": "OK",
      "vis_m": 9999,
      "fzfg": false,
      "metar_trigger": false,
      "taf_trigger": false,
      "metar": "METAR LBSF 282200Z AUTO 10005KT 9999 NSC 18/14 Q1023 NOSIG",
      "taf": "TAF LBSF 281700Z 2818/2918 05010KT CAVOK"
    },
    {
      "icao": "LBWN",
      "alert": "OK",
      "vis_m": 9999,
      "fzfg": false,
      "metar_trigger": false,
      "taf_trigger": false,
      "metar": "METAR LBWN 282200Z AUTO 31003KT 280V340 9999 NCD 20/13 Q1019 NOSIG",
      "taf": "TAF LBWN 281700Z 2818/2918 VRB04KT CAVOK"
    },
    {
      "icao": "LCLK",
      "alert": "OK",
      "vis_m": 9999,
      "fzfg": false,
      "metar_trigger": false,
      "taf_trigger": false,
      "metar": "METAR LCLK 282200Z 00000KT CAVOK 25/14 Q1009 NOSIG",
      "taf": "TAF LCLK 281730Z 2818/2918 28008KT CAVOK"
    },
    {
      "icao": "LCPH",
      "alert": "OK",
      "vis_m": 9999,
      "fzfg": false,
      "metar_trigger": false,
      "taf_trigger": false,
      "metar": "METAR LCPH 282200Z 02005KT CAVOK 24/14 Q1010 NOSIG",
      "taf": "TAF LCPH 281730Z 2818/2918 01007KT CAVOK"
    },
    {
      "icao": "LEAL",
      "alert": "OK",
      "vis_m": 9999,
      "fzfg": false,
      "metar_trigger": false,
      "taf_trigger": false,
      "metar": "METAR LEAL 282200Z 25002KT 9999 FEW010 27/24 Q1019 NOSIG",
      "taf": "TAF LEAL 281700Z 2818/2918 07008KT 9999 FEW015 TX32/2912Z TN24/2906Z"
    },
    {
      "icao": "LEBB",
      "alert": "OK",
      "vis_m": 9999,
      "fzfg": false,
      "metar_trigger": false,
      "taf_trigger": false,
      "metar": "METAR LEBB 282200Z 00000KT 9999 FEW019 BKN036 OVC045 21/20 Q1026 TEMPO 3000 DZ BKN010",
      "taf": "TAF LEBB 281700Z 2818/2918 30009KT 9999 SCT020 BKN030 TX25/2915Z TN19/2905Z"
    },
    {
      "icao": "LEBL",
      "alert": "OK",
      "vis_m": 9999,
      "fzfg": false,
      "metar_trigger": false,
      "taf_trigger": false,
      "metar": "METAR LEBL 282200Z 25004KT 200V290 9999 FEW055TCU 28/22 Q1019 NOSIG",
      "taf": ""
    },
    {
      "icao": "LECH",
      "alert": "OK",
      "vis_m": 9999,
      "fzfg": false,
      "metar_trigger": false,
      "taf_trigger": false,
      "metar": "METAR LECH 282200Z AUTO 03007KT 010V070 CAVOK 25/14 Q1022",
      "taf": "TAF LECH 281700Z 2818/2918 VRB04KT CAVOK TX34/2912Z TN19/2906Z"
    },
    {
      "icao": "LEMD",
      "alert": "OK",
      "vis_m": 9999,
      "fzfg": false,
      "metar_trigger": false,
      "taf_trigger": false,
      "metar": "METAR LEMD 282200Z 35006KT 320V040 CAVOK 21/13 Q1022 NOSIG",
      "taf": "TAF LEMD 281700Z 2818/2924 04010KT CAVOK TX34/2916Z TN17/2905Z"
    },
    {
      "icao": "LEMG",
      "alert": "OK",
      "vis_m": 9999,
      "fzfg": false,
      "metar_trigger": false,
      "taf_trigger": false,
      "metar": "METAR LEMG 282200Z VRB02KT CAVOK 24/19 Q1018 NOSIG",
      "taf": "TAF LEMG 281700Z 2818/2918 13010KT CAVOK TX31/2912Z TN22/2905Z"
    },
    {
      "icao": "LEVC",
      "alert": "OK",
      "vis_m": 9999,
      "fzfg": false,
      "metar_trigger": false,
      "taf_trigger": false,
      "metar": "METAR LEVC 282200Z VRB02KT CAVOK 26/21 Q1020 NOSIG",
      "taf": "TAF LEVC 281700Z 2818/2918 VRB04KT CAVOK TX33/2912Z TN23/2906Z"
    },
    {
      "icao": "LEXJ",
      "alert": "OK",
      "vis_m": 7000,
      "fzfg": false,
      "metar_trigger": false,
      "taf_trigger": false,
      "metar": "METAR LEXJ 282200Z AUTO 29008KT 7000 SCT020 BKN025 BKN030 19/18 Q1027",
      "taf": "TAF LEXJ 282000Z 2821/2921 04008KT 9999 BKN020 TX23/2914Z TN19/2905Z"
    },
    {
      "icao": "LEZG",
      "alert": "OK",
      "vis_m": 9999,
      "fzfg": false,
      "metar_trigger": false,
      "taf_trigger": false,
      "metar": "METAR LEZG 282200Z 27008KT 9999 FEW060 21/19 Q1022 NOSIG",
      "taf": ""
    },
    {
      "icao": "LEZL",
      "alert": "OK",
      "vis_m": 9999,
      "fzfg": false,
      "metar_trigger": false,
      "taf_trigger": false,
      "metar": "METAR LEZL 282200Z 20008KT 160V230 CAVOK 26/17 Q1018 NOSIG",
      "taf": "TAF LEZL 282000Z 2821/2921 22012KT CAVOK TX40/2915Z TN22/2905Z"
    },
    {
      "icao": "LFBD",
      "alert": "OK",
      "vis_m": 9999,
      "fzfg": false,
      "metar_trigger": false,
      "taf_trigger": false,
      "metar": "METAR LFBD 282200Z AUTO 32005KT 280V020 CAVOK 22/17 Q1025 NOSIG",
      "taf": "TAF LFBD 281700Z 2818/2924 34008KT 9999 SCT020 TX30/2914Z TN19/2905Z"
    },
    {
      "icao": "LFLL",
      "alert": "OK",
      "vis_m": 9999,
      "fzfg": false,
      "metar_trigger": false,
      "taf_trigger": false,
      "metar": "METAR LFLL 282200Z 34011KT 9999 FEW096CB SCT140 BKN180 25/14 Q1021 NOSIG",
      "taf": ""
    },
    {
      "icao": "LFLS",
      "alert": "OK",
      "vis_m": 9999,
      "fzfg": false,
      "metar_trigger": false,
      "taf_trigger": false,
      "metar": "METAR LFLS 282200Z AUTO 34017KT CAVOK 26/12 Q1021",
      "taf": "TAF LFLS 281400Z 2815/2915 25008KT CAVOK"
    },
    {
      "icao": "LFMN",
      "alert": "OK",
      "vis_m": 9999,
      "fzfg": false,
      "metar_trigger": false,
      "taf_trigger": false,
      "metar": "METAR LFMN 282200Z 04004KT CAVOK 28/22 Q1018 NOSIG",
      "taf": "TAF LFMN 282000Z 2821/3003 08006KT CAVOK"
    },
    {
      "icao": "LFOB",
      "alert": "OK",
      "vis_m": 9999,
      "fzfg": false,
      "metar_trigger": false,
      "taf_trigger": false,
      "metar": "METAR LFOB 282200Z AUTO 33008KT CAVOK 18/15 Q1024 NOSIG",
      "taf": "TAF LFOB 281700Z 2818/2918 34010KT 9999 SCT030"
    },
    {
      "icao": "LFPO",
      "alert": "OK",
      "vis_m": 9999,
      "fzfg": false,
      "metar_trigger": false,
      "taf_trigger": false,
      "metar": "METAR LFPO 282200Z AUTO 01005KT CAVOK 23/17 Q1022 NOSIG",
      "taf": ""
    },
    {
      "icao": "LFSB",
      "alert": "OK",
      "vis_m": 9999,
      "fzfg": false,
      "metar_trigger": false,
      "taf_trigger": false,
      "metar": "METAR LFSB 282200Z AUTO 19006KT CAVOK 22/20 Q1019 TEMPO FEW080CB",
      "taf": ""
    },
    {
      "icao": "LGAV",
      "alert": "OK",
      "vis_m": 9999,
      "fzfg": false,
      "metar_trigger": false,
      "taf_trigger": false,
      "metar": "METAR LGAV 282150Z 36012KT CAVOK 26/12 Q1016 NOSIG",
      "taf": "TAF LGAV 281700Z 2818/2918 02018KT 9999 FEW025"
    },
    {
      "icao": "LGTS",
      "alert": "OK",
      "vis_m": 9999,
      "fzfg": false,
      "metar_trigger": false,
      "taf_trigger": false,
      "metar": "METAR LGTS 282150Z 13008KT CAVOK 23/18 Q1018 NOSIG",
      "taf": "TAF LGTS 281700Z 2818/2918 14013KT 9999 FEW030"
    },
    {
      "icao": "LHBP",
      "alert": "OK",
      "vis_m": 9999,
      "fzfg": false,
      "metar_trigger": false,
      "taf_trigger": false,
      "metar": "METAR LHBP 282200Z 00000KT CAVOK 26/18 Q1019 NOSIG",
      "taf": "TAF LHBP 281715Z 2818/2918 13006KT CAVOK"
    },
    {
      "icao": "LHDC",
      "alert": "OK",
      "vis_m": 9999,
      "fzfg": false,
      "metar_trigger": false,
      "taf_trigger": false,
      "metar": "METAR LHDC 282145Z AUTO 10003KT 060V150 CAVOK 25/16 Q1019",
      "taf": "TAF LHDC 281715Z 2818/2903 VRB04KT CAVOK"
    },
    {
      "icao": "LIBD",
      "alert": "OK",
      "vis_m": 9999,
      "fzfg": false,
      "metar_trigger": false,
      "taf_trigger": false,
      "metar": "METAR LIBD 282150Z 25004KT CAVOK 25/17 Q1017",
      "taf": "TAF LIBD 281700Z 2818/2918 VRB05KT CAVOK"
    },
    {
      "icao": "LIBG",
      "alert": "OK",
      "vis_m": 9999,
      "fzfg": false,
      "metar_trigger": false,
      "taf_trigger": false,
      "metar": "METAR LIBG 282150Z AUTO 24003KT 210V290 9999 NCD 27/16 Q1016",
      "taf": "TAF LIBG 281700Z 2818/2918 VRB05KT CAVOK"
    },
    {
      "icao": "LIBP",
      "alert": "OK",
      "vis_m": 9999,
      "fzfg": false,
      "metar_trigger": false,
      "taf_trigger": false,
      "metar": "METAR LIBP 282150Z AUTO 23005KT 9999 BKN097/// 25/16 Q1017",
      "taf": "TAF LIBP 281700Z 2818/2918 VRB05KT CAVOK"
    },
    {
      "icao": "LIBR",
      "alert": "OK",
      "vis_m": 9999,
      "fzfg": false,
      "metar_trigger": false,
      "taf_trigger": false,
      "metar": "METAR LIBR 282150Z 32008KT CAVOK 26/26 Q1016",
      "taf": "TAF LIBR 281700Z 2818/2918 33010KT CAVOK"
    },
    {
      "icao": "LICA",
      "alert": "OK",
      "vis_m": 9999,
      "fzfg": false,
      "metar_trigger": false,
      "taf_trigger": false,
      "metar": "METAR LICA 282150Z AUTO 25001KT 9999 NCD 25/24 Q1017",
      "taf": "TAF LICA 281700Z 2818/2918 VRB05KT 9999 SCT030"
    },
    {
      "icao": "LICC",
      "alert": "OK",
      "vis_m": 9999,
      "fzfg": false,
      "metar_trigger": false,
      "taf_trigger": false,
      "metar": "METAR LICC 282150Z 29005KT 270V330 CAVOK 28/19 Q1016",
      "taf": "TAF LICC 281700Z 2818/2918 VRB05KT CAVOK"
    },
    {
      "icao": "LICJ",
      "alert": "OK",
      "vis_m": 9999,
      "fzfg": false,
      "metar_trigger": false,
      "taf_trigger": false,
      "metar": "METAR LICJ 282150Z 09002KT CAVOK 27/24 Q1017",
      "taf": "TAF LICJ 281700Z 2818/2918 04011KT CAVOK"
    },
    {
      "icao": "LIMC",
      "alert": "OK",
      "vis_m": 9999,
      "fzfg": false,
      "metar_trigger": false,
      "taf_trigger": false,
      "metar": "METAR LIMC 282150Z 01007KT CAVOK 26/15 Q1019 NOSIG",
      "taf": "TAF LIMC 281700Z 2818/2924 VRB05KT CAVOK"
    },
    {
      "icao": "LIME",
      "alert": "OK",
      "vis_m": 9999,
      "fzfg": false,
      "metar_trigger": false,
      "taf_trigger": false,
      "metar": "METAR LIME 282150Z 36006KT CAVOK 28/15 Q1018 NOSIG",
      "taf": ""
    },
    {
      "icao": "LIMF",
      "alert": "OK",
      "vis_m": 9999,
      "fzfg": false,
      "metar_trigger": false,
      "taf_trigger": false,
      "metar": "METAR LIMF 282150Z 26016G29KT 220V300 9999 -RA VCTS FEW020CB BKN090 25/19 Q1020",
      "taf": ""
    },
    {
      "icao": "LIMJ",
      "alert": "OK",
      "vis_m": 9999,
      "fzfg": false,
      "metar_trigger": false,
      "taf_trigger": false,
      "metar": "METAR LIMJ 282150Z 34005KT 310V010 9999 VCTS FEW045CB 29/19 Q1018",
      "taf": ""
    },
    {
      "icao": "LIPE",
      "alert": "OK",
      "vis_m": 9999,
      "fzfg": false,
      "metar_trigger": false,
      "taf_trigger": false,
      "metar": "METAR LIPE 282150Z 20006KT CAVOK 30/19 Q1017",
      "taf": "TAF LIPE 281700Z 2818/2918 VRB05KT CAVOK"
    },
    {
      "icao": "LIPH",
      "alert": "OK",
      "vis_m": 9999,
      "fzfg": false,
      "metar_trigger": false,
      "taf_trigger": false,
      "metar": "METAR LIPH 282150Z AUTO 20002KT 9999 NCD 26/20 Q1016",
      "taf": "TAF LIPH 281700Z 2818/2918 VRB05KT CAVOK"
    },
    {
      "icao": "LIPQ",
      "alert": "OK",
      "vis_m": 9999,
      "fzfg": false,
      "metar_trigger": false,
      "taf_trigger": false,
      "metar": "METAR LIPQ 282150Z AUTO 05002KT 9999 NCD 26/23 Q1016",
      "taf": "TAF LIPQ 281700Z 2818/2918 VRB05KT CAVOK"
    },
    {
      "icao": "LIPR",
      "alert": "OK",
      "vis_m": 9999,
      "fzfg": false,
      "metar_trigger": false,
      "taf_trigger": false,
      "metar": "METAR LIPR 282150Z AUTO 20003KT 9999 NCD 24/22 Q1017",
      "taf": "TAF LIPR 281700Z 2818/2918 VRB05KT CAVOK"
    },
    {
      "icao": "LIPX",
      "alert": "OK",
      "vis_m": 9999,
      "fzfg": false,
      "metar_trigger": false,
      "taf_trigger": false,
      "metar": "METAR LIPX 282150Z 03003KT CAVOK 30/17 Q1017",
      "taf": ""
    },
    {
      "icao": "LIPY",
      "alert": "OK",
      "vis_m": 9999,
      "fzfg": false,
      "metar_trigger": false,
      "taf_trigger": false,
      "metar": "METAR LIPY 282150Z AUTO 18002KT 9999 NCD 25/21 Q1016",
      "taf": "TAF LIPY 281700Z 2818/2918 VRB05KT CAVOK"
    },
    {
      "icao": "LIPZ",
      "alert": "OK",
      "vis_m": 9999,
      "fzfg": false,
      "metar_trigger": false,
      "taf_trigger": false,
      "metar": "METAR LIPZ 282150Z 27004KT 220V300 CAVOK 28/24 Q1016 NOSIG",
      "taf": "TAF LIPZ 281700Z 2818/2924 VRB05KT CAVOK"
    },
    {
      "icao": "LIRF",
      "alert": "OK",
      "vis_m": 9999,
      "fzfg": false,
      "metar_trigger": false,
      "taf_trigger": false,
      "metar": "METAR LIRF 282150Z 30003KT CAVOK 26/25 Q1017 NOSIG",
      "taf": "TAF LIRF 281700Z 2818/2924 31007KT CAVOK"
    },
    {
      "icao": "LIRN",
      "alert": "OK",
      "vis_m": 9999,
      "fzfg": false,
      "metar_trigger": false,
      "taf_trigger": false,
      "metar": "METAR LIRN 282150Z AUTO VRB01KT 9999 NCD 29/18 Q1017",
      "taf": "TAF LIRN 281700Z 2818/2918 VRB05KT CAVOK"
    },
    {
      "icao": "LIRP",
      "alert": "OK",
      "vis_m": 9999,
      "fzfg": false,
      "metar_trigger": false,
      "taf_trigger": false,
      "metar": "METAR LIRP 282145Z 25003KT CAVOK 25/23 Q1018 NOSIG",
      "taf": "TAF LIRP 281700Z 2818/2918 27005KT CAVOK"
    },
    {
      "icao": "LIRZ",
      "alert": "OK",
      "vis_m": 9999,
      "fzfg": false,
      "metar_trigger": false,
      "taf_trigger": false,
      "metar": "METAR LIRZ 282150Z AUTO 36003KT 9999 NCD 26/18 Q1018",
      "taf": "TAF LIRZ 281700Z 2818/2918 VRB04KT CAVOK"
    },
    {
      "icao": "LJLJ",
      "alert": "OK",
      "vis_m": 9999,
      "fzfg": false,
      "metar_trigger": false,
      "taf_trigger": false,
      "metar": "METAR LJLJ 282200Z 33005KT 9999 FEW070 SCT200 22/20 Q1020 NOSIG",
      "taf": "TAF LJLJ 281700Z 2818/2918 15004KT 9999 FEW060"
    },
    {
      "icao": "LKMT",
      "alert": "OK",
      "vis_m": 9999,
      "fzfg": false,
      "metar_trigger": false,
      "taf_trigger": false,
      "metar": "METAR LKMT 282200Z 25003KT CAVOK 23/18 Q1019 NOSIG",
      "taf": "TAF LKMT 281700Z 2818/2918 21005KT CAVOK"
    },
    {
      "icao": "LKPR",
      "alert": "OK",
      "vis_m": 9999,
      "fzfg": false,
      "metar_trigger": false,
      "taf_trigger": false,
      "metar": "METAR LKPR 282200Z 30005KT 9999 FEW050CB 27/16 Q1019 NOSIG",
      "taf": "TAF LKPR 282000Z 2821/3003 33008KT CAVOK"
    },
    {
      "icao": "LLBG",
      "alert": "OK",
      "vis_m": 9999,
      "fzfg": false,
      "metar_trigger": false,
      "taf_trigger": false,
      "metar": "METAR LLBG 282150Z VRB02KT CAVOK 25/22 Q1010 NOSIG",
      "taf": "TAF LLBG 281704Z 2818/2918 34006KT CAVOK TX33/2911Z TN23/2903Z"
    },
    {
      "icao": "LMML",
      "alert": "OK",
      "vis_m": 9999,
      "fzfg": false,
      "metar_trigger": false,
      "taf_trigger": false,
      "metar": "METAR LMML 282215Z 31006KT CAVOK 27/20 Q1017 NOSIG",
      "taf": "TAF LMML 281700Z 2818/2918 VRB06KT CAVOK"
    },
    {
      "icao": "LOWW",
      "alert": "OK",
      "vis_m": 9999,
      "fzfg": false,
      "metar_trigger": false,
      "taf_trigger": false,
      "metar": "METAR LOWW 282150Z 17006KT CAVOK 25/16 Q1018 NOSIG",
      "taf": "TAF LOWW 282015Z 2821/3003 18005KT CAVOK TX38/2913Z TN22/2903Z"
    },
    {
      "icao": "LPFR",
      "alert": "OK",
      "vis_m": 9999,
      "fzfg": false,
      "metar_trigger": false,
      "taf_trigger": false,
      "metar": "METAR LPFR 282200Z 34010KT CAVOK 26/16 Q1019",
      "taf": "TAF LPFR 281700Z 2818/2918 25013KT CAVOK"
    },
    {
      "icao": "LPMA",
      "alert": "OK",
      "vis_m": 9999,
      "fzfg": false,
      "metar_trigger": false,
      "taf_trigger": false,
      "metar": "METAR LPMA 282200Z 02015KT 350V050 9999 FEW013 BKN030 22/18 Q1024",
      "taf": "TAF LPMA 281700Z 2818/2918 02013KT 9999 SCT015 BKN030"
    },
    {
      "icao": "LPPR",
      "alert": "OK",
      "vis_m": 9999,
      "fzfg": false,
      "metar_trigger": false,
      "taf_trigger": false,
      "metar": "METAR LPPR 282200Z 36004KT 340V050 CAVOK 18/16 Q1023",
      "taf": "TAF LPPR 281700Z 2818/2918 33012KT 9999 FEW025"
    },
    {
      "icao": "LPPS",
      "alert": "OK",
      "vis_m": 9999,
      "fzfg": false,
      "metar_trigger": false,
      "taf_trigger": false,
      "metar": "METAR LPPS 282200Z 03012KT 360V060 9999 SCT012 SCT030 21/18 Q1025",
      "taf": "TAF LPPS 281700Z 2818/2924 03012KT 9999 SCT015 BKN030"
    },
    {
      "icao": "LPPT",
      "alert": "OK",
      "vis_m": 9999,
      "fzfg": false,
      "metar_trigger": false,
      "taf_trigger": false,
      "metar": "METAR LPPT 282200Z 36008KT 310V050 9999 FEW019 19/15 Q1023",
      "taf": "TAF LPPT 281700Z 2818/2924 35015KT CAVOK"
    },
    {
      "icao": "LQBK",
      "alert": "OK",
      "vis_m": 9999,
      "fzfg": false,
      "metar_trigger": false,
      "taf_trigger": false,
      "metar": "METAR LQBK 282200Z 30004KT CAVOK 23/19 Q1018 NOSIG",
      "taf": "TAF LQBK 281700Z 2818/2918 06005KT CAVOK TX37/2913Z TN19/2903Z"
    },
    {
      "icao": "LQSA",
      "alert": "OK",
      "vis_m": 9999,
      "fzfg": false,
      "metar_trigger": false,
      "taf_trigger": false,
      "metar": "METAR LQSA 282200Z 15004KT CAVOK 22/16 Q1020",
      "taf": "TAF LQSA 281700Z 2818/2918 VRB02KT CAVOK TX36/2913Z TN18/2903Z"
    },
    {
      "icao": "LQTZ",
      "alert": "OK",
      "vis_m": 9999,
      "fzfg": false,
      "metar_trigger": false,
      "taf_trigger": false,
      "metar": "METAR LQTZ 282200Z 16002KT CAVOK 21/20 Q1018",
      "taf": "TAF LQTZ 281700Z 2818/2918 05007KT CAVOK TX38/2914Z TN19/2903Z"
    },
    {
      "icao": "LRBC",
      "alert": "OK",
      "vis_m": 9999,
      "fzfg": false,
      "metar_trigger": false,
      "taf_trigger": false,
      "metar": "METAR LRBC 282200Z 34002KT CAVOK 21/18 Q1019",
      "taf": "TAF LRBC 282000Z 2821/2906 VRB04KT CAVOK"
    },
    {
      "icao": "LRBS",
      "alert": "OK",
      "vis_m": 9999,
      "fzfg": false,
      "metar_trigger": false,
      "taf_trigger": false,
      "metar": "METAR LRBS 282200Z VRB01KT CAVOK 25/18 Q1018 NOSIG",
      "taf": "TAF LRBS 281700Z 2818/2918 VRB04KT CAVOK"
    },
    {
      "icao": "LRBV",
      "alert": "OK",
      "vis_m": 9999,
      "fzfg": false,
      "metar_trigger": false,
      "taf_trigger": false,
      "metar": "METAR LRBV 282200Z AUTO 22005KT 190V250 9999 NCD 21/14 Q1023",
      "taf": "TAF LRBV 281700Z 2818/2903 VRB04KT CAVOK"
    },
    {
      "icao": "LRCL",
      "alert": "OK",
      "vis_m": 9999,
      "fzfg": false,
      "metar_trigger": false,
      "taf_trigger": false,
      "metar": "METAR LRCL 282200Z 00000KT CAVOK 25/18 Q1020",
      "taf": "TAF LRCL 282000Z 2821/2906 VRB04KT CAVOK"
    },
    {
      "icao": "LRCV",
      "alert": "OK",
      "vis_m": 9999,
      "fzfg": false,
      "metar_trigger": false,
      "taf_trigger": false,
      "metar": "METAR LRCV 282200Z 30004KT CAVOK 24/18 Q1020",
      "taf": "TAF LRCV 282000Z 2821/2906 VRB04KT CAVOK"
    },
    {
      "icao": "LRIA",
      "alert": "OK",
      "vis_m": 9999,
      "fzfg": false,
      "metar_trigger": false,
      "taf_trigger": false,
      "metar": "METAR LRIA 282200Z 00000KT CAVOK 24/18 Q1018",
      "taf": "TAF LRIA 282000Z 2821/2906 VRB04KT CAVOK"
    },
    {
      "icao": "LROP",
      "alert": "OK",
      "vis_m": 9999,
      "fzfg": false,
      "metar_trigger": false,
      "taf_trigger": false,
      "metar": "METAR LROP 282200Z 25004KT CAVOK 24/19 Q1018 NOSIG",
      "taf": "TAF LROP 281700Z 2818/2918 VRB04KT CAVOK"
    },
    {
      "icao": "LRSB",
      "alert": "OK",
      "vis_m": 9999,
      "fzfg": false,
      "metar_trigger": false,
      "taf_trigger": false,
      "metar": "METAR LRSB 282200Z COR VRB01KT CAVOK 22/16 Q1022",
      "taf": "TAF LRSB 281700Z 2818/2918 VRB04KT CAVOK"
    },
    {
      "icao": "LRSM",
      "alert": "OK",
      "vis_m": 9999,
      "fzfg": false,
      "metar_trigger": false,
      "taf_trigger": false,
      "metar": "METAR LRSM 282200Z AUTO 16002KT 9999 NCD 23/18 Q1019",
      "taf": ""
    },
    {
      "icao": "LRSV",
      "alert": "OK",
      "vis_m": 9999,
      "fzfg": false,
      "metar_trigger": false,
      "taf_trigger": false,
      "metar": "METAR LRSV 282200Z 27009KT CAVOK 26/15 Q1020",
      "taf": "TAF LRSV 282000Z 2821/2906 VRB04KT CAVOK"
    },
    {
      "icao": "LRTM",
      "alert": "OK",
      "vis_m": 9999,
      "fzfg": false,
      "metar_trigger": false,
      "taf_trigger": false,
      "metar": "METAR LRTM 282200Z 00000KT CAVOK 21/17 Q1021",
      "taf": "TAF LRTM 282000Z 2821/2906 VRB04KT CAVOK"
    },
    {
      "icao": "LRTR",
      "alert": "OK",
      "vis_m": 9999,
      "fzfg": false,
      "metar_trigger": false,
      "taf_trigger": false,
      "metar": "METAR LRTR 282200Z 08005KT CAVOK 22/19 Q1019 NOSIG",
      "taf": "TAF LRTR 281700Z 2818/2918 14006KT CAVOK"
    },
    {
      "icao": "LTAC",
      "alert": "OK",
      "vis_m": 9999,
      "fzfg": false,
      "metar_trigger": false,
      "taf_trigger": false,
      "metar": "METAR LTAC 282150Z 02010KT CAVOK 17/08 Q1022 NOSIG RMK RWY21C 02008KT RWY03L 02010KT RWY21R 01008KT RWY03R 01008KT RWY21L 01010KT",
      "taf": "TAF LTAC 281640Z 2818/2918 04012KT 9999 FEW040"
    },
    {
      "icao": "LTFM",
      "alert": "OK",
      "vis_m": 9999,
      "fzfg": false,
      "metar_trigger": false,
      "taf_trigger": false,
      "metar": "METAR LTFM 282150Z 08007KT CAVOK 23/19 Q1019 NOSIG RMK RWY17L 08005KT RWY34L 07007KT RWY16R 07005KT RWY36 09006KT 040V110 RWY18 08006KT",
      "taf": "TAF LTFM 281640Z 2818/2924 06018G28KT CAVOK"
    },
    {
      "icao": "LUKK",
      "alert": "OK",
      "vis_m": 9999,
      "fzfg": false,
      "metar_trigger": false,
      "taf_trigger": false,
      "metar": "METAR LUKK 282200Z VRB02KT CAVOK 26/22 Q1018 NOSIG",
      "taf": "TAF LUKK 281634Z 2818/2918 VRB04KT CAVOK"
    },
    {
      "icao": "LWOH",
      "alert": "OK",
      "vis_m": null,
      "fzfg": false,
      "metar_trigger": false,
      "taf_trigger": false,
      "metar": "",
      "taf": "TAF LWOH 282020Z 2821/2921 34005KT CAVOK"
    },
    {
      "icao": "LWSK",
      "alert": "OK",
      "vis_m": null,
      "fzfg": false,
      "metar_trigger": false,
      "taf_trigger": false,
      "metar": "",
      "taf": "TAF LWSK 282020Z 2821/2921 04010KT CAVOK"
    },
    {
      "icao": "LYBE",
      "alert": "OK",
      "vis_m": 9999,
      "fzfg": false,
      "metar_trigger": false,
      "taf_trigger": false,
      "metar": "METAR LYBE 282200Z 15010KT CAVOK 27/18 Q1018 NOSIG",
      "taf": "TAF LYBE 281700Z 2818/2918 10007KT CAVOK TX38/2913Z TN22/2903Z"
    },
    {
      "icao": "LYNI",
      "alert": "OK",
      "vis_m": 9999,
      "fzfg": false,
      "metar_trigger": false,
      "taf_trigger": false,
      "metar": "METAR LYNI 282200Z VRB02KT CAVOK 25/14 Q1020 NOSIG",
      "taf": "TAF LYNI 281700Z 2818/2918 09005KT CAVOK TX37/2914Z TN20/2903Z"
    },
    {
      "icao": "LYPG",
      "alert": "OK",
      "vis_m": 9999,
      "fzfg": false,
      "metar_trigger": false,
      "taf_trigger": false,
      "metar": "METAR LYPG 282200Z 00000KT CAVOK 28/17 Q1016 NOSIG",
      "taf": "TAF LYPG 281700Z 2818/2918 21007KT CAVOK TX38/2914Z TN25/2903Z"
    },
    {
      "icao": "LZIB",
      "alert": "OK",
      "vis_m": 9999,
      "fzfg": false,
      "metar_trigger": false,
      "taf_trigger": false,
      "metar": "METAR LZIB 282200Z VRB01KT CAVOK 27/16 Q1018 NOSIG",
      "taf": "TAF LZIB 281715Z 2818/2918 16006KT CAVOK"
    },
    {
      "icao": "LZKZ",
      "alert": "OK",
      "vis_m": 9999,
      "fzfg": false,
      "metar_trigger": false,
      "taf_trigger": false,
      "metar": "METAR LZKZ 282200Z 35006KT CAVOK 25/17 Q1019 NOSIG",
      "taf": "TAF LZKZ 281715Z 2818/2918 22005KT CAVOK"
    },
    {
      "icao": "LZTT",
      "alert": "OK",
      "vis_m": 9999,
      "fzfg": false,
      "metar_trigger": false,
      "taf_trigger": false,
      "metar": "METAR LZTT 282200Z 34004KT 300V360 9999 FEW066 21/16 Q1023",
      "taf": "TAF LZTT 281715Z 2818/2918 26005KT CAVOK"
    },
    {
      "icao": "OEJN",
      "alert": "OK",
      "vis_m": 9999,
      "fzfg": false,
      "metar_trigger": false,
      "taf_trigger": false,
      "metar": "METAR OEJN 282200Z 35008KT CAVOK 32/12 Q1004 NOSIG",
      "taf": "TAF OEJN 281700Z 2818/2924 35012KT CAVOK"
    },
    {
      "icao": "OEMA",
      "alert": "OK",
      "vis_m": 9999,
      "fzfg": false,
      "metar_trigger": false,
      "taf_trigger": false,
      "metar": "METAR OEMA 282200Z VRB02KT CAVOK 34/M07 Q1010 NOSIG",
      "taf": "TAF OEMA 281700Z 2818/2924 33010KT CAVOK"
    },
    {
      "icao": "OJAI",
      "alert": "OK",
      "vis_m": 5000,
      "fzfg": false,
      "metar_trigger": false,
      "taf_trigger": false,
      "metar": "METAR OJAI 282200Z 27003KT 5000 HZ NSC 19/12 Q1014 NOSIG",
      "taf": "TAF OJAI 281700Z 2818/2924 29008KT 5000 HZ NSC"
    },
    {
      "icao": "OMAA",
      "alert": "OK",
      "vis_m": 9999,
      "fzfg": false,
      "metar_trigger": false,
      "taf_trigger": false,
      "metar": "METAR OMAA 282200Z 00000KT CAVOK 32/25 Q0999 NOSIG",
      "taf": "TAF OMAA 281700Z 2818/3000 33010KT 8000 NSC"
    },
    {
      "icao": "OMDB",
      "alert": "OK",
      "vis_m": 9999,
      "fzfg": false,
      "metar_trigger": false,
      "taf_trigger": false,
      "metar": "METAR OMDB 282200Z 34006KT 260V040 CAVOK 33/27 Q0999 NOSIG",
      "taf": "TAF OMDB 281700Z 2818/3000 VRB02KT 8000 NSC"
    },
    {
      "icao": "UAAA",
      "alert": "OK",
      "vis_m": 9999,
      "fzfg": false,
      "metar_trigger": false,
      "taf_trigger": false,
      "metar": "METAR UAAA 282200Z 07002MPS 020V120 9999 FEW100 20/11 Q1008 NOSIG",
      "taf": "TAF UAAA 281701Z 2818/2918 17003MPS 9999 SCT050CB BKN100 TX36/2910Z TN20/2901Z"
    },
    {
      "icao": "UBBB",
      "alert": "OK",
      "vis_m": 9999,
      "fzfg": false,
      "metar_trigger": false,
      "taf_trigger": false,
      "metar": "METAR UBBB 282200Z 21010KT CAVOK 21/16 Q1013 NOSIG",
      "taf": "TAF UBBB 281701Z 2818/2918 19005KT CAVOK TX26/2910Z TN19/2900Z"
    },
    {
      "icao": "UDSG",
      "alert": "OK",
      "vis_m": 9999,
      "fzfg": false,
      "metar_trigger": false,
      "taf_trigger": false,
      "metar": "METAR UDSG 282200Z 07004KT 9999 NSC 06/04 Q1023 NOSIG",
      "taf": "TAF UDSG 281658Z 2818/2918 36008KT 9999 FEW050"
    },
    {
      "icao": "UDYZ",
      "alert": "OK",
      "vis_m": 9999,
      "fzfg": false,
      "metar_trigger": false,
      "taf_trigger": false,
      "metar": "METAR UDYZ 282200Z 05004KT 9999 NSC 16/08 Q1017 NOSIG",
      "taf": "TAF UDYZ 281700Z 2818/2918 05010KT CAVOK"
    },
    {
      "icao": "UGKO",
      "alert": "OK",
      "vis_m": 9999,
      "fzfg": false,
      "metar_trigger": false,
      "taf_trigger": false,
      "metar": "METAR UGKO 282200Z COR VRB02KT 9999 BKN081 17/16 Q1018 NOSIG",
      "taf": "TAF UGKO 281700Z 2818/2918 25007KT CAVOK TX25/2911Z TN16/2902Z"
    }
  ]
}