{
  "ts_utc": "2026-01-22T04:31:08Z",
  "threshold_m": 150,
  "source": "stations_override.txt (ICAO list) + aviationweather.gov (METAR/TAF raw)",
  "station_count": 159,
  "stations": [
    {
      "icao": "BIKF",
      "alert": "OK",
      "vis_m": 9999,
      "fzfg": false,
      "metar_trigger": false,
      "taf_trigger": false,
      "metar": "METAR BIKF 220400Z 07022KT 9999 -RA FEW018 BKN040 06/02 Q0987",
      "taf": "TAF BIKF 220158Z 2203/2303 07018G28KT 9999 BKN035 TX08/2218Z TN04/2205Z"
    },
    {
      "icao": "BKPR",
      "alert": "OK",
      "vis_m": 9999,
      "fzfg": false,
      "metar_trigger": false,
      "taf_trigger": false,
      "metar": "METAR BKPR 220430Z 32003KT 9999 SCT030 SCT050 M02/M02 Q1003 NOSIG",
      "taf": "TAF BKPR 212330Z 2200/2224 VRB03KT 9999 BKN020 OVC050"
    },
    {
      "icao": "EBCI",
      "alert": "OK",
      "vis_m": 9999,
      "fzfg": false,
      "metar_trigger": false,
      "taf_trigger": false,
      "metar": "METAR EBCI 220420Z 14008KT CAVOK 04/M00 Q0993 NOSIG",
      "taf": "TAF EBCI 212307Z 2200/2306 14008KT CAVOK"
    },
    {
      "icao": "EDDB",
      "alert": "OK",
      "vis_m": 9999,
      "fzfg": false,
      "metar_trigger": false,
      "taf_trigger": false,
      "metar": "METAR EDDB 220420Z AUTO 11007KT CAVOK M07/M09 Q1003 NOSIG",
      "taf": "TAF EDDB 212300Z 2200/2224 07006KT CAVOK"
    },
    {
      "icao": "EDDH",
      "alert": "OK",
      "vis_m": 9999,
      "fzfg": false,
      "metar_trigger": false,
      "taf_trigger": false,
      "metar": "METAR EDDH 220420Z AUTO 08009KT CAVOK M04/M06 Q1004 NOSIG",
      "taf": "TAF EDDH 212300Z 2200/2306 09010KT CAVOK"
    },
    {
      "icao": "EDDK",
      "alert": "OK",
      "vis_m": 9999,
      "fzfg": false,
      "metar_trigger": false,
      "taf_trigger": false,
      "metar": "METAR EDDK 220420Z AUTO 08006KT 050V120 CAVOK 00/M06 Q0997 NOSIG",
      "taf": "TAF EDDK 212300Z 2200/2306 12008KT CAVOK"
    },
    {
      "icao": "EDDN",
      "alert": "OK",
      "vis_m": 7000,
      "fzfg": false,
      "metar_trigger": false,
      "taf_trigger": false,
      "metar": "METAR EDDN 220420Z AUTO 10004KT 7000 NCD M09/M11 Q0999",
      "taf": "TAF EDDN 212300Z 2200/2224 11006KT CAVOK"
    },
    {
      "icao": "EDDS",
      "alert": "OK",
      "vis_m": 9999,
      "fzfg": false,
      "metar_trigger": false,
      "taf_trigger": false,
      "metar": "METAR EDDS 220420Z AUTO 11002KT CAVOK M05/M06 Q0997",
      "taf": "TAF EDDS 212300Z 2200/2224 VRB02KT CAVOK"
    },
    {
      "icao": "EDFH",
      "alert": "OK",
      "vis_m": 9999,
      "fzfg": false,
      "metar_trigger": false,
      "taf_trigger": false,
      "metar": "METAR EDFH 220420Z 14015KT CAVOK M04/M05 Q0996",
      "taf": "TAF EDFH 212300Z 2200/2224 14013KT CAVOK"
    },
    {
      "icao": "EDJA",
      "alert": "OK",
      "vis_m": 4700,
      "fzfg": false,
      "metar_trigger": false,
      "taf_trigger": false,
      "metar": "METAR EDJA 220420Z AUTO 24004KT 4700 // FEW002/// M07/M08 Q0996",
      "taf": "TAF EDJA 220200Z 2203/2212 VRB03KT 4000 BR NSC"
    },
    {
      "icao": "EDLW",
      "alert": "OK",
      "vis_m": 9999,
      "fzfg": false,
      "metar_trigger": false,
      "taf_trigger": false,
      "metar": "METAR EDLW 220420Z 00000KT CAVOK M02/M03 Q0997",
      "taf": "TAF EDLW 220420Z 2205/2224 VRB03KT CAVOK"
    },
    {
      "icao": "EDNY",
      "alert": "OK",
      "vis_m": 5000,
      "fzfg": false,
      "metar_trigger": false,
      "taf_trigger": false,
      "metar": "METAR EDNY 220420Z AUTO 05003KT 010V080 5000 // OVC006/// M03/M04 Q0998",
      "taf": "TAF EDNY 220200Z 2203/2212 VRB02KT 4000 BR BKN004"
    },
    {
      "icao": "EDSB",
      "alert": "OK",
      "vis_m": 900,
      "fzfg": true,
      "metar_trigger": false,
      "taf_trigger": false,
      "metar": "METAR EDSB 220420Z 18003KT 140V240 0900 R21/1600D FZFG VV/// M01/M02 Q0999",
      "taf": "TAF EDSB 212300Z 2200/2224 VRB02KT 3500 BR SCT002 OVC005"
    },
    {
      "icao": "EETN",
      "alert": "OK",
      "vis_m": 9999,
      "fzfg": false,
      "metar_trigger": false,
      "taf_trigger": false,
      "metar": "METAR EETN 220420Z 10016KT 9999 -SN OVC016 M06/M09 Q1023 NOSIG",
      "taf": "TAF EETN 212330Z 2200/2224 09010KT 9999 SCT010 BKN013"
    },
    {
      "icao": "EFTU",
      "alert": "OK",
      "vis_m": 9999,
      "fzfg": false,
      "metar_trigger": false,
      "taf_trigger": false,
      "metar": "METAR EFTU 220420Z AUTO 10010KT 9999 OVC012 M05/M07 Q1024",
      "taf": "TAF EFTU 220237Z 2203/2303 09009KT 9999 OVC012"
    },
    {
      "icao": "EGBB",
      "alert": "OK",
      "vis_m": 3900,
      "fzfg": false,
      "metar_trigger": false,
      "taf_trigger": false,
      "metar": "METAR EGBB 220420Z 12011KT 3900 RA BKN005 OVC014 09/08 Q0987 REDZ",
      "taf": "TAF EGBB 212259Z 2200/2224 13014KT 9999 SCT010 BKN016"
    },
    {
      "icao": "EGGP",
      "alert": "OK",
      "vis_m": 9999,
      "fzfg": false,
      "metar_trigger": false,
      "taf_trigger": false,
      "metar": "METAR EGGP 220420Z 12012KT 9999 -RADZ FEW012 BKN019 08/07 Q0986",
      "taf": ""
    },
    {
      "icao": "EGGW",
      "alert": "OK",
      "vis_m": 3100,
      "fzfg": false,
      "metar_trigger": false,
      "taf_trigger": false,
      "metar": "METAR EGGW 220420Z AUTO 13010KT 3100 -RA OVC003 07/07 Q0988",
      "taf": "TAF EGGW 212256Z 2200/2224 14012KT 9999 SCT005 BKN020"
    },
    {
      "icao": "EGKK",
      "alert": "OK",
      "vis_m": 9999,
      "fzfg": false,
      "metar_trigger": false,
      "taf_trigger": false,
      "metar": "METAR EGKK 220420Z 13009KT 9999 -RA FEW009 SCT032 09/08 Q0988",
      "taf": "TAF EGKK 212256Z 2200/2306 14009KT 9999 SCT010"
    },
    {
      "icao": "EGNM",
      "alert": "OK",
      "vis_m": 2500,
      "fzfg": false,
      "metar_trigger": false,
      "taf_trigger": false,
      "metar": "METAR EGNM 220420Z 11012KT 2500 -RA BR OVC002 06/06 Q0988",
      "taf": "TAF EGNM 220428Z 2204/2224 12012KT 6000 BKN005"
    },
    {
      "icao": "EGPD",
      "alert": "OK",
      "vis_m": 4900,
      "fzfg": false,
      "metar_trigger": false,
      "taf_trigger": false,
      "metar": "METAR EGPD 220420Z AUTO 12021G35KT 4900 RA OVC010/// //////TCU 06/04 Q0995 TEMPO BKN008",
      "taf": "TAF EGPD 212254Z 2200/2224 13022G36KT 9999 SCT010 BKN015"
    },
    {
      "icao": "EGPF",
      "alert": "OK",
      "vis_m": 9999,
      "fzfg": false,
      "metar_trigger": false,
      "taf_trigger": false,
      "metar": "METAR EGPF 220420Z AUTO 08012KT 9999 -RA OVC014/// //////TCU 09/07 Q0987",
      "taf": "TAF EGPF 212301Z 2200/2224 08016G28KT 9999 FEW012 BKN025"
    },
    {
      "icao": "EHBK",
      "alert": "OK",
      "vis_m": 9999,
      "fzfg": false,
      "metar_trigger": false,
      "taf_trigger": false,
      "metar": "METAR EHBK 220425Z AUTO 09009KT 9999 NSC 01/M02 Q0995",
      "taf": "TAF EHBK 212340Z 2200/2306 09007KT CAVOK"
    },
    {
      "icao": "EHEH",
      "alert": "OK",
      "vis_m": 9999,
      "fzfg": false,
      "metar_trigger": false,
      "taf_trigger": false,
      "metar": "METAR EHEH 220355Z AUTO 11005KT 070V130 9999 OVC320 02/M03 Q0996 BLU",
      "taf": "TAF EHEH 212326Z 2200/2306 12007KT CAVOK"
    },
    {
      "icao": "EKBI",
      "alert": "OK",
      "vis_m": 9999,
      "fzfg": false,
      "metar_trigger": false,
      "taf_trigger": false,
      "metar": "METAR EKBI 220420Z AUTO 07014KT 9999 BKN014/// OVC032/// 00/M02 Q1007",
      "taf": ""
    },
    {
      "icao": "EKCH",
      "alert": "OK",
      "vis_m": 9999,
      "fzfg": false,
      "metar_trigger": false,
      "taf_trigger": false,
      "metar": "METAR EKCH 220420Z AUTO 06017KT 9999 OVC022/// M01/M05 Q1010 NOSIG",
      "taf": "TAF EKCH 220227Z 2203/2303 07018KT 9999 BKN020"
    },
    {
      "icao": "ENAL",
      "alert": "OK",
      "vis_m": 9999,
      "fzfg": false,
      "metar_trigger": false,
      "taf_trigger": false,
      "metar": "METAR ENAL 220420Z AUTO 12011KT 9999 NCD 05/M07 Q1011",
      "taf": "TAF ENAL 220200Z 2203/2212 14015KT CAVOK"
    },
    {
      "icao": "ENBR",
      "alert": "OK",
      "vis_m": 9999,
      "fzfg": false,
      "metar_trigger": false,
      "taf_trigger": false,
      "metar": "METAR ENBR 220420Z 07002KT CAVOK M03/M07 Q1010 RMK WIND 1200FT 30004KT",
      "taf": "TAF ENBR 212300Z 2200/2224 09005KT CAVOK"
    },
    {
      "icao": "ENGM",
      "alert": "OK",
      "vis_m": 9999,
      "fzfg": false,
      "metar_trigger": false,
      "taf_trigger": false,
      "metar": "METAR ENGM 220420Z 03006KT 9999 BKN021 M02/M06 Q1020",
      "taf": "TAF ENGM 212300Z 2200/2224 02008KT 9999 OVC020"
    },
    {
      "icao": "ENHD",
      "alert": "OK",
      "vis_m": 9999,
      "fzfg": false,
      "metar_trigger": false,
      "taf_trigger": false,
      "metar": "METAR ENHD 220420Z AUTO 10021KT 9999 NCD 02/M10 Q1009",
      "taf": "TAF ENHD 220200Z 2203/2212 10015KT CAVOK"
    },
    {
      "icao": "ENTC",
      "alert": "OK",
      "vis_m": 9999,
      "fzfg": false,
      "metar_trigger": false,
      "taf_trigger": false,
      "metar": "METAR ENTC 220420Z 10002KT 9999 VCFG NSC M10/M11 Q1024 RMK WIND 2600FT 09009KT",
      "taf": "TAF ENTC 212300Z 2200/2224 VRB02KT 9999 FEW001"
    },
    {
      "icao": "ENTO",
      "alert": "OK",
      "vis_m": 9999,
      "fzfg": false,
      "metar_trigger": false,
      "taf_trigger": false,
      "metar": "METAR ENTO 220350Z AUTO 02010KT 9999 OVC023/// M01/M04 Q1018",
      "taf": ""
    },
    {
      "icao": "ENVA",
      "alert": "OK",
      "vis_m": 9999,
      "fzfg": false,
      "metar_trigger": false,
      "taf_trigger": false,
      "metar": "METAR ENVA 220420Z 10014KT 070V140 9999 NSC M00/M07 Q1019 RMK WIND 670FT 13011KT",
      "taf": "TAF ENVA 212300Z 2200/2224 11010KT CAVOK"
    },
    {
      "icao": "ENZV",
      "alert": "OK",
      "vis_m": 9999,
      "fzfg": false,
      "metar_trigger": false,
      "taf_trigger": false,
      "metar": "METAR ENZV 220420Z 10012KT CAVOK 01/M08 Q1010",
      "taf": "TAF ENZV 212300Z 2200/2224 09009KT CAVOK"
    },
    {
      "icao": "EPGD",
      "alert": "OK",
      "vis_m": 1800,
      "fzfg": false,
      "metar_trigger": false,
      "taf_trigger": false,
      "metar": "METAR EPGD 220400Z 25001KT 1800 BR BKN002 M14/M16 Q1007",
      "taf": ""
    },
    {
      "icao": "EPKK",
      "alert": "OK",
      "vis_m": 3400,
      "fzfg": false,
      "metar_trigger": false,
      "taf_trigger": false,
      "metar": "METAR EPKK 220400Z 05005KT 3400 BR NSC M12/M14 Q1004",
      "taf": "TAF EPKK 220230Z 2203/2303 VRB02KT 4000 BR NSC"
    },
    {
      "icao": "EPKT",
      "alert": "OK",
      "vis_m": 5000,
      "fzfg": false,
      "metar_trigger": false,
      "taf_trigger": false,
      "metar": "METAR EPKT 220400Z 10002KT 5000 BR NSC M13/M14 Q1003",
      "taf": "TAF EPKT 212330Z 2200/2224 05004KT 6000 NSC"
    },
    {
      "icao": "EPLB",
      "alert": "OK",
      "vis_m": 2000,
      "fzfg": false,
      "metar_trigger": false,
      "taf_trigger": false,
      "metar": "METAR EPLB 220400Z 06004KT 2000 BR NSC M18/M20 Q1006",
      "taf": "TAF EPLB 212330Z 2200/2224 10002KT 2500 BR NSC"
    },
    {
      "icao": "EPMO",
      "alert": "OK",
      "vis_m": 4000,
      "fzfg": false,
      "metar_trigger": false,
      "taf_trigger": false,
      "metar": "METAR EPMO 220400Z 08008KT 4000 BR NSC M12/M13 Q1007",
      "taf": "TAF EPMO 212330Z 2200/2224 10008KT 3000 BR NSC"
    },
    {
      "icao": "EPPO",
      "alert": "OK",
      "vis_m": 8000,
      "fzfg": false,
      "metar_trigger": false,
      "taf_trigger": false,
      "metar": "METAR EPPO 220400Z 10004KT 8000 NSC M09/M11 Q1004",
      "taf": "TAF EPPO 212330Z 2200/2224 10005KT 6000 NSC"
    },
    {
      "icao": "EPRA",
      "alert": "OK",
      "vis_m": 7000,
      "fzfg": false,
      "metar_trigger": false,
      "taf_trigger": false,
      "metar": "METAR EPRA 220400Z 14004KT 7000 NSC M11/M13 Q1006",
      "taf": "TAF EPRA 220230Z 2203/2212 13005KT 8000 NSC"
    },
    {
      "icao": "EPRZ",
      "alert": "OK",
      "vis_m": 3500,
      "fzfg": false,
      "metar_trigger": false,
      "taf_trigger": false,
      "metar": "METAR EPRZ 220400Z 10004KT 3500 BR NSC M12/M14 Q1006",
      "taf": "TAF EPRZ 212330Z 2200/2224 08003KT 7000 NSC"
    },
    {
      "icao": "EPSC",
      "alert": "OK",
      "vis_m": 5000,
      "fzfg": false,
      "metar_trigger": false,
      "taf_trigger": false,
      "metar": "METAR EPSC 220400Z 03003KT 5000 BR NSC M08/M09 Q1005",
      "taf": "TAF EPSC 212330Z 2200/2224 08008KT 8000 NSC"
    },
    {
      "icao": "EPSY",
      "alert": "OK",
      "vis_m": 3500,
      "fzfg": false,
      "metar_trigger": false,
      "taf_trigger": false,
      "metar": "METAR EPSY 220400Z VRB02KT 3500 BR NSC M15/M16 Q1007",
      "taf": "TAF EPSY 220230Z 2203/2212 VRB02KT 2000 BR NSC"
    },
    {
      "icao": "EPWA",
      "alert": "OK",
      "vis_m": 6000,
      "fzfg": false,
      "metar_trigger": false,
      "taf_trigger": false,
      "metar": "METAR EPWA 220400Z 09005KT 6000 NSC M11/M12 Q1007 NOSIG",
      "taf": "TAF EPWA 220230Z 2203/2303 10005KT 8000 NSC"
    },
    {
      "icao": "EPWR",
      "alert": "OK",
      "vis_m": 9999,
      "fzfg": false,
      "metar_trigger": false,
      "taf_trigger": false,
      "metar": "METAR EPWR 220400Z 13004KT CAVOK M06/M09 Q1003",
      "taf": "TAF EPWR 220230Z 2203/2303 13004KT CAVOK"
    },
    {
      "icao": "ESGG",
      "alert": "OK",
      "vis_m": 9999,
      "fzfg": false,
      "metar_trigger": false,
      "taf_trigger": false,
      "metar": "METAR ESGG 220420Z 07008KT 040V110 9999 OVC023 M01/M04 Q1012",
      "taf": "TAF ESGG 220230Z 2203/2303 07012G22KT 9999 OVC025"
    },
    {
      "icao": "ESKN",
      "alert": "OK",
      "vis_m": 9999,
      "fzfg": false,
      "metar_trigger": false,
      "taf_trigger": false,
      "metar": "METAR ESKN 220420Z 08011KT 9999 SCT013 BKN018 OVC025 M01/M03 Q1018",
      "taf": "TAF ESKN 220230Z 2203/2303 07012KT 9000 -SN SCT012 OVC025"
    },
    {
      "icao": "ESMS",
      "alert": "OK",
      "vis_m": 9999,
      "fzfg": false,
      "metar_trigger": false,
      "taf_trigger": false,
      "metar": "METAR ESMS 220420Z 05012KT 9999 OVC017 M01/M05 Q1008",
      "taf": "TAF ESMS 220227Z 2203/2303 06012KT 9000 BKN020"
    },
    {
      "icao": "ESSA",
      "alert": "OK",
      "vis_m": 9999,
      "fzfg": false,
      "metar_trigger": false,
      "taf_trigger": false,
      "metar": "METAR ESSA 220350Z 06011KT 9999 FEW013 BKN020 M02/M02 Q1020 TEMPO 5000 BKN012",
      "taf": "TAF ESSA 220230Z 2203/2303 06012KT 9000 -SN SCT008 OVC015"
    },
    {
      "icao": "EYKA",
      "alert": "OK",
      "vis_m": 7000,
      "fzfg": false,
      "metar_trigger": false,
      "taf_trigger": false,
      "metar": "METAR EYKA 220420Z 08005KT 7000 OVC009 M15/M17 Q1015",
      "taf": "TAF EYKA 212314Z 2200/2224 08009KT 5000 BR NSC"
    },
    {
      "icao": "EYPA",
      "alert": "OK",
      "vis_m": 9999,
      "fzfg": false,
      "metar_trigger": false,
      "taf_trigger": false,
      "metar": "METAR EYPA 220420Z 09008KT CAVOK M11/M14 Q1013",
      "taf": "TAF EYPA 212313Z 2200/2224 09012KT 5000 BR FEW010"
    },
    {
      "icao": "EYVI",
      "alert": "OK",
      "vis_m": 7000,
      "fzfg": false,
      "metar_trigger": false,
      "taf_trigger": false,
      "metar": "METAR EYVI 220420Z 07007KT 7000 BKN003 M15/M16 Q1014 NOSIG",
      "taf": "TAF EYVI 212316Z 2200/2224 08009KT 5000 BR NSC"
    },
    {
      "icao": "GCFV",
      "alert": "OK",
      "vis_m": 9999,
      "fzfg": false,
      "metar_trigger": false,
      "taf_trigger": false,
      "metar": "METAR GCFV 220400Z AUTO VRB02KT 9999 SCT014 OVC023 17/14 Q1019",
      "taf": "TAF GCFV 220200Z 2203/2303 29007KT 9999 SCT025 BKN035 TX21/2214Z TN15/2206Z"
    },
    {
      "icao": "GCLP",
      "alert": "OK",
      "vis_m": 9999,
      "fzfg": false,
      "metar_trigger": false,
      "taf_trigger": false,
      "metar": "METAR GCLP 220400Z 27005KT 9999 FEW030 15/11 Q1019 NOSIG",
      "taf": "TAF GCLP 220200Z 2203/2303 27005KT 9999 BKN030 TX21/2214Z TN15/2206Z"
    },
    {
      "icao": "GCTS",
      "alert": "OK",
      "vis_m": 9999,
      "fzfg": false,
      "metar_trigger": false,
      "taf_trigger": false,
      "metar": "METAR GCTS 220400Z 32008KT 9999 FEW035 15/11 Q1020 NOSIG",
      "taf": "TAF GCTS 220200Z 2203/2303 30005KT 9999 SCT030 TX22/2214Z TN14/2206Z"
    },
    {
      "icao": "GMAD",
      "alert": "OK",
      "vis_m": 9999,
      "fzfg": false,
      "metar_trigger": false,
      "taf_trigger": false,
      "metar": "METAR GMAD 220400Z 00000KT 9999 SCT016 12/12 Q1017 NOSIG",
      "taf": "TAF GMAD 212300Z 2200/2306 14006KT 6000 SCT008 SCT026"
    },
    {
      "icao": "GMMN",
      "alert": "OK",
      "vis_m": 8000,
      "fzfg": false,
      "metar_trigger": false,
      "taf_trigger": false,
      "metar": "METAR GMMN 220400Z 24013KT 8000 BKN005 BKN016 13/12 Q1014 NOSIG",
      "taf": "TAF GMMN 212300Z 2200/2306 21015KT 5000 -RA SCT006 BKN020"
    },
    {
      "icao": "GMMX",
      "alert": "OK",
      "vis_m": 8000,
      "fzfg": false,
      "metar_trigger": false,
      "taf_trigger": false,
      "metar": "METAR GMMX 220400Z 26003KT 210V290 8000 -RA SCT013 BKN023 12/10 Q1016 NOSIG",
      "taf": "TAF GMMX 212300Z 2200/2306 26006KT 8000 SCT026 SCT080"
    },
    {
      "icao": "HEGN",
      "alert": "OK",
      "vis_m": 9999,
      "fzfg": false,
      "metar_trigger": false,
      "taf_trigger": false,
      "metar": "METAR HEGN 220400Z 00000KT CAVOK 16/10 Q1014 NOSIG",
      "taf": "TAF HEGN 212300Z 2200/2306 16010KT CAVOK"
    },
    {
      "icao": "HEMA",
      "alert": "OK",
      "vis_m": 9999,
      "fzfg": false,
      "metar_trigger": false,
      "taf_trigger": false,
      "metar": "METAR HEMA 220400Z 28008KT CAVOK 17/14 Q1014 NOSIG",
      "taf": "TAF HEMA 212300Z 2200/2306 28010KT CAVOK"
    },
    {
      "icao": "HESH",
      "alert": "OK",
      "vis_m": null,
      "fzfg": false,
      "metar_trigger": false,
      "taf_trigger": false,
      "metar": "",
      "taf": "TAF HESH 212300Z 2200/2306 35010KT CAVOK"
    },
    {
      "icao": "HESX",
      "alert": "OK",
      "vis_m": 9999,
      "fzfg": false,
      "metar_trigger": false,
      "taf_trigger": false,
      "metar": "METAR HESX 220400Z 17007KT CAVOK 18/01 Q1011 NOSIG",
      "taf": "TAF HESX 212300Z 2200/2306 21010KT 6000 SCT020 OVC070"
    },
    {
      "icao": "LATI",
      "alert": "OK",
      "vis_m": 9999,
      "fzfg": false,
      "metar_trigger": false,
      "taf_trigger": false,
      "metar": "METAR LATI 220420Z VRB02KT 9999 SCT057 OVC082 07/04 Q1000 NOSIG",
      "taf": "TAF LATI 212300Z 2200/2224 VRB05KT 9999 OVC060 TX14/2212Z TN04/2205Z"
    },
    {
      "icao": "LBPD",
      "alert": "OK",
      "vis_m": 5000,
      "fzfg": false,
      "metar_trigger": false,
      "taf_trigger": false,
      "metar": "METAR LBPD 220400Z AUTO 28002KT 5000 -SN FEW004/// OVC015/// M02/M02 Q1008 TEMPO 3000 FZRA",
      "taf": "TAF LBPD 212300Z 2200/2224 VRB03KT 5000 SN BKN020 OVC030"
    },
    {
      "icao": "LBSF",
      "alert": "OK",
      "vis_m": 5000,
      "fzfg": false,
      "metar_trigger": false,
      "taf_trigger": false,
      "metar": "METAR LBSF 220430Z 09006KT 5000 -SN BR FEW017 BKN032 OVC065 M02/M02 Q1005 TEMPO 3000 -SN BKN007",
      "taf": "TAF LBSF 212300Z 2200/2224 12010KT 8000 SCT015 BKN020 OVC040"
    },
    {
      "icao": "LBWN",
      "alert": "OK",
      "vis_m": 9999,
      "fzfg": false,
      "metar_trigger": false,
      "taf_trigger": false,
      "metar": "METAR LBWN 220400Z AUTO 09004KT 9999 NSC 04/03 Q1008 NOSIG",
      "taf": "TAF LBWN 212300Z 2200/2224 11010KT 8000 RA BKN020 OVC040"
    },
    {
      "icao": "LCLK",
      "alert": "OK",
      "vis_m": 9999,
      "fzfg": false,
      "metar_trigger": false,
      "taf_trigger": false,
      "metar": "METAR LCLK 220400Z 35009KT CAVOK 12/07 Q1018 NOSIG",
      "taf": "TAF LCLK 212330Z 2200/2300 05018KT CAVOK"
    },
    {
      "icao": "LCPH",
      "alert": "OK",
      "vis_m": 9999,
      "fzfg": false,
      "metar_trigger": false,
      "taf_trigger": false,
      "metar": "METAR LCPH 220400Z 12013KT 090V160 9999 FEW030 16/04 Q1015 NOSIG",
      "taf": "TAF LCPH 212330Z 2200/2300 11022G32KT CAVOK"
    },
    {
      "icao": "LEAL",
      "alert": "OK",
      "vis_m": 9999,
      "fzfg": false,
      "metar_trigger": false,
      "taf_trigger": false,
      "metar": "METAR LEAL 220400Z 22004KT 190V250 9999 BKN060 09/08 Q0999 NOSIG",
      "taf": "TAF LEAL 212300Z 2200/2224 VRB04KT 9999 BKN040 TX18/2213Z TN10/2206Z"
    },
    {
      "icao": "LEBB",
      "alert": "OK",
      "vis_m": 9999,
      "fzfg": false,
      "metar_trigger": false,
      "taf_trigger": false,
      "metar": "METAR LEBB 220400Z 27010G24KT 230V290 9999 SCT045 BKN056 11/05 Q0998 TEMPO RA",
      "taf": "TAF LEBB 212300Z 2200/2224 22009KT 9999 FEW010 BKN030 TX13/2215Z TN07/2209Z"
    },
    {
      "icao": "LEBL",
      "alert": "OK",
      "vis_m": 9999,
      "fzfg": false,
      "metar_trigger": false,
      "taf_trigger": false,
      "metar": "METAR LEBL 220400Z 34008KT 9999 -DZ FEW020 BKN060 11/10 Q0993 NOSIG",
      "taf": "TAF LEBL 212300Z 2200/2224 23010KT 9999 BKN020 TX15/2213Z TN07/2206Z"
    },
    {
      "icao": "LECH",
      "alert": "OK",
      "vis_m": 8000,
      "fzfg": false,
      "metar_trigger": false,
      "taf_trigger": false,
      "metar": "METAR LECH 220400Z AUTO 27003KT 8000 -RA NSC 07/06 Q0995",
      "taf": ""
    },
    {
      "icao": "LEMD",
      "alert": "OK",
      "vis_m": 9999,
      "fzfg": false,
      "metar_trigger": false,
      "taf_trigger": false,
      "metar": "METAR LEMD 220400Z 29015KT 9999 FEW040 SCT055 07/01 Q1001 NOSIG",
      "taf": ""
    },
    {
      "icao": "LEMG",
      "alert": "OK",
      "vis_m": 9999,
      "fzfg": false,
      "metar_trigger": false,
      "taf_trigger": false,
      "metar": "METAR LEMG 220400Z 30020G31KT 9999 FEW050 13/06 Q1006 NOSIG",
      "taf": "TAF LEMG 212300Z 2200/2224 30009KT 9999 SCT030 TX17/2214Z TN11/2207Z"
    },
    {
      "icao": "LEVC",
      "alert": "OK",
      "vis_m": 9999,
      "fzfg": false,
      "metar_trigger": false,
      "taf_trigger": false,
      "metar": "METAR LEVC 220400Z 26010KT CAVOK 11/04 Q0996 NOSIG",
      "taf": "TAF LEVC 212300Z 2200/2224 VRB03KT 9999 BKN040 TX18/2213Z TN09/2205Z"
    },
    {
      "icao": "LEXJ",
      "alert": "OK",
      "vis_m": 6000,
      "fzfg": false,
      "metar_trigger": false,
      "taf_trigger": false,
      "metar": "METAR LEXJ 220400Z AUTO 28018G29KT 6000 FEW039 SCT050 BKN070 10/05 Q0998",
      "taf": "TAF LEXJ 220200Z 2203/2303 23009KT 9999 BKN040 TX13/2214Z TN08/2206Z"
    },
    {
      "icao": "LEZG",
      "alert": "OK",
      "vis_m": 9999,
      "fzfg": false,
      "metar_trigger": false,
      "taf_trigger": false,
      "metar": "METAR LEZG 220400Z 28008KT 9999 FEW003 BKN065 07/07 Q0998 NOSIG",
      "taf": "TAF LEZG 212300Z 2200/2224 28008KT 9999 FEW040 TX13/2215Z TN05/2206Z"
    },
    {
      "icao": "LEZL",
      "alert": "OK",
      "vis_m": 9000,
      "fzfg": false,
      "metar_trigger": false,
      "taf_trigger": false,
      "metar": "METAR LEZL 220400Z AUTO 29009KT 9000 NSC 11/08 Q1008",
      "taf": "TAF LEZL 220200Z 2203/2303 25009KT 9999 FEW030 TX15/2215Z TN09/2207Z"
    },
    {
      "icao": "LFBD",
      "alert": "OK",
      "vis_m": 9999,
      "fzfg": false,
      "metar_trigger": false,
      "taf_trigger": false,
      "metar": "METAR LFBD 220400Z AUTO 22010KT 9999 -RA BKN016/// BKN030/// BKN040/// ///TCU 09/09 Q0993 TEMPO 2000 -TSRA BKN020CB",
      "taf": "TAF LFBD 212300Z 2200/2306 20010KT CAVOK TX12/2214Z TN07/2221Z"
    },
    {
      "icao": "LFLL",
      "alert": "OK",
      "vis_m": 9999,
      "fzfg": false,
      "metar_trigger": false,
      "taf_trigger": false,
      "metar": "METAR LFLL 220400Z 13005KT 9999 -RA FEW020 BKN056 06/04 Q0996 NOSIG",
      "taf": "TAF LFLL 212300Z 2200/2306 17008KT CAVOK"
    },
    {
      "icao": "LFLS",
      "alert": "OK",
      "vis_m": 9999,
      "fzfg": false,
      "metar_trigger": false,
      "taf_trigger": false,
      "metar": "METAR LFLS 220400Z AUTO 05004KT 9999 -RA SCT014 BKN062 BKN072 04/04 Q0996 NOSIG",
      "taf": "TAF LFLS 220200Z 2203/2303 28006KT 9999 BKN046"
    },
    {
      "icao": "LFMN",
      "alert": "OK",
      "vis_m": 9999,
      "fzfg": false,
      "metar_trigger": false,
      "taf_trigger": false,
      "metar": "METAR LFMN 220400Z 01004KT 320V070 9999 SCT036 BKN260 08/03 Q1000 NOSIG",
      "taf": "TAF LFMN 220200Z 2203/2309 34010KT CAVOK"
    },
    {
      "icao": "LFOB",
      "alert": "OK",
      "vis_m": 9999,
      "fzfg": false,
      "metar_trigger": false,
      "taf_trigger": false,
      "metar": "METAR LFOB 220400Z AUTO 12010KT 9999 FEW020 BKN031 OVC039 07/05 Q0990 NOSIG",
      "taf": "TAF LFOB 212300Z 2200/2224 14010KT 9999 FEW010"
    },
    {
      "icao": "LFPO",
      "alert": "OK",
      "vis_m": 9999,
      "fzfg": false,
      "metar_trigger": false,
      "taf_trigger": false,
      "metar": "METAR LFPO 220400Z AUTO 16006KT 9999 SCT032 OVC043 08/05 Q0991 TEMPO 4500 -RA",
      "taf": "TAF LFPO 212300Z 2200/2306 13010KT CAVOK"
    },
    {
      "icao": "LFSB",
      "alert": "OK",
      "vis_m": 900,
      "fzfg": true,
      "metar_trigger": false,
      "taf_trigger": false,
      "metar": "METAR LFSB 220400Z AUTO 07005KT 0900 0800 R15/0800U R33/1500U FZFG VV/// M02/M02 Q0997 TEMPO 0300 FZFG",
      "taf": "TAF LFSB 212300Z 2200/2224 VRB03KT 1500 BR OVC002"
    },
    {
      "icao": "LGAV",
      "alert": "OK",
      "vis_m": 9999,
      "fzfg": false,
      "metar_trigger": false,
      "taf_trigger": false,
      "metar": "METAR LGAV 220420Z VRB01KT 9999 FEW018 SCT035 08/06 Q1004 NOSIG",
      "taf": "TAF LGAV 212300Z 2200/2224 04008KT 9999 FEW012 BKN025 BKN070"
    },
    {
      "icao": "LGTS",
      "alert": "OK",
      "vis_m": 9999,
      "fzfg": false,
      "metar_trigger": false,
      "taf_trigger": false,
      "metar": "METAR LGTS 220420Z VRB02KT 9999 -DZ FEW006 BKN025 06/06 Q1005 NOSIG",
      "taf": "TAF LGTS 212300Z 2200/2224 34013KT 9999 FEW010 BKN030"
    },
    {
      "icao": "LHBP",
      "alert": "OK",
      "vis_m": 7000,
      "fzfg": false,
      "metar_trigger": false,
      "taf_trigger": false,
      "metar": "METAR LHBP 220400Z 11004KT 7000 OVC019 M03/M06 Q1006 NOSIG",
      "taf": "TAF LHBP 212315Z 2200/2224 VRB03KT CAVOK"
    },
    {
      "icao": "LHDC",
      "alert": "OK",
      "vis_m": 9000,
      "fzfg": false,
      "metar_trigger": false,
      "taf_trigger": false,
      "metar": "METAR LHDC 220345Z AUTO 07003KT 9000 -SN NSC M03/M06 Q1007",
      "taf": ""
    },
    {
      "icao": "LIBD",
      "alert": "OK",
      "vis_m": 9999,
      "fzfg": false,
      "metar_trigger": false,
      "taf_trigger": false,
      "metar": "METAR LIBD 220420Z 26004KT CAVOK 06/06 Q0999",
      "taf": "TAF LIBD 212300Z 2200/2224 12010KT 7000 SCT005 BKN014"
    },
    {
      "icao": "LIBG",
      "alert": "OK",
      "vis_m": null,
      "fzfg": false,
      "metar_trigger": false,
      "taf_trigger": false,
      "metar": "",
      "taf": "TAF LIBG 211700Z 2118/2203 07012KT 7000 SCT015 BKN030"
    },
    {
      "icao": "LIBP",
      "alert": "OK",
      "vis_m": 9000,
      "fzfg": false,
      "metar_trigger": false,
      "taf_trigger": false,
      "metar": "METAR LIBP 220420Z AUTO 25004KT 9000 -RA OVC017/// 07/07 Q1000",
      "taf": "TAF LIBP 212300Z 2200/2224 VRB05KT 9999 BKN040"
    },
    {
      "icao": "LIBR",
      "alert": "OK",
      "vis_m": 9999,
      "fzfg": false,
      "metar_trigger": false,
      "taf_trigger": false,
      "metar": "METAR LIBR 220420Z 31005KT 9999 BKN015 BKN025 09/09 Q0998",
      "taf": "TAF LIBR 212300Z 2200/2224 17010KT 9999 SCT040"
    },
    {
      "icao": "LICA",
      "alert": "OK",
      "vis_m": 9999,
      "fzfg": false,
      "metar_trigger": false,
      "taf_trigger": false,
      "metar": "METAR LICA 220420Z AUTO 04006KT 9999 BKN071/// 10/08 Q0998",
      "taf": "TAF LICA 212300Z 2200/2224 08012KT 9999 SCT040"
    },
    {
      "icao": "LICC",
      "alert": "OK",
      "vis_m": 9999,
      "fzfg": false,
      "metar_trigger": false,
      "taf_trigger": false,
      "metar": "METAR LICC 220420Z 26007KT 9999 FEW060 06/05 Q0998",
      "taf": "TAF LICC 212300Z 2200/2224 VRB05KT 7000 SCT050"
    },
    {
      "icao": "LICJ",
      "alert": "OK",
      "vis_m": 9999,
      "fzfg": false,
      "metar_trigger": false,
      "taf_trigger": false,
      "metar": "METAR LICJ 220420Z 34013KT 9999 FEW020 SCT040 14/09 Q0999",
      "taf": "TAF LICJ 212300Z 2200/2224 34012KT 9999 SCT030"
    },
    {
      "icao": "LIMC",
      "alert": "OK",
      "vis_m": 300,
      "fzfg": true,
      "metar_trigger": false,
      "taf_trigger": false,
      "metar": "METAR LIMC 220420Z 05002KT 0300 R35R/0300N R17L/0325N R35L/0250N FZFG OVC100 M01/M01 Q1002 NOSIG",
      "taf": "TAF LIMC 212300Z 2200/2306 VRB04KT 4000 BR NSC"
    },
    {
      "icao": "LIME",
      "alert": "OK",
      "vis_m": 9999,
      "fzfg": false,
      "metar_trigger": false,
      "taf_trigger": false,
      "metar": "METAR LIME 220420Z 03004KT CAVOK M01/M03 Q1002 NOSIG",
      "taf": "TAF LIME 212300Z 2200/2224 VRB04KT CAVOK"
    },
    {
      "icao": "LIMF",
      "alert": "CRITICAL",
      "vis_m": 100,
      "fzfg": true,
      "metar_trigger": true,
      "taf_trigger": false,
      "metar": "METAR LIMF 220420Z VRB01KT 0100 R36/0375D FZFG VV001 00/M01 Q1002",
      "taf": "TAF LIMF 212300Z 2200/2224 VRB04KT 4000 BR NSC"
    },
    {
      "icao": "LIMJ",
      "alert": "OK",
      "vis_m": 9999,
      "fzfg": false,
      "metar_trigger": false,
      "taf_trigger": false,
      "metar": "METAR LIMJ 220420Z 04017KT CAVOK 04/M01 Q1001",
      "taf": "TAF LIMJ 212300Z 2200/2224 04013KT CAVOK"
    },
    {
      "icao": "LIPE",
      "alert": "OK",
      "vis_m": 9999,
      "fzfg": false,
      "metar_trigger": false,
      "taf_trigger": false,
      "metar": "METAR LIPE 220420Z 35003KT 9999 BKN045 03/01 Q1002",
      "taf": "TAF LIPE 212300Z 2200/2224 VRB05KT 9999 SCT040 BKN060"
    },
    {
      "icao": "LIPH",
      "alert": "OK",
      "vis_m": 9999,
      "fzfg": false,
      "metar_trigger": false,
      "taf_trigger": false,
      "metar": "METAR LIPH 220420Z AUTO 21002KT 9999 // BKN074/// M01/M04 Q1002",
      "taf": "TAF LIPH 212300Z 2200/2224 VRB05KT CAVOK"
    },
    {
      "icao": "LIPQ",
      "alert": "OK",
      "vis_m": 9999,
      "fzfg": false,
      "metar_trigger": false,
      "taf_trigger": false,
      "metar": "METAR LIPQ 220420Z AUTO 02004KT 9999 OVC061/// 01/M06 Q1002",
      "taf": "TAF LIPQ 212300Z 2200/2224 VRB05KT CAVOK"
    },
    {
      "icao": "LIPR",
      "alert": "OK",
      "vis_m": 9999,
      "fzfg": false,
      "metar_trigger": false,
      "taf_trigger": false,
      "metar": "METAR LIPR 220420Z AUTO 29008KT 9999 OVC022/// 04/M00 Q1002",
      "taf": "TAF LIPR 212300Z 2200/2224 29010KT 9999 BKN020"
    },
    {
      "icao": "LIPX",
      "alert": "OK",
      "vis_m": 9000,
      "fzfg": false,
      "metar_trigger": false,
      "taf_trigger": false,
      "metar": "METAR LIPX 220420Z 16002KT 9000 OVC060 00/M02 Q1002",
      "taf": "TAF LIPX 212300Z 2200/2224 VRB04KT 9999 SCT050"
    },
    {
      "icao": "LIPY",
      "alert": "OK",
      "vis_m": 9999,
      "fzfg": false,
      "metar_trigger": false,
      "taf_trigger": false,
      "metar": "METAR LIPY 220420Z AUTO 29004KT 250V310 9999 OVC015/// 05/02 Q1002",
      "taf": "TAF LIPY 212300Z 2200/2224 25008KT 9999 BKN014 OVC015"
    },
    {
      "icao": "LIPZ",
      "alert": "OK",
      "vis_m": 9999,
      "fzfg": false,
      "metar_trigger": false,
      "taf_trigger": false,
      "metar": "METAR LIPZ 220420Z 31003KT 300V020 9999 SCT060 M00/M05 Q1002 NOSIG",
      "taf": "TAF LIPZ 212300Z 2200/2306 VRB05KT CAVOK"
    },
    {
      "icao": "LIRF",
      "alert": "OK",
      "vis_m": 9999,
      "fzfg": false,
      "metar_trigger": false,
      "taf_trigger": false,
      "metar": "METAR LIRF 220420Z 06005KT CAVOK 05/03 Q0999 NOSIG",
      "taf": "TAF LIRF 212300Z 2200/2306 34007KT 9999 SCT050"
    },
    {
      "icao": "LIRN",
      "alert": "OK",
      "vis_m": 9999,
      "fzfg": false,
      "metar_trigger": false,
      "taf_trigger": false,
      "metar": "METAR LIRN 220420Z 30003KT CAVOK 07/05 Q0998 NOSIG",
      "taf": "TAF LIRN 212300Z 2200/2224 VRB05KT 9999 SCT050"
    },
    {
      "icao": "LIRP",
      "alert": "OK",
      "vis_m": 9999,
      "fzfg": false,
      "metar_trigger": false,
      "taf_trigger": false,
      "metar": "METAR LIRP 220415Z 13004KT CAVOK 00/M00 Q1000 NOSIG",
      "taf": "TAF LIRP 212300Z 2200/2224 11004KT CAVOK"
    },
    {
      "icao": "LIRZ",
      "alert": "OK",
      "vis_m": 9999,
      "fzfg": false,
      "metar_trigger": false,
      "taf_trigger": false,
      "metar": "METAR LIRZ 220420Z AUTO 11002KT 9999 BKN054/// BKN085/// 04/03 Q1000",
      "taf": "TAF LIRZ 212300Z 2200/2224 VRB05KT 9999 BKN045"
    },
    {
      "icao": "LJLJ",
      "alert": "OK",
      "vis_m": 6000,
      "fzfg": false,
      "metar_trigger": false,
      "taf_trigger": false,
      "metar": "METAR LJLJ 220400Z 31004KT 6000 BKN010 OVC065 M06/M08 Q1002 NOSIG",
      "taf": "TAF LJLJ 212300Z 2200/2300 12003KT 9999 OVC010"
    },
    {
      "icao": "LKMT",
      "alert": "OK",
      "vis_m": 9999,
      "fzfg": false,
      "metar_trigger": false,
      "taf_trigger": false,
      "metar": "METAR LKMT 220400Z VRB02KT CAVOK M09/M10 Q1003 NOSIG",
      "taf": "TAF LKMT 212300Z 2200/2224 23005KT CAVOK"
    },
    {
      "icao": "LKPR",
      "alert": "OK",
      "vis_m": 5000,
      "fzfg": false,
      "metar_trigger": false,
      "taf_trigger": false,
      "metar": "METAR LKPR 220400Z 09002KT 5000 BR BKN014 M10/M10 Q1001 NOSIG",
      "taf": "TAF LKPR 220200Z 2203/2309 VRB02KT 5000 BR BKN015"
    },
    {
      "icao": "LLBG",
      "alert": "OK",
      "vis_m": 9999,
      "fzfg": false,
      "metar_trigger": false,
      "taf_trigger": false,
      "metar": "METAR LLBG 220420Z 12007KT CAVOK 17/M01 Q1014 NOSIG RMK FEW120 FCST 1500FT-WIND 100/30KT",
      "taf": "TAF LLBG 212308Z 2200/2224 10010KT CAVOK"
    },
    {
      "icao": "LMML",
      "alert": "OK",
      "vis_m": 9999,
      "fzfg": false,
      "metar_trigger": false,
      "taf_trigger": false,
      "metar": "METAR LMML 220415Z 32006KT 9999 FEW020 10/09 Q0999 NOSIG",
      "taf": "TAF LMML 212300Z 2200/2224 VRB05KT 9999 FEW016"
    },
    {
      "icao": "LOWW",
      "alert": "OK",
      "vis_m": 6000,
      "fzfg": false,
      "metar_trigger": false,
      "taf_trigger": false,
      "metar": "METAR LOWW 220420Z 14012KT 6000 FEW006 BKN007 M06/M08 Q1003 NOSIG",
      "taf": "TAF LOWW 220215Z 2203/2309 14013KT 5000 BR OVC007 TXM03/2214Z TNM06/2306Z"
    },
    {
      "icao": "LPFR",
      "alert": "OK",
      "vis_m": 9999,
      "fzfg": false,
      "metar_trigger": false,
      "taf_trigger": false,
      "metar": "METAR LPFR 220400Z 30008KT 9999 FEW020 SCT032 13/09 Q1010",
      "taf": "TAF LPFR 212300Z 2200/2224 29010KT 9999 SCT035"
    },
    {
      "icao": "LPMA",
      "alert": "OK",
      "vis_m": 9999,
      "fzfg": false,
      "metar_trigger": false,
      "taf_trigger": false,
      "metar": "METAR LPMA 220400Z 25004KT 220V290 9999 SCT013 17/14 Q1018",
      "taf": "TAF LPMA 212300Z 2200/2224 VRB05KT 9999 SCT015"
    },
    {
      "icao": "LPPR",
      "alert": "OK",
      "vis_m": 9999,
      "fzfg": false,
      "metar_trigger": false,
      "taf_trigger": false,
      "metar": "METAR LPPR 220400Z 32008KT 9999 FEW020 SCT036 11/06 Q1005",
      "taf": "TAF LPPR 212300Z 2200/2224 32010KT 9999 BKN030"
    },
    {
      "icao": "LPPS",
      "alert": "OK",
      "vis_m": 9999,
      "fzfg": false,
      "metar_trigger": false,
      "taf_trigger": false,
      "metar": "METAR LPPS 220400Z 31013KT 9999 VCSH FEW006 BKN010 17/15 Q1018",
      "taf": "TAF LPPS 212300Z 2200/2306 30015KT 9999 SCT015"
    },
    {
      "icao": "LPPT",
      "alert": "OK",
      "vis_m": 9999,
      "fzfg": false,
      "metar_trigger": false,
      "taf_trigger": false,
      "metar": "METAR LPPT 220400Z 31006KT 280V340 9999 SCT020 12/07 Q1009",
      "taf": "TAF LPPT 212300Z 2200/2306 30010KT 9999 SCT020"
    },
    {
      "icao": "LQBK",
      "alert": "OK",
      "vis_m": 8000,
      "fzfg": false,
      "metar_trigger": false,
      "taf_trigger": false,
      "metar": "METAR LQBK 220400Z 05003KT 8000 BKN010 M04/M05 Q1005 NOSIG",
      "taf": "TAF LQBK 212300Z 2200/2224 VRB02KT 7000 BKN012 OVC025 TX01/2213Z TNM04/2205Z"
    },
    {
      "icao": "LQSA",
      "alert": "OK",
      "vis_m": 3000,
      "fzfg": false,
      "metar_trigger": false,
      "taf_trigger": false,
      "metar": "METAR LQSA 220400Z 28001KT 3000 BR BKN050 M04/M04 Q1003",
      "taf": "TAF LQSA 212300Z 2200/2224 VRB02KT 3000 BR SCT010 BKN020 TXM00/2214Z TNM06/2200Z"
    },
    {
      "icao": "LQTZ",
      "alert": "OK",
      "vis_m": 4300,
      "fzfg": false,
      "metar_trigger": false,
      "taf_trigger": false,
      "metar": "METAR LQTZ 220400Z 13002KT 4300 BR SCT008 SCT055 M05/M05 Q1004",
      "taf": "TAF LQTZ 212300Z 2200/2224 VRB02KT 5000 BR BKN013 OVC030 TX01/2213Z TNM05/2200Z"
    },
    {
      "icao": "LRBC",
      "alert": "OK",
      "vis_m": 9999,
      "fzfg": false,
      "metar_trigger": false,
      "taf_trigger": false,
      "metar": "METAR LRBC 220400Z 17014KT 9999 OVC005 M00/M02 Q1008",
      "taf": "TAF LRBC 220200Z 2203/2212 18012KT 9999 BKN010"
    },
    {
      "icao": "LRBS",
      "alert": "OK",
      "vis_m": 5000,
      "fzfg": false,
      "metar_trigger": false,
      "taf_trigger": false,
      "metar": "METAR LRBS 220400Z 04004KT 360V080 5000 -FZRA BR OVC003 M01/M01 Q1009 TEMPO 3000 -FZRA BR",
      "taf": "TAF LRBS 212300Z 2200/2224 05006KT 5000 BR BKN040"
    },
    {
      "icao": "LRBV",
      "alert": "OK",
      "vis_m": 9000,
      "fzfg": false,
      "metar_trigger": false,
      "taf_trigger": false,
      "metar": "METAR LRBV 220400Z AUTO VRB01KT 9000 FEW053/// M04/M08 Q1005",
      "taf": "TAF LRBV 220200Z 2203/2212 VRB04KT 7000 NSC"
    },
    {
      "icao": "LRCL",
      "alert": "OK",
      "vis_m": 5000,
      "fzfg": false,
      "metar_trigger": false,
      "taf_trigger": false,
      "metar": "METAR LRCL 220400Z 10001KT 5000 BR OVC069 M06/M08 Q1007",
      "taf": "TAF LRCL 220200Z 2203/2212 VRB04KT 5000 BR NSC"
    },
    {
      "icao": "LRCV",
      "alert": "OK",
      "vis_m": 2000,
      "fzfg": false,
      "metar_trigger": false,
      "taf_trigger": false,
      "metar": "METAR LRCV 220400Z 04003KT 2000 -SN BR OVC003 M01/M01 Q1008",
      "taf": "TAF LRCV 220200Z 2203/2212 07006KT 3000 -SN BR OVC005"
    },
    {
      "icao": "LRIA",
      "alert": "OK",
      "vis_m": 9999,
      "fzfg": false,
      "metar_trigger": false,
      "taf_trigger": false,
      "metar": "METAR LRIA 220400Z 12012KT 9999 BKN016 01/M01 Q1009",
      "taf": "TAF LRIA 220200Z 2203/2212 14010KT 9999 BKN015"
    },
    {
      "icao": "LROP",
      "alert": "OK",
      "vis_m": 5000,
      "fzfg": false,
      "metar_trigger": false,
      "taf_trigger": false,
      "metar": "METAR LROP 220400Z 04007KT 5000 -RASN BR OVC005 M00/M00 Q1009 TEMPO -FZRA",
      "taf": "TAF LROP 212300Z 2200/2224 05006KT 5000 BR BKN040"
    },
    {
      "icao": "LRSB",
      "alert": "OK",
      "vis_m": 9999,
      "fzfg": false,
      "metar_trigger": false,
      "taf_trigger": false,
      "metar": "METAR LRSB 220400Z COR 24002KT 9999 FEW053 SCT065 M05/M07 Q1005",
      "taf": "TAF LRSB 212300Z 2200/2224 VRB04KT 7000 NSC"
    },
    {
      "icao": "LRSM",
      "alert": "OK",
      "vis_m": 9999,
      "fzfg": false,
      "metar_trigger": false,
      "taf_trigger": false,
      "metar": "METAR LRSM 220400Z AUTO VRB01KT 9999 FEW060/// BKN095/// M07/M09 Q1007",
      "taf": "TAF LRSM 220200Z 2203/2212 VRB04KT CAVOK"
    },
    {
      "icao": "LRSV",
      "alert": "OK",
      "vis_m": 800,
      "fzfg": true,
      "metar_trigger": false,
      "taf_trigger": false,
      "metar": "METAR LRSV 220400Z 15006KT 0800 R34/P2000 FZFG BKN002 M04/M05 Q1006",
      "taf": "TAF LRSV 220200Z 2203/2212 16010KT 0200 FZFG VV001"
    },
    {
      "icao": "LRTM",
      "alert": "OK",
      "vis_m": 2600,
      "fzfg": false,
      "metar_trigger": false,
      "taf_trigger": false,
      "metar": "METAR LRTM 220400Z AUTO 24004KT 2600 BR NCD M10/M11 Q1007",
      "taf": "TAF LRTM 220200Z 2203/2212 VRB04KT 3000 BR NSC"
    },
    {
      "icao": "LRTR",
      "alert": "OK",
      "vis_m": 9999,
      "fzfg": false,
      "metar_trigger": false,
      "taf_trigger": false,
      "metar": "METAR LRTR 220400Z 32004KT 9999 SCT045 M02/M03 Q1006",
      "taf": "TAF LRTR 212300Z 2200/2224 10006KT 5000 BR BKN045"
    },
    {
      "icao": "LTAC",
      "alert": "OK",
      "vis_m": 9999,
      "fzfg": false,
      "metar_trigger": false,
      "taf_trigger": false,
      "metar": "METAR LTAC 220420Z 04011KT 9999 BKN040 BKN080 M03/M07 Q1014 RESN NOSIG RMK RWY21C 03011KT RWY03L 04012KT RWY21R 02013KT RWY03R 01010KT RWY21L 05007KT 010V080",
      "taf": "TAF LTAC 212240Z 2200/2224 VRB02KT 9999 SCT040 BKN100"
    },
    {
      "icao": "LTFM",
      "alert": "OK",
      "vis_m": 9999,
      "fzfg": false,
      "metar_trigger": false,
      "taf_trigger": false,
      "metar": "METAR LTFM 220420Z 10003KT 060V130 9999 -RA BKN035 BKN090 06/M02 Q1008 NOSIG RMK RWY17L 11004KT RWY34L 12003KT 060V140 RWY16R 10006KT RWY36 10003KT 040V150 RWY18 12005KT",
      "taf": "TAF LTFM 212240Z 2200/2306 VRB02KT 9999 -RA BKN032 BKN080"
    },
    {
      "icao": "LUKK",
      "alert": "OK",
      "vis_m": 9999,
      "fzfg": false,
      "metar_trigger": false,
      "taf_trigger": false,
      "metar": "METAR LUKK 220400Z 14006KT 9999 OVC021 M00/M02 Q1011 NOSIG",
      "taf": "TAF LUKK 212324Z 2200/2224 16008KT 7000 BKN012"
    },
    {
      "icao": "LWOH",
      "alert": "OK",
      "vis_m": null,
      "fzfg": false,
      "metar_trigger": false,
      "taf_trigger": false,
      "metar": "",
      "taf": "TAF LWOH 220210Z 2203/2303 02008KT 9999 SCT020 BKN040"
    },
    {
      "icao": "LWSK",
      "alert": "OK",
      "vis_m": 1200,
      "fzfg": true,
      "metar_trigger": false,
      "taf_trigger": false,
      "metar": "METAR LWSK 220420Z VRB01KT 1200 R34/1400N BR SCT003 SCT015 OVC030 M00/M01 Q1006 NOSIG",
      "taf": "TAF LWSK 220210Z 2203/2303 VRB02KT 0900 FZFG SCT003 BKN008 OVC020"
    },
    {
      "icao": "LYBE",
      "alert": "OK",
      "vis_m": 5000,
      "fzfg": true,
      "metar_trigger": false,
      "taf_trigger": false,
      "metar": "METAR LYBE 220400Z 24004KT 5000 BR BKN005 M06/M07 Q1006 BECMG 0800 FZFG BKN002",
      "taf": "TAF LYBE 212300Z 2200/2224 28004KT 5000 BR SCT005 SCT040 TX02/2212Z TNM06/2205Z"
    },
    {
      "icao": "LYNI",
      "alert": "OK",
      "vis_m": 9999,
      "fzfg": false,
      "metar_trigger": false,
      "taf_trigger": false,
      "metar": "METAR LYNI 220400Z 09009KT 9999 SCT040 03/M03 Q1005 NOSIG",
      "taf": "TAF LYNI 212300Z 2200/2224 10015KT 9999 SCT040 BKN080 TX05/2213Z TNM01/2205Z"
    },
    {
      "icao": "LYPG",
      "alert": "OK",
      "vis_m": 2000,
      "fzfg": false,
      "metar_trigger": false,
      "taf_trigger": false,
      "metar": "METAR LYPG 220400Z 01003KT 2000 BR FEW010 BKN050 OVC073 03/03 Q1002 NOSIG",
      "taf": ""
    },
    {
      "icao": "LZIB",
      "alert": "OK",
      "vis_m": 9999,
      "fzfg": false,
      "metar_trigger": false,
      "taf_trigger": false,
      "metar": "METAR LZIB 220400Z 06005KT 9999 BKN011 OVC013 M07/M08 Q1005 NOSIG",
      "taf": "TAF LZIB 212317Z 2200/2300 06005KT 9999 FEW010"
    },
    {
      "icao": "LZKZ",
      "alert": "OK",
      "vis_m": 9999,
      "fzfg": false,
      "metar_trigger": false,
      "taf_trigger": false,
      "metar": "METAR LZKZ 220400Z 08001KT CAVOK M09/M10 Q1006 NOSIG",
      "taf": "TAF LZKZ 212317Z 2200/2300 VRB02KT CAVOK"
    },
    {
      "icao": "LZTT",
      "alert": "OK",
      "vis_m": 9999,
      "fzfg": false,
      "metar_trigger": false,
      "taf_trigger": false,
      "metar": "METAR LZTT 220400Z VRB02KT 9999 SCT030 BKN073 M07/M10 Q1003",
      "taf": "TAF LZTT 212317Z 2200/2300 VRB02KT CAVOK"
    },
    {
      "icao": "OEJN",
      "alert": "OK",
      "vis_m": 8000,
      "fzfg": false,
      "metar_trigger": false,
      "taf_trigger": false,
      "metar": "METAR OEJN 220400Z 10008KT 8000 NSC 24/M01 Q1012 NOSIG",
      "taf": "TAF OEJN 212300Z 2200/2306 09016KT 7000 NSC"
    },
    {
      "icao": "OEMA",
      "alert": "OK",
      "vis_m": 9999,
      "fzfg": false,
      "metar_trigger": false,
      "taf_trigger": false,
      "metar": "METAR OEMA 220400Z 06007KT CAVOK 11/M07 Q1025 NOSIG",
      "taf": "TAF OEMA 212300Z 2200/2306 08016KT 7000 NSC"
    },
    {
      "icao": "OJAI",
      "alert": "OK",
      "vis_m": 4000,
      "fzfg": false,
      "metar_trigger": false,
      "taf_trigger": false,
      "metar": "METAR OJAI 220400Z 09018KT 4000 BLDU NSC 05/M05 Q1021 NOSIG",
      "taf": "TAF OJAI 212300Z 2200/2306 11014KT 5000 HZ FEW035"
    },
    {
      "icao": "OMAA",
      "alert": "OK",
      "vis_m": 9999,
      "fzfg": false,
      "metar_trigger": false,
      "taf_trigger": false,
      "metar": "METAR OMAA 220430Z 31015KT 9999 FEW040 18/07 Q1020 NOSIG",
      "taf": "TAF OMAA 212300Z 2200/2306 30015KT 8000 FEW040"
    },
    {
      "icao": "OMDB",
      "alert": "OK",
      "vis_m": 9999,
      "fzfg": false,
      "metar_trigger": false,
      "taf_trigger": false,
      "metar": "METAR OMDB 220430Z 33011KT 310V020 CAVOK 18/M01 Q1020 NOSIG",
      "taf": "TAF OMDB 212300Z 2200/2306 28016KT 8000 FEW045"
    },
    {
      "icao": "UAAA",
      "alert": "OK",
      "vis_m": 2300,
      "fzfg": false,
      "metar_trigger": false,
      "taf_trigger": false,
      "metar": "METAR UAAA 220400Z 10002MPS 070V140 2300 BR BKN100 OVC200 M11/M13 Q1009 NOSIG",
      "taf": "TAF UAAA 212300Z 2200/2224 24003MPS 1400 BR FU SCT011 BKN050 TXM04/2208Z TNM14/2202Z"
    },
    {
      "icao": "UBBB",
      "alert": "OK",
      "vis_m": 9999,
      "fzfg": false,
      "metar_trigger": false,
      "taf_trigger": false,
      "metar": "METAR UBBB 220400Z 19006KT CAVOK 01/M01 Q1024 NOSIG",
      "taf": "TAF UBBB 212300Z 2200/2224 19012KT CAVOK TX06/2210Z TN00/2201Z"
    },
    {
      "icao": "UDSG",
      "alert": "OK",
      "vis_m": 9999,
      "fzfg": false,
      "metar_trigger": false,
      "taf_trigger": false,
      "metar": "METAR UDSG 220400Z 02001KT 9999 NSC M21/M23 Q1025 NOSIG",
      "taf": "TAF UDSG 212300Z 2200/2224 VRB06KT 9999 FEW050"
    },
    {
      "icao": "UDYZ",
      "alert": "OK",
      "vis_m": 3200,
      "fzfg": false,
      "metar_trigger": false,
      "taf_trigger": false,
      "metar": "METAR UDYZ 220400Z 08003KT 3200 BR FEW005 M11/M12 Q1029 NOSIG",
      "taf": "TAF UDYZ 212300Z 2200/2224 VRB04KT 6000 NSC"
    },
    {
      "icao": "UGKO",
      "alert": "OK",
      "vis_m": 9999,
      "fzfg": false,
      "metar_trigger": false,
      "taf_trigger": false,
      "metar": "METAR UGKO 220400Z 09012KT CAVOK 02/M05 Q1019 NOSIG",
      "taf": "TAF UGKO 212300Z 2200/2224 08010KT CAVOK TX08/2211Z TNM01/2204Z"
    }
  ]
}