{
  "ts_utc": "2026-03-06T13:40:28Z",
  "threshold_m": 150,
  "source": "stations_override.txt (ICAO list) + aviationweather.gov (METAR/TAF raw)",
  "station_count": 159,
  "stations": [
    {
      "icao": "BIKF",
      "alert": "OK",
      "vis_m": 9999,
      "fzfg": false,
      "metar_trigger": false,
      "taf_trigger": false,
      "metar": "METAR BIKF 061330Z 16013KT 9999 -RA BKN017 BKN028 03/02 Q0976",
      "taf": "TAF BIKF 061333Z 0615/0715 15023KT 9999 -RA BKN014 OVC022 TX03/0615Z TN02/0624Z"
    },
    {
      "icao": "BKPR",
      "alert": "OK",
      "vis_m": 9999,
      "fzfg": false,
      "metar_trigger": false,
      "taf_trigger": false,
      "metar": "METAR BKPR 061330Z VRB02KT CAVOK 14/04 Q1024 NOSIG",
      "taf": "TAF BKPR 061130Z 0612/0712 VRB05KT CAVOK"
    },
    {
      "icao": "EBCI",
      "alert": "OK",
      "vis_m": 9999,
      "fzfg": false,
      "metar_trigger": false,
      "taf_trigger": false,
      "metar": "METAR EBCI 061320Z 26005KT 220V350 CAVOK 17/08 Q1021 NOSIG",
      "taf": "TAF EBCI 061106Z 0612/0718 VRB03KT CAVOK"
    },
    {
      "icao": "EDDB",
      "alert": "OK",
      "vis_m": 9999,
      "fzfg": false,
      "metar_trigger": false,
      "taf_trigger": false,
      "metar": "METAR EDDB 061320Z AUTO 12008KT 080V150 CAVOK 16/M01 Q1024 NOSIG",
      "taf": "TAF EDDB 061100Z 0612/0712 12005KT CAVOK"
    },
    {
      "icao": "EDDH",
      "alert": "OK",
      "vis_m": 9999,
      "fzfg": false,
      "metar_trigger": false,
      "taf_trigger": false,
      "metar": "METAR EDDH 061320Z AUTO 15006KT 110V170 CAVOK 17/03 Q1022 NOSIG",
      "taf": "TAF EDDH 061100Z 0612/0718 15005KT CAVOK"
    },
    {
      "icao": "EDDK",
      "alert": "OK",
      "vis_m": 9999,
      "fzfg": false,
      "metar_trigger": false,
      "taf_trigger": false,
      "metar": "METAR EDDK 061320Z AUTO 17004KT 120V210 CAVOK 18/04 Q1021 NOSIG",
      "taf": "TAF EDDK 061100Z 0612/0718 12007KT CAVOK"
    },
    {
      "icao": "EDDN",
      "alert": "OK",
      "vis_m": 9999,
      "fzfg": false,
      "metar_trigger": false,
      "taf_trigger": false,
      "metar": "METAR EDDN 061320Z AUTO 13004KT 060V170 CAVOK 16/03 Q1021 NOSIG",
      "taf": "TAF EDDN 061100Z 0612/0712 13006KT CAVOK"
    },
    {
      "icao": "EDDS",
      "alert": "OK",
      "vis_m": 9999,
      "fzfg": false,
      "metar_trigger": false,
      "taf_trigger": false,
      "metar": "METAR EDDS 061320Z AUTO VRB03KT CAVOK 16/04 Q1020 NOSIG",
      "taf": "TAF EDDS 061100Z 0612/0712 VRB03KT CAVOK"
    },
    {
      "icao": "EDFH",
      "alert": "OK",
      "vis_m": 9999,
      "fzfg": false,
      "metar_trigger": false,
      "taf_trigger": false,
      "metar": "METAR EDFH 061320Z 14003KT 060V200 CAVOK 14/04 Q1021",
      "taf": "TAF EDFH 061100Z 0612/0712 13007KT CAVOK"
    },
    {
      "icao": "EDJA",
      "alert": "OK",
      "vis_m": 9999,
      "fzfg": false,
      "metar_trigger": false,
      "taf_trigger": false,
      "metar": "METAR EDJA 061320Z 02006KT CAVOK 16/03 Q1020",
      "taf": "TAF EDJA 061100Z 0612/0621 06005KT CAVOK"
    },
    {
      "icao": "EDLW",
      "alert": "OK",
      "vis_m": 9999,
      "fzfg": false,
      "metar_trigger": false,
      "taf_trigger": false,
      "metar": "METAR EDLW 061320Z VRB02KT CAVOK 18/03 Q1021",
      "taf": "TAF EDLW 061100Z 0612/0712 VRB03KT CAVOK"
    },
    {
      "icao": "EDNY",
      "alert": "OK",
      "vis_m": 9999,
      "fzfg": false,
      "metar_trigger": false,
      "taf_trigger": false,
      "metar": "METAR EDNY 061320Z 12003KT 070V200 CAVOK 14/05 Q1021",
      "taf": "TAF EDNY 061100Z 0612/0621 24004KT 9999 SCT025"
    },
    {
      "icao": "EDSB",
      "alert": "OK",
      "vis_m": 9999,
      "fzfg": false,
      "metar_trigger": false,
      "taf_trigger": false,
      "metar": "METAR EDSB 061320Z 02003KT 330V070 CAVOK 14/06 Q1021",
      "taf": "TAF EDSB 061100Z 0612/0712 VRB03KT CAVOK"
    },
    {
      "icao": "EETN",
      "alert": "OK",
      "vis_m": 9999,
      "fzfg": false,
      "metar_trigger": false,
      "taf_trigger": false,
      "metar": "METAR EETN 061320Z 22009KT CAVOK 09/M01 Q1020 NOSIG",
      "taf": "TAF EETN 061130Z 0612/0712 23010KT CAVOK"
    },
    {
      "icao": "EFTU",
      "alert": "OK",
      "vis_m": 9999,
      "fzfg": false,
      "metar_trigger": false,
      "taf_trigger": false,
      "metar": "METAR EFTU 061320Z AUTO 24011KT CAVOK 06/M01 Q1018",
      "taf": "TAF EFTU 061125Z 0612/0712 22008KT CAVOK"
    },
    {
      "icao": "EGBB",
      "alert": "OK",
      "vis_m": 9999,
      "fzfg": false,
      "metar_trigger": false,
      "taf_trigger": false,
      "metar": "METAR EGBB 061320Z 34007KT 9999 OVC010 07/05 Q1023",
      "taf": "TAF EGBB 061102Z 0612/0712 33009KT 9000 OVC007"
    },
    {
      "icao": "EGGP",
      "alert": "OK",
      "vis_m": 9999,
      "fzfg": false,
      "metar_trigger": false,
      "taf_trigger": false,
      "metar": "METAR EGGP 061320Z 30006KT 280V340 9999 FEW011 BKN013 06/04 Q1024",
      "taf": "TAF EGGP 061100Z 0612/0712 VRB03KT 9999 SCT016"
    },
    {
      "icao": "EGGW",
      "alert": "OK",
      "vis_m": 400,
      "fzfg": false,
      "metar_trigger": false,
      "taf_trigger": false,
      "metar": "METAR EGGW 061320Z AUTO 35008KT 300V010 0400 R25/0500D FG OVC002 07/07 Q1022",
      "taf": ""
    },
    {
      "icao": "EGKK",
      "alert": "OK",
      "vis_m": 3300,
      "fzfg": false,
      "metar_trigger": false,
      "taf_trigger": false,
      "metar": "METAR EGKK 061320Z 01006KT 350V060 3300 -RA BKN007 09/08 Q1021",
      "taf": "TAF EGKK 061056Z 0612/0718 35005KT 9999 BKN016"
    },
    {
      "icao": "EGNM",
      "alert": "OK",
      "vis_m": 9999,
      "fzfg": false,
      "metar_trigger": false,
      "taf_trigger": false,
      "metar": "METAR EGNM 061320Z 35009KT 9999 SCT012 BKN030 05/03 Q1023",
      "taf": "TAF EGNM 061057Z 0612/0712 02012KT 9999 SCT008"
    },
    {
      "icao": "EGPD",
      "alert": "OK",
      "vis_m": 9999,
      "fzfg": false,
      "metar_trigger": false,
      "taf_trigger": false,
      "metar": "METAR EGPD 061320Z COR AUTO VRB02KT 9999 SCT030 08/01 Q1024 NOSIG",
      "taf": "TAF EGPD 061057Z 0612/0712 30008KT 9999 FEW045"
    },
    {
      "icao": "EGPF",
      "alert": "OK",
      "vis_m": 9999,
      "fzfg": false,
      "metar_trigger": false,
      "taf_trigger": false,
      "metar": "METAR EGPF 061320Z AUTO 31005KT 250V360 9999 NCD 09/00 Q1025",
      "taf": "TAF EGPF 061056Z 0612/0712 VRB04KT 9999 FEW035"
    },
    {
      "icao": "EHBK",
      "alert": "OK",
      "vis_m": 9999,
      "fzfg": false,
      "metar_trigger": false,
      "taf_trigger": false,
      "metar": "METAR EHBK 061325Z AUTO 04004KT 9999 NCD 18/06 Q1020 NOSIG",
      "taf": "TAF EHBK 061106Z 0612/0718 VRB02KT CAVOK"
    },
    {
      "icao": "EHEH",
      "alert": "OK",
      "vis_m": 9999,
      "fzfg": false,
      "metar_trigger": false,
      "taf_trigger": false,
      "metar": "METAR EHEH 061325Z AUTO 19003KT 120V220 9999 SCT240 19/06 Q1021 BLU NOSIG",
      "taf": ""
    },
    {
      "icao": "EKBI",
      "alert": "OK",
      "vis_m": 9999,
      "fzfg": false,
      "metar_trigger": false,
      "taf_trigger": false,
      "metar": "METAR EKBI 061320Z AUTO 18005KT 9999 NCD 14/03 Q1022",
      "taf": "TAF EKBI 061127Z 0612/0712 14006KT CAVOK"
    },
    {
      "icao": "EKCH",
      "alert": "OK",
      "vis_m": 9999,
      "fzfg": false,
      "metar_trigger": false,
      "taf_trigger": false,
      "metar": "METAR EKCH 061320Z AUTO 15005KT 9999 NCD 09/M02 Q1025 NOSIG",
      "taf": "TAF EKCH 061127Z 0612/0712 15007KT CAVOK"
    },
    {
      "icao": "ENAL",
      "alert": "OK",
      "vis_m": 9999,
      "fzfg": false,
      "metar_trigger": false,
      "taf_trigger": false,
      "metar": "METAR ENAL 061320Z 15005KT 9999 FEW020 06/03 Q1022",
      "taf": "TAF ENAL 061100Z 0612/0621 15008KT 9999 FEW030"
    },
    {
      "icao": "ENBR",
      "alert": "OK",
      "vis_m": 2600,
      "fzfg": false,
      "metar_trigger": false,
      "taf_trigger": false,
      "metar": "METAR ENBR 061320Z 15003KT 2600 RADZ BR BKN003 05/05 Q1021 TEMPO 3000 DZRA BR BKN005 RMK WIND 1200FT 12003KT",
      "taf": "TAF ENBR 061100Z 0612/0712 15005KT 6000 -RADZ SCT005 BKN015"
    },
    {
      "icao": "ENGM",
      "alert": "OK",
      "vis_m": 5000,
      "fzfg": false,
      "metar_trigger": false,
      "taf_trigger": false,
      "metar": "METAR ENGM 061320Z 34003KT 300V360 5000 0700NW R19R/0900D R01R/P2000N R19L/P2000N R01L/P2000N BCFG SCT002 SCT006 01/M00 Q1021 TEMPO 1200 BKN003",
      "taf": ""
    },
    {
      "icao": "ENHD",
      "alert": "OK",
      "vis_m": 6000,
      "fzfg": false,
      "metar_trigger": false,
      "taf_trigger": false,
      "metar": "METAR ENHD 061320Z 19011KT 6000 -RADZ SCT011 BKN039 06/04 Q1021",
      "taf": "TAF ENHD 061100Z 0612/0621 20008KT 9000 -RA BKN018"
    },
    {
      "icao": "ENTC",
      "alert": "OK",
      "vis_m": 9999,
      "fzfg": false,
      "metar_trigger": false,
      "taf_trigger": false,
      "metar": "METAR ENTC 061320Z 24019KT 9999 SCT045 BKN055 04/M03 Q1005 TEMPO 24019G29KT SHRA SCT020CB BKN030 RMK WIND 2600FT 26039G50KT",
      "taf": ""
    },
    {
      "icao": "ENTO",
      "alert": "OK",
      "vis_m": 9999,
      "fzfg": false,
      "metar_trigger": false,
      "taf_trigger": false,
      "metar": "METAR ENTO 061320Z 20006KT CAVOK 05/01 Q1023 NOSIG",
      "taf": "TAF ENTO 061100Z 0612/0712 18005KT 9999 FEW040"
    },
    {
      "icao": "ENVA",
      "alert": "OK",
      "vis_m": 9999,
      "fzfg": false,
      "metar_trigger": false,
      "taf_trigger": false,
      "metar": "METAR ENVA 061320Z 26005KT 9999 FEW028 SCT033 06/03 Q1022 NOSIG RMK WIND 670FT 27011KT",
      "taf": "TAF ENVA 061100Z 0612/0712 25010KT 9999 SCT018 BKN024"
    },
    {
      "icao": "ENZV",
      "alert": "OK",
      "vis_m": 8000,
      "fzfg": false,
      "metar_trigger": false,
      "taf_trigger": false,
      "metar": "METAR ENZV 061320Z 22007KT 180V240 8000 -DZ NSC 05/03 Q1022 TEMPO 4000 -DZRA BR BKN010",
      "taf": "TAF ENZV 061100Z 0612/0712 VRB05KT 9999 SCT045"
    },
    {
      "icao": "EPGD",
      "alert": "OK",
      "vis_m": 9999,
      "fzfg": false,
      "metar_trigger": false,
      "taf_trigger": false,
      "metar": "METAR EPGD 061330Z VRB02KT CAVOK 13/M06 Q1026",
      "taf": "TAF EPGD 061130Z 0612/0712 VRB03KT CAVOK"
    },
    {
      "icao": "EPKK",
      "alert": "OK",
      "vis_m": 9999,
      "fzfg": false,
      "metar_trigger": false,
      "taf_trigger": false,
      "metar": "METAR EPKK 061330Z 07005KT CAVOK 13/M06 Q1026",
      "taf": "TAF EPKK 061130Z 0612/0712 08007KT CAVOK"
    },
    {
      "icao": "EPKT",
      "alert": "OK",
      "vis_m": 9999,
      "fzfg": false,
      "metar_trigger": false,
      "taf_trigger": false,
      "metar": "METAR EPKT 061330Z 10006KT CAVOK 15/M06 Q1026",
      "taf": "TAF EPKT 061130Z 0612/0712 14004KT CAVOK"
    },
    {
      "icao": "EPLB",
      "alert": "OK",
      "vis_m": 9999,
      "fzfg": false,
      "metar_trigger": false,
      "taf_trigger": false,
      "metar": "METAR EPLB 061330Z 29009KT CAVOK 11/M01 Q1027",
      "taf": "TAF EPLB 061130Z 0612/0712 32007KT CAVOK"
    },
    {
      "icao": "EPMO",
      "alert": "OK",
      "vis_m": 9999,
      "fzfg": false,
      "metar_trigger": false,
      "taf_trigger": false,
      "metar": "METAR EPMO 061330Z 29003KT 220V360 CAVOK 12/M01 Q1027",
      "taf": "TAF EPMO 061130Z 0612/0712 VRB03KT CAVOK"
    },
    {
      "icao": "EPPO",
      "alert": "OK",
      "vis_m": 9999,
      "fzfg": false,
      "metar_trigger": false,
      "taf_trigger": false,
      "metar": "METAR EPPO 061330Z 15007KT 100V190 CAVOK 14/M01 Q1026",
      "taf": "TAF EPPO 061130Z 0612/0712 13006KT CAVOK"
    },
    {
      "icao": "EPRA",
      "alert": "OK",
      "vis_m": 9999,
      "fzfg": false,
      "metar_trigger": false,
      "taf_trigger": false,
      "metar": "METAR EPRA 061330Z VRB04KT CAVOK 11/M03 Q1027",
      "taf": "TAF EPRA 061130Z 0612/0621 VRB02KT CAVOK"
    },
    {
      "icao": "EPRZ",
      "alert": "OK",
      "vis_m": 9999,
      "fzfg": false,
      "metar_trigger": false,
      "taf_trigger": false,
      "metar": "METAR EPRZ 061330Z 02003KT 300V060 CAVOK 13/M03 Q1026",
      "taf": "TAF EPRZ 061130Z 0612/0712 VRB03KT CAVOK"
    },
    {
      "icao": "EPSC",
      "alert": "OK",
      "vis_m": 9999,
      "fzfg": false,
      "metar_trigger": false,
      "taf_trigger": false,
      "metar": "METAR EPSC 061330Z 15011KT CAVOK 14/M03 Q1025",
      "taf": "TAF EPSC 061130Z 0612/0712 14010KT CAVOK"
    },
    {
      "icao": "EPSY",
      "alert": "OK",
      "vis_m": 9999,
      "fzfg": false,
      "metar_trigger": false,
      "taf_trigger": false,
      "metar": "METAR EPSY 061330Z VRB04KT CAVOK 12/M06 Q1027",
      "taf": "TAF EPSY 061130Z 0612/0621 VRB03KT CAVOK"
    },
    {
      "icao": "EPWA",
      "alert": "OK",
      "vis_m": 9999,
      "fzfg": false,
      "metar_trigger": false,
      "taf_trigger": false,
      "metar": "METAR EPWA 061330Z 34003KT 280V040 CAVOK 12/M01 Q1027 NOSIG",
      "taf": "TAF EPWA 061130Z 0612/0712 VRB04KT CAVOK"
    },
    {
      "icao": "EPWR",
      "alert": "OK",
      "vis_m": 9999,
      "fzfg": false,
      "metar_trigger": false,
      "taf_trigger": false,
      "metar": "METAR EPWR 061330Z 13011KT CAVOK 14/M01 Q1025",
      "taf": "TAF EPWR 061130Z 0612/0712 14012KT CAVOK"
    },
    {
      "icao": "ESGG",
      "alert": "OK",
      "vis_m": 9999,
      "fzfg": false,
      "metar_trigger": false,
      "taf_trigger": false,
      "metar": "METAR ESGG 061320Z 19011KT CAVOK 10/M03 Q1023",
      "taf": "TAF ESGG 061130Z 0612/0712 18009KT CAVOK"
    },
    {
      "icao": "ESKN",
      "alert": "OK",
      "vis_m": 9999,
      "fzfg": false,
      "metar_trigger": false,
      "taf_trigger": false,
      "metar": "METAR ESKN 061320Z 25009KT 210V270 CAVOK 12/02 Q1022",
      "taf": "TAF ESKN 061130Z 0612/0712 23007KT CAVOK"
    },
    {
      "icao": "ESMS",
      "alert": "OK",
      "vis_m": 9999,
      "fzfg": false,
      "metar_trigger": false,
      "taf_trigger": false,
      "metar": "METAR ESMS 061320Z 17008KT CAVOK 11/M02 Q1024",
      "taf": "TAF ESMS 061127Z 0612/0712 14008KT CAVOK"
    },
    {
      "icao": "ESSA",
      "alert": "OK",
      "vis_m": 9999,
      "fzfg": false,
      "metar_trigger": false,
      "taf_trigger": false,
      "metar": "METAR ESSA 061320Z 24014KT CAVOK 09/03 Q1020 NOSIG",
      "taf": "TAF ESSA 061130Z 0612/0712 24011KT CAVOK"
    },
    {
      "icao": "EYKA",
      "alert": "OK",
      "vis_m": 9999,
      "fzfg": false,
      "metar_trigger": false,
      "taf_trigger": false,
      "metar": "METAR EYKA 061320Z 18004KT 120V270 CAVOK 03/M01 Q1027",
      "taf": ""
    },
    {
      "icao": "EYPA",
      "alert": "OK",
      "vis_m": 9999,
      "fzfg": false,
      "metar_trigger": false,
      "taf_trigger": false,
      "metar": "METAR EYPA 061320Z 21004KT 170V280 CAVOK 05/01 Q1026",
      "taf": ""
    },
    {
      "icao": "EYVI",
      "alert": "OK",
      "vis_m": 9999,
      "fzfg": false,
      "metar_trigger": false,
      "taf_trigger": false,
      "metar": "METAR EYVI 061320Z 28004KT 240V310 CAVOK 06/M00 Q1026 NOSIG",
      "taf": "TAF EYVI 061100Z 0612/0712 VRB04KT 8000 NSC"
    },
    {
      "icao": "GCFV",
      "alert": "OK",
      "vis_m": 9999,
      "fzfg": false,
      "metar_trigger": false,
      "taf_trigger": false,
      "metar": "METAR GCFV 061330Z 03020KT 9999 FEW020 SCT040 19/08 Q1022",
      "taf": "TAF GCFV 060800Z 0609/0709 03020KT 9999 SCT025 TX20/0614Z TN14/0706Z"
    },
    {
      "icao": "GCLP",
      "alert": "OK",
      "vis_m": 9999,
      "fzfg": false,
      "metar_trigger": false,
      "taf_trigger": false,
      "metar": "METAR GCLP 061330Z 02023KT 9999 BKN030 20/10 Q1022 NOSIG",
      "taf": "TAF GCLP 060800Z 0609/0709 03022KT 9999 SCT030 TX18/0614Z TN14/0706Z"
    },
    {
      "icao": "GCTS",
      "alert": "OK",
      "vis_m": 9999,
      "fzfg": false,
      "metar_trigger": false,
      "taf_trigger": false,
      "metar": "METAR GCTS 061330Z 08027G37KT 060V120 9999 FEW040 21/07 Q1023 NOSIG",
      "taf": ""
    },
    {
      "icao": "GMAD",
      "alert": "OK",
      "vis_m": 8000,
      "fzfg": false,
      "metar_trigger": false,
      "taf_trigger": false,
      "metar": "METAR GMAD 061330Z 23009KT 8000 SCT023 21/15 Q1017 NOSIG",
      "taf": "TAF GMAD 061100Z 0612/0718 28012KT 8000 SCT020"
    },
    {
      "icao": "GMMN",
      "alert": "OK",
      "vis_m": 9999,
      "fzfg": false,
      "metar_trigger": false,
      "taf_trigger": false,
      "metar": "METAR GMMN 061330Z 32012KT 9999 BKN026 13/09 Q1021 NOSIG",
      "taf": "TAF GMMN 061100Z 0612/0718 32014KT 9999 BKN026"
    },
    {
      "icao": "GMMX",
      "alert": "OK",
      "vis_m": 9999,
      "fzfg": false,
      "metar_trigger": false,
      "taf_trigger": false,
      "metar": "METAR GMMX 061330Z 34005KT 240V040 9999 BKN020 16/10 Q1020 NOSIG",
      "taf": ""
    },
    {
      "icao": "HEGN",
      "alert": "OK",
      "vis_m": 9999,
      "fzfg": false,
      "metar_trigger": false,
      "taf_trigger": false,
      "metar": "METAR HEGN 061300Z 36012KT CAVOK 24/07 Q1015 NOSIG",
      "taf": "TAF HEGN 061100Z 0612/0718 36008G20KT CAVOK"
    },
    {
      "icao": "HEMA",
      "alert": "OK",
      "vis_m": 9999,
      "fzfg": false,
      "metar_trigger": false,
      "taf_trigger": false,
      "metar": "METAR HEMA 061300Z 36016KT CAVOK 23/11 Q1014 NOSIG",
      "taf": "TAF HEMA 061100Z 0612/0718 36006G18KT CAVOK"
    },
    {
      "icao": "HESH",
      "alert": "OK",
      "vis_m": 9999,
      "fzfg": false,
      "metar_trigger": false,
      "taf_trigger": false,
      "metar": "METAR HESH 061300Z 01010KT CAVOK 25/09 Q1014 NOSIG",
      "taf": "TAF HESH 061100Z 0612/0718 12008KT CAVOK"
    },
    {
      "icao": "HESX",
      "alert": "OK",
      "vis_m": 9999,
      "fzfg": false,
      "metar_trigger": false,
      "taf_trigger": false,
      "metar": "METAR HESX 061300Z 34008KT CAVOK 20/08 Q1018 NOSIG",
      "taf": "TAF HESX 061100Z 0612/0718 35012KT 9999 SCT025"
    },
    {
      "icao": "LATI",
      "alert": "OK",
      "vis_m": 9999,
      "fzfg": false,
      "metar_trigger": false,
      "taf_trigger": false,
      "metar": "METAR LATI 061320Z 34006KT 290V020 CAVOK 20/00 Q1022 TEMPO 34010KT",
      "taf": "TAF LATI 061100Z 0612/0712 VRB04KT CAVOK TX21/0712Z TN04/0705Z"
    },
    {
      "icao": "LBPD",
      "alert": "OK",
      "vis_m": 9999,
      "fzfg": false,
      "metar_trigger": false,
      "taf_trigger": false,
      "metar": "METAR LBPD 061330Z AUTO 28006KT 220V010 9999 NCD 18/M00 Q1022 NOSIG",
      "taf": "TAF LBPD 061100Z 0612/0712 30010KT 9999 SCT070"
    },
    {
      "icao": "LBSF",
      "alert": "OK",
      "vis_m": 9999,
      "fzfg": false,
      "metar_trigger": false,
      "taf_trigger": false,
      "metar": "METAR LBSF 061330Z VRB03KT 9999 SCT066 14/00 Q1023 NOSIG",
      "taf": "TAF LBSF 061100Z 0612/0712 32010KT 9999 SCT060"
    },
    {
      "icao": "LBWN",
      "alert": "OK",
      "vis_m": 9999,
      "fzfg": false,
      "metar_trigger": false,
      "taf_trigger": false,
      "metar": "METAR LBWN 061330Z 35009KT 310V030 9999 FEW030 14/M01 Q1023 NOSIG",
      "taf": "TAF LBWN 061100Z 0612/0712 33010KT 9999 BKN030"
    },
    {
      "icao": "LCLK",
      "alert": "OK",
      "vis_m": 9999,
      "fzfg": false,
      "metar_trigger": false,
      "taf_trigger": false,
      "metar": "METAR LCLK 061330Z 23014KT 9999 FEW025 FEW030TCU SCT050 19/12 Q1017 NOSIG",
      "taf": "TAF LCLK 061130Z 0612/0712 21014KT 9999 FEW025"
    },
    {
      "icao": "LCPH",
      "alert": "OK",
      "vis_m": 9999,
      "fzfg": false,
      "metar_trigger": false,
      "taf_trigger": false,
      "metar": "METAR LCPH 061330Z 31012KT 9999 FEW030 SCT035 18/10 Q1018 NOSIG",
      "taf": "TAF LCPH 061130Z 0612/0712 29010KT 9999 FEW030 SCT050"
    },
    {
      "icao": "LEAL",
      "alert": "OK",
      "vis_m": 9999,
      "fzfg": false,
      "metar_trigger": false,
      "taf_trigger": false,
      "metar": "METAR LEAL 061330Z VRB03KT 9999 FEW030 18/10 Q1010 NOSIG",
      "taf": "TAF LEAL 061100Z 0612/0712 VRB04KT 9999 SCT030 TX16/0612Z TN09/0706Z"
    },
    {
      "icao": "LEBB",
      "alert": "OK",
      "vis_m": 6000,
      "fzfg": false,
      "metar_trigger": false,
      "taf_trigger": false,
      "metar": "METAR LEBB 061330Z 30014KT 6000 -RA SCT008 BKN014 BKN045 11/11 Q1020 TEMPO 3000 RA",
      "taf": "TAF LEBB 061100Z 0612/0712 31009KT 9000 SCT010 BKN016 TX12/0712Z TN09/0700Z"
    },
    {
      "icao": "LEBL",
      "alert": "OK",
      "vis_m": 2500,
      "fzfg": false,
      "metar_trigger": false,
      "taf_trigger": false,
      "metar": "METAR LEBL 061330Z 06015KT 2500 R24R/1000N R06L/1400N R06R/0800N R24L/1400N BR BKN005 FEW013TCU BKN025 BKN035 15/14 Q1013 NOSIG",
      "taf": ""
    },
    {
      "icao": "LECH",
      "alert": "OK",
      "vis_m": 9999,
      "fzfg": false,
      "metar_trigger": false,
      "taf_trigger": false,
      "metar": "METAR LECH 061330Z AUTO 02008KT 340V060 9999 SCT046 SCT050 13/10 Q1011",
      "taf": ""
    },
    {
      "icao": "LEMD",
      "alert": "OK",
      "vis_m": 9999,
      "fzfg": false,
      "metar_trigger": false,
      "taf_trigger": false,
      "metar": "METAR LEMD 061330Z 01006KT 330V060 9999 -RA FEW030 BKN038 09/09 Q1012 NOSIG",
      "taf": "TAF LEMD 061100Z 0612/0718 04010KT 9999 FEW040 TX14/0714Z TN06/0707Z"
    },
    {
      "icao": "LEMG",
      "alert": "OK",
      "vis_m": 9999,
      "fzfg": false,
      "metar_trigger": false,
      "taf_trigger": false,
      "metar": "METAR LEMG 061330Z 30010G21KT 9999 DZ VCTS SCT045CB BKN050 11/06 Q1013 NOSIG",
      "taf": ""
    },
    {
      "icao": "LEVC",
      "alert": "OK",
      "vis_m": 9999,
      "fzfg": false,
      "metar_trigger": false,
      "taf_trigger": false,
      "metar": "METAR LEVC 061330Z 04013KT 360V070 9999 FEW015 BKN020 15/11 Q1010 NOSIG",
      "taf": "TAF LEVC 061100Z 0612/0712 07008KT 9999 BKN020 TX15/0612Z TN09/0706Z"
    },
    {
      "icao": "LEXJ",
      "alert": "OK",
      "vis_m": 8000,
      "fzfg": false,
      "metar_trigger": false,
      "taf_trigger": false,
      "metar": "METAR LEXJ 061330Z 31012KT 260V360 8000 BKN011 BKN022 BKN030 10/08 Q1022",
      "taf": "TAF LEXJ 060800Z 0609/0709 30009KT 9000 FEW015 BKN025 TX11/0612Z TN09/0705Z"
    },
    {
      "icao": "LEZG",
      "alert": "OK",
      "vis_m": 8000,
      "fzfg": false,
      "metar_trigger": false,
      "taf_trigger": false,
      "metar": "METAR LEZG 061330Z 31009KT 8000 2500SW DZ FEW004 BKN030 12/12 Q1014 RERA NOSIG",
      "taf": "TAF LEZG 061100Z 0612/0712 31010KT 9999 BKN020 TX13/0614Z TN08/0706Z"
    },
    {
      "icao": "LEZL",
      "alert": "OK",
      "vis_m": 9999,
      "fzfg": false,
      "metar_trigger": false,
      "taf_trigger": false,
      "metar": "METAR LEZL 061330Z 32004KT 280V360 9999 BKN030 OVC035 12/07 Q1014 NOSIG",
      "taf": "TAF LEZL 060800Z 0609/0709 26009KT 9999 SCT020 BKN030 TX15/0615Z TN08/0707Z"
    },
    {
      "icao": "LFBD",
      "alert": "OK",
      "vis_m": 9999,
      "fzfg": false,
      "metar_trigger": false,
      "taf_trigger": false,
      "metar": "METAR LFBD 061330Z AUTO 13011KT 100V160 9999 FEW038 BKN045 OVC052 16/10 Q1018 TEMPO 4000 -SHRA BKN030TCU",
      "taf": "TAF LFBD 061100Z 0612/0718 13010KT 9999 BKN025 TX17/0615Z TN10/0705Z"
    },
    {
      "icao": "LFLL",
      "alert": "OK",
      "vis_m": 9999,
      "fzfg": false,
      "metar_trigger": false,
      "taf_trigger": false,
      "metar": "METAR LFLL 061330Z 35005KT 290V020 CAVOK 18/07 Q1019 NOSIG",
      "taf": "TAF LFLL 061100Z 0612/0718 36005KT CAVOK"
    },
    {
      "icao": "LFLS",
      "alert": "OK",
      "vis_m": 9999,
      "fzfg": false,
      "metar_trigger": false,
      "taf_trigger": false,
      "metar": "METAR LFLS 061330Z AUTO 32003KT 290V020 CAVOK 17/07 Q1019 NOSIG",
      "taf": "TAF LFLS 060800Z 0609/0709 10006KT CAVOK"
    },
    {
      "icao": "LFMN",
      "alert": "OK",
      "vis_m": 9999,
      "fzfg": false,
      "metar_trigger": false,
      "taf_trigger": false,
      "metar": "METAR LFMN 061330Z 08022KT 9999 FEW090 BKN260 17/08 Q1019 NOSIG",
      "taf": "TAF LFMN 060800Z 0609/0715 10018KT 9999 SCT070 BKN230"
    },
    {
      "icao": "LFOB",
      "alert": "OK",
      "vis_m": 9999,
      "fzfg": false,
      "metar_trigger": false,
      "taf_trigger": false,
      "metar": "METAR LFOB 061330Z AUTO 33005KT CAVOK 17/10 Q1020 NOSIG",
      "taf": "TAF LFOB 061100Z 0612/0712 VRB03KT CAVOK"
    },
    {
      "icao": "LFPO",
      "alert": "OK",
      "vis_m": 9999,
      "fzfg": false,
      "metar_trigger": false,
      "taf_trigger": false,
      "metar": "METAR LFPO 061330Z VRB02KT CAVOK 17/09 Q1020 NOSIG",
      "taf": "TAF LFPO 061100Z 0612/0718 VRB02KT CAVOK"
    },
    {
      "icao": "LFSB",
      "alert": "OK",
      "vis_m": 9999,
      "fzfg": false,
      "metar_trigger": false,
      "taf_trigger": false,
      "metar": "METAR LFSB 061330Z AUTO VRB02KT CAVOK 16/06 Q1020 NOSIG",
      "taf": "TAF LFSB 061100Z 0612/0712 36004KT CAVOK"
    },
    {
      "icao": "LGAV",
      "alert": "OK",
      "vis_m": 9999,
      "fzfg": false,
      "metar_trigger": false,
      "taf_trigger": false,
      "metar": "METAR LGAV 061320Z 05011KT 9999 SCT030 16/09 Q1024 NOSIG",
      "taf": "TAF LGAV 061100Z 0612/0712 03012KT 9999 SCT025"
    },
    {
      "icao": "LGTS",
      "alert": "OK",
      "vis_m": 9999,
      "fzfg": false,
      "metar_trigger": false,
      "taf_trigger": false,
      "metar": "METAR LGTS 061320Z VRB03KT 9999 FEW020 18/05 Q1023 NOSIG",
      "taf": "TAF LGTS 061100Z 0612/0712 VRB03KT 9999 FEW025"
    },
    {
      "icao": "LHBP",
      "alert": "OK",
      "vis_m": 9999,
      "fzfg": false,
      "metar_trigger": false,
      "taf_trigger": false,
      "metar": "METAR LHBP 061330Z VRB03KT CAVOK 16/M01 Q1026 NOSIG",
      "taf": "TAF LHBP 061115Z 0612/0712 10006KT CAVOK"
    },
    {
      "icao": "LHDC",
      "alert": "OK",
      "vis_m": 9999,
      "fzfg": false,
      "metar_trigger": false,
      "taf_trigger": false,
      "metar": "METAR LHDC 061315Z AUTO 36005KT 290V100 CAVOK 15/M05 Q1026 NOSIG",
      "taf": "TAF LHDC 061115Z 0612/0621 03007KT CAVOK"
    },
    {
      "icao": "LIBD",
      "alert": "OK",
      "vis_m": 9999,
      "fzfg": false,
      "metar_trigger": false,
      "taf_trigger": false,
      "metar": "METAR LIBD 061320Z 36004KT 300V050 9999 SCT015 14/11 Q1023",
      "taf": "TAF LIBD 061100Z 0612/0712 VRB04KT 8000 FEW015"
    },
    {
      "icao": "LIBG",
      "alert": "OK",
      "vis_m": 9999,
      "fzfg": false,
      "metar_trigger": false,
      "taf_trigger": false,
      "metar": "METAR LIBG 061250Z 07006KT CAVOK 17/08 Q1022",
      "taf": "TAF LIBG 061100Z 0612/0621 VRB05KT 9999 FEW020"
    },
    {
      "icao": "LIBP",
      "alert": "OK",
      "vis_m": 9999,
      "fzfg": false,
      "metar_trigger": false,
      "taf_trigger": false,
      "metar": "METAR LIBP 061320Z AUTO 07008KT 040V100 9999 NCD 15/11 Q1024",
      "taf": "TAF LIBP 061100Z 0612/0712 VRB05KT 9999 FEW025"
    },
    {
      "icao": "LIBR",
      "alert": "OK",
      "vis_m": 9999,
      "fzfg": false,
      "metar_trigger": false,
      "taf_trigger": false,
      "metar": "METAR LIBR 061320Z 02006KT CAVOK 15/11 Q1023",
      "taf": "TAF LIBR 061100Z 0612/0712 02007KT CAVOK"
    },
    {
      "icao": "LICA",
      "alert": "OK",
      "vis_m": 9999,
      "fzfg": false,
      "metar_trigger": false,
      "taf_trigger": false,
      "metar": "METAR LICA 061320Z AUTO 09016KT 9999 NCD 16/09 Q1021",
      "taf": "TAF LICA 061100Z 0612/0712 08016KT CAVOK"
    },
    {
      "icao": "LICC",
      "alert": "OK",
      "vis_m": 9999,
      "fzfg": false,
      "metar_trigger": false,
      "taf_trigger": false,
      "metar": "METAR LICC 061320Z 09010KT 9999 SCT015 BKN070 16/13 Q1021",
      "taf": "TAF LICC 061100Z 0612/0712 08012KT 9999 SCT020 BKN040"
    },
    {
      "icao": "LICJ",
      "alert": "OK",
      "vis_m": 9999,
      "fzfg": false,
      "metar_trigger": false,
      "taf_trigger": false,
      "metar": "METAR LICJ 061320Z 25005KT 9999 SCT050 16/11 Q1018",
      "taf": "TAF LICJ 061100Z 0612/0712 04013KT CAVOK"
    },
    {
      "icao": "LIMC",
      "alert": "OK",
      "vis_m": 7000,
      "fzfg": false,
      "metar_trigger": false,
      "taf_trigger": false,
      "metar": "METAR LIMC 061320Z VRB03KT 7000 NSC 15/07 Q1024 NOSIG",
      "taf": "TAF LIMC 061100Z 0612/0718 VRB05KT 6000 SCT030"
    },
    {
      "icao": "LIME",
      "alert": "OK",
      "vis_m": 7000,
      "fzfg": false,
      "metar_trigger": false,
      "taf_trigger": false,
      "metar": "METAR LIME 061320Z 19004KT 160V250 7000 NSC 14/06 Q1024 NOSIG",
      "taf": "TAF LIME 061100Z 0612/0712 VRB05KT 6000 SCT030"
    },
    {
      "icao": "LIMF",
      "alert": "OK",
      "vis_m": 4000,
      "fzfg": false,
      "metar_trigger": false,
      "taf_trigger": false,
      "metar": "METAR LIMF 061320Z VRB02KT 4000 BR NSC 15/06 Q1024",
      "taf": "TAF LIMF 061100Z 0612/0712 VRB04KT 6000 SCT030"
    },
    {
      "icao": "LIMJ",
      "alert": "OK",
      "vis_m": 7000,
      "fzfg": false,
      "metar_trigger": false,
      "taf_trigger": false,
      "metar": "METAR LIMJ 061320Z 04017KT 7000 NSC 15/06 Q1022",
      "taf": "TAF LIMJ 061100Z 0612/0712 35015KT 8000 FEW040"
    },
    {
      "icao": "LIPE",
      "alert": "OK",
      "vis_m": 7000,
      "fzfg": false,
      "metar_trigger": false,
      "taf_trigger": false,
      "metar": "METAR LIPE 061320Z 04003KT 010V070 7000 FEW020 BKN035 13/07 Q1024",
      "taf": "TAF LIPE 061100Z 0612/0712 VRB04KT 7000 SCT025"
    },
    {
      "icao": "LIPH",
      "alert": "OK",
      "vis_m": 9999,
      "fzfg": false,
      "metar_trigger": false,
      "taf_trigger": false,
      "metar": "METAR LIPH 061320Z VRB02KT CAVOK 17/05 Q1024",
      "taf": "TAF LIPH 061100Z 0612/0712 VRB03KT CAVOK"
    },
    {
      "icao": "LIPQ",
      "alert": "OK",
      "vis_m": 9999,
      "fzfg": false,
      "metar_trigger": false,
      "taf_trigger": false,
      "metar": "METAR LIPQ 061320Z AUTO VRB02KT 9999 NCD 17/06 Q1024",
      "taf": "TAF LIPQ 061100Z 0612/0712 VRB04KT CAVOK"
    },
    {
      "icao": "LIPR",
      "alert": "OK",
      "vis_m": 8000,
      "fzfg": false,
      "metar_trigger": false,
      "taf_trigger": false,
      "metar": "METAR LIPR 061320Z 02007KT 360V060 8000 FEW040 13/10 Q1024",
      "taf": "TAF LIPR 061100Z 0612/0712 VRB04KT 9999 SCT030"
    },
    {
      "icao": "LIPX",
      "alert": "OK",
      "vis_m": 9000,
      "fzfg": false,
      "metar_trigger": false,
      "taf_trigger": false,
      "metar": "METAR LIPX 061320Z 19004KT 130V240 9000 NSC 15/07 Q1024",
      "taf": "TAF LIPX 061100Z 0612/0712 VRB05KT 6000 NSC"
    },
    {
      "icao": "LIPY",
      "alert": "OK",
      "vis_m": 9999,
      "fzfg": false,
      "metar_trigger": false,
      "taf_trigger": false,
      "metar": "METAR LIPY 061320Z AUTO 04010KT 9999 FEW220/// 14/10 Q1024",
      "taf": "TAF LIPY 061100Z 0612/0712 04010KT 7000 SCT020"
    },
    {
      "icao": "LIPZ",
      "alert": "OK",
      "vis_m": 6000,
      "fzfg": false,
      "metar_trigger": false,
      "taf_trigger": false,
      "metar": "METAR LIPZ 061320Z 16005KT 130V190 6000 NSC 14/08 Q1024 NOSIG",
      "taf": "TAF LIPZ 061100Z 0612/0718 VRB03KT 7000 NSC"
    },
    {
      "icao": "LIRF",
      "alert": "OK",
      "vis_m": 9999,
      "fzfg": false,
      "metar_trigger": false,
      "taf_trigger": false,
      "metar": "METAR LIRF 061320Z 17004KT 130V210 CAVOK 17/09 Q1021 NOSIG",
      "taf": "TAF LIRF 061100Z 0612/0718 17010KT CAVOK"
    },
    {
      "icao": "LIRN",
      "alert": "OK",
      "vis_m": 9999,
      "fzfg": false,
      "metar_trigger": false,
      "taf_trigger": false,
      "metar": "METAR LIRN 061320Z 04005KT 320V070 CAVOK 17/07 Q1021 NOSIG",
      "taf": "TAF LIRN 061100Z 0612/0712 04010KT CAVOK"
    },
    {
      "icao": "LIRP",
      "alert": "OK",
      "vis_m": 9999,
      "fzfg": false,
      "metar_trigger": false,
      "taf_trigger": false,
      "metar": "METAR LIRP 061315Z 13005KT 9999 SCT070 17/08 Q1021 NOSIG",
      "taf": "TAF LIRP 061100Z 0612/0712 VRB04KT 9999 SCT060"
    },
    {
      "icao": "LIRZ",
      "alert": "OK",
      "vis_m": 9999,
      "fzfg": false,
      "metar_trigger": false,
      "taf_trigger": false,
      "metar": "METAR LIRZ 061320Z AUTO 36005KT 320V040 9999 NCD 16/07 Q1021",
      "taf": "TAF LIRZ 061100Z 0612/0712 04008KT CAVOK"
    },
    {
      "icao": "LJLJ",
      "alert": "OK",
      "vis_m": 9999,
      "fzfg": false,
      "metar_trigger": false,
      "taf_trigger": false,
      "metar": "METAR LJLJ 061330Z 08005KT 040V130 CAVOK 16/02 Q1023 NOSIG",
      "taf": "TAF LJLJ 061100Z 0612/0712 12006KT CAVOK"
    },
    {
      "icao": "LKMT",
      "alert": "OK",
      "vis_m": 9999,
      "fzfg": false,
      "metar_trigger": false,
      "taf_trigger": false,
      "metar": "METAR LKMT 061330Z VRB02KT CAVOK 15/M01 Q1025 NOSIG",
      "taf": "TAF LKMT 061100Z 0612/0712 VRB02KT CAVOK"
    },
    {
      "icao": "LKPR",
      "alert": "OK",
      "vis_m": 9999,
      "fzfg": false,
      "metar_trigger": false,
      "taf_trigger": false,
      "metar": "METAR LKPR 061330Z 08006KT 030V140 CAVOK 12/03 Q1024 NOSIG",
      "taf": "TAF LKPR 061100Z 0612/0718 08006KT CAVOK"
    },
    {
      "icao": "LLBG",
      "alert": "OK",
      "vis_m": 9999,
      "fzfg": false,
      "metar_trigger": false,
      "taf_trigger": false,
      "metar": "METAR LLBG 061320Z 30010KT CAVOK 18/02 Q1018 NOSIG",
      "taf": "TAF LLBG 061103Z 0612/0712 30010KT CAVOK TX20/0612Z TN10/0704Z"
    },
    {
      "icao": "LMML",
      "alert": "OK",
      "vis_m": 9999,
      "fzfg": false,
      "metar_trigger": false,
      "taf_trigger": false,
      "metar": "METAR LMML 061315Z 08007KT 040V140 9999 -RA BKN008 15/14 Q1019 NOSIG",
      "taf": ""
    },
    {
      "icao": "LOWW",
      "alert": "OK",
      "vis_m": 9999,
      "fzfg": false,
      "metar_trigger": false,
      "taf_trigger": false,
      "metar": "METAR LOWW 061320Z 13014KT CAVOK 16/04 Q1024 NOSIG",
      "taf": "TAF LOWW 061115Z 0612/0718 13012KT CAVOK TX16/0714Z TN05/0705Z"
    },
    {
      "icao": "LPFR",
      "alert": "OK",
      "vis_m": 9999,
      "fzfg": false,
      "metar_trigger": false,
      "taf_trigger": false,
      "metar": "METAR LPFR 061330Z 31017KT 9999 FEW025 SCT040 14/05 Q1015",
      "taf": "TAF LPFR 061100Z 0612/0712 32015KT 9999 SCT030"
    },
    {
      "icao": "LPMA",
      "alert": "OK",
      "vis_m": 9999,
      "fzfg": false,
      "metar_trigger": false,
      "taf_trigger": false,
      "metar": "METAR LPMA 061330Z 02014KT 320V050 9999 BKN016 15/06 Q1028",
      "taf": "TAF LPMA 061100Z 0612/0712 01015KT 9999 SCT015"
    },
    {
      "icao": "LPPR",
      "alert": "OK",
      "vis_m": 9999,
      "fzfg": false,
      "metar_trigger": false,
      "taf_trigger": false,
      "metar": "METAR LPPR 061330Z 01015KT 9999 FEW049 13/04 Q1019",
      "taf": "TAF LPPR 061100Z 0612/0712 35015KT 9999 SCT025"
    },
    {
      "icao": "LPPS",
      "alert": "OK",
      "vis_m": 9999,
      "fzfg": false,
      "metar_trigger": false,
      "taf_trigger": false,
      "metar": "METAR LPPS 061330Z 02014KT 340V040 9999 FEW015 BKN030 16/06 Q1028",
      "taf": "TAF LPPS 061100Z 0612/0718 04015KT 9999 FEW015 BKN030"
    },
    {
      "icao": "LPPT",
      "alert": "OK",
      "vis_m": 9999,
      "fzfg": false,
      "metar_trigger": false,
      "taf_trigger": false,
      "metar": "METAR LPPT 061330Z 34021G31KT 310V010 9999 FEW028 13/06 Q1017 WS R02",
      "taf": "TAF LPPT 061100Z 0612/0718 33020KT 9999 SCT025"
    },
    {
      "icao": "LQBK",
      "alert": "OK",
      "vis_m": 9999,
      "fzfg": false,
      "metar_trigger": false,
      "taf_trigger": false,
      "metar": "METAR LQBK 061330Z 05006KT 030V090 CAVOK 18/M02 Q1024 NOSIG",
      "taf": "TAF LQBK 061100Z 0612/0712 33005KT CAVOK TX18/0614Z TN00/0706Z"
    },
    {
      "icao": "LQSA",
      "alert": "OK",
      "vis_m": 9999,
      "fzfg": false,
      "metar_trigger": false,
      "taf_trigger": false,
      "metar": "METAR LQSA 061330Z VRB03KT CAVOK 17/M01 Q1023 NOSIG",
      "taf": "TAF LQSA 061100Z 0612/0712 VRB02KT CAVOK TX16/0614Z TNM00/0705Z"
    },
    {
      "icao": "LQTZ",
      "alert": "OK",
      "vis_m": 9999,
      "fzfg": false,
      "metar_trigger": false,
      "taf_trigger": false,
      "metar": "METAR LQTZ 061330Z 11007KT 070V140 CAVOK 17/01 Q1024",
      "taf": "TAF LQTZ 061100Z 0612/0712 VRB02KT CAVOK TX18/0614Z TNM02/0706Z"
    },
    {
      "icao": "LRBC",
      "alert": "OK",
      "vis_m": 9999,
      "fzfg": false,
      "metar_trigger": false,
      "taf_trigger": false,
      "metar": "METAR LRBC 061330Z 36014KT 9999 FEW062 13/M01 Q1025",
      "taf": "TAF LRBC 061100Z 0612/0621 36016KT CAVOK"
    },
    {
      "icao": "LRBS",
      "alert": "OK",
      "vis_m": 9999,
      "fzfg": false,
      "metar_trigger": false,
      "taf_trigger": false,
      "metar": "METAR LRBS 061330Z VRB03KT CAVOK 14/01 Q1024 NOSIG",
      "taf": "TAF LRBS 061100Z 0612/0712 VRB04KT CAVOK"
    },
    {
      "icao": "LRBV",
      "alert": "OK",
      "vis_m": 9999,
      "fzfg": false,
      "metar_trigger": false,
      "taf_trigger": false,
      "metar": "METAR LRBV 061330Z 29009KT 260V320 CAVOK 12/M04 Q1024",
      "taf": "TAF LRBV 061100Z 0612/0621 31010KT CAVOK"
    },
    {
      "icao": "LRCL",
      "alert": "OK",
      "vis_m": 9999,
      "fzfg": false,
      "metar_trigger": false,
      "taf_trigger": false,
      "metar": "METAR LRCL 061330Z 32007KT 290V360 CAVOK 14/M07 Q1024",
      "taf": "TAF LRCL 061100Z 0612/0621 VRB04KT CAVOK"
    },
    {
      "icao": "LRCV",
      "alert": "OK",
      "vis_m": 9999,
      "fzfg": false,
      "metar_trigger": false,
      "taf_trigger": false,
      "metar": "METAR LRCV 061330Z VRB03KT CAVOK 14/05 Q1024",
      "taf": "TAF LRCV 061100Z 0612/0621 06006KT CAVOK"
    },
    {
      "icao": "LRIA",
      "alert": "OK",
      "vis_m": 9999,
      "fzfg": false,
      "metar_trigger": false,
      "taf_trigger": false,
      "metar": "METAR LRIA 061330Z 33018KT 9999 FEW044 11/M02 Q1025",
      "taf": "TAF LRIA 061100Z 0612/0621 32016KT 9999 SCT035"
    },
    {
      "icao": "LROP",
      "alert": "OK",
      "vis_m": 9999,
      "fzfg": false,
      "metar_trigger": false,
      "taf_trigger": false,
      "metar": "METAR LROP 061330Z 27007KT 250V310 CAVOK 14/M03 Q1024 NOSIG",
      "taf": "TAF LROP 061100Z 0612/0712 VRB04KT CAVOK"
    },
    {
      "icao": "LRSB",
      "alert": "OK",
      "vis_m": 9999,
      "fzfg": false,
      "metar_trigger": false,
      "taf_trigger": false,
      "metar": "METAR LRSB 061330Z 34006KT 300V010 CAVOK 14/M05 Q1024",
      "taf": "TAF LRSB 061100Z 0612/0712 VRB04KT CAVOK"
    },
    {
      "icao": "LRSM",
      "alert": "OK",
      "vis_m": 9999,
      "fzfg": false,
      "metar_trigger": false,
      "taf_trigger": false,
      "metar": "METAR LRSM 061330Z 36005KT 320V040 CAVOK 14/M02 Q1025",
      "taf": "TAF LRSM 061100Z 0612/0621 VRB04KT CAVOK"
    },
    {
      "icao": "LRSV",
      "alert": "OK",
      "vis_m": 9999,
      "fzfg": false,
      "metar_trigger": false,
      "taf_trigger": false,
      "metar": "METAR LRSV 061330Z 32014KT 270V340 CAVOK 10/M02 Q1025",
      "taf": "TAF LRSV 061100Z 0612/0621 32015KT CAVOK"
    },
    {
      "icao": "LRTM",
      "alert": "OK",
      "vis_m": 9999,
      "fzfg": false,
      "metar_trigger": false,
      "taf_trigger": false,
      "metar": "METAR LRTM 061330Z 32006KT 290V030 CAVOK 14/M05 Q1024",
      "taf": "TAF LRTM 061100Z 0612/0621 VRB04KT CAVOK"
    },
    {
      "icao": "LRTR",
      "alert": "OK",
      "vis_m": 9999,
      "fzfg": false,
      "metar_trigger": false,
      "taf_trigger": false,
      "metar": "METAR LRTR 061330Z 35011KT CAVOK 16/00 Q1025",
      "taf": "TAF LRTR 061100Z 0612/0712 01012KT CAVOK"
    },
    {
      "icao": "LTAC",
      "alert": "OK",
      "vis_m": 9999,
      "fzfg": false,
      "metar_trigger": false,
      "taf_trigger": false,
      "metar": "METAR LTAC 061320Z 36014KT 9999 SCT040 BKN100 07/M00 Q1019 NOSIG RMK RWY21C 33013KT RWY03L 35012KT RWY21R 33010KT RWY03R 33011KT 280V360 RWY21L 33013KT",
      "taf": "TAF LTAC 061040Z 0612/0712 31012KT 9999 SCT040 SCT100"
    },
    {
      "icao": "LTFM",
      "alert": "OK",
      "vis_m": 9999,
      "fzfg": false,
      "metar_trigger": false,
      "taf_trigger": false,
      "metar": "METAR LTFM 061320Z 02009KT CAVOK 09/05 Q1024 NOSIG RMK RWY17L 03008KT RWY34L 01009KT RWY16R 02009KT RWY36 03011KT RWY18 02008KT",
      "taf": "TAF LTFM 061040Z 0612/0718 01012KT CAVOK"
    },
    {
      "icao": "LUKK",
      "alert": "OK",
      "vis_m": 9999,
      "fzfg": false,
      "metar_trigger": false,
      "taf_trigger": false,
      "metar": "METAR LUKK 061330Z 36012KT 330V030 9999 SCT049 09/M01 Q1023 TEMPO 35016G26KT",
      "taf": "TAF LUKK 061109Z 0612/0712 33012KT 9999 SCT030"
    },
    {
      "icao": "LWOH",
      "alert": "OK",
      "vis_m": 9999,
      "fzfg": false,
      "metar_trigger": false,
      "taf_trigger": false,
      "metar": "METAR LWOH 061320Z 15007KT CAVOK 12/02 Q1023",
      "taf": "TAF LWOH 061110Z 0612/0712 16008KT 9999 FEW040"
    },
    {
      "icao": "LWSK",
      "alert": "OK",
      "vis_m": 9999,
      "fzfg": false,
      "metar_trigger": false,
      "taf_trigger": false,
      "metar": "METAR LWSK 061320Z VRB02KT CAVOK 17/05 Q1024 NOSIG",
      "taf": "TAF LWSK 061110Z 0612/0712 VRB02KT CAVOK"
    },
    {
      "icao": "LYBE",
      "alert": "OK",
      "vis_m": 9999,
      "fzfg": false,
      "metar_trigger": false,
      "taf_trigger": false,
      "metar": "METAR LYBE 061330Z 04005KT 330V100 CAVOK 16/M02 Q1025 NOSIG",
      "taf": "TAF LYBE 061100Z 0612/0712 05007KT 9999 FEW040 TX17/0712Z TN02/0705Z"
    },
    {
      "icao": "LYNI",
      "alert": "OK",
      "vis_m": 9999,
      "fzfg": false,
      "metar_trigger": false,
      "taf_trigger": false,
      "metar": "METAR LYNI 061330Z 31004KT 250V030 9999 FEW040 16/05 Q1024 NOSIG",
      "taf": "TAF LYNI 061100Z 0612/0712 28005KT CAVOK TX17/0614Z TN01/0706Z"
    },
    {
      "icao": "LYPG",
      "alert": "OK",
      "vis_m": 9999,
      "fzfg": false,
      "metar_trigger": false,
      "taf_trigger": false,
      "metar": "METAR LYPG 061330Z 16006KT 120V190 CAVOK 19/M00 Q1022 NOSIG",
      "taf": "TAF LYPG 061100Z 0612/0712 16007KT CAVOK TX19/0614Z TN04/0705Z"
    },
    {
      "icao": "LZIB",
      "alert": "OK",
      "vis_m": 9999,
      "fzfg": false,
      "metar_trigger": false,
      "taf_trigger": false,
      "metar": "METAR LZIB 061330Z 11007KT 080V160 CAVOK 16/03 Q1025 NOSIG",
      "taf": "TAF LZIB 061115Z 0612/0712 11008KT CAVOK"
    },
    {
      "icao": "LZKZ",
      "alert": "OK",
      "vis_m": 9999,
      "fzfg": false,
      "metar_trigger": false,
      "taf_trigger": false,
      "metar": "METAR LZKZ 061330Z VRB03KT CAVOK 15/M04 Q1025 NOSIG",
      "taf": "TAF LZKZ 061115Z 0612/0712 VRB03KT CAVOK"
    },
    {
      "icao": "LZTT",
      "alert": "OK",
      "vis_m": 9999,
      "fzfg": false,
      "metar_trigger": false,
      "taf_trigger": false,
      "metar": "METAR LZTT 061330Z 07004KT 350V140 CAVOK 14/M07 Q1025 NOSIG",
      "taf": "TAF LZTT 061115Z 0612/0712 VRB04KT CAVOK"
    },
    {
      "icao": "OEJN",
      "alert": "OK",
      "vis_m": 9999,
      "fzfg": false,
      "metar_trigger": false,
      "taf_trigger": false,
      "metar": "METAR OEJN 061300Z 30011KT CAVOK 28/16 Q1011 NOSIG",
      "taf": "TAF OEJN 061100Z 0612/0718 30012KT 7000 FEW040"
    },
    {
      "icao": "OEMA",
      "alert": "OK",
      "vis_m": 9999,
      "fzfg": false,
      "metar_trigger": false,
      "taf_trigger": false,
      "metar": "METAR OEMA 061300Z 19007KT 9999 FEW040 29/03 Q1014 NOSIG",
      "taf": "TAF OEMA 061100Z 0612/0718 27010KT 7000 FEW045"
    },
    {
      "icao": "OJAI",
      "alert": "OK",
      "vis_m": 5000,
      "fzfg": false,
      "metar_trigger": false,
      "taf_trigger": false,
      "metar": "METAR OJAI 061300Z 24010KT 5000 HZ NSC 18/M02 Q1017 NOSIG",
      "taf": "TAF OJAI 061021Z 0612/0718 28008KT 5000 HZ NSC"
    },
    {
      "icao": "OMAA",
      "alert": "OK",
      "vis_m": null,
      "fzfg": false,
      "metar_trigger": false,
      "taf_trigger": false,
      "metar": "",
      "taf": ""
    },
    {
      "icao": "OMDB",
      "alert": "OK",
      "vis_m": null,
      "fzfg": false,
      "metar_trigger": false,
      "taf_trigger": false,
      "metar": "",
      "taf": ""
    },
    {
      "icao": "UAAA",
      "alert": "OK",
      "vis_m": 9999,
      "fzfg": false,
      "metar_trigger": false,
      "taf_trigger": false,
      "metar": "METAR UAAA 061330Z 01003MPS 330V030 9999 OVC013 03/01 Q1023 NOSIG",
      "taf": "TAF UAAA 061101Z 0612/0712 04003MPS 3100 BR FU BKN011 OVC030 TX09/0709Z TNM01/0701Z"
    },
    {
      "icao": "UBBB",
      "alert": "OK",
      "vis_m": 9999,
      "fzfg": false,
      "metar_trigger": false,
      "taf_trigger": false,
      "metar": "METAR UBBB 061330Z 20018KT CAVOK 11/04 Q1011 NOSIG",
      "taf": "TAF UBBB 061050Z 0612/0712 19014G24KT CAVOK TX11/0612Z TN05/0701Z"
    },
    {
      "icao": "UDSG",
      "alert": "OK",
      "vis_m": 9999,
      "fzfg": false,
      "metar_trigger": false,
      "taf_trigger": false,
      "metar": "METAR UDSG 061330Z 09001KT 9999 OVC043 M02/M08 Q1016 NOSIG",
      "taf": "TAF UDSG 061100Z 0612/0712 VRB06KT 9999 BKN040"
    },
    {
      "icao": "UDYZ",
      "alert": "OK",
      "vis_m": 9999,
      "fzfg": false,
      "metar_trigger": false,
      "taf_trigger": false,
      "metar": "METAR UDYZ 061330Z 00000KT 9999 SCT046 07/M07 Q1016 NOSIG",
      "taf": "TAF UDYZ 061100Z 0612/0712 24006KT 9999 SCT040"
    },
    {
      "icao": "UGKO",
      "alert": "OK",
      "vis_m": 6000,
      "fzfg": false,
      "metar_trigger": false,
      "taf_trigger": false,
      "metar": "METAR UGKO 061330Z 28008KT 6000 -SHRA SCT013 BKN018CB OVC069 05/03 Q1020 NOSIG",
      "taf": "TAF UGKO 061100Z 0612/0712 26012KT 9999 SCT020 BKN050 TX09/0711Z TN02/0703Z"
    }
  ]
}