{
  "ts_utc": "2026-04-20T23:54:39Z",
  "threshold_m": 150,
  "source": "stations_override.txt (ICAO list) + aviationweather.gov (METAR/TAF raw)",
  "station_count": 159,
  "stations": [
    {
      "icao": "BIKF",
      "alert": "OK",
      "vis_m": 9999,
      "fzfg": false,
      "metar_trigger": false,
      "taf_trigger": false,
      "metar": "METAR BIKF 202300Z 16005KT CAVOK 05/05 Q1040",
      "taf": "TAF BIKF 202253Z 2100/2200 15010KT 9999 FEW025 TX09/2114Z TN01/2106Z"
    },
    {
      "icao": "BKPR",
      "alert": "OK",
      "vis_m": 9999,
      "fzfg": false,
      "metar_trigger": false,
      "taf_trigger": false,
      "metar": "METAR BKPR 202300Z 01011KT 9999 SCT015 BKN025 10/08 Q1014 NOSIG",
      "taf": "TAF BKPR 202330Z 2100/2124 02008KT 9999 SCT020 BKN040"
    },
    {
      "icao": "EBCI",
      "alert": "OK",
      "vis_m": 9999,
      "fzfg": false,
      "metar_trigger": false,
      "taf_trigger": false,
      "metar": "METAR EBCI 202250Z 36005KT 9999 FEW040 06/03 Q1021 NOSIG",
      "taf": "TAF EBCI 202316Z 2100/2206 02006KT 9999 FEW040"
    },
    {
      "icao": "EDDB",
      "alert": "OK",
      "vis_m": 9999,
      "fzfg": false,
      "metar_trigger": false,
      "taf_trigger": false,
      "metar": "METAR EDDB 202250Z AUTO 04008KT CAVOK 06/01 Q1021 NOSIG",
      "taf": "TAF EDDB 202300Z 2100/2124 03009KT CAVOK"
    },
    {
      "icao": "EDDH",
      "alert": "OK",
      "vis_m": 9999,
      "fzfg": false,
      "metar_trigger": false,
      "taf_trigger": false,
      "metar": "METAR EDDH 202320Z AUTO 36003KT 320V050 CAVOK 03/M01 Q1025 NOSIG",
      "taf": "TAF EDDH 202300Z 2100/2206 05005KT CAVOK"
    },
    {
      "icao": "EDDK",
      "alert": "OK",
      "vis_m": 9999,
      "fzfg": false,
      "metar_trigger": false,
      "taf_trigger": false,
      "metar": "METAR EDDK 202320Z AUTO VRB01KT CAVOK 06/03 Q1021 NOSIG",
      "taf": "TAF EDDK 202300Z 2100/2206 VRB03KT 9999 SCT045"
    },
    {
      "icao": "EDDN",
      "alert": "OK",
      "vis_m": 9999,
      "fzfg": false,
      "metar_trigger": false,
      "taf_trigger": false,
      "metar": "METAR EDDN 202320Z AUTO 31004KT 9999 SCT018 SCT023 05/02 Q1019",
      "taf": "TAF EDDN 202300Z 2100/2124 34005KT 9999 BKN025"
    },
    {
      "icao": "EDDS",
      "alert": "OK",
      "vis_m": 9999,
      "fzfg": false,
      "metar_trigger": false,
      "taf_trigger": false,
      "metar": "METAR EDDS 202320Z AUTO 02003KT CAVOK 06/M01 Q1018",
      "taf": "TAF EDDS 202300Z 2100/2124 VRB03KT CAVOK"
    },
    {
      "icao": "EDFH",
      "alert": "OK",
      "vis_m": 9999,
      "fzfg": false,
      "metar_trigger": false,
      "taf_trigger": false,
      "metar": "METAR EDFH 202250Z VRB02KT CAVOK 03/M02 Q1019",
      "taf": "TAF EDFH 202300Z 2100/2124 04004KT 9999 SCT020"
    },
    {
      "icao": "EDJA",
      "alert": "OK",
      "vis_m": 9999,
      "fzfg": false,
      "metar_trigger": false,
      "taf_trigger": false,
      "metar": "METAR EDJA 202250Z AUTO 06005KT 9999 // FEW059/// BKN077/// BKN091/// 05/01 Q1017",
      "taf": "TAF EDJA 201700Z 2018/2103 32006KT 9999 SCT045"
    },
    {
      "icao": "EDLW",
      "alert": "OK",
      "vis_m": 9999,
      "fzfg": false,
      "metar_trigger": false,
      "taf_trigger": false,
      "metar": "METAR EDLW 202250Z AUTO 05004KT 020V080 9999 // SCT007/// OVC026/// 06/05 Q1022",
      "taf": "TAF EDLW 201700Z 2018/2118 03007KT 9999 SCT040"
    },
    {
      "icao": "EDNY",
      "alert": "OK",
      "vis_m": 9999,
      "fzfg": false,
      "metar_trigger": false,
      "taf_trigger": false,
      "metar": "METAR EDNY 202250Z AUTO 03007KT 9999 // SCT064/// SCT072/// BKN088/// 09/00 Q1017",
      "taf": "TAF EDNY 201700Z 2018/2103 04006KT 9999 FEW045"
    },
    {
      "icao": "EDSB",
      "alert": "OK",
      "vis_m": 9999,
      "fzfg": false,
      "metar_trigger": false,
      "taf_trigger": false,
      "metar": "METAR EDSB 202250Z AUTO 03006KT 9999 // NCD 07/01 Q1019",
      "taf": "TAF EDSB 202300Z 2100/2124 03005KT CAVOK"
    },
    {
      "icao": "EETN",
      "alert": "OK",
      "vis_m": 9999,
      "fzfg": false,
      "metar_trigger": false,
      "taf_trigger": false,
      "metar": "METAR EETN 202250Z VRB01KT CAVOK 02/M02 Q1024",
      "taf": "TAF EETN 202330Z 2100/2124 32006KT CAVOK"
    },
    {
      "icao": "EFTU",
      "alert": "OK",
      "vis_m": 9999,
      "fzfg": false,
      "metar_trigger": false,
      "taf_trigger": false,
      "metar": "METAR EFTU 202250Z AUTO 33004KT CAVOK 02/M05 Q1026",
      "taf": "TAF EFTU 202026Z 2021/2121 32003KT CAVOK"
    },
    {
      "icao": "EGBB",
      "alert": "OK",
      "vis_m": 9999,
      "fzfg": false,
      "metar_trigger": false,
      "taf_trigger": false,
      "metar": "METAR EGBB 202250Z 04006KT CAVOK 06/03 Q1026",
      "taf": "TAF EGBB 202259Z 2100/2124 05006KT 9999 FEW035"
    },
    {
      "icao": "EGGP",
      "alert": "OK",
      "vis_m": 9999,
      "fzfg": false,
      "metar_trigger": false,
      "taf_trigger": false,
      "metar": "METAR EGGP 202250Z 08008KT CAVOK 07/02 Q1027",
      "taf": "TAF EGGP 202301Z 2100/2124 08009KT 9999 FEW040"
    },
    {
      "icao": "EGGW",
      "alert": "OK",
      "vis_m": 9999,
      "fzfg": false,
      "metar_trigger": false,
      "taf_trigger": false,
      "metar": "METAR EGGW 202250Z AUTO 04007KT 9999 NCD 05/03 Q1025",
      "taf": "TAF EGGW 202253Z 2100/2124 03007KT 9999 SCT040"
    },
    {
      "icao": "EGKK",
      "alert": "OK",
      "vis_m": 9999,
      "fzfg": false,
      "metar_trigger": false,
      "taf_trigger": false,
      "metar": "METAR EGKK 202250Z 04008KT CAVOK 07/03 Q1024",
      "taf": "TAF EGKK 202253Z 2100/2206 02009KT 9999 FEW048"
    },
    {
      "icao": "EGNM",
      "alert": "OK",
      "vis_m": 9999,
      "fzfg": false,
      "metar_trigger": false,
      "taf_trigger": false,
      "metar": "METAR EGNM 202250Z 03004KT CAVOK 04/02 Q1028",
      "taf": "TAF EGNM 202300Z 2100/2124 06007KT 9999 FEW030"
    },
    {
      "icao": "EGPD",
      "alert": "OK",
      "vis_m": 9999,
      "fzfg": false,
      "metar_trigger": false,
      "taf_trigger": false,
      "metar": "METAR EGPD 202250Z AUTO 08004KT 9999 SCT008 BKN011 OVC017 07/05 Q1032 TEMPO BKN004",
      "taf": "TAF EGPD 202256Z 2100/2124 09006KT 9999 SCT012"
    },
    {
      "icao": "EGPF",
      "alert": "OK",
      "vis_m": 9999,
      "fzfg": false,
      "metar_trigger": false,
      "taf_trigger": false,
      "metar": "METAR EGPF 202250Z AUTO 06012KT 9999 NCD 07/04 Q1030",
      "taf": "TAF EGPF 202256Z 2100/2124 08010KT 9999 FEW035"
    },
    {
      "icao": "EHBK",
      "alert": "OK",
      "vis_m": 9999,
      "fzfg": false,
      "metar_trigger": false,
      "taf_trigger": false,
      "metar": "METAR EHBK 202255Z AUTO 02008KT 9999 NSC 07/04 Q1021",
      "taf": "TAF EHBK 202249Z 2100/2206 03005KT CAVOK"
    },
    {
      "icao": "EHEH",
      "alert": "OK",
      "vis_m": 9999,
      "fzfg": false,
      "metar_trigger": false,
      "taf_trigger": false,
      "metar": "METAR EHEH 202325Z AUTO 03006KT 360V060 9999 BKN030 OVC034 08/05 Q1022 BLU",
      "taf": "TAF EHEH 201728Z 2018/2124 34005KT CAVOK"
    },
    {
      "icao": "EKBI",
      "alert": "OK",
      "vis_m": 9999,
      "fzfg": false,
      "metar_trigger": false,
      "taf_trigger": false,
      "metar": "METAR EKBI 202250Z AUTO 09003KT 9999 NCD 04/M00 Q1028",
      "taf": "TAF EKBI 202027Z 2021/2121 02004KT CAVOK"
    },
    {
      "icao": "EKCH",
      "alert": "OK",
      "vis_m": 9999,
      "fzfg": false,
      "metar_trigger": false,
      "taf_trigger": false,
      "metar": "METAR EKCH 202250Z AUTO 01003KT 9999 NCD 05/M00 Q1028 NOSIG",
      "taf": "TAF EKCH 202027Z 2021/2121 08006KT CAVOK"
    },
    {
      "icao": "ENAL",
      "alert": "OK",
      "vis_m": 9999,
      "fzfg": false,
      "metar_trigger": false,
      "taf_trigger": false,
      "metar": "METAR ENAL 202320Z AUTO 00000KT 9999 OVC009/// 07/05 Q1034",
      "taf": "TAF ENAL 202300Z 2100/2109 32005KT 9999 BKN012"
    },
    {
      "icao": "ENBR",
      "alert": "OK",
      "vis_m": 9999,
      "fzfg": false,
      "metar_trigger": false,
      "taf_trigger": false,
      "metar": "METAR ENBR 202320Z 11002KT CAVOK 04/01 Q1033 RMK WIND 1200FT 15006KT",
      "taf": "TAF ENBR 202300Z 2100/2124 VRB03KT CAVOK"
    },
    {
      "icao": "ENGM",
      "alert": "OK",
      "vis_m": 9999,
      "fzfg": false,
      "metar_trigger": false,
      "taf_trigger": false,
      "metar": "METAR ENGM 202320Z 36005KT CAVOK 03/M03 Q1031",
      "taf": "TAF ENGM 201700Z 2018/2118 36007KT CAVOK"
    },
    {
      "icao": "ENHD",
      "alert": "OK",
      "vis_m": 9999,
      "fzfg": false,
      "metar_trigger": false,
      "taf_trigger": false,
      "metar": "METAR ENHD 202320Z AUTO 05004KT 010V070 9999 NCD 04/M01 Q1033",
      "taf": "TAF ENHD 201400Z 2015/2022 33008KT CAVOK"
    },
    {
      "icao": "ENTC",
      "alert": "OK",
      "vis_m": 9999,
      "fzfg": false,
      "metar_trigger": false,
      "taf_trigger": false,
      "metar": "METAR ENTC 202320Z 27006KT 9999 BKN028 05/02 Q1027 RMK WIND 2600FT 25023KT",
      "taf": "TAF ENTC 202300Z 2100/2124 28008KT 9999 FEW015 BKN020"
    },
    {
      "icao": "ENTO",
      "alert": "OK",
      "vis_m": 9999,
      "fzfg": false,
      "metar_trigger": false,
      "taf_trigger": false,
      "metar": "METAR ENTO 202320Z AUTO 35007KT 9999 NCD 07/M02 Q1030",
      "taf": "TAF ENTO 202300Z 2100/2124 34008KT CAVOK"
    },
    {
      "icao": "ENVA",
      "alert": "OK",
      "vis_m": 9999,
      "fzfg": false,
      "metar_trigger": false,
      "taf_trigger": false,
      "metar": "METAR ENVA 202320Z AUTO 10005KT 9999 NCD 05/02 Q1033 RMK WIND 670FT 00000KT",
      "taf": "TAF ENVA 202300Z 2100/2124 26005KT CAVOK"
    },
    {
      "icao": "ENZV",
      "alert": "OK",
      "vis_m": 9999,
      "fzfg": false,
      "metar_trigger": false,
      "taf_trigger": false,
      "metar": "METAR ENZV 202320Z AUTO VRB01KT 9999 NCD 04/M01 Q1033",
      "taf": "TAF ENZV 202300Z 2100/2124 VRB03KT CAVOK"
    },
    {
      "icao": "EPGD",
      "alert": "OK",
      "vis_m": 9999,
      "fzfg": false,
      "metar_trigger": false,
      "taf_trigger": false,
      "metar": "METAR EPGD 202330Z 33005KT CAVOK 01/M01 Q1022",
      "taf": "TAF EPGD 202330Z 2100/2124 34010KT CAVOK"
    },
    {
      "icao": "EPKK",
      "alert": "OK",
      "vis_m": 9999,
      "fzfg": false,
      "metar_trigger": false,
      "taf_trigger": false,
      "metar": "METAR EPKK 202330Z 06002KT 9999 OVC068 05/04 Q1016",
      "taf": "TAF EPKK 202330Z 2100/2124 04006KT 9999 BKN030"
    },
    {
      "icao": "EPKT",
      "alert": "OK",
      "vis_m": 9999,
      "fzfg": false,
      "metar_trigger": false,
      "taf_trigger": false,
      "metar": "METAR EPKT 202330Z 06005KT 9999 -RA BKN012 05/02 Q1016",
      "taf": "TAF EPKT 202330Z 2100/2124 06007KT 9999 BKN020"
    },
    {
      "icao": "EPLB",
      "alert": "OK",
      "vis_m": 9999,
      "fzfg": false,
      "metar_trigger": false,
      "taf_trigger": false,
      "metar": "METAR EPLB 202330Z 26003KT CAVOK 04/02 Q1017",
      "taf": "TAF EPLB 202330Z 2100/2124 VRB02KT CAVOK"
    },
    {
      "icao": "EPMO",
      "alert": "OK",
      "vis_m": 9999,
      "fzfg": false,
      "metar_trigger": false,
      "taf_trigger": false,
      "metar": "METAR EPMO 202330Z 01005KT CAVOK 03/M04 Q1019",
      "taf": "TAF EPMO 201730Z 2018/2118 06009KT CAVOK"
    },
    {
      "icao": "EPPO",
      "alert": "OK",
      "vis_m": 9999,
      "fzfg": false,
      "metar_trigger": false,
      "taf_trigger": false,
      "metar": "METAR EPPO 202330Z 03007KT CAVOK 04/M03 Q1020",
      "taf": "TAF EPPO 201730Z 2018/2118 VRB02KT CAVOK"
    },
    {
      "icao": "EPRA",
      "alert": "OK",
      "vis_m": 9999,
      "fzfg": false,
      "metar_trigger": false,
      "taf_trigger": false,
      "metar": "METAR EPRA 202330Z 02004KT 340V050 CAVOK 04/M03 Q1017",
      "taf": "TAF EPRA 202330Z 2100/2109 02004KT CAVOK"
    },
    {
      "icao": "EPRZ",
      "alert": "OK",
      "vis_m": 9999,
      "fzfg": false,
      "metar_trigger": false,
      "taf_trigger": false,
      "metar": "METAR EPRZ 202330Z 03007KT CAVOK 05/04 Q1016",
      "taf": "TAF EPRZ 201730Z 2018/2118 07010KT 9999 BKN020"
    },
    {
      "icao": "EPSC",
      "alert": "OK",
      "vis_m": 9999,
      "fzfg": false,
      "metar_trigger": false,
      "taf_trigger": false,
      "metar": "METAR EPSC 202330Z 36005KT CAVOK 03/M01 Q1023",
      "taf": "TAF EPSC 201730Z 2018/2118 02010KT CAVOK"
    },
    {
      "icao": "EPSY",
      "alert": "OK",
      "vis_m": 9999,
      "fzfg": false,
      "metar_trigger": false,
      "taf_trigger": false,
      "metar": "METAR EPSY 202330Z VRB01KT CAVOK M01/M07 Q1020",
      "taf": "TAF EPSY 202330Z 2100/2109 VRB02KT CAVOK"
    },
    {
      "icao": "EPWA",
      "alert": "OK",
      "vis_m": 9999,
      "fzfg": false,
      "metar_trigger": false,
      "taf_trigger": false,
      "metar": "METAR EPWA 202330Z 04006KT CAVOK 08/M05 Q1018 NOSIG",
      "taf": "TAF EPWA 202330Z 2100/2124 04005KT CAVOK"
    },
    {
      "icao": "EPWR",
      "alert": "OK",
      "vis_m": 9999,
      "fzfg": false,
      "metar_trigger": false,
      "taf_trigger": false,
      "metar": "METAR EPWR 202330Z 04005KT 9999 SCT018 BKN023 07/05 Q1018",
      "taf": "TAF EPWR 202330Z 2100/2124 04008KT 9999 BKN025"
    },
    {
      "icao": "ESGG",
      "alert": "OK",
      "vis_m": 9999,
      "fzfg": false,
      "metar_trigger": false,
      "taf_trigger": false,
      "metar": "METAR ESGG 202250Z 03006KT CAVOK 04/M02 Q1028",
      "taf": "TAF ESGG 202030Z 2021/2121 02004KT CAVOK"
    },
    {
      "icao": "ESKN",
      "alert": "OK",
      "vis_m": 9999,
      "fzfg": false,
      "metar_trigger": false,
      "taf_trigger": false,
      "metar": "METAR ESKN 202250Z 29003KT CAVOK M03/M05 Q1028",
      "taf": "TAF ESKN 202030Z 2021/2121 27004KT CAVOK"
    },
    {
      "icao": "ESMS",
      "alert": "OK",
      "vis_m": 9999,
      "fzfg": false,
      "metar_trigger": false,
      "taf_trigger": false,
      "metar": "METAR ESMS 202250Z 35004KT CAVOK M00/M04 Q1027",
      "taf": "TAF ESMS 202027Z 2021/2121 06005KT CAVOK"
    },
    {
      "icao": "ESSA",
      "alert": "OK",
      "vis_m": 9999,
      "fzfg": false,
      "metar_trigger": false,
      "taf_trigger": false,
      "metar": "METAR ESSA 202250Z 34002KT CAVOK M03/M06 Q1028 NOSIG",
      "taf": "TAF ESSA 202030Z 2021/2121 03005KT CAVOK"
    },
    {
      "icao": "EYKA",
      "alert": "OK",
      "vis_m": 9999,
      "fzfg": false,
      "metar_trigger": false,
      "taf_trigger": false,
      "metar": "METAR EYKA 202250Z AUTO 35005KT 9999 NCD 04/M03 Q1020",
      "taf": "TAF EYKA 202300Z 2100/2124 VRB03KT 9000 NSC"
    },
    {
      "icao": "EYPA",
      "alert": "OK",
      "vis_m": 9999,
      "fzfg": false,
      "metar_trigger": false,
      "taf_trigger": false,
      "metar": "METAR EYPA 202250Z AUTO 03008KT 9999 NCD 02/M05 Q1023",
      "taf": "TAF EYPA 202300Z 2100/2124 VRB03KT 9000 NSC"
    },
    {
      "icao": "EYVI",
      "alert": "OK",
      "vis_m": 9999,
      "fzfg": false,
      "metar_trigger": false,
      "taf_trigger": false,
      "metar": "METAR EYVI 202250Z 35006KT CAVOK 03/M05 Q1018 NOSIG",
      "taf": "TAF EYVI 202300Z 2100/2124 VRB03KT 9000 NSC"
    },
    {
      "icao": "GCFV",
      "alert": "OK",
      "vis_m": 9999,
      "fzfg": false,
      "metar_trigger": false,
      "taf_trigger": false,
      "metar": "METAR GCFV 202330Z AUTO 28008KT CAVOK 19/14 Q1009",
      "taf": "TAF GCFV 202000Z 2021/2121 30017KT 9999 FEW015 BKN025 TX27/2114Z TN19/2106Z"
    },
    {
      "icao": "GCLP",
      "alert": "OK",
      "vis_m": 9999,
      "fzfg": false,
      "metar_trigger": false,
      "taf_trigger": false,
      "metar": "METAR GCLP 202330Z 33004KT 290V040 9999 BKN035 19/15 Q1010 NOSIG",
      "taf": "TAF GCLP 202000Z 2021/2121 36008KT 9999 BKN020 TX23/2114Z TN16/2106Z"
    },
    {
      "icao": "GCTS",
      "alert": "OK",
      "vis_m": 9999,
      "fzfg": false,
      "metar_trigger": false,
      "taf_trigger": false,
      "metar": "METAR GCTS 202330Z 14004KT 9999 SCT030 19/16 Q1010 NOSIG",
      "taf": "TAF GCTS 202000Z 2021/2121 VRB05KT 9999 BKN025 TX26/2114Z TN16/2106Z"
    },
    {
      "icao": "GMAD",
      "alert": "OK",
      "vis_m": 8000,
      "fzfg": false,
      "metar_trigger": false,
      "taf_trigger": false,
      "metar": "METAR GMAD 202330Z 00000KT 8000 NSC 20/14 Q1007 NOSIG",
      "taf": "TAF GMAD 202300Z 2100/2206 24008KT 8000 NSC"
    },
    {
      "icao": "GMMN",
      "alert": "OK",
      "vis_m": 9999,
      "fzfg": false,
      "metar_trigger": false,
      "taf_trigger": false,
      "metar": "METAR GMMN 202330Z 15005KT CAVOK 19/12 Q1008 NOSIG",
      "taf": ""
    },
    {
      "icao": "GMMX",
      "alert": "OK",
      "vis_m": 9999,
      "fzfg": false,
      "metar_trigger": false,
      "taf_trigger": false,
      "metar": "METAR GMMX 202330Z 11008KT 070V150 9999 SCT033 24/09 Q1009 NOSIG",
      "taf": "TAF GMMX 202300Z 2100/2206 12008KT CAVOK"
    },
    {
      "icao": "HEGN",
      "alert": "OK",
      "vis_m": 9999,
      "fzfg": false,
      "metar_trigger": false,
      "taf_trigger": false,
      "metar": "METAR HEGN 202300Z 29006KT CAVOK 20/M03 Q1012 NOSIG",
      "taf": "TAF HEGN 202300Z 2100/2206 29010G20KT CAVOK"
    },
    {
      "icao": "HEMA",
      "alert": "OK",
      "vis_m": 9999,
      "fzfg": false,
      "metar_trigger": false,
      "taf_trigger": false,
      "metar": "METAR HEMA 202300Z 31010KT CAVOK 22/06 Q1010 NOSIG",
      "taf": "TAF HEMA 202300Z 2100/2206 30015KT CAVOK"
    },
    {
      "icao": "HESH",
      "alert": "OK",
      "vis_m": 9999,
      "fzfg": false,
      "metar_trigger": false,
      "taf_trigger": false,
      "metar": "METAR HESH 202300Z 36011KT CAVOK 23/03 Q1010 NOSIG",
      "taf": "TAF HESH 202300Z 2100/2206 33010KT CAVOK"
    },
    {
      "icao": "HESX",
      "alert": "OK",
      "vis_m": 9999,
      "fzfg": false,
      "metar_trigger": false,
      "taf_trigger": false,
      "metar": "METAR HESX 202300Z 34005KT CAVOK 14/10 Q1016 NOSIG",
      "taf": "TAF HESX 202300Z 2100/2206 33008KT CAVOK"
    },
    {
      "icao": "LATI",
      "alert": "OK",
      "vis_m": 9999,
      "fzfg": false,
      "metar_trigger": false,
      "taf_trigger": false,
      "metar": "METAR LATI 202350Z VRB03KT 9999 SCT053 OVC094 13/09 Q1013 NOSIG",
      "taf": "TAF LATI 202300Z 2100/2124 VRB03KT 9999 BKN070 TX23/2111Z TN10/2124Z"
    },
    {
      "icao": "LBPD",
      "alert": "OK",
      "vis_m": 9999,
      "fzfg": false,
      "metar_trigger": false,
      "taf_trigger": false,
      "metar": "METAR LBPD 202330Z AUTO 00000KT 9999 NCD 09/09 Q1011",
      "taf": "TAF LBPD 202300Z 2100/2124 VRB03KT 9999 SCT060"
    },
    {
      "icao": "LBSF",
      "alert": "OK",
      "vis_m": 9999,
      "fzfg": false,
      "metar_trigger": false,
      "taf_trigger": false,
      "metar": "METAR LBSF 202330Z AUTO VRB01KT 9999 FEW048/// 07/04 Q1013 NOSIG",
      "taf": "TAF LBSF 202300Z 2100/2124 VRB04KT 9999 SCT050"
    },
    {
      "icao": "LBWN",
      "alert": "OK",
      "vis_m": 9999,
      "fzfg": false,
      "metar_trigger": false,
      "taf_trigger": false,
      "metar": "METAR LBWN 202330Z AUTO VRB03KT 9999 NCD 11/08 Q1009 NOSIG",
      "taf": "TAF LBWN 202300Z 2100/2124 28010KT 9999 SCT035 BKN045"
    },
    {
      "icao": "LCLK",
      "alert": "OK",
      "vis_m": 9999,
      "fzfg": false,
      "metar_trigger": false,
      "taf_trigger": false,
      "metar": "METAR LCLK 202330Z 24006KT CAVOK 14/08 Q1012 NOSIG",
      "taf": "TAF LCLK 202330Z 2100/2200 31008KT 9999 FEW030"
    },
    {
      "icao": "LCPH",
      "alert": "OK",
      "vis_m": 9999,
      "fzfg": false,
      "metar_trigger": false,
      "taf_trigger": false,
      "metar": "METAR LCPH 202330Z AUTO 01006KT 9999 NCD 12/09 Q1012 NOSIG",
      "taf": "TAF LCPH 202330Z 2100/2200 02007KT 9999 FEW025"
    },
    {
      "icao": "LEAL",
      "alert": "OK",
      "vis_m": 9999,
      "fzfg": false,
      "metar_trigger": false,
      "taf_trigger": false,
      "metar": "METAR LEAL 202330Z VRB02KT CAVOK 15/12 Q1012 NOSIG",
      "taf": "TAF LEAL 202300Z 2100/2124 VRB04KT CAVOK TX25/2112Z TN12/2106Z"
    },
    {
      "icao": "LEBB",
      "alert": "OK",
      "vis_m": 9999,
      "fzfg": false,
      "metar_trigger": false,
      "taf_trigger": false,
      "metar": "METAR LEBB 202330Z AUTO 29003KT 9999 OVC013 16/15 Q1012",
      "taf": "TAF LEBB 202300Z 2100/2124 VRB03KT 9999 FEW010 TX29/2113Z TN12/2106Z"
    },
    {
      "icao": "LEBL",
      "alert": "OK",
      "vis_m": 9999,
      "fzfg": false,
      "metar_trigger": false,
      "taf_trigger": false,
      "metar": "METAR LEBL 202330Z 26005KT 9999 FEW030 15/13 Q1012 NOSIG",
      "taf": "TAF LEBL 202300Z 2100/2124 VRB04KT 9999 FEW030 TX21/2112Z TN13/2106Z"
    },
    {
      "icao": "LECH",
      "alert": "OK",
      "vis_m": 9000,
      "fzfg": false,
      "metar_trigger": false,
      "taf_trigger": false,
      "metar": "METAR LECH 202330Z AUTO 04005KT 9000 NSC 15/10 Q1013",
      "taf": "TAF LECH 202300Z 2100/2124 VRB04KT CAVOK TX27/2113Z TN12/2106Z"
    },
    {
      "icao": "LEMD",
      "alert": "OK",
      "vis_m": 9999,
      "fzfg": false,
      "metar_trigger": false,
      "taf_trigger": false,
      "metar": "METAR LEMD 202330Z 36003KT 330V030 CAVOK 16/06 Q1012 NOSIG",
      "taf": "TAF LEMD 202300Z 2100/2206 VRB04KT CAVOK TX29/2116Z TN11/2106Z"
    },
    {
      "icao": "LEMG",
      "alert": "OK",
      "vis_m": 9999,
      "fzfg": false,
      "metar_trigger": false,
      "taf_trigger": false,
      "metar": "METAR LEMG 202330Z 29006KT CAVOK 14/08 Q1012 NOSIG",
      "taf": "TAF LEMG 202300Z 2100/2124 30006KT CAVOK TX24/2114Z TN12/2106Z"
    },
    {
      "icao": "LEVC",
      "alert": "OK",
      "vis_m": 9999,
      "fzfg": false,
      "metar_trigger": false,
      "taf_trigger": false,
      "metar": "METAR LEVC 202330Z 00000KT CAVOK 17/11 Q1012 NOSIG",
      "taf": "TAF LEVC 202300Z 2100/2124 05009KT CAVOK TX25/2112Z TN13/2106Z"
    },
    {
      "icao": "LEXJ",
      "alert": "OK",
      "vis_m": 7000,
      "fzfg": false,
      "metar_trigger": false,
      "taf_trigger": false,
      "metar": "METAR LEXJ 202330Z AUTO VRB01KT 7000 OVC008 15/13 Q1012",
      "taf": "TAF LEXJ 202000Z 2021/2121 06009KT 9000 FEW010 TX25/2112Z TN13/2106Z"
    },
    {
      "icao": "LEZG",
      "alert": "OK",
      "vis_m": 9999,
      "fzfg": false,
      "metar_trigger": false,
      "taf_trigger": false,
      "metar": "METAR LEZG 202330Z 10004KT 080V140 CAVOK 19/11 Q1011 NOSIG",
      "taf": "TAF LEZG 202300Z 2100/2124 10010KT CAVOK TX31/2115Z TN14/2106Z"
    },
    {
      "icao": "LEZL",
      "alert": "OK",
      "vis_m": 9999,
      "fzfg": false,
      "metar_trigger": false,
      "taf_trigger": false,
      "metar": "METAR LEZL 202330Z AUTO 12003KT CAVOK 17/12 Q1009",
      "taf": "TAF LEZL 202000Z 2021/2121 VRB04KT CAVOK TX32/2115Z TN14/2106Z"
    },
    {
      "icao": "LFBD",
      "alert": "OK",
      "vis_m": 9999,
      "fzfg": false,
      "metar_trigger": false,
      "taf_trigger": false,
      "metar": "METAR LFBD 202300Z AUTO 04006KT CAVOK 16/07 Q1012 NOSIG",
      "taf": "TAF LFBD 202300Z 2100/2206 06010KT CAVOK TX28/2115Z TN12/2105Z"
    },
    {
      "icao": "LFLL",
      "alert": "OK",
      "vis_m": 9999,
      "fzfg": false,
      "metar_trigger": false,
      "taf_trigger": false,
      "metar": "METAR LFLL 202300Z 33005KT CAVOK 11/04 Q1015 NOSIG",
      "taf": "TAF LFLL 202300Z 2100/2206 35006KT CAVOK"
    },
    {
      "icao": "LFLS",
      "alert": "OK",
      "vis_m": 9999,
      "fzfg": false,
      "metar_trigger": false,
      "taf_trigger": false,
      "metar": "METAR LFLS 202300Z AUTO VRB02KT 9999 // NSC 06/04 Q1015",
      "taf": "TAF LFLS 201400Z 2015/2115 35007KT CAVOK"
    },
    {
      "icao": "LFMN",
      "alert": "OK",
      "vis_m": 9999,
      "fzfg": false,
      "metar_trigger": false,
      "taf_trigger": false,
      "metar": "METAR LFMN 202300Z 32006KT 9999 BKN014 16/13 Q1011 NOSIG",
      "taf": ""
    },
    {
      "icao": "LFOB",
      "alert": "OK",
      "vis_m": 9999,
      "fzfg": false,
      "metar_trigger": false,
      "taf_trigger": false,
      "metar": "METAR LFOB 202300Z AUTO 02007KT CAVOK 05/04 Q1021 NOSIG",
      "taf": "TAF LFOB 202300Z 2100/2124 04010KT 9999 SCT045"
    },
    {
      "icao": "LFPO",
      "alert": "OK",
      "vis_m": 9999,
      "fzfg": false,
      "metar_trigger": false,
      "taf_trigger": false,
      "metar": "METAR LFPO 202300Z 04012KT CAVOK 09/02 Q1020 NOSIG",
      "taf": "TAF LFPO 202300Z 2100/2206 04008KT CAVOK"
    },
    {
      "icao": "LFSB",
      "alert": "OK",
      "vis_m": 9999,
      "fzfg": false,
      "metar_trigger": false,
      "taf_trigger": false,
      "metar": "METAR LFSB 202300Z AUTO 32006KT CAVOK 08/02 Q1017 NOSIG",
      "taf": "TAF LFSB 202300Z 2100/2124 34006KT CAVOK"
    },
    {
      "icao": "LGAV",
      "alert": "OK",
      "vis_m": 9999,
      "fzfg": false,
      "metar_trigger": false,
      "taf_trigger": false,
      "metar": "METAR LGAV 202320Z VRB03KT CAVOK 13/08 Q1013 NOSIG",
      "taf": "TAF LGAV 202300Z 2100/2124 VRB05KT 9999 FEW025"
    },
    {
      "icao": "LGTS",
      "alert": "OK",
      "vis_m": 9999,
      "fzfg": false,
      "metar_trigger": false,
      "taf_trigger": false,
      "metar": "METAR LGTS 202322Z 12006KT 9999 FEW025 13/11 Q1012 NOSIG",
      "taf": "TAF LGTS 202300Z 2100/2124 VRB03KT 9999 FEW030"
    },
    {
      "icao": "LHBP",
      "alert": "OK",
      "vis_m": 9999,
      "fzfg": false,
      "metar_trigger": false,
      "taf_trigger": false,
      "metar": "METAR LHBP 202330Z 34003KT CAVOK 04/M01 Q1014 NOSIG",
      "taf": "TAF LHBP 202315Z 2100/2124 33005KT CAVOK"
    },
    {
      "icao": "LHDC",
      "alert": "OK",
      "vis_m": 9999,
      "fzfg": false,
      "metar_trigger": false,
      "taf_trigger": false,
      "metar": "METAR LHDC 202315Z AUTO 01005KT 340V060 CAVOK 08/03 Q1013 NOSIG",
      "taf": "TAF LHDC 202315Z 2100/2109 33006KT CAVOK"
    },
    {
      "icao": "LIBD",
      "alert": "OK",
      "vis_m": 9999,
      "fzfg": false,
      "metar_trigger": false,
      "taf_trigger": false,
      "metar": "METAR LIBD 202320Z AUTO 21007KT 9999 FEW120/// 15/10 Q1011",
      "taf": "TAF LIBD 202300Z 2100/2124 VRB05KT CAVOK"
    },
    {
      "icao": "LIBG",
      "alert": "OK",
      "vis_m": null,
      "fzfg": false,
      "metar_trigger": false,
      "taf_trigger": false,
      "metar": "",
      "taf": "TAF LIBG 201400Z 2015/2024 21010KT 9999 FEW030"
    },
    {
      "icao": "LIBP",
      "alert": "OK",
      "vis_m": 7000,
      "fzfg": false,
      "metar_trigger": false,
      "taf_trigger": false,
      "metar": "METAR LIBP 202250Z AUTO VRB02KT 7000 FEW250/// 13/13 Q1011",
      "taf": "TAF LIBP 202300Z 2100/2124 VRB04KT 9999 FEW040"
    },
    {
      "icao": "LIBR",
      "alert": "OK",
      "vis_m": 9999,
      "fzfg": false,
      "metar_trigger": false,
      "taf_trigger": false,
      "metar": "METAR LIBR 202320Z 17004KT CAVOK 15/14 Q1012",
      "taf": "TAF LIBR 202300Z 2100/2124 22008KT 9999 FEW040"
    },
    {
      "icao": "LICA",
      "alert": "OK",
      "vis_m": 9999,
      "fzfg": false,
      "metar_trigger": false,
      "taf_trigger": false,
      "metar": "METAR LICA 202250Z AUTO VRB02KT 9999 NCD 13/12 Q1015",
      "taf": "TAF LICA 202300Z 2100/2124 VRB05KT 9999 FEW015"
    },
    {
      "icao": "LICC",
      "alert": "OK",
      "vis_m": 9999,
      "fzfg": false,
      "metar_trigger": false,
      "taf_trigger": false,
      "metar": "METAR LICC 202320Z 26006KT CAVOK 14/10 Q1014",
      "taf": "TAF LICC 202300Z 2100/2124 VRB05KT CAVOK"
    },
    {
      "icao": "LICJ",
      "alert": "OK",
      "vis_m": 9999,
      "fzfg": false,
      "metar_trigger": false,
      "taf_trigger": false,
      "metar": "METAR LICJ 202320Z AUTO VRB01KT 9999 NCD 15/13 Q1014",
      "taf": "TAF LICJ 202300Z 2100/2124 18006KT CAVOK"
    },
    {
      "icao": "LIMC",
      "alert": "OK",
      "vis_m": 9999,
      "fzfg": false,
      "metar_trigger": false,
      "taf_trigger": false,
      "metar": "METAR LIMC 202320Z 07003KT 9999 BKN035 13/12 Q1011 NOSIG",
      "taf": "TAF LIMC 202300Z 2100/2206 VRB05KT 9999 SCT025 SCT070"
    },
    {
      "icao": "LIME",
      "alert": "OK",
      "vis_m": 9999,
      "fzfg": false,
      "metar_trigger": false,
      "taf_trigger": false,
      "metar": "METAR LIME 202320Z VRB02KT 9999 SCT045 SCT060 14/10 Q1012 NOSIG",
      "taf": "TAF LIME 202300Z 2100/2124 VRB05KT 9999 FEW040"
    },
    {
      "icao": "LIMF",
      "alert": "OK",
      "vis_m": 9999,
      "fzfg": false,
      "metar_trigger": false,
      "taf_trigger": false,
      "metar": "METAR LIMF 202320Z 30006KT 9999 SCT050 15/10 Q1011",
      "taf": "TAF LIMF 202300Z 2100/2124 VRB05KT CAVOK"
    },
    {
      "icao": "LIMJ",
      "alert": "OK",
      "vis_m": 9999,
      "fzfg": false,
      "metar_trigger": false,
      "taf_trigger": false,
      "metar": "METAR LIMJ 202320Z 13009KT 9999 SCT010 BKN025 17/16 Q1011",
      "taf": "TAF LIMJ 202300Z 2100/2124 VRB06KT 9999 BKN030"
    },
    {
      "icao": "LIPE",
      "alert": "OK",
      "vis_m": 9999,
      "fzfg": false,
      "metar_trigger": false,
      "taf_trigger": false,
      "metar": "METAR LIPE 202320Z 05006KT 360V120 CAVOK 15/13 Q1011",
      "taf": "TAF LIPE 202300Z 2100/2124 08010KT 9999 SCT030"
    },
    {
      "icao": "LIPH",
      "alert": "OK",
      "vis_m": 9999,
      "fzfg": false,
      "metar_trigger": false,
      "taf_trigger": false,
      "metar": "METAR LIPH 202320Z AUTO 04005KT 350V080 9999 BKN060/// 14/11 Q1013",
      "taf": "TAF LIPH 202300Z 2100/2124 VRB05KT 9999 SCT030"
    },
    {
      "icao": "LIPQ",
      "alert": "OK",
      "vis_m": 9999,
      "fzfg": false,
      "metar_trigger": false,
      "taf_trigger": false,
      "metar": "METAR LIPQ 202320Z AUTO 06003KT 040V100 9999 FEW140/// 11/09 Q1013",
      "taf": "TAF LIPQ 202300Z 2100/2124 07012KT 9999 SCT050"
    },
    {
      "icao": "LIPR",
      "alert": "OK",
      "vis_m": 9999,
      "fzfg": false,
      "metar_trigger": false,
      "taf_trigger": false,
      "metar": "METAR LIPR 202320Z AUTO 34007KT 310V020 9999 BKN061/// BKN160/// 16/14 Q1011",
      "taf": "TAF LIPR 202300Z 2100/2124 VRB05KT 9999 SCT040"
    },
    {
      "icao": "LIPX",
      "alert": "OK",
      "vis_m": 9999,
      "fzfg": false,
      "metar_trigger": false,
      "taf_trigger": false,
      "metar": "METAR LIPX 202320Z 11006KT 080V140 9999 SCT050 15/12 Q1012",
      "taf": "TAF LIPX 202300Z 2100/2124 10008KT 9999 FEW040"
    },
    {
      "icao": "LIPY",
      "alert": "OK",
      "vis_m": 9999,
      "fzfg": false,
      "metar_trigger": false,
      "taf_trigger": false,
      "metar": "METAR LIPY 202250Z AUTO 24006KT 9999 FEW250/// 15/12 Q1010",
      "taf": "TAF LIPY 202300Z 2100/2124 VRB05KT 8000 SCT050"
    },
    {
      "icao": "LIPZ",
      "alert": "OK",
      "vis_m": 9999,
      "fzfg": false,
      "metar_trigger": false,
      "taf_trigger": false,
      "metar": "METAR LIPZ 202320Z 05010KT 9999 BKN060 14/11 Q1013 NOSIG",
      "taf": "TAF LIPZ 202300Z 2100/2206 06008KT 9999 SCT020"
    },
    {
      "icao": "LIRF",
      "alert": "OK",
      "vis_m": 9999,
      "fzfg": false,
      "metar_trigger": false,
      "taf_trigger": false,
      "metar": "METAR LIRF 202320Z 14008KT CAVOK 16/15 Q1013 NOSIG",
      "taf": "TAF LIRF 202300Z 2100/2206 17010KT 8000 BKN006"
    },
    {
      "icao": "LIRN",
      "alert": "OK",
      "vis_m": 9999,
      "fzfg": false,
      "metar_trigger": false,
      "taf_trigger": false,
      "metar": "METAR LIRN 202320Z 05002KT CAVOK 14/13 Q1014 NOSIG",
      "taf": "TAF LIRN 202300Z 2100/2124 VRB05KT 9999 FEW020"
    },
    {
      "icao": "LIRP",
      "alert": "OK",
      "vis_m": 9999,
      "fzfg": false,
      "metar_trigger": false,
      "taf_trigger": false,
      "metar": "METAR LIRP 202315Z 14004KT 9999 FEW025 SCT070 13/12 Q1012 NOSIG",
      "taf": "TAF LIRP 202300Z 2100/2124 10003KT 9999 FEW040 SCT060"
    },
    {
      "icao": "LIRZ",
      "alert": "OK",
      "vis_m": 9999,
      "fzfg": false,
      "metar_trigger": false,
      "taf_trigger": false,
      "metar": "METAR LIRZ 202250Z AUTO 23003KT 200V260 9999 BKN052/// BKN093/// 15/10 Q1013",
      "taf": "TAF LIRZ 201700Z 2018/2118 VRB05KT 9999 SCT050"
    },
    {
      "icao": "LJLJ",
      "alert": "OK",
      "vis_m": 3000,
      "fzfg": false,
      "metar_trigger": false,
      "taf_trigger": false,
      "metar": "METAR LJLJ 202330Z 00000KT 3000 1500SE BR FEW001 BKN005 08/08 Q1015 NOSIG",
      "taf": "TAF LJLJ 202300Z 2100/2200 19003KT 8000 FEW001 SCT025"
    },
    {
      "icao": "LKMT",
      "alert": "OK",
      "vis_m": 9999,
      "fzfg": false,
      "metar_trigger": false,
      "taf_trigger": false,
      "metar": "METAR LKMT 202300Z 35004KT 9999 -SHRA BKN018 OVC022 07/06 Q1015 NOSIG",
      "taf": "TAF LKMT 202300Z 2100/2124 02004KT 8000 -RA BKN025"
    },
    {
      "icao": "LKPR",
      "alert": "OK",
      "vis_m": 9999,
      "fzfg": false,
      "metar_trigger": false,
      "taf_trigger": false,
      "metar": "METAR LKPR 202300Z 32007KT 9999 OVC010 04/03 Q1017 NOSIG",
      "taf": "TAF LKPR 202300Z 2100/2206 34008KT 9999 SCT012 BKN025"
    },
    {
      "icao": "LLBG",
      "alert": "OK",
      "vis_m": 9999,
      "fzfg": false,
      "metar_trigger": false,
      "taf_trigger": false,
      "metar": "METAR LLBG 202350Z 16005KT 9999 SCT022 16/12 Q1013 NOSIG",
      "taf": "TAF LLBG 202304Z 2100/2124 15005KT 9999 SCT025 TX21/2110Z TN13/2103Z"
    },
    {
      "icao": "LMML",
      "alert": "OK",
      "vis_m": 9999,
      "fzfg": false,
      "metar_trigger": false,
      "taf_trigger": false,
      "metar": "METAR LMML 202245Z 16005KT 9999 BKN004 15/14 Q1015 NOSIG",
      "taf": "TAF LMML 202300Z 2100/2124 18005KT 9999 FEW012"
    },
    {
      "icao": "LOWW",
      "alert": "OK",
      "vis_m": 9999,
      "fzfg": false,
      "metar_trigger": false,
      "taf_trigger": false,
      "metar": "METAR LOWW 202320Z 35005KT 9999 FEW050 08/03 Q1016 NOSIG",
      "taf": "TAF LOWW 202315Z 2100/2206 36008KT 9999 FEW030 TX12/2114Z TN05/2204Z"
    },
    {
      "icao": "LPFR",
      "alert": "OK",
      "vis_m": 9999,
      "fzfg": false,
      "metar_trigger": false,
      "taf_trigger": false,
      "metar": "METAR LPFR 202330Z 08007KT CAVOK 20/11 Q1008",
      "taf": "TAF LPFR 202300Z 2100/2124 08007KT CAVOK"
    },
    {
      "icao": "LPMA",
      "alert": "OK",
      "vis_m": 9999,
      "fzfg": false,
      "metar_trigger": false,
      "taf_trigger": false,
      "metar": "METAR LPMA 202330Z 35009KT 280V030 9999 SCT015 19/12 Q1005",
      "taf": "TAF LPMA 202300Z 2100/2124 VRB05KT 9999 SCT015"
    },
    {
      "icao": "LPPR",
      "alert": "OK",
      "vis_m": 9999,
      "fzfg": false,
      "metar_trigger": false,
      "taf_trigger": false,
      "metar": "METAR LPPR 202330Z 11008KT CAVOK 20/10 Q1006",
      "taf": "TAF LPPR 202300Z 2100/2124 08008KT CAVOK"
    },
    {
      "icao": "LPPS",
      "alert": "OK",
      "vis_m": 9999,
      "fzfg": false,
      "metar_trigger": false,
      "taf_trigger": false,
      "metar": "METAR LPPS 202330Z 29019KT 9999 SCT010 17/15 Q1006",
      "taf": "TAF LPPS 202300Z 2100/2206 29015KT 9999 SCT015"
    },
    {
      "icao": "LPPT",
      "alert": "OK",
      "vis_m": 9999,
      "fzfg": false,
      "metar_trigger": false,
      "taf_trigger": false,
      "metar": "METAR LPPT 202330Z 06006KT CAVOK 20/13 Q1007",
      "taf": "TAF LPPT 202300Z 2100/2206 06007KT CAVOK"
    },
    {
      "icao": "LQBK",
      "alert": "OK",
      "vis_m": 8000,
      "fzfg": false,
      "metar_trigger": false,
      "taf_trigger": false,
      "metar": "METAR LQBK 202300Z 03001KT 8000 RA SCT017 BKN040 10/08 Q1016 NOSIG",
      "taf": ""
    },
    {
      "icao": "LQSA",
      "alert": "OK",
      "vis_m": 9999,
      "fzfg": false,
      "metar_trigger": false,
      "taf_trigger": false,
      "metar": "METAR LQSA 202300Z VRB02KT 9999 FEW006 BKN020 10/09 Q1013",
      "taf": "TAF LQSA 202300Z 2100/2124 35006KT 9999 SCT050 TX14/2114Z TN06/2105Z"
    },
    {
      "icao": "LQTZ",
      "alert": "OK",
      "vis_m": 9999,
      "fzfg": false,
      "metar_trigger": false,
      "taf_trigger": false,
      "metar": "METAR LQTZ 202300Z 32003KT 270V350 9999 -RA BKN035 09/09 Q1016",
      "taf": "TAF LQTZ 201700Z 2018/2118 06007KT 9999 BKN045 TX16/2113Z TN06/2104Z"
    },
    {
      "icao": "LRBC",
      "alert": "OK",
      "vis_m": 9999,
      "fzfg": false,
      "metar_trigger": false,
      "taf_trigger": false,
      "metar": "METAR LRBC 202330Z 34014KT 9999 -RA OVC012 05/03 Q1013",
      "taf": "TAF LRBC 202300Z 2100/2109 35012KT 9999 BKN010 BKN045"
    },
    {
      "icao": "LRBS",
      "alert": "OK",
      "vis_m": 9999,
      "fzfg": false,
      "metar_trigger": false,
      "taf_trigger": false,
      "metar": "METAR LRBS 202330Z 07001KT CAVOK 10/08 Q1010 NOSIG",
      "taf": "TAF LRBS 202300Z 2100/2124 VRB04KT CAVOK"
    },
    {
      "icao": "LRBV",
      "alert": "OK",
      "vis_m": 9999,
      "fzfg": false,
      "metar_trigger": false,
      "taf_trigger": false,
      "metar": "METAR LRBV 202330Z AUTO 20001KT 9999 OVC065/// 08/05 Q1011",
      "taf": "TAF LRBV 201700Z 2018/2103 28008KT 9999 SCT060"
    },
    {
      "icao": "LRCL",
      "alert": "OK",
      "vis_m": 9999,
      "fzfg": false,
      "metar_trigger": false,
      "taf_trigger": false,
      "metar": "METAR LRCL 202330Z VRB01KT CAVOK 07/06 Q1011",
      "taf": "TAF LRCL 202300Z 2100/2109 VRB04KT CAVOK"
    },
    {
      "icao": "LRCV",
      "alert": "OK",
      "vis_m": 9999,
      "fzfg": false,
      "metar_trigger": false,
      "taf_trigger": false,
      "metar": "METAR LRCV 202330Z 27008KT CAVOK 10/05 Q1011",
      "taf": "TAF LRCV 202300Z 2100/2109 28010KT CAVOK"
    },
    {
      "icao": "LRIA",
      "alert": "OK",
      "vis_m": 9999,
      "fzfg": false,
      "metar_trigger": false,
      "taf_trigger": false,
      "metar": "METAR LRIA 202330Z 34011KT 9999 -RA BKN009 OVC028 05/03 Q1013",
      "taf": "TAF LRIA 202300Z 2100/2109 35010KT 9999 BKN010 BKN035"
    },
    {
      "icao": "LROP",
      "alert": "OK",
      "vis_m": 9999,
      "fzfg": false,
      "metar_trigger": false,
      "taf_trigger": false,
      "metar": "METAR LROP 202330Z 00000KT CAVOK 11/07 Q1010 NOSIG",
      "taf": "TAF LROP 202300Z 2100/2124 VRB04KT CAVOK"
    },
    {
      "icao": "LRSB",
      "alert": "OK",
      "vis_m": 9999,
      "fzfg": false,
      "metar_trigger": false,
      "taf_trigger": false,
      "metar": "METAR LRSB 202330Z 24003KT 210V270 9999 SCT065 09/03 Q1011",
      "taf": "TAF LRSB 202300Z 2100/2124 VRB04KT CAVOK"
    },
    {
      "icao": "LRSM",
      "alert": "OK",
      "vis_m": 9999,
      "fzfg": false,
      "metar_trigger": false,
      "taf_trigger": false,
      "metar": "METAR LRSM 202330Z AUTO 26006KT 9999 NCD 04/02 Q1012",
      "taf": "TAF LRSM 201400Z 2015/2024 32008KT 9999 BKN045"
    },
    {
      "icao": "LRSV",
      "alert": "OK",
      "vis_m": 9999,
      "fzfg": false,
      "metar_trigger": false,
      "taf_trigger": false,
      "metar": "METAR LRSV 202330Z 36006KT 9999 -RA BKN004 BKN035 03/03 Q1013",
      "taf": "TAF LRSV 202300Z 2100/2109 01008KT 5000 -RA BR BKN005 BKN025"
    },
    {
      "icao": "LRTM",
      "alert": "OK",
      "vis_m": 9999,
      "fzfg": false,
      "metar_trigger": false,
      "taf_trigger": false,
      "metar": "METAR LRTM 202330Z VRB03KT 9999 -RA FEW025 SCT038 08/07 Q1011",
      "taf": "TAF LRTM 202300Z 2100/2109 VRB04KT 9999 SCT035"
    },
    {
      "icao": "LRTR",
      "alert": "OK",
      "vis_m": 9999,
      "fzfg": false,
      "metar_trigger": false,
      "taf_trigger": false,
      "metar": "METAR LRTR 202330Z 29007KT CAVOK 07/07 Q1013 NOSIG",
      "taf": "TAF LRTR 202300Z 2100/2124 28008KT CAVOK"
    },
    {
      "icao": "LTAC",
      "alert": "OK",
      "vis_m": 9999,
      "fzfg": false,
      "metar_trigger": false,
      "taf_trigger": false,
      "metar": "METAR LTAC 202320Z 31002KT CAVOK 04/01 Q1013 NOSIG RMK RWY21C 00000KT RWY03L 00000KT RWY21R 00000KT RWY03R 00000KT RWY21L 11002KT",
      "taf": "TAF LTAC 202240Z 2100/2124 VRB02KT CAVOK"
    },
    {
      "icao": "LTFM",
      "alert": "OK",
      "vis_m": 9999,
      "fzfg": false,
      "metar_trigger": false,
      "taf_trigger": false,
      "metar": "METAR LTFM 202320Z 18006KT CAVOK 11/M00 Q1011 NOSIG RMK RWY17L 21010KT RWY34L 24003KT 200V310 RWY16R 22004KT RWY36 21008KT RWY18 22009KT",
      "taf": "TAF LTFM 202240Z 2100/2206 22012KT CAVOK"
    },
    {
      "icao": "LUKK",
      "alert": "OK",
      "vis_m": 9999,
      "fzfg": false,
      "metar_trigger": false,
      "taf_trigger": false,
      "metar": "METAR LUKK 202330Z 02010KT 9999 -SHRA SCT008 BKN012CB OVC038 05/04 Q1011 NOSIG",
      "taf": "TAF LUKK 202308Z 2100/2124 35009KT 9999 BKN012"
    },
    {
      "icao": "LWOH",
      "alert": "OK",
      "vis_m": null,
      "fzfg": false,
      "metar_trigger": false,
      "taf_trigger": false,
      "metar": "",
      "taf": "TAF LWOH 202015Z 2021/2121 18006KT 9999 FEW050 SCT100"
    },
    {
      "icao": "LWSK",
      "alert": "OK",
      "vis_m": 9999,
      "fzfg": false,
      "metar_trigger": false,
      "taf_trigger": false,
      "metar": "METAR LWSK 202250Z VRB02KT CAVOK 08/06 Q1013 NOSIG",
      "taf": "TAF LWSK 202015Z 2021/2121 VRB02KT 9999 FEW050 SCT100"
    },
    {
      "icao": "LYBE",
      "alert": "OK",
      "vis_m": 9999,
      "fzfg": false,
      "metar_trigger": false,
      "taf_trigger": false,
      "metar": "METAR LYBE 202300Z 31002KT CAVOK 09/07 Q1014 NOSIG",
      "taf": "TAF LYBE 201700Z 2018/2118 25006KT 9999 SCT040 TX15/2114Z TN08/2104Z"
    },
    {
      "icao": "LYNI",
      "alert": "OK",
      "vis_m": 9999,
      "fzfg": false,
      "metar_trigger": false,
      "taf_trigger": false,
      "metar": "METAR LYNI 202300Z 32007KT 300V360 9999 -RA BKN040 OVC070 11/09 Q1014 NOSIG",
      "taf": "TAF LYNI 201700Z 2018/2118 25004KT 9999 SCT060 TX12/2113Z TN05/2104Z"
    },
    {
      "icao": "LYPG",
      "alert": "OK",
      "vis_m": 9999,
      "fzfg": false,
      "metar_trigger": false,
      "taf_trigger": false,
      "metar": "METAR LYPG 202300Z 00000KT 9999 FEW017 SCT090 13/12 Q1013 NOSIG",
      "taf": "TAF LYPG 201700Z 2018/2118 32005KT 9999 SCT030 SCT080 TX20/2113Z TN12/2104Z"
    },
    {
      "icao": "LZIB",
      "alert": "OK",
      "vis_m": 9999,
      "fzfg": false,
      "metar_trigger": false,
      "taf_trigger": false,
      "metar": "METAR LZIB 202330Z 31009KT CAVOK 09/03 Q1015 NOSIG",
      "taf": "TAF LZIB 202315Z 2100/2200 34006KT 9999 FEW030"
    },
    {
      "icao": "LZKZ",
      "alert": "OK",
      "vis_m": 9999,
      "fzfg": false,
      "metar_trigger": false,
      "taf_trigger": false,
      "metar": "METAR LZKZ 202330Z 01011KT 9999 SCT040 07/03 Q1013 NOSIG",
      "taf": "TAF LZKZ 202315Z 2100/2200 02015KT 9999 SCT033"
    },
    {
      "icao": "LZTT",
      "alert": "OK",
      "vis_m": 9999,
      "fzfg": false,
      "metar_trigger": false,
      "taf_trigger": false,
      "metar": "METAR LZTT 202330Z 04011KT 9999 -RA FEW013 BKN033 03/02 Q1013",
      "taf": "TAF LZTT 202315Z 2100/2200 06008KT 9999 FEW016 BKN033"
    },
    {
      "icao": "OEJN",
      "alert": "OK",
      "vis_m": 9999,
      "fzfg": false,
      "metar_trigger": false,
      "taf_trigger": false,
      "metar": "METAR OEJN 202300Z 01005KT CAVOK 27/17 Q1006 NOSIG",
      "taf": "TAF OEJN 202300Z 2100/2206 36005KT CAVOK"
    },
    {
      "icao": "OEMA",
      "alert": "OK",
      "vis_m": 9999,
      "fzfg": false,
      "metar_trigger": false,
      "taf_trigger": false,
      "metar": "METAR OEMA 202300Z 21006KT 9999 FEW040 28/13 Q1010 NOSIG",
      "taf": "TAF OEMA 202300Z 2100/2206 VRB03KT 9999 FEW040"
    },
    {
      "icao": "OJAI",
      "alert": "OK",
      "vis_m": 4000,
      "fzfg": false,
      "metar_trigger": false,
      "taf_trigger": false,
      "metar": "METAR OJAI 202300Z 26003KT 4000 BR NSC 08/07 Q1015 NOSIG",
      "taf": "TAF OJAI 202250Z 2100/2206 VRB02KT 4000 BR NSC"
    },
    {
      "icao": "OMAA",
      "alert": "OK",
      "vis_m": null,
      "fzfg": false,
      "metar_trigger": false,
      "taf_trigger": false,
      "metar": "",
      "taf": ""
    },
    {
      "icao": "OMDB",
      "alert": "OK",
      "vis_m": null,
      "fzfg": false,
      "metar_trigger": false,
      "taf_trigger": false,
      "metar": "",
      "taf": ""
    },
    {
      "icao": "UAAA",
      "alert": "OK",
      "vis_m": 9999,
      "fzfg": false,
      "metar_trigger": false,
      "taf_trigger": false,
      "metar": "METAR UAAA 202300Z 19002MPS 9999 NSC 05/03 Q1012 NOSIG",
      "taf": "TAF UAAA 202302Z 2100/2124 04002G07MPS 9999 FEW050CB SCT100 TX22/2109Z TN04/2101Z"
    },
    {
      "icao": "UBBB",
      "alert": "OK",
      "vis_m": 9999,
      "fzfg": false,
      "metar_trigger": false,
      "taf_trigger": false,
      "metar": "METAR UBBB 202330Z 34014KT 9999 SCT060CB 12/08 Q1012 NOSIG",
      "taf": "TAF UBBB 202302Z 2100/2124 34016KT 9999 FEW040CB BKN040 TX12/2110Z TN09/2100Z"
    },
    {
      "icao": "UDSG",
      "alert": "OK",
      "vis_m": 9999,
      "fzfg": false,
      "metar_trigger": false,
      "taf_trigger": false,
      "metar": "METAR UDSG 202330Z 11005KT 9999 BKN033CB 04/03 Q1010 NOSIG",
      "taf": "TAF UDSG 202258Z 2100/2124 06006KT 9999 BKN040"
    },
    {
      "icao": "UDYZ",
      "alert": "OK",
      "vis_m": 9999,
      "fzfg": false,
      "metar_trigger": false,
      "taf_trigger": false,
      "metar": "METAR UDYZ 202330Z 32003KT 9999 BKN043CB 09/08 Q1008 NOSIG",
      "taf": "TAF UDYZ 202300Z 2100/2124 16006KT 9999 BKN040"
    },
    {
      "icao": "UGKO",
      "alert": "OK",
      "vis_m": 9999,
      "fzfg": false,
      "metar_trigger": false,
      "taf_trigger": false,
      "metar": "METAR UGKO 202330Z VRB02KT 9999 SCT006 OVC062 09/08 Q1014 NOSIG",
      "taf": "TAF UGKO 202300Z 2100/2124 26006KT 9999 SCT023 BKN050 TX19/2110Z TN07/2103Z"
    }
  ]
}