{
  "ts_utc": "2026-05-15T21:19:30Z",
  "threshold_m": 150,
  "source": "stations_override.txt (ICAO list) + aviationweather.gov (METAR/TAF raw)",
  "station_count": 159,
  "stations": [
    {
      "icao": "BIKF",
      "alert": "OK",
      "vis_m": 9999,
      "fzfg": false,
      "metar_trigger": false,
      "taf_trigger": false,
      "metar": "METAR BIKF 152100Z 12023KT 9999 -RA BKN011 OVC020 08/06 Q1001",
      "taf": "TAF BIKF 151943Z 1521/1621 13026G36KT 9999 -RA BKN009 OVC020 TX07/1600Z TN06/1609Z"
    },
    {
      "icao": "BKPR",
      "alert": "OK",
      "vis_m": 9999,
      "fzfg": false,
      "metar_trigger": false,
      "taf_trigger": false,
      "metar": "METAR BKPR 152100Z 17005KT 120V250 CAVOK 13/08 Q1008 NOSIG",
      "taf": "TAF BKPR 151730Z 1518/1618 24008KT 9999 SCT050"
    },
    {
      "icao": "EBCI",
      "alert": "OK",
      "vis_m": 9999,
      "fzfg": false,
      "metar_trigger": false,
      "taf_trigger": false,
      "metar": "METAR EBCI 152050Z VRB02KT CAVOK 06/03 Q1008 NOSIG",
      "taf": "TAF EBCI 151700Z 1518/1624 32007KT 9999 FEW020TCU SCT040"
    },
    {
      "icao": "EDDB",
      "alert": "OK",
      "vis_m": 9999,
      "fzfg": false,
      "metar_trigger": false,
      "taf_trigger": false,
      "metar": "METAR EDDB 152050Z AUTO 27004KT CAVOK 10/05 Q1002 NOSIG",
      "taf": "TAF EDDB 151700Z 1518/1618 27005KT CAVOK"
    },
    {
      "icao": "EDDH",
      "alert": "OK",
      "vis_m": 9999,
      "fzfg": false,
      "metar_trigger": false,
      "taf_trigger": false,
      "metar": "METAR EDDH 152050Z AUTO 23004KT CAVOK 06/05 Q1002 NOSIG",
      "taf": "TAF EDDH 151700Z 1518/1624 24007KT 9999 SCT030"
    },
    {
      "icao": "EDDK",
      "alert": "OK",
      "vis_m": 9999,
      "fzfg": false,
      "metar_trigger": false,
      "taf_trigger": false,
      "metar": "METAR EDDK 152050Z AUTO 26007KT 230V290 9999 -SHRA BKN030 FEW///TCU 08/06 Q1006 NOSIG",
      "taf": "TAF EDDK 151700Z 1518/1624 30008KT 9999 SCT035"
    },
    {
      "icao": "EDDN",
      "alert": "OK",
      "vis_m": 9999,
      "fzfg": false,
      "metar_trigger": false,
      "taf_trigger": false,
      "metar": "METAR EDDN 152050Z AUTO VRB02KT CAVOK 06/04 Q1004",
      "taf": "TAF EDDN 151700Z 1518/1618 30006KT 9999 SCT040"
    },
    {
      "icao": "EDDS",
      "alert": "OK",
      "vis_m": 9999,
      "fzfg": false,
      "metar_trigger": false,
      "taf_trigger": false,
      "metar": "METAR EDDS 152050Z AUTO 24004KT CAVOK 07/04 Q1005",
      "taf": "TAF EDDS 151700Z 1518/1618 30005KT 9999 SCT035"
    },
    {
      "icao": "EDFH",
      "alert": "OK",
      "vis_m": 9999,
      "fzfg": false,
      "metar_trigger": false,
      "taf_trigger": false,
      "metar": "METAR EDFH 152050Z VRB02KT 9999 FEW023 SCT027 BKN033 05/04 Q1005",
      "taf": "TAF EDFH 151700Z 1518/1618 29005KT 9999 SCT035"
    },
    {
      "icao": "EDJA",
      "alert": "OK",
      "vis_m": 9999,
      "fzfg": false,
      "metar_trigger": false,
      "taf_trigger": false,
      "metar": "METAR EDJA 152050Z 23008KT 9999 -RA BKN022 BKN039 OVC049 06/04 Q1005",
      "taf": "TAF EDJA 151700Z 1518/1603 26006KT 9999 SCT030"
    },
    {
      "icao": "EDLW",
      "alert": "OK",
      "vis_m": 9999,
      "fzfg": false,
      "metar_trigger": false,
      "taf_trigger": false,
      "metar": "METAR EDLW 152050Z 23004KT 9999 FEW025 BKN047 07/06 Q1005",
      "taf": "TAF EDLW 151700Z 1518/1618 23010KT 9999 SCT040"
    },
    {
      "icao": "EDNY",
      "alert": "OK",
      "vis_m": 9999,
      "fzfg": false,
      "metar_trigger": false,
      "taf_trigger": false,
      "metar": "METAR EDNY 152050Z AUTO 26007KT 230V300 9999 // SCT031/// BKN056/// OVC067/// 07/04 Q1006",
      "taf": ""
    },
    {
      "icao": "EDSB",
      "alert": "OK",
      "vis_m": 9999,
      "fzfg": false,
      "metar_trigger": false,
      "taf_trigger": false,
      "metar": "METAR EDSB 152050Z 25004KT 220V280 CAVOK 09/06 Q1006",
      "taf": "TAF EDSB 151700Z 1518/1618 17004KT 9999 FEW045"
    },
    {
      "icao": "EETN",
      "alert": "OK",
      "vis_m": 9999,
      "fzfg": false,
      "metar_trigger": false,
      "taf_trigger": false,
      "metar": "METAR EETN 152050Z 00000KT CAVOK 10/04 Q1004 NOSIG",
      "taf": "TAF EETN 151730Z 1518/1618 08010KT CAVOK"
    },
    {
      "icao": "EFTU",
      "alert": "OK",
      "vis_m": 9999,
      "fzfg": false,
      "metar_trigger": false,
      "taf_trigger": false,
      "metar": "METAR EFTU 152050Z AUTO 32004KT 300V360 CAVOK 11/06 Q1005",
      "taf": "TAF EFTU 152032Z 1521/1621 34003KT CAVOK"
    },
    {
      "icao": "EGBB",
      "alert": "OK",
      "vis_m": 9999,
      "fzfg": false,
      "metar_trigger": false,
      "taf_trigger": false,
      "metar": "METAR EGBB 152050Z 31008KT CAVOK 08/M01 Q1009",
      "taf": "TAF EGBB 151655Z 1518/1618 33012KT 9999 SCT040"
    },
    {
      "icao": "EGGP",
      "alert": "OK",
      "vis_m": 9999,
      "fzfg": false,
      "metar_trigger": false,
      "taf_trigger": false,
      "metar": "METAR EGGP 152050Z 29012KT 9999 -SHRA FEW033 SCT039 09/02 Q1009",
      "taf": "TAF EGGP 151653Z 1518/1618 32010KT 9999 SCT040"
    },
    {
      "icao": "EGGW",
      "alert": "OK",
      "vis_m": 9999,
      "fzfg": false,
      "metar_trigger": false,
      "taf_trigger": false,
      "metar": "METAR EGGW 152050Z AUTO 33003KT 310V010 9999 NCD 09/M01 Q1008",
      "taf": "TAF EGGW 151655Z 1518/1618 35012KT 9999 FEW040"
    },
    {
      "icao": "EGKK",
      "alert": "OK",
      "vis_m": 9999,
      "fzfg": false,
      "metar_trigger": false,
      "taf_trigger": false,
      "metar": "METAR EGKK 152050Z VRB02KT CAVOK 09/07 Q1008",
      "taf": "TAF EGKK 151701Z 1518/1624 31010KT 9999 FEW045"
    },
    {
      "icao": "EGNM",
      "alert": "OK",
      "vis_m": 9999,
      "fzfg": false,
      "metar_trigger": false,
      "taf_trigger": false,
      "metar": "METAR EGNM 152050Z 27009KT 9999 FEW025 08/03 Q1007",
      "taf": "TAF EGNM 151653Z 1518/1618 31011KT 9999 FEW035"
    },
    {
      "icao": "EGPD",
      "alert": "OK",
      "vis_m": 9999,
      "fzfg": false,
      "metar_trigger": false,
      "taf_trigger": false,
      "metar": "METAR EGPD 152050Z AUTO 31011KT 9999 NCD 06/02 Q1005",
      "taf": "TAF EGPD 151702Z 1518/1618 33018G30KT 9999 FEW025 SCT035"
    },
    {
      "icao": "EGPF",
      "alert": "OK",
      "vis_m": 9999,
      "fzfg": false,
      "metar_trigger": false,
      "taf_trigger": false,
      "metar": "METAR EGPF 152050Z AUTO 27005KT 250V310 9999 NCD 08/01 Q1007",
      "taf": ""
    },
    {
      "icao": "EHBK",
      "alert": "OK",
      "vis_m": 9999,
      "fzfg": false,
      "metar_trigger": false,
      "taf_trigger": false,
      "metar": "METAR EHBK 152055Z AUTO 27003KT 210V320 9999 FEW015CB 07/05 Q1007 REDZ NOSIG",
      "taf": "TAF EHBK 151720Z 1518/1624 27007KT 9999 BKN035"
    },
    {
      "icao": "EHEH",
      "alert": "OK",
      "vis_m": 9999,
      "fzfg": false,
      "metar_trigger": false,
      "taf_trigger": false,
      "metar": "METAR EHEH 152055Z AUTO VRB02KT 9999 BKN095 BKN130 BKN200 06/05 Q1007 BLU NOSIG RMK TREND REMOTE BY EHWX",
      "taf": "TAF EHEH 151755Z 1518/1624 27006KT 9999 SCT030"
    },
    {
      "icao": "EKBI",
      "alert": "OK",
      "vis_m": 9999,
      "fzfg": false,
      "metar_trigger": false,
      "taf_trigger": false,
      "metar": "METAR EKBI 152050Z AUTO 17006KT 140V200 9999 -RA FEW007/// BKN029/// OVC086/// 07/07 Q0998",
      "taf": "TAF EKBI 152027Z 1521/1621 19011KT 9999 BKN012"
    },
    {
      "icao": "EKCH",
      "alert": "OK",
      "vis_m": 9999,
      "fzfg": false,
      "metar_trigger": false,
      "taf_trigger": false,
      "metar": "METAR EKCH 152050Z AUTO 22006KT 9999 FEW059/// BKN072/// 10/05 Q1001 NOSIG",
      "taf": "TAF EKCH 152027Z 1521/1621 15013KT 9999 SCT030"
    },
    {
      "icao": "ENAL",
      "alert": "OK",
      "vis_m": 9999,
      "fzfg": false,
      "metar_trigger": false,
      "taf_trigger": false,
      "metar": "METAR ENAL 152050Z 06009KT 9999 FEW060 09/02 Q0999",
      "taf": "TAF ENAL 152000Z 1521/1606 11010KT 9999 FEW060"
    },
    {
      "icao": "ENBR",
      "alert": "OK",
      "vis_m": 9999,
      "fzfg": false,
      "metar_trigger": false,
      "taf_trigger": false,
      "metar": "METAR ENBR 152050Z 06006KT CAVOK 11/M00 Q0997 RMK WIND 1200FT 09009KT",
      "taf": "TAF ENBR 151700Z 1518/1618 12005KT 9999 SCT050"
    },
    {
      "icao": "ENGM",
      "alert": "OK",
      "vis_m": 9999,
      "fzfg": false,
      "metar_trigger": false,
      "taf_trigger": false,
      "metar": "METAR ENGM 152050Z 36005KT 9999 SCT039 04/03 Q1002 NOSIG",
      "taf": "TAF ENGM 151700Z 1518/1618 02008KT 9999 FEW020 SCT040"
    },
    {
      "icao": "ENHD",
      "alert": "OK",
      "vis_m": 9999,
      "fzfg": false,
      "metar_trigger": false,
      "taf_trigger": false,
      "metar": "METAR ENHD 152050Z AUTO 11008KT 9999 OVC042/// 10/03 Q0996",
      "taf": "TAF ENHD 151400Z 1515/1522 11008KT 9999 BKN040"
    },
    {
      "icao": "ENTC",
      "alert": "OK",
      "vis_m": 9999,
      "fzfg": false,
      "metar_trigger": false,
      "taf_trigger": false,
      "metar": "METAR ENTC 152050Z 19013KT 9999 FEW068 10/03 Q1005 RMK WIND 2600FT 18033KT",
      "taf": "TAF ENTC 151700Z 1518/1618 18015KT CAVOK"
    },
    {
      "icao": "ENTO",
      "alert": "OK",
      "vis_m": 9999,
      "fzfg": false,
      "metar_trigger": false,
      "taf_trigger": false,
      "metar": "METAR ENTO 152050Z 07004KT 040V110 CAVOK 08/05 Q1000 NOSIG",
      "taf": "TAF ENTO 151700Z 1518/1618 15010KT 9999 SCT030"
    },
    {
      "icao": "ENVA",
      "alert": "OK",
      "vis_m": 9999,
      "fzfg": false,
      "metar_trigger": false,
      "taf_trigger": false,
      "metar": "METAR ENVA 152050Z 13007KT CAVOK 10/03 Q1002 RMK WIND 670FT 16011KT",
      "taf": "TAF ENVA 151700Z 1518/1618 13012KT 9999 FEW050"
    },
    {
      "icao": "ENZV",
      "alert": "OK",
      "vis_m": 9999,
      "fzfg": false,
      "metar_trigger": false,
      "taf_trigger": false,
      "metar": "METAR ENZV 152050Z 32002KT 9999 SCT036 BKN045 08/06 Q0996",
      "taf": ""
    },
    {
      "icao": "EPGD",
      "alert": "OK",
      "vis_m": 9999,
      "fzfg": false,
      "metar_trigger": false,
      "taf_trigger": false,
      "metar": "METAR EPGD 152100Z 35004KT 9999 -RA BKN007 09/08 Q1001",
      "taf": ""
    },
    {
      "icao": "EPKK",
      "alert": "OK",
      "vis_m": 9999,
      "fzfg": false,
      "metar_trigger": false,
      "taf_trigger": false,
      "metar": "METAR EPKK 152100Z 20003KT 180V250 9999 -RA BKN053 12/08 Q1003",
      "taf": "TAF EPKK 152030Z 1521/1621 VRB02KT CAVOK"
    },
    {
      "icao": "EPKT",
      "alert": "OK",
      "vis_m": 9999,
      "fzfg": false,
      "metar_trigger": false,
      "taf_trigger": false,
      "metar": "METAR EPKT 152100Z 28001KT 9999 3500N MIFG NSC 08/07 Q1002",
      "taf": "TAF EPKT 151730Z 1518/1618 24008KT CAVOK"
    },
    {
      "icao": "EPLB",
      "alert": "OK",
      "vis_m": 9999,
      "fzfg": false,
      "metar_trigger": false,
      "taf_trigger": false,
      "metar": "METAR EPLB 152100Z 12001KT CAVOK 10/08 Q1003",
      "taf": "TAF EPLB 151730Z 1518/1618 18005KT CAVOK"
    },
    {
      "icao": "EPMO",
      "alert": "OK",
      "vis_m": 9999,
      "fzfg": false,
      "metar_trigger": false,
      "taf_trigger": false,
      "metar": "METAR EPMO 152100Z 17005KT CAVOK 10/09 Q1002",
      "taf": "TAF EPMO 151730Z 1518/1618 VRB04KT CAVOK"
    },
    {
      "icao": "EPPO",
      "alert": "OK",
      "vis_m": 200,
      "fzfg": false,
      "metar_trigger": false,
      "taf_trigger": false,
      "metar": "METAR EPPO 152100Z VRB01KT 0200 R28/P2000D FG VV001 06/06 Q1002",
      "taf": ""
    },
    {
      "icao": "EPRA",
      "alert": "OK",
      "vis_m": 9999,
      "fzfg": false,
      "metar_trigger": false,
      "taf_trigger": false,
      "metar": "METAR EPRA 152100Z 17006KT CAVOK 10/09 Q1002",
      "taf": "TAF EPRA 152030Z 1521/1606 20010KT CAVOK"
    },
    {
      "icao": "EPRZ",
      "alert": "OK",
      "vis_m": 9999,
      "fzfg": false,
      "metar_trigger": false,
      "taf_trigger": false,
      "metar": "METAR EPRZ 152100Z 17003KT CAVOK 13/09 Q1002",
      "taf": "TAF EPRZ 151730Z 1518/1618 18005KT CAVOK"
    },
    {
      "icao": "EPSC",
      "alert": "OK",
      "vis_m": 9000,
      "fzfg": false,
      "metar_trigger": false,
      "taf_trigger": false,
      "metar": "METAR EPSC 152100Z 07001KT 9000 0900SE BCFG NSC 05/05 Q1002",
      "taf": ""
    },
    {
      "icao": "EPSY",
      "alert": "OK",
      "vis_m": 9999,
      "fzfg": false,
      "metar_trigger": false,
      "taf_trigger": false,
      "metar": "METAR EPSY 152100Z VRB01KT CAVOK 08/08 Q1001",
      "taf": "TAF EPSY 152030Z 1521/1606 17005KT CAVOK"
    },
    {
      "icao": "EPWA",
      "alert": "OK",
      "vis_m": 9999,
      "fzfg": false,
      "metar_trigger": false,
      "taf_trigger": false,
      "metar": "METAR EPWA 152100Z 18003KT CAVOK 11/08 Q1002 NOSIG",
      "taf": "TAF EPWA 152030Z 1521/1621 VRB04KT CAVOK"
    },
    {
      "icao": "EPWR",
      "alert": "OK",
      "vis_m": 9999,
      "fzfg": false,
      "metar_trigger": false,
      "taf_trigger": false,
      "metar": "METAR EPWR 152100Z VRB01KT 9999 MIFG NSC 10/09 Q1002",
      "taf": "TAF EPWR 152030Z 1521/1621 VRB02KT CAVOK"
    },
    {
      "icao": "ESGG",
      "alert": "OK",
      "vis_m": 9999,
      "fzfg": false,
      "metar_trigger": false,
      "taf_trigger": false,
      "metar": "METAR ESGG 152050Z 11004KT CAVOK 08/03 Q1000",
      "taf": "TAF ESGG 152030Z 1521/1621 11005KT CAVOK"
    },
    {
      "icao": "ESKN",
      "alert": "OK",
      "vis_m": 9999,
      "fzfg": false,
      "metar_trigger": false,
      "taf_trigger": false,
      "metar": "METAR ESKN 152050Z 31004KT 9999 -DZ NSC 08/07 Q1003",
      "taf": "TAF ESKN 152030Z 1521/1621 VRB03KT 9999 -RADZ SCT045"
    },
    {
      "icao": "ESMS",
      "alert": "OK",
      "vis_m": 9999,
      "fzfg": false,
      "metar_trigger": false,
      "taf_trigger": false,
      "metar": "METAR ESMS 152050Z 17005KT CAVOK 05/03 Q1001",
      "taf": "TAF ESMS 152027Z 1521/1621 17007KT 9999 SCT025"
    },
    {
      "icao": "ESSA",
      "alert": "OK",
      "vis_m": 9999,
      "fzfg": false,
      "metar_trigger": false,
      "taf_trigger": false,
      "metar": "METAR ESSA 152050Z 07007KT CAVOK 08/05 Q1004 NOSIG",
      "taf": "TAF ESSA 152030Z 1521/1621 08007KT CAVOK"
    },
    {
      "icao": "EYKA",
      "alert": "OK",
      "vis_m": 9999,
      "fzfg": false,
      "metar_trigger": false,
      "taf_trigger": false,
      "metar": "METAR EYKA 152050Z 08007KT CAVOK 12/06 Q1002",
      "taf": "TAF EYKA 151701Z 1518/1618 VRB03KT 9000 NSC"
    },
    {
      "icao": "EYPA",
      "alert": "OK",
      "vis_m": 9999,
      "fzfg": false,
      "metar_trigger": false,
      "taf_trigger": false,
      "metar": "METAR EYPA 152050Z 11008KT CAVOK 17/06 Q1000",
      "taf": ""
    },
    {
      "icao": "EYVI",
      "alert": "OK",
      "vis_m": 9999,
      "fzfg": false,
      "metar_trigger": false,
      "taf_trigger": false,
      "metar": "METAR EYVI 152050Z VRB01KT CAVOK 08/06 Q1003 NOSIG",
      "taf": "TAF EYVI 151701Z 1518/1618 VRB03KT CAVOK"
    },
    {
      "icao": "GCFV",
      "alert": "OK",
      "vis_m": 9999,
      "fzfg": false,
      "metar_trigger": false,
      "taf_trigger": false,
      "metar": "METAR GCFV 152100Z 01016KT 9999 FEW030 19/12 Q1019",
      "taf": "TAF GCFV 152000Z 1521/1621 02020KT 9999 SCT035 TX24/1614Z TN17/1606Z"
    },
    {
      "icao": "GCLP",
      "alert": "OK",
      "vis_m": 9999,
      "fzfg": false,
      "metar_trigger": false,
      "taf_trigger": false,
      "metar": "METAR GCLP 152100Z 36022G34KT 9999 FEW030 19/10 Q1019 NOSIG",
      "taf": "TAF GCLP 152000Z 1521/1621 02022KT 9999 SCT030 TX23/1614Z TN17/1606Z"
    },
    {
      "icao": "GCTS",
      "alert": "OK",
      "vis_m": 9999,
      "fzfg": false,
      "metar_trigger": false,
      "taf_trigger": false,
      "metar": "METAR GCTS 152100Z 07004KT 030V110 9999 BKN040 19/11 Q1020 NOSIG",
      "taf": "TAF GCTS 152000Z 1521/1621 VRB06KT 9999 SCT035 TX23/1614Z TN15/1606Z"
    },
    {
      "icao": "GMAD",
      "alert": "OK",
      "vis_m": 9999,
      "fzfg": false,
      "metar_trigger": false,
      "taf_trigger": false,
      "metar": "METAR GMAD 152100Z 28007KT CAVOK 20/07 Q1011 NOSIG",
      "taf": "TAF GMAD 151700Z 1518/1624 26019KT 8000 FEW033"
    },
    {
      "icao": "GMMN",
      "alert": "OK",
      "vis_m": 9999,
      "fzfg": false,
      "metar_trigger": false,
      "taf_trigger": false,
      "metar": "METAR GMMN 152100Z 35007KT 320V020 9999 SCT020 15/11 Q1016 NOSIG",
      "taf": "TAF GMMN 151700Z 1518/1624 32012KT 9999 BKN030"
    },
    {
      "icao": "GMMX",
      "alert": "OK",
      "vis_m": 6000,
      "fzfg": false,
      "metar_trigger": false,
      "taf_trigger": false,
      "metar": "METAR GMMX 152100Z 22008KT 6000 -RA SCT003 BKN016 FEW030CB 15/12 Q1016 TEMPO 1500 SHRA",
      "taf": "TAF GMMX 151700Z 1518/1624 24006KT 8000 SCT023 SCT080"
    },
    {
      "icao": "HEGN",
      "alert": "OK",
      "vis_m": 9999,
      "fzfg": false,
      "metar_trigger": false,
      "taf_trigger": false,
      "metar": "METAR HEGN 152000Z 33019KT CAVOK 30/03 Q1009 NOSIG",
      "taf": "TAF HEGN 151700Z 1518/1624 32015KT CAVOK"
    },
    {
      "icao": "HEMA",
      "alert": "OK",
      "vis_m": 9999,
      "fzfg": false,
      "metar_trigger": false,
      "taf_trigger": false,
      "metar": "METAR HEMA 152000Z 33008KT CAVOK 28/05 Q1008 NOSIG",
      "taf": "TAF HEMA 151700Z 1518/1624 30015KT CAVOK"
    },
    {
      "icao": "HESH",
      "alert": "OK",
      "vis_m": 9999,
      "fzfg": false,
      "metar_trigger": false,
      "taf_trigger": false,
      "metar": "METAR HESH 152000Z 00000KT CAVOK 28/09 Q1006 NOSIG",
      "taf": "TAF HESH 151700Z 1518/1624 35014KT CAVOK"
    },
    {
      "icao": "HESX",
      "alert": "OK",
      "vis_m": 9999,
      "fzfg": false,
      "metar_trigger": false,
      "taf_trigger": false,
      "metar": "METAR HESX 152000Z 34008KT CAVOK 21/10 Q1013 NOSIG",
      "taf": "TAF HESX 151700Z 1518/1624 32010KT CAVOK"
    },
    {
      "icao": "LATI",
      "alert": "OK",
      "vis_m": null,
      "fzfg": false,
      "metar_trigger": false,
      "taf_trigger": false,
      "metar": "",
      "taf": "TAF LATI 151700Z 1518/1618 22010KT CAVOK TX20/1612Z TN15/1604Z"
    },
    {
      "icao": "LBPD",
      "alert": "OK",
      "vis_m": 9999,
      "fzfg": false,
      "metar_trigger": false,
      "taf_trigger": false,
      "metar": "METAR LBPD 152100Z AUTO VRB01KT 9999 FEW110/// 16/11 Q1007",
      "taf": "TAF LBPD 151700Z 1518/1618 12010KT 9999 SCT070"
    },
    {
      "icao": "LBSF",
      "alert": "OK",
      "vis_m": 9999,
      "fzfg": false,
      "metar_trigger": false,
      "taf_trigger": false,
      "metar": "METAR LBSF 152100Z AUTO 09011KT 9999 NSC 14/09 Q1008 NOSIG",
      "taf": "TAF LBSF 151700Z 1518/1618 12010KT 9999 SCT060"
    },
    {
      "icao": "LBWN",
      "alert": "OK",
      "vis_m": 9999,
      "fzfg": false,
      "metar_trigger": false,
      "taf_trigger": false,
      "metar": "METAR LBWN 152100Z AUTO 10006KT 9999 NCD 12/12 Q1008 NOSIG",
      "taf": "TAF LBWN 151700Z 1518/1618 10010KT 9999 SCT045"
    },
    {
      "icao": "LCLK",
      "alert": "OK",
      "vis_m": 9999,
      "fzfg": false,
      "metar_trigger": false,
      "taf_trigger": false,
      "metar": "METAR LCLK 152100Z 17004KT 140V200 CAVOK 18/14 Q1007 NOSIG",
      "taf": "TAF LCLK 151730Z 1518/1618 21010KT 9999 FEW030"
    },
    {
      "icao": "LCPH",
      "alert": "OK",
      "vis_m": 9999,
      "fzfg": false,
      "metar_trigger": false,
      "taf_trigger": false,
      "metar": "METAR LCPH 152100Z 33009KT 9999 SCT015 BKN020 19/17 Q1009 NOSIG",
      "taf": "TAF LCPH 151730Z 1518/1618 29016KT 9999 SCT014"
    },
    {
      "icao": "LEAL",
      "alert": "OK",
      "vis_m": 9999,
      "fzfg": false,
      "metar_trigger": false,
      "taf_trigger": false,
      "metar": "METAR LEAL 152100Z 28004KT CAVOK 13/10 Q1012 NOSIG",
      "taf": "TAF LEAL 151700Z 1518/1618 30006KT 9999 FEW015 TX23/1612Z TN11/1606Z"
    },
    {
      "icao": "LEBB",
      "alert": "OK",
      "vis_m": 9999,
      "fzfg": false,
      "metar_trigger": false,
      "taf_trigger": false,
      "metar": "METAR LEBB 152100Z 26004KT 220V310 9999 VCSH FEW028TCU SCT065 11/07 Q1016 NOSIG",
      "taf": "TAF LEBB 151700Z 1518/1618 31009KT 9999 FEW020 BKN040 TX18/1615Z TN07/1603Z"
    },
    {
      "icao": "LEBL",
      "alert": "OK",
      "vis_m": 9999,
      "fzfg": false,
      "metar_trigger": false,
      "taf_trigger": false,
      "metar": "METAR LEBL 152100Z 16005KT 090V250 9999 FEW020 15/10 Q1010 NOSIG",
      "taf": ""
    },
    {
      "icao": "LECH",
      "alert": "OK",
      "vis_m": 9000,
      "fzfg": false,
      "metar_trigger": false,
      "taf_trigger": false,
      "metar": "METAR LECH 152100Z AUTO 33020G41KT 290V020 9000 NCD 13/01 Q1010",
      "taf": "TAF LECH 151700Z 1518/1618 33010KT CAVOK TX22/1614Z TN07/1606Z"
    },
    {
      "icao": "LEMD",
      "alert": "OK",
      "vis_m": 9999,
      "fzfg": false,
      "metar_trigger": false,
      "taf_trigger": false,
      "metar": "METAR LEMD 152100Z 33004KT 300V360 CAVOK 10/01 Q1014 NOSIG",
      "taf": "TAF LEMD 151700Z 1518/1624 34010KT 9999 SCT030 TX21/1616Z TN05/1605Z"
    },
    {
      "icao": "LEMG",
      "alert": "OK",
      "vis_m": 9999,
      "fzfg": false,
      "metar_trigger": false,
      "taf_trigger": false,
      "metar": "METAR LEMG 152100Z 29006KT CAVOK 18/09 Q1012 NOSIG",
      "taf": "TAF LEMG 151700Z 1518/1618 29012KT 9999 FEW040 TX23/1614Z TN16/1607Z"
    },
    {
      "icao": "LEVC",
      "alert": "OK",
      "vis_m": 9999,
      "fzfg": false,
      "metar_trigger": false,
      "taf_trigger": false,
      "metar": "METAR LEVC 152100Z 29005KT CAVOK 14/02 Q1012 NOSIG",
      "taf": "TAF LEVC 151700Z 1518/1618 27008KT 9999 SCT050 TX23/1612Z TN09/1606Z"
    },
    {
      "icao": "LEXJ",
      "alert": "OK",
      "vis_m": 8000,
      "fzfg": false,
      "metar_trigger": false,
      "taf_trigger": false,
      "metar": "METAR LEXJ 152100Z 23006KT 200V290 8000 SCT041 BKN070 11/07 Q1017",
      "taf": "TAF LEXJ 152000Z 1521/1621 28009KT 9999 SCT020 BKN045 TX17/1614Z TN10/1606Z"
    },
    {
      "icao": "LEZG",
      "alert": "OK",
      "vis_m": 9999,
      "fzfg": false,
      "metar_trigger": false,
      "taf_trigger": false,
      "metar": "METAR LEZG 152100Z 30010KT 270V330 CAVOK 11/05 Q1014 NOSIG",
      "taf": "TAF LEZG 151700Z 1518/1618 32020KT 9999 FEW030 TX18/1618Z TN08/1605Z"
    },
    {
      "icao": "LEZL",
      "alert": "OK",
      "vis_m": 9999,
      "fzfg": false,
      "metar_trigger": false,
      "taf_trigger": false,
      "metar": "METAR LEZL 152100Z 18007KT 150V210 CAVOK 20/12 Q1012 NOSIG",
      "taf": "TAF LEZL 152000Z 1521/1621 20010KT CAVOK TX30/1615Z TN14/1607Z"
    },
    {
      "icao": "LFBD",
      "alert": "OK",
      "vis_m": 9999,
      "fzfg": false,
      "metar_trigger": false,
      "taf_trigger": false,
      "metar": "METAR LFBD 152100Z AUTO 26005KT CAVOK 10/06 Q1013 NOSIG",
      "taf": "TAF LFBD 151700Z 1518/1624 33010KT 9999 SCT040 TX16/1614Z TN07/1601Z"
    },
    {
      "icao": "LFLL",
      "alert": "OK",
      "vis_m": 9999,
      "fzfg": false,
      "metar_trigger": false,
      "taf_trigger": false,
      "metar": "METAR LFLL 152100Z 00000KT 9999 FEW050 07/05 Q1008 NOSIG",
      "taf": "TAF LFLL 151700Z 1518/1624 32004KT 9999 FEW025 SCT040"
    },
    {
      "icao": "LFLS",
      "alert": "OK",
      "vis_m": 9999,
      "fzfg": false,
      "metar_trigger": false,
      "taf_trigger": false,
      "metar": "METAR LFLS 152100Z AUTO VRB02KT 9999 FEW049 SCT074 BKN090 06/04 Q1008",
      "taf": "TAF LFLS 151400Z 1515/1615 36010KT 9999 SCT025TCU BKN035"
    },
    {
      "icao": "LFMN",
      "alert": "OK",
      "vis_m": 9999,
      "fzfg": false,
      "metar_trigger": false,
      "taf_trigger": false,
      "metar": "METAR LFMN 152100Z 07010KT 9999 FEW033 16/07 Q1000 NOSIG",
      "taf": "TAF LFMN 152000Z 1521/1703 07016KT CAVOK"
    },
    {
      "icao": "LFOB",
      "alert": "OK",
      "vis_m": 9999,
      "fzfg": false,
      "metar_trigger": false,
      "taf_trigger": false,
      "metar": "METAR LFOB 152100Z AUTO 28003KT CAVOK 07/06 Q1009 TEMPO 4000 -SHRA SCT020TCU",
      "taf": "TAF LFOB 151700Z 1518/1618 32008KT 9999 SCT030"
    },
    {
      "icao": "LFPO",
      "alert": "OK",
      "vis_m": 9999,
      "fzfg": false,
      "metar_trigger": false,
      "taf_trigger": false,
      "metar": "METAR LFPO 152100Z AUTO 31003KT 9999 FEW035 BKN130 BKN160 09/07 Q1009 NOSIG",
      "taf": "TAF LFPO 151700Z 1518/1624 32006KT 9999 BKN040"
    },
    {
      "icao": "LFSB",
      "alert": "OK",
      "vis_m": 9999,
      "fzfg": false,
      "metar_trigger": false,
      "taf_trigger": false,
      "metar": "METAR LFSB 152100Z AUTO 22004KT 9999 ///TCU 05/04 Q1007 BECMG FEW030 BKN060",
      "taf": ""
    },
    {
      "icao": "LGAV",
      "alert": "OK",
      "vis_m": 9999,
      "fzfg": false,
      "metar_trigger": false,
      "taf_trigger": false,
      "metar": "METAR LGAV 152050Z VRB01KT 9999 FEW030 18/13 Q1010 NOSIG",
      "taf": "TAF LGAV 151700Z 1518/1618 20010KT 9999 FEW025"
    },
    {
      "icao": "LGTS",
      "alert": "OK",
      "vis_m": 9999,
      "fzfg": false,
      "metar_trigger": false,
      "taf_trigger": false,
      "metar": "METAR LGTS 152050Z VRB03KT 9999 FEW025 16/15 Q1008 NOSIG",
      "taf": "TAF LGTS 151700Z 1518/1618 VRB03KT 9999 FEW030"
    },
    {
      "icao": "LHBP",
      "alert": "OK",
      "vis_m": 9999,
      "fzfg": false,
      "metar_trigger": false,
      "taf_trigger": false,
      "metar": "METAR LHBP 152100Z 11005KT 070V140 CAVOK 12/11 Q1003 NOSIG",
      "taf": "TAF LHBP 151715Z 1518/1618 11005KT 9999 -RA NSC"
    },
    {
      "icao": "LHDC",
      "alert": "OK",
      "vis_m": 9999,
      "fzfg": false,
      "metar_trigger": false,
      "taf_trigger": false,
      "metar": "METAR LHDC 152045Z AUTO 12007KT 9999 BKN074 //////CB 14/12 Q1004 RERA",
      "taf": "TAF LHDC 151415Z 1515/1524 18011KT CAVOK"
    },
    {
      "icao": "LIBD",
      "alert": "OK",
      "vis_m": 9999,
      "fzfg": false,
      "metar_trigger": false,
      "taf_trigger": false,
      "metar": "METAR LIBD 152050Z 18011G21KT CAVOK 19/14 Q1003",
      "taf": "TAF LIBD 151700Z 1518/1618 19013KT 9999 SCT040"
    },
    {
      "icao": "LIBG",
      "alert": "OK",
      "vis_m": null,
      "fzfg": false,
      "metar_trigger": false,
      "taf_trigger": false,
      "metar": "",
      "taf": "TAF LIBG 151400Z 1515/1524 16014KT 9999 FEW040"
    },
    {
      "icao": "LIBP",
      "alert": "OK",
      "vis_m": 9999,
      "fzfg": false,
      "metar_trigger": false,
      "taf_trigger": false,
      "metar": "METAR LIBP 152050Z AUTO 22010KT 9999 BKN092/// 19/08 Q1001",
      "taf": "TAF LIBP 151700Z 1518/1618 22015KT 9999 FEW020 SCT070"
    },
    {
      "icao": "LIBR",
      "alert": "OK",
      "vis_m": 9999,
      "fzfg": false,
      "metar_trigger": false,
      "taf_trigger": false,
      "metar": "METAR LIBR 152050Z 18016KT 9999 BKN025 19/15 Q1005",
      "taf": "TAF LIBR 151700Z 1518/1618 19015KT 9999 FEW040"
    },
    {
      "icao": "LICA",
      "alert": "OK",
      "vis_m": 9999,
      "fzfg": false,
      "metar_trigger": false,
      "taf_trigger": false,
      "metar": "METAR LICA 152050Z AUTO 05005KT 9999 BKN065/// 18/15 Q1006",
      "taf": "TAF LICA 151700Z 1518/1618 08006KT 9999 SCT025"
    },
    {
      "icao": "LICC",
      "alert": "OK",
      "vis_m": 9999,
      "fzfg": false,
      "metar_trigger": false,
      "taf_trigger": false,
      "metar": "METAR LICC 152050Z 26013KT CAVOK 21/15 Q1007",
      "taf": "TAF LICC 151700Z 1518/1618 10010KT 9999 SCT050"
    },
    {
      "icao": "LICJ",
      "alert": "OK",
      "vis_m": 9999,
      "fzfg": false,
      "metar_trigger": false,
      "taf_trigger": false,
      "metar": "METAR LICJ 152050Z 20013KT CAVOK 20/14 Q1006",
      "taf": "TAF LICJ 151700Z 1518/1618 20012KT 9999 SCT040"
    },
    {
      "icao": "LIMC",
      "alert": "OK",
      "vis_m": 9999,
      "fzfg": false,
      "metar_trigger": false,
      "taf_trigger": false,
      "metar": "METAR LIMC 152050Z 13003KT 9999 SCT020 10/09 Q1001 NOSIG",
      "taf": "TAF LIMC 151700Z 1518/1624 VRB05KT 9999 SCT050"
    },
    {
      "icao": "LIME",
      "alert": "OK",
      "vis_m": 9999,
      "fzfg": false,
      "metar_trigger": false,
      "taf_trigger": false,
      "metar": "METAR LIME 152050Z 24003KT 210V270 9999 SCT015 SCT025 11/08 Q1001 NOSIG",
      "taf": "TAF LIME 151700Z 1518/1618 12007KT 9999 SCT040"
    },
    {
      "icao": "LIMF",
      "alert": "OK",
      "vis_m": 9999,
      "fzfg": false,
      "metar_trigger": false,
      "taf_trigger": false,
      "metar": "METAR LIMF 152050Z 19002KT 9999 SCT025 SCT100 10/07 Q1001",
      "taf": "TAF LIMF 151700Z 1518/1618 VRB05KT 9999 SCT040"
    },
    {
      "icao": "LIMJ",
      "alert": "OK",
      "vis_m": 9999,
      "fzfg": false,
      "metar_trigger": false,
      "taf_trigger": false,
      "metar": "METAR LIMJ 152050Z AUTO 04005KT 9999 DZ OVC056/// 11/10 Q1001",
      "taf": "TAF LIMJ 151700Z 1518/1618 03012KT 9999 FEW015 BKN040"
    },
    {
      "icao": "LIPE",
      "alert": "OK",
      "vis_m": 8000,
      "fzfg": false,
      "metar_trigger": false,
      "taf_trigger": false,
      "metar": "METAR LIPE 152050Z 07003KT 8000 -DZ BKN010 BKN030 11/11 Q1001",
      "taf": "TAF LIPE 151700Z 1518/1618 VRB05KT 7000 BKN040"
    },
    {
      "icao": "LIPH",
      "alert": "OK",
      "vis_m": 9999,
      "fzfg": false,
      "metar_trigger": false,
      "taf_trigger": false,
      "metar": "METAR LIPH 152050Z VRB02KT 9999 FEW040 10/10 Q1001",
      "taf": "TAF LIPH 151700Z 1518/1618 VRB06KT 7000 SCT010 BKN045"
    },
    {
      "icao": "LIPQ",
      "alert": "OK",
      "vis_m": 9999,
      "fzfg": false,
      "metar_trigger": false,
      "taf_trigger": false,
      "metar": "METAR LIPQ 152050Z AUTO 04003KT 9999 BKN160/// BKN190/// 10/10 Q1001",
      "taf": "TAF LIPQ 151700Z 1518/1618 04008KT 8000 SCT020 BKN060"
    },
    {
      "icao": "LIPR",
      "alert": "OK",
      "vis_m": 9999,
      "fzfg": false,
      "metar_trigger": false,
      "taf_trigger": false,
      "metar": "METAR LIPR 152050Z AUTO VRB02KT 9999 BKN130/// 13/12 Q1001",
      "taf": "TAF LIPR 151700Z 1518/1618 20010KT 8000 SCT040"
    },
    {
      "icao": "LIPX",
      "alert": "OK",
      "vis_m": 9999,
      "fzfg": false,
      "metar_trigger": false,
      "taf_trigger": false,
      "metar": "METAR LIPX 152050Z 11002KT 9999 -RA FEW030 BKN060 10/10 Q1001",
      "taf": "TAF LIPX 151700Z 1518/1618 VRB05KT 9999 BKN030"
    },
    {
      "icao": "LIPY",
      "alert": "OK",
      "vis_m": 9999,
      "fzfg": false,
      "metar_trigger": false,
      "taf_trigger": false,
      "metar": "METAR LIPY 152050Z AUTO 18004KT 9999 -RA OVC065/// 14/13 Q1002",
      "taf": "TAF LIPY 151700Z 1518/1618 34007KT 9999 BKN060"
    },
    {
      "icao": "LIPZ",
      "alert": "OK",
      "vis_m": 9999,
      "fzfg": false,
      "metar_trigger": false,
      "taf_trigger": false,
      "metar": "METAR LIPZ 152050Z 33004KT 310V010 9999 FEW065 10/10 Q1001 NOSIG",
      "taf": "TAF LIPZ 151700Z 1518/1624 02007KT 9999 BKN040"
    },
    {
      "icao": "LIRF",
      "alert": "OK",
      "vis_m": 9000,
      "fzfg": false,
      "metar_trigger": false,
      "taf_trigger": false,
      "metar": "METAR LIRF 152050Z 24010KT 9000 RA FEW010 SCT050 14/13 Q1003 RESHRA NOSIG",
      "taf": "TAF LIRF 151700Z 1518/1624 24012KT 9999 BKN030"
    },
    {
      "icao": "LIRN",
      "alert": "OK",
      "vis_m": 9999,
      "fzfg": false,
      "metar_trigger": false,
      "taf_trigger": false,
      "metar": "METAR LIRN 152050Z 19008KT 150V210 9999 FEW025 19/15 Q1004 NOSIG",
      "taf": "TAF LIRN 151700Z 1518/1618 21012KT 9999 BKN035"
    },
    {
      "icao": "LIRP",
      "alert": "OK",
      "vis_m": 9999,
      "fzfg": false,
      "metar_trigger": false,
      "taf_trigger": false,
      "metar": "METAR LIRP 152045Z 25010KT 9999 FEW033 14/09 Q1002 NOSIG",
      "taf": "TAF LIRP 151700Z 1518/1618 25010KT 9999 SCT020 SCT080"
    },
    {
      "icao": "LIRZ",
      "alert": "OK",
      "vis_m": 9999,
      "fzfg": false,
      "metar_trigger": false,
      "taf_trigger": false,
      "metar": "METAR LIRZ 152050Z AUTO 19002KT 9999 -RA BKN027/// 12/11 Q1002",
      "taf": "TAF LIRZ 151700Z 1518/1618 20012KT 9999 BKN030"
    },
    {
      "icao": "LJLJ",
      "alert": "OK",
      "vis_m": 9999,
      "fzfg": false,
      "metar_trigger": false,
      "taf_trigger": false,
      "metar": "METAR LJLJ 152100Z 30006KT 9999 -RA FEW003 BKN055 07/06 Q1001 BECMG NSW",
      "taf": "TAF LJLJ 151700Z 1518/1618 VRB02KT 9999 RA OVC030"
    },
    {
      "icao": "LKMT",
      "alert": "OK",
      "vis_m": 9999,
      "fzfg": false,
      "metar_trigger": false,
      "taf_trigger": false,
      "metar": "METAR LKMT 152100Z VRB02KT CAVOK 07/07 Q1003 NOSIG",
      "taf": "TAF LKMT 151700Z 1518/1618 22006KT 9999 SCT035"
    },
    {
      "icao": "LKPR",
      "alert": "OK",
      "vis_m": 9999,
      "fzfg": false,
      "metar_trigger": false,
      "taf_trigger": false,
      "metar": "METAR LKPR 152100Z 36004KT 330V040 9999 FEW036 10/06 Q1002 NOSIG",
      "taf": "TAF LKPR 152000Z 1521/1703 34006KT CAVOK"
    },
    {
      "icao": "LLBG",
      "alert": "OK",
      "vis_m": 9999,
      "fzfg": false,
      "metar_trigger": false,
      "taf_trigger": false,
      "metar": "METAR LLBG 152050Z 30010KT 9999 SCT022 20/15 Q1011 NOSIG",
      "taf": "TAF LLBG 151703Z 1518/1618 28006KT 9999 SCT025 TX24/1610Z TN18/1604Z"
    },
    {
      "icao": "LMML",
      "alert": "OK",
      "vis_m": 9999,
      "fzfg": false,
      "metar_trigger": false,
      "taf_trigger": false,
      "metar": "METAR LMML 152115Z 17006KT CAVOK 20/14 Q1008 NOSIG",
      "taf": "TAF LMML 151700Z 1518/1618 VRB05KT 9999 FEW013"
    },
    {
      "icao": "LOWW",
      "alert": "OK",
      "vis_m": 9999,
      "fzfg": false,
      "metar_trigger": false,
      "taf_trigger": false,
      "metar": "METAR LOWW 152050Z VRB02KT 9999 -RADZ FEW013 BKN050 11/10 Q1002 TEMPO RA",
      "taf": "TAF LOWW 152015Z 1521/1703 VRB04KT 9999 -RA FEW020 BKN040 TX10/1521Z TN09/1703Z"
    },
    {
      "icao": "LPFR",
      "alert": "OK",
      "vis_m": 9999,
      "fzfg": false,
      "metar_trigger": false,
      "taf_trigger": false,
      "metar": "METAR LPFR 152100Z 29010KT CAVOK 18/11 Q1014",
      "taf": "TAF LPFR 151700Z 1518/1618 32013KT CAVOK"
    },
    {
      "icao": "LPMA",
      "alert": "OK",
      "vis_m": 9999,
      "fzfg": false,
      "metar_trigger": false,
      "taf_trigger": false,
      "metar": "METAR LPMA 152100Z 01008KT 310V100 9999 SCT016 17/10 Q1023",
      "taf": "TAF LPMA 151700Z 1518/1618 01013KT 9999 SCT015"
    },
    {
      "icao": "LPPR",
      "alert": "OK",
      "vis_m": 9999,
      "fzfg": false,
      "metar_trigger": false,
      "taf_trigger": false,
      "metar": "METAR LPPR 152100Z 34010KT CAVOK 14/10 Q1017",
      "taf": "TAF LPPR 151700Z 1518/1618 33015KT 9999 SCT030"
    },
    {
      "icao": "LPPS",
      "alert": "OK",
      "vis_m": 9999,
      "fzfg": false,
      "metar_trigger": false,
      "taf_trigger": false,
      "metar": "METAR LPPS 152100Z 35014KT 9999 FEW015 BKN030 16/11 Q1023",
      "taf": "TAF LPPS 151700Z 1518/1624 01015KT 9999 SCT015"
    },
    {
      "icao": "LPPT",
      "alert": "OK",
      "vis_m": 9999,
      "fzfg": false,
      "metar_trigger": false,
      "taf_trigger": false,
      "metar": "METAR LPPT 152100Z 33015KT 9999 FEW015 14/11 Q1017",
      "taf": "TAF LPPT 151700Z 1518/1624 35015KT 9999 FEW035"
    },
    {
      "icao": "LQBK",
      "alert": "OK",
      "vis_m": 9999,
      "fzfg": false,
      "metar_trigger": false,
      "taf_trigger": false,
      "metar": "METAR LQBK 152100Z 28003KT CAVOK 12/11 Q1000 NOSIG",
      "taf": "TAF LQBK 151700Z 1518/1618 02006KT 9999 SCT040 TX14/1518Z TN10/1604Z"
    },
    {
      "icao": "LQSA",
      "alert": "OK",
      "vis_m": 9999,
      "fzfg": false,
      "metar_trigger": false,
      "taf_trigger": false,
      "metar": "METAR LQSA 152100Z 15016G27KT 9999 FEW050 16/07 Q1003 NOSIG",
      "taf": "TAF LQSA 151700Z 1518/1618 17006KT 9999 BKN060 TX16/1613Z TN10/1605Z"
    },
    {
      "icao": "LQTZ",
      "alert": "OK",
      "vis_m": 9999,
      "fzfg": false,
      "metar_trigger": false,
      "taf_trigger": false,
      "metar": "METAR LQTZ 152100Z 11004KT 070V130 CAVOK 12/08 Q1002",
      "taf": "TAF LQTZ 151700Z 1518/1618 12006KT 9999 SCT050 TX19/1610Z TN11/1604Z"
    },
    {
      "icao": "LRBC",
      "alert": "OK",
      "vis_m": 9999,
      "fzfg": false,
      "metar_trigger": false,
      "taf_trigger": false,
      "metar": "METAR LRBC 152100Z 16011KT CAVOK 14/09 Q1006",
      "taf": "TAF LRBC 152000Z 1521/1606 17007KT CAVOK"
    },
    {
      "icao": "LRBS",
      "alert": "OK",
      "vis_m": 9999,
      "fzfg": false,
      "metar_trigger": false,
      "taf_trigger": false,
      "metar": "METAR LRBS 152100Z VRB01KT CAVOK 13/08 Q1007 NOSIG",
      "taf": "TAF LRBS 151700Z 1518/1618 VRB04KT CAVOK"
    },
    {
      "icao": "LRBV",
      "alert": "OK",
      "vis_m": 9999,
      "fzfg": false,
      "metar_trigger": false,
      "taf_trigger": false,
      "metar": "METAR LRBV 152100Z AUTO 20012KT 9999 FEW210/// 13/07 Q1007",
      "taf": "TAF LRBV 151700Z 1518/1603 21008KT CAVOK"
    },
    {
      "icao": "LRCL",
      "alert": "OK",
      "vis_m": 9999,
      "fzfg": false,
      "metar_trigger": false,
      "taf_trigger": false,
      "metar": "METAR LRCL 152100Z 28003KT 240V330 CAVOK 13/10 Q1005",
      "taf": "TAF LRCL 152000Z 1521/1606 VRB04KT CAVOK"
    },
    {
      "icao": "LRCV",
      "alert": "OK",
      "vis_m": 9999,
      "fzfg": false,
      "metar_trigger": false,
      "taf_trigger": false,
      "metar": "METAR LRCV 152100Z 14004KT CAVOK 15/11 Q1006",
      "taf": "TAF LRCV 152000Z 1521/1606 15006KT CAVOK"
    },
    {
      "icao": "LRIA",
      "alert": "OK",
      "vis_m": 9999,
      "fzfg": false,
      "metar_trigger": false,
      "taf_trigger": false,
      "metar": "METAR LRIA 152100Z 08006KT CAVOK 15/06 Q1006",
      "taf": "TAF LRIA 152000Z 1521/1606 VRB03KT CAVOK"
    },
    {
      "icao": "LROP",
      "alert": "OK",
      "vis_m": 9999,
      "fzfg": false,
      "metar_trigger": false,
      "taf_trigger": false,
      "metar": "METAR LROP 152100Z 14001KT CAVOK 14/10 Q1007 NOSIG",
      "taf": "TAF LROP 151700Z 1518/1618 VRB04KT CAVOK"
    },
    {
      "icao": "LRSB",
      "alert": "OK",
      "vis_m": 9999,
      "fzfg": false,
      "metar_trigger": false,
      "taf_trigger": false,
      "metar": "METAR LRSB 152100Z 16005KT 130V190 CAVOK 17/06 Q1005",
      "taf": "TAF LRSB 151700Z 1518/1618 VRB04KT CAVOK"
    },
    {
      "icao": "LRSM",
      "alert": "OK",
      "vis_m": 9999,
      "fzfg": false,
      "metar_trigger": false,
      "taf_trigger": false,
      "metar": "METAR LRSM 152100Z AUTO 24012KT 9999 SCT065/// BKN080/// 16/09 Q1004",
      "taf": "TAF LRSM 151400Z 1515/1524 19008KT CAVOK"
    },
    {
      "icao": "LRSV",
      "alert": "OK",
      "vis_m": 9999,
      "fzfg": false,
      "metar_trigger": false,
      "taf_trigger": false,
      "metar": "METAR LRSV 152100Z 16008KT CAVOK 12/08 Q1005",
      "taf": "TAF LRSV 152000Z 1521/1606 14006KT CAVOK"
    },
    {
      "icao": "LRTM",
      "alert": "OK",
      "vis_m": 9999,
      "fzfg": false,
      "metar_trigger": false,
      "taf_trigger": false,
      "metar": "METAR LRTM 152100Z VRB02KT CAVOK 11/09 Q1005",
      "taf": "TAF LRTM 152000Z 1521/1606 VRB04KT CAVOK"
    },
    {
      "icao": "LRTR",
      "alert": "OK",
      "vis_m": 9999,
      "fzfg": false,
      "metar_trigger": false,
      "taf_trigger": false,
      "metar": "METAR LRTR 152100Z 04006KT CAVOK 11/11 Q1004 NOSIG",
      "taf": "TAF LRTR 151700Z 1518/1618 16007KT CAVOK"
    },
    {
      "icao": "LTAC",
      "alert": "OK",
      "vis_m": 9999,
      "fzfg": false,
      "metar_trigger": false,
      "taf_trigger": false,
      "metar": "METAR LTAC 152050Z 02003KT 350V060 CAVOK 08/04 Q1011 NOSIG RMK RWY21C VRB01KT RWY03L VRB02KT RWY21R 00000KT RWY03R 02003KT RWY21L 04004KT",
      "taf": "TAF LTAC 151640Z 1518/1618 VRB02KT 9999 SCT040 SCT100"
    },
    {
      "icao": "LTFM",
      "alert": "OK",
      "vis_m": 9999,
      "fzfg": false,
      "metar_trigger": false,
      "taf_trigger": false,
      "metar": "METAR LTFM 152050Z 20008KT CAVOK 15/05 Q1009 NOSIG RMK RWY17L 20008KT RWY34L 20010KT RWY16R 21006KT 170V230 RWY36 20006KT RWY18 20009KT",
      "taf": "TAF LTFM 151640Z 1518/1624 18010KT CAVOK"
    },
    {
      "icao": "LUKK",
      "alert": "OK",
      "vis_m": 9999,
      "fzfg": false,
      "metar_trigger": false,
      "taf_trigger": false,
      "metar": "METAR LUKK 152100Z 21005KT CAVOK 14/08 Q1007 NOSIG",
      "taf": "TAF LUKK 151710Z 1518/1618 VRB05KT CAVOK"
    },
    {
      "icao": "LWOH",
      "alert": "OK",
      "vis_m": null,
      "fzfg": false,
      "metar_trigger": false,
      "taf_trigger": false,
      "metar": "",
      "taf": "TAF LWOH 152045Z 1521/1621 VRB02KT 9999 FEW040"
    },
    {
      "icao": "LWSK",
      "alert": "OK",
      "vis_m": null,
      "fzfg": false,
      "metar_trigger": false,
      "taf_trigger": false,
      "metar": "",
      "taf": "TAF LWSK 152045Z 1521/1621 VRB02KT 9999 FEW080"
    },
    {
      "icao": "LYBE",
      "alert": "OK",
      "vis_m": 9999,
      "fzfg": false,
      "metar_trigger": false,
      "taf_trigger": false,
      "metar": "METAR LYBE 152100Z 17008KT CAVOK 17/10 Q1003 NOSIG",
      "taf": "TAF LYBE 151700Z 1518/1618 17010KT CAVOK TX20/1612Z TN14/1604Z"
    },
    {
      "icao": "LYNI",
      "alert": "OK",
      "vis_m": 9999,
      "fzfg": false,
      "metar_trigger": false,
      "taf_trigger": false,
      "metar": "METAR LYNI 152100Z 17003KT 140V210 9999 BKN090 16/07 Q1006 NOSIG",
      "taf": "TAF LYNI 151700Z 1518/1618 22010KT CAVOK TX21/1613Z TN10/1604Z"
    },
    {
      "icao": "LYPG",
      "alert": "OK",
      "vis_m": 9999,
      "fzfg": false,
      "metar_trigger": false,
      "taf_trigger": false,
      "metar": "METAR LYPG 152100Z 13007KT 100V160 9999 FEW030 SCT060 BKN090 18/11 Q1007 NOSIG",
      "taf": "TAF LYPG 151700Z 1518/1618 16008KT 9999 FEW027 BKN040 TX21/1613Z TN14/1604Z"
    },
    {
      "icao": "LZIB",
      "alert": "OK",
      "vis_m": 9999,
      "fzfg": false,
      "metar_trigger": false,
      "taf_trigger": false,
      "metar": "METAR LZIB 152100Z 12002KT 9999 FEW026 OVC042 12/09 Q1002 TEMPO RA",
      "taf": "TAF LZIB 151715Z 1518/1618 28008KT 9999 SCT040"
    },
    {
      "icao": "LZKZ",
      "alert": "OK",
      "vis_m": 7000,
      "fzfg": false,
      "metar_trigger": false,
      "taf_trigger": false,
      "metar": "METAR LZKZ 152100Z 05004KT 7000 -RA NSC 11/11 Q1004 RESHRA NOSIG",
      "taf": "TAF LZKZ 151715Z 1518/1618 20009KT 9999 SCT040"
    },
    {
      "icao": "LZTT",
      "alert": "OK",
      "vis_m": 9999,
      "fzfg": false,
      "metar_trigger": false,
      "taf_trigger": false,
      "metar": "METAR LZTT 152100Z 14004KT 110V180 9999 -RA FEW013 SCT026 BKN046 09/08 Q1003",
      "taf": "TAF LZTT 151715Z 1518/1618 VRB02KT 9999 SCT045"
    },
    {
      "icao": "OEJN",
      "alert": "OK",
      "vis_m": 9999,
      "fzfg": false,
      "metar_trigger": false,
      "taf_trigger": false,
      "metar": "METAR OEJN 152100Z 35003KT CAVOK 31/10 Q1005 NOSIG",
      "taf": "TAF OEJN 151700Z 1518/1624 VRB03KT 7000 NSC"
    },
    {
      "icao": "OEMA",
      "alert": "OK",
      "vis_m": 9999,
      "fzfg": false,
      "metar_trigger": false,
      "taf_trigger": false,
      "metar": "METAR OEMA 152100Z 30010KT CAVOK 34/M03 Q1010 NOSIG",
      "taf": "TAF OEMA 151700Z 1518/1624 VRB03KT CAVOK"
    },
    {
      "icao": "OJAI",
      "alert": "OK",
      "vis_m": 5000,
      "fzfg": false,
      "metar_trigger": false,
      "taf_trigger": false,
      "metar": "METAR OJAI 152100Z 30013KT 5000 HZ NSC 14/10 Q1012 NOSIG",
      "taf": "TAF OJAI 151651Z 1518/1624 28012KT 4000 HZ NSC"
    },
    {
      "icao": "OMAA",
      "alert": "OK",
      "vis_m": 9999,
      "fzfg": false,
      "metar_trigger": false,
      "taf_trigger": false,
      "metar": "METAR OMAA 152100Z 25005KT CAVOK 29/18 Q1002 NOSIG",
      "taf": "TAF OMAA 151700Z 1518/1700 30010KT 8000 NSC"
    },
    {
      "icao": "OMDB",
      "alert": "OK",
      "vis_m": 9999,
      "fzfg": false,
      "metar_trigger": false,
      "taf_trigger": false,
      "metar": "METAR OMDB 152100Z 22005KT 170V250 CAVOK 29/20 Q1001 NOSIG",
      "taf": "TAF OMDB 151700Z 1518/1700 20008KT CAVOK"
    },
    {
      "icao": "UAAA",
      "alert": "OK",
      "vis_m": 9999,
      "fzfg": false,
      "metar_trigger": false,
      "taf_trigger": false,
      "metar": "METAR UAAA 152100Z 19002MPS 9999 NSC 05/01 Q1014 NOSIG",
      "taf": "TAF UAAA 151701Z 1518/1618 24003MPS 9999 FEW100 TX23/1610Z TN05/1601Z"
    },
    {
      "icao": "UBBB",
      "alert": "OK",
      "vis_m": 9999,
      "fzfg": false,
      "metar_trigger": false,
      "taf_trigger": false,
      "metar": "METAR UBBB 152100Z 34010KT 9999 BKN004 15/14 Q1001 NOSIG",
      "taf": "TAF UBBB 151701Z 1518/1618 18010KT 9999 FEW050CB TX21/1610Z TN15/1601Z"
    },
    {
      "icao": "UDSG",
      "alert": "OK",
      "vis_m": 9999,
      "fzfg": false,
      "metar_trigger": false,
      "taf_trigger": false,
      "metar": "METAR UDSG 152100Z 23003KT 9999 BKN040CB 09/06 Q1008 NOSIG",
      "taf": "TAF UDSG 151658Z 1518/1618 24006KT 9999 BKN040"
    },
    {
      "icao": "UDYZ",
      "alert": "OK",
      "vis_m": 9000,
      "fzfg": false,
      "metar_trigger": false,
      "taf_trigger": false,
      "metar": "METAR UDYZ 152100Z 14009KT 9000 -SHRA BKN043CB 12/10 Q1005 NOSIG",
      "taf": "TAF UDYZ 151700Z 1518/1618 07006KT 9999 SCT040"
    },
    {
      "icao": "UGKO",
      "alert": "OK",
      "vis_m": 7000,
      "fzfg": false,
      "metar_trigger": false,
      "taf_trigger": false,
      "metar": "METAR UGKO 152100Z COR 26008KT 7000 -RA SCT016 OVC028 13/12 Q1009 NOSIG",
      "taf": "TAF UGKO 151700Z 1518/1618 26012KT 9999 BKN050 TX15/1612Z TN12/1602Z"
    }
  ]
}