{
  "ts_utc": "2026-01-11T17:13:37Z",
  "threshold_m": 150,
  "source": "stations_override.txt (ICAO list) + aviationweather.gov (METAR/TAF raw)",
  "station_count": 159,
  "stations": [
    {
      "icao": "BIKF",
      "alert": "OK",
      "vis_m": 9999,
      "fzfg": false,
      "metar_trigger": false,
      "taf_trigger": false,
      "metar": "METAR BIKF 111700Z 04010KT 9999 FEW047 M03/M07 Q0993",
      "taf": "TAF BIKF 111625Z 1118/1218 36013KT 9999 FEW030 TX00/1203Z TNM04/1118Z"
    },
    {
      "icao": "BKPR",
      "alert": "OK",
      "vis_m": 9999,
      "fzfg": false,
      "metar_trigger": false,
      "taf_trigger": false,
      "metar": "METAR BKPR 111700Z 36011KT 9999 SCT030 M05/M09 Q1017 NOSIG",
      "taf": "TAF BKPR 111130Z 1112/1212 35008KT 9999 SCT010 BKN030"
    },
    {
      "icao": "EBCI",
      "alert": "OK",
      "vis_m": 9000,
      "fzfg": false,
      "metar_trigger": false,
      "taf_trigger": false,
      "metar": "METAR EBCI 111650Z 17012KT 9000 SCT010 BKN014 M00/M03 Q1020 TEMPO SCT012",
      "taf": "TAF EBCI 111100Z 1112/1218 19010KT 9999 BKN013"
    },
    {
      "icao": "EDDB",
      "alert": "OK",
      "vis_m": 9999,
      "fzfg": false,
      "metar_trigger": false,
      "taf_trigger": false,
      "metar": "METAR EDDB 111650Z AUTO 27009KT CAVOK M05/M07 Q1022 NOSIG",
      "taf": "TAF EDDB 111100Z 1112/1212 29011KT CAVOK"
    },
    {
      "icao": "EDDH",
      "alert": "OK",
      "vis_m": 7000,
      "fzfg": true,
      "metar_trigger": false,
      "taf_trigger": false,
      "metar": "METAR EDDH 111650Z AUTO 11003KT 080V160 7000 0400 R23/P2000N R15/1800D BCFG NSC M08/M09 Q1023 TEMPO 2000",
      "taf": "TAF EDDH 111100Z 1112/1218 VRB02KT 0500 FZFG BKN001"
    },
    {
      "icao": "EDDK",
      "alert": "OK",
      "vis_m": 9999,
      "fzfg": false,
      "metar_trigger": false,
      "taf_trigger": false,
      "metar": "METAR EDDK 111650Z AUTO 13007KT 9999 OVC016 M01/M04 Q1023 NOSIG",
      "taf": "TAF EDDK 111100Z 1112/1218 14009KT 9999 SCT020"
    },
    {
      "icao": "EDDN",
      "alert": "OK",
      "vis_m": 9999,
      "fzfg": false,
      "metar_trigger": false,
      "taf_trigger": false,
      "metar": "METAR EDDN 111650Z AUTO 27004KT 9999 FEW021 M05/M07 Q1025 NOSIG",
      "taf": "TAF EDDN 111100Z 1112/1212 VRB03KT CAVOK"
    },
    {
      "icao": "EDDS",
      "alert": "OK",
      "vis_m": 9999,
      "fzfg": false,
      "metar_trigger": false,
      "taf_trigger": false,
      "metar": "METAR EDDS 111650Z AUTO VRB02KT 9999 OVC019 00/M04 Q1023 NOSIG",
      "taf": "TAF EDDS 111100Z 1112/1212 VRB03KT 9999 SCT015"
    },
    {
      "icao": "EDFH",
      "alert": "OK",
      "vis_m": 5000,
      "fzfg": false,
      "metar_trigger": false,
      "taf_trigger": false,
      "metar": "METAR EDFH 111650Z 18008KT 5000 BR BKN002 M03/M04 Q1021",
      "taf": "TAF EDFH 111100Z 1112/1212 17008KT 8000 BKN008"
    },
    {
      "icao": "EDJA",
      "alert": "OK",
      "vis_m": 9999,
      "fzfg": false,
      "metar_trigger": false,
      "taf_trigger": false,
      "metar": "METAR EDJA 111650Z 23005KT 9999 BKN017 M03/M06 Q1023",
      "taf": "TAF EDJA 111400Z 1115/1124 23003KT 9999 FEW013 BKN020"
    },
    {
      "icao": "EDLW",
      "alert": "OK",
      "vis_m": 9999,
      "fzfg": false,
      "metar_trigger": false,
      "taf_trigger": false,
      "metar": "METAR EDLW 111650Z 20007KT CAVOK M03/M06 Q1022",
      "taf": "TAF EDLW 111120Z 1112/1212 17008KT CAVOK"
    },
    {
      "icao": "EDNY",
      "alert": "OK",
      "vis_m": 8000,
      "fzfg": false,
      "metar_trigger": false,
      "taf_trigger": false,
      "metar": "METAR EDNY 111650Z AUTO 06004KT 8000 // BKN022/// M01/M02 Q1024",
      "taf": "TAF EDNY 111400Z 1115/1124 04003KT 9999 FEW020"
    },
    {
      "icao": "EDSB",
      "alert": "OK",
      "vis_m": 8000,
      "fzfg": false,
      "metar_trigger": false,
      "taf_trigger": false,
      "metar": "METAR EDSB 111650Z 06002KT 8000 OVC025 00/M01 Q1025",
      "taf": "TAF EDSB 111100Z 1112/1212 VRB03KT 8000 BKN020"
    },
    {
      "icao": "EETN",
      "alert": "OK",
      "vis_m": 6000,
      "fzfg": false,
      "metar_trigger": false,
      "taf_trigger": false,
      "metar": "METAR EETN 111650Z 04009KT 6000 -SN SCT015 OVC021 M03/M06 Q1012 NOSIG",
      "taf": "TAF EETN 111130Z 1112/1212 07012KT 2500 SN DRSN BKN010 OVC020"
    },
    {
      "icao": "EFTU",
      "alert": "OK",
      "vis_m": 9999,
      "fzfg": false,
      "metar_trigger": false,
      "taf_trigger": false,
      "metar": "METAR EFTU 111650Z AUTO 02006KT 350V060 9999 -SHSN NSC M07/M09 Q1016",
      "taf": "TAF EFTU 111436Z 1115/1215 02006KT 8000 -SN OVC020"
    },
    {
      "icao": "EGBB",
      "alert": "OK",
      "vis_m": 9999,
      "fzfg": false,
      "metar_trigger": false,
      "taf_trigger": false,
      "metar": "METAR EGBB 111650Z 17016KT 9999 BKN009 08/06 Q1002",
      "taf": "TAF EGBB 111703Z 1118/1218 17015KT 9999 -RA BKN010"
    },
    {
      "icao": "EGGP",
      "alert": "OK",
      "vis_m": 9999,
      "fzfg": false,
      "metar_trigger": false,
      "taf_trigger": false,
      "metar": "METAR EGGP 111650Z 16014G25KT 9999 BKN010 08/06 Q0996",
      "taf": "TAF EGGP 111657Z 1118/1218 16015G28KT 9999 SCT012 BKN014"
    },
    {
      "icao": "EGGW",
      "alert": "OK",
      "vis_m": 9999,
      "fzfg": false,
      "metar_trigger": false,
      "taf_trigger": false,
      "metar": "METAR EGGW 111650Z AUTO 18012KT 150V210 9999 OVC006 06/05 Q1006",
      "taf": "TAF EGGW 111702Z 1118/1218 17018G32KT 8000 -RADZ BKN006"
    },
    {
      "icao": "EGKK",
      "alert": "OK",
      "vis_m": 4000,
      "fzfg": false,
      "metar_trigger": false,
      "taf_trigger": false,
      "metar": "METAR EGKK 111650Z 18013G23KT 140V210 4000 -RADZ BKN007 07/07 Q1008",
      "taf": "TAF EGKK 111657Z 1118/1224 16013KT 9999 BKN010"
    },
    {
      "icao": "EGNM",
      "alert": "OK",
      "vis_m": 9999,
      "fzfg": false,
      "metar_trigger": false,
      "taf_trigger": false,
      "metar": "METAR EGNM 111650Z 16014KT 9999 -RA SCT003 BKN005 05/05 Q0998",
      "taf": "TAF EGNM 111657Z 1118/1218 15015G28KT 9999 BKN006"
    },
    {
      "icao": "EGPD",
      "alert": "OK",
      "vis_m": 9999,
      "fzfg": false,
      "metar_trigger": false,
      "taf_trigger": false,
      "metar": "METAR EGPD 111650Z AUTO 17024KT 9999 OVC007 04/03 Q0992 TEMPO 4000 RA BKN006",
      "taf": "TAF EGPD 111703Z 1118/1218 16020G32KT 9999 BKN010"
    },
    {
      "icao": "EGPF",
      "alert": "OK",
      "vis_m": 9999,
      "fzfg": false,
      "metar_trigger": false,
      "taf_trigger": false,
      "metar": "METAR EGPF 111650Z AUTO 12010KT 9999 -RA //////TCU 08/07 Q0988",
      "taf": "TAF EGPF 111702Z 1118/1218 15015G25KT 9999 FEW015 SCT030"
    },
    {
      "icao": "EHBK",
      "alert": "OK",
      "vis_m": 9999,
      "fzfg": false,
      "metar_trigger": false,
      "taf_trigger": false,
      "metar": "METAR EHBK 111655Z AUTO 19008KT 9999 SCT014 OVC016 M00/M02 Q1021 TEMPO BKN014",
      "taf": ""
    },
    {
      "icao": "EHEH",
      "alert": "OK",
      "vis_m": 9999,
      "fzfg": false,
      "metar_trigger": false,
      "taf_trigger": false,
      "metar": "METAR EHEH 111655Z AUTO 17010KT 130V220 9999 SCT012 OVC014 00/M03 Q1021 GRN BECMG CAVOK RMK TREND REMOTE BY EHWX",
      "taf": "TAF EHEH 111136Z 1112/1218 18008KT 9999 OVC014"
    },
    {
      "icao": "EKBI",
      "alert": "OK",
      "vis_m": 9999,
      "fzfg": false,
      "metar_trigger": false,
      "taf_trigger": false,
      "metar": "METAR EKBI 111650Z AUTO 11005KT 9999 NCD M08/M11 Q1022",
      "taf": "TAF EKBI 111427Z 1115/1215 VRB04KT CAVOK"
    },
    {
      "icao": "EKCH",
      "alert": "OK",
      "vis_m": 9999,
      "fzfg": false,
      "metar_trigger": false,
      "taf_trigger": false,
      "metar": "METAR EKCH 111650Z AUTO 30005KT 9999 NCD M04/M08 Q1023 NOSIG",
      "taf": "TAF EKCH 111427Z 1115/1215 33010KT CAVOK"
    },
    {
      "icao": "ENAL",
      "alert": "OK",
      "vis_m": 9999,
      "fzfg": false,
      "metar_trigger": false,
      "taf_trigger": false,
      "metar": "METAR ENAL 111650Z 13010KT CAVOK 03/M09 Q1009",
      "taf": "TAF ENAL 111400Z 1115/1124 12015KT CAVOK"
    },
    {
      "icao": "ENBR",
      "alert": "OK",
      "vis_m": 9999,
      "fzfg": false,
      "metar_trigger": false,
      "taf_trigger": false,
      "metar": "METAR ENBR 111650Z 14021G32KT 9999 BKN038 01/M08 Q1010 TEMPO 13021KT RMK WIND 1200FT 14045G56KT",
      "taf": "TAF ENBR 111100Z 1112/1212 13012KT 9999 SCT045"
    },
    {
      "icao": "ENGM",
      "alert": "OK",
      "vis_m": 9999,
      "fzfg": false,
      "metar_trigger": false,
      "taf_trigger": false,
      "metar": "METAR ENGM 111650Z 00000KT 9999 FEW003 M19/M21 Q1022 TEMPO BKN003",
      "taf": "TAF ENGM 111100Z 1112/1212 VRB03KT CAVOK"
    },
    {
      "icao": "ENHD",
      "alert": "OK",
      "vis_m": 9999,
      "fzfg": false,
      "metar_trigger": false,
      "taf_trigger": false,
      "metar": "METAR ENHD 111650Z 14031G43KT 9999 BKN039 01/M06 Q1012",
      "taf": "TAF ENHD 111400Z 1115/1123 14025KT 9999 BKN040"
    },
    {
      "icao": "ENTC",
      "alert": "OK",
      "vis_m": 9999,
      "fzfg": false,
      "metar_trigger": false,
      "taf_trigger": false,
      "metar": "METAR ENTC 111650Z 07002KT CAVOK M09/M11 Q1021 NOSIG RMK WIND 2600FT 19016KT",
      "taf": "TAF ENTC 111100Z 1112/1212 20005KT CAVOK"
    },
    {
      "icao": "ENTO",
      "alert": "OK",
      "vis_m": 9999,
      "fzfg": false,
      "metar_trigger": false,
      "taf_trigger": false,
      "metar": "METAR ENTO 111650Z 36006KT CAVOK M15/M17 Q1022 NOSIG",
      "taf": ""
    },
    {
      "icao": "ENVA",
      "alert": "OK",
      "vis_m": 9999,
      "fzfg": false,
      "metar_trigger": false,
      "taf_trigger": false,
      "metar": "METAR ENVA 111650Z 07003KT 030V100 CAVOK M11/M15 Q1017 RMK WIND 670FT 11008KT",
      "taf": "TAF ENVA 111100Z 1112/1212 10008KT CAVOK"
    },
    {
      "icao": "ENZV",
      "alert": "OK",
      "vis_m": 9999,
      "fzfg": false,
      "metar_trigger": false,
      "taf_trigger": false,
      "metar": "METAR ENZV 111650Z 14025KT CAVOK 00/M06 Q1013 TEMPO 14028G38KT",
      "taf": ""
    },
    {
      "icao": "EPGD",
      "alert": "OK",
      "vis_m": 800,
      "fzfg": false,
      "metar_trigger": false,
      "taf_trigger": false,
      "metar": "METAR EPGD 111700Z 34016KT 0800 R29/P2000N +SHSN DRSN VV007 M02/M03 Q1011",
      "taf": "TAF EPGD 111130Z 1112/1212 33012KT 9999 SCT016"
    },
    {
      "icao": "EPKK",
      "alert": "OK",
      "vis_m": 7000,
      "fzfg": false,
      "metar_trigger": false,
      "taf_trigger": false,
      "metar": "METAR EPKK 111700Z 27017KT 7000 -SN DRSN BKN017 M05/M08 Q1014",
      "taf": "TAF EPKK 111430Z 1115/1215 27015KT 5000 -SN BR BKN020"
    },
    {
      "icao": "EPKT",
      "alert": "OK",
      "vis_m": 2500,
      "fzfg": false,
      "metar_trigger": false,
      "taf_trigger": false,
      "metar": "METAR EPKT 111700Z 27013KT 2500 SN DRSN FEW010 BKN013 M06/M07 Q1014",
      "taf": "TAF EPKT 111130Z 1112/1212 28015KT 3000 -SN BR BKN014 BKN016"
    },
    {
      "icao": "EPLB",
      "alert": "OK",
      "vis_m": 9000,
      "fzfg": false,
      "metar_trigger": false,
      "taf_trigger": false,
      "metar": "METAR EPLB 111700Z 30008KT 9000 -SN SCT015 BKN019 M05/M06 Q1009",
      "taf": "TAF EPLB 111130Z 1112/1212 30010KT 8000 -SN BKN030"
    },
    {
      "icao": "EPMO",
      "alert": "OK",
      "vis_m": 6000,
      "fzfg": false,
      "metar_trigger": false,
      "taf_trigger": false,
      "metar": "METAR EPMO 111700Z VRB05KT 6000 -SN SCT006 BKN011 M04/M04 Q1009 RESN",
      "taf": "TAF EPMO 111130Z 1112/1212 31010KT 7000 -SN BKN025"
    },
    {
      "icao": "EPPO",
      "alert": "OK",
      "vis_m": 9999,
      "fzfg": false,
      "metar_trigger": false,
      "taf_trigger": false,
      "metar": "METAR EPPO 111700Z 29014KT 9999 -SHSN BKN027CB M02/M05 Q1016",
      "taf": "TAF EPPO 111130Z 1112/1212 30012KT 9999 BKN020"
    },
    {
      "icao": "EPRA",
      "alert": "OK",
      "vis_m": 4000,
      "fzfg": false,
      "metar_trigger": false,
      "taf_trigger": false,
      "metar": "METAR EPRA 111700Z 29006KT 4000 -SN BR OVC016 M04/M05 Q1010",
      "taf": "TAF EPRA 111430Z 1115/1124 29010KT 8000 -SN BKN024"
    },
    {
      "icao": "EPRZ",
      "alert": "OK",
      "vis_m": 1500,
      "fzfg": false,
      "metar_trigger": false,
      "taf_trigger": false,
      "metar": "METAR EPRZ 111700Z 28013KT 1500 SN BR BKN002 BKN014 M03/M05 Q1011",
      "taf": "TAF EPRZ 111130Z 1112/1212 28008KT 3000 -SN BR BKN016"
    },
    {
      "icao": "EPSC",
      "alert": "OK",
      "vis_m": 9999,
      "fzfg": false,
      "metar_trigger": false,
      "taf_trigger": false,
      "metar": "METAR EPSC 111700Z 28009KT CAVOK M03/M06 Q1019",
      "taf": ""
    },
    {
      "icao": "EPSY",
      "alert": "OK",
      "vis_m": 7000,
      "fzfg": false,
      "metar_trigger": false,
      "taf_trigger": false,
      "metar": "METAR EPSY 111700Z 28004KT 7000 -SN SCT006 BKN013 BKN038 M05/M06 Q1009",
      "taf": "TAF EPSY 111430Z 1115/1124 31005KT 4500 -SN BKN013"
    },
    {
      "icao": "EPWA",
      "alert": "OK",
      "vis_m": 3700,
      "fzfg": false,
      "metar_trigger": false,
      "taf_trigger": false,
      "metar": "METAR EPWA 111700Z 27004KT 3700 -SN BKN011 M04/M04 Q1009 RESN TEMPO 2000 SN BKN009",
      "taf": ""
    },
    {
      "icao": "EPWR",
      "alert": "OK",
      "vis_m": 9999,
      "fzfg": false,
      "metar_trigger": false,
      "taf_trigger": false,
      "metar": "METAR EPWR 111700Z 28018KT 9999 -SN DRSN FEW014 BKN034 M05/M09 Q1018",
      "taf": "TAF EPWR 111430Z 1115/1215 29015KT 9999 -SN BKN020"
    },
    {
      "icao": "ESGG",
      "alert": "OK",
      "vis_m": 9999,
      "fzfg": false,
      "metar_trigger": false,
      "taf_trigger": false,
      "metar": "METAR ESGG 111650Z 00000KT CAVOK M12/M13 Q1021",
      "taf": "TAF ESGG 111430Z 1115/1215 08004KT CAVOK"
    },
    {
      "icao": "ESKN",
      "alert": "OK",
      "vis_m": 9999,
      "fzfg": false,
      "metar_trigger": false,
      "taf_trigger": false,
      "metar": "METAR ESKN 111650Z 32010KT CAVOK M08/M10 Q1019",
      "taf": "TAF ESKN 111430Z 1115/1215 33013KT CAVOK"
    },
    {
      "icao": "ESMS",
      "alert": "OK",
      "vis_m": 9999,
      "fzfg": false,
      "metar_trigger": false,
      "taf_trigger": false,
      "metar": "METAR ESMS 111650Z 31007KT CAVOK M08/M11 Q1021",
      "taf": "TAF ESMS 111427Z 1115/1215 31010KT CAVOK"
    },
    {
      "icao": "ESSA",
      "alert": "OK",
      "vis_m": 9999,
      "fzfg": false,
      "metar_trigger": false,
      "taf_trigger": false,
      "metar": "METAR ESSA 111650Z 33014KT 9999 -SN FEW009 SCT021 M06/M08 Q1018 TEMPO 2000 SN VV012",
      "taf": ""
    },
    {
      "icao": "EYKA",
      "alert": "OK",
      "vis_m": 5000,
      "fzfg": false,
      "metar_trigger": false,
      "taf_trigger": false,
      "metar": "METAR EYKA 111650Z VRB01KT 5000 -SN BR SCT029 OVC041 M11/M12 Q1009",
      "taf": "TAF EYKA 111706Z 1118/1218 VRB04KT 5000 BR SCT010 BKN015"
    },
    {
      "icao": "EYPA",
      "alert": "OK",
      "vis_m": 9999,
      "fzfg": false,
      "metar_trigger": false,
      "taf_trigger": false,
      "metar": "METAR EYPA 111650Z 03003KT 9999 FEW024 BKN028 M06/M08 Q1011",
      "taf": "TAF EYPA 111704Z 1118/1218 VRB05KT 5000 BR SCT015"
    },
    {
      "icao": "EYVI",
      "alert": "OK",
      "vis_m": 7000,
      "fzfg": false,
      "metar_trigger": false,
      "taf_trigger": false,
      "metar": "METAR EYVI 111650Z 34005KT 7000 -SN BKN011 M12/M14 Q1007 TEMPO 3000 SN",
      "taf": "TAF EYVI 111707Z 1118/1218 VRB04KT 5000 BR SCT010 BKN015"
    },
    {
      "icao": "GCFV",
      "alert": "OK",
      "vis_m": 9999,
      "fzfg": false,
      "metar_trigger": false,
      "taf_trigger": false,
      "metar": "METAR GCFV 111700Z 04009KT 9999 FEW020 19/12 Q1023",
      "taf": "TAF GCFV 111400Z 1115/1215 05008KT 9999 FEW025 TX21/1214Z TN14/1206Z"
    },
    {
      "icao": "GCLP",
      "alert": "OK",
      "vis_m": 9999,
      "fzfg": false,
      "metar_trigger": false,
      "taf_trigger": false,
      "metar": "METAR GCLP 111700Z 04011KT 9999 FEW035 20/12 Q1023 NOSIG",
      "taf": "TAF GCLP 111400Z 1115/1215 04012KT 9999 FEW030 TX21/1214Z TN15/1206Z"
    },
    {
      "icao": "GCTS",
      "alert": "OK",
      "vis_m": 9999,
      "fzfg": false,
      "metar_trigger": false,
      "taf_trigger": false,
      "metar": "METAR GCTS 111700Z 09015KT 9999 FEW035 20/13 Q1023 NOSIG",
      "taf": "TAF GCTS 111400Z 1115/1215 09017KT 9999 FEW040 TX23/1214Z TN16/1206Z"
    },
    {
      "icao": "GMAD",
      "alert": "OK",
      "vis_m": 9999,
      "fzfg": false,
      "metar_trigger": false,
      "taf_trigger": false,
      "metar": "METAR GMAD 111700Z 27009KT CAVOK 18/12 Q1022 NOSIG",
      "taf": "TAF GMAD 111100Z 1112/1218 06005KT CAVOK"
    },
    {
      "icao": "GMMN",
      "alert": "OK",
      "vis_m": 9999,
      "fzfg": false,
      "metar_trigger": false,
      "taf_trigger": false,
      "metar": "METAR GMMN 111700Z 02010KT CAVOK 14/10 Q1025 NOSIG",
      "taf": "TAF GMMN 111100Z 1112/1218 05012KT 9999 FEW020"
    },
    {
      "icao": "GMMX",
      "alert": "OK",
      "vis_m": 9999,
      "fzfg": false,
      "metar_trigger": false,
      "taf_trigger": false,
      "metar": "METAR GMMX 111700Z VRB02KT CAVOK 18/08 Q1024 NOSIG",
      "taf": "TAF GMMX 111100Z 1112/1218 06006KT CAVOK"
    },
    {
      "icao": "HEGN",
      "alert": "OK",
      "vis_m": 9999,
      "fzfg": false,
      "metar_trigger": false,
      "taf_trigger": false,
      "metar": "METAR HEGN 111600Z 12003KT CAVOK 21/12 Q1016 NOSIG",
      "taf": "TAF HEGN 111700Z 1118/1224 03008KT CAVOK"
    },
    {
      "icao": "HEMA",
      "alert": "OK",
      "vis_m": 9999,
      "fzfg": false,
      "metar_trigger": false,
      "taf_trigger": false,
      "metar": "METAR HEMA 111600Z 35007KT CAVOK 21/14 Q1016 NOSIG",
      "taf": "TAF HEMA 111700Z 1118/1224 32008G20KT CAVOK"
    },
    {
      "icao": "HESH",
      "alert": "OK",
      "vis_m": 9999,
      "fzfg": false,
      "metar_trigger": false,
      "taf_trigger": false,
      "metar": "METAR HESH 111600Z 15006KT CAVOK 21/11 Q1016 NOSIG",
      "taf": "TAF HESH 111700Z 1118/1224 01011KT CAVOK"
    },
    {
      "icao": "HESX",
      "alert": "OK",
      "vis_m": 9999,
      "fzfg": false,
      "metar_trigger": false,
      "taf_trigger": false,
      "metar": "METAR HESX 111600Z 25006KT CAVOK 18/02 Q1015 NOSIG",
      "taf": "TAF HESX 111700Z 1118/1224 26008KT CAVOK"
    },
    {
      "icao": "LATI",
      "alert": "OK",
      "vis_m": 9999,
      "fzfg": false,
      "metar_trigger": false,
      "taf_trigger": false,
      "metar": "METAR LATI 111650Z 31011KT CAVOK 04/M05 Q1012 NOSIG",
      "taf": "TAF LATI 111700Z 1118/1218 VRB04KT CAVOK TX06/1212Z TNM04/1205Z"
    },
    {
      "icao": "LBPD",
      "alert": "OK",
      "vis_m": 9999,
      "fzfg": false,
      "metar_trigger": false,
      "taf_trigger": false,
      "metar": "METAR LBPD 111700Z AUTO 27022KT 9999 -SN BKN058/// BKN068/// OVC093/// M01/M04 Q1013 NOSIG",
      "taf": "TAF LBPD 111100Z 1112/1212 28020KT 9999 SCT020 BKN050"
    },
    {
      "icao": "LBSF",
      "alert": "OK",
      "vis_m": 9999,
      "fzfg": false,
      "metar_trigger": false,
      "taf_trigger": false,
      "metar": "METAR LBSF 111700Z AUTO 29011KT 9999 FEW037/// M06/M09 Q1015 NOSIG",
      "taf": "TAF LBSF 111100Z 1112/1212 28018KT 7000 BKN012 OVC040"
    },
    {
      "icao": "LBWN",
      "alert": "OK",
      "vis_m": 9999,
      "fzfg": false,
      "metar_trigger": false,
      "taf_trigger": false,
      "metar": "METAR LBWN 111700Z AUTO 26008KT 9999 -SHSN OVC037/// M02/M06 Q1014 TEMPO 5000 -SN",
      "taf": "TAF LBWN 111100Z 1112/1212 33010KT 9999 SCT010 BKN015 OVC030"
    },
    {
      "icao": "LCLK",
      "alert": "OK",
      "vis_m": 9999,
      "fzfg": false,
      "metar_trigger": false,
      "taf_trigger": false,
      "metar": "METAR LCLK 111700Z 21018KT 9999 -SHRA FEW020 FEW025TCU SCT050 18/13 Q1011 NOSIG",
      "taf": "TAF LCLK 111130Z 1112/1212 21021KT 9999 FEW025TCU FEW030CB SCT035"
    },
    {
      "icao": "LCPH",
      "alert": "OK",
      "vis_m": 9999,
      "fzfg": false,
      "metar_trigger": false,
      "taf_trigger": false,
      "metar": "METAR LCPH 111700Z 23012KT 170V250 9999 FEW030 FEW035TCU SCT040 18/12 Q1012 TEMPO 4000 SHRA",
      "taf": "TAF LCPH 111130Z 1112/1212 24019KT 9999 FEW025TCU SCT030 FEW035CB"
    },
    {
      "icao": "LEAL",
      "alert": "OK",
      "vis_m": 9999,
      "fzfg": false,
      "metar_trigger": false,
      "taf_trigger": false,
      "metar": "METAR LEAL 111700Z 06003KT CAVOK 14/07 Q1025 NOSIG",
      "taf": "TAF LEAL 111100Z 1112/1212 28008KT CAVOK TX16/1113Z TN07/1206Z"
    },
    {
      "icao": "LEBB",
      "alert": "OK",
      "vis_m": 9999,
      "fzfg": false,
      "metar_trigger": false,
      "taf_trigger": false,
      "metar": "METAR LEBB 111700Z VRB05KT CAVOK 14/07 Q1020 NOSIG",
      "taf": "TAF LEBB 111100Z 1112/1212 18008KT 9999 FEW040 TX14/1114Z TN12/1207Z"
    },
    {
      "icao": "LEBL",
      "alert": "OK",
      "vis_m": 9999,
      "fzfg": false,
      "metar_trigger": false,
      "taf_trigger": false,
      "metar": "METAR LEBL 111700Z 21005KT CAVOK 11/06 Q1023 NOSIG",
      "taf": ""
    },
    {
      "icao": "LECH",
      "alert": "OK",
      "vis_m": 9999,
      "fzfg": false,
      "metar_trigger": false,
      "taf_trigger": false,
      "metar": "METAR LECH 111700Z AUTO 20004KT 170V230 CAVOK 10/01 Q1023",
      "taf": ""
    },
    {
      "icao": "LEMD",
      "alert": "OK",
      "vis_m": 9999,
      "fzfg": false,
      "metar_trigger": false,
      "taf_trigger": false,
      "metar": "METAR LEMD 111700Z 12003KT 080V160 CAVOK 08/03 Q1024 NOSIG",
      "taf": "TAF LEMD 111100Z 1112/1218 VRB03KT CAVOK TX10/1114Z TN02/1200Z"
    },
    {
      "icao": "LEMG",
      "alert": "OK",
      "vis_m": 9999,
      "fzfg": false,
      "metar_trigger": false,
      "taf_trigger": false,
      "metar": "METAR LEMG 111700Z 15004KT 110V200 CAVOK 13/07 Q1025 NOSIG",
      "taf": "TAF LEMG 111100Z 1112/1212 26006KT CAVOK TX17/1114Z TN07/1207Z"
    },
    {
      "icao": "LEVC",
      "alert": "OK",
      "vis_m": 9999,
      "fzfg": false,
      "metar_trigger": false,
      "taf_trigger": false,
      "metar": "METAR LEVC 111700Z 12007KT 100V160 CAVOK 13/04 Q1023 NOSIG",
      "taf": "TAF LEVC 111100Z 1112/1212 27008KT CAVOK TX16/1114Z TN05/1206Z"
    },
    {
      "icao": "LEXJ",
      "alert": "OK",
      "vis_m": 9999,
      "fzfg": false,
      "metar_trigger": false,
      "taf_trigger": false,
      "metar": "METAR LEXJ 111700Z VRB08G25KT CAVOK 15/06 Q1018",
      "taf": "TAF LEXJ 111400Z 1115/1215 22009KT 9999 SCT060 TX15/1213Z TN12/1208Z"
    },
    {
      "icao": "LEZG",
      "alert": "OK",
      "vis_m": 9999,
      "fzfg": false,
      "metar_trigger": false,
      "taf_trigger": false,
      "metar": "METAR LEZG 111700Z 22005KT 190V250 9999 FEW085 12/05 Q1022 NOSIG",
      "taf": "TAF LEZG 111100Z 1112/1212 24009KT 9999 FEW050 TX13/1115Z TN04/1206Z"
    },
    {
      "icao": "LEZL",
      "alert": "OK",
      "vis_m": 9999,
      "fzfg": false,
      "metar_trigger": false,
      "taf_trigger": false,
      "metar": "METAR LEZL 111700Z 00000KT CAVOK 15/07 Q1026 NOSIG",
      "taf": "TAF LEZL 111400Z 1115/1215 06004KT CAVOK TX16/1115Z TN05/1207Z"
    },
    {
      "icao": "LFBD",
      "alert": "OK",
      "vis_m": 9999,
      "fzfg": false,
      "metar_trigger": false,
      "taf_trigger": false,
      "metar": "METAR LFBD 111700Z AUTO 14007KT 9999 BKN005 BKN054 06/06 Q1020",
      "taf": ""
    },
    {
      "icao": "LFLL",
      "alert": "OK",
      "vis_m": 9999,
      "fzfg": false,
      "metar_trigger": false,
      "taf_trigger": false,
      "metar": "METAR LFLL 111700Z 13003KT CAVOK 03/M02 Q1023 NOSIG",
      "taf": "TAF LFLL 111100Z 1112/1218 35008KT 9999 SCT020"
    },
    {
      "icao": "LFLS",
      "alert": "OK",
      "vis_m": 9999,
      "fzfg": false,
      "metar_trigger": false,
      "taf_trigger": false,
      "metar": "METAR LFLS 111700Z AUTO 27002KT CAVOK M01/M02 Q1023",
      "taf": ""
    },
    {
      "icao": "LFMN",
      "alert": "OK",
      "vis_m": 9999,
      "fzfg": false,
      "metar_trigger": false,
      "taf_trigger": false,
      "metar": "METAR LFMN 111700Z 24010KT CAVOK 11/00 Q1020 NOSIG",
      "taf": "TAF LFMN 111400Z 1115/1221 22010KT CAVOK"
    },
    {
      "icao": "LFOB",
      "alert": "OK",
      "vis_m": 9999,
      "fzfg": false,
      "metar_trigger": false,
      "taf_trigger": false,
      "metar": "METAR LFOB 111700Z AUTO 16013KT CAVOK 04/00 Q1017 TEMPO 4000 -RA OVC010",
      "taf": "TAF LFOB 111100Z 1112/1212 18012KT 9999 BKN020"
    },
    {
      "icao": "LFPO",
      "alert": "OK",
      "vis_m": 9999,
      "fzfg": false,
      "metar_trigger": false,
      "taf_trigger": false,
      "metar": "METAR LFPO 111700Z AUTO 17011KT CAVOK 04/M01 Q1019",
      "taf": ""
    },
    {
      "icao": "LFSB",
      "alert": "OK",
      "vis_m": 9999,
      "fzfg": false,
      "metar_trigger": false,
      "taf_trigger": false,
      "metar": "METAR LFSB 111700Z AUTO 10001KT 9999 FEW017 OVC025 01/M00 Q1023 NOSIG",
      "taf": ""
    },
    {
      "icao": "LGAV",
      "alert": "OK",
      "vis_m": 9999,
      "fzfg": false,
      "metar_trigger": false,
      "taf_trigger": false,
      "metar": "METAR LGAV 111650Z VRB03KT 9999 SCT025 11/01 Q1007 NOSIG",
      "taf": "TAF LGAV 111700Z 1118/1218 VRB05KT 9999 FEW018 SCT025"
    },
    {
      "icao": "LGTS",
      "alert": "OK",
      "vis_m": 9999,
      "fzfg": false,
      "metar_trigger": false,
      "taf_trigger": false,
      "metar": "METAR LGTS 111650Z 35022G32KT 9999 FEW015 SCT025 03/M05 Q1012 NOSIG",
      "taf": "TAF LGTS 111700Z 1118/1218 34015G30KT 9999 FEW025"
    },
    {
      "icao": "LHBP",
      "alert": "OK",
      "vis_m": 9999,
      "fzfg": false,
      "metar_trigger": false,
      "taf_trigger": false,
      "metar": "METAR LHBP 111700Z 31021KT 9999 DRSN NSC M03/M07 Q1017 NOSIG",
      "taf": "TAF LHBP 111115Z 1112/1212 30020G30KT 9999 DRSN FEW020 SCT080"
    },
    {
      "icao": "LHDC",
      "alert": "OK",
      "vis_m": null,
      "fzfg": false,
      "metar_trigger": false,
      "taf_trigger": false,
      "metar": "",
      "taf": "TAF LHDC 111415Z 1115/1124 19007KT CAVOK"
    },
    {
      "icao": "LIBD",
      "alert": "OK",
      "vis_m": 9999,
      "fzfg": false,
      "metar_trigger": false,
      "taf_trigger": false,
      "metar": "METAR LIBD 111650Z 31015G25KT 9999 FEW045 07/M06 Q1017",
      "taf": "TAF LIBD 111100Z 1112/1212 34018G28KT 9999 FEW040"
    },
    {
      "icao": "LIBG",
      "alert": "OK",
      "vis_m": 9999,
      "fzfg": false,
      "metar_trigger": false,
      "taf_trigger": false,
      "metar": "METAR LIBG 111650Z 33013KT 300V360 CAVOK 08/M01 Q1015",
      "taf": "TAF LIBG 111400Z 1115/1124 33014KT 9999 SCT040"
    },
    {
      "icao": "LIBP",
      "alert": "OK",
      "vis_m": 9999,
      "fzfg": false,
      "metar_trigger": false,
      "taf_trigger": false,
      "metar": "METAR LIBP 111650Z AUTO 24005KT 9999 BKN056/// 04/04 Q1022",
      "taf": "TAF LIBP 111100Z 1112/1212 35010KT 9999 SCT040"
    },
    {
      "icao": "LIBR",
      "alert": "OK",
      "vis_m": 9999,
      "fzfg": false,
      "metar_trigger": false,
      "taf_trigger": false,
      "metar": "METAR LIBR 111650Z 34019KT CAVOK 09/M02 Q1014",
      "taf": "TAF LIBR 111100Z 1112/1212 34018G30KT 9999 SCT040"
    },
    {
      "icao": "LICA",
      "alert": "OK",
      "vis_m": 9999,
      "fzfg": false,
      "metar_trigger": false,
      "taf_trigger": false,
      "metar": "METAR LICA 111650Z AUTO 03006KT 360V060 9999 SCT096/// 09/M00 Q1015",
      "taf": "TAF LICA 111100Z 1112/1212 28010KT 9999 FEW030"
    },
    {
      "icao": "LICC",
      "alert": "OK",
      "vis_m": 9999,
      "fzfg": false,
      "metar_trigger": false,
      "taf_trigger": false,
      "metar": "METAR LICC 111650Z 25006KT 9999 FEW040 09/05 Q1016",
      "taf": "TAF LICC 111100Z 1112/1212 26016KT 9999 SCT040"
    },
    {
      "icao": "LICJ",
      "alert": "OK",
      "vis_m": 9999,
      "fzfg": false,
      "metar_trigger": false,
      "taf_trigger": false,
      "metar": "METAR LICJ 111650Z 12006KT 9999 SCT042 09/05 Q1018",
      "taf": "TAF LICJ 111100Z 1112/1212 35011KT 9999 SCT030"
    },
    {
      "icao": "LIMC",
      "alert": "OK",
      "vis_m": 9999,
      "fzfg": false,
      "metar_trigger": false,
      "taf_trigger": false,
      "metar": "METAR LIMC 111650Z VRB02KT CAVOK 07/M05 Q1019 NOSIG",
      "taf": "TAF LIMC 111100Z 1112/1218 01006KT CAVOK"
    },
    {
      "icao": "LIME",
      "alert": "OK",
      "vis_m": 9999,
      "fzfg": false,
      "metar_trigger": false,
      "taf_trigger": false,
      "metar": "METAR LIME 111650Z VRB01KT CAVOK 03/M05 Q1020 NOSIG",
      "taf": "TAF LIME 111100Z 1112/1212 VRB05KT CAVOK"
    },
    {
      "icao": "LIMF",
      "alert": "OK",
      "vis_m": 9999,
      "fzfg": false,
      "metar_trigger": false,
      "taf_trigger": false,
      "metar": "METAR LIMF 111650Z 11003KT CAVOK 06/M08 Q1020",
      "taf": "TAF LIMF 111100Z 1112/1212 VRB05KT CAVOK"
    },
    {
      "icao": "LIMJ",
      "alert": "OK",
      "vis_m": 9999,
      "fzfg": false,
      "metar_trigger": false,
      "taf_trigger": false,
      "metar": "METAR LIMJ 111650Z 32005KT 290V030 CAVOK 09/M09 Q1020",
      "taf": "TAF LIMJ 111100Z 1112/1212 03012KT CAVOK"
    },
    {
      "icao": "LIPE",
      "alert": "OK",
      "vis_m": 9999,
      "fzfg": false,
      "metar_trigger": false,
      "taf_trigger": false,
      "metar": "METAR LIPE 111650Z 11002KT CAVOK 01/M03 Q1021",
      "taf": "TAF LIPE 111100Z 1112/1212 VRB06KT CAVOK"
    },
    {
      "icao": "LIPH",
      "alert": "OK",
      "vis_m": 9999,
      "fzfg": false,
      "metar_trigger": false,
      "taf_trigger": false,
      "metar": "METAR LIPH 111650Z 19001KT 9999 BKN030 04/01 Q1021",
      "taf": "TAF LIPH 111100Z 1112/1212 VRB05KT CAVOK"
    },
    {
      "icao": "LIPQ",
      "alert": "OK",
      "vis_m": 9999,
      "fzfg": false,
      "metar_trigger": false,
      "taf_trigger": false,
      "metar": "METAR LIPQ 111650Z AUTO VRB01KT 9999 BKN051/// 01/M04 Q1022",
      "taf": "TAF LIPQ 111100Z 1112/1212 VRB05KT CAVOK"
    },
    {
      "icao": "LIPR",
      "alert": "OK",
      "vis_m": 9999,
      "fzfg": false,
      "metar_trigger": false,
      "taf_trigger": false,
      "metar": "METAR LIPR 111650Z 20003KT CAVOK 02/M01 Q1021",
      "taf": "TAF LIPR 111100Z 1112/1212 VRB05KT 9999 FEW040"
    },
    {
      "icao": "LIPX",
      "alert": "OK",
      "vis_m": 9999,
      "fzfg": false,
      "metar_trigger": false,
      "taf_trigger": false,
      "metar": "METAR LIPX 111650Z 07004KT CAVOK 05/M01 Q1020",
      "taf": "TAF LIPX 111100Z 1112/1212 VRB05KT CAVOK"
    },
    {
      "icao": "LIPY",
      "alert": "OK",
      "vis_m": 9999,
      "fzfg": false,
      "metar_trigger": false,
      "taf_trigger": false,
      "metar": "METAR LIPY 111650Z AUTO 16004KT 9999 FEW063/// 04/00 Q1022",
      "taf": "TAF LIPY 111100Z 1112/1212 VRB05KT 9999 SCT030"
    },
    {
      "icao": "LIPZ",
      "alert": "OK",
      "vis_m": 9999,
      "fzfg": false,
      "metar_trigger": false,
      "taf_trigger": false,
      "metar": "METAR LIPZ 111650Z VRB02KT 9999 SCT040 05/01 Q1021 NOSIG",
      "taf": "TAF LIPZ 111100Z 1112/1218 VRB06KT CAVOK"
    },
    {
      "icao": "LIRF",
      "alert": "OK",
      "vis_m": 9999,
      "fzfg": false,
      "metar_trigger": false,
      "taf_trigger": false,
      "metar": "METAR LIRF 111650Z 35008KT CAVOK 08/00 Q1018 NOSIG",
      "taf": "TAF LIRF 111100Z 1112/1218 02009KT CAVOK"
    },
    {
      "icao": "LIRN",
      "alert": "OK",
      "vis_m": 9999,
      "fzfg": false,
      "metar_trigger": false,
      "taf_trigger": false,
      "metar": "METAR LIRN 111650Z 05007KT CAVOK 07/M01 Q1018 NOSIG",
      "taf": "TAF LIRN 111100Z 1112/1212 03012KT 9999 SCT030"
    },
    {
      "icao": "LIRP",
      "alert": "OK",
      "vis_m": 9999,
      "fzfg": false,
      "metar_trigger": false,
      "taf_trigger": false,
      "metar": "METAR LIRP 111645Z VRB02KT CAVOK 08/M00 Q1021 NOSIG",
      "taf": "TAF LIRP 111100Z 1112/1212 12005KT CAVOK"
    },
    {
      "icao": "LIRZ",
      "alert": "OK",
      "vis_m": 9999,
      "fzfg": false,
      "metar_trigger": false,
      "taf_trigger": false,
      "metar": "METAR LIRZ 111650Z AUTO 02004KT 9999 BKN061/// 05/M01 Q1020",
      "taf": "TAF LIRZ 111100Z 1112/1212 02013KT 9999 FEW030"
    },
    {
      "icao": "LJLJ",
      "alert": "OK",
      "vis_m": 9999,
      "fzfg": false,
      "metar_trigger": false,
      "taf_trigger": false,
      "metar": "METAR LJLJ 111700Z VRB02KT 9999 MIFG NSC M09/M10 Q1022 NOSIG",
      "taf": "TAF LJLJ 111700Z 1118/1218 29003KT CAVOK"
    },
    {
      "icao": "LKMT",
      "alert": "OK",
      "vis_m": 4500,
      "fzfg": false,
      "metar_trigger": false,
      "taf_trigger": false,
      "metar": "METAR LKMT 111700Z 22010KT 4500 SN FEW013 SCT026 OVC034 M06/M07 Q1017 NOSIG",
      "taf": ""
    },
    {
      "icao": "LKPR",
      "alert": "OK",
      "vis_m": 9999,
      "fzfg": false,
      "metar_trigger": false,
      "taf_trigger": false,
      "metar": "METAR LKPR 111700Z 25010KT CAVOK M09/M15 Q1022 NOSIG",
      "taf": "TAF LKPR 111400Z 1115/1221 28012KT CAVOK"
    },
    {
      "icao": "LLBG",
      "alert": "OK",
      "vis_m": 9999,
      "fzfg": false,
      "metar_trigger": false,
      "taf_trigger": false,
      "metar": "METAR LLBG 111650Z 12005KT CAVOK 16/10 Q1016 NOSIG",
      "taf": "TAF LLBG 111703Z 1118/1218 14005KT CAVOK"
    },
    {
      "icao": "LMML",
      "alert": "OK",
      "vis_m": 9999,
      "fzfg": false,
      "metar_trigger": false,
      "taf_trigger": false,
      "metar": "METAR LMML 111645Z 30014KT 9999 FEW025 11/06 Q1017 NOSIG",
      "taf": "TAF LMML 111700Z 1118/1218 30018G28KT 9999 FEW002"
    },
    {
      "icao": "LOWW",
      "alert": "OK",
      "vis_m": 9999,
      "fzfg": false,
      "metar_trigger": false,
      "taf_trigger": false,
      "metar": "METAR LOWW 111650Z 31019KT CAVOK M03/M10 Q1021 NOSIG",
      "taf": "TAF LOWW 111415Z 1115/1221 30015KT CAVOK TXM03/1115Z TNM08/1207Z"
    },
    {
      "icao": "LPFR",
      "alert": "OK",
      "vis_m": 9999,
      "fzfg": false,
      "metar_trigger": false,
      "taf_trigger": false,
      "metar": "METAR LPFR 111700Z 22004KT 9999 FEW020 14/09 Q1026",
      "taf": "TAF LPFR 111106Z 1112/1212 VRB05KT CAVOK"
    },
    {
      "icao": "LPMA",
      "alert": "OK",
      "vis_m": 9999,
      "fzfg": false,
      "metar_trigger": false,
      "taf_trigger": false,
      "metar": "METAR LPMA 111700Z 04005KT 340V110 9999 BKN015 17/13 Q1025",
      "taf": "TAF LPMA 111106Z 1112/1212 VRB05KT 9999 SCT015"
    },
    {
      "icao": "LPPR",
      "alert": "OK",
      "vis_m": 5000,
      "fzfg": false,
      "metar_trigger": false,
      "taf_trigger": false,
      "metar": "METAR LPPR 111700Z 19012KT 5000 -DZRA BR SCT003 BKN005 13/13 Q1023 REDZ",
      "taf": "TAF LPPR 111106Z 1112/1212 18013KT 9999 SCT006 BKN015"
    },
    {
      "icao": "LPPS",
      "alert": "OK",
      "vis_m": 9999,
      "fzfg": false,
      "metar_trigger": false,
      "taf_trigger": false,
      "metar": "METAR LPPS 111700Z 14005KT 110V170 9999 FEW015 SCT030 17/13 Q1025",
      "taf": "TAF LPPS 111106Z 1112/1218 VRB05KT 9999 SCT015"
    },
    {
      "icao": "LPPT",
      "alert": "OK",
      "vis_m": 6000,
      "fzfg": false,
      "metar_trigger": false,
      "taf_trigger": false,
      "metar": "METAR LPPT 111700Z 21009KT 6000 -DZ FEW008 BKN010 13/13 Q1025",
      "taf": ""
    },
    {
      "icao": "LQBK",
      "alert": "OK",
      "vis_m": 9999,
      "fzfg": false,
      "metar_trigger": false,
      "taf_trigger": false,
      "metar": "METAR LQBK 111700Z VRB01KT CAVOK M05/M08 Q1022 NOSIG",
      "taf": "TAF LQBK 111700Z 1118/1218 16005KT CAVOK TX00/1212Z TNM12/1206Z"
    },
    {
      "icao": "LQSA",
      "alert": "OK",
      "vis_m": 9999,
      "fzfg": false,
      "metar_trigger": false,
      "taf_trigger": false,
      "metar": "METAR LQSA 111700Z 31003KT 270V350 9999 -SN FEW040 BKN050 M04/M07 Q1019 NOSIG",
      "taf": "TAF LQSA 111700Z 1118/1218 29005KT 9999 SCT045 TXM03/1214Z TNM13/1206Z"
    },
    {
      "icao": "LQTZ",
      "alert": "OK",
      "vis_m": 9999,
      "fzfg": false,
      "metar_trigger": false,
      "taf_trigger": false,
      "metar": "METAR LQTZ 111700Z 26004KT 9999 SCT037 OVC046 M03/M06 Q1021",
      "taf": "TAF LQTZ 111700Z 1118/1218 30005KT 9999 SCT045 TXM01/1213Z TNM13/1206Z"
    },
    {
      "icao": "LRBC",
      "alert": "OK",
      "vis_m": 9999,
      "fzfg": false,
      "metar_trigger": false,
      "taf_trigger": false,
      "metar": "METAR LRBC 111700Z 29007KT 260V320 CAVOK M04/M13 Q1011",
      "taf": "TAF LRBC 111400Z 1115/1124 VRB04KT CAVOK"
    },
    {
      "icao": "LRBS",
      "alert": "OK",
      "vis_m": 8000,
      "fzfg": false,
      "metar_trigger": false,
      "taf_trigger": false,
      "metar": "METAR LRBS 111700Z COR 00000KT 8000 BKN027 M05/M07 Q1015 NOSIG",
      "taf": "TAF LRBS 111100Z 1112/1212 07008KT 5000 BR BKN035"
    },
    {
      "icao": "LRBV",
      "alert": "OK",
      "vis_m": 9999,
      "fzfg": false,
      "metar_trigger": false,
      "taf_trigger": false,
      "metar": "METAR LRBV 111700Z 25003KT 210V290 9999 OVC044 M07/M10 Q1012",
      "taf": "TAF LRBV 111400Z 1115/1124 30015KT 9999 BKN025 BKN050"
    },
    {
      "icao": "LRCL",
      "alert": "OK",
      "vis_m": 9999,
      "fzfg": false,
      "metar_trigger": false,
      "taf_trigger": false,
      "metar": "METAR LRCL 111700Z 03003KT 9999 OVC062 M06/M09 Q1014",
      "taf": "TAF LRCL 111400Z 1115/1124 VRB04KT 9999 OVC045"
    },
    {
      "icao": "LRCV",
      "alert": "OK",
      "vis_m": 9999,
      "fzfg": false,
      "metar_trigger": false,
      "taf_trigger": false,
      "metar": "METAR LRCV 111700Z 29014KT CAVOK M04/M07 Q1015",
      "taf": ""
    },
    {
      "icao": "LRIA",
      "alert": "OK",
      "vis_m": 9999,
      "fzfg": false,
      "metar_trigger": false,
      "taf_trigger": false,
      "metar": "METAR LRIA 111700Z 21004KT 180V240 CAVOK M04/M10 Q1011",
      "taf": "TAF LRIA 111400Z 1115/1124 30006KT CAVOK"
    },
    {
      "icao": "LROP",
      "alert": "OK",
      "vis_m": 4000,
      "fzfg": false,
      "metar_trigger": false,
      "taf_trigger": false,
      "metar": "METAR LROP 111700Z 00000KT 4000 BR FEW009 M06/M06 Q1015 NOSIG",
      "taf": "TAF LROP 111100Z 1112/1212 07008KT 5000 BR BKN035"
    },
    {
      "icao": "LRSB",
      "alert": "OK",
      "vis_m": 9999,
      "fzfg": false,
      "metar_trigger": false,
      "taf_trigger": false,
      "metar": "METAR LRSB 111700Z 31008KT 9999 OVC049 M05/M09 Q1013",
      "taf": "TAF LRSB 111100Z 1112/1212 35008KT 9999 BKN025 OVC040"
    },
    {
      "icao": "LRSM",
      "alert": "OK",
      "vis_m": 9999,
      "fzfg": false,
      "metar_trigger": false,
      "taf_trigger": false,
      "metar": "METAR LRSM 111700Z 25004KT CAVOK M07/M10 Q1016",
      "taf": "TAF LRSM 111400Z 1115/1124 27014KT 9999 BKN040"
    },
    {
      "icao": "LRSV",
      "alert": "OK",
      "vis_m": 9999,
      "fzfg": false,
      "metar_trigger": false,
      "taf_trigger": false,
      "metar": "METAR LRSV 111700Z 28008KT CAVOK M05/M13 Q1008",
      "taf": "TAF LRSV 111400Z 1115/1124 26008KT CAVOK"
    },
    {
      "icao": "LRTM",
      "alert": "OK",
      "vis_m": 9999,
      "fzfg": false,
      "metar_trigger": false,
      "taf_trigger": false,
      "metar": "METAR LRTM 111700Z 10003KT 9999 SCT042 M06/M10 Q1014",
      "taf": "TAF LRTM 111400Z 1115/1124 VRB04KT 9999 OVC045"
    },
    {
      "icao": "LRTR",
      "alert": "OK",
      "vis_m": 9999,
      "fzfg": false,
      "metar_trigger": false,
      "taf_trigger": false,
      "metar": "METAR LRTR 111700Z 18003KT 9999 -SN SCT025 OVC032 M05/M07 Q1018",
      "taf": "TAF LRTR 111100Z 1112/1212 28010KT CAVOK"
    },
    {
      "icao": "LTAC",
      "alert": "OK",
      "vis_m": 2800,
      "fzfg": false,
      "metar_trigger": false,
      "taf_trigger": false,
      "metar": "METAR LTAC 111650Z 34003KT 2800 -SN BR SCT002 BKN020 BKN080 00/M00 Q1005 NOSIG RMK RWY21C 32004KT RWY03L 33003KT RWY21R 31004KT RWY03R 32004KT RWY21L 34004KT",
      "taf": "TAF LTAC 111640Z 1118/1218 VRB02KT 6000 SCT035 BKN090"
    },
    {
      "icao": "LTFM",
      "alert": "OK",
      "vis_m": 7000,
      "fzfg": false,
      "metar_trigger": false,
      "taf_trigger": false,
      "metar": "METAR LTFM 111650Z 02021KT 7000 -RA BKN012 BKN020 04/01 Q1009 NOSIG RMK RWY17L 02021KT RWY34L 01020G30KT RWY16R 01020G30KT RWY36 02023KT RWY18 02019KT",
      "taf": "TAF LTFM 111640Z 1118/1224 02020G30KT 9999 -SHRA BKN012 BKN020"
    },
    {
      "icao": "LUKK",
      "alert": "OK",
      "vis_m": 9999,
      "fzfg": false,
      "metar_trigger": false,
      "taf_trigger": false,
      "metar": "METAR LUKK 111700Z 25007KT CAVOK M08/M11 Q1011 NOSIG",
      "taf": "TAF LUKK 111116Z 1112/1212 28009KT CAVOK"
    },
    {
      "icao": "LWOH",
      "alert": "OK",
      "vis_m": 9999,
      "fzfg": false,
      "metar_trigger": false,
      "taf_trigger": false,
      "metar": "METAR LWOH 111650Z 32011KT 270V350 9999 FEW015 SCT040 M02/M06 Q1011",
      "taf": "TAF LWOH 111140Z 1112/1212 36010KT 9999 SCT050"
    },
    {
      "icao": "LWSK",
      "alert": "OK",
      "vis_m": 9999,
      "fzfg": false,
      "metar_trigger": false,
      "taf_trigger": false,
      "metar": "METAR LWSK 111650Z 36014KT 9999 BKN045 M02/M10 Q1018 NOSIG",
      "taf": "TAF LWSK 111455Z 1115/1215 01015KT 9999 BKN045"
    },
    {
      "icao": "LYBE",
      "alert": "OK",
      "vis_m": 9999,
      "fzfg": false,
      "metar_trigger": false,
      "taf_trigger": false,
      "metar": "METAR LYBE 111700Z 28010KT 9999 SCT033 M03/M07 Q1020 NOSIG",
      "taf": "TAF LYBE 111100Z 1112/1212 28015KT 9999 BKN020 TXM02/1212Z TNM10/1206Z"
    },
    {
      "icao": "LYNI",
      "alert": "OK",
      "vis_m": 9999,
      "fzfg": false,
      "metar_trigger": false,
      "taf_trigger": false,
      "metar": "METAR LYNI 111700Z 32004KT 280V340 9999 -SN FEW015 BKN030 M04/M06 Q1019 NOSIG",
      "taf": "TAF LYNI 111100Z 1112/1212 32010KT 9999 SCT015 BKN025 TXM02/1212Z TNM07/1206Z"
    },
    {
      "icao": "LYPG",
      "alert": "OK",
      "vis_m": 9999,
      "fzfg": false,
      "metar_trigger": false,
      "taf_trigger": false,
      "metar": "METAR LYPG 111700Z 01022G36KT 9999 FEW040 01/M14 Q1016 NOSIG",
      "taf": "TAF LYPG 111100Z 1112/1212 36015G25KT CAVOK TX08/1112Z TNM01/1205Z"
    },
    {
      "icao": "LZIB",
      "alert": "OK",
      "vis_m": 9999,
      "fzfg": false,
      "metar_trigger": false,
      "taf_trigger": false,
      "metar": "METAR LZIB 111700Z 29011KT 260V340 CAVOK M02/M12 Q1020 NOSIG",
      "taf": ""
    },
    {
      "icao": "LZKZ",
      "alert": "OK",
      "vis_m": 9999,
      "fzfg": false,
      "metar_trigger": false,
      "taf_trigger": false,
      "metar": "METAR LZKZ 111700Z 36003KT CAVOK M05/M09 Q1013 NOSIG",
      "taf": ""
    },
    {
      "icao": "LZTT",
      "alert": "OK",
      "vis_m": 9999,
      "fzfg": false,
      "metar_trigger": false,
      "taf_trigger": false,
      "metar": "METAR LZTT 111700Z 27018KT 9999 -SN DRSN OVC040 M07/M10 Q1010 NOSIG",
      "taf": ""
    },
    {
      "icao": "OEJN",
      "alert": "OK",
      "vis_m": 9999,
      "fzfg": false,
      "metar_trigger": false,
      "taf_trigger": false,
      "metar": "METAR OEJN 111700Z 26004KT CAVOK 26/17 Q1015 NOSIG",
      "taf": "TAF OEJN 111700Z 1118/1224 36005KT CAVOK"
    },
    {
      "icao": "OEMA",
      "alert": "OK",
      "vis_m": 9999,
      "fzfg": false,
      "metar_trigger": false,
      "taf_trigger": false,
      "metar": "METAR OEMA 111700Z 33004KT CAVOK 22/01 Q1019 NOSIG",
      "taf": "TAF OEMA 111700Z 1118/1224 09008KT CAVOK"
    },
    {
      "icao": "OJAI",
      "alert": "OK",
      "vis_m": 5000,
      "fzfg": false,
      "metar_trigger": false,
      "taf_trigger": false,
      "metar": "METAR OJAI 111700Z 08002KT 5000 HZ NSC 09/06 Q1018 NOSIG",
      "taf": "TAF OJAI 111700Z 1118/1224 24014KT 5000 HZ NSC"
    },
    {
      "icao": "OMAA",
      "alert": "OK",
      "vis_m": 9999,
      "fzfg": false,
      "metar_trigger": false,
      "taf_trigger": false,
      "metar": "METAR OMAA 111700Z 32005KT CAVOK 21/14 Q1022 NOSIG",
      "taf": "TAF OMAA 111700Z 1118/1300 32005KT 8000 NSC"
    },
    {
      "icao": "OMDB",
      "alert": "OK",
      "vis_m": 9999,
      "fzfg": false,
      "metar_trigger": false,
      "taf_trigger": false,
      "metar": "METAR OMDB 111700Z 32007KT CAVOK 23/14 Q1022 NOSIG",
      "taf": "TAF OMDB 111700Z 1118/1300 14005KT 8000 NSC"
    },
    {
      "icao": "UAAA",
      "alert": "OK",
      "vis_m": 1100,
      "fzfg": false,
      "metar_trigger": false,
      "taf_trigger": false,
      "metar": "METAR UAAA 111700Z 18002MPS 1100 R05R/P2000 BR FU SCT100 M02/M05 Q1020 NOSIG",
      "taf": "TAF UAAA 111103Z 1112/1212 21002MPS 1200 BR FU SCT050 BKN100 TX07/1209Z TNM04/1201Z"
    },
    {
      "icao": "UBBB",
      "alert": "OK",
      "vis_m": 9999,
      "fzfg": false,
      "metar_trigger": false,
      "taf_trigger": false,
      "metar": "METAR UBBB 111700Z 18029G41KT CAVOK 11/02 Q1012 NOSIG",
      "taf": "TAF UBBB 111704Z 1118/1218 19024G34KT CAVOK TX14/1209Z TN07/1200Z"
    },
    {
      "icao": "UDSG",
      "alert": "OK",
      "vis_m": 9999,
      "fzfg": false,
      "metar_trigger": false,
      "taf_trigger": false,
      "metar": "METAR UDSG 111700Z 31001KT 9999 BKN043 M02/M05 Q1019 NOSIG",
      "taf": "TAF UDSG 111058Z 1112/1212 VRB06KT 9999 SCT040"
    },
    {
      "icao": "UDYZ",
      "alert": "OK",
      "vis_m": 2500,
      "fzfg": false,
      "metar_trigger": false,
      "taf_trigger": false,
      "metar": "METAR UDYZ 111700Z 31003KT 2500 R08/P2000N BR SCT046 M01/M03 Q1021 NOSIG",
      "taf": "TAF UDYZ 111100Z 1112/1212 VRB06KT 3500 BR SCT040"
    },
    {
      "icao": "UGKO",
      "alert": "OK",
      "vis_m": 9999,
      "fzfg": false,
      "metar_trigger": false,
      "taf_trigger": false,
      "metar": "METAR UGKO 111700Z 09017KT CAVOK 12/M02 Q1010 NOSIG",
      "taf": "TAF UGKO 111700Z 1118/1218 08010KT CAVOK TX14/1212Z TN09/1202Z"
    }
  ]
}