{
  "ts_utc": "2026-06-03T02:07:11Z",
  "threshold_m": 150,
  "source": "stations_override.txt (ICAO list) + aviationweather.gov (METAR/TAF raw)",
  "station_count": 159,
  "stations": [
    {
      "icao": "BIKF",
      "alert": "OK",
      "vis_m": 9999,
      "fzfg": false,
      "metar_trigger": false,
      "taf_trigger": false,
      "metar": "METAR BIKF 030200Z 14007KT 9999 BKN004 OVC011 09/09 Q0996",
      "taf": "TAF BIKF 030105Z 0303/0403 15007KT 9999 -SHRA SCT020 BKN030 TX12/0315Z TN08/0305Z"
    },
    {
      "icao": "BKPR",
      "alert": "OK",
      "vis_m": 9999,
      "fzfg": false,
      "metar_trigger": false,
      "taf_trigger": false,
      "metar": "METAR BKPR 030200Z 27003KT CAVOK 12/11 Q1014 NOSIG",
      "taf": "TAF BKPR 022330Z 0300/0324 21008KT 9999 FEW040"
    },
    {
      "icao": "EBCI",
      "alert": "OK",
      "vis_m": 9999,
      "fzfg": false,
      "metar_trigger": false,
      "taf_trigger": false,
      "metar": "METAR EBCI 030150Z 24009KT 9999 -RA FEW008 BKN012 12/11 Q1008 TEMPO 4000 SHRA",
      "taf": "TAF EBCI 022301Z 0300/0406 24009KT 9999 SCT025"
    },
    {
      "icao": "EDDB",
      "alert": "OK",
      "vis_m": 9999,
      "fzfg": false,
      "metar_trigger": false,
      "taf_trigger": false,
      "metar": "METAR EDDB 030150Z AUTO 12003KT CAVOK 17/11 Q1004 NOSIG",
      "taf": "TAF EDDB 022300Z 0300/0324 15005KT CAVOK"
    },
    {
      "icao": "EDDH",
      "alert": "OK",
      "vis_m": 9999,
      "fzfg": false,
      "metar_trigger": false,
      "taf_trigger": false,
      "metar": "METAR EDDH 030150Z AUTO 22006KT 9999 -RA BKN009 15/15 Q1003 TEMPO RA SCT009 BKN015",
      "taf": "TAF EDDH 022300Z 0300/0406 21005KT 9999 BKN015"
    },
    {
      "icao": "EDDK",
      "alert": "OK",
      "vis_m": 9999,
      "fzfg": false,
      "metar_trigger": false,
      "taf_trigger": false,
      "metar": "METAR EDDK 030150Z AUTO 17004KT 120V230 9999 FEW043 12/11 Q1008 NOSIG",
      "taf": "TAF EDDK 022300Z 0300/0406 20006KT 9999 SCT030"
    },
    {
      "icao": "EDDN",
      "alert": "OK",
      "vis_m": 9999,
      "fzfg": false,
      "metar_trigger": false,
      "taf_trigger": false,
      "metar": "METAR EDDN 030150Z AUTO 27008KT CAVOK 14/11 Q1009",
      "taf": "TAF EDDN 022300Z 0300/0324 23005KT 9999 FEW015"
    },
    {
      "icao": "EDDS",
      "alert": "OK",
      "vis_m": 9999,
      "fzfg": false,
      "metar_trigger": false,
      "taf_trigger": false,
      "metar": "METAR EDDS 030150Z AUTO 25005KT 210V290 CAVOK 13/10 Q1011",
      "taf": "TAF EDDS 022300Z 0300/0324 23005KT CAVOK"
    },
    {
      "icao": "EDFH",
      "alert": "OK",
      "vis_m": 9999,
      "fzfg": false,
      "metar_trigger": false,
      "taf_trigger": false,
      "metar": "METAR EDFH 030150Z 25007KT 220V280 9999 FEW012 BKN017 10/09 Q1010",
      "taf": "TAF EDFH 022300Z 0300/0324 25008KT 9999 FEW008 SCT020"
    },
    {
      "icao": "EDJA",
      "alert": "OK",
      "vis_m": 9999,
      "fzfg": false,
      "metar_trigger": false,
      "taf_trigger": false,
      "metar": "METAR EDJA 030150Z AUTO 22008KT 9999 // SCT065/// BKN075/// OVC170/// 12/11 Q1012",
      "taf": "TAF EDJA 021700Z 0218/0303 23010KT 9999 FEW015 BKN050"
    },
    {
      "icao": "EDLW",
      "alert": "OK",
      "vis_m": 9999,
      "fzfg": false,
      "metar_trigger": false,
      "taf_trigger": false,
      "metar": "METAR EDLW 030150Z AUTO 22011KT 9999 // BKN046/// 13/11 Q1007",
      "taf": "TAF EDLW 021700Z 0218/0318 21010KT 9999 SCT030"
    },
    {
      "icao": "EDNY",
      "alert": "OK",
      "vis_m": 9999,
      "fzfg": false,
      "metar_trigger": false,
      "taf_trigger": false,
      "metar": "METAR EDNY 030150Z AUTO 24009KT 210V270 9999 // FEW012/// SCT072/// OVC085/// 14/12 Q1012",
      "taf": ""
    },
    {
      "icao": "EDSB",
      "alert": "OK",
      "vis_m": 9999,
      "fzfg": false,
      "metar_trigger": false,
      "taf_trigger": false,
      "metar": "METAR EDSB 030150Z AUTO 19010KT 9999 // FEW065/// SCT081/// 14/12 Q1011",
      "taf": "TAF EDSB 022300Z 0300/0324 22009KT 9999 SCT040"
    },
    {
      "icao": "EETN",
      "alert": "OK",
      "vis_m": 9999,
      "fzfg": false,
      "metar_trigger": false,
      "taf_trigger": false,
      "metar": "METAR EETN 030150Z 00000KT CAVOK 13/10 Q1013",
      "taf": "TAF EETN 022330Z 0300/0324 VRB02KT CAVOK"
    },
    {
      "icao": "EFTU",
      "alert": "OK",
      "vis_m": 9999,
      "fzfg": false,
      "metar_trigger": false,
      "taf_trigger": false,
      "metar": "METAR EFTU 030150Z AUTO 14003KT 110V190 CAVOK 11/10 Q1012",
      "taf": "TAF EFTU 022326Z 0300/0324 17002KT CAVOK"
    },
    {
      "icao": "EGBB",
      "alert": "OK",
      "vis_m": 9999,
      "fzfg": false,
      "metar_trigger": false,
      "taf_trigger": false,
      "metar": "METAR EGBB 030150Z 22006KT CAVOK 12/10 Q1006",
      "taf": "TAF EGBB 022258Z 0300/0324 26008KT 9999 FEW030"
    },
    {
      "icao": "EGGP",
      "alert": "OK",
      "vis_m": 9999,
      "fzfg": false,
      "metar_trigger": false,
      "taf_trigger": false,
      "metar": "METAR EGGP 030150Z 24006KT 9999 BKN017 14/11 Q1004",
      "taf": "TAF EGGP 022258Z 0300/0324 27014KT 9999 FEW040"
    },
    {
      "icao": "EGGW",
      "alert": "OK",
      "vis_m": 9999,
      "fzfg": false,
      "metar_trigger": false,
      "taf_trigger": false,
      "metar": "METAR EGGW 030150Z AUTO 25011KT 9999 BKN007 12/11 Q1006",
      "taf": ""
    },
    {
      "icao": "EGKK",
      "alert": "OK",
      "vis_m": 9999,
      "fzfg": false,
      "metar_trigger": false,
      "taf_trigger": false,
      "metar": "METAR EGKK 030150Z 23004KT CAVOK 13/11 Q1008",
      "taf": "TAF EGKK 022257Z 0300/0406 25009KT 9999 FEW030"
    },
    {
      "icao": "EGNM",
      "alert": "OK",
      "vis_m": 9999,
      "fzfg": false,
      "metar_trigger": false,
      "taf_trigger": false,
      "metar": "METAR EGNM 030150Z 24009KT 9999 BKN011 13/11 Q1003",
      "taf": "TAF EGNM 022258Z 0300/0324 27012KT 9999 SCT025"
    },
    {
      "icao": "EGPD",
      "alert": "OK",
      "vis_m": 9999,
      "fzfg": false,
      "metar_trigger": false,
      "taf_trigger": false,
      "metar": "METAR EGPD 030150Z AUTO 17002KT 9999 SCT019 13/12 Q0998 TEMPO BKN014",
      "taf": "TAF EGPD 022255Z 0300/0324 VRB03KT 9999 SCT012"
    },
    {
      "icao": "EGPF",
      "alert": "OK",
      "vis_m": 9999,
      "fzfg": false,
      "metar_trigger": false,
      "taf_trigger": false,
      "metar": "METAR EGPF 030150Z AUTO 23004KT 9999 BKN010 OVC021 12/11 Q1000",
      "taf": "TAF EGPF 022302Z 0300/0324 24007KT 9999 BKN025"
    },
    {
      "icao": "EHBK",
      "alert": "OK",
      "vis_m": 9999,
      "fzfg": false,
      "metar_trigger": false,
      "taf_trigger": false,
      "metar": "METAR EHBK 030155Z AUTO 22011KT 190V250 9999 OVC036/// 13/11 Q1008",
      "taf": "TAF EHBK 022304Z 0300/0406 22010KT 9999 BKN030"
    },
    {
      "icao": "EHEH",
      "alert": "OK",
      "vis_m": 9999,
      "fzfg": false,
      "metar_trigger": false,
      "taf_trigger": false,
      "metar": "METAR EHEH 030155Z AUTO 21006KT 9999 FEW022 OVC033 13/11 Q1006 BLU",
      "taf": "TAF EHEH 022305Z 0300/0406 21007KT CAVOK"
    },
    {
      "icao": "EKBI",
      "alert": "OK",
      "vis_m": 9999,
      "fzfg": false,
      "metar_trigger": false,
      "taf_trigger": false,
      "metar": "METAR EKBI 030150Z AUTO 10006KT 9999 FEW078/// OVC100/// 16/13 Q1002",
      "taf": "TAF EKBI 022327Z 0300/0324 11008KT 9999 FEW045"
    },
    {
      "icao": "EKCH",
      "alert": "OK",
      "vis_m": 9999,
      "fzfg": false,
      "metar_trigger": false,
      "taf_trigger": false,
      "metar": "METAR EKCH 030150Z AUTO 09008KT 9999 BKN072/// 16/11 Q1005 NOSIG",
      "taf": "TAF EKCH 022327Z 0300/0324 10012KT 9999 FEW040"
    },
    {
      "icao": "ENAL",
      "alert": "OK",
      "vis_m": 9999,
      "fzfg": false,
      "metar_trigger": false,
      "taf_trigger": false,
      "metar": "METAR ENAL 030150Z AUTO 10004KT 9999 -RA BKN047/// BKN059/// 11/11 Q1002",
      "taf": "TAF ENAL 022300Z 0300/0309 15008KT 9999 FEW025 SCT050"
    },
    {
      "icao": "ENBR",
      "alert": "OK",
      "vis_m": 9999,
      "fzfg": false,
      "metar_trigger": false,
      "taf_trigger": false,
      "metar": "METAR ENBR 030150Z 22003KT 170V240 9999 BKN051 13/12 Q1002 RMK WIND 1200FT 13016KT",
      "taf": "TAF ENBR 022300Z 0300/0324 13008KT 9999 FEW012 BKN030"
    },
    {
      "icao": "ENGM",
      "alert": "OK",
      "vis_m": 9999,
      "fzfg": false,
      "metar_trigger": false,
      "taf_trigger": false,
      "metar": "METAR ENGM 030150Z VRB02KT 9999 -RA SCT008 OVC013 13/12 Q1008",
      "taf": "TAF ENGM 022300Z 0300/0324 17008KT 9999 SCT005 BKN015"
    },
    {
      "icao": "ENHD",
      "alert": "OK",
      "vis_m": 9999,
      "fzfg": false,
      "metar_trigger": false,
      "taf_trigger": false,
      "metar": "METAR ENHD 030150Z AUTO 11012KT 9999 NCD 16/11 Q1001",
      "taf": ""
    },
    {
      "icao": "ENTC",
      "alert": "OK",
      "vis_m": 9999,
      "fzfg": false,
      "metar_trigger": false,
      "taf_trigger": false,
      "metar": "METAR ENTC 030150Z AUTO 00000KT 9999 NCD 09/05 Q1008 RMK WIND 2600FT 17013KT",
      "taf": "TAF ENTC 022300Z 0300/0324 04008KT 9999 FEW060"
    },
    {
      "icao": "ENTO",
      "alert": "OK",
      "vis_m": 600,
      "fzfg": false,
      "metar_trigger": false,
      "taf_trigger": false,
      "metar": "METAR ENTO 030150Z AUTO 36003KT 0600 R18/1800D R36/P2000N FG VV001 13/13 Q1007",
      "taf": ""
    },
    {
      "icao": "ENVA",
      "alert": "OK",
      "vis_m": 9999,
      "fzfg": false,
      "metar_trigger": false,
      "taf_trigger": false,
      "metar": "METAR ENVA 030150Z AUTO 13008KT 9999 NCD 17/09 Q1004 RMK WIND 670FT 16018KT",
      "taf": "TAF ENVA 022300Z 0300/0324 VRB05KT CAVOK"
    },
    {
      "icao": "ENZV",
      "alert": "OK",
      "vis_m": 9999,
      "fzfg": false,
      "metar_trigger": false,
      "taf_trigger": false,
      "metar": "METAR ENZV 030150Z AUTO 12010KT 9999 NCD 17/11 Q1001",
      "taf": "TAF ENZV 022300Z 0300/0324 14012KT 9999 FEW015 BKN025"
    },
    {
      "icao": "EPGD",
      "alert": "OK",
      "vis_m": 9999,
      "fzfg": false,
      "metar_trigger": false,
      "taf_trigger": false,
      "metar": "METAR EPGD 030200Z 14004KT CAVOK 12/11 Q1009",
      "taf": "TAF EPGD 022330Z 0300/0324 12003KT CAVOK"
    },
    {
      "icao": "EPKK",
      "alert": "OK",
      "vis_m": 9999,
      "fzfg": false,
      "metar_trigger": false,
      "taf_trigger": false,
      "metar": "METAR EPKK 030200Z 04005KT CAVOK 12/11 Q1009",
      "taf": "TAF EPKK 022330Z 0300/0324 05006KT CAVOK"
    },
    {
      "icao": "EPKT",
      "alert": "OK",
      "vis_m": 9999,
      "fzfg": false,
      "metar_trigger": false,
      "taf_trigger": false,
      "metar": "METAR EPKT 030200Z 06002KT CAVOK 09/08 Q1008",
      "taf": "TAF EPKT 022330Z 0300/0324 12007KT CAVOK"
    },
    {
      "icao": "EPLB",
      "alert": "OK",
      "vis_m": 9999,
      "fzfg": false,
      "metar_trigger": false,
      "taf_trigger": false,
      "metar": "METAR EPLB 030200Z 10006KT 9999 OVC004 14/14 Q1011",
      "taf": "TAF EPLB 022330Z 0300/0324 10010KT 9999 BKN006"
    },
    {
      "icao": "EPMO",
      "alert": "OK",
      "vis_m": 9999,
      "fzfg": false,
      "metar_trigger": false,
      "taf_trigger": false,
      "metar": "METAR EPMO 030200Z 09006KT CAVOK 12/12 Q1010",
      "taf": "TAF EPMO 022330Z 0300/0324 10008KT CAVOK"
    },
    {
      "icao": "EPPO",
      "alert": "OK",
      "vis_m": 9999,
      "fzfg": false,
      "metar_trigger": false,
      "taf_trigger": false,
      "metar": "METAR EPPO 030200Z 12008KT CAVOK 15/10 Q1007",
      "taf": "TAF EPPO 022330Z 0300/0324 10006KT CAVOK"
    },
    {
      "icao": "EPRA",
      "alert": "OK",
      "vis_m": 1600,
      "fzfg": false,
      "metar_trigger": false,
      "taf_trigger": false,
      "metar": "METAR EPRA 030200Z 11006KT 1600 BR OVC002 13/12 Q1010",
      "taf": ""
    },
    {
      "icao": "EPRZ",
      "alert": "OK",
      "vis_m": 100,
      "fzfg": false,
      "metar_trigger": false,
      "taf_trigger": false,
      "metar": "METAR EPRZ 030200Z 09005KT 0100 R27/0600N FG VV001 13/13 Q1010",
      "taf": ""
    },
    {
      "icao": "EPSC",
      "alert": "OK",
      "vis_m": 9999,
      "fzfg": false,
      "metar_trigger": false,
      "taf_trigger": false,
      "metar": "METAR EPSC 030200Z 10010KT CAVOK 17/09 Q1005",
      "taf": "TAF EPSC 022330Z 0300/0324 12008KT CAVOK"
    },
    {
      "icao": "EPSY",
      "alert": "OK",
      "vis_m": 9999,
      "fzfg": false,
      "metar_trigger": false,
      "taf_trigger": false,
      "metar": "METAR EPSY 030200Z 11004KT 070V150 CAVOK 12/11 Q1011",
      "taf": "TAF EPSY 022330Z 0300/0309 16006KT CAVOK"
    },
    {
      "icao": "EPWA",
      "alert": "OK",
      "vis_m": 9999,
      "fzfg": false,
      "metar_trigger": false,
      "taf_trigger": false,
      "metar": "METAR EPWA 030200Z 11006KT CAVOK 13/12 Q1010 BECMG 1500 BR BKN004",
      "taf": ""
    },
    {
      "icao": "EPWR",
      "alert": "OK",
      "vis_m": 9999,
      "fzfg": false,
      "metar_trigger": false,
      "taf_trigger": false,
      "metar": "METAR EPWR 030200Z 10005KT CAVOK 13/10 Q1006",
      "taf": "TAF EPWR 022330Z 0300/0324 12006KT CAVOK"
    },
    {
      "icao": "ESGG",
      "alert": "OK",
      "vis_m": 9999,
      "fzfg": false,
      "metar_trigger": false,
      "taf_trigger": false,
      "metar": "METAR ESGG 030150Z 11007KT CAVOK 14/10 Q1007",
      "taf": "TAF ESGG 022330Z 0300/0324 VRB03KT CAVOK"
    },
    {
      "icao": "ESKN",
      "alert": "OK",
      "vis_m": 9999,
      "fzfg": false,
      "metar_trigger": false,
      "taf_trigger": false,
      "metar": "METAR ESKN 030150Z 11003KT 070V130 CAVOK 14/14 Q1010",
      "taf": "TAF ESKN 022330Z 0300/0324 11004KT CAVOK"
    },
    {
      "icao": "ESMS",
      "alert": "OK",
      "vis_m": 9999,
      "fzfg": false,
      "metar_trigger": false,
      "taf_trigger": false,
      "metar": "METAR ESMS 030150Z 10009KT CAVOK 14/10 Q1005",
      "taf": "TAF ESMS 022327Z 0300/0324 11010KT 9999 FEW040"
    },
    {
      "icao": "ESSA",
      "alert": "OK",
      "vis_m": 9999,
      "fzfg": false,
      "metar_trigger": false,
      "taf_trigger": false,
      "metar": "METAR ESSA 030150Z 16004KT 9999 BKN047 15/11 Q1010 NOSIG",
      "taf": "TAF ESSA 022330Z 0300/0324 15004KT CAVOK"
    },
    {
      "icao": "EYKA",
      "alert": "OK",
      "vis_m": 9999,
      "fzfg": false,
      "metar_trigger": false,
      "taf_trigger": false,
      "metar": "METAR EYKA 030150Z 18002KT CAVOK 11/09 Q1014",
      "taf": "TAF EYKA 022300Z 0300/0324 VRB03KT 6000 NSC"
    },
    {
      "icao": "EYPA",
      "alert": "OK",
      "vis_m": 9999,
      "fzfg": false,
      "metar_trigger": false,
      "taf_trigger": false,
      "metar": "METAR EYPA 030150Z 15007KT CAVOK 14/12 Q1011",
      "taf": "TAF EYPA 022300Z 0300/0324 VRB03KT 8000 NSC"
    },
    {
      "icao": "EYVI",
      "alert": "OK",
      "vis_m": 9999,
      "fzfg": false,
      "metar_trigger": false,
      "taf_trigger": false,
      "metar": "METAR EYVI 030150Z VRB01KT CAVOK 10/08 Q1014 NOSIG",
      "taf": "TAF EYVI 022300Z 0300/0324 VRB03KT 6000 NSC"
    },
    {
      "icao": "GCFV",
      "alert": "OK",
      "vis_m": 9999,
      "fzfg": false,
      "metar_trigger": false,
      "taf_trigger": false,
      "metar": "METAR GCFV 030200Z AUTO 01014KT 9999 OVC020 20/16 Q1020",
      "taf": "TAF GCFV 022000Z 0221/0321 02013KT 9999 BKN017 TX25/0314Z TN19/0306Z"
    },
    {
      "icao": "GCLP",
      "alert": "OK",
      "vis_m": 9999,
      "fzfg": false,
      "metar_trigger": false,
      "taf_trigger": false,
      "metar": "METAR GCLP 030200Z 36021KT 9999 BKN021 21/16 Q1021 NOSIG",
      "taf": "TAF GCLP 022000Z 0221/0321 36024KT 9999 BKN020 TX24/0314Z TN19/0306Z"
    },
    {
      "icao": "GCTS",
      "alert": "OK",
      "vis_m": 9999,
      "fzfg": false,
      "metar_trigger": false,
      "taf_trigger": false,
      "metar": "METAR GCTS 030200Z 04009KT 350V070 9999 BKN020 20/16 Q1021 NOSIG",
      "taf": "TAF GCTS 022000Z 0221/0321 03008KT 9999 FEW025 TX26/0314Z TN19/0306Z"
    },
    {
      "icao": "GMAD",
      "alert": "OK",
      "vis_m": 8000,
      "fzfg": false,
      "metar_trigger": false,
      "taf_trigger": false,
      "metar": "METAR GMAD 030200Z 22003KT 190V260 8000 BKN010 19/17 Q1015 NOSIG",
      "taf": "TAF GMAD 022300Z 0300/0406 06008KT 8000 SCT016"
    },
    {
      "icao": "GMMN",
      "alert": "OK",
      "vis_m": 9999,
      "fzfg": false,
      "metar_trigger": false,
      "taf_trigger": false,
      "metar": "METAR GMMN 030200Z 01006KT 340V050 9999 BKN014 19/16 Q1020 NOSIG",
      "taf": "TAF GMMN 022300Z 0300/0406 36008KT 9999 BKN014"
    },
    {
      "icao": "GMMX",
      "alert": "OK",
      "vis_m": 9999,
      "fzfg": false,
      "metar_trigger": false,
      "taf_trigger": false,
      "metar": "METAR GMMX 030200Z 07004KT CAVOK 22/14 Q1019 NOSIG",
      "taf": "TAF GMMX 022300Z 0300/0406 06006KT 8000 NSC"
    },
    {
      "icao": "HEGN",
      "alert": "OK",
      "vis_m": 9999,
      "fzfg": false,
      "metar_trigger": false,
      "taf_trigger": false,
      "metar": "METAR HEGN 030100Z 27004KT CAVOK 26/07 Q1012 NOSIG",
      "taf": "TAF HEGN 022300Z 0300/0406 29008KT CAVOK"
    },
    {
      "icao": "HEMA",
      "alert": "OK",
      "vis_m": 9999,
      "fzfg": false,
      "metar_trigger": false,
      "taf_trigger": false,
      "metar": "METAR HEMA 030100Z 30012KT CAVOK 31/04 Q1011 NOSIG",
      "taf": "TAF HEMA 022300Z 0300/0406 30012KT CAVOK"
    },
    {
      "icao": "HESH",
      "alert": "OK",
      "vis_m": 9999,
      "fzfg": false,
      "metar_trigger": false,
      "taf_trigger": false,
      "metar": "METAR HESH 030100Z 34014KT CAVOK 29/13 Q1012 NOSIG",
      "taf": "TAF HESH 022300Z 0300/0406 01012KT CAVOK"
    },
    {
      "icao": "HESX",
      "alert": "OK",
      "vis_m": 9999,
      "fzfg": false,
      "metar_trigger": false,
      "taf_trigger": false,
      "metar": "METAR HESX 030100Z 06006KT CAVOK 22/11 Q1015 NOSIG",
      "taf": "TAF HESX 022300Z 0300/0406 06010KT CAVOK"
    },
    {
      "icao": "LATI",
      "alert": "OK",
      "vis_m": 9999,
      "fzfg": false,
      "metar_trigger": false,
      "taf_trigger": false,
      "metar": "METAR LATI 030150Z VRB01KT 9999 BKN061 18/13 Q1013 NOSIG",
      "taf": "TAF LATI 022300Z 0300/0324 VRB04KT 9999 FEW040 SCT070 TX30/0312Z TN16/0304Z"
    },
    {
      "icao": "LBPD",
      "alert": "OK",
      "vis_m": 7000,
      "fzfg": false,
      "metar_trigger": false,
      "taf_trigger": false,
      "metar": "METAR LBPD 030200Z AUTO VRB01KT 7000 FEW002/// BKN170/// 16/16 Q1013",
      "taf": "TAF LBPD 022300Z 0300/0324 VRB04KT 9999 SCT060"
    },
    {
      "icao": "LBSF",
      "alert": "OK",
      "vis_m": 3500,
      "fzfg": false,
      "metar_trigger": false,
      "taf_trigger": false,
      "metar": "METAR LBSF 030200Z AUTO 24003KT 3500 1500N BR NCD 14/13 Q1014 TEMPO 0800 BCFG BKN003",
      "taf": "TAF LBSF 022300Z 0300/0324 VRB04KT 9999 SCT040 BKN060"
    },
    {
      "icao": "LBWN",
      "alert": "OK",
      "vis_m": 450,
      "fzfg": false,
      "metar_trigger": false,
      "taf_trigger": false,
      "metar": "METAR LBWN 030200Z AUTO VRB02KT 0450 R09/0650U FG FEW001/// 14/14 Q1012 TEMPO 0400 BCFG",
      "taf": "TAF LBWN 022300Z 0300/0324 VRB04KT 0400 FG BKN002"
    },
    {
      "icao": "LCLK",
      "alert": "OK",
      "vis_m": 9999,
      "fzfg": false,
      "metar_trigger": false,
      "taf_trigger": false,
      "metar": "METAR LCLK 030200Z 30005KT 9999 FEW030 18/16 Q1014 NOSIG",
      "taf": "TAF LCLK 022330Z 0300/0400 30005KT CAVOK"
    },
    {
      "icao": "LCPH",
      "alert": "OK",
      "vis_m": 9999,
      "fzfg": false,
      "metar_trigger": false,
      "taf_trigger": false,
      "metar": "METAR LCPH 030200Z AUTO 02007KT 9999 NCD 17/10 Q1014 NOSIG",
      "taf": "TAF LCPH 022330Z 0300/0400 02008KT CAVOK"
    },
    {
      "icao": "LEAL",
      "alert": "OK",
      "vis_m": 9999,
      "fzfg": false,
      "metar_trigger": false,
      "taf_trigger": false,
      "metar": "METAR LEAL 030200Z VRB02KT CAVOK 24/18 Q1014 NOSIG",
      "taf": "TAF LEAL 022300Z 0300/0324 06010KT CAVOK TX28/0312Z TN21/0305Z"
    },
    {
      "icao": "LEBB",
      "alert": "OK",
      "vis_m": 9999,
      "fzfg": false,
      "metar_trigger": false,
      "taf_trigger": false,
      "metar": "METAR LEBB 030200Z AUTO 25003KT 210V290 9999 FEW025 SCT039 OVC050 16/14 Q1022",
      "taf": "TAF LEBB 022300Z 0300/0324 VRB03KT 9999 SCT020 BKN040 TX25/0312Z TN14/0305Z"
    },
    {
      "icao": "LEBL",
      "alert": "OK",
      "vis_m": 9999,
      "fzfg": false,
      "metar_trigger": false,
      "taf_trigger": false,
      "metar": "METAR LEBL 030200Z 20006KT 9999 FEW035 22/17 Q1016 NOSIG",
      "taf": "TAF LEBL 022300Z 0300/0324 VRB04KT 9999 FEW030 TX25/0312Z TN20/0306Z"
    },
    {
      "icao": "LECH",
      "alert": "OK",
      "vis_m": 9999,
      "fzfg": false,
      "metar_trigger": false,
      "taf_trigger": false,
      "metar": "METAR LECH 030200Z AUTO 03006KT 350V060 9999 FEW050 18/10 Q1017",
      "taf": "TAF LECH 022300Z 0300/0324 02010KT 9999 FEW060 TX27/0313Z TN16/0305Z"
    },
    {
      "icao": "LEMD",
      "alert": "OK",
      "vis_m": 9999,
      "fzfg": false,
      "metar_trigger": false,
      "taf_trigger": false,
      "metar": "METAR LEMD 030200Z 06003KT 020V120 CAVOK 17/10 Q1019 NOSIG",
      "taf": "TAF LEMD 022300Z 0300/0406 03007KT CAVOK TX32/0316Z TN14/0305Z"
    },
    {
      "icao": "LEMG",
      "alert": "OK",
      "vis_m": 9999,
      "fzfg": false,
      "metar_trigger": false,
      "taf_trigger": false,
      "metar": "METAR LEMG 030200Z 29011KT CAVOK 25/11 Q1014 NOSIG",
      "taf": "TAF LEMG 022300Z 0300/0324 30012KT CAVOK TX30/0314Z TN25/0305Z"
    },
    {
      "icao": "LEVC",
      "alert": "OK",
      "vis_m": 9999,
      "fzfg": false,
      "metar_trigger": false,
      "taf_trigger": false,
      "metar": "METAR LEVC 030200Z 06006KT 020V100 9999 BKN020 23/13 Q1016 NOSIG",
      "taf": "TAF LEVC 022300Z 0300/0324 VRB04KT 9999 FEW030 TX28/0312Z TN20/0305Z"
    },
    {
      "icao": "LEXJ",
      "alert": "OK",
      "vis_m": 9999,
      "fzfg": false,
      "metar_trigger": false,
      "taf_trigger": false,
      "metar": "METAR LEXJ 030200Z AUTO 23005KT 180V260 9999 SCT031 BKN040 BKN046 16/14 Q1022",
      "taf": "TAF LEXJ 022000Z 0221/0321 22006KT 9999 SCT030 BKN060 TX24/0312Z TN15/0305Z"
    },
    {
      "icao": "LEZG",
      "alert": "OK",
      "vis_m": 9999,
      "fzfg": false,
      "metar_trigger": false,
      "taf_trigger": false,
      "metar": "METAR LEZG 030200Z 29015KT 9999 FEW040 16/09 Q1019 NOSIG",
      "taf": "TAF LEZG 022300Z 0300/0324 30012KT CAVOK TX31/0315Z TN14/0305Z"
    },
    {
      "icao": "LEZL",
      "alert": "OK",
      "vis_m": 9999,
      "fzfg": false,
      "metar_trigger": false,
      "taf_trigger": false,
      "metar": "METAR LEZL 030200Z AUTO VRB01KT CAVOK 21/11 Q1016",
      "taf": "TAF LEZL 022000Z 0221/0321 29010KT CAVOK TX37/0315Z TN20/0307Z"
    },
    {
      "icao": "LFBD",
      "alert": "OK",
      "vis_m": 9999,
      "fzfg": false,
      "metar_trigger": false,
      "taf_trigger": false,
      "metar": "METAR LFBD 030200Z AUTO 23006KT CAVOK 15/13 Q1019 TEMPO 4000 SHRA BKN020TCU",
      "taf": "TAF LFBD 022300Z 0300/0406 24005KT 9999 SCT040 TX21/0313Z TN14/0305Z"
    },
    {
      "icao": "LFLL",
      "alert": "OK",
      "vis_m": 9999,
      "fzfg": false,
      "metar_trigger": false,
      "taf_trigger": false,
      "metar": "METAR LFLL 030200Z 00000KT CAVOK 14/11 Q1016 NOSIG",
      "taf": "TAF LFLL 022300Z 0300/0406 VRB04KT 9999 FEW050"
    },
    {
      "icao": "LFLS",
      "alert": "OK",
      "vis_m": 9999,
      "fzfg": false,
      "metar_trigger": false,
      "taf_trigger": false,
      "metar": "METAR LFLS 030200Z AUTO 25004KT 220V290 9999 SCT062 BKN076 12/11 Q1017",
      "taf": ""
    },
    {
      "icao": "LFMN",
      "alert": "OK",
      "vis_m": 9999,
      "fzfg": false,
      "metar_trigger": false,
      "taf_trigger": false,
      "metar": "METAR LFMN 030200Z VRB03KT CAVOK 18/14 Q1007 NOSIG",
      "taf": "TAF LFMN 022000Z 0221/0403 34005KT CAVOK"
    },
    {
      "icao": "LFOB",
      "alert": "OK",
      "vis_m": 9999,
      "fzfg": false,
      "metar_trigger": false,
      "taf_trigger": false,
      "metar": "METAR LFOB 030200Z AUTO 24008KT 200V280 9999 BKN015 BKN020 OVC054 14/11 Q1011 TEMPO 3000 SHRA BKN012TCU",
      "taf": "TAF LFOB 022300Z 0300/0324 24012KT 9999 BKN030"
    },
    {
      "icao": "LFPO",
      "alert": "OK",
      "vis_m": 9999,
      "fzfg": false,
      "metar_trigger": false,
      "taf_trigger": false,
      "metar": "METAR LFPO 030200Z AUTO 26006KT 230V290 9999 BKN048 13/10 Q1012 NOSIG",
      "taf": "TAF LFPO 022300Z 0300/0406 26012KT 9999 SCT030"
    },
    {
      "icao": "LFSB",
      "alert": "OK",
      "vis_m": 9999,
      "fzfg": false,
      "metar_trigger": false,
      "taf_trigger": false,
      "metar": "METAR LFSB 030200Z AUTO 23003KT 190V270 CAVOK 12/11 Q1013 TEMPO SHRA FEW020CB BKN030",
      "taf": "TAF LFSB 022300Z 0300/0324 25006KT 9999 SCT025 BKN060"
    },
    {
      "icao": "LGAV",
      "alert": "OK",
      "vis_m": 9999,
      "fzfg": false,
      "metar_trigger": false,
      "taf_trigger": false,
      "metar": "METAR LGAV 030120Z VRB02KT 9999 FEW025 18/16 Q1013 NOSIG",
      "taf": "TAF LGAV 022300Z 0300/0324 VRB05KT 9999 FEW025"
    },
    {
      "icao": "LGTS",
      "alert": "OK",
      "vis_m": 9999,
      "fzfg": false,
      "metar_trigger": false,
      "taf_trigger": false,
      "metar": "METAR LGTS 030150Z 12006KT 9999 FEW025 19/18 Q1012 NOSIG",
      "taf": "TAF LGTS 022300Z 0300/0324 VRB03KT 9999 FEW025"
    },
    {
      "icao": "LHBP",
      "alert": "OK",
      "vis_m": 9999,
      "fzfg": false,
      "metar_trigger": false,
      "taf_trigger": false,
      "metar": "METAR LHBP 030200Z 09004KT CAVOK 13/11 Q1008 NOSIG",
      "taf": "TAF LHBP 022315Z 0300/0324 13004KT CAVOK"
    },
    {
      "icao": "LHDC",
      "alert": "OK",
      "vis_m": 9999,
      "fzfg": false,
      "metar_trigger": false,
      "taf_trigger": false,
      "metar": "METAR LHDC 030145Z AUTO 16005KT CAVOK 15/13 Q1010",
      "taf": "TAF LHDC 021715Z 0218/0303 VRB04KT CAVOK"
    },
    {
      "icao": "LIBD",
      "alert": "OK",
      "vis_m": 9999,
      "fzfg": false,
      "metar_trigger": false,
      "taf_trigger": false,
      "metar": "METAR LIBD 030150Z 13004KT CAVOK 18/14 Q1010",
      "taf": "TAF LIBD 022300Z 0300/0324 21007KT 9999 SCT050"
    },
    {
      "icao": "LIBG",
      "alert": "OK",
      "vis_m": 9999,
      "fzfg": false,
      "metar_trigger": false,
      "taf_trigger": false,
      "metar": "METAR LIBG 030150Z AUTO VRB01KT 9999 NCD 18/17 Q1011",
      "taf": "TAF LIBG 022300Z 0300/0324 VRB05KT 9999 FEW050"
    },
    {
      "icao": "LIBP",
      "alert": "OK",
      "vis_m": 9999,
      "fzfg": false,
      "metar_trigger": false,
      "taf_trigger": false,
      "metar": "METAR LIBP 030150Z AUTO 06003KT 010V110 9999 -RA FEW084/// BKN110/// 19/19 Q1007",
      "taf": "TAF LIBP 022300Z 0300/0324 23006KT 9999 SCT050"
    },
    {
      "icao": "LIBR",
      "alert": "OK",
      "vis_m": 9999,
      "fzfg": false,
      "metar_trigger": false,
      "taf_trigger": false,
      "metar": "METAR LIBR 030120Z 18009KT CAVOK 21/19 Q1011",
      "taf": "TAF LIBR 022300Z 0300/0324 17008KT 9999 FEW050"
    },
    {
      "icao": "LICA",
      "alert": "OK",
      "vis_m": 9999,
      "fzfg": false,
      "metar_trigger": false,
      "taf_trigger": false,
      "metar": "METAR LICA 030150Z AUTO 08004KT 9999 NCD 15/13 Q1012",
      "taf": "TAF LICA 022300Z 0300/0324 VRB05KT 9999 FEW020"
    },
    {
      "icao": "LICC",
      "alert": "OK",
      "vis_m": 9999,
      "fzfg": false,
      "metar_trigger": false,
      "taf_trigger": false,
      "metar": "METAR LICC 030150Z 24013KT CAVOK 21/12 Q1013",
      "taf": "TAF LICC 022300Z 0300/0324 VRB05KT 9999 FEW040"
    },
    {
      "icao": "LICJ",
      "alert": "OK",
      "vis_m": 9999,
      "fzfg": false,
      "metar_trigger": false,
      "taf_trigger": false,
      "metar": "METAR LICJ 030150Z 19015KT CAVOK 27/09 Q1011",
      "taf": "TAF LICJ 022300Z 0300/0324 19010KT CAVOK"
    },
    {
      "icao": "LIMC",
      "alert": "OK",
      "vis_m": 9999,
      "fzfg": false,
      "metar_trigger": false,
      "taf_trigger": false,
      "metar": "METAR LIMC 030150Z 01004KT CAVOK 14/14 Q1008 NOSIG",
      "taf": "TAF LIMC 022300Z 0300/0406 VRB06KT 9999 SCT020"
    },
    {
      "icao": "LIME",
      "alert": "OK",
      "vis_m": 9999,
      "fzfg": false,
      "metar_trigger": false,
      "taf_trigger": false,
      "metar": "METAR LIME 030150Z 29006KT 9999 FEW004 SCT100 15/15 Q1007 NOSIG",
      "taf": "TAF LIME 022300Z 0300/0324 VRB06KT 9999 SCT030 SCT050"
    },
    {
      "icao": "LIMF",
      "alert": "OK",
      "vis_m": 9999,
      "fzfg": false,
      "metar_trigger": false,
      "taf_trigger": false,
      "metar": "METAR LIMF 030120Z 31003KT 9999 FEW030 17/16 Q1009",
      "taf": "TAF LIMF 022300Z 0300/0324 VRB05KT 9999 SCT030"
    },
    {
      "icao": "LIMJ",
      "alert": "OK",
      "vis_m": 9999,
      "fzfg": false,
      "metar_trigger": false,
      "taf_trigger": false,
      "metar": "METAR LIMJ 030150Z 03010KT 9999 FEW015 20/17 Q1006",
      "taf": "TAF LIMJ 022300Z 0300/0324 02008KT 9999 SCT015 SCT040"
    },
    {
      "icao": "LIPE",
      "alert": "OK",
      "vis_m": 9999,
      "fzfg": false,
      "metar_trigger": false,
      "taf_trigger": false,
      "metar": "METAR LIPE 030120Z 24005KT 220V280 9999 TSRA SCT040CB 19/18 Q1007",
      "taf": "TAF LIPE 022300Z 0300/0324 VRB06KT 9999 SCT040"
    },
    {
      "icao": "LIPH",
      "alert": "OK",
      "vis_m": 9999,
      "fzfg": false,
      "metar_trigger": false,
      "taf_trigger": false,
      "metar": "METAR LIPH 030150Z AUTO VRB02KT 9999 ///////// 17/17 Q1005",
      "taf": "TAF LIPH 022300Z 0300/0324 03007KT 9999 SCT030"
    },
    {
      "icao": "LIPQ",
      "alert": "OK",
      "vis_m": 5000,
      "fzfg": false,
      "metar_trigger": false,
      "taf_trigger": false,
      "metar": "METAR LIPQ 030150Z AUTO 11007KT 5000 BR FEW009/// OVC012/// 18/17 Q1006",
      "taf": "TAF LIPQ 022300Z 0300/0324 15010KT 9999 SCT030"
    },
    {
      "icao": "LIPR",
      "alert": "OK",
      "vis_m": 9999,
      "fzfg": false,
      "metar_trigger": false,
      "taf_trigger": false,
      "metar": "METAR LIPR 030150Z AUTO 18004KT 9999 RA FEW038/// BKN073/// 20/17 Q1007",
      "taf": "TAF LIPR 022300Z 0300/0324 20007KT 9999 SCT030"
    },
    {
      "icao": "LIPX",
      "alert": "OK",
      "vis_m": 9999,
      "fzfg": false,
      "metar_trigger": false,
      "taf_trigger": false,
      "metar": "METAR LIPX 030150Z 27010KT CAVOK 16/16 Q1006",
      "taf": "TAF LIPX 022300Z 0300/0324 VRB05KT 9999 BKN045"
    },
    {
      "icao": "LIPY",
      "alert": "OK",
      "vis_m": 9999,
      "fzfg": false,
      "metar_trigger": false,
      "taf_trigger": false,
      "metar": "METAR LIPY 030150Z AUTO VRB02KT 9999 OVC110/// 19/19 Q1008",
      "taf": "TAF LIPY 022300Z 0300/0324 VRB05KT 9999 SCT040"
    },
    {
      "icao": "LIPZ",
      "alert": "OK",
      "vis_m": 9999,
      "fzfg": false,
      "metar_trigger": false,
      "taf_trigger": false,
      "metar": "METAR LIPZ 030150Z 31006KT 9999 FEW020 18/17 Q1005 NOSIG",
      "taf": "TAF LIPZ 022300Z 0300/0406 VRB06KT 9999 SCT020"
    },
    {
      "icao": "LIRF",
      "alert": "OK",
      "vis_m": 9999,
      "fzfg": false,
      "metar_trigger": false,
      "taf_trigger": false,
      "metar": "METAR LIRF 030150Z 15003KT 130V190 9999 FEW030 21/20 Q1010 TEMPO 4000 TSRA",
      "taf": "TAF LIRF 022300Z 0300/0406 17012KT 9999 FEW010 SCT030"
    },
    {
      "icao": "LIRN",
      "alert": "OK",
      "vis_m": 9999,
      "fzfg": false,
      "metar_trigger": false,
      "taf_trigger": false,
      "metar": "METAR LIRN 030150Z 18007KT 140V210 9999 FEW020 22/20 Q1012 NOSIG",
      "taf": "TAF LIRN 022300Z 0300/0324 19005KT 9999 FEW040"
    },
    {
      "icao": "LIRP",
      "alert": "OK",
      "vis_m": 9999,
      "fzfg": false,
      "metar_trigger": false,
      "taf_trigger": false,
      "metar": "METAR LIRP 030145Z 23016KT 9999 RA SCT025 BKN040 20/18 Q1008 NOSIG",
      "taf": "TAF LIRP 022300Z 0300/0324 15005KT 9999 RA BKN015TCU"
    },
    {
      "icao": "LIRZ",
      "alert": "OK",
      "vis_m": 9999,
      "fzfg": false,
      "metar_trigger": false,
      "taf_trigger": false,
      "metar": "METAR LIRZ 030150Z AUTO 16002KT 9999 BKN017/// BKN029/// BKN088/// 19/18 Q1010",
      "taf": "TAF LIRZ 022300Z 0300/0324 19005KT 9999 SCT015 BKN060"
    },
    {
      "icao": "LJLJ",
      "alert": "OK",
      "vis_m": 9999,
      "fzfg": false,
      "metar_trigger": false,
      "taf_trigger": false,
      "metar": "METAR LJLJ 030200Z VRB01KT 9999 -SHRA SCT030TCU BKN040 15/14 Q1008 TEMPO TSRA FEW030CB",
      "taf": "TAF LJLJ 022300Z 0300/0400 VRB02KT 9999 SCT050"
    },
    {
      "icao": "LKMT",
      "alert": "OK",
      "vis_m": 9999,
      "fzfg": false,
      "metar_trigger": false,
      "taf_trigger": false,
      "metar": "METAR LKMT 030200Z 22002KT CAVOK 11/11 Q1007 NOSIG",
      "taf": "TAF LKMT 022300Z 0300/0324 VRB02KT CAVOK"
    },
    {
      "icao": "LKPR",
      "alert": "OK",
      "vis_m": 9999,
      "fzfg": false,
      "metar_trigger": false,
      "taf_trigger": false,
      "metar": "METAR LKPR 030200Z 24013KT 9999 -RA FEW040 15/14 Q1007 NOSIG",
      "taf": "TAF LKPR 022300Z 0300/0406 25010KT 9999 BKN025"
    },
    {
      "icao": "LLBG",
      "alert": "OK",
      "vis_m": 9999,
      "fzfg": false,
      "metar_trigger": false,
      "taf_trigger": false,
      "metar": "METAR LLBG 030150Z VRB03KT CAVOK 19/15 Q1015 NOSIG",
      "taf": "TAF LLBG 022303Z 0300/0324 VRB03KT CAVOK TX31/0311Z TN18/0303Z"
    },
    {
      "icao": "LMML",
      "alert": "OK",
      "vis_m": 9999,
      "fzfg": false,
      "metar_trigger": false,
      "taf_trigger": false,
      "metar": "METAR LMML 030145Z 19006KT 150V220 CAVOK 22/20 Q1014 NOSIG",
      "taf": "TAF LMML 022300Z 0300/0324 20007KT 9999 FEW012"
    },
    {
      "icao": "LOWW",
      "alert": "OK",
      "vis_m": 9999,
      "fzfg": false,
      "metar_trigger": false,
      "taf_trigger": false,
      "metar": "METAR LOWW 030150Z 28013KT CAVOK 19/13 Q1007 NOSIG",
      "taf": "TAF LOWW 022315Z 0300/0406 14010KT 9999 FEW045 TX18/0300Z TN14/0403Z"
    },
    {
      "icao": "LPFR",
      "alert": "OK",
      "vis_m": 9999,
      "fzfg": false,
      "metar_trigger": false,
      "taf_trigger": false,
      "metar": "METAR LPFR 030200Z 32006KT 290V350 CAVOK 18/11 Q1018",
      "taf": "TAF LPFR 021700Z 0218/0318 30015KT CAVOK"
    },
    {
      "icao": "LPMA",
      "alert": "OK",
      "vis_m": 9999,
      "fzfg": false,
      "metar_trigger": false,
      "taf_trigger": false,
      "metar": "METAR LPMA 030200Z 02020G31KT 340V050 9999 SCT015 19/12 Q1025",
      "taf": "TAF LPMA 021700Z 0218/0318 01018KT 9999 SCT015"
    },
    {
      "icao": "LPPR",
      "alert": "OK",
      "vis_m": 9999,
      "fzfg": false,
      "metar_trigger": false,
      "taf_trigger": false,
      "metar": "METAR LPPR 030200Z 36002KT 9999 FEW020 14/11 Q1023",
      "taf": "TAF LPPR 021700Z 0218/0318 32013KT 9999 SCT020"
    },
    {
      "icao": "LPPS",
      "alert": "OK",
      "vis_m": null,
      "fzfg": false,
      "metar_trigger": false,
      "taf_trigger": false,
      "metar": "",
      "taf": "TAF LPPS 021700Z 0218/0324 01013KT 9999 SCT012 SCT030"
    },
    {
      "icao": "LPPT",
      "alert": "OK",
      "vis_m": null,
      "fzfg": false,
      "metar_trigger": false,
      "taf_trigger": false,
      "metar": "",
      "taf": "TAF LPPT 021700Z 0218/0324 33015KT 9999 SCT030"
    },
    {
      "icao": "LQBK",
      "alert": "OK",
      "vis_m": 9999,
      "fzfg": false,
      "metar_trigger": false,
      "taf_trigger": false,
      "metar": "METAR LQBK 030200Z VRB01KT CAVOK 15/13 Q1008 NOSIG",
      "taf": "TAF LQBK 022300Z 0300/0324 VRB03KT CAVOK TX23/0310Z TN12/0323Z"
    },
    {
      "icao": "LQSA",
      "alert": "OK",
      "vis_m": 9999,
      "fzfg": false,
      "metar_trigger": false,
      "taf_trigger": false,
      "metar": "METAR LQSA 030200Z VRB02KT CAVOK 12/12 Q1011",
      "taf": "TAF LQSA 022300Z 0300/0324 VRB02KT CAVOK TX24/0312Z TN11/0323Z"
    },
    {
      "icao": "LQTZ",
      "alert": "OK",
      "vis_m": 9999,
      "fzfg": false,
      "metar_trigger": false,
      "taf_trigger": false,
      "metar": "METAR LQTZ 030200Z 00000KT CAVOK 11/11 Q1010",
      "taf": "TAF LQTZ 022300Z 0300/0324 VRB03KT CAVOK TX24/0312Z TN11/0303Z"
    },
    {
      "icao": "LRBC",
      "alert": "OK",
      "vis_m": 9999,
      "fzfg": false,
      "metar_trigger": false,
      "taf_trigger": false,
      "metar": "METAR LRBC 030200Z 14003KT 9999 SCT002 OVC020 15/15 Q1011",
      "taf": ""
    },
    {
      "icao": "LRBS",
      "alert": "OK",
      "vis_m": 8000,
      "fzfg": false,
      "metar_trigger": false,
      "taf_trigger": false,
      "metar": "METAR LRBS 030200Z VRB02KT 8000 NSC 15/14 Q1011 TEMPO 3000 BR",
      "taf": "TAF LRBS 022300Z 0300/0324 VRB04KT 5000 BR NSC"
    },
    {
      "icao": "LRBV",
      "alert": "OK",
      "vis_m": 9999,
      "fzfg": false,
      "metar_trigger": false,
      "taf_trigger": false,
      "metar": "METAR LRBV 030200Z AUTO 24004KT 9999 FEW041/// BKN080/// 12/11 Q1013",
      "taf": "TAF LRBV 021700Z 0218/0303 VRB04KT 9999 SCT025 BKN060"
    },
    {
      "icao": "LRCL",
      "alert": "OK",
      "vis_m": 9999,
      "fzfg": false,
      "metar_trigger": false,
      "taf_trigger": false,
      "metar": "METAR LRCL 030200Z 25001KT CAVOK 12/11 Q1012",
      "taf": "TAF LRCL 022300Z 0300/0309 VRB04KT 5000 BR BKN010"
    },
    {
      "icao": "LRCV",
      "alert": "OK",
      "vis_m": 9999,
      "fzfg": false,
      "metar_trigger": false,
      "taf_trigger": false,
      "metar": "METAR LRCV 030200Z 00000KT CAVOK 13/12 Q1011",
      "taf": "TAF LRCV 022300Z 0300/0309 VRB04KT CAVOK"
    },
    {
      "icao": "LRIA",
      "alert": "OK",
      "vis_m": 700,
      "fzfg": false,
      "metar_trigger": false,
      "taf_trigger": false,
      "metar": "METAR LRIA 030200Z 00000KT 0700 R14/1800N -DZ FG VV001 15/14 Q1011",
      "taf": "TAF LRIA 022300Z 0300/0309 VRB04KT 3000 BR OVC005"
    },
    {
      "icao": "LROP",
      "alert": "OK",
      "vis_m": 7000,
      "fzfg": false,
      "metar_trigger": false,
      "taf_trigger": false,
      "metar": "METAR LROP 030200Z 02002KT 7000 R08R/P2000 R26L/0800N R08L/P2000 R26R/0800D BCFG SCT003 14/14 Q1011 TEMPO 3000 BR",
      "taf": "TAF LROP 022300Z 0300/0324 VRB04KT 5000 BR NSC"
    },
    {
      "icao": "LRSB",
      "alert": "OK",
      "vis_m": 9999,
      "fzfg": false,
      "metar_trigger": false,
      "taf_trigger": false,
      "metar": "METAR LRSB 030200Z VRB01KT 9999 FEW045 10/10 Q1012",
      "taf": "TAF LRSB 022300Z 0300/0324 VRB04KT 5000 BR BKN015"
    },
    {
      "icao": "LRSM",
      "alert": "OK",
      "vis_m": 9999,
      "fzfg": false,
      "metar_trigger": false,
      "taf_trigger": false,
      "metar": "METAR LRSM 030200Z AUTO 12003KT 9999 NCD 13/12 Q1010",
      "taf": ""
    },
    {
      "icao": "LRSV",
      "alert": "OK",
      "vis_m": 7000,
      "fzfg": false,
      "metar_trigger": false,
      "taf_trigger": false,
      "metar": "METAR LRSV 030200Z 31004KT 7000 BKN015 13/13 Q1011",
      "taf": ""
    },
    {
      "icao": "LRTM",
      "alert": "OK",
      "vis_m": 1500,
      "fzfg": false,
      "metar_trigger": false,
      "taf_trigger": false,
      "metar": "METAR LRTM 030200Z 00000KT 1500 BR SCT041 14/14 Q1012",
      "taf": "TAF LRTM 022300Z 0300/0309 VRB04KT 5000 BR BKN015"
    },
    {
      "icao": "LRTR",
      "alert": "OK",
      "vis_m": 9999,
      "fzfg": false,
      "metar_trigger": false,
      "taf_trigger": false,
      "metar": "METAR LRTR 030200Z 09008KT CAVOK 13/13 Q1010",
      "taf": "TAF LRTR 022300Z 0300/0324 11007KT CAVOK"
    },
    {
      "icao": "LTAC",
      "alert": "OK",
      "vis_m": 9999,
      "fzfg": false,
      "metar_trigger": false,
      "taf_trigger": false,
      "metar": "METAR LTAC 030150Z VRB02KT 9999 FEW030CB BKN040 14/11 Q1017 NOSIG RMK RWY21C 16003KT 100V230 RWY03L VRB02KT RWY21R VRB02KT RWY03R 14003KT RWY21L 12005KT",
      "taf": "TAF LTAC 022240Z 0300/0324 VRB02KT 9999 SCT040"
    },
    {
      "icao": "LTFM",
      "alert": "OK",
      "vis_m": 9999,
      "fzfg": false,
      "metar_trigger": false,
      "taf_trigger": false,
      "metar": "METAR LTFM 030150Z 21008KT CAVOK 20/13 Q1012 NOSIG RMK RWY17L 20008KT RWY34L 20008KT RWY16R VRB03KT RWY36 21007KT RWY18 21008KT",
      "taf": "TAF LTFM 022240Z 0300/0406 21008KT CAVOK"
    },
    {
      "icao": "LUKK",
      "alert": "OK",
      "vis_m": 9999,
      "fzfg": false,
      "metar_trigger": false,
      "taf_trigger": false,
      "metar": "METAR LUKK 030200Z 13007KT 9999 -RA OVC007 14/14 Q1012 NOSIG",
      "taf": "TAF LUKK 022308Z 0300/0324 12009KT 9999 BKN006"
    },
    {
      "icao": "LWOH",
      "alert": "OK",
      "vis_m": null,
      "fzfg": false,
      "metar_trigger": false,
      "taf_trigger": false,
      "metar": "",
      "taf": "TAF LWOH 022330Z 0300/0324 VRB02KT CAVOK"
    },
    {
      "icao": "LWSK",
      "alert": "OK",
      "vis_m": 9999,
      "fzfg": false,
      "metar_trigger": false,
      "taf_trigger": false,
      "metar": "METAR LWSK 030150Z VRB01KT CAVOK 14/13 Q1013 NOSIG",
      "taf": "TAF LWSK 022330Z 0300/0324 VRB02KT CAVOK"
    },
    {
      "icao": "LYBE",
      "alert": "OK",
      "vis_m": 9999,
      "fzfg": false,
      "metar_trigger": false,
      "taf_trigger": false,
      "metar": "METAR LYBE 030200Z 16004KT CAVOK 17/12 Q1009 NOSIG",
      "taf": "TAF LYBE 022300Z 0300/0324 15005KT CAVOK TX28/0313Z TN16/0303Z"
    },
    {
      "icao": "LYNI",
      "alert": "OK",
      "vis_m": 9999,
      "fzfg": false,
      "metar_trigger": false,
      "taf_trigger": false,
      "metar": "METAR LYNI 030200Z 11003KT CAVOK 14/13 Q1012 NOSIG",
      "taf": "TAF LYNI 022300Z 0300/0324 07004KT CAVOK TX28/0313Z TN12/0303Z"
    },
    {
      "icao": "LYPG",
      "alert": "OK",
      "vis_m": 9999,
      "fzfg": false,
      "metar_trigger": false,
      "taf_trigger": false,
      "metar": "METAR LYPG 030200Z 35005KT CAVOK 19/16 Q1013 NOSIG",
      "taf": "TAF LYPG 022300Z 0300/0324 36007KT 9999 SCT034 BKN080 TX26/0314Z TN18/0303Z"
    },
    {
      "icao": "LZIB",
      "alert": "OK",
      "vis_m": 9999,
      "fzfg": false,
      "metar_trigger": false,
      "taf_trigger": false,
      "metar": "METAR LZIB 030200Z VRB01KT CAVOK 16/12 Q1007 NOSIG",
      "taf": "TAF LZIB 022315Z 0300/0400 19005KT 9999 FEW045"
    },
    {
      "icao": "LZKZ",
      "alert": "OK",
      "vis_m": 9999,
      "fzfg": false,
      "metar_trigger": false,
      "taf_trigger": false,
      "metar": "METAR LZKZ 030200Z 35004KT 300V010 CAVOK 14/12 Q1009 NOSIG",
      "taf": "TAF LZKZ 022315Z 0300/0400 VRB02KT CAVOK"
    },
    {
      "icao": "LZTT",
      "alert": "OK",
      "vis_m": 9999,
      "fzfg": false,
      "metar_trigger": false,
      "taf_trigger": false,
      "metar": "METAR LZTT 030200Z 33003KT CAVOK 07/07 Q1010",
      "taf": "TAF LZTT 022315Z 0300/0400 25004KT 9999 SCT040"
    },
    {
      "icao": "OEJN",
      "alert": "OK",
      "vis_m": 9999,
      "fzfg": false,
      "metar_trigger": false,
      "taf_trigger": false,
      "metar": "METAR OEJN 030200Z 33005KT CAVOK 27/22 Q1008 NOSIG",
      "taf": "TAF OEJN 022300Z 0300/0406 VRB03KT CAVOK"
    },
    {
      "icao": "OEMA",
      "alert": "OK",
      "vis_m": 9999,
      "fzfg": false,
      "metar_trigger": false,
      "taf_trigger": false,
      "metar": "METAR OEMA 030200Z 01005KT CAVOK 30/M02 Q1014 NOSIG",
      "taf": "TAF OEMA 022300Z 0300/0406 VRB03KT CAVOK"
    },
    {
      "icao": "OJAI",
      "alert": "OK",
      "vis_m": 5000,
      "fzfg": false,
      "metar_trigger": false,
      "taf_trigger": false,
      "metar": "METAR OJAI 030100Z 30007KT 5000 HZ NSC 16/06 Q1017 NOSIG",
      "taf": "TAF OJAI 022243Z 0300/0406 28012KT 5000 HZ NSC"
    },
    {
      "icao": "OMAA",
      "alert": "OK",
      "vis_m": 9999,
      "fzfg": false,
      "metar_trigger": false,
      "taf_trigger": false,
      "metar": "METAR OMAA 030200Z 22005KT CAVOK 29/22 Q1003 WS ALL RWY NOSIG",
      "taf": "TAF OMAA 022300Z 0300/0406 23006KT 8000 NSC"
    },
    {
      "icao": "OMDB",
      "alert": "OK",
      "vis_m": 9999,
      "fzfg": false,
      "metar_trigger": false,
      "taf_trigger": false,
      "metar": "METAR OMDB 030200Z 19011KT CAVOK 30/19 Q1003 NOSIG",
      "taf": "TAF OMDB 022300Z 0300/0406 19008KT CAVOK"
    },
    {
      "icao": "UAAA",
      "alert": "OK",
      "vis_m": 9999,
      "fzfg": false,
      "metar_trigger": false,
      "taf_trigger": false,
      "metar": "METAR UAAA 030200Z 18002MPS 9999 FEW100 BKN200 22/13 Q1011 NOSIG",
      "taf": "TAF UAAA 022301Z 0300/0324 28003G08MPS 9999 SCT050CB BKN100 TX29/0310Z TN19/0301Z"
    },
    {
      "icao": "UBBB",
      "alert": "OK",
      "vis_m": 9999,
      "fzfg": false,
      "metar_trigger": false,
      "taf_trigger": false,
      "metar": "METAR UBBB 030200Z 00000KT CAVOK 16/11 Q1022 NOSIG",
      "taf": "TAF UBBB 022313Z 0300/0324 VRB04KT CAVOK TX23/0310Z TN14/0301Z"
    },
    {
      "icao": "UDSG",
      "alert": "OK",
      "vis_m": 9999,
      "fzfg": false,
      "metar_trigger": false,
      "taf_trigger": false,
      "metar": "METAR UDSG 030200Z 04003KT 9999 NSC 00/M02 Q1023 NOSIG",
      "taf": "TAF UDSG 022300Z 0300/0324 09006KT 9999 SCT040"
    },
    {
      "icao": "UDYZ",
      "alert": "OK",
      "vis_m": 9999,
      "fzfg": false,
      "metar_trigger": false,
      "taf_trigger": false,
      "metar": "METAR UDYZ 030200Z 11003KT 9999 NSC 09/03 Q1019 NOSIG",
      "taf": "TAF UDYZ 022300Z 0300/0324 14006KT 9999 SCT040"
    },
    {
      "icao": "UGKO",
      "alert": "OK",
      "vis_m": 9999,
      "fzfg": false,
      "metar_trigger": false,
      "taf_trigger": false,
      "metar": "METAR UGKO 030200Z 11006KT CAVOK 12/09 Q1015 NOSIG",
      "taf": "TAF UGKO 022300Z 0300/0324 08010KT CAVOK TX28/0311Z TN12/0301Z"
    }
  ]
}