{
  "ts_utc": "2026-06-14T20:47:26Z",
  "threshold_m": 150,
  "source": "stations_override.txt (ICAO list) + aviationweather.gov (METAR/TAF raw)",
  "station_count": 159,
  "stations": [
    {
      "icao": "BIKF",
      "alert": "OK",
      "vis_m": 9999,
      "fzfg": false,
      "metar_trigger": false,
      "taf_trigger": false,
      "metar": "METAR BIKF 142030Z 17008KT CAVOK 12/06 Q1023",
      "taf": "TAF BIKF 141953Z 1421/1521 16010KT 9999 SCT020 BKN040 TX13/1513Z TN08/1504Z"
    },
    {
      "icao": "BKPR",
      "alert": "OK",
      "vis_m": 9999,
      "fzfg": false,
      "metar_trigger": false,
      "taf_trigger": false,
      "metar": "METAR BKPR 142030Z 24014KT CAVOK 23/07 Q1014 NOSIG",
      "taf": "TAF BKPR 141730Z 1418/1518 24010KT CAVOK"
    },
    {
      "icao": "EBCI",
      "alert": "OK",
      "vis_m": 9999,
      "fzfg": false,
      "metar_trigger": false,
      "taf_trigger": false,
      "metar": "METAR EBCI 142020Z 35005KT 310V010 CAVOK 13/06 Q1019 NOSIG",
      "taf": "TAF EBCI 141700Z 1418/1524 33008KT 9999 FEW035"
    },
    {
      "icao": "EDDB",
      "alert": "OK",
      "vis_m": 9999,
      "fzfg": false,
      "metar_trigger": false,
      "taf_trigger": false,
      "metar": "METAR EDDB 142020Z AUTO 29012KT 9999 FEW046 15/08 Q1010 NOSIG",
      "taf": "TAF EDDB 141700Z 1418/1518 28015G25KT CAVOK"
    },
    {
      "icao": "EDDH",
      "alert": "OK",
      "vis_m": 9999,
      "fzfg": false,
      "metar_trigger": false,
      "taf_trigger": false,
      "metar": "METAR EDDH 142020Z AUTO 27008KT 9999 -RADZ FEW010 BKN025 BKN038 12/10 Q1011 TEMPO 4500 SHRA BKN020TCU",
      "taf": ""
    },
    {
      "icao": "EDDK",
      "alert": "OK",
      "vis_m": 9999,
      "fzfg": false,
      "metar_trigger": false,
      "taf_trigger": false,
      "metar": "METAR EDDK 142020Z AUTO 32009KT CAVOK 14/08 Q1017 NOSIG",
      "taf": "TAF EDDK 141700Z 1418/1524 30013KT CAVOK"
    },
    {
      "icao": "EDDN",
      "alert": "OK",
      "vis_m": 9999,
      "fzfg": false,
      "metar_trigger": false,
      "taf_trigger": false,
      "metar": "METAR EDDN 142020Z AUTO 32006KT CAVOK 14/06 Q1016",
      "taf": "TAF EDDN 141700Z 1418/1518 30010KT 9999 SCT045"
    },
    {
      "icao": "EDDS",
      "alert": "OK",
      "vis_m": 9999,
      "fzfg": false,
      "metar_trigger": false,
      "taf_trigger": false,
      "metar": "METAR EDDS 142020Z AUTO 31004KT CAVOK 16/07 Q1016",
      "taf": "TAF EDDS 141700Z 1418/1518 30010KT CAVOK"
    },
    {
      "icao": "EDFH",
      "alert": "OK",
      "vis_m": 9999,
      "fzfg": false,
      "metar_trigger": false,
      "taf_trigger": false,
      "metar": "METAR EDFH 142020Z 32005KT 9999 FEW033 13/07 Q1017",
      "taf": "TAF EDFH 141700Z 1418/1518 30010KT CAVOK"
    },
    {
      "icao": "EDJA",
      "alert": "OK",
      "vis_m": 9999,
      "fzfg": false,
      "metar_trigger": false,
      "taf_trigger": false,
      "metar": "METAR EDJA 142020Z 35005KT CAVOK 14/09 Q1017",
      "taf": "TAF EDJA 141700Z 1418/1503 32010KT CAVOK"
    },
    {
      "icao": "EDLW",
      "alert": "OK",
      "vis_m": 9999,
      "fzfg": false,
      "metar_trigger": false,
      "taf_trigger": false,
      "metar": "METAR EDLW 142020Z 28006KT 240V330 9999 FEW034 14/08 Q1016",
      "taf": "TAF EDLW 141700Z 1418/1518 27007KT CAVOK"
    },
    {
      "icao": "EDNY",
      "alert": "OK",
      "vis_m": 9999,
      "fzfg": false,
      "metar_trigger": false,
      "taf_trigger": false,
      "metar": "METAR EDNY 142020Z AUTO 04004KT 340V070 9999 // BKN072/// BKN200/// 18/09 Q1016",
      "taf": "TAF EDNY 141700Z 1418/1503 26010KT CAVOK"
    },
    {
      "icao": "EDSB",
      "alert": "OK",
      "vis_m": 9999,
      "fzfg": false,
      "metar_trigger": false,
      "taf_trigger": false,
      "metar": "METAR EDSB 142020Z 33001KT CAVOK 17/08 Q1016",
      "taf": "TAF EDSB 141700Z 1418/1518 29006KT CAVOK"
    },
    {
      "icao": "EETN",
      "alert": "OK",
      "vis_m": 9999,
      "fzfg": false,
      "metar_trigger": false,
      "taf_trigger": false,
      "metar": "METAR EETN 142020Z 09003KT 9999 FEW049 12/11 Q0999 NOSIG",
      "taf": "TAF EETN 141730Z 1418/1518 10007KT 9999 SCT025"
    },
    {
      "icao": "EFTU",
      "alert": "OK",
      "vis_m": 9999,
      "fzfg": false,
      "metar_trigger": false,
      "taf_trigger": false,
      "metar": "METAR EFTU 142020Z AUTO 09005KT 9999 BKN023 11/10 Q1000",
      "taf": "TAF EFTU 142035Z 1421/1521 06005KT 9999 SCT040"
    },
    {
      "icao": "EGBB",
      "alert": "OK",
      "vis_m": 9999,
      "fzfg": false,
      "metar_trigger": false,
      "taf_trigger": false,
      "metar": "METAR EGBB 142020Z 03004KT CAVOK 17/09 Q1019",
      "taf": "TAF EGBB 141655Z 1418/1518 01006KT 9999 FEW045"
    },
    {
      "icao": "EGGP",
      "alert": "OK",
      "vis_m": 9999,
      "fzfg": false,
      "metar_trigger": false,
      "taf_trigger": false,
      "metar": "METAR EGGP 142020Z 01004KT 310V070 CAVOK 15/09 Q1019",
      "taf": "TAF EGGP 141657Z 1418/1518 28005KT 9999 SCT030"
    },
    {
      "icao": "EGGW",
      "alert": "OK",
      "vis_m": 9999,
      "fzfg": false,
      "metar_trigger": false,
      "taf_trigger": false,
      "metar": "METAR EGGW 142020Z AUTO 05005KT 350V080 9999 NCD 16/09 Q1019",
      "taf": "TAF EGGW 141657Z 1418/1518 04007KT 9999 FEW030"
    },
    {
      "icao": "EGKK",
      "alert": "OK",
      "vis_m": 9999,
      "fzfg": false,
      "metar_trigger": false,
      "taf_trigger": false,
      "metar": "METAR EGKK 142020Z 17004KT CAVOK 16/11 Q1018",
      "taf": "TAF EGKK 141701Z 1418/1524 31010KT 9999 FEW035"
    },
    {
      "icao": "EGNM",
      "alert": "OK",
      "vis_m": 9999,
      "fzfg": false,
      "metar_trigger": false,
      "taf_trigger": false,
      "metar": "METAR EGNM 142020Z 04005KT 010V070 9999 FEW041 11/08 Q1020",
      "taf": "TAF EGNM 141658Z 1418/1518 03008KT 9999 FEW030"
    },
    {
      "icao": "EGPD",
      "alert": "OK",
      "vis_m": 9999,
      "fzfg": false,
      "metar_trigger": false,
      "taf_trigger": false,
      "metar": "METAR EGPD 142020Z COR AUTO 34009KT 9999 FEW017 SCT024 BKN029 10/07 Q1021 NOSIG",
      "taf": ""
    },
    {
      "icao": "EGPF",
      "alert": "OK",
      "vis_m": 9999,
      "fzfg": false,
      "metar_trigger": false,
      "taf_trigger": false,
      "metar": "METAR EGPF 142020Z AUTO 06010KT 9999 NCD 15/10 Q1019",
      "taf": "TAF EGPF 141701Z 1418/1518 08008KT 9999 SCT045"
    },
    {
      "icao": "EHBK",
      "alert": "OK",
      "vis_m": 9999,
      "fzfg": false,
      "metar_trigger": false,
      "taf_trigger": false,
      "metar": "METAR EHBK 142025Z AUTO 30004KT 250V360 9999 NCD 13/08 Q1018 NOSIG",
      "taf": "TAF EHBK 141702Z 1418/1524 30010KT CAVOK"
    },
    {
      "icao": "EHEH",
      "alert": "OK",
      "vis_m": 9999,
      "fzfg": false,
      "metar_trigger": false,
      "taf_trigger": false,
      "metar": "METAR EHEH 142025Z AUTO 28004KT 230V320 9999 NCD 12/08 Q1018 BLU NOSIG RMK TREND REMOTE BY EHWX",
      "taf": "TAF EHEH 141712Z 1418/1524 29008KT 9999 FEW035 BKN050"
    },
    {
      "icao": "EKBI",
      "alert": "OK",
      "vis_m": 9999,
      "fzfg": false,
      "metar_trigger": false,
      "taf_trigger": false,
      "metar": "METAR EKBI 142020Z AUTO 27010KT 9999 SCT015/// BKN100/// 12/10 Q1008",
      "taf": "TAF EKBI 142027Z 1421/1521 28012KT 9999 BKN025"
    },
    {
      "icao": "EKCH",
      "alert": "OK",
      "vis_m": 9999,
      "fzfg": false,
      "metar_trigger": false,
      "taf_trigger": false,
      "metar": "METAR EKCH 142020Z AUTO 29013KT 260V330 9999 RA BKN029/// BKN071/// 15/11 Q1004 TEMPO TSRA SCT020CB",
      "taf": "TAF EKCH 142027Z 1421/1521 30014KT 9999 BKN030"
    },
    {
      "icao": "ENAL",
      "alert": "OK",
      "vis_m": 9999,
      "fzfg": false,
      "metar_trigger": false,
      "taf_trigger": false,
      "metar": "METAR ENAL 142020Z 03012KT 9999 BKN028 10/05 Q1014",
      "taf": "TAF ENAL 142000Z 1421/1506 02012KT 9999 -DZ FEW010 BKN018"
    },
    {
      "icao": "ENBR",
      "alert": "OK",
      "vis_m": 9999,
      "fzfg": false,
      "metar_trigger": false,
      "taf_trigger": false,
      "metar": "METAR ENBR 142020Z 33015KT CAVOK 12/06 Q1008 RMK WIND 1200FT 34031KT",
      "taf": "TAF ENBR 141700Z 1418/1518 32015KT CAVOK"
    },
    {
      "icao": "ENGM",
      "alert": "OK",
      "vis_m": 9999,
      "fzfg": false,
      "metar_trigger": false,
      "taf_trigger": false,
      "metar": "METAR ENGM 142020Z 36013G24KT CAVOK 13/02 Q1003 NOSIG",
      "taf": "TAF ENGM 141700Z 1418/1518 34008KT 9999 SCT040"
    },
    {
      "icao": "ENHD",
      "alert": "OK",
      "vis_m": 9999,
      "fzfg": false,
      "metar_trigger": false,
      "taf_trigger": false,
      "metar": "METAR ENHD 142020Z 34031KT CAVOK 12/08 Q1008",
      "taf": ""
    },
    {
      "icao": "ENTC",
      "alert": "OK",
      "vis_m": 9999,
      "fzfg": false,
      "metar_trigger": false,
      "taf_trigger": false,
      "metar": "METAR ENTC 142020Z 05010KT 020V080 CAVOK 13/04 Q1014 NOSIG RMK WIND 2600FT 10017KT",
      "taf": "TAF ENTC 141700Z 1418/1518 03012KT 9999 FEW050"
    },
    {
      "icao": "ENTO",
      "alert": "OK",
      "vis_m": 9999,
      "fzfg": false,
      "metar_trigger": false,
      "taf_trigger": false,
      "metar": "METAR ENTO 142020Z 35010KT 9999 NSC 15/05 Q1003",
      "taf": "TAF ENTO 141700Z 1418/1518 34008KT 9999 SCT040"
    },
    {
      "icao": "ENVA",
      "alert": "OK",
      "vis_m": 9999,
      "fzfg": false,
      "metar_trigger": false,
      "taf_trigger": false,
      "metar": "METAR ENVA 142020Z 29013KT 9999 VCSH BKN032 BKN037 11/07 Q1011 RMK WIND 670FT 30019KT",
      "taf": "TAF ENVA 141700Z 1418/1518 29015KT 9999 BKN035"
    },
    {
      "icao": "ENZV",
      "alert": "OK",
      "vis_m": 9999,
      "fzfg": false,
      "metar_trigger": false,
      "taf_trigger": false,
      "metar": "METAR ENZV 142020Z 34017KT CAVOK 13/08 Q1007",
      "taf": "TAF ENZV 141700Z 1418/1518 32015KT CAVOK"
    },
    {
      "icao": "EPGD",
      "alert": "OK",
      "vis_m": 9999,
      "fzfg": false,
      "metar_trigger": false,
      "taf_trigger": false,
      "metar": "METAR EPGD 142030Z 28012KT 9999 FEW018 12/09 Q1002",
      "taf": "TAF EPGD 141730Z 1418/1518 26015KT 9999 SCT030"
    },
    {
      "icao": "EPKK",
      "alert": "OK",
      "vis_m": 9999,
      "fzfg": false,
      "metar_trigger": false,
      "taf_trigger": false,
      "metar": "METAR EPKK 142030Z 27006KT 9999 -SHRA FEW036CB 10/09 Q1010",
      "taf": "TAF EPKK 142030Z 1421/1521 25010KT 9999 BKN050"
    },
    {
      "icao": "EPKT",
      "alert": "OK",
      "vis_m": 9999,
      "fzfg": false,
      "metar_trigger": false,
      "taf_trigger": false,
      "metar": "METAR EPKT 142030Z 23007KT CAVOK 10/09 Q1010",
      "taf": "TAF EPKT 141730Z 1418/1518 27012KT 9999 SCT040"
    },
    {
      "icao": "EPLB",
      "alert": "OK",
      "vis_m": 9999,
      "fzfg": false,
      "metar_trigger": false,
      "taf_trigger": false,
      "metar": "METAR EPLB 142030Z 24010KT CAVOK 11/09 Q1007",
      "taf": "TAF EPLB 141730Z 1418/1518 27010KT 9999 SCT030"
    },
    {
      "icao": "EPMO",
      "alert": "OK",
      "vis_m": 9999,
      "fzfg": false,
      "metar_trigger": false,
      "taf_trigger": false,
      "metar": "METAR EPMO 142030Z 22009KT 9999 FEW015 SCT023 11/10 Q1005",
      "taf": "TAF EPMO 141730Z 1418/1518 25010KT 9999 SCT040"
    },
    {
      "icao": "EPPO",
      "alert": "OK",
      "vis_m": 9999,
      "fzfg": false,
      "metar_trigger": false,
      "taf_trigger": false,
      "metar": "METAR EPPO 142030Z 25010KT 9999 FEW021 13/11 Q1007",
      "taf": "TAF EPPO 141730Z 1418/1518 27012KT 9999 SCT025"
    },
    {
      "icao": "EPRA",
      "alert": "OK",
      "vis_m": 9999,
      "fzfg": false,
      "metar_trigger": false,
      "taf_trigger": false,
      "metar": "METAR EPRA 142030Z 26011KT CAVOK 11/08 Q1007",
      "taf": "TAF EPRA 142030Z 1421/1506 25010KT CAVOK"
    },
    {
      "icao": "EPRZ",
      "alert": "OK",
      "vis_m": 9999,
      "fzfg": false,
      "metar_trigger": false,
      "taf_trigger": false,
      "metar": "METAR EPRZ 142030Z 25007KT CAVOK 11/08 Q1009",
      "taf": "TAF EPRZ 141730Z 1418/1518 27012KT 9999 SCT040"
    },
    {
      "icao": "EPSC",
      "alert": "OK",
      "vis_m": 9999,
      "fzfg": false,
      "metar_trigger": false,
      "taf_trigger": false,
      "metar": "METAR EPSC 142030Z 27011KT 230V310 9999 SCT010 BKN015TCU 13/12 Q1005",
      "taf": "TAF EPSC 141730Z 1418/1518 26012KT 9999 BKN035"
    },
    {
      "icao": "EPSY",
      "alert": "OK",
      "vis_m": 9999,
      "fzfg": false,
      "metar_trigger": false,
      "taf_trigger": false,
      "metar": "METAR EPSY 142030Z 21005KT CAVOK 10/09 Q1003",
      "taf": "TAF EPSY 142030Z 1421/1506 23008KT CAVOK"
    },
    {
      "icao": "EPWA",
      "alert": "OK",
      "vis_m": 9999,
      "fzfg": false,
      "metar_trigger": false,
      "taf_trigger": false,
      "metar": "METAR EPWA 142030Z 25009KT 9999 SCT024 11/10 Q1005 NOSIG",
      "taf": "TAF EPWA 142030Z 1421/1521 25010KT CAVOK"
    },
    {
      "icao": "EPWR",
      "alert": "OK",
      "vis_m": 9999,
      "fzfg": false,
      "metar_trigger": false,
      "taf_trigger": false,
      "metar": "METAR EPWR 142030Z 26011KT CAVOK 13/10 Q1010",
      "taf": "TAF EPWR 142030Z 1421/1521 27013KT 9999 SCT040"
    },
    {
      "icao": "ESGG",
      "alert": "OK",
      "vis_m": 9999,
      "fzfg": false,
      "metar_trigger": false,
      "taf_trigger": false,
      "metar": "METAR ESGG 142020Z 28005KT 9999 FEW041 BKN053 11/10 Q1002 REDZ",
      "taf": "TAF ESGG 142030Z 1421/1521 32005KT CAVOK"
    },
    {
      "icao": "ESKN",
      "alert": "OK",
      "vis_m": 9999,
      "fzfg": false,
      "metar_trigger": false,
      "taf_trigger": false,
      "metar": "METAR ESKN 142020Z 17004KT 9999 -DZ FEW004 SCT009 BKN011 11/11 Q0996",
      "taf": "TAF ESKN 142030Z 1421/1521 27008KT 9999 -RA FEW025 BKN040"
    },
    {
      "icao": "ESMS",
      "alert": "OK",
      "vis_m": 9999,
      "fzfg": false,
      "metar_trigger": false,
      "taf_trigger": false,
      "metar": "METAR ESMS 142020Z 29009KT CAVOK 14/11 Q1003",
      "taf": "TAF ESMS 142027Z 1421/1521 31013KT 9999 BKN020"
    },
    {
      "icao": "ESSA",
      "alert": "OK",
      "vis_m": 9999,
      "fzfg": false,
      "metar_trigger": false,
      "taf_trigger": false,
      "metar": "METAR ESSA 142020Z 13005KT 100V160 9999 SCT026 BKN035 BKN042 10/08 Q0997 RERA REDZ NOSIG",
      "taf": "TAF ESSA 142030Z 1421/1521 15008KT 9999 -RA SCT014 BKN045"
    },
    {
      "icao": "EYKA",
      "alert": "OK",
      "vis_m": 9999,
      "fzfg": false,
      "metar_trigger": false,
      "taf_trigger": false,
      "metar": "METAR EYKA 142020Z 22004KT 190V250 9999 -SHRA FEW022 SCT033CB BKN048 11/10 Q1001",
      "taf": "TAF EYKA 141710Z 1418/1518 VRB03KT 9000 BKN025"
    },
    {
      "icao": "EYPA",
      "alert": "OK",
      "vis_m": 9999,
      "fzfg": false,
      "metar_trigger": false,
      "taf_trigger": false,
      "metar": "METAR EYPA 142020Z 27003KT 200V350 9999 SCT014CB 13/11 Q0999",
      "taf": "TAF EYPA 141710Z 1418/1518 VRB03KT 9000 BKN025"
    },
    {
      "icao": "EYVI",
      "alert": "OK",
      "vis_m": 9999,
      "fzfg": false,
      "metar_trigger": false,
      "taf_trigger": false,
      "metar": "METAR EYVI 142020Z 20004KT 9999 SCT043 10/09 Q1002 NOSIG",
      "taf": "TAF EYVI 141712Z 1418/1518 VRB03KT 9000 BKN025"
    },
    {
      "icao": "GCFV",
      "alert": "OK",
      "vis_m": 9999,
      "fzfg": false,
      "metar_trigger": false,
      "taf_trigger": false,
      "metar": "METAR GCFV 142030Z 35016KT 9999 FEW020 21/15 Q1019",
      "taf": "TAF GCFV 142000Z 1421/1521 02014KT 9999 FEW020 TX24/1514Z TN19/1506Z"
    },
    {
      "icao": "GCLP",
      "alert": "OK",
      "vis_m": 9999,
      "fzfg": false,
      "metar_trigger": false,
      "taf_trigger": false,
      "metar": "METAR GCLP 142030Z 36025KT 330V030 9999 FEW025 21/14 Q1019 NOSIG",
      "taf": "TAF GCLP 142000Z 1421/1521 01023KT 9999 FEW030 TX24/1514Z TN18/1506Z"
    },
    {
      "icao": "GCTS",
      "alert": "OK",
      "vis_m": 9999,
      "fzfg": false,
      "metar_trigger": false,
      "taf_trigger": false,
      "metar": "METAR GCTS 142030Z 08015KT 9999 FEW025 21/15 Q1019 NOSIG",
      "taf": "TAF GCTS 142000Z 1421/1521 03008KT 9999 FEW020 TX25/1514Z TN18/1506Z"
    },
    {
      "icao": "GMAD",
      "alert": "OK",
      "vis_m": 8000,
      "fzfg": false,
      "metar_trigger": false,
      "taf_trigger": false,
      "metar": "METAR GMAD 142030Z 20011KT 8000 SCT008 20/16 Q1015 NOSIG",
      "taf": "TAF GMAD 141700Z 1418/1524 19014KT 8000 NSC"
    },
    {
      "icao": "GMMN",
      "alert": "OK",
      "vis_m": 9999,
      "fzfg": false,
      "metar_trigger": false,
      "taf_trigger": false,
      "metar": "METAR GMMN 142030Z 31008KT 9999 SCT016 20/16 Q1018 NOSIG",
      "taf": "TAF GMMN 141700Z 1418/1524 32010KT CAVOK"
    },
    {
      "icao": "GMMX",
      "alert": "OK",
      "vis_m": 9999,
      "fzfg": false,
      "metar_trigger": false,
      "taf_trigger": false,
      "metar": "METAR GMMX 142030Z 35008KT 310V040 CAVOK 28/15 Q1017 NOSIG",
      "taf": "TAF GMMX 141700Z 1418/1524 06006KT 8000 NSC"
    },
    {
      "icao": "HEGN",
      "alert": "OK",
      "vis_m": null,
      "fzfg": false,
      "metar_trigger": false,
      "taf_trigger": false,
      "metar": "",
      "taf": "TAF HEGN 141700Z 1418/1524 31014KT CAVOK"
    },
    {
      "icao": "HEMA",
      "alert": "OK",
      "vis_m": null,
      "fzfg": false,
      "metar_trigger": false,
      "taf_trigger": false,
      "metar": "",
      "taf": "TAF HEMA 141700Z 1418/1524 30014KT CAVOK"
    },
    {
      "icao": "HESH",
      "alert": "OK",
      "vis_m": null,
      "fzfg": false,
      "metar_trigger": false,
      "taf_trigger": false,
      "metar": "",
      "taf": "TAF HESH 141700Z 1418/1524 35012KT CAVOK"
    },
    {
      "icao": "HESX",
      "alert": "OK",
      "vis_m": null,
      "fzfg": false,
      "metar_trigger": false,
      "taf_trigger": false,
      "metar": "",
      "taf": "TAF HESX 141700Z 1418/1524 35010KT CAVOK"
    },
    {
      "icao": "LATI",
      "alert": "OK",
      "vis_m": null,
      "fzfg": false,
      "metar_trigger": false,
      "taf_trigger": false,
      "metar": "",
      "taf": "TAF LATI 141700Z 1418/1518 VRB05KT CAVOK TX32/1512Z TN15/1504Z"
    },
    {
      "icao": "LBPD",
      "alert": "OK",
      "vis_m": 9999,
      "fzfg": false,
      "metar_trigger": false,
      "taf_trigger": false,
      "metar": "METAR LBPD 142030Z AUTO 15007KT 9999 NCD 23/09 Q1011",
      "taf": "TAF LBPD 141700Z 1418/1518 28013KT 9999 SCT070"
    },
    {
      "icao": "LBSF",
      "alert": "OK",
      "vis_m": 9999,
      "fzfg": false,
      "metar_trigger": false,
      "taf_trigger": false,
      "metar": "METAR LBSF 142030Z AUTO VRB03KT 9999 NCD 16/12 Q1013 NOSIG",
      "taf": "TAF LBSF 141700Z 1418/1518 10010KT 9999 SCT060"
    },
    {
      "icao": "LBWN",
      "alert": "OK",
      "vis_m": 9999,
      "fzfg": false,
      "metar_trigger": false,
      "taf_trigger": false,
      "metar": "METAR LBWN 142030Z AUTO 12002KT 9999 NCD 18/14 Q1011 NOSIG",
      "taf": "TAF LBWN 141700Z 1418/1518 VRB03KT CAVOK"
    },
    {
      "icao": "LCLK",
      "alert": "OK",
      "vis_m": 9999,
      "fzfg": false,
      "metar_trigger": false,
      "taf_trigger": false,
      "metar": "METAR LCLK 142030Z 21006KT CAVOK 23/21 Q1009 NOSIG",
      "taf": "TAF LCLK 141730Z 1418/1518 21010KT 9999 FEW020"
    },
    {
      "icao": "LCPH",
      "alert": "OK",
      "vis_m": 9999,
      "fzfg": false,
      "metar_trigger": false,
      "taf_trigger": false,
      "metar": "METAR LCPH 142030Z 35005KT CAVOK 23/19 Q1010 NOSIG",
      "taf": "TAF LCPH 141730Z 1418/1518 33010KT 9999 SCT017"
    },
    {
      "icao": "LEAL",
      "alert": "OK",
      "vis_m": 9999,
      "fzfg": false,
      "metar_trigger": false,
      "taf_trigger": false,
      "metar": "METAR LEAL 142030Z VRB02KT CAVOK 23/20 Q1015 NOSIG",
      "taf": "TAF LEAL 141700Z 1418/1518 14010KT CAVOK TX30/1512Z TN21/1506Z"
    },
    {
      "icao": "LEBB",
      "alert": "OK",
      "vis_m": 9999,
      "fzfg": false,
      "metar_trigger": false,
      "taf_trigger": false,
      "metar": "METAR LEBB 142030Z VRB01KT CAVOK 24/15 Q1014 NOSIG",
      "taf": "TAF LEBB 141700Z 1418/1518 29009KT CAVOK TX28/1418Z TN18/1505Z"
    },
    {
      "icao": "LEBL",
      "alert": "OK",
      "vis_m": 9999,
      "fzfg": false,
      "metar_trigger": false,
      "taf_trigger": false,
      "metar": "METAR LEBL 142030Z 20003KT 160V220 9999 FEW056 26/12 Q1013 NOSIG",
      "taf": "TAF LEBL 141700Z 1418/1518 12008KT 9999 FEW025 TX29/1512Z TN21/1506Z"
    },
    {
      "icao": "LECH",
      "alert": "OK",
      "vis_m": 9999,
      "fzfg": false,
      "metar_trigger": false,
      "taf_trigger": false,
      "metar": "METAR LECH 142030Z AUTO 00000KT CAVOK 22/11 Q1015",
      "taf": "TAF LECH 141700Z 1418/1518 15010KT CAVOK TX32/1513Z TN16/1506Z"
    },
    {
      "icao": "LEMD",
      "alert": "OK",
      "vis_m": 7000,
      "fzfg": false,
      "metar_trigger": false,
      "taf_trigger": false,
      "metar": "METAR LEMD 142030Z 14007KT 090V170 7000 +SHRA FEW015 SCT030 SCT070CB 19/16 Q1018 NOSIG",
      "taf": "TAF LEMD 141700Z 1418/1524 VRB04KT 9999 FEW080 TX32/1516Z TN16/1505Z"
    },
    {
      "icao": "LEMG",
      "alert": "OK",
      "vis_m": 9999,
      "fzfg": false,
      "metar_trigger": false,
      "taf_trigger": false,
      "metar": "METAR LEMG 142030Z 00000KT CAVOK 23/17 Q1014 NOSIG",
      "taf": "TAF LEMG 141700Z 1418/1518 13010KT 9999 FEW040 TX35/1513Z TN21/1505Z"
    },
    {
      "icao": "LEVC",
      "alert": "OK",
      "vis_m": 9999,
      "fzfg": false,
      "metar_trigger": false,
      "taf_trigger": false,
      "metar": "METAR LEVC 142030Z 18002KT CAVOK 25/12 Q1014 NOSIG",
      "taf": "TAF LEVC 141700Z 1418/1518 12010KT CAVOK TX32/1512Z TN19/1506Z"
    },
    {
      "icao": "LEXJ",
      "alert": "OK",
      "vis_m": 9999,
      "fzfg": false,
      "metar_trigger": false,
      "taf_trigger": false,
      "metar": "METAR LEXJ 142030Z 12002KT CAVOK 22/16 Q1013",
      "taf": "TAF LEXJ 142000Z 1421/1521 29009KT CAVOK TX24/1512Z TN17/1506Z"
    },
    {
      "icao": "LEZG",
      "alert": "OK",
      "vis_m": 9999,
      "fzfg": false,
      "metar_trigger": false,
      "taf_trigger": false,
      "metar": "METAR LEZG 142030Z 20011KT 170V230 CAVOK 29/10 Q1013 NOSIG",
      "taf": "TAF LEZG 141700Z 1418/1518 09005KT CAVOK TX37/1515Z TN21/1506Z"
    },
    {
      "icao": "LEZL",
      "alert": "OK",
      "vis_m": 9999,
      "fzfg": false,
      "metar_trigger": false,
      "taf_trigger": false,
      "metar": "METAR LEZL 142030Z 22010KT CAVOK 24/18 Q1016 NOSIG",
      "taf": "TAF LEZL 142000Z 1421/1521 22008KT CAVOK TX35/1515Z TN18/1506Z"
    },
    {
      "icao": "LFBD",
      "alert": "OK",
      "vis_m": 9999,
      "fzfg": false,
      "metar_trigger": false,
      "taf_trigger": false,
      "metar": "METAR LFBD 142030Z AUTO 04006KT CAVOK 28/07 Q1014 NOSIG",
      "taf": "TAF LFBD 141700Z 1418/1524 10008KT CAVOK TX35/1514Z TN21/1504Z"
    },
    {
      "icao": "LFLL",
      "alert": "OK",
      "vis_m": 9999,
      "fzfg": false,
      "metar_trigger": false,
      "taf_trigger": false,
      "metar": "METAR LFLL 142030Z 01004KT CAVOK 22/11 Q1015 NOSIG",
      "taf": "TAF LFLL 141700Z 1418/1524 36010KT CAVOK"
    },
    {
      "icao": "LFLS",
      "alert": "OK",
      "vis_m": 9999,
      "fzfg": false,
      "metar_trigger": false,
      "taf_trigger": false,
      "metar": "METAR LFLS 142030Z AUTO 02008KT CAVOK 22/09 Q1016",
      "taf": "TAF LFLS 141400Z 1415/1515 36012KT CAVOK"
    },
    {
      "icao": "LFMN",
      "alert": "OK",
      "vis_m": 9999,
      "fzfg": false,
      "metar_trigger": false,
      "taf_trigger": false,
      "metar": "METAR LFMN 142030Z 10007KT 9999 BKN018 22/17 Q1013 NOSIG",
      "taf": "TAF LFMN 142000Z 1421/1603 09010KT 9999 BKN020"
    },
    {
      "icao": "LFOB",
      "alert": "OK",
      "vis_m": 9999,
      "fzfg": false,
      "metar_trigger": false,
      "taf_trigger": false,
      "metar": "METAR LFOB 142030Z AUTO 35006KT 320V020 CAVOK 14/09 Q1018 NOSIG",
      "taf": "TAF LFOB 141700Z 1418/1518 35008KT CAVOK"
    },
    {
      "icao": "LFPO",
      "alert": "OK",
      "vis_m": 9999,
      "fzfg": false,
      "metar_trigger": false,
      "taf_trigger": false,
      "metar": "METAR LFPO 142030Z AUTO 03006KT CAVOK 21/10 Q1018 NOSIG",
      "taf": "TAF LFPO 141700Z 1418/1524 34006KT CAVOK"
    },
    {
      "icao": "LFSB",
      "alert": "OK",
      "vis_m": 9999,
      "fzfg": false,
      "metar_trigger": false,
      "taf_trigger": false,
      "metar": "METAR LFSB 142030Z AUTO 31004KT CAVOK 19/08 Q1016 NOSIG",
      "taf": ""
    },
    {
      "icao": "LGAV",
      "alert": "OK",
      "vis_m": 9999,
      "fzfg": false,
      "metar_trigger": false,
      "taf_trigger": false,
      "metar": "METAR LGAV 142020Z VRB03KT CAVOK 20/14 Q1015 NOSIG",
      "taf": "TAF LGAV 141700Z 1418/1518 VRB05KT 9999 FEW020"
    },
    {
      "icao": "LGTS",
      "alert": "OK",
      "vis_m": 9999,
      "fzfg": false,
      "metar_trigger": false,
      "taf_trigger": false,
      "metar": "METAR LGTS 142020Z 12006KT CAVOK 23/16 Q1013 NOSIG",
      "taf": "TAF LGTS 141700Z 1418/1518 VRB03KT CAVOK"
    },
    {
      "icao": "LHBP",
      "alert": "OK",
      "vis_m": 9999,
      "fzfg": false,
      "metar_trigger": false,
      "taf_trigger": false,
      "metar": "METAR LHBP 142030Z 27005KT 240V300 CAVOK 16/06 Q1012 NOSIG",
      "taf": "TAF LHBP 141715Z 1418/1518 32012KT CAVOK"
    },
    {
      "icao": "LHDC",
      "alert": "OK",
      "vis_m": 9999,
      "fzfg": false,
      "metar_trigger": false,
      "taf_trigger": false,
      "metar": "METAR LHDC 142015Z AUTO 28005KT CAVOK 17/08 Q1011 NOSIG",
      "taf": ""
    },
    {
      "icao": "LIBD",
      "alert": "OK",
      "vis_m": 9999,
      "fzfg": false,
      "metar_trigger": false,
      "taf_trigger": false,
      "metar": "METAR LIBD 142020Z 20007KT CAVOK 25/10 Q1012",
      "taf": "TAF LIBD 141700Z 1418/1518 12012KT CAVOK"
    },
    {
      "icao": "LIBG",
      "alert": "OK",
      "vis_m": 9999,
      "fzfg": false,
      "metar_trigger": false,
      "taf_trigger": false,
      "metar": "METAR LIBG 142020Z AUTO 01002KT 9999 NCD 21/16 Q1013",
      "taf": "TAF LIBG 141700Z 1418/1518 VRB05KT CAVOK"
    },
    {
      "icao": "LIBP",
      "alert": "OK",
      "vis_m": 9999,
      "fzfg": false,
      "metar_trigger": false,
      "taf_trigger": false,
      "metar": "METAR LIBP 142020Z AUTO 03003KT 310V080 9999 NCD 26/09 Q1011",
      "taf": "TAF LIBP 141700Z 1418/1518 VRB05KT CAVOK"
    },
    {
      "icao": "LIBR",
      "alert": "OK",
      "vis_m": 9999,
      "fzfg": false,
      "metar_trigger": false,
      "taf_trigger": false,
      "metar": "METAR LIBR 142020Z 20010KT CAVOK 23/17 Q1013",
      "taf": "TAF LIBR 141700Z 1418/1518 12010KT CAVOK"
    },
    {
      "icao": "LICA",
      "alert": "OK",
      "vis_m": 9999,
      "fzfg": false,
      "metar_trigger": false,
      "taf_trigger": false,
      "metar": "METAR LICA 142020Z AUTO 05002KT 9999 NCD 20/18 Q1015",
      "taf": "TAF LICA 141700Z 1418/1518 25010KT CAVOK"
    },
    {
      "icao": "LICC",
      "alert": "OK",
      "vis_m": 9999,
      "fzfg": false,
      "metar_trigger": false,
      "taf_trigger": false,
      "metar": "METAR LICC 142020Z 27006KT CAVOK 25/16 Q1015",
      "taf": "TAF LICC 141700Z 1418/1518 08010KT CAVOK"
    },
    {
      "icao": "LICJ",
      "alert": "OK",
      "vis_m": 9999,
      "fzfg": false,
      "metar_trigger": false,
      "taf_trigger": false,
      "metar": "METAR LICJ 142020Z 22007KT CAVOK 24/20 Q1015",
      "taf": "TAF LICJ 141700Z 1418/1518 VRB05KT CAVOK"
    },
    {
      "icao": "LIMC",
      "alert": "OK",
      "vis_m": 9999,
      "fzfg": false,
      "metar_trigger": false,
      "taf_trigger": false,
      "metar": "METAR LIMC 142020Z 23005KT CAVOK 23/17 Q1011 NOSIG",
      "taf": "TAF LIMC 141700Z 1418/1524 22010KT CAVOK"
    },
    {
      "icao": "LIME",
      "alert": "OK",
      "vis_m": 9999,
      "fzfg": false,
      "metar_trigger": false,
      "taf_trigger": false,
      "metar": "METAR LIME 142020Z AUTO 26014KT 9999 NCD 25/16 Q1010",
      "taf": "TAF LIME 141700Z 1418/1518 26010KT CAVOK"
    },
    {
      "icao": "LIMF",
      "alert": "OK",
      "vis_m": 9999,
      "fzfg": false,
      "metar_trigger": false,
      "taf_trigger": false,
      "metar": "METAR LIMF 142020Z 19004KT CAVOK 26/17 Q1011",
      "taf": "TAF LIMF 141700Z 1418/1518 VRB05KT CAVOK"
    },
    {
      "icao": "LIMJ",
      "alert": "OK",
      "vis_m": 9999,
      "fzfg": false,
      "metar_trigger": false,
      "taf_trigger": false,
      "metar": "METAR LIMJ 142020Z VRB01KT 9999 FEW015 SCT022 21/18 Q1013",
      "taf": "TAF LIMJ 141700Z 1418/1518 17011KT CAVOK"
    },
    {
      "icao": "LIPE",
      "alert": "OK",
      "vis_m": 9999,
      "fzfg": false,
      "metar_trigger": false,
      "taf_trigger": false,
      "metar": "METAR LIPE 142020Z 19009KT CAVOK 26/08 Q1009",
      "taf": "TAF LIPE 141700Z 1418/1518 23010KT CAVOK"
    },
    {
      "icao": "LIPH",
      "alert": "OK",
      "vis_m": 9999,
      "fzfg": false,
      "metar_trigger": false,
      "taf_trigger": false,
      "metar": "METAR LIPH 142020Z 08006KT CAVOK 22/19 Q1009",
      "taf": "TAF LIPH 141700Z 1418/1518 14008KT 9999 FEW030"
    },
    {
      "icao": "LIPQ",
      "alert": "OK",
      "vis_m": 9999,
      "fzfg": false,
      "metar_trigger": false,
      "taf_trigger": false,
      "metar": "METAR LIPQ 142020Z 10005KT CAVOK 21/21 Q1010",
      "taf": "TAF LIPQ 141700Z 1418/1518 VRB05KT 9999 FEW060"
    },
    {
      "icao": "LIPR",
      "alert": "OK",
      "vis_m": 9999,
      "fzfg": false,
      "metar_trigger": false,
      "taf_trigger": false,
      "metar": "METAR LIPR 142020Z 20006KT CAVOK 26/10 Q1009",
      "taf": "TAF LIPR 141700Z 1418/1518 24012KT CAVOK"
    },
    {
      "icao": "LIPX",
      "alert": "OK",
      "vis_m": 9999,
      "fzfg": false,
      "metar_trigger": false,
      "taf_trigger": false,
      "metar": "METAR LIPX 142020Z 24008KT CAVOK 24/16 Q1008",
      "taf": "TAF LIPX 141700Z 1418/1518 26012KT CAVOK"
    },
    {
      "icao": "LIPY",
      "alert": "OK",
      "vis_m": 9999,
      "fzfg": false,
      "metar_trigger": false,
      "taf_trigger": false,
      "metar": "METAR LIPY 142020Z AUTO 23011KT 9999 NCD 26/08 Q1010",
      "taf": "TAF LIPY 141700Z 1418/1518 25013KT CAVOK"
    },
    {
      "icao": "LIPZ",
      "alert": "OK",
      "vis_m": 9999,
      "fzfg": false,
      "metar_trigger": false,
      "taf_trigger": false,
      "metar": "METAR LIPZ 142020Z 11007KT CAVOK 23/21 Q1009 NOSIG",
      "taf": "TAF LIPZ 141700Z 1418/1524 15010KT 9999 FEW020"
    },
    {
      "icao": "LIRF",
      "alert": "OK",
      "vis_m": 9999,
      "fzfg": false,
      "metar_trigger": false,
      "taf_trigger": false,
      "metar": "METAR LIRF 142020Z VRB04KT CAVOK 22/16 Q1014 NOSIG",
      "taf": "TAF LIRF 141700Z 1418/1524 17010KT CAVOK"
    },
    {
      "icao": "LIRN",
      "alert": "OK",
      "vis_m": 9999,
      "fzfg": false,
      "metar_trigger": false,
      "taf_trigger": false,
      "metar": "METAR LIRN 142020Z VRB03KT CAVOK 22/18 Q1015 NOSIG",
      "taf": "TAF LIRN 141700Z 1418/1518 20010KT CAVOK"
    },
    {
      "icao": "LIRP",
      "alert": "OK",
      "vis_m": 9999,
      "fzfg": false,
      "metar_trigger": false,
      "taf_trigger": false,
      "metar": "METAR LIRP 142015Z 21003KT CAVOK 18/12 Q1013 NOSIG",
      "taf": "TAF LIRP 141700Z 1418/1518 29012KT CAVOK"
    },
    {
      "icao": "LIRZ",
      "alert": "OK",
      "vis_m": 9999,
      "fzfg": false,
      "metar_trigger": false,
      "taf_trigger": false,
      "metar": "METAR LIRZ 142020Z AUTO 21007KT 9999 NCD 23/08 Q1014",
      "taf": "TAF LIRZ 141700Z 1418/1518 22012KT CAVOK"
    },
    {
      "icao": "LJLJ",
      "alert": "OK",
      "vis_m": 9999,
      "fzfg": false,
      "metar_trigger": false,
      "taf_trigger": false,
      "metar": "METAR LJLJ 142030Z 06012KT 9999 FEW040TCU BKN047 20/16 Q1012 NOSIG",
      "taf": "TAF LJLJ 141700Z 1418/1518 26005KT 9999 FEW050"
    },
    {
      "icao": "LKMT",
      "alert": "OK",
      "vis_m": 9999,
      "fzfg": false,
      "metar_trigger": false,
      "taf_trigger": false,
      "metar": "METAR LKMT 142030Z 25003KT 230V290 CAVOK 13/08 Q1012 NOSIG",
      "taf": "TAF LKMT 141700Z 1418/1518 24008KT CAVOK"
    },
    {
      "icao": "LKPR",
      "alert": "OK",
      "vis_m": 9999,
      "fzfg": false,
      "metar_trigger": false,
      "taf_trigger": false,
      "metar": "METAR LKPR 142030Z 26009KT 9999 FEW049 11/07 Q1013 NOSIG",
      "taf": "TAF LKPR 142000Z 1421/1603 29010KT CAVOK"
    },
    {
      "icao": "LLBG",
      "alert": "OK",
      "vis_m": 9999,
      "fzfg": false,
      "metar_trigger": false,
      "taf_trigger": false,
      "metar": "METAR LLBG 142020Z 30005KT 9999 BKN025 24/18 Q1011 NOSIG",
      "taf": "TAF LLBG 141701Z 1418/1518 32006KT 9999 SCT025 TX29/1511Z TN21/1503Z"
    },
    {
      "icao": "LMML",
      "alert": "OK",
      "vis_m": 9999,
      "fzfg": false,
      "metar_trigger": false,
      "taf_trigger": false,
      "metar": "METAR LMML 142045Z 21006KT 170V240 CAVOK 22/20 Q1016 NOSIG",
      "taf": "TAF LMML 141700Z 1418/1518 22008KT 9999 FEW015"
    },
    {
      "icao": "LOWW",
      "alert": "OK",
      "vis_m": 9999,
      "fzfg": false,
      "metar_trigger": false,
      "taf_trigger": false,
      "metar": "METAR LOWW 142020Z 35006KT CAVOK 17/07 Q1013 NOSIG",
      "taf": "TAF LOWW 142015Z 1421/1603 30007KT 9999 FEW050 TX22/1513Z TN12/1603Z"
    },
    {
      "icao": "LPFR",
      "alert": "OK",
      "vis_m": 9999,
      "fzfg": false,
      "metar_trigger": false,
      "taf_trigger": false,
      "metar": "METAR LPFR 142030Z 26006KT 9999 FEW005 19/18 Q1016",
      "taf": "TAF LPFR 141700Z 1418/1518 21010KT 9999 SCT020"
    },
    {
      "icao": "LPMA",
      "alert": "OK",
      "vis_m": 9999,
      "fzfg": false,
      "metar_trigger": false,
      "taf_trigger": false,
      "metar": "METAR LPMA 142030Z 01009KT 270V060 9999 FEW016 21/14 Q1022",
      "taf": "TAF LPMA 141700Z 1418/1518 34012KT 9999 FEW015"
    },
    {
      "icao": "LPPR",
      "alert": "OK",
      "vis_m": 4500,
      "fzfg": false,
      "metar_trigger": false,
      "taf_trigger": false,
      "metar": "METAR LPPR 142030Z 30003KT 270V340 4500 BR OVC003 18/17 Q1016",
      "taf": ""
    },
    {
      "icao": "LPPS",
      "alert": "OK",
      "vis_m": 9999,
      "fzfg": false,
      "metar_trigger": false,
      "taf_trigger": false,
      "metar": "METAR LPPS 142030Z 34013KT 9999 FEW014 20/16 Q1022",
      "taf": "TAF LPPS 141700Z 1418/1524 36012KT 9999 FEW015 BKN030"
    },
    {
      "icao": "LPPT",
      "alert": "OK",
      "vis_m": 9999,
      "fzfg": false,
      "metar_trigger": false,
      "taf_trigger": false,
      "metar": "METAR LPPT 142030Z VRB06KT 9999 FEW012 19/15 Q1017",
      "taf": "TAF LPPT 141700Z 1418/1524 30010KT CAVOK"
    },
    {
      "icao": "LQBK",
      "alert": "OK",
      "vis_m": 9999,
      "fzfg": false,
      "metar_trigger": false,
      "taf_trigger": false,
      "metar": "METAR LQBK 142030Z 02005KT CAVOK 19/14 Q1012 NOSIG",
      "taf": "TAF LQBK 141700Z 1418/1518 28006KT CAVOK TX27/1418Z TN15/1503Z"
    },
    {
      "icao": "LQSA",
      "alert": "OK",
      "vis_m": 9999,
      "fzfg": false,
      "metar_trigger": false,
      "taf_trigger": false,
      "metar": "METAR LQSA 142030Z VRB03KT CAVOK 19/10 Q1013 NOSIG",
      "taf": "TAF LQSA 141700Z 1418/1518 VRB02KT CAVOK TX26/1512Z TN13/1503Z"
    },
    {
      "icao": "LQTZ",
      "alert": "OK",
      "vis_m": 9999,
      "fzfg": false,
      "metar_trigger": false,
      "taf_trigger": false,
      "metar": "METAR LQTZ 142030Z VRB02KT CAVOK 19/14 Q1014",
      "taf": "TAF LQTZ 141700Z 1418/1518 03005KT 9999 SCT040 TX26/1418Z TN15/1503Z"
    },
    {
      "icao": "LRBC",
      "alert": "OK",
      "vis_m": 9999,
      "fzfg": false,
      "metar_trigger": false,
      "taf_trigger": false,
      "metar": "METAR LRBC 142030Z 22004KT 170V260 CAVOK 19/11 Q1009",
      "taf": ""
    },
    {
      "icao": "LRBS",
      "alert": "OK",
      "vis_m": 9999,
      "fzfg": false,
      "metar_trigger": false,
      "taf_trigger": false,
      "metar": "METAR LRBS 142030Z 10003KT 060V140 CAVOK 19/13 Q1010 NOSIG",
      "taf": "TAF LRBS 141700Z 1418/1518 27006KT CAVOK"
    },
    {
      "icao": "LRBV",
      "alert": "OK",
      "vis_m": 9999,
      "fzfg": false,
      "metar_trigger": false,
      "taf_trigger": false,
      "metar": "METAR LRBV 142030Z AUTO VRB03KT 9999 FEW006/// BKN088/// 15/14 Q1012 RERA",
      "taf": ""
    },
    {
      "icao": "LRCL",
      "alert": "OK",
      "vis_m": 9999,
      "fzfg": false,
      "metar_trigger": false,
      "taf_trigger": false,
      "metar": "METAR LRCL 142030Z 00000KT 9999 FEW063 15/13 Q1010",
      "taf": ""
    },
    {
      "icao": "LRCV",
      "alert": "OK",
      "vis_m": 9999,
      "fzfg": false,
      "metar_trigger": false,
      "taf_trigger": false,
      "metar": "METAR LRCV 142030Z COR 01009KT 9999 -SHRA SCT020 FEW045CB 18/17 Q1013",
      "taf": ""
    },
    {
      "icao": "LRIA",
      "alert": "OK",
      "vis_m": 9999,
      "fzfg": false,
      "metar_trigger": false,
      "taf_trigger": false,
      "metar": "METAR LRIA 142030Z 23005KT 190V260 CAVOK 19/10 Q1007",
      "taf": ""
    },
    {
      "icao": "LROP",
      "alert": "OK",
      "vis_m": 9999,
      "fzfg": false,
      "metar_trigger": false,
      "taf_trigger": false,
      "metar": "METAR LROP 142030Z 15004KT CAVOK 17/15 Q1010 NOSIG",
      "taf": "TAF LROP 141700Z 1418/1518 27006KT CAVOK"
    },
    {
      "icao": "LRSB",
      "alert": "OK",
      "vis_m": 9999,
      "fzfg": false,
      "metar_trigger": false,
      "taf_trigger": false,
      "metar": "METAR LRSB 142030Z VRB01KT 9999 FEW065 15/14 Q1012",
      "taf": "TAF LRSB 141700Z 1418/1518 VRB04KT 9999 SCT045 SCT070"
    },
    {
      "icao": "LRSM",
      "alert": "OK",
      "vis_m": 9999,
      "fzfg": false,
      "metar_trigger": false,
      "taf_trigger": false,
      "metar": "METAR LRSM 142030Z AUTO 31006KT 9999 FEW075/// 16/12 Q1010",
      "taf": ""
    },
    {
      "icao": "LRSV",
      "alert": "OK",
      "vis_m": 9999,
      "fzfg": false,
      "metar_trigger": false,
      "taf_trigger": false,
      "metar": "METAR LRSV 142030Z 31016KT CAVOK 14/12 Q1009",
      "taf": ""
    },
    {
      "icao": "LRTM",
      "alert": "OK",
      "vis_m": 9999,
      "fzfg": false,
      "metar_trigger": false,
      "taf_trigger": false,
      "metar": "METAR LRTM 142030Z 13003KT 080V160 9999 -RA FEW015 17/16 Q1011",
      "taf": ""
    },
    {
      "icao": "LRTR",
      "alert": "OK",
      "vis_m": 9999,
      "fzfg": false,
      "metar_trigger": false,
      "taf_trigger": false,
      "metar": "METAR LRTR 142030Z COR VRB02KT 9999 FEW045CB 17/17 Q1012",
      "taf": "TAF LRTR 141700Z 1418/1518 02012KT 9999 SCT010 SCT045CB"
    },
    {
      "icao": "LTAC",
      "alert": "OK",
      "vis_m": 9999,
      "fzfg": false,
      "metar_trigger": false,
      "taf_trigger": false,
      "metar": "METAR LTAC 142020Z 02005KT 9999 SCT040 14/10 Q1016 NOSIG RMK RWY21C 03005KT RWY03L 01004KT RWY21R 01005KT RWY03R 02005KT RWY21L 02005KT",
      "taf": "TAF LTAC 141640Z 1418/1518 VRB02KT 9999 SCT040"
    },
    {
      "icao": "LTFM",
      "alert": "OK",
      "vis_m": 9999,
      "fzfg": false,
      "metar_trigger": false,
      "taf_trigger": false,
      "metar": "METAR LTFM 142020Z 20006KT CAVOK 20/11 Q1013 NOSIG RMK RWY17L 22009KT RWY34L 21008KT RWY16R 22007KT RWY36 22007KT RWY18 23008KT",
      "taf": "TAF LTFM 141640Z 1418/1524 21008KT CAVOK"
    },
    {
      "icao": "LUKK",
      "alert": "OK",
      "vis_m": 9999,
      "fzfg": false,
      "metar_trigger": false,
      "taf_trigger": false,
      "metar": "METAR LUKK 142030Z 23003KT 190V260 CAVOK 18/13 Q1007 NOSIG",
      "taf": "TAF LUKK 141717Z 1418/1518 26009KT 9999 SCT040"
    },
    {
      "icao": "LWOH",
      "alert": "OK",
      "vis_m": null,
      "fzfg": false,
      "metar_trigger": false,
      "taf_trigger": false,
      "metar": "",
      "taf": "TAF LWOH 142030Z 1421/1521 VRB02KT CAVOK"
    },
    {
      "icao": "LWSK",
      "alert": "OK",
      "vis_m": 9999,
      "fzfg": false,
      "metar_trigger": false,
      "taf_trigger": false,
      "metar": "METAR LWSK 142020Z VRB02KT CAVOK 19/12 Q1012 NOSIG",
      "taf": "TAF LWSK 142030Z 1421/1521 VRB02KT CAVOK"
    },
    {
      "icao": "LYBE",
      "alert": "OK",
      "vis_m": 9999,
      "fzfg": false,
      "metar_trigger": false,
      "taf_trigger": false,
      "metar": "METAR LYBE 142030Z 01005KT 320V100 9999 SCT040 17/16 Q1013 NOSIG",
      "taf": "TAF LYBE 141700Z 1418/1518 01012KT 9999 SCT045 TX27/1418Z TN16/1503Z"
    },
    {
      "icao": "LYNI",
      "alert": "OK",
      "vis_m": 9999,
      "fzfg": false,
      "metar_trigger": false,
      "taf_trigger": false,
      "metar": "METAR LYNI 142030Z 00000KT CAVOK 22/12 Q1010 NOSIG",
      "taf": "TAF LYNI 141700Z 1418/1518 17007KT CAVOK TX27/1513Z TN15/1504Z"
    },
    {
      "icao": "LYPG",
      "alert": "OK",
      "vis_m": 9999,
      "fzfg": false,
      "metar_trigger": false,
      "taf_trigger": false,
      "metar": "METAR LYPG 142030Z VRB02KT CAVOK 23/13 Q1013 NOSIG",
      "taf": "TAF LYPG 141700Z 1418/1518 VRB02KT CAVOK TX30/1514Z TN19/1503Z"
    },
    {
      "icao": "LZIB",
      "alert": "OK",
      "vis_m": 9999,
      "fzfg": false,
      "metar_trigger": false,
      "taf_trigger": false,
      "metar": "METAR LZIB 142030Z 34011KT CAVOK 18/05 Q1012 NOSIG",
      "taf": "TAF LZIB 141715Z 1418/1518 31012KT CAVOK"
    },
    {
      "icao": "LZKZ",
      "alert": "OK",
      "vis_m": 9999,
      "fzfg": false,
      "metar_trigger": false,
      "taf_trigger": false,
      "metar": "METAR LZKZ 142030Z 19003KT CAVOK 13/09 Q1010 NOSIG",
      "taf": "TAF LZKZ 141715Z 1418/1518 36008KT CAVOK"
    },
    {
      "icao": "LZTT",
      "alert": "OK",
      "vis_m": 9999,
      "fzfg": false,
      "metar_trigger": false,
      "taf_trigger": false,
      "metar": "METAR LZTT 142030Z 28012KT 9999 FEW060 11/03 Q1011",
      "taf": "TAF LZTT 141715Z 1418/1518 28014KT 9999 FEW060"
    },
    {
      "icao": "OEJN",
      "alert": "OK",
      "vis_m": 9999,
      "fzfg": false,
      "metar_trigger": false,
      "taf_trigger": false,
      "metar": "METAR OEJN 142000Z 33007KT CAVOK 32/17 Q1005 NOSIG",
      "taf": "TAF OEJN 141700Z 1418/1524 01005KT CAVOK"
    },
    {
      "icao": "OEMA",
      "alert": "OK",
      "vis_m": 9999,
      "fzfg": false,
      "metar_trigger": false,
      "taf_trigger": false,
      "metar": "METAR OEMA 142000Z 26010KT CAVOK 39/M02 Q1010 NOSIG",
      "taf": "TAF OEMA 141700Z 1418/1524 VRB03KT CAVOK"
    },
    {
      "icao": "OJAI",
      "alert": "OK",
      "vis_m": 5000,
      "fzfg": false,
      "metar_trigger": false,
      "taf_trigger": false,
      "metar": "METAR OJAI 142000Z 29004KT 5000 HZ NSC 19/13 Q1014 NOSIG",
      "taf": "TAF OJAI 141700Z 1418/1524 31012KT 5000 HZ NSC"
    },
    {
      "icao": "OMAA",
      "alert": "OK",
      "vis_m": 9999,
      "fzfg": false,
      "metar_trigger": false,
      "taf_trigger": false,
      "metar": "METAR OMAA 142030Z 11003KT 060V130 CAVOK 31/24 Q1002 NOSIG",
      "taf": "TAF OMAA 141700Z 1418/1600 02007KT 8000 NSC"
    },
    {
      "icao": "OMDB",
      "alert": "OK",
      "vis_m": 7000,
      "fzfg": false,
      "metar_trigger": false,
      "taf_trigger": false,
      "metar": "METAR OMDB 142030Z VRB03KT 7000 NSC 33/26 Q1001 NOSIG",
      "taf": "TAF OMDB 141700Z 1418/1600 VRB02KT 8000 NSC"
    },
    {
      "icao": "UAAA",
      "alert": "OK",
      "vis_m": 9999,
      "fzfg": false,
      "metar_trigger": false,
      "taf_trigger": false,
      "metar": "METAR UAAA 142030Z 17003MPS 9999 FEW050CB BKN200 23/10 Q1007 NOSIG",
      "taf": "TAF UAAA 141702Z 1418/1518 18002G07MPS 9999 SCT050CB BKN100 TX35/1509Z TN20/1500Z"
    },
    {
      "icao": "UBBB",
      "alert": "OK",
      "vis_m": 9999,
      "fzfg": false,
      "metar_trigger": false,
      "taf_trigger": false,
      "metar": "METAR UBBB 142030Z 27012KT 9999 SCT060CB 24/17 Q1004 NOSIG",
      "taf": "TAF UBBB 141716Z 1418/1518 31010KT 9999 FEW050CB TX25/1510Z TN19/1500Z"
    },
    {
      "icao": "UDSG",
      "alert": "OK",
      "vis_m": 9999,
      "fzfg": false,
      "metar_trigger": false,
      "taf_trigger": false,
      "metar": "METAR UDSG 142030Z 05005KT 9999 SCT049CB 09/08 Q1016 NOSIG",
      "taf": "TAF UDSG 141700Z 1418/1518 03006KT 9999 SCT040"
    },
    {
      "icao": "UDYZ",
      "alert": "OK",
      "vis_m": 9999,
      "fzfg": false,
      "metar_trigger": false,
      "taf_trigger": false,
      "metar": "METAR UDYZ 142030Z VRB01KT 9999 FEW043CB 15/12 Q1011 NOSIG",
      "taf": "TAF UDYZ 141700Z 1418/1518 04006KT 9999 SCT040"
    },
    {
      "icao": "UGKO",
      "alert": "OK",
      "vis_m": 6000,
      "fzfg": false,
      "metar_trigger": false,
      "taf_trigger": false,
      "metar": "METAR UGKO 142030Z 24008KT 6000 -SHRA SCT033CB OVC068 18/17 Q1012 NOSIG",
      "taf": "TAF UGKO 141700Z 1418/1518 26010KT 9999 BKN050 TX24/1511Z TN17/1501Z"
    }
  ]
}