{
  "ts_utc": "2026-06-30T20:21:40Z",
  "threshold_m": 150,
  "source": "stations_override.txt (ICAO list) + aviationweather.gov (METAR/TAF raw)",
  "station_count": 159,
  "stations": [
    {
      "icao": "BIKF",
      "alert": "OK",
      "vis_m": 9999,
      "fzfg": false,
      "metar_trigger": false,
      "taf_trigger": false,
      "metar": "METAR BIKF 302000Z 17018KT 9999 -DZRA SCT010 BKN018 OVC058 10/09 Q1009",
      "taf": "TAF BIKF 301959Z 3021/0121 18022G32KT 9999 -RA BKN013 OVC025 TX11/0113Z TN08/0121Z"
    },
    {
      "icao": "BKPR",
      "alert": "OK",
      "vis_m": null,
      "fzfg": false,
      "metar_trigger": false,
      "taf_trigger": false,
      "metar": "",
      "taf": ""
    },
    {
      "icao": "EBCI",
      "alert": "OK",
      "vis_m": 9999,
      "fzfg": false,
      "metar_trigger": false,
      "taf_trigger": false,
      "metar": "METAR EBCI 301950Z 02003KT 360V060 CAVOK 19/10 Q1022 NOSIG",
      "taf": "TAF EBCI 301704Z 3018/0124 33006KT 9999 FEW045"
    },
    {
      "icao": "EDDB",
      "alert": "OK",
      "vis_m": 9999,
      "fzfg": false,
      "metar_trigger": false,
      "taf_trigger": false,
      "metar": "METAR EDDB 301950Z AUTO 09003KT CAVOK 21/16 Q1020 NOSIG",
      "taf": "TAF EDDB 301700Z 3018/0118 13010KT CAVOK"
    },
    {
      "icao": "EDDH",
      "alert": "OK",
      "vis_m": 9999,
      "fzfg": false,
      "metar_trigger": false,
      "taf_trigger": false,
      "metar": "METAR EDDH 301950Z AUTO 12005KT 080V170 CAVOK 17/15 Q1020 NOSIG",
      "taf": ""
    },
    {
      "icao": "EDDK",
      "alert": "OK",
      "vis_m": 9999,
      "fzfg": false,
      "metar_trigger": false,
      "taf_trigger": false,
      "metar": "METAR EDDK 301950Z AUTO 35004KT CAVOK 21/15 Q1020 NOSIG",
      "taf": "TAF EDDK 301700Z 3018/0124 34010KT CAVOK"
    },
    {
      "icao": "EDDN",
      "alert": "OK",
      "vis_m": 9999,
      "fzfg": false,
      "metar_trigger": false,
      "taf_trigger": false,
      "metar": "METAR EDDN 301950Z AUTO 19004KT 160V240 CAVOK 24/20 Q1019 TEMPO TSRA SCT040CB",
      "taf": "TAF EDDN 301700Z 3018/0118 04004KT 9999 BKN035"
    },
    {
      "icao": "EDDS",
      "alert": "OK",
      "vis_m": 9999,
      "fzfg": false,
      "metar_trigger": false,
      "taf_trigger": false,
      "metar": "METAR EDDS 301950Z AUTO 15003KT 120V190 CAVOK 21/19 Q1019 TEMPO SHRA",
      "taf": "TAF EDDS 301700Z 3018/0118 35006KT 9999 FEW040"
    },
    {
      "icao": "EDFH",
      "alert": "OK",
      "vis_m": 9999,
      "fzfg": false,
      "metar_trigger": false,
      "taf_trigger": false,
      "metar": "METAR EDFH 301950Z 34008KT 310V020 CAVOK 20/13 Q1021",
      "taf": "TAF EDFH 301700Z 3018/0118 01005KT CAVOK"
    },
    {
      "icao": "EDJA",
      "alert": "OK",
      "vis_m": 9999,
      "fzfg": false,
      "metar_trigger": false,
      "taf_trigger": false,
      "metar": "METAR EDJA 301950Z 16005KT 130V200 CAVOK 20/14 Q1020",
      "taf": "TAF EDJA 301700Z 3018/0103 20006KT CAVOK"
    },
    {
      "icao": "EDLW",
      "alert": "OK",
      "vis_m": 9999,
      "fzfg": false,
      "metar_trigger": false,
      "taf_trigger": false,
      "metar": "METAR EDLW 301950Z 36003KT 280V040 9999 SCT043 20/16 Q1020",
      "taf": "TAF EDLW 301700Z 3018/0118 30004KT CAVOK"
    },
    {
      "icao": "EDNY",
      "alert": "OK",
      "vis_m": 9999,
      "fzfg": false,
      "metar_trigger": false,
      "taf_trigger": false,
      "metar": "METAR EDNY 301950Z 21006KT 100V260 9999 VCTS FEW040CB 23/17 Q1019",
      "taf": "TAF EDNY 301700Z 3018/0103 VRB03KT CAVOK"
    },
    {
      "icao": "EDSB",
      "alert": "OK",
      "vis_m": 9999,
      "fzfg": false,
      "metar_trigger": false,
      "taf_trigger": false,
      "metar": "METAR EDSB 301950Z VRB02KT CAVOK 25/20 Q1017",
      "taf": "TAF EDSB 301700Z 3018/0118 35007KT CAVOK"
    },
    {
      "icao": "EETN",
      "alert": "OK",
      "vis_m": 9999,
      "fzfg": false,
      "metar_trigger": false,
      "taf_trigger": false,
      "metar": "METAR EETN 302020Z 26007KT CAVOK 18/14 Q1019 NOSIG",
      "taf": "TAF EETN 301730Z 3018/0118 27012KT CAVOK"
    },
    {
      "icao": "EFTU",
      "alert": "OK",
      "vis_m": 9999,
      "fzfg": false,
      "metar_trigger": false,
      "taf_trigger": false,
      "metar": "METAR EFTU 301950Z AUTO 32004KT 290V010 CAVOK 16/08 Q1020",
      "taf": "TAF EFTU 301728Z 3018/0118 33006KT CAVOK"
    },
    {
      "icao": "EGBB",
      "alert": "OK",
      "vis_m": 9999,
      "fzfg": false,
      "metar_trigger": false,
      "taf_trigger": false,
      "metar": "METAR EGBB 301950Z 19004KT 160V220 9999 FEW017 SCT049 17/16 Q1020 RESHRA",
      "taf": "TAF EGBB 301659Z 3018/0118 28006KT 9999 SCT030"
    },
    {
      "icao": "EGGP",
      "alert": "OK",
      "vis_m": 9999,
      "fzfg": false,
      "metar_trigger": false,
      "taf_trigger": false,
      "metar": "METAR EGGP 301950Z 30009KT 9999 4000E SHRA FEW011CB SCT018 BKN031 16/15 Q1019 RESHRA",
      "taf": "TAF EGGP 301703Z 3018/0118 21010KT 9999 SCT025"
    },
    {
      "icao": "EGGW",
      "alert": "OK",
      "vis_m": 9999,
      "fzfg": false,
      "metar_trigger": false,
      "taf_trigger": false,
      "metar": "METAR EGGW 301950Z AUTO 27011KT 9999 -DZRA FEW042 19/13 Q1020",
      "taf": "TAF EGGW 301656Z 3018/0118 24008KT 9999 SCT038"
    },
    {
      "icao": "EGKK",
      "alert": "OK",
      "vis_m": 9999,
      "fzfg": false,
      "metar_trigger": false,
      "taf_trigger": false,
      "metar": "METAR EGKK 301950Z 23006KT CAVOK 19/11 Q1021",
      "taf": "TAF EGKK 301658Z 3018/0124 24010KT 9999 SCT030"
    },
    {
      "icao": "EGNM",
      "alert": "OK",
      "vis_m": 9999,
      "fzfg": false,
      "metar_trigger": false,
      "taf_trigger": false,
      "metar": "METAR EGNM 301950Z 27005KT 9999 VCSH SCT015 SCT043 15/14 Q1020",
      "taf": ""
    },
    {
      "icao": "EGPD",
      "alert": "OK",
      "vis_m": 9999,
      "fzfg": false,
      "metar_trigger": false,
      "taf_trigger": false,
      "metar": "METAR EGPD 301950Z AUTO 16006KT 9999 NCD 16/12 Q1020",
      "taf": "TAF EGPD 301658Z 3018/0118 17010KT 9999 FEW035"
    },
    {
      "icao": "EGPF",
      "alert": "OK",
      "vis_m": 9999,
      "fzfg": false,
      "metar_trigger": false,
      "taf_trigger": false,
      "metar": "METAR EGPF 301950Z AUTO 29003KT 9999 -RA SCT024/// BKN028/// BKN037/// //////CB 16/14 Q1019",
      "taf": "TAF EGPF 301652Z 3018/0118 VRB04KT 9999 BKN024"
    },
    {
      "icao": "EHBK",
      "alert": "OK",
      "vis_m": 9999,
      "fzfg": false,
      "metar_trigger": false,
      "taf_trigger": false,
      "metar": "METAR EHBK 301955Z AUTO 34003KT 9999 NSC 21/13 Q1021 NOSIG",
      "taf": "TAF EHBK 301655Z 3018/0124 35006KT CAVOK"
    },
    {
      "icao": "EHEH",
      "alert": "OK",
      "vis_m": 9999,
      "fzfg": false,
      "metar_trigger": false,
      "taf_trigger": false,
      "metar": "METAR EHEH 301955Z AUTO 29001KT 9999 SCT088 BKN099 OVC100 19/16 Q1021 BLU NOSIG RMK TREND REMOTE BY EHWX",
      "taf": "TAF EHEH 301709Z 3018/0124 35004KT CAVOK"
    },
    {
      "icao": "EKBI",
      "alert": "OK",
      "vis_m": 9999,
      "fzfg": false,
      "metar_trigger": false,
      "taf_trigger": false,
      "metar": "METAR EKBI 301950Z AUTO 35006KT 9999 BKN110/// 17/12 Q1021",
      "taf": ""
    },
    {
      "icao": "EKCH",
      "alert": "OK",
      "vis_m": 9999,
      "fzfg": false,
      "metar_trigger": false,
      "taf_trigger": false,
      "metar": "METAR EKCH 301950Z AUTO 01005KT 9999 FEW170/// 19/13 Q1022 NOSIG",
      "taf": "TAF EKCH 301727Z 3018/0118 04008KT 9999 BKN040"
    },
    {
      "icao": "ENAL",
      "alert": "OK",
      "vis_m": 9999,
      "fzfg": false,
      "metar_trigger": false,
      "taf_trigger": false,
      "metar": "METAR ENAL 301950Z VRB02KT 9999 BKN047 14/10 Q1023",
      "taf": "TAF ENAL 301700Z 3018/0103 25005KT 9999 BKN050"
    },
    {
      "icao": "ENBR",
      "alert": "OK",
      "vis_m": 9999,
      "fzfg": false,
      "metar_trigger": false,
      "taf_trigger": false,
      "metar": "METAR ENBR 301950Z 09001KT 9999 FEW018 15/12 Q1022 RMK WIND 1200FT 09003KT",
      "taf": "TAF ENBR 301700Z 3018/0118 30005KT 9999 FEW020 SCT045"
    },
    {
      "icao": "ENGM",
      "alert": "OK",
      "vis_m": 9999,
      "fzfg": false,
      "metar_trigger": false,
      "taf_trigger": false,
      "metar": "METAR ENGM 301950Z 23006KT CAVOK 17/07 Q1019 NOSIG",
      "taf": "TAF ENGM 301700Z 3018/0118 19010KT CAVOK"
    },
    {
      "icao": "ENHD",
      "alert": "OK",
      "vis_m": 9999,
      "fzfg": false,
      "metar_trigger": false,
      "taf_trigger": false,
      "metar": "METAR ENHD 301950Z 24003KT CAVOK 16/13 Q1022",
      "taf": "TAF ENHD 301400Z 3015/3022 21010KT 9999 FEW030"
    },
    {
      "icao": "ENTC",
      "alert": "OK",
      "vis_m": 9999,
      "fzfg": false,
      "metar_trigger": false,
      "taf_trigger": false,
      "metar": "METAR ENTC 301950Z 21018KT 9999 -RADZ FEW006 SCT018 BKN026 11/08 Q1011 NOSIG RMK WIND 2600FT 22019KT",
      "taf": "TAF ENTC 301700Z 3018/0118 21018KT 9999 -SHRA FEW015 BKN030"
    },
    {
      "icao": "ENTO",
      "alert": "OK",
      "vis_m": 9999,
      "fzfg": false,
      "metar_trigger": false,
      "taf_trigger": false,
      "metar": "METAR ENTO 301950Z 20004KT CAVOK 17/12 Q1019 NOSIG",
      "taf": "TAF ENTO 301700Z 3018/0118 19012KT CAVOK"
    },
    {
      "icao": "ENVA",
      "alert": "OK",
      "vis_m": 9999,
      "fzfg": false,
      "metar_trigger": false,
      "taf_trigger": false,
      "metar": "METAR ENVA 301950Z 34006KT 9999 BKN035 14/09 Q1023 RMK WIND 670FT 33007KT",
      "taf": "TAF ENVA 301700Z 3018/0118 26005KT 9999 FEW020 BKN040"
    },
    {
      "icao": "ENZV",
      "alert": "OK",
      "vis_m": 9999,
      "fzfg": false,
      "metar_trigger": false,
      "taf_trigger": false,
      "metar": "METAR ENZV 301950Z 27003KT 9999 FEW013 16/13 Q1022",
      "taf": "TAF ENZV 301700Z 3018/0118 30008KT CAVOK"
    },
    {
      "icao": "EPGD",
      "alert": "OK",
      "vis_m": 9999,
      "fzfg": false,
      "metar_trigger": false,
      "taf_trigger": false,
      "metar": "METAR EPGD 302000Z 08003KT CAVOK 17/14 Q1022",
      "taf": "TAF EPGD 301730Z 3018/0118 06006KT CAVOK"
    },
    {
      "icao": "EPKK",
      "alert": "OK",
      "vis_m": 9999,
      "fzfg": false,
      "metar_trigger": false,
      "taf_trigger": false,
      "metar": "METAR EPKK 302000Z 04006KT CAVOK 27/20 Q1018",
      "taf": "TAF EPKK 301730Z 3018/0118 VRB02KT CAVOK"
    },
    {
      "icao": "EPKT",
      "alert": "OK",
      "vis_m": 9999,
      "fzfg": false,
      "metar_trigger": false,
      "taf_trigger": false,
      "metar": "METAR EPKT 302000Z 04003KT CAVOK 23/21 Q1018",
      "taf": "TAF EPKT 301730Z 3018/0118 10010KT CAVOK"
    },
    {
      "icao": "EPLB",
      "alert": "OK",
      "vis_m": 9999,
      "fzfg": false,
      "metar_trigger": false,
      "taf_trigger": false,
      "metar": "METAR EPLB 302000Z 05003KT CAVOK 25/16 Q1019",
      "taf": "TAF EPLB 301730Z 3018/0118 05010KT CAVOK"
    },
    {
      "icao": "EPMO",
      "alert": "OK",
      "vis_m": 9999,
      "fzfg": false,
      "metar_trigger": false,
      "taf_trigger": false,
      "metar": "METAR EPMO 302000Z 02006KT CAVOK 25/18 Q1019",
      "taf": "TAF EPMO 301730Z 3018/0118 05010KT CAVOK"
    },
    {
      "icao": "EPPO",
      "alert": "OK",
      "vis_m": 9999,
      "fzfg": false,
      "metar_trigger": false,
      "taf_trigger": false,
      "metar": "METAR EPPO 302000Z 02007KT 9999 SCT053CB 21/19 Q1019",
      "taf": "TAF EPPO 301730Z 3018/0118 04007KT CAVOK"
    },
    {
      "icao": "EPRA",
      "alert": "OK",
      "vis_m": 9999,
      "fzfg": false,
      "metar_trigger": false,
      "taf_trigger": false,
      "metar": "METAR EPRA 302000Z 05005KT CAVOK 27/15 Q1019",
      "taf": "TAF EPRA 301730Z 3018/0103 07006KT CAVOK"
    },
    {
      "icao": "EPRZ",
      "alert": "OK",
      "vis_m": 9999,
      "fzfg": false,
      "metar_trigger": false,
      "taf_trigger": false,
      "metar": "METAR EPRZ 302000Z 04004KT CAVOK 27/17 Q1018",
      "taf": "TAF EPRZ 301730Z 3018/0118 06010KT CAVOK"
    },
    {
      "icao": "EPSC",
      "alert": "OK",
      "vis_m": 9999,
      "fzfg": false,
      "metar_trigger": false,
      "taf_trigger": false,
      "metar": "METAR EPSC 302000Z 01004KT 340V050 9999 FEW050TCU 21/12 Q1020",
      "taf": ""
    },
    {
      "icao": "EPSY",
      "alert": "OK",
      "vis_m": 9999,
      "fzfg": false,
      "metar_trigger": false,
      "taf_trigger": false,
      "metar": "METAR EPSY 302000Z 01005KT CAVOK 19/14 Q1021",
      "taf": "TAF EPSY 301730Z 3018/0103 03008KT CAVOK"
    },
    {
      "icao": "EPWA",
      "alert": "OK",
      "vis_m": 9999,
      "fzfg": false,
      "metar_trigger": false,
      "taf_trigger": false,
      "metar": "METAR EPWA 302000Z 05007KT 010V080 CAVOK 28/15 Q1019 NOSIG",
      "taf": "TAF EPWA 301730Z 3018/0118 05010KT CAVOK"
    },
    {
      "icao": "EPWR",
      "alert": "OK",
      "vis_m": 9999,
      "fzfg": false,
      "metar_trigger": false,
      "taf_trigger": false,
      "metar": "METAR EPWR 302000Z 34005KT CAVOK 28/20 Q1017",
      "taf": "TAF EPWR 301730Z 3018/0118 02005KT 9999 SCT040"
    },
    {
      "icao": "ESGG",
      "alert": "OK",
      "vis_m": 9999,
      "fzfg": false,
      "metar_trigger": false,
      "taf_trigger": false,
      "metar": "METAR ESGG 301950Z 23003KT CAVOK 15/12 Q1022",
      "taf": "TAF ESGG 301730Z 3018/0118 23006KT CAVOK"
    },
    {
      "icao": "ESKN",
      "alert": "OK",
      "vis_m": 9999,
      "fzfg": false,
      "metar_trigger": false,
      "taf_trigger": false,
      "metar": "METAR ESKN 301950Z 19005KT CAVOK 19/15 Q1020",
      "taf": "TAF ESKN 301730Z 3018/0118 21007KT CAVOK"
    },
    {
      "icao": "ESMS",
      "alert": "OK",
      "vis_m": 9999,
      "fzfg": false,
      "metar_trigger": false,
      "taf_trigger": false,
      "metar": "METAR ESMS 301950Z 30002KT CAVOK 18/13 Q1021",
      "taf": "TAF ESMS 301727Z 3018/0118 30006KT 9999 FEW040"
    },
    {
      "icao": "ESSA",
      "alert": "OK",
      "vis_m": 9999,
      "fzfg": false,
      "metar_trigger": false,
      "taf_trigger": false,
      "metar": "METAR ESSA 301950Z 14008KT CAVOK 17/10 Q1020 NOSIG",
      "taf": "TAF ESSA 301730Z 3018/0118 12010KT CAVOK"
    },
    {
      "icao": "EYKA",
      "alert": "OK",
      "vis_m": 9999,
      "fzfg": false,
      "metar_trigger": false,
      "taf_trigger": false,
      "metar": "METAR EYKA 302020Z 30004KT CAVOK 21/16 Q1020",
      "taf": "TAF EYKA 301720Z 3018/0118 VRB03KT 9000 NSC"
    },
    {
      "icao": "EYPA",
      "alert": "OK",
      "vis_m": 9999,
      "fzfg": false,
      "metar_trigger": false,
      "taf_trigger": false,
      "metar": "METAR EYPA 302020Z VRB01KT 9999 BCFG NSC 16/14 Q1021",
      "taf": "TAF EYPA 301707Z 3018/0118 VRB03KT 9000 NSC"
    },
    {
      "icao": "EYVI",
      "alert": "OK",
      "vis_m": 9999,
      "fzfg": false,
      "metar_trigger": false,
      "taf_trigger": false,
      "metar": "METAR EYVI 302020Z VRB01KT CAVOK 18/15 Q1020 NOSIG",
      "taf": "TAF EYVI 301728Z 3018/0118 36010KT 9000 NSC"
    },
    {
      "icao": "GCFV",
      "alert": "OK",
      "vis_m": 9999,
      "fzfg": false,
      "metar_trigger": false,
      "taf_trigger": false,
      "metar": "METAR GCFV 302000Z 03008KT 360V070 CAVOK 24/17 Q1016",
      "taf": "TAF GCFV 301400Z 3015/0115 04015KT 9999 FEW015 TX28/0114Z TN21/0106Z"
    },
    {
      "icao": "GCLP",
      "alert": "OK",
      "vis_m": 9999,
      "fzfg": false,
      "metar_trigger": false,
      "taf_trigger": false,
      "metar": "METAR GCLP 302000Z 01025G36KT 9999 FEW020 24/18 Q1016 NOSIG",
      "taf": "TAF GCLP 301400Z 3015/0115 01027KT 9999 FEW020 TX29/0114Z TN23/0106Z"
    },
    {
      "icao": "GCTS",
      "alert": "OK",
      "vis_m": 9999,
      "fzfg": false,
      "metar_trigger": false,
      "taf_trigger": false,
      "metar": "METAR GCTS 302000Z 08014KT 9999 FEW025 24/18 Q1016 NOSIG",
      "taf": "TAF GCTS 301400Z 3015/0115 08022KT 9999 FEW025 TX29/0114Z TN21/0106Z"
    },
    {
      "icao": "GMAD",
      "alert": "OK",
      "vis_m": 8000,
      "fzfg": false,
      "metar_trigger": false,
      "taf_trigger": false,
      "metar": "METAR GMAD 302000Z 21014KT 8000 NSC 22/18 Q1012 NOSIG",
      "taf": "TAF GMAD 301700Z 3018/0124 24014KT CAVOK"
    },
    {
      "icao": "GMMN",
      "alert": "OK",
      "vis_m": 9999,
      "fzfg": false,
      "metar_trigger": false,
      "taf_trigger": false,
      "metar": "METAR GMMN 302000Z 34005KT CAVOK 24/19 Q1016 NOSIG",
      "taf": "TAF GMMN 301100Z 3012/0118 34012KT CAVOK"
    },
    {
      "icao": "GMMX",
      "alert": "OK",
      "vis_m": 9999,
      "fzfg": false,
      "metar_trigger": false,
      "taf_trigger": false,
      "metar": "METAR GMMX 302000Z 36009KT 320V050 CAVOK 34/14 Q1015 NOSIG",
      "taf": "TAF GMMX 301700Z 3018/0124 06006KT 8000 NSC"
    },
    {
      "icao": "HEGN",
      "alert": "OK",
      "vis_m": 9999,
      "fzfg": false,
      "metar_trigger": false,
      "taf_trigger": false,
      "metar": "METAR HEGN 302000Z 32009KT CAVOK 33/04 Q1006 NOSIG",
      "taf": "TAF HEGN 301700Z 3018/0124 33010G20KT CAVOK"
    },
    {
      "icao": "HEMA",
      "alert": "OK",
      "vis_m": 9999,
      "fzfg": false,
      "metar_trigger": false,
      "taf_trigger": false,
      "metar": "METAR HEMA 302000Z 31006KT CAVOK 31/10 Q1005 NOSIG",
      "taf": "TAF HEMA 301700Z 3018/0124 32012G22KT CAVOK"
    },
    {
      "icao": "HESH",
      "alert": "OK",
      "vis_m": 9999,
      "fzfg": false,
      "metar_trigger": false,
      "taf_trigger": false,
      "metar": "METAR HESH 302000Z 35013KT CAVOK 36/11 Q1004 NOSIG",
      "taf": "TAF HESH 301700Z 3018/0124 36012KT CAVOK"
    },
    {
      "icao": "HESX",
      "alert": "OK",
      "vis_m": 9999,
      "fzfg": false,
      "metar_trigger": false,
      "taf_trigger": false,
      "metar": "METAR HESX 302000Z 36010KT CAVOK 26/19 Q1011 NOSIG",
      "taf": "TAF HESX 301700Z 3018/0124 34012G22KT CAVOK"
    },
    {
      "icao": "LATI",
      "alert": "OK",
      "vis_m": 9999,
      "fzfg": false,
      "metar_trigger": false,
      "taf_trigger": false,
      "metar": "METAR LATI 302020Z 29004KT 260V330 9999 SCT150 28/16 Q1015 NOSIG",
      "taf": "TAF LATI 301700Z 3018/0118 24010KT 9999 FEW040CB SCT100 TX35/0112Z TN21/0104Z"
    },
    {
      "icao": "LBPD",
      "alert": "OK",
      "vis_m": 9999,
      "fzfg": false,
      "metar_trigger": false,
      "taf_trigger": false,
      "metar": "METAR LBPD 302000Z AUTO VRB02KT 9999 FEW100/// 25/18 Q1014",
      "taf": "TAF LBPD 301700Z 3018/0118 11010KT 9999 SCT065"
    },
    {
      "icao": "LBSF",
      "alert": "OK",
      "vis_m": 9999,
      "fzfg": false,
      "metar_trigger": false,
      "taf_trigger": false,
      "metar": "METAR LBSF 302000Z AUTO 24002KT 9999 NCD 20/18 Q1017 NOSIG",
      "taf": "TAF LBSF 301700Z 3018/0118 VRB04KT 9999 SCT060"
    },
    {
      "icao": "LBWN",
      "alert": "OK",
      "vis_m": 9999,
      "fzfg": false,
      "metar_trigger": false,
      "taf_trigger": false,
      "metar": "METAR LBWN 302000Z AUTO VRB03KT 9999 NCD 24/16 Q1013 NOSIG",
      "taf": "TAF LBWN 301700Z 3018/0118 VRB03KT CAVOK"
    },
    {
      "icao": "LCLK",
      "alert": "OK",
      "vis_m": 9999,
      "fzfg": false,
      "metar_trigger": false,
      "taf_trigger": false,
      "metar": "METAR LCLK 302000Z 17004KT CAVOK 27/22 Q1007 NOSIG",
      "taf": "TAF LCLK 301730Z 3018/0118 21012KT 9999 FEW025"
    },
    {
      "icao": "LCPH",
      "alert": "OK",
      "vis_m": 9999,
      "fzfg": false,
      "metar_trigger": false,
      "taf_trigger": false,
      "metar": "METAR LCPH 302000Z 35003KT CAVOK 25/23 Q1008 TEMPO BKN012",
      "taf": "TAF LCPH 301730Z 3018/0118 29013KT 9999 FEW020"
    },
    {
      "icao": "LEAL",
      "alert": "OK",
      "vis_m": 9999,
      "fzfg": false,
      "metar_trigger": false,
      "taf_trigger": false,
      "metar": "METAR LEAL 302000Z 12003KT 080V140 CAVOK 27/23 Q1019 NOSIG",
      "taf": "TAF LEAL 301700Z 3018/0118 09007KT CAVOK TX32/0112Z TN23/0106Z"
    },
    {
      "icao": "LEBB",
      "alert": "OK",
      "vis_m": 9999,
      "fzfg": false,
      "metar_trigger": false,
      "taf_trigger": false,
      "metar": "METAR LEBB 302000Z 01004KT 330V050 9999 FEW025 SCT039 BKN056 22/18 Q1026 NOSIG",
      "taf": "TAF LEBB 301700Z 3018/0118 34009KT 9999 BKN020 TX22/3018Z TN19/0105Z"
    },
    {
      "icao": "LEBL",
      "alert": "OK",
      "vis_m": 9999,
      "fzfg": false,
      "metar_trigger": false,
      "taf_trigger": false,
      "metar": "METAR LEBL 302000Z 18003KT 130V210 CAVOK 28/23 Q1019 NOSIG",
      "taf": "TAF LEBL 301700Z 3018/0118 18010KT CAVOK TX31/0113Z TN24/0106Z"
    },
    {
      "icao": "LECH",
      "alert": "OK",
      "vis_m": 9999,
      "fzfg": false,
      "metar_trigger": false,
      "taf_trigger": false,
      "metar": "METAR LECH 302000Z AUTO 21006KT CAVOK 27/17 Q1020",
      "taf": "TAF LECH 301700Z 3018/0118 15009KT CAVOK TX33/0112Z TN19/0106Z"
    },
    {
      "icao": "LEMD",
      "alert": "OK",
      "vis_m": 9999,
      "fzfg": false,
      "metar_trigger": false,
      "taf_trigger": false,
      "metar": "METAR LEMD 302000Z 08002KT CAVOK 33/11 Q1019 NOSIG",
      "taf": "TAF LEMD 301700Z 3018/0124 VRB04KT CAVOK TX38/0116Z TN20/0105Z"
    },
    {
      "icao": "LEMG",
      "alert": "OK",
      "vis_m": 9999,
      "fzfg": false,
      "metar_trigger": false,
      "taf_trigger": false,
      "metar": "METAR LEMG 302000Z 14005KT 9999 FEW060 26/17 Q1019 NOSIG",
      "taf": "TAF LEMG 301700Z 3018/0118 14007KT 9999 FEW060 TX31/0114Z TN24/0105Z"
    },
    {
      "icao": "LEVC",
      "alert": "OK",
      "vis_m": 9999,
      "fzfg": false,
      "metar_trigger": false,
      "taf_trigger": false,
      "metar": "METAR LEVC 302000Z 08004KT CAVOK 30/18 Q1018 NOSIG",
      "taf": "TAF LEVC 301700Z 3018/0118 12010KT CAVOK TX33/0112Z TN24/0106Z"
    },
    {
      "icao": "LEXJ",
      "alert": "OK",
      "vis_m": 9999,
      "fzfg": false,
      "metar_trigger": false,
      "taf_trigger": false,
      "metar": "METAR LEXJ 302000Z VRB02KT 9999 BKN040 21/16 Q1027",
      "taf": "TAF LEXJ 301400Z 3015/0115 04009KT 9999 FEW020 BKN030 TX22/3015Z TN18/0106Z"
    },
    {
      "icao": "LEZG",
      "alert": "OK",
      "vis_m": 9999,
      "fzfg": false,
      "metar_trigger": false,
      "taf_trigger": false,
      "metar": "METAR LEZG 302000Z 29016KT 260V320 CAVOK 27/12 Q1020 NOSIG",
      "taf": "TAF LEZG 301700Z 3018/0118 31010KT CAVOK TX30/0113Z TN18/0106Z"
    },
    {
      "icao": "LEZL",
      "alert": "OK",
      "vis_m": 9999,
      "fzfg": false,
      "metar_trigger": false,
      "taf_trigger": false,
      "metar": "METAR LEZL 302000Z 22008KT 190V260 CAVOK 34/17 Q1016 NOSIG",
      "taf": "TAF LEZL 301400Z 3015/0115 VRB03KT CAVOK TX40/3015Z TN24/0105Z"
    },
    {
      "icao": "LFBD",
      "alert": "OK",
      "vis_m": 9999,
      "fzfg": false,
      "metar_trigger": false,
      "taf_trigger": false,
      "metar": "METAR LFBD 302000Z AUTO 31008KT 290V360 9999 SCT030 21/15 Q1024 NOSIG",
      "taf": "TAF LFBD 301700Z 3018/0124 30010KT CAVOK TX26/0114Z TN17/0102Z"
    },
    {
      "icao": "LFLL",
      "alert": "OK",
      "vis_m": 9999,
      "fzfg": false,
      "metar_trigger": false,
      "taf_trigger": false,
      "metar": "METAR LFLL 302000Z 36006KT CAVOK 28/16 Q1019 NOSIG",
      "taf": "TAF LFLL 301700Z 3018/0124 35010KT CAVOK"
    },
    {
      "icao": "LFLS",
      "alert": "OK",
      "vis_m": 9999,
      "fzfg": false,
      "metar_trigger": false,
      "taf_trigger": false,
      "metar": "METAR LFLS 302000Z AUTO 04004KT CAVOK 25/17 Q1020",
      "taf": "TAF LFLS 301400Z 3015/0115 34010KT 9999 SCT060"
    },
    {
      "icao": "LFMN",
      "alert": "OK",
      "vis_m": 9999,
      "fzfg": false,
      "metar_trigger": false,
      "taf_trigger": false,
      "metar": "METAR LFMN 302000Z 33007KT CAVOK 29/17 Q1016 NOSIG",
      "taf": "TAF LFMN 302000Z 3021/0203 33010KT CAVOK"
    },
    {
      "icao": "LFOB",
      "alert": "OK",
      "vis_m": 9999,
      "fzfg": false,
      "metar_trigger": false,
      "taf_trigger": false,
      "metar": "METAR LFOB 302000Z AUTO 35009KT CAVOK 20/12 Q1022 NOSIG",
      "taf": "TAF LFOB 301700Z 3018/0118 36007KT CAVOK"
    },
    {
      "icao": "LFPO",
      "alert": "OK",
      "vis_m": 9999,
      "fzfg": false,
      "metar_trigger": false,
      "taf_trigger": false,
      "metar": "METAR LFPO 302000Z AUTO 01009KT CAVOK 23/12 Q1021 NOSIG",
      "taf": "TAF LFPO 301700Z 3018/0124 03011KT CAVOK"
    },
    {
      "icao": "LFSB",
      "alert": "OK",
      "vis_m": 9999,
      "fzfg": false,
      "metar_trigger": false,
      "taf_trigger": false,
      "metar": "METAR LFSB 302000Z AUTO 01008KT 340V040 9999 VCTS FEW058/// BKN110/// ///CB 24/19 Q1019 BECMG NSW NSC",
      "taf": "TAF LFSB 301700Z 3018/0118 36006KT CAVOK"
    },
    {
      "icao": "LGAV",
      "alert": "OK",
      "vis_m": 9999,
      "fzfg": false,
      "metar_trigger": false,
      "taf_trigger": false,
      "metar": "METAR LGAV 301950Z 20005KT CAVOK 24/15 Q1011 NOSIG",
      "taf": "TAF LGAV 301700Z 3018/0118 04015KT 9999 FEW025"
    },
    {
      "icao": "LGTS",
      "alert": "OK",
      "vis_m": 9999,
      "fzfg": false,
      "metar_trigger": false,
      "taf_trigger": false,
      "metar": "METAR LGTS 301950Z VRB02KT 9999 FEW020 28/19 Q1013 NOSIG",
      "taf": "TAF LGTS 301700Z 3018/0118 34013KT 9999 FEW030"
    },
    {
      "icao": "LHBP",
      "alert": "OK",
      "vis_m": 9999,
      "fzfg": false,
      "metar_trigger": false,
      "taf_trigger": false,
      "metar": "METAR LHBP 302000Z VRB02KT CAVOK 32/13 Q1016 NOSIG",
      "taf": "TAF LHBP 301715Z 3018/0118 VRB04KT CAVOK"
    },
    {
      "icao": "LHDC",
      "alert": "OK",
      "vis_m": 9999,
      "fzfg": false,
      "metar_trigger": false,
      "taf_trigger": false,
      "metar": "METAR LHDC 301945Z AUTO 04005KT 330V070 CAVOK 25/18 Q1017 NOSIG",
      "taf": "TAF LHDC 301715Z 3018/0103 06007KT CAVOK"
    },
    {
      "icao": "LIBD",
      "alert": "OK",
      "vis_m": 9999,
      "fzfg": false,
      "metar_trigger": false,
      "taf_trigger": false,
      "metar": "METAR LIBD 301950Z 18005KT 150V220 9999 -RA VCTS FEW015CB SCT040 27/25 Q1015 RETS",
      "taf": ""
    },
    {
      "icao": "LIBG",
      "alert": "OK",
      "vis_m": 9999,
      "fzfg": false,
      "metar_trigger": false,
      "taf_trigger": false,
      "metar": "METAR LIBG 301950Z AUTO 04006KT 360V080 9999 FEW180/// 29/22 Q1015",
      "taf": "TAF LIBG 301700Z 3018/0118 08010KT CAVOK"
    },
    {
      "icao": "LIBP",
      "alert": "OK",
      "vis_m": 9999,
      "fzfg": false,
      "metar_trigger": false,
      "taf_trigger": false,
      "metar": "METAR LIBP 301950Z AUTO 25005KT 9999 NCD 26/16 Q1015",
      "taf": "TAF LIBP 301700Z 3018/0118 VRB05KT CAVOK"
    },
    {
      "icao": "LIBR",
      "alert": "OK",
      "vis_m": 8000,
      "fzfg": false,
      "metar_trigger": false,
      "taf_trigger": false,
      "metar": "METAR LIBR 301950Z 04011KT 8000 NSC 28/19 Q1014",
      "taf": ""
    },
    {
      "icao": "LICA",
      "alert": "OK",
      "vis_m": 9999,
      "fzfg": false,
      "metar_trigger": false,
      "taf_trigger": false,
      "metar": "METAR LICA 301950Z AUTO 29004KT 250V320 9999 FEW110/// 26/23 Q1015",
      "taf": "TAF LICA 301700Z 3018/0118 28015KT 9999 FEW030"
    },
    {
      "icao": "LICC",
      "alert": "OK",
      "vis_m": 9999,
      "fzfg": false,
      "metar_trigger": false,
      "taf_trigger": false,
      "metar": "METAR LICC 301950Z 09005KT CAVOK 28/19 Q1014",
      "taf": "TAF LICC 301700Z 3018/0118 09012KT 9999 FEW020"
    },
    {
      "icao": "LICJ",
      "alert": "OK",
      "vis_m": 9999,
      "fzfg": false,
      "metar_trigger": false,
      "taf_trigger": false,
      "metar": "METAR LICJ 301950Z 03007KT CAVOK 28/24 Q1015",
      "taf": "TAF LICJ 301700Z 3018/0118 36010KT 9999 FEW020"
    },
    {
      "icao": "LIMC",
      "alert": "OK",
      "vis_m": 9999,
      "fzfg": false,
      "metar_trigger": false,
      "taf_trigger": false,
      "metar": "METAR LIMC 301950Z 03004KT CAVOK 26/20 Q1016 NOSIG",
      "taf": "TAF LIMC 301700Z 3018/0124 VRB05KT 9999 SCT050"
    },
    {
      "icao": "LIME",
      "alert": "OK",
      "vis_m": 9999,
      "fzfg": false,
      "metar_trigger": false,
      "taf_trigger": false,
      "metar": "METAR LIME 301950Z 35002KT CAVOK 28/19 Q1016 NOSIG",
      "taf": "TAF LIME 301700Z 3018/0118 VRB05KT 9999 FEW050"
    },
    {
      "icao": "LIMF",
      "alert": "OK",
      "vis_m": 9999,
      "fzfg": false,
      "metar_trigger": false,
      "taf_trigger": false,
      "metar": "METAR LIMF 301950Z 36005KT 9999 FEW140 28/19 Q1017",
      "taf": "TAF LIMF 301700Z 3018/0118 VRB05KT 9999 FEW040"
    },
    {
      "icao": "LIMJ",
      "alert": "OK",
      "vis_m": 9999,
      "fzfg": false,
      "metar_trigger": false,
      "taf_trigger": false,
      "metar": "METAR LIMJ 301950Z 24004KT CAVOK 27/24 Q1015",
      "taf": "TAF LIMJ 301700Z 3018/0118 VRB05KT CAVOK"
    },
    {
      "icao": "LIPE",
      "alert": "OK",
      "vis_m": 9999,
      "fzfg": false,
      "metar_trigger": false,
      "taf_trigger": false,
      "metar": "METAR LIPE 301950Z 24004KT 200V260 CAVOK 31/20 Q1015",
      "taf": "TAF LIPE 301700Z 3018/0118 VRB05KT 9999 SCT030"
    },
    {
      "icao": "LIPH",
      "alert": "OK",
      "vis_m": 9999,
      "fzfg": false,
      "metar_trigger": false,
      "taf_trigger": false,
      "metar": "METAR LIPH 301950Z 12002KT CAVOK 29/17 Q1014",
      "taf": "TAF LIPH 301700Z 3018/0118 VRB05KT 9999 FEW040"
    },
    {
      "icao": "LIPQ",
      "alert": "OK",
      "vis_m": 9999,
      "fzfg": false,
      "metar_trigger": false,
      "taf_trigger": false,
      "metar": "METAR LIPQ 301950Z VRB02KT CAVOK 26/21 Q1015",
      "taf": "TAF LIPQ 301700Z 3018/0118 VRB05KT 9999 FEW040"
    },
    {
      "icao": "LIPR",
      "alert": "OK",
      "vis_m": 9999,
      "fzfg": false,
      "metar_trigger": false,
      "taf_trigger": false,
      "metar": "METAR LIPR 301950Z 12002KT CAVOK 28/21 Q1015",
      "taf": "TAF LIPR 301700Z 3018/0118 VRB05KT CAVOK"
    },
    {
      "icao": "LIPX",
      "alert": "OK",
      "vis_m": 9999,
      "fzfg": false,
      "metar_trigger": false,
      "taf_trigger": false,
      "metar": "METAR LIPX 301950Z VRB02KT CAVOK 29/21 Q1015",
      "taf": "TAF LIPX 301700Z 3018/0118 VRB05KT CAVOK"
    },
    {
      "icao": "LIPY",
      "alert": "OK",
      "vis_m": 9999,
      "fzfg": false,
      "metar_trigger": false,
      "taf_trigger": false,
      "metar": "METAR LIPY 301950Z AUTO VRB02KT 9999 NCD 27/20 Q1015",
      "taf": "TAF LIPY 301700Z 3018/0118 VRB05KT CAVOK"
    },
    {
      "icao": "LIPZ",
      "alert": "OK",
      "vis_m": 9999,
      "fzfg": false,
      "metar_trigger": false,
      "taf_trigger": false,
      "metar": "METAR LIPZ 301950Z 14004KT CAVOK 28/25 Q1014 NOSIG",
      "taf": "TAF LIPZ 301700Z 3018/0124 VRB05KT 9999 FEW040"
    },
    {
      "icao": "LIRF",
      "alert": "OK",
      "vis_m": 9999,
      "fzfg": false,
      "metar_trigger": false,
      "taf_trigger": false,
      "metar": "METAR LIRF 301950Z 29003KT 270V330 CAVOK 27/22 Q1014 NOSIG",
      "taf": "TAF LIRF 301700Z 3018/0124 30011KT CAVOK"
    },
    {
      "icao": "LIRN",
      "alert": "OK",
      "vis_m": 9999,
      "fzfg": false,
      "metar_trigger": false,
      "taf_trigger": false,
      "metar": "METAR LIRN 301950Z VRB01KT 9999 FEW060 28/20 Q1016 NOSIG",
      "taf": "TAF LIRN 301700Z 3018/0118 22010KT CAVOK"
    },
    {
      "icao": "LIRP",
      "alert": "OK",
      "vis_m": 9999,
      "fzfg": false,
      "metar_trigger": false,
      "taf_trigger": false,
      "metar": "METAR LIRP 301945Z 29004KT CAVOK 25/19 Q1016 NOSIG",
      "taf": "TAF LIRP 301700Z 3018/0118 29009KT CAVOK"
    },
    {
      "icao": "LIRZ",
      "alert": "OK",
      "vis_m": 9999,
      "fzfg": false,
      "metar_trigger": false,
      "taf_trigger": false,
      "metar": "METAR LIRZ 301950Z AUTO 36006KT 9999 FEW160/// 25/15 Q1017",
      "taf": "TAF LIRZ 301700Z 3018/0118 VRB05KT CAVOK"
    },
    {
      "icao": "LJLJ",
      "alert": "OK",
      "vis_m": 9999,
      "fzfg": false,
      "metar_trigger": false,
      "taf_trigger": false,
      "metar": "METAR LJLJ 302000Z 33005KT 310V030 CAVOK 21/17 Q1019 NOSIG",
      "taf": "TAF LJLJ 301700Z 3018/0118 03004KT 9999 FEW060"
    },
    {
      "icao": "LKMT",
      "alert": "OK",
      "vis_m": 9999,
      "fzfg": false,
      "metar_trigger": false,
      "taf_trigger": false,
      "metar": "METAR LKMT 302000Z 02005KT CAVOK 25/20 Q1017 NOSIG",
      "taf": "TAF LKMT 301700Z 3018/0118 06005KT CAVOK"
    },
    {
      "icao": "LKPR",
      "alert": "OK",
      "vis_m": 9999,
      "fzfg": false,
      "metar_trigger": false,
      "taf_trigger": false,
      "metar": "METAR LKPR 302000Z 35008KT CAVOK 21/18 Q1020 NOSIG",
      "taf": "TAF LKPR 302000Z 3021/0203 34008KT CAVOK"
    },
    {
      "icao": "LLBG",
      "alert": "OK",
      "vis_m": 9999,
      "fzfg": false,
      "metar_trigger": false,
      "taf_trigger": false,
      "metar": "METAR LLBG 301950Z VRB03KT CAVOK 26/22 Q1010 NOSIG",
      "taf": "TAF LLBG 301701Z 3018/0118 VRB04KT 9999 FEW020 TX31/0111Z TN22/0102Z"
    },
    {
      "icao": "LMML",
      "alert": "OK",
      "vis_m": 9999,
      "fzfg": false,
      "metar_trigger": false,
      "taf_trigger": false,
      "metar": "METAR LMML 302015Z 28003KT CAVOK 28/20 Q1015 NOSIG",
      "taf": "TAF LMML 301700Z 3018/0118 30010KT 9999 FEW018"
    },
    {
      "icao": "LOWW",
      "alert": "OK",
      "vis_m": 9999,
      "fzfg": false,
      "metar_trigger": false,
      "taf_trigger": false,
      "metar": "METAR LOWW 301950Z VRB01KT CAVOK 29/17 Q1016 NOSIG",
      "taf": "TAF LOWW 302015Z 3021/0203 VRB04KT CAVOK TX30/0111Z TN18/0203Z"
    },
    {
      "icao": "LPFR",
      "alert": "OK",
      "vis_m": 9999,
      "fzfg": false,
      "metar_trigger": false,
      "taf_trigger": false,
      "metar": "METAR LPFR 302000Z 28011KT CAVOK 29/16 Q1017",
      "taf": "TAF LPFR 301700Z 3018/0118 26012KT CAVOK"
    },
    {
      "icao": "LPMA",
      "alert": "OK",
      "vis_m": 9999,
      "fzfg": false,
      "metar_trigger": false,
      "taf_trigger": false,
      "metar": "METAR LPMA 302000Z 02020G31KT 350V050 9999 FEW014 22/15 Q1021",
      "taf": "TAF LPMA 301700Z 3018/0118 02018G30KT 9999 SCT015"
    },
    {
      "icao": "LPPR",
      "alert": "OK",
      "vis_m": 9999,
      "fzfg": false,
      "metar_trigger": false,
      "taf_trigger": false,
      "metar": "METAR LPPR 302000Z 34013KT CAVOK 20/16 Q1020",
      "taf": "TAF LPPR 301700Z 3018/0118 33015KT CAVOK"
    },
    {
      "icao": "LPPS",
      "alert": "OK",
      "vis_m": 9999,
      "fzfg": false,
      "metar_trigger": false,
      "taf_trigger": false,
      "metar": "METAR LPPS 302000Z 04015KT 010V080 9999 FEW015 BKN030 21/16 Q1022",
      "taf": "TAF LPPS 301700Z 3018/0124 02015KT 9999 SCT015 SCT030"
    },
    {
      "icao": "LPPT",
      "alert": "OK",
      "vis_m": 9999,
      "fzfg": false,
      "metar_trigger": false,
      "taf_trigger": false,
      "metar": "METAR LPPT 302000Z 33013KT 9999 FEW012 22/16 Q1020 NOSIG",
      "taf": "TAF LPPT 301700Z 3018/0124 33015KT CAVOK"
    },
    {
      "icao": "LQBK",
      "alert": "OK",
      "vis_m": 9999,
      "fzfg": false,
      "metar_trigger": false,
      "taf_trigger": false,
      "metar": "METAR LQBK 302000Z VRB02KT CAVOK 28/21 Q1015 NOSIG",
      "taf": "TAF LQBK 301700Z 3018/0118 15005KT CAVOK TX34/0113Z TN19/0103Z"
    },
    {
      "icao": "LQSA",
      "alert": "OK",
      "vis_m": 9999,
      "fzfg": false,
      "metar_trigger": false,
      "taf_trigger": false,
      "metar": "METAR LQSA 302000Z VRB02KT 9999 SCT055 19/17 Q1019 NOSIG",
      "taf": "TAF LQSA 301700Z 3018/0118 VRB02KT CAVOK TX30/0112Z TN18/0103Z"
    },
    {
      "icao": "LQTZ",
      "alert": "OK",
      "vis_m": 9999,
      "fzfg": false,
      "metar_trigger": false,
      "taf_trigger": false,
      "metar": "METAR LQTZ 302000Z 29006KT 260V330 9999 -TSRA FEW035CB BKN045 23/20 Q1016",
      "taf": "TAF LQTZ 301700Z 3018/0118 03005KT 9999 FEW050 TX30/0113Z TN19/0103Z"
    },
    {
      "icao": "LRBC",
      "alert": "OK",
      "vis_m": 9999,
      "fzfg": false,
      "metar_trigger": false,
      "taf_trigger": false,
      "metar": "METAR LRBC 302000Z 33005KT CAVOK 26/20 Q1017",
      "taf": "TAF LRBC 301700Z 3018/0103 34010KT CAVOK"
    },
    {
      "icao": "LRBS",
      "alert": "OK",
      "vis_m": 9999,
      "fzfg": false,
      "metar_trigger": false,
      "taf_trigger": false,
      "metar": "METAR LRBS 302000Z 34009G21KT 260V040 9999 -TSRA FEW015 BKN050CB 22/20 Q1016 TEMPO 5000 TSRA",
      "taf": "TAF LRBS 301700Z 3018/0118 33010KT 9999 SCT045"
    },
    {
      "icao": "LRBV",
      "alert": "OK",
      "vis_m": 9999,
      "fzfg": false,
      "metar_trigger": false,
      "taf_trigger": false,
      "metar": "METAR LRBV 302000Z 22004KT 9999 BKN067 19/17 Q1022",
      "taf": "TAF LRBV 301700Z 3018/0103 01010KT 9999 SCT040CB"
    },
    {
      "icao": "LRCL",
      "alert": "OK",
      "vis_m": 9999,
      "fzfg": false,
      "metar_trigger": false,
      "taf_trigger": false,
      "metar": "METAR LRCL 302000Z COR 02009KT 310V050 9999 FEW063 24/18 Q1019",
      "taf": "TAF LRCL 301700Z 3018/0103 25010KT 9999 SCT040CB"
    },
    {
      "icao": "LRCV",
      "alert": "OK",
      "vis_m": 9999,
      "fzfg": false,
      "metar_trigger": false,
      "taf_trigger": false,
      "metar": "METAR LRCV 302000Z 09022KT 9999 SCT049CB 26/19 Q1016",
      "taf": "TAF LRCV 301700Z 3018/0103 01008KT 9999 SCT045"
    },
    {
      "icao": "LRIA",
      "alert": "OK",
      "vis_m": 9999,
      "fzfg": false,
      "metar_trigger": false,
      "taf_trigger": false,
      "metar": "METAR LRIA 302000Z 36007KT CAVOK 28/18 Q1017",
      "taf": "TAF LRIA 301700Z 3018/0103 35010KT CAVOK"
    },
    {
      "icao": "LROP",
      "alert": "OK",
      "vis_m": 8000,
      "fzfg": false,
      "metar_trigger": false,
      "taf_trigger": false,
      "metar": "METAR LROP 302000Z 31012KT 8000 TSRA SCT031CB 22/21 Q1016 TEMPO 5000 TSRA",
      "taf": "TAF LROP 301700Z 3018/0118 33010KT 9999 SCT045"
    },
    {
      "icao": "LRSB",
      "alert": "OK",
      "vis_m": 9999,
      "fzfg": false,
      "metar_trigger": false,
      "taf_trigger": false,
      "metar": "METAR LRSB 302000Z 28007KT CAVOK 21/19 Q1020",
      "taf": "TAF LRSB 301700Z 3018/0118 28008KT 9999 SCT045"
    },
    {
      "icao": "LRSM",
      "alert": "OK",
      "vis_m": 9999,
      "fzfg": false,
      "metar_trigger": false,
      "taf_trigger": false,
      "metar": "METAR LRSM 302000Z 09010KT CAVOK 26/17 Q1017",
      "taf": "TAF LRSM 301700Z 3018/0103 19012KT CAVOK"
    },
    {
      "icao": "LRSV",
      "alert": "OK",
      "vis_m": 9999,
      "fzfg": false,
      "metar_trigger": false,
      "taf_trigger": false,
      "metar": "METAR LRSV 302000Z 34006KT CAVOK 26/19 Q1019",
      "taf": "TAF LRSV 301700Z 3018/0103 36006KT CAVOK"
    },
    {
      "icao": "LRTM",
      "alert": "OK",
      "vis_m": 9999,
      "fzfg": false,
      "metar_trigger": false,
      "taf_trigger": false,
      "metar": "METAR LRTM 302000Z 33003KT 230V010 9999 FEW047CB 22/20 Q1020",
      "taf": "TAF LRTM 301700Z 3018/0103 VRB04KT 9999 SCT040CB"
    },
    {
      "icao": "LRTR",
      "alert": "OK",
      "vis_m": 9999,
      "fzfg": false,
      "metar_trigger": false,
      "taf_trigger": false,
      "metar": "METAR LRTR 302000Z 09014KT CAVOK 25/19 Q1015",
      "taf": "TAF LRTR 301700Z 3018/0118 09009KT 9999 SCT045"
    },
    {
      "icao": "LTAC",
      "alert": "OK",
      "vis_m": 9999,
      "fzfg": false,
      "metar_trigger": false,
      "taf_trigger": false,
      "metar": "METAR LTAC 301950Z 04009KT CAVOK 23/09 Q1016 NOSIG RMK RWY21C 03008KT RWY03L 03009KT RWY21R 01008KT RWY03R 02009KT RWY21L 01008KT",
      "taf": "TAF LTAC 301640Z 3018/0118 VRB02KT CAVOK"
    },
    {
      "icao": "LTFM",
      "alert": "OK",
      "vis_m": 9999,
      "fzfg": false,
      "metar_trigger": false,
      "taf_trigger": false,
      "metar": "METAR LTFM 301950Z 05010KT 9999 FEW011 24/22 Q1013 NOSIG RMK RWY17L 06008KT RWY34L 04008KT RWY16R 05008KT RWY36 05009KT 010V070 RWY18 06009KT",
      "taf": "TAF LTFM 301640Z 3018/0124 05010KT 9999 SCT011"
    },
    {
      "icao": "LUKK",
      "alert": "OK",
      "vis_m": 9999,
      "fzfg": false,
      "metar_trigger": false,
      "taf_trigger": false,
      "metar": "METAR LUKK 302000Z 03008KT CAVOK 29/19 Q1016 NOSIG",
      "taf": ""
    },
    {
      "icao": "LWOH",
      "alert": "OK",
      "vis_m": 9999,
      "fzfg": false,
      "metar_trigger": false,
      "taf_trigger": false,
      "metar": "METAR LWOH 302020Z 08007KT 050V110 9999 TSRA SCT035CB SCT050 BKN090 19/14 Q1021",
      "taf": "TAF LWOH 301710Z 3018/0118 VRB03KT 9999 SCT040 BKN060"
    },
    {
      "icao": "LWSK",
      "alert": "OK",
      "vis_m": 9999,
      "fzfg": false,
      "metar_trigger": false,
      "taf_trigger": false,
      "metar": "METAR LWSK 302020Z VRB01KT 9999 FEW090 22/18 Q1016 NOSIG",
      "taf": ""
    },
    {
      "icao": "LYBE",
      "alert": "OK",
      "vis_m": 9999,
      "fzfg": false,
      "metar_trigger": false,
      "taf_trigger": false,
      "metar": "METAR LYBE 302000Z 07013KT CAVOK 29/15 Q1014 WS ALL RWY NOSIG",
      "taf": "TAF LYBE 301700Z 3018/0118 06006KT CAVOK TX33/0113Z TN21/0103Z"
    },
    {
      "icao": "LYNI",
      "alert": "OK",
      "vis_m": 9999,
      "fzfg": false,
      "metar_trigger": false,
      "taf_trigger": false,
      "metar": "METAR LYNI 302000Z 00000KT CAVOK 25/22 Q1014 NOSIG",
      "taf": "TAF LYNI 301700Z 3018/0118 35005KT CAVOK TX33/0114Z TN19/0103Z"
    },
    {
      "icao": "LYPG",
      "alert": "OK",
      "vis_m": 9999,
      "fzfg": false,
      "metar_trigger": false,
      "taf_trigger": false,
      "metar": "METAR LYPG 302000Z 24004KT 190V270 9999 TSRA SCT034CB SCT040 23/19 Q1016 NOSIG",
      "taf": "TAF LYPG 301700Z 3018/0118 34008KT 9999 SCT040 BKN080 TX36/0113Z TN23/0103Z"
    },
    {
      "icao": "LZIB",
      "alert": "OK",
      "vis_m": 9999,
      "fzfg": false,
      "metar_trigger": false,
      "taf_trigger": false,
      "metar": "METAR LZIB 302000Z VRB01KT CAVOK 30/17 Q1015 NOSIG",
      "taf": "TAF LZIB 301715Z 3018/0118 30005KT CAVOK"
    },
    {
      "icao": "LZKZ",
      "alert": "OK",
      "vis_m": 9999,
      "fzfg": false,
      "metar_trigger": false,
      "taf_trigger": false,
      "metar": "METAR LZKZ 302000Z 03004KT 360V070 CAVOK 29/19 Q1018 NOSIG",
      "taf": "TAF LZKZ 301715Z 3018/0118 02010KT CAVOK"
    },
    {
      "icao": "LZTT",
      "alert": "OK",
      "vis_m": 9999,
      "fzfg": false,
      "metar_trigger": false,
      "taf_trigger": false,
      "metar": "METAR LZTT 302000Z VRB02KT 9999 FEW050 22/20 Q1021 NOSIG",
      "taf": "TAF LZTT 301715Z 3018/0118 07008KT 9999 FEW050"
    },
    {
      "icao": "OEJN",
      "alert": "OK",
      "vis_m": 9999,
      "fzfg": false,
      "metar_trigger": false,
      "taf_trigger": false,
      "metar": "METAR OEJN 302000Z 34006KT CAVOK 33/15 Q1003 NOSIG",
      "taf": "TAF OEJN 301700Z 3018/0124 36008KT CAVOK"
    },
    {
      "icao": "OEMA",
      "alert": "OK",
      "vis_m": 9999,
      "fzfg": false,
      "metar_trigger": false,
      "taf_trigger": false,
      "metar": "METAR OEMA 302000Z 26015KT CAVOK 39/M01 Q1008 NOSIG",
      "taf": "TAF OEMA 301700Z 3018/0124 28008KT CAVOK"
    },
    {
      "icao": "OJAI",
      "alert": "OK",
      "vis_m": 5000,
      "fzfg": false,
      "metar_trigger": false,
      "taf_trigger": false,
      "metar": "METAR OJAI 302000Z 28008KT 5000 HZ NSC 22/12 Q1013 NOSIG",
      "taf": "TAF OJAI 301651Z 3018/0124 30010KT 5000 HZ NSC"
    },
    {
      "icao": "OMAA",
      "alert": "OK",
      "vis_m": 9999,
      "fzfg": false,
      "metar_trigger": false,
      "taf_trigger": false,
      "metar": "METAR OMAA 302000Z 27005KT CAVOK 34/23 Q0998 NOSIG",
      "taf": "TAF OMAA 301700Z 3018/0200 28010KT 8000 NSC"
    },
    {
      "icao": "OMDB",
      "alert": "OK",
      "vis_m": 9999,
      "fzfg": false,
      "metar_trigger": false,
      "taf_trigger": false,
      "metar": "METAR OMDB 302000Z 22006KT CAVOK 33/27 Q0997 NOSIG",
      "taf": "TAF OMDB 301700Z 3018/0200 19005KT 8000 NSC"
    },
    {
      "icao": "UAAA",
      "alert": "OK",
      "vis_m": 9999,
      "fzfg": false,
      "metar_trigger": false,
      "taf_trigger": false,
      "metar": "METAR UAAA 302000Z 18002MPS 140V240 9999 -SHRA BKN050CB OVC100 25/12 Q1010 NOSIG",
      "taf": "TAF UAAA 301704Z 3018/0118 25003G08MPS 9999 BKN040CB OVC100 TX27/0110Z TN20/0101Z"
    },
    {
      "icao": "UBBB",
      "alert": "OK",
      "vis_m": 9999,
      "fzfg": false,
      "metar_trigger": false,
      "taf_trigger": false,
      "metar": "METAR UBBB 302000Z 31004KT 9999 FEW060CB 23/17 Q1012 NOSIG",
      "taf": "TAF UBBB 301716Z 3018/0118 33006KT 9999 FEW060CB TX29/0110Z TN19/0101Z"
    },
    {
      "icao": "UDSG",
      "alert": "OK",
      "vis_m": 9999,
      "fzfg": false,
      "metar_trigger": false,
      "taf_trigger": false,
      "metar": "METAR UDSG 302000Z 34012KT 9999 NSC 16/07 Q1019 NOSIG",
      "taf": "TAF UDSG 301700Z 3018/0118 36006KT 9999 FEW050"
    },
    {
      "icao": "UDYZ",
      "alert": "OK",
      "vis_m": 9999,
      "fzfg": false,
      "metar_trigger": false,
      "taf_trigger": false,
      "metar": "METAR UDYZ 302000Z 02006KT 9999 NSC 24/11 Q1012 TEMPO 04020G30KT",
      "taf": "TAF UDYZ 301700Z 3018/0118 02006KT 9999 FEW040"
    },
    {
      "icao": "UGKO",
      "alert": "OK",
      "vis_m": 9999,
      "fzfg": false,
      "metar_trigger": false,
      "taf_trigger": false,
      "metar": "METAR UGKO 302000Z 10002KT 9999 BKN068 20/18 Q1014 NOSIG",
      "taf": "TAF UGKO 301700Z 3018/0118 26007KT 9999 SCT060 TX30/0111Z TN18/0102Z"
    }
  ]
}