{
  "ts_utc": "2026-01-18T04:48:42Z",
  "threshold_m": 150,
  "source": "stations_override.txt (ICAO list) + aviationweather.gov (METAR/TAF raw)",
  "station_count": 159,
  "stations": [
    {
      "icao": "BIKF",
      "alert": "OK",
      "vis_m": 9999,
      "fzfg": false,
      "metar_trigger": false,
      "taf_trigger": false,
      "metar": "METAR BIKF 180430Z 14035G48KT 9999 -RA BKN014 OVC030 06/04 Q0994",
      "taf": "TAF BIKF 180436Z 1806/1906 13038G54KT 5000 RADZ BKN012 TX07/1815Z TN01/1906Z"
    },
    {
      "icao": "BKPR",
      "alert": "OK",
      "vis_m": 9999,
      "fzfg": false,
      "metar_trigger": false,
      "taf_trigger": false,
      "metar": "METAR BKPR 180430Z 35013KT 9999 SCT015 BKN030 M01/M04 Q1027 NOSIG",
      "taf": "TAF BKPR 172330Z 1800/1824 35008KT 9999 SCT012 BKN030"
    },
    {
      "icao": "EBCI",
      "alert": "OK",
      "vis_m": 9999,
      "fzfg": false,
      "metar_trigger": false,
      "taf_trigger": false,
      "metar": "METAR EBCI 180420Z 06003KT CAVOK 05/03 Q1019 NOSIG",
      "taf": "TAF EBCI 172310Z 1800/1906 10004KT CAVOK"
    },
    {
      "icao": "EDDB",
      "alert": "OK",
      "vis_m": 5000,
      "fzfg": false,
      "metar_trigger": false,
      "taf_trigger": false,
      "metar": "METAR EDDB 180420Z AUTO 10009KT 5000 BR BKN004 01/01 Q1027 TEMPO BKN005",
      "taf": "TAF EDDB 172300Z 1800/1824 10009KT 5000 BR BKN005"
    },
    {
      "icao": "EDDH",
      "alert": "OK",
      "vis_m": 9999,
      "fzfg": false,
      "metar_trigger": false,
      "taf_trigger": false,
      "metar": "METAR EDDH 180420Z AUTO 11009KT 9999 FEW011 OVC017 04/02 Q1024 TEMPO BKN011",
      "taf": "TAF EDDH 172300Z 1800/1906 11009KT 9999 OVC012"
    },
    {
      "icao": "EDDK",
      "alert": "OK",
      "vis_m": 9999,
      "fzfg": false,
      "metar_trigger": false,
      "taf_trigger": false,
      "metar": "METAR EDDK 180420Z AUTO 13005KT 100V160 9999 BKN007 00/M01 Q1021 NOSIG",
      "taf": ""
    },
    {
      "icao": "EDDN",
      "alert": "OK",
      "vis_m": 9999,
      "fzfg": false,
      "metar_trigger": false,
      "taf_trigger": false,
      "metar": "METAR EDDN 180420Z AUTO 09004KT 9999 OVC008 01/M00 Q1022",
      "taf": "TAF EDDN 172300Z 1800/1824 10007KT 9999 OVC009"
    },
    {
      "icao": "EDDS",
      "alert": "OK",
      "vis_m": 9999,
      "fzfg": false,
      "metar_trigger": false,
      "taf_trigger": false,
      "metar": "METAR EDDS 180420Z AUTO 05005KT 9999 OVC007 M02/M03 Q1019",
      "taf": "TAF EDDS 172300Z 1800/1824 VRB03KT CAVOK"
    },
    {
      "icao": "EDFH",
      "alert": "OK",
      "vis_m": 400,
      "fzfg": true,
      "metar_trigger": false,
      "taf_trigger": false,
      "metar": "METAR EDFH 180420Z 13016KT 0400 R21/0400N FZFG VV/// M02/M02 Q1019",
      "taf": "TAF EDFH 172300Z 1800/1824 14013KT 6000 BKN005"
    },
    {
      "icao": "EDJA",
      "alert": "OK",
      "vis_m": 1300,
      "fzfg": true,
      "metar_trigger": false,
      "taf_trigger": false,
      "metar": "METAR EDJA 180420Z AUTO 05008KT 1300 1200 R06/1700D // VV/// M03/M04 Q1018",
      "taf": "TAF EDJA 180200Z 1803/1812 06005KT 0700 FZFG VV000"
    },
    {
      "icao": "EDLW",
      "alert": "OK",
      "vis_m": 9999,
      "fzfg": false,
      "metar_trigger": false,
      "taf_trigger": false,
      "metar": "METAR EDLW 180420Z 12009KT CAVOK 03/01 Q1020",
      "taf": "TAF EDLW 180420Z 1805/1824 12004KT CAVOK"
    },
    {
      "icao": "EDNY",
      "alert": "OK",
      "vis_m": 9999,
      "fzfg": false,
      "metar_trigger": false,
      "taf_trigger": false,
      "metar": "METAR EDNY 180420Z AUTO 02006KT 9999 // OVC007/// M01/M02 Q1019",
      "taf": "TAF EDNY 180200Z 1803/1812 03007KT 9999 OVC008"
    },
    {
      "icao": "EDSB",
      "alert": "OK",
      "vis_m": 9999,
      "fzfg": false,
      "metar_trigger": false,
      "taf_trigger": false,
      "metar": "METAR EDSB 180420Z 03010KT 9999 BKN012 00/M02 Q1020",
      "taf": ""
    },
    {
      "icao": "EETN",
      "alert": "OK",
      "vis_m": 2200,
      "fzfg": false,
      "metar_trigger": false,
      "taf_trigger": false,
      "metar": "METAR EETN 180420Z 20005KT 2200 -FZDZ BR OVC003 M03/M03 Q1037 NOSIG",
      "taf": "TAF EETN 172330Z 1800/1824 19010KT 8000 BKN005 OVC010"
    },
    {
      "icao": "EFTU",
      "alert": "OK",
      "vis_m": 650,
      "fzfg": false,
      "metar_trigger": false,
      "taf_trigger": false,
      "metar": "METAR EFTU 180420Z AUTO 19004KT 0650 R26/0800N -SHRA VV002 02/02 Q1035",
      "taf": "TAF EFTU 180234Z 1803/1903 22004KT 0700 -DZ FG VV002"
    },
    {
      "icao": "EGBB",
      "alert": "OK",
      "vis_m": 1600,
      "fzfg": false,
      "metar_trigger": false,
      "taf_trigger": false,
      "metar": "METAR EGBB 180420Z 11006KT 1600 BR OVC002 05/05 Q1019",
      "taf": ""
    },
    {
      "icao": "EGGP",
      "alert": "OK",
      "vis_m": 3800,
      "fzfg": false,
      "metar_trigger": false,
      "taf_trigger": false,
      "metar": "METAR EGGP 180420Z AUTO 03003KT 3800 HZ BKN005/// 04/03 Q1019",
      "taf": "TAF EGGP 172257Z 1800/1824 07004KT 9999 SCT045"
    },
    {
      "icao": "EGGW",
      "alert": "OK",
      "vis_m": 150,
      "fzfg": false,
      "metar_trigger": false,
      "taf_trigger": false,
      "metar": "METAR EGGW 180420Z AUTO 06008KT 0150 R25/0450N FG OVC001 06/05 Q1018",
      "taf": "TAF EGGW 172258Z 1800/1824 10006KT 2000 BR BKN002"
    },
    {
      "icao": "EGKK",
      "alert": "OK",
      "vis_m": 3000,
      "fzfg": false,
      "metar_trigger": false,
      "taf_trigger": false,
      "metar": "METAR EGKK 180420Z 05005KT 3000 -RA BR BKN003 07/07 Q1017",
      "taf": "TAF EGKK 172300Z 1800/1906 08006KT 9999 BKN006"
    },
    {
      "icao": "EGNM",
      "alert": "OK",
      "vis_m": null,
      "fzfg": false,
      "metar_trigger": false,
      "taf_trigger": false,
      "metar": "",
      "taf": "TAF EGNM 172257Z 1800/1824 13003KT 0300 FG VV///"
    },
    {
      "icao": "EGPD",
      "alert": "OK",
      "vis_m": 1800,
      "fzfg": false,
      "metar_trigger": false,
      "taf_trigger": false,
      "metar": "METAR EGPD 180420Z AUTO VRB02KT 1800 BR BKN008 03/03 Q1020 TEMPO 0900 FG GBKN003",
      "taf": "TAF EGPD 172258Z 1800/1824 16004KT 9999 SCT006 BKN015"
    },
    {
      "icao": "EGPF",
      "alert": "OK",
      "vis_m": 2400,
      "fzfg": false,
      "metar_trigger": false,
      "taf_trigger": false,
      "metar": "METAR EGPF 180420Z AUTO 06005KT 2400 BR NCD 04/04 Q1019",
      "taf": "TAF EGPF 172253Z 1800/1824 04003KT 9999 SCT040"
    },
    {
      "icao": "EHBK",
      "alert": "OK",
      "vis_m": 9999,
      "fzfg": false,
      "metar_trigger": false,
      "taf_trigger": false,
      "metar": "METAR EHBK 180425Z AUTO 08005KT 9999 NSC 02/02 Q1019",
      "taf": "TAF EHBK 172319Z 1800/1906 12006KT CAVOK"
    },
    {
      "icao": "EHEH",
      "alert": "OK",
      "vis_m": 3500,
      "fzfg": false,
      "metar_trigger": false,
      "taf_trigger": false,
      "metar": "METAR EHEH 180425Z AUTO 05001KT 3500 BR OVC340 01/01 Q1020 YLO",
      "taf": "TAF EHEH 172313Z 1800/1906 09004KT CAVOK"
    },
    {
      "icao": "EKBI",
      "alert": "OK",
      "vis_m": 3200,
      "fzfg": false,
      "metar_trigger": false,
      "taf_trigger": false,
      "metar": "METAR EKBI 180420Z AUTO 11011KT 080V140 3200 BR OVC003/// 02/02 Q1026",
      "taf": "TAF EKBI 180227Z 1803/1903 11010KT 4000 BR BKN003"
    },
    {
      "icao": "EKCH",
      "alert": "OK",
      "vis_m": 3000,
      "fzfg": false,
      "metar_trigger": false,
      "taf_trigger": false,
      "metar": "METAR EKCH 180420Z 12010KT 3000 BR OVC003 03/03 Q1030 TEMPO 1200",
      "taf": "TAF EKCH 180227Z 1803/1903 13010KT 5000 BKN003"
    },
    {
      "icao": "ENAL",
      "alert": "OK",
      "vis_m": 9999,
      "fzfg": false,
      "metar_trigger": false,
      "taf_trigger": false,
      "metar": "METAR ENAL 180420Z AUTO 14005KT 9999 NCD 03/M02 Q1027",
      "taf": "TAF ENAL 180200Z 1803/1812 14008KT 9999 FEW060"
    },
    {
      "icao": "ENBR",
      "alert": "OK",
      "vis_m": 9999,
      "fzfg": false,
      "metar_trigger": false,
      "taf_trigger": false,
      "metar": "METAR ENBR 180420Z 00000KT 9999 -DZRA BKN030 BKN040 03/03 Q1026 RMK WIND 1200FT 12012KT",
      "taf": "TAF ENBR 172300Z 1800/1824 VRB05KT 9999 -RA FEW012 BKN025"
    },
    {
      "icao": "ENGM",
      "alert": "OK",
      "vis_m": 5000,
      "fzfg": false,
      "metar_trigger": false,
      "taf_trigger": false,
      "metar": "METAR ENGM 180420Z 03004KT 5000 BR OVC002 00/M00 Q1031",
      "taf": "TAF ENGM 172300Z 1800/1824 04005KT 9999 BKN005"
    },
    {
      "icao": "ENHD",
      "alert": "OK",
      "vis_m": 9999,
      "fzfg": false,
      "metar_trigger": false,
      "taf_trigger": false,
      "metar": "METAR ENHD 180420Z AUTO 14004KT 9999 -RA BKN018/// OVC031/// 05/04 Q1026",
      "taf": "TAF ENHD 180200Z 1803/1812 VRB05KT 9999 -RA FEW012 BKN020"
    },
    {
      "icao": "ENTC",
      "alert": "OK",
      "vis_m": 9999,
      "fzfg": false,
      "metar_trigger": false,
      "taf_trigger": false,
      "metar": "METAR ENTC 180420Z AUTO 21017KT 9999 -RA OVC023/// 03/01 Q1024 REDZRA RMK WIND 2600FT 23014KT",
      "taf": ""
    },
    {
      "icao": "ENTO",
      "alert": "OK",
      "vis_m": 2400,
      "fzfg": false,
      "metar_trigger": false,
      "taf_trigger": false,
      "metar": "METAR ENTO 180420Z AUTO 01006KT 2400 BR OVC002/// 00/00 Q1031",
      "taf": ""
    },
    {
      "icao": "ENVA",
      "alert": "OK",
      "vis_m": 9999,
      "fzfg": false,
      "metar_trigger": false,
      "taf_trigger": false,
      "metar": "METAR ENVA 180350Z AUTO VRB02KT 9999 NCD M03/M04 Q1029 RMK WIND 670FT 08008KT",
      "taf": "TAF ENVA 172300Z 1800/1824 12008KT 9999 FEW040"
    },
    {
      "icao": "ENZV",
      "alert": "OK",
      "vis_m": 9999,
      "fzfg": false,
      "metar_trigger": false,
      "taf_trigger": false,
      "metar": "METAR ENZV 180420Z 00000KT 9999 BCFG NSC 03/02 Q1026",
      "taf": ""
    },
    {
      "icao": "EPGD",
      "alert": "OK",
      "vis_m": 9999,
      "fzfg": false,
      "metar_trigger": false,
      "taf_trigger": false,
      "metar": "METAR EPGD 180430Z 14004KT CAVOK M10/M12 Q1034",
      "taf": "TAF EPGD 172330Z 1800/1824 16005KT CAVOK"
    },
    {
      "icao": "EPKK",
      "alert": "OK",
      "vis_m": 9999,
      "fzfg": false,
      "metar_trigger": false,
      "taf_trigger": false,
      "metar": "METAR EPKK 180430Z 04005KT CAVOK M10/M14 Q1033",
      "taf": "TAF EPKK 180230Z 1803/1903 06010KT CAVOK"
    },
    {
      "icao": "EPKT",
      "alert": "OK",
      "vis_m": 9000,
      "fzfg": false,
      "metar_trigger": false,
      "taf_trigger": false,
      "metar": "METAR EPKT 180430Z 11003KT 9000 FEW005 M08/M10 Q1032",
      "taf": "TAF EPKT 172330Z 1800/1824 10010KT CAVOK"
    },
    {
      "icao": "EPLB",
      "alert": "OK",
      "vis_m": 6000,
      "fzfg": false,
      "metar_trigger": false,
      "taf_trigger": false,
      "metar": "METAR EPLB 180430Z 08007KT 6000 NSC M18/M20 Q1037",
      "taf": "TAF EPLB 172330Z 1800/1824 10008KT CAVOK"
    },
    {
      "icao": "EPMO",
      "alert": "OK",
      "vis_m": 7000,
      "fzfg": false,
      "metar_trigger": false,
      "taf_trigger": false,
      "metar": "METAR EPMO 180430Z 08008KT 7000 NSC M13/M15 Q1037",
      "taf": "TAF EPMO 172330Z 1800/1824 10008KT CAVOK"
    },
    {
      "icao": "EPPO",
      "alert": "OK",
      "vis_m": 9999,
      "fzfg": false,
      "metar_trigger": false,
      "taf_trigger": false,
      "metar": "METAR EPPO 180430Z 11010KT CAVOK M03/M06 Q1031",
      "taf": "TAF EPPO 172330Z 1800/1824 12010KT 8000 NSC"
    },
    {
      "icao": "EPRA",
      "alert": "OK",
      "vis_m": 9999,
      "fzfg": false,
      "metar_trigger": false,
      "taf_trigger": false,
      "metar": "METAR EPRA 180430Z 09006KT CAVOK M14/M16 Q1035",
      "taf": "TAF EPRA 180230Z 1803/1812 11008KT CAVOK"
    },
    {
      "icao": "EPRZ",
      "alert": "OK",
      "vis_m": 9999,
      "fzfg": false,
      "metar_trigger": false,
      "taf_trigger": false,
      "metar": "METAR EPRZ 180430Z 08012KT CAVOK M14/M16 Q1035",
      "taf": "TAF EPRZ 172330Z 1800/1824 09012KT CAVOK"
    },
    {
      "icao": "EPSC",
      "alert": "OK",
      "vis_m": 6000,
      "fzfg": false,
      "metar_trigger": false,
      "taf_trigger": false,
      "metar": "METAR EPSC 180430Z 11006KT 6000 NSC M02/M03 Q1030",
      "taf": "TAF EPSC 172330Z 1800/1824 11010KT 2000 BR OVC002"
    },
    {
      "icao": "EPSY",
      "alert": "OK",
      "vis_m": 9999,
      "fzfg": false,
      "metar_trigger": false,
      "taf_trigger": false,
      "metar": "METAR EPSY 180430Z 11004KT 060V150 CAVOK M14/M15 Q1037",
      "taf": "TAF EPSY 180230Z 1803/1812 12006KT CAVOK"
    },
    {
      "icao": "EPWA",
      "alert": "OK",
      "vis_m": 9999,
      "fzfg": false,
      "metar_trigger": false,
      "taf_trigger": false,
      "metar": "METAR EPWA 180430Z 11010KT CAVOK M12/M15 Q1037 NOSIG",
      "taf": "TAF EPWA 180230Z 1803/1903 11008KT CAVOK"
    },
    {
      "icao": "EPWR",
      "alert": "OK",
      "vis_m": 2500,
      "fzfg": false,
      "metar_trigger": false,
      "taf_trigger": false,
      "metar": "METAR EPWR 180430Z 11009KT 2500 BR FEW003 M03/M03 Q1031",
      "taf": ""
    },
    {
      "icao": "ESGG",
      "alert": "OK",
      "vis_m": 500,
      "fzfg": false,
      "metar_trigger": false,
      "taf_trigger": false,
      "metar": "METAR ESGG 180420Z 14004KT 090V170 0500 R03/P2000N R21/1600U FG OVC002 00/M00 Q1030",
      "taf": "TAF ESGG 180230Z 1803/1903 12004KT 0300 FG VV002"
    },
    {
      "icao": "ESKN",
      "alert": "OK",
      "vis_m": 350,
      "fzfg": false,
      "metar_trigger": false,
      "taf_trigger": false,
      "metar": "METAR ESKN 180420Z 15005KT 0350 R08/1400N R26/1100N FG VV002 02/02 Q1033",
      "taf": "TAF ESKN 180230Z 1803/1903 14004KT 0300 FG VV002"
    },
    {
      "icao": "ESMS",
      "alert": "OK",
      "vis_m": 150,
      "fzfg": false,
      "metar_trigger": false,
      "taf_trigger": false,
      "metar": "METAR ESMS 180420Z 11013KT 0150 R17/0800N R35/0650N FG VV002 02/02 Q1029",
      "taf": ""
    },
    {
      "icao": "ESSA",
      "alert": "OK",
      "vis_m": 250,
      "fzfg": false,
      "metar_trigger": false,
      "taf_trigger": false,
      "metar": "METAR ESSA 180420Z 16003KT 0250 R01L/P2000N R19R/0900U R01R/1500D R19L/P2000N FG VV003 01/01 Q1034 TEMPO 0500",
      "taf": "TAF ESSA 180230Z 1803/1903 17003KT 0300 FG VV002"
    },
    {
      "icao": "EYKA",
      "alert": "OK",
      "vis_m": 7000,
      "fzfg": false,
      "metar_trigger": false,
      "taf_trigger": false,
      "metar": "METAR EYKA 180420Z 15005KT 080V250 7000 NSC M14/M16 Q1041",
      "taf": "TAF EYKA 172304Z 1800/1824 16008KT 8000 NSC"
    },
    {
      "icao": "EYPA",
      "alert": "OK",
      "vis_m": 9999,
      "fzfg": false,
      "metar_trigger": false,
      "taf_trigger": false,
      "metar": "METAR EYPA 180420Z 16010KT CAVOK M09/M13 Q1038",
      "taf": "TAF EYPA 172303Z 1800/1824 16011KT 7000 NSC"
    },
    {
      "icao": "EYVI",
      "alert": "OK",
      "vis_m": 8000,
      "fzfg": false,
      "metar_trigger": false,
      "taf_trigger": false,
      "metar": "METAR EYVI 180420Z 17007KT 8000 NSC M17/M18 Q1041 NOSIG",
      "taf": "TAF EYVI 172311Z 1800/1824 16009KT 6000 NSC"
    },
    {
      "icao": "GCFV",
      "alert": "OK",
      "vis_m": 9999,
      "fzfg": false,
      "metar_trigger": false,
      "taf_trigger": false,
      "metar": "METAR GCFV 180430Z AUTO 28012KT 9999 FEW030 17/13 Q1015",
      "taf": "TAF GCFV 180200Z 1803/1903 29008KT 9999 SCT035 TX20/1814Z TN15/1806Z"
    },
    {
      "icao": "GCLP",
      "alert": "OK",
      "vis_m": 9999,
      "fzfg": false,
      "metar_trigger": false,
      "taf_trigger": false,
      "metar": "METAR GCLP 180430Z 27004KT 9999 FEW035 BKN055 16/12 Q1017 NOSIG",
      "taf": "TAF GCLP 180200Z 1803/1903 27007KT 9999 BKN040 TX21/1814Z TN15/1806Z"
    },
    {
      "icao": "GCTS",
      "alert": "OK",
      "vis_m": 9999,
      "fzfg": false,
      "metar_trigger": false,
      "taf_trigger": false,
      "metar": "METAR GCTS 180430Z 02006KT 350V060 9999 FEW030 16/10 Q1017 NOSIG",
      "taf": "TAF GCTS 180200Z 1803/1903 36005KT 9999 BKN050 TX22/1814Z TN14/1806Z"
    },
    {
      "icao": "GMAD",
      "alert": "OK",
      "vis_m": 6000,
      "fzfg": false,
      "metar_trigger": false,
      "taf_trigger": false,
      "metar": "METAR GMAD 180430Z 18004KT 6000 -RA SCT020 SCT033 BKN080 11/11 Q1010 TEMPO 3000 RA",
      "taf": "TAF GMAD 172300Z 1800/1906 22008KT 8000 SCT020 BKN080"
    },
    {
      "icao": "GMMN",
      "alert": "OK",
      "vis_m": 9999,
      "fzfg": false,
      "metar_trigger": false,
      "taf_trigger": false,
      "metar": "METAR GMMN 180430Z 22010KT 9999 SCT020 SCT040 08/06 Q1007 NOSIG",
      "taf": "TAF GMMN 172300Z 1800/1906 22007KT 9999 SCT020 SCT030"
    },
    {
      "icao": "GMMX",
      "alert": "OK",
      "vis_m": 9999,
      "fzfg": false,
      "metar_trigger": false,
      "taf_trigger": false,
      "metar": "METAR GMMX 180430Z 23005KT 9999 BKN023 09/06 Q1008 NOSIG",
      "taf": "TAF GMMX 172300Z 1800/1906 22007KT 8000 BKN026 SCT080"
    },
    {
      "icao": "HEGN",
      "alert": "OK",
      "vis_m": 9999,
      "fzfg": false,
      "metar_trigger": false,
      "taf_trigger": false,
      "metar": "METAR HEGN 180400Z 28009KT CAVOK 13/06 Q1015 NOSIG",
      "taf": "TAF HEGN 172300Z 1800/1906 28010KT CAVOK"
    },
    {
      "icao": "HEMA",
      "alert": "OK",
      "vis_m": 9999,
      "fzfg": false,
      "metar_trigger": false,
      "taf_trigger": false,
      "metar": "METAR HEMA 180400Z 26008KT CAVOK 13/08 Q1013 NOSIG",
      "taf": "TAF HEMA 172300Z 1800/1906 27010KT CAVOK"
    },
    {
      "icao": "HESH",
      "alert": "OK",
      "vis_m": 9999,
      "fzfg": false,
      "metar_trigger": false,
      "taf_trigger": false,
      "metar": "METAR HESH 180400Z 27005KT CAVOK 14/07 Q1014 NOSIG",
      "taf": "TAF HESH 172300Z 1800/1906 33010KT CAVOK"
    },
    {
      "icao": "HESX",
      "alert": "OK",
      "vis_m": 7000,
      "fzfg": false,
      "metar_trigger": false,
      "taf_trigger": false,
      "metar": "METAR HESX 180400Z 23004KT 7000 BR NSC 08/06 Q1016 NOSIG",
      "taf": "TAF HESX 172300Z 1800/1906 33009KT CAVOK"
    },
    {
      "icao": "LATI",
      "alert": "OK",
      "vis_m": null,
      "fzfg": false,
      "metar_trigger": false,
      "taf_trigger": false,
      "metar": "",
      "taf": "TAF LATI 172300Z 1800/1824 VRB05KT CAVOK TX18/1812Z TN01/1805Z"
    },
    {
      "icao": "LBPD",
      "alert": "OK",
      "vis_m": 9999,
      "fzfg": false,
      "metar_trigger": false,
      "taf_trigger": false,
      "metar": "METAR LBPD 180430Z AUTO 11006KT 9999 OVC029/// M03/M06 Q1032 NOSIG",
      "taf": "TAF LBPD 172300Z 1800/1824 VRB04KT 9999 SCT070"
    },
    {
      "icao": "LBSF",
      "alert": "OK",
      "vis_m": 9999,
      "fzfg": false,
      "metar_trigger": false,
      "taf_trigger": false,
      "metar": "METAR LBSF 180430Z 00000KT 9999 BKN017 M07/M08 Q1030 NOSIG",
      "taf": "TAF LBSF 172300Z 1800/1824 10010KT 9999 SCT070"
    },
    {
      "icao": "LBWN",
      "alert": "OK",
      "vis_m": 9999,
      "fzfg": false,
      "metar_trigger": false,
      "taf_trigger": false,
      "metar": "METAR LBWN 180430Z AUTO 30007G17KT 230V020 9999 -SHSN OVC044/// M10/M12 Q1034 NOSIG",
      "taf": "TAF LBWN 172300Z 1800/1824 35018KT 9999 BKN025 OVC040"
    },
    {
      "icao": "LCLK",
      "alert": "OK",
      "vis_m": 9999,
      "fzfg": false,
      "metar_trigger": false,
      "taf_trigger": false,
      "metar": "METAR LCLK 180430Z 01012KT 9999 FEW020 SCT050 11/06 Q1015 NOSIG",
      "taf": "TAF LCLK 172330Z 1800/1900 02009KT 9999 SCT025 SCT050"
    },
    {
      "icao": "LCPH",
      "alert": "OK",
      "vis_m": 9000,
      "fzfg": false,
      "metar_trigger": false,
      "taf_trigger": false,
      "metar": "METAR LCPH 180430Z 08005KT 9000 -RA FEW022 FEW025TCU BKN060 11/08 Q1014 TEMPO 5000 SHRA SCT020TCU",
      "taf": "TAF LCPH 172330Z 1800/1900 07008KT 9999 SCT025"
    },
    {
      "icao": "LEAL",
      "alert": "OK",
      "vis_m": 9999,
      "fzfg": false,
      "metar_trigger": false,
      "taf_trigger": false,
      "metar": "METAR LEAL 180430Z 31007KT 9999 SCT060 09/03 Q1008 NOSIG",
      "taf": "TAF LEAL 172300Z 1800/1824 31009KT 9999 FEW020 TX15/1812Z TN06/1806Z"
    },
    {
      "icao": "LEBB",
      "alert": "OK",
      "vis_m": 9000,
      "fzfg": false,
      "metar_trigger": false,
      "taf_trigger": false,
      "metar": "METAR LEBB 180430Z 10002KT 9000 BKN013 08/08 Q1011 NOSIG",
      "taf": ""
    },
    {
      "icao": "LEBL",
      "alert": "OK",
      "vis_m": 9999,
      "fzfg": false,
      "metar_trigger": false,
      "taf_trigger": false,
      "metar": "METAR LEBL 180430Z 34006KT 9999 FEW022 10/10 Q1009 NOSIG",
      "taf": "TAF LEBL 172300Z 1800/1824 33005KT 9999 SCT020 TX13/1812Z TN10/1806Z"
    },
    {
      "icao": "LECH",
      "alert": "OK",
      "vis_m": 2500,
      "fzfg": false,
      "metar_trigger": false,
      "taf_trigger": false,
      "metar": "METAR LECH 180430Z AUTO VRB02KT 2500 BR FEW024 05/05 Q1008",
      "taf": ""
    },
    {
      "icao": "LEMD",
      "alert": "OK",
      "vis_m": 9000,
      "fzfg": false,
      "metar_trigger": false,
      "taf_trigger": false,
      "metar": "METAR LEMD 180430Z VRB02KT 9000 FEW005 BKN040 OVC046 03/03 Q1009 NOSIG",
      "taf": "TAF LEMD 172300Z 1800/1906 VRB04KT 9999 SCT035 TX09/1814Z TNM00/1808Z"
    },
    {
      "icao": "LEMG",
      "alert": "OK",
      "vis_m": 9999,
      "fzfg": false,
      "metar_trigger": false,
      "taf_trigger": false,
      "metar": "METAR LEMG 180430Z 31005KT CAVOK 04/03 Q1008 NOSIG",
      "taf": "TAF LEMG 172300Z 1800/1824 29005KT 9999 FEW030 TX13/1814Z TN06/1806Z"
    },
    {
      "icao": "LEVC",
      "alert": "OK",
      "vis_m": 9999,
      "fzfg": false,
      "metar_trigger": false,
      "taf_trigger": false,
      "metar": "METAR LEVC 180430Z 26007KT CAVOK 05/01 Q1009 NOSIG",
      "taf": "TAF LEVC 172300Z 1800/1824 27007KT 9999 FEW020 TX14/1812Z TN04/1806Z"
    },
    {
      "icao": "LEXJ",
      "alert": "OK",
      "vis_m": 4000,
      "fzfg": false,
      "metar_trigger": false,
      "taf_trigger": false,
      "metar": "METAR LEXJ 180430Z 22006KT 190V260 4000 -RA BKN018 07/06 Q1012",
      "taf": "TAF LEXJ 180200Z 1803/1903 25009KT 9999 SCT015 BKN020 TX11/1814Z TN07/1803Z"
    },
    {
      "icao": "LEZG",
      "alert": "OK",
      "vis_m": 2500,
      "fzfg": false,
      "metar_trigger": false,
      "taf_trigger": false,
      "metar": "METAR LEZG 180430Z 27008KT 2500 -RA BR OVC005 07/07 Q1009 NOSIG",
      "taf": "TAF LEZG 172300Z 1800/1824 29007KT 6000 SCT005 TX10/1814Z TN05/1806Z"
    },
    {
      "icao": "LEZL",
      "alert": "OK",
      "vis_m": 9999,
      "fzfg": false,
      "metar_trigger": false,
      "taf_trigger": false,
      "metar": "METAR LEZL 180430Z 05005KT CAVOK 08/07 Q1008 NOSIG",
      "taf": "TAF LEZL 180200Z 1803/1903 05008KT 9999 SCT020 TX14/1815Z TN04/1807Z"
    },
    {
      "icao": "LFBD",
      "alert": "OK",
      "vis_m": 4100,
      "fzfg": false,
      "metar_trigger": false,
      "taf_trigger": false,
      "metar": "METAR LFBD 180430Z AUTO 00000KT 4100 1600 BR OVC002 09/09 Q1010 TEMPO 0800 BCFG VV///",
      "taf": ""
    },
    {
      "icao": "LFLL",
      "alert": "OK",
      "vis_m": 400,
      "fzfg": false,
      "metar_trigger": false,
      "taf_trigger": false,
      "metar": "METAR LFLL 180430Z 22002KT 0400 R35L/0400N R17R/0500D R35R/0450U R17L/0600U FG VV/// 04/04 Q1015 NOSIG",
      "taf": ""
    },
    {
      "icao": "LFLS",
      "alert": "OK",
      "vis_m": 9999,
      "fzfg": false,
      "metar_trigger": false,
      "taf_trigger": false,
      "metar": "METAR LFLS 180430Z AUTO VRB03KT CAVOK 04/02 Q1015 NOSIG",
      "taf": "TAF LFLS 180200Z 1803/1903 09005KT CAVOK"
    },
    {
      "icao": "LFMN",
      "alert": "OK",
      "vis_m": 9999,
      "fzfg": false,
      "metar_trigger": false,
      "taf_trigger": false,
      "metar": "METAR LFMN 180430Z 07014KT 9999 BKN066 BKN200 13/04 Q1017 NOSIG",
      "taf": "TAF LFMN 180200Z 1803/1909 09025KT 9999 BKN060 BKN100"
    },
    {
      "icao": "LFOB",
      "alert": "OK",
      "vis_m": 9999,
      "fzfg": false,
      "metar_trigger": false,
      "taf_trigger": false,
      "metar": "METAR LFOB 180430Z AUTO 13004KT CAVOK 05/04 Q1017 TEMPO 0900 FG VV///",
      "taf": "TAF LFOB 172300Z 1800/1824 10005KT CAVOK"
    },
    {
      "icao": "LFPO",
      "alert": "OK",
      "vis_m": 9999,
      "fzfg": false,
      "metar_trigger": false,
      "taf_trigger": false,
      "metar": "METAR LFPO 180430Z 02004KT CAVOK 08/06 Q1017 NOSIG",
      "taf": "TAF LFPO 172300Z 1800/1906 09006KT CAVOK"
    },
    {
      "icao": "LFSB",
      "alert": "OK",
      "vis_m": 5000,
      "fzfg": false,
      "metar_trigger": false,
      "taf_trigger": false,
      "metar": "METAR LFSB 180430Z AUTO 02004KT 5000 BR BKN003 OVC010 01/01 Q1019 TEMPO 0300 FG VV///",
      "taf": "TAF LFSB 172300Z 1800/1824 VRB03KT 5000 BR OVC010"
    },
    {
      "icao": "LGAV",
      "alert": "OK",
      "vis_m": 9999,
      "fzfg": false,
      "metar_trigger": false,
      "taf_trigger": false,
      "metar": "METAR LGAV 180420Z 01015KT 9999 SCT020 07/M01 Q1026 NOSIG",
      "taf": "TAF LGAV 172300Z 1800/1824 03015G25KT 9999 FEW018 SCT030"
    },
    {
      "icao": "LGTS",
      "alert": "OK",
      "vis_m": 9999,
      "fzfg": false,
      "metar_trigger": false,
      "taf_trigger": false,
      "metar": "METAR LGTS 180420Z VRB03KT 9999 FEW020 BKN035 04/M00 Q1029 NOSIG",
      "taf": "TAF LGTS 172300Z 1800/1824 09007KT 9999 FEW015 BKN030"
    },
    {
      "icao": "LHBP",
      "alert": "OK",
      "vis_m": 9999,
      "fzfg": false,
      "metar_trigger": false,
      "taf_trigger": false,
      "metar": "METAR LHBP 180430Z 33002KT CAVOK M08/M09 Q1033 NOSIG",
      "taf": "TAF LHBP 172315Z 1800/1824 VRB03KT CAVOK"
    },
    {
      "icao": "LHDC",
      "alert": "OK",
      "vis_m": 600,
      "fzfg": true,
      "metar_trigger": false,
      "taf_trigger": false,
      "metar": "METAR LHDC 180415Z AUTO 15003KT 0600 R04/0700N FZFG VV001 M09/M10 Q1033",
      "taf": ""
    },
    {
      "icao": "LIBD",
      "alert": "OK",
      "vis_m": 9999,
      "fzfg": false,
      "metar_trigger": false,
      "taf_trigger": false,
      "metar": "METAR LIBD 180420Z AUTO 22005KT 9999 SCT003/// 04/04 Q1022",
      "taf": "TAF LIBD 172300Z 1800/1824 VRB05KT 7000 FEW015"
    },
    {
      "icao": "LIBG",
      "alert": "OK",
      "vis_m": null,
      "fzfg": false,
      "metar_trigger": false,
      "taf_trigger": false,
      "metar": "",
      "taf": "TAF LIBG 171700Z 1718/1803 VRB05KT 9999 FEW020"
    },
    {
      "icao": "LIBP",
      "alert": "OK",
      "vis_m": 3400,
      "fzfg": false,
      "metar_trigger": false,
      "taf_trigger": false,
      "metar": "METAR LIBP 180420Z AUTO 19004KT 3400 BR OVC005/// 08/08 Q1023",
      "taf": "TAF LIBP 172300Z 1800/1824 VRB05KT 2000 BR BKN010"
    },
    {
      "icao": "LIBR",
      "alert": "OK",
      "vis_m": 9999,
      "fzfg": false,
      "metar_trigger": false,
      "taf_trigger": false,
      "metar": "METAR LIBR 180420Z 26005KT 9999 FEW025 06/06 Q1022",
      "taf": "TAF LIBR 172300Z 1800/1824 VRB05KT CAVOK"
    },
    {
      "icao": "LICA",
      "alert": "OK",
      "vis_m": 9999,
      "fzfg": false,
      "metar_trigger": false,
      "taf_trigger": false,
      "metar": "METAR LICA 180420Z AUTO 06010KT 9999 FEW073/// 12/09 Q1019",
      "taf": "TAF LICA 172300Z 1800/1824 08018KT 9999 BKN040"
    },
    {
      "icao": "LICC",
      "alert": "OK",
      "vis_m": 9999,
      "fzfg": false,
      "metar_trigger": false,
      "taf_trigger": false,
      "metar": "METAR LICC 180420Z 06014KT 9999 SCT015 SCT030 15/14 Q1018",
      "taf": "TAF LICC 172300Z 1800/1824 08013KT 9999 SCT015 BKN040"
    },
    {
      "icao": "LICJ",
      "alert": "OK",
      "vis_m": 9999,
      "fzfg": false,
      "metar_trigger": false,
      "taf_trigger": false,
      "metar": "METAR LICJ 180420Z VRB01KT CAVOK 10/08 Q1016",
      "taf": "TAF LICJ 172300Z 1800/1824 11008KT 9999 FEW040"
    },
    {
      "icao": "LIMC",
      "alert": "OK",
      "vis_m": 9999,
      "fzfg": false,
      "metar_trigger": false,
      "taf_trigger": false,
      "metar": "METAR LIMC 180420Z 01006KT 9999 BKN050 07/06 Q1023 NOSIG",
      "taf": "TAF LIMC 172300Z 1800/1906 VRB04KT 7000 BKN040"
    },
    {
      "icao": "LIME",
      "alert": "OK",
      "vis_m": 9999,
      "fzfg": false,
      "metar_trigger": false,
      "taf_trigger": false,
      "metar": "METAR LIME 180350Z VRB02KT 9999 BKN070 05/04 Q1023 NOSIG",
      "taf": "TAF LIME 172300Z 1800/1824 VRB03KT 6000 SCT040"
    },
    {
      "icao": "LIMF",
      "alert": "OK",
      "vis_m": 8000,
      "fzfg": false,
      "metar_trigger": false,
      "taf_trigger": false,
      "metar": "METAR LIMF 180420Z 32007KT 8000 OVC035 09/05 Q1023",
      "taf": "TAF LIMF 172300Z 1800/1824 30007KT 4000 -RA BKN035"
    },
    {
      "icao": "LIMJ",
      "alert": "OK",
      "vis_m": 9999,
      "fzfg": false,
      "metar_trigger": false,
      "taf_trigger": false,
      "metar": "METAR LIMJ 180420Z 02013KT CAVOK 09/06 Q1020",
      "taf": "TAF LIMJ 172300Z 1800/1824 02014KT 9999 FEW040"
    },
    {
      "icao": "LIPE",
      "alert": "OK",
      "vis_m": 3900,
      "fzfg": false,
      "metar_trigger": false,
      "taf_trigger": false,
      "metar": "METAR LIPE 180420Z AUTO VRB02KT 3900 BR OVC010/// 07/06 Q1023",
      "taf": "TAF LIPE 172300Z 1800/1824 VRB04KT 1400 BR BKN004"
    },
    {
      "icao": "LIPH",
      "alert": "OK",
      "vis_m": 9999,
      "fzfg": false,
      "metar_trigger": false,
      "taf_trigger": false,
      "metar": "METAR LIPH 180420Z AUTO 08005KT 9999 OVC085/// 08/03 Q1024",
      "taf": "TAF LIPH 172300Z 1800/1824 04005KT 9999 SCT060"
    },
    {
      "icao": "LIPQ",
      "alert": "OK",
      "vis_m": 9999,
      "fzfg": false,
      "metar_trigger": false,
      "taf_trigger": false,
      "metar": "METAR LIPQ 180420Z AUTO VRB02KT 9999 OVC088/// 08/00 Q1024",
      "taf": "TAF LIPQ 172300Z 1800/1824 02005KT 9999 FEW070"
    },
    {
      "icao": "LIPR",
      "alert": "OK",
      "vis_m": 2000,
      "fzfg": false,
      "metar_trigger": false,
      "taf_trigger": false,
      "metar": "METAR LIPR 180420Z AUTO 24003KT 210V270 2000 BR BKN004/// 08/08 Q1023",
      "taf": "TAF LIPR 172300Z 1800/1824 VRB05KT 4000 BR BKN005"
    },
    {
      "icao": "LIPX",
      "alert": "OK",
      "vis_m": 7000,
      "fzfg": false,
      "metar_trigger": false,
      "taf_trigger": false,
      "metar": "METAR LIPX 180420Z 10004KT 070V140 7000 NSC 09/03 Q1023",
      "taf": "TAF LIPX 172300Z 1800/1824 VRB04KT 6000 BKN040"
    },
    {
      "icao": "LIPY",
      "alert": "OK",
      "vis_m": 3600,
      "fzfg": false,
      "metar_trigger": false,
      "taf_trigger": false,
      "metar": "METAR LIPY 180420Z AUTO 20003KT 3600 BR OVC005/// 09/09 Q1023",
      "taf": "TAF LIPY 172300Z 1800/1824 VRB05KT 3000 BR BKN005"
    },
    {
      "icao": "LIPZ",
      "alert": "OK",
      "vis_m": 9999,
      "fzfg": false,
      "metar_trigger": false,
      "taf_trigger": false,
      "metar": "METAR LIPZ 180420Z 05007KT CAVOK 07/03 Q1024 NOSIG",
      "taf": "TAF LIPZ 172300Z 1800/1906 04010KT 9999 SCT060"
    },
    {
      "icao": "LIRF",
      "alert": "OK",
      "vis_m": 9999,
      "fzfg": false,
      "metar_trigger": false,
      "taf_trigger": false,
      "metar": "METAR LIRF 180420Z 05007KT CAVOK 10/05 Q1019 NOSIG",
      "taf": "TAF LIRF 172300Z 1800/1906 05008KT 9999 FEW040"
    },
    {
      "icao": "LIRN",
      "alert": "OK",
      "vis_m": 9999,
      "fzfg": false,
      "metar_trigger": false,
      "taf_trigger": false,
      "metar": "METAR LIRN 180420Z AUTO 02006KT 9999 NCD 10/05 Q1019",
      "taf": "TAF LIRN 172300Z 1800/1824 05008KT 9999 FEW040"
    },
    {
      "icao": "LIRP",
      "alert": "OK",
      "vis_m": 9999,
      "fzfg": false,
      "metar_trigger": false,
      "taf_trigger": false,
      "metar": "METAR LIRP 180415Z 03002KT 9999 SCT060 08/06 Q1020 NOSIG",
      "taf": "TAF LIRP 172300Z 1800/1824 14008KT 9999 SCT070"
    },
    {
      "icao": "LIRZ",
      "alert": "OK",
      "vis_m": 200,
      "fzfg": false,
      "metar_trigger": false,
      "taf_trigger": false,
      "metar": "METAR LIRZ 180420Z AUTO VRB01KT 0200 R01/0700U FG FEW003/// 02/02 Q1020",
      "taf": "TAF LIRZ 172300Z 1800/1824 02008KT CAVOK"
    },
    {
      "icao": "LJLJ",
      "alert": "OK",
      "vis_m": 9000,
      "fzfg": false,
      "metar_trigger": false,
      "taf_trigger": false,
      "metar": "METAR LJLJ 180430Z 00000KT 9000 OVC011 01/M00 Q1028 TEMPO OVC009",
      "taf": "TAF LJLJ 172300Z 1800/1900 12003KT 6000 OVC016"
    },
    {
      "icao": "LKMT",
      "alert": "OK",
      "vis_m": 300,
      "fzfg": true,
      "metar_trigger": false,
      "taf_trigger": false,
      "metar": "METAR LKMT 180430Z VRB02KT 0300 R22/0450N R04/0450N FZFG VV002 M05/M05 Q1031 NOSIG",
      "taf": "TAF LKMT 172300Z 1800/1824 VRB02KT 0200 FZFG VV002"
    },
    {
      "icao": "LKPR",
      "alert": "OK",
      "vis_m": 9999,
      "fzfg": false,
      "metar_trigger": false,
      "taf_trigger": false,
      "metar": "METAR LKPR 180430Z 09008KT CAVOK M02/M03 Q1026 NOSIG",
      "taf": "TAF LKPR 180200Z 1803/1909 12012KT CAVOK"
    },
    {
      "icao": "LLBG",
      "alert": "OK",
      "vis_m": 9999,
      "fzfg": false,
      "metar_trigger": false,
      "taf_trigger": false,
      "metar": "METAR LLBG 180420Z 17006KT 9999 FEW040 12/09 Q1014 TEMPO 7000 RA FEW025TCU BKN030",
      "taf": "TAF LLBG 172321Z 1800/1824 15006KT 9999 SCT035"
    },
    {
      "icao": "LMML",
      "alert": "OK",
      "vis_m": 9999,
      "fzfg": false,
      "metar_trigger": false,
      "taf_trigger": false,
      "metar": "METAR LMML 180445Z 12006KT 9999 FEW015 11/11 Q1017 NOSIG",
      "taf": "TAF LMML 172300Z 1800/1824 10008KT 9999 FEW015"
    },
    {
      "icao": "LOWW",
      "alert": "OK",
      "vis_m": 9999,
      "fzfg": false,
      "metar_trigger": false,
      "taf_trigger": false,
      "metar": "METAR LOWW 180420Z 13008KT 9999 FEW028 BKN030 M00/M03 Q1030 NOSIG",
      "taf": "TAF LOWW 180215Z 1803/1909 12008KT 9999 FEW030 TXM00/1813Z TNM06/1906Z"
    },
    {
      "icao": "LPFR",
      "alert": "OK",
      "vis_m": 9999,
      "fzfg": false,
      "metar_trigger": false,
      "taf_trigger": false,
      "metar": "METAR LPFR 180430Z 02004KT 9999 SCT040 08/05 Q1007",
      "taf": "TAF LPFR 172300Z 1800/1824 VRB02KT 9999 SCT035"
    },
    {
      "icao": "LPMA",
      "alert": "OK",
      "vis_m": 9999,
      "fzfg": false,
      "metar_trigger": false,
      "taf_trigger": false,
      "metar": "METAR LPMA 180430Z 35016G30KT 280V060 9999 BKN015 FEW018TCU 18/13 Q1013",
      "taf": ""
    },
    {
      "icao": "LPPR",
      "alert": "OK",
      "vis_m": 6000,
      "fzfg": false,
      "metar_trigger": false,
      "taf_trigger": false,
      "metar": "METAR LPPR 180430Z VRB02KT 6000 FEW003 02/01 Q1012",
      "taf": "TAF LPPR 172300Z 1800/1824 05005KT CAVOK"
    },
    {
      "icao": "LPPS",
      "alert": "OK",
      "vis_m": 9999,
      "fzfg": false,
      "metar_trigger": false,
      "taf_trigger": false,
      "metar": "METAR LPPS 180430Z 35026KT 9999 SCT010 BKN030 16/14 Q1014",
      "taf": "TAF LPPS 172300Z 1800/1906 31018KT 9999 SCT012 BKN030"
    },
    {
      "icao": "LPPT",
      "alert": "OK",
      "vis_m": 9999,
      "fzfg": false,
      "metar_trigger": false,
      "taf_trigger": false,
      "metar": "METAR LPPT 180430Z 35006KT CAVOK 05/04 Q1010",
      "taf": "TAF LPPT 172300Z 1800/1906 VRB02KT 9999 SCT030"
    },
    {
      "icao": "LQBK",
      "alert": "OK",
      "vis_m": 9999,
      "fzfg": false,
      "metar_trigger": false,
      "taf_trigger": false,
      "metar": "METAR LQBK 180430Z 35003KT 9999 OVC025 M00/M02 Q1031 NOSIG",
      "taf": "TAF LQBK 172300Z 1800/1824 34006KT 9999 BKN018 TX00/1812Z TNM04/1824Z"
    },
    {
      "icao": "LQSA",
      "alert": "OK",
      "vis_m": 1500,
      "fzfg": true,
      "metar_trigger": false,
      "taf_trigger": false,
      "metar": "METAR LQSA 180430Z COR VRB01KT 1500 -FZDZ BR OVC004 M01/M01 Q1027 NOSIG",
      "taf": "TAF LQSA 172300Z 1800/1824 VRB02KT 0300 FZFG BKN003 TX02/1813Z TNM02/1800Z"
    },
    {
      "icao": "LQTZ",
      "alert": "OK",
      "vis_m": 9999,
      "fzfg": false,
      "metar_trigger": false,
      "taf_trigger": false,
      "metar": "METAR LQTZ 180430Z 29003KT 9999 OVC021 M01/M02 Q1029",
      "taf": "TAF LQTZ 172300Z 1800/1824 10006KT 6000 BKN015 TX01/1813Z TNM05/1824Z"
    },
    {
      "icao": "LRBC",
      "alert": "OK",
      "vis_m": 7000,
      "fzfg": false,
      "metar_trigger": false,
      "taf_trigger": false,
      "metar": "METAR LRBC 180430Z 35007KT 7000 OVC007 M12/M15 Q1040",
      "taf": "TAF LRBC 180200Z 1803/1812 01008KT 9999 BKN015"
    },
    {
      "icao": "LRBS",
      "alert": "OK",
      "vis_m": 7000,
      "fzfg": false,
      "metar_trigger": false,
      "taf_trigger": false,
      "metar": "METAR LRBS 180430Z 06008KT 7000 SCT019 OVC048 M09/M12 Q1038 TEMPO 5000 BR",
      "taf": "TAF LRBS 172300Z 1800/1824 07011KT 9999 SCT015 BKN025"
    },
    {
      "icao": "LRBV",
      "alert": "OK",
      "vis_m": 9999,
      "fzfg": false,
      "metar_trigger": false,
      "taf_trigger": false,
      "metar": "METAR LRBV 180430Z AUTO 22005KT 9999 NCD M12/M14 Q1033",
      "taf": "TAF LRBV 180200Z 1803/1812 VRB04KT CAVOK"
    },
    {
      "icao": "LRCL",
      "alert": "OK",
      "vis_m": 7000,
      "fzfg": false,
      "metar_trigger": false,
      "taf_trigger": false,
      "metar": "METAR LRCL 180430Z 09003KT 7000 NSC M15/M17 Q1034",
      "taf": "TAF LRCL 180200Z 1803/1812 VRB04KT 5000 BR NSC"
    },
    {
      "icao": "LRCV",
      "alert": "OK",
      "vis_m": 9999,
      "fzfg": false,
      "metar_trigger": false,
      "taf_trigger": false,
      "metar": "METAR LRCV 180430Z 13010KT 9999 SCT016 OVC035 M08/M11 Q1037",
      "taf": "TAF LRCV 180200Z 1803/1812 11010KT 9999 BKN015"
    },
    {
      "icao": "LRIA",
      "alert": "OK",
      "vis_m": 9999,
      "fzfg": false,
      "metar_trigger": false,
      "taf_trigger": false,
      "metar": "METAR LRIA 180430Z 27006KT CAVOK M16/M18 Q1040",
      "taf": "TAF LRIA 180200Z 1803/1812 30005KT 9999 SCT015"
    },
    {
      "icao": "LROP",
      "alert": "OK",
      "vis_m": 7000,
      "fzfg": false,
      "metar_trigger": false,
      "taf_trigger": false,
      "metar": "METAR LROP 180430Z 07011KT 7000 -SN BKN019 OVC048 M09/M14 Q1038 TEMPO 5000 BR",
      "taf": "TAF LROP 172300Z 1800/1824 07011KT 9999 SCT015 BKN025"
    },
    {
      "icao": "LRSB",
      "alert": "OK",
      "vis_m": 9999,
      "fzfg": false,
      "metar_trigger": false,
      "taf_trigger": false,
      "metar": "METAR LRSB 180430Z VRB02KT CAVOK M10/M11 Q1032",
      "taf": "TAF LRSB 172300Z 1800/1824 VRB04KT CAVOK"
    },
    {
      "icao": "LRSM",
      "alert": "OK",
      "vis_m": 9999,
      "fzfg": false,
      "metar_trigger": false,
      "taf_trigger": false,
      "metar": "METAR LRSM 180430Z AUTO 10004KT 9999 NCD M12/M14 Q1033",
      "taf": "TAF LRSM 180200Z 1803/1812 VRB04KT CAVOK"
    },
    {
      "icao": "LRSV",
      "alert": "OK",
      "vis_m": 3000,
      "fzfg": true,
      "metar_trigger": false,
      "taf_trigger": false,
      "metar": "METAR LRSV 180430Z COR 34004KT 290V030 3000 BR OVC035 M13/M14 Q1037",
      "taf": "TAF LRSV 180200Z 1803/1812 36005KT 0800 FZFG OVC002"
    },
    {
      "icao": "LRTM",
      "alert": "OK",
      "vis_m": 4700,
      "fzfg": false,
      "metar_trigger": false,
      "taf_trigger": false,
      "metar": "METAR LRTM 180430Z AUTO 24002KT 4700 BR NCD M17/M19 Q1034",
      "taf": "TAF LRTM 180200Z 1803/1812 VRB04KT 5000 BR NSC"
    },
    {
      "icao": "LRTR",
      "alert": "OK",
      "vis_m": 7000,
      "fzfg": false,
      "metar_trigger": false,
      "taf_trigger": false,
      "metar": "METAR LRTR 180430Z 35003KT 7000 NSC M07/M07 Q1033",
      "taf": "TAF LRTR 172300Z 1800/1824 VRB04KT CAVOK"
    },
    {
      "icao": "LTAC",
      "alert": "OK",
      "vis_m": 9999,
      "fzfg": false,
      "metar_trigger": false,
      "taf_trigger": false,
      "metar": "METAR LTAC 180420Z VRB02KT 9999 FEW020 SCT040 BKN080 M04/M07 Q1019 NOSIG RMK RWY21C 13003KT RWY03L 26002KT RWY21R 12003KT 090V150 RWY03R 00000KT RWY21L VRB02KT",
      "taf": "TAF LTAC 172240Z 1800/1824 VRB02KT 9999 SCT040 SCT100"
    },
    {
      "icao": "LTFM",
      "alert": "OK",
      "vis_m": 8000,
      "fzfg": false,
      "metar_trigger": false,
      "taf_trigger": false,
      "metar": "METAR LTFM 180420Z 05018KT 8000 -SHSN BKN009 BKN028 01/M01 Q1028 RESHSNRA NOSIG RMK RWY17L 05018KT RWY34L 04015KT RWY16R 04016KT RWY36 04016KT RWY18 05018G29KT",
      "taf": "TAF LTFM 172240Z 1800/1906 03018KT 9999 -SHSNRA SCT016 BKN028"
    },
    {
      "icao": "LUKK",
      "alert": "OK",
      "vis_m": 9999,
      "fzfg": false,
      "metar_trigger": false,
      "taf_trigger": false,
      "metar": "METAR LUKK 180430Z 36009KT CAVOK M14/M16 Q1039 NOSIG",
      "taf": "TAF LUKK 172324Z 1800/1824 01009KT 9999 SCT020"
    },
    {
      "icao": "LWOH",
      "alert": "OK",
      "vis_m": null,
      "fzfg": false,
      "metar_trigger": false,
      "taf_trigger": false,
      "metar": "",
      "taf": "TAF LWOH 180345Z 1803/1903 VRB02KT 9999 BKN040"
    },
    {
      "icao": "LWSK",
      "alert": "OK",
      "vis_m": 9999,
      "fzfg": false,
      "metar_trigger": false,
      "taf_trigger": false,
      "metar": "METAR LWSK 180420Z 05005KT 9999 FEW015 OVC035 02/M01 Q1028 NOSIG",
      "taf": "TAF LWSK 180345Z 1803/1903 VRB02KT 9999 SCT020 OVC050"
    },
    {
      "icao": "LYBE",
      "alert": "OK",
      "vis_m": 9999,
      "fzfg": false,
      "metar_trigger": false,
      "taf_trigger": false,
      "metar": "METAR LYBE 180430Z 11009KT CAVOK M04/M07 Q1032 NOSIG",
      "taf": "TAF LYBE 172300Z 1800/1824 11012KT CAVOK TX01/1813Z TNM05/1806Z"
    },
    {
      "icao": "LYNI",
      "alert": "OK",
      "vis_m": 9999,
      "fzfg": false,
      "metar_trigger": false,
      "taf_trigger": false,
      "metar": "METAR LYNI 180430Z VRB02KT CAVOK M05/M07 Q1032 NOSIG",
      "taf": "TAF LYNI 172300Z 1800/1824 04006KT 9999 SCT040 TX02/1813Z TNM06/1806Z"
    },
    {
      "icao": "LYPG",
      "alert": "OK",
      "vis_m": 7000,
      "fzfg": false,
      "metar_trigger": false,
      "taf_trigger": false,
      "metar": "METAR LYPG 180430Z 35006KT 7000 NSC 01/00 Q1025 NOSIG",
      "taf": "TAF LYPG 172300Z 1800/1824 36004KT CAVOK TX11/1813Z TN00/1805Z"
    },
    {
      "icao": "LZIB",
      "alert": "OK",
      "vis_m": 9999,
      "fzfg": false,
      "metar_trigger": false,
      "taf_trigger": false,
      "metar": "METAR LZIB 180430Z 08004KT 9999 BKN030 M01/M03 Q1032 NOSIG",
      "taf": "TAF LZIB 172315Z 1800/1900 05005KT 4500 BR SCT006"
    },
    {
      "icao": "LZKZ",
      "alert": "OK",
      "vis_m": 9999,
      "fzfg": false,
      "metar_trigger": false,
      "taf_trigger": false,
      "metar": "METAR LZKZ 180430Z 28002KT CAVOK M08/M11 Q1033 NOSIG",
      "taf": "TAF LZKZ 172315Z 1800/1900 VRB02KT CAVOK"
    },
    {
      "icao": "LZTT",
      "alert": "OK",
      "vis_m": 9999,
      "fzfg": false,
      "metar_trigger": false,
      "taf_trigger": false,
      "metar": "METAR LZTT 180430Z VRB03KT CAVOK M13/M15 Q1031",
      "taf": "TAF LZTT 172315Z 1800/1900 28005KT CAVOK"
    },
    {
      "icao": "OEJN",
      "alert": "OK",
      "vis_m": 9999,
      "fzfg": false,
      "metar_trigger": false,
      "taf_trigger": false,
      "metar": "METAR OEJN 180400Z 00000KT 9999 FEW040 23/16 Q1012 NOSIG",
      "taf": "TAF OEJN 172300Z 1800/1906 VRB03KT 7000 FEW040"
    },
    {
      "icao": "OEMA",
      "alert": "OK",
      "vis_m": 9000,
      "fzfg": false,
      "metar_trigger": false,
      "taf_trigger": false,
      "metar": "METAR OEMA 180400Z 00000KT 9000 SCT045 15/06 Q1016 NOSIG",
      "taf": "TAF OEMA 172300Z 1800/1906 VRB03KT 7000 FEW045"
    },
    {
      "icao": "OJAI",
      "alert": "OK",
      "vis_m": 500,
      "fzfg": false,
      "metar_trigger": false,
      "taf_trigger": false,
      "metar": "METAR OJAI 180400Z 00000KT 0500 MIFG NSC 03/03 Q1015 NOSIG",
      "taf": "TAF OJAI 172300Z 1800/1906 25010KT 4000 BR FEW020 SCT025"
    },
    {
      "icao": "OMAA",
      "alert": "OK",
      "vis_m": 9999,
      "fzfg": false,
      "metar_trigger": false,
      "taf_trigger": false,
      "metar": "METAR OMAA 180400Z 17004KT 9999 FEW035 15/11 Q1017 NOSIG",
      "taf": "TAF OMAA 172300Z 1800/1906 21004KT 9999 FEW040"
    },
    {
      "icao": "OMDB",
      "alert": "OK",
      "vis_m": 9999,
      "fzfg": false,
      "metar_trigger": false,
      "taf_trigger": false,
      "metar": "METAR OMDB 180430Z 16005KT 9999 SCT040 16/11 Q1017 NOSIG",
      "taf": "TAF OMDB 172300Z 1800/1906 20006KT 8000 FEW030"
    },
    {
      "icao": "UAAA",
      "alert": "OK",
      "vis_m": 9999,
      "fzfg": false,
      "metar_trigger": false,
      "taf_trigger": false,
      "metar": "METAR UAAA 180430Z 03001MPS 9999 SCT050 BKN100 M17/M21 Q1031 NOSIG",
      "taf": "TAF UAAA 172300Z 1800/1824 33003MPS 6000 BKN015CB OVC050 TXM15/1808Z TNM22/1803Z"
    },
    {
      "icao": "UBBB",
      "alert": "OK",
      "vis_m": 8000,
      "fzfg": false,
      "metar_trigger": false,
      "taf_trigger": false,
      "metar": "METAR UBBB 180430Z 33014KT 8000 -RA BKN007 OVC022 04/03 Q1027 NOSIG",
      "taf": "TAF UBBB 172302Z 1800/1824 31014KT 8000 BKN007 OVC025 TX06/1810Z TN02/1801Z"
    },
    {
      "icao": "UDSG",
      "alert": "OK",
      "vis_m": 1800,
      "fzfg": false,
      "metar_trigger": false,
      "taf_trigger": false,
      "metar": "METAR UDSG 180430Z 00000KT 1800 BR BKN033 M11/M12 Q1018 NOSIG",
      "taf": "TAF UDSG 172300Z 1800/1824 VRB06KT 2000 BR OVC020"
    },
    {
      "icao": "UDYZ",
      "alert": "OK",
      "vis_m": 3600,
      "fzfg": false,
      "metar_trigger": false,
      "taf_trigger": false,
      "metar": "METAR UDYZ 180430Z 21001KT 3600 -SN BR BKN046 M03/M04 Q1020 NOSIG",
      "taf": "TAF UDYZ 172300Z 1800/1824 14006KT 3500 BR BKN040"
    },
    {
      "icao": "UGKO",
      "alert": "OK",
      "vis_m": 9999,
      "fzfg": false,
      "metar_trigger": false,
      "taf_trigger": false,
      "metar": "METAR UGKO 180430Z 27002KT 9999 BKN033 M00/M00 Q1024 NOSIG",
      "taf": "TAF UGKO 172300Z 1800/1824 08007KT 9999 SCT020 BKN050 TX06/1811Z TN00/1803Z"
    }
  ]
}