{
  "ts_utc": "2026-02-08T21:57:22Z",
  "threshold_m": 150,
  "source": "stations_override.txt (ICAO list) + aviationweather.gov (METAR/TAF raw)",
  "station_count": 159,
  "stations": [
    {
      "icao": "BIKF",
      "alert": "OK",
      "vis_m": 9999,
      "fzfg": false,
      "metar_trigger": false,
      "taf_trigger": false,
      "metar": "METAR BIKF 082130Z 03010KT CAVOK M01/M05 Q1009",
      "taf": "TAF BIKF 081952Z 0821/0921 07008KT 9999 FEW035 TX03/0915Z TNM01/0909Z"
    },
    {
      "icao": "BKPR",
      "alert": "OK",
      "vis_m": null,
      "fzfg": false,
      "metar_trigger": false,
      "taf_trigger": false,
      "metar": "",
      "taf": "TAF BKPR 081730Z 0818/0918 24006KT 9999 SCT030 BKN070"
    },
    {
      "icao": "EBCI",
      "alert": "OK",
      "vis_m": 9999,
      "fzfg": false,
      "metar_trigger": false,
      "taf_trigger": false,
      "metar": "METAR EBCI 082150Z 16005KT 140V210 CAVOK 06/03 Q1007 NOSIG",
      "taf": "TAF EBCI 081700Z 0818/0924 15004KT 9999 FEW025"
    },
    {
      "icao": "EDDB",
      "alert": "OK",
      "vis_m": 5000,
      "fzfg": false,
      "metar_trigger": false,
      "taf_trigger": false,
      "metar": "METAR EDDB 082150Z AUTO 08006KT 5000 BR BKN007 BKN027 M00/M01 Q1014 NOSIG",
      "taf": "TAF EDDB 081700Z 0818/0918 07007KT 7000 BKN007"
    },
    {
      "icao": "EDDH",
      "alert": "OK",
      "vis_m": 9999,
      "fzfg": false,
      "metar_trigger": false,
      "taf_trigger": false,
      "metar": "METAR EDDH 082150Z AUTO 10007KT 9999 OVC011 00/M02 Q1013 BECMG BKN009",
      "taf": "TAF EDDH 081700Z 0818/0924 10008KT 9000 OVC012"
    },
    {
      "icao": "EDDK",
      "alert": "OK",
      "vis_m": 9999,
      "fzfg": false,
      "metar_trigger": false,
      "taf_trigger": false,
      "metar": "METAR EDDK 082150Z AUTO 09007KT CAVOK 02/01 Q1009 BECMG BKN003",
      "taf": "TAF EDDK 081700Z 0818/0924 13008KT CAVOK"
    },
    {
      "icao": "EDDN",
      "alert": "OK",
      "vis_m": 9999,
      "fzfg": false,
      "metar_trigger": false,
      "taf_trigger": false,
      "metar": "METAR EDDN 082150Z AUTO VRB02KT 9999 OVC034 02/01 Q1009",
      "taf": "TAF EDDN 081700Z 0818/0918 04004KT 9999 OVC030"
    },
    {
      "icao": "EDDS",
      "alert": "OK",
      "vis_m": 9999,
      "fzfg": false,
      "metar_trigger": false,
      "taf_trigger": false,
      "metar": "METAR EDDS 082150Z AUTO VRB02KT 9999 OVC026 04/02 Q1007",
      "taf": "TAF EDDS 081700Z 0818/0918 VRB03KT 9999 SCT025"
    },
    {
      "icao": "EDFH",
      "alert": "OK",
      "vis_m": 9999,
      "fzfg": false,
      "metar_trigger": false,
      "taf_trigger": false,
      "metar": "METAR EDFH 082150Z 13008KT 9999 OVC005 02/01 Q1008",
      "taf": "TAF EDFH 081700Z 0818/0918 13009KT 7000 BKN003"
    },
    {
      "icao": "EDJA",
      "alert": "OK",
      "vis_m": 9999,
      "fzfg": false,
      "metar_trigger": false,
      "taf_trigger": false,
      "metar": "METAR EDJA 082150Z 05006KT 9999 OVC018 02/01 Q1007",
      "taf": ""
    },
    {
      "icao": "EDLW",
      "alert": "OK",
      "vis_m": 7000,
      "fzfg": false,
      "metar_trigger": false,
      "taf_trigger": false,
      "metar": "METAR EDLW 082150Z AUTO 35001KT 7000 // NCD 01/00 Q1009",
      "taf": "TAF EDLW 081700Z 0818/0918 07004KT CAVOK"
    },
    {
      "icao": "EDNY",
      "alert": "OK",
      "vis_m": 9999,
      "fzfg": false,
      "metar_trigger": false,
      "taf_trigger": false,
      "metar": "METAR EDNY 082150Z AUTO 03004KT 340V070 9999 // FEW019/// OVC026/// 05/03 Q1007",
      "taf": "TAF EDNY 081700Z 0818/0903 VRB03KT CAVOK"
    },
    {
      "icao": "EDSB",
      "alert": "OK",
      "vis_m": 350,
      "fzfg": true,
      "metar_trigger": false,
      "taf_trigger": false,
      "metar": "METAR EDSB 082150Z VRB02KT 0350 R21/0450N FZFG VV/// M01/M01 Q1009",
      "taf": "TAF EDSB 081700Z 0818/0918 02005KT 9999 FEW020"
    },
    {
      "icao": "EETN",
      "alert": "OK",
      "vis_m": 9999,
      "fzfg": false,
      "metar_trigger": false,
      "taf_trigger": false,
      "metar": "METAR EETN 082150Z 19006KT 9999 FEW006 OVC009 M11/M12 Q1023 NOSIG",
      "taf": "TAF EETN 081730Z 0818/0918 28004KT 9999 OVC004"
    },
    {
      "icao": "EFTU",
      "alert": "OK",
      "vis_m": 9999,
      "fzfg": false,
      "metar_trigger": false,
      "taf_trigger": false,
      "metar": "METAR EFTU 082150Z AUTO 22005KT 9999 OVC016 M07/M09 Q1021",
      "taf": "TAF EFTU 082036Z 0821/0921 24009KT 9999 BKN012"
    },
    {
      "icao": "EGBB",
      "alert": "OK",
      "vis_m": 9999,
      "fzfg": false,
      "metar_trigger": false,
      "taf_trigger": false,
      "metar": "METAR EGBB 082150Z 16007KT 9999 BKN011 07/05 Q1002",
      "taf": "TAF EGBB 081700Z 0818/0918 16008KT 9999 SCT025"
    },
    {
      "icao": "EGGP",
      "alert": "OK",
      "vis_m": 9999,
      "fzfg": false,
      "metar_trigger": false,
      "taf_trigger": false,
      "metar": "METAR EGGP 082150Z 15009KT 9999 FEW018 SCT040 06/05 Q1001",
      "taf": "TAF EGGP 081657Z 0818/0918 16008KT 9999 SCT025"
    },
    {
      "icao": "EGGW",
      "alert": "OK",
      "vis_m": 9999,
      "fzfg": false,
      "metar_trigger": false,
      "taf_trigger": false,
      "metar": "METAR EGGW 082150Z 16006KT 9999 -RA BKN005 SCT041TCU 07/06 Q1004",
      "taf": ""
    },
    {
      "icao": "EGKK",
      "alert": "OK",
      "vis_m": 9999,
      "fzfg": false,
      "metar_trigger": false,
      "taf_trigger": false,
      "metar": "METAR EGKK 082150Z 16004KT 130V200 CAVOK 08/08 Q1004",
      "taf": "TAF EGKK 081658Z 0818/0924 14006KT 9999 SCT015"
    },
    {
      "icao": "EGNM",
      "alert": "OK",
      "vis_m": 5000,
      "fzfg": false,
      "metar_trigger": false,
      "taf_trigger": false,
      "metar": "METAR EGNM 082150Z 14007KT 5000 -RADZ OVC003 07/06 Q1001",
      "taf": ""
    },
    {
      "icao": "EGPD",
      "alert": "OK",
      "vis_m": 7000,
      "fzfg": false,
      "metar_trigger": false,
      "taf_trigger": false,
      "metar": "METAR EGPD 082150Z COR AUTO 14011KT 7000 -RA OVC003/// //////TCU 07/06 Q1002 TEMPO 4000 RA BKN002",
      "taf": "TAF EGPD 081653Z 0818/0918 15009KT 9999 SCT002 BKN010"
    },
    {
      "icao": "EGPF",
      "alert": "OK",
      "vis_m": 9999,
      "fzfg": false,
      "metar_trigger": false,
      "taf_trigger": false,
      "metar": "METAR EGPF 082150Z AUTO 08006KT 9999 NCD 06/05 Q1000",
      "taf": "TAF EGPF 081655Z 0818/0918 VRB03KT 9999 BKN030"
    },
    {
      "icao": "EHBK",
      "alert": "OK",
      "vis_m": 9999,
      "fzfg": false,
      "metar_trigger": false,
      "taf_trigger": false,
      "metar": "METAR EHBK 082125Z AUTO 12004KT 9999 NSC 03/02 Q1007 NOSIG",
      "taf": "TAF EHBK 081722Z 0818/0924 11005KT CAVOK"
    },
    {
      "icao": "EHEH",
      "alert": "OK",
      "vis_m": 7000,
      "fzfg": false,
      "metar_trigger": false,
      "taf_trigger": false,
      "metar": "METAR EHEH 082125Z AUTO 09004KT 060V130 7000 BR OVC270 04/03 Q1008 WHT NOSIG RMK TREND REMOTE BY EHWX",
      "taf": ""
    },
    {
      "icao": "EKBI",
      "alert": "OK",
      "vis_m": 9999,
      "fzfg": false,
      "metar_trigger": false,
      "taf_trigger": false,
      "metar": "METAR EKBI 082150Z AUTO 10013KT 9999 OVC007/// M00/M01 Q1015",
      "taf": "TAF EKBI 082027Z 0821/0921 10011KT 9999 BKN008"
    },
    {
      "icao": "EKCH",
      "alert": "OK",
      "vis_m": 9999,
      "fzfg": false,
      "metar_trigger": false,
      "taf_trigger": false,
      "metar": "METAR EKCH 082150Z 09010KT 9999 BKN014 M00/M03 Q1018 TEMPO BKN012",
      "taf": "TAF EKCH 082027Z 0821/0921 09013KT 9999 BKN016"
    },
    {
      "icao": "ENAL",
      "alert": "OK",
      "vis_m": 9999,
      "fzfg": false,
      "metar_trigger": false,
      "taf_trigger": false,
      "metar": "METAR ENAL 082150Z 14008KT CAVOK 03/M07 Q1015",
      "taf": "TAF ENAL 082000Z 0821/0906 15008KT CAVOK"
    },
    {
      "icao": "ENBR",
      "alert": "OK",
      "vis_m": 9999,
      "fzfg": false,
      "metar_trigger": false,
      "taf_trigger": false,
      "metar": "METAR ENBR 082150Z 15003KT 120V180 CAVOK M01/M08 Q1015 RMK WIND 1200FT 18010KT",
      "taf": "TAF ENBR 081700Z 0818/0918 VRB03KT CAVOK"
    },
    {
      "icao": "ENGM",
      "alert": "OK",
      "vis_m": 9999,
      "fzfg": false,
      "metar_trigger": false,
      "taf_trigger": false,
      "metar": "METAR ENGM 082150Z 03002KT 9999 -SN OVC021 M10/M12 Q1021 NOSIG",
      "taf": ""
    },
    {
      "icao": "ENHD",
      "alert": "OK",
      "vis_m": 9999,
      "fzfg": false,
      "metar_trigger": false,
      "taf_trigger": false,
      "metar": "METAR ENHD 082150Z 12017KT 9999 SCT032 00/M08 Q1015",
      "taf": "TAF ENHD 081400Z 0815/0823 12012KT CAVOK"
    },
    {
      "icao": "ENTC",
      "alert": "OK",
      "vis_m": 9999,
      "fzfg": false,
      "metar_trigger": false,
      "taf_trigger": false,
      "metar": "METAR ENTC 082150Z 19012KT 9999 4000NE -SN FEW007 SCT017 BKN021 M02/M06 Q1011 TEMPO 4000 SHSN BKN012 FEW015TCU RMK WIND 2600FT 27010KT",
      "taf": "TAF ENTC 081700Z 0818/0918 20012KT 9999 FEW030 BKN035"
    },
    {
      "icao": "ENTO",
      "alert": "OK",
      "vis_m": 9999,
      "fzfg": false,
      "metar_trigger": false,
      "taf_trigger": false,
      "metar": "METAR ENTO 082150Z 01009KT 9999 BKN027 M08/M10 Q1021 NOSIG",
      "taf": "TAF ENTO 081700Z 0818/0918 01010KT 9999 BKN020"
    },
    {
      "icao": "ENVA",
      "alert": "OK",
      "vis_m": 9999,
      "fzfg": false,
      "metar_trigger": false,
      "taf_trigger": false,
      "metar": "METAR ENVA 082150Z 09005KT CAVOK M09/M14 Q1017 RMK WIND 670FT 15008KT",
      "taf": "TAF ENVA 081700Z 0818/0918 10005KT CAVOK"
    },
    {
      "icao": "ENZV",
      "alert": "OK",
      "vis_m": 9999,
      "fzfg": false,
      "metar_trigger": false,
      "taf_trigger": false,
      "metar": "METAR ENZV 082150Z 12011KT CAVOK 00/M07 Q1016",
      "taf": "TAF ENZV 081700Z 0818/0918 14010KT CAVOK"
    },
    {
      "icao": "EPGD",
      "alert": "OK",
      "vis_m": 9999,
      "fzfg": false,
      "metar_trigger": false,
      "taf_trigger": false,
      "metar": "METAR EPGD 082130Z 10009KT 9999 BKN011 M09/M11 Q1019",
      "taf": "TAF EPGD 081730Z 0818/0918 09008KT 9999 OVC003"
    },
    {
      "icao": "EPKK",
      "alert": "OK",
      "vis_m": 6000,
      "fzfg": false,
      "metar_trigger": false,
      "taf_trigger": false,
      "metar": "METAR EPKK 082130Z 06010KT 6000 -SN FEW006 OVC008 M02/M03 Q1013",
      "taf": "TAF EPKK 082030Z 0821/0921 06010KT 7000 BKN006"
    },
    {
      "icao": "EPKT",
      "alert": "OK",
      "vis_m": 6000,
      "fzfg": false,
      "metar_trigger": false,
      "taf_trigger": false,
      "metar": "METAR EPKT 082130Z 07008KT 6000 -SN OVC007 M02/M03 Q1012",
      "taf": ""
    },
    {
      "icao": "EPLB",
      "alert": "OK",
      "vis_m": 9999,
      "fzfg": false,
      "metar_trigger": false,
      "taf_trigger": false,
      "metar": "METAR EPLB 082130Z 08008KT 9999 OVC010 M03/M05 Q1016",
      "taf": "TAF EPLB 081730Z 0818/0918 06008KT 5000 -SN BR BKN025"
    },
    {
      "icao": "EPMO",
      "alert": "OK",
      "vis_m": 9999,
      "fzfg": false,
      "metar_trigger": false,
      "taf_trigger": false,
      "metar": "METAR EPMO 082130Z 08012KT 9999 BKN012 M03/M04 Q1017",
      "taf": "TAF EPMO 081730Z 0818/0918 06010KT 9999 BKN015"
    },
    {
      "icao": "EPPO",
      "alert": "OK",
      "vis_m": 3500,
      "fzfg": false,
      "metar_trigger": false,
      "taf_trigger": false,
      "metar": "METAR EPPO 082130Z 10009KT 3500 -SN BR BKN008 M02/M03 Q1015",
      "taf": "TAF EPPO 081730Z 0818/0918 09010KT 5000 BR BKN010"
    },
    {
      "icao": "EPRA",
      "alert": "OK",
      "vis_m": 9999,
      "fzfg": false,
      "metar_trigger": false,
      "taf_trigger": false,
      "metar": "METAR EPRA 082130Z 10011KT 9999 OVC012 M03/M05 Q1016",
      "taf": "TAF EPRA 082030Z 0821/0906 08010KT 9999 BKN026"
    },
    {
      "icao": "EPRZ",
      "alert": "OK",
      "vis_m": 4600,
      "fzfg": false,
      "metar_trigger": false,
      "taf_trigger": false,
      "metar": "METAR EPRZ 082130Z 07011KT 4600 -SN BR SCT008 BKN016 M03/M04 Q1014",
      "taf": "TAF EPRZ 081730Z 0818/0918 06010KT 7000 -SN SCT008 OVC016"
    },
    {
      "icao": "EPSC",
      "alert": "OK",
      "vis_m": 9999,
      "fzfg": false,
      "metar_trigger": false,
      "taf_trigger": false,
      "metar": "METAR EPSC 082130Z 10007KT 9999 OVC015 M00/M03 Q1016",
      "taf": "TAF EPSC 081730Z 0818/0918 08008KT 9999 SCT017 BKN025"
    },
    {
      "icao": "EPSY",
      "alert": "OK",
      "vis_m": 9999,
      "fzfg": false,
      "metar_trigger": false,
      "taf_trigger": false,
      "metar": "METAR EPSY 082130Z VRB03KT CAVOK M13/M14 Q1019",
      "taf": "TAF EPSY 082030Z 0821/0906 04006KT CAVOK"
    },
    {
      "icao": "EPWA",
      "alert": "OK",
      "vis_m": 9999,
      "fzfg": false,
      "metar_trigger": false,
      "taf_trigger": false,
      "metar": "METAR EPWA 082130Z 09011KT 9999 BKN014 M02/M05 Q1017 BECMG OVC015",
      "taf": "TAF EPWA 082030Z 0821/0921 08008KT 9999 BKN014"
    },
    {
      "icao": "EPWR",
      "alert": "OK",
      "vis_m": 4300,
      "fzfg": false,
      "metar_trigger": false,
      "taf_trigger": false,
      "metar": "METAR EPWR 082130Z 07005KT 4300 BR FEW002 SCT005 BKN007 00/00 Q1013",
      "taf": "TAF EPWR 082030Z 0821/0921 02005KT 3000 BR BKN010"
    },
    {
      "icao": "ESGG",
      "alert": "OK",
      "vis_m": 9999,
      "fzfg": false,
      "metar_trigger": false,
      "taf_trigger": false,
      "metar": "METAR ESGG 082150Z 12009KT CAVOK M06/M09 Q1019",
      "taf": "TAF ESGG 082030Z 0821/0921 11008KT CAVOK"
    },
    {
      "icao": "ESKN",
      "alert": "OK",
      "vis_m": 9999,
      "fzfg": false,
      "metar_trigger": false,
      "taf_trigger": false,
      "metar": "METAR ESKN 082150Z VRB02KT 9999 BKN024 M10/M10 Q1022",
      "taf": "TAF ESKN 082030Z 0821/0921 02004KT 9999 BKN020"
    },
    {
      "icao": "ESMS",
      "alert": "OK",
      "vis_m": 9999,
      "fzfg": false,
      "metar_trigger": false,
      "taf_trigger": false,
      "metar": "METAR ESMS 082150Z 09015KT 9999 OVC013 M01/M03 Q1017",
      "taf": "TAF ESMS 082027Z 0821/0921 09015KT 9999 BKN012"
    },
    {
      "icao": "ESSA",
      "alert": "CRITICAL",
      "vis_m": 100,
      "fzfg": true,
      "metar_trigger": true,
      "taf_trigger": false,
      "metar": "METAR ESSA 082150Z 23004KT 0100 R01L/0700N R19R/0500N R01R/P2000N R19L/0650N FZFG VV002 M10/M11 Q1022 TEMPO 9999 FEW002",
      "taf": ""
    },
    {
      "icao": "EYKA",
      "alert": "OK",
      "vis_m": 9999,
      "fzfg": false,
      "metar_trigger": false,
      "taf_trigger": false,
      "metar": "METAR EYKA 082150Z VRB01KT CAVOK M15/M16 Q1023",
      "taf": "TAF EYKA 081700Z 0818/0918 VRB04KT 9000 NSC"
    },
    {
      "icao": "EYPA",
      "alert": "OK",
      "vis_m": 9999,
      "fzfg": false,
      "metar_trigger": false,
      "taf_trigger": false,
      "metar": "METAR EYPA 082150Z 11006KT CAVOK M12/M15 Q1023",
      "taf": "TAF EYPA 081700Z 0818/0918 VRB04KT 9000 NSC"
    },
    {
      "icao": "EYVI",
      "alert": "OK",
      "vis_m": 9999,
      "fzfg": false,
      "metar_trigger": false,
      "taf_trigger": false,
      "metar": "METAR EYVI 082150Z 02004KT CAVOK M13/M14 Q1021 NOSIG",
      "taf": "TAF EYVI 081700Z 0818/0918 VRB04KT 9000 BKN015"
    },
    {
      "icao": "GCFV",
      "alert": "OK",
      "vis_m": 9999,
      "fzfg": false,
      "metar_trigger": false,
      "taf_trigger": false,
      "metar": "METAR GCFV 082130Z 33008KT 9999 SCT040 19/13 Q1025",
      "taf": "TAF GCFV 082000Z 0821/0921 33005KT 9999 SCT030 TX22/0914Z TN16/0906Z"
    },
    {
      "icao": "GCLP",
      "alert": "OK",
      "vis_m": 9999,
      "fzfg": false,
      "metar_trigger": false,
      "taf_trigger": false,
      "metar": "METAR GCLP 082130Z 34010KT 9999 FEW030 18/12 Q1025 NOSIG",
      "taf": "TAF GCLP 082000Z 0821/0921 33008KT 9999 SCT035 TX22/0914Z TN16/0906Z"
    },
    {
      "icao": "GCTS",
      "alert": "OK",
      "vis_m": 9999,
      "fzfg": false,
      "metar_trigger": false,
      "taf_trigger": false,
      "metar": "METAR GCTS 082130Z 00000KT 9999 FEW035 18/12 Q1026 NOSIG",
      "taf": "TAF GCTS 082000Z 0821/0921 VRB05KT 9999 BKN030 TX22/0914Z TN14/0906Z"
    },
    {
      "icao": "GMAD",
      "alert": "OK",
      "vis_m": 8000,
      "fzfg": false,
      "metar_trigger": false,
      "taf_trigger": false,
      "metar": "METAR GMAD 082130Z 25010KT 8000 FEW013 15/13 Q1021 NOSIG",
      "taf": "TAF GMAD 081700Z 0818/0924 20012KT 8000 SCT016"
    },
    {
      "icao": "GMMN",
      "alert": "OK",
      "vis_m": 9999,
      "fzfg": false,
      "metar_trigger": false,
      "taf_trigger": false,
      "metar": "METAR GMMN 082130Z 22009KT 9999 SCT023 14/12 Q1022 NOSIG",
      "taf": "TAF GMMN 081700Z 0818/0924 26008KT 9999 SCT023 BKN080"
    },
    {
      "icao": "GMMX",
      "alert": "OK",
      "vis_m": 9999,
      "fzfg": false,
      "metar_trigger": false,
      "taf_trigger": false,
      "metar": "METAR GMMX 082130Z VRB02KT CAVOK 14/10 Q1023 NOSIG",
      "taf": "TAF GMMX 081700Z 0818/0924 24012KT 9999 SCT026 SCT080"
    },
    {
      "icao": "HEGN",
      "alert": "OK",
      "vis_m": 9999,
      "fzfg": false,
      "metar_trigger": false,
      "taf_trigger": false,
      "metar": "METAR HEGN 082100Z 20004KT CAVOK 19/07 Q1014 NOSIG",
      "taf": "TAF HEGN 081700Z 0818/0924 11008KT CAVOK"
    },
    {
      "icao": "HEMA",
      "alert": "OK",
      "vis_m": 9999,
      "fzfg": false,
      "metar_trigger": false,
      "taf_trigger": false,
      "metar": "METAR HEMA 082100Z 23008KT CAVOK 20/M01 Q1014 NOSIG",
      "taf": "TAF HEMA 081700Z 0818/0924 17008KT CAVOK"
    },
    {
      "icao": "HESH",
      "alert": "OK",
      "vis_m": 9999,
      "fzfg": false,
      "metar_trigger": false,
      "taf_trigger": false,
      "metar": "METAR HESH 082100Z 00000KT CAVOK 21/18 Q1015 NOSIG",
      "taf": "TAF HESH 081700Z 0818/0924 14008KT CAVOK"
    },
    {
      "icao": "HESX",
      "alert": "OK",
      "vis_m": 9999,
      "fzfg": false,
      "metar_trigger": false,
      "taf_trigger": false,
      "metar": "METAR HESX 082100Z 25010KT CAVOK 22/05 Q1010 NOSIG",
      "taf": "TAF HESX 081700Z 0818/0924 22014KT CAVOK"
    },
    {
      "icao": "LATI",
      "alert": "OK",
      "vis_m": 8000,
      "fzfg": false,
      "metar_trigger": false,
      "taf_trigger": false,
      "metar": "METAR LATI 082150Z 15004KT 8000 SCT160 09/07 Q1009 NOSIG",
      "taf": "TAF LATI 081700Z 0818/0918 VRB05KT 9999 SCT030 BKN060 TX12/0912Z TN08/0905Z"
    },
    {
      "icao": "LBPD",
      "alert": "OK",
      "vis_m": 9999,
      "fzfg": false,
      "metar_trigger": false,
      "taf_trigger": false,
      "metar": "METAR LBPD 082130Z AUTO 11004KT 080V140 9999 BKN088/// 07/05 Q1009",
      "taf": "TAF LBPD 081700Z 0818/0918 VRB03KT 9999 BKN040"
    },
    {
      "icao": "LBSF",
      "alert": "OK",
      "vis_m": 9999,
      "fzfg": false,
      "metar_trigger": false,
      "taf_trigger": false,
      "metar": "METAR LBSF 082130Z AUTO 08003KT 050V110 9999 NCD 03/01 Q1009 NOSIG",
      "taf": "TAF LBSF 081700Z 0818/0918 29010KT 9999 BKN050"
    },
    {
      "icao": "LBWN",
      "alert": "OK",
      "vis_m": 800,
      "fzfg": false,
      "metar_trigger": false,
      "taf_trigger": false,
      "metar": "METAR LBWN 082130Z AUTO 12003KT 0800 R09/0900N FG SCT001/// OVC004/// 06/06 Q1010 TEMPO 0600 FG BKN001",
      "taf": ""
    },
    {
      "icao": "LCLK",
      "alert": "OK",
      "vis_m": 9999,
      "fzfg": false,
      "metar_trigger": false,
      "taf_trigger": false,
      "metar": "METAR LCLK 082130Z VRB01KT CAVOK 13/12 Q1007 NOSIG",
      "taf": "TAF LCLK 081730Z 0818/0918 29006KT CAVOK"
    },
    {
      "icao": "LCPH",
      "alert": "OK",
      "vis_m": 9999,
      "fzfg": false,
      "metar_trigger": false,
      "taf_trigger": false,
      "metar": "METAR LCPH 082130Z 02006KT 9999 SCT012 16/15 Q1008 NOSIG",
      "taf": "TAF LCPH 081730Z 0818/0918 01006KT 9999 FEW012"
    },
    {
      "icao": "LEAL",
      "alert": "OK",
      "vis_m": 9999,
      "fzfg": false,
      "metar_trigger": false,
      "taf_trigger": false,
      "metar": "METAR LEAL 082130Z 28011KT 9999 FEW013 12/03 Q1012 NOSIG",
      "taf": "TAF LEAL 081700Z 0818/0918 28018KT 9999 FEW040 TX21/0914Z TN06/0906Z"
    },
    {
      "icao": "LEBB",
      "alert": "OK",
      "vis_m": 9999,
      "fzfg": false,
      "metar_trigger": false,
      "taf_trigger": false,
      "metar": "METAR LEBB 082130Z 09002KT CAVOK 08/07 Q1008 NOSIG",
      "taf": "TAF LEBB 081700Z 0818/0918 20006KT 9999 SCT060 TX14/0913Z TN05/0823Z"
    },
    {
      "icao": "LEBL",
      "alert": "OK",
      "vis_m": 9999,
      "fzfg": false,
      "metar_trigger": false,
      "taf_trigger": false,
      "metar": "METAR LEBL 082130Z 07006KT 9999 FEW058 11/07 Q1007 NOSIG",
      "taf": "TAF LEBL 081700Z 0818/0918 09007KT 9999 FEW025 TX14/0913Z TN06/0906Z"
    },
    {
      "icao": "LECH",
      "alert": "OK",
      "vis_m": 9999,
      "fzfg": false,
      "metar_trigger": false,
      "taf_trigger": false,
      "metar": "METAR LECH 082130Z AUTO 29011G22KT 260V320 CAVOK 12/M02 Q1008",
      "taf": ""
    },
    {
      "icao": "LEMD",
      "alert": "OK",
      "vis_m": 9999,
      "fzfg": false,
      "metar_trigger": false,
      "taf_trigger": false,
      "metar": "METAR LEMD 082130Z 22008KT 180V280 9999 FEW075 07/03 Q1012 NOSIG",
      "taf": ""
    },
    {
      "icao": "LEMG",
      "alert": "OK",
      "vis_m": 9999,
      "fzfg": false,
      "metar_trigger": false,
      "taf_trigger": false,
      "metar": "METAR LEMG 082130Z VRB02KT 9999 FEW045 SCT080 11/06 Q1017 NOSIG",
      "taf": "TAF LEMG 081700Z 0818/0918 29010KT 9999 FEW040 TX22/0914Z TN13/0907Z"
    },
    {
      "icao": "LEVC",
      "alert": "OK",
      "vis_m": 9999,
      "fzfg": false,
      "metar_trigger": false,
      "taf_trigger": false,
      "metar": "METAR LEVC 082130Z 25008KT 210V280 CAVOK 13/02 Q1010 NOSIG",
      "taf": "TAF LEVC 081700Z 0818/0918 27010KT 9999 FEW040 TX20/0914Z TN07/0906Z"
    },
    {
      "icao": "LEXJ",
      "alert": "OK",
      "vis_m": 9999,
      "fzfg": false,
      "metar_trigger": false,
      "taf_trigger": false,
      "metar": "METAR LEXJ 082130Z 11005KT 060V140 CAVOK 09/06 Q1006",
      "taf": "TAF LEXJ 082000Z 0821/0921 19009KT 9999 SCT060 TX15/0913Z TN09/0821Z"
    },
    {
      "icao": "LEZG",
      "alert": "OK",
      "vis_m": 9999,
      "fzfg": false,
      "metar_trigger": false,
      "taf_trigger": false,
      "metar": "METAR LEZG 082130Z 24006KT CAVOK 08/05 Q1010 NOSIG",
      "taf": "TAF LEZG 081700Z 0818/0918 30008KT 9999 FEW020 TX16/0915Z TN05/0906Z"
    },
    {
      "icao": "LEZL",
      "alert": "OK",
      "vis_m": 9000,
      "fzfg": false,
      "metar_trigger": false,
      "taf_trigger": false,
      "metar": "METAR LEZL 082130Z 18004KT 140V230 9000 BKN008 BKN022 12/11 Q1016 NOSIG",
      "taf": "TAF LEZL 082000Z 0821/0921 18007KT 9999 FEW030 TX20/0915Z TN12/0907Z"
    },
    {
      "icao": "LFBD",
      "alert": "OK",
      "vis_m": 9999,
      "fzfg": false,
      "metar_trigger": false,
      "taf_trigger": false,
      "metar": "METAR LFBD 082130Z AUTO 23005KT CAVOK 08/08 Q1007 TEMPO 4000 BR",
      "taf": "TAF LFBD 081700Z 0818/0924 27008KT 9999 BKN040 TX12/0917Z TN06/0902Z"
    },
    {
      "icao": "LFLL",
      "alert": "OK",
      "vis_m": 4200,
      "fzfg": false,
      "metar_trigger": false,
      "taf_trigger": false,
      "metar": "METAR LFLL 082130Z VRB02KT 4200 R17R/0800U BR NSC 05/04 Q1007 NOSIG",
      "taf": ""
    },
    {
      "icao": "LFLS",
      "alert": "OK",
      "vis_m": 9999,
      "fzfg": false,
      "metar_trigger": false,
      "taf_trigger": false,
      "metar": "METAR LFLS 082130Z AUTO 04004KT CAVOK 01/01 Q1006",
      "taf": "TAF LFLS 081400Z 0815/0915 02008KT CAVOK"
    },
    {
      "icao": "LFMN",
      "alert": "OK",
      "vis_m": 9999,
      "fzfg": false,
      "metar_trigger": false,
      "taf_trigger": false,
      "metar": "METAR LFMN 082130Z 09016KT 9999 FEW070 SCT100 BKN140 12/08 Q1005 NOSIG",
      "taf": "TAF LFMN 082000Z 0821/1003 07012KT 9999 BKN050"
    },
    {
      "icao": "LFOB",
      "alert": "OK",
      "vis_m": 9999,
      "fzfg": false,
      "metar_trigger": false,
      "taf_trigger": false,
      "metar": "METAR LFOB 082130Z AUTO VRB02KT CAVOK 05/04 Q1006 TEMPO 0600 FG VV///",
      "taf": "TAF LFOB 081700Z 0818/0918 13005KT CAVOK"
    },
    {
      "icao": "LFPO",
      "alert": "OK",
      "vis_m": 9999,
      "fzfg": false,
      "metar_trigger": false,
      "taf_trigger": false,
      "metar": "METAR LFPO 082130Z 17002KT CAVOK 08/05 Q1006 NOSIG",
      "taf": "TAF LFPO 081700Z 0818/0924 08004KT CAVOK"
    },
    {
      "icao": "LFSB",
      "alert": "OK",
      "vis_m": 800,
      "fzfg": false,
      "metar_trigger": false,
      "taf_trigger": false,
      "metar": "METAR LFSB 082130Z AUTO 33004KT 0800 0650 R15/1000U R33/1000U FG VV/// 02/02 Q1008 TEMPO 0300 FG",
      "taf": "TAF LFSB 081700Z 0818/0918 33005KT 3000 BR OVC003"
    },
    {
      "icao": "LGAV",
      "alert": "OK",
      "vis_m": 9999,
      "fzfg": false,
      "metar_trigger": false,
      "taf_trigger": false,
      "metar": "METAR LGAV 082150Z VRB02KT 9999 FEW020 09/06 Q1009 NOSIG",
      "taf": "TAF LGAV 081700Z 0818/0918 VRB03KT 9999 FEW020"
    },
    {
      "icao": "LGTS",
      "alert": "OK",
      "vis_m": 9999,
      "fzfg": false,
      "metar_trigger": false,
      "taf_trigger": false,
      "metar": "METAR LGTS 082150Z VRB03KT 9999 FEW025 09/08 Q1009 NOSIG",
      "taf": "TAF LGTS 081700Z 0818/0918 33010KT 9999 FEW025"
    },
    {
      "icao": "LHBP",
      "alert": "OK",
      "vis_m": 9000,
      "fzfg": false,
      "metar_trigger": false,
      "taf_trigger": false,
      "metar": "METAR LHBP 082130Z 02004KT 350V060 9000 FEW020 SCT075 BKN120 04/03 Q1009 BECMG BKN011",
      "taf": "TAF LHBP 081715Z 0818/0918 VRB03KT 9999 BKN030"
    },
    {
      "icao": "LHDC",
      "alert": "OK",
      "vis_m": 9999,
      "fzfg": false,
      "metar_trigger": false,
      "taf_trigger": false,
      "metar": "METAR LHDC 082115Z AUTO 03005KT 9999 DZ RA OVC013 05/04 Q1010 NOSIG",
      "taf": "TAF LHDC 081715Z 0818/0903 VRB03KT 4000 BR OVC030"
    },
    {
      "icao": "LIBD",
      "alert": "OK",
      "vis_m": 9999,
      "fzfg": false,
      "metar_trigger": false,
      "taf_trigger": false,
      "metar": "METAR LIBD 082150Z 25003KT 9999 SCT045 09/08 Q1007",
      "taf": "TAF LIBD 081700Z 0818/0918 20006KT 9999 SCT040"
    },
    {
      "icao": "LIBG",
      "alert": "OK",
      "vis_m": null,
      "fzfg": false,
      "metar_trigger": false,
      "taf_trigger": false,
      "metar": "",
      "taf": "TAF LIBG 081700Z 0818/0903 VRB05KT 9999 SCT040"
    },
    {
      "icao": "LIBP",
      "alert": "OK",
      "vis_m": 9999,
      "fzfg": false,
      "metar_trigger": false,
      "taf_trigger": false,
      "metar": "METAR LIBP 082150Z AUTO VRB01KT 9999 -RA SCT014/// SCT016/// OVC052/// 10/09 Q1007",
      "taf": "TAF LIBP 081700Z 0818/0918 VRB05KT 8000 SCT030"
    },
    {
      "icao": "LIBR",
      "alert": "OK",
      "vis_m": 9999,
      "fzfg": false,
      "metar_trigger": false,
      "taf_trigger": false,
      "metar": "METAR LIBR 082150Z 17006KT CAVOK 12/09 Q1008",
      "taf": "TAF LIBR 081700Z 0818/0918 15012KT 9999 SCT040"
    },
    {
      "icao": "LICA",
      "alert": "OK",
      "vis_m": 9999,
      "fzfg": false,
      "metar_trigger": false,
      "taf_trigger": false,
      "metar": "METAR LICA 082150Z AUTO 06006KT 9999 SCT089/// 11/09 Q1008",
      "taf": "TAF LICA 081700Z 0818/0918 07006KT 9999 FEW020 SCT080"
    },
    {
      "icao": "LICC",
      "alert": "OK",
      "vis_m": 9999,
      "fzfg": false,
      "metar_trigger": false,
      "taf_trigger": false,
      "metar": "METAR LICC 082150Z 25006KT 9999 SCT060 SCT100 12/08 Q1009",
      "taf": "TAF LICC 081700Z 0818/0918 26010KT 9999 SCT030 SCT080"
    },
    {
      "icao": "LICJ",
      "alert": "OK",
      "vis_m": 9999,
      "fzfg": false,
      "metar_trigger": false,
      "taf_trigger": false,
      "metar": "METAR LICJ 082150Z 21006KT 9999 SCT060 13/09 Q1006",
      "taf": "TAF LICJ 081700Z 0818/0918 20015KT 9999 FEW020 SCT040"
    },
    {
      "icao": "LIMC",
      "alert": "OK",
      "vis_m": 4000,
      "fzfg": false,
      "metar_trigger": false,
      "taf_trigger": false,
      "metar": "METAR LIMC 082150Z VRB02KT 4000 BCFG BKN060 07/07 Q1007 NOSIG",
      "taf": "TAF LIMC 081700Z 0818/0924 VRB04KT 7000 SCT020"
    },
    {
      "icao": "LIME",
      "alert": "OK",
      "vis_m": 2200,
      "fzfg": false,
      "metar_trigger": false,
      "taf_trigger": false,
      "metar": "METAR LIME 082150Z AUTO 20003KT 180V240 2200 BR BKN071/// 08/08 Q1007",
      "taf": "TAF LIME 081700Z 0818/0918 VRB05KT 8000 FEW010 SCT020"
    },
    {
      "icao": "LIMF",
      "alert": "OK",
      "vis_m": 7000,
      "fzfg": false,
      "metar_trigger": false,
      "taf_trigger": false,
      "metar": "METAR LIMF 082150Z VRB01KT 7000 SCT030 BKN060 08/06 Q1007",
      "taf": "TAF LIMF 081700Z 0818/0918 VRB04KT 8000 SCT060"
    },
    {
      "icao": "LIMJ",
      "alert": "OK",
      "vis_m": 9999,
      "fzfg": false,
      "metar_trigger": false,
      "taf_trigger": false,
      "metar": "METAR LIMJ 082150Z AUTO 04006KT 010V090 9999 -DZ BKN044/// OVC093/// 10/08 Q1006",
      "taf": "TAF LIMJ 081700Z 0818/0918 02008KT 9999 FEW015 BKN030"
    },
    {
      "icao": "LIPE",
      "alert": "OK",
      "vis_m": 8000,
      "fzfg": false,
      "metar_trigger": false,
      "taf_trigger": false,
      "metar": "METAR LIPE 082150Z 12004KT 8000 BKN017 09/07 Q1007",
      "taf": "TAF LIPE 081700Z 0818/0918 VRB05KT 6000 SCT010"
    },
    {
      "icao": "LIPH",
      "alert": "OK",
      "vis_m": 9999,
      "fzfg": false,
      "metar_trigger": false,
      "taf_trigger": false,
      "metar": "METAR LIPH 082150Z 36005KT 9999 SCT070 08/07 Q1007",
      "taf": "TAF LIPH 081700Z 0818/0918 VRB05KT 7000 SCT060"
    },
    {
      "icao": "LIPQ",
      "alert": "OK",
      "vis_m": 9999,
      "fzfg": false,
      "metar_trigger": false,
      "taf_trigger": false,
      "metar": "METAR LIPQ 082150Z AUTO VRB02KT 9999 FEW210/// 07/07 Q1007",
      "taf": "TAF LIPQ 081700Z 0818/0918 VRB05KT 9999 BKN050"
    },
    {
      "icao": "LIPR",
      "alert": "OK",
      "vis_m": 2000,
      "fzfg": false,
      "metar_trigger": false,
      "taf_trigger": false,
      "metar": "METAR LIPR 082150Z 14002KT 2000 BR FEW010 BKN050 09/08 Q1007",
      "taf": "TAF LIPR 081700Z 0818/0918 VRB05KT 6000 SCT010 SCT060"
    },
    {
      "icao": "LIPX",
      "alert": "OK",
      "vis_m": 6000,
      "fzfg": false,
      "metar_trigger": false,
      "taf_trigger": false,
      "metar": "METAR LIPX 082150Z 34003KT 300V010 6000 MIFG FEW005 BKN060 05/05 Q1007",
      "taf": "TAF LIPX 081700Z 0818/0918 VRB04KT 2000 BR FEW020"
    },
    {
      "icao": "LIPY",
      "alert": "OK",
      "vis_m": 9999,
      "fzfg": false,
      "metar_trigger": false,
      "taf_trigger": false,
      "metar": "METAR LIPY 082150Z AUTO VRB02KT 9999 OVC062/// 09/08 Q1007",
      "taf": "TAF LIPY 081700Z 0818/0918 VRB05KT 6000 SCT015 SCT060"
    },
    {
      "icao": "LIPZ",
      "alert": "OK",
      "vis_m": 9999,
      "fzfg": false,
      "metar_trigger": false,
      "taf_trigger": false,
      "metar": "METAR LIPZ 082150Z 03003KT 9999 FEW070 08/07 Q1007 NOSIG",
      "taf": "TAF LIPZ 081700Z 0818/0924 VRB05KT 9999 SCT020"
    },
    {
      "icao": "LIRF",
      "alert": "OK",
      "vis_m": 9999,
      "fzfg": false,
      "metar_trigger": false,
      "taf_trigger": false,
      "metar": "METAR LIRF 082150Z 11011KT 9999 -RA BKN030 10/09 Q1005 NOSIG",
      "taf": "TAF LIRF 081700Z 0818/0924 14010KT 9999 SCT020 BKN040"
    },
    {
      "icao": "LIRN",
      "alert": "OK",
      "vis_m": 9999,
      "fzfg": false,
      "metar_trigger": false,
      "taf_trigger": false,
      "metar": "METAR LIRN 082150Z VRB01KT 9999 -DZ BKN045 10/09 Q1007 NOSIG",
      "taf": "TAF LIRN 081700Z 0818/0918 VRB05KT 9999 FEW020 BKN060"
    },
    {
      "icao": "LIRP",
      "alert": "OK",
      "vis_m": 9999,
      "fzfg": false,
      "metar_trigger": false,
      "taf_trigger": false,
      "metar": "METAR LIRP 082145Z 06004KT 9999 SCT030 10/10 Q1006 NOSIG",
      "taf": "TAF LIRP 081700Z 0818/0918 11005KT 9999 SCT020 SCT050"
    },
    {
      "icao": "LIRZ",
      "alert": "OK",
      "vis_m": 9999,
      "fzfg": false,
      "metar_trigger": false,
      "taf_trigger": false,
      "metar": "METAR LIRZ 082150Z AUTO 02008KT 9999 OVC068/// 09/08 Q1006",
      "taf": "TAF LIRZ 081700Z 0818/0918 VRB05KT 9999 BKN030"
    },
    {
      "icao": "LJLJ",
      "alert": "OK",
      "vis_m": 3000,
      "fzfg": false,
      "metar_trigger": false,
      "taf_trigger": false,
      "metar": "METAR LJLJ 082130Z 32002KT 3000 BR SCT020 BKN040 04/04 Q1008 NOSIG",
      "taf": "TAF LJLJ 081700Z 0818/0918 VRB02KT 9999 BKN050"
    },
    {
      "icao": "LKMT",
      "alert": "OK",
      "vis_m": 2000,
      "fzfg": false,
      "metar_trigger": false,
      "taf_trigger": false,
      "metar": "METAR LKMT 082130Z 02005KT 2000 -SN BR OVC002 00/00 Q1011 NOSIG",
      "taf": ""
    },
    {
      "icao": "LKPR",
      "alert": "OK",
      "vis_m": 9999,
      "fzfg": false,
      "metar_trigger": false,
      "taf_trigger": false,
      "metar": "METAR LKPR 082130Z 03004KT 9999 FEW003 BKN007 BKN033 00/M00 Q1010 NOSIG",
      "taf": "TAF LKPR 082000Z 0821/1003 01004KT 9999 SCT005 BKN035"
    },
    {
      "icao": "LLBG",
      "alert": "OK",
      "vis_m": 9999,
      "fzfg": false,
      "metar_trigger": false,
      "taf_trigger": false,
      "metar": "METAR LLBG 082150Z 14005KT CAVOK 21/07 Q1010 NOSIG",
      "taf": "TAF LLBG 081706Z 0818/0918 16005KT CAVOK"
    },
    {
      "icao": "LMML",
      "alert": "OK",
      "vis_m": 9999,
      "fzfg": false,
      "metar_trigger": false,
      "taf_trigger": false,
      "metar": "METAR LMML 082145Z 21009KT 9999 FEW049 14/11 Q1011 NOSIG",
      "taf": "TAF LMML 081700Z 0818/0918 22014KT 9999 FEW016"
    },
    {
      "icao": "LOWW",
      "alert": "OK",
      "vis_m": 9999,
      "fzfg": false,
      "metar_trigger": false,
      "taf_trigger": false,
      "metar": "METAR LOWW 082150Z 36004KT 9999 FEW028 BKN030 04/02 Q1010 NOSIG",
      "taf": "TAF LOWW 082015Z 0821/1003 02005KT 9999 BKN030 TX04/0821Z TN01/0906Z"
    },
    {
      "icao": "LPFR",
      "alert": "OK",
      "vis_m": 4000,
      "fzfg": false,
      "metar_trigger": false,
      "taf_trigger": false,
      "metar": "METAR LPFR 082130Z 22015KT 4000 -DZ BR BKN003 BKN005 15/14 Q1014",
      "taf": ""
    },
    {
      "icao": "LPMA",
      "alert": "OK",
      "vis_m": 9999,
      "fzfg": false,
      "metar_trigger": false,
      "taf_trigger": false,
      "metar": "METAR LPMA 082130Z 24004KT 9999 FEW015 18/12 Q1024",
      "taf": "TAF LPMA 081700Z 0818/0918 VRB05KT 9999 SCT015"
    },
    {
      "icao": "LPPR",
      "alert": "OK",
      "vis_m": 3500,
      "fzfg": false,
      "metar_trigger": false,
      "taf_trigger": false,
      "metar": "METAR LPPR 082130Z 18016KT 3500 DZRA BR BKN005 FEW018CB 11/10 Q1008",
      "taf": "TAF LPPR 081700Z 0818/0918 17015KT 6000 SCT006 BKN012"
    },
    {
      "icao": "LPPS",
      "alert": "OK",
      "vis_m": 9999,
      "fzfg": false,
      "metar_trigger": false,
      "taf_trigger": false,
      "metar": "METAR LPPS 082130Z 28013KT 9999 FEW011 17/15 Q1024",
      "taf": "TAF LPPS 081700Z 0818/0924 27015KT 9999 SCT012"
    },
    {
      "icao": "LPPT",
      "alert": "OK",
      "vis_m": 3000,
      "fzfg": false,
      "metar_trigger": false,
      "taf_trigger": false,
      "metar": "METAR LPPT 082130Z 24005KT 3000 -DZ BR FEW002 BKN003 14/14 Q1011 REDZ",
      "taf": "TAF LPPT 081700Z 0818/0924 20013KT 6000 -RA SCT004 BKN008"
    },
    {
      "icao": "LQBK",
      "alert": "OK",
      "vis_m": 7000,
      "fzfg": false,
      "metar_trigger": false,
      "taf_trigger": false,
      "metar": "METAR LQBK 082130Z VRB02KT 7000 BKN037 07/06 Q1009 NOSIG",
      "taf": "TAF LQBK 081700Z 0818/0918 35005KT 9999 SCT020 BKN045 TX09/0914Z TN05/0906Z"
    },
    {
      "icao": "LQSA",
      "alert": "OK",
      "vis_m": 7000,
      "fzfg": false,
      "metar_trigger": false,
      "taf_trigger": false,
      "metar": "METAR LQSA 082130Z 15002KT 7000 SCT030 BKN050 05/05 Q1008 NOSIG",
      "taf": ""
    },
    {
      "icao": "LQTZ",
      "alert": "OK",
      "vis_m": 5000,
      "fzfg": false,
      "metar_trigger": false,
      "taf_trigger": false,
      "metar": "METAR LQTZ 082130Z VRB01KT 5000 BR BKN045 07/07 Q1008",
      "taf": "TAF LQTZ 081700Z 0818/0918 06005KT 8000 SCT020 SCT045 TX10/0913Z TN03/0906Z"
    },
    {
      "icao": "LRBC",
      "alert": "OK",
      "vis_m": 9000,
      "fzfg": false,
      "metar_trigger": false,
      "taf_trigger": false,
      "metar": "METAR LRBC 082130Z 35010KT 9000 -SN FEW008 OVC017 M01/M02 Q1013",
      "taf": "TAF LRBC 082000Z 0821/0906 36008KT 5000 -SN BR OVC005"
    },
    {
      "icao": "LRBS",
      "alert": "OK",
      "vis_m": 9999,
      "fzfg": false,
      "metar_trigger": false,
      "taf_trigger": false,
      "metar": "METAR LRBS 082130Z 07010KT 040V100 9999 OVC023 03/01 Q1011 NOSIG",
      "taf": ""
    },
    {
      "icao": "LRBV",
      "alert": "OK",
      "vis_m": 9999,
      "fzfg": false,
      "metar_trigger": false,
      "taf_trigger": false,
      "metar": "METAR LRBV 082130Z AUTO 27005KT 9999 OVC036/// 04/02 Q1009 REDZ",
      "taf": "TAF LRBV 082000Z 0821/0906 VRB04KT 9999 BKN025"
    },
    {
      "icao": "LRCL",
      "alert": "OK",
      "vis_m": 6000,
      "fzfg": false,
      "metar_trigger": false,
      "taf_trigger": false,
      "metar": "METAR LRCL 082130Z VRB01KT 6000 FEW012 OVC026 05/03 Q1009",
      "taf": "TAF LRCL 082000Z 0821/0906 VRB04KT 5000 BR BKN010 OVC030"
    },
    {
      "icao": "LRCV",
      "alert": "OK",
      "vis_m": 350,
      "fzfg": false,
      "metar_trigger": false,
      "taf_trigger": false,
      "metar": "METAR LRCV 082130Z 11011KT 0350 R26/0800N FG VV002 05/05 Q1009",
      "taf": "TAF LRCV 082000Z 0821/0906 09010KT 0600 FG OVC001"
    },
    {
      "icao": "LRIA",
      "alert": "OK",
      "vis_m": 9999,
      "fzfg": false,
      "metar_trigger": false,
      "taf_trigger": false,
      "metar": "METAR LRIA 082130Z 36011KT 9999 -SN FEW007 BKN011 OVC013 M03/M05 Q1014",
      "taf": "TAF LRIA 082000Z 0821/0906 36010KT 9999 BKN010 OVC020"
    },
    {
      "icao": "LROP",
      "alert": "OK",
      "vis_m": 9999,
      "fzfg": false,
      "metar_trigger": false,
      "taf_trigger": false,
      "metar": "METAR LROP 082130Z 09009KT 9999 FEW010 BKN023 03/02 Q1011 NOSIG",
      "taf": ""
    },
    {
      "icao": "LRSB",
      "alert": "OK",
      "vis_m": 9999,
      "fzfg": false,
      "metar_trigger": false,
      "taf_trigger": false,
      "metar": "METAR LRSB 082130Z 23002KT 9999 SCT020 BKN053 05/04 Q1009",
      "taf": "TAF LRSB 081700Z 0818/0918 VRB04KT 9999 SCT020 BKN050"
    },
    {
      "icao": "LRSM",
      "alert": "OK",
      "vis_m": 5000,
      "fzfg": false,
      "metar_trigger": false,
      "taf_trigger": false,
      "metar": "METAR LRSM 082130Z AUTO 28003KT 5000 SCT004/// OVC006/// 05/04 Q1010",
      "taf": "TAF LRSM 081400Z 0815/0824 VRB04KT 5000 BR OVC030"
    },
    {
      "icao": "LRSV",
      "alert": "OK",
      "vis_m": 4000,
      "fzfg": false,
      "metar_trigger": false,
      "taf_trigger": false,
      "metar": "METAR LRSV 082130Z COR 02009KT 4000 SN SCT004 BKN009 M05/M05 Q1012",
      "taf": "TAF LRSV 082000Z 0821/0906 03008KT 5000 -SN BR BKN005 OVC040"
    },
    {
      "icao": "LRTM",
      "alert": "OK",
      "vis_m": 4700,
      "fzfg": false,
      "metar_trigger": false,
      "taf_trigger": false,
      "metar": "METAR LRTM 082130Z AUTO 28001KT 4700 BR NCD 03/03 Q1009",
      "taf": "TAF LRTM 082000Z 0821/0906 VRB04KT 9999 BKN015 OVC030"
    },
    {
      "icao": "LRTR",
      "alert": "OK",
      "vis_m": 4500,
      "fzfg": false,
      "metar_trigger": false,
      "taf_trigger": false,
      "metar": "METAR LRTR 082130Z 00000KT 4500 BR SCT035 BKN045 05/05 Q1009 BECMG 3000 BR",
      "taf": "TAF LRTR 081700Z 0818/0918 VRB04KT CAVOK"
    },
    {
      "icao": "LTAC",
      "alert": "OK",
      "vis_m": 9999,
      "fzfg": false,
      "metar_trigger": false,
      "taf_trigger": false,
      "metar": "METAR LTAC 082150Z 27004KT 9999 FEW013 BKN025 BKN080 05/04 Q1007 NOSIG",
      "taf": "TAF LTAC 081640Z 0818/0918 VRB02KT 9999 SCT035 BKN090"
    },
    {
      "icao": "LTFM",
      "alert": "OK",
      "vis_m": 1200,
      "fzfg": false,
      "metar_trigger": false,
      "taf_trigger": false,
      "metar": "METAR LTFM 082150Z VRB02KT 1200 0700NW R35R/P1500N R17L/1400D R34L/1200D R36/P1500D -RA BCFG BKN002 BKN020 08/08 Q1010 NOSIG",
      "taf": "TAF LTFM 081640Z 0818/0924 34008KT 1200 BCFG BKN003 BKN022"
    },
    {
      "icao": "LUKK",
      "alert": "OK",
      "vis_m": 6000,
      "fzfg": false,
      "metar_trigger": false,
      "taf_trigger": false,
      "metar": "METAR LUKK 082130Z 03009KT 6000 -SN SCT022 SCT030 BKN040 M04/M06 Q1013 RESN NOSIG",
      "taf": "TAF LUKK 081720Z 0818/0918 01012KT 9999 BKN010"
    },
    {
      "icao": "LWOH",
      "alert": "OK",
      "vis_m": null,
      "fzfg": false,
      "metar_trigger": false,
      "taf_trigger": false,
      "metar": "",
      "taf": "TAF LWOH 082015Z 0821/0921 VRB02KT 9999 SCT020 BKN050"
    },
    {
      "icao": "LWSK",
      "alert": "OK",
      "vis_m": 9999,
      "fzfg": false,
      "metar_trigger": false,
      "taf_trigger": false,
      "metar": "METAR LWSK 082150Z 07002KT 9999 FEW050 05/04 Q1009 NOSIG",
      "taf": "TAF LWSK 082015Z 0821/0921 VRB02KT 9999 BKN070"
    },
    {
      "icao": "LYBE",
      "alert": "OK",
      "vis_m": 5000,
      "fzfg": false,
      "metar_trigger": false,
      "taf_trigger": false,
      "metar": "METAR LYBE 082130Z 00000KT 5000 BR SCT023 05/05 Q1010 TEMPO 2000",
      "taf": "TAF LYBE 081700Z 0818/0918 05004KT CAVOK TX10/0913Z TN03/0906Z"
    },
    {
      "icao": "LYNI",
      "alert": "OK",
      "vis_m": 9999,
      "fzfg": false,
      "metar_trigger": false,
      "taf_trigger": false,
      "metar": "METAR LYNI 082130Z VRB01KT CAVOK 05/04 Q1009 NOSIG",
      "taf": "TAF LYNI 081700Z 0818/0918 32004KT 9999 SCT040 TX08/0912Z TN03/0905Z"
    },
    {
      "icao": "LYPG",
      "alert": "OK",
      "vis_m": 8000,
      "fzfg": false,
      "metar_trigger": false,
      "taf_trigger": false,
      "metar": "METAR LYPG 082130Z 00000KT 8000 SCT080 09/08 Q1009 NOSIG",
      "taf": "TAF LYPG 081700Z 0818/0918 VRB02KT 9999 SCT030 BKN070 TX11/0912Z TN07/0823Z"
    },
    {
      "icao": "LZIB",
      "alert": "OK",
      "vis_m": 9999,
      "fzfg": false,
      "metar_trigger": false,
      "taf_trigger": false,
      "metar": "METAR LZIB 082130Z 00000KT CAVOK 04/02 Q1009 NOSIG",
      "taf": ""
    },
    {
      "icao": "LZKZ",
      "alert": "OK",
      "vis_m": 9999,
      "fzfg": false,
      "metar_trigger": false,
      "taf_trigger": false,
      "metar": "METAR LZKZ 082130Z 01014KT 9999 OVC047 02/M01 Q1010 NOSIG",
      "taf": "TAF LZKZ 081715Z 0818/0918 01012KT 9999 SCT025 BKN035"
    },
    {
      "icao": "LZTT",
      "alert": "OK",
      "vis_m": 9999,
      "fzfg": false,
      "metar_trigger": false,
      "taf_trigger": false,
      "metar": "METAR LZTT 082130Z 07005KT 9999 SCT002 BKN010 OVC016 M01/M01 Q1009",
      "taf": ""
    },
    {
      "icao": "OEJN",
      "alert": "OK",
      "vis_m": 9999,
      "fzfg": false,
      "metar_trigger": false,
      "taf_trigger": false,
      "metar": "METAR OEJN 082100Z 36004KT CAVOK 23/12 Q1013 NOSIG",
      "taf": "TAF OEJN 081700Z 0818/0924 03005KT 7000 NSC"
    },
    {
      "icao": "OEMA",
      "alert": "OK",
      "vis_m": 9999,
      "fzfg": false,
      "metar_trigger": false,
      "taf_trigger": false,
      "metar": "METAR OEMA 082100Z 18003KT CAVOK 20/M06 Q1017 NOSIG",
      "taf": "TAF OEMA 081700Z 0818/0924 35006KT CAVOK"
    },
    {
      "icao": "OJAI",
      "alert": "OK",
      "vis_m": 5000,
      "fzfg": false,
      "metar_trigger": false,
      "taf_trigger": false,
      "metar": "METAR OJAI 082100Z 07003KT 5000 HZ NSC 12/04 Q1013 NOSIG",
      "taf": "TAF OJAI 081700Z 0818/0924 22012KT 4000 DU NSC"
    },
    {
      "icao": "OMAA",
      "alert": "OK",
      "vis_m": 9999,
      "fzfg": false,
      "metar_trigger": false,
      "taf_trigger": false,
      "metar": "METAR OMAA 082130Z 07003KT 030V090 CAVOK 21/14 Q1013 NOSIG",
      "taf": "TAF OMAA 081700Z 0818/1000 06005KT 8000 NSC"
    },
    {
      "icao": "OMDB",
      "alert": "OK",
      "vis_m": 9999,
      "fzfg": false,
      "metar_trigger": false,
      "taf_trigger": false,
      "metar": "METAR OMDB 082130Z VRB02KT CAVOK 24/11 Q1013 NOSIG",
      "taf": "TAF OMDB 081700Z 0818/1000 11005KT CAVOK"
    },
    {
      "icao": "UAAA",
      "alert": "OK",
      "vis_m": 2700,
      "fzfg": false,
      "metar_trigger": false,
      "taf_trigger": false,
      "metar": "METAR UAAA 082130Z 22004MPS 2700 BR FEW100 SCT200 M03/M05 Q1007 NOSIG",
      "taf": "TAF UAAA 081701Z 0818/0918 01003G08MPS 3100 BR FU SCT011 BKN030 TX04/0909Z TNM06/0902Z"
    },
    {
      "icao": "UBBB",
      "alert": "OK",
      "vis_m": 9999,
      "fzfg": false,
      "metar_trigger": false,
      "taf_trigger": false,
      "metar": "METAR UBBB 082130Z 32004KT 290V350 9999 BKN013 06/03 Q1002 NOSIG",
      "taf": "TAF UBBB 081659Z 0818/0918 31005KT 9999 BKN010 BKN030 TX07/0910Z TN03/0900Z"
    },
    {
      "icao": "UDSG",
      "alert": "OK",
      "vis_m": 150,
      "fzfg": true,
      "metar_trigger": false,
      "taf_trigger": false,
      "metar": "METAR UDSG 082130Z 04002KT 0150 R02/0550N FZFG VV002 M01/M01 Q1006 NOSIG",
      "taf": "TAF UDSG 081658Z 0818/0918 VRB06KT 2000 BR BKN020"
    },
    {
      "icao": "UDYZ",
      "alert": "OK",
      "vis_m": 5000,
      "fzfg": false,
      "metar_trigger": false,
      "taf_trigger": false,
      "metar": "METAR UDYZ 082130Z VRB01KT 5000 BR FEW046 04/02 Q1006 NOSIG",
      "taf": "TAF UDYZ 081700Z 0818/0918 VRB06KT 2000 BR BKN030"
    },
    {
      "icao": "UGKO",
      "alert": "OK",
      "vis_m": 9999,
      "fzfg": false,
      "metar_trigger": false,
      "taf_trigger": false,
      "metar": "METAR UGKO 082130Z VRB02KT 9999 -RA SCT026 OVC065 07/06 Q1004 NOSIG",
      "taf": "TAF UGKO 081700Z 0818/0918 25007KT 9999 SCT030 OVC050 TX09/0911Z TN06/0918Z"
    }
  ]
}