{
  "ts_utc": "2026-02-15T05:04:09Z",
  "threshold_m": 150,
  "source": "stations_override.txt (ICAO list) + aviationweather.gov (METAR/TAF raw)",
  "station_count": 159,
  "stations": [
    {
      "icao": "BIKF",
      "alert": "OK",
      "vis_m": 9999,
      "fzfg": false,
      "metar_trigger": false,
      "taf_trigger": false,
      "metar": "METAR BIKF 150430Z 08018KT CAVOK M03/M14 Q0996",
      "taf": "TAF BIKF 150438Z 1506/1606 07017KT CAVOK TXM02/1515Z TNM06/1522Z"
    },
    {
      "icao": "BKPR",
      "alert": "OK",
      "vis_m": 9999,
      "fzfg": false,
      "metar_trigger": false,
      "taf_trigger": false,
      "metar": "METAR BKPR 150500Z VRB02KT 9999 -RA SCT025 BKN050 06/06 Q0998 NOSIG",
      "taf": "TAF BKPR 142330Z 1500/1524 15006KT 9999 BKN030"
    },
    {
      "icao": "EBCI",
      "alert": "OK",
      "vis_m": 9999,
      "fzfg": false,
      "metar_trigger": false,
      "taf_trigger": false,
      "metar": "METAR EBCI 150450Z 17006KT CAVOK M03/M05 Q1017 NOSIG",
      "taf": "TAF EBCI 142306Z 1500/1606 14005KT CAVOK"
    },
    {
      "icao": "EDDB",
      "alert": "OK",
      "vis_m": 9999,
      "fzfg": false,
      "metar_trigger": false,
      "taf_trigger": false,
      "metar": "METAR EDDB 150450Z AUTO 35006KT 9999 OVC036 M02/M06 Q1019 NOSIG",
      "taf": "TAF EDDB 142300Z 1500/1524 36009KT 9999 SCT015 OVC035"
    },
    {
      "icao": "EDDH",
      "alert": "OK",
      "vis_m": 9999,
      "fzfg": false,
      "metar_trigger": false,
      "taf_trigger": false,
      "metar": "METAR EDDH 150450Z AUTO 07003KT CAVOK M09/M10 Q1020 TEMPO 2500 BCFG",
      "taf": "TAF EDDH 142300Z 1500/1606 VRB02KT 7000 NSC"
    },
    {
      "icao": "EDDK",
      "alert": "OK",
      "vis_m": 6000,
      "fzfg": false,
      "metar_trigger": false,
      "taf_trigger": false,
      "metar": "METAR EDDK 150450Z AUTO VRB02KT 6000 NCD M04/M05 Q1019 TEMPO 4000 BR",
      "taf": "TAF EDDK 142300Z 1500/1606 VRB03KT 9999 SCT030"
    },
    {
      "icao": "EDDN",
      "alert": "OK",
      "vis_m": 9999,
      "fzfg": false,
      "metar_trigger": false,
      "taf_trigger": false,
      "metar": "METAR EDDN 150450Z AUTO 32003KT 9999 OVC027 M01/M05 Q1017",
      "taf": "TAF EDDN 142300Z 1500/1524 34005KT 9999 BKN020"
    },
    {
      "icao": "EDDS",
      "alert": "OK",
      "vis_m": 9999,
      "fzfg": false,
      "metar_trigger": false,
      "taf_trigger": false,
      "metar": "METAR EDDS 150450Z AUTO 34003KT 9999 SCT016 BKN023 OVC029 M00/M02 Q1016",
      "taf": "TAF EDDS 142300Z 1500/1524 35007KT 9999 BKN015"
    },
    {
      "icao": "EDFH",
      "alert": "OK",
      "vis_m": 9999,
      "fzfg": false,
      "metar_trigger": false,
      "taf_trigger": false,
      "metar": "METAR EDFH 150450Z VRB01KT 9999 OVC025 M03/M04 Q1016",
      "taf": ""
    },
    {
      "icao": "EDJA",
      "alert": "OK",
      "vis_m": 9999,
      "fzfg": false,
      "metar_trigger": false,
      "taf_trigger": false,
      "metar": "METAR EDJA 150450Z 02005KT 9999 FEW007 OVC009 M02/M03 Q1015",
      "taf": "TAF EDJA 150200Z 1503/1512 02008KT 9999 SCT007 OVC015"
    },
    {
      "icao": "EDLW",
      "alert": "OK",
      "vis_m": 7000,
      "fzfg": false,
      "metar_trigger": false,
      "taf_trigger": false,
      "metar": "METAR EDLW 150450Z 10006KT 7000 NSC M05/M06 Q1018",
      "taf": "TAF EDLW 150420Z 1505/1524 14004KT CAVOK"
    },
    {
      "icao": "EDNY",
      "alert": "OK",
      "vis_m": 7000,
      "fzfg": false,
      "metar_trigger": false,
      "taf_trigger": false,
      "metar": "METAR EDNY 150450Z AUTO VRB02KT 7000 // FEW009/// SCT013/// OVC016/// 00/M00 Q1016",
      "taf": "TAF EDNY 150200Z 1503/1512 02004KT 9999 SCT008 OVC020"
    },
    {
      "icao": "EDSB",
      "alert": "OK",
      "vis_m": 9999,
      "fzfg": false,
      "metar_trigger": false,
      "taf_trigger": false,
      "metar": "METAR EDSB 150450Z 02005KT 9999 FEW016 OVC041 01/M02 Q1018",
      "taf": "TAF EDSB 142300Z 1500/1524 02007KT 9999 BKN025"
    },
    {
      "icao": "EETN",
      "alert": "OK",
      "vis_m": 9999,
      "fzfg": false,
      "metar_trigger": false,
      "taf_trigger": false,
      "metar": "METAR EETN 150450Z 19003KT 150V230 9999 BKN028 M17/M18 Q1016 NOSIG",
      "taf": "TAF EETN 142330Z 1500/1524 VRB02KT CAVOK"
    },
    {
      "icao": "EFTU",
      "alert": "OK",
      "vis_m": 9999,
      "fzfg": false,
      "metar_trigger": false,
      "taf_trigger": false,
      "metar": "METAR EFTU 150450Z AUTO 22005KT 9999 OVC007 M10/M11 Q1014",
      "taf": ""
    },
    {
      "icao": "EGBB",
      "alert": "OK",
      "vis_m": 9999,
      "fzfg": false,
      "metar_trigger": false,
      "taf_trigger": false,
      "metar": "METAR EGBB 150450Z 17010G20KT 9999 -RA BKN011 02/01 Q1006",
      "taf": ""
    },
    {
      "icao": "EGGP",
      "alert": "OK",
      "vis_m": 9999,
      "fzfg": false,
      "metar_trigger": false,
      "taf_trigger": false,
      "metar": "METAR EGGP 150450Z 16010KT 9999 BKN013 BKN017 OVC022 03/01 Q1003",
      "taf": ""
    },
    {
      "icao": "EGGW",
      "alert": "OK",
      "vis_m": 9999,
      "fzfg": false,
      "metar_trigger": false,
      "taf_trigger": false,
      "metar": "METAR EGGW 150450Z AUTO 17011KT 140V200 9999 BKN016 BKN035 OVC044 02/M00 Q1009",
      "taf": "TAF EGGW 142315Z 1500/1524 18010KT 9999 SCT025"
    },
    {
      "icao": "EGKK",
      "alert": "OK",
      "vis_m": 9999,
      "fzfg": false,
      "metar_trigger": false,
      "taf_trigger": false,
      "metar": "METAR EGKK 150450Z 19010KT 140V210 9999 -RA SCT014 04/01 Q1011",
      "taf": ""
    },
    {
      "icao": "EGNM",
      "alert": "OK",
      "vis_m": 3000,
      "fzfg": false,
      "metar_trigger": false,
      "taf_trigger": false,
      "metar": "METAR EGNM 150450Z 17012KT 3000 -SN BR SCT008 BKN020 00/M00 Q1003",
      "taf": "TAF EGNM 142255Z 1500/1524 17009KT 9999 FEW030"
    },
    {
      "icao": "EGPD",
      "alert": "OK",
      "vis_m": 8000,
      "fzfg": false,
      "metar_trigger": false,
      "taf_trigger": false,
      "metar": "METAR EGPD 150450Z AUTO 17023KT 8000 -RA BKN010 OVC020 02/01 Q0998 TEMPO SCT010",
      "taf": "TAF EGPD 142254Z 1500/1524 17012KT 9999 FEW020"
    },
    {
      "icao": "EGPF",
      "alert": "OK",
      "vis_m": 9999,
      "fzfg": false,
      "metar_trigger": false,
      "taf_trigger": false,
      "metar": "METAR EGPF 150450Z AUTO 17012KT 9999 OVC013 04/02 Q0997",
      "taf": ""
    },
    {
      "icao": "EHBK",
      "alert": "OK",
      "vis_m": 9999,
      "fzfg": false,
      "metar_trigger": false,
      "taf_trigger": false,
      "metar": "METAR EHBK 150455Z AUTO 15003KT 9999 NSC M04/M06 Q1018 NOSIG",
      "taf": "TAF EHBK 142312Z 1500/1606 VRB01KT CAVOK"
    },
    {
      "icao": "EHEH",
      "alert": "OK",
      "vis_m": 9999,
      "fzfg": false,
      "metar_trigger": false,
      "taf_trigger": false,
      "metar": "METAR EHEH 150455Z AUTO 15005KT 9999 FEW140 OVC220 M05/M06 Q1018 BLU",
      "taf": "TAF EHEH 142333Z 1500/1606 VRB03KT CAVOK"
    },
    {
      "icao": "EKBI",
      "alert": "OK",
      "vis_m": 9999,
      "fzfg": false,
      "metar_trigger": false,
      "taf_trigger": false,
      "metar": "METAR EKBI 150450Z AUTO 14006KT 9999 OVC041/// M05/M06 Q1017",
      "taf": "TAF EKBI 150227Z 1503/1603 15005KT 9999 BKN048"
    },
    {
      "icao": "EKCH",
      "alert": "OK",
      "vis_m": 9999,
      "fzfg": false,
      "metar_trigger": false,
      "taf_trigger": false,
      "metar": "METAR EKCH 150450Z AUTO 16001KT 9999 NCD M10/M12 Q1020 NOSIG",
      "taf": "TAF EKCH 150227Z 1503/1603 VRB03KT 9999 BKN045"
    },
    {
      "icao": "ENAL",
      "alert": "OK",
      "vis_m": 9999,
      "fzfg": false,
      "metar_trigger": false,
      "taf_trigger": false,
      "metar": "METAR ENAL 150450Z AUTO 19011KT 9999 NCD 01/M08 Q1004",
      "taf": "TAF ENAL 150200Z 1503/1512 15010KT CAVOK"
    },
    {
      "icao": "ENBR",
      "alert": "OK",
      "vis_m": 9999,
      "fzfg": false,
      "metar_trigger": false,
      "taf_trigger": false,
      "metar": "METAR ENBR 150450Z 14013KT 9999 BKN027 M00/M04 Q1008 RMK WIND 1200FT 15027G38KT",
      "taf": "TAF ENBR 142300Z 1500/1524 14008KT 9999 SCT015"
    },
    {
      "icao": "ENGM",
      "alert": "OK",
      "vis_m": 9999,
      "fzfg": false,
      "metar_trigger": false,
      "taf_trigger": false,
      "metar": "METAR ENGM 150450Z 02002KT 9999 FEW001 BKN022 M19/M22 Q1015",
      "taf": "TAF ENGM 142300Z 1500/1524 VRB03KT 9999 FEW002"
    },
    {
      "icao": "ENHD",
      "alert": "OK",
      "vis_m": 9999,
      "fzfg": false,
      "metar_trigger": false,
      "taf_trigger": false,
      "metar": "METAR ENHD 150450Z AUTO 13015KT 9999 NCD M01/M04 Q1009",
      "taf": "TAF ENHD 150200Z 1503/1512 14012KT 9999 BKN030"
    },
    {
      "icao": "ENTC",
      "alert": "OK",
      "vis_m": 9999,
      "fzfg": false,
      "metar_trigger": false,
      "taf_trigger": false,
      "metar": "METAR ENTC 150450Z 18016KT 9999 -SN SCT012 BKN028 BKN038 M03/M06 Q1000 RMK WIND 2600FT 21017KT",
      "taf": "TAF ENTC 142300Z 1500/1524 21020KT 9999 -SHSN FEW015 SCT030CB"
    },
    {
      "icao": "ENTO",
      "alert": "OK",
      "vis_m": 9999,
      "fzfg": false,
      "metar_trigger": false,
      "taf_trigger": false,
      "metar": "METAR ENTO 150450Z AUTO VRB01KT 9999 OVC010/// M09/M11 Q1015",
      "taf": "TAF ENTO 142300Z 1500/1524 VRB03KT 9999 BKN020"
    },
    {
      "icao": "ENVA",
      "alert": "OK",
      "vis_m": 9999,
      "fzfg": false,
      "metar_trigger": false,
      "taf_trigger": false,
      "metar": "METAR ENVA 150450Z 09006KT CAVOK M11/M13 Q1008 RMK WIND 670FT 14008KT",
      "taf": "TAF ENVA 142300Z 1500/1524 10008KT 9999 FEW015 SCT025"
    },
    {
      "icao": "ENZV",
      "alert": "OK",
      "vis_m": 9999,
      "fzfg": false,
      "metar_trigger": false,
      "taf_trigger": false,
      "metar": "METAR ENZV 150450Z 12010KT 9999 FEW020 M01/M05 Q1010",
      "taf": ""
    },
    {
      "icao": "EPGD",
      "alert": "OK",
      "vis_m": 9999,
      "fzfg": false,
      "metar_trigger": false,
      "taf_trigger": false,
      "metar": "METAR EPGD 150500Z 03004KT 360V080 9999 OVC016 M06/M08 Q1017",
      "taf": ""
    },
    {
      "icao": "EPKK",
      "alert": "OK",
      "vis_m": 1200,
      "fzfg": false,
      "metar_trigger": false,
      "taf_trigger": false,
      "metar": "METAR EPKK 150500Z 31003KT 1200 R25/P2000N SN BR SCT006 BKN012 OVC016 M03/M04 Q1012",
      "taf": "TAF EPKK 150230Z 1503/1603 03004KT 5000 -SN BR BKN020"
    },
    {
      "icao": "EPKT",
      "alert": "OK",
      "vis_m": 6000,
      "fzfg": false,
      "metar_trigger": false,
      "taf_trigger": false,
      "metar": "METAR EPKT 150500Z 34005KT 6000 -SN SCT007 OVC019 M04/M05 Q1012 RESN",
      "taf": ""
    },
    {
      "icao": "EPLB",
      "alert": "OK",
      "vis_m": 5000,
      "fzfg": false,
      "metar_trigger": false,
      "taf_trigger": false,
      "metar": "METAR EPLB 150500Z 36004KT 5000 -SN BR BKN009 OVC011 M06/M07 Q1012",
      "taf": ""
    },
    {
      "icao": "EPMO",
      "alert": "OK",
      "vis_m": 9999,
      "fzfg": false,
      "metar_trigger": false,
      "taf_trigger": false,
      "metar": "METAR EPMO 150500Z 36007KT 9999 OVC009 M06/M07 Q1014",
      "taf": "TAF EPMO 142330Z 1500/1524 34007KT 9999 OVC012"
    },
    {
      "icao": "EPPO",
      "alert": "OK",
      "vis_m": 9999,
      "fzfg": false,
      "metar_trigger": false,
      "taf_trigger": false,
      "metar": "METAR EPPO 150500Z 35009KT 9999 -SN OVC033 M03/M10 Q1017",
      "taf": "TAF EPPO 142330Z 1500/1524 35006KT 9999 BKN020"
    },
    {
      "icao": "EPRA",
      "alert": "OK",
      "vis_m": 5000,
      "fzfg": false,
      "metar_trigger": false,
      "taf_trigger": false,
      "metar": "METAR EPRA 150500Z 35007KT 5000 -SN OVC007 M05/M07 Q1013",
      "taf": "TAF EPRA 150230Z 1503/1512 35008KT 6000 -SN OVC006"
    },
    {
      "icao": "EPRZ",
      "alert": "OK",
      "vis_m": 1200,
      "fzfg": false,
      "metar_trigger": false,
      "taf_trigger": false,
      "metar": "METAR EPRZ 150500Z 33008KT 1200 R27/P2000N SN BR BKN002 M03/M03 Q1011",
      "taf": "TAF EPRZ 142330Z 1500/1524 34008KT 2000 -SN BR BKN005"
    },
    {
      "icao": "EPSC",
      "alert": "OK",
      "vis_m": 9999,
      "fzfg": false,
      "metar_trigger": false,
      "taf_trigger": false,
      "metar": "METAR EPSC 150500Z 32005KT 9999 FEW038 OVC043 M02/M06 Q1018",
      "taf": "TAF EPSC 142330Z 1500/1524 35005KT 9999 BKN030"
    },
    {
      "icao": "EPSY",
      "alert": "OK",
      "vis_m": 9999,
      "fzfg": false,
      "metar_trigger": false,
      "taf_trigger": false,
      "metar": "METAR EPSY 150500Z 36006KT CAVOK M08/M11 Q1015",
      "taf": "TAF EPSY 150230Z 1503/1512 01008KT CAVOK"
    },
    {
      "icao": "EPWA",
      "alert": "OK",
      "vis_m": 9999,
      "fzfg": false,
      "metar_trigger": false,
      "taf_trigger": false,
      "metar": "METAR EPWA 150500Z 02006KT 350V060 9999 BKN014 M06/M08 Q1014 NOSIG",
      "taf": "TAF EPWA 150230Z 1503/1603 36007KT 9999 BKN012"
    },
    {
      "icao": "EPWR",
      "alert": "OK",
      "vis_m": 9999,
      "fzfg": false,
      "metar_trigger": false,
      "taf_trigger": false,
      "metar": "METAR EPWR 150500Z 34011KT 9999 -SN SCT015 BKN025 M02/M05 Q1016",
      "taf": "TAF EPWR 150230Z 1503/1603 34006KT 9999 BKN020"
    },
    {
      "icao": "ESGG",
      "alert": "OK",
      "vis_m": 9999,
      "fzfg": false,
      "metar_trigger": false,
      "taf_trigger": false,
      "metar": "METAR ESGG 150450Z 14006KT CAVOK M13/M15 Q1017",
      "taf": "TAF ESGG 150230Z 1503/1603 16006KT CAVOK"
    },
    {
      "icao": "ESKN",
      "alert": "OK",
      "vis_m": 9999,
      "fzfg": false,
      "metar_trigger": false,
      "taf_trigger": false,
      "metar": "METAR ESKN 150450Z 25002KT CAVOK M16/M17 Q1018",
      "taf": "TAF ESKN 150230Z 1503/1603 26003KT CAVOK"
    },
    {
      "icao": "ESMS",
      "alert": "OK",
      "vis_m": 9999,
      "fzfg": false,
      "metar_trigger": false,
      "taf_trigger": false,
      "metar": "METAR ESMS 150450Z 10002KT CAVOK M14/M15 Q1019",
      "taf": "TAF ESMS 150227Z 1503/1603 VRB03KT 9999 BKN042"
    },
    {
      "icao": "ESSA",
      "alert": "OK",
      "vis_m": 9999,
      "fzfg": false,
      "metar_trigger": false,
      "taf_trigger": false,
      "metar": "METAR ESSA 150450Z 25008KT CAVOK M13/M15 Q1016 NOSIG",
      "taf": "TAF ESSA 150230Z 1503/1603 25007KT CAVOK"
    },
    {
      "icao": "EYKA",
      "alert": "OK",
      "vis_m": 9999,
      "fzfg": false,
      "metar_trigger": false,
      "taf_trigger": false,
      "metar": "METAR EYKA 150450Z 34003KT CAVOK M15/M18 Q1017",
      "taf": "TAF EYKA 150500Z 1506/1606 VRB04KT 9000 NSC"
    },
    {
      "icao": "EYPA",
      "alert": "OK",
      "vis_m": 9999,
      "fzfg": false,
      "metar_trigger": false,
      "taf_trigger": false,
      "metar": "METAR EYPA 150450Z VRB02KT CAVOK M18/M20 Q1019",
      "taf": "TAF EYPA 150500Z 1506/1606 VRB03KT 9000 NSC"
    },
    {
      "icao": "EYVI",
      "alert": "OK",
      "vis_m": 9999,
      "fzfg": false,
      "metar_trigger": false,
      "taf_trigger": false,
      "metar": "METAR EYVI 150450Z 02007KT CAVOK M14/M17 Q1014 NOSIG",
      "taf": "TAF EYVI 150500Z 1506/1606 VRB05KT 9000 NSC"
    },
    {
      "icao": "GCFV",
      "alert": "OK",
      "vis_m": 8000,
      "fzfg": false,
      "metar_trigger": false,
      "taf_trigger": false,
      "metar": "METAR GCFV 150430Z AUTO 01027KT 8000 BKN030 17/09 Q1024",
      "taf": "TAF GCFV 150200Z 1503/1603 03025KT 9999 FEW040 TX20/1514Z TN16/1506Z"
    },
    {
      "icao": "GCLP",
      "alert": "OK",
      "vis_m": 9999,
      "fzfg": false,
      "metar_trigger": false,
      "taf_trigger": false,
      "metar": "METAR GCLP 150430Z 36019KT 9999 SCT030 16/10 Q1025 NOSIG",
      "taf": "TAF GCLP 150200Z 1503/1603 02026KT 9999 FEW035 TX20/1514Z TN16/1506Z"
    },
    {
      "icao": "GCTS",
      "alert": "OK",
      "vis_m": 9999,
      "fzfg": false,
      "metar_trigger": false,
      "taf_trigger": false,
      "metar": "METAR GCTS 150430Z 08026G37KT 9999 FEW030 18/01 Q1024 NOSIG",
      "taf": "TAF GCTS 150200Z 1503/1603 06020KT 9999 FEW035 TX24/1514Z TN17/1506Z"
    },
    {
      "icao": "GMAD",
      "alert": "OK",
      "vis_m": 9999,
      "fzfg": false,
      "metar_trigger": false,
      "taf_trigger": false,
      "metar": "METAR GMAD 150500Z 00000KT CAVOK 06/04 Q1020 NOSIG",
      "taf": "TAF GMAD 142300Z 1500/1606 07004KT CAVOK"
    },
    {
      "icao": "GMMN",
      "alert": "OK",
      "vis_m": 5000,
      "fzfg": false,
      "metar_trigger": false,
      "taf_trigger": false,
      "metar": "METAR GMMN 150430Z VRB02KT 5000 BKN026 06/05 Q1030 NOSIG",
      "taf": "TAF GMMN 142300Z 1500/1606 16004KT 9999 SCT016"
    },
    {
      "icao": "GMMX",
      "alert": "OK",
      "vis_m": 9999,
      "fzfg": false,
      "metar_trigger": false,
      "taf_trigger": false,
      "metar": "METAR GMMX 150500Z 11007KT CAVOK 06/04 Q1028 NOSIG",
      "taf": "TAF GMMX 142300Z 1500/1606 06006KT CAVOK"
    },
    {
      "icao": "HEGN",
      "alert": "OK",
      "vis_m": 9999,
      "fzfg": false,
      "metar_trigger": false,
      "taf_trigger": false,
      "metar": "METAR HEGN 150400Z 34004KT CAVOK 15/M03 Q1018 NOSIG",
      "taf": "TAF HEGN 150500Z 1506/1612 29012KT 6000 NSC"
    },
    {
      "icao": "HEMA",
      "alert": "OK",
      "vis_m": 9999,
      "fzfg": false,
      "metar_trigger": false,
      "taf_trigger": false,
      "metar": "METAR HEMA 150400Z 32018KT CAVOK 20/M01 Q1015 NOSIG",
      "taf": "TAF HEMA 142300Z 1500/1606 31012KT 6000 NSC"
    },
    {
      "icao": "HESH",
      "alert": "OK",
      "vis_m": 9999,
      "fzfg": false,
      "metar_trigger": false,
      "taf_trigger": false,
      "metar": "METAR HESH 150400Z 35006KT CAVOK 19/03 Q1018 NOSIG",
      "taf": "TAF HESH 150500Z 1506/1612 35012KT 6000 NSC"
    },
    {
      "icao": "HESX",
      "alert": "OK",
      "vis_m": 9999,
      "fzfg": false,
      "metar_trigger": false,
      "taf_trigger": false,
      "metar": "METAR HESX 150400Z 10005KT CAVOK 12/01 Q1018 NOSIG",
      "taf": "TAF HESX 142300Z 1500/1606 14008KT CAVOK"
    },
    {
      "icao": "LATI",
      "alert": "OK",
      "vis_m": 9999,
      "fzfg": false,
      "metar_trigger": false,
      "taf_trigger": false,
      "metar": "METAR LATI 150450Z 14010KT 9999 SCT026 BKN090 14/08 Q0997 NOSIG",
      "taf": "TAF LATI 142300Z 1500/1524 15010G20KT 9999 -RA FEW020 SCT035 BKN070 TX14/1512Z TN10/1505Z"
    },
    {
      "icao": "LBPD",
      "alert": "OK",
      "vis_m": 9999,
      "fzfg": false,
      "metar_trigger": false,
      "taf_trigger": false,
      "metar": "METAR LBPD 150500Z AUTO VRB01KT 9999 BKN240/// 06/06 Q1001 TEMPO 5000 RA",
      "taf": "TAF LBPD 142300Z 1500/1524 VRB03KT 4000 BR SCT015 BKN030"
    },
    {
      "icao": "LBSF",
      "alert": "OK",
      "vis_m": 9999,
      "fzfg": false,
      "metar_trigger": false,
      "taf_trigger": false,
      "metar": "METAR LBSF 150500Z VRB03KT 9999 -RA BKN064 OVC080 07/05 Q1000 TEMPO 4000 RA BKN040",
      "taf": "TAF LBSF 142300Z 1500/1524 VRB03KT 6000 BKN030"
    },
    {
      "icao": "LBWN",
      "alert": "OK",
      "vis_m": 9999,
      "fzfg": false,
      "metar_trigger": false,
      "taf_trigger": false,
      "metar": "METAR LBWN 150500Z AUTO 11005KT 9999 NSC 10/08 Q1006 NOSIG",
      "taf": "TAF LBWN 142300Z 1500/1524 09010KT 9999 SCT045"
    },
    {
      "icao": "LCLK",
      "alert": "OK",
      "vis_m": 9999,
      "fzfg": false,
      "metar_trigger": false,
      "taf_trigger": false,
      "metar": "METAR LCLK 150500Z 31005KT CAVOK 10/09 Q1021 NOSIG",
      "taf": "TAF LCLK 142330Z 1500/1600 30007KT 9999 FEW020"
    },
    {
      "icao": "LCPH",
      "alert": "OK",
      "vis_m": 9999,
      "fzfg": false,
      "metar_trigger": false,
      "taf_trigger": false,
      "metar": "METAR LCPH 150500Z 02005KT 010V080 9999 FEW020 11/08 Q1020 NOSIG",
      "taf": "TAF LCPH 142330Z 1500/1600 02007KT 8000 SCT018"
    },
    {
      "icao": "LEAL",
      "alert": "OK",
      "vis_m": 9999,
      "fzfg": false,
      "metar_trigger": false,
      "taf_trigger": false,
      "metar": "METAR LEAL 150430Z 29020G30KT CAVOK 13/M06 Q1019 NOSIG",
      "taf": "TAF LEAL 142300Z 1500/1524 31020KT 9999 FEW040 TX20/1513Z TN09/1506Z"
    },
    {
      "icao": "LEBB",
      "alert": "OK",
      "vis_m": 9999,
      "fzfg": false,
      "metar_trigger": false,
      "taf_trigger": false,
      "metar": "METAR LEBB 150430Z VRB03KT 9999 OVC037 08/04 Q1022 NOSIG",
      "taf": "TAF LEBB 142300Z 1500/1524 18005KT 9999 SCT040 TX15/1512Z TN07/1501Z"
    },
    {
      "icao": "LEBL",
      "alert": "OK",
      "vis_m": 9999,
      "fzfg": false,
      "metar_trigger": false,
      "taf_trigger": false,
      "metar": "METAR LEBL 150430Z 32019KT 290V350 CAVOK 09/01 Q1013 NOSIG",
      "taf": ""
    },
    {
      "icao": "LECH",
      "alert": "OK",
      "vis_m": 9999,
      "fzfg": false,
      "metar_trigger": false,
      "taf_trigger": false,
      "metar": "METAR LECH 150430Z AUTO 33012KT 270V010 CAVOK 10/M09 Q1016",
      "taf": ""
    },
    {
      "icao": "LEMD",
      "alert": "OK",
      "vis_m": 9999,
      "fzfg": false,
      "metar_trigger": false,
      "taf_trigger": false,
      "metar": "METAR LEMD 150430Z VRB02KT CAVOK M00/M02 Q1024 NOSIG",
      "taf": "TAF LEMD 142300Z 1500/1606 VRB04KT 9999 FEW040 TX13/1515Z TNM00/1507Z"
    },
    {
      "icao": "LEMG",
      "alert": "OK",
      "vis_m": 9999,
      "fzfg": false,
      "metar_trigger": false,
      "taf_trigger": false,
      "metar": "METAR LEMG 150430Z 30012KT CAVOK 08/03 Q1027 NOSIG",
      "taf": "TAF LEMG 142300Z 1500/1524 30012KT CAVOK TX18/1514Z TN09/1507Z"
    },
    {
      "icao": "LEVC",
      "alert": "OK",
      "vis_m": 9999,
      "fzfg": false,
      "metar_trigger": false,
      "taf_trigger": false,
      "metar": "METAR LEVC 150430Z 30013KT 270V330 CAVOK 11/M09 Q1019 NOSIG",
      "taf": ""
    },
    {
      "icao": "LEXJ",
      "alert": "OK",
      "vis_m": 9999,
      "fzfg": false,
      "metar_trigger": false,
      "taf_trigger": false,
      "metar": "METAR LEXJ 150430Z 23009KT 9999 FEW030 BKN045 10/03 Q1022",
      "taf": "TAF LEXJ 150200Z 1503/1603 22009KT 9999 SCT020 BKN040 TX15/1514Z TN09/1503Z"
    },
    {
      "icao": "LEZG",
      "alert": "OK",
      "vis_m": 9999,
      "fzfg": false,
      "metar_trigger": false,
      "taf_trigger": false,
      "metar": "METAR LEZG 150430Z 29022KT 9999 FEW055 07/M01 Q1021 NOSIG",
      "taf": "TAF LEZG 142300Z 1500/1524 30020KT 9999 FEW040 TX16/1512Z TN06/1506Z"
    },
    {
      "icao": "LEZL",
      "alert": "OK",
      "vis_m": 9999,
      "fzfg": false,
      "metar_trigger": false,
      "taf_trigger": false,
      "metar": "METAR LEZL 150430Z VRB01KT CAVOK 06/05 Q1029 NOSIG",
      "taf": "TAF LEZL 150200Z 1503/1603 21005KT 9999 FEW040 TX18/1515Z TN06/1507Z"
    },
    {
      "icao": "LFBD",
      "alert": "OK",
      "vis_m": 9999,
      "fzfg": false,
      "metar_trigger": false,
      "taf_trigger": false,
      "metar": "METAR LFBD 150500Z AUTO 18008KT 9999 OVC042 06/02 Q1020 TEMPO 4000 RA BKN007",
      "taf": "TAF LFBD 142300Z 1500/1606 21005KT 9999 BKN020 TX13/1516Z TN04/1504Z"
    },
    {
      "icao": "LFLL",
      "alert": "OK",
      "vis_m": 9999,
      "fzfg": false,
      "metar_trigger": false,
      "taf_trigger": false,
      "metar": "METAR LFLL 150500Z 34009KT 9999 BKN016 OVC021 01/M02 Q1019 NOSIG",
      "taf": "TAF LFLL 142300Z 1500/1606 34012KT 9999 BKN016"
    },
    {
      "icao": "LFLS",
      "alert": "OK",
      "vis_m": 9999,
      "fzfg": false,
      "metar_trigger": false,
      "taf_trigger": false,
      "metar": "METAR LFLS 150500Z AUTO VRB08KT 9999 OVC009 00/M02 Q1018 NOSIG",
      "taf": "TAF LFLS 150200Z 1503/1603 35018KT 9999 BKN012"
    },
    {
      "icao": "LFMN",
      "alert": "OK",
      "vis_m": 9999,
      "fzfg": false,
      "metar_trigger": false,
      "taf_trigger": false,
      "metar": "METAR LFMN 150500Z 33007KT CAVOK 09/03 Q1004 NOSIG",
      "taf": "TAF LFMN 150200Z 1503/1609 34010KT CAVOK"
    },
    {
      "icao": "LFOB",
      "alert": "OK",
      "vis_m": 9000,
      "fzfg": false,
      "metar_trigger": false,
      "taf_trigger": false,
      "metar": "METAR LFOB 150500Z AUTO 12006KT 9000 NSC M01/M02 Q1016 NOSIG",
      "taf": "TAF LFOB 142300Z 1500/1524 35006KT 9999 OVC025"
    },
    {
      "icao": "LFPO",
      "alert": "OK",
      "vis_m": 9999,
      "fzfg": false,
      "metar_trigger": false,
      "taf_trigger": false,
      "metar": "METAR LFPO 150500Z 19007KT CAVOK M01/M03 Q1018 NOSIG",
      "taf": "TAF LFPO 142300Z 1500/1606 18005KT CAVOK"
    },
    {
      "icao": "LFSB",
      "alert": "OK",
      "vis_m": 9999,
      "fzfg": false,
      "metar_trigger": false,
      "taf_trigger": false,
      "metar": "METAR LFSB 150500Z AUTO 29006KT 9999 FEW012 OVC032 01/M00 Q1017 TEMPO BKN005",
      "taf": "TAF LFSB 142300Z 1500/1524 34008KT 9999 FEW007 BKN017"
    },
    {
      "icao": "LGAV",
      "alert": "OK",
      "vis_m": 9999,
      "fzfg": false,
      "metar_trigger": false,
      "taf_trigger": false,
      "metar": "METAR LGAV 150450Z 03005KT 9999 FEW020 16/10 Q1005 NOSIG",
      "taf": "TAF LGAV 142300Z 1500/1524 16012KT 9999 SCT025"
    },
    {
      "icao": "LGTS",
      "alert": "OK",
      "vis_m": 9999,
      "fzfg": false,
      "metar_trigger": false,
      "taf_trigger": false,
      "metar": "METAR LGTS 150450Z 12016G26KT 9999 -RA SCT025 16/12 Q1001 NOSIG",
      "taf": "TAF LGTS 142300Z 1500/1524 13013KT 9999 SCT025"
    },
    {
      "icao": "LHBP",
      "alert": "OK",
      "vis_m": 9999,
      "fzfg": false,
      "metar_trigger": false,
      "taf_trigger": false,
      "metar": "METAR LHBP 150500Z 32008KT 9999 FEW035 BKN080 06/04 Q1004 NOSIG",
      "taf": "TAF LHBP 142315Z 1500/1524 01007KT CAVOK"
    },
    {
      "icao": "LHDC",
      "alert": "OK",
      "vis_m": 9999,
      "fzfg": false,
      "metar_trigger": false,
      "taf_trigger": false,
      "metar": "METAR LHDC 150445Z AUTO 04012KT 010V070 CAVOK 05/04 Q1003",
      "taf": ""
    },
    {
      "icao": "LIBD",
      "alert": "OK",
      "vis_m": 9999,
      "fzfg": false,
      "metar_trigger": false,
      "taf_trigger": false,
      "metar": "METAR LIBD 150450Z 26008KT 9999 -RA BKN045 10/08 Q0996",
      "taf": "TAF LIBD 142300Z 1500/1524 26015KT 9999 BKN030"
    },
    {
      "icao": "LIBG",
      "alert": "OK",
      "vis_m": null,
      "fzfg": false,
      "metar_trigger": false,
      "taf_trigger": false,
      "metar": "",
      "taf": ""
    },
    {
      "icao": "LIBP",
      "alert": "OK",
      "vis_m": 9000,
      "fzfg": false,
      "metar_trigger": false,
      "taf_trigger": false,
      "metar": "METAR LIBP 150450Z AUTO 34007KT 310V010 9000 RA OVC017/// 11/09 Q0999",
      "taf": "TAF LIBP 142300Z 1500/1524 31015KT 9999 BKN030"
    },
    {
      "icao": "LIBR",
      "alert": "OK",
      "vis_m": 9999,
      "fzfg": false,
      "metar_trigger": false,
      "taf_trigger": false,
      "metar": "METAR LIBR 150450Z 20004KT CAVOK 09/08 Q0996",
      "taf": "TAF LIBR 142300Z 1500/1524 16018G32KT 9999 BKN030"
    },
    {
      "icao": "LICA",
      "alert": "OK",
      "vis_m": 9999,
      "fzfg": false,
      "metar_trigger": false,
      "taf_trigger": false,
      "metar": "METAR LICA 150450Z AUTO 08005KT 9999 FEW067/// SCT080/// 08/07 Q0998",
      "taf": "TAF LICA 142300Z 1500/1524 26010KT 9999 FEW020 SCT050"
    },
    {
      "icao": "LICC",
      "alert": "OK",
      "vis_m": 9999,
      "fzfg": false,
      "metar_trigger": false,
      "taf_trigger": false,
      "metar": "METAR LICC 150450Z 23004KT 9999 BKN030 10/06 Q0999",
      "taf": "TAF LICC 142300Z 1500/1524 26007KT 9999 SCT020"
    },
    {
      "icao": "LICJ",
      "alert": "OK",
      "vis_m": 9999,
      "fzfg": false,
      "metar_trigger": false,
      "taf_trigger": false,
      "metar": "METAR LICJ 150450Z AUTO 25018KT 9999 4300W BKN018/// BKN050/// 14/12 Q0995 REDZ",
      "taf": "TAF LICJ 142300Z 1500/1524 20016G28KT 9999 SCT030"
    },
    {
      "icao": "LIMC",
      "alert": "OK",
      "vis_m": 9999,
      "fzfg": false,
      "metar_trigger": false,
      "taf_trigger": false,
      "metar": "METAR LIMC 150450Z 02013KT CAVOK 09/M04 Q1004 NOSIG",
      "taf": "TAF LIMC 142300Z 1500/1606 VRB05KT 8000 NSC"
    },
    {
      "icao": "LIME",
      "alert": "OK",
      "vis_m": 9999,
      "fzfg": false,
      "metar_trigger": false,
      "taf_trigger": false,
      "metar": "METAR LIME 150450Z 36003KT CAVOK 04/04 Q1004 NOSIG",
      "taf": "TAF LIME 142300Z 1500/1524 VRB05KT 9000 FEW070"
    },
    {
      "icao": "LIMF",
      "alert": "OK",
      "vis_m": null,
      "fzfg": false,
      "metar_trigger": false,
      "taf_trigger": false,
      "metar": "METAR LIMF 150450Z AUTO 26004KT 230V290 //// // NCD 03/M00 Q1005",
      "taf": "TAF LIMF 142300Z 1500/1524 VRB05KT CAVOK"
    },
    {
      "icao": "LIMJ",
      "alert": "OK",
      "vis_m": 9999,
      "fzfg": false,
      "metar_trigger": false,
      "taf_trigger": false,
      "metar": "METAR LIMJ 150450Z 03011KT CAVOK 12/02 Q1003",
      "taf": "TAF LIMJ 142300Z 1500/1524 03014KT 9999 FEW050"
    },
    {
      "icao": "LIPE",
      "alert": "OK",
      "vis_m": 9999,
      "fzfg": false,
      "metar_trigger": false,
      "taf_trigger": false,
      "metar": "METAR LIPE 150450Z 31004KT 9999 BKN030 08/08 Q1004",
      "taf": "TAF LIPE 142300Z 1500/1524 29008KT 7000 BKN020"
    },
    {
      "icao": "LIPH",
      "alert": "OK",
      "vis_m": 9999,
      "fzfg": false,
      "metar_trigger": false,
      "taf_trigger": false,
      "metar": "METAR LIPH 150450Z AUTO 25005KT 9999 OVC094/// 09/07 Q1002",
      "taf": "TAF LIPH 142300Z 1500/1524 04007KT 8000 BKN030"
    },
    {
      "icao": "LIPQ",
      "alert": "OK",
      "vis_m": 9999,
      "fzfg": false,
      "metar_trigger": false,
      "taf_trigger": false,
      "metar": "METAR LIPQ 150450Z AUTO 18003KT 070V210 9999 BKN100/// OVC160/// 08/07 Q1002",
      "taf": "TAF LIPQ 142300Z 1500/1524 04012KT 9999 BKN030"
    },
    {
      "icao": "LIPR",
      "alert": "OK",
      "vis_m": 9999,
      "fzfg": false,
      "metar_trigger": false,
      "taf_trigger": false,
      "metar": "METAR LIPR 150450Z AUTO 31012KT 9999 -DZ OVC008/// 09/08 Q1001",
      "taf": "TAF LIPR 142300Z 1500/1524 33014KT 8000 BKN030"
    },
    {
      "icao": "LIPX",
      "alert": "OK",
      "vis_m": 1000,
      "fzfg": false,
      "metar_trigger": false,
      "taf_trigger": false,
      "metar": "METAR LIPX 150450Z VRB02KT 1000 R04/1900D BR BKN090 07/07 Q1004",
      "taf": "TAF LIPX 142300Z 1500/1524 VRB05KT 8000 SCT040"
    },
    {
      "icao": "LIPY",
      "alert": "OK",
      "vis_m": 9999,
      "fzfg": false,
      "metar_trigger": false,
      "taf_trigger": false,
      "metar": "METAR LIPY 150450Z AUTO 32011KT 9999 -RA OVC008/// 10/10 Q1000",
      "taf": "TAF LIPY 142300Z 1500/1524 33016KT 7000 BKN040"
    },
    {
      "icao": "LIPZ",
      "alert": "OK",
      "vis_m": 9999,
      "fzfg": false,
      "metar_trigger": false,
      "taf_trigger": false,
      "metar": "METAR LIPZ 150450Z 30005KT CAVOK 08/07 Q1002 NOSIG",
      "taf": "TAF LIPZ 142300Z 1500/1606 04016KT 8000 BKN030"
    },
    {
      "icao": "LIRF",
      "alert": "OK",
      "vis_m": 9999,
      "fzfg": false,
      "metar_trigger": false,
      "taf_trigger": false,
      "metar": "METAR LIRF 150450Z 30003KT CAVOK 08/07 Q0999 NOSIG",
      "taf": "TAF LIRF 142300Z 1500/1606 04007KT 9999 SCT020"
    },
    {
      "icao": "LIRN",
      "alert": "OK",
      "vis_m": 9999,
      "fzfg": false,
      "metar_trigger": false,
      "taf_trigger": false,
      "metar": "METAR LIRN 150450Z VRB02KT 9999 BKN070 09/08 Q0997 NOSIG",
      "taf": "TAF LIRN 142300Z 1500/1524 VRB05KT 9999 SCT040"
    },
    {
      "icao": "LIRP",
      "alert": "OK",
      "vis_m": 9999,
      "fzfg": false,
      "metar_trigger": false,
      "taf_trigger": false,
      "metar": "METAR LIRP 150445Z 19003KT CAVOK 07/06 Q1001 NOSIG",
      "taf": "TAF LIRP 142300Z 1500/1524 29005KT 9999 FEW030 SCT060"
    },
    {
      "icao": "LIRZ",
      "alert": "OK",
      "vis_m": 9999,
      "fzfg": false,
      "metar_trigger": false,
      "taf_trigger": false,
      "metar": "METAR LIRZ 150450Z AUTO 35003KT 310V010 9999 FEW031/// 06/05 Q1000",
      "taf": "TAF LIRZ 142300Z 1500/1524 VRB06KT 9000 SCT030"
    },
    {
      "icao": "LJLJ",
      "alert": "OK",
      "vis_m": 6000,
      "fzfg": false,
      "metar_trigger": false,
      "taf_trigger": false,
      "metar": "METAR LJLJ 150430Z 20002KT 6000 MIFG FEW002 SCT045 BKN068 05/04 Q1004 NOSIG",
      "taf": "TAF LJLJ 150500Z 1506/1606 20004KT 9999 FEW002 SCT045 BKN090"
    },
    {
      "icao": "LKMT",
      "alert": "OK",
      "vis_m": 8000,
      "fzfg": false,
      "metar_trigger": false,
      "taf_trigger": false,
      "metar": "METAR LKMT 150500Z 02008KT 8000 -SN BKN010 OVC018 M02/M03 Q1013 NOSIG",
      "taf": "TAF LKMT 142300Z 1500/1524 01012KT 3500 -SN BR BKN005 OVC012"
    },
    {
      "icao": "LKPR",
      "alert": "OK",
      "vis_m": 9999,
      "fzfg": false,
      "metar_trigger": false,
      "taf_trigger": false,
      "metar": "METAR LKPR 150500Z 30008KT 9999 -SN FEW026 OVC038 M03/M05 Q1016 NOSIG",
      "taf": "TAF LKPR 150200Z 1503/1609 35010KT 9999 BKN025"
    },
    {
      "icao": "LLBG",
      "alert": "OK",
      "vis_m": 7000,
      "fzfg": false,
      "metar_trigger": false,
      "taf_trigger": false,
      "metar": "METAR LLBG 150450Z VRB02KT 7000 NSC 11/08 Q1021 TEMPO 5000 DU",
      "taf": "TAF LLBG 142320Z 1500/1524 VRB04KT 5000 DU NSC"
    },
    {
      "icao": "LMML",
      "alert": "OK",
      "vis_m": 9999,
      "fzfg": false,
      "metar_trigger": false,
      "taf_trigger": false,
      "metar": "METAR LMML 150445Z 25018G31KT 9999 -RA FEW019 13/10 Q1002 NOSIG",
      "taf": "TAF LMML 150500Z 1506/1606 25018KT 9999 FEW018"
    },
    {
      "icao": "LOWW",
      "alert": "OK",
      "vis_m": 9999,
      "fzfg": false,
      "metar_trigger": false,
      "taf_trigger": false,
      "metar": "METAR LOWW 150450Z 33016KT 9999 -SN FEW010 BKN018 00/M02 Q1012 TEMPO BKN012",
      "taf": "TAF LOWW 150215Z 1503/1609 34010KT 9999 SCT009 BKN020 TX01/1510Z TNM05/1601Z"
    },
    {
      "icao": "LPFR",
      "alert": "OK",
      "vis_m": 9999,
      "fzfg": false,
      "metar_trigger": false,
      "taf_trigger": false,
      "metar": "METAR LPFR 150430Z 26004KT 210V300 CAVOK 09/07 Q1030",
      "taf": "TAF LPFR 142300Z 1500/1524 30005KT CAVOK"
    },
    {
      "icao": "LPMA",
      "alert": "OK",
      "vis_m": 9999,
      "fzfg": false,
      "metar_trigger": false,
      "taf_trigger": false,
      "metar": "METAR LPMA 150430Z 02015KT 350V050 9999 FEW016 15/08 Q1031",
      "taf": "TAF LPMA 142300Z 1500/1524 02012KT 9999 SCT015"
    },
    {
      "icao": "LPPR",
      "alert": "OK",
      "vis_m": 5000,
      "fzfg": false,
      "metar_trigger": false,
      "taf_trigger": false,
      "metar": "METAR LPPR 150430Z 24006KT 200V270 5000 -SHRA BR FEW004 SCT008 BKN012 11/11 Q1028",
      "taf": "TAF LPPR 142300Z 1500/1524 VRB02KT 9999 FEW012 BKN025"
    },
    {
      "icao": "LPPS",
      "alert": "OK",
      "vis_m": 9999,
      "fzfg": false,
      "metar_trigger": false,
      "taf_trigger": false,
      "metar": "METAR LPPS 150430Z 05006KT 010V070 9999 FEW015 14/09 Q1032",
      "taf": "TAF LPPS 142300Z 1500/1606 06010KT 9999 SCT015"
    },
    {
      "icao": "LPPT",
      "alert": "OK",
      "vis_m": 9999,
      "fzfg": false,
      "metar_trigger": false,
      "taf_trigger": false,
      "metar": "METAR LPPT 150430Z 28005KT 9999 FEW022 BKN027 11/08 Q1030",
      "taf": "TAF LPPT 142300Z 1500/1606 29005KT 9999 SCT025"
    },
    {
      "icao": "LQBK",
      "alert": "OK",
      "vis_m": 9999,
      "fzfg": false,
      "metar_trigger": false,
      "taf_trigger": false,
      "metar": "METAR LQBK 150430Z 30017KT 9999 RA FEW015 BKN030 OVC043 06/05 Q1001 TEMPO 34017G27KT",
      "taf": "TAF LQBK 142300Z 1500/1524 29005KT 9999 BKN045 TX06/1500Z TNM03/1524Z"
    },
    {
      "icao": "LQSA",
      "alert": "OK",
      "vis_m": 8000,
      "fzfg": false,
      "metar_trigger": false,
      "taf_trigger": false,
      "metar": "METAR LQSA 150430Z VRB02KT 8000 RA SCT020 BKN035 04/04 Q0998 NOSIG",
      "taf": "TAF LQSA 142300Z 1500/1524 12005KT 9999 BKN045 TX05/1500Z TNM03/1524Z"
    },
    {
      "icao": "LQTZ",
      "alert": "OK",
      "vis_m": 3000,
      "fzfg": false,
      "metar_trigger": false,
      "taf_trigger": false,
      "metar": "METAR LQTZ 150430Z 28005KT 3000 -RA BR SCT009 BKN020 OVC040 06/06 Q0998",
      "taf": "TAF LQTZ 142300Z 1500/1524 16005KT 9999 SCT025 BKN045 TX07/1500Z TNM02/1524Z"
    },
    {
      "icao": "LRBC",
      "alert": "OK",
      "vis_m": 200,
      "fzfg": false,
      "metar_trigger": false,
      "taf_trigger": false,
      "metar": "METAR LRBC 150430Z 00000KT 0200 R16/0550N FG VV002 04/04 Q1005",
      "taf": "TAF LRBC 150200Z 1503/1512 16008KT 0200 FG VV001"
    },
    {
      "icao": "LRBS",
      "alert": "OK",
      "vis_m": 3500,
      "fzfg": false,
      "metar_trigger": false,
      "taf_trigger": false,
      "metar": "METAR LRBS 150430Z 06007KT 3500 BR FEW002 05/05 Q1004 NOSIG",
      "taf": "TAF LRBS 142300Z 1500/1524 05010KT 1500 BR BKN005"
    },
    {
      "icao": "LRBV",
      "alert": "OK",
      "vis_m": 9999,
      "fzfg": false,
      "metar_trigger": false,
      "taf_trigger": false,
      "metar": "METAR LRBV 150430Z AUTO 12003KT 070V160 9999 FEW049/// BKN080/// OVC094/// 05/01 Q1002",
      "taf": "TAF LRBV 150200Z 1503/1512 VRB04KT 9999 BKN050"
    },
    {
      "icao": "LRCL",
      "alert": "OK",
      "vis_m": 9999,
      "fzfg": false,
      "metar_trigger": false,
      "taf_trigger": false,
      "metar": "METAR LRCL 150430Z 00000KT CAVOK 02/01 Q1003",
      "taf": "TAF LRCL 150200Z 1503/1512 VRB04KT 7000 NSC"
    },
    {
      "icao": "LRCV",
      "alert": "OK",
      "vis_m": 7000,
      "fzfg": false,
      "metar_trigger": false,
      "taf_trigger": false,
      "metar": "METAR LRCV 150430Z 09010KT 7000 -RA NSC 07/06 Q1001",
      "taf": "TAF LRCV 150200Z 1503/1512 07014KT 5000 -RA BR SCT015 BKN040"
    },
    {
      "icao": "LRIA",
      "alert": "OK",
      "vis_m": 9999,
      "fzfg": false,
      "metar_trigger": false,
      "taf_trigger": false,
      "metar": "METAR LRIA 150430Z 10011KT CAVOK 05/04 Q1006",
      "taf": "TAF LRIA 150200Z 1503/1512 09010KT 7000 NSC"
    },
    {
      "icao": "LROP",
      "alert": "OK",
      "vis_m": 2500,
      "fzfg": false,
      "metar_trigger": false,
      "taf_trigger": false,
      "metar": "METAR LROP 150430Z 06009KT 2500 BR NSC 05/05 Q1004 NOSIG",
      "taf": "TAF LROP 142300Z 1500/1524 05010KT 1500 BR BKN005"
    },
    {
      "icao": "LRSB",
      "alert": "OK",
      "vis_m": 9999,
      "fzfg": false,
      "metar_trigger": false,
      "taf_trigger": false,
      "metar": "METAR LRSB 150430Z 13004KT 100V180 9999 SCT048 BKN078 08/04 Q1001",
      "taf": "TAF LRSB 142300Z 1500/1524 VRB04KT CAVOK"
    },
    {
      "icao": "LRSM",
      "alert": "OK",
      "vis_m": 9999,
      "fzfg": false,
      "metar_trigger": false,
      "taf_trigger": false,
      "metar": "METAR LRSM 150430Z AUTO 33005KT 9999 OVC075/// 05/03 Q1003",
      "taf": "TAF LRSM 150200Z 1503/1512 08006KT 9999 BKN045"
    },
    {
      "icao": "LRSV",
      "alert": "OK",
      "vis_m": 250,
      "fzfg": false,
      "metar_trigger": false,
      "taf_trigger": false,
      "metar": "METAR LRSV 150430Z 33005KT 0250 R34/0450N FG VV001 02/02 Q1005",
      "taf": "TAF LRSV 150200Z 1503/1512 VRB04KT 0250 FG VV002"
    },
    {
      "icao": "LRTM",
      "alert": "OK",
      "vis_m": 9999,
      "fzfg": false,
      "metar_trigger": false,
      "taf_trigger": false,
      "metar": "METAR LRTM 150430Z AUTO 09005KT 9999 NCD 04/02 Q1003",
      "taf": "TAF LRTM 150200Z 1503/1512 08006KT CAVOK"
    },
    {
      "icao": "LRTR",
      "alert": "OK",
      "vis_m": 9999,
      "fzfg": false,
      "metar_trigger": false,
      "taf_trigger": false,
      "metar": "METAR LRTR 150430Z 08006KT 9999 -RA BKN043 07/07 Q1001",
      "taf": "TAF LRTR 142300Z 1500/1524 10007KT 9999 BKN045"
    },
    {
      "icao": "LTAC",
      "alert": "OK",
      "vis_m": 4800,
      "fzfg": false,
      "metar_trigger": false,
      "taf_trigger": false,
      "metar": "METAR LTAC 150450Z VRB02KT 4800 BR NSC M01/M01 Q1019 NOSIG RMK RWY21C 36002KT RWY03L VRB01KT RWY21R VRB02KT RWY03R 00000KT RWY21L VRB01KT",
      "taf": "TAF LTAC 150440Z 1506/1606 VRB02KT CAVOK"
    },
    {
      "icao": "LTFM",
      "alert": "OK",
      "vis_m": 9999,
      "fzfg": false,
      "metar_trigger": false,
      "taf_trigger": false,
      "metar": "METAR LTFM 150450Z 17012KT CAVOK 12/05 Q1009 NOSIG RMK RWY17L 18009KT RWY34L 16011KT RWY16R 18011KT RWY36 17014KT RWY18 18015KT",
      "taf": "TAF LTFM 150440Z 1506/1612 16012KT CAVOK"
    },
    {
      "icao": "LUKK",
      "alert": "OK",
      "vis_m": 450,
      "fzfg": false,
      "metar_trigger": false,
      "taf_trigger": false,
      "metar": "METAR LUKK 150430Z 09009KT 0450 0400SE R08/0500N -RA FG VV001 01/01 Q1008 NOSIG",
      "taf": ""
    },
    {
      "icao": "LWOH",
      "alert": "OK",
      "vis_m": null,
      "fzfg": false,
      "metar_trigger": false,
      "taf_trigger": false,
      "metar": "",
      "taf": "TAF LWOH 150230Z 1503/1603 35005KT 9999 -RA SCT015 OVC035"
    },
    {
      "icao": "LWSK",
      "alert": "OK",
      "vis_m": 9999,
      "fzfg": false,
      "metar_trigger": false,
      "taf_trigger": false,
      "metar": "METAR LWSK 150450Z 17007KT 120V210 9999 -RA SCT015 OVC050 11/09 Q0999 NOSIG",
      "taf": "TAF LWSK 150230Z 1503/1603 14012KT 9999 RA SCT035 OVC070"
    },
    {
      "icao": "LYBE",
      "alert": "OK",
      "vis_m": 6000,
      "fzfg": false,
      "metar_trigger": false,
      "taf_trigger": false,
      "metar": "METAR LYBE 150430Z 08008KT 6000 RA SCT007 BKN027 08/07 Q1000 NOSIG",
      "taf": "TAF LYBE 142300Z 1500/1524 08008KT 9999 BKN035 TX08/1500Z TNM01/1524Z"
    },
    {
      "icao": "LYNI",
      "alert": "OK",
      "vis_m": 9999,
      "fzfg": false,
      "metar_trigger": false,
      "taf_trigger": false,
      "metar": "METAR LYNI 150430Z 11010KT 9999 -RA FEW017 SCT050 OVC085 08/08 Q0998 RERA NOSIG",
      "taf": "TAF LYNI 142300Z 1500/1524 10006KT 9999 BKN035 BKN070 TX13/1511Z TN01/1524Z"
    },
    {
      "icao": "LYPG",
      "alert": "OK",
      "vis_m": 9999,
      "fzfg": false,
      "metar_trigger": false,
      "taf_trigger": false,
      "metar": "METAR LYPG 150430Z 28005KT 9999 -RA FEW007 SCT040 OVC070 08/08 Q0996 NOSIG",
      "taf": "TAF LYPG 142300Z 1500/1524 36005KT 9999 FEW010 BKN034 OVC070 TX11/1512Z TN07/1518Z"
    },
    {
      "icao": "LZIB",
      "alert": "OK",
      "vis_m": 9999,
      "fzfg": false,
      "metar_trigger": false,
      "taf_trigger": false,
      "metar": "METAR LZIB 150500Z 35018KT 9999 -SN BKN021 01/M03 Q1010 NOSIG",
      "taf": ""
    },
    {
      "icao": "LZKZ",
      "alert": "OK",
      "vis_m": 9999,
      "fzfg": false,
      "metar_trigger": false,
      "taf_trigger": false,
      "metar": "METAR LZKZ 150500Z 36024KT CAVOK 02/M02 Q1005 NOSIG",
      "taf": "TAF LZKZ 142315Z 1500/1600 01010KT CAVOK"
    },
    {
      "icao": "LZTT",
      "alert": "OK",
      "vis_m": 9999,
      "fzfg": false,
      "metar_trigger": false,
      "taf_trigger": false,
      "metar": "METAR LZTT 150500Z 06012KT 9999 OVC010 M02/M04 Q1006",
      "taf": "TAF LZTT 142315Z 1500/1600 08005KT 9999 OVC023"
    },
    {
      "icao": "OEJN",
      "alert": "OK",
      "vis_m": 9999,
      "fzfg": false,
      "metar_trigger": false,
      "taf_trigger": false,
      "metar": "METAR OEJN 150500Z 33006KT CAVOK 23/15 Q1014 NOSIG",
      "taf": "TAF OEJN 150500Z 1506/1612 29010KT CAVOK"
    },
    {
      "icao": "OEMA",
      "alert": "OK",
      "vis_m": 9999,
      "fzfg": false,
      "metar_trigger": false,
      "taf_trigger": false,
      "metar": "METAR OEMA 150500Z 04009KT CAVOK 19/M07 Q1022 NOSIG",
      "taf": "TAF OEMA 150500Z 1506/1612 08015KT 7000 NSC"
    },
    {
      "icao": "OJAI",
      "alert": "OK",
      "vis_m": 3000,
      "fzfg": false,
      "metar_trigger": false,
      "taf_trigger": false,
      "metar": "METAR OJAI 150500Z 09003KT 3000 DU NSC 04/02 Q1022 NOSIG",
      "taf": "TAF OJAI 142300Z 1500/1606 22010KT 2000 DU NSC"
    },
    {
      "icao": "OMAA",
      "alert": "OK",
      "vis_m": 9999,
      "fzfg": false,
      "metar_trigger": false,
      "taf_trigger": false,
      "metar": "METAR OMAA 150500Z 18003KT CAVOK 22/07 Q1016 NOSIG",
      "taf": "TAF OMAA 150500Z 1506/1612 16006KT 8000 NSC"
    },
    {
      "icao": "OMDB",
      "alert": "OK",
      "vis_m": 9999,
      "fzfg": false,
      "metar_trigger": false,
      "taf_trigger": false,
      "metar": "METAR OMDB 150500Z VRB04KT CAVOK 24/04 Q1016 NOSIG",
      "taf": "TAF OMDB 150500Z 1506/1612 20005KT CAVOK"
    },
    {
      "icao": "UAAA",
      "alert": "CRITICAL",
      "vis_m": 50,
      "fzfg": true,
      "metar_trigger": true,
      "taf_trigger": false,
      "metar": "METAR UAAA 150430Z 00000MPS 0050 R23L/0125N FZFG VV001 M03/M04 Q1021 NOSIG RMK QBB050",
      "taf": ""
    },
    {
      "icao": "UBBB",
      "alert": "OK",
      "vis_m": 9999,
      "fzfg": false,
      "metar_trigger": false,
      "taf_trigger": false,
      "metar": "METAR UBBB 150500Z 33020G30KT 9999 SCT060CB 08/06 Q1014 NOSIG",
      "taf": "TAF UBBB 150459Z 1506/1606 32020G30KT 9999 SCT012 BKN035 TX11/1510Z TN05/1601Z"
    },
    {
      "icao": "UDSG",
      "alert": "OK",
      "vis_m": 6000,
      "fzfg": false,
      "metar_trigger": false,
      "taf_trigger": false,
      "metar": "METAR UDSG 150430Z 08003KT 6000 SCT043 M02/M02 Q1021 NOSIG",
      "taf": "TAF UDSG 142300Z 1500/1524 VRB06KT 1200 BR BKN010"
    },
    {
      "icao": "UDYZ",
      "alert": "OK",
      "vis_m": 9999,
      "fzfg": false,
      "metar_trigger": false,
      "taf_trigger": false,
      "metar": "METAR UDYZ 150430Z VRB02KT 9999 FEW046 01/00 Q1019 NOSIG",
      "taf": "TAF UDYZ 142300Z 1500/1524 VRB04KT 3500 BR FEW040"
    },
    {
      "icao": "UGKO",
      "alert": "OK",
      "vis_m": 9999,
      "fzfg": false,
      "metar_trigger": false,
      "taf_trigger": false,
      "metar": "METAR UGKO 150430Z 29008KT 9999 BKN006 OVC007 09/09 Q1021 NOSIG",
      "taf": "TAF UGKO 142300Z 1500/1524 25007KT 9999 BKN050 TX18/1511Z TN10/1504Z"
    }
  ]
}