{
  "ts_utc": "2026-01-28T12:26:37Z",
  "threshold_m": 150,
  "source": "stations_override.txt (ICAO list) + aviationweather.gov (METAR/TAF raw)",
  "station_count": 159,
  "stations": [
    {
      "icao": "BIKF",
      "alert": "OK",
      "vis_m": 9999,
      "fzfg": false,
      "metar_trigger": false,
      "taf_trigger": false,
      "metar": "METAR BIKF 281200Z 08017KT CAVOK 04/M06 Q0999",
      "taf": "TAF BIKF 281033Z 2812/2912 07020G30KT CAVOK TX05/2812Z TN02/2904Z"
    },
    {
      "icao": "BKPR",
      "alert": "OK",
      "vis_m": null,
      "fzfg": false,
      "metar_trigger": false,
      "taf_trigger": false,
      "metar": "",
      "taf": "TAF BKPR 281130Z 2812/2912 17012KT 9999 BKN050"
    },
    {
      "icao": "EBCI",
      "alert": "OK",
      "vis_m": 4500,
      "fzfg": false,
      "metar_trigger": false,
      "taf_trigger": false,
      "metar": "METAR EBCI 281220Z 35004KT 300V020 4500 BR SCT003 06/04 Q0994 TEMPO 1200 BR BKN002",
      "taf": "TAF EBCI 281101Z 2812/2918 02003KT 1200 BR MIFG SCT002 BKN003"
    },
    {
      "icao": "EDDB",
      "alert": "OK",
      "vis_m": 9999,
      "fzfg": false,
      "metar_trigger": false,
      "taf_trigger": false,
      "metar": "METAR EDDB 281220Z AUTO 07010KT 9999 BKN012 M00/M02 Q1000 TEMPO SCT012",
      "taf": ""
    },
    {
      "icao": "EDDH",
      "alert": "OK",
      "vis_m": 9999,
      "fzfg": false,
      "metar_trigger": false,
      "taf_trigger": false,
      "metar": "METAR EDDH 281220Z AUTO 09010KT 060V130 9999 BKN016 01/M02 Q1001 TEMPO OVC014",
      "taf": "TAF EDDH 281100Z 2812/2918 09011KT 9999 OVC013"
    },
    {
      "icao": "EDDK",
      "alert": "OK",
      "vis_m": 9999,
      "fzfg": false,
      "metar_trigger": false,
      "taf_trigger": false,
      "metar": "METAR EDDK 281220Z AUTO VRB02KT 9999 OVC007 05/04 Q0994 TEMPO BKN010",
      "taf": "TAF EDDK 281100Z 2812/2918 VRB03KT 9999 BKN010"
    },
    {
      "icao": "EDDN",
      "alert": "OK",
      "vis_m": 9999,
      "fzfg": false,
      "metar_trigger": false,
      "taf_trigger": false,
      "metar": "METAR EDDN 281220Z AUTO 04006KT 360V070 CAVOK 04/M00 Q0991 NOSIG",
      "taf": "TAF EDDN 281100Z 2812/2912 05005KT CAVOK"
    },
    {
      "icao": "EDDS",
      "alert": "OK",
      "vis_m": 9999,
      "fzfg": false,
      "metar_trigger": false,
      "taf_trigger": false,
      "metar": "METAR EDDS 281220Z AUTO 35007KT 320V040 9999 FEW008 04/02 Q0989 NOSIG",
      "taf": "TAF EDDS 281100Z 2812/2912 34003KT 9999 OVC025"
    },
    {
      "icao": "EDFH",
      "alert": "OK",
      "vis_m": 6000,
      "fzfg": false,
      "metar_trigger": false,
      "taf_trigger": false,
      "metar": "METAR EDFH 281220Z 02005KT 330V050 6000 -RA OVC002 03/03 Q0992",
      "taf": "TAF EDFH 281100Z 2812/2912 05005KT 2000 -RADZ OVC004"
    },
    {
      "icao": "EDJA",
      "alert": "OK",
      "vis_m": 9999,
      "fzfg": false,
      "metar_trigger": false,
      "taf_trigger": false,
      "metar": "METAR EDJA 281220Z VRB01KT 9999 OVC007 00/M02 Q0989",
      "taf": "TAF EDJA 281100Z 2812/2821 31004KT 6000 OVC005"
    },
    {
      "icao": "EDLW",
      "alert": "OK",
      "vis_m": 9000,
      "fzfg": false,
      "metar_trigger": false,
      "taf_trigger": false,
      "metar": "METAR EDLW 281220Z 01006KT 340V040 9000 -SN SCT003 OVC005 01/01 Q0994",
      "taf": "TAF EDLW 281100Z 2812/2912 07007KT 3000 -DZ BR OVC005"
    },
    {
      "icao": "EDNY",
      "alert": "OK",
      "vis_m": 9999,
      "fzfg": false,
      "metar_trigger": false,
      "taf_trigger": false,
      "metar": "METAR EDNY 281220Z 05006KT CAVOK 02/00 Q0990",
      "taf": "TAF EDNY 281100Z 2812/2821 VRB03KT 9999 OVC010"
    },
    {
      "icao": "EDSB",
      "alert": "OK",
      "vis_m": 9999,
      "fzfg": false,
      "metar_trigger": false,
      "taf_trigger": false,
      "metar": "METAR EDSB 281220Z 03010KT 9999 OVC005 04/04 Q0991",
      "taf": "TAF EDSB 281100Z 2812/2912 02007KT 9999 OVC004"
    },
    {
      "icao": "EETN",
      "alert": "OK",
      "vis_m": 9999,
      "fzfg": false,
      "metar_trigger": false,
      "taf_trigger": false,
      "metar": "METAR EETN 281220Z 08012KT 9999 OVC009 M08/M10 Q1014 NOSIG",
      "taf": "TAF EETN 281130Z 2812/2912 07012KT 9999 OVC008"
    },
    {
      "icao": "EFTU",
      "alert": "OK",
      "vis_m": 9999,
      "fzfg": false,
      "metar_trigger": false,
      "taf_trigger": false,
      "metar": "METAR EFTU 281220Z AUTO 08007KT 9999 FEW008 M12/M13 Q1016",
      "taf": "TAF EFTU 281133Z 2812/2912 08005KT CAVOK"
    },
    {
      "icao": "EGBB",
      "alert": "OK",
      "vis_m": 9999,
      "fzfg": false,
      "metar_trigger": false,
      "taf_trigger": false,
      "metar": "METAR EGBB 281220Z 10003KT 060V140 CAVOK 07/04 Q0994",
      "taf": "TAF EGBB 281101Z 2812/2912 14004KT 9999 FEW025"
    },
    {
      "icao": "EGGP",
      "alert": "OK",
      "vis_m": 9999,
      "fzfg": false,
      "metar_trigger": false,
      "taf_trigger": false,
      "metar": "METAR EGGP 281220Z 12006KT 9999 FEW025 07/03 Q0994",
      "taf": "TAF EGGP 281055Z 2812/2912 12006KT 9999 FEW035"
    },
    {
      "icao": "EGGW",
      "alert": "OK",
      "vis_m": 9999,
      "fzfg": false,
      "metar_trigger": false,
      "taf_trigger": false,
      "metar": "METAR EGGW 281220Z AUTO 15004KT 110V190 9999 NCD 07/04 Q0994",
      "taf": "TAF EGGW 281101Z 2812/2912 10006KT 9999 FEW030"
    },
    {
      "icao": "EGKK",
      "alert": "OK",
      "vis_m": 9999,
      "fzfg": false,
      "metar_trigger": false,
      "taf_trigger": false,
      "metar": "METAR EGKK 281220Z VRB03KT 9999 FEW019 08/07 Q0994",
      "taf": "TAF EGKK 281100Z 2812/2918 09004KT 9999 FEW020 SCT030"
    },
    {
      "icao": "EGNM",
      "alert": "OK",
      "vis_m": 9999,
      "fzfg": false,
      "metar_trigger": false,
      "taf_trigger": false,
      "metar": "METAR EGNM 281220Z 06003KT 020V110 9999 4000E VCFG FEW009 05/03 Q0994",
      "taf": ""
    },
    {
      "icao": "EGPD",
      "alert": "OK",
      "vis_m": 7000,
      "fzfg": false,
      "metar_trigger": false,
      "taf_trigger": false,
      "metar": "METAR EGPD 281220Z AUTO 13010KT 7000 -RA BKN006 OVC015 07/06 Q0995 RERA REDZ NOSIG",
      "taf": "TAF EGPD 281053Z 2812/2912 13011KT 9999 BKN010"
    },
    {
      "icao": "EGPF",
      "alert": "OK",
      "vis_m": 9999,
      "fzfg": false,
      "metar_trigger": false,
      "taf_trigger": false,
      "metar": "METAR EGPF 281220Z AUTO 08006KT 040V120 9999 NCD 07/04 Q0994",
      "taf": "TAF EGPF 281056Z 2812/2912 09005KT 9999 SCT040"
    },
    {
      "icao": "EHBK",
      "alert": "OK",
      "vis_m": 1700,
      "fzfg": false,
      "metar_trigger": false,
      "taf_trigger": false,
      "metar": "METAR EHBK 281155Z AUTO 34003KT 1700 BR OVC001/// 05/05 Q0994 NOSIG",
      "taf": "TAF EHBK 281105Z 2812/2918 01005KT 2000 BR BKN001"
    },
    {
      "icao": "EHEH",
      "alert": "OK",
      "vis_m": null,
      "fzfg": false,
      "metar_trigger": false,
      "taf_trigger": false,
      "metar": "",
      "taf": "TAF EHEH 281143Z 2812/2918 05004KT 3000 BR BKN005 OVC006"
    },
    {
      "icao": "EKBI",
      "alert": "OK",
      "vis_m": 9999,
      "fzfg": false,
      "metar_trigger": false,
      "taf_trigger": false,
      "metar": "METAR EKBI 281220Z AUTO 07013KT 9999 -SN OVC010/// M01/M03 Q1005",
      "taf": ""
    },
    {
      "icao": "EKCH",
      "alert": "OK",
      "vis_m": 9999,
      "fzfg": false,
      "metar_trigger": false,
      "taf_trigger": false,
      "metar": "METAR EKCH 281220Z 05015KT 9999 BKN015 M01/M04 Q1007 NOSIG",
      "taf": "TAF EKCH 281127Z 2812/2912 05015KT 9999 BKN013"
    },
    {
      "icao": "ENAL",
      "alert": "OK",
      "vis_m": 9999,
      "fzfg": false,
      "metar_trigger": false,
      "taf_trigger": false,
      "metar": "METAR ENAL 281220Z 16006KT CAVOK 01/M06 Q1008",
      "taf": "TAF ENAL 281100Z 2812/2821 16006KT CAVOK"
    },
    {
      "icao": "ENBR",
      "alert": "OK",
      "vis_m": 9999,
      "fzfg": false,
      "metar_trigger": false,
      "taf_trigger": false,
      "metar": "METAR ENBR 281220Z 18003KT CAVOK M02/M08 Q1008 NOSIG RMK WIND 1200FT 00000KT",
      "taf": "TAF ENBR 281100Z 2812/2912 14005KT CAVOK"
    },
    {
      "icao": "ENGM",
      "alert": "OK",
      "vis_m": 9999,
      "fzfg": false,
      "metar_trigger": false,
      "taf_trigger": false,
      "metar": "METAR ENGM 281220Z 03008KT 9999 -SN OVC026 M09/M12 Q1015 NOSIG",
      "taf": "TAF ENGM 281100Z 2812/2912 02007KT 9999 -SN BKN025"
    },
    {
      "icao": "ENHD",
      "alert": "OK",
      "vis_m": 9999,
      "fzfg": false,
      "metar_trigger": false,
      "taf_trigger": false,
      "metar": "METAR ENHD 281220Z 10009KT 030V140 CAVOK M01/M10 Q1008",
      "taf": "TAF ENHD 281100Z 2812/2821 07005KT CAVOK"
    },
    {
      "icao": "ENTC",
      "alert": "OK",
      "vis_m": 9999,
      "fzfg": false,
      "metar_trigger": false,
      "taf_trigger": false,
      "metar": "METAR ENTC 281220Z 22010KT 9999 SCT006 M06/M08 Q1014 NOSIG RMK WIND 2600FT 20006KT",
      "taf": "TAF ENTC 281100Z 2812/2912 22015KT 9999 FEW010 SCT015"
    },
    {
      "icao": "ENTO",
      "alert": "OK",
      "vis_m": 9999,
      "fzfg": false,
      "metar_trigger": false,
      "taf_trigger": false,
      "metar": "METAR ENTO 281220Z 02010KT 9999 OVC030 M06/M09 Q1014 NOSIG",
      "taf": "TAF ENTO 281100Z 2812/2912 02008KT 9999 -SN BKN025"
    },
    {
      "icao": "ENVA",
      "alert": "OK",
      "vis_m": 9999,
      "fzfg": false,
      "metar_trigger": false,
      "taf_trigger": false,
      "metar": "METAR ENVA 281220Z 10009KT 080V140 CAVOK M07/M17 Q1011 NOSIG RMK WIND 670FT 14017KT",
      "taf": "TAF ENVA 281100Z 2812/2912 10008KT CAVOK"
    },
    {
      "icao": "ENZV",
      "alert": "OK",
      "vis_m": 9999,
      "fzfg": false,
      "metar_trigger": false,
      "taf_trigger": false,
      "metar": "METAR ENZV 281220Z 11013KT 9999 SCT048 M01/M15 Q1008 NOSIG",
      "taf": "TAF ENZV 281100Z 2812/2912 14006KT CAVOK"
    },
    {
      "icao": "EPGD",
      "alert": "OK",
      "vis_m": 9999,
      "fzfg": false,
      "metar_trigger": false,
      "taf_trigger": false,
      "metar": "METAR EPGD 281200Z 04007KT 360V070 9999 OVC005 M03/M03 Q1002",
      "taf": "TAF EPGD 281130Z 2812/2912 05008KT 9999 BKN007"
    },
    {
      "icao": "EPKK",
      "alert": "OK",
      "vis_m": 5000,
      "fzfg": false,
      "metar_trigger": false,
      "taf_trigger": false,
      "metar": "METAR EPKK 281200Z 07004KT 010V090 5000 BR OVC038 02/M01 Q0997",
      "taf": "TAF EPKK 281130Z 2812/2912 08005KT 4500 BR BKN040"
    },
    {
      "icao": "EPKT",
      "alert": "OK",
      "vis_m": 6000,
      "fzfg": false,
      "metar_trigger": false,
      "taf_trigger": false,
      "metar": "METAR EPKT 281200Z 06007KT 6000 SCT008 BKN043 02/M00 Q0997",
      "taf": "TAF EPKT 281130Z 2812/2912 04005KT 6000 OVC040"
    },
    {
      "icao": "EPLB",
      "alert": "OK",
      "vis_m": 6000,
      "fzfg": false,
      "metar_trigger": false,
      "taf_trigger": false,
      "metar": "METAR EPLB 281200Z 28004KT 6000 -SN OVC010 01/00 Q0998",
      "taf": "TAF EPLB 281130Z 2812/2912 VRB02KT 6000 BKN010"
    },
    {
      "icao": "EPMO",
      "alert": "OK",
      "vis_m": 3800,
      "fzfg": false,
      "metar_trigger": false,
      "taf_trigger": false,
      "metar": "METAR EPMO 281200Z 26004KT 3800 BR BKN013 BKN022 M01/M02 Q1000",
      "taf": "TAF EPMO 281130Z 2812/2912 33005KT 6000 BKN012"
    },
    {
      "icao": "EPPO",
      "alert": "OK",
      "vis_m": 9999,
      "fzfg": false,
      "metar_trigger": false,
      "taf_trigger": false,
      "metar": "METAR EPPO 281200Z 08007KT 9999 BKN015 00/M03 Q1001",
      "taf": "TAF EPPO 281130Z 2812/2912 07006KT 9999 BKN020"
    },
    {
      "icao": "EPRA",
      "alert": "OK",
      "vis_m": 2200,
      "fzfg": false,
      "metar_trigger": false,
      "taf_trigger": false,
      "metar": "METAR EPRA 281200Z 34005KT 2200 BR OVC003 M00/M01 Q0999",
      "taf": "TAF EPRA 281130Z 2812/2821 35006KT 3000 BR OVC003"
    },
    {
      "icao": "EPRZ",
      "alert": "OK",
      "vis_m": 9999,
      "fzfg": false,
      "metar_trigger": false,
      "taf_trigger": false,
      "metar": "METAR EPRZ 281200Z 23009KT 9999 BKN016 04/00 Q0998",
      "taf": "TAF EPRZ 281130Z 2812/2912 19010KT 9999 OVC035"
    },
    {
      "icao": "EPSC",
      "alert": "OK",
      "vis_m": 3400,
      "fzfg": false,
      "metar_trigger": false,
      "taf_trigger": false,
      "metar": "METAR EPSC 281200Z 03004KT 350V050 3400 BR OVC003 M00/M01 Q1002",
      "taf": "TAF EPSC 281130Z 2812/2912 06008KT 9999 BKN005 BKN011"
    },
    {
      "icao": "EPSY",
      "alert": "OK",
      "vis_m": 3300,
      "fzfg": false,
      "metar_trigger": false,
      "taf_trigger": false,
      "metar": "METAR EPSY 281200Z 02007KT 3300 BR SCT003 OVC005 M02/M03 Q1000",
      "taf": "TAF EPSY 281130Z 2812/2821 02008KT 4000 BR OVC005"
    },
    {
      "icao": "EPWA",
      "alert": "OK",
      "vis_m": 4500,
      "fzfg": false,
      "metar_trigger": false,
      "taf_trigger": false,
      "metar": "METAR EPWA 281200Z 32006KT 4500 BR BKN006 M00/M01 Q1000 BECMG 7000",
      "taf": "TAF EPWA 281130Z 2812/2912 34005KT 3500 BR BKN006"
    },
    {
      "icao": "EPWR",
      "alert": "OK",
      "vis_m": 9000,
      "fzfg": false,
      "metar_trigger": false,
      "taf_trigger": false,
      "metar": "METAR EPWR 281200Z 06008KT 9000 BKN012 02/M01 Q0999",
      "taf": "TAF EPWR 281130Z 2812/2912 08008KT 9999 BKN013"
    },
    {
      "icao": "ESGG",
      "alert": "OK",
      "vis_m": 9999,
      "fzfg": false,
      "metar_trigger": false,
      "taf_trigger": false,
      "metar": "METAR ESGG 281220Z 07011KT CAVOK M02/M09 Q1008",
      "taf": "TAF ESGG 281130Z 2812/2912 07012KT 9999 SCT025"
    },
    {
      "icao": "ESKN",
      "alert": "OK",
      "vis_m": 9999,
      "fzfg": false,
      "metar_trigger": false,
      "taf_trigger": false,
      "metar": "METAR ESKN 281220Z 02007KT 350V050 9999 BKN035 M03/M07 Q1013",
      "taf": "TAF ESKN 281130Z 2812/2912 04010KT 9999 BKN035"
    },
    {
      "icao": "ESMS",
      "alert": "OK",
      "vis_m": 9999,
      "fzfg": false,
      "metar_trigger": false,
      "taf_trigger": false,
      "metar": "METAR ESMS 281220Z 06014KT 9999 OVC013 M01/M03 Q1005",
      "taf": "TAF ESMS 281127Z 2812/2912 05012KT 9999 OVC008"
    },
    {
      "icao": "ESSA",
      "alert": "OK",
      "vis_m": 9999,
      "fzfg": false,
      "metar_trigger": false,
      "taf_trigger": false,
      "metar": "METAR ESSA 281220Z 03008KT CAVOK M05/M08 Q1015 NOSIG",
      "taf": "TAF ESSA 281130Z 2812/2912 05010KT 9999 SCT015"
    },
    {
      "icao": "EYKA",
      "alert": "OK",
      "vis_m": 9999,
      "fzfg": false,
      "metar_trigger": false,
      "taf_trigger": false,
      "metar": "METAR EYKA 281220Z 02006KT 340V050 9999 -SN OVC010 M06/M08 Q1002",
      "taf": "TAF EYKA 281100Z 2812/2912 03008KT 5000 SN BR OVC010"
    },
    {
      "icao": "EYPA",
      "alert": "OK",
      "vis_m": 6000,
      "fzfg": false,
      "metar_trigger": false,
      "taf_trigger": false,
      "metar": "METAR EYPA 281220Z 06014KT 6000 -SN NSC M06/M10 Q1005",
      "taf": "TAF EYPA 281100Z 2812/2912 06011KT 5000 SN BR SCT020"
    },
    {
      "icao": "EYVI",
      "alert": "OK",
      "vis_m": 5000,
      "fzfg": false,
      "metar_trigger": false,
      "taf_trigger": false,
      "metar": "METAR EYVI 281220Z 05009KT 5000 -SN BR BKN006 OVC021 M05/M07 Q1000 TEMPO 3000 SN BR",
      "taf": "TAF EYVI 281100Z 2812/2912 04010KT 5000 SN BR BKN005 OVC015"
    },
    {
      "icao": "GCFV",
      "alert": "OK",
      "vis_m": 9999,
      "fzfg": false,
      "metar_trigger": false,
      "taf_trigger": false,
      "metar": "METAR GCFV 281200Z 28009G20KT 250V360 9999 FEW020 BKN028 21/15 Q1022",
      "taf": "TAF GCFV 280800Z 2809/2909 34012KT 9999 SCT030 TX22/2814Z TN14/2906Z"
    },
    {
      "icao": "GCLP",
      "alert": "OK",
      "vis_m": 9999,
      "fzfg": false,
      "metar_trigger": false,
      "taf_trigger": false,
      "metar": "METAR GCLP 281200Z 11004KT 060V160 9999 FEW020 BKN035 20/16 Q1023 NOSIG",
      "taf": "TAF GCLP 280800Z 2809/2909 VRB05KT 9999 FEW030 TX22/2814Z TN15/2906Z"
    },
    {
      "icao": "GCTS",
      "alert": "OK",
      "vis_m": 9999,
      "fzfg": false,
      "metar_trigger": false,
      "taf_trigger": false,
      "metar": "METAR GCTS 281200Z 14006KT 100V180 9999 FEW030 22/15 Q1023 NOSIG",
      "taf": "TAF GCTS 280800Z 2809/2909 VRB05KT 9999 SCT030 TX22/2814Z TN16/2906Z"
    },
    {
      "icao": "GMAD",
      "alert": "OK",
      "vis_m": 6000,
      "fzfg": false,
      "metar_trigger": false,
      "taf_trigger": false,
      "metar": "METAR GMAD 281200Z 27008KT 6000 SCT006 SCT016 18/18 Q1021 NOSIG",
      "taf": "TAF GMAD 281100Z 2812/2918 28012KT 8000 SCT020 BKN080"
    },
    {
      "icao": "GMMN",
      "alert": "OK",
      "vis_m": 9999,
      "fzfg": false,
      "metar_trigger": false,
      "taf_trigger": false,
      "metar": "METAR GMMN 281200Z 23018KT 200V260 9999 SCT016 BKN023 16/13 Q1018 NOSIG",
      "taf": "TAF GMMN 281100Z 2812/2918 23018KT 9999 SCT016 BKN023"
    },
    {
      "icao": "GMMX",
      "alert": "OK",
      "vis_m": 8000,
      "fzfg": false,
      "metar_trigger": false,
      "taf_trigger": false,
      "metar": "METAR GMMX 281200Z 28011KT 240V310 8000 SCT020 18/10 Q1020 NOSIG",
      "taf": "TAF GMMX 281100Z 2812/2918 06006KT 8000 SCT033 SCT100"
    },
    {
      "icao": "HEGN",
      "alert": "OK",
      "vis_m": 3000,
      "fzfg": false,
      "metar_trigger": false,
      "taf_trigger": false,
      "metar": "METAR HEGN 281200Z 30011KT 3000 SA NSC 23/M03 Q1016 NOSIG",
      "taf": "TAF HEGN 281100Z 2812/2918 34018KT 34018KT 6000 NSC"
    },
    {
      "icao": "HEMA",
      "alert": "OK",
      "vis_m": 2500,
      "fzfg": false,
      "metar_trigger": false,
      "taf_trigger": false,
      "metar": "METAR HEMA 281200Z 24008KT 2500 DU NSC 24/M05 Q1017 NOSIG",
      "taf": "TAF HEMA 281100Z 2812/2918 36018KT 6000 NSC"
    },
    {
      "icao": "HESH",
      "alert": "OK",
      "vis_m": 2000,
      "fzfg": false,
      "metar_trigger": false,
      "taf_trigger": false,
      "metar": "METAR HESH 281200Z 01009KT 2000 HZ NSC 23/01 Q1016 NOSIG",
      "taf": "TAF HESH 281100Z 2812/2918 36012KT 6000 NSC"
    },
    {
      "icao": "HESX",
      "alert": "OK",
      "vis_m": 9999,
      "fzfg": false,
      "metar_trigger": false,
      "taf_trigger": false,
      "metar": "METAR HESX 281200Z 25014KT 9999 SCT025 20/06 Q1016 NOSIG",
      "taf": "TAF HESX 281100Z 2812/2918 22010KT 9999 SCT020"
    },
    {
      "icao": "LATI",
      "alert": "OK",
      "vis_m": 9999,
      "fzfg": false,
      "metar_trigger": false,
      "taf_trigger": false,
      "metar": "METAR LATI 281220Z 14011KT 9999 SCT070 BKN090 15/01 Q1002 NOSIG",
      "taf": "TAF LATI 281100Z 2812/2912 14012KT 9999 SCT060 BKN080 TX15/2812Z TN06/2905Z"
    },
    {
      "icao": "LBPD",
      "alert": "OK",
      "vis_m": 9999,
      "fzfg": false,
      "metar_trigger": false,
      "taf_trigger": false,
      "metar": "METAR LBPD 281200Z AUTO 11008KT 070V130 9999 NCD 12/04 Q1004 NOSIG",
      "taf": "TAF LBPD 281100Z 2812/2912 VRB04KT CAVOK"
    },
    {
      "icao": "LBSF",
      "alert": "OK",
      "vis_m": 6000,
      "fzfg": false,
      "metar_trigger": false,
      "taf_trigger": false,
      "metar": "METAR LBSF 281200Z 33004KT 300V360 6000 SCT005 BKN007 01/01 Q1005 NOSIG",
      "taf": "TAF LBSF 281100Z 2812/2912 VRB04KT 9999 SCT050"
    },
    {
      "icao": "LBWN",
      "alert": "OK",
      "vis_m": 9999,
      "fzfg": false,
      "metar_trigger": false,
      "taf_trigger": false,
      "metar": "METAR LBWN 281200Z AUTO 19009KT 9999 FEW026/// 12/06 Q1005 NOSIG",
      "taf": "TAF LBWN 281100Z 2812/2912 16010KT 9999 SCT040"
    },
    {
      "icao": "LCLK",
      "alert": "OK",
      "vis_m": 4000,
      "fzfg": false,
      "metar_trigger": false,
      "taf_trigger": false,
      "metar": "METAR LCLK 281200Z 17006KT 150V220 4000 DU FEW045TCU BKN050 17/12 Q1011 TEMPO 3000 DU SHRA",
      "taf": "TAF LCLK 281130Z 2812/2912 20010KT 8000 FEW020 SCT040"
    },
    {
      "icao": "LCPH",
      "alert": "OK",
      "vis_m": 8000,
      "fzfg": false,
      "metar_trigger": false,
      "taf_trigger": false,
      "metar": "METAR LCPH 281200Z VRB02KT 8000 SCT025 BKN050 16/12 Q1011 RERA TEMPO 3000 DU SHRA",
      "taf": "TAF LCPH 281130Z 2812/2912 24006KT 5000 DU SCT030 SCT040"
    },
    {
      "icao": "LEAL",
      "alert": "OK",
      "vis_m": 9999,
      "fzfg": false,
      "metar_trigger": false,
      "taf_trigger": false,
      "metar": "METAR LEAL 281200Z 24011KT 190V260 9999 FEW014 13/10 Q0993 NOSIG",
      "taf": "TAF LEAL 281100Z 2812/2912 30009KT 9999 FEW025 TX21/2814Z TN11/2907Z"
    },
    {
      "icao": "LEBB",
      "alert": "OK",
      "vis_m": 9999,
      "fzfg": false,
      "metar_trigger": false,
      "taf_trigger": false,
      "metar": "METAR LEBB 281200Z 17008KT 120V240 9999 FEW038 12/02 Q0994 NOSIG",
      "taf": "TAF LEBB 281100Z 2812/2912 22009KT 9999 FEW030 TX10/2816Z TN08/2906Z"
    },
    {
      "icao": "LEBL",
      "alert": "OK",
      "vis_m": 9999,
      "fzfg": false,
      "metar_trigger": false,
      "taf_trigger": false,
      "metar": "METAR LEBL 281200Z 30005KT 280V350 9999 FEW015 10/02 Q0995 NOSIG",
      "taf": "TAF LEBL 281100Z 2812/2912 23008KT 9999 FEW020 TX11/2812Z TN07/2906Z"
    },
    {
      "icao": "LECH",
      "alert": "OK",
      "vis_m": 9999,
      "fzfg": false,
      "metar_trigger": false,
      "taf_trigger": false,
      "metar": "METAR LECH 281200Z AUTO 36003KT 330V030 9999 -RA BKN012 06/06 Q0992 RERA",
      "taf": ""
    },
    {
      "icao": "LEMD",
      "alert": "OK",
      "vis_m": 9999,
      "fzfg": false,
      "metar_trigger": false,
      "taf_trigger": false,
      "metar": "METAR LEMD 281200Z 28008KT 240V310 9999 FEW013 SCT032 05/03 Q0995 NOSIG",
      "taf": ""
    },
    {
      "icao": "LEMG",
      "alert": "OK",
      "vis_m": 9999,
      "fzfg": false,
      "metar_trigger": false,
      "taf_trigger": false,
      "metar": "METAR LEMG 281200Z 30013KT 9999 -RA FEW020 SCT055 BKN065 14/10 Q1005 NOSIG",
      "taf": "TAF LEMG 281100Z 2812/2912 29012KT 9999 SCT020 TX19/2814Z TN13/2907Z"
    },
    {
      "icao": "LEVC",
      "alert": "OK",
      "vis_m": 7000,
      "fzfg": false,
      "metar_trigger": false,
      "taf_trigger": false,
      "metar": "METAR LEVC 281200Z 36006KT 320V030 7000 RA FEW007 BKN025 09/08 Q0991 NOSIG",
      "taf": "TAF LEVC 281100Z 2812/2912 15005KT 9999 FEW030 TX17/2814Z TN09/2907Z"
    },
    {
      "icao": "LEXJ",
      "alert": "OK",
      "vis_m": 9999,
      "fzfg": false,
      "metar_trigger": false,
      "taf_trigger": false,
      "metar": "METAR LEXJ 281200Z 23009KT 190V250 CAVOK 11/02 Q0993",
      "taf": "TAF LEXJ 280800Z 2809/2909 20009KT 9999 FEW040 TX12/2814Z TN09/2905Z"
    },
    {
      "icao": "LEZG",
      "alert": "OK",
      "vis_m": 9000,
      "fzfg": false,
      "metar_trigger": false,
      "taf_trigger": false,
      "metar": "METAR LEZG 281200Z 07004KT 010V100 9000 -RA OVC030 06/04 Q0995 NOSIG",
      "taf": "TAF LEZG 281100Z 2812/2912 09009KT 9999 FEW040 TX08/2813Z TN06/2900Z"
    },
    {
      "icao": "LEZL",
      "alert": "OK",
      "vis_m": 9999,
      "fzfg": false,
      "metar_trigger": false,
      "taf_trigger": false,
      "metar": "METAR LEZL 281200Z 26013KT 240V310 9999 SCT040 16/11 Q1006 NOSIG",
      "taf": "TAF LEZL 280800Z 2809/2909 22016KT 9999 SCT020 TX18/2815Z TN15/2907Z"
    },
    {
      "icao": "LFBD",
      "alert": "OK",
      "vis_m": 9999,
      "fzfg": false,
      "metar_trigger": false,
      "taf_trigger": false,
      "metar": "METAR LFBD 281200Z AUTO VRB02KT 9999 BKN011 09/06 Q0993 BECMG BKN015",
      "taf": "TAF LFBD 281100Z 2812/2918 VRB03KT 9999 BKN008 TX12/2815Z TN06/2906Z"
    },
    {
      "icao": "LFLL",
      "alert": "OK",
      "vis_m": 9999,
      "fzfg": false,
      "metar_trigger": false,
      "taf_trigger": false,
      "metar": "METAR LFLL 281200Z 32010KT 9999 -RA FEW011 BKN018 BKN033 07/05 Q0993 TEMPO BKN008",
      "taf": "TAF LFLL 281100Z 2812/2918 33006KT 9999 BKN016 BKN035"
    },
    {
      "icao": "LFLS",
      "alert": "OK",
      "vis_m": 4700,
      "fzfg": false,
      "metar_trigger": false,
      "taf_trigger": false,
      "metar": "METAR LFLS 281200Z AUTO VRB02KT 4700 -RA BR BKN008 OVC013 04/03 Q0992 BECMG 6000 -RA BKN012 OVC020",
      "taf": ""
    },
    {
      "icao": "LFMN",
      "alert": "OK",
      "vis_m": 9999,
      "fzfg": false,
      "metar_trigger": false,
      "taf_trigger": false,
      "metar": "METAR LFMN 281200Z 21012KT 9999 FEW009 OVC026 10/08 Q0989 TEMPO 4000 SHRA",
      "taf": ""
    },
    {
      "icao": "LFOB",
      "alert": "OK",
      "vis_m": 9999,
      "fzfg": false,
      "metar_trigger": false,
      "taf_trigger": false,
      "metar": "METAR LFOB 281200Z AUTO 30003KT 9999 FEW002 SCT150 05/05 Q0995 TEMPO BKN010",
      "taf": "TAF LFOB 281100Z 2812/2912 VRB03KT CAVOK"
    },
    {
      "icao": "LFPO",
      "alert": "OK",
      "vis_m": 9999,
      "fzfg": false,
      "metar_trigger": false,
      "taf_trigger": false,
      "metar": "METAR LFPO 281200Z AUTO 00000KT CAVOK 06/06 Q0995 NOSIG",
      "taf": "TAF LFPO 281100Z 2812/2918 VRB03KT CAVOK"
    },
    {
      "icao": "LFSB",
      "alert": "OK",
      "vis_m": 9999,
      "fzfg": false,
      "metar_trigger": false,
      "taf_trigger": false,
      "metar": "METAR LFSB 281200Z AUTO 30006KT 9999 -RA BKN007/// OVC012/// ///TCU 05/04 Q0991 TEMPO 4000 -RA BKN005",
      "taf": "TAF LFSB 281100Z 2812/2912 32004KT 9999 SCT012 BKN020"
    },
    {
      "icao": "LGAV",
      "alert": "OK",
      "vis_m": 9999,
      "fzfg": false,
      "metar_trigger": false,
      "taf_trigger": false,
      "metar": "METAR LGAV 281220Z 23010KT 9999 FEW025 16/05 Q1009 NOSIG",
      "taf": "TAF LGAV 281100Z 2812/2912 22010KT 9999 FEW018 SCT070"
    },
    {
      "icao": "LGTS",
      "alert": "OK",
      "vis_m": 9999,
      "fzfg": false,
      "metar_trigger": false,
      "taf_trigger": false,
      "metar": "METAR LGTS 281220Z VRB03KT 9999 FEW030 11/07 Q1007 NOSIG",
      "taf": "TAF LGTS 281100Z 2812/2912 15010KT 9999 SCT030"
    },
    {
      "icao": "LHBP",
      "alert": "OK",
      "vis_m": 8000,
      "fzfg": false,
      "metar_trigger": false,
      "taf_trigger": false,
      "metar": "METAR LHBP 281200Z 08005KT 8000 SCT049 OVC056 04/01 Q0997 NOSIG",
      "taf": "TAF LHBP 281115Z 2812/2912 08009KT 8000 BKN045"
    },
    {
      "icao": "LHDC",
      "alert": "OK",
      "vis_m": 9999,
      "fzfg": false,
      "metar_trigger": false,
      "taf_trigger": false,
      "metar": "METAR LHDC 281145Z AUTO 19006KT 9999 -SHRA BKN035 //////TCU 05/03 Q1000 NOSIG",
      "taf": "TAF LHDC 281115Z 2812/2821 16006KT 9999 BKN045 OVC080"
    },
    {
      "icao": "LIBD",
      "alert": "OK",
      "vis_m": 9999,
      "fzfg": false,
      "metar_trigger": false,
      "taf_trigger": false,
      "metar": "METAR LIBD 281220Z 17006KT 9999 RA SCT045 11/09 Q0996",
      "taf": "TAF LIBD 281100Z 2812/2912 17016KT 9999 SCT040"
    },
    {
      "icao": "LIBG",
      "alert": "OK",
      "vis_m": 8000,
      "fzfg": false,
      "metar_trigger": false,
      "taf_trigger": false,
      "metar": "METAR LIBG 281150Z 19004KT 8000 RA SCT020 BKN040 10/09 Q1000",
      "taf": "TAF LIBG 281100Z 2812/2821 17013KT 9999 SCT020"
    },
    {
      "icao": "LIBP",
      "alert": "OK",
      "vis_m": 9999,
      "fzfg": false,
      "metar_trigger": false,
      "taf_trigger": false,
      "metar": "METAR LIBP 281220Z AUTO 22010KT 9999 -RA OVC063/// 12/11 Q0991 RERA",
      "taf": "TAF LIBP 281100Z 2812/2912 23012KT 9999 SCT080"
    },
    {
      "icao": "LIBR",
      "alert": "OK",
      "vis_m": 9999,
      "fzfg": false,
      "metar_trigger": false,
      "taf_trigger": false,
      "metar": "METAR LIBR 281220Z 18013KT 9999 -DZ SCT010 13/12 Q0999",
      "taf": "TAF LIBR 281100Z 2812/2912 18016KT 9999 SCT030"
    },
    {
      "icao": "LICA",
      "alert": "OK",
      "vis_m": 9999,
      "fzfg": false,
      "metar_trigger": false,
      "taf_trigger": false,
      "metar": "METAR LICA 281220Z AUTO 25004KT 220V300 9999 SCT099/// 15/12 Q1002",
      "taf": "TAF LICA 281100Z 2812/2912 27016KT 9999 SCT040"
    },
    {
      "icao": "LICC",
      "alert": "OK",
      "vis_m": 9999,
      "fzfg": false,
      "metar_trigger": false,
      "taf_trigger": false,
      "metar": "METAR LICC 281220Z 26013KT 9999 FEW040 19/16 Q1003",
      "taf": "TAF LICC 281100Z 2812/2912 25012KT 9999 SCT030"
    },
    {
      "icao": "LICJ",
      "alert": "OK",
      "vis_m": 9999,
      "fzfg": false,
      "metar_trigger": false,
      "taf_trigger": false,
      "metar": "METAR LICJ 281220Z 22018KT 9999 SCT040 16/11 Q1002",
      "taf": "TAF LICJ 281100Z 2812/2912 23022G32KT 9999 SCT040"
    },
    {
      "icao": "LIMC",
      "alert": "OK",
      "vis_m": 9000,
      "fzfg": false,
      "metar_trigger": false,
      "taf_trigger": false,
      "metar": "METAR LIMC 281220Z 01003KT 9000 -DZ SCT005 BKN020 05/05 Q0991 NOSIG",
      "taf": "TAF LIMC 281100Z 2812/2918 36010KT 3000 RA BKN014"
    },
    {
      "icao": "LIME",
      "alert": "OK",
      "vis_m": 9999,
      "fzfg": false,
      "metar_trigger": false,
      "taf_trigger": false,
      "metar": "METAR LIME 281220Z AUTO 28009KT 9999 -RA OVC034/// 07/06 Q0990",
      "taf": "TAF LIME 281100Z 2812/2912 VRB04KT 3000 RA BKN014"
    },
    {
      "icao": "LIMF",
      "alert": "OK",
      "vis_m": 8000,
      "fzfg": false,
      "metar_trigger": false,
      "taf_trigger": false,
      "metar": "METAR LIMF 281220Z 18003KT 8000 SCT005 BKN018 BKN060 05/03 Q0990",
      "taf": "TAF LIMF 281100Z 2812/2912 VRB04KT 7000 FEW040"
    },
    {
      "icao": "LIMJ",
      "alert": "OK",
      "vis_m": 9999,
      "fzfg": false,
      "metar_trigger": false,
      "taf_trigger": false,
      "metar": "METAR LIMJ 281220Z 05013KT 020V080 9999 BKN055 07/03 Q0990",
      "taf": "TAF LIMJ 281100Z 2812/2912 04015KT 4000 RA BKN014"
    },
    {
      "icao": "LIPE",
      "alert": "OK",
      "vis_m": 9999,
      "fzfg": false,
      "metar_trigger": false,
      "taf_trigger": false,
      "metar": "METAR LIPE 281220Z 29007KT 9999 SCT006 09/07 Q0990",
      "taf": "TAF LIPE 281100Z 2812/2912 28008KT 6000 SCT010"
    },
    {
      "icao": "LIPH",
      "alert": "OK",
      "vis_m": 2000,
      "fzfg": false,
      "metar_trigger": false,
      "taf_trigger": false,
      "metar": "METAR LIPH 281220Z 05013KT 2000 RA BR BKN005 BKN010 09/09 Q0989",
      "taf": "TAF LIPH 281100Z 2812/2912 05012KT 4000 RA BKN010"
    },
    {
      "icao": "LIPQ",
      "alert": "OK",
      "vis_m": 9999,
      "fzfg": false,
      "metar_trigger": false,
      "taf_trigger": false,
      "metar": "METAR LIPQ 281220Z AUTO 12011KT 9999 OVC016/// 11/09 Q0991 RERA",
      "taf": "TAF LIPQ 281100Z 2812/2912 12010KT 6000 RA OVC012"
    },
    {
      "icao": "LIPR",
      "alert": "OK",
      "vis_m": 9999,
      "fzfg": false,
      "metar_trigger": false,
      "taf_trigger": false,
      "metar": "METAR LIPR 281220Z 14004KT 9999 -DZ BKN050 11/10 Q0989",
      "taf": "TAF LIPR 281100Z 2812/2912 14010KT 8000 SCT040"
    },
    {
      "icao": "LIPX",
      "alert": "OK",
      "vis_m": 9999,
      "fzfg": false,
      "metar_trigger": false,
      "taf_trigger": false,
      "metar": "METAR LIPX 281220Z 27004KT 220V290 9999 FEW015 BKN025 BKN050 09/08 Q0989",
      "taf": "TAF LIPX 281100Z 2812/2912 06010KT 3000 RA BKN014"
    },
    {
      "icao": "LIPY",
      "alert": "OK",
      "vis_m": 9999,
      "fzfg": false,
      "metar_trigger": false,
      "taf_trigger": false,
      "metar": "METAR LIPY 281220Z AUTO 15005KT 110V190 9999 OVC065/// 12/08 Q0990",
      "taf": "TAF LIPY 281100Z 2812/2912 14010KT 9999 FEW040 BKN070"
    },
    {
      "icao": "LIPZ",
      "alert": "OK",
      "vis_m": 6000,
      "fzfg": false,
      "metar_trigger": false,
      "taf_trigger": false,
      "metar": "METAR LIPZ 281220Z 16010KT 6000 BKN007 BKN020 11/09 Q0989 NOSIG",
      "taf": "TAF LIPZ 281100Z 2812/2918 05015KT 4000 RA BKN012"
    },
    {
      "icao": "LIRF",
      "alert": "OK",
      "vis_m": 9999,
      "fzfg": false,
      "metar_trigger": false,
      "taf_trigger": false,
      "metar": "METAR LIRF 281220Z 24024KT 9999 SCT030 SCT045 14/08 Q0994 NOSIG",
      "taf": "TAF LIRF 281100Z 2812/2918 24021G33KT 9999 SCT030"
    },
    {
      "icao": "LIRN",
      "alert": "OK",
      "vis_m": 8000,
      "fzfg": false,
      "metar_trigger": false,
      "taf_trigger": false,
      "metar": "METAR LIRN 281220Z 25011KT 8000 -DZ SCT050 13/10 Q0996 NOSIG",
      "taf": "TAF LIRN 281100Z 2812/2912 23018G30KT 9999 SCT030"
    },
    {
      "icao": "LIRP",
      "alert": "OK",
      "vis_m": 9999,
      "fzfg": false,
      "metar_trigger": false,
      "taf_trigger": false,
      "metar": "METAR LIRP 281215Z 23007KT 9999 SCT015 SCT030 12/12 Q0990 NOSIG",
      "taf": "TAF LIRP 281100Z 2812/2912 26010KT 9999 SCT020 SCT040"
    },
    {
      "icao": "LIRZ",
      "alert": "OK",
      "vis_m": 9999,
      "fzfg": false,
      "metar_trigger": false,
      "taf_trigger": false,
      "metar": "METAR LIRZ 281220Z AUTO 19010KT 9999 -RA BKN036/// 12/09 Q0992",
      "taf": "TAF LIRZ 281100Z 2812/2912 20016KT 7000 BKN025"
    },
    {
      "icao": "LJLJ",
      "alert": "OK",
      "vis_m": 7000,
      "fzfg": false,
      "metar_trigger": false,
      "taf_trigger": false,
      "metar": "METAR LJLJ 281200Z VRB01KT 7000 -RA FEW002 SCT004 BKN033 05/04 Q0993 NOSIG",
      "taf": "TAF LJLJ 281100Z 2812/2912 29005KT 7000 -RA SCT003 BKN020 OVC033"
    },
    {
      "icao": "LKMT",
      "alert": "OK",
      "vis_m": 2500,
      "fzfg": false,
      "metar_trigger": false,
      "taf_trigger": false,
      "metar": "METAR LKMT 281200Z 02004KT 2500 BR BKN008 OVC033 01/M00 Q0997 NOSIG",
      "taf": "TAF LKMT 281100Z 2812/2912 03008KT 8000 SCT008 OVC030"
    },
    {
      "icao": "LKPR",
      "alert": "OK",
      "vis_m": 4800,
      "fzfg": false,
      "metar_trigger": false,
      "taf_trigger": false,
      "metar": "METAR LKPR 281200Z 07008KT 4800 BR SCT004 BKN005 OVC007 M00/M01 Q0995 NOSIG",
      "taf": "TAF LKPR 281100Z 2812/2918 06008KT 4000 BR BKN006"
    },
    {
      "icao": "LLBG",
      "alert": "OK",
      "vis_m": 7000,
      "fzfg": false,
      "metar_trigger": false,
      "taf_trigger": false,
      "metar": "METAR LLBG 281220Z 24021KT 7000 BKN028 16/11 Q1014 RESHRA TEMPO 5000 TSRA FEW025CB BKN030",
      "taf": "TAF LLBG 281108Z 2812/2912 22017KT 8000 SCT035"
    },
    {
      "icao": "LMML",
      "alert": "OK",
      "vis_m": 9999,
      "fzfg": false,
      "metar_trigger": false,
      "taf_trigger": false,
      "metar": "METAR LMML 281215Z 22008KT 9999 FEW020 18/13 Q1006 NOSIG",
      "taf": "TAF LMML 281100Z 2812/2912 25011KT 9999 FEW030"
    },
    {
      "icao": "LOWW",
      "alert": "OK",
      "vis_m": 4000,
      "fzfg": false,
      "metar_trigger": false,
      "taf_trigger": false,
      "metar": "METAR LOWW 281220Z 15007KT 4000 BR FEW002 OVC003 01/01 Q0994 NOSIG",
      "taf": "TAF LOWW 281115Z 2812/2918 14007KT 2000 BR OVC003 TX02/2823Z TN00/2907Z"
    },
    {
      "icao": "LPFR",
      "alert": "OK",
      "vis_m": 8000,
      "fzfg": false,
      "metar_trigger": false,
      "taf_trigger": false,
      "metar": "METAR LPFR 281200Z 26017KT 8000 FEW010 SCT020 17/14 Q1007",
      "taf": "TAF LPFR 281100Z 2812/2912 26013KT 9999 SCT025"
    },
    {
      "icao": "LPMA",
      "alert": "OK",
      "vis_m": 9999,
      "fzfg": false,
      "metar_trigger": false,
      "taf_trigger": false,
      "metar": "METAR LPMA 281200Z 04009KT 9999 FEW014 20/14 Q1018",
      "taf": "TAF LPMA 281100Z 2812/2912 VRB05KT 9999 SCT015"
    },
    {
      "icao": "LPPR",
      "alert": "OK",
      "vis_m": 9999,
      "fzfg": false,
      "metar_trigger": false,
      "taf_trigger": false,
      "metar": "METAR LPPR 281200Z 28008KT 250V360 9999 SCT025 13/07 Q0999",
      "taf": "TAF LPPR 281100Z 2812/2912 26012KT 9999 SCT025"
    },
    {
      "icao": "LPPS",
      "alert": "OK",
      "vis_m": 9999,
      "fzfg": false,
      "metar_trigger": false,
      "taf_trigger": false,
      "metar": "METAR LPPS 281200Z 28016KT 9999 SCT013 19/16 Q1018",
      "taf": "TAF LPPS 281100Z 2812/2918 27015KT 9999 SCT015 SCT030"
    },
    {
      "icao": "LPPT",
      "alert": "OK",
      "vis_m": 9999,
      "fzfg": false,
      "metar_trigger": false,
      "taf_trigger": false,
      "metar": "METAR LPPT 281200Z 26013KT 230V300 9999 SCT022 15/10 Q1005",
      "taf": "TAF LPPT 281100Z 2812/2918 27012KT 9999 SCT025"
    },
    {
      "icao": "LQBK",
      "alert": "OK",
      "vis_m": 9999,
      "fzfg": false,
      "metar_trigger": false,
      "taf_trigger": false,
      "metar": "METAR LQBK 281200Z 29002KT 9999 FEW043 08/06 Q0994 NOSIG",
      "taf": ""
    },
    {
      "icao": "LQSA",
      "alert": "OK",
      "vis_m": 9999,
      "fzfg": false,
      "metar_trigger": false,
      "taf_trigger": false,
      "metar": "METAR LQSA 281200Z 14020KT 120V190 9999 BKN050 10/02 Q0998 NOSIG",
      "taf": "TAF LQSA 281100Z 2812/2912 15020KT 9999 SCT050 TX12/2814Z TN03/2905Z"
    },
    {
      "icao": "LQTZ",
      "alert": "OK",
      "vis_m": 9999,
      "fzfg": false,
      "metar_trigger": false,
      "taf_trigger": false,
      "metar": "METAR LQTZ 281200Z 17007KT 130V210 CAVOK 14/01 Q0996",
      "taf": "TAF LQTZ 281100Z 2812/2912 10005KT 9999 SCT060 TX14/2813Z TN02/2905Z"
    },
    {
      "icao": "LRBC",
      "alert": "OK",
      "vis_m": 350,
      "fzfg": false,
      "metar_trigger": false,
      "taf_trigger": false,
      "metar": "METAR LRBC 281200Z 17011KT 0350 R16/0600N FG VV002 01/01 Q1001",
      "taf": "TAF LRBC 281100Z 2812/2821 16008KT 0200 FG VV001"
    },
    {
      "icao": "LRBS",
      "alert": "OK",
      "vis_m": 9999,
      "fzfg": false,
      "metar_trigger": false,
      "taf_trigger": false,
      "metar": "METAR LRBS 281200Z 26011KT 230V290 CAVOK 09/03 Q1004 NOSIG",
      "taf": "TAF LRBS 281100Z 2812/2912 24008KT 9999 SCT020"
    },
    {
      "icao": "LRBV",
      "alert": "OK",
      "vis_m": 9999,
      "fzfg": false,
      "metar_trigger": false,
      "taf_trigger": false,
      "metar": "METAR LRBV 281200Z 04006KT 020V080 CAVOK 08/03 Q1000",
      "taf": "TAF LRBV 281100Z 2812/2821 08007KT 9999 SCT015"
    },
    {
      "icao": "LRCL",
      "alert": "OK",
      "vis_m": 9999,
      "fzfg": false,
      "metar_trigger": false,
      "taf_trigger": false,
      "metar": "METAR LRCL 281200Z 09010KT 9999 SCT003 BKN012 02/01 Q1001",
      "taf": "TAF LRCL 281100Z 2812/2821 09010KT 9999 SCT010"
    },
    {
      "icao": "LRCV",
      "alert": "OK",
      "vis_m": 3500,
      "fzfg": false,
      "metar_trigger": false,
      "taf_trigger": false,
      "metar": "METAR LRCV 281200Z 06006KT 3500 BR SCT001 BKN002 04/04 Q1003",
      "taf": "TAF LRCV 281100Z 2812/2821 VRB04KT 0600 FG OVC002"
    },
    {
      "icao": "LRIA",
      "alert": "OK",
      "vis_m": 9999,
      "fzfg": false,
      "metar_trigger": false,
      "taf_trigger": false,
      "metar": "METAR LRIA 281200Z 11009KT 9999 OVC006 03/03 Q1002",
      "taf": "TAF LRIA 281100Z 2812/2821 10006KT 9999 BKN005"
    },
    {
      "icao": "LROP",
      "alert": "OK",
      "vis_m": 9999,
      "fzfg": false,
      "metar_trigger": false,
      "taf_trigger": false,
      "metar": "METAR LROP 281200Z 25009KT 9999 FEW016 10/04 Q1004 BECMG BKN010",
      "taf": "TAF LROP 281100Z 2812/2912 24008KT 9999 SCT020"
    },
    {
      "icao": "LRSB",
      "alert": "OK",
      "vis_m": 9999,
      "fzfg": false,
      "metar_trigger": false,
      "taf_trigger": false,
      "metar": "METAR LRSB 281200Z COR 09003KT 9999 FEW006 05/05 Q1000",
      "taf": "TAF LRSB 281100Z 2812/2912 VRB04KT 9999 SCT005"
    },
    {
      "icao": "LRSM",
      "alert": "OK",
      "vis_m": 9999,
      "fzfg": false,
      "metar_trigger": false,
      "taf_trigger": false,
      "metar": "METAR LRSM 281200Z 13005KT 9999 -RA FEW025 SCT032 BKN042 05/03 Q1000",
      "taf": "TAF LRSM 281100Z 2812/2821 VRB04KT 9999 BKN045"
    },
    {
      "icao": "LRSV",
      "alert": "CRITICAL",
      "vis_m": 100,
      "fzfg": true,
      "metar_trigger": true,
      "taf_trigger": false,
      "metar": "METAR LRSV 281200Z 18004KT 0100 R34/0225N FZFG VV001 M00/M00 Q0999",
      "taf": "TAF LRSV 281100Z 2812/2821 VRB04KT 0100 FG VV001"
    },
    {
      "icao": "LRTM",
      "alert": "OK",
      "vis_m": 900,
      "fzfg": false,
      "metar_trigger": false,
      "taf_trigger": false,
      "metar": "METAR LRTM 281200Z 24004KT 0900 R07/P2000 FG SCT001 BKN003 OVC005 02/02 Q1001",
      "taf": "TAF LRTM 281100Z 2812/2821 VRB04KT 0350 FG BKN002 OVC005"
    },
    {
      "icao": "LRTR",
      "alert": "OK",
      "vis_m": 9999,
      "fzfg": false,
      "metar_trigger": false,
      "taf_trigger": false,
      "metar": "METAR LRTR 281200Z 12009KT CAVOK 08/04 Q0999 NOSIG",
      "taf": "TAF LRTR 281100Z 2812/2912 11010KT CAVOK"
    },
    {
      "icao": "LTAC",
      "alert": "OK",
      "vis_m": 6000,
      "fzfg": false,
      "metar_trigger": false,
      "taf_trigger": false,
      "metar": "METAR LTAC 281220Z 20008KT 6000 -SHRA FEW007 BKN030 BKN080 05/04 Q1010 NOSIG",
      "taf": "TAF LTAC 281040Z 2812/2912 VRB02KT 9999 SCT040 BKN100"
    },
    {
      "icao": "LTFM",
      "alert": "OK",
      "vis_m": 9999,
      "fzfg": false,
      "metar_trigger": false,
      "taf_trigger": false,
      "metar": "METAR LTFM 281220Z 22016KT 9999 SCT018 BKN028 12/08 Q1007 NOSIG",
      "taf": "TAF LTFM 281040Z 2812/2918 VRB02KT 9999 SCT018 BKN028"
    },
    {
      "icao": "LUKK",
      "alert": "OK",
      "vis_m": 2500,
      "fzfg": false,
      "metar_trigger": false,
      "taf_trigger": false,
      "metar": "METAR LUKK 281200Z 21006KT 2500 0900SW R08/1300U BR PRFG OVC002 01/01 Q1003 TEMPO 0800 FG",
      "taf": "TAF LUKK 281130Z 2812/2912 15006KT 2000 BR OVC002"
    },
    {
      "icao": "LWOH",
      "alert": "OK",
      "vis_m": 9999,
      "fzfg": false,
      "metar_trigger": false,
      "taf_trigger": false,
      "metar": "METAR LWOH 281220Z VRB02KT 9999 FEW040 BKN070 08/02 Q1004",
      "taf": "TAF LWOH 281130Z 2812/2912 VRB03KT 9999 SCT040 SCT070"
    },
    {
      "icao": "LWSK",
      "alert": "OK",
      "vis_m": 9999,
      "fzfg": false,
      "metar_trigger": false,
      "taf_trigger": false,
      "metar": "METAR LWSK 281220Z VRB01KT 9999 OVC005 04/02 Q1006 NOSIG",
      "taf": "TAF LWSK 281130Z 2812/2912 VRB02KT 9999 BKN005"
    },
    {
      "icao": "LYBE",
      "alert": "OK",
      "vis_m": 9999,
      "fzfg": false,
      "metar_trigger": false,
      "taf_trigger": false,
      "metar": "METAR LYBE 281200Z 15010KT CAVOK 13/00 Q0998 NOSIG",
      "taf": "TAF LYBE 281100Z 2812/2912 12012KT CAVOK TX14/2912Z TN06/2906Z"
    },
    {
      "icao": "LYNI",
      "alert": "OK",
      "vis_m": 9999,
      "fzfg": false,
      "metar_trigger": false,
      "taf_trigger": false,
      "metar": "METAR LYNI 281200Z 17006KT 120V220 CAVOK 11/01 Q1002 NOSIG",
      "taf": "TAF LYNI 281100Z 2812/2912 13007KT CAVOK TX12/2813Z TN05/2906Z"
    },
    {
      "icao": "LYPG",
      "alert": "OK",
      "vis_m": 9999,
      "fzfg": false,
      "metar_trigger": false,
      "taf_trigger": false,
      "metar": "METAR LYPG 281200Z 00000KT 9999 -RA FEW017 BKN046 OVC073 09/07 Q1004 NOSIG",
      "taf": "TAF LYPG 281100Z 2812/2912 16006KT 9999 FEW010 BKN040 OVC070 TX10/2813Z TN05/2905Z"
    },
    {
      "icao": "LZIB",
      "alert": "OK",
      "vis_m": 9999,
      "fzfg": false,
      "metar_trigger": false,
      "taf_trigger": false,
      "metar": "METAR LZIB 281200Z 06007KT 9999 SCT008 BKN010 04/03 Q0995 NOSIG",
      "taf": "TAF LZIB 281115Z 2812/2912 06009KT 9999 BKN014 OVC030"
    },
    {
      "icao": "LZKZ",
      "alert": "OK",
      "vis_m": 600,
      "fzfg": false,
      "metar_trigger": false,
      "taf_trigger": false,
      "metar": "METAR LZKZ 281200Z 11002KT 0600 R01/0900N -SN FG OVC005 00/00 Q0999 TEMPO 0500 SN FG",
      "taf": "TAF LZKZ 281115Z 2812/2912 VRB02KT 5000 BR BKN014 OVC025"
    },
    {
      "icao": "LZTT",
      "alert": "OK",
      "vis_m": 9999,
      "fzfg": false,
      "metar_trigger": false,
      "taf_trigger": false,
      "metar": "METAR LZTT 281200Z 18004KT 150V220 9999 FEW009 SCT027 03/M00 Q0995 NOSIG",
      "taf": "TAF LZTT 281115Z 2812/2912 16009KT 9999 SCT009 BKN025"
    },
    {
      "icao": "OEJN",
      "alert": "OK",
      "vis_m": 9999,
      "fzfg": false,
      "metar_trigger": false,
      "taf_trigger": false,
      "metar": "METAR OEJN 281200Z 31011KT 9999 SCT040 29/17 Q1014 NOSIG",
      "taf": "TAF OEJN 281100Z 2812/2918 30015KT 9999 SCT040"
    },
    {
      "icao": "OEMA",
      "alert": "OK",
      "vis_m": 9999,
      "fzfg": false,
      "metar_trigger": false,
      "taf_trigger": false,
      "metar": "METAR OEMA 281200Z 21018KT CAVOK 28/M02 Q1016 NOSIG",
      "taf": "TAF OEMA 281100Z 2812/2918 25015KT 7000 FEW040"
    },
    {
      "icao": "OJAI",
      "alert": "OK",
      "vis_m": 1500,
      "fzfg": false,
      "metar_trigger": false,
      "taf_trigger": false,
      "metar": "METAR OJAI 281200Z 24020KT 1500 BLDU SCT030 11/M01 Q1015 NOSIG",
      "taf": "TAF OJAI 281035Z 2812/2918 24014KT 2500 DU SCT035"
    },
    {
      "icao": "OMAA",
      "alert": "OK",
      "vis_m": 9999,
      "fzfg": false,
      "metar_trigger": false,
      "taf_trigger": false,
      "metar": "METAR OMAA 281200Z 33011KT CAVOK 24/12 Q1017 NOSIG",
      "taf": "TAF OMAA 281100Z 2812/2918 21008KT 8000 NSC"
    },
    {
      "icao": "OMDB",
      "alert": "OK",
      "vis_m": 9999,
      "fzfg": false,
      "metar_trigger": false,
      "taf_trigger": false,
      "metar": "METAR OMDB 281200Z 33010KT 310V010 9999 FEW045 24/13 Q1018 NOSIG",
      "taf": "TAF OMDB 281100Z 2812/2918 34010KT 8000 NSC"
    },
    {
      "icao": "UAAA",
      "alert": "OK",
      "vis_m": 5000,
      "fzfg": false,
      "metar_trigger": false,
      "taf_trigger": false,
      "metar": "METAR UAAA 281200Z 02003MPS 5000 BR FU FEW050 SCT100 00/M02 Q1022 NOSIG",
      "taf": "TAF UAAA 281102Z 2812/2912 22003MPS 1100 BR FU SCT011 BKN100 TXM01/2909Z TNM08/2902Z"
    },
    {
      "icao": "UBBB",
      "alert": "OK",
      "vis_m": 9999,
      "fzfg": false,
      "metar_trigger": false,
      "taf_trigger": false,
      "metar": "METAR UBBB 281200Z 15014KT 9999 BKN029 07/05 Q1018 NOSIG",
      "taf": "TAF UBBB 281058Z 2812/2912 15012KT 8000 SCT012 OVC025 TX07/2812Z TN05/2901Z"
    },
    {
      "icao": "UDSG",
      "alert": "OK",
      "vis_m": 5000,
      "fzfg": false,
      "metar_trigger": false,
      "taf_trigger": false,
      "metar": "METAR UDSG 281200Z 00000KT 5000 BR BKN033 M06/M08 Q1017 NOSIG",
      "taf": "TAF UDSG 281058Z 2812/2912 VRB06KT 3000 BR SCT020"
    },
    {
      "icao": "UDYZ",
      "alert": "OK",
      "vis_m": 4700,
      "fzfg": false,
      "metar_trigger": false,
      "taf_trigger": false,
      "metar": "METAR UDYZ 281200Z VRB02KT 4700 BR BKN012 M03/M06 Q1020 NOSIG",
      "taf": "TAF UDYZ 281100Z 2812/2912 VRB04KT 3500 BR BKN010"
    },
    {
      "icao": "UGKO",
      "alert": "OK",
      "vis_m": 9999,
      "fzfg": false,
      "metar_trigger": false,
      "taf_trigger": false,
      "metar": "METAR UGKO 281200Z 09021KT CAVOK 14/00 Q1011 NOSIG",
      "taf": "TAF UGKO 281100Z 2812/2912 09007KT CAVOK TX16/2911Z TN03/2905Z"
    }
  ]
}