{
  "ts_utc": "2026-02-21T10:36:46Z",
  "threshold_m": 150,
  "source": "stations_override.txt (ICAO list) + aviationweather.gov (METAR/TAF raw)",
  "station_count": 159,
  "stations": [
    {
      "icao": "BIKF",
      "alert": "OK",
      "vis_m": 9999,
      "fzfg": false,
      "metar_trigger": false,
      "taf_trigger": false,
      "metar": "METAR BIKF 211030Z 06011KT CAVOK M02/M06 Q1005",
      "taf": "TAF BIKF 210759Z 2109/2209 08008KT CAVOK TX02/2208Z TNM04/2109Z"
    },
    {
      "icao": "BKPR",
      "alert": "OK",
      "vis_m": 9999,
      "fzfg": false,
      "metar_trigger": false,
      "taf_trigger": false,
      "metar": "METAR BKPR 211030Z 02012KT 9999 SCT020 BKN040 02/M02 Q1021 NOSIG",
      "taf": "TAF BKPR 210530Z 2106/2206 01015KT 9999 BKN040"
    },
    {
      "icao": "EBCI",
      "alert": "OK",
      "vis_m": 6000,
      "fzfg": false,
      "metar_trigger": false,
      "taf_trigger": false,
      "metar": "METAR EBCI 211020Z 25013KT 6000 -RADZ SCT006 BKN007 09/08 Q1022 TEMPO 4000 RADZ",
      "taf": "TAF EBCI 210510Z 2106/2212 24012KT 9999 SCT012 BKN020"
    },
    {
      "icao": "EDDB",
      "alert": "OK",
      "vis_m": 9999,
      "fzfg": false,
      "metar_trigger": false,
      "taf_trigger": false,
      "metar": "METAR EDDB 211020Z AUTO 25010KT 9999 OVC011 06/05 Q1014 TEMPO BKN009",
      "taf": "TAF EDDB 210500Z 2106/2206 19010KT 9999 SCT013 BKN025"
    },
    {
      "icao": "EDDH",
      "alert": "OK",
      "vis_m": 9999,
      "fzfg": false,
      "metar_trigger": false,
      "taf_trigger": false,
      "metar": "METAR EDDH 211020Z AUTO 26012KT 9999 OVC010 07/05 Q1012 NOSIG",
      "taf": "TAF EDDH 210500Z 2106/2212 26012KT 8000 OVC007"
    },
    {
      "icao": "EDDK",
      "alert": "OK",
      "vis_m": 9999,
      "fzfg": false,
      "metar_trigger": false,
      "taf_trigger": false,
      "metar": "METAR EDDK 211020Z AUTO 26013KT 9999 FEW020 BKN035 10/06 Q1021 NOSIG",
      "taf": "TAF EDDK 210500Z 2106/2212 26010KT 9999 BKN020"
    },
    {
      "icao": "EDDN",
      "alert": "OK",
      "vis_m": 9999,
      "fzfg": false,
      "metar_trigger": false,
      "taf_trigger": false,
      "metar": "METAR EDDN 211020Z AUTO 26011KT 9999 SCT012 BKN017 OVC040 08/05 Q1021 NOSIG",
      "taf": "TAF EDDN 210500Z 2106/2206 22008KT 9999 OVC015"
    },
    {
      "icao": "EDDS",
      "alert": "OK",
      "vis_m": 9999,
      "fzfg": false,
      "metar_trigger": false,
      "taf_trigger": false,
      "metar": "METAR EDDS 211020Z AUTO 22006KT 170V250 9999 -SHRA BKN022 BKN027 FEW///CB 07/05 Q1023 RESHRA TEMPO RA",
      "taf": "TAF EDDS 210500Z 2106/2206 23008KT 9999 BKN025"
    },
    {
      "icao": "EDFH",
      "alert": "OK",
      "vis_m": 7000,
      "fzfg": false,
      "metar_trigger": false,
      "taf_trigger": false,
      "metar": "METAR EDFH 211020Z 26012KT 7000 -RA SCT002 OVC004 06/05 Q1021",
      "taf": "TAF EDFH 210500Z 2106/2206 27015G25KT 9999 BKN012"
    },
    {
      "icao": "EDJA",
      "alert": "OK",
      "vis_m": 9999,
      "fzfg": false,
      "metar_trigger": false,
      "taf_trigger": false,
      "metar": "METAR EDJA 211020Z 24021G32KT 9999 -RA FEW011 BKN013 OVC028 05/03 Q1024",
      "taf": "TAF EDJA 210800Z 2109/2118 24015G25KT 9999 OVC011"
    },
    {
      "icao": "EDLW",
      "alert": "OK",
      "vis_m": 9999,
      "fzfg": false,
      "metar_trigger": false,
      "taf_trigger": false,
      "metar": "METAR EDLW 211020Z 24009KT 9999 -DZ BKN016 09/06 Q1019",
      "taf": ""
    },
    {
      "icao": "EDNY",
      "alert": "OK",
      "vis_m": 9999,
      "fzfg": false,
      "metar_trigger": false,
      "taf_trigger": false,
      "metar": "METAR EDNY 211020Z 23009KT 9999 FEW017 SCT020 OVC032 06/05 Q1026",
      "taf": "TAF EDNY 210800Z 2109/2118 23010KT 9999 SCT025 OVC035"
    },
    {
      "icao": "EDSB",
      "alert": "OK",
      "vis_m": 9000,
      "fzfg": false,
      "metar_trigger": false,
      "taf_trigger": false,
      "metar": "METAR EDSB 211020Z COR 20012KT 9000 RA FEW007 BKN018 OVC031 08/07 Q1024",
      "taf": "TAF EDSB 210500Z 2106/2206 20013KT 9999 BKN020"
    },
    {
      "icao": "EETN",
      "alert": "OK",
      "vis_m": 9999,
      "fzfg": false,
      "metar_trigger": false,
      "taf_trigger": false,
      "metar": "METAR EETN 211020Z 21015KT 9999 -SN DRSN BKN021 M02/M06 Q1009 TEMPO 19015G25KT",
      "taf": "TAF EETN 210530Z 2106/2206 19015G26KT 9999 DRSN SCT015 BKN020"
    },
    {
      "icao": "EFTU",
      "alert": "OK",
      "vis_m": 2100,
      "fzfg": false,
      "metar_trigger": false,
      "taf_trigger": false,
      "metar": "METAR EFTU 211020Z AUTO 22011KT 2100 -SN OVC005 M00/M01 Q1004",
      "taf": "TAF EFTU 210836Z 2109/2209 22012KT 8000 -SN OVC006"
    },
    {
      "icao": "EGBB",
      "alert": "OK",
      "vis_m": 9999,
      "fzfg": false,
      "metar_trigger": false,
      "taf_trigger": false,
      "metar": "METAR EGBB 211020Z 20007KT 160V240 9999 VCSH BKN025 11/08 Q1018",
      "taf": "TAF EGBB 210501Z 2106/2206 17006KT 9999 FEW012 SCT022"
    },
    {
      "icao": "EGGP",
      "alert": "OK",
      "vis_m": 9999,
      "fzfg": false,
      "metar_trigger": false,
      "taf_trigger": false,
      "metar": "METAR EGGP 211020Z 23012KT 9999 FEW040 11/07 Q1016",
      "taf": ""
    },
    {
      "icao": "EGGW",
      "alert": "OK",
      "vis_m": 9999,
      "fzfg": false,
      "metar_trigger": false,
      "taf_trigger": false,
      "metar": "METAR EGGW 211020Z AUTO 25016KT 9999 OVC014 10/08 Q1019",
      "taf": "TAF EGGW 210456Z 2106/2206 25012KT 9999 SCT020"
    },
    {
      "icao": "EGKK",
      "alert": "OK",
      "vis_m": 9999,
      "fzfg": false,
      "metar_trigger": false,
      "taf_trigger": false,
      "metar": "METAR EGKK 211020Z 25010KT 9999 BKN013 11/09 Q1021",
      "taf": ""
    },
    {
      "icao": "EGNM",
      "alert": "OK",
      "vis_m": 9999,
      "fzfg": false,
      "metar_trigger": false,
      "taf_trigger": false,
      "metar": "METAR EGNM 211020Z 25014KT 9999 FEW012 SCT015 BKN028 10/07 Q1014",
      "taf": ""
    },
    {
      "icao": "EGPD",
      "alert": "OK",
      "vis_m": 1500,
      "fzfg": false,
      "metar_trigger": false,
      "taf_trigger": false,
      "metar": "METAR EGPD 211020Z 04003KT 1500 R34/1000D BR OVC002 06/05 Q1009 REDZ TEMPO 6000 NSW BKN006",
      "taf": ""
    },
    {
      "icao": "EGPF",
      "alert": "OK",
      "vis_m": 9999,
      "fzfg": false,
      "metar_trigger": false,
      "taf_trigger": false,
      "metar": "METAR EGPF 211020Z AUTO 24006KT 9999 BKN008 OVC021 09/08 Q1011",
      "taf": ""
    },
    {
      "icao": "EHBK",
      "alert": "OK",
      "vis_m": 2800,
      "fzfg": false,
      "metar_trigger": false,
      "taf_trigger": false,
      "metar": "METAR EHBK 211025Z AUTO 22012KT 2800 BR SCT003 BKN004 OVC006 08/08 Q1020 TEMPO -RADZ BKN006",
      "taf": "TAF EHBK 210509Z 2106/2212 24010KT 9999 BKN025"
    },
    {
      "icao": "EHEH",
      "alert": "OK",
      "vis_m": 9999,
      "fzfg": false,
      "metar_trigger": false,
      "taf_trigger": false,
      "metar": "METAR EHEH 211025Z AUTO 24011KT 200V280 9999 SCT014 BKN016 OVC052 10/07 Q1020 WHT BECMG 4500 -DZRA BKN007 OVC012 RMK TREND REMOTE BY EHWX",
      "taf": "TAF EHEH 210517Z 2106/2212 25010KT 9999 SCT040"
    },
    {
      "icao": "EKBI",
      "alert": "OK",
      "vis_m": 7000,
      "fzfg": false,
      "metar_trigger": false,
      "taf_trigger": false,
      "metar": "METAR EKBI 211020Z AUTO 25012KT 7000 -DZ OVC007/// 05/04 Q1007",
      "taf": "TAF EKBI 210827Z 2109/2209 24008KT 1200 -DZ BR OVC002"
    },
    {
      "icao": "EKCH",
      "alert": "OK",
      "vis_m": 2000,
      "fzfg": false,
      "metar_trigger": false,
      "taf_trigger": false,
      "metar": "METAR EKCH 211020Z 25009KT 2000 -RA BR OVC002 02/02 Q1006 BECMG 3000",
      "taf": "TAF EKCH 210827Z 2109/2209 24010KT 2000 -RADZ BR BKN003"
    },
    {
      "icao": "ENAL",
      "alert": "OK",
      "vis_m": 9999,
      "fzfg": false,
      "metar_trigger": false,
      "taf_trigger": false,
      "metar": "METAR ENAL 211020Z 15006KT 130V190 9999 FEW013CB 03/01 Q1004",
      "taf": "TAF ENAL 210800Z 2109/2118 02008KT 9999 FEW015 SCT045"
    },
    {
      "icao": "ENBR",
      "alert": "OK",
      "vis_m": 9999,
      "fzfg": false,
      "metar_trigger": false,
      "taf_trigger": false,
      "metar": "METAR ENBR 211020Z 34007KT 310V010 9999 FEW020 04/00 Q1004 NOSIG RMK WIND 1200FT 33019KT",
      "taf": "TAF ENBR 210500Z 2106/2206 32012KT 9999 BKN007"
    },
    {
      "icao": "ENGM",
      "alert": "OK",
      "vis_m": 1900,
      "fzfg": false,
      "metar_trigger": false,
      "taf_trigger": false,
      "metar": "METAR ENGM 211020Z 36002KT 1900 1200W -SHSN BR BKN002 00/M01 Q0998 TEMPO 3000 BR BKN008",
      "taf": ""
    },
    {
      "icao": "ENHD",
      "alert": "OK",
      "vis_m": 9999,
      "fzfg": false,
      "metar_trigger": false,
      "taf_trigger": false,
      "metar": "METAR ENHD 211020Z 34020KT 9999 FEW021 SCT030 04/00 Q1005",
      "taf": "TAF ENHD 210800Z 2109/2118 34018KT 9999 FEW012 SCT030"
    },
    {
      "icao": "ENTC",
      "alert": "OK",
      "vis_m": 9999,
      "fzfg": false,
      "metar_trigger": false,
      "taf_trigger": false,
      "metar": "METAR ENTC 211020Z 18007KT 9999 -SN SCT009 BKN012 BKN015 M08/M11 Q0997 TEMPO BKN020 RMK WIND 2600FT 34021KT",
      "taf": "TAF ENTC 210500Z 2106/2206 18012KT 9999 SCT020 BKN030"
    },
    {
      "icao": "ENTO",
      "alert": "OK",
      "vis_m": 600,
      "fzfg": false,
      "metar_trigger": false,
      "taf_trigger": false,
      "metar": "METAR ENTO 211020Z 21008KT 0600 R18/1000D R36/0900N FG VV003 02/02 Q0999 TEMPO 1500 BR BKN005",
      "taf": ""
    },
    {
      "icao": "ENVA",
      "alert": "OK",
      "vis_m": 9999,
      "fzfg": false,
      "metar_trigger": false,
      "taf_trigger": false,
      "metar": "METAR ENVA 211020Z 10002KT 9999 FEW003 SCT019 BKN044 00/M01 Q1001 NOSIG RMK WIND 670FT 29007KT",
      "taf": ""
    },
    {
      "icao": "ENZV",
      "alert": "OK",
      "vis_m": 9999,
      "fzfg": false,
      "metar_trigger": false,
      "taf_trigger": false,
      "metar": "METAR ENZV 211020Z 34013KT 9999 FEW008 06/01 Q1005 NOSIG",
      "taf": ""
    },
    {
      "icao": "EPGD",
      "alert": "OK",
      "vis_m": 9999,
      "fzfg": false,
      "metar_trigger": false,
      "taf_trigger": false,
      "metar": "METAR EPGD 211030Z 19007KT 9999 BKN012 M02/M06 Q1011",
      "taf": "TAF EPGD 210530Z 2106/2206 18012KT CAVOK"
    },
    {
      "icao": "EPKK",
      "alert": "OK",
      "vis_m": 9999,
      "fzfg": false,
      "metar_trigger": false,
      "taf_trigger": false,
      "metar": "METAR EPKK 211030Z 24003KT CAVOK M00/M08 Q1019",
      "taf": "TAF EPKK 210830Z 2109/2209 VRB02KT CAVOK"
    },
    {
      "icao": "EPKT",
      "alert": "OK",
      "vis_m": 9999,
      "fzfg": false,
      "metar_trigger": false,
      "taf_trigger": false,
      "metar": "METAR EPKT 211030Z 23013KT 9999 BKN031 01/M05 Q1018",
      "taf": "TAF EPKT 210530Z 2106/2206 18008KT CAVOK"
    },
    {
      "icao": "EPLB",
      "alert": "OK",
      "vis_m": 9999,
      "fzfg": false,
      "metar_trigger": false,
      "taf_trigger": false,
      "metar": "METAR EPLB 211030Z 17008KT 130V210 CAVOK M01/M08 Q1020",
      "taf": "TAF EPLB 210530Z 2106/2206 14008KT CAVOK"
    },
    {
      "icao": "EPMO",
      "alert": "OK",
      "vis_m": 9999,
      "fzfg": false,
      "metar_trigger": false,
      "taf_trigger": false,
      "metar": "METAR EPMO 211030Z 16008KT 130V190 CAVOK M03/M08 Q1017",
      "taf": "TAF EPMO 210530Z 2106/2206 16008KT CAVOK"
    },
    {
      "icao": "EPPO",
      "alert": "OK",
      "vis_m": 3100,
      "fzfg": false,
      "metar_trigger": false,
      "taf_trigger": false,
      "metar": "METAR EPPO 211030Z COR 20008KT 3100 -DZ BR OVC006 00/M01 Q1014 REFZDZ",
      "taf": ""
    },
    {
      "icao": "EPRA",
      "alert": "OK",
      "vis_m": 9999,
      "fzfg": false,
      "metar_trigger": false,
      "taf_trigger": false,
      "metar": "METAR EPRA 211030Z 19010KT CAVOK 01/M08 Q1019",
      "taf": "TAF EPRA 210830Z 2109/2118 18010KT CAVOK"
    },
    {
      "icao": "EPRZ",
      "alert": "OK",
      "vis_m": 9999,
      "fzfg": false,
      "metar_trigger": false,
      "taf_trigger": false,
      "metar": "METAR EPRZ 211030Z 09008KT 9999 FEW023 M02/M08 Q1021",
      "taf": "TAF EPRZ 210530Z 2106/2206 12008KT CAVOK"
    },
    {
      "icao": "EPSC",
      "alert": "OK",
      "vis_m": 3500,
      "fzfg": false,
      "metar_trigger": false,
      "taf_trigger": false,
      "metar": "METAR EPSC 211030Z 20005KT 180V240 3500 -RA BR OVC003 03/03 Q1011",
      "taf": "TAF EPSC 210530Z 2106/2206 17013KT 4000 -SN BR OVC010"
    },
    {
      "icao": "EPSY",
      "alert": "OK",
      "vis_m": 9999,
      "fzfg": false,
      "metar_trigger": false,
      "taf_trigger": false,
      "metar": "METAR EPSY 211030Z 18012KT CAVOK M06/M10 Q1016",
      "taf": "TAF EPSY 210830Z 2109/2118 17010KT CAVOK"
    },
    {
      "icao": "EPWA",
      "alert": "OK",
      "vis_m": 9999,
      "fzfg": false,
      "metar_trigger": false,
      "taf_trigger": false,
      "metar": "METAR EPWA 211030Z 19009KT CAVOK M03/M09 Q1018 NOSIG",
      "taf": "TAF EPWA 210830Z 2109/2209 16010KT CAVOK"
    },
    {
      "icao": "EPWR",
      "alert": "OK",
      "vis_m": 9999,
      "fzfg": false,
      "metar_trigger": false,
      "taf_trigger": false,
      "metar": "METAR EPWR 211030Z 19006KT 9999 OVC025 03/M00 Q1017",
      "taf": "TAF EPWR 210830Z 2109/2209 16007KT 9999 BKN020"
    },
    {
      "icao": "ESGG",
      "alert": "OK",
      "vis_m": 1800,
      "fzfg": false,
      "metar_trigger": false,
      "taf_trigger": false,
      "metar": "METAR ESGG 211020Z 18009KT 1800 -SNRA BR VV004 00/M00 Q1003",
      "taf": "TAF ESGG 210830Z 2109/2209 18010KT 6000 -RASN OVC003"
    },
    {
      "icao": "ESKN",
      "alert": "OK",
      "vis_m": 9999,
      "fzfg": false,
      "metar_trigger": false,
      "taf_trigger": false,
      "metar": "METAR ESKN 211020Z 21008KT 160V240 9999 BKN010 01/M02 Q1004",
      "taf": ""
    },
    {
      "icao": "ESMS",
      "alert": "OK",
      "vis_m": 1700,
      "fzfg": false,
      "metar_trigger": false,
      "taf_trigger": false,
      "metar": "METAR ESMS 211020Z 25009KT 1700 -DZ OVC002 02/02 Q1005",
      "taf": "TAF ESMS 210827Z 2109/2209 25010KT 1200 -RADZ BR BKN002"
    },
    {
      "icao": "ESSA",
      "alert": "OK",
      "vis_m": 9999,
      "fzfg": false,
      "metar_trigger": false,
      "taf_trigger": false,
      "metar": "METAR ESSA 211020Z 19009KT 9999 BKN010 M01/M02 Q1002 NOSIG",
      "taf": ""
    },
    {
      "icao": "EYKA",
      "alert": "OK",
      "vis_m": 9999,
      "fzfg": false,
      "metar_trigger": false,
      "taf_trigger": false,
      "metar": "METAR EYKA 211020Z 15008KT CAVOK M04/M10 Q1018",
      "taf": "TAF EYKA 210511Z 2106/2206 16010KT 9000 NSC"
    },
    {
      "icao": "EYPA",
      "alert": "OK",
      "vis_m": 9999,
      "fzfg": false,
      "metar_trigger": false,
      "taf_trigger": false,
      "metar": "METAR EYPA 211020Z 17015KT CAVOK M03/M09 Q1013",
      "taf": "TAF EYPA 210510Z 2106/2206 17015G25KT 9000 NSC"
    },
    {
      "icao": "EYVI",
      "alert": "OK",
      "vis_m": 9999,
      "fzfg": false,
      "metar_trigger": false,
      "taf_trigger": false,
      "metar": "METAR EYVI 211020Z 17013KT CAVOK M04/M11 Q1019 NOSIG",
      "taf": "TAF EYVI 210500Z 2106/2206 18010KT 9000 NSC"
    },
    {
      "icao": "GCFV",
      "alert": "OK",
      "vis_m": 9999,
      "fzfg": false,
      "metar_trigger": false,
      "taf_trigger": false,
      "metar": "METAR GCFV 211030Z 03009KT 9999 SCT012 19/14 Q1024",
      "taf": "TAF GCFV 210800Z 2109/2209 04008KT 9999 FEW020 TX23/2114Z TN18/2206Z"
    },
    {
      "icao": "GCLP",
      "alert": "OK",
      "vis_m": 9999,
      "fzfg": false,
      "metar_trigger": false,
      "taf_trigger": false,
      "metar": "METAR GCLP 211030Z 03017KT 9999 FEW018 19/14 Q1023 NOSIG",
      "taf": "TAF GCLP 210800Z 2109/2209 03015KT 9999 FEW020 TX23/2114Z TN19/2206Z"
    },
    {
      "icao": "GCTS",
      "alert": "OK",
      "vis_m": 9999,
      "fzfg": false,
      "metar_trigger": false,
      "taf_trigger": false,
      "metar": "METAR GCTS 211030Z 08016KT CAVOK 20/11 Q1023 NOSIG",
      "taf": "TAF GCTS 210800Z 2109/2209 09013KT CAVOK TX26/2114Z TN18/2206Z"
    },
    {
      "icao": "GMAD",
      "alert": "OK",
      "vis_m": 9999,
      "fzfg": false,
      "metar_trigger": false,
      "taf_trigger": false,
      "metar": "METAR GMAD 211030Z 06008KT CAVOK 24/08 Q1024 NOSIG",
      "taf": "TAF GMAD 210500Z 2106/2212 08004KT 6000 SCT016"
    },
    {
      "icao": "GMMN",
      "alert": "OK",
      "vis_m": 9999,
      "fzfg": false,
      "metar_trigger": false,
      "taf_trigger": false,
      "metar": "METAR GMMN 211030Z VRB02KT CAVOK 19/15 Q1026 NOSIG",
      "taf": "TAF GMMN 210500Z 2106/2212 20003KT 4000 BR FEW001"
    },
    {
      "icao": "GMMX",
      "alert": "OK",
      "vis_m": 9999,
      "fzfg": false,
      "metar_trigger": false,
      "taf_trigger": false,
      "metar": "METAR GMMX 211030Z 12004KT 070V160 CAVOK 23/10 Q1026 NOSIG",
      "taf": "TAF GMMX 210500Z 2106/2212 06006KT 8000 NSC"
    },
    {
      "icao": "HEGN",
      "alert": "OK",
      "vis_m": 9999,
      "fzfg": false,
      "metar_trigger": false,
      "taf_trigger": false,
      "metar": "METAR HEGN 211000Z 35014KT CAVOK 23/12 Q1015 NOSIG",
      "taf": "TAF HEGN 210500Z 2106/2212 34015KT CAVOK"
    },
    {
      "icao": "HEMA",
      "alert": "OK",
      "vis_m": 9999,
      "fzfg": false,
      "metar_trigger": false,
      "taf_trigger": false,
      "metar": "METAR HEMA 211000Z 36010KT CAVOK 25/11 Q1015 NOSIG",
      "taf": "TAF HEMA 210500Z 2106/2212 35016KT CAVOK"
    },
    {
      "icao": "HESH",
      "alert": "OK",
      "vis_m": 9999,
      "fzfg": false,
      "metar_trigger": false,
      "taf_trigger": false,
      "metar": "METAR HESH 211000Z 01005KT CAVOK 27/12 Q1014 NOSIG",
      "taf": "TAF HESH 210500Z 2106/2212 01014KT CAVOK"
    },
    {
      "icao": "HESX",
      "alert": "OK",
      "vis_m": 9999,
      "fzfg": false,
      "metar_trigger": false,
      "taf_trigger": false,
      "metar": "METAR HESX 211000Z 30004KT CAVOK 17/06 Q1018 NOSIG",
      "taf": "TAF HESX 210500Z 2106/2212 30005KT 6000 NSC"
    },
    {
      "icao": "LATI",
      "alert": "OK",
      "vis_m": 9999,
      "fzfg": false,
      "metar_trigger": false,
      "taf_trigger": false,
      "metar": "METAR LATI 211020Z 35003KT 280V060 CAVOK 14/06 Q1017 NOSIG",
      "taf": "TAF LATI 210500Z 2106/2206 VRB03KT 9999 SCT072 TX15/2112Z TN02/2204Z"
    },
    {
      "icao": "LBPD",
      "alert": "OK",
      "vis_m": 9999,
      "fzfg": false,
      "metar_trigger": false,
      "taf_trigger": false,
      "metar": "METAR LBPD 211030Z AUTO 29010KT 9999 -RA FEW008/// SCT014/// OVC017/// 05/05 Q1019 NOSIG",
      "taf": "TAF LBPD 210500Z 2106/2206 28014KT 5000 RA BKN008 OVC020"
    },
    {
      "icao": "LBSF",
      "alert": "OK",
      "vis_m": 3200,
      "fzfg": false,
      "metar_trigger": false,
      "taf_trigger": false,
      "metar": "METAR LBSF 211030Z 31008KT 3200 -SN BR FEW020 BKN028 OVC039 M02/M03 Q1020 TEMPO 4000 -SN",
      "taf": "TAF LBSF 210500Z 2106/2206 35010KT 5000 -SN SCT015 BKN030"
    },
    {
      "icao": "LBWN",
      "alert": "OK",
      "vis_m": 8000,
      "fzfg": false,
      "metar_trigger": false,
      "taf_trigger": false,
      "metar": "METAR LBWN 211030Z 35010KT 310V060 8000 -RA OVC007 03/03 Q1020 TEMPO RA",
      "taf": "TAF LBWN 210500Z 2106/2206 06014KT 9999 BKN010 OVC015"
    },
    {
      "icao": "LCLK",
      "alert": "OK",
      "vis_m": 9999,
      "fzfg": false,
      "metar_trigger": false,
      "taf_trigger": false,
      "metar": "METAR LCLK 211030Z 09008KT 9999 FEW030 21/15 Q1015 NOSIG",
      "taf": "TAF LCLK 210530Z 2106/2206 34007KT 9999 FEW025"
    },
    {
      "icao": "LCPH",
      "alert": "OK",
      "vis_m": 9999,
      "fzfg": false,
      "metar_trigger": false,
      "taf_trigger": false,
      "metar": "METAR LCPH 211030Z 31011KT 250V320 9999 FEW030 19/11 Q1015 NOSIG",
      "taf": "TAF LCPH 210530Z 2106/2206 02008KT 9999 FEW020"
    },
    {
      "icao": "LEAL",
      "alert": "OK",
      "vis_m": 9999,
      "fzfg": false,
      "metar_trigger": false,
      "taf_trigger": false,
      "metar": "METAR LEAL 211030Z VRB03KT CAVOK 17/03 Q1032 NOSIG",
      "taf": "TAF LEAL 210500Z 2106/2206 VRB04KT CAVOK TX18/2113Z TN08/2106Z"
    },
    {
      "icao": "LEBB",
      "alert": "OK",
      "vis_m": 9999,
      "fzfg": false,
      "metar_trigger": false,
      "taf_trigger": false,
      "metar": "METAR LEBB 211030Z 10006KT 060V140 CAVOK 12/06 Q1032 NOSIG",
      "taf": ""
    },
    {
      "icao": "LEBL",
      "alert": "OK",
      "vis_m": 9999,
      "fzfg": false,
      "metar_trigger": false,
      "taf_trigger": false,
      "metar": "METAR LEBL 211030Z 33008KT 9999 FEW025 14/05 Q1031 NOSIG",
      "taf": "TAF LEBL 210500Z 2106/2206 33012KT 9999 SCT020 TX17/2113Z TN07/2107Z"
    },
    {
      "icao": "LECH",
      "alert": "OK",
      "vis_m": 9999,
      "fzfg": false,
      "metar_trigger": false,
      "taf_trigger": false,
      "metar": "METAR LECH 211030Z AUTO 21004KT 170V240 CAVOK 14/01 Q1032",
      "taf": ""
    },
    {
      "icao": "LEMD",
      "alert": "OK",
      "vis_m": 9999,
      "fzfg": false,
      "metar_trigger": false,
      "taf_trigger": false,
      "metar": "METAR LEMD 211030Z 30003KT 240V030 CAVOK 10/02 Q1032 NOSIG",
      "taf": "TAF LEMD 210500Z 2106/2212 VRB05KT CAVOK TX16/2114Z TN01/2107Z"
    },
    {
      "icao": "LEMG",
      "alert": "OK",
      "vis_m": 9999,
      "fzfg": false,
      "metar_trigger": false,
      "taf_trigger": false,
      "metar": "METAR LEMG 211030Z 30005KT CAVOK 15/10 Q1031 NOSIG",
      "taf": "TAF LEMG 210500Z 2106/2206 29005KT CAVOK TX20/2114Z TN11/2107Z"
    },
    {
      "icao": "LEVC",
      "alert": "OK",
      "vis_m": 9999,
      "fzfg": false,
      "metar_trigger": false,
      "taf_trigger": false,
      "metar": "METAR LEVC 211030Z 05002KT CAVOK 17/02 Q1032 NOSIG",
      "taf": "TAF LEVC 210500Z 2106/2206 VRB03KT CAVOK TX19/2114Z TN06/2106Z"
    },
    {
      "icao": "LEXJ",
      "alert": "OK",
      "vis_m": 9999,
      "fzfg": false,
      "metar_trigger": false,
      "taf_trigger": false,
      "metar": "METAR LEXJ 211030Z VRB02KT CAVOK 10/04 Q1032",
      "taf": "TAF LEXJ 210800Z 2109/2209 VRB03KT CAVOK TX17/2114Z TN07/2207Z"
    },
    {
      "icao": "LEZG",
      "alert": "OK",
      "vis_m": 9999,
      "fzfg": false,
      "metar_trigger": false,
      "taf_trigger": false,
      "metar": "METAR LEZG 211030Z 29010KT 260V320 CAVOK 11/03 Q1033 NOSIG",
      "taf": ""
    },
    {
      "icao": "LEZL",
      "alert": "OK",
      "vis_m": 9999,
      "fzfg": false,
      "metar_trigger": false,
      "taf_trigger": false,
      "metar": "METAR LEZL 211030Z 06008KT 030V110 CAVOK 16/06 Q1029 NOSIG",
      "taf": "TAF LEZL 210800Z 2109/2209 05007KT CAVOK TX22/2115Z TN08/2207Z"
    },
    {
      "icao": "LFBD",
      "alert": "OK",
      "vis_m": 9999,
      "fzfg": false,
      "metar_trigger": false,
      "taf_trigger": false,
      "metar": "METAR LFBD 211030Z AUTO 22007KT 9999 SCT010 SCT014 BKN032 13/10 Q1033 NOSIG",
      "taf": ""
    },
    {
      "icao": "LFLL",
      "alert": "OK",
      "vis_m": 9999,
      "fzfg": false,
      "metar_trigger": false,
      "taf_trigger": false,
      "metar": "METAR LFLL 211000Z 17003KT 120V220 9999 SCT026 BKN040 09/06 Q1032 NOSIG",
      "taf": "TAF LFLL 210500Z 2106/2212 15005KT 9999 OVC022"
    },
    {
      "icao": "LFLS",
      "alert": "OK",
      "vis_m": 9999,
      "fzfg": false,
      "metar_trigger": false,
      "taf_trigger": false,
      "metar": "METAR LFLS 211030Z AUTO 34006KT 300V010 9999 BKN022 BKN027 11/06 Q1031 NOSIG",
      "taf": "TAF LFLS 210800Z 2109/2209 09005KT 9999 BKN025 BKN040"
    },
    {
      "icao": "LFMN",
      "alert": "OK",
      "vis_m": 9999,
      "fzfg": false,
      "metar_trigger": false,
      "taf_trigger": false,
      "metar": "METAR LFMN 211030Z VRB02KT CAVOK 16/07 Q1024 NOSIG",
      "taf": "TAF LFMN 210800Z 2109/2215 34010KT CAVOK"
    },
    {
      "icao": "LFOB",
      "alert": "OK",
      "vis_m": 9999,
      "fzfg": false,
      "metar_trigger": false,
      "taf_trigger": false,
      "metar": "METAR LFOB 211030Z AUTO 26013KT 9999 OVC023 13/08 Q1025 TEMPO 25015G25KT 4000 -RADZ BKN012 OVC020",
      "taf": "TAF LFOB 210500Z 2106/2206 25012KT 9999 OVC020"
    },
    {
      "icao": "LFPO",
      "alert": "OK",
      "vis_m": 9999,
      "fzfg": false,
      "metar_trigger": false,
      "taf_trigger": false,
      "metar": "METAR LFPO 211030Z 26011KT 9999 BKN021 13/09 Q1026 NOSIG",
      "taf": "TAF LFPO 210500Z 2106/2212 25010KT 9999 BKN020"
    },
    {
      "icao": "LFSB",
      "alert": "OK",
      "vis_m": 9999,
      "fzfg": false,
      "metar_trigger": false,
      "taf_trigger": false,
      "metar": "METAR LFSB 211030Z AUTO 25017KT 9999 -DZ FEW025/// SCT060/// BKN072/// ///TCU 09/07 Q1026 TEMPO 26020G35KT",
      "taf": ""
    },
    {
      "icao": "LGAV",
      "alert": "OK",
      "vis_m": 9999,
      "fzfg": false,
      "metar_trigger": false,
      "taf_trigger": false,
      "metar": "METAR LGAV 211020Z COR VRB03KT 9999 FEW030 SCT040 16/08 Q1014 NOSIG",
      "taf": "TAF LGAV 210500Z 2106/2206 27010KT 9999 SCT025"
    },
    {
      "icao": "LGTS",
      "alert": "OK",
      "vis_m": 9999,
      "fzfg": false,
      "metar_trigger": false,
      "taf_trigger": false,
      "metar": "METAR LGTS 211020Z 32014KT 9999 FEW020 14/08 Q1015 NOSIG",
      "taf": "TAF LGTS 210500Z 2106/2206 VRB03KT 5000 BR BKN006 BKN020"
    },
    {
      "icao": "LHBP",
      "alert": "OK",
      "vis_m": 9999,
      "fzfg": false,
      "metar_trigger": false,
      "taf_trigger": false,
      "metar": "METAR LHBP 211030Z 21004KT CAVOK 04/M05 Q1023 NOSIG",
      "taf": "TAF LHBP 210515Z 2106/2206 VRB03KT CAVOK"
    },
    {
      "icao": "LHDC",
      "alert": "OK",
      "vis_m": 9999,
      "fzfg": false,
      "metar_trigger": false,
      "taf_trigger": false,
      "metar": "METAR LHDC 211015Z AUTO 23008KT 9999 -DZ BKN008 02/00 Q1024 NOSIG",
      "taf": "TAF LHDC 210815Z 2109/2118 21008KT 9999 BKN030 OVC060"
    },
    {
      "icao": "LIBD",
      "alert": "OK",
      "vis_m": 9999,
      "fzfg": false,
      "metar_trigger": false,
      "taf_trigger": false,
      "metar": "METAR LIBD 211020Z 30015KT 9999 BKN030 11/06 Q1020",
      "taf": "TAF LIBD 210500Z 2106/2206 27012KT CAVOK"
    },
    {
      "icao": "LIBG",
      "alert": "OK",
      "vis_m": 9999,
      "fzfg": false,
      "metar_trigger": false,
      "taf_trigger": false,
      "metar": "METAR LIBG 210950Z 32008KT 280V360 CAVOK 13/07 Q1019",
      "taf": "TAF LIBG 210800Z 2109/2118 34013KT CAVOK"
    },
    {
      "icao": "LIBP",
      "alert": "OK",
      "vis_m": 9999,
      "fzfg": false,
      "metar_trigger": false,
      "taf_trigger": false,
      "metar": "METAR LIBP 211020Z AUTO 27006KT 240V300 9999 BKN045/// 10/03 Q1023",
      "taf": "TAF LIBP 210500Z 2106/2206 34012KT 9999 SCT030"
    },
    {
      "icao": "LIBR",
      "alert": "OK",
      "vis_m": 9999,
      "fzfg": false,
      "metar_trigger": false,
      "taf_trigger": false,
      "metar": "METAR LIBR 211020Z 31024KT CAVOK 13/08 Q1018",
      "taf": "TAF LIBR 210500Z 2106/2206 34015KT CAVOK"
    },
    {
      "icao": "LICA",
      "alert": "OK",
      "vis_m": 9999,
      "fzfg": false,
      "metar_trigger": false,
      "taf_trigger": false,
      "metar": "METAR LICA 211020Z AUTO 22006KT 160V270 9999 NCD 15/10 Q1019",
      "taf": "TAF LICA 210500Z 2106/2206 VRB05KT 9999 SCT020"
    },
    {
      "icao": "LICC",
      "alert": "OK",
      "vis_m": 9999,
      "fzfg": false,
      "metar_trigger": false,
      "taf_trigger": false,
      "metar": "METAR LICC 211020Z 25016KT 9999 SCT070 17/12 Q1019",
      "taf": "TAF LICC 210500Z 2106/2206 28012KT 9999 SCT040"
    },
    {
      "icao": "LICJ",
      "alert": "OK",
      "vis_m": 9999,
      "fzfg": false,
      "metar_trigger": false,
      "taf_trigger": false,
      "metar": "METAR LICJ 211020Z 31011KT 9999 SCT020 15/10 Q1022",
      "taf": "TAF LICJ 210500Z 2106/2206 33020G30KT 9999 FEW030"
    },
    {
      "icao": "LIMC",
      "alert": "OK",
      "vis_m": 9999,
      "fzfg": false,
      "metar_trigger": false,
      "taf_trigger": false,
      "metar": "METAR LIMC 211020Z VRB03KT CAVOK 11/02 Q1024 NOSIG",
      "taf": "TAF LIMC 210500Z 2106/2212 VRB05KT CAVOK"
    },
    {
      "icao": "LIME",
      "alert": "OK",
      "vis_m": 9999,
      "fzfg": false,
      "metar_trigger": false,
      "taf_trigger": false,
      "metar": "METAR LIME 211020Z 24004KT 160V290 CAVOK 10/03 Q1024 NOSIG",
      "taf": "TAF LIME 210500Z 2106/2206 VRB05KT CAVOK"
    },
    {
      "icao": "LIMF",
      "alert": "OK",
      "vis_m": 9999,
      "fzfg": false,
      "metar_trigger": false,
      "taf_trigger": false,
      "metar": "METAR LIMF 211020Z VRB02KT CAVOK 10/04 Q1024",
      "taf": "TAF LIMF 210500Z 2106/2206 VRB05KT CAVOK"
    },
    {
      "icao": "LIMJ",
      "alert": "OK",
      "vis_m": 9999,
      "fzfg": false,
      "metar_trigger": false,
      "taf_trigger": false,
      "metar": "METAR LIMJ 211020Z 15003KT CAVOK 14/06 Q1024",
      "taf": "TAF LIMJ 210500Z 2106/2206 VRB05KT CAVOK"
    },
    {
      "icao": "LIPE",
      "alert": "OK",
      "vis_m": 9999,
      "fzfg": false,
      "metar_trigger": false,
      "taf_trigger": false,
      "metar": "METAR LIPE 211020Z VRB01KT CAVOK 12/03 Q1024",
      "taf": "TAF LIPE 210500Z 2106/2206 VRB05KT CAVOK"
    },
    {
      "icao": "LIPH",
      "alert": "OK",
      "vis_m": 9999,
      "fzfg": false,
      "metar_trigger": false,
      "taf_trigger": false,
      "metar": "METAR LIPH 211020Z VRB03KT CAVOK 10/04 Q1024",
      "taf": "TAF LIPH 210500Z 2106/2206 VRB05KT 9999 FEW040"
    },
    {
      "icao": "LIPQ",
      "alert": "OK",
      "vis_m": 9999,
      "fzfg": false,
      "metar_trigger": false,
      "taf_trigger": false,
      "metar": "METAR LIPQ 211020Z AUTO 33005KT 290V010 9999 NCD 11/01 Q1024",
      "taf": "TAF LIPQ 210500Z 2106/2206 VRB06KT 9999 FEW030"
    },
    {
      "icao": "LIPR",
      "alert": "OK",
      "vis_m": 9999,
      "fzfg": false,
      "metar_trigger": false,
      "taf_trigger": false,
      "metar": "METAR LIPR 211020Z 32008KT CAVOK 11/05 Q1024",
      "taf": "TAF LIPR 210500Z 2106/2206 VRB06KT 9999 SCT030"
    },
    {
      "icao": "LIPX",
      "alert": "OK",
      "vis_m": 9999,
      "fzfg": false,
      "metar_trigger": false,
      "taf_trigger": false,
      "metar": "METAR LIPX 211020Z VRB02KT CAVOK 10/04 Q1024",
      "taf": "TAF LIPX 210500Z 2106/2206 VRB05KT 9999 SCT020"
    },
    {
      "icao": "LIPY",
      "alert": "OK",
      "vis_m": 9999,
      "fzfg": false,
      "metar_trigger": false,
      "taf_trigger": false,
      "metar": "METAR LIPY 211020Z AUTO 33011KT 9999 NCD 11/05 Q1024",
      "taf": "TAF LIPY 210500Z 2106/2206 35015KT 9999 SCT030"
    },
    {
      "icao": "LIPZ",
      "alert": "OK",
      "vis_m": 9999,
      "fzfg": false,
      "metar_trigger": false,
      "taf_trigger": false,
      "metar": "METAR LIPZ 211020Z 16003KT 110V230 CAVOK 10/03 Q1024 NOSIG",
      "taf": "TAF LIPZ 210500Z 2106/2212 VRB05KT CAVOK"
    },
    {
      "icao": "LIRF",
      "alert": "OK",
      "vis_m": 9999,
      "fzfg": false,
      "metar_trigger": false,
      "taf_trigger": false,
      "metar": "METAR LIRF 211020Z 36007KT 330V040 CAVOK 12/04 Q1022 NOSIG",
      "taf": "TAF LIRF 210500Z 2106/2212 03010KT CAVOK"
    },
    {
      "icao": "LIRN",
      "alert": "OK",
      "vis_m": 9999,
      "fzfg": false,
      "metar_trigger": false,
      "taf_trigger": false,
      "metar": "METAR LIRN 211020Z 35007KT 330V030 CAVOK 13/02 Q1021 NOSIG",
      "taf": "TAF LIRN 210500Z 2106/2206 04008KT 9999 SCT030"
    },
    {
      "icao": "LIRP",
      "alert": "OK",
      "vis_m": 9999,
      "fzfg": false,
      "metar_trigger": false,
      "taf_trigger": false,
      "metar": "METAR LIRP 211015Z 10005KT CAVOK 13/05 Q1024 NOSIG",
      "taf": "TAF LIRP 210500Z 2106/2206 10005KT CAVOK"
    },
    {
      "icao": "LIRZ",
      "alert": "OK",
      "vis_m": 9999,
      "fzfg": false,
      "metar_trigger": false,
      "taf_trigger": false,
      "metar": "METAR LIRZ 211020Z AUTO 05013KT 9999 NCD 10/02 Q1023",
      "taf": "TAF LIRZ 210500Z 2106/2206 01007KT CAVOK"
    },
    {
      "icao": "LJLJ",
      "alert": "OK",
      "vis_m": 9999,
      "fzfg": false,
      "metar_trigger": false,
      "taf_trigger": false,
      "metar": "METAR LJLJ 211030Z 17002KT 9999 FEW020 BKN130 05/M01 Q1024 NOSIG",
      "taf": "TAF LJLJ 210500Z 2106/2206 VRB02KT 6000 FEW005 BKN015"
    },
    {
      "icao": "LKMT",
      "alert": "OK",
      "vis_m": 3500,
      "fzfg": false,
      "metar_trigger": false,
      "taf_trigger": false,
      "metar": "METAR LKMT 211030Z 24013KT 3500 -SN BR FEW013 OVC026 M02/M04 Q1021 TEMPO 6000",
      "taf": "TAF LKMT 210500Z 2106/2206 23008KT CAVOK"
    },
    {
      "icao": "LKPR",
      "alert": "OK",
      "vis_m": 9999,
      "fzfg": false,
      "metar_trigger": false,
      "taf_trigger": false,
      "metar": "METAR LKPR 211030Z 22018KT 9999 BKN032 05/03 Q1018 NOSIG",
      "taf": "TAF LKPR 210800Z 2109/2215 23014KT 9999 BKN025"
    },
    {
      "icao": "LLBG",
      "alert": "OK",
      "vis_m": 9999,
      "fzfg": false,
      "metar_trigger": false,
      "taf_trigger": false,
      "metar": "METAR LLBG 211020Z 27011KT 9999 FEW027 21/14 Q1015 NOSIG",
      "taf": "TAF LLBG 210503Z 2106/2206 17008KT 9999 SCT018"
    },
    {
      "icao": "LMML",
      "alert": "OK",
      "vis_m": 9999,
      "fzfg": false,
      "metar_trigger": false,
      "taf_trigger": false,
      "metar": "METAR LMML 211015Z 30018KT 9999 SCT019 16/11 Q1022 NOSIG",
      "taf": "TAF LMML 210500Z 2106/2206 30015KT 9999 FEW018"
    },
    {
      "icao": "LOWW",
      "alert": "OK",
      "vis_m": 9999,
      "fzfg": false,
      "metar_trigger": false,
      "taf_trigger": false,
      "metar": "METAR LOWW 211020Z 20007KT 9999 FEW022 BKN026 M00/M04 Q1023 REFZRA NOSIG",
      "taf": "TAF LOWW 210815Z 2109/2215 22004KT 9999 BKN040 TX06/2215Z TNM02/2109Z"
    },
    {
      "icao": "LPFR",
      "alert": "OK",
      "vis_m": 9999,
      "fzfg": false,
      "metar_trigger": false,
      "taf_trigger": false,
      "metar": "METAR LPFR 211030Z 07011KT CAVOK 17/04 Q1029",
      "taf": "TAF LPFR 210500Z 2106/2206 03010KT CAVOK"
    },
    {
      "icao": "LPMA",
      "alert": "OK",
      "vis_m": 9999,
      "fzfg": false,
      "metar_trigger": false,
      "taf_trigger": false,
      "metar": "METAR LPMA 211030Z 04013KT 360V060 9999 FEW016 17/10 Q1027",
      "taf": "TAF LPMA 210500Z 2106/2206 03010KT 9999 SCT016"
    },
    {
      "icao": "LPPR",
      "alert": "OK",
      "vis_m": 9999,
      "fzfg": false,
      "metar_trigger": false,
      "taf_trigger": false,
      "metar": "METAR LPPR 211030Z 13005KT 090V170 CAVOK 13/07 Q1031",
      "taf": "TAF LPPR 210500Z 2106/2206 09005KT CAVOK"
    },
    {
      "icao": "LPPS",
      "alert": "OK",
      "vis_m": 9999,
      "fzfg": false,
      "metar_trigger": false,
      "taf_trigger": false,
      "metar": "METAR LPPS 211030Z 06010KT 030V100 9999 FEW015 SCT030 17/11 Q1027",
      "taf": "TAF LPPS 210500Z 2106/2212 09010KT 9999 SCT015 BKN030"
    },
    {
      "icao": "LPPT",
      "alert": "OK",
      "vis_m": 9999,
      "fzfg": false,
      "metar_trigger": false,
      "taf_trigger": false,
      "metar": "METAR LPPT 211030Z 06007KT 330V090 CAVOK 13/08 Q1030",
      "taf": "TAF LPPT 210500Z 2106/2212 02005KT CAVOK"
    },
    {
      "icao": "LQBK",
      "alert": "OK",
      "vis_m": 9999,
      "fzfg": false,
      "metar_trigger": false,
      "taf_trigger": false,
      "metar": "METAR LQBK 211030Z VRB03KT CAVOK 03/M01 Q1025 NOSIG",
      "taf": "TAF LQBK 210500Z 2106/2206 30007KT 9999 BKN040 TX05/2113Z TNM01/2106Z"
    },
    {
      "icao": "LQSA",
      "alert": "OK",
      "vis_m": 9999,
      "fzfg": false,
      "metar_trigger": false,
      "taf_trigger": false,
      "metar": "METAR LQSA 211030Z 31008KT 9999 FEW020 BKN035 02/M01 Q1023 NOSIG",
      "taf": "TAF LQSA 210500Z 2106/2206 29006KT 9999 BKN030 TX04/2113Z TNM01/2204Z"
    },
    {
      "icao": "LQTZ",
      "alert": "OK",
      "vis_m": 7000,
      "fzfg": false,
      "metar_trigger": false,
      "taf_trigger": false,
      "metar": "METAR LQTZ 211030Z 33005KT 7000 -RA BKN007 OVC025 01/M00 Q1025",
      "taf": "TAF LQTZ 210500Z 2106/2206 27007KT 9999 SCT015 OVC030 TX03/2113Z TNM01/2106Z"
    },
    {
      "icao": "LRBC",
      "alert": "OK",
      "vis_m": 9999,
      "fzfg": false,
      "metar_trigger": false,
      "taf_trigger": false,
      "metar": "METAR LRBC 211030Z VRB02KT 9999 FEW045 BKN053 OVC065 M01/M08 Q1027",
      "taf": "TAF LRBC 210800Z 2109/2118 VRB04KT 9999 BKN050"
    },
    {
      "icao": "LRBS",
      "alert": "OK",
      "vis_m": 800,
      "fzfg": false,
      "metar_trigger": false,
      "taf_trigger": false,
      "metar": "METAR LRBS 211030Z 05009KT 0800 R07/1100N SN FEW004 BKN005 OVC010 M03/M04 Q1025 BECMG 1500 -SN BR",
      "taf": "TAF LRBS 210500Z 2106/2206 06018KT 3000 SN BR BKN010 OVC030"
    },
    {
      "icao": "LRBV",
      "alert": "OK",
      "vis_m": 2200,
      "fzfg": false,
      "metar_trigger": false,
      "taf_trigger": false,
      "metar": "METAR LRBV 211030Z 09008KT 2200 -SN BR BKN028 BKN037 M04/M06 Q1023",
      "taf": "TAF LRBV 210800Z 2109/2118 10008KT 1500 -SN BR BKN015 OVC035"
    },
    {
      "icao": "LRCL",
      "alert": "OK",
      "vis_m": 9999,
      "fzfg": false,
      "metar_trigger": false,
      "taf_trigger": false,
      "metar": "METAR LRCL 211030Z 14008KT 110V170 9999 OVC030 02/M03 Q1023",
      "taf": "TAF LRCL 210800Z 2109/2118 13005KT 9999 BKN015 OVC045"
    },
    {
      "icao": "LRCV",
      "alert": "OK",
      "vis_m": 1400,
      "fzfg": false,
      "metar_trigger": false,
      "taf_trigger": false,
      "metar": "METAR LRCV 211030Z 14005KT 1400 R26/1450U -SN BR FEW003 OVC012 M02/M03 Q1025",
      "taf": "TAF LRCV 210800Z 2109/2118 11007KT 3000 -SN BR BKN015 OVC025"
    },
    {
      "icao": "LRIA",
      "alert": "OK",
      "vis_m": 9999,
      "fzfg": false,
      "metar_trigger": false,
      "taf_trigger": false,
      "metar": "METAR LRIA 211030Z 09004KT 050V120 CAVOK M01/M04 Q1028",
      "taf": "TAF LRIA 210800Z 2109/2118 VRB04KT CAVOK"
    },
    {
      "icao": "LROP",
      "alert": "OK",
      "vis_m": 400,
      "fzfg": true,
      "metar_trigger": false,
      "taf_trigger": false,
      "metar": "METAR LROP 211030Z 06012KT 0400 R08R/0600D SN FZFG OVC004 M03/M03 Q1025 BECMG 0800",
      "taf": "TAF LROP 210500Z 2106/2206 06018KT 3000 SN BR BKN010 OVC030"
    },
    {
      "icao": "LRSB",
      "alert": "OK",
      "vis_m": 3000,
      "fzfg": false,
      "metar_trigger": false,
      "taf_trigger": false,
      "metar": "METAR LRSB 211030Z 10003KT 3000 -SN BR FEW005 SCT016 BKN023 M01/M02 Q1023",
      "taf": "TAF LRSB 210500Z 2106/2206 12006KT 9999 SCT015 OVC035"
    },
    {
      "icao": "LRSM",
      "alert": "OK",
      "vis_m": 9999,
      "fzfg": false,
      "metar_trigger": false,
      "taf_trigger": false,
      "metar": "METAR LRSM 211030Z AUTO 17009KT 9999 -DZ FEW015/// BKN019/// OVC022/// 03/01 Q1024",
      "taf": ""
    },
    {
      "icao": "LRSV",
      "alert": "OK",
      "vis_m": 9999,
      "fzfg": false,
      "metar_trigger": false,
      "taf_trigger": false,
      "metar": "METAR LRSV 211030Z AUTO 12011KT 9999 R16////// R34/P2000 OVC074/// M03/M08 Q1024",
      "taf": "TAF LRSV 210800Z 2109/2118 13010KT CAVOK"
    },
    {
      "icao": "LRTM",
      "alert": "OK",
      "vis_m": 9999,
      "fzfg": false,
      "metar_trigger": false,
      "taf_trigger": false,
      "metar": "METAR LRTM 211030Z 15004KT 090V200 9999 -SN FEW019 SCT028 BKN045 02/M03 Q1024",
      "taf": "TAF LRTM 210800Z 2109/2118 VRB04KT 9999 BKN030"
    },
    {
      "icao": "LRTR",
      "alert": "OK",
      "vis_m": 9999,
      "fzfg": false,
      "metar_trigger": false,
      "taf_trigger": false,
      "metar": "METAR LRTR 211030Z 21011KT 9999 FEW017 BKN024 04/01 Q1024",
      "taf": "TAF LRTR 210500Z 2106/2206 VRB04KT 9999 BKN030"
    },
    {
      "icao": "LTAC",
      "alert": "OK",
      "vis_m": 9999,
      "fzfg": false,
      "metar_trigger": false,
      "taf_trigger": false,
      "metar": "METAR LTAC 211020Z 28003KT 9999 FEW040 SCT100 11/00 Q1015 NOSIG RMK RWY21C 24005KT 160V270 RWY03L 27004KT 180V340 RWY21R 22006KT 180V250 RWY03R 25005KT 200V300 RWY21L VRB04KT",
      "taf": "TAF LTAC 210440Z 2106/2206 VRB02KT 9999 SCT040 SCT100"
    },
    {
      "icao": "LTFM",
      "alert": "OK",
      "vis_m": 6000,
      "fzfg": false,
      "metar_trigger": false,
      "taf_trigger": false,
      "metar": "METAR LTFM 211020Z 32017G30KT 6000 BKN003 BKN025 08/06 Q1016 NOSIG RMK RWY17L 31016KT RWY34L 32016KT RWY16R 31013KT RWY36 32016KT RWY18 32018KT",
      "taf": "TAF LTFM 210440Z 2106/2212 32014KT 2200 BCFG BKN001 BKN028"
    },
    {
      "icao": "LUKK",
      "alert": "OK",
      "vis_m": 9999,
      "fzfg": false,
      "metar_trigger": false,
      "taf_trigger": false,
      "metar": "METAR LUKK 211030Z 06009KT CAVOK M02/M08 Q1028 NOSIG",
      "taf": "TAF LUKK 210524Z 2106/2206 03010KT CAVOK"
    },
    {
      "icao": "LWOH",
      "alert": "OK",
      "vis_m": 9999,
      "fzfg": false,
      "metar_trigger": false,
      "taf_trigger": false,
      "metar": "METAR LWOH 211020Z 34007KT 300V030 9999 FEW020 SCT040 10/04 Q1016",
      "taf": "TAF LWOH 210810Z 2109/2209 35006KT 9999 FEW020 SCT040"
    },
    {
      "icao": "LWSK",
      "alert": "OK",
      "vis_m": 9999,
      "fzfg": false,
      "metar_trigger": false,
      "taf_trigger": false,
      "metar": "METAR LWSK 211020Z 36018KT 9999 FEW025 BKN045 07/01 Q1020 NOSIG",
      "taf": "TAF LWSK 210810Z 2109/2209 34015KT 9999 SCT025 BKN055"
    },
    {
      "icao": "LYBE",
      "alert": "OK",
      "vis_m": 9999,
      "fzfg": false,
      "metar_trigger": false,
      "taf_trigger": false,
      "metar": "METAR LYBE 211030Z 26008KT 9999 BKN008 01/M00 Q1025 NOSIG",
      "taf": "TAF LYBE 210500Z 2106/2206 25008KT 8000 BKN005 BKN027 TX03/2113Z TN00/2106Z"
    },
    {
      "icao": "LYNI",
      "alert": "OK",
      "vis_m": 9999,
      "fzfg": false,
      "metar_trigger": false,
      "taf_trigger": false,
      "metar": "METAR LYNI 211030Z 34007KT 310V010 9999 FEW020 BKN050 OVC080 02/M03 Q1023 NOSIG",
      "taf": "TAF LYNI 210500Z 2106/2206 36010KT 9999 SCT015 BKN030 TX03/2114Z TN01/2106Z"
    },
    {
      "icao": "LYPG",
      "alert": "OK",
      "vis_m": 9999,
      "fzfg": false,
      "metar_trigger": false,
      "taf_trigger": false,
      "metar": "METAR LYPG 211030Z 13005KT CAVOK 13/04 Q1018 NOSIG",
      "taf": "TAF LYPG 210500Z 2106/2206 01007KT 9999 FEW050 TX14/2113Z TN04/2106Z"
    },
    {
      "icao": "LZIB",
      "alert": "OK",
      "vis_m": 8000,
      "fzfg": false,
      "metar_trigger": false,
      "taf_trigger": false,
      "metar": "METAR LZIB 211030Z VRB01KT 8000 -PL FEW020 BKN040 00/M02 Q1023 BECMG NSW",
      "taf": ""
    },
    {
      "icao": "LZKZ",
      "alert": "OK",
      "vis_m": 9999,
      "fzfg": false,
      "metar_trigger": false,
      "taf_trigger": false,
      "metar": "METAR LZKZ 211030Z 00000KT 9999 FEW011 OVC024 01/M05 Q1022 NOSIG",
      "taf": "TAF LZKZ 210515Z 2106/2206 VRB02KT 9999 BKN030"
    },
    {
      "icao": "LZTT",
      "alert": "OK",
      "vis_m": 9999,
      "fzfg": false,
      "metar_trigger": false,
      "taf_trigger": false,
      "metar": "METAR LZTT 211030Z 00000KT CAVOK M00/M07 Q1018 NOSIG",
      "taf": "TAF LZTT 210515Z 2106/2206 VRB02KT 9999 FEW050"
    },
    {
      "icao": "OEJN",
      "alert": "OK",
      "vis_m": 9999,
      "fzfg": false,
      "metar_trigger": false,
      "taf_trigger": false,
      "metar": "METAR OEJN 211000Z 24008KT CAVOK 30/19 Q1012 NOSIG",
      "taf": "TAF OEJN 210500Z 2106/2212 26010KT 7000 NSC"
    },
    {
      "icao": "OEMA",
      "alert": "OK",
      "vis_m": 9999,
      "fzfg": false,
      "metar_trigger": false,
      "taf_trigger": false,
      "metar": "METAR OEMA 211000Z 11011KT CAVOK 29/M07 Q1019 NOSIG",
      "taf": "TAF OEMA 210500Z 2106/2212 13010KT 7000 NSC"
    },
    {
      "icao": "OJAI",
      "alert": "OK",
      "vis_m": 5000,
      "fzfg": false,
      "metar_trigger": false,
      "taf_trigger": false,
      "metar": "METAR OJAI 211000Z 14008KT 5000 HZ NSC 21/02 Q1017 NOSIG",
      "taf": "TAF OJAI 210429Z 2106/2212 14010KT 5000 HZ NSC"
    },
    {
      "icao": "OMAA",
      "alert": "OK",
      "vis_m": 9999,
      "fzfg": false,
      "metar_trigger": false,
      "taf_trigger": false,
      "metar": "METAR OMAA 211030Z 30013KT 280V350 CAVOK 30/12 Q1014 NOSIG",
      "taf": "TAF OMAA 210500Z 2106/2212 07005KT 8000 NSC"
    },
    {
      "icao": "OMDB",
      "alert": "OK",
      "vis_m": 9999,
      "fzfg": false,
      "metar_trigger": false,
      "taf_trigger": false,
      "metar": "METAR OMDB 211030Z 33011KT CAVOK 30/11 Q1014 NOSIG",
      "taf": "TAF OMDB 210500Z 2106/2212 17005KT 8000 NSC"
    },
    {
      "icao": "UAAA",
      "alert": "OK",
      "vis_m": 9999,
      "fzfg": false,
      "metar_trigger": false,
      "taf_trigger": false,
      "metar": "METAR UAAA 211030Z 21003MPS 180V250 9999 BKN040CB OVC100 06/03 Q1029 NOSIG",
      "taf": "TAF UAAA 210501Z 2106/2206 26003G08MPS 6000 BKN011CB OVC100 TX08/2107Z TNM03/2201Z"
    },
    {
      "icao": "UBBB",
      "alert": "OK",
      "vis_m": 9999,
      "fzfg": false,
      "metar_trigger": false,
      "taf_trigger": false,
      "metar": "METAR UBBB 211030Z 24012KT 9999 FEW024 12/06 Q1020 NOSIG",
      "taf": "TAF UBBB 210514Z 2106/2206 18016G26KT 8000 BKN007 TX12/2110Z TN08/2101Z"
    },
    {
      "icao": "UDSG",
      "alert": "OK",
      "vis_m": 9999,
      "fzfg": false,
      "metar_trigger": false,
      "taf_trigger": false,
      "metar": "METAR UDSG 211030Z 26004KT 9999 NSC 03/M04 Q1024 NOSIG",
      "taf": "TAF UDSG 210458Z 2106/2206 VRB06KT 9999 FEW040"
    },
    {
      "icao": "UDYZ",
      "alert": "OK",
      "vis_m": 9999,
      "fzfg": false,
      "metar_trigger": false,
      "taf_trigger": false,
      "metar": "METAR UDYZ 211030Z 09003KT 040V140 9999 NSC 12/M03 Q1023 NOSIG",
      "taf": "TAF UDYZ 210500Z 2106/2206 VRB06KT 9999 FEW040"
    },
    {
      "icao": "UGKO",
      "alert": "OK",
      "vis_m": 9999,
      "fzfg": false,
      "metar_trigger": false,
      "taf_trigger": false,
      "metar": "METAR UGKO 211030Z 10013KT CAVOK 20/M03 Q1016 NOSIG",
      "taf": "TAF UGKO 210500Z 2106/2206 08017KT CAVOK TX22/2111Z TN10/2119Z"
    }
  ]
}