{
  "ts_utc": "2026-02-14T12:20:55Z",
  "threshold_m": 150,
  "source": "stations_override.txt (ICAO list) + aviationweather.gov (METAR/TAF raw)",
  "station_count": 159,
  "stations": [
    {
      "icao": "BIKF",
      "alert": "OK",
      "vis_m": 9999,
      "fzfg": false,
      "metar_trigger": false,
      "taf_trigger": false,
      "metar": "METAR BIKF 141200Z 11015KT CAVOK M00/M06 Q1003",
      "taf": "TAF BIKF 141035Z 1412/1512 09010KT CAVOK TX00/1415Z TNM06/1506Z"
    },
    {
      "icao": "BKPR",
      "alert": "OK",
      "vis_m": 9999,
      "fzfg": false,
      "metar_trigger": false,
      "taf_trigger": false,
      "metar": "METAR BKPR 141200Z 19007KT 9999 SCT080 09/05 Q1003 NOSIG",
      "taf": "TAF BKPR 141130Z 1412/1512 17012KT 9999 BKN040"
    },
    {
      "icao": "EBCI",
      "alert": "OK",
      "vis_m": 9999,
      "fzfg": false,
      "metar_trigger": false,
      "taf_trigger": false,
      "metar": "METAR EBCI 141150Z 01009KT 330V030 9999 FEW013 BKN016 00/M03 Q1011 NOSIG",
      "taf": "TAF EBCI 141100Z 1412/1518 01011KT 9999 BKN018"
    },
    {
      "icao": "EDDB",
      "alert": "OK",
      "vis_m": 9999,
      "fzfg": false,
      "metar_trigger": false,
      "taf_trigger": false,
      "metar": "METAR EDDB 141150Z AUTO 01011KT 9999 BKN017 01/M02 Q1008 NOSIG",
      "taf": "TAF EDDB 141100Z 1412/1512 36009KT 9999 BKN030"
    },
    {
      "icao": "EDDH",
      "alert": "OK",
      "vis_m": 9999,
      "fzfg": false,
      "metar_trigger": false,
      "taf_trigger": false,
      "metar": "METAR EDDH 141150Z AUTO 02006KT 350V060 9999 BKN016 BKN037 M01/M04 Q1012 NOSIG",
      "taf": "TAF EDDH 141100Z 1412/1518 01006KT 9999 FEW015 BKN030"
    },
    {
      "icao": "EDDK",
      "alert": "OK",
      "vis_m": 9999,
      "fzfg": false,
      "metar_trigger": false,
      "taf_trigger": false,
      "metar": "METAR EDDK 141150Z AUTO 36008KT 330V050 9999 OVC011 01/M02 Q1010 NOSIG",
      "taf": "TAF EDDK 141100Z 1412/1518 35008KT 9999 OVC010"
    },
    {
      "icao": "EDDN",
      "alert": "OK",
      "vis_m": 9999,
      "fzfg": false,
      "metar_trigger": false,
      "taf_trigger": false,
      "metar": "METAR EDDN 141150Z AUTO 36011KT 9999 BKN015 04/00 Q1003 NOSIG",
      "taf": "TAF EDDN 141100Z 1412/1512 36010KT 9999 SCT015 OVC040"
    },
    {
      "icao": "EDDS",
      "alert": "OK",
      "vis_m": 9999,
      "fzfg": false,
      "metar_trigger": false,
      "taf_trigger": false,
      "metar": "METAR EDDS 141150Z AUTO 01010KT 320V040 9999 -RADZ SCT008 BKN016 BKN022 05/04 Q1001 TEMPO BKN009",
      "taf": "TAF EDDS 141100Z 1412/1512 36009KT 9999 BKN010"
    },
    {
      "icao": "EDFH",
      "alert": "OK",
      "vis_m": 450,
      "fzfg": true,
      "metar_trigger": false,
      "taf_trigger": false,
      "metar": "METAR EDFH 141150Z 36012KT 330V030 0450 R03/0600N FZFG VV/// M01/M01 Q1006",
      "taf": "TAF EDFH 141100Z 1412/1512 01010KT 2000 BR OVC002"
    },
    {
      "icao": "EDJA",
      "alert": "OK",
      "vis_m": 9999,
      "fzfg": false,
      "metar_trigger": false,
      "taf_trigger": false,
      "metar": "METAR EDJA 141150Z 02009KT 9999 -RA SCT014 BKN017 OVC055 05/02 Q0999",
      "taf": "TAF EDJA 141100Z 1412/1421 02010KT 9999 SCT014 OVC040"
    },
    {
      "icao": "EDLW",
      "alert": "OK",
      "vis_m": 9999,
      "fzfg": false,
      "metar_trigger": false,
      "taf_trigger": false,
      "metar": "METAR EDLW 141150Z 34007KT 9999 SCT008 OVC010 M00/M02 Q1010",
      "taf": "TAF EDLW 141100Z 1412/1512 01006KT 9999 OVC008"
    },
    {
      "icao": "EDNY",
      "alert": "OK",
      "vis_m": 9999,
      "fzfg": false,
      "metar_trigger": false,
      "taf_trigger": false,
      "metar": "METAR EDNY 141150Z 05006KT 9999 OVC022 07/03 Q1000",
      "taf": "TAF EDNY 141100Z 1412/1421 03006KT 9999 BKN020"
    },
    {
      "icao": "EDSB",
      "alert": "OK",
      "vis_m": 9999,
      "fzfg": false,
      "metar_trigger": false,
      "taf_trigger": false,
      "metar": "METAR EDSB 141150Z 02013KT 340V040 9999 OVC009 04/02 Q1004",
      "taf": "TAF EDSB 141100Z 1412/1512 02012KT 9999 BKN010"
    },
    {
      "icao": "EETN",
      "alert": "OK",
      "vis_m": 9999,
      "fzfg": false,
      "metar_trigger": false,
      "taf_trigger": false,
      "metar": "METAR EETN 141150Z 05009KT CAVOK M10/M13 Q1011 NOSIG",
      "taf": "TAF EETN 141130Z 1412/1512 03012KT CAVOK"
    },
    {
      "icao": "EFTU",
      "alert": "OK",
      "vis_m": 9999,
      "fzfg": false,
      "metar_trigger": false,
      "taf_trigger": false,
      "metar": "METAR EFTU 141150Z AUTO 08002KT CAVOK M11/M16 Q1013",
      "taf": "TAF EFTU 141128Z 1412/1512 10002KT CAVOK"
    },
    {
      "icao": "EGBB",
      "alert": "OK",
      "vis_m": 9999,
      "fzfg": false,
      "metar_trigger": false,
      "taf_trigger": false,
      "metar": "METAR EGBB 141150Z 32007KT 260V350 CAVOK 05/M02 Q1017",
      "taf": "TAF EGBB 141100Z 1412/1512 30005KT 9999 FEW040"
    },
    {
      "icao": "EGGP",
      "alert": "OK",
      "vis_m": 9999,
      "fzfg": false,
      "metar_trigger": false,
      "taf_trigger": false,
      "metar": "METAR EGGP 141150Z VRB02KT 9999 FEW028 06/M00 Q1017",
      "taf": "TAF EGGP 141055Z 1412/1512 VRB03KT CAVOK"
    },
    {
      "icao": "EGGW",
      "alert": "OK",
      "vis_m": 9999,
      "fzfg": false,
      "metar_trigger": false,
      "taf_trigger": false,
      "metar": "METAR EGGW 141150Z AUTO 34005G15KT 270V020 9999 NCD 04/M01 Q1016",
      "taf": "TAF EGGW 141101Z 1412/1512 30006KT 9999 FEW040"
    },
    {
      "icao": "EGKK",
      "alert": "OK",
      "vis_m": 9999,
      "fzfg": false,
      "metar_trigger": false,
      "taf_trigger": false,
      "metar": "METAR EGKK 141150Z 03010KT 350V070 9999 FEW033 05/M02 Q1017",
      "taf": "TAF EGKK 141057Z 1412/1518 02012KT 9999 SCT035"
    },
    {
      "icao": "EGNM",
      "alert": "OK",
      "vis_m": 9999,
      "fzfg": false,
      "metar_trigger": false,
      "taf_trigger": false,
      "metar": "METAR EGNM 141150Z 28007KT 240V310 CAVOK 02/M03 Q1016",
      "taf": "TAF EGNM 141055Z 1412/1512 29006KT CAVOK"
    },
    {
      "icao": "EGPD",
      "alert": "OK",
      "vis_m": 9999,
      "fzfg": false,
      "metar_trigger": false,
      "taf_trigger": false,
      "metar": "METAR EGPD 141150Z COR AUTO 24005KT 210V270 9999 NCD 04/M02 Q1013 NOSIG",
      "taf": "TAF EGPD 141054Z 1412/1512 28010KT 9999 FEW020"
    },
    {
      "icao": "EGPF",
      "alert": "OK",
      "vis_m": 9999,
      "fzfg": false,
      "metar_trigger": false,
      "taf_trigger": false,
      "metar": "METAR EGPF 141150Z AUTO 02003KT 340V100 9999 NCD 02/M01 Q1015",
      "taf": "TAF EGPF 141104Z 1412/1512 VRB03KT 9999 FEW040"
    },
    {
      "icao": "EHBK",
      "alert": "OK",
      "vis_m": 9999,
      "fzfg": false,
      "metar_trigger": false,
      "taf_trigger": false,
      "metar": "METAR EHBK 141155Z AUTO 02015KT 350V050 9999 OVC013/// 00/M02 Q1011 NOSIG",
      "taf": "TAF EHBK 141116Z 1412/1518 01012KT 9999 BKN012"
    },
    {
      "icao": "EHEH",
      "alert": "OK",
      "vis_m": 9999,
      "fzfg": false,
      "metar_trigger": false,
      "taf_trigger": false,
      "metar": "METAR EHEH 141155Z AUTO 36012KT 320V060 9999 OVC018 01/M04 Q1013 WHT NOSIG RMK TREND REMOTE BY EHWX",
      "taf": "TAF EHEH 141141Z 1412/1518 02012KT 9999 BKN018"
    },
    {
      "icao": "EKBI",
      "alert": "OK",
      "vis_m": 9999,
      "fzfg": false,
      "metar_trigger": false,
      "taf_trigger": false,
      "metar": "METAR EKBI 141150Z AUTO 01003KT 9999 NCD M02/M08 Q1014",
      "taf": "TAF EKBI 141127Z 1412/1512 04004KT CAVOK"
    },
    {
      "icao": "EKCH",
      "alert": "OK",
      "vis_m": 9999,
      "fzfg": false,
      "metar_trigger": false,
      "taf_trigger": false,
      "metar": "METAR EKCH 141150Z AUTO 03010KT 9999 NCD M02/M07 Q1013 NOSIG",
      "taf": "TAF EKCH 141127Z 1412/1512 03010KT CAVOK"
    },
    {
      "icao": "ENAL",
      "alert": "OK",
      "vis_m": 9999,
      "fzfg": false,
      "metar_trigger": false,
      "taf_trigger": false,
      "metar": "METAR ENAL 141150Z 15007KT CAVOK 01/M05 Q1010",
      "taf": "TAF ENAL 141100Z 1412/1421 15008KT CAVOK"
    },
    {
      "icao": "ENBR",
      "alert": "OK",
      "vis_m": 9999,
      "fzfg": false,
      "metar_trigger": false,
      "taf_trigger": false,
      "metar": "METAR ENBR 141150Z 00000KT 9999 SCT015 01/M03 Q1011 NOSIG RMK WIND 1200FT 15008KT",
      "taf": "TAF ENBR 141100Z 1412/1512 VRB05KT 9999 SCT015"
    },
    {
      "icao": "ENGM",
      "alert": "OK",
      "vis_m": 9999,
      "fzfg": false,
      "metar_trigger": false,
      "taf_trigger": false,
      "metar": "METAR ENGM 141150Z 00000KT CAVOK M09/M15 Q1013 NOSIG",
      "taf": "TAF ENGM 141100Z 1412/1512 35003KT CAVOK"
    },
    {
      "icao": "ENHD",
      "alert": "OK",
      "vis_m": 9000,
      "fzfg": false,
      "metar_trigger": false,
      "taf_trigger": false,
      "metar": "METAR ENHD 141150Z 10007KT 9000 -SN FEW007 SCT010 OVC035 M00/M01 Q1011",
      "taf": "TAF ENHD 141100Z 1412/1421 11008KT 8000 -SN FEW020 BKN035"
    },
    {
      "icao": "ENTC",
      "alert": "OK",
      "vis_m": 9999,
      "fzfg": false,
      "metar_trigger": false,
      "taf_trigger": false,
      "metar": "METAR ENTC 141150Z 18017KT 9999 -SN BKN021 BKN025 M03/M07 Q0997 TEMPO 2500 -SHSN VV010 RMK WIND 2600FT 19026KT",
      "taf": "TAF ENTC 141100Z 1412/1512 20018KT 9999 FEW015 SCT030"
    },
    {
      "icao": "ENTO",
      "alert": "OK",
      "vis_m": 9999,
      "fzfg": false,
      "metar_trigger": false,
      "taf_trigger": false,
      "metar": "METAR ENTO 141150Z 36006KT 9999 BKN025 M10/M14 Q1014 NOSIG",
      "taf": "TAF ENTO 141100Z 1412/1512 35003KT 9999 BKN030"
    },
    {
      "icao": "ENVA",
      "alert": "OK",
      "vis_m": 9000,
      "fzfg": false,
      "metar_trigger": false,
      "taf_trigger": false,
      "metar": "METAR ENVA 141150Z 08006KT 9000 -SN FEW013 BKN026 OVC046 M07/M11 Q1010 TEMPO 1000 SHSN VV008 RMK WIND 670FT 35003KT",
      "taf": "TAF ENVA 141100Z 1412/1512 10009KT 9999 FEW020 SCT035"
    },
    {
      "icao": "ENZV",
      "alert": "OK",
      "vis_m": 5000,
      "fzfg": false,
      "metar_trigger": false,
      "taf_trigger": false,
      "metar": "METAR ENZV 141150Z 12006KT 070V160 5000 -SN BKN029 00/M04 Q1011 TEMPO 1000 SHSN VV008",
      "taf": "TAF ENZV 141100Z 1412/1512 10010KT 9999 FEW018 BKN030"
    },
    {
      "icao": "EPGD",
      "alert": "OK",
      "vis_m": 9999,
      "fzfg": false,
      "metar_trigger": false,
      "taf_trigger": false,
      "metar": "METAR EPGD 141200Z 01007KT 330V040 9999 -SN OVC007 M04/M05 Q1006",
      "taf": "TAF EPGD 141130Z 1412/1512 01008KT 9999 BKN006"
    },
    {
      "icao": "EPKK",
      "alert": "OK",
      "vis_m": 9999,
      "fzfg": false,
      "metar_trigger": false,
      "taf_trigger": false,
      "metar": "METAR EPKK 141200Z 10004KT 030V120 9999 BKN015 04/01 Q1002",
      "taf": "TAF EPKK 141130Z 1412/1512 03007KT 9999 SCT012 BKN017"
    },
    {
      "icao": "EPKT",
      "alert": "OK",
      "vis_m": 9999,
      "fzfg": false,
      "metar_trigger": false,
      "taf_trigger": false,
      "metar": "METAR EPKT 141200Z 01005KT 9999 BKN009 OVC011 01/M01 Q1003",
      "taf": "TAF EPKT 141130Z 1412/1512 01007KT 9999 BKN012"
    },
    {
      "icao": "EPLB",
      "alert": "OK",
      "vis_m": 9999,
      "fzfg": false,
      "metar_trigger": false,
      "taf_trigger": false,
      "metar": "METAR EPLB 141200Z 30011KT 9999 OVC015 01/M02 Q1003",
      "taf": "TAF EPLB 141130Z 1412/1512 30010KT 9999 SCT012 BKN018"
    },
    {
      "icao": "EPMO",
      "alert": "OK",
      "vis_m": 9999,
      "fzfg": false,
      "metar_trigger": false,
      "taf_trigger": false,
      "metar": "METAR EPMO 141200Z 34006KT 300V020 9999 BKN009 M04/M05 Q1005",
      "taf": "TAF EPMO 141130Z 1412/1512 34008KT 9999 BKN008 OVC012"
    },
    {
      "icao": "EPPO",
      "alert": "OK",
      "vis_m": 9999,
      "fzfg": false,
      "metar_trigger": false,
      "taf_trigger": false,
      "metar": "METAR EPPO 141200Z 02005KT 9999 BKN013 M01/M03 Q1006",
      "taf": "TAF EPPO 141130Z 1412/1512 36006KT 9999 BKN015"
    },
    {
      "icao": "EPRA",
      "alert": "OK",
      "vis_m": 8000,
      "fzfg": false,
      "metar_trigger": false,
      "taf_trigger": false,
      "metar": "METAR EPRA 141200Z 33007KT 8000 OVC005 M00/M03 Q1003",
      "taf": "TAF EPRA 141130Z 1412/1421 34008KT 8000 OVC006"
    },
    {
      "icao": "EPRZ",
      "alert": "OK",
      "vis_m": 9999,
      "fzfg": false,
      "metar_trigger": false,
      "taf_trigger": false,
      "metar": "METAR EPRZ 141200Z 25006KT 220V280 9999 BKN020 06/01 Q1003",
      "taf": "TAF EPRZ 141130Z 1412/1512 27006KT 9999 SCT020"
    },
    {
      "icao": "EPSC",
      "alert": "OK",
      "vis_m": 9999,
      "fzfg": false,
      "metar_trigger": false,
      "taf_trigger": false,
      "metar": "METAR EPSC 141200Z 34006KT 9999 FEW017 SCT020 OVC041 00/M03 Q1008",
      "taf": "TAF EPSC 141130Z 1412/1512 35008KT 9999 FEW020 BKN040"
    },
    {
      "icao": "EPSY",
      "alert": "OK",
      "vis_m": 9999,
      "fzfg": false,
      "metar_trigger": false,
      "taf_trigger": false,
      "metar": "METAR EPSY 141200Z 33007KT 9999 OVC008 M06/M08 Q1005",
      "taf": "TAF EPSY 141130Z 1412/1421 36008KT 9999 BKN008"
    },
    {
      "icao": "EPWA",
      "alert": "OK",
      "vis_m": 9999,
      "fzfg": false,
      "metar_trigger": false,
      "taf_trigger": false,
      "metar": "METAR EPWA 141200Z 29008KT 9999 BKN010 M03/M04 Q1004 NOSIG",
      "taf": "TAF EPWA 141130Z 1412/1512 34008KT 9999 SCT008 BKN012"
    },
    {
      "icao": "EPWR",
      "alert": "OK",
      "vis_m": 9999,
      "fzfg": false,
      "metar_trigger": false,
      "taf_trigger": false,
      "metar": "METAR EPWR 141200Z 03006KT 9999 -DZ BKN007 01/M00 Q1005",
      "taf": "TAF EPWR 141130Z 1412/1512 36007KT 9999 BKN010"
    },
    {
      "icao": "ESGG",
      "alert": "OK",
      "vis_m": 9999,
      "fzfg": false,
      "metar_trigger": false,
      "taf_trigger": false,
      "metar": "METAR ESGG 141150Z 07003KT CAVOK M04/M10 Q1012",
      "taf": "TAF ESGG 141130Z 1412/1512 02005KT CAVOK"
    },
    {
      "icao": "ESKN",
      "alert": "OK",
      "vis_m": 9999,
      "fzfg": false,
      "metar_trigger": false,
      "taf_trigger": false,
      "metar": "METAR ESKN 141150Z 31004KT CAVOK M08/M12 Q1014",
      "taf": "TAF ESKN 141130Z 1412/1512 32005KT CAVOK"
    },
    {
      "icao": "ESMS",
      "alert": "OK",
      "vis_m": 9999,
      "fzfg": false,
      "metar_trigger": false,
      "taf_trigger": false,
      "metar": "METAR ESMS 141150Z 02007KT 350V050 CAVOK M03/M08 Q1011",
      "taf": "TAF ESMS 141127Z 1412/1512 02008KT CAVOK"
    },
    {
      "icao": "ESSA",
      "alert": "OK",
      "vis_m": 9999,
      "fzfg": false,
      "metar_trigger": false,
      "taf_trigger": false,
      "metar": "METAR ESSA 141150Z 21003KT CAVOK M10/M13 Q1013 NOSIG",
      "taf": "TAF ESSA 141130Z 1412/1512 23004KT CAVOK"
    },
    {
      "icao": "EYKA",
      "alert": "OK",
      "vis_m": 5000,
      "fzfg": false,
      "metar_trigger": false,
      "taf_trigger": false,
      "metar": "METAR EYKA 141150Z 35004KT 290V060 5000 -SN BR OVC019 M09/M12 Q1004",
      "taf": "TAF EYKA 141100Z 1412/1512 VRB04KT 6000 BKN015"
    },
    {
      "icao": "EYPA",
      "alert": "OK",
      "vis_m": 9999,
      "fzfg": false,
      "metar_trigger": false,
      "taf_trigger": false,
      "metar": "METAR EYPA 141150Z 05009KT 030V090 CAVOK M06/M13 Q1008",
      "taf": "TAF EYPA 141100Z 1412/1512 VRB05KT 8000 NSC"
    },
    {
      "icao": "EYVI",
      "alert": "OK",
      "vis_m": 9999,
      "fzfg": false,
      "metar_trigger": false,
      "taf_trigger": false,
      "metar": "METAR EYVI 141150Z 32010KT 9999 BKN011 OVC033 M09/M11 Q1001 NOSIG",
      "taf": "TAF EYVI 141101Z 1412/1512 35010KT 6000 BKN010"
    },
    {
      "icao": "GCFV",
      "alert": "OK",
      "vis_m": 9999,
      "fzfg": false,
      "metar_trigger": false,
      "taf_trigger": false,
      "metar": "METAR GCFV 141200Z 02024KT 9999 FEW033 SCT038 20/11 Q1027",
      "taf": "TAF GCFV 140800Z 1409/1509 04022KT 9999 FEW040 TX22/1414Z TN15/1506Z"
    },
    {
      "icao": "GCLP",
      "alert": "OK",
      "vis_m": 9999,
      "fzfg": false,
      "metar_trigger": false,
      "taf_trigger": false,
      "metar": "METAR GCLP 141200Z 01027G37KT 9999 BKN035 20/11 Q1027 NOSIG",
      "taf": "TAF GCLP 140800Z 1409/1509 02025KT 9999 FEW035 TX22/1414Z TN16/1506Z"
    },
    {
      "icao": "GCTS",
      "alert": "OK",
      "vis_m": 9999,
      "fzfg": false,
      "metar_trigger": false,
      "taf_trigger": false,
      "metar": "METAR GCTS 141200Z 08027KT 9999 FEW030 21/09 Q1027 WS R07 NOSIG",
      "taf": "TAF GCTS 140800Z 1409/1509 08025KT 9999 SCT035 TX24/1414Z TN15/1506Z"
    },
    {
      "icao": "GMAD",
      "alert": "OK",
      "vis_m": 9999,
      "fzfg": false,
      "metar_trigger": false,
      "taf_trigger": false,
      "metar": "METAR GMAD 141200Z 33003KT 260V060 CAVOK 19/09 Q1020 NOSIG",
      "taf": "TAF GMAD 141100Z 1412/1518 28013KT 8000 NSC"
    },
    {
      "icao": "GMMN",
      "alert": "OK",
      "vis_m": 9999,
      "fzfg": false,
      "metar_trigger": false,
      "taf_trigger": false,
      "metar": "METAR GMMN 141200Z 35014KT 9999 SCT030 15/08 Q1029 NOSIG",
      "taf": "TAF GMMN 141100Z 1412/1518 36014KT 9999 SCT030"
    },
    {
      "icao": "GMMX",
      "alert": "OK",
      "vis_m": 9999,
      "fzfg": false,
      "metar_trigger": false,
      "taf_trigger": false,
      "metar": "METAR GMMX 141209Z 08007KT 040V130 9999 FEW020 BKN023 14/08 Q1028 NOSIG",
      "taf": "TAF GMMX 141100Z 1412/1518 06008KT 8000 SCT023 SCT090"
    },
    {
      "icao": "HEGN",
      "alert": "OK",
      "vis_m": 3000,
      "fzfg": false,
      "metar_trigger": false,
      "taf_trigger": false,
      "metar": "METAR HEGN 141100Z 35014KT 3000 SA NSC 27/M00 Q1015 NOSIG",
      "taf": "TAF HEGN 141100Z 1412/1518 35010G20KT 6000 NSC"
    },
    {
      "icao": "HEMA",
      "alert": "OK",
      "vis_m": 4000,
      "fzfg": false,
      "metar_trigger": false,
      "taf_trigger": false,
      "metar": "METAR HEMA 141100Z 36016KT 4000 SA NSC 26/13 Q1014 NOSIG",
      "taf": "TAF HEMA 141100Z 1412/1518 34010G20KT 6000 NSC"
    },
    {
      "icao": "HESH",
      "alert": "OK",
      "vis_m": 9999,
      "fzfg": false,
      "metar_trigger": false,
      "taf_trigger": false,
      "metar": "METAR HESH 141100Z 06007KT CAVOK 27/16 Q1014 NOSIG",
      "taf": "TAF HESH 141100Z 1412/1518 36010G20KT 6000 NSC"
    },
    {
      "icao": "HESX",
      "alert": "OK",
      "vis_m": 9999,
      "fzfg": false,
      "metar_trigger": false,
      "taf_trigger": false,
      "metar": "METAR HESX 141100Z 31008KT CAVOK 21/02 Q1017 NOSIG",
      "taf": "TAF HESX 141100Z 1412/1518 30008KT CAVOK"
    },
    {
      "icao": "LATI",
      "alert": "OK",
      "vis_m": 9999,
      "fzfg": false,
      "metar_trigger": false,
      "taf_trigger": false,
      "metar": "METAR LATI 141220Z 20003KT 9999 -RA FEW055 OVC070 14/08 Q1002 NOSIG",
      "taf": "TAF LATI 141100Z 1412/1512 VRB05KT 9999 SCT040 BKN080 TX16/1412Z TN08/1505Z"
    },
    {
      "icao": "LBPD",
      "alert": "OK",
      "vis_m": 9999,
      "fzfg": false,
      "metar_trigger": false,
      "taf_trigger": false,
      "metar": "METAR LBPD 141200Z AUTO 08007KT 060V130 9999 SCT230/// 14/06 Q1004 NOSIG",
      "taf": "TAF LBPD 141100Z 1412/1512 VRB03KT 9999 SCT060"
    },
    {
      "icao": "LBSF",
      "alert": "OK",
      "vis_m": 9999,
      "fzfg": false,
      "metar_trigger": false,
      "taf_trigger": false,
      "metar": "METAR LBSF 141200Z VRB02KT 9999 BKN070 11/03 Q1004 NOSIG",
      "taf": "TAF LBSF 141100Z 1412/1512 VRB03KT 9999 SCT060"
    },
    {
      "icao": "LBWN",
      "alert": "OK",
      "vis_m": 9999,
      "fzfg": false,
      "metar_trigger": false,
      "taf_trigger": false,
      "metar": "METAR LBWN 141200Z 23005KT 180V270 CAVOK 16/07 Q1005 NOSIG",
      "taf": "TAF LBWN 141100Z 1412/1512 23010KT 9999 SCT045"
    },
    {
      "icao": "LCLK",
      "alert": "OK",
      "vis_m": 9999,
      "fzfg": false,
      "metar_trigger": false,
      "taf_trigger": false,
      "metar": "METAR LCLK 141200Z 22019KT 9999 FEW035 SCT070 21/16 Q1011 NOSIG",
      "taf": "TAF LCLK 141130Z 1412/1512 23018KT 9999 FEW025"
    },
    {
      "icao": "LCPH",
      "alert": "OK",
      "vis_m": 7000,
      "fzfg": false,
      "metar_trigger": false,
      "taf_trigger": false,
      "metar": "METAR LCPH 141200Z 29016KT 250V320 7000 BKN018 SCT023 FEW030TCU 19/14 Q1012 NOSIG",
      "taf": "TAF LCPH 141130Z 1412/1512 30018KT 9999 FEW025"
    },
    {
      "icao": "LEAL",
      "alert": "OK",
      "vis_m": 9999,
      "fzfg": false,
      "metar_trigger": false,
      "taf_trigger": false,
      "metar": "METAR LEAL 141200Z 31025G38KT 9999 FEW012 17/M00 Q1006 NOSIG",
      "taf": "TAF LEAL 141100Z 1412/1512 31020KT CAVOK TX17/1413Z TN09/1506Z"
    },
    {
      "icao": "LEBB",
      "alert": "OK",
      "vis_m": 8000,
      "fzfg": false,
      "metar_trigger": false,
      "taf_trigger": false,
      "metar": "METAR LEBB 141200Z 31022G36KT 8000 -SHRA FEW014 BKN019 SCT023TCU BKN030 10/08 Q1017 RESHRA TEMPO 3000 SHRA",
      "taf": "TAF LEBB 141100Z 1412/1512 30009KT 9999 SCT020 BKN030 TX11/1412Z TN07/1501Z"
    },
    {
      "icao": "LEBL",
      "alert": "OK",
      "vis_m": 9999,
      "fzfg": false,
      "metar_trigger": false,
      "taf_trigger": false,
      "metar": "METAR LEBL 141200Z 32017G33KT 9999 FEW030 17/05 Q0998 NOSIG",
      "taf": ""
    },
    {
      "icao": "LECH",
      "alert": "OK",
      "vis_m": 9999,
      "fzfg": false,
      "metar_trigger": false,
      "taf_trigger": false,
      "metar": "METAR LECH 141200Z AUTO 33033G49KT 280V020 CAVOK 14/M01 Q1001",
      "taf": ""
    },
    {
      "icao": "LEMD",
      "alert": "OK",
      "vis_m": 9999,
      "fzfg": false,
      "metar_trigger": false,
      "taf_trigger": false,
      "metar": "METAR LEMD 141200Z 32021KT 290V360 9999 SCT060 08/M03 Q1015 NOSIG",
      "taf": "TAF LEMD 141100Z 1412/1518 32017KT 9999 FEW050 TX11/1415Z TNM00/1507Z"
    },
    {
      "icao": "LEMG",
      "alert": "OK",
      "vis_m": 9999,
      "fzfg": false,
      "metar_trigger": false,
      "taf_trigger": false,
      "metar": "METAR LEMG 141200Z 31016G28KT 260V330 9999 FEW045 13/01 Q1020 NOSIG",
      "taf": ""
    },
    {
      "icao": "LEVC",
      "alert": "OK",
      "vis_m": 9999,
      "fzfg": false,
      "metar_trigger": false,
      "taf_trigger": false,
      "metar": "METAR LEVC 141200Z 32022G32KT 300V360 9999 FEW060 17/M01 Q1005 NOSIG",
      "taf": "TAF LEVC 141100Z 1412/1512 33020KT CAVOK TX17/1414Z TN10/1506Z"
    },
    {
      "icao": "LEXJ",
      "alert": "OK",
      "vis_m": 9000,
      "fzfg": false,
      "metar_trigger": false,
      "taf_trigger": false,
      "metar": "METAR LEXJ 141200Z 33022G32KT 290V020 9000 -RA FEW020 BKN040 FEW042TCU 10/06 Q1020",
      "taf": ""
    },
    {
      "icao": "LEZG",
      "alert": "OK",
      "vis_m": 9999,
      "fzfg": false,
      "metar_trigger": false,
      "taf_trigger": false,
      "metar": "SPECI LEZG 141217Z 30036G49KT 9999 SCT030 SCT050 BKN060 10/05 Q1010 WS R30R NOSIG",
      "taf": "TAF LEZG 141100Z 1412/1512 30020KT 9999 FEW030 SCT060 TX12/1412Z TN06/1506Z"
    },
    {
      "icao": "LEZL",
      "alert": "OK",
      "vis_m": 9999,
      "fzfg": false,
      "metar_trigger": false,
      "taf_trigger": false,
      "metar": "METAR LEZL 141200Z 33019G31KT 290V010 CAVOK 15/01 Q1022 NOSIG",
      "taf": "TAF LEZL 140800Z 1409/1509 33013KT 9999 FEW035 TX20/1415Z TN07/1507Z"
    },
    {
      "icao": "LFBD",
      "alert": "OK",
      "vis_m": 9999,
      "fzfg": false,
      "metar_trigger": false,
      "taf_trigger": false,
      "metar": "METAR LFBD 141200Z AUTO 35015KT 9999 BKN021 OVC030 09/05 Q1013 BECMG 36015G25KT",
      "taf": "TAF LFBD 141100Z 1412/1518 36015G25KT 9999 BKN020 TX11/1512Z TN02/1504Z"
    },
    {
      "icao": "LFLL",
      "alert": "OK",
      "vis_m": 9999,
      "fzfg": false,
      "metar_trigger": false,
      "taf_trigger": false,
      "metar": "METAR LFLL 141200Z 34021KT 9999 BKN010 08/06 Q1001 TEMPO 36020G30KT",
      "taf": "TAF LFLL 141100Z 1412/1518 36018KT 9999 OVC010"
    },
    {
      "icao": "LFLS",
      "alert": "OK",
      "vis_m": 9999,
      "fzfg": false,
      "metar_trigger": false,
      "taf_trigger": false,
      "metar": "METAR LFLS 141200Z AUTO 33017KT 9999 -RA BKN014 BKN019 BKN025 08/06 Q1000 TEMPO 34020G35KT 4000 RA OVC006",
      "taf": ""
    },
    {
      "icao": "LFMN",
      "alert": "OK",
      "vis_m": 9999,
      "fzfg": false,
      "metar_trigger": false,
      "taf_trigger": false,
      "metar": "METAR LFMN 141200Z VRB02KT 9999 BKN110 14/08 Q0991 NOSIG",
      "taf": "TAF LFMN 140800Z 1409/1515 35005KT 9999 BKN070"
    },
    {
      "icao": "LFOB",
      "alert": "OK",
      "vis_m": 9999,
      "fzfg": false,
      "metar_trigger": false,
      "taf_trigger": false,
      "metar": "METAR LFOB 141200Z AUTO 02016KT 9999 BKN026 02/M02 Q1013 BECMG 02015G25KT",
      "taf": "TAF LFOB 141100Z 1412/1512 02015G25KT 9999 BKN025"
    },
    {
      "icao": "LFPO",
      "alert": "OK",
      "vis_m": 9999,
      "fzfg": false,
      "metar_trigger": false,
      "taf_trigger": false,
      "metar": "METAR LFPO 141200Z 01015KT 340V040 9999 OVC023 02/M03 Q1012 NOSIG",
      "taf": "TAF LFPO 141100Z 1412/1518 01015KT 9999 BKN020"
    },
    {
      "icao": "LFSB",
      "alert": "OK",
      "vis_m": 9999,
      "fzfg": false,
      "metar_trigger": false,
      "taf_trigger": false,
      "metar": "METAR LFSB 141200Z AUTO 35013KT 9999 -DZ OVC007 06/05 Q1002 TEMPO 36015G25KT",
      "taf": ""
    },
    {
      "icao": "LGAV",
      "alert": "OK",
      "vis_m": 9999,
      "fzfg": false,
      "metar_trigger": false,
      "taf_trigger": false,
      "metar": "METAR LGAV 141150Z 22009KT CAVOK 19/08 Q1007 NOSIG",
      "taf": "TAF LGAV 141100Z 1412/1512 19012KT 9999 SCT025"
    },
    {
      "icao": "LGTS",
      "alert": "OK",
      "vis_m": 9999,
      "fzfg": false,
      "metar_trigger": false,
      "taf_trigger": false,
      "metar": "METAR LGTS 141150Z 28008KT 9999 SCT020 14/09 Q1005 NOSIG",
      "taf": "TAF LGTS 141100Z 1412/1512 13010KT 9999 SCT030"
    },
    {
      "icao": "LHBP",
      "alert": "OK",
      "vis_m": 9999,
      "fzfg": false,
      "metar_trigger": false,
      "taf_trigger": false,
      "metar": "METAR LHBP 141200Z 20009KT 160V220 CAVOK 14/02 Q1000 NOSIG",
      "taf": "TAF LHBP 141115Z 1412/1512 14010KT CAVOK"
    },
    {
      "icao": "LHDC",
      "alert": "OK",
      "vis_m": 9999,
      "fzfg": false,
      "metar_trigger": false,
      "taf_trigger": false,
      "metar": "METAR LHDC 141145Z AUTO 17005KT 110V210 CAVOK 11/06 Q1002 NOSIG",
      "taf": "TAF LHDC 141115Z 1412/1421 16004KT CAVOK"
    },
    {
      "icao": "LIBD",
      "alert": "OK",
      "vis_m": 9999,
      "fzfg": false,
      "metar_trigger": false,
      "taf_trigger": false,
      "metar": "METAR LIBD 141150Z 17007KT CAVOK 15/11 Q0997",
      "taf": "TAF LIBD 141100Z 1412/1512 16013KT 9999 BKN030"
    },
    {
      "icao": "LIBG",
      "alert": "OK",
      "vis_m": 9999,
      "fzfg": false,
      "metar_trigger": false,
      "taf_trigger": false,
      "metar": "METAR LIBG 141150Z 17015KT 9999 BKN045 15/12 Q0999",
      "taf": "TAF LIBG 141100Z 1412/1421 17016G26KT 9999 BKN030"
    },
    {
      "icao": "LIBP",
      "alert": "OK",
      "vis_m": 9999,
      "fzfg": false,
      "metar_trigger": false,
      "taf_trigger": false,
      "metar": "METAR LIBP 141150Z AUTO 15006KT 080V200 9999 FEW076/// BKN180/// 16/08 Q0994",
      "taf": "TAF LIBP 141100Z 1412/1512 14012KT 9999 BKN030"
    },
    {
      "icao": "LIBR",
      "alert": "OK",
      "vis_m": 9999,
      "fzfg": false,
      "metar_trigger": false,
      "taf_trigger": false,
      "metar": "METAR LIBR 141150Z 18016KT 9999 SCT020 15/11 Q0999",
      "taf": "TAF LIBR 141100Z 1412/1512 18018G28KT 9999 BKN030"
    },
    {
      "icao": "LICA",
      "alert": "OK",
      "vis_m": 9999,
      "fzfg": false,
      "metar_trigger": false,
      "taf_trigger": false,
      "metar": "METAR LICA 141150Z AUTO 06012KT 9999 BKN092/// 14/09 Q0997",
      "taf": "TAF LICA 141100Z 1412/1512 08016KT 9999 SCT020 SCT060"
    },
    {
      "icao": "LICC",
      "alert": "OK",
      "vis_m": 9999,
      "fzfg": false,
      "metar_trigger": false,
      "taf_trigger": false,
      "metar": "METAR LICC 141150Z 04010KT 9999 BKN030 17/13 Q0996",
      "taf": "TAF LICC 141100Z 1412/1512 08010KT 9999 SCT030"
    },
    {
      "icao": "LICJ",
      "alert": "OK",
      "vis_m": 7000,
      "fzfg": false,
      "metar_trigger": false,
      "taf_trigger": false,
      "metar": "METAR LICJ 141150Z AUTO 18006KT 7000 DZ OVC012/// 12/09 Q0998 RERA",
      "taf": "TAF LICJ 141100Z 1412/1512 26012KT 9999 SCT030"
    },
    {
      "icao": "LIMC",
      "alert": "OK",
      "vis_m": 9999,
      "fzfg": false,
      "metar_trigger": false,
      "taf_trigger": false,
      "metar": "METAR LIMC 141150Z 33008KT 9999 -DZ BKN050 09/07 Q0996 NOSIG",
      "taf": "TAF LIMC 141100Z 1412/1518 35010KT 8000 RA BKN040"
    },
    {
      "icao": "LIME",
      "alert": "OK",
      "vis_m": 9999,
      "fzfg": false,
      "metar_trigger": false,
      "taf_trigger": false,
      "metar": "METAR LIME 141150Z 28007KT 9999 -RA FEW030 BKN040 BKN060 10/07 Q0995 NOSIG",
      "taf": "TAF LIME 141100Z 1412/1512 28007KT 8000 RA BKN040"
    },
    {
      "icao": "LIMF",
      "alert": "OK",
      "vis_m": 9999,
      "fzfg": false,
      "metar_trigger": false,
      "taf_trigger": false,
      "metar": "METAR LIMF 141150Z 33007KT 9999 -RA BKN025 BKN045 09/05 Q0997",
      "taf": "TAF LIMF 141100Z 1412/1512 VRB05KT 9999 BKN030"
    },
    {
      "icao": "LIMJ",
      "alert": "OK",
      "vis_m": 9999,
      "fzfg": false,
      "metar_trigger": false,
      "taf_trigger": false,
      "metar": "METAR LIMJ 141150Z 03010KT 360V060 9999 SCT050 OVC065 12/06 Q0993",
      "taf": "TAF LIMJ 141100Z 1412/1512 03014KT 6000 RA BKN040"
    },
    {
      "icao": "LIPE",
      "alert": "OK",
      "vis_m": 8000,
      "fzfg": false,
      "metar_trigger": false,
      "taf_trigger": false,
      "metar": "METAR LIPE 141150Z 04006KT 8000 BKN006 BKN020 11/09 Q0994",
      "taf": "TAF LIPE 141100Z 1412/1512 VRB05KT 3000 RA BKN010"
    },
    {
      "icao": "LIPH",
      "alert": "OK",
      "vis_m": 4000,
      "fzfg": false,
      "metar_trigger": false,
      "taf_trigger": false,
      "metar": "METAR LIPH 141150Z 03008KT 010V070 4000 RA BR BKN028 10/09 Q0996",
      "taf": "TAF LIPH 141100Z 1412/1512 05010KT 4000 RA BKN020"
    },
    {
      "icao": "LIPQ",
      "alert": "OK",
      "vis_m": 9999,
      "fzfg": false,
      "metar_trigger": false,
      "taf_trigger": false,
      "metar": "METAR LIPQ 141150Z AUTO 07005KT 040V100 9999 RA OVC034/// 11/10 Q0997",
      "taf": "TAF LIPQ 141100Z 1412/1512 15012KT 6000 RA BKN030"
    },
    {
      "icao": "LIPR",
      "alert": "OK",
      "vis_m": 9999,
      "fzfg": false,
      "metar_trigger": false,
      "taf_trigger": false,
      "metar": "METAR LIPR 141150Z 11005KT 9999 -RA BKN060 10/09 Q0994",
      "taf": "TAF LIPR 141100Z 1412/1512 VRB06KT 4000 RA BKN030"
    },
    {
      "icao": "LIPX",
      "alert": "OK",
      "vis_m": 9999,
      "fzfg": false,
      "metar_trigger": false,
      "taf_trigger": false,
      "metar": "METAR LIPX 141150Z 05010KT 9999 -RA OVC040 11/06 Q0995",
      "taf": "TAF LIPX 141100Z 1412/1512 08010KT 7000 RA BKN050"
    },
    {
      "icao": "LIPY",
      "alert": "OK",
      "vis_m": 9999,
      "fzfg": false,
      "metar_trigger": false,
      "taf_trigger": false,
      "metar": "METAR LIPY 141150Z AUTO 22004KT 9999 -RA OVC054/// 12/09 Q0994",
      "taf": "TAF LIPY 141100Z 1412/1512 16008KT 4000 RA BKN030"
    },
    {
      "icao": "LIPZ",
      "alert": "OK",
      "vis_m": 9999,
      "fzfg": false,
      "metar_trigger": false,
      "taf_trigger": false,
      "metar": "METAR LIPZ 141150Z 02011KT 9999 -RA FEW025 BKN050 10/09 Q0996 NOSIG",
      "taf": "TAF LIPZ 141100Z 1412/1518 04014KT 4000 RA BKN025"
    },
    {
      "icao": "LIRF",
      "alert": "OK",
      "vis_m": 9999,
      "fzfg": false,
      "metar_trigger": false,
      "taf_trigger": false,
      "metar": "METAR LIRF 141150Z 19016KT 9999 FEW020TCU SCT035 16/12 Q0992 NOSIG",
      "taf": "TAF LIRF 141100Z 1412/1518 18018KT 9999 BKN020"
    },
    {
      "icao": "LIRN",
      "alert": "OK",
      "vis_m": 9999,
      "fzfg": false,
      "metar_trigger": false,
      "taf_trigger": false,
      "metar": "METAR LIRN 141150Z 17010KT 140V210 9999 FEW030 BKN060 15/11 Q0996 NOSIG",
      "taf": "TAF LIRN 141100Z 1412/1512 17010KT 9999 BKN030"
    },
    {
      "icao": "LIRP",
      "alert": "OK",
      "vis_m": 9999,
      "fzfg": false,
      "metar_trigger": false,
      "taf_trigger": false,
      "metar": "METAR LIRP 141145Z 08010KT 9999 -RA SCT023 SCT030 12/11 Q0991 NOSIG",
      "taf": "TAF LIRP 141100Z 1412/1512 09012KT 9999 SCT020 BKN040"
    },
    {
      "icao": "LIRZ",
      "alert": "OK",
      "vis_m": 9999,
      "fzfg": false,
      "metar_trigger": false,
      "taf_trigger": false,
      "metar": "METAR LIRZ 141150Z AUTO 11003KT 050V140 9999 -RA OVC053/// 09/08 Q0993 RERA",
      "taf": "TAF LIRZ 141100Z 1412/1512 VRB06KT 6000 BKN030"
    },
    {
      "icao": "LJLJ",
      "alert": "OK",
      "vis_m": 9999,
      "fzfg": false,
      "metar_trigger": false,
      "taf_trigger": false,
      "metar": "METAR LJLJ 141200Z 05001KT 9999 SCT050 BKN140 08/06 Q0997 NOSIG",
      "taf": "TAF LJLJ 141100Z 1412/1512 VRB02KT 9999 SCT050"
    },
    {
      "icao": "LKMT",
      "alert": "OK",
      "vis_m": 6000,
      "fzfg": false,
      "metar_trigger": false,
      "taf_trigger": false,
      "metar": "METAR LKMT 141200Z 03008KT 6000 -RA OVC009 02/01 Q1003 NOSIG",
      "taf": "TAF LKMT 141100Z 1412/1512 01012KT 3500 BR OVC005"
    },
    {
      "icao": "LKPR",
      "alert": "OK",
      "vis_m": 9999,
      "fzfg": false,
      "metar_trigger": false,
      "taf_trigger": false,
      "metar": "METAR LKPR 141200Z 33011KT 9999 OVC011 01/M01 Q1003 TEMPO BKN015",
      "taf": "TAF LKPR 141100Z 1412/1518 01006KT 9999 BKN015"
    },
    {
      "icao": "LLBG",
      "alert": "OK",
      "vis_m": 1300,
      "fzfg": false,
      "metar_trigger": false,
      "taf_trigger": false,
      "metar": "METAR LLBG 141150Z 23014KT 1300 R08/1800 R12/1000/ R21/1100/ R26/1400/ ///// Q////",
      "taf": "TAF LLBG 141109Z 1412/1512 26012KT 4000 DU SCT035"
    },
    {
      "icao": "LMML",
      "alert": "OK",
      "vis_m": 9000,
      "fzfg": false,
      "metar_trigger": false,
      "taf_trigger": false,
      "metar": "METAR LMML 141215Z 22014KT 200V260 9000 NSC 19/14 Q0994 NOSIG",
      "taf": "TAF LMML 141100Z 1412/1512 23015KT 9999 FEW020"
    },
    {
      "icao": "LOWW",
      "alert": "OK",
      "vis_m": 9999,
      "fzfg": false,
      "metar_trigger": false,
      "taf_trigger": false,
      "metar": "METAR LOWW 141150Z 35006KT 300V030 9999 FEW020 08/04 Q0999 NOSIG",
      "taf": "TAF LOWW 141115Z 1412/1518 35010KT 9999 BKN020 TX08/1414Z TNM01/1518Z"
    },
    {
      "icao": "LPFR",
      "alert": "OK",
      "vis_m": 9999,
      "fzfg": false,
      "metar_trigger": false,
      "taf_trigger": false,
      "metar": "METAR LPFR 141200Z 33016KT CAVOK 15/04 Q1026",
      "taf": "TAF LPFR 141100Z 1412/1512 32015KT CAVOK"
    },
    {
      "icao": "LPMA",
      "alert": "OK",
      "vis_m": 9999,
      "fzfg": false,
      "metar_trigger": false,
      "taf_trigger": false,
      "metar": "METAR LPMA 141200Z 02012KT 350V050 9999 SCT016 SCT030 17/08 Q1032",
      "taf": "TAF LPMA 141100Z 1412/1512 03010KT 9999 SCT016 SCT030"
    },
    {
      "icao": "LPPR",
      "alert": "OK",
      "vis_m": 9999,
      "fzfg": false,
      "metar_trigger": false,
      "taf_trigger": false,
      "metar": "METAR LPPR 141200Z 32010KT 9999 FEW026 SCT036 13/07 Q1026",
      "taf": "TAF LPPR 141100Z 1412/1512 34015KT 9999 FEW045"
    },
    {
      "icao": "LPPS",
      "alert": "OK",
      "vis_m": 9999,
      "fzfg": false,
      "metar_trigger": false,
      "taf_trigger": false,
      "metar": "METAR LPPS 141200Z 02010KT 340V050 9999 FEW015 SCT030 16/10 Q1032",
      "taf": "TAF LPPS 141100Z 1412/1518 03015KT 9999 SCT015 SCT030"
    },
    {
      "icao": "LPPT",
      "alert": "OK",
      "vis_m": 9999,
      "fzfg": false,
      "metar_trigger": false,
      "taf_trigger": false,
      "metar": "METAR LPPT 141200Z 34017KT 9999 FEW036 14/05 Q1027",
      "taf": "TAF LPPT 141100Z 1412/1518 33015KT 9999 SCT040"
    },
    {
      "icao": "LQBK",
      "alert": "OK",
      "vis_m": 9999,
      "fzfg": false,
      "metar_trigger": false,
      "taf_trigger": false,
      "metar": "METAR LQBK 141200Z COR 33006KT 9999 RA SCT035 BKN043 09/06 Q0999 NOSIG",
      "taf": ""
    },
    {
      "icao": "LQSA",
      "alert": "OK",
      "vis_m": 9999,
      "fzfg": false,
      "metar_trigger": false,
      "taf_trigger": false,
      "metar": "METAR LQSA 141200Z VRB02KT 9999 BKN045 04/04 Q0999 NOSIG",
      "taf": "TAF LQSA 141100Z 1412/1512 14007KT 9999 SCT015 BKN045 TX10/1414Z TN01/1506Z"
    },
    {
      "icao": "LQTZ",
      "alert": "OK",
      "vis_m": 9999,
      "fzfg": false,
      "metar_trigger": false,
      "taf_trigger": false,
      "metar": "METAR LQTZ 141200Z 12003KT 100V190 9999 FEW060 10/06 Q0999",
      "taf": "TAF LQTZ 141100Z 1412/1512 16005KT 9999 SCT050 TX14/1413Z TN02/1508Z"
    },
    {
      "icao": "LRBC",
      "alert": "OK",
      "vis_m": 9999,
      "fzfg": false,
      "metar_trigger": false,
      "taf_trigger": false,
      "metar": "METAR LRBC 141200Z 20003KT 140V250 CAVOK 14/04 Q1002",
      "taf": "TAF LRBC 141100Z 1412/1421 VRB04KT 9999 SCT020"
    },
    {
      "icao": "LRBS",
      "alert": "OK",
      "vis_m": 9999,
      "fzfg": false,
      "metar_trigger": false,
      "taf_trigger": false,
      "metar": "METAR LRBS 141200Z VRB01KT CAVOK 10/05 Q1004 NOSIG",
      "taf": "TAF LRBS 141100Z 1412/1512 VRB04KT CAVOK"
    },
    {
      "icao": "LRBV",
      "alert": "OK",
      "vis_m": 9999,
      "fzfg": false,
      "metar_trigger": false,
      "taf_trigger": false,
      "metar": "METAR LRBV 141200Z VRB03KT 9999 FEW037 12/03 Q1003",
      "taf": "TAF LRBV 141100Z 1412/1421 VRB04KT 9999 SCT030"
    },
    {
      "icao": "LRCL",
      "alert": "OK",
      "vis_m": 9999,
      "fzfg": false,
      "metar_trigger": false,
      "taf_trigger": false,
      "metar": "METAR LRCL 141200Z 09006KT 030V120 CAVOK 12/02 Q1002",
      "taf": "TAF LRCL 141100Z 1412/1421 VRB04KT CAVOK"
    },
    {
      "icao": "LRCV",
      "alert": "OK",
      "vis_m": 9999,
      "fzfg": false,
      "metar_trigger": false,
      "taf_trigger": false,
      "metar": "METAR LRCV 141200Z 02002KT CAVOK 11/05 Q1003",
      "taf": "TAF LRCV 141100Z 1412/1421 VRB04KT CAVOK"
    },
    {
      "icao": "LRIA",
      "alert": "OK",
      "vis_m": 9999,
      "fzfg": false,
      "metar_trigger": false,
      "taf_trigger": false,
      "metar": "METAR LRIA 141200Z 11006KT CAVOK 10/08 Q1003",
      "taf": "TAF LRIA 141100Z 1412/1421 VRB04KT 9999 SCT010"
    },
    {
      "icao": "LROP",
      "alert": "OK",
      "vis_m": 9000,
      "fzfg": false,
      "metar_trigger": false,
      "taf_trigger": false,
      "metar": "METAR LROP 141200Z VRB02KT 9000 FEW004 10/05 Q1004 NOSIG",
      "taf": "TAF LROP 141100Z 1412/1512 VRB04KT 9999 BKN005"
    },
    {
      "icao": "LRSB",
      "alert": "OK",
      "vis_m": 9999,
      "fzfg": false,
      "metar_trigger": false,
      "taf_trigger": false,
      "metar": "METAR LRSB 141200Z VRB02KT CAVOK 13/01 Q1002",
      "taf": "TAF LRSB 141100Z 1412/1512 VRB04KT CAVOK"
    },
    {
      "icao": "LRSM",
      "alert": "OK",
      "vis_m": 9999,
      "fzfg": false,
      "metar_trigger": false,
      "taf_trigger": false,
      "metar": "METAR LRSM 141200Z AUTO 00000KT 9999 NCD 12/04 Q1003",
      "taf": ""
    },
    {
      "icao": "LRSV",
      "alert": "OK",
      "vis_m": 9999,
      "fzfg": false,
      "metar_trigger": false,
      "taf_trigger": false,
      "metar": "METAR LRSV 141200Z 02007KT 350V050 CAVOK 11/03 Q1001",
      "taf": "TAF LRSV 141100Z 1412/1421 27005KT CAVOK"
    },
    {
      "icao": "LRTM",
      "alert": "OK",
      "vis_m": 9999,
      "fzfg": false,
      "metar_trigger": false,
      "taf_trigger": false,
      "metar": "METAR LRTM 141200Z 07004KT 030V100 9999 SCT028 12/02 Q1003",
      "taf": "TAF LRTM 141100Z 1412/1421 VRB04KT 9999 SCT025"
    },
    {
      "icao": "LRTR",
      "alert": "OK",
      "vis_m": 9999,
      "fzfg": false,
      "metar_trigger": false,
      "taf_trigger": false,
      "metar": "METAR LRTR 141200Z 10008KT CAVOK 12/06 Q1002",
      "taf": "TAF LRTR 141100Z 1412/1512 10007KT CAVOK"
    },
    {
      "icao": "LTAC",
      "alert": "OK",
      "vis_m": 9999,
      "fzfg": false,
      "metar_trigger": false,
      "taf_trigger": false,
      "metar": "METAR LTAC 141150Z 26014KT 230V290 9999 SCT030 BKN100 11/04 Q1007 NOSIG RMK RWY21C 26017KT RWY03L 27011KT 230V290 RWY21R 25015KT RWY03R 23013KT RWY21L 26015KT",
      "taf": "TAF LTAC 141040Z 1412/1512 24012KT 9999 SCT040 BKN100"
    },
    {
      "icao": "LTFM",
      "alert": "OK",
      "vis_m": 9999,
      "fzfg": false,
      "metar_trigger": false,
      "taf_trigger": false,
      "metar": "METAR LTFM 141150Z 21014KT CAVOK 14/06 Q1007 NOSIG RMK RWY17L 22013KT 180V250 RWY34L 21016KT RWY16R 21014KT RWY36 22015KT RWY18 22016KT",
      "taf": "TAF LTFM 141040Z 1412/1518 22012KT CAVOK"
    },
    {
      "icao": "LUKK",
      "alert": "OK",
      "vis_m": 9999,
      "fzfg": false,
      "metar_trigger": false,
      "taf_trigger": false,
      "metar": "METAR LUKK 141200Z 34004KT 270V020 CAVOK 10/04 Q1003 NOSIG",
      "taf": "TAF LUKK 141103Z 1412/1512 VRB04KT CAVOK"
    },
    {
      "icao": "LWOH",
      "alert": "OK",
      "vis_m": 9999,
      "fzfg": false,
      "metar_trigger": false,
      "taf_trigger": false,
      "metar": "METAR LWOH 141220Z VRB01KT 9999 FEW020 BKN040 09/06 Q1004",
      "taf": "TAF LWOH 141120Z 1412/1512 18010KT 9999 SCT015 BKN035 BKN090"
    },
    {
      "icao": "LWSK",
      "alert": "OK",
      "vis_m": 9999,
      "fzfg": false,
      "metar_trigger": false,
      "taf_trigger": false,
      "metar": "METAR LWSK 141220Z 27003KT 220V310 9999 FEW090 09/05 Q1005 NOSIG",
      "taf": "TAF LWSK 141120Z 1412/1512 16012KT 9999 SCT035 BKN090"
    },
    {
      "icao": "LYBE",
      "alert": "OK",
      "vis_m": 9999,
      "fzfg": false,
      "metar_trigger": false,
      "taf_trigger": false,
      "metar": "METAR LYBE 141200Z 14004KT CAVOK 14/04 Q1000 NOSIG",
      "taf": "TAF LYBE 141100Z 1412/1512 14010KT CAVOK TX14/1413Z TN06/1506Z"
    },
    {
      "icao": "LYNI",
      "alert": "OK",
      "vis_m": 9999,
      "fzfg": false,
      "metar_trigger": false,
      "taf_trigger": false,
      "metar": "METAR LYNI 141200Z 17003KT 130V210 CAVOK 12/05 Q1003 NOSIG",
      "taf": "TAF LYNI 141100Z 1412/1512 13007KT CAVOK TX13/1413Z TN05/1506Z"
    },
    {
      "icao": "LYPG",
      "alert": "OK",
      "vis_m": 9999,
      "fzfg": false,
      "metar_trigger": false,
      "taf_trigger": false,
      "metar": "METAR LYPG 141200Z 32004KT 9999 FEW023 SCT040 OVC070 11/08 Q1002 NOSIG",
      "taf": "TAF LYPG 141100Z 1412/1512 14007KT 9999 FEW015 BKN034 OVC070 TX14/1414Z TN08/1506Z"
    },
    {
      "icao": "LZIB",
      "alert": "OK",
      "vis_m": 9999,
      "fzfg": false,
      "metar_trigger": false,
      "taf_trigger": false,
      "metar": "METAR LZIB 141200Z 04003KT 360V090 9999 FEW017 09/04 Q0999 NOSIG",
      "taf": "TAF LZIB 141115Z 1412/1512 04007KT 9999 SCT035"
    },
    {
      "icao": "LZKZ",
      "alert": "OK",
      "vis_m": 9999,
      "fzfg": false,
      "metar_trigger": false,
      "taf_trigger": false,
      "metar": "METAR LZKZ 141200Z 02004KT 9999 FEW007 SCT040 06/05 Q1002 NOSIG",
      "taf": "TAF LZKZ 141115Z 1412/1512 03006KT 9999 FEW005 BKN040"
    },
    {
      "icao": "LZTT",
      "alert": "OK",
      "vis_m": 9999,
      "fzfg": false,
      "metar_trigger": false,
      "taf_trigger": false,
      "metar": "METAR LZTT 141200Z VRB01KT 9999 SCT007 BKN030 03/02 Q1000 NOSIG",
      "taf": ""
    },
    {
      "icao": "OEJN",
      "alert": "OK",
      "vis_m": 9999,
      "fzfg": false,
      "metar_trigger": false,
      "taf_trigger": false,
      "metar": "METAR OEJN 141200Z 30011KT CAVOK 31/12 Q1011 NOSIG",
      "taf": "TAF OEJN 141100Z 1412/1518 30012KT CAVOK"
    },
    {
      "icao": "OEMA",
      "alert": "OK",
      "vis_m": 9999,
      "fzfg": false,
      "metar_trigger": false,
      "taf_trigger": false,
      "metar": "METAR OEMA 141200Z 20006KT CAVOK 31/00 Q1015 NOSIG",
      "taf": "TAF OEMA 141100Z 1412/1518 31010KT CAVOK"
    },
    {
      "icao": "OJAI",
      "alert": "OK",
      "vis_m": 1500,
      "fzfg": false,
      "metar_trigger": false,
      "taf_trigger": false,
      "metar": "METAR OJAI 141200Z 26022KT 1500 BLDU NSC 17/M01 Q1016 NOSIG",
      "taf": "TAF OJAI 141100Z 1412/1518 26026KT 0500 DS NSC"
    },
    {
      "icao": "OMAA",
      "alert": "OK",
      "vis_m": 9999,
      "fzfg": false,
      "metar_trigger": false,
      "taf_trigger": false,
      "metar": "METAR OMAA 141200Z 31008KT 270V330 CAVOK 31/04 Q1013 NOSIG",
      "taf": "TAF OMAA 141100Z 1412/1518 33010KT 8000 NSC"
    },
    {
      "icao": "OMDB",
      "alert": "OK",
      "vis_m": 9999,
      "fzfg": false,
      "metar_trigger": false,
      "taf_trigger": false,
      "metar": "METAR OMDB 141200Z 32010KT 270V340 CAVOK 30/04 Q1013 NOSIG",
      "taf": "TAF OMDB 141100Z 1412/1518 30010KT CAVOK"
    },
    {
      "icao": "UAAA",
      "alert": "OK",
      "vis_m": 4400,
      "fzfg": false,
      "metar_trigger": false,
      "taf_trigger": false,
      "metar": "METAR UAAA 141200Z 29002MPS 250V010 4400 BR SCT050 BKN100 M00/M02 Q1021 NOSIG",
      "taf": "TAF UAAA 141104Z 1412/1512 22003MPS 1500 -SHSNRA BR FU BKN011CB OVC030 TX03/1509Z TNM06/1503Z"
    },
    {
      "icao": "UBBB",
      "alert": "OK",
      "vis_m": 9999,
      "fzfg": false,
      "metar_trigger": false,
      "taf_trigger": false,
      "metar": "METAR UBBB 141200Z 16018KT CAVOK 12/07 Q1001 NOSIG",
      "taf": "TAF UBBB 141055Z 1412/1512 18014KT CAVOK TX16/1412Z TN07/1501Z"
    },
    {
      "icao": "UDSG",
      "alert": "OK",
      "vis_m": 9999,
      "fzfg": false,
      "metar_trigger": false,
      "taf_trigger": false,
      "metar": "METAR UDSG 141200Z 30004KT 9999 SCT049 05/01 Q1010 NOSIG",
      "taf": "TAF UDSG 141100Z 1412/1512 VRB06KT 9999 SCT050"
    },
    {
      "icao": "UDYZ",
      "alert": "OK",
      "vis_m": 9999,
      "fzfg": false,
      "metar_trigger": false,
      "taf_trigger": false,
      "metar": "METAR UDYZ 141200Z 22004KT 9999 FEW043CB 10/07 Q1010 NOSIG",
      "taf": "TAF UDYZ 141100Z 1412/1512 03006KT 9999 SCT040"
    },
    {
      "icao": "UGKO",
      "alert": "OK",
      "vis_m": 9999,
      "fzfg": false,
      "metar_trigger": false,
      "taf_trigger": false,
      "metar": "METAR UGKO 141200Z 14003KT 9999 SCT095 18/07 Q1004 NOSIG",
      "taf": "TAF UGKO 141100Z 1412/1512 25007KT 9999 BKN050 TX19/1412Z TN10/1504Z"
    }
  ]
}