{
  "ts_utc": "2026-04-15T23:42:52Z",
  "threshold_m": 150,
  "source": "stations_override.txt (ICAO list) + aviationweather.gov (METAR/TAF raw)",
  "station_count": 159,
  "stations": [
    {
      "icao": "BIKF",
      "alert": "OK",
      "vis_m": 9999,
      "fzfg": false,
      "metar_trigger": false,
      "taf_trigger": false,
      "metar": "METAR BIKF 152330Z 13009KT 9999 SCT009 BKN039 07/06 Q0994",
      "taf": "TAF BIKF 152224Z 1600/1700 14007KT 9999 SCT018 BKN028 TX09/1614Z TN03/1604Z"
    },
    {
      "icao": "BKPR",
      "alert": "OK",
      "vis_m": 9999,
      "fzfg": false,
      "metar_trigger": false,
      "taf_trigger": false,
      "metar": "METAR BKPR 152330Z VRB01KT 9999 BKN070 12/09 Q1019 NOSIG",
      "taf": "TAF BKPR 152330Z 1600/1624 05007KT 9999 SCT050 BKN090"
    },
    {
      "icao": "EBCI",
      "alert": "OK",
      "vis_m": 9999,
      "fzfg": false,
      "metar_trigger": false,
      "taf_trigger": false,
      "metar": "METAR EBCI 152320Z 26005KT 9999 SCT036 12/09 Q1020 NOSIG",
      "taf": "TAF EBCI 152314Z 1600/1706 24006KT 9999 FEW030 SCT040"
    },
    {
      "icao": "EDDB",
      "alert": "OK",
      "vis_m": 9999,
      "fzfg": false,
      "metar_trigger": false,
      "taf_trigger": false,
      "metar": "METAR EDDB 152320Z AUTO 14002KT CAVOK 07/02 Q1021 NOSIG",
      "taf": "TAF EDDB 152300Z 1600/1624 13003KT CAVOK"
    },
    {
      "icao": "EDDH",
      "alert": "OK",
      "vis_m": 9999,
      "fzfg": false,
      "metar_trigger": false,
      "taf_trigger": false,
      "metar": "METAR EDDH 152320Z AUTO 15004KT CAVOK 12/04 Q1019 NOSIG",
      "taf": "TAF EDDH 152300Z 1600/1706 07004KT CAVOK"
    },
    {
      "icao": "EDDK",
      "alert": "OK",
      "vis_m": 9999,
      "fzfg": false,
      "metar_trigger": false,
      "taf_trigger": false,
      "metar": "METAR EDDK 152320Z AUTO 16003KT 130V210 CAVOK 13/07 Q1020 NOSIG",
      "taf": "TAF EDDK 152300Z 1600/1706 VRB03KT CAVOK"
    },
    {
      "icao": "EDDN",
      "alert": "OK",
      "vis_m": 9999,
      "fzfg": false,
      "metar_trigger": false,
      "taf_trigger": false,
      "metar": "METAR EDDN 152320Z AUTO 21002KT 9999 SCT042 11/09 Q1021",
      "taf": "TAF EDDN 152300Z 1600/1624 VRB03KT 9999 SCT035"
    },
    {
      "icao": "EDDS",
      "alert": "OK",
      "vis_m": 9999,
      "fzfg": false,
      "metar_trigger": false,
      "taf_trigger": false,
      "metar": "METAR EDDS 152320Z AUTO VRB01KT 9999 BKN042 10/08 Q1021",
      "taf": "TAF EDDS 152300Z 1600/1624 VRB03KT 9999 BKN040"
    },
    {
      "icao": "EDFH",
      "alert": "OK",
      "vis_m": 9999,
      "fzfg": false,
      "metar_trigger": false,
      "taf_trigger": false,
      "metar": "METAR EDFH 152320Z 23004KT CAVOK 10/05 Q1021",
      "taf": "TAF EDFH 152300Z 1600/1624 21005KT CAVOK"
    },
    {
      "icao": "EDJA",
      "alert": "OK",
      "vis_m": 9999,
      "fzfg": false,
      "metar_trigger": false,
      "taf_trigger": false,
      "metar": "METAR EDJA 152320Z AUTO VRB01KT 9999 // FEW019/// OVC033/// 09/08 Q1022",
      "taf": "TAF EDJA 151700Z 1518/1603 VRB03KT 9999 FEW015 BKN030"
    },
    {
      "icao": "EDLW",
      "alert": "OK",
      "vis_m": 9999,
      "fzfg": false,
      "metar_trigger": false,
      "taf_trigger": false,
      "metar": "METAR EDLW 152320Z AUTO 18008KT 9999 // SCT068/// BKN130/// 13/05 Q1019",
      "taf": "TAF EDLW 151700Z 1518/1618 19006KT CAVOK"
    },
    {
      "icao": "EDNY",
      "alert": "OK",
      "vis_m": 9999,
      "fzfg": false,
      "metar_trigger": false,
      "taf_trigger": false,
      "metar": "METAR EDNY 152320Z AUTO VRB02KT 9999 // OVC039/// 10/08 Q1022",
      "taf": "TAF EDNY 151700Z 1518/1603 VRB03KT 9999 OVC030"
    },
    {
      "icao": "EDSB",
      "alert": "OK",
      "vis_m": 9999,
      "fzfg": false,
      "metar_trigger": false,
      "taf_trigger": false,
      "metar": "METAR EDSB 152320Z AUTO 19003KT 9999 NCD 08/07 Q1022",
      "taf": "TAF EDSB 152300Z 1600/1624 21004KT CAVOK"
    },
    {
      "icao": "EETN",
      "alert": "OK",
      "vis_m": 9999,
      "fzfg": false,
      "metar_trigger": false,
      "taf_trigger": false,
      "metar": "METAR EETN 152320Z 01002KT CAVOK 03/01 Q1022",
      "taf": "TAF EETN 152330Z 1600/1624 03006KT CAVOK"
    },
    {
      "icao": "EFTU",
      "alert": "OK",
      "vis_m": 9999,
      "fzfg": false,
      "metar_trigger": false,
      "taf_trigger": false,
      "metar": "METAR EFTU 152320Z AUTO VRB01KT CAVOK 00/M02 Q1023",
      "taf": "TAF EFTU 152328Z 1600/1624 VRB02KT CAVOK"
    },
    {
      "icao": "EGBB",
      "alert": "OK",
      "vis_m": 9999,
      "fzfg": false,
      "metar_trigger": false,
      "taf_trigger": false,
      "metar": "METAR EGBB 152320Z 18008KT 140V210 CAVOK 09/06 Q1013",
      "taf": "TAF EGBB 152307Z 1600/1624 19010KT 9999 SCT030"
    },
    {
      "icao": "EGGP",
      "alert": "OK",
      "vis_m": 9999,
      "fzfg": false,
      "metar_trigger": false,
      "taf_trigger": false,
      "metar": "METAR EGGP 152320Z 17012KT 9999 SCT036 10/06 Q1009",
      "taf": "TAF EGGP 152303Z 1600/1624 21010KT 9999 SCT020"
    },
    {
      "icao": "EGGW",
      "alert": "OK",
      "vis_m": 9999,
      "fzfg": false,
      "metar_trigger": false,
      "taf_trigger": false,
      "metar": "METAR EGGW 152320Z AUTO 21009KT 9999 NCD 09/07 Q1016",
      "taf": "TAF EGGW 152302Z 1600/1624 20010KT 9999 FEW035"
    },
    {
      "icao": "EGKK",
      "alert": "OK",
      "vis_m": 9999,
      "fzfg": false,
      "metar_trigger": false,
      "taf_trigger": false,
      "metar": "METAR EGKK 152320Z 19006KT 9999 SCT013 10/09 Q1018",
      "taf": "TAF EGKK 152254Z 1600/1706 21010KT 9999 SCT020"
    },
    {
      "icao": "EGNM",
      "alert": "OK",
      "vis_m": 9999,
      "fzfg": false,
      "metar_trigger": false,
      "taf_trigger": false,
      "metar": "METAR EGNM 152250Z 19008KT 9999 FEW023 SCT043 08/05 Q1010",
      "taf": "TAF EGNM 151701Z 1518/1618 22010KT 9999 SCT020"
    },
    {
      "icao": "EGPD",
      "alert": "OK",
      "vis_m": null,
      "fzfg": false,
      "metar_trigger": false,
      "taf_trigger": false,
      "metar": "METAR EGPD 152320Z AUTO 17014KT //// // BKN045 09/07 Q1003",
      "taf": "TAF EGPD 152255Z 1600/1624 16012KT 9999 SCT035"
    },
    {
      "icao": "EGPF",
      "alert": "OK",
      "vis_m": 9999,
      "fzfg": false,
      "metar_trigger": false,
      "taf_trigger": false,
      "metar": "METAR EGPF 152320Z AUTO 17008KT 9999 -RA FEW024/// BKN031/// BKN039/// //////CB 10/08 Q1002",
      "taf": "TAF EGPF 152256Z 1600/1624 15008KT 9999 FEW014 SCT025"
    },
    {
      "icao": "EHBK",
      "alert": "OK",
      "vis_m": 9999,
      "fzfg": false,
      "metar_trigger": false,
      "taf_trigger": false,
      "metar": "METAR EHBK 152325Z AUTO 21008KT 9999 NSC 12/06 Q1019",
      "taf": "TAF EHBK 152302Z 1600/1706 21005KT CAVOK"
    },
    {
      "icao": "EHEH",
      "alert": "OK",
      "vis_m": 9999,
      "fzfg": false,
      "metar_trigger": false,
      "taf_trigger": false,
      "metar": "METAR EHEH 152325Z AUTO 20004KT 9999 FEW071 OVC080 12/06 Q1018 BLU",
      "taf": ""
    },
    {
      "icao": "EKBI",
      "alert": "OK",
      "vis_m": 9999,
      "fzfg": false,
      "metar_trigger": false,
      "taf_trigger": false,
      "metar": "METAR EKBI 152320Z AUTO 10006KT 070V130 9999 OVC065/// 07/05 Q1020",
      "taf": "TAF EKBI 152327Z 1600/1624 12005KT 9999 FEW030"
    },
    {
      "icao": "EKCH",
      "alert": "OK",
      "vis_m": 9999,
      "fzfg": false,
      "metar_trigger": false,
      "taf_trigger": false,
      "metar": "METAR EKCH 152323Z 01003KT 9999 NSC 04/03 Q1022 TEMPO 4000",
      "taf": "TAF EKCH 152327Z 1600/1624 18005KT 9999 SCT020"
    },
    {
      "icao": "ENAL",
      "alert": "OK",
      "vis_m": 9999,
      "fzfg": false,
      "metar_trigger": false,
      "taf_trigger": false,
      "metar": "METAR ENAL 152320Z AUTO 15007KT 9999 NCD 07/M01 Q1017",
      "taf": "TAF ENAL 152300Z 1600/1609 13008KT CAVOK"
    },
    {
      "icao": "ENBR",
      "alert": "OK",
      "vis_m": 9999,
      "fzfg": false,
      "metar_trigger": false,
      "taf_trigger": false,
      "metar": "METAR ENBR 152320Z 12005KT 9999 BKN047 09/M01 Q1016 RERA RMK WIND 1200FT 13019KT",
      "taf": "TAF ENBR 152300Z 1600/1624 14008KT 9999 BKN040"
    },
    {
      "icao": "ENGM",
      "alert": "OK",
      "vis_m": 9999,
      "fzfg": false,
      "metar_trigger": false,
      "taf_trigger": false,
      "metar": "METAR ENGM 152320Z 02004KT CAVOK 04/02 Q1023",
      "taf": "TAF ENGM 152300Z 1600/1624 01005KT 9999 SCT040"
    },
    {
      "icao": "ENHD",
      "alert": "OK",
      "vis_m": 9999,
      "fzfg": false,
      "metar_trigger": false,
      "taf_trigger": false,
      "metar": "METAR ENHD 152320Z AUTO 11021KT 9999 NCD 09/01 Q1016",
      "taf": "TAF ENHD 151400Z 1515/1522 14015KT CAVOK"
    },
    {
      "icao": "ENTC",
      "alert": "OK",
      "vis_m": 9999,
      "fzfg": false,
      "metar_trigger": false,
      "taf_trigger": false,
      "metar": "METAR ENTC 152320Z 25006KT 9999 BKN038 05/02 Q1024 RMK WIND 2600FT 23008KT",
      "taf": "TAF ENTC 152300Z 1600/1624 21006KT 9999 FEW020 BKN035"
    },
    {
      "icao": "ENTO",
      "alert": "OK",
      "vis_m": 9999,
      "fzfg": false,
      "metar_trigger": false,
      "taf_trigger": false,
      "metar": "METAR ENTO 152320Z AUTO 35003KT 9999 NCD 05/05 Q1023",
      "taf": "TAF ENTO 152300Z 1600/1624 02005KT 9999 FEW040"
    },
    {
      "icao": "ENVA",
      "alert": "OK",
      "vis_m": 9999,
      "fzfg": false,
      "metar_trigger": false,
      "taf_trigger": false,
      "metar": "METAR ENVA 152320Z AUTO 13003KT 090V190 9999 NCD 10/00 Q1021 RMK WIND 670FT 16020G31KT",
      "taf": "TAF ENVA 152300Z 1600/1624 08008KT CAVOK"
    },
    {
      "icao": "ENZV",
      "alert": "OK",
      "vis_m": 9999,
      "fzfg": false,
      "metar_trigger": false,
      "taf_trigger": false,
      "metar": "METAR ENZV 152320Z AUTO 12012KT 9999 NCD 09/01 Q1017",
      "taf": "TAF ENZV 152300Z 1600/1624 12015KT 9999 -RA BKN045"
    },
    {
      "icao": "EPGD",
      "alert": "OK",
      "vis_m": 350,
      "fzfg": false,
      "metar_trigger": false,
      "taf_trigger": false,
      "metar": "METAR EPGD 152330Z 18003KT 0350 R29/P2000N FG FEW000 01/01 Q1021",
      "taf": "TAF EPGD 152330Z 1600/1624 VRB03KT 3000 BR NSC"
    },
    {
      "icao": "EPKK",
      "alert": "OK",
      "vis_m": 5000,
      "fzfg": false,
      "metar_trigger": false,
      "taf_trigger": false,
      "metar": "METAR EPKK 152330Z 05001KT 5000 BR OVC034 11/09 Q1021",
      "taf": "TAF EPKK 152330Z 1600/1624 25004KT 9999 BKN030"
    },
    {
      "icao": "EPKT",
      "alert": "OK",
      "vis_m": 2300,
      "fzfg": false,
      "metar_trigger": false,
      "taf_trigger": false,
      "metar": "METAR EPKT 152330Z VRB02KT 2300 0200NE BCFG BR NSC 04/04 Q1021",
      "taf": "TAF EPKT 152330Z 1600/1624 VRB02KT 3000 BR SCT030"
    },
    {
      "icao": "EPLB",
      "alert": "OK",
      "vis_m": 9999,
      "fzfg": false,
      "metar_trigger": false,
      "taf_trigger": false,
      "metar": "METAR EPLB 152330Z 30004KT 9999 BKN048 11/08 Q1019",
      "taf": "TAF EPLB 152330Z 1600/1624 30005KT CAVOK"
    },
    {
      "icao": "EPMO",
      "alert": "OK",
      "vis_m": 3400,
      "fzfg": false,
      "metar_trigger": false,
      "taf_trigger": false,
      "metar": "METAR EPMO 152330Z 03002KT 3400 BR NSC 05/05 Q1021",
      "taf": "TAF EPMO 152330Z 1600/1624 VRB03KT 3000 BR NSC"
    },
    {
      "icao": "EPPO",
      "alert": "OK",
      "vis_m": 9999,
      "fzfg": false,
      "metar_trigger": false,
      "taf_trigger": false,
      "metar": "METAR EPPO 152330Z 36002KT CAVOK 04/M00 Q1021",
      "taf": "TAF EPPO 152330Z 1600/1624 VRB02KT CAVOK"
    },
    {
      "icao": "EPRA",
      "alert": "OK",
      "vis_m": 9999,
      "fzfg": false,
      "metar_trigger": false,
      "taf_trigger": false,
      "metar": "METAR EPRA 152330Z 32003KT CAVOK 10/05 Q1020",
      "taf": "TAF EPRA 152330Z 1600/1609 31005KT 8000 BKN040"
    },
    {
      "icao": "EPRZ",
      "alert": "OK",
      "vis_m": 9999,
      "fzfg": false,
      "metar_trigger": false,
      "taf_trigger": false,
      "metar": "METAR EPRZ 152330Z 26006KT 9999 SCT040 11/08 Q1020",
      "taf": "TAF EPRZ 152330Z 1600/1624 30005KT 9999 BKN018"
    },
    {
      "icao": "EPSC",
      "alert": "OK",
      "vis_m": 9999,
      "fzfg": false,
      "metar_trigger": false,
      "taf_trigger": false,
      "metar": "METAR EPSC 152330Z 12004KT CAVOK 09/M00 Q1021",
      "taf": "TAF EPSC 152330Z 1600/1624 VRB04KT CAVOK"
    },
    {
      "icao": "EPSY",
      "alert": "OK",
      "vis_m": 8000,
      "fzfg": false,
      "metar_trigger": false,
      "taf_trigger": false,
      "metar": "METAR EPSY 152330Z 32004KT 290V350 8000 SCT045 05/04 Q1021",
      "taf": "TAF EPSY 152330Z 1600/1609 33006KT 9999 SCT040"
    },
    {
      "icao": "EPWA",
      "alert": "OK",
      "vis_m": 6000,
      "fzfg": false,
      "metar_trigger": false,
      "taf_trigger": false,
      "metar": "METAR EPWA 152330Z 26002KT 6000 MIFG NSC 05/05 Q1020 TEMPO 4000 BR",
      "taf": "TAF EPWA 152330Z 1600/1624 VRB04KT CAVOK"
    },
    {
      "icao": "EPWR",
      "alert": "OK",
      "vis_m": 8000,
      "fzfg": false,
      "metar_trigger": false,
      "taf_trigger": false,
      "metar": "METAR EPWR 152330Z 18001KT 8000 NSC 06/04 Q1021",
      "taf": "TAF EPWR 152330Z 1600/1624 VRB02KT CAVOK"
    },
    {
      "icao": "ESGG",
      "alert": "OK",
      "vis_m": 9999,
      "fzfg": false,
      "metar_trigger": false,
      "taf_trigger": false,
      "metar": "METAR ESGG 152320Z 06004KT 9999 FEW027 03/02 Q1021",
      "taf": "TAF ESGG 152330Z 1600/1624 02004KT CAVOK"
    },
    {
      "icao": "ESKN",
      "alert": "OK",
      "vis_m": 9999,
      "fzfg": false,
      "metar_trigger": false,
      "taf_trigger": false,
      "metar": "METAR ESKN 152320Z 02004KT 350V050 CAVOK 06/M01 Q1022",
      "taf": "TAF ESKN 152330Z 1600/1624 06003KT CAVOK"
    },
    {
      "icao": "ESMS",
      "alert": "OK",
      "vis_m": 9999,
      "fzfg": false,
      "metar_trigger": false,
      "taf_trigger": false,
      "metar": "METAR ESMS 152320Z 00000KT CAVOK M00/M00 Q1021",
      "taf": "TAF ESMS 152327Z 1600/1624 VRB02KT 9999 SCT020"
    },
    {
      "icao": "ESSA",
      "alert": "OK",
      "vis_m": 9999,
      "fzfg": false,
      "metar_trigger": false,
      "taf_trigger": false,
      "metar": "METAR ESSA 152320Z 35005KT CAVOK 01/M02 Q1023 NOSIG",
      "taf": "TAF ESSA 152330Z 1600/1624 03005KT CAVOK"
    },
    {
      "icao": "EYKA",
      "alert": "OK",
      "vis_m": 9999,
      "fzfg": false,
      "metar_trigger": false,
      "taf_trigger": false,
      "metar": "METAR EYKA 152320Z 29006KT CAVOK 09/05 Q1018",
      "taf": "TAF EYKA 152306Z 1600/1624 VRB04KT 9000 NSC"
    },
    {
      "icao": "EYPA",
      "alert": "OK",
      "vis_m": 2100,
      "fzfg": false,
      "metar_trigger": false,
      "taf_trigger": false,
      "metar": "METAR EYPA 152320Z AUTO 29003KT 240V340 2100 VV002 04/04 Q1020",
      "taf": "TAF EYPA 152306Z 1600/1624 VRB04KT 3000 BR OVC002"
    },
    {
      "icao": "EYVI",
      "alert": "OK",
      "vis_m": 9999,
      "fzfg": false,
      "metar_trigger": false,
      "taf_trigger": false,
      "metar": "METAR EYVI 152320Z 33002KT CAVOK 06/02 Q1017 NOSIG",
      "taf": "TAF EYVI 152306Z 1600/1624 VRB04KT 9000 NSC"
    },
    {
      "icao": "GCFV",
      "alert": "OK",
      "vis_m": 9999,
      "fzfg": false,
      "metar_trigger": false,
      "taf_trigger": false,
      "metar": "METAR GCFV 152330Z AUTO 35009KT 9999 OVC014 18/14 Q1017",
      "taf": "TAF GCFV 152000Z 1521/1621 33007KT 9999 SCT020 TX25/1614Z TN15/1606Z"
    },
    {
      "icao": "GCLP",
      "alert": "OK",
      "vis_m": 9999,
      "fzfg": false,
      "metar_trigger": false,
      "taf_trigger": false,
      "metar": "METAR GCLP 152330Z 36013KT 9999 SCT025 18/13 Q1018 NOSIG",
      "taf": "TAF GCLP 152000Z 1521/1621 36015KT 9999 SCT030 TX24/1614Z TN17/1606Z"
    },
    {
      "icao": "GCTS",
      "alert": "OK",
      "vis_m": 9999,
      "fzfg": false,
      "metar_trigger": false,
      "taf_trigger": false,
      "metar": "METAR GCTS 152330Z 07012KT 9999 SCT025 18/14 Q1019 NOSIG",
      "taf": "TAF GCTS 152000Z 1521/1621 05012KT 9999 FEW030 TX25/1614Z TN17/1606Z"
    },
    {
      "icao": "GMAD",
      "alert": "OK",
      "vis_m": 8000,
      "fzfg": false,
      "metar_trigger": false,
      "taf_trigger": false,
      "metar": "METAR GMAD 152330Z 03004KT 8000 NSC 18/10 Q1015 NOSIG",
      "taf": "TAF GMAD 152300Z 1600/1706 06005KT 8000 NSC"
    },
    {
      "icao": "GMMN",
      "alert": "OK",
      "vis_m": 6000,
      "fzfg": false,
      "metar_trigger": false,
      "taf_trigger": false,
      "metar": "METAR GMMN 152330Z 03007KT 6000 FEW006 14/13 Q1020 NOSIG",
      "taf": "TAF GMMN 152300Z 1600/1706 03009KT 8000 NSC"
    },
    {
      "icao": "GMMX",
      "alert": "OK",
      "vis_m": 9999,
      "fzfg": false,
      "metar_trigger": false,
      "taf_trigger": false,
      "metar": "METAR GMMX 152330Z 06004KT CAVOK 17/12 Q1019 NOSIG",
      "taf": "TAF GMMX 152300Z 1600/1706 06006KT CAVOK"
    },
    {
      "icao": "HEGN",
      "alert": "OK",
      "vis_m": 9999,
      "fzfg": false,
      "metar_trigger": false,
      "taf_trigger": false,
      "metar": "METAR HEGN 152300Z 00000KT CAVOK 24/14 Q1006 NOSIG",
      "taf": "TAF HEGN 152300Z 1600/1706 27008KT CAVOK"
    },
    {
      "icao": "HEMA",
      "alert": "OK",
      "vis_m": 9999,
      "fzfg": false,
      "metar_trigger": false,
      "taf_trigger": false,
      "metar": "METAR HEMA 152300Z 30003KT CAVOK 23/17 Q1006 NOSIG",
      "taf": "TAF HEMA 152300Z 1600/1706 29012KT CAVOK"
    },
    {
      "icao": "HESH",
      "alert": "OK",
      "vis_m": 9999,
      "fzfg": false,
      "metar_trigger": false,
      "taf_trigger": false,
      "metar": "METAR HESH 152300Z 00000KT CAVOK 27/09 Q1007 NOSIG",
      "taf": "TAF HESH 152300Z 1600/1706 32008KT CAVOK"
    },
    {
      "icao": "HESX",
      "alert": "OK",
      "vis_m": 9999,
      "fzfg": false,
      "metar_trigger": false,
      "taf_trigger": false,
      "metar": "METAR HESX 152300Z 05006KT CAVOK 19/12 Q1008 NOSIG",
      "taf": "TAF HESX 152300Z 1600/1706 04009KT CAVOK"
    },
    {
      "icao": "LATI",
      "alert": "OK",
      "vis_m": 9999,
      "fzfg": false,
      "metar_trigger": false,
      "taf_trigger": false,
      "metar": "METAR LATI 152320Z 15003KT 9999 OVC082 16/13 Q1017 NOSIG",
      "taf": "TAF LATI 152300Z 1600/1624 VRB03KT 9999 SCT060 BKN090 TX27/1612Z TN13/1603Z"
    },
    {
      "icao": "LBPD",
      "alert": "OK",
      "vis_m": 9999,
      "fzfg": false,
      "metar_trigger": false,
      "taf_trigger": false,
      "metar": "METAR LBPD 152330Z AUTO 15004KT 9999 OVC140/// 09/09 Q1020",
      "taf": "TAF LBPD 152300Z 1600/1624 VRB03KT 9999 SCT070"
    },
    {
      "icao": "LBSF",
      "alert": "OK",
      "vis_m": 9999,
      "fzfg": false,
      "metar_trigger": false,
      "taf_trigger": false,
      "metar": "METAR LBSF 152330Z AUTO 11006KT 9999 OVC069/// 11/06 Q1019 NOSIG",
      "taf": "TAF LBSF 152300Z 1600/1624 11010KT 9999 SCT050 BKN070"
    },
    {
      "icao": "LBWN",
      "alert": "OK",
      "vis_m": 9999,
      "fzfg": false,
      "metar_trigger": false,
      "taf_trigger": false,
      "metar": "METAR LBWN 152330Z AUTO 05002KT 9999 NSC 09/09 Q1020 NOSIG",
      "taf": "TAF LBWN 152300Z 1600/1624 VRB03KT 9999 SCT015"
    },
    {
      "icao": "LCLK",
      "alert": "OK",
      "vis_m": 9999,
      "fzfg": false,
      "metar_trigger": false,
      "taf_trigger": false,
      "metar": "METAR LCLK 152330Z 35007KT CAVOK 19/12 Q1011 NOSIG",
      "taf": "TAF LCLK 152330Z 1600/1700 35009KT CAVOK"
    },
    {
      "icao": "LCPH",
      "alert": "OK",
      "vis_m": 9999,
      "fzfg": false,
      "metar_trigger": false,
      "taf_trigger": false,
      "metar": "METAR LCPH 152330Z AUTO 04009KT 010V080 9999 NCD 17/10 Q1009 NOSIG",
      "taf": "TAF LCPH 152330Z 1600/1700 09009KT CAVOK"
    },
    {
      "icao": "LEAL",
      "alert": "OK",
      "vis_m": 9999,
      "fzfg": false,
      "metar_trigger": false,
      "taf_trigger": false,
      "metar": "METAR LEAL 152330Z 30003KT CAVOK 15/11 Q1020 NOSIG",
      "taf": "TAF LEAL 152300Z 1600/1624 VRB04KT 9999 FEW030 TX22/1613Z TN12/1606Z"
    },
    {
      "icao": "LEBB",
      "alert": "OK",
      "vis_m": 9999,
      "fzfg": false,
      "metar_trigger": false,
      "taf_trigger": false,
      "metar": "METAR LEBB 152330Z AUTO 08002KT CAVOK 12/11 Q1025",
      "taf": "TAF LEBB 152300Z 1600/1624 VRB03KT 9999 FEW025 TX22/1615Z TN08/1606Z"
    },
    {
      "icao": "LEBL",
      "alert": "OK",
      "vis_m": 9999,
      "fzfg": false,
      "metar_trigger": false,
      "taf_trigger": false,
      "metar": "METAR LEBL 152330Z 30004KT 9999 FEW020 14/11 Q1021 NOSIG",
      "taf": "TAF LEBL 152300Z 1600/1624 VRB04KT CAVOK TX20/1613Z TN11/1606Z"
    },
    {
      "icao": "LECH",
      "alert": "OK",
      "vis_m": 9999,
      "fzfg": false,
      "metar_trigger": false,
      "taf_trigger": false,
      "metar": "METAR LECH 152330Z AUTO VRB01KT CAVOK 12/07 Q1022",
      "taf": "TAF LECH 152300Z 1600/1624 VRB03KT 9999 FEW030 TX23/1613Z TN08/1606Z"
    },
    {
      "icao": "LEMD",
      "alert": "OK",
      "vis_m": 9999,
      "fzfg": false,
      "metar_trigger": false,
      "taf_trigger": false,
      "metar": "METAR LEMD 152330Z VRB01KT CAVOK 12/06 Q1022 NOSIG",
      "taf": "TAF LEMD 152300Z 1600/1706 VRB04KT CAVOK TX26/1616Z TN08/1606Z"
    },
    {
      "icao": "LEMG",
      "alert": "OK",
      "vis_m": 9999,
      "fzfg": false,
      "metar_trigger": false,
      "taf_trigger": false,
      "metar": "METAR LEMG 152330Z 29005KT CAVOK 13/11 Q1021 NOSIG",
      "taf": "TAF LEMG 152300Z 1600/1624 29004KT CAVOK TX25/1614Z TN15/1607Z"
    },
    {
      "icao": "LEVC",
      "alert": "OK",
      "vis_m": 9999,
      "fzfg": false,
      "metar_trigger": false,
      "taf_trigger": false,
      "metar": "METAR LEVC 152330Z 31004KT CAVOK 14/10 Q1021 NOSIG",
      "taf": "TAF LEVC 152300Z 1600/1624 VRB04KT 9999 FEW030 TX24/1613Z TN10/1606Z"
    },
    {
      "icao": "LEXJ",
      "alert": "OK",
      "vis_m": 9000,
      "fzfg": false,
      "metar_trigger": false,
      "taf_trigger": false,
      "metar": "METAR LEXJ 152330Z AUTO 10003KT 070V130 9000 OVC078 14/10 Q1024",
      "taf": "TAF LEXJ 152000Z 1521/1621 VRB03KT 9999 FEW030 TX20/1611Z TN10/1606Z"
    },
    {
      "icao": "LEZG",
      "alert": "OK",
      "vis_m": 9999,
      "fzfg": false,
      "metar_trigger": false,
      "taf_trigger": false,
      "metar": "METAR LEZG 152330Z 26009KT CAVOK 16/10 Q1021 NOSIG",
      "taf": "TAF LEZG 152300Z 1600/1624 27010KT 9999 FEW040 TX27/1613Z TN11/1606Z"
    },
    {
      "icao": "LEZL",
      "alert": "OK",
      "vis_m": 9999,
      "fzfg": false,
      "metar_trigger": false,
      "taf_trigger": false,
      "metar": "METAR LEZL 152330Z AUTO VRB02KT CAVOK 16/12 Q1020",
      "taf": "TAF LEZL 152000Z 1521/1621 VRB03KT CAVOK TX31/1615Z TN13/1607Z"
    },
    {
      "icao": "LFBD",
      "alert": "OK",
      "vis_m": 9999,
      "fzfg": false,
      "metar_trigger": false,
      "taf_trigger": false,
      "metar": "METAR LFBD 152330Z AUTO 31001KT 9999 0700 R23/1500D R05/0750D R29/P2300 BCFG NSC 10/09 Q1024 BECMG 4000 BR",
      "taf": "TAF LFBD 152300Z 1600/1706 VRB03KT CAVOK TX22/1613Z TN09/1605Z"
    },
    {
      "icao": "LFLL",
      "alert": "OK",
      "vis_m": 9999,
      "fzfg": false,
      "metar_trigger": false,
      "taf_trigger": false,
      "metar": "METAR LFLL 152330Z 00000KT CAVOK 09/06 Q1022 NOSIG",
      "taf": "TAF LFLL 152300Z 1600/1706 VRB03KT CAVOK"
    },
    {
      "icao": "LFLS",
      "alert": "OK",
      "vis_m": 9999,
      "fzfg": false,
      "metar_trigger": false,
      "taf_trigger": false,
      "metar": "METAR LFLS 152330Z AUTO 10003KT 9999 FEW040 SCT047 05/04 Q1022",
      "taf": "TAF LFLS 151400Z 1515/1615 35006KT 9999 BKN030"
    },
    {
      "icao": "LFMN",
      "alert": "OK",
      "vis_m": 9999,
      "fzfg": false,
      "metar_trigger": false,
      "taf_trigger": false,
      "metar": "METAR LFMN 152330Z 34008KT CAVOK 17/10 Q1018 NOSIG",
      "taf": "TAF LFMN 152000Z 1521/1703 33010KT CAVOK"
    },
    {
      "icao": "LFOB",
      "alert": "OK",
      "vis_m": 9999,
      "fzfg": false,
      "metar_trigger": false,
      "taf_trigger": false,
      "metar": "METAR LFOB 152330Z AUTO 24006KT 220V280 9999 BKN049 BKN058 OVC130 14/11 Q1020 NOSIG",
      "taf": "TAF LFOB 152300Z 1600/1624 24004KT 9999 SCT025"
    },
    {
      "icao": "LFPO",
      "alert": "OK",
      "vis_m": 9999,
      "fzfg": false,
      "metar_trigger": false,
      "taf_trigger": false,
      "metar": "METAR LFPO 152330Z 24005KT CAVOK 14/10 Q1021 NOSIG",
      "taf": "TAF LFPO 152300Z 1600/1706 25006KT CAVOK"
    },
    {
      "icao": "LFSB",
      "alert": "OK",
      "vis_m": 9999,
      "fzfg": false,
      "metar_trigger": false,
      "taf_trigger": false,
      "metar": "METAR LFSB 152330Z AUTO 18004KT CAVOK 07/06 Q1023 NOSIG",
      "taf": "TAF LFSB 152300Z 1600/1624 14004KT 9999 BKN050"
    },
    {
      "icao": "LGAV",
      "alert": "OK",
      "vis_m": 9999,
      "fzfg": false,
      "metar_trigger": false,
      "taf_trigger": false,
      "metar": "METAR LGAV 152320Z VRB03KT 9999 FEW020 SCT070 12/09 Q1016 NOSIG",
      "taf": "TAF LGAV 152300Z 1600/1624 35010KT 9999 FEW020 SCT070"
    },
    {
      "icao": "LGTS",
      "alert": "OK",
      "vis_m": 9999,
      "fzfg": false,
      "metar_trigger": false,
      "taf_trigger": false,
      "metar": "METAR LGTS 152320Z VRB02KT 9999 SCT025 15/13 Q1018 NOSIG",
      "taf": "TAF LGTS 152300Z 1600/1624 VRB03KT 9999 SCT025"
    },
    {
      "icao": "LHBP",
      "alert": "OK",
      "vis_m": 9999,
      "fzfg": false,
      "metar_trigger": false,
      "taf_trigger": false,
      "metar": "METAR LHBP 152330Z 00000KT CAVOK 12/08 Q1019 NOSIG",
      "taf": "TAF LHBP 152315Z 1600/1624 VRB03KT CAVOK"
    },
    {
      "icao": "LHDC",
      "alert": "OK",
      "vis_m": 9999,
      "fzfg": false,
      "metar_trigger": false,
      "taf_trigger": false,
      "metar": "METAR LHDC 152315Z AUTO 04005KT CAVOK 12/06 Q1019",
      "taf": "TAF LHDC 152315Z 1600/1609 02005KT CAVOK"
    },
    {
      "icao": "LIBD",
      "alert": "OK",
      "vis_m": 8000,
      "fzfg": false,
      "metar_trigger": false,
      "taf_trigger": false,
      "metar": "METAR LIBD 152320Z 03002KT 8000 SCT030 15/14 Q1016",
      "taf": "TAF LIBD 152300Z 1600/1624 VRB05KT 7000 SCT030"
    },
    {
      "icao": "LIBG",
      "alert": "OK",
      "vis_m": null,
      "fzfg": false,
      "metar_trigger": false,
      "taf_trigger": false,
      "metar": "",
      "taf": "TAF LIBG 151400Z 1515/1524 VRB05KT 9999 SCT040"
    },
    {
      "icao": "LIBP",
      "alert": "OK",
      "vis_m": 6000,
      "fzfg": false,
      "metar_trigger": false,
      "taf_trigger": false,
      "metar": "METAR LIBP 152320Z AUTO 29003KT 260V340 6000 OVC007/// 16/16 Q1018",
      "taf": "TAF LIBP 152300Z 1600/1624 VRB05KT 8000 BKN040"
    },
    {
      "icao": "LIBR",
      "alert": "OK",
      "vis_m": 9999,
      "fzfg": false,
      "metar_trigger": false,
      "taf_trigger": false,
      "metar": "METAR LIBR 152250Z 32006KT 9999 -RA NSC 15/15 Q1016",
      "taf": "TAF LIBR 152300Z 1600/1624 VRB05KT 9999 BKN030"
    },
    {
      "icao": "LICA",
      "alert": "OK",
      "vis_m": 9999,
      "fzfg": false,
      "metar_trigger": false,
      "taf_trigger": false,
      "metar": "METAR LICA 152320Z AUTO 10009KT 9999 OVC025/// 16/12 Q1014",
      "taf": "TAF LICA 152300Z 1600/1624 07012KT 9999 SCT035"
    },
    {
      "icao": "LICC",
      "alert": "OK",
      "vis_m": 5000,
      "fzfg": false,
      "metar_trigger": false,
      "taf_trigger": false,
      "metar": "METAR LICC 152320Z 05012KT 5000 BR BKN020 17/15 Q1012",
      "taf": "TAF LICC 152300Z 1600/1624 10015KT 6000 FEW005 SCT020"
    },
    {
      "icao": "LICJ",
      "alert": "OK",
      "vis_m": 9999,
      "fzfg": false,
      "metar_trigger": false,
      "taf_trigger": false,
      "metar": "METAR LICJ 152320Z AUTO 08008KT 9999 FEW032/// SCT065/// BKN150/// 14/12 Q1012",
      "taf": "TAF LICJ 152300Z 1600/1624 VRB06KT 9999 FEW020"
    },
    {
      "icao": "LIMC",
      "alert": "OK",
      "vis_m": 9999,
      "fzfg": false,
      "metar_trigger": false,
      "taf_trigger": false,
      "metar": "METAR LIMC 152320Z VRB02KT CAVOK 11/11 Q1020 NOSIG",
      "taf": "TAF LIMC 152300Z 1600/1706 VRB05KT 9999 FEW040"
    },
    {
      "icao": "LIME",
      "alert": "OK",
      "vis_m": 9999,
      "fzfg": false,
      "metar_trigger": false,
      "taf_trigger": false,
      "metar": "METAR LIME 152320Z 01004KT 9999 FEW030 13/12 Q1019 NOSIG",
      "taf": "TAF LIME 152300Z 1600/1624 VRB05KT 7000 SCT050"
    },
    {
      "icao": "LIMF",
      "alert": "OK",
      "vis_m": 9999,
      "fzfg": false,
      "metar_trigger": false,
      "taf_trigger": false,
      "metar": "METAR LIMF 152320Z 32004KT 280V340 CAVOK 14/11 Q1020",
      "taf": "TAF LIMF 152300Z 1600/1624 VRB05KT 8000 FEW040"
    },
    {
      "icao": "LIMJ",
      "alert": "OK",
      "vis_m": 9999,
      "fzfg": false,
      "metar_trigger": false,
      "taf_trigger": false,
      "metar": "METAR LIMJ 152320Z 03010KT 330V050 CAVOK 18/10 Q1017",
      "taf": "TAF LIMJ 152300Z 1600/1624 02014KT CAVOK"
    },
    {
      "icao": "LIPE",
      "alert": "OK",
      "vis_m": 9999,
      "fzfg": false,
      "metar_trigger": false,
      "taf_trigger": false,
      "metar": "METAR LIPE 152320Z 25003KT 9999 BKN050 15/14 Q1019",
      "taf": "TAF LIPE 152300Z 1600/1624 VRB05KT 9999 BKN030"
    },
    {
      "icao": "LIPH",
      "alert": "OK",
      "vis_m": null,
      "fzfg": false,
      "metar_trigger": false,
      "taf_trigger": false,
      "metar": "",
      "taf": "TAF LIPH 152300Z 1600/1624 VRB05KT 9999 FEW030"
    },
    {
      "icao": "LIPQ",
      "alert": "OK",
      "vis_m": 9999,
      "fzfg": false,
      "metar_trigger": false,
      "taf_trigger": false,
      "metar": "METAR LIPQ 152320Z AUTO 03002KT 9999 NCD 13/10 Q1018",
      "taf": "TAF LIPQ 152300Z 1600/1624 VRB05KT 9999 FEW070"
    },
    {
      "icao": "LIPR",
      "alert": "OK",
      "vis_m": 9999,
      "fzfg": false,
      "metar_trigger": false,
      "taf_trigger": false,
      "metar": "METAR LIPR 152320Z AUTO 21002KT 9999 FEW053/// BKN074/// 14/13 Q1019",
      "taf": "TAF LIPR 152300Z 1600/1624 VRB05KT 8000 BKN030"
    },
    {
      "icao": "LIPX",
      "alert": "OK",
      "vis_m": 9999,
      "fzfg": false,
      "metar_trigger": false,
      "taf_trigger": false,
      "metar": "METAR LIPX 152320Z VRB02KT CAVOK 13/12 Q1019",
      "taf": "TAF LIPX 152300Z 1600/1624 VRB05KT 7000 FEW050"
    },
    {
      "icao": "LIPY",
      "alert": "OK",
      "vis_m": 9999,
      "fzfg": false,
      "metar_trigger": false,
      "taf_trigger": false,
      "metar": "METAR LIPY 152320Z AUTO 17002KT 9999 BKN140/// 13/13 Q1018",
      "taf": "TAF LIPY 152300Z 1600/1624 VRB05KT 6000 SCT010 BKN040"
    },
    {
      "icao": "LIPZ",
      "alert": "OK",
      "vis_m": 9999,
      "fzfg": false,
      "metar_trigger": false,
      "taf_trigger": false,
      "metar": "METAR LIPZ 152320Z 30003KT CAVOK 13/11 Q1019 NOSIG",
      "taf": "TAF LIPZ 152300Z 1600/1706 VRB05KT 9999 FEW040"
    },
    {
      "icao": "LIRF",
      "alert": "OK",
      "vis_m": 9999,
      "fzfg": false,
      "metar_trigger": false,
      "taf_trigger": false,
      "metar": "METAR LIRF 152320Z VRB01KT 9999 MIFG NSC 12/12 Q1015 NOSIG",
      "taf": "TAF LIRF 152300Z 1600/1706 04007KT 9999 SCT030"
    },
    {
      "icao": "LIRN",
      "alert": "OK",
      "vis_m": 9999,
      "fzfg": false,
      "metar_trigger": false,
      "taf_trigger": false,
      "metar": "METAR LIRN 152320Z 05010KT 9999 FEW060 17/11 Q1015 NOSIG",
      "taf": "TAF LIRN 152300Z 1600/1624 VRB05KT 9999 BKN060"
    },
    {
      "icao": "LIRP",
      "alert": "OK",
      "vis_m": 9999,
      "fzfg": false,
      "metar_trigger": false,
      "taf_trigger": false,
      "metar": "METAR LIRP 152315Z 06003KT CAVOK 15/11 Q1017 NOSIG",
      "taf": "TAF LIRP 152300Z 1600/1624 10007KT 9999 FEW040"
    },
    {
      "icao": "LIRZ",
      "alert": "OK",
      "vis_m": 9999,
      "fzfg": false,
      "metar_trigger": false,
      "taf_trigger": false,
      "metar": "METAR LIRZ 152320Z AUTO 02009KT 9999 NCD 14/12 Q1016",
      "taf": "TAF LIRZ 152300Z 1600/1624 04012KT 9999 SCT030"
    },
    {
      "icao": "LJLJ",
      "alert": "OK",
      "vis_m": 5000,
      "fzfg": false,
      "metar_trigger": false,
      "taf_trigger": false,
      "metar": "METAR LJLJ 152330Z 09001KT 5000 2000SE MIFG BR FEW001 08/07 Q1020 NOSIG",
      "taf": "TAF LJLJ 152300Z 1600/1700 VRB02KT 9999 FEW045"
    },
    {
      "icao": "LKMT",
      "alert": "OK",
      "vis_m": 8000,
      "fzfg": false,
      "metar_trigger": false,
      "taf_trigger": false,
      "metar": "METAR LKMT 152330Z 34002KT 8000 BKN046 10/08 Q1021 NOSIG",
      "taf": "TAF LKMT 152300Z 1600/1624 VRB02KT 9999 OVC025"
    },
    {
      "icao": "LKPR",
      "alert": "OK",
      "vis_m": 9999,
      "fzfg": false,
      "metar_trigger": false,
      "taf_trigger": false,
      "metar": "METAR LKPR 152330Z 20006KT 9999 OVC044 11/07 Q1021 NOSIG",
      "taf": "TAF LKPR 152300Z 1600/1706 VRB02KT 9999 BKN027"
    },
    {
      "icao": "LLBG",
      "alert": "OK",
      "vis_m": 9999,
      "fzfg": false,
      "metar_trigger": false,
      "taf_trigger": false,
      "metar": "METAR LLBG 152320Z 02004KT CAVOK 25/06 Q1006 NOSIG",
      "taf": "TAF LLBG 152316Z 1600/1624 03005KT CAVOK TX35/1613Z TN24/1603Z"
    },
    {
      "icao": "LMML",
      "alert": "OK",
      "vis_m": 9999,
      "fzfg": false,
      "metar_trigger": false,
      "taf_trigger": false,
      "metar": "METAR LMML 152315Z 29004KT 260V350 9999 FEW020 13/12 Q1011 NOSIG",
      "taf": "TAF LMML 152300Z 1600/1624 29005KT 9999 SCT018"
    },
    {
      "icao": "LOWW",
      "alert": "OK",
      "vis_m": 9999,
      "fzfg": false,
      "metar_trigger": false,
      "taf_trigger": false,
      "metar": "METAR LOWW 152320Z 32004KT 9999 FEW040 BKN042 11/08 Q1020 NOSIG",
      "taf": "TAF LOWW 152315Z 1600/1706 34007KT 9999 BKN040 TX19/1615Z TN08/1603Z"
    },
    {
      "icao": "LPFR",
      "alert": "OK",
      "vis_m": 9999,
      "fzfg": false,
      "metar_trigger": false,
      "taf_trigger": false,
      "metar": "METAR LPFR 152330Z 01005KT CAVOK 18/12 Q1021",
      "taf": "TAF LPFR 152300Z 1600/1624 02005KT CAVOK"
    },
    {
      "icao": "LPMA",
      "alert": "OK",
      "vis_m": 9999,
      "fzfg": false,
      "metar_trigger": false,
      "taf_trigger": false,
      "metar": "METAR LPMA 152330Z 02012KT 340V060 9999 SCT015 16/11 Q1023",
      "taf": "TAF LPMA 152300Z 1600/1624 02015KT 9999 SCT015"
    },
    {
      "icao": "LPPR",
      "alert": "OK",
      "vis_m": 9999,
      "fzfg": false,
      "metar_trigger": false,
      "taf_trigger": false,
      "metar": "METAR LPPR 152330Z 08003KT 050V110 9999 BKN007 OVC038 14/13 Q1024",
      "taf": "TAF LPPR 152300Z 1600/1624 VRB02KT 9999 SCT008"
    },
    {
      "icao": "LPPS",
      "alert": "OK",
      "vis_m": 9999,
      "fzfg": false,
      "metar_trigger": false,
      "taf_trigger": false,
      "metar": "METAR LPPS 152330Z 05008KT 9999 SCT015 BKN030 15/11 Q1024",
      "taf": "TAF LPPS 152300Z 1600/1706 04008KT 9999 FEW015 BKN030"
    },
    {
      "icao": "LPPT",
      "alert": "OK",
      "vis_m": 9999,
      "fzfg": false,
      "metar_trigger": false,
      "taf_trigger": false,
      "metar": "METAR LPPT 152330Z 32011KT CAVOK 13/11 Q1023",
      "taf": "TAF LPPT 152300Z 1600/1706 33008KT 9999 FEW012"
    },
    {
      "icao": "LQBK",
      "alert": "OK",
      "vis_m": 9999,
      "fzfg": false,
      "metar_trigger": false,
      "taf_trigger": false,
      "metar": "METAR LQBK 152330Z VRB01KT 9999 BKN043 13/11 Q1020 NOSIG",
      "taf": "TAF LQBK 152300Z 1600/1624 VRB02KT 9999 FEW025 BKN040 TX21/1613Z TN10/1604Z"
    },
    {
      "icao": "LQSA",
      "alert": "OK",
      "vis_m": 8000,
      "fzfg": false,
      "metar_trigger": false,
      "taf_trigger": false,
      "metar": "METAR LQSA 152330Z 15002KT 8000 BKN030 13/12 Q1019",
      "taf": "TAF LQSA 152300Z 1600/1624 VRB02KT 9999 BKN040 TX22/1614Z TN11/1604Z"
    },
    {
      "icao": "LQTZ",
      "alert": "OK",
      "vis_m": 8000,
      "fzfg": false,
      "metar_trigger": false,
      "taf_trigger": false,
      "metar": "METAR LQTZ 152330Z 05001KT 8000 BKN040 11/11 Q1020",
      "taf": "TAF LQTZ 152300Z 1600/1624 27005KT 9999 SCT035 TX21/1613Z TN08/1604Z"
    },
    {
      "icao": "LRBC",
      "alert": "OK",
      "vis_m": 9999,
      "fzfg": false,
      "metar_trigger": false,
      "taf_trigger": false,
      "metar": "METAR LRBC 152330Z 17012KT CAVOK 09/06 Q1020",
      "taf": "TAF LRBC 152300Z 1600/1609 16008KT CAVOK"
    },
    {
      "icao": "LRBS",
      "alert": "OK",
      "vis_m": 9999,
      "fzfg": false,
      "metar_trigger": false,
      "taf_trigger": false,
      "metar": "METAR LRBS 152330Z 03004KT CAVOK 06/04 Q1020 NOSIG",
      "taf": "TAF LRBS 152300Z 1600/1624 VRB04KT CAVOK"
    },
    {
      "icao": "LRBV",
      "alert": "OK",
      "vis_m": 9999,
      "fzfg": false,
      "metar_trigger": false,
      "taf_trigger": false,
      "metar": "METAR LRBV 152330Z AUTO 22003KT 140V230 9999 BKN110/// 08/04 Q1019",
      "taf": "TAF LRBV 151700Z 1518/1603 21012KT CAVOK"
    },
    {
      "icao": "LRCL",
      "alert": "OK",
      "vis_m": 9999,
      "fzfg": false,
      "metar_trigger": false,
      "taf_trigger": false,
      "metar": "METAR LRCL 152330Z 25004KT CAVOK 13/06 Q1019",
      "taf": "TAF LRCL 152300Z 1600/1609 VRB04KT CAVOK"
    },
    {
      "icao": "LRCV",
      "alert": "OK",
      "vis_m": 9999,
      "fzfg": false,
      "metar_trigger": false,
      "taf_trigger": false,
      "metar": "METAR LRCV 152330Z 02004KT CAVOK 09/06 Q1020",
      "taf": "TAF LRCV 152300Z 1600/1609 VRB04KT CAVOK"
    },
    {
      "icao": "LRIA",
      "alert": "OK",
      "vis_m": 9999,
      "fzfg": false,
      "metar_trigger": false,
      "taf_trigger": false,
      "metar": "METAR LRIA 152330Z 11007KT 9999 -RA NSC 10/07 Q1020",
      "taf": "TAF LRIA 152300Z 1600/1609 11007KT 9999 SCT045"
    },
    {
      "icao": "LROP",
      "alert": "OK",
      "vis_m": 9999,
      "fzfg": false,
      "metar_trigger": false,
      "taf_trigger": false,
      "metar": "METAR LROP 152330Z 03005KT CAVOK 07/03 Q1020 NOSIG",
      "taf": "TAF LROP 152300Z 1600/1624 VRB04KT CAVOK"
    },
    {
      "icao": "LRSB",
      "alert": "OK",
      "vis_m": 9999,
      "fzfg": false,
      "metar_trigger": false,
      "taf_trigger": false,
      "metar": "METAR LRSB 152330Z 27006KT CAVOK 10/06 Q1019",
      "taf": "TAF LRSB 152300Z 1600/1624 VRB04KT CAVOK"
    },
    {
      "icao": "LRSM",
      "alert": "OK",
      "vis_m": 9999,
      "fzfg": false,
      "metar_trigger": false,
      "taf_trigger": false,
      "metar": "METAR LRSM 152330Z AUTO 22004KT 9999 NCD 11/08 Q1018",
      "taf": "TAF LRSM 151400Z 1515/1524 VRB04KT CAVOK"
    },
    {
      "icao": "LRSV",
      "alert": "OK",
      "vis_m": 9999,
      "fzfg": false,
      "metar_trigger": false,
      "taf_trigger": false,
      "metar": "METAR LRSV 152330Z 32003KT 9999 -RA NSC 11/07 Q1019",
      "taf": "TAF LRSV 152300Z 1600/1609 VRB04KT CAVOK"
    },
    {
      "icao": "LRTM",
      "alert": "OK",
      "vis_m": 9999,
      "fzfg": false,
      "metar_trigger": false,
      "taf_trigger": false,
      "metar": "METAR LRTM 152330Z VRB02KT CAVOK 13/07 Q1018",
      "taf": "TAF LRTM 152300Z 1600/1609 VRB04KT CAVOK"
    },
    {
      "icao": "LRTR",
      "alert": "OK",
      "vis_m": 9999,
      "fzfg": false,
      "metar_trigger": false,
      "taf_trigger": false,
      "metar": "METAR LRTR 152330Z 35004KT CAVOK 12/07 Q1019",
      "taf": "TAF LRTR 152300Z 1600/1624 VRB04KT CAVOK"
    },
    {
      "icao": "LTAC",
      "alert": "OK",
      "vis_m": 9999,
      "fzfg": false,
      "metar_trigger": false,
      "taf_trigger": false,
      "metar": "METAR LTAC 152320Z VRB02KT CAVOK 08/05 Q1018 NOSIG RMK RWY21C 15002KT RWY03L VRB01KT RWY21R 00000KT RWY03R 00000KT RWY21L 14003KT",
      "taf": "TAF LTAC 152240Z 1600/1624 VRB02KT CAVOK"
    },
    {
      "icao": "LTFM",
      "alert": "OK",
      "vis_m": 9999,
      "fzfg": false,
      "metar_trigger": false,
      "taf_trigger": false,
      "metar": "METAR LTFM 152320Z 04007KT 360V100 9999 BKN010 10/07 Q1020 NOSIG RMK RWY17L 05006KT RWY34L 03006KT RWY16R 05007KT RWY36 04008KT 360V060 RWY18 07008KT",
      "taf": "TAF LTFM 152240Z 1600/1706 03012KT 9999 BKN010"
    },
    {
      "icao": "LUKK",
      "alert": "OK",
      "vis_m": 9999,
      "fzfg": false,
      "metar_trigger": false,
      "taf_trigger": false,
      "metar": "METAR LUKK 152330Z 23005KT 9999 -SHRA FEW049CB 08/03 Q1021 TEMPO SCT045CB",
      "taf": "TAF LUKK 152314Z 1600/1624 20006KT 9999 SCT040"
    },
    {
      "icao": "LWOH",
      "alert": "OK",
      "vis_m": null,
      "fzfg": false,
      "metar_trigger": false,
      "taf_trigger": false,
      "metar": "",
      "taf": "TAF LWOH 152320Z 1600/1624 VRB02KT 9999 FEW020 BKN040"
    },
    {
      "icao": "LWSK",
      "alert": "OK",
      "vis_m": 9999,
      "fzfg": false,
      "metar_trigger": false,
      "taf_trigger": false,
      "metar": "METAR LWSK 152320Z 14002KT 9999 SCT050 BKN085 12/10 Q1019 NOSIG",
      "taf": "TAF LWSK 152320Z 1600/1624 VRB02KT 9999 SCT050 BKN085"
    },
    {
      "icao": "LYBE",
      "alert": "OK",
      "vis_m": 9999,
      "fzfg": false,
      "metar_trigger": false,
      "taf_trigger": false,
      "metar": "METAR LYBE 152330Z 14005KT CAVOK 09/07 Q1019 NOSIG",
      "taf": "TAF LYBE 152300Z 1600/1624 30004KT CAVOK TX23/1613Z TN11/1604Z"
    },
    {
      "icao": "LYNI",
      "alert": "OK",
      "vis_m": 9999,
      "fzfg": false,
      "metar_trigger": false,
      "taf_trigger": false,
      "metar": "METAR LYNI 152330Z 09004KT 050V120 9999 FEW090 13/08 Q1018 NOSIG",
      "taf": "TAF LYNI 152300Z 1600/1624 08004KT CAVOK TX23/1613Z TN10/1604Z"
    },
    {
      "icao": "LYPG",
      "alert": "OK",
      "vis_m": 9999,
      "fzfg": false,
      "metar_trigger": false,
      "taf_trigger": false,
      "metar": "METAR LYPG 152330Z 24002KT CAVOK 14/11 Q1016 NOSIG",
      "taf": ""
    },
    {
      "icao": "LZIB",
      "alert": "OK",
      "vis_m": 9999,
      "fzfg": false,
      "metar_trigger": false,
      "taf_trigger": false,
      "metar": "METAR LZIB 152330Z VRB02KT CAVOK 09/08 Q1020 NOSIG",
      "taf": "TAF LZIB 152315Z 1600/1700 31008KT CAVOK"
    },
    {
      "icao": "LZKZ",
      "alert": "OK",
      "vis_m": 9999,
      "fzfg": false,
      "metar_trigger": false,
      "taf_trigger": false,
      "metar": "METAR LZKZ 152330Z 36007KT CAVOK 13/07 Q1019 NOSIG",
      "taf": "TAF LZKZ 152315Z 1600/1700 01008KT CAVOK"
    },
    {
      "icao": "LZTT",
      "alert": "OK",
      "vis_m": 9999,
      "fzfg": false,
      "metar_trigger": false,
      "taf_trigger": false,
      "metar": "METAR LZTT 152330Z 26003KT 9999 FEW020 SCT040 BKN070 08/07 Q1020",
      "taf": "TAF LZTT 152315Z 1600/1700 24005KT 9999 BKN040"
    },
    {
      "icao": "OEJN",
      "alert": "OK",
      "vis_m": 9999,
      "fzfg": false,
      "metar_trigger": false,
      "taf_trigger": false,
      "metar": "METAR OEJN 152300Z 21003KT CAVOK 30/16 Q1004 NOSIG",
      "taf": "TAF OEJN 152300Z 1600/1706 VRB03KT 7000 NSC"
    },
    {
      "icao": "OEMA",
      "alert": "OK",
      "vis_m": 9999,
      "fzfg": false,
      "metar_trigger": false,
      "taf_trigger": false,
      "metar": "METAR OEMA 152300Z 06008KT 9999 SCT040 23/18 Q1013 NOSIG",
      "taf": "TAF OEMA 152300Z 1600/1706 10005KT 7000 FEW045"
    },
    {
      "icao": "OJAI",
      "alert": "OK",
      "vis_m": null,
      "fzfg": false,
      "metar_trigger": false,
      "taf_trigger": false,
      "metar": "",
      "taf": "TAF OJAI 152300Z 1600/1706 13010KT 4000 DU NSC"
    },
    {
      "icao": "OMAA",
      "alert": "OK",
      "vis_m": null,
      "fzfg": false,
      "metar_trigger": false,
      "taf_trigger": false,
      "metar": "",
      "taf": ""
    },
    {
      "icao": "OMDB",
      "alert": "OK",
      "vis_m": null,
      "fzfg": false,
      "metar_trigger": false,
      "taf_trigger": false,
      "metar": "",
      "taf": ""
    },
    {
      "icao": "UAAA",
      "alert": "OK",
      "vis_m": 9999,
      "fzfg": false,
      "metar_trigger": false,
      "taf_trigger": false,
      "metar": "METAR UAAA 152330Z VRB01MPS 9999 SCT050 BKN100 15/08 Q1012 NOSIG",
      "taf": "TAF UAAA 152302Z 1600/1624 28003G08MPS 9999 BKN050CB OVC100 TX18/1609Z TN10/1601Z"
    },
    {
      "icao": "UBBB",
      "alert": "OK",
      "vis_m": 9999,
      "fzfg": false,
      "metar_trigger": false,
      "taf_trigger": false,
      "metar": "METAR UBBB 152330Z 35004KT CAVOK 11/05 Q1020 NOSIG",
      "taf": "TAF UBBB 152308Z 1600/1624 VRB04KT 9999 SCT030 TX15/1610Z TN07/1601Z"
    },
    {
      "icao": "UDSG",
      "alert": "OK",
      "vis_m": 9999,
      "fzfg": false,
      "metar_trigger": false,
      "taf_trigger": false,
      "metar": "METAR UDSG 152330Z 34002KT 9999 NSC M07/M10 Q1021 NOSIG",
      "taf": "TAF UDSG 152300Z 1600/1624 VRB06KT 9999 FEW050"
    },
    {
      "icao": "UDYZ",
      "alert": "OK",
      "vis_m": 9999,
      "fzfg": false,
      "metar_trigger": false,
      "taf_trigger": false,
      "metar": "METAR UDYZ 152330Z 10003KT 9999 NSC 03/M03 Q1020 NOSIG",
      "taf": "TAF UDYZ 152300Z 1600/1624 14006KT 9999 FEW040"
    },
    {
      "icao": "UGKO",
      "alert": "OK",
      "vis_m": 9999,
      "fzfg": false,
      "metar_trigger": false,
      "taf_trigger": false,
      "metar": "METAR UGKO 152330Z VRB02KT CAVOK 04/02 Q1022 NOSIG",
      "taf": "TAF UGKO 152300Z 1600/1624 08007KT CAVOK TX19/1611Z TN02/1602Z"
    }
  ]
}