{
  "ts_utc": "2025-12-20T15:44:46Z",
  "threshold_m": 150,
  "source": "stations_override.txt (ICAO list) + aviationweather.gov (METAR/TAF raw)",
  "station_count": 114,
  "stations": [
    {
      "icao": "BIKF",
      "alert": "OK",
      "vis_m": 9999,
      "fzfg": false,
      "metar_trigger": false,
      "taf_trigger": false,
      "metar": "METAR BIKF 201530Z 15013KT 9999 BKN018 BKN028 06/04 Q0992",
      "taf": "TAF BIKF 201348Z 2015/2115 12020G30KT 9999 -RA BKN015 OVC025 TX09/2015Z TN04/2019Z"
    },
    {
      "icao": "BKPR",
      "alert": "OK",
      "vis_m": 100,
      "fzfg": false,
      "metar_trigger": false,
      "taf_trigger": false,
      "metar": "METAR BKPR 201530Z VRB02KT 0100 R17/0325N R35/0300N FG BKN001 01/01 Q1018 NOSIG",
      "taf": ""
    },
    {
      "icao": "EBBR",
      "alert": "OK",
      "vis_m": 9999,
      "fzfg": false,
      "metar_trigger": false,
      "taf_trigger": false,
      "metar": "METAR EBBR 201520Z 09003KT 9999 BKN025 07/06 Q1013 NOSIG",
      "taf": "TAF EBBR 201103Z 2012/2118 08005KT 6000 FEW018"
    },
    {
      "icao": "EBCI",
      "alert": "OK",
      "vis_m": 4000,
      "fzfg": false,
      "metar_trigger": false,
      "taf_trigger": false,
      "metar": "METAR EBCI 201520Z COR 09005KT 4000 -RADZ SCT002 BKN009 07/06 Q1012 TEMPO BKN004",
      "taf": "TAF EBCI 201103Z 2012/2118 11004KT 8000 FEW018"
    },
    {
      "icao": "EDDB",
      "alert": "OK",
      "vis_m": 7000,
      "fzfg": false,
      "metar_trigger": false,
      "taf_trigger": false,
      "metar": "METAR EDDB 201520Z AUTO 03003KT 7000 0900 R06L/P2000N R06R/1900N BCFG NSC 06/05 Q1019 BECMG 2000 BR BKN009",
      "taf": ""
    },
    {
      "icao": "EDDH",
      "alert": "OK",
      "vis_m": 500,
      "fzfg": false,
      "metar_trigger": false,
      "taf_trigger": false,
      "metar": "METAR EDDH 201520Z AUTO 10004KT 060V140 0500 0300 R23/0750N R15/0800N FG VV003 04/04 Q1018 TEMPO 0600 OVC001",
      "taf": "TAF EDDH 201124Z 2012/2118 VRB03KT 0500 FG VV003"
    },
    {
      "icao": "EDDK",
      "alert": "OK",
      "vis_m": 9999,
      "fzfg": false,
      "metar_trigger": false,
      "taf_trigger": false,
      "metar": "METAR EDDK 201520Z AUTO 10004KT 070V130 9999 BKN017 BKN030 BKN048 09/08 Q1014 NOSIG",
      "taf": "TAF EDDK 201100Z 2012/2118 11007KT 9999 BKN020"
    },
    {
      "icao": "EDDN",
      "alert": "OK",
      "vis_m": 9999,
      "fzfg": false,
      "metar_trigger": false,
      "taf_trigger": false,
      "metar": "METAR EDDN 201520Z AUTO VRB01KT CAVOK 06/04 Q1016 NOSIG",
      "taf": ""
    },
    {
      "icao": "EDFH",
      "alert": "OK",
      "vis_m": 350,
      "fzfg": false,
      "metar_trigger": false,
      "taf_trigger": false,
      "metar": "METAR EDFH 201520Z COR 15009KT 0350 R21/0450N FG VV/// 07/07 Q1013",
      "taf": "TAF EDFH 201100Z 2012/2112 12007KT 0800 FG BKN003"
    },
    {
      "icao": "EDJA",
      "alert": "OK",
      "vis_m": 9999,
      "fzfg": false,
      "metar_trigger": false,
      "taf_trigger": false,
      "metar": "METAR EDJA 201520Z VRB01KT CAVOK 05/03 Q1015",
      "taf": "TAF EDJA 201400Z 2015/2024 04003KT CAVOK"
    },
    {
      "icao": "EDLW",
      "alert": "OK",
      "vis_m": 9999,
      "fzfg": false,
      "metar_trigger": false,
      "taf_trigger": false,
      "metar": "METAR EDLW 201520Z 03005KT CAVOK 06/05 Q1015",
      "taf": "TAF EDLW 201100Z 2012/2112 VRB03KT 9999 BKN030"
    },
    {
      "icao": "EDSB",
      "alert": "OK",
      "vis_m": 9999,
      "fzfg": false,
      "metar_trigger": false,
      "taf_trigger": false,
      "metar": "METAR EDSB 201520Z 01002KT CAVOK 09/08 Q1015",
      "taf": "TAF EDSB 201100Z 2012/2112 VRB03KT 9999 SCT004 BKN045"
    },
    {
      "icao": "EETN",
      "alert": "OK",
      "vis_m": 8000,
      "fzfg": false,
      "metar_trigger": false,
      "taf_trigger": false,
      "metar": "METAR EETN 201520Z 24010KT 8000 -SHRA BKN010 SCT022CB 06/05 Q1007 TEMPO 5000 SHRA",
      "taf": "TAF EETN 201130Z 2012/2112 22012KT 9999 BKN012 BKN035"
    },
    {
      "icao": "EFHK",
      "alert": "OK",
      "vis_m": 9999,
      "fzfg": false,
      "metar_trigger": false,
      "taf_trigger": false,
      "metar": "METAR EFHK 201520Z 21008KT 9999 FEW008 BKN012 BKN019 06/05 Q1004 TEMPO SCT010 BKN015",
      "taf": "TAF EFHK 201433Z 2015/2115 23009KT 9999 SCT010 BKN018"
    },
    {
      "icao": "EFTU",
      "alert": "OK",
      "vis_m": 9999,
      "fzfg": false,
      "metar_trigger": false,
      "taf_trigger": false,
      "metar": "METAR EFTU 201520Z AUTO 25010KT 9999 -SHRA OVC014 06/05 Q1004",
      "taf": "TAF EFTU 201433Z 2015/2115 25010KT 9999 -RA SCT010 BKN015"
    },
    {
      "icao": "EGGW",
      "alert": "OK",
      "vis_m": 9999,
      "fzfg": false,
      "metar_trigger": false,
      "taf_trigger": false,
      "metar": "METAR EGGW 201520Z AUTO 13007KT 9999 FEW022 07/05 Q1010",
      "taf": "TAF EGGW 201104Z 2012/2112 13007KT 9999 FEW025"
    },
    {
      "icao": "EGKK",
      "alert": "OK",
      "vis_m": 9999,
      "fzfg": false,
      "metar_trigger": false,
      "taf_trigger": false,
      "metar": "METAR EGKK 201520Z 10007KT 9999 FEW017 08/06 Q1009",
      "taf": "TAF EGKK 201055Z 2012/2118 13007KT 9999 FEW025"
    },
    {
      "icao": "EHEH",
      "alert": "OK",
      "vis_m": 9999,
      "fzfg": false,
      "metar_trigger": false,
      "taf_trigger": false,
      "metar": "METAR EHEH 201525Z AUTO 06006KT 030V120 9999 OVC100 07/05 Q1014 BLU NOSIG RMK TREND REMOTE BY EHWX",
      "taf": "TAF EHEH 201114Z 2012/2118 08007KT CAVOK"
    },
    {
      "icao": "EKBI",
      "alert": "OK",
      "vis_m": 9999,
      "fzfg": false,
      "metar_trigger": false,
      "taf_trigger": false,
      "metar": "METAR EKBI 201520Z AUTO 21004KT 9999 BKN005/// 07/06 Q1017",
      "taf": "TAF EKBI 201427Z 2015/2115 20005KT 9999 SCT010"
    },
    {
      "icao": "EKCH",
      "alert": "OK",
      "vis_m": 9999,
      "fzfg": false,
      "metar_trigger": false,
      "taf_trigger": false,
      "metar": "METAR EKCH 201520Z AUTO 23007KT 9999 BKN020/// 07/05 Q1018 TEMPO BKN012",
      "taf": "TAF EKCH 201427Z 2015/2115 24010KT 9999 SCT010 BKN018"
    },
    {
      "icao": "ENTO",
      "alert": "OK",
      "vis_m": 9999,
      "fzfg": false,
      "metar_trigger": false,
      "taf_trigger": false,
      "metar": "METAR ENTO 201520Z 28004KT CAVOK 05/03 Q1012 NOSIG",
      "taf": "TAF ENTO 201100Z 2012/2112 24010KT CAVOK"
    },
    {
      "icao": "EPGD",
      "alert": "OK",
      "vis_m": 9999,
      "fzfg": false,
      "metar_trigger": false,
      "taf_trigger": false,
      "metar": "METAR EPGD 201530Z 30010KT 9999 BKN014 05/03 Q1019",
      "taf": "TAF EPGD 201130Z 2012/2112 29012KT 9999 BKN015"
    },
    {
      "icao": "EPKK",
      "alert": "OK",
      "vis_m": 200,
      "fzfg": false,
      "metar_trigger": false,
      "taf_trigger": false,
      "metar": "METAR EPKK 201530Z 21003KT 0200 R25/0650N FG VV001 02/02 Q1020",
      "taf": "TAF EPKK 201430Z 2015/2115 19002KT 0600 FG SCT001 OVC002"
    },
    {
      "icao": "EPKT",
      "alert": "OK",
      "vis_m": 2300,
      "fzfg": false,
      "metar_trigger": false,
      "taf_trigger": false,
      "metar": "METAR EPKT 201530Z 19004KT 2300 BR OVC002 04/04 Q1019",
      "taf": "TAF EPKT 201130Z 2012/2112 18005KT 0300 FG OVC001"
    },
    {
      "icao": "EPWA",
      "alert": "OK",
      "vis_m": 6000,
      "fzfg": false,
      "metar_trigger": false,
      "taf_trigger": false,
      "metar": "METAR EPWA 201530Z 27004KT 6000 -RA BKN006 05/05 Q1019 BECMG 4000 BR BKN004",
      "taf": "TAF EPWA 201430Z 2015/2115 VRB03KT 6000 OVC006"
    },
    {
      "icao": "EPWR",
      "alert": "OK",
      "vis_m": 3000,
      "fzfg": false,
      "metar_trigger": false,
      "taf_trigger": false,
      "metar": "METAR EPWR 201530Z VRB02KT 3000 BR SCT003 BKN004 04/04 Q1020",
      "taf": "TAF EPWR 201430Z 2015/2115 VRB02KT 3000 BR OVC003"
    },
    {
      "icao": "ESGG",
      "alert": "OK",
      "vis_m": 9999,
      "fzfg": false,
      "metar_trigger": false,
      "taf_trigger": false,
      "metar": "METAR ESGG 201520Z 24010KT 9999 BKN010 07/05 Q1014",
      "taf": "TAF ESGG 201430Z 2015/2115 26012KT 9999 BKN012"
    },
    {
      "icao": "ESKN",
      "alert": "OK",
      "vis_m": 9999,
      "fzfg": false,
      "metar_trigger": false,
      "taf_trigger": false,
      "metar": "METAR ESKN 201520Z 25010KT 9999 FEW032 06/05 Q1009",
      "taf": "TAF ESKN 201430Z 2015/2115 26010KT 9999 BKN040"
    },
    {
      "icao": "ESMX",
      "alert": "OK",
      "vis_m": 9999,
      "fzfg": false,
      "metar_trigger": false,
      "taf_trigger": false,
      "metar": "METAR ESMX 201520Z AUTO 26008KT 220V300 9999 BKN016/// OVC021/// 07/05 Q1015",
      "taf": "TAF ESMX 201130Z 2012/2015 23011KT 9999 OVC035"
    },
    {
      "icao": "EVRA",
      "alert": "OK",
      "vis_m": 9999,
      "fzfg": false,
      "metar_trigger": false,
      "taf_trigger": false,
      "metar": "METAR EVRA 201520Z 21006KT 9999 FEW016 BKN020 05/04 Q1013 NOSIG",
      "taf": "TAF EVRA 201409Z 2015/2115 21007KT 9000 BKN015"
    },
    {
      "icao": "EYKA",
      "alert": "OK",
      "vis_m": 1500,
      "fzfg": false,
      "metar_trigger": false,
      "taf_trigger": false,
      "metar": "METAR EYKA 201520Z 25007KT 1500 -DZ BR OVC001 04/04 Q1017",
      "taf": ""
    },
    {
      "icao": "EYVI",
      "alert": "OK",
      "vis_m": 1000,
      "fzfg": false,
      "metar_trigger": false,
      "taf_trigger": false,
      "metar": "METAR EYVI 201520Z 19006KT 1000 R01/P2000N -RA BR OVC002 02/02 Q1017 TEMPO 1500 RA BR",
      "taf": "TAF EYVI 201100Z 2012/2112 21010KT 0600 DZ FG OVC002"
    },
    {
      "icao": "GCLP",
      "alert": "OK",
      "vis_m": 9999,
      "fzfg": false,
      "metar_trigger": false,
      "taf_trigger": false,
      "metar": "METAR GCLP 201530Z 02022KT 9999 FEW035 BKN045 19/11 Q1021 NOSIG",
      "taf": "TAF GCLP 201400Z 2015/2115 02019KT 9999 SCT035 TX21/2114Z TN15/2106Z"
    },
    {
      "icao": "GCTS",
      "alert": "OK",
      "vis_m": 9999,
      "fzfg": false,
      "metar_trigger": false,
      "taf_trigger": false,
      "metar": "METAR GCTS 201530Z 08019KT 050V110 9999 BKN035 20/10 Q1022 NOSIG",
      "taf": "TAF GCTS 201400Z 2015/2115 08019KT 9999 SCT035 TX22/2114Z TN15/2106Z"
    },
    {
      "icao": "HECA",
      "alert": "OK",
      "vis_m": 9999,
      "fzfg": false,
      "metar_trigger": false,
      "taf_trigger": false,
      "metar": "METAR HECA 201530Z 03009KT CAVOK 20/04 Q1015 NOSIG",
      "taf": "TAF HECA 201100Z 2012/2118 08010KT 9999 SCT020"
    },
    {
      "icao": "HEGN",
      "alert": "OK",
      "vis_m": 9999,
      "fzfg": false,
      "metar_trigger": false,
      "taf_trigger": false,
      "metar": "METAR HEGN 201500Z 11004KT CAVOK 21/13 Q1016 NOSIG",
      "taf": "TAF HEGN 201100Z 2012/2118 35010KT CAVOK"
    },
    {
      "icao": "HESH",
      "alert": "OK",
      "vis_m": 9999,
      "fzfg": false,
      "metar_trigger": false,
      "taf_trigger": false,
      "metar": "METAR HESH 201500Z 06004KT CAVOK 21/09 Q1016 NOSIG",
      "taf": "TAF HESH 201100Z 2012/2118 02010KT CAVOK"
    },
    {
      "icao": "HESX",
      "alert": "OK",
      "vis_m": 9999,
      "fzfg": false,
      "metar_trigger": false,
      "taf_trigger": false,
      "metar": "METAR HESX 201500Z 04006KT CAVOK 18/07 Q1015 NOSIG",
      "taf": "TAF HESX 201100Z 2012/2118 05008KT 9999 SCT020"
    },
    {
      "icao": "LATI",
      "alert": "OK",
      "vis_m": 9999,
      "fzfg": false,
      "metar_trigger": false,
      "taf_trigger": false,
      "metar": "METAR LATI 201520Z 25003KT CAVOK 14/07 Q1015 NOSIG",
      "taf": "TAF LATI 201100Z 2012/2112 VRB05KT CAVOK TX17/2012Z TN02/2105Z"
    },
    {
      "icao": "LBSF",
      "alert": "OK",
      "vis_m": 8000,
      "fzfg": false,
      "metar_trigger": false,
      "taf_trigger": false,
      "metar": "METAR LBSF 201530Z 09004KT 070V150 8000 NSC 05/01 Q1018 NOSIG",
      "taf": "TAF LBSF 201100Z 2012/2112 10010KT 7000 SCT030"
    },
    {
      "icao": "LBWN",
      "alert": "OK",
      "vis_m": 8000,
      "fzfg": false,
      "metar_trigger": false,
      "taf_trigger": false,
      "metar": "METAR LBWN 201530Z AUTO VRB04KT 8000 SCT008/// BKN019/// OVC030/// 08/08 Q1020 NOSIG",
      "taf": ""
    },
    {
      "icao": "LCLK",
      "alert": "OK",
      "vis_m": 9999,
      "fzfg": false,
      "metar_trigger": false,
      "taf_trigger": false,
      "metar": "METAR LCLK 201530Z 22004KT 9999 FEW025 17/11 Q1017 NOSIG",
      "taf": "TAF LCLK 201130Z 2012/2112 19010KT 9999 FEW030"
    },
    {
      "icao": "LDDU",
      "alert": "OK",
      "vis_m": 9999,
      "fzfg": false,
      "metar_trigger": false,
      "taf_trigger": false,
      "metar": "METAR LDDU 201530Z 00000KT CAVOK 12/10 Q1015 NOSIG",
      "taf": "TAF LDDU 201125Z 2012/2112 19006KT 9999 FEW040 TX16/2012Z TN09/2103Z"
    },
    {
      "icao": "LDSP",
      "alert": "OK",
      "vis_m": 9999,
      "fzfg": false,
      "metar_trigger": false,
      "taf_trigger": false,
      "metar": "METAR LDSP 201530Z 03003KT 350V070 CAVOK 12/08 Q1015 NOSIG",
      "taf": "TAF LDSP 201125Z 2012/2112 32005KT CAVOK TX17/2012Z TN07/2106Z"
    },
    {
      "icao": "LDZA",
      "alert": "OK",
      "vis_m": 1000,
      "fzfg": false,
      "metar_trigger": false,
      "taf_trigger": false,
      "metar": "METAR LDZA 201530Z 08003KT 030V120 1000 R04/P2000N R22/P2000N BR OVC002 03/02 Q1021 TEMPO 0600 FG",
      "taf": "TAF LDZA 201125Z 2012/2112 VRB02KT 0600 FG VV002 TX04/2111Z TN02/2012Z"
    },
    {
      "icao": "LEAL",
      "alert": "OK",
      "vis_m": 9999,
      "fzfg": false,
      "metar_trigger": false,
      "taf_trigger": false,
      "metar": "METAR LEAL 201530Z 19007KT 140V230 9999 FEW030 18/11 Q1013 NOSIG",
      "taf": "TAF LEAL 201100Z 2012/2112 22008KT 9999 FEW015 TX17/2012Z TN08/2106Z"
    },
    {
      "icao": "LEBL",
      "alert": "OK",
      "vis_m": 4000,
      "fzfg": false,
      "metar_trigger": false,
      "taf_trigger": false,
      "metar": "METAR LEBL 201530Z 33010KT 260V010 4000 SHRA BR FEW020 FEW025TCU BKN045 12/12 Q1012 NOSIG",
      "taf": "TAF LEBL 201100Z 2012/2112 33009KT 8000 FEW030 BKN040 TX12/2012Z TN09/2106Z"
    },
    {
      "icao": "LECH",
      "alert": "OK",
      "vis_m": 9000,
      "fzfg": false,
      "metar_trigger": false,
      "taf_trigger": false,
      "metar": "METAR LECH 201530Z AUTO 11004KT 080V140 9000 NSC 12/08 Q1013",
      "taf": ""
    },
    {
      "icao": "LEMD",
      "alert": "OK",
      "vis_m": 9000,
      "fzfg": false,
      "metar_trigger": false,
      "taf_trigger": false,
      "metar": "METAR LEMD 201530Z 19006KT 160V220 9000 BKN040 OVC060 10/08 Q1013 NOSIG",
      "taf": "TAF LEMD 201100Z 2012/2118 VRB04KT 9999 SCT045 TX11/2014Z TN05/2107Z"
    },
    {
      "icao": "LEMG",
      "alert": "OK",
      "vis_m": 9999,
      "fzfg": false,
      "metar_trigger": false,
      "taf_trigger": false,
      "metar": "METAR LEMG 201530Z 31011G21KT 9999 FEW060 14/05 Q1017 NOSIG",
      "taf": "TAF LEMG 201100Z 2012/2112 30009KT 9999 FEW030 TX16/2014Z TN08/2106Z"
    },
    {
      "icao": "LERS",
      "alert": "OK",
      "vis_m": 9999,
      "fzfg": false,
      "metar_trigger": false,
      "taf_trigger": false,
      "metar": "METAR LERS 201530Z 04002KT 9999 FEW040 15/09 Q1012",
      "taf": "TAF LERS 201400Z 2015/2115 VRB04KT 9999 FEW040 TX15/2112Z TN06/2106Z"
    },
    {
      "icao": "LEVC",
      "alert": "OK",
      "vis_m": 9999,
      "fzfg": false,
      "metar_trigger": false,
      "taf_trigger": false,
      "metar": "METAR LEVC 201530Z 13005KT CAVOK 16/09 Q1012 NOSIG",
      "taf": "TAF LEVC 201100Z 2012/2112 VRB04KT 9999 FEW015 TX17/2012Z TN06/2107Z"
    },
    {
      "icao": "LFLL",
      "alert": "OK",
      "vis_m": 9999,
      "fzfg": false,
      "metar_trigger": false,
      "taf_trigger": false,
      "metar": "METAR LFLL 201530Z 18007KT 170V230 CAVOK 14/10 Q1013 NOSIG",
      "taf": "TAF LFLL 201100Z 2012/2118 16008KT CAVOK"
    },
    {
      "icao": "LFMN",
      "alert": "OK",
      "vis_m": 9999,
      "fzfg": false,
      "metar_trigger": false,
      "taf_trigger": false,
      "metar": "METAR LFMN 201530Z COR 33004KT 9999 SCT040 BKN080 15/11 Q1015 NOSIG",
      "taf": "TAF LFMN 201400Z 2015/2121 VRB03KT 9999 BKN040"
    },
    {
      "icao": "LFOB",
      "alert": "OK",
      "vis_m": 4100,
      "fzfg": false,
      "metar_trigger": false,
      "taf_trigger": false,
      "metar": "METAR LFOB 201530Z AUTO 10007KT 4100 -RA BR OVC003 08/08 Q1010 TEMPO 2000 -DZRA",
      "taf": "TAF LFOB 201100Z 2012/2112 11008KT 9999 OVC015"
    },
    {
      "icao": "LFPO",
      "alert": "OK",
      "vis_m": 4000,
      "fzfg": false,
      "metar_trigger": false,
      "taf_trigger": false,
      "metar": "METAR LFPO 201530Z 14005KT 110V180 4000 BR OVC004 10/09 Q1011 TEMPO 6000 BKN005",
      "taf": ""
    },
    {
      "icao": "LFSB",
      "alert": "OK",
      "vis_m": 9999,
      "fzfg": false,
      "metar_trigger": false,
      "taf_trigger": false,
      "metar": "METAR LFSB 201530Z AUTO VRB01KT CAVOK 10/05 Q1014 NOSIG",
      "taf": "TAF LFSB 201100Z 2012/2112 15005KT CAVOK"
    },
    {
      "icao": "LGAV",
      "alert": "OK",
      "vis_m": 9999,
      "fzfg": false,
      "metar_trigger": false,
      "taf_trigger": false,
      "metar": "METAR LGAV 201520Z 03008KT 9999 FEW020 14/09 Q1016 NOSIG",
      "taf": "TAF LGAV 201100Z 2012/2112 02012KT 9999 SCT020 BKN070"
    },
    {
      "icao": "LGIR",
      "alert": "OK",
      "vis_m": 9999,
      "fzfg": false,
      "metar_trigger": false,
      "taf_trigger": false,
      "metar": "METAR LGIR 201520Z 10004KT 9999 FEW018 BKN080 15/12 Q1015 NOSIG",
      "taf": "TAF LGIR 201100Z 2012/2112 09010KT 9999 SCT020 BKN080"
    },
    {
      "icao": "LGKR",
      "alert": "OK",
      "vis_m": 9999,
      "fzfg": false,
      "metar_trigger": false,
      "taf_trigger": false,
      "metar": "METAR LGKR 201520Z 00000KT 9999 FEW018 14/11 Q1015 NOSIG",
      "taf": "TAF LGKR 201100Z 2012/2112 VRB05KT 9999 SCT020"
    },
    {
      "icao": "LGRP",
      "alert": "OK",
      "vis_m": 9999,
      "fzfg": false,
      "metar_trigger": false,
      "taf_trigger": false,
      "metar": "METAR LGRP 201520Z VRB03KT 9999 SCT020 16/12 Q1014 NOSIG",
      "taf": "TAF LGRP 201100Z 2012/2112 VRB05KT 9999 SCT020"
    },
    {
      "icao": "LGTS",
      "alert": "OK",
      "vis_m": 9000,
      "fzfg": false,
      "metar_trigger": false,
      "taf_trigger": false,
      "metar": "METAR LGTS 201520Z VRB01KT 9000 FEW010 10/07 Q1018 NOSIG",
      "taf": "TAF LGTS 201100Z 2012/2112 VRB03KT 9999 FEW020"
    },
    {
      "icao": "LGZA",
      "alert": "OK",
      "vis_m": 9999,
      "fzfg": false,
      "metar_trigger": false,
      "taf_trigger": false,
      "metar": "METAR LGZA 201450Z 00000KT 9999 FEW020 BKN080 15/12 Q1015",
      "taf": "TAF LGZA 201400Z 2015/2024 08010KT 9999 SCT020 BKN070"
    },
    {
      "icao": "LHBP",
      "alert": "OK",
      "vis_m": 9999,
      "fzfg": false,
      "metar_trigger": false,
      "taf_trigger": false,
      "metar": "METAR LHBP 201530Z 29003KT 240V350 9999 OVC012 06/04 Q1020 NOSIG",
      "taf": "TAF LHBP 201115Z 2012/2112 VRB03KT 9000 OVC016"
    },
    {
      "icao": "LHDC",
      "alert": "OK",
      "vis_m": 650,
      "fzfg": false,
      "metar_trigger": false,
      "taf_trigger": false,
      "metar": "METAR LHDC 201515Z AUTO 26003KT 220V280 0650 -DZ FG VV002 06/06 Q1020 NOSIG",
      "taf": "TAF LHDC 201415Z 2015/2024 VRB02KT 0300 FG VV001"
    },
    {
      "icao": "LIBD",
      "alert": "OK",
      "vis_m": 9999,
      "fzfg": false,
      "metar_trigger": false,
      "taf_trigger": false,
      "metar": "METAR LIBD 201520Z 30004KT 9999 SCT040 13/11 Q1016",
      "taf": "TAF LIBD 201100Z 2012/2112 VRB04KT 9999 SCT040"
    },
    {
      "icao": "LICC",
      "alert": "OK",
      "vis_m": 9999,
      "fzfg": false,
      "metar_trigger": false,
      "taf_trigger": false,
      "metar": "METAR LICC 201520Z 05009KT 9999 SCT050 16/15 Q1013",
      "taf": "TAF LICC 201100Z 2012/2112 08008KT 9999 SCT015 BKN040"
    },
    {
      "icao": "LICJ",
      "alert": "OK",
      "vis_m": 9999,
      "fzfg": false,
      "metar_trigger": false,
      "taf_trigger": false,
      "metar": "METAR LICJ 201520Z AUTO 07011KT 9999 NCD 16/12 Q1012",
      "taf": "TAF LICJ 201100Z 2012/2112 VRB05KT 9999 SCT040"
    },
    {
      "icao": "LIEO",
      "alert": "OK",
      "vis_m": 9999,
      "fzfg": false,
      "metar_trigger": false,
      "taf_trigger": false,
      "metar": "METAR LIEO 201520Z 05006KT 9999 SCT020 16/14 Q1014",
      "taf": "TAF LIEO 201100Z 2012/2112 06010KT 9999 SCT012"
    },
    {
      "icao": "LIMC",
      "alert": "OK",
      "vis_m": 6000,
      "fzfg": false,
      "metar_trigger": false,
      "taf_trigger": false,
      "metar": "METAR LIMC 201520Z 25004KT 230V290 6000 SCT080 10/08 Q1018 NOSIG",
      "taf": "TAF LIMC 201100Z 2012/2118 VRB03KT 4000 -RA BR SCT012"
    },
    {
      "icao": "LIME",
      "alert": "OK",
      "vis_m": 7000,
      "fzfg": false,
      "metar_trigger": false,
      "taf_trigger": false,
      "metar": "METAR LIME 201520Z 20004KT 180V240 7000 SCT010 BKN070 09/07 Q1018 NOSIG",
      "taf": "TAF LIME 201100Z 2012/2112 VRB03KT 7000 BKN070"
    },
    {
      "icao": "LIPH",
      "alert": "OK",
      "vis_m": 9999,
      "fzfg": false,
      "metar_trigger": false,
      "taf_trigger": false,
      "metar": "METAR LIPH 201520Z 25003KT CAVOK 10/07 Q1018",
      "taf": "TAF LIPH 201100Z 2012/2112 VRB04KT CAVOK"
    },
    {
      "icao": "LIPQ",
      "alert": "OK",
      "vis_m": 9999,
      "fzfg": false,
      "metar_trigger": false,
      "taf_trigger": false,
      "metar": "METAR LIPQ 201520Z AUTO 29003KT 9999 NCD 10/07 Q1017",
      "taf": "TAF LIPQ 201100Z 2012/2112 VRB04KT CAVOK"
    },
    {
      "icao": "LIPX",
      "alert": "OK",
      "vis_m": 9999,
      "fzfg": false,
      "metar_trigger": false,
      "taf_trigger": false,
      "metar": "METAR LIPX 201520Z 25003KT 160V290 9999 FEW080 10/07 Q1018",
      "taf": "TAF LIPX 201100Z 2012/2112 VRB03KT 6000 BKN060"
    },
    {
      "icao": "LIPY",
      "alert": "OK",
      "vis_m": 9999,
      "fzfg": false,
      "metar_trigger": false,
      "taf_trigger": false,
      "metar": "METAR LIPY 201520Z AUTO 33003KT 290V350 9999 OVC007/// 11/10 Q1018",
      "taf": "TAF LIPY 201100Z 2012/2112 VRB05KT 8000 OVC013"
    },
    {
      "icao": "LIPZ",
      "alert": "OK",
      "vis_m": 9999,
      "fzfg": false,
      "metar_trigger": false,
      "taf_trigger": false,
      "metar": "METAR LIPZ 201520Z 25004KT 9999 FEW025 10/07 Q1018 NOSIG",
      "taf": "TAF LIPZ 201100Z 2012/2118 VRB04KT CAVOK"
    },
    {
      "icao": "LIRA",
      "alert": "OK",
      "vis_m": 9999,
      "fzfg": false,
      "metar_trigger": false,
      "taf_trigger": false,
      "metar": "METAR LIRA 201520Z 02003KT CAVOK 14/06 Q1015",
      "taf": "TAF LIRA 201100Z 2012/2112 VRB05KT CAVOK"
    },
    {
      "icao": "LIRN",
      "alert": "OK",
      "vis_m": 9999,
      "fzfg": false,
      "metar_trigger": false,
      "taf_trigger": false,
      "metar": "METAR LIRN 201520Z 07004KT CAVOK 15/06 Q1014 NOSIG",
      "taf": "TAF LIRN 201100Z 2012/2112 05007KT CAVOK"
    },
    {
      "icao": "LLBG",
      "alert": "OK",
      "vis_m": 9999,
      "fzfg": false,
      "metar_trigger": false,
      "taf_trigger": false,
      "metar": "METAR LLBG 201520Z 34006KT CAVOK 19/11 Q1017 NOSIG",
      "taf": "TAF LLBG 201103Z 2012/2112 33006KT 9999 SCT040"
    },
    {
      "icao": "LMML",
      "alert": "OK",
      "vis_m": 9999,
      "fzfg": false,
      "metar_trigger": false,
      "taf_trigger": false,
      "metar": "METAR LMML 201515Z 08005KT 050V120 9999 FEW018 15/13 Q1012 NOSIG",
      "taf": "TAF LMML 201100Z 2012/2112 09010KT 9999 SCT015"
    },
    {
      "icao": "LOWW",
      "alert": "OK",
      "vis_m": 3800,
      "fzfg": false,
      "metar_trigger": false,
      "taf_trigger": false,
      "metar": "METAR LOWW 201520Z 15005KT 3800 BR BKN001 02/02 Q1020 TEMPO 1800 BR",
      "taf": "TAF LOWW 201415Z 2015/2121 14005KT 2000 BR SCT001 BKN002 TX03/2121Z TN02/2101Z"
    },
    {
      "icao": "LPFR",
      "alert": "OK",
      "vis_m": 9999,
      "fzfg": false,
      "metar_trigger": false,
      "taf_trigger": false,
      "metar": "METAR LPFR 201530Z 24013KT 9999 FEW018 15/11 Q1018",
      "taf": "TAF LPFR 201100Z 2012/2112 VRB02KT 9999 SCT030"
    },
    {
      "icao": "LPPR",
      "alert": "OK",
      "vis_m": 9999,
      "fzfg": false,
      "metar_trigger": false,
      "taf_trigger": false,
      "metar": "METAR LPPR 201530Z 28008KT 240V320 9999 FEW015 BKN033 12/08 Q1012",
      "taf": "TAF LPPR 201100Z 2012/2112 21010KT 9999 SCT030"
    },
    {
      "icao": "LPPT",
      "alert": "OK",
      "vis_m": 9999,
      "fzfg": false,
      "metar_trigger": false,
      "taf_trigger": false,
      "metar": "METAR LPPT 201530Z 29006KT 260V320 9999 VCSH FEW015 BKN032 14/11 Q1015",
      "taf": "TAF LPPT 201100Z 2012/2118 23010KT 9999 BKN030"
    },
    {
      "icao": "LQSA",
      "alert": "OK",
      "vis_m": 3500,
      "fzfg": false,
      "metar_trigger": false,
      "taf_trigger": false,
      "metar": "METAR LQSA 201530Z VRB02KT 3500 BR OVC004 03/03 Q1019 NOSIG",
      "taf": "TAF LQSA 201100Z 2012/2112 VRB02KT 2000 BR BKN004 BKN020 TX05/2013Z TNM01/2105Z"
    },
    {
      "icao": "LQTZ",
      "alert": "OK",
      "vis_m": 100,
      "fzfg": false,
      "metar_trigger": false,
      "taf_trigger": false,
      "metar": "METAR LQTZ 201530Z 12002KT 0100 R09/0300N FG VV002 04/04 Q1020",
      "taf": ""
    },
    {
      "icao": "LRCL",
      "alert": "OK",
      "vis_m": 9999,
      "fzfg": false,
      "metar_trigger": false,
      "taf_trigger": false,
      "metar": "METAR LRCL 201530Z VRB01KT CAVOK 06/04 Q1020",
      "taf": "TAF LRCL 201400Z 2015/2024 08007KT CAVOK"
    },
    {
      "icao": "LRCV",
      "alert": "OK",
      "vis_m": 4000,
      "fzfg": false,
      "metar_trigger": false,
      "taf_trigger": false,
      "metar": "METAR LRCV 201530Z 13006KT 4000 BR FEW004 04/03 Q1021",
      "taf": "TAF LRCV 201400Z 2015/2024 10007KT CAVOK"
    },
    {
      "icao": "LRIA",
      "alert": "OK",
      "vis_m": 1600,
      "fzfg": true,
      "metar_trigger": false,
      "taf_trigger": false,
      "metar": "METAR LRIA 201530Z 13003KT 100V160 1600 BR OVC001 01/01 Q1022",
      "taf": "TAF LRIA 201400Z 2015/2024 12006KT 0150 FZFG VV001"
    },
    {
      "icao": "LROP",
      "alert": "OK",
      "vis_m": 2000,
      "fzfg": false,
      "metar_trigger": false,
      "taf_trigger": false,
      "metar": "METAR LROP 201530Z 06004KT 2000 BR OVC002 04/04 Q1022 BECMG 1500 BR",
      "taf": "TAF LROP 201100Z 2012/2112 VRB04KT 0800 FG OVC002"
    },
    {
      "icao": "LRSB",
      "alert": "OK",
      "vis_m": 8000,
      "fzfg": false,
      "metar_trigger": false,
      "taf_trigger": false,
      "metar": "METAR LRSB 201530Z 34002KT 8000 NSC 02/01 Q1019 NOSIG",
      "taf": "TAF LRSB 201100Z 2012/2112 VRB04KT CAVOK"
    },
    {
      "icao": "LRTR",
      "alert": "OK",
      "vis_m": 5000,
      "fzfg": false,
      "metar_trigger": false,
      "taf_trigger": false,
      "metar": "METAR LRTR 201530Z 34005KT 5000 BR NSC 08/08 Q1019 BECMG 3000 BR",
      "taf": "TAF LRTR 201100Z 2012/2112 10005KT CAVOK"
    },
    {
      "icao": "LTAF",
      "alert": "OK",
      "vis_m": 6000,
      "fzfg": false,
      "metar_trigger": false,
      "taf_trigger": false,
      "metar": "METAR LTAF 201520Z 24002KT 6000 NSC 14/09 Q1018 NOSIG RMK RWY23 27003KT 4CI200",
      "taf": "TAF LTAF 201040Z 2012/2112 01008KT CAVOK"
    },
    {
      "icao": "LTAI",
      "alert": "OK",
      "vis_m": 9999,
      "fzfg": false,
      "metar_trigger": false,
      "taf_trigger": false,
      "metar": "METAR LTAI 201520Z 29004KT 9999 SCT025 BKN080 16/10 Q1017 NOSIG RMK RWY18C 30003KT RWY36R VRB01KT RWY18L 31004KT",
      "taf": "TAF LTAI 201040Z 2012/2112 12008KT 9999 SCT030 BKN100"
    },
    {
      "icao": "LTFM",
      "alert": "OK",
      "vis_m": 9999,
      "fzfg": false,
      "metar_trigger": false,
      "taf_trigger": false,
      "metar": "METAR LTFM 201520Z 04012KT 9999 BKN026 12/08 Q1018 NOSIG RMK RWY17L 04011KT RWY34L 03009KT RWY16R 03011KT RWY36 04012KT RWY18 05011KT",
      "taf": "TAF LTFM 201040Z 2012/2118 04012KT 9999 BKN026"
    },
    {
      "icao": "LUBL",
      "alert": "OK",
      "vis_m": null,
      "fzfg": false,
      "metar_trigger": false,
      "taf_trigger": false,
      "metar": "",
      "taf": ""
    },
    {
      "icao": "LUKK",
      "alert": "OK",
      "vis_m": 3800,
      "fzfg": false,
      "metar_trigger": false,
      "taf_trigger": false,
      "metar": "METAR LUKK 201530Z 09004KT 3800 1400SW BR OVC002 01/01 Q1023 NOSIG",
      "taf": "TAF LUKK 201122Z 2012/2112 VRB05KT 3000 BR OVC004"
    },
    {
      "icao": "LWSK",
      "alert": "OK",
      "vis_m": 100,
      "fzfg": false,
      "metar_trigger": false,
      "taf_trigger": false,
      "metar": "METAR LWSK 201450Z VRB01KT 0100 R34/0275N FG VV002 01/00 Q1019 NOSIG",
      "taf": "TAF LWSK 201425Z 2015/2115 VRB02KT 0300 FG VV002"
    },
    {
      "icao": "LYBE",
      "alert": "OK",
      "vis_m": 250,
      "fzfg": false,
      "metar_trigger": false,
      "taf_trigger": false,
      "metar": "METAR LYBE 201530Z 26004KT 0250 R12L/0325N R30R/0325N FG VV002 04/04 Q1020 NOSIG",
      "taf": "TAF LYBE 201100Z 2012/2112 26004KT 1500 BR NSC TX05/2013Z TN03/2106Z"
    },
    {
      "icao": "LZIB",
      "alert": "OK",
      "vis_m": 6000,
      "fzfg": false,
      "metar_trigger": false,
      "taf_trigger": false,
      "metar": "METAR LZIB 201530Z VRB03KT 6000 FEW003 OVC004 04/03 Q1020 NOSIG",
      "taf": "TAF LZIB 201115Z 2012/2112 22004KT 4000 BR BKN008 OVC014"
    },
    {
      "icao": "LZKZ",
      "alert": "OK",
      "vis_m": 7000,
      "fzfg": false,
      "metar_trigger": false,
      "taf_trigger": false,
      "metar": "METAR LZKZ 201530Z 30006KT 7000 BCFG FEW013 BKN030 06/05 Q1019 NOSIG",
      "taf": ""
    },
    {
      "icao": "LZTT",
      "alert": "OK",
      "vis_m": 1000,
      "fzfg": false,
      "metar_trigger": false,
      "taf_trigger": false,
      "metar": "METAR LZTT 201530Z 00000KT 1000 R27/P2000N BR OVC002 01/01 Q1019 TEMPO 0400 FG",
      "taf": ""
    },
    {
      "icao": "OEJN",
      "alert": "OK",
      "vis_m": 9999,
      "fzfg": false,
      "metar_trigger": false,
      "taf_trigger": false,
      "metar": "METAR OEJN 201500Z 34006KT CAVOK 28/M01 Q1011 NOSIG",
      "taf": "TAF OEJN 201100Z 2012/2118 09014KT 7000 NSC"
    },
    {
      "icao": "OEMA",
      "alert": "OK",
      "vis_m": 9999,
      "fzfg": false,
      "metar_trigger": false,
      "taf_trigger": false,
      "metar": "METAR OEMA 201500Z 08006KT CAVOK 19/M11 Q1019 NOSIG",
      "taf": "TAF OEMA 201100Z 2012/2118 10008KT CAVOK"
    },
    {
      "icao": "OERK",
      "alert": "OK",
      "vis_m": 9999,
      "fzfg": false,
      "metar_trigger": false,
      "taf_trigger": false,
      "metar": "METAR OERK 201500Z 31007KT CAVOK 14/M01 Q1019 NOSIG",
      "taf": "TAF OERK 201100Z 2012/2118 33014KT 7000 NSC"
    },
    {
      "icao": "OJAI",
      "alert": "OK",
      "vis_m": 5000,
      "fzfg": false,
      "metar_trigger": false,
      "taf_trigger": false,
      "metar": "METAR OJAI 201500Z 12008KT 5000 HZ NSC 13/05 Q1019 NOSIG",
      "taf": "TAF OJAI 201100Z 2012/2118 13010KT 5000 HZ FEW035"
    },
    {
      "icao": "OKBK",
      "alert": "OK",
      "vis_m": null,
      "fzfg": false,
      "metar_trigger": false,
      "taf_trigger": false,
      "metar": "",
      "taf": ""
    },
    {
      "icao": "OMAA",
      "alert": "OK",
      "vis_m": 9999,
      "fzfg": false,
      "metar_trigger": false,
      "taf_trigger": false,
      "metar": "METAR OMAA 201500Z 25005KT 230V290 CAVOK 18/05 Q1017 NOSIG",
      "taf": "TAF OMAA 201100Z 2012/2118 27012KT 9999 FEW040"
    },
    {
      "icao": "UAAA",
      "alert": "OK",
      "vis_m": 3200,
      "fzfg": false,
      "metar_trigger": false,
      "taf_trigger": false,
      "metar": "METAR UAAA 201530Z 02002MPS 3200 BR SCT100 BKN200 M03/M04 Q1013 NOSIG",
      "taf": "TAF UAAA 201105Z 2012/2112 32003MPS 1200 BR FU SCT005 BKN011 OVC050 TXM01/2100Z TNM05/2102Z"
    },
    {
      "icao": "UCFM",
      "alert": "OK",
      "vis_m": 800,
      "fzfg": true,
      "metar_trigger": false,
      "taf_trigger": false,
      "metar": "METAR UCFM 201530Z VRB01MPS 0800 0650E R07/P1500N FZFG NSC M02/M02 Q1016 TEMPO 0500 FZFG FEW002",
      "taf": "TAF UCFM 201046Z 2012/2112 25003MPS 1000 BR BKN003"
    },
    {
      "icao": "UDYZ",
      "alert": "OK",
      "vis_m": 3300,
      "fzfg": false,
      "metar_trigger": false,
      "taf_trigger": false,
      "metar": "METAR UDYZ 201530Z 36001KT 3300 BR NSC M00/M05 Q1024 NOSIG",
      "taf": "TAF UDYZ 201100Z 2012/2112 VRB04KT 6000 NSC"
    },
    {
      "icao": "UGTB",
      "alert": "OK",
      "vis_m": 9999,
      "fzfg": false,
      "metar_trigger": false,
      "taf_trigger": false,
      "metar": "METAR UGTB 201530Z 05005KT CAVOK 01/M03 Q1023 NOSIG",
      "taf": "TAF UGTB 201100Z 2012/2112 VRB02KT CAVOK TX09/2012Z TNM03/2102Z"
    },
    {
      "icao": "UKKK",
      "alert": "OK",
      "vis_m": null,
      "fzfg": false,
      "metar_trigger": false,
      "taf_trigger": false,
      "metar": "",
      "taf": ""
    },
    {
      "icao": "UTTT",
      "alert": "OK",
      "vis_m": null,
      "fzfg": false,
      "metar_trigger": false,
      "taf_trigger": false,
      "metar": "",
      "taf": ""
    }
  ]
}