{
  "ts_utc": "2026-02-19T22:23:13Z",
  "threshold_m": 150,
  "source": "stations_override.txt (ICAO list) + aviationweather.gov (METAR/TAF raw)",
  "station_count": 159,
  "stations": [
    {
      "icao": "BIKF",
      "alert": "OK",
      "vis_m": 9999,
      "fzfg": false,
      "metar_trigger": false,
      "taf_trigger": false,
      "metar": "METAR BIKF 192200Z 05012KT CAVOK M03/M07 Q1008",
      "taf": "TAF BIKF 191949Z 1921/2021 07010KT CAVOK TX02/2015Z TNM03/2006Z"
    },
    {
      "icao": "BKPR",
      "alert": "OK",
      "vis_m": null,
      "fzfg": false,
      "metar_trigger": false,
      "taf_trigger": false,
      "metar": "",
      "taf": "TAF BKPR 191730Z 1918/2018 18006KT 9999 BKN050"
    },
    {
      "icao": "EBCI",
      "alert": "OK",
      "vis_m": 9999,
      "fzfg": false,
      "metar_trigger": false,
      "taf_trigger": false,
      "metar": "METAR EBCI 192150Z 09003KT 060V170 9999 FEW016 SCT022 04/03 Q1010 NOSIG",
      "taf": "TAF EBCI 191718Z 1918/2024 VRB04KT 9999 SCT015 BKN020"
    },
    {
      "icao": "EDDB",
      "alert": "OK",
      "vis_m": 9999,
      "fzfg": false,
      "metar_trigger": false,
      "taf_trigger": false,
      "metar": "METAR EDDB 192150Z AUTO 06003KT CAVOK M06/M07 Q1019 NOSIG",
      "taf": "TAF EDDB 191700Z 1918/2018 06008KT CAVOK"
    },
    {
      "icao": "EDDH",
      "alert": "OK",
      "vis_m": 9999,
      "fzfg": false,
      "metar_trigger": false,
      "taf_trigger": false,
      "metar": "METAR EDDH 192150Z AUTO 10007KT CAVOK M04/M07 Q1019 NOSIG",
      "taf": "TAF EDDH 191700Z 1918/2024 09009KT CAVOK"
    },
    {
      "icao": "EDDK",
      "alert": "OK",
      "vis_m": 9999,
      "fzfg": false,
      "metar_trigger": false,
      "taf_trigger": false,
      "metar": "METAR EDDK 192150Z AUTO 11006KT 060V170 9999 FEW049 03/M02 Q1012 NOSIG",
      "taf": "TAF EDDK 191700Z 1918/2024 11007KT 9999 BKN030"
    },
    {
      "icao": "EDDN",
      "alert": "OK",
      "vis_m": 9999,
      "fzfg": false,
      "metar_trigger": false,
      "taf_trigger": false,
      "metar": "METAR EDDN 192150Z AUTO 02002KT CAVOK 00/M01 Q1010",
      "taf": ""
    },
    {
      "icao": "EDDS",
      "alert": "OK",
      "vis_m": 6000,
      "fzfg": false,
      "metar_trigger": false,
      "taf_trigger": false,
      "metar": "METAR EDDS 192150Z AUTO 04006KT 6000 -DZ BKN009 02/01 Q1007",
      "taf": ""
    },
    {
      "icao": "EDFH",
      "alert": "OK",
      "vis_m": 8000,
      "fzfg": false,
      "metar_trigger": false,
      "taf_trigger": false,
      "metar": "METAR EDFH 192150Z 12013KT 8000 FEW002 OVC006 M00/M01 Q1009",
      "taf": ""
    },
    {
      "icao": "EDJA",
      "alert": "OK",
      "vis_m": 3100,
      "fzfg": false,
      "metar_trigger": false,
      "taf_trigger": false,
      "metar": "METAR EDJA 192150Z 04007KT 3100 -SN SCT004 BKN014 OVC017 M00/M01 Q1006",
      "taf": "TAF EDJA 191700Z 1918/2003 04006KT 6000 SCT004 BKN025"
    },
    {
      "icao": "EDLW",
      "alert": "OK",
      "vis_m": 9999,
      "fzfg": false,
      "metar_trigger": false,
      "taf_trigger": false,
      "metar": "METAR EDLW 192150Z AUTO 04005KT 9999 // NCD M00/M03 Q1012",
      "taf": "TAF EDLW 191700Z 1918/2018 08011KT 9999 SCT030"
    },
    {
      "icao": "EDNY",
      "alert": "OK",
      "vis_m": 6000,
      "fzfg": false,
      "metar_trigger": false,
      "taf_trigger": false,
      "metar": "METAR EDNY 192150Z AUTO 04005KT 6000 // BKN005/// OVC025/// 04/04 Q1007",
      "taf": ""
    },
    {
      "icao": "EDSB",
      "alert": "OK",
      "vis_m": 9999,
      "fzfg": false,
      "metar_trigger": false,
      "taf_trigger": false,
      "metar": "METAR EDSB 192150Z 02014KT 9999 OVC009 03/02 Q1009",
      "taf": "TAF EDSB 191700Z 1918/2018 02008KT 9999 SCT020 BKN035"
    },
    {
      "icao": "EETN",
      "alert": "OK",
      "vis_m": 9999,
      "fzfg": false,
      "metar_trigger": false,
      "taf_trigger": false,
      "metar": "METAR EETN 192220Z 35004KT 320V030 9999 OVC011 M09/M11 Q1012",
      "taf": "TAF EETN 191730Z 1918/2018 01008KT 9999 OVC010"
    },
    {
      "icao": "EFTU",
      "alert": "OK",
      "vis_m": 9999,
      "fzfg": false,
      "metar_trigger": false,
      "taf_trigger": false,
      "metar": "METAR EFTU 192220Z AUTO VRB02KT CAVOK M15/M16 Q1014",
      "taf": "TAF EFTU 192022Z 1921/2021 33002KT CAVOK"
    },
    {
      "icao": "EGBB",
      "alert": "OK",
      "vis_m": 9999,
      "fzfg": false,
      "metar_trigger": false,
      "taf_trigger": false,
      "metar": "METAR EGBB 192150Z 27005KT 9999 OVC028 04/02 Q1012",
      "taf": ""
    },
    {
      "icao": "EGGP",
      "alert": "OK",
      "vis_m": 9000,
      "fzfg": false,
      "metar_trigger": false,
      "taf_trigger": false,
      "metar": "METAR EGGP 192150Z 22004KT 200V260 9000 -SHRA SCT015 OVC025 04/02 Q1012",
      "taf": "TAF EGGP 191702Z 1918/2018 VRB04KT 9999 SCT025"
    },
    {
      "icao": "EGGW",
      "alert": "OK",
      "vis_m": 7000,
      "fzfg": false,
      "metar_trigger": false,
      "taf_trigger": false,
      "metar": "METAR EGGW 192150Z AUTO 29009KT 7000 BKN007 OVC026 04/03 Q1012",
      "taf": ""
    },
    {
      "icao": "EGKK",
      "alert": "OK",
      "vis_m": 9999,
      "fzfg": false,
      "metar_trigger": false,
      "taf_trigger": false,
      "metar": "METAR EGKK 192150Z 29007KT 9999 BKN024 05/03 Q1013",
      "taf": "TAF EGKK 191655Z 1918/2024 33008KT 9999 SCT010 BKN018"
    },
    {
      "icao": "EGNM",
      "alert": "OK",
      "vis_m": 6000,
      "fzfg": false,
      "metar_trigger": false,
      "taf_trigger": false,
      "metar": "METAR EGNM 192150Z 27006KT 6000 SCT010 BKN025 03/02 Q1010",
      "taf": "TAF EGNM 191703Z 1918/2018 VRB02KT 3000 -DZ BKN003"
    },
    {
      "icao": "EGPD",
      "alert": "OK",
      "vis_m": 9999,
      "fzfg": false,
      "metar_trigger": false,
      "taf_trigger": false,
      "metar": "METAR EGPD 192150Z COR AUTO 19012KT 9999 -RA FEW034 04/03 Q1007 NOSIG",
      "taf": ""
    },
    {
      "icao": "EGPF",
      "alert": "OK",
      "vis_m": 7000,
      "fzfg": false,
      "metar_trigger": false,
      "taf_trigger": false,
      "metar": "METAR EGPF 192150Z 01003KT 7000 -RADZ BKN009 BKN012 BKN017 04/03 Q1008",
      "taf": ""
    },
    {
      "icao": "EHBK",
      "alert": "OK",
      "vis_m": 9999,
      "fzfg": false,
      "metar_trigger": false,
      "taf_trigger": false,
      "metar": "METAR EHBK 192155Z COR AUTO 10007KT 050V120 9999 BKN046 03/01 Q1010",
      "taf": "TAF EHBK 191723Z 1918/2024 09012KT 9999 OVC030"
    },
    {
      "icao": "EHEH",
      "alert": "OK",
      "vis_m": 9999,
      "fzfg": false,
      "metar_trigger": false,
      "taf_trigger": false,
      "metar": "METAR EHEH 192155Z AUTO 11004KT 080V150 9999 NCD 03/01 Q1011 BLU",
      "taf": "TAF EHEH 191713Z 1918/2024 09008KT CAVOK"
    },
    {
      "icao": "EKBI",
      "alert": "OK",
      "vis_m": 9999,
      "fzfg": false,
      "metar_trigger": false,
      "taf_trigger": false,
      "metar": "METAR EKBI 192150Z AUTO 10004KT 9999 NCD M06/M07 Q1019",
      "taf": "TAF EKBI 192027Z 1921/2021 08008KT CAVOK"
    },
    {
      "icao": "EKCH",
      "alert": "OK",
      "vis_m": 9999,
      "fzfg": false,
      "metar_trigger": false,
      "taf_trigger": false,
      "metar": "METAR EKCH 192150Z AUTO 08002KT 9999 NCD M05/M07 Q1021 NOSIG",
      "taf": "TAF EKCH 192027Z 1921/2021 02008KT CAVOK"
    },
    {
      "icao": "ENAL",
      "alert": "OK",
      "vis_m": 9999,
      "fzfg": false,
      "metar_trigger": false,
      "taf_trigger": false,
      "metar": "METAR ENAL 192150Z 20014KT CAVOK 04/M07 Q1007",
      "taf": "TAF ENAL 192000Z 1921/2006 20012KT CAVOK"
    },
    {
      "icao": "ENBR",
      "alert": "OK",
      "vis_m": 9999,
      "fzfg": false,
      "metar_trigger": false,
      "taf_trigger": false,
      "metar": "METAR ENBR 192150Z 14010KT CAVOK 00/M05 Q1013 RMK WIND 1200FT 15025KT",
      "taf": "TAF ENBR 191700Z 1918/2018 16010KT CAVOK"
    },
    {
      "icao": "ENGM",
      "alert": "OK",
      "vis_m": 9999,
      "fzfg": false,
      "metar_trigger": false,
      "taf_trigger": false,
      "metar": "METAR ENGM 192150Z VRB02KT CAVOK M13/M15 Q1016 NOSIG",
      "taf": "TAF ENGM 191700Z 1918/2018 17005KT 9999 FEW010"
    },
    {
      "icao": "ENHD",
      "alert": "OK",
      "vis_m": 9999,
      "fzfg": false,
      "metar_trigger": false,
      "taf_trigger": false,
      "metar": "METAR ENHD 192150Z AUTO 15016KT 9999 NCD 01/M06 Q1015",
      "taf": "TAF ENHD 191400Z 1915/1923 17015KT CAVOK"
    },
    {
      "icao": "ENTC",
      "alert": "OK",
      "vis_m": 9999,
      "fzfg": false,
      "metar_trigger": false,
      "taf_trigger": false,
      "metar": "METAR ENTC 192150Z 17003KT 080V220 CAVOK M08/M12 Q1008 NOSIG RMK WIND 2600FT 16019KT",
      "taf": "TAF ENTC 191700Z 1918/2018 22009KT 9999 SCT050"
    },
    {
      "icao": "ENTO",
      "alert": "OK",
      "vis_m": 9999,
      "fzfg": false,
      "metar_trigger": false,
      "taf_trigger": false,
      "metar": "METAR ENTO 192150Z AUTO 21006KT 9999 NCD M05/M05 Q1017",
      "taf": "TAF ENTO 191700Z 1918/2018 22005KT 9999 FEW010"
    },
    {
      "icao": "ENVA",
      "alert": "OK",
      "vis_m": 9999,
      "fzfg": false,
      "metar_trigger": false,
      "taf_trigger": false,
      "metar": "METAR ENVA 192150Z 08003KT CAVOK M00/M08 Q1008 RMK WIND 670FT 19019KT",
      "taf": "TAF ENVA 191700Z 1918/2018 17009KT 9999 FEW025 BKN040"
    },
    {
      "icao": "ENZV",
      "alert": "OK",
      "vis_m": 9999,
      "fzfg": false,
      "metar_trigger": false,
      "taf_trigger": false,
      "metar": "METAR ENZV 192150Z 16011KT CAVOK M00/M10 Q1016",
      "taf": "TAF ENZV 191700Z 1918/2018 15008KT CAVOK"
    },
    {
      "icao": "EPGD",
      "alert": "OK",
      "vis_m": 9999,
      "fzfg": false,
      "metar_trigger": false,
      "taf_trigger": false,
      "metar": "METAR EPGD 192200Z 29006KT 9999 FEW036 M08/M10 Q1018",
      "taf": "TAF EPGD 191730Z 1918/2018 30010KT 9999 BKN035"
    },
    {
      "icao": "EPKK",
      "alert": "OK",
      "vis_m": 9999,
      "fzfg": false,
      "metar_trigger": false,
      "taf_trigger": false,
      "metar": "METAR EPKK 192200Z 06010KT 9999 OVC024 M03/M08 Q1015",
      "taf": "TAF EPKK 192030Z 1921/2021 06008KT 8000 OVC022"
    },
    {
      "icao": "EPKT",
      "alert": "OK",
      "vis_m": 9999,
      "fzfg": false,
      "metar_trigger": false,
      "taf_trigger": false,
      "metar": "METAR EPKT 192200Z 05008KT CAVOK M06/M09 Q1015",
      "taf": "TAF EPKT 191730Z 1918/2018 07007KT CAVOK"
    },
    {
      "icao": "EPLB",
      "alert": "OK",
      "vis_m": 2600,
      "fzfg": false,
      "metar_trigger": false,
      "taf_trigger": false,
      "metar": "METAR EPLB 192200Z 24001KT 2600 0900W PRFG BR NSC M13/M14 Q1016",
      "taf": ""
    },
    {
      "icao": "EPMO",
      "alert": "OK",
      "vis_m": 9999,
      "fzfg": false,
      "metar_trigger": false,
      "taf_trigger": false,
      "metar": "METAR EPMO 192200Z 30004KT CAVOK M06/M07 Q1017",
      "taf": ""
    },
    {
      "icao": "EPPO",
      "alert": "OK",
      "vis_m": 9999,
      "fzfg": false,
      "metar_trigger": false,
      "taf_trigger": false,
      "metar": "METAR EPPO 192200Z 03005KT CAVOK M04/M08 Q1019",
      "taf": "TAF EPPO 191730Z 1918/2018 06010KT 9999 SCT030"
    },
    {
      "icao": "EPRA",
      "alert": "OK",
      "vis_m": 6000,
      "fzfg": false,
      "metar_trigger": false,
      "taf_trigger": false,
      "metar": "METAR EPRA 192200Z 25003KT 6000 NSC M10/M12 Q1017",
      "taf": "TAF EPRA 192030Z 1921/2006 VRB03KT 8000 NSC"
    },
    {
      "icao": "EPRZ",
      "alert": "OK",
      "vis_m": 9999,
      "fzfg": false,
      "metar_trigger": false,
      "taf_trigger": false,
      "metar": "METAR EPRZ 192200Z 04007KT 9999 BKN030 M03/M07 Q1015",
      "taf": "TAF EPRZ 191730Z 1918/2018 06005KT 9999 OVC024"
    },
    {
      "icao": "EPSC",
      "alert": "OK",
      "vis_m": 9999,
      "fzfg": false,
      "metar_trigger": false,
      "taf_trigger": false,
      "metar": "METAR EPSC 192200Z VRB01KT CAVOK M09/M11 Q1020",
      "taf": "TAF EPSC 191730Z 1918/2018 VRB03KT CAVOK"
    },
    {
      "icao": "EPSY",
      "alert": "OK",
      "vis_m": 9999,
      "fzfg": false,
      "metar_trigger": false,
      "taf_trigger": false,
      "metar": "METAR EPSY 192200Z 26003KT 9999 FEW035 M05/M06 Q1017",
      "taf": "TAF EPSY 192030Z 1921/2006 28005KT 9999 BKN025"
    },
    {
      "icao": "EPWA",
      "alert": "OK",
      "vis_m": 8000,
      "fzfg": false,
      "metar_trigger": false,
      "taf_trigger": false,
      "metar": "METAR EPWA 192200Z 27002KT 8000 NSC M08/M10 Q1017 NOSIG",
      "taf": "TAF EPWA 192030Z 1921/2021 29004KT CAVOK"
    },
    {
      "icao": "EPWR",
      "alert": "OK",
      "vis_m": 8000,
      "fzfg": false,
      "metar_trigger": false,
      "taf_trigger": false,
      "metar": "METAR EPWR 192200Z 02002KT 8000 NSC M06/M09 Q1018",
      "taf": "TAF EPWR 192030Z 1921/2021 04005KT CAVOK"
    },
    {
      "icao": "ESGG",
      "alert": "OK",
      "vis_m": 9999,
      "fzfg": false,
      "metar_trigger": false,
      "taf_trigger": false,
      "metar": "METAR ESGG 192150Z 20004KT CAVOK M08/M09 Q1019",
      "taf": ""
    },
    {
      "icao": "ESKN",
      "alert": "OK",
      "vis_m": 9999,
      "fzfg": false,
      "metar_trigger": false,
      "taf_trigger": false,
      "metar": "METAR ESKN 192150Z 26004KT CAVOK M13/M14 Q1018",
      "taf": "TAF ESKN 192030Z 1921/2021 28004KT CAVOK"
    },
    {
      "icao": "ESMS",
      "alert": "OK",
      "vis_m": 9999,
      "fzfg": false,
      "metar_trigger": false,
      "taf_trigger": false,
      "metar": "METAR ESMS 192150Z 00000KT CAVOK M11/M12 Q1020",
      "taf": "TAF ESMS 192027Z 1921/2021 04006KT CAVOK"
    },
    {
      "icao": "ESSA",
      "alert": "OK",
      "vis_m": 9999,
      "fzfg": false,
      "metar_trigger": false,
      "taf_trigger": false,
      "metar": "METAR ESSA 192150Z COR 26003KT 9999 BCFG NSC M13/M15 Q1017 NOSIG",
      "taf": "TAF ESSA 192030Z 1921/2021 VRB03KT CAVOK"
    },
    {
      "icao": "EYKA",
      "alert": "OK",
      "vis_m": 5000,
      "fzfg": false,
      "metar_trigger": false,
      "taf_trigger": false,
      "metar": "METAR EYKA 192220Z VRB01KT 5000 -SN BR FEW016 BKN022 OVC028 M08/M10 Q1014",
      "taf": "TAF EYKA 191705Z 1918/2018 VRB04KT 9000 BKN020"
    },
    {
      "icao": "EYPA",
      "alert": "OK",
      "vis_m": 9999,
      "fzfg": false,
      "metar_trigger": false,
      "taf_trigger": false,
      "metar": "METAR EYPA 192220Z 36005KT 320V050 9999 FEW013 SCT020 BKN040 M04/M08 Q1016",
      "taf": "TAF EYPA 191705Z 1918/2018 VRB04KT 9000 BKN035"
    },
    {
      "icao": "EYVI",
      "alert": "OK",
      "vis_m": 7000,
      "fzfg": false,
      "metar_trigger": false,
      "taf_trigger": false,
      "metar": "METAR EYVI 192220Z 34005KT 7000 -SN SCT026 OVC047 M09/M11 Q1013 TEMPO 3000 SN",
      "taf": "TAF EYVI 191705Z 1918/2018 VRB04KT 9000 BKN020"
    },
    {
      "icao": "GCFV",
      "alert": "OK",
      "vis_m": 9999,
      "fzfg": false,
      "metar_trigger": false,
      "taf_trigger": false,
      "metar": "METAR GCFV 192200Z 01018KT 9999 BKN020 17/12 Q1023",
      "taf": "TAF GCFV 192000Z 1921/2021 04018KT 9999 SCT015 TX21/2014Z TN16/2006Z"
    },
    {
      "icao": "GCLP",
      "alert": "OK",
      "vis_m": 9999,
      "fzfg": false,
      "metar_trigger": false,
      "taf_trigger": false,
      "metar": "METAR GCLP 192200Z 02020KT 9999 BKN020 18/13 Q1023 NOSIG",
      "taf": "TAF GCLP 192000Z 1921/2021 02020KT 9999 SCT020 TX20/2014Z TN16/2006Z"
    },
    {
      "icao": "GCTS",
      "alert": "OK",
      "vis_m": 9999,
      "fzfg": false,
      "metar_trigger": false,
      "taf_trigger": false,
      "metar": "METAR GCTS 192200Z 05014KT 9999 FEW020 17/11 Q1023 NOSIG",
      "taf": "TAF GCTS 192000Z 1921/2021 08019KT 9999 FEW020 TX23/2014Z TN16/2006Z"
    },
    {
      "icao": "GMAD",
      "alert": "OK",
      "vis_m": 8000,
      "fzfg": false,
      "metar_trigger": false,
      "taf_trigger": false,
      "metar": "METAR GMAD 192200Z 04004KT 8000 NSC 09/08 Q1020 NOSIG",
      "taf": "TAF GMAD 191700Z 1918/2024 20008KT 8000 NSC"
    },
    {
      "icao": "GMMN",
      "alert": "OK",
      "vis_m": 9999,
      "fzfg": false,
      "metar_trigger": false,
      "taf_trigger": false,
      "metar": "METAR GMMN 192200Z 04011KT 9999 FEW020 11/09 Q1026 NOSIG",
      "taf": "TAF GMMN 191700Z 1918/2024 02014KT 9999 FEW020"
    },
    {
      "icao": "GMMX",
      "alert": "OK",
      "vis_m": 9999,
      "fzfg": false,
      "metar_trigger": false,
      "taf_trigger": false,
      "metar": "METAR GMMX 192200Z 07003KT CAVOK 13/10 Q1023 NOSIG",
      "taf": "TAF GMMX 191700Z 1918/2024 06006KT CAVOK"
    },
    {
      "icao": "HEGN",
      "alert": "OK",
      "vis_m": 9999,
      "fzfg": false,
      "metar_trigger": false,
      "taf_trigger": false,
      "metar": "METAR HEGN 192200Z 29010KT CAVOK 16/04 Q1018 NOSIG",
      "taf": "TAF HEGN 191700Z 1918/2024 29015KT CAVOK"
    },
    {
      "icao": "HEMA",
      "alert": "OK",
      "vis_m": 9999,
      "fzfg": false,
      "metar_trigger": false,
      "taf_trigger": false,
      "metar": "METAR HEMA 192200Z 28009KT CAVOK 18/09 Q1017 NOSIG",
      "taf": "TAF HEMA 191700Z 1918/2024 30015KT CAVOK"
    },
    {
      "icao": "HESH",
      "alert": "OK",
      "vis_m": 9999,
      "fzfg": false,
      "metar_trigger": false,
      "taf_trigger": false,
      "metar": "METAR HESH 192200Z 34012KT CAVOK 20/10 Q1018 NOSIG",
      "taf": "TAF HESH 191700Z 1918/2024 35012KT CAVOK"
    },
    {
      "icao": "HESX",
      "alert": "OK",
      "vis_m": 9999,
      "fzfg": false,
      "metar_trigger": false,
      "taf_trigger": false,
      "metar": "METAR HESX 192200Z 05009KT CAVOK 11/08 Q1022 NOSIG",
      "taf": "TAF HESX 191700Z 1918/2024 02007KT CAVOK"
    },
    {
      "icao": "LATI",
      "alert": "OK",
      "vis_m": 9999,
      "fzfg": false,
      "metar_trigger": false,
      "taf_trigger": false,
      "metar": "METAR LATI 192220Z 13013KT 9999 FEW050 BKN066 15/04 Q1011 NOSIG",
      "taf": "TAF LATI 191700Z 1918/2018 16010KT 9999 SCT030 BKN070 TX14/2012Z TN09/2004Z"
    },
    {
      "icao": "LBPD",
      "alert": "OK",
      "vis_m": 9999,
      "fzfg": false,
      "metar_trigger": false,
      "taf_trigger": false,
      "metar": "METAR LBPD 192200Z AUTO 11006KT 9999 BKN240/// 03/01 Q1016",
      "taf": "TAF LBPD 191700Z 1918/2018 VRB03KT 9999 SCT080"
    },
    {
      "icao": "LBSF",
      "alert": "OK",
      "vis_m": 9999,
      "fzfg": false,
      "metar_trigger": false,
      "taf_trigger": false,
      "metar": "METAR LBSF 192200Z AUTO 09010KT 9999 SCT065/// 04/M03 Q1014 NOSIG",
      "taf": "TAF LBSF 191700Z 1918/2018 11010KT 9999 SCT070"
    },
    {
      "icao": "LBWN",
      "alert": "OK",
      "vis_m": 9999,
      "fzfg": false,
      "metar_trigger": false,
      "taf_trigger": false,
      "metar": "METAR LBWN 192200Z AUTO 13006KT 9999 NCD 04/00 Q1016 NOSIG",
      "taf": "TAF LBWN 191700Z 1918/2018 09008KT 9999 SCT045"
    },
    {
      "icao": "LCLK",
      "alert": "OK",
      "vis_m": 9999,
      "fzfg": false,
      "metar_trigger": false,
      "taf_trigger": false,
      "metar": "METAR LCLK 192200Z 32004KT 9999 SCT035 BKN045 14/10 Q1023 NOSIG",
      "taf": "TAF LCLK 191730Z 1918/2018 06010KT 9999 FEW025"
    },
    {
      "icao": "LCPH",
      "alert": "OK",
      "vis_m": 9999,
      "fzfg": false,
      "metar_trigger": false,
      "taf_trigger": false,
      "metar": "METAR LCPH 192200Z 03007KT 010V080 9999 FEW050 11/06 Q1023 NOSIG",
      "taf": "TAF LCPH 191730Z 1918/2018 04008KT 9999 FEW025"
    },
    {
      "icao": "LEAL",
      "alert": "OK",
      "vis_m": 9999,
      "fzfg": false,
      "metar_trigger": false,
      "taf_trigger": false,
      "metar": "METAR LEAL 192200Z 21005KT 170V250 CAVOK 13/M01 Q1024 NOSIG",
      "taf": "TAF LEAL 191700Z 1918/2018 30015KT 9999 FEW030 TX18/2013Z TN09/2006Z"
    },
    {
      "icao": "LEBB",
      "alert": "OK",
      "vis_m": 6000,
      "fzfg": false,
      "metar_trigger": false,
      "taf_trigger": false,
      "metar": "SPECI LEBB 192220Z 30004KT 250V340 6000 RA SCT021 BKN035 09/08 Q1028 TEMPO NSW",
      "taf": "TAF LEBB 191700Z 1918/2018 30009KT 9999 FEW020 BKN025 TX14/2013Z TN07/2005Z"
    },
    {
      "icao": "LEBL",
      "alert": "OK",
      "vis_m": 9999,
      "fzfg": false,
      "metar_trigger": false,
      "taf_trigger": false,
      "metar": "METAR LEBL 192200Z 27009KT 9999 FEW040 11/01 Q1016 NOSIG",
      "taf": "TAF LEBL 191700Z 1918/2018 29012KT CAVOK TX18/2013Z TN09/2006Z"
    },
    {
      "icao": "LECH",
      "alert": "OK",
      "vis_m": 9999,
      "fzfg": false,
      "metar_trigger": false,
      "taf_trigger": false,
      "metar": "METAR LECH 192200Z AUTO 30009KT 260V350 CAVOK 11/M03 Q1022",
      "taf": ""
    },
    {
      "icao": "LEMD",
      "alert": "OK",
      "vis_m": 9999,
      "fzfg": false,
      "metar_trigger": false,
      "taf_trigger": false,
      "metar": "METAR LEMD 192200Z 01004KT 340V050 CAVOK 05/M01 Q1026 NOSIG",
      "taf": "TAF LEMD 191700Z 1918/2024 28010KT CAVOK TX14/2015Z TNM00/2006Z"
    },
    {
      "icao": "LEMG",
      "alert": "OK",
      "vis_m": 9999,
      "fzfg": false,
      "metar_trigger": false,
      "taf_trigger": false,
      "metar": "METAR LEMG 192200Z 29011KT CAVOK 12/04 Q1026 NOSIG",
      "taf": "TAF LEMG 191700Z 1918/2018 29012KT CAVOK TX18/2014Z TN11/2007Z"
    },
    {
      "icao": "LEVC",
      "alert": "OK",
      "vis_m": 9999,
      "fzfg": false,
      "metar_trigger": false,
      "taf_trigger": false,
      "metar": "METAR LEVC 192200Z 29016KT CAVOK 12/M01 Q1023 NOSIG",
      "taf": "TAF LEVC 191700Z 1918/2018 28013KT 9999 FEW035 TX21/2014Z TN08/2006Z"
    },
    {
      "icao": "LEXJ",
      "alert": "OK",
      "vis_m": 6000,
      "fzfg": false,
      "metar_trigger": false,
      "taf_trigger": false,
      "metar": "METAR LEXJ 192200Z 26009KT 240V300 6000 -RA SCT030 BKN050 OVC060 10/06 Q1028",
      "taf": "TAF LEXJ 192000Z 1921/2021 28012KT 9999 SCT020 BKN030 TX15/2013Z TN08/2004Z"
    },
    {
      "icao": "LEZG",
      "alert": "OK",
      "vis_m": 9999,
      "fzfg": false,
      "metar_trigger": false,
      "taf_trigger": false,
      "metar": "METAR LEZG 192200Z 27008KT 9999 FEW075 08/03 Q1025 NOSIG",
      "taf": "TAF LEZG 191700Z 1918/2018 30015KT 9999 FEW040 TX13/2014Z TN07/2006Z"
    },
    {
      "icao": "LEZL",
      "alert": "OK",
      "vis_m": 9999,
      "fzfg": false,
      "metar_trigger": false,
      "taf_trigger": false,
      "metar": "METAR LEZL 192200Z 03005KT 320V070 CAVOK 10/06 Q1028 NOSIG",
      "taf": "TAF LEZL 192000Z 1921/2021 04004KT CAVOK TX19/2015Z TN06/2007Z"
    },
    {
      "icao": "LFBD",
      "alert": "OK",
      "vis_m": 9999,
      "fzfg": false,
      "metar_trigger": false,
      "taf_trigger": false,
      "metar": "METAR LFBD 192200Z AUTO 30013KT 9999 FEW016/// SCT022/// BKN048/// ///TCU 10/08 Q1022 TEMPO 3000 SHRA BECMG 29015G25KT",
      "taf": "TAF LFBD 191700Z 1918/2024 29015G25KT 9999 BKN030 TX13/2013Z TN07/2006Z"
    },
    {
      "icao": "LFLL",
      "alert": "OK",
      "vis_m": 9999,
      "fzfg": false,
      "metar_trigger": false,
      "taf_trigger": false,
      "metar": "METAR LFLL 192200Z 29006KT 9999 -RA FEW018TCU BKN020 08/06 Q1011 TEMPO 4000",
      "taf": "TAF LFLL 191700Z 1918/2024 30012KT 9999 OVC030"
    },
    {
      "icao": "LFLS",
      "alert": "OK",
      "vis_m": 9999,
      "fzfg": false,
      "metar_trigger": false,
      "taf_trigger": false,
      "metar": "METAR LFLS 192200Z AUTO 25008KT 9999 -RA FEW009/// BKN015/// BKN023/// ///TCU 06/06 Q1010",
      "taf": "TAF LFLS 191400Z 1915/2015 20010KT 9999 BKN035"
    },
    {
      "icao": "LFMN",
      "alert": "OK",
      "vis_m": 9999,
      "fzfg": false,
      "metar_trigger": false,
      "taf_trigger": false,
      "metar": "METAR LFMN 192200Z 24015KT CAVOK 12/06 Q1003 BECMG 33015KT",
      "taf": "TAF LFMN 192000Z 1921/2103 25020KT CAVOK"
    },
    {
      "icao": "LFOB",
      "alert": "OK",
      "vis_m": 9999,
      "fzfg": false,
      "metar_trigger": false,
      "taf_trigger": false,
      "metar": "METAR LFOB 192200Z AUTO 31009KT 9999 BKN013 BKN024 OVC031 07/06 Q1012 TEMPO 4000 -RA OVC008",
      "taf": ""
    },
    {
      "icao": "LFPO",
      "alert": "OK",
      "vis_m": 9999,
      "fzfg": false,
      "metar_trigger": false,
      "taf_trigger": false,
      "metar": "METAR LFPO 192200Z 31013KT 9999 FEW016 BKN036 08/05 Q1012 NOSIG",
      "taf": "TAF LFPO 191700Z 1918/2024 30010KT 9999 BKN015"
    },
    {
      "icao": "LFSB",
      "alert": "OK",
      "vis_m": 9999,
      "fzfg": false,
      "metar_trigger": false,
      "taf_trigger": false,
      "metar": "METAR LFSB 192200Z AUTO 00000KT 9999 -RA FEW016/// SCT027/// OVC034/// ///TCU 06/05 Q1008 TEMPO 3000 BR OVC009",
      "taf": ""
    },
    {
      "icao": "LGAV",
      "alert": "OK",
      "vis_m": 9999,
      "fzfg": false,
      "metar_trigger": false,
      "taf_trigger": false,
      "metar": "METAR LGAV 192150Z VRB01KT 9999 FEW030 08/04 Q1019 NOSIG",
      "taf": "TAF LGAV 191700Z 1918/2018 20010KT 9999 FEW025"
    },
    {
      "icao": "LGTS",
      "alert": "OK",
      "vis_m": null,
      "fzfg": false,
      "metar_trigger": false,
      "taf_trigger": false,
      "metar": "",
      "taf": "TAF LGTS 191700Z 1918/2018 14013KT 9999 FEW030"
    },
    {
      "icao": "LHBP",
      "alert": "OK",
      "vis_m": 9999,
      "fzfg": false,
      "metar_trigger": false,
      "taf_trigger": false,
      "metar": "METAR LHBP 192200Z 06009KT 360V090 9999 SCT006 BKN054 02/01 Q1008 NOSIG",
      "taf": "TAF LHBP 191715Z 1918/2018 06009KT 9999 FEW010 BKN060"
    },
    {
      "icao": "LHDC",
      "alert": "OK",
      "vis_m": 9999,
      "fzfg": false,
      "metar_trigger": false,
      "taf_trigger": false,
      "metar": "METAR LHDC 192145Z AUTO 05011KT CAVOK 03/01 Q1010",
      "taf": "TAF LHDC 191415Z 1915/1924 10009KT 9999 RA OVC025"
    },
    {
      "icao": "LIBD",
      "alert": "OK",
      "vis_m": 9999,
      "fzfg": false,
      "metar_trigger": false,
      "taf_trigger": false,
      "metar": "METAR LIBD 192150Z 17006KT CAVOK 15/09 Q1004",
      "taf": "TAF LIBD 191700Z 1918/2018 15015KT 9999 SCT040"
    },
    {
      "icao": "LIBG",
      "alert": "OK",
      "vis_m": null,
      "fzfg": false,
      "metar_trigger": false,
      "taf_trigger": false,
      "metar": "",
      "taf": "TAF LIBG 191700Z 1918/2003 17015G30KT 9999 SCT020"
    },
    {
      "icao": "LIBP",
      "alert": "OK",
      "vis_m": 9999,
      "fzfg": false,
      "metar_trigger": false,
      "taf_trigger": false,
      "metar": "METAR LIBP 192150Z AUTO 20011KT 9999 OVC053/// 10/07 Q1002",
      "taf": "TAF LIBP 191700Z 1918/2018 VRB05KT 9999 SCT030 SCT060"
    },
    {
      "icao": "LIBR",
      "alert": "OK",
      "vis_m": 9999,
      "fzfg": false,
      "metar_trigger": false,
      "taf_trigger": false,
      "metar": "METAR LIBR 192150Z 19016KT 9999 BKN020 15/12 Q1008",
      "taf": "TAF LIBR 191700Z 1918/2018 17020G30KT 9999 SCT025"
    },
    {
      "icao": "LICA",
      "alert": "OK",
      "vis_m": 9999,
      "fzfg": false,
      "metar_trigger": false,
      "taf_trigger": false,
      "metar": "METAR LICA 192150Z AUTO 26022G32KT 9999 -TSRA BKN013/// BKN035/// 14/12 Q1010 RERA",
      "taf": "TAF LICA 191700Z 1918/2018 25010KT 9999 SCT030"
    },
    {
      "icao": "LICC",
      "alert": "OK",
      "vis_m": 9999,
      "fzfg": false,
      "metar_trigger": false,
      "taf_trigger": false,
      "metar": "METAR LICC 192150Z 27022KT 9999 SCT050 14/10 Q1012",
      "taf": "TAF LICC 191700Z 1918/2018 26011KT 9999 FEW040"
    },
    {
      "icao": "LICJ",
      "alert": "OK",
      "vis_m": 9999,
      "fzfg": false,
      "metar_trigger": false,
      "taf_trigger": false,
      "metar": "METAR LICJ 192150Z 26025KT 9999 SCT040 14/08 Q1013",
      "taf": "TAF LICJ 191700Z 1918/2018 27020G30KT 9999 SCT035"
    },
    {
      "icao": "LIMC",
      "alert": "OK",
      "vis_m": 9999,
      "fzfg": false,
      "metar_trigger": false,
      "taf_trigger": false,
      "metar": "METAR LIMC 192150Z 31008KT CAVOK 05/04 Q1002 NOSIG",
      "taf": "TAF LIMC 191700Z 1918/2024 33007KT 9999 BKN025"
    },
    {
      "icao": "LIME",
      "alert": "OK",
      "vis_m": 9999,
      "fzfg": false,
      "metar_trigger": false,
      "taf_trigger": false,
      "metar": "METAR LIME 192150Z AUTO VRB01KT 9999 NCD 04/04 Q1001",
      "taf": "TAF LIME 191700Z 1918/2018 VRB05KT 8000 BKN020"
    },
    {
      "icao": "LIMF",
      "alert": "OK",
      "vis_m": 9999,
      "fzfg": false,
      "metar_trigger": false,
      "taf_trigger": false,
      "metar": "METAR LIMF 192150Z 30003KT CAVOK 04/01 Q1002",
      "taf": "TAF LIMF 191700Z 1918/2018 VRB05KT 8000 FEW040"
    },
    {
      "icao": "LIMJ",
      "alert": "OK",
      "vis_m": 9999,
      "fzfg": false,
      "metar_trigger": false,
      "taf_trigger": false,
      "metar": "METAR LIMJ 192150Z VRB02KT CAVOK 09/05 Q1002",
      "taf": "TAF LIMJ 191700Z 1918/2018 VRB05KT 9999 SCT030"
    },
    {
      "icao": "LIPE",
      "alert": "OK",
      "vis_m": 9999,
      "fzfg": false,
      "metar_trigger": false,
      "taf_trigger": false,
      "metar": "METAR LIPE 192150Z 26006KT CAVOK 05/03 Q1002",
      "taf": "TAF LIPE 191700Z 1918/2018 VRB05KT 9999 SCT040"
    },
    {
      "icao": "LIPH",
      "alert": "OK",
      "vis_m": 9999,
      "fzfg": false,
      "metar_trigger": false,
      "taf_trigger": false,
      "metar": "METAR LIPH 192150Z 31003KT 9999 SCT015 06/05 Q1001",
      "taf": "TAF LIPH 191700Z 1918/2018 VRB05KT 7000 SCT020"
    },
    {
      "icao": "LIPQ",
      "alert": "OK",
      "vis_m": 9000,
      "fzfg": false,
      "metar_trigger": false,
      "taf_trigger": false,
      "metar": "METAR LIPQ 192150Z AUTO 09003KT 9000 FEW012/// SCT057/// BKN086/// 08/07 Q1001",
      "taf": ""
    },
    {
      "icao": "LIPR",
      "alert": "OK",
      "vis_m": 5000,
      "fzfg": false,
      "metar_trigger": false,
      "taf_trigger": false,
      "metar": "METAR LIPR 192150Z VRB02KT 5000 MIFG NSC 05/05 Q1002",
      "taf": "TAF LIPR 191700Z 1918/2018 VRB05KT 9999 FEW015 SCT040"
    },
    {
      "icao": "LIPX",
      "alert": "OK",
      "vis_m": 9999,
      "fzfg": false,
      "metar_trigger": false,
      "taf_trigger": false,
      "metar": "METAR LIPX 192150Z VRB02KT 9999 -RA FEW020 BKN060 07/05 Q1001",
      "taf": "TAF LIPX 191700Z 1918/2018 26012KT 8000 BKN020"
    },
    {
      "icao": "LIPY",
      "alert": "OK",
      "vis_m": 9999,
      "fzfg": false,
      "metar_trigger": false,
      "taf_trigger": false,
      "metar": "METAR LIPY 192150Z AUTO VRB01KT 9999 BKN220/// 08/07 Q1002",
      "taf": "TAF LIPY 191700Z 1918/2018 VRB05KT 9999 SCT040"
    },
    {
      "icao": "LIPZ",
      "alert": "OK",
      "vis_m": 9999,
      "fzfg": false,
      "metar_trigger": false,
      "taf_trigger": false,
      "metar": "METAR LIPZ 192150Z 23002KT 9999 FEW020 BKN060 06/05 Q1001 NOSIG",
      "taf": "TAF LIPZ 191700Z 1918/2024 23012KT 7000 FEW015 SCT030"
    },
    {
      "icao": "LIRF",
      "alert": "OK",
      "vis_m": 9999,
      "fzfg": false,
      "metar_trigger": false,
      "taf_trigger": false,
      "metar": "METAR LIRF 192150Z VRB02KT CAVOK 09/08 Q1005 NOSIG",
      "taf": "TAF LIRF 191700Z 1918/2024 33012KT 9999 FEW025"
    },
    {
      "icao": "LIRN",
      "alert": "OK",
      "vis_m": 8000,
      "fzfg": false,
      "metar_trigger": false,
      "taf_trigger": false,
      "metar": "METAR LIRN 192150Z 22005KT 190V250 8000 SCT040 11/08 Q1006 NOSIG",
      "taf": "TAF LIRN 191700Z 1918/2018 26018KT 9999 SCT030"
    },
    {
      "icao": "LIRP",
      "alert": "OK",
      "vis_m": 9999,
      "fzfg": false,
      "metar_trigger": false,
      "taf_trigger": false,
      "metar": "METAR LIRP 192145Z 19003KT CAVOK 07/07 Q1002 NOSIG",
      "taf": "TAF LIRP 191700Z 1918/2018 27007KT 9999 BKN030"
    },
    {
      "icao": "LIRZ",
      "alert": "OK",
      "vis_m": 9999,
      "fzfg": false,
      "metar_trigger": false,
      "taf_trigger": false,
      "metar": "METAR LIRZ 192150Z AUTO 17003KT 9999 FEW032/// BKN056/// 07/06 Q1004",
      "taf": "TAF LIRZ 191700Z 1918/2018 19013KT 9999 SCT035"
    },
    {
      "icao": "LJLJ",
      "alert": "OK",
      "vis_m": 5000,
      "fzfg": false,
      "metar_trigger": false,
      "taf_trigger": false,
      "metar": "METAR LJLJ 192200Z VRB01KT 5000 -RA BR FEW003 OVC020 04/03 Q1002 NOSIG",
      "taf": "TAF LJLJ 191700Z 1918/2018 VRB02KT 4000 RA BR SCT002 BKN020 OVC035"
    },
    {
      "icao": "LKMT",
      "alert": "OK",
      "vis_m": 6000,
      "fzfg": false,
      "metar_trigger": false,
      "taf_trigger": false,
      "metar": "METAR LKMT 192200Z 02012KT 6000 OVC018 M02/M03 Q1013 NOSIG",
      "taf": "TAF LKMT 191700Z 1918/2018 03008KT 4000 BR SCT010 OVC040"
    },
    {
      "icao": "LKPR",
      "alert": "OK",
      "vis_m": 9999,
      "fzfg": false,
      "metar_trigger": false,
      "taf_trigger": false,
      "metar": "METAR LKPR 192200Z 06011KT CAVOK M03/M06 Q1012 NOSIG",
      "taf": "TAF LKPR 192000Z 1921/2103 06009KT 7000 NSC"
    },
    {
      "icao": "LLBG",
      "alert": "OK",
      "vis_m": 9999,
      "fzfg": false,
      "metar_trigger": false,
      "taf_trigger": false,
      "metar": "METAR LLBG 192220Z VRB01KT CAVOK 11/07 Q1022 NOSIG",
      "taf": "TAF LLBG 191702Z 1918/2018 VRB04KT CAVOK"
    },
    {
      "icao": "LMML",
      "alert": "OK",
      "vis_m": 9999,
      "fzfg": false,
      "metar_trigger": false,
      "taf_trigger": false,
      "metar": "METAR LMML 192215Z 30019KT 9999 FEW037 14/07 Q1016 NOSIG",
      "taf": "TAF LMML 191700Z 1918/2018 21015KT 9999 FEW015"
    },
    {
      "icao": "LOWW",
      "alert": "OK",
      "vis_m": 4500,
      "fzfg": false,
      "metar_trigger": false,
      "taf_trigger": false,
      "metar": "METAR LOWW 192150Z 36007KT 4500 -SN FEW001 BKN002 M00/M00 Q1009 TEMPO 2000 SN",
      "taf": "TAF LOWW 192015Z 1921/2103 02007KT 3500 SN BKN002 OVC005 TXM01/1921Z TNM07/2103Z"
    },
    {
      "icao": "LPFR",
      "alert": "OK",
      "vis_m": 9999,
      "fzfg": false,
      "metar_trigger": false,
      "taf_trigger": false,
      "metar": "METAR LPFR 192200Z 34006KT CAVOK 10/06 Q1029",
      "taf": "TAF LPFR 191700Z 1918/2018 36010KT CAVOK"
    },
    {
      "icao": "LPMA",
      "alert": "OK",
      "vis_m": 9999,
      "fzfg": false,
      "metar_trigger": false,
      "taf_trigger": false,
      "metar": "METAR LPMA 192200Z 01009KT 9999 BKN016 17/09 Q1028",
      "taf": "TAF LPMA 191700Z 1918/2018 04010KT 9999 SCT016"
    },
    {
      "icao": "LPPR",
      "alert": "OK",
      "vis_m": 9999,
      "fzfg": false,
      "metar_trigger": false,
      "taf_trigger": false,
      "metar": "METAR LPPR 192200Z 00000KT CAVOK 08/06 Q1030",
      "taf": "TAF LPPR 191700Z 1918/2018 35010KT 9999 SCT035"
    },
    {
      "icao": "LPPS",
      "alert": "OK",
      "vis_m": 9999,
      "fzfg": false,
      "metar_trigger": false,
      "taf_trigger": false,
      "metar": "METAR LPPS 192200Z 06007KT 020V090 9999 FEW015 BKN030 16/09 Q1028",
      "taf": "TAF LPPS 191700Z 1918/2024 09010KT 9999 SCT015"
    },
    {
      "icao": "LPPT",
      "alert": "OK",
      "vis_m": 9999,
      "fzfg": false,
      "metar_trigger": false,
      "taf_trigger": false,
      "metar": "METAR LPPT 192200Z 32006KT CAVOK 09/06 Q1030",
      "taf": "TAF LPPT 191700Z 1918/2024 34010KT CAVOK"
    },
    {
      "icao": "LQBK",
      "alert": "OK",
      "vis_m": 9999,
      "fzfg": false,
      "metar_trigger": false,
      "taf_trigger": false,
      "metar": "METAR LQBK 192200Z VRB03KT CAVOK 12/05 Q1001 BECMG 30012KT 4000 RA",
      "taf": "TAF LQBK 191700Z 1918/2018 11008KT CAVOK TX11/1918Z TN01/2018Z"
    },
    {
      "icao": "LQSA",
      "alert": "OK",
      "vis_m": 9999,
      "fzfg": false,
      "metar_trigger": false,
      "taf_trigger": false,
      "metar": "METAR LQSA 192200Z 15017G28KT 100V180 9999 -RA FEW030 BKN050 11/05 Q1002 TEMPO 3000 TSRA FEW008 FEW030CB BKN040",
      "taf": "TAF LQSA 191700Z 1918/2018 14013KT 9999 SCT030 BKN045 TX10/1918Z TN04/2006Z"
    },
    {
      "icao": "LQTZ",
      "alert": "OK",
      "vis_m": 9999,
      "fzfg": false,
      "metar_trigger": false,
      "taf_trigger": false,
      "metar": "METAR LQTZ 192200Z 12007KT 9999 SCT065 10/03 Q1002",
      "taf": "TAF LQTZ 191700Z 1918/2018 09006KT CAVOK TX12/1918Z TN05/2018Z"
    },
    {
      "icao": "LRBC",
      "alert": "OK",
      "vis_m": 8000,
      "fzfg": false,
      "metar_trigger": false,
      "taf_trigger": false,
      "metar": "METAR LRBC 192130Z 17008KT 8000 NSC M01/M02 Q1014",
      "taf": "TAF LRBC 192000Z 1921/2006 17011KT 7000 SCT005"
    },
    {
      "icao": "LRBS",
      "alert": "OK",
      "vis_m": 9999,
      "fzfg": false,
      "metar_trigger": false,
      "taf_trigger": false,
      "metar": "METAR LRBS 192200Z 02003KT 350V060 CAVOK 01/M02 Q1015 NOSIG",
      "taf": "TAF LRBS 191700Z 1918/2018 VRB03KT CAVOK"
    },
    {
      "icao": "LRBV",
      "alert": "OK",
      "vis_m": 9999,
      "fzfg": false,
      "metar_trigger": false,
      "taf_trigger": false,
      "metar": "METAR LRBV 192130Z 12008KT 090V160 CAVOK M01/M05 Q1011",
      "taf": "TAF LRBV 192000Z 1921/2006 12006KT CAVOK"
    },
    {
      "icao": "LRCL",
      "alert": "OK",
      "vis_m": 9999,
      "fzfg": false,
      "metar_trigger": false,
      "taf_trigger": false,
      "metar": "METAR LRCL 192200Z 08003KT 9999 OVC071 03/M02 Q1010",
      "taf": "TAF LRCL 192000Z 1921/2006 06005KT 9999 OVC065"
    },
    {
      "icao": "LRCV",
      "alert": "OK",
      "vis_m": 9999,
      "fzfg": false,
      "metar_trigger": false,
      "taf_trigger": false,
      "metar": "METAR LRCV 192130Z 08009KT CAVOK 02/M01 Q1013",
      "taf": "TAF LRCV 192000Z 1921/2006 09010KT CAVOK"
    },
    {
      "icao": "LRIA",
      "alert": "OK",
      "vis_m": 9999,
      "fzfg": false,
      "metar_trigger": false,
      "taf_trigger": false,
      "metar": "METAR LRIA 192130Z 11009KT CAVOK 00/M02 Q1013",
      "taf": "TAF LRIA 192000Z 1921/2006 10010KT CAVOK"
    },
    {
      "icao": "LROP",
      "alert": "OK",
      "vis_m": 8000,
      "fzfg": false,
      "metar_trigger": false,
      "taf_trigger": false,
      "metar": "METAR LROP 192200Z 03004KT 020V080 8000 NSC 00/M03 Q1015 NOSIG",
      "taf": "TAF LROP 191700Z 1918/2018 VRB03KT CAVOK"
    },
    {
      "icao": "LRSB",
      "alert": "OK",
      "vis_m": 9999,
      "fzfg": false,
      "metar_trigger": false,
      "taf_trigger": false,
      "metar": "METAR LRSB 192200Z 26004KT CAVOK 01/M01 Q1010",
      "taf": "TAF LRSB 191700Z 1918/2018 VRB04KT CAVOK"
    },
    {
      "icao": "LRSM",
      "alert": "OK",
      "vis_m": 9999,
      "fzfg": false,
      "metar_trigger": false,
      "taf_trigger": false,
      "metar": "METAR LRSM 192200Z AUTO 06008KT 9999 SCT055/// OVC075/// 04/01 Q1011",
      "taf": "TAF LRSM 191400Z 1915/1924 14006KT 9999 BKN035"
    },
    {
      "icao": "LRSV",
      "alert": "OK",
      "vis_m": 9999,
      "fzfg": false,
      "metar_trigger": false,
      "taf_trigger": false,
      "metar": "METAR LRSV 192130Z 20005KT CAVOK M00/M02 Q1011",
      "taf": "TAF LRSV 192000Z 1921/2006 VRB04KT 7000 SCT010"
    },
    {
      "icao": "LRTM",
      "alert": "OK",
      "vis_m": 9999,
      "fzfg": false,
      "metar_trigger": false,
      "taf_trigger": false,
      "metar": "METAR LRTM 192200Z AUTO 05004KT 020V080 9999 NCD 02/M02 Q1011",
      "taf": "TAF LRTM 191400Z 1915/1924 08007KT CAVOK"
    },
    {
      "icao": "LRTR",
      "alert": "OK",
      "vis_m": 9999,
      "fzfg": false,
      "metar_trigger": false,
      "taf_trigger": false,
      "metar": "METAR LRTR 192200Z 09011KT CAVOK 07/03 Q1008 NOSIG",
      "taf": "TAF LRTR 191700Z 1918/2018 12010KT CAVOK"
    },
    {
      "icao": "LTAC",
      "alert": "OK",
      "vis_m": 9999,
      "fzfg": false,
      "metar_trigger": false,
      "taf_trigger": false,
      "metar": "METAR LTAC 192150Z 02004KT CAVOK M02/M05 Q1023 NOSIG RMK RWY21C 05003KT RWY03L 36003KT RWY21R 03004KT RWY03R 00000KT RWY21L VRB02KT",
      "taf": "TAF LTAC 191640Z 1918/2018 VRB02KT CAVOK"
    },
    {
      "icao": "LTFM",
      "alert": "OK",
      "vis_m": 9999,
      "fzfg": false,
      "metar_trigger": false,
      "taf_trigger": false,
      "metar": "METAR LTFM 192150Z 18006KT CAVOK 06/03 Q1019 NOSIG RMK RWY17L 17008KT RWY34L 20004KT RWY16R 16009KT RWY36 16008KT RWY18 17008KT",
      "taf": "TAF LTFM 191640Z 1918/2024 20012KT CAVOK"
    },
    {
      "icao": "LUKK",
      "alert": "OK",
      "vis_m": 9999,
      "fzfg": false,
      "metar_trigger": false,
      "taf_trigger": false,
      "metar": "METAR LUKK 192200Z 17008KT CAVOK 00/M04 Q1016 NOSIG",
      "taf": "TAF LUKK 191723Z 1918/2018 16006KT 9999 SCT025"
    },
    {
      "icao": "LWOH",
      "alert": "OK",
      "vis_m": null,
      "fzfg": false,
      "metar_trigger": false,
      "taf_trigger": false,
      "metar": "",
      "taf": "TAF LWOH 192045Z 1921/2021 18012KT 9999 BKN040"
    },
    {
      "icao": "LWSK",
      "alert": "OK",
      "vis_m": 9999,
      "fzfg": false,
      "metar_trigger": false,
      "taf_trigger": false,
      "metar": "METAR LWSK 192220Z VRB02KT 9999 BKN085 08/02 Q1013 NOSIG",
      "taf": "TAF LWSK 192045Z 1921/2021 15012KT 9999 BKN070"
    },
    {
      "icao": "LYBE",
      "alert": "OK",
      "vis_m": 9999,
      "fzfg": false,
      "metar_trigger": false,
      "taf_trigger": false,
      "metar": "METAR LYBE 192200Z 13015KT CAVOK 10/02 Q1006 NOSIG",
      "taf": "TAF LYBE 191700Z 1918/2018 12015KT CAVOK TX10/1918Z TN06/2005Z"
    },
    {
      "icao": "LYNI",
      "alert": "OK",
      "vis_m": 9999,
      "fzfg": false,
      "metar_trigger": false,
      "taf_trigger": false,
      "metar": "METAR LYNI 192200Z VRB02KT CAVOK 08/00 Q1011 NOSIG",
      "taf": "TAF LYNI 191700Z 1918/2018 15005KT CAVOK TX08/2012Z TN04/2004Z"
    },
    {
      "icao": "LYPG",
      "alert": "OK",
      "vis_m": 9999,
      "fzfg": false,
      "metar_trigger": false,
      "taf_trigger": false,
      "metar": "METAR LYPG 192200Z 14023G34KT 9999 FEW026 SCT043 BKN073 14/07 Q1008 NOSIG",
      "taf": "TAF LYPG 191700Z 1918/2018 16008KT 9999 FEW025 SCT040 OVC070 TX12/1922Z TN07/2006Z"
    },
    {
      "icao": "LZIB",
      "alert": "OK",
      "vis_m": 7000,
      "fzfg": false,
      "metar_trigger": false,
      "taf_trigger": false,
      "metar": "METAR LZIB 192200Z 02011KT 7000 -SN SCT004 BKN006 BKN014 01/00 Q1008 NOSIG",
      "taf": "TAF LZIB 191715Z 1918/2018 05011KT 4000 -SN SCT003 BKN010"
    },
    {
      "icao": "LZKZ",
      "alert": "OK",
      "vis_m": 6000,
      "fzfg": false,
      "metar_trigger": false,
      "taf_trigger": false,
      "metar": "METAR LZKZ 192200Z 01011KT 6000 -SN SCT019 01/00 Q1012 NOSIG",
      "taf": "TAF LZKZ 191715Z 1918/2018 02008KT 6000 SCT004 BKN020"
    },
    {
      "icao": "LZTT",
      "alert": "OK",
      "vis_m": 7000,
      "fzfg": false,
      "metar_trigger": false,
      "taf_trigger": false,
      "metar": "METAR LZTT 192200Z 06008KT 7000 SCT005 OVC016 M02/M03 Q1010",
      "taf": ""
    },
    {
      "icao": "OEJN",
      "alert": "OK",
      "vis_m": 9999,
      "fzfg": false,
      "metar_trigger": false,
      "taf_trigger": false,
      "metar": "METAR OEJN 192200Z 36004KT CAVOK 24/18 Q1013 NOSIG",
      "taf": "TAF OEJN 191700Z 1918/2024 36006KT CAVOK"
    },
    {
      "icao": "OEMA",
      "alert": "OK",
      "vis_m": 8000,
      "fzfg": false,
      "metar_trigger": false,
      "taf_trigger": false,
      "metar": "METAR OEMA 192200Z 06004KT 8000 NSC 25/00 Q1019 NOSIG",
      "taf": "TAF OEMA 191700Z 1918/2024 30006KT CAVOK"
    },
    {
      "icao": "OJAI",
      "alert": "OK",
      "vis_m": 5000,
      "fzfg": false,
      "metar_trigger": false,
      "taf_trigger": false,
      "metar": "METAR OJAI 192200Z 04004KT 5000 HZ NSC 05/02 Q1023 NOSIG",
      "taf": "TAF OJAI 191700Z 1918/2024 VRB02KT 5000 HZ BKN030"
    },
    {
      "icao": "OMAA",
      "alert": "OK",
      "vis_m": 9999,
      "fzfg": false,
      "metar_trigger": false,
      "taf_trigger": false,
      "metar": "METAR OMAA 192200Z 02008KT CAVOK 21/15 Q1016 NOSIG",
      "taf": "TAF OMAA 191700Z 1918/2100 04007KT 8000 NSC"
    },
    {
      "icao": "OMDB",
      "alert": "OK",
      "vis_m": 9999,
      "fzfg": false,
      "metar_trigger": false,
      "taf_trigger": false,
      "metar": "METAR OMDB 192200Z 05004KT 360V090 CAVOK 23/12 Q1016 NOSIG",
      "taf": "TAF OMDB 191700Z 1918/2100 08005KT CAVOK"
    },
    {
      "icao": "UAAA",
      "alert": "OK",
      "vis_m": 9999,
      "fzfg": false,
      "metar_trigger": false,
      "taf_trigger": false,
      "metar": "METAR UAAA 192200Z 23003MPS 9999 BKN100 10/04 Q1021 NOSIG",
      "taf": "TAF UAAA 191704Z 1918/2018 21003MPS 6000 SCT050CB BKN100 TX12/2009Z TN03/2003Z"
    },
    {
      "icao": "UBBB",
      "alert": "OK",
      "vis_m": 9999,
      "fzfg": false,
      "metar_trigger": false,
      "taf_trigger": false,
      "metar": "METAR UBBB 192200Z 33020G30KT CAVOK 09/05 Q1020 NOSIG",
      "taf": "TAF UBBB 191701Z 1918/2018 32020G30KT 9999 SCT020 TX10/2010Z TN06/2002Z"
    },
    {
      "icao": "UDSG",
      "alert": "OK",
      "vis_m": 9999,
      "fzfg": false,
      "metar_trigger": false,
      "taf_trigger": false,
      "metar": "METAR UDSG 192200Z 16002KT 9999 SCT049 M04/M07 Q1024 NOSIG",
      "taf": "TAF UDSG 191658Z 1918/2018 VRB06KT 9999 SCT040"
    },
    {
      "icao": "UDYZ",
      "alert": "OK",
      "vis_m": 9999,
      "fzfg": false,
      "metar_trigger": false,
      "taf_trigger": false,
      "metar": "METAR UDYZ 192200Z 21005KT 9999 SCT043CB 03/M04 Q1023 NOSIG",
      "taf": "TAF UDYZ 191700Z 1918/2018 22006KT 9999 SCT040"
    },
    {
      "icao": "UGKO",
      "alert": "OK",
      "vis_m": 9999,
      "fzfg": false,
      "metar_trigger": false,
      "taf_trigger": false,
      "metar": "METAR UGKO 192200Z 06004KT 9999 BKN077 03/03 Q1028 NOSIG",
      "taf": "TAF UGKO 191700Z 1918/2018 25007KT 9000 OVC050 TX17/2011Z TN01/2003Z"
    }
  ]
}