{
  "ts_utc": "2026-04-25T22:05:45Z",
  "threshold_m": 150,
  "source": "stations_override.txt (ICAO list) + aviationweather.gov (METAR/TAF raw)",
  "station_count": 159,
  "stations": [
    {
      "icao": "BIKF",
      "alert": "OK",
      "vis_m": 9999,
      "fzfg": false,
      "metar_trigger": false,
      "taf_trigger": false,
      "metar": "METAR BIKF 252200Z 13018KT 9999 SCT010 BKN032 BKN051 07/06 Q1016",
      "taf": "TAF BIKF 251931Z 2521/2621 14022G32KT 9999 BKN020 TX10/2613Z TN06/2523Z"
    },
    {
      "icao": "BKPR",
      "alert": "OK",
      "vis_m": 9999,
      "fzfg": false,
      "metar_trigger": false,
      "taf_trigger": false,
      "metar": "METAR BKPR 252200Z 14002KT CAVOK 09/05 Q1016 NOSIG",
      "taf": "TAF BKPR 251730Z 2518/2618 35007KT CAVOK"
    },
    {
      "icao": "EBCI",
      "alert": "OK",
      "vis_m": 9999,
      "fzfg": false,
      "metar_trigger": false,
      "taf_trigger": false,
      "metar": "METAR EBCI 252150Z 35003KT CAVOK 10/M01 Q1022 NOSIG",
      "taf": "TAF EBCI 251710Z 2518/2624 02006KT CAVOK"
    },
    {
      "icao": "EDDB",
      "alert": "OK",
      "vis_m": 9999,
      "fzfg": false,
      "metar_trigger": false,
      "taf_trigger": false,
      "metar": "METAR EDDB 252150Z AUTO 31015KT 9999 BKN040 08/02 Q1015 TEMPO 29015G25KT",
      "taf": "TAF EDDB 251700Z 2518/2618 29015G30KT CAVOK"
    },
    {
      "icao": "EDDH",
      "alert": "OK",
      "vis_m": 9999,
      "fzfg": false,
      "metar_trigger": false,
      "taf_trigger": false,
      "metar": "METAR EDDH 252150Z AUTO 29008KT 9999 FEW027 06/03 Q1019 NOSIG",
      "taf": "TAF EDDH 251700Z 2518/2624 29015KT CAVOK"
    },
    {
      "icao": "EDDK",
      "alert": "OK",
      "vis_m": 9999,
      "fzfg": false,
      "metar_trigger": false,
      "taf_trigger": false,
      "metar": "METAR EDDK 252150Z AUTO 06002KT CAVOK 07/02 Q1021 NOSIG",
      "taf": "TAF EDDK 251700Z 2518/2624 33008KT CAVOK"
    },
    {
      "icao": "EDDN",
      "alert": "OK",
      "vis_m": 9999,
      "fzfg": false,
      "metar_trigger": false,
      "taf_trigger": false,
      "metar": "METAR EDDN 252150Z AUTO VRB02KT CAVOK 08/M02 Q1018",
      "taf": "TAF EDDN 251700Z 2518/2618 29009KT CAVOK"
    },
    {
      "icao": "EDDS",
      "alert": "OK",
      "vis_m": 9999,
      "fzfg": false,
      "metar_trigger": false,
      "taf_trigger": false,
      "metar": "METAR EDDS 252150Z AUTO 29006KT CAVOK 09/M01 Q1019",
      "taf": "TAF EDDS 251700Z 2518/2618 34007KT CAVOK"
    },
    {
      "icao": "EDFH",
      "alert": "OK",
      "vis_m": 9999,
      "fzfg": false,
      "metar_trigger": false,
      "taf_trigger": false,
      "metar": "METAR EDFH 252150Z 33004KT CAVOK 07/M03 Q1021",
      "taf": "TAF EDFH 251700Z 2518/2618 36007KT CAVOK"
    },
    {
      "icao": "EDJA",
      "alert": "OK",
      "vis_m": 9999,
      "fzfg": false,
      "metar_trigger": false,
      "taf_trigger": false,
      "metar": "METAR EDJA 252150Z AUTO 19004KT 160V230 9999 // FEW150/// 05/01 Q1019",
      "taf": "TAF EDJA 251700Z 2518/2603 34007KT CAVOK"
    },
    {
      "icao": "EDLW",
      "alert": "OK",
      "vis_m": 9999,
      "fzfg": false,
      "metar_trigger": false,
      "taf_trigger": false,
      "metar": "METAR EDLW 252150Z AUTO 28003KT 240V320 9999 // NCD 08/02 Q1020",
      "taf": "TAF EDLW 251700Z 2518/2618 30006KT CAVOK"
    },
    {
      "icao": "EDNY",
      "alert": "OK",
      "vis_m": 9999,
      "fzfg": false,
      "metar_trigger": false,
      "taf_trigger": false,
      "metar": "METAR EDNY 252150Z AUTO VRB02KT 9999 // NCD 11/03 Q1019",
      "taf": "TAF EDNY 251700Z 2518/2603 VRB02KT CAVOK"
    },
    {
      "icao": "EDSB",
      "alert": "OK",
      "vis_m": 9999,
      "fzfg": false,
      "metar_trigger": false,
      "taf_trigger": false,
      "metar": "METAR EDSB 252150Z AUTO 05005KT 9999 // NCD 11/03 Q1019",
      "taf": "TAF EDSB 251700Z 2518/2618 36004KT CAVOK"
    },
    {
      "icao": "EETN",
      "alert": "OK",
      "vis_m": 9999,
      "fzfg": false,
      "metar_trigger": false,
      "taf_trigger": false,
      "metar": "METAR EETN 252150Z 32018G28KT 9999 -SN BKN013 OVC019 01/M00 Q0993 NOSIG",
      "taf": "TAF EETN 251730Z 2518/2618 28015G25KT 9999 SCT035"
    },
    {
      "icao": "EFTU",
      "alert": "OK",
      "vis_m": 9999,
      "fzfg": false,
      "metar_trigger": false,
      "taf_trigger": false,
      "metar": "METAR EFTU 252150Z AUTO 33009KT 300V010 CAVOK 00/M10 Q0999",
      "taf": "TAF EFTU 252027Z 2521/2621 34010KT CAVOK"
    },
    {
      "icao": "EGBB",
      "alert": "OK",
      "vis_m": 9999,
      "fzfg": false,
      "metar_trigger": false,
      "taf_trigger": false,
      "metar": "METAR EGBB 252150Z 12003KT 040V170 CAVOK 11/05 Q1023",
      "taf": "TAF EGBB 251657Z 2518/2618 13004KT CAVOK"
    },
    {
      "icao": "EGGP",
      "alert": "OK",
      "vis_m": 9999,
      "fzfg": false,
      "metar_trigger": false,
      "taf_trigger": false,
      "metar": "METAR EGGP 252150Z 08008KT CAVOK 11/06 Q1022",
      "taf": "TAF EGGP 251654Z 2518/2618 VRB04KT CAVOK"
    },
    {
      "icao": "EGGW",
      "alert": "OK",
      "vis_m": 9999,
      "fzfg": false,
      "metar_trigger": false,
      "taf_trigger": false,
      "metar": "METAR EGGW 252150Z AUTO 08007KT 9999 NCD 10/03 Q1022",
      "taf": "TAF EGGW 251653Z 2518/2618 05007KT CAVOK"
    },
    {
      "icao": "EGKK",
      "alert": "OK",
      "vis_m": 9999,
      "fzfg": false,
      "metar_trigger": false,
      "taf_trigger": false,
      "metar": "METAR EGKK 252150Z 17001KT CAVOK 09/M01 Q1022",
      "taf": "TAF EGKK 251655Z 2518/2624 21004KT CAVOK"
    },
    {
      "icao": "EGNM",
      "alert": "OK",
      "vis_m": 9999,
      "fzfg": false,
      "metar_trigger": false,
      "taf_trigger": false,
      "metar": "METAR EGNM 252150Z 06004KT 020V090 9999 FEW013 06/04 Q1025",
      "taf": "TAF EGNM 251654Z 2518/2618 07008KT 9999 SCT030"
    },
    {
      "icao": "EGPD",
      "alert": "OK",
      "vis_m": 9999,
      "fzfg": false,
      "metar_trigger": false,
      "taf_trigger": false,
      "metar": "METAR EGPD 252150Z COR AUTO 16006KT 9999 OVC017 07/04 Q1025 NOSIG",
      "taf": "TAF EGPD 251656Z 2518/2618 10006KT 9999 BKN025"
    },
    {
      "icao": "EGPF",
      "alert": "OK",
      "vis_m": 9999,
      "fzfg": false,
      "metar_trigger": false,
      "taf_trigger": false,
      "metar": "METAR EGPF 252150Z AUTO 07009KT 9999 NCD 07/05 Q1024",
      "taf": "TAF EGPF 251654Z 2518/2618 07010KT CAVOK"
    },
    {
      "icao": "EHBK",
      "alert": "OK",
      "vis_m": 9999,
      "fzfg": false,
      "metar_trigger": false,
      "taf_trigger": false,
      "metar": "METAR EHBK 252155Z AUTO 35004KT 330V030 9999 NSC 10/M01 Q1021",
      "taf": "TAF EHBK 251715Z 2518/2624 34006KT CAVOK"
    },
    {
      "icao": "EHEH",
      "alert": "OK",
      "vis_m": 9999,
      "fzfg": false,
      "metar_trigger": false,
      "taf_trigger": false,
      "metar": "METAR EHEH 252155Z AUTO VRB02KT 9999 OVC220 07/02 Q1022 BLU",
      "taf": "TAF EHEH 251741Z 2518/2624 36007KT CAVOK"
    },
    {
      "icao": "EKBI",
      "alert": "OK",
      "vis_m": 9999,
      "fzfg": false,
      "metar_trigger": false,
      "taf_trigger": false,
      "metar": "METAR EKBI 252150Z AUTO 29005KT 9999 NCD 02/00 Q1018",
      "taf": "TAF EKBI 252027Z 2521/2621 30008KT 9999 FEW035"
    },
    {
      "icao": "EKCH",
      "alert": "OK",
      "vis_m": 9999,
      "fzfg": false,
      "metar_trigger": false,
      "taf_trigger": false,
      "metar": "METAR EKCH 252150Z AUTO 31010KT 9999 NCD 05/M00 Q1014 NOSIG",
      "taf": "TAF EKCH 252027Z 2521/2621 33013KT 9999 FEW035"
    },
    {
      "icao": "ENAL",
      "alert": "OK",
      "vis_m": 9999,
      "fzfg": false,
      "metar_trigger": false,
      "taf_trigger": false,
      "metar": "METAR ENAL 252150Z 34007KT 310V010 9999 FEW034 03/M03 Q1022",
      "taf": "TAF ENAL 252000Z 2521/2606 35008KT 9999 FEW030 BKN060"
    },
    {
      "icao": "ENBR",
      "alert": "OK",
      "vis_m": 9999,
      "fzfg": false,
      "metar_trigger": false,
      "taf_trigger": false,
      "metar": "METAR ENBR 252150Z 34011KT CAVOK 02/M04 Q1022 RMK WIND 1200FT 34017KT",
      "taf": "TAF ENBR 251700Z 2518/2618 33015KT 9999 FEW035"
    },
    {
      "icao": "ENGM",
      "alert": "OK",
      "vis_m": 9999,
      "fzfg": false,
      "metar_trigger": false,
      "taf_trigger": false,
      "metar": "METAR ENGM 252150Z 34004KT 280V040 CAVOK 02/M11 Q1015",
      "taf": "TAF ENGM 251700Z 2518/2618 30015G25KT CAVOK"
    },
    {
      "icao": "ENHD",
      "alert": "OK",
      "vis_m": 9999,
      "fzfg": false,
      "metar_trigger": false,
      "taf_trigger": false,
      "metar": "METAR ENHD 252150Z AUTO 35020KT 9999 NCD 05/M01 Q1021",
      "taf": "TAF ENHD 251400Z 2515/2522 33025G38KT 9999 FEW025"
    },
    {
      "icao": "ENTC",
      "alert": "OK",
      "vis_m": 9999,
      "fzfg": false,
      "metar_trigger": false,
      "taf_trigger": false,
      "metar": "METAR ENTC 252150Z 19010KT 9999 SCT008 BKN011 M01/M02 Q1003 RMK WIND 2600FT 31015KT",
      "taf": ""
    },
    {
      "icao": "ENTO",
      "alert": "OK",
      "vis_m": 9999,
      "fzfg": false,
      "metar_trigger": false,
      "taf_trigger": false,
      "metar": "METAR ENTO 252150Z AUTO 36009KT 9999 NCD 03/M09 Q1017",
      "taf": "TAF ENTO 251700Z 2518/2618 02012KT CAVOK"
    },
    {
      "icao": "ENVA",
      "alert": "OK",
      "vis_m": 9999,
      "fzfg": false,
      "metar_trigger": false,
      "taf_trigger": false,
      "metar": "METAR ENVA 252150Z 31009KT 9999 SCT032 SCT037 02/M00 Q1017 RMK WIND 670FT 31019KT",
      "taf": ""
    },
    {
      "icao": "ENZV",
      "alert": "OK",
      "vis_m": 9999,
      "fzfg": false,
      "metar_trigger": false,
      "taf_trigger": false,
      "metar": "METAR ENZV 252150Z 35012KT CAVOK 05/M02 Q1021",
      "taf": "TAF ENZV 251700Z 2518/2618 33020KT CAVOK"
    },
    {
      "icao": "EPGD",
      "alert": "OK",
      "vis_m": 9999,
      "fzfg": false,
      "metar_trigger": false,
      "taf_trigger": false,
      "metar": "METAR EPGD 252200Z 36015KT 9999 -SHRA FEW005 BKN012TCU 03/01 Q1005",
      "taf": "TAF EPGD 251730Z 2518/2618 27018KT 9999 BKN025"
    },
    {
      "icao": "EPKK",
      "alert": "OK",
      "vis_m": 9999,
      "fzfg": false,
      "metar_trigger": false,
      "taf_trigger": false,
      "metar": "METAR EPKK 252200Z 27009KT CAVOK 13/02 Q1008",
      "taf": "TAF EPKK 252030Z 2521/2621 26010KT CAVOK"
    },
    {
      "icao": "EPKT",
      "alert": "OK",
      "vis_m": 9999,
      "fzfg": false,
      "metar_trigger": false,
      "taf_trigger": false,
      "metar": "METAR EPKT 252200Z 28017KT CAVOK 14/M03 Q1008",
      "taf": "TAF EPKT 251730Z 2518/2618 27012KT CAVOK"
    },
    {
      "icao": "EPLB",
      "alert": "OK",
      "vis_m": 9999,
      "fzfg": false,
      "metar_trigger": false,
      "taf_trigger": false,
      "metar": "METAR EPLB 252200Z 26011KT CAVOK 13/01 Q1004",
      "taf": "TAF EPLB 251730Z 2518/2618 27015KT CAVOK"
    },
    {
      "icao": "EPMO",
      "alert": "OK",
      "vis_m": 9999,
      "fzfg": false,
      "metar_trigger": false,
      "taf_trigger": false,
      "metar": "METAR EPMO 252200Z 30018KT 260V320 9999 FEW018 SCT038CB OVC047 08/04 Q1005",
      "taf": "TAF EPMO 251730Z 2518/2618 27016KT CAVOK"
    },
    {
      "icao": "EPPO",
      "alert": "OK",
      "vis_m": 9999,
      "fzfg": false,
      "metar_trigger": false,
      "taf_trigger": false,
      "metar": "METAR EPPO 252200Z 31016KT CAVOK 09/M01 Q1010",
      "taf": "TAF EPPO 251730Z 2518/2618 28015KT CAVOK"
    },
    {
      "icao": "EPRA",
      "alert": "OK",
      "vis_m": 9999,
      "fzfg": false,
      "metar_trigger": false,
      "taf_trigger": false,
      "metar": "METAR EPRA 252200Z 29011KT CAVOK 13/01 Q1004",
      "taf": ""
    },
    {
      "icao": "EPRZ",
      "alert": "OK",
      "vis_m": 9999,
      "fzfg": false,
      "metar_trigger": false,
      "taf_trigger": false,
      "metar": "METAR EPRZ 252200Z 24011KT CAVOK 14/03 Q1006",
      "taf": "TAF EPRZ 251730Z 2518/2618 25013KT CAVOK"
    },
    {
      "icao": "EPSC",
      "alert": "OK",
      "vis_m": 9999,
      "fzfg": false,
      "metar_trigger": false,
      "taf_trigger": false,
      "metar": "METAR EPSC 252200Z 29012KT 9999 FEW038 05/02 Q1012",
      "taf": "TAF EPSC 251730Z 2518/2618 28018KT 9999 BKN035"
    },
    {
      "icao": "EPSY",
      "alert": "OK",
      "vis_m": 9999,
      "fzfg": false,
      "metar_trigger": false,
      "taf_trigger": false,
      "metar": "METAR EPSY 252200Z 27010KT 230V310 CAVOK 07/01 Q1002",
      "taf": "TAF EPSY 252030Z 2521/2606 30010KT 9999 BKN030"
    },
    {
      "icao": "EPWA",
      "alert": "OK",
      "vis_m": 9999,
      "fzfg": false,
      "metar_trigger": false,
      "taf_trigger": false,
      "metar": "METAR EPWA 252200Z 32015KT 9999 -SHRA SCT050CB 09/04 Q1004 NOSIG",
      "taf": "TAF EPWA 252030Z 2521/2621 27010KT CAVOK"
    },
    {
      "icao": "EPWR",
      "alert": "OK",
      "vis_m": 9999,
      "fzfg": false,
      "metar_trigger": false,
      "taf_trigger": false,
      "metar": "METAR EPWR 252200Z 28018KT CAVOK 13/03 Q1010",
      "taf": "TAF EPWR 252030Z 2521/2621 27016KT 9999 SCT040"
    },
    {
      "icao": "ESGG",
      "alert": "OK",
      "vis_m": 9999,
      "fzfg": false,
      "metar_trigger": false,
      "taf_trigger": false,
      "metar": "METAR ESGG 252150Z 35013KT CAVOK 04/M10 Q1014",
      "taf": "TAF ESGG 252030Z 2521/2621 35010G20KT CAVOK"
    },
    {
      "icao": "ESKN",
      "alert": "OK",
      "vis_m": 9999,
      "fzfg": false,
      "metar_trigger": false,
      "taf_trigger": false,
      "metar": "METAR ESKN 252150Z 31009KT 270V340 CAVOK 02/M02 Q1008",
      "taf": "TAF ESKN 252030Z 2521/2621 35013G23KT CAVOK"
    },
    {
      "icao": "ESMS",
      "alert": "OK",
      "vis_m": 9999,
      "fzfg": false,
      "metar_trigger": false,
      "taf_trigger": false,
      "metar": "METAR ESMS 252150Z 33008KT CAVOK 04/00 Q1012",
      "taf": "TAF ESMS 252027Z 2521/2621 32012KT 9999 FEW035"
    },
    {
      "icao": "ESSA",
      "alert": "OK",
      "vis_m": 9999,
      "fzfg": false,
      "metar_trigger": false,
      "taf_trigger": false,
      "metar": "METAR ESSA 252150Z 33012KT CAVOK 01/M03 Q1007 NOSIG",
      "taf": "TAF ESSA 252030Z 2521/2621 34012KT 9999 SCT040"
    },
    {
      "icao": "EYKA",
      "alert": "OK",
      "vis_m": 9999,
      "fzfg": false,
      "metar_trigger": false,
      "taf_trigger": false,
      "metar": "METAR EYKA 252150Z 29007KT 9999 FEW016 06/03 Q0999",
      "taf": "TAF EYKA 251708Z 2518/2618 28013KT 8000 SCT010 BKN020"
    },
    {
      "icao": "EYPA",
      "alert": "OK",
      "vis_m": 9999,
      "fzfg": false,
      "metar_trigger": false,
      "taf_trigger": false,
      "metar": "METAR EYPA 252150Z 01009KT CAVOK 03/M00 Q1003",
      "taf": "TAF EYPA 251707Z 2518/2618 VRB03KT 9000 SCT010 BKN020"
    },
    {
      "icao": "EYVI",
      "alert": "OK",
      "vis_m": 9999,
      "fzfg": false,
      "metar_trigger": false,
      "taf_trigger": false,
      "metar": "METAR EYVI 252150Z 29008KT 260V320 9999 BKN022 BKN028 06/03 Q0998 NOSIG",
      "taf": "TAF EYVI 251709Z 2518/2618 28011KT 6000 SCT010 BKN020"
    },
    {
      "icao": "GCFV",
      "alert": "OK",
      "vis_m": 9999,
      "fzfg": false,
      "metar_trigger": false,
      "taf_trigger": false,
      "metar": "METAR GCFV 252130Z 35013KT 9999 FEW025 19/13 Q1015",
      "taf": "TAF GCFV 252000Z 2521/2621 36014KT 9999 SCT025 TX23/2614Z TN17/2606Z"
    },
    {
      "icao": "GCLP",
      "alert": "OK",
      "vis_m": 9999,
      "fzfg": false,
      "metar_trigger": false,
      "taf_trigger": false,
      "metar": "METAR GCLP 252130Z 01012KT 9999 SCT020 BKN035 19/15 Q1016 NOSIG",
      "taf": "TAF GCLP 252000Z 2521/2621 01015KT 9999 SCT025 TX23/2614Z TN16/2606Z"
    },
    {
      "icao": "GCTS",
      "alert": "OK",
      "vis_m": 8000,
      "fzfg": false,
      "metar_trigger": false,
      "taf_trigger": false,
      "metar": "METAR GCTS 252130Z 31006KT 290V350 8000 -RA SCT018 BKN035 18/16 Q1016 RERA NOSIG",
      "taf": "TAF GCTS 252000Z 2521/2621 04009KT 9999 BKN025 TX22/2614Z TN16/2606Z"
    },
    {
      "icao": "GMAD",
      "alert": "OK",
      "vis_m": 8000,
      "fzfg": false,
      "metar_trigger": false,
      "taf_trigger": false,
      "metar": "METAR GMAD 252200Z 18003KT 150V210 8000 BKN010 17/13 Q1010 NOSIG",
      "taf": "TAF GMAD 251700Z 2518/2624 20008KT 8000 NSC"
    },
    {
      "icao": "GMMN",
      "alert": "OK",
      "vis_m": 8000,
      "fzfg": false,
      "metar_trigger": false,
      "taf_trigger": false,
      "metar": "METAR GMMN 252200Z 36007KT 8000 NSC 16/14 Q1014 NOSIG",
      "taf": "TAF GMMN 251700Z 2518/2624 36015KT CAVOK"
    },
    {
      "icao": "GMMX",
      "alert": "OK",
      "vis_m": 8000,
      "fzfg": false,
      "metar_trigger": false,
      "taf_trigger": false,
      "metar": "METAR GMMX 252200Z 04009KT 010V080 8000 BKN026 20/14 Q1012 NOSIG",
      "taf": "TAF GMMX 251700Z 2518/2624 06006KT 8000 SCT026"
    },
    {
      "icao": "HEGN",
      "alert": "OK",
      "vis_m": 9999,
      "fzfg": false,
      "metar_trigger": false,
      "taf_trigger": false,
      "metar": "METAR HEGN 252100Z 00000KT CAVOK 25/M04 Q1010 NOSIG",
      "taf": "TAF HEGN 251700Z 2518/2624 11010KT CAVOK"
    },
    {
      "icao": "HEMA",
      "alert": "OK",
      "vis_m": 9999,
      "fzfg": false,
      "metar_trigger": false,
      "taf_trigger": false,
      "metar": "METAR HEMA 252100Z 21004KT CAVOK 22/16 Q1011 NOSIG",
      "taf": "TAF HEMA 251700Z 2518/2624 05010KT CAVOK"
    },
    {
      "icao": "HESH",
      "alert": "OK",
      "vis_m": 9999,
      "fzfg": false,
      "metar_trigger": false,
      "taf_trigger": false,
      "metar": "METAR HESH 252100Z 35002KT CAVOK 23/18 Q1010 NOSIG",
      "taf": "TAF HESH 251700Z 2518/2624 15010KT CAVOK"
    },
    {
      "icao": "HESX",
      "alert": "OK",
      "vis_m": 9999,
      "fzfg": false,
      "metar_trigger": false,
      "taf_trigger": false,
      "metar": "METAR HESX 252100Z 35014KT CAVOK 22/11 Q1010 NOSIG",
      "taf": "TAF HESX 251700Z 2518/2624 26009KT CAVOK"
    },
    {
      "icao": "LATI",
      "alert": "OK",
      "vis_m": 9999,
      "fzfg": false,
      "metar_trigger": false,
      "taf_trigger": false,
      "metar": "METAR LATI 252150Z 17004KT CAVOK 11/07 Q1015 NOSIG",
      "taf": "TAF LATI 251700Z 2518/2618 VRB05KT CAVOK TX25/2612Z TN07/2604Z"
    },
    {
      "icao": "LBPD",
      "alert": "OK",
      "vis_m": 9999,
      "fzfg": false,
      "metar_trigger": false,
      "taf_trigger": false,
      "metar": "METAR LBPD 252200Z AUTO 31003KT 9999 NCD 11/08 Q1014",
      "taf": "TAF LBPD 251700Z 2518/2618 14010KT CAVOK"
    },
    {
      "icao": "LBSF",
      "alert": "OK",
      "vis_m": 9999,
      "fzfg": false,
      "metar_trigger": false,
      "taf_trigger": false,
      "metar": "METAR LBSF 252200Z AUTO VRB02KT 9999 NCD 06/04 Q1015 NOSIG",
      "taf": "TAF LBSF 251700Z 2518/2618 VRB03KT CAVOK"
    },
    {
      "icao": "LBWN",
      "alert": "OK",
      "vis_m": 9999,
      "fzfg": false,
      "metar_trigger": false,
      "taf_trigger": false,
      "metar": "METAR LBWN 252200Z AUTO 36002KT 9999 NSC 10/06 Q1013 NOSIG",
      "taf": "TAF LBWN 251700Z 2518/2618 10010KT 9999 SCT045"
    },
    {
      "icao": "LCLK",
      "alert": "OK",
      "vis_m": 9999,
      "fzfg": false,
      "metar_trigger": false,
      "taf_trigger": false,
      "metar": "METAR LCLK 252200Z 31004KT CAVOK 17/12 Q1010 NOSIG",
      "taf": "TAF LCLK 251730Z 2518/2618 35006KT 9999 FEW030"
    },
    {
      "icao": "LCPH",
      "alert": "OK",
      "vis_m": 9999,
      "fzfg": false,
      "metar_trigger": false,
      "taf_trigger": false,
      "metar": "METAR LCPH 252200Z 07008KT CAVOK 19/13 Q1009 NOSIG",
      "taf": "TAF LCPH 251730Z 2518/2618 01007KT 9999 FEW020"
    },
    {
      "icao": "LEAL",
      "alert": "OK",
      "vis_m": 9999,
      "fzfg": false,
      "metar_trigger": false,
      "taf_trigger": false,
      "metar": "METAR LEAL 252130Z 35003KT 280V040 9999 FEW018 16/13 Q1018 NOSIG",
      "taf": "TAF LEAL 251700Z 2518/2618 VRB04KT 9999 FEW020 TX22/2612Z TN10/2606Z"
    },
    {
      "icao": "LEBB",
      "alert": "OK",
      "vis_m": 9999,
      "fzfg": false,
      "metar_trigger": false,
      "taf_trigger": false,
      "metar": "METAR LEBB 252130Z 32003KT 290V350 9999 FEW014 BKN017 15/13 Q1022 NOSIG",
      "taf": "TAF LEBB 251700Z 2518/2618 30009KT 9999 FEW010 BKN016 TX21/2612Z TN13/2603Z"
    },
    {
      "icao": "LEBL",
      "alert": "OK",
      "vis_m": 9999,
      "fzfg": false,
      "metar_trigger": false,
      "taf_trigger": false,
      "metar": "METAR LEBL 252130Z 22003KT CAVOK 16/15 Q1018 NOSIG",
      "taf": "TAF LEBL 251700Z 2518/2618 20008KT CAVOK TX23/2612Z TN14/2605Z"
    },
    {
      "icao": "LECH",
      "alert": "OK",
      "vis_m": 9999,
      "fzfg": false,
      "metar_trigger": false,
      "taf_trigger": false,
      "metar": "METAR LECH 252130Z AUTO VRB01KT CAVOK 13/11 Q1019",
      "taf": "TAF LECH 251700Z 2518/2618 VRB04KT CAVOK TX25/2613Z TN09/2606Z"
    },
    {
      "icao": "LEMD",
      "alert": "OK",
      "vis_m": 9999,
      "fzfg": false,
      "metar_trigger": false,
      "taf_trigger": false,
      "metar": "METAR LEMD 252130Z VRB02KT 9999 VCTS FEW060CB SCT080 16/11 Q1019 BECMG NSW",
      "taf": ""
    },
    {
      "icao": "LEMG",
      "alert": "OK",
      "vis_m": 9999,
      "fzfg": false,
      "metar_trigger": false,
      "taf_trigger": false,
      "metar": "METAR LEMG 252130Z 14003KT 100V160 9999 SCT015 BKN030 15/12 Q1018 NOSIG",
      "taf": "TAF LEMG 251700Z 2518/2618 14010KT 9999 FEW030 TX20/2615Z TN15/2606Z"
    },
    {
      "icao": "LEVC",
      "alert": "OK",
      "vis_m": 9999,
      "fzfg": false,
      "metar_trigger": false,
      "taf_trigger": false,
      "metar": "METAR LEVC 252130Z VRB02KT CAVOK 15/11 Q1019 NOSIG",
      "taf": "TAF LEVC 251700Z 2518/2618 12008KT CAVOK TX25/2612Z TN11/2606Z"
    },
    {
      "icao": "LEXJ",
      "alert": "OK",
      "vis_m": 9999,
      "fzfg": false,
      "metar_trigger": false,
      "taf_trigger": false,
      "metar": "METAR LEXJ 252130Z AUTO 30003KT 270V330 9999 OVC019 14/11 Q1022",
      "taf": "TAF LEXJ 252000Z 2521/2621 20005KT 9999 FEW010 BKN016 TX18/2613Z TN11/2602Z"
    },
    {
      "icao": "LEZG",
      "alert": "OK",
      "vis_m": 9999,
      "fzfg": false,
      "metar_trigger": false,
      "taf_trigger": false,
      "metar": "METAR LEZG 252130Z 29011KT 9999 FEW060 19/12 Q1018 NOSIG",
      "taf": "TAF LEZG 251700Z 2518/2618 VRB04KT 9999 FEW050 TX29/2615Z TN14/2606Z"
    },
    {
      "icao": "LEZL",
      "alert": "OK",
      "vis_m": 9999,
      "fzfg": false,
      "metar_trigger": false,
      "taf_trigger": false,
      "metar": "METAR LEZL 252130Z 25004KT CAVOK 19/15 Q1016 NOSIG",
      "taf": "TAF LEZL 252000Z 2521/2621 VRB03KT 9999 FEW030 TX27/2615Z TN15/2606Z"
    },
    {
      "icao": "LFBD",
      "alert": "OK",
      "vis_m": 9999,
      "fzfg": false,
      "metar_trigger": false,
      "taf_trigger": false,
      "metar": "METAR LFBD 252200Z AUTO 26004KT 9999 OVC018 15/13 Q1021 TEMPO BKN010",
      "taf": "TAF LFBD 251700Z 2518/2624 24008KT 9999 BKN015 TX25/2616Z TN14/2605Z"
    },
    {
      "icao": "LFLL",
      "alert": "OK",
      "vis_m": 9999,
      "fzfg": false,
      "metar_trigger": false,
      "taf_trigger": false,
      "metar": "METAR LFLL 252200Z VRB03KT CAVOK 15/06 Q1018 NOSIG",
      "taf": "TAF LFLL 251700Z 2518/2624 36005KT CAVOK"
    },
    {
      "icao": "LFLS",
      "alert": "OK",
      "vis_m": 9999,
      "fzfg": false,
      "metar_trigger": false,
      "taf_trigger": false,
      "metar": "METAR LFLS 252200Z AUTO VRB02KT CAVOK 12/04 Q1018",
      "taf": "TAF LFLS 251400Z 2515/2615 35010KT CAVOK"
    },
    {
      "icao": "LFMN",
      "alert": "OK",
      "vis_m": 9999,
      "fzfg": false,
      "metar_trigger": false,
      "taf_trigger": false,
      "metar": "METAR LFMN 252200Z 32006KT 9999 FEW017 15/12 Q1017 NOSIG",
      "taf": "TAF LFMN 252000Z 2521/2703 VRB03KT 9999 FEW020"
    },
    {
      "icao": "LFOB",
      "alert": "OK",
      "vis_m": 9999,
      "fzfg": false,
      "metar_trigger": false,
      "taf_trigger": false,
      "metar": "METAR LFOB 252200Z AUTO 02007KT CAVOK 08/03 Q1021 NOSIG",
      "taf": "TAF LFOB 251700Z 2518/2618 05005KT CAVOK"
    },
    {
      "icao": "LFPO",
      "alert": "OK",
      "vis_m": 9999,
      "fzfg": false,
      "metar_trigger": false,
      "taf_trigger": false,
      "metar": "METAR LFPO 252200Z 02006KT CAVOK 15/01 Q1021 NOSIG",
      "taf": "TAF LFPO 251700Z 2518/2624 02008KT CAVOK"
    },
    {
      "icao": "LFSB",
      "alert": "OK",
      "vis_m": 9999,
      "fzfg": false,
      "metar_trigger": false,
      "taf_trigger": false,
      "metar": "METAR LFSB 252200Z AUTO VRB02KT CAVOK 08/04 Q1019 NOSIG",
      "taf": "TAF LFSB 251700Z 2518/2618 36005KT CAVOK"
    },
    {
      "icao": "LGAV",
      "alert": "OK",
      "vis_m": 9999,
      "fzfg": false,
      "metar_trigger": false,
      "taf_trigger": false,
      "metar": "METAR LGAV 252150Z VRB02KT CAVOK 10/05 Q1014 NOSIG",
      "taf": "TAF LGAV 251700Z 2518/2618 03013KT 9999 FEW025"
    },
    {
      "icao": "LGTS",
      "alert": "OK",
      "vis_m": 9999,
      "fzfg": false,
      "metar_trigger": false,
      "taf_trigger": false,
      "metar": "METAR LGTS 252150Z 10007KT CAVOK 11/07 Q1014 NOSIG",
      "taf": "TAF LGTS 251700Z 2518/2618 VRB03KT CAVOK"
    },
    {
      "icao": "LHBP",
      "alert": "OK",
      "vis_m": 9999,
      "fzfg": false,
      "metar_trigger": false,
      "taf_trigger": false,
      "metar": "METAR LHBP 252200Z 00000KT CAVOK 09/03 Q1012 NOSIG",
      "taf": "TAF LHBP 251715Z 2518/2618 26007KT CAVOK"
    },
    {
      "icao": "LHDC",
      "alert": "OK",
      "vis_m": 9999,
      "fzfg": false,
      "metar_trigger": false,
      "taf_trigger": false,
      "metar": "METAR LHDC 252145Z AUTO 20005KT CAVOK 10/03 Q1010",
      "taf": "TAF LHDC 251415Z 2515/2524 27010KT CAVOK"
    },
    {
      "icao": "LIBD",
      "alert": "OK",
      "vis_m": 9999,
      "fzfg": false,
      "metar_trigger": false,
      "taf_trigger": false,
      "metar": "METAR LIBD 252150Z 22006KT CAVOK 09/07 Q1015",
      "taf": "TAF LIBD 251700Z 2518/2618 VRB05KT CAVOK"
    },
    {
      "icao": "LIBG",
      "alert": "OK",
      "vis_m": null,
      "fzfg": false,
      "metar_trigger": false,
      "taf_trigger": false,
      "metar": "",
      "taf": "TAF LIBG 251400Z 2515/2524 33007KT CAVOK"
    },
    {
      "icao": "LIBP",
      "alert": "OK",
      "vis_m": 9999,
      "fzfg": false,
      "metar_trigger": false,
      "taf_trigger": false,
      "metar": "METAR LIBP 252150Z AUTO 24004KT 9999 NCD 10/08 Q1016",
      "taf": "TAF LIBP 251700Z 2518/2618 VRB05KT CAVOK"
    },
    {
      "icao": "LIBR",
      "alert": "OK",
      "vis_m": 9999,
      "fzfg": false,
      "metar_trigger": false,
      "taf_trigger": false,
      "metar": "METAR LIBR 252150Z 26004KT 9999 FEW005 12/11 Q1015",
      "taf": "TAF LIBR 251700Z 2518/2618 33010KT CAVOK"
    },
    {
      "icao": "LICA",
      "alert": "OK",
      "vis_m": 9999,
      "fzfg": false,
      "metar_trigger": false,
      "taf_trigger": false,
      "metar": "METAR LICA 252150Z AUTO 22004KT 9999 BKN021/// 15/13 Q1018",
      "taf": "TAF LICA 251700Z 2518/2618 26010KT 9999 FEW040"
    },
    {
      "icao": "LICC",
      "alert": "OK",
      "vis_m": 9999,
      "fzfg": false,
      "metar_trigger": false,
      "taf_trigger": false,
      "metar": "METAR LICC 252150Z 29007KT CAVOK 15/10 Q1018",
      "taf": "TAF LICC 251700Z 2518/2618 08010KT CAVOK"
    },
    {
      "icao": "LICJ",
      "alert": "OK",
      "vis_m": 9999,
      "fzfg": false,
      "metar_trigger": false,
      "taf_trigger": false,
      "metar": "METAR LICJ 252150Z VRB02KT CAVOK 14/10 Q1018",
      "taf": "TAF LICJ 251700Z 2518/2618 04014KT CAVOK"
    },
    {
      "icao": "LIMC",
      "alert": "OK",
      "vis_m": 9999,
      "fzfg": false,
      "metar_trigger": false,
      "taf_trigger": false,
      "metar": "METAR LIMC 252150Z VRB02KT CAVOK 14/11 Q1015 NOSIG",
      "taf": "TAF LIMC 251700Z 2518/2624 VRB05KT CAVOK"
    },
    {
      "icao": "LIME",
      "alert": "OK",
      "vis_m": 9999,
      "fzfg": false,
      "metar_trigger": false,
      "taf_trigger": false,
      "metar": "METAR LIME 252150Z 28008KT CAVOK 17/09 Q1015 NOSIG",
      "taf": "TAF LIME 251700Z 2518/2618 VRB05KT CAVOK"
    },
    {
      "icao": "LIMF",
      "alert": "OK",
      "vis_m": 9999,
      "fzfg": false,
      "metar_trigger": false,
      "taf_trigger": false,
      "metar": "METAR LIMF 252150Z 31003KT CAVOK 17/10 Q1015",
      "taf": "TAF LIMF 251700Z 2518/2618 VRB05KT 9999 FEW050"
    },
    {
      "icao": "LIMJ",
      "alert": "OK",
      "vis_m": 9999,
      "fzfg": false,
      "metar_trigger": false,
      "taf_trigger": false,
      "metar": "METAR LIMJ 252150Z 12009KT 9999 BKN025 17/13 Q1017",
      "taf": "TAF LIMJ 251700Z 2518/2618 VRB05KT 9999 SCT020"
    },
    {
      "icao": "LIPE",
      "alert": "OK",
      "vis_m": 9999,
      "fzfg": false,
      "metar_trigger": false,
      "taf_trigger": false,
      "metar": "METAR LIPE 252150Z 19008KT CAVOK 18/04 Q1014",
      "taf": "TAF LIPE 251700Z 2518/2618 VRB05KT CAVOK"
    },
    {
      "icao": "LIPH",
      "alert": "OK",
      "vis_m": 9999,
      "fzfg": false,
      "metar_trigger": false,
      "taf_trigger": false,
      "metar": "METAR LIPH 252150Z AUTO 02003KT 9999 NCD 14/11 Q1015",
      "taf": "TAF LIPH 251700Z 2518/2618 VRB05KT CAVOK"
    },
    {
      "icao": "LIPQ",
      "alert": "OK",
      "vis_m": 9999,
      "fzfg": false,
      "metar_trigger": false,
      "taf_trigger": false,
      "metar": "METAR LIPQ 252150Z AUTO 03002KT 9999 NCD 10/07 Q1015",
      "taf": "TAF LIPQ 251700Z 2518/2618 VRB05KT 9999 FEW050"
    },
    {
      "icao": "LIPR",
      "alert": "OK",
      "vis_m": 9999,
      "fzfg": false,
      "metar_trigger": false,
      "taf_trigger": false,
      "metar": "METAR LIPR 252150Z AUTO VRB02KT 9999 NCD 11/09 Q1015",
      "taf": "TAF LIPR 251700Z 2518/2618 20006KT CAVOK"
    },
    {
      "icao": "LIPX",
      "alert": "OK",
      "vis_m": 9999,
      "fzfg": false,
      "metar_trigger": false,
      "taf_trigger": false,
      "metar": "METAR LIPX 252150Z 02003KT CAVOK 16/08 Q1014",
      "taf": "TAF LIPX 251700Z 2518/2618 VRB05KT CAVOK"
    },
    {
      "icao": "LIPY",
      "alert": "OK",
      "vis_m": 9999,
      "fzfg": false,
      "metar_trigger": false,
      "taf_trigger": false,
      "metar": "METAR LIPY 252150Z AUTO 19003KT 9999 NCD 13/09 Q1015",
      "taf": "TAF LIPY 251700Z 2518/2618 19005KT CAVOK"
    },
    {
      "icao": "LIPZ",
      "alert": "OK",
      "vis_m": 9999,
      "fzfg": false,
      "metar_trigger": false,
      "taf_trigger": false,
      "metar": "METAR LIPZ 252150Z 03005KT CAVOK 15/12 Q1015 NOSIG",
      "taf": "TAF LIPZ 251700Z 2518/2624 VRB05KT CAVOK"
    },
    {
      "icao": "LIRF",
      "alert": "OK",
      "vis_m": 9999,
      "fzfg": false,
      "metar_trigger": false,
      "taf_trigger": false,
      "metar": "METAR LIRF 252150Z 30005KT CAVOK 14/13 Q1017 NOSIG",
      "taf": "TAF LIRF 251700Z 2518/2624 28013KT CAVOK"
    },
    {
      "icao": "LIRN",
      "alert": "OK",
      "vis_m": 9999,
      "fzfg": false,
      "metar_trigger": false,
      "taf_trigger": false,
      "metar": "METAR LIRN 252150Z VRB01KT CAVOK 15/13 Q1018 NOSIG",
      "taf": "TAF LIRN 251700Z 2518/2618 19010KT CAVOK"
    },
    {
      "icao": "LIRP",
      "alert": "OK",
      "vis_m": 9999,
      "fzfg": false,
      "metar_trigger": false,
      "taf_trigger": false,
      "metar": "METAR LIRP 252145Z 15003KT CAVOK 10/08 Q1018 NOSIG",
      "taf": "TAF LIRP 251700Z 2518/2618 27011KT CAVOK"
    },
    {
      "icao": "LIRZ",
      "alert": "OK",
      "vis_m": 9999,
      "fzfg": false,
      "metar_trigger": false,
      "taf_trigger": false,
      "metar": "METAR LIRZ 252150Z AUTO 03004KT 360V070 9999 NCD 08/04 Q1017",
      "taf": "TAF LIRZ 251700Z 2518/2618 VRB05KT CAVOK"
    },
    {
      "icao": "LJLJ",
      "alert": "OK",
      "vis_m": 9999,
      "fzfg": false,
      "metar_trigger": false,
      "taf_trigger": false,
      "metar": "METAR LJLJ 252130Z VRB02KT CAVOK 10/06 Q1015 NOSIG",
      "taf": "TAF LJLJ 251700Z 2518/2618 24007KT CAVOK"
    },
    {
      "icao": "LKMT",
      "alert": "OK",
      "vis_m": 9999,
      "fzfg": false,
      "metar_trigger": false,
      "taf_trigger": false,
      "metar": "METAR LKMT 252200Z 22010KT CAVOK 10/01 Q1011 NOSIG",
      "taf": "TAF LKMT 251700Z 2518/2618 24008KT CAVOK"
    },
    {
      "icao": "LKPR",
      "alert": "OK",
      "vis_m": 9999,
      "fzfg": false,
      "metar_trigger": false,
      "taf_trigger": false,
      "metar": "METAR LKPR 252200Z 29009KT CAVOK 12/M03 Q1014 NOSIG",
      "taf": "TAF LKPR 252000Z 2521/2703 32015KT CAVOK"
    },
    {
      "icao": "LLBG",
      "alert": "OK",
      "vis_m": 9999,
      "fzfg": false,
      "metar_trigger": false,
      "taf_trigger": false,
      "metar": "METAR LLBG 252150Z VRB02KT CAVOK 18/11 Q1010 NOSIG",
      "taf": "TAF LLBG 251701Z 2518/2618 VRB04KT CAVOK TX28/2611Z TN15/2603Z"
    },
    {
      "icao": "LMML",
      "alert": "OK",
      "vis_m": 9999,
      "fzfg": false,
      "metar_trigger": false,
      "taf_trigger": false,
      "metar": "METAR LMML 252145Z 28003KT 240V300 CAVOK 13/09 Q1019 NOSIG",
      "taf": "TAF LMML 251700Z 2518/2618 28008KT 9999 FEW015"
    },
    {
      "icao": "LOWW",
      "alert": "OK",
      "vis_m": 9999,
      "fzfg": false,
      "metar_trigger": false,
      "taf_trigger": false,
      "metar": "METAR LOWW 252150Z 28012KT CAVOK 18/02 Q1013 NOSIG",
      "taf": "TAF LOWW 252015Z 2521/2703 29012KT CAVOK TX17/2615Z TN05/2703Z"
    },
    {
      "icao": "LPFR",
      "alert": "OK",
      "vis_m": 9999,
      "fzfg": false,
      "metar_trigger": false,
      "taf_trigger": false,
      "metar": "METAR LPFR 252130Z 15003KT 110V180 9999 FEW035 19/15 Q1015",
      "taf": "TAF LPFR 251700Z 2518/2618 25010KT 9999 FEW035"
    },
    {
      "icao": "LPMA",
      "alert": "OK",
      "vis_m": 9999,
      "fzfg": false,
      "metar_trigger": false,
      "taf_trigger": false,
      "metar": "METAR LPMA 252130Z 01010KT 9999 FEW016 17/12 Q1019",
      "taf": "TAF LPMA 251700Z 2518/2618 02010KT 9999 SCT015"
    },
    {
      "icao": "LPPR",
      "alert": "OK",
      "vis_m": 9999,
      "fzfg": false,
      "metar_trigger": false,
      "taf_trigger": false,
      "metar": "METAR LPPR 252130Z VRB02KT CAVOK 15/14 Q1017",
      "taf": "TAF LPPR 251700Z 2518/2618 32010KT CAVOK"
    },
    {
      "icao": "LPPS",
      "alert": "OK",
      "vis_m": 9999,
      "fzfg": false,
      "metar_trigger": false,
      "taf_trigger": false,
      "metar": "METAR LPPS 252130Z 02011KT 9999 SCT015 16/12 Q1019",
      "taf": "TAF LPPS 251700Z 2518/2624 02012KT 9999 SCT015"
    },
    {
      "icao": "LPPT",
      "alert": "OK",
      "vis_m": 9999,
      "fzfg": false,
      "metar_trigger": false,
      "taf_trigger": false,
      "metar": "METAR LPPT 252130Z 35011KT CAVOK 17/10 Q1016",
      "taf": "TAF LPPT 251700Z 2518/2624 30012KT 9999 FEW030"
    },
    {
      "icao": "LQBK",
      "alert": "OK",
      "vis_m": 9999,
      "fzfg": false,
      "metar_trigger": false,
      "taf_trigger": false,
      "metar": "METAR LQBK 252200Z 14003KT CAVOK 09/05 Q1014 NOSIG",
      "taf": "TAF LQBK 251700Z 2518/2618 33005KT CAVOK TX23/2613Z TN04/2604Z"
    },
    {
      "icao": "LQSA",
      "alert": "OK",
      "vis_m": 9999,
      "fzfg": false,
      "metar_trigger": false,
      "taf_trigger": false,
      "metar": "METAR LQSA 252200Z VRB02KT CAVOK 08/04 Q1016",
      "taf": "TAF LQSA 251700Z 2518/2618 29005KT CAVOK TX23/2614Z TN05/2604Z"
    },
    {
      "icao": "LQTZ",
      "alert": "OK",
      "vis_m": 9999,
      "fzfg": false,
      "metar_trigger": false,
      "taf_trigger": false,
      "metar": "METAR LQTZ 252200Z VRB01KT CAVOK 06/06 Q1014",
      "taf": "TAF LQTZ 251700Z 2518/2618 10005KT CAVOK TX21/2613Z TN02/2604Z"
    },
    {
      "icao": "LRBC",
      "alert": "OK",
      "vis_m": 9999,
      "fzfg": false,
      "metar_trigger": false,
      "taf_trigger": false,
      "metar": "METAR LRBC 252130Z 16007KT CAVOK 11/05 Q1010",
      "taf": "TAF LRBC 252000Z 2521/2606 19007KT CAVOK"
    },
    {
      "icao": "LRBS",
      "alert": "OK",
      "vis_m": 9999,
      "fzfg": false,
      "metar_trigger": false,
      "taf_trigger": false,
      "metar": "METAR LRBS 252130Z VRB02KT CAVOK 15/06 Q1012 NOSIG",
      "taf": "TAF LRBS 251700Z 2518/2618 25006KT CAVOK"
    },
    {
      "icao": "LRBV",
      "alert": "OK",
      "vis_m": 9999,
      "fzfg": false,
      "metar_trigger": false,
      "taf_trigger": false,
      "metar": "METAR LRBV 252130Z AUTO 23010KT 9999 NCD 09/04 Q1012",
      "taf": "TAF LRBV 252000Z 2521/2606 26008KT CAVOK"
    },
    {
      "icao": "LRCL",
      "alert": "OK",
      "vis_m": 9999,
      "fzfg": false,
      "metar_trigger": false,
      "taf_trigger": false,
      "metar": "METAR LRCL 252130Z 24003KT CAVOK 08/02 Q1012",
      "taf": "TAF LRCL 252000Z 2521/2606 VRB03KT CAVOK"
    },
    {
      "icao": "LRCV",
      "alert": "OK",
      "vis_m": 9999,
      "fzfg": false,
      "metar_trigger": false,
      "taf_trigger": false,
      "metar": "METAR LRCV 252130Z 26007KT CAVOK 12/05 Q1012",
      "taf": "TAF LRCV 252000Z 2521/2606 24006KT CAVOK"
    },
    {
      "icao": "LRIA",
      "alert": "OK",
      "vis_m": 9999,
      "fzfg": false,
      "metar_trigger": false,
      "taf_trigger": false,
      "metar": "METAR LRIA 252130Z 22005KT 190V260 CAVOK 14/04 Q1009",
      "taf": "TAF LRIA 252000Z 2521/2606 19005KT CAVOK"
    },
    {
      "icao": "LROP",
      "alert": "OK",
      "vis_m": 9999,
      "fzfg": false,
      "metar_trigger": false,
      "taf_trigger": false,
      "metar": "METAR LROP 252130Z 23008KT CAVOK 10/05 Q1012 NOSIG",
      "taf": "TAF LROP 251700Z 2518/2618 25006KT CAVOK"
    },
    {
      "icao": "LRSB",
      "alert": "OK",
      "vis_m": 9999,
      "fzfg": false,
      "metar_trigger": false,
      "taf_trigger": false,
      "metar": "METAR LRSB 252130Z VRB02KT CAVOK 09/04 Q1012",
      "taf": "TAF LRSB 251700Z 2518/2618 30014KT CAVOK"
    },
    {
      "icao": "LRSM",
      "alert": "OK",
      "vis_m": 9999,
      "fzfg": false,
      "metar_trigger": false,
      "taf_trigger": false,
      "metar": "METAR LRSM 252130Z AUTO 20007KT 9999 NCD 10/04 Q1010",
      "taf": "TAF LRSM 251400Z 2515/2524 24011KT CAVOK"
    },
    {
      "icao": "LRSV",
      "alert": "OK",
      "vis_m": 9999,
      "fzfg": false,
      "metar_trigger": false,
      "taf_trigger": false,
      "metar": "METAR LRSV 252130Z 24008KT CAVOK 12/04 Q1009",
      "taf": "TAF LRSV 252000Z 2521/2606 23006KT CAVOK"
    },
    {
      "icao": "LRTM",
      "alert": "OK",
      "vis_m": 9999,
      "fzfg": false,
      "metar_trigger": false,
      "taf_trigger": false,
      "metar": "METAR LRTM 252130Z 33002KT CAVOK 07/04 Q1012",
      "taf": "TAF LRTM 252000Z 2521/2606 VRB03KT CAVOK"
    },
    {
      "icao": "LRTR",
      "alert": "OK",
      "vis_m": 9999,
      "fzfg": false,
      "metar_trigger": false,
      "taf_trigger": false,
      "metar": "METAR LRTR 252130Z 06004KT CAVOK 06/04 Q1013",
      "taf": "TAF LRTR 251700Z 2518/2618 VRB04KT CAVOK"
    },
    {
      "icao": "LTAC",
      "alert": "OK",
      "vis_m": 9999,
      "fzfg": false,
      "metar_trigger": false,
      "taf_trigger": false,
      "metar": "METAR LTAC 252150Z VRB01KT CAVOK 06/03 Q1016 NOSIG RMK RWY21C 07002KT RWY03L VRB01KT RWY21R VRB01KT RWY03R 00000KT RWY21L 09002KT",
      "taf": "TAF LTAC 251640Z 2518/2618 VRB02KT CAVOK"
    },
    {
      "icao": "LTFM",
      "alert": "OK",
      "vis_m": 9999,
      "fzfg": false,
      "metar_trigger": false,
      "taf_trigger": false,
      "metar": "METAR LTFM 252150Z VRB03KT CAVOK 13/01 Q1014 NOSIG RMK RWY17L 30004KT RWY34L VRB02KT RWY16R VRB02KT RWY36 20003KT 160V220 RWY18 VRB02KT",
      "taf": "TAF LTFM 251640Z 2518/2624 14012KT CAVOK"
    },
    {
      "icao": "LUKK",
      "alert": "OK",
      "vis_m": 9999,
      "fzfg": false,
      "metar_trigger": false,
      "taf_trigger": false,
      "metar": "METAR LUKK 252200Z 23010KT CAVOK 11/05 Q1010 NOSIG",
      "taf": "TAF LUKK 251714Z 2518/2618 20008KT CAVOK"
    },
    {
      "icao": "LWOH",
      "alert": "OK",
      "vis_m": null,
      "fzfg": false,
      "metar_trigger": false,
      "taf_trigger": false,
      "metar": "",
      "taf": "TAF LWOH 252025Z 2521/2621 36005KT 9999 FEW040"
    },
    {
      "icao": "LWSK",
      "alert": "OK",
      "vis_m": 9999,
      "fzfg": false,
      "metar_trigger": false,
      "taf_trigger": false,
      "metar": "METAR LWSK 252150Z 08002KT CAVOK 09/05 Q1015 NOSIG",
      "taf": "TAF LWSK 252025Z 2521/2621 VRB02KT CAVOK"
    },
    {
      "icao": "LYBE",
      "alert": "OK",
      "vis_m": 9999,
      "fzfg": false,
      "metar_trigger": false,
      "taf_trigger": false,
      "metar": "METAR LYBE 252200Z 20005KT CAVOK 12/05 Q1014 NOSIG",
      "taf": "TAF LYBE 251700Z 2518/2618 25005KT CAVOK TX22/2613Z TN09/2604Z"
    },
    {
      "icao": "LYNI",
      "alert": "OK",
      "vis_m": 9999,
      "fzfg": false,
      "metar_trigger": false,
      "taf_trigger": false,
      "metar": "METAR LYNI 252200Z 09004KT CAVOK 10/04 Q1015 NOSIG",
      "taf": "TAF LYNI 251700Z 2518/2618 33004KT CAVOK TX23/2613Z TN05/2604Z"
    },
    {
      "icao": "LYPG",
      "alert": "OK",
      "vis_m": 9999,
      "fzfg": false,
      "metar_trigger": false,
      "taf_trigger": false,
      "metar": "METAR LYPG 252200Z VRB02KT CAVOK 15/09 Q1015 NOSIG",
      "taf": "TAF LYPG 251700Z 2518/2618 35005KT CAVOK TX27/2613Z TN10/2604Z"
    },
    {
      "icao": "LZIB",
      "alert": "OK",
      "vis_m": 9999,
      "fzfg": false,
      "metar_trigger": false,
      "taf_trigger": false,
      "metar": "METAR LZIB 252200Z 29009KT CAVOK 16/02 Q1012 NOSIG",
      "taf": ""
    },
    {
      "icao": "LZKZ",
      "alert": "OK",
      "vis_m": 9999,
      "fzfg": false,
      "metar_trigger": false,
      "taf_trigger": false,
      "metar": "METAR LZKZ 252200Z VRB02KT CAVOK 09/05 Q1009 NOSIG",
      "taf": "TAF LZKZ 251715Z 2518/2618 20012KT CAVOK"
    },
    {
      "icao": "LZTT",
      "alert": "OK",
      "vis_m": 9999,
      "fzfg": false,
      "metar_trigger": false,
      "taf_trigger": false,
      "metar": "METAR LZTT 252200Z 25014KT CAVOK 11/M00 Q1009",
      "taf": "TAF LZTT 251715Z 2518/2618 27016KT CAVOK"
    },
    {
      "icao": "OEJN",
      "alert": "OK",
      "vis_m": 9999,
      "fzfg": false,
      "metar_trigger": false,
      "taf_trigger": false,
      "metar": "METAR OEJN 252200Z 30003KT CAVOK 30/20 Q1008 NOSIG",
      "taf": "TAF OEJN 251700Z 2518/2624 36006KT CAVOK"
    },
    {
      "icao": "OEMA",
      "alert": "OK",
      "vis_m": 9999,
      "fzfg": false,
      "metar_trigger": false,
      "taf_trigger": false,
      "metar": "METAR OEMA 252200Z VRB03KT CAVOK 29/14 Q1013 NOSIG",
      "taf": "TAF OEMA 251700Z 2518/2624 28006KT 9999 FEW040"
    },
    {
      "icao": "OJAI",
      "alert": "OK",
      "vis_m": 5000,
      "fzfg": false,
      "metar_trigger": false,
      "taf_trigger": false,
      "metar": "METAR OJAI 252100Z 00000KT 5000 HZ NSC 15/05 Q1014 NOSIG",
      "taf": "TAF OJAI 251700Z 2518/2624 29010KT 5000 HZ NSC"
    },
    {
      "icao": "OMAA",
      "alert": "OK",
      "vis_m": 9999,
      "fzfg": false,
      "metar_trigger": false,
      "taf_trigger": false,
      "metar": "METAR OMAA 252200Z 10003KT 050V140 CAVOK 29/19 Q1008 NOSIG",
      "taf": "TAF OMAA 251700Z 2518/2700 34010KT 8000 NSC"
    },
    {
      "icao": "OMDB",
      "alert": "OK",
      "vis_m": 9999,
      "fzfg": false,
      "metar_trigger": false,
      "taf_trigger": false,
      "metar": "METAR OMDB 252200Z 17003KT CAVOK 31/17 Q1008 NOSIG",
      "taf": "TAF OMDB 251700Z 2518/2700 28010KT CAVOK"
    },
    {
      "icao": "UAAA",
      "alert": "OK",
      "vis_m": 9999,
      "fzfg": false,
      "metar_trigger": false,
      "taf_trigger": false,
      "metar": "METAR UAAA 252130Z VRB01MPS 9999 NSC 10/07 Q1018 NOSIG",
      "taf": "TAF UAAA 251708Z 2518/2618 19003MPS 9999 FEW050 SCT100 TX26/2609Z TN10/2601Z"
    },
    {
      "icao": "UBBB",
      "alert": "OK",
      "vis_m": 9999,
      "fzfg": false,
      "metar_trigger": false,
      "taf_trigger": false,
      "metar": "METAR UBBB 252200Z 22002KT CAVOK 09/07 Q1023 NOSIG",
      "taf": "TAF UBBB 251657Z 2518/2618 01008KT 9999 SCT015 BKN030 TX16/2610Z TN08/2601Z"
    },
    {
      "icao": "UDSG",
      "alert": "OK",
      "vis_m": 9999,
      "fzfg": false,
      "metar_trigger": false,
      "taf_trigger": false,
      "metar": "METAR UDSG 252130Z 04002KT 9999 NSC 01/M02 Q1021 NOSIG",
      "taf": "TAF UDSG 251658Z 2518/2618 24006KT 9999 SCT050"
    },
    {
      "icao": "UDYZ",
      "alert": "OK",
      "vis_m": 9999,
      "fzfg": false,
      "metar_trigger": false,
      "taf_trigger": false,
      "metar": "METAR UDYZ 252130Z VRB02KT 9999 SCT046 12/05 Q1018 NOSIG",
      "taf": "TAF UDYZ 251700Z 2518/2618 06006KT 9999 FEW040"
    },
    {
      "icao": "UGKO",
      "alert": "OK",
      "vis_m": 9999,
      "fzfg": false,
      "metar_trigger": false,
      "taf_trigger": false,
      "metar": "METAR UGKO 252130Z 07012KT CAVOK 09/05 Q1017 NOSIG",
      "taf": "TAF UGKO 251700Z 2518/2618 08017KT CAVOK TX24/2611Z TN08/2602Z"
    }
  ]
}