{
  "ts_utc": "2026-01-03T15:51:37Z",
  "threshold_m": 150,
  "source": "stations_override.txt (ICAO list) + aviationweather.gov (METAR/TAF raw)",
  "station_count": 159,
  "stations": [
    {
      "icao": "BIKF",
      "alert": "OK",
      "vis_m": 9999,
      "fzfg": false,
      "metar_trigger": false,
      "taf_trigger": false,
      "metar": "METAR BIKF 031530Z 01006KT CAVOK M05/M09 Q1029",
      "taf": "TAF BIKF 031357Z 0315/0415 01008KT CAVOK TXM01/0415Z TNM07/0315Z"
    },
    {
      "icao": "BKPR",
      "alert": "OK",
      "vis_m": 9999,
      "fzfg": false,
      "metar_trigger": false,
      "taf_trigger": false,
      "metar": "METAR BKPR 031530Z 34012KT 270V010 9999 FEW020 BKN045 09/04 Q1007 NOSIG",
      "taf": "TAF BKPR 031130Z 0312/0412 18008KT 9999 BKN030"
    },
    {
      "icao": "EBCI",
      "alert": "OK",
      "vis_m": 9999,
      "fzfg": false,
      "metar_trigger": false,
      "taf_trigger": false,
      "metar": "METAR EBCI 031520Z 25013KT 9999 -SN BKN010 M01/M03 Q1006 TEMPO 1200 SHSN SN BKN004",
      "taf": "TAF EBCI 031120Z 0312/0418 26010KT 9999 FEW015 SCT025"
    },
    {
      "icao": "EDDB",
      "alert": "OK",
      "vis_m": 4300,
      "fzfg": false,
      "metar_trigger": false,
      "taf_trigger": false,
      "metar": "METAR EDDB 031520Z AUTO 23014KT 4300 -SN BR SCT007 BKN010 BKN017 M00/M01 Q0996 RESN TEMPO 24015G25KT 2000 SN BKN007",
      "taf": ""
    },
    {
      "icao": "EDDH",
      "alert": "OK",
      "vis_m": 1300,
      "fzfg": false,
      "metar_trigger": false,
      "taf_trigger": false,
      "metar": "METAR EDDH 031520Z AUTO 22008KT 1300 0900 R23/1700N R33/1800N +SN BCFG BKN004 M01/M02 Q0995 TEMPO 2500 -SN",
      "taf": "TAF EDDH 031100Z 0312/0418 24004KT 8000 SCT005"
    },
    {
      "icao": "EDDK",
      "alert": "OK",
      "vis_m": 1300,
      "fzfg": false,
      "metar_trigger": false,
      "taf_trigger": false,
      "metar": "METAR EDDK 031520Z AUTO 27016KT 1300 1200 R31R/1900D R24/1700D SHSN BR SCT004 BKN022 BKN028 FEW///TCU M00/M01 Q1003 BECMG 9999 NSW BKN007",
      "taf": "TAF EDDK 031100Z 0312/0418 27012KT 9000 BKN020"
    },
    {
      "icao": "EDDN",
      "alert": "OK",
      "vis_m": 9999,
      "fzfg": false,
      "metar_trigger": false,
      "taf_trigger": false,
      "metar": "METAR EDDN 031520Z AUTO 23010KT 9999 FEW027 BKN041 BKN047 M01/M06 Q1004 NOSIG",
      "taf": "TAF EDDN 031100Z 0312/0412 24010KT 9999 OVC030"
    },
    {
      "icao": "EDDS",
      "alert": "OK",
      "vis_m": 6000,
      "fzfg": false,
      "metar_trigger": false,
      "taf_trigger": false,
      "metar": "METAR EDDS 031520Z AUTO 24012KT 200V280 6000 -SN FEW013 BKN041 BKN049 M02/M05 Q1005 TEMPO 3000 SN BKN013",
      "taf": "TAF EDDS 031100Z 0312/0412 22010KT 9999 FEW015 SCT025"
    },
    {
      "icao": "EDFH",
      "alert": "OK",
      "vis_m": 9999,
      "fzfg": false,
      "metar_trigger": false,
      "taf_trigger": false,
      "metar": "METAR EDFH 031520Z 26014KT 9999 FEW013 SCT024 M03/M05 Q1002",
      "taf": "TAF EDFH 031100Z 0312/0412 26012KT 9999 SCT006 BKN012"
    },
    {
      "icao": "EDJA",
      "alert": "OK",
      "vis_m": 9999,
      "fzfg": false,
      "metar_trigger": false,
      "taf_trigger": false,
      "metar": "METAR EDJA 031520Z 23021KT CAVOK M03/M10 Q1004",
      "taf": "TAF EDJA 031400Z 0315/0324 23012KT CAVOK"
    },
    {
      "icao": "EDLW",
      "alert": "OK",
      "vis_m": 9999,
      "fzfg": false,
      "metar_trigger": false,
      "taf_trigger": false,
      "metar": "METAR EDLW 031520Z COR 24011KT 9999 OVC007 00/M01 Q1000",
      "taf": "TAF EDLW 031100Z 0312/0412 26015KT 8000 BKN012"
    },
    {
      "icao": "EDNY",
      "alert": "OK",
      "vis_m": 9999,
      "fzfg": false,
      "metar_trigger": false,
      "taf_trigger": false,
      "metar": "METAR EDNY 031520Z 24012KT CAVOK M02/M06 Q1007",
      "taf": "TAF EDNY 031400Z 0315/0324 25007KT CAVOK"
    },
    {
      "icao": "EDSB",
      "alert": "OK",
      "vis_m": 9999,
      "fzfg": false,
      "metar_trigger": false,
      "taf_trigger": false,
      "metar": "METAR EDSB 031520Z 21011KT 9999 -SN FEW009 BKN018 BKN028 M00/M02 Q1008",
      "taf": "TAF EDSB 031100Z 0312/0412 20014KT 9999 SCT025 BKN035"
    },
    {
      "icao": "EETN",
      "alert": "OK",
      "vis_m": 1400,
      "fzfg": false,
      "metar_trigger": false,
      "taf_trigger": false,
      "metar": "METAR EETN 031550Z 09009KT 1400 R08/P2000N SN SCT019 BKN028 OVC035 M04/M04 Q0990 TEMPO 3000",
      "taf": ""
    },
    {
      "icao": "EFTU",
      "alert": "OK",
      "vis_m": 9999,
      "fzfg": false,
      "metar_trigger": false,
      "taf_trigger": false,
      "metar": "METAR EFTU 031520Z AUTO 06010KT 040V100 9999 OVC011 M08/M10 Q0992",
      "taf": "TAF EFTU 031434Z 0315/0415 06007KT 9999 OVC011"
    },
    {
      "icao": "EGBB",
      "alert": "OK",
      "vis_m": 9999,
      "fzfg": false,
      "metar_trigger": false,
      "taf_trigger": false,
      "metar": "METAR EGBB 031520Z 33011KT CAVOK 02/M04 Q1012",
      "taf": "TAF EGBB 031058Z 0312/0412 30012KT CAVOK"
    },
    {
      "icao": "EGGP",
      "alert": "OK",
      "vis_m": 9999,
      "fzfg": false,
      "metar_trigger": false,
      "taf_trigger": false,
      "metar": "METAR EGGP 031520Z 35007KT 9999 FEW038 02/M05 Q1013",
      "taf": "TAF EGGP 031057Z 0312/0412 31009KT 9999 SCT030"
    },
    {
      "icao": "EGGW",
      "alert": "OK",
      "vis_m": 9999,
      "fzfg": false,
      "metar_trigger": false,
      "taf_trigger": false,
      "metar": "METAR EGGW 031520Z AUTO 33014KT 9999 NCD 01/M05 Q1010",
      "taf": "TAF EGGW 031056Z 0312/0412 30012KT 9999 FEW025"
    },
    {
      "icao": "EGKK",
      "alert": "OK",
      "vis_m": 9999,
      "fzfg": false,
      "metar_trigger": false,
      "taf_trigger": false,
      "metar": "METAR EGKK 031520Z 32010KT 290V350 CAVOK 02/M05 Q1011",
      "taf": "TAF EGKK 031053Z 0312/0418 30010KT CAVOK"
    },
    {
      "icao": "EGNM",
      "alert": "OK",
      "vis_m": 9999,
      "fzfg": false,
      "metar_trigger": false,
      "taf_trigger": false,
      "metar": "METAR EGNM 031520Z 30014KT 9999 FEW028 00/M06 Q1011",
      "taf": "TAF EGNM 031059Z 0312/0412 30015KT 9999 FEW030"
    },
    {
      "icao": "EGPD",
      "alert": "OK",
      "vis_m": 8000,
      "fzfg": false,
      "metar_trigger": false,
      "taf_trigger": false,
      "metar": "METAR EGPD 031520Z 32015KT 8000 VCSH SCT030 M01/M04 Q1009 TEMPO 1800 SHSN BKN012",
      "taf": "TAF EGPD 031057Z 0312/0412 31012KT 9999 SCT012"
    },
    {
      "icao": "EGPF",
      "alert": "OK",
      "vis_m": 9999,
      "fzfg": false,
      "metar_trigger": false,
      "taf_trigger": false,
      "metar": "METAR EGPF 031520Z AUTO 33005KT 270V350 9999 FEW047 02/M05 Q1014",
      "taf": "TAF EGPF 031103Z 0312/0412 30009KT 9999 FEW030"
    },
    {
      "icao": "EHBK",
      "alert": "OK",
      "vis_m": 1100,
      "fzfg": false,
      "metar_trigger": false,
      "taf_trigger": false,
      "metar": "METAR EHBK 031525Z AUTO 24009KT 200V280 1100 R21/1900N SN FEW004/// SCT006/// BKN007/// M00/M01 Q1004 TEMPO 6000 NSW BKN005",
      "taf": "TAF EHBK 031122Z 0312/0418 25011KT 9999 SCT015"
    },
    {
      "icao": "EHEH",
      "alert": "OK",
      "vis_m": 9999,
      "fzfg": false,
      "metar_trigger": false,
      "taf_trigger": false,
      "metar": "METAR EHEH 031525Z AUTO 25007KT 220V280 9999 FEW005 OVC140 00/M01 Q1003 BLU NOSIG RMK TREND REMOTE BY EHWX",
      "taf": ""
    },
    {
      "icao": "EKBI",
      "alert": "OK",
      "vis_m": 9999,
      "fzfg": false,
      "metar_trigger": false,
      "taf_trigger": false,
      "metar": "METAR EKBI 031520Z AUTO 33004KT 290V360 9999 NCD M05/M08 Q0994",
      "taf": "TAF EKBI 031427Z 0315/0415 26005KT 9999 FEW030"
    },
    {
      "icao": "EKCH",
      "alert": "OK",
      "vis_m": 2800,
      "fzfg": false,
      "metar_trigger": false,
      "taf_trigger": false,
      "metar": "METAR EKCH 031520Z 28010KT 2800 -SHSN BKN025 M02/M04 Q0992 TEMPO 1200 SHSN BKN010",
      "taf": "TAF EKCH 031427Z 0315/0415 28010KT 9999 -SHSN BKN040"
    },
    {
      "icao": "ENAL",
      "alert": "OK",
      "vis_m": 9999,
      "fzfg": false,
      "metar_trigger": false,
      "taf_trigger": false,
      "metar": "METAR ENAL 031520Z 13007KT 090V170 CAVOK M07/M10 Q1002",
      "taf": "TAF ENAL 031400Z 0315/0324 07008KT CAVOK"
    },
    {
      "icao": "ENBR",
      "alert": "OK",
      "vis_m": 9999,
      "fzfg": false,
      "metar_trigger": false,
      "taf_trigger": false,
      "metar": "METAR ENBR 031520Z 36004KT CAVOK M05/M14 Q1000 NOSIG RMK WIND 1200FT 04009KT",
      "taf": "TAF ENBR 031100Z 0312/0412 01008KT CAVOK"
    },
    {
      "icao": "ENGM",
      "alert": "OK",
      "vis_m": 9000,
      "fzfg": false,
      "metar_trigger": false,
      "taf_trigger": false,
      "metar": "METAR ENGM 031520Z 01013KT 9000 -SHSN FEW032 BKN047 M09/M12 Q0996 TEMPO 4000",
      "taf": "TAF ENGM 031100Z 0312/0412 36015KT 9000 -SN BKN040"
    },
    {
      "icao": "ENHD",
      "alert": "OK",
      "vis_m": 9999,
      "fzfg": false,
      "metar_trigger": false,
      "taf_trigger": false,
      "metar": "METAR ENHD 031520Z 05007KT CAVOK M04/M12 Q0999",
      "taf": "TAF ENHD 031400Z 0315/0323 06009KT CAVOK"
    },
    {
      "icao": "ENTC",
      "alert": "OK",
      "vis_m": 9999,
      "fzfg": false,
      "metar_trigger": false,
      "taf_trigger": false,
      "metar": "METAR ENTC 031520Z 18010KT 9999 SCT031 M05/M09 Q1002 NOSIG RMK WIND 2600FT 18016KT",
      "taf": "TAF ENTC 031100Z 0312/0412 19009KT 9999 FEW020 BKN050"
    },
    {
      "icao": "ENTO",
      "alert": "OK",
      "vis_m": 9999,
      "fzfg": false,
      "metar_trigger": false,
      "taf_trigger": false,
      "metar": "METAR ENTO 031520Z 01014KT 9999 -SN SCT023 BKN032 M07/M11 Q0996 NOSIG",
      "taf": "TAF ENTO 031100Z 0312/0412 01015KT 8000 -SN BKN025"
    },
    {
      "icao": "ENVA",
      "alert": "OK",
      "vis_m": 9999,
      "fzfg": false,
      "metar_trigger": false,
      "taf_trigger": false,
      "metar": "METAR ENVA 031520Z 12008KT 9999 FEW001 M14/M16 Q1005 RMK WIND 670FT 14005KT",
      "taf": "TAF ENVA 031100Z 0312/0412 12008KT CAVOK"
    },
    {
      "icao": "ENZV",
      "alert": "OK",
      "vis_m": 9999,
      "fzfg": false,
      "metar_trigger": false,
      "taf_trigger": false,
      "metar": "METAR ENZV 031520Z 04008KT CAVOK M04/M13 Q0999 NOSIG",
      "taf": "TAF ENZV 031100Z 0312/0412 03010KT CAVOK"
    },
    {
      "icao": "EPGD",
      "alert": "OK",
      "vis_m": 9999,
      "fzfg": false,
      "metar_trigger": false,
      "taf_trigger": false,
      "metar": "METAR EPGD 031530Z 23011KT CAVOK M03/M08 Q0991",
      "taf": ""
    },
    {
      "icao": "EPKK",
      "alert": "OK",
      "vis_m": 9999,
      "fzfg": false,
      "metar_trigger": false,
      "taf_trigger": false,
      "metar": "METAR EPKK 031530Z 22008KT 9999 SCT044 01/M08 Q1002",
      "taf": "TAF EPKK 031430Z 0315/0415 24013KT CAVOK"
    },
    {
      "icao": "EPKT",
      "alert": "OK",
      "vis_m": 9999,
      "fzfg": false,
      "metar_trigger": false,
      "taf_trigger": false,
      "metar": "METAR EPKT 031530Z 21012KT 9999 BKN039 00/M05 Q1001",
      "taf": "TAF EPKT 031130Z 0312/0412 24013KT 9999 SCT040"
    },
    {
      "icao": "EPLB",
      "alert": "OK",
      "vis_m": 9999,
      "fzfg": false,
      "metar_trigger": false,
      "taf_trigger": false,
      "metar": "METAR EPLB 031530Z 23011KT 9999 DRSN FEW016 SCT032 BKN041 M01/M06 Q1000",
      "taf": "TAF EPLB 031130Z 0312/0412 24015KT 9999 BKN040"
    },
    {
      "icao": "EPMO",
      "alert": "OK",
      "vis_m": 1200,
      "fzfg": false,
      "metar_trigger": false,
      "taf_trigger": false,
      "metar": "METAR EPMO 031530Z 20007KT 1200 R08/1600D SHSN BR SCT005 BKN017CB M01/M01 Q0997",
      "taf": "TAF EPMO 031130Z 0312/0412 24015KT 9999 BKN030"
    },
    {
      "icao": "EPPO",
      "alert": "OK",
      "vis_m": 3200,
      "fzfg": false,
      "metar_trigger": false,
      "taf_trigger": false,
      "metar": "METAR EPPO 031530Z 26011KT 3200 -SN BR BKN005 M00/M01 Q0996",
      "taf": "TAF EPPO 031130Z 0312/0412 23014KT 9999 FEW017"
    },
    {
      "icao": "EPRA",
      "alert": "OK",
      "vis_m": 9999,
      "fzfg": false,
      "metar_trigger": false,
      "taf_trigger": false,
      "metar": "METAR EPRA 031530Z 20007KT 9999 SCT032 BKN048 M01/M05 Q0999",
      "taf": "TAF EPRA 031430Z 0315/0324 24012KT 9999 BKN030"
    },
    {
      "icao": "EPRZ",
      "alert": "OK",
      "vis_m": 9999,
      "fzfg": false,
      "metar_trigger": false,
      "taf_trigger": false,
      "metar": "METAR EPRZ 031530Z 21008KT CAVOK M01/M07 Q1003",
      "taf": ""
    },
    {
      "icao": "EPSC",
      "alert": "OK",
      "vis_m": 9999,
      "fzfg": false,
      "metar_trigger": false,
      "taf_trigger": false,
      "metar": "METAR EPSC 031530Z 26004KT 230V290 CAVOK M02/M07 Q0994",
      "taf": "TAF EPSC 031130Z 0312/0412 24008KT 9999 SCT020"
    },
    {
      "icao": "EPSY",
      "alert": "OK",
      "vis_m": 9999,
      "fzfg": false,
      "metar_trigger": false,
      "taf_trigger": false,
      "metar": "METAR EPSY 031530Z 22009KT CAVOK M04/M07 Q0994",
      "taf": "TAF EPSY 031430Z 0315/0324 23010KT CAVOK"
    },
    {
      "icao": "EPWA",
      "alert": "OK",
      "vis_m": 3500,
      "fzfg": false,
      "metar_trigger": false,
      "taf_trigger": false,
      "metar": "METAR EPWA 031530Z 22008KT 3500 SHSN BKN014CB M01/M02 Q0998 TEMPO 2000 SHSN",
      "taf": "TAF EPWA 031430Z 0315/0415 23012KT 9999 BKN030"
    },
    {
      "icao": "EPWR",
      "alert": "OK",
      "vis_m": 9999,
      "fzfg": false,
      "metar_trigger": false,
      "taf_trigger": false,
      "metar": "METAR EPWR 031530Z 23014KT CAVOK 01/M06 Q1000",
      "taf": "TAF EPWR 031430Z 0315/0415 24015KT 9999 SCT040"
    },
    {
      "icao": "ESGG",
      "alert": "OK",
      "vis_m": 3200,
      "fzfg": false,
      "metar_trigger": false,
      "taf_trigger": false,
      "metar": "METAR ESGG 031520Z 34010KT 3200 -SN BKN005 OVC028 M07/M09 Q0991",
      "taf": "TAF ESGG 031430Z 0315/0415 34009KT 5000 -SN SCT010 BKN020"
    },
    {
      "icao": "ESKN",
      "alert": "OK",
      "vis_m": 900,
      "fzfg": false,
      "metar_trigger": false,
      "taf_trigger": false,
      "metar": "METAR ESKN 031520Z 01008KT 340V040 0900 R08/P2000N R26/P2000N SN VV009 M02/M02 Q0987",
      "taf": "TAF ESKN 031430Z 0315/0415 01012G22KT 7000 -SN SCT008 BKN015"
    },
    {
      "icao": "ESMS",
      "alert": "OK",
      "vis_m": 9999,
      "fzfg": false,
      "metar_trigger": false,
      "taf_trigger": false,
      "metar": "METAR ESMS 031520Z 26010KT 9999 SCT023 M03/M05 Q0991",
      "taf": "TAF ESMS 031427Z 0315/0415 30010KT 9999 -SN BKN016"
    },
    {
      "icao": "ESSA",
      "alert": "OK",
      "vis_m": 9999,
      "fzfg": false,
      "metar_trigger": false,
      "taf_trigger": false,
      "metar": "METAR ESSA 031520Z 03017KT 9999 OVC005 M03/M04 Q0989 TEMPO 2000 SN VV015",
      "taf": "TAF ESSA 031430Z 0315/0415 02016KT 9000 -SN BKN007"
    },
    {
      "icao": "EYKA",
      "alert": "OK",
      "vis_m": 9000,
      "fzfg": false,
      "metar_trigger": false,
      "taf_trigger": false,
      "metar": "METAR EYKA 031550Z 23006KT 190V260 9000 -SN BKN020 OVC025 M01/M04 Q0992",
      "taf": ""
    },
    {
      "icao": "EYPA",
      "alert": "OK",
      "vis_m": 9999,
      "fzfg": false,
      "metar_trigger": false,
      "taf_trigger": false,
      "metar": "METAR EYPA 031550Z 20009KT 180V240 9999 -SHSN SCT007 BKN014CB BKN020 M00/M01 Q0987",
      "taf": ""
    },
    {
      "icao": "EYVI",
      "alert": "OK",
      "vis_m": 9999,
      "fzfg": false,
      "metar_trigger": false,
      "taf_trigger": false,
      "metar": "METAR EYVI 031550Z 22011KT 9999 -SHSN FEW010 BKN034CB M02/M03 Q0992 NOSIG",
      "taf": "TAF EYVI 031100Z 0312/0412 22010KT 9000 BKN010"
    },
    {
      "icao": "GCFV",
      "alert": "OK",
      "vis_m": 9999,
      "fzfg": false,
      "metar_trigger": false,
      "taf_trigger": false,
      "metar": "METAR GCFV 031530Z 25021KT 9999 SCT030 BKN045 22/14 Q1006",
      "taf": "TAF GCFV 031400Z 0315/0415 27020KT 9999 SCT025 TX23/0414Z TN17/0406Z"
    },
    {
      "icao": "GCLP",
      "alert": "OK",
      "vis_m": 9999,
      "fzfg": false,
      "metar_trigger": false,
      "taf_trigger": false,
      "metar": "METAR GCLP 031530Z 13006KT 080V160 9999 FEW040 21/14 Q1007 NOSIG",
      "taf": "TAF GCLP 031400Z 0315/0415 VRB08KT 9999 SCT030 TX22/0414Z TN16/0406Z"
    },
    {
      "icao": "GCTS",
      "alert": "OK",
      "vis_m": 9999,
      "fzfg": false,
      "metar_trigger": false,
      "taf_trigger": false,
      "metar": "METAR GCTS 031530Z 30021KT 9999 SCT050 21/14 Q1007 WS R25 NOSIG",
      "taf": "TAF GCTS 031400Z 0315/0415 28024KT 9999 SCT025 TX24/0414Z TN18/0406Z"
    },
    {
      "icao": "GMAD",
      "alert": "OK",
      "vis_m": 6000,
      "fzfg": false,
      "metar_trigger": false,
      "taf_trigger": false,
      "metar": "METAR GMAD 031530Z 21017KT 6000 FEW010 SCT016 BKN026TCU 18/16 Q1004 TEMPO 4000 RA",
      "taf": "TAF GMAD 031100Z 0312/0418 24013KT 6000 BKN20TCU BKN080"
    },
    {
      "icao": "GMMN",
      "alert": "OK",
      "vis_m": 9999,
      "fzfg": false,
      "metar_trigger": false,
      "taf_trigger": false,
      "metar": "METAR GMMN 031530Z 22014KT 9999 BKN030 17/13 Q0998 NOSIG",
      "taf": "TAF GMMN 031100Z 0312/0418 18016KT 9999 SCT020 BKN040"
    },
    {
      "icao": "GMMX",
      "alert": "OK",
      "vis_m": 9999,
      "fzfg": false,
      "metar_trigger": false,
      "taf_trigger": false,
      "metar": "METAR GMMX 031530Z 30004KT 250V350 9999 SCT016 BKN080 18/11 Q1000 NOSIG",
      "taf": "TAF GMMX 031100Z 0312/0418 12006KT 8000 SCT016 BKN023"
    },
    {
      "icao": "HEGN",
      "alert": "OK",
      "vis_m": 9999,
      "fzfg": false,
      "metar_trigger": false,
      "taf_trigger": false,
      "metar": "METAR HEGN 031500Z 36008KT CAVOK 20/08 Q1021 NOSIG",
      "taf": "TAF HEGN 031115Z 0312/0418 02015KT CAVOK"
    },
    {
      "icao": "HEMA",
      "alert": "OK",
      "vis_m": 9999,
      "fzfg": false,
      "metar_trigger": false,
      "taf_trigger": false,
      "metar": "METAR HEMA 031500Z 32020KT CAVOK 20/12 Q1020 NOSIG",
      "taf": "TAF HEMA 031115Z 0312/0418 36018KT CAVOK"
    },
    {
      "icao": "HESH",
      "alert": "OK",
      "vis_m": 9999,
      "fzfg": false,
      "metar_trigger": false,
      "taf_trigger": false,
      "metar": "METAR HESH 031500Z 35010KT CAVOK 22/10 Q1021 NOSIG",
      "taf": "TAF HESH 031115Z 0312/0418 03015KT CAVOK"
    },
    {
      "icao": "HESX",
      "alert": "OK",
      "vis_m": 9999,
      "fzfg": false,
      "metar_trigger": false,
      "taf_trigger": false,
      "metar": "METAR HESX 031500Z 03012KT CAVOK 15/05 Q1024 NOSIG",
      "taf": "TAF HESX 031115Z 0312/0418 05007G17KT CAVOK"
    },
    {
      "icao": "LATI",
      "alert": "OK",
      "vis_m": 9999,
      "fzfg": false,
      "metar_trigger": false,
      "taf_trigger": false,
      "metar": "METAR LATI 031550Z 12008KT 9999 BKN020 OVC068 14/10 Q1009 NOSIG",
      "taf": "TAF LATI 031100Z 0312/0412 13010KT 9999 FEW010 SCT025 OVC050 TX16/0412Z TN09/0403Z"
    },
    {
      "icao": "LBPD",
      "alert": "OK",
      "vis_m": 9999,
      "fzfg": false,
      "metar_trigger": false,
      "taf_trigger": false,
      "metar": "METAR LBPD 031530Z AUTO VRB04KT 9999 OVC100/// 11/01 Q1007 NOSIG",
      "taf": "TAF LBPD 031100Z 0312/0412 VRB03KT 9999 SCT020 BKN080"
    },
    {
      "icao": "LBSF",
      "alert": "OK",
      "vis_m": 9999,
      "fzfg": false,
      "metar_trigger": false,
      "taf_trigger": false,
      "metar": "METAR LBSF 031530Z 33006KT 220V030 9999 BKN053 11/03 Q1007 NOSIG",
      "taf": "TAF LBSF 031100Z 0312/0412 20012KT 9999 SCT025 BKN050"
    },
    {
      "icao": "LBWN",
      "alert": "OK",
      "vis_m": 9999,
      "fzfg": false,
      "metar_trigger": false,
      "taf_trigger": false,
      "metar": "METAR LBWN 031530Z AUTO 26011KT 9999 NSC 14/05 Q1006 NOSIG",
      "taf": "TAF LBWN 031100Z 0312/0412 23012KT CAVOK"
    },
    {
      "icao": "LCLK",
      "alert": "OK",
      "vis_m": 9999,
      "fzfg": false,
      "metar_trigger": false,
      "taf_trigger": false,
      "metar": "METAR LCLK 031530Z 00000KT 9999 FEW030 BKN050 16/07 Q1027 NOSIG",
      "taf": "TAF LCLK 031130Z 0312/0412 14010KT 9999 FEW030 SCT050"
    },
    {
      "icao": "LCPH",
      "alert": "OK",
      "vis_m": 9999,
      "fzfg": false,
      "metar_trigger": false,
      "taf_trigger": false,
      "metar": "METAR LCPH 031530Z 08003KT 020V100 9999 BKN050 15/08 Q1027 NOSIG",
      "taf": "TAF LCPH 031130Z 0312/0412 17010KT 9999 FEW030 SCT050"
    },
    {
      "icao": "LEAL",
      "alert": "OK",
      "vis_m": 9999,
      "fzfg": false,
      "metar_trigger": false,
      "taf_trigger": false,
      "metar": "METAR LEAL 031530Z 00000KT 9999 BKN035 17/12 Q1003 NOSIG",
      "taf": "TAF LEAL 031100Z 0312/0412 08009KT 9999 SCT020 TX17/0314Z TN11/0406Z"
    },
    {
      "icao": "LEBB",
      "alert": "OK",
      "vis_m": 9999,
      "fzfg": false,
      "metar_trigger": false,
      "taf_trigger": false,
      "metar": "METAR LEBB 031530Z 09004KT 030V140 9999 -RA FEW019 SCT028 BKN042 07/04 Q1011 NOSIG",
      "taf": "TAF LEBB 031100Z 0312/0412 VRB03KT 9000 SCT010 BKN020 TX07/0312Z TNM00/0406Z"
    },
    {
      "icao": "LEBL",
      "alert": "OK",
      "vis_m": 9999,
      "fzfg": false,
      "metar_trigger": false,
      "taf_trigger": false,
      "metar": "METAR LEBL 031530Z 07009KT 9999 BKN025 11/07 Q1006 NOSIG",
      "taf": "TAF LEBL 031100Z 0312/0412 07010KT 9999 BKN025 TX12/0312Z TN08/0406Z"
    },
    {
      "icao": "LECH",
      "alert": "OK",
      "vis_m": 9000,
      "fzfg": false,
      "metar_trigger": false,
      "taf_trigger": false,
      "metar": "METAR LECH 031530Z AUTO 08011KT 9000 OVC016 11/09 Q1005",
      "taf": ""
    },
    {
      "icao": "LEMD",
      "alert": "OK",
      "vis_m": 9999,
      "fzfg": false,
      "metar_trigger": false,
      "taf_trigger": false,
      "metar": "METAR LEMD 031530Z 34004KT CAVOK 13/07 Q1003 NOSIG",
      "taf": "TAF LEMD 031100Z 0312/0418 VRB03KT 9999 FEW045 TX12/0314Z TN03/0407Z"
    },
    {
      "icao": "LEMG",
      "alert": "OK",
      "vis_m": 9999,
      "fzfg": false,
      "metar_trigger": false,
      "taf_trigger": false,
      "metar": "METAR LEMG 031530Z 13006KT 9999 FEW025 BKN075 16/12 Q1001 NOSIG",
      "taf": "TAF LEMG 031100Z 0312/0412 13010KT 9999 FEW030 TX18/0314Z TN11/0407Z"
    },
    {
      "icao": "LEVC",
      "alert": "OK",
      "vis_m": 9999,
      "fzfg": false,
      "metar_trigger": false,
      "taf_trigger": false,
      "metar": "METAR LEVC 031530Z 09008KT 9999 FEW020 14/11 Q1005 NOSIG",
      "taf": "TAF LEVC 031100Z 0312/0412 VRB05KT 9999 SCT020 TX15/0314Z TN08/0406Z"
    },
    {
      "icao": "LEXJ",
      "alert": "OK",
      "vis_m": 9999,
      "fzfg": false,
      "metar_trigger": false,
      "taf_trigger": false,
      "metar": "METAR LEXJ 031530Z 10010KT 070V140 9999 OVC040 07/04 Q1010",
      "taf": "TAF LEXJ 031400Z 0315/0415 08009KT 9000 SCT010 BKN020 TX08/0315Z TN03/0408Z"
    },
    {
      "icao": "LEZG",
      "alert": "OK",
      "vis_m": 7000,
      "fzfg": false,
      "metar_trigger": false,
      "taf_trigger": false,
      "metar": "METAR LEZG 031530Z 29003KT 260V320 7000 BKN070 08/07 Q1006 NOSIG",
      "taf": "TAF LEZG 031100Z 0312/0412 VRB04KT CAVOK TX10/0315Z TN02/0406Z"
    },
    {
      "icao": "LEZL",
      "alert": "OK",
      "vis_m": 9000,
      "fzfg": false,
      "metar_trigger": false,
      "taf_trigger": false,
      "metar": "METAR LEZL 031530Z 09008KT 9000 -RA FEW036 SCT048 16/14 Q1000 NOSIG",
      "taf": "TAF LEZL 031400Z 0315/0415 08011KT 9999 SCT030 TX19/0315Z TN09/0407Z"
    },
    {
      "icao": "LFBD",
      "alert": "OK",
      "vis_m": 9999,
      "fzfg": true,
      "metar_trigger": false,
      "taf_trigger": false,
      "metar": "METAR LFBD 031530Z AUTO 36007KT CAVOK 03/M01 Q1012",
      "taf": "TAF LFBD 030500Z 0306/0412 VRB03KT 0500 FZFG VV/// TX03/0313Z TNM04/0406Z"
    },
    {
      "icao": "LFLL",
      "alert": "OK",
      "vis_m": 9999,
      "fzfg": false,
      "metar_trigger": false,
      "taf_trigger": false,
      "metar": "METAR LFLL 031530Z 35008KT CAVOK 02/M06 Q1010 NOSIG",
      "taf": "TAF LFLL 031100Z 0312/0418 35007KT CAVOK"
    },
    {
      "icao": "LFLS",
      "alert": "OK",
      "vis_m": 9999,
      "fzfg": false,
      "metar_trigger": false,
      "taf_trigger": false,
      "metar": "METAR LFLS 031530Z AUTO 35005KT 310V020 CAVOK 01/M06 Q1009 NOSIG",
      "taf": "TAF LFLS 031400Z 0315/0415 35009KT CAVOK"
    },
    {
      "icao": "LFMN",
      "alert": "OK",
      "vis_m": 9999,
      "fzfg": false,
      "metar_trigger": false,
      "taf_trigger": false,
      "metar": "METAR LFMN 031530Z 18004KT 140V210 9999 FEW033 BKN260 12/06 Q1002 NOSIG",
      "taf": "TAF LFMN 031400Z 0315/0421 VRB02KT 9999 FEW033"
    },
    {
      "icao": "LFOB",
      "alert": "OK",
      "vis_m": 9999,
      "fzfg": false,
      "metar_trigger": false,
      "taf_trigger": false,
      "metar": "METAR LFOB 031530Z AUTO 29010KT CAVOK 02/M04 Q1010 NOSIG",
      "taf": "TAF LFOB 031100Z 0312/0412 28008KT CAVOK"
    },
    {
      "icao": "LFPO",
      "alert": "OK",
      "vis_m": 9999,
      "fzfg": false,
      "metar_trigger": false,
      "taf_trigger": false,
      "metar": "METAR LFPO 031530Z AUTO 32009KT CAVOK 03/M05 Q1010",
      "taf": ""
    },
    {
      "icao": "LFSB",
      "alert": "OK",
      "vis_m": 9999,
      "fzfg": false,
      "metar_trigger": false,
      "taf_trigger": false,
      "metar": "METAR LFSB 031530Z AUTO 26013KT 9999 FEW050/// BKN088/// ///TCU 01/M05 Q1009 NOSIG",
      "taf": "TAF LFSB 031100Z 0312/0412 27010KT 9999 FEW025"
    },
    {
      "icao": "LGAV",
      "alert": "OK",
      "vis_m": 9999,
      "fzfg": false,
      "metar_trigger": false,
      "taf_trigger": false,
      "metar": "METAR LGAV 031520Z 22021KT 9999 FEW025 SCT060 17/10 Q1015 NOSIG",
      "taf": "TAF LGAV 031100Z 0312/0412 21018KT 9999 FEW025 SCT060"
    },
    {
      "icao": "LGTS",
      "alert": "OK",
      "vis_m": 9999,
      "fzfg": false,
      "metar_trigger": false,
      "taf_trigger": false,
      "metar": "METAR LGTS 031520Z VRB03KT 9999 FEW015 SCT025 09/07 Q1010 NOSIG",
      "taf": "TAF LGTS 031100Z 0312/0412 VRB03KT 9999 SCT025"
    },
    {
      "icao": "LHBP",
      "alert": "OK",
      "vis_m": 9999,
      "fzfg": false,
      "metar_trigger": false,
      "taf_trigger": false,
      "metar": "METAR LHBP 031530Z 18005KT CAVOK 01/M07 Q1008 NOSIG",
      "taf": "TAF LHBP 031115Z 0312/0412 30014KT CAVOK"
    },
    {
      "icao": "LHDC",
      "alert": "OK",
      "vis_m": 9999,
      "fzfg": false,
      "metar_trigger": false,
      "taf_trigger": false,
      "metar": "METAR LHDC 031515Z AUTO 22005KT 170V250 CAVOK 00/M05 Q1009 NOSIG",
      "taf": "TAF LHDC 031415Z 0315/0324 25010KT CAVOK"
    },
    {
      "icao": "LIBD",
      "alert": "OK",
      "vis_m": 9999,
      "fzfg": false,
      "metar_trigger": false,
      "taf_trigger": false,
      "metar": "METAR LIBD 031520Z 21009KT CAVOK 17/09 Q1006",
      "taf": "TAF LIBD 031100Z 0312/0412 21012KT 9999 FEW040"
    },
    {
      "icao": "LIBG",
      "alert": "OK",
      "vis_m": 9999,
      "fzfg": false,
      "metar_trigger": false,
      "taf_trigger": false,
      "metar": "METAR LIBG 031450Z 22013KT 9999 FEW030 17/12 Q1007",
      "taf": "TAF LIBG 031400Z 0315/0324 22012KT 9999 FEW040"
    },
    {
      "icao": "LIBP",
      "alert": "OK",
      "vis_m": 8000,
      "fzfg": false,
      "metar_trigger": false,
      "taf_trigger": false,
      "metar": "METAR LIBP 031520Z AUTO 06004KT 010V100 8000 OVC067/// 12/10 Q1004",
      "taf": "TAF LIBP 031100Z 0312/0412 35007KT 9999 SCT020"
    },
    {
      "icao": "LIBR",
      "alert": "OK",
      "vis_m": 9999,
      "fzfg": false,
      "metar_trigger": false,
      "taf_trigger": false,
      "metar": "METAR LIBR 031520Z 17007KT CAVOK 15/10 Q1008",
      "taf": "TAF LIBR 031100Z 0312/0412 20014KT 9999 FEW030"
    },
    {
      "icao": "LICA",
      "alert": "OK",
      "vis_m": 9999,
      "fzfg": false,
      "metar_trigger": false,
      "taf_trigger": false,
      "metar": "METAR LICA 031520Z AUTO 28004KT 9999 NCD 17/10 Q1010",
      "taf": "TAF LICA 031100Z 0312/0412 27010KT 9999 SCT040"
    },
    {
      "icao": "LICC",
      "alert": "OK",
      "vis_m": 9999,
      "fzfg": false,
      "metar_trigger": false,
      "taf_trigger": false,
      "metar": "METAR LICC 031520Z 24012KT 9999 SCT030 17/12 Q1011",
      "taf": "TAF LICC 031100Z 0312/0412 26015KT 9999 SCT030"
    },
    {
      "icao": "LICJ",
      "alert": "OK",
      "vis_m": 9999,
      "fzfg": false,
      "metar_trigger": false,
      "taf_trigger": false,
      "metar": "METAR LICJ 031520Z AUTO 19019KT 9999 NCD 18/07 Q1008",
      "taf": "TAF LICJ 031100Z 0312/0412 19015G30KT CAVOK"
    },
    {
      "icao": "LIMC",
      "alert": "OK",
      "vis_m": 2000,
      "fzfg": true,
      "metar_trigger": false,
      "taf_trigger": false,
      "metar": "METAR LIMC 031520Z 20004KT 2000 R35R/1900D R17L/P2000N R35L/0350D PRFG NSC 00/M01 Q1003 BECMG 800 FZFG",
      "taf": ""
    },
    {
      "icao": "LIME",
      "alert": "OK",
      "vis_m": 100,
      "fzfg": true,
      "metar_trigger": false,
      "taf_trigger": false,
      "metar": "METAR LIME 031520Z 18003KT 150V230 0100 R28/0650D FG BKN001 00/00 Q1003 NOSIG",
      "taf": "TAF LIME 031100Z 0312/0412 VRB04KT 0500 FZFG BKN001"
    },
    {
      "icao": "LIMF",
      "alert": "OK",
      "vis_m": 9999,
      "fzfg": false,
      "metar_trigger": false,
      "taf_trigger": false,
      "metar": "METAR LIMF 031520Z 06004KT CAVOK 06/M01 Q1002",
      "taf": "TAF LIMF 031100Z 0312/0412 VRB04KT CAVOK"
    },
    {
      "icao": "LIMJ",
      "alert": "OK",
      "vis_m": 9999,
      "fzfg": false,
      "metar_trigger": false,
      "taf_trigger": false,
      "metar": "METAR LIMJ 031520Z 05010KT 9999 SCT038 11/M01 Q1002",
      "taf": "TAF LIMJ 031100Z 0312/0412 03013KT CAVOK"
    },
    {
      "icao": "LIPE",
      "alert": "OK",
      "vis_m": 1000,
      "fzfg": false,
      "metar_trigger": false,
      "taf_trigger": false,
      "metar": "METAR LIPE 031520Z 22004KT 200V270 1000 R12/P2000N R30/P2000N BR SCT002 BKN003 02/02 Q1005",
      "taf": "TAF LIPE 031100Z 0312/0412 VRB05KT 0500 FG BKN001"
    },
    {
      "icao": "LIPH",
      "alert": "OK",
      "vis_m": 9999,
      "fzfg": false,
      "metar_trigger": false,
      "taf_trigger": false,
      "metar": "METAR LIPH 031520Z 06003KT 020V090 9999 FEW040 08/01 Q1004",
      "taf": "TAF LIPH 031100Z 0312/0412 02006KT 9999 FEW030"
    },
    {
      "icao": "LIPQ",
      "alert": "OK",
      "vis_m": 9999,
      "fzfg": false,
      "metar_trigger": false,
      "taf_trigger": false,
      "metar": "METAR LIPQ 031520Z AUTO 08003KT 040V110 9999 BKN040/// 08/M00 Q1004",
      "taf": "TAF LIPQ 031100Z 0312/0412 08008KT 9999 SCT050"
    },
    {
      "icao": "LIPR",
      "alert": "OK",
      "vis_m": 600,
      "fzfg": false,
      "metar_trigger": false,
      "taf_trigger": false,
      "metar": "METAR LIPR 031520Z 30003KT 0600 R30/0900N FG OVC002 03/03 Q1004",
      "taf": "TAF LIPR 031100Z 0312/0412 VRB05KT 0600 FG BKN002"
    },
    {
      "icao": "LIPX",
      "alert": "OK",
      "vis_m": 3000,
      "fzfg": false,
      "metar_trigger": false,
      "taf_trigger": false,
      "metar": "METAR LIPX 031520Z 20003KT 3000 BR NSC 03/02 Q1004",
      "taf": "TAF LIPX 031100Z 0312/0412 VRB04KT 3000 BR BKN015"
    },
    {
      "icao": "LIPY",
      "alert": "OK",
      "vis_m": 3200,
      "fzfg": false,
      "metar_trigger": false,
      "taf_trigger": false,
      "metar": "METAR LIPY 031520Z AUTO 01002KT 3200 BR FEW240/// 07/06 Q1004",
      "taf": "TAF LIPY 031100Z 0312/0412 32010KT 5000 BR BKN010"
    },
    {
      "icao": "LIPZ",
      "alert": "OK",
      "vis_m": 9999,
      "fzfg": false,
      "metar_trigger": false,
      "taf_trigger": false,
      "metar": "METAR LIPZ 031520Z 25003KT 190V290 9999 FEW045 06/02 Q1004 NOSIG",
      "taf": "TAF LIPZ 031100Z 0312/0418 02008KT 9999 FEW030"
    },
    {
      "icao": "LIRF",
      "alert": "OK",
      "vis_m": 9999,
      "fzfg": false,
      "metar_trigger": false,
      "taf_trigger": false,
      "metar": "METAR LIRF 031520Z 23010KT 9999 FEW015 BKN030 15/12 Q1005 NOSIG",
      "taf": "TAF LIRF 031100Z 0312/0418 24015KT 9999 SCT030"
    },
    {
      "icao": "LIRN",
      "alert": "OK",
      "vis_m": 9999,
      "fzfg": false,
      "metar_trigger": false,
      "taf_trigger": false,
      "metar": "METAR LIRN 031520Z 21010KT 9999 SCT020 BKN050 16/13 Q1007 NOSIG",
      "taf": "TAF LIRN 031100Z 0312/0412 22014KT 9999 SCT030"
    },
    {
      "icao": "LIRP",
      "alert": "OK",
      "vis_m": 9999,
      "fzfg": false,
      "metar_trigger": false,
      "taf_trigger": false,
      "metar": "METAR LIRP 031515Z 23014KT 9999 SCT035 SCT080 11/05 Q1002 NOSIG",
      "taf": "TAF LIRP 031100Z 0312/0412 11008KT 9999 FEW020 SCT040"
    },
    {
      "icao": "LIRZ",
      "alert": "OK",
      "vis_m": 9999,
      "fzfg": false,
      "metar_trigger": false,
      "taf_trigger": false,
      "metar": "METAR LIRZ 031520Z AUTO 18006KT 9999 BKN024/// BKN079/// 12/08 Q1003",
      "taf": "TAF LIRZ 031100Z 0312/0412 19013KT 9999 SCT030"
    },
    {
      "icao": "LJLJ",
      "alert": "OK",
      "vis_m": 9999,
      "fzfg": false,
      "metar_trigger": false,
      "taf_trigger": false,
      "metar": "METAR LJLJ 031530Z 11005KT 9999 SCT020 BKN056 02/M01 Q1005 NOSIG",
      "taf": "TAF LJLJ 031100Z 0312/0412 VRB02KT 9999 FEW007 BKN017"
    },
    {
      "icao": "LKMT",
      "alert": "OK",
      "vis_m": 9999,
      "fzfg": false,
      "metar_trigger": false,
      "taf_trigger": false,
      "metar": "METAR LKMT 031530Z 20013KT 9999 FEW045 00/M07 Q1003 NOSIG",
      "taf": "TAF LKMT 031100Z 0312/0412 22014KT 9999 SCT040"
    },
    {
      "icao": "LKPR",
      "alert": "OK",
      "vis_m": 9999,
      "fzfg": false,
      "metar_trigger": false,
      "taf_trigger": false,
      "metar": "METAR LKPR 031530Z 21019KT 9999 FEW030 M02/M06 Q1001 NOSIG",
      "taf": "TAF LKPR 031400Z 0315/0421 22018KT 9999 BKN030"
    },
    {
      "icao": "LLBG",
      "alert": "OK",
      "vis_m": 9999,
      "fzfg": false,
      "metar_trigger": false,
      "taf_trigger": false,
      "metar": "METAR LLBG 031520Z 07004KT CAVOK 15/07 Q1025 NOSIG",
      "taf": "TAF LLBG 031105Z 0312/0412 36012KT CAVOK"
    },
    {
      "icao": "LMML",
      "alert": "OK",
      "vis_m": 9999,
      "fzfg": false,
      "metar_trigger": false,
      "taf_trigger": false,
      "metar": "METAR LMML 031545Z 21013KT 9999 FEW020 16/11 Q1013 NOSIG",
      "taf": "TAF LMML 031100Z 0312/0412 22020KT 9999 FEW020"
    },
    {
      "icao": "LOWW",
      "alert": "OK",
      "vis_m": 9999,
      "fzfg": false,
      "metar_trigger": false,
      "taf_trigger": false,
      "metar": "METAR LOWW 031520Z 16011KT CAVOK 01/M03 Q1005 NOSIG",
      "taf": "TAF LOWW 031415Z 0315/0421 15010KT 9999 FEW050 TX03/0315Z TNM04/0421Z"
    },
    {
      "icao": "LPFR",
      "alert": "OK",
      "vis_m": 9000,
      "fzfg": false,
      "metar_trigger": false,
      "taf_trigger": false,
      "metar": "METAR LPFR 031530Z 13009KT 9000 FEW012 SCT030 16/14 Q0997",
      "taf": "TAF LPFR 031100Z 0312/0412 16012KT 9999 SCT015 SCT030"
    },
    {
      "icao": "LPMA",
      "alert": "OK",
      "vis_m": 9999,
      "fzfg": false,
      "metar_trigger": false,
      "taf_trigger": false,
      "metar": "METAR LPMA 031530Z VRB04G14KT 9999 FEW015 21/11 Q1000",
      "taf": "TAF LPMA 031100Z 0312/0412 29007KT 9999 SCT015"
    },
    {
      "icao": "LPPR",
      "alert": "OK",
      "vis_m": 9999,
      "fzfg": false,
      "metar_trigger": false,
      "taf_trigger": false,
      "metar": "METAR LPPR 031530Z 09008KT 070V130 CAVOK 17/10 Q1000",
      "taf": "TAF LPPR 031100Z 0312/0412 08010KT 9999 BKN045"
    },
    {
      "icao": "LPPS",
      "alert": "OK",
      "vis_m": 9999,
      "fzfg": false,
      "metar_trigger": false,
      "taf_trigger": false,
      "metar": "METAR LPPS 031530Z 29023G33KT 9999 SCT014 18/14 Q0999",
      "taf": "TAF LPPS 031100Z 0312/0418 29020KT 9999 SCT015 SCT030"
    },
    {
      "icao": "LPPT",
      "alert": "OK",
      "vis_m": 9999,
      "fzfg": false,
      "metar_trigger": false,
      "taf_trigger": false,
      "metar": "METAR LPPT 031530Z 08007G19KT 310V110 9999 BKN015 15/13 Q0997",
      "taf": "TAF LPPT 031100Z 0312/0418 10010KT 9999 SCT012 SCT018"
    },
    {
      "icao": "LQBK",
      "alert": "OK",
      "vis_m": 7000,
      "fzfg": false,
      "metar_trigger": false,
      "taf_trigger": false,
      "metar": "METAR LQBK 031530Z 30005KT 7000 NSC 00/00 Q1008 NOSIG",
      "taf": "TAF LQBK 031100Z 0312/0412 03005KT 9999 SCT015 BKN040 TX04/0313Z TNM01/0404Z"
    },
    {
      "icao": "LQSA",
      "alert": "OK",
      "vis_m": 6000,
      "fzfg": false,
      "metar_trigger": false,
      "taf_trigger": false,
      "metar": "METAR LQSA 031530Z 00000KT 6000 BKN005 OVC015 01/01 Q1007 NOSIG",
      "taf": ""
    },
    {
      "icao": "LQTZ",
      "alert": "OK",
      "vis_m": 9999,
      "fzfg": false,
      "metar_trigger": false,
      "taf_trigger": false,
      "metar": "METAR LQTZ 031530Z 10006KT 9999 FEW040 SCT055 02/01 Q1008",
      "taf": "TAF LQTZ 031100Z 0312/0412 27005KT 8000 SCT010 BKN025 TX02/0314Z TNM00/0406Z"
    },
    {
      "icao": "LRBC",
      "alert": "OK",
      "vis_m": 9999,
      "fzfg": false,
      "metar_trigger": false,
      "taf_trigger": false,
      "metar": "METAR LRBC 031530Z 27014KT CAVOK 04/M05 Q1005",
      "taf": "TAF LRBC 031400Z 0315/0324 27010KT CAVOK"
    },
    {
      "icao": "LRBS",
      "alert": "OK",
      "vis_m": 8000,
      "fzfg": false,
      "metar_trigger": false,
      "taf_trigger": false,
      "metar": "METAR LRBS 031530Z 33004KT 250V060 8000 -RA FEW015 BKN034 04/03 Q1007 NOSIG",
      "taf": "TAF LRBS 031100Z 0312/0412 VRB04KT 9999 BKN045"
    },
    {
      "icao": "LRBV",
      "alert": "OK",
      "vis_m": 9999,
      "fzfg": false,
      "metar_trigger": false,
      "taf_trigger": false,
      "metar": "METAR LRBV 031530Z 30008KT 9999 FEW011 SCT017 BKN021 00/M02 Q1008",
      "taf": "TAF LRBV 031400Z 0315/0324 35008KT 9999 BKN010 BKN020"
    },
    {
      "icao": "LRCL",
      "alert": "OK",
      "vis_m": 9999,
      "fzfg": false,
      "metar_trigger": false,
      "taf_trigger": false,
      "metar": "METAR LRCL 031530Z 36005KT 9999 BKN150 M04/M05 Q1009",
      "taf": "TAF LRCL 031400Z 0315/0324 VRB04KT 9999 SCT015 BKN045"
    },
    {
      "icao": "LRCV",
      "alert": "OK",
      "vis_m": 4500,
      "fzfg": false,
      "metar_trigger": false,
      "taf_trigger": false,
      "metar": "METAR LRCV 031530Z 29005KT 4500 BR NSC 02/02 Q1008",
      "taf": "TAF LRCV 031400Z 0315/0324 29006KT 3000 BR SCT005 BKN040"
    },
    {
      "icao": "LRIA",
      "alert": "OK",
      "vis_m": 9999,
      "fzfg": false,
      "metar_trigger": false,
      "taf_trigger": false,
      "metar": "METAR LRIA 031530Z 25003KT 200V280 CAVOK 05/01 Q1005",
      "taf": "TAF LRIA 031400Z 0315/0324 VRB04KT CAVOK"
    },
    {
      "icao": "LROP",
      "alert": "OK",
      "vis_m": 9999,
      "fzfg": false,
      "metar_trigger": false,
      "taf_trigger": false,
      "metar": "METAR LROP 031530Z 33005KT 290V350 CAVOK 03/03 Q1008 NOSIG",
      "taf": "TAF LROP 031100Z 0312/0412 VRB04KT 9999 BKN045"
    },
    {
      "icao": "LRSB",
      "alert": "OK",
      "vis_m": 9999,
      "fzfg": false,
      "metar_trigger": false,
      "taf_trigger": false,
      "metar": "METAR LRSB 031530Z 21008KT 9999 FEW080 M01/M02 Q1008 NOSIG",
      "taf": "TAF LRSB 031100Z 0312/0412 VRB04KT 9999 SCT020 BKN050"
    },
    {
      "icao": "LRSM",
      "alert": "OK",
      "vis_m": 9999,
      "fzfg": false,
      "metar_trigger": false,
      "taf_trigger": false,
      "metar": "METAR LRSM 031530Z AUTO 23008KT 9999 NCD 00/M04 Q1008",
      "taf": ""
    },
    {
      "icao": "LRSV",
      "alert": "OK",
      "vis_m": 9999,
      "fzfg": false,
      "metar_trigger": false,
      "taf_trigger": false,
      "metar": "METAR LRSV 031530Z 26008KT CAVOK 01/M06 Q1004",
      "taf": "TAF LRSV 031400Z 0315/0324 26010KT CAVOK"
    },
    {
      "icao": "LRTM",
      "alert": "OK",
      "vis_m": 7000,
      "fzfg": false,
      "metar_trigger": false,
      "taf_trigger": false,
      "metar": "METAR LRTM 031530Z VRB01KT 7000 FEW004 SCT013 M01/M02 Q1009",
      "taf": "TAF LRTM 031400Z 0315/0324 VRB04KT 9999 SCT010 BKN025"
    },
    {
      "icao": "LRTR",
      "alert": "OK",
      "vis_m": 9999,
      "fzfg": false,
      "metar_trigger": false,
      "taf_trigger": false,
      "metar": "METAR LRTR 031530Z 18002KT CAVOK 00/00 Q1010",
      "taf": "TAF LRTR 031100Z 0312/0412 30008KT 9999 SCT005 OVC015"
    },
    {
      "icao": "LTAC",
      "alert": "OK",
      "vis_m": 8000,
      "fzfg": false,
      "metar_trigger": false,
      "taf_trigger": false,
      "metar": "METAR LTAC 031520Z 29003KT 8000 BKN035 BKN080 M01/M07 Q1022 NOSIG RMK RWY21C 32003KT 270V340 RWY03L 28002KT RWY21R 30003KT 250V320 RWY03R 26003KT 220V280 RWY21L VRB01KT",
      "taf": "TAF LTAC 031040Z 0312/0412 VRB02KT 9999 SCT035 BKN100"
    },
    {
      "icao": "LTFM",
      "alert": "OK",
      "vis_m": 9999,
      "fzfg": false,
      "metar_trigger": false,
      "taf_trigger": false,
      "metar": "METAR LTFM 031520Z 21031G43KT 9999 SCT035 BKN080 12/07 Q1011 RESHRA NOSIG RMK RWY17L 21031G42KT RWY34L 20028G38KT RWY16R 21027G37KT RWY36 21030KT RWY18 21034G44KT",
      "taf": "TAF LTFM 031040Z 0312/0418 21033G48KT 9999 -SHRA SCT035 BKN080"
    },
    {
      "icao": "LUKK",
      "alert": "OK",
      "vis_m": 9999,
      "fzfg": false,
      "metar_trigger": false,
      "taf_trigger": false,
      "metar": "METAR LUKK 031530Z 26003KT CAVOK 02/M00 Q1005 NOSIG",
      "taf": "TAF LUKK 031115Z 0312/0412 VRB05KT 9999 SCT035"
    },
    {
      "icao": "LWOH",
      "alert": "OK",
      "vis_m": 9999,
      "fzfg": false,
      "metar_trigger": false,
      "taf_trigger": false,
      "metar": "METAR LWOH 031550Z 14013KT 9999 SCT020 BKN035 11/06 Q1009",
      "taf": "TAF LWOH 031125Z 0312/0412 14012KT 9999 SCT020 OVC035"
    },
    {
      "icao": "LWSK",
      "alert": "OK",
      "vis_m": 9999,
      "fzfg": false,
      "metar_trigger": false,
      "taf_trigger": false,
      "metar": "METAR LWSK 031550Z VRB02KT 9999 FEW040 BKN060 07/02 Q1007 NOSIG",
      "taf": "TAF LWSK 031450Z 0315/0415 VRB02KT 9999 FEW040 BKN060"
    },
    {
      "icao": "LYBE",
      "alert": "OK",
      "vis_m": 9999,
      "fzfg": false,
      "metar_trigger": false,
      "taf_trigger": false,
      "metar": "METAR LYBE 031530Z 12006KT 9999 FEW010 SCT020 00/M00 Q1011 NOSIG",
      "taf": ""
    },
    {
      "icao": "LYNI",
      "alert": "OK",
      "vis_m": 9999,
      "fzfg": false,
      "metar_trigger": false,
      "taf_trigger": false,
      "metar": "METAR LYNI 031530Z 32003KT 9999 -RA SCT010 OVC040 02/01 Q1011 NOSIG",
      "taf": "TAF LYNI 031100Z 0312/0412 33016KT 9999 SCT017 BKN035 OVC067 TX13/0411Z TN02/0324Z"
    },
    {
      "icao": "LYPG",
      "alert": "OK",
      "vis_m": 9999,
      "fzfg": false,
      "metar_trigger": false,
      "taf_trigger": false,
      "metar": "METAR LYPG 031530Z 10006KT 9999 -RA FEW020 SCT033 OVC070 11/10 Q1008 NOSIG",
      "taf": "TAF LYPG 031100Z 0312/0412 15009KT 9999 FEW020 BKN040 OVC070 TX13/0313Z TN08/0406Z"
    },
    {
      "icao": "LZIB",
      "alert": "OK",
      "vis_m": 9999,
      "fzfg": false,
      "metar_trigger": false,
      "taf_trigger": false,
      "metar": "METAR LZIB 031530Z 17010KT CAVOK 02/M03 Q1006 NOSIG",
      "taf": "TAF LZIB 031115Z 0312/0412 29016KT CAVOK"
    },
    {
      "icao": "LZKZ",
      "alert": "OK",
      "vis_m": 9999,
      "fzfg": false,
      "metar_trigger": false,
      "taf_trigger": false,
      "metar": "METAR LZKZ 031530Z 22010KT CAVOK 00/M08 Q1005 NOSIG",
      "taf": "TAF LZKZ 031115Z 0312/0412 24010KT 9999 FEW040"
    },
    {
      "icao": "LZTT",
      "alert": "OK",
      "vis_m": 9999,
      "fzfg": false,
      "metar_trigger": false,
      "taf_trigger": false,
      "metar": "METAR LZTT 031530Z 28012KT CAVOK M04/M11 Q1002 NOSIG",
      "taf": "TAF LZTT 031115Z 0312/0412 27022KT 9999 FEW010 BKN036"
    },
    {
      "icao": "OEJN",
      "alert": "OK",
      "vis_m": 9999,
      "fzfg": false,
      "metar_trigger": false,
      "taf_trigger": false,
      "metar": "METAR OEJN 031500Z 29008KT CAVOK 27/15 Q1015 NOSIG",
      "taf": "TAF OEJN 031100Z 0312/0418 31010KT CAVOK"
    },
    {
      "icao": "OEMA",
      "alert": "OK",
      "vis_m": 9999,
      "fzfg": false,
      "metar_trigger": false,
      "taf_trigger": false,
      "metar": "METAR OEMA 031500Z 29003KT CAVOK 26/05 Q1020 NOSIG",
      "taf": "TAF OEMA 031100Z 0312/0418 07008KT CAVOK"
    },
    {
      "icao": "OJAI",
      "alert": "OK",
      "vis_m": 5000,
      "fzfg": false,
      "metar_trigger": false,
      "taf_trigger": false,
      "metar": "METAR OJAI 031500Z 10005KT 5000 HZ NSC 10/01 Q1028 NOSIG",
      "taf": "TAF OJAI 031100Z 0312/0418 10012KT 5000 HZ FEW035"
    },
    {
      "icao": "OMAA",
      "alert": "OK",
      "vis_m": 9999,
      "fzfg": false,
      "metar_trigger": false,
      "taf_trigger": false,
      "metar": "METAR OMAA 031500Z 29008KT CAVOK 21/16 Q1019 NOSIG",
      "taf": "TAF OMAA 031100Z 0312/0418 32011KT 8000 NSC"
    },
    {
      "icao": "OMDB",
      "alert": "OK",
      "vis_m": 9999,
      "fzfg": false,
      "metar_trigger": false,
      "taf_trigger": false,
      "metar": "METAR OMDB 031530Z 26005KT 240V300 CAVOK 23/16 Q1018 NOSIG",
      "taf": "TAF OMDB 031100Z 0312/0418 30010KT 8000 NSC"
    },
    {
      "icao": "UAAA",
      "alert": "CRITICAL",
      "vis_m": 50,
      "fzfg": true,
      "metar_trigger": true,
      "taf_trigger": false,
      "metar": "METAR UAAA 031530Z 16002MPS 0050 R23L/0175N FZFG VV001 M01/M01 Q1023 NOSIG RMK QBB040",
      "taf": "TAF UAAA 031101Z 0312/0412 20003MPS 0600 FZFG VV003 TX02/0409Z TNM03/0402Z"
    },
    {
      "icao": "UBBB",
      "alert": "OK",
      "vis_m": 9999,
      "fzfg": false,
      "metar_trigger": false,
      "taf_trigger": false,
      "metar": "METAR UBBB 031530Z 18014KT CAVOK 05/00 Q1024 NOSIG",
      "taf": "TAF UBBB 031053Z 0312/0412 19014KT 9999 SCT030 TX06/0312Z TN01/0401Z"
    },
    {
      "icao": "UDSG",
      "alert": "OK",
      "vis_m": 9999,
      "fzfg": false,
      "metar_trigger": false,
      "taf_trigger": false,
      "metar": "METAR UDSG 031530Z 11002KT 9999 NSC M22/M25 Q1027 NOSIG",
      "taf": "TAF UDSG 031058Z 0312/0412 VRB06KT 9999 FEW040"
    },
    {
      "icao": "UDYZ",
      "alert": "OK",
      "vis_m": 9999,
      "fzfg": false,
      "metar_trigger": false,
      "taf_trigger": false,
      "metar": "METAR UDYZ 031530Z 36002KT 9999 NSC M11/M14 Q1030 NOSIG",
      "taf": "TAF UDYZ 031100Z 0312/0412 VRB06KT 9999 NSC"
    },
    {
      "icao": "UGKO",
      "alert": "OK",
      "vis_m": 9999,
      "fzfg": false,
      "metar_trigger": false,
      "taf_trigger": false,
      "metar": "METAR UGKO 031530Z 09008KT CAVOK 02/M06 Q1023 NOSIG",
      "taf": "TAF UGKO 031100Z 0312/0412 08010KT CAVOK TX07/0412Z TNM02/0402Z"
    }
  ]
}