{
  "ts_utc": "2026-01-22T17:34:48Z",
  "threshold_m": 150,
  "source": "stations_override.txt (ICAO list) + aviationweather.gov (METAR/TAF raw)",
  "station_count": 159,
  "stations": [
    {
      "icao": "BIKF",
      "alert": "OK",
      "vis_m": 9999,
      "fzfg": false,
      "metar_trigger": false,
      "taf_trigger": false,
      "metar": "METAR BIKF 221731Z 09019KT 9999 -RA BKN015 OVC023 07/05 Q0985",
      "taf": "TAF BIKF 221659Z 2218/2318 07020KT 9999 SCT020 BKN030 TX08/2220Z TN03/2318Z"
    },
    {
      "icao": "BKPR",
      "alert": "OK",
      "vis_m": 9999,
      "fzfg": false,
      "metar_trigger": false,
      "taf_trigger": false,
      "metar": "METAR BKPR 221730Z 19004KT 9999 BKN030 02/00 Q1002 NOSIG",
      "taf": "TAF BKPR 221730Z 2218/2318 VRB03KT 9999 BKN040"
    },
    {
      "icao": "EBCI",
      "alert": "OK",
      "vis_m": 9999,
      "fzfg": false,
      "metar_trigger": false,
      "taf_trigger": false,
      "metar": "METAR EBCI 221720Z 15006KT 9999 BKN032 07/04 Q0993 NOSIG",
      "taf": "TAF EBCI 221720Z 2218/2324 16007KT 9999 BKN030"
    },
    {
      "icao": "EDDB",
      "alert": "OK",
      "vis_m": 8000,
      "fzfg": false,
      "metar_trigger": false,
      "taf_trigger": false,
      "metar": "METAR EDDB 221720Z AUTO 07007KT 8000 NSC M04/M06 Q1002 NOSIG",
      "taf": "TAF EDDB 221700Z 2218/2318 08006KT CAVOK"
    },
    {
      "icao": "EDDH",
      "alert": "OK",
      "vis_m": 9999,
      "fzfg": false,
      "metar_trigger": false,
      "taf_trigger": false,
      "metar": "METAR EDDH 221720Z AUTO 08007KT CAVOK M02/M05 Q1002 NOSIG",
      "taf": "TAF EDDH 221700Z 2218/2324 09010KT CAVOK"
    },
    {
      "icao": "EDDK",
      "alert": "OK",
      "vis_m": 9999,
      "fzfg": false,
      "metar_trigger": false,
      "taf_trigger": false,
      "metar": "METAR EDDK 221720Z AUTO 12008KT CAVOK 04/M03 Q0996 NOSIG",
      "taf": "TAF EDDK 221700Z 2218/2324 12009KT 9999 BKN030"
    },
    {
      "icao": "EDDN",
      "alert": "OK",
      "vis_m": 9000,
      "fzfg": false,
      "metar_trigger": false,
      "taf_trigger": false,
      "metar": "METAR EDDN 221720Z AUTO 14009KT 9000 OVC012 M06/M09 Q1001 NOSIG",
      "taf": "TAF EDDN 221700Z 2218/2318 13007KT 9999 OVC012"
    },
    {
      "icao": "EDDS",
      "alert": "OK",
      "vis_m": 9999,
      "fzfg": false,
      "metar_trigger": false,
      "taf_trigger": false,
      "metar": "METAR EDDS 221720Z AUTO 08003KT CAVOK 01/M04 Q0997 NOSIG",
      "taf": "TAF EDDS 221700Z 2218/2318 VRB03KT CAVOK"
    },
    {
      "icao": "EDFH",
      "alert": "OK",
      "vis_m": 7000,
      "fzfg": false,
      "metar_trigger": false,
      "taf_trigger": false,
      "metar": "METAR EDFH 221720Z 13013KT 7000 FEW008 BKN010 M01/M02 Q0996",
      "taf": "TAF EDFH 221700Z 2218/2318 14014KT 9999 BKN014"
    },
    {
      "icao": "EDJA",
      "alert": "OK",
      "vis_m": 300,
      "fzfg": true,
      "metar_trigger": false,
      "taf_trigger": false,
      "metar": "METAR EDJA 221720Z VRB02KT 0300 R06/0400N FZFG VV/// M03/M04 Q0998",
      "taf": "TAF EDJA 221700Z 2218/2303 VRB03KT 0300 FZFG VV001"
    },
    {
      "icao": "EDLW",
      "alert": "OK",
      "vis_m": 9999,
      "fzfg": false,
      "metar_trigger": false,
      "taf_trigger": false,
      "metar": "METAR EDLW 221720Z 03003KT CAVOK 01/M05 Q0996",
      "taf": "TAF EDLW 221700Z 2218/2318 11006KT 9999 SCT040"
    },
    {
      "icao": "EDNY",
      "alert": "OK",
      "vis_m": 5000,
      "fzfg": false,
      "metar_trigger": false,
      "taf_trigger": false,
      "metar": "METAR EDNY 221720Z 08003KT 040V120 5000 BR OVC005 M01/M01 Q0999",
      "taf": "TAF EDNY 221700Z 2218/2303 VRB03KT 5000 BR OVC005"
    },
    {
      "icao": "EDSB",
      "alert": "OK",
      "vis_m": 4200,
      "fzfg": false,
      "metar_trigger": false,
      "taf_trigger": false,
      "metar": "METAR EDSB 221720Z VRB01KT 4200 BR OVC003 M01/M01 Q0999",
      "taf": "TAF EDSB 221700Z 2218/2318 VRB02KT 3000 BR OVC005"
    },
    {
      "icao": "EETN",
      "alert": "OK",
      "vis_m": 9999,
      "fzfg": false,
      "metar_trigger": false,
      "taf_trigger": false,
      "metar": "METAR EETN 221720Z 09009KT 9999 -SN BKN024 M10/M11 Q1024 NOSIG",
      "taf": "TAF EETN 221730Z 2218/2318 09010KT 9999 BKN012 OVC020"
    },
    {
      "icao": "EFTU",
      "alert": "OK",
      "vis_m": 9999,
      "fzfg": false,
      "metar_trigger": false,
      "taf_trigger": false,
      "metar": "METAR EFTU 221720Z AUTO 10012KT 9999 OVC015 M06/M09 Q1025",
      "taf": "TAF EFTU 221433Z 2215/2315 09010KT 9999 OVC017"
    },
    {
      "icao": "EGBB",
      "alert": "OK",
      "vis_m": 7000,
      "fzfg": false,
      "metar_trigger": false,
      "taf_trigger": false,
      "metar": "METAR EGBB 221720Z 11008KT 090V150 7000 -RA BKN009 08/06 Q0985",
      "taf": "TAF EGBB 221655Z 2218/2318 12012KT 9999 BKN010"
    },
    {
      "icao": "EGGP",
      "alert": "OK",
      "vis_m": 9999,
      "fzfg": false,
      "metar_trigger": false,
      "taf_trigger": false,
      "metar": "METAR EGGP 221720Z 10012KT 9999 OVC009 07/06 Q0985",
      "taf": "TAF EGGP 221656Z 2218/2318 12012KT 9999 BKN016"
    },
    {
      "icao": "EGGW",
      "alert": "OK",
      "vis_m": 6000,
      "fzfg": false,
      "metar_trigger": false,
      "taf_trigger": false,
      "metar": "METAR EGGW 221720Z AUTO 11013KT 6000 -RA OVC003 07/06 Q0985",
      "taf": "TAF EGGW 221657Z 2218/2318 12010KT 9999 SCT020"
    },
    {
      "icao": "EGKK",
      "alert": "OK",
      "vis_m": 9999,
      "fzfg": false,
      "metar_trigger": false,
      "taf_trigger": false,
      "metar": "METAR EGKK 221720Z 19008KT 150V220 9999 VCSH BKN011 09/08 Q0985",
      "taf": "TAF EGKK 221654Z 2218/2324 13008KT 9999 SCT015"
    },
    {
      "icao": "EGNM",
      "alert": "OK",
      "vis_m": 1400,
      "fzfg": false,
      "metar_trigger": false,
      "taf_trigger": false,
      "metar": "METAR EGNM 221720Z 09013G23KT 1400 R14/P1500N -RA BR SCT002 OVC003 04/04 Q0987",
      "taf": "TAF EGNM 221657Z 2218/2318 12012KT 6000 BKN008"
    },
    {
      "icao": "EGPD",
      "alert": "OK",
      "vis_m": 9999,
      "fzfg": false,
      "metar_trigger": false,
      "taf_trigger": false,
      "metar": "METAR EGPD 221720Z AUTO 11021G32KT 9999 OVC015 05/02 Q0996 TEMPO BKN012",
      "taf": "TAF EGPD 221656Z 2218/2318 13019G33KT 9999 BKN016"
    },
    {
      "icao": "EGPF",
      "alert": "OK",
      "vis_m": 7000,
      "fzfg": false,
      "metar_trigger": false,
      "taf_trigger": false,
      "metar": "METAR EGPF 221720Z AUTO 07018KT 7000 -RA OVC014/// //////CB 06/04 Q0989",
      "taf": "TAF EGPF 221700Z 2218/2318 08011KT 9999 FEW012 BKN025"
    },
    {
      "icao": "EHBK",
      "alert": "OK",
      "vis_m": 9999,
      "fzfg": false,
      "metar_trigger": false,
      "taf_trigger": false,
      "metar": "METAR EHBK 221725Z AUTO 17008KT 9999 NSC 07/03 Q0995 NOSIG",
      "taf": "TAF EHBK 221719Z 2218/2324 16005KT 9999 BKN045"
    },
    {
      "icao": "EHEH",
      "alert": "OK",
      "vis_m": 9999,
      "fzfg": false,
      "metar_trigger": false,
      "taf_trigger": false,
      "metar": "METAR EHEH 221725Z AUTO 11005KT 090V150 9999 BKN032 OVC057 05/M01 Q0995 BLU NOSIG",
      "taf": ""
    },
    {
      "icao": "EKBI",
      "alert": "OK",
      "vis_m": 9999,
      "fzfg": false,
      "metar_trigger": false,
      "taf_trigger": false,
      "metar": "METAR EKBI 221720Z AUTO 07017G27KT 9999 OVC018/// M01/M04 Q1006",
      "taf": "TAF EKBI 221727Z 2218/2318 08015KT 9999 OVC020"
    },
    {
      "icao": "EKCH",
      "alert": "OK",
      "vis_m": 9999,
      "fzfg": false,
      "metar_trigger": false,
      "taf_trigger": false,
      "metar": "METAR EKCH 221720Z AUTO 08017KT 9999 OVC020/// 01/M04 Q1008 NOSIG",
      "taf": "TAF EKCH 221727Z 2218/2318 09020G30KT 9999 BKN020"
    },
    {
      "icao": "ENAL",
      "alert": "OK",
      "vis_m": 9999,
      "fzfg": false,
      "metar_trigger": false,
      "taf_trigger": false,
      "metar": "METAR ENAL 221720Z 13014KT CAVOK 04/M10 Q1012",
      "taf": "TAF ENAL 221400Z 2215/2224 13008KT CAVOK"
    },
    {
      "icao": "ENBR",
      "alert": "OK",
      "vis_m": 9999,
      "fzfg": false,
      "metar_trigger": false,
      "taf_trigger": false,
      "metar": "METAR ENBR 221720Z 03003KT CAVOK M02/M06 Q1010 NOSIG RMK WIND 1200FT 04005KT",
      "taf": "TAF ENBR 221100Z 2212/2312 07005KT CAVOK"
    },
    {
      "icao": "ENGM",
      "alert": "OK",
      "vis_m": 9999,
      "fzfg": false,
      "metar_trigger": false,
      "taf_trigger": false,
      "metar": "METAR ENGM 221720Z 05009KT 010V080 9999 -SHSN OVC021 M03/M08 Q1019 NOSIG",
      "taf": "TAF ENGM 221100Z 2212/2312 02008KT 9999 OVC020"
    },
    {
      "icao": "ENHD",
      "alert": "OK",
      "vis_m": 9999,
      "fzfg": false,
      "metar_trigger": false,
      "taf_trigger": false,
      "metar": "METAR ENHD 221720Z 08011KT CAVOK 01/M09 Q1010",
      "taf": "TAF ENHD 221400Z 2215/2223 10012KT CAVOK"
    },
    {
      "icao": "ENTC",
      "alert": "OK",
      "vis_m": 9999,
      "fzfg": false,
      "metar_trigger": false,
      "taf_trigger": false,
      "metar": "METAR ENTC 221720Z VRB02KT 9999 FEW010 M09/M11 Q1024 TEMPO FM1800 BKN005 RMK WIND 2600FT 17006KT",
      "taf": "TAF ENTC 221100Z 2212/2312 VRB02KT 9999 FEW001"
    },
    {
      "icao": "ENTO",
      "alert": "OK",
      "vis_m": 9999,
      "fzfg": false,
      "metar_trigger": false,
      "taf_trigger": false,
      "metar": "METAR ENTO 221720Z 05011KT 010V070 9999 FEW020 BKN025 M02/M06 Q1018 NOSIG",
      "taf": "TAF ENTO 221100Z 2212/2312 04012KT 9999 OVC020"
    },
    {
      "icao": "ENVA",
      "alert": "OK",
      "vis_m": 9999,
      "fzfg": false,
      "metar_trigger": false,
      "taf_trigger": false,
      "metar": "METAR ENVA 221720Z 10008KT 080V140 CAVOK M03/M09 Q1020 NOSIG RMK WIND 670FT 11007KT",
      "taf": "TAF ENVA 221100Z 2212/2312 11010KT CAVOK"
    },
    {
      "icao": "ENZV",
      "alert": "OK",
      "vis_m": 9999,
      "fzfg": false,
      "metar_trigger": false,
      "taf_trigger": false,
      "metar": "METAR ENZV 221720Z COR 10015KT CAVOK 01/M08 Q1010 NOSIG",
      "taf": "TAF ENZV 221100Z 2212/2312 09008KT CAVOK"
    },
    {
      "icao": "EPGD",
      "alert": "OK",
      "vis_m": 6000,
      "fzfg": false,
      "metar_trigger": false,
      "taf_trigger": false,
      "metar": "METAR EPGD 221730Z 09007KT 6000 NSC M10/M12 Q1009",
      "taf": "TAF EPGD 221730Z 2218/2318 09010KT 6000 NSC"
    },
    {
      "icao": "EPKK",
      "alert": "OK",
      "vis_m": 4500,
      "fzfg": false,
      "metar_trigger": false,
      "taf_trigger": false,
      "metar": "METAR EPKK 221730Z 08004KT 4500 BR OVC061 M03/M07 Q1003",
      "taf": "TAF EPKK 221730Z 2218/2318 07004KT 5000 BR OVC055"
    },
    {
      "icao": "EPKT",
      "alert": "OK",
      "vis_m": 6000,
      "fzfg": false,
      "metar_trigger": false,
      "taf_trigger": false,
      "metar": "METAR EPKT 221730Z 07003KT 6000 NSC M02/M09 Q1002",
      "taf": "TAF EPKT 221730Z 2218/2318 09004KT 7000 NSC"
    },
    {
      "icao": "EPLB",
      "alert": "OK",
      "vis_m": 2800,
      "fzfg": false,
      "metar_trigger": false,
      "taf_trigger": false,
      "metar": "METAR EPLB 221730Z 07012KT 2800 BR OVC003 M11/M12 Q1008",
      "taf": "TAF EPLB 221730Z 2218/2318 08008KT 2000 BR BKN002"
    },
    {
      "icao": "EPMO",
      "alert": "OK",
      "vis_m": 6000,
      "fzfg": false,
      "metar_trigger": false,
      "taf_trigger": false,
      "metar": "METAR EPMO 221730Z 08016KT 6000 NSC M11/M13 Q1008",
      "taf": "TAF EPMO 221730Z 2218/2318 08012KT 6000 NSC"
    },
    {
      "icao": "EPPO",
      "alert": "OK",
      "vis_m": 6000,
      "fzfg": false,
      "metar_trigger": false,
      "taf_trigger": false,
      "metar": "METAR EPPO 221730Z 09009KT 6000 NSC M04/M09 Q1004",
      "taf": "TAF EPPO 221730Z 2218/2318 09007KT CAVOK"
    },
    {
      "icao": "EPRA",
      "alert": "OK",
      "vis_m": 9999,
      "fzfg": false,
      "metar_trigger": false,
      "taf_trigger": false,
      "metar": "METAR EPRA 221730Z 08010KT 9999 SCT010 M12/M15 Q1007",
      "taf": "TAF EPRA 221730Z 2218/2303 09010KT 7000 OVC007"
    },
    {
      "icao": "EPRZ",
      "alert": "OK",
      "vis_m": 5000,
      "fzfg": false,
      "metar_trigger": false,
      "taf_trigger": false,
      "metar": "METAR EPRZ 221730Z 07012KT 5000 BR NSC M09/M13 Q1005",
      "taf": "TAF EPRZ 221730Z 2218/2318 09009KT 5000 BR NSC"
    },
    {
      "icao": "EPSC",
      "alert": "OK",
      "vis_m": 6000,
      "fzfg": false,
      "metar_trigger": false,
      "taf_trigger": false,
      "metar": "METAR EPSC 221730Z 04005KT 020V080 6000 NSC M03/M06 Q1004",
      "taf": "TAF EPSC 221730Z 2218/2318 04004KT 5000 BR NSC"
    },
    {
      "icao": "EPSY",
      "alert": "OK",
      "vis_m": 5000,
      "fzfg": false,
      "metar_trigger": false,
      "taf_trigger": false,
      "metar": "METAR EPSY 221730Z 09007KT 040V150 5000 BR BKN011 M13/M15 Q1010",
      "taf": "TAF EPSY 221730Z 2218/2303 09008KT 6000 SCT014"
    },
    {
      "icao": "EPWA",
      "alert": "OK",
      "vis_m": 8000,
      "fzfg": false,
      "metar_trigger": false,
      "taf_trigger": false,
      "metar": "METAR EPWA 221730Z 09013KT 8000 -SN BKN010 M11/M13 Q1009 BECMG 4000 -SG BR BKN005",
      "taf": "TAF EPWA 221730Z 2218/2318 08010KT 7000 SCT012"
    },
    {
      "icao": "EPWR",
      "alert": "OK",
      "vis_m": 9999,
      "fzfg": false,
      "metar_trigger": false,
      "taf_trigger": false,
      "metar": "METAR EPWR 221730Z 08002KT CAVOK M03/M07 Q1002",
      "taf": "TAF EPWR 221730Z 2218/2318 10005KT CAVOK"
    },
    {
      "icao": "ESGG",
      "alert": "OK",
      "vis_m": 9999,
      "fzfg": false,
      "metar_trigger": false,
      "taf_trigger": false,
      "metar": "METAR ESGG 221720Z 07015KT 9999 OVC019 M01/M05 Q1011",
      "taf": "TAF ESGG 221730Z 2218/2318 07015G25KT 9999 BKN020"
    },
    {
      "icao": "ESKN",
      "alert": "OK",
      "vis_m": 8000,
      "fzfg": false,
      "metar_trigger": false,
      "taf_trigger": false,
      "metar": "METAR ESKN 221720Z 05009KT 8000 -SN BLSN BKN009 OVC026 M03/M04 Q1019",
      "taf": "TAF ESKN 221730Z 2218/2318 07012KT 9000 -SN SCT009 OVC020"
    },
    {
      "icao": "ESMS",
      "alert": "OK",
      "vis_m": 8000,
      "fzfg": false,
      "metar_trigger": false,
      "taf_trigger": false,
      "metar": "METAR ESMS 221720Z 08019KT 8000 OVC017 M00/M03 Q1007",
      "taf": "TAF ESMS 221727Z 2218/2318 08015KT 9000 BKN020"
    },
    {
      "icao": "ESSA",
      "alert": "OK",
      "vis_m": 9999,
      "fzfg": false,
      "metar_trigger": false,
      "taf_trigger": false,
      "metar": "METAR ESSA 221720Z 08010KT 9999 -SN SCT017 BKN022 M03/M06 Q1021 NOSIG",
      "taf": "TAF ESSA 221730Z 2218/2318 08012KT 9999 OVC015"
    },
    {
      "icao": "EYKA",
      "alert": "OK",
      "vis_m": 9999,
      "fzfg": false,
      "metar_trigger": false,
      "taf_trigger": false,
      "metar": "METAR EYKA 221720Z 09011KT 9999 OVC013 M07/M10 Q1016",
      "taf": "TAF EYKA 221700Z 2218/2318 10012KT 9000 BKN015"
    },
    {
      "icao": "EYPA",
      "alert": "OK",
      "vis_m": 9999,
      "fzfg": false,
      "metar_trigger": false,
      "taf_trigger": false,
      "metar": "METAR EYPA 221720Z 10012KT 070V130 9999 OVC015 M05/M09 Q1015",
      "taf": "TAF EYPA 221700Z 2218/2318 10012KT 9000 OVC015"
    },
    {
      "icao": "EYVI",
      "alert": "OK",
      "vis_m": 9999,
      "fzfg": false,
      "metar_trigger": false,
      "taf_trigger": false,
      "metar": "METAR EYVI 221720Z 10008KT 9999 -SN OVC009 M08/M10 Q1015 NOSIG",
      "taf": "TAF EYVI 221700Z 2218/2318 10012KT 9000 BKN010"
    },
    {
      "icao": "GCFV",
      "alert": "OK",
      "vis_m": 9999,
      "fzfg": false,
      "metar_trigger": false,
      "taf_trigger": false,
      "metar": "METAR GCFV 221700Z 29011KT 250V330 9999 SCT017 BKN025 21/16 Q1018",
      "taf": "TAF GCFV 221400Z 2215/2315 31008KT 9999 SCT025 TX22/2314Z TN16/2306Z"
    },
    {
      "icao": "GCLP",
      "alert": "OK",
      "vis_m": 9999,
      "fzfg": false,
      "metar_trigger": false,
      "taf_trigger": false,
      "metar": "METAR GCLP 221700Z 15006KT 090V180 9999 FEW025 BKN032 20/15 Q1019 NOSIG",
      "taf": "TAF GCLP 221400Z 2215/2315 36010KT 9999 FEW025 TX23/2314Z TN15/2306Z"
    },
    {
      "icao": "GCTS",
      "alert": "OK",
      "vis_m": 9999,
      "fzfg": false,
      "metar_trigger": false,
      "taf_trigger": false,
      "metar": "METAR GCTS 221700Z 19006KT 150V230 9999 FEW025 20/14 Q1019 NOSIG",
      "taf": "TAF GCTS 221400Z 2215/2315 16008KT 9999 SCT025 TX23/2314Z TN15/2306Z"
    },
    {
      "icao": "GMAD",
      "alert": "OK",
      "vis_m": 8000,
      "fzfg": false,
      "metar_trigger": false,
      "taf_trigger": false,
      "metar": "METAR GMAD 221730Z 26009KT 8000 BKN009 16/16 Q1016 NOSIG",
      "taf": "TAF GMAD 221700Z 2218/2324 24008KT 8000 SCT008 BKN016"
    },
    {
      "icao": "GMMN",
      "alert": "OK",
      "vis_m": 8000,
      "fzfg": false,
      "metar_trigger": false,
      "taf_trigger": false,
      "metar": "METAR GMMN 221730Z 26008KT 240V300 8000 SCT020 15/12 Q1015 NOSIG",
      "taf": "TAF GMMN 221700Z 2218/2324 27010KT 8000 BKN020"
    },
    {
      "icao": "GMMX",
      "alert": "OK",
      "vis_m": 9999,
      "fzfg": false,
      "metar_trigger": false,
      "taf_trigger": false,
      "metar": "METAR GMMX 221730Z 28007KT 9999 SCT010 BKN020 16/13 Q1016 NOSIG",
      "taf": "TAF GMMX 221700Z 2218/2324 24014KT 8000 SCT020 SCT080"
    },
    {
      "icao": "HEGN",
      "alert": "OK",
      "vis_m": 9999,
      "fzfg": false,
      "metar_trigger": false,
      "taf_trigger": false,
      "metar": "METAR HEGN 221700Z 13005KT CAVOK 22/18 Q1011 NOSIG",
      "taf": "TAF HEGN 221700Z 2218/2324 12012KT CAVOK"
    },
    {
      "icao": "HEMA",
      "alert": "OK",
      "vis_m": 9999,
      "fzfg": false,
      "metar_trigger": false,
      "taf_trigger": false,
      "metar": "METAR HEMA 221700Z 13007KT CAVOK 23/17 Q1010 NOSIG",
      "taf": "TAF HEMA 221700Z 2218/2324 15012KT CAVOK"
    },
    {
      "icao": "HESH",
      "alert": "OK",
      "vis_m": 9999,
      "fzfg": false,
      "metar_trigger": false,
      "taf_trigger": false,
      "metar": "METAR HESH 221700Z 36007KT CAVOK 22/11 Q1013 NOSIG",
      "taf": "TAF HESH 221700Z 2218/2324 35012KT CAVOK"
    },
    {
      "icao": "HESX",
      "alert": "OK",
      "vis_m": 9999,
      "fzfg": false,
      "metar_trigger": false,
      "taf_trigger": false,
      "metar": "METAR HESX 221700Z 16008KT CAVOK 19/00 Q1009 NOSIG",
      "taf": "TAF HESX 221700Z 2218/2324 22008KT 6000 SCT025 OVC070"
    },
    {
      "icao": "LATI",
      "alert": "OK",
      "vis_m": 9999,
      "fzfg": false,
      "metar_trigger": false,
      "taf_trigger": false,
      "metar": "METAR LATI 221720Z VRB01KT 9999 FEW046 BKN062 09/07 Q1001 NOSIG",
      "taf": "TAF LATI 221700Z 2218/2318 VRB05KT 9999 SCT040 BKN070 TX14/2312Z TN05/2305Z"
    },
    {
      "icao": "LBPD",
      "alert": "OK",
      "vis_m": 7000,
      "fzfg": false,
      "metar_trigger": false,
      "taf_trigger": false,
      "metar": "METAR LBPD 221730Z AUTO 21004KT 7000 NCD M00/M00 Q1005 TEMPO 4000 BR",
      "taf": "TAF LBPD 221700Z 2218/2318 VRB03KT 3000 BR SCT050"
    },
    {
      "icao": "LBSF",
      "alert": "OK",
      "vis_m": 9999,
      "fzfg": false,
      "metar_trigger": false,
      "taf_trigger": false,
      "metar": "METAR LBSF 221730Z AUTO VRB02KT 9999 SCT016/// OVC021/// 02/M01 Q1003 TEMPO 5000 BR",
      "taf": "TAF LBSF 221700Z 2218/2318 VRB03KT 6000 SCT010 BKN015 OVC020"
    },
    {
      "icao": "LBWN",
      "alert": "OK",
      "vis_m": 9999,
      "fzfg": false,
      "metar_trigger": false,
      "taf_trigger": false,
      "metar": "METAR LBWN 221730Z AUTO 01003KT 9999 NSC 04/04 Q1004 TEMPO 5000 BR",
      "taf": "TAF LBWN 221700Z 2218/2318 VRB04KT 8000 SCT015 BKN040"
    },
    {
      "icao": "LCLK",
      "alert": "OK",
      "vis_m": 9000,
      "fzfg": false,
      "metar_trigger": false,
      "taf_trigger": false,
      "metar": "METAR LCLK 221730Z 06018KT 9000 -RA SCT010 BKN016 13/12 Q1011 NOSIG",
      "taf": "TAF LCLK 221730Z 2218/2318 04015KT 9999 SCT020"
    },
    {
      "icao": "LCPH",
      "alert": "OK",
      "vis_m": 9999,
      "fzfg": false,
      "metar_trigger": false,
      "taf_trigger": false,
      "metar": "METAR LCPH 221730Z 15014KT 090V170 9999 -SHRA FEW030 SCT060 15/10 Q1009 NOSIG",
      "taf": "TAF LCPH 221730Z 2218/2318 13015KT 9999 SCT020"
    },
    {
      "icao": "LEAL",
      "alert": "OK",
      "vis_m": 9999,
      "fzfg": false,
      "metar_trigger": false,
      "taf_trigger": false,
      "metar": "METAR LEAL 221700Z 29010KT 250V320 9999 FEW060 15/02 Q1005 NOSIG",
      "taf": "TAF LEAL 221700Z 2218/2318 29015KT 9999 SCT040 TX19/2313Z TN09/2306Z"
    },
    {
      "icao": "LEBB",
      "alert": "OK",
      "vis_m": 9999,
      "fzfg": false,
      "metar_trigger": false,
      "taf_trigger": false,
      "metar": "METAR LEBB 221700Z 15005KT 080V200 9999 FEW042 13/03 Q0998 NOSIG",
      "taf": "TAF LEBB 221700Z 2218/2318 20009KT 9999 FEW040 TX12/2218Z TN08/2307Z"
    },
    {
      "icao": "LEBL",
      "alert": "OK",
      "vis_m": 9999,
      "fzfg": false,
      "metar_trigger": false,
      "taf_trigger": false,
      "metar": "METAR LEBL 221700Z 23003KT 9999 FEW050 14/08 Q1000 NOSIG",
      "taf": "TAF LEBL 221700Z 2218/2318 34006KT 9999 FEW030 TX15/2313Z TN05/2303Z"
    },
    {
      "icao": "LECH",
      "alert": "OK",
      "vis_m": 9000,
      "fzfg": false,
      "metar_trigger": false,
      "taf_trigger": false,
      "metar": "METAR LECH 221700Z AUTO 26004KT 220V320 9000 NCD 11/00 Q1002",
      "taf": ""
    },
    {
      "icao": "LEMD",
      "alert": "OK",
      "vis_m": 9999,
      "fzfg": false,
      "metar_trigger": false,
      "taf_trigger": false,
      "metar": "METAR LEMD 221700Z 23016G29KT 9999 FEW020 07/02 Q1004 NOSIG",
      "taf": "TAF LEMD 221700Z 2218/2324 21010KT 9999 FEW030 TX09/2314Z TN03/2308Z"
    },
    {
      "icao": "LEMG",
      "alert": "OK",
      "vis_m": 9999,
      "fzfg": false,
      "metar_trigger": false,
      "taf_trigger": false,
      "metar": "METAR LEMG 221700Z 29005KT 260V320 9999 FEW040 SCT055 14/06 Q1010 NOSIG",
      "taf": "TAF LEMG 221700Z 2218/2318 VRB03KT 9999 SCT040 TX17/2314Z TN10/2307Z"
    },
    {
      "icao": "LEVC",
      "alert": "OK",
      "vis_m": 9999,
      "fzfg": false,
      "metar_trigger": false,
      "taf_trigger": false,
      "metar": "METAR LEVC 221700Z 27016KT 9999 FEW040 14/02 Q1003 NOSIG",
      "taf": "TAF LEVC 221700Z 2218/2318 27010KT 9999 SCT040 TX16/2313Z TN07/2305Z"
    },
    {
      "icao": "LEXJ",
      "alert": "OK",
      "vis_m": 9999,
      "fzfg": false,
      "metar_trigger": false,
      "taf_trigger": false,
      "metar": "METAR LEXJ 221700Z 20009KT 150V270 CAVOK 13/02 Q0996",
      "taf": "TAF LEXJ 221400Z 2215/2315 24009KT 9999 SCT040 TX13/2215Z TN08/2306Z"
    },
    {
      "icao": "LEZG",
      "alert": "OK",
      "vis_m": 9999,
      "fzfg": false,
      "metar_trigger": false,
      "taf_trigger": false,
      "metar": "METAR LEZG 221700Z 26009KT 9999 FEW070 11/02 Q1001 NOSIG",
      "taf": "TAF LEZG 221700Z 2218/2318 28008KT 9999 FEW040 TX13/2315Z TN05/2306Z"
    },
    {
      "icao": "LEZL",
      "alert": "OK",
      "vis_m": 9999,
      "fzfg": false,
      "metar_trigger": false,
      "taf_trigger": false,
      "metar": "METAR LEZL 221700Z 19006KT 150V230 9999 -RA FEW030 SCT040 14/11 Q1010 NOSIG",
      "taf": "TAF LEZL 221400Z 2215/2315 22010KT 9999 SCT030 TX15/2215Z TN08/2307Z"
    },
    {
      "icao": "LFBD",
      "alert": "OK",
      "vis_m": 9999,
      "fzfg": false,
      "metar_trigger": false,
      "taf_trigger": false,
      "metar": "METAR LFBD 221730Z AUTO 21006KT CAVOK 08/06 Q0997 TEMPO 25015G25KT 3000 SHRA FEW020CB BKN035TCU",
      "taf": ""
    },
    {
      "icao": "LFLL",
      "alert": "OK",
      "vis_m": 9999,
      "fzfg": false,
      "metar_trigger": false,
      "taf_trigger": false,
      "metar": "METAR LFLL 221730Z 16006KT CAVOK 07/04 Q0998 NOSIG",
      "taf": "TAF LFLL 221700Z 2218/2324 16005KT CAVOK"
    },
    {
      "icao": "LFLS",
      "alert": "OK",
      "vis_m": 9000,
      "fzfg": false,
      "metar_trigger": false,
      "taf_trigger": false,
      "metar": "METAR LFLS 221730Z AUTO 07007KT 9000 NSC 05/04 Q0998 NOSIG",
      "taf": "TAF LFLS 221400Z 2215/2315 09004KT CAVOK"
    },
    {
      "icao": "LFMN",
      "alert": "OK",
      "vis_m": 9999,
      "fzfg": false,
      "metar_trigger": false,
      "taf_trigger": false,
      "metar": "METAR LFMN 221730Z 32006KT 9999 SCT053 BKN070 08/06 Q1000 NOSIG",
      "taf": "TAF LFMN 221400Z 2215/2321 34010KT 9999 FEW040 BKN050"
    },
    {
      "icao": "LFOB",
      "alert": "OK",
      "vis_m": 9999,
      "fzfg": false,
      "metar_trigger": false,
      "taf_trigger": false,
      "metar": "METAR LFOB 221730Z AUTO 16005KT CAVOK 08/07 Q0991 NOSIG",
      "taf": "TAF LFOB 221100Z 2212/2312 15012KT 9999 BKN015"
    },
    {
      "icao": "LFPO",
      "alert": "OK",
      "vis_m": 9999,
      "fzfg": false,
      "metar_trigger": false,
      "taf_trigger": false,
      "metar": "METAR LFPO 221730Z 20005KT CAVOK 09/07 Q0993 NOSIG",
      "taf": "TAF LFPO 221700Z 2218/2324 20010KT 9999 FEW030"
    },
    {
      "icao": "LFSB",
      "alert": "OK",
      "vis_m": 9999,
      "fzfg": false,
      "metar_trigger": false,
      "taf_trigger": false,
      "metar": "METAR LFSB 221730Z AUTO 15006KT CAVOK 03/M00 Q0998 NOSIG",
      "taf": "TAF LFSB 221700Z 2218/2318 16005KT CAVOK"
    },
    {
      "icao": "LGAV",
      "alert": "OK",
      "vis_m": 9999,
      "fzfg": false,
      "metar_trigger": false,
      "taf_trigger": false,
      "metar": "METAR LGAV 221720Z 20005KT 160V230 9999 -RA FEW020TCU BKN030 OVC070 12/07 Q1003 NOSIG",
      "taf": "TAF LGAV 221700Z 2218/2318 20010KT 9999 FEW015 SCT025 BKN070"
    },
    {
      "icao": "LGTS",
      "alert": "OK",
      "vis_m": 9999,
      "fzfg": false,
      "metar_trigger": false,
      "taf_trigger": false,
      "metar": "METAR LGTS 221720Z VRB02KT 9999 SCT010 BKN025 08/08 Q1004 NOSIG",
      "taf": "TAF LGTS 221700Z 2218/2318 VRB03KT 8000 FEW010 BKN030"
    },
    {
      "icao": "LHBP",
      "alert": "OK",
      "vis_m": 9999,
      "fzfg": false,
      "metar_trigger": false,
      "taf_trigger": false,
      "metar": "METAR LHBP 221730Z 08002KT 9999 -SN OVC030 M00/M02 Q1004 TEMPO 4500 -SN",
      "taf": "TAF LHBP 221715Z 2218/2318 09006KT 8000 NSC"
    },
    {
      "icao": "LHDC",
      "alert": "OK",
      "vis_m": 8000,
      "fzfg": false,
      "metar_trigger": false,
      "taf_trigger": false,
      "metar": "METAR LHDC 221715Z AUTO 04004KT 8000 BKN046 BKN078 01/M03 Q1004 NOSIG",
      "taf": "TAF LHDC 221415Z 2215/2224 03006KT 8000 OVC045"
    },
    {
      "icao": "LIBD",
      "alert": "OK",
      "vis_m": 9999,
      "fzfg": false,
      "metar_trigger": false,
      "taf_trigger": false,
      "metar": "METAR LIBD 221720Z 13003KT 120V180 9999 SCT045 10/09 Q1000",
      "taf": "TAF LIBD 221700Z 2218/2318 VRB05KT 9999 SCT030"
    },
    {
      "icao": "LIBG",
      "alert": "OK",
      "vis_m": 9999,
      "fzfg": false,
      "metar_trigger": false,
      "taf_trigger": false,
      "metar": "METAR LIBG 221650Z VRB01KT 9999 FEW030 10/08 Q1000",
      "taf": "TAF LIBG 221700Z 2218/2303 VRB05KT 9999 SCT020"
    },
    {
      "icao": "LIBP",
      "alert": "OK",
      "vis_m": 9999,
      "fzfg": false,
      "metar_trigger": false,
      "taf_trigger": false,
      "metar": "METAR LIBP 221720Z AUTO VRB01KT 9999 OVC024/// 09/07 Q1001",
      "taf": "TAF LIBP 221700Z 2218/2318 VRB05KT 9999 BKN020"
    },
    {
      "icao": "LIBR",
      "alert": "OK",
      "vis_m": 9999,
      "fzfg": false,
      "metar_trigger": false,
      "taf_trigger": false,
      "metar": "METAR LIBR 221720Z 32003KT CAVOK 10/09 Q1000",
      "taf": "TAF LIBR 221700Z 2218/2318 VRB05KT 9999 FEW020"
    },
    {
      "icao": "LICA",
      "alert": "OK",
      "vis_m": 9999,
      "fzfg": false,
      "metar_trigger": false,
      "taf_trigger": false,
      "metar": "METAR LICA 221720Z AUTO 27006KT 9999 BKN061/// 12/10 Q1001",
      "taf": "TAF LICA 221700Z 2218/2318 VRB05KT 9999 BKN020"
    },
    {
      "icao": "LICC",
      "alert": "OK",
      "vis_m": 9999,
      "fzfg": false,
      "metar_trigger": false,
      "taf_trigger": false,
      "metar": "METAR LICC 221720Z VRB04KT 9999 FEW040 SCT070 14/13 Q1001",
      "taf": "TAF LICC 221700Z 2218/2318 26008KT 7000 SCT030"
    },
    {
      "icao": "LICJ",
      "alert": "OK",
      "vis_m": 9999,
      "fzfg": false,
      "metar_trigger": false,
      "taf_trigger": false,
      "metar": "METAR LICJ 221720Z 19007KT CAVOK 13/08 Q1001",
      "taf": "TAF LICJ 221700Z 2218/2318 16008KT 9999 FEW030"
    },
    {
      "icao": "LIMC",
      "alert": "OK",
      "vis_m": 300,
      "fzfg": false,
      "metar_trigger": false,
      "taf_trigger": false,
      "metar": "METAR LIMC 221720Z VRB02KT 0300 R35R/0700N R17L/0450D R35L/0650D FG OVC001 01/01 Q1001 NOSIG",
      "taf": ""
    },
    {
      "icao": "LIME",
      "alert": "OK",
      "vis_m": 3000,
      "fzfg": false,
      "metar_trigger": false,
      "taf_trigger": false,
      "metar": "METAR LIME 221720Z 07001KT 3000 BR NSC 01/01 Q1001 NOSIG",
      "taf": "TAF LIME 221700Z 2218/2318 VRB04KT 2000 BR SCT020"
    },
    {
      "icao": "LIMF",
      "alert": "OK",
      "vis_m": 6000,
      "fzfg": false,
      "metar_trigger": false,
      "taf_trigger": false,
      "metar": "METAR LIMF 221720Z 24003KT 6000 SCT130 03/00 Q1000",
      "taf": "TAF LIMF 221700Z 2218/2318 VRB04KT 4000 BR NSC"
    },
    {
      "icao": "LIMJ",
      "alert": "OK",
      "vis_m": 9999,
      "fzfg": false,
      "metar_trigger": false,
      "taf_trigger": false,
      "metar": "METAR LIMJ 221720Z 04011KT 9999 BKN070 08/M00 Q1000",
      "taf": "TAF LIMJ 221700Z 2218/2318 03014KT 9999 FEW040"
    },
    {
      "icao": "LIPE",
      "alert": "OK",
      "vis_m": 7000,
      "fzfg": false,
      "metar_trigger": false,
      "taf_trigger": false,
      "metar": "METAR LIPE 221720Z 11002KT 7000 NSC 03/00 Q1001",
      "taf": "TAF LIPE 221700Z 2218/2318 VRB05KT 7000 BKN030"
    },
    {
      "icao": "LIPH",
      "alert": "OK",
      "vis_m": 9999,
      "fzfg": false,
      "metar_trigger": false,
      "taf_trigger": false,
      "metar": "METAR LIPH 221720Z 24001KT CAVOK 04/M04 Q1001",
      "taf": "TAF LIPH 221700Z 2218/2318 VRB05KT 9999 SCT060"
    },
    {
      "icao": "LIPQ",
      "alert": "OK",
      "vis_m": 9999,
      "fzfg": false,
      "metar_trigger": false,
      "taf_trigger": false,
      "metar": "METAR LIPQ 221720Z AUTO 03002KT 9999 BKN057/// 02/M03 Q1001",
      "taf": "TAF LIPQ 221700Z 2218/2318 VRB05KT 9999 BKN050"
    },
    {
      "icao": "LIPR",
      "alert": "OK",
      "vis_m": 8000,
      "fzfg": false,
      "metar_trigger": false,
      "taf_trigger": false,
      "metar": "METAR LIPR 221720Z 27002KT 8000 BKN018 05/02 Q1002",
      "taf": "TAF LIPR 221700Z 2218/2318 VRB05KT 9999 BKN020"
    },
    {
      "icao": "LIPX",
      "alert": "OK",
      "vis_m": 9999,
      "fzfg": false,
      "metar_trigger": false,
      "taf_trigger": false,
      "metar": "METAR LIPX 221720Z 22005KT CAVOK 03/M01 Q1001",
      "taf": "TAF LIPX 221700Z 2218/2318 VRB04KT 6000 SCT050"
    },
    {
      "icao": "LIPY",
      "alert": "OK",
      "vis_m": 9999,
      "fzfg": false,
      "metar_trigger": false,
      "taf_trigger": false,
      "metar": "METAR LIPY 221720Z AUTO 27003KT 9999 OVC025/// 07/02 Q1001",
      "taf": "TAF LIPY 221700Z 2218/2318 28006KT 9999 SCT030"
    },
    {
      "icao": "LIPZ",
      "alert": "OK",
      "vis_m": 9999,
      "fzfg": false,
      "metar_trigger": false,
      "taf_trigger": false,
      "metar": "METAR LIPZ 221720Z 23004KT 9999 FEW050 03/01 Q1001 NOSIG",
      "taf": "TAF LIPZ 221700Z 2218/2324 VRB05KT 9999 SCT050"
    },
    {
      "icao": "LIRF",
      "alert": "OK",
      "vis_m": 9999,
      "fzfg": false,
      "metar_trigger": false,
      "taf_trigger": false,
      "metar": "METAR LIRF 221720Z VRB02KT CAVOK 09/04 Q1000 NOSIG",
      "taf": "TAF LIRF 221700Z 2218/2324 VRB05KT 9999 FEW040"
    },
    {
      "icao": "LIRN",
      "alert": "OK",
      "vis_m": 9999,
      "fzfg": false,
      "metar_trigger": false,
      "taf_trigger": false,
      "metar": "METAR LIRN 221720Z 24003KT 9999 SCT060 11/06 Q1000 NOSIG",
      "taf": "TAF LIRN 221700Z 2218/2318 VRB05KT 9999 SCT050"
    },
    {
      "icao": "LIRP",
      "alert": "OK",
      "vis_m": 9999,
      "fzfg": false,
      "metar_trigger": false,
      "taf_trigger": false,
      "metar": "METAR LIRP 221715Z VRB02KT CAVOK 07/04 Q0999 NOSIG",
      "taf": "TAF LIRP 221700Z 2218/2318 VRB03KT CAVOK"
    },
    {
      "icao": "LIRZ",
      "alert": "OK",
      "vis_m": 9999,
      "fzfg": false,
      "metar_trigger": false,
      "taf_trigger": false,
      "metar": "METAR LIRZ 221720Z AUTO 12004KT 9999 FEW049/// BKN060/// 08/04 Q0999",
      "taf": "TAF LIRZ 221700Z 2218/2318 VRB05KT 9999 BKN045"
    },
    {
      "icao": "LJLJ",
      "alert": "OK",
      "vis_m": 9999,
      "fzfg": false,
      "metar_trigger": false,
      "taf_trigger": false,
      "metar": "METAR LJLJ 221730Z 29003KT 9999 FEW050 M04/M06 Q1001 NOSIG",
      "taf": "TAF LJLJ 221700Z 2218/2318 12003KT 9999 FEW050"
    },
    {
      "icao": "LKMT",
      "alert": "OK",
      "vis_m": 9999,
      "fzfg": false,
      "metar_trigger": false,
      "taf_trigger": false,
      "metar": "METAR LKMT 221730Z 25002KT 9999 FEW034 M01/M06 Q1002 NOSIG",
      "taf": "TAF LKMT 221700Z 2218/2318 VRB02KT 9999 SCT025 OVC035"
    },
    {
      "icao": "LKPR",
      "alert": "OK",
      "vis_m": 9999,
      "fzfg": false,
      "metar_trigger": false,
      "taf_trigger": false,
      "metar": "METAR LKPR 221730Z 15004KT 090V180 9999 OVC017 M05/M08 Q1001 NOSIG",
      "taf": "TAF LKPR 221700Z 2218/2324 14006KT 9999 BKN016"
    },
    {
      "icao": "LLBG",
      "alert": "OK",
      "vis_m": 9999,
      "fzfg": false,
      "metar_trigger": false,
      "taf_trigger": false,
      "metar": "METAR LLBG 221720Z 13014KT CAVOK 20/03 Q1008 NOSIG",
      "taf": "TAF LLBG 221706Z 2218/2318 13010KT CAVOK"
    },
    {
      "icao": "LMML",
      "alert": "OK",
      "vis_m": 9999,
      "fzfg": false,
      "metar_trigger": false,
      "taf_trigger": false,
      "metar": "METAR LMML 221715Z 23008KT 9999 FEW026 13/09 Q1003 NOSIG",
      "taf": "TAF LMML 221700Z 2218/2318 24015KT 9999 FEW025"
    },
    {
      "icao": "LOWW",
      "alert": "OK",
      "vis_m": 7000,
      "fzfg": false,
      "metar_trigger": false,
      "taf_trigger": false,
      "metar": "METAR LOWW 221720Z 15006KT 7000 FEW010 BKN011 M04/M06 Q1003 NOSIG",
      "taf": "TAF LOWW 221715Z 2218/2324 14005KT 6000 OVC007 TXM00/2323Z TNM06/2302Z"
    },
    {
      "icao": "LPFR",
      "alert": "OK",
      "vis_m": 9000,
      "fzfg": false,
      "metar_trigger": false,
      "taf_trigger": false,
      "metar": "METAR LPFR 221700Z 25015KT 9000 -RADZ SCT016 BKN028 15/12 Q1009",
      "taf": "TAF LPFR 221700Z 2218/2318 24018KT 9999 SCT015 BKN025"
    },
    {
      "icao": "LPMA",
      "alert": "OK",
      "vis_m": 9999,
      "fzfg": false,
      "metar_trigger": false,
      "taf_trigger": false,
      "metar": "METAR LPMA 221700Z 27004KT 9999 BKN014 19/15 Q1017",
      "taf": "TAF LPMA 221700Z 2218/2318 VRB05KT 9999 SCT015"
    },
    {
      "icao": "LPPR",
      "alert": "OK",
      "vis_m": 2000,
      "fzfg": false,
      "metar_trigger": false,
      "taf_trigger": false,
      "metar": "METAR LPPR 221700Z 17018KT 2000 RA BR BKN005 BKN012 11/10 Q0997",
      "taf": "TAF LPPR 221700Z 2218/2318 17018KT 2000 RADZ BR SCT002 BKN004"
    },
    {
      "icao": "LPPS",
      "alert": "OK",
      "vis_m": 9999,
      "fzfg": false,
      "metar_trigger": false,
      "taf_trigger": false,
      "metar": "METAR LPPS 221700Z 30014KT 9999 FEW012 SCT030 18/15 Q1017",
      "taf": "TAF LPPS 221700Z 2218/2324 30015KT 9999 SCT015 SCT030"
    },
    {
      "icao": "LPPT",
      "alert": "OK",
      "vis_m": 1200,
      "fzfg": false,
      "metar_trigger": false,
      "taf_trigger": false,
      "metar": "METAR LPPT 221700Z 22020G30KT 1200 R20/P2000 -RADZ BR SCT002 BKN004 14/14 Q1004 RERA",
      "taf": "TAF LPPT 221700Z 2218/2324 22015KT 5000 -RADZ BR SCT006 BKN012"
    },
    {
      "icao": "LQBK",
      "alert": "OK",
      "vis_m": 5000,
      "fzfg": false,
      "metar_trigger": false,
      "taf_trigger": false,
      "metar": "METAR LQBK 221730Z 29003KT 5000 BR NSC M01/M03 Q1003 NOSIG",
      "taf": "TAF LQBK 221700Z 2218/2318 VRB02KT 7000 SCT045 TX03/2313Z TNM02/2224Z"
    },
    {
      "icao": "LQSA",
      "alert": "OK",
      "vis_m": 4000,
      "fzfg": false,
      "metar_trigger": false,
      "taf_trigger": false,
      "metar": "METAR LQSA 221730Z 30002KT 4000 BR SCT055 01/M00 Q1001 TEMPO 2000",
      "taf": "TAF LQSA 221700Z 2218/2318 VRB02KT 4000 BR FEW010 SCT045 TX04/2314Z TNM02/2305Z"
    },
    {
      "icao": "LQTZ",
      "alert": "OK",
      "vis_m": 3000,
      "fzfg": false,
      "metar_trigger": false,
      "taf_trigger": false,
      "metar": "METAR LQTZ 221730Z VRB02KT 3000 BR OVC030 M00/M00 Q1002",
      "taf": "TAF LQTZ 221700Z 2218/2318 VRB02KT 6000 FEW005 BKN040 TX05/2313Z TNM03/2303Z"
    },
    {
      "icao": "LRBC",
      "alert": "OK",
      "vis_m": 5000,
      "fzfg": false,
      "metar_trigger": false,
      "taf_trigger": false,
      "metar": "METAR LRBC 221700Z 18006KT 5000 -DZ BR OVC010 02/01 Q1005",
      "taf": "TAF LRBC 221700Z 2218/2303 18006KT 5000 -RADZ BR OVC010"
    },
    {
      "icao": "LRBS",
      "alert": "OK",
      "vis_m": 600,
      "fzfg": false,
      "metar_trigger": false,
      "taf_trigger": false,
      "metar": "METAR LRBS 221700Z 05004KT 0600 R07/1900D FG OVC001 02/01 Q1005 NOSIG",
      "taf": "TAF LRBS 221700Z 2218/2318 VRB04KT 0800 FG OVC002"
    },
    {
      "icao": "LRBV",
      "alert": "OK",
      "vis_m": 9999,
      "fzfg": false,
      "metar_trigger": false,
      "taf_trigger": false,
      "metar": "METAR LRBV 221700Z 19002KT 9999 -RA FEW010 BKN026 BKN034 01/M00 Q1002",
      "taf": "TAF LRBV 221700Z 2218/2303 VRB04KT 9999 BKN025 OVC035"
    },
    {
      "icao": "LRCL",
      "alert": "OK",
      "vis_m": 2500,
      "fzfg": false,
      "metar_trigger": false,
      "taf_trigger": false,
      "metar": "METAR LRCL 221700Z 02002KT 2500 -SN BR OVC013 M01/M02 Q1004",
      "taf": "TAF LRCL 221700Z 2218/2303 VRB04KT 5000 -SN BR BKN010 OVC030"
    },
    {
      "icao": "LRCV",
      "alert": "OK",
      "vis_m": 2500,
      "fzfg": false,
      "metar_trigger": false,
      "taf_trigger": false,
      "metar": "METAR LRCV 221700Z 06002KT 2500 BR OVC002 00/00 Q1005",
      "taf": "TAF LRCV 221700Z 2218/2303 VRB04KT 1500 BR OVC002"
    },
    {
      "icao": "LRIA",
      "alert": "OK",
      "vis_m": 9999,
      "fzfg": false,
      "metar_trigger": false,
      "taf_trigger": false,
      "metar": "METAR LRIA 221700Z 11014KT 9999 -RA OVC003 02/01 Q1006",
      "taf": "TAF LRIA 221700Z 2218/2303 11014KT 9999 BKN005 OVC015"
    },
    {
      "icao": "LROP",
      "alert": "OK",
      "vis_m": 800,
      "fzfg": false,
      "metar_trigger": false,
      "taf_trigger": false,
      "metar": "METAR LROP 221700Z VRB02KT 0800 R08R/1100N R08L/2000D FG OVC002 01/01 Q1005 BECMG 0300 FG",
      "taf": "TAF LROP 221700Z 2218/2318 VRB04KT 0800 FG OVC002"
    },
    {
      "icao": "LRSB",
      "alert": "OK",
      "vis_m": 9999,
      "fzfg": false,
      "metar_trigger": false,
      "taf_trigger": false,
      "metar": "METAR LRSB 221700Z COR 34003KT 280V360 9999 FEW060 BKN080 M00/M03 Q1003",
      "taf": "TAF LRSB 221700Z 2218/2318 VRB04KT 9999 BKN070"
    },
    {
      "icao": "LRSM",
      "alert": "OK",
      "vis_m": 8000,
      "fzfg": false,
      "metar_trigger": false,
      "taf_trigger": false,
      "metar": "METAR LRSM 221700Z 04001KT 8000 BKN044 00/M03 Q1004",
      "taf": "TAF LRSM 221400Z 2215/2224 VRB04KT CAVOK"
    },
    {
      "icao": "LRSV",
      "alert": "OK",
      "vis_m": 9999,
      "fzfg": false,
      "metar_trigger": false,
      "taf_trigger": false,
      "metar": "METAR LRSV 221700Z 13010KT 9999 BKN009 01/00 Q1004",
      "taf": "TAF LRSV 221700Z 2218/2303 12010KT 9999 BKN010"
    },
    {
      "icao": "LRTM",
      "alert": "OK",
      "vis_m": 1800,
      "fzfg": false,
      "metar_trigger": false,
      "taf_trigger": false,
      "metar": "METAR LRTM 221700Z 24003KT 1800 -SN BR SCT010 OVC032 M03/M03 Q1004 RESN",
      "taf": "TAF LRTM 221400Z 2215/2224 VRB04KT 3000 -SN BR BKN040"
    },
    {
      "icao": "LRTR",
      "alert": "OK",
      "vis_m": 8000,
      "fzfg": false,
      "metar_trigger": false,
      "taf_trigger": false,
      "metar": "METAR LRTR 221700Z 06002KT 8000 OVC046 02/M02 Q1003",
      "taf": "TAF LRTR 221700Z 2218/2318 VRB04KT 9999 OVC045"
    },
    {
      "icao": "LTAC",
      "alert": "OK",
      "vis_m": 4800,
      "fzfg": false,
      "metar_trigger": false,
      "taf_trigger": false,
      "metar": "METAR LTAC 221720Z 07004KT 030V090 4800 -SN BR SCT004 BKN019 BKN080 M01/M02 Q1009 BECMG 6000 RMK RWY21C 03002KT RWY03L 05003KT RWY21R 03003KT RWY03R 10002KT RWY21L 04002KT",
      "taf": "TAF LTAC 221640Z 2218/2318 VRB02KT 9999 SCT035 BKN090"
    },
    {
      "icao": "LTFM",
      "alert": "OK",
      "vis_m": 9999,
      "fzfg": false,
      "metar_trigger": false,
      "taf_trigger": false,
      "metar": "METAR LTFM 221720Z 18007KT 9999 -SHRA BKN040 BKN100 08/07 Q1004 NOSIG RMK RWY17L 19008KT RWY34L 19004KT RWY16R 19006KT 140V220 RWY36 17007KT RWY18 18008KT",
      "taf": "TAF LTFM 221640Z 2218/2324 20010KT 9999 SCT040 BKN100"
    },
    {
      "icao": "LUKK",
      "alert": "OK",
      "vis_m": 9999,
      "fzfg": false,
      "metar_trigger": false,
      "taf_trigger": false,
      "metar": "METAR LUKK 221730Z 10008KT 9999 BKN009 OVC024 00/M01 Q1008 TEMPO BKN008",
      "taf": "TAF LUKK 221721Z 2218/2318 09008KT 9999 BKN008 OVC015"
    },
    {
      "icao": "LWOH",
      "alert": "OK",
      "vis_m": 9999,
      "fzfg": false,
      "metar_trigger": false,
      "taf_trigger": false,
      "metar": "METAR LWOH 221720Z 05004KT 9999 FEW040 03/00 Q1001",
      "taf": "TAF LWOH 221415Z 2215/2315 VRB03KT 9999 BKN040"
    },
    {
      "icao": "LWSK",
      "alert": "OK",
      "vis_m": 6000,
      "fzfg": false,
      "metar_trigger": false,
      "taf_trigger": false,
      "metar": "METAR LWSK 221720Z VRB01KT 6000 FEW013 01/M00 Q1004 NOSIG",
      "taf": "TAF LWSK 221415Z 2215/2315 VRB02KT 6000 FEW015 SCT040"
    },
    {
      "icao": "LYBE",
      "alert": "OK",
      "vis_m": 6000,
      "fzfg": false,
      "metar_trigger": false,
      "taf_trigger": false,
      "metar": "METAR LYBE 221730Z 23004KT 140V270 6000 NSC M01/M03 Q1004 NOSIG",
      "taf": ""
    },
    {
      "icao": "LYNI",
      "alert": "OK",
      "vis_m": 9999,
      "fzfg": false,
      "metar_trigger": false,
      "taf_trigger": false,
      "metar": "METAR LYNI 221730Z 11009KT CAVOK 04/M01 Q1003 NOSIG",
      "taf": "TAF LYNI 221700Z 2218/2318 09007KT 9999 SCT050 BKN090 TX10/2313Z TNM01/2305Z"
    },
    {
      "icao": "LYPG",
      "alert": "OK",
      "vis_m": 9999,
      "fzfg": false,
      "metar_trigger": false,
      "taf_trigger": false,
      "metar": "METAR LYPG 221730Z 14001KT 9999 FEW014 BKN050 OVC070 07/06 Q1002 NOSIG",
      "taf": "TAF LYPG 221700Z 2218/2318 16006KT 9999 FEW013 BKN040 OVC080 TX12/2313Z TN05/2305Z"
    },
    {
      "icao": "LZIB",
      "alert": "OK",
      "vis_m": 5000,
      "fzfg": false,
      "metar_trigger": false,
      "taf_trigger": false,
      "metar": "METAR LZIB 221730Z VRB02KT 5000 BR FEW012 M04/M06 Q1004 NOSIG",
      "taf": "TAF LZIB 221715Z 2218/2318 11005KT 6000 SCT008 BKN014"
    },
    {
      "icao": "LZKZ",
      "alert": "OK",
      "vis_m": 8000,
      "fzfg": false,
      "metar_trigger": false,
      "taf_trigger": false,
      "metar": "METAR LZKZ 221730Z 28004KT 8000 -SN FEW038 M01/M04 Q1004 NOSIG",
      "taf": "TAF LZKZ 221715Z 2218/2318 VRB02KT 9999 SCT045"
    },
    {
      "icao": "LZTT",
      "alert": "OK",
      "vis_m": 4500,
      "fzfg": false,
      "metar_trigger": false,
      "taf_trigger": false,
      "metar": "METAR LZTT 221730Z 00000KT 4500 -SN BR SCT010 OVC036 M02/M02 Q1001 NOSIG",
      "taf": "TAF LZTT 221715Z 2218/2318 VRB02KT 6000 SCT009 BKN030"
    },
    {
      "icao": "OEJN",
      "alert": "OK",
      "vis_m": 9999,
      "fzfg": false,
      "metar_trigger": false,
      "taf_trigger": false,
      "metar": "METAR OEJN 221700Z 20005KT CAVOK 27/20 Q1012 NOSIG",
      "taf": "TAF OEJN 221700Z 2218/2324 13004KT 7000 FEW030"
    },
    {
      "icao": "OEMA",
      "alert": "OK",
      "vis_m": 8000,
      "fzfg": false,
      "metar_trigger": false,
      "taf_trigger": false,
      "metar": "METAR OEMA 221700Z 08016KT 8000 NSC 22/M02 Q1019 NOSIG",
      "taf": "TAF OEMA 221700Z 2218/2324 09014KT 7000 NSC"
    },
    {
      "icao": "OJAI",
      "alert": "OK",
      "vis_m": 3000,
      "fzfg": false,
      "metar_trigger": false,
      "taf_trigger": false,
      "metar": "METAR OJAI 221700Z 08008KT 3000 HZ NSC 09/M02 Q1017 NOSIG",
      "taf": "TAF OJAI 221700Z 2218/2324 18012KT 3000 HZ SCT035"
    },
    {
      "icao": "OMAA",
      "alert": "OK",
      "vis_m": 9999,
      "fzfg": false,
      "metar_trigger": false,
      "taf_trigger": false,
      "metar": "METAR OMAA 221730Z 35004KT 320V030 CAVOK 17/01 Q1022 NOSIG",
      "taf": "TAF OMAA 221700Z 2218/2400 04006KT 8000 NSC"
    },
    {
      "icao": "OMDB",
      "alert": "OK",
      "vis_m": 9999,
      "fzfg": false,
      "metar_trigger": false,
      "taf_trigger": false,
      "metar": "METAR OMDB 221730Z 03006KT 360V090 CAVOK 19/00 Q1022 NOSIG",
      "taf": "TAF OMDB 221700Z 2218/2400 06006KT 8000 NSC"
    },
    {
      "icao": "UAAA",
      "alert": "OK",
      "vis_m": 3700,
      "fzfg": false,
      "metar_trigger": false,
      "taf_trigger": false,
      "metar": "METAR UAAA 221700Z 11001MPS 3700 BR FU SCT050 OVC100 M08/M11 Q1016 NOSIG",
      "taf": "TAF UAAA 221701Z 2218/2318 32003MPS 3100 -SHSN BR BKN011CB OVC050 TXM04/2308Z TNM10/2302Z"
    },
    {
      "icao": "UBBB",
      "alert": "OK",
      "vis_m": 9999,
      "fzfg": false,
      "metar_trigger": false,
      "taf_trigger": false,
      "metar": "METAR UBBB 221730Z 16008KT CAVOK 02/M01 Q1016 NOSIG",
      "taf": "TAF UBBB 221702Z 2218/2318 16006KT CAVOK TX07/2310Z TNM01/2300Z"
    },
    {
      "icao": "UDSG",
      "alert": "OK",
      "vis_m": 9000,
      "fzfg": false,
      "metar_trigger": false,
      "taf_trigger": false,
      "metar": "METAR UDSG 221700Z 11001KT 9000 SCT046 M11/M14 Q1019 NOSIG",
      "taf": "TAF UDSG 221658Z 2218/2318 VRB06KT 9999 BKN040"
    },
    {
      "icao": "UDYZ",
      "alert": "OK",
      "vis_m": 9999,
      "fzfg": false,
      "metar_trigger": false,
      "taf_trigger": false,
      "metar": "METAR UDYZ 221700Z VRB01KT 9999 NSC M05/M10 Q1022 NOSIG",
      "taf": "TAF UDYZ 221700Z 2218/2318 VRB04KT 9999 FEW040"
    },
    {
      "icao": "UGKO",
      "alert": "OK",
      "vis_m": 9999,
      "fzfg": false,
      "metar_trigger": false,
      "taf_trigger": false,
      "metar": "METAR UGKO 221700Z 09019KT CAVOK 07/M06 Q1011 NOSIG",
      "taf": "TAF UGKO 221700Z 2218/2318 08017KT CAVOK TX09/2311Z TN05/2303Z"
    }
  ]
}