{
  "ts_utc": "2026-03-17T22:59:17Z",
  "threshold_m": 150,
  "source": "stations_override.txt (ICAO list) + aviationweather.gov (METAR/TAF raw)",
  "station_count": 159,
  "stations": [
    {
      "icao": "BIKF",
      "alert": "OK",
      "vis_m": 9999,
      "fzfg": false,
      "metar_trigger": false,
      "taf_trigger": false,
      "metar": "METAR BIKF 172230Z 01020KT 9999 SCT020 M01/M05 Q0992",
      "taf": "TAF BIKF 172233Z 1800/1900 36020KT 9999 FEW018 SCT025 TX04/1823Z TNM01/1800Z"
    },
    {
      "icao": "BKPR",
      "alert": "OK",
      "vis_m": 9999,
      "fzfg": false,
      "metar_trigger": false,
      "taf_trigger": false,
      "metar": "METAR BKPR 172230Z 36008KT 9999 FEW030 BKN045 06/04 Q1012 NOSIG",
      "taf": "TAF BKPR 171730Z 1718/1818 03008KT 9999 SCT025 BKN040"
    },
    {
      "icao": "EBCI",
      "alert": "OK",
      "vis_m": 9999,
      "fzfg": false,
      "metar_trigger": false,
      "taf_trigger": false,
      "metar": "METAR EBCI 172250Z 14005KT CAVOK 09/05 Q1020 NOSIG",
      "taf": "TAF EBCI 171704Z 1718/1824 16005KT CAVOK"
    },
    {
      "icao": "EDDB",
      "alert": "OK",
      "vis_m": 9999,
      "fzfg": false,
      "metar_trigger": false,
      "taf_trigger": false,
      "metar": "METAR EDDB 172250Z AUTO 10005KT CAVOK 01/M01 Q1028 NOSIG",
      "taf": "TAF EDDB 171700Z 1718/1818 13004KT CAVOK"
    },
    {
      "icao": "EDDH",
      "alert": "OK",
      "vis_m": 9999,
      "fzfg": false,
      "metar_trigger": false,
      "taf_trigger": false,
      "metar": "METAR EDDH 172250Z AUTO 13006KT CAVOK 06/02 Q1025 NOSIG",
      "taf": "TAF EDDH 171700Z 1718/1824 15006KT CAVOK"
    },
    {
      "icao": "EDDK",
      "alert": "OK",
      "vis_m": 9999,
      "fzfg": false,
      "metar_trigger": false,
      "taf_trigger": false,
      "metar": "METAR EDDK 172250Z AUTO 10006KT 070V130 CAVOK 08/05 Q1022 NOSIG",
      "taf": "TAF EDDK 171700Z 1718/1824 12006KT 9999 FEW045"
    },
    {
      "icao": "EDDN",
      "alert": "OK",
      "vis_m": 9999,
      "fzfg": false,
      "metar_trigger": false,
      "taf_trigger": false,
      "metar": "METAR EDDN 172250Z AUTO 09003KT CAVOK 01/M01 Q1024",
      "taf": "TAF EDDN 171700Z 1718/1818 09004KT CAVOK"
    },
    {
      "icao": "EDDS",
      "alert": "OK",
      "vis_m": 9999,
      "fzfg": false,
      "metar_trigger": false,
      "taf_trigger": false,
      "metar": "METAR EDDS 172250Z AUTO 08006KT CAVOK 05/02 Q1021",
      "taf": "TAF EDDS 171700Z 1718/1818 07006KT CAVOK"
    },
    {
      "icao": "EDFH",
      "alert": "OK",
      "vis_m": 9999,
      "fzfg": false,
      "metar_trigger": false,
      "taf_trigger": false,
      "metar": "METAR EDFH 172250Z 11009KT 9999 FEW019 05/04 Q1021",
      "taf": "TAF EDFH 171700Z 1718/1818 13008KT 9999 SCT015"
    },
    {
      "icao": "EDJA",
      "alert": "OK",
      "vis_m": 9999,
      "fzfg": false,
      "metar_trigger": false,
      "taf_trigger": false,
      "metar": "METAR EDJA 172250Z AUTO 06007KT 9999 // FEW140/// 01/M00 Q1021",
      "taf": "TAF EDJA 171700Z 1718/1803 07007KT 9999 SCT040"
    },
    {
      "icao": "EDLW",
      "alert": "OK",
      "vis_m": 9999,
      "fzfg": false,
      "metar_trigger": false,
      "taf_trigger": false,
      "metar": "METAR EDLW 172250Z AUTO 13007KT 9999 // BKN052/// OVC064/// 10/05 Q1022",
      "taf": "TAF EDLW 171700Z 1718/1818 14005KT 9999 SCT045"
    },
    {
      "icao": "EDNY",
      "alert": "OK",
      "vis_m": 9999,
      "fzfg": false,
      "metar_trigger": false,
      "taf_trigger": false,
      "metar": "METAR EDNY 172250Z AUTO 04008KT 350V070 9999 // SCT110/// 06/M00 Q1020",
      "taf": "TAF EDNY 171700Z 1718/1803 04008KT CAVOK"
    },
    {
      "icao": "EDSB",
      "alert": "OK",
      "vis_m": 9999,
      "fzfg": false,
      "metar_trigger": false,
      "taf_trigger": false,
      "metar": "METAR EDSB 172250Z AUTO 04008KT 9999 // NCD 07/04 Q1021",
      "taf": "TAF EDSB 171700Z 1718/1818 04007KT CAVOK"
    },
    {
      "icao": "EETN",
      "alert": "OK",
      "vis_m": 300,
      "fzfg": false,
      "metar_trigger": false,
      "taf_trigger": false,
      "metar": "METAR EETN 172250Z 28007KT 0300 R26/0900U FG VV002 00/00 Q1028",
      "taf": "TAF EETN 171730Z 1718/1818 28007KT 9999 BKN005 BKN012"
    },
    {
      "icao": "EFTU",
      "alert": "OK",
      "vis_m": 2300,
      "fzfg": false,
      "metar_trigger": false,
      "taf_trigger": false,
      "metar": "METAR EFTU 172250Z AUTO 22009KT 2300 BR OVC001 01/01 Q1026",
      "taf": "TAF EFTU 172036Z 1721/1821 22009KT 5000 OVC002"
    },
    {
      "icao": "EGBB",
      "alert": "OK",
      "vis_m": 9999,
      "fzfg": false,
      "metar_trigger": false,
      "taf_trigger": false,
      "metar": "METAR EGBB 172250Z 15004KT CAVOK 06/05 Q1014",
      "taf": "TAF EGBB 171659Z 1718/1818 18010KT CAVOK"
    },
    {
      "icao": "EGGP",
      "alert": "OK",
      "vis_m": 9999,
      "fzfg": false,
      "metar_trigger": false,
      "taf_trigger": false,
      "metar": "METAR EGGP 172250Z 16009KT 9999 SCT036 09/05 Q1013",
      "taf": "TAF EGGP 171656Z 1718/1818 18010KT 9999 FEW045"
    },
    {
      "icao": "EGGW",
      "alert": "OK",
      "vis_m": 9999,
      "fzfg": false,
      "metar_trigger": false,
      "taf_trigger": false,
      "metar": "METAR EGGW 172250Z AUTO 15005KT 9999 NCD 07/05 Q1015",
      "taf": "TAF EGGW 171656Z 1718/1818 18012KT CAVOK"
    },
    {
      "icao": "EGKK",
      "alert": "OK",
      "vis_m": 9999,
      "fzfg": false,
      "metar_trigger": false,
      "taf_trigger": false,
      "metar": "METAR EGKK 172250Z 11003KT CAVOK 07/05 Q1016",
      "taf": "TAF EGKK 171656Z 1718/1824 20012KT CAVOK"
    },
    {
      "icao": "EGNM",
      "alert": "OK",
      "vis_m": 9999,
      "fzfg": false,
      "metar_trigger": false,
      "taf_trigger": false,
      "metar": "METAR EGNM 172150Z 21008KT CAVOK 10/06 Q1012",
      "taf": "TAF EGNM 171655Z 1718/1818 21010KT 9999 FEW030"
    },
    {
      "icao": "EGPD",
      "alert": "OK",
      "vis_m": 9999,
      "fzfg": false,
      "metar_trigger": false,
      "taf_trigger": false,
      "metar": "METAR EGPD 172250Z AUTO VRB01KT 9999 OVC024 10/06 Q1007",
      "taf": "TAF EGPD 171657Z 1718/1818 20018G32KT 9999 SCT025"
    },
    {
      "icao": "EGPF",
      "alert": "OK",
      "vis_m": 7000,
      "fzfg": false,
      "metar_trigger": false,
      "taf_trigger": false,
      "metar": "METAR EGPF 172250Z AUTO 22016KT 7000 OVC012 10/08 Q1008",
      "taf": "TAF EGPF 171659Z 1718/1818 19015G25KT 9999 FEW020 BKN025"
    },
    {
      "icao": "EHBK",
      "alert": "OK",
      "vis_m": 9999,
      "fzfg": false,
      "metar_trigger": false,
      "taf_trigger": false,
      "metar": "METAR EHBK 172225Z AUTO 12006KT 9999 NSC 08/05 Q1020",
      "taf": "TAF EHBK 171707Z 1718/1824 09007KT CAVOK"
    },
    {
      "icao": "EHEH",
      "alert": "OK",
      "vis_m": 9999,
      "fzfg": false,
      "metar_trigger": false,
      "taf_trigger": false,
      "metar": "METAR EHEH 172225Z AUTO 13005KT 9999 OVC280 09/07 Q1020 BLU",
      "taf": "TAF EHEH 171705Z 1718/1824 14007KT CAVOK"
    },
    {
      "icao": "EKBI",
      "alert": "OK",
      "vis_m": 9999,
      "fzfg": false,
      "metar_trigger": false,
      "taf_trigger": false,
      "metar": "METAR EKBI 172250Z AUTO 15008KT 120V180 9999 BKN021/// OVC049/// 08/04 Q1023",
      "taf": "TAF EKBI 172027Z 1721/1821 16007KT 9999 BKN020"
    },
    {
      "icao": "EKCH",
      "alert": "OK",
      "vis_m": 9999,
      "fzfg": false,
      "metar_trigger": false,
      "taf_trigger": false,
      "metar": "METAR EKCH 172250Z AUTO 14012KT 9999 NCD 02/01 Q1027 NOSIG",
      "taf": "TAF EKCH 172027Z 1721/1821 14010KT 9999 FEW020"
    },
    {
      "icao": "ENAL",
      "alert": "OK",
      "vis_m": 9999,
      "fzfg": false,
      "metar_trigger": false,
      "taf_trigger": false,
      "metar": "METAR ENAL 172250Z 23020KT 9999 -DZRA FEW005 SCT034 BKN049 10/06 Q1003",
      "taf": "TAF ENAL 172000Z 1721/1806 20018KT 9999 BKN045"
    },
    {
      "icao": "ENBR",
      "alert": "OK",
      "vis_m": 9999,
      "fzfg": false,
      "metar_trigger": false,
      "taf_trigger": false,
      "metar": "METAR ENBR 172250Z 16024KT 9999 OVC007 07/05 Q1012 RMK WIND 1200FT 16032G44KT",
      "taf": ""
    },
    {
      "icao": "ENGM",
      "alert": "OK",
      "vis_m": 4000,
      "fzfg": false,
      "metar_trigger": false,
      "taf_trigger": false,
      "metar": "METAR ENGM 172250Z 18009KT 150V220 4000 -DZ BR OVC002 04/04 Q1018",
      "taf": "TAF ENGM 171700Z 1718/1818 20012KT 7000 -DZRA OVC005"
    },
    {
      "icao": "ENHD",
      "alert": "OK",
      "vis_m": 9999,
      "fzfg": false,
      "metar_trigger": false,
      "taf_trigger": false,
      "metar": "METAR ENHD 172250Z AUTO 16022G34KT 9999 FEW003/// BKN005/// BKN006/// 07/06 Q1014",
      "taf": "TAF ENHD 171400Z 1715/1723 15020G32KT 8000 BKN004"
    },
    {
      "icao": "ENTC",
      "alert": "OK",
      "vis_m": 9999,
      "fzfg": false,
      "metar_trigger": false,
      "taf_trigger": false,
      "metar": "METAR ENTC 172250Z 20010KT 9999 BKN045 04/00 Q0998 RMK WIND 2600FT 17041KT",
      "taf": ""
    },
    {
      "icao": "ENTO",
      "alert": "OK",
      "vis_m": 2200,
      "fzfg": false,
      "metar_trigger": false,
      "taf_trigger": false,
      "metar": "METAR ENTO 172250Z AUTO 20014KT 2200 DZ OVC002/// 05/05 Q1020 REDZRA",
      "taf": "TAF ENTO 171700Z 1718/1818 18015KT 3000 -DZRA SCT002 OVC005"
    },
    {
      "icao": "ENVA",
      "alert": "OK",
      "vis_m": 9999,
      "fzfg": false,
      "metar_trigger": false,
      "taf_trigger": false,
      "metar": "METAR ENVA 172250Z 17022G35KT CAVOK 10/02 Q1005 RMK WIND 670FT 18034G51KT",
      "taf": ""
    },
    {
      "icao": "ENZV",
      "alert": "OK",
      "vis_m": 9999,
      "fzfg": false,
      "metar_trigger": false,
      "taf_trigger": false,
      "metar": "METAR ENZV 172250Z 17019KT 9999 BKN012 OVC015 08/06 Q1015",
      "taf": ""
    },
    {
      "icao": "EPGD",
      "alert": "OK",
      "vis_m": 1400,
      "fzfg": false,
      "metar_trigger": false,
      "taf_trigger": false,
      "metar": "METAR EPGD 172230Z 29002KT 1400 0450W R29/1900N BCFG BR NSC M01/M01 Q1029",
      "taf": ""
    },
    {
      "icao": "EPKK",
      "alert": "OK",
      "vis_m": 9999,
      "fzfg": false,
      "metar_trigger": false,
      "taf_trigger": false,
      "metar": "METAR EPKK 172230Z 08004KT 030V130 9999 BKN040 06/02 Q1025",
      "taf": "TAF EPKK 172030Z 1721/1821 06005KT 9999 SCT023 BKN050"
    },
    {
      "icao": "EPKT",
      "alert": "OK",
      "vis_m": 9999,
      "fzfg": false,
      "metar_trigger": false,
      "taf_trigger": false,
      "metar": "METAR EPKT 172230Z 03006KT CAVOK 04/01 Q1025",
      "taf": "TAF EPKT 171708Z 1718/1818 01006KT 9999 BKN020"
    },
    {
      "icao": "EPLB",
      "alert": "OK",
      "vis_m": 9999,
      "fzfg": false,
      "metar_trigger": false,
      "taf_trigger": false,
      "metar": "METAR EPLB 172230Z 03010KT CAVOK 06/03 Q1026",
      "taf": "TAF EPLB 171730Z 1718/1818 36005KT CAVOK"
    },
    {
      "icao": "EPMO",
      "alert": "OK",
      "vis_m": 9999,
      "fzfg": false,
      "metar_trigger": false,
      "taf_trigger": false,
      "metar": "METAR EPMO 172230Z 02007KT CAVOK 03/01 Q1028",
      "taf": "TAF EPMO 171730Z 1718/1818 36006KT 9999 BKN035"
    },
    {
      "icao": "EPPO",
      "alert": "OK",
      "vis_m": 6000,
      "fzfg": false,
      "metar_trigger": false,
      "taf_trigger": false,
      "metar": "METAR EPPO 172230Z VRB01KT 6000 NSC M00/M02 Q1028",
      "taf": ""
    },
    {
      "icao": "EPRA",
      "alert": "OK",
      "vis_m": 9999,
      "fzfg": false,
      "metar_trigger": false,
      "taf_trigger": false,
      "metar": "METAR EPRA 172230Z 34004KT CAVOK 05/00 Q1026",
      "taf": "TAF EPRA 172030Z 1721/1806 01005KT CAVOK"
    },
    {
      "icao": "EPRZ",
      "alert": "OK",
      "vis_m": 6000,
      "fzfg": false,
      "metar_trigger": false,
      "taf_trigger": false,
      "metar": "METAR EPRZ 172230Z 36003KT 6000 NSC 02/01 Q1024",
      "taf": "TAF EPRZ 171730Z 1718/1818 35007KT 9999 SCT030"
    },
    {
      "icao": "EPSC",
      "alert": "OK",
      "vis_m": 9999,
      "fzfg": false,
      "metar_trigger": false,
      "taf_trigger": false,
      "metar": "METAR EPSC 172230Z 12003KT CAVOK M01/M02 Q1029",
      "taf": "TAF EPSC 171730Z 1718/1818 14005KT CAVOK"
    },
    {
      "icao": "EPSY",
      "alert": "OK",
      "vis_m": 9999,
      "fzfg": false,
      "metar_trigger": false,
      "taf_trigger": false,
      "metar": "METAR EPSY 172230Z 35002KT CAVOK M01/M02 Q1029",
      "taf": "TAF EPSY 172030Z 1721/1806 02005KT CAVOK"
    },
    {
      "icao": "EPWA",
      "alert": "OK",
      "vis_m": 9999,
      "fzfg": false,
      "metar_trigger": false,
      "taf_trigger": false,
      "metar": "METAR EPWA 172230Z 02008KT 350V050 CAVOK 07/01 Q1028 NOSIG",
      "taf": "TAF EPWA 172030Z 1721/1821 04008KT CAVOK"
    },
    {
      "icao": "EPWR",
      "alert": "OK",
      "vis_m": 9999,
      "fzfg": false,
      "metar_trigger": false,
      "taf_trigger": false,
      "metar": "METAR EPWR 172230Z 01004KT CAVOK 04/01 Q1027",
      "taf": "TAF EPWR 172030Z 1721/1821 01005KT CAVOK"
    },
    {
      "icao": "ESGG",
      "alert": "OK",
      "vis_m": 9999,
      "fzfg": false,
      "metar_trigger": false,
      "taf_trigger": false,
      "metar": "METAR ESGG 172250Z 18010KT CAVOK 03/02 Q1024",
      "taf": "TAF ESGG 172030Z 1721/1821 17012KT CAVOK"
    },
    {
      "icao": "ESKN",
      "alert": "OK",
      "vis_m": 5000,
      "fzfg": false,
      "metar_trigger": false,
      "taf_trigger": false,
      "metar": "METAR ESKN 172250Z 15005KT 5000 BR SCT002 01/01 Q1026",
      "taf": "TAF ESKN 172030Z 1721/1821 18008KT 7000 SCT002"
    },
    {
      "icao": "ESMS",
      "alert": "OK",
      "vis_m": 900,
      "fzfg": true,
      "metar_trigger": false,
      "taf_trigger": false,
      "metar": "METAR ESMS 172250Z 13007KT 0900 R17/P2000N R35/P2000N FZFG OVC002 M00/M00 Q1027",
      "taf": "TAF ESMS 172027Z 1721/1821 15007KT 0300 FZFG BKN001"
    },
    {
      "icao": "ESSA",
      "alert": "OK",
      "vis_m": 9999,
      "fzfg": false,
      "metar_trigger": false,
      "taf_trigger": false,
      "metar": "METAR ESSA 172250Z 19008KT 9999 OVC004 01/00 Q1025 NOSIG",
      "taf": "TAF ESSA 172030Z 1721/1821 19010KT 9999 FEW004"
    },
    {
      "icao": "EYKA",
      "alert": "OK",
      "vis_m": 5000,
      "fzfg": false,
      "metar_trigger": false,
      "taf_trigger": false,
      "metar": "METAR EYKA 172250Z 33003KT 300V360 5000 BR NSC 02/02 Q1029",
      "taf": "TAF EYKA 171700Z 1718/1818 VRB03KT 9000 SCT035"
    },
    {
      "icao": "EYPA",
      "alert": "OK",
      "vis_m": 400,
      "fzfg": false,
      "metar_trigger": false,
      "taf_trigger": false,
      "metar": "METAR EYPA 172250Z VRB01KT 0400 R19/0450N FG VV002 01/01 Q1030",
      "taf": ""
    },
    {
      "icao": "EYVI",
      "alert": "OK",
      "vis_m": 2800,
      "fzfg": false,
      "metar_trigger": false,
      "taf_trigger": false,
      "metar": "METAR EYVI 172250Z VRB01KT 2800 BR NSC 02/01 Q1028 NOSIG",
      "taf": "TAF EYVI 171700Z 1718/1818 VRB04KT 9000 SCT045"
    },
    {
      "icao": "GCFV",
      "alert": "OK",
      "vis_m": 9999,
      "fzfg": false,
      "metar_trigger": false,
      "taf_trigger": false,
      "metar": "METAR GCFV 172230Z 21009KT 9999 FEW030 18/14 Q1011",
      "taf": "TAF GCFV 172000Z 1721/1821 22007KT 9999 SCT030 TX22/1814Z TN15/1806Z"
    },
    {
      "icao": "GCLP",
      "alert": "OK",
      "vis_m": 9999,
      "fzfg": false,
      "metar_trigger": false,
      "taf_trigger": false,
      "metar": "METAR GCLP 172230Z 22005KT 170V250 9999 FEW035 18/15 Q1011 NOSIG",
      "taf": "TAF GCLP 172000Z 1721/1821 21016KT 9999 SCT035 TX22/1814Z TN14/1806Z"
    },
    {
      "icao": "GCTS",
      "alert": "OK",
      "vis_m": 9999,
      "fzfg": false,
      "metar_trigger": false,
      "taf_trigger": false,
      "metar": "METAR GCTS 172230Z 28010KT 9999 FEW020 18/14 Q1011 NOSIG",
      "taf": "TAF GCTS 172000Z 1721/1821 26014KT 9999 SCT025 TX23/1814Z TN14/1806Z"
    },
    {
      "icao": "GMAD",
      "alert": "OK",
      "vis_m": 6000,
      "fzfg": false,
      "metar_trigger": false,
      "taf_trigger": false,
      "metar": "METAR GMAD 172230Z 00000KT 6000 FEW006 SCT020 14/12 Q1012 NOSIG",
      "taf": "TAF GMAD 171700Z 1718/1824 26008KT 8000 SCT026TCU BKN080"
    },
    {
      "icao": "GMMN",
      "alert": "OK",
      "vis_m": 8000,
      "fzfg": false,
      "metar_trigger": false,
      "taf_trigger": false,
      "metar": "METAR GMMN 172230Z COR 08009KT 010V130 8000 FEW004 SCT007 BKN080 14/13 Q1010 NOSIG",
      "taf": "TAF GMMN 171700Z 1718/1824 02012KT 6000 SCT016 BKN100"
    },
    {
      "icao": "GMMX",
      "alert": "OK",
      "vis_m": 7000,
      "fzfg": false,
      "metar_trigger": false,
      "taf_trigger": false,
      "metar": "METAR GMMX 172230Z 03003KT 7000 SHRA BKN023 14/12 Q1011 TEMPO 1500 SHRA",
      "taf": "TAF GMMX 171700Z 1718/1824 06006KT 8000 SCT033 SCT100"
    },
    {
      "icao": "HEGN",
      "alert": "OK",
      "vis_m": 9999,
      "fzfg": false,
      "metar_trigger": false,
      "taf_trigger": false,
      "metar": "METAR HEGN 172200Z 00000KT 9999 FEW025 19/01 Q1008 NOSIG",
      "taf": "TAF HEGN 171700Z 1718/1824 12010KT CAVOK"
    },
    {
      "icao": "HEMA",
      "alert": "OK",
      "vis_m": 9999,
      "fzfg": false,
      "metar_trigger": false,
      "taf_trigger": false,
      "metar": "METAR HEMA 172200Z 17005KT CAVOK 20/13 Q1010 NOSIG",
      "taf": "TAF HEMA 171700Z 1718/1824 13012KT CAVOK"
    },
    {
      "icao": "HESH",
      "alert": "OK",
      "vis_m": 9999,
      "fzfg": false,
      "metar_trigger": false,
      "taf_trigger": false,
      "metar": "METAR HESH 172200Z 00000KT CAVOK 19/10 Q1010 NOSIG",
      "taf": "TAF HESH 171700Z 1718/1824 30010KT CAVOK"
    },
    {
      "icao": "HESX",
      "alert": "OK",
      "vis_m": 9999,
      "fzfg": false,
      "metar_trigger": false,
      "taf_trigger": false,
      "metar": "METAR HESX 172200Z 07010KT CAVOK 15/08 Q1007 NOSIG",
      "taf": "TAF HESX 171700Z 1718/1824 07009KT CAVOK"
    },
    {
      "icao": "LATI",
      "alert": "OK",
      "vis_m": 3000,
      "fzfg": false,
      "metar_trigger": false,
      "taf_trigger": false,
      "metar": "METAR LATI 172250Z VRB01KT 3000 BR SCT005 BKN060 OVC098 10/08 Q1010 NOSIG",
      "taf": "TAF LATI 171700Z 1718/1818 VRB05KT 9999 FEW030 BKN050 OVC070 TX17/1812Z TN09/1805Z"
    },
    {
      "icao": "LBPD",
      "alert": "OK",
      "vis_m": 9999,
      "fzfg": false,
      "metar_trigger": false,
      "taf_trigger": false,
      "metar": "METAR LBPD 172230Z AUTO 13008KT 9999 OVC220/// 04/00 Q1018",
      "taf": "TAF LBPD 171700Z 1718/1818 09010KT 9999 SCT070"
    },
    {
      "icao": "LBSF",
      "alert": "OK",
      "vis_m": 9999,
      "fzfg": false,
      "metar_trigger": false,
      "taf_trigger": false,
      "metar": "METAR LBSF 172230Z AUTO 12017KT 9999 NSC 05/M03 Q1016 NOSIG",
      "taf": "TAF LBSF 171700Z 1718/1818 10010KT 9999 SCT040"
    },
    {
      "icao": "LBWN",
      "alert": "OK",
      "vis_m": 9999,
      "fzfg": false,
      "metar_trigger": false,
      "taf_trigger": false,
      "metar": "METAR LBWN 172230Z AUTO 05009KT 9999 NCD 06/03 Q1019 NOSIG",
      "taf": "TAF LBWN 171700Z 1718/1818 11010KT 9999 SCT045"
    },
    {
      "icao": "LCLK",
      "alert": "OK",
      "vis_m": 9999,
      "fzfg": false,
      "metar_trigger": false,
      "taf_trigger": false,
      "metar": "METAR LCLK 172230Z 34008KT CAVOK 12/10 Q1011 NOSIG",
      "taf": "TAF LCLK 171730Z 1718/1818 35008KT CAVOK"
    },
    {
      "icao": "LCPH",
      "alert": "OK",
      "vis_m": 9999,
      "fzfg": false,
      "metar_trigger": false,
      "taf_trigger": false,
      "metar": "METAR LCPH 172230Z 15007KT 090V160 CAVOK 13/08 Q1010 NOSIG",
      "taf": "TAF LCPH 171730Z 1718/1818 07008KT 9999 FEW030"
    },
    {
      "icao": "LEAL",
      "alert": "OK",
      "vis_m": 9999,
      "fzfg": false,
      "metar_trigger": false,
      "taf_trigger": false,
      "metar": "METAR LEAL 172230Z 30002KT CAVOK 09/04 Q1013 NOSIG",
      "taf": "TAF LEAL 171700Z 1718/1818 VRB04KT CAVOK TX19/1812Z TN09/1806Z"
    },
    {
      "icao": "LEBB",
      "alert": "OK",
      "vis_m": 9999,
      "fzfg": false,
      "metar_trigger": false,
      "taf_trigger": false,
      "metar": "METAR LEBB 172230Z 10006KT 060V140 CAVOK 20/04 Q1007 NOSIG",
      "taf": "TAF LEBB 171700Z 1718/1818 12009KT CAVOK TX26/1814Z TN09/1806Z"
    },
    {
      "icao": "LEBL",
      "alert": "OK",
      "vis_m": 7000,
      "fzfg": false,
      "metar_trigger": false,
      "taf_trigger": false,
      "metar": "METAR LEBL 172230Z 32004KT 7000 SCT007 11/10 Q1014 NOSIG",
      "taf": "TAF LEBL 171700Z 1718/1818 14008KT CAVOK TX16/1813Z TN08/1806Z"
    },
    {
      "icao": "LECH",
      "alert": "OK",
      "vis_m": 9999,
      "fzfg": false,
      "metar_trigger": false,
      "taf_trigger": false,
      "metar": "METAR LECH 172230Z AUTO 04005KT CAVOK 09/05 Q1013",
      "taf": "TAF LECH 171700Z 1718/1818 VRB04KT CAVOK TX19/1812Z TN06/1806Z"
    },
    {
      "icao": "LEMD",
      "alert": "OK",
      "vis_m": 9999,
      "fzfg": false,
      "metar_trigger": false,
      "taf_trigger": false,
      "metar": "METAR LEMD 172230Z 33005KT CAVOK 09/03 Q1011 NOSIG",
      "taf": "TAF LEMD 171700Z 1718/1824 VRB04KT CAVOK TX20/1815Z TN04/1806Z"
    },
    {
      "icao": "LEMG",
      "alert": "OK",
      "vis_m": 9999,
      "fzfg": false,
      "metar_trigger": false,
      "taf_trigger": false,
      "metar": "METAR LEMG 172230Z 29009KT 250V320 CAVOK 11/07 Q1010 NOSIG",
      "taf": "TAF LEMG 171700Z 1718/1818 12010KT CAVOK TX19/1814Z TN08/1807Z"
    },
    {
      "icao": "LEVC",
      "alert": "OK",
      "vis_m": 9999,
      "fzfg": false,
      "metar_trigger": false,
      "taf_trigger": false,
      "metar": "METAR LEVC 172230Z VRB02KT CAVOK 10/07 Q1012 NOSIG",
      "taf": "TAF LEVC 171700Z 1718/1818 10009KT CAVOK TX18/1812Z TN06/1805Z"
    },
    {
      "icao": "LEXJ",
      "alert": "OK",
      "vis_m": 9999,
      "fzfg": false,
      "metar_trigger": false,
      "taf_trigger": false,
      "metar": "METAR LEXJ 172230Z AUTO VRB01KT CAVOK 08/06 Q1006",
      "taf": "TAF LEXJ 172000Z 1721/1821 20008KT CAVOK TX20/1812Z TN07/1806Z"
    },
    {
      "icao": "LEZG",
      "alert": "OK",
      "vis_m": 9999,
      "fzfg": false,
      "metar_trigger": false,
      "taf_trigger": false,
      "metar": "METAR LEZG 172230Z 09004KT CAVOK 12/07 Q1011 NOSIG",
      "taf": "TAF LEZG 171700Z 1718/1818 10010KT CAVOK TX21/1814Z TN07/1806Z"
    },
    {
      "icao": "LEZL",
      "alert": "OK",
      "vis_m": 9999,
      "fzfg": false,
      "metar_trigger": false,
      "taf_trigger": false,
      "metar": "METAR LEZL 172230Z 28009KT CAVOK 17/09 Q1009 NOSIG",
      "taf": "TAF LEZL 172000Z 1721/1821 29010KT CAVOK TX25/1815Z TN10/1807Z"
    },
    {
      "icao": "LFBD",
      "alert": "OK",
      "vis_m": 9999,
      "fzfg": false,
      "metar_trigger": false,
      "taf_trigger": false,
      "metar": "METAR LFBD 172230Z AUTO 09004KT CAVOK 11/09 Q1010 NOSIG",
      "taf": "TAF LFBD 171700Z 1718/1824 10008KT CAVOK TX21/1815Z TN07/1806Z"
    },
    {
      "icao": "LFLL",
      "alert": "OK",
      "vis_m": 9999,
      "fzfg": false,
      "metar_trigger": false,
      "taf_trigger": false,
      "metar": "METAR LFLL 172230Z 20003KT CAVOK 09/05 Q1015 NOSIG",
      "taf": "TAF LFLL 171700Z 1718/1824 34005KT CAVOK"
    },
    {
      "icao": "LFLS",
      "alert": "OK",
      "vis_m": 9999,
      "fzfg": false,
      "metar_trigger": false,
      "taf_trigger": false,
      "metar": "METAR LFLS 172230Z AUTO VRB02KT CAVOK 07/02 Q1015",
      "taf": "TAF LFLS 171400Z 1715/1815 02005KT CAVOK"
    },
    {
      "icao": "LFMN",
      "alert": "OK",
      "vis_m": 9999,
      "fzfg": false,
      "metar_trigger": false,
      "taf_trigger": false,
      "metar": "METAR LFMN 172230Z 34008KT CAVOK 12/04 Q1014 NOSIG",
      "taf": "TAF LFMN 172000Z 1721/1903 35005KT CAVOK"
    },
    {
      "icao": "LFOB",
      "alert": "OK",
      "vis_m": 9999,
      "fzfg": false,
      "metar_trigger": false,
      "taf_trigger": false,
      "metar": "METAR LFOB 172230Z AUTO VRB03KT CAVOK 07/05 Q1018 NOSIG",
      "taf": "TAF LFOB 171700Z 1718/1818 15006KT CAVOK"
    },
    {
      "icao": "LFPO",
      "alert": "OK",
      "vis_m": 9999,
      "fzfg": false,
      "metar_trigger": false,
      "taf_trigger": false,
      "metar": "METAR LFPO 172230Z 09003KT CAVOK 10/06 Q1017 NOSIG",
      "taf": "TAF LFPO 171700Z 1718/1824 12005KT CAVOK"
    },
    {
      "icao": "LFSB",
      "alert": "OK",
      "vis_m": 9999,
      "fzfg": false,
      "metar_trigger": false,
      "taf_trigger": false,
      "metar": "METAR LFSB 172230Z AUTO 11003KT CAVOK 07/02 Q1019 NOSIG",
      "taf": "TAF LFSB 171700Z 1718/1818 VRB04KT 9999 BKN055"
    },
    {
      "icao": "LGAV",
      "alert": "OK",
      "vis_m": 9999,
      "fzfg": false,
      "metar_trigger": false,
      "taf_trigger": false,
      "metar": "METAR LGAV 172250Z 36011KT 9999 FEW020 BKN070 12/03 Q1011 NOSIG",
      "taf": "TAF LGAV 171700Z 1718/1818 02012KT 9999 SCT020 BKN070"
    },
    {
      "icao": "LGTS",
      "alert": "OK",
      "vis_m": 9999,
      "fzfg": false,
      "metar_trigger": false,
      "taf_trigger": false,
      "metar": "METAR LGTS 172250Z 10004KT 9999 SCT025 10/04 Q1015 NOSIG",
      "taf": "TAF LGTS 171700Z 1718/1818 14013KT 9999 SCT025"
    },
    {
      "icao": "LHBP",
      "alert": "OK",
      "vis_m": 9999,
      "fzfg": false,
      "metar_trigger": false,
      "taf_trigger": false,
      "metar": "METAR LHBP 172230Z 34005KT CAVOK 07/03 Q1019 NOSIG",
      "taf": "TAF LHBP 171715Z 1718/1818 01007KT 9999 SCT040 BKN080"
    },
    {
      "icao": "LHDC",
      "alert": "OK",
      "vis_m": 9999,
      "fzfg": false,
      "metar_trigger": false,
      "taf_trigger": false,
      "metar": "METAR LHDC 172215Z AUTO 04011KT CAVOK 07/03 Q1019",
      "taf": "TAF LHDC 171415Z 1715/1724 12006KT CAVOK"
    },
    {
      "icao": "LIBD",
      "alert": "OK",
      "vis_m": 9999,
      "fzfg": false,
      "metar_trigger": false,
      "taf_trigger": false,
      "metar": "METAR LIBD 172250Z 32006KT 290V360 9999 FEW035 10/05 Q1010",
      "taf": "TAF LIBD 171700Z 1718/1818 28008KT 9999 SCT030"
    },
    {
      "icao": "LIBG",
      "alert": "OK",
      "vis_m": null,
      "fzfg": false,
      "metar_trigger": false,
      "taf_trigger": false,
      "metar": "",
      "taf": "TAF LIBG 171700Z 1718/1803 VRB06KT 9999 SCT025"
    },
    {
      "icao": "LIBP",
      "alert": "OK",
      "vis_m": 9999,
      "fzfg": false,
      "metar_trigger": false,
      "taf_trigger": false,
      "metar": "METAR LIBP 172250Z AUTO 23006KT 210V290 9999 -RA BKN041/// BKN076/// BKN130/// 06/05 Q1013",
      "taf": ""
    },
    {
      "icao": "LIBR",
      "alert": "OK",
      "vis_m": 9999,
      "fzfg": false,
      "metar_trigger": false,
      "taf_trigger": false,
      "metar": "METAR LIBR 172250Z 35005KT 9999 -RA BKN040 10/07 Q1010",
      "taf": "TAF LIBR 171700Z 1718/1818 34008KT 9999 BKN035"
    },
    {
      "icao": "LICA",
      "alert": "OK",
      "vis_m": 9999,
      "fzfg": false,
      "metar_trigger": false,
      "taf_trigger": false,
      "metar": "METAR LICA 172250Z AUTO 06007KT 9999 -RA OVC038/// 12/11 Q1009",
      "taf": "TAF LICA 171700Z 1718/1818 08010KT 9999 BKN040"
    },
    {
      "icao": "LICC",
      "alert": "OK",
      "vis_m": 9999,
      "fzfg": false,
      "metar_trigger": false,
      "taf_trigger": false,
      "metar": "METAR LICC 172250Z 02005KT 9999 -DZ FEW030 BKN050 14/12 Q1009",
      "taf": "TAF LICC 171700Z 1718/1818 06010KT 9999 BKN030"
    },
    {
      "icao": "LICJ",
      "alert": "OK",
      "vis_m": 9999,
      "fzfg": false,
      "metar_trigger": false,
      "taf_trigger": false,
      "metar": "METAR LICJ 172250Z 33012KT 9999 SCT020 15/12 Q1010",
      "taf": "TAF LICJ 171700Z 1718/1818 03016KT 9999 SCT020"
    },
    {
      "icao": "LIMC",
      "alert": "OK",
      "vis_m": 9999,
      "fzfg": false,
      "metar_trigger": false,
      "taf_trigger": false,
      "metar": "METAR LIMC 172250Z 10006KT 070V130 9999 SCT050 11/02 Q1017 NOSIG",
      "taf": "TAF LIMC 171700Z 1718/1824 VRB05KT 9999 SCT050"
    },
    {
      "icao": "LIME",
      "alert": "OK",
      "vis_m": 9999,
      "fzfg": false,
      "metar_trigger": false,
      "taf_trigger": false,
      "metar": "METAR LIME 172250Z AUTO 13006KT 9999 OVC055/// 10/00 Q1017",
      "taf": "TAF LIME 171700Z 1718/1818 VRB06KT 9999 SCT050"
    },
    {
      "icao": "LIMF",
      "alert": "OK",
      "vis_m": 9999,
      "fzfg": false,
      "metar_trigger": false,
      "taf_trigger": false,
      "metar": "METAR LIMF 172250Z 01006KT 9999 OVC045 11/05 Q1016",
      "taf": "TAF LIMF 171700Z 1718/1818 VRB05KT 9999 SCT030"
    },
    {
      "icao": "LIMJ",
      "alert": "OK",
      "vis_m": 9999,
      "fzfg": false,
      "metar_trigger": false,
      "taf_trigger": false,
      "metar": "METAR LIMJ 172250Z 02003KT CAVOK 12/03 Q1015",
      "taf": "TAF LIMJ 171700Z 1718/1818 35012KT 9999 SCT020"
    },
    {
      "icao": "LIPE",
      "alert": "OK",
      "vis_m": 9999,
      "fzfg": false,
      "metar_trigger": false,
      "taf_trigger": false,
      "metar": "METAR LIPE 172250Z AUTO 10009KT 9999 SCT041/// BKN067/// BKN094/// 08/03 Q1018",
      "taf": "TAF LIPE 171700Z 1718/1818 09010KT 9999 FEW050"
    },
    {
      "icao": "LIPH",
      "alert": "OK",
      "vis_m": 9999,
      "fzfg": false,
      "metar_trigger": false,
      "taf_trigger": false,
      "metar": "METAR LIPH 172250Z AUTO 35003KT 9999 FEW065/// BKN096/// 09/01 Q1018",
      "taf": ""
    },
    {
      "icao": "LIPQ",
      "alert": "OK",
      "vis_m": 9999,
      "fzfg": false,
      "metar_trigger": false,
      "taf_trigger": false,
      "metar": "METAR LIPQ 172250Z AUTO 07009KT 9999 NCD 10/M06 Q1018",
      "taf": "TAF LIPQ 171700Z 1718/1818 06006KT 9999 SCT060"
    },
    {
      "icao": "LIPR",
      "alert": "OK",
      "vis_m": 9999,
      "fzfg": false,
      "metar_trigger": false,
      "taf_trigger": false,
      "metar": "METAR LIPR 172250Z AUTO 06012KT 9999 BKN120/// 11/00 Q1016",
      "taf": "TAF LIPR 171700Z 1718/1818 09005KT 9999 FEW045"
    },
    {
      "icao": "LIPX",
      "alert": "OK",
      "vis_m": 9999,
      "fzfg": false,
      "metar_trigger": false,
      "taf_trigger": false,
      "metar": "METAR LIPX 172250Z 09006KT 9999 OVC065 10/01 Q1018",
      "taf": "TAF LIPX 171700Z 1718/1818 VRB05KT 9999 SCT030"
    },
    {
      "icao": "LIPY",
      "alert": "OK",
      "vis_m": 9999,
      "fzfg": false,
      "metar_trigger": false,
      "taf_trigger": false,
      "metar": "METAR LIPY 172250Z AUTO 03017KT 9999 FEW047/// SCT052/// 11/02 Q1015",
      "taf": "TAF LIPY 171700Z 1718/1818 03012KT 9999 SCT040"
    },
    {
      "icao": "LIPZ",
      "alert": "OK",
      "vis_m": 9999,
      "fzfg": false,
      "metar_trigger": false,
      "taf_trigger": false,
      "metar": "METAR LIPZ 172250Z 05007KT CAVOK 09/01 Q1018 NOSIG",
      "taf": ""
    },
    {
      "icao": "LIRF",
      "alert": "OK",
      "vis_m": 9999,
      "fzfg": false,
      "metar_trigger": false,
      "taf_trigger": false,
      "metar": "METAR LIRF 172250Z 01010KT CAVOK 10/M01 Q1012 NOSIG",
      "taf": "TAF LIRF 171700Z 1718/1824 01015KT CAVOK"
    },
    {
      "icao": "LIRN",
      "alert": "OK",
      "vis_m": 9999,
      "fzfg": false,
      "metar_trigger": false,
      "taf_trigger": false,
      "metar": "METAR LIRN 172250Z 01004KT CAVOK 08/02 Q1011 NOSIG",
      "taf": "TAF LIRN 171700Z 1718/1818 03008KT 9999 BKN040"
    },
    {
      "icao": "LIRP",
      "alert": "OK",
      "vis_m": 9999,
      "fzfg": false,
      "metar_trigger": false,
      "taf_trigger": false,
      "metar": "METAR LIRP 172245Z 08009KT 9999 SCT070 13/M03 Q1015 NOSIG",
      "taf": "TAF LIRP 171700Z 1718/1818 09014KT 9999 SCT030 SCT060"
    },
    {
      "icao": "LIRZ",
      "alert": "OK",
      "vis_m": 9999,
      "fzfg": false,
      "metar_trigger": false,
      "taf_trigger": false,
      "metar": "METAR LIRZ 172250Z AUTO 36008KT 9999 NCD 06/00 Q1014",
      "taf": "TAF LIRZ 171700Z 1718/1818 03014KT CAVOK"
    },
    {
      "icao": "LJLJ",
      "alert": "OK",
      "vis_m": 9999,
      "fzfg": false,
      "metar_trigger": false,
      "taf_trigger": false,
      "metar": "METAR LJLJ 172230Z 27003KT 230V320 9999 FEW070 SCT120 BKN250 M00/M02 Q1018 NOSIG",
      "taf": "TAF LJLJ 171700Z 1718/1818 12006KT 9999 FEW050"
    },
    {
      "icao": "LKMT",
      "alert": "OK",
      "vis_m": 9000,
      "fzfg": false,
      "metar_trigger": false,
      "taf_trigger": false,
      "metar": "METAR LKMT 172230Z 01008KT 9000 BKN018 OVC032 05/03 Q1025 NOSIG",
      "taf": "TAF LKMT 171700Z 1718/1818 04008KT 9999 SCT018 BKN035"
    },
    {
      "icao": "LKPR",
      "alert": "OK",
      "vis_m": 9999,
      "fzfg": false,
      "metar_trigger": false,
      "taf_trigger": false,
      "metar": "METAR LKPR 172230Z 10005KT 070V200 CAVOK 01/M02 Q1026 NOSIG",
      "taf": "TAF LKPR 172000Z 1721/1903 06005KT CAVOK"
    },
    {
      "icao": "LLBG",
      "alert": "OK",
      "vis_m": 9999,
      "fzfg": false,
      "metar_trigger": false,
      "taf_trigger": false,
      "metar": "METAR LLBG 172250Z VRB01KT CAVOK 12/09 Q1009 NOSIG",
      "taf": "TAF LLBG 171703Z 1718/1818 VRB04KT CAVOK TX29/1812Z TN09/1803Z"
    },
    {
      "icao": "LMML",
      "alert": "OK",
      "vis_m": 9999,
      "fzfg": false,
      "metar_trigger": false,
      "taf_trigger": false,
      "metar": "METAR LMML 172245Z 02011KT 9999 FEW015TCU BKN020 15/12 Q1008 NOSIG",
      "taf": "TAF LMML 171700Z 1718/1818 03015KT 9999 FEW020"
    },
    {
      "icao": "LOWW",
      "alert": "OK",
      "vis_m": 9999,
      "fzfg": false,
      "metar_trigger": false,
      "taf_trigger": false,
      "metar": "METAR LOWW 172250Z 34008KT 9999 FEW046 05/02 Q1022 NOSIG",
      "taf": "TAF LOWW 172015Z 1721/1903 34012KT 9999 BKN040 TX16/1815Z TN03/1903Z"
    },
    {
      "icao": "LPFR",
      "alert": "OK",
      "vis_m": 7000,
      "fzfg": false,
      "metar_trigger": false,
      "taf_trigger": false,
      "metar": "METAR LPFR 172230Z 25004KT 170V260 7000 -RA FEW012 FEW020CB SCT045 15/14 Q1010",
      "taf": "TAF LPFR 171700Z 1718/1818 16010KT 9999 SCT015 BKN025"
    },
    {
      "icao": "LPMA",
      "alert": "OK",
      "vis_m": 9999,
      "fzfg": false,
      "metar_trigger": false,
      "taf_trigger": false,
      "metar": "METAR LPMA 172230Z 25003KT 210V310 9999 SCT013 FEW018TCU 15/11 Q1005",
      "taf": "TAF LPMA 171700Z 1718/1818 VRB05KT 9999 SCT015"
    },
    {
      "icao": "LPPR",
      "alert": "OK",
      "vis_m": 9999,
      "fzfg": false,
      "metar_trigger": false,
      "taf_trigger": false,
      "metar": "METAR LPPR 172230Z 19008KT 9999 FEW017 BKN020 15/12 Q1008",
      "taf": "TAF LPPR 171700Z 1718/1818 VRB02KT 9999 SCT030"
    },
    {
      "icao": "LPPS",
      "alert": "OK",
      "vis_m": 9999,
      "fzfg": false,
      "metar_trigger": false,
      "taf_trigger": false,
      "metar": "METAR LPPS 172230Z 26010KT 9999 FEW012 15/12 Q1005",
      "taf": "TAF LPPS 171700Z 1718/1824 27010KT 9999 SCT015"
    },
    {
      "icao": "LPPT",
      "alert": "OK",
      "vis_m": 9999,
      "fzfg": false,
      "metar_trigger": false,
      "taf_trigger": false,
      "metar": "METAR LPPT 172230Z 15008KT 110V180 9999 FEW003 BKN008 14/13 Q1007 RERA",
      "taf": "TAF LPPT 171700Z 1718/1824 22018KT 9999 SCT015 BKN025"
    },
    {
      "icao": "LQBK",
      "alert": "OK",
      "vis_m": 6000,
      "fzfg": false,
      "metar_trigger": false,
      "taf_trigger": false,
      "metar": "METAR LQBK 172230Z 32005KT 300V050 6000 RA SCT011 BKN015 OVC025 05/03 Q1017 NOSIG",
      "taf": "TAF LQBK 171700Z 1718/1818 30005KT 9999 BKN020 OVC030 TX12/1814Z TN03/1806Z"
    },
    {
      "icao": "LQSA",
      "alert": "OK",
      "vis_m": 2000,
      "fzfg": false,
      "metar_trigger": false,
      "taf_trigger": false,
      "metar": "METAR LQSA 172230Z 30004KT 2000 SN BKN005 OVC020 00/00 Q1014",
      "taf": ""
    },
    {
      "icao": "LQTZ",
      "alert": "OK",
      "vis_m": 6000,
      "fzfg": false,
      "metar_trigger": false,
      "taf_trigger": false,
      "metar": "METAR LQTZ 172230Z 29003KT 6000 -RA BKN007 OVC014 03/03 Q1015",
      "taf": "TAF LQTZ 171700Z 1718/1818 02006KT 9999 SCT015 BKN030 TX12/1813Z TN01/1806Z"
    },
    {
      "icao": "LRBC",
      "alert": "OK",
      "vis_m": 9999,
      "fzfg": false,
      "metar_trigger": false,
      "taf_trigger": false,
      "metar": "METAR LRBC 172230Z 35002KT CAVOK 02/M03 Q1022",
      "taf": "TAF LRBC 172000Z 1721/1806 VRB04KT CAVOK"
    },
    {
      "icao": "LRBS",
      "alert": "OK",
      "vis_m": 9999,
      "fzfg": false,
      "metar_trigger": false,
      "taf_trigger": false,
      "metar": "METAR LRBS 172230Z 05004KT CAVOK 04/M01 Q1021 NOSIG",
      "taf": "TAF LRBS 171700Z 1718/1818 09008KT CAVOK"
    },
    {
      "icao": "LRBV",
      "alert": "OK",
      "vis_m": 9999,
      "fzfg": false,
      "metar_trigger": false,
      "taf_trigger": false,
      "metar": "METAR LRBV 172230Z AUTO VRB01KT 9999 NCD 00/M03 Q1020",
      "taf": "TAF LRBV 172000Z 1721/1806 10008KT CAVOK"
    },
    {
      "icao": "LRCL",
      "alert": "OK",
      "vis_m": 9999,
      "fzfg": false,
      "metar_trigger": false,
      "taf_trigger": false,
      "metar": "METAR LRCL 172230Z 04003KT 010V070 CAVOK 04/M04 Q1020",
      "taf": "TAF LRCL 172000Z 1721/1806 VRB04KT CAVOK"
    },
    {
      "icao": "LRCV",
      "alert": "OK",
      "vis_m": 9999,
      "fzfg": false,
      "metar_trigger": false,
      "taf_trigger": false,
      "metar": "METAR LRCV 172230Z 06009KT CAVOK 05/02 Q1019",
      "taf": "TAF LRCV 172000Z 1721/1806 08010KT CAVOK"
    },
    {
      "icao": "LRIA",
      "alert": "OK",
      "vis_m": 9999,
      "fzfg": false,
      "metar_trigger": false,
      "taf_trigger": false,
      "metar": "METAR LRIA 172230Z 08005KT CAVOK 06/M04 Q1023",
      "taf": "TAF LRIA 172000Z 1721/1806 VRB04KT CAVOK"
    },
    {
      "icao": "LROP",
      "alert": "OK",
      "vis_m": 9999,
      "fzfg": false,
      "metar_trigger": false,
      "taf_trigger": false,
      "metar": "METAR LROP 172230Z 05006KT CAVOK 04/M03 Q1021 NOSIG",
      "taf": "TAF LROP 171700Z 1718/1818 09008KT CAVOK"
    },
    {
      "icao": "LRSB",
      "alert": "OK",
      "vis_m": 9999,
      "fzfg": false,
      "metar_trigger": false,
      "taf_trigger": false,
      "metar": "METAR LRSB 172230Z 11010KT CAVOK 08/M01 Q1018",
      "taf": "TAF LRSB 171700Z 1718/1818 14006KT 9999 BKN050"
    },
    {
      "icao": "LRSM",
      "alert": "OK",
      "vis_m": 9999,
      "fzfg": false,
      "metar_trigger": false,
      "taf_trigger": false,
      "metar": "METAR LRSM 172230Z AUTO 10006KT 9999 NCD 06/M01 Q1020",
      "taf": "TAF LRSM 171400Z 1715/1724 04008KT CAVOK"
    },
    {
      "icao": "LRSV",
      "alert": "OK",
      "vis_m": 9999,
      "fzfg": false,
      "metar_trigger": false,
      "taf_trigger": false,
      "metar": "METAR LRSV 172230Z 14003KT CAVOK 06/M03 Q1022",
      "taf": "TAF LRSV 172000Z 1721/1806 09007KT CAVOK"
    },
    {
      "icao": "LRTM",
      "alert": "OK",
      "vis_m": 9999,
      "fzfg": false,
      "metar_trigger": false,
      "taf_trigger": false,
      "metar": "METAR LRTM 172230Z AUTO 08004KT 9999 NCD 04/M03 Q1020",
      "taf": "TAF LRTM 171400Z 1715/1724 VRB04KT CAVOK"
    },
    {
      "icao": "LRTR",
      "alert": "OK",
      "vis_m": 9999,
      "fzfg": false,
      "metar_trigger": false,
      "taf_trigger": false,
      "metar": "METAR LRTR 172230Z 07006KT CAVOK 03/02 Q1017",
      "taf": "TAF LRTR 171700Z 1718/1818 02006KT CAVOK"
    },
    {
      "icao": "LTAC",
      "alert": "OK",
      "vis_m": 9999,
      "fzfg": false,
      "metar_trigger": false,
      "taf_trigger": false,
      "metar": "METAR LTAC 172250Z 00000KT 9999 FEW040 BKN180 03/M01 Q1013 NOSIG",
      "taf": "TAF LTAC 171640Z 1718/1818 VRB02KT 9999 SCT040 SCT100"
    },
    {
      "icao": "LTFM",
      "alert": "OK",
      "vis_m": 9999,
      "fzfg": false,
      "metar_trigger": false,
      "taf_trigger": false,
      "metar": "METAR LTFM 172250Z 05011KT 9999 FEW013 SCT022 07/05 Q1016 NOSIG",
      "taf": "TAF LTFM 171640Z 1718/1824 05015KT 9999 FEW012 SCT022 BKN180"
    },
    {
      "icao": "LUKK",
      "alert": "OK",
      "vis_m": 9999,
      "fzfg": false,
      "metar_trigger": false,
      "taf_trigger": false,
      "metar": "METAR LUKK 172230Z 36003KT CAVOK 05/M02 Q1023 NOSIG",
      "taf": "TAF LUKK 171725Z 1718/1818 VRB05KT CAVOK"
    },
    {
      "icao": "LWOH",
      "alert": "OK",
      "vis_m": null,
      "fzfg": false,
      "metar_trigger": false,
      "taf_trigger": false,
      "metar": "",
      "taf": "TAF LWOH 172030Z 1721/1821 18010KT 9999 SCT040 BKN090"
    },
    {
      "icao": "LWSK",
      "alert": "OK",
      "vis_m": 9999,
      "fzfg": false,
      "metar_trigger": false,
      "taf_trigger": false,
      "metar": "METAR LWSK 172250Z VRB02KT 9999 BKN058 10/04 Q1013 NOSIG",
      "taf": "TAF LWSK 172030Z 1721/1821 14010KT 9999 SCT040 BKN080"
    },
    {
      "icao": "LYBE",
      "alert": "OK",
      "vis_m": 9999,
      "fzfg": false,
      "metar_trigger": false,
      "taf_trigger": false,
      "metar": "METAR LYBE 172230Z 06005KT CAVOK 10/M00 Q1016 NOSIG",
      "taf": "TAF LYBE 171700Z 1718/1818 05008KT CAVOK TX14/1813Z TN07/1802Z"
    },
    {
      "icao": "LYNI",
      "alert": "OK",
      "vis_m": 9999,
      "fzfg": false,
      "metar_trigger": false,
      "taf_trigger": false,
      "metar": "METAR LYNI 172230Z 08015KT 9999 BKN090 11/M02 Q1014 NOSIG",
      "taf": "TAF LYNI 171700Z 1718/1818 06010KT 9999 SCT050 BKN080 TX14/1814Z TN08/1805Z"
    },
    {
      "icao": "LYPG",
      "alert": "OK",
      "vis_m": 9999,
      "fzfg": false,
      "metar_trigger": false,
      "taf_trigger": false,
      "metar": "METAR LYPG 172230Z 32006KT 9999 -RA FEW030 SCT040 OVC076 07/06 Q1011 NOSIG",
      "taf": "TAF LYPG 171700Z 1718/1818 36010KT 9999 BKN040 OVC070 TX15/1812Z TN07/1804Z"
    },
    {
      "icao": "LZIB",
      "alert": "OK",
      "vis_m": 9999,
      "fzfg": false,
      "metar_trigger": false,
      "taf_trigger": false,
      "metar": "METAR LZIB 172230Z 36007KT CAVOK 07/02 Q1022 NOSIG",
      "taf": "TAF LZIB 171715Z 1718/1818 01011KT 9999 SCT040"
    },
    {
      "icao": "LZKZ",
      "alert": "OK",
      "vis_m": 9999,
      "fzfg": false,
      "metar_trigger": false,
      "taf_trigger": false,
      "metar": "METAR LZKZ 172230Z 02013KT CAVOK 08/03 Q1021 NOSIG",
      "taf": "TAF LZKZ 171715Z 1718/1818 01015KT CAVOK"
    },
    {
      "icao": "LZTT",
      "alert": "OK",
      "vis_m": 9999,
      "fzfg": false,
      "metar_trigger": false,
      "taf_trigger": false,
      "metar": "METAR LZTT 172230Z 05010KT 9999 OVC020 04/01 Q1022",
      "taf": "TAF LZTT 171715Z 1718/1818 07011KT 9999 SCT013 BKN035"
    },
    {
      "icao": "OEJN",
      "alert": "OK",
      "vis_m": 9999,
      "fzfg": false,
      "metar_trigger": false,
      "taf_trigger": false,
      "metar": "METAR OEJN 172200Z 33004KT 9999 FEW040 27/14 Q1007 NOSIG",
      "taf": "TAF OEJN 171700Z 1718/1824 36005KT 7000 SCT040"
    },
    {
      "icao": "OEMA",
      "alert": "OK",
      "vis_m": 9999,
      "fzfg": false,
      "metar_trigger": false,
      "taf_trigger": false,
      "metar": "METAR OEMA 172200Z 31005KT CAVOK 25/08 Q1012 NOSIG",
      "taf": "TAF OEMA 171700Z 1718/1824 VRB03KT 9999 SCT045"
    },
    {
      "icao": "OJAI",
      "alert": "OK",
      "vis_m": 5000,
      "fzfg": false,
      "metar_trigger": false,
      "taf_trigger": false,
      "metar": "METAR OJAI 172200Z 06007KT 5000 HZ NSC 12/00 Q1013 NOSIG",
      "taf": "TAF OJAI 171638Z 1718/1824 13010KT 5000 HZ NSC"
    },
    {
      "icao": "OMAA",
      "alert": "OK",
      "vis_m": null,
      "fzfg": false,
      "metar_trigger": false,
      "taf_trigger": false,
      "metar": "",
      "taf": ""
    },
    {
      "icao": "OMDB",
      "alert": "OK",
      "vis_m": null,
      "fzfg": false,
      "metar_trigger": false,
      "taf_trigger": false,
      "metar": "",
      "taf": ""
    },
    {
      "icao": "UAAA",
      "alert": "OK",
      "vis_m": 9999,
      "fzfg": false,
      "metar_trigger": false,
      "taf_trigger": false,
      "metar": "METAR UAAA 172230Z 15002MPS 9999 BKN100 M01/M03 Q1016 NOSIG",
      "taf": "TAF UAAA 171705Z 1718/1818 23002MPS 9999 SCT050 TX11/1809Z TNM01/1801Z"
    },
    {
      "icao": "UBBB",
      "alert": "OK",
      "vis_m": 9999,
      "fzfg": false,
      "metar_trigger": false,
      "taf_trigger": false,
      "metar": "METAR UBBB 172230Z 30010KT 9999 SCT040 09/06 Q1018 NOSIG",
      "taf": "TAF UBBB 171659Z 1718/1818 30010KT 9999 BKN030 TX14/1810Z TN05/1801Z"
    },
    {
      "icao": "UDSG",
      "alert": "OK",
      "vis_m": 9999,
      "fzfg": false,
      "metar_trigger": false,
      "taf_trigger": false,
      "metar": "METAR UDSG 172230Z 06004KT 9999 FEW049 00/00 Q1018 NOSIG",
      "taf": "TAF UDSG 171700Z 1718/1818 VRB06KT 9999 FEW050"
    },
    {
      "icao": "UDYZ",
      "alert": "OK",
      "vis_m": 9999,
      "fzfg": false,
      "metar_trigger": false,
      "taf_trigger": false,
      "metar": "METAR UDYZ 172230Z 11002KT 9999 SCT046 08/02 Q1016 NOSIG",
      "taf": "TAF UDYZ 171700Z 1718/1818 04006KT 9999 FEW040"
    },
    {
      "icao": "UGKO",
      "alert": "OK",
      "vis_m": 150,
      "fzfg": false,
      "metar_trigger": false,
      "taf_trigger": false,
      "metar": "METAR UGKO 172230Z VRB02KT 0150 R07/0350N FG VV002 03/03 Q1020 NOSIG",
      "taf": ""
    }
  ]
}