{
  "ts_utc": "2025-12-20T14:21:06Z",
  "threshold_m": 150,
  "source": "stations_override.txt (ICAO list) + aviationweather.gov (METAR/TAF raw)",
  "station_count": 114,
  "stations": [
    {
      "icao": "BIKF",
      "alert": "OK",
      "vis_m": 9999,
      "fzfg": false,
      "metar_trigger": false,
      "taf_trigger": false,
      "metar": "METAR BIKF 201400Z 14010KT 9999 -RA OVC014 07/05 Q0989",
      "taf": "TAF BIKF 201348Z 2015/2115 12020G30KT 9999 -RA BKN015 OVC025 TX09/2015Z TN04/2019Z"
    },
    {
      "icao": "BKPR",
      "alert": "OK",
      "vis_m": 150,
      "fzfg": false,
      "metar_trigger": false,
      "taf_trigger": false,
      "metar": "METAR BKPR 201400Z VRB01KT 0150 R17/0250N R35/0275N FG VV001 01/01 Q1018 NOSIG",
      "taf": ""
    },
    {
      "icao": "EBBR",
      "alert": "OK",
      "vis_m": 9999,
      "fzfg": false,
      "metar_trigger": false,
      "taf_trigger": false,
      "metar": "METAR EBBR 201350Z 09003KT 060V120 9999 BKN049 06/05 Q1013 NOSIG",
      "taf": "TAF EBBR 201103Z 2012/2118 08005KT 6000 FEW018"
    },
    {
      "icao": "EBCI",
      "alert": "OK",
      "vis_m": 6000,
      "fzfg": false,
      "metar_trigger": false,
      "taf_trigger": false,
      "metar": "METAR EBCI 201350Z 07007KT 6000 -RA BKN030 06/06 Q1013 TEMPO 4000 -RA",
      "taf": "TAF EBCI 201103Z 2012/2118 11004KT 8000 FEW018"
    },
    {
      "icao": "EDDB",
      "alert": "OK",
      "vis_m": 9999,
      "fzfg": false,
      "metar_trigger": false,
      "taf_trigger": false,
      "metar": "METAR EDDB 201350Z AUTO VRB01KT CAVOK 08/06 Q1019 BECMG 08005KT",
      "taf": "TAF EDDB 201100Z 2012/2112 VRB02KT CAVOK"
    },
    {
      "icao": "EDDH",
      "alert": "OK",
      "vis_m": 300,
      "fzfg": false,
      "metar_trigger": false,
      "taf_trigger": false,
      "metar": "METAR EDDH 201350Z AUTO 12003KT 090V150 0300 0200 R23/0500U R15/0450N FG VV003 04/04 Q1019 TEMPO 0400 VV000",
      "taf": "TAF EDDH 201124Z 2012/2118 VRB03KT 0500 FG VV003"
    },
    {
      "icao": "EDDK",
      "alert": "OK",
      "vis_m": 9999,
      "fzfg": false,
      "metar_trigger": false,
      "taf_trigger": false,
      "metar": "METAR EDDK 201350Z AUTO 10003KT 060V140 9999 BKN021 BKN025 BKN031 09/08 Q1015 TEMPO 4000 BR BKN010",
      "taf": "TAF EDDK 201100Z 2012/2118 11007KT 9999 BKN020"
    },
    {
      "icao": "EDDN",
      "alert": "OK",
      "vis_m": 9999,
      "fzfg": false,
      "metar_trigger": false,
      "taf_trigger": false,
      "metar": "METAR EDDN 201350Z AUTO 29005KT CAVOK 09/04 Q1017 NOSIG",
      "taf": ""
    },
    {
      "icao": "EDFH",
      "alert": "OK",
      "vis_m": 500,
      "fzfg": false,
      "metar_trigger": false,
      "taf_trigger": false,
      "metar": "METAR EDFH 201350Z 14008KT 0500 R21/1000D FG OVC001 07/07 Q1014",
      "taf": "TAF EDFH 201100Z 2012/2112 12007KT 0800 FG BKN003"
    },
    {
      "icao": "EDJA",
      "alert": "OK",
      "vis_m": 9999,
      "fzfg": false,
      "metar_trigger": false,
      "taf_trigger": false,
      "metar": "METAR EDJA 201350Z VRB02KT CAVOK 06/03 Q1015",
      "taf": "TAF EDJA 201100Z 2012/2021 VRB03KT 5000 BR SCT002"
    },
    {
      "icao": "EDLW",
      "alert": "OK",
      "vis_m": 9999,
      "fzfg": false,
      "metar_trigger": false,
      "taf_trigger": false,
      "metar": "METAR EDLW 201350Z 01003KT CAVOK 06/05 Q1015",
      "taf": "TAF EDLW 201100Z 2012/2112 VRB03KT 9999 BKN030"
    },
    {
      "icao": "EDSB",
      "alert": "OK",
      "vis_m": 9999,
      "fzfg": false,
      "metar_trigger": false,
      "taf_trigger": false,
      "metar": "METAR EDSB 201350Z COR 36002KT CAVOK 09/07 Q1015",
      "taf": "TAF EDSB 201100Z 2012/2112 VRB03KT 9999 SCT004 BKN045"
    },
    {
      "icao": "EETN",
      "alert": "OK",
      "vis_m": 9999,
      "fzfg": false,
      "metar_trigger": false,
      "taf_trigger": false,
      "metar": "METAR EETN 201420Z 22011KT 9999 BKN011 FEW019CB 06/05 Q1007 TEMPO 5000 SHRA",
      "taf": "TAF EETN 201130Z 2012/2112 22012KT 9999 BKN012 BKN035"
    },
    {
      "icao": "EFHK",
      "alert": "OK",
      "vis_m": 9999,
      "fzfg": false,
      "metar_trigger": false,
      "taf_trigger": false,
      "metar": "METAR EFHK 201350Z 21010KT 9999 FEW010 BKN012 BKN040 06/05 Q1005 TEMPO SCT012 BKN040",
      "taf": "TAF EFHK 201125Z 2012/2112 22009KT 9999 FEW010 BKN035"
    },
    {
      "icao": "EFTU",
      "alert": "OK",
      "vis_m": 9999,
      "fzfg": false,
      "metar_trigger": false,
      "taf_trigger": false,
      "metar": "METAR EFTU 201350Z AUTO 25011KT 9999 BKN011 06/05 Q1004",
      "taf": ""
    },
    {
      "icao": "EGGW",
      "alert": "OK",
      "vis_m": 9999,
      "fzfg": false,
      "metar_trigger": false,
      "taf_trigger": false,
      "metar": "METAR EGGW 201350Z AUTO 13010KT 9999 SCT016 BKN021 08/05 Q1010",
      "taf": "TAF EGGW 201104Z 2012/2112 13007KT 9999 FEW025"
    },
    {
      "icao": "EGKK",
      "alert": "OK",
      "vis_m": 9999,
      "fzfg": false,
      "metar_trigger": false,
      "taf_trigger": false,
      "metar": "METAR EGKK 201350Z 12008KT 9999 FEW021 09/06 Q1010",
      "taf": "TAF EGKK 201055Z 2012/2118 13007KT 9999 FEW025"
    },
    {
      "icao": "EHEH",
      "alert": "OK",
      "vis_m": 9999,
      "fzfg": false,
      "metar_trigger": false,
      "taf_trigger": false,
      "metar": "METAR EHEH 201355Z AUTO 06007KT 030V120 9999 BKN065 BKN090 OVC110 08/05 Q1014 BLU NOSIG RMK TREND REMOTE BY EHWX",
      "taf": "TAF EHEH 201114Z 2012/2118 08007KT CAVOK"
    },
    {
      "icao": "EKBI",
      "alert": "OK",
      "vis_m": 9999,
      "fzfg": false,
      "metar_trigger": false,
      "taf_trigger": false,
      "metar": "METAR EKBI 201350Z AUTO 21005KT 170V230 9999 NCD 08/06 Q1017",
      "taf": "TAF EKBI 201127Z 2012/2112 24008KT 9999 BKN017"
    },
    {
      "icao": "EKCH",
      "alert": "OK",
      "vis_m": 9999,
      "fzfg": false,
      "metar_trigger": false,
      "taf_trigger": false,
      "metar": "METAR EKCH 201350Z AUTO 22009KT 9999 BKN015/// 07/05 Q1018 TEMPO BKN012",
      "taf": "TAF EKCH 201127Z 2012/2112 24010KT 9999 SCT010 BKN020"
    },
    {
      "icao": "ENTO",
      "alert": "OK",
      "vis_m": 9999,
      "fzfg": false,
      "metar_trigger": false,
      "taf_trigger": false,
      "metar": "METAR ENTO 201350Z 27005KT CAVOK 06/03 Q1011 NOSIG",
      "taf": "TAF ENTO 201100Z 2012/2112 24010KT CAVOK"
    },
    {
      "icao": "EPGD",
      "alert": "OK",
      "vis_m": 9999,
      "fzfg": false,
      "metar_trigger": false,
      "taf_trigger": false,
      "metar": "METAR EPGD 201400Z 27010KT 9999 BKN014 06/03 Q1018",
      "taf": "TAF EPGD 201130Z 2012/2112 29012KT 9999 BKN015"
    },
    {
      "icao": "EPKK",
      "alert": "OK",
      "vis_m": 700,
      "fzfg": false,
      "metar_trigger": false,
      "taf_trigger": false,
      "metar": "METAR EPKK 201400Z 20003KT 0700 R25/1100N FG SCT001 OVC002 03/03 Q1020",
      "taf": ""
    },
    {
      "icao": "EPKT",
      "alert": "OK",
      "vis_m": 3100,
      "fzfg": false,
      "metar_trigger": false,
      "taf_trigger": false,
      "metar": "METAR EPKT 201400Z 21004KT 3100 BR OVC002 04/04 Q1020",
      "taf": "TAF EPKT 201130Z 2012/2112 18005KT 0300 FG OVC001"
    },
    {
      "icao": "EPWA",
      "alert": "OK",
      "vis_m": 5000,
      "fzfg": false,
      "metar_trigger": false,
      "taf_trigger": false,
      "metar": "METAR EPWA 201400Z 23003KT 190V260 5000 BR BKN006 05/05 Q1019 BECMG 4000 BR BKN004",
      "taf": ""
    },
    {
      "icao": "EPWR",
      "alert": "OK",
      "vis_m": 2000,
      "fzfg": false,
      "metar_trigger": false,
      "taf_trigger": false,
      "metar": "METAR EPWR 201400Z 18004KT 2000 BR SCT002 OVC004 05/04 Q1020",
      "taf": ""
    },
    {
      "icao": "ESGG",
      "alert": "OK",
      "vis_m": 9999,
      "fzfg": false,
      "metar_trigger": false,
      "taf_trigger": false,
      "metar": "METAR ESGG 201350Z 25012KT 9999 BKN011 07/06 Q1014",
      "taf": "TAF ESGG 201130Z 2012/2112 23014KT 9999 BKN012"
    },
    {
      "icao": "ESKN",
      "alert": "OK",
      "vis_m": 9999,
      "fzfg": false,
      "metar_trigger": false,
      "taf_trigger": false,
      "metar": "METAR ESKN 201350Z 25011KT 9999 FEW020 BKN042 07/06 Q1008",
      "taf": "TAF ESKN 201130Z 2012/2112 24012KT 9999 BKN030"
    },
    {
      "icao": "ESMX",
      "alert": "OK",
      "vis_m": 9999,
      "fzfg": false,
      "metar_trigger": false,
      "taf_trigger": false,
      "metar": "METAR ESMX 201350Z AUTO 25007KT 210V290 9999 OVC015/// 07/06 Q1014 RESHUP REUP",
      "taf": "TAF ESMX 201130Z 2012/2015 23011KT 9999 OVC035"
    },
    {
      "icao": "EVRA",
      "alert": "OK",
      "vis_m": 9999,
      "fzfg": false,
      "metar_trigger": false,
      "taf_trigger": false,
      "metar": "METAR EVRA 201420Z 19007KT 9999 FEW016 04/03 Q1013 NOSIG",
      "taf": "TAF EVRA 201409Z 2015/2115 21007KT 9000 BKN015"
    },
    {
      "icao": "EYKA",
      "alert": "OK",
      "vis_m": 4500,
      "fzfg": false,
      "metar_trigger": false,
      "taf_trigger": false,
      "metar": "METAR EYKA 201350Z 24005KT 4500 -RA BR OVC003 04/04 Q1017",
      "taf": ""
    },
    {
      "icao": "EYVI",
      "alert": "OK",
      "vis_m": 900,
      "fzfg": false,
      "metar_trigger": false,
      "taf_trigger": false,
      "metar": "METAR EYVI 201350Z 20006KT 0900 R01/1800U FG VV001 01/01 Q1017 TEMPO 1500 RA BR",
      "taf": "TAF EYVI 201100Z 2012/2112 21010KT 0600 DZ FG OVC002"
    },
    {
      "icao": "GCLP",
      "alert": "OK",
      "vis_m": 9999,
      "fzfg": false,
      "metar_trigger": false,
      "taf_trigger": false,
      "metar": "METAR GCLP 201400Z 02019KT 9999 FEW035 BKN045 20/11 Q1022 NOSIG",
      "taf": "TAF GCLP 200800Z 2009/2109 02018KT 9999 SCT030 TX21/2014Z TN15/2106Z"
    },
    {
      "icao": "GCTS",
      "alert": "OK",
      "vis_m": 9999,
      "fzfg": false,
      "metar_trigger": false,
      "taf_trigger": false,
      "metar": "METAR GCTS 201400Z 09020KT 9999 SCT035 22/10 Q1022 NOSIG",
      "taf": "TAF GCTS 200800Z 2009/2109 09015KT 9999 SCT030 TX23/2014Z TN14/2106Z"
    },
    {
      "icao": "HECA",
      "alert": "OK",
      "vis_m": 9999,
      "fzfg": false,
      "metar_trigger": false,
      "taf_trigger": false,
      "metar": "METAR HECA 201400Z 05009KT CAVOK 22/04 Q1015",
      "taf": "TAF HECA 201100Z 2012/2118 08010KT 9999 SCT020"
    },
    {
      "icao": "HEGN",
      "alert": "OK",
      "vis_m": 9999,
      "fzfg": false,
      "metar_trigger": false,
      "taf_trigger": false,
      "metar": "METAR HEGN 201400Z 09004KT CAVOK 22/13 Q1016 NOSIG",
      "taf": "TAF HEGN 201100Z 2012/2118 35010KT CAVOK"
    },
    {
      "icao": "HESH",
      "alert": "OK",
      "vis_m": 9999,
      "fzfg": false,
      "metar_trigger": false,
      "taf_trigger": false,
      "metar": "METAR HESH 201400Z 03008KT CAVOK 21/09 Q1016 NOSIG",
      "taf": "TAF HESH 201100Z 2012/2118 02010KT CAVOK"
    },
    {
      "icao": "HESX",
      "alert": "OK",
      "vis_m": 9999,
      "fzfg": false,
      "metar_trigger": false,
      "taf_trigger": false,
      "metar": "METAR HESX 201400Z 11005KT CAVOK 19/07 Q1017 NOSIG",
      "taf": "TAF HESX 201100Z 2012/2118 05008KT 9999 SCT020"
    },
    {
      "icao": "LATI",
      "alert": "OK",
      "vis_m": 9999,
      "fzfg": false,
      "metar_trigger": false,
      "taf_trigger": false,
      "metar": "METAR LATI 201420Z 33004KT CAVOK 16/08 Q1015 NOSIG",
      "taf": "TAF LATI 201100Z 2012/2112 VRB05KT CAVOK TX17/2012Z TN02/2105Z"
    },
    {
      "icao": "LBSF",
      "alert": "OK",
      "vis_m": 9999,
      "fzfg": false,
      "metar_trigger": false,
      "taf_trigger": false,
      "metar": "METAR LBSF 201400Z 00000KT 9999 FEW034 10/03 Q1018 NOSIG",
      "taf": "TAF LBSF 201100Z 2012/2112 10010KT 7000 SCT030"
    },
    {
      "icao": "LBWN",
      "alert": "OK",
      "vis_m": 3200,
      "fzfg": false,
      "metar_trigger": false,
      "taf_trigger": false,
      "metar": "METAR LBWN 201400Z AUTO 26004KT 3200 -SHRA BR BKN009/// BKN023/// OVC027/// 08/08 Q1021 REDZ TEMPO 5000 BR",
      "taf": "TAF LBWN 201100Z 2012/2112 VRB03KT 4000 BR OVC009"
    },
    {
      "icao": "LCLK",
      "alert": "OK",
      "vis_m": 9999,
      "fzfg": false,
      "metar_trigger": false,
      "taf_trigger": false,
      "metar": "METAR LCLK 201400Z 19004KT 9999 FEW025 20/12 Q1017 NOSIG",
      "taf": "TAF LCLK 201130Z 2012/2112 19010KT 9999 FEW030"
    },
    {
      "icao": "LDDU",
      "alert": "OK",
      "vis_m": 9999,
      "fzfg": false,
      "metar_trigger": false,
      "taf_trigger": false,
      "metar": "METAR LDDU 201400Z 17004KT 9999 FEW030 14/09 Q1015 NOSIG",
      "taf": "TAF LDDU 201125Z 2012/2112 19006KT 9999 FEW040 TX16/2012Z TN09/2103Z"
    },
    {
      "icao": "LDSP",
      "alert": "OK",
      "vis_m": 9999,
      "fzfg": false,
      "metar_trigger": false,
      "taf_trigger": false,
      "metar": "METAR LDSP 201400Z 23006KT 9999 FEW040 16/08 Q1016 NOSIG",
      "taf": "TAF LDSP 201125Z 2012/2112 32005KT CAVOK TX17/2012Z TN07/2106Z"
    },
    {
      "icao": "LDZA",
      "alert": "OK",
      "vis_m": 4000,
      "fzfg": false,
      "metar_trigger": false,
      "taf_trigger": false,
      "metar": "METAR LDZA 201400Z VRB02KT 4000 BR OVC003 03/02 Q1021 TEMPO 1500 BCFG",
      "taf": "TAF LDZA 201125Z 2012/2112 VRB02KT 0600 FG VV002 TX04/2111Z TN02/2012Z"
    },
    {
      "icao": "LEAL",
      "alert": "OK",
      "vis_m": 9999,
      "fzfg": false,
      "metar_trigger": false,
      "taf_trigger": false,
      "metar": "METAR LEAL 201400Z 20007KT 140V240 9999 FEW035 19/09 Q1013 NOSIG",
      "taf": "TAF LEAL 201100Z 2012/2112 22008KT 9999 FEW015 TX17/2012Z TN08/2106Z"
    },
    {
      "icao": "LEBL",
      "alert": "OK",
      "vis_m": 4000,
      "fzfg": false,
      "metar_trigger": false,
      "taf_trigger": false,
      "metar": "SPECI LEBL 201416Z 33009KT 4000 -RA BR VCSH FEW010 FEW020TCU BKN040 13/12 Q1013 RERA NOSIG",
      "taf": "TAF LEBL 201100Z 2012/2112 33009KT 8000 FEW030 BKN040 TX12/2012Z TN09/2106Z"
    },
    {
      "icao": "LECH",
      "alert": "OK",
      "vis_m": 9999,
      "fzfg": false,
      "metar_trigger": false,
      "taf_trigger": false,
      "metar": "METAR LECH 201400Z AUTO 12005KT 080V150 CAVOK 14/08 Q1012",
      "taf": ""
    },
    {
      "icao": "LEMD",
      "alert": "OK",
      "vis_m": 9000,
      "fzfg": false,
      "metar_trigger": false,
      "taf_trigger": false,
      "metar": "METAR LEMD 201400Z 18006KT 140V220 9000 -DZ FEW015 SCT030 BKN040 09/08 Q1013 NOSIG",
      "taf": "TAF LEMD 201100Z 2012/2118 VRB04KT 9999 SCT045 TX11/2014Z TN05/2107Z"
    },
    {
      "icao": "LEMG",
      "alert": "OK",
      "vis_m": 9999,
      "fzfg": false,
      "metar_trigger": false,
      "taf_trigger": false,
      "metar": "METAR LEMG 201400Z 31010KT 280V340 9999 BKN055 15/07 Q1016 NOSIG",
      "taf": "TAF LEMG 201100Z 2012/2112 30009KT 9999 FEW030 TX16/2014Z TN08/2106Z"
    },
    {
      "icao": "LERS",
      "alert": "OK",
      "vis_m": 9999,
      "fzfg": false,
      "metar_trigger": false,
      "taf_trigger": false,
      "metar": "METAR LERS 201400Z 05004KT 020V080 CAVOK 15/08 Q1012",
      "taf": "TAF LERS 200800Z 2009/2109 VRB03KT 9999 FEW040 TX16/2012Z TN04/2106Z"
    },
    {
      "icao": "LEVC",
      "alert": "OK",
      "vis_m": 9999,
      "fzfg": false,
      "metar_trigger": false,
      "taf_trigger": false,
      "metar": "METAR LEVC 201400Z 13003KT 080V210 CAVOK 17/08 Q1013 NOSIG",
      "taf": "TAF LEVC 201100Z 2012/2112 VRB04KT 9999 FEW015 TX17/2012Z TN06/2107Z"
    },
    {
      "icao": "LFLL",
      "alert": "OK",
      "vis_m": 9999,
      "fzfg": false,
      "metar_trigger": false,
      "taf_trigger": false,
      "metar": "METAR LFLL 201400Z 12005KT 9999 FEW026 BKN120 13/10 Q1013 NOSIG",
      "taf": "TAF LFLL 201100Z 2012/2118 16008KT CAVOK"
    },
    {
      "icao": "LFMN",
      "alert": "OK",
      "vis_m": 9999,
      "fzfg": false,
      "metar_trigger": false,
      "taf_trigger": false,
      "metar": "METAR LFMN 201400Z 00000KT 9999 SCT040 BKN066 BKN100 16/11 Q1015 NOSIG",
      "taf": "TAF LFMN 201400Z 2015/2121 VRB03KT 9999 BKN040"
    },
    {
      "icao": "LFOB",
      "alert": "OK",
      "vis_m": 9999,
      "fzfg": false,
      "metar_trigger": false,
      "taf_trigger": false,
      "metar": "METAR LFOB 201400Z AUTO 10007KT 040V130 9999 -RADZ OVC004 09/08 Q1011 TEMPO 2000 -DZRA",
      "taf": "TAF LFOB 201100Z 2012/2112 11008KT 9999 OVC015"
    },
    {
      "icao": "LFPO",
      "alert": "OK",
      "vis_m": 7000,
      "fzfg": false,
      "metar_trigger": false,
      "taf_trigger": false,
      "metar": "METAR LFPO 201400Z 12005KT 7000 -DZRA OVC005 09/09 Q1011 TEMPO 4000 -RADZ",
      "taf": "TAF LFPO 201100Z 2012/2118 10005KT 9999 BKN008"
    },
    {
      "icao": "LFSB",
      "alert": "OK",
      "vis_m": 9999,
      "fzfg": false,
      "metar_trigger": false,
      "taf_trigger": false,
      "metar": "METAR LFSB 201400Z AUTO 10004KT CAVOK 12/03 Q1015 NOSIG",
      "taf": "TAF LFSB 201100Z 2012/2112 15005KT CAVOK"
    },
    {
      "icao": "LGAV",
      "alert": "OK",
      "vis_m": 9999,
      "fzfg": false,
      "metar_trigger": false,
      "taf_trigger": false,
      "metar": "METAR LGAV 201350Z 36008KT 9999 FEW025 13/09 Q1017 NOSIG",
      "taf": "TAF LGAV 201100Z 2012/2112 02012KT 9999 SCT020 BKN070"
    },
    {
      "icao": "LGIR",
      "alert": "OK",
      "vis_m": 9999,
      "fzfg": false,
      "metar_trigger": false,
      "taf_trigger": false,
      "metar": "METAR LGIR 201350Z 06006KT 9999 FEW018 SCT080 16/12 Q1015 NOSIG",
      "taf": "TAF LGIR 201100Z 2012/2112 09010KT 9999 SCT020 BKN080"
    },
    {
      "icao": "LGKR",
      "alert": "OK",
      "vis_m": 9999,
      "fzfg": false,
      "metar_trigger": false,
      "taf_trigger": false,
      "metar": "METAR LGKR 201350Z 25002KT 9999 FEW018 15/11 Q1015 NOSIG",
      "taf": "TAF LGKR 201100Z 2012/2112 VRB05KT 9999 SCT020"
    },
    {
      "icao": "LGRP",
      "alert": "OK",
      "vis_m": 9999,
      "fzfg": false,
      "metar_trigger": false,
      "taf_trigger": false,
      "metar": "METAR LGRP 201350Z VRB01KT 9999 SCT020 17/12 Q1015 NOSIG",
      "taf": "TAF LGRP 201100Z 2012/2112 VRB05KT 9999 SCT020"
    },
    {
      "icao": "LGTS",
      "alert": "OK",
      "vis_m": 9999,
      "fzfg": false,
      "metar_trigger": false,
      "taf_trigger": false,
      "metar": "METAR LGTS 201350Z VRB01KT 9999 FEW010 12/08 Q1019 NOSIG",
      "taf": "TAF LGTS 201100Z 2012/2112 VRB03KT 9999 FEW020"
    },
    {
      "icao": "LGZA",
      "alert": "OK",
      "vis_m": 9999,
      "fzfg": false,
      "metar_trigger": false,
      "taf_trigger": false,
      "metar": "METAR LGZA 201350Z 34004KT 9999 FEW020 BKN080 15/11 Q1015",
      "taf": "TAF LGZA 201400Z 2015/2024 08010KT 9999 SCT020 BKN070"
    },
    {
      "icao": "LHBP",
      "alert": "OK",
      "vis_m": 9999,
      "fzfg": false,
      "metar_trigger": false,
      "taf_trigger": false,
      "metar": "METAR LHBP 201400Z VRB01KT 9999 OVC012 07/04 Q1020 NOSIG",
      "taf": "TAF LHBP 201115Z 2012/2112 VRB03KT 9000 OVC016"
    },
    {
      "icao": "LHDC",
      "alert": "OK",
      "vis_m": 500,
      "fzfg": false,
      "metar_trigger": false,
      "taf_trigger": false,
      "metar": "METAR LHDC 201345Z AUTO 26004KT 220V290 0500 FG VV002 06/06 Q1020 NOSIG",
      "taf": "TAF LHDC 201115Z 2012/2021 22004KT 0200 FG VV001"
    },
    {
      "icao": "LIBD",
      "alert": "OK",
      "vis_m": 9999,
      "fzfg": false,
      "metar_trigger": false,
      "taf_trigger": false,
      "metar": "METAR LIBD 201350Z 31005KT 9999 SCT030 14/11 Q1016",
      "taf": "TAF LIBD 201100Z 2012/2112 VRB04KT 9999 SCT040"
    },
    {
      "icao": "LICC",
      "alert": "OK",
      "vis_m": 9999,
      "fzfg": false,
      "metar_trigger": false,
      "taf_trigger": false,
      "metar": "METAR LICC 201350Z 06009KT 9999 FEW040 16/15 Q1013",
      "taf": "TAF LICC 201100Z 2012/2112 08008KT 9999 SCT015 BKN040"
    },
    {
      "icao": "LICJ",
      "alert": "OK",
      "vis_m": 9999,
      "fzfg": false,
      "metar_trigger": false,
      "taf_trigger": false,
      "metar": "METAR LICJ 201350Z 06011KT CAVOK 18/12 Q1012",
      "taf": "TAF LICJ 201100Z 2012/2112 VRB05KT 9999 SCT040"
    },
    {
      "icao": "LIEO",
      "alert": "OK",
      "vis_m": 9999,
      "fzfg": false,
      "metar_trigger": false,
      "taf_trigger": false,
      "metar": "METAR LIEO 201350Z 05009KT 9999 SCT020 16/14 Q1014",
      "taf": "TAF LIEO 201100Z 2012/2112 06010KT 9999 SCT012"
    },
    {
      "icao": "LIMC",
      "alert": "OK",
      "vis_m": 6000,
      "fzfg": false,
      "metar_trigger": false,
      "taf_trigger": false,
      "metar": "METAR LIMC 201350Z 29003KT 260V360 6000 SCT010 10/07 Q1018 NOSIG",
      "taf": "TAF LIMC 201100Z 2012/2118 VRB03KT 4000 -RA BR SCT012"
    },
    {
      "icao": "LIME",
      "alert": "OK",
      "vis_m": 9999,
      "fzfg": false,
      "metar_trigger": false,
      "taf_trigger": false,
      "metar": "METAR LIME 201350Z 25004KT 200V290 9999 SCT010 BKN070 10/07 Q1018 NOSIG",
      "taf": "TAF LIME 201100Z 2012/2112 VRB03KT 7000 BKN070"
    },
    {
      "icao": "LIPH",
      "alert": "OK",
      "vis_m": 9999,
      "fzfg": false,
      "metar_trigger": false,
      "taf_trigger": false,
      "metar": "METAR LIPH 201350Z 24004KT CAVOK 11/07 Q1018",
      "taf": "TAF LIPH 201100Z 2012/2112 VRB04KT CAVOK"
    },
    {
      "icao": "LIPQ",
      "alert": "OK",
      "vis_m": 9999,
      "fzfg": false,
      "metar_trigger": false,
      "taf_trigger": false,
      "metar": "METAR LIPQ 201350Z AUTO 01003KT 9999 FEW240/// 13/07 Q1018",
      "taf": "TAF LIPQ 201100Z 2012/2112 VRB04KT CAVOK"
    },
    {
      "icao": "LIPX",
      "alert": "OK",
      "vis_m": 9999,
      "fzfg": false,
      "metar_trigger": false,
      "taf_trigger": false,
      "metar": "METAR LIPX 201350Z 25003KT 210V280 CAVOK 11/06 Q1018",
      "taf": "TAF LIPX 201100Z 2012/2112 VRB03KT 6000 BKN060"
    },
    {
      "icao": "LIPY",
      "alert": "OK",
      "vis_m": 9999,
      "fzfg": false,
      "metar_trigger": false,
      "taf_trigger": false,
      "metar": "METAR LIPY 201350Z AUTO 33003KT 9999 OVC008/// 11/10 Q1018",
      "taf": "TAF LIPY 201100Z 2012/2112 VRB05KT 8000 OVC013"
    },
    {
      "icao": "LIPZ",
      "alert": "OK",
      "vis_m": 9999,
      "fzfg": false,
      "metar_trigger": false,
      "taf_trigger": false,
      "metar": "METAR LIPZ 201350Z 20005KT CAVOK 11/08 Q1018 NOSIG",
      "taf": "TAF LIPZ 201100Z 2012/2118 VRB04KT CAVOK"
    },
    {
      "icao": "LIRA",
      "alert": "OK",
      "vis_m": 9999,
      "fzfg": false,
      "metar_trigger": false,
      "taf_trigger": false,
      "metar": "METAR LIRA 201350Z 33003KT 280V020 CAVOK 16/05 Q1015",
      "taf": "TAF LIRA 201100Z 2012/2112 VRB05KT CAVOK"
    },
    {
      "icao": "LIRN",
      "alert": "OK",
      "vis_m": 9999,
      "fzfg": false,
      "metar_trigger": false,
      "taf_trigger": false,
      "metar": "METAR LIRN 201350Z 08004KT 040V110 CAVOK 17/07 Q1014 NOSIG",
      "taf": "TAF LIRN 201100Z 2012/2112 05007KT CAVOK"
    },
    {
      "icao": "LLBG",
      "alert": "OK",
      "vis_m": 9999,
      "fzfg": false,
      "metar_trigger": false,
      "taf_trigger": false,
      "metar": "METAR LLBG 201350Z 34005KT 9999 FEW045 20/09 Q1017 NOSIG",
      "taf": "TAF LLBG 201103Z 2012/2112 33006KT 9999 SCT040"
    },
    {
      "icao": "LMML",
      "alert": "OK",
      "vis_m": 9999,
      "fzfg": false,
      "metar_trigger": false,
      "taf_trigger": false,
      "metar": "METAR LMML 201415Z 12005KT 9999 FEW015 16/13 Q1012 NOSIG",
      "taf": "TAF LMML 201100Z 2012/2112 09010KT 9999 SCT015"
    },
    {
      "icao": "LOWW",
      "alert": "OK",
      "vis_m": 2300,
      "fzfg": false,
      "metar_trigger": false,
      "taf_trigger": false,
      "metar": "METAR LOWW 201350Z 13004KT 100V170 2300 BR FEW001 BKN003 02/02 Q1020 TEMPO BKN002",
      "taf": "TAF LOWW 201415Z 2015/2121 14005KT 2000 BR SCT001 BKN002 TX03/2121Z TN02/2101Z"
    },
    {
      "icao": "LPFR",
      "alert": "OK",
      "vis_m": 9999,
      "fzfg": false,
      "metar_trigger": false,
      "taf_trigger": false,
      "metar": "METAR LPFR 201400Z 25013KT 9999 FEW018 15/11 Q1018",
      "taf": "TAF LPFR 201100Z 2012/2112 VRB02KT 9999 SCT030"
    },
    {
      "icao": "LPPR",
      "alert": "OK",
      "vis_m": 9999,
      "fzfg": false,
      "metar_trigger": false,
      "taf_trigger": false,
      "metar": "METAR LPPR 201400Z 19008KT 9999 FEW004 BKN012 11/11 Q1013",
      "taf": "TAF LPPR 201100Z 2012/2112 21010KT 9999 SCT030"
    },
    {
      "icao": "LPPT",
      "alert": "OK",
      "vis_m": 5000,
      "fzfg": false,
      "metar_trigger": false,
      "taf_trigger": false,
      "metar": "METAR LPPT 201400Z 29006KT 230V330 5000 -SHRA BR FEW002 SCT006 FEW015TCU BKN022 12/11 Q1015 RESHRA",
      "taf": "TAF LPPT 201100Z 2012/2118 23010KT 9999 BKN030"
    },
    {
      "icao": "LQSA",
      "alert": "OK",
      "vis_m": 3500,
      "fzfg": false,
      "metar_trigger": false,
      "taf_trigger": false,
      "metar": "METAR LQSA 201400Z COR 17003KT 3500 BR BKN005 BKN020 03/03 Q1019 NOSIG",
      "taf": "TAF LQSA 201100Z 2012/2112 VRB02KT 2000 BR BKN004 BKN020 TX05/2013Z TNM01/2105Z"
    },
    {
      "icao": "LQTZ",
      "alert": "OK",
      "vis_m": 100,
      "fzfg": false,
      "metar_trigger": false,
      "taf_trigger": false,
      "metar": "METAR LQTZ 201400Z VRB03KT 0100 R09/0250N FG VV002 03/03 Q1019",
      "taf": ""
    },
    {
      "icao": "LRCL",
      "alert": "OK",
      "vis_m": 9999,
      "fzfg": false,
      "metar_trigger": false,
      "taf_trigger": false,
      "metar": "METAR LRCL 201400Z 05003KT CAVOK 07/04 Q1020",
      "taf": "TAF LRCL 201100Z 2012/2021 08007KT CAVOK"
    },
    {
      "icao": "LRCV",
      "alert": "OK",
      "vis_m": 9999,
      "fzfg": false,
      "metar_trigger": false,
      "taf_trigger": false,
      "metar": "METAR LRCV 201400Z 10005KT 9999 SCT040 07/04 Q1021",
      "taf": "TAF LRCV 201100Z 2012/2021 10007KT 9999 SCT040"
    },
    {
      "icao": "LRIA",
      "alert": "OK",
      "vis_m": 500,
      "fzfg": true,
      "metar_trigger": false,
      "taf_trigger": false,
      "metar": "METAR LRIA 201400Z 14008KT 0500 R14/1100N FG VV001 01/01 Q1023",
      "taf": "TAF LRIA 201100Z 2012/2021 12006KT 0150 FZFG VV001"
    },
    {
      "icao": "LROP",
      "alert": "OK",
      "vis_m": 3000,
      "fzfg": false,
      "metar_trigger": false,
      "taf_trigger": false,
      "metar": "METAR LROP 201400Z 03005KT 3000 BR BKN005 OVC009 04/04 Q1022 NOSIG",
      "taf": "TAF LROP 201100Z 2012/2112 VRB04KT 0800 FG OVC002"
    },
    {
      "icao": "LRSB",
      "alert": "OK",
      "vis_m": 9999,
      "fzfg": false,
      "metar_trigger": false,
      "taf_trigger": false,
      "metar": "METAR LRSB 201400Z 27003KT CAVOK 05/03 Q1019 NOSIG",
      "taf": "TAF LRSB 201100Z 2012/2112 VRB04KT CAVOK"
    },
    {
      "icao": "LRTR",
      "alert": "OK",
      "vis_m": 9999,
      "fzfg": false,
      "metar_trigger": false,
      "taf_trigger": false,
      "metar": "METAR LRTR 201400Z 30004KT CAVOK 12/06 Q1020 NOSIG",
      "taf": "TAF LRTR 201100Z 2012/2112 10005KT CAVOK"
    },
    {
      "icao": "LTAF",
      "alert": "OK",
      "vis_m": 9999,
      "fzfg": false,
      "metar_trigger": false,
      "taf_trigger": false,
      "metar": "METAR LTAF 201350Z 16003KT 130V200 CAVOK 17/09 Q1018 NOSIG RMK RWY23 20003KT 4CI200",
      "taf": "TAF LTAF 201040Z 2012/2112 01008KT CAVOK"
    },
    {
      "icao": "LTAI",
      "alert": "OK",
      "vis_m": 9999,
      "fzfg": false,
      "metar_trigger": false,
      "taf_trigger": false,
      "metar": "METAR LTAI 201350Z VRB02KT 9999 FEW025 SCT080 BKN180 17/09 Q1018 NOSIG RMK RWY18C VRB02KT RWY36R VRB02KT RWY18L VRB02KT",
      "taf": "TAF LTAI 201040Z 2012/2112 12008KT 9999 SCT030 BKN100"
    },
    {
      "icao": "LTFM",
      "alert": "OK",
      "vis_m": 9999,
      "fzfg": false,
      "metar_trigger": false,
      "taf_trigger": false,
      "metar": "METAR LTFM 201350Z 04012KT 9999 BKN026 12/07 Q1019 NOSIG RMK RWY17L 04011KT RWY34L 03010KT RWY16R 04011KT RWY36 04012KT RWY18 05010KT",
      "taf": "TAF LTFM 201040Z 2012/2118 04012KT 9999 BKN026"
    },
    {
      "icao": "LUBL",
      "alert": "OK",
      "vis_m": null,
      "fzfg": false,
      "metar_trigger": false,
      "taf_trigger": false,
      "metar": "",
      "taf": ""
    },
    {
      "icao": "LUKK",
      "alert": "OK",
      "vis_m": 2900,
      "fzfg": false,
      "metar_trigger": false,
      "taf_trigger": false,
      "metar": "METAR LUKK 201400Z 14003KT 120V180 2900 BR OVC003 01/01 Q1023 NOSIG",
      "taf": "TAF LUKK 201122Z 2012/2112 VRB05KT 3000 BR OVC004"
    },
    {
      "icao": "LWSK",
      "alert": "OK",
      "vis_m": 100,
      "fzfg": false,
      "metar_trigger": false,
      "taf_trigger": false,
      "metar": "METAR LWSK 201420Z VRB01KT 0100 R34/0275N FG VV002 01/01 Q1019 NOSIG",
      "taf": ""
    },
    {
      "icao": "LYBE",
      "alert": "OK",
      "vis_m": 250,
      "fzfg": false,
      "metar_trigger": false,
      "taf_trigger": false,
      "metar": "METAR LYBE 201400Z 30004KT 260V320 0250 R12L/0275N R30R/0275N FG VV002 04/04 Q1020 NOSIG",
      "taf": "TAF LYBE 201100Z 2012/2112 26004KT 1500 BR NSC TX05/2013Z TN03/2106Z"
    },
    {
      "icao": "LZIB",
      "alert": "OK",
      "vis_m": 8000,
      "fzfg": false,
      "metar_trigger": false,
      "taf_trigger": false,
      "metar": "METAR LZIB 201400Z VRB03KT 8000 BKN005 OVC006 04/04 Q1020 NOSIG",
      "taf": "TAF LZIB 201115Z 2012/2112 22004KT 4000 BR BKN008 OVC014"
    },
    {
      "icao": "LZKZ",
      "alert": "OK",
      "vis_m": 9999,
      "fzfg": false,
      "metar_trigger": false,
      "taf_trigger": false,
      "metar": "METAR LZKZ 201400Z 13002KT 9999 FEW013 SCT027 07/06 Q1019 NOSIG",
      "taf": ""
    },
    {
      "icao": "LZTT",
      "alert": "OK",
      "vis_m": 4500,
      "fzfg": false,
      "metar_trigger": false,
      "taf_trigger": false,
      "metar": "METAR LZTT 201400Z 27002KT 4500 BR BKN003 02/01 Q1019 NOSIG",
      "taf": "TAF LZTT 201115Z 2012/2112 VRB02KT 7000 BKN008 OVC014"
    },
    {
      "icao": "OEJN",
      "alert": "OK",
      "vis_m": 9999,
      "fzfg": false,
      "metar_trigger": false,
      "taf_trigger": false,
      "metar": "METAR OEJN 201400Z 36006KT CAVOK 30/01 Q1011 NOSIG",
      "taf": "TAF OEJN 201100Z 2012/2118 09014KT 7000 NSC"
    },
    {
      "icao": "OEMA",
      "alert": "OK",
      "vis_m": 9999,
      "fzfg": false,
      "metar_trigger": false,
      "taf_trigger": false,
      "metar": "METAR OEMA 201400Z 09005KT CAVOK 20/M11 Q1019 NOSIG",
      "taf": "TAF OEMA 201100Z 2012/2118 10008KT CAVOK"
    },
    {
      "icao": "OERK",
      "alert": "OK",
      "vis_m": 9999,
      "fzfg": false,
      "metar_trigger": false,
      "taf_trigger": false,
      "metar": "METAR OERK 201400Z 32008KT CAVOK 15/M02 Q1019 NOSIG",
      "taf": "TAF OERK 201100Z 2012/2118 33014KT 7000 NSC"
    },
    {
      "icao": "OJAI",
      "alert": "OK",
      "vis_m": 5000,
      "fzfg": false,
      "metar_trigger": false,
      "taf_trigger": false,
      "metar": "METAR OJAI 201400Z 12008KT 5000 HZ NSC 14/06 Q1019 NOSIG",
      "taf": "TAF OJAI 201100Z 2012/2118 13010KT 5000 HZ FEW035"
    },
    {
      "icao": "OKBK",
      "alert": "OK",
      "vis_m": null,
      "fzfg": false,
      "metar_trigger": false,
      "taf_trigger": false,
      "metar": "",
      "taf": ""
    },
    {
      "icao": "OMAA",
      "alert": "OK",
      "vis_m": 9999,
      "fzfg": false,
      "metar_trigger": false,
      "taf_trigger": false,
      "metar": "METAR OMAA 201400Z 25007KT 9999 FEW045 19/07 Q1016 NOSIG",
      "taf": "TAF OMAA 201100Z 2012/2118 27012KT 9999 FEW040"
    },
    {
      "icao": "UAAA",
      "alert": "OK",
      "vis_m": 4800,
      "fzfg": false,
      "metar_trigger": false,
      "taf_trigger": false,
      "metar": "METAR UAAA 201400Z 16001MPS 4800 BR SCT011 OVC100 M02/M04 Q1014 NOSIG",
      "taf": "TAF UAAA 201105Z 2012/2112 32003MPS 1200 BR FU SCT005 BKN011 OVC050 TXM01/2100Z TNM05/2102Z"
    },
    {
      "icao": "UCFM",
      "alert": "OK",
      "vis_m": 750,
      "fzfg": true,
      "metar_trigger": false,
      "taf_trigger": false,
      "metar": "METAR UCFM 201400Z 09003MPS 0750 0650E R07/P1500N FZFG NSC M03/M03 Q1015 TEMPO 0600 FZFG BKN002",
      "taf": "TAF UCFM 201046Z 2012/2112 25003MPS 1000 BR BKN003"
    },
    {
      "icao": "UDYZ",
      "alert": "OK",
      "vis_m": 7000,
      "fzfg": false,
      "metar_trigger": false,
      "taf_trigger": false,
      "metar": "METAR UDYZ 201400Z 00000KT 7000 NSC 03/M05 Q1024 NOSIG",
      "taf": "TAF UDYZ 201100Z 2012/2112 VRB04KT 6000 NSC"
    },
    {
      "icao": "UGTB",
      "alert": "OK",
      "vis_m": 9999,
      "fzfg": false,
      "metar_trigger": false,
      "taf_trigger": false,
      "metar": "METAR UGTB 201400Z 11004KT CAVOK 04/M02 Q1023 NOSIG",
      "taf": "TAF UGTB 201100Z 2012/2112 VRB02KT CAVOK TX09/2012Z TNM03/2102Z"
    },
    {
      "icao": "UKKK",
      "alert": "OK",
      "vis_m": null,
      "fzfg": false,
      "metar_trigger": false,
      "taf_trigger": false,
      "metar": "",
      "taf": ""
    },
    {
      "icao": "UTTT",
      "alert": "OK",
      "vis_m": null,
      "fzfg": false,
      "metar_trigger": false,
      "taf_trigger": false,
      "metar": "",
      "taf": ""
    }
  ]
}