{
  "ts_utc": "2026-05-08T16:24:33Z",
  "threshold_m": 150,
  "source": "stations_override.txt (ICAO list) + aviationweather.gov (METAR/TAF raw)",
  "station_count": 159,
  "stations": [
    {
      "icao": "BIKF",
      "alert": "OK",
      "vis_m": 9999,
      "fzfg": false,
      "metar_trigger": false,
      "taf_trigger": false,
      "metar": "METAR BIKF 081600Z 29006KT 240V330 9999 -RA SCT012 OVC028 05/M00 Q1024",
      "taf": "TAF BIKF 081353Z 0815/0915 02006KT 9999 SCT030 TX06/0815Z TN04/0902Z"
    },
    {
      "icao": "BKPR",
      "alert": "OK",
      "vis_m": null,
      "fzfg": false,
      "metar_trigger": false,
      "taf_trigger": false,
      "metar": "",
      "taf": ""
    },
    {
      "icao": "EBCI",
      "alert": "OK",
      "vis_m": 9999,
      "fzfg": false,
      "metar_trigger": false,
      "taf_trigger": false,
      "metar": "METAR EBCI 081550Z 04007KT 290V090 9999 FEW048 17/08 Q1016 NOSIG",
      "taf": "TAF EBCI 081115Z 0812/0918 06008KT 9999 FEW030"
    },
    {
      "icao": "EDDB",
      "alert": "OK",
      "vis_m": 9999,
      "fzfg": false,
      "metar_trigger": false,
      "taf_trigger": false,
      "metar": "METAR EDDB 081550Z AUTO 07005KT 050V110 9999 OVC049 13/06 Q1020 NOSIG",
      "taf": "TAF EDDB 081100Z 0812/0912 05005KT 9999 BKN025"
    },
    {
      "icao": "EDDH",
      "alert": "OK",
      "vis_m": 9999,
      "fzfg": false,
      "metar_trigger": false,
      "taf_trigger": false,
      "metar": "METAR EDDH 081550Z AUTO 09010KT 030V110 CAVOK 17/03 Q1019 NOSIG",
      "taf": "TAF EDDH 081100Z 0812/0918 08010KT CAVOK"
    },
    {
      "icao": "EDDK",
      "alert": "OK",
      "vis_m": 9999,
      "fzfg": false,
      "metar_trigger": false,
      "taf_trigger": false,
      "metar": "METAR EDDK 081550Z AUTO 13003KT 050V170 CAVOK 17/05 Q1017 NOSIG",
      "taf": "TAF EDDK 081100Z 0812/0918 09004KT CAVOK"
    },
    {
      "icao": "EDDN",
      "alert": "OK",
      "vis_m": 9999,
      "fzfg": false,
      "metar_trigger": false,
      "taf_trigger": false,
      "metar": "METAR EDDN 081550Z AUTO 07007KT 020V110 9999 SCT049 17/06 Q1016 NOSIG",
      "taf": "TAF EDDN 081100Z 0812/0912 VRB03KT 9999 SCT035"
    },
    {
      "icao": "EDDS",
      "alert": "OK",
      "vis_m": 9999,
      "fzfg": false,
      "metar_trigger": false,
      "taf_trigger": false,
      "metar": "METAR EDDS 081550Z AUTO 03008KT 350V070 CAVOK 18/08 Q1014 NOSIG",
      "taf": "TAF EDDS 081100Z 0812/0912 03006KT CAVOK"
    },
    {
      "icao": "EDFH",
      "alert": "OK",
      "vis_m": 9999,
      "fzfg": false,
      "metar_trigger": false,
      "taf_trigger": false,
      "metar": "METAR EDFH 081550Z 05005KT 350V100 9999 FEW045 14/06 Q1016",
      "taf": "TAF EDFH 081100Z 0812/0912 10007KT CAVOK"
    },
    {
      "icao": "EDJA",
      "alert": "OK",
      "vis_m": 9999,
      "fzfg": false,
      "metar_trigger": false,
      "taf_trigger": false,
      "metar": "METAR EDJA 081550Z 04007KT 020V080 9999 FEW052 18/06 Q1015",
      "taf": "TAF EDJA 081400Z 0815/0824 05006KT CAVOK"
    },
    {
      "icao": "EDLW",
      "alert": "OK",
      "vis_m": 9999,
      "fzfg": false,
      "metar_trigger": false,
      "taf_trigger": false,
      "metar": "METAR EDLW 081550Z 07005KT 030V100 9999 FEW046 15/07 Q1017",
      "taf": "TAF EDLW 081100Z 0812/0912 07004KT 9999 FEW040"
    },
    {
      "icao": "EDNY",
      "alert": "OK",
      "vis_m": 9999,
      "fzfg": false,
      "metar_trigger": false,
      "taf_trigger": false,
      "metar": "METAR EDNY 081550Z VRB03KT CAVOK 21/09 Q1013",
      "taf": "TAF EDNY 081400Z 0815/0824 03004KT CAVOK"
    },
    {
      "icao": "EDSB",
      "alert": "OK",
      "vis_m": 9999,
      "fzfg": false,
      "metar_trigger": false,
      "taf_trigger": false,
      "metar": "METAR EDSB 081550Z 03011KT CAVOK 20/09 Q1014",
      "taf": "TAF EDSB 081100Z 0812/0912 35004KT CAVOK"
    },
    {
      "icao": "EETN",
      "alert": "OK",
      "vis_m": 9999,
      "fzfg": false,
      "metar_trigger": false,
      "taf_trigger": false,
      "metar": "METAR EETN 081620Z 02004KT CAVOK 11/01 Q1026 NOSIG",
      "taf": "TAF EETN 081130Z 0812/0912 04010KT CAVOK"
    },
    {
      "icao": "EFTU",
      "alert": "OK",
      "vis_m": 9999,
      "fzfg": false,
      "metar_trigger": false,
      "taf_trigger": false,
      "metar": "METAR EFTU 081620Z AUTO 36004KT 320V060 CAVOK 15/M08 Q1025",
      "taf": "TAF EFTU 081430Z 0815/0915 34005KT CAVOK"
    },
    {
      "icao": "EGBB",
      "alert": "OK",
      "vis_m": 9999,
      "fzfg": false,
      "metar_trigger": false,
      "taf_trigger": false,
      "metar": "METAR EGBB 081550Z 15009KT 9999 FEW043 16/06 Q1016",
      "taf": "TAF EGBB 081056Z 0812/0912 12009KT 9999 SCT030"
    },
    {
      "icao": "EGGP",
      "alert": "OK",
      "vis_m": 9999,
      "fzfg": false,
      "metar_trigger": false,
      "taf_trigger": false,
      "metar": "METAR EGGP 081550Z 06005KT 030V100 CAVOK 16/06 Q1016",
      "taf": "TAF EGGP 081057Z 0812/0912 14005KT 9999 FEW045"
    },
    {
      "icao": "EGGW",
      "alert": "OK",
      "vis_m": 9999,
      "fzfg": false,
      "metar_trigger": false,
      "taf_trigger": false,
      "metar": "METAR EGGW 081550Z AUTO 14005KT 110V170 9999 NCD 15/05 Q1016",
      "taf": "TAF EGGW 081055Z 0812/0912 12006KT 9999 FEW045"
    },
    {
      "icao": "EGKK",
      "alert": "OK",
      "vis_m": 9999,
      "fzfg": false,
      "metar_trigger": false,
      "taf_trigger": false,
      "metar": "METAR EGKK 081550Z 15003KT 060V230 9999 FEW049 18/07 Q1016",
      "taf": "TAF EGKK 081053Z 0812/0918 09004KT 9999 FEW045"
    },
    {
      "icao": "EGNM",
      "alert": "OK",
      "vis_m": 9999,
      "fzfg": false,
      "metar_trigger": false,
      "taf_trigger": false,
      "metar": "METAR EGNM 081550Z 09007KT 050V120 9999 VCSH SCT041 15/07 Q1017",
      "taf": "TAF EGNM 081058Z 0812/0912 14005KT 9999 FEW025"
    },
    {
      "icao": "EGPD",
      "alert": "OK",
      "vis_m": 9999,
      "fzfg": false,
      "metar_trigger": false,
      "taf_trigger": false,
      "metar": "METAR EGPD 081550Z COR AUTO 20008KT 150V260 9999 NCD 15/03 Q1015 NOSIG",
      "taf": "TAF EGPD 081054Z 0812/0912 24010KT 9999 SCT030"
    },
    {
      "icao": "EGPF",
      "alert": "OK",
      "vis_m": 9999,
      "fzfg": false,
      "metar_trigger": false,
      "taf_trigger": false,
      "metar": "METAR EGPF 081550Z AUTO 31010KT 9999 SCT049 14/03 Q1017",
      "taf": "TAF EGPF 081059Z 0812/0912 28010KT 9999 FEW030 SCT040"
    },
    {
      "icao": "EHBK",
      "alert": "OK",
      "vis_m": 9999,
      "fzfg": false,
      "metar_trigger": false,
      "taf_trigger": false,
      "metar": "METAR EHBK 081555Z AUTO 08006KT 030V130 9999 NSC 17/07 Q1016 NOSIG",
      "taf": "TAF EHBK 081109Z 0812/0918 06005KT CAVOK"
    },
    {
      "icao": "EHEH",
      "alert": "OK",
      "vis_m": 9999,
      "fzfg": false,
      "metar_trigger": false,
      "taf_trigger": false,
      "metar": "METAR EHEH 081555Z AUTO 04007KT 350V090 9999 FEW084 18/07 Q1017 BLU NOSIG RMK TREND REMOTE BY EHWX",
      "taf": "TAF EHEH 081126Z 0812/0918 06005KT CAVOK"
    },
    {
      "icao": "EKBI",
      "alert": "OK",
      "vis_m": 9999,
      "fzfg": false,
      "metar_trigger": false,
      "taf_trigger": false,
      "metar": "METAR EKBI 081550Z AUTO 10010KT 050V140 9999 FEW059/// 15/01 Q1021",
      "taf": "TAF EKBI 081427Z 0815/0915 10007KT CAVOK"
    },
    {
      "icao": "EKCH",
      "alert": "OK",
      "vis_m": 9999,
      "fzfg": false,
      "metar_trigger": false,
      "taf_trigger": false,
      "metar": "METAR EKCH 081550Z AUTO VRB03KT 9999 NCD 14/M03 Q1023 NOSIG",
      "taf": "TAF EKCH 081427Z 0815/0915 21006KT CAVOK"
    },
    {
      "icao": "ENAL",
      "alert": "OK",
      "vis_m": 9999,
      "fzfg": false,
      "metar_trigger": false,
      "taf_trigger": false,
      "metar": "METAR ENAL 081550Z 31004KT 270V350 9999 FEW045 BKN062 09/05 Q1017",
      "taf": "TAF ENAL 081400Z 0815/0824 23008KT CAVOK"
    },
    {
      "icao": "ENBR",
      "alert": "OK",
      "vis_m": 9999,
      "fzfg": false,
      "metar_trigger": false,
      "taf_trigger": false,
      "metar": "METAR ENBR 081550Z 18011KT 9999 BKN045 09/02 Q1020 NOSIG RMK WIND 1200FT 18015KT",
      "taf": "TAF ENBR 081100Z 0812/0912 17015KT 9999 BKN050"
    },
    {
      "icao": "ENGM",
      "alert": "OK",
      "vis_m": 9999,
      "fzfg": false,
      "metar_trigger": false,
      "taf_trigger": false,
      "metar": "METAR ENGM 081550Z 21015KT CAVOK 15/M03 Q1021 NOSIG",
      "taf": "TAF ENGM 081100Z 0812/0912 18012KT CAVOK"
    },
    {
      "icao": "ENHD",
      "alert": "OK",
      "vis_m": 9999,
      "fzfg": false,
      "metar_trigger": false,
      "taf_trigger": false,
      "metar": "METAR ENHD 081550Z 19011KT CAVOK 11/M01 Q1020",
      "taf": "TAF ENHD 081400Z 0815/0822 17015KT CAVOK"
    },
    {
      "icao": "ENTC",
      "alert": "OK",
      "vis_m": 9999,
      "fzfg": false,
      "metar_trigger": false,
      "taf_trigger": false,
      "metar": "METAR ENTC 081550Z 01008KT 9999 SCT020 06/01 Q1025 NOSIG RMK WIND 2600FT VRB01KT",
      "taf": ""
    },
    {
      "icao": "ENTO",
      "alert": "OK",
      "vis_m": 9999,
      "fzfg": false,
      "metar_trigger": false,
      "taf_trigger": false,
      "metar": "METAR ENTO 081550Z 20012KT CAVOK 14/01 Q1023 NOSIG",
      "taf": ""
    },
    {
      "icao": "ENVA",
      "alert": "OK",
      "vis_m": 9999,
      "fzfg": false,
      "metar_trigger": false,
      "taf_trigger": false,
      "metar": "METAR ENVA 081550Z 17012G23KT CAVOK 16/M02 Q1017 NOSIG RMK WIND 670FT 18019KT",
      "taf": ""
    },
    {
      "icao": "ENZV",
      "alert": "OK",
      "vis_m": 9999,
      "fzfg": false,
      "metar_trigger": false,
      "taf_trigger": false,
      "metar": "METAR ENZV 081550Z 19017KT CAVOK 13/M01 Q1021 NOSIG",
      "taf": "TAF ENZV 081100Z 0812/0912 17012KT 9999 FEW020"
    },
    {
      "icao": "EPGD",
      "alert": "OK",
      "vis_m": 9999,
      "fzfg": false,
      "metar_trigger": false,
      "taf_trigger": false,
      "metar": "METAR EPGD 081600Z 02010KT 350V060 CAVOK 11/01 Q1020",
      "taf": "TAF EPGD 081130Z 0812/0912 04010KT CAVOK"
    },
    {
      "icao": "EPKK",
      "alert": "OK",
      "vis_m": 9999,
      "fzfg": false,
      "metar_trigger": false,
      "taf_trigger": false,
      "metar": "METAR EPKK 081600Z 32007KT 290V360 9999 SCT030 BKN037 14/08 Q1017",
      "taf": "TAF EPKK 081430Z 0815/0915 32010KT 9999 FEW025 BKN030"
    },
    {
      "icao": "EPKT",
      "alert": "OK",
      "vis_m": 9999,
      "fzfg": false,
      "metar_trigger": false,
      "taf_trigger": false,
      "metar": "METAR EPKT 081600Z 31006KT 9999 BKN028 12/07 Q1018",
      "taf": "TAF EPKT 081130Z 0812/0912 32006KT 9999 BKN008"
    },
    {
      "icao": "EPLB",
      "alert": "OK",
      "vis_m": 9999,
      "fzfg": false,
      "metar_trigger": false,
      "taf_trigger": false,
      "metar": "METAR EPLB 081600Z 36004KT 9999 FEW028 BKN035 14/09 Q1017",
      "taf": "TAF EPLB 081130Z 0812/0912 33008KT 9999 BKN030"
    },
    {
      "icao": "EPMO",
      "alert": "OK",
      "vis_m": 9999,
      "fzfg": false,
      "metar_trigger": false,
      "taf_trigger": false,
      "metar": "METAR EPMO 081600Z 01008KT 340V040 9999 SCT012 BKN023 10/08 Q1018",
      "taf": "TAF EPMO 081130Z 0812/0912 33005KT 9999 BKN030"
    },
    {
      "icao": "EPPO",
      "alert": "OK",
      "vis_m": 9999,
      "fzfg": false,
      "metar_trigger": false,
      "taf_trigger": false,
      "metar": "METAR EPPO 081600Z 36003KT 270V010 9999 BKN048 13/05 Q1019",
      "taf": "TAF EPPO 081130Z 0812/0912 03006KT 9999 BKN040"
    },
    {
      "icao": "EPRA",
      "alert": "OK",
      "vis_m": 9999,
      "fzfg": false,
      "metar_trigger": false,
      "taf_trigger": false,
      "metar": "METAR EPRA 081600Z 31006KT 280V340 9999 BKN030 12/07 Q1017",
      "taf": "TAF EPRA 081430Z 0815/0824 30006KT 9999 BKN030"
    },
    {
      "icao": "EPRZ",
      "alert": "OK",
      "vis_m": 9999,
      "fzfg": false,
      "metar_trigger": false,
      "taf_trigger": false,
      "metar": "METAR EPRZ 081600Z 02007KT 9999 SCT033 16/11 Q1016",
      "taf": "TAF EPRZ 081130Z 0812/0912 34005KT 9999 SCT030"
    },
    {
      "icao": "EPSC",
      "alert": "OK",
      "vis_m": 9999,
      "fzfg": false,
      "metar_trigger": false,
      "taf_trigger": false,
      "metar": "METAR EPSC 081600Z 04006KT 010V070 CAVOK 14/01 Q1020",
      "taf": "TAF EPSC 081130Z 0812/0912 05010KT 9999 SCT035"
    },
    {
      "icao": "EPSY",
      "alert": "OK",
      "vis_m": 9999,
      "fzfg": false,
      "metar_trigger": false,
      "taf_trigger": false,
      "metar": "METAR EPSY 081600Z 36005KT 9999 SCT013 OVC019 08/07 Q1019",
      "taf": "TAF EPSY 081430Z 0815/0824 04008KT 9999 OVC013"
    },
    {
      "icao": "EPWA",
      "alert": "OK",
      "vis_m": 9999,
      "fzfg": false,
      "metar_trigger": false,
      "taf_trigger": false,
      "metar": "METAR EPWA 081600Z 32006KT 290V010 9999 SCT020 BKN033 11/08 Q1018 NOSIG",
      "taf": "TAF EPWA 081430Z 0815/0915 34008KT 9999 BKN030"
    },
    {
      "icao": "EPWR",
      "alert": "OK",
      "vis_m": 9999,
      "fzfg": false,
      "metar_trigger": false,
      "taf_trigger": false,
      "metar": "METAR EPWR 081600Z 03005KT 9999 SCT032 BKN037 12/07 Q1019",
      "taf": "TAF EPWR 081430Z 0815/0915 35006KT 9999 BKN033"
    },
    {
      "icao": "ESGG",
      "alert": "OK",
      "vis_m": 9999,
      "fzfg": false,
      "metar_trigger": false,
      "taf_trigger": false,
      "metar": "METAR ESGG 081550Z 26008KT 220V290 9999 FEW068 15/M00 Q1022",
      "taf": "TAF ESGG 081430Z 0815/0915 27008KT CAVOK"
    },
    {
      "icao": "ESKN",
      "alert": "OK",
      "vis_m": 9999,
      "fzfg": false,
      "metar_trigger": false,
      "taf_trigger": false,
      "metar": "METAR ESKN 081550Z 12010KT CAVOK 11/M11 Q1026",
      "taf": "TAF ESKN 081430Z 0815/0915 13010KT CAVOK"
    },
    {
      "icao": "ESMS",
      "alert": "OK",
      "vis_m": 9999,
      "fzfg": false,
      "metar_trigger": false,
      "taf_trigger": false,
      "metar": "METAR ESMS 081550Z 08011KT 050V110 CAVOK 13/M07 Q1023",
      "taf": "TAF ESMS 081427Z 0815/0915 09012KT CAVOK"
    },
    {
      "icao": "ESSA",
      "alert": "OK",
      "vis_m": 9999,
      "fzfg": false,
      "metar_trigger": false,
      "taf_trigger": false,
      "metar": "METAR ESSA 081550Z 16011KT CAVOK 13/M09 Q1026 NOSIG",
      "taf": "TAF ESSA 081430Z 0815/0915 15010KT CAVOK"
    },
    {
      "icao": "EYKA",
      "alert": "OK",
      "vis_m": 9999,
      "fzfg": false,
      "metar_trigger": false,
      "taf_trigger": false,
      "metar": "METAR EYKA 081620Z 03005KT 360V060 9999 -RA NSC 12/03 Q1018",
      "taf": ""
    },
    {
      "icao": "EYPA",
      "alert": "OK",
      "vis_m": 9999,
      "fzfg": false,
      "metar_trigger": false,
      "taf_trigger": false,
      "metar": "METAR EYPA 081620Z 06010KT CAVOK 14/M02 Q1020",
      "taf": "TAF EYPA 081100Z 0812/0912 06013KT 9000 NSC"
    },
    {
      "icao": "EYVI",
      "alert": "OK",
      "vis_m": 9000,
      "fzfg": false,
      "metar_trigger": false,
      "taf_trigger": false,
      "metar": "METAR EYVI 081620Z 02010KT 9000 -RA SCT041 08/07 Q1017 NOSIG",
      "taf": "TAF EYVI 081100Z 0812/0912 03010KT 8000 BKN020"
    },
    {
      "icao": "GCFV",
      "alert": "OK",
      "vis_m": 9999,
      "fzfg": false,
      "metar_trigger": false,
      "taf_trigger": false,
      "metar": "METAR GCFV 081600Z 32015KT 9999 FEW035 25/10 Q1012 WS ALL RWY",
      "taf": "TAF GCFV 081400Z 0815/0915 27008KT 9999 SCT030 TX24/0914Z TN17/0906Z"
    },
    {
      "icao": "GCLP",
      "alert": "OK",
      "vis_m": 9999,
      "fzfg": false,
      "metar_trigger": false,
      "taf_trigger": false,
      "metar": "METAR GCLP 081600Z 03012KT 350V060 9999 FEW035 24/15 Q1012 WS ALL RWY NOSIG",
      "taf": "TAF GCLP 081400Z 0815/0915 VRB07KT 9999 BKN030 TX22/0914Z TN16/0906Z"
    },
    {
      "icao": "GCTS",
      "alert": "OK",
      "vis_m": 9999,
      "fzfg": false,
      "metar_trigger": false,
      "taf_trigger": false,
      "metar": "METAR GCTS 081600Z 27019G29KT 240V300 9999 FEW030 24/12 Q1012 NOSIG",
      "taf": "TAF GCTS 081400Z 0815/0915 27018KT 9999 FEW030 TX24/0914Z TN16/0906Z"
    },
    {
      "icao": "GMAD",
      "alert": "OK",
      "vis_m": 9999,
      "fzfg": false,
      "metar_trigger": false,
      "taf_trigger": false,
      "metar": "METAR GMAD 081600Z 25014KT 220V280 CAVOK 21/10 Q1011 NOSIG",
      "taf": "TAF GMAD 081100Z 0812/0918 19003KT 9999 BKN033"
    },
    {
      "icao": "GMMN",
      "alert": "OK",
      "vis_m": 9999,
      "fzfg": false,
      "metar_trigger": false,
      "taf_trigger": false,
      "metar": "METAR GMMN 081600Z 32015KT CAVOK 21/11 Q1010 NOSIG",
      "taf": "TAF GMMN 081100Z 0812/0918 VRB02KT CAVOK"
    },
    {
      "icao": "GMMX",
      "alert": "OK",
      "vis_m": 9999,
      "fzfg": false,
      "metar_trigger": false,
      "taf_trigger": false,
      "metar": "METAR GMMX 081600Z 27009KT 230V320 CAVOK 24/09 Q1009 NOSIG",
      "taf": "TAF GMMX 081100Z 0812/0918 26006KT 8000 NSC"
    },
    {
      "icao": "HEGN",
      "alert": "OK",
      "vis_m": 9999,
      "fzfg": false,
      "metar_trigger": false,
      "taf_trigger": false,
      "metar": "METAR HEGN 081600Z 34017KT CAVOK 27/11 Q1010 NOSIG",
      "taf": "TAF HEGN 081100Z 0812/0918 36015G25KT CAVOK"
    },
    {
      "icao": "HEMA",
      "alert": "OK",
      "vis_m": 9999,
      "fzfg": false,
      "metar_trigger": false,
      "taf_trigger": false,
      "metar": "METAR HEMA 081600Z 34013KT CAVOK 28/10 Q1009 NOSIG",
      "taf": "TAF HEMA 081100Z 0812/0918 35015G25KT CAVOK"
    },
    {
      "icao": "HESH",
      "alert": "OK",
      "vis_m": 9999,
      "fzfg": false,
      "metar_trigger": false,
      "taf_trigger": false,
      "metar": "METAR HESH 081600Z 34012KT CAVOK 31/11 Q1009 NOSIG",
      "taf": "TAF HESH 081100Z 0812/0918 01010G20KT CAVOK"
    },
    {
      "icao": "HESX",
      "alert": "OK",
      "vis_m": 9999,
      "fzfg": false,
      "metar_trigger": false,
      "taf_trigger": false,
      "metar": "METAR HESX 081600Z 02015KT CAVOK 24/08 Q1015 NOSIG",
      "taf": "TAF HESX 081100Z 0812/0918 04015KT CAVOK"
    },
    {
      "icao": "LATI",
      "alert": "OK",
      "vis_m": 9999,
      "fzfg": false,
      "metar_trigger": false,
      "taf_trigger": false,
      "metar": "METAR LATI 081620Z 17003KT 140V200 9999 -RA FEW001 SCT050 OVC070 15/13 Q1013 NOSIG",
      "taf": "TAF LATI 081100Z 0812/0912 16014KT 9999 FEW040 OVC080 TX24/0912Z TN14/0904Z"
    },
    {
      "icao": "LBPD",
      "alert": "OK",
      "vis_m": 9999,
      "fzfg": false,
      "metar_trigger": false,
      "taf_trigger": false,
      "metar": "METAR LBPD 081600Z AUTO 29003KT 270V330 9999 -RA OVC084/// 17/17 Q1014 TEMPO 5000 RA",
      "taf": "TAF LBPD 081100Z 0812/0912 10008KT 9999 BKN080"
    },
    {
      "icao": "LBSF",
      "alert": "OK",
      "vis_m": 9999,
      "fzfg": false,
      "metar_trigger": false,
      "taf_trigger": false,
      "metar": "METAR LBSF 081600Z AUTO 08007KT 9999 SCT030/// BKN077/// 16/11 Q1015 NOSIG",
      "taf": "TAF LBSF 081100Z 0812/0912 30008KT 9999 BKN070"
    },
    {
      "icao": "LBWN",
      "alert": "OK",
      "vis_m": 9999,
      "fzfg": false,
      "metar_trigger": false,
      "taf_trigger": false,
      "metar": "METAR LBWN 081600Z AUTO 12008KT 9999 NSC 14/14 Q1015 NOSIG",
      "taf": "TAF LBWN 081100Z 0812/0912 12012KT 9999 SCT045"
    },
    {
      "icao": "LCLK",
      "alert": "OK",
      "vis_m": 9999,
      "fzfg": false,
      "metar_trigger": false,
      "taf_trigger": false,
      "metar": "METAR LCLK 081600Z 22006KT 9999 FEW030 25/12 Q1016 NOSIG",
      "taf": "TAF LCLK 081130Z 0812/0912 18012KT 9999 FEW035"
    },
    {
      "icao": "LCPH",
      "alert": "OK",
      "vis_m": 9999,
      "fzfg": false,
      "metar_trigger": false,
      "taf_trigger": false,
      "metar": "METAR LCPH 081600Z 31008KT 260V340 CAVOK 21/18 Q1017 NOSIG",
      "taf": "TAF LCPH 081130Z 0812/0912 29010KT 9999 FEW030"
    },
    {
      "icao": "LEAL",
      "alert": "OK",
      "vis_m": 9999,
      "fzfg": false,
      "metar_trigger": false,
      "taf_trigger": false,
      "metar": "METAR LEAL 081600Z 15007KT 100V190 9999 FEW040 22/11 Q1012 NOSIG",
      "taf": ""
    },
    {
      "icao": "LEBB",
      "alert": "OK",
      "vis_m": 9999,
      "fzfg": false,
      "metar_trigger": false,
      "taf_trigger": false,
      "metar": "SPECI LEBB 081612Z COR 06006KT 030V090 9999 -RA FEW025 BKN060 14/13 Q1011 RERA NOSIG",
      "taf": ""
    },
    {
      "icao": "LEBL",
      "alert": "OK",
      "vis_m": 9999,
      "fzfg": false,
      "metar_trigger": false,
      "taf_trigger": false,
      "metar": "METAR LEBL 081600Z 13007KT 9999 FEW020 SCT030 19/13 Q1013 NOSIG",
      "taf": "TAF LEBL 081100Z 0812/0912 14007KT 9999 FEW020 TX20/0813Z TN15/0905Z"
    },
    {
      "icao": "LECH",
      "alert": "OK",
      "vis_m": 9000,
      "fzfg": false,
      "metar_trigger": false,
      "taf_trigger": false,
      "metar": "METAR LECH 081600Z AUTO 11007KT 080V140 9000 SCT045 BKN070 17/12 Q1013",
      "taf": "TAF LECH 081100Z 0812/0912 09010KT 9999 FEW020 TX20/0814Z TN11/0905Z"
    },
    {
      "icao": "LEMD",
      "alert": "OK",
      "vis_m": 9999,
      "fzfg": false,
      "metar_trigger": false,
      "taf_trigger": false,
      "metar": "METAR LEMD 081600Z 32008KT 270V350 9999 SCT050 18/10 Q1010 NOSIG",
      "taf": ""
    },
    {
      "icao": "LEMG",
      "alert": "OK",
      "vis_m": 9999,
      "fzfg": false,
      "metar_trigger": false,
      "taf_trigger": false,
      "metar": "METAR LEMG 081600Z 11008KT 070V150 9999 SCT014 19/14 Q1011 NOSIG",
      "taf": "TAF LEMG 081100Z 0812/0912 13010KT 9999 FEW030 TX21/0814Z TN16/0906Z"
    },
    {
      "icao": "LEVC",
      "alert": "OK",
      "vis_m": 9999,
      "fzfg": false,
      "metar_trigger": false,
      "taf_trigger": false,
      "metar": "METAR LEVC 081600Z 09010KT 040V120 9999 FEW023 20/13 Q1012 NOSIG",
      "taf": "TAF LEVC 081100Z 0812/0912 09010KT 9999 FEW040 TX22/0812Z TN14/0905Z"
    },
    {
      "icao": "LEXJ",
      "alert": "OK",
      "vis_m": 9999,
      "fzfg": false,
      "metar_trigger": false,
      "taf_trigger": false,
      "metar": "METAR LEXJ 081600Z 36004KT 290V040 9999 FEW033 18/14 Q1009",
      "taf": "TAF LEXJ 081400Z 0815/0915 20009KT 9999 FEW050 TX24/0913Z TN10/0904Z"
    },
    {
      "icao": "LEZG",
      "alert": "OK",
      "vis_m": 9999,
      "fzfg": false,
      "metar_trigger": false,
      "taf_trigger": false,
      "metar": "METAR LEZG 081600Z COR 11014KT 070V140 9999 -RA SCT070 21/10 Q1010 NOSIG",
      "taf": "TAF LEZG 081100Z 0812/0912 12010KT 9999 FEW050 TX22/0814Z TN13/0905Z"
    },
    {
      "icao": "LEZL",
      "alert": "OK",
      "vis_m": 9999,
      "fzfg": false,
      "metar_trigger": false,
      "taf_trigger": false,
      "metar": "METAR LEZL 081600Z 20007KT 150V270 CAVOK 25/08 Q1008 NOSIG",
      "taf": "TAF LEZL 081400Z 0815/0915 20010KT CAVOK TX22/0914Z TN15/0906Z"
    },
    {
      "icao": "LFBD",
      "alert": "OK",
      "vis_m": 9999,
      "fzfg": false,
      "metar_trigger": false,
      "taf_trigger": false,
      "metar": "METAR LFBD 081600Z AUTO 12010KT CAVOK 22/10 Q1010 TEMPO 13015G25KT 4000 SHRA BKN050TCU",
      "taf": "TAF LFBD 081100Z 0812/0918 12010KT CAVOK TX25/0814Z TN12/0905Z"
    },
    {
      "icao": "LFLL",
      "alert": "OK",
      "vis_m": 9999,
      "fzfg": false,
      "metar_trigger": false,
      "taf_trigger": false,
      "metar": "METAR LFLL 081600Z 18009KT 140V210 CAVOK 23/08 Q1012 NOSIG",
      "taf": "TAF LFLL 081100Z 0812/0918 VRB02KT CAVOK"
    },
    {
      "icao": "LFLS",
      "alert": "OK",
      "vis_m": 9999,
      "fzfg": false,
      "metar_trigger": false,
      "taf_trigger": false,
      "metar": "METAR LFLS 081600Z AUTO 22008KT 170V240 9999 FEW048/// SCT054/// ///CB 21/10 Q1013 TEMPO VRB15G25KT SHRA",
      "taf": "TAF LFLS 081400Z 0815/0915 VRB04KT 9999 FEW045"
    },
    {
      "icao": "LFMN",
      "alert": "OK",
      "vis_m": 9999,
      "fzfg": false,
      "metar_trigger": false,
      "taf_trigger": false,
      "metar": "METAR LFMN 081600Z 20007KT 9999 FEW050 BKN260 20/11 Q1014 NOSIG",
      "taf": "TAF LFMN 081400Z 0815/0921 20010KT 9999 FEW050CB"
    },
    {
      "icao": "LFOB",
      "alert": "OK",
      "vis_m": 9999,
      "fzfg": false,
      "metar_trigger": false,
      "taf_trigger": false,
      "metar": "METAR LFOB 081600Z AUTO 07007KT 030V110 9999 FEW047 SCT066 OVC084 18/09 Q1015 NOSIG",
      "taf": "TAF LFOB 081100Z 0812/0912 06007KT 9999 SCT045"
    },
    {
      "icao": "LFPO",
      "alert": "OK",
      "vis_m": 9999,
      "fzfg": false,
      "metar_trigger": false,
      "taf_trigger": false,
      "metar": "METAR LFPO 081600Z VRB03KT 9999 SCT046 21/06 Q1014 NOSIG",
      "taf": "TAF LFPO 081100Z 0812/0918 04006KT CAVOK"
    },
    {
      "icao": "LFSB",
      "alert": "OK",
      "vis_m": 9999,
      "fzfg": false,
      "metar_trigger": false,
      "taf_trigger": false,
      "metar": "METAR LFSB 081600Z AUTO 36005KT 320V040 CAVOK 22/07 Q1013 NOSIG",
      "taf": "TAF LFSB 081100Z 0812/0912 36005KT CAVOK"
    },
    {
      "icao": "LGAV",
      "alert": "OK",
      "vis_m": 9999,
      "fzfg": false,
      "metar_trigger": false,
      "taf_trigger": false,
      "metar": "METAR LGAV 081550Z 22013KT 9999 SCT025 21/07 Q1015 NOSIG",
      "taf": "TAF LGAV 081100Z 0812/0912 22013KT 9999 FEW025"
    },
    {
      "icao": "LGTS",
      "alert": "OK",
      "vis_m": 8000,
      "fzfg": false,
      "metar_trigger": false,
      "taf_trigger": false,
      "metar": "METAR LGTS 081550Z VRB03KT 8000 SCT010 BKN025 17/16 Q1015 NOSIG",
      "taf": "TAF LGTS 081100Z 0812/0912 VRB03KT 9999 SCT030"
    },
    {
      "icao": "LHBP",
      "alert": "OK",
      "vis_m": 9999,
      "fzfg": false,
      "metar_trigger": false,
      "taf_trigger": false,
      "metar": "METAR LHBP 081600Z 32006KT 300V360 CAVOK 22/07 Q1014 NOSIG",
      "taf": "TAF LHBP 081115Z 0812/0912 VRB04KT CAVOK"
    },
    {
      "icao": "LHDC",
      "alert": "OK",
      "vis_m": 9999,
      "fzfg": false,
      "metar_trigger": false,
      "taf_trigger": false,
      "metar": "METAR LHDC 081545Z AUTO 32005KT 220V030 CAVOK 23/10 Q1014 NOSIG",
      "taf": "TAF LHDC 081415Z 0815/0824 28006KT CAVOK"
    },
    {
      "icao": "LIBD",
      "alert": "OK",
      "vis_m": 7000,
      "fzfg": false,
      "metar_trigger": false,
      "taf_trigger": false,
      "metar": "METAR LIBD 081620Z 05005KT 010V070 7000 -RA BKN005 14/14 Q1013",
      "taf": "TAF LIBD 081100Z 0812/0912 VRB05KT 9999 BKN030"
    },
    {
      "icao": "LIBG",
      "alert": "OK",
      "vis_m": 9999,
      "fzfg": false,
      "metar_trigger": false,
      "taf_trigger": false,
      "metar": "METAR LIBG 081550Z 26007KT CAVOK 21/16 Q1011",
      "taf": "TAF LIBG 081400Z 0815/0824 02008KT 9999 FEW008 SCT020"
    },
    {
      "icao": "LIBP",
      "alert": "OK",
      "vis_m": 9999,
      "fzfg": false,
      "metar_trigger": false,
      "taf_trigger": false,
      "metar": "METAR LIBP 081620Z AUTO 07006KT 040V100 9999 FEW011/// BKN093/// 19/16 Q1014",
      "taf": "TAF LIBP 081100Z 0812/0912 VRB05KT 9999 BKN015"
    },
    {
      "icao": "LIBR",
      "alert": "OK",
      "vis_m": 9999,
      "fzfg": false,
      "metar_trigger": false,
      "taf_trigger": false,
      "metar": "METAR LIBR 081620Z 08012KT 9999 SCT015 16/16 Q1011",
      "taf": "TAF LIBR 081100Z 0812/0912 14015KT 9999 SCT030"
    },
    {
      "icao": "LICA",
      "alert": "OK",
      "vis_m": 9999,
      "fzfg": false,
      "metar_trigger": false,
      "taf_trigger": false,
      "metar": "METAR LICA 081620Z AUTO 26008KT 9999 NCD 21/13 Q1013",
      "taf": "TAF LICA 081100Z 0812/0912 26013KT 9999 SCT050"
    },
    {
      "icao": "LICC",
      "alert": "OK",
      "vis_m": 9999,
      "fzfg": false,
      "metar_trigger": false,
      "taf_trigger": false,
      "metar": "METAR LICC 081620Z 11009KT CAVOK 22/17 Q1012",
      "taf": "TAF LICC 081100Z 0812/0912 07012KT 9999 FEW020"
    },
    {
      "icao": "LICJ",
      "alert": "OK",
      "vis_m": 9999,
      "fzfg": false,
      "metar_trigger": false,
      "taf_trigger": false,
      "metar": "METAR LICJ 081620Z VRB01KT 9999 SCT018 BKN050 19/17 Q1013",
      "taf": "TAF LICJ 081100Z 0812/0912 31012KT 9999 SCT035"
    },
    {
      "icao": "LIMC",
      "alert": "OK",
      "vis_m": 9999,
      "fzfg": false,
      "metar_trigger": false,
      "taf_trigger": false,
      "metar": "METAR LIMC 081550Z 01004KT 340V060 9999 FEW040 BKN080 16/13 Q1015 NOSIG",
      "taf": "TAF LIMC 081100Z 0812/0918 VRB05KT 9999 SCT040"
    },
    {
      "icao": "LIME",
      "alert": "OK",
      "vis_m": 9999,
      "fzfg": false,
      "metar_trigger": false,
      "taf_trigger": false,
      "metar": "METAR LIME 081550Z 20003KT 120V290 9999 FEW020 21/09 Q1015 NOSIG",
      "taf": "TAF LIME 081100Z 0812/0912 VRB05KT 9999 SCT050"
    },
    {
      "icao": "LIMF",
      "alert": "OK",
      "vis_m": 9999,
      "fzfg": false,
      "metar_trigger": false,
      "taf_trigger": false,
      "metar": "METAR LIMF 081550Z 17003KT 130V210 9999 FEW100 19/11 Q1015",
      "taf": "TAF LIMF 081100Z 0812/0912 VRB05KT 9999 SCT030"
    },
    {
      "icao": "LIMJ",
      "alert": "OK",
      "vis_m": 9999,
      "fzfg": false,
      "metar_trigger": false,
      "taf_trigger": false,
      "metar": "METAR LIMJ 081550Z 04010KT CAVOK 23/12 Q1013",
      "taf": "TAF LIMJ 081100Z 0812/0912 03012KT 9999 SCT020"
    },
    {
      "icao": "LIPE",
      "alert": "OK",
      "vis_m": 9999,
      "fzfg": false,
      "metar_trigger": false,
      "taf_trigger": false,
      "metar": "METAR LIPE 081550Z 12007KT CAVOK 21/09 Q1014",
      "taf": "TAF LIPE 081100Z 0812/0912 VRB05KT 9999 SCT030"
    },
    {
      "icao": "LIPH",
      "alert": "OK",
      "vis_m": 9999,
      "fzfg": false,
      "metar_trigger": false,
      "taf_trigger": false,
      "metar": "METAR LIPH 081620Z 19005KT 160V220 CAVOK 22/12 Q1014",
      "taf": "TAF LIPH 081100Z 0812/0912 VRB05KT 9999 SCT015"
    },
    {
      "icao": "LIPQ",
      "alert": "OK",
      "vis_m": 9999,
      "fzfg": false,
      "metar_trigger": false,
      "taf_trigger": false,
      "metar": "METAR LIPQ 081620Z AUTO 27004KT 9999 SCT220/// 22/13 Q1013",
      "taf": "TAF LIPQ 081100Z 0812/0912 VRB05KT CAVOK"
    },
    {
      "icao": "LIPR",
      "alert": "OK",
      "vis_m": 9999,
      "fzfg": false,
      "metar_trigger": false,
      "taf_trigger": false,
      "metar": "METAR LIPR 081620Z AUTO VRB01KT 9999 FEW160/// 18/13 Q1015",
      "taf": "TAF LIPR 081100Z 0812/0912 VRB05KT 9999 SCT015"
    },
    {
      "icao": "LIPX",
      "alert": "OK",
      "vis_m": 9999,
      "fzfg": false,
      "metar_trigger": false,
      "taf_trigger": false,
      "metar": "METAR LIPX 081620Z 29004KT 260V320 9999 FEW035 22/10 Q1014",
      "taf": "TAF LIPX 081100Z 0812/0912 VRB05KT 9999 FEW050"
    },
    {
      "icao": "LIPY",
      "alert": "OK",
      "vis_m": 9999,
      "fzfg": false,
      "metar_trigger": false,
      "taf_trigger": false,
      "metar": "METAR LIPY 081620Z AUTO 02003KT 9999 BKN160/// 19/13 Q1014",
      "taf": "TAF LIPY 081100Z 0812/0912 VRB05KT 9999 BKN020"
    },
    {
      "icao": "LIPZ",
      "alert": "OK",
      "vis_m": 9999,
      "fzfg": false,
      "metar_trigger": false,
      "taf_trigger": false,
      "metar": "METAR LIPZ 081550Z 19004KT CAVOK 21/12 Q1014 NOSIG",
      "taf": "TAF LIPZ 081100Z 0812/0918 16010KT 9999 SCT020"
    },
    {
      "icao": "LIRF",
      "alert": "OK",
      "vis_m": 9999,
      "fzfg": false,
      "metar_trigger": false,
      "taf_trigger": false,
      "metar": "METAR LIRF 081550Z VRB02KT CAVOK 20/13 Q1013 NOSIG",
      "taf": "TAF LIRF 081100Z 0812/0918 22012KT 9999 SCT050"
    },
    {
      "icao": "LIRN",
      "alert": "OK",
      "vis_m": 9999,
      "fzfg": false,
      "metar_trigger": false,
      "taf_trigger": false,
      "metar": "METAR LIRN 081550Z 21005KT 160V250 9999 SCT050 20/14 Q1012 NOSIG",
      "taf": "TAF LIRN 081100Z 0812/0912 VRB05KT 9999 SCT050"
    },
    {
      "icao": "LIRP",
      "alert": "OK",
      "vis_m": 9999,
      "fzfg": false,
      "metar_trigger": false,
      "taf_trigger": false,
      "metar": "METAR LIRP 081545Z 30007KT CAVOK 22/12 Q1013 NOSIG",
      "taf": "TAF LIRP 081100Z 0812/0912 30010KT 9999 SCT050 BKN070"
    },
    {
      "icao": "LIRZ",
      "alert": "OK",
      "vis_m": 9999,
      "fzfg": false,
      "metar_trigger": false,
      "taf_trigger": false,
      "metar": "METAR LIRZ 081620Z AUTO VRB02KT 9999 -RA FEW034/// BKN056/// 15/14 Q1015",
      "taf": ""
    },
    {
      "icao": "LJLJ",
      "alert": "OK",
      "vis_m": 9999,
      "fzfg": false,
      "metar_trigger": false,
      "taf_trigger": false,
      "metar": "METAR LJLJ 081600Z 12004KT 060V150 9999 FEW060 SCT180 21/05 Q1014 NOSIG",
      "taf": "TAF LJLJ 081100Z 0812/0912 13005KT 9999 FEW040"
    },
    {
      "icao": "LKMT",
      "alert": "OK",
      "vis_m": 9999,
      "fzfg": false,
      "metar_trigger": false,
      "taf_trigger": false,
      "metar": "METAR LKMT 081600Z 01009KT 9999 FEW024 BKN035 14/08 Q1018 NOSIG",
      "taf": "TAF LKMT 081100Z 0812/0912 01008KT 9999 BKN030"
    },
    {
      "icao": "LKPR",
      "alert": "OK",
      "vis_m": 9999,
      "fzfg": false,
      "metar_trigger": false,
      "taf_trigger": false,
      "metar": "METAR LKPR 081600Z 01007KT 340V050 9999 FEW027 13/07 Q1018 NOSIG",
      "taf": "TAF LKPR 081400Z 0815/0921 03006KT 9999 BKN035"
    },
    {
      "icao": "LLBG",
      "alert": "OK",
      "vis_m": 9999,
      "fzfg": false,
      "metar_trigger": false,
      "taf_trigger": false,
      "metar": "METAR LLBG 081620Z 32008KT CAVOK 21/16 Q1015 NOSIG",
      "taf": "TAF LLBG 081105Z 0812/0912 33014KT CAVOK TX25/0812Z TN16/0903Z"
    },
    {
      "icao": "LMML",
      "alert": "OK",
      "vis_m": 9999,
      "fzfg": false,
      "metar_trigger": false,
      "taf_trigger": false,
      "metar": "METAR LMML 081615Z 16007KT CAVOK 22/17 Q1013 NOSIG",
      "taf": "TAF LMML 081100Z 0812/0912 29008KT 9999 FEW010"
    },
    {
      "icao": "LOWW",
      "alert": "OK",
      "vis_m": 9999,
      "fzfg": false,
      "metar_trigger": false,
      "taf_trigger": false,
      "metar": "METAR LOWW 081550Z 02005KT 340V070 CAVOK 21/06 Q1015 NOSIG",
      "taf": "TAF LOWW 081415Z 0815/0921 32008KT 9999 FEW050 TX21/0913Z TN10/0904Z"
    },
    {
      "icao": "LPFR",
      "alert": "OK",
      "vis_m": 9999,
      "fzfg": false,
      "metar_trigger": false,
      "taf_trigger": false,
      "metar": "METAR LPFR 081600Z 15012KT 9999 FEW025 19/12 Q1009",
      "taf": "TAF LPFR 081100Z 0812/0912 16012KT 9999 SCT025"
    },
    {
      "icao": "LPMA",
      "alert": "OK",
      "vis_m": 9999,
      "fzfg": false,
      "metar_trigger": false,
      "taf_trigger": false,
      "metar": "METAR LPMA 081600Z 21018KT 180V240 9999 FEW016 20/09 Q1007",
      "taf": "TAF LPMA 081100Z 0812/0912 23013KT 9999 SCT015"
    },
    {
      "icao": "LPPR",
      "alert": "OK",
      "vis_m": 9999,
      "fzfg": false,
      "metar_trigger": false,
      "taf_trigger": false,
      "metar": "METAR LPPR 081600Z 19007KT 100V270 9999 FEW025 18/08 Q1008",
      "taf": "TAF LPPR 081100Z 0812/0912 20012KT 9999 SCT020"
    },
    {
      "icao": "LPPS",
      "alert": "OK",
      "vis_m": 9999,
      "fzfg": false,
      "metar_trigger": false,
      "taf_trigger": false,
      "metar": "METAR LPPS 081600Z 26022KT 9999 FEW015 19/11 Q1007",
      "taf": "TAF LPPS 081100Z 0812/0918 27018KT 9999 SCT015"
    },
    {
      "icao": "LPPT",
      "alert": "OK",
      "vis_m": 9999,
      "fzfg": false,
      "metar_trigger": false,
      "taf_trigger": false,
      "metar": "METAR LPPT 081600Z 19011KT 140V230 9999 FEW035 18/10 Q1007",
      "taf": "TAF LPPT 081100Z 0812/0918 17013KT 9999 SCT025"
    },
    {
      "icao": "LQBK",
      "alert": "OK",
      "vis_m": 9999,
      "fzfg": false,
      "metar_trigger": false,
      "taf_trigger": false,
      "metar": "METAR LQBK 081600Z 36003KT 310V060 CAVOK 22/07 Q1014 NOSIG",
      "taf": "TAF LQBK 081100Z 0812/0912 34007KT 9999 SCT045 TX22/0814Z TN10/0904Z"
    },
    {
      "icao": "LQSA",
      "alert": "OK",
      "vis_m": 9999,
      "fzfg": false,
      "metar_trigger": false,
      "taf_trigger": false,
      "metar": "METAR LQSA 081600Z 32009KT 9999 SCT060 19/09 Q1013 NOSIG",
      "taf": "TAF LQSA 081100Z 0812/0912 VRB02KT 9999 SCT055 TX20/0813Z TN10/0904Z"
    },
    {
      "icao": "LQTZ",
      "alert": "OK",
      "vis_m": 9999,
      "fzfg": false,
      "metar_trigger": false,
      "taf_trigger": false,
      "metar": "METAR LQTZ 081600Z 06004KT 010V080 9999 VCSH FEW040TCU SCT045 BKN052 21/11 Q1014",
      "taf": "TAF LQTZ 081100Z 0812/0912 06006KT 9999 SCT050 TX23/0813Z TN09/0904Z"
    },
    {
      "icao": "LRBC",
      "alert": "OK",
      "vis_m": 9999,
      "fzfg": false,
      "metar_trigger": false,
      "taf_trigger": false,
      "metar": "METAR LRBC 081600Z COR 17007KT 9999 VCSH FEW045CB BKN059 20/13 Q1014",
      "taf": "TAF LRBC 081400Z 0815/0824 17012KT 9999 SCT035 BKN050"
    },
    {
      "icao": "LRBS",
      "alert": "OK",
      "vis_m": 9999,
      "fzfg": false,
      "metar_trigger": false,
      "taf_trigger": false,
      "metar": "METAR LRBS 081600Z 15006KT 110V180 CAVOK 25/12 Q1012 NOSIG",
      "taf": "TAF LRBS 081100Z 0812/0912 VRB04KT 9999 SCT035"
    },
    {
      "icao": "LRBV",
      "alert": "OK",
      "vis_m": 9999,
      "fzfg": false,
      "metar_trigger": false,
      "taf_trigger": false,
      "metar": "METAR LRBV 081600Z 28004KT 9999 VCSH SCT042 FEW050CB BKN063 17/14 Q1015",
      "taf": "TAF LRBV 081400Z 0815/0824 VRB04KT 9999 SCT050"
    },
    {
      "icao": "LRCL",
      "alert": "OK",
      "vis_m": 9999,
      "fzfg": false,
      "metar_trigger": false,
      "taf_trigger": false,
      "metar": "METAR LRCL 081600Z 02003KT 350V070 9999 FEW043 21/11 Q1014",
      "taf": "TAF LRCL 081400Z 0815/0824 VRB04KT 9999 SCT045"
    },
    {
      "icao": "LRCV",
      "alert": "OK",
      "vis_m": 9999,
      "fzfg": false,
      "metar_trigger": false,
      "taf_trigger": false,
      "metar": "METAR LRCV 081600Z 14003KT CAVOK 22/13 Q1013",
      "taf": "TAF LRCV 081400Z 0815/0824 VRB04KT CAVOK"
    },
    {
      "icao": "LRIA",
      "alert": "OK",
      "vis_m": 9999,
      "fzfg": false,
      "metar_trigger": false,
      "taf_trigger": false,
      "metar": "METAR LRIA 081600Z 15004KT 9999 FEW034 16/14 Q1015",
      "taf": "TAF LRIA 081400Z 0815/0824 32010KT 9999 SCT035"
    },
    {
      "icao": "LROP",
      "alert": "OK",
      "vis_m": 9999,
      "fzfg": false,
      "metar_trigger": false,
      "taf_trigger": false,
      "metar": "METAR LROP 081600Z 14006KT CAVOK 25/12 Q1013 NOSIG",
      "taf": "TAF LROP 081100Z 0812/0912 VRB04KT 9999 SCT035"
    },
    {
      "icao": "LRSB",
      "alert": "OK",
      "vis_m": 9999,
      "fzfg": false,
      "metar_trigger": false,
      "taf_trigger": false,
      "metar": "METAR LRSB 081600Z 10007KT 9999 FEW050CB BKN085 18/15 Q1014",
      "taf": "TAF LRSB 081100Z 0812/0912 VRB04KT 9999 SCT040CB"
    },
    {
      "icao": "LRSM",
      "alert": "OK",
      "vis_m": 9999,
      "fzfg": false,
      "metar_trigger": false,
      "taf_trigger": false,
      "metar": "METAR LRSM 081600Z 04007KT CAVOK 19/13 Q1015",
      "taf": "TAF LRSM 081400Z 0815/0824 VRB04KT 9999 SCT045"
    },
    {
      "icao": "LRSV",
      "alert": "OK",
      "vis_m": 9999,
      "fzfg": false,
      "metar_trigger": false,
      "taf_trigger": false,
      "metar": "METAR LRSV 081600Z 07004KT 040V100 9999 SCT047 16/15 Q1015",
      "taf": "TAF LRSV 081400Z 0815/0824 04010KT 9999 SCT015 SCT035CB BKN045"
    },
    {
      "icao": "LRTM",
      "alert": "OK",
      "vis_m": 9999,
      "fzfg": false,
      "metar_trigger": false,
      "taf_trigger": false,
      "metar": "METAR LRTM 081600Z 36007KT 320V030 9999 FEW038 FEW040CB 21/12 Q1014",
      "taf": "TAF LRTM 081400Z 0815/0824 VRB04KT 9999 SCT030"
    },
    {
      "icao": "LRTR",
      "alert": "OK",
      "vis_m": 9999,
      "fzfg": false,
      "metar_trigger": false,
      "taf_trigger": false,
      "metar": "METAR LRTR 081600Z 35006KT CAVOK 22/13 Q1013",
      "taf": "TAF LRTR 081100Z 0812/0912 25006KT 9999 SCT030"
    },
    {
      "icao": "LTAC",
      "alert": "OK",
      "vis_m": 9999,
      "fzfg": false,
      "metar_trigger": false,
      "taf_trigger": false,
      "metar": "METAR LTAC 081550Z 27006KT 9999 VCTS FEW030CB SCT035 BKN100 20/07 Q1020 NOSIG RMK RWY21C 26008KT RWY03L 27005KT 220V290 RWY21R 26007KT RWY03R 24008KT RWY21L 26007KT",
      "taf": "TAF LTAC 081040Z 0812/0912 VRB02KT 9999 SCT040 SCT100"
    },
    {
      "icao": "LTFM",
      "alert": "OK",
      "vis_m": 9999,
      "fzfg": false,
      "metar_trigger": false,
      "taf_trigger": false,
      "metar": "METAR LTFM 081550Z 24006KT CAVOK 22/07 Q1016 NOSIG RMK RWY17L 23008KT RWY34L 23004KT RWY16R 23005KT RWY36 22005KT 170V260 RWY18 24008KT",
      "taf": "TAF LTFM 081040Z 0812/0918 22015KT CAVOK"
    },
    {
      "icao": "LUKK",
      "alert": "OK",
      "vis_m": 9999,
      "fzfg": false,
      "metar_trigger": false,
      "taf_trigger": false,
      "metar": "METAR LUKK 081600Z 17009KT 9999 FEW047 19/13 Q1015 TEMPO SCT030CB",
      "taf": "TAF LUKK 081101Z 0812/0912 18009KT 9999 SCT035"
    },
    {
      "icao": "LWOH",
      "alert": "OK",
      "vis_m": 6000,
      "fzfg": false,
      "metar_trigger": false,
      "taf_trigger": false,
      "metar": "METAR LWOH 081620Z 29004KT 240V330 6000 RA SCT020 OVC040 11/10 Q1015",
      "taf": "TAF LWOH 081425Z 0815/0915 34005KT 9999 SCT040 BKN080"
    },
    {
      "icao": "LWSK",
      "alert": "OK",
      "vis_m": 9999,
      "fzfg": false,
      "metar_trigger": false,
      "taf_trigger": false,
      "metar": "METAR LWSK 081620Z 13009KT 9999 FEW034 BKN085 17/12 Q1014 NOSIG",
      "taf": "TAF LWSK 081425Z 0815/0915 14010KT 9999 SCT030 BKN060"
    },
    {
      "icao": "LYBE",
      "alert": "OK",
      "vis_m": 9999,
      "fzfg": false,
      "metar_trigger": false,
      "taf_trigger": false,
      "metar": "METAR LYBE 081600Z 06004KT 020V090 CAVOK 23/11 Q1013 NOSIG",
      "taf": "TAF LYBE 081100Z 0812/0912 30005KT 9999 BKN040 TX25/0813Z TN13/0903Z"
    },
    {
      "icao": "LYNI",
      "alert": "OK",
      "vis_m": 9999,
      "fzfg": false,
      "metar_trigger": false,
      "taf_trigger": false,
      "metar": "METAR LYNI 081600Z 05002KT 9999 -RA SCT040 OVC083 17/14 Q1014 NOSIG",
      "taf": ""
    },
    {
      "icao": "LYPG",
      "alert": "OK",
      "vis_m": 9999,
      "fzfg": false,
      "metar_trigger": false,
      "taf_trigger": false,
      "metar": "METAR LYPG 081600Z 13006KT 100V160 9999 FEW050 BKN090 21/10 Q1012 NOSIG",
      "taf": "TAF LYPG 081100Z 0812/0912 16007KT 9999 FEW050 BKN080 TX23/0813Z TN15/0906Z"
    },
    {
      "icao": "LZIB",
      "alert": "OK",
      "vis_m": 9999,
      "fzfg": false,
      "metar_trigger": false,
      "taf_trigger": false,
      "metar": "METAR LZIB 081600Z 30008KT 270V010 CAVOK 22/05 Q1015 NOSIG",
      "taf": "TAF LZIB 081115Z 0812/0912 30007KT CAVOK"
    },
    {
      "icao": "LZKZ",
      "alert": "OK",
      "vis_m": 9999,
      "fzfg": false,
      "metar_trigger": false,
      "taf_trigger": false,
      "metar": "METAR LZKZ 081600Z 02006KT 9999 FEW030 19/12 Q1015 NOSIG",
      "taf": "TAF LZKZ 081115Z 0812/0912 01008KT 9999 FEW040"
    },
    {
      "icao": "LZTT",
      "alert": "OK",
      "vis_m": 9999,
      "fzfg": false,
      "metar_trigger": false,
      "taf_trigger": false,
      "metar": "METAR LZTT 081600Z 05009KT 9999 FEW016 SCT030 BKN050 14/09 Q1016 NOSIG",
      "taf": ""
    },
    {
      "icao": "OEJN",
      "alert": "OK",
      "vis_m": 9999,
      "fzfg": false,
      "metar_trigger": false,
      "taf_trigger": false,
      "metar": "METAR OEJN 081600Z 33015KT CAVOK 30/16 Q1006 NOSIG",
      "taf": "TAF OEJN 081100Z 0812/0918 34014KT 9999 FEW040"
    },
    {
      "icao": "OEMA",
      "alert": "OK",
      "vis_m": 9999,
      "fzfg": false,
      "metar_trigger": false,
      "taf_trigger": false,
      "metar": "METAR OEMA 081600Z 29012KT 9999 FEW040 36/M05 Q1010 NOSIG",
      "taf": "TAF OEMA 081100Z 0812/0918 24015KT 9999 SCT040"
    },
    {
      "icao": "OJAI",
      "alert": "OK",
      "vis_m": 5000,
      "fzfg": false,
      "metar_trigger": false,
      "taf_trigger": false,
      "metar": "METAR OJAI 081600Z 30011KT 5000 HZ NSC 25/07 Q1016 NOSIG",
      "taf": "TAF OJAI 081030Z 0812/0918 15006KT 5000 HZ NSC"
    },
    {
      "icao": "OMAA",
      "alert": "OK",
      "vis_m": 9999,
      "fzfg": false,
      "metar_trigger": false,
      "taf_trigger": false,
      "metar": "METAR OMAA 081600Z 30007KT CAVOK 31/21 Q1006 NOSIG",
      "taf": "TAF OMAA 081100Z 0812/0918 30012KT 8000 NSC"
    },
    {
      "icao": "OMDB",
      "alert": "OK",
      "vis_m": 9999,
      "fzfg": false,
      "metar_trigger": false,
      "taf_trigger": false,
      "metar": "METAR OMDB 081600Z 26005KT 220V290 CAVOK 32/22 Q1005 NOSIG",
      "taf": "TAF OMDB 081100Z 0812/0918 28012KT CAVOK"
    },
    {
      "icao": "UAAA",
      "alert": "OK",
      "vis_m": 9999,
      "fzfg": false,
      "metar_trigger": false,
      "taf_trigger": false,
      "metar": "METAR UAAA 081600Z VRB01MPS 9999 FEW100 BKN200 22/09 Q1015 NOSIG",
      "taf": "TAF UAAA 081102Z 0812/0912 17003MPS 9999 SCT050CB BKN100 TX30/0910Z TN16/0900Z"
    },
    {
      "icao": "UBBB",
      "alert": "OK",
      "vis_m": 9999,
      "fzfg": false,
      "metar_trigger": false,
      "taf_trigger": false,
      "metar": "METAR UBBB 081600Z 15004KT CAVOK 18/12 Q1018 NOSIG",
      "taf": "TAF UBBB 081059Z 0812/0912 04006KT 9999 FEW050CB TX22/0812Z TN12/0901Z"
    },
    {
      "icao": "UDSG",
      "alert": "OK",
      "vis_m": 9999,
      "fzfg": false,
      "metar_trigger": false,
      "taf_trigger": false,
      "metar": "METAR UDSG 081600Z 09007KT 9999 SCT040CB 09/03 Q1022 NOSIG",
      "taf": "TAF UDSG 081100Z 0812/0912 VRB06KT 9999 SCT050"
    },
    {
      "icao": "UDYZ",
      "alert": "OK",
      "vis_m": 9999,
      "fzfg": false,
      "metar_trigger": false,
      "taf_trigger": false,
      "metar": "METAR UDYZ 081600Z 03008KT 9999 VCTS BKN043CB 15/04 Q1019 TEMPO -TSRA",
      "taf": "TAF UDYZ 081100Z 0812/0912 04006KT 9999 SCT040"
    },
    {
      "icao": "UGKO",
      "alert": "OK",
      "vis_m": 9999,
      "fzfg": false,
      "metar_trigger": false,
      "taf_trigger": false,
      "metar": "METAR UGKO 081600Z 26009KT CAVOK 18/08 Q1019 NOSIG",
      "taf": "TAF UGKO 081100Z 0812/0912 27007KT CAVOK TX26/0912Z TN08/0902Z"
    }
  ]
}