{
  "ts_utc": "2026-01-04T09:21:59Z",
  "threshold_m": 150,
  "source": "stations_override.txt (ICAO list) + aviationweather.gov (METAR/TAF raw)",
  "station_count": 159,
  "stations": [
    {
      "icao": "BIKF",
      "alert": "OK",
      "vis_m": 9999,
      "fzfg": false,
      "metar_trigger": false,
      "taf_trigger": false,
      "metar": "METAR BIKF 040900Z 02004KT 9999 FEW014 BKN030 M01/M03 Q1028",
      "taf": "TAF BIKF 040751Z 0409/0509 01008KT CAVOK TX03/0502Z TNM04/0412Z"
    },
    {
      "icao": "BKPR",
      "alert": "OK",
      "vis_m": 9999,
      "fzfg": false,
      "metar_trigger": false,
      "taf_trigger": false,
      "metar": "METAR BKPR 040900Z 17003KT 130V220 9999 BKN045 11/05 Q1007 NOSIG",
      "taf": "TAF BKPR 040530Z 0406/0506 18008KT 9999 FEW012 BKN040"
    },
    {
      "icao": "EBCI",
      "alert": "OK",
      "vis_m": 9999,
      "fzfg": false,
      "metar_trigger": false,
      "taf_trigger": false,
      "metar": "METAR EBCI 040850Z 23009KT CAVOK M03/M05 Q1012 NOSIG",
      "taf": "TAF EBCI 040514Z 0406/0512 26008KT 9999 FEW015 SCT035"
    },
    {
      "icao": "EDDB",
      "alert": "OK",
      "vis_m": 9999,
      "fzfg": false,
      "metar_trigger": false,
      "taf_trigger": false,
      "metar": "METAR EDDB 040850Z AUTO 22011KT CAVOK M04/M06 Q1005 NOSIG",
      "taf": "TAF EDDB 040500Z 0406/0506 24009KT 9999 SCT020"
    },
    {
      "icao": "EDDH",
      "alert": "OK",
      "vis_m": 8000,
      "fzfg": false,
      "metar_trigger": false,
      "taf_trigger": false,
      "metar": "METAR EDDH 040850Z AUTO 25007KT 8000 -SHSN BKN006 BKN019 BKN025 FEW///CB M01/M02 Q1003 RESHSN TEMPO SCT006",
      "taf": "TAF EDDH 040500Z 0406/0512 21004KT 9999 FEW035"
    },
    {
      "icao": "EDDK",
      "alert": "OK",
      "vis_m": 9999,
      "fzfg": false,
      "metar_trigger": false,
      "taf_trigger": false,
      "metar": "METAR EDDK 040850Z AUTO 24011KT 9999 BKN019 01/M03 Q1010 NOSIG",
      "taf": ""
    },
    {
      "icao": "EDDN",
      "alert": "OK",
      "vis_m": 9999,
      "fzfg": false,
      "metar_trigger": false,
      "taf_trigger": false,
      "metar": "METAR EDDN 040850Z AUTO 23010KT 9999 FEW024 SCT031 OVC047 M01/M06 Q1010 NOSIG",
      "taf": "TAF EDDN 040500Z 0406/0506 24010KT 9999 BKN015"
    },
    {
      "icao": "EDDS",
      "alert": "OK",
      "vis_m": 9999,
      "fzfg": false,
      "metar_trigger": false,
      "taf_trigger": false,
      "metar": "METAR EDDS 040850Z AUTO 23007KT 170V270 9999 OVC037 M02/M08 Q1011 NOSIG",
      "taf": "TAF EDDS 040500Z 0406/0506 21005KT 9999 OVC030"
    },
    {
      "icao": "EDFH",
      "alert": "OK",
      "vis_m": 9999,
      "fzfg": false,
      "metar_trigger": false,
      "taf_trigger": false,
      "metar": "METAR EDFH 040850Z 26012KT 9999 FEW016 BKN027 M03/M05 Q1009",
      "taf": "TAF EDFH 040500Z 0406/0506 25013KT 9999 BKN007"
    },
    {
      "icao": "EDJA",
      "alert": "OK",
      "vis_m": 9999,
      "fzfg": false,
      "metar_trigger": false,
      "taf_trigger": false,
      "metar": "METAR EDJA 040850Z 22008KT CAVOK M06/M08 Q1011",
      "taf": "TAF EDJA 040800Z 0409/0418 22007KT CAVOK"
    },
    {
      "icao": "EDLW",
      "alert": "OK",
      "vis_m": 9999,
      "fzfg": false,
      "metar_trigger": false,
      "taf_trigger": false,
      "metar": "METAR EDLW 040850Z 24014KT 9999 SCT010 OVC012 00/M02 Q1007",
      "taf": "TAF EDLW 040500Z 0406/0506 24013KT 9999 SCT008 BKN012"
    },
    {
      "icao": "EDNY",
      "alert": "OK",
      "vis_m": 9999,
      "fzfg": false,
      "metar_trigger": false,
      "taf_trigger": false,
      "metar": "METAR EDNY 040850Z 08004KT CAVOK M10/M11 Q1014",
      "taf": "TAF EDNY 040800Z 0409/0418 VRB02KT CAVOK"
    },
    {
      "icao": "EDSB",
      "alert": "OK",
      "vis_m": 9999,
      "fzfg": false,
      "metar_trigger": false,
      "taf_trigger": false,
      "metar": "METAR EDSB 040850Z 20009KT 9999 FEW022 OVC045 M01/M04 Q1014",
      "taf": "TAF EDSB 040500Z 0406/0506 20009KT 9999 OVC025"
    },
    {
      "icao": "EETN",
      "alert": "OK",
      "vis_m": 6000,
      "fzfg": false,
      "metar_trigger": false,
      "taf_trigger": false,
      "metar": "METAR EETN 040920Z 06010KT 6000 -FZDZ OVC007 M03/M04 Q0996 TEMPO 3000 SN",
      "taf": "TAF EETN 040530Z 0406/0506 07012KT 8000 OVC010"
    },
    {
      "icao": "EFTU",
      "alert": "OK",
      "vis_m": 9999,
      "fzfg": false,
      "metar_trigger": false,
      "taf_trigger": false,
      "metar": "METAR EFTU 040850Z AUTO 05008KT 010V070 CAVOK M16/M19 Q0999",
      "taf": "TAF EFTU 040824Z 0409/0509 04008KT CAVOK"
    },
    {
      "icao": "EGBB",
      "alert": "OK",
      "vis_m": 9999,
      "fzfg": false,
      "metar_trigger": false,
      "taf_trigger": false,
      "metar": "METAR EGBB 040850Z 25004KT CAVOK M03/M06 Q1014",
      "taf": "TAF EGBB 040456Z 0406/0506 29008KT 9999 FEW035"
    },
    {
      "icao": "EGGP",
      "alert": "OK",
      "vis_m": 9999,
      "fzfg": false,
      "metar_trigger": false,
      "taf_trigger": false,
      "metar": "METAR EGGP 040850Z 13004KT 9999 FEW040 M03/M05 Q1014",
      "taf": "TAF EGGP 040456Z 0406/0506 31005KT 9999 FEW035"
    },
    {
      "icao": "EGGW",
      "alert": "OK",
      "vis_m": 9999,
      "fzfg": false,
      "metar_trigger": false,
      "taf_trigger": false,
      "metar": "METAR EGGW 040850Z AUTO 28008KT 9999 NCD M03/M06 Q1013",
      "taf": "TAF EGGW 040454Z 0406/0506 29009KT CAVOK"
    },
    {
      "icao": "EGKK",
      "alert": "OK",
      "vis_m": 9999,
      "fzfg": false,
      "metar_trigger": false,
      "taf_trigger": false,
      "metar": "METAR EGKK 040850Z 18002KT 9999 FEW020 M04/M05 Q1014",
      "taf": "TAF EGKK 040454Z 0406/0512 28009KT CAVOK"
    },
    {
      "icao": "EGNM",
      "alert": "OK",
      "vis_m": 9999,
      "fzfg": false,
      "metar_trigger": false,
      "taf_trigger": false,
      "metar": "METAR EGNM 040850Z 27010KT CAVOK M03/M08 Q1011",
      "taf": "TAF EGNM 040528Z 0406/0506 30015KT 9999 FEW045"
    },
    {
      "icao": "EGPD",
      "alert": "OK",
      "vis_m": 9999,
      "fzfg": false,
      "metar_trigger": false,
      "taf_trigger": false,
      "metar": "METAR EGPD 040850Z 28011KT 9999 VCSH FEW008 SCT014 BKN036 M02/M04 Q1008 RESHSN TEMPO 1800 SHSN",
      "taf": "TAF EGPD 040456Z 0406/0506 30012KT 9999 FEW012"
    },
    {
      "icao": "EGPF",
      "alert": "OK",
      "vis_m": 9999,
      "fzfg": false,
      "metar_trigger": false,
      "taf_trigger": false,
      "metar": "METAR EGPF 040850Z AUTO 29005KT 9999 NCD M04/M06 Q1012",
      "taf": "TAF EGPF 040456Z 0406/0506 27007KT 9999 FEW040"
    },
    {
      "icao": "EHBK",
      "alert": "OK",
      "vis_m": 9999,
      "fzfg": false,
      "metar_trigger": false,
      "taf_trigger": false,
      "metar": "METAR EHBK 040855Z AUTO 22013KT 9999 NCD M02/M04 Q1010 NOSIG",
      "taf": "TAF EHBK 040511Z 0406/0512 24012KT 9999 SCT022"
    },
    {
      "icao": "EHEH",
      "alert": "OK",
      "vis_m": 9999,
      "fzfg": false,
      "metar_trigger": false,
      "taf_trigger": false,
      "metar": "SPECI EHEH 040916Z AUTO 24009KT 9999 R21/2900U -FZRA -SN FEW007 BKN016 BKN022 00/M02 Q1009 WHT TEMPO 1200 SHSN SCT006 BKN008 SCT015CB RMK TREND REMOTE BY EHWX",
      "taf": "TAF EHEH 040524Z 0406/0512 24008KT 9999 SCT020 BKN030"
    },
    {
      "icao": "EKBI",
      "alert": "OK",
      "vis_m": 9999,
      "fzfg": false,
      "metar_trigger": false,
      "taf_trigger": false,
      "metar": "METAR EKBI 040850Z AUTO 00000KT 9999 FEW120/// M09/M10 Q1001",
      "taf": "TAF EKBI 040827Z 0409/0509 VRB02KT 9999 BKN040"
    },
    {
      "icao": "EKCH",
      "alert": "OK",
      "vis_m": 9999,
      "fzfg": false,
      "metar_trigger": false,
      "taf_trigger": false,
      "metar": "METAR EKCH 040850Z 27014KT 9999 BKN012 M02/M04 Q0999 TEMPO 3000 SHSN SCT012",
      "taf": "TAF EKCH 040827Z 0409/0509 28012KT 9999 -SHSN BKN030"
    },
    {
      "icao": "ENAL",
      "alert": "OK",
      "vis_m": 9999,
      "fzfg": false,
      "metar_trigger": false,
      "taf_trigger": false,
      "metar": "METAR ENAL 040850Z 14011KT CAVOK M06/M13 Q1002",
      "taf": "TAF ENAL 040500Z 0406/0415 15009KT CAVOK"
    },
    {
      "icao": "ENBR",
      "alert": "OK",
      "vis_m": 9999,
      "fzfg": false,
      "metar_trigger": false,
      "taf_trigger": false,
      "metar": "METAR ENBR 040850Z 08006KT CAVOK M08/M15 Q1001 NOSIG RMK WIND 1200FT 12009KT",
      "taf": "TAF ENBR 040500Z 0406/0506 08005KT CAVOK"
    },
    {
      "icao": "ENGM",
      "alert": "OK",
      "vis_m": 1700,
      "fzfg": false,
      "metar_trigger": false,
      "taf_trigger": false,
      "metar": "METAR ENGM 040850Z 02011KT 1700 1400W SN FEW022 SCT025 BKN034 M08/M10 Q1002 TEMPO 3000 -SN VV014",
      "taf": ""
    },
    {
      "icao": "ENHD",
      "alert": "OK",
      "vis_m": 9999,
      "fzfg": false,
      "metar_trigger": false,
      "taf_trigger": false,
      "metar": "METAR ENHD 040850Z 09007KT 9999 FEW032 M06/M12 Q1001",
      "taf": "TAF ENHD 040800Z 0409/0418 09009KT CAVOK"
    },
    {
      "icao": "ENTC",
      "alert": "OK",
      "vis_m": 1000,
      "fzfg": false,
      "metar_trigger": false,
      "taf_trigger": false,
      "metar": "METAR ENTC 040850Z 21013KT 1000 R36/1800U R18/1800N SN VV009 M07/M09 Q1007 TEMPO 1800 SHSN VV010 RMK WIND 2600FT 30017KT",
      "taf": ""
    },
    {
      "icao": "ENTO",
      "alert": "OK",
      "vis_m": 4200,
      "fzfg": false,
      "metar_trigger": false,
      "taf_trigger": false,
      "metar": "METAR ENTO 040850Z 01012KT 4200 -SN OVC025 M07/M09 Q1001 TEMPO 2500 -SN VV014",
      "taf": "TAF ENTO 040500Z 0406/0506 36012KT 7000 -SN BKN020"
    },
    {
      "icao": "ENVA",
      "alert": "OK",
      "vis_m": 9999,
      "fzfg": false,
      "metar_trigger": false,
      "taf_trigger": false,
      "metar": "METAR ENVA 040850Z 12007KT CAVOK M10/M14 Q1007 NOSIG RMK WIND 670FT 10010KT",
      "taf": "TAF ENVA 040500Z 0406/0506 12009KT CAVOK"
    },
    {
      "icao": "ENZV",
      "alert": "OK",
      "vis_m": 9999,
      "fzfg": false,
      "metar_trigger": false,
      "taf_trigger": false,
      "metar": "METAR ENZV 040850Z 12005KT CAVOK M09/M15 Q1001 NOSIG",
      "taf": "TAF ENZV 040500Z 0406/0506 13008KT CAVOK"
    },
    {
      "icao": "EPGD",
      "alert": "OK",
      "vis_m": 9999,
      "fzfg": false,
      "metar_trigger": false,
      "taf_trigger": false,
      "metar": "METAR EPGD 040900Z 25011KT 9999 FEW011 SCT020 M03/M05 Q0996",
      "taf": "TAF EPGD 040530Z 0406/0506 22004KT CAVOK"
    },
    {
      "icao": "EPKK",
      "alert": "OK",
      "vis_m": 9999,
      "fzfg": false,
      "metar_trigger": false,
      "taf_trigger": false,
      "metar": "METAR EPKK 040900Z 24012KT CAVOK M00/M08 Q1007",
      "taf": "TAF EPKK 040830Z 0409/0509 24010KT CAVOK"
    },
    {
      "icao": "EPKT",
      "alert": "OK",
      "vis_m": 9999,
      "fzfg": false,
      "metar_trigger": false,
      "taf_trigger": false,
      "metar": "METAR EPKT 040900Z 21013KT 9999 FEW035 SCT045 M02/M08 Q1006",
      "taf": "TAF EPKT 040530Z 0406/0506 22012KT CAVOK"
    },
    {
      "icao": "EPLB",
      "alert": "OK",
      "vis_m": 9999,
      "fzfg": false,
      "metar_trigger": false,
      "taf_trigger": false,
      "metar": "METAR EPLB 040900Z 22016KT CAVOK M02/M07 Q1005",
      "taf": "TAF EPLB 040530Z 0406/0506 24014KT CAVOK"
    },
    {
      "icao": "EPMO",
      "alert": "OK",
      "vis_m": 2000,
      "fzfg": false,
      "metar_trigger": false,
      "taf_trigger": false,
      "metar": "METAR EPMO 040900Z 23018G29KT 2000 SHSN BLSN SCT017 BKN022 BKN030CB M01/M04 Q1001",
      "taf": ""
    },
    {
      "icao": "EPPO",
      "alert": "OK",
      "vis_m": 9999,
      "fzfg": false,
      "metar_trigger": false,
      "taf_trigger": false,
      "metar": "METAR EPPO 040900Z 26010KT 9999 FEW015 M03/M07 Q1004",
      "taf": "TAF EPPO 040530Z 0406/0506 25015KT 9999 BKN030"
    },
    {
      "icao": "EPRA",
      "alert": "OK",
      "vis_m": 9999,
      "fzfg": false,
      "metar_trigger": false,
      "taf_trigger": false,
      "metar": "METAR EPRA 040900Z 25019KT 9999 SCT030 M01/M07 Q1004",
      "taf": "TAF EPRA 040830Z 0409/0418 23012KT 9999 BKN030"
    },
    {
      "icao": "EPRZ",
      "alert": "OK",
      "vis_m": 9999,
      "fzfg": false,
      "metar_trigger": false,
      "taf_trigger": false,
      "metar": "METAR EPRZ 040900Z 22008KT CAVOK M01/M07 Q1007",
      "taf": "TAF EPRZ 040530Z 0406/0506 21010KT CAVOK"
    },
    {
      "icao": "EPSC",
      "alert": "OK",
      "vis_m": 9999,
      "fzfg": false,
      "metar_trigger": false,
      "taf_trigger": false,
      "metar": "METAR EPSC 040900Z 23009KT 200V260 9999 FEW014 M04/M07 Q1002",
      "taf": "TAF EPSC 040530Z 0406/0506 26015KT 9999 SCT020"
    },
    {
      "icao": "EPSY",
      "alert": "OK",
      "vis_m": 9999,
      "fzfg": false,
      "metar_trigger": false,
      "taf_trigger": false,
      "metar": "METAR EPSY 040900Z 22011KT 9999 BKN007 OVC011 M02/M03 Q0998 RESHSN",
      "taf": "TAF EPSY 040830Z 0409/0418 22010KT 9999 BKN020"
    },
    {
      "icao": "EPWA",
      "alert": "OK",
      "vis_m": 9999,
      "fzfg": false,
      "metar_trigger": false,
      "taf_trigger": false,
      "metar": "METAR EPWA 040900Z 23011KT 200V260 9999 -SHSN SCT030CB SCT036 M01/M05 Q1002 NOSIG",
      "taf": "TAF EPWA 040830Z 0409/0509 25014KT 9999 SCT030"
    },
    {
      "icao": "EPWR",
      "alert": "OK",
      "vis_m": 9999,
      "fzfg": false,
      "metar_trigger": false,
      "taf_trigger": false,
      "metar": "METAR EPWR 040900Z 26010KT 9999 FEW007 SCT030 M02/M03 Q1006",
      "taf": "TAF EPWR 040830Z 0409/0509 26010KT 2000 SN SCT004 BKN009"
    },
    {
      "icao": "ESGG",
      "alert": "OK",
      "vis_m": 9999,
      "fzfg": false,
      "metar_trigger": false,
      "taf_trigger": false,
      "metar": "METAR ESGG 040850Z 01007KT 9999 SCT005 BKN008 M06/M07 Q0997",
      "taf": "TAF ESGG 040830Z 0409/0509 36008KT 9999 -SN SCT005 BKN015"
    },
    {
      "icao": "ESKN",
      "alert": "OK",
      "vis_m": 9999,
      "fzfg": false,
      "metar_trigger": false,
      "taf_trigger": false,
      "metar": "METAR ESKN 040850Z 02014KT 330V060 9999 DRSN OVC011 M04/M06 Q0996",
      "taf": "TAF ESKN 040830Z 0409/0509 01015G25KT 9999 SCT010 BKN018"
    },
    {
      "icao": "ESMS",
      "alert": "OK",
      "vis_m": 6000,
      "fzfg": false,
      "metar_trigger": false,
      "taf_trigger": false,
      "metar": "METAR ESMS 040850Z 30009KT 6000 -SN FEW003 BKN013 OVC017 M03/M03 Q0997",
      "taf": "TAF ESMS 040827Z 0409/0509 30010KT 9999 -SHSN BKN016"
    },
    {
      "icao": "ESSA",
      "alert": "OK",
      "vis_m": 9999,
      "fzfg": false,
      "metar_trigger": false,
      "taf_trigger": false,
      "metar": "METAR ESSA 040850Z 03015KT 9999 OVC014 M05/M07 Q0998 TEMPO BKN015",
      "taf": ""
    },
    {
      "icao": "EYKA",
      "alert": "OK",
      "vis_m": 9000,
      "fzfg": false,
      "metar_trigger": false,
      "taf_trigger": false,
      "metar": "METAR EYKA 040920Z 19006KT 120V220 9000 -SHSN BKN009CB OVC012 M02/M03 Q0998",
      "taf": "TAF EYKA 040520Z 0406/0506 VRB04KT 9000 BKN020"
    },
    {
      "icao": "EYPA",
      "alert": "OK",
      "vis_m": 9999,
      "fzfg": false,
      "metar_trigger": false,
      "taf_trigger": false,
      "metar": "METAR EYPA 040920Z VRB05KT 9999 SCT010CB SCT015 BKN021 M00/M02 Q0995",
      "taf": ""
    },
    {
      "icao": "EYVI",
      "alert": "OK",
      "vis_m": 3500,
      "fzfg": false,
      "metar_trigger": false,
      "taf_trigger": false,
      "metar": "METAR EYVI 040850Z 19012KT 3500 SN OVC007 M03/M04 Q0999 TEMPO 1500 SN",
      "taf": "TAF EYVI 040513Z 0406/0506 19013KT 5000 SN BKN010 BKN025"
    },
    {
      "icao": "GCFV",
      "alert": "OK",
      "vis_m": 9999,
      "fzfg": false,
      "metar_trigger": false,
      "taf_trigger": false,
      "metar": "METAR GCFV 040900Z 27015KT 9999 FEW025 SCT040 19/14 Q1010",
      "taf": "TAF GCFV 040800Z 0409/0509 29015KT 9999 SCT025 SCT035 TX22/0414Z TN15/0506Z"
    },
    {
      "icao": "GCLP",
      "alert": "OK",
      "vis_m": 9999,
      "fzfg": false,
      "metar_trigger": false,
      "taf_trigger": false,
      "metar": "METAR GCLP 040900Z 26004KT 210V290 9999 FEW030 18/12 Q1011 NOSIG",
      "taf": "TAF GCLP 040800Z 0409/0509 34007KT 9999 SCT030 TX21/0414Z TN16/0506Z"
    },
    {
      "icao": "GCTS",
      "alert": "OK",
      "vis_m": 9999,
      "fzfg": false,
      "metar_trigger": false,
      "taf_trigger": false,
      "metar": "METAR GCTS 040900Z 02005KT 330V070 9999 FEW050 18/12 Q1011 NOSIG",
      "taf": "TAF GCTS 040800Z 0409/0509 36010KT 9999 SCT030 TX25/0414Z TN17/0506Z"
    },
    {
      "icao": "GMAD",
      "alert": "OK",
      "vis_m": 8000,
      "fzfg": false,
      "metar_trigger": false,
      "taf_trigger": false,
      "metar": "METAR GMAD 040900Z 22011KT 190V250 8000 SCT016 SCT026TCU 17/17 Q1006 TEMPO 4000 RA",
      "taf": "TAF GMAD 040500Z 0406/0512 22014KT 6000 SCT010 BKN020TCU BKN080"
    },
    {
      "icao": "GMMN",
      "alert": "OK",
      "vis_m": 9999,
      "fzfg": false,
      "metar_trigger": false,
      "taf_trigger": false,
      "metar": "METAR GMMN 040900Z 22013KT 9999 -RA BKN015 SCT027TCU 14/13 Q1000 NOSIG",
      "taf": "TAF GMMN 040500Z 0406/0512 20016KT 9999 BKN012 SCT020"
    },
    {
      "icao": "GMMX",
      "alert": "OK",
      "vis_m": 8000,
      "fzfg": false,
      "metar_trigger": false,
      "taf_trigger": false,
      "metar": "METAR GMMX 040900Z 27011KT 8000 SCT016 BKN080 14/11 Q1004 NOSIG",
      "taf": "TAF GMMX 040500Z 0406/0512 24008KT 9999 SCT016 BKN080"
    },
    {
      "icao": "HEGN",
      "alert": "OK",
      "vis_m": 9999,
      "fzfg": false,
      "metar_trigger": false,
      "taf_trigger": false,
      "metar": "METAR HEGN 040900Z 00000KT 9999 SCT025 21/08 Q1021 NOSIG",
      "taf": "TAF HEGN 040500Z 0406/0512 34015KT CAVOK"
    },
    {
      "icao": "HEMA",
      "alert": "OK",
      "vis_m": 9999,
      "fzfg": false,
      "metar_trigger": false,
      "taf_trigger": false,
      "metar": "METAR HEMA 040900Z 32016KT CAVOK 23/12 Q1020 NOSIG",
      "taf": "TAF HEMA 040500Z 0406/0512 36015KT CAVOK"
    },
    {
      "icao": "HESH",
      "alert": "OK",
      "vis_m": 9999,
      "fzfg": false,
      "metar_trigger": false,
      "taf_trigger": false,
      "metar": "METAR HESH 040900Z 01011KT CAVOK 23/06 Q1021 NOSIG",
      "taf": "TAF HESH 040500Z 0406/0512 02012KT CAVOK"
    },
    {
      "icao": "HESX",
      "alert": "OK",
      "vis_m": 9999,
      "fzfg": false,
      "metar_trigger": false,
      "taf_trigger": false,
      "metar": "METAR HESX 040900Z 05011KT 9999 SCT020 13/07 Q1022 NOSIG",
      "taf": "TAF HESX 040500Z 0406/0512 04010KT CAVOK"
    },
    {
      "icao": "LATI",
      "alert": "OK",
      "vis_m": 9999,
      "fzfg": false,
      "metar_trigger": false,
      "taf_trigger": false,
      "metar": "METAR LATI 040920Z 18018KT 160V220 9999 BKN028 OVC050 17/09 Q1011 NOSIG",
      "taf": ""
    },
    {
      "icao": "LBPD",
      "alert": "OK",
      "vis_m": 9999,
      "fzfg": false,
      "metar_trigger": false,
      "taf_trigger": false,
      "metar": "METAR LBPD 040900Z AUTO VRB02KT 9999 NCD 10/07 Q1009 NOSIG",
      "taf": "TAF LBPD 040500Z 0406/0506 VRB03KT 9999 SCT020 BKN080"
    },
    {
      "icao": "LBSF",
      "alert": "OK",
      "vis_m": 9999,
      "fzfg": false,
      "metar_trigger": false,
      "taf_trigger": false,
      "metar": "METAR LBSF 040901Z 17021G33KT 9999 SCT056 BKN063 15/04 Q1007 WS ALL RWY TEMPO 21025G40KT",
      "taf": "TAF LBSF 040500Z 0406/0506 17014KT 9999 SCT030 BKN050"
    },
    {
      "icao": "LBWN",
      "alert": "OK",
      "vis_m": 9999,
      "fzfg": false,
      "metar_trigger": false,
      "taf_trigger": false,
      "metar": "METAR LBWN 040900Z VRB02KT 9999 FEW037 14/11 Q1008 NOSIG",
      "taf": ""
    },
    {
      "icao": "LCLK",
      "alert": "OK",
      "vis_m": 9999,
      "fzfg": false,
      "metar_trigger": false,
      "taf_trigger": false,
      "metar": "METAR LCLK 040900Z 05008KT 9999 FEW030 18/09 Q1027 NOSIG",
      "taf": "TAF LCLK 040530Z 0406/0506 32007KT 9999 FEW030"
    },
    {
      "icao": "LCPH",
      "alert": "OK",
      "vis_m": 9999,
      "fzfg": false,
      "metar_trigger": false,
      "taf_trigger": false,
      "metar": "METAR LCPH 040900Z 15009KT 090V170 9999 FEW050 18/07 Q1026 NOSIG",
      "taf": "TAF LCPH 040530Z 0406/0506 06008KT 9999 FEW025 SCT040"
    },
    {
      "icao": "LEAL",
      "alert": "OK",
      "vis_m": 9999,
      "fzfg": false,
      "metar_trigger": false,
      "taf_trigger": false,
      "metar": "METAR LEAL 040900Z 06008KT 9999 FEW014 BKN042 15/12 Q1002 NOSIG",
      "taf": "TAF LEAL 040500Z 0406/0506 30003KT 9999 FEW020 TX15/0414Z TN08/0506Z"
    },
    {
      "icao": "LEBB",
      "alert": "OK",
      "vis_m": 9999,
      "fzfg": false,
      "metar_trigger": false,
      "taf_trigger": false,
      "metar": "METAR LEBB 040900Z 00000KT 9999 FEW040 SCT050 02/02 Q1014 NOSIG",
      "taf": ""
    },
    {
      "icao": "LEBL",
      "alert": "OK",
      "vis_m": 9999,
      "fzfg": false,
      "metar_trigger": false,
      "taf_trigger": false,
      "metar": "METAR LEBL 040900Z 34004KT 9999 BKN035 07/06 Q1006 NOSIG",
      "taf": ""
    },
    {
      "icao": "LECH",
      "alert": "OK",
      "vis_m": 2500,
      "fzfg": false,
      "metar_trigger": false,
      "taf_trigger": false,
      "metar": "METAR LECH 040900Z 04008KT 2500 -DZ BR OVC004 08/07 Q1006 REDZ",
      "taf": ""
    },
    {
      "icao": "LEMD",
      "alert": "OK",
      "vis_m": 9999,
      "fzfg": false,
      "metar_trigger": false,
      "taf_trigger": false,
      "metar": "METAR LEMD 040900Z VRB02KT 9999 SCT034 BKN045 06/06 Q1003 NOSIG",
      "taf": "TAF LEMD 040500Z 0406/0512 VRB03KT 9999 SCT030 TX09/0414Z TNM01/0506Z"
    },
    {
      "icao": "LEMG",
      "alert": "OK",
      "vis_m": 4000,
      "fzfg": false,
      "metar_trigger": false,
      "taf_trigger": false,
      "metar": "METAR LEMG 040900Z 09021KT 070V140 4000 RA BR BKN015 OVC035 15/13 Q0998 NOSIG",
      "taf": "TAF LEMG 040500Z 0406/0506 10018KT 9999 SCT015 BKN025 TX18/0414Z TN11/0407Z"
    },
    {
      "icao": "LEVC",
      "alert": "OK",
      "vis_m": 9999,
      "fzfg": false,
      "metar_trigger": false,
      "taf_trigger": false,
      "metar": "METAR LEVC 040900Z 04009KT 360V080 9999 -DZ FEW009 SCT017 OVC024 11/09 Q1005 NOSIG",
      "taf": "TAF LEVC 040500Z 0406/0506 03009KT 9999 SCT020 TX12/0414Z TN04/0506Z"
    },
    {
      "icao": "LEXJ",
      "alert": "OK",
      "vis_m": 9999,
      "fzfg": false,
      "metar_trigger": false,
      "taf_trigger": false,
      "metar": "METAR LEXJ 040900Z 28003KT 170V330 9999 BKN056 03/02 Q1013",
      "taf": "TAF LEXJ 040800Z 0409/0509 12009KT 9000 SCT020 BKN035 TX08/0415Z TN03/0409Z"
    },
    {
      "icao": "LEZG",
      "alert": "OK",
      "vis_m": 9999,
      "fzfg": false,
      "metar_trigger": false,
      "taf_trigger": false,
      "metar": "METAR LEZG 040900Z 29016KT 9999 BKN060 05/00 Q1008 NOSIG",
      "taf": "TAF LEZG 040500Z 0406/0506 31012KT 9999 BKN050 TX06/0415Z TNM00/0506Z"
    },
    {
      "icao": "LEZL",
      "alert": "OK",
      "vis_m": 9000,
      "fzfg": false,
      "metar_trigger": false,
      "taf_trigger": false,
      "metar": "METAR LEZL 040900Z 07012KT 9000 -RA NSC 13/12 Q0998 NOSIG",
      "taf": "TAF LEZL 040800Z 0409/0509 05012KT 9999 SCT030 TX16/0415Z TN09/0507Z"
    },
    {
      "icao": "LFBD",
      "alert": "OK",
      "vis_m": 9999,
      "fzfg": false,
      "metar_trigger": false,
      "taf_trigger": false,
      "metar": "METAR LFBD 040900Z AUTO 02003KT 360V070 CAVOK M01/M03 Q1015 NOSIG",
      "taf": "TAF LFBD 040500Z 0406/0512 03005KT CAVOK TX03/0414Z TNM05/0507Z"
    },
    {
      "icao": "LFLL",
      "alert": "OK",
      "vis_m": 9999,
      "fzfg": false,
      "metar_trigger": false,
      "taf_trigger": false,
      "metar": "METAR LFLL 040900Z 35008KT 9999 FEW009 M03/M04 Q1013 NOSIG",
      "taf": "TAF LFLL 040500Z 0406/0512 35010KT CAVOK"
    },
    {
      "icao": "LFLS",
      "alert": "OK",
      "vis_m": 9999,
      "fzfg": false,
      "metar_trigger": false,
      "taf_trigger": false,
      "metar": "METAR LFLS 040900Z AUTO 35007KT CAVOK M03/M06 Q1011 NOSIG",
      "taf": "TAF LFLS 040800Z 0409/0509 36009KT CAVOK"
    },
    {
      "icao": "LFMN",
      "alert": "OK",
      "vis_m": 9999,
      "fzfg": false,
      "metar_trigger": false,
      "taf_trigger": false,
      "metar": "METAR LFMN 040900Z 34011KT 9999 SCT040 05/M03 Q1004 NOSIG",
      "taf": "TAF LFMN 040800Z 0409/0515 33015KT 9999 SCT040"
    },
    {
      "icao": "LFOB",
      "alert": "OK",
      "vis_m": 9999,
      "fzfg": false,
      "metar_trigger": false,
      "taf_trigger": false,
      "metar": "METAR LFOB 040900Z AUTO 29002KT CAVOK M03/M04 Q1014 NOSIG",
      "taf": "TAF LFOB 040500Z 0406/0506 26005KT CAVOK"
    },
    {
      "icao": "LFPO",
      "alert": "OK",
      "vis_m": 9999,
      "fzfg": false,
      "metar_trigger": false,
      "taf_trigger": false,
      "metar": "METAR LFPO 040900Z AUTO 28006KT CAVOK M02/M04 Q1015 NOSIG",
      "taf": "TAF LFPO 040500Z 0406/0512 26003KT 9999 SCT020"
    },
    {
      "icao": "LFSB",
      "alert": "OK",
      "vis_m": 9999,
      "fzfg": false,
      "metar_trigger": false,
      "taf_trigger": false,
      "metar": "METAR LFSB 040900Z AUTO 18005KT 9999 BKN040 M03/M06 Q1014 TEMPO BKN013",
      "taf": "TAF LFSB 040500Z 0406/0506 VRB04KT 9999 SCT035"
    },
    {
      "icao": "LGAV",
      "alert": "OK",
      "vis_m": 9999,
      "fzfg": false,
      "metar_trigger": false,
      "taf_trigger": false,
      "metar": "METAR LGAV 040850Z 20018KT 9999 FEW025 SCT070 17/10 Q1019 NOSIG",
      "taf": "TAF LGAV 040500Z 0406/0506 20015KT 9999 FEW025 SCT060"
    },
    {
      "icao": "LGTS",
      "alert": "OK",
      "vis_m": 9999,
      "fzfg": false,
      "metar_trigger": false,
      "taf_trigger": false,
      "metar": "METAR LGTS 040850Z 14015KT 9999 FEW025 16/09 Q1013 NOSIG",
      "taf": "TAF LGTS 040500Z 0406/0506 15011KT 9999 SCT030"
    },
    {
      "icao": "LHBP",
      "alert": "OK",
      "vis_m": 9999,
      "fzfg": false,
      "metar_trigger": false,
      "taf_trigger": false,
      "metar": "METAR LHBP 040900Z 30006KT CAVOK 01/M06 Q1012 NOSIG",
      "taf": "TAF LHBP 040515Z 0406/0506 30004KT CAVOK"
    },
    {
      "icao": "LHDC",
      "alert": "OK",
      "vis_m": 9999,
      "fzfg": false,
      "metar_trigger": false,
      "taf_trigger": false,
      "metar": "METAR LHDC 040845Z AUTO 33003KT 290V350 9999 -RASN NSC M01/M03 Q1011 NOSIG",
      "taf": "TAF LHDC 040815Z 0409/0418 27006KT 9999 FEW025 BKN090"
    },
    {
      "icao": "LIBD",
      "alert": "OK",
      "vis_m": 9999,
      "fzfg": false,
      "metar_trigger": false,
      "taf_trigger": false,
      "metar": "METAR LIBD 040850Z 18006KT CAVOK 15/08 Q1007",
      "taf": "TAF LIBD 040500Z 0406/0506 19010KT 9999 FEW040"
    },
    {
      "icao": "LIBG",
      "alert": "OK",
      "vis_m": 9999,
      "fzfg": false,
      "metar_trigger": false,
      "taf_trigger": false,
      "metar": "METAR LIBG 040850Z 14004KT 9999 FEW040 14/14 Q1008",
      "taf": "TAF LIBG 040800Z 0409/0418 VRB05KT 9999 FEW040"
    },
    {
      "icao": "LIBP",
      "alert": "OK",
      "vis_m": 7000,
      "fzfg": false,
      "metar_trigger": false,
      "taf_trigger": false,
      "metar": "METAR LIBP 040850Z AUTO 32004KT 280V010 7000 -RA OVC006/// 11/10 Q1006",
      "taf": "TAF LIBP 040500Z 0406/0506 VRB05KT 9999 SCT070"
    },
    {
      "icao": "LIBR",
      "alert": "OK",
      "vis_m": 9999,
      "fzfg": false,
      "metar_trigger": false,
      "taf_trigger": false,
      "metar": "METAR LIBR 040850Z 18009KT CAVOK 15/13 Q1009",
      "taf": "TAF LIBR 040500Z 0406/0506 19012KT 9999 FEW030"
    },
    {
      "icao": "LICA",
      "alert": "OK",
      "vis_m": 9999,
      "fzfg": false,
      "metar_trigger": false,
      "taf_trigger": false,
      "metar": "METAR LICA 040850Z AUTO 10007KT 9999 NCD 15/10 Q1009",
      "taf": "TAF LICA 040500Z 0406/0506 08010KT 9999 FEW050"
    },
    {
      "icao": "LICC",
      "alert": "OK",
      "vis_m": 9999,
      "fzfg": false,
      "metar_trigger": false,
      "taf_trigger": false,
      "metar": "METAR LICC 040850Z 24004KT CAVOK 13/09 Q1011",
      "taf": "TAF LICC 040500Z 0406/0506 26008KT 9999 SCT030"
    },
    {
      "icao": "LICJ",
      "alert": "OK",
      "vis_m": 9999,
      "fzfg": false,
      "metar_trigger": false,
      "taf_trigger": false,
      "metar": "METAR LICJ 040850Z AUTO 18013KT 9999 NCD 17/08 Q1007",
      "taf": "TAF LICJ 040500Z 0406/0506 19020G40KT CAVOK"
    },
    {
      "icao": "LIMC",
      "alert": "OK",
      "vis_m": 200,
      "fzfg": true,
      "metar_trigger": false,
      "taf_trigger": false,
      "metar": "METAR LIMC 040850Z VRB01KT 0200 R35R/0400U R17L/0400D R35L/0650U FZFG BKN002 M05/M05 Q1009 NOSIG",
      "taf": "TAF LIMC 040500Z 0406/0512 VRB04KT 4000 BR BKN001"
    },
    {
      "icao": "LIME",
      "alert": "OK",
      "vis_m": 8000,
      "fzfg": false,
      "metar_trigger": false,
      "taf_trigger": false,
      "metar": "METAR LIME 040850Z 18003KT 160V220 8000 3000SE NSC M02/M03 Q1009 TEMPO 3000 BR",
      "taf": "TAF LIME 040500Z 0406/0506 VRB04KT 4000 BR BKN003"
    },
    {
      "icao": "LIMF",
      "alert": "OK",
      "vis_m": 9999,
      "fzfg": false,
      "metar_trigger": false,
      "taf_trigger": false,
      "metar": "METAR LIMF 040850Z 09002KT CAVOK M02/M05 Q1008",
      "taf": "TAF LIMF 040500Z 0406/0506 VRB04KT 4000 BR BKN003"
    },
    {
      "icao": "LIMJ",
      "alert": "OK",
      "vis_m": 9999,
      "fzfg": false,
      "metar_trigger": false,
      "taf_trigger": false,
      "metar": "METAR LIMJ 040850Z 03016KT 9999 SCT070 04/M02 Q1006",
      "taf": "TAF LIMJ 040500Z 0406/0506 03015KT 9999 FEW030"
    },
    {
      "icao": "LIPE",
      "alert": "OK",
      "vis_m": 4000,
      "fzfg": false,
      "metar_trigger": false,
      "taf_trigger": false,
      "metar": "METAR LIPE 040850Z 25005KT 4000 BR BKN006 BKN020 02/01 Q1009",
      "taf": "TAF LIPE 040500Z 0406/0506 28005KT 1500 BR BKN005"
    },
    {
      "icao": "LIPH",
      "alert": "OK",
      "vis_m": 9999,
      "fzfg": false,
      "metar_trigger": false,
      "taf_trigger": false,
      "metar": "METAR LIPH 040850Z 03004KT CAVOK 04/M03 Q1009",
      "taf": "TAF LIPH 040500Z 0406/0506 VRB05KT 9999 FEW040"
    },
    {
      "icao": "LIPQ",
      "alert": "OK",
      "vis_m": 9999,
      "fzfg": false,
      "metar_trigger": false,
      "taf_trigger": false,
      "metar": "METAR LIPQ 040850Z AUTO 04003KT 010V070 9999 NCD 06/M01 Q1009",
      "taf": "TAF LIPQ 040500Z 0406/0506 VRB05KT 9999 SCT030"
    },
    {
      "icao": "LIPR",
      "alert": "OK",
      "vis_m": 2500,
      "fzfg": false,
      "metar_trigger": false,
      "taf_trigger": false,
      "metar": "METAR LIPR 040850Z 33003KT 290V350 2500 BR BKN008 02/02 Q1008",
      "taf": "TAF LIPR 040500Z 0406/0506 30010KT 2000 BR BKN002"
    },
    {
      "icao": "LIPX",
      "alert": "CRITICAL",
      "vis_m": 100,
      "fzfg": true,
      "metar_trigger": true,
      "taf_trigger": false,
      "metar": "METAR LIPX 040850Z 23005KT 0100 R04/0275N FZFG VV001 M02/M02 Q1009",
      "taf": "TAF LIPX 040500Z 0406/0506 VRB04KT 4000 BR BKN003"
    },
    {
      "icao": "LIPY",
      "alert": "OK",
      "vis_m": 5000,
      "fzfg": false,
      "metar_trigger": false,
      "taf_trigger": false,
      "metar": "METAR LIPY 040850Z AUTO 29007KT 5000 RA OVC004/// 04/04 Q1008",
      "taf": "TAF LIPY 040500Z 0406/0506 30010KT 4000 RA BKN010"
    },
    {
      "icao": "LIPZ",
      "alert": "OK",
      "vis_m": 9999,
      "fzfg": false,
      "metar_trigger": false,
      "taf_trigger": false,
      "metar": "METAR LIPZ 040850Z 05008KT CAVOK 04/M01 Q1009 NOSIG",
      "taf": "TAF LIPZ 040500Z 0406/0512 VRB05KT 9999 SCT060"
    },
    {
      "icao": "LIRF",
      "alert": "OK",
      "vis_m": 5000,
      "fzfg": false,
      "metar_trigger": false,
      "taf_trigger": false,
      "metar": "METAR LIRF 040850Z VRB01KT 5000 -RA BR FEW010 14/14 Q1004 NOSIG",
      "taf": "TAF LIRF 040500Z 0406/0512 VRB05KT 9999 SCT020 SCT030"
    },
    {
      "icao": "LIRN",
      "alert": "OK",
      "vis_m": 9999,
      "fzfg": false,
      "metar_trigger": false,
      "taf_trigger": false,
      "metar": "METAR LIRN 040850Z 18006KT 140V230 9999 BKN020 17/13 Q1006 NOSIG",
      "taf": "TAF LIRN 040500Z 0406/0506 19014KT 9999 SCT030"
    },
    {
      "icao": "LIRP",
      "alert": "OK",
      "vis_m": 9999,
      "fzfg": false,
      "metar_trigger": false,
      "taf_trigger": false,
      "metar": "METAR LIRP 040845Z 12002KT 9999 FEW030 BKN045 07/07 Q1004 NOSIG",
      "taf": "TAF LIRP 040500Z 0406/0506 11005KT 9999 FEW020 SCT040"
    },
    {
      "icao": "LIRZ",
      "alert": "OK",
      "vis_m": 9999,
      "fzfg": false,
      "metar_trigger": false,
      "taf_trigger": false,
      "metar": "METAR LIRZ 040850Z AUTO 33006KT 9999 -RA OVC017/// 08/08 Q1004 RERA",
      "taf": "TAF LIRZ 040500Z 0406/0506 19008KT 6000 RA BKN020"
    },
    {
      "icao": "LJLJ",
      "alert": "OK",
      "vis_m": 9999,
      "fzfg": false,
      "metar_trigger": false,
      "taf_trigger": false,
      "metar": "METAR LJLJ 040900Z VRB01KT 9999 -SN FEW010 BKN050 00/M01 Q1011 NOSIG",
      "taf": "TAF LJLJ 040500Z 0406/0506 VRB02KT 7000 FEW005 SCT020 OVC050"
    },
    {
      "icao": "LKMT",
      "alert": "OK",
      "vis_m": 9999,
      "fzfg": false,
      "metar_trigger": false,
      "taf_trigger": false,
      "metar": "METAR LKMT 040900Z 22012KT 9999 SCT034 M03/M07 Q1009 NOSIG",
      "taf": "TAF LKMT 040500Z 0406/0506 21010KT CAVOK"
    },
    {
      "icao": "LKPR",
      "alert": "OK",
      "vis_m": 9999,
      "fzfg": false,
      "metar_trigger": false,
      "taf_trigger": false,
      "metar": "METAR LKPR 040900Z 21022KT 9999 SCT023 M02/M06 Q1007 NOSIG",
      "taf": "TAF LKPR 040800Z 0409/0515 22016KT 9999 SCT025"
    },
    {
      "icao": "LLBG",
      "alert": "OK",
      "vis_m": 9999,
      "fzfg": false,
      "metar_trigger": false,
      "taf_trigger": false,
      "metar": "METAR LLBG 040850Z 11011KT CAVOK 19/04 Q1024 NOSIG",
      "taf": "TAF LLBG 040503Z 0406/0506 04006KT CAVOK"
    },
    {
      "icao": "LMML",
      "alert": "OK",
      "vis_m": 9999,
      "fzfg": false,
      "metar_trigger": false,
      "taf_trigger": false,
      "metar": "METAR LMML 040915Z 18013KT CAVOK 19/13 Q1011 NOSIG",
      "taf": "TAF LMML 040500Z 0406/0506 19013KT 9999 FEW015"
    },
    {
      "icao": "LOWW",
      "alert": "OK",
      "vis_m": 9999,
      "fzfg": false,
      "metar_trigger": false,
      "taf_trigger": false,
      "metar": "METAR LOWW 040850Z 29015KT CAVOK 01/M09 Q1012 NOSIG",
      "taf": "TAF LOWW 040815Z 0409/0515 30012KT CAVOK TX02/0412Z TNM07/0505Z"
    },
    {
      "icao": "LPFR",
      "alert": "OK",
      "vis_m": 9999,
      "fzfg": false,
      "metar_trigger": false,
      "taf_trigger": false,
      "metar": "METAR LPFR 040900Z 01011KT 360V070 9999 FEW012 FEW018TCU BKN020 14/12 Q0997",
      "taf": "TAF LPFR 040500Z 0406/0506 04015KT 9999 SCT012 BKN025"
    },
    {
      "icao": "LPMA",
      "alert": "OK",
      "vis_m": 9999,
      "fzfg": false,
      "metar_trigger": false,
      "taf_trigger": false,
      "metar": "METAR LPMA 040900Z 32008KT 260V020 9999 BKN015 FEW016CB 17/12 Q1008",
      "taf": "TAF LPMA 040500Z 0406/0506 31010KT 9999 SCT015"
    },
    {
      "icao": "LPPR",
      "alert": "OK",
      "vis_m": 9999,
      "fzfg": false,
      "metar_trigger": false,
      "taf_trigger": false,
      "metar": "METAR LPPR 040900Z 09007KT CAVOK 13/08 Q1003",
      "taf": "TAF LPPR 040500Z 0406/0506 08007KT CAVOK"
    },
    {
      "icao": "LPPS",
      "alert": "OK",
      "vis_m": 9999,
      "fzfg": false,
      "metar_trigger": false,
      "taf_trigger": false,
      "metar": "METAR LPPS 040900Z 34015KT 9999 FEW013 FEW016CB 17/14 Q1007",
      "taf": "TAF LPPS 040500Z 0406/0512 32015KT 9999 SCT015"
    },
    {
      "icao": "LPPT",
      "alert": "OK",
      "vis_m": 9999,
      "fzfg": false,
      "metar_trigger": false,
      "taf_trigger": false,
      "metar": "METAR LPPT 040900Z 03011KT 9999 FEW020 13/10 Q1001",
      "taf": "TAF LPPT 040500Z 0406/0512 04012KT 9999 SCT015 BKN030"
    },
    {
      "icao": "LQBK",
      "alert": "OK",
      "vis_m": 1200,
      "fzfg": false,
      "metar_trigger": false,
      "taf_trigger": false,
      "metar": "METAR LQBK 040900Z 00000KT 1200 R16/1000U SN BR BKN005 OVC010 00/00 Q1014 NOSIG",
      "taf": "TAF LQBK 040500Z 0406/0506 34005KT 8000 -SN BKN010 OVC020 TX01/0412Z TNM01/0505Z"
    },
    {
      "icao": "LQSA",
      "alert": "OK",
      "vis_m": 1200,
      "fzfg": false,
      "metar_trigger": false,
      "taf_trigger": false,
      "metar": "METAR LQSA 040900Z 29012KT 1200 R11/P2000N SN SCT005 BKN025 00/00 Q1009 NOSIG",
      "taf": "TAF LQSA 040500Z 0406/0506 30008KT 3000 RA BR SCT008 BKN030 TX02/0408Z TNM02/0501Z"
    },
    {
      "icao": "LQTZ",
      "alert": "OK",
      "vis_m": 600,
      "fzfg": false,
      "metar_trigger": false,
      "taf_trigger": false,
      "metar": "METAR LQTZ 040900Z 31008KT 0600 R09/0800N +SN OVC003 M00/M00 Q1012",
      "taf": ""
    },
    {
      "icao": "LRBC",
      "alert": "OK",
      "vis_m": 7000,
      "fzfg": false,
      "metar_trigger": false,
      "taf_trigger": false,
      "metar": "METAR LRBC 040900Z 16015KT 7000 BKN003 OVC019 01/M01 Q1008",
      "taf": "TAF LRBC 040800Z 0409/0418 16016KT 7000 BKN010 BKN035"
    },
    {
      "icao": "LRBS",
      "alert": "OK",
      "vis_m": 8000,
      "fzfg": false,
      "metar_trigger": false,
      "taf_trigger": false,
      "metar": "METAR LRBS 040900Z 03006KT 360V070 8000 OVC004 02/01 Q1009 NOSIG",
      "taf": "TAF LRBS 040500Z 0406/0506 VRB04KT 3000 -RA BR OVC002"
    },
    {
      "icao": "LRBV",
      "alert": "OK",
      "vis_m": 9999,
      "fzfg": false,
      "metar_trigger": false,
      "taf_trigger": false,
      "metar": "METAR LRBV 040900Z VRB02KT 9999 SCT051 BKN068 01/M01 Q1006",
      "taf": "TAF LRBV 040800Z 0409/0418 VRB04KT 9999 SCT010 BKN040"
    },
    {
      "icao": "LRCL",
      "alert": "OK",
      "vis_m": 1500,
      "fzfg": false,
      "metar_trigger": false,
      "taf_trigger": false,
      "metar": "METAR LRCL 040900Z 12004KT 1500 R25/1800U -SN BR OVC019 M04/M05 Q1009",
      "taf": "TAF LRCL 040800Z 0409/0418 VRB04KT 5000 -SN BR SCT005 OVC025"
    },
    {
      "icao": "LRCV",
      "alert": "OK",
      "vis_m": 3000,
      "fzfg": false,
      "metar_trigger": false,
      "taf_trigger": false,
      "metar": "METAR LRCV 040900Z VRB01KT 3000 -RA BR BKN005 OVC015 01/01 Q1010",
      "taf": "TAF LRCV 040800Z 0409/0418 07007KT 5000 -RA BR BKN005 OVC025"
    },
    {
      "icao": "LRIA",
      "alert": "OK",
      "vis_m": 9999,
      "fzfg": false,
      "metar_trigger": false,
      "taf_trigger": false,
      "metar": "METAR LRIA 040900Z 12006KT 080V140 9999 FEW014 BKN016 OVC019 01/M01 Q1009",
      "taf": "TAF LRIA 040800Z 0409/0418 16010KT 9999 SCT020 BKN040"
    },
    {
      "icao": "LROP",
      "alert": "OK",
      "vis_m": 9999,
      "fzfg": false,
      "metar_trigger": false,
      "taf_trigger": false,
      "metar": "METAR LROP 040900Z 05010KT 9999 OVC004 02/02 Q1009 NOSIG",
      "taf": "TAF LROP 040500Z 0406/0506 VRB04KT 3000 -RA BR OVC002"
    },
    {
      "icao": "LRSB",
      "alert": "OK",
      "vis_m": 8000,
      "fzfg": false,
      "metar_trigger": false,
      "taf_trigger": false,
      "metar": "METAR LRSB 040900Z 34006KT 8000 -RASN FEW005 SCT038 BKN050 M02/M02 Q1006",
      "taf": "TAF LRSB 040500Z 0406/0506 VRB03KT 9999 SCT045"
    },
    {
      "icao": "LRSM",
      "alert": "OK",
      "vis_m": 9999,
      "fzfg": false,
      "metar_trigger": false,
      "taf_trigger": false,
      "metar": "METAR LRSM 040900Z 19004KT 9999 FEW035 M01/M04 Q1010",
      "taf": "TAF LRSM 040800Z 0409/0418 VRB04KT 9999 SCT045"
    },
    {
      "icao": "LRSV",
      "alert": "OK",
      "vis_m": 9999,
      "fzfg": false,
      "metar_trigger": false,
      "taf_trigger": false,
      "metar": "METAR LRSV 040900Z 19012KT 9999 SCT011 M00/M02 Q1006",
      "taf": "TAF LRSV 040800Z 0409/0418 18012KT 9999 BKN045"
    },
    {
      "icao": "LRTM",
      "alert": "OK",
      "vis_m": 1500,
      "fzfg": false,
      "metar_trigger": false,
      "taf_trigger": false,
      "metar": "METAR LRTM 040900Z 26005KT 1500 -SN BR SCT006 OVC012 M03/M04 Q1008 RESN",
      "taf": "TAF LRTM 040800Z 0409/0418 VRB04KT 5000 -SN BR SCT005 OVC025"
    },
    {
      "icao": "LRTR",
      "alert": "OK",
      "vis_m": 8000,
      "fzfg": false,
      "metar_trigger": false,
      "taf_trigger": false,
      "metar": "METAR LRTR 040900Z 36013KT 8000 -SN FEW020 OVC034 M00/M03 Q1011 RESN",
      "taf": "TAF LRTR 040500Z 0406/0506 36011KT 5000 -SN BR OVC025"
    },
    {
      "icao": "LTAC",
      "alert": "OK",
      "vis_m": 4400,
      "fzfg": false,
      "metar_trigger": false,
      "taf_trigger": false,
      "metar": "METAR LTAC 040850Z VRB01KT 4400 BR SCT033 BKN100 02/M02 Q1024 BECMG 6000",
      "taf": "TAF LTAC 040440Z 0406/0506 VRB02KT 9999 SCT035 SCT100"
    },
    {
      "icao": "LTFM",
      "alert": "OK",
      "vis_m": 9999,
      "fzfg": false,
      "metar_trigger": false,
      "taf_trigger": false,
      "metar": "METAR LTFM 040850Z 21030G41KT CAVOK 15/09 Q1015 NOSIG RMK RWY17L 21031G44KT RWY34L 20027G38KT RWY16R 21030G41KT RWY36 22029KT RWY18 22036G48KT",
      "taf": "TAF LTFM 040440Z 0406/0512 21030G45KT CAVOK"
    },
    {
      "icao": "LUKK",
      "alert": "OK",
      "vis_m": 9999,
      "fzfg": false,
      "metar_trigger": false,
      "taf_trigger": false,
      "metar": "METAR LUKK 040900Z 17008KT 9999 -RASN FEW020 SCT035 OVC044 00/M01 Q1010 REFZRA TEMPO 5000 SNRA BKN006",
      "taf": "TAF LUKK 040523Z 0406/0506 VRB06KT CAVOK"
    },
    {
      "icao": "LWOH",
      "alert": "OK",
      "vis_m": 9999,
      "fzfg": false,
      "metar_trigger": false,
      "taf_trigger": false,
      "metar": "METAR LWOH 040920Z 16012KT 9999 BKN040 12/07 Q1011",
      "taf": ""
    },
    {
      "icao": "LWSK",
      "alert": "OK",
      "vis_m": 9999,
      "fzfg": false,
      "metar_trigger": false,
      "taf_trigger": false,
      "metar": "METAR LWSK 040920Z 16012KT 130V190 9999 FEW045 BKN075 16/07 Q1009 NOSIG",
      "taf": ""
    },
    {
      "icao": "LYBE",
      "alert": "OK",
      "vis_m": 800,
      "fzfg": false,
      "metar_trigger": false,
      "taf_trigger": false,
      "metar": "METAR LYBE 040900Z 36010KT 0800 R12L/0900N R30R/0900U +SN BKN003 M01/M01 Q1011 NOSIG",
      "taf": ""
    },
    {
      "icao": "LYNI",
      "alert": "OK",
      "vis_m": 9999,
      "fzfg": false,
      "metar_trigger": false,
      "taf_trigger": false,
      "metar": "METAR LYNI 040900Z VRB01KT 9999 FEW037 BKN050 BKN083 04/02 Q1007 NOSIG",
      "taf": "TAF LYNI 040500Z 0406/0506 23005KT 8000 SCT050 BKN070 TX13/0411Z TNM01/0423Z"
    },
    {
      "icao": "LYPG",
      "alert": "OK",
      "vis_m": 7000,
      "fzfg": false,
      "metar_trigger": false,
      "taf_trigger": false,
      "metar": "METAR LYPG 040900Z VRB02KT 7000 RA FEW023 BKN040 OVC070 13/12 Q1009 NOSIG",
      "taf": "TAF LYPG 040500Z 0406/0506 14008KT 6000 RA FEW020 SCT040 OVC070 TX15/0413Z TN12/0506Z"
    },
    {
      "icao": "LZIB",
      "alert": "OK",
      "vis_m": 9999,
      "fzfg": false,
      "metar_trigger": false,
      "taf_trigger": false,
      "metar": "METAR LZIB 040900Z 29011KT 260V330 CAVOK 01/M08 Q1012 NOSIG",
      "taf": "TAF LZIB 040515Z 0406/0506 28012KT CAVOK"
    },
    {
      "icao": "LZKZ",
      "alert": "OK",
      "vis_m": 9999,
      "fzfg": false,
      "metar_trigger": false,
      "taf_trigger": false,
      "metar": "METAR LZKZ 040900Z 20006KT 9999 SCT010 M02/M04 Q1009 TEMPO BKN009",
      "taf": "TAF LZKZ 040515Z 0406/0506 24005KT 9999 FEW020"
    },
    {
      "icao": "LZTT",
      "alert": "OK",
      "vis_m": 9999,
      "fzfg": false,
      "metar_trigger": false,
      "taf_trigger": false,
      "metar": "METAR LZTT 040900Z 27017KT 9999 FEW040 M04/M10 Q1006 NOSIG",
      "taf": "TAF LZTT 040515Z 0406/0506 26012KT CAVOK"
    },
    {
      "icao": "OEJN",
      "alert": "OK",
      "vis_m": 7000,
      "fzfg": false,
      "metar_trigger": false,
      "taf_trigger": false,
      "metar": "METAR OEJN 040900Z 10005KT 7000 NSC 31/03 Q1015 NOSIG",
      "taf": "TAF OEJN 040500Z 0406/0512 27010KT 7000 NSC"
    },
    {
      "icao": "OEMA",
      "alert": "OK",
      "vis_m": 7000,
      "fzfg": false,
      "metar_trigger": false,
      "taf_trigger": false,
      "metar": "METAR OEMA 040900Z 08012KT 7000 NSC 19/02 Q1025 NOSIG",
      "taf": "TAF OEMA 040500Z 0406/0512 09018KT 7000 NSC"
    },
    {
      "icao": "OJAI",
      "alert": "OK",
      "vis_m": 5000,
      "fzfg": false,
      "metar_trigger": false,
      "taf_trigger": false,
      "metar": "METAR OJAI 040900Z 09010KT 5000 HZ NSC 09/05 Q1028 NOSIG",
      "taf": "TAF OJAI 040500Z 0406/0512 13012KT 4000 BR NSC"
    },
    {
      "icao": "OMAA",
      "alert": "OK",
      "vis_m": 9999,
      "fzfg": false,
      "metar_trigger": false,
      "taf_trigger": false,
      "metar": "METAR OMAA 040900Z 30014KT 9999 SCT030 25/17 Q1019 NOSIG",
      "taf": "TAF OMAA 040500Z 0406/0512 31012KT 8000 NSC"
    },
    {
      "icao": "OMDB",
      "alert": "OK",
      "vis_m": 9999,
      "fzfg": false,
      "metar_trigger": false,
      "taf_trigger": false,
      "metar": "METAR OMDB 040900Z 27009KT 230V290 CAVOK 26/17 Q1018 NOSIG",
      "taf": "TAF OMDB 040500Z 0406/0512 23005KT 7000 NSC"
    },
    {
      "icao": "UAAA",
      "alert": "OK",
      "vis_m": 9999,
      "fzfg": false,
      "metar_trigger": false,
      "taf_trigger": false,
      "metar": "METAR UAAA 040900Z 03003MPS 9999 NSC 05/M02 Q1028 NOSIG",
      "taf": "TAF UAAA 040501Z 0406/0506 26003G08MPS 9999 SCT050 BKN100 TX07/0409Z TNM03/0502Z"
    },
    {
      "icao": "UBBB",
      "alert": "OK",
      "vis_m": 9999,
      "fzfg": false,
      "metar_trigger": false,
      "taf_trigger": false,
      "metar": "METAR UBBB 040900Z 18010KT CAVOK 08/M02 Q1021 NOSIG",
      "taf": "TAF UBBB 040502Z 0406/0506 19018G28KT CAVOK TX08/0409Z TN03/0501Z"
    },
    {
      "icao": "UDSG",
      "alert": "OK",
      "vis_m": 9000,
      "fzfg": false,
      "metar_trigger": false,
      "taf_trigger": false,
      "metar": "METAR UDSG 040900Z 15001KT 9000 NSC M12/M18 Q1031 NOSIG",
      "taf": "TAF UDSG 040458Z 0406/0506 VRB06KT 9999 FEW040"
    },
    {
      "icao": "UDYZ",
      "alert": "OK",
      "vis_m": 7000,
      "fzfg": false,
      "metar_trigger": false,
      "taf_trigger": false,
      "metar": "METAR UDYZ 040900Z 00000KT 7000 NSC M05/M13 Q1034 NOSIG",
      "taf": "TAF UDYZ 040500Z 0406/0506 VRB06KT 9999 FEW040"
    },
    {
      "icao": "UGKO",
      "alert": "OK",
      "vis_m": 9999,
      "fzfg": false,
      "metar_trigger": false,
      "taf_trigger": false,
      "metar": "METAR UGKO 040900Z 08010KT 9999 BKN081 08/M03 Q1025 NOSIG",
      "taf": "TAF UGKO 040500Z 0406/0506 09010KT CAVOK TX08/0412Z TN03/0502Z"
    }
  ]
}