{
  "ts_utc": "2026-03-09T23:15:14Z",
  "threshold_m": 150,
  "source": "stations_override.txt (ICAO list) + aviationweather.gov (METAR/TAF raw)",
  "station_count": 159,
  "stations": [
    {
      "icao": "BIKF",
      "alert": "OK",
      "vis_m": 9999,
      "fzfg": false,
      "metar_trigger": false,
      "taf_trigger": false,
      "metar": "METAR BIKF 092300Z 21007KT 9999 FEW012 02/01 Q0971",
      "taf": "TAF BIKF 092230Z 1000/1100 22018KT 9999 -SHRA BKN020 TX05/1012Z TN01/1024Z"
    },
    {
      "icao": "BKPR",
      "alert": "OK",
      "vis_m": 9999,
      "fzfg": false,
      "metar_trigger": false,
      "taf_trigger": false,
      "metar": "METAR BKPR 092300Z 19005KT CAVOK 04/M00 Q1027 NOSIG",
      "taf": "TAF BKPR 091730Z 0918/1018 13007KT 9999 SCT080"
    },
    {
      "icao": "EBCI",
      "alert": "OK",
      "vis_m": 9999,
      "fzfg": false,
      "metar_trigger": false,
      "taf_trigger": false,
      "metar": "METAR EBCI 092250Z 19006KT CAVOK 11/07 Q1018 NOSIG",
      "taf": "TAF EBCI 091703Z 0918/1024 20003KT 8000 FEW020"
    },
    {
      "icao": "EDDB",
      "alert": "OK",
      "vis_m": 9999,
      "fzfg": false,
      "metar_trigger": false,
      "taf_trigger": false,
      "metar": "METAR EDDB 092250Z AUTO 12003KT CAVOK 06/02 Q1018 NOSIG",
      "taf": "TAF EDDB 091700Z 0918/1018 VRB03KT CAVOK"
    },
    {
      "icao": "EDDH",
      "alert": "OK",
      "vis_m": 9999,
      "fzfg": false,
      "metar_trigger": false,
      "taf_trigger": false,
      "metar": "METAR EDDH 092250Z AUTO VRB02KT CAVOK 05/03 Q1017 TEMPO 4000 BR",
      "taf": "TAF EDDH 091700Z 0918/1024 VRB02KT CAVOK"
    },
    {
      "icao": "EDDK",
      "alert": "OK",
      "vis_m": 9999,
      "fzfg": false,
      "metar_trigger": false,
      "taf_trigger": false,
      "metar": "METAR EDDK 092250Z AUTO VRB01KT CAVOK 06/04 Q1018 NOSIG",
      "taf": "TAF EDDK 091700Z 0918/1024 VRB03KT CAVOK"
    },
    {
      "icao": "EDDN",
      "alert": "OK",
      "vis_m": 9000,
      "fzfg": false,
      "metar_trigger": false,
      "taf_trigger": false,
      "metar": "METAR EDDN 092250Z AUTO 11004KT 9000 NSC 07/04 Q1019",
      "taf": "TAF EDDN 091700Z 0918/1018 VRB03KT CAVOK"
    },
    {
      "icao": "EDDS",
      "alert": "OK",
      "vis_m": 9999,
      "fzfg": false,
      "metar_trigger": false,
      "taf_trigger": false,
      "metar": "METAR EDDS 092250Z AUTO VRB01KT CAVOK 07/05 Q1019",
      "taf": "TAF EDDS 091700Z 0918/1018 VRB03KT CAVOK"
    },
    {
      "icao": "EDFH",
      "alert": "OK",
      "vis_m": 9999,
      "fzfg": false,
      "metar_trigger": false,
      "taf_trigger": false,
      "metar": "METAR EDFH 092250Z 22004KT CAVOK 11/04 Q1019",
      "taf": "TAF EDFH 091700Z 0918/1018 20004KT 9999 SCT020"
    },
    {
      "icao": "EDJA",
      "alert": "OK",
      "vis_m": 9999,
      "fzfg": false,
      "metar_trigger": false,
      "taf_trigger": false,
      "metar": "METAR EDJA 092250Z AUTO 13004KT 100V160 9999 // BKN092/// BKN210/// 04/02 Q1019",
      "taf": "TAF EDJA 091700Z 0918/1003 VRB03KT CAVOK"
    },
    {
      "icao": "EDLW",
      "alert": "OK",
      "vis_m": 9999,
      "fzfg": false,
      "metar_trigger": false,
      "taf_trigger": false,
      "metar": "METAR EDLW 092250Z AUTO 16009KT 9999 // NCD 09/05 Q1018",
      "taf": "TAF EDLW 091700Z 0918/1018 VRB03KT CAVOK"
    },
    {
      "icao": "EDNY",
      "alert": "OK",
      "vis_m": 7000,
      "fzfg": false,
      "metar_trigger": false,
      "taf_trigger": false,
      "metar": "METAR EDNY 092250Z AUTO VRB02KT 7000 FEW097/// 04/03 Q1020",
      "taf": "TAF EDNY 091700Z 0918/1003 VRB03KT CAVOK"
    },
    {
      "icao": "EDSB",
      "alert": "OK",
      "vis_m": 9999,
      "fzfg": false,
      "metar_trigger": false,
      "taf_trigger": false,
      "metar": "METAR EDSB 092250Z AUTO 00000KT 9999 R21///// NCD 06/04 Q1019",
      "taf": "TAF EDSB 091700Z 0918/1018 VRB03KT CAVOK"
    },
    {
      "icao": "EETN",
      "alert": "OK",
      "vis_m": 200,
      "fzfg": false,
      "metar_trigger": false,
      "taf_trigger": false,
      "metar": "METAR EETN 092250Z 23006KT 0200 R26/0900N FG VV001 01/01 Q1018",
      "taf": ""
    },
    {
      "icao": "EFTU",
      "alert": "OK",
      "vis_m": 9000,
      "fzfg": false,
      "metar_trigger": false,
      "taf_trigger": false,
      "metar": "METAR EFTU 092250Z AUTO 22003KT 180V310 9000 NCD M00/M01 Q1016",
      "taf": "TAF EFTU 092028Z 0921/1021 24004KT CAVOK"
    },
    {
      "icao": "EGBB",
      "alert": "OK",
      "vis_m": 4000,
      "fzfg": false,
      "metar_trigger": false,
      "taf_trigger": false,
      "metar": "METAR EGBB 092250Z 18005KT 150V220 4000 BR BKN009 09/09 Q1015",
      "taf": "TAF EGBB 092259Z 1000/1024 18009KT 4000 BR BKN009"
    },
    {
      "icao": "EGGP",
      "alert": "OK",
      "vis_m": 9999,
      "fzfg": false,
      "metar_trigger": false,
      "taf_trigger": false,
      "metar": "METAR EGGP 092250Z 20005KT 9999 BKN027 08/06 Q1014",
      "taf": "TAF EGGP 092258Z 1000/1024 17008KT 9999 SCT015 BKN025"
    },
    {
      "icao": "EGGW",
      "alert": "OK",
      "vis_m": 2500,
      "fzfg": false,
      "metar_trigger": false,
      "taf_trigger": false,
      "metar": "METAR EGGW 092250Z AUTO 19003KT 2500 BR NCD 08/07 Q1016",
      "taf": "TAF EGGW 092259Z 1000/1024 21007KT 9999 FEW008 SCT018"
    },
    {
      "icao": "EGKK",
      "alert": "OK",
      "vis_m": 3000,
      "fzfg": false,
      "metar_trigger": false,
      "taf_trigger": false,
      "metar": "METAR EGKK 092250Z 21003KT 3000 BR BKN003 09/08 Q1017",
      "taf": "TAF EGKK 092259Z 1000/1106 21004KT 6000 FEW003 SCT010"
    },
    {
      "icao": "EGNM",
      "alert": "OK",
      "vis_m": 9999,
      "fzfg": false,
      "metar_trigger": false,
      "taf_trigger": false,
      "metar": "METAR EGNM 092150Z 20004KT 9999 SCT015 BKN020 08/07 Q1014",
      "taf": "TAF EGNM 091701Z 0918/1018 22006KT 9999 SCT012"
    },
    {
      "icao": "EGPD",
      "alert": "OK",
      "vis_m": 9999,
      "fzfg": false,
      "metar_trigger": false,
      "taf_trigger": false,
      "metar": "METAR EGPD 092250Z COR AUTO 18006KT 9999 BKN019 08/05 Q1009 NOSIG",
      "taf": "TAF EGPD 092256Z 1000/1024 18008KT 9999 SCT020"
    },
    {
      "icao": "EGPF",
      "alert": "OK",
      "vis_m": 9999,
      "fzfg": false,
      "metar_trigger": false,
      "taf_trigger": false,
      "metar": "METAR EGPF 092250Z AUTO 22011KT 9999 BKN010 08/07 Q1010",
      "taf": "TAF EGPF 092256Z 1000/1024 21008KT 9999 FEW015 SCT020"
    },
    {
      "icao": "EHBK",
      "alert": "OK",
      "vis_m": 9999,
      "fzfg": false,
      "metar_trigger": false,
      "taf_trigger": false,
      "metar": "METAR EHBK 092255Z AUTO 19005KT 9999 NSC 12/08 Q1018",
      "taf": "TAF EHBK 091716Z 0918/1024 VRB02KT 9999 FEW045"
    },
    {
      "icao": "EHEH",
      "alert": "OK",
      "vis_m": 7000,
      "fzfg": false,
      "metar_trigger": false,
      "taf_trigger": false,
      "metar": "METAR EHEH 092255Z AUTO 21002KT 7000 BR NCD 07/05 Q1017 WHT RMK TREND REMOTE BY EHWX",
      "taf": "TAF EHEH 091730Z 0918/1024 VRB01KT CAVOK"
    },
    {
      "icao": "EKBI",
      "alert": "OK",
      "vis_m": 5000,
      "fzfg": false,
      "metar_trigger": false,
      "taf_trigger": false,
      "metar": "METAR EKBI 092250Z AUTO 10002KT 5000 BR NCD 02/01 Q1016",
      "taf": "TAF EKBI 092027Z 0921/1021 13003KT 9000 NSC"
    },
    {
      "icao": "EKCH",
      "alert": "OK",
      "vis_m": 7000,
      "fzfg": false,
      "metar_trigger": false,
      "taf_trigger": false,
      "metar": "METAR EKCH 092250Z AUTO 13003KT 7000 NCD 03/01 Q1018 NOSIG",
      "taf": "TAF EKCH 092027Z 0921/1021 15006KT 9000 NSC"
    },
    {
      "icao": "ENAL",
      "alert": "OK",
      "vis_m": 9999,
      "fzfg": false,
      "metar_trigger": false,
      "taf_trigger": false,
      "metar": "METAR ENAL 092250Z AUTO 26012KT 9999 -RA FEW005/// BKN038/// BKN045/// 06/05 Q1008",
      "taf": "TAF ENAL 092000Z 0921/1006 22010KT 9999 BKN035"
    },
    {
      "icao": "ENBR",
      "alert": "OK",
      "vis_m": 900,
      "fzfg": false,
      "metar_trigger": false,
      "taf_trigger": false,
      "metar": "METAR ENBR 092250Z 21011KT 0900 R17/P2000D R35/P2000N FG OVC002 03/03 Q1012 RMK WIND 1200FT 20022KT",
      "taf": ""
    },
    {
      "icao": "ENGM",
      "alert": "OK",
      "vis_m": 600,
      "fzfg": true,
      "metar_trigger": false,
      "taf_trigger": false,
      "metar": "METAR ENGM 092250Z 18004KT 150V220 0600 R19R/0700N R01R/0700N R19L/0600N R01L/0750N FZFG VV002 M00/M01 Q1015",
      "taf": "TAF ENGM 091700Z 0918/1018 18005KT 9999 FEW005"
    },
    {
      "icao": "ENHD",
      "alert": "OK",
      "vis_m": 1000,
      "fzfg": false,
      "metar_trigger": false,
      "taf_trigger": false,
      "metar": "METAR ENHD 092250Z AUTO 17013KT 1000 R13/P2000N R31/P2000N BKN001/// OVC002/// 03/03 Q1013",
      "taf": "TAF ENHD 091400Z 0915/0923 17012KT 9999 BKN012"
    },
    {
      "icao": "ENTC",
      "alert": "OK",
      "vis_m": 9999,
      "fzfg": false,
      "metar_trigger": false,
      "taf_trigger": false,
      "metar": "METAR ENTC 092250Z 23013KT 9999 -RA FEW009 SCT020 BKN027 03/M01 Q1000 RMK WIND 2600FT 22022KT",
      "taf": ""
    },
    {
      "icao": "ENTO",
      "alert": "OK",
      "vis_m": 150,
      "fzfg": true,
      "metar_trigger": false,
      "taf_trigger": false,
      "metar": "METAR ENTO 092250Z AUTO 01002KT 0150 R18/0600N R36/0800N FZFG VV001 M01/M02 Q1016",
      "taf": ""
    },
    {
      "icao": "ENVA",
      "alert": "OK",
      "vis_m": 9999,
      "fzfg": false,
      "metar_trigger": false,
      "taf_trigger": false,
      "metar": "METAR ENVA 092250Z 09004KT CAVOK 01/M00 Q1009 RMK WIND 670FT 14005KT",
      "taf": "TAF ENVA 091700Z 0918/1018 VRB05KT 9999 BKN050"
    },
    {
      "icao": "ENZV",
      "alert": "OK",
      "vis_m": 550,
      "fzfg": false,
      "metar_trigger": false,
      "taf_trigger": false,
      "metar": "METAR ENZV 092250Z 19006KT 0550 R18/1600N R36/P2000N R10/P2000N FG VV003 02/01 Q1013",
      "taf": ""
    },
    {
      "icao": "EPGD",
      "alert": "OK",
      "vis_m": 9999,
      "fzfg": false,
      "metar_trigger": false,
      "taf_trigger": false,
      "metar": "METAR EPGD 092300Z 17004KT CAVOK 08/00 Q1021",
      "taf": "TAF EPGD 091730Z 0918/1018 16010KT CAVOK"
    },
    {
      "icao": "EPKK",
      "alert": "OK",
      "vis_m": 9999,
      "fzfg": false,
      "metar_trigger": false,
      "taf_trigger": false,
      "metar": "METAR EPKK 092300Z 04004KT 360V080 CAVOK 02/M02 Q1024",
      "taf": "TAF EPKK 092030Z 0921/1021 VRB02KT CAVOK"
    },
    {
      "icao": "EPKT",
      "alert": "OK",
      "vis_m": 9999,
      "fzfg": false,
      "metar_trigger": false,
      "taf_trigger": false,
      "metar": "METAR EPKT 092300Z VRB02KT CAVOK 02/M03 Q1024",
      "taf": "TAF EPKT 091730Z 0918/1018 18007KT CAVOK"
    },
    {
      "icao": "EPLB",
      "alert": "OK",
      "vis_m": 9999,
      "fzfg": false,
      "metar_trigger": false,
      "taf_trigger": false,
      "metar": "METAR EPLB 092300Z 16003KT CAVOK 05/M00 Q1026",
      "taf": "TAF EPLB 091730Z 0918/1018 16005KT CAVOK"
    },
    {
      "icao": "EPMO",
      "alert": "OK",
      "vis_m": 9999,
      "fzfg": false,
      "metar_trigger": false,
      "taf_trigger": false,
      "metar": "METAR EPMO 092300Z 12004KT CAVOK 05/M00 Q1023",
      "taf": "TAF EPMO 091730Z 0918/1018 14004KT CAVOK"
    },
    {
      "icao": "EPPO",
      "alert": "OK",
      "vis_m": 9999,
      "fzfg": false,
      "metar_trigger": false,
      "taf_trigger": false,
      "metar": "METAR EPPO 092300Z 16007KT CAVOK 07/M01 Q1020",
      "taf": "TAF EPPO 091730Z 0918/1018 15006KT CAVOK"
    },
    {
      "icao": "EPRA",
      "alert": "OK",
      "vis_m": 9999,
      "fzfg": false,
      "metar_trigger": false,
      "taf_trigger": false,
      "metar": "METAR EPRA 092300Z 17007KT CAVOK 05/M02 Q1024",
      "taf": "TAF EPRA 092030Z 0921/1006 17006KT CAVOK"
    },
    {
      "icao": "EPRZ",
      "alert": "OK",
      "vis_m": 9999,
      "fzfg": false,
      "metar_trigger": false,
      "taf_trigger": false,
      "metar": "METAR EPRZ 092300Z 07001KT CAVOK 03/M02 Q1026",
      "taf": ""
    },
    {
      "icao": "EPSC",
      "alert": "OK",
      "vis_m": 9999,
      "fzfg": false,
      "metar_trigger": false,
      "taf_trigger": false,
      "metar": "METAR EPSC 092300Z 13009KT CAVOK 07/M00 Q1018",
      "taf": "TAF EPSC 091730Z 0918/1018 13010KT CAVOK"
    },
    {
      "icao": "EPSY",
      "alert": "OK",
      "vis_m": 9999,
      "fzfg": false,
      "metar_trigger": false,
      "taf_trigger": false,
      "metar": "METAR EPSY 092300Z 04002KT CAVOK M01/M02 Q1023",
      "taf": "TAF EPSY 092030Z 0921/1006 VRB02KT CAVOK"
    },
    {
      "icao": "EPWA",
      "alert": "OK",
      "vis_m": 9999,
      "fzfg": false,
      "metar_trigger": false,
      "taf_trigger": false,
      "metar": "METAR EPWA 092300Z 13005KT CAVOK 06/M00 Q1024 NOSIG",
      "taf": "TAF EPWA 092030Z 0921/1021 14006KT CAVOK"
    },
    {
      "icao": "EPWR",
      "alert": "OK",
      "vis_m": 9999,
      "fzfg": false,
      "metar_trigger": false,
      "taf_trigger": false,
      "metar": "METAR EPWR 092300Z 14007KT CAVOK 06/M01 Q1021",
      "taf": "TAF EPWR 092030Z 0921/1021 14008KT CAVOK"
    },
    {
      "icao": "ESGG",
      "alert": "OK",
      "vis_m": 9999,
      "fzfg": false,
      "metar_trigger": false,
      "taf_trigger": false,
      "metar": "METAR ESGG 092250Z 17008KT CAVOK 04/M00 Q1017",
      "taf": ""
    },
    {
      "icao": "ESKN",
      "alert": "OK",
      "vis_m": 1200,
      "fzfg": false,
      "metar_trigger": false,
      "taf_trigger": false,
      "metar": "METAR ESKN 092250Z 09002KT 1200 R08/P2000N R26/P2000D BR NSC M00/M00 Q1017",
      "taf": ""
    },
    {
      "icao": "ESMS",
      "alert": "OK",
      "vis_m": 9999,
      "fzfg": false,
      "metar_trigger": false,
      "taf_trigger": false,
      "metar": "METAR ESMS 092250Z 13003KT CAVOK 01/M00 Q1018",
      "taf": "TAF ESMS 092027Z 0921/1021 13004KT CAVOK"
    },
    {
      "icao": "ESSA",
      "alert": "OK",
      "vis_m": 9999,
      "fzfg": false,
      "metar_trigger": false,
      "taf_trigger": false,
      "metar": "METAR ESSA 092250Z 23006KT CAVOK 01/M01 Q1017 NOSIG",
      "taf": ""
    },
    {
      "icao": "EYKA",
      "alert": "OK",
      "vis_m": 9999,
      "fzfg": false,
      "metar_trigger": false,
      "taf_trigger": false,
      "metar": "METAR EYKA 092250Z AUTO 17003KT 130V240 9999 NCD M00/M02 Q1024",
      "taf": "TAF EYKA 092300Z 1000/1024 VRB04KT 5000 BR NSC"
    },
    {
      "icao": "EYPA",
      "alert": "OK",
      "vis_m": 9999,
      "fzfg": false,
      "metar_trigger": false,
      "taf_trigger": false,
      "metar": "METAR EYPA 092250Z 20009KT CAVOK 07/00 Q1022",
      "taf": "TAF EYPA 092300Z 1000/1024 VRB05KT 9000 NSC"
    },
    {
      "icao": "EYVI",
      "alert": "OK",
      "vis_m": 9999,
      "fzfg": false,
      "metar_trigger": false,
      "taf_trigger": false,
      "metar": "METAR EYVI 092250Z 18006KT CAVOK 02/M02 Q1025 NOSIG",
      "taf": "TAF EYVI 092300Z 1000/1024 18008KT 9000 NSC"
    },
    {
      "icao": "GCFV",
      "alert": "OK",
      "vis_m": 9999,
      "fzfg": false,
      "metar_trigger": false,
      "taf_trigger": false,
      "metar": "METAR GCFV 092300Z 01019KT 9999 BKN038 16/08 Q1024",
      "taf": "TAF GCFV 092000Z 0921/1021 02018KT 9999 FEW030 BKN040 TX21/1014Z TN15/1006Z"
    },
    {
      "icao": "GCLP",
      "alert": "OK",
      "vis_m": 9999,
      "fzfg": false,
      "metar_trigger": false,
      "taf_trigger": false,
      "metar": "METAR GCLP 092300Z 02023KT 350V050 9999 FEW035 BKN045 16/09 Q1024 NOSIG",
      "taf": "TAF GCLP 092000Z 0921/1021 01024KT 9999 FEW030 BKN045 TX20/1014Z TN15/1006Z"
    },
    {
      "icao": "GCTS",
      "alert": "OK",
      "vis_m": 9999,
      "fzfg": false,
      "metar_trigger": false,
      "taf_trigger": false,
      "metar": "METAR GCTS 092300Z 05013KT 9999 FEW040 16/07 Q1025 NOSIG",
      "taf": "TAF GCTS 092000Z 0921/1021 08025KT 9999 SCT040 TX21/1014Z TN15/1006Z"
    },
    {
      "icao": "GMAD",
      "alert": "OK",
      "vis_m": 9999,
      "fzfg": false,
      "metar_trigger": false,
      "taf_trigger": false,
      "metar": "METAR GMAD 092300Z 00000KT CAVOK 11/09 Q1019 NOSIG",
      "taf": "TAF GMAD 091700Z 0918/1024 22011KT 8000 NSC"
    },
    {
      "icao": "GMMN",
      "alert": "OK",
      "vis_m": 9999,
      "fzfg": false,
      "metar_trigger": false,
      "taf_trigger": false,
      "metar": "METAR GMMN 092300Z VRB02KT 9999 BKN030 10/08 Q1023 NOSIG",
      "taf": "TAF GMMN 091700Z 0918/1024 36012KT 9999 BKN026"
    },
    {
      "icao": "GMMX",
      "alert": "OK",
      "vis_m": 9999,
      "fzfg": false,
      "metar_trigger": false,
      "taf_trigger": false,
      "metar": "METAR GMMX 092300Z 04008KT 010V080 9999 SCT013 SCT020 12/09 Q1022 NOSIG",
      "taf": "TAF GMMX 092300Z 1000/1106 06006KT 9999 SCT013 SCT020"
    },
    {
      "icao": "HEGN",
      "alert": "OK",
      "vis_m": 9999,
      "fzfg": false,
      "metar_trigger": false,
      "taf_trigger": false,
      "metar": "METAR HEGN 092200Z 29011KT CAVOK 16/03 Q1018 NOSIG",
      "taf": "TAF HEGN 092300Z 1000/1106 30015KT CAVOK"
    },
    {
      "icao": "HEMA",
      "alert": "OK",
      "vis_m": 9999,
      "fzfg": false,
      "metar_trigger": false,
      "taf_trigger": false,
      "metar": "METAR HEMA 092200Z 31012KT CAVOK 18/09 Q1016 NOSIG",
      "taf": "TAF HEMA 092300Z 1000/1106 27010KT CAVOK"
    },
    {
      "icao": "HESH",
      "alert": "OK",
      "vis_m": 9999,
      "fzfg": false,
      "metar_trigger": false,
      "taf_trigger": false,
      "metar": "METAR HESH 092200Z 34014KT CAVOK 19/03 Q1016 NOSIG",
      "taf": "TAF HESH 092300Z 1000/1106 32010KT CAVOK"
    },
    {
      "icao": "HESX",
      "alert": "OK",
      "vis_m": 9999,
      "fzfg": false,
      "metar_trigger": false,
      "taf_trigger": false,
      "metar": "METAR HESX 092200Z 03004KT CAVOK 10/06 Q1021 NOSIG",
      "taf": "TAF HESX 092300Z 1000/1106 05009KT CAVOK"
    },
    {
      "icao": "LATI",
      "alert": "OK",
      "vis_m": 9999,
      "fzfg": false,
      "metar_trigger": false,
      "taf_trigger": false,
      "metar": "METAR LATI 092250Z VRB03KT CAVOK 07/03 Q1026 NOSIG",
      "taf": "TAF LATI 092300Z 1000/1024 VRB03KT CAVOK TX19/1012Z TN04/1005Z"
    },
    {
      "icao": "LBPD",
      "alert": "OK",
      "vis_m": 9999,
      "fzfg": false,
      "metar_trigger": false,
      "taf_trigger": false,
      "metar": "METAR LBPD 092300Z AUTO 15006KT 9999 BKN022/// OVC220/// 03/02 Q1033",
      "taf": "TAF LBPD 092300Z 1000/1024 VRB04KT CAVOK"
    },
    {
      "icao": "LBSF",
      "alert": "OK",
      "vis_m": 9999,
      "fzfg": false,
      "metar_trigger": false,
      "taf_trigger": false,
      "metar": "METAR LBSF 092300Z AUTO 10015KT 9999 FEW026/// 03/M00 Q1031 NOSIG",
      "taf": "TAF LBSF 092300Z 1000/1024 13010KT CAVOK"
    },
    {
      "icao": "LBWN",
      "alert": "OK",
      "vis_m": 9999,
      "fzfg": false,
      "metar_trigger": false,
      "taf_trigger": false,
      "metar": "METAR LBWN 092300Z AUTO VRB02KT 9999 FEW014/// BKN017/// 01/01 Q1033 NOSIG",
      "taf": "TAF LBWN 092300Z 1000/1024 VRB03KT 9999 SCT015"
    },
    {
      "icao": "LCLK",
      "alert": "OK",
      "vis_m": 9999,
      "fzfg": false,
      "metar_trigger": false,
      "taf_trigger": false,
      "metar": "METAR LCLK 092300Z 31007KT CAVOK 08/00 Q1022 NOSIG",
      "taf": "TAF LCLK 091730Z 0918/1018 32007KT CAVOK"
    },
    {
      "icao": "LCPH",
      "alert": "OK",
      "vis_m": 9999,
      "fzfg": false,
      "metar_trigger": false,
      "taf_trigger": false,
      "metar": "METAR LCPH 092300Z 03007KT 010V080 CAVOK 09/M03 Q1022 NOSIG",
      "taf": "TAF LCPH 091730Z 0918/1018 04008KT 9999 FEW025"
    },
    {
      "icao": "LEAL",
      "alert": "OK",
      "vis_m": 9999,
      "fzfg": false,
      "metar_trigger": false,
      "taf_trigger": false,
      "metar": "METAR LEAL 092300Z 02004KT 350V060 CAVOK 14/13 Q1018 NOSIG",
      "taf": "TAF LEAL 091700Z 0918/1018 18013KT 9999 SCT025 TX14/1013Z TN10/1006Z"
    },
    {
      "icao": "LEBB",
      "alert": "OK",
      "vis_m": 9999,
      "fzfg": false,
      "metar_trigger": false,
      "taf_trigger": false,
      "metar": "METAR LEBB 092300Z AUTO VRB01KT 9999 SCT023 BKN050 OVC070 10/10 Q1020",
      "taf": "TAF LEBB 091700Z 0918/1018 30009KT 9999 SCT010 BKN030 TX15/1015Z TN09/1006Z"
    },
    {
      "icao": "LEBL",
      "alert": "OK",
      "vis_m": 9999,
      "fzfg": false,
      "metar_trigger": false,
      "taf_trigger": false,
      "metar": "METAR LEBL 092300Z 32005KT 9999 FEW009 10/09 Q1019 NOSIG",
      "taf": "TAF LEBL 091700Z 0918/1018 22006KT 9999 SCT020 TX15/1013Z TN08/1006Z"
    },
    {
      "icao": "LECH",
      "alert": "OK",
      "vis_m": 8000,
      "fzfg": false,
      "metar_trigger": false,
      "taf_trigger": false,
      "metar": "METAR LECH 092300Z AUTO 02003KT 350V050 8000 FEW037 09/08 Q1019",
      "taf": ""
    },
    {
      "icao": "LEMD",
      "alert": "OK",
      "vis_m": 9999,
      "fzfg": false,
      "metar_trigger": false,
      "taf_trigger": false,
      "metar": "METAR LEMD 092300Z 21007KT 9999 -RA SCT010 BKN017 05/05 Q1017 NOSIG",
      "taf": "TAF LEMD 091700Z 0918/1024 VRB03KT 9999 FEW010 SCT030 TX13/1015Z TN04/1006Z"
    },
    {
      "icao": "LEMG",
      "alert": "OK",
      "vis_m": 9999,
      "fzfg": false,
      "metar_trigger": false,
      "taf_trigger": false,
      "metar": "METAR LEMG 092300Z 30011KT 260V330 9999 FEW025 BKN040 12/07 Q1019 NOSIG",
      "taf": ""
    },
    {
      "icao": "LEVC",
      "alert": "OK",
      "vis_m": 9999,
      "fzfg": false,
      "metar_trigger": false,
      "taf_trigger": false,
      "metar": "METAR LEVC 092300Z 34004KT 300V020 9999 FEW014 12/09 Q1018 NOSIG",
      "taf": "TAF LEVC 091700Z 0918/1018 VRB05KT 9999 SCT025 TX15/1013Z TN09/1006Z"
    },
    {
      "icao": "LEXJ",
      "alert": "OK",
      "vis_m": 9999,
      "fzfg": false,
      "metar_trigger": false,
      "taf_trigger": false,
      "metar": "METAR LEXJ 092300Z AUTO 22006KT 9999 SCT025 OVC031 09/06 Q1020",
      "taf": "TAF LEXJ 092000Z 0921/1021 22009KT 9999 FEW005 BKN016 TX15/1014Z TN09/1004Z"
    },
    {
      "icao": "LEZG",
      "alert": "OK",
      "vis_m": 9999,
      "fzfg": false,
      "metar_trigger": false,
      "taf_trigger": false,
      "metar": "METAR LEZG 092300Z 07005KT 050V110 9999 BKN065 11/09 Q1018 NOSIG",
      "taf": "TAF LEZG 091700Z 0918/1018 VRB04KT 9999 FEW025 SCT040 TX15/1014Z TN07/1006Z"
    },
    {
      "icao": "LEZL",
      "alert": "OK",
      "vis_m": 9999,
      "fzfg": false,
      "metar_trigger": false,
      "taf_trigger": false,
      "metar": "METAR LEZL 092300Z 33003KT CAVOK 11/07 Q1020 NOSIG",
      "taf": "TAF LEZL 092000Z 0921/1021 27010KT CAVOK TX16/1015Z TN08/1007Z"
    },
    {
      "icao": "LFBD",
      "alert": "OK",
      "vis_m": 9999,
      "fzfg": false,
      "metar_trigger": false,
      "taf_trigger": false,
      "metar": "METAR LFBD 092300Z AUTO 03004KT CAVOK 11/08 Q1018 TEMPO 3000 BR",
      "taf": "TAF LFBD 091700Z 0918/1024 32005KT 9999 SCT030 TX17/1014Z TN05/1006Z"
    },
    {
      "icao": "LFLL",
      "alert": "OK",
      "vis_m": 9999,
      "fzfg": false,
      "metar_trigger": false,
      "taf_trigger": false,
      "metar": "METAR LFLL 092300Z 15004KT 9999 -RA NSC 12/08 Q1020 NOSIG",
      "taf": "TAF LFLL 091700Z 0918/1024 22013KT CAVOK"
    },
    {
      "icao": "LFLS",
      "alert": "OK",
      "vis_m": 9999,
      "fzfg": false,
      "metar_trigger": false,
      "taf_trigger": false,
      "metar": "METAR LFLS 092300Z AUTO 11003KT 9999 SCT029/// BKN090/// OVC110/// ///TCU 09/07 Q1021",
      "taf": "TAF LFLS 091400Z 0915/1015 09005KT CAVOK"
    },
    {
      "icao": "LFMN",
      "alert": "OK",
      "vis_m": 9999,
      "fzfg": false,
      "metar_trigger": false,
      "taf_trigger": false,
      "metar": "METAR LFMN 092300Z 09014KT 9999 -RA SCT016 BKN060 15/12 Q1022 NOSIG",
      "taf": "TAF LFMN 092000Z 0921/1103 09010KT 9999 -RA BKN060"
    },
    {
      "icao": "LFOB",
      "alert": "OK",
      "vis_m": 9999,
      "fzfg": false,
      "metar_trigger": false,
      "taf_trigger": false,
      "metar": "METAR LFOB 092300Z AUTO 25004KT 230V290 CAVOK 12/09 Q1018 TEMPO 4000 BR",
      "taf": "TAF LFOB 091700Z 0918/1018 VRB03KT 9999 FEW045"
    },
    {
      "icao": "LFPO",
      "alert": "OK",
      "vis_m": 9999,
      "fzfg": false,
      "metar_trigger": false,
      "taf_trigger": false,
      "metar": "METAR LFPO 092300Z 28005KT 9999 FEW053TCU SCT066 BKN076 13/08 Q1018 TEMPO 4000 -SHRA BKN020CB",
      "taf": "TAF LFPO 091700Z 0918/1024 18003KT CAVOK"
    },
    {
      "icao": "LFSB",
      "alert": "OK",
      "vis_m": 9999,
      "fzfg": false,
      "metar_trigger": false,
      "taf_trigger": false,
      "metar": "METAR LFSB 092300Z AUTO 00000KT CAVOK 06/05 Q1020 NOSIG",
      "taf": "TAF LFSB 091700Z 0918/1018 VRB03KT CAVOK"
    },
    {
      "icao": "LGAV",
      "alert": "OK",
      "vis_m": 9999,
      "fzfg": false,
      "metar_trigger": false,
      "taf_trigger": false,
      "metar": "METAR LGAV 092250Z 36010KT 9999 FEW025 10/03 Q1027 NOSIG",
      "taf": "TAF LGAV 092300Z 1000/1024 01014KT 9999 FEW025"
    },
    {
      "icao": "LGTS",
      "alert": "OK",
      "vis_m": 9999,
      "fzfg": false,
      "metar_trigger": false,
      "taf_trigger": false,
      "metar": "METAR LGTS 092250Z 11006KT 9999 FEW025 04/02 Q1030 NOSIG",
      "taf": "TAF LGTS 092300Z 1000/1024 VRB03KT 9999 FEW030"
    },
    {
      "icao": "LHBP",
      "alert": "OK",
      "vis_m": 9999,
      "fzfg": false,
      "metar_trigger": false,
      "taf_trigger": false,
      "metar": "METAR LHBP 092300Z 12005KT CAVOK 04/M00 Q1027 NOSIG",
      "taf": "TAF LHBP 091715Z 0918/1018 11007KT CAVOK"
    },
    {
      "icao": "LHDC",
      "alert": "OK",
      "vis_m": 7000,
      "fzfg": false,
      "metar_trigger": false,
      "taf_trigger": false,
      "metar": "METAR LHDC 092245Z AUTO 09002KT 7000 NCD 01/M02 Q1028",
      "taf": "TAF LHDC 091415Z 0915/0924 VRB03KT CAVOK"
    },
    {
      "icao": "LIBD",
      "alert": "OK",
      "vis_m": 9999,
      "fzfg": false,
      "metar_trigger": false,
      "taf_trigger": false,
      "metar": "METAR LIBD 092250Z 21005KT CAVOK 07/07 Q1024",
      "taf": "TAF LIBD 091700Z 0918/1018 VRB05KT CAVOK"
    },
    {
      "icao": "LIBG",
      "alert": "OK",
      "vis_m": null,
      "fzfg": false,
      "metar_trigger": false,
      "taf_trigger": false,
      "metar": "",
      "taf": "TAF LIBG 091700Z 0918/1003 VRB05KT 9000 SCT003"
    },
    {
      "icao": "LIBP",
      "alert": "OK",
      "vis_m": 5000,
      "fzfg": false,
      "metar_trigger": false,
      "taf_trigger": false,
      "metar": "METAR LIBP 092250Z AUTO 21004KT 5000 BR BKN110/// 10/10 Q1024",
      "taf": "TAF LIBP 091700Z 0918/1018 VRB05KT CAVOK"
    },
    {
      "icao": "LIBR",
      "alert": "OK",
      "vis_m": 9999,
      "fzfg": false,
      "metar_trigger": false,
      "taf_trigger": false,
      "metar": "METAR LIBR 092250Z 26003KT 230V310 CAVOK 12/10 Q1025",
      "taf": "TAF LIBR 091700Z 0918/1018 VRB05KT CAVOK"
    },
    {
      "icao": "LICA",
      "alert": "OK",
      "vis_m": 9999,
      "fzfg": false,
      "metar_trigger": false,
      "taf_trigger": false,
      "metar": "METAR LICA 092250Z AUTO 05010KT 9999 NCD 12/09 Q1024",
      "taf": "TAF LICA 091700Z 0918/1018 08008KT 9999 FEW030"
    },
    {
      "icao": "LICC",
      "alert": "OK",
      "vis_m": 9999,
      "fzfg": false,
      "metar_trigger": false,
      "taf_trigger": false,
      "metar": "METAR LICC 092250Z VRB01KT CAVOK 11/09 Q1024",
      "taf": "TAF LICC 091700Z 0918/1018 07010KT 9999 SCT020"
    },
    {
      "icao": "LICJ",
      "alert": "OK",
      "vis_m": 9999,
      "fzfg": false,
      "metar_trigger": false,
      "taf_trigger": false,
      "metar": "METAR LICJ 092250Z VRB01KT CAVOK 12/10 Q1023",
      "taf": "TAF LICJ 091700Z 0918/1018 VRB05KT 9999 FEW020"
    },
    {
      "icao": "LIMC",
      "alert": "OK",
      "vis_m": 9999,
      "fzfg": false,
      "metar_trigger": false,
      "taf_trigger": false,
      "metar": "METAR LIMC 092250Z 02004KT 9999 BKN100 10/07 Q1024 NOSIG",
      "taf": "TAF LIMC 091700Z 0918/1024 VRB05KT 9999 SCT060"
    },
    {
      "icao": "LIME",
      "alert": "OK",
      "vis_m": 9999,
      "fzfg": false,
      "metar_trigger": false,
      "taf_trigger": false,
      "metar": "METAR LIME 092250Z 02004KT 9999 BKN090 11/05 Q1023 NOSIG",
      "taf": "TAF LIME 091700Z 0918/1018 VRB05KT 9999 SCT050"
    },
    {
      "icao": "LIMF",
      "alert": "OK",
      "vis_m": 9999,
      "fzfg": false,
      "metar_trigger": false,
      "taf_trigger": false,
      "metar": "METAR LIMF 092250Z VRB01KT 9999 SCT070 11/04 Q1024",
      "taf": "TAF LIMF 091700Z 0918/1018 VRB04KT 7000 SCT050"
    },
    {
      "icao": "LIMJ",
      "alert": "OK",
      "vis_m": 9999,
      "fzfg": false,
      "metar_trigger": false,
      "taf_trigger": false,
      "metar": "METAR LIMJ 092250Z AUTO 04006KT 9999 OVC130/// 13/08 Q1023",
      "taf": "TAF LIMJ 091700Z 0918/1018 VRB06KT 9999 SCT030"
    },
    {
      "icao": "LIPE",
      "alert": "OK",
      "vis_m": 9999,
      "fzfg": false,
      "metar_trigger": false,
      "taf_trigger": false,
      "metar": "METAR LIPE 092250Z 20007KT CAVOK 09/05 Q1023",
      "taf": "TAF LIPE 091700Z 0918/1018 VRB05KT 8000 NSC"
    },
    {
      "icao": "LIPH",
      "alert": "OK",
      "vis_m": 900,
      "fzfg": false,
      "metar_trigger": false,
      "taf_trigger": false,
      "metar": "METAR LIPH 092250Z AUTO 04004KT 0900 0800E R07/1700D FG OVC002/// 10/10 Q1025",
      "taf": "TAF LIPH 091700Z 0918/1018 VRB04KT 8000 NSC"
    },
    {
      "icao": "LIPQ",
      "alert": "OK",
      "vis_m": 2100,
      "fzfg": false,
      "metar_trigger": false,
      "taf_trigger": false,
      "metar": "METAR LIPQ 092250Z AUTO 08003KT 2100 BR FEW007/// 08/08 Q1025",
      "taf": ""
    },
    {
      "icao": "LIPR",
      "alert": "OK",
      "vis_m": 7000,
      "fzfg": false,
      "metar_trigger": false,
      "taf_trigger": false,
      "metar": "METAR LIPR 092250Z AUTO VRB02KT 7000 FEW078/// 06/05 Q1024",
      "taf": "TAF LIPR 091700Z 0918/1018 VRB05KT 6000 NSC"
    },
    {
      "icao": "LIPX",
      "alert": "OK",
      "vis_m": 9999,
      "fzfg": false,
      "metar_trigger": false,
      "taf_trigger": false,
      "metar": "METAR LIPX 092250Z 08004KT 9999 BKN090 11/06 Q1024",
      "taf": "TAF LIPX 091700Z 0918/1018 VRB05KT 9999 SCT050"
    },
    {
      "icao": "LIPY",
      "alert": "OK",
      "vis_m": 5000,
      "fzfg": false,
      "metar_trigger": false,
      "taf_trigger": false,
      "metar": "METAR LIPY 092250Z AUTO VRB01KT 5000 BR NCD 09/09 Q1024",
      "taf": "TAF LIPY 091700Z 0918/1018 VRB05KT CAVOK"
    },
    {
      "icao": "LIPZ",
      "alert": "OK",
      "vis_m": 1500,
      "fzfg": false,
      "metar_trigger": false,
      "taf_trigger": false,
      "metar": "METAR LIPZ 092250Z VRB02KT 1500 BR OVC004 10/10 Q1025 NOSIG",
      "taf": ""
    },
    {
      "icao": "LIRF",
      "alert": "OK",
      "vis_m": 8000,
      "fzfg": false,
      "metar_trigger": false,
      "taf_trigger": false,
      "metar": "METAR LIRF 092250Z 07004KT 8000 BCFG NSC 09/09 Q1024 BECMG 4000 BCFG",
      "taf": "TAF LIRF 091700Z 0918/1024 VRB05KT 9999 FEW030"
    },
    {
      "icao": "LIRN",
      "alert": "OK",
      "vis_m": 9999,
      "fzfg": false,
      "metar_trigger": false,
      "taf_trigger": false,
      "metar": "METAR LIRN 092250Z VRB02KT CAVOK 11/09 Q1024 NOSIG",
      "taf": "TAF LIRN 091700Z 0918/1018 VRB05KT 9999 FEW040"
    },
    {
      "icao": "LIRP",
      "alert": "OK",
      "vis_m": 5000,
      "fzfg": false,
      "metar_trigger": false,
      "taf_trigger": false,
      "metar": "METAR LIRP 092245Z 09003KT 5000 MIFG FEW005 10/09 Q1023 TEMPO 3000 BR",
      "taf": "TAF LIRP 091700Z 0918/1018 VRB05KT CAVOK"
    },
    {
      "icao": "LIRZ",
      "alert": "OK",
      "vis_m": 9999,
      "fzfg": false,
      "metar_trigger": false,
      "taf_trigger": false,
      "metar": "METAR LIRZ 092250Z AUTO 01003KT 9999 BKN110/// 08/07 Q1024",
      "taf": "TAF LIRZ 091700Z 0918/1018 VRB05KT 9999 FEW050"
    },
    {
      "icao": "LJLJ",
      "alert": "OK",
      "vis_m": 9999,
      "fzfg": false,
      "metar_trigger": false,
      "taf_trigger": false,
      "metar": "METAR LJLJ 092230Z 32002KT 9999 FEW060 04/02 Q1024 NOSIG",
      "taf": "TAF LJLJ 092300Z 1000/1100 12004KT 9999 FEW055"
    },
    {
      "icao": "LKMT",
      "alert": "OK",
      "vis_m": 9999,
      "fzfg": false,
      "metar_trigger": false,
      "taf_trigger": false,
      "metar": "METAR LKMT 092300Z 24004KT 210V270 CAVOK 05/M01 Q1024 NOSIG",
      "taf": "TAF LKMT 091700Z 0918/1018 22006KT CAVOK"
    },
    {
      "icao": "LKPR",
      "alert": "OK",
      "vis_m": 9999,
      "fzfg": false,
      "metar_trigger": false,
      "taf_trigger": false,
      "metar": "METAR LKPR 092300Z 14007KT CAVOK 08/01 Q1019 NOSIG",
      "taf": "TAF LKPR 092000Z 0921/1103 17006KT CAVOK"
    },
    {
      "icao": "LLBG",
      "alert": "OK",
      "vis_m": 9999,
      "fzfg": false,
      "metar_trigger": false,
      "taf_trigger": false,
      "metar": "METAR LLBG 092250Z VRB03KT 9999 FEW040 09/04 Q1021 NOSIG",
      "taf": "TAF LLBG 091702Z 0918/1018 VRB04KT CAVOK TX24/1012Z TN07/1004Z"
    },
    {
      "icao": "LMML",
      "alert": "OK",
      "vis_m": 9999,
      "fzfg": false,
      "metar_trigger": false,
      "taf_trigger": false,
      "metar": "METAR LMML 092245Z 07012KT 9999 FEW012 14/13 Q1022 NOSIG",
      "taf": "TAF LMML 092300Z 1000/1024 09017KT 9999 SCT015"
    },
    {
      "icao": "LOWW",
      "alert": "OK",
      "vis_m": 9999,
      "fzfg": false,
      "metar_trigger": false,
      "taf_trigger": false,
      "metar": "METAR LOWW 092250Z 16011KT CAVOK 08/M00 Q1023 NOSIG",
      "taf": "TAF LOWW 092015Z 0921/1103 15010KT CAVOK TX16/1015Z TN04/1103Z"
    },
    {
      "icao": "LPFR",
      "alert": "OK",
      "vis_m": 9999,
      "fzfg": false,
      "metar_trigger": false,
      "taf_trigger": false,
      "metar": "METAR LPFR 092300Z 28005KT 9999 FEW030 10/05 Q1022",
      "taf": "TAF LPFR 091700Z 0918/1018 31015KT 9999 SCT030"
    },
    {
      "icao": "LPMA",
      "alert": "OK",
      "vis_m": 9999,
      "fzfg": false,
      "metar_trigger": false,
      "taf_trigger": false,
      "metar": "METAR LPMA 092300Z 02014KT 9999 BKN015 SCT030 14/07 Q1029",
      "taf": "TAF LPMA 091700Z 0918/1018 01012KT 9999 SCT015"
    },
    {
      "icao": "LPPR",
      "alert": "OK",
      "vis_m": 9999,
      "fzfg": false,
      "metar_trigger": false,
      "taf_trigger": false,
      "metar": "METAR LPPR 092300Z 36003KT 9999 FEW018 07/05 Q1021",
      "taf": "TAF LPPR 091700Z 0918/1018 VRB02KT 9999 SCT025"
    },
    {
      "icao": "LPPS",
      "alert": "OK",
      "vis_m": 9999,
      "fzfg": false,
      "metar_trigger": false,
      "taf_trigger": false,
      "metar": "METAR LPPS 092300Z 02016KT 9999 SCT014 14/07 Q1029",
      "taf": "TAF LPPS 091700Z 0918/1024 03015KT 9999 SCT015 BKN030"
    },
    {
      "icao": "LPPT",
      "alert": "OK",
      "vis_m": 9999,
      "fzfg": false,
      "metar_trigger": false,
      "taf_trigger": false,
      "metar": "METAR LPPT 092300Z 32006KT 290V350 9999 -SHRA FEW016 FEW020TCU SCT024 BKN032 09/07 Q1022",
      "taf": "TAF LPPT 091700Z 0918/1024 32012KT 9999 SCT025"
    },
    {
      "icao": "LQBK",
      "alert": "OK",
      "vis_m": 9999,
      "fzfg": false,
      "metar_trigger": false,
      "taf_trigger": false,
      "metar": "METAR LQBK 092300Z 15004KT CAVOK 04/01 Q1024 NOSIG",
      "taf": "TAF LQBK 092300Z 1000/1024 14005KT CAVOK TX18/1014Z TN01/1005Z"
    },
    {
      "icao": "LQSA",
      "alert": "OK",
      "vis_m": 9999,
      "fzfg": false,
      "metar_trigger": false,
      "taf_trigger": false,
      "metar": "METAR LQSA 092300Z VRB01KT CAVOK 05/02 Q1025",
      "taf": "TAF LQSA 092300Z 1000/1024 VRB02KT 9999 SCT055 TX16/1014Z TN01/1005Z"
    },
    {
      "icao": "LQTZ",
      "alert": "OK",
      "vis_m": 9999,
      "fzfg": false,
      "metar_trigger": false,
      "taf_trigger": false,
      "metar": "METAR LQTZ 092300Z VRB02KT CAVOK 04/01 Q1025",
      "taf": "TAF LQTZ 092300Z 1000/1024 VRB02KT CAVOK TX18/1014Z TN00/1005Z"
    },
    {
      "icao": "LRBC",
      "alert": "OK",
      "vis_m": 9999,
      "fzfg": false,
      "metar_trigger": false,
      "taf_trigger": false,
      "metar": "METAR LRBC 092300Z 17007KT CAVOK 03/00 Q1031",
      "taf": "TAF LRBC 092000Z 0921/1006 17010KT CAVOK"
    },
    {
      "icao": "LRBS",
      "alert": "OK",
      "vis_m": 9999,
      "fzfg": false,
      "metar_trigger": false,
      "taf_trigger": false,
      "metar": "METAR LRBS 092300Z 04004KT CAVOK 01/M00 Q1033 NOSIG",
      "taf": "TAF LRBS 091700Z 0918/1018 06007KT CAVOK"
    },
    {
      "icao": "LRBV",
      "alert": "OK",
      "vis_m": 9999,
      "fzfg": false,
      "metar_trigger": false,
      "taf_trigger": false,
      "metar": "METAR LRBV 092300Z AUTO VRB03KT 9999 NCD M00/M05 Q1031",
      "taf": "TAF LRBV 092000Z 0921/1006 VRB04KT CAVOK"
    },
    {
      "icao": "LRCL",
      "alert": "OK",
      "vis_m": 9999,
      "fzfg": false,
      "metar_trigger": false,
      "taf_trigger": false,
      "metar": "METAR LRCL 092300Z 08004KT CAVOK 04/M03 Q1028",
      "taf": "TAF LRCL 092000Z 0921/1006 VRB04KT CAVOK"
    },
    {
      "icao": "LRCV",
      "alert": "OK",
      "vis_m": 9999,
      "fzfg": false,
      "metar_trigger": false,
      "taf_trigger": false,
      "metar": "METAR LRCV 092300Z 05013KT CAVOK 04/02 Q1031",
      "taf": "TAF LRCV 092000Z 0921/1006 07012KT CAVOK"
    },
    {
      "icao": "LRIA",
      "alert": "OK",
      "vis_m": 9999,
      "fzfg": false,
      "metar_trigger": false,
      "taf_trigger": false,
      "metar": "METAR LRIA 092300Z 12005KT 090V150 CAVOK 05/M01 Q1031",
      "taf": "TAF LRIA 092000Z 0921/1006 18006KT CAVOK"
    },
    {
      "icao": "LROP",
      "alert": "OK",
      "vis_m": 9999,
      "fzfg": false,
      "metar_trigger": false,
      "taf_trigger": false,
      "metar": "METAR LROP 092300Z 06003KT CAVOK 02/M00 Q1033 NOSIG",
      "taf": "TAF LROP 091700Z 0918/1018 10007KT CAVOK"
    },
    {
      "icao": "LRSB",
      "alert": "OK",
      "vis_m": 9999,
      "fzfg": false,
      "metar_trigger": false,
      "taf_trigger": false,
      "metar": "METAR LRSB 092300Z 27003KT CAVOK 08/M07 Q1029",
      "taf": "TAF LRSB 091700Z 0918/1018 15010KT CAVOK"
    },
    {
      "icao": "LRSM",
      "alert": "OK",
      "vis_m": 9999,
      "fzfg": false,
      "metar_trigger": false,
      "taf_trigger": false,
      "metar": "METAR LRSM 092300Z AUTO 11004KT 9999 NCD 03/M02 Q1028",
      "taf": "TAF LRSM 091400Z 0915/0924 14006KT CAVOK"
    },
    {
      "icao": "LRSV",
      "alert": "OK",
      "vis_m": 9999,
      "fzfg": false,
      "metar_trigger": false,
      "taf_trigger": false,
      "metar": "METAR LRSV 092300Z 20012KT CAVOK 02/M01 Q1029",
      "taf": "TAF LRSV 092000Z 0921/1006 18010KT CAVOK"
    },
    {
      "icao": "LRTM",
      "alert": "OK",
      "vis_m": 9999,
      "fzfg": false,
      "metar_trigger": false,
      "taf_trigger": false,
      "metar": "METAR LRTM 092300Z AUTO 07003KT 9999 NCD 01/M04 Q1030",
      "taf": "TAF LRTM 091400Z 0915/0924 VRB04KT CAVOK"
    },
    {
      "icao": "LRTR",
      "alert": "OK",
      "vis_m": 9999,
      "fzfg": false,
      "metar_trigger": false,
      "taf_trigger": false,
      "metar": "METAR LRTR 092300Z 10007KT CAVOK 04/01 Q1027",
      "taf": "TAF LRTR 091700Z 0918/1018 VRB05KT CAVOK"
    },
    {
      "icao": "LTAC",
      "alert": "OK",
      "vis_m": 9999,
      "fzfg": false,
      "metar_trigger": false,
      "taf_trigger": false,
      "metar": "METAR LTAC 092250Z 04011KT CAVOK 01/M07 Q1030 NOSIG RMK RWY21C 01010KT RWY03L 03012KT RWY21R 01010KT RWY03R 01010KT 340V040 RWY21L 01009KT",
      "taf": "TAF LTAC 092240Z 1000/1024 05010KT CAVOK"
    },
    {
      "icao": "LTFM",
      "alert": "OK",
      "vis_m": 9999,
      "fzfg": false,
      "metar_trigger": false,
      "taf_trigger": false,
      "metar": "METAR LTFM 092250Z 03009KT 340V050 9999 FEW023 06/04 Q1031 NOSIG RMK RWY17L 05010KT RWY34L 04010KT RWY16R 04008KT RWY36 06015KT RWY18 06012KT",
      "taf": "TAF LTFM 092240Z 1000/1106 06012KT 9999 FEW025"
    },
    {
      "icao": "LUKK",
      "alert": "OK",
      "vis_m": 9999,
      "fzfg": false,
      "metar_trigger": false,
      "taf_trigger": false,
      "metar": "METAR LUKK 092300Z 21003KT CAVOK 03/M02 Q1033 NOSIG",
      "taf": "TAF LUKK 091716Z 0918/1018 VRB05KT CAVOK"
    },
    {
      "icao": "LWOH",
      "alert": "OK",
      "vis_m": null,
      "fzfg": false,
      "metar_trigger": false,
      "taf_trigger": false,
      "metar": "",
      "taf": "TAF LWOH 092020Z 0921/1021 06006KT CAVOK"
    },
    {
      "icao": "LWSK",
      "alert": "OK",
      "vis_m": 9999,
      "fzfg": false,
      "metar_trigger": false,
      "taf_trigger": false,
      "metar": "METAR LWSK 092220Z VRB02KT CAVOK 07/01 Q1029 NOSIG",
      "taf": "TAF LWSK 092020Z 0921/1021 VRB02KT CAVOK"
    },
    {
      "icao": "LYBE",
      "alert": "OK",
      "vis_m": 9999,
      "fzfg": false,
      "metar_trigger": false,
      "taf_trigger": false,
      "metar": "METAR LYBE 092300Z 13016KT CAVOK 09/00 Q1026 NOSIG",
      "taf": "TAF LYBE 091700Z 0918/1018 12015KT CAVOK TX17/1013Z TN06/1005Z"
    },
    {
      "icao": "LYNI",
      "alert": "OK",
      "vis_m": 9999,
      "fzfg": false,
      "metar_trigger": false,
      "taf_trigger": false,
      "metar": "METAR LYNI 092300Z 10017KT CAVOK 09/M00 Q1028 NOSIG",
      "taf": "TAF LYNI 091700Z 0918/1018 11010KT CAVOK TX17/1012Z TN05/1005Z"
    },
    {
      "icao": "LYPG",
      "alert": "OK",
      "vis_m": 9999,
      "fzfg": false,
      "metar_trigger": false,
      "taf_trigger": false,
      "metar": "METAR LYPG 092300Z 00000KT CAVOK 10/07 Q1026 NOSIG",
      "taf": "TAF LYPG 091700Z 0918/1018 35005KT 9999 FEW040 SCT090 TX19/1013Z TN06/1005Z"
    },
    {
      "icao": "LZIB",
      "alert": "OK",
      "vis_m": 9999,
      "fzfg": false,
      "metar_trigger": false,
      "taf_trigger": false,
      "metar": "METAR LZIB 092300Z 03005KT CAVOK 06/00 Q1024 NOSIG",
      "taf": "TAF LZIB 092315Z 1000/1100 07005KT CAVOK"
    },
    {
      "icao": "LZKZ",
      "alert": "OK",
      "vis_m": 9999,
      "fzfg": false,
      "metar_trigger": false,
      "taf_trigger": false,
      "metar": "METAR LZKZ 092300Z 33002KT CAVOK 03/M01 Q1027 NOSIG",
      "taf": "TAF LZKZ 092315Z 1000/1100 VRB02KT CAVOK"
    },
    {
      "icao": "LZTT",
      "alert": "OK",
      "vis_m": 9999,
      "fzfg": false,
      "metar_trigger": false,
      "taf_trigger": false,
      "metar": "METAR LZTT 092300Z 25005KT 9999 FEW044 00/M03 Q1026",
      "taf": "TAF LZTT 092315Z 1000/1100 26006KT CAVOK"
    },
    {
      "icao": "OEJN",
      "alert": "OK",
      "vis_m": 9999,
      "fzfg": false,
      "metar_trigger": false,
      "taf_trigger": false,
      "metar": "METAR OEJN 092300Z 33004KT CAVOK 20/10 Q1012 NOSIG",
      "taf": "TAF OEJN 091700Z 0918/1024 02006KT 7000 FEW040"
    },
    {
      "icao": "OEMA",
      "alert": "OK",
      "vis_m": 9999,
      "fzfg": false,
      "metar_trigger": false,
      "taf_trigger": false,
      "metar": "METAR OEMA 092300Z 10004KT CAVOK 19/M05 Q1016 NOSIG",
      "taf": "TAF OEMA 091700Z 0918/1024 VRB03KT CAVOK"
    },
    {
      "icao": "OJAI",
      "alert": "OK",
      "vis_m": 5000,
      "fzfg": false,
      "metar_trigger": false,
      "taf_trigger": false,
      "metar": "METAR OJAI 092300Z 33003KT 5000 HZ NSC 04/M01 Q1021 NOSIG",
      "taf": "TAF OJAI 092249Z 1000/1106 11005KT 5000 HZ NSC"
    },
    {
      "icao": "OMAA",
      "alert": "OK",
      "vis_m": null,
      "fzfg": false,
      "metar_trigger": false,
      "taf_trigger": false,
      "metar": "",
      "taf": ""
    },
    {
      "icao": "OMDB",
      "alert": "OK",
      "vis_m": null,
      "fzfg": false,
      "metar_trigger": false,
      "taf_trigger": false,
      "metar": "",
      "taf": ""
    },
    {
      "icao": "UAAA",
      "alert": "OK",
      "vis_m": 9999,
      "fzfg": false,
      "metar_trigger": false,
      "taf_trigger": false,
      "metar": "METAR UAAA 092300Z 10002MPS 030V140 9999 BKN050CB OVC100 08/06 Q1012 NOSIG",
      "taf": "TAF UAAA 091707Z 0918/1018 19003G08MPS 6000 BKN020CB OVC100 TX05/1002Z TN02/1008Z"
    },
    {
      "icao": "UBBB",
      "alert": "OK",
      "vis_m": 9999,
      "fzfg": false,
      "metar_trigger": false,
      "taf_trigger": false,
      "metar": "METAR UBBB 092300Z 35006KT 9999 OVC023 04/01 Q1035 NOSIG",
      "taf": "TAF UBBB 092303Z 1000/1024 33010KT 9999 BKN020 TX06/1010Z TN02/1001Z"
    },
    {
      "icao": "UDSG",
      "alert": "OK",
      "vis_m": 9999,
      "fzfg": false,
      "metar_trigger": false,
      "taf_trigger": false,
      "metar": "METAR UDSG 092300Z 18001KT 9999 NSC M12/M16 Q1030 NOSIG",
      "taf": "TAF UDSG 091700Z 0918/1018 VRB06KT 9999 FEW050"
    },
    {
      "icao": "UDYZ",
      "alert": "OK",
      "vis_m": 9999,
      "fzfg": false,
      "metar_trigger": false,
      "taf_trigger": false,
      "metar": "METAR UDYZ 092300Z 07003KT 030V130 9999 NSC M02/M07 Q1030 NOSIG",
      "taf": ""
    },
    {
      "icao": "UGKO",
      "alert": "OK",
      "vis_m": 9999,
      "fzfg": false,
      "metar_trigger": false,
      "taf_trigger": false,
      "metar": "METAR UGKO 092300Z 10004KT 9999 BKN074 03/02 Q1035 NOSIG",
      "taf": "TAF UGKO 092300Z 1000/1024 08007KT 9999 SCT060 TX14/1012Z TN02/1004Z"
    }
  ]
}