{
  "ts_utc": "2026-06-04T09:04:57Z",
  "threshold_m": 150,
  "source": "stations_override.txt (ICAO list) + aviationweather.gov (METAR/TAF raw)",
  "station_count": 159,
  "stations": [
    {
      "icao": "BIKF",
      "alert": "OK",
      "vis_m": 9999,
      "fzfg": false,
      "metar_trigger": false,
      "taf_trigger": false,
      "metar": "METAR BIKF 040900Z 36005KT 9999 FEW010 SCT035 BKN050 10/09 Q0990",
      "taf": "TAF BIKF 040746Z 0409/0509 36005KT 9999 SCT015 BKN025 TX13/0414Z TN09/0502Z"
    },
    {
      "icao": "BKPR",
      "alert": "OK",
      "vis_m": 9999,
      "fzfg": false,
      "metar_trigger": false,
      "taf_trigger": false,
      "metar": "METAR BKPR 040900Z 35004KT 280V040 9999 SCT020 BKN080 17/13 Q1012 NOSIG",
      "taf": "TAF BKPR 040530Z 0406/0506 VRB05KT 9999 BKN040"
    },
    {
      "icao": "EBCI",
      "alert": "OK",
      "vis_m": 9999,
      "fzfg": false,
      "metar_trigger": false,
      "taf_trigger": false,
      "metar": "METAR EBCI 040850Z 20016KT 9999 FEW012 BKN016 16/12 Q1002 TEMPO 21015G25KT 3000 SHRA",
      "taf": "TAF EBCI 040502Z 0406/0512 23012KT 9999 SCT020"
    },
    {
      "icao": "EDDB",
      "alert": "OK",
      "vis_m": 9999,
      "fzfg": false,
      "metar_trigger": false,
      "taf_trigger": false,
      "metar": "METAR EDDB 040850Z AUTO 21011KT 180V240 CAVOK 21/13 Q1005 NOSIG",
      "taf": "TAF EDDB 040500Z 0406/0506 20010KT CAVOK"
    },
    {
      "icao": "EDDH",
      "alert": "OK",
      "vis_m": 9999,
      "fzfg": false,
      "metar_trigger": false,
      "taf_trigger": false,
      "metar": "METAR EDDH 040850Z AUTO 21015KT 180V240 9999 BKN025 17/12 Q1001 NOSIG",
      "taf": "TAF EDDH 040500Z 0406/0512 19011KT 9999 BKN030"
    },
    {
      "icao": "EDDK",
      "alert": "OK",
      "vis_m": 9999,
      "fzfg": false,
      "metar_trigger": false,
      "taf_trigger": false,
      "metar": "METAR EDDK 040850Z AUTO 16005KT 130V190 9999 SCT033 BKN047 17/14 Q1003 TEMPO SHRA BKN025CB",
      "taf": "TAF EDDK 040500Z 0406/0512 13005KT 9999 BKN030"
    },
    {
      "icao": "EDDN",
      "alert": "OK",
      "vis_m": 9999,
      "fzfg": false,
      "metar_trigger": false,
      "taf_trigger": false,
      "metar": "METAR EDDN 040850Z AUTO 19009KT CAVOK 19/11 Q1008",
      "taf": "TAF EDDN 040500Z 0406/0506 16005KT 9999 SCT030"
    },
    {
      "icao": "EDDS",
      "alert": "OK",
      "vis_m": 9999,
      "fzfg": false,
      "metar_trigger": false,
      "taf_trigger": false,
      "metar": "METAR EDDS 040850Z AUTO 21007KT 120V290 9999 FEW045 19/11 Q1008 NOSIG",
      "taf": "TAF EDDS 040500Z 0406/0506 VRB03KT 9999 BKN030"
    },
    {
      "icao": "EDFH",
      "alert": "OK",
      "vis_m": 9999,
      "fzfg": false,
      "metar_trigger": false,
      "taf_trigger": false,
      "metar": "METAR EDFH 040850Z 23011KT 190V270 9999 SCT017 BKN023 14/11 Q1006",
      "taf": "TAF EDFH 040500Z 0406/0506 23015G25KT 9999 BKN020"
    },
    {
      "icao": "EDJA",
      "alert": "OK",
      "vis_m": 9999,
      "fzfg": false,
      "metar_trigger": false,
      "taf_trigger": false,
      "metar": "METAR EDJA 040850Z 24009KT 210V270 CAVOK 17/10 Q1010",
      "taf": "TAF EDJA 040800Z 0409/0418 22009KT CAVOK"
    },
    {
      "icao": "EDLW",
      "alert": "OK",
      "vis_m": 9999,
      "fzfg": false,
      "metar_trigger": false,
      "taf_trigger": false,
      "metar": "METAR EDLW 040850Z 21016KT 9999 SCT023 BKN045 16/12 Q1003",
      "taf": "TAF EDLW 040500Z 0406/0506 20010KT 9999 BKN030"
    },
    {
      "icao": "EDNY",
      "alert": "OK",
      "vis_m": 9999,
      "fzfg": false,
      "metar_trigger": false,
      "taf_trigger": false,
      "metar": "METAR EDNY 040850Z COR 15004KT 110V180 CAVOK 18/11 Q1010",
      "taf": "TAF EDNY 040800Z 0409/0418 24006KT CAVOK"
    },
    {
      "icao": "EDSB",
      "alert": "OK",
      "vis_m": 9999,
      "fzfg": false,
      "metar_trigger": false,
      "taf_trigger": false,
      "metar": "METAR EDSB 040850Z 20012KT 180V240 9999 BKN042 20/12 Q1007",
      "taf": "TAF EDSB 040500Z 0406/0506 21011KT 9999 BKN035"
    },
    {
      "icao": "EETN",
      "alert": "OK",
      "vis_m": 9999,
      "fzfg": false,
      "metar_trigger": false,
      "taf_trigger": false,
      "metar": "METAR EETN 040850Z 17010KT CAVOK 25/08 Q1012 NOSIG",
      "taf": "TAF EETN 040530Z 0406/0506 16008KT CAVOK"
    },
    {
      "icao": "EFTU",
      "alert": "OK",
      "vis_m": 9999,
      "fzfg": false,
      "metar_trigger": false,
      "taf_trigger": false,
      "metar": "METAR EFTU 040850Z AUTO 17010KT 130V210 CAVOK 25/08 Q1010",
      "taf": "TAF EFTU 040833Z 0409/0509 16013KT CAVOK"
    },
    {
      "icao": "EGBB",
      "alert": "OK",
      "vis_m": 9999,
      "fzfg": false,
      "metar_trigger": false,
      "taf_trigger": false,
      "metar": "METAR EGBB 040850Z 23008KT 200V280 9999 SCT016 BKN022 13/11 Q0993",
      "taf": "TAF EGBB 040501Z 0406/0506 21009KT 9999 FEW015 SCT030"
    },
    {
      "icao": "EGGP",
      "alert": "OK",
      "vis_m": 9999,
      "fzfg": false,
      "metar_trigger": false,
      "taf_trigger": false,
      "metar": "METAR EGGP 040850Z 26016KT 9999 FEW025 BKN035 14/08 Q0991",
      "taf": "TAF EGGP 040458Z 0406/0506 20014KT 9999 FEW015 SCT025"
    },
    {
      "icao": "EGGW",
      "alert": "OK",
      "vis_m": 9999,
      "fzfg": false,
      "metar_trigger": false,
      "taf_trigger": false,
      "metar": "METAR EGGW 040850Z AUTO 24018KT 9999 SCT025 BKN031 14/10 Q0995",
      "taf": "TAF EGGW 040458Z 0406/0506 21012KT 9999 SCT020"
    },
    {
      "icao": "EGKK",
      "alert": "OK",
      "vis_m": 9999,
      "fzfg": false,
      "metar_trigger": false,
      "taf_trigger": false,
      "metar": "METAR EGKK 040850Z 23013KT 200V260 9999 BKN013 BKN020 15/13 Q0997",
      "taf": "TAF EGKK 040457Z 0406/0512 22014KT 9999 SCT025"
    },
    {
      "icao": "EGNM",
      "alert": "OK",
      "vis_m": 9999,
      "fzfg": false,
      "metar_trigger": false,
      "taf_trigger": false,
      "metar": "METAR EGNM 040850Z 24014G24KT 200V270 9999 -SHRA SCT008 BKN018 11/10 Q0989",
      "taf": "TAF EGNM 040456Z 0406/0506 21013KT 9999 FEW015 SCT025"
    },
    {
      "icao": "EGPD",
      "alert": "OK",
      "vis_m": 9999,
      "fzfg": false,
      "metar_trigger": false,
      "taf_trigger": false,
      "metar": "METAR EGPD 040850Z COR 22004KT 170V260 9999 VCSH SCT017CB 14/10 Q0983 NOSIG",
      "taf": "TAF EGPD 040453Z 0406/0506 17004KT 9999 FEW025"
    },
    {
      "icao": "EGPF",
      "alert": "OK",
      "vis_m": 9999,
      "fzfg": false,
      "metar_trigger": false,
      "taf_trigger": false,
      "metar": "METAR EGPF 040850Z AUTO 28010KT 9999 -RA SCT015/// BKN032/// BKN039/// //////TCU 15/12 Q0984",
      "taf": "TAF EGPF 040508Z 0406/0506 22005KT 9999 BKN025"
    },
    {
      "icao": "EHBK",
      "alert": "OK",
      "vis_m": 9999,
      "fzfg": false,
      "metar_trigger": false,
      "taf_trigger": false,
      "metar": "METAR EHBK 040855Z AUTO 21015KT 180V240 9999 SCT020 BKN025 16/12 Q1002 NOSIG",
      "taf": "TAF EHBK 040453Z 0406/0512 23012KT 9999 BKN025"
    },
    {
      "icao": "EHEH",
      "alert": "OK",
      "vis_m": 9999,
      "fzfg": false,
      "metar_trigger": false,
      "taf_trigger": false,
      "metar": "METAR EHEH 040855Z AUTO 19013KT 150V230 9999 SCT032 OVC036 16/13 Q1000 BLU TEMPO 23010G25KT 4000 SHRA FEW012 SCT015CB",
      "taf": "TAF EHEH 040527Z 0406/0512 19008KT 9999 BKN040"
    },
    {
      "icao": "EKBI",
      "alert": "OK",
      "vis_m": 9999,
      "fzfg": false,
      "metar_trigger": false,
      "taf_trigger": false,
      "metar": "METAR EKBI 040850Z 21008KT 9999 FEW010 FEW020CB BKN022 BKN072 15/14 Q0998",
      "taf": "TAF EKBI 040827Z 0409/0509 19009KT 9999 SCT025"
    },
    {
      "icao": "EKCH",
      "alert": "OK",
      "vis_m": 9999,
      "fzfg": false,
      "metar_trigger": false,
      "taf_trigger": false,
      "metar": "METAR EKCH 040850Z AUTO 16014KT 9999 OVC047/// 16/12 Q1002 TEMPO 4000 TSRA BKN014 FEW030CB",
      "taf": ""
    },
    {
      "icao": "ENAL",
      "alert": "OK",
      "vis_m": 9999,
      "fzfg": false,
      "metar_trigger": false,
      "taf_trigger": false,
      "metar": "METAR ENAL 040850Z 06012KT CAVOK 16/12 Q0992",
      "taf": "TAF ENAL 040800Z 0409/0418 06012KT 9999 FEW050"
    },
    {
      "icao": "ENBR",
      "alert": "OK",
      "vis_m": 9999,
      "fzfg": false,
      "metar_trigger": false,
      "taf_trigger": false,
      "metar": "METAR ENBR 040850Z 13007KT 9999 VCSH FEW020TCU SCT050 14/10 Q0991 NOSIG RMK WIND 1200FT 14021KT",
      "taf": "TAF ENBR 040500Z 0406/0506 13008KT 9999 -SHRA FEW010 BKN040"
    },
    {
      "icao": "ENGM",
      "alert": "OK",
      "vis_m": 9999,
      "fzfg": false,
      "metar_trigger": false,
      "taf_trigger": false,
      "metar": "METAR ENGM 040850Z 16012KT 9999 FEW019 SCT023 16/11 Q1000 TEMPO SHRA FEW020CB BKN030",
      "taf": ""
    },
    {
      "icao": "ENHD",
      "alert": "OK",
      "vis_m": 9999,
      "fzfg": false,
      "metar_trigger": false,
      "taf_trigger": false,
      "metar": "METAR ENHD 040850Z 15016KT 130V190 9999 FEW005CB BKN010 14/12 Q0991",
      "taf": "TAF ENHD 040800Z 0409/0418 15012KT 9999 -SHRA FEW006 BKN018"
    },
    {
      "icao": "ENTC",
      "alert": "OK",
      "vis_m": 9999,
      "fzfg": false,
      "metar_trigger": false,
      "taf_trigger": false,
      "metar": "METAR ENTC 040850Z VRB02KT CAVOK 19/09 Q1004 NOSIG RMK WIND 2600FT 17012KT",
      "taf": ""
    },
    {
      "icao": "ENTO",
      "alert": "OK",
      "vis_m": 9000,
      "fzfg": false,
      "metar_trigger": false,
      "taf_trigger": false,
      "metar": "METAR ENTO 040850Z 15012KT 9000 -SHRA FEW011 BKN013 OVC020 14/14 Q0998 REDZRA REDZ TEMPO 16015G25KT 4000 SHRA BKN008 FEW020CB",
      "taf": "TAF ENTO 040500Z 0406/0506 18010KT 3000 BR BKN003"
    },
    {
      "icao": "ENVA",
      "alert": "OK",
      "vis_m": 9999,
      "fzfg": false,
      "metar_trigger": false,
      "taf_trigger": false,
      "metar": "METAR ENVA 040850Z 16007G19KT 120V250 CAVOK 21/10 Q0996 TEMPO 15017G27KT RMK WIND 670FT 17022G38KT",
      "taf": "TAF ENVA 040500Z 0406/0506 12008KT CAVOK"
    },
    {
      "icao": "ENZV",
      "alert": "OK",
      "vis_m": 9999,
      "fzfg": false,
      "metar_trigger": false,
      "taf_trigger": false,
      "metar": "METAR ENZV 040850Z 16015KT 9999 FEW010 BKN013 15/12 Q0991 BECMG SCT013 BKN016",
      "taf": "TAF ENZV 040500Z 0406/0506 14012KT 9999 -SHRA SCT018 BKN028"
    },
    {
      "icao": "EPGD",
      "alert": "OK",
      "vis_m": 9999,
      "fzfg": false,
      "metar_trigger": false,
      "taf_trigger": false,
      "metar": "METAR EPGD 040900Z 22006KT 9999 BKN020 19/12 Q1007",
      "taf": "TAF EPGD 040530Z 0406/0506 26005KT 9999 BKN030"
    },
    {
      "icao": "EPKK",
      "alert": "OK",
      "vis_m": 9999,
      "fzfg": false,
      "metar_trigger": false,
      "taf_trigger": false,
      "metar": "METAR EPKK 040900Z 22004KT 9999 -RA SCT009 BKN026 16/14 Q1012",
      "taf": "TAF EPKK 040830Z 0409/0509 VRB02KT 9999 BKN023"
    },
    {
      "icao": "EPKT",
      "alert": "OK",
      "vis_m": 9999,
      "fzfg": false,
      "metar_trigger": false,
      "taf_trigger": false,
      "metar": "METAR EPKT 040900Z 23004KT 190V260 9999 FEW010 SCT018 16/12 Q1011",
      "taf": "TAF EPKT 040530Z 0406/0506 20007KT 3000 -RA BR BKN003"
    },
    {
      "icao": "EPLB",
      "alert": "OK",
      "vis_m": 7000,
      "fzfg": false,
      "metar_trigger": false,
      "taf_trigger": false,
      "metar": "METAR EPLB 040900Z 11006KT 7000 OVC007 17/15 Q1011",
      "taf": ""
    },
    {
      "icao": "EPMO",
      "alert": "OK",
      "vis_m": 9999,
      "fzfg": false,
      "metar_trigger": false,
      "taf_trigger": false,
      "metar": "METAR EPMO 040900Z 24006KT 9999 -RA FEW008 BKN026 16/15 Q1010",
      "taf": ""
    },
    {
      "icao": "EPPO",
      "alert": "OK",
      "vis_m": 9999,
      "fzfg": false,
      "metar_trigger": false,
      "taf_trigger": false,
      "metar": "METAR EPPO 040900Z 22009KT 9999 FEW033 22/13 Q1008",
      "taf": "TAF EPPO 040530Z 0406/0506 VRB02KT CAVOK"
    },
    {
      "icao": "EPRA",
      "alert": "OK",
      "vis_m": 9999,
      "fzfg": false,
      "metar_trigger": false,
      "taf_trigger": false,
      "metar": "METAR EPRA 040900Z 28005KT 240V300 9999 BKN008 OVC014 17/15 Q1011",
      "taf": "TAF EPRA 040830Z 0409/0418 28007KT 9999 BKN014"
    },
    {
      "icao": "EPRZ",
      "alert": "OK",
      "vis_m": 9999,
      "fzfg": false,
      "metar_trigger": false,
      "taf_trigger": false,
      "metar": "METAR EPRZ 040900Z 27005KT 240V310 9999 SCT012 BKN020 18/16 Q1011",
      "taf": "TAF EPRZ 040530Z 0406/0506 25005KT 9999 BKN007"
    },
    {
      "icao": "EPSC",
      "alert": "OK",
      "vis_m": 9999,
      "fzfg": false,
      "metar_trigger": false,
      "taf_trigger": false,
      "metar": "METAR EPSC 040900Z 16013KT CAVOK 20/13 Q1005",
      "taf": "TAF EPSC 040530Z 0406/0506 17010KT CAVOK"
    },
    {
      "icao": "EPSY",
      "alert": "OK",
      "vis_m": 4500,
      "fzfg": false,
      "metar_trigger": false,
      "taf_trigger": false,
      "metar": "METAR EPSY 040900Z 16005KT 130V200 4500 -RA FEW002 OVC008 15/14 Q1010",
      "taf": ""
    },
    {
      "icao": "EPWA",
      "alert": "OK",
      "vis_m": 9999,
      "fzfg": false,
      "metar_trigger": false,
      "taf_trigger": false,
      "metar": "METAR EPWA 040900Z 27003KT 230V300 9999 -RA BKN011 17/15 Q1010 NOSIG",
      "taf": "TAF EPWA 040830Z 0409/0509 VRB02KT 9999 BKN020"
    },
    {
      "icao": "EPWR",
      "alert": "OK",
      "vis_m": 9999,
      "fzfg": false,
      "metar_trigger": false,
      "taf_trigger": false,
      "metar": "METAR EPWR 040900Z 22008KT 180V250 9999 FEW040 22/10 Q1009",
      "taf": "TAF EPWR 040830Z 0409/0509 20008KT 9999 FEW035"
    },
    {
      "icao": "ESGG",
      "alert": "OK",
      "vis_m": 9999,
      "fzfg": false,
      "metar_trigger": false,
      "taf_trigger": false,
      "metar": "METAR ESGG 040850Z 16011KT 9999 FEW015 SCT040 17/13 Q1000",
      "taf": "TAF ESGG 040830Z 0409/0509 15010KT 9999 SCT012"
    },
    {
      "icao": "ESKN",
      "alert": "OK",
      "vis_m": 7000,
      "fzfg": false,
      "metar_trigger": false,
      "taf_trigger": false,
      "metar": "METAR ESKN 040850Z 11006KT 7000 RA SCT004 BKN008 15/15 Q1005",
      "taf": "TAF ESKN 040830Z 0409/0509 14006KT 9999 -RA SCT017 BKN030"
    },
    {
      "icao": "ESMS",
      "alert": "OK",
      "vis_m": 9999,
      "fzfg": false,
      "metar_trigger": false,
      "taf_trigger": false,
      "metar": "METAR ESMS 040850Z 18014KT CAVOK 17/13 Q1002",
      "taf": "TAF ESMS 040827Z 0409/0509 16008KT 9999 SCT025"
    },
    {
      "icao": "ESSA",
      "alert": "OK",
      "vis_m": 9999,
      "fzfg": false,
      "metar_trigger": false,
      "taf_trigger": false,
      "metar": "METAR ESSA 040850Z 17017KT 9999 FEW040 21/11 Q1005 NOSIG",
      "taf": "TAF ESSA 040830Z 0409/0509 16014KT CAVOK"
    },
    {
      "icao": "EYKA",
      "alert": "OK",
      "vis_m": 9999,
      "fzfg": false,
      "metar_trigger": false,
      "taf_trigger": false,
      "metar": "METAR EYKA 040850Z 13015KT 9999 BKN026 19/12 Q1012",
      "taf": "TAF EYKA 040501Z 0406/0506 15013KT 9000 BKN040"
    },
    {
      "icao": "EYPA",
      "alert": "OK",
      "vis_m": 9999,
      "fzfg": false,
      "metar_trigger": false,
      "taf_trigger": false,
      "metar": "METAR EYPA 040850Z 14015KT 110V190 9999 SCT033 20/11 Q1008",
      "taf": "TAF EYPA 040501Z 0406/0506 16012KT 9000 SCT035"
    },
    {
      "icao": "EYVI",
      "alert": "OK",
      "vis_m": 9999,
      "fzfg": false,
      "metar_trigger": false,
      "taf_trigger": false,
      "metar": "METAR EYVI 040850Z 14013KT 9999 SCT032 18/11 Q1013 NOSIG",
      "taf": "TAF EYVI 040500Z 0406/0506 14010KT 9000 NSC"
    },
    {
      "icao": "GCFV",
      "alert": "OK",
      "vis_m": 9999,
      "fzfg": false,
      "metar_trigger": false,
      "taf_trigger": false,
      "metar": "METAR GCFV 040830Z 02015KT 350V050 9999 FEW020 23/17 Q1019",
      "taf": "TAF GCFV 040800Z 0409/0509 03016KT 9999 SCT025 TX26/0414Z TN19/0506Z"
    },
    {
      "icao": "GCLP",
      "alert": "OK",
      "vis_m": 9999,
      "fzfg": false,
      "metar_trigger": false,
      "taf_trigger": false,
      "metar": "METAR GCLP 040830Z 36024KT 9999 FEW020 22/16 Q1019 NOSIG",
      "taf": "TAF GCLP 040800Z 0409/0509 36025KT 9999 SCT025 TX26/0414Z TN18/0506Z"
    },
    {
      "icao": "GCTS",
      "alert": "OK",
      "vis_m": 9999,
      "fzfg": false,
      "metar_trigger": false,
      "taf_trigger": false,
      "metar": "METAR GCTS 040830Z 29007KT 250V330 9999 FEW015 22/16 Q1021 WS R07 NOSIG",
      "taf": "TAF GCTS 040800Z 0409/0509 09015KT 9999 FEW020 TX28/0414Z TN18/0506Z"
    },
    {
      "icao": "GMAD",
      "alert": "OK",
      "vis_m": 6000,
      "fzfg": false,
      "metar_trigger": false,
      "taf_trigger": false,
      "metar": "METAR GMAD 040900Z 26004KT 230V290 6000 BKN006 SCT011 19/17 Q1014 NOSIG",
      "taf": "TAF GMAD 040500Z 0406/0512 07004KT 8000 BKN010"
    },
    {
      "icao": "GMMN",
      "alert": "OK",
      "vis_m": 9999,
      "fzfg": false,
      "metar_trigger": false,
      "taf_trigger": false,
      "metar": "METAR GMMN 040900Z 36008KT 320V050 9999 FEW020 24/18 Q1018 NOSIG",
      "taf": "TAF GMMN 040500Z 0406/0512 14004KT 8000 FEW020"
    },
    {
      "icao": "GMMX",
      "alert": "OK",
      "vis_m": 9999,
      "fzfg": false,
      "metar_trigger": false,
      "taf_trigger": false,
      "metar": "METAR GMMX 040900Z VRB02KT CAVOK 25/16 Q1017 NOSIG",
      "taf": "TAF GMMX 040500Z 0406/0512 04006KT 8000 NSC"
    },
    {
      "icao": "HEGN",
      "alert": "OK",
      "vis_m": 9999,
      "fzfg": false,
      "metar_trigger": false,
      "taf_trigger": false,
      "metar": "METAR HEGN 040800Z 35015KT CAVOK 36/08 Q1012 NOSIG",
      "taf": "TAF HEGN 040500Z 0406/0512 32012KT CAVOK"
    },
    {
      "icao": "HEMA",
      "alert": "OK",
      "vis_m": 9999,
      "fzfg": false,
      "metar_trigger": false,
      "taf_trigger": false,
      "metar": "METAR HEMA 040800Z 35021KT CAVOK 37/11 Q1011 NOSIG",
      "taf": "TAF HEMA 040500Z 0406/0512 33010G20KT CAVOK"
    },
    {
      "icao": "HESH",
      "alert": "OK",
      "vis_m": 9999,
      "fzfg": false,
      "metar_trigger": false,
      "taf_trigger": false,
      "metar": "METAR HESH 040800Z 02013KT CAVOK 35/13 Q1012 NOSIG",
      "taf": "TAF HESH 040500Z 0406/0512 36015KT CAVOK"
    },
    {
      "icao": "HESX",
      "alert": "OK",
      "vis_m": 9999,
      "fzfg": false,
      "metar_trigger": false,
      "taf_trigger": false,
      "metar": "METAR HESX 040800Z 06009KT CAVOK 29/11 Q1014 NOSIG",
      "taf": "TAF HESX 040500Z 0406/0512 03010KT CAVOK"
    },
    {
      "icao": "LATI",
      "alert": "OK",
      "vis_m": 9999,
      "fzfg": false,
      "metar_trigger": false,
      "taf_trigger": false,
      "metar": "METAR LATI 040850Z 36007KT 320V030 9999 SCT025 22/16 Q1011 NOSIG",
      "taf": "TAF LATI 040500Z 0406/0506 VRB05KT CAVOK TX27/0412Z TN14/0504Z"
    },
    {
      "icao": "LBPD",
      "alert": "OK",
      "vis_m": 9999,
      "fzfg": false,
      "metar_trigger": false,
      "taf_trigger": false,
      "metar": "METAR LBPD 040900Z AUTO 28007KT 230V300 9999 -TSRA SCT030 OVC060 //////CB 22/15 Q1010 TEMPO 5000 TSRA SCT030CB",
      "taf": "TAF LBPD 040500Z 0406/0506 VRB04KT 9999 BKN050"
    },
    {
      "icao": "LBSF",
      "alert": "OK",
      "vis_m": 9999,
      "fzfg": false,
      "metar_trigger": false,
      "taf_trigger": false,
      "metar": "METAR LBSF 040900Z 02004KT 320V050 9999 FEW026 BKN049 BKN088 19/12 Q1012 NOSIG",
      "taf": "TAF LBSF 040500Z 0406/0506 VRB04KT 9999 BKN050"
    },
    {
      "icao": "LBWN",
      "alert": "OK",
      "vis_m": 9999,
      "fzfg": false,
      "metar_trigger": false,
      "taf_trigger": false,
      "metar": "METAR LBWN 040900Z 12007KT 090V160 9999 SCT028 25/20 Q1009 NOSIG",
      "taf": "TAF LBWN 040500Z 0406/0506 VRB04KT 9999 SCT040"
    },
    {
      "icao": "LCLK",
      "alert": "OK",
      "vis_m": 9999,
      "fzfg": false,
      "metar_trigger": false,
      "taf_trigger": false,
      "metar": "METAR LCLK 040900Z 17012KT 9999 FEW018 27/21 Q1014 NOSIG",
      "taf": "TAF LCLK 040530Z 0406/0506 14006KT 9999 FEW020"
    },
    {
      "icao": "LCPH",
      "alert": "OK",
      "vis_m": 9999,
      "fzfg": false,
      "metar_trigger": false,
      "taf_trigger": false,
      "metar": "METAR LCPH 040900Z AUTO 29008KT 250V320 9999 NCD 25/19 Q1015 NOSIG",
      "taf": "TAF LCPH 040530Z 0406/0506 18007KT 9999 FEW020"
    },
    {
      "icao": "LEAL",
      "alert": "OK",
      "vis_m": 9999,
      "fzfg": false,
      "metar_trigger": false,
      "taf_trigger": false,
      "metar": "METAR LEAL 040830Z 24006KT 200V280 9999 BKN020 25/19 Q1013 NOSIG",
      "taf": "TAF LEAL 040500Z 0406/0506 VRB04KT 9999 FEW020 TX29/0412Z TN20/0406Z"
    },
    {
      "icao": "LEBB",
      "alert": "OK",
      "vis_m": 9000,
      "fzfg": false,
      "metar_trigger": false,
      "taf_trigger": false,
      "metar": "METAR LEBB 040830Z 27004KT 210V300 9000 -RA SCT027 BKN045 17/15 Q1016 TEMPO 3000 RA BKN010",
      "taf": "TAF LEBB 040500Z 0406/0506 33009KT 9999 BKN030 TX17/0414Z TN13/0506Z"
    },
    {
      "icao": "LEBL",
      "alert": "OK",
      "vis_m": 9999,
      "fzfg": false,
      "metar_trigger": false,
      "taf_trigger": false,
      "metar": "METAR LEBL 040830Z 20012KT 9999 FEW015 23/20 Q1012 NOSIG",
      "taf": ""
    },
    {
      "icao": "LECH",
      "alert": "OK",
      "vis_m": 9000,
      "fzfg": false,
      "metar_trigger": false,
      "taf_trigger": false,
      "metar": "METAR LECH 040830Z AUTO 30003KT 240V050 9000 NCD 23/17 Q1012",
      "taf": "TAF LECH 040500Z 0406/0506 VRB04KT CAVOK TX30/0413Z TN15/0406Z"
    },
    {
      "icao": "LEMD",
      "alert": "OK",
      "vis_m": 9999,
      "fzfg": false,
      "metar_trigger": false,
      "taf_trigger": false,
      "metar": "METAR LEMD 040830Z 23007KT 190V270 CAVOK 24/10 Q1013 NOSIG",
      "taf": ""
    },
    {
      "icao": "LEMG",
      "alert": "OK",
      "vis_m": 9999,
      "fzfg": false,
      "metar_trigger": false,
      "taf_trigger": false,
      "metar": "METAR LEMG 040830Z 11006KT 080V150 CAVOK 22/18 Q1015 NOSIG",
      "taf": "TAF LEMG 040500Z 0406/0506 28005KT 9999 FEW030 TX34/0414Z TN19/0406Z"
    },
    {
      "icao": "LEVC",
      "alert": "OK",
      "vis_m": 9999,
      "fzfg": false,
      "metar_trigger": false,
      "taf_trigger": false,
      "metar": "METAR LEVC 040830Z 17006KT 130V200 CAVOK 25/18 Q1011 NOSIG",
      "taf": "TAF LEVC 040500Z 0406/0506 VRB04KT 9999 FEW020 TX34/0412Z TN18/0406Z"
    },
    {
      "icao": "LEXJ",
      "alert": "OK",
      "vis_m": 4000,
      "fzfg": false,
      "metar_trigger": false,
      "taf_trigger": false,
      "metar": "SPECI LEXJ 040840Z 24005KT 210V290 4000 RA SCT027 BKN038 OVC060 17/15 Q1016",
      "taf": "TAF LEXJ 040800Z 0409/0509 28009KT 9000 FEW020 BKN040 TX18/0414Z TN12/0505Z"
    },
    {
      "icao": "LEZG",
      "alert": "OK",
      "vis_m": 9999,
      "fzfg": false,
      "metar_trigger": false,
      "taf_trigger": false,
      "metar": "METAR LEZG 040830Z 30009KT 270V330 9999 BKN080 21/14 Q1013 NOSIG",
      "taf": "TAF LEZG 040500Z 0406/0506 30009KT CAVOK TX29/0415Z TN15/0406Z"
    },
    {
      "icao": "LEZL",
      "alert": "OK",
      "vis_m": 9999,
      "fzfg": false,
      "metar_trigger": false,
      "taf_trigger": false,
      "metar": "METAR LEZL 040830Z 02004KT 300V070 CAVOK 25/14 Q1016 NOSIG",
      "taf": "TAF LEZL 040800Z 0409/0509 29009KT CAVOK TX35/0415Z TN17/0506Z"
    },
    {
      "icao": "LFBD",
      "alert": "OK",
      "vis_m": 9999,
      "fzfg": false,
      "metar_trigger": false,
      "taf_trigger": false,
      "metar": "METAR LFBD 040900Z AUTO 28014KT 9999 FEW025/// ///TCU 18/13 Q1013 TEMPO 2000 SHRA BKN010 BKN025TCU",
      "taf": "TAF LFBD 040500Z 0406/0512 24010KT 9999 BKN020 TX20/0414Z TN11/0505Z"
    },
    {
      "icao": "LFLL",
      "alert": "OK",
      "vis_m": 9999,
      "fzfg": false,
      "metar_trigger": false,
      "taf_trigger": false,
      "metar": "METAR LFLL 040900Z 25006KT 9999 -RA NSC 19/12 Q1012 NOSIG",
      "taf": ""
    },
    {
      "icao": "LFLS",
      "alert": "OK",
      "vis_m": 9999,
      "fzfg": false,
      "metar_trigger": false,
      "taf_trigger": false,
      "metar": "METAR LFLS 040900Z AUTO 26008KT 230V300 9999 ///TCU 20/12 Q1012 BECMG 4000 -RA NSC",
      "taf": "TAF LFLS 040800Z 0409/0509 26008KT CAVOK"
    },
    {
      "icao": "LFMN",
      "alert": "OK",
      "vis_m": 9999,
      "fzfg": false,
      "metar_trigger": false,
      "taf_trigger": false,
      "metar": "METAR LFMN 040900Z 09013KT 9999 SCT014 BKN260 23/18 Q1011 NOSIG",
      "taf": "TAF LFMN 040800Z 0409/0515 09010KT CAVOK"
    },
    {
      "icao": "LFOB",
      "alert": "OK",
      "vis_m": 9999,
      "fzfg": false,
      "metar_trigger": false,
      "taf_trigger": false,
      "metar": "METAR LFOB 040900Z AUTO 23015KT 200V260 9999 FEW030 BKN035 BKN046 18/11 Q1002 TEMPO 24020G30KT 1200 SHRA BKN009 BKN012CB BKN020",
      "taf": "TAF LFOB 040500Z 0406/0506 20012KT 9999 BKN020"
    },
    {
      "icao": "LFPO",
      "alert": "OK",
      "vis_m": 9999,
      "fzfg": false,
      "metar_trigger": false,
      "taf_trigger": false,
      "metar": "METAR LFPO 040900Z 24011KT 9999 -RA SCT018 BKN025 BKN040 16/12 Q1005 NOSIG",
      "taf": "TAF LFPO 040500Z 0406/0512 22012KT 9999 BKN020"
    },
    {
      "icao": "LFSB",
      "alert": "OK",
      "vis_m": 9999,
      "fzfg": false,
      "metar_trigger": false,
      "taf_trigger": false,
      "metar": "METAR LFSB 040900Z AUTO 24009KT 200V280 9999 SCT042 BKN049 BKN180 21/13 Q1009 TEMPO 4000 SHRA SCT030TCU",
      "taf": "TAF LFSB 040500Z 0406/0506 17005KT 9999 BKN040"
    },
    {
      "icao": "LGAV",
      "alert": "OK",
      "vis_m": 9999,
      "fzfg": false,
      "metar_trigger": false,
      "taf_trigger": false,
      "metar": "METAR LGAV 040850Z 23009KT 190V280 9999 SCT020 29/10 Q1011 NOSIG",
      "taf": "TAF LGAV 040500Z 0406/0506 VRB05KT 9999 FEW025 SCT060"
    },
    {
      "icao": "LGTS",
      "alert": "OK",
      "vis_m": 9999,
      "fzfg": false,
      "metar_trigger": false,
      "taf_trigger": false,
      "metar": "METAR LGTS 040850Z 02004KT 9999 FEW012 FEW018TCU BKN035 22/22 Q1009 NOSIG",
      "taf": "TAF LGTS 040500Z 0406/0506 VRB03KT 9999 SCT030"
    },
    {
      "icao": "LHBP",
      "alert": "OK",
      "vis_m": 9999,
      "fzfg": false,
      "metar_trigger": false,
      "taf_trigger": false,
      "metar": "METAR LHBP 040900Z 36004KT 310V040 9999 SCT013 20/16 Q1010 NOSIG",
      "taf": ""
    },
    {
      "icao": "LHDC",
      "alert": "OK",
      "vis_m": 9999,
      "fzfg": false,
      "metar_trigger": false,
      "taf_trigger": false,
      "metar": "METAR LHDC 040845Z AUTO 22005KT 160V300 9999 BKN023 23/15 Q1010 BECMG FEW020CB BKN025",
      "taf": "TAF LHDC 040815Z 0409/0418 21009KT 9999 SCT025"
    },
    {
      "icao": "LIBD",
      "alert": "OK",
      "vis_m": 9999,
      "fzfg": false,
      "metar_trigger": false,
      "taf_trigger": false,
      "metar": "METAR LIBD 040850Z 32013KT 290V350 9999 SCT025 22/17 Q1012",
      "taf": "TAF LIBD 040500Z 0406/0506 28009KT 9999 SCT020"
    },
    {
      "icao": "LIBG",
      "alert": "OK",
      "vis_m": 9999,
      "fzfg": false,
      "metar_trigger": false,
      "taf_trigger": false,
      "metar": "METAR LIBG 040850Z AUTO 29008KT 260V320 9999 BKN047/// 25/13 Q1011",
      "taf": "TAF LIBG 040500Z 0406/0506 VRB05KT 9999 FEW050"
    },
    {
      "icao": "LIBP",
      "alert": "OK",
      "vis_m": 9999,
      "fzfg": false,
      "metar_trigger": false,
      "taf_trigger": false,
      "metar": "METAR LIBP 040850Z AUTO 08007KT 9999 NCD 23/12 Q1013",
      "taf": "TAF LIBP 040500Z 0406/0506 VRB05KT CAVOK"
    },
    {
      "icao": "LIBR",
      "alert": "OK",
      "vis_m": 9999,
      "fzfg": false,
      "metar_trigger": false,
      "taf_trigger": false,
      "metar": "METAR LIBR 040850Z 33011KT 300V360 CAVOK 23/17 Q1011",
      "taf": "TAF LIBR 040500Z 0406/0506 34013KT 9999 SCT015"
    },
    {
      "icao": "LICA",
      "alert": "OK",
      "vis_m": 9999,
      "fzfg": false,
      "metar_trigger": false,
      "taf_trigger": false,
      "metar": "METAR LICA 040850Z AUTO 24012KT 9999 NCD 24/18 Q1013",
      "taf": "TAF LICA 040500Z 0406/0506 27012KT 9999 FEW020"
    },
    {
      "icao": "LICC",
      "alert": "OK",
      "vis_m": 9999,
      "fzfg": false,
      "metar_trigger": false,
      "taf_trigger": false,
      "metar": "METAR LICC 040850Z 09009KT CAVOK 26/15 Q1013",
      "taf": "TAF LICC 040500Z 0406/0506 VRB05KT 9999 SCT040"
    },
    {
      "icao": "LICJ",
      "alert": "OK",
      "vis_m": 9999,
      "fzfg": false,
      "metar_trigger": false,
      "taf_trigger": false,
      "metar": "METAR LICJ 040850Z 02010KT CAVOK 23/18 Q1013",
      "taf": "TAF LICJ 040500Z 0406/0506 VRB05KT CAVOK"
    },
    {
      "icao": "LIMC",
      "alert": "OK",
      "vis_m": 9999,
      "fzfg": false,
      "metar_trigger": false,
      "taf_trigger": false,
      "metar": "METAR LIMC 040850Z 09006KT 040V130 9999 BKN080 21/12 Q1013 NOSIG",
      "taf": "TAF LIMC 040500Z 0406/0512 VRB05KT 9999 FEW020"
    },
    {
      "icao": "LIME",
      "alert": "OK",
      "vis_m": 9999,
      "fzfg": false,
      "metar_trigger": false,
      "taf_trigger": false,
      "metar": "METAR LIME 040850Z 13003KT 080V200 CAVOK 23/11 Q1013 NOSIG",
      "taf": "TAF LIME 040500Z 0406/0506 12008KT 9999 FEW030"
    },
    {
      "icao": "LIMF",
      "alert": "OK",
      "vis_m": 9999,
      "fzfg": false,
      "metar_trigger": false,
      "taf_trigger": false,
      "metar": "METAR LIMF 040850Z 03007KT 350V050 9999 SCT080 21/14 Q1013",
      "taf": "TAF LIMF 040500Z 0406/0506 VRB05KT 9999 FEW030"
    },
    {
      "icao": "LIMJ",
      "alert": "OK",
      "vis_m": 9999,
      "fzfg": false,
      "metar_trigger": false,
      "taf_trigger": false,
      "metar": "METAR LIMJ 040850Z 12014KT 9999 SCT020 22/18 Q1012",
      "taf": "TAF LIMJ 040500Z 0406/0506 VRB05KT 9999 FEW040"
    },
    {
      "icao": "LIPE",
      "alert": "OK",
      "vis_m": 9999,
      "fzfg": false,
      "metar_trigger": false,
      "taf_trigger": false,
      "metar": "METAR LIPE 040850Z VRB02KT CAVOK 24/16 Q1011",
      "taf": "TAF LIPE 040500Z 0406/0506 VRB04KT CAVOK"
    },
    {
      "icao": "LIPH",
      "alert": "OK",
      "vis_m": 9999,
      "fzfg": false,
      "metar_trigger": false,
      "taf_trigger": false,
      "metar": "METAR LIPH 040850Z 15004KT 090V250 9999 FEW030 23/15 Q1013",
      "taf": "TAF LIPH 040500Z 0406/0506 VRB05KT 9999 FEW020 SCT060"
    },
    {
      "icao": "LIPQ",
      "alert": "OK",
      "vis_m": 9999,
      "fzfg": false,
      "metar_trigger": false,
      "taf_trigger": false,
      "metar": "METAR LIPQ 040850Z AUTO VRB02KT 9999 FEW066/// 23/14 Q1013",
      "taf": "TAF LIPQ 040500Z 0406/0506 VRB05KT 9999 SCT060"
    },
    {
      "icao": "LIPR",
      "alert": "OK",
      "vis_m": 9999,
      "fzfg": false,
      "metar_trigger": false,
      "taf_trigger": false,
      "metar": "METAR LIPR 040850Z 11010KT CAVOK 22/16 Q1012",
      "taf": "TAF LIPR 040500Z 0406/0506 VRB05KT CAVOK"
    },
    {
      "icao": "LIPX",
      "alert": "OK",
      "vis_m": 9999,
      "fzfg": false,
      "metar_trigger": false,
      "taf_trigger": false,
      "metar": "METAR LIPX 040850Z 11007KT 050V140 CAVOK 22/13 Q1012",
      "taf": "TAF LIPX 040500Z 0406/0506 VRB05KT 9999 FEW040"
    },
    {
      "icao": "LIPY",
      "alert": "OK",
      "vis_m": 9999,
      "fzfg": false,
      "metar_trigger": false,
      "taf_trigger": false,
      "metar": "METAR LIPY 040850Z AUTO 05007KT 9999 NCD 23/16 Q1013",
      "taf": "TAF LIPY 040500Z 0406/0506 VRB05KT CAVOK"
    },
    {
      "icao": "LIPZ",
      "alert": "OK",
      "vis_m": 9999,
      "fzfg": false,
      "metar_trigger": false,
      "taf_trigger": false,
      "metar": "METAR LIPZ 040850Z 11005KT 070V140 9999 SCT025 22/17 Q1013 NOSIG",
      "taf": "TAF LIPZ 040500Z 0406/0512 VRB05KT 9999 FEW020 SCT060"
    },
    {
      "icao": "LIRF",
      "alert": "OK",
      "vis_m": 9999,
      "fzfg": false,
      "metar_trigger": false,
      "taf_trigger": false,
      "metar": "METAR LIRF 040850Z 18006KT CAVOK 25/18 Q1013 NOSIG",
      "taf": "TAF LIRF 040500Z 0406/0512 VRB05KT 9999 SCT040"
    },
    {
      "icao": "LIRN",
      "alert": "OK",
      "vis_m": 9000,
      "fzfg": false,
      "metar_trigger": false,
      "taf_trigger": false,
      "metar": "METAR LIRN 040850Z 18005KT 9000 SCT030 25/18 Q1013 NOSIG",
      "taf": "TAF LIRN 040500Z 0406/0506 VRB05KT 9999 SCT040"
    },
    {
      "icao": "LIRP",
      "alert": "OK",
      "vis_m": 9999,
      "fzfg": false,
      "metar_trigger": false,
      "taf_trigger": false,
      "metar": "METAR LIRP 040845Z VRB03KT 9999 FEW030 23/16 Q1012 NOSIG",
      "taf": "TAF LIRP 040500Z 0406/0506 VRB03KT CAVOK"
    },
    {
      "icao": "LIRZ",
      "alert": "OK",
      "vis_m": 9999,
      "fzfg": false,
      "metar_trigger": false,
      "taf_trigger": false,
      "metar": "METAR LIRZ 040850Z AUTO VRB03KT 9999 NCD 23/13 Q1013",
      "taf": "TAF LIRZ 040500Z 0406/0506 VRB05KT 9999 SCT030"
    },
    {
      "icao": "LJLJ",
      "alert": "OK",
      "vis_m": 9999,
      "fzfg": false,
      "metar_trigger": false,
      "taf_trigger": false,
      "metar": "METAR LJLJ 040830Z VRB02KT 9999 FEW040 18/12 Q1013 NOSIG",
      "taf": "TAF LJLJ 040500Z 0406/0506 30003KT 9999 FEW033"
    },
    {
      "icao": "LKMT",
      "alert": "OK",
      "vis_m": 9999,
      "fzfg": false,
      "metar_trigger": false,
      "taf_trigger": false,
      "metar": "METAR LKMT 040900Z 11004KT 060V220 9999 SCT030 19/12 Q1011 NOSIG",
      "taf": "TAF LKMT 040500Z 0406/0506 22006KT CAVOK"
    },
    {
      "icao": "LKPR",
      "alert": "OK",
      "vis_m": 9999,
      "fzfg": false,
      "metar_trigger": false,
      "taf_trigger": false,
      "metar": "METAR LKPR 040900Z 19008KT 120V250 9999 FEW040 20/11 Q1010 NOSIG",
      "taf": "TAF LKPR 040800Z 0409/0515 24008KT CAVOK"
    },
    {
      "icao": "LLBG",
      "alert": "OK",
      "vis_m": 9999,
      "fzfg": false,
      "metar_trigger": false,
      "taf_trigger": false,
      "metar": "METAR LLBG 040850Z 34009KT CAVOK 32/M02 Q1013 NOSIG",
      "taf": "TAF LLBG 040502Z 0406/0506 VRB04KT CAVOK TX33/0411Z TN19/0504Z"
    },
    {
      "icao": "LMML",
      "alert": "OK",
      "vis_m": 9999,
      "fzfg": false,
      "metar_trigger": false,
      "taf_trigger": false,
      "metar": "METAR LMML 040845Z 29010KT CAVOK 28/17 Q1014 NOSIG",
      "taf": ""
    },
    {
      "icao": "LOWW",
      "alert": "OK",
      "vis_m": 9999,
      "fzfg": false,
      "metar_trigger": false,
      "taf_trigger": false,
      "metar": "METAR LOWW 040850Z VRB03KT 9999 FEW040 21/11 Q1012 NOSIG",
      "taf": "TAF LOWW 040815Z 0409/0515 VRB03KT CAVOK TX25/0414Z TN15/0510Z"
    },
    {
      "icao": "LPFR",
      "alert": "OK",
      "vis_m": 9999,
      "fzfg": false,
      "metar_trigger": false,
      "taf_trigger": false,
      "metar": "METAR LPFR 040830Z 31010KT 9999 FEW018 22/13 Q1017",
      "taf": "TAF LPFR 040500Z 0406/0506 31010KT 9999 SCT018"
    },
    {
      "icao": "LPMA",
      "alert": "OK",
      "vis_m": 9999,
      "fzfg": false,
      "metar_trigger": false,
      "taf_trigger": false,
      "metar": "METAR LPMA 040830Z 34012KT 270V030 9999 FEW013 23/16 Q1023",
      "taf": "TAF LPMA 040500Z 0406/0506 36013KT 9999 SCT015"
    },
    {
      "icao": "LPPR",
      "alert": "OK",
      "vis_m": 9999,
      "fzfg": false,
      "metar_trigger": false,
      "taf_trigger": false,
      "metar": "METAR LPPR 040830Z 33007KT 300V360 9999 SCT025 SCT048 18/12 Q1019",
      "taf": "TAF LPPR 040500Z 0406/0506 33007KT 9999 SCT018 BKN035"
    },
    {
      "icao": "LPPS",
      "alert": "OK",
      "vis_m": 9999,
      "fzfg": false,
      "metar_trigger": false,
      "taf_trigger": false,
      "metar": "METAR LPPS 040830Z 35017KT 9999 SCT010 20/16 Q1024",
      "taf": "TAF LPPS 040500Z 0406/0512 01015KT 9999 SCT012 SCT030"
    },
    {
      "icao": "LPPT",
      "alert": "OK",
      "vis_m": 9999,
      "fzfg": false,
      "metar_trigger": false,
      "taf_trigger": false,
      "metar": "METAR LPPT 040830Z 34010KT 300V010 9999 FEW028 BKN034 19/12 Q1019",
      "taf": "TAF LPPT 040500Z 0406/0512 31008KT 9999 SCT020"
    },
    {
      "icao": "LQBK",
      "alert": "OK",
      "vis_m": 9999,
      "fzfg": false,
      "metar_trigger": false,
      "taf_trigger": false,
      "metar": "METAR LQBK 040900Z 28009KT CAVOK 21/11 Q1013 NOSIG",
      "taf": "TAF LQBK 040500Z 0406/0506 32005KT CAVOK TX25/0414Z TN12/0504Z"
    },
    {
      "icao": "LQSA",
      "alert": "OK",
      "vis_m": 9999,
      "fzfg": false,
      "metar_trigger": false,
      "taf_trigger": false,
      "metar": "METAR LQSA 040900Z VRB03KT 9999 SCT025 BKN040 15/10 Q1014 NOSIG",
      "taf": "TAF LQSA 040500Z 0406/0506 VRB02KT 9999 FEW014 BKN035 TX22/0413Z TN10/0504Z"
    },
    {
      "icao": "LQTZ",
      "alert": "OK",
      "vis_m": 9999,
      "fzfg": false,
      "metar_trigger": false,
      "taf_trigger": false,
      "metar": "METAR LQTZ 040900Z 29007KT 250V360 9999 BKN030 19/15 Q1013",
      "taf": "TAF LQTZ 040500Z 0406/0506 32005KT 9999 SCT020 BKN035 TX24/0414Z TN11/0504Z"
    },
    {
      "icao": "LRBC",
      "alert": "OK",
      "vis_m": 9999,
      "fzfg": false,
      "metar_trigger": false,
      "taf_trigger": false,
      "metar": "METAR LRBC 040830Z 18007KT 9999 OVC010 19/17 Q1012",
      "taf": "TAF LRBC 040800Z 0409/0418 15010KT 9999 BKN010"
    },
    {
      "icao": "LRBS",
      "alert": "OK",
      "vis_m": 9999,
      "fzfg": false,
      "metar_trigger": false,
      "taf_trigger": false,
      "metar": "METAR LRBS 040830Z COR 01004KT 310V090 9999 FEW032 SCT042 22/17 Q1011 NOSIG",
      "taf": ""
    },
    {
      "icao": "LRBV",
      "alert": "OK",
      "vis_m": 9999,
      "fzfg": false,
      "metar_trigger": false,
      "taf_trigger": false,
      "metar": "METAR LRBV 040830Z VRB02KT 9999 SCT080 21/14 Q1011",
      "taf": "TAF LRBV 040800Z 0409/0418 VRB04KT 9999 BKN040"
    },
    {
      "icao": "LRCL",
      "alert": "OK",
      "vis_m": 9999,
      "fzfg": false,
      "metar_trigger": false,
      "taf_trigger": false,
      "metar": "METAR LRCL 040830Z 10003KT 020V170 CAVOK 23/12 Q1010",
      "taf": "TAF LRCL 040800Z 0409/0418 VRB04KT CAVOK"
    },
    {
      "icao": "LRCV",
      "alert": "OK",
      "vis_m": 9999,
      "fzfg": false,
      "metar_trigger": false,
      "taf_trigger": false,
      "metar": "METAR LRCV 040830Z VRB01KT 9999 BKN011 20/17 Q1011",
      "taf": "TAF LRCV 040800Z 0409/0418 VRB04KT 9999 BKN030"
    },
    {
      "icao": "LRIA",
      "alert": "OK",
      "vis_m": 9999,
      "fzfg": false,
      "metar_trigger": false,
      "taf_trigger": false,
      "metar": "METAR LRIA 040830Z 12008KT 9999 OVC008 18/15 Q1013",
      "taf": "TAF LRIA 040800Z 0409/0418 11010KT 9999 OVC010"
    },
    {
      "icao": "LROP",
      "alert": "OK",
      "vis_m": 9999,
      "fzfg": false,
      "metar_trigger": false,
      "taf_trigger": false,
      "metar": "METAR LROP 040830Z COR 04004KT 360V070 9999 -SHRA SCT045 FEW050CB 22/18 Q1011 RETS NOSIG",
      "taf": ""
    },
    {
      "icao": "LRSB",
      "alert": "OK",
      "vis_m": 9999,
      "fzfg": false,
      "metar_trigger": false,
      "taf_trigger": false,
      "metar": "METAR LRSB 040830Z 19003KT 160V220 9999 BKN070 20/14 Q1010",
      "taf": "TAF LRSB 040500Z 0406/0506 VRB04KT CAVOK"
    },
    {
      "icao": "LRSM",
      "alert": "OK",
      "vis_m": 9999,
      "fzfg": false,
      "metar_trigger": false,
      "taf_trigger": false,
      "metar": "METAR LRSM 040830Z VRB04KT 9999 BKN031 24/16 Q1010",
      "taf": "TAF LRSM 040800Z 0409/0418 VRB04KT 9999 SCT035"
    },
    {
      "icao": "LRSV",
      "alert": "OK",
      "vis_m": 9999,
      "fzfg": false,
      "metar_trigger": false,
      "taf_trigger": false,
      "metar": "METAR LRSV 040830Z 12009KT 9999 BKN007 18/17 Q1012",
      "taf": "TAF LRSV 040800Z 0409/0418 13010KT 9999 BKN005"
    },
    {
      "icao": "LRTM",
      "alert": "OK",
      "vis_m": 9999,
      "fzfg": false,
      "metar_trigger": false,
      "taf_trigger": false,
      "metar": "METAR LRTM 040830Z 19003KT 150V230 CAVOK 23/16 Q1010",
      "taf": "TAF LRTM 040800Z 0409/0418 VRB04KT CAVOK"
    },
    {
      "icao": "LRTR",
      "alert": "OK",
      "vis_m": 8000,
      "fzfg": false,
      "metar_trigger": false,
      "taf_trigger": false,
      "metar": "METAR LRTR 040830Z 21006KT 8000 FEW003 BKN005 OVC016 17/16 Q1011 NOSIG",
      "taf": ""
    },
    {
      "icao": "LTAC",
      "alert": "OK",
      "vis_m": 9999,
      "fzfg": false,
      "metar_trigger": false,
      "taf_trigger": false,
      "metar": "METAR LTAC 040850Z 29004KT 170V340 9999 SCT040 24/12 Q1016 NOSIG RMK RWY21C VRB06KT RWY03L VRB04KT RWY21R VRB05KT RWY03R 21007KT 150V280 RWY21L 23007KT 170V270",
      "taf": "TAF LTAC 040440Z 0406/0506 VRB02KT CAVOK"
    },
    {
      "icao": "LTFM",
      "alert": "OK",
      "vis_m": 9999,
      "fzfg": false,
      "metar_trigger": false,
      "taf_trigger": false,
      "metar": "METAR LTFM 040850Z 22013KT CAVOK 29/12 Q1010 NOSIG RMK RWY17L 22013G25KT RWY34L 23012KT 180V240 RWY16R 21012KT 170V230 RWY36 21015KT RWY18 22014KT",
      "taf": "TAF LTFM 040440Z 0406/0512 21013KT CAVOK"
    },
    {
      "icao": "LUKK",
      "alert": "OK",
      "vis_m": 9999,
      "fzfg": false,
      "metar_trigger": false,
      "taf_trigger": false,
      "metar": "METAR LUKK 040900Z 15005KT 090V190 9999 OVC014 19/16 Q1013 NOSIG",
      "taf": "TAF LUKK 040448Z 0406/0506 15008KT 5000 BR BKN012"
    },
    {
      "icao": "LWOH",
      "alert": "OK",
      "vis_m": 9999,
      "fzfg": false,
      "metar_trigger": false,
      "taf_trigger": false,
      "metar": "METAR LWOH 040850Z VRB01KT 9999 FEW020 SCT040 17/12 Q1012",
      "taf": "TAF LWOH 040820Z 0409/0509 17010KT 9999 FEW020 SCT040"
    },
    {
      "icao": "LWSK",
      "alert": "OK",
      "vis_m": 9999,
      "fzfg": false,
      "metar_trigger": false,
      "taf_trigger": false,
      "metar": "METAR LWSK 040850Z VRB02KT 9999 SCT035 21/14 Q1012 NOSIG",
      "taf": "TAF LWSK 040820Z 0409/0509 35010KT 9999 SCT040"
    },
    {
      "icao": "LYBE",
      "alert": "OK",
      "vis_m": 9999,
      "fzfg": false,
      "metar_trigger": false,
      "taf_trigger": false,
      "metar": "METAR LYBE 040900Z 26008KT 9999 FEW012 BKN018 BKN030 17/14 Q1012 NOSIG",
      "taf": "TAF LYBE 040500Z 0406/0506 27010KT 9999 BKN008 BKN025 TX24/0413Z TN13/0503Z"
    },
    {
      "icao": "LYNI",
      "alert": "OK",
      "vis_m": 9999,
      "fzfg": false,
      "metar_trigger": false,
      "taf_trigger": false,
      "metar": "METAR LYNI 040900Z 34010KT 300V010 9999 SCT030 BKN060 20/14 Q1011 NOSIG",
      "taf": "TAF LYNI 040500Z 0406/0506 32010KT 9999 BKN045 TX22/0413Z TN13/0505Z"
    },
    {
      "icao": "LYPG",
      "alert": "OK",
      "vis_m": 9999,
      "fzfg": false,
      "metar_trigger": false,
      "taf_trigger": false,
      "metar": "METAR LYPG 040900Z VRB02KT 9999 FEW030 23/13 Q1011 NOSIG",
      "taf": "TAF LYPG 040500Z 0406/0506 16005KT 9999 SCT030 TX26/0413Z TN14/0504Z"
    },
    {
      "icao": "LZIB",
      "alert": "OK",
      "vis_m": 9999,
      "fzfg": false,
      "metar_trigger": false,
      "taf_trigger": false,
      "metar": "METAR LZIB 040900Z VRB04KT 9999 FEW045 22/10 Q1011 NOSIG",
      "taf": "TAF LZIB 040515Z 0406/0506 31008KT CAVOK"
    },
    {
      "icao": "LZKZ",
      "alert": "OK",
      "vis_m": 9999,
      "fzfg": false,
      "metar_trigger": false,
      "taf_trigger": false,
      "metar": "METAR LZKZ 040900Z VRB03KT 9999 FEW034 23/16 Q1010 NOSIG",
      "taf": "TAF LZKZ 040515Z 0406/0506 02006KT CAVOK"
    },
    {
      "icao": "LZTT",
      "alert": "OK",
      "vis_m": 9999,
      "fzfg": false,
      "metar_trigger": false,
      "taf_trigger": false,
      "metar": "METAR LZTT 040900Z 07004KT 040V160 9999 FEW011 SCT043 BKN080 17/15 Q1011 NOSIG",
      "taf": ""
    },
    {
      "icao": "OEJN",
      "alert": "OK",
      "vis_m": 9999,
      "fzfg": false,
      "metar_trigger": false,
      "taf_trigger": false,
      "metar": "METAR OEJN 040900Z 21009KT CAVOK 36/21 Q1008 NOSIG",
      "taf": "TAF OEJN 040500Z 0406/0512 24014KT 7000 NSC"
    },
    {
      "icao": "OEMA",
      "alert": "OK",
      "vis_m": 9999,
      "fzfg": false,
      "metar_trigger": false,
      "taf_trigger": false,
      "metar": "METAR OEMA 040900Z 06008KT CAVOK 41/M02 Q1014 NOSIG",
      "taf": "TAF OEMA 040500Z 0406/0512 09014KT 7000 NSC"
    },
    {
      "icao": "OJAI",
      "alert": "OK",
      "vis_m": 5000,
      "fzfg": false,
      "metar_trigger": false,
      "taf_trigger": false,
      "metar": "METAR OJAI 040800Z 30010KT 5000 HZ NSC 29/07 Q1018 NOSIG",
      "taf": "TAF OJAI 040500Z 0406/0512 30012KT 5000 HZ NSC"
    },
    {
      "icao": "OMAA",
      "alert": "OK",
      "vis_m": 9999,
      "fzfg": false,
      "metar_trigger": false,
      "taf_trigger": false,
      "metar": "METAR OMAA 040900Z 31013KT CAVOK 38/21 Q1001 NOSIG",
      "taf": "TAF OMAA 040500Z 0406/0512 29012KT 8000 NSC"
    },
    {
      "icao": "OMDB",
      "alert": "OK",
      "vis_m": 9999,
      "fzfg": false,
      "metar_trigger": false,
      "taf_trigger": false,
      "metar": "METAR OMDB 040900Z 32006KT 240V010 CAVOK 42/18 Q1000 NOSIG",
      "taf": "TAF OMDB 040500Z 0406/0512 22008KT 8000 NSC"
    },
    {
      "icao": "UAAA",
      "alert": "OK",
      "vis_m": 9999,
      "fzfg": false,
      "metar_trigger": false,
      "taf_trigger": false,
      "metar": "METAR UAAA 040830Z 07004MPS 360V120 9999 FEW050CB SCT100 BKN200 30/08 Q1013 NOSIG",
      "taf": "TAF UAAA 040507Z 0406/0506 01002G07MPS 9999 SCT050CB BKN100 TX30/0409Z TN18/0501Z"
    },
    {
      "icao": "UBBB",
      "alert": "OK",
      "vis_m": 9999,
      "fzfg": false,
      "metar_trigger": false,
      "taf_trigger": false,
      "metar": "METAR UBBB 040900Z 16012KT CAVOK 25/08 Q1015 NOSIG",
      "taf": "TAF UBBB 040458Z 0406/0506 15012KT CAVOK TX24/0410Z TN15/0500Z"
    },
    {
      "icao": "UDSG",
      "alert": "OK",
      "vis_m": 9999,
      "fzfg": false,
      "metar_trigger": false,
      "taf_trigger": false,
      "metar": "METAR UDSG 040830Z 20006KT 150V260 9999 SCT046CB 20/07 Q1019 NOSIG",
      "taf": "TAF UDSG 040458Z 0406/0506 24006KT 9999 SCT050"
    },
    {
      "icao": "UDYZ",
      "alert": "OK",
      "vis_m": 9999,
      "fzfg": false,
      "metar_trigger": false,
      "taf_trigger": false,
      "metar": "METAR UDYZ 040830Z 14005KT 070V230 9999 FEW046TCU 25/09 Q1015 NOSIG",
      "taf": "TAF UDYZ 040500Z 0406/0506 16006KT 9999 FEW040"
    },
    {
      "icao": "UGKO",
      "alert": "OK",
      "vis_m": 9999,
      "fzfg": false,
      "metar_trigger": false,
      "taf_trigger": false,
      "metar": "METAR UGKO 040830Z 11005KT 050V200 CAVOK 26/14 Q1012 NOSIG",
      "taf": "TAF UGKO 040500Z 0406/0506 09007KT CAVOK TX29/0411Z TN13/0502Z"
    }
  ]
}