{
  "ts_utc": "2026-02-15T19:57:42Z",
  "threshold_m": 150,
  "source": "stations_override.txt (ICAO list) + aviationweather.gov (METAR/TAF raw)",
  "station_count": 159,
  "stations": [
    {
      "icao": "BIKF",
      "alert": "OK",
      "vis_m": 9999,
      "fzfg": false,
      "metar_trigger": false,
      "taf_trigger": false,
      "metar": "METAR BIKF 151930Z 12003KT CAVOK M05/M11 Q1002",
      "taf": "TAF BIKF 151956Z 1521/1621 04008KT CAVOK TXM01/1616Z TNM06/1521Z"
    },
    {
      "icao": "BKPR",
      "alert": "OK",
      "vis_m": null,
      "fzfg": false,
      "metar_trigger": false,
      "taf_trigger": false,
      "metar": "",
      "taf": ""
    },
    {
      "icao": "EBCI",
      "alert": "OK",
      "vis_m": 9000,
      "fzfg": false,
      "metar_trigger": false,
      "taf_trigger": false,
      "metar": "METAR EBCI 151950Z 18010KT 9000 -SNRA FEW005 BKN008 00/00 Q0997 TEMPO BKN004",
      "taf": "TAF EBCI 151700Z 1518/1624 18012KT 2000 -SN BKN006"
    },
    {
      "icao": "EDDB",
      "alert": "OK",
      "vis_m": 9999,
      "fzfg": false,
      "metar_trigger": false,
      "taf_trigger": false,
      "metar": "METAR EDDB 151950Z AUTO 13007KT CAVOK M04/M08 Q1011 NOSIG",
      "taf": "TAF EDDB 151700Z 1518/1618 11008KT CAVOK"
    },
    {
      "icao": "EDDH",
      "alert": "OK",
      "vis_m": 9999,
      "fzfg": false,
      "metar_trigger": false,
      "taf_trigger": false,
      "metar": "METAR EDDH 151950Z AUTO 13014KT CAVOK M02/M07 Q1006 NOSIG",
      "taf": "TAF EDDH 151700Z 1518/1624 13013KT CAVOK"
    },
    {
      "icao": "EDDK",
      "alert": "OK",
      "vis_m": 3500,
      "fzfg": false,
      "metar_trigger": false,
      "taf_trigger": false,
      "metar": "METAR EDDK 151950Z AUTO 12008KT 090V150 3500 SN BR BKN004 00/00 Q1000 TEMPO 2000",
      "taf": "TAF EDDK 151700Z 1518/1624 14012KT 3500 -SN OVC009"
    },
    {
      "icao": "EDDN",
      "alert": "OK",
      "vis_m": 9999,
      "fzfg": false,
      "metar_trigger": false,
      "taf_trigger": false,
      "metar": "METAR EDDN 151950Z AUTO 13011KT CAVOK M01/M06 Q1006 NOSIG",
      "taf": "TAF EDDN 151700Z 1518/1618 14005KT 9999 BKN030"
    },
    {
      "icao": "EDDS",
      "alert": "OK",
      "vis_m": 3200,
      "fzfg": false,
      "metar_trigger": false,
      "taf_trigger": false,
      "metar": "METAR EDDS 151950Z AUTO 15006KT 130V190 3200 SHSN BR BKN005 BKN017 FEW///TCU 01/M01 Q1003 TEMPO -SN BKN005",
      "taf": "TAF EDDS 151700Z 1518/1618 13005KT 9999 BKN030"
    },
    {
      "icao": "EDFH",
      "alert": "OK",
      "vis_m": 1800,
      "fzfg": false,
      "metar_trigger": false,
      "taf_trigger": false,
      "metar": "METAR EDFH 151950Z 14016KT 1800 SN BR OVC002 M01/M02 Q0998",
      "taf": ""
    },
    {
      "icao": "EDJA",
      "alert": "OK",
      "vis_m": 9999,
      "fzfg": false,
      "metar_trigger": false,
      "taf_trigger": false,
      "metar": "METAR EDJA 151950Z 11005KT 9999 FEW043 M01/M03 Q1004",
      "taf": "TAF EDJA 151700Z 1518/1603 12005KT 9999 SCT025"
    },
    {
      "icao": "EDLW",
      "alert": "OK",
      "vis_m": 9999,
      "fzfg": false,
      "metar_trigger": false,
      "taf_trigger": false,
      "metar": "METAR EDLW 151950Z 12008KT 090V150 9999 -SN BKN025 OVC038 01/M03 Q1000",
      "taf": "TAF EDLW 151700Z 1518/1618 15010KT 9999 BKN030"
    },
    {
      "icao": "EDNY",
      "alert": "OK",
      "vis_m": 7000,
      "fzfg": false,
      "metar_trigger": false,
      "taf_trigger": false,
      "metar": "METAR EDNY 151950Z AUTO VRB02KT 7000 // OVC022/// 01/M00 Q1005",
      "taf": "TAF EDNY 151700Z 1518/1603 06004KT 9999 SCT040"
    },
    {
      "icao": "EDSB",
      "alert": "OK",
      "vis_m": 9999,
      "fzfg": false,
      "metar_trigger": false,
      "taf_trigger": false,
      "metar": "METAR EDSB 151950Z 15004KT 9999 -RA FEW009 BKN037 OVC040 02/01 Q1002 RERA",
      "taf": "TAF EDSB 151700Z 1518/1618 16005KT 9999 BKN030"
    },
    {
      "icao": "EETN",
      "alert": "OK",
      "vis_m": 9999,
      "fzfg": false,
      "metar_trigger": false,
      "taf_trigger": false,
      "metar": "METAR EETN 151950Z VRB02KT 9999 OVC021 M05/M07 Q1014 NOSIG",
      "taf": "TAF EETN 151730Z 1518/1618 25009KT 9999 OVC025"
    },
    {
      "icao": "EFTU",
      "alert": "OK",
      "vis_m": 9999,
      "fzfg": false,
      "metar_trigger": false,
      "taf_trigger": false,
      "metar": "METAR EFTU 151950Z AUTO 10002KT 9999 SCT011 M15/M16 Q1013",
      "taf": "TAF EFTU 151735Z 1518/1618 VRB02KT CAVOK"
    },
    {
      "icao": "EGBB",
      "alert": "OK",
      "vis_m": 9999,
      "fzfg": false,
      "metar_trigger": false,
      "taf_trigger": false,
      "metar": "METAR EGBB 151950Z 24007KT 210V270 CAVOK 06/04 Q0993",
      "taf": "TAF EGBB 151704Z 1518/1618 25009KT 9999 FEW030"
    },
    {
      "icao": "EGGP",
      "alert": "OK",
      "vis_m": 9999,
      "fzfg": false,
      "metar_trigger": false,
      "taf_trigger": false,
      "metar": "METAR EGGP 151950Z 24008KT 9999 FEW036 05/03 Q0992",
      "taf": "TAF EGGP 151703Z 1518/1618 26012KT 9999 FEW025"
    },
    {
      "icao": "EGGW",
      "alert": "OK",
      "vis_m": 9999,
      "fzfg": false,
      "metar_trigger": false,
      "taf_trigger": false,
      "metar": "METAR EGGW 151950Z AUTO 24009KT 9999 SCT034 OVC043 06/04 Q0994",
      "taf": "TAF EGGW 151656Z 1518/1618 25012KT 9999 BKN003"
    },
    {
      "icao": "EGKK",
      "alert": "OK",
      "vis_m": 5000,
      "fzfg": false,
      "metar_trigger": false,
      "taf_trigger": false,
      "metar": "METAR EGKK 151950Z 27009KT 240V320 5000 RA SCT014 BKN020 08/07 Q0995",
      "taf": "TAF EGKK 151656Z 1518/1624 24008KT 9999 SCT018"
    },
    {
      "icao": "EGNM",
      "alert": "OK",
      "vis_m": 9999,
      "fzfg": false,
      "metar_trigger": false,
      "taf_trigger": false,
      "metar": "METAR EGNM 151950Z 25010KT 9999 FEW012 SCT040 05/04 Q0989",
      "taf": "TAF EGNM 151702Z 1518/1618 26009KT 9999 SCT015"
    },
    {
      "icao": "EGPD",
      "alert": "OK",
      "vis_m": 9999,
      "fzfg": false,
      "metar_trigger": false,
      "taf_trigger": false,
      "metar": "METAR EGPD 151950Z COR AUTO 20004KT 9999 NCD 02/01 Q0986 NOSIG",
      "taf": "TAF EGPD 151655Z 1518/1618 17008KT 9999 SCT020"
    },
    {
      "icao": "EGPF",
      "alert": "OK",
      "vis_m": 9999,
      "fzfg": false,
      "metar_trigger": false,
      "taf_trigger": false,
      "metar": "METAR EGPF 151950Z AUTO VRB01KT 9999 BKN021/// OVC034/// //////CB 04/03 Q0988",
      "taf": "TAF EGPF 151701Z 1518/1618 26005KT 9999 FEW015 SCT030"
    },
    {
      "icao": "EHBK",
      "alert": "OK",
      "vis_m": 4300,
      "fzfg": false,
      "metar_trigger": false,
      "taf_trigger": false,
      "metar": "METAR EHBK 151925Z AUTO 16007KT 4300 -SN FEW004/// BKN007/// BKN008/// 00/00 Q0999 BECMG BR",
      "taf": "TAF EHBK 151719Z 1518/1624 16010KT 1000 SN BKN004"
    },
    {
      "icao": "EHEH",
      "alert": "OK",
      "vis_m": 2600,
      "fzfg": false,
      "metar_trigger": false,
      "taf_trigger": false,
      "metar": "METAR EHEH 151925Z AUTO 14007KT 090V180 2600 R21/P3000U -SN SCT003 BKN005 OVC006 00/00 Q0999 YLO TEMPO 2000 -SN SCT004 BKN006 RMK TREND REMOTE BY EHWX",
      "taf": "TAF EHEH 151740Z 1518/1624 16010G20KT 2500 -SN SNRA BKN006 OVC008"
    },
    {
      "icao": "EKBI",
      "alert": "OK",
      "vis_m": 9999,
      "fzfg": false,
      "metar_trigger": false,
      "taf_trigger": false,
      "metar": "METAR EKBI 151950Z AUTO 13017G27KT 100V160 9999 SCT016/// BKN110/// M03/M06 Q1005",
      "taf": "TAF EKBI 151727Z 1518/1618 15015KT CAVOK"
    },
    {
      "icao": "EKCH",
      "alert": "OK",
      "vis_m": 9999,
      "fzfg": false,
      "metar_trigger": false,
      "taf_trigger": false,
      "metar": "METAR EKCH 151950Z AUTO 15015KT 9999 BKN030/// M01/M07 Q1012 NOSIG",
      "taf": "TAF EKCH 151727Z 1518/1618 15012KT CAVOK"
    },
    {
      "icao": "ENAL",
      "alert": "OK",
      "vis_m": 9999,
      "fzfg": false,
      "metar_trigger": false,
      "taf_trigger": false,
      "metar": "METAR ENAL 151950Z 18017KT CAVOK 05/M05 Q0992",
      "taf": "TAF ENAL 151700Z 1518/1603 17018KT CAVOK"
    },
    {
      "icao": "ENBR",
      "alert": "OK",
      "vis_m": 9999,
      "fzfg": false,
      "metar_trigger": false,
      "taf_trigger": false,
      "metar": "METAR ENBR 151950Z 15025G38KT 9999 SCT030 SCT043 02/M05 Q0997 TEMPO 15022KT RMK WIND 1200FT 15037G50KT",
      "taf": "TAF ENBR 151700Z 1518/1618 14022KT 9999 SCT012 BKN030"
    },
    {
      "icao": "ENGM",
      "alert": "OK",
      "vis_m": 8000,
      "fzfg": false,
      "metar_trigger": false,
      "taf_trigger": false,
      "metar": "METAR ENGM 151950Z VRB01KT 8000 -SN OVC007 M10/M11 Q1007 TEMPO 4000",
      "taf": ""
    },
    {
      "icao": "ENHD",
      "alert": "OK",
      "vis_m": 9999,
      "fzfg": false,
      "metar_trigger": false,
      "taf_trigger": false,
      "metar": "METAR ENHD 151950Z 14023KT 9999 FEW029 02/M04 Q0997",
      "taf": "TAF ENHD 151400Z 1515/1523 15018KT 9999 SCT008 BKN018"
    },
    {
      "icao": "ENTC",
      "alert": "OK",
      "vis_m": 9999,
      "fzfg": false,
      "metar_trigger": false,
      "taf_trigger": false,
      "metar": "METAR ENTC 151950Z 00000KT 9999 SCT033 M04/M08 Q0998 NOSIG RMK WIND 2600FT 17008KT",
      "taf": "TAF ENTC 151700Z 1518/1618 18010KT 9999 BKN030"
    },
    {
      "icao": "ENTO",
      "alert": "OK",
      "vis_m": 9999,
      "fzfg": false,
      "metar_trigger": false,
      "taf_trigger": false,
      "metar": "METAR ENTO 151950Z 17018KT 9999 -SN OVC008 M02/M03 Q1008 TEMPO 4000",
      "taf": "TAF ENTO 151700Z 1518/1618 18015KT 9999 -SN OVC018"
    },
    {
      "icao": "ENVA",
      "alert": "OK",
      "vis_m": 9999,
      "fzfg": false,
      "metar_trigger": false,
      "taf_trigger": false,
      "metar": "METAR ENVA 151950Z 11009KT 090V150 CAVOK M02/M11 Q0999 RMK WIND 670FT 15016G28KT",
      "taf": "TAF ENVA 151700Z 1518/1618 08008KT CAVOK"
    },
    {
      "icao": "ENZV",
      "alert": "OK",
      "vis_m": 9999,
      "fzfg": false,
      "metar_trigger": false,
      "taf_trigger": false,
      "metar": "METAR ENZV 151950Z 14021KT 9999 VCSH NSC 01/M06 Q0999 TEMPO 16025G35KT",
      "taf": "TAF ENZV 151700Z 1518/1618 16022KT 9999 SCT035"
    },
    {
      "icao": "EPGD",
      "alert": "OK",
      "vis_m": 9999,
      "fzfg": false,
      "metar_trigger": false,
      "taf_trigger": false,
      "metar": "METAR EPGD 151930Z VRB05KT CAVOK M12/M14 Q1015",
      "taf": "TAF EPGD 151730Z 1518/1618 10008KT CAVOK"
    },
    {
      "icao": "EPKK",
      "alert": "OK",
      "vis_m": 9999,
      "fzfg": false,
      "metar_trigger": false,
      "taf_trigger": false,
      "metar": "METAR EPKK 151930Z 33005KT 300V010 9999 -SN OVC019 M04/M09 Q1012",
      "taf": "TAF EPKK 151730Z 1518/1618 35007KT 9999 OVC021"
    },
    {
      "icao": "EPKT",
      "alert": "OK",
      "vis_m": 9999,
      "fzfg": false,
      "metar_trigger": false,
      "taf_trigger": false,
      "metar": "METAR EPKT 151930Z 02006KT 9999 -SN SCT015 OVC020 M06/M09 Q1012",
      "taf": "TAF EPKT 151730Z 1518/1618 35007KT 9999 OVC022"
    },
    {
      "icao": "EPLB",
      "alert": "OK",
      "vis_m": 9999,
      "fzfg": false,
      "metar_trigger": false,
      "taf_trigger": false,
      "metar": "METAR EPLB 151930Z 33005KT 9999 -SN NSC M08/M09 Q1011",
      "taf": "TAF EPLB 151730Z 1518/1618 36010KT 4000 -SN BR SCT010 BKN025"
    },
    {
      "icao": "EPMO",
      "alert": "OK",
      "vis_m": 9999,
      "fzfg": false,
      "metar_trigger": false,
      "taf_trigger": false,
      "metar": "METAR EPMO 151930Z 36005KT CAVOK M10/M12 Q1014",
      "taf": "TAF EPMO 151730Z 1518/1618 01007KT CAVOK"
    },
    {
      "icao": "EPPO",
      "alert": "OK",
      "vis_m": 9999,
      "fzfg": false,
      "metar_trigger": false,
      "taf_trigger": false,
      "metar": "METAR EPPO 151930Z 07004KT CAVOK M09/M10 Q1014",
      "taf": "TAF EPPO 151730Z 1518/1618 06006KT 9999 FEW025"
    },
    {
      "icao": "EPRA",
      "alert": "OK",
      "vis_m": 9999,
      "fzfg": false,
      "metar_trigger": false,
      "taf_trigger": false,
      "metar": "METAR EPRA 151930Z 33006KT 9999 BKN020 M08/M11 Q1013",
      "taf": "TAF EPRA 151730Z 1518/1603 35008KT 9999 BKN023"
    },
    {
      "icao": "EPRZ",
      "alert": "OK",
      "vis_m": 9999,
      "fzfg": false,
      "metar_trigger": false,
      "taf_trigger": false,
      "metar": "METAR EPRZ 151930Z 33008KT 9999 -SN OVC012 M07/M09 Q1011",
      "taf": "TAF EPRZ 151730Z 1518/1618 34010KT 6000 SCT008 BKN016"
    },
    {
      "icao": "EPSC",
      "alert": "OK",
      "vis_m": 9999,
      "fzfg": false,
      "metar_trigger": false,
      "taf_trigger": false,
      "metar": "METAR EPSC 151930Z 12006KT CAVOK M05/M10 Q1013",
      "taf": "TAF EPSC 151730Z 1518/1618 11006KT CAVOK"
    },
    {
      "icao": "EPSY",
      "alert": "OK",
      "vis_m": 9999,
      "fzfg": false,
      "metar_trigger": false,
      "taf_trigger": false,
      "metar": "METAR EPSY 151930Z 01006KT CAVOK M14/M17 Q1015",
      "taf": "TAF EPSY 151730Z 1518/1603 02008KT CAVOK"
    },
    {
      "icao": "EPWA",
      "alert": "OK",
      "vis_m": 9999,
      "fzfg": false,
      "metar_trigger": false,
      "taf_trigger": false,
      "metar": "METAR EPWA 151930Z 03008KT 360V060 CAVOK M07/M13 Q1014 NOSIG",
      "taf": "TAF EPWA 151730Z 1518/1618 01008KT CAVOK"
    },
    {
      "icao": "EPWR",
      "alert": "OK",
      "vis_m": 9999,
      "fzfg": false,
      "metar_trigger": false,
      "taf_trigger": false,
      "metar": "METAR EPWR 151930Z VRB02KT 9999 BKN035 M04/M10 Q1014",
      "taf": "TAF EPWR 151730Z 1518/1618 04006KT 9999 BKN035"
    },
    {
      "icao": "ESGG",
      "alert": "OK",
      "vis_m": 9999,
      "fzfg": false,
      "metar_trigger": false,
      "taf_trigger": false,
      "metar": "METAR ESGG 151950Z 15007KT CAVOK M06/M11 Q1010",
      "taf": "TAF ESGG 151730Z 1518/1618 16010KT CAVOK"
    },
    {
      "icao": "ESKN",
      "alert": "OK",
      "vis_m": 9999,
      "fzfg": false,
      "metar_trigger": false,
      "taf_trigger": false,
      "metar": "METAR ESKN 151950Z 16004KT CAVOK M10/M11 Q1014",
      "taf": "TAF ESKN 151730Z 1518/1618 14005KT CAVOK"
    },
    {
      "icao": "ESMS",
      "alert": "OK",
      "vis_m": 9999,
      "fzfg": false,
      "metar_trigger": false,
      "taf_trigger": false,
      "metar": "METAR ESMS 151950Z 13010KT 9999 BKN026 M03/M08 Q1011",
      "taf": "TAF ESMS 151727Z 1518/1618 15008KT CAVOK"
    },
    {
      "icao": "ESSA",
      "alert": "OK",
      "vis_m": 9999,
      "fzfg": false,
      "metar_trigger": false,
      "taf_trigger": false,
      "metar": "METAR ESSA 151950Z 19006KT CAVOK M09/M11 Q1014 NOSIG",
      "taf": "TAF ESSA 151730Z 1518/1618 24009KT 9999 BKN016"
    },
    {
      "icao": "EYKA",
      "alert": "OK",
      "vis_m": 9999,
      "fzfg": false,
      "metar_trigger": false,
      "taf_trigger": false,
      "metar": "METAR EYKA 151950Z 00000KT 9999 2700W NSC M17/M19 Q1017",
      "taf": ""
    },
    {
      "icao": "EYPA",
      "alert": "OK",
      "vis_m": 9999,
      "fzfg": false,
      "metar_trigger": false,
      "taf_trigger": false,
      "metar": "METAR EYPA 151950Z 11001KT CAVOK M19/M21 Q1018",
      "taf": "TAF EYPA 151700Z 1518/1618 VRB03KT 9000 NSC"
    },
    {
      "icao": "EYVI",
      "alert": "OK",
      "vis_m": 9999,
      "fzfg": false,
      "metar_trigger": false,
      "taf_trigger": false,
      "metar": "METAR EYVI 151950Z 02007KT CAVOK M15/M18 Q1015 NOSIG",
      "taf": "TAF EYVI 151700Z 1518/1618 01007KT 9000 NSC"
    },
    {
      "icao": "GCFV",
      "alert": "OK",
      "vis_m": 9999,
      "fzfg": false,
      "metar_trigger": false,
      "taf_trigger": false,
      "metar": "METAR GCFV 151930Z 01015KT CAVOK 18/14 Q1025",
      "taf": "TAF GCFV 151400Z 1515/1615 03018KT 9999 FEW040 TX24/1614Z TN17/1606Z"
    },
    {
      "icao": "GCLP",
      "alert": "OK",
      "vis_m": 9999,
      "fzfg": false,
      "metar_trigger": false,
      "taf_trigger": false,
      "metar": "METAR GCLP 151930Z 01018KT 9999 FEW030 18/14 Q1025 NOSIG",
      "taf": "TAF GCLP 151400Z 1515/1615 02025KT 9999 SCT035 TX27/1614Z TN16/1606Z"
    },
    {
      "icao": "GCTS",
      "alert": "OK",
      "vis_m": 9999,
      "fzfg": false,
      "metar_trigger": false,
      "taf_trigger": false,
      "metar": "METAR GCTS 151930Z 06018KT 9999 FEW030 18/11 Q1025 NOSIG",
      "taf": "TAF GCTS 151400Z 1515/1615 08028KT 9999 FEW035 TX28/1614Z TN18/1606Z"
    },
    {
      "icao": "GMAD",
      "alert": "OK",
      "vis_m": 9999,
      "fzfg": false,
      "metar_trigger": false,
      "taf_trigger": false,
      "metar": "METAR GMAD 151930Z 00000KT CAVOK 16/09 Q1025 NOSIG",
      "taf": "TAF GMAD 151700Z 1518/1624 20008KT 8000 NSC"
    },
    {
      "icao": "GMMN",
      "alert": "OK",
      "vis_m": 9999,
      "fzfg": false,
      "metar_trigger": false,
      "taf_trigger": false,
      "metar": "METAR GMMN 151930Z 02009KT CAVOK 11/09 Q1031 NOSIG",
      "taf": "TAF GMMN 151100Z 1512/1618 06009KT CAVOK"
    },
    {
      "icao": "GMMX",
      "alert": "OK",
      "vis_m": 9999,
      "fzfg": false,
      "metar_trigger": false,
      "taf_trigger": false,
      "metar": "METAR GMMX 151930Z 10007KT CAVOK 13/05 Q1029 NOSIG",
      "taf": "TAF GMMX 151700Z 1518/1624 24008KT 8000 NSC"
    },
    {
      "icao": "HEGN",
      "alert": "OK",
      "vis_m": 9999,
      "fzfg": false,
      "metar_trigger": false,
      "taf_trigger": false,
      "metar": "METAR HEGN 151900Z 30006KT CAVOK 20/09 Q1017 NOSIG",
      "taf": "TAF HEGN 151700Z 1518/1624 32012KT CAVOK"
    },
    {
      "icao": "HEMA",
      "alert": "OK",
      "vis_m": 9999,
      "fzfg": false,
      "metar_trigger": false,
      "taf_trigger": false,
      "metar": "METAR HEMA 151900Z 31010KT CAVOK 21/01 Q1016 NOSIG",
      "taf": "TAF HEMA 151700Z 1518/1624 30012KT CAVOK"
    },
    {
      "icao": "HESH",
      "alert": "OK",
      "vis_m": 9999,
      "fzfg": false,
      "metar_trigger": false,
      "taf_trigger": false,
      "metar": "METAR HESH 151900Z 32004KT CAVOK 21/05 Q1016 NOSIG",
      "taf": "TAF HESH 151700Z 1518/1624 36012KT CAVOK"
    },
    {
      "icao": "HESX",
      "alert": "OK",
      "vis_m": 9999,
      "fzfg": false,
      "metar_trigger": false,
      "taf_trigger": false,
      "metar": "METAR HESX 151900Z 02006KT CAVOK 19/06 Q1015 NOSIG",
      "taf": "TAF HESX 151700Z 1518/1624 15005KT 6000 NSC"
    },
    {
      "icao": "LATI",
      "alert": "OK",
      "vis_m": 9999,
      "fzfg": false,
      "metar_trigger": false,
      "taf_trigger": false,
      "metar": "METAR LATI 151950Z 12004KT 9999 -RA FEW007 SCT018 OVC045 11/08 Q1004 NOSIG",
      "taf": "TAF LATI 151700Z 1518/1618 VRB05KT 9999 RA SCT025 OVC040 TX15/1612Z TN08/1605Z"
    },
    {
      "icao": "LBPD",
      "alert": "OK",
      "vis_m": 9999,
      "fzfg": false,
      "metar_trigger": false,
      "taf_trigger": false,
      "metar": "METAR LBPD 151930Z AUTO 26006KT 9999 OVC130/// 09/07 Q1002 TEMPO 5000 RA",
      "taf": "TAF LBPD 151700Z 1518/1618 25016KT 9999 SCT030 BKN050"
    },
    {
      "icao": "LBSF",
      "alert": "OK",
      "vis_m": 9999,
      "fzfg": false,
      "metar_trigger": false,
      "taf_trigger": false,
      "metar": "METAR LBSF 151930Z AUTO 29018KT 9999 -RA FEW021/// SCT036/// OVC057/// 05/02 Q1004 TEMPO 5000 RA",
      "taf": "TAF LBSF 151700Z 1518/1618 29014KT 9999 BKN050"
    },
    {
      "icao": "LBWN",
      "alert": "OK",
      "vis_m": 9999,
      "fzfg": false,
      "metar_trigger": false,
      "taf_trigger": false,
      "metar": "METAR LBWN 151930Z AUTO 33004KT 310V010 9999 NSC 08/08 Q0999 TEMPO 5000 BR",
      "taf": "TAF LBWN 151700Z 1518/1618 10010KT 9999 BKN040"
    },
    {
      "icao": "LCLK",
      "alert": "OK",
      "vis_m": 9999,
      "fzfg": false,
      "metar_trigger": false,
      "taf_trigger": false,
      "metar": "METAR LCLK 151930Z 35006KT CAVOK 13/12 Q1020 NOSIG",
      "taf": "TAF LCLK 151730Z 1518/1618 06010KT 9999 FEW025"
    },
    {
      "icao": "LCPH",
      "alert": "OK",
      "vis_m": 9999,
      "fzfg": false,
      "metar_trigger": false,
      "taf_trigger": false,
      "metar": "METAR LCPH 151930Z 10009KT 090V160 9999 FEW030 16/07 Q1017 NOSIG",
      "taf": "TAF LCPH 151730Z 1518/1618 14010KT 9999 FEW020"
    },
    {
      "icao": "LEAL",
      "alert": "OK",
      "vis_m": 9999,
      "fzfg": false,
      "metar_trigger": false,
      "taf_trigger": false,
      "metar": "METAR LEAL 151930Z 31020KT CAVOK 18/03 Q1021 NOSIG",
      "taf": "TAF LEAL 151700Z 1518/1618 29012KT CAVOK TX22/1613Z TN13/1606Z"
    },
    {
      "icao": "LEBB",
      "alert": "OK",
      "vis_m": 9999,
      "fzfg": false,
      "metar_trigger": false,
      "taf_trigger": false,
      "metar": "METAR LEBB 151930Z 08003KT 350V150 9999 BKN048 OVC050 12/10 Q1020 NOSIG",
      "taf": "TAF LEBB 151700Z 1518/1618 20008KT 9999 FEW030 BKN050 TX15/1518Z TN10/1520Z"
    },
    {
      "icao": "LEBL",
      "alert": "OK",
      "vis_m": 9999,
      "fzfg": false,
      "metar_trigger": false,
      "taf_trigger": false,
      "metar": "METAR LEBL 151930Z 27005KT 220V330 CAVOK 12/08 Q1016 NOSIG",
      "taf": "TAF LEBL 151700Z 1518/1618 22009KT 9999 FEW035 TX21/1613Z TN13/1606Z"
    },
    {
      "icao": "LECH",
      "alert": "OK",
      "vis_m": 9999,
      "fzfg": false,
      "metar_trigger": false,
      "taf_trigger": false,
      "metar": "METAR LECH 151930Z AUTO VRB02KT CAVOK 10/03 Q1019",
      "taf": ""
    },
    {
      "icao": "LEMD",
      "alert": "OK",
      "vis_m": 9999,
      "fzfg": false,
      "metar_trigger": false,
      "taf_trigger": false,
      "metar": "METAR LEMD 151930Z 23006G16KT 140V280 9999 FEW045 11/03 Q1024 NOSIG",
      "taf": ""
    },
    {
      "icao": "LEMG",
      "alert": "OK",
      "vis_m": 9999,
      "fzfg": false,
      "metar_trigger": false,
      "taf_trigger": false,
      "metar": "METAR LEMG 151930Z 29021KT 9999 FEW045 15/06 Q1027 NOSIG",
      "taf": "TAF LEMG 151700Z 1518/1618 30012KT CAVOK TX19/1614Z TN12/1607Z"
    },
    {
      "icao": "LEVC",
      "alert": "OK",
      "vis_m": 9999,
      "fzfg": false,
      "metar_trigger": false,
      "taf_trigger": false,
      "metar": "METAR LEVC 151930Z 26017KT CAVOK 16/04 Q1020 NOSIG",
      "taf": "TAF LEVC 151700Z 1518/1618 27014KT CAVOK TX23/1614Z TN13/1606Z"
    },
    {
      "icao": "LEXJ",
      "alert": "OK",
      "vis_m": 9999,
      "fzfg": false,
      "metar_trigger": false,
      "taf_trigger": false,
      "metar": "METAR LEXJ 151930Z 33005KT 290V030 9999 -RA FEW030 BKN040 14/08 Q1020",
      "taf": "TAF LEXJ 151400Z 1515/1615 24009KT 9999 SCT050 BKN070 TX16/1515Z TN11/1601Z"
    },
    {
      "icao": "LEZG",
      "alert": "OK",
      "vis_m": 9999,
      "fzfg": false,
      "metar_trigger": false,
      "taf_trigger": false,
      "metar": "METAR LEZG 151930Z 23007KT CAVOK 10/06 Q1021 NOSIG",
      "taf": "TAF LEZG 151700Z 1518/1618 27012KT CAVOK TX17/1612Z TN11/1606Z"
    },
    {
      "icao": "LEZL",
      "alert": "OK",
      "vis_m": 9999,
      "fzfg": false,
      "metar_trigger": false,
      "taf_trigger": false,
      "metar": "METAR LEZL 151930Z 26007KT 9999 BKN045 14/10 Q1030 NOSIG",
      "taf": "TAF LEZL 151400Z 1515/1615 30008KT CAVOK TX18/1515Z TN06/1607Z"
    },
    {
      "icao": "LFBD",
      "alert": "OK",
      "vis_m": 9999,
      "fzfg": false,
      "metar_trigger": false,
      "taf_trigger": false,
      "metar": "METAR LFBD 151930Z AUTO 29019KT 9999 4200 -RA OVC008 13/12 Q1015 TEMPO 27018G30KT 3000 RA",
      "taf": "TAF LFBD 151700Z 1518/1624 27015KT 9999 BKN012 TX14/1614Z TN10/1621Z"
    },
    {
      "icao": "LFLL",
      "alert": "OK",
      "vis_m": 9999,
      "fzfg": false,
      "metar_trigger": false,
      "taf_trigger": false,
      "metar": "METAR LFLL 151930Z 15003KT 9999 BKN040 04/03 Q1009 RERA NOSIG",
      "taf": "TAF LFLL 151700Z 1518/1624 16010KT 9999 OVC040"
    },
    {
      "icao": "LFLS",
      "alert": "OK",
      "vis_m": 9999,
      "fzfg": false,
      "metar_trigger": false,
      "taf_trigger": false,
      "metar": "METAR LFLS 151930Z AUTO 06013KT 9999 BKN033 BKN040 OVC049 04/03 Q1010 TEMPO 4000 RA",
      "taf": ""
    },
    {
      "icao": "LFMN",
      "alert": "OK",
      "vis_m": 9999,
      "fzfg": false,
      "metar_trigger": false,
      "taf_trigger": false,
      "metar": "METAR LFMN 151930Z 34006KT CAVOK 10/05 Q1006 NOSIG",
      "taf": "TAF LFMN 151400Z 1515/1621 20008KT CAVOK"
    },
    {
      "icao": "LFOB",
      "alert": "OK",
      "vis_m": 9999,
      "fzfg": false,
      "metar_trigger": false,
      "taf_trigger": false,
      "metar": "METAR LFOB 151930Z AUTO 25007KT 9999 BKN007 BKN019 BKN030 05/05 Q0999 TEMPO 27018G35KT 3500 SHRA SCT014 SCT020CB SCT030TCU",
      "taf": ""
    },
    {
      "icao": "LFPO",
      "alert": "OK",
      "vis_m": 9999,
      "fzfg": false,
      "metar_trigger": false,
      "taf_trigger": false,
      "metar": "METAR LFPO 151930Z 25009KT 9999 BKN017 09/08 Q1001 TEMPO 4000 -SHRA SCT030CB",
      "taf": "TAF LFPO 151700Z 1518/1624 25010KT 6000 BKN012"
    },
    {
      "icao": "LFSB",
      "alert": "OK",
      "vis_m": 9999,
      "fzfg": false,
      "metar_trigger": false,
      "taf_trigger": false,
      "metar": "METAR LFSB 151930Z AUTO 12009KT 9999 -RA BKN036/// OVC042/// ///CB 05/03 Q1003 TEMPO 4000 RA BECMG OVC050",
      "taf": "TAF LFSB 151700Z 1518/1618 12008KT 9999 OVC050"
    },
    {
      "icao": "LGAV",
      "alert": "OK",
      "vis_m": 9999,
      "fzfg": false,
      "metar_trigger": false,
      "taf_trigger": false,
      "metar": "METAR LGAV 151950Z 19008KT 9999 FEW020 13/08 Q1008 NOSIG",
      "taf": "TAF LGAV 151700Z 1518/1618 21012KT 9000 FEW015 SCT025"
    },
    {
      "icao": "LGTS",
      "alert": "OK",
      "vis_m": null,
      "fzfg": false,
      "metar_trigger": false,
      "taf_trigger": false,
      "metar": "",
      "taf": "TAF LGTS 151700Z 1518/1618 20013KT 9999 FEW025"
    },
    {
      "icao": "LHBP",
      "alert": "OK",
      "vis_m": 9999,
      "fzfg": false,
      "metar_trigger": false,
      "taf_trigger": false,
      "metar": "METAR LHBP 151930Z 31013KT 9999 BKN040 M00/M05 Q1008 NOSIG",
      "taf": "TAF LHBP 151715Z 1518/1618 31011KT CAVOK"
    },
    {
      "icao": "LHDC",
      "alert": "OK",
      "vis_m": 9999,
      "fzfg": false,
      "metar_trigger": false,
      "taf_trigger": false,
      "metar": "METAR LHDC 151915Z AUTO 36015G27KT CAVOK M01/M07 Q1007 NOSIG",
      "taf": "TAF LHDC 151715Z 1518/1603 36018G30KT CAVOK"
    },
    {
      "icao": "LIBD",
      "alert": "OK",
      "vis_m": 9999,
      "fzfg": false,
      "metar_trigger": false,
      "taf_trigger": false,
      "metar": "METAR LIBD 151950Z 27007KT CAVOK 09/05 Q1007",
      "taf": "TAF LIBD 151700Z 1518/1618 27010KT 9999 FEW030"
    },
    {
      "icao": "LIBG",
      "alert": "OK",
      "vis_m": 9999,
      "fzfg": false,
      "metar_trigger": false,
      "taf_trigger": false,
      "metar": "METAR LIBG 151850Z 27004KT 240V310 CAVOK 10/06 Q1005",
      "taf": "TAF LIBG 151700Z 1518/1603 29010KT 9999 FEW040"
    },
    {
      "icao": "LIBP",
      "alert": "OK",
      "vis_m": 9999,
      "fzfg": false,
      "metar_trigger": false,
      "taf_trigger": false,
      "metar": "METAR LIBP 151950Z AUTO 23004KT 9999 FEW079/// 07/05 Q1009",
      "taf": "TAF LIBP 151700Z 1518/1618 VRB05KT 9999 FEW030 SCT060"
    },
    {
      "icao": "LIBR",
      "alert": "OK",
      "vis_m": 9999,
      "fzfg": false,
      "metar_trigger": false,
      "taf_trigger": false,
      "metar": "METAR LIBR 151950Z 29014KT 9999 BKN030 11/07 Q1005",
      "taf": ""
    },
    {
      "icao": "LICA",
      "alert": "OK",
      "vis_m": 9999,
      "fzfg": false,
      "metar_trigger": false,
      "taf_trigger": false,
      "metar": "METAR LICA 151950Z AUTO 25004KT 210V280 9999 BKN024/// 13/11 Q1008",
      "taf": "TAF LICA 151700Z 1518/1618 28008KT 9999 OVC060"
    },
    {
      "icao": "LICC",
      "alert": "OK",
      "vis_m": 9999,
      "fzfg": false,
      "metar_trigger": false,
      "taf_trigger": false,
      "metar": "METAR LICC 151950Z 29012KT 9999 FEW010 SCT090 13/10 Q1008",
      "taf": "TAF LICC 151700Z 1518/1618 27006KT 9999 SCT020"
    },
    {
      "icao": "LICJ",
      "alert": "OK",
      "vis_m": 9999,
      "fzfg": false,
      "metar_trigger": false,
      "taf_trigger": false,
      "metar": "METAR LICJ 151950Z 28015KT 9999 SCT020 SCT030 14/12 Q1010",
      "taf": "TAF LICJ 151700Z 1518/1618 31016KT 9999 SCT030"
    },
    {
      "icao": "LIMC",
      "alert": "OK",
      "vis_m": 9999,
      "fzfg": false,
      "metar_trigger": false,
      "taf_trigger": false,
      "metar": "METAR LIMC 151950Z 15003KT CAVOK 08/M01 Q1006 NOSIG",
      "taf": "TAF LIMC 151700Z 1518/1624 VRB06KT CAVOK"
    },
    {
      "icao": "LIME",
      "alert": "OK",
      "vis_m": 9999,
      "fzfg": false,
      "metar_trigger": false,
      "taf_trigger": false,
      "metar": "METAR LIME 151950Z 32003KT 290V360 CAVOK 07/02 Q1007 NOSIG",
      "taf": "TAF LIME 151700Z 1518/1618 VRB05KT CAVOK"
    },
    {
      "icao": "LIMF",
      "alert": "OK",
      "vis_m": 9999,
      "fzfg": false,
      "metar_trigger": false,
      "taf_trigger": false,
      "metar": "METAR LIMF 151950Z 30006KT CAVOK 09/M00 Q1006",
      "taf": ""
    },
    {
      "icao": "LIMJ",
      "alert": "OK",
      "vis_m": 9999,
      "fzfg": false,
      "metar_trigger": false,
      "taf_trigger": false,
      "metar": "METAR LIMJ 151950Z 06005KT CAVOK 11/06 Q1007",
      "taf": "TAF LIMJ 151700Z 1518/1618 VRB05KT CAVOK"
    },
    {
      "icao": "LIPE",
      "alert": "OK",
      "vis_m": 9999,
      "fzfg": false,
      "metar_trigger": false,
      "taf_trigger": false,
      "metar": "METAR LIPE 151950Z 15004KT 130V190 CAVOK 08/03 Q1007",
      "taf": "TAF LIPE 151700Z 1518/1618 VRB05KT 9999 FEW060"
    },
    {
      "icao": "LIPH",
      "alert": "OK",
      "vis_m": 9999,
      "fzfg": false,
      "metar_trigger": false,
      "taf_trigger": false,
      "metar": "METAR LIPH 151950Z 01004KT 9999 FEW040 10/04 Q1008",
      "taf": "TAF LIPH 151700Z 1518/1618 04006KT 9999 FEW020 SCT060"
    },
    {
      "icao": "LIPQ",
      "alert": "OK",
      "vis_m": 9999,
      "fzfg": false,
      "metar_trigger": false,
      "taf_trigger": false,
      "metar": "METAR LIPQ 151950Z AUTO 14006KT 9999 BKN075/// 07/M01 Q1008",
      "taf": "TAF LIPQ 151700Z 1518/1618 VRB05KT 9999 FEW060"
    },
    {
      "icao": "LIPR",
      "alert": "OK",
      "vis_m": 9999,
      "fzfg": false,
      "metar_trigger": false,
      "taf_trigger": false,
      "metar": "METAR LIPR 151950Z 16002KT CAVOK 05/04 Q1008",
      "taf": "TAF LIPR 151700Z 1518/1618 VRB05KT CAVOK"
    },
    {
      "icao": "LIPX",
      "alert": "OK",
      "vis_m": 9999,
      "fzfg": false,
      "metar_trigger": false,
      "taf_trigger": false,
      "metar": "METAR LIPX 151950Z 35004KT CAVOK 07/03 Q1007",
      "taf": "TAF LIPX 151700Z 1518/1618 VRB05KT CAVOK"
    },
    {
      "icao": "LIPY",
      "alert": "OK",
      "vis_m": 9999,
      "fzfg": false,
      "metar_trigger": false,
      "taf_trigger": false,
      "metar": "METAR LIPY 151950Z AUTO 18003KT 9999 FEW035/// 07/06 Q1009",
      "taf": "TAF LIPY 151700Z 1518/1618 VRB05KT 9999 FEW020"
    },
    {
      "icao": "LIPZ",
      "alert": "OK",
      "vis_m": 9999,
      "fzfg": false,
      "metar_trigger": false,
      "taf_trigger": false,
      "metar": "METAR LIPZ 151950Z 11003KT 9999 SCT040 09/05 Q1007 NOSIG",
      "taf": "TAF LIPZ 151700Z 1518/1624 VRB05KT 9999 FEW060"
    },
    {
      "icao": "LIRF",
      "alert": "OK",
      "vis_m": 9999,
      "fzfg": false,
      "metar_trigger": false,
      "taf_trigger": false,
      "metar": "METAR LIRF 151950Z 32004KT CAVOK 10/05 Q1008 NOSIG",
      "taf": "TAF LIRF 151700Z 1518/1624 35010KT CAVOK"
    },
    {
      "icao": "LIRN",
      "alert": "OK",
      "vis_m": 9999,
      "fzfg": false,
      "metar_trigger": false,
      "taf_trigger": false,
      "metar": "METAR LIRN 151950Z 02003KT CAVOK 11/06 Q1007 NOSIG",
      "taf": "TAF LIRN 151700Z 1518/1618 VRB06KT 9999 BKN080"
    },
    {
      "icao": "LIRP",
      "alert": "OK",
      "vis_m": 9999,
      "fzfg": false,
      "metar_trigger": false,
      "taf_trigger": false,
      "metar": "METAR LIRP 151945Z 12003KT CAVOK 09/08 Q1008 NOSIG",
      "taf": "TAF LIRP 151700Z 1518/1618 26005KT 9999 FEW040"
    },
    {
      "icao": "LIRZ",
      "alert": "OK",
      "vis_m": 9999,
      "fzfg": false,
      "metar_trigger": false,
      "taf_trigger": false,
      "metar": "METAR LIRZ 151950Z AUTO 36007KT 9999 NCD 05/04 Q1008",
      "taf": "TAF LIRZ 151700Z 1518/1618 02010KT 9999 BKN030"
    },
    {
      "icao": "LJLJ",
      "alert": "OK",
      "vis_m": 9999,
      "fzfg": false,
      "metar_trigger": false,
      "taf_trigger": false,
      "metar": "METAR LJLJ 151930Z 13004KT 9999 FEW050 00/M01 Q1010 NOSIG",
      "taf": "TAF LJLJ 151700Z 1518/1618 02006KT 9999 FEW065"
    },
    {
      "icao": "LKMT",
      "alert": "OK",
      "vis_m": 9999,
      "fzfg": false,
      "metar_trigger": false,
      "taf_trigger": false,
      "metar": "METAR LKMT 151930Z 03005KT 9999 OVC029 M05/M09 Q1012 NOSIG",
      "taf": "TAF LKMT 151700Z 1518/1618 01012KT 9999 BKN025"
    },
    {
      "icao": "LKPR",
      "alert": "OK",
      "vis_m": 9999,
      "fzfg": false,
      "metar_trigger": false,
      "taf_trigger": false,
      "metar": "METAR LKPR 151930Z 10004KT CAVOK M06/M09 Q1010 NOSIG",
      "taf": "TAF LKPR 151700Z 1518/1624 14007KT CAVOK"
    },
    {
      "icao": "LLBG",
      "alert": "OK",
      "vis_m": 9000,
      "fzfg": false,
      "metar_trigger": false,
      "taf_trigger": false,
      "metar": "METAR LLBG 151950Z VRB02KT 9000 NSC 15/06 Q1016 NOSIG",
      "taf": "TAF LLBG 151716Z 1518/1618 VRB04KT CAVOK"
    },
    {
      "icao": "LMML",
      "alert": "OK",
      "vis_m": 9999,
      "fzfg": false,
      "metar_trigger": false,
      "taf_trigger": false,
      "metar": "METAR LMML 151945Z 30023KT 9999 FEW016 14/11 Q1011 NOSIG",
      "taf": "TAF LMML 151700Z 1518/1618 29020G30KT 9999 SCT020"
    },
    {
      "icao": "LOWW",
      "alert": "OK",
      "vis_m": 9999,
      "fzfg": false,
      "metar_trigger": false,
      "taf_trigger": false,
      "metar": "METAR LOWW 151950Z 35011KT 9999 FEW035 M02/M09 Q1012 NOSIG",
      "taf": "TAF LOWW 151715Z 1518/1624 35011KT 9999 FEW030 BKN035 TXM01/1615Z TNM06/1601Z"
    },
    {
      "icao": "LPFR",
      "alert": "OK",
      "vis_m": 9999,
      "fzfg": false,
      "metar_trigger": false,
      "taf_trigger": false,
      "metar": "METAR LPFR 151930Z 30009KT 9999 SCT032 14/10 Q1032",
      "taf": "TAF LPFR 151700Z 1518/1618 27010KT 9999 SCT025"
    },
    {
      "icao": "LPMA",
      "alert": "OK",
      "vis_m": 9999,
      "fzfg": false,
      "metar_trigger": false,
      "taf_trigger": false,
      "metar": "METAR LPMA 151930Z 02015KT 9999 FEW016 16/10 Q1031",
      "taf": "TAF LPMA 151700Z 1518/1618 02015KT 9999 SCT015"
    },
    {
      "icao": "LPPR",
      "alert": "OK",
      "vis_m": 9999,
      "fzfg": false,
      "metar_trigger": false,
      "taf_trigger": false,
      "metar": "METAR LPPR 151930Z 23008KT 200V260 9999 FEW012 BKN040 13/11 Q1028",
      "taf": "TAF LPPR 151700Z 1518/1618 22010KT 9999 SCT012 BKN025"
    },
    {
      "icao": "LPPS",
      "alert": "OK",
      "vis_m": 9999,
      "fzfg": false,
      "metar_trigger": false,
      "taf_trigger": false,
      "metar": "METAR LPPS 151930Z 09011KT 9999 FEW015 15/12 Q1031",
      "taf": "TAF LPPS 151700Z 1518/1624 06012KT 9999 SCT015"
    },
    {
      "icao": "LPPT",
      "alert": "OK",
      "vis_m": 9999,
      "fzfg": false,
      "metar_trigger": false,
      "taf_trigger": false,
      "metar": "METAR LPPT 151930Z 26006KT 210V290 9999 FEW012 BKN016 13/11 Q1031",
      "taf": "TAF LPPT 151700Z 1518/1624 29012KT 9999 SCT025"
    },
    {
      "icao": "LQBK",
      "alert": "OK",
      "vis_m": 9999,
      "fzfg": false,
      "metar_trigger": false,
      "taf_trigger": false,
      "metar": "METAR LQBK 151930Z 28005KT CAVOK 01/M03 Q1012 NOSIG",
      "taf": "TAF LQBK 151700Z 1518/1618 26005KT CAVOK TX06/1613Z TNM05/1606Z"
    },
    {
      "icao": "LQSA",
      "alert": "OK",
      "vis_m": 9999,
      "fzfg": false,
      "metar_trigger": false,
      "taf_trigger": false,
      "metar": "METAR LQSA 151930Z 31006KT 9999 FEW020 OVC030 01/M01 Q1010 NOSIG",
      "taf": "TAF LQSA 151700Z 1518/1618 31005KT 9999 SCT020 BKN030 TX08/1614Z TNM04/1605Z"
    },
    {
      "icao": "LQTZ",
      "alert": "OK",
      "vis_m": 9000,
      "fzfg": false,
      "metar_trigger": false,
      "taf_trigger": false,
      "metar": "METAR LQTZ 151930Z 31006KT 9000 -SN FEW005 BKN015 BKN025 01/00 Q1012",
      "taf": "TAF LQTZ 151700Z 1518/1618 27005KT 9999 FEW010 BKN020 TX05/1613Z TNM06/1605Z"
    },
    {
      "icao": "LRBC",
      "alert": "OK",
      "vis_m": 5000,
      "fzfg": false,
      "metar_trigger": false,
      "taf_trigger": false,
      "metar": "METAR LRBC 151930Z 34020KT 5000 -SN BR OVC017 00/M01 Q1001",
      "taf": "TAF LRBC 151700Z 1518/1603 34016KT 5000 -SN BR BKN010 OVC020"
    },
    {
      "icao": "LRBS",
      "alert": "OK",
      "vis_m": 5000,
      "fzfg": false,
      "metar_trigger": false,
      "taf_trigger": false,
      "metar": "METAR LRBS 151930Z 26014KT 5000 BR BKN002 OVC004 09/09 Q0998 NOSIG",
      "taf": "TAF LRBS 151700Z 1518/1618 VRB04KT 0600 -RA FG BKN001"
    },
    {
      "icao": "LRBV",
      "alert": "OK",
      "vis_m": 9999,
      "fzfg": false,
      "metar_trigger": false,
      "taf_trigger": false,
      "metar": "METAR LRBV 151930Z 26010KT 210V290 9999 SCT007 BKN013 BKN022 06/04 Q0997",
      "taf": "TAF LRBV 151700Z 1518/1603 28010KT 9999 SCT010 BKN050"
    },
    {
      "icao": "LRCL",
      "alert": "OK",
      "vis_m": 9999,
      "fzfg": false,
      "metar_trigger": false,
      "taf_trigger": false,
      "metar": "METAR LRCL 151930Z 27016KT 9999 -SN OVC013 01/M01 Q1001",
      "taf": "TAF LRCL 151700Z 1518/1603 29015KT 9999 BKN010 OVC025"
    },
    {
      "icao": "LRCV",
      "alert": "OK",
      "vis_m": 9999,
      "fzfg": false,
      "metar_trigger": false,
      "taf_trigger": false,
      "metar": "METAR LRCV 151930Z 28018KT 9999 FEW008 SCT013 BKN030 05/03 Q1001",
      "taf": "TAF LRCV 151700Z 1518/1603 26017KT 3000 -RA BR OVC001"
    },
    {
      "icao": "LRIA",
      "alert": "OK",
      "vis_m": 2500,
      "fzfg": false,
      "metar_trigger": false,
      "taf_trigger": false,
      "metar": "METAR LRIA 151930Z 30017KT 2500 SN OVC006 M00/M01 Q1000",
      "taf": "TAF LRIA 151700Z 1518/1603 31012KT 5000 -RA BR OVC005"
    },
    {
      "icao": "LROP",
      "alert": "OK",
      "vis_m": 6000,
      "fzfg": false,
      "metar_trigger": false,
      "taf_trigger": false,
      "metar": "METAR LROP 151930Z 25014KT 6000 OVC005 09/09 Q0997 NOSIG",
      "taf": "TAF LROP 151700Z 1518/1618 VRB04KT 0600 -RA FG BKN001"
    },
    {
      "icao": "LRSB",
      "alert": "OK",
      "vis_m": 9000,
      "fzfg": false,
      "metar_trigger": false,
      "taf_trigger": false,
      "metar": "METAR LRSB 151930Z 36010KT 9000 -DZRA SCT004 OVC007 04/04 Q0999",
      "taf": "TAF LRSB 151700Z 1518/1618 30010KT 5000 -RA BR BKN005 OVC010"
    },
    {
      "icao": "LRSM",
      "alert": "OK",
      "vis_m": 9999,
      "fzfg": false,
      "metar_trigger": false,
      "taf_trigger": false,
      "metar": "METAR LRSM 151930Z AUTO 34015KT 9999 FEW031/// SCT095/// M00/M05 Q1004",
      "taf": ""
    },
    {
      "icao": "LRSV",
      "alert": "OK",
      "vis_m": 4000,
      "fzfg": false,
      "metar_trigger": false,
      "taf_trigger": false,
      "metar": "METAR LRSV 151930Z 31024KT 4000 -SN BR BKN010 BKN040 M03/M05 Q1001",
      "taf": ""
    },
    {
      "icao": "LRTM",
      "alert": "OK",
      "vis_m": 9999,
      "fzfg": false,
      "metar_trigger": false,
      "taf_trigger": false,
      "metar": "METAR LRTM 151930Z AUTO 28012KT 9999 -RA FEW008/// SCT010/// BKN018/// 03/01 Q1000",
      "taf": "TAF LRTM 151700Z 1518/1603 26005KT 9999 BKN010 OVC025"
    },
    {
      "icao": "LRTR",
      "alert": "OK",
      "vis_m": 9999,
      "fzfg": false,
      "metar_trigger": false,
      "taf_trigger": false,
      "metar": "METAR LRTR 151930Z 34017KT 9999 FEW017 SCT024 BKN030 01/M01 Q1007",
      "taf": "TAF LRTR 151700Z 1518/1618 34014KT 9999 BKN007 BKN030"
    },
    {
      "icao": "LTAC",
      "alert": "OK",
      "vis_m": 9999,
      "fzfg": false,
      "metar_trigger": false,
      "taf_trigger": false,
      "metar": "METAR LTAC 151950Z VRB05KT CAVOK 12/02 Q1013 NOSIG",
      "taf": "TAF LTAC 151640Z 1518/1618 VRB02KT CAVOK"
    },
    {
      "icao": "LTFM",
      "alert": "OK",
      "vis_m": 9999,
      "fzfg": false,
      "metar_trigger": false,
      "taf_trigger": false,
      "metar": "METAR LTFM 151950Z 25022KT 9999 -SHRA BKN040 BKN080 15/09 Q1005 NOSIG",
      "taf": "TAF LTFM 151640Z 1518/1624 22023G35KT 9999 SCT040 BKN100"
    },
    {
      "icao": "LUKK",
      "alert": "OK",
      "vis_m": 9999,
      "fzfg": false,
      "metar_trigger": false,
      "taf_trigger": false,
      "metar": "METAR LUKK 151930Z 31011KT 9999 -RA BKN008 OVC022 03/02 Q0998 NOSIG",
      "taf": "TAF LUKK 151723Z 1518/1618 32014KT 3000 -RA BR BKN003"
    },
    {
      "icao": "LWOH",
      "alert": "OK",
      "vis_m": 9999,
      "fzfg": false,
      "metar_trigger": false,
      "taf_trigger": false,
      "metar": "METAR LWOH 151950Z VRB01KT 9999 FEW015 BKN037 06/05 Q1004",
      "taf": "TAF LWOH 151745Z 1518/1618 24010KT 9999 FEW020 BKN040"
    },
    {
      "icao": "LWSK",
      "alert": "OK",
      "vis_m": 9999,
      "fzfg": false,
      "metar_trigger": false,
      "taf_trigger": false,
      "metar": "METAR LWSK 151950Z 02016KT 9999 -RA SCT020 BKN030 OVC080 06/04 Q1006 NOSIG",
      "taf": "TAF LWSK 151745Z 1518/1618 02010KT 9999 SCT060 BKN080"
    },
    {
      "icao": "LYBE",
      "alert": "OK",
      "vis_m": 8000,
      "fzfg": false,
      "metar_trigger": false,
      "taf_trigger": false,
      "metar": "METAR LYBE 151930Z 30012KT 8000 -SN SCT017 BKN040 00/M01 Q1011 NOSIG",
      "taf": "TAF LYBE 151700Z 1518/1618 28010KT 4000 SN BKN003 OVC025 TX07/1613Z TNM03/1606Z"
    },
    {
      "icao": "LYNI",
      "alert": "OK",
      "vis_m": 9999,
      "fzfg": false,
      "metar_trigger": false,
      "taf_trigger": false,
      "metar": "METAR LYNI 151930Z 31007KT 9999 SCT009 BKN015 OVC030 02/01 Q1009 NOSIG",
      "taf": "TAF LYNI 151700Z 1518/1618 33020G30KT 9999 SCT010 BKN040 TX08/1613Z TN01/1606Z"
    },
    {
      "icao": "LYPG",
      "alert": "OK",
      "vis_m": 9999,
      "fzfg": false,
      "metar_trigger": false,
      "taf_trigger": false,
      "metar": "METAR LYPG 151930Z 35012KT 9999 SCT050 BKN070 10/02 Q1004 NOSIG",
      "taf": "TAF LYPG 151700Z 1518/1618 36009KT 9999 SCT040 BKN080 TX13/1612Z TN07/1605Z"
    },
    {
      "icao": "LZIB",
      "alert": "OK",
      "vis_m": 9999,
      "fzfg": false,
      "metar_trigger": false,
      "taf_trigger": false,
      "metar": "METAR LZIB 151930Z 32005KT 220V010 9999 FEW035 M02/M09 Q1012 NOSIG",
      "taf": "TAF LZIB 151715Z 1518/1618 35007KT 9999 FEW025 BKN035"
    },
    {
      "icao": "LZKZ",
      "alert": "OK",
      "vis_m": 9999,
      "fzfg": false,
      "metar_trigger": false,
      "taf_trigger": false,
      "metar": "METAR LZKZ 151930Z 01021KT 9999 SCT027 M03/M07 Q1008 NOSIG",
      "taf": "TAF LZKZ 151715Z 1518/1618 36020KT 9999 FEW025"
    },
    {
      "icao": "LZTT",
      "alert": "OK",
      "vis_m": 9999,
      "fzfg": false,
      "metar_trigger": false,
      "taf_trigger": false,
      "metar": "METAR LZTT 151930Z 23008KT 200V260 9999 FEW016 M06/M10 Q1006 NOSIG",
      "taf": "TAF LZTT 151715Z 1518/1618 16004KT 9999 SCT015 BKN030"
    },
    {
      "icao": "OEJN",
      "alert": "OK",
      "vis_m": 9999,
      "fzfg": false,
      "metar_trigger": false,
      "taf_trigger": false,
      "metar": "METAR OEJN 151900Z VRB03KT CAVOK 27/18 Q1013 NOSIG",
      "taf": "TAF OEJN 151700Z 1518/1624 VRB03KT 7000 NSC"
    },
    {
      "icao": "OEMA",
      "alert": "OK",
      "vis_m": 9999,
      "fzfg": false,
      "metar_trigger": false,
      "taf_trigger": false,
      "metar": "METAR OEMA 151900Z 06011KT CAVOK 27/M02 Q1021 NOSIG",
      "taf": "TAF OEMA 151700Z 1518/1624 09010KT 7000 NSC"
    },
    {
      "icao": "OJAI",
      "alert": "OK",
      "vis_m": 3000,
      "fzfg": false,
      "metar_trigger": false,
      "taf_trigger": false,
      "metar": "METAR OJAI 151900Z 11009KT 3000 DU NSC 13/M01 Q1023 NOSIG",
      "taf": "TAF OJAI 151700Z 1518/1624 13010KT 3000 DU NSC"
    },
    {
      "icao": "OMAA",
      "alert": "OK",
      "vis_m": 9999,
      "fzfg": false,
      "metar_trigger": false,
      "taf_trigger": false,
      "metar": "METAR OMAA 151930Z 28010KT CAVOK 23/18 Q1014 NOSIG",
      "taf": "TAF OMAA 151700Z 1518/1700 28010KT 8000 NSC"
    },
    {
      "icao": "OMDB",
      "alert": "OK",
      "vis_m": 9999,
      "fzfg": false,
      "metar_trigger": false,
      "taf_trigger": false,
      "metar": "METAR OMDB 151930Z 26008KT 230V290 CAVOK 24/17 Q1013 NOSIG",
      "taf": "TAF OMDB 151700Z 1518/1700 28012KT CAVOK"
    },
    {
      "icao": "UAAA",
      "alert": "OK",
      "vis_m": 1500,
      "fzfg": false,
      "metar_trigger": false,
      "taf_trigger": false,
      "metar": "METAR UAAA 151930Z 22003MPS 1500 R23L/P2000N BR BKN100 00/M00 Q1015 NOSIG",
      "taf": "TAF UAAA 151701Z 1518/1618 24003MPS 1100 BR FU BKN003 OVC011 TX03/1609Z TNM02/1602Z"
    },
    {
      "icao": "UBBB",
      "alert": "OK",
      "vis_m": 9999,
      "fzfg": false,
      "metar_trigger": false,
      "taf_trigger": false,
      "metar": "METAR UBBB 151930Z 16004KT 150V230 CAVOK 07/06 Q1024 NOSIG",
      "taf": "TAF UBBB 151705Z 1518/1618 VRB04KT 9999 FEW030 TX15/1610Z TN06/1700Z"
    },
    {
      "icao": "UDSG",
      "alert": "OK",
      "vis_m": 9999,
      "fzfg": false,
      "metar_trigger": false,
      "taf_trigger": false,
      "metar": "METAR UDSG 151930Z 19001KT 9999 NSC M02/M03 Q1026 NOSIG",
      "taf": "TAF UDSG 151658Z 1518/1618 VRB06KT 9999 FEW040"
    },
    {
      "icao": "UDYZ",
      "alert": "OK",
      "vis_m": 9999,
      "fzfg": false,
      "metar_trigger": false,
      "taf_trigger": false,
      "metar": "METAR UDYZ 151930Z 35002KT 9999 NSC 06/01 Q1025 NOSIG",
      "taf": "TAF UDYZ 151700Z 1518/1618 VRB06KT 9999 FEW050"
    },
    {
      "icao": "UGKO",
      "alert": "OK",
      "vis_m": 9999,
      "fzfg": false,
      "metar_trigger": false,
      "taf_trigger": false,
      "metar": "METAR UGKO 151930Z 06016KT CAVOK 13/04 Q1016 NOSIG",
      "taf": "TAF UGKO 151700Z 1518/1618 08020KT CAVOK TX23/1611Z TN11/1603Z"
    }
  ]
}