{
  "ts_utc": "2026-02-04T09:41:08Z",
  "threshold_m": 150,
  "source": "stations_override.txt (ICAO list) + aviationweather.gov (METAR/TAF raw)",
  "station_count": 159,
  "stations": [
    {
      "icao": "BIKF",
      "alert": "OK",
      "vis_m": 9999,
      "fzfg": false,
      "metar_trigger": false,
      "taf_trigger": false,
      "metar": "METAR BIKF 040930Z 08015KT CAVOK 02/M03 Q1009",
      "taf": "TAF BIKF 040754Z 0409/0509 07015KT 9999 FEW030 TX04/0415Z TNM01/0506Z"
    },
    {
      "icao": "BKPR",
      "alert": "OK",
      "vis_m": 9999,
      "fzfg": false,
      "metar_trigger": false,
      "taf_trigger": false,
      "metar": "METAR BKPR 040930Z 16013KT 9999 SCT090 08/05 Q1011 NOSIG",
      "taf": "TAF BKPR 040530Z 0406/0506 17008KT 9999 SCT030 BKN080"
    },
    {
      "icao": "EBCI",
      "alert": "OK",
      "vis_m": 9999,
      "fzfg": false,
      "metar_trigger": false,
      "taf_trigger": false,
      "metar": "METAR EBCI 040920Z 11008KT CAVOK 06/03 Q0996 NOSIG",
      "taf": "TAF EBCI 040520Z 0406/0512 13007KT CAVOK"
    },
    {
      "icao": "EDDB",
      "alert": "OK",
      "vis_m": 9000,
      "fzfg": false,
      "metar_trigger": false,
      "taf_trigger": false,
      "metar": "METAR EDDB 040920Z AUTO 08011KT 9000 OVC012 M06/M09 Q1008 NOSIG",
      "taf": ""
    },
    {
      "icao": "EDDH",
      "alert": "OK",
      "vis_m": 3100,
      "fzfg": false,
      "metar_trigger": false,
      "taf_trigger": false,
      "metar": "METAR EDDH 040920Z AUTO 10012KT 3100 -SN BR FEW013 SCT039 BKN045 M06/M08 Q1007 TEMPO 6000 NSW BKN014",
      "taf": "TAF EDDH 040500Z 0406/0512 09012KT 8000 SCT012 OVC020"
    },
    {
      "icao": "EDDK",
      "alert": "OK",
      "vis_m": 9999,
      "fzfg": false,
      "metar_trigger": false,
      "taf_trigger": false,
      "metar": "METAR EDDK 040920Z AUTO 13007KT 100V170 9999 SCT008 04/02 Q0999 NOSIG",
      "taf": ""
    },
    {
      "icao": "EDDN",
      "alert": "OK",
      "vis_m": 9999,
      "fzfg": false,
      "metar_trigger": false,
      "taf_trigger": false,
      "metar": "METAR EDDN 040920Z AUTO 30003KT CAVOK M00/M02 Q1001 BECMG 07006KT",
      "taf": ""
    },
    {
      "icao": "EDDS",
      "alert": "OK",
      "vis_m": 9999,
      "fzfg": false,
      "metar_trigger": false,
      "taf_trigger": false,
      "metar": "METAR EDDS 040920Z AUTO 28001KT CAVOK 02/M00 Q0997 NOSIG",
      "taf": "TAF EDDS 040500Z 0406/0506 VRB02KT 3000 BR NSC"
    },
    {
      "icao": "EDFH",
      "alert": "OK",
      "vis_m": 250,
      "fzfg": true,
      "metar_trigger": false,
      "taf_trigger": false,
      "metar": "METAR EDFH 040920Z 14012KT 0250 R21/0275N FZFG VV/// M00/M01 Q0998",
      "taf": "TAF EDFH 040500Z 0406/0506 13012KT 0700 FG OVC003"
    },
    {
      "icao": "EDJA",
      "alert": "OK",
      "vis_m": 9999,
      "fzfg": false,
      "metar_trigger": false,
      "taf_trigger": false,
      "metar": "METAR EDJA 040920Z 03009KT CAVOK M00/M01 Q0996",
      "taf": "TAF EDJA 040800Z 0409/0418 05007KT CAVOK"
    },
    {
      "icao": "EDLW",
      "alert": "OK",
      "vis_m": 9999,
      "fzfg": false,
      "metar_trigger": false,
      "taf_trigger": false,
      "metar": "METAR EDLW 040920Z 11006KT CAVOK 06/03 Q0999",
      "taf": "TAF EDLW 040500Z 0406/0506 13008KT CAVOK"
    },
    {
      "icao": "EDNY",
      "alert": "OK",
      "vis_m": 9999,
      "fzfg": false,
      "metar_trigger": false,
      "taf_trigger": false,
      "metar": "METAR EDNY 040920Z 05007KT CAVOK 01/M01 Q0996",
      "taf": "TAF EDNY 040800Z 0409/0418 03005KT CAVOK"
    },
    {
      "icao": "EDSB",
      "alert": "OK",
      "vis_m": 400,
      "fzfg": true,
      "metar_trigger": false,
      "taf_trigger": false,
      "metar": "METAR EDSB 040920Z 02010KT 0400 R21/0800N FZFG VV/// M00/M00 Q0998",
      "taf": "TAF EDSB 040500Z 0406/0506 03004KT 0800 FG VV002"
    },
    {
      "icao": "EETN",
      "alert": "OK",
      "vis_m": 6000,
      "fzfg": false,
      "metar_trigger": false,
      "taf_trigger": false,
      "metar": "METAR EETN 040920Z 08005KT 040V110 6000 1500E R08/P2000N SN OVC011 M11/M13 Q1027 TEMPO 2000",
      "taf": "TAF EETN 040530Z 0406/0506 06006KT 9999 OVC010"
    },
    {
      "icao": "EFTU",
      "alert": "OK",
      "vis_m": 9999,
      "fzfg": false,
      "metar_trigger": false,
      "taf_trigger": false,
      "metar": "METAR EFTU 040920Z AUTO 03002KT CAVOK M13/M16 Q1028",
      "taf": "TAF EFTU 040825Z 0409/0509 04003KT CAVOK"
    },
    {
      "icao": "EGBB",
      "alert": "OK",
      "vis_m": 1700,
      "fzfg": false,
      "metar_trigger": false,
      "taf_trigger": false,
      "metar": "METAR EGBB 040920Z 12006KT 1700 BR OVC002 04/04 Q0992",
      "taf": "TAF EGBB 040459Z 0406/0506 VRB03KT 2000 BR OVC003"
    },
    {
      "icao": "EGGP",
      "alert": "OK",
      "vis_m": 8000,
      "fzfg": false,
      "metar_trigger": false,
      "taf_trigger": false,
      "metar": "METAR EGGP 040920Z 10007KT 8000 BKN009 03/02 Q0991",
      "taf": "TAF EGGP 040457Z 0406/0506 10008KT 9999 SCT024 BKN030"
    },
    {
      "icao": "EGGW",
      "alert": "OK",
      "vis_m": 7000,
      "fzfg": false,
      "metar_trigger": false,
      "taf_trigger": false,
      "metar": "METAR EGGW 040920Z AUTO 14006KT 7000 OVC007 06/05 Q0992",
      "taf": ""
    },
    {
      "icao": "EGKK",
      "alert": "OK",
      "vis_m": 9999,
      "fzfg": false,
      "metar_trigger": false,
      "taf_trigger": false,
      "metar": "METAR EGKK 040920Z 11006KT 9999 FEW009 08/07 Q0992",
      "taf": "TAF EGKK 040455Z 0406/0512 15006KT 6000 BKN010"
    },
    {
      "icao": "EGNM",
      "alert": "OK",
      "vis_m": 100,
      "fzfg": false,
      "metar_trigger": false,
      "taf_trigger": false,
      "metar": "METAR EGNM 040920Z 09005KT 040V110 0100 R14/0275N -DZ FG VV/// 03/03 Q0992",
      "taf": "TAF EGNM 040525Z 0406/0506 08008KT 0300 -DZ FG VV///"
    },
    {
      "icao": "EGPD",
      "alert": "OK",
      "vis_m": 9999,
      "fzfg": false,
      "metar_trigger": false,
      "taf_trigger": false,
      "metar": "METAR EGPD 040920Z AUTO 11014KT 9999 -RA BKN011/// BKN017/// OVC035/// //////TCU 03/01 Q0998 NOSIG",
      "taf": ""
    },
    {
      "icao": "EGPF",
      "alert": "OK",
      "vis_m": 9999,
      "fzfg": false,
      "metar_trigger": false,
      "taf_trigger": false,
      "metar": "METAR EGPF 040920Z AUTO 07013KT 9999 -RA SCT011 BKN018 BKN025 03/02 Q0994",
      "taf": "TAF EGPF 040453Z 0406/0506 07012KT 9999 SCT025"
    },
    {
      "icao": "EHBK",
      "alert": "OK",
      "vis_m": 9999,
      "fzfg": false,
      "metar_trigger": false,
      "taf_trigger": false,
      "metar": "METAR EHBK 040925Z AUTO 10003KT 070V130 9999 NCD 08/04 Q0997 NOSIG",
      "taf": "TAF EHBK 040513Z 0406/0512 13006KT CAVOK"
    },
    {
      "icao": "EHEH",
      "alert": "OK",
      "vis_m": null,
      "fzfg": false,
      "metar_trigger": false,
      "taf_trigger": false,
      "metar": "",
      "taf": "TAF EHEH 040543Z 0406/0512 13005KT 9999 SCT045"
    },
    {
      "icao": "EKBI",
      "alert": "OK",
      "vis_m": 9999,
      "fzfg": false,
      "metar_trigger": false,
      "taf_trigger": false,
      "metar": "METAR EKBI 040920Z AUTO 10021G32KT 9999 OVC020/// M02/M07 Q1009",
      "taf": "TAF EKBI 040827Z 0409/0509 09020G35KT 9999 BKN020"
    },
    {
      "icao": "EKCH",
      "alert": "OK",
      "vis_m": 9999,
      "fzfg": false,
      "metar_trigger": false,
      "taf_trigger": false,
      "metar": "METAR EKCH 040920Z AUTO 09024KT 9999 SCT020/// BKN036/// M02/M06 Q1014 TEMPO 09022G34KT",
      "taf": "TAF EKCH 040827Z 0409/0509 09018KT 9999 BKN020"
    },
    {
      "icao": "ENAL",
      "alert": "OK",
      "vis_m": 9999,
      "fzfg": false,
      "metar_trigger": false,
      "taf_trigger": false,
      "metar": "METAR ENAL 040920Z 12012KT CAVOK M00/M14 Q1016",
      "taf": "TAF ENAL 040800Z 0409/0418 11010KT CAVOK"
    },
    {
      "icao": "ENBR",
      "alert": "OK",
      "vis_m": 9999,
      "fzfg": false,
      "metar_trigger": false,
      "taf_trigger": false,
      "metar": "METAR ENBR 040920Z VRB02KT CAVOK M05/M16 Q1013 NOSIG RMK WIND 1200FT 10009KT",
      "taf": "TAF ENBR 040500Z 0406/0506 VRB03KT CAVOK"
    },
    {
      "icao": "ENGM",
      "alert": "OK",
      "vis_m": 9999,
      "fzfg": false,
      "metar_trigger": false,
      "taf_trigger": false,
      "metar": "METAR ENGM 040920Z 02010KT 9999 VCSH BKN023 M08/M11 Q1024 NOSIG",
      "taf": "TAF ENGM 040500Z 0406/0506 03008KT 9999 BKN020"
    },
    {
      "icao": "ENHD",
      "alert": "OK",
      "vis_m": 9999,
      "fzfg": false,
      "metar_trigger": false,
      "taf_trigger": false,
      "metar": "METAR ENHD 040920Z 09016KT CAVOK M02/M13 Q1013",
      "taf": "TAF ENHD 040800Z 0409/0418 11018KT CAVOK"
    },
    {
      "icao": "ENTC",
      "alert": "OK",
      "vis_m": 9999,
      "fzfg": false,
      "metar_trigger": false,
      "taf_trigger": false,
      "metar": "METAR ENTC 040920Z 19013KT 9999 FEW023 BKN029 01/M02 Q1019 RESHSN NOSIG RMK WIND 2600FT 24010KT",
      "taf": "TAF ENTC 040500Z 0406/0506 19012KT 9999 SCT015 BKN030"
    },
    {
      "icao": "ENTO",
      "alert": "OK",
      "vis_m": 9999,
      "fzfg": false,
      "metar_trigger": false,
      "taf_trigger": false,
      "metar": "METAR ENTO 040920Z 03010KT 360V060 9999 OVC018 M07/M10 Q1022 NOSIG",
      "taf": "TAF ENTO 040500Z 0406/0506 03012KT 9999 SCT012 BKN018"
    },
    {
      "icao": "ENVA",
      "alert": "OK",
      "vis_m": 9999,
      "fzfg": false,
      "metar_trigger": false,
      "taf_trigger": false,
      "metar": "METAR ENVA 040920Z 09007KT 060V140 CAVOK M04/M16 Q1021 NOSIG RMK WIND 670FT 14007KT",
      "taf": "TAF ENVA 040500Z 0406/0506 09008KT CAVOK"
    },
    {
      "icao": "ENZV",
      "alert": "OK",
      "vis_m": 9999,
      "fzfg": false,
      "metar_trigger": false,
      "taf_trigger": false,
      "metar": "METAR ENZV 040920Z 09018KT CAVOK M02/M11 Q1013 NOSIG",
      "taf": "TAF ENZV 040500Z 0406/0506 09016KT 9999 BKN045"
    },
    {
      "icao": "EPGD",
      "alert": "OK",
      "vis_m": 9999,
      "fzfg": false,
      "metar_trigger": false,
      "taf_trigger": false,
      "metar": "METAR EPGD 040930Z 08012KT CAVOK M10/M13 Q1015",
      "taf": "TAF EPGD 040530Z 0406/0506 09008KT 9999 BKN029"
    },
    {
      "icao": "EPKK",
      "alert": "OK",
      "vis_m": 7000,
      "fzfg": false,
      "metar_trigger": false,
      "taf_trigger": false,
      "metar": "METAR EPKK 040930Z 06007KT 7000 SCT026 M03/M05 Q1009",
      "taf": "TAF EPKK 040830Z 0409/0509 06006KT 6000 SCT007 BKN026"
    },
    {
      "icao": "EPKT",
      "alert": "OK",
      "vis_m": 4600,
      "fzfg": false,
      "metar_trigger": false,
      "taf_trigger": false,
      "metar": "METAR EPKT 040930Z 09005KT 4600 BR FEW011 BKN024 M01/M03 Q1008",
      "taf": "TAF EPKT 040530Z 0406/0506 10004KT 4000 BR BKN008 OVC012"
    },
    {
      "icao": "EPLB",
      "alert": "OK",
      "vis_m": 9999,
      "fzfg": false,
      "metar_trigger": false,
      "taf_trigger": false,
      "metar": "METAR EPLB 040930Z 10011KT 9999 SCT013 OVC017 M07/M09 Q1012",
      "taf": "TAF EPLB 040530Z 0406/0506 09010KT 9999 BKN020"
    },
    {
      "icao": "EPMO",
      "alert": "OK",
      "vis_m": 5000,
      "fzfg": false,
      "metar_trigger": false,
      "taf_trigger": false,
      "metar": "METAR EPMO 040930Z 08011KT 5000 BR OVC012 M09/M10 Q1013",
      "taf": ""
    },
    {
      "icao": "EPPO",
      "alert": "OK",
      "vis_m": 9000,
      "fzfg": false,
      "metar_trigger": false,
      "taf_trigger": false,
      "metar": "METAR EPPO 040930Z 08009KT 9000 -SN OVC012 M08/M10 Q1010",
      "taf": "TAF EPPO 040530Z 0406/0506 09008KT 7000 BKN016"
    },
    {
      "icao": "EPRA",
      "alert": "OK",
      "vis_m": 9000,
      "fzfg": false,
      "metar_trigger": false,
      "taf_trigger": false,
      "metar": "METAR EPRA 040930Z 09008KT 9000 OVC009 M07/M09 Q1011",
      "taf": "TAF EPRA 040830Z 0409/0418 09010KT 7000 -SN OVC011"
    },
    {
      "icao": "EPRZ",
      "alert": "OK",
      "vis_m": 9999,
      "fzfg": false,
      "metar_trigger": false,
      "taf_trigger": false,
      "metar": "METAR EPRZ 040930Z 09013KT 9999 OVC013 M04/M07 Q1010",
      "taf": ""
    },
    {
      "icao": "EPSC",
      "alert": "OK",
      "vis_m": 9999,
      "fzfg": false,
      "metar_trigger": false,
      "taf_trigger": false,
      "metar": "METAR EPSC 040930Z 10008KT 060V120 9999 BKN021 M07/M12 Q1011",
      "taf": "TAF EPSC 040530Z 0406/0506 09007KT 9999 OVC017"
    },
    {
      "icao": "EPSY",
      "alert": "OK",
      "vis_m": 9999,
      "fzfg": false,
      "metar_trigger": false,
      "taf_trigger": false,
      "metar": "METAR EPSY 040930Z 07007KT 030V110 9999 BKN032 M11/M17 Q1015",
      "taf": "TAF EPSY 040830Z 0409/0418 08010KT 8000 BKN026"
    },
    {
      "icao": "EPWA",
      "alert": "OK",
      "vis_m": 9999,
      "fzfg": false,
      "metar_trigger": false,
      "taf_trigger": false,
      "metar": "METAR EPWA 040930Z 10009KT 9999 OVC013 M09/M11 Q1013 NOSIG",
      "taf": "TAF EPWA 040830Z 0409/0509 09010KT 8000 BKN012"
    },
    {
      "icao": "EPWR",
      "alert": "OK",
      "vis_m": 6000,
      "fzfg": false,
      "metar_trigger": false,
      "taf_trigger": false,
      "metar": "METAR EPWR 040930Z 08005KT 6000 FEW008 OVC024 M02/M04 Q1008",
      "taf": ""
    },
    {
      "icao": "ESGG",
      "alert": "OK",
      "vis_m": 9999,
      "fzfg": false,
      "metar_trigger": false,
      "taf_trigger": false,
      "metar": "METAR ESGG 040920Z 09014KT 9999 SCT024 M05/M10 Q1017",
      "taf": "TAF ESGG 040830Z 0409/0509 09015G25KT 9999 OVC025"
    },
    {
      "icao": "ESKN",
      "alert": "OK",
      "vis_m": 9999,
      "fzfg": false,
      "metar_trigger": false,
      "taf_trigger": false,
      "metar": "METAR ESKN 040920Z 09012KT 9999 -SN BKN025 M04/M08 Q1025",
      "taf": "TAF ESKN 040830Z 0409/0509 10016KT 9000 -SN BKN025"
    },
    {
      "icao": "ESMS",
      "alert": "OK",
      "vis_m": 9999,
      "fzfg": false,
      "metar_trigger": false,
      "taf_trigger": false,
      "metar": "METAR ESMS 040920Z 08021KT 9999 VCSH SCT016 BKN036 M03/M07 Q1013",
      "taf": ""
    },
    {
      "icao": "ESSA",
      "alert": "OK",
      "vis_m": 9999,
      "fzfg": false,
      "metar_trigger": false,
      "taf_trigger": false,
      "metar": "METAR ESSA 040920Z 09008KT 9999 BKN023 M05/M10 Q1027 NOSIG",
      "taf": "TAF ESSA 040830Z 0409/0509 06008KT 9999 BKN020"
    },
    {
      "icao": "EYKA",
      "alert": "OK",
      "vis_m": 9999,
      "fzfg": false,
      "metar_trigger": false,
      "taf_trigger": false,
      "metar": "METAR EYKA 040920Z 08008KT CAVOK M14/M16 Q1023",
      "taf": "TAF EYKA 040500Z 0406/0506 08010KT 9000 NSC"
    },
    {
      "icao": "EYPA",
      "alert": "OK",
      "vis_m": 9999,
      "fzfg": false,
      "metar_trigger": false,
      "taf_trigger": false,
      "metar": "METAR EYPA 040920Z 08009KT 050V110 CAVOK M12/M17 Q1023",
      "taf": "TAF EYPA 040500Z 0406/0506 07014KT 9000 NSC"
    },
    {
      "icao": "EYVI",
      "alert": "OK",
      "vis_m": 9999,
      "fzfg": false,
      "metar_trigger": false,
      "taf_trigger": false,
      "metar": "METAR EYVI 040920Z 10006KT CAVOK M13/M16 Q1022 NOSIG",
      "taf": "TAF EYVI 040500Z 0406/0506 10010KT 9000 NSC"
    },
    {
      "icao": "GCFV",
      "alert": "OK",
      "vis_m": 9999,
      "fzfg": false,
      "metar_trigger": false,
      "taf_trigger": false,
      "metar": "METAR GCFV 040930Z 27005KT 220V300 9999 SCT028 19/13 Q1019",
      "taf": "TAF GCFV 040800Z 0409/0509 25009KT 9999 SCT025 TX22/0414Z TN15/0506Z"
    },
    {
      "icao": "GCLP",
      "alert": "OK",
      "vis_m": 9999,
      "fzfg": false,
      "metar_trigger": false,
      "taf_trigger": false,
      "metar": "METAR GCLP 040930Z 00000KT 9999 FEW025 19/13 Q1019 NOSIG",
      "taf": "TAF GCLP 040800Z 0409/0509 02007KT 9999 FEW025 TX22/0414Z TN15/0506Z"
    },
    {
      "icao": "GCTS",
      "alert": "OK",
      "vis_m": 9999,
      "fzfg": false,
      "metar_trigger": false,
      "taf_trigger": false,
      "metar": "METAR GCTS 040930Z 00000KT 9999 FEW030 19/13 Q1019 NOSIG",
      "taf": "TAF GCTS 040800Z 0409/0509 25015KT 9999 FEW030 TX24/0414Z TN16/0506Z"
    },
    {
      "icao": "GMAD",
      "alert": "OK",
      "vis_m": 6000,
      "fzfg": false,
      "metar_trigger": false,
      "taf_trigger": false,
      "metar": "METAR GMAD 040930Z 03003KT 6000 SCT010 SCT016 14/14 Q1017 NOSIG",
      "taf": "TAF GMAD 040500Z 0406/0512 18004KT 8000 SCT016 SCT080"
    },
    {
      "icao": "GMMN",
      "alert": "OK",
      "vis_m": 9999,
      "fzfg": false,
      "metar_trigger": false,
      "taf_trigger": false,
      "metar": "METAR GMMN 040930Z 22020KT 9999 SCT008 BKN016 15/13 Q1014 TEMPO 23024G36KT",
      "taf": "TAF GMMN 040500Z 0406/0512 22020G30KT 9999 SCT008 BKN016 SCT023TCU"
    },
    {
      "icao": "GMMX",
      "alert": "OK",
      "vis_m": 9999,
      "fzfg": false,
      "metar_trigger": false,
      "taf_trigger": false,
      "metar": "METAR GMMX 040930Z 25004KT 9999 FEW023 SCT100 BKN200 14/10 Q1016 NOSIG",
      "taf": "TAF GMMX 040500Z 0406/0512 22006KT 8000 NSC"
    },
    {
      "icao": "HEGN",
      "alert": "OK",
      "vis_m": 9999,
      "fzfg": false,
      "metar_trigger": false,
      "taf_trigger": false,
      "metar": "METAR HEGN 040900Z 34012KT CAVOK 20/08 Q1020 NOSIG",
      "taf": "TAF HEGN 040500Z 0406/0512 32015KT CAVOK"
    },
    {
      "icao": "HEMA",
      "alert": "OK",
      "vis_m": 9999,
      "fzfg": false,
      "metar_trigger": false,
      "taf_trigger": false,
      "metar": "METAR HEMA 040900Z 36015KT 9999 FEW025 21/12 Q1019 NOSIG",
      "taf": "TAF HEMA 040500Z 0406/0512 33017KT CAVOK"
    },
    {
      "icao": "HESH",
      "alert": "OK",
      "vis_m": 9999,
      "fzfg": false,
      "metar_trigger": false,
      "taf_trigger": false,
      "metar": "METAR HESH 040900Z 35012KT CAVOK 21/06 Q1019 NOSIG",
      "taf": "TAF HESH 040500Z 0406/0512 35014KT CAVOK"
    },
    {
      "icao": "HESX",
      "alert": "OK",
      "vis_m": 9999,
      "fzfg": false,
      "metar_trigger": false,
      "taf_trigger": false,
      "metar": "METAR HESX 040900Z 09009KT CAVOK 17/09 Q1021 NOSIG",
      "taf": "TAF HESX 040500Z 0406/0512 VRB02KT 6000 NSC"
    },
    {
      "icao": "LATI",
      "alert": "OK",
      "vis_m": 9999,
      "fzfg": false,
      "metar_trigger": false,
      "taf_trigger": false,
      "metar": "METAR LATI 040920Z VRB03KT 9999 SCT130 15/06 Q1008 NOSIG",
      "taf": "TAF LATI 040500Z 0406/0506 VRB06KT 9999 BKN100 TX20/0412Z TN10/0504Z"
    },
    {
      "icao": "LBPD",
      "alert": "OK",
      "vis_m": 9000,
      "fzfg": false,
      "metar_trigger": false,
      "taf_trigger": false,
      "metar": "METAR LBPD 040930Z AUTO 00000KT 9000 OVC009/// 00/M01 Q1018 NOSIG",
      "taf": "TAF LBPD 040500Z 0406/0506 VRB03KT 7000 OVC010"
    },
    {
      "icao": "LBSF",
      "alert": "OK",
      "vis_m": 9999,
      "fzfg": false,
      "metar_trigger": false,
      "taf_trigger": false,
      "metar": "METAR LBSF 040930Z 09005KT CAVOK 01/M02 Q1015 NOSIG",
      "taf": "TAF LBSF 040500Z 0406/0506 10010KT 9999 SCT050 BKN070"
    },
    {
      "icao": "LBWN",
      "alert": "OK",
      "vis_m": 9999,
      "fzfg": false,
      "metar_trigger": false,
      "taf_trigger": false,
      "metar": "METAR LBWN 040930Z 14013KT 9999 FEW012 OVC027 06/05 Q1019 NOSIG",
      "taf": "TAF LBWN 040500Z 0406/0506 12010KT 9999 BKN020"
    },
    {
      "icao": "LCLK",
      "alert": "OK",
      "vis_m": 9999,
      "fzfg": false,
      "metar_trigger": false,
      "taf_trigger": false,
      "metar": "METAR LCLK 040930Z 10004KT 070V130 9999 FEW020 20/08 Q1020 NOSIG",
      "taf": "TAF LCLK 040530Z 0406/0506 30006KT CAVOK"
    },
    {
      "icao": "LCPH",
      "alert": "OK",
      "vis_m": 9999,
      "fzfg": false,
      "metar_trigger": false,
      "taf_trigger": false,
      "metar": "METAR LCPH 040930Z AUTO 27005KT 230V320 9999 NCD 18/09 Q1020 NOSIG",
      "taf": "TAF LCPH 040530Z 0406/0506 02008KT CAVOK"
    },
    {
      "icao": "LEAL",
      "alert": "OK",
      "vis_m": 9999,
      "fzfg": false,
      "metar_trigger": false,
      "taf_trigger": false,
      "metar": "METAR LEAL 040930Z 21003KT 170V260 CAVOK 11/11 Q0996 NOSIG",
      "taf": "TAF LEAL 040500Z 0406/0506 26007KT 9999 FEW030 TX18/0413Z TN08/0407Z"
    },
    {
      "icao": "LEBB",
      "alert": "OK",
      "vis_m": 9999,
      "fzfg": false,
      "metar_trigger": false,
      "taf_trigger": false,
      "metar": "METAR LEBB 040930Z 19012KT 150V260 9999 FEW030 BKN070 13/04 Q0987 NOSIG",
      "taf": "TAF LEBB 040500Z 0406/0506 20009KT 9999 FEW055 TX14/0412Z TN09/0406Z"
    },
    {
      "icao": "LEBL",
      "alert": "OK",
      "vis_m": 9999,
      "fzfg": false,
      "metar_trigger": false,
      "taf_trigger": false,
      "metar": "METAR LEBL 040930Z 28004KT 240V340 9999 -RA FEW040 BKN060 10/07 Q0993 NOSIG",
      "taf": "TAF LEBL 040500Z 0406/0506 34008KT 9999 FEW020 TX14/0414Z TN06/0406Z"
    },
    {
      "icao": "LECH",
      "alert": "OK",
      "vis_m": 9999,
      "fzfg": false,
      "metar_trigger": false,
      "taf_trigger": false,
      "metar": "METAR LECH 040930Z AUTO 19004KT 140V260 CAVOK 09/04 Q0992",
      "taf": ""
    },
    {
      "icao": "LEMD",
      "alert": "OK",
      "vis_m": 9999,
      "fzfg": false,
      "metar_trigger": false,
      "taf_trigger": false,
      "metar": "METAR LEMD 040930Z 21011KT 160V240 9999 BKN011 05/05 Q0994 NOSIG",
      "taf": ""
    },
    {
      "icao": "LEMG",
      "alert": "OK",
      "vis_m": 4000,
      "fzfg": false,
      "metar_trigger": false,
      "taf_trigger": false,
      "metar": "METAR LEMG 040930Z 27008KT 4000 RA FEW010 BKN030 OVC050 13/12 Q1001 NOSIG",
      "taf": "TAF LEMG 040500Z 0406/0506 VRB02KT 9999 SCT020 TX16/0414Z TN10/0407Z"
    },
    {
      "icao": "LEVC",
      "alert": "OK",
      "vis_m": 9999,
      "fzfg": false,
      "metar_trigger": false,
      "taf_trigger": false,
      "metar": "METAR LEVC 040930Z 25004KT 210V300 9999 FEW035 10/06 Q0995 NOSIG",
      "taf": "TAF LEVC 040500Z 0406/0506 22007KT 9999 FEW030 TX18/0413Z TN07/0406Z"
    },
    {
      "icao": "LEXJ",
      "alert": "OK",
      "vis_m": 9999,
      "fzfg": false,
      "metar_trigger": false,
      "taf_trigger": false,
      "metar": "METAR LEXJ 040930Z 22010KT 190V260 9999 SCT079 13/02 Q0984",
      "taf": "TAF LEXJ 040800Z 0409/0509 20009KT 9999 FEW030 SCT060 TX15/0412Z TN10/0409Z"
    },
    {
      "icao": "LEZG",
      "alert": "OK",
      "vis_m": 9999,
      "fzfg": false,
      "metar_trigger": false,
      "taf_trigger": false,
      "metar": "METAR LEZG 040930Z 10006KT 9999 BKN030 07/07 Q0992 NOSIG",
      "taf": "TAF LEZG 040500Z 0406/0506 13010KT 9999 FEW020 TX14/0414Z TN04/0406Z"
    },
    {
      "icao": "LEZL",
      "alert": "OK",
      "vis_m": 6000,
      "fzfg": false,
      "metar_trigger": false,
      "taf_trigger": false,
      "metar": "METAR LEZL 040930Z 22006KT 160V280 6000 RA FEW010 OVC020 15/14 Q1000 NOSIG",
      "taf": "TAF LEZL 040800Z 0409/0509 24014KT 9999 BKN020 TX18/0415Z TN13/0507Z"
    },
    {
      "icao": "LFBD",
      "alert": "OK",
      "vis_m": 9999,
      "fzfg": false,
      "metar_trigger": false,
      "taf_trigger": false,
      "metar": "METAR LFBD 040930Z AUTO 16007KT 9999 -RA BKN049 BKN060 OVC076 08/05 Q0987 TEMPO 4000 SHRA BKN030TCU",
      "taf": "TAF LFBD 040500Z 0406/0512 16010KT CAVOK TX12/0416Z TN05/0406Z"
    },
    {
      "icao": "LFLL",
      "alert": "OK",
      "vis_m": 9999,
      "fzfg": false,
      "metar_trigger": false,
      "taf_trigger": false,
      "metar": "METAR LFLL 040930Z 12008KT CAVOK 09/03 Q0994 NOSIG",
      "taf": "TAF LFLL 040500Z 0406/0512 14008KT CAVOK"
    },
    {
      "icao": "LFLS",
      "alert": "OK",
      "vis_m": 9999,
      "fzfg": false,
      "metar_trigger": false,
      "taf_trigger": false,
      "metar": "METAR LFLS 040930Z AUTO 09010KT CAVOK 06/03 Q0994 NOSIG",
      "taf": "TAF LFLS 040800Z 0409/0509 09008KT CAVOK"
    },
    {
      "icao": "LFMN",
      "alert": "OK",
      "vis_m": 9999,
      "fzfg": false,
      "metar_trigger": false,
      "taf_trigger": false,
      "metar": "METAR LFMN 040930Z 33008KT 9999 -RA FEW033 BKN066 09/07 Q0997 NOSIG",
      "taf": "TAF LFMN 040800Z 0409/0515 33010KT 9999 OVC050"
    },
    {
      "icao": "LFOB",
      "alert": "OK",
      "vis_m": 9999,
      "fzfg": false,
      "metar_trigger": false,
      "taf_trigger": false,
      "metar": "METAR LFOB 040930Z AUTO 10009KT CAVOK 06/04 Q0993 NOSIG",
      "taf": "TAF LFOB 040500Z 0406/0506 09010KT 8000 NSC"
    },
    {
      "icao": "LFPO",
      "alert": "OK",
      "vis_m": 9999,
      "fzfg": false,
      "metar_trigger": false,
      "taf_trigger": false,
      "metar": "METAR LFPO 040930Z 11006KT CAVOK 07/04 Q0992 NOSIG",
      "taf": "TAF LFPO 040500Z 0406/0512 12006KT CAVOK"
    },
    {
      "icao": "LFSB",
      "alert": "OK",
      "vis_m": 5000,
      "fzfg": false,
      "metar_trigger": false,
      "taf_trigger": false,
      "metar": "METAR LFSB 040930Z AUTO 21001KT 5000 BR BKN004 BKN180 01/01 Q0997 BECMG FEW001",
      "taf": ""
    },
    {
      "icao": "LGAV",
      "alert": "OK",
      "vis_m": 9999,
      "fzfg": false,
      "metar_trigger": false,
      "taf_trigger": false,
      "metar": "METAR LGAV 040920Z 20014KT 9999 FEW020 SCT070 16/10 Q1016 NOSIG",
      "taf": "TAF LGAV 040500Z 0406/0506 20012KT 9999 SCT025"
    },
    {
      "icao": "LGTS",
      "alert": "OK",
      "vis_m": 8000,
      "fzfg": false,
      "metar_trigger": false,
      "taf_trigger": false,
      "metar": "METAR LGTS 040920Z 31005KT 8000 4000E BR SCT005 BKN020 10/10 Q1016 NOSIG",
      "taf": ""
    },
    {
      "icao": "LHBP",
      "alert": "OK",
      "vis_m": 6000,
      "fzfg": false,
      "metar_trigger": false,
      "taf_trigger": false,
      "metar": "METAR LHBP 040930Z 07006KT 6000 -DZ OVC003 02/01 Q1008 TEMPO 4500 -RADZ BR",
      "taf": "TAF LHBP 040515Z 0406/0506 08008KT 8000 -RA SCT008 OVC030"
    },
    {
      "icao": "LHDC",
      "alert": "OK",
      "vis_m": 3200,
      "fzfg": false,
      "metar_trigger": false,
      "taf_trigger": false,
      "metar": "METAR LHDC 040915Z AUTO 07006KT 3200 -RA BR OVC007 04/04 Q1010 TEMPO 2500 RA BR",
      "taf": "TAF LHDC 040815Z 0409/0418 08006KT 4000 -RA BR BKN011 OVC025"
    },
    {
      "icao": "LIBD",
      "alert": "OK",
      "vis_m": 9999,
      "fzfg": false,
      "metar_trigger": false,
      "taf_trigger": false,
      "metar": "METAR LIBD 040920Z 15021G35KT 9999 SCT025 17/11 Q1001",
      "taf": "TAF LIBD 040500Z 0406/0506 18012KT CAVOK"
    },
    {
      "icao": "LIBG",
      "alert": "OK",
      "vis_m": 7000,
      "fzfg": false,
      "metar_trigger": false,
      "taf_trigger": false,
      "metar": "METAR LIBG 040850Z 15022KT 7000 SCT010 SCT020 16/13 Q1003",
      "taf": "TAF LIBG 040800Z 0409/0418 17020G45KT 9999 SCT010 BKN020"
    },
    {
      "icao": "LIBP",
      "alert": "OK",
      "vis_m": 9999,
      "fzfg": false,
      "metar_trigger": false,
      "taf_trigger": false,
      "metar": "METAR LIBP 040920Z AUTO VRB01KT 9999 FEW008/// SCT120/// BKN160/// 12/10 Q0998",
      "taf": "TAF LIBP 040500Z 0406/0506 VRB05KT 9999 OVC080"
    },
    {
      "icao": "LIBR",
      "alert": "OK",
      "vis_m": 9999,
      "fzfg": false,
      "metar_trigger": false,
      "taf_trigger": false,
      "metar": "METAR LIBR 040920Z 16019G30KT 9999 BKN020 16/11 Q1004",
      "taf": "TAF LIBR 040500Z 0406/0506 16025G35KT CAVOK"
    },
    {
      "icao": "LICA",
      "alert": "OK",
      "vis_m": 9999,
      "fzfg": false,
      "metar_trigger": false,
      "taf_trigger": false,
      "metar": "METAR LICA 040920Z AUTO 07016KT 9999 FEW036/// BKN056/// 16/13 Q1000",
      "taf": "TAF LICA 040500Z 0406/0506 07022G33KT 9999 SCT025"
    },
    {
      "icao": "LICC",
      "alert": "OK",
      "vis_m": 5000,
      "fzfg": false,
      "metar_trigger": false,
      "taf_trigger": false,
      "metar": "METAR LICC 040920Z 06012KT 5000 BR FEW030 BKN070 16/13 Q0998",
      "taf": "TAF LICC 040500Z 0406/0506 05012KT 9999 SCT030"
    },
    {
      "icao": "LICJ",
      "alert": "OK",
      "vis_m": 9999,
      "fzfg": false,
      "metar_trigger": false,
      "taf_trigger": false,
      "metar": "METAR LICJ 040920Z 28017KT 9999 SCT025 14/10 Q0997",
      "taf": "TAF LICJ 040500Z 0406/0506 18015KT 9999 SCT030"
    },
    {
      "icao": "LIMC",
      "alert": "OK",
      "vis_m": 8000,
      "fzfg": false,
      "metar_trigger": false,
      "taf_trigger": false,
      "metar": "METAR LIMC 040920Z 36008KT 8000 RA SCT015 OVC022 05/05 Q1000 NOSIG",
      "taf": "TAF LIMC 040500Z 0406/0512 VRB05KT 2000 BR BKN006"
    },
    {
      "icao": "LIME",
      "alert": "OK",
      "vis_m": 6000,
      "fzfg": false,
      "metar_trigger": false,
      "taf_trigger": false,
      "metar": "METAR LIME 040920Z VRB01KT 6000 -RA SCT018 BKN045 06/06 Q0999 NOSIG",
      "taf": "TAF LIME 040500Z 0406/0506 VRB05KT 2000 BR BKN006"
    },
    {
      "icao": "LIMF",
      "alert": "OK",
      "vis_m": 2100,
      "fzfg": false,
      "metar_trigger": false,
      "taf_trigger": false,
      "metar": "METAR LIMF 040920Z 29004KT 2100 RA BR SCT015 OVC020 04/03 Q1000",
      "taf": "TAF LIMF 040500Z 0406/0506 VRB05KT 6000 BKN030"
    },
    {
      "icao": "LIMJ",
      "alert": "OK",
      "vis_m": 9999,
      "fzfg": false,
      "metar_trigger": false,
      "taf_trigger": false,
      "metar": "METAR LIMJ 040920Z 04019KT 9999 -RA SCT035 OVC050 05/03 Q0997",
      "taf": "TAF LIMJ 040500Z 0406/0506 02015KT 7000 RA BKN030"
    },
    {
      "icao": "LIPE",
      "alert": "OK",
      "vis_m": 3500,
      "fzfg": false,
      "metar_trigger": false,
      "taf_trigger": false,
      "metar": "METAR LIPE 040920Z VRB02KT 3500 -RA BR FEW004 BKN009 05/04 Q1000",
      "taf": "TAF LIPE 040500Z 0406/0506 VRB05KT 3000 RA BR FEW002 BKN010"
    },
    {
      "icao": "LIPH",
      "alert": "OK",
      "vis_m": 5000,
      "fzfg": false,
      "metar_trigger": false,
      "taf_trigger": false,
      "metar": "METAR LIPH 040920Z 04006KT 5000 RA BR SCT005 BKN015 08/08 Q1001",
      "taf": ""
    },
    {
      "icao": "LIPQ",
      "alert": "OK",
      "vis_m": 9999,
      "fzfg": false,
      "metar_trigger": false,
      "taf_trigger": false,
      "metar": "METAR LIPQ 040920Z AUTO 02005KT 9999 -RA OVC052/// 08/08 Q1001",
      "taf": "TAF LIPQ 040500Z 0406/0506 VRB05KT 9000 FEW010"
    },
    {
      "icao": "LIPR",
      "alert": "OK",
      "vis_m": 3000,
      "fzfg": false,
      "metar_trigger": false,
      "taf_trigger": false,
      "metar": "METAR LIPR 040920Z 30005KT 3000 -RA BR BKN003 BKN013 06/05 Q1000",
      "taf": "TAF LIPR 040500Z 0406/0506 VRB05KT 3000 RA BR BKN005"
    },
    {
      "icao": "LIPX",
      "alert": "OK",
      "vis_m": 3000,
      "fzfg": false,
      "metar_trigger": false,
      "taf_trigger": false,
      "metar": "METAR LIPX 040920Z 36006KT 3000 -RA BR BKN045 06/06 Q1000",
      "taf": "TAF LIPX 040500Z 0406/0506 VRB05KT 2000 RA BR BKN010"
    },
    {
      "icao": "LIPY",
      "alert": "OK",
      "vis_m": 9999,
      "fzfg": false,
      "metar_trigger": false,
      "taf_trigger": false,
      "metar": "METAR LIPY 040920Z AUTO VRB02KT 9999 -RA OVC003/// 08/08 Q0999 RERA",
      "taf": ""
    },
    {
      "icao": "LIPZ",
      "alert": "OK",
      "vis_m": 7000,
      "fzfg": false,
      "metar_trigger": false,
      "taf_trigger": false,
      "metar": "METAR LIPZ 040920Z 05010KT 7000 RA BKN005 BKN020 08/07 Q1001 TEMPO BKN008",
      "taf": "TAF LIPZ 040500Z 0406/0512 VRB05KT 9000 BKN010"
    },
    {
      "icao": "LIRF",
      "alert": "OK",
      "vis_m": 9000,
      "fzfg": false,
      "metar_trigger": false,
      "taf_trigger": false,
      "metar": "METAR LIRF 040920Z 11007KT 9000 -DZ FEW045 SCT055 14/09 Q0996 NOSIG",
      "taf": "TAF LIRF 040500Z 0406/0512 14016KT 9999 SCT030"
    },
    {
      "icao": "LIRN",
      "alert": "OK",
      "vis_m": 9999,
      "fzfg": false,
      "metar_trigger": false,
      "taf_trigger": false,
      "metar": "METAR LIRN 040920Z VRB05KT 9999 SCT060 BKN080 18/05 Q0997 NOSIG",
      "taf": "TAF LIRN 040500Z 0406/0506 17015KT 9999 SCT030"
    },
    {
      "icao": "LIRP",
      "alert": "OK",
      "vis_m": 9999,
      "fzfg": false,
      "metar_trigger": false,
      "taf_trigger": false,
      "metar": "METAR LIRP 040915Z 09011KT 9999 -RA FEW020 SCT025 BKN050 11/10 Q0996 NOSIG",
      "taf": "TAF LIRP 040500Z 0406/0506 04004KT 8000 RA SCT030 BKN040"
    },
    {
      "icao": "LIRZ",
      "alert": "OK",
      "vis_m": 9999,
      "fzfg": false,
      "metar_trigger": false,
      "taf_trigger": false,
      "metar": "METAR LIRZ 040920Z AUTO 03007KT 9999 -RA OVC047/// 10/08 Q0998",
      "taf": "TAF LIRZ 040500Z 0406/0506 VRB05KT 9999 BKN020"
    },
    {
      "icao": "LJLJ",
      "alert": "OK",
      "vis_m": 4000,
      "fzfg": false,
      "metar_trigger": false,
      "taf_trigger": false,
      "metar": "METAR LJLJ 040930Z VRB02KT 4000 -RA BR FEW001 BKN012 OVC030 04/04 Q1003 NOSIG",
      "taf": "TAF LJLJ 040500Z 0406/0506 VRB02KT 7000 -RA FEW004 OVC020"
    },
    {
      "icao": "LKMT",
      "alert": "OK",
      "vis_m": 3000,
      "fzfg": false,
      "metar_trigger": false,
      "taf_trigger": false,
      "metar": "METAR LKMT 040930Z 02003KT 3000 BR OVC020 M01/M03 Q1007 NOSIG",
      "taf": "TAF LKMT 040500Z 0406/0506 03006KT 7000 OVC023"
    },
    {
      "icao": "LKPR",
      "alert": "OK",
      "vis_m": 5000,
      "fzfg": false,
      "metar_trigger": false,
      "taf_trigger": false,
      "metar": "METAR LKPR 040930Z 08004KT 5000 BR SCT005 OVC015 00/M00 Q1005 TEMPO BKN005",
      "taf": "TAF LKPR 040800Z 0409/0515 11008KT 6000 OVC023"
    },
    {
      "icao": "LLBG",
      "alert": "OK",
      "vis_m": 9999,
      "fzfg": false,
      "metar_trigger": false,
      "taf_trigger": false,
      "metar": "METAR LLBG 040920Z 27008KT 9999 BKN039 18/07 Q1021 NOSIG",
      "taf": "TAF LLBG 040501Z 0406/0506 VRB04KT 9999 SCT040"
    },
    {
      "icao": "LMML",
      "alert": "OK",
      "vis_m": 5000,
      "fzfg": false,
      "metar_trigger": false,
      "taf_trigger": false,
      "metar": "METAR LMML 040915Z 22021G32KT 5000 DU SCT015 15/11 Q1000 BECMG 7000 NSW",
      "taf": ""
    },
    {
      "icao": "LOWW",
      "alert": "OK",
      "vis_m": 5000,
      "fzfg": false,
      "metar_trigger": false,
      "taf_trigger": false,
      "metar": "METAR LOWW 040920Z 11005KT 070V130 5000 BR FEW002 BKN003 01/00 Q1006 NOSIG",
      "taf": ""
    },
    {
      "icao": "LPFR",
      "alert": "OK",
      "vis_m": 5000,
      "fzfg": false,
      "metar_trigger": false,
      "taf_trigger": false,
      "metar": "METAR LPFR 040930Z 25026KT 5000 BR SCT005 BKN014 16/15 Q1001",
      "taf": ""
    },
    {
      "icao": "LPMA",
      "alert": "OK",
      "vis_m": 9999,
      "fzfg": false,
      "metar_trigger": false,
      "taf_trigger": false,
      "metar": "METAR LPMA 040930Z 21023KT 9999 FEW015 18/13 Q1012",
      "taf": "TAF LPMA 040500Z 0406/0506 VRB05KT 9999 SCT015"
    },
    {
      "icao": "LPPR",
      "alert": "OK",
      "vis_m": 6000,
      "fzfg": false,
      "metar_trigger": false,
      "taf_trigger": false,
      "metar": "METAR LPPR 040930Z 22010KT 190V250 6000 FEW009 BKN014 BKN022 14/13 Q0992",
      "taf": "TAF LPPR 040500Z 0406/0506 26010KT 8000 SCT012 BKN025"
    },
    {
      "icao": "LPPS",
      "alert": "OK",
      "vis_m": 9999,
      "fzfg": false,
      "metar_trigger": false,
      "taf_trigger": false,
      "metar": "METAR LPPS 040930Z 26015KT 9999 FEW013 18/15 Q1013",
      "taf": "TAF LPPS 040500Z 0406/0512 27017KT 9999 SCT013"
    },
    {
      "icao": "LPPT",
      "alert": "OK",
      "vis_m": 2500,
      "fzfg": false,
      "metar_trigger": false,
      "taf_trigger": false,
      "metar": "METAR LPPT 040930Z 23004KT 210V270 2500 RADZ BR FEW004 SCT008 BKN015 13/13 Q0997",
      "taf": ""
    },
    {
      "icao": "LQBK",
      "alert": "OK",
      "vis_m": 3000,
      "fzfg": false,
      "metar_trigger": false,
      "taf_trigger": false,
      "metar": "METAR LQBK 040930Z VRB02KT 3000 BR SCT003 BKN007 06/06 Q1004 BECMG 5000 SCT015",
      "taf": "TAF LQBK 040500Z 0406/0506 VRB02KT 9999 SCT040 TX11/0414Z TN04/0505Z"
    },
    {
      "icao": "LQSA",
      "alert": "OK",
      "vis_m": 9999,
      "fzfg": false,
      "metar_trigger": false,
      "taf_trigger": false,
      "metar": "METAR LQSA 040930Z 15013KT 120V190 9999 FEW045 BKN055 12/04 Q1005 NOSIG",
      "taf": "TAF LQSA 040500Z 0406/0506 11005KT 9999 BKN045 TX12/0413Z TN05/0505Z"
    },
    {
      "icao": "LQTZ",
      "alert": "OK",
      "vis_m": 9999,
      "fzfg": false,
      "metar_trigger": false,
      "taf_trigger": false,
      "metar": "METAR LQTZ 040930Z 16005KT 100V210 9999 FEW050 15/06 Q1005",
      "taf": "TAF LQTZ 040500Z 0406/0506 08007KT 9999 SCT050 TX16/0414Z TN04/0505Z"
    },
    {
      "icao": "LRBC",
      "alert": "OK",
      "vis_m": 9999,
      "fzfg": false,
      "metar_trigger": false,
      "taf_trigger": false,
      "metar": "METAR LRBC 040930Z 15014KT 9999 OVC006 00/M01 Q1016",
      "taf": "TAF LRBC 040800Z 0409/0418 16014KT 9999 OVC005"
    },
    {
      "icao": "LRBS",
      "alert": "OK",
      "vis_m": 9999,
      "fzfg": false,
      "metar_trigger": false,
      "taf_trigger": false,
      "metar": "METAR LRBS 040930Z 08007KT CAVOK 01/M02 Q1017 NOSIG",
      "taf": "TAF LRBS 040500Z 0406/0506 05010KT CAVOK"
    },
    {
      "icao": "LRBV",
      "alert": "OK",
      "vis_m": 9999,
      "fzfg": false,
      "metar_trigger": false,
      "taf_trigger": false,
      "metar": "METAR LRBV 040930Z 11009KT 9999 -RA FEW041 SCT070 BKN086 06/M01 Q1012",
      "taf": "TAF LRBV 040800Z 0409/0418 12007KT CAVOK"
    },
    {
      "icao": "LRCL",
      "alert": "OK",
      "vis_m": 9999,
      "fzfg": false,
      "metar_trigger": false,
      "taf_trigger": false,
      "metar": "METAR LRCL 040930Z 07011KT 9999 -RA FEW035 BKN055 04/00 Q1010",
      "taf": "TAF LRCL 040800Z 0409/0418 09008KT 9999 BKN050"
    },
    {
      "icao": "LRCV",
      "alert": "OK",
      "vis_m": 9999,
      "fzfg": false,
      "metar_trigger": false,
      "taf_trigger": false,
      "metar": "METAR LRCV 040930Z 10004KT CAVOK M01/M07 Q1017",
      "taf": "TAF LRCV 040800Z 0409/0418 06005KT CAVOK"
    },
    {
      "icao": "LRIA",
      "alert": "OK",
      "vis_m": 9999,
      "fzfg": false,
      "metar_trigger": false,
      "taf_trigger": false,
      "metar": "METAR LRIA 040930Z 11013KT 9999 OVC011 M00/M03 Q1017",
      "taf": "TAF LRIA 040800Z 0409/0418 11014KT 9999 OVC010"
    },
    {
      "icao": "LROP",
      "alert": "OK",
      "vis_m": 9999,
      "fzfg": false,
      "metar_trigger": false,
      "taf_trigger": false,
      "metar": "METAR LROP 040930Z 07007KT CAVOK 00/M04 Q1017 NOSIG",
      "taf": "TAF LROP 040500Z 0406/0506 05010KT CAVOK"
    },
    {
      "icao": "LRSB",
      "alert": "OK",
      "vis_m": 9999,
      "fzfg": false,
      "metar_trigger": false,
      "taf_trigger": false,
      "metar": "METAR LRSB 040930Z 20005KT 150V260 9999 SCT065 10/02 Q1010",
      "taf": "TAF LRSB 040500Z 0406/0506 24006KT CAVOK"
    },
    {
      "icao": "LRSM",
      "alert": "OK",
      "vis_m": 9999,
      "fzfg": false,
      "metar_trigger": false,
      "taf_trigger": false,
      "metar": "METAR LRSM 040930Z 10004KT 9999 -RA OVC028 05/03 Q1010",
      "taf": "TAF LRSM 040800Z 0409/0418 13006KT 9999 OVC030"
    },
    {
      "icao": "LRSV",
      "alert": "OK",
      "vis_m": 4000,
      "fzfg": false,
      "metar_trigger": false,
      "taf_trigger": false,
      "metar": "METAR LRSV 040930Z COR 14013KT 4000 BR BKN004 M03/M03 Q1013",
      "taf": "TAF LRSV 040800Z 0409/0418 15012KT 5000 BR BKN010 BKN035"
    },
    {
      "icao": "LRTM",
      "alert": "OK",
      "vis_m": 9999,
      "fzfg": false,
      "metar_trigger": false,
      "taf_trigger": false,
      "metar": "METAR LRTM 040930Z 07005KT CAVOK 05/02 Q1011",
      "taf": "TAF LRTM 040800Z 0409/0418 08005KT CAVOK"
    },
    {
      "icao": "LRTR",
      "alert": "OK",
      "vis_m": 9999,
      "fzfg": false,
      "metar_trigger": false,
      "taf_trigger": false,
      "metar": "METAR LRTR 040930Z 11012KT 9999 -RA FEW035 06/04 Q1009 NOSIG",
      "taf": "TAF LRTR 040500Z 0406/0506 11012KT 9999 SCT040"
    },
    {
      "icao": "LTAC",
      "alert": "OK",
      "vis_m": 9999,
      "fzfg": false,
      "metar_trigger": false,
      "taf_trigger": false,
      "metar": "METAR LTAC 040920Z VRB03KT 9999 FEW040 SCT200 04/M02 Q1022 NOSIG",
      "taf": "TAF LTAC 040440Z 0406/0506 VRB02KT CAVOK"
    },
    {
      "icao": "LTFM",
      "alert": "OK",
      "vis_m": 8000,
      "fzfg": false,
      "metar_trigger": false,
      "taf_trigger": false,
      "metar": "METAR LTFM 040920Z 13008KT 8000 NSC 09/04 Q1019 NOSIG",
      "taf": "TAF LTFM 040440Z 0406/0512 15006KT 9999 SCT035 BKN180"
    },
    {
      "icao": "LUKK",
      "alert": "OK",
      "vis_m": 9999,
      "fzfg": false,
      "metar_trigger": false,
      "taf_trigger": false,
      "metar": "METAR LUKK 040930Z 12008KT 9999 OVC011 M01/M03 Q1020 NOSIG",
      "taf": "TAF LUKK 040511Z 0406/0506 13014KT 9999 OVC012"
    },
    {
      "icao": "LWOH",
      "alert": "OK",
      "vis_m": 9999,
      "fzfg": false,
      "metar_trigger": false,
      "taf_trigger": false,
      "metar": "METAR LWOH 040920Z 26004KT 230V300 9999 FEW040 08/05 Q1012",
      "taf": "TAF LWOH 040815Z 0409/0509 15010KT 9999 SCT040"
    },
    {
      "icao": "LWSK",
      "alert": "OK",
      "vis_m": 9999,
      "fzfg": false,
      "metar_trigger": false,
      "taf_trigger": false,
      "metar": "METAR LWSK 040920Z VRB02KT 9999 SCT010 OVC035 06/04 Q1015 NOSIG",
      "taf": "TAF LWSK 040815Z 0409/0509 VRB02KT 9999 BKN015 OVC035"
    },
    {
      "icao": "LYBE",
      "alert": "OK",
      "vis_m": 9999,
      "fzfg": false,
      "metar_trigger": false,
      "taf_trigger": false,
      "metar": "METAR LYBE 040930Z 13015KT 9999 SCT047 09/04 Q1007 NOSIG",
      "taf": "TAF LYBE 040500Z 0406/0506 12018KT 9999 SCT045 TX09/0412Z TN05/0506Z"
    },
    {
      "icao": "LYNI",
      "alert": "OK",
      "vis_m": 9999,
      "fzfg": false,
      "metar_trigger": false,
      "taf_trigger": false,
      "metar": "METAR LYNI 040930Z 18004KT 140V220 9999 SCT043 12/04 Q1012 NOSIG",
      "taf": "TAF LYNI 040500Z 0406/0506 11008KT CAVOK TX11/0413Z TN05/0406Z"
    },
    {
      "icao": "LYPG",
      "alert": "OK",
      "vis_m": 9999,
      "fzfg": false,
      "metar_trigger": false,
      "taf_trigger": false,
      "metar": "METAR LYPG 040930Z 10001KT 9999 SCT090 10/10 Q1008 NOSIG",
      "taf": "TAF LYPG 040500Z 0406/0506 16005KT 9999 FEW010 SCT040 BKN080 TX16/0416Z TN07/0406Z"
    },
    {
      "icao": "LZIB",
      "alert": "OK",
      "vis_m": 8000,
      "fzfg": false,
      "metar_trigger": false,
      "taf_trigger": false,
      "metar": "METAR LZIB 040930Z 05009KT 8000 -RA OVC005 02/01 Q1007 NOSIG",
      "taf": "TAF LZIB 040515Z 0406/0506 06010KT 9999 OVC016"
    },
    {
      "icao": "LZKZ",
      "alert": "OK",
      "vis_m": 3200,
      "fzfg": false,
      "metar_trigger": false,
      "taf_trigger": false,
      "metar": "METAR LZKZ 040930Z 34004KT 3200 -DZ BR FEW004 OVC011 02/01 Q1010 TEMPO 2500 -DZ BR",
      "taf": ""
    },
    {
      "icao": "LZTT",
      "alert": "OK",
      "vis_m": 9999,
      "fzfg": false,
      "metar_trigger": false,
      "taf_trigger": false,
      "metar": "METAR LZTT 040930Z 33001KT 9999 BKN004 BKN023 00/M02 Q1007 NOSIG",
      "taf": ""
    },
    {
      "icao": "OEJN",
      "alert": "OK",
      "vis_m": 9999,
      "fzfg": false,
      "metar_trigger": false,
      "taf_trigger": false,
      "metar": "METAR OEJN 040900Z 36004KT CAVOK 29/10 Q1014 NOSIG",
      "taf": "TAF OEJN 040500Z 0406/0512 33012KT CAVOK"
    },
    {
      "icao": "OEMA",
      "alert": "OK",
      "vis_m": 9999,
      "fzfg": false,
      "metar_trigger": false,
      "taf_trigger": false,
      "metar": "METAR OEMA 040900Z 10008KT CAVOK 23/00 Q1021 NOSIG",
      "taf": "TAF OEMA 040500Z 0406/0512 09008KT CAVOK"
    },
    {
      "icao": "OJAI",
      "alert": "OK",
      "vis_m": null,
      "fzfg": false,
      "metar_trigger": false,
      "taf_trigger": false,
      "metar": "",
      "taf": "TAF OJAI 040429Z 0406/0512 26006KT 5000 HZ FEW035"
    },
    {
      "icao": "OMAA",
      "alert": "OK",
      "vis_m": 9999,
      "fzfg": false,
      "metar_trigger": false,
      "taf_trigger": false,
      "metar": "METAR OMAA 040930Z 17011KT CAVOK 29/07 Q1015 NOSIG",
      "taf": "TAF OMAA 040500Z 0406/0512 15012KT 8000 NSC"
    },
    {
      "icao": "OMDB",
      "alert": "OK",
      "vis_m": 9999,
      "fzfg": false,
      "metar_trigger": false,
      "taf_trigger": false,
      "metar": "METAR OMDB 040930Z 19009KT 150V240 CAVOK 30/10 Q1015 NOSIG",
      "taf": "TAF OMDB 040500Z 0406/0512 17008KT 8000 NSC"
    },
    {
      "icao": "UAAA",
      "alert": "OK",
      "vis_m": 5000,
      "fzfg": false,
      "metar_trigger": false,
      "taf_trigger": false,
      "metar": "METAR UAAA 040930Z 03004MPS 5000 BR SCT050 06/03 Q1023 NOSIG",
      "taf": ""
    },
    {
      "icao": "UBBB",
      "alert": "OK",
      "vis_m": 5000,
      "fzfg": false,
      "metar_trigger": false,
      "taf_trigger": false,
      "metar": "METAR UBBB 040930Z 32030G40KT 5000 -SN BKN008 OVC018 01/00 Q1019 WS R35 TEMPO BKN015",
      "taf": ""
    },
    {
      "icao": "UDSG",
      "alert": "OK",
      "vis_m": 9999,
      "fzfg": false,
      "metar_trigger": false,
      "taf_trigger": false,
      "metar": "METAR UDSG 040930Z 36010KT 9999 BKN040 M00/M08 Q1016 NOSIG",
      "taf": "TAF UDSG 040458Z 0406/0506 VRB06KT 9999 SCT040"
    },
    {
      "icao": "UDYZ",
      "alert": "OK",
      "vis_m": 9999,
      "fzfg": false,
      "metar_trigger": false,
      "taf_trigger": false,
      "metar": "METAR UDYZ 040930Z 14003KT 090V190 9999 FEW046 07/M01 Q1014 NOSIG",
      "taf": "TAF UDYZ 040500Z 0406/0506 VRB06KT 9999 SCT040"
    },
    {
      "icao": "UGKO",
      "alert": "OK",
      "vis_m": 9999,
      "fzfg": false,
      "metar_trigger": false,
      "taf_trigger": false,
      "metar": "METAR UGKO 040930Z 27012KT 9999 SCT015 OVC022 06/03 Q1024 NOSIG",
      "taf": "TAF UGKO 040500Z 0406/0506 25008KT 9999 SCT030 OVC050 TX07/0410Z TNM01/0503Z"
    }
  ]
}