{
  "ts_utc": "2026-02-20T10:32:21Z",
  "threshold_m": 150,
  "source": "stations_override.txt (ICAO list) + aviationweather.gov (METAR/TAF raw)",
  "station_count": 159,
  "stations": [
    {
      "icao": "BIKF",
      "alert": "OK",
      "vis_m": 9999,
      "fzfg": false,
      "metar_trigger": false,
      "taf_trigger": false,
      "metar": "METAR BIKF 201000Z 07008KT CAVOK M03/M06 Q1007",
      "taf": "TAF BIKF 200751Z 2009/2109 06009KT CAVOK TX02/2015Z TNM07/2106Z"
    },
    {
      "icao": "BKPR",
      "alert": "OK",
      "vis_m": 9999,
      "fzfg": false,
      "metar_trigger": false,
      "taf_trigger": false,
      "metar": "METAR BKPR 201030Z 13012KT 9999 SCT015 BKN025 06/05 Q1009 NOSIG",
      "taf": "TAF BKPR 200530Z 2006/2106 18008KT 9999 FEW015 BKN030"
    },
    {
      "icao": "EBCI",
      "alert": "OK",
      "vis_m": 7000,
      "fzfg": false,
      "metar_trigger": false,
      "taf_trigger": false,
      "metar": "METAR EBCI 201020Z 22009KT 7000 FEW010 BKN020 05/03 Q1021 NOSIG",
      "taf": "TAF EBCI 200500Z 2006/2112 22008KT 9999 SCT006 BKN011"
    },
    {
      "icao": "EDDB",
      "alert": "OK",
      "vis_m": 9999,
      "fzfg": false,
      "metar_trigger": false,
      "taf_trigger": false,
      "metar": "METAR EDDB 201020Z AUTO 17008KT CAVOK M01/M06 Q1026 NOSIG",
      "taf": "TAF EDDB 200500Z 2006/2106 10004KT CAVOK"
    },
    {
      "icao": "EDDH",
      "alert": "OK",
      "vis_m": 9999,
      "fzfg": false,
      "metar_trigger": false,
      "taf_trigger": false,
      "metar": "METAR EDDH 201020Z AUTO 14016KT CAVOK M02/M07 Q1021 TEMPO 15015G25KT",
      "taf": ""
    },
    {
      "icao": "EDDK",
      "alert": "OK",
      "vis_m": 9999,
      "fzfg": false,
      "metar_trigger": false,
      "taf_trigger": false,
      "metar": "METAR EDDK 201020Z AUTO 13007KT 9999 VCSH OVC017 FEW///TCU 02/M01 Q1021 TEMPO BKN014",
      "taf": "TAF EDDK 200500Z 2006/2112 11007KT CAVOK"
    },
    {
      "icao": "EDDN",
      "alert": "OK",
      "vis_m": 9999,
      "fzfg": false,
      "metar_trigger": false,
      "taf_trigger": false,
      "metar": "METAR EDDN 201020Z AUTO 11004KT 060V130 CAVOK 01/M03 Q1022 NOSIG",
      "taf": "TAF EDDN 200500Z 2006/2106 VRB03KT CAVOK"
    },
    {
      "icao": "EDDS",
      "alert": "OK",
      "vis_m": 9999,
      "fzfg": false,
      "metar_trigger": false,
      "taf_trigger": false,
      "metar": "METAR EDDS 201020Z AUTO 20005KT 170V240 9999 OVC016 03/00 Q1021 NOSIG",
      "taf": "TAF EDDS 200500Z 2006/2106 VRB03KT 9999 BKN015"
    },
    {
      "icao": "EDFH",
      "alert": "OK",
      "vis_m": 9000,
      "fzfg": false,
      "metar_trigger": false,
      "taf_trigger": false,
      "metar": "METAR EDFH 201020Z 15007KT 9000 FEW006 OVC009 01/M00 Q1020",
      "taf": "TAF EDFH 200500Z 2006/2106 15010KT 9999 BKN012"
    },
    {
      "icao": "EDJA",
      "alert": "OK",
      "vis_m": 9999,
      "fzfg": false,
      "metar_trigger": false,
      "taf_trigger": false,
      "metar": "METAR EDJA 201020Z 03002KT 9999 SCT006 OVC008 02/M00 Q1021",
      "taf": "TAF EDJA 200800Z 2009/2018 VRB03KT 7000 OVC006"
    },
    {
      "icao": "EDLW",
      "alert": "OK",
      "vis_m": 9999,
      "fzfg": false,
      "metar_trigger": false,
      "taf_trigger": false,
      "metar": "METAR EDLW 201020Z 18011KT 9999 SCT015 OVC017 04/M01 Q1019",
      "taf": "TAF EDLW 200500Z 2006/2106 VRB03KT CAVOK"
    },
    {
      "icao": "EDNY",
      "alert": "OK",
      "vis_m": 8000,
      "fzfg": false,
      "metar_trigger": false,
      "taf_trigger": false,
      "metar": "METAR EDNY 201020Z VRB02KT 8000 SCT008 OVC057 03/01 Q1022",
      "taf": "TAF EDNY 200800Z 2009/2018 VRB03KT 5000 BR FEW008 BKN015"
    },
    {
      "icao": "EDSB",
      "alert": "OK",
      "vis_m": 9999,
      "fzfg": false,
      "metar_trigger": false,
      "taf_trigger": false,
      "metar": "METAR EDSB 201020Z 22006KT 9999 BKN011 04/01 Q1023",
      "taf": "TAF EDSB 200500Z 2006/2106 02008KT 9999 BKN015"
    },
    {
      "icao": "EETN",
      "alert": "OK",
      "vis_m": 9999,
      "fzfg": false,
      "metar_trigger": false,
      "taf_trigger": false,
      "metar": "METAR EETN 201020Z 29010KT 9999 FEW014 M06/M10 Q1016 TEMPO BKN010",
      "taf": "TAF EETN 200530Z 2006/2106 27008KT 9999 SCT009 SCT018"
    },
    {
      "icao": "EFTU",
      "alert": "OK",
      "vis_m": 9999,
      "fzfg": false,
      "metar_trigger": false,
      "taf_trigger": false,
      "metar": "METAR EFTU 201020Z AUTO 21008KT CAVOK M04/M09 Q1014",
      "taf": "TAF EFTU 200832Z 2009/2109 22005KT CAVOK"
    },
    {
      "icao": "EGBB",
      "alert": "OK",
      "vis_m": 9999,
      "fzfg": false,
      "metar_trigger": false,
      "taf_trigger": false,
      "metar": "METAR EGBB 201020Z 20009KT 160V240 9999 BKN013 07/05 Q1013",
      "taf": "TAF EGBB 200454Z 2006/2106 21010KT 9999 FEW030"
    },
    {
      "icao": "EGGP",
      "alert": "OK",
      "vis_m": 9999,
      "fzfg": false,
      "metar_trigger": false,
      "taf_trigger": false,
      "metar": "METAR EGGP 201020Z 18009KT 9999 -RA SCT023 SCT048 07/06 Q1009",
      "taf": "TAF EGGP 200505Z 2006/2106 19010KT 9999 FEW030"
    },
    {
      "icao": "EGGW",
      "alert": "OK",
      "vis_m": 9999,
      "fzfg": false,
      "metar_trigger": false,
      "taf_trigger": false,
      "metar": "METAR EGGW 201020Z AUTO 21011KT 170V230 9999 NCD 07/05 Q1015",
      "taf": ""
    },
    {
      "icao": "EGKK",
      "alert": "OK",
      "vis_m": 9999,
      "fzfg": false,
      "metar_trigger": false,
      "taf_trigger": false,
      "metar": "METAR EGKK 201020Z 22009KT 9999 FEW040 09/06 Q1018",
      "taf": "TAF EGKK 200457Z 2006/2112 22005KT 9999 SCT030"
    },
    {
      "icao": "EGNM",
      "alert": "OK",
      "vis_m": 9999,
      "fzfg": false,
      "metar_trigger": false,
      "taf_trigger": false,
      "metar": "METAR EGNM 201020Z 20013KT 9999 -SHRA BKN016 06/04 Q1008",
      "taf": "TAF EGNM 200527Z 2006/2106 22012KT 9999 FEW012 SCT020"
    },
    {
      "icao": "EGPD",
      "alert": "OK",
      "vis_m": 9999,
      "fzfg": false,
      "metar_trigger": false,
      "taf_trigger": false,
      "metar": "METAR EGPD 201020Z AUTO 19013KT 9999 BKN016 05/03 Q1000 TEMPO BKN014",
      "taf": "TAF EGPD 200459Z 2006/2106 17010KT 9999 SCT020"
    },
    {
      "icao": "EGPF",
      "alert": "OK",
      "vis_m": 9999,
      "fzfg": false,
      "metar_trigger": false,
      "taf_trigger": false,
      "metar": "METAR EGPF 201020Z AUTO 21021G32KT 9999 -RA OVC012/// //////TCU 08/07 Q1001",
      "taf": "TAF EGPF 200459Z 2006/2106 21012KT 9999 FEW012 SCT025"
    },
    {
      "icao": "EHBK",
      "alert": "OK",
      "vis_m": 9999,
      "fzfg": false,
      "metar_trigger": false,
      "taf_trigger": false,
      "metar": "METAR EHBK 201025Z AUTO 22011KT 200V270 9999 SCT012 BKN015 OVC019 06/04 Q1020 BECMG BKN016",
      "taf": ""
    },
    {
      "icao": "EHEH",
      "alert": "OK",
      "vis_m": 9999,
      "fzfg": false,
      "metar_trigger": false,
      "taf_trigger": false,
      "metar": "METAR EHEH 201025Z AUTO 22011KT 9999 FEW010 SCT012 BKN015 06/04 Q1019 WHT BECMG 6000 NSW SCT010 BKN015",
      "taf": "TAF EHEH 200532Z 2006/2112 18004KT 8000 BR BKN010 OVC012"
    },
    {
      "icao": "EKBI",
      "alert": "OK",
      "vis_m": 9999,
      "fzfg": false,
      "metar_trigger": false,
      "taf_trigger": false,
      "metar": "METAR EKBI 201020Z AUTO 15014G25KT 9999 BKN110/// M02/M08 Q1018",
      "taf": "TAF EKBI 200827Z 2009/2109 16012KT CAVOK"
    },
    {
      "icao": "EKCH",
      "alert": "OK",
      "vis_m": 9999,
      "fzfg": false,
      "metar_trigger": false,
      "taf_trigger": false,
      "metar": "METAR EKCH 201020Z AUTO 18016KT 9999 NCD M01/M06 Q1024 NOSIG",
      "taf": "TAF EKCH 200827Z 2009/2109 18015KT 9999 SCT015"
    },
    {
      "icao": "ENAL",
      "alert": "OK",
      "vis_m": 9999,
      "fzfg": false,
      "metar_trigger": false,
      "taf_trigger": false,
      "metar": "METAR ENAL 201020Z 20020G31KT 170V230 CAVOK 05/M05 Q0999",
      "taf": "TAF ENAL 200800Z 2009/2018 20018KT CAVOK"
    },
    {
      "icao": "ENBR",
      "alert": "OK",
      "vis_m": 9999,
      "fzfg": false,
      "metar_trigger": false,
      "taf_trigger": false,
      "metar": "METAR ENBR 201020Z 15025G36KT 9999 BKN030 02/M04 Q1006 TEMPO 16024KT RMK WIND 1200FT 16033G45KT",
      "taf": "TAF ENBR 200500Z 2006/2106 16018KT CAVOK"
    },
    {
      "icao": "ENGM",
      "alert": "OK",
      "vis_m": 9999,
      "fzfg": false,
      "metar_trigger": false,
      "taf_trigger": false,
      "metar": "METAR ENGM 201020Z 21007KT 9999 SCT014 M04/M06 Q1013 NOSIG",
      "taf": "TAF ENGM 200500Z 2006/2106 17005KT 9999 SCT010"
    },
    {
      "icao": "ENHD",
      "alert": "OK",
      "vis_m": 2000,
      "fzfg": false,
      "metar_trigger": false,
      "taf_trigger": false,
      "metar": "METAR ENHD 201020Z 14021KT 2000 -SHSNRA SCT001 BKN006 BKN014 M00/M01 Q1007",
      "taf": "TAF ENHD 200800Z 2009/2018 15020G30KT 9999 BKN020"
    },
    {
      "icao": "ENTC",
      "alert": "OK",
      "vis_m": 9999,
      "fzfg": false,
      "metar_trigger": false,
      "taf_trigger": false,
      "metar": "METAR ENTC 201020Z 19016KT CAVOK M05/M12 Q1003 NOSIG RMK WIND 2600FT 17027KT",
      "taf": "TAF ENTC 200500Z 2006/2106 20008KT CAVOK"
    },
    {
      "icao": "ENTO",
      "alert": "OK",
      "vis_m": 9999,
      "fzfg": false,
      "metar_trigger": false,
      "taf_trigger": false,
      "metar": "METAR ENTO 201020Z 18009KT CAVOK M02/M03 Q1016 NOSIG",
      "taf": "TAF ENTO 200500Z 2006/2106 22005KT 9999 FEW010"
    },
    {
      "icao": "ENVA",
      "alert": "OK",
      "vis_m": 9999,
      "fzfg": false,
      "metar_trigger": false,
      "taf_trigger": false,
      "metar": "METAR ENVA 201020Z 17015KT CAVOK 04/M11 Q1001 NOSIG RMK WIND 670FT 18024G38KT",
      "taf": "TAF ENVA 200500Z 2006/2106 17009KT 9999 FEW025 BKN040"
    },
    {
      "icao": "ENZV",
      "alert": "OK",
      "vis_m": 3000,
      "fzfg": false,
      "metar_trigger": false,
      "taf_trigger": false,
      "metar": "METAR ENZV 201020Z 14014KT 3000 -RASN VV013 M00/M01 Q1008 TEMPO 15022G32KT 9999 SCT013 BKN025",
      "taf": "TAF ENZV 200500Z 2006/2106 15018KT CAVOK"
    },
    {
      "icao": "EPGD",
      "alert": "OK",
      "vis_m": 9999,
      "fzfg": false,
      "metar_trigger": false,
      "taf_trigger": false,
      "metar": "METAR EPGD 201000Z 24004KT 9999 BKN027 M02/M07 Q1027",
      "taf": "TAF EPGD 200530Z 2006/2106 VRB03KT 9999 BKN020"
    },
    {
      "icao": "EPKK",
      "alert": "OK",
      "vis_m": 9999,
      "fzfg": false,
      "metar_trigger": false,
      "taf_trigger": false,
      "metar": "METAR EPKK 201000Z 10012KT 9999 FEW023 M03/M09 Q1024",
      "taf": "TAF EPKK 200830Z 2009/2109 06009KT CAVOK"
    },
    {
      "icao": "EPKT",
      "alert": "OK",
      "vis_m": 9999,
      "fzfg": false,
      "metar_trigger": false,
      "taf_trigger": false,
      "metar": "METAR EPKT 201000Z 09014KT 9999 FEW018 M03/M07 Q1024",
      "taf": "TAF EPKT 200530Z 2006/2106 07005KT CAVOK"
    },
    {
      "icao": "EPLB",
      "alert": "OK",
      "vis_m": 9999,
      "fzfg": false,
      "metar_trigger": false,
      "taf_trigger": false,
      "metar": "METAR EPLB 201000Z 04005KT CAVOK M04/M06 Q1025",
      "taf": ""
    },
    {
      "icao": "EPMO",
      "alert": "OK",
      "vis_m": 9999,
      "fzfg": false,
      "metar_trigger": false,
      "taf_trigger": false,
      "metar": "METAR EPMO 201000Z 27002KT CAVOK M02/M05 Q1027",
      "taf": "TAF EPMO 200530Z 2006/2106 31004KT CAVOK"
    },
    {
      "icao": "EPPO",
      "alert": "OK",
      "vis_m": 9999,
      "fzfg": false,
      "metar_trigger": false,
      "taf_trigger": false,
      "metar": "METAR EPPO 201000Z 11011KT CAVOK M01/M09 Q1026",
      "taf": "TAF EPPO 200530Z 2006/2106 06005KT CAVOK"
    },
    {
      "icao": "EPRA",
      "alert": "OK",
      "vis_m": 9999,
      "fzfg": false,
      "metar_trigger": false,
      "taf_trigger": false,
      "metar": "METAR EPRA 201000Z 02006KT 340V070 9999 FEW016 M03/M07 Q1026",
      "taf": "TAF EPRA 200830Z 2009/2018 01006KT 5000 BR BKN003"
    },
    {
      "icao": "EPRZ",
      "alert": "OK",
      "vis_m": 9999,
      "fzfg": false,
      "metar_trigger": false,
      "taf_trigger": false,
      "metar": "METAR EPRZ 201000Z VRB02KT CAVOK M04/M09 Q1025",
      "taf": "TAF EPRZ 200530Z 2006/2106 01003KT CAVOK"
    },
    {
      "icao": "EPSC",
      "alert": "OK",
      "vis_m": 9999,
      "fzfg": false,
      "metar_trigger": false,
      "taf_trigger": false,
      "metar": "METAR EPSC 201000Z 14010KT CAVOK M03/M08 Q1026",
      "taf": "TAF EPSC 200530Z 2006/2106 VRB02KT CAVOK"
    },
    {
      "icao": "EPSY",
      "alert": "OK",
      "vis_m": 9999,
      "fzfg": false,
      "metar_trigger": false,
      "taf_trigger": false,
      "metar": "METAR EPSY 201000Z VRB03KT 9999 BKN027 M03/M07 Q1026",
      "taf": "TAF EPSY 200830Z 2009/2018 21004KT 9999 BKN030"
    },
    {
      "icao": "EPWA",
      "alert": "OK",
      "vis_m": 9999,
      "fzfg": false,
      "metar_trigger": false,
      "taf_trigger": false,
      "metar": "METAR EPWA 201000Z 36005KT 310V070 9999 FEW020 M02/M06 Q1026 NOSIG",
      "taf": "TAF EPWA 200830Z 2009/2109 01003KT CAVOK"
    },
    {
      "icao": "EPWR",
      "alert": "OK",
      "vis_m": 9999,
      "fzfg": false,
      "metar_trigger": false,
      "taf_trigger": false,
      "metar": "METAR EPWR 201000Z 14006KT 110V170 9999 FEW018 M03/M07 Q1026",
      "taf": "TAF EPWR 200830Z 2009/2109 VRB02KT CAVOK"
    },
    {
      "icao": "ESGG",
      "alert": "OK",
      "vis_m": 9999,
      "fzfg": false,
      "metar_trigger": false,
      "taf_trigger": false,
      "metar": "METAR ESGG 201020Z 17011KT 9999 SCT007 M05/M05 Q1020",
      "taf": ""
    },
    {
      "icao": "ESKN",
      "alert": "OK",
      "vis_m": 9999,
      "fzfg": false,
      "metar_trigger": false,
      "taf_trigger": false,
      "metar": "METAR ESKN 201020Z 23009KT CAVOK M02/M08 Q1019",
      "taf": "TAF ESKN 200830Z 2009/2109 26008KT CAVOK"
    },
    {
      "icao": "ESMS",
      "alert": "OK",
      "vis_m": 9999,
      "fzfg": false,
      "metar_trigger": false,
      "taf_trigger": false,
      "metar": "METAR ESMS 201020Z 19017KT CAVOK M02/M06 Q1024",
      "taf": "TAF ESMS 200827Z 2009/2109 17012KT CAVOK"
    },
    {
      "icao": "ESSA",
      "alert": "OK",
      "vis_m": 9999,
      "fzfg": false,
      "metar_trigger": false,
      "taf_trigger": false,
      "metar": "METAR ESSA 201020Z 24013KT CAVOK M04/M09 Q1017 NOSIG",
      "taf": "TAF ESSA 200830Z 2009/2109 25010KT CAVOK"
    },
    {
      "icao": "EYKA",
      "alert": "OK",
      "vis_m": 9999,
      "fzfg": false,
      "metar_trigger": false,
      "taf_trigger": false,
      "metar": "METAR EYKA 201020Z 27007KT 9999 BKN032 M05/M09 Q1024",
      "taf": "TAF EYKA 200501Z 2006/2106 VRB04KT 9000 BKN025"
    },
    {
      "icao": "EYPA",
      "alert": "OK",
      "vis_m": 9999,
      "fzfg": false,
      "metar_trigger": false,
      "taf_trigger": false,
      "metar": "METAR EYPA 201020Z 28005KT 240V310 9999 BKN022 00/M05 Q1025",
      "taf": "TAF EYPA 200502Z 2006/2106 VRB04KT 9000 BKN025"
    },
    {
      "icao": "EYVI",
      "alert": "OK",
      "vis_m": 9999,
      "fzfg": false,
      "metar_trigger": false,
      "taf_trigger": false,
      "metar": "METAR EYVI 201020Z 29007KT 9999 BKN020 M05/M10 Q1022 NOSIG",
      "taf": "TAF EYVI 200520Z 2006/2106 33010KT 8000 BKN015"
    },
    {
      "icao": "GCFV",
      "alert": "OK",
      "vis_m": 9999,
      "fzfg": false,
      "metar_trigger": false,
      "taf_trigger": false,
      "metar": "METAR GCFV 201000Z 02014KT 9999 BKN019 18/13 Q1024",
      "taf": "TAF GCFV 200800Z 2009/2109 04013KT 9999 SCT020 TX21/2014Z TN14/2106Z"
    },
    {
      "icao": "GCLP",
      "alert": "OK",
      "vis_m": 9999,
      "fzfg": false,
      "metar_trigger": false,
      "taf_trigger": false,
      "metar": "METAR GCLP 201000Z 01018KT 9999 SCT025 18/12 Q1024 NOSIG",
      "taf": "TAF GCLP 200800Z 2009/2109 02018KT 9999 SCT025 TX20/2014Z TN16/2106Z"
    },
    {
      "icao": "GCTS",
      "alert": "OK",
      "vis_m": 9999,
      "fzfg": false,
      "metar_trigger": false,
      "taf_trigger": false,
      "metar": "METAR GCTS 201000Z 08017KT 9999 FEW020 19/12 Q1024 NOSIG",
      "taf": "TAF GCTS 200800Z 2009/2109 05009KT 9999 FEW020 TX23/2014Z TN16/2106Z"
    },
    {
      "icao": "GMAD",
      "alert": "OK",
      "vis_m": 1000,
      "fzfg": false,
      "metar_trigger": false,
      "taf_trigger": false,
      "metar": "METAR GMAD 201000Z 00000KT 1000 R27/0900N FG OVC003 12/12 Q1023 BECMG 3000 BR OVC006",
      "taf": "TAF GMAD 200500Z 2006/2112 06006KT 1500 BR OVC005"
    },
    {
      "icao": "GMMN",
      "alert": "OK",
      "vis_m": 9999,
      "fzfg": false,
      "metar_trigger": false,
      "taf_trigger": false,
      "metar": "METAR GMMN 201000Z 07008KT CAVOK 14/09 Q1026 NOSIG",
      "taf": "TAF GMMN 200500Z 2006/2112 06006KT 9999 FEW020"
    },
    {
      "icao": "GMMX",
      "alert": "OK",
      "vis_m": 9999,
      "fzfg": false,
      "metar_trigger": false,
      "taf_trigger": false,
      "metar": "METAR GMMX 201000Z VRB02KT CAVOK 16/12 Q1023 NOSIG",
      "taf": "TAF GMMX 200500Z 2006/2112 08006KT CAVOK"
    },
    {
      "icao": "HEGN",
      "alert": "OK",
      "vis_m": 9999,
      "fzfg": false,
      "metar_trigger": false,
      "taf_trigger": false,
      "metar": "METAR HEGN 201000Z 36011KT CAVOK 22/09 Q1019 NOSIG",
      "taf": ""
    },
    {
      "icao": "HEMA",
      "alert": "OK",
      "vis_m": 9999,
      "fzfg": false,
      "metar_trigger": false,
      "taf_trigger": false,
      "metar": "METAR HEMA 201000Z 34018KT CAVOK 25/09 Q1018 NOSIG",
      "taf": ""
    },
    {
      "icao": "HESH",
      "alert": "OK",
      "vis_m": 9999,
      "fzfg": false,
      "metar_trigger": false,
      "taf_trigger": false,
      "metar": "METAR HESH 201000Z 03006KT CAVOK 24/10 Q1018 NOSIG",
      "taf": ""
    },
    {
      "icao": "HESX",
      "alert": "OK",
      "vis_m": 9999,
      "fzfg": false,
      "metar_trigger": false,
      "taf_trigger": false,
      "metar": "METAR HESX 201000Z 05010KT 9999 SCT020 18/06 Q1022 NOSIG",
      "taf": ""
    },
    {
      "icao": "LATI",
      "alert": "OK",
      "vis_m": 9999,
      "fzfg": false,
      "metar_trigger": false,
      "taf_trigger": false,
      "metar": "METAR LATI 201020Z 13012KT 9999 -RA FEW020 SCT035 BKN055 11/07 Q1011 NOSIG",
      "taf": "TAF LATI 200500Z 2006/2106 10010KT 9999 SCT040 BKN060 TX14/2013Z TN07/2104Z"
    },
    {
      "icao": "LBPD",
      "alert": "OK",
      "vis_m": 9999,
      "fzfg": false,
      "metar_trigger": false,
      "taf_trigger": false,
      "metar": "METAR LBPD 201030Z AUTO VRB02KT 9999 BKN064/// BKN074/// 10/06 Q1013 NOSIG",
      "taf": "TAF LBPD 200500Z 2006/2106 10010KT 9999 SCT040 BKN060"
    },
    {
      "icao": "LBSF",
      "alert": "OK",
      "vis_m": 9999,
      "fzfg": false,
      "metar_trigger": false,
      "taf_trigger": false,
      "metar": "METAR LBSF 201030Z 10007KT 9999 FEW059 BKN066 OVC074 09/01 Q1012 NOSIG",
      "taf": "TAF LBSF 200500Z 2006/2106 11014KT 9999 SCT050 BKN070"
    },
    {
      "icao": "LBWN",
      "alert": "OK",
      "vis_m": 9999,
      "fzfg": false,
      "metar_trigger": false,
      "taf_trigger": false,
      "metar": "METAR LBWN 201030Z 12003KT 030V160 9999 FEW034 13/07 Q1015 NOSIG",
      "taf": "TAF LBWN 200500Z 2006/2106 09008KT 9999 SCT050"
    },
    {
      "icao": "LCLK",
      "alert": "OK",
      "vis_m": 9999,
      "fzfg": false,
      "metar_trigger": false,
      "taf_trigger": false,
      "metar": "METAR LCLK 201000Z 08008KT 9999 FEW025 SCT045 20/10 Q1024 NOSIG",
      "taf": "TAF LCLK 200530Z 2006/2106 34006KT 9999 FEW025"
    },
    {
      "icao": "LCPH",
      "alert": "OK",
      "vis_m": 9999,
      "fzfg": false,
      "metar_trigger": false,
      "taf_trigger": false,
      "metar": "METAR LCPH 201000Z 15014KT 9999 FEW025 19/10 Q1023 NOSIG",
      "taf": "TAF LCPH 200530Z 2006/2106 04008KT 9999 FEW025"
    },
    {
      "icao": "LEAL",
      "alert": "OK",
      "vis_m": 9999,
      "fzfg": false,
      "metar_trigger": false,
      "taf_trigger": false,
      "metar": "METAR LEAL 201000Z 30007KT 260V330 CAVOK 17/M01 Q1026 NOSIG",
      "taf": ""
    },
    {
      "icao": "LEBB",
      "alert": "OK",
      "vis_m": 9999,
      "fzfg": false,
      "metar_trigger": false,
      "taf_trigger": false,
      "metar": "METAR LEBB 201000Z 11003KT 070V160 9999 FEW025 BKN038 10/09 Q1032 NOSIG",
      "taf": ""
    },
    {
      "icao": "LEBL",
      "alert": "OK",
      "vis_m": 9999,
      "fzfg": false,
      "metar_trigger": false,
      "taf_trigger": false,
      "metar": "METAR LEBL 201000Z 33014G27KT 290V010 9999 FEW040 12/03 Q1024 NOSIG",
      "taf": ""
    },
    {
      "icao": "LECH",
      "alert": "OK",
      "vis_m": 9999,
      "fzfg": false,
      "metar_trigger": false,
      "taf_trigger": false,
      "metar": "METAR LECH 201000Z AUTO 01012KT 330V050 CAVOK 14/M01 Q1025",
      "taf": ""
    },
    {
      "icao": "LEMD",
      "alert": "OK",
      "vis_m": 9999,
      "fzfg": false,
      "metar_trigger": false,
      "taf_trigger": false,
      "metar": "METAR LEMD 201000Z VRB01KT CAVOK 07/01 Q1030 NOSIG",
      "taf": "TAF LEMD 200500Z 2006/2112 VRB03KT CAVOK TX14/2015Z TNM00/2006Z"
    },
    {
      "icao": "LEMG",
      "alert": "OK",
      "vis_m": 9999,
      "fzfg": false,
      "metar_trigger": false,
      "taf_trigger": false,
      "metar": "METAR LEMG 201000Z 30007KT CAVOK 13/06 Q1028 NOSIG",
      "taf": "TAF LEMG 200500Z 2006/2106 29010KT CAVOK TX18/2014Z TN11/2007Z"
    },
    {
      "icao": "LEVC",
      "alert": "OK",
      "vis_m": 9999,
      "fzfg": false,
      "metar_trigger": false,
      "taf_trigger": false,
      "metar": "METAR LEVC 201000Z 24008KT 210V270 CAVOK 16/01 Q1026 NOSIG",
      "taf": "TAF LEVC 200500Z 2006/2106 27009KT CAVOK TX21/2014Z TN08/2006Z"
    },
    {
      "icao": "LEXJ",
      "alert": "OK",
      "vis_m": 9999,
      "fzfg": false,
      "metar_trigger": false,
      "taf_trigger": false,
      "metar": "METAR LEXJ 201000Z 24005KT 210V270 9999 BKN055 12/04 Q1032",
      "taf": "TAF LEXJ 200800Z 2009/2109 22009KT 9999 SCT040 TX15/2014Z TN07/2107Z"
    },
    {
      "icao": "LEZG",
      "alert": "OK",
      "vis_m": 9999,
      "fzfg": false,
      "metar_trigger": false,
      "taf_trigger": false,
      "metar": "METAR LEZG 201000Z 29022KT 9999 OVC040 11/03 Q1029 NOSIG",
      "taf": "TAF LEZG 200500Z 2006/2106 28010KT CAVOK TX13/2014Z TN07/2006Z"
    },
    {
      "icao": "LEZL",
      "alert": "OK",
      "vis_m": 9999,
      "fzfg": false,
      "metar_trigger": false,
      "taf_trigger": false,
      "metar": "METAR LEZL 201000Z 05009KT 020V080 CAVOK 13/05 Q1029 NOSIG",
      "taf": "TAF LEZL 200800Z 2009/2109 06010KT CAVOK TX19/2015Z TN05/2107Z"
    },
    {
      "icao": "LFBD",
      "alert": "OK",
      "vis_m": 9999,
      "fzfg": false,
      "metar_trigger": false,
      "taf_trigger": false,
      "metar": "METAR LFBD 201000Z AUTO VRB02KT 9999 FEW029 SCT049 10/08 Q1030 NOSIG",
      "taf": ""
    },
    {
      "icao": "LFLL",
      "alert": "OK",
      "vis_m": 9999,
      "fzfg": false,
      "metar_trigger": false,
      "taf_trigger": false,
      "metar": "METAR LFLL 201000Z 33008KT 9999 FEW040 BKN045 08/03 Q1025 NOSIG",
      "taf": "TAF LFLL 200500Z 2006/2112 35012KT 9999 BKN030"
    },
    {
      "icao": "LFLS",
      "alert": "OK",
      "vis_m": 9999,
      "fzfg": false,
      "metar_trigger": false,
      "taf_trigger": false,
      "metar": "METAR LFLS 201000Z AUTO VRB03KT 9999 BKN020 BKN028 OVC039 06/03 Q1025 NOSIG",
      "taf": "TAF LFLS 200800Z 2009/2109 35009KT 9999 BKN030"
    },
    {
      "icao": "LFMN",
      "alert": "OK",
      "vis_m": 9999,
      "fzfg": false,
      "metar_trigger": false,
      "taf_trigger": false,
      "metar": "METAR LFMN 201000Z 26004KT 220V290 CAVOK 17/01 Q1010 NOSIG",
      "taf": "TAF LFMN 200800Z 2009/2115 VRB04KT CAVOK"
    },
    {
      "icao": "LFOB",
      "alert": "OK",
      "vis_m": 9999,
      "fzfg": false,
      "metar_trigger": false,
      "taf_trigger": false,
      "metar": "METAR LFOB 201000Z AUTO 22009KT 9999 BKN011 BKN100 07/05 Q1022 TEMPO BKN008",
      "taf": "TAF LFOB 200500Z 2006/2106 26009KT 9999 OVC025"
    },
    {
      "icao": "LFPO",
      "alert": "OK",
      "vis_m": 9999,
      "fzfg": false,
      "metar_trigger": false,
      "taf_trigger": false,
      "metar": "METAR LFPO 201000Z 24008KT 9999 BKN013 08/05 Q1024 NOSIG",
      "taf": "TAF LFPO 200500Z 2006/2112 26006KT 9999 SCT025"
    },
    {
      "icao": "LFSB",
      "alert": "OK",
      "vis_m": 8000,
      "fzfg": false,
      "metar_trigger": false,
      "taf_trigger": false,
      "metar": "METAR LFSB 201000Z AUTO VRB03KT 8000 OVC005 04/03 Q1023 BECMG BKN035",
      "taf": ""
    },
    {
      "icao": "LGAV",
      "alert": "OK",
      "vis_m": 9999,
      "fzfg": false,
      "metar_trigger": false,
      "taf_trigger": false,
      "metar": "METAR LGAV 201020Z 19021KT 9999 SCT020 17/10 Q1016 NOSIG",
      "taf": "TAF LGAV 200500Z 2006/2106 21010KT 9999 FEW018 SCT020"
    },
    {
      "icao": "LGTS",
      "alert": "OK",
      "vis_m": 8000,
      "fzfg": false,
      "metar_trigger": false,
      "taf_trigger": false,
      "metar": "METAR LGTS 201020Z 32006KT 8000 -RA FEW010 FEW020TCU BKN030 09/09 Q1013 RERA WS R10 NOSIG",
      "taf": "TAF LGTS 200500Z 2006/2106 13015KT 9999 SCT025"
    },
    {
      "icao": "LHBP",
      "alert": "OK",
      "vis_m": 9999,
      "fzfg": false,
      "metar_trigger": false,
      "taf_trigger": false,
      "metar": "METAR LHBP 201000Z 04013KT CAVOK 05/M05 Q1014 NOSIG",
      "taf": "TAF LHBP 200515Z 2006/2106 05012KT CAVOK"
    },
    {
      "icao": "LHDC",
      "alert": "OK",
      "vis_m": 9999,
      "fzfg": false,
      "metar_trigger": false,
      "taf_trigger": false,
      "metar": "METAR LHDC 200945Z AUTO 03021KT CAVOK 03/M01 Q1015 NOSIG",
      "taf": "TAF LHDC 200815Z 2009/2018 04016G28KT CAVOK"
    },
    {
      "icao": "LIBD",
      "alert": "OK",
      "vis_m": 9999,
      "fzfg": false,
      "metar_trigger": false,
      "taf_trigger": false,
      "metar": "METAR LIBD 201020Z 36005KT 320V060 CAVOK 15/06 Q1009",
      "taf": "TAF LIBD 200500Z 2006/2106 24012KT 9999 SCT040"
    },
    {
      "icao": "LIBG",
      "alert": "OK",
      "vis_m": 9999,
      "fzfg": false,
      "metar_trigger": false,
      "taf_trigger": false,
      "metar": "METAR LIBG 200950Z 26005KT 200V310 9999 FEW020 14/07 Q1009",
      "taf": "TAF LIBG 200800Z 2009/2018 23012KT 9999 SCT020"
    },
    {
      "icao": "LIBP",
      "alert": "OK",
      "vis_m": 9999,
      "fzfg": false,
      "metar_trigger": false,
      "taf_trigger": false,
      "metar": "METAR LIBP 201020Z AUTO 03006KT 350V070 9999 BKN074/// 11/07 Q1010",
      "taf": "TAF LIBP 200500Z 2006/2106 23010KT 9999 SCT040"
    },
    {
      "icao": "LIBR",
      "alert": "OK",
      "vis_m": 9999,
      "fzfg": false,
      "metar_trigger": false,
      "taf_trigger": false,
      "metar": "METAR LIBR 201020Z 23010KT CAVOK 15/06 Q1009",
      "taf": "TAF LIBR 200500Z 2006/2106 23012KT 9999 SCT025"
    },
    {
      "icao": "LICA",
      "alert": "OK",
      "vis_m": 7000,
      "fzfg": false,
      "metar_trigger": false,
      "taf_trigger": false,
      "metar": "METAR LICA 201020Z AUTO 25009KT 200V280 7000 -RA VCTS BKN023/// 12/10 Q1013 RERA",
      "taf": "TAF LICA 200500Z 2006/2106 26020G30KT 9999 SCT030 BKN050"
    },
    {
      "icao": "LICC",
      "alert": "OK",
      "vis_m": 9999,
      "fzfg": false,
      "metar_trigger": false,
      "taf_trigger": false,
      "metar": "METAR LICC 201020Z 24014KT 9999 FEW050 18/13 Q1014",
      "taf": "TAF LICC 200500Z 2006/2106 26018G28KT 9999 FEW040"
    },
    {
      "icao": "LICJ",
      "alert": "OK",
      "vis_m": 9999,
      "fzfg": false,
      "metar_trigger": false,
      "taf_trigger": false,
      "metar": "METAR LICJ 201020Z 22020KT 9999 -RA BKN070 14/09 Q1013",
      "taf": "TAF LICJ 200500Z 2006/2106 27025G35KT 9999 SCT035"
    },
    {
      "icao": "LIMC",
      "alert": "OK",
      "vis_m": 9999,
      "fzfg": false,
      "metar_trigger": false,
      "taf_trigger": false,
      "metar": "METAR LIMC 201020Z 25005KT CAVOK 15/02 Q1011 NOSIG",
      "taf": "TAF LIMC 200500Z 2006/2112 33007KT 9999 BKN025"
    },
    {
      "icao": "LIME",
      "alert": "OK",
      "vis_m": 9999,
      "fzfg": false,
      "metar_trigger": false,
      "taf_trigger": false,
      "metar": "METAR LIME 201020Z 13008KT 9999 FEW100 11/05 Q1011 NOSIG",
      "taf": "TAF LIME 200500Z 2006/2106 VRB05KT 8000 BKN020"
    },
    {
      "icao": "LIMF",
      "alert": "OK",
      "vis_m": 9999,
      "fzfg": false,
      "metar_trigger": false,
      "taf_trigger": false,
      "metar": "METAR LIMF 201020Z 19004KT CAVOK 14/03 Q1011",
      "taf": "TAF LIMF 200500Z 2006/2106 VRB05KT 8000 FEW040"
    },
    {
      "icao": "LIMJ",
      "alert": "OK",
      "vis_m": 9999,
      "fzfg": false,
      "metar_trigger": false,
      "taf_trigger": false,
      "metar": "METAR LIMJ 201020Z 04011KT CAVOK 18/00 Q1010",
      "taf": "TAF LIMJ 200500Z 2006/2106 VRB05KT 9999 SCT030"
    },
    {
      "icao": "LIPE",
      "alert": "OK",
      "vis_m": 9999,
      "fzfg": false,
      "metar_trigger": false,
      "taf_trigger": false,
      "metar": "METAR LIPE 201020Z 34004KT 300V010 CAVOK 10/04 Q1011",
      "taf": "TAF LIPE 200500Z 2006/2106 29007KT 9999 FEW060"
    },
    {
      "icao": "LIPH",
      "alert": "OK",
      "vis_m": 9999,
      "fzfg": false,
      "metar_trigger": false,
      "taf_trigger": false,
      "metar": "METAR LIPH 201020Z 22004KT 170V270 9999 BKN090 10/07 Q1011",
      "taf": "TAF LIPH 200500Z 2006/2106 VRB05KT 9999 SCT050"
    },
    {
      "icao": "LIPQ",
      "alert": "OK",
      "vis_m": 9999,
      "fzfg": false,
      "metar_trigger": false,
      "taf_trigger": false,
      "metar": "METAR LIPQ 201020Z AUTO VRB02KT 9999 FEW018/// BKN076/// BKN095/// 09/06 Q1011",
      "taf": "TAF LIPQ 200500Z 2006/2106 VRB05KT 7000 BKN040"
    },
    {
      "icao": "LIPR",
      "alert": "OK",
      "vis_m": 9999,
      "fzfg": false,
      "metar_trigger": false,
      "taf_trigger": false,
      "metar": "METAR LIPR 201020Z 29010KT 9999 -RA BKN040 09/06 Q1011",
      "taf": "TAF LIPR 200500Z 2006/2106 30012KT 9999 SCT040"
    },
    {
      "icao": "LIPX",
      "alert": "OK",
      "vis_m": 9999,
      "fzfg": false,
      "metar_trigger": false,
      "taf_trigger": false,
      "metar": "METAR LIPX 201020Z VRB02KT 9999 SCT070 10/06 Q1011",
      "taf": "TAF LIPX 200500Z 2006/2106 VRB06KT 8000 BKN030"
    },
    {
      "icao": "LIPY",
      "alert": "OK",
      "vis_m": 9999,
      "fzfg": false,
      "metar_trigger": false,
      "taf_trigger": false,
      "metar": "METAR LIPY 201020Z AUTO 31014KT 9999 FEW032/// SCT079/// 12/06 Q1010",
      "taf": "TAF LIPY 200500Z 2006/2106 32012KT 9999 SCT040"
    },
    {
      "icao": "LIPZ",
      "alert": "OK",
      "vis_m": 9999,
      "fzfg": false,
      "metar_trigger": false,
      "taf_trigger": false,
      "metar": "METAR LIPZ 201020Z 16004KT 120V200 9999 FEW030 SCT070 09/07 Q1011 NOSIG",
      "taf": "TAF LIPZ 200500Z 2006/2112 VRB05KT 9999 FEW030"
    },
    {
      "icao": "LIRF",
      "alert": "OK",
      "vis_m": 9999,
      "fzfg": false,
      "metar_trigger": false,
      "taf_trigger": false,
      "metar": "METAR LIRF 201020Z VRB02KT CAVOK 15/10 Q1010 NOSIG",
      "taf": "TAF LIRF 200500Z 2006/2112 VRB05KT 9999 FEW025"
    },
    {
      "icao": "LIRN",
      "alert": "OK",
      "vis_m": 9999,
      "fzfg": false,
      "metar_trigger": false,
      "taf_trigger": false,
      "metar": "METAR LIRN 201020Z VRB03KT 9999 FEW020 12/08 Q1010 NOSIG",
      "taf": "TAF LIRN 200500Z 2006/2106 24008KT 9999 SCT030"
    },
    {
      "icao": "LIRP",
      "alert": "OK",
      "vis_m": 9999,
      "fzfg": false,
      "metar_trigger": false,
      "taf_trigger": false,
      "metar": "METAR LIRP 200945Z 12005KT CAVOK 12/10 Q1009 NOSIG",
      "taf": "TAF LIRP 200500Z 2006/2106 11005KT 9999 FEW020 SCT060"
    },
    {
      "icao": "LIRZ",
      "alert": "OK",
      "vis_m": 9999,
      "fzfg": false,
      "metar_trigger": false,
      "taf_trigger": false,
      "metar": "METAR LIRZ 201020Z AUTO 25003KT 200V310 9999 FEW047/// 12/07 Q1010",
      "taf": "TAF LIRZ 200500Z 2006/2106 VRB05KT 9999 SCT035"
    },
    {
      "icao": "LJLJ",
      "alert": "OK",
      "vis_m": 8000,
      "fzfg": false,
      "metar_trigger": false,
      "taf_trigger": false,
      "metar": "METAR LJLJ 201000Z VRB01KT 8000 -RA FEW003 SCT017 BKN025 03/02 Q1012 NOSIG",
      "taf": "TAF LJLJ 200500Z 2006/2106 VRB02KT 7000 -RA OVC020"
    },
    {
      "icao": "LKMT",
      "alert": "OK",
      "vis_m": 9999,
      "fzfg": false,
      "metar_trigger": false,
      "taf_trigger": false,
      "metar": "METAR LKMT 201000Z 04016KT CAVOK M03/M08 Q1022 NOSIG",
      "taf": "TAF LKMT 200500Z 2006/2106 03017KT CAVOK"
    },
    {
      "icao": "LKPR",
      "alert": "OK",
      "vis_m": 9999,
      "fzfg": false,
      "metar_trigger": false,
      "taf_trigger": false,
      "metar": "METAR LKPR 201000Z 05004KT 350V160 CAVOK M02/M08 Q1023 NOSIG",
      "taf": "TAF LKPR 200800Z 2009/2115 04006KT CAVOK"
    },
    {
      "icao": "LLBG",
      "alert": "OK",
      "vis_m": 9999,
      "fzfg": false,
      "metar_trigger": false,
      "taf_trigger": false,
      "metar": "METAR LLBG 201020Z VRB03KT CAVOK 23/07 Q1020 NOSIG",
      "taf": "TAF LLBG 200503Z 2006/2106 VRB03KT CAVOK"
    },
    {
      "icao": "LMML",
      "alert": "OK",
      "vis_m": 9999,
      "fzfg": false,
      "metar_trigger": false,
      "taf_trigger": false,
      "metar": "METAR LMML 201015Z 26020KT 9999 SCT024 16/10 Q1018 NOSIG",
      "taf": "TAF LMML 200500Z 2006/2106 29016KT 9999 FEW025"
    },
    {
      "icao": "LOWW",
      "alert": "OK",
      "vis_m": 9999,
      "fzfg": false,
      "metar_trigger": false,
      "taf_trigger": false,
      "metar": "METAR LOWW 201020Z 33013KT 9999 FEW022 BKN036 M02/M05 Q1020 NOSIG",
      "taf": "TAF LOWW 200815Z 2009/2115 34013KT 4000 -SN SCT005 BKN010 TX03/2115Z TNM06/2105Z"
    },
    {
      "icao": "LPFR",
      "alert": "OK",
      "vis_m": 9999,
      "fzfg": false,
      "metar_trigger": false,
      "taf_trigger": false,
      "metar": "METAR LPFR 201000Z VRB05KT CAVOK 16/05 Q1029",
      "taf": "TAF LPFR 200500Z 2006/2106 VRB02KT CAVOK"
    },
    {
      "icao": "LPMA",
      "alert": "OK",
      "vis_m": 9999,
      "fzfg": false,
      "metar_trigger": false,
      "taf_trigger": false,
      "metar": "METAR LPMA 201000Z 04011KT 9999 BKN025 17/09 Q1028",
      "taf": "TAF LPMA 200500Z 2006/2106 02013KT 9999 SCT015"
    },
    {
      "icao": "LPPR",
      "alert": "OK",
      "vis_m": 9999,
      "fzfg": false,
      "metar_trigger": false,
      "taf_trigger": false,
      "metar": "METAR LPPR 201000Z 11005KT CAVOK 12/07 Q1032",
      "taf": "TAF LPPR 200500Z 2006/2106 09007KT 9999 SCT035"
    },
    {
      "icao": "LPPS",
      "alert": "OK",
      "vis_m": 9999,
      "fzfg": false,
      "metar_trigger": false,
      "taf_trigger": false,
      "metar": "METAR LPPS 201000Z 08011KT 050V110 9999 FEW015 BKN030 16/09 Q1028",
      "taf": "TAF LPPS 200500Z 2006/2112 07012KT 9999 FEW015 BKN030"
    },
    {
      "icao": "LPPT",
      "alert": "OK",
      "vis_m": 9999,
      "fzfg": false,
      "metar_trigger": false,
      "taf_trigger": false,
      "metar": "METAR LPPT 201000Z 01007KT 350V060 CAVOK 12/07 Q1031",
      "taf": "TAF LPPT 200500Z 2006/2112 32005KT CAVOK"
    },
    {
      "icao": "LQBK",
      "alert": "OK",
      "vis_m": 9999,
      "fzfg": false,
      "metar_trigger": false,
      "taf_trigger": false,
      "metar": "METAR LQBK 201000Z 30009KT 9999 FEW017 BKN025 06/03 Q1010 NOSIG",
      "taf": "TAF LQBK 200500Z 2006/2106 25006KT 9999 SCT015 BKN035 TX08/2012Z TNM03/2106Z"
    },
    {
      "icao": "LQSA",
      "alert": "OK",
      "vis_m": 9999,
      "fzfg": false,
      "metar_trigger": false,
      "taf_trigger": false,
      "metar": "METAR LQSA 201000Z VRB02KT 9999 -RA FEW020 BKN040 10/05 Q1006 NOSIG",
      "taf": "TAF LQSA 200500Z 2006/2106 14008KT 9999 BKN045 TX10/2013Z TN00/2105Z"
    },
    {
      "icao": "LQTZ",
      "alert": "OK",
      "vis_m": 9999,
      "fzfg": false,
      "metar_trigger": false,
      "taf_trigger": false,
      "metar": "METAR LQTZ 201000Z 30010KT 9999 -RA SCT045 BKN055 09/06 Q1007",
      "taf": "TAF LQTZ 200500Z 2006/2106 12006KT 9999 SCT020 BKN050 TX10/2012Z TNM03/2106Z"
    },
    {
      "icao": "LRBC",
      "alert": "OK",
      "vis_m": 7000,
      "fzfg": false,
      "metar_trigger": false,
      "taf_trigger": false,
      "metar": "METAR LRBC 201000Z 35017KT 7000 SCT013 OVC017 01/M01 Q1020",
      "taf": "TAF LRBC 200800Z 2009/2018 34016KT 9999 OVC010"
    },
    {
      "icao": "LRBS",
      "alert": "OK",
      "vis_m": 9999,
      "fzfg": false,
      "metar_trigger": false,
      "taf_trigger": false,
      "metar": "METAR LRBS 201000Z 06011KT CAVOK 03/M01 Q1015 NOSIG",
      "taf": "TAF LRBS 200500Z 2006/2106 VRB03KT 3000 BR NSC"
    },
    {
      "icao": "LRBV",
      "alert": "OK",
      "vis_m": 9999,
      "fzfg": false,
      "metar_trigger": false,
      "taf_trigger": false,
      "metar": "METAR LRBV 201000Z 10007KT 060V130 CAVOK 03/M02 Q1014",
      "taf": "TAF LRBV 200800Z 2009/2018 VRB04KT CAVOK"
    },
    {
      "icao": "LRCL",
      "alert": "OK",
      "vis_m": 9999,
      "fzfg": false,
      "metar_trigger": false,
      "taf_trigger": false,
      "metar": "METAR LRCL 201000Z 07003KT 040V120 9999 FEW065 08/00 Q1014",
      "taf": "TAF LRCL 200800Z 2009/2018 06005KT 9999 BKN050"
    },
    {
      "icao": "LRCV",
      "alert": "OK",
      "vis_m": 9999,
      "fzfg": false,
      "metar_trigger": false,
      "taf_trigger": false,
      "metar": "METAR LRCV 201000Z 14007KT CAVOK 07/01 Q1013",
      "taf": "TAF LRCV 200800Z 2009/2018 08010KT CAVOK"
    },
    {
      "icao": "LRIA",
      "alert": "OK",
      "vis_m": 9999,
      "fzfg": false,
      "metar_trigger": false,
      "taf_trigger": false,
      "metar": "METAR LRIA 201000Z 33015KT 9999 FEW011 01/M02 Q1021",
      "taf": "TAF LRIA 200800Z 2009/2018 31010KT 9999 BKN010"
    },
    {
      "icao": "LROP",
      "alert": "OK",
      "vis_m": 9999,
      "fzfg": false,
      "metar_trigger": false,
      "taf_trigger": false,
      "metar": "METAR LROP 201000Z 08012KT CAVOK 03/M03 Q1015 NOSIG",
      "taf": "TAF LROP 200500Z 2006/2106 VRB03KT 3000 BR NSC"
    },
    {
      "icao": "LRSB",
      "alert": "OK",
      "vis_m": 9999,
      "fzfg": false,
      "metar_trigger": false,
      "taf_trigger": false,
      "metar": "METAR LRSB 201000Z COR VRB02KT CAVOK 06/00 Q1012",
      "taf": "TAF LRSB 200500Z 2006/2106 VRB04KT 9999 BKN060"
    },
    {
      "icao": "LRSM",
      "alert": "OK",
      "vis_m": 9999,
      "fzfg": false,
      "metar_trigger": false,
      "taf_trigger": false,
      "metar": "METAR LRSM 201000Z 01010KT CAVOK 08/02 Q1015",
      "taf": "TAF LRSM 200800Z 2009/2018 03009KT CAVOK"
    },
    {
      "icao": "LRSV",
      "alert": "OK",
      "vis_m": 7000,
      "fzfg": false,
      "metar_trigger": false,
      "taf_trigger": false,
      "metar": "METAR LRSV 201000Z 33011KT 7000 BKN007 M02/M04 Q1021",
      "taf": ""
    },
    {
      "icao": "LRTM",
      "alert": "OK",
      "vis_m": 9999,
      "fzfg": false,
      "metar_trigger": false,
      "taf_trigger": false,
      "metar": "METAR LRTM 201000Z VRB02KT CAVOK 07/02 Q1014",
      "taf": "TAF LRTM 200800Z 2009/2018 06005KT 9999 BKN050"
    },
    {
      "icao": "LRTR",
      "alert": "OK",
      "vis_m": 9999,
      "fzfg": false,
      "metar_trigger": false,
      "taf_trigger": false,
      "metar": "METAR LRTR 201000Z 06006KT CAVOK 10/03 Q1010 NOSIG",
      "taf": ""
    },
    {
      "icao": "LTAC",
      "alert": "OK",
      "vis_m": 9999,
      "fzfg": false,
      "metar_trigger": false,
      "taf_trigger": false,
      "metar": "METAR LTAC 201020Z VRB02KT CAVOK 08/M02 Q1022 NOSIG RMK RWY21C 07003KT 020V120 RWY03L VRB03KT RWY21R VRB02KT RWY03R 23003KT 140V260 RWY21L VRB01KT",
      "taf": "TAF LTAC 200440Z 2006/2106 VRB02KT CAVOK"
    },
    {
      "icao": "LTFM",
      "alert": "OK",
      "vis_m": 9999,
      "fzfg": false,
      "metar_trigger": false,
      "taf_trigger": false,
      "metar": "METAR LTFM 201020Z 21023KT CAVOK 15/04 Q1017 NOSIG RMK RWY17L 21019G31KT RWY34L 21021KT RWY16R 22020G31KT RWY36 21025KT RWY18 21025G35KT",
      "taf": "TAF LTFM 200440Z 2006/2112 19014KT CAVOK"
    },
    {
      "icao": "LUKK",
      "alert": "OK",
      "vis_m": 9999,
      "fzfg": false,
      "metar_trigger": false,
      "taf_trigger": false,
      "metar": "METAR LUKK 201000Z 36011KT CAVOK 02/M02 Q1018 NOSIG",
      "taf": "TAF LUKK 200516Z 2006/2106 VRB04KT 9999 BKN010"
    },
    {
      "icao": "LWOH",
      "alert": "OK",
      "vis_m": 9999,
      "fzfg": false,
      "metar_trigger": false,
      "taf_trigger": false,
      "metar": "METAR LWOH 201020Z 15005KT 120V210 9999 SCT020 BKN037 08/03 Q1011",
      "taf": "TAF LWOH 200815Z 2009/2109 12010KT 9999 RA BKN020 OVC030"
    },
    {
      "icao": "LWSK",
      "alert": "OK",
      "vis_m": 9999,
      "fzfg": false,
      "metar_trigger": false,
      "taf_trigger": false,
      "metar": "METAR LWSK 201020Z 25003KT 130V300 9999 RA SCT010 BKN035 BKN068 09/07 Q1011 NOSIG",
      "taf": "TAF LWSK 200825Z 2009/2109 14012KT 9999 RA FEW010 OVC040"
    },
    {
      "icao": "LYBE",
      "alert": "OK",
      "vis_m": 9999,
      "fzfg": false,
      "metar_trigger": false,
      "taf_trigger": false,
      "metar": "METAR LYBE 201000Z 12014KT CAVOK 08/02 Q1008 NOSIG",
      "taf": "TAF LYBE 200500Z 2006/2106 13012KT 9999 SCT040 TX08/2012Z TN01/2106Z"
    },
    {
      "icao": "LYNI",
      "alert": "OK",
      "vis_m": 9999,
      "fzfg": false,
      "metar_trigger": false,
      "taf_trigger": false,
      "metar": "METAR LYNI 201000Z 11007KT 080V150 9999 SCT050 BKN090 11/03 Q1010 NOSIG",
      "taf": ""
    },
    {
      "icao": "LYPG",
      "alert": "OK",
      "vis_m": 9999,
      "fzfg": false,
      "metar_trigger": false,
      "taf_trigger": false,
      "metar": "METAR LYPG 201000Z 13012KT 9999 FEW010 SCT033 BKN070 11/08 Q1010 NOSIG",
      "taf": "TAF LYPG 200500Z 2006/2106 14009KT 9999 FEW020 SCT040 BKN070 TX12/2013Z TN05/2106Z"
    },
    {
      "icao": "LZIB",
      "alert": "OK",
      "vis_m": 3800,
      "fzfg": false,
      "metar_trigger": false,
      "taf_trigger": false,
      "metar": "METAR LZIB 201000Z 30010KT 3800 -SN BR FEW008 SCT017 BKN045 M01/M02 Q1018 TEMPO 2500 -SN BR",
      "taf": ""
    },
    {
      "icao": "LZKZ",
      "alert": "OK",
      "vis_m": 9999,
      "fzfg": false,
      "metar_trigger": false,
      "taf_trigger": false,
      "metar": "METAR LZKZ 201000Z 36025KT CAVOK M01/M08 Q1019 NOSIG",
      "taf": "TAF LZKZ 200515Z 2006/2106 01018KT CAVOK"
    },
    {
      "icao": "LZTT",
      "alert": "OK",
      "vis_m": 9999,
      "fzfg": false,
      "metar_trigger": false,
      "taf_trigger": false,
      "metar": "METAR LZTT 201000Z 08012KT 9999 FEW043 M04/M09 Q1019 NOSIG",
      "taf": "TAF LZTT 200515Z 2006/2106 07012KT 9999 FEW010 BKN022"
    },
    {
      "icao": "OEJN",
      "alert": "OK",
      "vis_m": 9999,
      "fzfg": false,
      "metar_trigger": false,
      "taf_trigger": false,
      "metar": "METAR OEJN 201000Z 33006KT CAVOK 29/19 Q1014 NOSIG",
      "taf": "TAF OEJN 200500Z 2006/2112 28012KT 8000 FEW040"
    },
    {
      "icao": "OEMA",
      "alert": "OK",
      "vis_m": 6000,
      "fzfg": false,
      "metar_trigger": false,
      "taf_trigger": false,
      "metar": "METAR OEMA 201000Z 10012KT 6000 NSC 28/M04 Q1021 NOSIG",
      "taf": "TAF OEMA 200500Z 2006/2112 09014KT 7000 NSC"
    },
    {
      "icao": "OJAI",
      "alert": "OK",
      "vis_m": 4000,
      "fzfg": false,
      "metar_trigger": false,
      "taf_trigger": false,
      "metar": "METAR OJAI 201000Z 12018KT 4000 BLDU NSC 18/04 Q1023 NOSIG",
      "taf": "TAF OJAI 200500Z 2006/2112 VRB02KT 5000 HZ NSC"
    },
    {
      "icao": "OMAA",
      "alert": "OK",
      "vis_m": 9999,
      "fzfg": false,
      "metar_trigger": false,
      "taf_trigger": false,
      "metar": "METAR OMAA 201030Z VRB05KT CAVOK 31/05 Q1016 BECMG 35012KT",
      "taf": "TAF OMAA 200500Z 2006/2112 10006KT 8000 NSC"
    },
    {
      "icao": "OMDB",
      "alert": "OK",
      "vis_m": 9999,
      "fzfg": false,
      "metar_trigger": false,
      "taf_trigger": false,
      "metar": "METAR OMDB 201030Z 31013KT CAVOK 29/08 Q1017 NOSIG",
      "taf": "TAF OMDB 200500Z 2006/2112 16005KT 8000 NSC"
    },
    {
      "icao": "UAAA",
      "alert": "OK",
      "vis_m": 9999,
      "fzfg": false,
      "metar_trigger": false,
      "taf_trigger": false,
      "metar": "METAR UAAA 201000Z 01003MPS 9999 BKN016 OVC100 10/06 Q1022 NOSIG",
      "taf": "TAF UAAA 200504Z 2006/2106 05003MPS 5000 BR FU SCT020CB BKN100 TX12/2009Z TN01/2103Z"
    },
    {
      "icao": "UBBB",
      "alert": "OK",
      "vis_m": 9999,
      "fzfg": false,
      "metar_trigger": false,
      "taf_trigger": false,
      "metar": "METAR UBBB 201030Z 03008KT 360V070 9999 FEW020 10/01 Q1031 NOSIG",
      "taf": "TAF UBBB 200502Z 2006/2106 36010KT 9999 SCT030 TX12/2010Z TN07/2100Z"
    },
    {
      "icao": "UDSG",
      "alert": "OK",
      "vis_m": 9999,
      "fzfg": false,
      "metar_trigger": false,
      "taf_trigger": false,
      "metar": "METAR UDSG 201000Z 27003KT 230V320 9999 NSC 02/M08 Q1029 NOSIG",
      "taf": "TAF UDSG 200458Z 2006/2106 VRB06KT 9999 FEW040"
    },
    {
      "icao": "UDYZ",
      "alert": "OK",
      "vis_m": 9999,
      "fzfg": false,
      "metar_trigger": false,
      "taf_trigger": false,
      "metar": "METAR UDYZ 201000Z 17005KT 110V240 9999 NSC 10/M05 Q1029 NOSIG",
      "taf": "TAF UDYZ 200500Z 2006/2106 VRB06KT 9999 FEW040"
    },
    {
      "icao": "UGKO",
      "alert": "OK",
      "vis_m": 9999,
      "fzfg": false,
      "metar_trigger": false,
      "taf_trigger": false,
      "metar": "METAR UGKO 201000Z 08018KT CAVOK 13/02 Q1025 NOSIG",
      "taf": "TAF UGKO 200500Z 2006/2106 08017KT CAVOK TX17/2011Z TN06/2006Z"
    }
  ]
}