{
  "ts_utc": "2026-04-18T05:24:16Z",
  "threshold_m": 150,
  "source": "stations_override.txt (ICAO list) + aviationweather.gov (METAR/TAF raw)",
  "station_count": 159,
  "stations": [
    {
      "icao": "BIKF",
      "alert": "OK",
      "vis_m": 9999,
      "fzfg": false,
      "metar_trigger": false,
      "taf_trigger": false,
      "metar": "METAR BIKF 180500Z 29011KT 9999 FEW030 BKN049 03/M04 Q1009",
      "taf": "TAF BIKF 180446Z 1806/1906 28017KT 9999 SCT020 BKN040 TX07/1815Z TN01/1902Z"
    },
    {
      "icao": "BKPR",
      "alert": "OK",
      "vis_m": 9999,
      "fzfg": false,
      "metar_trigger": false,
      "taf_trigger": false,
      "metar": "METAR BKPR 180500Z 29002KT CAVOK 07/05 Q1016 NOSIG",
      "taf": ""
    },
    {
      "icao": "EBCI",
      "alert": "OK",
      "vis_m": 9999,
      "fzfg": false,
      "metar_trigger": false,
      "taf_trigger": false,
      "metar": "METAR EBCI 180450Z 16003KT 140V210 CAVOK 12/09 Q1021 NOSIG",
      "taf": "TAF EBCI 172300Z 1800/1906 18003KT 9999 SCT045"
    },
    {
      "icao": "EDDB",
      "alert": "OK",
      "vis_m": 9999,
      "fzfg": false,
      "metar_trigger": false,
      "taf_trigger": false,
      "metar": "METAR EDDB 180520Z AUTO 06003KT CAVOK 08/03 Q1022 NOSIG",
      "taf": "TAF EDDB 172300Z 1800/1824 12004KT CAVOK"
    },
    {
      "icao": "EDDH",
      "alert": "OK",
      "vis_m": 9999,
      "fzfg": false,
      "metar_trigger": false,
      "taf_trigger": false,
      "metar": "METAR EDDH 180520Z AUTO 15005KT CAVOK 11/06 Q1020 NOSIG",
      "taf": "TAF EDDH 172300Z 1800/1906 11005KT CAVOK"
    },
    {
      "icao": "EDDK",
      "alert": "OK",
      "vis_m": 9999,
      "fzfg": false,
      "metar_trigger": false,
      "taf_trigger": false,
      "metar": "METAR EDDK 180520Z AUTO 05002KT CAVOK 07/06 Q1021 NOSIG",
      "taf": "TAF EDDK 172300Z 1800/1906 VRB02KT CAVOK"
    },
    {
      "icao": "EDDN",
      "alert": "OK",
      "vis_m": 9999,
      "fzfg": false,
      "metar_trigger": false,
      "taf_trigger": false,
      "metar": "METAR EDDN 180520Z AUTO 12003KT CAVOK 08/06 Q1021 NOSIG",
      "taf": "TAF EDDN 172300Z 1800/1824 VRB03KT CAVOK"
    },
    {
      "icao": "EDDS",
      "alert": "OK",
      "vis_m": 9999,
      "fzfg": false,
      "metar_trigger": false,
      "taf_trigger": false,
      "metar": "METAR EDDS 180520Z AUTO VRB01KT CAVOK 07/05 Q1020 NOSIG",
      "taf": "TAF EDDS 172300Z 1800/1824 VRB03KT CAVOK"
    },
    {
      "icao": "EDFH",
      "alert": "OK",
      "vis_m": 9999,
      "fzfg": false,
      "metar_trigger": false,
      "taf_trigger": false,
      "metar": "METAR EDFH 180450Z 29004KT CAVOK 10/07 Q1021",
      "taf": "TAF EDFH 172300Z 1800/1824 02004KT CAVOK"
    },
    {
      "icao": "EDJA",
      "alert": "OK",
      "vis_m": 9999,
      "fzfg": false,
      "metar_trigger": false,
      "taf_trigger": false,
      "metar": "METAR EDJA 180450Z 16003KT CAVOK 04/03 Q1020",
      "taf": "TAF EDJA 180200Z 1803/1812 VRB03KT CAVOK"
    },
    {
      "icao": "EDLW",
      "alert": "OK",
      "vis_m": 9999,
      "fzfg": false,
      "metar_trigger": false,
      "taf_trigger": false,
      "metar": "METAR EDLW 180450Z 15008KT CAVOK 10/08 Q1020",
      "taf": "TAF EDLW 180320Z 1804/1824 17007KT CAVOK"
    },
    {
      "icao": "EDNY",
      "alert": "OK",
      "vis_m": 9999,
      "fzfg": false,
      "metar_trigger": false,
      "taf_trigger": false,
      "metar": "METAR EDNY 180450Z AUTO 08002KT 9999 // NCD 05/04 Q1021",
      "taf": "TAF EDNY 180200Z 1803/1812 VRB03KT CAVOK"
    },
    {
      "icao": "EDSB",
      "alert": "OK",
      "vis_m": 9999,
      "fzfg": false,
      "metar_trigger": false,
      "taf_trigger": false,
      "metar": "METAR EDSB 180450Z 18002KT CAVOK 09/08 Q1020",
      "taf": "TAF EDSB 172300Z 1800/1824 VRB03KT CAVOK"
    },
    {
      "icao": "EETN",
      "alert": "OK",
      "vis_m": 9999,
      "fzfg": false,
      "metar_trigger": false,
      "taf_trigger": false,
      "metar": "METAR EETN 180520Z 09007KT CAVOK 07/01 Q1023 NOSIG",
      "taf": "TAF EETN 172330Z 1800/1824 04005KT CAVOK"
    },
    {
      "icao": "EFTU",
      "alert": "OK",
      "vis_m": 9999,
      "fzfg": false,
      "metar_trigger": false,
      "taf_trigger": false,
      "metar": "METAR EFTU 180520Z AUTO 10004KT 070V130 CAVOK 07/M00 Q1023",
      "taf": "TAF EFTU 180230Z 1803/1903 07003KT CAVOK"
    },
    {
      "icao": "EGBB",
      "alert": "OK",
      "vis_m": 9999,
      "fzfg": false,
      "metar_trigger": false,
      "taf_trigger": false,
      "metar": "METAR EGBB 180450Z 18005KT CAVOK 06/05 Q1019",
      "taf": "TAF EGBB 180500Z 1806/1906 21009KT 9999 FEW018 SCT030"
    },
    {
      "icao": "EGGP",
      "alert": "OK",
      "vis_m": 9999,
      "fzfg": false,
      "metar_trigger": false,
      "taf_trigger": false,
      "metar": "METAR EGGP 180450Z 23004KT 190V250 9999 FEW046 08/06 Q1018",
      "taf": "TAF EGGP 180505Z 1806/1906 25012KT 9999 SCT035"
    },
    {
      "icao": "EGGW",
      "alert": "OK",
      "vis_m": 9999,
      "fzfg": false,
      "metar_trigger": false,
      "taf_trigger": false,
      "metar": "METAR EGGW 180450Z AUTO 26004KT 9999 NCD 06/05 Q1020",
      "taf": "TAF EGGW 180456Z 1806/1906 25006KT CAVOK"
    },
    {
      "icao": "EGKK",
      "alert": "OK",
      "vis_m": 9999,
      "fzfg": false,
      "metar_trigger": false,
      "taf_trigger": false,
      "metar": "METAR EGKK 180450Z 25003KT 9999 FEW015 10/09 Q1021",
      "taf": "TAF EGKK 180504Z 1806/1912 24005KT 9999 SCT035"
    },
    {
      "icao": "EGNM",
      "alert": "OK",
      "vis_m": 9999,
      "fzfg": false,
      "metar_trigger": false,
      "taf_trigger": false,
      "metar": "METAR EGNM 180450Z 22007KT 9999 BKN015 07/06 Q1017",
      "taf": ""
    },
    {
      "icao": "EGPD",
      "alert": "OK",
      "vis_m": 9999,
      "fzfg": false,
      "metar_trigger": false,
      "taf_trigger": false,
      "metar": "METAR EGPD 180450Z COR AUTO 22007KT 9999 NCD 08/04 Q1010 NOSIG",
      "taf": "TAF EGPD 180457Z 1806/1906 21010KT 9999 SCT030"
    },
    {
      "icao": "EGPF",
      "alert": "OK",
      "vis_m": 9999,
      "fzfg": false,
      "metar_trigger": false,
      "taf_trigger": false,
      "metar": "METAR EGPF 180450Z AUTO 22013KT 9999 -RA BKN022 BKN027 08/07 Q1013",
      "taf": "TAF EGPF 180454Z 1806/1906 21009KT 9999 SCT030"
    },
    {
      "icao": "EHBK",
      "alert": "OK",
      "vis_m": 9999,
      "fzfg": false,
      "metar_trigger": false,
      "taf_trigger": false,
      "metar": "METAR EHBK 180455Z AUTO 20004KT 9999 FEW015CB 10/07 Q1020 NOSIG",
      "taf": "TAF EHBK 172255Z 1800/1906 23005KT CAVOK"
    },
    {
      "icao": "EHEH",
      "alert": "OK",
      "vis_m": 9999,
      "fzfg": false,
      "metar_trigger": false,
      "taf_trigger": false,
      "metar": "METAR EHEH 180455Z AUTO 00000KT 9999 OVC089 08/08 Q1020 BLU NOSIG RMK TREND REMOTE BY EHWX",
      "taf": "TAF EHEH 172315Z 1800/1906 VRB03KT 9999 SCT050"
    },
    {
      "icao": "EKBI",
      "alert": "OK",
      "vis_m": 9999,
      "fzfg": false,
      "metar_trigger": false,
      "taf_trigger": false,
      "metar": "METAR EKBI 180520Z AUTO 11006KT 9999 NCD 09/06 Q1020",
      "taf": "TAF EKBI 180227Z 1803/1903 13005KT 9999 SCT020"
    },
    {
      "icao": "EKCH",
      "alert": "OK",
      "vis_m": 9999,
      "fzfg": false,
      "metar_trigger": false,
      "taf_trigger": false,
      "metar": "METAR EKCH 180520Z AUTO 16005KT 9999 FEW120/// SCT170/// 06/04 Q1023 NOSIG",
      "taf": "TAF EKCH 180227Z 1803/1903 16006KT 9999 FEW035"
    },
    {
      "icao": "ENAL",
      "alert": "OK",
      "vis_m": 9999,
      "fzfg": false,
      "metar_trigger": false,
      "taf_trigger": false,
      "metar": "METAR ENAL 180450Z 13009KT 9999 -RA SCT056 11/02 Q1014",
      "taf": "TAF ENAL 180200Z 1803/1812 13008KT 9999 BKN050"
    },
    {
      "icao": "ENBR",
      "alert": "OK",
      "vis_m": 9999,
      "fzfg": false,
      "metar_trigger": false,
      "taf_trigger": false,
      "metar": "METAR ENBR 180450Z 12010KT 9999 -SHRA BKN024 09/06 Q1015 NOSIG RMK WIND 1200FT 15021KT",
      "taf": "TAF ENBR 172300Z 1800/1824 14012KT 9999 FEW015 BKN030"
    },
    {
      "icao": "ENGM",
      "alert": "OK",
      "vis_m": 9999,
      "fzfg": false,
      "metar_trigger": false,
      "taf_trigger": false,
      "metar": "METAR ENGM 180450Z 36002KT CAVOK 03/01 Q1021 NOSIG",
      "taf": "TAF ENGM 172300Z 1800/1824 36003KT CAVOK"
    },
    {
      "icao": "ENHD",
      "alert": "OK",
      "vis_m": 9999,
      "fzfg": false,
      "metar_trigger": false,
      "taf_trigger": false,
      "metar": "METAR ENHD 180450Z AUTO 14010KT 9999 -RA OVC014/// 09/08 Q1015 RERA",
      "taf": "TAF ENHD 180200Z 1803/1812 14012KT 9999 -RA FEW015 BKN030"
    },
    {
      "icao": "ENTC",
      "alert": "OK",
      "vis_m": 9999,
      "fzfg": false,
      "metar_trigger": false,
      "taf_trigger": false,
      "metar": "METAR ENTC 180450Z VRB01KT CAVOK 02/M01 Q1025 RMK WIND 2600FT 19009KT",
      "taf": "TAF ENTC 172300Z 1800/1824 VRB03KT CAVOK"
    },
    {
      "icao": "ENTO",
      "alert": "OK",
      "vis_m": 9999,
      "fzfg": false,
      "metar_trigger": false,
      "taf_trigger": false,
      "metar": "METAR ENTO 180450Z 00000KT CAVOK 06/06 Q1021 NOSIG",
      "taf": "TAF ENTO 172300Z 1800/1824 VRB03KT CAVOK"
    },
    {
      "icao": "ENVA",
      "alert": "OK",
      "vis_m": 9999,
      "fzfg": false,
      "metar_trigger": false,
      "taf_trigger": false,
      "metar": "METAR ENVA 180450Z 15009KT 120V180 CAVOK 11/02 Q1017 NOSIG RMK WIND 670FT 17017KT",
      "taf": "TAF ENVA 172300Z 1800/1824 12008KT CAVOK"
    },
    {
      "icao": "ENZV",
      "alert": "OK",
      "vis_m": 9999,
      "fzfg": false,
      "metar_trigger": false,
      "taf_trigger": false,
      "metar": "METAR ENZV 180450Z 16010KT 9999 -RA OVC017 10/08 Q1016 TEMPO BKN014",
      "taf": "TAF ENZV 172300Z 1800/1824 15015KT 9999 -RA FEW012 BKN020"
    },
    {
      "icao": "EPGD",
      "alert": "OK",
      "vis_m": 9999,
      "fzfg": false,
      "metar_trigger": false,
      "taf_trigger": false,
      "metar": "METAR EPGD 180500Z 27004KT CAVOK 04/01 Q1023",
      "taf": "TAF EPGD 172330Z 1800/1824 34005KT CAVOK"
    },
    {
      "icao": "EPKK",
      "alert": "OK",
      "vis_m": 9999,
      "fzfg": false,
      "metar_trigger": false,
      "taf_trigger": false,
      "metar": "METAR EPKK 180500Z 20001KT CAVOK 04/02 Q1022",
      "taf": "TAF EPKK 180230Z 1803/1903 VRB02KT CAVOK"
    },
    {
      "icao": "EPKT",
      "alert": "OK",
      "vis_m": 9999,
      "fzfg": false,
      "metar_trigger": false,
      "taf_trigger": false,
      "metar": "METAR EPKT 180500Z VRB01KT CAVOK 00/M01 Q1022",
      "taf": "TAF EPKT 172330Z 1800/1824 VRB02KT CAVOK"
    },
    {
      "icao": "EPLB",
      "alert": "OK",
      "vis_m": 9999,
      "fzfg": false,
      "metar_trigger": false,
      "taf_trigger": false,
      "metar": "METAR EPLB 180500Z 29007KT CAVOK 05/04 Q1020",
      "taf": "TAF EPLB 172330Z 1800/1824 32008KT CAVOK"
    },
    {
      "icao": "EPMO",
      "alert": "OK",
      "vis_m": 9999,
      "fzfg": false,
      "metar_trigger": false,
      "taf_trigger": false,
      "metar": "METAR EPMO 180500Z 32007KT CAVOK 04/04 Q1021",
      "taf": "TAF EPMO 172330Z 1800/1824 VRB03KT CAVOK"
    },
    {
      "icao": "EPPO",
      "alert": "OK",
      "vis_m": 9999,
      "fzfg": false,
      "metar_trigger": false,
      "taf_trigger": false,
      "metar": "METAR EPPO 180500Z 09004KT CAVOK 05/03 Q1023",
      "taf": "TAF EPPO 172330Z 1800/1824 08004KT CAVOK"
    },
    {
      "icao": "EPRA",
      "alert": "OK",
      "vis_m": 9999,
      "fzfg": false,
      "metar_trigger": false,
      "taf_trigger": false,
      "metar": "METAR EPRA 180500Z 31005KT CAVOK 05/03 Q1021",
      "taf": "TAF EPRA 180230Z 1803/1812 33006KT CAVOK"
    },
    {
      "icao": "EPRZ",
      "alert": "OK",
      "vis_m": 9999,
      "fzfg": false,
      "metar_trigger": false,
      "taf_trigger": false,
      "metar": "METAR EPRZ 180500Z 26005KT 9999 BKN018 06/04 Q1021",
      "taf": "TAF EPRZ 172330Z 1800/1824 30005KT CAVOK"
    },
    {
      "icao": "EPSC",
      "alert": "OK",
      "vis_m": 9999,
      "fzfg": false,
      "metar_trigger": false,
      "taf_trigger": false,
      "metar": "METAR EPSC 180500Z VRB01KT CAVOK 02/00 Q1023",
      "taf": "TAF EPSC 172330Z 1800/1824 07005KT CAVOK"
    },
    {
      "icao": "EPSY",
      "alert": "OK",
      "vis_m": 600,
      "fzfg": false,
      "metar_trigger": false,
      "taf_trigger": false,
      "metar": "METAR EPSY 180500Z 36006KT 330V090 0600 R01/0800D FG OVC001 03/03 Q1021",
      "taf": "TAF EPSY 180230Z 1803/1812 34006KT 7000 BKN004"
    },
    {
      "icao": "EPWA",
      "alert": "OK",
      "vis_m": 9999,
      "fzfg": false,
      "metar_trigger": false,
      "taf_trigger": false,
      "metar": "METAR EPWA 180500Z 30006KT 9999 FEW007 05/04 Q1021 NOSIG",
      "taf": "TAF EPWA 180230Z 1803/1903 30005KT CAVOK"
    },
    {
      "icao": "EPWR",
      "alert": "OK",
      "vis_m": 9999,
      "fzfg": false,
      "metar_trigger": false,
      "taf_trigger": false,
      "metar": "METAR EPWR 180500Z 19001KT CAVOK 04/01 Q1023",
      "taf": "TAF EPWR 180230Z 1803/1903 VRB02KT CAVOK"
    },
    {
      "icao": "ESGG",
      "alert": "OK",
      "vis_m": 9999,
      "fzfg": false,
      "metar_trigger": false,
      "taf_trigger": false,
      "metar": "METAR ESGG 180450Z 15004KT 9999 FEW032 OVC110 07/04 Q1021",
      "taf": "TAF ESGG 180230Z 1803/1903 17003KT CAVOK"
    },
    {
      "icao": "ESKN",
      "alert": "OK",
      "vis_m": 9999,
      "fzfg": false,
      "metar_trigger": false,
      "taf_trigger": false,
      "metar": "METAR ESKN 180450Z 00000KT CAVOK 06/02 Q1023",
      "taf": "TAF ESKN 180230Z 1803/1903 VRB02KT CAVOK"
    },
    {
      "icao": "ESMS",
      "alert": "OK",
      "vis_m": 9999,
      "fzfg": false,
      "metar_trigger": false,
      "taf_trigger": false,
      "metar": "METAR ESMS 180450Z 09003KT CAVOK 02/02 Q1023",
      "taf": "TAF ESMS 180227Z 1803/1903 16006KT 9999 SCT040"
    },
    {
      "icao": "ESSA",
      "alert": "OK",
      "vis_m": 9999,
      "fzfg": false,
      "metar_trigger": false,
      "taf_trigger": false,
      "metar": "METAR ESSA 180450Z 30003KT CAVOK M00/M01 Q1023 NOSIG",
      "taf": "TAF ESSA 180230Z 1803/1903 32004KT CAVOK"
    },
    {
      "icao": "EYKA",
      "alert": "OK",
      "vis_m": 9999,
      "fzfg": false,
      "metar_trigger": false,
      "taf_trigger": false,
      "metar": "METAR EYKA 180520Z 02005KT 300V080 CAVOK 06/01 Q1020",
      "taf": "TAF EYKA 180506Z 1806/1906 01010KT 9000 NSC"
    },
    {
      "icao": "EYPA",
      "alert": "OK",
      "vis_m": 9999,
      "fzfg": false,
      "metar_trigger": false,
      "taf_trigger": false,
      "metar": "METAR EYPA 180520Z VRB02KT CAVOK 04/02 Q1022",
      "taf": "TAF EYPA 180500Z 1806/1906 VRB04KT 8000 NSC"
    },
    {
      "icao": "EYVI",
      "alert": "OK",
      "vis_m": 9999,
      "fzfg": false,
      "metar_trigger": false,
      "taf_trigger": false,
      "metar": "METAR EYVI 180520Z 32006KT CAVOK 08/04 Q1018 NOSIG",
      "taf": "TAF EYVI 180501Z 1806/1906 VRB03KT 9000 NSC"
    },
    {
      "icao": "GCFV",
      "alert": "OK",
      "vis_m": 9999,
      "fzfg": false,
      "metar_trigger": false,
      "taf_trigger": false,
      "metar": "METAR GCFV 180500Z 33005KT CAVOK 18/15 Q1013",
      "taf": "TAF GCFV 180200Z 1803/1903 35007KT 8000 NSC TX29/1814Z TN18/1806Z"
    },
    {
      "icao": "GCLP",
      "alert": "OK",
      "vis_m": 9999,
      "fzfg": false,
      "metar_trigger": false,
      "taf_trigger": false,
      "metar": "METAR GCLP 180500Z 30006KT CAVOK 18/15 Q1012 NOSIG",
      "taf": "TAF GCLP 180200Z 1803/1903 VRB09KT 8000 NSC TX29/1814Z TN20/1806Z"
    },
    {
      "icao": "GCTS",
      "alert": "OK",
      "vis_m": 9999,
      "fzfg": false,
      "metar_trigger": false,
      "taf_trigger": false,
      "metar": "METAR GCTS 180500Z 07016KT CAVOK 26/01 Q1010 NOSIG",
      "taf": "TAF GCTS 180200Z 1803/1903 09015KT 8000 NSC TX30/1814Z TN22/1806Z"
    },
    {
      "icao": "GMAD",
      "alert": "OK",
      "vis_m": 8000,
      "fzfg": false,
      "metar_trigger": false,
      "taf_trigger": false,
      "metar": "METAR GMAD 180500Z 05007KT 8000 NSC 17/08 Q1013 NOSIG",
      "taf": "TAF GMAD 172300Z 1800/1906 12004KT 8000 NSC"
    },
    {
      "icao": "GMMN",
      "alert": "OK",
      "vis_m": 800,
      "fzfg": false,
      "metar_trigger": false,
      "taf_trigger": false,
      "metar": "METAR GMMN 180500Z VRB02KT 0800 R17R/1400V1900U BCFG BKN004 12/10 Q1016 NOSIG",
      "taf": "TAF GMMN 180500Z 1806/1912 30003KT 8000 BKN004"
    },
    {
      "icao": "GMMX",
      "alert": "OK",
      "vis_m": 9999,
      "fzfg": false,
      "metar_trigger": false,
      "taf_trigger": false,
      "metar": "METAR GMMX 180500Z 11003KT CAVOK 15/11 Q1016 NOSIG",
      "taf": "TAF GMMX 172300Z 1800/1906 22006KT CAVOK"
    },
    {
      "icao": "HEGN",
      "alert": "OK",
      "vis_m": 4000,
      "fzfg": false,
      "metar_trigger": false,
      "taf_trigger": false,
      "metar": "METAR HEGN 180500Z 33017KT 4000 SA BKN025 BKN100 26/00 Q1007 NOSIG",
      "taf": "TAF HEGN 180500Z 1806/1912 29015G25KT 6000 SCT025"
    },
    {
      "icao": "HEMA",
      "alert": "OK",
      "vis_m": 9999,
      "fzfg": false,
      "metar_trigger": false,
      "taf_trigger": false,
      "metar": "METAR HEMA 180500Z 27010KT CAVOK 26/21 Q1006 NOSIG",
      "taf": "TAF HEMA 180500Z 1806/1912 29012G25KT 6000 SCT025"
    },
    {
      "icao": "HESH",
      "alert": "OK",
      "vis_m": 9999,
      "fzfg": false,
      "metar_trigger": false,
      "taf_trigger": false,
      "metar": "METAR HESH 180500Z 06005KT CAVOK 26/22 Q1004 NOSIG",
      "taf": "TAF HESH 180500Z 1806/1912 29010G22KT 6000 SCT025"
    },
    {
      "icao": "HESX",
      "alert": "OK",
      "vis_m": 9999,
      "fzfg": false,
      "metar_trigger": false,
      "taf_trigger": false,
      "metar": "METAR HESX 180500Z 25013KT CAVOK 19/11 Q1006 NOSIG",
      "taf": "TAF HESX 180500Z 1806/1912 26014KT 6000 NSC"
    },
    {
      "icao": "LATI",
      "alert": "OK",
      "vis_m": 9999,
      "fzfg": false,
      "metar_trigger": false,
      "taf_trigger": false,
      "metar": "METAR LATI 180520Z VRB02KT CAVOK 14/08 Q1011 NOSIG",
      "taf": "TAF LATI 180500Z 1806/1906 VRB05KT CAVOK TX27/1812Z TN08/1904Z"
    },
    {
      "icao": "LBPD",
      "alert": "OK",
      "vis_m": 9999,
      "fzfg": false,
      "metar_trigger": false,
      "taf_trigger": false,
      "metar": "METAR LBPD 180500Z AUTO 07005KT 9999 BKN074/// OVC090/// 10/08 Q1013 NOSIG",
      "taf": "TAF LBPD 180500Z 1806/1906 VRB04KT 9999 SCT033 BKN050"
    },
    {
      "icao": "LBSF",
      "alert": "OK",
      "vis_m": 9999,
      "fzfg": false,
      "metar_trigger": false,
      "taf_trigger": false,
      "metar": "METAR LBSF 180500Z VRB02KT 9999 FEW014 SCT039 BKN086 11/10 Q1014 TEMPO 5000 RA SCT020",
      "taf": "TAF LBSF 180500Z 1806/1906 29010KT 9999 SCT025 BKN050"
    },
    {
      "icao": "LBWN",
      "alert": "OK",
      "vis_m": 9999,
      "fzfg": false,
      "metar_trigger": false,
      "taf_trigger": false,
      "metar": "METAR LBWN 180500Z AUTO 36015KT 9999 -RA NSC 11/10 Q1012 TEMPO 5000 RA",
      "taf": "TAF LBWN 180500Z 1806/1906 35012KT 9999 SCT040"
    },
    {
      "icao": "LCLK",
      "alert": "OK",
      "vis_m": 3100,
      "fzfg": false,
      "metar_trigger": false,
      "taf_trigger": false,
      "metar": "METAR LCLK 180500Z VRB02KT 3100 -SHRA DU FEW005 BKN023 18/18 Q1001 NOSIG",
      "taf": "TAF LCLK 172330Z 1800/1900 35008KT 7000 FEW030"
    },
    {
      "icao": "LCPH",
      "alert": "OK",
      "vis_m": 3000,
      "fzfg": false,
      "metar_trigger": false,
      "taf_trigger": false,
      "metar": "METAR LCPH 180500Z COR 10007KT 3000 -TSRA BR FEW030 BKN040 17/14 Q1000 NOSIG",
      "taf": "TAF LCPH 172330Z 1800/1900 08007KT 7000 FEW030"
    },
    {
      "icao": "LEAL",
      "alert": "OK",
      "vis_m": 9999,
      "fzfg": false,
      "metar_trigger": false,
      "taf_trigger": false,
      "metar": "METAR LEAL 180500Z 00000KT CAVOK 11/08 Q1019 NOSIG",
      "taf": "TAF LEAL 172300Z 1800/1824 VRB04KT CAVOK TX23/1812Z TN13/1805Z"
    },
    {
      "icao": "LEBB",
      "alert": "OK",
      "vis_m": 9999,
      "fzfg": false,
      "metar_trigger": false,
      "taf_trigger": false,
      "metar": "METAR LEBB 180500Z VRB01KT 9999 SCT015 SCT022 BKN030 13/13 Q1022 NOSIG",
      "taf": ""
    },
    {
      "icao": "LEBL",
      "alert": "OK",
      "vis_m": 9999,
      "fzfg": false,
      "metar_trigger": false,
      "taf_trigger": false,
      "metar": "METAR LEBL 180500Z 33009KT CAVOK 14/10 Q1019 NOSIG",
      "taf": "TAF LEBL 172300Z 1800/1824 31007KT CAVOK TX22/1812Z TN12/1805Z"
    },
    {
      "icao": "LECH",
      "alert": "OK",
      "vis_m": 9999,
      "fzfg": false,
      "metar_trigger": false,
      "taf_trigger": false,
      "metar": "METAR LECH 180500Z AUTO 00000KT CAVOK 10/08 Q1019",
      "taf": "TAF LECH 172300Z 1800/1824 VRB04KT CAVOK TX25/1813Z TN11/1805Z"
    },
    {
      "icao": "LEMD",
      "alert": "OK",
      "vis_m": 9999,
      "fzfg": false,
      "metar_trigger": false,
      "taf_trigger": false,
      "metar": "METAR LEMD 180500Z 34002KT CAVOK 10/06 Q1019 NOSIG",
      "taf": "TAF LEMD 172300Z 1800/1906 VRB04KT CAVOK TX28/1816Z TN09/1806Z"
    },
    {
      "icao": "LEMG",
      "alert": "OK",
      "vis_m": 9999,
      "fzfg": false,
      "metar_trigger": false,
      "taf_trigger": false,
      "metar": "METAR LEMG 180500Z 29008KT CAVOK 10/07 Q1018 NOSIG",
      "taf": "TAF LEMG 172300Z 1800/1824 29006KT CAVOK TX23/1814Z TN11/1806Z"
    },
    {
      "icao": "LEVC",
      "alert": "OK",
      "vis_m": 9999,
      "fzfg": false,
      "metar_trigger": false,
      "taf_trigger": false,
      "metar": "METAR LEVC 180500Z 27002KT CAVOK 12/10 Q1019 NOSIG",
      "taf": "TAF LEVC 172300Z 1800/1824 VRB04KT CAVOK TX25/1812Z TN12/1805Z"
    },
    {
      "icao": "LEXJ",
      "alert": "OK",
      "vis_m": 9000,
      "fzfg": false,
      "metar_trigger": false,
      "taf_trigger": false,
      "metar": "METAR LEXJ 180500Z 00000KT 9000 BKN017 12/11 Q1022",
      "taf": "TAF LEXJ 180200Z 1803/1903 10005KT 9999 SCT005 BKN016 TX17/1814Z TN12/1803Z"
    },
    {
      "icao": "LEZG",
      "alert": "OK",
      "vis_m": 9999,
      "fzfg": false,
      "metar_trigger": false,
      "taf_trigger": false,
      "metar": "METAR LEZG 180500Z 26006KT CAVOK 14/10 Q1019 NOSIG",
      "taf": "TAF LEZG 172300Z 1800/1824 29008KT CAVOK TX30/1814Z TN14/1805Z"
    },
    {
      "icao": "LEZL",
      "alert": "OK",
      "vis_m": 9999,
      "fzfg": false,
      "metar_trigger": false,
      "taf_trigger": false,
      "metar": "METAR LEZL 180500Z 34003KT 280V020 CAVOK 14/10 Q1016 NOSIG",
      "taf": "TAF LEZL 180200Z 1803/1903 04005KT CAVOK TX32/1815Z TN13/1806Z"
    },
    {
      "icao": "LFBD",
      "alert": "OK",
      "vis_m": 9999,
      "fzfg": false,
      "metar_trigger": false,
      "taf_trigger": false,
      "metar": "METAR LFBD 180500Z AUTO 33004KT CAVOK 11/10 Q1021 TEMPO 4000 BR",
      "taf": "TAF LFBD 180500Z 1806/1912 31005KT CAVOK TX25/1815Z TN11/1806Z"
    },
    {
      "icao": "LFLL",
      "alert": "OK",
      "vis_m": 9999,
      "fzfg": false,
      "metar_trigger": false,
      "taf_trigger": false,
      "metar": "METAR LFLL 180500Z 00000KT CAVOK 10/08 Q1020 NOSIG",
      "taf": "TAF LFLL 180500Z 1806/1912 VRB02KT CAVOK"
    },
    {
      "icao": "LFLS",
      "alert": "OK",
      "vis_m": 9999,
      "fzfg": false,
      "metar_trigger": false,
      "taf_trigger": false,
      "metar": "METAR LFLS 180500Z AUTO 10003KT CAVOK 05/04 Q1020 NOSIG",
      "taf": "TAF LFLS 180200Z 1803/1903 09005KT CAVOK"
    },
    {
      "icao": "LFMN",
      "alert": "OK",
      "vis_m": 9999,
      "fzfg": false,
      "metar_trigger": false,
      "taf_trigger": false,
      "metar": "METAR LFMN 180500Z 34006KT CAVOK 17/09 Q1017 NOSIG",
      "taf": "TAF LFMN 180200Z 1803/1909 01005KT CAVOK"
    },
    {
      "icao": "LFOB",
      "alert": "OK",
      "vis_m": 9999,
      "fzfg": false,
      "metar_trigger": false,
      "taf_trigger": false,
      "metar": "METAR LFOB 180500Z AUTO VRB03KT CAVOK 10/09 Q1020 TEMPO 4500 -SHRA",
      "taf": "TAF LFOB 172300Z 1800/1824 VRB03KT 9999 SCT045 BKN070"
    },
    {
      "icao": "LFPO",
      "alert": "OK",
      "vis_m": 9999,
      "fzfg": false,
      "metar_trigger": false,
      "taf_trigger": false,
      "metar": "METAR LFPO 180500Z VRB01KT CAVOK 10/08 Q1020 NOSIG",
      "taf": "TAF LFPO 172300Z 1800/1906 VRB02KT CAVOK"
    },
    {
      "icao": "LFSB",
      "alert": "OK",
      "vis_m": 9999,
      "fzfg": false,
      "metar_trigger": false,
      "taf_trigger": false,
      "metar": "METAR LFSB 180500Z AUTO 17004KT CAVOK 06/05 Q1021 NOSIG",
      "taf": "TAF LFSB 180500Z 1806/1906 VRB03KT CAVOK"
    },
    {
      "icao": "LGAV",
      "alert": "OK",
      "vis_m": 9999,
      "fzfg": false,
      "metar_trigger": false,
      "taf_trigger": false,
      "metar": "METAR LGAV 180450Z 36014KT 9999 FEW025 16/01 Q1009 NOSIG",
      "taf": "TAF LGAV 180500Z 1806/1906 01018KT 9999 FEW025"
    },
    {
      "icao": "LGTS",
      "alert": "OK",
      "vis_m": 9999,
      "fzfg": false,
      "metar_trigger": false,
      "taf_trigger": false,
      "metar": "METAR LGTS 180450Z 10004KT 9999 -DZ SCT030 12/10 Q1011 NOSIG",
      "taf": "TAF LGTS 180500Z 1806/1906 35013KT 9999 SCT025 BKN050"
    },
    {
      "icao": "LHBP",
      "alert": "OK",
      "vis_m": 9999,
      "fzfg": false,
      "metar_trigger": false,
      "taf_trigger": false,
      "metar": "METAR LHBP 180500Z 36006KT CAVOK 07/03 Q1020 NOSIG",
      "taf": "TAF LHBP 172315Z 1800/1824 36005KT CAVOK"
    },
    {
      "icao": "LHDC",
      "alert": "OK",
      "vis_m": 9999,
      "fzfg": false,
      "metar_trigger": false,
      "taf_trigger": false,
      "metar": "METAR LHDC 180445Z AUTO 01011KT 350V050 CAVOK 10/02 Q1019 NOSIG",
      "taf": "TAF LHDC 180215Z 1803/1812 02012G22KT CAVOK"
    },
    {
      "icao": "LIBD",
      "alert": "OK",
      "vis_m": 9999,
      "fzfg": false,
      "metar_trigger": false,
      "taf_trigger": false,
      "metar": "METAR LIBD 180450Z 29007KT CAVOK 15/10 Q1014",
      "taf": "TAF LIBD 180500Z 1806/1906 27008KT CAVOK"
    },
    {
      "icao": "LIBG",
      "alert": "OK",
      "vis_m": null,
      "fzfg": false,
      "metar_trigger": false,
      "taf_trigger": false,
      "metar": "",
      "taf": ""
    },
    {
      "icao": "LIBP",
      "alert": "OK",
      "vis_m": 9999,
      "fzfg": false,
      "metar_trigger": false,
      "taf_trigger": false,
      "metar": "METAR LIBP 180450Z AUTO 24004KT 9999 NCD 11/09 Q1018",
      "taf": "TAF LIBP 180500Z 1806/1906 24005KT CAVOK"
    },
    {
      "icao": "LIBR",
      "alert": "OK",
      "vis_m": 9999,
      "fzfg": false,
      "metar_trigger": false,
      "taf_trigger": false,
      "metar": "METAR LIBR 180450Z 32016KT CAVOK 15/12 Q1012",
      "taf": "TAF LIBR 180500Z 1806/1906 33016KT CAVOK"
    },
    {
      "icao": "LICA",
      "alert": "OK",
      "vis_m": 9999,
      "fzfg": false,
      "metar_trigger": false,
      "taf_trigger": false,
      "metar": "METAR LICA 180450Z AUTO 22004KT 9999 FEW014/// BKN035/// 16/15 Q1014",
      "taf": "TAF LICA 180500Z 1806/1906 24010KT 9999 SCT014"
    },
    {
      "icao": "LICC",
      "alert": "OK",
      "vis_m": 9999,
      "fzfg": false,
      "metar_trigger": false,
      "taf_trigger": false,
      "metar": "METAR LICC 180450Z 24004KT CAVOK 11/09 Q1013",
      "taf": "TAF LICC 180500Z 1806/1906 VRB05KT 9999 FEW020"
    },
    {
      "icao": "LICJ",
      "alert": "OK",
      "vis_m": 9999,
      "fzfg": false,
      "metar_trigger": false,
      "taf_trigger": false,
      "metar": "METAR LICJ 180450Z 28004KT 240V310 9999 FEW020 16/14 Q1015",
      "taf": "TAF LICJ 180500Z 1806/1906 VRB05KT 9999 SCT010"
    },
    {
      "icao": "LIMC",
      "alert": "OK",
      "vis_m": 9999,
      "fzfg": false,
      "metar_trigger": false,
      "taf_trigger": false,
      "metar": "METAR LIMC 180450Z 36004KT 310V030 9999 SCT060 14/12 Q1019 NOSIG",
      "taf": "TAF LIMC 180500Z 1806/1912 VRB05KT 9999 SCT050"
    },
    {
      "icao": "LIME",
      "alert": "OK",
      "vis_m": 9999,
      "fzfg": false,
      "metar_trigger": false,
      "taf_trigger": false,
      "metar": "METAR LIME 180450Z VRB02KT 9999 FEW045 16/12 Q1019 NOSIG",
      "taf": "TAF LIME 180500Z 1806/1906 VRB05KT 9999 SCT050"
    },
    {
      "icao": "LIMF",
      "alert": "OK",
      "vis_m": 9999,
      "fzfg": false,
      "metar_trigger": false,
      "taf_trigger": false,
      "metar": "METAR LIMF 180450Z VRB01KT 9999 BKN045 15/12 Q1019",
      "taf": "TAF LIMF 180500Z 1806/1906 VRB05KT 9999 SCT040"
    },
    {
      "icao": "LIMJ",
      "alert": "OK",
      "vis_m": 9999,
      "fzfg": false,
      "metar_trigger": false,
      "taf_trigger": false,
      "metar": "METAR LIMJ 180450Z 02002KT CAVOK 16/11 Q1018",
      "taf": "TAF LIMJ 180500Z 1806/1906 VRB05KT CAVOK"
    },
    {
      "icao": "LIPE",
      "alert": "OK",
      "vis_m": 9999,
      "fzfg": false,
      "metar_trigger": false,
      "taf_trigger": false,
      "metar": "METAR LIPE 180450Z 19007KT 160V240 CAVOK 13/09 Q1018",
      "taf": "TAF LIPE 180500Z 1806/1906 VRB05KT CAVOK"
    },
    {
      "icao": "LIPH",
      "alert": "OK",
      "vis_m": null,
      "fzfg": false,
      "metar_trigger": false,
      "taf_trigger": false,
      "metar": "",
      "taf": "TAF LIPH 180500Z 1806/1906 VRB05KT CAVOK"
    },
    {
      "icao": "LIPQ",
      "alert": "OK",
      "vis_m": 9999,
      "fzfg": false,
      "metar_trigger": false,
      "taf_trigger": false,
      "metar": "METAR LIPQ 180450Z AUTO VRB02KT 9999 FEW081/// 12/10 Q1019",
      "taf": "TAF LIPQ 180500Z 1806/1906 VRB04KT 9999 SCT060"
    },
    {
      "icao": "LIPR",
      "alert": "OK",
      "vis_m": 9999,
      "fzfg": false,
      "metar_trigger": false,
      "taf_trigger": false,
      "metar": "METAR LIPR 180450Z AUTO 24003KT 200V290 9999 NCD 09/08 Q1018",
      "taf": "TAF LIPR 180500Z 1806/1906 VRB05KT CAVOK"
    },
    {
      "icao": "LIPX",
      "alert": "OK",
      "vis_m": 9999,
      "fzfg": false,
      "metar_trigger": false,
      "taf_trigger": false,
      "metar": "METAR LIPX 180450Z 05002KT 9999 BKN090 15/12 Q1018",
      "taf": "TAF LIPX 180500Z 1806/1906 VRB05KT 9999 FEW050"
    },
    {
      "icao": "LIPY",
      "alert": "OK",
      "vis_m": 9999,
      "fzfg": false,
      "metar_trigger": false,
      "taf_trigger": false,
      "metar": "METAR LIPY 180450Z AUTO 19003KT 9999 NCD 10/08 Q1018",
      "taf": "TAF LIPY 180500Z 1806/1906 24006KT CAVOK"
    },
    {
      "icao": "LIPZ",
      "alert": "OK",
      "vis_m": 9999,
      "fzfg": false,
      "metar_trigger": false,
      "taf_trigger": false,
      "metar": "METAR LIPZ 180450Z 06007KT CAVOK 16/11 Q1018 NOSIG",
      "taf": "TAF LIPZ 180500Z 1806/1912 05008KT CAVOK"
    },
    {
      "icao": "LIRF",
      "alert": "OK",
      "vis_m": 9999,
      "fzfg": false,
      "metar_trigger": false,
      "taf_trigger": false,
      "metar": "METAR LIRF 180450Z 05005KT CAVOK 13/09 Q1015 NOSIG",
      "taf": "TAF LIRF 180500Z 1806/1912 04007KT 9999 FEW050"
    },
    {
      "icao": "LIRN",
      "alert": "OK",
      "vis_m": 9999,
      "fzfg": false,
      "metar_trigger": false,
      "taf_trigger": false,
      "metar": "METAR LIRN 180450Z 01006KT CAVOK 16/06 Q1015 NOSIG",
      "taf": "TAF LIRN 180500Z 1806/1906 VRB05KT 9999 SCT060"
    },
    {
      "icao": "LIRP",
      "alert": "OK",
      "vis_m": 9999,
      "fzfg": false,
      "metar_trigger": false,
      "taf_trigger": false,
      "metar": "METAR LIRP 180445Z VRB01KT CAVOK 11/10 Q1018 NOSIG",
      "taf": "TAF LIRP 180500Z 1806/1906 VRB03KT CAVOK"
    },
    {
      "icao": "LIRZ",
      "alert": "OK",
      "vis_m": 9999,
      "fzfg": false,
      "metar_trigger": false,
      "taf_trigger": false,
      "metar": "METAR LIRZ 180450Z AUTO 34004KT 9999 NCD 09/07 Q1018",
      "taf": "TAF LIRZ 180500Z 1806/1906 VRB05KT CAVOK"
    },
    {
      "icao": "LJLJ",
      "alert": "OK",
      "vis_m": 9999,
      "fzfg": false,
      "metar_trigger": false,
      "taf_trigger": false,
      "metar": "METAR LJLJ 180500Z VRB01KT 9999 MIFG FEW060 05/05 Q1021 NOSIG",
      "taf": "TAF LJLJ 180500Z 1806/1906 30003KT 9999 FEW070"
    },
    {
      "icao": "LKMT",
      "alert": "OK",
      "vis_m": 9999,
      "fzfg": false,
      "metar_trigger": false,
      "taf_trigger": false,
      "metar": "METAR LKMT 180500Z 17002KT CAVOK 04/01 Q1022 NOSIG",
      "taf": "TAF LKMT 180500Z 1806/1906 22004KT CAVOK"
    },
    {
      "icao": "LKPR",
      "alert": "OK",
      "vis_m": 9999,
      "fzfg": false,
      "metar_trigger": false,
      "taf_trigger": false,
      "metar": "METAR LKPR 180500Z 00000KT CAVOK 06/01 Q1022 NOSIG",
      "taf": "TAF LKPR 180500Z 1806/1912 VRB02KT CAVOK"
    },
    {
      "icao": "LLBG",
      "alert": "OK",
      "vis_m": 4500,
      "fzfg": false,
      "metar_trigger": false,
      "taf_trigger": false,
      "metar": "METAR LLBG 180520Z 19008KT 4500 DU NSC 23/08 Q1005 TEMPO 2000 DU",
      "taf": "TAF LLBG 180506Z 1806/1906 VRB04KT 4000 DU NSC TX26/1809Z TN17/1904Z"
    },
    {
      "icao": "LMML",
      "alert": "OK",
      "vis_m": 9999,
      "fzfg": false,
      "metar_trigger": false,
      "taf_trigger": false,
      "metar": "METAR LMML 180515Z 26003KT 230V290 9999 FEW008 15/14 Q1014 NOSIG",
      "taf": "TAF LMML 180500Z 1806/1906 31010KT 9999 FEW012"
    },
    {
      "icao": "LOWW",
      "alert": "OK",
      "vis_m": 9999,
      "fzfg": false,
      "metar_trigger": false,
      "taf_trigger": false,
      "metar": "METAR LOWW 180450Z 04004KT CAVOK 07/05 Q1022 NOSIG",
      "taf": "TAF LOWW 180515Z 1806/1912 35007KT CAVOK TX20/1815Z TN08/1903Z"
    },
    {
      "icao": "LPFR",
      "alert": "OK",
      "vis_m": 9999,
      "fzfg": false,
      "metar_trigger": false,
      "taf_trigger": false,
      "metar": "METAR LPFR 180500Z 03006KT CAVOK 17/07 Q1016",
      "taf": "TAF LPFR 180500Z 1806/1906 06007KT CAVOK"
    },
    {
      "icao": "LPMA",
      "alert": "OK",
      "vis_m": 9999,
      "fzfg": false,
      "metar_trigger": false,
      "taf_trigger": false,
      "metar": "METAR LPMA 180500Z 02015KT 9999 BKN015 16/11 Q1016",
      "taf": "TAF LPMA 180500Z 1806/1906 03015KT 9999 BKN015"
    },
    {
      "icao": "LPPR",
      "alert": "OK",
      "vis_m": 9999,
      "fzfg": false,
      "metar_trigger": false,
      "taf_trigger": false,
      "metar": "METAR LPPR 180500Z VRB02KT CAVOK 09/08 Q1017",
      "taf": "TAF LPPR 180500Z 1806/1906 VRB02KT 9999 FEW012"
    },
    {
      "icao": "LPPS",
      "alert": "OK",
      "vis_m": 9999,
      "fzfg": false,
      "metar_trigger": false,
      "taf_trigger": false,
      "metar": "METAR LPPS 180500Z 06008KT 020V080 9999 SCT014 SCT030 15/12 Q1017",
      "taf": "TAF LPPS 180500Z 1806/1912 06012KT 9999 SCT014 BKN030"
    },
    {
      "icao": "LPPT",
      "alert": "OK",
      "vis_m": 9999,
      "fzfg": false,
      "metar_trigger": false,
      "taf_trigger": false,
      "metar": "METAR LPPT 180500Z 32007KT CAVOK 15/09 Q1016",
      "taf": "TAF LPPT 180500Z 1806/1912 33007KT CAVOK"
    },
    {
      "icao": "LQBK",
      "alert": "OK",
      "vis_m": 9999,
      "fzfg": false,
      "metar_trigger": false,
      "taf_trigger": false,
      "metar": "METAR LQBK 180500Z 14004KT CAVOK 07/05 Q1019 NOSIG",
      "taf": "TAF LQBK 180500Z 1806/1906 32005KT CAVOK TX20/1813Z TN07/1904Z"
    },
    {
      "icao": "LQSA",
      "alert": "OK",
      "vis_m": 9999,
      "fzfg": false,
      "metar_trigger": false,
      "taf_trigger": false,
      "metar": "METAR LQSA 180500Z VRB01KT CAVOK 05/04 Q1018 NOSIG",
      "taf": "TAF LQSA 180500Z 1806/1906 29005KT CAVOK TX20/1814Z TN03/1904Z"
    },
    {
      "icao": "LQTZ",
      "alert": "OK",
      "vis_m": 6000,
      "fzfg": false,
      "metar_trigger": false,
      "taf_trigger": false,
      "metar": "METAR LQTZ 180500Z VRB01KT 6000 NSC 05/05 Q1018",
      "taf": "TAF LQTZ 180500Z 1806/1906 33005KT CAVOK TX18/1813Z TN05/1904Z"
    },
    {
      "icao": "LRBC",
      "alert": "OK",
      "vis_m": 9999,
      "fzfg": false,
      "metar_trigger": false,
      "taf_trigger": false,
      "metar": "METAR LRBC 180500Z 36007KT 330V030 CAVOK 10/03 Q1017",
      "taf": "TAF LRBC 180200Z 1803/1812 34014KT CAVOK"
    },
    {
      "icao": "LRBS",
      "alert": "OK",
      "vis_m": 7000,
      "fzfg": false,
      "metar_trigger": false,
      "taf_trigger": false,
      "metar": "METAR LRBS 180500Z VRB02KT 7000 NSC 10/10 Q1015 NOSIG",
      "taf": ""
    },
    {
      "icao": "LRBV",
      "alert": "OK",
      "vis_m": 5000,
      "fzfg": false,
      "metar_trigger": false,
      "taf_trigger": false,
      "metar": "METAR LRBV 180500Z VRB01KT 5000 2000SW BKN003 BKN013 08/08 Q1016",
      "taf": "TAF LRBV 180200Z 1803/1812 VRB04KT CAVOK"
    },
    {
      "icao": "LRCL",
      "alert": "OK",
      "vis_m": 9999,
      "fzfg": false,
      "metar_trigger": false,
      "taf_trigger": false,
      "metar": "METAR LRCL 180500Z 00000KT 9999 FEW054 08/03 Q1017",
      "taf": "TAF LRCL 180200Z 1803/1812 29006KT CAVOK"
    },
    {
      "icao": "LRCV",
      "alert": "OK",
      "vis_m": 9999,
      "fzfg": false,
      "metar_trigger": false,
      "taf_trigger": false,
      "metar": "METAR LRCV 180500Z 11004KT 9999 MIFG NSC 10/09 Q1015",
      "taf": "TAF LRCV 180200Z 1803/1812 VRB04KT CAVOK"
    },
    {
      "icao": "LRIA",
      "alert": "OK",
      "vis_m": 9999,
      "fzfg": false,
      "metar_trigger": false,
      "taf_trigger": false,
      "metar": "METAR LRIA 180500Z 31008KT 9999 SCT048 07/04 Q1017",
      "taf": "TAF LRIA 180200Z 1803/1812 32012KT CAVOK"
    },
    {
      "icao": "LROP",
      "alert": "OK",
      "vis_m": 9000,
      "fzfg": false,
      "metar_trigger": false,
      "taf_trigger": false,
      "metar": "METAR LROP 180500Z 00000KT 9000 NSC 10/10 Q1015 NOSIG",
      "taf": ""
    },
    {
      "icao": "LRSB",
      "alert": "OK",
      "vis_m": 9999,
      "fzfg": false,
      "metar_trigger": false,
      "taf_trigger": false,
      "metar": "METAR LRSB 180500Z 28006KT 9999 SCT055 08/05 Q1016",
      "taf": "TAF LRSB 172300Z 1800/1824 29008KT CAVOK"
    },
    {
      "icao": "LRSM",
      "alert": "OK",
      "vis_m": 9999,
      "fzfg": false,
      "metar_trigger": false,
      "taf_trigger": false,
      "metar": "METAR LRSM 180500Z 32004KT 280V340 CAVOK 07/01 Q1018",
      "taf": "TAF LRSM 180200Z 1803/1812 35008KT CAVOK"
    },
    {
      "icao": "LRSV",
      "alert": "OK",
      "vis_m": 9999,
      "fzfg": false,
      "metar_trigger": false,
      "taf_trigger": false,
      "metar": "METAR LRSV 180500Z 31010KT 9999 BKN048 06/03 Q1017",
      "taf": "TAF LRSV 180200Z 1803/1812 31010KT CAVOK"
    },
    {
      "icao": "LRTM",
      "alert": "OK",
      "vis_m": 3200,
      "fzfg": false,
      "metar_trigger": false,
      "taf_trigger": false,
      "metar": "METAR LRTM 180500Z 00000KT 3200 BR FEW003 07/06 Q1017",
      "taf": "TAF LRTM 180200Z 1803/1812 VRB04KT 3000 BR NSC"
    },
    {
      "icao": "LRTR",
      "alert": "OK",
      "vis_m": 9999,
      "fzfg": false,
      "metar_trigger": false,
      "taf_trigger": false,
      "metar": "METAR LRTR 180500Z 36009KT CAVOK 08/04 Q1017",
      "taf": "TAF LRTR 172300Z 1800/1824 36008KT CAVOK"
    },
    {
      "icao": "LTAC",
      "alert": "OK",
      "vis_m": 8000,
      "fzfg": false,
      "metar_trigger": false,
      "taf_trigger": false,
      "metar": "SPECI LTAC 180513Z 28005KT 230V330 8000 -SHRA FEW020 BKN030 BKN080 10/09 Q1004 NOSIG",
      "taf": "TAF LTAC 180440Z 1806/1906 04008KT 9999 SCT035 BKN100"
    },
    {
      "icao": "LTFM",
      "alert": "OK",
      "vis_m": 9999,
      "fzfg": false,
      "metar_trigger": false,
      "taf_trigger": false,
      "metar": "METAR LTFM 180450Z 36016KT 9999 FEW012 BKN120 11/08 Q1010 NOSIG RMK RWY17L 36013KT RWY34L 36018KT RWY16R 36013KT RWY36 01016KT RWY18 01014KT",
      "taf": "TAF LTFM 180440Z 1806/1912 02018G28KT 9999 FEW012 BKN120"
    },
    {
      "icao": "LUKK",
      "alert": "OK",
      "vis_m": 9999,
      "fzfg": false,
      "metar_trigger": false,
      "taf_trigger": false,
      "metar": "METAR LUKK 180500Z 35013KT CAVOK 09/04 Q1015 NOSIG",
      "taf": "TAF LUKK 180507Z 1806/1906 34014KT CAVOK"
    },
    {
      "icao": "LWOH",
      "alert": "OK",
      "vis_m": 9999,
      "fzfg": false,
      "metar_trigger": false,
      "taf_trigger": false,
      "metar": "METAR LWOH 180520Z 33005KT 280V010 9999 FEW035 SCT090 12/05 Q1014",
      "taf": "TAF LWOH 180235Z 1803/1903 34008KT 9999 SCT050"
    },
    {
      "icao": "LWSK",
      "alert": "OK",
      "vis_m": 9999,
      "fzfg": false,
      "metar_trigger": false,
      "taf_trigger": false,
      "metar": "METAR LWSK 180520Z 09005KT 050V110 CAVOK 13/06 Q1014 NOSIG",
      "taf": "TAF LWSK 180235Z 1803/1903 VRB02KT 9999 FEW070"
    },
    {
      "icao": "LYBE",
      "alert": "OK",
      "vis_m": 9999,
      "fzfg": false,
      "metar_trigger": false,
      "taf_trigger": false,
      "metar": "METAR LYBE 180500Z VRB01KT CAVOK 08/05 Q1017 NOSIG",
      "taf": "TAF LYBE 180500Z 1806/1906 35004KT CAVOK TX21/1813Z TN04/1904Z"
    },
    {
      "icao": "LYNI",
      "alert": "OK",
      "vis_m": 9999,
      "fzfg": false,
      "metar_trigger": false,
      "taf_trigger": false,
      "metar": "METAR LYNI 180500Z 35005KT 280V060 9999 FEW050 BKN067 13/06 Q1015 NOSIG",
      "taf": "TAF LYNI 180500Z 1806/1906 33008KT CAVOK TX21/1812Z TN05/1904Z"
    },
    {
      "icao": "LYPG",
      "alert": "OK",
      "vis_m": 9999,
      "fzfg": false,
      "metar_trigger": false,
      "taf_trigger": false,
      "metar": "METAR LYPG 180500Z 34010KT CAVOK 19/03 Q1013 NOSIG",
      "taf": "TAF LYPG 180500Z 1806/1906 36012KT CAVOK TX27/1813Z TN12/1904Z"
    },
    {
      "icao": "LZIB",
      "alert": "OK",
      "vis_m": 9999,
      "fzfg": false,
      "metar_trigger": false,
      "taf_trigger": false,
      "metar": "METAR LZIB 180500Z 01003KT CAVOK 07/03 Q1021 NOSIG",
      "taf": "TAF LZIB 180515Z 1806/1906 36005KT CAVOK"
    },
    {
      "icao": "LZKZ",
      "alert": "OK",
      "vis_m": 9999,
      "fzfg": false,
      "metar_trigger": false,
      "taf_trigger": false,
      "metar": "METAR LZKZ 180500Z 00000KT CAVOK 08/03 Q1020 NOSIG",
      "taf": "TAF LZKZ 180515Z 1806/1906 03008KT CAVOK"
    },
    {
      "icao": "LZTT",
      "alert": "OK",
      "vis_m": 9999,
      "fzfg": false,
      "metar_trigger": false,
      "taf_trigger": false,
      "metar": "METAR LZTT 180500Z 28004KT CAVOK 01/M01 Q1020 NOSIG",
      "taf": "TAF LZTT 180515Z 1806/1906 30005KT CAVOK"
    },
    {
      "icao": "OEJN",
      "alert": "OK",
      "vis_m": 9999,
      "fzfg": false,
      "metar_trigger": false,
      "taf_trigger": false,
      "metar": "METAR OEJN 180500Z 12005KT CAVOK 32/18 Q1006 NOSIG",
      "taf": "TAF OEJN 180500Z 1806/1912 18022KT 7000 NSC"
    },
    {
      "icao": "OEMA",
      "alert": "OK",
      "vis_m": 9999,
      "fzfg": false,
      "metar_trigger": false,
      "taf_trigger": false,
      "metar": "METAR OEMA 180500Z VRB02KT CAVOK 29/12 Q1013 NOSIG",
      "taf": "TAF OEMA 180500Z 1806/1912 14010KT CAVOK"
    },
    {
      "icao": "OJAI",
      "alert": "OK",
      "vis_m": null,
      "fzfg": false,
      "metar_trigger": false,
      "taf_trigger": false,
      "metar": "",
      "taf": "TAF OJAI 180440Z 1806/1912 15010KT 3000 DU SCT040"
    },
    {
      "icao": "OMAA",
      "alert": "OK",
      "vis_m": null,
      "fzfg": false,
      "metar_trigger": false,
      "taf_trigger": false,
      "metar": "",
      "taf": ""
    },
    {
      "icao": "OMDB",
      "alert": "OK",
      "vis_m": null,
      "fzfg": false,
      "metar_trigger": false,
      "taf_trigger": false,
      "metar": "",
      "taf": ""
    },
    {
      "icao": "UAAA",
      "alert": "OK",
      "vis_m": 9999,
      "fzfg": false,
      "metar_trigger": false,
      "taf_trigger": false,
      "metar": "METAR UAAA 180500Z 02003MPS 360V060 9999 BKN010 OVC017 05/03 Q1027 NOSIG",
      "taf": "TAF UAAA 180501Z 1806/1906 01003MPS 9999 SCT040CB BKN100 TX12/1809Z TN04/1901Z"
    },
    {
      "icao": "UBBB",
      "alert": "OK",
      "vis_m": 9999,
      "fzfg": false,
      "metar_trigger": false,
      "taf_trigger": false,
      "metar": "METAR UBBB 180500Z 19018KT CAVOK 15/10 Q1015 NOSIG",
      "taf": "TAF UBBB 180505Z 1806/1906 16018KT 9999 SCT025 TX17/1810Z TN10/1901Z"
    },
    {
      "icao": "UDSG",
      "alert": "OK",
      "vis_m": 9999,
      "fzfg": false,
      "metar_trigger": false,
      "taf_trigger": false,
      "metar": "METAR UDSG 180500Z 11001KT 9999 FEW043CB BKN040 03/M01 Q1017 NOSIG",
      "taf": "TAF UDSG 180500Z 1806/1906 24006KT 9999 BKN040"
    },
    {
      "icao": "UDYZ",
      "alert": "OK",
      "vis_m": 9999,
      "fzfg": false,
      "metar_trigger": false,
      "taf_trigger": false,
      "metar": "METAR UDYZ 180500Z 18001KT 9999 FEW046 12/03 Q1014 NOSIG",
      "taf": "TAF UDYZ 180500Z 1806/1906 28006KT 9999 SCT040"
    },
    {
      "icao": "UGKO",
      "alert": "OK",
      "vis_m": 9999,
      "fzfg": false,
      "metar_trigger": false,
      "taf_trigger": false,
      "metar": "METAR UGKO 180500Z 08031G44KT CAVOK 17/04 Q1006 NOSIG",
      "taf": "TAF UGKO 180500Z 1806/1906 08020G35KT CAVOK TX20/1811Z TN11/1903Z"
    }
  ]
}