{
  "ts_utc": "2026-01-20T11:01:45Z",
  "threshold_m": 150,
  "source": "stations_override.txt (ICAO list) + aviationweather.gov (METAR/TAF raw)",
  "station_count": 159,
  "stations": [
    {
      "icao": "BIKF",
      "alert": "OK",
      "vis_m": 9999,
      "fzfg": false,
      "metar_trigger": false,
      "taf_trigger": false,
      "metar": "METAR BIKF 201030Z 14016KT 9999 VCSH SCT016CB BKN028 03/02 Q1002",
      "taf": "TAF BIKF 201022Z 2012/2112 14015KT 9999 -SHRA FEW015 BKN035 TX05/2012Z TN01/2022Z"
    },
    {
      "icao": "BKPR",
      "alert": "OK",
      "vis_m": 9999,
      "fzfg": false,
      "metar_trigger": false,
      "taf_trigger": false,
      "metar": "METAR BKPR 201100Z 12015KT CAVOK 02/M04 Q1029 NOSIG",
      "taf": "TAF BKPR 200530Z 2006/2106 13006KT CAVOK"
    },
    {
      "icao": "EBCI",
      "alert": "OK",
      "vis_m": 9999,
      "fzfg": false,
      "metar_trigger": false,
      "taf_trigger": false,
      "metar": "METAR EBCI 201050Z 16006KT CAVOK 04/01 Q1016 NOSIG",
      "taf": "TAF EBCI 200510Z 2006/2112 16006KT CAVOK"
    },
    {
      "icao": "EDDB",
      "alert": "OK",
      "vis_m": 9999,
      "fzfg": false,
      "metar_trigger": false,
      "taf_trigger": false,
      "metar": "METAR EDDB 201050Z AUTO 16008KT 130V190 CAVOK 00/M07 Q1022 NOSIG",
      "taf": "TAF EDDB 200500Z 2006/2106 13006KT CAVOK"
    },
    {
      "icao": "EDDH",
      "alert": "OK",
      "vis_m": 9999,
      "fzfg": false,
      "metar_trigger": false,
      "taf_trigger": false,
      "metar": "METAR EDDH 201050Z AUTO 13006KT CAVOK 02/M03 Q1020 NOSIG",
      "taf": "TAF EDDH 200500Z 2006/2112 10006KT CAVOK"
    },
    {
      "icao": "EDDK",
      "alert": "OK",
      "vis_m": 9999,
      "fzfg": false,
      "metar_trigger": false,
      "taf_trigger": false,
      "metar": "METAR EDDK 201050Z AUTO 14013KT CAVOK 03/M02 Q1018 NOSIG",
      "taf": "TAF EDDK 200500Z 2006/2112 12008KT 9000 NSC"
    },
    {
      "icao": "EDDN",
      "alert": "OK",
      "vis_m": 9999,
      "fzfg": false,
      "metar_trigger": false,
      "taf_trigger": false,
      "metar": "METAR EDDN 201050Z AUTO 11007KT CAVOK 01/M07 Q1020 NOSIG",
      "taf": "TAF EDDN 200500Z 2006/2106 11007KT CAVOK"
    },
    {
      "icao": "EDDS",
      "alert": "OK",
      "vis_m": 9999,
      "fzfg": false,
      "metar_trigger": false,
      "taf_trigger": false,
      "metar": "METAR EDDS 201050Z AUTO VRB02KT CAVOK 02/M02 Q1018 NOSIG",
      "taf": "TAF EDDS 200500Z 2006/2106 VRB02KT 4000 BR NSC"
    },
    {
      "icao": "EDFH",
      "alert": "OK",
      "vis_m": 250,
      "fzfg": true,
      "metar_trigger": false,
      "taf_trigger": false,
      "metar": "METAR EDFH 201050Z 15012KT 0250 R21/0250N FZFG VV/// M01/M02 Q1017",
      "taf": "TAF EDFH 200500Z 2006/2106 14010KT 0300 FZFG VV000"
    },
    {
      "icao": "EDJA",
      "alert": "OK",
      "vis_m": 9999,
      "fzfg": false,
      "metar_trigger": false,
      "taf_trigger": false,
      "metar": "METAR EDJA 201050Z 00000KT CAVOK 02/M01 Q1018",
      "taf": "TAF EDJA 200800Z 2009/2018 VRB03KT CAVOK"
    },
    {
      "icao": "EDLW",
      "alert": "OK",
      "vis_m": 9999,
      "fzfg": false,
      "metar_trigger": false,
      "taf_trigger": false,
      "metar": "METAR EDLW 201050Z 09004KT CAVOK 05/M02 Q1017",
      "taf": "TAF EDLW 200500Z 2006/2106 14004KT CAVOK"
    },
    {
      "icao": "EDNY",
      "alert": "OK",
      "vis_m": 2000,
      "fzfg": false,
      "metar_trigger": false,
      "taf_trigger": false,
      "metar": "METAR EDNY 201050Z VRB02KT 2000 1000E R24/P2000N BR BCFG FEW002 BKN005 M02/M02 Q1019",
      "taf": ""
    },
    {
      "icao": "EDSB",
      "alert": "OK",
      "vis_m": 7000,
      "fzfg": false,
      "metar_trigger": false,
      "taf_trigger": false,
      "metar": "METAR EDSB 201050Z 10003KT 070V150 7000 OVC003 M00/M01 Q1020",
      "taf": "TAF EDSB 200500Z 2006/2106 VRB03KT 2000 BR BKN003"
    },
    {
      "icao": "EETN",
      "alert": "OK",
      "vis_m": 6000,
      "fzfg": false,
      "metar_trigger": false,
      "taf_trigger": false,
      "metar": "METAR EETN 201050Z 24002KT 6000 OVC006 M07/M08 Q1027 NOSIG",
      "taf": "TAF EETN 200530Z 2006/2106 VRB02KT 3000 BR OVC003"
    },
    {
      "icao": "EFTU",
      "alert": "OK",
      "vis_m": 7000,
      "fzfg": false,
      "metar_trigger": false,
      "taf_trigger": false,
      "metar": "METAR EFTU 201050Z AUTO 14005KT 090V180 7000 OVC003 M04/M04 Q1026",
      "taf": "TAF EFTU 200834Z 2009/2109 12006KT 8000 OVC002"
    },
    {
      "icao": "EGBB",
      "alert": "OK",
      "vis_m": 9999,
      "fzfg": false,
      "metar_trigger": false,
      "taf_trigger": false,
      "metar": "METAR EGBB 201050Z 15017KT 9999 BKN021 08/05 Q1007",
      "taf": ""
    },
    {
      "icao": "EGGP",
      "alert": "OK",
      "vis_m": 9999,
      "fzfg": false,
      "metar_trigger": false,
      "taf_trigger": false,
      "metar": "METAR EGGP 201050Z 14018KT 9999 BKN022 BKN027 08/04 Q1004",
      "taf": ""
    },
    {
      "icao": "EGGW",
      "alert": "OK",
      "vis_m": 9999,
      "fzfg": false,
      "metar_trigger": false,
      "taf_trigger": false,
      "metar": "METAR EGGW 201050Z 16015KT 9999 FEW020 BKN029 08/05 Q1009",
      "taf": "TAF EGGW 200459Z 2006/2106 16012KT 9999 SCT012 BKN022"
    },
    {
      "icao": "EGKK",
      "alert": "OK",
      "vis_m": 9999,
      "fzfg": false,
      "metar_trigger": false,
      "taf_trigger": false,
      "metar": "METAR EGKK 201050Z 16009KT 130V190 9999 SCT017 09/06 Q1011",
      "taf": "TAF EGKK 200453Z 2006/2112 16006KT 9999 SCT010 BKN020"
    },
    {
      "icao": "EGNM",
      "alert": "OK",
      "vis_m": 9999,
      "fzfg": false,
      "metar_trigger": false,
      "taf_trigger": false,
      "metar": "METAR EGNM 201050Z 13014KT 9999 BKN005 07/06 Q1007",
      "taf": "TAF EGNM 200529Z 2006/2106 14007KT 0900 FG BKN001"
    },
    {
      "icao": "EGPD",
      "alert": "OK",
      "vis_m": 3500,
      "fzfg": false,
      "metar_trigger": false,
      "taf_trigger": false,
      "metar": "METAR EGPD 201050Z AUTO 15012KT 3500 RA OVC003 08/07 Q1008 REDZ BECMG NSW BKN006",
      "taf": "TAF EGPD 200454Z 2006/2106 14010KT 1400 BR BKN002"
    },
    {
      "icao": "EGPF",
      "alert": "OK",
      "vis_m": 9999,
      "fzfg": false,
      "metar_trigger": false,
      "taf_trigger": false,
      "metar": "METAR EGPF 201050Z AUTO 08009KT 9999 OVC045 07/05 Q1004",
      "taf": "TAF EGPF 200455Z 2006/2106 08006KT 9999 SCT020"
    },
    {
      "icao": "EHBK",
      "alert": "OK",
      "vis_m": 9999,
      "fzfg": false,
      "metar_trigger": false,
      "taf_trigger": false,
      "metar": "METAR EHBK 201055Z AUTO 21007KT 9999 NSC 03/00 Q1016 NOSIG",
      "taf": "TAF EHBK 200519Z 2006/2112 17005KT CAVOK"
    },
    {
      "icao": "EHEH",
      "alert": "OK",
      "vis_m": 300,
      "fzfg": true,
      "metar_trigger": false,
      "taf_trigger": false,
      "metar": "METAR EHEH 201025Z AUTO 15006KT 110V180 0300 R21/0650N FZFG OVC000 M00/M01 Q1017 RED NOSIG RMK TREND REMOTE BY EHWX LVP CHARLIE",
      "taf": ""
    },
    {
      "icao": "EKBI",
      "alert": "OK",
      "vis_m": 9999,
      "fzfg": false,
      "metar_trigger": false,
      "taf_trigger": false,
      "metar": "METAR EKBI 201050Z AUTO 09004KT 9999 NCD 01/M01 Q1021",
      "taf": "TAF EKBI 200827Z 2009/2109 10004KT 6000 NSC"
    },
    {
      "icao": "EKCH",
      "alert": "OK",
      "vis_m": 9999,
      "fzfg": false,
      "metar_trigger": false,
      "taf_trigger": false,
      "metar": "METAR EKCH 201050Z AUTO 16005KT 9999 NCD 02/M01 Q1022 NOSIG",
      "taf": "TAF EKCH 200827Z 2009/2109 14008KT CAVOK"
    },
    {
      "icao": "ENAL",
      "alert": "OK",
      "vis_m": 9999,
      "fzfg": false,
      "metar_trigger": false,
      "taf_trigger": false,
      "metar": "METAR ENAL 201050Z 17005KT 9999 BKN009 05/03 Q1020",
      "taf": ""
    },
    {
      "icao": "ENBR",
      "alert": "OK",
      "vis_m": 9999,
      "fzfg": false,
      "metar_trigger": false,
      "taf_trigger": false,
      "metar": "METAR ENBR 201050Z VRB02KT 9999 FEW015 BKN027 02/02 Q1021 NOSIG RMK WIND 1200FT 15007KT",
      "taf": "TAF ENBR 200500Z 2006/2106 12005KT 9999 FEW010 BKN015"
    },
    {
      "icao": "ENGM",
      "alert": "OK",
      "vis_m": 9999,
      "fzfg": false,
      "metar_trigger": false,
      "taf_trigger": false,
      "metar": "METAR ENGM 201050Z 11003KT 9999 FEW010 OVC012 M03/M05 Q1024 NOSIG",
      "taf": "TAF ENGM 200500Z 2006/2106 03005KT 9999 BKN010"
    },
    {
      "icao": "ENHD",
      "alert": "OK",
      "vis_m": 9999,
      "fzfg": false,
      "metar_trigger": false,
      "taf_trigger": false,
      "metar": "METAR ENHD 201050Z 11004KT CAVOK 00/M01 Q1021",
      "taf": "TAF ENHD 200800Z 2009/2018 12005KT CAVOK"
    },
    {
      "icao": "ENTC",
      "alert": "OK",
      "vis_m": 9999,
      "fzfg": false,
      "metar_trigger": false,
      "taf_trigger": false,
      "metar": "METAR ENTC 201050Z VRB01KT 9999 1500N VCFG FEW003 M06/M07 Q1027 TEMPO 3500 BCFG RMK WIND 2600FT 14006KT",
      "taf": ""
    },
    {
      "icao": "ENTO",
      "alert": "OK",
      "vis_m": 9999,
      "fzfg": false,
      "metar_trigger": false,
      "taf_trigger": false,
      "metar": "METAR ENTO 201050Z 04007KT 010V070 9999 OVC014 M02/M05 Q1024 NOSIG",
      "taf": "TAF ENTO 200500Z 2006/2106 03005KT 9999 BKN018"
    },
    {
      "icao": "ENVA",
      "alert": "OK",
      "vis_m": 9999,
      "fzfg": false,
      "metar_trigger": false,
      "taf_trigger": false,
      "metar": "METAR ENVA 201050Z 13007KT CAVOK M02/M05 Q1023 NOSIG RMK WIND 670FT 10009KT",
      "taf": "TAF ENVA 200500Z 2006/2106 12008KT CAVOK"
    },
    {
      "icao": "ENZV",
      "alert": "OK",
      "vis_m": 9999,
      "fzfg": false,
      "metar_trigger": false,
      "taf_trigger": false,
      "metar": "METAR ENZV 201050Z VRB02KT CAVOK M01/M04 Q1021 NOSIG",
      "taf": "TAF ENZV 200500Z 2006/2106 17005KT CAVOK"
    },
    {
      "icao": "EPGD",
      "alert": "OK",
      "vis_m": 9000,
      "fzfg": false,
      "metar_trigger": false,
      "taf_trigger": false,
      "metar": "METAR EPGD 201030Z 28002KT 9000 NSC M05/M09 Q1025",
      "taf": "TAF EPGD 200530Z 2006/2106 19004KT 3000 BR NSC"
    },
    {
      "icao": "EPKK",
      "alert": "OK",
      "vis_m": 3500,
      "fzfg": false,
      "metar_trigger": false,
      "taf_trigger": false,
      "metar": "METAR EPKK 201030Z 08003KT 3500 HZ NSC M05/M10 Q1029",
      "taf": "TAF EPKK 200830Z 2009/2109 12002KT 2800 BR NSC"
    },
    {
      "icao": "EPKT",
      "alert": "OK",
      "vis_m": 8000,
      "fzfg": false,
      "metar_trigger": false,
      "taf_trigger": false,
      "metar": "METAR EPKT 201030Z VRB02KT 8000 NSC M02/M07 Q1028",
      "taf": "TAF EPKT 200530Z 2006/2106 13005KT 4000 BR NSC"
    },
    {
      "icao": "EPLB",
      "alert": "OK",
      "vis_m": 9999,
      "fzfg": false,
      "metar_trigger": false,
      "taf_trigger": false,
      "metar": "METAR EPLB 201030Z 21006KT CAVOK M05/M06 Q1030",
      "taf": "TAF EPLB 200530Z 2006/2106 21004KT 4000 BR NSC"
    },
    {
      "icao": "EPMO",
      "alert": "OK",
      "vis_m": 3300,
      "fzfg": false,
      "metar_trigger": false,
      "taf_trigger": false,
      "metar": "METAR EPMO 201030Z 10004KT 3300 BR NSC M07/M08 Q1029",
      "taf": "TAF EPMO 200530Z 2006/2106 12005KT 3500 BR NSC"
    },
    {
      "icao": "EPPO",
      "alert": "OK",
      "vis_m": 9999,
      "fzfg": false,
      "metar_trigger": false,
      "taf_trigger": false,
      "metar": "METAR EPPO 201030Z 15009KT CAVOK 02/M08 Q1025",
      "taf": "TAF EPPO 200530Z 2006/2106 15010KT CAVOK"
    },
    {
      "icao": "EPRA",
      "alert": "OK",
      "vis_m": 7000,
      "fzfg": false,
      "metar_trigger": false,
      "taf_trigger": false,
      "metar": "METAR EPRA 201030Z 15005KT 7000 NSC M06/M11 Q1029",
      "taf": "TAF EPRA 200830Z 2009/2018 16006KT 5000 BR NSC"
    },
    {
      "icao": "EPRZ",
      "alert": "OK",
      "vis_m": 4000,
      "fzfg": false,
      "metar_trigger": false,
      "taf_trigger": false,
      "metar": "METAR EPRZ 201030Z 10002KT 4000 BR NSC M07/M11 Q1030",
      "taf": ""
    },
    {
      "icao": "EPSC",
      "alert": "OK",
      "vis_m": 9999,
      "fzfg": false,
      "metar_trigger": false,
      "taf_trigger": false,
      "metar": "METAR EPSC 201030Z 14007KT CAVOK M00/M07 Q1023",
      "taf": "TAF EPSC 200530Z 2006/2106 13007KT CAVOK"
    },
    {
      "icao": "EPSY",
      "alert": "OK",
      "vis_m": 2800,
      "fzfg": false,
      "metar_trigger": false,
      "taf_trigger": false,
      "metar": "METAR EPSY 201030Z 19004KT 2800 BR NSC M09/M11 Q1028",
      "taf": "TAF EPSY 200830Z 2009/2018 VRB02KT 8000 NSC"
    },
    {
      "icao": "EPWA",
      "alert": "OK",
      "vis_m": 5000,
      "fzfg": false,
      "metar_trigger": false,
      "taf_trigger": false,
      "metar": "METAR EPWA 201030Z 16006KT 5000 BR NSC M06/M10 Q1029 NOSIG",
      "taf": "TAF EPWA 200830Z 2009/2109 13008KT 7000 NSC"
    },
    {
      "icao": "EPWR",
      "alert": "OK",
      "vis_m": 9999,
      "fzfg": false,
      "metar_trigger": false,
      "taf_trigger": false,
      "metar": "METAR EPWR 201030Z 12016KT CAVOK 01/M06 Q1025",
      "taf": "TAF EPWR 200830Z 2009/2109 12014KT CAVOK"
    },
    {
      "icao": "ESGG",
      "alert": "OK",
      "vis_m": 7000,
      "fzfg": false,
      "metar_trigger": false,
      "taf_trigger": false,
      "metar": "METAR ESGG 201050Z 07005KT 050V110 7000 BKN005 M02/M03 Q1022",
      "taf": "TAF ESGG 200830Z 2009/2109 11007KT 6000 OVC004"
    },
    {
      "icao": "ESKN",
      "alert": "OK",
      "vis_m": 9999,
      "fzfg": false,
      "metar_trigger": false,
      "taf_trigger": false,
      "metar": "METAR ESKN 201050Z 09006KT 9999 OVC009 01/M00 Q1024",
      "taf": ""
    },
    {
      "icao": "ESMS",
      "alert": "OK",
      "vis_m": 9999,
      "fzfg": false,
      "metar_trigger": false,
      "taf_trigger": false,
      "metar": "METAR ESMS 201050Z 17006KT CAVOK 01/M02 Q1022",
      "taf": "TAF ESMS 200827Z 2009/2109 14005KT CAVOK"
    },
    {
      "icao": "ESSA",
      "alert": "OK",
      "vis_m": 9999,
      "fzfg": false,
      "metar_trigger": false,
      "taf_trigger": false,
      "metar": "METAR ESSA 201050Z 13003KT 100V160 9999 OVC010 M01/M04 Q1025 NOSIG",
      "taf": "TAF ESSA 200830Z 2009/2109 10005KT 9999 OVC010"
    },
    {
      "icao": "EYKA",
      "alert": "OK",
      "vis_m": 5000,
      "fzfg": false,
      "metar_trigger": false,
      "taf_trigger": false,
      "metar": "METAR EYKA 201050Z 19003KT 130V250 5000 BR NSC M09/M11 Q1029",
      "taf": "TAF EYKA 200500Z 2006/2106 VRB04KT 9000 NSC"
    },
    {
      "icao": "EYPA",
      "alert": "OK",
      "vis_m": 6000,
      "fzfg": false,
      "metar_trigger": false,
      "taf_trigger": false,
      "metar": "METAR EYPA 201050Z 17007KT 6000 NSC M10/M14 Q1027",
      "taf": "TAF EYPA 200500Z 2006/2106 15008KT 9000 NSC"
    },
    {
      "icao": "EYVI",
      "alert": "OK",
      "vis_m": 5000,
      "fzfg": false,
      "metar_trigger": false,
      "taf_trigger": false,
      "metar": "METAR EYVI 201050Z 19006KT 5000 BR NSC M12/M14 Q1028 NOSIG",
      "taf": ""
    },
    {
      "icao": "GCFV",
      "alert": "OK",
      "vis_m": 9999,
      "fzfg": false,
      "metar_trigger": false,
      "taf_trigger": false,
      "metar": "METAR GCFV 201030Z 01015KT 9999 FEW035 19/09 Q1026",
      "taf": "TAF GCFV 200800Z 2009/2109 03015KT 9999 FEW030 TX21/2014Z TN14/2106Z"
    },
    {
      "icao": "GCLP",
      "alert": "OK",
      "vis_m": 9999,
      "fzfg": false,
      "metar_trigger": false,
      "taf_trigger": false,
      "metar": "METAR GCLP 201030Z 02017KT 9999 FEW040 19/09 Q1026 NOSIG",
      "taf": "TAF GCLP 200800Z 2009/2109 02015KT 9999 SCT035 TX20/2014Z TN16/2106Z"
    },
    {
      "icao": "GCTS",
      "alert": "OK",
      "vis_m": 9999,
      "fzfg": false,
      "metar_trigger": false,
      "taf_trigger": false,
      "metar": "METAR GCTS 201030Z 07014KT 040V100 9999 FEW040 19/08 Q1026 NOSIG",
      "taf": "TAF GCTS 200800Z 2009/2109 08015KT 9999 FEW040 TX22/2014Z TN14/2106Z"
    },
    {
      "icao": "GMAD",
      "alert": "OK",
      "vis_m": 9999,
      "fzfg": false,
      "metar_trigger": false,
      "taf_trigger": false,
      "metar": "METAR GMAD 201030Z 05005KT 020V080 CAVOK 13/10 Q1022 NOSIG",
      "taf": "TAF GMAD 200500Z 2006/2112 06008KT 8000 SCT020"
    },
    {
      "icao": "GMMN",
      "alert": "OK",
      "vis_m": 3000,
      "fzfg": false,
      "metar_trigger": false,
      "taf_trigger": false,
      "metar": "SPECI GMMN 201048Z 20008KT 3000 RA SCT010 BKN020 10/08 Q1024 NOSIG",
      "taf": "TAF GMMN 200500Z 2006/2112 20006KT 9999 SCT030"
    },
    {
      "icao": "GMMX",
      "alert": "OK",
      "vis_m": 8000,
      "fzfg": false,
      "metar_trigger": false,
      "taf_trigger": false,
      "metar": "METAR GMMX 201030Z 08004KT 040V110 8000 NSC 10/05 Q1024 NOSIG",
      "taf": "TAF GMMX 200500Z 2006/2112 24006KT 8000 NSC"
    },
    {
      "icao": "HEGN",
      "alert": "OK",
      "vis_m": 9999,
      "fzfg": false,
      "metar_trigger": false,
      "taf_trigger": false,
      "metar": "METAR HEGN 201000Z 34015KT CAVOK 20/05 Q1019 NOSIG",
      "taf": "TAF HEGN 201100Z 2012/2118 35014KT CAVOK"
    },
    {
      "icao": "HEMA",
      "alert": "OK",
      "vis_m": 9999,
      "fzfg": false,
      "metar_trigger": false,
      "taf_trigger": false,
      "metar": "METAR HEMA 201000Z 33013KT 9999 FEW020 22/09 Q1018 NOSIG",
      "taf": "TAF HEMA 201100Z 2012/2118 36015KT CAVOK"
    },
    {
      "icao": "HESH",
      "alert": "OK",
      "vis_m": 9999,
      "fzfg": false,
      "metar_trigger": false,
      "taf_trigger": false,
      "metar": "METAR HESH 201000Z 36010KT CAVOK 21/06 Q1018 NOSIG",
      "taf": "TAF HESH 201100Z 2012/2118 01012KT CAVOK"
    },
    {
      "icao": "HESX",
      "alert": "OK",
      "vis_m": 9999,
      "fzfg": false,
      "metar_trigger": false,
      "taf_trigger": false,
      "metar": "METAR HESX 201000Z 06010KT CAVOK 16/06 Q1020 NOSIG",
      "taf": "TAF HESX 201100Z 2012/2118 06014KT 8000 NSC"
    },
    {
      "icao": "LATI",
      "alert": "OK",
      "vis_m": 9999,
      "fzfg": false,
      "metar_trigger": false,
      "taf_trigger": false,
      "metar": "METAR LATI 201050Z VRB02KT CAVOK 10/M08 Q1022 NOSIG",
      "taf": "TAF LATI 200500Z 2006/2106 VRB05KT CAVOK TX13/2012Z TN01/2105Z"
    },
    {
      "icao": "LBPD",
      "alert": "OK",
      "vis_m": 9999,
      "fzfg": false,
      "metar_trigger": false,
      "taf_trigger": false,
      "metar": "METAR LBPD 201030Z AUTO 09003KT 050V140 9999 NCD 01/M06 Q1035 NOSIG",
      "taf": "TAF LBPD 200500Z 2006/2106 VRB03KT CAVOK"
    },
    {
      "icao": "LBSF",
      "alert": "OK",
      "vis_m": 9999,
      "fzfg": false,
      "metar_trigger": false,
      "taf_trigger": false,
      "metar": "METAR LBSF 201030Z 08009KT CAVOK 01/M06 Q1032 NOSIG",
      "taf": "TAF LBSF 200500Z 2006/2106 VRB03KT CAVOK"
    },
    {
      "icao": "LBWN",
      "alert": "OK",
      "vis_m": 9999,
      "fzfg": false,
      "metar_trigger": false,
      "taf_trigger": false,
      "metar": "METAR LBWN 201030Z 24006KT 200V290 CAVOK M01/M06 Q1036 NOSIG",
      "taf": "TAF LBWN 200500Z 2006/2106 26010KT CAVOK"
    },
    {
      "icao": "LCLK",
      "alert": "OK",
      "vis_m": 9999,
      "fzfg": false,
      "metar_trigger": false,
      "taf_trigger": false,
      "metar": "METAR LCLK 201030Z 02013KT 350V050 9999 FEW030 13/00 Q1023 NOSIG",
      "taf": "TAF LCLK 200530Z 2006/2106 33008KT 9999 FEW025"
    },
    {
      "icao": "LCPH",
      "alert": "OK",
      "vis_m": 9999,
      "fzfg": false,
      "metar_trigger": false,
      "taf_trigger": false,
      "metar": "METAR LCPH 201030Z 26007KT 230V320 9999 FEW040 13/M02 Q1023 NOSIG",
      "taf": "TAF LCPH 200530Z 2006/2106 05008KT 9999 FEW020"
    },
    {
      "icao": "LEAL",
      "alert": "OK",
      "vis_m": 9999,
      "fzfg": false,
      "metar_trigger": false,
      "taf_trigger": false,
      "metar": "METAR LEAL 201030Z 30009KT 280V340 CAVOK 14/06 Q1013 NOSIG",
      "taf": "TAF LEAL 200500Z 2006/2106 34010KT 9999 FEW035 TX15/2013Z TN10/2006Z"
    },
    {
      "icao": "LEBB",
      "alert": "OK",
      "vis_m": 9999,
      "fzfg": false,
      "metar_trigger": false,
      "taf_trigger": false,
      "metar": "METAR LEBB 201030Z VRB02KT CAVOK 10/04 Q1016 NOSIG",
      "taf": "TAF LEBB 200500Z 2006/2106 20008KT 9999 SCT040 TX13/2013Z TN02/2007Z"
    },
    {
      "icao": "LEBL",
      "alert": "OK",
      "vis_m": 9999,
      "fzfg": false,
      "metar_trigger": false,
      "taf_trigger": false,
      "metar": "METAR LEBL 201030Z 34010KT 9999 -RA FEW032 BKN045 BKN055 09/08 Q1013 NOSIG",
      "taf": "TAF LEBL 200500Z 2006/2106 01013KT 9999 SCT020 BKN030 TX14/2013Z TN09/2006Z"
    },
    {
      "icao": "LECH",
      "alert": "OK",
      "vis_m": 9999,
      "fzfg": false,
      "metar_trigger": false,
      "taf_trigger": false,
      "metar": "METAR LECH 201030Z AUTO 36013G25KT 320V040 9999 SCT048 SCT065 11/03 Q1013",
      "taf": ""
    },
    {
      "icao": "LEMD",
      "alert": "OK",
      "vis_m": 9999,
      "fzfg": false,
      "metar_trigger": false,
      "taf_trigger": false,
      "metar": "METAR LEMD 201030Z 14003KT 060V210 CAVOK 05/01 Q1017 NOSIG",
      "taf": "TAF LEMD 200500Z 2006/2112 VRB03KT CAVOK TX12/2014Z TNM03/2006Z"
    },
    {
      "icao": "LEMG",
      "alert": "OK",
      "vis_m": 9999,
      "fzfg": false,
      "metar_trigger": false,
      "taf_trigger": false,
      "metar": "METAR LEMG 201030Z 30010KT 270V330 9999 FEW045 13/05 Q1018 NOSIG",
      "taf": "TAF LEMG 200500Z 2006/2106 29012KT CAVOK TX14/2014Z TN07/2006Z"
    },
    {
      "icao": "LEVC",
      "alert": "OK",
      "vis_m": 9999,
      "fzfg": false,
      "metar_trigger": false,
      "taf_trigger": false,
      "metar": "METAR LEVC 201030Z 29008KT 9999 SCT060 14/05 Q1013 NOSIG",
      "taf": "TAF LEVC 200500Z 2006/2106 28006KT 9999 SCT035 TX14/2013Z TN07/2006Z"
    },
    {
      "icao": "LEXJ",
      "alert": "OK",
      "vis_m": 9999,
      "fzfg": false,
      "metar_trigger": false,
      "taf_trigger": false,
      "metar": "METAR LEXJ 201030Z 01004KT CAVOK 10/04 Q1014",
      "taf": "TAF LEXJ 200800Z 2009/2109 22009KT 9999 SCT040 TX13/2014Z TN06/2009Z"
    },
    {
      "icao": "LEZG",
      "alert": "OK",
      "vis_m": 9999,
      "fzfg": false,
      "metar_trigger": false,
      "taf_trigger": false,
      "metar": "METAR LEZG 201030Z 29011KT 260V330 CAVOK 09/04 Q1016 NOSIG",
      "taf": "TAF LEZG 200500Z 2006/2106 30008KT 9999 FEW030 TX10/2015Z TN06/2006Z"
    },
    {
      "icao": "LEZL",
      "alert": "OK",
      "vis_m": 9999,
      "fzfg": false,
      "metar_trigger": false,
      "taf_trigger": false,
      "metar": "METAR LEZL 201030Z VRB02KT CAVOK 10/07 Q1020 NOSIG",
      "taf": "TAF LEZL 200800Z 2009/2109 VRB04KT CAVOK TX15/2015Z TN04/2107Z"
    },
    {
      "icao": "LFBD",
      "alert": "OK",
      "vis_m": 7000,
      "fzfg": false,
      "metar_trigger": false,
      "taf_trigger": false,
      "metar": "METAR LFBD 201030Z AUTO 22004KT 7000 0900 R23/P2300 R05/1500D R29/P2300 BCFG BKN002 06/06 Q1016 BECMG SCT010",
      "taf": ""
    },
    {
      "icao": "LFLL",
      "alert": "OK",
      "vis_m": 400,
      "fzfg": false,
      "metar_trigger": false,
      "taf_trigger": false,
      "metar": "METAR LFLL 201030Z VRB02KT 0400 R35L/0550N R17R/0650D R35R/0600U R17L/0550N FG VV/// 01/01 Q1019 NOSIG",
      "taf": ""
    },
    {
      "icao": "LFLS",
      "alert": "OK",
      "vis_m": 9999,
      "fzfg": true,
      "metar_trigger": false,
      "taf_trigger": false,
      "metar": "METAR LFLS 201030Z AUTO VRB03KT 0200 R09/0250N R27/M0200N FZFG VV/// M00/M00 Q1017 BECMG CAVOK",
      "taf": ""
    },
    {
      "icao": "LFMN",
      "alert": "OK",
      "vis_m": 9999,
      "fzfg": false,
      "metar_trigger": false,
      "taf_trigger": false,
      "metar": "METAR LFMN 201030Z 09021KT 9999 SCT070 SCT230 15/07 Q1017 NOSIG",
      "taf": "TAF LFMN 200800Z 2009/2115 08015G25KT 9999 SCT100"
    },
    {
      "icao": "LFOB",
      "alert": "OK",
      "vis_m": 8000,
      "fzfg": false,
      "metar_trigger": false,
      "taf_trigger": false,
      "metar": "METAR LFOB 201030Z AUTO 13009KT 8000 OVC009 06/05 Q1015 TEMPO OVC016",
      "taf": ""
    },
    {
      "icao": "LFPO",
      "alert": "OK",
      "vis_m": 9999,
      "fzfg": false,
      "metar_trigger": false,
      "taf_trigger": false,
      "metar": "METAR LFPO 201030Z 14007KT 120V180 9999 BKN014 06/04 Q1016 NOSIG",
      "taf": "TAF LFPO 200500Z 2006/2112 16005KT 9999 BKN017"
    },
    {
      "icao": "LFSB",
      "alert": "OK",
      "vis_m": 9999,
      "fzfg": false,
      "metar_trigger": false,
      "taf_trigger": false,
      "metar": "METAR LFSB 201030Z AUTO 15005KT 110V190 CAVOK 03/M00 Q1019 NOSIG",
      "taf": "TAF LFSB 200500Z 2006/2106 VRB03KT 9000 OVC005"
    },
    {
      "icao": "LGAV",
      "alert": "OK",
      "vis_m": 9999,
      "fzfg": false,
      "metar_trigger": false,
      "taf_trigger": false,
      "metar": "METAR LGAV 201050Z 04019KT 9999 FEW025 BKN035 10/00 Q1028 NOSIG",
      "taf": "TAF LGAV 200500Z 2006/2106 03015KT 9999 FEW018 BKN025"
    },
    {
      "icao": "LGTS",
      "alert": "OK",
      "vis_m": 9999,
      "fzfg": false,
      "metar_trigger": false,
      "taf_trigger": false,
      "metar": "METAR LGTS 201050Z 33003KT 9999 FEW025 07/M04 Q1033 NOSIG",
      "taf": "TAF LGTS 200500Z 2006/2106 11010KT 9999 SCT030"
    },
    {
      "icao": "LHBP",
      "alert": "OK",
      "vis_m": 6000,
      "fzfg": false,
      "metar_trigger": false,
      "taf_trigger": false,
      "metar": "METAR LHBP 201030Z 14004KT 120V190 6000 FEW006 M06/M08 Q1034 NOSIG",
      "taf": "TAF LHBP 200515Z 2006/2106 05005KT 5000 BR SCT006"
    },
    {
      "icao": "LHDC",
      "alert": "OK",
      "vis_m": 3000,
      "fzfg": false,
      "metar_trigger": false,
      "taf_trigger": false,
      "metar": "METAR LHDC 201015Z AUTO 05004KT 020V080 3000 BR BKN004 M06/M07 Q1035 BECMG SCT006",
      "taf": "TAF LHDC 200815Z 2009/2018 04004KT 4000 BR OVC004"
    },
    {
      "icao": "LIBD",
      "alert": "OK",
      "vis_m": 9999,
      "fzfg": false,
      "metar_trigger": false,
      "taf_trigger": false,
      "metar": "METAR LIBD 201050Z 11006KT 060V140 9999 FEW045 11/04 Q1022",
      "taf": "TAF LIBD 200500Z 2006/2106 16008KT 9999 SCT040"
    },
    {
      "icao": "LIBG",
      "alert": "OK",
      "vis_m": 9999,
      "fzfg": false,
      "metar_trigger": false,
      "taf_trigger": false,
      "metar": "METAR LIBG 200950Z 13004KT 9999 FEW040 11/03 Q1022",
      "taf": "TAF LIBG 200800Z 2009/2018 09008KT 9999 SCT040"
    },
    {
      "icao": "LIBP",
      "alert": "OK",
      "vis_m": 9999,
      "fzfg": false,
      "metar_trigger": false,
      "taf_trigger": false,
      "metar": "METAR LIBP 201050Z AUTO 07006KT 9999 BKN057/// 11/06 Q1022",
      "taf": "TAF LIBP 200500Z 2006/2106 VRB05KT 9999 BKN050"
    },
    {
      "icao": "LIBR",
      "alert": "OK",
      "vis_m": 9999,
      "fzfg": false,
      "metar_trigger": false,
      "taf_trigger": false,
      "metar": "METAR LIBR 201050Z 08008KT 9999 FEW040 11/04 Q1021",
      "taf": "TAF LIBR 200500Z 2006/2106 VRB05KT 9999 SCT040"
    },
    {
      "icao": "LICA",
      "alert": "OK",
      "vis_m": 9999,
      "fzfg": false,
      "metar_trigger": false,
      "taf_trigger": false,
      "metar": "METAR LICA 201050Z AUTO 08020G31KT 9999 -RA OVC036/// 10/06 Q1016",
      "taf": "TAF LICA 200500Z 2006/2106 09028G50KT 9999 SCT020 BKN060"
    },
    {
      "icao": "LICC",
      "alert": "OK",
      "vis_m": 3000,
      "fzfg": false,
      "metar_trigger": false,
      "taf_trigger": false,
      "metar": "METAR LICC 201050Z 08028G40KT 3000 RA BKN015 BKN040 12/10 Q1013",
      "taf": "TAF LICC 200500Z 2006/2106 10023G40KT 4000 RA BKN015"
    },
    {
      "icao": "LICJ",
      "alert": "OK",
      "vis_m": 9999,
      "fzfg": false,
      "metar_trigger": false,
      "taf_trigger": false,
      "metar": "METAR LICJ 201050Z 08029KT 9999 -RA SCT040 BKN070 14/07 Q1008",
      "taf": "TAF LICJ 200500Z 2006/2106 10025G45KT 9999 SCT040 BKN060"
    },
    {
      "icao": "LIMC",
      "alert": "OK",
      "vis_m": 9999,
      "fzfg": false,
      "metar_trigger": false,
      "taf_trigger": false,
      "metar": "METAR LIMC 201050Z 25004KT 220V330 9999 SCT055 BKN080 05/M01 Q1026 NOSIG",
      "taf": "TAF LIMC 200500Z 2006/2112 VRB04KT 9999 SCT050 SCT090"
    },
    {
      "icao": "LIME",
      "alert": "OK",
      "vis_m": 9999,
      "fzfg": false,
      "metar_trigger": false,
      "taf_trigger": false,
      "metar": "METAR LIME 201050Z 18003KT 140V220 CAVOK 05/M03 Q1026 NOSIG",
      "taf": "TAF LIME 200500Z 2006/2106 VRB04KT 9999 BKN040"
    },
    {
      "icao": "LIMF",
      "alert": "OK",
      "vis_m": 6000,
      "fzfg": false,
      "metar_trigger": false,
      "taf_trigger": false,
      "metar": "METAR LIMF 201050Z VRB02KT 6000 OVC070 04/M02 Q1026",
      "taf": "TAF LIMF 200500Z 2006/2106 VRB04KT 9999 BKN060"
    },
    {
      "icao": "LIMJ",
      "alert": "OK",
      "vis_m": 9999,
      "fzfg": false,
      "metar_trigger": false,
      "taf_trigger": false,
      "metar": "METAR LIMJ 201050Z 03019KT 9999 SCT075 09/00 Q1022",
      "taf": "TAF LIMJ 200500Z 2006/2106 02015KT CAVOK"
    },
    {
      "icao": "LIPE",
      "alert": "OK",
      "vis_m": 8000,
      "fzfg": false,
      "metar_trigger": false,
      "taf_trigger": false,
      "metar": "METAR LIPE 201050Z 31003KT 280V350 8000 BKN028 03/M02 Q1026",
      "taf": "TAF LIPE 200500Z 2006/2106 28006KT 8000 BKN020 BKN030"
    },
    {
      "icao": "LIPH",
      "alert": "OK",
      "vis_m": 9999,
      "fzfg": false,
      "metar_trigger": false,
      "taf_trigger": false,
      "metar": "METAR LIPH 201050Z 05006KT 010V080 CAVOK 06/M06 Q1026",
      "taf": "TAF LIPH 200500Z 2006/2106 06008KT CAVOK"
    },
    {
      "icao": "LIPQ",
      "alert": "OK",
      "vis_m": 9999,
      "fzfg": false,
      "metar_trigger": false,
      "taf_trigger": false,
      "metar": "METAR LIPQ 201050Z AUTO 07006KT 040V100 9999 NCD 07/M07 Q1026",
      "taf": "TAF LIPQ 200500Z 2006/2106 VRB05KT CAVOK"
    },
    {
      "icao": "LIPR",
      "alert": "OK",
      "vis_m": 4000,
      "fzfg": false,
      "metar_trigger": false,
      "taf_trigger": false,
      "metar": "METAR LIPR 201050Z 31011KT 4000 -RA BR BKN020 SCT040 04/03 Q1025",
      "taf": "TAF LIPR 200500Z 2006/2106 10012KT 9999 BKN030"
    },
    {
      "icao": "LIPX",
      "alert": "OK",
      "vis_m": 9999,
      "fzfg": false,
      "metar_trigger": false,
      "taf_trigger": false,
      "metar": "METAR LIPX 201050Z VRB02KT 9999 BKN075 04/M05 Q1026",
      "taf": "TAF LIPX 200500Z 2006/2106 VRB05KT 9999 SCT050"
    },
    {
      "icao": "LIPY",
      "alert": "OK",
      "vis_m": 9999,
      "fzfg": false,
      "metar_trigger": false,
      "taf_trigger": false,
      "metar": "METAR LIPY 201050Z AUTO VRB01KT 9999 -RA OVC025/// 09/08 Q1023",
      "taf": "TAF LIPY 200500Z 2006/2106 09011KT 9999 BKN040"
    },
    {
      "icao": "LIPZ",
      "alert": "OK",
      "vis_m": 9999,
      "fzfg": false,
      "metar_trigger": false,
      "taf_trigger": false,
      "metar": "METAR LIPZ 201050Z 05009KT CAVOK 05/M06 Q1026 NOSIG",
      "taf": "TAF LIPZ 200500Z 2006/2112 02010KT CAVOK"
    },
    {
      "icao": "LIRF",
      "alert": "OK",
      "vis_m": 9999,
      "fzfg": false,
      "metar_trigger": false,
      "taf_trigger": false,
      "metar": "METAR LIRF 201050Z 06010KT CAVOK 14/04 Q1017 NOSIG",
      "taf": "TAF LIRF 200500Z 2006/2112 06013KT 9999 SCT050"
    },
    {
      "icao": "LIRN",
      "alert": "OK",
      "vis_m": 9999,
      "fzfg": false,
      "metar_trigger": false,
      "taf_trigger": false,
      "metar": "METAR LIRN 201050Z 05014KT CAVOK 11/01 Q1017 NOSIG",
      "taf": "TAF LIRN 200500Z 2006/2106 05012KT 9999 SCT060"
    },
    {
      "icao": "LIRP",
      "alert": "OK",
      "vis_m": 9999,
      "fzfg": false,
      "metar_trigger": false,
      "taf_trigger": false,
      "metar": "METAR LIRP 201045Z 08014KT 9999 SCT070 11/03 Q1019 NOSIG",
      "taf": "TAF LIRP 200500Z 2006/2106 08012KT 9999 SCT030 BKN060"
    },
    {
      "icao": "LIRZ",
      "alert": "OK",
      "vis_m": 9999,
      "fzfg": false,
      "metar_trigger": false,
      "taf_trigger": false,
      "metar": "METAR LIRZ 201050Z AUTO 02017KT 9999 NCD 12/04 Q1018",
      "taf": "TAF LIRZ 200500Z 2006/2106 04015KT 9999 SCT070"
    },
    {
      "icao": "LJLJ",
      "alert": "OK",
      "vis_m": 9999,
      "fzfg": false,
      "metar_trigger": false,
      "taf_trigger": false,
      "metar": "METAR LJLJ 201030Z 06003KT 340V100 9999 OVC018 M04/M09 Q1029 NOSIG",
      "taf": "TAF LJLJ 200500Z 2006/2106 12003KT 9999 FEW003 OVC020"
    },
    {
      "icao": "LKMT",
      "alert": "OK",
      "vis_m": 9999,
      "fzfg": false,
      "metar_trigger": false,
      "taf_trigger": false,
      "metar": "METAR LKMT 201030Z 23012KT CAVOK 01/M06 Q1028 NOSIG",
      "taf": "TAF LKMT 200500Z 2006/2106 22014KT CAVOK"
    },
    {
      "icao": "LKPR",
      "alert": "OK",
      "vis_m": 9999,
      "fzfg": false,
      "metar_trigger": false,
      "taf_trigger": false,
      "metar": "METAR LKPR 201030Z 12005KT 9999 FEW016 M04/M07 Q1024 NOSIG",
      "taf": "TAF LKPR 200800Z 2009/2115 13006KT CAVOK"
    },
    {
      "icao": "LLBG",
      "alert": "OK",
      "vis_m": 9999,
      "fzfg": false,
      "metar_trigger": false,
      "taf_trigger": false,
      "metar": "METAR LLBG 201050Z 01007KT 330V040 CAVOK 14/02 Q1022 NOSIG RMK FEW070",
      "taf": "TAF LLBG 200506Z 2006/2106 VRB03KT CAVOK"
    },
    {
      "icao": "LMML",
      "alert": "OK",
      "vis_m": 5000,
      "fzfg": false,
      "metar_trigger": false,
      "taf_trigger": false,
      "metar": "METAR LMML 201045Z 09028G39KT 5000 -RA DU BKN012 BKN016 13/12 Q1006 NOSIG",
      "taf": "TAF LMML 200500Z 2006/2106 09028G38KT 9999 BKN018"
    },
    {
      "icao": "LOWW",
      "alert": "OK",
      "vis_m": 6000,
      "fzfg": false,
      "metar_trigger": false,
      "taf_trigger": false,
      "metar": "METAR LOWW 201050Z 14019KT 6000 FEW007 BKN009 M05/M07 Q1029 TEMPO SCT009",
      "taf": "TAF LOWW 200815Z 2009/2115 13018KT 9999 FEW005 TXM04/2114Z TNM07/2106Z"
    },
    {
      "icao": "LPFR",
      "alert": "OK",
      "vis_m": 9999,
      "fzfg": false,
      "metar_trigger": false,
      "taf_trigger": false,
      "metar": "METAR LPFR 201030Z 26004KT 9999 FEW040 11/08 Q1021",
      "taf": "TAF LPFR 200500Z 2006/2106 30007KT CAVOK"
    },
    {
      "icao": "LPMA",
      "alert": "OK",
      "vis_m": 9999,
      "fzfg": false,
      "metar_trigger": false,
      "taf_trigger": false,
      "metar": "METAR LPMA 201030Z 34007KT 290V040 9999 FEW015 16/07 Q1026",
      "taf": "TAF LPMA 200500Z 2006/2106 34010KT 9999 SCT015"
    },
    {
      "icao": "LPPR",
      "alert": "OK",
      "vis_m": 9999,
      "fzfg": false,
      "metar_trigger": false,
      "taf_trigger": false,
      "metar": "METAR LPPR 201030Z 17011KT 9999 FEW016 BKN048 10/08 Q1018",
      "taf": "TAF LPPR 200500Z 2006/2106 15010KT 9999 FEW012"
    },
    {
      "icao": "LPPS",
      "alert": "OK",
      "vis_m": 9999,
      "fzfg": false,
      "metar_trigger": false,
      "taf_trigger": false,
      "metar": "METAR LPPS 201030Z 31006KT 9999 FEW015 SCT030 16/08 Q1027",
      "taf": "TAF LPPS 200500Z 2006/2112 34010KT 9999 SCT015 SCT030"
    },
    {
      "icao": "LPPT",
      "alert": "OK",
      "vis_m": 9999,
      "fzfg": false,
      "metar_trigger": false,
      "taf_trigger": false,
      "metar": "METAR LPPT 201030Z 23004KT 200V260 9999 FEW026 11/09 Q1020",
      "taf": "TAF LPPT 200500Z 2006/2112 29007KT 9999 SCT025"
    },
    {
      "icao": "LQBK",
      "alert": "OK",
      "vis_m": 9999,
      "fzfg": false,
      "metar_trigger": false,
      "taf_trigger": false,
      "metar": "METAR LQBK 201030Z VRB03KT 9999 OVC023 M03/M05 Q1032 NOSIG",
      "taf": "TAF LQBK 200500Z 2006/2106 VRB02KT 9999 BKN020 TXM01/2014Z TNM04/2006Z"
    },
    {
      "icao": "LQSA",
      "alert": "OK",
      "vis_m": 7000,
      "fzfg": false,
      "metar_trigger": false,
      "taf_trigger": false,
      "metar": "METAR LQSA 201030Z VRB02KT 7000 OVC012 M04/M07 Q1028 BECMG BKN015",
      "taf": "TAF LQSA 200500Z 2006/2106 VRB02KT 7000 SCT035 TXM00/2013Z TNM09/2106Z"
    },
    {
      "icao": "LQTZ",
      "alert": "OK",
      "vis_m": 6000,
      "fzfg": false,
      "metar_trigger": false,
      "taf_trigger": false,
      "metar": "METAR LQTZ 201030Z 25003KT 6000 OVC012 M05/M06 Q1031",
      "taf": ""
    },
    {
      "icao": "LRBC",
      "alert": "OK",
      "vis_m": 7000,
      "fzfg": false,
      "metar_trigger": false,
      "taf_trigger": false,
      "metar": "METAR LRBC 201030Z 14004KT 7000 NSC M03/M08 Q1033",
      "taf": "TAF LRBC 200800Z 2009/2018 VRB04KT 5000 BR NSC"
    },
    {
      "icao": "LRBS",
      "alert": "OK",
      "vis_m": 8000,
      "fzfg": false,
      "metar_trigger": false,
      "taf_trigger": false,
      "metar": "METAR LRBS 201030Z 26008KT 8000 NSC M00/M06 Q1035 NOSIG",
      "taf": "TAF LRBS 200500Z 2006/2106 25006KT 3000 BR NSC"
    },
    {
      "icao": "LRBV",
      "alert": "OK",
      "vis_m": 8000,
      "fzfg": false,
      "metar_trigger": false,
      "taf_trigger": false,
      "metar": "METAR LRBV 201030Z 28002KT 8000 NSC M05/M08 Q1032",
      "taf": "TAF LRBV 200800Z 2009/2018 VRB04KT 5000 BR NSC"
    },
    {
      "icao": "LRCL",
      "alert": "OK",
      "vis_m": 7000,
      "fzfg": false,
      "metar_trigger": false,
      "taf_trigger": false,
      "metar": "METAR LRCL 201030Z 08005KT 7000 NSC M10/M11 Q1034",
      "taf": "TAF LRCL 200800Z 2009/2018 VRB04KT 7000 NSC"
    },
    {
      "icao": "LRCV",
      "alert": "OK",
      "vis_m": 9999,
      "fzfg": false,
      "metar_trigger": false,
      "taf_trigger": false,
      "metar": "METAR LRCV 201030Z 31004KT CAVOK M01/M06 Q1035",
      "taf": "TAF LRCV 200800Z 2009/2018 VRB04KT 5000 BR NSC"
    },
    {
      "icao": "LRIA",
      "alert": "OK",
      "vis_m": 7000,
      "fzfg": false,
      "metar_trigger": false,
      "taf_trigger": false,
      "metar": "METAR LRIA 201030Z 07004KT 7000 NSC M07/M11 Q1034",
      "taf": "TAF LRIA 200800Z 2009/2018 VRB04KT 5000 BR NSC"
    },
    {
      "icao": "LROP",
      "alert": "OK",
      "vis_m": 8000,
      "fzfg": false,
      "metar_trigger": false,
      "taf_trigger": false,
      "metar": "METAR LROP 201030Z 24008KT 8000 NSC M00/M07 Q1035 NOSIG",
      "taf": "TAF LROP 200500Z 2006/2106 25006KT 3000 BR NSC"
    },
    {
      "icao": "LRSB",
      "alert": "OK",
      "vis_m": 8000,
      "fzfg": false,
      "metar_trigger": false,
      "taf_trigger": false,
      "metar": "METAR LRSB 201030Z VRB01KT 8000 NSC M04/M08 Q1032",
      "taf": "TAF LRSB 200500Z 2006/2106 VRB04KT 5000 BR NSC"
    },
    {
      "icao": "LRSM",
      "alert": "OK",
      "vis_m": 4000,
      "fzfg": false,
      "metar_trigger": false,
      "taf_trigger": false,
      "metar": "METAR LRSM 201030Z VRB02KT 4000 BR NSC M09/M11 Q1035",
      "taf": "TAF LRSM 200800Z 2009/2018 VRB04KT 3000 BR NSC"
    },
    {
      "icao": "LRSV",
      "alert": "OK",
      "vis_m": 5000,
      "fzfg": false,
      "metar_trigger": false,
      "taf_trigger": false,
      "metar": "METAR LRSV 201030Z 24003KT 5000 BR NSC M04/M08 Q1030",
      "taf": "TAF LRSV 200800Z 2009/2018 VRB04KT CAVOK"
    },
    {
      "icao": "LRTM",
      "alert": "OK",
      "vis_m": 2600,
      "fzfg": false,
      "metar_trigger": false,
      "taf_trigger": false,
      "metar": "METAR LRTM 201030Z VRB01KT 2600 BR FEW010 M09/M12 Q1034",
      "taf": "TAF LRTM 200800Z 2009/2018 VRB04KT 3000 BR NSC"
    },
    {
      "icao": "LRTR",
      "alert": "OK",
      "vis_m": 9999,
      "fzfg": false,
      "metar_trigger": false,
      "taf_trigger": false,
      "metar": "METAR LRTR 201030Z 11006KT CAVOK M01/M06 Q1033",
      "taf": "TAF LRTR 200500Z 2006/2106 10006KT CAVOK"
    },
    {
      "icao": "LTAC",
      "alert": "OK",
      "vis_m": 9999,
      "fzfg": false,
      "metar_trigger": false,
      "taf_trigger": false,
      "metar": "METAR LTAC 201050Z VRB03KT 9999 FEW040 02/M10 Q1026 NOSIG RMK RWY21C VRB03KT RWY03L VRB03KT RWY21R VRB02KT RWY03R 05004KT 350V100 RWY21L VRB01KT",
      "taf": "TAF LTAC 200440Z 2006/2106 VRB02KT 9999 SCT035"
    },
    {
      "icao": "LTFM",
      "alert": "OK",
      "vis_m": 9999,
      "fzfg": false,
      "metar_trigger": false,
      "taf_trigger": false,
      "metar": "METAR LTFM 201050Z 02017KT 9999 SCT016 BKN028 04/01 Q1034 NOSIG RMK RWY17L 01017KT RWY34L 01014KT RWY16R 01015KT RWY36 02018KT RWY18 02016KT",
      "taf": "TAF LTFM 200440Z 2006/2112 02017G27KT 7000 -RA BKN014 BKN022"
    },
    {
      "icao": "LUKK",
      "alert": "OK",
      "vis_m": 8000,
      "fzfg": false,
      "metar_trigger": false,
      "taf_trigger": false,
      "metar": "METAR LUKK 201030Z VRB02KT 8000 NSC M08/M12 Q1034 NOSIG",
      "taf": "TAF LUKK 200513Z 2006/2106 VRB05KT CAVOK"
    },
    {
      "icao": "LWOH",
      "alert": "OK",
      "vis_m": 9999,
      "fzfg": false,
      "metar_trigger": false,
      "taf_trigger": false,
      "metar": "METAR LWOH 201050Z 05010KT 360V080 9999 SCT033 03/M05 Q1027",
      "taf": "TAF LWOH 200815Z 2009/2109 03012KT 9999 SCT035"
    },
    {
      "icao": "LWSK",
      "alert": "OK",
      "vis_m": 9999,
      "fzfg": false,
      "metar_trigger": false,
      "taf_trigger": false,
      "metar": "METAR LWSK 201050Z VRB02KT CAVOK 03/M05 Q1033 NOSIG",
      "taf": "TAF LWSK 200815Z 2009/2109 VRB02KT CAVOK"
    },
    {
      "icao": "LYBE",
      "alert": "OK",
      "vis_m": 9999,
      "fzfg": false,
      "metar_trigger": false,
      "taf_trigger": false,
      "metar": "METAR LYBE 201030Z 13012KT CAVOK 02/M07 Q1032 NOSIG",
      "taf": "TAF LYBE 200500Z 2006/2106 10009KT CAVOK TX03/2013Z TNM04/2006Z"
    },
    {
      "icao": "LYNI",
      "alert": "OK",
      "vis_m": 9999,
      "fzfg": false,
      "metar_trigger": false,
      "taf_trigger": false,
      "metar": "METAR LYNI 201030Z VRB02KT CAVOK M00/M05 Q1033 NOSIG",
      "taf": "TAF LYNI 200500Z 2006/2106 08006KT CAVOK TX04/2013Z TNM08/2006Z"
    },
    {
      "icao": "LYPG",
      "alert": "OK",
      "vis_m": 9999,
      "fzfg": false,
      "metar_trigger": false,
      "taf_trigger": false,
      "metar": "METAR LYPG 201030Z VRB02KT CAVOK 07/M05 Q1025 NOSIG",
      "taf": "TAF LYPG 200500Z 2006/2106 16005KT CAVOK TX10/2013Z TNM03/2006Z"
    },
    {
      "icao": "LZIB",
      "alert": "OK",
      "vis_m": 6000,
      "fzfg": false,
      "metar_trigger": false,
      "taf_trigger": false,
      "metar": "METAR LZIB 201030Z 09009KT 6000 SCT007 BKN008 M05/M06 Q1032 BECMG BKN010",
      "taf": ""
    },
    {
      "icao": "LZKZ",
      "alert": "OK",
      "vis_m": 1700,
      "fzfg": false,
      "metar_trigger": false,
      "taf_trigger": false,
      "metar": "METAR LZKZ 201030Z 00000KT 1700 BR FEW002 M09/M10 Q1034 BECMG 3200 BR",
      "taf": ""
    },
    {
      "icao": "LZTT",
      "alert": "OK",
      "vis_m": 9999,
      "fzfg": false,
      "metar_trigger": false,
      "taf_trigger": false,
      "metar": "METAR LZTT 201030Z VRB03KT CAVOK M04/M09 Q1028 NOSIG",
      "taf": "TAF LZTT 200515Z 2006/2106 26005KT CAVOK"
    },
    {
      "icao": "OEJN",
      "alert": "OK",
      "vis_m": 9999,
      "fzfg": false,
      "metar_trigger": false,
      "taf_trigger": false,
      "metar": "METAR OEJN 201000Z 34007KT CAVOK 29/02 Q1013 NOSIG",
      "taf": "TAF OEJN 200500Z 2006/2112 33015KT CAVOK"
    },
    {
      "icao": "OEMA",
      "alert": "OK",
      "vis_m": 9999,
      "fzfg": false,
      "metar_trigger": false,
      "taf_trigger": false,
      "metar": "METAR OEMA 201000Z VRB03KT CAVOK 22/M05 Q1017 NOSIG",
      "taf": "TAF OEMA 200500Z 2006/2112 VRB03KT CAVOK"
    },
    {
      "icao": "OJAI",
      "alert": "OK",
      "vis_m": 5000,
      "fzfg": false,
      "metar_trigger": false,
      "taf_trigger": false,
      "metar": "METAR OJAI 201000Z 00000KT 5000 HZ SCT030 10/M01 Q1021 NOSIG",
      "taf": "TAF OJAI 200500Z 2006/2112 32010KT 5000 HZ NSC"
    },
    {
      "icao": "OMAA",
      "alert": "OK",
      "vis_m": 9999,
      "fzfg": false,
      "metar_trigger": false,
      "taf_trigger": false,
      "metar": "METAR OMAA 201000Z 26009KT 220V310 CAVOK 26/07 Q1013 NOSIG",
      "taf": "TAF OMAA 200500Z 2006/2112 VRB02KT 8000 NSC"
    },
    {
      "icao": "OMDB",
      "alert": "OK",
      "vis_m": 9999,
      "fzfg": false,
      "metar_trigger": false,
      "taf_trigger": false,
      "metar": "METAR OMDB 201030Z 27009KT 240V300 CAVOK 25/09 Q1013 NOSIG",
      "taf": "TAF OMDB 200500Z 2006/2112 19005KT 8000 NSC"
    },
    {
      "icao": "UAAA",
      "alert": "OK",
      "vis_m": 5000,
      "fzfg": false,
      "metar_trigger": false,
      "taf_trigger": false,
      "metar": "METAR UAAA 201030Z 03004MPS 5000 BR FEW100 SCT200 M03/M08 Q1024 NOSIG",
      "taf": "TAF UAAA 200501Z 2006/2106 04003MPS 3100 BR FU SCT050 BKN100 TXM05/2008Z TNM15/2103Z"
    },
    {
      "icao": "UBBB",
      "alert": "OK",
      "vis_m": 9999,
      "fzfg": false,
      "metar_trigger": false,
      "taf_trigger": false,
      "metar": "METAR UBBB 201030Z 36022G32KT 9999 -RA FEW015 OVC028 03/01 Q1020 NOSIG",
      "taf": "TAF UBBB 201055Z 2012/2112 35020G30KT 8000 SCT010 OVC025 TX03/2012Z TN01/2101Z"
    },
    {
      "icao": "UDSG",
      "alert": "OK",
      "vis_m": 9999,
      "fzfg": false,
      "metar_trigger": false,
      "taf_trigger": false,
      "metar": "METAR UDSG 201030Z 13001KT 9999 SCT049 M02/M10 Q1014 NOSIG",
      "taf": "TAF UDSG 200458Z 2006/2106 36006KT 9999 BKN040"
    },
    {
      "icao": "UDYZ",
      "alert": "OK",
      "vis_m": 9999,
      "fzfg": false,
      "metar_trigger": false,
      "taf_trigger": false,
      "metar": "METAR UDYZ 201030Z 14003KT 9999 BKN046 00/M05 Q1015 NOSIG",
      "taf": "TAF UDYZ 200500Z 2006/2106 22006KT 6000 BKN030"
    },
    {
      "icao": "UGKO",
      "alert": "OK",
      "vis_m": 9999,
      "fzfg": false,
      "metar_trigger": false,
      "taf_trigger": false,
      "metar": "METAR UGKO 201030Z 21003KT 170V250 9999 SCT023 BKN042 06/01 Q1021 NOSIG",
      "taf": "TAF UGKO 200500Z 2006/2106 VRB02KT 9999 BKN050 TX05/2012Z TNM01/2006Z"
    }
  ]
}