{
  "ts_utc": "2026-06-07T06:41:03Z",
  "threshold_m": 150,
  "source": "stations_override.txt (ICAO list) + aviationweather.gov (METAR/TAF raw)",
  "station_count": 159,
  "stations": [
    {
      "icao": "BIKF",
      "alert": "OK",
      "vis_m": 9999,
      "fzfg": false,
      "metar_trigger": false,
      "taf_trigger": false,
      "metar": "METAR BIKF 070630Z 09008KT 9999 FEW028CB SCT052 07/04 Q0997",
      "taf": "TAF BIKF 070443Z 0706/0806 10010KT 9999 SCT020 BKN037 TX12/0717Z TN06/0706Z"
    },
    {
      "icao": "BKPR",
      "alert": "OK",
      "vis_m": 9999,
      "fzfg": false,
      "metar_trigger": false,
      "taf_trigger": false,
      "metar": "METAR BKPR 070630Z 35007KT CAVOK 21/16 Q1021 NOSIG",
      "taf": "TAF BKPR 070530Z 0706/0806 36008KT 9999 FEW050"
    },
    {
      "icao": "EBCI",
      "alert": "OK",
      "vis_m": 9999,
      "fzfg": false,
      "metar_trigger": false,
      "taf_trigger": false,
      "metar": "METAR EBCI 070620Z 24010KT 9999 BKN033 12/08 Q1022 NOSIG",
      "taf": "TAF EBCI 070500Z 0706/0812 22012KT 9999 FEW025 SCT040"
    },
    {
      "icao": "EDDB",
      "alert": "OK",
      "vis_m": 9999,
      "fzfg": false,
      "metar_trigger": false,
      "taf_trigger": false,
      "metar": "METAR EDDB 070620Z AUTO 21007KT 180V260 9999 FEW016 18/14 Q1018 NOSIG",
      "taf": "TAF EDDB 070500Z 0706/0806 26008KT CAVOK"
    },
    {
      "icao": "EDDH",
      "alert": "OK",
      "vis_m": 9999,
      "fzfg": false,
      "metar_trigger": false,
      "taf_trigger": false,
      "metar": "METAR EDDH 070620Z AUTO 21012KT 190V250 9999 BKN017 BKN022 16/12 Q1016 NOSIG",
      "taf": "TAF EDDH 070500Z 0706/0812 24012KT 9999 SCT030"
    },
    {
      "icao": "EDDK",
      "alert": "OK",
      "vis_m": 9999,
      "fzfg": false,
      "metar_trigger": false,
      "taf_trigger": false,
      "metar": "METAR EDDK 070620Z AUTO 24009KT 210V270 9999 OVC034 14/08 Q1021 NOSIG",
      "taf": "TAF EDDK 070500Z 0706/0812 25010KT 9999 SCT045"
    },
    {
      "icao": "EDDN",
      "alert": "OK",
      "vis_m": 9999,
      "fzfg": false,
      "metar_trigger": false,
      "taf_trigger": false,
      "metar": "METAR EDDN 070620Z AUTO 23006KT CAVOK 17/11 Q1023 NOSIG",
      "taf": "TAF EDDN 070500Z 0706/0806 22004KT CAVOK"
    },
    {
      "icao": "EDDS",
      "alert": "OK",
      "vis_m": 9999,
      "fzfg": false,
      "metar_trigger": false,
      "taf_trigger": false,
      "metar": "METAR EDDS 070620Z AUTO 30004KT 230V350 CAVOK 18/08 Q1024 NOSIG",
      "taf": "TAF EDDS 070500Z 0706/0806 VRB03KT CAVOK"
    },
    {
      "icao": "EDFH",
      "alert": "OK",
      "vis_m": 9999,
      "fzfg": false,
      "metar_trigger": false,
      "taf_trigger": false,
      "metar": "METAR EDFH 070620Z 26012KT 230V290 9999 FEW014 BKN037 12/08 Q1023",
      "taf": "TAF EDFH 070500Z 0706/0806 22005KT 9999 BKN025"
    },
    {
      "icao": "EDJA",
      "alert": "OK",
      "vis_m": 9999,
      "fzfg": false,
      "metar_trigger": false,
      "taf_trigger": false,
      "metar": "METAR EDJA 070620Z 22005KT 9999 OVC051 15/12 Q1023",
      "taf": "TAF EDJA 070500Z 0706/0715 24008KT 9999 BKN050"
    },
    {
      "icao": "EDLW",
      "alert": "OK",
      "vis_m": 9999,
      "fzfg": false,
      "metar_trigger": false,
      "taf_trigger": false,
      "metar": "METAR EDLW 070620Z 22013KT 9999 FEW024 BKN031 OVC039 14/08 Q1019",
      "taf": "TAF EDLW 070500Z 0706/0806 22013KT 9999 SCT040"
    },
    {
      "icao": "EDNY",
      "alert": "OK",
      "vis_m": 9999,
      "fzfg": false,
      "metar_trigger": false,
      "taf_trigger": false,
      "metar": "METAR EDNY 070620Z AUTO 24006KT 9999 // BKN053/// BKN068/// 17/12 Q1024",
      "taf": "TAF EDNY 070500Z 0706/0715 24006KT 9999 BKN050"
    },
    {
      "icao": "EDSB",
      "alert": "OK",
      "vis_m": 9999,
      "fzfg": false,
      "metar_trigger": false,
      "taf_trigger": false,
      "metar": "METAR EDSB 070620Z 22005KT 180V250 CAVOK 17/10 Q1024",
      "taf": "TAF EDSB 070500Z 0706/0806 23006KT CAVOK"
    },
    {
      "icao": "EETN",
      "alert": "OK",
      "vis_m": 9999,
      "fzfg": false,
      "metar_trigger": false,
      "taf_trigger": false,
      "metar": "METAR EETN 070620Z 18008KT CAVOK 17/11 Q1018 NOSIG",
      "taf": "TAF EETN 070530Z 0706/0806 18008KT CAVOK"
    },
    {
      "icao": "EFTU",
      "alert": "OK",
      "vis_m": 9999,
      "fzfg": false,
      "metar_trigger": false,
      "taf_trigger": false,
      "metar": "METAR EFTU 070620Z AUTO 18010KT 150V220 9999 SCT009 14/12 Q1015",
      "taf": "TAF EFTU 070530Z 0706/0806 19009KT 9999 FEW010"
    },
    {
      "icao": "EGBB",
      "alert": "OK",
      "vis_m": 9999,
      "fzfg": false,
      "metar_trigger": false,
      "taf_trigger": false,
      "metar": "METAR EGBB 070620Z 18006KT 150V210 9999 FEW014 BKN027 13/10 Q1017",
      "taf": "TAF EGBB 070459Z 0706/0806 20008KT 9999 FEW015 SCT025"
    },
    {
      "icao": "EGGP",
      "alert": "OK",
      "vis_m": 9999,
      "fzfg": false,
      "metar_trigger": false,
      "taf_trigger": false,
      "metar": "METAR EGGP 070620Z 20006KT 140V240 9999 SCT026 BKN032 14/10 Q1014",
      "taf": "TAF EGGP 070455Z 0706/0806 19012KT 9999 SCT020"
    },
    {
      "icao": "EGGW",
      "alert": "OK",
      "vis_m": 9999,
      "fzfg": false,
      "metar_trigger": false,
      "taf_trigger": false,
      "metar": "METAR EGGW 070620Z AUTO 21008KT 9999 BKN014 OVC031 12/10 Q1018",
      "taf": ""
    },
    {
      "icao": "EGKK",
      "alert": "OK",
      "vis_m": 9999,
      "fzfg": false,
      "metar_trigger": false,
      "taf_trigger": false,
      "metar": "METAR EGKK 070620Z 24006KT 200V260 9999 FEW017 SCT030 13/10 Q1020",
      "taf": "TAF EGKK 070452Z 0706/0812 23009KT 9999 SCT020"
    },
    {
      "icao": "EGNM",
      "alert": "OK",
      "vis_m": 9999,
      "fzfg": false,
      "metar_trigger": false,
      "taf_trigger": false,
      "metar": "METAR EGNM 070620Z 23010KT 9999 VCSH FEW020 11/09 Q1014",
      "taf": "TAF EGNM 070455Z 0706/0806 23013KT 9999 SCT030"
    },
    {
      "icao": "EGPD",
      "alert": "OK",
      "vis_m": 9999,
      "fzfg": false,
      "metar_trigger": false,
      "taf_trigger": false,
      "metar": "METAR EGPD 070620Z COR AUTO 21010KT 9999 NCD 14/10 Q1007 NOSIG",
      "taf": "TAF EGPD 070456Z 0706/0806 14005KT 9999 FEW030"
    },
    {
      "icao": "EGPF",
      "alert": "OK",
      "vis_m": 9999,
      "fzfg": false,
      "metar_trigger": false,
      "taf_trigger": false,
      "metar": "METAR EGPF 070620Z AUTO 19011KT 9999 -RA SCT020/// BKN026/// BKN039/// //////TCU 12/10 Q1009",
      "taf": "TAF EGPF 070453Z 0706/0806 21010KT 9999 BKN020"
    },
    {
      "icao": "EHBK",
      "alert": "OK",
      "vis_m": 9999,
      "fzfg": false,
      "metar_trigger": false,
      "taf_trigger": false,
      "metar": "METAR EHBK 070625Z AUTO 22013KT 190V250 9999 OVC036 12/09 Q1021 NOSIG",
      "taf": "TAF EHBK 070500Z 0706/0812 22012KT 9999 BKN030"
    },
    {
      "icao": "EHEH",
      "alert": "OK",
      "vis_m": 9999,
      "fzfg": false,
      "metar_trigger": false,
      "taf_trigger": false,
      "metar": "METAR EHEH 070625Z AUTO 23010KT 200V290 9999 OVC019 14/09 Q1019 WHT TEMPO BKN015",
      "taf": "TAF EHEH 070500Z 0706/0812 23012KT 9999 OVC020"
    },
    {
      "icao": "EKBI",
      "alert": "OK",
      "vis_m": 9999,
      "fzfg": false,
      "metar_trigger": false,
      "taf_trigger": false,
      "metar": "METAR EKBI 070620Z AUTO 19006KT 160V230 9999 BKN011/// BKN085/// 16/14 Q1013",
      "taf": ""
    },
    {
      "icao": "EKCH",
      "alert": "OK",
      "vis_m": 9999,
      "fzfg": false,
      "metar_trigger": false,
      "taf_trigger": false,
      "metar": "METAR EKCH 070620Z 14005KT 9999 -SHRA FEW020CB BKN060 15/14 Q1015 NOSIG",
      "taf": "TAF EKCH 070527Z 0706/0806 13010KT 9999 FEW025"
    },
    {
      "icao": "ENAL",
      "alert": "OK",
      "vis_m": 9999,
      "fzfg": false,
      "metar_trigger": false,
      "taf_trigger": false,
      "metar": "METAR ENAL 070620Z 12003KT 9999 FEW027 13/11 Q1012",
      "taf": "TAF ENAL 070500Z 0706/0715 27008KT 9999 FEW060"
    },
    {
      "icao": "ENBR",
      "alert": "OK",
      "vis_m": 9999,
      "fzfg": false,
      "metar_trigger": false,
      "taf_trigger": false,
      "metar": "METAR ENBR 070620Z 24002KT CAVOK 11/08 Q1012 NOSIG RMK WIND 1200FT 13009KT",
      "taf": "TAF ENBR 070500Z 0706/0806 12005KT 9999 SCT050"
    },
    {
      "icao": "ENGM",
      "alert": "OK",
      "vis_m": 9999,
      "fzfg": false,
      "metar_trigger": false,
      "taf_trigger": false,
      "metar": "METAR ENGM 070620Z 19005KT 160V220 9999 FEW008 13/09 Q1013 NOSIG",
      "taf": "TAF ENGM 070500Z 0706/0806 20008KT 9999 BKN008"
    },
    {
      "icao": "ENHD",
      "alert": "OK",
      "vis_m": 9999,
      "fzfg": false,
      "metar_trigger": false,
      "taf_trigger": false,
      "metar": "METAR ENHD 070620Z AUTO 10006KT 9999 NCD 14/09 Q1012",
      "taf": "TAF ENHD 070500Z 0706/0715 12008KT 9999 SCT050"
    },
    {
      "icao": "ENTC",
      "alert": "OK",
      "vis_m": 9999,
      "fzfg": false,
      "metar_trigger": false,
      "taf_trigger": false,
      "metar": "METAR ENTC 070620Z 02010KT 9999 -RA NSC 12/09 Q1017 RMK WIND 2600FT 08010KT",
      "taf": "TAF ENTC 070500Z 0706/0806 02009KT 9999 SCT060"
    },
    {
      "icao": "ENTO",
      "alert": "OK",
      "vis_m": 9999,
      "fzfg": false,
      "metar_trigger": false,
      "taf_trigger": false,
      "metar": "METAR ENTO 070620Z 20007KT CAVOK 14/09 Q1014 NOSIG",
      "taf": "TAF ENTO 070500Z 0706/0806 19008KT CAVOK"
    },
    {
      "icao": "ENVA",
      "alert": "OK",
      "vis_m": 9999,
      "fzfg": false,
      "metar_trigger": false,
      "taf_trigger": false,
      "metar": "METAR ENVA 070620Z VRB02KT CAVOK 11/10 Q1012 NOSIG RMK WIND 670FT 28005KT",
      "taf": "TAF ENVA 070500Z 0706/0806 VRB05KT CAVOK"
    },
    {
      "icao": "ENZV",
      "alert": "OK",
      "vis_m": 9999,
      "fzfg": false,
      "metar_trigger": false,
      "taf_trigger": false,
      "metar": "METAR ENZV 070620Z VRB02KT 9999 NSC 14/07 Q1012",
      "taf": "TAF ENZV 070500Z 0706/0806 12005KT 9999 FEW025 BKN050"
    },
    {
      "icao": "EPGD",
      "alert": "OK",
      "vis_m": 9999,
      "fzfg": false,
      "metar_trigger": false,
      "taf_trigger": false,
      "metar": "METAR EPGD 070630Z 15007KT CAVOK 20/12 Q1018",
      "taf": "TAF EPGD 070530Z 0706/0806 18010KT CAVOK"
    },
    {
      "icao": "EPKK",
      "alert": "OK",
      "vis_m": 9999,
      "fzfg": false,
      "metar_trigger": false,
      "taf_trigger": false,
      "metar": "METAR EPKK 070630Z VRB02KT CAVOK 19/12 Q1020",
      "taf": "TAF EPKK 070530Z 0706/0806 06003KT CAVOK"
    },
    {
      "icao": "EPKT",
      "alert": "OK",
      "vis_m": 9999,
      "fzfg": false,
      "metar_trigger": false,
      "taf_trigger": false,
      "metar": "METAR EPKT 070630Z 20004KT 160V220 CAVOK 19/12 Q1020",
      "taf": "TAF EPKT 070530Z 0706/0806 VRB02KT CAVOK"
    },
    {
      "icao": "EPLB",
      "alert": "OK",
      "vis_m": 9999,
      "fzfg": false,
      "metar_trigger": false,
      "taf_trigger": false,
      "metar": "METAR EPLB 070630Z 02004KT 340V070 CAVOK 20/12 Q1020",
      "taf": "TAF EPLB 070530Z 0706/0806 VRB04KT CAVOK"
    },
    {
      "icao": "EPMO",
      "alert": "OK",
      "vis_m": 9999,
      "fzfg": false,
      "metar_trigger": false,
      "taf_trigger": false,
      "metar": "METAR EPMO 070630Z 19004KT 170V270 CAVOK 20/12 Q1019",
      "taf": "TAF EPMO 070530Z 0706/0806 14004KT CAVOK"
    },
    {
      "icao": "EPPO",
      "alert": "OK",
      "vis_m": 9999,
      "fzfg": false,
      "metar_trigger": false,
      "taf_trigger": false,
      "metar": "METAR EPPO 070630Z 22010KT CAVOK 19/12 Q1017",
      "taf": "TAF EPPO 070530Z 0706/0806 18004KT CAVOK"
    },
    {
      "icao": "EPRA",
      "alert": "OK",
      "vis_m": 9999,
      "fzfg": false,
      "metar_trigger": false,
      "taf_trigger": false,
      "metar": "METAR EPRA 070630Z VRB02KT CAVOK 20/13 Q1020",
      "taf": "TAF EPRA 070530Z 0706/0715 18006KT CAVOK"
    },
    {
      "icao": "EPRZ",
      "alert": "OK",
      "vis_m": 9999,
      "fzfg": false,
      "metar_trigger": false,
      "taf_trigger": false,
      "metar": "METAR EPRZ 070630Z VRB01KT CAVOK 20/13 Q1020",
      "taf": "TAF EPRZ 070530Z 0706/0806 13004KT CAVOK"
    },
    {
      "icao": "EPSC",
      "alert": "OK",
      "vis_m": 9999,
      "fzfg": false,
      "metar_trigger": false,
      "taf_trigger": false,
      "metar": "METAR EPSC 070630Z 26006KT 220V280 CAVOK 19/13 Q1016",
      "taf": "TAF EPSC 070530Z 0706/0806 24008KT CAVOK"
    },
    {
      "icao": "EPSY",
      "alert": "OK",
      "vis_m": 9999,
      "fzfg": false,
      "metar_trigger": false,
      "taf_trigger": false,
      "metar": "METAR EPSY 070630Z VRB03KT CAVOK 18/13 Q1019",
      "taf": "TAF EPSY 070530Z 0706/0715 VRB02KT CAVOK"
    },
    {
      "icao": "EPWA",
      "alert": "OK",
      "vis_m": 9999,
      "fzfg": false,
      "metar_trigger": false,
      "taf_trigger": false,
      "metar": "METAR EPWA 070630Z 17003KT 080V230 CAVOK 21/13 Q1019 NOSIG",
      "taf": "TAF EPWA 070530Z 0706/0806 14004KT CAVOK"
    },
    {
      "icao": "EPWR",
      "alert": "OK",
      "vis_m": 9999,
      "fzfg": false,
      "metar_trigger": false,
      "taf_trigger": false,
      "metar": "METAR EPWR 070630Z 29005KT CAVOK 18/13 Q1019",
      "taf": "TAF EPWR 070530Z 0706/0806 12004KT CAVOK"
    },
    {
      "icao": "ESGG",
      "alert": "OK",
      "vis_m": 9999,
      "fzfg": false,
      "metar_trigger": false,
      "taf_trigger": false,
      "metar": "METAR ESGG 070620Z 16006KT CAVOK 13/09 Q1015",
      "taf": "TAF ESGG 070530Z 0706/0806 14008KT CAVOK"
    },
    {
      "icao": "ESKN",
      "alert": "OK",
      "vis_m": 9999,
      "fzfg": false,
      "metar_trigger": false,
      "taf_trigger": false,
      "metar": "METAR ESKN 070620Z 22008KT CAVOK 17/10 Q1016",
      "taf": "TAF ESKN 070530Z 0706/0806 24006KT CAVOK"
    },
    {
      "icao": "ESMS",
      "alert": "OK",
      "vis_m": 9999,
      "fzfg": false,
      "metar_trigger": false,
      "taf_trigger": false,
      "metar": "METAR ESMS 070620Z 15007KT CAVOK 16/14 Q1015",
      "taf": "TAF ESMS 070527Z 0706/0806 14006KT 9999 FEW025"
    },
    {
      "icao": "ESSA",
      "alert": "OK",
      "vis_m": 9999,
      "fzfg": false,
      "metar_trigger": false,
      "taf_trigger": false,
      "metar": "METAR ESSA 070620Z 24013KT CAVOK 14/07 Q1014 NOSIG",
      "taf": "TAF ESSA 070530Z 0706/0806 24012KT CAVOK"
    },
    {
      "icao": "EYKA",
      "alert": "OK",
      "vis_m": 9999,
      "fzfg": false,
      "metar_trigger": false,
      "taf_trigger": false,
      "metar": "METAR EYKA 070620Z VRB02KT CAVOK 19/12 Q1020",
      "taf": "TAF EYKA 070500Z 0706/0806 VRB03KT 9000 NSC"
    },
    {
      "icao": "EYPA",
      "alert": "OK",
      "vis_m": 9999,
      "fzfg": false,
      "metar_trigger": false,
      "taf_trigger": false,
      "metar": "METAR EYPA 070620Z VRB02KT 9999 FEW048 18/14 Q1019",
      "taf": "TAF EYPA 070500Z 0706/0806 VRB03KT 9000 SCT040"
    },
    {
      "icao": "EYVI",
      "alert": "OK",
      "vis_m": 9999,
      "fzfg": false,
      "metar_trigger": false,
      "taf_trigger": false,
      "metar": "METAR EYVI 070620Z VRB03KT CAVOK 19/13 Q1020 NOSIG",
      "taf": "TAF EYVI 070500Z 0706/0806 VRB03KT 9000 SCT035"
    },
    {
      "icao": "GCFV",
      "alert": "OK",
      "vis_m": 9999,
      "fzfg": false,
      "metar_trigger": false,
      "taf_trigger": false,
      "metar": "METAR GCFV 070630Z 36012KT 9999 FEW019 19/15 Q1017",
      "taf": "TAF GCFV 070200Z 0703/0803 35013KT 9999 FEW015 TX26/0714Z TN19/0706Z"
    },
    {
      "icao": "GCLP",
      "alert": "OK",
      "vis_m": 9999,
      "fzfg": false,
      "metar_trigger": false,
      "taf_trigger": false,
      "metar": "METAR GCLP 070630Z 35022KT 9999 BKN020 20/16 Q1018 NOSIG",
      "taf": "TAF GCLP 070200Z 0703/0803 36024KT 9999 SCT020 TX26/0714Z TN19/0706Z"
    },
    {
      "icao": "GCTS",
      "alert": "OK",
      "vis_m": 9999,
      "fzfg": false,
      "metar_trigger": false,
      "taf_trigger": false,
      "metar": "METAR GCTS 070630Z 09002KT 9999 FEW020 19/15 Q1019 NOSIG",
      "taf": "TAF GCTS 070200Z 0703/0803 04008KT 9999 FEW025 TX26/0714Z TN19/0706Z"
    },
    {
      "icao": "GMAD",
      "alert": "OK",
      "vis_m": 6000,
      "fzfg": false,
      "metar_trigger": false,
      "taf_trigger": false,
      "metar": "METAR GMAD 070630Z 26003KT 220V300 6000 OVC006 18/16 Q1014 NOSIG",
      "taf": "TAF GMAD 070500Z 0706/0812 22005KT 8000 BKN013"
    },
    {
      "icao": "GMMN",
      "alert": "OK",
      "vis_m": 9999,
      "fzfg": false,
      "metar_trigger": false,
      "taf_trigger": false,
      "metar": "METAR GMMN 070630Z VRB02KT 9999 FEW010 18/16 Q1017 NOSIG",
      "taf": "TAF GMMN 070500Z 0706/0812 06003KT 9999 FEW010"
    },
    {
      "icao": "GMMX",
      "alert": "OK",
      "vis_m": 9999,
      "fzfg": false,
      "metar_trigger": false,
      "taf_trigger": false,
      "metar": "METAR GMMX 070630Z 27004KT 230V300 CAVOK 19/10 Q1016 NOSIG",
      "taf": "TAF GMMX 070500Z 0706/0812 26006KT CAVOK"
    },
    {
      "icao": "HEGN",
      "alert": "OK",
      "vis_m": 9999,
      "fzfg": false,
      "metar_trigger": false,
      "taf_trigger": false,
      "metar": "METAR HEGN 070600Z 34015KT CAVOK 28/16 Q1012 NOSIG",
      "taf": "TAF HEGN 070500Z 0706/0812 32010G20KT CAVOK"
    },
    {
      "icao": "HEMA",
      "alert": "OK",
      "vis_m": 9999,
      "fzfg": false,
      "metar_trigger": false,
      "taf_trigger": false,
      "metar": "METAR HEMA 070600Z 35011KT CAVOK 30/19 Q1011 NOSIG",
      "taf": "TAF HEMA 070500Z 0706/0812 33010G20KT CAVOK"
    },
    {
      "icao": "HESH",
      "alert": "OK",
      "vis_m": 9999,
      "fzfg": false,
      "metar_trigger": false,
      "taf_trigger": false,
      "metar": "METAR HESH 070600Z 36009KT CAVOK 31/14 Q1010 NOSIG",
      "taf": "TAF HESH 070500Z 0706/0812 36010G20KT CAVOK"
    },
    {
      "icao": "HESX",
      "alert": "OK",
      "vis_m": 9999,
      "fzfg": false,
      "metar_trigger": false,
      "taf_trigger": false,
      "metar": "METAR HESX 070600Z 06008KT 9999 FEW020 23/16 Q1015",
      "taf": "TAF HESX 070500Z 0706/0812 35010KT CAVOK"
    },
    {
      "icao": "LATI",
      "alert": "OK",
      "vis_m": 9999,
      "fzfg": false,
      "metar_trigger": false,
      "taf_trigger": false,
      "metar": "METAR LATI 070620Z VRB01KT CAVOK 23/13 Q1018 NOSIG",
      "taf": "TAF LATI 070500Z 0706/0806 VRB04KT CAVOK TX32/0712Z TN16/0804Z"
    },
    {
      "icao": "LBPD",
      "alert": "OK",
      "vis_m": 9999,
      "fzfg": false,
      "metar_trigger": false,
      "taf_trigger": false,
      "metar": "METAR LBPD 070630Z AUTO 33003KT 270V070 9999 NCD 23/19 Q1018 NOSIG",
      "taf": "TAF LBPD 070500Z 0706/0806 VRB04KT 9999 SCT050"
    },
    {
      "icao": "LBSF",
      "alert": "OK",
      "vis_m": 9999,
      "fzfg": false,
      "metar_trigger": false,
      "taf_trigger": false,
      "metar": "METAR LBSF 070630Z 31003KT 250V350 9999 SCT065 BKN080 20/16 Q1020 NOSIG",
      "taf": "TAF LBSF 070500Z 0706/0806 VRB04KT 9999 SCT050 SCT070"
    },
    {
      "icao": "LBWN",
      "alert": "OK",
      "vis_m": 6000,
      "fzfg": false,
      "metar_trigger": false,
      "taf_trigger": false,
      "metar": "METAR LBWN 070630Z VRB01KT 6000 FEW006 SCT040 21/21 Q1017 NOSIG",
      "taf": "TAF LBWN 070500Z 0706/0806 VRB04KT 9999 SCT040"
    },
    {
      "icao": "LCLK",
      "alert": "OK",
      "vis_m": 9999,
      "fzfg": false,
      "metar_trigger": false,
      "taf_trigger": false,
      "metar": "METAR LCLK 070630Z 16008KT CAVOK 27/16 Q1012 NOSIG",
      "taf": "TAF LCLK 070530Z 0706/0806 16006KT CAVOK"
    },
    {
      "icao": "LCPH",
      "alert": "OK",
      "vis_m": 9999,
      "fzfg": false,
      "metar_trigger": false,
      "taf_trigger": false,
      "metar": "METAR LCPH 070630Z 28011KT 250V320 CAVOK 25/21 Q1012 NOSIG",
      "taf": "TAF LCPH 070530Z 0706/0806 34008KT 9999 FEW018"
    },
    {
      "icao": "LEAL",
      "alert": "OK",
      "vis_m": 9999,
      "fzfg": false,
      "metar_trigger": false,
      "taf_trigger": false,
      "metar": "METAR LEAL 070630Z 08013KT 9999 FEW024 SCT050 24/18 Q1021 NOSIG",
      "taf": "TAF LEAL 070500Z 0706/0806 07013KT 9999 SCT020 TX29/0712Z TN20/0706Z"
    },
    {
      "icao": "LEBB",
      "alert": "OK",
      "vis_m": 9999,
      "fzfg": false,
      "metar_trigger": false,
      "taf_trigger": false,
      "metar": "METAR LEBB 070630Z VRB01KT 9999 FEW030 16/13 Q1024 NOSIG",
      "taf": "TAF LEBB 070500Z 0706/0806 08005KT CAVOK TX25/0714Z TN13/0706Z"
    },
    {
      "icao": "LEBL",
      "alert": "OK",
      "vis_m": 6000,
      "fzfg": false,
      "metar_trigger": false,
      "taf_trigger": false,
      "metar": "METAR LEBL 070630Z 33006KT 280V030 6000 FEW014 21/17 Q1023 NOSIG",
      "taf": "TAF LEBL 070500Z 0706/0806 34005KT 9999 FEW020 TX24/0712Z TN18/0706Z"
    },
    {
      "icao": "LECH",
      "alert": "OK",
      "vis_m": 7000,
      "fzfg": false,
      "metar_trigger": false,
      "taf_trigger": false,
      "metar": "METAR LECH 070630Z AUTO VRB02KT 7000 OVC010 19/17 Q1024",
      "taf": "TAF LECH 070500Z 0706/0806 VRB04KT 9999 FEW020 TX28/0713Z TN16/0706Z"
    },
    {
      "icao": "LEMD",
      "alert": "OK",
      "vis_m": 9999,
      "fzfg": false,
      "metar_trigger": false,
      "taf_trigger": false,
      "metar": "METAR LEMD 070630Z VRB01KT CAVOK 19/09 Q1022 NOSIG",
      "taf": "TAF LEMD 070500Z 0706/0812 VRB04KT CAVOK TX33/0716Z TN17/0805Z"
    },
    {
      "icao": "LEMG",
      "alert": "OK",
      "vis_m": 9999,
      "fzfg": false,
      "metar_trigger": false,
      "taf_trigger": false,
      "metar": "METAR LEMG 070630Z 15004KT 9999 FEW014 SCT025 BKN035 22/19 Q1020 NOSIG",
      "taf": "TAF LEMG 070500Z 0706/0806 VRB03KT 9999 BKN025 TX28/0714Z TN21/0706Z"
    },
    {
      "icao": "LEVC",
      "alert": "OK",
      "vis_m": 9999,
      "fzfg": false,
      "metar_trigger": false,
      "taf_trigger": false,
      "metar": "METAR LEVC 070630Z 03004KT 340V080 9999 SCT010 SCT021 22/19 Q1023 NOSIG",
      "taf": "TAF LEVC 070500Z 0706/0806 VRB04KT 9999 SCT025 TX27/0712Z TN16/0706Z"
    },
    {
      "icao": "LEXJ",
      "alert": "OK",
      "vis_m": 9999,
      "fzfg": false,
      "metar_trigger": false,
      "taf_trigger": false,
      "metar": "METAR LEXJ 070630Z 00000KT CAVOK 14/13 Q1023",
      "taf": "TAF LEXJ 070200Z 0703/0803 VRB03KT 9999 FEW040 TX22/0713Z TN11/0705Z"
    },
    {
      "icao": "LEZG",
      "alert": "OK",
      "vis_m": 9999,
      "fzfg": false,
      "metar_trigger": false,
      "taf_trigger": false,
      "metar": "METAR LEZG 070630Z 27006KT 9999 SCT020 17/10 Q1024 NOSIG",
      "taf": "TAF LEZG 070500Z 0706/0806 30008KT CAVOK TX32/0715Z TN16/0706Z"
    },
    {
      "icao": "LEZL",
      "alert": "OK",
      "vis_m": 9999,
      "fzfg": false,
      "metar_trigger": false,
      "taf_trigger": false,
      "metar": "METAR LEZL 070630Z VRB02KT CAVOK 22/13 Q1018 NOSIG",
      "taf": "TAF LEZL 070200Z 0703/0803 VRB03KT CAVOK TX36/0715Z TN18/0706Z"
    },
    {
      "icao": "LFBD",
      "alert": "OK",
      "vis_m": 9999,
      "fzfg": false,
      "metar_trigger": false,
      "taf_trigger": false,
      "metar": "METAR LFBD 070630Z AUTO 13004KT 110V170 CAVOK 16/12 Q1025 NOSIG",
      "taf": "TAF LFBD 070500Z 0706/0812 VRB03KT CAVOK TX25/0716Z TN13/0706Z"
    },
    {
      "icao": "LFLL",
      "alert": "OK",
      "vis_m": 9999,
      "fzfg": false,
      "metar_trigger": false,
      "taf_trigger": false,
      "metar": "METAR LFLL 070630Z 36007KT CAVOK 16/09 Q1025 NOSIG",
      "taf": "TAF LFLL 070500Z 0706/0812 35008KT CAVOK"
    },
    {
      "icao": "LFLS",
      "alert": "OK",
      "vis_m": 9999,
      "fzfg": false,
      "metar_trigger": false,
      "taf_trigger": false,
      "metar": "METAR LFLS 070630Z AUTO VRB03KT 9999 FEW052 17/10 Q1025 NOSIG",
      "taf": "TAF LFLS 070200Z 0703/0803 VRB03KT CAVOK"
    },
    {
      "icao": "LFMN",
      "alert": "OK",
      "vis_m": 9999,
      "fzfg": false,
      "metar_trigger": false,
      "taf_trigger": false,
      "metar": "METAR LFMN 070630Z 06003KT 010V120 9999 FEW016 21/16 Q1021 NOSIG",
      "taf": "TAF LFMN 070200Z 0703/0809 VRB04KT CAVOK"
    },
    {
      "icao": "LFOB",
      "alert": "OK",
      "vis_m": 9999,
      "fzfg": false,
      "metar_trigger": false,
      "taf_trigger": false,
      "metar": "METAR LFOB 070630Z AUTO 24007KT 9999 OVC032 13/09 Q1023 NOSIG",
      "taf": "TAF LFOB 070500Z 0706/0806 25007KT 9999 BKN030"
    },
    {
      "icao": "LFPO",
      "alert": "OK",
      "vis_m": 9999,
      "fzfg": false,
      "metar_trigger": false,
      "taf_trigger": false,
      "metar": "METAR LFPO 070630Z VRB03KT CAVOK 14/09 Q1024 NOSIG",
      "taf": "TAF LFPO 070500Z 0706/0812 23006KT CAVOK"
    },
    {
      "icao": "LFSB",
      "alert": "OK",
      "vis_m": 9999,
      "fzfg": false,
      "metar_trigger": false,
      "taf_trigger": false,
      "metar": "METAR LFSB 070630Z AUTO 26007KT 230V300 CAVOK 18/09 Q1025 NOSIG",
      "taf": "TAF LFSB 070500Z 0706/0806 25005KT CAVOK"
    },
    {
      "icao": "LGAV",
      "alert": "OK",
      "vis_m": 9999,
      "fzfg": false,
      "metar_trigger": false,
      "taf_trigger": false,
      "metar": "METAR LGAV 070620Z VRB02KT CAVOK 28/14 Q1017 NOSIG",
      "taf": "TAF LGAV 070500Z 0706/0806 VRB03KT 9999 FEW030"
    },
    {
      "icao": "LGTS",
      "alert": "OK",
      "vis_m": 9999,
      "fzfg": false,
      "metar_trigger": false,
      "taf_trigger": false,
      "metar": "METAR LGTS 070620Z 27004KT CAVOK 24/19 Q1017 NOSIG",
      "taf": "TAF LGTS 070500Z 0706/0806 VRB03KT 9999 FEW030"
    },
    {
      "icao": "LHBP",
      "alert": "OK",
      "vis_m": 9999,
      "fzfg": false,
      "metar_trigger": false,
      "taf_trigger": false,
      "metar": "METAR LHBP 070630Z VRB02KT CAVOK 21/14 Q1020 NOSIG",
      "taf": "TAF LHBP 070515Z 0706/0806 30005KT CAVOK"
    },
    {
      "icao": "LHDC",
      "alert": "OK",
      "vis_m": 9999,
      "fzfg": false,
      "metar_trigger": false,
      "taf_trigger": false,
      "metar": "METAR LHDC 070615Z AUTO 11004KT 060V170 CAVOK 21/14 Q1019 NOSIG",
      "taf": "TAF LHDC 070515Z 0706/0715 VRB03KT CAVOK"
    },
    {
      "icao": "LIBD",
      "alert": "OK",
      "vis_m": 9999,
      "fzfg": false,
      "metar_trigger": false,
      "taf_trigger": false,
      "metar": "METAR LIBD 070620Z 30006KT 270V340 CAVOK 23/18 Q1019",
      "taf": "TAF LIBD 070500Z 0706/0806 VRB05KT CAVOK"
    },
    {
      "icao": "LIBG",
      "alert": "OK",
      "vis_m": 9999,
      "fzfg": false,
      "metar_trigger": false,
      "taf_trigger": false,
      "metar": "METAR LIBG 070620Z AUTO 36006KT 330V040 9999 NCD 25/17 Q1019",
      "taf": "TAF LIBG 070500Z 0706/0806 VRB05KT CAVOK"
    },
    {
      "icao": "LIBP",
      "alert": "OK",
      "vis_m": 9999,
      "fzfg": false,
      "metar_trigger": false,
      "taf_trigger": false,
      "metar": "METAR LIBP 070620Z AUTO 22004KT 190V260 9999 NCD 23/17 Q1021",
      "taf": "TAF LIBP 070500Z 0706/0806 VRB05KT 9999 SCT060"
    },
    {
      "icao": "LIBR",
      "alert": "OK",
      "vis_m": 9999,
      "fzfg": false,
      "metar_trigger": false,
      "taf_trigger": false,
      "metar": "METAR LIBR 070620Z 33014KT 9999 FEW010 23/21 Q1018",
      "taf": "TAF LIBR 070500Z 0706/0806 34013KT CAVOK"
    },
    {
      "icao": "LICA",
      "alert": "OK",
      "vis_m": 9999,
      "fzfg": false,
      "metar_trigger": false,
      "taf_trigger": false,
      "metar": "METAR LICA 070620Z AUTO 22007KT 180V240 9999 FEW016/// 24/21 Q1020",
      "taf": "TAF LICA 070500Z 0706/0806 VRB05KT 9999 SCT014"
    },
    {
      "icao": "LICC",
      "alert": "OK",
      "vis_m": 9999,
      "fzfg": false,
      "metar_trigger": false,
      "taf_trigger": false,
      "metar": "METAR LICC 070620Z 24003KT 200V270 CAVOK 24/19 Q1019",
      "taf": "TAF LICC 070500Z 0706/0806 VRB05KT CAVOK"
    },
    {
      "icao": "LICJ",
      "alert": "OK",
      "vis_m": 9999,
      "fzfg": false,
      "metar_trigger": false,
      "taf_trigger": false,
      "metar": "METAR LICJ 070620Z AUTO 04010KT 9999 NCD 23/20 Q1020",
      "taf": "TAF LICJ 070500Z 0706/0806 05013KT CAVOK"
    },
    {
      "icao": "LIMC",
      "alert": "OK",
      "vis_m": 9999,
      "fzfg": false,
      "metar_trigger": false,
      "taf_trigger": false,
      "metar": "METAR LIMC 070620Z 03004KT 9999 SCT057 19/15 Q1021 NOSIG",
      "taf": "TAF LIMC 070500Z 0706/0812 VRB05KT 9999 SCT060"
    },
    {
      "icao": "LIME",
      "alert": "OK",
      "vis_m": 9999,
      "fzfg": false,
      "metar_trigger": false,
      "taf_trigger": false,
      "metar": "METAR LIME 070620Z VRB02KT CAVOK 21/14 Q1021 NOSIG",
      "taf": "TAF LIME 070500Z 0706/0806 VRB05KT 9999 FEW060"
    },
    {
      "icao": "LIMF",
      "alert": "OK",
      "vis_m": 9999,
      "fzfg": false,
      "metar_trigger": false,
      "taf_trigger": false,
      "metar": "METAR LIMF 070620Z VRB02KT CAVOK 19/15 Q1022",
      "taf": "TAF LIMF 070500Z 0706/0806 VRB05KT 9999 FEW050"
    },
    {
      "icao": "LIMJ",
      "alert": "OK",
      "vis_m": 9999,
      "fzfg": false,
      "metar_trigger": false,
      "taf_trigger": false,
      "metar": "METAR LIMJ 070620Z 09003KT 010V140 9999 SCT022 21/16 Q1021",
      "taf": "TAF LIMJ 070500Z 0706/0806 05005KT 9999 SCT015"
    },
    {
      "icao": "LIPE",
      "alert": "OK",
      "vis_m": 9999,
      "fzfg": false,
      "metar_trigger": false,
      "taf_trigger": false,
      "metar": "METAR LIPE 070620Z 20007KT 160V220 CAVOK 21/14 Q1020",
      "taf": "TAF LIPE 070500Z 0706/0806 20007KT CAVOK"
    },
    {
      "icao": "LIPH",
      "alert": "OK",
      "vis_m": 9999,
      "fzfg": false,
      "metar_trigger": false,
      "taf_trigger": false,
      "metar": "METAR LIPH 070620Z 06004KT 020V080 CAVOK 21/18 Q1021",
      "taf": "TAF LIPH 070500Z 0706/0806 VRB05KT CAVOK"
    },
    {
      "icao": "LIPQ",
      "alert": "OK",
      "vis_m": 9999,
      "fzfg": false,
      "metar_trigger": false,
      "taf_trigger": false,
      "metar": "METAR LIPQ 070620Z AUTO VRB01KT 9999 NCD 21/17 Q1021",
      "taf": "TAF LIPQ 070500Z 0706/0806 VRB05KT CAVOK"
    },
    {
      "icao": "LIPR",
      "alert": "OK",
      "vis_m": 9999,
      "fzfg": false,
      "metar_trigger": false,
      "taf_trigger": false,
      "metar": "METAR LIPR 070620Z 29003KT 240V340 CAVOK 23/14 Q1021",
      "taf": "TAF LIPR 070500Z 0706/0806 VRB05KT CAVOK"
    },
    {
      "icao": "LIPX",
      "alert": "OK",
      "vis_m": 9999,
      "fzfg": false,
      "metar_trigger": false,
      "taf_trigger": false,
      "metar": "METAR LIPX 070620Z VRB02KT CAVOK 21/15 Q1021",
      "taf": "TAF LIPX 070500Z 0706/0806 VRB05KT CAVOK"
    },
    {
      "icao": "LIPY",
      "alert": "OK",
      "vis_m": 9999,
      "fzfg": false,
      "metar_trigger": false,
      "taf_trigger": false,
      "metar": "METAR LIPY 070620Z AUTO 24003KT 200V280 9999 NCD 22/17 Q1021",
      "taf": "TAF LIPY 070500Z 0706/0806 VRB05KT CAVOK"
    },
    {
      "icao": "LIPZ",
      "alert": "OK",
      "vis_m": 9999,
      "fzfg": false,
      "metar_trigger": false,
      "taf_trigger": false,
      "metar": "METAR LIPZ 070620Z 05005KT CAVOK 21/18 Q1021 NOSIG",
      "taf": "TAF LIPZ 070500Z 0706/0812 VRB05KT CAVOK"
    },
    {
      "icao": "LIRF",
      "alert": "OK",
      "vis_m": 9999,
      "fzfg": false,
      "metar_trigger": false,
      "taf_trigger": false,
      "metar": "METAR LIRF 070620Z 36007KT CAVOK 21/14 Q1020 NOSIG",
      "taf": "TAF LIRF 070500Z 0706/0812 VRB05KT CAVOK"
    },
    {
      "icao": "LIRN",
      "alert": "OK",
      "vis_m": 9999,
      "fzfg": false,
      "metar_trigger": false,
      "taf_trigger": false,
      "metar": "METAR LIRN 070620Z 02003KT 320V070 CAVOK 23/16 Q1020 NOSIG",
      "taf": "TAF LIRN 070500Z 0706/0806 VRB05KT CAVOK"
    },
    {
      "icao": "LIRP",
      "alert": "OK",
      "vis_m": 9999,
      "fzfg": false,
      "metar_trigger": false,
      "taf_trigger": false,
      "metar": "METAR LIRP 070615Z 14003KT 9999 SCT020 19/17 Q1021 NOSIG",
      "taf": "TAF LIRP 070500Z 0706/0806 10005KT 9999 SCT020"
    },
    {
      "icao": "LIRZ",
      "alert": "OK",
      "vis_m": 9999,
      "fzfg": false,
      "metar_trigger": false,
      "taf_trigger": false,
      "metar": "METAR LIRZ 070620Z AUTO 01004KT 290V080 9999 NCD 18/13 Q1022",
      "taf": "TAF LIRZ 070500Z 0706/0806 VRB05KT 9999 FEW050"
    },
    {
      "icao": "LJLJ",
      "alert": "OK",
      "vis_m": 9999,
      "fzfg": false,
      "metar_trigger": false,
      "taf_trigger": false,
      "metar": "METAR LJLJ 070630Z VRB02KT 9999 FEW007 16/14 Q1022 NOSIG",
      "taf": "TAF LJLJ 070500Z 0706/0806 VRB02KT 9999 FEW001"
    },
    {
      "icao": "LKMT",
      "alert": "OK",
      "vis_m": 9999,
      "fzfg": false,
      "metar_trigger": false,
      "taf_trigger": false,
      "metar": "METAR LKMT 070630Z 24004KT 200V280 CAVOK 14/13 Q1020 NOSIG",
      "taf": "TAF LKMT 070500Z 0706/0806 23008KT CAVOK"
    },
    {
      "icao": "LKPR",
      "alert": "OK",
      "vis_m": 9999,
      "fzfg": false,
      "metar_trigger": false,
      "taf_trigger": false,
      "metar": "METAR LKPR 070630Z 24011KT 9999 FEW018 17/13 Q1021 NOSIG",
      "taf": "TAF LKPR 070500Z 0706/0812 26012KT CAVOK"
    },
    {
      "icao": "LLBG",
      "alert": "OK",
      "vis_m": 9999,
      "fzfg": false,
      "metar_trigger": false,
      "taf_trigger": false,
      "metar": "METAR LLBG 070620Z VRB03KT 9999 SCT022 25/17 Q1014 NOSIG",
      "taf": "TAF LLBG 070504Z 0706/0806 VRB03KT CAVOK TX29/0710Z TN20/0803Z"
    },
    {
      "icao": "LMML",
      "alert": "OK",
      "vis_m": 9999,
      "fzfg": false,
      "metar_trigger": false,
      "taf_trigger": false,
      "metar": "METAR LMML 070615Z 27004KT 220V300 9999 FEW015 27/14 Q1019 NOSIG",
      "taf": "TAF LMML 070500Z 0706/0806 VRB06KT CAVOK"
    },
    {
      "icao": "LOWW",
      "alert": "OK",
      "vis_m": 9999,
      "fzfg": false,
      "metar_trigger": false,
      "taf_trigger": false,
      "metar": "METAR LOWW 070620Z 31009KT 280V350 CAVOK 22/13 Q1021 NOSIG",
      "taf": "TAF LOWW 070515Z 0706/0812 28004KT CAVOK TX26/0812Z TN14/0803Z"
    },
    {
      "icao": "LPFR",
      "alert": "OK",
      "vis_m": 9999,
      "fzfg": false,
      "metar_trigger": false,
      "taf_trigger": false,
      "metar": "METAR LPFR 070630Z 05003KT 360V100 CAVOK 20/17 Q1018",
      "taf": "TAF LPFR 070500Z 0706/0806 VRB02KT CAVOK"
    },
    {
      "icao": "LPMA",
      "alert": "OK",
      "vis_m": 9999,
      "fzfg": false,
      "metar_trigger": false,
      "taf_trigger": false,
      "metar": "METAR LPMA 070630Z 02011G23KT 320V080 9999 SCT015 SCT030 19/14 Q1023",
      "taf": "TAF LPMA 070500Z 0706/0806 02010KT 9999 SCT015"
    },
    {
      "icao": "LPPR",
      "alert": "OK",
      "vis_m": 9999,
      "fzfg": false,
      "metar_trigger": false,
      "taf_trigger": false,
      "metar": "METAR LPPR 070630Z 00000KT CAVOK 14/13 Q1020",
      "taf": "TAF LPPR 070500Z 0706/0806 VRB02KT 9999 FEW012"
    },
    {
      "icao": "LPPS",
      "alert": "OK",
      "vis_m": 9999,
      "fzfg": false,
      "metar_trigger": false,
      "taf_trigger": false,
      "metar": "METAR LPPS 070630Z 04010KT 9999 SCT015 BKN030 18/13 Q1023",
      "taf": "TAF LPPS 070500Z 0706/0812 02010KT 9999 SCT012 BKN030"
    },
    {
      "icao": "LPPT",
      "alert": "OK",
      "vis_m": 9999,
      "fzfg": false,
      "metar_trigger": false,
      "taf_trigger": false,
      "metar": "METAR LPPT 070630Z 32010KT 9999 FEW018 16/14 Q1019",
      "taf": "TAF LPPT 070500Z 0706/0812 32010KT 9999 FEW015"
    },
    {
      "icao": "LQBK",
      "alert": "OK",
      "vis_m": 9999,
      "fzfg": false,
      "metar_trigger": false,
      "taf_trigger": false,
      "metar": "METAR LQBK 070630Z VRB01KT CAVOK 21/16 Q1021 NOSIG",
      "taf": "TAF LQBK 070500Z 0706/0806 03005KT CAVOK TX26/0714Z TN16/0804Z"
    },
    {
      "icao": "LQSA",
      "alert": "OK",
      "vis_m": 8000,
      "fzfg": false,
      "metar_trigger": false,
      "taf_trigger": false,
      "metar": "METAR LQSA 070630Z VRB01KT 8000 SCT010 BKN050 16/14 Q1022 NOSIG",
      "taf": "TAF LQSA 070500Z 0706/0806 VRB02KT 9999 FEW055 TX28/0714Z TN14/0803Z"
    },
    {
      "icao": "LQTZ",
      "alert": "OK",
      "vis_m": 6000,
      "fzfg": false,
      "metar_trigger": false,
      "taf_trigger": false,
      "metar": "METAR LQTZ 070630Z VRB01KT 6000 BKN005 18/18 Q1022",
      "taf": "TAF LQTZ 070500Z 0706/0806 27005KT 9999 SCT040 TX26/0713Z TN12/0803Z"
    },
    {
      "icao": "LRBC",
      "alert": "OK",
      "vis_m": 9999,
      "fzfg": false,
      "metar_trigger": false,
      "taf_trigger": false,
      "metar": "METAR LRBC 070630Z 34005KT 9999 FEW016 BKN025 20/16 Q1018",
      "taf": "TAF LRBC 070500Z 0706/0715 VRB04KT 9999 SCT030"
    },
    {
      "icao": "LRBS",
      "alert": "OK",
      "vis_m": 9999,
      "fzfg": false,
      "metar_trigger": false,
      "taf_trigger": false,
      "metar": "METAR LRBS 070630Z 09006KT 050V120 9999 BKN017 22/18 Q1017 NOSIG",
      "taf": "TAF LRBS 070500Z 0706/0806 VRB04KT CAVOK"
    },
    {
      "icao": "LRBV",
      "alert": "OK",
      "vis_m": 9999,
      "fzfg": false,
      "metar_trigger": false,
      "taf_trigger": false,
      "metar": "METAR LRBV 070630Z 33006KT 290V010 9999 FEW014 BKN050 17/15 Q1020",
      "taf": "TAF LRBV 070500Z 0706/0715 VRB04KT 9999 BKN035"
    },
    {
      "icao": "LRCL",
      "alert": "OK",
      "vis_m": 9999,
      "fzfg": false,
      "metar_trigger": false,
      "taf_trigger": false,
      "metar": "METAR LRCL 070630Z 26005KT 220V300 9999 FEW021 SCT047 20/16 Q1020",
      "taf": "TAF LRCL 070500Z 0706/0715 VRB04KT 9999 SCT030"
    },
    {
      "icao": "LRCV",
      "alert": "OK",
      "vis_m": 9999,
      "fzfg": false,
      "metar_trigger": false,
      "taf_trigger": false,
      "metar": "METAR LRCV 070630Z 01004KT 290V060 9999 FEW011 22/20 Q1018",
      "taf": "TAF LRCV 070500Z 0706/0715 VRB04KT CAVOK"
    },
    {
      "icao": "LRIA",
      "alert": "OK",
      "vis_m": 9999,
      "fzfg": false,
      "metar_trigger": false,
      "taf_trigger": false,
      "metar": "METAR LRIA 070630Z 25005KT 230V290 9999 -RA BKN008 BKN038 17/16 Q1017",
      "taf": "TAF LRIA 070500Z 0706/0715 28007KT 9999 SCT010 BKN040"
    },
    {
      "icao": "LROP",
      "alert": "OK",
      "vis_m": 9999,
      "fzfg": false,
      "metar_trigger": false,
      "taf_trigger": false,
      "metar": "METAR LROP 070630Z 09004KT 050V140 9999 OVC019 22/18 Q1018 NOSIG",
      "taf": "TAF LROP 070500Z 0706/0806 VRB04KT CAVOK"
    },
    {
      "icao": "LRSB",
      "alert": "OK",
      "vis_m": 9999,
      "fzfg": false,
      "metar_trigger": false,
      "taf_trigger": false,
      "metar": "METAR LRSB 070630Z COR 04003KT 010V070 9999 FEW030 FEW038TCU 19/15 Q1020",
      "taf": "TAF LRSB 070500Z 0706/0806 VRB04KT CAVOK"
    },
    {
      "icao": "LRSM",
      "alert": "OK",
      "vis_m": 9999,
      "fzfg": false,
      "metar_trigger": false,
      "taf_trigger": false,
      "metar": "METAR LRSM 070630Z AUTO 28004KT 220V360 9999 NCD 20/14 Q1019",
      "taf": ""
    },
    {
      "icao": "LRSV",
      "alert": "OK",
      "vis_m": 9999,
      "fzfg": false,
      "metar_trigger": false,
      "taf_trigger": false,
      "metar": "METAR LRSV 070630Z 31009KT 9999 BKN007 16/15 Q1018",
      "taf": "TAF LRSV 070500Z 0706/0715 30008KT 9999 SCT030"
    },
    {
      "icao": "LRTM",
      "alert": "OK",
      "vis_m": 9999,
      "fzfg": false,
      "metar_trigger": false,
      "taf_trigger": false,
      "metar": "METAR LRTM 070630Z 24004KT 9999 FEW006 SCT009 BKN032 18/17 Q1020",
      "taf": "TAF LRTM 070500Z 0706/0715 VRB04KT 9999 SCT030"
    },
    {
      "icao": "LRTR",
      "alert": "OK",
      "vis_m": 9999,
      "fzfg": false,
      "metar_trigger": false,
      "taf_trigger": false,
      "metar": "METAR LRTR 070630Z 27004KT 180V330 CAVOK 22/17 Q1020 NOSIG",
      "taf": "TAF LRTR 070500Z 0706/0806 VRB04KT CAVOK"
    },
    {
      "icao": "LTAC",
      "alert": "OK",
      "vis_m": 9999,
      "fzfg": false,
      "metar_trigger": false,
      "taf_trigger": false,
      "metar": "METAR LTAC 070620Z VRB02KT CAVOK 21/10 Q1019 NOSIG RMK RWY21C VRB02KT RWY03L VRB02KT RWY21R VRB01KT RWY03R VRB01KT RWY21L VRB02KT",
      "taf": "TAF LTAC 070440Z 0706/0806 03008KT 9999 SCT040"
    },
    {
      "icao": "LTFM",
      "alert": "OK",
      "vis_m": 9999,
      "fzfg": false,
      "metar_trigger": false,
      "taf_trigger": false,
      "metar": "METAR LTFM 070620Z 02009KT 340V050 9999 BKN009 22/17 Q1017 NOSIG RMK RWY17L 03008KT 350V060 RWY34L 36009KT RWY16R 01008KT 330V060 RWY36 03009KT RWY18 03008KT 360V060",
      "taf": "TAF LTFM 070440Z 0706/0812 04012KT 9999 BKN009"
    },
    {
      "icao": "LUKK",
      "alert": "OK",
      "vis_m": 9999,
      "fzfg": false,
      "metar_trigger": false,
      "taf_trigger": false,
      "metar": "METAR LUKK 070630Z 32006KT 9999 -SHRA SCT034CB BKN045 18/17 Q1016 TEMPO BKN035CB",
      "taf": "TAF LUKK 070528Z 0706/0806 24008KT 9999 BKN025"
    },
    {
      "icao": "LWOH",
      "alert": "OK",
      "vis_m": 9999,
      "fzfg": false,
      "metar_trigger": false,
      "taf_trigger": false,
      "metar": "METAR LWOH 070620Z VRB02KT 9999 FEW050 21/15 Q1021",
      "taf": "TAF LWOH 070515Z 0706/0806 VRB02KT 9999 FEW050"
    },
    {
      "icao": "LWSK",
      "alert": "OK",
      "vis_m": 9999,
      "fzfg": false,
      "metar_trigger": false,
      "taf_trigger": false,
      "metar": "METAR LWSK 070620Z VRB02KT 9999 FEW050 SCT070 22/17 Q1019 NOSIG",
      "taf": "TAF LWSK 070515Z 0706/0806 VRB02KT 9999 FEW050 SCT080"
    },
    {
      "icao": "LYBE",
      "alert": "OK",
      "vis_m": 9999,
      "fzfg": false,
      "metar_trigger": false,
      "taf_trigger": false,
      "metar": "METAR LYBE 070630Z VRB03KT 9999 FEW035 BKN041 21/18 Q1021 NOSIG",
      "taf": "TAF LYBE 070500Z 0706/0806 34008KT 9999 SCT040 TX28/0713Z TN17/0804Z"
    },
    {
      "icao": "LYNI",
      "alert": "OK",
      "vis_m": 9999,
      "fzfg": false,
      "metar_trigger": false,
      "taf_trigger": false,
      "metar": "METAR LYNI 070630Z VRB02KT 9999 FEW010 SCT023 21/19 Q1020 NOSIG",
      "taf": "TAF LYNI 070500Z 0706/0806 02004KT 9999 SCT040 TX28/0713Z TN17/0804Z"
    },
    {
      "icao": "LYPG",
      "alert": "OK",
      "vis_m": 9999,
      "fzfg": false,
      "metar_trigger": false,
      "taf_trigger": false,
      "metar": "METAR LYPG 070630Z VRB02KT CAVOK 25/15 Q1018 NOSIG",
      "taf": "TAF LYPG 070500Z 0706/0806 18007KT 9999 FEW040 TX30/0714Z TN19/0803Z"
    },
    {
      "icao": "LZIB",
      "alert": "OK",
      "vis_m": 9999,
      "fzfg": false,
      "metar_trigger": false,
      "taf_trigger": false,
      "metar": "METAR LZIB 070630Z 29005KT 250V330 CAVOK 21/13 Q1020 NOSIG",
      "taf": "TAF LZIB 070515Z 0706/0806 VRB02KT CAVOK"
    },
    {
      "icao": "LZKZ",
      "alert": "OK",
      "vis_m": 9999,
      "fzfg": false,
      "metar_trigger": false,
      "taf_trigger": false,
      "metar": "METAR LZKZ 070630Z VRB02KT CAVOK 19/13 Q1020 NOSIG",
      "taf": "TAF LZKZ 070515Z 0706/0806 19004KT CAVOK"
    },
    {
      "icao": "LZTT",
      "alert": "OK",
      "vis_m": 9999,
      "fzfg": false,
      "metar_trigger": false,
      "taf_trigger": false,
      "metar": "METAR LZTT 070630Z 03003KT 340V060 9999 FEW020 16/12 Q1021 NOSIG",
      "taf": "TAF LZTT 070515Z 0706/0806 VRB02KT 9999 FEW030"
    },
    {
      "icao": "OEJN",
      "alert": "OK",
      "vis_m": 9999,
      "fzfg": false,
      "metar_trigger": false,
      "taf_trigger": false,
      "metar": "METAR OEJN 070600Z 33006KT 9999 FEW040 34/15 Q1009 NOSIG",
      "taf": "TAF OEJN 070500Z 0706/0812 32014KT CAVOK"
    },
    {
      "icao": "OEMA",
      "alert": "OK",
      "vis_m": 9999,
      "fzfg": false,
      "metar_trigger": false,
      "taf_trigger": false,
      "metar": "METAR OEMA 070600Z 33005KT CAVOK 35/01 Q1015 NOSIG",
      "taf": "TAF OEMA 070500Z 0706/0812 28012KT CAVOK"
    },
    {
      "icao": "OJAI",
      "alert": "OK",
      "vis_m": 5000,
      "fzfg": false,
      "metar_trigger": false,
      "taf_trigger": false,
      "metar": "METAR OJAI 070600Z 28012KT 5000 DU NSC 25/03 Q1016 NOSIG",
      "taf": "TAF OJAI 070500Z 0706/0812 29008KT 6000 NSC"
    },
    {
      "icao": "OMAA",
      "alert": "OK",
      "vis_m": 9999,
      "fzfg": false,
      "metar_trigger": false,
      "taf_trigger": false,
      "metar": "METAR OMAA 070630Z 14006KT 110V190 CAVOK 37/17 Q1004 NOSIG",
      "taf": "TAF OMAA 070500Z 0706/0812 VRB02KT 8000 NSC"
    },
    {
      "icao": "OMDB",
      "alert": "OK",
      "vis_m": 9999,
      "fzfg": false,
      "metar_trigger": false,
      "taf_trigger": false,
      "metar": "METAR OMDB 070630Z VRB03KT CAVOK 37/24 Q1004 BECMG 30010KT",
      "taf": "TAF OMDB 070500Z 0706/0812 VRB02KT CAVOK"
    },
    {
      "icao": "UAAA",
      "alert": "OK",
      "vis_m": 9999,
      "fzfg": false,
      "metar_trigger": false,
      "taf_trigger": false,
      "metar": "METAR UAAA 070630Z 04002MPS 330V110 9999 SCT050CB BKN100 OVC200 26/13 Q1017 NOSIG",
      "taf": "TAF UAAA 070503Z 0706/0806 02003MPS 9999 FEW050CB SCT100 TX27/0709Z TN17/0801Z"
    },
    {
      "icao": "UBBB",
      "alert": "OK",
      "vis_m": 9999,
      "fzfg": false,
      "metar_trigger": false,
      "taf_trigger": false,
      "metar": "METAR UBBB 070630Z 26008KT 230V290 CAVOK 23/13 Q1014 NOSIG",
      "taf": "TAF UBBB 070458Z 0706/0806 31006KT 9999 FEW050CB TX26/0710Z TN16/0701Z"
    },
    {
      "icao": "UDSG",
      "alert": "OK",
      "vis_m": 9999,
      "fzfg": false,
      "metar_trigger": false,
      "taf_trigger": false,
      "metar": "METAR UDSG 070630Z 23002KT 9999 NSC 18/08 Q1020 NOSIG",
      "taf": "TAF UDSG 070500Z 0706/0806 24006KT 9999 SCT050"
    },
    {
      "icao": "UDYZ",
      "alert": "OK",
      "vis_m": 9999,
      "fzfg": false,
      "metar_trigger": false,
      "taf_trigger": false,
      "metar": "METAR UDYZ 070630Z VRB02KT 9999 NSC 23/11 Q1017 NOSIG",
      "taf": "TAF UDYZ 070500Z 0706/0806 24006KT 9999 SCT040"
    },
    {
      "icao": "UGKO",
      "alert": "OK",
      "vis_m": 9999,
      "fzfg": false,
      "metar_trigger": false,
      "taf_trigger": false,
      "metar": "METAR UGKO 070630Z VRB03KT CAVOK 23/13 Q1016 NOSIG",
      "taf": "TAF UGKO 070500Z 0706/0806 09007KT CAVOK TX27/0711Z TN15/0802Z"
    }
  ]
}