{
  "ts_utc": "2026-06-21T00:01:42Z",
  "threshold_m": 150,
  "source": "stations_override.txt (ICAO list) + aviationweather.gov (METAR/TAF raw)",
  "station_count": 159,
  "stations": [
    {
      "icao": "BIKF",
      "alert": "OK",
      "vis_m": 9999,
      "fzfg": false,
      "metar_trigger": false,
      "taf_trigger": false,
      "metar": "METAR BIKF 202330Z 36007KT CAVOK 07/04 Q1008",
      "taf": "TAF BIKF 202211Z 2100/2200 01014KT 9999 SCT030 TX11/2112Z TN05/2104Z"
    },
    {
      "icao": "BKPR",
      "alert": "OK",
      "vis_m": 9999,
      "fzfg": false,
      "metar_trigger": false,
      "taf_trigger": false,
      "metar": "METAR BKPR 210000Z VRB02KT CAVOK 18/12 Q1025 NOSIG",
      "taf": "TAF BKPR 202330Z 2100/2124 01006KT CAVOK"
    },
    {
      "icao": "EBCI",
      "alert": "OK",
      "vis_m": 9999,
      "fzfg": false,
      "metar_trigger": false,
      "taf_trigger": false,
      "metar": "METAR EBCI 202350Z 23004KT 9999 VCTS FEW035CB 21/18 Q1024 TEMPO VRB25G35KT 2500 TSRAGR",
      "taf": "TAF EBCI 202310Z 2100/2206 12004KT 9999 FEW060TCU"
    },
    {
      "icao": "EDDB",
      "alert": "OK",
      "vis_m": 9999,
      "fzfg": false,
      "metar_trigger": false,
      "taf_trigger": false,
      "metar": "METAR EDDB 202350Z AUTO VRB02KT 9999 3700 BR NCD 19/19 Q1022 NOSIG",
      "taf": "TAF EDDB 202300Z 2100/2124 13003KT CAVOK"
    },
    {
      "icao": "EDDH",
      "alert": "OK",
      "vis_m": 9999,
      "fzfg": false,
      "metar_trigger": false,
      "taf_trigger": false,
      "metar": "METAR EDDH 202350Z AUTO 32004KT CAVOK 20/17 Q1022 NOSIG",
      "taf": "TAF EDDH 202300Z 2100/2206 31003KT CAVOK"
    },
    {
      "icao": "EDDK",
      "alert": "OK",
      "vis_m": 9999,
      "fzfg": false,
      "metar_trigger": false,
      "taf_trigger": false,
      "metar": "METAR EDDK 202350Z AUTO 31001KT CAVOK 23/20 Q1022 TEMPO 18015G25KT SHRA SCT050CB",
      "taf": "TAF EDDK 202300Z 2100/2206 VRB03KT CAVOK"
    },
    {
      "icao": "EDDN",
      "alert": "OK",
      "vis_m": 9999,
      "fzfg": false,
      "metar_trigger": false,
      "taf_trigger": false,
      "metar": "METAR EDDN 202350Z AUTO VRB02KT CAVOK 20/16 Q1023",
      "taf": "TAF EDDN 202300Z 2100/2124 VRB03KT CAVOK"
    },
    {
      "icao": "EDDS",
      "alert": "OK",
      "vis_m": 9999,
      "fzfg": false,
      "metar_trigger": false,
      "taf_trigger": false,
      "metar": "METAR EDDS 202350Z AUTO VRB01KT CAVOK 21/14 Q1023",
      "taf": "TAF EDDS 202300Z 2100/2124 VRB03KT CAVOK"
    },
    {
      "icao": "EDFH",
      "alert": "OK",
      "vis_m": 9999,
      "fzfg": false,
      "metar_trigger": false,
      "taf_trigger": false,
      "metar": "METAR EDFH 202350Z 24007KT CAVOK 23/16 Q1025",
      "taf": "TAF EDFH 202300Z 2100/2124 01004KT 9999 SCT020"
    },
    {
      "icao": "EDJA",
      "alert": "OK",
      "vis_m": 9999,
      "fzfg": false,
      "metar_trigger": false,
      "taf_trigger": false,
      "metar": "METAR EDJA 202350Z AUTO 17003KT 9999 // FEW150/// 18/14 Q1025",
      "taf": "TAF EDJA 201700Z 2018/2103 27007KT CAVOK"
    },
    {
      "icao": "EDLW",
      "alert": "OK",
      "vis_m": 9999,
      "fzfg": false,
      "metar_trigger": false,
      "taf_trigger": false,
      "metar": "METAR EDLW 202350Z AUTO VRB02KT 9999 // NCD 21/17 Q1023",
      "taf": "TAF EDLW 201700Z 2018/2118 20008KT CAVOK"
    },
    {
      "icao": "EDNY",
      "alert": "OK",
      "vis_m": 9999,
      "fzfg": false,
      "metar_trigger": false,
      "taf_trigger": false,
      "metar": "METAR EDNY 202350Z AUTO 08003KT 9999 // NCD 19/16 Q1024",
      "taf": "TAF EDNY 201700Z 2018/2103 24005KT CAVOK"
    },
    {
      "icao": "EDSB",
      "alert": "OK",
      "vis_m": 9999,
      "fzfg": false,
      "metar_trigger": false,
      "taf_trigger": false,
      "metar": "METAR EDSB 202350Z AUTO VRB01KT 9999 1200 R21/1700U // NCD 23/17 Q1022",
      "taf": "TAF EDSB 202300Z 2100/2124 20004KT CAVOK"
    },
    {
      "icao": "EETN",
      "alert": "OK",
      "vis_m": 9999,
      "fzfg": false,
      "metar_trigger": false,
      "taf_trigger": false,
      "metar": "METAR EETN 202350Z 18005KT CAVOK 18/14 Q1018",
      "taf": "TAF EETN 202330Z 2100/2124 20010KT CAVOK"
    },
    {
      "icao": "EFTU",
      "alert": "OK",
      "vis_m": 9999,
      "fzfg": false,
      "metar_trigger": false,
      "taf_trigger": false,
      "metar": "METAR EFTU 202350Z AUTO 22008KT CAVOK 18/16 Q1015",
      "taf": "TAF EFTU 202333Z 2100/2124 21007KT 9999 FEW006"
    },
    {
      "icao": "EGBB",
      "alert": "OK",
      "vis_m": 9999,
      "fzfg": false,
      "metar_trigger": false,
      "taf_trigger": false,
      "metar": "METAR EGBB 202350Z 33005KT 9999 SCT041 16/11 Q1024",
      "taf": "TAF EGBB 202256Z 2100/2124 34004KT 9999 FEW045"
    },
    {
      "icao": "EGGP",
      "alert": "OK",
      "vis_m": 9999,
      "fzfg": false,
      "metar_trigger": false,
      "taf_trigger": false,
      "metar": "METAR EGGP 202350Z 34004KT CAVOK 14/11 Q1025",
      "taf": "TAF EGGP 202258Z 2100/2124 VRB03KT CAVOK"
    },
    {
      "icao": "EGGW",
      "alert": "OK",
      "vis_m": 9999,
      "fzfg": false,
      "metar_trigger": false,
      "taf_trigger": false,
      "metar": "METAR EGGW 202350Z AUTO 09001KT 9999 BKN049 19/16 Q1023",
      "taf": "TAF EGGW 202259Z 2100/2124 VRB03KT 9999 FEW040"
    },
    {
      "icao": "EGKK",
      "alert": "OK",
      "vis_m": 9999,
      "fzfg": false,
      "metar_trigger": false,
      "taf_trigger": false,
      "metar": "METAR EGKK 202350Z 17001KT CAVOK 17/16 Q1023",
      "taf": "TAF EGKK 202301Z 2100/2206 VRB03KT 9999 FEW035"
    },
    {
      "icao": "EGNM",
      "alert": "OK",
      "vis_m": 9999,
      "fzfg": false,
      "metar_trigger": false,
      "taf_trigger": false,
      "metar": "METAR EGNM 202350Z 29004KT CAVOK 13/10 Q1024",
      "taf": "TAF EGNM 202257Z 2100/2124 30006KT CAVOK"
    },
    {
      "icao": "EGPD",
      "alert": "OK",
      "vis_m": 9999,
      "fzfg": false,
      "metar_trigger": false,
      "taf_trigger": false,
      "metar": "METAR EGPD 202350Z AUTO VRB01KT 9999 NCD 09/07 Q1023",
      "taf": "TAF EGPD 202255Z 2100/2124 VRB03KT 9999 FEW045"
    },
    {
      "icao": "EGPF",
      "alert": "OK",
      "vis_m": 9999,
      "fzfg": false,
      "metar_trigger": false,
      "taf_trigger": false,
      "metar": "METAR EGPF 202350Z AUTO 26003KT 9999 NCD 10/08 Q1025",
      "taf": "TAF EGPF 202254Z 2100/2124 VRB03KT 9999 SCT030"
    },
    {
      "icao": "EHBK",
      "alert": "OK",
      "vis_m": 9999,
      "fzfg": false,
      "metar_trigger": false,
      "taf_trigger": false,
      "metar": "METAR EHBK 202355Z AUTO 15004KT 120V200 9999 TSRA BKN015CB 19/18 Q1024",
      "taf": "TAF EHBK 202311Z 2100/2206 01005KT CAVOK"
    },
    {
      "icao": "EHEH",
      "alert": "OK",
      "vis_m": 9999,
      "fzfg": false,
      "metar_trigger": false,
      "taf_trigger": false,
      "metar": "METAR EHEH 202325Z AUTO 06004KT 030V110 9999 FEW018CB SCT073 BKN100 BKN159 22/17 Q1022 BLU",
      "taf": "TAF EHEH 201721Z 2018/2124 35006KT CAVOK"
    },
    {
      "icao": "EKBI",
      "alert": "OK",
      "vis_m": 9999,
      "fzfg": false,
      "metar_trigger": false,
      "taf_trigger": false,
      "metar": "METAR EKBI 202350Z AUTO 29006KT 9999 FEW005/// 16/15 Q1023",
      "taf": "TAF EKBI 202327Z 2100/2124 27010KT 9999 SCT025"
    },
    {
      "icao": "EKCH",
      "alert": "OK",
      "vis_m": 9999,
      "fzfg": false,
      "metar_trigger": false,
      "taf_trigger": false,
      "metar": "METAR EKCH 202350Z AUTO 27006KT 9999 SCT051/// 20/19 Q1021 NOSIG",
      "taf": "TAF EKCH 202327Z 2100/2124 21012KT 9999 FEW040"
    },
    {
      "icao": "ENAL",
      "alert": "OK",
      "vis_m": 9999,
      "fzfg": false,
      "metar_trigger": false,
      "taf_trigger": false,
      "metar": "METAR ENAL 202350Z AUTO 22015KT 9999 NCD 13/08 Q1017",
      "taf": "TAF ENAL 202300Z 2100/2109 23015KT 9999 FEW030 SCT050"
    },
    {
      "icao": "ENBR",
      "alert": "OK",
      "vis_m": 9999,
      "fzfg": false,
      "metar_trigger": false,
      "taf_trigger": false,
      "metar": "METAR ENBR 202350Z 16006KT 9999 FEW006 SCT015 11/10 Q1022 RMK WIND 1200FT 21010KT",
      "taf": "TAF ENBR 202300Z 2100/2124 17010KT 9999 FEW015 BKN030"
    },
    {
      "icao": "ENGM",
      "alert": "OK",
      "vis_m": 9999,
      "fzfg": false,
      "metar_trigger": false,
      "taf_trigger": false,
      "metar": "METAR ENGM 202350Z 31003KT 210V010 CAVOK 13/08 Q1017",
      "taf": "TAF ENGM 202300Z 2100/2124 30005KT CAVOK"
    },
    {
      "icao": "ENHD",
      "alert": "OK",
      "vis_m": 9999,
      "fzfg": false,
      "metar_trigger": false,
      "taf_trigger": false,
      "metar": "METAR ENHD 202350Z AUTO 19005KT 9999 NCD 11/10 Q1023",
      "taf": "TAF ENHD 201400Z 2015/2022 26008KT 8000 FEW003 SCT010"
    },
    {
      "icao": "ENTC",
      "alert": "OK",
      "vis_m": 9999,
      "fzfg": false,
      "metar_trigger": false,
      "taf_trigger": false,
      "metar": "METAR ENTC 202350Z AUTO 05003KT 020V100 9999 -RA FEW009/// BKN020/// BKN026/// 10/08 Q1008 RMK WIND 2600FT 30006KT",
      "taf": "TAF ENTC 202300Z 2100/2124 VRB03KT 9999 -SHRA FEW012 BKN020"
    },
    {
      "icao": "ENTO",
      "alert": "OK",
      "vis_m": 2600,
      "fzfg": false,
      "metar_trigger": false,
      "taf_trigger": false,
      "metar": "METAR ENTO 202350Z AUTO 30005KT 2600 // NCD 15/07 Q1018",
      "taf": "TAF ENTO 202300Z 2100/2124 28005KT CAVOK"
    },
    {
      "icao": "ENVA",
      "alert": "OK",
      "vis_m": 9999,
      "fzfg": false,
      "metar_trigger": false,
      "taf_trigger": false,
      "metar": "METAR ENVA 202350Z AUTO 29010KT 250V320 9999 SCT025/// BKN032/// BKN045/// 12/10 Q1017 RMK WIND 670FT 28008KT",
      "taf": "TAF ENVA 202300Z 2100/2124 30005KT 9999 SCT045"
    },
    {
      "icao": "ENZV",
      "alert": "OK",
      "vis_m": 9999,
      "fzfg": false,
      "metar_trigger": false,
      "taf_trigger": false,
      "metar": "METAR ENZV 202350Z 19003KT CAVOK 10/09 Q1023",
      "taf": "TAF ENZV 202300Z 2100/2124 30008KT 9999 FEW015"
    },
    {
      "icao": "EPGD",
      "alert": "OK",
      "vis_m": 9999,
      "fzfg": false,
      "metar_trigger": false,
      "taf_trigger": false,
      "metar": "METAR EPGD 202330Z VRB02KT CAVOK 21/19 Q1021",
      "taf": "TAF EPGD 202330Z 2100/2124 VRB02KT CAVOK"
    },
    {
      "icao": "EPKK",
      "alert": "OK",
      "vis_m": 9999,
      "fzfg": false,
      "metar_trigger": false,
      "taf_trigger": false,
      "metar": "METAR EPKK 202330Z 20006KT CAVOK 21/18 Q1023",
      "taf": "TAF EPKK 202330Z 2100/2124 25008KT CAVOK"
    },
    {
      "icao": "EPKT",
      "alert": "OK",
      "vis_m": 9999,
      "fzfg": false,
      "metar_trigger": false,
      "taf_trigger": false,
      "metar": "METAR EPKT 202330Z 05004KT CAVOK 20/17 Q1023",
      "taf": "TAF EPKT 202330Z 2100/2124 14005KT CAVOK"
    },
    {
      "icao": "EPLB",
      "alert": "OK",
      "vis_m": 9999,
      "fzfg": false,
      "metar_trigger": false,
      "taf_trigger": false,
      "metar": "METAR EPLB 202330Z 08003KT CAVOK 16/15 Q1023",
      "taf": "TAF EPLB 202330Z 2100/2124 12005KT CAVOK"
    },
    {
      "icao": "EPMO",
      "alert": "OK",
      "vis_m": 9999,
      "fzfg": false,
      "metar_trigger": false,
      "taf_trigger": false,
      "metar": "METAR EPMO 202330Z VRB02KT CAVOK 20/15 Q1022",
      "taf": "TAF EPMO 202330Z 2100/2124 12005KT CAVOK"
    },
    {
      "icao": "EPPO",
      "alert": "OK",
      "vis_m": 6000,
      "fzfg": false,
      "metar_trigger": false,
      "taf_trigger": false,
      "metar": "METAR EPPO 202330Z 28014KT 6000 TSRA BKN041CB 20/19 Q1023",
      "taf": "TAF EPPO 202330Z 2100/2124 28010KT 8000 BKN045"
    },
    {
      "icao": "EPRA",
      "alert": "OK",
      "vis_m": 9999,
      "fzfg": false,
      "metar_trigger": false,
      "taf_trigger": false,
      "metar": "METAR EPRA 202330Z 12004KT CAVOK 20/15 Q1022",
      "taf": "TAF EPRA 202330Z 2100/2109 15006KT CAVOK"
    },
    {
      "icao": "EPRZ",
      "alert": "OK",
      "vis_m": 9999,
      "fzfg": false,
      "metar_trigger": false,
      "taf_trigger": false,
      "metar": "METAR EPRZ 202330Z 08006KT CAVOK 19/16 Q1022",
      "taf": "TAF EPRZ 202330Z 2100/2124 11005KT CAVOK"
    },
    {
      "icao": "EPSC",
      "alert": "OK",
      "vis_m": 9999,
      "fzfg": false,
      "metar_trigger": false,
      "taf_trigger": false,
      "metar": "METAR EPSC 202330Z 12004KT CAVOK 18/18 Q1022",
      "taf": "TAF EPSC 202330Z 2100/2124 VRB02KT 4000 BR NSC"
    },
    {
      "icao": "EPSY",
      "alert": "OK",
      "vis_m": 9999,
      "fzfg": false,
      "metar_trigger": false,
      "taf_trigger": false,
      "metar": "METAR EPSY 202330Z 36002KT CAVOK 17/16 Q1022",
      "taf": "TAF EPSY 202330Z 2100/2109 VRB02KT CAVOK"
    },
    {
      "icao": "EPWA",
      "alert": "OK",
      "vis_m": 9999,
      "fzfg": false,
      "metar_trigger": false,
      "taf_trigger": false,
      "metar": "METAR EPWA 202330Z 14005KT CAVOK 21/15 Q1022 NOSIG",
      "taf": "TAF EPWA 202330Z 2100/2124 12005KT CAVOK"
    },
    {
      "icao": "EPWR",
      "alert": "OK",
      "vis_m": 9999,
      "fzfg": false,
      "metar_trigger": false,
      "taf_trigger": false,
      "metar": "METAR EPWR 202330Z 32005KT CAVOK 20/19 Q1022",
      "taf": "TAF EPWR 202330Z 2100/2124 31005KT CAVOK"
    },
    {
      "icao": "ESGG",
      "alert": "OK",
      "vis_m": 9999,
      "fzfg": false,
      "metar_trigger": false,
      "taf_trigger": false,
      "metar": "METAR ESGG 202350Z 25006KT 9999 NSC 16/14 Q1020",
      "taf": "TAF ESGG 202330Z 2100/2124 26006KT 9999 BKN045"
    },
    {
      "icao": "ESKN",
      "alert": "OK",
      "vis_m": 9999,
      "fzfg": false,
      "metar_trigger": false,
      "taf_trigger": false,
      "metar": "METAR ESKN 202350Z 26005KT CAVOK 18/18 Q1017",
      "taf": "TAF ESKN 202330Z 2100/2124 23004KT CAVOK"
    },
    {
      "icao": "ESMS",
      "alert": "OK",
      "vis_m": 9999,
      "fzfg": false,
      "metar_trigger": false,
      "taf_trigger": false,
      "metar": "METAR ESMS 202350Z AUTO 27005KT 9999 NCD 21/19 Q1021",
      "taf": "TAF ESMS 202327Z 2100/2124 23010KT 9999 FEW040"
    },
    {
      "icao": "ESSA",
      "alert": "OK",
      "vis_m": 9999,
      "fzfg": false,
      "metar_trigger": false,
      "taf_trigger": false,
      "metar": "METAR ESSA 202350Z 24009KT CAVOK 18/17 Q1016 NOSIG",
      "taf": "TAF ESSA 202330Z 2100/2124 22008KT CAVOK"
    },
    {
      "icao": "EYKA",
      "alert": "OK",
      "vis_m": 9999,
      "fzfg": false,
      "metar_trigger": false,
      "taf_trigger": false,
      "metar": "METAR EYKA 202350Z 10002KT CAVOK 16/14 Q1022",
      "taf": "TAF EYKA 202300Z 2100/2124 VRB03KT 9000 NSC"
    },
    {
      "icao": "EYPA",
      "alert": "OK",
      "vis_m": 9999,
      "fzfg": false,
      "metar_trigger": false,
      "taf_trigger": false,
      "metar": "METAR EYPA 202350Z AUTO 16005KT 9999 NCD 21/17 Q1020",
      "taf": "TAF EYPA 202300Z 2100/2124 VRB03KT 9000 SCT045"
    },
    {
      "icao": "EYVI",
      "alert": "OK",
      "vis_m": 9999,
      "fzfg": false,
      "metar_trigger": false,
      "taf_trigger": false,
      "metar": "METAR EYVI 202350Z 21003KT CAVOK 13/12 Q1023 NOSIG",
      "taf": "TAF EYVI 202300Z 2100/2124 VRB03KT 9000 NSC"
    },
    {
      "icao": "GCFV",
      "alert": "OK",
      "vis_m": 9999,
      "fzfg": false,
      "metar_trigger": false,
      "taf_trigger": false,
      "metar": "METAR GCFV 202330Z AUTO 03007KT 9999 FEW014 21/17 Q1019",
      "taf": "TAF GCFV 202000Z 2021/2121 02009KT 9999 SCT020 TX26/2114Z TN20/2106Z"
    },
    {
      "icao": "GCLP",
      "alert": "OK",
      "vis_m": 9999,
      "fzfg": false,
      "metar_trigger": false,
      "taf_trigger": false,
      "metar": "METAR GCLP 202330Z 36014KT 9999 FEW030 21/17 Q1019 NOSIG",
      "taf": "TAF GCLP 202000Z 2021/2121 01018KT 9999 FEW025 TX26/2114Z TN20/2106Z"
    },
    {
      "icao": "GCTS",
      "alert": "OK",
      "vis_m": 9999,
      "fzfg": false,
      "metar_trigger": false,
      "taf_trigger": false,
      "metar": "METAR GCTS 202330Z 08007KT 9999 FEW020 21/17 Q1019 NOSIG",
      "taf": "TAF GCTS 202000Z 2021/2121 05006KT 9999 FEW020 TX26/2114Z TN19/2106Z"
    },
    {
      "icao": "GMAD",
      "alert": "OK",
      "vis_m": 9999,
      "fzfg": false,
      "metar_trigger": false,
      "taf_trigger": false,
      "metar": "METAR GMAD 202330Z 00000KT 9999 SCT016 20/17 Q1016 NOSIG",
      "taf": "TAF GMAD 202300Z 2100/2206 24004KT 9999 SCT016"
    },
    {
      "icao": "GMMN",
      "alert": "OK",
      "vis_m": 9999,
      "fzfg": false,
      "metar_trigger": false,
      "taf_trigger": false,
      "metar": "METAR GMMN 202330Z 29005KT 270V330 9999 FEW010 20/18 Q1017 NOSIG",
      "taf": "TAF GMMN 202300Z 2100/2206 28005KT CAVOK"
    },
    {
      "icao": "GMMX",
      "alert": "OK",
      "vis_m": 8000,
      "fzfg": false,
      "metar_trigger": false,
      "taf_trigger": false,
      "metar": "METAR GMMX 202330Z 26008KT 8000 SCT030 21/17 Q1017 NOSIG",
      "taf": "TAF GMMX 202300Z 2100/2206 28006KT 8000 NSC"
    },
    {
      "icao": "HEGN",
      "alert": "OK",
      "vis_m": 9999,
      "fzfg": false,
      "metar_trigger": false,
      "taf_trigger": false,
      "metar": "METAR HEGN 202300Z 29011KT CAVOK 29/13 Q1009 NOSIG",
      "taf": "TAF HEGN 202300Z 2100/2206 30015KT CAVOK"
    },
    {
      "icao": "HEMA",
      "alert": "OK",
      "vis_m": 9999,
      "fzfg": false,
      "metar_trigger": false,
      "taf_trigger": false,
      "metar": "METAR HEMA 202300Z 28006KT CAVOK 26/15 Q1009 NOSIG",
      "taf": "TAF HEMA 202300Z 2100/2206 28010KT CAVOK"
    },
    {
      "icao": "HESH",
      "alert": "OK",
      "vis_m": 9999,
      "fzfg": false,
      "metar_trigger": false,
      "taf_trigger": false,
      "metar": "METAR HESH 202300Z 35014KT CAVOK 29/18 Q1008 NOSIG",
      "taf": "TAF HESH 202300Z 2100/2206 34010KT CAVOK"
    },
    {
      "icao": "HESX",
      "alert": "OK",
      "vis_m": 9999,
      "fzfg": false,
      "metar_trigger": false,
      "taf_trigger": false,
      "metar": "METAR HESX 202300Z 03006KT CAVOK 22/17 Q1015 NOSIG",
      "taf": "TAF HESX 202300Z 2100/2206 36010KT 9999 SCT020"
    },
    {
      "icao": "LATI",
      "alert": "OK",
      "vis_m": 9999,
      "fzfg": false,
      "metar_trigger": false,
      "taf_trigger": false,
      "metar": "METAR LATI 202350Z 16003KT CAVOK 21/15 Q1021 NOSIG",
      "taf": "TAF LATI 202300Z 2100/2124 VRB03KT CAVOK TX35/2111Z TN17/2104Z"
    },
    {
      "icao": "LBPD",
      "alert": "OK",
      "vis_m": 9999,
      "fzfg": false,
      "metar_trigger": false,
      "taf_trigger": false,
      "metar": "METAR LBPD 210000Z AUTO 26004KT 9999 NCD 18/13 Q1024",
      "taf": "TAF LBPD 202300Z 2100/2124 VRB04KT CAVOK"
    },
    {
      "icao": "LBSF",
      "alert": "OK",
      "vis_m": 9999,
      "fzfg": false,
      "metar_trigger": false,
      "taf_trigger": false,
      "metar": "METAR LBSF 210000Z AUTO 00000KT 9999 NCD 14/12 Q1025 NOSIG",
      "taf": "TAF LBSF 202300Z 2100/2124 VRB04KT 9999 SCT070"
    },
    {
      "icao": "LBWN",
      "alert": "OK",
      "vis_m": 9999,
      "fzfg": false,
      "metar_trigger": false,
      "taf_trigger": false,
      "metar": "METAR LBWN 210000Z AUTO 31003KT 9999 NSC 16/12 Q1021 NOSIG",
      "taf": "TAF LBWN 202300Z 2100/2124 VRB03KT 9999 SCT045"
    },
    {
      "icao": "LCLK",
      "alert": "OK",
      "vis_m": 9999,
      "fzfg": false,
      "metar_trigger": false,
      "taf_trigger": false,
      "metar": "METAR LCLK 202330Z 24004KT CAVOK 23/21 Q1012 NOSIG",
      "taf": "TAF LCLK 202330Z 2100/2200 31007KT CAVOK"
    },
    {
      "icao": "LCPH",
      "alert": "OK",
      "vis_m": 9999,
      "fzfg": false,
      "metar_trigger": false,
      "taf_trigger": false,
      "metar": "METAR LCPH 202330Z 02004KT CAVOK 23/19 Q1013 NOSIG",
      "taf": "TAF LCPH 202330Z 2100/2200 01007KT CAVOK"
    },
    {
      "icao": "LEAL",
      "alert": "OK",
      "vis_m": 9999,
      "fzfg": false,
      "metar_trigger": false,
      "taf_trigger": false,
      "metar": "METAR LEAL 202330Z 05009KT CAVOK 30/15 Q1018 NOSIG",
      "taf": "TAF LEAL 202300Z 2100/2124 07012KT CAVOK TX33/2112Z TN23/2106Z"
    },
    {
      "icao": "LEBB",
      "alert": "OK",
      "vis_m": 9999,
      "fzfg": false,
      "metar_trigger": false,
      "taf_trigger": false,
      "metar": "METAR LEBB 202330Z AUTO VRB02KT 9999 OVC013 22/21 Q1021",
      "taf": "TAF LEBB 202300Z 2100/2124 10006KT 9999 FEW015 TX40/2115Z TN19/2105Z"
    },
    {
      "icao": "LEBL",
      "alert": "OK",
      "vis_m": 9999,
      "fzfg": false,
      "metar_trigger": false,
      "taf_trigger": false,
      "metar": "METAR LEBL 202330Z 01004KT CAVOK 26/15 Q1022 NOSIG",
      "taf": "TAF LEBL 202300Z 2100/2124 34007KT CAVOK TX31/2112Z TN23/2105Z"
    },
    {
      "icao": "LECH",
      "alert": "OK",
      "vis_m": 9999,
      "fzfg": false,
      "metar_trigger": false,
      "taf_trigger": false,
      "metar": "METAR LECH 202330Z AUTO VRB02KT CAVOK 22/16 Q1023",
      "taf": "TAF LECH 202300Z 2100/2124 VRB04KT CAVOK TX34/2112Z TN19/2106Z"
    },
    {
      "icao": "LEMD",
      "alert": "OK",
      "vis_m": 9999,
      "fzfg": false,
      "metar_trigger": false,
      "taf_trigger": false,
      "metar": "METAR LEMD 202330Z 14008KT CAVOK 28/11 Q1021 NOSIG",
      "taf": "TAF LEMD 202300Z 2100/2206 VRB05KT CAVOK TX39/2115Z TN21/2105Z"
    },
    {
      "icao": "LEMG",
      "alert": "OK",
      "vis_m": 9999,
      "fzfg": false,
      "metar_trigger": false,
      "taf_trigger": false,
      "metar": "METAR LEMG 202330Z VRB02KT CAVOK 23/20 Q1015 NOSIG",
      "taf": "TAF LEMG 202300Z 2100/2124 VRB02KT CAVOK TX34/2114Z TN24/2106Z"
    },
    {
      "icao": "LEVC",
      "alert": "OK",
      "vis_m": 9999,
      "fzfg": false,
      "metar_trigger": false,
      "taf_trigger": false,
      "metar": "METAR LEVC 202330Z VRB02KT CAVOK 24/21 Q1022 NOSIG",
      "taf": "TAF LEVC 202300Z 2100/2124 VRB04KT 9999 FEW015 TX33/2112Z TN21/2106Z"
    },
    {
      "icao": "LEXJ",
      "alert": "OK",
      "vis_m": 9999,
      "fzfg": false,
      "metar_trigger": false,
      "taf_trigger": false,
      "metar": "METAR LEXJ 202330Z AUTO 09003KT 020V140 9999 BKN011 OVC020 21/20 Q1020",
      "taf": "TAF LEXJ 202000Z 2021/2121 VRB03KT 9999 SCT016 TX35/2112Z TN19/2105Z"
    },
    {
      "icao": "LEZG",
      "alert": "OK",
      "vis_m": 9999,
      "fzfg": false,
      "metar_trigger": false,
      "taf_trigger": false,
      "metar": "METAR LEZG 202330Z 11007KT 9999 FEW070 26/10 Q1021 NOSIG",
      "taf": "TAF LEZG 202300Z 2100/2124 11010KT CAVOK TX40/2115Z TN23/2106Z"
    },
    {
      "icao": "LEZL",
      "alert": "OK",
      "vis_m": 9999,
      "fzfg": false,
      "metar_trigger": false,
      "taf_trigger": false,
      "metar": "METAR LEZL 202330Z AUTO 33004KT CAVOK 27/17 Q1015",
      "taf": "TAF LEZL 202000Z 2021/2121 22012KT CAVOK TX41/2115Z TN23/2106Z"
    },
    {
      "icao": "LFBD",
      "alert": "OK",
      "vis_m": 9999,
      "fzfg": false,
      "metar_trigger": false,
      "taf_trigger": false,
      "metar": "METAR LFBD 202330Z AUTO 35007KT 9999 TS ///CB 25/20 Q1020 TEMPO VRB15G35KT 3000 TSRA BECMG NSC",
      "taf": "TAF LFBD 202300Z 2100/2206 VRB03KT CAVOK TX41/2115Z TN22/2105Z"
    },
    {
      "icao": "LFLL",
      "alert": "OK",
      "vis_m": 9999,
      "fzfg": false,
      "metar_trigger": false,
      "taf_trigger": false,
      "metar": "METAR LFLL 202330Z VRB03KT CAVOK 25/13 Q1023 NOSIG",
      "taf": "TAF LFLL 202300Z 2100/2206 18008KT CAVOK"
    },
    {
      "icao": "LFLS",
      "alert": "OK",
      "vis_m": 9999,
      "fzfg": false,
      "metar_trigger": false,
      "taf_trigger": false,
      "metar": "METAR LFLS 202330Z AUTO 14003KT 060V190 CAVOK 20/13 Q1024",
      "taf": "TAF LFLS 201400Z 2015/2115 08005KT CAVOK"
    },
    {
      "icao": "LFMN",
      "alert": "OK",
      "vis_m": 9999,
      "fzfg": false,
      "metar_trigger": false,
      "taf_trigger": false,
      "metar": "METAR LFMN 202330Z VRB03KT CAVOK 24/18 Q1022 NOSIG",
      "taf": "TAF LFMN 202000Z 2021/2203 VRB03KT CAVOK"
    },
    {
      "icao": "LFOB",
      "alert": "OK",
      "vis_m": 9999,
      "fzfg": false,
      "metar_trigger": false,
      "taf_trigger": false,
      "metar": "METAR LFOB 202330Z AUTO 30004KT 260V350 CAVOK 19/17 Q1022 NOSIG",
      "taf": "TAF LFOB 202300Z 2100/2124 36005KT CAVOK"
    },
    {
      "icao": "LFPO",
      "alert": "OK",
      "vis_m": 9999,
      "fzfg": false,
      "metar_trigger": false,
      "taf_trigger": false,
      "metar": "METAR LFPO 202330Z AUTO 33001KT 9999 ///TCU 24/17 Q1021 BECMG NSC",
      "taf": "TAF LFPO 202300Z 2100/2206 04005KT CAVOK"
    },
    {
      "icao": "LFSB",
      "alert": "OK",
      "vis_m": 9999,
      "fzfg": false,
      "metar_trigger": false,
      "taf_trigger": false,
      "metar": "METAR LFSB 202330Z AUTO VRB02KT CAVOK 21/16 Q1023 NOSIG",
      "taf": "TAF LFSB 202300Z 2100/2124 24004KT CAVOK"
    },
    {
      "icao": "LGAV",
      "alert": "OK",
      "vis_m": 9999,
      "fzfg": false,
      "metar_trigger": false,
      "taf_trigger": false,
      "metar": "METAR LGAV 202350Z 36013KT 9999 FEW020 25/08 Q1020 NOSIG",
      "taf": "TAF LGAV 202300Z 2100/2124 35010KT 9999 FEW025"
    },
    {
      "icao": "LGTS",
      "alert": "OK",
      "vis_m": 9999,
      "fzfg": false,
      "metar_trigger": false,
      "taf_trigger": false,
      "metar": "METAR LGTS 202350Z 11003KT 9999 FEW025 22/15 Q1022 NOSIG",
      "taf": "TAF LGTS 202300Z 2100/2124 VRB03KT CAVOK"
    },
    {
      "icao": "LHBP",
      "alert": "OK",
      "vis_m": 9999,
      "fzfg": false,
      "metar_trigger": false,
      "taf_trigger": false,
      "metar": "METAR LHBP 202330Z VRB02KT CAVOK 20/16 Q1023 NOSIG",
      "taf": "TAF LHBP 202315Z 2100/2124 VRB04KT CAVOK"
    },
    {
      "icao": "LHDC",
      "alert": "OK",
      "vis_m": 9999,
      "fzfg": false,
      "metar_trigger": false,
      "taf_trigger": false,
      "metar": "METAR LHDC 202315Z AUTO VRB02KT 9999 //////TCU 22/20 Q1023",
      "taf": "TAF LHDC 201715Z 2018/2103 35008KT CAVOK"
    },
    {
      "icao": "LIBD",
      "alert": "OK",
      "vis_m": 9999,
      "fzfg": false,
      "metar_trigger": false,
      "taf_trigger": false,
      "metar": "METAR LIBD 202350Z 23005KT CAVOK 20/18 Q1022",
      "taf": "TAF LIBD 202300Z 2100/2124 VRB05KT CAVOK"
    },
    {
      "icao": "LIBG",
      "alert": "OK",
      "vis_m": 9999,
      "fzfg": false,
      "metar_trigger": false,
      "taf_trigger": false,
      "metar": "METAR LIBG 202350Z AUTO VRB01KT 9999 NCD 21/14 Q1021",
      "taf": "TAF LIBG 202300Z 2100/2124 VRB05KT 9999 SCT030"
    },
    {
      "icao": "LIBP",
      "alert": "OK",
      "vis_m": 9999,
      "fzfg": false,
      "metar_trigger": false,
      "taf_trigger": false,
      "metar": "METAR LIBP 202350Z AUTO 21003KT 9999 NCD 20/16 Q1022",
      "taf": "TAF LIBP 202300Z 2100/2124 VRB05KT CAVOK"
    },
    {
      "icao": "LIBR",
      "alert": "OK",
      "vis_m": 9999,
      "fzfg": false,
      "metar_trigger": false,
      "taf_trigger": false,
      "metar": "METAR LIBR 202350Z 30003KT CAVOK 22/22 Q1021",
      "taf": "TAF LIBR 202300Z 2100/2124 VRB05KT CAVOK"
    },
    {
      "icao": "LICA",
      "alert": "OK",
      "vis_m": 9999,
      "fzfg": false,
      "metar_trigger": false,
      "taf_trigger": false,
      "metar": "METAR LICA 202350Z AUTO 07004KT 9999 FEW093/// 21/20 Q1022",
      "taf": "TAF LICA 202300Z 2100/2124 VRB05KT 9999 SCT030"
    },
    {
      "icao": "LICC",
      "alert": "OK",
      "vis_m": 9999,
      "fzfg": false,
      "metar_trigger": false,
      "taf_trigger": false,
      "metar": "METAR LICC 202350Z 24003KT CAVOK 22/15 Q1021",
      "taf": "TAF LICC 202300Z 2100/2124 25007KT 9999 FEW040"
    },
    {
      "icao": "LICJ",
      "alert": "OK",
      "vis_m": 9999,
      "fzfg": false,
      "metar_trigger": false,
      "taf_trigger": false,
      "metar": "METAR LICJ 202350Z 09003KT 060V130 CAVOK 24/21 Q1021",
      "taf": "TAF LICJ 202300Z 2100/2124 VRB05KT CAVOK"
    },
    {
      "icao": "LIMC",
      "alert": "OK",
      "vis_m": 9999,
      "fzfg": false,
      "metar_trigger": false,
      "taf_trigger": false,
      "metar": "METAR LIMC 202350Z 03003KT 010V080 CAVOK 23/18 Q1023 NOSIG",
      "taf": "TAF LIMC 202300Z 2100/2206 VRB05KT CAVOK"
    },
    {
      "icao": "LIME",
      "alert": "OK",
      "vis_m": 9999,
      "fzfg": false,
      "metar_trigger": false,
      "taf_trigger": false,
      "metar": "METAR LIME 202350Z 04002KT CAVOK 25/18 Q1023 NOSIG",
      "taf": "TAF LIME 202300Z 2100/2124 VRB05KT 9999 FEW060"
    },
    {
      "icao": "LIMF",
      "alert": "OK",
      "vis_m": 9999,
      "fzfg": false,
      "metar_trigger": false,
      "taf_trigger": false,
      "metar": "METAR LIMF 202320Z 30002KT CAVOK 25/18 Q1023",
      "taf": "TAF LIMF 202300Z 2100/2124 VRB05KT CAVOK"
    },
    {
      "icao": "LIMJ",
      "alert": "OK",
      "vis_m": 9999,
      "fzfg": false,
      "metar_trigger": false,
      "taf_trigger": false,
      "metar": "METAR LIMJ 202350Z 02003KT CAVOK 25/16 Q1022",
      "taf": "TAF LIMJ 202300Z 2100/2124 VRB05KT CAVOK"
    },
    {
      "icao": "LIPE",
      "alert": "OK",
      "vis_m": 9999,
      "fzfg": false,
      "metar_trigger": false,
      "taf_trigger": false,
      "metar": "METAR LIPE 202350Z 06004KT CAVOK 25/19 Q1021",
      "taf": "TAF LIPE 202300Z 2100/2124 VRB05KT CAVOK"
    },
    {
      "icao": "LIPH",
      "alert": "OK",
      "vis_m": 9999,
      "fzfg": false,
      "metar_trigger": false,
      "taf_trigger": false,
      "metar": "METAR LIPH 202350Z AUTO 31004KT 9999 NCD 26/18 Q1022",
      "taf": "TAF LIPH 202300Z 2100/2124 VRB05KT CAVOK"
    },
    {
      "icao": "LIPQ",
      "alert": "OK",
      "vis_m": 9999,
      "fzfg": false,
      "metar_trigger": false,
      "taf_trigger": false,
      "metar": "METAR LIPQ 202350Z AUTO VRB02KT 9999 SCT160/// 23/18 Q1021",
      "taf": "TAF LIPQ 202300Z 2100/2124 VRB05KT CAVOK"
    },
    {
      "icao": "LIPR",
      "alert": "OK",
      "vis_m": 9999,
      "fzfg": false,
      "metar_trigger": false,
      "taf_trigger": false,
      "metar": "METAR LIPR 202350Z AUTO VRB01KT 9999 NCD 23/18 Q1021",
      "taf": "TAF LIPR 202300Z 2100/2124 VRB05KT 9999 FEW030"
    },
    {
      "icao": "LIPX",
      "alert": "OK",
      "vis_m": 9999,
      "fzfg": false,
      "metar_trigger": false,
      "taf_trigger": false,
      "metar": "METAR LIPX 202350Z 06005KT 9999 SCT040CB SCT060 28/19 Q1023",
      "taf": "TAF LIPX 202300Z 2100/2124 VRB05KT 9999 SCT060"
    },
    {
      "icao": "LIPY",
      "alert": "OK",
      "vis_m": 9999,
      "fzfg": false,
      "metar_trigger": false,
      "taf_trigger": false,
      "metar": "METAR LIPY 202350Z AUTO 22002KT 9999 NCD 22/17 Q1021",
      "taf": "TAF LIPY 202300Z 2100/2124 VRB05KT CAVOK"
    },
    {
      "icao": "LIPZ",
      "alert": "OK",
      "vis_m": 9999,
      "fzfg": false,
      "metar_trigger": false,
      "taf_trigger": false,
      "metar": "METAR LIPZ 202350Z 30005KT CAVOK 24/19 Q1022 NOSIG",
      "taf": "TAF LIPZ 202300Z 2100/2206 VRB05KT CAVOK"
    },
    {
      "icao": "LIRF",
      "alert": "OK",
      "vis_m": 9999,
      "fzfg": false,
      "metar_trigger": false,
      "taf_trigger": false,
      "metar": "METAR LIRF 202350Z 05003KT CAVOK 21/20 Q1021 NOSIG",
      "taf": "TAF LIRF 202300Z 2100/2206 VRB05KT CAVOK"
    },
    {
      "icao": "LIRN",
      "alert": "OK",
      "vis_m": 9999,
      "fzfg": false,
      "metar_trigger": false,
      "taf_trigger": false,
      "metar": "METAR LIRN 202350Z 19001KT CAVOK 25/23 Q1022 NOSIG",
      "taf": "TAF LIRN 202300Z 2100/2124 VRB05KT CAVOK"
    },
    {
      "icao": "LIRP",
      "alert": "OK",
      "vis_m": 9999,
      "fzfg": false,
      "metar_trigger": false,
      "taf_trigger": false,
      "metar": "METAR LIRP 202345Z 18002KT CAVOK 20/18 Q1022 NOSIG",
      "taf": "TAF LIRP 202300Z 2100/2124 VRB03KT CAVOK"
    },
    {
      "icao": "LIRZ",
      "alert": "OK",
      "vis_m": 9999,
      "fzfg": false,
      "metar_trigger": false,
      "taf_trigger": false,
      "metar": "METAR LIRZ 202350Z AUTO 01004KT 9999 NCD 22/17 Q1022",
      "taf": "TAF LIRZ 202300Z 2100/2124 VRB05KT CAVOK"
    },
    {
      "icao": "LJLJ",
      "alert": "OK",
      "vis_m": 9999,
      "fzfg": false,
      "metar_trigger": false,
      "taf_trigger": false,
      "metar": "METAR LJLJ 202330Z VRB04KT 9999 FEW055 SCT150 BKN250 17/17 Q1025 NOSIG",
      "taf": "TAF LJLJ 202300Z 2100/2200 VRB02KT 9999 FEW060"
    },
    {
      "icao": "LKMT",
      "alert": "OK",
      "vis_m": 9999,
      "fzfg": false,
      "metar_trigger": false,
      "taf_trigger": false,
      "metar": "METAR LKMT 202330Z 28008KT 9999 VCTS FEW052CB 19/19 Q1023 BECMG NSW",
      "taf": "TAF LKMT 202300Z 2100/2124 VRB02KT CAVOK"
    },
    {
      "icao": "LKPR",
      "alert": "OK",
      "vis_m": 9999,
      "fzfg": false,
      "metar_trigger": false,
      "taf_trigger": false,
      "metar": "METAR LKPR 202330Z VRB01KT CAVOK 19/17 Q1024 NOSIG",
      "taf": "TAF LKPR 202300Z 2100/2206 VRB02KT CAVOK"
    },
    {
      "icao": "LLBG",
      "alert": "OK",
      "vis_m": 9999,
      "fzfg": false,
      "metar_trigger": false,
      "taf_trigger": false,
      "metar": "METAR LLBG 202350Z VRB03KT 9999 BKN028 25/20 Q1013 NOSIG",
      "taf": "TAF LLBG 202309Z 2100/2124 VRB04KT 9999 SCT023 TX30/2111Z TN23/2103Z"
    },
    {
      "icao": "LMML",
      "alert": "OK",
      "vis_m": 9999,
      "fzfg": false,
      "metar_trigger": false,
      "taf_trigger": false,
      "metar": "METAR LMML 202345Z 28003KT CAVOK 24/18 Q1022 NOSIG",
      "taf": "TAF LMML 202300Z 2100/2124 28006KT CAVOK"
    },
    {
      "icao": "LOWW",
      "alert": "OK",
      "vis_m": 9999,
      "fzfg": false,
      "metar_trigger": false,
      "taf_trigger": false,
      "metar": "METAR LOWW 202350Z 33004KT CAVOK 23/16 Q1022 NOSIG",
      "taf": "TAF LOWW 202315Z 2100/2206 29004KT CAVOK TX34/2114Z TN21/2103Z"
    },
    {
      "icao": "LPFR",
      "alert": "OK",
      "vis_m": 9999,
      "fzfg": false,
      "metar_trigger": false,
      "taf_trigger": false,
      "metar": "METAR LPFR 202330Z 19002KT CAVOK 23/21 Q1015",
      "taf": "TAF LPFR 202300Z 2100/2124 VRB02KT CAVOK"
    },
    {
      "icao": "LPMA",
      "alert": "OK",
      "vis_m": 9999,
      "fzfg": false,
      "metar_trigger": false,
      "taf_trigger": false,
      "metar": "METAR LPMA 202330Z 25003KT 9999 FEW016 21/17 Q1020",
      "taf": "TAF LPMA 202300Z 2100/2124 VRB05KT 9999 SCT015"
    },
    {
      "icao": "LPPR",
      "alert": "OK",
      "vis_m": 9999,
      "fzfg": false,
      "metar_trigger": false,
      "taf_trigger": false,
      "metar": "METAR LPPR 202330Z 30002KT 9999 FEW012 17/16 Q1016",
      "taf": "TAF LPPR 202300Z 2100/2124 VRB02KT 9999 FEW012"
    },
    {
      "icao": "LPPS",
      "alert": "OK",
      "vis_m": 9999,
      "fzfg": false,
      "metar_trigger": false,
      "taf_trigger": false,
      "metar": "METAR LPPS 202330Z 31004KT 9999 SCT011 21/19 Q1020",
      "taf": "TAF LPPS 202300Z 2100/2206 VRB05KT 9999 SCT012"
    },
    {
      "icao": "LPPT",
      "alert": "OK",
      "vis_m": 9999,
      "fzfg": false,
      "metar_trigger": false,
      "taf_trigger": false,
      "metar": "METAR LPPT 202330Z 34007KT 290V020 CAVOK 21/15 Q1016",
      "taf": "TAF LPPT 202300Z 2100/2206 34008KT CAVOK"
    },
    {
      "icao": "LQBK",
      "alert": "OK",
      "vis_m": 9999,
      "fzfg": false,
      "metar_trigger": false,
      "taf_trigger": false,
      "metar": "METAR LQBK 202330Z VRB02KT CAVOK 19/16 Q1022 NOSIG",
      "taf": "TAF LQBK 202300Z 2100/2124 16005KT CAVOK TX34/2114Z TN17/2103Z"
    },
    {
      "icao": "LQSA",
      "alert": "OK",
      "vis_m": 9999,
      "fzfg": false,
      "metar_trigger": false,
      "taf_trigger": false,
      "metar": "METAR LQSA 202330Z 13004KT CAVOK 18/14 Q1025",
      "taf": "TAF LQSA 202300Z 2100/2124 VRB02KT CAVOK TX33/2114Z TN15/2103Z"
    },
    {
      "icao": "LQTZ",
      "alert": "OK",
      "vis_m": 9999,
      "fzfg": false,
      "metar_trigger": false,
      "taf_trigger": false,
      "metar": "METAR LQTZ 202330Z VRB02KT CAVOK 16/16 Q1023",
      "taf": "TAF LQTZ 202300Z 2100/2124 05005KT CAVOK TX33/2114Z TN14/2103Z"
    },
    {
      "icao": "LRBC",
      "alert": "OK",
      "vis_m": 9999,
      "fzfg": false,
      "metar_trigger": false,
      "taf_trigger": false,
      "metar": "METAR LRBC 202330Z AUTO 01004KT 9999 NCD 19/17 Q1023",
      "taf": "TAF LRBC 202300Z 2100/2109 VRB04KT CAVOK"
    },
    {
      "icao": "LRBS",
      "alert": "OK",
      "vis_m": 9999,
      "fzfg": false,
      "metar_trigger": false,
      "taf_trigger": false,
      "metar": "METAR LRBS 202330Z VRB02KT CAVOK 21/17 Q1022 NOSIG",
      "taf": "TAF LRBS 202300Z 2100/2124 VRB04KT CAVOK"
    },
    {
      "icao": "LRBV",
      "alert": "OK",
      "vis_m": 9999,
      "fzfg": false,
      "metar_trigger": false,
      "taf_trigger": false,
      "metar": "METAR LRBV 202330Z AUTO 22005KT 9999 NCD 15/14 Q1025",
      "taf": "TAF LRBV 201700Z 2018/2103 30005KT CAVOK"
    },
    {
      "icao": "LRCL",
      "alert": "OK",
      "vis_m": 9999,
      "fzfg": false,
      "metar_trigger": false,
      "taf_trigger": false,
      "metar": "METAR LRCL 202330Z 28004KT 240V310 CAVOK 19/15 Q1023",
      "taf": "TAF LRCL 202300Z 2100/2109 VRB04KT CAVOK"
    },
    {
      "icao": "LRCV",
      "alert": "OK",
      "vis_m": 9999,
      "fzfg": false,
      "metar_trigger": false,
      "taf_trigger": false,
      "metar": "METAR LRCV 202330Z 02003KT CAVOK 20/17 Q1023",
      "taf": "TAF LRCV 202300Z 2100/2109 VRB04KT CAVOK"
    },
    {
      "icao": "LRIA",
      "alert": "OK",
      "vis_m": 9999,
      "fzfg": false,
      "metar_trigger": false,
      "taf_trigger": false,
      "metar": "METAR LRIA 202330Z 01006KT CAVOK 19/15 Q1023",
      "taf": "TAF LRIA 202300Z 2100/2109 36006KT CAVOK"
    },
    {
      "icao": "LROP",
      "alert": "OK",
      "vis_m": 9999,
      "fzfg": false,
      "metar_trigger": false,
      "taf_trigger": false,
      "metar": "METAR LROP 202330Z 30003KT 270V010 CAVOK 21/18 Q1022 NOSIG",
      "taf": "TAF LROP 202300Z 2100/2124 VRB04KT CAVOK"
    },
    {
      "icao": "LRSB",
      "alert": "OK",
      "vis_m": 9999,
      "fzfg": false,
      "metar_trigger": false,
      "taf_trigger": false,
      "metar": "METAR LRSB 202330Z 07003KT 030V100 CAVOK 18/14 Q1024",
      "taf": "TAF LRSB 202300Z 2100/2124 VRB04KT CAVOK"
    },
    {
      "icao": "LRSM",
      "alert": "OK",
      "vis_m": 9999,
      "fzfg": false,
      "metar_trigger": false,
      "taf_trigger": false,
      "metar": "METAR LRSM 202330Z AUTO 35002KT 9999 BKN095/// BKN110/// 21/19 Q1022",
      "taf": "TAF LRSM 202000Z 2021/2106 VRB04KT CAVOK"
    },
    {
      "icao": "LRSV",
      "alert": "OK",
      "vis_m": 9999,
      "fzfg": false,
      "metar_trigger": false,
      "taf_trigger": false,
      "metar": "METAR LRSV 202330Z 01004KT CAVOK 19/15 Q1025",
      "taf": "TAF LRSV 202300Z 2100/2109 36005KT CAVOK"
    },
    {
      "icao": "LRTM",
      "alert": "OK",
      "vis_m": 9999,
      "fzfg": false,
      "metar_trigger": false,
      "taf_trigger": false,
      "metar": "METAR LRTM 202330Z 09004KT CAVOK 17/16 Q1023",
      "taf": "TAF LRTM 202300Z 2100/2109 VRB04KT CAVOK"
    },
    {
      "icao": "LRTR",
      "alert": "OK",
      "vis_m": 9999,
      "fzfg": false,
      "metar_trigger": false,
      "taf_trigger": false,
      "metar": "METAR LRTR 202330Z 34003KT 9999 FEW055CB 23/18 Q1022 NOSIG",
      "taf": "TAF LRTR 202300Z 2100/2124 VRB04KT CAVOK"
    },
    {
      "icao": "LTAC",
      "alert": "OK",
      "vis_m": 9999,
      "fzfg": false,
      "metar_trigger": false,
      "taf_trigger": false,
      "metar": "METAR LTAC 202350Z 07010KT CAVOK 16/11 Q1022 NOSIG RMK RWY21C 05008KT RWY03L 06006KT RWY21R 04006KT RWY03R 06007KT RWY21L 06007KT",
      "taf": "TAF LTAC 202240Z 2100/2124 03008KT CAVOK"
    },
    {
      "icao": "LTFM",
      "alert": "OK",
      "vis_m": 9999,
      "fzfg": false,
      "metar_trigger": false,
      "taf_trigger": false,
      "metar": "METAR LTFM 202350Z 03005KT 340V050 CAVOK 20/18 Q1022 NOSIG RMK RWY17L 34003KT 280V020 RWY34L 34005KT RWY16R 29003KT RWY36 04005KT RWY18 06004KT",
      "taf": "TAF LTFM 202240Z 2100/2206 30006KT CAVOK"
    },
    {
      "icao": "LUKK",
      "alert": "OK",
      "vis_m": 9999,
      "fzfg": false,
      "metar_trigger": false,
      "taf_trigger": false,
      "metar": "METAR LUKK 202330Z 01006KT CAVOK 20/15 Q1023 NOSIG",
      "taf": "TAF LUKK 202309Z 2100/2124 VRB06KT CAVOK"
    },
    {
      "icao": "LWOH",
      "alert": "OK",
      "vis_m": null,
      "fzfg": false,
      "metar_trigger": false,
      "taf_trigger": false,
      "metar": "",
      "taf": "TAF LWOH 202320Z 2100/2124 34005KT CAVOK"
    },
    {
      "icao": "LWSK",
      "alert": "OK",
      "vis_m": 9999,
      "fzfg": false,
      "metar_trigger": false,
      "taf_trigger": false,
      "metar": "METAR LWSK 202300Z 09003KT CAVOK 20/14 Q1023 NOSIG",
      "taf": "TAF LWSK 202320Z 2100/2124 VRB02KT CAVOK"
    },
    {
      "icao": "LYBE",
      "alert": "OK",
      "vis_m": 9999,
      "fzfg": false,
      "metar_trigger": false,
      "taf_trigger": false,
      "metar": "METAR LYBE 202330Z 20003KT CAVOK 23/17 Q1022 NOSIG",
      "taf": "TAF LYBE 202300Z 2100/2124 23004KT CAVOK TX33/2114Z TN20/2103Z"
    },
    {
      "icao": "LYNI",
      "alert": "OK",
      "vis_m": 9999,
      "fzfg": false,
      "metar_trigger": false,
      "taf_trigger": false,
      "metar": "METAR LYNI 202330Z 10002KT CAVOK 20/15 Q1023 NOSIG",
      "taf": "TAF LYNI 202300Z 2100/2124 09005KT CAVOK TX34/2113Z TN15/2103Z"
    },
    {
      "icao": "LYPG",
      "alert": "OK",
      "vis_m": 9999,
      "fzfg": false,
      "metar_trigger": false,
      "taf_trigger": false,
      "metar": "METAR LYPG 202330Z 00000KT CAVOK 25/13 Q1021 NOSIG",
      "taf": "TAF LYPG 202300Z 2100/2124 36008KT CAVOK TX35/2113Z TN21/2103Z"
    },
    {
      "icao": "LZIB",
      "alert": "OK",
      "vis_m": 9999,
      "fzfg": false,
      "metar_trigger": false,
      "taf_trigger": false,
      "metar": "METAR LZIB 202330Z 09006KT CAVOK 23/17 Q1022 NOSIG",
      "taf": "TAF LZIB 202315Z 2100/2200 22006KT CAVOK"
    },
    {
      "icao": "LZKZ",
      "alert": "OK",
      "vis_m": 9999,
      "fzfg": false,
      "metar_trigger": false,
      "taf_trigger": false,
      "metar": "METAR LZKZ 202330Z VRB01KT CAVOK 18/16 Q1023 NOSIG",
      "taf": "TAF LZKZ 202315Z 2100/2200 34009KT CAVOK"
    },
    {
      "icao": "LZTT",
      "alert": "OK",
      "vis_m": 9999,
      "fzfg": false,
      "metar_trigger": false,
      "taf_trigger": false,
      "metar": "METAR LZTT 202330Z 30003KT 260V330 9999 VCTS SCT060CB 18/18 Q1025 RESHRA",
      "taf": "TAF LZTT 202315Z 2100/2200 27007KT 9999 BKN055"
    },
    {
      "icao": "OEJN",
      "alert": "OK",
      "vis_m": 9999,
      "fzfg": false,
      "metar_trigger": false,
      "taf_trigger": false,
      "metar": "METAR OEJN 210000Z 27003KT CAVOK 32/17 Q1005 NOSIG",
      "taf": "TAF OEJN 202300Z 2100/2206 VRB03KT CAVOK"
    },
    {
      "icao": "OEMA",
      "alert": "OK",
      "vis_m": 9999,
      "fzfg": false,
      "metar_trigger": false,
      "taf_trigger": false,
      "metar": "METAR OEMA 210000Z 31004KT CAVOK 36/M03 Q1010 NOSIG",
      "taf": "TAF OEMA 202300Z 2100/2206 VRB03KT CAVOK"
    },
    {
      "icao": "OJAI",
      "alert": "OK",
      "vis_m": 5000,
      "fzfg": false,
      "metar_trigger": false,
      "taf_trigger": false,
      "metar": "METAR OJAI 202300Z 31006KT 5000 HZ NSC 19/14 Q1016 NOSIG",
      "taf": "TAF OJAI 202300Z 2100/2206 29010KT 5000 HZ NSC"
    },
    {
      "icao": "OMAA",
      "alert": "OK",
      "vis_m": 9999,
      "fzfg": false,
      "metar_trigger": false,
      "taf_trigger": false,
      "metar": "METAR OMAA 210000Z 32006KT 270V360 CAVOK 33/22 Q1002 NOSIG",
      "taf": "TAF OMAA 202300Z 2100/2206 19005KT CAVOK"
    },
    {
      "icao": "OMDB",
      "alert": "OK",
      "vis_m": 9000,
      "fzfg": false,
      "metar_trigger": false,
      "taf_trigger": false,
      "metar": "METAR OMDB 210000Z 20006KT 9000 NSC 32/22 Q1002 NOSIG",
      "taf": "TAF OMDB 202300Z 2100/2206 18005KT CAVOK"
    },
    {
      "icao": "UAAA",
      "alert": "OK",
      "vis_m": 9999,
      "fzfg": false,
      "metar_trigger": false,
      "taf_trigger": false,
      "metar": "METAR UAAA 202330Z 21003MPS 9999 FEW050CB BKN100 22/11 Q1012 NOSIG",
      "taf": "TAF UAAA 202302Z 2100/2124 30003MPS 9999 SCT050CB BKN100 TX32/2110Z TN20/2101Z"
    },
    {
      "icao": "UBBB",
      "alert": "OK",
      "vis_m": 9999,
      "fzfg": false,
      "metar_trigger": false,
      "taf_trigger": false,
      "metar": "METAR UBBB 210000Z 34016KT CAVOK 25/19 Q1012 NOSIG",
      "taf": "TAF UBBB 202300Z 2100/2124 33020G30KT CAVOK TX27/2109Z TN24/2101Z"
    },
    {
      "icao": "UDSG",
      "alert": "OK",
      "vis_m": 9999,
      "fzfg": false,
      "metar_trigger": false,
      "taf_trigger": false,
      "metar": "METAR UDSG 202330Z 18001KT 9999 FEW049 11/10 Q1021 NOSIG",
      "taf": "TAF UDSG 202258Z 2100/2124 24006KT 9999 SCT050"
    },
    {
      "icao": "UDYZ",
      "alert": "OK",
      "vis_m": 9999,
      "fzfg": false,
      "metar_trigger": false,
      "taf_trigger": false,
      "metar": "METAR UDYZ 202330Z 06003KT 030V100 9999 NSC 18/11 Q1014 NOSIG",
      "taf": "TAF UDYZ 202300Z 2100/2124 07006KT 9999 FEW040"
    },
    {
      "icao": "UGKO",
      "alert": "OK",
      "vis_m": 7000,
      "fzfg": false,
      "metar_trigger": false,
      "taf_trigger": false,
      "metar": "METAR UGKO 202330Z 02003KT 330V040 7000 -RA SCT026 OVC050 19/18 Q1018 NOSIG",
      "taf": "TAF UGKO 202300Z 2100/2124 25007KT 9999 SCT030 OVC050 TX25/2111Z TN19/2102Z"
    }
  ]
}