{
  "ts_utc": "2026-01-07T23:32:52Z",
  "threshold_m": 150,
  "source": "stations_override.txt (ICAO list) + aviationweather.gov (METAR/TAF raw)",
  "station_count": 159,
  "stations": [
    {
      "icao": "BIKF",
      "alert": "OK",
      "vis_m": 9999,
      "fzfg": false,
      "metar_trigger": false,
      "taf_trigger": false,
      "metar": "METAR BIKF 072300Z 07012KT CAVOK M01/M08 Q1002",
      "taf": "TAF BIKF 072219Z 0800/0900 07018KT 9999 FEW045 TX02/0816Z TNM02/0800Z"
    },
    {
      "icao": "BKPR",
      "alert": "OK",
      "vis_m": 9999,
      "fzfg": false,
      "metar_trigger": false,
      "taf_trigger": false,
      "metar": "METAR BKPR 072330Z 35023KT 9999 -SN BKN015 OVC025 M03/M04 Q1002 NOSIG",
      "taf": "TAF BKPR 072330Z 0800/0824 34012KT 9999 SCT020 BKN040"
    },
    {
      "icao": "EBCI",
      "alert": "OK",
      "vis_m": 7000,
      "fzfg": false,
      "metar_trigger": false,
      "taf_trigger": false,
      "metar": "METAR EBCI 072320Z 22009KT 7000 FEW005 M00/M01 Q1007 NOSIG",
      "taf": "TAF EBCI 072300Z 0800/0906 21007KT 9999 SCT030"
    },
    {
      "icao": "EDDB",
      "alert": "OK",
      "vis_m": 9999,
      "fzfg": false,
      "metar_trigger": false,
      "taf_trigger": false,
      "metar": "METAR EDDB 072320Z AUTO 14008KT CAVOK M08/M11 Q1011 NOSIG",
      "taf": "TAF EDDB 072300Z 0800/0824 13006KT 9999 SCT030 BKN040"
    },
    {
      "icao": "EDDH",
      "alert": "OK",
      "vis_m": 9999,
      "fzfg": false,
      "metar_trigger": false,
      "taf_trigger": false,
      "metar": "METAR EDDH 072320Z AUTO 14010KT 9999 FEW017 BKN028 OVC032 M02/M05 Q1005 TEMPO BKN014",
      "taf": "TAF EDDH 072300Z 0800/0906 15012KT 9999 BKN020"
    },
    {
      "icao": "EDDK",
      "alert": "OK",
      "vis_m": 9999,
      "fzfg": false,
      "metar_trigger": false,
      "taf_trigger": false,
      "metar": "METAR EDDK 072320Z AUTO 15007KT 9999 SCT021 M01/M03 Q1007 NOSIG",
      "taf": "TAF EDDK 072300Z 0800/0906 16008KT 9999 OVC020"
    },
    {
      "icao": "EDDN",
      "alert": "OK",
      "vis_m": 9999,
      "fzfg": false,
      "metar_trigger": false,
      "taf_trigger": false,
      "metar": "METAR EDDN 072320Z AUTO 12005KT 9999 BKN042 M07/M11 Q1010",
      "taf": "TAF EDDN 072300Z 0800/0824 13007KT 9999 FEW010 BKN020"
    },
    {
      "icao": "EDDS",
      "alert": "OK",
      "vis_m": 9999,
      "fzfg": false,
      "metar_trigger": false,
      "taf_trigger": false,
      "metar": "METAR EDDS 072320Z AUTO VRB02KT 9999 OVC018 M03/M06 Q1009",
      "taf": ""
    },
    {
      "icao": "EDFH",
      "alert": "OK",
      "vis_m": 9999,
      "fzfg": false,
      "metar_trigger": false,
      "taf_trigger": false,
      "metar": "METAR EDFH 072320Z 25009KT 210V280 9999 -SN OVC004 M03/M04 Q1007",
      "taf": "TAF EDFH 071700Z 0718/0818 20009KT 6000 BKN015"
    },
    {
      "icao": "EDJA",
      "alert": "OK",
      "vis_m": 3100,
      "fzfg": false,
      "metar_trigger": false,
      "taf_trigger": false,
      "metar": "METAR EDJA 072320Z AUTO 22013KT 3100 // BKN028/// BKN033/// OVC041/// M05/M07 Q1009",
      "taf": "TAF EDJA 071700Z 0718/0803 18005KT CAVOK"
    },
    {
      "icao": "EDLW",
      "alert": "OK",
      "vis_m": 9999,
      "fzfg": false,
      "metar_trigger": false,
      "taf_trigger": false,
      "metar": "METAR EDLW 072320Z AUTO 19012KT 9999 // OVC014/// M00/M03 Q1005",
      "taf": "TAF EDLW 071700Z 0718/0818 18015G25KT 9999 BKN020"
    },
    {
      "icao": "EDNY",
      "alert": "OK",
      "vis_m": 9999,
      "fzfg": false,
      "metar_trigger": false,
      "taf_trigger": false,
      "metar": "METAR EDNY 072320Z AUTO 22011KT 9999 // FEW009/// SCT015/// OVC019/// M02/M05 Q1012",
      "taf": "TAF EDNY 071700Z 0718/0803 VRB02KT CAVOK"
    },
    {
      "icao": "EDSB",
      "alert": "OK",
      "vis_m": 9999,
      "fzfg": false,
      "metar_trigger": false,
      "taf_trigger": false,
      "metar": "METAR EDSB 072320Z AUTO 20014KT 9999 // OVC028/// M01/M04 Q1012",
      "taf": "TAF EDSB 071700Z 0718/0818 20006KT 9999 BKN025"
    },
    {
      "icao": "EETN",
      "alert": "OK",
      "vis_m": 9999,
      "fzfg": false,
      "metar_trigger": false,
      "taf_trigger": false,
      "metar": "METAR EETN 072320Z VRB02KT 9999 OVC024 M07/M08 Q1017",
      "taf": "TAF EETN 072330Z 0800/0824 VRB02KT 9999 OVC020"
    },
    {
      "icao": "EFTU",
      "alert": "OK",
      "vis_m": 9999,
      "fzfg": false,
      "metar_trigger": false,
      "taf_trigger": false,
      "metar": "METAR EFTU 072320Z AUTO 10010KT 9999 BKN014 OVC023 M09/M11 Q1017",
      "taf": ""
    },
    {
      "icao": "EGBB",
      "alert": "OK",
      "vis_m": 9999,
      "fzfg": false,
      "metar_trigger": false,
      "taf_trigger": false,
      "metar": "METAR EGBB 072320Z 24004KT CAVOK 03/M01 Q1004",
      "taf": "TAF EGBB 072304Z 0800/0824 22006KT 9999 SCT025"
    },
    {
      "icao": "EGGP",
      "alert": "OK",
      "vis_m": 9999,
      "fzfg": false,
      "metar_trigger": false,
      "taf_trigger": false,
      "metar": "METAR EGGP 072320Z 19002KT 9999 BKN035 02/M01 Q1004",
      "taf": "TAF EGGP 072255Z 0800/0824 17003KT 9999 SCT025"
    },
    {
      "icao": "EGGW",
      "alert": "OK",
      "vis_m": 9999,
      "fzfg": false,
      "metar_trigger": false,
      "taf_trigger": false,
      "metar": "METAR EGGW 072320Z AUTO 26009KT 9999 NCD 02/M00 Q1005",
      "taf": "TAF EGGW 072258Z 0800/0824 25005KT 9999 SCT030"
    },
    {
      "icao": "EGKK",
      "alert": "OK",
      "vis_m": 9999,
      "fzfg": false,
      "metar_trigger": false,
      "taf_trigger": false,
      "metar": "METAR EGKK 072320Z 19003KT 140V210 CAVOK 02/01 Q1006",
      "taf": "TAF EGKK 072253Z 0800/0906 20004KT 9999 FEW035"
    },
    {
      "icao": "EGNM",
      "alert": "OK",
      "vis_m": null,
      "fzfg": false,
      "metar_trigger": false,
      "taf_trigger": false,
      "metar": "",
      "taf": "TAF EGNM 071656Z 0718/0818 25012KT 9999 FEW015"
    },
    {
      "icao": "EGPD",
      "alert": "OK",
      "vis_m": 1800,
      "fzfg": false,
      "metar_trigger": false,
      "taf_trigger": false,
      "metar": "METAR EGPD 072320Z AUTO VRB02KT 1800 -SN BKN005/// OVC016/// //////CB 01/00 Q1002 TEMPO 4000 RA BKN012",
      "taf": "TAF EGPD 072257Z 0800/0824 17005KT 9999 BKN018"
    },
    {
      "icao": "EGPF",
      "alert": "OK",
      "vis_m": 9999,
      "fzfg": false,
      "metar_trigger": false,
      "taf_trigger": false,
      "metar": "METAR EGPF 072320Z AUTO VRB01KT 9999 NCD M01/M02 Q1003",
      "taf": "TAF EGPF 072254Z 0800/0824 VRB04KT 9999 FEW040"
    },
    {
      "icao": "EHBK",
      "alert": "OK",
      "vis_m": 9999,
      "fzfg": false,
      "metar_trigger": false,
      "taf_trigger": false,
      "metar": "METAR EHBK 072325Z AUTO 21014KT 9999 FEW012/// SCT029/// BKN033/// 01/M01 Q1006",
      "taf": "TAF EHBK 072321Z 0800/0906 20014KT 9999 OVC015"
    },
    {
      "icao": "EHEH",
      "alert": "OK",
      "vis_m": 9999,
      "fzfg": false,
      "metar_trigger": false,
      "taf_trigger": false,
      "metar": "METAR EHEH 072325Z AUTO 22012KT 9999 SCT042 OVC047 02/M00 Q1005 BLU",
      "taf": "TAF EHEH 071753Z 0718/0824 20010KT 9999 SCT008 BKN010"
    },
    {
      "icao": "EKBI",
      "alert": "OK",
      "vis_m": 3500,
      "fzfg": false,
      "metar_trigger": false,
      "taf_trigger": false,
      "metar": "METAR EKBI 072320Z 15010KT 3500 -SN DRSN BKN007 M02/M03 Q1002",
      "taf": "TAF EKBI 072327Z 0800/0824 16010KT 6000 -SN SCT005 BKN010"
    },
    {
      "icao": "EKCH",
      "alert": "OK",
      "vis_m": 9999,
      "fzfg": false,
      "metar_trigger": false,
      "taf_trigger": false,
      "metar": "METAR EKCH 072320Z AUTO 18016KT 9999 BKN017/// M01/M04 Q1007 TEMPO 17015G25KT",
      "taf": "TAF EKCH 072327Z 0800/0824 17015KT 9999 BKN016"
    },
    {
      "icao": "ENAL",
      "alert": "OK",
      "vis_m": 9999,
      "fzfg": false,
      "metar_trigger": false,
      "taf_trigger": false,
      "metar": "METAR ENAL 072320Z AUTO 11015KT 9999 NCD M04/M12 Q1005",
      "taf": "TAF ENAL 072000Z 0721/0806 13012KT CAVOK"
    },
    {
      "icao": "ENBR",
      "alert": "OK",
      "vis_m": 9999,
      "fzfg": false,
      "metar_trigger": false,
      "taf_trigger": false,
      "metar": "METAR ENBR 072320Z 09003KT CAVOK M09/M15 Q1004 RMK WIND 1200FT VRB02KT",
      "taf": "TAF ENBR 071700Z 0718/0818 06005KT CAVOK"
    },
    {
      "icao": "ENGM",
      "alert": "OK",
      "vis_m": 1800,
      "fzfg": false,
      "metar_trigger": false,
      "taf_trigger": false,
      "metar": "METAR ENGM 072320Z 01010KT 1800 SN BR VV010 M07/M09 Q1002",
      "taf": "TAF ENGM 071700Z 0718/0818 01003KT 9999 FEW015 BKN020"
    },
    {
      "icao": "ENHD",
      "alert": "OK",
      "vis_m": 9999,
      "fzfg": false,
      "metar_trigger": false,
      "taf_trigger": false,
      "metar": "METAR ENHD 072320Z AUTO 05005KT 9999 NCD M11/M13 Q1004",
      "taf": "TAF ENHD 071400Z 0715/0723 07008KT CAVOK"
    },
    {
      "icao": "ENTC",
      "alert": "OK",
      "vis_m": 9999,
      "fzfg": false,
      "metar_trigger": false,
      "taf_trigger": false,
      "metar": "METAR ENTC 072320Z 09002KT CAVOK M13/M15 Q1022 RMK WIND 2600FT 08011KT",
      "taf": "TAF ENTC 071700Z 0718/0818 VRB05KT CAVOK"
    },
    {
      "icao": "ENTO",
      "alert": "OK",
      "vis_m": 3800,
      "fzfg": false,
      "metar_trigger": false,
      "taf_trigger": false,
      "metar": "METAR ENTO 072320Z AUTO 35012KT 3800 -SN OVC033/// M07/M09 Q1002",
      "taf": "TAF ENTO 071700Z 0718/0818 36015KT 9999 -SN BKN012"
    },
    {
      "icao": "ENVA",
      "alert": "OK",
      "vis_m": 9999,
      "fzfg": false,
      "metar_trigger": false,
      "taf_trigger": false,
      "metar": "METAR ENVA 072320Z 07010KT 030V090 CAVOK M07/M13 Q1010 RMK WIND 670FT 09015KT",
      "taf": "TAF ENVA 071700Z 0718/0818 11008KT 9999 -SN FEW025 SCT050"
    },
    {
      "icao": "ENZV",
      "alert": "OK",
      "vis_m": 9999,
      "fzfg": false,
      "metar_trigger": false,
      "taf_trigger": false,
      "metar": "METAR ENZV 072320Z AUTO 00000KT 9999 NCD M12/M14 Q1003",
      "taf": "TAF ENZV 071700Z 0718/0818 05008KT CAVOK"
    },
    {
      "icao": "EPGD",
      "alert": "OK",
      "vis_m": 5000,
      "fzfg": false,
      "metar_trigger": false,
      "taf_trigger": false,
      "metar": "METAR EPGD 072300Z 17007KT 5000 -SG BR OVC002 M09/M10 Q1014",
      "taf": "TAF EPGD 072330Z 0800/0824 17005KT 6000 OVC002"
    },
    {
      "icao": "EPKK",
      "alert": "OK",
      "vis_m": 4800,
      "fzfg": false,
      "metar_trigger": false,
      "taf_trigger": false,
      "metar": "METAR EPKK 072300Z VRB02KT 4800 -SN BR BKN016 M06/M08 Q1010",
      "taf": "TAF EPKK 072330Z 0800/0824 04003KT 5000 -SN BR FEW008 BKN017"
    },
    {
      "icao": "EPKT",
      "alert": "OK",
      "vis_m": 9000,
      "fzfg": false,
      "metar_trigger": false,
      "taf_trigger": false,
      "metar": "METAR EPKT 072300Z 35003KT 310V010 9000 -SN SCT008 OVC018 M07/M09 Q1010",
      "taf": "TAF EPKT 072330Z 0800/0824 34005KT 8000 -SN SCT012 BKN018"
    },
    {
      "icao": "EPLB",
      "alert": "OK",
      "vis_m": 3400,
      "fzfg": false,
      "metar_trigger": false,
      "taf_trigger": false,
      "metar": "METAR EPLB 072300Z 02007KT 3400 -SN BR OVC035 M06/M07 Q1011",
      "taf": "TAF EPLB 072330Z 0800/0824 03010KT 4000 -SN BR OVC030"
    },
    {
      "icao": "EPMO",
      "alert": "OK",
      "vis_m": 3500,
      "fzfg": false,
      "metar_trigger": false,
      "taf_trigger": false,
      "metar": "METAR EPMO 072300Z 36003KT 3500 BR NSC M13/M14 Q1014",
      "taf": "TAF EPMO 072330Z 0800/0824 VRB02KT 3500 BR NSC"
    },
    {
      "icao": "EPPO",
      "alert": "OK",
      "vis_m": 5000,
      "fzfg": false,
      "metar_trigger": false,
      "taf_trigger": false,
      "metar": "METAR EPPO 072300Z 13008KT 5000 BR OVC006 M06/M08 Q1013",
      "taf": "TAF EPPO 072330Z 0800/0824 14006KT 5000 BR OVC006"
    },
    {
      "icao": "EPRA",
      "alert": "OK",
      "vis_m": 3400,
      "fzfg": false,
      "metar_trigger": false,
      "taf_trigger": false,
      "metar": "METAR EPRA 072300Z 03004KT 3400 -SN BR SCT006 OVC025 M08/M10 Q1012",
      "taf": "TAF EPRA 072330Z 0800/0809 01006KT 4000 -SN BR SCT006 OVC020"
    },
    {
      "icao": "EPRZ",
      "alert": "OK",
      "vis_m": 3000,
      "fzfg": false,
      "metar_trigger": false,
      "taf_trigger": false,
      "metar": "METAR EPRZ 072300Z 02006KT 3000 -SN BR BKN005 M05/M06 Q1009",
      "taf": "TAF EPRZ 072330Z 0800/0824 02007KT 4000 -SN BR BKN006"
    },
    {
      "icao": "EPSC",
      "alert": "OK",
      "vis_m": 9999,
      "fzfg": false,
      "metar_trigger": false,
      "taf_trigger": false,
      "metar": "METAR EPSC 072300Z 13008KT CAVOK M07/M10 Q1012",
      "taf": "TAF EPSC 072330Z 0800/0824 13008KT CAVOK"
    },
    {
      "icao": "EPSY",
      "alert": "OK",
      "vis_m": 4900,
      "fzfg": false,
      "metar_trigger": false,
      "taf_trigger": false,
      "metar": "METAR EPSY 072300Z 00000KT 4900 BR FEW002 BKN034 M17/M19 Q1015",
      "taf": "TAF EPSY 072330Z 0800/0809 VRB02KT 5000 BR NSC"
    },
    {
      "icao": "EPWA",
      "alert": "OK",
      "vis_m": 4900,
      "fzfg": false,
      "metar_trigger": false,
      "taf_trigger": false,
      "metar": "METAR EPWA 072300Z 04003KT 360V110 4900 BR FEW006 M09/M10 Q1014 NOSIG",
      "taf": "TAF EPWA 072330Z 0800/0824 04004KT 5000 BR SCT006"
    },
    {
      "icao": "EPWR",
      "alert": "OK",
      "vis_m": 3200,
      "fzfg": false,
      "metar_trigger": false,
      "taf_trigger": false,
      "metar": "METAR EPWR 072300Z 12002KT 3200 BR FEW030 M09/M10 Q1013",
      "taf": "TAF EPWR 072330Z 0800/0824 VRB02KT 3500 BR SCT026"
    },
    {
      "icao": "ESGG",
      "alert": "OK",
      "vis_m": 9999,
      "fzfg": false,
      "metar_trigger": false,
      "taf_trigger": false,
      "metar": "METAR ESGG 072320Z 16011KT 9999 OVC010 M02/M04 Q1003",
      "taf": "TAF ESGG 072330Z 0800/0824 16014KT 9999 -SN SCT010 BKN015"
    },
    {
      "icao": "ESKN",
      "alert": "OK",
      "vis_m": 9999,
      "fzfg": false,
      "metar_trigger": false,
      "taf_trigger": false,
      "metar": "METAR ESKN 072320Z 18006KT CAVOK M01/M02 Q1010",
      "taf": "TAF ESKN 072330Z 0800/0824 18007KT 9999 BKN045"
    },
    {
      "icao": "ESMS",
      "alert": "OK",
      "vis_m": 9999,
      "fzfg": false,
      "metar_trigger": false,
      "taf_trigger": false,
      "metar": "METAR ESMS 072320Z 17013KT CAVOK M03/M06 Q1007",
      "taf": "TAF ESMS 072327Z 0800/0824 17014KT 9999 BKN016"
    },
    {
      "icao": "ESSA",
      "alert": "OK",
      "vis_m": 450,
      "fzfg": false,
      "metar_trigger": false,
      "taf_trigger": false,
      "metar": "METAR ESSA 072320Z 17005KT 0450 R01L/P2000N R19R/P2000N R01R/P2000N R19L/P2000N SN VV006 M02/M02 Q1011 NOSIG",
      "taf": "TAF ESSA 072330Z 0800/0824 17006KT 5000 -SN SCT015 BKN030"
    },
    {
      "icao": "EYKA",
      "alert": "OK",
      "vis_m": 3100,
      "fzfg": false,
      "metar_trigger": false,
      "taf_trigger": false,
      "metar": "METAR EYKA 072320Z VRB01KT 3100 BR OVC002 M08/M08 Q1016",
      "taf": "TAF EYKA 072316Z 0800/0824 VRB03KT 3000 BR OVC002"
    },
    {
      "icao": "EYPA",
      "alert": "OK",
      "vis_m": 900,
      "fzfg": true,
      "metar_trigger": false,
      "taf_trigger": false,
      "metar": "METAR EYPA 072320Z 19005KT 0900 R19/1100N FZFG VV002 M04/M05 Q1016",
      "taf": "TAF EYPA 072325Z 0800/0824 VRB03KT 1500 BR OVC002"
    },
    {
      "icao": "EYVI",
      "alert": "OK",
      "vis_m": 6000,
      "fzfg": false,
      "metar_trigger": false,
      "taf_trigger": false,
      "metar": "METAR EYVI 072320Z VRB02KT 6000 OVC001 M08/M09 Q1015 NOSIG",
      "taf": "TAF EYVI 072314Z 0800/0824 VRB03KT 5000 BR OVC002"
    },
    {
      "icao": "GCFV",
      "alert": "OK",
      "vis_m": 9999,
      "fzfg": false,
      "metar_trigger": false,
      "taf_trigger": false,
      "metar": "METAR GCFV 072300Z 03021KT 9999 SCT038 17/10 Q1029",
      "taf": "TAF GCFV 072000Z 0721/0821 05019KT 9999 FEW035 TX20/0814Z TN14/0806Z"
    },
    {
      "icao": "GCLP",
      "alert": "OK",
      "vis_m": 9999,
      "fzfg": false,
      "metar_trigger": false,
      "taf_trigger": false,
      "metar": "METAR GCLP 072300Z 02017KT 9999 FEW040 BKN045 18/10 Q1030 NOSIG",
      "taf": "TAF GCLP 072000Z 0721/0821 03019KT 9999 SCT035 TX20/0814Z TN14/0806Z"
    },
    {
      "icao": "GCTS",
      "alert": "OK",
      "vis_m": 9999,
      "fzfg": false,
      "metar_trigger": false,
      "taf_trigger": false,
      "metar": "METAR GCTS 072300Z 08023KT 9999 BKN040 17/09 Q1029 NOSIG",
      "taf": "TAF GCTS 072000Z 0721/0821 05019KT 9999 FEW035 TX23/0814Z TN16/0806Z"
    },
    {
      "icao": "GMAD",
      "alert": "OK",
      "vis_m": 9999,
      "fzfg": false,
      "metar_trigger": false,
      "taf_trigger": false,
      "metar": "METAR GMAD 072300Z 08005KT CAVOK 08/06 Q1028 NOSIG",
      "taf": "TAF GMAD 072300Z 0800/0906 07006KT CAVOK"
    },
    {
      "icao": "GMMN",
      "alert": "OK",
      "vis_m": 9999,
      "fzfg": false,
      "metar_trigger": false,
      "taf_trigger": false,
      "metar": "METAR GMMN 072300Z 16005KT CAVOK 06/04 Q1032 NOSIG",
      "taf": "TAF GMMN 072300Z 0800/0906 16005KT CAVOK"
    },
    {
      "icao": "GMMX",
      "alert": "OK",
      "vis_m": 9999,
      "fzfg": false,
      "metar_trigger": false,
      "taf_trigger": false,
      "metar": "METAR GMMX 072300Z 11004KT CAVOK 07/03 Q1030 NOSIG",
      "taf": "TAF GMMX 072300Z 0800/0906 22006KT 8000 NSC"
    },
    {
      "icao": "HEGN",
      "alert": "OK",
      "vis_m": null,
      "fzfg": false,
      "metar_trigger": false,
      "taf_trigger": false,
      "metar": "",
      "taf": "TAF HEGN 072300Z 0800/0906 28010KT CAVOK"
    },
    {
      "icao": "HEMA",
      "alert": "OK",
      "vis_m": 9999,
      "fzfg": false,
      "metar_trigger": false,
      "taf_trigger": false,
      "metar": "METAR HEMA 072300Z 30010KT CAVOK 20/08 Q1018 NOSIG",
      "taf": "TAF HEMA 072300Z 0800/0906 29012KT 6000 NSC"
    },
    {
      "icao": "HESH",
      "alert": "OK",
      "vis_m": 9999,
      "fzfg": false,
      "metar_trigger": false,
      "taf_trigger": false,
      "metar": "METAR HESH 072300Z 32005KT CAVOK 19/11 Q1020 NOSIG",
      "taf": "TAF HESH 072300Z 0800/0906 32009KT CAVOK"
    },
    {
      "icao": "HESX",
      "alert": "OK",
      "vis_m": 4000,
      "fzfg": false,
      "metar_trigger": false,
      "taf_trigger": false,
      "metar": "METAR HESX 072300Z 08003KT 4000 BR NSC 12/09 Q1019 NOSIG",
      "taf": "TAF HESX 072300Z 0800/0906 13007KT 6000 NSC"
    },
    {
      "icao": "LATI",
      "alert": "OK",
      "vis_m": 9999,
      "fzfg": false,
      "metar_trigger": false,
      "taf_trigger": false,
      "metar": "METAR LATI 072320Z 17006KT 9999 RA SCT015 OVC041 10/08 Q1003 NOSIG",
      "taf": "TAF LATI 072300Z 0800/0824 17008KT 9999 -RA SCT025 OVC050 TX09/0805Z TN02/0823Z"
    },
    {
      "icao": "LBPD",
      "alert": "OK",
      "vis_m": 450,
      "fzfg": false,
      "metar_trigger": false,
      "taf_trigger": false,
      "metar": "METAR LBPD 072330Z AUTO VRB01KT 0450 0400E R30/0500N -SHRA FG VV002 09/09 Q0999",
      "taf": "TAF LBPD 072300Z 0800/0824 VRB04KT 1500 BR SCT040 BKN060"
    },
    {
      "icao": "LBSF",
      "alert": "OK",
      "vis_m": 6000,
      "fzfg": false,
      "metar_trigger": false,
      "taf_trigger": false,
      "metar": "METAR LBSF 072330Z AUTO 31009KT 280V340 6000 RASN FEW005/// OVC034/// 04/03 Q0999 RESHRA BECMG 3000 SNRA SCT004 BKN010",
      "taf": "TAF LBSF 072300Z 0800/0824 28014G30KT 3000 SNRA SCT005 BKN010 OVC015"
    },
    {
      "icao": "LBWN",
      "alert": "OK",
      "vis_m": 9999,
      "fzfg": false,
      "metar_trigger": false,
      "taf_trigger": false,
      "metar": "METAR LBWN 072330Z AUTO 10008KT 9999 FEW008/// 12/12 Q1003 NOSIG",
      "taf": "TAF LBWN 072300Z 0800/0824 12010KT 9999 SCT015 BKN025"
    },
    {
      "icao": "LCLK",
      "alert": "OK",
      "vis_m": 9999,
      "fzfg": false,
      "metar_trigger": false,
      "taf_trigger": false,
      "metar": "METAR LCLK 072300Z 31003KT CAVOK 12/12 Q1021 NOSIG",
      "taf": "TAF LCLK 072330Z 0800/0900 32006KT 9999 FEW025"
    },
    {
      "icao": "LCPH",
      "alert": "OK",
      "vis_m": 9999,
      "fzfg": false,
      "metar_trigger": false,
      "taf_trigger": false,
      "metar": "METAR LCPH 072300Z 10004KT CAVOK 15/05 Q1020 NOSIG",
      "taf": "TAF LCPH 072330Z 0800/0900 07007KT 9999 FEW025"
    },
    {
      "icao": "LEAL",
      "alert": "OK",
      "vis_m": 9999,
      "fzfg": false,
      "metar_trigger": false,
      "taf_trigger": false,
      "metar": "METAR LEAL 072300Z 24008KT 210V280 CAVOK 11/02 Q1026 NOSIG",
      "taf": "TAF LEAL 072300Z 0800/0824 29010KT CAVOK TX16/0814Z TN07/0806Z"
    },
    {
      "icao": "LEBB",
      "alert": "OK",
      "vis_m": 9999,
      "fzfg": false,
      "metar_trigger": false,
      "taf_trigger": false,
      "metar": "METAR LEBB 072300Z 27006KT 220V300 9999 BKN029 11/08 Q1024 NOSIG",
      "taf": "TAF LEBB 072300Z 0800/0824 22009KT 9999 SCT020 BKN050 TX14/0814Z TN08/0803Z"
    },
    {
      "icao": "LEBL",
      "alert": "OK",
      "vis_m": 9999,
      "fzfg": false,
      "metar_trigger": false,
      "taf_trigger": false,
      "metar": "METAR LEBL 072300Z 33007KT 9999 FEW020 SCT060 06/01 Q1020 NOSIG",
      "taf": "TAF LEBL 072300Z 0800/0824 33008KT 9999 FEW020 TX15/0813Z TN04/0806Z"
    },
    {
      "icao": "LECH",
      "alert": "OK",
      "vis_m": 9999,
      "fzfg": false,
      "metar_trigger": false,
      "taf_trigger": false,
      "metar": "METAR LECH 072300Z AUTO 32009G19KT 290V010 CAVOK 11/00 Q1022",
      "taf": ""
    },
    {
      "icao": "LEMD",
      "alert": "OK",
      "vis_m": 9999,
      "fzfg": false,
      "metar_trigger": false,
      "taf_trigger": false,
      "metar": "METAR LEMD 072300Z VRB01KT CAVOK M01/M01 Q1027 NOSIG",
      "taf": "TAF LEMD 072300Z 0800/0906 VRB03KT CAVOK TX08/0815Z TNM02/0806Z"
    },
    {
      "icao": "LEMG",
      "alert": "OK",
      "vis_m": 9999,
      "fzfg": false,
      "metar_trigger": false,
      "taf_trigger": false,
      "metar": "METAR LEMG 072300Z 28007KT 230V310 9999 FEW029 BKN044 09/05 Q1030 NOSIG",
      "taf": "TAF LEMG 072300Z 0800/0824 29012KT 9999 SCT035 TX16/0814Z TN06/0806Z"
    },
    {
      "icao": "LEVC",
      "alert": "OK",
      "vis_m": 9999,
      "fzfg": false,
      "metar_trigger": false,
      "taf_trigger": false,
      "metar": "METAR LEVC 072300Z 27009KT CAVOK 08/00 Q1024 NOSIG",
      "taf": "TAF LEVC 072300Z 0800/0824 25010KT CAVOK TX15/0814Z TN06/0806Z"
    },
    {
      "icao": "LEXJ",
      "alert": "OK",
      "vis_m": 7000,
      "fzfg": false,
      "metar_trigger": false,
      "taf_trigger": false,
      "metar": "METAR LEXJ 072300Z AUTO 27009KT 7000 FEW036 BKN043 OVC050 12/06 Q1024",
      "taf": "TAF LEXJ 072000Z 0721/0821 24009KT 9999 SCT030 BKN060 TX12/0813Z TN08/0802Z"
    },
    {
      "icao": "LEZG",
      "alert": "OK",
      "vis_m": 9999,
      "fzfg": false,
      "metar_trigger": false,
      "taf_trigger": false,
      "metar": "METAR LEZG 072300Z 29011KT 9999 FEW040 06/01 Q1024 NOSIG",
      "taf": "TAF LEZG 072300Z 0800/0824 30007KT 9999 FEW030 TX12/0815Z TN05/0806Z"
    },
    {
      "icao": "LEZL",
      "alert": "OK",
      "vis_m": 9999,
      "fzfg": false,
      "metar_trigger": false,
      "taf_trigger": false,
      "metar": "METAR LEZL 072300Z 06002KT 9999 FEW020 OVC030 09/08 Q1032 NOSIG",
      "taf": "TAF LEZL 072000Z 0721/0821 25004KT 9999 SCT020 TX14/0815Z TN04/0807Z"
    },
    {
      "icao": "LFBD",
      "alert": "OK",
      "vis_m": 9999,
      "fzfg": false,
      "metar_trigger": false,
      "taf_trigger": false,
      "metar": "METAR LFBD 072300Z AUTO 26010KT 9999 -RA OVC007/// ///TCU 10/10 Q1018 TEMPO 27015G25KT 3000 RA BKN005 OVC015",
      "taf": "TAF LFBD 071700Z 0718/0824 24005KT 9999 BKN030 TX13/0814Z TN06/0718Z"
    },
    {
      "icao": "LFLL",
      "alert": "OK",
      "vis_m": 9999,
      "fzfg": false,
      "metar_trigger": false,
      "taf_trigger": false,
      "metar": "METAR LFLL 072300Z 14009KT CAVOK M00/M04 Q1017 NOSIG",
      "taf": "TAF LFLL 072300Z 0800/0906 15005KT CAVOK"
    },
    {
      "icao": "LFLS",
      "alert": "OK",
      "vis_m": 9999,
      "fzfg": false,
      "metar_trigger": false,
      "taf_trigger": false,
      "metar": "METAR LFLS 072330Z AUTO 08009KT 9999 FEW026 OVC064 M02/M03 Q1016",
      "taf": ""
    },
    {
      "icao": "LFMN",
      "alert": "OK",
      "vis_m": 9999,
      "fzfg": false,
      "metar_trigger": false,
      "taf_trigger": false,
      "metar": "METAR LFMN 072300Z 32011KT CAVOK 03/M05 Q1010 NOSIG",
      "taf": "TAF LFMN 072000Z 0721/0903 33010KT CAVOK"
    },
    {
      "icao": "LFOB",
      "alert": "OK",
      "vis_m": 9999,
      "fzfg": false,
      "metar_trigger": false,
      "taf_trigger": false,
      "metar": "METAR LFOB 072300Z AUTO 21006KT 9999 BKN027 BKN040 OVC110 03/01 Q1009 BECMG OVC008",
      "taf": "TAF LFOB 071700Z 0718/0818 22006KT 9999 BKN040"
    },
    {
      "icao": "LFPO",
      "alert": "OK",
      "vis_m": 8000,
      "fzfg": false,
      "metar_trigger": false,
      "taf_trigger": false,
      "metar": "METAR LFPO 072230Z 24008KT 8000 BKN006 BKN083 03/02 Q1010 TEMPO BKN004",
      "taf": "TAF LFPO 072300Z 0800/0906 23009KT 7000 BKN006"
    },
    {
      "icao": "LFSB",
      "alert": "OK",
      "vis_m": 9999,
      "fzfg": false,
      "metar_trigger": false,
      "taf_trigger": false,
      "metar": "METAR LFSB 072300Z AUTO 10004KT 9999 OVC020 M02/M04 Q1013 TEMPO BKN012",
      "taf": ""
    },
    {
      "icao": "LGAV",
      "alert": "OK",
      "vis_m": 9999,
      "fzfg": false,
      "metar_trigger": false,
      "taf_trigger": false,
      "metar": "METAR LGAV 072320Z 20019KT 9999 FEW025 18/11 Q1006 NOSIG",
      "taf": "TAF LGAV 072300Z 0800/0824 20018G30KT 9999 FEW020 SCT030"
    },
    {
      "icao": "LGTS",
      "alert": "OK",
      "vis_m": 8000,
      "fzfg": false,
      "metar_trigger": false,
      "taf_trigger": false,
      "metar": "METAR LGTS 072320Z VRB03KT 8000 -RA FEW008 SCT025 13/13 Q1001 NOSIG",
      "taf": "TAF LGTS 072300Z 0800/0824 16012KT 9999 SCT025"
    },
    {
      "icao": "LHBP",
      "alert": "OK",
      "vis_m": 9999,
      "fzfg": false,
      "metar_trigger": false,
      "taf_trigger": false,
      "metar": "METAR LHBP 072330Z 32003KT CAVOK M05/M07 Q1008 NOSIG",
      "taf": "TAF LHBP 072315Z 0800/0824 33006KT CAVOK"
    },
    {
      "icao": "LHDC",
      "alert": "OK",
      "vis_m": 9000,
      "fzfg": false,
      "metar_trigger": false,
      "taf_trigger": false,
      "metar": "METAR LHDC 072245Z AUTO 33007KT 9000 -SN OVC014 M03/M05 Q1007",
      "taf": "TAF LHDC 071415Z 0715/0724 36006KT 9999 OVC025"
    },
    {
      "icao": "LIBD",
      "alert": "OK",
      "vis_m": 9999,
      "fzfg": false,
      "metar_trigger": false,
      "taf_trigger": false,
      "metar": "METAR LIBD 072320Z 28011KT 9999 SCT040 05/03 Q1006",
      "taf": "TAF LIBD 072300Z 0800/0824 28018G28KT 7000 BKN020"
    },
    {
      "icao": "LIBG",
      "alert": "OK",
      "vis_m": null,
      "fzfg": false,
      "metar_trigger": false,
      "taf_trigger": false,
      "metar": "",
      "taf": "TAF LIBG 071700Z 0718/0803 32012KT 9999 SCT020"
    },
    {
      "icao": "LIBP",
      "alert": "OK",
      "vis_m": 9999,
      "fzfg": false,
      "metar_trigger": false,
      "taf_trigger": false,
      "metar": "METAR LIBP 072320Z AUTO 29006KT 260V320 9999 OVC060/// 05/M02 Q1010",
      "taf": "TAF LIBP 072300Z 0800/0824 VRB05KT 9999 BKN030"
    },
    {
      "icao": "LIBR",
      "alert": "OK",
      "vis_m": 9999,
      "fzfg": false,
      "metar_trigger": false,
      "taf_trigger": false,
      "metar": "METAR LIBR 072320Z 28006KT 9999 FEW030 08/06 Q1005",
      "taf": "TAF LIBR 072300Z 0800/0824 33018KT 9999 SCT030"
    },
    {
      "icao": "LICA",
      "alert": "OK",
      "vis_m": 9999,
      "fzfg": false,
      "metar_trigger": false,
      "taf_trigger": false,
      "metar": "METAR LICA 072320Z AUTO 25017G32KT 9999 RA BKN033/// 10/06 Q1008",
      "taf": "TAF LICA 072300Z 0800/0824 28020G32KT 7000 BKN020"
    },
    {
      "icao": "LICC",
      "alert": "OK",
      "vis_m": 9999,
      "fzfg": false,
      "metar_trigger": false,
      "taf_trigger": false,
      "metar": "METAR LICC 072320Z 26017KT CAVOK 08/05 Q1012",
      "taf": "TAF LICC 072300Z 0800/0824 27018KT 9999 FEW060"
    },
    {
      "icao": "LICJ",
      "alert": "OK",
      "vis_m": 9999,
      "fzfg": false,
      "metar_trigger": false,
      "taf_trigger": false,
      "metar": "METAR LICJ 072320Z 29018KT 9999 FEW030 SCT060 12/06 Q1014",
      "taf": "TAF LICJ 072300Z 0800/0824 28025G35KT 9999 SCT020"
    },
    {
      "icao": "LIMC",
      "alert": "OK",
      "vis_m": 9999,
      "fzfg": false,
      "metar_trigger": false,
      "taf_trigger": false,
      "metar": "METAR LIMC 072320Z 02005KT CAVOK M06/M07 Q1010 NOSIG",
      "taf": "TAF LIMC 072300Z 0800/0906 VRB04KT CAVOK"
    },
    {
      "icao": "LIME",
      "alert": "OK",
      "vis_m": 9999,
      "fzfg": false,
      "metar_trigger": false,
      "taf_trigger": false,
      "metar": "METAR LIME 072320Z 04003KT 020V100 CAVOK M04/M08 Q1010 NOSIG",
      "taf": "TAF LIME 072300Z 0800/0824 VRB04KT CAVOK"
    },
    {
      "icao": "LIMF",
      "alert": "OK",
      "vis_m": 9999,
      "fzfg": false,
      "metar_trigger": false,
      "taf_trigger": false,
      "metar": "METAR LIMF 072320Z AUTO VRB01KT 9999 NCD M03/M09 Q1010",
      "taf": "TAF LIMF 072300Z 0800/0824 VRB03KT CAVOK"
    },
    {
      "icao": "LIMJ",
      "alert": "OK",
      "vis_m": 9999,
      "fzfg": false,
      "metar_trigger": false,
      "taf_trigger": false,
      "metar": "METAR LIMJ 072320Z 03006KT 9999 SCT048 04/M14 Q1011",
      "taf": "TAF LIMJ 072300Z 0800/0824 04010KT 9999 FEW050"
    },
    {
      "icao": "LIPE",
      "alert": "OK",
      "vis_m": 9999,
      "fzfg": false,
      "metar_trigger": false,
      "taf_trigger": false,
      "metar": "METAR LIPE 072320Z 25005KT CAVOK M04/M06 Q1012",
      "taf": "TAF LIPE 072300Z 0800/0824 VRB05KT 9999 FEW030"
    },
    {
      "icao": "LIPH",
      "alert": "OK",
      "vis_m": 9999,
      "fzfg": false,
      "metar_trigger": false,
      "taf_trigger": false,
      "metar": "METAR LIPH 072320Z AUTO 01003KT 9999 NCD M03/M06 Q1011",
      "taf": "TAF LIPH 072300Z 0800/0824 VRB05KT CAVOK"
    },
    {
      "icao": "LIPQ",
      "alert": "OK",
      "vis_m": 9999,
      "fzfg": false,
      "metar_trigger": false,
      "taf_trigger": false,
      "metar": "METAR LIPQ 072320Z AUTO VRB02KT 9999 NCD M05/M09 Q1011",
      "taf": "TAF LIPQ 072300Z 0800/0824 VRB05KT 9999 SCT070"
    },
    {
      "icao": "LIPR",
      "alert": "OK",
      "vis_m": 9999,
      "fzfg": false,
      "metar_trigger": false,
      "taf_trigger": false,
      "metar": "METAR LIPR 072320Z AUTO 26009KT 9999 NCD M01/M05 Q1011",
      "taf": "TAF LIPR 072300Z 0800/0824 25008KT 9999 SCT030"
    },
    {
      "icao": "LIPX",
      "alert": "OK",
      "vis_m": 2000,
      "fzfg": false,
      "metar_trigger": false,
      "taf_trigger": false,
      "metar": "METAR LIPX 072320Z 22006KT 2000 0600S BCFG VV004 M05/M05 Q1011",
      "taf": "TAF LIPX 072300Z 0800/0824 VRB05KT 2000 BR NSC"
    },
    {
      "icao": "LIPY",
      "alert": "OK",
      "vis_m": 9999,
      "fzfg": false,
      "metar_trigger": false,
      "taf_trigger": false,
      "metar": "METAR LIPY 072320Z AUTO 27007KT 9999 BKN045/// 02/M03 Q1010",
      "taf": "TAF LIPY 072300Z 0800/0824 32014KT 9999 SCT030"
    },
    {
      "icao": "LIPZ",
      "alert": "OK",
      "vis_m": 9999,
      "fzfg": false,
      "metar_trigger": false,
      "taf_trigger": false,
      "metar": "METAR LIPZ 072320Z 02005KT CAVOK M03/M06 Q1011 NOSIG",
      "taf": "TAF LIPZ 072300Z 0800/0906 VRB05KT CAVOK"
    },
    {
      "icao": "LIRF",
      "alert": "OK",
      "vis_m": 9999,
      "fzfg": false,
      "metar_trigger": false,
      "taf_trigger": false,
      "metar": "METAR LIRF 072320Z 31003KT 280V360 CAVOK 00/M02 Q1012 NOSIG",
      "taf": "TAF LIRF 072300Z 0800/0906 34008KT CAVOK"
    },
    {
      "icao": "LIRN",
      "alert": "OK",
      "vis_m": 9999,
      "fzfg": false,
      "metar_trigger": false,
      "taf_trigger": false,
      "metar": "METAR LIRN 072320Z 28007KT 250V310 CAVOK 06/01 Q1008 NOSIG",
      "taf": "TAF LIRN 072300Z 0800/0824 27010KT 9999 SCT020"
    },
    {
      "icao": "LIRP",
      "alert": "OK",
      "vis_m": 9999,
      "fzfg": false,
      "metar_trigger": false,
      "taf_trigger": false,
      "metar": "METAR LIRP 072315Z 04005KT CAVOK M02/M03 Q1012 NOSIG",
      "taf": "TAF LIRP 072300Z 0800/0824 10006KT CAVOK"
    },
    {
      "icao": "LIRZ",
      "alert": "OK",
      "vis_m": 9999,
      "fzfg": false,
      "metar_trigger": false,
      "taf_trigger": false,
      "metar": "METAR LIRZ 072320Z AUTO VRB02KT 9999 NCD M01/M04 Q1011",
      "taf": "TAF LIRZ 072300Z 0800/0824 VRB05KT 9999 FEW060"
    },
    {
      "icao": "LJLJ",
      "alert": "OK",
      "vis_m": 9999,
      "fzfg": false,
      "metar_trigger": false,
      "taf_trigger": false,
      "metar": "METAR LJLJ 072300Z 00000KT 9999 FEW010 BKN026 M06/M07 Q1010 NOSIG",
      "taf": "TAF LJLJ 072300Z 0800/0900 VRB02KT 9999 SCT010 OVC030"
    },
    {
      "icao": "LKMT",
      "alert": "OK",
      "vis_m": 9999,
      "fzfg": false,
      "metar_trigger": false,
      "taf_trigger": false,
      "metar": "METAR LKMT 072300Z 02007KT 9999 OVC022 M05/M08 Q1011 TEMPO BKN018",
      "taf": "TAF LKMT 072300Z 0800/0824 02008KT 9999 OVC022"
    },
    {
      "icao": "LKPR",
      "alert": "OK",
      "vis_m": 9999,
      "fzfg": false,
      "metar_trigger": false,
      "taf_trigger": false,
      "metar": "METAR LKPR 072300Z 20005KT 9999 BKN030 M06/M10 Q1010 NOSIG",
      "taf": "TAF LKPR 072300Z 0800/0906 20006KT CAVOK"
    },
    {
      "icao": "LLBG",
      "alert": "OK",
      "vis_m": 9999,
      "fzfg": false,
      "metar_trigger": false,
      "taf_trigger": false,
      "metar": "METAR LLBG 072320Z VRB01KT CAVOK 14/08 Q1020 NOSIG",
      "taf": "TAF LLBG 072314Z 0800/0824 VRB04KT CAVOK"
    },
    {
      "icao": "LMML",
      "alert": "OK",
      "vis_m": 9999,
      "fzfg": false,
      "metar_trigger": false,
      "taf_trigger": false,
      "metar": "METAR LMML 072315Z 27019KT 9999 -SHRA FEW024 SCT037 11/07 Q1016 NOSIG",
      "taf": "TAF LMML 072300Z 0800/0824 29025G35KT 9999 SCT025"
    },
    {
      "icao": "LOWW",
      "alert": "OK",
      "vis_m": 9999,
      "fzfg": false,
      "metar_trigger": false,
      "taf_trigger": false,
      "metar": "METAR LOWW 072320Z 32009KT CAVOK M06/M11 Q1011 NOSIG",
      "taf": "TAF LOWW 072315Z 0800/0906 33010KT 9999 FEW050 TXM02/0813Z TNM07/0806Z"
    },
    {
      "icao": "LPFR",
      "alert": "OK",
      "vis_m": 9999,
      "fzfg": false,
      "metar_trigger": false,
      "taf_trigger": false,
      "metar": "METAR LPFR 072300Z 09003KT CAVOK 08/07 Q1031",
      "taf": "TAF LPFR 072300Z 0800/0824 VRB05KT CAVOK"
    },
    {
      "icao": "LPMA",
      "alert": "OK",
      "vis_m": 9999,
      "fzfg": false,
      "metar_trigger": false,
      "taf_trigger": false,
      "metar": "METAR LPMA 072300Z 36007KT 330V030 9999 FEW015 15/08 Q1034",
      "taf": "TAF LPMA 072300Z 0800/0824 01008KT 9999 SCT015"
    },
    {
      "icao": "LPPR",
      "alert": "OK",
      "vis_m": 9999,
      "fzfg": false,
      "metar_trigger": false,
      "taf_trigger": false,
      "metar": "METAR LPPR 072300Z 12005KT 070V150 9999 FEW030 07/06 Q1030",
      "taf": "TAF LPPR 072300Z 0800/0824 11005KT 9999 FEW015 SCT030"
    },
    {
      "icao": "LPPS",
      "alert": "OK",
      "vis_m": 9999,
      "fzfg": false,
      "metar_trigger": false,
      "taf_trigger": false,
      "metar": "METAR LPPS 072300Z 05006KT 9999 FEW015 15/09 Q1034",
      "taf": "TAF LPPS 072300Z 0800/0906 04007KT 9999 SCT015"
    },
    {
      "icao": "LPPT",
      "alert": "OK",
      "vis_m": 9999,
      "fzfg": false,
      "metar_trigger": false,
      "taf_trigger": false,
      "metar": "METAR LPPT 072300Z 30002KT 9999 FEW025 08/06 Q1031",
      "taf": "TAF LPPT 072300Z 0800/0906 VRB02KT 9999 FEW025"
    },
    {
      "icao": "LQBK",
      "alert": "OK",
      "vis_m": 9999,
      "fzfg": false,
      "metar_trigger": false,
      "taf_trigger": false,
      "metar": "METAR LQBK 072300Z 25005KT 9999 SCT010 OVC018 M03/M05 Q1011 NOSIG",
      "taf": "TAF LQBK 072300Z 0800/0824 23006KT 9999 SCT010 BKN025 TXM03/0813Z TNM09/0824Z"
    },
    {
      "icao": "LQSA",
      "alert": "OK",
      "vis_m": 9999,
      "fzfg": false,
      "metar_trigger": false,
      "taf_trigger": false,
      "metar": "METAR LQSA 072300Z 31008KT 9999 FEW018 BKN030 M05/M06 Q1007",
      "taf": "TAF LQSA 072300Z 0800/0824 29005KT 7000 -SN SCT012 OVC030 TXM03/0813Z TNM07/0806Z"
    },
    {
      "icao": "LQTZ",
      "alert": "OK",
      "vis_m": 9999,
      "fzfg": false,
      "metar_trigger": false,
      "taf_trigger": false,
      "metar": "METAR LQTZ 072300Z 28005KT 9999 SCT014 BKN030 M04/M05 Q1009",
      "taf": "TAF LQTZ 072300Z 0800/0824 27007KT 9999 SCT015 BKN030 TXM02/0813Z TNM08/0824Z"
    },
    {
      "icao": "LRBC",
      "alert": "OK",
      "vis_m": 8000,
      "fzfg": false,
      "metar_trigger": false,
      "taf_trigger": false,
      "metar": "METAR LRBC 072300Z 34009KT 8000 OVC011 M01/M03 Q1007",
      "taf": "TAF LRBC 072300Z 0800/0809 35008KT 7000 BKN010 OVC020"
    },
    {
      "icao": "LRBS",
      "alert": "OK",
      "vis_m": 9999,
      "fzfg": false,
      "metar_trigger": false,
      "taf_trigger": false,
      "metar": "METAR LRBS 072300Z 06014KT 9999 OVC005 02/02 Q1003 NOSIG",
      "taf": "TAF LRBS 072300Z 0800/0824 07015KT 9999 OVC005"
    },
    {
      "icao": "LRBV",
      "alert": "OK",
      "vis_m": 800,
      "fzfg": false,
      "metar_trigger": false,
      "taf_trigger": false,
      "metar": "METAR LRBV 072300Z AUTO VRB01KT 0800 0650 R21/1500U FG VV002 01/00 Q1000",
      "taf": "TAF LRBV 072000Z 0721/0806 VRB04KT 9999 OVC002"
    },
    {
      "icao": "LRCL",
      "alert": "OK",
      "vis_m": 2000,
      "fzfg": false,
      "metar_trigger": false,
      "taf_trigger": false,
      "metar": "METAR LRCL 072300Z 26006KT 2000 SN BR OVC017 M02/M02 Q1003",
      "taf": "TAF LRCL 072300Z 0800/0809 29010KT 3000 SN BKN015 BKN035"
    },
    {
      "icao": "LRCV",
      "alert": "OK",
      "vis_m": 1500,
      "fzfg": false,
      "metar_trigger": false,
      "taf_trigger": false,
      "metar": "METAR LRCV 072300Z 26004KT 1500 RA BR OVC002 01/01 Q1003",
      "taf": "TAF LRCV 072300Z 0800/0809 VRB04KT 3000 RA BR OVC002"
    },
    {
      "icao": "LRIA",
      "alert": "OK",
      "vis_m": 6000,
      "fzfg": false,
      "metar_trigger": false,
      "taf_trigger": false,
      "metar": "METAR LRIA 072300Z 30006KT 6000 -FZRA OVC004 M01/M01 Q1007",
      "taf": "TAF LRIA 072300Z 0800/0809 31006KT 5000 -FZRA OVC005"
    },
    {
      "icao": "LROP",
      "alert": "OK",
      "vis_m": 9999,
      "fzfg": false,
      "metar_trigger": false,
      "taf_trigger": false,
      "metar": "METAR LROP 072300Z 07015KT 9999 OVC007 02/02 Q1003 NOSIG",
      "taf": "TAF LROP 072300Z 0800/0824 07015KT 9999 OVC005"
    },
    {
      "icao": "LRSB",
      "alert": "OK",
      "vis_m": 6000,
      "fzfg": false,
      "metar_trigger": false,
      "taf_trigger": false,
      "metar": "METAR LRSB 072300Z 33004KT 6000 -FZRA PL SCT003 OVC007 M01/M01 Q1001",
      "taf": "TAF LRSB 072300Z 0800/0824 33004KT 5000 -FZRA OVC005"
    },
    {
      "icao": "LRSM",
      "alert": "OK",
      "vis_m": 1800,
      "fzfg": false,
      "metar_trigger": false,
      "taf_trigger": false,
      "metar": "METAR LRSM 072300Z AUTO 29002KT 1800 R19/1900N -SN VV006 M03/M04 Q1005",
      "taf": "TAF LRSM 071400Z 0715/0724 VRB04KT 9999 BKN010 OVC030"
    },
    {
      "icao": "LRSV",
      "alert": "OK",
      "vis_m": 7000,
      "fzfg": false,
      "metar_trigger": false,
      "taf_trigger": false,
      "metar": "METAR LRSV 072300Z 32007KT 7000 BKN006 BKN020 M04/M04 Q1006 REFZRA",
      "taf": "TAF LRSV 072300Z 0800/0809 34010KT 5000 BR BKN005 OVC025"
    },
    {
      "icao": "LRTM",
      "alert": "OK",
      "vis_m": 9999,
      "fzfg": false,
      "metar_trigger": false,
      "taf_trigger": false,
      "metar": "METAR LRTM 072300Z AUTO 27005KT 9999 R25////// -FZRA SCT006/// OVC008/// M00/M01 Q1002",
      "taf": "TAF LRTM 071400Z 0715/0724 VRB04KT 9999 BKN010 BKN035"
    },
    {
      "icao": "LRTR",
      "alert": "OK",
      "vis_m": 2000,
      "fzfg": false,
      "metar_trigger": false,
      "taf_trigger": false,
      "metar": "METAR LRTR 072300Z 32006KT 2000 -SN BR BKN010 OVC017 M03/M03 Q1007 RESN",
      "taf": "TAF LRTR 072300Z 0800/0824 32008KT 3000 -SN BR BKN010 OVC040"
    },
    {
      "icao": "LTAC",
      "alert": "OK",
      "vis_m": 6000,
      "fzfg": false,
      "metar_trigger": false,
      "taf_trigger": false,
      "metar": "METAR LTAC 072320Z VRB01KT 6000 BKN040 BKN100 01/00 Q1017 NOSIG RMK RWY21C 02003KT RWY03L VRB01KT RWY21R 01003KT RWY03R 00000KT RWY21L VRB02KT",
      "taf": "TAF LTAC 072240Z 0800/0824 VRB02KT 9999 SCT040 BKN100"
    },
    {
      "icao": "LTFM",
      "alert": "OK",
      "vis_m": 9999,
      "fzfg": false,
      "metar_trigger": false,
      "taf_trigger": false,
      "metar": "METAR LTFM 072320Z 20020KT 9999 SCT040 BKN080 17/08 Q1005 NOSIG RMK RWY17L 21021KT RWY34L 19020KT RWY16R 20021KT RWY36 20020KT RWY18 21022G32KT",
      "taf": "TAF LTFM 072240Z 0800/0906 19022G32KT 9999 -SHRA SCT040 BKN080"
    },
    {
      "icao": "LUKK",
      "alert": "OK",
      "vis_m": 6000,
      "fzfg": false,
      "metar_trigger": false,
      "taf_trigger": false,
      "metar": "METAR LUKK 072300Z 36005KT 6000 -RA OVC003 01/01 Q1006 NOSIG",
      "taf": "TAF LUKK 072301Z 0800/0824 04005KT 4000 -DZ BR OVC003"
    },
    {
      "icao": "LWOH",
      "alert": "OK",
      "vis_m": null,
      "fzfg": false,
      "metar_trigger": false,
      "taf_trigger": false,
      "metar": "",
      "taf": "TAF LWOH 072325Z 0800/0824 19012KT 9999 -RA SCT015 OVC035"
    },
    {
      "icao": "LWSK",
      "alert": "OK",
      "vis_m": 6000,
      "fzfg": false,
      "metar_trigger": false,
      "taf_trigger": false,
      "metar": "METAR LWSK 072320Z VRB02KT 6000 SCT015 BKN035 OVC073 08/08 Q0999 NOSIG",
      "taf": "TAF LWSK 072325Z 0800/0824 VRB02KT 3000 BR SCT015 BKN035 OVC070"
    },
    {
      "icao": "LYBE",
      "alert": "OK",
      "vis_m": 4500,
      "fzfg": false,
      "metar_trigger": false,
      "taf_trigger": false,
      "metar": "METAR LYBE 072300Z 30007KT 4500 -SN BKN005 OVC025 M04/M04 Q1008 RESN NOSIG",
      "taf": "TAF LYBE 072300Z 0800/0824 29010KT 5000 -SN BKN008 OVC027 TXM04/0800Z TNM08/0824Z"
    },
    {
      "icao": "LYNI",
      "alert": "OK",
      "vis_m": 3000,
      "fzfg": false,
      "metar_trigger": false,
      "taf_trigger": false,
      "metar": "METAR LYNI 072300Z 31011KT 3000 SN SCT007 BKN035 OVC070 M03/M04 Q1006 TEMPO BKN007 BKN025 OVC070",
      "taf": "TAF LYNI 072300Z 0800/0824 32012KT 7000 -SN BKN010 BKN030 OVC070 TXM02/0813Z TNM08/0821Z"
    },
    {
      "icao": "LYPG",
      "alert": "OK",
      "vis_m": 9999,
      "fzfg": false,
      "metar_trigger": false,
      "taf_trigger": false,
      "metar": "METAR LYPG 072300Z 04003KT 010V070 9999 -RA FEW030 SCT050 OVC080 08/07 Q1002 NOSIG",
      "taf": "TAF LYPG 072300Z 0800/0824 36005KT 9999 SCT040 OVC070 TX08/0800Z TN00/0824Z"
    },
    {
      "icao": "LZIB",
      "alert": "OK",
      "vis_m": 9999,
      "fzfg": false,
      "metar_trigger": false,
      "taf_trigger": false,
      "metar": "METAR LZIB 072330Z 33007KT 280V350 9999 BKN027 M04/M09 Q1011 NOSIG",
      "taf": "TAF LZIB 072315Z 0800/0900 33007KT 9999 SCT028"
    },
    {
      "icao": "LZKZ",
      "alert": "OK",
      "vis_m": 9999,
      "fzfg": false,
      "metar_trigger": false,
      "taf_trigger": false,
      "metar": "METAR LZKZ 072330Z 35015KT 9999 FEW021 BKN040 M03/M08 Q1006 NOSIG",
      "taf": "TAF LZKZ 072315Z 0800/0900 36025KT 9999 DRSN NSC"
    },
    {
      "icao": "LZTT",
      "alert": "OK",
      "vis_m": 9999,
      "fzfg": false,
      "metar_trigger": false,
      "taf_trigger": false,
      "metar": "METAR LZTT 072330Z 21004KT 180V240 9999 FEW005 OVC018 M08/M10 Q1005",
      "taf": "TAF LZTT 072315Z 0800/0900 14004KT 9999 -SN FEW005 OVC025"
    },
    {
      "icao": "OEJN",
      "alert": "OK",
      "vis_m": 9999,
      "fzfg": false,
      "metar_trigger": false,
      "taf_trigger": false,
      "metar": "METAR OEJN 072300Z 36003KT CAVOK 24/17 Q1016 NOSIG",
      "taf": "TAF OEJN 072300Z 0800/0906 VRB03KT 7000 NSC"
    },
    {
      "icao": "OEMA",
      "alert": "OK",
      "vis_m": 9999,
      "fzfg": false,
      "metar_trigger": false,
      "taf_trigger": false,
      "metar": "METAR OEMA 072300Z 01003KT CAVOK 18/00 Q1024 NOSIG",
      "taf": "TAF OEMA 072300Z 0800/0906 09010KT CAVOK"
    },
    {
      "icao": "OJAI",
      "alert": "OK",
      "vis_m": 5000,
      "fzfg": false,
      "metar_trigger": false,
      "taf_trigger": false,
      "metar": "METAR OJAI 072300Z 16004KT 5000 HZ NSC 09/05 Q1024 NOSIG",
      "taf": "TAF OJAI 072300Z 0800/0906 12010KT 5000 HZ NSC"
    },
    {
      "icao": "OMAA",
      "alert": "OK",
      "vis_m": 9999,
      "fzfg": false,
      "metar_trigger": false,
      "taf_trigger": false,
      "metar": "METAR OMAA 072300Z 17002KT CAVOK 18/13 Q1020 NOSIG",
      "taf": "TAF OMAA 072300Z 0800/0906 VRB02KT 8000 NSC"
    },
    {
      "icao": "OMDB",
      "alert": "OK",
      "vis_m": 9999,
      "fzfg": false,
      "metar_trigger": false,
      "taf_trigger": false,
      "metar": "METAR OMDB 072300Z 21003KT CAVOK 18/10 Q1020 NOSIG",
      "taf": "TAF OMDB 072300Z 0800/0906 12005KT 8000 NSC"
    },
    {
      "icao": "UAAA",
      "alert": "OK",
      "vis_m": 1100,
      "fzfg": false,
      "metar_trigger": false,
      "taf_trigger": false,
      "metar": "SPECI UAAA 072315Z 00000MPS 1100 R23L/P2000 BR OVC003 M06/M07 Q1032 NOSIG RMK QBB090",
      "taf": "TAF UAAA 072305Z 0800/0824 24003MPS 1100 BR FU BKN003 OVC011 TXM00/0809Z TNM07/0801Z"
    },
    {
      "icao": "UBBB",
      "alert": "OK",
      "vis_m": 1500,
      "fzfg": false,
      "metar_trigger": false,
      "taf_trigger": false,
      "metar": "METAR UBBB 072330Z VRB02KT 1500 BR OVC002 05/05 Q1020 NOSIG",
      "taf": "TAF UBBB 072259Z 0800/0824 17005KT 0300 FG VV002 TX09/0810Z TN04/0803Z"
    },
    {
      "icao": "UDSG",
      "alert": "OK",
      "vis_m": 4800,
      "fzfg": false,
      "metar_trigger": false,
      "taf_trigger": false,
      "metar": "METAR UDSG 072300Z 08004KT 4800 BR NSC M15/M17 Q1025 NOSIG",
      "taf": "TAF UDSG 072258Z 0800/0824 VRB06KT 5000 BR FEW040"
    },
    {
      "icao": "UDYZ",
      "alert": "OK",
      "vis_m": 1800,
      "fzfg": false,
      "metar_trigger": false,
      "taf_trigger": false,
      "metar": "METAR UDYZ 072300Z 08003KT 1800 1300E R08/P2000N BR NSC M10/M11 Q1027 NOSIG",
      "taf": "TAF UDYZ 072300Z 0800/0824 VRB04KT 1200 BR FEW040"
    },
    {
      "icao": "UGKO",
      "alert": "OK",
      "vis_m": 9999,
      "fzfg": false,
      "metar_trigger": false,
      "taf_trigger": false,
      "metar": "METAR UGKO 072300Z AUTO 06012KT CAVOK 09/M02 Q1017 NOSIG",
      "taf": "TAF UGKO 072300Z 0800/0824 07010KT CAVOK TX18/0812Z TN06/0804Z"
    }
  ]
}