{
  "ts_utc": "2026-03-07T04:08:46Z",
  "threshold_m": 150,
  "source": "stations_override.txt (ICAO list) + aviationweather.gov (METAR/TAF raw)",
  "station_count": 159,
  "stations": [
    {
      "icao": "BIKF",
      "alert": "OK",
      "vis_m": 9999,
      "fzfg": false,
      "metar_trigger": false,
      "taf_trigger": false,
      "metar": "METAR BIKF 070400Z 19034KT 9999 VCSH FEW019CB BKN130 03/M01 Q0971",
      "taf": "TAF BIKF 070155Z 0703/0803 20038G52KT 9999 SCT015 BKN035 TX04/0710Z TN01/0706Z"
    },
    {
      "icao": "BKPR",
      "alert": "OK",
      "vis_m": 8000,
      "fzfg": false,
      "metar_trigger": false,
      "taf_trigger": false,
      "metar": "METAR BKPR 070400Z VRB01KT 8000 NSC 01/M00 Q1027 BECMG 4000 BR",
      "taf": "TAF BKPR 070300Z 0703/0724 VRB03KT 8000 FEW020"
    },
    {
      "icao": "EBCI",
      "alert": "OK",
      "vis_m": 7000,
      "fzfg": false,
      "metar_trigger": false,
      "taf_trigger": false,
      "metar": "METAR EBCI 070350Z 06002KT 7000 NSC 08/07 Q1024 NOSIG",
      "taf": ""
    },
    {
      "icao": "EDDB",
      "alert": "OK",
      "vis_m": 9999,
      "fzfg": false,
      "metar_trigger": false,
      "taf_trigger": false,
      "metar": "METAR EDDB 070350Z AUTO 09005KT CAVOK 02/M02 Q1025 NOSIG",
      "taf": "TAF EDDB 062300Z 0700/0724 12004KT CAVOK"
    },
    {
      "icao": "EDDH",
      "alert": "OK",
      "vis_m": 9999,
      "fzfg": false,
      "metar_trigger": false,
      "taf_trigger": false,
      "metar": "METAR EDDH 070350Z AUTO VRB02KT CAVOK 03/01 Q1024 NOSIG",
      "taf": "TAF EDDH 062300Z 0700/0806 VRB03KT CAVOK"
    },
    {
      "icao": "EDDK",
      "alert": "OK",
      "vis_m": 9999,
      "fzfg": false,
      "metar_trigger": false,
      "taf_trigger": false,
      "metar": "METAR EDDK 070350Z AUTO 07001KT CAVOK 04/03 Q1024 NOSIG",
      "taf": "TAF EDDK 062300Z 0700/0806 VRB03KT CAVOK"
    },
    {
      "icao": "EDDN",
      "alert": "OK",
      "vis_m": 7000,
      "fzfg": false,
      "metar_trigger": false,
      "taf_trigger": false,
      "metar": "METAR EDDN 070350Z AUTO 14001KT 7000 NCD M00/M01 Q1024",
      "taf": "TAF EDDN 062300Z 0700/0724 VRB03KT CAVOK"
    },
    {
      "icao": "EDDS",
      "alert": "OK",
      "vis_m": 6000,
      "fzfg": false,
      "metar_trigger": false,
      "taf_trigger": false,
      "metar": "METAR EDDS 070350Z AUTO VRB01KT 6000 NSC 02/01 Q1022",
      "taf": "TAF EDDS 062300Z 0700/0724 VRB03KT CAVOK"
    },
    {
      "icao": "EDFH",
      "alert": "OK",
      "vis_m": 9999,
      "fzfg": false,
      "metar_trigger": false,
      "taf_trigger": false,
      "metar": "METAR EDFH 070350Z 10005KT CAVOK 08/03 Q1023",
      "taf": "TAF EDFH 062300Z 0700/0724 13005KT CAVOK"
    },
    {
      "icao": "EDJA",
      "alert": "OK",
      "vis_m": 9999,
      "fzfg": false,
      "metar_trigger": false,
      "taf_trigger": false,
      "metar": "METAR EDJA 070350Z AUTO 00000KT 9999 // FEW140/// M01/M02 Q1022",
      "taf": "TAF EDJA 070200Z 0703/0712 VRB02KT CAVOK"
    },
    {
      "icao": "EDLW",
      "alert": "OK",
      "vis_m": 9999,
      "fzfg": false,
      "metar_trigger": false,
      "taf_trigger": false,
      "metar": "METAR EDLW 070350Z AUTO 13008KT 9999 // BKN140/// 06/04 Q1023",
      "taf": "TAF EDLW 061700Z 0618/0718 VRB03KT CAVOK"
    },
    {
      "icao": "EDNY",
      "alert": "OK",
      "vis_m": 6000,
      "fzfg": false,
      "metar_trigger": false,
      "taf_trigger": false,
      "metar": "METAR EDNY 070350Z AUTO 07003KT 6000 NCD 00/00 Q1023",
      "taf": "TAF EDNY 070200Z 0703/0712 VRB02KT 6000 NSC"
    },
    {
      "icao": "EDSB",
      "alert": "OK",
      "vis_m": 9999,
      "fzfg": false,
      "metar_trigger": false,
      "taf_trigger": false,
      "metar": "METAR EDSB 070350Z 04002KT CAVOK 02/01 Q1023",
      "taf": "TAF EDSB 062300Z 0700/0724 VRB03KT CAVOK"
    },
    {
      "icao": "EETN",
      "alert": "OK",
      "vis_m": 9999,
      "fzfg": false,
      "metar_trigger": false,
      "taf_trigger": false,
      "metar": "METAR EETN 070350Z 29004KT CAVOK 00/M01 Q1024",
      "taf": "TAF EETN 062330Z 0700/0724 29007KT CAVOK"
    },
    {
      "icao": "EFTU",
      "alert": "OK",
      "vis_m": 9999,
      "fzfg": false,
      "metar_trigger": false,
      "taf_trigger": false,
      "metar": "METAR EFTU 070350Z AUTO VRB01KT CAVOK M01/M02 Q1025",
      "taf": "TAF EFTU 070222Z 0703/0803 34003KT CAVOK"
    },
    {
      "icao": "EGBB",
      "alert": "OK",
      "vis_m": 9999,
      "fzfg": false,
      "metar_trigger": false,
      "taf_trigger": false,
      "metar": "METAR EGBB 070350Z 04003KT 360V070 9999 FEW016 BKN031 05/03 Q1026",
      "taf": "TAF EGBB 062257Z 0700/0724 01004KT 9999 BKN020"
    },
    {
      "icao": "EGGP",
      "alert": "OK",
      "vis_m": 9999,
      "fzfg": false,
      "metar_trigger": false,
      "taf_trigger": false,
      "metar": "METAR EGGP 070350Z AUTO VRB01KT 9999 OVC028/// 04/03 Q1026",
      "taf": "TAF EGGP 062256Z 0700/0724 VRB03KT 9999 SCT030"
    },
    {
      "icao": "EGGW",
      "alert": "OK",
      "vis_m": 9000,
      "fzfg": false,
      "metar_trigger": false,
      "taf_trigger": false,
      "metar": "METAR EGGW 070350Z AUTO 03007KT 9000 OVC004 05/05 Q1026",
      "taf": ""
    },
    {
      "icao": "EGKK",
      "alert": "OK",
      "vis_m": 4000,
      "fzfg": false,
      "metar_trigger": false,
      "taf_trigger": false,
      "metar": "METAR EGKK 070350Z 02005KT 4000 BR BKN003 07/07 Q1025",
      "taf": "TAF EGKK 062256Z 0700/0806 02005KT 9999 BKN010"
    },
    {
      "icao": "EGNM",
      "alert": "OK",
      "vis_m": null,
      "fzfg": false,
      "metar_trigger": false,
      "taf_trigger": false,
      "metar": "",
      "taf": "TAF EGNM 061657Z 0618/0718 VRB03KT 9999 SCT015"
    },
    {
      "icao": "EGPD",
      "alert": "OK",
      "vis_m": 9999,
      "fzfg": false,
      "metar_trigger": false,
      "taf_trigger": false,
      "metar": "METAR EGPD 070350Z COR AUTO 15003KT 9999 NCD M03/M04 Q1022 NOSIG",
      "taf": "TAF EGPD 062255Z 0700/0724 17006KT CAVOK"
    },
    {
      "icao": "EGPF",
      "alert": "OK",
      "vis_m": 8000,
      "fzfg": false,
      "metar_trigger": false,
      "taf_trigger": false,
      "metar": "METAR EGPF 070350Z AUTO 06004KT 8000 NCD M02/M02 Q1025",
      "taf": ""
    },
    {
      "icao": "EHBK",
      "alert": "OK",
      "vis_m": 9999,
      "fzfg": false,
      "metar_trigger": false,
      "taf_trigger": false,
      "metar": "METAR EHBK 070355Z AUTO 20004KT 9999 NCD 06/05 Q1023",
      "taf": "TAF EHBK 062312Z 0700/0806 VRB02KT CAVOK"
    },
    {
      "icao": "EHEH",
      "alert": "OK",
      "vis_m": 4400,
      "fzfg": false,
      "metar_trigger": false,
      "taf_trigger": false,
      "metar": "METAR EHEH 070355Z AUTO 31001KT 4400 BR FEW110 05/05 Q1024 GRN",
      "taf": ""
    },
    {
      "icao": "EKBI",
      "alert": "OK",
      "vis_m": 9999,
      "fzfg": false,
      "metar_trigger": false,
      "taf_trigger": false,
      "metar": "METAR EKBI 070350Z AUTO 13001KT 9999 FEW130/// FEW150/// 05/01 Q1024",
      "taf": "TAF EKBI 070227Z 0703/0803 10003KT 9999 FEW040"
    },
    {
      "icao": "EKCH",
      "alert": "OK",
      "vis_m": 9999,
      "fzfg": false,
      "metar_trigger": false,
      "taf_trigger": false,
      "metar": "METAR EKCH 070350Z 15003KT 9999 MIFG NSC 01/00 Q1025 NOSIG",
      "taf": "TAF EKCH 070227Z 0703/0803 15007KT CAVOK"
    },
    {
      "icao": "ENAL",
      "alert": "OK",
      "vis_m": 9999,
      "fzfg": false,
      "metar_trigger": false,
      "taf_trigger": false,
      "metar": "METAR ENAL 070350Z AUTO 17006KT 9999 NCD 00/M00 Q1022",
      "taf": "TAF ENAL 070200Z 0703/0712 15006KT CAVOK"
    },
    {
      "icao": "ENBR",
      "alert": "OK",
      "vis_m": 150,
      "fzfg": false,
      "metar_trigger": false,
      "taf_trigger": false,
      "metar": "METAR ENBR 070350Z 16002KT 0150 R17/0500N R35/0550N FG VV002 04/04 Q1023 RMK WIND 1200FT 19004KT",
      "taf": "TAF ENBR 062300Z 0700/0724 VRB04KT 4000 -RADZ BR SCT003 OVC008"
    },
    {
      "icao": "ENGM",
      "alert": "OK",
      "vis_m": 4800,
      "fzfg": false,
      "metar_trigger": false,
      "taf_trigger": false,
      "metar": "METAR ENGM 070350Z 04002KT 4800 -RASN OVC008 00/M00 Q1024",
      "taf": "TAF ENGM 062300Z 0700/0724 36005KT 8000 BKN020"
    },
    {
      "icao": "ENHD",
      "alert": "OK",
      "vis_m": 1400,
      "fzfg": false,
      "metar_trigger": false,
      "taf_trigger": false,
      "metar": "METAR ENHD 070350Z AUTO 00000KT 1400 R13/P2000N R31/P2000N BR SCT003/// SCT004/// OVC005/// 05/04 Q1023",
      "taf": "TAF ENHD 070200Z 0703/0712 20008KT 1500 BR BKN003"
    },
    {
      "icao": "ENTC",
      "alert": "OK",
      "vis_m": 9999,
      "fzfg": false,
      "metar_trigger": false,
      "taf_trigger": false,
      "metar": "METAR ENTC 070350Z AUTO 27011KT 240V310 9999 -RA FEW033/// SCT045/// BKN060/// 04/M01 Q1011 RMK WIND 2600FT 30038KT",
      "taf": "TAF ENTC 062300Z 0700/0724 27016KT 9999 FEW015 SCT025"
    },
    {
      "icao": "ENTO",
      "alert": "OK",
      "vis_m": 2900,
      "fzfg": false,
      "metar_trigger": false,
      "taf_trigger": false,
      "metar": "METAR ENTO 070350Z AUTO 35006KT 2900 +RA NCD 01/01 Q1024",
      "taf": "TAF ENTO 062300Z 0700/0724 36005KT 6000 BKN020"
    },
    {
      "icao": "ENVA",
      "alert": "OK",
      "vis_m": 9999,
      "fzfg": false,
      "metar_trigger": false,
      "taf_trigger": false,
      "metar": "METAR ENVA 070350Z AUTO 12005KT 9999 NCD M01/M03 Q1023 RMK WIND 670FT 09009KT",
      "taf": "TAF ENVA 062300Z 0700/0724 09006KT 9999 FEW030"
    },
    {
      "icao": "ENZV",
      "alert": "OK",
      "vis_m": 7000,
      "fzfg": false,
      "metar_trigger": false,
      "taf_trigger": false,
      "metar": "METAR ENZV 070350Z 27002KT 7000 BKN013 04/03 Q1023",
      "taf": ""
    },
    {
      "icao": "EPGD",
      "alert": "OK",
      "vis_m": 9999,
      "fzfg": false,
      "metar_trigger": false,
      "taf_trigger": false,
      "metar": "METAR EPGD 070400Z 34002KT CAVOK 00/M03 Q1027",
      "taf": "TAF EPGD 062330Z 0700/0724 VRB02KT 6000 NSC"
    },
    {
      "icao": "EPKK",
      "alert": "OK",
      "vis_m": 9999,
      "fzfg": false,
      "metar_trigger": false,
      "taf_trigger": false,
      "metar": "METAR EPKK 070400Z VRB02KT CAVOK M03/M05 Q1028",
      "taf": "TAF EPKK 070230Z 0703/0803 VRB02KT CAVOK"
    },
    {
      "icao": "EPKT",
      "alert": "OK",
      "vis_m": 9999,
      "fzfg": false,
      "metar_trigger": false,
      "taf_trigger": false,
      "metar": "METAR EPKT 070400Z 09001KT CAVOK M05/M06 Q1027",
      "taf": "TAF EPKT 062330Z 0700/0724 07003KT CAVOK"
    },
    {
      "icao": "EPLB",
      "alert": "OK",
      "vis_m": 6000,
      "fzfg": false,
      "metar_trigger": false,
      "taf_trigger": false,
      "metar": "METAR EPLB 070400Z 11001KT 6000 NSC M03/M04 Q1028",
      "taf": "TAF EPLB 062330Z 0700/0724 VRB02KT CAVOK"
    },
    {
      "icao": "EPMO",
      "alert": "OK",
      "vis_m": 6000,
      "fzfg": false,
      "metar_trigger": false,
      "taf_trigger": false,
      "metar": "METAR EPMO 070400Z VRB02KT 6000 NSC M03/M03 Q1028",
      "taf": "TAF EPMO 062330Z 0700/0724 VRB02KT CAVOK"
    },
    {
      "icao": "EPPO",
      "alert": "OK",
      "vis_m": 9999,
      "fzfg": false,
      "metar_trigger": false,
      "taf_trigger": false,
      "metar": "METAR EPPO 070400Z 09003KT CAVOK M02/M04 Q1027",
      "taf": "TAF EPPO 062330Z 0700/0724 14004KT CAVOK"
    },
    {
      "icao": "EPRA",
      "alert": "OK",
      "vis_m": 9999,
      "fzfg": false,
      "metar_trigger": false,
      "taf_trigger": false,
      "metar": "METAR EPRA 070400Z VRB01KT CAVOK M03/M05 Q1028",
      "taf": "TAF EPRA 070230Z 0703/0712 VRB02KT CAVOK"
    },
    {
      "icao": "EPRZ",
      "alert": "OK",
      "vis_m": 6000,
      "fzfg": false,
      "metar_trigger": false,
      "taf_trigger": false,
      "metar": "METAR EPRZ 070400Z 21001KT 6000 NSC M03/M04 Q1028",
      "taf": "TAF EPRZ 062330Z 0700/0724 VRB02KT 8000 NSC"
    },
    {
      "icao": "EPSC",
      "alert": "OK",
      "vis_m": 9999,
      "fzfg": false,
      "metar_trigger": false,
      "taf_trigger": false,
      "metar": "METAR EPSC 070400Z 12006KT CAVOK 02/M02 Q1026",
      "taf": "TAF EPSC 062330Z 0700/0724 12006KT CAVOK"
    },
    {
      "icao": "EPSY",
      "alert": "OK",
      "vis_m": 9999,
      "fzfg": false,
      "metar_trigger": false,
      "taf_trigger": false,
      "metar": "METAR EPSY 070400Z 22001KT CAVOK M06/M07 Q1028",
      "taf": "TAF EPSY 070230Z 0703/0712 VRB03KT CAVOK"
    },
    {
      "icao": "EPWA",
      "alert": "OK",
      "vis_m": 9000,
      "fzfg": false,
      "metar_trigger": false,
      "taf_trigger": false,
      "metar": "METAR EPWA 070400Z 12003KT 9000 NSC M02/M03 Q1028 NOSIG",
      "taf": "TAF EPWA 070230Z 0703/0803 VRB02KT 8000 NSC"
    },
    {
      "icao": "EPWR",
      "alert": "OK",
      "vis_m": 9999,
      "fzfg": false,
      "metar_trigger": false,
      "taf_trigger": false,
      "metar": "METAR EPWR 070400Z 11003KT CAVOK M00/M04 Q1027",
      "taf": "TAF EPWR 070230Z 0703/0803 14004KT CAVOK"
    },
    {
      "icao": "ESGG",
      "alert": "OK",
      "vis_m": 9999,
      "fzfg": false,
      "metar_trigger": false,
      "taf_trigger": false,
      "metar": "METAR ESGG 070350Z 14005KT CAVOK 01/M03 Q1023",
      "taf": "TAF ESGG 070230Z 0703/0803 13003KT CAVOK"
    },
    {
      "icao": "ESKN",
      "alert": "OK",
      "vis_m": 1800,
      "fzfg": false,
      "metar_trigger": false,
      "taf_trigger": false,
      "metar": "METAR ESKN 070350Z 31002KT 1800 BR NSC M01/M01 Q1025",
      "taf": "TAF ESKN 070230Z 0703/0803 VRB02KT CAVOK"
    },
    {
      "icao": "ESMS",
      "alert": "OK",
      "vis_m": 9999,
      "fzfg": false,
      "metar_trigger": false,
      "taf_trigger": false,
      "metar": "METAR ESMS 070350Z 10004KT CAVOK M01/M01 Q1024",
      "taf": "TAF ESMS 070227Z 0703/0803 15003KT CAVOK"
    },
    {
      "icao": "ESSA",
      "alert": "OK",
      "vis_m": 9999,
      "fzfg": false,
      "metar_trigger": false,
      "taf_trigger": false,
      "metar": "METAR ESSA 070350Z 03005KT CAVOK 01/M01 Q1025 NOSIG",
      "taf": "TAF ESSA 070230Z 0703/0803 08003KT CAVOK"
    },
    {
      "icao": "EYKA",
      "alert": "OK",
      "vis_m": 3400,
      "fzfg": false,
      "metar_trigger": false,
      "taf_trigger": false,
      "metar": "METAR EYKA 070350Z 00000KT 3400 BR NSC M03/M04 Q1027",
      "taf": ""
    },
    {
      "icao": "EYPA",
      "alert": "OK",
      "vis_m": 9999,
      "fzfg": false,
      "metar_trigger": false,
      "taf_trigger": false,
      "metar": "METAR EYPA 070350Z 15003KT CAVOK M03/M04 Q1027",
      "taf": "TAF EYPA 062311Z 0700/0724 VRB03KT 5000 BR SCT002"
    },
    {
      "icao": "EYVI",
      "alert": "OK",
      "vis_m": 6000,
      "fzfg": false,
      "metar_trigger": false,
      "taf_trigger": false,
      "metar": "METAR EYVI 070350Z 14003KT 6000 FEW002 M03/M04 Q1027 NOSIG",
      "taf": "TAF EYVI 062313Z 0700/0724 VRB03KT 5000 BR FEW002"
    },
    {
      "icao": "GCFV",
      "alert": "OK",
      "vis_m": 9999,
      "fzfg": false,
      "metar_trigger": false,
      "taf_trigger": false,
      "metar": "METAR GCFV 070400Z AUTO 02021KT 9999 OVC036 16/08 Q1020",
      "taf": "TAF GCFV 070200Z 0703/0803 02018KT 9999 BKN030 TX20/0714Z TN14/0706Z"
    },
    {
      "icao": "GCLP",
      "alert": "OK",
      "vis_m": 9999,
      "fzfg": false,
      "metar_trigger": false,
      "taf_trigger": false,
      "metar": "METAR GCLP 070400Z 01020KT 9999 BKN035 16/07 Q1020 NOSIG",
      "taf": "TAF GCLP 070200Z 0703/0803 02020KT 9999 BKN030 TX18/0714Z TN14/0706Z"
    },
    {
      "icao": "GCTS",
      "alert": "OK",
      "vis_m": 9999,
      "fzfg": false,
      "metar_trigger": false,
      "taf_trigger": false,
      "metar": "METAR GCTS 070400Z 04010KT 9999 SCT040 15/06 Q1021 NOSIG",
      "taf": "TAF GCTS 070200Z 0703/0803 05015KT 9999 SCT040 TX22/0714Z TN14/0706Z"
    },
    {
      "icao": "GMAD",
      "alert": "OK",
      "vis_m": 8000,
      "fzfg": false,
      "metar_trigger": false,
      "taf_trigger": false,
      "metar": "METAR GMAD 070400Z 00000KT 8000 NSC 09/07 Q1015 NOSIG",
      "taf": "TAF GMAD 062300Z 0700/0806 06006KT 6000 NSC"
    },
    {
      "icao": "GMMN",
      "alert": "OK",
      "vis_m": 9999,
      "fzfg": false,
      "metar_trigger": false,
      "taf_trigger": false,
      "metar": "METAR GMMN 070400Z 20006KT 9999 SCT026 06/05 Q1019 NOSIG",
      "taf": "TAF GMMN 062300Z 0700/0806 20006KT 9999 BKN026"
    },
    {
      "icao": "GMMX",
      "alert": "OK",
      "vis_m": 9999,
      "fzfg": false,
      "metar_trigger": false,
      "taf_trigger": false,
      "metar": "METAR GMMX 070400Z 07004KT 050V110 9999 BKN020 09/06 Q1018 NOSIG",
      "taf": "TAF GMMX 062300Z 0700/0806 06006KT 9999 SCT020"
    },
    {
      "icao": "HEGN",
      "alert": "OK",
      "vis_m": 9999,
      "fzfg": false,
      "metar_trigger": false,
      "taf_trigger": false,
      "metar": "METAR HEGN 070300Z 29013KT CAVOK 14/06 Q1016 NOSIG",
      "taf": "TAF HEGN 062300Z 0700/0806 29010G22KT CAVOK"
    },
    {
      "icao": "HEMA",
      "alert": "OK",
      "vis_m": 9999,
      "fzfg": false,
      "metar_trigger": false,
      "taf_trigger": false,
      "metar": "METAR HEMA 070300Z 30013KT CAVOK 18/06 Q1014 NOSIG",
      "taf": "TAF HEMA 062300Z 0700/0806 30010G22KT CAVOK"
    },
    {
      "icao": "HESH",
      "alert": "OK",
      "vis_m": 9999,
      "fzfg": false,
      "metar_trigger": false,
      "taf_trigger": false,
      "metar": "METAR HESH 070300Z 34009KT CAVOK 18/06 Q1015 NOSIG",
      "taf": "TAF HESH 062300Z 0700/0806 32014KT CAVOK"
    },
    {
      "icao": "HESX",
      "alert": "OK",
      "vis_m": 6000,
      "fzfg": false,
      "metar_trigger": false,
      "taf_trigger": false,
      "metar": "METAR HESX 070300Z 35002KT 6000 NSC 09/07 Q1019 NOSIG",
      "taf": ""
    },
    {
      "icao": "LATI",
      "alert": "OK",
      "vis_m": 9999,
      "fzfg": false,
      "metar_trigger": false,
      "taf_trigger": false,
      "metar": "METAR LATI 070350Z 16004KT CAVOK 05/02 Q1025 NOSIG",
      "taf": "TAF LATI 062300Z 0700/0724 VRB03KT CAVOK TX21/0713Z TN04/0705Z"
    },
    {
      "icao": "LBPD",
      "alert": "OK",
      "vis_m": 9999,
      "fzfg": false,
      "metar_trigger": false,
      "taf_trigger": false,
      "metar": "METAR LBPD 070400Z AUTO 00000KT 9999 SCT056/// 05/05 Q1029 NOSIG",
      "taf": "TAF LBPD 062300Z 0700/0724 VRB03KT 9999 SCT080"
    },
    {
      "icao": "LBSF",
      "alert": "OK",
      "vis_m": 9999,
      "fzfg": false,
      "metar_trigger": false,
      "taf_trigger": false,
      "metar": "METAR LBSF 070400Z AUTO 14003KT 110V170 9999 NCD 00/M01 Q1028 NOSIG",
      "taf": ""
    },
    {
      "icao": "LBWN",
      "alert": "OK",
      "vis_m": 9999,
      "fzfg": false,
      "metar_trigger": false,
      "taf_trigger": false,
      "metar": "METAR LBWN 070400Z AUTO 03005KT 9999 NCD 00/M02 Q1029 NOSIG",
      "taf": "TAF LBWN 062300Z 0700/0724 VRB03KT 9999 SCT040"
    },
    {
      "icao": "LCLK",
      "alert": "OK",
      "vis_m": 9999,
      "fzfg": false,
      "metar_trigger": false,
      "taf_trigger": false,
      "metar": "METAR LCLK 070400Z 33009KT 9999 FEW025 SCT050 13/09 Q1018 NOSIG",
      "taf": "TAF LCLK 062330Z 0700/0800 31008KT 9999 FEW030"
    },
    {
      "icao": "LCPH",
      "alert": "OK",
      "vis_m": 9999,
      "fzfg": false,
      "metar_trigger": false,
      "taf_trigger": false,
      "metar": "METAR LCPH 070400Z 07006KT 010V080 9999 FEW030 SCT050 11/07 Q1018 NOSIG",
      "taf": "TAF LCPH 062330Z 0700/0800 02008KT 9999 FEW030"
    },
    {
      "icao": "LEAL",
      "alert": "OK",
      "vis_m": 9999,
      "fzfg": false,
      "metar_trigger": false,
      "taf_trigger": false,
      "metar": "METAR LEAL 070400Z VRB02KT 9999 FEW050 08/08 Q1014 NOSIG",
      "taf": "TAF LEAL 062300Z 0700/0724 VRB04KT 9999 FEW020 TX15/0713Z TN09/0706Z"
    },
    {
      "icao": "LEBB",
      "alert": "OK",
      "vis_m": 3000,
      "fzfg": false,
      "metar_trigger": false,
      "taf_trigger": false,
      "metar": "SPECI LEBB 070403Z 29010KT 260V320 3000 RA BKN015 OVC021 10/09 Q1019 TEMPO 6000",
      "taf": "TAF LEBB 062300Z 0700/0724 31009KT 7000 SCT005 BKN016 TX14/0714Z TN09/0724Z"
    },
    {
      "icao": "LEBL",
      "alert": "OK",
      "vis_m": 9999,
      "fzfg": false,
      "metar_trigger": false,
      "taf_trigger": false,
      "metar": "METAR LEBL 070400Z 13006KT 9999 SCT027 BKN045 BKN056 13/12 Q1017 RERA NOSIG",
      "taf": "TAF LEBL 062300Z 0700/0724 09014KT 9999 SCT020 TX15/0712Z TN11/0706Z"
    },
    {
      "icao": "LECH",
      "alert": "OK",
      "vis_m": 8000,
      "fzfg": false,
      "metar_trigger": false,
      "taf_trigger": false,
      "metar": "METAR LECH 070400Z AUTO 08005KT 8000 BKN015 BKN024 10/09 Q1014",
      "taf": ""
    },
    {
      "icao": "LEMD",
      "alert": "OK",
      "vis_m": 9999,
      "fzfg": false,
      "metar_trigger": false,
      "taf_trigger": false,
      "metar": "METAR LEMD 070400Z 36006KT 340V040 9999 FEW060 SCT070 BKN080 08/05 Q1014 NOSIG",
      "taf": "TAF LEMD 062300Z 0700/0806 VRB04KT 9999 SCT030 TX14/0713Z TN06/0707Z"
    },
    {
      "icao": "LEMG",
      "alert": "OK",
      "vis_m": 9999,
      "fzfg": false,
      "metar_trigger": false,
      "taf_trigger": false,
      "metar": "METAR LEMG 070400Z 32004KT 9999 FEW050 BKN065 09/06 Q1015 NOSIG",
      "taf": "TAF LEMG 062300Z 0700/0724 29006KT 9999 FEW035 TX18/0714Z TN07/0707Z"
    },
    {
      "icao": "LEVC",
      "alert": "OK",
      "vis_m": 9999,
      "fzfg": false,
      "metar_trigger": false,
      "taf_trigger": false,
      "metar": "METAR LEVC 070400Z 35006KT 9999 FEW017 SCT051 11/10 Q1013 NOSIG",
      "taf": "TAF LEVC 062300Z 0700/0724 09006KT 9999 SCT015 TX13/0713Z TN09/0706Z"
    },
    {
      "icao": "LEXJ",
      "alert": "OK",
      "vis_m": 1800,
      "fzfg": false,
      "metar_trigger": false,
      "taf_trigger": false,
      "metar": "METAR LEXJ 070400Z AUTO 28016KT 1800 -RA BR BKN007 OVC013 08/07 Q1020",
      "taf": "TAF LEXJ 070200Z 0703/0803 30009KT 9000 SCT008 BKN016 TX12/0716Z TN09/0800Z"
    },
    {
      "icao": "LEZG",
      "alert": "OK",
      "vis_m": 5000,
      "fzfg": false,
      "metar_trigger": false,
      "taf_trigger": false,
      "metar": "METAR LEZG 070400Z 30007KT 5000 -RA FEW010TCU BKN020 BKN030 10/10 Q1015 RESHRA NOSIG",
      "taf": "TAF LEZG 062300Z 0700/0724 VRB04KT 9999 BKN020 TX15/0714Z TN08/0706Z"
    },
    {
      "icao": "LEZL",
      "alert": "OK",
      "vis_m": 9999,
      "fzfg": false,
      "metar_trigger": false,
      "taf_trigger": false,
      "metar": "METAR LEZL 070400Z AUTO 22006KT 9999 BKN032 12/09 Q1015",
      "taf": "TAF LEZL 070200Z 0703/0803 VRB03KT 9999 SCT040 TX17/0715Z TN08/0707Z"
    },
    {
      "icao": "LFBD",
      "alert": "OK",
      "vis_m": 9999,
      "fzfg": false,
      "metar_trigger": false,
      "taf_trigger": false,
      "metar": "METAR LFBD 070400Z AUTO 08006KT 9999 OVC040 13/09 Q1019 NOSIG",
      "taf": "TAF LFBD 062300Z 0700/0806 08010KT CAVOK TX16/0715Z TN10/0705Z"
    },
    {
      "icao": "LFLL",
      "alert": "OK",
      "vis_m": 9999,
      "fzfg": false,
      "metar_trigger": false,
      "taf_trigger": false,
      "metar": "METAR LFLL 070400Z 15004KT CAVOK 10/07 Q1022 NOSIG",
      "taf": "TAF LFLL 062300Z 0700/0806 16003KT CAVOK"
    },
    {
      "icao": "LFLS",
      "alert": "OK",
      "vis_m": 9999,
      "fzfg": false,
      "metar_trigger": false,
      "taf_trigger": false,
      "metar": "METAR LFLS 070400Z AUTO 10005KT CAVOK 06/06 Q1022 NOSIG",
      "taf": "TAF LFLS 070200Z 0703/0803 09006KT CAVOK"
    },
    {
      "icao": "LFMN",
      "alert": "OK",
      "vis_m": 9999,
      "fzfg": false,
      "metar_trigger": false,
      "taf_trigger": false,
      "metar": "METAR LFMN 070400Z VRB03KT 9999 BKN063 13/07 Q1023 NOSIG",
      "taf": "TAF LFMN 070200Z 0703/0809 02006KT 9999 BKN080"
    },
    {
      "icao": "LFOB",
      "alert": "OK",
      "vis_m": 2800,
      "fzfg": false,
      "metar_trigger": false,
      "taf_trigger": false,
      "metar": "METAR LFOB 070400Z AUTO 32004KT 2800 BR NSC 07/07 Q1023 TEMPO 0500 FG VV///",
      "taf": "TAF LFOB 062300Z 0700/0724 35006KT 7000 NSC"
    },
    {
      "icao": "LFPO",
      "alert": "OK",
      "vis_m": 8000,
      "fzfg": false,
      "metar_trigger": false,
      "taf_trigger": false,
      "metar": "METAR LFPO 070400Z AUTO 01004KT 8000 NSC 10/09 Q1023 TEMPO 4000 BR",
      "taf": "TAF LFPO 062300Z 0700/0806 02004KT CAVOK"
    },
    {
      "icao": "LFSB",
      "alert": "OK",
      "vis_m": 5000,
      "fzfg": false,
      "metar_trigger": false,
      "taf_trigger": false,
      "metar": "METAR LFSB 070400Z AUTO 19002KT 5000 BR NSC 02/02 Q1023 NOSIG",
      "taf": "TAF LFSB 062300Z 0700/0724 VRB03KT 7000 NSC"
    },
    {
      "icao": "LGAV",
      "alert": "OK",
      "vis_m": 9999,
      "fzfg": false,
      "metar_trigger": false,
      "taf_trigger": false,
      "metar": "METAR LGAV 070350Z 29004KT 9999 FEW030 06/02 Q1026 NOSIG",
      "taf": "TAF LGAV 062300Z 0700/0724 03010KT 9999 FEW025"
    },
    {
      "icao": "LGTS",
      "alert": "OK",
      "vis_m": 9999,
      "fzfg": false,
      "metar_trigger": false,
      "taf_trigger": false,
      "metar": "METAR LGTS 070350Z 10004KT 9999 FEW020 05/02 Q1027 NOSIG",
      "taf": "TAF LGTS 062300Z 0700/0724 VRB03KT 9999 FEW025"
    },
    {
      "icao": "LHBP",
      "alert": "OK",
      "vis_m": 9999,
      "fzfg": false,
      "metar_trigger": false,
      "taf_trigger": false,
      "metar": "METAR LHBP 070400Z 00000KT CAVOK M02/M04 Q1027 NOSIG",
      "taf": "TAF LHBP 062315Z 0700/0724 VRB03KT CAVOK"
    },
    {
      "icao": "LHDC",
      "alert": "OK",
      "vis_m": 9000,
      "fzfg": false,
      "metar_trigger": false,
      "taf_trigger": false,
      "metar": "METAR LHDC 070345Z AUTO 01002KT 9000 NCD M02/M05 Q1027",
      "taf": ""
    },
    {
      "icao": "LIBD",
      "alert": "OK",
      "vis_m": 5000,
      "fzfg": false,
      "metar_trigger": false,
      "taf_trigger": false,
      "metar": "METAR LIBD 070350Z 27004KT 5000 BR NSC 10/09 Q1025",
      "taf": "TAF LIBD 062300Z 0700/0724 VRB05KT 7000 SCT018"
    },
    {
      "icao": "LIBG",
      "alert": "OK",
      "vis_m": null,
      "fzfg": false,
      "metar_trigger": false,
      "taf_trigger": false,
      "metar": "",
      "taf": "TAF LIBG 061700Z 0618/0703 VRB05KT CAVOK"
    },
    {
      "icao": "LIBP",
      "alert": "OK",
      "vis_m": 4300,
      "fzfg": false,
      "metar_trigger": false,
      "taf_trigger": false,
      "metar": "METAR LIBP 070350Z AUTO VRB01KT 4300 BR SCT053/// 08/08 Q1025",
      "taf": "TAF LIBP 062300Z 0700/0724 VRB06KT 7000 FEW025"
    },
    {
      "icao": "LIBR",
      "alert": "OK",
      "vis_m": 6000,
      "fzfg": false,
      "metar_trigger": false,
      "taf_trigger": false,
      "metar": "METAR LIBR 070350Z 31005KT 6000 NSC 10/09 Q1025",
      "taf": "TAF LIBR 062300Z 0700/0724 VRB05KT 7000 FEW015"
    },
    {
      "icao": "LICA",
      "alert": "OK",
      "vis_m": 9999,
      "fzfg": false,
      "metar_trigger": false,
      "taf_trigger": false,
      "metar": "METAR LICA 070350Z AUTO 05008KT 9999 OVC060/// 13/10 Q1023",
      "taf": "TAF LICA 062300Z 0700/0724 08010KT 9999 SCT040"
    },
    {
      "icao": "LICC",
      "alert": "OK",
      "vis_m": 9999,
      "fzfg": false,
      "metar_trigger": false,
      "taf_trigger": false,
      "metar": "METAR LICC 070350Z 07008KT CAVOK 14/12 Q1023",
      "taf": "TAF LICC 062300Z 0700/0724 07008KT 9999 SCT015 BKN040"
    },
    {
      "icao": "LICJ",
      "alert": "OK",
      "vis_m": 9999,
      "fzfg": false,
      "metar_trigger": false,
      "taf_trigger": false,
      "metar": "METAR LICJ 070350Z VRB02KT CAVOK 11/08 Q1021",
      "taf": "TAF LICJ 062300Z 0700/0724 VRB05KT 9999 FEW040"
    },
    {
      "icao": "LIMC",
      "alert": "OK",
      "vis_m": 4000,
      "fzfg": false,
      "metar_trigger": false,
      "taf_trigger": false,
      "metar": "METAR LIMC 070350Z 03005KT 4000 R35R/1400D R17L/1800U R35L/P2000N BR BCFG NSC 03/03 Q1025 NOSIG",
      "taf": "TAF LIMC 062300Z 0700/0806 VRB05KT 7000 NSC"
    },
    {
      "icao": "LIME",
      "alert": "OK",
      "vis_m": 8000,
      "fzfg": false,
      "metar_trigger": false,
      "taf_trigger": false,
      "metar": "METAR LIME 070350Z VRB01KT 8000 NSC 05/04 Q1025 NOSIG",
      "taf": "TAF LIME 062300Z 0700/0724 VRB05KT 9000 FEW030"
    },
    {
      "icao": "LIMF",
      "alert": "OK",
      "vis_m": 5000,
      "fzfg": false,
      "metar_trigger": false,
      "taf_trigger": false,
      "metar": "METAR LIMF 070350Z 30003KT 5000 BR NSC 07/04 Q1025",
      "taf": "TAF LIMF 062300Z 0700/0724 VRB04KT 4000 BR SCT035"
    },
    {
      "icao": "LIMJ",
      "alert": "OK",
      "vis_m": 7000,
      "fzfg": false,
      "metar_trigger": false,
      "taf_trigger": false,
      "metar": "METAR LIMJ 070350Z 01012KT 340V040 7000 NSC 12/06 Q1024",
      "taf": "TAF LIMJ 062300Z 0700/0724 03012KT 8000 SCT040"
    },
    {
      "icao": "LIPE",
      "alert": "OK",
      "vis_m": 5000,
      "fzfg": false,
      "metar_trigger": false,
      "taf_trigger": false,
      "metar": "METAR LIPE 070350Z 22002KT 5000 BR NSC 05/04 Q1025",
      "taf": "TAF LIPE 062300Z 0700/0724 VRB04KT 7000 BKN020"
    },
    {
      "icao": "LIPH",
      "alert": "OK",
      "vis_m": 6000,
      "fzfg": false,
      "metar_trigger": false,
      "taf_trigger": false,
      "metar": "METAR LIPH 070350Z AUTO VRB01KT 6000 2500W NCD 03/03 Q1025",
      "taf": "TAF LIPH 062300Z 0700/0724 VRB04KT 4000 BR NSC"
    },
    {
      "icao": "LIPQ",
      "alert": "OK",
      "vis_m": 2500,
      "fzfg": false,
      "metar_trigger": false,
      "taf_trigger": false,
      "metar": "METAR LIPQ 070350Z AUTO VRB02KT 2500 BR NCD 02/01 Q1025",
      "taf": "TAF LIPQ 062300Z 0700/0724 VRB04KT CAVOK"
    },
    {
      "icao": "LIPR",
      "alert": "OK",
      "vis_m": 8000,
      "fzfg": false,
      "metar_trigger": false,
      "taf_trigger": false,
      "metar": "METAR LIPR 070350Z AUTO VRB02KT 8000 NCD 05/04 Q1025",
      "taf": "TAF LIPR 062300Z 0700/0724 VRB05KT 7000 SCT020"
    },
    {
      "icao": "LIPX",
      "alert": "OK",
      "vis_m": 6000,
      "fzfg": false,
      "metar_trigger": false,
      "taf_trigger": false,
      "metar": "METAR LIPX 070350Z 33006KT 6000 NSC 05/04 Q1025",
      "taf": "TAF LIPX 062300Z 0700/0724 VRB05KT 4000 BR SCT020"
    },
    {
      "icao": "LIPY",
      "alert": "OK",
      "vis_m": 5000,
      "fzfg": false,
      "metar_trigger": false,
      "taf_trigger": false,
      "metar": "METAR LIPY 070350Z AUTO 17003KT 5000 BR NCD 05/05 Q1025",
      "taf": "TAF LIPY 062300Z 0700/0724 VRB05KT 2000 BR NSC"
    },
    {
      "icao": "LIPZ",
      "alert": "OK",
      "vis_m": 5000,
      "fzfg": false,
      "metar_trigger": false,
      "taf_trigger": false,
      "metar": "METAR LIPZ 070350Z 32002KT 5000 BR NSC 05/05 Q1025 NOSIG",
      "taf": "TAF LIPZ 062300Z 0700/0806 VRB04KT 8000 NSC"
    },
    {
      "icao": "LIRF",
      "alert": "OK",
      "vis_m": 9999,
      "fzfg": false,
      "metar_trigger": false,
      "taf_trigger": false,
      "metar": "METAR LIRF 070350Z 05006KT CAVOK 11/09 Q1023 NOSIG",
      "taf": "TAF LIRF 062300Z 0700/0806 05006KT CAVOK"
    },
    {
      "icao": "LIRN",
      "alert": "OK",
      "vis_m": 9999,
      "fzfg": false,
      "metar_trigger": false,
      "taf_trigger": false,
      "metar": "METAR LIRN 070350Z 32004KT CAVOK 12/08 Q1023 NOSIG",
      "taf": "TAF LIRN 062300Z 0700/0724 VRB05KT CAVOK"
    },
    {
      "icao": "LIRP",
      "alert": "OK",
      "vis_m": 9999,
      "fzfg": false,
      "metar_trigger": false,
      "taf_trigger": false,
      "metar": "METAR LIRP 070345Z 09006KT CAVOK 08/07 Q1023 NOSIG",
      "taf": "TAF LIRP 062300Z 0700/0724 11005KT 9999 FEW030 SCT060"
    },
    {
      "icao": "LIRZ",
      "alert": "OK",
      "vis_m": 7000,
      "fzfg": false,
      "metar_trigger": false,
      "taf_trigger": false,
      "metar": "METAR LIRZ 070350Z AUTO 35007KT 7000 NCD 05/04 Q1024",
      "taf": "TAF LIRZ 062300Z 0700/0724 VRB05KT CAVOK"
    },
    {
      "icao": "LJLJ",
      "alert": "OK",
      "vis_m": 9999,
      "fzfg": false,
      "metar_trigger": false,
      "taf_trigger": false,
      "metar": "METAR LJLJ 070400Z 26001KT CAVOK M01/M01 Q1026 NOSIG",
      "taf": "TAF LJLJ 062300Z 0700/0800 29003KT CAVOK"
    },
    {
      "icao": "LKMT",
      "alert": "OK",
      "vis_m": 9999,
      "fzfg": false,
      "metar_trigger": false,
      "taf_trigger": false,
      "metar": "METAR LKMT 070400Z 21002KT CAVOK M01/M03 Q1027 NOSIG",
      "taf": "TAF LKMT 062300Z 0700/0724 20002KT CAVOK"
    },
    {
      "icao": "LKPR",
      "alert": "OK",
      "vis_m": 6000,
      "fzfg": false,
      "metar_trigger": false,
      "taf_trigger": false,
      "metar": "METAR LKPR 070400Z 04003KT 6000 MIFG NSC 01/01 Q1025 NOSIG",
      "taf": "TAF LKPR 070200Z 0703/0809 14004KT CAVOK"
    },
    {
      "icao": "LLBG",
      "alert": "OK",
      "vis_m": 9999,
      "fzfg": false,
      "metar_trigger": false,
      "taf_trigger": false,
      "metar": "METAR LLBG 070350Z VRB03KT 9999 FEW035 11/07 Q1018 NOSIG",
      "taf": "TAF LLBG 062309Z 0700/0724 VRB04KT 9999 SCT035 TX19/0711Z TN09/0703Z"
    },
    {
      "icao": "LMML",
      "alert": "OK",
      "vis_m": 9999,
      "fzfg": false,
      "metar_trigger": false,
      "taf_trigger": false,
      "metar": "METAR LMML 070345Z 07007KT 9999 BKN006 15/14 Q1021 NOSIG",
      "taf": "TAF LMML 062300Z 0700/0724 10013KT 9999 SCT010"
    },
    {
      "icao": "LOWW",
      "alert": "OK",
      "vis_m": 9999,
      "fzfg": false,
      "metar_trigger": false,
      "taf_trigger": false,
      "metar": "METAR LOWW 070350Z 12009KT CAVOK 06/02 Q1025 NOSIG",
      "taf": "TAF LOWW 070215Z 0703/0809 13012KT CAVOK TX16/0714Z TN02/0805Z"
    },
    {
      "icao": "LPFR",
      "alert": "OK",
      "vis_m": 9999,
      "fzfg": false,
      "metar_trigger": false,
      "taf_trigger": false,
      "metar": "METAR LPFR 070400Z 29008KT CAVOK 10/07 Q1016",
      "taf": "TAF LPFR 062300Z 0700/0724 VRB02KT CAVOK"
    },
    {
      "icao": "LPMA",
      "alert": "OK",
      "vis_m": 9999,
      "fzfg": false,
      "metar_trigger": false,
      "taf_trigger": false,
      "metar": "METAR LPMA 070400Z 01011KT 9999 BKN016 13/07 Q1025",
      "taf": "TAF LPMA 062300Z 0700/0724 02012KT 9999 SCT015 SCT030"
    },
    {
      "icao": "LPPR",
      "alert": "OK",
      "vis_m": 9999,
      "fzfg": false,
      "metar_trigger": false,
      "taf_trigger": false,
      "metar": "METAR LPPR 070400Z 36008KT CAVOK 06/03 Q1019",
      "taf": "TAF LPPR 062300Z 0700/0724 35010KT CAVOK"
    },
    {
      "icao": "LPPS",
      "alert": "OK",
      "vis_m": 9999,
      "fzfg": false,
      "metar_trigger": false,
      "taf_trigger": false,
      "metar": "METAR LPPS 070400Z 02016KT 9999 FEW015 BKN030 13/07 Q1025",
      "taf": "TAF LPPS 062300Z 0700/0806 03012KT 9999 FEW015 BKN030"
    },
    {
      "icao": "LPPT",
      "alert": "OK",
      "vis_m": 9999,
      "fzfg": false,
      "metar_trigger": false,
      "taf_trigger": false,
      "metar": "METAR LPPT 070400Z 30012KT CAVOK 10/07 Q1017",
      "taf": "TAF LPPT 062300Z 0700/0806 34013KT CAVOK"
    },
    {
      "icao": "LQBK",
      "alert": "OK",
      "vis_m": 7000,
      "fzfg": false,
      "metar_trigger": false,
      "taf_trigger": false,
      "metar": "METAR LQBK 070400Z VRB02KT 7000 NSC 01/M01 Q1026 NOSIG",
      "taf": "TAF LQBK 062300Z 0700/0724 16005KT CAVOK TX17/0714Z TN00/0706Z"
    },
    {
      "icao": "LQSA",
      "alert": "OK",
      "vis_m": 9999,
      "fzfg": false,
      "metar_trigger": false,
      "taf_trigger": false,
      "metar": "METAR LQSA 070400Z VRB01KT CAVOK M01/M01 Q1026",
      "taf": "TAF LQSA 062300Z 0700/0724 VRB02KT CAVOK TX19/0714Z TNM01/0705Z"
    },
    {
      "icao": "LQTZ",
      "alert": "OK",
      "vis_m": 9999,
      "fzfg": false,
      "metar_trigger": false,
      "taf_trigger": false,
      "metar": "METAR LQTZ 070400Z 00000KT CAVOK M01/M01 Q1026",
      "taf": "TAF LQTZ 062300Z 0700/0724 VRB02KT CAVOK TX17/0714Z TNM02/0706Z"
    },
    {
      "icao": "LRBC",
      "alert": "OK",
      "vis_m": 9999,
      "fzfg": false,
      "metar_trigger": false,
      "taf_trigger": false,
      "metar": "METAR LRBC 070400Z VRB01KT CAVOK M02/M03 Q1030",
      "taf": "TAF LRBC 070200Z 0703/0712 VRB04KT CAVOK"
    },
    {
      "icao": "LRBS",
      "alert": "OK",
      "vis_m": 9999,
      "fzfg": false,
      "metar_trigger": false,
      "taf_trigger": false,
      "metar": "METAR LRBS 070400Z 02003KT CAVOK M00/M03 Q1030 NOSIG",
      "taf": "TAF LRBS 062300Z 0700/0724 VRB04KT CAVOK"
    },
    {
      "icao": "LRBV",
      "alert": "OK",
      "vis_m": 9999,
      "fzfg": false,
      "metar_trigger": false,
      "taf_trigger": false,
      "metar": "METAR LRBV 070400Z AUTO VRB02KT 9999 NCD M03/M05 Q1028",
      "taf": "TAF LRBV 070200Z 0703/0712 VRB04KT CAVOK"
    },
    {
      "icao": "LRCL",
      "alert": "OK",
      "vis_m": 9999,
      "fzfg": false,
      "metar_trigger": false,
      "taf_trigger": false,
      "metar": "METAR LRCL 070400Z 00000KT CAVOK M04/M06 Q1028",
      "taf": "TAF LRCL 070200Z 0703/0712 VRB04KT CAVOK"
    },
    {
      "icao": "LRCV",
      "alert": "OK",
      "vis_m": 9999,
      "fzfg": false,
      "metar_trigger": false,
      "taf_trigger": false,
      "metar": "METAR LRCV 070400Z 05008KT CAVOK 02/01 Q1029",
      "taf": "TAF LRCV 070200Z 0703/0712 06008KT CAVOK"
    },
    {
      "icao": "LRIA",
      "alert": "OK",
      "vis_m": 9999,
      "fzfg": false,
      "metar_trigger": false,
      "taf_trigger": false,
      "metar": "METAR LRIA 070400Z 00000KT CAVOK 01/M01 Q1029",
      "taf": "TAF LRIA 070200Z 0703/0712 VRB04KT CAVOK"
    },
    {
      "icao": "LROP",
      "alert": "OK",
      "vis_m": 9999,
      "fzfg": false,
      "metar_trigger": false,
      "taf_trigger": false,
      "metar": "METAR LROP 070400Z 03003KT CAVOK 02/M03 Q1030 NOSIG",
      "taf": "TAF LROP 062300Z 0700/0724 VRB04KT CAVOK"
    },
    {
      "icao": "LRSB",
      "alert": "OK",
      "vis_m": 9999,
      "fzfg": false,
      "metar_trigger": false,
      "taf_trigger": false,
      "metar": "METAR LRSB 070400Z COR VRB01KT CAVOK M01/M04 Q1027",
      "taf": "TAF LRSB 062300Z 0700/0724 VRB04KT CAVOK"
    },
    {
      "icao": "LRSM",
      "alert": "OK",
      "vis_m": 9999,
      "fzfg": false,
      "metar_trigger": false,
      "taf_trigger": false,
      "metar": "METAR LRSM 070400Z AUTO 00000KT 9999 NCD M02/M04 Q1028",
      "taf": ""
    },
    {
      "icao": "LRSV",
      "alert": "OK",
      "vis_m": 9999,
      "fzfg": false,
      "metar_trigger": false,
      "taf_trigger": false,
      "metar": "METAR LRSV 070400Z 25004KT CAVOK 00/M02 Q1028",
      "taf": "TAF LRSV 070200Z 0703/0712 24005KT CAVOK"
    },
    {
      "icao": "LRTM",
      "alert": "OK",
      "vis_m": 9999,
      "fzfg": false,
      "metar_trigger": false,
      "taf_trigger": false,
      "metar": "METAR LRTM 070400Z AUTO 09006KT 9999 NCD M03/M05 Q1028",
      "taf": "TAF LRTM 070200Z 0703/0712 VRB04KT CAVOK"
    },
    {
      "icao": "LRTR",
      "alert": "OK",
      "vis_m": 9999,
      "fzfg": false,
      "metar_trigger": false,
      "taf_trigger": false,
      "metar": "METAR LRTR 070400Z 12007KT CAVOK M01/M02 Q1027",
      "taf": "TAF LRTR 062300Z 0700/0724 VRB04KT CAVOK"
    },
    {
      "icao": "LTAC",
      "alert": "OK",
      "vis_m": 9999,
      "fzfg": false,
      "metar_trigger": false,
      "taf_trigger": false,
      "metar": "METAR LTAC 070350Z 14004KT 090V170 9999 BKN040 M01/M06 Q1023 NOSIG RMK RWY21C VRB02KT RWY03L 13003KT RWY21R VRB02KT RWY03R 10003KT 350V130 RWY21L 15003KT",
      "taf": "TAF LTAC 062240Z 0700/0724 03008KT 9999 BKN033"
    },
    {
      "icao": "LTFM",
      "alert": "OK",
      "vis_m": 9999,
      "fzfg": false,
      "metar_trigger": false,
      "taf_trigger": false,
      "metar": "METAR LTFM 070350Z 34004KT 280V020 9999 FEW016 04/02 Q1029 NOSIG RMK RWY17L 27005KT RWY34L VRB02KT RWY16R 27004KT RWY36 VRB02KT RWY18 26003KT",
      "taf": ""
    },
    {
      "icao": "LUKK",
      "alert": "OK",
      "vis_m": 9999,
      "fzfg": false,
      "metar_trigger": false,
      "taf_trigger": false,
      "metar": "METAR LUKK 070400Z VRB01KT 9999 OVC049 M02/M04 Q1030 NOSIG",
      "taf": "TAF LUKK 062310Z 0700/0724 VRB05KT CAVOK"
    },
    {
      "icao": "LWOH",
      "alert": "OK",
      "vis_m": null,
      "fzfg": false,
      "metar_trigger": false,
      "taf_trigger": false,
      "metar": "",
      "taf": "TAF LWOH 070230Z 0703/0803 34006KT CAVOK"
    },
    {
      "icao": "LWSK",
      "alert": "OK",
      "vis_m": 9999,
      "fzfg": false,
      "metar_trigger": false,
      "taf_trigger": false,
      "metar": "METAR LWSK 070350Z VRB01KT CAVOK M00/M02 Q1028 NOSIG",
      "taf": "TAF LWSK 070230Z 0703/0803 VRB02KT CAVOK"
    },
    {
      "icao": "LYBE",
      "alert": "OK",
      "vis_m": 9999,
      "fzfg": false,
      "metar_trigger": false,
      "taf_trigger": false,
      "metar": "METAR LYBE 070400Z 10002KT CAVOK 01/M01 Q1027 NOSIG",
      "taf": "TAF LYBE 062300Z 0700/0724 07004KT CAVOK TX18/0713Z TN01/0705Z"
    },
    {
      "icao": "LYNI",
      "alert": "OK",
      "vis_m": 9999,
      "fzfg": false,
      "metar_trigger": false,
      "taf_trigger": false,
      "metar": "METAR LYNI 070400Z 11003KT CAVOK 02/01 Q1028 NOSIG",
      "taf": "TAF LYNI 062300Z 0700/0724 13004KT CAVOK TX18/0714Z TN01/0706Z"
    },
    {
      "icao": "LYPG",
      "alert": "OK",
      "vis_m": 9999,
      "fzfg": false,
      "metar_trigger": false,
      "taf_trigger": false,
      "metar": "METAR LYPG 070400Z 34003KT CAVOK 06/01 Q1026 NOSIG",
      "taf": "TAF LYPG 062300Z 0700/0724 36005KT CAVOK TX20/0714Z TN04/0705Z"
    },
    {
      "icao": "LZIB",
      "alert": "OK",
      "vis_m": 9999,
      "fzfg": false,
      "metar_trigger": false,
      "taf_trigger": false,
      "metar": "METAR LZIB 070400Z 03007KT CAVOK 02/M01 Q1026 NOSIG",
      "taf": "TAF LZIB 062315Z 0700/0800 03004KT CAVOK"
    },
    {
      "icao": "LZKZ",
      "alert": "OK",
      "vis_m": 9999,
      "fzfg": false,
      "metar_trigger": false,
      "taf_trigger": false,
      "metar": "METAR LZKZ 070400Z 00000KT CAVOK 01/M04 Q1027 NOSIG",
      "taf": "TAF LZKZ 062315Z 0700/0800 VRB02KT CAVOK"
    },
    {
      "icao": "LZTT",
      "alert": "OK",
      "vis_m": 9999,
      "fzfg": false,
      "metar_trigger": false,
      "taf_trigger": false,
      "metar": "METAR LZTT 070400Z 29003KT CAVOK M05/M07 Q1027",
      "taf": "TAF LZTT 062315Z 0700/0800 26004KT CAVOK"
    },
    {
      "icao": "OEJN",
      "alert": "OK",
      "vis_m": 9999,
      "fzfg": false,
      "metar_trigger": false,
      "taf_trigger": false,
      "metar": "METAR OEJN 070400Z 33007KT 9999 SCT040 24/17 Q1012 NOSIG",
      "taf": "TAF OEJN 062300Z 0700/0806 35005KT 7000 SCT040"
    },
    {
      "icao": "OEMA",
      "alert": "OK",
      "vis_m": 9999,
      "fzfg": false,
      "metar_trigger": false,
      "taf_trigger": false,
      "metar": "METAR OEMA 070400Z VRB02KT 9999 SCT045 18/M01 Q1015 NOSIG",
      "taf": "TAF OEMA 062300Z 0700/0806 VRB03KT 9999 FEW040"
    },
    {
      "icao": "OJAI",
      "alert": "OK",
      "vis_m": 4500,
      "fzfg": false,
      "metar_trigger": false,
      "taf_trigger": false,
      "metar": "METAR OJAI 070400Z 10003KT 4500 HZ SCT025 02/M00 Q1018 NOSIG",
      "taf": "TAF OJAI 062250Z 0700/0806 28008KT 5000 HZ NSC"
    },
    {
      "icao": "OMAA",
      "alert": "OK",
      "vis_m": null,
      "fzfg": false,
      "metar_trigger": false,
      "taf_trigger": false,
      "metar": "",
      "taf": ""
    },
    {
      "icao": "OMDB",
      "alert": "OK",
      "vis_m": null,
      "fzfg": false,
      "metar_trigger": false,
      "taf_trigger": false,
      "metar": "",
      "taf": ""
    },
    {
      "icao": "UAAA",
      "alert": "OK",
      "vis_m": 9999,
      "fzfg": false,
      "metar_trigger": false,
      "taf_trigger": false,
      "metar": "METAR UAAA 070400Z VRB01MPS 9999 OVC012 02/M01 Q1024 NOSIG",
      "taf": "TAF UAAA 062301Z 0700/0724 04003MPS 3100 BR FU BKN011 OVC030 TX09/0709Z TNM00/0701Z"
    },
    {
      "icao": "UBBB",
      "alert": "OK",
      "vis_m": 9999,
      "fzfg": false,
      "metar_trigger": false,
      "taf_trigger": false,
      "metar": "METAR UBBB 070400Z 33016KT 9999 SCT010 BKN029 06/04 Q1020 NOSIG",
      "taf": "TAF UBBB 062305Z 0700/0724 31018G28KT 9999 BKN010 BKN030 TX09/0710Z TN05/0701Z"
    },
    {
      "icao": "UDSG",
      "alert": "OK",
      "vis_m": 9999,
      "fzfg": false,
      "metar_trigger": false,
      "taf_trigger": false,
      "metar": "METAR UDSG 070400Z 26003KT 9999 OVC040 M04/M04 Q1016 NOSIG",
      "taf": "TAF UDSG 062300Z 0700/0724 VRB06KT 1000 BR BKN010"
    },
    {
      "icao": "UDYZ",
      "alert": "OK",
      "vis_m": 2400,
      "fzfg": false,
      "metar_trigger": false,
      "taf_trigger": false,
      "metar": "METAR UDYZ 070400Z 26003KT 2400 -SN BR SCT004 OVC016 01/00 Q1017 NOSIG",
      "taf": "TAF UDYZ 062300Z 0700/0724 VRB06KT 6000 BKN040"
    },
    {
      "icao": "UGKO",
      "alert": "OK",
      "vis_m": 9999,
      "fzfg": false,
      "metar_trigger": false,
      "taf_trigger": false,
      "metar": "METAR UGKO 070400Z 12003KT 9999 -RA SCT009 BKN020 OVC044 01/01 Q1023 NOSIG",
      "taf": "TAF UGKO 062300Z 0700/0724 11007KT 9999 SCT022 BKN050 TX09/0711Z TN02/0703Z"
    }
  ]
}