{
  "ts_utc": "2026-03-07T18:20:59Z",
  "threshold_m": 150,
  "source": "stations_override.txt (ICAO list) + aviationweather.gov (METAR/TAF raw)",
  "station_count": 159,
  "stations": [
    {
      "icao": "BIKF",
      "alert": "OK",
      "vis_m": 9999,
      "fzfg": false,
      "metar_trigger": false,
      "taf_trigger": false,
      "metar": "METAR BIKF 071800Z 19023KT 9999 VCSH FEW021CB BKN048 BKN160 02/M03 Q0992",
      "taf": "TAF BIKF 071654Z 0718/0818 22025G35KT 9999 SCT015 BKN035 TX03/0816Z TNM01/0809Z"
    },
    {
      "icao": "BKPR",
      "alert": "OK",
      "vis_m": 9999,
      "fzfg": false,
      "metar_trigger": false,
      "taf_trigger": false,
      "metar": "METAR BKPR 071800Z VRB11KT CAVOK 09/03 Q1025 NOSIG",
      "taf": "TAF BKPR 071730Z 0718/0818 VRB05KT CAVOK"
    },
    {
      "icao": "EBCI",
      "alert": "OK",
      "vis_m": 9000,
      "fzfg": false,
      "metar_trigger": false,
      "taf_trigger": false,
      "metar": "METAR EBCI 071750Z 36003KT 270V040 9000 NSC 13/09 Q1024 NOSIG",
      "taf": "TAF EBCI 071716Z 0718/0824 05005KT 8000 NSC"
    },
    {
      "icao": "EDDB",
      "alert": "OK",
      "vis_m": 9999,
      "fzfg": false,
      "metar_trigger": false,
      "taf_trigger": false,
      "metar": "METAR EDDB 071750Z AUTO 11005KT 080V140 CAVOK 12/03 Q1025 NOSIG",
      "taf": "TAF EDDB 071700Z 0718/0818 10005KT CAVOK"
    },
    {
      "icao": "EDDH",
      "alert": "OK",
      "vis_m": 9999,
      "fzfg": false,
      "metar_trigger": false,
      "taf_trigger": false,
      "metar": "METAR EDDH 071750Z AUTO 31002KT CAVOK 12/06 Q1025 NOSIG",
      "taf": "TAF EDDH 071700Z 0718/0824 VRB03KT CAVOK"
    },
    {
      "icao": "EDDK",
      "alert": "OK",
      "vis_m": 9999,
      "fzfg": false,
      "metar_trigger": false,
      "taf_trigger": false,
      "metar": "METAR EDDK 071750Z AUTO 03003KT CAVOK 14/05 Q1023 NOSIG",
      "taf": "TAF EDDK 071700Z 0718/0824 VRB03KT CAVOK"
    },
    {
      "icao": "EDDN",
      "alert": "OK",
      "vis_m": 9999,
      "fzfg": false,
      "metar_trigger": false,
      "taf_trigger": false,
      "metar": "METAR EDDN 071750Z AUTO 03001KT CAVOK 11/02 Q1023 NOSIG",
      "taf": "TAF EDDN 071700Z 0718/0818 VRB03KT CAVOK"
    },
    {
      "icao": "EDDS",
      "alert": "OK",
      "vis_m": 9999,
      "fzfg": false,
      "metar_trigger": false,
      "taf_trigger": false,
      "metar": "METAR EDDS 071750Z AUTO 35004KT CAVOK 14/05 Q1022 NOSIG",
      "taf": "TAF EDDS 071700Z 0718/0818 03007KT CAVOK"
    },
    {
      "icao": "EDFH",
      "alert": "OK",
      "vis_m": 9999,
      "fzfg": false,
      "metar_trigger": false,
      "taf_trigger": false,
      "metar": "METAR EDFH 071750Z VRB02KT CAVOK 12/02 Q1023",
      "taf": "TAF EDFH 071700Z 0718/0818 07005KT CAVOK"
    },
    {
      "icao": "EDJA",
      "alert": "OK",
      "vis_m": 9999,
      "fzfg": false,
      "metar_trigger": false,
      "taf_trigger": false,
      "metar": "METAR EDJA 071750Z 05006KT CAVOK 08/04 Q1023",
      "taf": "TAF EDJA 071700Z 0718/0803 05005KT CAVOK"
    },
    {
      "icao": "EDLW",
      "alert": "OK",
      "vis_m": 9999,
      "fzfg": false,
      "metar_trigger": false,
      "taf_trigger": false,
      "metar": "METAR EDLW 071750Z 04003KT CAVOK 12/05 Q1024",
      "taf": "TAF EDLW 071700Z 0718/0818 VRB03KT CAVOK"
    },
    {
      "icao": "EDNY",
      "alert": "OK",
      "vis_m": 9999,
      "fzfg": false,
      "metar_trigger": false,
      "taf_trigger": false,
      "metar": "METAR EDNY 071750Z 06003KT CAVOK 09/06 Q1022",
      "taf": "TAF EDNY 071700Z 0718/0803 04003KT CAVOK"
    },
    {
      "icao": "EDSB",
      "alert": "OK",
      "vis_m": 9999,
      "fzfg": false,
      "metar_trigger": false,
      "taf_trigger": false,
      "metar": "METAR EDSB 071750Z 01006KT CAVOK 15/05 Q1022",
      "taf": "TAF EDSB 071700Z 0718/0818 01005KT CAVOK"
    },
    {
      "icao": "EETN",
      "alert": "OK",
      "vis_m": 9999,
      "fzfg": false,
      "metar_trigger": false,
      "taf_trigger": false,
      "metar": "METAR EETN 071750Z 26006KT CAVOK 01/M03 Q1029 NOSIG",
      "taf": "TAF EETN 071730Z 0718/0818 26005KT CAVOK"
    },
    {
      "icao": "EFTU",
      "alert": "OK",
      "vis_m": 9999,
      "fzfg": false,
      "metar_trigger": false,
      "taf_trigger": false,
      "metar": "METAR EFTU 071750Z AUTO 27003KT CAVOK 01/M02 Q1029",
      "taf": "TAF EFTU 071727Z 0718/0818 25004KT CAVOK"
    },
    {
      "icao": "EGBB",
      "alert": "OK",
      "vis_m": 7000,
      "fzfg": false,
      "metar_trigger": false,
      "taf_trigger": false,
      "metar": "METAR EGBB 071750Z 14005KT 7000 OVC009 07/06 Q1025",
      "taf": "TAF EGBB 071706Z 0718/0818 13005KT 9999 BKN010"
    },
    {
      "icao": "EGGP",
      "alert": "OK",
      "vis_m": 9999,
      "fzfg": false,
      "metar_trigger": false,
      "taf_trigger": false,
      "metar": "METAR EGGP 071750Z 15007KT 110V170 9999 BKN018 OVC024 08/05 Q1025",
      "taf": "TAF EGGP 071659Z 0718/0818 16008KT 9999 SCT020"
    },
    {
      "icao": "EGGW",
      "alert": "OK",
      "vis_m": 1900,
      "fzfg": false,
      "metar_trigger": false,
      "taf_trigger": false,
      "metar": "METAR EGGW 071750Z COR 12005KT 1900 BR OVC001 07/07 Q1025",
      "taf": "TAF EGGW 071659Z 0718/0818 07005KT 3500 BR BKN003"
    },
    {
      "icao": "EGKK",
      "alert": "OK",
      "vis_m": 7000,
      "fzfg": false,
      "metar_trigger": false,
      "taf_trigger": false,
      "metar": "METAR EGKK 071750Z 08009KT 7000 BKN005 09/08 Q1025",
      "taf": "TAF EGKK 071659Z 0718/0824 07005KT 9999 BKN006"
    },
    {
      "icao": "EGNM",
      "alert": "OK",
      "vis_m": 9999,
      "fzfg": false,
      "metar_trigger": false,
      "taf_trigger": false,
      "metar": "METAR EGNM 071750Z 15006KT 9999 FEW012 BKN017 06/03 Q1025",
      "taf": "TAF EGNM 071658Z 0718/0818 14006KT 9999 SCT020"
    },
    {
      "icao": "EGPD",
      "alert": "OK",
      "vis_m": 9999,
      "fzfg": false,
      "metar_trigger": false,
      "taf_trigger": false,
      "metar": "METAR EGPD 071750Z COR AUTO 19010KT 9999 NCD 07/02 Q1022 NOSIG",
      "taf": "TAF EGPD 071654Z 0718/0818 18007KT CAVOK"
    },
    {
      "icao": "EGPF",
      "alert": "OK",
      "vis_m": 9999,
      "fzfg": false,
      "metar_trigger": false,
      "taf_trigger": false,
      "metar": "METAR EGPF 071750Z AUTO 22009KT 9999 NCD 07/03 Q1024",
      "taf": "TAF EGPF 071654Z 0718/0818 18010KT 9999 SCT025"
    },
    {
      "icao": "EHBK",
      "alert": "OK",
      "vis_m": 9999,
      "fzfg": false,
      "metar_trigger": false,
      "taf_trigger": false,
      "metar": "METAR EHBK 071755Z AUTO 05006KT 9999 NSC 11/06 Q1023 NOSIG",
      "taf": "TAF EHBK 071721Z 0718/0824 VRB02KT CAVOK"
    },
    {
      "icao": "EHEH",
      "alert": "OK",
      "vis_m": 5000,
      "fzfg": false,
      "metar_trigger": false,
      "taf_trigger": false,
      "metar": "METAR EHEH 071755Z AUTO 01004KT 5000 BR OVC190 12/09 Q1024 WHT NOSIG RMK TREND REMOTE BY EHWX",
      "taf": "TAF EHEH 071744Z 0718/0824 02005KT 6000 NSC"
    },
    {
      "icao": "EKBI",
      "alert": "OK",
      "vis_m": 50,
      "fzfg": false,
      "metar_trigger": false,
      "taf_trigger": false,
      "metar": "METAR EKBI 071750Z AUTO 00000KT 0050 R09/0250N R27/0450D FG FEW003/// SCT013/// SCT026/// BKN120/// 08/08 Q1026",
      "taf": ""
    },
    {
      "icao": "EKCH",
      "alert": "OK",
      "vis_m": 9999,
      "fzfg": false,
      "metar_trigger": false,
      "taf_trigger": false,
      "metar": "METAR EKCH 071750Z AUTO 18001KT 9999 BKN099/// BKN150/// 05/M00 Q1027 NOSIG",
      "taf": "TAF EKCH 071727Z 0718/0818 15007KT CAVOK"
    },
    {
      "icao": "ENAL",
      "alert": "OK",
      "vis_m": 9999,
      "fzfg": false,
      "metar_trigger": false,
      "taf_trigger": false,
      "metar": "METAR ENAL 071750Z 25005KT 9999 FEW009 05/04 Q1023",
      "taf": "TAF ENAL 071700Z 0718/0803 24008KT CAVOK"
    },
    {
      "icao": "ENBR",
      "alert": "OK",
      "vis_m": 3500,
      "fzfg": false,
      "metar_trigger": false,
      "taf_trigger": false,
      "metar": "METAR ENBR 071750Z 17007KT 3500 BR OVC009 05/05 Q1026 TEMPO 2000 BR RMK WIND 1200FT 16014KT",
      "taf": ""
    },
    {
      "icao": "ENGM",
      "alert": "OK",
      "vis_m": 9999,
      "fzfg": false,
      "metar_trigger": false,
      "taf_trigger": false,
      "metar": "METAR ENGM 071750Z 04003KT 9999 FEW005 BKN008 02/01 Q1028 NOSIG",
      "taf": "TAF ENGM 071700Z 0718/0818 03005KT 9999 BKN008"
    },
    {
      "icao": "ENHD",
      "alert": "OK",
      "vis_m": 7000,
      "fzfg": false,
      "metar_trigger": false,
      "taf_trigger": false,
      "metar": "METAR ENHD 071750Z 00000KT 7000 OVC014 06/05 Q1026",
      "taf": "TAF ENHD 071400Z 0715/0723 VRB03KT 8000 SCT007 BKN015"
    },
    {
      "icao": "ENTC",
      "alert": "OK",
      "vis_m": 9999,
      "fzfg": false,
      "metar_trigger": false,
      "taf_trigger": false,
      "metar": "METAR ENTC 071750Z 23017KT 9999 BKN070 04/M02 Q1016 NOSIG RMK WIND 2600FT 19018KT",
      "taf": "TAF ENTC 071700Z 0718/0818 20022KT 9999 -RA FEW015 BKN030"
    },
    {
      "icao": "ENTO",
      "alert": "OK",
      "vis_m": 9999,
      "fzfg": false,
      "metar_trigger": false,
      "taf_trigger": false,
      "metar": "METAR ENTO 071750Z 36004KT 9999 BKN025 OVC031 04/04 Q1028 NOSIG",
      "taf": "TAF ENTO 071700Z 0718/0818 01005KT 9999 BKN020"
    },
    {
      "icao": "ENVA",
      "alert": "OK",
      "vis_m": 9999,
      "fzfg": false,
      "metar_trigger": false,
      "taf_trigger": false,
      "metar": "METAR ENVA 071750Z 12005KT CAVOK 06/00 Q1024 RMK WIND 670FT 15013KT",
      "taf": "TAF ENVA 071700Z 0718/0818 10005KT CAVOK"
    },
    {
      "icao": "ENZV",
      "alert": "OK",
      "vis_m": 4000,
      "fzfg": false,
      "metar_trigger": false,
      "taf_trigger": false,
      "metar": "METAR ENZV 071750Z 30002KT 4000 BR SCT021 BKN029 06/04 Q1027 NOSIG",
      "taf": "TAF ENZV 071700Z 0718/0818 VRB05KT 7000 BKN015"
    },
    {
      "icao": "EPGD",
      "alert": "OK",
      "vis_m": 9999,
      "fzfg": false,
      "metar_trigger": false,
      "taf_trigger": false,
      "metar": "METAR EPGD 071800Z 13005KT CAVOK 09/M01 Q1027",
      "taf": "TAF EPGD 071730Z 0718/0818 VRB02KT CAVOK"
    },
    {
      "icao": "EPKK",
      "alert": "OK",
      "vis_m": 9999,
      "fzfg": false,
      "metar_trigger": false,
      "taf_trigger": false,
      "metar": "METAR EPKK 071800Z 04004KT CAVOK 08/M04 Q1027",
      "taf": "TAF EPKK 071730Z 0718/0818 05004KT CAVOK"
    },
    {
      "icao": "EPKT",
      "alert": "OK",
      "vis_m": 9999,
      "fzfg": false,
      "metar_trigger": false,
      "taf_trigger": false,
      "metar": "METAR EPKT 071800Z 08007KT CAVOK 07/M04 Q1027",
      "taf": "TAF EPKT 071730Z 0718/0818 09005KT CAVOK"
    },
    {
      "icao": "EPLB",
      "alert": "OK",
      "vis_m": 9999,
      "fzfg": false,
      "metar_trigger": false,
      "taf_trigger": false,
      "metar": "METAR EPLB 071800Z 04002KT CAVOK 03/M03 Q1028",
      "taf": "TAF EPLB 071730Z 0718/0818 VRB02KT CAVOK"
    },
    {
      "icao": "EPMO",
      "alert": "OK",
      "vis_m": 9999,
      "fzfg": false,
      "metar_trigger": false,
      "taf_trigger": false,
      "metar": "METAR EPMO 071800Z 07002KT CAVOK 07/M04 Q1028",
      "taf": "TAF EPMO 071730Z 0718/0818 VRB03KT CAVOK"
    },
    {
      "icao": "EPPO",
      "alert": "OK",
      "vis_m": 9999,
      "fzfg": false,
      "metar_trigger": false,
      "taf_trigger": false,
      "metar": "METAR EPPO 071800Z 08005KT CAVOK 06/M02 Q1027",
      "taf": "TAF EPPO 071730Z 0718/0818 10005KT CAVOK"
    },
    {
      "icao": "EPRA",
      "alert": "OK",
      "vis_m": 9999,
      "fzfg": false,
      "metar_trigger": false,
      "taf_trigger": false,
      "metar": "METAR EPRA 071800Z 09004KT CAVOK 06/M07 Q1028",
      "taf": "TAF EPRA 071730Z 0718/0803 VRB02KT CAVOK"
    },
    {
      "icao": "EPRZ",
      "alert": "OK",
      "vis_m": 9999,
      "fzfg": false,
      "metar_trigger": false,
      "taf_trigger": false,
      "metar": "METAR EPRZ 071800Z VRB02KT CAVOK 06/M04 Q1027",
      "taf": "TAF EPRZ 071730Z 0718/0818 04004KT CAVOK"
    },
    {
      "icao": "EPSC",
      "alert": "OK",
      "vis_m": 9999,
      "fzfg": false,
      "metar_trigger": false,
      "taf_trigger": false,
      "metar": "METAR EPSC 071800Z 11001KT CAVOK 08/03 Q1026",
      "taf": "TAF EPSC 071730Z 0718/0818 11005KT CAVOK"
    },
    {
      "icao": "EPSY",
      "alert": "OK",
      "vis_m": 9999,
      "fzfg": false,
      "metar_trigger": false,
      "taf_trigger": false,
      "metar": "METAR EPSY 071800Z 00000KT CAVOK 03/M04 Q1028",
      "taf": "TAF EPSY 071730Z 0718/0803 VRB02KT CAVOK"
    },
    {
      "icao": "EPWA",
      "alert": "OK",
      "vis_m": 9999,
      "fzfg": false,
      "metar_trigger": false,
      "taf_trigger": false,
      "metar": "METAR EPWA 071800Z 12003KT CAVOK 06/M05 Q1028 NOSIG",
      "taf": "TAF EPWA 071730Z 0718/0818 VRB02KT CAVOK"
    },
    {
      "icao": "EPWR",
      "alert": "OK",
      "vis_m": 9999,
      "fzfg": false,
      "metar_trigger": false,
      "taf_trigger": false,
      "metar": "METAR EPWR 071800Z 09004KT CAVOK 08/M01 Q1026",
      "taf": "TAF EPWR 071730Z 0718/0818 08005KT CAVOK"
    },
    {
      "icao": "ESGG",
      "alert": "OK",
      "vis_m": 6000,
      "fzfg": false,
      "metar_trigger": false,
      "taf_trigger": false,
      "metar": "METAR ESGG 071750Z 03003KT 6000 NSC 04/03 Q1027",
      "taf": "TAF ESGG 071730Z 0718/0818 VRB03KT 8000 SCT040 BKN060"
    },
    {
      "icao": "ESKN",
      "alert": "OK",
      "vis_m": 9999,
      "fzfg": false,
      "metar_trigger": false,
      "taf_trigger": false,
      "metar": "METAR ESKN 071750Z 00000KT 9999 BKN048 03/03 Q1029",
      "taf": "TAF ESKN 071730Z 0718/0818 VRB03KT 9000 BKN045"
    },
    {
      "icao": "ESMS",
      "alert": "OK",
      "vis_m": 9999,
      "fzfg": false,
      "metar_trigger": false,
      "taf_trigger": false,
      "metar": "METAR ESMS 071750Z 11004KT CAVOK 07/00 Q1026",
      "taf": "TAF ESMS 071727Z 0718/0818 12005KT CAVOK"
    },
    {
      "icao": "ESSA",
      "alert": "OK",
      "vis_m": 9999,
      "fzfg": false,
      "metar_trigger": false,
      "taf_trigger": false,
      "metar": "METAR ESSA 071750Z 05003KT 9999 BCFG BKN037 02/02 Q1029 NOSIG",
      "taf": "TAF ESSA 071730Z 0718/0818 VRB03KT 9000 BKN040"
    },
    {
      "icao": "EYKA",
      "alert": "OK",
      "vis_m": 9999,
      "fzfg": false,
      "metar_trigger": false,
      "taf_trigger": false,
      "metar": "METAR EYKA 071750Z 10001KT CAVOK 01/M04 Q1029",
      "taf": "TAF EYKA 071715Z 0718/0818 VRB04KT 9000 NSC"
    },
    {
      "icao": "EYPA",
      "alert": "OK",
      "vis_m": 9999,
      "fzfg": false,
      "metar_trigger": false,
      "taf_trigger": false,
      "metar": "METAR EYPA 071750Z VRB01KT CAVOK 01/M01 Q1029",
      "taf": "TAF EYPA 071718Z 0718/0818 VRB04KT 8000 NSC"
    },
    {
      "icao": "EYVI",
      "alert": "OK",
      "vis_m": 9999,
      "fzfg": false,
      "metar_trigger": false,
      "taf_trigger": false,
      "metar": "METAR EYVI 071750Z 03001KT CAVOK 04/M05 Q1028 NOSIG",
      "taf": "TAF EYVI 071716Z 0718/0818 VRB04KT 8000 NSC"
    },
    {
      "icao": "GCFV",
      "alert": "OK",
      "vis_m": 9999,
      "fzfg": false,
      "metar_trigger": false,
      "taf_trigger": false,
      "metar": "METAR GCFV 071800Z 01020KT 9999 FEW030 BKN040 17/08 Q1019",
      "taf": "TAF GCFV 071400Z 0715/0815 02018KT 9999 FEW030 BKN040 TX20/0814Z TN15/0806Z"
    },
    {
      "icao": "GCLP",
      "alert": "OK",
      "vis_m": 9999,
      "fzfg": false,
      "metar_trigger": false,
      "taf_trigger": false,
      "metar": "METAR GCLP 071800Z 01021KT 340V040 9999 BKN035 17/09 Q1019 NOSIG",
      "taf": "TAF GCLP 071400Z 0715/0815 02021KT 9999 BKN035 TX20/0814Z TN15/0806Z"
    },
    {
      "icao": "GCTS",
      "alert": "OK",
      "vis_m": 9999,
      "fzfg": false,
      "metar_trigger": false,
      "taf_trigger": false,
      "metar": "METAR GCTS 071800Z 08025KT 9999 FEW030 SCT045 18/09 Q1019 NOSIG",
      "taf": "TAF GCTS 071400Z 0715/0815 08024KT 9999 SCT045 TX22/0814Z TN14/0806Z"
    },
    {
      "icao": "GMAD",
      "alert": "OK",
      "vis_m": 9999,
      "fzfg": false,
      "metar_trigger": false,
      "taf_trigger": false,
      "metar": "METAR GMAD 071800Z 23009KT CAVOK 17/10 Q1015 NOSIG",
      "taf": "TAF GMAD 071700Z 0718/0824 18008KT 8000 SCT020"
    },
    {
      "icao": "GMMN",
      "alert": "OK",
      "vis_m": 9999,
      "fzfg": false,
      "metar_trigger": false,
      "taf_trigger": false,
      "metar": "METAR GMMN 071800Z 32006KT 9999 BKN026 13/10 Q1018 NOSIG",
      "taf": "TAF GMMN 071700Z 0718/0824 30006KT 9999 BKN026"
    },
    {
      "icao": "GMMX",
      "alert": "OK",
      "vis_m": 9999,
      "fzfg": false,
      "metar_trigger": false,
      "taf_trigger": false,
      "metar": "METAR GMMX 071800Z 08003KT 020V160 9999 SCT020 SCT040 15/05 Q1017 NOSIG",
      "taf": "TAF GMMX 071700Z 0718/0824 04006KT 8000 SCT020 SCT040"
    },
    {
      "icao": "HEGN",
      "alert": "OK",
      "vis_m": 9999,
      "fzfg": false,
      "metar_trigger": false,
      "taf_trigger": false,
      "metar": "METAR HEGN 071800Z 32013KT CAVOK 20/M01 Q1015 NOSIG",
      "taf": "TAF HEGN 071700Z 0718/0824 32010G24KT CAVOK"
    },
    {
      "icao": "HEMA",
      "alert": "OK",
      "vis_m": 9999,
      "fzfg": false,
      "metar_trigger": false,
      "taf_trigger": false,
      "metar": "METAR HEMA 071800Z 32011KT CAVOK 20/11 Q1015 NOSIG",
      "taf": "TAF HEMA 071704Z 0718/0824 33010G24KT CAVOK"
    },
    {
      "icao": "HESH",
      "alert": "OK",
      "vis_m": 9999,
      "fzfg": false,
      "metar_trigger": false,
      "taf_trigger": false,
      "metar": "METAR HESH 071800Z 33008KT CAVOK 21/08 Q1015 NOSIG",
      "taf": "TAF HESH 071700Z 0718/0824 35006G18KT CAVOK"
    },
    {
      "icao": "HESX",
      "alert": "OK",
      "vis_m": 9999,
      "fzfg": false,
      "metar_trigger": false,
      "taf_trigger": false,
      "metar": "METAR HESX 071800Z 35011KT CAVOK 16/09 Q1020 NOSIG",
      "taf": "TAF HESX 071704Z 0718/0824 34010KT CAVOK"
    },
    {
      "icao": "LATI",
      "alert": "OK",
      "vis_m": 9999,
      "fzfg": false,
      "metar_trigger": false,
      "taf_trigger": false,
      "metar": "METAR LATI 071820Z 00000KT 9999 SCT150 13/05 Q1026 NOSIG",
      "taf": "TAF LATI 071700Z 0718/0818 VRB03KT CAVOK TX18/0812Z TN08/0805Z"
    },
    {
      "icao": "LBPD",
      "alert": "OK",
      "vis_m": 9999,
      "fzfg": false,
      "metar_trigger": false,
      "taf_trigger": false,
      "metar": "METAR LBPD 071800Z AUTO 11007KT 9999 NCD 08/02 Q1027 NOSIG",
      "taf": "TAF LBPD 071700Z 0718/0818 09010KT CAVOK"
    },
    {
      "icao": "LBSF",
      "alert": "OK",
      "vis_m": 9999,
      "fzfg": false,
      "metar_trigger": false,
      "taf_trigger": false,
      "metar": "METAR LBSF 071800Z AUTO 09008KT 9999 NCD 07/02 Q1026 NOSIG",
      "taf": "TAF LBSF 071700Z 0718/0818 VRB03KT CAVOK"
    },
    {
      "icao": "LBWN",
      "alert": "OK",
      "vis_m": 9999,
      "fzfg": false,
      "metar_trigger": false,
      "taf_trigger": false,
      "metar": "METAR LBWN 071800Z AUTO 08003KT 9999 NCD 04/01 Q1030 NOSIG",
      "taf": "TAF LBWN 071700Z 0718/0818 VRB03KT 9999 SCT040"
    },
    {
      "icao": "LCLK",
      "alert": "OK",
      "vis_m": 9999,
      "fzfg": false,
      "metar_trigger": false,
      "taf_trigger": false,
      "metar": "METAR LCLK 071800Z 31006KT 290V040 CAVOK 10/02 Q1020 NOSIG",
      "taf": "TAF LCLK 071730Z 0718/0818 02010KT 9999 FEW025"
    },
    {
      "icao": "LCPH",
      "alert": "OK",
      "vis_m": 9999,
      "fzfg": false,
      "metar_trigger": false,
      "taf_trigger": false,
      "metar": "METAR LCPH 071800Z 07008KT 010V080 9999 FEW050 BKN070 14/00 Q1020 NOSIG",
      "taf": "TAF LCPH 071730Z 0718/0818 14010KT 9999 FEW020"
    },
    {
      "icao": "LEAL",
      "alert": "OK",
      "vis_m": 9999,
      "fzfg": false,
      "metar_trigger": false,
      "taf_trigger": false,
      "metar": "METAR LEAL 071800Z 19001KT CAVOK 14/09 Q1018 NOSIG",
      "taf": "TAF LEAL 071700Z 0718/0818 VRB04KT CAVOK TX17/0813Z TN07/0806Z"
    },
    {
      "icao": "LEBB",
      "alert": "OK",
      "vis_m": 9999,
      "fzfg": false,
      "metar_trigger": false,
      "taf_trigger": false,
      "metar": "METAR LEBB 071800Z 32005KT 9999 SCT023 BKN035 12/10 Q1021 NOSIG",
      "taf": "TAF LEBB 071700Z 0718/0818 12007KT 9000 BKN016 TX17/0814Z TN07/0806Z"
    },
    {
      "icao": "LEBL",
      "alert": "OK",
      "vis_m": 9999,
      "fzfg": false,
      "metar_trigger": false,
      "taf_trigger": false,
      "metar": "METAR LEBL 071800Z 35003G13KT 9999 OVC060 12/11 Q1021 NOSIG",
      "taf": "TAF LEBL 071700Z 0718/0818 VRB04KT 9999 FEW030 BKN040 TX15/0812Z TN09/0806Z"
    },
    {
      "icao": "LECH",
      "alert": "OK",
      "vis_m": 9999,
      "fzfg": false,
      "metar_trigger": false,
      "taf_trigger": false,
      "metar": "METAR LECH 071800Z AUTO 08007KT 9999 SCT004 BKN009 OVC050 09/08 Q1020",
      "taf": ""
    },
    {
      "icao": "LEMD",
      "alert": "OK",
      "vis_m": 9999,
      "fzfg": false,
      "metar_trigger": false,
      "taf_trigger": false,
      "metar": "METAR LEMD 071800Z VRB01KT 9999 SCT050 09/06 Q1017 NOSIG",
      "taf": "TAF LEMD 071700Z 0718/0824 VRB04KT 9999 SCT030 TX13/0815Z TN05/0806Z"
    },
    {
      "icao": "LEMG",
      "alert": "OK",
      "vis_m": 9999,
      "fzfg": false,
      "metar_trigger": false,
      "taf_trigger": false,
      "metar": "METAR LEMG 071800Z 27005KT 9999 BKN055 15/08 Q1017 NOSIG",
      "taf": "TAF LEMG 071700Z 0718/0818 30006KT 9999 SCT040 TX16/0814Z TN08/0807Z"
    },
    {
      "icao": "LEVC",
      "alert": "OK",
      "vis_m": 9999,
      "fzfg": false,
      "metar_trigger": false,
      "taf_trigger": false,
      "metar": "METAR LEVC 071800Z 35005KT 310V030 9999 FEW037 BKN052 12/09 Q1019 NOSIG",
      "taf": "TAF LEVC 071700Z 0718/0818 05008KT 9999 SCT015 TX14/0813Z TN09/0806Z"
    },
    {
      "icao": "LEXJ",
      "alert": "OK",
      "vis_m": 9000,
      "fzfg": false,
      "metar_trigger": false,
      "taf_trigger": false,
      "metar": "METAR LEXJ 071800Z 26008KT 9000 BKN010 OVC018 10/08 Q1021",
      "taf": "TAF LEXJ 071400Z 0715/0815 26009KT 9000 SCT008 BKN016 TX15/0813Z TN07/0806Z"
    },
    {
      "icao": "LEZG",
      "alert": "OK",
      "vis_m": 9999,
      "fzfg": false,
      "metar_trigger": false,
      "taf_trigger": false,
      "metar": "METAR LEZG 071800Z 11008KT 080V150 9999 BKN060 10/09 Q1020 NOSIG",
      "taf": "TAF LEZG 071700Z 0718/0818 11009KT 9999 FEW020 TX15/0814Z TN06/0806Z"
    },
    {
      "icao": "LEZL",
      "alert": "OK",
      "vis_m": 9999,
      "fzfg": false,
      "metar_trigger": false,
      "taf_trigger": false,
      "metar": "METAR LEZL 071800Z 15003KT CAVOK 16/11 Q1017 NOSIG",
      "taf": "TAF LEZL 071400Z 0715/0815 VRB03KT 9999 FEW030 TX17/0715Z TN10/0807Z"
    },
    {
      "icao": "LFBD",
      "alert": "OK",
      "vis_m": 9999,
      "fzfg": false,
      "metar_trigger": false,
      "taf_trigger": false,
      "metar": "METAR LFBD 071800Z AUTO 03003KT 9999 BKN047 OVC062 16/10 Q1020 TEMPO BKN030TCU",
      "taf": "TAF LFBD 071700Z 0718/0824 VRB03KT 9999 BKN045 TX15/0813Z TN09/0900Z"
    },
    {
      "icao": "LFLL",
      "alert": "OK",
      "vis_m": 9999,
      "fzfg": false,
      "metar_trigger": false,
      "taf_trigger": false,
      "metar": "METAR LFLL 071800Z 16007KT 9999 FEW050 SCT250 15/06 Q1022 NOSIG",
      "taf": "TAF LFLL 071700Z 0718/0824 19005KT 9999 FEW050"
    },
    {
      "icao": "LFLS",
      "alert": "OK",
      "vis_m": 9999,
      "fzfg": false,
      "metar_trigger": false,
      "taf_trigger": false,
      "metar": "METAR LFLS 071800Z AUTO VRB01KT CAVOK 11/06 Q1023 NOSIG",
      "taf": "TAF LFLS 071400Z 0715/0815 26006KT CAVOK"
    },
    {
      "icao": "LFMN",
      "alert": "OK",
      "vis_m": 9999,
      "fzfg": false,
      "metar_trigger": false,
      "taf_trigger": false,
      "metar": "METAR LFMN 071800Z 05005KT 9999 BKN100 OVC260 15/10 Q1024 NOSIG",
      "taf": "TAF LFMN 071400Z 0715/0821 09012KT 9999 SCT050"
    },
    {
      "icao": "LFOB",
      "alert": "OK",
      "vis_m": 4400,
      "fzfg": false,
      "metar_trigger": false,
      "taf_trigger": false,
      "metar": "METAR LFOB 071800Z AUTO 03005KT 4400 BR NSC 10/09 Q1023 NOSIG",
      "taf": "TAF LFOB 071700Z 0718/0818 03005KT 4000 BR SCT015"
    },
    {
      "icao": "LFPO",
      "alert": "OK",
      "vis_m": 9000,
      "fzfg": false,
      "metar_trigger": false,
      "taf_trigger": false,
      "metar": "METAR LFPO 071800Z AUTO 02005KT 010V070 9000 NSC 15/09 Q1022 NOSIG",
      "taf": "TAF LFPO 071700Z 0718/0824 04005KT CAVOK"
    },
    {
      "icao": "LFSB",
      "alert": "OK",
      "vis_m": 9999,
      "fzfg": false,
      "metar_trigger": false,
      "taf_trigger": false,
      "metar": "METAR LFSB 071800Z AUTO 31003KT CAVOK 11/06 Q1022 NOSIG",
      "taf": "TAF LFSB 071700Z 0718/0818 34004KT CAVOK"
    },
    {
      "icao": "LGAV",
      "alert": "OK",
      "vis_m": 9999,
      "fzfg": false,
      "metar_trigger": false,
      "taf_trigger": false,
      "metar": "METAR LGAV 071750Z 04010KT 9999 FEW030 12/03 Q1027 NOSIG",
      "taf": "TAF LGAV 071700Z 0718/0818 03014KT 9999 FEW025"
    },
    {
      "icao": "LGTS",
      "alert": "OK",
      "vis_m": 9999,
      "fzfg": false,
      "metar_trigger": false,
      "taf_trigger": false,
      "metar": "METAR LGTS 071750Z 09005KT 9999 FEW020 11/06 Q1027 NOSIG",
      "taf": "TAF LGTS 071700Z 0718/0818 16013KT 9999 SCT030"
    },
    {
      "icao": "LHBP",
      "alert": "OK",
      "vis_m": 9999,
      "fzfg": false,
      "metar_trigger": false,
      "taf_trigger": false,
      "metar": "METAR LHBP 071800Z 08003KT CAVOK 08/M03 Q1026 NOSIG",
      "taf": "TAF LHBP 071715Z 0718/0818 10005KT CAVOK"
    },
    {
      "icao": "LHDC",
      "alert": "OK",
      "vis_m": 9999,
      "fzfg": false,
      "metar_trigger": false,
      "taf_trigger": false,
      "metar": "METAR LHDC 071745Z AUTO VRB01KT CAVOK 09/M01 Q1026 NOSIG",
      "taf": "TAF LHDC 071415Z 0715/0724 VRB03KT CAVOK"
    },
    {
      "icao": "LIBD",
      "alert": "OK",
      "vis_m": 9999,
      "fzfg": false,
      "metar_trigger": false,
      "taf_trigger": false,
      "metar": "METAR LIBD 071750Z AUTO 11004KT 9999 FEW088/// BKN100/// 13/11 Q1025",
      "taf": "TAF LIBD 071700Z 0718/0818 VRB05KT 8000 SCT020"
    },
    {
      "icao": "LIBG",
      "alert": "OK",
      "vis_m": 8000,
      "fzfg": false,
      "metar_trigger": false,
      "taf_trigger": false,
      "metar": "METAR LIBG 071750Z 08003KT 8000 SCT030 12/12 Q1025",
      "taf": "TAF LIBG 071700Z 0718/0803 VRB05KT 5000 BR BKN030"
    },
    {
      "icao": "LIBP",
      "alert": "OK",
      "vis_m": 9999,
      "fzfg": false,
      "metar_trigger": false,
      "taf_trigger": false,
      "metar": "METAR LIBP 071750Z AUTO 07003KT 9999 OVC029/// 13/10 Q1026",
      "taf": "TAF LIBP 071700Z 0718/0818 VRB04KT 9999 BKN040"
    },
    {
      "icao": "LIBR",
      "alert": "OK",
      "vis_m": 9999,
      "fzfg": false,
      "metar_trigger": false,
      "taf_trigger": false,
      "metar": "METAR LIBR 071750Z 24003KT 200V260 9999 SCT030 14/12 Q1025",
      "taf": "TAF LIBR 071700Z 0718/0818 VRB04KT 8000 BKN030"
    },
    {
      "icao": "LICA",
      "alert": "OK",
      "vis_m": 9999,
      "fzfg": false,
      "metar_trigger": false,
      "taf_trigger": false,
      "metar": "METAR LICA 071750Z AUTO 06011KT 9999 NCD 14/12 Q1024",
      "taf": "TAF LICA 071700Z 0718/0818 07013KT 9999 SCT050"
    },
    {
      "icao": "LICC",
      "alert": "OK",
      "vis_m": 9999,
      "fzfg": false,
      "metar_trigger": false,
      "taf_trigger": false,
      "metar": "METAR LICC 071750Z 06008KT 9999 SCT012 16/14 Q1024",
      "taf": "TAF LICC 071700Z 0718/0818 07010KT 9999 SCT010 SCT030"
    },
    {
      "icao": "LICJ",
      "alert": "OK",
      "vis_m": 9999,
      "fzfg": false,
      "metar_trigger": false,
      "taf_trigger": false,
      "metar": "METAR LICJ 071750Z 20009KT CAVOK 15/12 Q1022",
      "taf": "TAF LICJ 071700Z 0718/0818 VRB05KT 9999 SCT030"
    },
    {
      "icao": "LIMC",
      "alert": "OK",
      "vis_m": 9999,
      "fzfg": false,
      "metar_trigger": false,
      "taf_trigger": false,
      "metar": "METAR LIMC 071750Z 19003KT CAVOK 14/03 Q1024 NOSIG",
      "taf": "TAF LIMC 071700Z 0718/0824 VRB05KT CAVOK"
    },
    {
      "icao": "LIME",
      "alert": "OK",
      "vis_m": 9999,
      "fzfg": false,
      "metar_trigger": false,
      "taf_trigger": false,
      "metar": "METAR LIME 071750Z 20003KT CAVOK 13/05 Q1025 NOSIG",
      "taf": "TAF LIME 071700Z 0718/0818 VRB05KT CAVOK"
    },
    {
      "icao": "LIMF",
      "alert": "OK",
      "vis_m": 9999,
      "fzfg": false,
      "metar_trigger": false,
      "taf_trigger": false,
      "metar": "METAR LIMF 071750Z 03003KT CAVOK 13/05 Q1024",
      "taf": "TAF LIMF 071700Z 0718/0818 VRB04KT 6000 NSC"
    },
    {
      "icao": "LIMJ",
      "alert": "OK",
      "vis_m": 9999,
      "fzfg": false,
      "metar_trigger": false,
      "taf_trigger": false,
      "metar": "METAR LIMJ 071750Z VRB01KT CAVOK 14/10 Q1024",
      "taf": "TAF LIMJ 071700Z 0718/0818 VRB06KT 9999 SCT040"
    },
    {
      "icao": "LIPE",
      "alert": "OK",
      "vis_m": 8000,
      "fzfg": false,
      "metar_trigger": false,
      "taf_trigger": false,
      "metar": "METAR LIPE 071750Z 09002KT 8000 NSC 11/07 Q1025",
      "taf": "TAF LIPE 071700Z 0718/0818 VRB04KT 5000 BR NSC"
    },
    {
      "icao": "LIPH",
      "alert": "OK",
      "vis_m": 9999,
      "fzfg": false,
      "metar_trigger": false,
      "taf_trigger": false,
      "metar": "METAR LIPH 071750Z 17003KT CAVOK 14/06 Q1025",
      "taf": "TAF LIPH 071700Z 0718/0818 VRB03KT CAVOK"
    },
    {
      "icao": "LIPQ",
      "alert": "OK",
      "vis_m": 2300,
      "fzfg": false,
      "metar_trigger": false,
      "taf_trigger": false,
      "metar": "METAR LIPQ 071750Z AUTO 16003KT 2300 BR NCD 08/08 Q1026",
      "taf": "TAF LIPQ 071700Z 0718/0818 VRB04KT 7000 NSC"
    },
    {
      "icao": "LIPR",
      "alert": "OK",
      "vis_m": 5000,
      "fzfg": false,
      "metar_trigger": false,
      "taf_trigger": false,
      "metar": "METAR LIPR 071750Z 13003KT 5000 BR NSC 11/09 Q1025",
      "taf": "TAF LIPR 071700Z 0718/0818 VRB06KT CAVOK"
    },
    {
      "icao": "LIPX",
      "alert": "OK",
      "vis_m": 9999,
      "fzfg": false,
      "metar_trigger": false,
      "taf_trigger": false,
      "metar": "METAR LIPX 071750Z 14002KT CAVOK 12/05 Q1025",
      "taf": "TAF LIPX 071700Z 0718/0818 VRB05KT CAVOK"
    },
    {
      "icao": "LIPY",
      "alert": "OK",
      "vis_m": 9999,
      "fzfg": false,
      "metar_trigger": false,
      "taf_trigger": false,
      "metar": "METAR LIPY 071750Z AUTO 15004KT 120V190 9999 NCD 12/09 Q1026",
      "taf": "TAF LIPY 071700Z 0718/0818 VRB04KT 3000 BR FEW015"
    },
    {
      "icao": "LIPZ",
      "alert": "OK",
      "vis_m": 9999,
      "fzfg": false,
      "metar_trigger": false,
      "taf_trigger": false,
      "metar": "METAR LIPZ 071750Z 19004KT CAVOK 12/08 Q1025 NOSIG",
      "taf": "TAF LIPZ 071700Z 0718/0824 VRB04KT 8000 NSC"
    },
    {
      "icao": "LIRF",
      "alert": "OK",
      "vis_m": 9999,
      "fzfg": false,
      "metar_trigger": false,
      "taf_trigger": false,
      "metar": "METAR LIRF 071750Z 19003KT CAVOK 15/11 Q1024 NOSIG",
      "taf": "TAF LIRF 071700Z 0718/0824 VRB05KT 9999 SCT055"
    },
    {
      "icao": "LIRN",
      "alert": "OK",
      "vis_m": 9999,
      "fzfg": false,
      "metar_trigger": false,
      "taf_trigger": false,
      "metar": "METAR LIRN 071750Z VRB02KT CAVOK 15/08 Q1024 NOSIG",
      "taf": "TAF LIRN 071700Z 0718/0818 VRB05KT 9999 SCT050"
    },
    {
      "icao": "LIRP",
      "alert": "OK",
      "vis_m": 9999,
      "fzfg": false,
      "metar_trigger": false,
      "taf_trigger": false,
      "metar": "METAR LIRP 071745Z 27003KT 9999 SCT070 14/11 Q1024 NOSIG",
      "taf": "TAF LIRP 071700Z 0718/0818 27007KT 9999 SCT040"
    },
    {
      "icao": "LIRZ",
      "alert": "OK",
      "vis_m": 9999,
      "fzfg": false,
      "metar_trigger": false,
      "taf_trigger": false,
      "metar": "METAR LIRZ 071750Z AUTO 12004KT 9999 BKN074/// 14/09 Q1024",
      "taf": "TAF LIRZ 071700Z 0718/0818 VRB05KT 9999 SCT050"
    },
    {
      "icao": "LJLJ",
      "alert": "OK",
      "vis_m": 9999,
      "fzfg": false,
      "metar_trigger": false,
      "taf_trigger": false,
      "metar": "METAR LJLJ 071800Z 24003KT CAVOK 09/04 Q1024 NOSIG",
      "taf": "TAF LJLJ 071700Z 0718/0818 VRB02KT CAVOK"
    },
    {
      "icao": "LKMT",
      "alert": "OK",
      "vis_m": 9999,
      "fzfg": false,
      "metar_trigger": false,
      "taf_trigger": false,
      "metar": "METAR LKMT 071800Z 36001KT CAVOK 10/M00 Q1026 NOSIG",
      "taf": "TAF LKMT 071700Z 0718/0818 VRB02KT CAVOK"
    },
    {
      "icao": "LKPR",
      "alert": "OK",
      "vis_m": 9999,
      "fzfg": false,
      "metar_trigger": false,
      "taf_trigger": false,
      "metar": "METAR LKPR 071800Z 09007KT CAVOK 10/01 Q1025 NOSIG",
      "taf": "TAF LKPR 071700Z 0718/0824 11007KT CAVOK"
    },
    {
      "icao": "LLBG",
      "alert": "OK",
      "vis_m": 9999,
      "fzfg": false,
      "metar_trigger": false,
      "taf_trigger": false,
      "metar": "METAR LLBG 071750Z VRB02KT 9999 SCT040 16/07 Q1019 NOSIG",
      "taf": "TAF LLBG 071705Z 0718/0818 VRB04KT 9999 FEW035 TX18/0812Z TN08/0804Z"
    },
    {
      "icao": "LMML",
      "alert": "OK",
      "vis_m": 9999,
      "fzfg": false,
      "metar_trigger": false,
      "taf_trigger": false,
      "metar": "METAR LMML 071815Z 07011KT 9999 BKN007 15/14 Q1022 NOSIG",
      "taf": "TAF LMML 071700Z 0718/0818 09015KT 9999 SCT012"
    },
    {
      "icao": "LOWW",
      "alert": "OK",
      "vis_m": 9999,
      "fzfg": false,
      "metar_trigger": false,
      "taf_trigger": false,
      "metar": "METAR LOWW 071750Z 13004KT CAVOK 11/M00 Q1025 NOSIG",
      "taf": "TAF LOWW 071715Z 0718/0824 13007KT CAVOK TX16/0814Z TN03/0805Z"
    },
    {
      "icao": "LPFR",
      "alert": "OK",
      "vis_m": 9999,
      "fzfg": false,
      "metar_trigger": false,
      "taf_trigger": false,
      "metar": "METAR LPFR 071800Z 16005KT CAVOK 15/12 Q1017",
      "taf": "TAF LPFR 071700Z 0718/0818 18005KT CAVOK"
    },
    {
      "icao": "LPMA",
      "alert": "OK",
      "vis_m": 9999,
      "fzfg": false,
      "metar_trigger": false,
      "taf_trigger": false,
      "metar": "METAR LPMA 071800Z 02013KT 340V050 9999 SCT015 SCT030 15/07 Q1024",
      "taf": "TAF LPMA 071700Z 0718/0818 02013KT 9999 SCT015 SCT030"
    },
    {
      "icao": "LPPR",
      "alert": "OK",
      "vis_m": 9999,
      "fzfg": false,
      "metar_trigger": false,
      "taf_trigger": false,
      "metar": "METAR LPPR 071800Z 32007KT 290V360 9999 FEW025 13/09 Q1018",
      "taf": "TAF LPPR 071700Z 0718/0818 33010KT 9999 FEW025"
    },
    {
      "icao": "LPPS",
      "alert": "OK",
      "vis_m": 9999,
      "fzfg": false,
      "metar_trigger": false,
      "taf_trigger": false,
      "metar": "METAR LPPS 071800Z 03011KT 360V060 9999 FEW015 BKN030 15/07 Q1024",
      "taf": "TAF LPPS 071700Z 0718/0824 02015KT 9999 FEW015 BKN030"
    },
    {
      "icao": "LPPT",
      "alert": "OK",
      "vis_m": 9999,
      "fzfg": false,
      "metar_trigger": false,
      "taf_trigger": false,
      "metar": "METAR LPPT 071800Z 31013KT 9999 FEW030 13/08 Q1018",
      "taf": "TAF LPPT 071700Z 0718/0824 32012KT 9999 FEW030"
    },
    {
      "icao": "LQBK",
      "alert": "OK",
      "vis_m": 9999,
      "fzfg": false,
      "metar_trigger": false,
      "taf_trigger": false,
      "metar": "METAR LQBK 071800Z VRB02KT CAVOK 10/03 Q1025 NOSIG",
      "taf": "TAF LQBK 071700Z 0718/0818 15005KT CAVOK TX18/0814Z TN00/0805Z"
    },
    {
      "icao": "LQSA",
      "alert": "OK",
      "vis_m": 9999,
      "fzfg": false,
      "metar_trigger": false,
      "taf_trigger": false,
      "metar": "METAR LQSA 071800Z VRB03KT CAVOK 10/00 Q1024 NOSIG",
      "taf": "TAF LQSA 071700Z 0718/0818 VRB02KT CAVOK TX18/0814Z TNM00/0805Z"
    },
    {
      "icao": "LQTZ",
      "alert": "OK",
      "vis_m": 9999,
      "fzfg": false,
      "metar_trigger": false,
      "taf_trigger": false,
      "metar": "METAR LQTZ 071800Z 10003KT CAVOK 11/02 Q1025",
      "taf": "TAF LQTZ 071700Z 0718/0818 VRB02KT CAVOK TX18/0813Z TNM00/0805Z"
    },
    {
      "icao": "LRBC",
      "alert": "OK",
      "vis_m": 9999,
      "fzfg": false,
      "metar_trigger": false,
      "taf_trigger": false,
      "metar": "METAR LRBC 071800Z 16006KT CAVOK 06/M00 Q1028",
      "taf": "TAF LRBC 071700Z 0718/0803 17006KT CAVOK"
    },
    {
      "icao": "LRBS",
      "alert": "OK",
      "vis_m": 9999,
      "fzfg": false,
      "metar_trigger": false,
      "taf_trigger": false,
      "metar": "METAR LRBS 071800Z 10003KT CAVOK 08/00 Q1029 NOSIG",
      "taf": "TAF LRBS 071700Z 0718/0818 VRB04KT CAVOK"
    },
    {
      "icao": "LRBV",
      "alert": "OK",
      "vis_m": 9999,
      "fzfg": false,
      "metar_trigger": false,
      "taf_trigger": false,
      "metar": "METAR LRBV 071800Z 23010KT CAVOK 05/M01 Q1026",
      "taf": "TAF LRBV 071700Z 0718/0803 VRB04KT CAVOK"
    },
    {
      "icao": "LRCL",
      "alert": "OK",
      "vis_m": 9999,
      "fzfg": false,
      "metar_trigger": false,
      "taf_trigger": false,
      "metar": "METAR LRCL 071800Z 00000KT CAVOK 06/M05 Q1026",
      "taf": "TAF LRCL 071700Z 0718/0803 VRB04KT CAVOK"
    },
    {
      "icao": "LRCV",
      "alert": "OK",
      "vis_m": 9999,
      "fzfg": false,
      "metar_trigger": false,
      "taf_trigger": false,
      "metar": "METAR LRCV 071800Z 10007KT CAVOK 09/02 Q1027",
      "taf": "TAF LRCV 071700Z 0718/0803 10005KT CAVOK"
    },
    {
      "icao": "LRIA",
      "alert": "OK",
      "vis_m": 9999,
      "fzfg": false,
      "metar_trigger": false,
      "taf_trigger": false,
      "metar": "METAR LRIA 071800Z 03006KT CAVOK 06/M02 Q1028",
      "taf": "TAF LRIA 071700Z 0718/0803 VRB04KT CAVOK"
    },
    {
      "icao": "LROP",
      "alert": "OK",
      "vis_m": 9999,
      "fzfg": false,
      "metar_trigger": false,
      "taf_trigger": false,
      "metar": "METAR LROP 071800Z 14003KT CAVOK 07/M03 Q1029 NOSIG",
      "taf": "TAF LROP 071700Z 0718/0818 VRB04KT CAVOK"
    },
    {
      "icao": "LRSB",
      "alert": "OK",
      "vis_m": 9999,
      "fzfg": false,
      "metar_trigger": false,
      "taf_trigger": false,
      "metar": "METAR LRSB 071800Z 25004KT CAVOK 06/M01 Q1026",
      "taf": "TAF LRSB 071700Z 0718/0818 VRB04KT CAVOK"
    },
    {
      "icao": "LRSM",
      "alert": "OK",
      "vis_m": 9999,
      "fzfg": false,
      "metar_trigger": false,
      "taf_trigger": false,
      "metar": "METAR LRSM 071800Z AUTO 00000KT 9999 NCD 07/M01 Q1026",
      "taf": ""
    },
    {
      "icao": "LRSV",
      "alert": "OK",
      "vis_m": 9999,
      "fzfg": false,
      "metar_trigger": false,
      "taf_trigger": false,
      "metar": "METAR LRSV 071800Z 05005KT CAVOK 06/M01 Q1027",
      "taf": "TAF LRSV 071700Z 0718/0803 VRB04KT CAVOK"
    },
    {
      "icao": "LRTM",
      "alert": "OK",
      "vis_m": 9999,
      "fzfg": false,
      "metar_trigger": false,
      "taf_trigger": false,
      "metar": "METAR LRTM 071800Z AUTO 35002KT 9999 NCD 05/M03 Q1026",
      "taf": "TAF LRTM 071400Z 0715/0724 VRB04KT CAVOK"
    },
    {
      "icao": "LRTR",
      "alert": "OK",
      "vis_m": 9999,
      "fzfg": false,
      "metar_trigger": false,
      "taf_trigger": false,
      "metar": "METAR LRTR 071800Z 01007KT CAVOK 07/03 Q1026 NOSIG",
      "taf": "TAF LRTR 071700Z 0718/0818 VRB04KT CAVOK"
    },
    {
      "icao": "LTAC",
      "alert": "OK",
      "vis_m": 9999,
      "fzfg": false,
      "metar_trigger": false,
      "taf_trigger": false,
      "metar": "METAR LTAC 071750Z 07006KT CAVOK 01/M08 Q1024 NOSIG RMK RWY21C 09004KT 040V120 RWY03L 08005KT RWY21R 09004KT 050V110 RWY03R 03004KT RWY21L 05005KT 020V080",
      "taf": "TAF LTAC 071640Z 0718/0818 VRB02KT CAVOK"
    },
    {
      "icao": "LTFM",
      "alert": "OK",
      "vis_m": 9999,
      "fzfg": false,
      "metar_trigger": false,
      "taf_trigger": false,
      "metar": "METAR LTFM 071750Z 07008KT CAVOK 06/02 Q1029 NOSIG RMK RWY17L 07007KT RWY34L 06007KT RWY16R 07007KT RWY36 07006KT 020V090 RWY18 08007KT",
      "taf": "TAF LTFM 071640Z 0718/0824 05008KT CAVOK"
    },
    {
      "icao": "LUKK",
      "alert": "OK",
      "vis_m": 9999,
      "fzfg": false,
      "metar_trigger": false,
      "taf_trigger": false,
      "metar": "METAR LUKK 071800Z 10008KT CAVOK 05/00 Q1028 NOSIG",
      "taf": "TAF LUKK 071713Z 0718/0818 VRB04KT CAVOK"
    },
    {
      "icao": "LWOH",
      "alert": "OK",
      "vis_m": 9999,
      "fzfg": false,
      "metar_trigger": false,
      "taf_trigger": false,
      "metar": "METAR LWOH 071820Z 36005KT 320V030 9999 FEW040 SCT080 07/01 Q1025",
      "taf": "TAF LWOH 071730Z 0718/0818 VRB02KT CAVOK"
    },
    {
      "icao": "LWSK",
      "alert": "OK",
      "vis_m": 9999,
      "fzfg": false,
      "metar_trigger": false,
      "taf_trigger": false,
      "metar": "METAR LWSK 071820Z 07005KT 010V110 CAVOK 12/05 Q1025 NOSIG",
      "taf": "TAF LWSK 071730Z 0718/0818 VRB02KT CAVOK"
    },
    {
      "icao": "LYBE",
      "alert": "OK",
      "vis_m": 9999,
      "fzfg": false,
      "metar_trigger": false,
      "taf_trigger": false,
      "metar": "METAR LYBE 071800Z 09007KT CAVOK 11/02 Q1025 NOSIG",
      "taf": "TAF LYBE 071700Z 0718/0818 08006KT CAVOK TX18/0813Z TN01/0805Z"
    },
    {
      "icao": "LYNI",
      "alert": "OK",
      "vis_m": 9999,
      "fzfg": false,
      "metar_trigger": false,
      "taf_trigger": false,
      "metar": "METAR LYNI 071800Z 09006KT CAVOK 13/03 Q1025 NOSIG",
      "taf": "TAF LYNI 071700Z 0718/0818 06006KT CAVOK TX18/0813Z TN02/0805Z"
    },
    {
      "icao": "LYPG",
      "alert": "OK",
      "vis_m": 9999,
      "fzfg": false,
      "metar_trigger": false,
      "taf_trigger": false,
      "metar": "METAR LYPG 071800Z 09003KT 070V140 CAVOK 13/04 Q1025 NOSIG",
      "taf": "TAF LYPG 071700Z 0718/0818 36005KT CAVOK TX19/0813Z TN05/0805Z"
    },
    {
      "icao": "LZIB",
      "alert": "OK",
      "vis_m": 9999,
      "fzfg": false,
      "metar_trigger": false,
      "taf_trigger": false,
      "metar": "METAR LZIB 071800Z 09005KT CAVOK 10/M00 Q1025 NOSIG",
      "taf": "TAF LZIB 071715Z 0718/0818 15010KT CAVOK"
    },
    {
      "icao": "LZKZ",
      "alert": "OK",
      "vis_m": 9999,
      "fzfg": false,
      "metar_trigger": false,
      "taf_trigger": false,
      "metar": "METAR LZKZ 071800Z 34002KT CAVOK 09/M01 Q1026 NOSIG",
      "taf": "TAF LZKZ 071715Z 0718/0818 VRB02KT CAVOK"
    },
    {
      "icao": "LZTT",
      "alert": "OK",
      "vis_m": 9999,
      "fzfg": false,
      "metar_trigger": false,
      "taf_trigger": false,
      "metar": "METAR LZTT 071800Z 32002KT CAVOK 04/M06 Q1026 NOSIG",
      "taf": "TAF LZTT 071715Z 0718/0818 VRB02KT CAVOK"
    },
    {
      "icao": "OEJN",
      "alert": "OK",
      "vis_m": 9999,
      "fzfg": false,
      "metar_trigger": false,
      "taf_trigger": false,
      "metar": "METAR OEJN 071800Z 34010KT CAVOK 25/16 Q1013 NOSIG",
      "taf": "TAF OEJN 071700Z 0718/0824 02005KT 9999 FEW030"
    },
    {
      "icao": "OEMA",
      "alert": "OK",
      "vis_m": 9999,
      "fzfg": false,
      "metar_trigger": false,
      "taf_trigger": false,
      "metar": "METAR OEMA 071800Z 24009KT CAVOK 25/02 Q1014 NOSIG",
      "taf": "TAF OEMA 071700Z 0718/0824 VRB03KT CAVOK"
    },
    {
      "icao": "OJAI",
      "alert": "OK",
      "vis_m": 4000,
      "fzfg": false,
      "metar_trigger": false,
      "taf_trigger": false,
      "metar": "METAR OJAI 071800Z 29008KT 4000 HZ SCT030 09/06 Q1018 NOSIG",
      "taf": "TAF OJAI 071700Z 0718/0824 30012KT 4000 HZ SCT035"
    },
    {
      "icao": "OMAA",
      "alert": "OK",
      "vis_m": null,
      "fzfg": false,
      "metar_trigger": false,
      "taf_trigger": false,
      "metar": "",
      "taf": ""
    },
    {
      "icao": "OMDB",
      "alert": "OK",
      "vis_m": null,
      "fzfg": false,
      "metar_trigger": false,
      "taf_trigger": false,
      "metar": "",
      "taf": ""
    },
    {
      "icao": "UAAA",
      "alert": "OK",
      "vis_m": 2600,
      "fzfg": false,
      "metar_trigger": false,
      "taf_trigger": false,
      "metar": "METAR UAAA 071800Z 07002MPS 2600 BR FU FEW200 03/01 Q1021 NOSIG",
      "taf": "TAF UAAA 071702Z 0718/0818 22003MPS 3100 BR FU SCT050 BKN100 TX14/0809Z TN01/0801Z"
    },
    {
      "icao": "UBBB",
      "alert": "OK",
      "vis_m": 9999,
      "fzfg": false,
      "metar_trigger": false,
      "taf_trigger": false,
      "metar": "METAR UBBB 071800Z 36010KT CAVOK 06/03 Q1026 NOSIG",
      "taf": "TAF UBBB 071701Z 0718/0818 34012KT 9999 SCT015 BKN030 TX08/0810Z TN04/0801Z"
    },
    {
      "icao": "UDSG",
      "alert": "OK",
      "vis_m": 9999,
      "fzfg": false,
      "metar_trigger": false,
      "taf_trigger": false,
      "metar": "METAR UDSG 071800Z 35004KT 9999 BKN043 M02/M08 Q1020 NOSIG",
      "taf": "TAF UDSG 071658Z 0718/0818 VRB06KT 9999 BKN040"
    },
    {
      "icao": "UDYZ",
      "alert": "OK",
      "vis_m": 9999,
      "fzfg": false,
      "metar_trigger": false,
      "taf_trigger": false,
      "metar": "METAR UDYZ 071800Z 26009KT 9999 SCT046 03/M00 Q1020 NOSIG",
      "taf": "TAF UDYZ 071700Z 0718/0818 04006KT 9999 SCT040"
    },
    {
      "icao": "UGKO",
      "alert": "OK",
      "vis_m": 9999,
      "fzfg": false,
      "metar_trigger": false,
      "taf_trigger": false,
      "metar": "METAR UGKO 071800Z 25008KT 9999 SCT025 BKN044 04/02 Q1028 NOSIG",
      "taf": "TAF UGKO 071700Z 0718/0818 VRB02KT 9000 SCT021 BKN045 TX08/0811Z TN02/0803Z"
    }
  ]
}