{
  "ts_utc": "2025-12-22T16:23:48Z",
  "threshold_m": 150,
  "source": "stations_override.txt (ICAO list) + aviationweather.gov (METAR/TAF raw)",
  "station_count": 159,
  "stations": [
    {
      "icao": "BIKF",
      "alert": "OK",
      "vis_m": 9999,
      "fzfg": false,
      "metar_trigger": false,
      "taf_trigger": false,
      "metar": "METAR BIKF 221600Z 13024KT 9999 VCSH FEW015 BKN040 BKN120 08/05 Q0996",
      "taf": "TAF BIKF 221606Z 2218/2318 13023G33KT 7000 RA BKN010 OVC020 TX07/2218Z TN02/2306Z"
    },
    {
      "icao": "BKPR",
      "alert": "OK",
      "vis_m": null,
      "fzfg": false,
      "metar_trigger": false,
      "taf_trigger": false,
      "metar": "",
      "taf": "TAF BKPR 221130Z 2212/2312 VRB03KT 6000 SCT010 BKB020"
    },
    {
      "icao": "EBCI",
      "alert": "OK",
      "vis_m": 9999,
      "fzfg": false,
      "metar_trigger": false,
      "taf_trigger": false,
      "metar": "METAR EBCI 221550Z 04006KT CAVOK 06/04 Q1009 NOSIG",
      "taf": "TAF EBCI 221106Z 2212/2318 VRB03KT CAVOK"
    },
    {
      "icao": "EDDB",
      "alert": "OK",
      "vis_m": 5000,
      "fzfg": false,
      "metar_trigger": false,
      "taf_trigger": false,
      "metar": "METAR EDDB 221550Z AUTO 08010KT 5000 BR BKN004 02/01 Q1019 TEMPO 4000 BR OVC005",
      "taf": "TAF EDDB 221100Z 2212/2312 07011KT 8000 BKN003"
    },
    {
      "icao": "EDDH",
      "alert": "OK",
      "vis_m": 9000,
      "fzfg": false,
      "metar_trigger": false,
      "taf_trigger": false,
      "metar": "METAR EDDH 221550Z AUTO 10008KT 060V120 9000 OVC004 03/02 Q1018 TEMPO OVC005",
      "taf": ""
    },
    {
      "icao": "EDDK",
      "alert": "OK",
      "vis_m": 9999,
      "fzfg": false,
      "metar_trigger": false,
      "taf_trigger": false,
      "metar": "METAR EDDK 221550Z AUTO 13007KT 9999 OVC018 05/01 Q1012 NOSIG",
      "taf": "TAF EDDK 221100Z 2212/2318 11007KT 9999 BKN020"
    },
    {
      "icao": "EDDN",
      "alert": "OK",
      "vis_m": 9999,
      "fzfg": false,
      "metar_trigger": false,
      "taf_trigger": false,
      "metar": "METAR EDDN 221550Z AUTO 09007KT 9999 OVC014 03/M00 Q1012 NOSIG",
      "taf": "TAF EDDN 221100Z 2212/2312 10008KT 9999 BKN015"
    },
    {
      "icao": "EDDS",
      "alert": "OK",
      "vis_m": 9999,
      "fzfg": false,
      "metar_trigger": false,
      "taf_trigger": false,
      "metar": "METAR EDDS 221550Z AUTO 06006KT 9999 OVC008 01/M00 Q1009 NOSIG",
      "taf": ""
    },
    {
      "icao": "EDFH",
      "alert": "OK",
      "vis_m": 9000,
      "fzfg": false,
      "metar_trigger": false,
      "taf_trigger": false,
      "metar": "METAR EDFH 221550Z 11007KT 9000 SCT002 OVC004 01/M00 Q1010",
      "taf": "TAF EDFH 221100Z 2212/2312 13011KT 8000 OVC002"
    },
    {
      "icao": "EDJA",
      "alert": "OK",
      "vis_m": 2200,
      "fzfg": false,
      "metar_trigger": false,
      "taf_trigger": false,
      "metar": "METAR EDJA 221550Z 06008KT 2200 BR BKN001 OVC008 M02/M03 Q1009",
      "taf": ""
    },
    {
      "icao": "EDLW",
      "alert": "OK",
      "vis_m": 9999,
      "fzfg": false,
      "metar_trigger": false,
      "taf_trigger": false,
      "metar": "METAR EDLW 221550Z 05010KT CAVOK 04/01 Q1012",
      "taf": "TAF EDLW 221100Z 2212/2312 07008KT 9999 SCT020"
    },
    {
      "icao": "EDNY",
      "alert": "OK",
      "vis_m": 9999,
      "fzfg": false,
      "metar_trigger": false,
      "taf_trigger": false,
      "metar": "METAR EDNY 221550Z 34003KT 310V010 9999 FEW012 01/M01 Q1009",
      "taf": "TAF EDNY 221400Z 2215/2224 03005KT 9999 BKN010"
    },
    {
      "icao": "EDSB",
      "alert": "OK",
      "vis_m": 9000,
      "fzfg": false,
      "metar_trigger": false,
      "taf_trigger": false,
      "metar": "METAR EDSB 221550Z 03009KT 9000 OVC016 03/01 Q1010",
      "taf": "TAF EDSB 221100Z 2212/2312 03004KT 8000 SCT010"
    },
    {
      "icao": "EETN",
      "alert": "OK",
      "vis_m": 9999,
      "fzfg": false,
      "metar_trigger": false,
      "taf_trigger": false,
      "metar": "METAR EETN 221620Z 08013KT 9999 FEW012 BKN016 OVC022 M02/M03 Q1025 NOSIG",
      "taf": "TAF EETN 221130Z 2212/2312 36005KT 9999 SCT008 FEW015CB BKN025"
    },
    {
      "icao": "EFTU",
      "alert": "OK",
      "vis_m": 9999,
      "fzfg": false,
      "metar_trigger": false,
      "taf_trigger": false,
      "metar": "METAR EFTU 221620Z AUTO 07009KT 9999 OVC009 M01/M02 Q1026",
      "taf": ""
    },
    {
      "icao": "EGBB",
      "alert": "OK",
      "vis_m": 5000,
      "fzfg": false,
      "metar_trigger": false,
      "taf_trigger": false,
      "metar": "METAR EGBB 221550Z 08006KT 050V180 5000 HZ OVC008 09/08 Q1009",
      "taf": "TAF EGBB 221104Z 2212/2312 09006KT 9999 BKN012"
    },
    {
      "icao": "EGGP",
      "alert": "OK",
      "vis_m": 8000,
      "fzfg": false,
      "metar_trigger": false,
      "taf_trigger": false,
      "metar": "METAR EGGP 221550Z 11006KT 8000 OVC012 09/06 Q1009",
      "taf": "TAF EGGP 221058Z 2212/2312 08008KT 9999 FEW010 BKN030"
    },
    {
      "icao": "EGGW",
      "alert": "OK",
      "vis_m": 5000,
      "fzfg": false,
      "metar_trigger": false,
      "taf_trigger": false,
      "metar": "METAR EGGW 221550Z AUTO 09005KT 5000 BR BKN005 08/08 Q1008",
      "taf": ""
    },
    {
      "icao": "EGKK",
      "alert": "OK",
      "vis_m": 8000,
      "fzfg": false,
      "metar_trigger": false,
      "taf_trigger": false,
      "metar": "METAR EGKK 221550Z 08004KT 8000 BKN008 09/09 Q1008",
      "taf": ""
    },
    {
      "icao": "EGNM",
      "alert": "OK",
      "vis_m": 2500,
      "fzfg": false,
      "metar_trigger": false,
      "taf_trigger": false,
      "metar": "METAR EGNM 221550Z 06005KT 2500 BR BKN004 07/07 Q1011",
      "taf": "TAF EGNM 221057Z 2212/2312 07006KT 6000 SCT004 BKN007"
    },
    {
      "icao": "EGPD",
      "alert": "OK",
      "vis_m": 6000,
      "fzfg": false,
      "metar_trigger": false,
      "taf_trigger": false,
      "metar": "METAR EGPD 221550Z 13010KT 6000 -DZ BKN006 08/07 Q1013 RERA REDZ TEMPO DZ BKN004",
      "taf": ""
    },
    {
      "icao": "EGPF",
      "alert": "OK",
      "vis_m": 9999,
      "fzfg": false,
      "metar_trigger": false,
      "taf_trigger": false,
      "metar": "METAR EGPF 221550Z AUTO 05008KT 9999 BKN035 08/07 Q1011",
      "taf": "TAF EGPF 221057Z 2212/2312 07008KT 9999 FEW012 SCT025"
    },
    {
      "icao": "EHBK",
      "alert": "OK",
      "vis_m": 9999,
      "fzfg": false,
      "metar_trigger": false,
      "taf_trigger": false,
      "metar": "METAR EHBK 221555Z AUTO 08010KT 050V110 9999 NSC 04/01 Q1010 NOSIG",
      "taf": "TAF EHBK 221111Z 2212/2318 07007KT CAVOK"
    },
    {
      "icao": "EHEH",
      "alert": "OK",
      "vis_m": 9999,
      "fzfg": false,
      "metar_trigger": false,
      "taf_trigger": false,
      "metar": "METAR EHEH 221555Z AUTO 08005KT 050V110 9999 OVC150 05/02 Q1011 BLU NOSIG",
      "taf": "TAF EHEH 221105Z 2212/2318 08007KT CAVOK"
    },
    {
      "icao": "EKBI",
      "alert": "OK",
      "vis_m": 9999,
      "fzfg": false,
      "metar_trigger": false,
      "taf_trigger": false,
      "metar": "METAR EKBI 221620Z AUTO 09011KT 9999 OVC015/// 05/02 Q1021",
      "taf": "TAF EKBI 221427Z 2215/2315 09012KT 9999 BKN015"
    },
    {
      "icao": "EKCH",
      "alert": "OK",
      "vis_m": 9999,
      "fzfg": false,
      "metar_trigger": false,
      "taf_trigger": false,
      "metar": "METAR EKCH 221620Z AUTO 09011KT 9999 OVC022/// 06/01 Q1023 NOSIG",
      "taf": "TAF EKCH 221427Z 2215/2315 10012KT 9999 BKN020"
    },
    {
      "icao": "ENAL",
      "alert": "OK",
      "vis_m": 9999,
      "fzfg": false,
      "metar_trigger": false,
      "taf_trigger": false,
      "metar": "METAR ENAL 221550Z 14010KT CAVOK 01/M03 Q1023",
      "taf": "TAF ENAL 221400Z 2215/2224 14008KT CAVOK"
    },
    {
      "icao": "ENBR",
      "alert": "OK",
      "vis_m": 9999,
      "fzfg": false,
      "metar_trigger": false,
      "taf_trigger": false,
      "metar": "METAR ENBR 221550Z 00000KT CAVOK M00/M02 Q1022 NOSIG RMK WIND 1200FT 10007KT",
      "taf": "TAF ENBR 221100Z 2212/2312 VRB03KT CAVOK"
    },
    {
      "icao": "ENGM",
      "alert": "OK",
      "vis_m": 9999,
      "fzfg": false,
      "metar_trigger": false,
      "taf_trigger": false,
      "metar": "METAR ENGM 221550Z 33003KT CAVOK M05/M06 Q1027 NOSIG",
      "taf": "TAF ENGM 221100Z 2212/2312 36005KT 9999 FEW002"
    },
    {
      "icao": "ENHD",
      "alert": "OK",
      "vis_m": 9999,
      "fzfg": false,
      "metar_trigger": false,
      "taf_trigger": false,
      "metar": "METAR ENHD 221550Z 11006KT CAVOK 05/M00 Q1022",
      "taf": "TAF ENHD 221400Z 2215/2223 09007KT CAVOK"
    },
    {
      "icao": "ENTC",
      "alert": "OK",
      "vis_m": 9999,
      "fzfg": false,
      "metar_trigger": false,
      "taf_trigger": false,
      "metar": "METAR ENTC 221550Z 22015KT 9999 BKN030 02/M01 Q1027 NOSIG RMK WIND 2600FT 23014KT",
      "taf": "TAF ENTC 221100Z 2212/2312 22010KT 9999 -DZRA FEW006 BKN014"
    },
    {
      "icao": "ENTO",
      "alert": "OK",
      "vis_m": 9999,
      "fzfg": false,
      "metar_trigger": false,
      "taf_trigger": false,
      "metar": "METAR ENTO 221550Z 36007KT CAVOK M03/M04 Q1026 NOSIG",
      "taf": "TAF ENTO 221100Z 2212/2312 01008KT CAVOK"
    },
    {
      "icao": "ENVA",
      "alert": "OK",
      "vis_m": 9999,
      "fzfg": false,
      "metar_trigger": false,
      "taf_trigger": false,
      "metar": "METAR ENVA 221550Z 12006KT CAVOK M02/M03 Q1027 NOSIG RMK WIND 670FT 10009KT",
      "taf": "TAF ENVA 221100Z 2212/2312 10005KT 9999 FEW001"
    },
    {
      "icao": "ENZV",
      "alert": "OK",
      "vis_m": 9999,
      "fzfg": false,
      "metar_trigger": false,
      "taf_trigger": false,
      "metar": "METAR ENZV 221550Z 00000KT CAVOK 03/01 Q1022 NOSIG",
      "taf": "TAF ENZV 221100Z 2212/2312 14005KT CAVOK"
    },
    {
      "icao": "EPGD",
      "alert": "OK",
      "vis_m": 9999,
      "fzfg": false,
      "metar_trigger": false,
      "taf_trigger": false,
      "metar": "METAR EPGD 221600Z 13002KT 9999 OVC027 03/M00 Q1023",
      "taf": "TAF EPGD 221130Z 2212/2312 VRB03KT 9999 BKN020"
    },
    {
      "icao": "EPKK",
      "alert": "OK",
      "vis_m": 5000,
      "fzfg": false,
      "metar_trigger": false,
      "taf_trigger": false,
      "metar": "METAR EPKK 221600Z 06010KT 5000 BR OVC004 02/02 Q1019",
      "taf": "TAF EPKK 221430Z 2215/2315 06010KT 4000 BR OVC003"
    },
    {
      "icao": "EPKT",
      "alert": "OK",
      "vis_m": 2700,
      "fzfg": false,
      "metar_trigger": false,
      "taf_trigger": false,
      "metar": "METAR EPKT 221600Z 08006KT 2700 -DZ BR OVC002 02/02 Q1019",
      "taf": ""
    },
    {
      "icao": "EPLB",
      "alert": "OK",
      "vis_m": 9999,
      "fzfg": false,
      "metar_trigger": false,
      "taf_trigger": false,
      "metar": "METAR EPLB 221600Z 12004KT 9999 OVC021 02/M00 Q1022",
      "taf": "TAF EPLB 221130Z 2212/2312 16005KT 9999 OVC022"
    },
    {
      "icao": "EPMO",
      "alert": "OK",
      "vis_m": 9999,
      "fzfg": false,
      "metar_trigger": false,
      "taf_trigger": false,
      "metar": "METAR EPMO 221600Z 10007KT 9999 BKN024 03/M01 Q1022",
      "taf": "TAF EPMO 221130Z 2212/2312 09005KT 9999 BKN020"
    },
    {
      "icao": "EPPO",
      "alert": "OK",
      "vis_m": 9999,
      "fzfg": false,
      "metar_trigger": false,
      "taf_trigger": false,
      "metar": "METAR EPPO 221600Z 10012KT 9999 OVC011 01/M01 Q1021",
      "taf": "TAF EPPO 221130Z 2212/2312 09010KT 9999 OVC009"
    },
    {
      "icao": "EPRA",
      "alert": "OK",
      "vis_m": 9999,
      "fzfg": false,
      "metar_trigger": false,
      "taf_trigger": false,
      "metar": "METAR EPRA 221600Z 11007KT 9999 OVC015 01/M02 Q1022",
      "taf": "TAF EPRA 221430Z 2215/2224 12008KT 9999 OVC014"
    },
    {
      "icao": "EPRZ",
      "alert": "OK",
      "vis_m": 9999,
      "fzfg": false,
      "metar_trigger": false,
      "taf_trigger": false,
      "metar": "METAR EPRZ 221600Z 06006KT 9999 OVC017 02/M00 Q1021",
      "taf": "TAF EPRZ 221130Z 2212/2312 08010KT 9999 OVC015"
    },
    {
      "icao": "EPSC",
      "alert": "OK",
      "vis_m": 9999,
      "fzfg": false,
      "metar_trigger": false,
      "taf_trigger": false,
      "metar": "METAR EPSC 221600Z 10008KT 9999 BKN015 02/M01 Q1021",
      "taf": "TAF EPSC 221130Z 2212/2312 10010KT 9999 OVC012"
    },
    {
      "icao": "EPSY",
      "alert": "OK",
      "vis_m": 9999,
      "fzfg": false,
      "metar_trigger": false,
      "taf_trigger": false,
      "metar": "METAR EPSY 221600Z 02002KT 9999 BKN021 03/02 Q1023",
      "taf": "TAF EPSY 221430Z 2215/2224 VRB02KT 9999 BKN020"
    },
    {
      "icao": "EPWA",
      "alert": "OK",
      "vis_m": 9999,
      "fzfg": false,
      "metar_trigger": false,
      "taf_trigger": false,
      "metar": "METAR EPWA 221600Z 11009KT 080V150 9999 BKN020 03/M01 Q1022 NOSIG",
      "taf": "TAF EPWA 221430Z 2215/2315 11007KT 9999 BKN019"
    },
    {
      "icao": "EPWR",
      "alert": "OK",
      "vis_m": 5000,
      "fzfg": false,
      "metar_trigger": false,
      "taf_trigger": false,
      "metar": "METAR EPWR 221600Z 09009KT 5000 BR OVC005 04/03 Q1019",
      "taf": "TAF EPWR 221430Z 2215/2315 09009KT 6000 OVC005"
    },
    {
      "icao": "ESGG",
      "alert": "OK",
      "vis_m": 9999,
      "fzfg": false,
      "metar_trigger": false,
      "taf_trigger": false,
      "metar": "METAR ESGG 221550Z 09003KT CAVOK M01/M02 Q1025",
      "taf": ""
    },
    {
      "icao": "ESKN",
      "alert": "OK",
      "vis_m": 9999,
      "fzfg": false,
      "metar_trigger": false,
      "taf_trigger": false,
      "metar": "METAR ESKN 221550Z VRB02KT 9999 FEW007 BKN009 M00/M00 Q1026",
      "taf": ""
    },
    {
      "icao": "ESMS",
      "alert": "OK",
      "vis_m": 9999,
      "fzfg": false,
      "metar_trigger": false,
      "taf_trigger": false,
      "metar": "METAR ESMS 221550Z 10009KT 9999 BKN024 05/01 Q1022",
      "taf": "TAF ESMS 221427Z 2215/2315 10010KT 9999 BKN020"
    },
    {
      "icao": "ESSA",
      "alert": "OK",
      "vis_m": 9999,
      "fzfg": false,
      "metar_trigger": false,
      "taf_trigger": false,
      "metar": "METAR ESSA 221550Z 36006KT 330V030 9999 SCT005 BKN017 M01/M01 Q1026 NOSIG",
      "taf": "TAF ESSA 221430Z 2215/2315 35004KT 9999 BKN020"
    },
    {
      "icao": "EYKA",
      "alert": "OK",
      "vis_m": 9999,
      "fzfg": false,
      "metar_trigger": false,
      "taf_trigger": false,
      "metar": "METAR EYKA 221620Z VRB01KT 9999 -RA BKN018 OVC026 03/01 Q1023",
      "taf": "TAF EYKA 221100Z 2212/2312 VRB04KT 9000 SCT010 OVC020"
    },
    {
      "icao": "EYPA",
      "alert": "OK",
      "vis_m": 9999,
      "fzfg": false,
      "metar_trigger": false,
      "taf_trigger": false,
      "metar": "METAR EYPA 221620Z 02002KT 9999 BKN031 OVC038 03/02 Q1024",
      "taf": "TAF EYPA 221100Z 2212/2312 VRB04KT 9000 OVC020"
    },
    {
      "icao": "EYVI",
      "alert": "OK",
      "vis_m": 9999,
      "fzfg": false,
      "metar_trigger": false,
      "taf_trigger": false,
      "metar": "METAR EYVI 221620Z 30004KT 9999 OVC016 02/00 Q1022 NOSIG",
      "taf": ""
    },
    {
      "icao": "GCFV",
      "alert": "OK",
      "vis_m": 9999,
      "fzfg": false,
      "metar_trigger": false,
      "taf_trigger": false,
      "metar": "METAR GCFV 221600Z 02015KT 9999 FEW035 20/11 Q1019",
      "taf": "TAF GCFV 221400Z 2215/2315 02015KT 9999 SCT025 TX21/2314Z TN15/2306Z"
    },
    {
      "icao": "GCLP",
      "alert": "OK",
      "vis_m": 9999,
      "fzfg": false,
      "metar_trigger": false,
      "taf_trigger": false,
      "metar": "METAR GCLP 221600Z 02017KT 9999 BKN030 19/13 Q1019 NOSIG",
      "taf": "TAF GCLP 221400Z 2215/2315 02017KT 9999 BKN020 TX21/2314Z TN16/2306Z"
    },
    {
      "icao": "GCTS",
      "alert": "OK",
      "vis_m": 9999,
      "fzfg": false,
      "metar_trigger": false,
      "taf_trigger": false,
      "metar": "METAR GCTS 221600Z 08019KT 9999 SCT040 21/12 Q1019 NOSIG",
      "taf": "TAF GCTS 221400Z 2215/2315 08018KT 9999 BKN030 TX24/2314Z TN15/2306Z"
    },
    {
      "icao": "GMAD",
      "alert": "OK",
      "vis_m": 9999,
      "fzfg": false,
      "metar_trigger": false,
      "taf_trigger": false,
      "metar": "METAR GMAD 221600Z 29014KT 9999 FEW026 21/04 Q1013 NOSIG",
      "taf": "TAF GMAD 221100Z 2212/2318 23013KT 9999 FEW026"
    },
    {
      "icao": "GMMN",
      "alert": "OK",
      "vis_m": 9999,
      "fzfg": false,
      "metar_trigger": false,
      "taf_trigger": false,
      "metar": "METAR GMMN 221600Z 31009KT 9999 BKN030 14/09 Q1018 NOSIG",
      "taf": "TAF GMMN 221100Z 2212/2318 24008KT 9999 BKN030"
    },
    {
      "icao": "GMMX",
      "alert": "OK",
      "vis_m": 9999,
      "fzfg": false,
      "metar_trigger": false,
      "taf_trigger": false,
      "metar": "METAR GMMX 221600Z 31004KT 260V350 9999 SCT023 14/08 Q1018 NOSIG",
      "taf": "TAF GMMX 221100Z 2212/2318 24005KT 8000 SCT020"
    },
    {
      "icao": "HEGN",
      "alert": "OK",
      "vis_m": 9999,
      "fzfg": false,
      "metar_trigger": false,
      "taf_trigger": false,
      "metar": "METAR HEGN 221600Z 00000KT 9999 FEW020 22/14 Q1014 NOSIG",
      "taf": "TAF HEGN 221100Z 2212/2318 13008KT CAVOK"
    },
    {
      "icao": "HEMA",
      "alert": "OK",
      "vis_m": 9999,
      "fzfg": false,
      "metar_trigger": false,
      "taf_trigger": false,
      "metar": "METAR HEMA 221600Z 05003KT CAVOK 23/14 Q1013 NOSIG",
      "taf": "TAF HEMA 221100Z 2212/2318 06008KT CAVOK"
    },
    {
      "icao": "HESH",
      "alert": "OK",
      "vis_m": 9999,
      "fzfg": false,
      "metar_trigger": false,
      "taf_trigger": false,
      "metar": "METAR HESH 221600Z 16006KT CAVOK 23/14 Q1013 NOSIG",
      "taf": "TAF HESH 221100Z 2212/2318 20008KT CAVOK"
    },
    {
      "icao": "HESX",
      "alert": "OK",
      "vis_m": 9999,
      "fzfg": false,
      "metar_trigger": false,
      "taf_trigger": false,
      "metar": "METAR HESX 221600Z 21009KT CAVOK 17/01 Q1014 NOSIG",
      "taf": "TAF HESX 221100Z 2212/2318 23012KT CAVOK"
    },
    {
      "icao": "LATI",
      "alert": "OK",
      "vis_m": 9999,
      "fzfg": false,
      "metar_trigger": false,
      "taf_trigger": false,
      "metar": "METAR LATI 221620Z 06003KT 020V100 CAVOK 09/03 Q1015 NOSIG",
      "taf": "TAF LATI 221100Z 2212/2312 VRB05KT CAVOK TX17/2212Z TN03/2305Z"
    },
    {
      "icao": "LBPD",
      "alert": "OK",
      "vis_m": 8000,
      "fzfg": false,
      "metar_trigger": false,
      "taf_trigger": false,
      "metar": "METAR LBPD 221600Z AUTO 11005KT 8000 FEW012/// SCT015/// OVC023/// 08/08 Q1020 NOSIG",
      "taf": "TAF LBPD 221100Z 2212/2312 VRB04KT 7000 SCT010 BKN030"
    },
    {
      "icao": "LBSF",
      "alert": "OK",
      "vis_m": 8000,
      "fzfg": false,
      "metar_trigger": false,
      "taf_trigger": false,
      "metar": "METAR LBSF 221600Z AUTO 07003KT 8000 OVC039/// 05/02 Q1019 NOSIG",
      "taf": "TAF LBSF 221100Z 2212/2312 10010KT 6000 FEW010 SCT025"
    },
    {
      "icao": "LBWN",
      "alert": "OK",
      "vis_m": 9999,
      "fzfg": false,
      "metar_trigger": false,
      "taf_trigger": false,
      "metar": "METAR LBWN 221600Z AUTO 35008KT 9999 OVC007/// 03/03 Q1022 TEMPO BKN005",
      "taf": "TAF LBWN 221100Z 2212/2312 35010KT 9999 BKN012 OVC020"
    },
    {
      "icao": "LCLK",
      "alert": "OK",
      "vis_m": 9999,
      "fzfg": false,
      "metar_trigger": false,
      "taf_trigger": false,
      "metar": "METAR LCLK 221600Z 04011KT 9999 SCT020 SCT035 18/15 Q1014 NOSIG",
      "taf": "TAF LCLK 221130Z 2212/2312 07013KT 9999 FEW025TCU SCT035"
    },
    {
      "icao": "LCPH",
      "alert": "OK",
      "vis_m": 9999,
      "fzfg": false,
      "metar_trigger": false,
      "taf_trigger": false,
      "metar": "METAR LCPH 221600Z 09007KT 9999 FEW025 17/12 Q1013 NOSIG",
      "taf": "TAF LCPH 221130Z 2212/2312 14015KT 9999 FEW025 SCT035"
    },
    {
      "icao": "LEAL",
      "alert": "OK",
      "vis_m": 9999,
      "fzfg": false,
      "metar_trigger": false,
      "taf_trigger": false,
      "metar": "METAR LEAL 221600Z 28010KT 230V330 9999 FEW060 12/01 Q1009 NOSIG",
      "taf": "TAF LEAL 221100Z 2212/2312 30010KT 9999 FEW040 TX14/2213Z TN08/2307Z"
    },
    {
      "icao": "LEBB",
      "alert": "OK",
      "vis_m": 9999,
      "fzfg": false,
      "metar_trigger": false,
      "taf_trigger": false,
      "metar": "METAR LEBB 221600Z 23004KT 190V280 9999 FEW049 BKN058 BKN070 11/04 Q1007 TEMPO 3000 RA",
      "taf": "TAF LEBB 221100Z 2212/2312 22008KT 9999 BKN035 TX11/2212Z TN06/2307Z"
    },
    {
      "icao": "LEBL",
      "alert": "OK",
      "vis_m": 9999,
      "fzfg": false,
      "metar_trigger": false,
      "taf_trigger": false,
      "metar": "METAR LEBL 221600Z 34003KT 9999 FEW025 10/04 Q1005 NOSIG",
      "taf": ""
    },
    {
      "icao": "LECH",
      "alert": "OK",
      "vis_m": 9999,
      "fzfg": false,
      "metar_trigger": false,
      "taf_trigger": false,
      "metar": "METAR LECH 221600Z AUTO 32009KT 290V010 9999 FEW059 09/M03 Q1006",
      "taf": ""
    },
    {
      "icao": "LEMD",
      "alert": "OK",
      "vis_m": 9999,
      "fzfg": false,
      "metar_trigger": false,
      "taf_trigger": false,
      "metar": "METAR LEMD 221600Z 33002G12KT 9999 SCT025 SCT055 06/02 Q1009 NOSIG",
      "taf": "TAF LEMD 221100Z 2212/2318 VRB04KT 9999 SCT020 TX07/2215Z TNM01/2306Z"
    },
    {
      "icao": "LEMG",
      "alert": "OK",
      "vis_m": 9999,
      "fzfg": false,
      "metar_trigger": false,
      "taf_trigger": false,
      "metar": "METAR LEMG 221600Z 32010KT 9999 FEW040 SCT055 11/04 Q1013 NOSIG",
      "taf": "TAF LEMG 221100Z 2212/2312 31012KT 9999 FEW040 TX12/2214Z TN07/2306Z"
    },
    {
      "icao": "LEVC",
      "alert": "OK",
      "vis_m": 9999,
      "fzfg": false,
      "metar_trigger": false,
      "taf_trigger": false,
      "metar": "METAR LEVC 221600Z 26013KT 230V290 9999 FEW040 11/M00 Q1007 NOSIG",
      "taf": "TAF LEVC 221100Z 2212/2312 27010KT 9999 FEW040 TX13/2213Z TN07/2307Z"
    },
    {
      "icao": "LEXJ",
      "alert": "OK",
      "vis_m": 9999,
      "fzfg": false,
      "metar_trigger": false,
      "taf_trigger": false,
      "metar": "METAR LEXJ 221600Z 26009KT 9999 BKN060 12/04 Q1007",
      "taf": "TAF LEXJ 221400Z 2215/2315 25009KT 9999 SCT040 TX13/2313Z TN07/2307Z"
    },
    {
      "icao": "LEZG",
      "alert": "OK",
      "vis_m": 9999,
      "fzfg": false,
      "metar_trigger": false,
      "taf_trigger": false,
      "metar": "METAR LEZG 221600Z 30006KT 9999 FEW065 08/02 Q1007 NOSIG",
      "taf": "TAF LEZG 221100Z 2212/2312 30010KT 9999 FEW040 TX09/2214Z TN03/2306Z"
    },
    {
      "icao": "LEZL",
      "alert": "OK",
      "vis_m": 9999,
      "fzfg": false,
      "metar_trigger": false,
      "taf_trigger": false,
      "metar": "METAR LEZL 221600Z 22005KT CAVOK 12/08 Q1014 NOSIG",
      "taf": ""
    },
    {
      "icao": "LFBD",
      "alert": "OK",
      "vis_m": 9999,
      "fzfg": false,
      "metar_trigger": false,
      "taf_trigger": false,
      "metar": "METAR LFBD 221600Z AUTO 14007KT 9999 SCT017 BKN180 BKN200 08/05 Q1007 NOSIG",
      "taf": "TAF LFBD 221100Z 2212/2318 18010KT 9999 BKN040 TX10/2214Z TN04/2302Z"
    },
    {
      "icao": "LFLL",
      "alert": "OK",
      "vis_m": 6000,
      "fzfg": false,
      "metar_trigger": false,
      "taf_trigger": false,
      "metar": "METAR LFLL 221600Z 12005KT 6000 -RA BKN006 BKN060 BKN093 09/08 Q1006 NOSIG",
      "taf": "TAF LFLL 221100Z 2212/2318 33004KT 7000 FEW006 BKN100"
    },
    {
      "icao": "LFLS",
      "alert": "OK",
      "vis_m": 5000,
      "fzfg": false,
      "metar_trigger": false,
      "taf_trigger": false,
      "metar": "METAR LFLS 221600Z AUTO 15003KT 5000 BR FEW062 BKN096 OVC120 07/07 Q1006 NOSIG",
      "taf": ""
    },
    {
      "icao": "LFMN",
      "alert": "OK",
      "vis_m": 9999,
      "fzfg": false,
      "metar_trigger": false,
      "taf_trigger": false,
      "metar": "METAR LFMN 221600Z 04017KT 9999 -RA BKN058 13/07 Q1007 NOSIG",
      "taf": "TAF LFMN 221400Z 2215/2321 06015KT 9999 BKN048"
    },
    {
      "icao": "LFOB",
      "alert": "OK",
      "vis_m": 9999,
      "fzfg": false,
      "metar_trigger": false,
      "taf_trigger": false,
      "metar": "METAR LFOB 221600Z AUTO 06003KT CAVOK 08/06 Q1008 TEMPO 4000 BR",
      "taf": "TAF LFOB 221100Z 2212/2312 07006KT CAVOK"
    },
    {
      "icao": "LFPO",
      "alert": "OK",
      "vis_m": 9999,
      "fzfg": false,
      "metar_trigger": false,
      "taf_trigger": false,
      "metar": "METAR LFPO 221600Z 06005KT CAVOK 09/07 Q1008 NOSIG",
      "taf": "TAF LFPO 221100Z 2212/2318 10004KT 9999 FEW013 SCT110 BKN180"
    },
    {
      "icao": "LFSB",
      "alert": "OK",
      "vis_m": 1600,
      "fzfg": false,
      "metar_trigger": false,
      "taf_trigger": false,
      "metar": "METAR LFSB 221600Z AUTO 35008KT 1600 BR VV/// 02/02 Q1009 TEMPO 0500 FG",
      "taf": "TAF LFSB 221100Z 2212/2312 35004KT 9999 BKN007"
    },
    {
      "icao": "LGAV",
      "alert": "OK",
      "vis_m": 9999,
      "fzfg": false,
      "metar_trigger": false,
      "taf_trigger": false,
      "metar": "METAR LGAV 221550Z 02008KT 9999 FEW020 SCT040 BKN070 14/09 Q1015 NOSIG",
      "taf": "TAF LGAV 221100Z 2212/2312 04015KT 9999 SCT035 BKN070"
    },
    {
      "icao": "LGTS",
      "alert": "OK",
      "vis_m": 9999,
      "fzfg": false,
      "metar_trigger": false,
      "taf_trigger": false,
      "metar": "METAR LGTS 221550Z 13003KT 9999 FEW018 12/07 Q1018 NOSIG",
      "taf": "TAF LGTS 221100Z 2212/2312 VRB03KT 9999 FEW010 SCT025"
    },
    {
      "icao": "LHBP",
      "alert": "OK",
      "vis_m": 9000,
      "fzfg": false,
      "metar_trigger": false,
      "taf_trigger": false,
      "metar": "METAR LHBP 221600Z 16005KT 9000 OVC009 04/03 Q1020 NOSIG",
      "taf": "TAF LHBP 221115Z 2212/2312 12007KT 8000 SCT006 OVC015"
    },
    {
      "icao": "LHDC",
      "alert": "OK",
      "vis_m": 7000,
      "fzfg": false,
      "metar_trigger": false,
      "taf_trigger": false,
      "metar": "METAR LHDC 221545Z AUTO 20004KT 170V230 7000 OVC003 05/05 Q1020 TEMPO OVC003",
      "taf": ""
    },
    {
      "icao": "LIBD",
      "alert": "OK",
      "vis_m": 7000,
      "fzfg": false,
      "metar_trigger": false,
      "taf_trigger": false,
      "metar": "METAR LIBD 221550Z 10005KT 7000 FEW030 12/11 Q1013",
      "taf": "TAF LIBD 221100Z 2212/2312 11007KT 9999 FEW040"
    },
    {
      "icao": "LIBG",
      "alert": "OK",
      "vis_m": 9999,
      "fzfg": false,
      "metar_trigger": false,
      "taf_trigger": false,
      "metar": "METAR LIBG 221550Z 11006KT 9999 SCT030 14/14 Q1013",
      "taf": "TAF LIBG 221400Z 2215/2224 10007KT 9999 FEW040"
    },
    {
      "icao": "LIBP",
      "alert": "OK",
      "vis_m": 9999,
      "fzfg": false,
      "metar_trigger": false,
      "taf_trigger": false,
      "metar": "METAR LIBP 221550Z AUTO 04002KT 9999 FEW016/// OVC035/// 12/10 Q1014",
      "taf": "TAF LIBP 221100Z 2212/2312 VRB04KT 9999 FEW010 BKN030"
    },
    {
      "icao": "LIBR",
      "alert": "OK",
      "vis_m": 9999,
      "fzfg": false,
      "metar_trigger": false,
      "taf_trigger": false,
      "metar": "METAR LIBR 221550Z 12005KT CAVOK 14/12 Q1014",
      "taf": "TAF LIBR 221100Z 2212/2312 11010KT 9999 SCT020"
    },
    {
      "icao": "LICA",
      "alert": "OK",
      "vis_m": 9999,
      "fzfg": false,
      "metar_trigger": false,
      "taf_trigger": false,
      "metar": "METAR LICA 221550Z AUTO 07012KT 9999 NCD 15/12 Q1012",
      "taf": "TAF LICA 221100Z 2212/2312 08018G28KT 9999 BKN050"
    },
    {
      "icao": "LICC",
      "alert": "OK",
      "vis_m": 9999,
      "fzfg": false,
      "metar_trigger": false,
      "taf_trigger": false,
      "metar": "METAR LICC 221550Z 05005KT 9999 FEW020 SCT060 16/15 Q1012",
      "taf": "TAF LICC 221100Z 2212/2312 07012KT 9999 SCT040"
    },
    {
      "icao": "LICJ",
      "alert": "OK",
      "vis_m": 9999,
      "fzfg": false,
      "metar_trigger": false,
      "taf_trigger": false,
      "metar": "METAR LICJ 221550Z VRB02KT CAVOK 17/10 Q1009",
      "taf": "TAF LICJ 221100Z 2212/2312 19012KT 9999 SCT040"
    },
    {
      "icao": "LIMC",
      "alert": "OK",
      "vis_m": 9999,
      "fzfg": false,
      "metar_trigger": false,
      "taf_trigger": false,
      "metar": "METAR LIMC 221550Z 15002KT 9999 SCT060 10/05 Q1014 NOSIG",
      "taf": "TAF LIMC 221100Z 2212/2318 VRB03KT 9999 BKN040"
    },
    {
      "icao": "LIME",
      "alert": "OK",
      "vis_m": 9999,
      "fzfg": false,
      "metar_trigger": false,
      "taf_trigger": false,
      "metar": "METAR LIME 221550Z 20003KT 170V230 9999 SCT070 09/05 Q1014 NOSIG",
      "taf": "TAF LIME 221100Z 2212/2312 VRB03KT 8000 SCT050"
    },
    {
      "icao": "LIMF",
      "alert": "OK",
      "vis_m": 7000,
      "fzfg": false,
      "metar_trigger": false,
      "taf_trigger": false,
      "metar": "METAR LIMF 221550Z 13002KT 7000 BKN035 OVC060 08/06 Q1014",
      "taf": "TAF LIMF 221100Z 2212/2312 VRB03KT 8000 SCT030 BKN050"
    },
    {
      "icao": "LIMJ",
      "alert": "OK",
      "vis_m": 9999,
      "fzfg": false,
      "metar_trigger": false,
      "taf_trigger": false,
      "metar": "METAR LIMJ 221550Z 01011KT 330V030 9999 BKN075 12/05 Q1011",
      "taf": "TAF LIMJ 221100Z 2212/2312 03015KT 9999 BKN050"
    },
    {
      "icao": "LIPE",
      "alert": "OK",
      "vis_m": 5000,
      "fzfg": false,
      "metar_trigger": false,
      "taf_trigger": false,
      "metar": "METAR LIPE 221550Z 27002KT 5000 BR OVC010 08/07 Q1014",
      "taf": "TAF LIPE 221100Z 2212/2312 VRB04KT 5000 BR BKN020"
    },
    {
      "icao": "LIPH",
      "alert": "OK",
      "vis_m": 9999,
      "fzfg": false,
      "metar_trigger": false,
      "taf_trigger": false,
      "metar": "METAR LIPH 221550Z VRB01KT 9999 BKN060 09/04 Q1014",
      "taf": "TAF LIPH 221100Z 2212/2312 05005KT 9999 FEW050"
    },
    {
      "icao": "LIPQ",
      "alert": "OK",
      "vis_m": 9999,
      "fzfg": false,
      "metar_trigger": false,
      "taf_trigger": false,
      "metar": "METAR LIPQ 221550Z AUTO 07004KT 9999 OVC073/// 09/04 Q1015",
      "taf": "TAF LIPQ 221100Z 2212/2312 07006KT 9999 FEW060"
    },
    {
      "icao": "LIPR",
      "alert": "OK",
      "vis_m": 6000,
      "fzfg": false,
      "metar_trigger": false,
      "taf_trigger": false,
      "metar": "METAR LIPR 221550Z 30005KT 6000 BKN020 10/09 Q1013",
      "taf": "TAF LIPR 221100Z 2212/2312 30007KT 3000 BR BKN010"
    },
    {
      "icao": "LIPX",
      "alert": "OK",
      "vis_m": 9999,
      "fzfg": false,
      "metar_trigger": false,
      "taf_trigger": false,
      "metar": "METAR LIPX 221550Z 17002KT 9999 BKN060 09/05 Q1014",
      "taf": "TAF LIPX 221100Z 2212/2312 VRB03KT 9999 BKN040"
    },
    {
      "icao": "LIPY",
      "alert": "OK",
      "vis_m": 6000,
      "fzfg": false,
      "metar_trigger": false,
      "taf_trigger": false,
      "metar": "METAR LIPY 221550Z AUTO 05003KT 6000 OVC040/// 11/11 Q1013",
      "taf": "TAF LIPY 221100Z 2212/2312 VRB05KT 6000 BKN040"
    },
    {
      "icao": "LIPZ",
      "alert": "OK",
      "vis_m": 9999,
      "fzfg": false,
      "metar_trigger": false,
      "taf_trigger": false,
      "metar": "METAR LIPZ 221550Z 01003KT 9999 BKN060 09/05 Q1014 NOSIG",
      "taf": "TAF LIPZ 221100Z 2212/2318 03007KT 9999 SCT050"
    },
    {
      "icao": "LIRF",
      "alert": "OK",
      "vis_m": 9999,
      "fzfg": false,
      "metar_trigger": false,
      "taf_trigger": false,
      "metar": "METAR LIRF 221550Z AUTO 12008KT 9999 BKN067/// 16/08 Q1010",
      "taf": "TAF LIRF 221100Z 2212/2318 06010KT 9999 SCT040"
    },
    {
      "icao": "LIRN",
      "alert": "OK",
      "vis_m": 9999,
      "fzfg": false,
      "metar_trigger": false,
      "taf_trigger": false,
      "metar": "METAR LIRN 221550Z VRB03KT 9999 SCT060 16/09 Q1011 NOSIG",
      "taf": "TAF LIRN 221100Z 2212/2312 05005KT 9999 FEW040"
    },
    {
      "icao": "LIRP",
      "alert": "OK",
      "vis_m": 9999,
      "fzfg": false,
      "metar_trigger": false,
      "taf_trigger": false,
      "metar": "METAR LIRP 221545Z 09006KT 9999 SCT040 BKN050 12/08 Q1010 TEMPO RA",
      "taf": "TAF LIRP 221100Z 2212/2312 11007KT 9999 SCT060"
    },
    {
      "icao": "LIRZ",
      "alert": "OK",
      "vis_m": 9999,
      "fzfg": false,
      "metar_trigger": false,
      "taf_trigger": false,
      "metar": "METAR LIRZ 221550Z AUTO 03002KT 9999 BKN071/// 09/08 Q1011",
      "taf": ""
    },
    {
      "icao": "LJLJ",
      "alert": "OK",
      "vis_m": 9999,
      "fzfg": false,
      "metar_trigger": false,
      "taf_trigger": false,
      "metar": "METAR LJLJ 221600Z 18002KT 9999 OVC010 03/01 Q1017 NOSIG",
      "taf": "TAF LJLJ 221100Z 2212/2312 VRB02KT 3500 -DZ BR FEW003 OVC010"
    },
    {
      "icao": "LKMT",
      "alert": "OK",
      "vis_m": 4500,
      "fzfg": false,
      "metar_trigger": false,
      "taf_trigger": false,
      "metar": "METAR LKMT 221600Z 11004KT 4500 BR SCT008 OVC012 02/02 Q1019 NOSIG",
      "taf": "TAF LKMT 221100Z 2212/2312 04004KT 2800 -DZ BR OVC005"
    },
    {
      "icao": "LKPR",
      "alert": "OK",
      "vis_m": 9999,
      "fzfg": false,
      "metar_trigger": false,
      "taf_trigger": false,
      "metar": "METAR LKPR 221600Z 10006KT 9999 -DZ SCT008 BKN012 OVC016 03/02 Q1014 NOSIG",
      "taf": "TAF LKPR 221400Z 2215/2321 11010KT 9999 SCT004 OVC012"
    },
    {
      "icao": "LLBG",
      "alert": "OK",
      "vis_m": 9999,
      "fzfg": false,
      "metar_trigger": false,
      "taf_trigger": false,
      "metar": "METAR LLBG 221620Z VRB03KT CAVOK 18/09 Q1014 NOSIG",
      "taf": "TAF LLBG 221106Z 2212/2312 31008KT CAVOK"
    },
    {
      "icao": "LMML",
      "alert": "OK",
      "vis_m": 9999,
      "fzfg": false,
      "metar_trigger": false,
      "taf_trigger": false,
      "metar": "METAR LMML 221615Z VRB02KT 9999 FEW019 15/13 Q1011 NOSIG",
      "taf": "TAF LMML 221100Z 2212/2312 VRB06KT 9999 FEW020"
    },
    {
      "icao": "LOWW",
      "alert": "OK",
      "vis_m": 9999,
      "fzfg": false,
      "metar_trigger": false,
      "taf_trigger": false,
      "metar": "METAR LOWW 221550Z 15018KT 9999 FEW008 BKN010 04/02 Q1016 BECMG BKN007",
      "taf": "TAF LOWW 221415Z 2215/2321 15014KT 9999 BKN012 TX04/2221Z TN03/2321Z"
    },
    {
      "icao": "LPFR",
      "alert": "OK",
      "vis_m": 9999,
      "fzfg": false,
      "metar_trigger": false,
      "taf_trigger": false,
      "metar": "METAR LPFR 221600Z 30013KT 9999 FEW018 15/06 Q1014",
      "taf": ""
    },
    {
      "icao": "LPMA",
      "alert": "OK",
      "vis_m": 9999,
      "fzfg": false,
      "metar_trigger": false,
      "taf_trigger": false,
      "metar": "METAR LPMA 221600Z 35006KT 300V040 9999 SCT015 19/10 Q1022",
      "taf": ""
    },
    {
      "icao": "LPPR",
      "alert": "OK",
      "vis_m": 9999,
      "fzfg": false,
      "metar_trigger": false,
      "taf_trigger": false,
      "metar": "METAR LPPR 221600Z 20006KT 9999 FEW016 SCT045 11/07 Q1011",
      "taf": ""
    },
    {
      "icao": "LPPS",
      "alert": "OK",
      "vis_m": 9999,
      "fzfg": false,
      "metar_trigger": false,
      "taf_trigger": false,
      "metar": "METAR LPPS 221600Z 34011KT 9999 SCT015 18/11 Q1023",
      "taf": ""
    },
    {
      "icao": "LPPT",
      "alert": "OK",
      "vis_m": 9999,
      "fzfg": false,
      "metar_trigger": false,
      "taf_trigger": false,
      "metar": "METAR LPPT 221600Z 30003KT 220V360 9999 FEW030 BKN043 13/08 Q1014",
      "taf": ""
    },
    {
      "icao": "LQBK",
      "alert": "OK",
      "vis_m": 7000,
      "fzfg": false,
      "metar_trigger": false,
      "taf_trigger": false,
      "metar": "METAR LQBK 221600Z VRB02KT 7000 OVC015 05/03 Q1019 NOSIG",
      "taf": "TAF LQBK 221100Z 2212/2312 VRB02KT 7000 BKN005 OVC015 TX06/2213Z TN01/2305Z"
    },
    {
      "icao": "LQSA",
      "alert": "OK",
      "vis_m": 9999,
      "fzfg": false,
      "metar_trigger": false,
      "taf_trigger": false,
      "metar": "METAR LQSA 221600Z VRB03KT 9999 OVC012 02/00 Q1017 NOSIG",
      "taf": "TAF LQSA 221100Z 2212/2312 VRB02KT 9999 BKN012 TX04/2213Z TNM04/2305Z"
    },
    {
      "icao": "LQTZ",
      "alert": "OK",
      "vis_m": 9999,
      "fzfg": false,
      "metar_trigger": false,
      "taf_trigger": false,
      "metar": "METAR LQTZ 221600Z VRB01KT 9999 SCT016 BKN035 05/03 Q1018",
      "taf": "TAF LQTZ 221100Z 2212/2312 VRB02KT 9999 SCT015 BKN035 TX05/2213Z TNM01/2305Z"
    },
    {
      "icao": "LRBC",
      "alert": "OK",
      "vis_m": 7000,
      "fzfg": false,
      "metar_trigger": false,
      "taf_trigger": false,
      "metar": "METAR LRBC 221600Z 00000KT 7000 OVC007 04/03 Q1022",
      "taf": "TAF LRBC 221400Z 2215/2224 VRB04KT 5000 BR OVC005"
    },
    {
      "icao": "LRBS",
      "alert": "OK",
      "vis_m": 5000,
      "fzfg": false,
      "metar_trigger": false,
      "taf_trigger": false,
      "metar": "METAR LRBS 221600Z 07006KT 040V100 5000 -DZ BR OVC005 03/02 Q1023 BECMG 3000 -DZ BR",
      "taf": "TAF LRBS 221100Z 2212/2312 06006KT 9999 BKN005 OVC010"
    },
    {
      "icao": "LRBV",
      "alert": "OK",
      "vis_m": 150,
      "fzfg": true,
      "metar_trigger": false,
      "taf_trigger": false,
      "metar": "METAR LRBV 221600Z 17002KT 0150 R21/0275N FZFG VV001 M00/M00 Q1019",
      "taf": ""
    },
    {
      "icao": "LRCL",
      "alert": "OK",
      "vis_m": 7000,
      "fzfg": false,
      "metar_trigger": false,
      "taf_trigger": false,
      "metar": "METAR LRCL 221600Z 10004KT 7000 OVC006 02/01 Q1020",
      "taf": "TAF LRCL 221400Z 2215/2224 VRB04KT 9999 OVC005"
    },
    {
      "icao": "LRCV",
      "alert": "OK",
      "vis_m": 3500,
      "fzfg": false,
      "metar_trigger": false,
      "taf_trigger": false,
      "metar": "METAR LRCV 221600Z 11006KT 3500 BR OVC002 04/04 Q1021",
      "taf": "TAF LRCV 221400Z 2215/2224 11006KT 3000 BR OVC005"
    },
    {
      "icao": "LRIA",
      "alert": "OK",
      "vis_m": 9999,
      "fzfg": false,
      "metar_trigger": false,
      "taf_trigger": false,
      "metar": "METAR LRIA 221600Z 04006KT 9999 BKN014 OVC027 03/01 Q1023",
      "taf": "TAF LRIA 221400Z 2215/2224 VRB04KT 5000 BR BKN005 OVC010"
    },
    {
      "icao": "LROP",
      "alert": "OK",
      "vis_m": 5000,
      "fzfg": false,
      "metar_trigger": false,
      "taf_trigger": false,
      "metar": "METAR LROP 221600Z 08007KT 5000 -DZ BR BKN004 OVC006 03/03 Q1023 BECMG 3000 -DZ BR",
      "taf": "TAF LROP 221100Z 2212/2312 06006KT 9999 BKN005 OVC010"
    },
    {
      "icao": "LRSB",
      "alert": "OK",
      "vis_m": 400,
      "fzfg": true,
      "metar_trigger": false,
      "taf_trigger": false,
      "metar": "METAR LRSB 221600Z 25004KT 0400 R27/1100N FZFG VV002 M01/M01 Q1020",
      "taf": "TAF LRSB 221100Z 2212/2312 VRB04KT 0350 FZFG VV001"
    },
    {
      "icao": "LRSM",
      "alert": "OK",
      "vis_m": 3000,
      "fzfg": false,
      "metar_trigger": false,
      "taf_trigger": false,
      "metar": "METAR LRSM 221600Z 28002KT 3000 BR FEW002 SCT014 OVC022 05/04 Q1020",
      "taf": "TAF LRSM 221400Z 2215/2224 VRB04KT 5000 BR OVC030"
    },
    {
      "icao": "LRSV",
      "alert": "OK",
      "vis_m": 7000,
      "fzfg": false,
      "metar_trigger": false,
      "taf_trigger": false,
      "metar": "METAR LRSV 221600Z 08005KT 7000 OVC006 01/01 Q1021",
      "taf": "TAF LRSV 221400Z 2215/2224 VRB04KT 3000 BR OVC002"
    },
    {
      "icao": "LRTM",
      "alert": "OK",
      "vis_m": 2000,
      "fzfg": false,
      "metar_trigger": false,
      "taf_trigger": false,
      "metar": "METAR LRTM 221600Z VRB02KT 2000 BR SCT002 BKN004 BKN006 02/02 Q1020",
      "taf": "TAF LRTM 221400Z 2215/2224 VRB04KT 3000 BR BKN002 OVC005"
    },
    {
      "icao": "LRTR",
      "alert": "OK",
      "vis_m": 9999,
      "fzfg": false,
      "metar_trigger": false,
      "taf_trigger": false,
      "metar": "METAR LRTR 221600Z 07005KT 9999 OVC010 04/04 Q1020",
      "taf": "TAF LRTR 221100Z 2212/2312 VRB04KT 9999 BKN005 OVC010"
    },
    {
      "icao": "LTAC",
      "alert": "OK",
      "vis_m": 9999,
      "fzfg": false,
      "metar_trigger": false,
      "taf_trigger": false,
      "metar": "SPECI LTAC 221601Z 03003KT 340V050 9999 -RA BKN030 BKN080 05/03 Q1017 NOSIG",
      "taf": "TAF LTAC 221040Z 2212/2312 VRB02KT 9999 SCT040 BKN100"
    },
    {
      "icao": "LTFM",
      "alert": "OK",
      "vis_m": 9999,
      "fzfg": false,
      "metar_trigger": false,
      "taf_trigger": false,
      "metar": "METAR LTFM 221550Z 05017KT 9999 FEW014 BKN022 11/07 Q1019 NOSIG RMK RWY17L 05016KT RWY34L 04016KT RWY16R 04017KT RWY36 05017KT RWY18 06015KT",
      "taf": "TAF LTFM 221040Z 2212/2318 03018G28KT 9999 -SHRA SCT014 BKN022"
    },
    {
      "icao": "LUKK",
      "alert": "OK",
      "vis_m": 9999,
      "fzfg": false,
      "metar_trigger": false,
      "taf_trigger": false,
      "metar": "METAR LUKK 221600Z 05004KT 9999 OVC025 03/00 Q1023 NOSIG",
      "taf": "TAF LUKK 221118Z 2212/2312 VRB05KT 9999 OVC010"
    },
    {
      "icao": "LWOH",
      "alert": "OK",
      "vis_m": 9999,
      "fzfg": false,
      "metar_trigger": false,
      "taf_trigger": false,
      "metar": "METAR LWOH 221620Z 02001KT 9999 BKN040 08/04 Q1016",
      "taf": "TAF LWOH 221430Z 2215/2315 VRB02KT 9999 SCT040"
    },
    {
      "icao": "LWSK",
      "alert": "OK",
      "vis_m": 6000,
      "fzfg": false,
      "metar_trigger": false,
      "taf_trigger": false,
      "metar": "METAR LWSK 221620Z 26001KT 6000 SCT008 BKN013 04/02 Q1019 NOSIG",
      "taf": "TAF LWSK 221430Z 2215/2315 VRB02KT 6000 SCT010 BKN030"
    },
    {
      "icao": "LYBE",
      "alert": "OK",
      "vis_m": 9999,
      "fzfg": false,
      "metar_trigger": false,
      "taf_trigger": false,
      "metar": "METAR LYBE 221600Z 11004KT 9999 BKN021 06/03 Q1019 NOSIG",
      "taf": "TAF LYBE 221100Z 2212/2312 12008KT 9999 OVC017 TX08/2312Z TN02/2306Z"
    },
    {
      "icao": "LYNI",
      "alert": "OK",
      "vis_m": 9999,
      "fzfg": false,
      "metar_trigger": false,
      "taf_trigger": false,
      "metar": "METAR LYNI 221600Z VRB01KT 9999 BKN013 BKN023 05/03 Q1019 NOSIG",
      "taf": "TAF LYNI 221100Z 2212/2312 07005KT 9999 SCT023 TX09/2312Z TNM01/2306Z"
    },
    {
      "icao": "LYPG",
      "alert": "OK",
      "vis_m": 9999,
      "fzfg": false,
      "metar_trigger": false,
      "taf_trigger": false,
      "metar": "METAR LYPG 221600Z 14003KT CAVOK 07/04 Q1016 NOSIG",
      "taf": "TAF LYPG 221100Z 2212/2312 VRB02KT CAVOK TX13/2213Z TN05/2222Z"
    },
    {
      "icao": "LZIB",
      "alert": "OK",
      "vis_m": 9999,
      "fzfg": false,
      "metar_trigger": false,
      "taf_trigger": false,
      "metar": "METAR LZIB 221600Z 12010KT 9999 -DZ SCT007 OVC013 04/03 Q1018 NOSIG",
      "taf": "TAF LZIB 221115Z 2212/2312 12011KT 8000 SCT004 OVC013"
    },
    {
      "icao": "LZKZ",
      "alert": "OK",
      "vis_m": 9999,
      "fzfg": false,
      "metar_trigger": false,
      "taf_trigger": false,
      "metar": "METAR LZKZ 221600Z 23001KT 9999 OVC017 06/04 Q1019 NOSIG",
      "taf": "TAF LZKZ 221115Z 2212/2312 VRB02KT 6000 BKN008"
    },
    {
      "icao": "LZTT",
      "alert": "OK",
      "vis_m": 300,
      "fzfg": false,
      "metar_trigger": false,
      "taf_trigger": false,
      "metar": "METAR LZTT 221600Z VRB02KT 0300 R27/P2000D FG OVC002 02/01 Q1018 TEMPO 0500 FG",
      "taf": ""
    },
    {
      "icao": "OEJN",
      "alert": "OK",
      "vis_m": 9999,
      "fzfg": false,
      "metar_trigger": false,
      "taf_trigger": false,
      "metar": "METAR OEJN 221600Z 29004KT CAVOK 27/23 Q1012 NOSIG",
      "taf": "TAF OEJN 221100Z 2212/2318 25010KT 9999 SCT040"
    },
    {
      "icao": "OEMA",
      "alert": "OK",
      "vis_m": 9999,
      "fzfg": false,
      "metar_trigger": false,
      "taf_trigger": false,
      "metar": "METAR OEMA 221600Z 04004KT CAVOK 24/02 Q1017 NOSIG",
      "taf": "TAF OEMA 221100Z 2212/2318 10008KT CAVOK"
    },
    {
      "icao": "OJAI",
      "alert": "OK",
      "vis_m": 5000,
      "fzfg": false,
      "metar_trigger": false,
      "taf_trigger": false,
      "metar": "METAR OJAI 221600Z 05006KT 5000 HZ NSC 11/02 Q1017 NOSIG",
      "taf": "TAF OJAI 221044Z 2212/2318 12010KT 5000 HZ NSC"
    },
    {
      "icao": "OMAA",
      "alert": "OK",
      "vis_m": 9999,
      "fzfg": false,
      "metar_trigger": false,
      "taf_trigger": false,
      "metar": "METAR OMAA 221600Z 35007KT CAVOK 20/11 Q1019 NOSIG",
      "taf": "TAF OMAA 221100Z 2212/2318 01011KT 8000 NSC"
    },
    {
      "icao": "OMDB",
      "alert": "OK",
      "vis_m": 9999,
      "fzfg": false,
      "metar_trigger": false,
      "taf_trigger": false,
      "metar": "METAR OMDB 221600Z 06005KT 010V100 CAVOK 21/10 Q1020 NOSIG",
      "taf": "TAF OMDB 221100Z 2212/2318 35012KT CAVOK"
    },
    {
      "icao": "UAAA",
      "alert": "OK",
      "vis_m": 3800,
      "fzfg": false,
      "metar_trigger": false,
      "taf_trigger": false,
      "metar": "METAR UAAA 221600Z 27002MPS 250V320 3800 BR BKN010 OVC100 M02/M04 Q1029 NOSIG",
      "taf": ""
    },
    {
      "icao": "UBBB",
      "alert": "OK",
      "vis_m": 9999,
      "fzfg": false,
      "metar_trigger": false,
      "taf_trigger": false,
      "metar": "METAR UBBB 221600Z 00000KT CAVOK 06/02 Q1018 NOSIG",
      "taf": "TAF UBBB 221053Z 2212/2312 VRB04KT 9999 SCT030 TX09/2212Z TN04/2302Z"
    },
    {
      "icao": "UDSG",
      "alert": "OK",
      "vis_m": 5000,
      "fzfg": false,
      "metar_trigger": false,
      "taf_trigger": false,
      "metar": "METAR UDSG 221600Z 04001KT 5000 BR NSC M03/M05 Q1021 NOSIG",
      "taf": "TAF UDSG 221058Z 2212/2312 VRB06KT 9999 SCT050"
    },
    {
      "icao": "UDYZ",
      "alert": "OK",
      "vis_m": 2600,
      "fzfg": false,
      "metar_trigger": false,
      "taf_trigger": false,
      "metar": "METAR UDYZ 221600Z 34002KT 2600 BR NSC M01/M05 Q1022 NOSIG",
      "taf": "TAF UDYZ 221100Z 2212/2312 VRB04KT 6000 NSC"
    },
    {
      "icao": "UGKO",
      "alert": "OK",
      "vis_m": 9999,
      "fzfg": false,
      "metar_trigger": false,
      "taf_trigger": false,
      "metar": "METAR UGKO 221600Z VRB02KT 9999 SCT037 OVC077 08/02 Q1018 NOSIG",
      "taf": "TAF UGKO 221100Z 2212/2312 08007KT 9999 BKN080 TX15/2312Z TN03/2303Z"
    }
  ]
}