{
  "ts_utc": "2026-02-18T07:29:33Z",
  "threshold_m": 150,
  "source": "stations_override.txt (ICAO list) + aviationweather.gov (METAR/TAF raw)",
  "station_count": 159,
  "stations": [
    {
      "icao": "BIKF",
      "alert": "OK",
      "vis_m": 9999,
      "fzfg": false,
      "metar_trigger": false,
      "taf_trigger": false,
      "metar": "METAR BIKF 180700Z 06015KT 9999 FEW033 OVC051 M02/M07 Q1006",
      "taf": "TAF BIKF 180426Z 1806/1906 06015KT 9999 FEW030 BKN050 TXM02/1815Z TNM04/1824Z"
    },
    {
      "icao": "BKPR",
      "alert": "OK",
      "vis_m": 9999,
      "fzfg": false,
      "metar_trigger": false,
      "taf_trigger": false,
      "metar": "METAR BKPR 180600Z 31013KT 9999 BKN040 03/M03 Q1009 NOSIG",
      "taf": "TAF BKPR 180530Z 1806/1906 32015KT 9999 SCT040"
    },
    {
      "icao": "EBCI",
      "alert": "OK",
      "vis_m": 9000,
      "fzfg": false,
      "metar_trigger": false,
      "taf_trigger": false,
      "metar": "METAR EBCI 180720Z 10007KT 9000 NSC 00/M02 Q1012 NOSIG",
      "taf": "TAF EBCI 180501Z 1806/1912 10008KT CAVOK"
    },
    {
      "icao": "EDDB",
      "alert": "OK",
      "vis_m": 7000,
      "fzfg": false,
      "metar_trigger": false,
      "taf_trigger": false,
      "metar": "METAR EDDB 180720Z AUTO 03005KT 7000 BKN008 OVC026 M03/M05 Q1012 TEMPO 4000 -SN",
      "taf": "TAF EDDB 180500Z 1806/1906 03005KT 9999 BKN012"
    },
    {
      "icao": "EDDH",
      "alert": "OK",
      "vis_m": 9000,
      "fzfg": false,
      "metar_trigger": false,
      "taf_trigger": false,
      "metar": "METAR EDDH 180720Z AUTO 26003KT 240V300 9000 OVC017 M03/M04 Q1015 NOSIG",
      "taf": "TAF EDDH 180500Z 1806/1912 VRB03KT 7000 BKN009"
    },
    {
      "icao": "EDDK",
      "alert": "OK",
      "vis_m": 9999,
      "fzfg": false,
      "metar_trigger": false,
      "taf_trigger": false,
      "metar": "METAR EDDK 180720Z AUTO 08001KT 9999 OVC025 02/M01 Q1014 NOSIG",
      "taf": "TAF EDDK 180500Z 1806/1912 33006KT 9999 BKN020"
    },
    {
      "icao": "EDDN",
      "alert": "OK",
      "vis_m": 9999,
      "fzfg": false,
      "metar_trigger": false,
      "taf_trigger": false,
      "metar": "METAR EDDN 180720Z AUTO 26008KT 9999 SCT020 SCT043 01/M02 Q1013 NOSIG",
      "taf": "TAF EDDN 180500Z 1806/1906 25008KT 9999 FEW020 BKN035"
    },
    {
      "icao": "EDDS",
      "alert": "OK",
      "vis_m": 9999,
      "fzfg": false,
      "metar_trigger": false,
      "taf_trigger": false,
      "metar": "METAR EDDS 180720Z AUTO VRB01KT CAVOK 00/M02 Q1013 NOSIG",
      "taf": "TAF EDDS 180500Z 1806/1906 VRB03KT 9999 SCT040"
    },
    {
      "icao": "EDFH",
      "alert": "OK",
      "vis_m": 9999,
      "fzfg": false,
      "metar_trigger": false,
      "taf_trigger": false,
      "metar": "METAR EDFH 180720Z 18003KT CAVOK M02/M03 Q1012",
      "taf": "TAF EDFH 180500Z 1806/1906 20004KT 9999 SCT007 BKN020"
    },
    {
      "icao": "EDJA",
      "alert": "OK",
      "vis_m": 9999,
      "fzfg": false,
      "metar_trigger": false,
      "taf_trigger": false,
      "metar": "METAR EDJA 180720Z 22004KT CAVOK M02/M04 Q1013",
      "taf": "TAF EDJA 180500Z 1806/1815 24006KT 9999 OVC050"
    },
    {
      "icao": "EDLW",
      "alert": "OK",
      "vis_m": 9999,
      "fzfg": false,
      "metar_trigger": false,
      "taf_trigger": false,
      "metar": "METAR EDLW 180720Z 35004KT 290V040 9999 SCT010 OVC018 01/M01 Q1013",
      "taf": "TAF EDLW 180500Z 1806/1906 32006KT 9999 BKN010"
    },
    {
      "icao": "EDNY",
      "alert": "OK",
      "vis_m": 9999,
      "fzfg": false,
      "metar_trigger": false,
      "taf_trigger": false,
      "metar": "METAR EDNY 180720Z VRB01KT 9999 BKN046 M01/M02 Q1014",
      "taf": "TAF EDNY 180500Z 1806/1815 VRB02KT 9999 OVC055"
    },
    {
      "icao": "EDSB",
      "alert": "OK",
      "vis_m": 9999,
      "fzfg": false,
      "metar_trigger": false,
      "taf_trigger": false,
      "metar": "METAR EDSB 180720Z 08002KT CAVOK M01/M02 Q1015",
      "taf": "TAF EDSB 180500Z 1806/1906 VRB03KT 9999 SCT040"
    },
    {
      "icao": "EETN",
      "alert": "OK",
      "vis_m": 9999,
      "fzfg": false,
      "metar_trigger": false,
      "taf_trigger": false,
      "metar": "METAR EETN 180720Z 12006KT CAVOK M15/M17 Q1016 NOSIG",
      "taf": "TAF EETN 180530Z 1806/1906 13010KT CAVOK"
    },
    {
      "icao": "EFTU",
      "alert": "OK",
      "vis_m": 9999,
      "fzfg": false,
      "metar_trigger": false,
      "taf_trigger": false,
      "metar": "METAR EFTU 180720Z AUTO 12006KT 9999 -SN OVC006 M11/M12 Q1014",
      "taf": "TAF EFTU 180532Z 1806/1906 09003KT 9999 BKN006"
    },
    {
      "icao": "EGBB",
      "alert": "OK",
      "vis_m": 9999,
      "fzfg": false,
      "metar_trigger": false,
      "taf_trigger": false,
      "metar": "METAR EGBB 180720Z 12010KT CAVOK 02/M01 Q1007",
      "taf": "TAF EGBB 180503Z 1806/1906 10010KT 9999 FEW030"
    },
    {
      "icao": "EGGP",
      "alert": "OK",
      "vis_m": 9999,
      "fzfg": false,
      "metar_trigger": false,
      "taf_trigger": false,
      "metar": "METAR EGGP 180720Z 13016KT CAVOK 02/M02 Q1006",
      "taf": "TAF EGGP 180504Z 1806/1906 11012KT 9999 FEW040"
    },
    {
      "icao": "EGGW",
      "alert": "OK",
      "vis_m": 9999,
      "fzfg": false,
      "metar_trigger": false,
      "taf_trigger": false,
      "metar": "METAR EGGW 180720Z AUTO 12010KT 9999 NCD 02/M01 Q1007",
      "taf": ""
    },
    {
      "icao": "EGKK",
      "alert": "OK",
      "vis_m": 9999,
      "fzfg": false,
      "metar_trigger": false,
      "taf_trigger": false,
      "metar": "METAR EGKK 180720Z 12010KT 9999 BKN022 05/00 Q1007",
      "taf": "TAF EGKK 180503Z 1806/1912 09008KT 9999 FEW035"
    },
    {
      "icao": "EGNM",
      "alert": "OK",
      "vis_m": 9999,
      "fzfg": false,
      "metar_trigger": false,
      "taf_trigger": false,
      "metar": "METAR EGNM 180720Z 11014KT 9999 SCT008 SCT017 00/M01 Q1008",
      "taf": ""
    },
    {
      "icao": "EGPD",
      "alert": "OK",
      "vis_m": 9999,
      "fzfg": false,
      "metar_trigger": false,
      "taf_trigger": false,
      "metar": "METAR EGPD 180720Z COR AUTO 16009KT 9999 OVC034 02/M03 Q1010 NOSIG",
      "taf": "TAF EGPD 180459Z 1806/1906 29005KT 9999 FEW040"
    },
    {
      "icao": "EGPF",
      "alert": "OK",
      "vis_m": 9999,
      "fzfg": false,
      "metar_trigger": false,
      "taf_trigger": false,
      "metar": "METAR EGPF 180720Z AUTO 07010KT 9999 NCD 01/M04 Q1007",
      "taf": "TAF EGPF 180458Z 1806/1906 10006KT CAVOK"
    },
    {
      "icao": "EHBK",
      "alert": "OK",
      "vis_m": 7000,
      "fzfg": false,
      "metar_trigger": false,
      "taf_trigger": false,
      "metar": "METAR EHBK 180725Z AUTO 11004KT 7000 NSC M01/M01 Q1013 BECMG 9999",
      "taf": "TAF EHBK 180502Z 1806/1912 24005KT 2000 MIFG BR SCT020"
    },
    {
      "icao": "EHEH",
      "alert": "OK",
      "vis_m": 9999,
      "fzfg": false,
      "metar_trigger": false,
      "taf_trigger": false,
      "metar": "METAR EHEH 180655Z AUTO 07005KT 9999 SCT024 OVC140 01/M03 Q1014 BLU NOSIG RMK TREND REMOTE BY EHWX",
      "taf": "TAF EHEH 180514Z 1806/1912 06004KT 9999 BKN025"
    },
    {
      "icao": "EKBI",
      "alert": "OK",
      "vis_m": 9999,
      "fzfg": false,
      "metar_trigger": false,
      "taf_trigger": false,
      "metar": "METAR EKBI 180720Z AUTO 16001KT 9999 SCT024/// OVC045/// M08/M09 Q1014",
      "taf": "TAF EKBI 180527Z 1806/1906 01005KT 9999 BKN030"
    },
    {
      "icao": "EKCH",
      "alert": "OK",
      "vis_m": 9999,
      "fzfg": false,
      "metar_trigger": false,
      "taf_trigger": false,
      "metar": "METAR EKCH 180720Z 27005KT CAVOK M08/M11 Q1013 NOSIG",
      "taf": "TAF EKCH 180527Z 1806/1906 33007KT 9999 BKN030"
    },
    {
      "icao": "ENAL",
      "alert": "OK",
      "vis_m": 9999,
      "fzfg": false,
      "metar_trigger": false,
      "taf_trigger": false,
      "metar": "METAR ENAL 180720Z 20011KT 9999 VCSH SCT016TCU SCT026 M00/M03 Q1007",
      "taf": "TAF ENAL 180500Z 1806/1815 21010KT 9999 -SHSN FEW015 SCT035"
    },
    {
      "icao": "ENBR",
      "alert": "OK",
      "vis_m": 1600,
      "fzfg": false,
      "metar_trigger": false,
      "taf_trigger": false,
      "metar": "METAR ENBR 180720Z 19007KT 1600 -SN OVC003 00/M00 Q1009 TEMPO 1000 SHSN RMK WIND 1200FT 22011KT",
      "taf": "TAF ENBR 180500Z 1806/1906 15008KT 9999 -SHSN FEW010 BKN020"
    },
    {
      "icao": "ENGM",
      "alert": "OK",
      "vis_m": 9999,
      "fzfg": false,
      "metar_trigger": false,
      "taf_trigger": false,
      "metar": "METAR ENGM 180720Z VRB01KT 9999 FEW008 SCT018 M13/M14 Q1010 NOSIG",
      "taf": "TAF ENGM 180500Z 1806/1906 VRB03KT 9999 FEW010"
    },
    {
      "icao": "ENHD",
      "alert": "OK",
      "vis_m": 9999,
      "fzfg": false,
      "metar_trigger": false,
      "taf_trigger": false,
      "metar": "METAR ENHD 180720Z 24008KT 9999 FEW006 SCT010 BKN030 01/01 Q1010",
      "taf": "TAF ENHD 180500Z 1806/1815 16008KT 9999 -SHSN FEW012 BKN020"
    },
    {
      "icao": "ENTC",
      "alert": "OK",
      "vis_m": 9999,
      "fzfg": false,
      "metar_trigger": false,
      "taf_trigger": false,
      "metar": "METAR ENTC 180720Z 23008KT 9999 -SHSN FEW018 BKN031 M05/M08 Q1004 NOSIG RMK WIND 2600FT 11009KT",
      "taf": "TAF ENTC 180500Z 1806/1906 21008KT 9999 FEW020 BKN035"
    },
    {
      "icao": "ENTO",
      "alert": "OK",
      "vis_m": 9999,
      "fzfg": false,
      "metar_trigger": false,
      "taf_trigger": false,
      "metar": "METAR ENTO 180720Z 33003KT 300V360 CAVOK M12/M13 Q1011 NOSIG",
      "taf": "TAF ENTO 180500Z 1806/1906 34005KT CAVOK"
    },
    {
      "icao": "ENVA",
      "alert": "OK",
      "vis_m": 9999,
      "fzfg": false,
      "metar_trigger": false,
      "taf_trigger": false,
      "metar": "METAR ENVA 180720Z 08006KT 060V120 CAVOK M09/M09 Q1008 NOSIG RMK WIND 670FT 18014KT",
      "taf": "TAF ENVA 180500Z 1806/1906 10007KT 9999 FEW030 BKN050"
    },
    {
      "icao": "ENZV",
      "alert": "OK",
      "vis_m": 9999,
      "fzfg": false,
      "metar_trigger": false,
      "taf_trigger": false,
      "metar": "METAR ENZV 180720Z 16008KT 9999 VCSH FEW033CB M03/M05 Q1011 TEMPO 1200 SHSN VV008 BECMG 29010KT",
      "taf": "TAF ENZV 180500Z 1806/1906 15008KT 9999 -SHSN FEW012 BKN025"
    },
    {
      "icao": "EPGD",
      "alert": "OK",
      "vis_m": 9999,
      "fzfg": false,
      "metar_trigger": false,
      "taf_trigger": false,
      "metar": "METAR EPGD 180700Z 24005KT 9999 SCT012 M09/M10 Q1008",
      "taf": "TAF EPGD 180530Z 1806/1906 28010KT 9999 BKN020"
    },
    {
      "icao": "EPKK",
      "alert": "OK",
      "vis_m": 3500,
      "fzfg": false,
      "metar_trigger": false,
      "taf_trigger": false,
      "metar": "METAR EPKK 180700Z 24002KT 3500 BR OVC010 01/M00 Q1009",
      "taf": "TAF EPKK 180530Z 1806/1906 VRB02KT 3000 BR BKN020"
    },
    {
      "icao": "EPKT",
      "alert": "OK",
      "vis_m": 5000,
      "fzfg": false,
      "metar_trigger": false,
      "taf_trigger": false,
      "metar": "METAR EPKT 180700Z 24009KT 5000 BR SCT004 BKN007 00/M00 Q1008",
      "taf": "TAF EPKT 180530Z 1806/1906 22007KT 3000 SN BR BKN015"
    },
    {
      "icao": "EPLB",
      "alert": "OK",
      "vis_m": 9999,
      "fzfg": false,
      "metar_trigger": false,
      "taf_trigger": false,
      "metar": "METAR EPLB 180700Z 12005KT 9999 OVC008 M05/M06 Q1010",
      "taf": "TAF EPLB 180530Z 1806/1906 VRB03KT 9999 BKN011 OVC015"
    },
    {
      "icao": "EPMO",
      "alert": "OK",
      "vis_m": 2500,
      "fzfg": false,
      "metar_trigger": false,
      "taf_trigger": false,
      "metar": "METAR EPMO 180700Z 27002KT 2500 BR OVC011 M04/M04 Q1009 REFZDZ",
      "taf": ""
    },
    {
      "icao": "EPPO",
      "alert": "OK",
      "vis_m": 8000,
      "fzfg": false,
      "metar_trigger": false,
      "taf_trigger": false,
      "metar": "METAR EPPO 180700Z 36008KT 8000 FEW014 M05/M08 Q1010",
      "taf": "TAF EPPO 180530Z 1806/1906 33007KT 4000 BR BKN030"
    },
    {
      "icao": "EPRA",
      "alert": "OK",
      "vis_m": 5000,
      "fzfg": false,
      "metar_trigger": false,
      "taf_trigger": false,
      "metar": "METAR EPRA 180700Z 16007KT 5000 BR FEW004 BKN026 M02/M04 Q1009",
      "taf": "TAF EPRA 180530Z 1806/1815 15005KT 6000 BKN020"
    },
    {
      "icao": "EPRZ",
      "alert": "OK",
      "vis_m": 3500,
      "fzfg": false,
      "metar_trigger": false,
      "taf_trigger": false,
      "metar": "METAR EPRZ 180700Z VRB01KT 3500 BR OVC004 M03/M04 Q1010",
      "taf": "TAF EPRZ 180530Z 1806/1906 09004KT 3000 -SN BR BKN004"
    },
    {
      "icao": "EPSC",
      "alert": "OK",
      "vis_m": 6000,
      "fzfg": false,
      "metar_trigger": false,
      "taf_trigger": false,
      "metar": "METAR EPSC 180700Z VRB01KT 6000 FEW009 SCT011 BKN030 M06/M07 Q1011",
      "taf": "TAF EPSC 180530Z 1806/1906 VRB03KT 7000 SCT030"
    },
    {
      "icao": "EPSY",
      "alert": "OK",
      "vis_m": 1500,
      "fzfg": false,
      "metar_trigger": false,
      "taf_trigger": false,
      "metar": "METAR EPSY 180700Z 19003KT 1500 BR OVC001 M05/M06 Q1009",
      "taf": "TAF EPSY 180530Z 1806/1815 17003KT 1800 BR OVC003"
    },
    {
      "icao": "EPWA",
      "alert": "OK",
      "vis_m": 3700,
      "fzfg": false,
      "metar_trigger": false,
      "taf_trigger": false,
      "metar": "METAR EPWA 180700Z 14005KT 3700 -SN BR BKN014 M03/M04 Q1009 NOSIG",
      "taf": "TAF EPWA 180530Z 1806/1906 VRB02KT 5000 BR BKN030"
    },
    {
      "icao": "EPWR",
      "alert": "OK",
      "vis_m": 6000,
      "fzfg": false,
      "metar_trigger": false,
      "taf_trigger": false,
      "metar": "METAR EPWR 180700Z 30006KT 6000 -SN FEW003 BKN005 OVC020 00/M00 Q1010",
      "taf": "TAF EPWR 180530Z 1806/1906 30010KT 8000 SCT008 BKN012"
    },
    {
      "icao": "ESGG",
      "alert": "OK",
      "vis_m": 9999,
      "fzfg": false,
      "metar_trigger": false,
      "taf_trigger": false,
      "metar": "METAR ESGG 180720Z VRB01KT CAVOK M13/M15 Q1011",
      "taf": "TAF ESGG 180530Z 1806/1906 VRB03KT CAVOK"
    },
    {
      "icao": "ESKN",
      "alert": "OK",
      "vis_m": 9999,
      "fzfg": false,
      "metar_trigger": false,
      "taf_trigger": false,
      "metar": "METAR ESKN 180720Z 34003KT 310V020 9999 SCT035 M10/M11 Q1011",
      "taf": "TAF ESKN 180530Z 1806/1906 03005KT 9999 BKN030"
    },
    {
      "icao": "ESMS",
      "alert": "OK",
      "vis_m": 9999,
      "fzfg": false,
      "metar_trigger": false,
      "taf_trigger": false,
      "metar": "METAR ESMS 180720Z 00000KT CAVOK M09/M11 Q1011",
      "taf": "TAF ESMS 180527Z 1806/1906 34005KT 9999 SCT020"
    },
    {
      "icao": "ESSA",
      "alert": "OK",
      "vis_m": 9999,
      "fzfg": false,
      "metar_trigger": false,
      "taf_trigger": false,
      "metar": "METAR ESSA 180720Z 08006KT 040V110 9999 BKN023 M11/M13 Q1011 NOSIG",
      "taf": "TAF ESSA 180530Z 1806/1906 07005KT 9999 SCT025"
    },
    {
      "icao": "EYKA",
      "alert": "OK",
      "vis_m": 6000,
      "fzfg": false,
      "metar_trigger": false,
      "taf_trigger": false,
      "metar": "METAR EYKA 180720Z 13006KT 6000 -SN OVC018 M09/M12 Q1011",
      "taf": "TAF EYKA 180500Z 1806/1906 14010KT 3000 SN BR BKN020"
    },
    {
      "icao": "EYPA",
      "alert": "OK",
      "vis_m": 3100,
      "fzfg": false,
      "metar_trigger": false,
      "taf_trigger": false,
      "metar": "METAR EYPA 180720Z 12006KT 3100 SN FEW033 SCT040 OVC047 M08/M10 Q1009",
      "taf": "TAF EYPA 180500Z 1806/1906 VRB05KT 5000 SN BR SCT015 BKN030"
    },
    {
      "icao": "EYVI",
      "alert": "OK",
      "vis_m": 9999,
      "fzfg": false,
      "metar_trigger": false,
      "taf_trigger": false,
      "metar": "METAR EYVI 180720Z 14011KT CAVOK M10/M16 Q1012 NOSIG",
      "taf": "TAF EYVI 180500Z 1806/1906 14012KT 9000 OVC025"
    },
    {
      "icao": "GCFV",
      "alert": "OK",
      "vis_m": 9999,
      "fzfg": false,
      "metar_trigger": false,
      "taf_trigger": false,
      "metar": "METAR GCFV 180700Z 01010KT 340V050 9999 BKN017 16/12 Q1022",
      "taf": "TAF GCFV 180200Z 1803/1903 32006KT 9999 FEW020 TX20/1814Z TN14/1806Z"
    },
    {
      "icao": "GCLP",
      "alert": "OK",
      "vis_m": 9999,
      "fzfg": false,
      "metar_trigger": false,
      "taf_trigger": false,
      "metar": "METAR GCLP 180700Z 02015KT 9999 FEW025 16/13 Q1022 NOSIG",
      "taf": "TAF GCLP 180200Z 1803/1903 01016KT 9999 SCT020 TX20/1814Z TN14/1806Z"
    },
    {
      "icao": "GCTS",
      "alert": "OK",
      "vis_m": 9999,
      "fzfg": false,
      "metar_trigger": false,
      "taf_trigger": false,
      "metar": "METAR GCTS 180700Z 06010KT CAVOK 15/11 Q1022 NOSIG",
      "taf": "TAF GCTS 180200Z 1803/1903 04007KT CAVOK TX23/1814Z TN14/1806Z"
    },
    {
      "icao": "GMAD",
      "alert": "OK",
      "vis_m": 9999,
      "fzfg": false,
      "metar_trigger": false,
      "taf_trigger": false,
      "metar": "METAR GMAD 180700Z 00000KT CAVOK 06/05 Q1021 NOSIG",
      "taf": "TAF GMAD 180500Z 1806/1912 09007KT CAVOK"
    },
    {
      "icao": "GMMN",
      "alert": "OK",
      "vis_m": 1500,
      "fzfg": false,
      "metar_trigger": false,
      "taf_trigger": false,
      "metar": "METAR GMMN 180700Z 08003KT 050V110 1500 R35L/1200V1400U BR BKN002 11/10 Q1023 NOSIG",
      "taf": "TAF GMMN 180500Z 1806/1912 10005KT 0500 FG BKN001"
    },
    {
      "icao": "GMMX",
      "alert": "OK",
      "vis_m": 9999,
      "fzfg": false,
      "metar_trigger": false,
      "taf_trigger": false,
      "metar": "METAR GMMX 180700Z 07003KT CAVOK 08/06 Q1022 NOSIG",
      "taf": "TAF GMMX 180500Z 1806/1912 06006KT CAVOK"
    },
    {
      "icao": "HEGN",
      "alert": "OK",
      "vis_m": 9999,
      "fzfg": false,
      "metar_trigger": false,
      "taf_trigger": false,
      "metar": "METAR HEGN 180700Z 32016KT CAVOK 21/M03 Q1015 NOSIG",
      "taf": "TAF HEGN 180500Z 1806/1912 32012G22KT CAVOK"
    },
    {
      "icao": "HEMA",
      "alert": "OK",
      "vis_m": 9999,
      "fzfg": false,
      "metar_trigger": false,
      "taf_trigger": false,
      "metar": "METAR HEMA 180700Z 33013KT CAVOK 22/03 Q1015 NOSIG",
      "taf": "TAF HEMA 180500Z 1806/1912 35012G22KT CAVOK"
    },
    {
      "icao": "HESH",
      "alert": "OK",
      "vis_m": 9999,
      "fzfg": false,
      "metar_trigger": false,
      "taf_trigger": false,
      "metar": "METAR HESH 180700Z 34002KT CAVOK 24/10 Q1014 NOSIG",
      "taf": "TAF HESH 180500Z 1806/1912 35015KT CAVOK"
    },
    {
      "icao": "HESX",
      "alert": "OK",
      "vis_m": 9999,
      "fzfg": false,
      "metar_trigger": false,
      "taf_trigger": false,
      "metar": "METAR HESX 180700Z 23012KT CAVOK 16/M00 Q1015 NOSIG",
      "taf": "TAF HESX 180500Z 1806/1912 23010G20KT 9999 FEW030"
    },
    {
      "icao": "LATI",
      "alert": "OK",
      "vis_m": 9999,
      "fzfg": false,
      "metar_trigger": false,
      "taf_trigger": false,
      "metar": "METAR LATI 180720Z VRB03KT CAVOK 08/M02 Q1012 NOSIG",
      "taf": "TAF LATI 180500Z 1806/1906 VRB05KT CAVOK TX14/1812Z TN02/1905Z"
    },
    {
      "icao": "LBPD",
      "alert": "OK",
      "vis_m": 9999,
      "fzfg": false,
      "metar_trigger": false,
      "taf_trigger": false,
      "metar": "METAR LBPD 180700Z AUTO 28030G40KT 9999 BKN068/// BKN120/// 05/M01 Q1001 NOSIG",
      "taf": "TAF LBPD 180500Z 1806/1906 28026G38KT 9999 SCT030 OVC060"
    },
    {
      "icao": "LBSF",
      "alert": "OK",
      "vis_m": 9999,
      "fzfg": false,
      "metar_trigger": false,
      "taf_trigger": false,
      "metar": "METAR LBSF 180700Z 29018KT 9999 BKN044 01/M03 Q1006 NOSIG",
      "taf": "TAF LBSF 180500Z 1806/1906 28020G30KT 9999 BKN012 OVC030"
    },
    {
      "icao": "LBWN",
      "alert": "OK",
      "vis_m": 5000,
      "fzfg": false,
      "metar_trigger": false,
      "taf_trigger": false,
      "metar": "METAR LBWN 180700Z 34026G38KT 5000 -SN DRSN OVC033 M01/M03 Q0997 NOSIG",
      "taf": "TAF LBWN 180500Z 1806/1906 34030G46KT 2000 SNRA SCT005 BKN015 OVC030"
    },
    {
      "icao": "LCLK",
      "alert": "OK",
      "vis_m": 3000,
      "fzfg": false,
      "metar_trigger": false,
      "taf_trigger": false,
      "metar": "METAR LCLK 180700Z 25014KT 3000 DU FEW001 FEW020TCU BKN045 15/13 Q1006 RERA BECMG 5000 -TSRA",
      "taf": "TAF LCLK 180530Z 1806/1906 21022KT 8000 FEW025 FEW030TCU SCT035"
    },
    {
      "icao": "LCPH",
      "alert": "OK",
      "vis_m": 9999,
      "fzfg": false,
      "metar_trigger": false,
      "taf_trigger": false,
      "metar": "METAR LCPH 180700Z 25015KT 9999 FEW025TCU SCT030 BKN040 16/11 Q1006 TEMPO 4000 SHRA",
      "taf": "TAF LCPH 180530Z 1806/1906 26026KT 8000 SCT020 FEW025TCU BKN035"
    },
    {
      "icao": "LEAL",
      "alert": "OK",
      "vis_m": 9999,
      "fzfg": false,
      "metar_trigger": false,
      "taf_trigger": false,
      "metar": "METAR LEAL 180700Z 24003KT CAVOK 13/08 Q1018 NOSIG",
      "taf": "TAF LEAL 180500Z 1806/1906 30009KT CAVOK TX21/1813Z TN12/1806Z"
    },
    {
      "icao": "LEBB",
      "alert": "OK",
      "vis_m": 9999,
      "fzfg": false,
      "metar_trigger": false,
      "taf_trigger": false,
      "metar": "METAR LEBB 180700Z VRB03KT CAVOK 13/06 Q1012 NOSIG",
      "taf": "TAF LEBB 180500Z 1806/1906 20009KT 9999 SCT040 TX16/1814Z TN06/1906Z"
    },
    {
      "icao": "LEBL",
      "alert": "OK",
      "vis_m": 7000,
      "fzfg": false,
      "metar_trigger": false,
      "taf_trigger": false,
      "metar": "METAR LEBL 180700Z 33008KT 7000 FEW010 09/08 Q1016 NOSIG",
      "taf": "TAF LEBL 180500Z 1806/1906 34006KT 9999 FEW015 TX17/1813Z TN08/1806Z"
    },
    {
      "icao": "LECH",
      "alert": "OK",
      "vis_m": 9999,
      "fzfg": false,
      "metar_trigger": false,
      "taf_trigger": false,
      "metar": "METAR LECH 180700Z AUTO 19003KT 150V280 CAVOK 07/04 Q1017",
      "taf": ""
    },
    {
      "icao": "LEMD",
      "alert": "OK",
      "vis_m": 9999,
      "fzfg": false,
      "metar_trigger": false,
      "taf_trigger": false,
      "metar": "METAR LEMD 180700Z 19006KT 9999 OVC016 09/08 Q1018 NOSIG",
      "taf": "TAF LEMD 180500Z 1806/1912 22012KT 9999 SCT025 TX12/1815Z TN03/1906Z"
    },
    {
      "icao": "LEMG",
      "alert": "OK",
      "vis_m": 9999,
      "fzfg": false,
      "metar_trigger": false,
      "taf_trigger": false,
      "metar": "METAR LEMG 180700Z 31007KT CAVOK 08/06 Q1020 NOSIG",
      "taf": "TAF LEMG 180500Z 1806/1906 26010KT CAVOK TX23/1814Z TN11/1807Z"
    },
    {
      "icao": "LEVC",
      "alert": "OK",
      "vis_m": 9999,
      "fzfg": false,
      "metar_trigger": false,
      "taf_trigger": false,
      "metar": "METAR LEVC 180700Z 27006KT 9999 FEW040 10/07 Q1017 NOSIG",
      "taf": "TAF LEVC 180500Z 1806/1906 26007KT CAVOK TX23/1814Z TN11/1806Z"
    },
    {
      "icao": "LEXJ",
      "alert": "OK",
      "vis_m": 9999,
      "fzfg": false,
      "metar_trigger": false,
      "taf_trigger": false,
      "metar": "METAR LEXJ 180700Z 19012KT 140V240 CAVOK 13/05 Q1011",
      "taf": "TAF LEXJ 180200Z 1803/1903 22009KT 9999 BKN030 TX17/1813Z TN10/1804Z"
    },
    {
      "icao": "LEZG",
      "alert": "OK",
      "vis_m": 9999,
      "fzfg": false,
      "metar_trigger": false,
      "taf_trigger": false,
      "metar": "METAR LEZG 180700Z 11005KT 080V160 9999 4000W BCFG NSC 07/07 Q1016 NOSIG",
      "taf": ""
    },
    {
      "icao": "LEZL",
      "alert": "OK",
      "vis_m": 400,
      "fzfg": false,
      "metar_trigger": false,
      "taf_trigger": false,
      "metar": "METAR LEZL 180700Z 20004KT 170V230 0400 R27/1300D R09/0900N FG VV002 11/11 Q1022 NOSIG",
      "taf": ""
    },
    {
      "icao": "LFBD",
      "alert": "OK",
      "vis_m": 9999,
      "fzfg": false,
      "metar_trigger": false,
      "taf_trigger": false,
      "metar": "METAR LFBD 180700Z AUTO 22006KT 9999 BKN038 BKN052 10/08 Q1012 NOSIG",
      "taf": "TAF LFBD 180500Z 1806/1912 22008KT 9999 BKN040 TX16/1815Z TN09/1903Z"
    },
    {
      "icao": "LFLL",
      "alert": "OK",
      "vis_m": 9999,
      "fzfg": false,
      "metar_trigger": false,
      "taf_trigger": false,
      "metar": "METAR LFLL 180700Z 15008KT CAVOK 06/04 Q1013 NOSIG",
      "taf": "TAF LFLL 180500Z 1806/1912 17008KT 9999 OVC045"
    },
    {
      "icao": "LFLS",
      "alert": "OK",
      "vis_m": 9999,
      "fzfg": false,
      "metar_trigger": false,
      "taf_trigger": false,
      "metar": "METAR LFLS 180700Z AUTO 07009KT 9999 FEW042 BKN088 OVC100 04/03 Q1014 NOSIG",
      "taf": "TAF LFLS 180200Z 1803/1903 09005KT CAVOK"
    },
    {
      "icao": "LFMN",
      "alert": "OK",
      "vis_m": 9999,
      "fzfg": false,
      "metar_trigger": false,
      "taf_trigger": false,
      "metar": "METAR LFMN 180700Z 33007KT CAVOK 08/M04 Q1012 NOSIG",
      "taf": "TAF LFMN 180200Z 1803/1909 33012KT CAVOK"
    },
    {
      "icao": "LFOB",
      "alert": "OK",
      "vis_m": 5000,
      "fzfg": false,
      "metar_trigger": false,
      "taf_trigger": false,
      "metar": "METAR LFOB 180700Z AUTO 10014KT 5000 -SN BR BKN004 OVC008 01/01 Q1008 TEMPO 1000 SN",
      "taf": "TAF LFOB 180500Z 1806/1906 10012KT 7000 OVC007"
    },
    {
      "icao": "LFPO",
      "alert": "OK",
      "vis_m": 3500,
      "fzfg": false,
      "metar_trigger": false,
      "taf_trigger": false,
      "metar": "METAR LFPO 180700Z 09013KT 3500 -RA OVC006 03/03 Q1007 NOSIG",
      "taf": ""
    },
    {
      "icao": "LFSB",
      "alert": "OK",
      "vis_m": 9999,
      "fzfg": false,
      "metar_trigger": false,
      "taf_trigger": false,
      "metar": "METAR LFSB 180700Z AUTO 19004KT CAVOK 01/M01 Q1014 TEMPO 4000 -RA BKN009",
      "taf": "TAF LFSB 180500Z 1806/1906 17004KT 9999 FEW010 BKN070"
    },
    {
      "icao": "LGAV",
      "alert": "OK",
      "vis_m": 9999,
      "fzfg": false,
      "metar_trigger": false,
      "taf_trigger": false,
      "metar": "METAR LGAV 180720Z 29008KT 250V330 9999 FEW025 12/M03 Q1005 WS R03L NOSIG",
      "taf": "TAF LGAV 180500Z 1806/1906 30015KT 9999 SCT020 SCT070"
    },
    {
      "icao": "LGTS",
      "alert": "OK",
      "vis_m": 9999,
      "fzfg": false,
      "metar_trigger": false,
      "taf_trigger": false,
      "metar": "METAR LGTS 180720Z 32030G40KT 9999 FEW020 09/01 Q1006 NOSIG",
      "taf": "TAF LGTS 180500Z 1806/1906 33025G35KT 9999 FEW030"
    },
    {
      "icao": "LHBP",
      "alert": "OK",
      "vis_m": 9999,
      "fzfg": false,
      "metar_trigger": false,
      "taf_trigger": false,
      "metar": "METAR LHBP 180700Z 30011KT 9999 SCT013 BKN070 03/01 Q1012 NOSIG",
      "taf": "TAF LHBP 180515Z 1806/1906 32009KT CAVOK"
    },
    {
      "icao": "LHDC",
      "alert": "OK",
      "vis_m": 8000,
      "fzfg": false,
      "metar_trigger": false,
      "taf_trigger": false,
      "metar": "METAR LHDC 180645Z AUTO 00000KT 8000 NSC M00/M02 Q1010 NOSIG",
      "taf": "TAF LHDC 180515Z 1806/1815 32005KT CAVOK"
    },
    {
      "icao": "LIBD",
      "alert": "OK",
      "vis_m": 9999,
      "fzfg": false,
      "metar_trigger": false,
      "taf_trigger": false,
      "metar": "METAR LIBD 180720Z 26008KT CAVOK 10/05 Q1014",
      "taf": "TAF LIBD 180500Z 1806/1906 29010KT CAVOK"
    },
    {
      "icao": "LIBG",
      "alert": "OK",
      "vis_m": null,
      "fzfg": false,
      "metar_trigger": false,
      "taf_trigger": false,
      "metar": "",
      "taf": ""
    },
    {
      "icao": "LIBP",
      "alert": "OK",
      "vis_m": 9999,
      "fzfg": false,
      "metar_trigger": false,
      "taf_trigger": false,
      "metar": "METAR LIBP 180720Z AUTO 25007KT 9999 NCD 07/00 Q1014",
      "taf": "TAF LIBP 180500Z 1806/1906 24006KT CAVOK"
    },
    {
      "icao": "LIBR",
      "alert": "OK",
      "vis_m": 9999,
      "fzfg": false,
      "metar_trigger": false,
      "taf_trigger": false,
      "metar": "METAR LIBR 180720Z 35010KT CAVOK 12/02 Q1014",
      "taf": "TAF LIBR 180500Z 1806/1906 32016KT CAVOK"
    },
    {
      "icao": "LICA",
      "alert": "OK",
      "vis_m": 9999,
      "fzfg": false,
      "metar_trigger": false,
      "taf_trigger": false,
      "metar": "METAR LICA 180720Z AUTO 09005KT 9999 NCD 08/05 Q1016",
      "taf": "TAF LICA 180500Z 1806/1906 VRB05KT 9999 FEW025"
    },
    {
      "icao": "LICC",
      "alert": "OK",
      "vis_m": 9999,
      "fzfg": false,
      "metar_trigger": false,
      "taf_trigger": false,
      "metar": "METAR LICC 180720Z 21012KT CAVOK 10/06 Q1018",
      "taf": "TAF LICC 180500Z 1806/1906 26013KT CAVOK"
    },
    {
      "icao": "LICJ",
      "alert": "OK",
      "vis_m": 9999,
      "fzfg": false,
      "metar_trigger": false,
      "taf_trigger": false,
      "metar": "METAR LICJ 180720Z 22008KT 190V260 9999 FEW030 13/07 Q1018",
      "taf": "TAF LICJ 180500Z 1806/1906 32012KT 9999 SCT035"
    },
    {
      "icao": "LIMC",
      "alert": "OK",
      "vis_m": 9999,
      "fzfg": false,
      "metar_trigger": false,
      "taf_trigger": false,
      "metar": "METAR LIMC 180720Z VRB02KT CAVOK 02/M03 Q1013 NOSIG",
      "taf": "TAF LIMC 180500Z 1806/1912 VRB06KT CAVOK"
    },
    {
      "icao": "LIME",
      "alert": "OK",
      "vis_m": 9999,
      "fzfg": false,
      "metar_trigger": false,
      "taf_trigger": false,
      "metar": "METAR LIME 180720Z 02004KT CAVOK 04/M05 Q1013 NOSIG",
      "taf": "TAF LIME 180500Z 1806/1906 VRB05KT CAVOK"
    },
    {
      "icao": "LIMF",
      "alert": "OK",
      "vis_m": 9999,
      "fzfg": false,
      "metar_trigger": false,
      "taf_trigger": false,
      "metar": "METAR LIMF 180720Z 09004KT 010V150 CAVOK 04/M06 Q1012",
      "taf": "TAF LIMF 180500Z 1806/1906 VRB04KT CAVOK"
    },
    {
      "icao": "LIMJ",
      "alert": "OK",
      "vis_m": 9999,
      "fzfg": false,
      "metar_trigger": false,
      "taf_trigger": false,
      "metar": "METAR LIMJ 180720Z VRB01KT CAVOK 08/M01 Q1012",
      "taf": "TAF LIMJ 180500Z 1806/1906 02008KT CAVOK"
    },
    {
      "icao": "LIPE",
      "alert": "OK",
      "vis_m": 9999,
      "fzfg": false,
      "metar_trigger": false,
      "taf_trigger": false,
      "metar": "METAR LIPE 180720Z VRB01KT CAVOK 05/M04 Q1013",
      "taf": "TAF LIPE 180500Z 1806/1906 VRB05KT CAVOK"
    },
    {
      "icao": "LIPH",
      "alert": "OK",
      "vis_m": 9999,
      "fzfg": false,
      "metar_trigger": false,
      "taf_trigger": false,
      "metar": "METAR LIPH 180720Z VRB01KT CAVOK 03/M01 Q1013",
      "taf": "TAF LIPH 180500Z 1806/1906 VRB05KT CAVOK"
    },
    {
      "icao": "LIPQ",
      "alert": "OK",
      "vis_m": 9999,
      "fzfg": false,
      "metar_trigger": false,
      "taf_trigger": false,
      "metar": "METAR LIPQ 180720Z AUTO VRB02KT 9999 NCD 04/M02 Q1013",
      "taf": "TAF LIPQ 180500Z 1806/1906 VRB05KT CAVOK"
    },
    {
      "icao": "LIPR",
      "alert": "OK",
      "vis_m": 9999,
      "fzfg": false,
      "metar_trigger": false,
      "taf_trigger": false,
      "metar": "METAR LIPR 180720Z 20004KT CAVOK 04/M02 Q1013",
      "taf": "TAF LIPR 180500Z 1806/1906 VRB05KT CAVOK"
    },
    {
      "icao": "LIPX",
      "alert": "OK",
      "vis_m": 9999,
      "fzfg": false,
      "metar_trigger": false,
      "taf_trigger": false,
      "metar": "METAR LIPX 180720Z 01005KT CAVOK 02/M03 Q1013",
      "taf": "TAF LIPX 180500Z 1806/1906 04010KT CAVOK"
    },
    {
      "icao": "LIPY",
      "alert": "OK",
      "vis_m": 9999,
      "fzfg": false,
      "metar_trigger": false,
      "taf_trigger": false,
      "metar": "METAR LIPY 180720Z AUTO 18004KT 9999 FEW240/// 08/02 Q1013",
      "taf": "TAF LIPY 180500Z 1806/1906 VRB05KT CAVOK"
    },
    {
      "icao": "LIPZ",
      "alert": "OK",
      "vis_m": 9999,
      "fzfg": false,
      "metar_trigger": false,
      "taf_trigger": false,
      "metar": "METAR LIPZ 180720Z 02005KT CAVOK 04/M00 Q1013 NOSIG",
      "taf": "TAF LIPZ 180500Z 1806/1912 04006KT CAVOK"
    },
    {
      "icao": "LIRF",
      "alert": "OK",
      "vis_m": 9999,
      "fzfg": false,
      "metar_trigger": false,
      "taf_trigger": false,
      "metar": "METAR LIRF 180720Z 07005KT CAVOK 06/04 Q1015 NOSIG",
      "taf": "TAF LIRF 180500Z 1806/1912 08007KT 9999 SCT025"
    },
    {
      "icao": "LIRN",
      "alert": "OK",
      "vis_m": 9999,
      "fzfg": false,
      "metar_trigger": false,
      "taf_trigger": false,
      "metar": "METAR LIRN 180720Z VRB02KT CAVOK 06/02 Q1015 NOSIG",
      "taf": "TAF LIRN 180500Z 1806/1906 VRB04KT 9999 FEW030"
    },
    {
      "icao": "LIRP",
      "alert": "OK",
      "vis_m": 9999,
      "fzfg": false,
      "metar_trigger": false,
      "taf_trigger": false,
      "metar": "METAR LIRP 180715Z VRB02KT 9999 SCT030 SCT060 06/06 Q1014 NOSIG",
      "taf": "TAF LIRP 180500Z 1806/1906 12005KT CAVOK"
    },
    {
      "icao": "LIRZ",
      "alert": "OK",
      "vis_m": 9999,
      "fzfg": false,
      "metar_trigger": false,
      "taf_trigger": false,
      "metar": "METAR LIRZ 180720Z AUTO VRB02KT 9999 NCD 03/01 Q1015",
      "taf": "TAF LIRZ 180500Z 1806/1906 VRB05KT 9999 SCT035"
    },
    {
      "icao": "LJLJ",
      "alert": "OK",
      "vis_m": 9999,
      "fzfg": false,
      "metar_trigger": false,
      "taf_trigger": false,
      "metar": "METAR LJLJ 180700Z VRB01KT CAVOK M03/M04 Q1014 NOSIG",
      "taf": "TAF LJLJ 180500Z 1806/1906 VRB02KT CAVOK"
    },
    {
      "icao": "LKMT",
      "alert": "OK",
      "vis_m": 9999,
      "fzfg": false,
      "metar_trigger": false,
      "taf_trigger": false,
      "metar": "METAR LKMT 180700Z 20009KT 9999 BKN047 01/M01 Q1010 NOSIG",
      "taf": "TAF LKMT 180500Z 1806/1906 22012KT 9999 SCT016 BKN030"
    },
    {
      "icao": "LKPR",
      "alert": "OK",
      "vis_m": 9000,
      "fzfg": false,
      "metar_trigger": false,
      "taf_trigger": false,
      "metar": "METAR LKPR 180700Z 25012KT 9000 -SN FEW014 SCT025 00/M01 Q1010 NOSIG",
      "taf": "TAF LKPR 180500Z 1806/1912 26010KT 9999 BKN025"
    },
    {
      "icao": "LLBG",
      "alert": "OK",
      "vis_m": 9999,
      "fzfg": false,
      "metar_trigger": false,
      "taf_trigger": false,
      "metar": "METAR LLBG 180720Z 20014KT CAVOK 19/06 Q1014 BECMG 23015G25KT 5000 DU",
      "taf": "TAF LLBG 180512Z 1806/1906 17008KT CAVOK"
    },
    {
      "icao": "LMML",
      "alert": "OK",
      "vis_m": 9999,
      "fzfg": false,
      "metar_trigger": false,
      "taf_trigger": false,
      "metar": "METAR LMML 180715Z 29010KT 9999 FEW035 14/09 Q1019 NOSIG",
      "taf": "TAF LMML 180500Z 1806/1906 29015KT 9999 FEW020"
    },
    {
      "icao": "LOWW",
      "alert": "OK",
      "vis_m": 9999,
      "fzfg": false,
      "metar_trigger": false,
      "taf_trigger": false,
      "metar": "METAR LOWW 180720Z 28011KT 9999 FEW022 03/M01 Q1013 NOSIG",
      "taf": "TAF LOWW 180515Z 1806/1912 28010KT 9999 FEW050 TX06/1811Z TNM02/1902Z"
    },
    {
      "icao": "LPFR",
      "alert": "OK",
      "vis_m": 9999,
      "fzfg": false,
      "metar_trigger": false,
      "taf_trigger": false,
      "metar": "METAR LPFR 180700Z 02003KT 9999 FEW018 BKN024 12/08 Q1022",
      "taf": "TAF LPFR 180500Z 1806/1906 31007KT 9999 SCT012 BKN020"
    },
    {
      "icao": "LPMA",
      "alert": "OK",
      "vis_m": 9999,
      "fzfg": false,
      "metar_trigger": false,
      "taf_trigger": false,
      "metar": "METAR LPMA 180700Z 25003KT 230V290 9999 SCT014 13/09 Q1025",
      "taf": "TAF LPMA 180500Z 1806/1906 VRB05KT 9999 SCT014"
    },
    {
      "icao": "LPPR",
      "alert": "OK",
      "vis_m": 8000,
      "fzfg": false,
      "metar_trigger": false,
      "taf_trigger": false,
      "metar": "METAR LPPR 180700Z 18017KT 8000 -DZ BKN005 12/11 Q1016",
      "taf": "TAF LPPR 180500Z 1806/1906 19015KT 8000 SCT006 BKN012"
    },
    {
      "icao": "LPPS",
      "alert": "OK",
      "vis_m": 9999,
      "fzfg": false,
      "metar_trigger": false,
      "taf_trigger": false,
      "metar": "METAR LPPS 180700Z 34004KT 310V030 9999 FEW014 SCT030 13/12 Q1025",
      "taf": "TAF LPPS 180500Z 1806/1912 33005KT 9999 SCT015"
    },
    {
      "icao": "LPPT",
      "alert": "OK",
      "vis_m": 9999,
      "fzfg": false,
      "metar_trigger": false,
      "taf_trigger": false,
      "metar": "METAR LPPT 180700Z 22009KT 9999 FEW020 12/10 Q1020",
      "taf": "TAF LPPT 180500Z 1806/1912 22005KT 9999 BKN020"
    },
    {
      "icao": "LQBK",
      "alert": "OK",
      "vis_m": 9999,
      "fzfg": false,
      "metar_trigger": false,
      "taf_trigger": false,
      "metar": "METAR LQBK 180700Z 34005KT CAVOK M00/M01 Q1015 NOSIG",
      "taf": "TAF LQBK 180500Z 1806/1906 16005KT CAVOK TX08/1813Z TN00/1824Z"
    },
    {
      "icao": "LQSA",
      "alert": "OK",
      "vis_m": 8000,
      "fzfg": false,
      "metar_trigger": false,
      "taf_trigger": false,
      "metar": "METAR LQSA 180700Z VRB02KT 8000 FEW010 M01/M01 Q1014 NOSIG",
      "taf": "TAF LQSA 180500Z 1806/1906 VRB02KT 9999 SCT045 TX06/1813Z TNM02/1902Z"
    },
    {
      "icao": "LQTZ",
      "alert": "OK",
      "vis_m": 1500,
      "fzfg": false,
      "metar_trigger": false,
      "taf_trigger": false,
      "metar": "METAR LQTZ 180700Z 32002KT 1500 BR FEW002 BKN035 00/00 Q1015",
      "taf": "TAF LQTZ 180500Z 1806/1906 28005KT 3000 BR SCT035 TX08/1814Z TNM01/1824Z"
    },
    {
      "icao": "LRBC",
      "alert": "OK",
      "vis_m": 2500,
      "fzfg": false,
      "metar_trigger": false,
      "taf_trigger": false,
      "metar": "METAR LRBC 180700Z 35008KT 2500 -SN BR FEW009 OVC022 M04/M05 Q1008",
      "taf": "TAF LRBC 180500Z 1806/1815 35012KT 5000 -SN BKN010 OVC025"
    },
    {
      "icao": "LRBS",
      "alert": "OK",
      "vis_m": 1100,
      "fzfg": false,
      "metar_trigger": false,
      "taf_trigger": false,
      "metar": "METAR LRBS 180700Z 23003KT 1100 R07/1900N -SN BR SCT001 BKN004 OVC011 00/M00 Q1004 NOSIG",
      "taf": "TAF LRBS 180500Z 1806/1906 VRB04KT 3000 -SN BR BKN005 OVC015"
    },
    {
      "icao": "LRBV",
      "alert": "OK",
      "vis_m": 1000,
      "fzfg": false,
      "metar_trigger": false,
      "taf_trigger": false,
      "metar": "METAR LRBV 180700Z VRB03KT 1000 R21/1400N SN BR OVC012 M02/M02 Q1005",
      "taf": "TAF LRBV 180500Z 1806/1815 VRB04KT 5000 -SN BR OVC020"
    },
    {
      "icao": "LRCL",
      "alert": "OK",
      "vis_m": 9999,
      "fzfg": false,
      "metar_trigger": false,
      "taf_trigger": false,
      "metar": "METAR LRCL 180700Z 30007KT 9999 FEW021 BKN040 00/M03 Q1007",
      "taf": "TAF LRCL 180500Z 1806/1815 VRB04KT 9999 BKN035"
    },
    {
      "icao": "LRCV",
      "alert": "OK",
      "vis_m": 9999,
      "fzfg": false,
      "metar_trigger": false,
      "taf_trigger": false,
      "metar": "METAR LRCV 180700Z 27009KT CAVOK 01/00 Q1005",
      "taf": "TAF LRCV 180500Z 1806/1815 25006KT 9999 BKN040"
    },
    {
      "icao": "LRIA",
      "alert": "OK",
      "vis_m": 1200,
      "fzfg": false,
      "metar_trigger": false,
      "taf_trigger": false,
      "metar": "METAR LRIA 180700Z 32009KT 1200 R32/P2000N -SN BR SCT004 OVC016 M05/M07 Q1008",
      "taf": "TAF LRIA 180500Z 1806/1815 35012KT 3000 -SN BKN015 OVC025"
    },
    {
      "icao": "LROP",
      "alert": "OK",
      "vis_m": 2100,
      "fzfg": false,
      "metar_trigger": false,
      "taf_trigger": false,
      "metar": "METAR LROP 180700Z 25003KT 2100 -SN OVC003 00/00 Q1004 BECMG 3000 BKN005 OVC020",
      "taf": "TAF LROP 180500Z 1806/1906 VRB04KT 3000 -SN BR BKN005 OVC015"
    },
    {
      "icao": "LRSB",
      "alert": "OK",
      "vis_m": 8000,
      "fzfg": false,
      "metar_trigger": false,
      "taf_trigger": false,
      "metar": "METAR LRSB 180700Z 30005KT 270V330 8000 FEW003 SCT010 OVC025 00/00 Q1006",
      "taf": "TAF LRSB 180500Z 1806/1906 VRB04KT 3000 -SN BR BKN005 OVC010"
    },
    {
      "icao": "LRSM",
      "alert": "OK",
      "vis_m": 8000,
      "fzfg": false,
      "metar_trigger": false,
      "taf_trigger": false,
      "metar": "METAR LRSM 180700Z 23003KT 8000 NSC M02/M04 Q1009",
      "taf": "TAF LRSM 180500Z 1806/1815 VRB04KT CAVOK"
    },
    {
      "icao": "LRSV",
      "alert": "OK",
      "vis_m": 3000,
      "fzfg": false,
      "metar_trigger": false,
      "taf_trigger": false,
      "metar": "METAR LRSV 180700Z 31011KT 3000 -SN BR SCT045 M06/M07 Q1007",
      "taf": "TAF LRSV 180500Z 1806/1815 34008KT 3000 -SN BR BKN025"
    },
    {
      "icao": "LRTM",
      "alert": "OK",
      "vis_m": 9999,
      "fzfg": false,
      "metar_trigger": false,
      "taf_trigger": false,
      "metar": "METAR LRTM 180700Z 25005KT 9999 SCT011 BKN026 00/M01 Q1007",
      "taf": "TAF LRTM 180500Z 1806/1815 VRB04KT 3000 -SN BR BKN015 BKN020"
    },
    {
      "icao": "LRTR",
      "alert": "OK",
      "vis_m": 5000,
      "fzfg": false,
      "metar_trigger": false,
      "taf_trigger": false,
      "metar": "METAR LRTR 180700Z VRB02KT 5000 BR NSC M01/M01 Q1011 NOSIG",
      "taf": "TAF LRTR 180500Z 1806/1906 VRB04KT 3000 BR NSC"
    },
    {
      "icao": "LTAC",
      "alert": "OK",
      "vis_m": 9999,
      "fzfg": false,
      "metar_trigger": false,
      "taf_trigger": false,
      "metar": "METAR LTAC 180720Z 20009KT 9999 -SHRA FEW015 BKN030 BKN080 06/04 Q0997 NOSIG RMK RWY21C 20011KT RWY03L 20008KT RWY21R 19010KT RWY03R 19010KT RWY21L 20012KT",
      "taf": "TAF LTAC 180440Z 1806/1906 20012KT 9999 SCT040 BKN100"
    },
    {
      "icao": "LTFM",
      "alert": "OK",
      "vis_m": 7000,
      "fzfg": false,
      "metar_trigger": false,
      "taf_trigger": false,
      "metar": "METAR LTFM 180720Z 32019KT 7000 2800N -SHRASN BR BKN007 BKN028 02/01 Q0999 NOSIG RMK RWY17L 31020KT RWY34L 31020KT RWY16R 31018KT RWY36 32021KT RWY18 31021KT",
      "taf": "TAF LTFM 180440Z 1806/1912 24012KT 8000 -SHRA SCT008 BKN028"
    },
    {
      "icao": "LUKK",
      "alert": "OK",
      "vis_m": 4900,
      "fzfg": false,
      "metar_trigger": false,
      "taf_trigger": false,
      "metar": "METAR LUKK 180700Z 35013G23KT 4900 SN DRSN FEW009 SCT012 OVC019 M05/M06 Q1005 TEMPO 35015G25KT 5000 SN OVC008",
      "taf": "TAF LUKK 180517Z 1806/1906 36014KT 9999 OVC010"
    },
    {
      "icao": "LWOH",
      "alert": "OK",
      "vis_m": 9999,
      "fzfg": false,
      "metar_trigger": false,
      "taf_trigger": false,
      "metar": "METAR LWOH 180720Z 32013KT 290V350 9999 FEW040 03/M04 Q1010",
      "taf": "TAF LWOH 180535Z 1806/1906 34010KT 9999 SCT040"
    },
    {
      "icao": "LWSK",
      "alert": "OK",
      "vis_m": 9999,
      "fzfg": false,
      "metar_trigger": false,
      "taf_trigger": false,
      "metar": "METAR LWSK 180720Z 30015KT 270V330 9999 BKN060 06/M03 Q1010 NOSIG",
      "taf": "TAF LWSK 180535Z 1806/1906 33012KT 9999 SCT040"
    },
    {
      "icao": "LYBE",
      "alert": "OK",
      "vis_m": 9999,
      "fzfg": false,
      "metar_trigger": false,
      "taf_trigger": false,
      "metar": "METAR LYBE 180700Z 27010KT 9999 FEW023 01/M00 Q1013 NOSIG",
      "taf": "TAF LYBE 180500Z 1806/1906 30012KT 9999 SCT025 TX09/1813Z TN00/1806Z"
    },
    {
      "icao": "LYNI",
      "alert": "OK",
      "vis_m": 9999,
      "fzfg": false,
      "metar_trigger": false,
      "taf_trigger": false,
      "metar": "METAR LYNI 180700Z 32009KT 270V360 9999 BKN017 BKN027 03/01 Q1011 NOSIG",
      "taf": "TAF LYNI 180500Z 1806/1906 32016KT 9999 BKN015 BKN030 TX07/1813Z TNM01/1905Z"
    },
    {
      "icao": "LYPG",
      "alert": "OK",
      "vis_m": 9999,
      "fzfg": false,
      "metar_trigger": false,
      "taf_trigger": false,
      "metar": "METAR LYPG 180700Z 34003KT 300V010 9999 FEW040 07/M04 Q1013 NOSIG",
      "taf": "TAF LYPG 180500Z 1806/1906 32010KT CAVOK TX13/1812Z TN02/1905Z"
    },
    {
      "icao": "LZIB",
      "alert": "OK",
      "vis_m": 9999,
      "fzfg": false,
      "metar_trigger": false,
      "taf_trigger": false,
      "metar": "METAR LZIB 180700Z 29004KT 9999 FEW014 03/M00 Q1013 NOSIG",
      "taf": "TAF LZIB 180515Z 1806/1906 28009KT 9999 SCT030"
    },
    {
      "icao": "LZKZ",
      "alert": "OK",
      "vis_m": 9999,
      "fzfg": false,
      "metar_trigger": false,
      "taf_trigger": false,
      "metar": "METAR LZKZ 180700Z 04005KT CAVOK M00/M02 Q1009 NOSIG",
      "taf": "TAF LZKZ 180515Z 1806/1906 22005KT CAVOK"
    },
    {
      "icao": "LZTT",
      "alert": "OK",
      "vis_m": 9999,
      "fzfg": false,
      "metar_trigger": false,
      "taf_trigger": false,
      "metar": "METAR LZTT 180700Z 32005KT 9999 FEW010 BKN040 M02/M04 Q1007 NOSIG",
      "taf": "TAF LZTT 180515Z 1806/1906 26005KT 9999 FEW020"
    },
    {
      "icao": "OEJN",
      "alert": "OK",
      "vis_m": 9999,
      "fzfg": false,
      "metar_trigger": false,
      "taf_trigger": false,
      "metar": "METAR OEJN 180700Z 33007KT CAVOK 29/15 Q1012 NOSIG",
      "taf": "TAF OEJN 180500Z 1806/1912 32015KT CAVOK"
    },
    {
      "icao": "OEMA",
      "alert": "OK",
      "vis_m": 9999,
      "fzfg": false,
      "metar_trigger": false,
      "taf_trigger": false,
      "metar": "METAR OEMA 180700Z VRB03KT CAVOK 25/00 Q1017 NOSIG",
      "taf": "TAF OEMA 180500Z 1806/1912 VRB03KT CAVOK"
    },
    {
      "icao": "OJAI",
      "alert": "OK",
      "vis_m": 3000,
      "fzfg": false,
      "metar_trigger": false,
      "taf_trigger": false,
      "metar": "METAR OJAI 180700Z 18006KT 3000 HZ NSC 10/06 Q1016 NOSIG",
      "taf": "TAF OJAI 180446Z 1806/1912 25010KT 4000 HZ NSC"
    },
    {
      "icao": "OMAA",
      "alert": "OK",
      "vis_m": null,
      "fzfg": false,
      "metar_trigger": false,
      "taf_trigger": false,
      "metar": "",
      "taf": "TAF OMAA 180500Z 1806/1912 10006KT 8000 NSC"
    },
    {
      "icao": "OMDB",
      "alert": "OK",
      "vis_m": null,
      "fzfg": false,
      "metar_trigger": false,
      "taf_trigger": false,
      "metar": "",
      "taf": "TAF OMDB 180500Z 1806/1912 08005KT CAVOK"
    },
    {
      "icao": "UAAA",
      "alert": "OK",
      "vis_m": 5000,
      "fzfg": false,
      "metar_trigger": false,
      "taf_trigger": false,
      "metar": "METAR UAAA 180700Z COR VRB01MPS 5000 FU SCT200 11/04 Q1019 NOSIG",
      "taf": "TAF UAAA 180505Z 1806/1906 06003MPS 3100 BR SCT020 BKN050 TX12/1809Z TN02/1903Z"
    },
    {
      "icao": "UBBB",
      "alert": "OK",
      "vis_m": 9999,
      "fzfg": false,
      "metar_trigger": false,
      "taf_trigger": false,
      "metar": "METAR UBBB 180700Z 33012KT 9999 BKN011 09/07 Q1010 NOSIG",
      "taf": "TAF UBBB 180455Z 1806/1906 32010KT 8000 BKN009 TX09/1810Z TN04/1800Z"
    },
    {
      "icao": "UDSG",
      "alert": "OK",
      "vis_m": 9999,
      "fzfg": false,
      "metar_trigger": false,
      "taf_trigger": false,
      "metar": "METAR UDSG 180700Z 18008KT 9999 BKN040 05/00 Q1015 NOSIG",
      "taf": "TAF UDSG 180500Z 1806/1906 VRB06KT 9999 BKN040"
    },
    {
      "icao": "UDYZ",
      "alert": "OK",
      "vis_m": 9999,
      "fzfg": false,
      "metar_trigger": false,
      "taf_trigger": false,
      "metar": "METAR UDYZ 180700Z VRB01KT 9999 FEW046 11/03 Q1014 NOSIG",
      "taf": "TAF UDYZ 180500Z 1806/1906 24006KT 9999 SCT040"
    },
    {
      "icao": "UGKO",
      "alert": "OK",
      "vis_m": 9999,
      "fzfg": false,
      "metar_trigger": false,
      "taf_trigger": false,
      "metar": "METAR UGKO 180700Z 07011KT CAVOK 18/03 Q1004 NOSIG",
      "taf": "TAF UGKO 180500Z 1806/1906 09010KT CAVOK TX24/1812Z TN09/1904Z"
    }
  ]
}