{
  "ts_utc": "2026-03-12T22:18:50Z",
  "threshold_m": 150,
  "source": "stations_override.txt (ICAO list) + aviationweather.gov (METAR/TAF raw)",
  "station_count": 159,
  "stations": [
    {
      "icao": "BIKF",
      "alert": "OK",
      "vis_m": 9999,
      "fzfg": false,
      "metar_trigger": false,
      "taf_trigger": false,
      "metar": "METAR BIKF 122200Z 34023KT 9999 BKN024 00/M03 Q0972",
      "taf": "TAF BIKF 121957Z 1221/1321 34025G35KT 9999 SCT018 BKN028 TX03/1314Z TNM00/1221Z"
    },
    {
      "icao": "BKPR",
      "alert": "OK",
      "vis_m": 9999,
      "fzfg": false,
      "metar_trigger": false,
      "taf_trigger": false,
      "metar": "METAR BKPR 122200Z 31007KT CAVOK 08/M01 Q1021 NOSIG",
      "taf": "TAF BKPR 121730Z 1218/1318 VRB03KT 9999 FEW050"
    },
    {
      "icao": "EBCI",
      "alert": "OK",
      "vis_m": 9999,
      "fzfg": false,
      "metar_trigger": false,
      "taf_trigger": false,
      "metar": "METAR EBCI 122150Z 20017KT CAVOK 09/03 Q1014 TEMPO 20015G25KT",
      "taf": "TAF EBCI 121705Z 1218/1324 20015G25KT 9999 FEW030"
    },
    {
      "icao": "EDDB",
      "alert": "OK",
      "vis_m": 9999,
      "fzfg": false,
      "metar_trigger": false,
      "taf_trigger": false,
      "metar": "METAR EDDB 122150Z AUTO 17010KT CAVOK 06/01 Q1017 NOSIG",
      "taf": "TAF EDDB 121700Z 1218/1318 17009KT CAVOK"
    },
    {
      "icao": "EDDH",
      "alert": "OK",
      "vis_m": 9999,
      "fzfg": false,
      "metar_trigger": false,
      "taf_trigger": false,
      "metar": "METAR EDDH 122150Z AUTO 19014KT CAVOK 09/02 Q1012 NOSIG",
      "taf": "TAF EDDH 121700Z 1218/1324 20012KT 9999 SCT030"
    },
    {
      "icao": "EDDK",
      "alert": "OK",
      "vis_m": 9999,
      "fzfg": false,
      "metar_trigger": false,
      "taf_trigger": false,
      "metar": "METAR EDDK 122150Z AUTO 15008KT 9999 FEW041 07/02 Q1016 NOSIG",
      "taf": "TAF EDDK 121700Z 1218/1324 15008KT CAVOK"
    },
    {
      "icao": "EDDN",
      "alert": "OK",
      "vis_m": 9999,
      "fzfg": false,
      "metar_trigger": false,
      "taf_trigger": false,
      "metar": "METAR EDDN 122150Z AUTO 11007KT CAVOK 04/00 Q1020",
      "taf": "TAF EDDN 121700Z 1218/1318 16003KT CAVOK"
    },
    {
      "icao": "EDDS",
      "alert": "OK",
      "vis_m": 9999,
      "fzfg": false,
      "metar_trigger": false,
      "taf_trigger": false,
      "metar": "METAR EDDS 122150Z AUTO VRB02KT CAVOK 04/00 Q1020",
      "taf": "TAF EDDS 121700Z 1218/1318 26004KT CAVOK"
    },
    {
      "icao": "EDFH",
      "alert": "OK",
      "vis_m": 9999,
      "fzfg": false,
      "metar_trigger": false,
      "taf_trigger": false,
      "metar": "METAR EDFH 122150Z 20013KT CAVOK 05/01 Q1017",
      "taf": "TAF EDFH 121700Z 1218/1318 21012KT 9999 SCT035"
    },
    {
      "icao": "EDJA",
      "alert": "OK",
      "vis_m": 9999,
      "fzfg": false,
      "metar_trigger": false,
      "taf_trigger": false,
      "metar": "METAR EDJA 122150Z 14005KT CAVOK 02/01 Q1021",
      "taf": "TAF EDJA 121700Z 1218/1303 VRB03KT CAVOK"
    },
    {
      "icao": "EDLW",
      "alert": "OK",
      "vis_m": 9999,
      "fzfg": false,
      "metar_trigger": false,
      "taf_trigger": false,
      "metar": "METAR EDLW 122150Z 19012KT CAVOK 09/02 Q1014",
      "taf": "TAF EDLW 121700Z 1218/1318 21012KT CAVOK"
    },
    {
      "icao": "EDNY",
      "alert": "OK",
      "vis_m": 9999,
      "fzfg": false,
      "metar_trigger": false,
      "taf_trigger": false,
      "metar": "METAR EDNY 122150Z AUTO VRB01KT 9999 // NCD 02/01 Q1021",
      "taf": "TAF EDNY 121700Z 1218/1303 VRB02KT CAVOK"
    },
    {
      "icao": "EDSB",
      "alert": "OK",
      "vis_m": 9999,
      "fzfg": false,
      "metar_trigger": false,
      "taf_trigger": false,
      "metar": "METAR EDSB 122150Z 21005KT CAVOK 06/02 Q1020",
      "taf": "TAF EDSB 121700Z 1218/1318 20005KT CAVOK"
    },
    {
      "icao": "EETN",
      "alert": "OK",
      "vis_m": 9999,
      "fzfg": false,
      "metar_trigger": false,
      "taf_trigger": false,
      "metar": "METAR EETN 122150Z 20010KT 9999 BKN006 02/02 Q1014 TEMPO BKN004",
      "taf": "TAF EETN 121730Z 1218/1318 21012KT 9999 SCT020"
    },
    {
      "icao": "EFTU",
      "alert": "OK",
      "vis_m": 9999,
      "fzfg": false,
      "metar_trigger": false,
      "taf_trigger": false,
      "metar": "METAR EFTU 122150Z AUTO 18008KT CAVOK 02/01 Q1009",
      "taf": "TAF EFTU 122036Z 1221/1321 20010KT CAVOK"
    },
    {
      "icao": "EGBB",
      "alert": "OK",
      "vis_m": 8000,
      "fzfg": false,
      "metar_trigger": false,
      "taf_trigger": false,
      "metar": "METAR EGBB 122150Z 23012G24KT 200V270 8000 -RA NSC 10/07 Q0996 RERA",
      "taf": "TAF EGBB 121700Z 1218/1318 20020G32KT 9999 SCT020"
    },
    {
      "icao": "EGGP",
      "alert": "OK",
      "vis_m": 9999,
      "fzfg": false,
      "metar_trigger": false,
      "taf_trigger": false,
      "metar": "METAR EGGP 122150Z 24018KT 9999 -RA FEW016 SCT027 BKN047 07/04 Q0994",
      "taf": ""
    },
    {
      "icao": "EGGW",
      "alert": "OK",
      "vis_m": 5000,
      "fzfg": false,
      "metar_trigger": false,
      "taf_trigger": false,
      "metar": "METAR EGGW 122150Z AUTO 21020G30KT 5000 -RADZ OVC008 10/09 Q1000",
      "taf": "TAF EGGW 121656Z 1218/1318 21025G38KT 9999 BKN012"
    },
    {
      "icao": "EGKK",
      "alert": "OK",
      "vis_m": 2800,
      "fzfg": false,
      "metar_trigger": false,
      "taf_trigger": false,
      "metar": "METAR EGKK 122150Z 21019G34KT 2800 DZ BKN009 11/09 Q1004",
      "taf": ""
    },
    {
      "icao": "EGNM",
      "alert": "OK",
      "vis_m": 9999,
      "fzfg": false,
      "metar_trigger": false,
      "taf_trigger": false,
      "metar": "METAR EGNM 122150Z 26015KT 9999 -SHRA SCT012 BKN020 06/04 Q0992",
      "taf": ""
    },
    {
      "icao": "EGPD",
      "alert": "OK",
      "vis_m": 9999,
      "fzfg": false,
      "metar_trigger": false,
      "taf_trigger": false,
      "metar": "METAR EGPD 122150Z COR AUTO 19012KT 9999 NCD 03/01 Q0983 NOSIG",
      "taf": "TAF EGPD 121657Z 1218/1318 21012KT 9999 SCT020"
    },
    {
      "icao": "EGPF",
      "alert": "OK",
      "vis_m": 9999,
      "fzfg": false,
      "metar_trigger": false,
      "taf_trigger": false,
      "metar": "METAR EGPF 122150Z AUTO 22019G31KT 9999 FEW040 05/01 Q0985",
      "taf": "TAF EGPF 121657Z 1218/1318 23018G32KT 9999 SCT030"
    },
    {
      "icao": "EHBK",
      "alert": "OK",
      "vis_m": 9999,
      "fzfg": false,
      "metar_trigger": false,
      "taf_trigger": false,
      "metar": "METAR EHBK 122155Z AUTO 21019KT 9999 NSC 09/02 Q1014 NOSIG",
      "taf": "TAF EHBK 121713Z 1218/1324 21018G28KT 9999 SCT040"
    },
    {
      "icao": "EHEH",
      "alert": "OK",
      "vis_m": 9999,
      "fzfg": false,
      "metar_trigger": false,
      "taf_trigger": false,
      "metar": "METAR EHEH 122155Z AUTO 20017KT 9999 OVC240 10/04 Q1012 BLU TEMPO 21015G25KT RMK TREND REMOTE BY EHWX",
      "taf": "TAF EHEH 121733Z 1218/1324 20015G25KT CAVOK"
    },
    {
      "icao": "EKBI",
      "alert": "OK",
      "vis_m": 9999,
      "fzfg": false,
      "metar_trigger": false,
      "taf_trigger": false,
      "metar": "METAR EKBI 122150Z AUTO 19018G31KT 160V220 9999 -DZRA OVC034/// 09/03 Q1005 REDZRA",
      "taf": "TAF EKBI 122027Z 1221/1321 20020KT 9999 BKN020"
    },
    {
      "icao": "EKCH",
      "alert": "OK",
      "vis_m": 9999,
      "fzfg": false,
      "metar_trigger": false,
      "taf_trigger": false,
      "metar": "METAR EKCH 122150Z AUTO 18014KT 9999 SCT190/// 05/02 Q1011 NOSIG",
      "taf": "TAF EKCH 122027Z 1221/1321 19015KT 9999 FEW030"
    },
    {
      "icao": "ENAL",
      "alert": "OK",
      "vis_m": 9999,
      "fzfg": false,
      "metar_trigger": false,
      "taf_trigger": false,
      "metar": "METAR ENAL 122150Z 19009KT 9999 SCT041 06/02 Q0978",
      "taf": "TAF ENAL 122000Z 1221/1306 19018KT 9999 -SHRA FEW025TCU BKN040"
    },
    {
      "icao": "ENBR",
      "alert": "OK",
      "vis_m": 9999,
      "fzfg": false,
      "metar_trigger": false,
      "taf_trigger": false,
      "metar": "METAR ENBR 122150Z 19021KT 9999 -SHRA SCT010 BKN016 06/04 Q0982 RMK WIND 1200FT 20027G38KT",
      "taf": ""
    },
    {
      "icao": "ENGM",
      "alert": "OK",
      "vis_m": 9999,
      "fzfg": false,
      "metar_trigger": false,
      "taf_trigger": false,
      "metar": "METAR ENGM 122150Z 19028KT 9999 -RA OVC013 04/01 Q0991 TEMPO 19030G40KT 4000 DZRA OVC004",
      "taf": "TAF ENGM 121700Z 1218/1318 18025G38KT 8000 -RA OVC008"
    },
    {
      "icao": "ENHD",
      "alert": "OK",
      "vis_m": 8000,
      "fzfg": false,
      "metar_trigger": false,
      "taf_trigger": false,
      "metar": "METAR ENHD 122150Z AUTO 18016KT 8000 FEW012/// 06/04 Q0986",
      "taf": "TAF ENHD 121400Z 1215/1223 16025KT 8000 -RA SCT006 BKN012"
    },
    {
      "icao": "ENTC",
      "alert": "OK",
      "vis_m": 9999,
      "fzfg": false,
      "metar_trigger": false,
      "taf_trigger": false,
      "metar": "METAR ENTC 122150Z 06003KT CAVOK M01/M02 Q0986 NOSIG RMK WIND 2600FT 15017KT",
      "taf": "TAF ENTC 121700Z 1218/1318 18005KT CAVOK"
    },
    {
      "icao": "ENTO",
      "alert": "OK",
      "vis_m": 2700,
      "fzfg": false,
      "metar_trigger": false,
      "taf_trigger": false,
      "metar": "METAR ENTO 122150Z 20027G42KT 2700 RA BR OVC004 04/04 Q0994 REDZRA RERA TEMPO 4000",
      "taf": "TAF ENTO 121700Z 1218/1318 20030G40KT 2000 +RADZ BR OVC002"
    },
    {
      "icao": "ENVA",
      "alert": "OK",
      "vis_m": 9999,
      "fzfg": false,
      "metar_trigger": false,
      "taf_trigger": false,
      "metar": "METAR ENVA 122150Z 16013G24KT 120V190 CAVOK 08/M00 Q0979 RMK WIND 670FT 17028G42KT",
      "taf": ""
    },
    {
      "icao": "ENZV",
      "alert": "OK",
      "vis_m": 9000,
      "fzfg": false,
      "metar_trigger": false,
      "taf_trigger": false,
      "metar": "METAR ENZV 122150Z 19018KT 9000 SCT006 BKN008 07/06 Q0987",
      "taf": "TAF ENZV 121700Z 1218/1318 18028G38KT 8000 -RA SCT008 BKN012"
    },
    {
      "icao": "EPGD",
      "alert": "OK",
      "vis_m": 9999,
      "fzfg": false,
      "metar_trigger": false,
      "taf_trigger": false,
      "metar": "METAR EPGD 122200Z 18007KT CAVOK 05/01 Q1018",
      "taf": "TAF EPGD 121730Z 1218/1318 18005KT CAVOK"
    },
    {
      "icao": "EPKK",
      "alert": "OK",
      "vis_m": 9999,
      "fzfg": false,
      "metar_trigger": false,
      "taf_trigger": false,
      "metar": "METAR EPKK 122200Z VRB02KT CAVOK 07/04 Q1022",
      "taf": "TAF EPKK 122030Z 1221/1321 VRB02KT CAVOK"
    },
    {
      "icao": "EPKT",
      "alert": "OK",
      "vis_m": 9999,
      "fzfg": false,
      "metar_trigger": false,
      "taf_trigger": false,
      "metar": "METAR EPKT 122200Z VRB02KT 9999 FEW034 06/05 Q1022",
      "taf": "TAF EPKT 121730Z 1218/1318 33005KT CAVOK"
    },
    {
      "icao": "EPLB",
      "alert": "OK",
      "vis_m": 9999,
      "fzfg": false,
      "metar_trigger": false,
      "taf_trigger": false,
      "metar": "METAR EPLB 122200Z VRB01KT CAVOK 06/04 Q1022",
      "taf": "TAF EPLB 121730Z 1218/1318 VRB02KT CAVOK"
    },
    {
      "icao": "EPMO",
      "alert": "OK",
      "vis_m": 7000,
      "fzfg": false,
      "metar_trigger": false,
      "taf_trigger": false,
      "metar": "METAR EPMO 122200Z 22002KT 7000 FEW043 08/07 Q1022",
      "taf": "TAF EPMO 121730Z 1218/1318 28010KT CAVOK"
    },
    {
      "icao": "EPPO",
      "alert": "OK",
      "vis_m": 9999,
      "fzfg": false,
      "metar_trigger": false,
      "taf_trigger": false,
      "metar": "METAR EPPO 122200Z 18006KT CAVOK 05/01 Q1020",
      "taf": "TAF EPPO 121730Z 1218/1318 19003KT CAVOK"
    },
    {
      "icao": "EPRA",
      "alert": "OK",
      "vis_m": 9999,
      "fzfg": false,
      "metar_trigger": false,
      "taf_trigger": false,
      "metar": "METAR EPRA 122200Z 34002KT CAVOK 09/06 Q1022",
      "taf": "TAF EPRA 122030Z 1221/1306 VRB02KT CAVOK"
    },
    {
      "icao": "EPRZ",
      "alert": "OK",
      "vis_m": 9999,
      "fzfg": false,
      "metar_trigger": false,
      "taf_trigger": false,
      "metar": "METAR EPRZ 122200Z 21002KT CAVOK 06/02 Q1022",
      "taf": "TAF EPRZ 121730Z 1218/1318 18005KT CAVOK"
    },
    {
      "icao": "EPSC",
      "alert": "OK",
      "vis_m": 9999,
      "fzfg": false,
      "metar_trigger": false,
      "taf_trigger": false,
      "metar": "METAR EPSC 122200Z 16010KT CAVOK 07/00 Q1017",
      "taf": "TAF EPSC 121730Z 1218/1318 18005KT CAVOK"
    },
    {
      "icao": "EPSY",
      "alert": "OK",
      "vis_m": 900,
      "fzfg": false,
      "metar_trigger": false,
      "taf_trigger": false,
      "metar": "METAR EPSY 122200Z VRB02KT 0900 R01/1500D FG NSC 01/01 Q1021",
      "taf": ""
    },
    {
      "icao": "EPWA",
      "alert": "OK",
      "vis_m": 9999,
      "fzfg": false,
      "metar_trigger": false,
      "taf_trigger": false,
      "metar": "METAR EPWA 122200Z 26003KT 9999 SCT028 08/07 Q1022 NOSIG",
      "taf": "TAF EPWA 122030Z 1221/1321 VRB03KT 9999 SCT040"
    },
    {
      "icao": "EPWR",
      "alert": "OK",
      "vis_m": 4200,
      "fzfg": false,
      "metar_trigger": false,
      "taf_trigger": false,
      "metar": "METAR EPWR 122200Z 13003KT 4200 MIFG BR NSC 04/04 Q1021",
      "taf": "TAF EPWR 122030Z 1221/1321 18004KT 4000 BR NSC"
    },
    {
      "icao": "ESGG",
      "alert": "OK",
      "vis_m": 9999,
      "fzfg": false,
      "metar_trigger": false,
      "taf_trigger": false,
      "metar": "METAR ESGG 122150Z 21031G43KT 9999 OVC029 07/02 Q1004",
      "taf": "TAF ESGG 122030Z 1221/1321 19025G38KT 9999 BKN035"
    },
    {
      "icao": "ESKN",
      "alert": "OK",
      "vis_m": 9999,
      "fzfg": false,
      "metar_trigger": false,
      "taf_trigger": false,
      "metar": "METAR ESKN 122150Z 20013KT 170V230 9999 FEW037 BKN180 07/02 Q1007",
      "taf": "TAF ESKN 122030Z 1221/1321 18010KT CAVOK"
    },
    {
      "icao": "ESMS",
      "alert": "OK",
      "vis_m": 9999,
      "fzfg": false,
      "metar_trigger": false,
      "taf_trigger": false,
      "metar": "METAR ESMS 122150Z 19015KT CAVOK 06/02 Q1012",
      "taf": "TAF ESMS 122027Z 1221/1321 20012KT 9999 FEW030"
    },
    {
      "icao": "ESSA",
      "alert": "OK",
      "vis_m": 9999,
      "fzfg": false,
      "metar_trigger": false,
      "taf_trigger": false,
      "metar": "METAR ESSA 122150Z 19017KT CAVOK 06/01 Q1005 NOSIG",
      "taf": "TAF ESSA 122030Z 1221/1321 18017G27KT CAVOK"
    },
    {
      "icao": "EYKA",
      "alert": "OK",
      "vis_m": 9999,
      "fzfg": false,
      "metar_trigger": false,
      "taf_trigger": false,
      "metar": "METAR EYKA 122150Z VRB02KT 9999 SCT042 05/04 Q1021",
      "taf": "TAF EYKA 121713Z 1218/1318 VRB04KT 5000 BR SCT010 BKN015"
    },
    {
      "icao": "EYPA",
      "alert": "OK",
      "vis_m": 3200,
      "fzfg": false,
      "metar_trigger": false,
      "taf_trigger": false,
      "metar": "METAR EYPA 122150Z 17007KT 3200 BR OVC002 M00/M00 Q1019",
      "taf": "TAF EYPA 121720Z 1218/1318 VRB05KT 3000 BR OVC002"
    },
    {
      "icao": "EYVI",
      "alert": "OK",
      "vis_m": 9999,
      "fzfg": false,
      "metar_trigger": false,
      "taf_trigger": false,
      "metar": "METAR EYVI 122150Z 35003KT 330V030 CAVOK 07/04 Q1021 NOSIG",
      "taf": "TAF EYVI 121713Z 1218/1318 VRB04KT 8000 SCT030"
    },
    {
      "icao": "GCFV",
      "alert": "OK",
      "vis_m": 9999,
      "fzfg": false,
      "metar_trigger": false,
      "taf_trigger": false,
      "metar": "METAR GCFV 122200Z 02015KT CAVOK 18/15 Q1019",
      "taf": "TAF GCFV 122000Z 1221/1321 03015KT 8000 NSC TX22/1314Z TN15/1306Z"
    },
    {
      "icao": "GCLP",
      "alert": "OK",
      "vis_m": 9999,
      "fzfg": false,
      "metar_trigger": false,
      "taf_trigger": false,
      "metar": "METAR GCLP 122200Z 35015KT 9999 FEW030 17/12 Q1019 NOSIG",
      "taf": "TAF GCLP 122000Z 1221/1321 36015KT 9999 FEW030 TX21/1314Z TN15/1306Z"
    },
    {
      "icao": "GCTS",
      "alert": "OK",
      "vis_m": 9999,
      "fzfg": false,
      "metar_trigger": false,
      "taf_trigger": false,
      "metar": "METAR GCTS 122200Z 05007KT 9999 FEW030 17/09 Q1019 NOSIG",
      "taf": "TAF GCTS 122000Z 1221/1321 04008KT 9999 FEW035 TX22/1314Z TN14/1306Z"
    },
    {
      "icao": "GMAD",
      "alert": "OK",
      "vis_m": 9999,
      "fzfg": false,
      "metar_trigger": false,
      "taf_trigger": false,
      "metar": "METAR GMAD 122200Z 18009KT CAVOK 16/08 Q1018 NOSIG",
      "taf": "TAF GMAD 121700Z 1218/1324 26010KT CAVOK"
    },
    {
      "icao": "GMMN",
      "alert": "OK",
      "vis_m": 9999,
      "fzfg": false,
      "metar_trigger": false,
      "taf_trigger": false,
      "metar": "METAR GMMN 122200Z 22004KT CAVOK 11/09 Q1021 NOSIG",
      "taf": "TAF GMMN 121100Z 1212/1318 36010KT CAVOK"
    },
    {
      "icao": "GMMX",
      "alert": "OK",
      "vis_m": 9999,
      "fzfg": false,
      "metar_trigger": false,
      "taf_trigger": false,
      "metar": "METAR GMMX 122200Z VRB01KT CAVOK 14/08 Q1021 NOSIG",
      "taf": "TAF GMMX 121700Z 1218/1324 04006KT 8000 NSC"
    },
    {
      "icao": "HEGN",
      "alert": "OK",
      "vis_m": 9999,
      "fzfg": false,
      "metar_trigger": false,
      "taf_trigger": false,
      "metar": "METAR HEGN 122100Z 29007KT CAVOK 20/01 Q1014 NOSIG",
      "taf": "TAF HEGN 121700Z 1218/1324 32010KT 9999 SCT025"
    },
    {
      "icao": "HEMA",
      "alert": "OK",
      "vis_m": 9999,
      "fzfg": false,
      "metar_trigger": false,
      "taf_trigger": false,
      "metar": "METAR HEMA 122100Z 22004KT CAVOK 20/12 Q1013 NOSIG",
      "taf": "TAF HEMA 121700Z 1218/1324 33010KT 9999 SCT025"
    },
    {
      "icao": "HESH",
      "alert": "OK",
      "vis_m": 9999,
      "fzfg": false,
      "metar_trigger": false,
      "taf_trigger": false,
      "metar": "METAR HESH 122100Z 27004KT CAVOK 20/05 Q1014 NOSIG",
      "taf": "TAF HESH 121700Z 1218/1324 36010KT 9999 SCT025"
    },
    {
      "icao": "HESX",
      "alert": "OK",
      "vis_m": 9999,
      "fzfg": false,
      "metar_trigger": false,
      "taf_trigger": false,
      "metar": "METAR HESX 122100Z 06010KT CAVOK 15/10 Q1015 NOSIG",
      "taf": "TAF HESX 121700Z 1218/1324 03012G25KT 9999 BKN025"
    },
    {
      "icao": "LATI",
      "alert": "OK",
      "vis_m": null,
      "fzfg": false,
      "metar_trigger": false,
      "taf_trigger": false,
      "metar": "",
      "taf": "TAF LATI 121700Z 1218/1318 VRB03KT CAVOK TX20/1311Z TN04/1305Z"
    },
    {
      "icao": "LBPD",
      "alert": "OK",
      "vis_m": 9999,
      "fzfg": false,
      "metar_trigger": false,
      "taf_trigger": false,
      "metar": "METAR LBPD 122200Z AUTO 13006KT 9999 BKN240/// 04/04 Q1024",
      "taf": "TAF LBPD 121700Z 1218/1318 09010KT CAVOK"
    },
    {
      "icao": "LBSF",
      "alert": "OK",
      "vis_m": 9999,
      "fzfg": false,
      "metar_trigger": false,
      "taf_trigger": false,
      "metar": "METAR LBSF 122200Z AUTO 13006KT 9999 NCD 05/01 Q1022 NOSIG",
      "taf": "TAF LBSF 121700Z 1218/1318 11010KT CAVOK"
    },
    {
      "icao": "LBWN",
      "alert": "OK",
      "vis_m": 9999,
      "fzfg": false,
      "metar_trigger": false,
      "taf_trigger": false,
      "metar": "METAR LBWN 122200Z AUTO 25003KT 9999 NCD 02/02 Q1024 NOSIG",
      "taf": "TAF LBWN 121700Z 1218/1318 VRB04KT 9999 SCT020"
    },
    {
      "icao": "LCLK",
      "alert": "OK",
      "vis_m": 9999,
      "fzfg": false,
      "metar_trigger": false,
      "taf_trigger": false,
      "metar": "METAR LCLK 122200Z 33012KT CAVOK 12/07 Q1015 NOSIG",
      "taf": "TAF LCLK 121730Z 1218/1318 34008KT 9999 FEW030"
    },
    {
      "icao": "LCPH",
      "alert": "OK",
      "vis_m": 9999,
      "fzfg": false,
      "metar_trigger": false,
      "taf_trigger": false,
      "metar": "METAR LCPH 122200Z 01003KT CAVOK 13/00 Q1016 NOSIG",
      "taf": "TAF LCPH 121730Z 1218/1318 04008KT 9999 FEW030"
    },
    {
      "icao": "LEAL",
      "alert": "OK",
      "vis_m": 9999,
      "fzfg": false,
      "metar_trigger": false,
      "taf_trigger": false,
      "metar": "METAR LEAL 122200Z 00000KT CAVOK 12/12 Q1024 NOSIG",
      "taf": "TAF LEAL 121700Z 1218/1318 VRB04KT 9999 FEW035 TX22/1312Z TN09/1306Z"
    },
    {
      "icao": "LEBB",
      "alert": "OK",
      "vis_m": 9999,
      "fzfg": false,
      "metar_trigger": false,
      "taf_trigger": false,
      "metar": "METAR LEBB 122200Z 09004KT 020V130 CAVOK 11/10 Q1023 NOSIG",
      "taf": "TAF LEBB 121700Z 1218/1318 12005KT CAVOK TX20/1313Z TN06/1307Z"
    },
    {
      "icao": "LEBL",
      "alert": "OK",
      "vis_m": 9999,
      "fzfg": false,
      "metar_trigger": false,
      "taf_trigger": false,
      "metar": "METAR LEBL 122200Z VRB02KT CAVOK 11/10 Q1023 NOSIG",
      "taf": "TAF LEBL 121700Z 1218/1318 20010KT 9999 SCT020 TX16/1313Z TN10/1307Z"
    },
    {
      "icao": "LECH",
      "alert": "OK",
      "vis_m": 9000,
      "fzfg": false,
      "metar_trigger": false,
      "taf_trigger": false,
      "metar": "METAR LECH 122200Z AUTO 19006KT 9000 NCD 10/07 Q1023",
      "taf": ""
    },
    {
      "icao": "LEMD",
      "alert": "OK",
      "vis_m": 9999,
      "fzfg": false,
      "metar_trigger": false,
      "taf_trigger": false,
      "metar": "METAR LEMD 122200Z 00000KT CAVOK 10/07 Q1024 NOSIG",
      "taf": "TAF LEMD 121700Z 1218/1324 VRB04KT CAVOK TX19/1315Z TN02/1307Z"
    },
    {
      "icao": "LEMG",
      "alert": "OK",
      "vis_m": 9999,
      "fzfg": false,
      "metar_trigger": false,
      "taf_trigger": false,
      "metar": "METAR LEMG 122200Z 27005KT CAVOK 11/09 Q1025 NOSIG",
      "taf": "TAF LEMG 121700Z 1218/1318 14005KT CAVOK TX19/1315Z TN07/1307Z"
    },
    {
      "icao": "LEVC",
      "alert": "OK",
      "vis_m": 9999,
      "fzfg": false,
      "metar_trigger": false,
      "taf_trigger": false,
      "metar": "METAR LEVC 122200Z VRB02KT CAVOK 11/10 Q1023 NOSIG",
      "taf": "TAF LEVC 121700Z 1218/1318 13010KT 9999 FEW035 TX21/1314Z TN09/1306Z"
    },
    {
      "icao": "LEXJ",
      "alert": "OK",
      "vis_m": 9000,
      "fzfg": false,
      "metar_trigger": false,
      "taf_trigger": false,
      "metar": "METAR LEXJ 122200Z VRB02KT 9000 FEW070 09/07 Q1023",
      "taf": "TAF LEXJ 122000Z 1221/1321 20009KT 9999 FEW040 TX19/1311Z TN08/1302Z"
    },
    {
      "icao": "LEZG",
      "alert": "OK",
      "vis_m": 9999,
      "fzfg": false,
      "metar_trigger": false,
      "taf_trigger": false,
      "metar": "METAR LEZG 122200Z 21008KT CAVOK 14/10 Q1022 NOSIG",
      "taf": "TAF LEZG 121700Z 1218/1318 27008KT 9999 FEW030 TX20/1314Z TN07/1306Z"
    },
    {
      "icao": "LEZL",
      "alert": "OK",
      "vis_m": 9999,
      "fzfg": false,
      "metar_trigger": false,
      "taf_trigger": false,
      "metar": "METAR LEZL 122200Z 02004KT CAVOK 14/11 Q1023 NOSIG",
      "taf": "TAF LEZL 122000Z 1221/1321 07004KT CAVOK TX24/1315Z TN08/1307Z"
    },
    {
      "icao": "LFBD",
      "alert": "OK",
      "vis_m": 9999,
      "fzfg": false,
      "metar_trigger": false,
      "taf_trigger": false,
      "metar": "METAR LFBD 122200Z AUTO 20005KT CAVOK 08/07 Q1022 TEMPO 1500 MIFG",
      "taf": "TAF LFBD 121700Z 1218/1324 24005KT 9999 SCT040 TX16/1314Z TN07/1306Z"
    },
    {
      "icao": "LFLL",
      "alert": "OK",
      "vis_m": 9999,
      "fzfg": false,
      "metar_trigger": false,
      "taf_trigger": false,
      "metar": "METAR LFLL 122200Z 00000KT CAVOK 07/01 Q1022 NOSIG",
      "taf": "TAF LFLL 121700Z 1218/1324 VRB03KT CAVOK"
    },
    {
      "icao": "LFLS",
      "alert": "OK",
      "vis_m": 9999,
      "fzfg": false,
      "metar_trigger": false,
      "taf_trigger": false,
      "metar": "METAR LFLS 122200Z AUTO 09006KT CAVOK 02/01 Q1022",
      "taf": "TAF LFLS 121400Z 1215/1315 36005KT CAVOK"
    },
    {
      "icao": "LFMN",
      "alert": "OK",
      "vis_m": 9999,
      "fzfg": false,
      "metar_trigger": false,
      "taf_trigger": false,
      "metar": "METAR LFMN 122200Z 32003KT 9999 FEW025 12/10 Q1022 NOSIG",
      "taf": "TAF LFMN 122000Z 1221/1403 33010KT CAVOK"
    },
    {
      "icao": "LFOB",
      "alert": "OK",
      "vis_m": 9999,
      "fzfg": false,
      "metar_trigger": false,
      "taf_trigger": false,
      "metar": "METAR LFOB 122200Z AUTO 20011KT 9999 FEW026 SCT130 10/07 Q1014 BECMG 22015G25KT OVC013",
      "taf": "TAF LFOB 121700Z 1218/1318 22015G25KT 9999 BKN030"
    },
    {
      "icao": "LFPO",
      "alert": "OK",
      "vis_m": 9999,
      "fzfg": false,
      "metar_trigger": false,
      "taf_trigger": false,
      "metar": "METAR LFPO 122200Z 20009KT CAVOK 10/06 Q1016 NOSIG",
      "taf": "TAF LFPO 121700Z 1218/1324 21012KT 9999 BKN030"
    },
    {
      "icao": "LFSB",
      "alert": "OK",
      "vis_m": 9999,
      "fzfg": false,
      "metar_trigger": false,
      "taf_trigger": false,
      "metar": "METAR LFSB 122200Z AUTO 17005KT CAVOK 05/03 Q1021 NOSIG",
      "taf": "TAF LFSB 121700Z 1218/1318 18003KT CAVOK"
    },
    {
      "icao": "LGAV",
      "alert": "OK",
      "vis_m": 9999,
      "fzfg": false,
      "metar_trigger": false,
      "taf_trigger": false,
      "metar": "METAR LGAV 122150Z VRB03KT 9999 FEW025 06/05 Q1021 NOSIG",
      "taf": ""
    },
    {
      "icao": "LGTS",
      "alert": "OK",
      "vis_m": 9999,
      "fzfg": false,
      "metar_trigger": false,
      "taf_trigger": false,
      "metar": "METAR LGTS 122150Z 12005KT 9999 FEW020 06/04 Q1022 NOSIG",
      "taf": "TAF LGTS 121700Z 1218/1318 VRB03KT 9999 FEW030"
    },
    {
      "icao": "LHBP",
      "alert": "OK",
      "vis_m": 9999,
      "fzfg": false,
      "metar_trigger": false,
      "taf_trigger": false,
      "metar": "METAR LHBP 122200Z 01002KT CAVOK 05/03 Q1022 NOSIG",
      "taf": "TAF LHBP 121715Z 1218/1318 12005KT CAVOK"
    },
    {
      "icao": "LHDC",
      "alert": "OK",
      "vis_m": 7000,
      "fzfg": false,
      "metar_trigger": false,
      "taf_trigger": false,
      "metar": "METAR LHDC 122145Z AUTO 06003KT 7000 NCD 05/02 Q1022",
      "taf": "TAF LHDC 121415Z 1215/1224 VRB03KT CAVOK"
    },
    {
      "icao": "LIBD",
      "alert": "OK",
      "vis_m": 9999,
      "fzfg": false,
      "metar_trigger": false,
      "taf_trigger": false,
      "metar": "METAR LIBD 122150Z 25003KT CAVOK 08/06 Q1020",
      "taf": "TAF LIBD 121700Z 1218/1318 VRB05KT 9999 FEW030"
    },
    {
      "icao": "LIBG",
      "alert": "OK",
      "vis_m": 9999,
      "fzfg": false,
      "metar_trigger": false,
      "taf_trigger": false,
      "metar": "METAR LIBG 122150Z 24004KT 160V260 CAVOK 09/08 Q1020",
      "taf": "TAF LIBG 122000Z 1221/1306 VRB04KT 9999 FEW030"
    },
    {
      "icao": "LIBP",
      "alert": "OK",
      "vis_m": 9999,
      "fzfg": false,
      "metar_trigger": false,
      "taf_trigger": false,
      "metar": "METAR LIBP 122150Z AUTO 22003KT 200V260 9999 OVC011/// 12/10 Q1021",
      "taf": "TAF LIBP 121700Z 1218/1318 VRB05KT 9999 SCT015"
    },
    {
      "icao": "LIBR",
      "alert": "OK",
      "vis_m": 7000,
      "fzfg": false,
      "metar_trigger": false,
      "taf_trigger": false,
      "metar": "METAR LIBR 122150Z 26002KT 7000 NSC 10/09 Q1020",
      "taf": "TAF LIBR 121700Z 1218/1318 VRB05KT 9999 FEW020"
    },
    {
      "icao": "LICA",
      "alert": "OK",
      "vis_m": 9999,
      "fzfg": false,
      "metar_trigger": false,
      "taf_trigger": false,
      "metar": "METAR LICA 122150Z AUTO 07002KT 9999 FEW020/// BKN029/// 11/10 Q1021",
      "taf": "TAF LICA 121700Z 1218/1318 VRB05KT 9999 SCT020"
    },
    {
      "icao": "LICC",
      "alert": "OK",
      "vis_m": 9999,
      "fzfg": false,
      "metar_trigger": false,
      "taf_trigger": false,
      "metar": "METAR LICC 122150Z 26004KT 9999 BKN100 12/09 Q1021",
      "taf": "TAF LICC 121700Z 1218/1318 28006KT 9999 SCT030"
    },
    {
      "icao": "LICJ",
      "alert": "OK",
      "vis_m": 9999,
      "fzfg": false,
      "metar_trigger": false,
      "taf_trigger": false,
      "metar": "METAR LICJ 122150Z 16004KT CAVOK 12/08 Q1021",
      "taf": "TAF LICJ 121700Z 1218/1318 VRB05KT 9999 SCT030"
    },
    {
      "icao": "LIMC",
      "alert": "OK",
      "vis_m": 9999,
      "fzfg": false,
      "metar_trigger": false,
      "taf_trigger": false,
      "metar": "METAR LIMC 122150Z 03004KT 010V070 9999 FEW060 07/05 Q1022 NOSIG",
      "taf": "TAF LIMC 121700Z 1218/1324 VRB04KT CAVOK"
    },
    {
      "icao": "LIME",
      "alert": "OK",
      "vis_m": 9999,
      "fzfg": false,
      "metar_trigger": false,
      "taf_trigger": false,
      "metar": "METAR LIME 122150Z VRB02KT 9999 SCT050 10/07 Q1022 NOSIG",
      "taf": "TAF LIME 121700Z 1218/1318 VRB04KT 9999 FEW030"
    },
    {
      "icao": "LIMF",
      "alert": "OK",
      "vis_m": 9999,
      "fzfg": false,
      "metar_trigger": false,
      "taf_trigger": false,
      "metar": "METAR LIMF 122150Z 33003KT CAVOK 10/05 Q1022",
      "taf": "TAF LIMF 121700Z 1218/1318 VRB04KT 8000 FEW040"
    },
    {
      "icao": "LIMJ",
      "alert": "OK",
      "vis_m": 9999,
      "fzfg": false,
      "metar_trigger": false,
      "taf_trigger": false,
      "metar": "METAR LIMJ 122150Z 33004KT 290V360 CAVOK 11/08 Q1021",
      "taf": "TAF LIMJ 121700Z 1218/1318 VRB04KT CAVOK"
    },
    {
      "icao": "LIPE",
      "alert": "OK",
      "vis_m": 9999,
      "fzfg": false,
      "metar_trigger": false,
      "taf_trigger": false,
      "metar": "METAR LIPE 122150Z 26003KT CAVOK 10/08 Q1022",
      "taf": "TAF LIPE 121700Z 1218/1318 VRB04KT 9999 FEW020"
    },
    {
      "icao": "LIPH",
      "alert": "OK",
      "vis_m": 7000,
      "fzfg": false,
      "metar_trigger": false,
      "taf_trigger": false,
      "metar": "METAR LIPH 122150Z 04005KT 7000 NSC 11/11 Q1023",
      "taf": "TAF LIPH 121700Z 1218/1318 VRB04KT 9999 FEW030"
    },
    {
      "icao": "LIPQ",
      "alert": "OK",
      "vis_m": 9999,
      "fzfg": false,
      "metar_trigger": false,
      "taf_trigger": false,
      "metar": "METAR LIPQ 122150Z AUTO 34004KT 9999 FEW068/// BKN094/// 11/10 Q1023",
      "taf": "TAF LIPQ 121700Z 1218/1318 VRB05KT 9999 SCT050"
    },
    {
      "icao": "LIPR",
      "alert": "OK",
      "vis_m": 9999,
      "fzfg": false,
      "metar_trigger": false,
      "taf_trigger": false,
      "metar": "METAR LIPR 122150Z VRB01KT 9999 BKN070 11/10 Q1021",
      "taf": "TAF LIPR 121700Z 1218/1318 VRB05KT 9999 SCT040"
    },
    {
      "icao": "LIPX",
      "alert": "OK",
      "vis_m": 9999,
      "fzfg": false,
      "metar_trigger": false,
      "taf_trigger": false,
      "metar": "METAR LIPX 122150Z 03003KT CAVOK 08/07 Q1022",
      "taf": "TAF LIPX 121700Z 1218/1318 VRB04KT 8000 FEW030"
    },
    {
      "icao": "LIPY",
      "alert": "OK",
      "vis_m": 250,
      "fzfg": false,
      "metar_trigger": false,
      "taf_trigger": false,
      "metar": "METAR LIPY 122150Z AUTO 07003KT 040V100 0250 R22/1400U FG BKN002/// BKN100/// 11/11 Q1021",
      "taf": "TAF LIPY 121700Z 1218/1318 VRB05KT 9999 SCT040"
    },
    {
      "icao": "LIPZ",
      "alert": "OK",
      "vis_m": 1000,
      "fzfg": false,
      "metar_trigger": false,
      "taf_trigger": false,
      "metar": "METAR LIPZ 122150Z 03009KT 1000 R04R/P2000N BCFG FEW002 SCT040 10/10 Q1023 NOSIG",
      "taf": "TAF LIPZ 121700Z 1218/1324 VRB05KT 6000 FEW020"
    },
    {
      "icao": "LIRF",
      "alert": "OK",
      "vis_m": 9999,
      "fzfg": false,
      "metar_trigger": false,
      "taf_trigger": false,
      "metar": "METAR LIRF 122150Z 32003KT 9999 R16L/0800U R16R/0500D R25/1500D R34R/0400D MIFG NSC 08/08 Q1020 NOSIG",
      "taf": "TAF LIRF 121700Z 1218/1324 12010KT 9999 SCT030"
    },
    {
      "icao": "LIRN",
      "alert": "OK",
      "vis_m": 9999,
      "fzfg": false,
      "metar_trigger": false,
      "taf_trigger": false,
      "metar": "METAR LIRN 122150Z VRB01KT 9999 FEW020 12/09 Q1021 NOSIG",
      "taf": "TAF LIRN 121700Z 1218/1318 VRB05KT 7000 SCT020"
    },
    {
      "icao": "LIRP",
      "alert": "OK",
      "vis_m": 9999,
      "fzfg": false,
      "metar_trigger": false,
      "taf_trigger": false,
      "metar": "METAR LIRP 122145Z COR VRB03KT 9999 BKN060 10/09 Q1021 NOSIG",
      "taf": "TAF LIRP 121700Z 1218/1318 03005KT 9999 SCT020 BKN060"
    },
    {
      "icao": "LIRZ",
      "alert": "OK",
      "vis_m": 9999,
      "fzfg": false,
      "metar_trigger": false,
      "taf_trigger": false,
      "metar": "METAR LIRZ 122150Z AUTO 35007KT 9999 FEW180/// 08/07 Q1020",
      "taf": "TAF LIRZ 121700Z 1218/1318 VRB05KT 9999 BKN040"
    },
    {
      "icao": "LJLJ",
      "alert": "OK",
      "vis_m": 9999,
      "fzfg": false,
      "metar_trigger": false,
      "taf_trigger": false,
      "metar": "METAR LJLJ 122200Z 25003KT 200V280 9999 FEW037TCU BKN050 BKN065 09/08 Q1022 NOSIG",
      "taf": "TAF LJLJ 121700Z 1218/1318 12005KT 9999 FEW045 BKN060"
    },
    {
      "icao": "LKMT",
      "alert": "OK",
      "vis_m": 9999,
      "fzfg": false,
      "metar_trigger": false,
      "taf_trigger": false,
      "metar": "METAR LKMT 122200Z 13004KT CAVOK 07/06 Q1022 NOSIG",
      "taf": "TAF LKMT 121700Z 1218/1318 22008KT 9999 SCT035"
    },
    {
      "icao": "LKPR",
      "alert": "OK",
      "vis_m": 9999,
      "fzfg": false,
      "metar_trigger": false,
      "taf_trigger": false,
      "metar": "METAR LKPR 122200Z 16007KT CAVOK 03/01 Q1021 NOSIG",
      "taf": "TAF LKPR 122000Z 1221/1403 15005KT CAVOK"
    },
    {
      "icao": "LLBG",
      "alert": "OK",
      "vis_m": 9999,
      "fzfg": false,
      "metar_trigger": false,
      "taf_trigger": false,
      "metar": "METAR LLBG 122150Z VRB03KT 9999 FEW025 13/07 Q1015 NOSIG",
      "taf": "TAF LLBG 121702Z 1218/1318 VRB03KT 9999 FEW015 TX22/1312Z TN09/1304Z"
    },
    {
      "icao": "LMML",
      "alert": "OK",
      "vis_m": 9999,
      "fzfg": false,
      "metar_trigger": false,
      "taf_trigger": false,
      "metar": "METAR LMML 122215Z 24005KT 9999 FEW020 11/10 Q1021 NOSIG",
      "taf": "TAF LMML 121700Z 1218/1318 34006KT 9999 SCT016"
    },
    {
      "icao": "LOWW",
      "alert": "OK",
      "vis_m": 9999,
      "fzfg": false,
      "metar_trigger": false,
      "taf_trigger": false,
      "metar": "METAR LOWW 122150Z 29007KT CAVOK 09/06 Q1023 NOSIG",
      "taf": "TAF LOWW 122015Z 1221/1403 29008KT CAVOK TX17/1314Z TN03/1305Z"
    },
    {
      "icao": "LPFR",
      "alert": "OK",
      "vis_m": 9999,
      "fzfg": false,
      "metar_trigger": false,
      "taf_trigger": false,
      "metar": "METAR LPFR 122200Z 31004KT CAVOK 14/10 Q1023",
      "taf": "TAF LPFR 121700Z 1218/1318 13005KT CAVOK"
    },
    {
      "icao": "LPMA",
      "alert": "OK",
      "vis_m": 9999,
      "fzfg": false,
      "metar_trigger": false,
      "taf_trigger": false,
      "metar": "METAR LPMA 122200Z 02015KT 9999 BKN015 16/11 Q1025",
      "taf": "TAF LPMA 121700Z 1218/1318 02015KT 9999 SCT015"
    },
    {
      "icao": "LPPR",
      "alert": "OK",
      "vis_m": 9999,
      "fzfg": false,
      "metar_trigger": false,
      "taf_trigger": false,
      "metar": "METAR LPPR 122200Z 00000KT 9999 FEW015 09/08 Q1026",
      "taf": "TAF LPPR 121700Z 1218/1318 30007KT 9999 FEW020"
    },
    {
      "icao": "LPPS",
      "alert": "OK",
      "vis_m": 9999,
      "fzfg": false,
      "metar_trigger": false,
      "taf_trigger": false,
      "metar": "METAR LPPS 122200Z 06013KT 020V110 9999 BKN015 16/11 Q1025",
      "taf": "TAF LPPS 121700Z 1218/1324 06015KT 9999 SCT015"
    },
    {
      "icao": "LPPT",
      "alert": "OK",
      "vis_m": 9999,
      "fzfg": false,
      "metar_trigger": false,
      "taf_trigger": false,
      "metar": "METAR LPPT 122200Z 31012KT 9999 FEW010 11/10 Q1025",
      "taf": "TAF LPPT 121700Z 1218/1324 31010KT 9999 FEW030"
    },
    {
      "icao": "LQBK",
      "alert": "OK",
      "vis_m": 9999,
      "fzfg": false,
      "metar_trigger": false,
      "taf_trigger": false,
      "metar": "METAR LQBK 122200Z 16004KT CAVOK 06/04 Q1022 NOSIG",
      "taf": "TAF LQBK 121700Z 1218/1318 15005KT 9999 SCT045 TX17/1313Z TN07/1306Z"
    },
    {
      "icao": "LQSA",
      "alert": "OK",
      "vis_m": 9999,
      "fzfg": false,
      "metar_trigger": false,
      "taf_trigger": false,
      "metar": "METAR LQSA 122200Z 25001KT CAVOK 07/04 Q1022 NOSIG",
      "taf": ""
    },
    {
      "icao": "LQTZ",
      "alert": "OK",
      "vis_m": 8000,
      "fzfg": false,
      "metar_trigger": false,
      "taf_trigger": false,
      "metar": "METAR LQTZ 122200Z 00000KT 8000 FEW060 08/07 Q1022",
      "taf": "TAF LQTZ 121700Z 1218/1318 30005KT 9999 SCT050 TX19/1313Z TN02/1306Z"
    },
    {
      "icao": "LRBC",
      "alert": "OK",
      "vis_m": 9999,
      "fzfg": false,
      "metar_trigger": false,
      "taf_trigger": false,
      "metar": "METAR LRBC 122200Z VRB01KT CAVOK 00/M02 Q1025",
      "taf": "TAF LRBC 122000Z 1221/1306 VRB04KT CAVOK"
    },
    {
      "icao": "LRBS",
      "alert": "OK",
      "vis_m": 9999,
      "fzfg": false,
      "metar_trigger": false,
      "taf_trigger": false,
      "metar": "METAR LRBS 122200Z 00000KT CAVOK 04/02 Q1024 NOSIG",
      "taf": "TAF LRBS 121700Z 1218/1318 02005KT CAVOK"
    },
    {
      "icao": "LRBV",
      "alert": "OK",
      "vis_m": 9999,
      "fzfg": false,
      "metar_trigger": false,
      "taf_trigger": false,
      "metar": "METAR LRBV 122200Z AUTO 19004KT 9999 NCD 03/M01 Q1023",
      "taf": "TAF LRBV 122000Z 1221/1306 VRB04KT CAVOK"
    },
    {
      "icao": "LRCL",
      "alert": "OK",
      "vis_m": 9999,
      "fzfg": false,
      "metar_trigger": false,
      "taf_trigger": false,
      "metar": "METAR LRCL 122200Z 26005KT CAVOK 04/M03 Q1022",
      "taf": "TAF LRCL 122000Z 1221/1306 VRB04KT CAVOK"
    },
    {
      "icao": "LRCV",
      "alert": "OK",
      "vis_m": 9999,
      "fzfg": false,
      "metar_trigger": false,
      "taf_trigger": false,
      "metar": "METAR LRCV 122200Z 04006KT CAVOK 04/03 Q1024",
      "taf": "TAF LRCV 122000Z 1221/1306 06007KT CAVOK"
    },
    {
      "icao": "LRIA",
      "alert": "OK",
      "vis_m": 9999,
      "fzfg": false,
      "metar_trigger": false,
      "taf_trigger": false,
      "metar": "METAR LRIA 122200Z 09005KT CAVOK 06/M02 Q1025",
      "taf": "TAF LRIA 122000Z 1221/1306 VRB04KT CAVOK"
    },
    {
      "icao": "LROP",
      "alert": "OK",
      "vis_m": 9999,
      "fzfg": false,
      "metar_trigger": false,
      "taf_trigger": false,
      "metar": "METAR LROP 122200Z AUTO VRB02KT 9999 FEW250/// 04/01 Q1024 NOSIG",
      "taf": "TAF LROP 121700Z 1218/1318 02005KT CAVOK"
    },
    {
      "icao": "LRSB",
      "alert": "OK",
      "vis_m": 9999,
      "fzfg": false,
      "metar_trigger": false,
      "taf_trigger": false,
      "metar": "METAR LRSB 122200Z 24002KT CAVOK 02/M03 Q1022",
      "taf": "TAF LRSB 121700Z 1218/1318 VRB04KT CAVOK"
    },
    {
      "icao": "LRSM",
      "alert": "OK",
      "vis_m": 9999,
      "fzfg": false,
      "metar_trigger": false,
      "taf_trigger": false,
      "metar": "METAR LRSM 122200Z AUTO 20002KT 9999 NCD 04/00 Q1022",
      "taf": "TAF LRSM 121400Z 1215/1224 VRB04KT CAVOK"
    },
    {
      "icao": "LRSV",
      "alert": "OK",
      "vis_m": 9999,
      "fzfg": false,
      "metar_trigger": false,
      "taf_trigger": false,
      "metar": "METAR LRSV 122200Z 15007KT CAVOK 03/M00 Q1023",
      "taf": "TAF LRSV 122000Z 1221/1306 17005KT CAVOK"
    },
    {
      "icao": "LRTM",
      "alert": "OK",
      "vis_m": 9999,
      "fzfg": false,
      "metar_trigger": false,
      "taf_trigger": false,
      "metar": "METAR LRTM 122200Z AUTO 05003KT 9999 NCD 01/M03 Q1022",
      "taf": "TAF LRTM 121400Z 1215/1224 VRB04KT CAVOK"
    },
    {
      "icao": "LRTR",
      "alert": "OK",
      "vis_m": 9999,
      "fzfg": false,
      "metar_trigger": false,
      "taf_trigger": false,
      "metar": "METAR LRTR 122200Z 07006KT CAVOK 04/02 Q1022 NOSIG",
      "taf": "TAF LRTR 121700Z 1218/1318 VRB04KT CAVOK"
    },
    {
      "icao": "LTAC",
      "alert": "OK",
      "vis_m": 9999,
      "fzfg": false,
      "metar_trigger": false,
      "taf_trigger": false,
      "metar": "METAR LTAC 122150Z VRB01KT CAVOK 01/M08 Q1018 NOSIG RMK RWY21C VRB01KT RWY03L VRB01KT RWY21R VRB01KT RWY03R 00000KT RWY21L 12003KT",
      "taf": "TAF LTAC 121640Z 1218/1318 VRB02KT CAVOK"
    },
    {
      "icao": "LTFM",
      "alert": "OK",
      "vis_m": 9999,
      "fzfg": false,
      "metar_trigger": false,
      "taf_trigger": false,
      "metar": "METAR LTFM 122150Z 03011KT 9999 BKN020 07/03 Q1022 NOSIG RMK RWY17L 03009KT RWY34L 02010KT RWY16R 03010KT RWY36 03010KT RWY18 04008KT",
      "taf": "TAF LTFM 121640Z 1218/1324 04010KT 9999 BKN017"
    },
    {
      "icao": "LUKK",
      "alert": "OK",
      "vis_m": 9999,
      "fzfg": false,
      "metar_trigger": false,
      "taf_trigger": false,
      "metar": "METAR LUKK 122200Z 01002KT CAVOK 04/M00 Q1025 NOSIG",
      "taf": "TAF LUKK 121716Z 1218/1318 VRB04KT CAVOK"
    },
    {
      "icao": "LWOH",
      "alert": "OK",
      "vis_m": null,
      "fzfg": false,
      "metar_trigger": false,
      "taf_trigger": false,
      "metar": "",
      "taf": "TAF LWOH 122030Z 1221/1321 VRB02KT 9999 FEW040"
    },
    {
      "icao": "LWSK",
      "alert": "OK",
      "vis_m": null,
      "fzfg": false,
      "metar_trigger": false,
      "taf_trigger": false,
      "metar": "",
      "taf": "TAF LWSK 122030Z 1221/1321 VRB02KT CAVOK"
    },
    {
      "icao": "LYBE",
      "alert": "OK",
      "vis_m": 9999,
      "fzfg": false,
      "metar_trigger": false,
      "taf_trigger": false,
      "metar": "METAR LYBE 122200Z 10009KT CAVOK 11/01 Q1022 NOSIG",
      "taf": "TAF LYBE 121700Z 1218/1318 07005KT CAVOK TX19/1313Z TN05/1305Z"
    },
    {
      "icao": "LYNI",
      "alert": "OK",
      "vis_m": 9999,
      "fzfg": false,
      "metar_trigger": false,
      "taf_trigger": false,
      "metar": "METAR LYNI 122200Z 05005KT CAVOK 10/03 Q1021 NOSIG",
      "taf": "TAF LYNI 121700Z 1218/1318 07006KT CAVOK TX18/1313Z TN03/1305Z"
    },
    {
      "icao": "LYPG",
      "alert": "OK",
      "vis_m": 9999,
      "fzfg": false,
      "metar_trigger": false,
      "taf_trigger": false,
      "metar": "METAR LYPG 122200Z VRB02KT CAVOK 10/06 Q1020 NOSIG",
      "taf": "TAF LYPG 121700Z 1218/1318 36005KT 9999 SCT090 TX20/1314Z TN07/1305Z"
    },
    {
      "icao": "LZIB",
      "alert": "OK",
      "vis_m": 9999,
      "fzfg": false,
      "metar_trigger": false,
      "taf_trigger": false,
      "metar": "METAR LZIB 122200Z 30006KT CAVOK 11/06 Q1022 NOSIG",
      "taf": "TAF LZIB 121715Z 1218/1318 32009KT CAVOK"
    },
    {
      "icao": "LZKZ",
      "alert": "OK",
      "vis_m": 9999,
      "fzfg": false,
      "metar_trigger": false,
      "taf_trigger": false,
      "metar": "METAR LZKZ 122200Z VRB02KT CAVOK 06/03 Q1022 NOSIG",
      "taf": "TAF LZKZ 121715Z 1218/1318 34005KT CAVOK"
    },
    {
      "icao": "LZTT",
      "alert": "OK",
      "vis_m": 9999,
      "fzfg": false,
      "metar_trigger": false,
      "taf_trigger": false,
      "metar": "METAR LZTT 122200Z 29006KT CAVOK 02/00 Q1022",
      "taf": "TAF LZTT 121715Z 1218/1318 36005KT 9999 FEW050"
    },
    {
      "icao": "OEJN",
      "alert": "OK",
      "vis_m": 9999,
      "fzfg": false,
      "metar_trigger": false,
      "taf_trigger": false,
      "metar": "METAR OEJN 122200Z 34003KT CAVOK 23/17 Q1012 NOSIG",
      "taf": "TAF OEJN 121700Z 1218/1324 03006KT 9999 FEW040"
    },
    {
      "icao": "OEMA",
      "alert": "OK",
      "vis_m": 9999,
      "fzfg": false,
      "metar_trigger": false,
      "taf_trigger": false,
      "metar": "METAR OEMA 122200Z 30008KT CAVOK 23/M02 Q1016 NOSIG",
      "taf": "TAF OEMA 121700Z 1218/1324 30012KT CAVOK"
    },
    {
      "icao": "OJAI",
      "alert": "OK",
      "vis_m": 4000,
      "fzfg": false,
      "metar_trigger": false,
      "taf_trigger": false,
      "metar": "METAR OJAI 122200Z 04002KT 4000 HZ NSC 09/M00 Q1016 NOSIG",
      "taf": ""
    },
    {
      "icao": "OMAA",
      "alert": "OK",
      "vis_m": null,
      "fzfg": false,
      "metar_trigger": false,
      "taf_trigger": false,
      "metar": "",
      "taf": ""
    },
    {
      "icao": "OMDB",
      "alert": "OK",
      "vis_m": null,
      "fzfg": false,
      "metar_trigger": false,
      "taf_trigger": false,
      "metar": "",
      "taf": ""
    },
    {
      "icao": "UAAA",
      "alert": "OK",
      "vis_m": 9999,
      "fzfg": false,
      "metar_trigger": false,
      "taf_trigger": false,
      "metar": "METAR UAAA 122200Z VRB01MPS 9999 NSC M07/M10 Q1032 NOSIG",
      "taf": "TAF UAAA 121702Z 1218/1318 22003MPS 3100 BR FU FEW011 SCT050 TX04/1309Z TNM10/1301Z"
    },
    {
      "icao": "UBBB",
      "alert": "OK",
      "vis_m": 9999,
      "fzfg": false,
      "metar_trigger": false,
      "taf_trigger": false,
      "metar": "METAR UBBB 122200Z 00000KT 9999 FEW022 07/04 Q1028 NOSIG",
      "taf": "TAF UBBB 121702Z 1218/1318 14006KT 9999 SCT020 TX11/1310Z TN03/1301Z"
    },
    {
      "icao": "UDSG",
      "alert": "OK",
      "vis_m": 9999,
      "fzfg": false,
      "metar_trigger": false,
      "taf_trigger": false,
      "metar": "METAR UDSG 122200Z 12010KT 9999 FEW049 M03/M07 Q1023 NOSIG",
      "taf": "TAF UDSG 121658Z 1218/1318 VRB06KT 9999 SCT040"
    },
    {
      "icao": "UDYZ",
      "alert": "OK",
      "vis_m": 9999,
      "fzfg": false,
      "metar_trigger": false,
      "taf_trigger": false,
      "metar": "METAR UDYZ 122200Z VRB01KT 9999 BKN046 03/M03 Q1023 NOSIG",
      "taf": "TAF UDYZ 121700Z 1218/1318 03006KT 9999 FEW040"
    },
    {
      "icao": "UGKO",
      "alert": "OK",
      "vis_m": 9999,
      "fzfg": false,
      "metar_trigger": false,
      "taf_trigger": false,
      "metar": "METAR UGKO 122200Z 08023G33KT CAVOK 09/M02 Q1021 NOSIG",
      "taf": "TAF UGKO 121700Z 1218/1318 08020G33KT CAVOK TX17/1311Z TN09/1303Z"
    }
  ]
}