{
  "ts_utc": "2025-12-30T23:26:52Z",
  "threshold_m": 150,
  "source": "stations_override.txt (ICAO list) + aviationweather.gov (METAR/TAF raw)",
  "station_count": 159,
  "stations": [
    {
      "icao": "BIKF",
      "alert": "OK",
      "vis_m": 9999,
      "fzfg": false,
      "metar_trigger": false,
      "taf_trigger": false,
      "metar": "METAR BIKF 302300Z 26019KT 9999 BKN008 06/05 Q1030",
      "taf": "TAF BIKF 302215Z 3100/0100 27017KT 9999 SCT017 BKN020 TX06/3100Z TNM02/3124Z"
    },
    {
      "icao": "BKPR",
      "alert": "OK",
      "vis_m": null,
      "fzfg": false,
      "metar_trigger": false,
      "taf_trigger": false,
      "metar": "",
      "taf": ""
    },
    {
      "icao": "EBCI",
      "alert": "OK",
      "vis_m": 9999,
      "fzfg": false,
      "metar_trigger": false,
      "taf_trigger": false,
      "metar": "METAR EBCI 302320Z 30002KT CAVOK M01/M02 Q1030 NOSIG",
      "taf": "TAF EBCI 302310Z 3100/0106 27006KT 9999 FEW018 SCT035"
    },
    {
      "icao": "EDDB",
      "alert": "OK",
      "vis_m": 9999,
      "fzfg": false,
      "metar_trigger": false,
      "taf_trigger": false,
      "metar": "METAR EDDB 302320Z AUTO 28009KT CAVOK M03/M05 Q1022 NOSIG",
      "taf": "TAF EDDB 302300Z 3100/3124 31011KT CAVOK"
    },
    {
      "icao": "EDDH",
      "alert": "OK",
      "vis_m": 9999,
      "fzfg": false,
      "metar_trigger": false,
      "taf_trigger": false,
      "metar": "METAR EDDH 302320Z AUTO 22004KT 9999 BKN037 BKN044 M02/M05 Q1023 NOSIG",
      "taf": "TAF EDDH 301700Z 3018/3124 27004KT 9999 BKN030"
    },
    {
      "icao": "EDDK",
      "alert": "OK",
      "vis_m": 9999,
      "fzfg": false,
      "metar_trigger": false,
      "taf_trigger": false,
      "metar": "METAR EDDK 302320Z AUTO VRB01KT 9999 BKN042 M02/M03 Q1029 NOSIG",
      "taf": "TAF EDDK 302300Z 3100/0106 VRB03KT 9999 SCT040"
    },
    {
      "icao": "EDDN",
      "alert": "OK",
      "vis_m": 9999,
      "fzfg": false,
      "metar_trigger": false,
      "taf_trigger": false,
      "metar": "METAR EDDN 302320Z AUTO 19001KT CAVOK M09/M11 Q1026",
      "taf": "TAF EDDN 302300Z 3100/3124 VRB03KT CAVOK"
    },
    {
      "icao": "EDDS",
      "alert": "OK",
      "vis_m": 9999,
      "fzfg": false,
      "metar_trigger": false,
      "taf_trigger": false,
      "metar": "METAR EDDS 302320Z AUTO 26002KT CAVOK M06/M09 Q1026",
      "taf": "TAF EDDS 302300Z 3100/3124 24004KT CAVOK"
    },
    {
      "icao": "EDFH",
      "alert": "OK",
      "vis_m": 9000,
      "fzfg": false,
      "metar_trigger": false,
      "taf_trigger": false,
      "metar": "METAR EDFH 302320Z 24002KT 9000 NSC M04/M05 Q1026",
      "taf": "TAF EDFH 302300Z 3100/3124 23004KT 9999 FEW025"
    },
    {
      "icao": "EDJA",
      "alert": "OK",
      "vis_m": 9999,
      "fzfg": false,
      "metar_trigger": false,
      "taf_trigger": false,
      "metar": "METAR EDJA 302320Z AUTO 15005KT 9999 // FEW140/// M09/M10 Q1024",
      "taf": "TAF EDJA 301700Z 3018/3103 VRB03KT 9999 SCT040"
    },
    {
      "icao": "EDLW",
      "alert": "OK",
      "vis_m": 9999,
      "fzfg": false,
      "metar_trigger": false,
      "taf_trigger": false,
      "metar": "METAR EDLW 302320Z AUTO 23007KT 9999 // SCT040/// M01/M03 Q1027",
      "taf": "TAF EDLW 301700Z 3018/3118 24005KT CAVOK"
    },
    {
      "icao": "EDNY",
      "alert": "OK",
      "vis_m": 9999,
      "fzfg": false,
      "metar_trigger": false,
      "taf_trigger": false,
      "metar": "METAR EDNY 302320Z AUTO VRB01KT 9999 // NCD M04/M06 Q1026",
      "taf": "TAF EDNY 301400Z 3015/3024 04004KT 9999 OVC040"
    },
    {
      "icao": "EDSB",
      "alert": "OK",
      "vis_m": 9999,
      "fzfg": false,
      "metar_trigger": false,
      "taf_trigger": false,
      "metar": "METAR EDSB 302320Z AUTO 05002KT 9999 NCD M04/M05 Q1029",
      "taf": "TAF EDSB 302300Z 3100/3124 03004KT CAVOK"
    },
    {
      "icao": "EETN",
      "alert": "OK",
      "vis_m": 9999,
      "fzfg": false,
      "metar_trigger": false,
      "taf_trigger": false,
      "metar": "METAR EETN 302320Z 01013KT 330V030 9999 FEW025 M05/M12 Q1005",
      "taf": "TAF EETN 301730Z 3018/3118 01015G25KT 9999 DRSN BKN025"
    },
    {
      "icao": "EFTU",
      "alert": "OK",
      "vis_m": 9999,
      "fzfg": false,
      "metar_trigger": false,
      "taf_trigger": false,
      "metar": "METAR EFTU 302320Z AUTO 36003KT CAVOK M09/M13 Q1009",
      "taf": "TAF EFTU 302025Z 3021/3121 35004KT CAVOK"
    },
    {
      "icao": "EGBB",
      "alert": "OK",
      "vis_m": 9999,
      "fzfg": false,
      "metar_trigger": false,
      "taf_trigger": false,
      "metar": "METAR EGBB 302320Z 32004KT CAVOK M01/M02 Q1035",
      "taf": "TAF EGBB 302257Z 3100/3124 34004KT 9999 SCT040"
    },
    {
      "icao": "EGGP",
      "alert": "OK",
      "vis_m": 9999,
      "fzfg": false,
      "metar_trigger": false,
      "taf_trigger": false,
      "metar": "METAR EGGP 302320Z VRB02KT 9999 SCT033 01/M01 Q1036",
      "taf": "TAF EGGP 302300Z 3100/3124 32004KT 9999 SCT035"
    },
    {
      "icao": "EGGW",
      "alert": "OK",
      "vis_m": 9999,
      "fzfg": false,
      "metar_trigger": false,
      "taf_trigger": false,
      "metar": "METAR EGGW 302320Z AUTO 35006KT 9999 OVC027 02/01 Q1033",
      "taf": "TAF EGGW 302302Z 3100/3124 34006KT 9999 FEW040"
    },
    {
      "icao": "EGKK",
      "alert": "OK",
      "vis_m": 9999,
      "fzfg": false,
      "metar_trigger": false,
      "taf_trigger": false,
      "metar": "METAR EGKK 302320Z 01005KT CAVOK 01/00 Q1033",
      "taf": "TAF EGKK 302304Z 3100/0106 34005KT 9999 FEW040"
    },
    {
      "icao": "EGNM",
      "alert": "OK",
      "vis_m": 9999,
      "fzfg": false,
      "metar_trigger": false,
      "taf_trigger": false,
      "metar": "METAR EGNM 302220Z 32006KT 9999 FEW039 M00/M02 Q1034",
      "taf": "TAF EGNM 301655Z 3018/3118 35006KT 9999 SCT035"
    },
    {
      "icao": "EGPD",
      "alert": "OK",
      "vis_m": 9999,
      "fzfg": false,
      "metar_trigger": false,
      "taf_trigger": false,
      "metar": "METAR EGPD 302320Z COR AUTO 28011KT 9999 OVC025 03/M01 Q1032 NOSIG",
      "taf": "TAF EGPD 302255Z 3100/3124 28009KT 9999 SCT030"
    },
    {
      "icao": "EGPF",
      "alert": "OK",
      "vis_m": 800,
      "fzfg": true,
      "metar_trigger": false,
      "taf_trigger": false,
      "metar": "METAR EGPF 302320Z VRB02KT 0800 R23/1000U FZFG FEW002 M05/M05 Q1036",
      "taf": "TAF EGPF 302255Z 3100/3124 VRB02KT 9999 FEW040"
    },
    {
      "icao": "EHBK",
      "alert": "OK",
      "vis_m": 9000,
      "fzfg": false,
      "metar_trigger": false,
      "taf_trigger": false,
      "metar": "METAR EHBK 302255Z AUTO 21005KT 9000 NCD M03/M03 Q1029",
      "taf": "TAF EHBK 302316Z 3100/0106 24003KT 9999 BKN045"
    },
    {
      "icao": "EHEH",
      "alert": "OK",
      "vis_m": 9999,
      "fzfg": false,
      "metar_trigger": false,
      "taf_trigger": false,
      "metar": "METAR EHEH 302255Z AUTO 27003KT 9999 NCD M04/M05 Q1030 BLU",
      "taf": "TAF EHEH 301747Z 3018/3124 31003KT CAVOK"
    },
    {
      "icao": "EKBI",
      "alert": "OK",
      "vis_m": 9999,
      "fzfg": false,
      "metar_trigger": false,
      "taf_trigger": false,
      "metar": "METAR EKBI 302320Z AUTO 27006KT 9999 OVC082/// M02/M04 Q1021",
      "taf": "TAF EKBI 302027Z 3021/3121 VRB02KT CAVOK"
    },
    {
      "icao": "EKCH",
      "alert": "OK",
      "vis_m": 9999,
      "fzfg": false,
      "metar_trigger": false,
      "taf_trigger": false,
      "metar": "METAR EKCH 302320Z AUTO 28008KT 9999 FEW100/// M01/M05 Q1019 NOSIG",
      "taf": "TAF EKCH 302027Z 3021/3121 28005KT CAVOK"
    },
    {
      "icao": "ENAL",
      "alert": "OK",
      "vis_m": 9999,
      "fzfg": false,
      "metar_trigger": false,
      "taf_trigger": false,
      "metar": "METAR ENAL 302320Z AUTO 29004KT 260V040 9999 FEW009/// SCT020/// BKN032/// 04/02 Q1017",
      "taf": "TAF ENAL 302000Z 3021/3106 31012KT 9999 FEW015 BKN030"
    },
    {
      "icao": "ENBR",
      "alert": "OK",
      "vis_m": 9000,
      "fzfg": false,
      "metar_trigger": false,
      "taf_trigger": false,
      "metar": "METAR ENBR 302320Z 30003KT 9000 -RADZ FEW005 BKN012 02/02 Q1019 RMK WIND 1200FT 34018KT",
      "taf": "TAF ENBR 301700Z 3018/3118 14008KT 9999 -SHSN SCT010 BKN020"
    },
    {
      "icao": "ENGM",
      "alert": "OK",
      "vis_m": 9999,
      "fzfg": false,
      "metar_trigger": false,
      "taf_trigger": false,
      "metar": "METAR ENGM 302320Z 27004KT 240V310 9999 -SN NSC M03/M08 Q1012",
      "taf": "TAF ENGM 301700Z 3018/3118 VRB03KT CAVOK"
    },
    {
      "icao": "ENHD",
      "alert": "OK",
      "vis_m": 9999,
      "fzfg": false,
      "metar_trigger": false,
      "taf_trigger": false,
      "metar": "METAR ENHD 302320Z AUTO 32018KT 9999 BKN020/// BKN028/// 07/03 Q1019",
      "taf": "TAF ENHD 301400Z 3015/3023 VRB05KT 9999 FEW015 BKN030"
    },
    {
      "icao": "ENTC",
      "alert": "OK",
      "vis_m": 9999,
      "fzfg": false,
      "metar_trigger": false,
      "taf_trigger": false,
      "metar": "METAR ENTC 302320Z VRB02KT 9999 SCT049 BKN070 M06/M08 Q1011 RMK WIND 2600FT 01021KT",
      "taf": "TAF ENTC 301700Z 3018/3118 01008KT 9999 -SHSN FEW008 SCT030 BKN035"
    },
    {
      "icao": "ENTO",
      "alert": "OK",
      "vis_m": 9999,
      "fzfg": false,
      "metar_trigger": false,
      "taf_trigger": false,
      "metar": "METAR ENTO 302320Z AUTO 21005KT 9999 NCD M01/M08 Q1014",
      "taf": "TAF ENTO 301700Z 3018/3118 28005KT CAVOK"
    },
    {
      "icao": "ENVA",
      "alert": "OK",
      "vis_m": 9999,
      "fzfg": false,
      "metar_trigger": false,
      "taf_trigger": false,
      "metar": "METAR ENVA 302320Z VRB01KT 9999 FEW024 BKN032 M00/M00 Q1010 RMK WIND 670FT 29019KT",
      "taf": ""
    },
    {
      "icao": "ENZV",
      "alert": "OK",
      "vis_m": 9999,
      "fzfg": false,
      "metar_trigger": false,
      "taf_trigger": false,
      "metar": "METAR ENZV 302250Z 08002KT 9999 -SHRA SCT019 BKN024 BKN032 02/01 Q1021",
      "taf": "TAF ENZV 301700Z 3018/3118 35005KT 9999 FEW015 BKN030"
    },
    {
      "icao": "EPGD",
      "alert": "OK",
      "vis_m": 9000,
      "fzfg": false,
      "metar_trigger": false,
      "taf_trigger": false,
      "metar": "METAR EPGD 302300Z 31018KT 9000 -SHSN FEW011TCU BKN020 M02/M06 Q1011 RESHSN",
      "taf": "TAF EPGD 301730Z 3018/3118 33018KT 8000 -SHSN SCT020CB BKN025"
    },
    {
      "icao": "EPKK",
      "alert": "OK",
      "vis_m": 9999,
      "fzfg": false,
      "metar_trigger": false,
      "taf_trigger": false,
      "metar": "METAR EPKK 302300Z 28014KT 9999 SCT020 M04/M08 Q1014",
      "taf": "TAF EPKK 302030Z 3021/3121 27012KT 9999 BKN020"
    },
    {
      "icao": "EPKT",
      "alert": "OK",
      "vis_m": 9999,
      "fzfg": false,
      "metar_trigger": false,
      "taf_trigger": false,
      "metar": "METAR EPKT 302300Z 28011KT 9999 FEW018 M05/M08 Q1014",
      "taf": "TAF EPKT 301730Z 3018/3118 28013KT 9999 FEW005 SCT020"
    },
    {
      "icao": "EPLB",
      "alert": "OK",
      "vis_m": 9999,
      "fzfg": false,
      "metar_trigger": false,
      "taf_trigger": false,
      "metar": "METAR EPLB 302300Z 30016KT 9999 DRSN SCT013 BKN016 M03/M05 Q1005",
      "taf": "TAF EPLB 301730Z 3018/3118 29018KT 8000 BKN020"
    },
    {
      "icao": "EPMO",
      "alert": "OK",
      "vis_m": 9999,
      "fzfg": false,
      "metar_trigger": false,
      "taf_trigger": false,
      "metar": "METAR EPMO 302300Z 30017KT 9999 -SHSN DRSN BKN013 BKN025CB M03/M04 Q1008 RESHSN",
      "taf": ""
    },
    {
      "icao": "EPPO",
      "alert": "OK",
      "vis_m": 9999,
      "fzfg": false,
      "metar_trigger": false,
      "taf_trigger": false,
      "metar": "METAR EPPO 302300Z 29011KT CAVOK M03/M07 Q1016",
      "taf": "TAF EPPO 301730Z 3018/3118 30012KT 9999 FEW040"
    },
    {
      "icao": "EPRA",
      "alert": "OK",
      "vis_m": 9999,
      "fzfg": false,
      "metar_trigger": false,
      "taf_trigger": false,
      "metar": "METAR EPRA 302300Z 31015KT 9999 -SN BKN023 OVC034 M03/M07 Q1008 REBLSN",
      "taf": "TAF EPRA 302030Z 3021/3106 30014KT 8000 -SN BKN025"
    },
    {
      "icao": "EPRZ",
      "alert": "OK",
      "vis_m": 9999,
      "fzfg": false,
      "metar_trigger": false,
      "taf_trigger": false,
      "metar": "METAR EPRZ 302300Z 29017KT 9999 BKN022 M03/M07 Q1008",
      "taf": "TAF EPRZ 301730Z 3018/3118 27013KT 9999 BKN030"
    },
    {
      "icao": "EPSC",
      "alert": "OK",
      "vis_m": 9999,
      "fzfg": false,
      "metar_trigger": false,
      "taf_trigger": false,
      "metar": "METAR EPSC 302300Z 28006KT 9999 FEW042 M04/M08 Q1018",
      "taf": "TAF EPSC 301730Z 3018/3118 30010KT 9999 SCT040"
    },
    {
      "icao": "EPSY",
      "alert": "OK",
      "vis_m": 6000,
      "fzfg": false,
      "metar_trigger": false,
      "taf_trigger": false,
      "metar": "METAR EPSY 302300Z 31007KT 270V330 6000 -SHSN SCT002 SCT014 BKN028CB M03/M03 Q1007",
      "taf": "TAF EPSY 302030Z 3021/3106 31010KT 9999 BKN040"
    },
    {
      "icao": "EPWA",
      "alert": "OK",
      "vis_m": 3700,
      "fzfg": false,
      "metar_trigger": false,
      "taf_trigger": false,
      "metar": "METAR EPWA 302300Z 29012KT 3700 -SHSN BLSN BKN006 BKN012CB M03/M03 Q1008 RESHSN TEMPO 0500 +SHSN BKN003",
      "taf": "TAF EPWA 302030Z 3021/3121 29015KT 4500 -SHSN BKN012 BKN015CB"
    },
    {
      "icao": "EPWR",
      "alert": "OK",
      "vis_m": 9999,
      "fzfg": false,
      "metar_trigger": false,
      "taf_trigger": false,
      "metar": "METAR EPWR 302300Z 29014KT 9999 FEW045 M03/M06 Q1018",
      "taf": "TAF EPWR 302030Z 3021/3121 30014KT CAVOK"
    },
    {
      "icao": "ESGG",
      "alert": "OK",
      "vis_m": 9999,
      "fzfg": false,
      "metar_trigger": false,
      "taf_trigger": false,
      "metar": "METAR ESGG 302320Z 26006KT CAVOK 00/M06 Q1015",
      "taf": "TAF ESGG 302030Z 3021/3121 VRB03KT CAVOK"
    },
    {
      "icao": "ESKN",
      "alert": "OK",
      "vis_m": 9999,
      "fzfg": false,
      "metar_trigger": false,
      "taf_trigger": false,
      "metar": "METAR ESKN 302320Z 29006KT CAVOK M07/M09 Q1012",
      "taf": "TAF ESKN 302030Z 3021/3121 30006KT CAVOK"
    },
    {
      "icao": "ESMS",
      "alert": "OK",
      "vis_m": 9999,
      "fzfg": false,
      "metar_trigger": false,
      "taf_trigger": false,
      "metar": "METAR ESMS 302320Z 29007KT CAVOK M03/M08 Q1018",
      "taf": "TAF ESMS 302027Z 3021/3121 30006KT CAVOK"
    },
    {
      "icao": "ESSA",
      "alert": "OK",
      "vis_m": 9999,
      "fzfg": false,
      "metar_trigger": false,
      "taf_trigger": false,
      "metar": "METAR ESSA 302320Z 29004KT CAVOK M09/M11 Q1011 NOSIG",
      "taf": "TAF ESSA 302030Z 3021/3121 29008KT CAVOK"
    },
    {
      "icao": "EYKA",
      "alert": "OK",
      "vis_m": 9999,
      "fzfg": false,
      "metar_trigger": false,
      "taf_trigger": false,
      "metar": "METAR EYKA 302320Z 34007KT 260V060 CAVOK M03/M08 Q1001",
      "taf": "TAF EYKA 302300Z 3100/3124 32010KT 6000 BKN030"
    },
    {
      "icao": "EYPA",
      "alert": "OK",
      "vis_m": 9999,
      "fzfg": false,
      "metar_trigger": false,
      "taf_trigger": false,
      "metar": "METAR EYPA 302320Z AUTO 02012KT 9999 NCD M03/M09 Q1007",
      "taf": "TAF EYPA 302300Z 3100/3124 01010KT 9000 SCT030"
    },
    {
      "icao": "EYVI",
      "alert": "OK",
      "vis_m": 3000,
      "fzfg": false,
      "metar_trigger": false,
      "taf_trigger": false,
      "metar": "METAR EYVI 302320Z 33013KT 3000 SN OVC011 M05/M06 Q0998 NOSIG",
      "taf": "TAF EYVI 302300Z 3100/3124 32010KT 5000 SN SCT010 BKN020"
    },
    {
      "icao": "GCFV",
      "alert": "OK",
      "vis_m": 9999,
      "fzfg": false,
      "metar_trigger": false,
      "taf_trigger": false,
      "metar": "METAR GCFV 302300Z 24003KT 9999 FEW025 15/12 Q1022",
      "taf": "TAF GCFV 302000Z 3021/3121 30005KT 9999 FEW025 TX21/3114Z TN14/3106Z"
    },
    {
      "icao": "GCLP",
      "alert": "OK",
      "vis_m": 9999,
      "fzfg": false,
      "metar_trigger": false,
      "taf_trigger": false,
      "metar": "METAR GCLP 302300Z 31004KT 290V350 9999 FEW027 17/13 Q1022 NOSIG",
      "taf": "TAF GCLP 302000Z 3021/3121 29003KT 9999 SCT030 TX22/3114Z TN15/3106Z"
    },
    {
      "icao": "GCTS",
      "alert": "OK",
      "vis_m": 9999,
      "fzfg": false,
      "metar_trigger": false,
      "taf_trigger": false,
      "metar": "METAR GCTS 302300Z 35005KT 9999 FEW025 17/11 Q1022 NOSIG",
      "taf": "TAF GCTS 302000Z 3021/3121 30005KT 9999 FEW025 TX24/3114Z TN16/3106Z"
    },
    {
      "icao": "GMAD",
      "alert": "OK",
      "vis_m": 9999,
      "fzfg": false,
      "metar_trigger": false,
      "taf_trigger": false,
      "metar": "METAR GMAD 302300Z 11004KT CAVOK 11/11 Q1022 NOSIG",
      "taf": "TAF GMAD 302300Z 3100/0106 06008KT 8000 SCT020"
    },
    {
      "icao": "GMMN",
      "alert": "OK",
      "vis_m": 9999,
      "fzfg": false,
      "metar_trigger": false,
      "taf_trigger": false,
      "metar": "METAR GMMN 302300Z 21007KT 9999 BKN030 11/09 Q1021 NOSIG",
      "taf": "TAF GMMN 302300Z 3100/0106 21007KT 9999 BKN026"
    },
    {
      "icao": "GMMX",
      "alert": "OK",
      "vis_m": 9999,
      "fzfg": false,
      "metar_trigger": false,
      "taf_trigger": false,
      "metar": "METAR GMMX 302300Z VRB02KT 9999 BKN080 12/10 Q1021 NOSIG",
      "taf": "TAF GMMX 302300Z 3100/0106 22006KT 8000 SCT020 SCT080"
    },
    {
      "icao": "HEGN",
      "alert": "OK",
      "vis_m": 9999,
      "fzfg": false,
      "metar_trigger": false,
      "taf_trigger": false,
      "metar": "METAR HEGN 302300Z 00000KT CAVOK 14/09 Q1019 NOSIG",
      "taf": "TAF HEGN 302300Z 3100/0106 28010KT CAVOK"
    },
    {
      "icao": "HEMA",
      "alert": "OK",
      "vis_m": 9999,
      "fzfg": false,
      "metar_trigger": false,
      "taf_trigger": false,
      "metar": "METAR HEMA 302300Z 25005KT CAVOK 15/09 Q1018 NOSIG",
      "taf": "TAF HEMA 302300Z 3100/0106 25010KT CAVOK"
    },
    {
      "icao": "HESH",
      "alert": "OK",
      "vis_m": 9999,
      "fzfg": false,
      "metar_trigger": false,
      "taf_trigger": false,
      "metar": "METAR HESH 302300Z 26004KT CAVOK 16/10 Q1018 NOSIG",
      "taf": "TAF HESH 302300Z 3100/0106 30010KT CAVOK"
    },
    {
      "icao": "HESX",
      "alert": "OK",
      "vis_m": 9999,
      "fzfg": false,
      "metar_trigger": false,
      "taf_trigger": false,
      "metar": "METAR HESX 302300Z 18008KT CAVOK 14/07 Q1017 NOSIG",
      "taf": "TAF HESX 302300Z 3100/0106 20009KT 6000 NSC"
    },
    {
      "icao": "LATI",
      "alert": "OK",
      "vis_m": 9999,
      "fzfg": false,
      "metar_trigger": false,
      "taf_trigger": false,
      "metar": "METAR LATI 302320Z 31007KT 9999 SCT070 06/M06 Q1010 NOSIG",
      "taf": "TAF LATI 302300Z 3100/3124 30007KT 9999 FEW060 BKN080 TX07/3112Z TNM04/3123Z"
    },
    {
      "icao": "LBPD",
      "alert": "OK",
      "vis_m": 9999,
      "fzfg": false,
      "metar_trigger": false,
      "taf_trigger": false,
      "metar": "METAR LBPD 302300Z AUTO 29012KT 9999 FEW078/// 01/M07 Q1013",
      "taf": "TAF LBPD 302300Z 3100/3124 28016KT 9999 SCT050"
    },
    {
      "icao": "LBSF",
      "alert": "OK",
      "vis_m": 9999,
      "fzfg": false,
      "metar_trigger": false,
      "taf_trigger": false,
      "metar": "METAR LBSF 302300Z AUTO 28011KT 9999 NCD M03/M08 Q1014 NOSIG",
      "taf": "TAF LBSF 302300Z 3100/3124 28012KT 9999 SCT050"
    },
    {
      "icao": "LBWN",
      "alert": "OK",
      "vis_m": 9999,
      "fzfg": false,
      "metar_trigger": false,
      "taf_trigger": false,
      "metar": "METAR LBWN 302300Z AUTO 35010KT 9999 FEW030/// M00/M04 Q1011 REFZRA NOSIG",
      "taf": "TAF LBWN 302300Z 3100/3124 29012KT 9999 SCT020 BKN045"
    },
    {
      "icao": "LCLK",
      "alert": "OK",
      "vis_m": 9000,
      "fzfg": false,
      "metar_trigger": false,
      "taf_trigger": false,
      "metar": "METAR LCLK 302300Z 22009KT 9000 -RA FEW014 SCT050 15/13 Q1011 NOSIG",
      "taf": "TAF LCLK 301730Z 3018/3118 28006KT 9999 FEW025 SCT045"
    },
    {
      "icao": "LCPH",
      "alert": "OK",
      "vis_m": 9999,
      "fzfg": false,
      "metar_trigger": false,
      "taf_trigger": false,
      "metar": "METAR LCPH 302300Z 18008KT 170V240 9999 TS SCT025 FEW030CB BKN050 16/14 Q1011 BECMG 3000 TSRA RMK CB FAR TO NW",
      "taf": "TAF LCPH 301730Z 3018/3118 21009KT 9999 FEW025 SCT040"
    },
    {
      "icao": "LEAL",
      "alert": "OK",
      "vis_m": 9999,
      "fzfg": false,
      "metar_trigger": false,
      "taf_trigger": false,
      "metar": "METAR LEAL 302300Z 25006KT CAVOK 11/06 Q1018 NOSIG",
      "taf": "TAF LEAL 302300Z 3100/3124 29008KT CAVOK TX17/3114Z TN07/3106Z"
    },
    {
      "icao": "LEBB",
      "alert": "OK",
      "vis_m": 9999,
      "fzfg": false,
      "metar_trigger": false,
      "taf_trigger": false,
      "metar": "METAR LEBB 302300Z AUTO 34003KT 270V040 9999 OVC015 09/06 Q1023",
      "taf": "TAF LEBB 302300Z 3100/3124 VRB03KT 9999 SCT010 BKN020 TX10/3114Z TN01/3124Z"
    },
    {
      "icao": "LEBL",
      "alert": "OK",
      "vis_m": 9999,
      "fzfg": false,
      "metar_trigger": false,
      "taf_trigger": false,
      "metar": "METAR LEBL 302300Z 30008KT CAVOK 08/05 Q1017 NOSIG",
      "taf": "TAF LEBL 302300Z 3100/3124 34010KT 9999 FEW020 TX15/3112Z TN07/3107Z"
    },
    {
      "icao": "LECH",
      "alert": "OK",
      "vis_m": 9000,
      "fzfg": false,
      "metar_trigger": false,
      "taf_trigger": false,
      "metar": "METAR LECH 302300Z AUTO 31004KT 9000 NCD 10/01 Q1018",
      "taf": ""
    },
    {
      "icao": "LEMD",
      "alert": "OK",
      "vis_m": 9999,
      "fzfg": false,
      "metar_trigger": false,
      "taf_trigger": false,
      "metar": "METAR LEMD 302300Z 16002KT CAVOK 03/01 Q1020 NOSIG",
      "taf": "TAF LEMD 302300Z 3100/0106 VRB03KT CAVOK TX08/3114Z TNM02/3106Z"
    },
    {
      "icao": "LEMG",
      "alert": "OK",
      "vis_m": 9999,
      "fzfg": false,
      "metar_trigger": false,
      "taf_trigger": false,
      "metar": "METAR LEMG 302300Z 29008KT CAVOK 09/07 Q1020 NOSIG",
      "taf": "TAF LEMG 302300Z 3100/3124 29007KT CAVOK TX18/3114Z TN08/3106Z"
    },
    {
      "icao": "LEVC",
      "alert": "OK",
      "vis_m": 9999,
      "fzfg": false,
      "metar_trigger": false,
      "taf_trigger": false,
      "metar": "METAR LEVC 302300Z 26007KT CAVOK 06/05 Q1018 NOSIG",
      "taf": "TAF LEVC 302300Z 3100/3124 29006KT 9999 FEW020 TX17/3114Z TN05/3106Z"
    },
    {
      "icao": "LEXJ",
      "alert": "OK",
      "vis_m": 7000,
      "fzfg": false,
      "metar_trigger": false,
      "taf_trigger": false,
      "metar": "METAR LEXJ 302300Z AUTO 10005KT 060V140 7000 OVC015 09/06 Q1023",
      "taf": "TAF LEXJ 302000Z 3021/3121 VRB03KT 9999 SCT015 BKN035 TX10/3115Z TN07/3108Z"
    },
    {
      "icao": "LEZG",
      "alert": "OK",
      "vis_m": 9999,
      "fzfg": false,
      "metar_trigger": false,
      "taf_trigger": false,
      "metar": "METAR LEZG 302300Z 27012KT CAVOK 07/05 Q1019 NOSIG",
      "taf": "TAF LEZG 302300Z 3100/3124 29010KT 9999 FEW020 TX12/3114Z TN05/3106Z"
    },
    {
      "icao": "LEZL",
      "alert": "OK",
      "vis_m": 4000,
      "fzfg": false,
      "metar_trigger": false,
      "taf_trigger": false,
      "metar": "METAR LEZL 302300Z VRB01KT 4000 0500NW R27/P2000 R09/0400D BCFG FEW003 07/07 Q1021 NOSIG",
      "taf": ""
    },
    {
      "icao": "LFBD",
      "alert": "OK",
      "vis_m": 9999,
      "fzfg": false,
      "metar_trigger": false,
      "taf_trigger": false,
      "metar": "METAR LFBD 302300Z AUTO 04005KT CAVOK M01/M03 Q1024 TEMPO 3000 BR",
      "taf": "TAF LFBD 301700Z 3018/3124 VRB03KT CAVOK TX05/3114Z TNM03/3106Z"
    },
    {
      "icao": "LFLL",
      "alert": "OK",
      "vis_m": 9999,
      "fzfg": false,
      "metar_trigger": false,
      "taf_trigger": false,
      "metar": "METAR LFLL 302300Z VRB03KT CAVOK M02/M04 Q1023 NOSIG",
      "taf": "TAF LFLL 302300Z 3100/0106 36005KT CAVOK"
    },
    {
      "icao": "LFLS",
      "alert": "OK",
      "vis_m": 9999,
      "fzfg": false,
      "metar_trigger": false,
      "taf_trigger": false,
      "metar": "METAR LFLS 302300Z AUTO 36007KT CAVOK M03/M04 Q1022",
      "taf": ""
    },
    {
      "icao": "LFMN",
      "alert": "OK",
      "vis_m": 9999,
      "fzfg": false,
      "metar_trigger": false,
      "taf_trigger": false,
      "metar": "METAR LFMN 302300Z 33011KT 9999 SCT038 08/02 Q1014 NOSIG",
      "taf": "TAF LFMN 302000Z 3021/0103 33010KT CAVOK"
    },
    {
      "icao": "LFOB",
      "alert": "OK",
      "vis_m": 9999,
      "fzfg": false,
      "metar_trigger": false,
      "taf_trigger": false,
      "metar": "METAR LFOB 302300Z AUTO 36008KT CAVOK M00/M01 Q1031",
      "taf": ""
    },
    {
      "icao": "LFPO",
      "alert": "OK",
      "vis_m": 9999,
      "fzfg": false,
      "metar_trigger": false,
      "taf_trigger": false,
      "metar": "METAR LFPO 302300Z AUTO 03007KT CAVOK 00/M02 Q1030",
      "taf": "TAF LFPO 301700Z 3018/3124 01005KT CAVOK"
    },
    {
      "icao": "LFSB",
      "alert": "OK",
      "vis_m": 8000,
      "fzfg": true,
      "metar_trigger": false,
      "taf_trigger": false,
      "metar": "METAR LFSB 302300Z AUTO VRB02KT 8000 NSC M04/M05 Q1026 TEMPO 0500 FZFG VV///",
      "taf": "TAF LFSB 302300Z 3100/3124 31003KT 4000 BR NSC"
    },
    {
      "icao": "LGAV",
      "alert": "OK",
      "vis_m": 9999,
      "fzfg": false,
      "metar_trigger": false,
      "taf_trigger": false,
      "metar": "METAR LGAV 302320Z 35002KT 9999 FEW025 BKN045 11/07 Q1007 NOSIG",
      "taf": "TAF LGAV 302300Z 3100/3124 35015KT 9999 SCT025 BKN070"
    },
    {
      "icao": "LGTS",
      "alert": "OK",
      "vis_m": 9999,
      "fzfg": false,
      "metar_trigger": false,
      "taf_trigger": false,
      "metar": "METAR LGTS 302320Z 36017KT 9999 FEW025 06/M03 Q1011 NOSIG",
      "taf": "TAF LGTS 302300Z 3100/3124 34015G25KT 9999 SCT040"
    },
    {
      "icao": "LHBP",
      "alert": "OK",
      "vis_m": 9999,
      "fzfg": false,
      "metar_trigger": false,
      "taf_trigger": false,
      "metar": "METAR LHBP 302300Z 31017KT CAVOK M02/M06 Q1016 NOSIG",
      "taf": "TAF LHBP 302315Z 3100/3124 31012KT CAVOK"
    },
    {
      "icao": "LHDC",
      "alert": "OK",
      "vis_m": 9999,
      "fzfg": false,
      "metar_trigger": false,
      "taf_trigger": false,
      "metar": "METAR LHDC 302245Z AUTO 28004KT 240V320 CAVOK M05/M09 Q1014",
      "taf": "TAF LHDC 301415Z 3015/3024 36010KT CAVOK"
    },
    {
      "icao": "LIBD",
      "alert": "OK",
      "vis_m": 9999,
      "fzfg": false,
      "metar_trigger": false,
      "taf_trigger": false,
      "metar": "METAR LIBD 302320Z 01010KT 330V040 CAVOK 09/M02 Q1014",
      "taf": "TAF LIBD 302300Z 3100/3124 36015KT 9999 FEW050"
    },
    {
      "icao": "LIBG",
      "alert": "OK",
      "vis_m": null,
      "fzfg": false,
      "metar_trigger": false,
      "taf_trigger": false,
      "metar": "",
      "taf": "TAF LIBG 301700Z 3018/3103 33007KT CAVOK"
    },
    {
      "icao": "LIBP",
      "alert": "OK",
      "vis_m": 9999,
      "fzfg": false,
      "metar_trigger": false,
      "taf_trigger": false,
      "metar": "METAR LIBP 302320Z AUTO 05013KT 9999 OVC061/// 09/M03 Q1018",
      "taf": "TAF LIBP 302300Z 3100/3124 04012KT 9999 SCT045"
    },
    {
      "icao": "LIBR",
      "alert": "OK",
      "vis_m": 9999,
      "fzfg": false,
      "metar_trigger": false,
      "taf_trigger": false,
      "metar": "METAR LIBR 302320Z 02012KT 9999 BKN040 11/05 Q1011",
      "taf": "TAF LIBR 302300Z 3100/3124 01016KT 9999 SCT020"
    },
    {
      "icao": "LICA",
      "alert": "OK",
      "vis_m": 9999,
      "fzfg": false,
      "metar_trigger": false,
      "taf_trigger": false,
      "metar": "METAR LICA 302320Z AUTO 05004KT 9999 -RA OVC057/// 09/08 Q1011",
      "taf": "TAF LICA 302300Z 3100/3124 08010KT 9999 FEW020 SCT060"
    },
    {
      "icao": "LICC",
      "alert": "OK",
      "vis_m": 9999,
      "fzfg": false,
      "metar_trigger": false,
      "taf_trigger": false,
      "metar": "METAR LICC 302320Z 20009KT CAVOK 09/06 Q1011",
      "taf": "TAF LICC 302300Z 3100/3124 29010KT 9999 FEW050"
    },
    {
      "icao": "LICJ",
      "alert": "OK",
      "vis_m": 9999,
      "fzfg": false,
      "metar_trigger": false,
      "taf_trigger": false,
      "metar": "METAR LICJ 302320Z 19005KT 150V220 9999 -RA SCT050 13/10 Q1013",
      "taf": "TAF LICJ 302300Z 3100/3124 28010KT 9999 SCT010 SCT040"
    },
    {
      "icao": "LIMC",
      "alert": "OK",
      "vis_m": 9999,
      "fzfg": false,
      "metar_trigger": false,
      "taf_trigger": false,
      "metar": "METAR LIMC 302320Z 36005KT 9999 SCT035 03/01 Q1019 NOSIG",
      "taf": "TAF LIMC 302300Z 3100/0106 03006KT 9999 BKN030"
    },
    {
      "icao": "LIME",
      "alert": "OK",
      "vis_m": 9999,
      "fzfg": false,
      "metar_trigger": false,
      "taf_trigger": false,
      "metar": "METAR LIME 302320Z VRB02KT 9999 BKN040 03/01 Q1019 NOSIG",
      "taf": "TAF LIME 302300Z 3100/3124 VRB05KT 9999 BKN030"
    },
    {
      "icao": "LIMF",
      "alert": "OK",
      "vis_m": 2500,
      "fzfg": false,
      "metar_trigger": false,
      "taf_trigger": false,
      "metar": "METAR LIMF 302320Z 27002KT 2500 BR SCT010 BKN030 04/02 Q1019",
      "taf": "TAF LIMF 302300Z 3100/3124 VRB05KT 1500 BR SCT010"
    },
    {
      "icao": "LIMJ",
      "alert": "OK",
      "vis_m": 9000,
      "fzfg": false,
      "metar_trigger": false,
      "taf_trigger": false,
      "metar": "METAR LIMJ 302320Z 03020KT 9000 NSC 06/02 Q1016",
      "taf": "TAF LIMJ 302300Z 3100/3124 02016KT 9999 FEW020"
    },
    {
      "icao": "LIPE",
      "alert": "OK",
      "vis_m": 3000,
      "fzfg": false,
      "metar_trigger": false,
      "taf_trigger": false,
      "metar": "METAR LIPE 302320Z 03002KT 3000 BR BKN054 BKN070 03/03 Q1019",
      "taf": "TAF LIPE 302300Z 3100/3124 VRB04KT 3000 BR BKN020"
    },
    {
      "icao": "LIPH",
      "alert": "OK",
      "vis_m": 9999,
      "fzfg": false,
      "metar_trigger": false,
      "taf_trigger": false,
      "metar": "METAR LIPH 302320Z AUTO 01004KT 9999 NCD 02/M04 Q1020",
      "taf": "TAF LIPH 302300Z 3100/3124 VRB04KT 9999 SCT045"
    },
    {
      "icao": "LIPQ",
      "alert": "OK",
      "vis_m": 9999,
      "fzfg": false,
      "metar_trigger": false,
      "taf_trigger": false,
      "metar": "METAR LIPQ 302320Z AUTO 05004KT 9999 NCD M02/M06 Q1020",
      "taf": "TAF LIPQ 302300Z 3100/3124 VRB05KT 9999 SCT050"
    },
    {
      "icao": "LIPR",
      "alert": "OK",
      "vis_m": 3600,
      "fzfg": false,
      "metar_trigger": false,
      "taf_trigger": false,
      "metar": "METAR LIPR 302320Z AUTO VRB01KT 3600 BR OVC054/// 04/03 Q1018",
      "taf": "TAF LIPR 302300Z 3100/3124 29005KT 3000 BR BKN020"
    },
    {
      "icao": "LIPX",
      "alert": "OK",
      "vis_m": 9999,
      "fzfg": false,
      "metar_trigger": false,
      "taf_trigger": false,
      "metar": "METAR LIPX 302320Z 06006KT 9999 SCT040 04/M03 Q1019",
      "taf": "TAF LIPX 302300Z 3100/3124 VRB05KT 9999 SCT040"
    },
    {
      "icao": "LIPY",
      "alert": "OK",
      "vis_m": 9999,
      "fzfg": false,
      "metar_trigger": false,
      "taf_trigger": false,
      "metar": "METAR LIPY 302320Z AUTO 13003KT 100V160 9999 BKN056/// OVC081/// 07/M00 Q1019",
      "taf": "TAF LIPY 302300Z 3100/3124 13006KT 6000 SCT045"
    },
    {
      "icao": "LIPZ",
      "alert": "OK",
      "vis_m": 9999,
      "fzfg": false,
      "metar_trigger": false,
      "taf_trigger": false,
      "metar": "METAR LIPZ 302320Z 02007KT CAVOK 01/M04 Q1020 NOSIG",
      "taf": "TAF LIPZ 302300Z 3100/0106 03006KT 9999 SCT040"
    },
    {
      "icao": "LIRF",
      "alert": "OK",
      "vis_m": 9999,
      "fzfg": false,
      "metar_trigger": false,
      "taf_trigger": false,
      "metar": "METAR LIRF 302320Z 05005KT CAVOK 06/03 Q1013 NOSIG",
      "taf": "TAF LIRF 302300Z 3100/0106 03012KT 9999 SCT030"
    },
    {
      "icao": "LIRN",
      "alert": "OK",
      "vis_m": 9999,
      "fzfg": false,
      "metar_trigger": false,
      "taf_trigger": false,
      "metar": "METAR LIRN 302320Z 03011KT CAVOK 09/03 Q1013 NOSIG",
      "taf": "TAF LIRN 302300Z 3100/3124 05015KT CAVOK"
    },
    {
      "icao": "LIRP",
      "alert": "OK",
      "vis_m": 9999,
      "fzfg": false,
      "metar_trigger": false,
      "taf_trigger": false,
      "metar": "METAR LIRP 302315Z 12008KT CAVOK 05/03 Q1014 NOSIG",
      "taf": "TAF LIRP 302300Z 3100/3124 09011KT 9999 FEW050"
    },
    {
      "icao": "LIRZ",
      "alert": "OK",
      "vis_m": 9999,
      "fzfg": false,
      "metar_trigger": false,
      "taf_trigger": false,
      "metar": "METAR LIRZ 302320Z AUTO 06005KT 030V090 9999 NCD 06/M01 Q1016",
      "taf": "TAF LIRZ 302300Z 3100/3124 04010KT CAVOK"
    },
    {
      "icao": "LJLJ",
      "alert": "OK",
      "vis_m": 9999,
      "fzfg": false,
      "metar_trigger": false,
      "taf_trigger": false,
      "metar": "METAR LJLJ 302300Z 00000KT 9999 MIFG BKN050 M04/M05 Q1020 NOSIG",
      "taf": "TAF LJLJ 302300Z 3100/0100 VRB02KT 9999 SCT045 BKN075"
    },
    {
      "icao": "LKMT",
      "alert": "OK",
      "vis_m": 9999,
      "fzfg": false,
      "metar_trigger": false,
      "taf_trigger": false,
      "metar": "METAR LKMT 302300Z 31007KT 9999 FEW032 SCT049 M03/M08 Q1017 NOSIG",
      "taf": "TAF LKMT 302300Z 3100/3124 32008KT 9999 SCT020"
    },
    {
      "icao": "LKPR",
      "alert": "OK",
      "vis_m": 9999,
      "fzfg": false,
      "metar_trigger": false,
      "taf_trigger": false,
      "metar": "METAR LKPR 302300Z 27010KT 9999 BKN032 M03/M07 Q1021 NOSIG",
      "taf": "TAF LKPR 302300Z 3100/0106 29013KT 9999 SCT025 BKN040"
    },
    {
      "icao": "LLBG",
      "alert": "OK",
      "vis_m": 9999,
      "fzfg": false,
      "metar_trigger": false,
      "taf_trigger": false,
      "metar": "METAR LLBG 302320Z 14007KT CAVOK 13/07 Q1016 NOSIG",
      "taf": "TAF LLBG 302311Z 3100/3124 15007KT CAVOK"
    },
    {
      "icao": "LMML",
      "alert": "OK",
      "vis_m": 9999,
      "fzfg": false,
      "metar_trigger": false,
      "taf_trigger": false,
      "metar": "METAR LMML 302315Z 30010KT 9999 VCTS SCT030TCU 13/10 Q1013 NOSIG",
      "taf": "TAF LMML 302300Z 3100/3124 30012KT 9999 SCT020TCU"
    },
    {
      "icao": "LOWW",
      "alert": "OK",
      "vis_m": 9999,
      "fzfg": false,
      "metar_trigger": false,
      "taf_trigger": false,
      "metar": "METAR LOWW 302320Z 31018KT 9999 FEW048 M01/M08 Q1020 NOSIG",
      "taf": "TAF LOWW 302315Z 3100/0106 31015KT CAVOK TX02/0106Z TNM03/3106Z"
    },
    {
      "icao": "LPFR",
      "alert": "OK",
      "vis_m": 9999,
      "fzfg": false,
      "metar_trigger": false,
      "taf_trigger": false,
      "metar": "METAR LPFR 302300Z 03007KT CAVOK 11/10 Q1020",
      "taf": "TAF LPFR 302300Z 3100/3124 03007KT CAVOK"
    },
    {
      "icao": "LPMA",
      "alert": "OK",
      "vis_m": 9999,
      "fzfg": false,
      "metar_trigger": false,
      "taf_trigger": false,
      "metar": "METAR LPMA 302300Z VRB02KT 9999 SCT013 18/15 Q1019",
      "taf": "TAF LPMA 302300Z 3100/3124 VRB05KT 9999 SCT013"
    },
    {
      "icao": "LPPR",
      "alert": "OK",
      "vis_m": 7000,
      "fzfg": false,
      "metar_trigger": false,
      "taf_trigger": false,
      "metar": "METAR LPPR 302300Z 09005KT 060V120 7000 NSC 08/07 Q1021",
      "taf": "TAF LPPR 302300Z 3100/3124 09005KT CAVOK"
    },
    {
      "icao": "LPPS",
      "alert": "OK",
      "vis_m": 9999,
      "fzfg": false,
      "metar_trigger": false,
      "taf_trigger": false,
      "metar": "METAR LPPS 302300Z 27005KT 9999 SCT010 18/16 Q1019",
      "taf": "TAF LPPS 302300Z 3100/0106 27005KT 9999 SCT010"
    },
    {
      "icao": "LPPT",
      "alert": "OK",
      "vis_m": 9999,
      "fzfg": false,
      "metar_trigger": false,
      "taf_trigger": false,
      "metar": "METAR LPPT 302300Z VRB02KT CAVOK 08/07 Q1020",
      "taf": "TAF LPPT 302300Z 3100/0106 05005KT 5000 BR SCT003"
    },
    {
      "icao": "LQBK",
      "alert": "OK",
      "vis_m": 9999,
      "fzfg": false,
      "metar_trigger": false,
      "taf_trigger": false,
      "metar": "METAR LQBK 302300Z 15004KT CAVOK M06/M08 Q1021 NOSIG",
      "taf": "TAF LQBK 302300Z 3100/3124 16005KT CAVOK TX01/3113Z TNM08/3105Z"
    },
    {
      "icao": "LQSA",
      "alert": "OK",
      "vis_m": 9999,
      "fzfg": false,
      "metar_trigger": false,
      "taf_trigger": false,
      "metar": "METAR LQSA 302300Z VRB03KT CAVOK M07/M08 Q1018",
      "taf": "TAF LQSA 302300Z 3100/3124 29005KT 9999 SCT040 TXM00/3113Z TNM10/3106Z"
    },
    {
      "icao": "LQTZ",
      "alert": "OK",
      "vis_m": 8000,
      "fzfg": false,
      "metar_trigger": false,
      "taf_trigger": false,
      "metar": "METAR LQTZ 302300Z VRB02KT 8000 NSC M07/M08 Q1020",
      "taf": "TAF LQTZ 302300Z 3100/3124 27006KT CAVOK TX02/3113Z TNM09/3105Z"
    },
    {
      "icao": "LRBC",
      "alert": "OK",
      "vis_m": 9999,
      "fzfg": false,
      "metar_trigger": false,
      "taf_trigger": false,
      "metar": "METAR LRBC 302300Z 17005KT CAVOK M03/M12 Q1008",
      "taf": "TAF LRBC 302000Z 3021/3106 VRB04KT 9999 BKN045"
    },
    {
      "icao": "LRBS",
      "alert": "OK",
      "vis_m": 9999,
      "fzfg": false,
      "metar_trigger": false,
      "taf_trigger": false,
      "metar": "METAR LRBS 302300Z 28003KT 240V310 CAVOK M03/M10 Q1012 NOSIG",
      "taf": "TAF LRBS 301700Z 3018/3118 02006KT CAVOK"
    },
    {
      "icao": "LRBV",
      "alert": "OK",
      "vis_m": 9999,
      "fzfg": false,
      "metar_trigger": false,
      "taf_trigger": false,
      "metar": "METAR LRBV 302300Z AUTO 28010KT 250V310 9999 SCT026/// M05/M11 Q1009 RESG",
      "taf": "TAF LRBV 302000Z 3021/3106 28008KT 9999 SCT050"
    },
    {
      "icao": "LRCL",
      "alert": "OK",
      "vis_m": 9999,
      "fzfg": false,
      "metar_trigger": false,
      "taf_trigger": false,
      "metar": "METAR LRCL 302300Z 25009KT CAVOK M06/M11 Q1011",
      "taf": "TAF LRCL 302000Z 3021/3106 27007KT 9999 SCT060"
    },
    {
      "icao": "LRCV",
      "alert": "OK",
      "vis_m": 9999,
      "fzfg": false,
      "metar_trigger": false,
      "taf_trigger": false,
      "metar": "METAR LRCV 302300Z 28007KT CAVOK M05/M08 Q1014",
      "taf": "TAF LRCV 302000Z 3021/3106 30008KT CAVOK"
    },
    {
      "icao": "LRIA",
      "alert": "OK",
      "vis_m": 9999,
      "fzfg": false,
      "metar_trigger": false,
      "taf_trigger": false,
      "metar": "METAR LRIA 302300Z 23008KT 200V260 CAVOK M03/M11 Q1006",
      "taf": "TAF LRIA 302000Z 3021/3106 26008KT CAVOK"
    },
    {
      "icao": "LROP",
      "alert": "OK",
      "vis_m": 9999,
      "fzfg": false,
      "metar_trigger": false,
      "taf_trigger": false,
      "metar": "METAR LROP 302300Z VRB01KT CAVOK M05/M11 Q1012 NOSIG",
      "taf": "TAF LROP 301700Z 3018/3118 02008KT CAVOK"
    },
    {
      "icao": "LRSB",
      "alert": "OK",
      "vis_m": 9999,
      "fzfg": false,
      "metar_trigger": false,
      "taf_trigger": false,
      "metar": "METAR LRSB 302300Z 29009KT CAVOK M05/M11 Q1011",
      "taf": "TAF LRSB 301700Z 3018/3118 01008KT 9999 BKN040"
    },
    {
      "icao": "LRSM",
      "alert": "OK",
      "vis_m": 9999,
      "fzfg": false,
      "metar_trigger": false,
      "taf_trigger": false,
      "metar": "METAR LRSM 302300Z AUTO 24009KT 9999 BKN050/// M05/M10 Q1012",
      "taf": "TAF LRSM 301400Z 3015/3024 29008KT 9999 BKN040"
    },
    {
      "icao": "LRSV",
      "alert": "OK",
      "vis_m": 9999,
      "fzfg": false,
      "metar_trigger": false,
      "taf_trigger": false,
      "metar": "METAR LRSV 302300Z 25012KT CAVOK M06/M12 Q1004",
      "taf": "TAF LRSV 302000Z 3021/3106 26010KT CAVOK"
    },
    {
      "icao": "LRTM",
      "alert": "OK",
      "vis_m": 9999,
      "fzfg": false,
      "metar_trigger": false,
      "taf_trigger": false,
      "metar": "METAR LRTM 302300Z AUTO 22007KT 9999 R25////// NCD M09/M11 Q1011",
      "taf": "TAF LRTM 301400Z 3015/3024 30012KT 5000 -SN SCT025 BKN040"
    },
    {
      "icao": "LRTR",
      "alert": "OK",
      "vis_m": 9999,
      "fzfg": false,
      "metar_trigger": false,
      "taf_trigger": false,
      "metar": "METAR LRTR 302300Z VRB01KT CAVOK M09/M11 Q1016",
      "taf": "TAF LRTR 301700Z 3018/3118 30009KT CAVOK"
    },
    {
      "icao": "LTAC",
      "alert": "OK",
      "vis_m": 2400,
      "fzfg": false,
      "metar_trigger": false,
      "taf_trigger": false,
      "metar": "METAR LTAC 302250Z 15004KT 110V180 2400 -SN BR SCT005 BKN020 BKN070 00/M00 Q1004 BECMG 4000",
      "taf": "TAF LTAC 302240Z 3100/3124 VRB02KT 9999 SCT040 BKN100"
    },
    {
      "icao": "LTFM",
      "alert": "OK",
      "vis_m": 9999,
      "fzfg": false,
      "metar_trigger": false,
      "taf_trigger": false,
      "metar": "METAR LTFM 302250Z 36015KT 9999 BKN025 05/M01 Q1010 NOSIG RMK RWY17L 35013KT RWY34L 36016KT RWY16R 36014KT RWY36 01013KT RWY18 01013KT",
      "taf": "TAF LTFM 302240Z 3100/0106 35015KT 9999 SCT025"
    },
    {
      "icao": "LUKK",
      "alert": "OK",
      "vis_m": 9999,
      "fzfg": false,
      "metar_trigger": false,
      "taf_trigger": false,
      "metar": "METAR LUKK 302300Z 28012KT CAVOK M06/M10 Q1005 NOSIG",
      "taf": "TAF LUKK 302318Z 3100/3124 29012KT 9999 SCT035"
    },
    {
      "icao": "LWOH",
      "alert": "OK",
      "vis_m": null,
      "fzfg": false,
      "metar_trigger": false,
      "taf_trigger": false,
      "metar": "",
      "taf": "TAF LWOH 302020Z 3021/3121 33010KT 9999 SCT040 BKN070"
    },
    {
      "icao": "LWSK",
      "alert": "OK",
      "vis_m": 9999,
      "fzfg": false,
      "metar_trigger": false,
      "taf_trigger": false,
      "metar": "METAR LWSK 302320Z 36017KT 9999 FEW045 BKN080 01/M10 Q1016 NOSIG",
      "taf": "TAF LWSK 302020Z 3021/3121 01015KT 9999 BKN050 BKN070"
    },
    {
      "icao": "LYBE",
      "alert": "OK",
      "vis_m": 9999,
      "fzfg": false,
      "metar_trigger": false,
      "taf_trigger": false,
      "metar": "METAR LYBE 302300Z 25009KT CAVOK M03/M06 Q1019 NOSIG",
      "taf": "TAF LYBE 302300Z 3100/3124 25010KT CAVOK TX00/3112Z TNM06/3106Z"
    },
    {
      "icao": "LYNI",
      "alert": "OK",
      "vis_m": 9999,
      "fzfg": false,
      "metar_trigger": false,
      "taf_trigger": false,
      "metar": "METAR LYNI 302300Z 32007KT 290V010 CAVOK M03/M08 Q1017 NOSIG",
      "taf": "TAF LYNI 302300Z 3100/3124 28008KT 9999 SCT040 TXM00/3112Z TNM05/3103Z"
    },
    {
      "icao": "LYPG",
      "alert": "OK",
      "vis_m": 9999,
      "fzfg": false,
      "metar_trigger": false,
      "taf_trigger": false,
      "metar": "METAR LYPG 302300Z 36015KT CAVOK 04/M15 Q1014 NOSIG",
      "taf": "TAF LYPG 302300Z 3100/3124 01015G25KT CAVOK TX07/3112Z TN02/3105Z"
    },
    {
      "icao": "LZIB",
      "alert": "OK",
      "vis_m": 9999,
      "fzfg": false,
      "metar_trigger": false,
      "taf_trigger": false,
      "metar": "METAR LZIB 302300Z 31014KT 9999 -SHSN FEW020 SCT045 M01/M07 Q1019 NOSIG",
      "taf": "TAF LZIB 302315Z 3100/0100 31012KT 9999 FEW035"
    },
    {
      "icao": "LZKZ",
      "alert": "OK",
      "vis_m": 9999,
      "fzfg": false,
      "metar_trigger": false,
      "taf_trigger": false,
      "metar": "METAR LZKZ 302300Z 31010KT 290V010 CAVOK M02/M10 Q1011 NOSIG",
      "taf": "TAF LZKZ 302315Z 3100/0100 30009KT 9999 FEW045"
    },
    {
      "icao": "LZTT",
      "alert": "OK",
      "vis_m": 9999,
      "fzfg": false,
      "metar_trigger": false,
      "taf_trigger": false,
      "metar": "METAR LZTT 302300Z VRB04KT 9999 BKN048 M06/M13 Q1009",
      "taf": "TAF LZTT 302315Z 3100/0100 26009KT 9999 -SN FEW012 BKN040"
    },
    {
      "icao": "OEJN",
      "alert": "OK",
      "vis_m": 9999,
      "fzfg": false,
      "metar_trigger": false,
      "taf_trigger": false,
      "metar": "METAR OEJN 302300Z 36006KT CAVOK 20/09 Q1015 NOSIG",
      "taf": "TAF OEJN 302300Z 3100/0106 VRB03KT 7000 NSC"
    },
    {
      "icao": "OEMA",
      "alert": "OK",
      "vis_m": 9999,
      "fzfg": false,
      "metar_trigger": false,
      "taf_trigger": false,
      "metar": "METAR OEMA 302300Z VRB03KT CAVOK 15/M03 Q1021 NOSIG",
      "taf": "TAF OEMA 302300Z 3100/0106 11008KT CAVOK"
    },
    {
      "icao": "OJAI",
      "alert": "OK",
      "vis_m": 3500,
      "fzfg": false,
      "metar_trigger": false,
      "taf_trigger": false,
      "metar": "METAR OJAI 302300Z 00000KT 3500 BR NSC 05/04 Q1020 NOSIG",
      "taf": "TAF OJAI 302247Z 3100/0106 VRB02KT 4000 BR FEW030"
    },
    {
      "icao": "OMAA",
      "alert": "OK",
      "vis_m": 9999,
      "fzfg": false,
      "metar_trigger": false,
      "taf_trigger": false,
      "metar": "METAR OMAA 302300Z 30014KT 9999 FEW045 21/10 Q1016 NOSIG",
      "taf": "TAF OMAA 301700Z 3018/0100 31013KT 8000 FEW040"
    },
    {
      "icao": "OMDB",
      "alert": "OK",
      "vis_m": 9999,
      "fzfg": false,
      "metar_trigger": false,
      "taf_trigger": false,
      "metar": "METAR OMDB 302300Z 30019KT CAVOK 23/08 Q1015 NOSIG",
      "taf": "TAF OMDB 302300Z 3100/0106 29012KT 8000 FEW040"
    },
    {
      "icao": "UAAA",
      "alert": "OK",
      "vis_m": 2500,
      "fzfg": false,
      "metar_trigger": false,
      "taf_trigger": false,
      "metar": "METAR UAAA 302300Z 16002MPS 2500 BR FEW100 BKN200 M01/M03 Q1006 NOSIG",
      "taf": "TAF UAAA 302301Z 3100/3124 29003MPS 3100 BR FU SCT050CB BKN100 TX07/3109Z TNM02/3101Z"
    },
    {
      "icao": "UBBB",
      "alert": "OK",
      "vis_m": 9999,
      "fzfg": false,
      "metar_trigger": false,
      "taf_trigger": false,
      "metar": "METAR UBBB 302300Z 19018KT CAVOK 06/M01 Q1010 NOSIG",
      "taf": "TAF UBBB 302301Z 3100/3124 19018G28KT CAVOK TX10/3110Z TN04/3103Z"
    },
    {
      "icao": "UDSG",
      "alert": "OK",
      "vis_m": 9999,
      "fzfg": false,
      "metar_trigger": false,
      "taf_trigger": false,
      "metar": "METAR UDSG 302300Z 10002KT 9999 NSC M14/M17 Q1015 NOSIG",
      "taf": "TAF UDSG 302258Z 3100/3124 VRB06KT 9999 BKN040"
    },
    {
      "icao": "UDYZ",
      "alert": "OK",
      "vis_m": 9000,
      "fzfg": false,
      "metar_trigger": false,
      "taf_trigger": false,
      "metar": "METAR UDYZ 302300Z 07005KT 9000 NSC M09/M12 Q1018 NOSIG",
      "taf": "TAF UDYZ 302300Z 3100/3124 VRB06KT 6000 NSC"
    },
    {
      "icao": "UGKO",
      "alert": "OK",
      "vis_m": 9999,
      "fzfg": false,
      "metar_trigger": false,
      "taf_trigger": false,
      "metar": "METAR UGKO 302300Z 07019KT CAVOK 01/M04 Q1010 NOSIG",
      "taf": "TAF UGKO 302300Z 3100/3124 08015KT CAVOK TX04/3112Z TNM01/3102Z"
    }
  ]
}