{
  "ts_utc": "2026-01-19T23:11:30Z",
  "threshold_m": 150,
  "source": "stations_override.txt (ICAO list) + aviationweather.gov (METAR/TAF raw)",
  "station_count": 159,
  "stations": [
    {
      "icao": "BIKF",
      "alert": "OK",
      "vis_m": 9999,
      "fzfg": false,
      "metar_trigger": false,
      "taf_trigger": false,
      "metar": "METAR BIKF 192300Z 17017KT 9999 FEW028 03/M00 Q0997",
      "taf": "TAF BIKF 192243Z 2000/2100 15020G30KT 9999 -SHRA FEW015 BKN035 TX06/2014Z TN01/2022Z"
    },
    {
      "icao": "BKPR",
      "alert": "OK",
      "vis_m": 9999,
      "fzfg": false,
      "metar_trigger": false,
      "taf_trigger": false,
      "metar": "METAR BKPR 192300Z 35010KT CAVOK M05/M08 Q1031 NOSIG",
      "taf": "TAF BKPR 191730Z 1918/2018 02008KT CAVOK"
    },
    {
      "icao": "EBCI",
      "alert": "OK",
      "vis_m": 9000,
      "fzfg": false,
      "metar_trigger": false,
      "taf_trigger": false,
      "metar": "METAR EBCI 192250Z 17004KT 9000 NSC 05/03 Q1018 NOSIG",
      "taf": "TAF EBCI 191710Z 1918/2024 17007KT CAVOK"
    },
    {
      "icao": "EDDB",
      "alert": "OK",
      "vis_m": 9999,
      "fzfg": false,
      "metar_trigger": false,
      "taf_trigger": false,
      "metar": "METAR EDDB 192250Z AUTO 14008KT CAVOK M02/M07 Q1024 NOSIG",
      "taf": "TAF EDDB 191700Z 1918/2018 14007KT CAVOK"
    },
    {
      "icao": "EDDH",
      "alert": "OK",
      "vis_m": 9999,
      "fzfg": false,
      "metar_trigger": false,
      "taf_trigger": false,
      "metar": "METAR EDDH 192250Z AUTO 13004KT CAVOK M01/M04 Q1021 NOSIG",
      "taf": "TAF EDDH 191700Z 1918/2024 11006KT CAVOK"
    },
    {
      "icao": "EDDK",
      "alert": "OK",
      "vis_m": 9000,
      "fzfg": false,
      "metar_trigger": false,
      "taf_trigger": false,
      "metar": "METAR EDDK 192250Z AUTO 13008KT 080V150 9000 OVC007 01/M01 Q1021 TEMPO SCT007",
      "taf": "TAF EDDK 191700Z 1918/2024 12007KT 9999 OVC010"
    },
    {
      "icao": "EDDN",
      "alert": "OK",
      "vis_m": 9999,
      "fzfg": false,
      "metar_trigger": false,
      "taf_trigger": false,
      "metar": "METAR EDDN 192250Z AUTO 09005KT CAVOK M02/M07 Q1022",
      "taf": "TAF EDDN 191700Z 1918/2018 11008KT CAVOK"
    },
    {
      "icao": "EDDS",
      "alert": "OK",
      "vis_m": 8000,
      "fzfg": false,
      "metar_trigger": false,
      "taf_trigger": false,
      "metar": "METAR EDDS 192250Z AUTO 26002KT 8000 NCD M03/M05 Q1019",
      "taf": "TAF EDDS 191700Z 1918/2018 VRB03KT CAVOK"
    },
    {
      "icao": "EDFH",
      "alert": "OK",
      "vis_m": 300,
      "fzfg": true,
      "metar_trigger": false,
      "taf_trigger": false,
      "metar": "METAR EDFH 192250Z 12005KT 090V180 0300 R03/0700N FZFG VV/// M02/M02 Q1019",
      "taf": "TAF EDFH 191700Z 1918/2018 14010KT 0400 FZFG OVC001"
    },
    {
      "icao": "EDJA",
      "alert": "OK",
      "vis_m": 400,
      "fzfg": false,
      "metar_trigger": false,
      "taf_trigger": false,
      "metar": "METAR EDJA 192250Z AUTO 00000KT 0400 R24/0450D // VV/// M04/M05 Q1019",
      "taf": "TAF EDJA 191700Z 1918/2003 05004KT CAVOK"
    },
    {
      "icao": "EDLW",
      "alert": "OK",
      "vis_m": 9999,
      "fzfg": false,
      "metar_trigger": false,
      "taf_trigger": false,
      "metar": "METAR EDLW 192250Z AUTO 14003KT 9999 // NCD 00/M02 Q1019",
      "taf": "TAF EDLW 191700Z 1918/2018 14004KT CAVOK"
    },
    {
      "icao": "EDNY",
      "alert": "OK",
      "vis_m": 6000,
      "fzfg": false,
      "metar_trigger": false,
      "taf_trigger": false,
      "metar": "METAR EDNY 192250Z AUTO 35004KT 6000 // SCT001/// OVC003/// M02/M02 Q1020",
      "taf": "TAF EDNY 191700Z 1918/2003 04003KT CAVOK"
    },
    {
      "icao": "EDSB",
      "alert": "OK",
      "vis_m": 4200,
      "fzfg": false,
      "metar_trigger": false,
      "taf_trigger": false,
      "metar": "METAR EDSB 192250Z AUTO 03003KT 360V070 4200 OVC003/// 00/M00 Q1021",
      "taf": "TAF EDSB 191700Z 1918/2018 07005KT 7000 OVC006"
    },
    {
      "icao": "EETN",
      "alert": "OK",
      "vis_m": 500,
      "fzfg": true,
      "metar_trigger": false,
      "taf_trigger": false,
      "metar": "METAR EETN 192250Z VRB02KT 0500 R08/1200U FZFG VV002 M09/M10 Q1031",
      "taf": ""
    },
    {
      "icao": "EFTU",
      "alert": "OK",
      "vis_m": 9999,
      "fzfg": false,
      "metar_trigger": false,
      "taf_trigger": false,
      "metar": "METAR EFTU 192250Z AUTO 15005KT 110V170 9999 OVC007 M01/M02 Q1029",
      "taf": "TAF EFTU 192034Z 1921/2021 14005KT 9999 BKN008"
    },
    {
      "icao": "EGBB",
      "alert": "OK",
      "vis_m": 7000,
      "fzfg": false,
      "metar_trigger": false,
      "taf_trigger": false,
      "metar": "METAR EGBB 192250Z 15008KT 7000 -DZ BKN006 OVC024 09/08 Q1011",
      "taf": "TAF EGBB 192259Z 2000/2024 15010KT 9999 BKN024"
    },
    {
      "icao": "EGGP",
      "alert": "OK",
      "vis_m": 9999,
      "fzfg": false,
      "metar_trigger": false,
      "taf_trigger": false,
      "metar": "METAR EGGP 192250Z 15007KT CAVOK 06/05 Q1010",
      "taf": "TAF EGGP 192303Z 2000/2024 15008KT 9999 FEW010 SCT020"
    },
    {
      "icao": "EGGW",
      "alert": "OK",
      "vis_m": 9999,
      "fzfg": false,
      "metar_trigger": false,
      "taf_trigger": false,
      "metar": "METAR EGGW 192250Z AUTO 16010KT 9999 OVC007 09/08 Q1013",
      "taf": "TAF EGGW 192305Z 2000/2024 16010KT 9999 BKN006"
    },
    {
      "icao": "EGKK",
      "alert": "OK",
      "vis_m": 9999,
      "fzfg": false,
      "metar_trigger": false,
      "taf_trigger": false,
      "metar": "METAR EGKK 192250Z 15006KT 110V190 9999 -RA BKN010 09/09 Q1013",
      "taf": "TAF EGKK 192301Z 2000/2106 14005KT 9999 SCT012 BKN020"
    },
    {
      "icao": "EGNM",
      "alert": "OK",
      "vis_m": 500,
      "fzfg": false,
      "metar_trigger": false,
      "taf_trigger": false,
      "metar": "METAR EGNM 192220Z 13006KT 100V160 0500 R32/1000N FG VV/// 08/08 Q1011",
      "taf": "TAF EGNM 192300Z 2000/2024 14007KT 0300 FG VV///"
    },
    {
      "icao": "EGPD",
      "alert": "OK",
      "vis_m": 1700,
      "fzfg": false,
      "metar_trigger": false,
      "taf_trigger": false,
      "metar": "METAR EGPD 192250Z AUTO 12005KT 1700 R16/1400U BR OVC001 07/07 Q1011",
      "taf": "TAF EGPD 192258Z 2000/2024 VRB04KT 1200 BR BKN002"
    },
    {
      "icao": "EGPF",
      "alert": "OK",
      "vis_m": 3400,
      "fzfg": false,
      "metar_trigger": false,
      "taf_trigger": false,
      "metar": "METAR EGPF 192250Z AUTO 07009KT 3400 BR OVC003 04/04 Q1009",
      "taf": "TAF EGPF 192301Z 2000/2024 08006KT 3000 BR BKN003"
    },
    {
      "icao": "EHBK",
      "alert": "OK",
      "vis_m": 9999,
      "fzfg": false,
      "metar_trigger": false,
      "taf_trigger": false,
      "metar": "METAR EHBK 192255Z AUTO 13005KT 9999 NCD 01/M00 Q1019",
      "taf": "TAF EHBK 191711Z 1918/2024 11003KT CAVOK"
    },
    {
      "icao": "EHEH",
      "alert": "OK",
      "vis_m": 7000,
      "fzfg": false,
      "metar_trigger": false,
      "taf_trigger": false,
      "metar": "METAR EHEH 192255Z AUTO 13005KT 7000 BR SCT110 01/00 Q1019 WHT",
      "taf": "TAF EHEH 191712Z 1918/2024 14005KT CAVOK"
    },
    {
      "icao": "EKBI",
      "alert": "OK",
      "vis_m": 7000,
      "fzfg": false,
      "metar_trigger": false,
      "taf_trigger": false,
      "metar": "METAR EKBI 192250Z AUTO 10004KT 7000 NCD M04/M04 Q1021",
      "taf": "TAF EKBI 192027Z 1921/2021 12008KT CAVOK"
    },
    {
      "icao": "EKCH",
      "alert": "OK",
      "vis_m": 9999,
      "fzfg": false,
      "metar_trigger": false,
      "taf_trigger": false,
      "metar": "METAR EKCH 192250Z AUTO 14009KT 9999 NCD 02/M02 Q1024 NOSIG",
      "taf": "TAF EKCH 192027Z 1921/2021 15015KT CAVOK"
    },
    {
      "icao": "ENAL",
      "alert": "OK",
      "vis_m": 9999,
      "fzfg": false,
      "metar_trigger": false,
      "taf_trigger": false,
      "metar": "METAR ENAL 192250Z AUTO VRB02KT 9999 BKN060/// 02/02 Q1020",
      "taf": "TAF ENAL 192000Z 1921/2006 VRB05KT 9999 FEW015 SCT050"
    },
    {
      "icao": "ENBR",
      "alert": "OK",
      "vis_m": 9999,
      "fzfg": false,
      "metar_trigger": false,
      "taf_trigger": false,
      "metar": "METAR ENBR 192250Z 04003KT CAVOK 01/01 Q1021 RMK WIND 1200FT 24006KT",
      "taf": ""
    },
    {
      "icao": "ENGM",
      "alert": "OK",
      "vis_m": 9999,
      "fzfg": false,
      "metar_trigger": false,
      "taf_trigger": false,
      "metar": "METAR ENGM 192250Z 11004KT 090V150 9999 OVC018 M02/M04 Q1025",
      "taf": "TAF ENGM 191700Z 1918/2018 14005KT 9999 -SN FEW008 BKN020"
    },
    {
      "icao": "ENHD",
      "alert": "OK",
      "vis_m": 9999,
      "fzfg": false,
      "metar_trigger": false,
      "taf_trigger": false,
      "metar": "METAR ENHD 192250Z AUTO 16006KT 9999 NCD 02/M01 Q1021",
      "taf": "TAF ENHD 191400Z 1915/1923 16008KT 9999 FEW050"
    },
    {
      "icao": "ENTC",
      "alert": "CRITICAL",
      "vis_m": 100,
      "fzfg": true,
      "metar_trigger": true,
      "taf_trigger": false,
      "metar": "METAR ENTC 192250Z 04002KT 0100 R36/0300N R18/0600N FZFG VV001 M03/M03 Q1027 RMK WIND 2600FT 08008KT",
      "taf": ""
    },
    {
      "icao": "ENTO",
      "alert": "OK",
      "vis_m": 9999,
      "fzfg": false,
      "metar_trigger": false,
      "taf_trigger": false,
      "metar": "METAR ENTO 192250Z AUTO 04005KT 010V070 9999 BKN013/// OVC015/// M01/M02 Q1025",
      "taf": "TAF ENTO 191700Z 1918/2018 03008KT 9999 BKN018"
    },
    {
      "icao": "ENVA",
      "alert": "OK",
      "vis_m": 9999,
      "fzfg": false,
      "metar_trigger": false,
      "taf_trigger": false,
      "metar": "METAR ENVA 192250Z 13005KT CAVOK M01/M04 Q1024 RMK WIND 670FT 10008KT",
      "taf": "TAF ENVA 191700Z 1918/2018 09005KT CAVOK"
    },
    {
      "icao": "ENZV",
      "alert": "OK",
      "vis_m": 9999,
      "fzfg": false,
      "metar_trigger": false,
      "taf_trigger": false,
      "metar": "METAR ENZV 192250Z 15005KT CAVOK 00/M03 Q1021",
      "taf": "TAF ENZV 191700Z 1918/2018 12005KT CAVOK"
    },
    {
      "icao": "EPGD",
      "alert": "OK",
      "vis_m": 8000,
      "fzfg": false,
      "metar_trigger": false,
      "taf_trigger": false,
      "metar": "METAR EPGD 192300Z 18007KT 8000 NSC M08/M10 Q1028",
      "taf": "TAF EPGD 191730Z 1918/2018 16006KT 7000 NSC"
    },
    {
      "icao": "EPKK",
      "alert": "OK",
      "vis_m": 2500,
      "fzfg": false,
      "metar_trigger": false,
      "taf_trigger": false,
      "metar": "METAR EPKK 192300Z 04002KT 2500 BR NSC M12/M14 Q1032",
      "taf": "TAF EPKK 192030Z 1921/2021 VRB02KT 2900 BR NSC"
    },
    {
      "icao": "EPKT",
      "alert": "OK",
      "vis_m": 3500,
      "fzfg": false,
      "metar_trigger": false,
      "taf_trigger": false,
      "metar": "METAR EPKT 192300Z VRB02KT 3500 BR NSC M09/M11 Q1031",
      "taf": ""
    },
    {
      "icao": "EPLB",
      "alert": "OK",
      "vis_m": 4500,
      "fzfg": false,
      "metar_trigger": false,
      "taf_trigger": false,
      "metar": "METAR EPLB 192300Z 06003KT 4500 BR NSC M16/M17 Q1033",
      "taf": "TAF EPLB 191730Z 1918/2018 10004KT 5000 BR NSC"
    },
    {
      "icao": "EPMO",
      "alert": "OK",
      "vis_m": 2700,
      "fzfg": false,
      "metar_trigger": false,
      "taf_trigger": false,
      "metar": "METAR EPMO 192300Z 10003KT 080V140 2700 BR NSC M14/M15 Q1032",
      "taf": "TAF EPMO 191730Z 1918/2018 12006KT 5000 BR NSC"
    },
    {
      "icao": "EPPO",
      "alert": "OK",
      "vis_m": 9999,
      "fzfg": false,
      "metar_trigger": false,
      "taf_trigger": false,
      "metar": "METAR EPPO 192300Z 13006KT CAVOK M03/M07 Q1028",
      "taf": "TAF EPPO 191730Z 1918/2018 11010KT CAVOK"
    },
    {
      "icao": "EPRA",
      "alert": "OK",
      "vis_m": 8000,
      "fzfg": false,
      "metar_trigger": false,
      "taf_trigger": false,
      "metar": "METAR EPRA 192300Z 16004KT 8000 NSC M11/M13 Q1032",
      "taf": "TAF EPRA 192030Z 1921/2006 15007KT CAVOK"
    },
    {
      "icao": "EPRZ",
      "alert": "OK",
      "vis_m": 3500,
      "fzfg": false,
      "metar_trigger": false,
      "taf_trigger": false,
      "metar": "METAR EPRZ 192300Z 07004KT 3500 BR NSC M12/M14 Q1033",
      "taf": ""
    },
    {
      "icao": "EPSC",
      "alert": "OK",
      "vis_m": 9999,
      "fzfg": false,
      "metar_trigger": false,
      "taf_trigger": false,
      "metar": "METAR EPSC 192300Z 13011KT CAVOK M01/M05 Q1026",
      "taf": "TAF EPSC 191730Z 1918/2018 14010KT CAVOK"
    },
    {
      "icao": "EPSY",
      "alert": "OK",
      "vis_m": 3500,
      "fzfg": false,
      "metar_trigger": false,
      "taf_trigger": false,
      "metar": "METAR EPSY 192300Z 00000KT 3500 BR NSC M20/M22 Q1032",
      "taf": "TAF EPSY 192030Z 1921/2006 VRB02KT 6000 NSC"
    },
    {
      "icao": "EPWA",
      "alert": "OK",
      "vis_m": 6000,
      "fzfg": false,
      "metar_trigger": false,
      "taf_trigger": false,
      "metar": "METAR EPWA 192300Z 12005KT 6000 NSC M11/M12 Q1033 TEMPO 4000 BR",
      "taf": "TAF EPWA 192030Z 1921/2021 13005KT 7000 NSC"
    },
    {
      "icao": "EPWR",
      "alert": "OK",
      "vis_m": 9999,
      "fzfg": false,
      "metar_trigger": false,
      "taf_trigger": false,
      "metar": "METAR EPWR 192300Z 15014KT CAVOK M01/M08 Q1028",
      "taf": ""
    },
    {
      "icao": "ESGG",
      "alert": "OK",
      "vis_m": 6000,
      "fzfg": false,
      "metar_trigger": false,
      "taf_trigger": false,
      "metar": "METAR ESGG 192250Z 12009KT 6000 BKN003 M04/M05 Q1024",
      "taf": "TAF ESGG 192030Z 1921/2021 11009KT 9999 FEW007"
    },
    {
      "icao": "ESKN",
      "alert": "OK",
      "vis_m": 9999,
      "fzfg": false,
      "metar_trigger": false,
      "taf_trigger": false,
      "metar": "METAR ESKN 192250Z 15006KT 9999 OVC007 00/M01 Q1027",
      "taf": "TAF ESKN 192030Z 1921/2021 16005KT 9000 BKN007"
    },
    {
      "icao": "ESMS",
      "alert": "OK",
      "vis_m": 9999,
      "fzfg": false,
      "metar_trigger": false,
      "taf_trigger": false,
      "metar": "METAR ESMS 192250Z 13005KT CAVOK 00/M03 Q1024",
      "taf": "TAF ESMS 192027Z 1921/2021 15010KT CAVOK"
    },
    {
      "icao": "ESSA",
      "alert": "OK",
      "vis_m": 9999,
      "fzfg": false,
      "metar_trigger": false,
      "taf_trigger": false,
      "metar": "METAR ESSA 192250Z 21006KT 9999 OVC009 M00/M02 Q1027 NOSIG",
      "taf": "TAF ESSA 192030Z 1921/2021 16007KT 9999 OVC007"
    },
    {
      "icao": "EYKA",
      "alert": "OK",
      "vis_m": 6000,
      "fzfg": false,
      "metar_trigger": false,
      "taf_trigger": false,
      "metar": "METAR EYKA 192250Z AUTO VRB01KT 6000 NCD M14/M16 Q1033",
      "taf": "TAF EYKA 192300Z 2000/2024 VRB04KT 5000 BR NSC"
    },
    {
      "icao": "EYPA",
      "alert": "OK",
      "vis_m": 9999,
      "fzfg": false,
      "metar_trigger": false,
      "taf_trigger": false,
      "metar": "METAR EYPA 192250Z 15007KT CAVOK M12/M14 Q1031",
      "taf": "TAF EYPA 192300Z 2000/2024 15008KT 9000 NSC"
    },
    {
      "icao": "EYVI",
      "alert": "OK",
      "vis_m": 5000,
      "fzfg": false,
      "metar_trigger": false,
      "taf_trigger": false,
      "metar": "METAR EYVI 192250Z 18006KT 5000 BR NSC M15/M17 Q1033 NOSIG",
      "taf": "TAF EYVI 192300Z 2000/2024 18008KT 5000 BR NSC"
    },
    {
      "icao": "GCFV",
      "alert": "OK",
      "vis_m": 9999,
      "fzfg": false,
      "metar_trigger": false,
      "taf_trigger": false,
      "metar": "METAR GCFV 192300Z 35013KT 9999 BKN030 16/10 Q1024",
      "taf": "TAF GCFV 192000Z 1921/2021 36009KT 9999 SCT035 TX21/2014Z TN14/2006Z"
    },
    {
      "icao": "GCLP",
      "alert": "OK",
      "vis_m": 9999,
      "fzfg": false,
      "metar_trigger": false,
      "taf_trigger": false,
      "metar": "METAR GCLP 192300Z 36016KT 9999 FEW030 16/11 Q1024 NOSIG",
      "taf": "TAF GCLP 192000Z 1921/2021 02020KT 9999 BKN035 TX20/2014Z TN16/2006Z"
    },
    {
      "icao": "GCTS",
      "alert": "OK",
      "vis_m": 9999,
      "fzfg": false,
      "metar_trigger": false,
      "taf_trigger": false,
      "metar": "METAR GCTS 192300Z 04012KT 020V080 9999 FEW040 17/06 Q1025 NOSIG",
      "taf": "TAF GCTS 192000Z 1921/2021 03008KT 9999 SCT040 TX22/2014Z TN14/2006Z"
    },
    {
      "icao": "GMAD",
      "alert": "OK",
      "vis_m": 9999,
      "fzfg": false,
      "metar_trigger": false,
      "taf_trigger": false,
      "metar": "METAR GMAD 192300Z 21006KT CAVOK 09/05 Q1019 NOSIG",
      "taf": "TAF GMAD 191700Z 1918/2024 20008KT 8000 SCT020"
    },
    {
      "icao": "GMMN",
      "alert": "OK",
      "vis_m": 9999,
      "fzfg": false,
      "metar_trigger": false,
      "taf_trigger": false,
      "metar": "METAR GMMN 192300Z 21005KT CAVOK 06/04 Q1023 NOSIG",
      "taf": "TAF GMMN 191700Z 1918/2024 34008KT 9999 SCT030"
    },
    {
      "icao": "GMMX",
      "alert": "OK",
      "vis_m": 9999,
      "fzfg": false,
      "metar_trigger": false,
      "taf_trigger": false,
      "metar": "METAR GMMX 192300Z 13004KT CAVOK 08/06 Q1022 NOSIG",
      "taf": "TAF GMMX 191700Z 1918/2024 06006KT 8000 BKN023 SCT080"
    },
    {
      "icao": "HEGN",
      "alert": "OK",
      "vis_m": 9999,
      "fzfg": false,
      "metar_trigger": false,
      "taf_trigger": false,
      "metar": "METAR HEGN 192300Z 30008KT CAVOK 14/03 Q1019 NOSIG",
      "taf": "TAF HEGN 192300Z 2000/2106 30012KT CAVOK"
    },
    {
      "icao": "HEMA",
      "alert": "OK",
      "vis_m": 9999,
      "fzfg": false,
      "metar_trigger": false,
      "taf_trigger": false,
      "metar": "METAR HEMA 192300Z 27008KT CAVOK 16/10 Q1018 NOSIG",
      "taf": "TAF HEMA 192300Z 2000/2106 31012KT CAVOK"
    },
    {
      "icao": "HESH",
      "alert": "OK",
      "vis_m": 9999,
      "fzfg": false,
      "metar_trigger": false,
      "taf_trigger": false,
      "metar": "METAR HESH 192300Z 34005KT CAVOK 15/07 Q1018 NOSIG",
      "taf": "TAF HESH 192300Z 2000/2106 33010KT CAVOK"
    },
    {
      "icao": "HESX",
      "alert": "OK",
      "vis_m": 6000,
      "fzfg": false,
      "metar_trigger": false,
      "taf_trigger": false,
      "metar": "METAR HESX 192300Z 36004KT 6000 NSC 09/07 Q1019 NOSIG",
      "taf": "TAF HESX 192300Z 2000/2106 01008KT CAVOK"
    },
    {
      "icao": "LATI",
      "alert": "OK",
      "vis_m": 9999,
      "fzfg": false,
      "metar_trigger": false,
      "taf_trigger": false,
      "metar": "METAR LATI 192250Z VRB02KT CAVOK M01/M05 Q1027 NOSIG",
      "taf": "TAF LATI 192300Z 2000/2024 VRB05KT CAVOK TX13/2012Z TNM04/2005Z"
    },
    {
      "icao": "LBPD",
      "alert": "OK",
      "vis_m": 9999,
      "fzfg": false,
      "metar_trigger": false,
      "taf_trigger": false,
      "metar": "METAR LBPD 192300Z AUTO 28002KT 9999 NCD M04/M07 Q1036",
      "taf": "TAF LBPD 191700Z 1918/2018 VRB03KT 9999 SCT030"
    },
    {
      "icao": "LBSF",
      "alert": "OK",
      "vis_m": 9999,
      "fzfg": false,
      "metar_trigger": false,
      "taf_trigger": false,
      "metar": "METAR LBSF 192300Z AUTO 11007KT 9999 NCD M09/M11 Q1034 NOSIG",
      "taf": ""
    },
    {
      "icao": "LBWN",
      "alert": "OK",
      "vis_m": 9999,
      "fzfg": false,
      "metar_trigger": false,
      "taf_trigger": false,
      "metar": "METAR LBWN 192300Z AUTO 26008KT 9999 FEW015/// M06/M09 Q1037 NOSIG",
      "taf": "TAF LBWN 191700Z 1918/2018 32010KT 9999 BKN010"
    },
    {
      "icao": "LCLK",
      "alert": "OK",
      "vis_m": 9999,
      "fzfg": false,
      "metar_trigger": false,
      "taf_trigger": false,
      "metar": "METAR LCLK 192300Z 30006KT CAVOK 04/M01 Q1023 NOSIG",
      "taf": "TAF LCLK 191730Z 1918/2018 34009KT 9999 FEW030"
    },
    {
      "icao": "LCPH",
      "alert": "OK",
      "vis_m": 9999,
      "fzfg": false,
      "metar_trigger": false,
      "taf_trigger": false,
      "metar": "METAR LCPH 192300Z 07006KT 010V100 9999 FEW035 BKN040 BKN080 09/M03 Q1022 NOSIG",
      "taf": "TAF LCPH 191730Z 1918/2018 06008KT 9999 FEW030 SCT045"
    },
    {
      "icao": "LEAL",
      "alert": "OK",
      "vis_m": 9999,
      "fzfg": false,
      "metar_trigger": false,
      "taf_trigger": false,
      "metar": "METAR LEAL 192300Z 29006KT 9999 OVC050 11/06 Q1012 NOSIG",
      "taf": "TAF LEAL 191700Z 1918/2018 32005KT 9999 FEW035 TX17/2013Z TN10/2006Z"
    },
    {
      "icao": "LEBB",
      "alert": "OK",
      "vis_m": 9999,
      "fzfg": false,
      "metar_trigger": false,
      "taf_trigger": false,
      "metar": "METAR LEBB 192300Z AUTO 09004KT CAVOK 08/06 Q1020",
      "taf": "TAF LEBB 191700Z 1918/2018 VRB03KT 9999 BKN030 TX13/2013Z TN02/2007Z"
    },
    {
      "icao": "LEBL",
      "alert": "OK",
      "vis_m": 9999,
      "fzfg": false,
      "metar_trigger": false,
      "taf_trigger": false,
      "metar": "METAR LEBL 192300Z 04013KT 9999 -RA FEW020 SCT023 BKN060 11/10 Q1014 NOSIG",
      "taf": "TAF LEBL 191700Z 1918/2018 01013KT 9999 SCT020 BKN030 TX14/2013Z TN09/2006Z"
    },
    {
      "icao": "LECH",
      "alert": "OK",
      "vis_m": 9999,
      "fzfg": false,
      "metar_trigger": false,
      "taf_trigger": false,
      "metar": "METAR LECH 192300Z AUTO 35010G20KT 310V030 CAVOK 10/04 Q1013",
      "taf": ""
    },
    {
      "icao": "LEMD",
      "alert": "OK",
      "vis_m": 9999,
      "fzfg": false,
      "metar_trigger": false,
      "taf_trigger": false,
      "metar": "METAR LEMD 192300Z 09001KT CAVOK 04/01 Q1017 NOSIG",
      "taf": "TAF LEMD 191700Z 1918/2024 VRB04KT CAVOK TX12/2014Z TNM03/2006Z"
    },
    {
      "icao": "LEMG",
      "alert": "OK",
      "vis_m": 9999,
      "fzfg": false,
      "metar_trigger": false,
      "taf_trigger": false,
      "metar": "METAR LEMG 192300Z 28009KT CAVOK 10/03 Q1017 NOSIG",
      "taf": "TAF LEMG 191700Z 1918/2018 29012KT CAVOK TX14/2014Z TN05/2006Z"
    },
    {
      "icao": "LEVC",
      "alert": "OK",
      "vis_m": 9999,
      "fzfg": false,
      "metar_trigger": false,
      "taf_trigger": false,
      "metar": "METAR LEVC 192300Z 32007KT 9999 FEW060 09/07 Q1013 NOSIG",
      "taf": "TAF LEVC 191700Z 1918/2018 30007KT 9999 SCT035 TX15/2013Z TN07/2006Z"
    },
    {
      "icao": "LEXJ",
      "alert": "OK",
      "vis_m": 9999,
      "fzfg": false,
      "metar_trigger": false,
      "taf_trigger": false,
      "metar": "METAR LEXJ 192300Z AUTO 22006KT 190V250 9999 BKN036 08/03 Q1020",
      "taf": "TAF LEXJ 192000Z 1921/2021 24009KT 9999 SCT040 TX13/2014Z TN05/2008Z"
    },
    {
      "icao": "LEZG",
      "alert": "OK",
      "vis_m": 9999,
      "fzfg": false,
      "metar_trigger": false,
      "taf_trigger": false,
      "metar": "METAR LEZG 192300Z 27013KT 9999 SCT050 09/06 Q1017 NOSIG",
      "taf": "TAF LEZG 191700Z 1918/2018 30010KT 9999 SCT030 TX10/2015Z TN03/2006Z"
    },
    {
      "icao": "LEZL",
      "alert": "OK",
      "vis_m": 9999,
      "fzfg": false,
      "metar_trigger": false,
      "taf_trigger": false,
      "metar": "METAR LEZL 192300Z 27002KT CAVOK 08/04 Q1020 NOSIG",
      "taf": "TAF LEZL 192000Z 1921/2021 28004KT CAVOK TX15/2015Z TN05/2007Z"
    },
    {
      "icao": "LFBD",
      "alert": "OK",
      "vis_m": 9000,
      "fzfg": false,
      "metar_trigger": false,
      "taf_trigger": false,
      "metar": "METAR LFBD 192300Z AUTO 22003KT 9000 1100 R23/1000U R05/1400U R29/1400D FEW017 SCT200 07/06 Q1018 TEMPO 0500 FG VV///",
      "taf": ""
    },
    {
      "icao": "LFLL",
      "alert": "OK",
      "vis_m": 550,
      "fzfg": false,
      "metar_trigger": false,
      "taf_trigger": false,
      "metar": "METAR LFLL 192300Z VRB02KT 0550 R35L/0700N R17R/0800N R35R/0750N R17L/0800U FG VV/// 02/02 Q1019 NOSIG",
      "taf": "TAF LFLL 191700Z 1918/2024 VRB02KT 1200 BR OVC001"
    },
    {
      "icao": "LFLS",
      "alert": "OK",
      "vis_m": 300,
      "fzfg": false,
      "metar_trigger": false,
      "taf_trigger": false,
      "metar": "METAR LFLS 192300Z AUTO VRB01KT 0300 R09/0350N R27/0325N FG VV/// 02/02 Q1018",
      "taf": ""
    },
    {
      "icao": "LFMN",
      "alert": "OK",
      "vis_m": 9999,
      "fzfg": false,
      "metar_trigger": false,
      "taf_trigger": false,
      "metar": "METAR LFMN 192300Z 32009KT 9999 BKN100 BKN260 10/02 Q1018 NOSIG",
      "taf": "TAF LFMN 192000Z 1921/2103 06015KT CAVOK"
    },
    {
      "icao": "LFOB",
      "alert": "OK",
      "vis_m": 9000,
      "fzfg": false,
      "metar_trigger": false,
      "taf_trigger": false,
      "metar": "METAR LFOB 192300Z AUTO 10008KT 9000 NSC 06/05 Q1017 TEMPO 2000 BR",
      "taf": "TAF LFOB 191700Z 1918/2018 12005KT 8000 NSC"
    },
    {
      "icao": "LFPO",
      "alert": "OK",
      "vis_m": 9999,
      "fzfg": false,
      "metar_trigger": false,
      "taf_trigger": false,
      "metar": "METAR LFPO 192300Z AUTO 17003KT 150V210 CAVOK 07/05 Q1018",
      "taf": "TAF LFPO 191700Z 1918/2024 11005KT CAVOK"
    },
    {
      "icao": "LFSB",
      "alert": "OK",
      "vis_m": 7000,
      "fzfg": true,
      "metar_trigger": false,
      "taf_trigger": false,
      "metar": "METAR LFSB 192300Z AUTO 06003KT 7000 OVC005 01/M00 Q1020 TEMPO 0300 FZFG VV///",
      "taf": ""
    },
    {
      "icao": "LGAV",
      "alert": "OK",
      "vis_m": 9999,
      "fzfg": false,
      "metar_trigger": false,
      "taf_trigger": false,
      "metar": "METAR LGAV 192250Z 02011KT 9999 FEW020 BKN040 06/M00 Q1030 NOSIG",
      "taf": "TAF LGAV 192300Z 2000/2024 03015KT 9999 SCT020 BKN040"
    },
    {
      "icao": "LGTS",
      "alert": "OK",
      "vis_m": 9999,
      "fzfg": false,
      "metar_trigger": false,
      "taf_trigger": false,
      "metar": "METAR LGTS 192250Z 10005KT 9999 FEW020 BKN040 M00/M05 Q1036 NOSIG",
      "taf": "TAF LGTS 192300Z 2000/2024 11010KT 9999 SCT030"
    },
    {
      "icao": "LHBP",
      "alert": "OK",
      "vis_m": 3000,
      "fzfg": false,
      "metar_trigger": false,
      "taf_trigger": false,
      "metar": "METAR LHBP 192300Z 02004KT 340V050 3000 BR OVC002 M08/M09 Q1037 NOSIG",
      "taf": "TAF LHBP 191715Z 1918/2018 09005KT 5000 BR BKN007"
    },
    {
      "icao": "LHDC",
      "alert": "OK",
      "vis_m": 3900,
      "fzfg": false,
      "metar_trigger": false,
      "taf_trigger": false,
      "metar": "METAR LHDC 192245Z AUTO VRB03KT 3900 BR OVC002 M06/M07 Q1037",
      "taf": "TAF LHDC 191715Z 1918/2003 VRB02KT 3000 BR OVC002"
    },
    {
      "icao": "LIBD",
      "alert": "OK",
      "vis_m": 9999,
      "fzfg": false,
      "metar_trigger": false,
      "taf_trigger": false,
      "metar": "METAR LIBD 192250Z AUTO 11008KT 9999 BKN067/// BKN086/// 09/03 Q1024",
      "taf": "TAF LIBD 191700Z 1918/2018 16008KT 9999 SCT040"
    },
    {
      "icao": "LIBG",
      "alert": "OK",
      "vis_m": null,
      "fzfg": false,
      "metar_trigger": false,
      "taf_trigger": false,
      "metar": "",
      "taf": "TAF LIBG 191700Z 1918/2003 11008KT 9999 SCT030"
    },
    {
      "icao": "LIBP",
      "alert": "OK",
      "vis_m": 9999,
      "fzfg": false,
      "metar_trigger": false,
      "taf_trigger": false,
      "metar": "METAR LIBP 192250Z AUTO 06004KT 9999 OVC042/// 09/07 Q1025",
      "taf": "TAF LIBP 191700Z 1918/2018 10010KT 9999 BKN030"
    },
    {
      "icao": "LIBR",
      "alert": "OK",
      "vis_m": 9999,
      "fzfg": false,
      "metar_trigger": false,
      "taf_trigger": false,
      "metar": "METAR LIBR 192250Z VRB01KT CAVOK 09/02 Q1025",
      "taf": "TAF LIBR 191700Z 1918/2018 VRB05KT 9999 SCT040"
    },
    {
      "icao": "LICA",
      "alert": "OK",
      "vis_m": 9999,
      "fzfg": false,
      "metar_trigger": false,
      "taf_trigger": false,
      "metar": "METAR LICA 192250Z AUTO 07023G36KT 9999 FEW033/// BKN150/// 12/07 Q1019",
      "taf": "TAF LICA 191700Z 1918/2018 09024G40KT 9999 SCT020 BKN060"
    },
    {
      "icao": "LICC",
      "alert": "OK",
      "vis_m": 3000,
      "fzfg": false,
      "metar_trigger": false,
      "taf_trigger": false,
      "metar": "METAR LICC 192250Z 10022G32KT 3000 +RA BKN010 BKN030 13/11 Q1017",
      "taf": "TAF LICC 191700Z 1918/2018 10023G40KT 4000 RA BKN015"
    },
    {
      "icao": "LICJ",
      "alert": "OK",
      "vis_m": 9999,
      "fzfg": false,
      "metar_trigger": false,
      "taf_trigger": false,
      "metar": "METAR LICJ 192250Z 08026G36KT 9999 -RA SCT040 BKN070 16/07 Q1011",
      "taf": "TAF LICJ 191700Z 1918/2018 10025G45KT 9999 SCT040 BKN060"
    },
    {
      "icao": "LIMC",
      "alert": "OK",
      "vis_m": 9999,
      "fzfg": false,
      "metar_trigger": false,
      "taf_trigger": false,
      "metar": "METAR LIMC 192250Z VRB02KT 9999 BKN041 02/M01 Q1027 NOSIG",
      "taf": "TAF LIMC 191700Z 1918/2024 VRB04KT 9999 SCT050 SCT090"
    },
    {
      "icao": "LIME",
      "alert": "OK",
      "vis_m": 9999,
      "fzfg": false,
      "metar_trigger": false,
      "taf_trigger": false,
      "metar": "METAR LIME 192250Z 04003KT 9999 SCT080 02/M01 Q1027 NOSIG",
      "taf": "TAF LIME 191700Z 1918/2018 VRB04KT 9999 BKN040"
    },
    {
      "icao": "LIMF",
      "alert": "OK",
      "vis_m": 9999,
      "fzfg": false,
      "metar_trigger": false,
      "taf_trigger": false,
      "metar": "METAR LIMF 192250Z 34004KT 9999 FEW080 03/M00 Q1027",
      "taf": "TAF LIMF 191700Z 1918/2018 VRB04KT 8000 BKN060"
    },
    {
      "icao": "LIMJ",
      "alert": "OK",
      "vis_m": 9999,
      "fzfg": false,
      "metar_trigger": false,
      "taf_trigger": false,
      "metar": "METAR LIMJ 192250Z AUTO 03010KT 9999 BKN150/// 08/01 Q1023",
      "taf": "TAF LIMJ 191700Z 1918/2018 02015KT CAVOK"
    },
    {
      "icao": "LIPE",
      "alert": "OK",
      "vis_m": 9999,
      "fzfg": false,
      "metar_trigger": false,
      "taf_trigger": false,
      "metar": "METAR LIPE 192250Z VRB02KT 9999 OVC035 04/M00 Q1028",
      "taf": "TAF LIPE 191700Z 1918/2018 28006KT 9000 BKN020"
    },
    {
      "icao": "LIPH",
      "alert": "OK",
      "vis_m": 9999,
      "fzfg": false,
      "metar_trigger": false,
      "taf_trigger": false,
      "metar": "METAR LIPH 192250Z AUTO 02004KT 9999 BKN090/// 01/M06 Q1029",
      "taf": "TAF LIPH 191700Z 1918/2018 06008KT CAVOK"
    },
    {
      "icao": "LIPQ",
      "alert": "OK",
      "vis_m": 9999,
      "fzfg": false,
      "metar_trigger": false,
      "taf_trigger": false,
      "metar": "METAR LIPQ 192250Z AUTO 35003KT 310V030 9999 NCD 00/M08 Q1029",
      "taf": "TAF LIPQ 191700Z 1918/2018 08010KT CAVOK"
    },
    {
      "icao": "LIPR",
      "alert": "OK",
      "vis_m": 9999,
      "fzfg": false,
      "metar_trigger": false,
      "taf_trigger": false,
      "metar": "METAR LIPR 192250Z AUTO 09011KT 9999 FEW092/// BKN140/// 10/05 Q1026",
      "taf": "TAF LIPR 191700Z 1918/2018 10012KT 9999 BKN030"
    },
    {
      "icao": "LIPX",
      "alert": "OK",
      "vis_m": 9999,
      "fzfg": false,
      "metar_trigger": false,
      "taf_trigger": false,
      "metar": "METAR LIPX 192250Z 01003KT 9999 BKN050 04/M02 Q1028",
      "taf": "TAF LIPX 191700Z 1918/2018 VRB05KT 9999 SCT050"
    },
    {
      "icao": "LIPY",
      "alert": "OK",
      "vis_m": 9999,
      "fzfg": false,
      "metar_trigger": false,
      "taf_trigger": false,
      "metar": "METAR LIPY 192250Z AUTO 10005KT 060V130 9999 OVC065/// 10/04 Q1025",
      "taf": "TAF LIPY 191700Z 1918/2018 09011KT 9999 BKN040"
    },
    {
      "icao": "LIPZ",
      "alert": "OK",
      "vis_m": 9999,
      "fzfg": false,
      "metar_trigger": false,
      "taf_trigger": false,
      "metar": "METAR LIPZ 192250Z 03007KT CAVOK M00/M06 Q1029 NOSIG",
      "taf": "TAF LIPZ 191700Z 1918/2024 05011KT CAVOK"
    },
    {
      "icao": "LIRF",
      "alert": "OK",
      "vis_m": 9999,
      "fzfg": false,
      "metar_trigger": false,
      "taf_trigger": false,
      "metar": "METAR LIRF 192250Z 06011KT CAVOK 11/06 Q1019 NOSIG",
      "taf": "TAF LIRF 191700Z 1918/2024 06013KT 9999 SCT050"
    },
    {
      "icao": "LIRN",
      "alert": "OK",
      "vis_m": 9999,
      "fzfg": false,
      "metar_trigger": false,
      "taf_trigger": false,
      "metar": "METAR LIRN 192250Z 03008KT CAVOK 10/05 Q1020 NOSIG",
      "taf": "TAF LIRN 191700Z 1918/2018 05012KT 9999 SCT060"
    },
    {
      "icao": "LIRP",
      "alert": "OK",
      "vis_m": 9999,
      "fzfg": false,
      "metar_trigger": false,
      "taf_trigger": false,
      "metar": "METAR LIRP 192245Z 08009KT CAVOK 10/02 Q1022 NOSIG",
      "taf": "TAF LIRP 191700Z 1918/2018 07016KT 9999 SCT060"
    },
    {
      "icao": "LIRZ",
      "alert": "OK",
      "vis_m": 9999,
      "fzfg": false,
      "metar_trigger": false,
      "taf_trigger": false,
      "metar": "METAR LIRZ 192250Z AUTO 05008KT 9999 OVC094/// 10/04 Q1021",
      "taf": "TAF LIRZ 191700Z 1918/2018 04015KT 9999 SCT070"
    },
    {
      "icao": "LJLJ",
      "alert": "OK",
      "vis_m": 8000,
      "fzfg": false,
      "metar_trigger": false,
      "taf_trigger": false,
      "metar": "METAR LJLJ 192300Z 12006KT 8000 FEW003 OVC023 M03/M07 Q1032 NOSIG",
      "taf": "TAF LJLJ 192300Z 2000/2100 11004KT 9999 FEW003 OVC023"
    },
    {
      "icao": "LKMT",
      "alert": "OK",
      "vis_m": 9999,
      "fzfg": false,
      "metar_trigger": false,
      "taf_trigger": false,
      "metar": "METAR LKMT 192300Z 23012KT CAVOK M04/M08 Q1032 NOSIG",
      "taf": "TAF LKMT 191700Z 1918/2018 23012KT CAVOK"
    },
    {
      "icao": "LKPR",
      "alert": "OK",
      "vis_m": 9999,
      "fzfg": false,
      "metar_trigger": false,
      "taf_trigger": false,
      "metar": "METAR LKPR 192300Z VRB01KT CAVOK M07/M08 Q1026 NOSIG",
      "taf": "TAF LKPR 192300Z 2000/2106 10006KT CAVOK"
    },
    {
      "icao": "LLBG",
      "alert": "OK",
      "vis_m": 9999,
      "fzfg": false,
      "metar_trigger": false,
      "taf_trigger": false,
      "metar": "METAR LLBG 192250Z VRB02KT CAVOK 09/02 Q1021 RMK FEW075",
      "taf": "TAF LLBG 192308Z 2000/2024 05005KT 9999 SCT050"
    },
    {
      "icao": "LMML",
      "alert": "OK",
      "vis_m": 9999,
      "fzfg": false,
      "metar_trigger": false,
      "taf_trigger": false,
      "metar": "METAR LMML 192245Z 09028KT 9999 BKN018 15/12 Q1011 NOSIG",
      "taf": "TAF LMML 192300Z 2000/2024 09027G38KT 9999 BKN018"
    },
    {
      "icao": "LOWW",
      "alert": "OK",
      "vis_m": 9999,
      "fzfg": false,
      "metar_trigger": false,
      "taf_trigger": false,
      "metar": "METAR LOWW 192250Z 14010KT 100V170 CAVOK M05/M08 Q1033 NOSIG",
      "taf": "TAF LOWW 192015Z 1921/2103 14013KT 9999 FEW015 TXM04/1921Z TNM07/2006Z"
    },
    {
      "icao": "LPFR",
      "alert": "OK",
      "vis_m": 9999,
      "fzfg": false,
      "metar_trigger": false,
      "taf_trigger": false,
      "metar": "METAR LPFR 192300Z 28005KT CAVOK 10/08 Q1021",
      "taf": "TAF LPFR 191700Z 1918/2018 33013KT CAVOK"
    },
    {
      "icao": "LPMA",
      "alert": "OK",
      "vis_m": 9999,
      "fzfg": false,
      "metar_trigger": false,
      "taf_trigger": false,
      "metar": "METAR LPMA 192300Z 30004KT 280V340 9999 FEW015 15/10 Q1027",
      "taf": "TAF LPMA 191700Z 1918/2018 02008KT 9999 SCT015"
    },
    {
      "icao": "LPPR",
      "alert": "OK",
      "vis_m": 6000,
      "fzfg": false,
      "metar_trigger": false,
      "taf_trigger": false,
      "metar": "METAR LPPR 192300Z 00000KT 6000 MIFG FEW004 05/05 Q1021",
      "taf": "TAF LPPR 191700Z 1918/2018 VRB02KT 9999 FEW012"
    },
    {
      "icao": "LPPS",
      "alert": "OK",
      "vis_m": 9999,
      "fzfg": false,
      "metar_trigger": false,
      "taf_trigger": false,
      "metar": "METAR LPPS 192300Z 34007KT 9999 SCT013 15/12 Q1028",
      "taf": "TAF LPPS 191700Z 1918/2024 36010KT 9999 SCT015"
    },
    {
      "icao": "LPPT",
      "alert": "OK",
      "vis_m": 9999,
      "fzfg": false,
      "metar_trigger": false,
      "taf_trigger": false,
      "metar": "METAR LPPT 192300Z 32003KT 9999 FEW010 09/07 Q1022",
      "taf": "TAF LPPT 191700Z 1918/2024 29007KT 9999 FEW012 SCT025"
    },
    {
      "icao": "LQBK",
      "alert": "OK",
      "vis_m": 9999,
      "fzfg": false,
      "metar_trigger": false,
      "taf_trigger": false,
      "metar": "METAR LQBK 192300Z 31004KT 9999 OVC027 M02/M05 Q1034 NOSIG",
      "taf": "TAF LQBK 192300Z 2000/2024 VRB02KT 9999 BKN020 TXM01/2014Z TNM05/2006Z"
    },
    {
      "icao": "LQSA",
      "alert": "OK",
      "vis_m": 6000,
      "fzfg": false,
      "metar_trigger": false,
      "taf_trigger": false,
      "metar": "METAR LQSA 192300Z 13001KT 6000 BKN015 M06/M07 Q1030",
      "taf": "TAF LQSA 192300Z 2000/2024 VRB02KT 7000 FEW035 TX00/2013Z TNM10/2006Z"
    },
    {
      "icao": "LQTZ",
      "alert": "OK",
      "vis_m": 4000,
      "fzfg": false,
      "metar_trigger": false,
      "taf_trigger": false,
      "metar": "METAR LQTZ 192300Z VRB01KT 4000 BR NSC M09/M09 Q1033",
      "taf": ""
    },
    {
      "icao": "LRBC",
      "alert": "OK",
      "vis_m": 9000,
      "fzfg": false,
      "metar_trigger": false,
      "taf_trigger": false,
      "metar": "METAR LRBC 192300Z 36003KT 9000 NSC M10/M12 Q1036",
      "taf": "TAF LRBC 192000Z 1921/2006 VRB04KT CAVOK"
    },
    {
      "icao": "LRBS",
      "alert": "OK",
      "vis_m": 3000,
      "fzfg": false,
      "metar_trigger": false,
      "taf_trigger": false,
      "metar": "METAR LRBS 192300Z 28004KT 250V320 3000 BR NSC M07/M09 Q1037 NOSIG",
      "taf": "TAF LRBS 191700Z 1918/2018 25006KT CAVOK"
    },
    {
      "icao": "LRBV",
      "alert": "OK",
      "vis_m": 9000,
      "fzfg": false,
      "metar_trigger": false,
      "taf_trigger": false,
      "metar": "METAR LRBV 192300Z AUTO 22006KT 9000 NCD M11/M13 Q1034",
      "taf": "TAF LRBV 192000Z 1921/2006 21006KT 7000 NSC"
    },
    {
      "icao": "LRCL",
      "alert": "OK",
      "vis_m": 5000,
      "fzfg": false,
      "metar_trigger": false,
      "taf_trigger": false,
      "metar": "METAR LRCL 192300Z 00000KT 5000 BR NSC M12/M14 Q1036",
      "taf": "TAF LRCL 192000Z 1921/2006 VRB04KT 5000 BR NSC"
    },
    {
      "icao": "LRCV",
      "alert": "OK",
      "vis_m": 5000,
      "fzfg": false,
      "metar_trigger": false,
      "taf_trigger": false,
      "metar": "METAR LRCV 192300Z 27005KT 5000 BR NSC M08/M09 Q1037",
      "taf": "TAF LRCV 192000Z 1921/2006 VRB04KT 7000 NSC"
    },
    {
      "icao": "LRIA",
      "alert": "OK",
      "vis_m": 6000,
      "fzfg": false,
      "metar_trigger": false,
      "taf_trigger": false,
      "metar": "METAR LRIA 192300Z 25003KT 6000 NSC M12/M14 Q1037",
      "taf": "TAF LRIA 192000Z 1921/2006 VRB04KT 5000 BR NSC"
    },
    {
      "icao": "LROP",
      "alert": "OK",
      "vis_m": 3000,
      "fzfg": false,
      "metar_trigger": false,
      "taf_trigger": false,
      "metar": "METAR LROP 192300Z 23004KT 3000 BR NSC M08/M10 Q1037 NOSIG",
      "taf": "TAF LROP 191700Z 1918/2018 25006KT CAVOK"
    },
    {
      "icao": "LRSB",
      "alert": "OK",
      "vis_m": 5000,
      "fzfg": false,
      "metar_trigger": false,
      "taf_trigger": false,
      "metar": "METAR LRSB 192300Z 27006KT 5000 BR NSC M12/M13 Q1035",
      "taf": "TAF LRSB 191700Z 1918/2018 VRB04KT CAVOK"
    },
    {
      "icao": "LRSM",
      "alert": "OK",
      "vis_m": 250,
      "fzfg": true,
      "metar_trigger": false,
      "taf_trigger": false,
      "metar": "METAR LRSM 192300Z AUTO 08003KT 0250 R19/0275N FZFG VV001 M09/M10 Q1037",
      "taf": "TAF LRSM 191400Z 1915/1924 VRB04KT CAVOK"
    },
    {
      "icao": "LRSV",
      "alert": "OK",
      "vis_m": 9999,
      "fzfg": false,
      "metar_trigger": false,
      "taf_trigger": false,
      "metar": "METAR LRSV 192300Z 23004KT CAVOK M09/M10 Q1033",
      "taf": "TAF LRSV 192000Z 1921/2006 VRB04KT CAVOK"
    },
    {
      "icao": "LRTM",
      "alert": "OK",
      "vis_m": 4600,
      "fzfg": false,
      "metar_trigger": false,
      "taf_trigger": false,
      "metar": "METAR LRTM 192300Z AUTO 05001KT 4600 BR NCD M15/M17 Q1036",
      "taf": "TAF LRTM 191400Z 1915/1924 VRB04KT 5000 BR FEW010"
    },
    {
      "icao": "LRTR",
      "alert": "OK",
      "vis_m": 8000,
      "fzfg": false,
      "metar_trigger": false,
      "taf_trigger": false,
      "metar": "METAR LRTR 192300Z VRB02KT 8000 NSC M07/M07 Q1036",
      "taf": "TAF LRTR 191700Z 1918/2018 VRB04KT CAVOK"
    },
    {
      "icao": "LTAC",
      "alert": "OK",
      "vis_m": 9999,
      "fzfg": false,
      "metar_trigger": false,
      "taf_trigger": false,
      "metar": "METAR LTAC 192250Z 19004KT 140V210 9999 FEW040 M06/M09 Q1024 NOSIG RMK RWY21C 14006KT RWY03L VRB02KT RWY21R 13004KT RWY03R 15003KT RWY21L 12005KT",
      "taf": "TAF LTAC 192240Z 2000/2024 VRB02KT 9999 SCT035"
    },
    {
      "icao": "LTFM",
      "alert": "OK",
      "vis_m": 9999,
      "fzfg": false,
      "metar_trigger": false,
      "taf_trigger": false,
      "metar": "METAR LTFM 192250Z 01019KT 9999 -RA BKN012 BKN022 03/M01 Q1033 NOSIG RMK RWY17L 36018KT RWY34L 36019KT RWY16R 36018KT RWY36 36019KT RWY18 01019KT",
      "taf": "TAF LTFM 192240Z 2000/2106 04016G26KT 7000 -RA BKN011 BKN022"
    },
    {
      "icao": "LUKK",
      "alert": "OK",
      "vis_m": 7000,
      "fzfg": false,
      "metar_trigger": false,
      "taf_trigger": false,
      "metar": "METAR LUKK 192300Z 36004KT 7000 NSC M11/M12 Q1037 BECMG 3000 BR",
      "taf": "TAF LUKK 191716Z 1918/2018 VRB04KT CAVOK"
    },
    {
      "icao": "LWOH",
      "alert": "OK",
      "vis_m": null,
      "fzfg": false,
      "metar_trigger": false,
      "taf_trigger": false,
      "metar": "",
      "taf": "TAF LWOH 192030Z 1921/2021 VRB02KT 9999 FEW040"
    },
    {
      "icao": "LWSK",
      "alert": "OK",
      "vis_m": 9999,
      "fzfg": false,
      "metar_trigger": false,
      "taf_trigger": false,
      "metar": "METAR LWSK 192250Z 12003KT CAVOK M06/M08 Q1034 NOSIG",
      "taf": "TAF LWSK 192030Z 1921/2021 VRB02KT CAVOK"
    },
    {
      "icao": "LYBE",
      "alert": "OK",
      "vis_m": 9999,
      "fzfg": false,
      "metar_trigger": false,
      "taf_trigger": false,
      "metar": "METAR LYBE 192300Z 11008KT CAVOK M03/M08 Q1035 NOSIG",
      "taf": "TAF LYBE 191700Z 1918/2018 10013KT CAVOK TX03/2013Z TNM06/2005Z"
    },
    {
      "icao": "LYNI",
      "alert": "OK",
      "vis_m": 9999,
      "fzfg": false,
      "metar_trigger": false,
      "taf_trigger": false,
      "metar": "METAR LYNI 192300Z VRB02KT CAVOK M07/M09 Q1035 NOSIG",
      "taf": "TAF LYNI 191700Z 1918/2018 06006KT CAVOK TX04/2013Z TNM09/2005Z"
    },
    {
      "icao": "LYPG",
      "alert": "OK",
      "vis_m": 9999,
      "fzfg": false,
      "metar_trigger": false,
      "taf_trigger": false,
      "metar": "METAR LYPG 192300Z 36005KT CAVOK M01/M04 Q1029 NOSIG",
      "taf": "TAF LYPG 191700Z 1918/2018 35005KT CAVOK TX10/2013Z TNM03/2005Z"
    },
    {
      "icao": "LZIB",
      "alert": "OK",
      "vis_m": 7000,
      "fzfg": false,
      "metar_trigger": false,
      "taf_trigger": false,
      "metar": "METAR LZIB 192300Z 11009KT 7000 FEW006 M06/M07 Q1035 NOSIG",
      "taf": ""
    },
    {
      "icao": "LZKZ",
      "alert": "OK",
      "vis_m": 200,
      "fzfg": true,
      "metar_trigger": false,
      "taf_trigger": false,
      "metar": "METAR LZKZ 192300Z 00000KT 0200 R01/0250N FZFG NSC M14/M15 Q1036 NOSIG",
      "taf": ""
    },
    {
      "icao": "LZTT",
      "alert": "OK",
      "vis_m": 9999,
      "fzfg": false,
      "metar_trigger": false,
      "taf_trigger": false,
      "metar": "METAR LZTT 192300Z 28005KT CAVOK M14/M16 Q1031",
      "taf": ""
    },
    {
      "icao": "OEJN",
      "alert": "OK",
      "vis_m": 9999,
      "fzfg": false,
      "metar_trigger": false,
      "taf_trigger": false,
      "metar": "METAR OEJN 192300Z 35005KT CAVOK 21/11 Q1014 NOSIG",
      "taf": "TAF OEJN 192300Z 2000/2106 03006KT 9999 FEW040"
    },
    {
      "icao": "OEMA",
      "alert": "OK",
      "vis_m": 9999,
      "fzfg": false,
      "metar_trigger": false,
      "taf_trigger": false,
      "metar": "METAR OEMA 192300Z 03005KT CAVOK 14/M05 Q1018 NOSIG",
      "taf": "TAF OEMA 192300Z 2000/2106 VRB03KT CAVOK"
    },
    {
      "icao": "OJAI",
      "alert": "OK",
      "vis_m": 5000,
      "fzfg": false,
      "metar_trigger": false,
      "taf_trigger": false,
      "metar": "METAR OJAI 192300Z 31004KT 5000 BR NSC 04/02 Q1020 NOSIG",
      "taf": "TAF OJAI 191652Z 1918/2024 29006KT 7000 FEW035"
    },
    {
      "icao": "OMAA",
      "alert": "OK",
      "vis_m": 9999,
      "fzfg": false,
      "metar_trigger": false,
      "taf_trigger": false,
      "metar": "METAR OMAA 192300Z 12008KT CAVOK 17/10 Q1014 NOSIG",
      "taf": "TAF OMAA 192300Z 2000/2106 15007KT 8000 NSC"
    },
    {
      "icao": "OMDB",
      "alert": "OK",
      "vis_m": 9999,
      "fzfg": false,
      "metar_trigger": false,
      "taf_trigger": false,
      "metar": "METAR OMDB 192300Z 20003KT 140V250 CAVOK 18/13 Q1014 NOSIG",
      "taf": "TAF OMDB 192300Z 2000/2106 13005KT 8000 NSC"
    },
    {
      "icao": "UAAA",
      "alert": "OK",
      "vis_m": 1800,
      "fzfg": false,
      "metar_trigger": false,
      "taf_trigger": false,
      "metar": "METAR UAAA 192300Z 18002MPS 1800 R05R/P2000D BR FEW100 M14/M16 Q1024 NOSIG",
      "taf": "TAF UAAA 191703Z 1918/2018 22003MPS 1100 BR FU SCT011 BKN030 TXM07/2008Z TNM17/2003Z"
    },
    {
      "icao": "UBBB",
      "alert": "OK",
      "vis_m": 9999,
      "fzfg": false,
      "metar_trigger": false,
      "taf_trigger": false,
      "metar": "METAR UBBB 192300Z 36016KT 9999 -SN BKN034 02/M01 Q1023 NOSIG",
      "taf": "TAF UBBB 192300Z 2000/2024 35016KT 9999 OVC025 TX03/2011Z TN01/2001Z"
    },
    {
      "icao": "UDSG",
      "alert": "OK",
      "vis_m": 9999,
      "fzfg": false,
      "metar_trigger": false,
      "taf_trigger": false,
      "metar": "METAR UDSG 192300Z 22002KT 9999 BKN046 M05/M11 Q1011 NOSIG",
      "taf": "TAF UDSG 191658Z 1918/2018 36006KT 5000 BR BKN030"
    },
    {
      "icao": "UDYZ",
      "alert": "OK",
      "vis_m": 1200,
      "fzfg": false,
      "metar_trigger": false,
      "taf_trigger": false,
      "metar": "METAR UDYZ 192300Z 13004KT 1200 1100N R08/P2000N -SN BR BKN007 OVC026 M01/M02 Q1012 NOSIG",
      "taf": "TAF UDYZ 191700Z 1918/2018 VRB06KT 2000 BR OVC020"
    },
    {
      "icao": "UGKO",
      "alert": "OK",
      "vis_m": 9999,
      "fzfg": false,
      "metar_trigger": false,
      "taf_trigger": false,
      "metar": "METAR UGKO 192300Z VRB02KT 9999 BKN083 01/01 Q1020 NOSIG",
      "taf": "TAF UGKO 192300Z 2000/2024 08006KT 9999 SCT030 BKN070 TX06/2012Z TNM01/2002Z"
    }
  ]
}