{
  "ts_utc": "2026-04-25T09:06:56Z",
  "threshold_m": 150,
  "source": "stations_override.txt (ICAO list) + aviationweather.gov (METAR/TAF raw)",
  "station_count": 159,
  "stations": [
    {
      "icao": "BIKF",
      "alert": "OK",
      "vis_m": 9999,
      "fzfg": false,
      "metar_trigger": false,
      "taf_trigger": false,
      "metar": "METAR BIKF 250900Z 15018KT 9999 -DZ OVC009 07/05 Q1022",
      "taf": "TAF BIKF 250749Z 2509/2609 14022G32KT 9999 -DZRA SCT011 OVC025 TX08/2515Z TN06/2523Z"
    },
    {
      "icao": "BKPR",
      "alert": "OK",
      "vis_m": 9999,
      "fzfg": false,
      "metar_trigger": false,
      "taf_trigger": false,
      "metar": "METAR BKPR 250900Z 08004KT 040V210 9999 FEW040 17/02 Q1018 NOSIG",
      "taf": "TAF BKPR 250530Z 2506/2606 11006KT 9999 FEW040"
    },
    {
      "icao": "EBCI",
      "alert": "OK",
      "vis_m": 9999,
      "fzfg": false,
      "metar_trigger": false,
      "taf_trigger": false,
      "metar": "METAR EBCI 250850Z 36003KT 320V050 9999 FEW004 10/06 Q1021 NOSIG",
      "taf": "TAF EBCI 250510Z 2506/2612 VRB03KT CAVOK"
    },
    {
      "icao": "EDDB",
      "alert": "OK",
      "vis_m": 9999,
      "fzfg": false,
      "metar_trigger": false,
      "taf_trigger": false,
      "metar": "METAR EDDB 250850Z AUTO 27015KT CAVOK 10/04 Q1014 NOSIG",
      "taf": "TAF EDDB 250500Z 2506/2606 28012KT 9999 BKN015"
    },
    {
      "icao": "EDDH",
      "alert": "OK",
      "vis_m": 9999,
      "fzfg": false,
      "metar_trigger": false,
      "taf_trigger": false,
      "metar": "METAR EDDH 250850Z AUTO 28017KT 250V310 9999 BKN022 09/04 Q1017 TEMPO 30015G25KT",
      "taf": "TAF EDDH 250500Z 2506/2612 29012KT 9999 OVC015"
    },
    {
      "icao": "EDDK",
      "alert": "OK",
      "vis_m": 4500,
      "fzfg": false,
      "metar_trigger": false,
      "taf_trigger": false,
      "metar": "METAR EDDK 250850Z AUTO VRB02KT 4500 BR OVC005 08/06 Q1021 BECMG 5000 BKN010",
      "taf": ""
    },
    {
      "icao": "EDDN",
      "alert": "OK",
      "vis_m": 9999,
      "fzfg": false,
      "metar_trigger": false,
      "taf_trigger": false,
      "metar": "METAR EDDN 250850Z AUTO 27004KT 210V330 CAVOK 15/03 Q1018 NOSIG",
      "taf": "TAF EDDN 250500Z 2506/2606 10003KT CAVOK"
    },
    {
      "icao": "EDDS",
      "alert": "OK",
      "vis_m": 9999,
      "fzfg": false,
      "metar_trigger": false,
      "taf_trigger": false,
      "metar": "METAR EDDS 250850Z AUTO 05002KT CAVOK 15/04 Q1018 NOSIG",
      "taf": "TAF EDDS 250500Z 2506/2606 VRB03KT CAVOK"
    },
    {
      "icao": "EDFH",
      "alert": "OK",
      "vis_m": 9999,
      "fzfg": false,
      "metar_trigger": false,
      "taf_trigger": false,
      "metar": "METAR EDFH 250850Z 01004KT 320V110 CAVOK 13/05 Q1019",
      "taf": "TAF EDFH 250500Z 2506/2606 VRB03KT CAVOK"
    },
    {
      "icao": "EDJA",
      "alert": "OK",
      "vis_m": 9999,
      "fzfg": false,
      "metar_trigger": false,
      "taf_trigger": false,
      "metar": "METAR EDJA 250850Z VRB02KT CAVOK 15/M01 Q1018",
      "taf": "TAF EDJA 250800Z 2509/2518 VRB02KT CAVOK"
    },
    {
      "icao": "EDLW",
      "alert": "OK",
      "vis_m": 7000,
      "fzfg": false,
      "metar_trigger": false,
      "taf_trigger": false,
      "metar": "METAR EDLW 250850Z VRB03KT 7000 OVC005 06/06 Q1020",
      "taf": ""
    },
    {
      "icao": "EDNY",
      "alert": "OK",
      "vis_m": 9999,
      "fzfg": false,
      "metar_trigger": false,
      "taf_trigger": false,
      "metar": "METAR EDNY 250850Z 24004KT 180V290 CAVOK 14/03 Q1019",
      "taf": "TAF EDNY 250843Z 2509/2518 VRB03KT CAVOK"
    },
    {
      "icao": "EDSB",
      "alert": "OK",
      "vis_m": 9999,
      "fzfg": false,
      "metar_trigger": false,
      "taf_trigger": false,
      "metar": "METAR EDSB 250850Z 02004KT 310V070 CAVOK 14/06 Q1019",
      "taf": "TAF EDSB 250500Z 2506/2606 VRB03KT CAVOK"
    },
    {
      "icao": "EETN",
      "alert": "OK",
      "vis_m": 9999,
      "fzfg": false,
      "metar_trigger": false,
      "taf_trigger": false,
      "metar": "METAR EETN 250850Z 25013KT 9999 -RA OVC012 07/05 Q0994 TEMPO BKN008",
      "taf": "TAF EETN 250530Z 2506/2606 24015KT 9999 BKN030"
    },
    {
      "icao": "EFTU",
      "alert": "OK",
      "vis_m": 9999,
      "fzfg": false,
      "metar_trigger": false,
      "taf_trigger": false,
      "metar": "METAR EFTU 250850Z AUTO 30010KT 270V340 9999 -SHRA BKN033 08/00 Q0992",
      "taf": "TAF EFTU 250837Z 2509/2609 29011KT 9999 FEW035 BKN050"
    },
    {
      "icao": "EGBB",
      "alert": "OK",
      "vis_m": 9999,
      "fzfg": false,
      "metar_trigger": false,
      "taf_trigger": false,
      "metar": "METAR EGBB 250850Z VRB02KT CAVOK 14/03 Q1021",
      "taf": "TAF EGBB 250457Z 2506/2606 VRB02KT CAVOK"
    },
    {
      "icao": "EGGP",
      "alert": "OK",
      "vis_m": 9999,
      "fzfg": false,
      "metar_trigger": false,
      "taf_trigger": false,
      "metar": "METAR EGGP 250850Z VRB02KT CAVOK 13/03 Q1021",
      "taf": "TAF EGGP 250454Z 2506/2606 VRB04KT CAVOK"
    },
    {
      "icao": "EGGW",
      "alert": "OK",
      "vis_m": 9999,
      "fzfg": false,
      "metar_trigger": false,
      "taf_trigger": false,
      "metar": "METAR EGGW 250850Z AUTO 14003KT 080V190 9999 NCD 13/M01 Q1021",
      "taf": "TAF EGGW 250457Z 2506/2606 10004KT 3000 BR NSC"
    },
    {
      "icao": "EGKK",
      "alert": "OK",
      "vis_m": 9999,
      "fzfg": false,
      "metar_trigger": false,
      "taf_trigger": false,
      "metar": "METAR EGKK 250850Z 08003KT 040V130 CAVOK 08/05 Q1022",
      "taf": ""
    },
    {
      "icao": "EGNM",
      "alert": "OK",
      "vis_m": 9999,
      "fzfg": false,
      "metar_trigger": false,
      "taf_trigger": false,
      "metar": "METAR EGNM 250850Z 02003KT 360V070 CAVOK 15/02 Q1021",
      "taf": "TAF EGNM 250453Z 2506/2606 28006KT CAVOK"
    },
    {
      "icao": "EGPD",
      "alert": "OK",
      "vis_m": 9999,
      "fzfg": false,
      "metar_trigger": false,
      "taf_trigger": false,
      "metar": "METAR EGPD 250850Z COR AUTO 32009KT 9999 BKN023 10/04 Q1022 NOSIG",
      "taf": "TAF EGPD 250453Z 2506/2606 VRB03KT 9999 BKN025"
    },
    {
      "icao": "EGPF",
      "alert": "OK",
      "vis_m": 8000,
      "fzfg": false,
      "metar_trigger": false,
      "taf_trigger": false,
      "metar": "METAR EGPF 250850Z AUTO 06008KT 8000 OVC008 07/06 Q1023",
      "taf": ""
    },
    {
      "icao": "EHBK",
      "alert": "OK",
      "vis_m": 200,
      "fzfg": false,
      "metar_trigger": false,
      "taf_trigger": false,
      "metar": "METAR EHBK 250855Z AUTO 29003KT 230V340 0200 R21/0325N FG VV000 06/06 Q1021 BECMG 2000 BR BKN002",
      "taf": ""
    },
    {
      "icao": "EHEH",
      "alert": "OK",
      "vis_m": 9999,
      "fzfg": false,
      "metar_trigger": false,
      "taf_trigger": false,
      "metar": "METAR EHEH 250855Z AUTO 25002KT 9999 NCD 08/04 Q1021 BLU NOSIG RMK TREND REMOTE BY EHWX",
      "taf": "TAF EHEH 250411Z 2506/2612 35002KT 8000 BR OVC005"
    },
    {
      "icao": "EKBI",
      "alert": "OK",
      "vis_m": 9999,
      "fzfg": false,
      "metar_trigger": false,
      "taf_trigger": false,
      "metar": "METAR EKBI 250850Z AUTO 29020KT 9999 BKN027/// 09/03 Q1013",
      "taf": "TAF EKBI 250827Z 2509/2609 30018KT 9999 BKN020"
    },
    {
      "icao": "EKCH",
      "alert": "OK",
      "vis_m": 9999,
      "fzfg": false,
      "metar_trigger": false,
      "taf_trigger": false,
      "metar": "METAR EKCH 250850Z AUTO 30020KT 9999 BKN028/// 10/03 Q1008 TEMPO 29016G30KT",
      "taf": "TAF EKCH 250827Z 2509/2609 29016KT 9999 SCT020"
    },
    {
      "icao": "ENAL",
      "alert": "OK",
      "vis_m": 9999,
      "fzfg": false,
      "metar_trigger": false,
      "taf_trigger": false,
      "metar": "METAR ENAL 250850Z 36009KT 310V030 9999 VCSH SCT015 BKN033 03/00 Q1014",
      "taf": "TAF ENAL 250800Z 2509/2518 35012KT 9999 FEW008 SCT020TCU BKN030"
    },
    {
      "icao": "ENBR",
      "alert": "OK",
      "vis_m": 9999,
      "fzfg": false,
      "metar_trigger": false,
      "taf_trigger": false,
      "metar": "METAR ENBR 250850Z 34019KT 9999 FEW033TCU SCT033 06/M01 Q1013 TEMPO 34020G20KT RMK WIND 1200FT 34025KT",
      "taf": "TAF ENBR 250500Z 2506/2606 33012KT 9999 -SHRA FEW015TCU BKN030"
    },
    {
      "icao": "ENGM",
      "alert": "OK",
      "vis_m": 9999,
      "fzfg": false,
      "metar_trigger": false,
      "taf_trigger": false,
      "metar": "METAR ENGM 250850Z 03014KT 9999 VCSH FEW013 SCT040CB 05/M00 Q1005 TEMPO 36015G25KT",
      "taf": "TAF ENGM 250500Z 2506/2606 30008KT CAVOK"
    },
    {
      "icao": "ENHD",
      "alert": "OK",
      "vis_m": 9999,
      "fzfg": false,
      "metar_trigger": false,
      "taf_trigger": false,
      "metar": "METAR ENHD 250850Z 34023KT 9999 VCSH FEW023 08/02 Q1014",
      "taf": "TAF ENHD 250800Z 2509/2518 33018G28KT 9999 FEW010 BKN020"
    },
    {
      "icao": "ENTC",
      "alert": "OK",
      "vis_m": 9999,
      "fzfg": false,
      "metar_trigger": false,
      "taf_trigger": false,
      "metar": "METAR ENTC 250850Z VRB01KT 9999 VCSH FEW015 SCT020 BKN034 00/M03 Q1000 TEMPO 0400 +SHSN VV004 RMK WIND 2600FT 34025KT",
      "taf": ""
    },
    {
      "icao": "ENTO",
      "alert": "OK",
      "vis_m": 9999,
      "fzfg": false,
      "metar_trigger": false,
      "taf_trigger": false,
      "metar": "METAR ENTO 250850Z 36013KT CAVOK 12/M04 Q1004 NOSIG",
      "taf": "TAF ENTO 250500Z 2506/2606 30008KT CAVOK"
    },
    {
      "icao": "ENVA",
      "alert": "OK",
      "vis_m": 9999,
      "fzfg": false,
      "metar_trigger": false,
      "taf_trigger": false,
      "metar": "METAR ENVA 250850Z 32011KT 9999 VCSH FEW015 SCT020 BKN030 04/M02 Q1009 TEMPO 30015G25KT 1500 -SHSN VV008 RMK WIND 670FT 31022KT",
      "taf": "TAF ENVA 250500Z 2506/2606 32008KT 9999 FEW020 BKN030"
    },
    {
      "icao": "ENZV",
      "alert": "OK",
      "vis_m": 9999,
      "fzfg": false,
      "metar_trigger": false,
      "taf_trigger": false,
      "metar": "METAR ENZV 250850Z 33019KT 9999 -SHRA FEW018 SCT031 07/03 Q1013 TEMPO 33025G35KT",
      "taf": "TAF ENZV 250500Z 2506/2606 33018KT 9999 SCT010 BKN025"
    },
    {
      "icao": "EPGD",
      "alert": "OK",
      "vis_m": 9999,
      "fzfg": false,
      "metar_trigger": false,
      "taf_trigger": false,
      "metar": "METAR EPGD 250900Z 26027KT 9999 BKN018 10/03 Q1005",
      "taf": ""
    },
    {
      "icao": "EPKK",
      "alert": "OK",
      "vis_m": 9999,
      "fzfg": false,
      "metar_trigger": false,
      "taf_trigger": false,
      "metar": "METAR EPKK 250900Z 26013KT 9999 SCT033 13/06 Q1013",
      "taf": "TAF EPKK 250830Z 2509/2609 25010KT 9999 SCT025"
    },
    {
      "icao": "EPKT",
      "alert": "OK",
      "vis_m": 9999,
      "fzfg": false,
      "metar_trigger": false,
      "taf_trigger": false,
      "metar": "METAR EPKT 250900Z 24013KT 9999 SCT021 12/06 Q1012",
      "taf": "TAF EPKT 250530Z 2506/2606 23008KT 9999 SCT020"
    },
    {
      "icao": "EPLB",
      "alert": "OK",
      "vis_m": 9999,
      "fzfg": false,
      "metar_trigger": false,
      "taf_trigger": false,
      "metar": "METAR EPLB 250900Z 26017KT 9999 SCT034 BKN039 15/07 Q1009",
      "taf": "TAF EPLB 250530Z 2506/2606 26011KT CAVOK"
    },
    {
      "icao": "EPMO",
      "alert": "OK",
      "vis_m": 9999,
      "fzfg": false,
      "metar_trigger": false,
      "taf_trigger": false,
      "metar": "METAR EPMO 250900Z 24018KT 9999 SCT030 14/07 Q1008",
      "taf": "TAF EPMO 250530Z 2506/2606 25010KT CAVOK"
    },
    {
      "icao": "EPPO",
      "alert": "OK",
      "vis_m": 9999,
      "fzfg": false,
      "metar_trigger": false,
      "taf_trigger": false,
      "metar": "METAR EPPO 250900Z 27012KT 9999 BKN022 11/05 Q1011",
      "taf": "TAF EPPO 250530Z 2506/2606 27013KT 9999 OVC007"
    },
    {
      "icao": "EPRA",
      "alert": "OK",
      "vis_m": 9999,
      "fzfg": false,
      "metar_trigger": false,
      "taf_trigger": false,
      "metar": "METAR EPRA 250900Z 28016KT 9999 SCT030 14/06 Q1010",
      "taf": "TAF EPRA 250830Z 2509/2518 26015KT 9999 SCT035"
    },
    {
      "icao": "EPRZ",
      "alert": "OK",
      "vis_m": 9999,
      "fzfg": false,
      "metar_trigger": false,
      "taf_trigger": false,
      "metar": "METAR EPRZ 250900Z 24015KT 220V280 9999 SCT035 14/05 Q1012",
      "taf": "TAF EPRZ 250530Z 2506/2606 25013KT 9999 SCT020"
    },
    {
      "icao": "EPSC",
      "alert": "OK",
      "vis_m": 9999,
      "fzfg": false,
      "metar_trigger": false,
      "taf_trigger": false,
      "metar": "METAR EPSC 250900Z 25013KT 220V280 9999 BKN025 10/03 Q1011",
      "taf": "TAF EPSC 250530Z 2506/2606 28016KT 9999 BKN017"
    },
    {
      "icao": "EPSY",
      "alert": "OK",
      "vis_m": 9999,
      "fzfg": false,
      "metar_trigger": false,
      "taf_trigger": false,
      "metar": "METAR EPSY 250900Z 24015KT 210V280 9999 SCT032 13/05 Q1005",
      "taf": "TAF EPSY 250830Z 2509/2518 25012KT 9999 SCT040"
    },
    {
      "icao": "EPWA",
      "alert": "OK",
      "vis_m": 9999,
      "fzfg": false,
      "metar_trigger": false,
      "taf_trigger": false,
      "metar": "METAR EPWA 250900Z 26016KT 230V290 9999 SCT033 15/05 Q1008 NOSIG",
      "taf": "TAF EPWA 250830Z 2509/2609 26013KT CAVOK"
    },
    {
      "icao": "EPWR",
      "alert": "OK",
      "vis_m": 9999,
      "fzfg": false,
      "metar_trigger": false,
      "taf_trigger": false,
      "metar": "METAR EPWR 250900Z 29017KT CAVOK 13/06 Q1013",
      "taf": "TAF EPWR 250830Z 2509/2609 27014KT CAVOK"
    },
    {
      "icao": "ESGG",
      "alert": "OK",
      "vis_m": 9999,
      "fzfg": false,
      "metar_trigger": false,
      "taf_trigger": false,
      "metar": "METAR ESGG 250850Z 28012KT 250V310 9999 FEW021 08/02 Q1004",
      "taf": "TAF ESGG 250830Z 2509/2609 30015G27KT CAVOK"
    },
    {
      "icao": "ESKN",
      "alert": "OK",
      "vis_m": 9999,
      "fzfg": false,
      "metar_trigger": false,
      "taf_trigger": false,
      "metar": "METAR ESKN 250850Z 28013KT 250V320 9999 FEW038 SCT076 12/03 Q0997",
      "taf": "TAF ESKN 250830Z 2509/2609 33015G27KT CAVOK"
    },
    {
      "icao": "ESMS",
      "alert": "OK",
      "vis_m": 9999,
      "fzfg": false,
      "metar_trigger": false,
      "taf_trigger": false,
      "metar": "METAR ESMS 250850Z 30024KT 9999 SCT024 09/03 Q1007",
      "taf": "TAF ESMS 250827Z 2509/2609 30018KT 9999 SCT020"
    },
    {
      "icao": "ESSA",
      "alert": "OK",
      "vis_m": 9999,
      "fzfg": false,
      "metar_trigger": false,
      "taf_trigger": false,
      "metar": "METAR ESSA 250850Z 32014KT CAVOK 10/M02 Q0996 NOSIG",
      "taf": "TAF ESSA 250830Z 2509/2609 30012KT 9999 SCT040"
    },
    {
      "icao": "EYKA",
      "alert": "OK",
      "vis_m": 9999,
      "fzfg": false,
      "metar_trigger": false,
      "taf_trigger": false,
      "metar": "METAR EYKA 250850Z 24010KT 200V270 CAVOK 10/02 Q1002",
      "taf": "TAF EYKA 250507Z 2506/2606 VRB03KT 8000 SCT030"
    },
    {
      "icao": "EYPA",
      "alert": "OK",
      "vis_m": 6000,
      "fzfg": false,
      "metar_trigger": false,
      "taf_trigger": false,
      "metar": "METAR EYPA 250850Z 25007KT 200V310 6000 BKN004 OVC007 06/05 Q1000",
      "taf": ""
    },
    {
      "icao": "EYVI",
      "alert": "OK",
      "vis_m": 9999,
      "fzfg": false,
      "metar_trigger": false,
      "taf_trigger": false,
      "metar": "METAR EYVI 250850Z 25011KT 230V290 CAVOK 11/M01 Q1003 NOSIG",
      "taf": "TAF EYVI 250507Z 2506/2606 24012KT 9000 SCT030"
    },
    {
      "icao": "GCFV",
      "alert": "OK",
      "vis_m": 9999,
      "fzfg": false,
      "metar_trigger": false,
      "taf_trigger": false,
      "metar": "METAR GCFV 250900Z 02014KT 9999 SCT025 21/14 Q1016",
      "taf": "TAF GCFV 250800Z 2509/2609 05014KT 9999 SCT020 TX22/2514Z TN17/2606Z"
    },
    {
      "icao": "GCLP",
      "alert": "OK",
      "vis_m": 9999,
      "fzfg": false,
      "metar_trigger": false,
      "taf_trigger": false,
      "metar": "METAR GCLP 250900Z 36013KT 320V030 9999 -RA BKN020 20/15 Q1016 NOSIG",
      "taf": "TAF GCLP 250800Z 2509/2609 02015KT 9999 SCT030 TX22/2514Z TN16/2606Z"
    },
    {
      "icao": "GCTS",
      "alert": "OK",
      "vis_m": 9999,
      "fzfg": false,
      "metar_trigger": false,
      "taf_trigger": false,
      "metar": "METAR GCTS 250900Z VRB02KT 9999 FEW025 21/14 Q1017 NOSIG",
      "taf": "TAF GCTS 250800Z 2509/2609 08010KT 9999 BKN025 TX23/2514Z TN16/2606Z"
    },
    {
      "icao": "GMAD",
      "alert": "OK",
      "vis_m": 9999,
      "fzfg": false,
      "metar_trigger": false,
      "taf_trigger": false,
      "metar": "METAR GMAD 250900Z 19004KT 170V230 CAVOK 20/13 Q1010 NOSIG",
      "taf": "TAF GMAD 250500Z 2506/2612 12005KT 8000 SCT020"
    },
    {
      "icao": "GMMN",
      "alert": "OK",
      "vis_m": 9999,
      "fzfg": false,
      "metar_trigger": false,
      "taf_trigger": false,
      "metar": "METAR GMMN 250900Z 05010KT 020V080 CAVOK 19/14 Q1014 NOSIG",
      "taf": "TAF GMMN 250500Z 2506/2612 04004KT 9999 SCT016"
    },
    {
      "icao": "GMMX",
      "alert": "OK",
      "vis_m": 8000,
      "fzfg": false,
      "metar_trigger": false,
      "taf_trigger": false,
      "metar": "METAR GMMX 250900Z 07006KT 050V120 8000 NSC 16/12 Q1013 NOSIG",
      "taf": "TAF GMMX 250500Z 2506/2612 06006KT 8000 SCT020"
    },
    {
      "icao": "HEGN",
      "alert": "OK",
      "vis_m": 9999,
      "fzfg": false,
      "metar_trigger": false,
      "taf_trigger": false,
      "metar": "METAR HEGN 250800Z 36006KT CAVOK 27/07 Q1010 NOSIG",
      "taf": "TAF HEGN 250500Z 2506/2612 27008KT CAVOK"
    },
    {
      "icao": "HEMA",
      "alert": "OK",
      "vis_m": 9999,
      "fzfg": false,
      "metar_trigger": false,
      "taf_trigger": false,
      "metar": "METAR HEMA 250800Z 32008KT CAVOK 28/06 Q1010 NOSIG",
      "taf": "TAF HEMA 250500Z 2506/2612 28008KT CAVOK"
    },
    {
      "icao": "HESH",
      "alert": "OK",
      "vis_m": 9999,
      "fzfg": false,
      "metar_trigger": false,
      "taf_trigger": false,
      "metar": "METAR HESH 250800Z 36014KT CAVOK 29/12 Q1009 NOSIG",
      "taf": "TAF HESH 250500Z 2506/2612 32008KT CAVOK"
    },
    {
      "icao": "HESX",
      "alert": "OK",
      "vis_m": 9999,
      "fzfg": false,
      "metar_trigger": false,
      "taf_trigger": false,
      "metar": "METAR HESX 250800Z 07010KT CAVOK 26/09 Q1008 NOSIG",
      "taf": "TAF HESX 250500Z 2506/2612 09010KT CAVOK"
    },
    {
      "icao": "LATI",
      "alert": "OK",
      "vis_m": 9999,
      "fzfg": false,
      "metar_trigger": false,
      "taf_trigger": false,
      "metar": "METAR LATI 250850Z VRB02KT CAVOK 20/06 Q1016 NOSIG",
      "taf": "TAF LATI 250500Z 2506/2606 VRB03KT CAVOK TX24/2512Z TN09/2604Z"
    },
    {
      "icao": "LBPD",
      "alert": "OK",
      "vis_m": 9999,
      "fzfg": false,
      "metar_trigger": false,
      "taf_trigger": false,
      "metar": "METAR LBPD 250900Z AUTO 32009KT 290V350 9999 NCD 19/06 Q1015 NOSIG",
      "taf": "TAF LBPD 250500Z 2506/2606 VRB03KT 9999 SCT070"
    },
    {
      "icao": "LBSF",
      "alert": "OK",
      "vis_m": 9999,
      "fzfg": false,
      "metar_trigger": false,
      "taf_trigger": false,
      "metar": "METAR LBSF 250900Z 31011KT CAVOK 17/03 Q1017 NOSIG",
      "taf": "TAF LBSF 250500Z 2506/2606 VRB03KT 9999 SCT070"
    },
    {
      "icao": "LBWN",
      "alert": "OK",
      "vis_m": 9999,
      "fzfg": false,
      "metar_trigger": false,
      "taf_trigger": false,
      "metar": "METAR LBWN 250900Z VRB02KT CAVOK 19/04 Q1015 NOSIG",
      "taf": "TAF LBWN 250500Z 2506/2606 VRB04KT 9999 SCT045"
    },
    {
      "icao": "LCLK",
      "alert": "OK",
      "vis_m": 9999,
      "fzfg": false,
      "metar_trigger": false,
      "taf_trigger": false,
      "metar": "METAR LCLK 250900Z 07007KT CAVOK 23/17 Q1012 NOSIG",
      "taf": "TAF LCLK 250530Z 2506/2606 34008KT 9999 FEW025"
    },
    {
      "icao": "LCPH",
      "alert": "OK",
      "vis_m": 9999,
      "fzfg": false,
      "metar_trigger": false,
      "taf_trigger": false,
      "metar": "METAR LCPH 250900Z VRB02KT CAVOK 23/16 Q1011 NOSIG",
      "taf": ""
    },
    {
      "icao": "LEAL",
      "alert": "OK",
      "vis_m": 9999,
      "fzfg": false,
      "metar_trigger": false,
      "taf_trigger": false,
      "metar": "METAR LEAL 250900Z 31006KT 270V350 9999 -RA OVC045 17/10 Q1019 NOSIG",
      "taf": "TAF LEAL 250500Z 2506/2606 VRB03KT 9999 FEW020 TX22/2512Z TN10/2606Z"
    },
    {
      "icao": "LEBB",
      "alert": "OK",
      "vis_m": 9999,
      "fzfg": false,
      "metar_trigger": false,
      "taf_trigger": false,
      "metar": "METAR LEBB 250900Z 32004KT 260V030 9999 SCT023 17/11 Q1021 NOSIG",
      "taf": "TAF LEBB 250500Z 2506/2606 31009KT 9999 FEW010 SCT050 TX18/2512Z TN10/2606Z"
    },
    {
      "icao": "LEBL",
      "alert": "OK",
      "vis_m": 9999,
      "fzfg": false,
      "metar_trigger": false,
      "taf_trigger": false,
      "metar": "METAR LEBL 250900Z 15005KT CAVOK 18/12 Q1019 NOSIG",
      "taf": "TAF LEBL 250500Z 2506/2606 VRB04KT CAVOK TX20/2512Z TN14/2605Z"
    },
    {
      "icao": "LECH",
      "alert": "OK",
      "vis_m": 6000,
      "fzfg": false,
      "metar_trigger": false,
      "taf_trigger": false,
      "metar": "METAR LECH 250900Z AUTO 00000KT 6000 OVC007 15/12 Q1019",
      "taf": ""
    },
    {
      "icao": "LEMD",
      "alert": "OK",
      "vis_m": 9999,
      "fzfg": false,
      "metar_trigger": false,
      "taf_trigger": false,
      "metar": "METAR LEMD 250900Z 01004KT 330V090 9999 FEW020 SCT080 18/11 Q1018 NOSIG",
      "taf": "TAF LEMD 250500Z 2506/2612 VRB04KT 9999 FEW040 TX24/2515Z TN11/2606Z"
    },
    {
      "icao": "LEMG",
      "alert": "OK",
      "vis_m": 9999,
      "fzfg": false,
      "metar_trigger": false,
      "taf_trigger": false,
      "metar": "METAR LEMG 250900Z 13006KT 100V160 9999 FEW020 SCT035 BKN045 18/14 Q1017 NOSIG",
      "taf": "TAF LEMG 250500Z 2506/2606 31004KT 9999 FEW030 BKN050 TX19/2515Z TN14/2506Z"
    },
    {
      "icao": "LEVC",
      "alert": "OK",
      "vis_m": 9999,
      "fzfg": false,
      "metar_trigger": false,
      "taf_trigger": false,
      "metar": "METAR LEVC 250900Z 09004KT 030V150 9999 FEW016 19/13 Q1018 NOSIG",
      "taf": "TAF LEVC 250500Z 2506/2606 VRB03KT CAVOK TX23/2512Z TN13/2506Z"
    },
    {
      "icao": "LEXJ",
      "alert": "OK",
      "vis_m": 9999,
      "fzfg": false,
      "metar_trigger": false,
      "taf_trigger": false,
      "metar": "METAR LEXJ 250900Z 30007KT 9999 FEW018 BKN022 16/11 Q1021",
      "taf": "TAF LEXJ 250800Z 2509/2609 29009KT 9999 FEW010 SCT020 TX19/2514Z TN11/2603Z"
    },
    {
      "icao": "LEZG",
      "alert": "OK",
      "vis_m": 9999,
      "fzfg": false,
      "metar_trigger": false,
      "taf_trigger": false,
      "metar": "METAR LEZG 250900Z 30008KT 270V330 9999 FEW015 18/12 Q1019 NOSIG",
      "taf": "TAF LEZG 250500Z 2506/2606 VRB03KT CAVOK TX27/2515Z TN13/2506Z"
    },
    {
      "icao": "LEZL",
      "alert": "OK",
      "vis_m": 9999,
      "fzfg": false,
      "metar_trigger": false,
      "taf_trigger": false,
      "metar": "METAR LEZL 250900Z 19003KT 120V260 9999 SCT015 19/16 Q1016 NOSIG",
      "taf": "TAF LEZL 250800Z 2509/2609 VRB03KT 9999 FEW040 TX28/2515Z TN15/2606Z"
    },
    {
      "icao": "LFBD",
      "alert": "OK",
      "vis_m": 9999,
      "fzfg": false,
      "metar_trigger": false,
      "taf_trigger": false,
      "metar": "METAR LFBD 250900Z AUTO 24009KT 9999 OVC013 16/13 Q1020 BECMG BKN020",
      "taf": "TAF LFBD 250500Z 2506/2612 26008KT 9999 BKN010 TX22/2612Z TN15/2506Z"
    },
    {
      "icao": "LFLL",
      "alert": "OK",
      "vis_m": 9999,
      "fzfg": false,
      "metar_trigger": false,
      "taf_trigger": false,
      "metar": "METAR LFLL 250900Z VRB03KT CAVOK 17/08 Q1018 NOSIG",
      "taf": "TAF LFLL 250500Z 2506/2612 01005KT CAVOK"
    },
    {
      "icao": "LFLS",
      "alert": "OK",
      "vis_m": 9999,
      "fzfg": false,
      "metar_trigger": false,
      "taf_trigger": false,
      "metar": "METAR LFLS 250900Z AUTO VRB02KT CAVOK 19/08 Q1018 NOSIG",
      "taf": "TAF LFLS 250800Z 2509/2609 25004KT CAVOK"
    },
    {
      "icao": "LFMN",
      "alert": "OK",
      "vis_m": 9999,
      "fzfg": false,
      "metar_trigger": false,
      "taf_trigger": false,
      "metar": "METAR LFMN 250900Z 13005KT 9999 FEW023 18/12 Q1017 NOSIG",
      "taf": "TAF LFMN 250800Z 2509/2615 VRB03KT 9999 FEW030"
    },
    {
      "icao": "LFOB",
      "alert": "OK",
      "vis_m": 9999,
      "fzfg": false,
      "metar_trigger": false,
      "taf_trigger": false,
      "metar": "METAR LFOB 250900Z AUTO 07004KT 030V140 CAVOK 14/08 Q1021 NOSIG",
      "taf": "TAF LFOB 250500Z 2506/2606 33005KT CAVOK"
    },
    {
      "icao": "LFPO",
      "alert": "OK",
      "vis_m": 9999,
      "fzfg": false,
      "metar_trigger": false,
      "taf_trigger": false,
      "metar": "METAR LFPO 250900Z 07005KT 050V110 CAVOK 16/06 Q1020 NOSIG",
      "taf": "TAF LFPO 250500Z 2506/2612 02005KT CAVOK"
    },
    {
      "icao": "LFSB",
      "alert": "OK",
      "vis_m": 9999,
      "fzfg": false,
      "metar_trigger": false,
      "taf_trigger": false,
      "metar": "METAR LFSB 250900Z AUTO VRB02KT CAVOK 17/02 Q1018 NOSIG",
      "taf": "TAF LFSB 250500Z 2506/2606 VRB03KT CAVOK"
    },
    {
      "icao": "LGAV",
      "alert": "OK",
      "vis_m": 9999,
      "fzfg": false,
      "metar_trigger": false,
      "taf_trigger": false,
      "metar": "METAR LGAV 250850Z 04016KT CAVOK 19/03 Q1015 NOSIG",
      "taf": "TAF LGAV 250500Z 2506/2606 03015KT 9999 FEW025"
    },
    {
      "icao": "LGTS",
      "alert": "OK",
      "vis_m": 9999,
      "fzfg": false,
      "metar_trigger": false,
      "taf_trigger": false,
      "metar": "METAR LGTS 250850Z 28006KT 9999 FEW020 19/09 Q1016 NOSIG",
      "taf": "TAF LGTS 250500Z 2506/2606 34013KT 9999 FEW030"
    },
    {
      "icao": "LHBP",
      "alert": "OK",
      "vis_m": 9999,
      "fzfg": false,
      "metar_trigger": false,
      "taf_trigger": false,
      "metar": "METAR LHBP 250900Z 30015KT CAVOK 18/02 Q1014 NOSIG",
      "taf": "TAF LHBP 250515Z 2506/2606 30008KT CAVOK"
    },
    {
      "icao": "LHDC",
      "alert": "OK",
      "vis_m": 9999,
      "fzfg": false,
      "metar_trigger": false,
      "taf_trigger": false,
      "metar": "METAR LHDC 250845Z AUTO VRB03KT CAVOK 17/06 Q1013 NOSIG",
      "taf": "TAF LHDC 250815Z 2509/2518 26008KT CAVOK"
    },
    {
      "icao": "LIBD",
      "alert": "OK",
      "vis_m": 9999,
      "fzfg": false,
      "metar_trigger": false,
      "taf_trigger": false,
      "metar": "METAR LIBD 250850Z 34007KT 290V030 CAVOK 20/M01 Q1017",
      "taf": "TAF LIBD 250500Z 2506/2606 26006KT CAVOK"
    },
    {
      "icao": "LIBG",
      "alert": "OK",
      "vis_m": 9999,
      "fzfg": false,
      "metar_trigger": false,
      "taf_trigger": false,
      "metar": "METAR LIBG 250850Z VRB01KT CAVOK 22/02 Q1016",
      "taf": "TAF LIBG 250800Z 2509/2518 VRB05KT CAVOK"
    },
    {
      "icao": "LIBP",
      "alert": "OK",
      "vis_m": 9999,
      "fzfg": false,
      "metar_trigger": false,
      "taf_trigger": false,
      "metar": "METAR LIBP 250850Z AUTO VRB02KT 9999 NCD 22/06 Q1017",
      "taf": "TAF LIBP 250500Z 2506/2606 VRB05KT CAVOK"
    },
    {
      "icao": "LIBR",
      "alert": "OK",
      "vis_m": 9999,
      "fzfg": false,
      "metar_trigger": false,
      "taf_trigger": false,
      "metar": "METAR LIBR 250850Z 34010KT CAVOK 18/10 Q1016",
      "taf": "TAF LIBR 250500Z 2506/2606 33010KT CAVOK"
    },
    {
      "icao": "LICA",
      "alert": "OK",
      "vis_m": 9999,
      "fzfg": false,
      "metar_trigger": false,
      "taf_trigger": false,
      "metar": "METAR LICA 250850Z AUTO 24009KT 200V270 9999 FEW024/// 19/13 Q1018",
      "taf": "TAF LICA 250500Z 2506/2606 VRB05KT 9999 FEW040"
    },
    {
      "icao": "LICC",
      "alert": "OK",
      "vis_m": 9999,
      "fzfg": false,
      "metar_trigger": false,
      "taf_trigger": false,
      "metar": "METAR LICC 250850Z 24004KT 180V310 CAVOK 20/15 Q1018",
      "taf": "TAF LICC 250500Z 2506/2606 26007KT CAVOK"
    },
    {
      "icao": "LICJ",
      "alert": "OK",
      "vis_m": 9999,
      "fzfg": false,
      "metar_trigger": false,
      "taf_trigger": false,
      "metar": "METAR LICJ 250850Z 30004KT CAVOK 17/08 Q1019",
      "taf": "TAF LICJ 250500Z 2506/2606 05012KT CAVOK"
    },
    {
      "icao": "LIMC",
      "alert": "OK",
      "vis_m": 9999,
      "fzfg": false,
      "metar_trigger": false,
      "taf_trigger": false,
      "metar": "METAR LIMC 250850Z 17003KT 100V240 CAVOK 18/11 Q1017 NOSIG",
      "taf": "TAF LIMC 242300Z 2500/2606 VRB05KT 9999 FEW050"
    },
    {
      "icao": "LIME",
      "alert": "OK",
      "vis_m": 9999,
      "fzfg": false,
      "metar_trigger": false,
      "taf_trigger": false,
      "metar": "METAR LIME 250850Z 26006KT 220V300 CAVOK 19/05 Q1016 NOSIG",
      "taf": "TAF LIME 250500Z 2506/2606 VRB04KT CAVOK"
    },
    {
      "icao": "LIMF",
      "alert": "OK",
      "vis_m": 9999,
      "fzfg": false,
      "metar_trigger": false,
      "taf_trigger": false,
      "metar": "METAR LIMF 250850Z 12003KT 040V200 CAVOK 18/09 Q1016",
      "taf": "TAF LIMF 250500Z 2506/2606 VRB04KT 9999 FEW040"
    },
    {
      "icao": "LIMJ",
      "alert": "OK",
      "vis_m": 9999,
      "fzfg": false,
      "metar_trigger": false,
      "taf_trigger": false,
      "metar": "METAR LIMJ 250850Z 14008KT 9999 FEW022 BKN030 17/12 Q1018",
      "taf": "TAF LIMJ 250500Z 2506/2606 04005KT 9999 SCT018"
    },
    {
      "icao": "LIPE",
      "alert": "OK",
      "vis_m": 9999,
      "fzfg": false,
      "metar_trigger": false,
      "taf_trigger": false,
      "metar": "METAR LIPE 250850Z 27005KT 220V310 CAVOK 20/07 Q1016",
      "taf": "TAF LIPE 250500Z 2506/2606 VRB05KT CAVOK"
    },
    {
      "icao": "LIPH",
      "alert": "OK",
      "vis_m": 9999,
      "fzfg": false,
      "metar_trigger": false,
      "taf_trigger": false,
      "metar": "METAR LIPH 250850Z 08003KT 040V150 CAVOK 20/05 Q1016",
      "taf": "TAF LIPH 250500Z 2506/2606 VRB05KT CAVOK"
    },
    {
      "icao": "LIPQ",
      "alert": "OK",
      "vis_m": 9999,
      "fzfg": false,
      "metar_trigger": false,
      "taf_trigger": false,
      "metar": "METAR LIPQ 250850Z AUTO VRB02KT 9999 NCD 21/08 Q1016",
      "taf": "TAF LIPQ 250500Z 2506/2606 VRB05KT CAVOK"
    },
    {
      "icao": "LIPR",
      "alert": "OK",
      "vis_m": 9999,
      "fzfg": false,
      "metar_trigger": false,
      "taf_trigger": false,
      "metar": "METAR LIPR 250850Z 04005KT 020V080 CAVOK 19/06 Q1016",
      "taf": "TAF LIPR 250500Z 2506/2606 VRB05KT CAVOK"
    },
    {
      "icao": "LIPX",
      "alert": "OK",
      "vis_m": 9999,
      "fzfg": false,
      "metar_trigger": false,
      "taf_trigger": false,
      "metar": "METAR LIPX 250850Z VRB03KT CAVOK 19/08 Q1016",
      "taf": "TAF LIPX 250500Z 2506/2606 VRB04KT CAVOK"
    },
    {
      "icao": "LIPY",
      "alert": "OK",
      "vis_m": 9999,
      "fzfg": false,
      "metar_trigger": false,
      "taf_trigger": false,
      "metar": "METAR LIPY 250850Z AUTO 04005KT 9999 NCD 20/08 Q1017",
      "taf": "TAF LIPY 250500Z 2506/2606 VRB05KT CAVOK"
    },
    {
      "icao": "LIPZ",
      "alert": "OK",
      "vis_m": 9999,
      "fzfg": false,
      "metar_trigger": false,
      "taf_trigger": false,
      "metar": "METAR LIPZ 250850Z 12003KT 070V150 CAVOK 19/07 Q1016 NOSIG",
      "taf": "TAF LIPZ 250500Z 2506/2612 04006KT CAVOK"
    },
    {
      "icao": "LIRF",
      "alert": "OK",
      "vis_m": 9999,
      "fzfg": false,
      "metar_trigger": false,
      "taf_trigger": false,
      "metar": "METAR LIRF 250850Z 36003KT 260V070 CAVOK 20/07 Q1017 NOSIG",
      "taf": "TAF LIRF 250500Z 2506/2612 VRB05KT CAVOK"
    },
    {
      "icao": "LIRN",
      "alert": "OK",
      "vis_m": 9999,
      "fzfg": false,
      "metar_trigger": false,
      "taf_trigger": false,
      "metar": "METAR LIRN 250850Z 19008KT 160V220 CAVOK 19/10 Q1018 NOSIG",
      "taf": "TAF LIRN 250500Z 2506/2606 VRB05KT CAVOK"
    },
    {
      "icao": "LIRP",
      "alert": "OK",
      "vis_m": 9999,
      "fzfg": false,
      "metar_trigger": false,
      "taf_trigger": false,
      "metar": "METAR LIRP 250845Z 29005KT 210V010 CAVOK 18/10 Q1018 NOSIG",
      "taf": "TAF LIRP 250500Z 2506/2606 VRB03KT CAVOK"
    },
    {
      "icao": "LIRZ",
      "alert": "OK",
      "vis_m": 9999,
      "fzfg": false,
      "metar_trigger": false,
      "taf_trigger": false,
      "metar": "METAR LIRZ 250850Z AUTO VRB02KT 9999 NCD 16/07 Q1018",
      "taf": "TAF LIRZ 250500Z 2506/2606 VRB05KT CAVOK"
    },
    {
      "icao": "LJLJ",
      "alert": "OK",
      "vis_m": 9999,
      "fzfg": false,
      "metar_trigger": false,
      "taf_trigger": false,
      "metar": "METAR LJLJ 250900Z VRB02KT CAVOK 18/08 Q1016 NOSIG",
      "taf": "TAF LJLJ 250500Z 2506/2606 30003KT CAVOK"
    },
    {
      "icao": "LKMT",
      "alert": "OK",
      "vis_m": 9999,
      "fzfg": false,
      "metar_trigger": false,
      "taf_trigger": false,
      "metar": "METAR LKMT 250900Z 22013KT 9999 FEW033 13/06 Q1014 NOSIG",
      "taf": "TAF LKMT 250500Z 2506/2606 24010KT CAVOK"
    },
    {
      "icao": "LKPR",
      "alert": "OK",
      "vis_m": 9999,
      "fzfg": false,
      "metar_trigger": false,
      "taf_trigger": false,
      "metar": "METAR LKPR 250900Z 29010KT CAVOK 15/01 Q1015 NOSIG",
      "taf": "TAF LKPR 250800Z 2509/2615 28010KT CAVOK"
    },
    {
      "icao": "LLBG",
      "alert": "OK",
      "vis_m": 9999,
      "fzfg": false,
      "metar_trigger": false,
      "taf_trigger": false,
      "metar": "METAR LLBG 250850Z VRB02KT CAVOK 27/11 Q1009 NOSIG",
      "taf": "TAF LLBG 250503Z 2506/2606 VRB04KT CAVOK TX27/2511Z TN15/2603Z"
    },
    {
      "icao": "LMML",
      "alert": "OK",
      "vis_m": 9999,
      "fzfg": false,
      "metar_trigger": false,
      "taf_trigger": false,
      "metar": "METAR LMML 250845Z 30007KT 220V340 CAVOK 21/07 Q1019 NOSIG",
      "taf": "TAF LMML 250500Z 2506/2606 33010KT 9999 FEW015"
    },
    {
      "icao": "LOWW",
      "alert": "OK",
      "vis_m": 9999,
      "fzfg": false,
      "metar_trigger": false,
      "taf_trigger": false,
      "metar": "METAR LOWW 250850Z 35008KT 290V070 CAVOK 17/05 Q1015 NOSIG",
      "taf": "TAF LOWW 250815Z 2509/2615 30011KT CAVOK TX23/2514Z TN11/2604Z"
    },
    {
      "icao": "LPFR",
      "alert": "OK",
      "vis_m": 9999,
      "fzfg": false,
      "metar_trigger": false,
      "taf_trigger": false,
      "metar": "METAR LPFR 250900Z 17004KT 120V200 CAVOK 19/15 Q1016",
      "taf": "TAF LPFR 250500Z 2506/2606 VRB02KT CAVOK"
    },
    {
      "icao": "LPMA",
      "alert": "OK",
      "vis_m": 9999,
      "fzfg": false,
      "metar_trigger": false,
      "taf_trigger": false,
      "metar": "METAR LPMA 250900Z 02011KT 340V060 9999 FEW016 19/11 Q1018",
      "taf": "TAF LPMA 250500Z 2506/2606 34008KT 9999 SCT015"
    },
    {
      "icao": "LPPR",
      "alert": "OK",
      "vis_m": 9999,
      "fzfg": false,
      "metar_trigger": false,
      "taf_trigger": false,
      "metar": "METAR LPPR 250900Z 33005KT 290V010 CAVOK 17/13 Q1018",
      "taf": "TAF LPPR 250500Z 2506/2606 VRB02KT 9999 SCT004"
    },
    {
      "icao": "LPPS",
      "alert": "OK",
      "vis_m": 9999,
      "fzfg": false,
      "metar_trigger": false,
      "taf_trigger": false,
      "metar": "METAR LPPS 250900Z 04008KT 010V070 9999 FEW015 17/12 Q1019",
      "taf": "TAF LPPS 250500Z 2506/2612 VRB05KT 9999 SCT015"
    },
    {
      "icao": "LPPT",
      "alert": "OK",
      "vis_m": 9999,
      "fzfg": false,
      "metar_trigger": false,
      "taf_trigger": false,
      "metar": "METAR LPPT 250900Z 32005KT 270V360 CAVOK 17/12 Q1017",
      "taf": "TAF LPPT 250500Z 2506/2612 33007KT 9999 SCT012"
    },
    {
      "icao": "LQBK",
      "alert": "OK",
      "vis_m": 9999,
      "fzfg": false,
      "metar_trigger": false,
      "taf_trigger": false,
      "metar": "METAR LQBK 250900Z 03004KT 360V060 CAVOK 18/08 Q1017 NOSIG",
      "taf": "TAF LQBK 250500Z 2506/2606 33005KT CAVOK TX23/2513Z TN04/2604Z"
    },
    {
      "icao": "LQSA",
      "alert": "OK",
      "vis_m": 9999,
      "fzfg": false,
      "metar_trigger": false,
      "taf_trigger": false,
      "metar": "METAR LQSA 250900Z VRB02KT CAVOK 15/04 Q1018 NOSIG",
      "taf": "TAF LQSA 250500Z 2506/2606 29005KT CAVOK TX23/2514Z TN05/2604Z"
    },
    {
      "icao": "LQTZ",
      "alert": "OK",
      "vis_m": 9999,
      "fzfg": false,
      "metar_trigger": false,
      "taf_trigger": false,
      "metar": "METAR LQTZ 250900Z 32003KT 240V010 CAVOK 19/06 Q1017",
      "taf": "TAF LQTZ 250500Z 2506/2606 30005KT CAVOK TX22/2513Z TN02/2604Z"
    },
    {
      "icao": "LRBC",
      "alert": "OK",
      "vis_m": 9999,
      "fzfg": false,
      "metar_trigger": false,
      "taf_trigger": false,
      "metar": "METAR LRBC 250900Z VRB03KT CAVOK 17/04 Q1013",
      "taf": "TAF LRBC 250800Z 2509/2518 VRB04KT CAVOK"
    },
    {
      "icao": "LRBS",
      "alert": "OK",
      "vis_m": 9999,
      "fzfg": false,
      "metar_trigger": false,
      "taf_trigger": false,
      "metar": "METAR LRBS 250900Z 09006KT 060V120 CAVOK 19/04 Q1015 NOSIG",
      "taf": "TAF LRBS 250500Z 2506/2606 VRB04KT CAVOK"
    },
    {
      "icao": "LRBV",
      "alert": "OK",
      "vis_m": 9999,
      "fzfg": false,
      "metar_trigger": false,
      "taf_trigger": false,
      "metar": "METAR LRBV 250900Z 01002KT 9999 FEW040 SCT061 16/03 Q1015",
      "taf": "TAF LRBV 250800Z 2509/2518 VRB04KT CAVOK"
    },
    {
      "icao": "LRCL",
      "alert": "OK",
      "vis_m": 9999,
      "fzfg": false,
      "metar_trigger": false,
      "taf_trigger": false,
      "metar": "METAR LRCL 250900Z 07008KT 040V110 CAVOK 16/06 Q1014",
      "taf": "TAF LRCL 250800Z 2509/2518 VRB04KT CAVOK"
    },
    {
      "icao": "LRCV",
      "alert": "OK",
      "vis_m": 9999,
      "fzfg": false,
      "metar_trigger": false,
      "taf_trigger": false,
      "metar": "METAR LRCV 250900Z 07005KT 020V100 CAVOK 18/04 Q1016",
      "taf": "TAF LRCV 250800Z 2509/2518 VRB04KT CAVOK"
    },
    {
      "icao": "LRIA",
      "alert": "OK",
      "vis_m": 9999,
      "fzfg": false,
      "metar_trigger": false,
      "taf_trigger": false,
      "metar": "METAR LRIA 250900Z VRB04KT CAVOK 16/02 Q1014",
      "taf": "TAF LRIA 250800Z 2509/2518 VRB04KT CAVOK"
    },
    {
      "icao": "LROP",
      "alert": "OK",
      "vis_m": 9999,
      "fzfg": false,
      "metar_trigger": false,
      "taf_trigger": false,
      "metar": "METAR LROP 250900Z 09007KT 050V140 CAVOK 18/01 Q1015 NOSIG",
      "taf": "TAF LROP 250500Z 2506/2606 VRB04KT CAVOK"
    },
    {
      "icao": "LRSB",
      "alert": "OK",
      "vis_m": 9999,
      "fzfg": false,
      "metar_trigger": false,
      "taf_trigger": false,
      "metar": "METAR LRSB 250900Z 32005KT 260V060 9999 BKN065 16/03 Q1014",
      "taf": "TAF LRSB 250500Z 2506/2606 VRB04KT CAVOK"
    },
    {
      "icao": "LRSM",
      "alert": "OK",
      "vis_m": 9999,
      "fzfg": false,
      "metar_trigger": false,
      "taf_trigger": false,
      "metar": "METAR LRSM 250900Z VRB04KT CAVOK 19/05 Q1013",
      "taf": "TAF LRSM 250800Z 2509/2518 VRB04KT CAVOK"
    },
    {
      "icao": "LRSV",
      "alert": "OK",
      "vis_m": 9999,
      "fzfg": false,
      "metar_trigger": false,
      "taf_trigger": false,
      "metar": "METAR LRSV 250900Z 25007KT 200V320 CAVOK 15/03 Q1013",
      "taf": "TAF LRSV 250800Z 2509/2518 VRB04KT CAVOK"
    },
    {
      "icao": "LRTM",
      "alert": "OK",
      "vis_m": 9999,
      "fzfg": false,
      "metar_trigger": false,
      "taf_trigger": false,
      "metar": "METAR LRTM 250900Z 07004KT 340V120 CAVOK 16/06 Q1014",
      "taf": "TAF LRTM 250800Z 2509/2518 VRB04KT CAVOK"
    },
    {
      "icao": "LRTR",
      "alert": "OK",
      "vis_m": 9999,
      "fzfg": false,
      "metar_trigger": false,
      "taf_trigger": false,
      "metar": "METAR LRTR 250900Z 19007KT 150V230 CAVOK 18/06 Q1015",
      "taf": "TAF LRTR 250500Z 2506/2606 10006KT CAVOK"
    },
    {
      "icao": "LTAC",
      "alert": "OK",
      "vis_m": 9999,
      "fzfg": false,
      "metar_trigger": false,
      "taf_trigger": false,
      "metar": "METAR LTAC 250850Z VRB04KT 9999 FEW040 SCT180 13/01 Q1018 NOSIG RMK RWY21C VRB03KT RWY03L VRB03KT RWY21R VRB05KT RWY03R VRB03KT RWY21L VRB05KT",
      "taf": "TAF LTAC 250440Z 2506/2606 VRB02KT CAVOK"
    },
    {
      "icao": "LTFM",
      "alert": "OK",
      "vis_m": 9999,
      "fzfg": false,
      "metar_trigger": false,
      "taf_trigger": false,
      "metar": "METAR LTFM 250850Z 04009KT 010V070 CAVOK 19/03 Q1016 NOSIG RMK RWY17L 04008KT RWY34L 04008KT 360V060 RWY16R 05008KT RWY36 03010KT RWY18 04008KT",
      "taf": "TAF LTFM 250440Z 2506/2612 20009KT CAVOK"
    },
    {
      "icao": "LUKK",
      "alert": "OK",
      "vis_m": 9999,
      "fzfg": false,
      "metar_trigger": false,
      "taf_trigger": false,
      "metar": "METAR LUKK 250900Z 28006KT 210V010 CAVOK 16/01 Q1014 NOSIG",
      "taf": "TAF LUKK 250516Z 2506/2606 24008KT CAVOK"
    },
    {
      "icao": "LWOH",
      "alert": "OK",
      "vis_m": 9999,
      "fzfg": false,
      "metar_trigger": false,
      "taf_trigger": false,
      "metar": "METAR LWOH 250850Z 16008KT CAVOK 13/07 Q1017",
      "taf": "TAF LWOH 250810Z 2509/2609 16006KT CAVOK"
    },
    {
      "icao": "LWSK",
      "alert": "OK",
      "vis_m": 9999,
      "fzfg": false,
      "metar_trigger": false,
      "taf_trigger": false,
      "metar": "METAR LWSK 250850Z 31003KT CAVOK 19/07 Q1017 NOSIG",
      "taf": "TAF LWSK 250810Z 2509/2609 VRB02KT CAVOK"
    },
    {
      "icao": "LYBE",
      "alert": "OK",
      "vis_m": 9999,
      "fzfg": false,
      "metar_trigger": false,
      "taf_trigger": false,
      "metar": "METAR LYBE 250900Z 27010KT CAVOK 20/06 Q1016 NOSIG",
      "taf": "TAF LYBE 250500Z 2506/2606 23007KT CAVOK TX23/2513Z TN09/2604Z"
    },
    {
      "icao": "LYNI",
      "alert": "OK",
      "vis_m": 9999,
      "fzfg": false,
      "metar_trigger": false,
      "taf_trigger": false,
      "metar": "METAR LYNI 250900Z VRB02KT 9999 FEW043 18/06 Q1017 NOSIG",
      "taf": "TAF LYNI 250500Z 2506/2606 10004KT CAVOK TX23/2513Z TN05/2604Z"
    },
    {
      "icao": "LYPG",
      "alert": "OK",
      "vis_m": 9999,
      "fzfg": false,
      "metar_trigger": false,
      "taf_trigger": false,
      "metar": "METAR LYPG 250900Z 16001KT CAVOK 20/06 Q1016 NOSIG",
      "taf": "TAF LYPG 250500Z 2506/2606 VRB02KT CAVOK TX24/2513Z TN09/2604Z"
    },
    {
      "icao": "LZIB",
      "alert": "OK",
      "vis_m": 9999,
      "fzfg": false,
      "metar_trigger": false,
      "taf_trigger": false,
      "metar": "METAR LZIB 250900Z 29007KT 250V330 CAVOK 16/06 Q1015 NOSIG",
      "taf": "TAF LZIB 250515Z 2506/2606 29012KT CAVOK"
    },
    {
      "icao": "LZKZ",
      "alert": "OK",
      "vis_m": 9999,
      "fzfg": false,
      "metar_trigger": false,
      "taf_trigger": false,
      "metar": "METAR LZKZ 250900Z VRB09KT CAVOK 17/04 Q1012 NOSIG",
      "taf": "TAF LZKZ 250515Z 2506/2606 01004KT CAVOK"
    },
    {
      "icao": "LZTT",
      "alert": "OK",
      "vis_m": 9999,
      "fzfg": false,
      "metar_trigger": false,
      "taf_trigger": false,
      "metar": "METAR LZTT 250900Z 28014KT 9999 FEW056 14/02 Q1012 NOSIG",
      "taf": "TAF LZTT 250515Z 2506/2606 30005KT CAVOK"
    },
    {
      "icao": "OEJN",
      "alert": "OK",
      "vis_m": 9999,
      "fzfg": false,
      "metar_trigger": false,
      "taf_trigger": false,
      "metar": "METAR OEJN 250900Z 25008KT CAVOK 34/19 Q1008 NOSIG",
      "taf": "TAF OEJN 250500Z 2506/2612 25010KT 9999 FEW040"
    },
    {
      "icao": "OEMA",
      "alert": "OK",
      "vis_m": 9999,
      "fzfg": false,
      "metar_trigger": false,
      "taf_trigger": false,
      "metar": "METAR OEMA 250900Z 17008KT 9999 SCT040 33/14 Q1012 NOSIG",
      "taf": "TAF OEMA 250500Z 2506/2612 16010KT 7000 SCT040"
    },
    {
      "icao": "OJAI",
      "alert": "OK",
      "vis_m": 5000,
      "fzfg": false,
      "metar_trigger": false,
      "taf_trigger": false,
      "metar": "METAR OJAI 250800Z 12010KT 5000 HZ NSC 25/03 Q1013 NOSIG",
      "taf": "TAF OJAI 250448Z 2506/2612 25006KT 5000 HZ NSC"
    },
    {
      "icao": "OMAA",
      "alert": "OK",
      "vis_m": 9999,
      "fzfg": false,
      "metar_trigger": false,
      "taf_trigger": false,
      "metar": "METAR OMAA 250900Z 33011KT CAVOK 34/16 Q1011 NOSIG",
      "taf": "TAF OMAA 250500Z 2506/2612 VRB02KT CAVOK"
    },
    {
      "icao": "OMDB",
      "alert": "OK",
      "vis_m": 9999,
      "fzfg": false,
      "metar_trigger": false,
      "taf_trigger": false,
      "metar": "METAR OMDB 250900Z 28007KT 260V320 CAVOK 36/17 Q1010 NOSIG",
      "taf": "TAF OMDB 250500Z 2506/2612 VRB02KT CAVOK"
    },
    {
      "icao": "UAAA",
      "alert": "OK",
      "vis_m": 9999,
      "fzfg": false,
      "metar_trigger": false,
      "taf_trigger": false,
      "metar": "METAR UAAA 250900Z 03003MPS 360V060 9999 SCT050 SCT200 24/11 Q1019 NOSIG",
      "taf": "TAF UAAA 250503Z 2506/2606 03005MPS 9999 SCT100 TX24/2509Z TN10/2601Z"
    },
    {
      "icao": "UBBB",
      "alert": "OK",
      "vis_m": 9999,
      "fzfg": false,
      "metar_trigger": false,
      "taf_trigger": false,
      "metar": "METAR UBBB 250900Z 05010KT 9999 BKN030 15/09 Q1014 NOSIG",
      "taf": "TAF UBBB 250507Z 2506/2606 32012KT 9999 SCT012 BKN020 TX15/2510Z TN08/2601Z"
    },
    {
      "icao": "UDSG",
      "alert": "OK",
      "vis_m": 9999,
      "fzfg": false,
      "metar_trigger": false,
      "taf_trigger": false,
      "metar": "METAR UDSG 250900Z 27004KT 220V300 9999 FEW049 09/02 Q1020 NOSIG",
      "taf": "TAF UDSG 250458Z 2506/2606 27006KT 9999 SCT050"
    },
    {
      "icao": "UDYZ",
      "alert": "OK",
      "vis_m": 9999,
      "fzfg": false,
      "metar_trigger": false,
      "taf_trigger": false,
      "metar": "METAR UDYZ 250900Z VRB02KT 9999 SCT046 12/05 Q1018 NOSIG",
      "taf": "TAF UDYZ 250500Z 2506/2606 16006KT 9999 BKN040"
    },
    {
      "icao": "UGKO",
      "alert": "OK",
      "vis_m": 9999,
      "fzfg": false,
      "metar_trigger": false,
      "taf_trigger": false,
      "metar": "METAR UGKO 250900Z VRB02KT CAVOK 14/05 Q1021 NOSIG",
      "taf": "TAF UGKO 250500Z 2506/2606 09007KT CAVOK TX19/2511Z TN08/2602Z"
    }
  ]
}