{
  "ts_utc": "2026-03-15T05:19:18Z",
  "threshold_m": 150,
  "source": "stations_override.txt (ICAO list) + aviationweather.gov (METAR/TAF raw)",
  "station_count": 159,
  "stations": [
    {
      "icao": "BIKF",
      "alert": "OK",
      "vis_m": 9999,
      "fzfg": false,
      "metar_trigger": false,
      "taf_trigger": false,
      "metar": "METAR BIKF 150500Z 07026KT 9999 BKN033 02/M02 Q0967",
      "taf": "TAF BIKF 150410Z 1506/1606 07027G37KT 9999 BKN020 OVC060 TX03/1514Z TN01/1506Z"
    },
    {
      "icao": "BKPR",
      "alert": "OK",
      "vis_m": 9999,
      "fzfg": false,
      "metar_trigger": false,
      "taf_trigger": false,
      "metar": "METAR BKPR 150500Z 34003KT 9999 FEW090 03/M00 Q1009 NOSIG",
      "taf": "TAF BKPR 142330Z 1500/1524 34005KT 9999 FEW080"
    },
    {
      "icao": "EBCI",
      "alert": "OK",
      "vis_m": 9000,
      "fzfg": false,
      "metar_trigger": false,
      "taf_trigger": false,
      "metar": "METAR EBCI 150450Z 25004KT 9000 NSC M00/M01 Q1014 NOSIG",
      "taf": "TAF EBCI 142300Z 1500/1606 27004KT 9999 FEW020"
    },
    {
      "icao": "EDDB",
      "alert": "OK",
      "vis_m": 9999,
      "fzfg": false,
      "metar_trigger": false,
      "taf_trigger": false,
      "metar": "METAR EDDB 150450Z COR AUTO 31006KT 9999 FEW008 BKN012 05/04 Q1010 TEMPO BKN007",
      "taf": "TAF EDDB 142300Z 1500/1524 32007KT 9999 BKN015"
    },
    {
      "icao": "EDDH",
      "alert": "OK",
      "vis_m": 7000,
      "fzfg": false,
      "metar_trigger": false,
      "taf_trigger": false,
      "metar": "METAR EDDH 150450Z AUTO 23003KT 7000 SCT004 OVC024 OVC032 04/03 Q1011 TEMPO 4000 BR BKN004 OVC020",
      "taf": "TAF EDDH 142300Z 1500/1606 VRB02KT 9999 SCT015 BKN030"
    },
    {
      "icao": "EDDK",
      "alert": "OK",
      "vis_m": 9000,
      "fzfg": false,
      "metar_trigger": false,
      "taf_trigger": false,
      "metar": "METAR EDDK 150450Z AUTO 00000KT 9000 OVC009 03/03 Q1013 NOSIG",
      "taf": "TAF EDDK 142300Z 1500/1606 23004KT 9999 BKN025"
    },
    {
      "icao": "EDDN",
      "alert": "OK",
      "vis_m": 9999,
      "fzfg": false,
      "metar_trigger": false,
      "taf_trigger": false,
      "metar": "METAR EDDN 150450Z AUTO 31004KT 9999 BKN034 03/01 Q1011 NOSIG",
      "taf": "TAF EDDN 142300Z 1500/1524 30005KT 9999 BKN012"
    },
    {
      "icao": "EDDS",
      "alert": "OK",
      "vis_m": 9999,
      "fzfg": false,
      "metar_trigger": false,
      "taf_trigger": false,
      "metar": "METAR EDDS 150450Z AUTO 30005KT 9999 FEW012 OVC034 03/01 Q1011",
      "taf": "TAF EDDS 142300Z 1500/1524 26005KT 9999 BKN030"
    },
    {
      "icao": "EDFH",
      "alert": "OK",
      "vis_m": 9999,
      "fzfg": false,
      "metar_trigger": false,
      "taf_trigger": false,
      "metar": "METAR EDFH 150450Z 28002KT 9999 SCT006 01/00 Q1011",
      "taf": "TAF EDFH 142300Z 1500/1524 31006KT 9999 SCT003 BKN015"
    },
    {
      "icao": "EDJA",
      "alert": "OK",
      "vis_m": 9999,
      "fzfg": false,
      "metar_trigger": false,
      "taf_trigger": false,
      "metar": "METAR EDJA 150450Z 24004KT 9999 OVC027 01/00 Q1010",
      "taf": "TAF EDJA 150200Z 1503/1512 36004KT 9999 OVC025"
    },
    {
      "icao": "EDLW",
      "alert": "OK",
      "vis_m": 4800,
      "fzfg": false,
      "metar_trigger": false,
      "taf_trigger": false,
      "metar": "METAR EDLW 150450Z 27005KT 4800 BR OVC004 03/03 Q1012",
      "taf": "TAF EDLW 150440Z 1505/1524 24005KT 7000 BKN005"
    },
    {
      "icao": "EDNY",
      "alert": "OK",
      "vis_m": 9999,
      "fzfg": false,
      "metar_trigger": false,
      "taf_trigger": false,
      "metar": "METAR EDNY 150450Z AUTO VRB01KT 9999 // FEW026/// SCT034/// OVC043/// 02/01 Q1012",
      "taf": "TAF EDNY 150200Z 1503/1512 VRB03KT 9999 SCT008 BKN012"
    },
    {
      "icao": "EDSB",
      "alert": "OK",
      "vis_m": 9999,
      "fzfg": false,
      "metar_trigger": false,
      "taf_trigger": false,
      "metar": "METAR EDSB 150450Z VRB02KT 9999 FEW024 OVC030 04/02 Q1013",
      "taf": "TAF EDSB 142300Z 1500/1524 21003KT 9999 BKN030"
    },
    {
      "icao": "EETN",
      "alert": "OK",
      "vis_m": 9999,
      "fzfg": false,
      "metar_trigger": false,
      "taf_trigger": false,
      "metar": "METAR EETN 150450Z 17010KT CAVOK 05/M02 Q1010 NOSIG",
      "taf": "TAF EETN 142330Z 1500/1524 18012KT CAVOK"
    },
    {
      "icao": "EFTU",
      "alert": "OK",
      "vis_m": 1100,
      "fzfg": false,
      "metar_trigger": false,
      "taf_trigger": false,
      "metar": "METAR EFTU 150450Z AUTO 15005KT 1100 R26/1300D BCFG OVC001 03/03 Q1007",
      "taf": "TAF EFTU 150228Z 1503/1603 18006KT 9999 OVC004"
    },
    {
      "icao": "EGBB",
      "alert": "OK",
      "vis_m": 9999,
      "fzfg": false,
      "metar_trigger": false,
      "taf_trigger": false,
      "metar": "METAR EGBB 150450Z 21005KT 180V250 CAVOK 05/02 Q1011",
      "taf": "TAF EGBB 150457Z 1506/1606 20002KT 9999 FEW045"
    },
    {
      "icao": "EGGP",
      "alert": "OK",
      "vis_m": 9999,
      "fzfg": false,
      "metar_trigger": false,
      "taf_trigger": false,
      "metar": "METAR EGGP 150450Z 18005KT 140V240 CAVOK 06/04 Q1009",
      "taf": "TAF EGGP 150458Z 1506/1606 18006KT 9999 FEW045"
    },
    {
      "icao": "EGGW",
      "alert": "OK",
      "vis_m": 9999,
      "fzfg": false,
      "metar_trigger": false,
      "taf_trigger": false,
      "metar": "METAR EGGW 150450Z AUTO 21005KT 9999 NCD 01/M01 Q1012",
      "taf": "TAF EGGW 150501Z 1506/1606 21005KT CAVOK"
    },
    {
      "icao": "EGKK",
      "alert": "OK",
      "vis_m": 9999,
      "fzfg": false,
      "metar_trigger": false,
      "taf_trigger": false,
      "metar": "METAR EGKK 150450Z 11001KT CAVOK 00/M01 Q1014",
      "taf": "TAF EGKK 150501Z 1506/1612 22004KT 9999 FEW035"
    },
    {
      "icao": "EGNM",
      "alert": "OK",
      "vis_m": 9999,
      "fzfg": false,
      "metar_trigger": false,
      "taf_trigger": false,
      "metar": "METAR EGNM 150450Z 19008KT 9999 FEW035 04/02 Q1007",
      "taf": "TAF EGNM 142255Z 1500/1524 21007KT 9999 FEW040"
    },
    {
      "icao": "EGPD",
      "alert": "OK",
      "vis_m": 9999,
      "fzfg": false,
      "metar_trigger": false,
      "taf_trigger": false,
      "metar": "METAR EGPD 150450Z COR AUTO 18013KT 9999 NCD 04/02 Q0998 NOSIG",
      "taf": "TAF EGPD 150458Z 1506/1606 19018G28KT 9999 SCT020"
    },
    {
      "icao": "EGPF",
      "alert": "OK",
      "vis_m": 9999,
      "fzfg": false,
      "metar_trigger": false,
      "taf_trigger": false,
      "metar": "METAR EGPF 150450Z AUTO 16011G21KT 9999 -RA FEW020/// SCT025/// OVC029/// //////TCU 06/03 Q1000",
      "taf": "TAF EGPF 150454Z 1506/1606 18010KT 9999 SCT025"
    },
    {
      "icao": "EHBK",
      "alert": "OK",
      "vis_m": 4300,
      "fzfg": false,
      "metar_trigger": false,
      "taf_trigger": false,
      "metar": "METAR EHBK 150455Z AUTO 22005KT 4300 BR NCD 01/00 Q1013 TEMPO 4000",
      "taf": "TAF EHBK 142315Z 1500/1606 25004KT 9999 FEW025"
    },
    {
      "icao": "EHEH",
      "alert": "OK",
      "vis_m": 300,
      "fzfg": false,
      "metar_trigger": false,
      "taf_trigger": false,
      "metar": "METAR EHEH 150455Z AUTO 22004KT 0300 -SN BKN000 M02/M02 Q1013 RED",
      "taf": ""
    },
    {
      "icao": "EKBI",
      "alert": "OK",
      "vis_m": 9999,
      "fzfg": false,
      "metar_trigger": false,
      "taf_trigger": false,
      "metar": "METAR EKBI 150450Z AUTO 23004KT 9999 OVC010/// 03/03 Q1010",
      "taf": ""
    },
    {
      "icao": "EKCH",
      "alert": "OK",
      "vis_m": 3600,
      "fzfg": false,
      "metar_trigger": false,
      "taf_trigger": false,
      "metar": "METAR EKCH 150450Z AUTO 27005KT 3600 -DZ BR OVC035/// 04/04 Q1010 TEMPO 9999 NSW",
      "taf": ""
    },
    {
      "icao": "ENAL",
      "alert": "OK",
      "vis_m": 9999,
      "fzfg": false,
      "metar_trigger": false,
      "taf_trigger": false,
      "metar": "METAR ENAL 150450Z AUTO 20009KT 9999 SCT048/// 05/00 Q0998",
      "taf": "TAF ENAL 150200Z 1503/1512 20012KT 9999 FEW030 BKN050"
    },
    {
      "icao": "ENBR",
      "alert": "OK",
      "vis_m": 9999,
      "fzfg": false,
      "metar_trigger": false,
      "taf_trigger": false,
      "metar": "METAR ENBR 150450Z 16011KT 9999 -RA FEW005 BKN011 BKN017 03/02 Q1002 RMK WIND 1200FT 17016KT",
      "taf": "TAF ENBR 142300Z 1500/1524 16012KT 9999 FEW010 BKN020"
    },
    {
      "icao": "ENGM",
      "alert": "OK",
      "vis_m": 9999,
      "fzfg": false,
      "metar_trigger": false,
      "taf_trigger": false,
      "metar": "METAR ENGM 150450Z 19006KT 9999 OVC010 01/00 Q1004 TEMPO BKN008",
      "taf": "TAF ENGM 142300Z 1500/1524 18006KT 9999 BKN012"
    },
    {
      "icao": "ENHD",
      "alert": "OK",
      "vis_m": 9999,
      "fzfg": false,
      "metar_trigger": false,
      "taf_trigger": false,
      "metar": "METAR ENHD 150450Z AUTO 16011KT 9999 BKN004/// BKN006/// 04/03 Q1004",
      "taf": "TAF ENHD 150200Z 1503/1512 17008KT 9999 SCT020"
    },
    {
      "icao": "ENTC",
      "alert": "OK",
      "vis_m": 9999,
      "fzfg": false,
      "metar_trigger": false,
      "taf_trigger": false,
      "metar": "METAR ENTC 150450Z 23007KT 9999 FEW060 01/M02 Q0994 RMK WIND 2600FT 18019KT",
      "taf": "TAF ENTC 142300Z 1500/1524 20009KT 9999 FEW040"
    },
    {
      "icao": "ENTO",
      "alert": "OK",
      "vis_m": 4600,
      "fzfg": false,
      "metar_trigger": false,
      "taf_trigger": false,
      "metar": "METAR ENTO 150450Z AUTO 22004KT 180V250 4600 // BKN002/// OVC003/// 01/01 Q1006 REDZ",
      "taf": "TAF ENTO 142300Z 1500/1524 20006KT 8000 BKN004"
    },
    {
      "icao": "ENVA",
      "alert": "OK",
      "vis_m": 9999,
      "fzfg": false,
      "metar_trigger": false,
      "taf_trigger": false,
      "metar": "METAR ENVA 150450Z 08005KT CAVOK M01/M04 Q1000 RMK WIND 670FT 15013KT",
      "taf": "TAF ENVA 142300Z 1500/1524 11008KT CAVOK"
    },
    {
      "icao": "ENZV",
      "alert": "OK",
      "vis_m": 9999,
      "fzfg": false,
      "metar_trigger": false,
      "taf_trigger": false,
      "metar": "METAR ENZV 150450Z 16009KT 9999 SCT009 03/02 Q1005",
      "taf": "TAF ENZV 142300Z 1500/1524 17008KT 9999 SCT015 BKN030"
    },
    {
      "icao": "EPGD",
      "alert": "OK",
      "vis_m": 9999,
      "fzfg": false,
      "metar_trigger": false,
      "taf_trigger": false,
      "metar": "METAR EPGD 150500Z 18004KT 130V280 CAVOK 06/M01 Q1006",
      "taf": "TAF EPGD 142330Z 1500/1524 14010KT CAVOK"
    },
    {
      "icao": "EPKK",
      "alert": "OK",
      "vis_m": 9999,
      "fzfg": false,
      "metar_trigger": false,
      "taf_trigger": false,
      "metar": "METAR EPKK 150500Z 05005KT CAVOK 02/M02 Q1009",
      "taf": "TAF EPKK 150230Z 1503/1603 05004KT CAVOK"
    },
    {
      "icao": "EPKT",
      "alert": "OK",
      "vis_m": 9999,
      "fzfg": false,
      "metar_trigger": false,
      "taf_trigger": false,
      "metar": "METAR EPKT 150500Z 12004KT CAVOK 06/M02 Q1008",
      "taf": "TAF EPKT 142330Z 1500/1524 15010KT CAVOK"
    },
    {
      "icao": "EPLB",
      "alert": "OK",
      "vis_m": 9999,
      "fzfg": false,
      "metar_trigger": false,
      "taf_trigger": false,
      "metar": "METAR EPLB 150500Z 11005KT CAVOK 01/M02 Q1012",
      "taf": "TAF EPLB 142330Z 1500/1524 13008KT CAVOK"
    },
    {
      "icao": "EPMO",
      "alert": "OK",
      "vis_m": 9999,
      "fzfg": false,
      "metar_trigger": false,
      "taf_trigger": false,
      "metar": "METAR EPMO 150500Z 13007KT 100V160 CAVOK 06/M00 Q1009",
      "taf": "TAF EPMO 142330Z 1500/1524 15010KT CAVOK"
    },
    {
      "icao": "EPPO",
      "alert": "OK",
      "vis_m": 9999,
      "fzfg": false,
      "metar_trigger": false,
      "taf_trigger": false,
      "metar": "METAR EPPO 150500Z 29009KT 9999 OVC006 05/03 Q1008",
      "taf": ""
    },
    {
      "icao": "EPRA",
      "alert": "OK",
      "vis_m": 9999,
      "fzfg": false,
      "metar_trigger": false,
      "taf_trigger": false,
      "metar": "METAR EPRA 150500Z 16009KT CAVOK 04/M01 Q1010",
      "taf": "TAF EPRA 150230Z 1503/1512 15010KT CAVOK"
    },
    {
      "icao": "EPRZ",
      "alert": "OK",
      "vis_m": 9999,
      "fzfg": false,
      "metar_trigger": false,
      "taf_trigger": false,
      "metar": "METAR EPRZ 150500Z 08008KT CAVOK 01/M01 Q1012",
      "taf": "TAF EPRZ 142330Z 1500/1524 10008KT CAVOK"
    },
    {
      "icao": "EPSC",
      "alert": "OK",
      "vis_m": 9999,
      "fzfg": false,
      "metar_trigger": false,
      "taf_trigger": false,
      "metar": "METAR EPSC 150500Z 33006KT 9999 FEW006 04/03 Q1009",
      "taf": ""
    },
    {
      "icao": "EPSY",
      "alert": "OK",
      "vis_m": 9999,
      "fzfg": false,
      "metar_trigger": false,
      "taf_trigger": false,
      "metar": "METAR EPSY 150500Z 13004KT 080V170 CAVOK 05/M00 Q1009",
      "taf": "TAF EPSY 150230Z 1503/1512 14008KT CAVOK"
    },
    {
      "icao": "EPWA",
      "alert": "OK",
      "vis_m": 9999,
      "fzfg": false,
      "metar_trigger": false,
      "taf_trigger": false,
      "metar": "METAR EPWA 150500Z 13010KT CAVOK 05/00 Q1010 NOSIG",
      "taf": "TAF EPWA 150230Z 1503/1603 14010KT CAVOK"
    },
    {
      "icao": "EPWR",
      "alert": "OK",
      "vis_m": 9999,
      "fzfg": false,
      "metar_trigger": false,
      "taf_trigger": false,
      "metar": "METAR EPWR 150500Z 28009KT 9999 BKN011 07/05 Q1008",
      "taf": "TAF EPWR 150230Z 1503/1603 28005KT 9999 SCT015"
    },
    {
      "icao": "ESGG",
      "alert": "OK",
      "vis_m": 100,
      "fzfg": false,
      "metar_trigger": false,
      "taf_trigger": false,
      "metar": "METAR ESGG 150450Z 21004KT 0100 R03/0500N R21/0450N FG VV003 02/02 Q1007",
      "taf": ""
    },
    {
      "icao": "ESKN",
      "alert": "OK",
      "vis_m": 6000,
      "fzfg": false,
      "metar_trigger": false,
      "taf_trigger": false,
      "metar": "METAR ESKN 150450Z 27003KT 6000 BKN046 01/01 Q1007",
      "taf": "TAF ESKN 150230Z 1503/1603 30004KT 9999 SCT010"
    },
    {
      "icao": "ESMS",
      "alert": "OK",
      "vis_m": 8000,
      "fzfg": false,
      "metar_trigger": false,
      "taf_trigger": false,
      "metar": "METAR ESMS 150450Z 30005KT 8000 OVC022 04/04 Q1008",
      "taf": "TAF ESMS 150227Z 1503/1603 28005KT 9999 SCT020"
    },
    {
      "icao": "ESSA",
      "alert": "OK",
      "vis_m": 4500,
      "fzfg": false,
      "metar_trigger": false,
      "taf_trigger": false,
      "metar": "METAR ESSA 150450Z 21002KT 4500 -RA BR SCT002 01/01 Q1006 TEMPO 2000 RASN BKN010",
      "taf": ""
    },
    {
      "icao": "EYKA",
      "alert": "OK",
      "vis_m": 9999,
      "fzfg": false,
      "metar_trigger": false,
      "taf_trigger": false,
      "metar": "METAR EYKA 150450Z 15014KT CAVOK 05/00 Q1012",
      "taf": "TAF EYKA 150500Z 1506/1606 15013KT 9000 NSC"
    },
    {
      "icao": "EYPA",
      "alert": "OK",
      "vis_m": 9999,
      "fzfg": false,
      "metar_trigger": false,
      "taf_trigger": false,
      "metar": "METAR EYPA 150450Z 14013KT CAVOK 06/M01 Q1008",
      "taf": "TAF EYPA 150500Z 1506/1606 14013KT 9000 NSC"
    },
    {
      "icao": "EYVI",
      "alert": "OK",
      "vis_m": 9999,
      "fzfg": false,
      "metar_trigger": false,
      "taf_trigger": false,
      "metar": "METAR EYVI 150450Z 15012KT CAVOK 03/00 Q1015 NOSIG",
      "taf": "TAF EYVI 150500Z 1506/1606 16015KT 9000 NSC"
    },
    {
      "icao": "GCFV",
      "alert": "OK",
      "vis_m": 9999,
      "fzfg": false,
      "metar_trigger": false,
      "taf_trigger": false,
      "metar": "METAR GCFV 150500Z AUTO 02020KT 9999 BKN025 17/12 Q1017",
      "taf": "TAF GCFV 150200Z 1503/1603 03014KT 9999 BKN025 TX20/1514Z TN16/1506Z"
    },
    {
      "icao": "GCLP",
      "alert": "OK",
      "vis_m": 9999,
      "fzfg": false,
      "metar_trigger": false,
      "taf_trigger": false,
      "metar": "METAR GCLP 150500Z 36016KT 9999 FEW025 BKN032 17/11 Q1017 NOSIG",
      "taf": "TAF GCLP 150200Z 1503/1603 02018KT 9999 BKN025 TX20/1514Z TN16/1506Z"
    },
    {
      "icao": "GCTS",
      "alert": "OK",
      "vis_m": 9999,
      "fzfg": false,
      "metar_trigger": false,
      "taf_trigger": false,
      "metar": "METAR GCTS 150500Z 05013KT 9999 FEW030 16/08 Q1017 NOSIG",
      "taf": "TAF GCTS 150200Z 1503/1603 05018KT 9999 FEW030 TX23/1514Z TN16/1506Z"
    },
    {
      "icao": "GMAD",
      "alert": "OK",
      "vis_m": 6000,
      "fzfg": false,
      "metar_trigger": false,
      "taf_trigger": false,
      "metar": "METAR GMAD 150500Z 06005KT 6000 SCT010 13/10 Q1013 NOSIG",
      "taf": "TAF GMAD 150500Z 1506/1612 06005KT 6000 SCT010"
    },
    {
      "icao": "GMMN",
      "alert": "OK",
      "vis_m": 9999,
      "fzfg": false,
      "metar_trigger": false,
      "taf_trigger": false,
      "metar": "METAR GMMN 150500Z 15003KT 9999 SCT010 SCT020 12/11 Q1018 NOSIG",
      "taf": "TAF GMMN 142300Z 1500/1606 VRB03KT 9999 SCT010 SCT027"
    },
    {
      "icao": "GMMX",
      "alert": "OK",
      "vis_m": 8000,
      "fzfg": false,
      "metar_trigger": false,
      "taf_trigger": false,
      "metar": "METAR GMMX 150500Z 09005KT 8000 NSC 08/07 Q1017 NOSIG",
      "taf": "TAF GMMX 142300Z 1500/1606 04006KT 8000 SCT026"
    },
    {
      "icao": "HEGN",
      "alert": "OK",
      "vis_m": 3000,
      "fzfg": false,
      "metar_trigger": false,
      "taf_trigger": false,
      "metar": "METAR HEGN 150400Z 32019KT 3000 SA BKN025 19/05 Q1007 NOSIG",
      "taf": "TAF HEGN 150500Z 1506/1612 30018G28KT 6000 SCT025"
    },
    {
      "icao": "HEMA",
      "alert": "OK",
      "vis_m": 9999,
      "fzfg": false,
      "metar_trigger": false,
      "taf_trigger": false,
      "metar": "METAR HEMA 150400Z 30004KT CAVOK 21/05 Q1007 NOSIG",
      "taf": "TAF HEMA 150500Z 1506/1612 32015G25KT 6000 SCT025"
    },
    {
      "icao": "HESH",
      "alert": "OK",
      "vis_m": 9999,
      "fzfg": false,
      "metar_trigger": false,
      "taf_trigger": false,
      "metar": "METAR HESH 150400Z 33007KT CAVOK 21/11 Q1005 NOSIG",
      "taf": "TAF HESH 150500Z 1506/1612 35012KT 6000 SCT025"
    },
    {
      "icao": "HESX",
      "alert": "OK",
      "vis_m": 9999,
      "fzfg": false,
      "metar_trigger": false,
      "taf_trigger": false,
      "metar": "METAR HESX 150400Z 24006KT CAVOK 09/08 Q1008 NOSIG",
      "taf": "TAF HESX 150500Z 1506/1612 25012KT CAVOK"
    },
    {
      "icao": "LATI",
      "alert": "OK",
      "vis_m": null,
      "fzfg": false,
      "metar_trigger": false,
      "taf_trigger": false,
      "metar": "",
      "taf": "TAF LATI 150500Z 1506/1606 VRB04KT CAVOK TX20/1512Z TN05/1604Z"
    },
    {
      "icao": "LBPD",
      "alert": "OK",
      "vis_m": 9999,
      "fzfg": false,
      "metar_trigger": false,
      "taf_trigger": false,
      "metar": "METAR LBPD 150500Z AUTO 15004KT 9999 NCD 01/M02 Q1012 NOSIG",
      "taf": "TAF LBPD 150500Z 1506/1606 VRB04KT CAVOK"
    },
    {
      "icao": "LBSF",
      "alert": "OK",
      "vis_m": 5000,
      "fzfg": false,
      "metar_trigger": false,
      "taf_trigger": false,
      "metar": "METAR LBSF 150500Z 13002KT 5000 BR NSC M00/M01 Q1011 TEMPO 4000 BR",
      "taf": "TAF LBSF 150500Z 1506/1606 VRB04KT CAVOK"
    },
    {
      "icao": "LBWN",
      "alert": "OK",
      "vis_m": 9999,
      "fzfg": false,
      "metar_trigger": false,
      "taf_trigger": false,
      "metar": "METAR LBWN 150500Z AUTO 35009KT 9999 SCT031/// 05/05 Q1011 NOSIG",
      "taf": "TAF LBWN 150500Z 1506/1606 03010KT 9999 BKN015"
    },
    {
      "icao": "LCLK",
      "alert": "OK",
      "vis_m": 7000,
      "fzfg": false,
      "metar_trigger": false,
      "taf_trigger": false,
      "metar": "METAR LCLK 150500Z 18028G41KT 7000 3000S -SHRA FEW013 SCT020 BKN030 15/14 Q0995 NOSIG",
      "taf": "TAF LCLK 142330Z 1500/1600 18018KT 9999 FEW020 SCT040"
    },
    {
      "icao": "LCPH",
      "alert": "OK",
      "vis_m": 4000,
      "fzfg": false,
      "metar_trigger": false,
      "taf_trigger": false,
      "metar": "METAR LCPH 150500Z 31015KT 4000 -SHRA FEW020 BKN050 16/14 Q0994 TEMPO 3000 TSRA SCT025CB",
      "taf": ""
    },
    {
      "icao": "LEAL",
      "alert": "OK",
      "vis_m": 9999,
      "fzfg": false,
      "metar_trigger": false,
      "taf_trigger": false,
      "metar": "METAR LEAL 150500Z 30012KT CAVOK 12/03 Q1009 NOSIG",
      "taf": "TAF LEAL 142300Z 1500/1524 31009KT 9999 FEW020 TX20/1512Z TN08/1506Z"
    },
    {
      "icao": "LEBB",
      "alert": "OK",
      "vis_m": 9999,
      "fzfg": false,
      "metar_trigger": false,
      "taf_trigger": false,
      "metar": "METAR LEBB 150500Z 32005KT 280V340 9999 SCT030 BKN050 09/06 Q1017 TEMPO 3000 RA",
      "taf": ""
    },
    {
      "icao": "LEBL",
      "alert": "OK",
      "vis_m": 9999,
      "fzfg": false,
      "metar_trigger": false,
      "taf_trigger": false,
      "metar": "METAR LEBL 150500Z 33006KT CAVOK 05/02 Q1006 NOSIG",
      "taf": ""
    },
    {
      "icao": "LECH",
      "alert": "OK",
      "vis_m": 9000,
      "fzfg": false,
      "metar_trigger": false,
      "taf_trigger": false,
      "metar": "METAR LECH 150500Z AUTO 32015G29KT 280V360 9000 NCD 08/M01 Q1008",
      "taf": ""
    },
    {
      "icao": "LEMD",
      "alert": "OK",
      "vis_m": 9999,
      "fzfg": false,
      "metar_trigger": false,
      "taf_trigger": false,
      "metar": "METAR LEMD 150500Z 32006KT 9999 FEW067 06/01 Q1013 NOSIG",
      "taf": ""
    },
    {
      "icao": "LEMG",
      "alert": "OK",
      "vis_m": 9999,
      "fzfg": false,
      "metar_trigger": false,
      "taf_trigger": false,
      "metar": "METAR LEMG 150500Z 32008KT 9999 FEW012 BKN065 15/10 Q1012 NOSIG",
      "taf": "TAF LEMG 142300Z 1500/1524 29010KT 9999 FEW030 SCT040 TX18/1515Z TN11/1507Z"
    },
    {
      "icao": "LEVC",
      "alert": "OK",
      "vis_m": 9999,
      "fzfg": false,
      "metar_trigger": false,
      "taf_trigger": false,
      "metar": "METAR LEVC 150500Z 32016KT CAVOK 10/01 Q1009 NOSIG",
      "taf": "TAF LEVC 142300Z 1500/1524 33012KT 9999 FEW030 BKN060 TX18/1512Z TN08/1506Z"
    },
    {
      "icao": "LEXJ",
      "alert": "OK",
      "vis_m": 2900,
      "fzfg": false,
      "metar_trigger": false,
      "taf_trigger": false,
      "metar": "SPECI LEXJ 150507Z 34008KT 300V030 2900 RA SCT030 BKN079 09/04 Q1018",
      "taf": "TAF LEXJ 150200Z 1503/1603 29009KT 9999 SCT015 BKN025 TX13/1513Z TN09/1505Z"
    },
    {
      "icao": "LEZG",
      "alert": "OK",
      "vis_m": 9999,
      "fzfg": false,
      "metar_trigger": false,
      "taf_trigger": false,
      "metar": "METAR LEZG 150500Z 29017KT 9999 FEW065 07/04 Q1012 NOSIG",
      "taf": "TAF LEZG 142300Z 1500/1524 30015KT 9999 FEW050 SCT070 TX13/1514Z TN06/1506Z"
    },
    {
      "icao": "LEZL",
      "alert": "OK",
      "vis_m": 9999,
      "fzfg": false,
      "metar_trigger": false,
      "taf_trigger": false,
      "metar": "METAR LEZL 150500Z 27005KT 9999 SCT034 13/12 Q1014 NOSIG",
      "taf": "TAF LEZL 150200Z 1503/1603 30008KT 9999 SCT030 TX21/1515Z TN10/1507Z"
    },
    {
      "icao": "LFBD",
      "alert": "OK",
      "vis_m": 9999,
      "fzfg": false,
      "metar_trigger": false,
      "taf_trigger": false,
      "metar": "METAR LFBD 150500Z AUTO 27003KT CAVOK 03/02 Q1015 TEMPO 1500 MIFG",
      "taf": "TAF LFBD 142300Z 1500/1606 32005KT CAVOK TX14/1514Z TN02/1506Z"
    },
    {
      "icao": "LFLL",
      "alert": "OK",
      "vis_m": 9999,
      "fzfg": false,
      "metar_trigger": false,
      "taf_trigger": false,
      "metar": "METAR LFLL 150500Z 35015KT 9999 FEW011 BKN110 03/01 Q1010 NOSIG",
      "taf": "TAF LFLL 142300Z 1500/1606 35015KT CAVOK"
    },
    {
      "icao": "LFLS",
      "alert": "OK",
      "vis_m": 9999,
      "fzfg": false,
      "metar_trigger": false,
      "taf_trigger": false,
      "metar": "METAR LFLS 150500Z AUTO 35012KT 320V020 9999 BKN012 BKN038 OVC072 03/01 Q1008 NOSIG",
      "taf": ""
    },
    {
      "icao": "LFMN",
      "alert": "OK",
      "vis_m": 9999,
      "fzfg": false,
      "metar_trigger": false,
      "taf_trigger": false,
      "metar": "METAR LFMN 150500Z 01010KT 9999 OVC040 10/06 Q0996 NOSIG",
      "taf": "TAF LFMN 150200Z 1503/1609 34012KT 9999 SCT040 BKN100"
    },
    {
      "icao": "LFOB",
      "alert": "OK",
      "vis_m": 9999,
      "fzfg": false,
      "metar_trigger": false,
      "taf_trigger": false,
      "metar": "METAR LFOB 150500Z AUTO 00000KT CAVOK M01/M01 Q1015 TEMPO 4000 BR",
      "taf": ""
    },
    {
      "icao": "LFPO",
      "alert": "OK",
      "vis_m": 9999,
      "fzfg": false,
      "metar_trigger": false,
      "taf_trigger": false,
      "metar": "METAR LFPO 150500Z 26003KT CAVOK 01/M01 Q1015 NOSIG",
      "taf": "TAF LFPO 142300Z 1500/1606 33003KT CAVOK"
    },
    {
      "icao": "LFSB",
      "alert": "OK",
      "vis_m": 9999,
      "fzfg": false,
      "metar_trigger": false,
      "taf_trigger": false,
      "metar": "METAR LFSB 150500Z AUTO 31001KT 9999 SCT013 BKN032 OVC130 03/02 Q1012 NOSIG",
      "taf": ""
    },
    {
      "icao": "LGAV",
      "alert": "OK",
      "vis_m": 9999,
      "fzfg": false,
      "metar_trigger": false,
      "taf_trigger": false,
      "metar": "METAR LGAV 150450Z 29003KT 9999 FEW030 BKN040 09/02 Q1009 NOSIG",
      "taf": "TAF LGAV 150500Z 1506/1606 34010KT 9999 FEW030"
    },
    {
      "icao": "LGTS",
      "alert": "OK",
      "vis_m": 9999,
      "fzfg": false,
      "metar_trigger": false,
      "taf_trigger": false,
      "metar": "METAR LGTS 150450Z 10006KT CAVOK 03/01 Q1010 NOSIG",
      "taf": "TAF LGTS 150500Z 1506/1606 VRB03KT 9999 FEW030"
    },
    {
      "icao": "LHBP",
      "alert": "OK",
      "vis_m": 9999,
      "fzfg": false,
      "metar_trigger": false,
      "taf_trigger": false,
      "metar": "METAR LHBP 150500Z 09006KT CAVOK 04/M01 Q1010 NOSIG",
      "taf": "TAF LHBP 142315Z 1500/1524 08006KT CAVOK"
    },
    {
      "icao": "LHDC",
      "alert": "OK",
      "vis_m": 9999,
      "fzfg": false,
      "metar_trigger": false,
      "taf_trigger": false,
      "metar": "METAR LHDC 150445Z AUTO 05006KT CAVOK 00/M04 Q1012",
      "taf": ""
    },
    {
      "icao": "LIBD",
      "alert": "OK",
      "vis_m": 9999,
      "fzfg": false,
      "metar_trigger": false,
      "taf_trigger": false,
      "metar": "METAR LIBD 150450Z 14005KT CAVOK 09/08 Q1004",
      "taf": "TAF LIBD 142300Z 1500/1524 13006KT 9999 SCT020"
    },
    {
      "icao": "LIBG",
      "alert": "OK",
      "vis_m": null,
      "fzfg": false,
      "metar_trigger": false,
      "taf_trigger": false,
      "metar": "",
      "taf": ""
    },
    {
      "icao": "LIBP",
      "alert": "OK",
      "vis_m": 9999,
      "fzfg": false,
      "metar_trigger": false,
      "taf_trigger": false,
      "metar": "METAR LIBP 150450Z AUTO 27002KT 9999 BKN230/// 05/04 Q1002",
      "taf": "TAF LIBP 142300Z 1500/1524 VRB05KT 9999 FEW040"
    },
    {
      "icao": "LIBR",
      "alert": "OK",
      "vis_m": 9999,
      "fzfg": false,
      "metar_trigger": false,
      "taf_trigger": false,
      "metar": "METAR LIBR 150450Z 16007KT CAVOK 11/08 Q1005",
      "taf": "TAF LIBR 142300Z 1500/1524 14010KT 9999 SCT015"
    },
    {
      "icao": "LICA",
      "alert": "OK",
      "vis_m": 9999,
      "fzfg": false,
      "metar_trigger": false,
      "taf_trigger": false,
      "metar": "METAR LICA 150450Z AUTO 08007KT 9999 BKN055/// 11/09 Q1003",
      "taf": "TAF LICA 142300Z 1500/1524 08014KT 9999 BKN040"
    },
    {
      "icao": "LICC",
      "alert": "OK",
      "vis_m": 9999,
      "fzfg": false,
      "metar_trigger": false,
      "taf_trigger": false,
      "metar": "METAR LICC 150450Z 24004KT 190V280 9999 SCT040 06/03 Q1003",
      "taf": "TAF LICC 142300Z 1500/1524 27007KT 9999 SCT030"
    },
    {
      "icao": "LICJ",
      "alert": "OK",
      "vis_m": 9999,
      "fzfg": false,
      "metar_trigger": false,
      "taf_trigger": false,
      "metar": "METAR LICJ 150450Z VRB01KT CAVOK 13/03 Q0999",
      "taf": "TAF LICJ 142300Z 1500/1524 18012KT 9999 FEW040"
    },
    {
      "icao": "LIMC",
      "alert": "OK",
      "vis_m": 9999,
      "fzfg": false,
      "metar_trigger": false,
      "taf_trigger": false,
      "metar": "METAR LIMC 150450Z 36019KT 9999 RA BKN020 05/03 Q1002 NOSIG",
      "taf": "TAF LIMC 142300Z 1500/1606 01012KT 4000 BR SCT010"
    },
    {
      "icao": "LIME",
      "alert": "OK",
      "vis_m": 9999,
      "fzfg": false,
      "metar_trigger": false,
      "taf_trigger": false,
      "metar": "METAR LIME 150450Z 09004KT 050V140 9999 FEW045 BKN075 10/06 Q1001 NOSIG",
      "taf": "TAF LIME 142300Z 1500/1524 08012KT 9999 SCT030 BKN040"
    },
    {
      "icao": "LIMF",
      "alert": "OK",
      "vis_m": 8000,
      "fzfg": false,
      "metar_trigger": false,
      "taf_trigger": false,
      "metar": "METAR LIMF 150450Z 31009KT 8000 RA OVC025 06/04 Q1001",
      "taf": "TAF LIMF 142300Z 1500/1524 34010KT 9000 RA FEW010 OVC030"
    },
    {
      "icao": "LIMJ",
      "alert": "OK",
      "vis_m": 9999,
      "fzfg": false,
      "metar_trigger": false,
      "taf_trigger": false,
      "metar": "METAR LIMJ 150450Z 06010KT 9999 -RA BKN025 10/08 Q0998",
      "taf": "TAF LIMJ 142300Z 1500/1524 10012KT 7000 RA BKN020 BKN040"
    },
    {
      "icao": "LIPE",
      "alert": "OK",
      "vis_m": 9999,
      "fzfg": false,
      "metar_trigger": false,
      "taf_trigger": false,
      "metar": "METAR LIPE 150450Z 10005KT CAVOK 09/06 Q1001",
      "taf": "TAF LIPE 142300Z 1500/1524 13007KT 9999 SCT030"
    },
    {
      "icao": "LIPH",
      "alert": "OK",
      "vis_m": 9999,
      "fzfg": false,
      "metar_trigger": false,
      "taf_trigger": false,
      "metar": "METAR LIPH 150450Z AUTO 06010KT 9999 OVC016/// 12/10 Q1004",
      "taf": "TAF LIPH 142300Z 1500/1524 06012KT 9999 BKN020"
    },
    {
      "icao": "LIPQ",
      "alert": "OK",
      "vis_m": 9999,
      "fzfg": false,
      "metar_trigger": false,
      "taf_trigger": false,
      "metar": "METAR LIPQ 150450Z AUTO 09005KT 9999 OVC100/// 12/06 Q1005",
      "taf": "TAF LIPQ 142300Z 1500/1524 VRB05KT 9999 BKN040"
    },
    {
      "icao": "LIPR",
      "alert": "OK",
      "vis_m": 9999,
      "fzfg": false,
      "metar_trigger": false,
      "taf_trigger": false,
      "metar": "METAR LIPR 150450Z AUTO 21002KT 9999 BKN170/// 08/06 Q1002",
      "taf": "TAF LIPR 142300Z 1500/1524 VRB05KT 9999 SCT060"
    },
    {
      "icao": "LIPX",
      "alert": "OK",
      "vis_m": 9999,
      "fzfg": false,
      "metar_trigger": false,
      "taf_trigger": false,
      "metar": "METAR LIPX 150450Z 07008KT 9999 FEW060 12/10 Q1002",
      "taf": "TAF LIPX 142300Z 1500/1524 09012KT 9999 FEW020 BKN060"
    },
    {
      "icao": "LIPY",
      "alert": "OK",
      "vis_m": 9999,
      "fzfg": false,
      "metar_trigger": false,
      "taf_trigger": false,
      "metar": "METAR LIPY 150450Z AUTO 22004KT 9999 FEW016/// BKN180/// 06/05 Q1002",
      "taf": "TAF LIPY 142300Z 1500/1524 VRB05KT 9999 SCT020"
    },
    {
      "icao": "LIPZ",
      "alert": "OK",
      "vis_m": 9999,
      "fzfg": false,
      "metar_trigger": false,
      "taf_trigger": false,
      "metar": "METAR LIPZ 150450Z 11014KT 9999 SCT020 13/11 Q1003 NOSIG",
      "taf": "TAF LIPZ 142300Z 1500/1606 13015G25KT 9999 BKN040"
    },
    {
      "icao": "LIRF",
      "alert": "OK",
      "vis_m": 9999,
      "fzfg": false,
      "metar_trigger": false,
      "taf_trigger": false,
      "metar": "METAR LIRF 150450Z 11014KT 9999 BKN020 12/09 Q0999 TEMPO SHRA",
      "taf": "TAF LIRF 142300Z 1500/1606 13011KT 9999 SCT025"
    },
    {
      "icao": "LIRN",
      "alert": "OK",
      "vis_m": 9999,
      "fzfg": false,
      "metar_trigger": false,
      "taf_trigger": false,
      "metar": "METAR LIRN 150450Z 04004KT 9999 SCT030 10/06 Q1002 NOSIG",
      "taf": "TAF LIRN 142300Z 1500/1524 VRB05KT 9999 BKN030"
    },
    {
      "icao": "LIRP",
      "alert": "OK",
      "vis_m": 9999,
      "fzfg": false,
      "metar_trigger": false,
      "taf_trigger": false,
      "metar": "METAR LIRP 150445Z COR 10017KT CAVOK 12/08 Q0998 NOSIG",
      "taf": "TAF LIRP 142300Z 1500/1524 10012KT 9999 SCT020 SCT050"
    },
    {
      "icao": "LIRZ",
      "alert": "OK",
      "vis_m": 9999,
      "fzfg": false,
      "metar_trigger": false,
      "taf_trigger": false,
      "metar": "METAR LIRZ 150450Z AUTO 35003KT 310V010 9999 FEW210/// 07/06 Q1001",
      "taf": "TAF LIRZ 142300Z 1500/1524 VRB05KT 9999 BKN030"
    },
    {
      "icao": "LJLJ",
      "alert": "OK",
      "vis_m": 9999,
      "fzfg": false,
      "metar_trigger": false,
      "taf_trigger": false,
      "metar": "METAR LJLJ 150500Z VRB01KT 9999 VCFG FEW001 SCT040 BKN090 03/02 Q1007 NOSIG",
      "taf": "TAF LJLJ 150500Z 1506/1606 28002KT 9999 FEW001 SCT040"
    },
    {
      "icao": "LKMT",
      "alert": "OK",
      "vis_m": 9999,
      "fzfg": false,
      "metar_trigger": false,
      "taf_trigger": false,
      "metar": "METAR LKMT 150500Z 06003KT 010V070 CAVOK 05/00 Q1008 NOSIG",
      "taf": "TAF LKMT 142300Z 1500/1524 16010KT CAVOK"
    },
    {
      "icao": "LKPR",
      "alert": "OK",
      "vis_m": 9999,
      "fzfg": false,
      "metar_trigger": false,
      "taf_trigger": false,
      "metar": "METAR LKPR 150500Z 27003KT 9999 OVC022 05/03 Q1008 NOSIG",
      "taf": "TAF LKPR 150200Z 1503/1609 32007KT 9999 SCT018 OVC030"
    },
    {
      "icao": "LLBG",
      "alert": "OK",
      "vis_m": 9999,
      "fzfg": false,
      "metar_trigger": false,
      "taf_trigger": false,
      "metar": "METAR LLBG 150450Z 18010KT 9999 SCT018 15/12 Q1007 TEMPO RA",
      "taf": "TAF LLBG 150506Z 1506/1606 19006KT 9999 SCT025 TX18/1511Z TN13/1604Z"
    },
    {
      "icao": "LMML",
      "alert": "OK",
      "vis_m": 9999,
      "fzfg": false,
      "metar_trigger": false,
      "taf_trigger": false,
      "metar": "METAR LMML 150515Z 15011KT CAVOK 14/12 Q1002 NOSIG",
      "taf": "TAF LMML 150500Z 1506/1606 20015KT 9999 FEW018"
    },
    {
      "icao": "LOWW",
      "alert": "OK",
      "vis_m": 9999,
      "fzfg": false,
      "metar_trigger": false,
      "taf_trigger": false,
      "metar": "METAR LOWW 150450Z 35004KT CAVOK 05/03 Q1009 TEMPO 31010KT",
      "taf": "TAF LOWW 150515Z 1506/1612 34005KT 9999 SCT050 TX15/1514Z TN06/1506Z"
    },
    {
      "icao": "LPFR",
      "alert": "OK",
      "vis_m": 9999,
      "fzfg": false,
      "metar_trigger": false,
      "taf_trigger": false,
      "metar": "METAR LPFR 150500Z 33009KT 300V020 9999 FEW010 SCT022 14/10 Q1015",
      "taf": "TAF LPFR 150500Z 1506/1606 31008KT 9999 SCT010 BKN025"
    },
    {
      "icao": "LPMA",
      "alert": "OK",
      "vis_m": 9999,
      "fzfg": false,
      "metar_trigger": false,
      "taf_trigger": false,
      "metar": "METAR LPMA 150500Z 02012KT 9999 SCT015 15/12 Q1021",
      "taf": "TAF LPMA 150500Z 1506/1606 01012KT 9999 SCT015"
    },
    {
      "icao": "LPPR",
      "alert": "OK",
      "vis_m": 9999,
      "fzfg": false,
      "metar_trigger": false,
      "taf_trigger": false,
      "metar": "METAR LPPR 150500Z 36003KT CAVOK 07/06 Q1018",
      "taf": "TAF LPPR 150500Z 1506/1606 34007KT CAVOK"
    },
    {
      "icao": "LPPS",
      "alert": "OK",
      "vis_m": 9999,
      "fzfg": false,
      "metar_trigger": false,
      "taf_trigger": false,
      "metar": "METAR LPPS 150500Z 02006KT 350V050 9999 FEW010 BKN030 15/13 Q1021",
      "taf": "TAF LPPS 150500Z 1506/1612 03010KT 9999 SCT012 BKN030"
    },
    {
      "icao": "LPPT",
      "alert": "OK",
      "vis_m": 9999,
      "fzfg": false,
      "metar_trigger": false,
      "taf_trigger": false,
      "metar": "METAR LPPT 150500Z 33013KT 9999 FEW015 11/10 Q1017",
      "taf": "TAF LPPT 150500Z 1506/1612 33015KT 9999 FEW015"
    },
    {
      "icao": "LQBK",
      "alert": "OK",
      "vis_m": 9999,
      "fzfg": false,
      "metar_trigger": false,
      "taf_trigger": false,
      "metar": "METAR LQBK 150500Z 13003KT CAVOK 02/M01 Q1007 NOSIG",
      "taf": "TAF LQBK 150500Z 1506/1606 34004KT CAVOK TX19/1513Z TN04/1605Z"
    },
    {
      "icao": "LQSA",
      "alert": "OK",
      "vis_m": 9999,
      "fzfg": false,
      "metar_trigger": false,
      "taf_trigger": false,
      "metar": "METAR LQSA 150500Z 32001KT CAVOK M00/M01 Q1008 NOSIG",
      "taf": "TAF LQSA 150500Z 1506/1606 29006KT CAVOK TX18/1514Z TNM00/1506Z"
    },
    {
      "icao": "LQTZ",
      "alert": "OK",
      "vis_m": 9999,
      "fzfg": false,
      "metar_trigger": false,
      "taf_trigger": false,
      "metar": "METAR LQTZ 150500Z VRB02KT CAVOK 02/00 Q1007",
      "taf": "TAF LQTZ 150500Z 1506/1606 VRB02KT 9999 SCT050 TX19/1513Z TN01/1605Z"
    },
    {
      "icao": "LRBC",
      "alert": "OK",
      "vis_m": 7000,
      "fzfg": false,
      "metar_trigger": false,
      "taf_trigger": false,
      "metar": "METAR LRBC 150500Z 34004KT 7000 FEW029 M02/M03 Q1016",
      "taf": ""
    },
    {
      "icao": "LRBS",
      "alert": "OK",
      "vis_m": 7000,
      "fzfg": false,
      "metar_trigger": false,
      "taf_trigger": false,
      "metar": "METAR LRBS 150500Z 08006KT 7000 SCT005 01/00 Q1013 TEMPO 5000 BR BKN010",
      "taf": "TAF LRBS 142300Z 1500/1524 05008KT 5000 BR SCT030"
    },
    {
      "icao": "LRBV",
      "alert": "OK",
      "vis_m": 9999,
      "fzfg": false,
      "metar_trigger": false,
      "taf_trigger": false,
      "metar": "METAR LRBV 150500Z VRB03KT CAVOK M01/M04 Q1012",
      "taf": "TAF LRBV 150200Z 1503/1512 VRB04KT CAVOK"
    },
    {
      "icao": "LRCL",
      "alert": "OK",
      "vis_m": 9999,
      "fzfg": false,
      "metar_trigger": false,
      "taf_trigger": false,
      "metar": "METAR LRCL 150500Z AUTO VRB01KT 9999 NCD M02/M06 Q1013",
      "taf": "TAF LRCL 150200Z 1503/1512 VRB04KT CAVOK"
    },
    {
      "icao": "LRCV",
      "alert": "OK",
      "vis_m": 7000,
      "fzfg": false,
      "metar_trigger": false,
      "taf_trigger": false,
      "metar": "METAR LRCV 150500Z 06003KT 7000 NSC 02/01 Q1013",
      "taf": "TAF LRCV 150200Z 1503/1512 07010KT CAVOK"
    },
    {
      "icao": "LRIA",
      "alert": "OK",
      "vis_m": 9999,
      "fzfg": false,
      "metar_trigger": false,
      "taf_trigger": false,
      "metar": "METAR LRIA 150500Z 31004KT 270V340 CAVOK M01/M03 Q1016",
      "taf": "TAF LRIA 150200Z 1503/1512 VRB04KT CAVOK"
    },
    {
      "icao": "LROP",
      "alert": "OK",
      "vis_m": 6000,
      "fzfg": false,
      "metar_trigger": false,
      "taf_trigger": false,
      "metar": "METAR LROP 150500Z 08008KT 6000 SCT008 01/01 Q1014 TEMPO 5000 BR BKN005",
      "taf": "TAF LROP 142300Z 1500/1524 05008KT 5000 BR SCT030"
    },
    {
      "icao": "LRSB",
      "alert": "OK",
      "vis_m": 9999,
      "fzfg": false,
      "metar_trigger": false,
      "taf_trigger": false,
      "metar": "METAR LRSB 150500Z 15003KT 110V180 CAVOK 01/M04 Q1011",
      "taf": "TAF LRSB 142300Z 1500/1524 17008KT CAVOK"
    },
    {
      "icao": "LRSM",
      "alert": "OK",
      "vis_m": 9999,
      "fzfg": false,
      "metar_trigger": false,
      "taf_trigger": false,
      "metar": "METAR LRSM 150500Z 13005KT CAVOK 04/M05 Q1012",
      "taf": "TAF LRSM 150200Z 1503/1512 13010KT CAVOK"
    },
    {
      "icao": "LRSV",
      "alert": "OK",
      "vis_m": 7000,
      "fzfg": false,
      "metar_trigger": false,
      "taf_trigger": false,
      "metar": "METAR LRSV 150500Z 10003KT 7000 FEW024 01/00 Q1015",
      "taf": "TAF LRSV 150200Z 1503/1512 12006KT CAVOK"
    },
    {
      "icao": "LRTM",
      "alert": "OK",
      "vis_m": 9999,
      "fzfg": false,
      "metar_trigger": false,
      "taf_trigger": false,
      "metar": "METAR LRTM 150500Z 09005KT 9999 FEW011 M01/M04 Q1013",
      "taf": "TAF LRTM 150200Z 1503/1512 VRB04KT CAVOK"
    },
    {
      "icao": "LRTR",
      "alert": "OK",
      "vis_m": 9999,
      "fzfg": false,
      "metar_trigger": false,
      "taf_trigger": false,
      "metar": "METAR LRTR 150500Z 09008KT CAVOK 01/M02 Q1010",
      "taf": "TAF LRTR 142300Z 1500/1524 10007KT CAVOK"
    },
    {
      "icao": "LTAC",
      "alert": "OK",
      "vis_m": 9999,
      "fzfg": false,
      "metar_trigger": false,
      "taf_trigger": false,
      "metar": "METAR LTAC 150450Z 04008KT CAVOK 04/M04 Q1004 NOSIG RMK RWY21C 06004KT 020V090 RWY03L 03007KT RWY21R 03005KT RWY03R 02008KT RWY21L 02007KT",
      "taf": "TAF LTAC 150440Z 1506/1606 VRB02KT CAVOK"
    },
    {
      "icao": "LTFM",
      "alert": "OK",
      "vis_m": 9999,
      "fzfg": false,
      "metar_trigger": false,
      "taf_trigger": false,
      "metar": "METAR LTFM 150450Z 04011KT 9999 BKN020 08/04 Q1009 NOSIG RMK RWY17L 03007KT RWY34L 02009KT RWY16R 03009KT RWY36 05011KT RWY18 05009KT",
      "taf": "TAF LTFM 150440Z 1506/1612 04012KT 9999 BKN020"
    },
    {
      "icao": "LUKK",
      "alert": "OK",
      "vis_m": 9999,
      "fzfg": false,
      "metar_trigger": false,
      "taf_trigger": false,
      "metar": "METAR LUKK 150500Z 03007KT CAVOK 01/M04 Q1016 NOSIG",
      "taf": "TAF LUKK 150517Z 1506/1606 03006KT CAVOK"
    },
    {
      "icao": "LWOH",
      "alert": "OK",
      "vis_m": null,
      "fzfg": false,
      "metar_trigger": false,
      "taf_trigger": false,
      "metar": "",
      "taf": "TAF LWOH 150510Z 1506/1606 34005KT CAVOK"
    },
    {
      "icao": "LWSK",
      "alert": "OK",
      "vis_m": null,
      "fzfg": false,
      "metar_trigger": false,
      "taf_trigger": false,
      "metar": "",
      "taf": "TAF LWSK 150510Z 1506/1606 VRB02KT CAVOK"
    },
    {
      "icao": "LYBE",
      "alert": "OK",
      "vis_m": 9999,
      "fzfg": false,
      "metar_trigger": false,
      "taf_trigger": false,
      "metar": "METAR LYBE 150500Z 12011KT CAVOK 08/02 Q1009 NOSIG",
      "taf": "TAF LYBE 142300Z 1500/1524 12016KT CAVOK TX18/1513Z TN05/1524Z"
    },
    {
      "icao": "LYNI",
      "alert": "OK",
      "vis_m": 9999,
      "fzfg": false,
      "metar_trigger": false,
      "taf_trigger": false,
      "metar": "METAR LYNI 150500Z 31003KT 260V340 CAVOK 03/01 Q1010 NOSIG",
      "taf": "TAF LYNI 142300Z 1500/1524 02007KT CAVOK TX18/1513Z TN03/1524Z"
    },
    {
      "icao": "LYPG",
      "alert": "OK",
      "vis_m": 9999,
      "fzfg": false,
      "metar_trigger": false,
      "taf_trigger": false,
      "metar": "METAR LYPG 150500Z 32004KT CAVOK 07/03 Q1008 NOSIG",
      "taf": "TAF LYPG 142300Z 1500/1524 02005KT CAVOK TX20/1513Z TN06/1505Z"
    },
    {
      "icao": "LZIB",
      "alert": "OK",
      "vis_m": 9999,
      "fzfg": false,
      "metar_trigger": false,
      "taf_trigger": false,
      "metar": "METAR LZIB 150500Z 03009KT CAVOK 07/01 Q1009 NOSIG",
      "taf": "TAF LZIB 150515Z 1506/1606 04008KT CAVOK"
    },
    {
      "icao": "LZKZ",
      "alert": "OK",
      "vis_m": 9999,
      "fzfg": false,
      "metar_trigger": false,
      "taf_trigger": false,
      "metar": "METAR LZKZ 150500Z 35007KT CAVOK 04/M05 Q1012 NOSIG",
      "taf": "TAF LZKZ 150515Z 1506/1606 01005KT CAVOK"
    },
    {
      "icao": "LZTT",
      "alert": "OK",
      "vis_m": 9999,
      "fzfg": false,
      "metar_trigger": false,
      "taf_trigger": false,
      "metar": "METAR LZTT 150500Z 28005KT 250V320 CAVOK M01/M04 Q1011",
      "taf": "TAF LZTT 150515Z 1506/1606 26004KT CAVOK"
    },
    {
      "icao": "OEJN",
      "alert": "OK",
      "vis_m": 9999,
      "fzfg": false,
      "metar_trigger": false,
      "taf_trigger": false,
      "metar": "METAR OEJN 150500Z 17010KT CAVOK 30/11 Q1006 NOSIG",
      "taf": "TAF OEJN 150500Z 1506/1612 20018KT 7000 NSC"
    },
    {
      "icao": "OEMA",
      "alert": "OK",
      "vis_m": 9999,
      "fzfg": false,
      "metar_trigger": false,
      "taf_trigger": false,
      "metar": "METAR OEMA 150500Z 11006KT CAVOK 26/13 Q1011 NOSIG",
      "taf": "TAF OEMA 150500Z 1506/1612 20018KT 7000 FEW040"
    },
    {
      "icao": "OJAI",
      "alert": "OK",
      "vis_m": 4000,
      "fzfg": false,
      "metar_trigger": false,
      "taf_trigger": false,
      "metar": "METAR OJAI 150500Z 25010KT 4000 BR NSC 11/07 Q1008 NOSIG",
      "taf": "TAF OJAI 150500Z 1506/1612 27014KT 4000 BR SCT020"
    },
    {
      "icao": "OMAA",
      "alert": "OK",
      "vis_m": null,
      "fzfg": false,
      "metar_trigger": false,
      "taf_trigger": false,
      "metar": "",
      "taf": ""
    },
    {
      "icao": "OMDB",
      "alert": "OK",
      "vis_m": null,
      "fzfg": false,
      "metar_trigger": false,
      "taf_trigger": false,
      "metar": "",
      "taf": ""
    },
    {
      "icao": "UAAA",
      "alert": "OK",
      "vis_m": 9999,
      "fzfg": false,
      "metar_trigger": false,
      "taf_trigger": false,
      "metar": "METAR UAAA 150500Z 25005MPS 9999 SCT100 BKN200 02/M06 Q1027 NOSIG",
      "taf": "TAF UAAA 142301Z 1500/1524 22003MPS 3100 BR FU SCT100 TX06/1509Z TNM06/1501Z"
    },
    {
      "icao": "UBBB",
      "alert": "OK",
      "vis_m": 9999,
      "fzfg": false,
      "metar_trigger": false,
      "taf_trigger": false,
      "metar": "METAR UBBB 150500Z 14014KT 9999 SCT023 SCT040CB 10/07 Q1021 NOSIG",
      "taf": "TAF UBBB 150457Z 1506/1606 14012KT 9999 BKN040 TX13/1509Z TN07/1600Z"
    },
    {
      "icao": "UDSG",
      "alert": "OK",
      "vis_m": 8000,
      "fzfg": false,
      "metar_trigger": false,
      "taf_trigger": false,
      "metar": "METAR UDSG 150500Z 24003KT 8000 OVC030 00/00 Q1014 NOSIG",
      "taf": "TAF UDSG 142300Z 1500/1524 VRB06KT 1200 BR OVC010"
    },
    {
      "icao": "UDYZ",
      "alert": "OK",
      "vis_m": 2000,
      "fzfg": false,
      "metar_trigger": false,
      "taf_trigger": false,
      "metar": "METAR UDYZ 150500Z 00000KT 2000 R08/2000U -SHRA BR OVC027CB 06/06 Q1014 NOSIG",
      "taf": "TAF UDYZ 142300Z 1500/1524 14006KT 6000 BKN040"
    },
    {
      "icao": "UGKO",
      "alert": "OK",
      "vis_m": 9999,
      "fzfg": false,
      "metar_trigger": false,
      "taf_trigger": false,
      "metar": "METAR UGKO 150500Z 08033G47KT CAVOK 11/02 Q1009 NOSIG",
      "taf": "TAF UGKO 150500Z 1506/1606 08033G47KT CAVOK TX14/1511Z TN06/1603Z"
    }
  ]
}