{
  "ts_utc": "2026-01-27T05:25:54Z",
  "threshold_m": 150,
  "source": "stations_override.txt (ICAO list) + aviationweather.gov (METAR/TAF raw)",
  "station_count": 159,
  "stations": [
    {
      "icao": "BIKF",
      "alert": "OK",
      "vis_m": 9999,
      "fzfg": false,
      "metar_trigger": false,
      "taf_trigger": false,
      "metar": "METAR BIKF 270500Z 06017KT CAVOK 04/M05 Q0997",
      "taf": "TAF BIKF 270449Z 2706/2806 08018KT 9999 FEW045 TX06/2715Z TN03/2709Z"
    },
    {
      "icao": "BKPR",
      "alert": "OK",
      "vis_m": null,
      "fzfg": false,
      "metar_trigger": false,
      "taf_trigger": false,
      "metar": "",
      "taf": "TAF BKPR 262330Z 2700/2724 35008KT 9999 FEW015 BKN030"
    },
    {
      "icao": "EBCI",
      "alert": "OK",
      "vis_m": 9999,
      "fzfg": false,
      "metar_trigger": false,
      "taf_trigger": false,
      "metar": "METAR EBCI 270520Z 11007KT CAVOK 03/01 Q0996 NOSIG",
      "taf": "TAF EBCI 270520Z 2706/2812 14010KT 6000 SCT008 BKN014"
    },
    {
      "icao": "EDDB",
      "alert": "OK",
      "vis_m": 7000,
      "fzfg": false,
      "metar_trigger": false,
      "taf_trigger": false,
      "metar": "METAR EDDB 270520Z AUTO 01003KT 7000 BKN008 BKN021 M01/M02 Q1001 TEMPO 4000 BR BKN004",
      "taf": "TAF EDDB 262300Z 2700/2724 VRB03KT 5000 BR OVC006"
    },
    {
      "icao": "EDDH",
      "alert": "OK",
      "vis_m": 9999,
      "fzfg": false,
      "metar_trigger": false,
      "taf_trigger": false,
      "metar": "METAR EDDH 270520Z AUTO 07004KT 9999 FEW021 00/M01 Q1002 TEMPO BKN009",
      "taf": "TAF EDDH 270500Z 2706/2812 VRB03KT 9999 OVC008"
    },
    {
      "icao": "EDDK",
      "alert": "OK",
      "vis_m": 7000,
      "fzfg": false,
      "metar_trigger": false,
      "taf_trigger": false,
      "metar": "METAR EDDK 270520Z AUTO 09005KT 060V120 7000 OVC029 01/M01 Q1000 NOSIG",
      "taf": "TAF EDDK 270500Z 2706/2812 12005KT 9000 OVC030"
    },
    {
      "icao": "EDDN",
      "alert": "OK",
      "vis_m": 5000,
      "fzfg": false,
      "metar_trigger": false,
      "taf_trigger": false,
      "metar": "METAR EDDN 270520Z AUTO 10003KT 5000 BR FEW015 BKN027 00/M01 Q1002 TEMPO 3500",
      "taf": "TAF EDDN 270500Z 2706/2806 10004KT 9000 BKN020"
    },
    {
      "icao": "EDDS",
      "alert": "OK",
      "vis_m": 9999,
      "fzfg": false,
      "metar_trigger": false,
      "taf_trigger": false,
      "metar": "METAR EDDS 270520Z AUTO 09002KT CAVOK M02/M03 Q1000 NOSIG",
      "taf": "TAF EDDS 270500Z 2706/2806 VRB03KT 9999 FEW030"
    },
    {
      "icao": "EDFH",
      "alert": "OK",
      "vis_m": 9999,
      "fzfg": false,
      "metar_trigger": false,
      "taf_trigger": false,
      "metar": "METAR EDFH 270450Z 14005KT 9999 BKN016 01/M00 Q0999",
      "taf": "TAF EDFH 270500Z 2706/2806 14007KT 9999 OVC020"
    },
    {
      "icao": "EDJA",
      "alert": "OK",
      "vis_m": 9999,
      "fzfg": false,
      "metar_trigger": false,
      "taf_trigger": false,
      "metar": "METAR EDJA 270450Z 14004KT CAVOK M02/M03 Q1001",
      "taf": "TAF EDJA 270500Z 2706/2715 VRB03KT CAVOK"
    },
    {
      "icao": "EDLW",
      "alert": "OK",
      "vis_m": 1800,
      "fzfg": false,
      "metar_trigger": false,
      "taf_trigger": false,
      "metar": "METAR EDLW 270450Z 02003KT 360V060 1800 BR BKN002 BKN017 M00/M00 Q1001",
      "taf": "TAF EDLW 270500Z 2706/2806 10004KT 3000 BR BKN008 OVC025"
    },
    {
      "icao": "EDNY",
      "alert": "OK",
      "vis_m": 9999,
      "fzfg": false,
      "metar_trigger": false,
      "taf_trigger": false,
      "metar": "METAR EDNY 270450Z VRB02KT CAVOK M03/M03 Q1001",
      "taf": "TAF EDNY 270500Z 2706/2715 VRB03KT CAVOK"
    },
    {
      "icao": "EDSB",
      "alert": "OK",
      "vis_m": 450,
      "fzfg": true,
      "metar_trigger": false,
      "taf_trigger": false,
      "metar": "METAR EDSB 270450Z 00000KT 0450 R21/0600N FZFG VV/// M01/M02 Q1001",
      "taf": "TAF EDSB 270500Z 2706/2806 VRB03KT 0300 FZFG OVC001"
    },
    {
      "icao": "EETN",
      "alert": "OK",
      "vis_m": 9999,
      "fzfg": false,
      "metar_trigger": false,
      "taf_trigger": false,
      "metar": "METAR EETN 270520Z 06004KT 9999 OVC011 M06/M08 Q1013 TEMPO OVC009",
      "taf": "TAF EETN 262330Z 2700/2724 03005KT 9999 OVC010"
    },
    {
      "icao": "EFTU",
      "alert": "OK",
      "vis_m": 9999,
      "fzfg": false,
      "metar_trigger": false,
      "taf_trigger": false,
      "metar": "METAR EFTU 270520Z AUTO 06003KT 030V090 9999 OVC008 M08/M10 Q1014",
      "taf": "TAF EFTU 270229Z 2703/2803 04007KT 9999 OVC009"
    },
    {
      "icao": "EGBB",
      "alert": "OK",
      "vis_m": 3000,
      "fzfg": false,
      "metar_trigger": false,
      "taf_trigger": false,
      "metar": "METAR EGBB 270520Z 12023KT 3000 RA OVC008 05/04 Q0982",
      "taf": "TAF EGBB 270458Z 2706/2806 11020G35KT 9999 SCT008 BKN030"
    },
    {
      "icao": "EGGP",
      "alert": "OK",
      "vis_m": 9999,
      "fzfg": false,
      "metar_trigger": false,
      "taf_trigger": false,
      "metar": "METAR EGGP 270520Z 10021KT 9999 -RA BKN016 04/02 Q0982",
      "taf": "TAF EGGP 270501Z 2706/2806 11016G28KT 9999 SCT015"
    },
    {
      "icao": "EGGW",
      "alert": "OK",
      "vis_m": 4800,
      "fzfg": false,
      "metar_trigger": false,
      "taf_trigger": false,
      "metar": "METAR EGGW 270520Z AUTO 12019KT 4800 -RA OVC005 05/04 Q0986 RERA",
      "taf": "TAF EGGW 270456Z 2706/2806 12020G32KT 6000 -RA OVC010"
    },
    {
      "icao": "EGKK",
      "alert": "OK",
      "vis_m": 6000,
      "fzfg": false,
      "metar_trigger": false,
      "taf_trigger": false,
      "metar": "METAR EGKK 270520Z 12015G25KT 6000 RA BKN009 OVC012 06/06 Q0986 RERA",
      "taf": "TAF EGKK 270453Z 2706/2812 11010KT 9999 SCT015"
    },
    {
      "icao": "EGNM",
      "alert": "OK",
      "vis_m": 4500,
      "fzfg": false,
      "metar_trigger": false,
      "taf_trigger": false,
      "metar": "METAR EGNM 270520Z 10021G31KT 4500 -RA BKN006 02/02 Q0987",
      "taf": "TAF EGNM 270500Z 2706/2806 10015G26KT 6000 BKN006"
    },
    {
      "icao": "EGPD",
      "alert": "OK",
      "vis_m": 9999,
      "fzfg": false,
      "metar_trigger": false,
      "taf_trigger": false,
      "metar": "METAR EGPD 270520Z AUTO 11018G29KT 9999 -RA BKN011/// OVC042/// //////TCU 03/01 Q0996 RERA",
      "taf": "TAF EGPD 270454Z 2706/2806 11015KT 9999 SCT010 BKN025"
    },
    {
      "icao": "EGPF",
      "alert": "OK",
      "vis_m": 9999,
      "fzfg": false,
      "metar_trigger": false,
      "taf_trigger": false,
      "metar": "METAR EGPF 270520Z AUTO 08021G31KT 9999 BKN021 OVC026 05/01 Q0988",
      "taf": "TAF EGPF 270459Z 2706/2806 08017KT 9999 BKN018"
    },
    {
      "icao": "EHBK",
      "alert": "OK",
      "vis_m": 5000,
      "fzfg": false,
      "metar_trigger": false,
      "taf_trigger": false,
      "metar": "METAR EHBK 270455Z AUTO 09007KT 5000 BR OVC028/// 01/M01 Q0999",
      "taf": "TAF EHBK 270514Z 2706/2812 11006KT 4000 BR BKN030"
    },
    {
      "icao": "EHEH",
      "alert": "OK",
      "vis_m": null,
      "fzfg": false,
      "metar_trigger": false,
      "taf_trigger": false,
      "metar": "",
      "taf": "TAF EHEH 261754Z 2618/2724 24005KT 4000 BR BKN007"
    },
    {
      "icao": "EKBI",
      "alert": "OK",
      "vis_m": 9999,
      "fzfg": false,
      "metar_trigger": false,
      "taf_trigger": false,
      "metar": "METAR EKBI 270520Z AUTO 05012KT 9999 OVC011/// M01/M02 Q1006",
      "taf": "TAF EKBI 270227Z 2703/2803 05015KT 9999 BKN018"
    },
    {
      "icao": "EKCH",
      "alert": "OK",
      "vis_m": 8000,
      "fzfg": false,
      "metar_trigger": false,
      "taf_trigger": false,
      "metar": "METAR EKCH 270520Z 04015KT 8000 -SN OVC016 M01/M03 Q1006 TEMPO 4000 BKN014",
      "taf": "TAF EKCH 270227Z 2703/2803 05017KT 1200 SN BKN008"
    },
    {
      "icao": "ENAL",
      "alert": "OK",
      "vis_m": 9999,
      "fzfg": false,
      "metar_trigger": false,
      "taf_trigger": false,
      "metar": "METAR ENAL 270450Z 14006KT CAVOK M05/M09 Q1010",
      "taf": "TAF ENAL 270200Z 2703/2712 15005KT CAVOK"
    },
    {
      "icao": "ENBR",
      "alert": "OK",
      "vis_m": 9999,
      "fzfg": false,
      "metar_trigger": false,
      "taf_trigger": false,
      "metar": "METAR ENBR 270450Z VRB01KT CAVOK M05/M11 Q1010 RMK WIND 1200FT VRB02KT",
      "taf": "TAF ENBR 262300Z 2700/2724 07004KT CAVOK"
    },
    {
      "icao": "ENGM",
      "alert": "OK",
      "vis_m": 9000,
      "fzfg": false,
      "metar_trigger": false,
      "taf_trigger": false,
      "metar": "METAR ENGM 270450Z 02004KT 9000 SCT003 BKN015 M09/M10 Q1014 TEMPO BKN003",
      "taf": ""
    },
    {
      "icao": "ENHD",
      "alert": "OK",
      "vis_m": 9999,
      "fzfg": false,
      "metar_trigger": false,
      "taf_trigger": false,
      "metar": "METAR ENHD 270450Z AUTO 24006KT 9999 NCD M08/M09 Q1010",
      "taf": ""
    },
    {
      "icao": "ENTC",
      "alert": "OK",
      "vis_m": 2300,
      "fzfg": false,
      "metar_trigger": false,
      "taf_trigger": false,
      "metar": "METAR ENTC 270450Z VRB02KT 2300 -SN VV019 M05/M06 Q1009 RMK WIND 2600FT 31014KT",
      "taf": ""
    },
    {
      "icao": "ENTO",
      "alert": "OK",
      "vis_m": 9999,
      "fzfg": false,
      "metar_trigger": false,
      "taf_trigger": false,
      "metar": "METAR ENTO 270450Z 01009KT 9999 -SN SCT010 OVC013 M07/M09 Q1014",
      "taf": "TAF ENTO 262300Z 2700/2724 02010KT 9999 FEW015 BKN030"
    },
    {
      "icao": "ENVA",
      "alert": "OK",
      "vis_m": 9999,
      "fzfg": false,
      "metar_trigger": false,
      "taf_trigger": false,
      "metar": "METAR ENVA 270450Z 11007KT CAVOK M13/M15 Q1013 RMK WIND 670FT 17007KT",
      "taf": "TAF ENVA 262300Z 2700/2724 11005KT CAVOK"
    },
    {
      "icao": "ENZV",
      "alert": "OK",
      "vis_m": 9999,
      "fzfg": false,
      "metar_trigger": false,
      "taf_trigger": false,
      "metar": "METAR ENZV 270450Z 15006KT CAVOK M04/M10 Q1010",
      "taf": "TAF ENZV 262300Z 2700/2724 15004KT CAVOK"
    },
    {
      "icao": "EPGD",
      "alert": "OK",
      "vis_m": 3400,
      "fzfg": false,
      "metar_trigger": false,
      "taf_trigger": false,
      "metar": "METAR EPGD 270500Z 07005KT 040V100 3400 BR OVC002 M01/M02 Q1002",
      "taf": ""
    },
    {
      "icao": "EPKK",
      "alert": "OK",
      "vis_m": 1400,
      "fzfg": false,
      "metar_trigger": false,
      "taf_trigger": false,
      "metar": "METAR EPKK 270500Z 01002KT 1400 0500W R25/P2000N BCFG BR NSC M04/M05 Q1002",
      "taf": ""
    },
    {
      "icao": "EPKT",
      "alert": "OK",
      "vis_m": 3800,
      "fzfg": false,
      "metar_trigger": false,
      "taf_trigger": false,
      "metar": "METAR EPKT 270500Z VRB01KT 3800 BR BKN023 M02/M03 Q1002",
      "taf": "TAF EPKT 262330Z 2700/2724 VRB02KT 5000 BR NSC"
    },
    {
      "icao": "EPLB",
      "alert": "OK",
      "vis_m": 2700,
      "fzfg": false,
      "metar_trigger": false,
      "taf_trigger": false,
      "metar": "METAR EPLB 270500Z 21002KT 2700 BR SCT003 BKN006 01/01 Q1002 REFZRA",
      "taf": ""
    },
    {
      "icao": "EPMO",
      "alert": "OK",
      "vis_m": 150,
      "fzfg": true,
      "metar_trigger": false,
      "taf_trigger": false,
      "metar": "METAR EPMO 270500Z 08005KT 0150 R08/0125N FZFG VV000 M04/M04 Q1002",
      "taf": "TAF EPMO 262330Z 2700/2724 VRB03KT 2000 BR NSC"
    },
    {
      "icao": "EPPO",
      "alert": "OK",
      "vis_m": 1900,
      "fzfg": false,
      "metar_trigger": false,
      "taf_trigger": false,
      "metar": "METAR EPPO 270500Z 22005KT 1900 -SN BR OVC003 M01/M02 Q1002",
      "taf": "TAF EPPO 262330Z 2700/2724 VRB02KT 0100 FG OVC001"
    },
    {
      "icao": "EPRA",
      "alert": "OK",
      "vis_m": 3000,
      "fzfg": false,
      "metar_trigger": false,
      "taf_trigger": false,
      "metar": "METAR EPRA 270500Z 26003KT 3000 BR SCT020 M00/M01 Q1002",
      "taf": "TAF EPRA 270230Z 2703/2712 24005KT 3000 BR SCT040"
    },
    {
      "icao": "EPRZ",
      "alert": "OK",
      "vis_m": 1800,
      "fzfg": false,
      "metar_trigger": false,
      "taf_trigger": false,
      "metar": "METAR EPRZ 270500Z 24002KT 1800 BR SCT046 01/01 Q1002",
      "taf": ""
    },
    {
      "icao": "EPSC",
      "alert": "OK",
      "vis_m": 250,
      "fzfg": true,
      "metar_trigger": false,
      "taf_trigger": false,
      "metar": "METAR EPSC 270500Z 11001KT 0250 R31/0900N FZFG OVC001 M01/M01 Q1002",
      "taf": ""
    },
    {
      "icao": "EPSY",
      "alert": "OK",
      "vis_m": 500,
      "fzfg": true,
      "metar_trigger": false,
      "taf_trigger": false,
      "metar": "METAR EPSY 270500Z 07003KT 0500 R01/0800N FZFG SCT001 OVC002 M01/M01 Q1002",
      "taf": "TAF EPSY 270230Z 2703/2712 VRB02KT 0600 FZFG OVC002"
    },
    {
      "icao": "EPWA",
      "alert": "OK",
      "vis_m": 650,
      "fzfg": true,
      "metar_trigger": false,
      "taf_trigger": false,
      "metar": "METAR EPWA 270500Z VRB02KT 0650 0400W R33/1100D FZFG BKN011 M03/M03 Q1002 TEMPO 0200 FZFG BKN002",
      "taf": "TAF EPWA 270230Z 2703/2803 VRB02KT 2000 BR NSC"
    },
    {
      "icao": "EPWR",
      "alert": "OK",
      "vis_m": 9999,
      "fzfg": false,
      "metar_trigger": false,
      "taf_trigger": false,
      "metar": "METAR EPWR 270500Z 18002KT 9999 -SN OVC028 M00/M01 Q1003",
      "taf": "TAF EPWR 270230Z 2703/2803 31006KT 8000 BKN013"
    },
    {
      "icao": "ESGG",
      "alert": "OK",
      "vis_m": 9999,
      "fzfg": false,
      "metar_trigger": false,
      "taf_trigger": false,
      "metar": "METAR ESGG 270520Z 04009KT 9999 OVC029 M05/M07 Q1009",
      "taf": "TAF ESGG 270230Z 2703/2803 05011KT 9999 BKN025"
    },
    {
      "icao": "ESKN",
      "alert": "OK",
      "vis_m": 9999,
      "fzfg": false,
      "metar_trigger": false,
      "taf_trigger": false,
      "metar": "METAR ESKN 270520Z 02007KT 340V060 9999 BKN036 M05/M07 Q1012",
      "taf": "TAF ESKN 270230Z 2703/2803 02008KT 9999 BKN030"
    },
    {
      "icao": "ESMS",
      "alert": "OK",
      "vis_m": 2500,
      "fzfg": false,
      "metar_trigger": false,
      "taf_trigger": false,
      "metar": "METAR ESMS 270520Z 06010KT 2500 -SN VV010 M01/M01 Q1005",
      "taf": "TAF ESMS 270227Z 2703/2803 06015KT 1200 SN BKN008"
    },
    {
      "icao": "ESSA",
      "alert": "OK",
      "vis_m": 9999,
      "fzfg": false,
      "metar_trigger": false,
      "taf_trigger": false,
      "metar": "METAR ESSA 270450Z 04003KT 360V060 9999 BKN020 M08/M09 Q1014 NOSIG",
      "taf": "TAF ESSA 270230Z 2703/2803 05005KT 9999 BKN025"
    },
    {
      "icao": "EYKA",
      "alert": "OK",
      "vis_m": 5000,
      "fzfg": false,
      "metar_trigger": false,
      "taf_trigger": false,
      "metar": "METAR EYKA 270520Z 06007KT 5000 -FZDZ BR OVC005 M03/M04 Q1005",
      "taf": "TAF EYKA 270519Z 2706/2806 06008KT 5000 FZDZ BR OVC005"
    },
    {
      "icao": "EYPA",
      "alert": "OK",
      "vis_m": 9000,
      "fzfg": false,
      "metar_trigger": false,
      "taf_trigger": false,
      "metar": "METAR EYPA 270520Z 07009KT 9000 -SN OVC026 M07/M10 Q1007",
      "taf": ""
    },
    {
      "icao": "EYVI",
      "alert": "OK",
      "vis_m": 3500,
      "fzfg": false,
      "metar_trigger": false,
      "taf_trigger": false,
      "metar": "METAR EYVI 270520Z 08005KT 3500 -FZRA OVC003 M03/M04 Q1004 NOSIG",
      "taf": "TAF EYVI 270503Z 2706/2806 09010KT 5000 FZDZ BR OVC005"
    },
    {
      "icao": "GCFV",
      "alert": "OK",
      "vis_m": 9999,
      "fzfg": false,
      "metar_trigger": false,
      "taf_trigger": false,
      "metar": "METAR GCFV 270500Z AUTO 23004KT 200V260 9999 SCT030 14/09 Q1022",
      "taf": "TAF GCFV 270200Z 2703/2803 28005KT 9999 SCT035 TX22/2714Z TN12/2706Z"
    },
    {
      "icao": "GCLP",
      "alert": "OK",
      "vis_m": 9999,
      "fzfg": false,
      "metar_trigger": false,
      "taf_trigger": false,
      "metar": "METAR GCLP 270500Z 33004KT 9999 BKN030 16/10 Q1022 NOSIG",
      "taf": "TAF GCLP 270200Z 2703/2803 30005KT 9999 FEW035 TX22/2714Z TN12/2706Z"
    },
    {
      "icao": "GCTS",
      "alert": "OK",
      "vis_m": 9999,
      "fzfg": false,
      "metar_trigger": false,
      "taf_trigger": false,
      "metar": "METAR GCTS 270500Z 33004KT 310V020 9999 SCT030 14/08 Q1022 NOSIG",
      "taf": "TAF GCTS 270200Z 2703/2803 35005KT 9999 FEW035 TX22/2714Z TN14/2706Z"
    },
    {
      "icao": "GMAD",
      "alert": "OK",
      "vis_m": 8000,
      "fzfg": false,
      "metar_trigger": false,
      "taf_trigger": false,
      "metar": "METAR GMAD 270500Z 06004KT 8000 BKN010 10/10 Q1021 NOSIG",
      "taf": "TAF GMAD 270500Z 2706/2812 22004KT 8000 NSC"
    },
    {
      "icao": "GMMN",
      "alert": "OK",
      "vis_m": 9999,
      "fzfg": false,
      "metar_trigger": false,
      "taf_trigger": false,
      "metar": "METAR GMMN 270500Z 20015KT 170V230 9999 FEW006 BKN026 12/10 Q1017 NOSIG",
      "taf": "TAF GMMN 262300Z 2700/2806 20006KT 9999 BKN026"
    },
    {
      "icao": "GMMX",
      "alert": "OK",
      "vis_m": 8000,
      "fzfg": false,
      "metar_trigger": false,
      "taf_trigger": false,
      "metar": "METAR GMMX 270500Z 04004KT 010V070 8000 BKN015 12/10 Q1019 TEMPO 2000 BR BKN008",
      "taf": "TAF GMMX 262300Z 2700/2806 26006KT 8000 BKN015"
    },
    {
      "icao": "HEGN",
      "alert": "OK",
      "vis_m": 9999,
      "fzfg": false,
      "metar_trigger": false,
      "taf_trigger": false,
      "metar": "METAR HEGN 270500Z 26006KT CAVOK 14/01 Q1015 NOSIG",
      "taf": "TAF HEGN 270500Z 2706/2812 34018KT 6000 NSC"
    },
    {
      "icao": "HEMA",
      "alert": "OK",
      "vis_m": 9999,
      "fzfg": false,
      "metar_trigger": false,
      "taf_trigger": false,
      "metar": "METAR HEMA 270500Z 28008KT CAVOK 18/06 Q1014 NOSIG",
      "taf": "TAF HEMA 270500Z 2706/2812 36018KT 6000 NSC"
    },
    {
      "icao": "HESH",
      "alert": "OK",
      "vis_m": 9999,
      "fzfg": false,
      "metar_trigger": false,
      "taf_trigger": false,
      "metar": "METAR HESH 270500Z 33006KT CAVOK 18/10 Q1014 NOSIG",
      "taf": "TAF HESH 270500Z 2706/2812 30008KT CAVOK"
    },
    {
      "icao": "HESX",
      "alert": "OK",
      "vis_m": 9999,
      "fzfg": false,
      "metar_trigger": false,
      "taf_trigger": false,
      "metar": "METAR HESX 270500Z 22005KT CAVOK 08/M02 Q1015 NOSIG",
      "taf": "TAF HESX 270500Z 2706/2812 23009KT 6000 NSC"
    },
    {
      "icao": "LATI",
      "alert": "OK",
      "vis_m": 4000,
      "fzfg": false,
      "metar_trigger": false,
      "taf_trigger": false,
      "metar": "METAR LATI 270520Z 13002KT 4000 1000S R17/P2000N R35/P2000N BCFG NSC 06/05 Q1003 NOSIG",
      "taf": "TAF LATI 270500Z 2706/2806 VRB04KT 6000 NSC TX14/2713Z TN04/2805Z"
    },
    {
      "icao": "LBPD",
      "alert": "OK",
      "vis_m": 6000,
      "fzfg": false,
      "metar_trigger": false,
      "taf_trigger": false,
      "metar": "METAR LBPD 270500Z AUTO 00000KT 6000 SCT002/// OVC004/// 07/07 Q0997 TEMPO 3000 BR BKN002",
      "taf": "TAF LBPD 270500Z 2706/2806 VRB03KT 5000 BR BKN003 OVC005"
    },
    {
      "icao": "LBSF",
      "alert": "OK",
      "vis_m": 8000,
      "fzfg": false,
      "metar_trigger": false,
      "taf_trigger": false,
      "metar": "METAR LBSF 270500Z 28013KT 8000 -RA FEW009 SCT016 OVC019 04/03 Q0999 NOSIG",
      "taf": "TAF LBSF 270500Z 2706/2806 28014KT 9999 -RA SCT010 BKN020 OVC030"
    },
    {
      "icao": "LBWN",
      "alert": "OK",
      "vis_m": 9999,
      "fzfg": false,
      "metar_trigger": false,
      "taf_trigger": false,
      "metar": "METAR LBWN 270500Z AUTO 06002KT 9999 SCT008/// 07/07 Q1000 TEMPO 2000 BR",
      "taf": "TAF LBWN 270500Z 2706/2806 VRB03KT 9999 SCT010 BKN030"
    },
    {
      "icao": "LCLK",
      "alert": "OK",
      "vis_m": 9999,
      "fzfg": false,
      "metar_trigger": false,
      "taf_trigger": false,
      "metar": "METAR LCLK 270500Z 30004KT 9999 SCT020 11/10 Q1013 NOSIG",
      "taf": "TAF LCLK 262330Z 2700/2800 27007KT 9999 FEW020"
    },
    {
      "icao": "LCPH",
      "alert": "OK",
      "vis_m": 9999,
      "fzfg": false,
      "metar_trigger": false,
      "taf_trigger": false,
      "metar": "METAR LCPH 270500Z 05004KT 010V080 9999 FEW030 SCT045 BKN060 12/09 Q1012 NOSIG",
      "taf": "TAF LCPH 262330Z 2700/2800 06007KT 9999 FEW025"
    },
    {
      "icao": "LEAL",
      "alert": "OK",
      "vis_m": 9999,
      "fzfg": false,
      "metar_trigger": false,
      "taf_trigger": false,
      "metar": "METAR LEAL 270500Z 27004KT CAVOK 11/09 Q1005 NOSIG",
      "taf": "TAF LEAL 262300Z 2700/2724 27007KT 9999 FEW040 TX20/2712Z TN11/2706Z"
    },
    {
      "icao": "LEBB",
      "alert": "OK",
      "vis_m": 9999,
      "fzfg": false,
      "metar_trigger": false,
      "taf_trigger": false,
      "metar": "METAR LEBB 270500Z 23007KT 160V280 9999 BKN060 17/07 Q0992 NOSIG",
      "taf": "TAF LEBB 262300Z 2700/2724 19009KT 9999 FEW040 TX16/2700Z TN08/2724Z"
    },
    {
      "icao": "LEBL",
      "alert": "OK",
      "vis_m": 9999,
      "fzfg": false,
      "metar_trigger": false,
      "taf_trigger": false,
      "metar": "METAR LEBL 270500Z 30004KT 9999 FEW055 09/07 Q1001 NOSIG",
      "taf": "TAF LEBL 262300Z 2700/2724 VRB04KT 9999 FEW055 TX16/2712Z TN09/2706Z"
    },
    {
      "icao": "LECH",
      "alert": "OK",
      "vis_m": 9999,
      "fzfg": false,
      "metar_trigger": false,
      "taf_trigger": false,
      "metar": "METAR LECH 270500Z AUTO 33003KT 240V010 CAVOK 09/07 Q1001",
      "taf": ""
    },
    {
      "icao": "LEMD",
      "alert": "OK",
      "vis_m": 9000,
      "fzfg": false,
      "metar_trigger": false,
      "taf_trigger": false,
      "metar": "METAR LEMD 270500Z 19009KT 160V220 9000 -RA SCT020 BKN040 OVC060 09/09 Q1002 TEMPO 3000 RA",
      "taf": ""
    },
    {
      "icao": "LEMG",
      "alert": "OK",
      "vis_m": 9999,
      "fzfg": false,
      "metar_trigger": false,
      "taf_trigger": false,
      "metar": "METAR LEMG 270500Z 16007G17KT 9999 -DZ FEW010 SCT045 BKN060 13/11 Q1010 NOSIG",
      "taf": "TAF LEMG 262300Z 2700/2724 30005KT 9999 FEW010 SCT030 TX19/2714Z TN10/2707Z"
    },
    {
      "icao": "LEVC",
      "alert": "OK",
      "vis_m": 9999,
      "fzfg": false,
      "metar_trigger": false,
      "taf_trigger": false,
      "metar": "METAR LEVC 270500Z 23007KT 9999 SCT045 14/09 Q1003 NOSIG",
      "taf": "TAF LEVC 262300Z 2700/2724 24012KT 9999 FEW040 TX20/2712Z TN11/2706Z"
    },
    {
      "icao": "LEXJ",
      "alert": "OK",
      "vis_m": 5000,
      "fzfg": false,
      "metar_trigger": false,
      "taf_trigger": false,
      "metar": "METAR LEXJ 270500Z 09006KT 040V150 5000 BR BKN059 12/10 Q0991",
      "taf": "TAF LEXJ 270200Z 2703/2803 23009KT 9999 FEW025 SCT035 TX16/2703Z TN07/2802Z"
    },
    {
      "icao": "LEZG",
      "alert": "OK",
      "vis_m": 9999,
      "fzfg": false,
      "metar_trigger": false,
      "taf_trigger": false,
      "metar": "METAR LEZG 270500Z 09011KT 060V120 9999 SCT006 BKN050 08/08 Q1000 NOSIG",
      "taf": "TAF LEZG 262300Z 2700/2724 11008KT 9999 FEW040 TX15/2714Z TN08/2706Z"
    },
    {
      "icao": "LEZL",
      "alert": "OK",
      "vis_m": 9000,
      "fzfg": false,
      "metar_trigger": false,
      "taf_trigger": false,
      "metar": "SPECI LEZL 270515Z 22017G27KT 170V250 9000 RA FEW025 SCT045 15/14 Q1007 NOSIG",
      "taf": "TAF LEZL 270200Z 2703/2803 24010KT 9999 FEW015 SCT030 TX17/2715Z TN11/2707Z"
    },
    {
      "icao": "LFBD",
      "alert": "OK",
      "vis_m": 9999,
      "fzfg": false,
      "metar_trigger": false,
      "taf_trigger": false,
      "metar": "METAR LFBD 270500Z AUTO 16014KT 9999 -RA NSC 10/07 Q0992 TEMPO 2000 RA BKN010 BKN025",
      "taf": ""
    },
    {
      "icao": "LFLL",
      "alert": "OK",
      "vis_m": 9999,
      "fzfg": false,
      "metar_trigger": false,
      "taf_trigger": false,
      "metar": "METAR LFLL 270500Z 15013KT CAVOK 05/M01 Q1000 NOSIG",
      "taf": "TAF LFLL 270500Z 2706/2812 15012KT CAVOK"
    },
    {
      "icao": "LFLS",
      "alert": "OK",
      "vis_m": 9999,
      "fzfg": false,
      "metar_trigger": false,
      "taf_trigger": false,
      "metar": "METAR LFLS 270500Z AUTO 06004KT CAVOK M00/M01 Q1001 NOSIG",
      "taf": "TAF LFLS 270200Z 2703/2803 09005KT CAVOK"
    },
    {
      "icao": "LFMN",
      "alert": "OK",
      "vis_m": 9999,
      "fzfg": false,
      "metar_trigger": false,
      "taf_trigger": false,
      "metar": "METAR LFMN 270500Z 32013KT CAVOK 06/M01 Q1006 NOSIG",
      "taf": "TAF LFMN 270200Z 2703/2809 34010KT CAVOK"
    },
    {
      "icao": "LFOB",
      "alert": "OK",
      "vis_m": 9999,
      "fzfg": false,
      "metar_trigger": false,
      "taf_trigger": false,
      "metar": "METAR LFOB 270500Z AUTO 12013KT CAVOK 05/04 Q0992 TEMPO 4500 -RA BKN011 OVC030",
      "taf": "TAF LFOB 270500Z 2706/2806 14010G20KT 7000 -RA SCT045 OVC080"
    },
    {
      "icao": "LFPO",
      "alert": "OK",
      "vis_m": 9999,
      "fzfg": false,
      "metar_trigger": false,
      "taf_trigger": false,
      "metar": "METAR LFPO 270500Z 14009KT 9999 -RA BKN030 OVC093 05/03 Q0993 NOSIG",
      "taf": "TAF LFPO 270500Z 2706/2812 16009KT 9999 BKN030"
    },
    {
      "icao": "LFSB",
      "alert": "OK",
      "vis_m": 9999,
      "fzfg": false,
      "metar_trigger": false,
      "taf_trigger": false,
      "metar": "METAR LFSB 270500Z AUTO 18006KT CAVOK M01/M02 Q1000 NOSIG",
      "taf": "TAF LFSB 270500Z 2706/2806 VRB03KT CAVOK"
    },
    {
      "icao": "LGAV",
      "alert": "OK",
      "vis_m": 9999,
      "fzfg": false,
      "metar_trigger": false,
      "taf_trigger": false,
      "metar": "METAR LGAV 270520Z 36002KT 9999 FEW025 08/04 Q1001 NOSIG",
      "taf": "TAF LGAV 270500Z 2706/2806 VRB05KT 9999 FEW020 SCT070"
    },
    {
      "icao": "LGTS",
      "alert": "OK",
      "vis_m": 9999,
      "fzfg": false,
      "metar_trigger": false,
      "taf_trigger": false,
      "metar": "METAR LGTS 270450Z 34010KT 9999 DZ SCT010 BKN025 09/08 Q0999 NOSIG",
      "taf": "TAF LGTS 270500Z 2706/2806 34010KT 9999 SCT010 BKN025"
    },
    {
      "icao": "LHBP",
      "alert": "OK",
      "vis_m": 500,
      "fzfg": true,
      "metar_trigger": false,
      "taf_trigger": false,
      "metar": "METAR LHBP 270500Z VRB01KT 0500 R31L/0800U R31R/1100D PRFG BR NSC M04/M05 Q1004 TEMPO 0300 FZFG VV001",
      "taf": "TAF LHBP 262315Z 2700/2724 31005KT 5000 BCFG BR NSC"
    },
    {
      "icao": "LHDC",
      "alert": "OK",
      "vis_m": 3000,
      "fzfg": false,
      "metar_trigger": false,
      "taf_trigger": false,
      "metar": "METAR LHDC 270445Z AUTO 30004KT 3000 BR BKN005 03/03 Q1002 TEMPO 1200 BCFG BKN002",
      "taf": "TAF LHDC 270515Z 2706/2715 25005KT 3000 BR SCT005 BKN025"
    },
    {
      "icao": "LIBD",
      "alert": "OK",
      "vis_m": 9999,
      "fzfg": false,
      "metar_trigger": false,
      "taf_trigger": false,
      "metar": "METAR LIBD 270450Z 26010KT CAVOK 07/05 Q1005",
      "taf": "TAF LIBD 270500Z 2706/2806 28013KT 9999 SCT025"
    },
    {
      "icao": "LIBG",
      "alert": "OK",
      "vis_m": null,
      "fzfg": false,
      "metar_trigger": false,
      "taf_trigger": false,
      "metar": "",
      "taf": ""
    },
    {
      "icao": "LIBP",
      "alert": "OK",
      "vis_m": 9000,
      "fzfg": false,
      "metar_trigger": false,
      "taf_trigger": false,
      "metar": "METAR LIBP 270450Z AUTO 24005KT 9000 NCD 01/01 Q1007",
      "taf": "TAF LIBP 270500Z 2706/2806 VRB05KT CAVOK"
    },
    {
      "icao": "LIBR",
      "alert": "OK",
      "vis_m": 9999,
      "fzfg": false,
      "metar_trigger": false,
      "taf_trigger": false,
      "metar": "METAR LIBR 270450Z 32018KT 9999 BKN020 11/08 Q1004",
      "taf": "TAF LIBR 270500Z 2706/2806 31016KT 9999 FEW020"
    },
    {
      "icao": "LICA",
      "alert": "OK",
      "vis_m": 9999,
      "fzfg": false,
      "metar_trigger": false,
      "taf_trigger": false,
      "metar": "METAR LICA 270450Z AUTO 07005KT 9999 SCT066/// 06/05 Q1006",
      "taf": "TAF LICA 270500Z 2706/2806 VRB05KT 9999 SCT040"
    },
    {
      "icao": "LICC",
      "alert": "OK",
      "vis_m": 9999,
      "fzfg": false,
      "metar_trigger": false,
      "taf_trigger": false,
      "metar": "METAR LICC 270450Z 24004KT CAVOK 06/04 Q1006",
      "taf": "TAF LICC 270500Z 2706/2806 26010KT 9999 FEW050"
    },
    {
      "icao": "LICJ",
      "alert": "OK",
      "vis_m": 9999,
      "fzfg": false,
      "metar_trigger": false,
      "taf_trigger": false,
      "metar": "METAR LICJ 270450Z 33012KT 9999 -RA SCT040 14/09 Q1008",
      "taf": "TAF LICJ 270500Z 2706/2806 34012KT 9999 SCT030"
    },
    {
      "icao": "LIMC",
      "alert": "OK",
      "vis_m": 9999,
      "fzfg": false,
      "metar_trigger": false,
      "taf_trigger": false,
      "metar": "METAR LIMC 270450Z 01004KT CAVOK M01/M01 Q1006 NOSIG",
      "taf": "TAF LIMC 270500Z 2706/2812 VRB04KT 6000 SCT025"
    },
    {
      "icao": "LIME",
      "alert": "OK",
      "vis_m": 9999,
      "fzfg": false,
      "metar_trigger": false,
      "taf_trigger": false,
      "metar": "METAR LIME 270450Z VRB02KT CAVOK 00/M02 Q1006 NOSIG",
      "taf": "TAF LIME 270500Z 2706/2806 VRB05KT 7000 FEW020"
    },
    {
      "icao": "LIMF",
      "alert": "OK",
      "vis_m": 9999,
      "fzfg": false,
      "metar_trigger": false,
      "taf_trigger": false,
      "metar": "METAR LIMF 270450Z 26003KT CAVOK 01/M03 Q1006",
      "taf": "TAF LIMF 270500Z 2706/2806 VRB04KT 6000 SCT020"
    },
    {
      "icao": "LIMJ",
      "alert": "OK",
      "vis_m": 9999,
      "fzfg": false,
      "metar_trigger": false,
      "taf_trigger": false,
      "metar": "METAR LIMJ 270450Z VRB03KT 9999 SCT030 08/06 Q1006",
      "taf": "TAF LIMJ 270500Z 2706/2806 17010KT 9999 SCT040"
    },
    {
      "icao": "LIPE",
      "alert": "OK",
      "vis_m": 9999,
      "fzfg": false,
      "metar_trigger": false,
      "taf_trigger": false,
      "metar": "METAR LIPE 270450Z 20008KT CAVOK 02/00 Q1006",
      "taf": "TAF LIPE 270500Z 2706/2806 VRB05KT 8000 SCT020"
    },
    {
      "icao": "LIPH",
      "alert": "OK",
      "vis_m": 4800,
      "fzfg": false,
      "metar_trigger": false,
      "taf_trigger": false,
      "metar": "METAR LIPH 270450Z AUTO VRB01KT 4800 BR FEW002/// M00/M00 Q1006",
      "taf": "TAF LIPH 270500Z 2706/2806 VRB05KT 1200 BCFG BKN004"
    },
    {
      "icao": "LIPQ",
      "alert": "OK",
      "vis_m": 9999,
      "fzfg": false,
      "metar_trigger": false,
      "taf_trigger": false,
      "metar": "METAR LIPQ 270450Z AUTO 04004KT 9999 FEW002/// 01/01 Q1006",
      "taf": "TAF LIPQ 270500Z 2706/2806 VRB04KT 9999 SCT020"
    },
    {
      "icao": "LIPR",
      "alert": "OK",
      "vis_m": 9999,
      "fzfg": false,
      "metar_trigger": false,
      "taf_trigger": false,
      "metar": "METAR LIPR 270450Z AUTO 21002KT 9999 NCD M00/M01 Q1006",
      "taf": "TAF LIPR 270500Z 2706/2806 23005KT 9999 SCT015"
    },
    {
      "icao": "LIPX",
      "alert": "OK",
      "vis_m": 6000,
      "fzfg": false,
      "metar_trigger": false,
      "taf_trigger": false,
      "metar": "METAR LIPX 270450Z 01004KT 6000 NSC M01/M02 Q1005",
      "taf": "TAF LIPX 270500Z 2706/2806 VRB04KT 4000 BR SCT020"
    },
    {
      "icao": "LIPY",
      "alert": "OK",
      "vis_m": 9999,
      "fzfg": false,
      "metar_trigger": false,
      "taf_trigger": false,
      "metar": "METAR LIPY 270450Z AUTO 19004KT 9999 FEW230/// 02/01 Q1006",
      "taf": "TAF LIPY 270500Z 2706/2806 VRB05KT 9999 SCT015"
    },
    {
      "icao": "LIPZ",
      "alert": "OK",
      "vis_m": 7000,
      "fzfg": false,
      "metar_trigger": false,
      "taf_trigger": false,
      "metar": "METAR LIPZ 270450Z 01002KT 7000 PRFG NSC 01/01 Q1006 NOSIG",
      "taf": "TAF LIPZ 270500Z 2706/2812 VRB04KT 1200 BCFG BKN002"
    },
    {
      "icao": "LIRF",
      "alert": "OK",
      "vis_m": 9999,
      "fzfg": false,
      "metar_trigger": false,
      "taf_trigger": false,
      "metar": "METAR LIRF 270450Z 07005KT CAVOK 01/01 Q1008 NOSIG",
      "taf": "TAF LIRF 270500Z 2706/2812 05005KT 9999 FEW030"
    },
    {
      "icao": "LIRN",
      "alert": "OK",
      "vis_m": 9999,
      "fzfg": false,
      "metar_trigger": false,
      "taf_trigger": false,
      "metar": "METAR LIRN 270450Z 32003KT CAVOK 04/02 Q1006 NOSIG",
      "taf": "TAF LIRN 270500Z 2706/2806 VRB05KT 9999 FEW040"
    },
    {
      "icao": "LIRP",
      "alert": "OK",
      "vis_m": 6000,
      "fzfg": false,
      "metar_trigger": false,
      "taf_trigger": false,
      "metar": "METAR LIRP 270445Z 11004KT 6000 FEW035 02/02 Q1008 NOSIG",
      "taf": "TAF LIRP 270500Z 2706/2806 09003KT 7000 FEW020"
    },
    {
      "icao": "LIRZ",
      "alert": "OK",
      "vis_m": 9999,
      "fzfg": false,
      "metar_trigger": false,
      "taf_trigger": false,
      "metar": "METAR LIRZ 270450Z AUTO VRB01KT 9999 NCD M01/M01 Q1008",
      "taf": "TAF LIRZ 270500Z 2706/2806 VRB04KT 9999 SCT020"
    },
    {
      "icao": "LJLJ",
      "alert": "OK",
      "vis_m": 5000,
      "fzfg": false,
      "metar_trigger": false,
      "taf_trigger": false,
      "metar": "METAR LJLJ 270500Z VRB02KT 5000 BR OVC003 M00/M01 Q1006 NOSIG",
      "taf": "TAF LJLJ 270500Z 2706/2806 30003KT 5000 BR OVC003"
    },
    {
      "icao": "LKMT",
      "alert": "OK",
      "vis_m": 9999,
      "fzfg": false,
      "metar_trigger": false,
      "taf_trigger": false,
      "metar": "METAR LKMT 270500Z 22009KT 9999 OVC026 01/M00 Q1002 NOSIG",
      "taf": "TAF LKMT 270500Z 2706/2806 23008KT CAVOK"
    },
    {
      "icao": "LKPR",
      "alert": "OK",
      "vis_m": 9999,
      "fzfg": false,
      "metar_trigger": false,
      "taf_trigger": false,
      "metar": "METAR LKPR 270500Z 20008KT 9999 FEW030 M01/M02 Q1001 NOSIG",
      "taf": "TAF LKPR 270500Z 2706/2812 20006KT 9999 SCT030"
    },
    {
      "icao": "LLBG",
      "alert": "OK",
      "vis_m": 7000,
      "fzfg": false,
      "metar_trigger": false,
      "taf_trigger": false,
      "metar": "METAR LLBG 270520Z 18009KT 7000 FEW024 14/10 Q1015 TEMPO 5000 DU",
      "taf": "TAF LLBG 270501Z 2706/2806 18006KT 9999 SCT025"
    },
    {
      "icao": "LMML",
      "alert": "OK",
      "vis_m": 9999,
      "fzfg": false,
      "metar_trigger": false,
      "taf_trigger": false,
      "metar": "METAR LMML 270515Z 30013KT 9999 FEW028 11/08 Q1008 NOSIG",
      "taf": "TAF LMML 270500Z 2706/2806 30018G28KT 9999 FEW020"
    },
    {
      "icao": "LOWW",
      "alert": "OK",
      "vis_m": 9999,
      "fzfg": false,
      "metar_trigger": false,
      "taf_trigger": false,
      "metar": "METAR LOWW 270520Z VRB02KT CAVOK 02/M02 Q1004 NOSIG",
      "taf": "TAF LOWW 270515Z 2706/2812 20004KT CAVOK TX02/2710Z TNM01/2801Z"
    },
    {
      "icao": "LPFR",
      "alert": "OK",
      "vis_m": 5000,
      "fzfg": false,
      "metar_trigger": false,
      "taf_trigger": false,
      "metar": "METAR LPFR 270500Z 21026G37KT 5000 -RA BR SCT006 SCT015 15/14 Q1005",
      "taf": "TAF LPFR 270500Z 2706/2806 21020G30KT 5000 RA SCT006 BKN012"
    },
    {
      "icao": "LPMA",
      "alert": "OK",
      "vis_m": 9999,
      "fzfg": false,
      "metar_trigger": false,
      "taf_trigger": false,
      "metar": "METAR LPMA 270500Z 03013G23KT 360V070 9999 SCT015 18/15 Q1013",
      "taf": "TAF LPMA 270500Z 2706/2806 VRB05KT 9999 SCT015"
    },
    {
      "icao": "LPPR",
      "alert": "OK",
      "vis_m": 9999,
      "fzfg": false,
      "metar_trigger": false,
      "taf_trigger": false,
      "metar": "METAR LPPR 270500Z 26006KT 220V330 9999 FEW012 SCT036 12/06 Q0996",
      "taf": "TAF LPPR 270500Z 2706/2806 24010KT 9999 SCT020"
    },
    {
      "icao": "LPPS",
      "alert": "OK",
      "vis_m": 9000,
      "fzfg": false,
      "metar_trigger": false,
      "taf_trigger": false,
      "metar": "METAR LPPS 270500Z 28017KT 9000 -RADZ SCT010 SCT030 17/15 Q1014 RERA",
      "taf": "TAF LPPS 270500Z 2706/2812 27018KT 9999 SCT015 SCT030"
    },
    {
      "icao": "LPPT",
      "alert": "OK",
      "vis_m": 9999,
      "fzfg": false,
      "metar_trigger": false,
      "taf_trigger": false,
      "metar": "METAR LPPT 270500Z 24011KT 9999 FEW015 SCT022 13/12 Q1000",
      "taf": "TAF LPPT 270500Z 2706/2812 26012KT 9999 SCT020"
    },
    {
      "icao": "LQBK",
      "alert": "OK",
      "vis_m": 3000,
      "fzfg": false,
      "metar_trigger": false,
      "taf_trigger": false,
      "metar": "METAR LQBK 270500Z VRB02KT 3000 BR SCT004 BKN033 03/03 Q1006 BECMG 0500 FG BKN002",
      "taf": "TAF LQBK 270500Z 2706/2806 16005KT 8000 SCT040 TX08/2714Z TN01/2801Z"
    },
    {
      "icao": "LQSA",
      "alert": "OK",
      "vis_m": 9999,
      "fzfg": false,
      "metar_trigger": false,
      "taf_trigger": false,
      "metar": "METAR LQSA 270500Z VRB03KT 9999 BKN055 02/02 Q1005 NOSIG",
      "taf": "TAF LQSA 270500Z 2706/2806 VRB02KT CAVOK TX10/2714Z TNM02/2801Z"
    },
    {
      "icao": "LQTZ",
      "alert": "OK",
      "vis_m": 1800,
      "fzfg": false,
      "metar_trigger": false,
      "taf_trigger": false,
      "metar": "METAR LQTZ 270500Z 00000KT 1800 BR FEW009 BKN071 02/02 Q1006",
      "taf": "TAF LQTZ 270500Z 2706/2806 12005KT 9999 SCT050 TX10/2713Z TN01/2800Z"
    },
    {
      "icao": "LRBC",
      "alert": "OK",
      "vis_m": 3000,
      "fzfg": false,
      "metar_trigger": false,
      "taf_trigger": false,
      "metar": "METAR LRBC 270500Z 16006KT 3000 -RA BR VV004 03/02 Q1004",
      "taf": "TAF LRBC 270200Z 2703/2712 VRB04KT 0600 FG OVC002"
    },
    {
      "icao": "LRBS",
      "alert": "OK",
      "vis_m": 2000,
      "fzfg": false,
      "metar_trigger": false,
      "taf_trigger": false,
      "metar": "METAR LRBS 270500Z 04012KT 010V070 2000 -DZ BR OVC003 04/04 Q1001 TEMPO 0800 -DZ FG",
      "taf": "TAF LRBS 262300Z 2700/2724 07014KT 1500 BR OVC001"
    },
    {
      "icao": "LRBV",
      "alert": "OK",
      "vis_m": 9999,
      "fzfg": false,
      "metar_trigger": false,
      "taf_trigger": false,
      "metar": "METAR LRBV 270500Z 18005KT 140V200 9999 BKN081 04/03 Q1000",
      "taf": "TAF LRBV 270200Z 2703/2712 VRB04KT 8000 BKN045"
    },
    {
      "icao": "LRCL",
      "alert": "OK",
      "vis_m": 3000,
      "fzfg": false,
      "metar_trigger": false,
      "taf_trigger": false,
      "metar": "METAR LRCL 270500Z 00000KT 3000 -RA BR OVC010 03/02 Q1001",
      "taf": "TAF LRCL 270200Z 2703/2712 VRB04KT 1500 -RA BR SCT010 OVC035"
    },
    {
      "icao": "LRCV",
      "alert": "OK",
      "vis_m": 7000,
      "fzfg": false,
      "metar_trigger": false,
      "taf_trigger": false,
      "metar": "METAR LRCV 270500Z 08008KT 7000 -RA BKN004 OVC007 05/05 Q1000",
      "taf": ""
    },
    {
      "icao": "LRIA",
      "alert": "OK",
      "vis_m": 9999,
      "fzfg": false,
      "metar_trigger": false,
      "taf_trigger": false,
      "metar": "METAR LRIA 270500Z 10008KT 9999 -RA BKN014 OVC017 01/01 Q1004",
      "taf": "TAF LRIA 270200Z 2703/2712 11008KT 5000 -RADZ BR BKN010 OVC020"
    },
    {
      "icao": "LROP",
      "alert": "OK",
      "vis_m": 2500,
      "fzfg": false,
      "metar_trigger": false,
      "taf_trigger": false,
      "metar": "METAR LROP 270500Z 05018KT 2500 -DZ BR OVC003 04/04 Q1001 TEMPO 1500 -DZ BR OVC001",
      "taf": "TAF LROP 262300Z 2700/2724 07014KT 1500 BR OVC001"
    },
    {
      "icao": "LRSB",
      "alert": "OK",
      "vis_m": 1500,
      "fzfg": false,
      "metar_trigger": false,
      "taf_trigger": false,
      "metar": "METAR LRSB 270500Z 35003KT 300V040 1500 -DZRA BR FEW001 SCT007 BKN009 04/04 Q1000",
      "taf": "TAF LRSB 262300Z 2700/2724 VRB04KT 9999 SCT035 BKN050"
    },
    {
      "icao": "LRSM",
      "alert": "OK",
      "vis_m": 300,
      "fzfg": false,
      "metar_trigger": false,
      "taf_trigger": false,
      "metar": "METAR LRSM 270500Z 25005KT 0300 R19/0600N -DZ FG VV002 02/02 Q1002",
      "taf": "TAF LRSM 270200Z 2703/2712 VRB04KT 0800 -RA FG OVC001"
    },
    {
      "icao": "LRSV",
      "alert": "OK",
      "vis_m": 250,
      "fzfg": false,
      "metar_trigger": false,
      "taf_trigger": false,
      "metar": "METAR LRSV 270500Z 13011KT 0250 R34/0600N DZ FG VV002 01/01 Q1002",
      "taf": "TAF LRSV 270200Z 2703/2712 14012KT 0300 -RA FG VV001"
    },
    {
      "icao": "LRTM",
      "alert": "OK",
      "vis_m": 2600,
      "fzfg": false,
      "metar_trigger": false,
      "taf_trigger": false,
      "metar": "METAR LRTM 270500Z 28003KT 2600 BR FEW010 01/01 Q1001",
      "taf": "TAF LRTM 270200Z 2703/2712 25005KT 3000 BR SCT015 BKN040"
    },
    {
      "icao": "LRTR",
      "alert": "OK",
      "vis_m": 4000,
      "fzfg": false,
      "metar_trigger": false,
      "taf_trigger": false,
      "metar": "METAR LRTR 270500Z 31007KT 4000 BR BKN004 OVC015 04/04 Q1003",
      "taf": "TAF LRTR 262300Z 2700/2724 31006KT 3000 -RA BR BKN005 OVC030"
    },
    {
      "icao": "LTAC",
      "alert": "OK",
      "vis_m": 9999,
      "fzfg": false,
      "metar_trigger": false,
      "taf_trigger": false,
      "metar": "METAR LTAC 270520Z 08003KT 360V140 9999 SCT040 BKN100 04/01 Q1009 NOSIG",
      "taf": "TAF LTAC 270440Z 2706/2806 19009KT 9999 SCT040 BKN100"
    },
    {
      "icao": "LTFM",
      "alert": "OK",
      "vis_m": 9999,
      "fzfg": false,
      "metar_trigger": false,
      "taf_trigger": false,
      "metar": "METAR LTFM 270520Z 19015KT 9999 SCT040 BKN100 11/06 Q1001 NOSIG",
      "taf": "TAF LTFM 270440Z 2706/2812 19014KT 9999 SCT040 BKN100"
    },
    {
      "icao": "LUKK",
      "alert": "OK",
      "vis_m": 9000,
      "fzfg": false,
      "metar_trigger": false,
      "taf_trigger": false,
      "metar": "METAR LUKK 270500Z 09010KT 9000 -FZRA OVC005 M02/M02 Q1006 NOSIG",
      "taf": "TAF LUKK 270519Z 2706/2806 08010KT 5000 -FZRA BR OVC004"
    },
    {
      "icao": "LWOH",
      "alert": "OK",
      "vis_m": 9999,
      "fzfg": false,
      "metar_trigger": false,
      "taf_trigger": false,
      "metar": "METAR LWOH 270520Z VRB01KT 9999 SCT015 OVC040 04/04 Q1001",
      "taf": "TAF LWOH 262330Z 2700/2724 35006KT 9999 FEW020 BKN040"
    },
    {
      "icao": "LWSK",
      "alert": "OK",
      "vis_m": 9999,
      "fzfg": false,
      "metar_trigger": false,
      "taf_trigger": false,
      "metar": "METAR LWSK 270520Z VRB01KT 9999 -DZ FEW023 OVC040 06/04 Q1002 NOSIG",
      "taf": "TAF LWSK 262330Z 2700/2724 33008KT 9999 -RA FEW010 OVC035"
    },
    {
      "icao": "LYBE",
      "alert": "OK",
      "vis_m": 8000,
      "fzfg": false,
      "metar_trigger": false,
      "taf_trigger": false,
      "metar": "METAR LYBE 270500Z 28011KT 8000 OVC004 02/01 Q1006 NOSIG",
      "taf": "TAF LYBE 270500Z 2706/2806 27010KT 8000 OVC004 TX10/2712Z TN03/2706Z"
    },
    {
      "icao": "LYNI",
      "alert": "OK",
      "vis_m": 9999,
      "fzfg": false,
      "metar_trigger": false,
      "taf_trigger": false,
      "metar": "METAR LYNI 270500Z 31011KT 9999 RA BKN008 OVC027 04/04 Q1003 NOSIG",
      "taf": "TAF LYNI 270500Z 2706/2806 35013KT 9999 RA BKN008 OVC027 TX07/2713Z TNM01/2806Z"
    },
    {
      "icao": "LYPG",
      "alert": "OK",
      "vis_m": 9999,
      "fzfg": false,
      "metar_trigger": false,
      "taf_trigger": false,
      "metar": "METAR LYPG 270500Z 31009KT 280V350 9999 FEW016 07/03 Q1003 NOSIG",
      "taf": "TAF LYPG 270500Z 2706/2806 34006KT 9999 FEW030 TX14/2713Z TN04/2723Z"
    },
    {
      "icao": "LZIB",
      "alert": "OK",
      "vis_m": 300,
      "fzfg": true,
      "metar_trigger": false,
      "taf_trigger": false,
      "metar": "METAR LZIB 270500Z VRB01KT 0300 R31/0600N R22/0550N FZFG VV001 M03/M04 Q1005 NOSIG",
      "taf": "TAF LZIB 270515Z 2706/2806 26004KT 9999 FEW012"
    },
    {
      "icao": "LZKZ",
      "alert": "OK",
      "vis_m": 8000,
      "fzfg": false,
      "metar_trigger": false,
      "taf_trigger": false,
      "metar": "METAR LZKZ 270500Z 32005KT 8000 BCFG FEW001 BKN023 03/03 Q1002 TEMPO 1200 BCFG",
      "taf": "TAF LZKZ 270515Z 2706/2806 VRB02KT 9999 FEW007 BKN027"
    },
    {
      "icao": "LZTT",
      "alert": "OK",
      "vis_m": 9999,
      "fzfg": false,
      "metar_trigger": false,
      "taf_trigger": false,
      "metar": "METAR LZTT 270500Z 28009KT 9999 FEW002 SCT008 M00/M01 Q1001",
      "taf": "TAF LZTT 270515Z 2706/2806 28008KT 9999 FEW010 BKN025"
    },
    {
      "icao": "OEJN",
      "alert": "OK",
      "vis_m": 8000,
      "fzfg": false,
      "metar_trigger": false,
      "taf_trigger": false,
      "metar": "METAR OEJN 270500Z 11003KT 8000 NSC 24/13 Q1014 NOSIG",
      "taf": "TAF OEJN 270500Z 2706/2812 22010KT 7000 NSC"
    },
    {
      "icao": "OEMA",
      "alert": "OK",
      "vis_m": 8000,
      "fzfg": false,
      "metar_trigger": false,
      "taf_trigger": false,
      "metar": "METAR OEMA 270500Z 02004KT 8000 NSC 14/M02 Q1019 NOSIG",
      "taf": "TAF OEMA 270500Z 2706/2812 07006KT CAVOK"
    },
    {
      "icao": "OJAI",
      "alert": "OK",
      "vis_m": 5000,
      "fzfg": false,
      "metar_trigger": false,
      "taf_trigger": false,
      "metar": "METAR OJAI 270400Z 04004KT 5000 HZ NSC 03/M00 Q1017 NOSIG",
      "taf": "TAF OJAI 270500Z 2706/2812 24012KT 5000 HZ NSC"
    },
    {
      "icao": "OMAA",
      "alert": "OK",
      "vis_m": 9999,
      "fzfg": false,
      "metar_trigger": false,
      "taf_trigger": false,
      "metar": "METAR OMAA 270500Z 10006KT CAVOK 17/12 Q1022 NOSIG",
      "taf": "TAF OMAA 270500Z 2706/2812 06006KT 8000 NSC"
    },
    {
      "icao": "OMDB",
      "alert": "OK",
      "vis_m": 9999,
      "fzfg": false,
      "metar_trigger": false,
      "taf_trigger": false,
      "metar": "METAR OMDB 270500Z 10004KT 070V130 CAVOK 19/12 Q1022 NOSIG",
      "taf": "TAF OMDB 270500Z 2706/2812 08005KT 8000 NSC"
    },
    {
      "icao": "UAAA",
      "alert": "OK",
      "vis_m": 5000,
      "fzfg": false,
      "metar_trigger": false,
      "taf_trigger": false,
      "metar": "METAR UAAA 270500Z VRB01MPS 5000 FU SCT100 BKN200 M02/M07 Q1021 NOSIG",
      "taf": "TAF UAAA 270507Z 2706/2806 34003MPS 6000 SCT050 BKN100 TX03/2708Z TNM06/2802Z"
    },
    {
      "icao": "UBBB",
      "alert": "OK",
      "vis_m": 9999,
      "fzfg": false,
      "metar_trigger": false,
      "taf_trigger": false,
      "metar": "METAR UBBB 270500Z 03014KT 9999 OVC017 03/M01 Q1027 NOSIG",
      "taf": "TAF UBBB 270459Z 2706/2806 04012KT 9999 BKN012 BKN020 TX05/2710Z TN01/2800Z"
    },
    {
      "icao": "UDSG",
      "alert": "CRITICAL",
      "vis_m": 50,
      "fzfg": true,
      "metar_trigger": true,
      "taf_trigger": false,
      "metar": "METAR UDSG 270500Z 22001KT 0050 R02/0200N FZFG VV001 M14/M15 Q1021 NOSIG",
      "taf": "TAF UDSG 270458Z 2706/2806 VRB06KT 1500 BR BKN020"
    },
    {
      "icao": "UDYZ",
      "alert": "OK",
      "vis_m": 2400,
      "fzfg": false,
      "metar_trigger": false,
      "taf_trigger": false,
      "metar": "METAR UDYZ 270500Z 26004KT 2400 BR BKN005 M05/M06 Q1024 NOSIG",
      "taf": "TAF UDYZ 270500Z 2706/2806 VRB04KT 2300 BR BKN010"
    },
    {
      "icao": "UGKO",
      "alert": "OK",
      "vis_m": 9999,
      "fzfg": false,
      "metar_trigger": false,
      "taf_trigger": false,
      "metar": "METAR UGKO 270500Z 08032G46KT CAVOK 10/01 Q1012 NOSIG",
      "taf": "TAF UGKO 270500Z 2706/2806 08027G41KT CAVOK TX13/2711Z TN06/2802Z"
    }
  ]
}