{
  "ts_utc": "2026-04-05T22:38:16Z",
  "threshold_m": 150,
  "source": "stations_override.txt (ICAO list) + aviationweather.gov (METAR/TAF raw)",
  "station_count": 159,
  "stations": [
    {
      "icao": "BIKF",
      "alert": "OK",
      "vis_m": 5000,
      "fzfg": false,
      "metar_trigger": false,
      "taf_trigger": false,
      "metar": "METAR BIKF 052230Z 15007KT 5000 -RASN SCT004 BKN011 BKN028 00/00 Q1008",
      "taf": "TAF BIKF 052217Z 0600/0700 07006KT 9999 FEW030 TX06/0624Z TNM01/0600Z"
    },
    {
      "icao": "BKPR",
      "alert": "OK",
      "vis_m": 9999,
      "fzfg": false,
      "metar_trigger": false,
      "taf_trigger": false,
      "metar": "METAR BKPR 052230Z VRB02KT CAVOK 07/05 Q1024 NOSIG",
      "taf": "TAF BKPR 051730Z 0518/0618 34006KT 9999 FEW080"
    },
    {
      "icao": "EBCI",
      "alert": "OK",
      "vis_m": 9999,
      "fzfg": false,
      "metar_trigger": false,
      "taf_trigger": false,
      "metar": "METAR EBCI 052220Z 25006KT CAVOK 05/02 Q1025 NOSIG",
      "taf": "TAF EBCI 051702Z 0518/0624 25010KT 9999 FEW045"
    },
    {
      "icao": "EDDB",
      "alert": "OK",
      "vis_m": 9999,
      "fzfg": false,
      "metar_trigger": false,
      "taf_trigger": false,
      "metar": "METAR EDDB 052220Z AUTO 31015G26KT 9999 -SHRA FEW020 BKN027 BKN035 FEW///TCU 08/05 Q1017 RESHRA TEMPO 28015KT RA",
      "taf": "TAF EDDB 051700Z 0518/0618 28015G25KT 9999 SCT045"
    },
    {
      "icao": "EDDH",
      "alert": "OK",
      "vis_m": 9999,
      "fzfg": false,
      "metar_trigger": false,
      "taf_trigger": false,
      "metar": "METAR EDDH 052220Z AUTO 26010KT 220V290 9999 FEW020 07/04 Q1017 NOSIG",
      "taf": "TAF EDDH 051700Z 0518/0624 27011KT 9999 SCT035"
    },
    {
      "icao": "EDDK",
      "alert": "OK",
      "vis_m": 9999,
      "fzfg": false,
      "metar_trigger": false,
      "taf_trigger": false,
      "metar": "METAR EDDK 052220Z AUTO 26007KT 9999 FEW039 09/04 Q1024 NOSIG",
      "taf": "TAF EDDK 051700Z 0518/0624 28012KT 9999 SCT040"
    },
    {
      "icao": "EDDN",
      "alert": "OK",
      "vis_m": 9999,
      "fzfg": false,
      "metar_trigger": false,
      "taf_trigger": false,
      "metar": "METAR EDDN 052220Z AUTO 28011KT CAVOK 13/05 Q1022",
      "taf": "TAF EDDN 051700Z 0518/0618 27013KT 9999 FEW040"
    },
    {
      "icao": "EDDS",
      "alert": "OK",
      "vis_m": 9999,
      "fzfg": false,
      "metar_trigger": false,
      "taf_trigger": false,
      "metar": "METAR EDDS 052220Z AUTO 26008KT 9999 BKN033 11/06 Q1023",
      "taf": "TAF EDDS 051700Z 0518/0618 27008KT CAVOK"
    },
    {
      "icao": "EDFH",
      "alert": "OK",
      "vis_m": 9999,
      "fzfg": false,
      "metar_trigger": false,
      "taf_trigger": false,
      "metar": "METAR EDFH 052220Z 28008KT CAVOK 07/M00 Q1024",
      "taf": "TAF EDFH 051700Z 0518/0618 27012KT 9999 SCT030"
    },
    {
      "icao": "EDJA",
      "alert": "OK",
      "vis_m": 9999,
      "fzfg": false,
      "metar_trigger": false,
      "taf_trigger": false,
      "metar": "METAR EDJA 052220Z AUTO 35004KT 9999 // BKN064/// OVC075/// 10/07 Q1025",
      "taf": "TAF EDJA 051700Z 0518/0603 25010KT CAVOK"
    },
    {
      "icao": "EDLW",
      "alert": "OK",
      "vis_m": 9999,
      "fzfg": false,
      "metar_trigger": false,
      "taf_trigger": false,
      "metar": "METAR EDLW 052220Z AUTO 27005KT 230V300 9999 // FEW037/// BKN045/// 08/03 Q1023",
      "taf": "TAF EDLW 051700Z 0518/0618 24008KT 9999 SCT035"
    },
    {
      "icao": "EDNY",
      "alert": "OK",
      "vis_m": 9999,
      "fzfg": false,
      "metar_trigger": false,
      "taf_trigger": false,
      "metar": "METAR EDNY 052220Z AUTO 06003KT 020V080 9999 // FEW049/// BKN084/// OVC100/// 12/10 Q1024",
      "taf": "TAF EDNY 051700Z 0518/0603 25008KT CAVOK"
    },
    {
      "icao": "EDSB",
      "alert": "OK",
      "vis_m": 9999,
      "fzfg": false,
      "metar_trigger": false,
      "taf_trigger": false,
      "metar": "METAR EDSB 052220Z AUTO VRB02KT 9999 // FEW046/// OVC140/// 12/07 Q1025",
      "taf": "TAF EDSB 051700Z 0518/0618 28006KT CAVOK"
    },
    {
      "icao": "EETN",
      "alert": "OK",
      "vis_m": 9999,
      "fzfg": false,
      "metar_trigger": false,
      "taf_trigger": false,
      "metar": "METAR EETN 052220Z 19008KT CAVOK 05/02 Q0995",
      "taf": "TAF EETN 051730Z 0518/0618 19012KT 9999 SCT015 OVC035"
    },
    {
      "icao": "EFTU",
      "alert": "OK",
      "vis_m": 9999,
      "fzfg": false,
      "metar_trigger": false,
      "taf_trigger": false,
      "metar": "METAR EFTU 052220Z AUTO 20011KT 170V240 9999 OVC041 05/00 Q0988",
      "taf": "TAF EFTU 052038Z 0521/0621 18010KT 9999 FEW007"
    },
    {
      "icao": "EGBB",
      "alert": "OK",
      "vis_m": 9999,
      "fzfg": false,
      "metar_trigger": false,
      "taf_trigger": false,
      "metar": "METAR EGBB 052220Z 22003KT CAVOK 02/M01 Q1024",
      "taf": "TAF EGBB 051655Z 0518/0618 28010KT 9999 FEW030"
    },
    {
      "icao": "EGGP",
      "alert": "OK",
      "vis_m": 9999,
      "fzfg": false,
      "metar_trigger": false,
      "taf_trigger": false,
      "metar": "METAR EGGP 052220Z VRB02KT CAVOK 04/01 Q1023",
      "taf": "TAF EGGP 051655Z 0518/0618 28014KT 9999 SCT035"
    },
    {
      "icao": "EGGW",
      "alert": "OK",
      "vis_m": 9999,
      "fzfg": false,
      "metar_trigger": false,
      "taf_trigger": false,
      "metar": "METAR EGGW 052220Z AUTO 25007KT 9999 NCD 04/M00 Q1024",
      "taf": "TAF EGGW 051652Z 0518/0618 27015KT 9999 FEW035"
    },
    {
      "icao": "EGKK",
      "alert": "OK",
      "vis_m": 9999,
      "fzfg": false,
      "metar_trigger": false,
      "taf_trigger": false,
      "metar": "METAR EGKK 052220Z 23003KT CAVOK 05/M02 Q1025",
      "taf": "TAF EGKK 051656Z 0518/0624 25012KT 9999 FEW040"
    },
    {
      "icao": "EGNM",
      "alert": "OK",
      "vis_m": 9999,
      "fzfg": false,
      "metar_trigger": false,
      "taf_trigger": false,
      "metar": "METAR EGNM 052220Z 25009KT CAVOK 04/00 Q1022",
      "taf": "TAF EGNM 051655Z 0518/0618 26012KT 9999 SCT030"
    },
    {
      "icao": "EGPD",
      "alert": "OK",
      "vis_m": 9999,
      "fzfg": false,
      "metar_trigger": false,
      "taf_trigger": false,
      "metar": "METAR EGPD 052220Z COR AUTO 26008KT 9999 NCD 04/M03 Q1015 NOSIG",
      "taf": "TAF EGPD 051654Z 0518/0618 28016G28KT 9999 FEW040"
    },
    {
      "icao": "EGPF",
      "alert": "OK",
      "vis_m": 9999,
      "fzfg": false,
      "metar_trigger": false,
      "taf_trigger": false,
      "metar": "METAR EGPF 052220Z AUTO 22007KT 9999 NCD 02/M01 Q1019",
      "taf": ""
    },
    {
      "icao": "EHBK",
      "alert": "OK",
      "vis_m": 9999,
      "fzfg": false,
      "metar_trigger": false,
      "taf_trigger": false,
      "metar": "METAR EHBK 052225Z AUTO 25006KT 210V280 9999 NSC 07/03 Q1024",
      "taf": "TAF EHBK 051702Z 0518/0624 25011KT 9999 SCT040"
    },
    {
      "icao": "EHEH",
      "alert": "OK",
      "vis_m": 9999,
      "fzfg": false,
      "metar_trigger": false,
      "taf_trigger": false,
      "metar": "METAR EHEH 052225Z AUTO 24003KT 220V280 9999 OVC330 06/03 Q1024 BLU",
      "taf": "TAF EHEH 051757Z 0518/0624 25012KT 9999 FEW035"
    },
    {
      "icao": "EKBI",
      "alert": "OK",
      "vis_m": 9999,
      "fzfg": false,
      "metar_trigger": false,
      "taf_trigger": false,
      "metar": "METAR EKBI 052220Z AUTO 26016KT 9999 FEW019/// 05/02 Q1012",
      "taf": "TAF EKBI 052027Z 0521/0621 25018KT 9999 BKN035"
    },
    {
      "icao": "EKCH",
      "alert": "OK",
      "vis_m": 9999,
      "fzfg": false,
      "metar_trigger": false,
      "taf_trigger": false,
      "metar": "METAR EKCH 052220Z AUTO 25018KT 9999 FEW036/// 06/M00 Q1009 TEMPO 26018KT",
      "taf": "TAF EKCH 052027Z 0521/0621 25020G30KT 9999 FEW045"
    },
    {
      "icao": "ENAL",
      "alert": "OK",
      "vis_m": 9999,
      "fzfg": false,
      "metar_trigger": false,
      "taf_trigger": false,
      "metar": "METAR ENAL 052220Z AUTO 27015KT 9999 BKN021/// BKN024/// 05/02 Q0995",
      "taf": "TAF ENAL 052000Z 0521/0606 27015KT 9999 -SHRA FEW015 BKN035"
    },
    {
      "icao": "ENBR",
      "alert": "OK",
      "vis_m": 9999,
      "fzfg": false,
      "metar_trigger": false,
      "taf_trigger": false,
      "metar": "METAR ENBR 052220Z 27010G22KT 210V320 9999 FEW040 05/M00 Q1001 RMK WIND 1200FT 29027KT",
      "taf": ""
    },
    {
      "icao": "ENGM",
      "alert": "OK",
      "vis_m": 9999,
      "fzfg": false,
      "metar_trigger": false,
      "taf_trigger": false,
      "metar": "METAR ENGM 052220Z 29008KT 230V340 CAVOK 03/M05 Q0990",
      "taf": "TAF ENGM 051700Z 0518/0618 27010KT 9999 FEW015"
    },
    {
      "icao": "ENHD",
      "alert": "OK",
      "vis_m": 9999,
      "fzfg": false,
      "metar_trigger": false,
      "taf_trigger": false,
      "metar": "METAR ENHD 052220Z AUTO 27026KT 9999 NCD 06/02 Q1004",
      "taf": "TAF ENHD 051100Z 0512/0521 27009KT 8000 -RA SCT007 BKN015"
    },
    {
      "icao": "ENTC",
      "alert": "OK",
      "vis_m": 9999,
      "fzfg": false,
      "metar_trigger": false,
      "taf_trigger": false,
      "metar": "METAR ENTC 052220Z 00000KT CAVOK M02/M05 Q0996 RMK WIND 2600FT 17018KT",
      "taf": "TAF ENTC 051700Z 0518/0618 36006KT CAVOK"
    },
    {
      "icao": "ENTO",
      "alert": "OK",
      "vis_m": 9999,
      "fzfg": false,
      "metar_trigger": false,
      "taf_trigger": false,
      "metar": "METAR ENTO 052220Z 27010KT 240V320 CAVOK 05/M04 Q0996",
      "taf": "TAF ENTO 051700Z 0518/0618 22012KT 9999 SCT030"
    },
    {
      "icao": "ENVA",
      "alert": "OK",
      "vis_m": 9999,
      "fzfg": false,
      "metar_trigger": false,
      "taf_trigger": false,
      "metar": "METAR ENVA 052220Z 26014KT 9999 -RA BKN008 OVC010 02/02 Q0989 RMK WIND 670FT 27017KT",
      "taf": ""
    },
    {
      "icao": "ENZV",
      "alert": "OK",
      "vis_m": 9999,
      "fzfg": false,
      "metar_trigger": false,
      "taf_trigger": false,
      "metar": "METAR ENZV 052220Z 28018KT 9999 VCSH FEW027CB SCT042 06/02 Q1005",
      "taf": ""
    },
    {
      "icao": "EPGD",
      "alert": "OK",
      "vis_m": 9999,
      "fzfg": false,
      "metar_trigger": false,
      "taf_trigger": false,
      "metar": "METAR EPGD 052230Z 26014KT 9999 FEW030 07/01 Q1010",
      "taf": "TAF EPGD 051730Z 0518/0618 26012KT CAVOK"
    },
    {
      "icao": "EPKK",
      "alert": "OK",
      "vis_m": 9999,
      "fzfg": false,
      "metar_trigger": false,
      "taf_trigger": false,
      "metar": "METAR EPKK 052230Z 30012KT 9999 SCT066 16/07 Q1015",
      "taf": ""
    },
    {
      "icao": "EPKT",
      "alert": "OK",
      "vis_m": 9999,
      "fzfg": false,
      "metar_trigger": false,
      "taf_trigger": false,
      "metar": "METAR EPKT 052230Z 35014KT 9999 SCT017 11/07 Q1016",
      "taf": ""
    },
    {
      "icao": "EPLB",
      "alert": "OK",
      "vis_m": 9999,
      "fzfg": false,
      "metar_trigger": false,
      "taf_trigger": false,
      "metar": "METAR EPLB 052230Z 30005KT 9999 -SHRA FEW041 SCT054CB 12/10 Q1013",
      "taf": ""
    },
    {
      "icao": "EPMO",
      "alert": "OK",
      "vis_m": 9999,
      "fzfg": false,
      "metar_trigger": false,
      "taf_trigger": false,
      "metar": "METAR EPMO 052230Z 18006KT 9999 -SHRA FEW019 FEW043CB 08/06 Q1014",
      "taf": ""
    },
    {
      "icao": "EPPO",
      "alert": "OK",
      "vis_m": 9999,
      "fzfg": false,
      "metar_trigger": false,
      "taf_trigger": false,
      "metar": "METAR EPPO 052230Z 25008KT CAVOK 08/06 Q1015",
      "taf": ""
    },
    {
      "icao": "EPRA",
      "alert": "OK",
      "vis_m": 9999,
      "fzfg": false,
      "metar_trigger": false,
      "taf_trigger": false,
      "metar": "METAR EPRA 052230Z 35009KT CAVOK 10/08 Q1014",
      "taf": "TAF EPRA 052030Z 0521/0606 25008KT CAVOK"
    },
    {
      "icao": "EPRZ",
      "alert": "OK",
      "vis_m": 9999,
      "fzfg": false,
      "metar_trigger": false,
      "taf_trigger": false,
      "metar": "METAR EPRZ 052230Z 21010KT CAVOK 15/05 Q1013",
      "taf": "TAF EPRZ 051730Z 0518/0618 20014KT CAVOK"
    },
    {
      "icao": "EPSC",
      "alert": "OK",
      "vis_m": 9999,
      "fzfg": false,
      "metar_trigger": false,
      "taf_trigger": false,
      "metar": "METAR EPSC 052230Z 26012KT CAVOK 08/00 Q1014",
      "taf": "TAF EPSC 051730Z 0518/0618 24008KT CAVOK"
    },
    {
      "icao": "EPSY",
      "alert": "OK",
      "vis_m": 9999,
      "fzfg": false,
      "metar_trigger": false,
      "taf_trigger": false,
      "metar": "METAR EPSY 052230Z 20005KT CAVOK 05/04 Q1012",
      "taf": "TAF EPSY 052030Z 0521/0606 VRB02KT 9999 BKN030"
    },
    {
      "icao": "EPWA",
      "alert": "OK",
      "vis_m": 9999,
      "fzfg": false,
      "metar_trigger": false,
      "taf_trigger": false,
      "metar": "METAR EPWA 052230Z 28006KT 9999 -SHRA FEW039 BKN050CB 08/06 Q1014 NOSIG",
      "taf": "TAF EPWA 052030Z 0521/0621 34010KT CAVOK"
    },
    {
      "icao": "EPWR",
      "alert": "OK",
      "vis_m": 9999,
      "fzfg": false,
      "metar_trigger": false,
      "taf_trigger": false,
      "metar": "METAR EPWR 052230Z 27012KT CAVOK 12/05 Q1017",
      "taf": "TAF EPWR 052030Z 0521/0621 29010KT CAVOK"
    },
    {
      "icao": "ESGG",
      "alert": "OK",
      "vis_m": 9999,
      "fzfg": false,
      "metar_trigger": false,
      "taf_trigger": false,
      "metar": "METAR ESGG 052220Z 27023G37KT 9999 BKN020 05/00 Q0999",
      "taf": "TAF ESGG 052030Z 0521/0621 25030G45KT 9999 SCT025 BKN035"
    },
    {
      "icao": "ESKN",
      "alert": "OK",
      "vis_m": 9999,
      "fzfg": false,
      "metar_trigger": false,
      "taf_trigger": false,
      "metar": "METAR ESKN 052220Z 24019KT 9999 -SHRA BKN012 BKN017 BKN021 04/02 Q0988",
      "taf": "TAF ESKN 052030Z 0521/0621 22025G40KT 9999 BKN030"
    },
    {
      "icao": "ESMS",
      "alert": "OK",
      "vis_m": 9999,
      "fzfg": false,
      "metar_trigger": false,
      "taf_trigger": false,
      "metar": "METAR ESMS 052220Z 26017KT 9999 NSC 05/M00 Q1009",
      "taf": "TAF ESMS 052027Z 0521/0621 25020G32KT 9999 FEW035"
    },
    {
      "icao": "ESSA",
      "alert": "OK",
      "vis_m": 9999,
      "fzfg": false,
      "metar_trigger": false,
      "taf_trigger": false,
      "metar": "METAR ESSA 052220Z 22016KT 9999 BKN010 03/02 Q0984 REDZ TEMPO BKN008",
      "taf": ""
    },
    {
      "icao": "EYKA",
      "alert": "OK",
      "vis_m": 9999,
      "fzfg": false,
      "metar_trigger": false,
      "taf_trigger": false,
      "metar": "METAR EYKA 052220Z AUTO 26011KT 9999 NCD 07/03 Q1008",
      "taf": "TAF EYKA 051700Z 0518/0618 24015KT 9000 BKN030"
    },
    {
      "icao": "EYPA",
      "alert": "OK",
      "vis_m": 9999,
      "fzfg": false,
      "metar_trigger": false,
      "taf_trigger": false,
      "metar": "METAR EYPA 052220Z AUTO 23008KT 150V290 9999 NCD 04/02 Q1005",
      "taf": "TAF EYPA 051700Z 0518/0618 25015G30KT 9000 NSC"
    },
    {
      "icao": "EYVI",
      "alert": "OK",
      "vis_m": 9999,
      "fzfg": false,
      "metar_trigger": false,
      "taf_trigger": false,
      "metar": "METAR EYVI 052220Z 22008KT CAVOK 06/03 Q1008 NOSIG",
      "taf": "TAF EYVI 051700Z 0518/0618 20014KT 9000 BKN025"
    },
    {
      "icao": "GCFV",
      "alert": "OK",
      "vis_m": 9999,
      "fzfg": false,
      "metar_trigger": false,
      "taf_trigger": false,
      "metar": "METAR GCFV 052230Z AUTO 36012KT CAVOK 20/15 Q1013",
      "taf": ""
    },
    {
      "icao": "GCLP",
      "alert": "OK",
      "vis_m": 9999,
      "fzfg": false,
      "metar_trigger": false,
      "taf_trigger": false,
      "metar": "METAR GCLP 052230Z 01017KT 9999 FEW020 19/15 Q1014 NOSIG",
      "taf": "TAF GCLP 052000Z 0521/0621 03015KT CAVOK TX23/0614Z TN17/0606Z"
    },
    {
      "icao": "GCTS",
      "alert": "OK",
      "vis_m": 9999,
      "fzfg": false,
      "metar_trigger": false,
      "taf_trigger": false,
      "metar": "METAR GCTS 052230Z VRB01KT 9999 FEW095 19/15 Q1015 NOSIG",
      "taf": "TAF GCTS 052000Z 0521/0621 10013KT CAVOK TX23/0614Z TN16/0606Z"
    },
    {
      "icao": "GMAD",
      "alert": "OK",
      "vis_m": 9999,
      "fzfg": false,
      "metar_trigger": false,
      "taf_trigger": false,
      "metar": "METAR GMAD 052230Z 13005KT 9999 SCT030 BKN080 25/08 Q1017 NOSIG",
      "taf": "TAF GMAD 051700Z 0518/0624 18014KT 8000 SCT026TCU BKN080"
    },
    {
      "icao": "GMMN",
      "alert": "OK",
      "vis_m": 9999,
      "fzfg": false,
      "metar_trigger": false,
      "taf_trigger": false,
      "metar": "METAR GMMN 052230Z 09008KT 060V130 CAVOK 19/12 Q1018 NOSIG",
      "taf": "TAF GMMN 051700Z 0518/0624 34010KT CAVOK"
    },
    {
      "icao": "GMMX",
      "alert": "OK",
      "vis_m": 8000,
      "fzfg": false,
      "metar_trigger": false,
      "taf_trigger": false,
      "metar": "METAR GMMX 052230Z 24007KT 200V290 8000 BKN100 23/09 Q1019 NOSIG",
      "taf": "TAF GMMX 051700Z 0518/0624 06006KT 8000 SCT100"
    },
    {
      "icao": "HEGN",
      "alert": "OK",
      "vis_m": 9999,
      "fzfg": false,
      "metar_trigger": false,
      "taf_trigger": false,
      "metar": "METAR HEGN 052200Z 26007KT CAVOK 20/M03 Q1018 NOSIG",
      "taf": "TAF HEGN 051700Z 0518/0624 33006G18KT CAVOK"
    },
    {
      "icao": "HEMA",
      "alert": "OK",
      "vis_m": 9999,
      "fzfg": false,
      "metar_trigger": false,
      "taf_trigger": false,
      "metar": "METAR HEMA 052200Z 30014KT CAVOK 23/01 Q1017 NOSIG",
      "taf": ""
    },
    {
      "icao": "HESH",
      "alert": "OK",
      "vis_m": 9999,
      "fzfg": false,
      "metar_trigger": false,
      "taf_trigger": false,
      "metar": "METAR HESH 052200Z 31006KT CAVOK 21/03 Q1018 NOSIG",
      "taf": "TAF HESH 051700Z 0518/0624 35006G18KT CAVOK"
    },
    {
      "icao": "HESX",
      "alert": "OK",
      "vis_m": 9999,
      "fzfg": false,
      "metar_trigger": false,
      "taf_trigger": false,
      "metar": "METAR HESX 052200Z 33008KT CAVOK 14/11 Q1020 NOSIG",
      "taf": ""
    },
    {
      "icao": "LATI",
      "alert": "OK",
      "vis_m": 9999,
      "fzfg": false,
      "metar_trigger": false,
      "taf_trigger": false,
      "metar": "METAR LATI 052220Z 17002KT CAVOK 10/04 Q1024 NOSIG",
      "taf": "TAF LATI 051700Z 0518/0618 VRB03KT CAVOK TX22/0613Z TN06/0605Z"
    },
    {
      "icao": "LBPD",
      "alert": "OK",
      "vis_m": 9999,
      "fzfg": false,
      "metar_trigger": false,
      "taf_trigger": false,
      "metar": "METAR LBPD 052230Z AUTO 22005KT 180V330 9999 SCT084/// 11/05 Q1023",
      "taf": "TAF LBPD 051700Z 0518/0618 12010KT 9999 SCT060"
    },
    {
      "icao": "LBSF",
      "alert": "OK",
      "vis_m": 9999,
      "fzfg": false,
      "metar_trigger": false,
      "taf_trigger": false,
      "metar": "METAR LBSF 052230Z AUTO VRB02KT 9999 NCD 07/04 Q1023 NOSIG",
      "taf": "TAF LBSF 051700Z 0518/0618 32010KT 9999 SCT070"
    },
    {
      "icao": "LBWN",
      "alert": "OK",
      "vis_m": 9999,
      "fzfg": false,
      "metar_trigger": false,
      "taf_trigger": false,
      "metar": "METAR LBWN 052230Z AUTO 28004KT 9999 NCD 07/03 Q1022 NOSIG",
      "taf": "TAF LBWN 051700Z 0518/0618 VRB03KT 9999 SCT030"
    },
    {
      "icao": "LCLK",
      "alert": "OK",
      "vis_m": 9999,
      "fzfg": false,
      "metar_trigger": false,
      "taf_trigger": false,
      "metar": "METAR LCLK 052230Z 32006KT 9999 FEW030 11/11 Q1017 NOSIG",
      "taf": "TAF LCLK 051730Z 0518/0618 29006KT 9999 FEW025"
    },
    {
      "icao": "LCPH",
      "alert": "OK",
      "vis_m": 9999,
      "fzfg": false,
      "metar_trigger": false,
      "taf_trigger": false,
      "metar": "METAR LCPH 052230Z 07005KT 010V080 9999 SCT018 13/11 Q1017 NOSIG",
      "taf": "TAF LCPH 051730Z 0518/0618 35008KT 9999 FEW025 FEW030TCU SCT040"
    },
    {
      "icao": "LEAL",
      "alert": "OK",
      "vis_m": 9999,
      "fzfg": false,
      "metar_trigger": false,
      "taf_trigger": false,
      "metar": "METAR LEAL 052230Z 02005KT 340V050 CAVOK 15/12 Q1025 NOSIG",
      "taf": "TAF LEAL 051700Z 0518/0618 08008KT CAVOK TX21/0612Z TN11/0606Z"
    },
    {
      "icao": "LEBB",
      "alert": "OK",
      "vis_m": 9999,
      "fzfg": false,
      "metar_trigger": false,
      "taf_trigger": false,
      "metar": "METAR LEBB 052230Z AUTO 09002KT CAVOK 11/10 Q1024",
      "taf": "TAF LEBB 051700Z 0518/0618 12008KT 9999 SCT020 TX28/0615Z TN09/0603Z"
    },
    {
      "icao": "LEBL",
      "alert": "OK",
      "vis_m": 9999,
      "fzfg": false,
      "metar_trigger": false,
      "taf_trigger": false,
      "metar": "METAR LEBL 052230Z 22008KT CAVOK 15/12 Q1026 NOSIG",
      "taf": "TAF LEBL 051700Z 0518/0618 22010KT CAVOK TX21/0612Z TN11/0605Z"
    },
    {
      "icao": "LECH",
      "alert": "OK",
      "vis_m": 9000,
      "fzfg": false,
      "metar_trigger": false,
      "taf_trigger": false,
      "metar": "METAR LECH 052230Z AUTO 20005KT 9000 NCD 12/03 Q1026",
      "taf": "TAF LECH 051700Z 0518/0618 13008KT CAVOK TX23/0614Z TN10/0606Z"
    },
    {
      "icao": "LEMD",
      "alert": "OK",
      "vis_m": 9999,
      "fzfg": false,
      "metar_trigger": false,
      "taf_trigger": false,
      "metar": "METAR LEMD 052230Z 36003KT CAVOK 15/05 Q1023 NOSIG",
      "taf": "TAF LEMD 051700Z 0518/0624 VRB04KT CAVOK TX27/0616Z TN09/0606Z"
    },
    {
      "icao": "LEMG",
      "alert": "OK",
      "vis_m": 9999,
      "fzfg": false,
      "metar_trigger": false,
      "taf_trigger": false,
      "metar": "METAR LEMG 052230Z 28006KT CAVOK 13/06 Q1024 NOSIG",
      "taf": "TAF LEMG 051700Z 0518/0618 12010KT CAVOK TX22/0614Z TN09/0606Z"
    },
    {
      "icao": "LEVC",
      "alert": "OK",
      "vis_m": 9999,
      "fzfg": false,
      "metar_trigger": false,
      "taf_trigger": false,
      "metar": "METAR LEVC 052230Z 34003KT 310V020 CAVOK 14/08 Q1026 NOSIG",
      "taf": "TAF LEVC 051700Z 0518/0618 09008KT CAVOK TX22/0614Z TN10/0606Z"
    },
    {
      "icao": "LEXJ",
      "alert": "OK",
      "vis_m": 7000,
      "fzfg": false,
      "metar_trigger": false,
      "taf_trigger": false,
      "metar": "METAR LEXJ 052230Z AUTO 10003KT 050V140 7000 NSC 11/10 Q1023",
      "taf": "TAF LEXJ 052000Z 0521/0621 04006KT 9999 SCT020 TX30/0614Z TN10/0606Z"
    },
    {
      "icao": "LEZG",
      "alert": "OK",
      "vis_m": 9999,
      "fzfg": false,
      "metar_trigger": false,
      "taf_trigger": false,
      "metar": "METAR LEZG 052230Z 08005KT CAVOK 17/09 Q1023 NOSIG",
      "taf": "TAF LEZG 051700Z 0518/0618 11006KT CAVOK TX29/0614Z TN12/0606Z"
    },
    {
      "icao": "LEZL",
      "alert": "OK",
      "vis_m": 9999,
      "fzfg": false,
      "metar_trigger": false,
      "taf_trigger": false,
      "metar": "METAR LEZL 052230Z 08003KT CAVOK 16/08 Q1020 NOSIG",
      "taf": "TAF LEZL 052000Z 0521/0621 06008KT CAVOK TX29/0615Z TN12/0606Z"
    },
    {
      "icao": "LFBD",
      "alert": "OK",
      "vis_m": 9999,
      "fzfg": false,
      "metar_trigger": false,
      "taf_trigger": false,
      "metar": "METAR LFBD 052230Z AUTO 02005KT CAVOK 13/10 Q1025 NOSIG",
      "taf": "TAF LFBD 051700Z 0518/0624 02010KT CAVOK TX27/0614Z TN10/0606Z"
    },
    {
      "icao": "LFLL",
      "alert": "OK",
      "vis_m": 9999,
      "fzfg": false,
      "metar_trigger": false,
      "taf_trigger": false,
      "metar": "METAR LFLL 052230Z VRB02KT CAVOK 15/05 Q1025 NOSIG",
      "taf": "TAF LFLL 051700Z 0518/0624 VRB03KT CAVOK"
    },
    {
      "icao": "LFLS",
      "alert": "OK",
      "vis_m": 9999,
      "fzfg": false,
      "metar_trigger": false,
      "taf_trigger": false,
      "metar": "METAR LFLS 052230Z AUTO 27007KT CAVOK 13/06 Q1026",
      "taf": ""
    },
    {
      "icao": "LFMN",
      "alert": "OK",
      "vis_m": 9999,
      "fzfg": false,
      "metar_trigger": false,
      "taf_trigger": false,
      "metar": "METAR LFMN 052230Z 32005KT CAVOK 13/10 Q1025 NOSIG",
      "taf": "TAF LFMN 052000Z 0521/0703 33010KT CAVOK"
    },
    {
      "icao": "LFOB",
      "alert": "OK",
      "vis_m": 9999,
      "fzfg": false,
      "metar_trigger": false,
      "taf_trigger": false,
      "metar": "METAR LFOB 052230Z AUTO 31005KT CAVOK 02/02 Q1027 NOSIG",
      "taf": "TAF LFOB 051700Z 0518/0618 26012KT 9999 SCT030"
    },
    {
      "icao": "LFPO",
      "alert": "OK",
      "vis_m": 9999,
      "fzfg": false,
      "metar_trigger": false,
      "taf_trigger": false,
      "metar": "METAR LFPO 052230Z 34003KT CAVOK 08/04 Q1027 NOSIG",
      "taf": "TAF LFPO 051700Z 0518/0624 30010KT CAVOK"
    },
    {
      "icao": "LFSB",
      "alert": "OK",
      "vis_m": 9999,
      "fzfg": false,
      "metar_trigger": false,
      "taf_trigger": false,
      "metar": "METAR LFSB 052230Z AUTO 31007KT 280V340 CAVOK 14/08 Q1025 NOSIG",
      "taf": ""
    },
    {
      "icao": "LGAV",
      "alert": "OK",
      "vis_m": 9999,
      "fzfg": false,
      "metar_trigger": false,
      "taf_trigger": false,
      "metar": "METAR LGAV 052220Z 31007KT 9999 FEW025 12/05 Q1022 NOSIG",
      "taf": "TAF LGAV 051700Z 0518/0618 36015KT 9999 FEW020"
    },
    {
      "icao": "LGTS",
      "alert": "OK",
      "vis_m": 9999,
      "fzfg": false,
      "metar_trigger": false,
      "taf_trigger": false,
      "metar": "METAR LGTS 052220Z 11006KT 9999 FEW025 10/07 Q1022 NOSIG",
      "taf": "TAF LGTS 051700Z 0518/0618 VRB03KT 9999 FEW025"
    },
    {
      "icao": "LHBP",
      "alert": "OK",
      "vis_m": 9999,
      "fzfg": false,
      "metar_trigger": false,
      "taf_trigger": false,
      "metar": "METAR LHBP 052230Z VRB02KT CAVOK 11/07 Q1020 NOSIG",
      "taf": "TAF LHBP 051715Z 0518/0618 18005KT CAVOK"
    },
    {
      "icao": "LHDC",
      "alert": "OK",
      "vis_m": 9999,
      "fzfg": false,
      "metar_trigger": false,
      "taf_trigger": false,
      "metar": "METAR LHDC 052215Z AUTO 20006KT 170V230 CAVOK 09/06 Q1020",
      "taf": "TAF LHDC 051715Z 0518/0603 21012KT CAVOK"
    },
    {
      "icao": "LIBD",
      "alert": "OK",
      "vis_m": 9999,
      "fzfg": false,
      "metar_trigger": false,
      "taf_trigger": false,
      "metar": "METAR LIBD 052220Z 23006KT CAVOK 08/05 Q1024",
      "taf": "TAF LIBD 051700Z 0518/0618 VRB05KT CAVOK"
    },
    {
      "icao": "LIBG",
      "alert": "OK",
      "vis_m": null,
      "fzfg": false,
      "metar_trigger": false,
      "taf_trigger": false,
      "metar": "",
      "taf": "TAF LIBG 051100Z 0512/0521 02012KT CAVOK"
    },
    {
      "icao": "LIBP",
      "alert": "OK",
      "vis_m": 9999,
      "fzfg": false,
      "metar_trigger": false,
      "taf_trigger": false,
      "metar": "METAR LIBP 052220Z AUTO 21005KT 9999 NCD 08/06 Q1023",
      "taf": "TAF LIBP 051700Z 0518/0618 VRB05KT CAVOK"
    },
    {
      "icao": "LIBR",
      "alert": "OK",
      "vis_m": 9999,
      "fzfg": false,
      "metar_trigger": false,
      "taf_trigger": false,
      "metar": "METAR LIBR 052220Z 29005KT CAVOK 11/09 Q1024",
      "taf": "TAF LIBR 051700Z 0518/0618 29007KT CAVOK"
    },
    {
      "icao": "LICA",
      "alert": "OK",
      "vis_m": 9999,
      "fzfg": false,
      "metar_trigger": false,
      "taf_trigger": false,
      "metar": "METAR LICA 052220Z AUTO VRB01KT 9999 FEW014/// 11/10 Q1026",
      "taf": "TAF LICA 051700Z 0518/0618 VRB05KT 9999 SCT013"
    },
    {
      "icao": "LICC",
      "alert": "OK",
      "vis_m": 9999,
      "fzfg": false,
      "metar_trigger": false,
      "taf_trigger": false,
      "metar": "METAR LICC 052220Z 26005KT CAVOK 11/07 Q1025",
      "taf": "TAF LICC 051700Z 0518/0618 08010KT 8000 FEW060"
    },
    {
      "icao": "LICJ",
      "alert": "OK",
      "vis_m": 9999,
      "fzfg": false,
      "metar_trigger": false,
      "taf_trigger": false,
      "metar": "METAR LICJ 052220Z 12003KT CAVOK 11/09 Q1026",
      "taf": "TAF LICJ 051700Z 0518/0618 VRB04KT CAVOK"
    },
    {
      "icao": "LIMC",
      "alert": "OK",
      "vis_m": 9999,
      "fzfg": false,
      "metar_trigger": false,
      "taf_trigger": false,
      "metar": "METAR LIMC 052220Z VRB01KT CAVOK 13/07 Q1023 NOSIG",
      "taf": "TAF LIMC 051700Z 0518/0624 VRB05KT CAVOK"
    },
    {
      "icao": "LIME",
      "alert": "OK",
      "vis_m": 9999,
      "fzfg": false,
      "metar_trigger": false,
      "taf_trigger": false,
      "metar": "METAR LIME 052220Z 01006KT CAVOK 13/06 Q1023 NOSIG",
      "taf": "TAF LIME 051700Z 0518/0618 VRB05KT CAVOK"
    },
    {
      "icao": "LIMF",
      "alert": "OK",
      "vis_m": 9999,
      "fzfg": false,
      "metar_trigger": false,
      "taf_trigger": false,
      "metar": "METAR LIMF 052220Z 11003KT CAVOK 13/06 Q1023",
      "taf": "TAF LIMF 051700Z 0518/0618 VRB05KT CAVOK"
    },
    {
      "icao": "LIMJ",
      "alert": "OK",
      "vis_m": 9999,
      "fzfg": false,
      "metar_trigger": false,
      "taf_trigger": false,
      "metar": "METAR LIMJ 052220Z 14007KT 9999 BKN018 15/13 Q1025",
      "taf": ""
    },
    {
      "icao": "LIPE",
      "alert": "OK",
      "vis_m": 9999,
      "fzfg": false,
      "metar_trigger": false,
      "taf_trigger": false,
      "metar": "METAR LIPE 052220Z VRB02KT CAVOK 14/01 Q1022",
      "taf": "TAF LIPE 051700Z 0518/0618 VRB05KT CAVOK"
    },
    {
      "icao": "LIPH",
      "alert": "OK",
      "vis_m": 9999,
      "fzfg": false,
      "metar_trigger": false,
      "taf_trigger": false,
      "metar": "METAR LIPH 052220Z AUTO VRB01KT 9999 NCD 11/06 Q1023",
      "taf": "TAF LIPH 051700Z 0518/0618 VRB05KT CAVOK"
    },
    {
      "icao": "LIPQ",
      "alert": "OK",
      "vis_m": 9999,
      "fzfg": false,
      "metar_trigger": false,
      "taf_trigger": false,
      "metar": "METAR LIPQ 052220Z AUTO VRB02KT 9999 NCD 09/06 Q1023",
      "taf": "TAF LIPQ 051700Z 0518/0618 VRB05KT CAVOK"
    },
    {
      "icao": "LIPR",
      "alert": "OK",
      "vis_m": 9999,
      "fzfg": false,
      "metar_trigger": false,
      "taf_trigger": false,
      "metar": "METAR LIPR 052220Z AUTO 20003KT 9999 NCD 09/08 Q1023",
      "taf": "TAF LIPR 051700Z 0518/0618 VRB05KT CAVOK"
    },
    {
      "icao": "LIPX",
      "alert": "OK",
      "vis_m": 9999,
      "fzfg": false,
      "metar_trigger": false,
      "taf_trigger": false,
      "metar": "METAR LIPX 052220Z 08003KT CAVOK 13/06 Q1023",
      "taf": "TAF LIPX 051700Z 0518/0618 VRB05KT CAVOK"
    },
    {
      "icao": "LIPY",
      "alert": "OK",
      "vis_m": 9999,
      "fzfg": false,
      "metar_trigger": false,
      "taf_trigger": false,
      "metar": "METAR LIPY 052220Z AUTO 21003KT 9999 NCD 11/07 Q1022",
      "taf": "TAF LIPY 051700Z 0518/0618 VRB05KT CAVOK"
    },
    {
      "icao": "LIPZ",
      "alert": "OK",
      "vis_m": 9999,
      "fzfg": false,
      "metar_trigger": false,
      "taf_trigger": false,
      "metar": "METAR LIPZ 052220Z 02003KT 320V050 CAVOK 13/07 Q1023 NOSIG",
      "taf": "TAF LIPZ 051700Z 0518/0624 VRB05KT CAVOK"
    },
    {
      "icao": "LIRF",
      "alert": "OK",
      "vis_m": 8000,
      "fzfg": false,
      "metar_trigger": false,
      "taf_trigger": false,
      "metar": "METAR LIRF 052220Z 29004KT 8000 MIFG BKN004 13/13 Q1025 NOSIG",
      "taf": "TAF LIRF 051700Z 0518/0624 VRB05KT CAVOK"
    },
    {
      "icao": "LIRN",
      "alert": "OK",
      "vis_m": 9999,
      "fzfg": false,
      "metar_trigger": false,
      "taf_trigger": false,
      "metar": "METAR LIRN 052220Z 24004KT CAVOK 12/04 Q1025 NOSIG",
      "taf": "TAF LIRN 051700Z 0518/0618 29010KT CAVOK"
    },
    {
      "icao": "LIRP",
      "alert": "OK",
      "vis_m": 4000,
      "fzfg": false,
      "metar_trigger": false,
      "taf_trigger": false,
      "metar": "METAR LIRP 052215Z 16004KT 4000 MIFG BR FEW003 08/07 Q1026 TEMPO 2000",
      "taf": "TAF LIRP 051700Z 0518/0618 27011KT CAVOK"
    },
    {
      "icao": "LIRZ",
      "alert": "OK",
      "vis_m": 9999,
      "fzfg": false,
      "metar_trigger": false,
      "taf_trigger": false,
      "metar": "METAR LIRZ 052220Z AUTO 03003KT 010V100 9999 NCD 08/04 Q1025",
      "taf": "TAF LIRZ 051700Z 0518/0618 26010KT CAVOK"
    },
    {
      "icao": "LJLJ",
      "alert": "OK",
      "vis_m": 9999,
      "fzfg": false,
      "metar_trigger": false,
      "taf_trigger": false,
      "metar": "METAR LJLJ 052230Z VRB01KT CAVOK 08/03 Q1023 NOSIG",
      "taf": "TAF LJLJ 051700Z 0518/0618 24005KT CAVOK"
    },
    {
      "icao": "LKMT",
      "alert": "OK",
      "vis_m": 9999,
      "fzfg": false,
      "metar_trigger": false,
      "taf_trigger": false,
      "metar": "METAR LKMT 052230Z 24008KT CAVOK 13/07 Q1016 NOSIG",
      "taf": "TAF LKMT 051700Z 0518/0618 21012KT CAVOK"
    },
    {
      "icao": "LKPR",
      "alert": "OK",
      "vis_m": 9999,
      "fzfg": false,
      "metar_trigger": false,
      "taf_trigger": false,
      "metar": "METAR LKPR 052230Z 31016KT 9999 BKN046 11/04 Q1020 NOSIG",
      "taf": "TAF LKPR 052000Z 0521/0703 26014KT CAVOK"
    },
    {
      "icao": "LLBG",
      "alert": "OK",
      "vis_m": 9999,
      "fzfg": false,
      "metar_trigger": false,
      "taf_trigger": false,
      "metar": "METAR LLBG 052220Z 04004KT CAVOK 14/11 Q1018 NOSIG",
      "taf": "TAF LLBG 051703Z 0518/0618 30006KT CAVOK TX20/0611Z TN10/0604Z"
    },
    {
      "icao": "LMML",
      "alert": "OK",
      "vis_m": 9999,
      "fzfg": false,
      "metar_trigger": false,
      "taf_trigger": false,
      "metar": "METAR LMML 052215Z 31004KT CAVOK 13/10 Q1025 NOSIG",
      "taf": "TAF LMML 051700Z 0518/0618 34006KT 9999 FEW015"
    },
    {
      "icao": "LOWW",
      "alert": "OK",
      "vis_m": 9999,
      "fzfg": false,
      "metar_trigger": false,
      "taf_trigger": false,
      "metar": "METAR LOWW 052220Z 26009KT CAVOK 16/09 Q1019 NOSIG",
      "taf": "TAF LOWW 052015Z 0521/0703 30012KT 9999 FEW050 TX17/0521Z TN06/0703Z"
    },
    {
      "icao": "LPFR",
      "alert": "OK",
      "vis_m": 9999,
      "fzfg": false,
      "metar_trigger": false,
      "taf_trigger": false,
      "metar": "METAR LPFR 052230Z 08010G20KT CAVOK 19/08 Q1019",
      "taf": "TAF LPFR 051700Z 0518/0618 10013KT CAVOK"
    },
    {
      "icao": "LPMA",
      "alert": "OK",
      "vis_m": 9999,
      "fzfg": false,
      "metar_trigger": false,
      "taf_trigger": false,
      "metar": "METAR LPMA 052230Z 00000KT 9999 FEW013 17/14 Q1015",
      "taf": "TAF LPMA 051700Z 0518/0618 02012KT 9999 SCT015 SCT030"
    },
    {
      "icao": "LPPR",
      "alert": "OK",
      "vis_m": 9999,
      "fzfg": false,
      "metar_trigger": false,
      "taf_trigger": false,
      "metar": "METAR LPPR 052230Z 00000KT CAVOK 14/08 Q1019",
      "taf": "TAF LPPR 051700Z 0518/0618 31008KT CAVOK"
    },
    {
      "icao": "LPPS",
      "alert": "OK",
      "vis_m": 9999,
      "fzfg": false,
      "metar_trigger": false,
      "taf_trigger": false,
      "metar": "METAR LPPS 052230Z 34006KT 9999 FEW013 16/14 Q1015",
      "taf": "TAF LPPS 051700Z 0518/0624 09010KT 9999 SCT014 SCT030"
    },
    {
      "icao": "LPPT",
      "alert": "OK",
      "vis_m": 9999,
      "fzfg": false,
      "metar_trigger": false,
      "taf_trigger": false,
      "metar": "METAR LPPT 052230Z 01005KT 350V070 CAVOK 18/06 Q1019",
      "taf": "TAF LPPT 051700Z 0518/0624 24007KT CAVOK"
    },
    {
      "icao": "LQBK",
      "alert": "OK",
      "vis_m": 9999,
      "fzfg": false,
      "metar_trigger": false,
      "taf_trigger": false,
      "metar": "METAR LQBK 052230Z 15009KT CAVOK 13/03 Q1022 NOSIG",
      "taf": "TAF LQBK 051700Z 0518/0618 16005KT CAVOK TX22/0614Z TN05/0605Z"
    },
    {
      "icao": "LQSA",
      "alert": "OK",
      "vis_m": 9999,
      "fzfg": false,
      "metar_trigger": false,
      "taf_trigger": false,
      "metar": "METAR LQSA 052230Z VRB01KT CAVOK 06/02 Q1024",
      "taf": "TAF LQSA 051700Z 0518/0618 VRB02KT CAVOK TX22/0614Z TN05/0604Z"
    },
    {
      "icao": "LQTZ",
      "alert": "OK",
      "vis_m": 9999,
      "fzfg": false,
      "metar_trigger": false,
      "taf_trigger": false,
      "metar": "METAR LQTZ 052230Z 00000KT CAVOK 06/05 Q1023",
      "taf": "TAF LQTZ 051700Z 0518/0618 VRB02KT CAVOK TX20/0613Z TN05/0605Z"
    },
    {
      "icao": "LRBC",
      "alert": "OK",
      "vis_m": 9999,
      "fzfg": false,
      "metar_trigger": false,
      "taf_trigger": false,
      "metar": "METAR LRBC 052230Z VRB02KT CAVOK 09/06 Q1019",
      "taf": "TAF LRBC 052000Z 0521/0606 VRB04KT CAVOK"
    },
    {
      "icao": "LRBS",
      "alert": "OK",
      "vis_m": 9999,
      "fzfg": false,
      "metar_trigger": false,
      "taf_trigger": false,
      "metar": "METAR LRBS 052230Z 27003KT CAVOK 11/08 Q1021 NOSIG",
      "taf": "TAF LRBS 051700Z 0518/0618 VRB04KT CAVOK"
    },
    {
      "icao": "LRBV",
      "alert": "OK",
      "vis_m": 9999,
      "fzfg": false,
      "metar_trigger": false,
      "taf_trigger": false,
      "metar": "METAR LRBV 052230Z AUTO 25009KT 9999 NCD 07/04 Q1022",
      "taf": "TAF LRBV 051700Z 0518/0603 23006KT CAVOK"
    },
    {
      "icao": "LRCL",
      "alert": "OK",
      "vis_m": 9999,
      "fzfg": false,
      "metar_trigger": false,
      "taf_trigger": false,
      "metar": "METAR LRCL 052230Z 25003KT CAVOK 06/04 Q1022",
      "taf": "TAF LRCL 052000Z 0521/0606 VRB04KT CAVOK"
    },
    {
      "icao": "LRCV",
      "alert": "OK",
      "vis_m": 9999,
      "fzfg": false,
      "metar_trigger": false,
      "taf_trigger": false,
      "metar": "METAR LRCV 052230Z 25007KT CAVOK 10/08 Q1021",
      "taf": "TAF LRCV 052000Z 0521/0606 27006KT CAVOK"
    },
    {
      "icao": "LRIA",
      "alert": "OK",
      "vis_m": 9999,
      "fzfg": false,
      "metar_trigger": false,
      "taf_trigger": false,
      "metar": "METAR LRIA 052230Z 00000KT CAVOK 12/06 Q1018",
      "taf": "TAF LRIA 052000Z 0521/0606 VRB04KT CAVOK"
    },
    {
      "icao": "LROP",
      "alert": "OK",
      "vis_m": 9999,
      "fzfg": false,
      "metar_trigger": false,
      "taf_trigger": false,
      "metar": "METAR LROP 052230Z 24004KT CAVOK 09/08 Q1021 NOSIG",
      "taf": "TAF LROP 051700Z 0518/0618 VRB04KT CAVOK"
    },
    {
      "icao": "LRSB",
      "alert": "OK",
      "vis_m": 9999,
      "fzfg": false,
      "metar_trigger": false,
      "taf_trigger": false,
      "metar": "METAR LRSB 052230Z VRB01KT CAVOK 09/05 Q1022",
      "taf": "TAF LRSB 051700Z 0518/0618 VRB04KT CAVOK"
    },
    {
      "icao": "LRSM",
      "alert": "OK",
      "vis_m": 9999,
      "fzfg": false,
      "metar_trigger": false,
      "taf_trigger": false,
      "metar": "METAR LRSM 052230Z AUTO 20007KT 9999 NCD 09/05 Q1020",
      "taf": ""
    },
    {
      "icao": "LRSV",
      "alert": "OK",
      "vis_m": 9999,
      "fzfg": false,
      "metar_trigger": false,
      "taf_trigger": false,
      "metar": "METAR LRSV 052230Z 26013KT CAVOK 11/03 Q1018",
      "taf": "TAF LRSV 052000Z 0521/0606 VRB04KT CAVOK"
    },
    {
      "icao": "LRTM",
      "alert": "OK",
      "vis_m": 9999,
      "fzfg": false,
      "metar_trigger": false,
      "taf_trigger": false,
      "metar": "METAR LRTM 052230Z 08003KT CAVOK 06/05 Q1022",
      "taf": "TAF LRTM 052000Z 0521/0606 VRB04KT CAVOK"
    },
    {
      "icao": "LRTR",
      "alert": "OK",
      "vis_m": 9999,
      "fzfg": false,
      "metar_trigger": false,
      "taf_trigger": false,
      "metar": "METAR LRTR 052230Z 11006KT CAVOK 07/07 Q1022 NOSIG",
      "taf": "TAF LRTR 051700Z 0518/0618 11006KT CAVOK"
    },
    {
      "icao": "LTAC",
      "alert": "OK",
      "vis_m": 9999,
      "fzfg": false,
      "metar_trigger": false,
      "taf_trigger": false,
      "metar": "METAR LTAC 052220Z 03006KT 9999 SCT040 BKN100 06/03 Q1020 NOSIG RMK RWY21C 03004KT RWY03L 02007KT RWY21R 36005KT RWY03R 03005KT RWY21L 01006KT",
      "taf": "TAF LTAC 051640Z 0518/0618 02009KT 9999 SCT040"
    },
    {
      "icao": "LTFM",
      "alert": "OK",
      "vis_m": 4500,
      "fzfg": false,
      "metar_trigger": false,
      "taf_trigger": false,
      "metar": "METAR LTFM 052220Z 30003KT 260V350 4500 0400N R35R/P1500N R17L/0600N R34L/P1500N R16R/0450N BCFG FEW001 10/08 Q1022 NOSIG RMK RWY17L 28003KT RWY34L VRB01KT RWY16R 25002KT RWY36 VRB02KT RWY18 29006KT 220V300",
      "taf": "TAF LTFM 051640Z 0518/0624 VRB02KT CAVOK"
    },
    {
      "icao": "LUKK",
      "alert": "OK",
      "vis_m": 9999,
      "fzfg": false,
      "metar_trigger": false,
      "taf_trigger": false,
      "metar": "METAR LUKK 052230Z 24003KT CAVOK 07/01 Q1019 NOSIG",
      "taf": "TAF LUKK 051701Z 0518/0618 VRB06KT CAVOK"
    },
    {
      "icao": "LWOH",
      "alert": "OK",
      "vis_m": null,
      "fzfg": false,
      "metar_trigger": false,
      "taf_trigger": false,
      "metar": "",
      "taf": "TAF LWOH 052030Z 0521/0621 33005KT 9999 SCT040"
    },
    {
      "icao": "LWSK",
      "alert": "OK",
      "vis_m": 9999,
      "fzfg": false,
      "metar_trigger": false,
      "taf_trigger": false,
      "metar": "METAR LWSK 052200Z 00000KT CAVOK 07/04 Q1023 NOSIG",
      "taf": "TAF LWSK 052030Z 0521/0621 VRB02KT CAVOK"
    },
    {
      "icao": "LYBE",
      "alert": "OK",
      "vis_m": 9999,
      "fzfg": false,
      "metar_trigger": false,
      "taf_trigger": false,
      "metar": "METAR LYBE 052230Z 18006KT CAVOK 11/07 Q1022 NOSIG",
      "taf": "TAF LYBE 051700Z 0518/0618 24005KT CAVOK TX22/0613Z TN07/0605Z"
    },
    {
      "icao": "LYNI",
      "alert": "OK",
      "vis_m": 9999,
      "fzfg": false,
      "metar_trigger": false,
      "taf_trigger": false,
      "metar": "METAR LYNI 052230Z 08004KT CAVOK 09/06 Q1023 NOSIG",
      "taf": "TAF LYNI 051700Z 0518/0618 32005KT CAVOK TX21/0613Z TN05/0605Z"
    },
    {
      "icao": "LYPG",
      "alert": "OK",
      "vis_m": 9999,
      "fzfg": false,
      "metar_trigger": false,
      "taf_trigger": false,
      "metar": "METAR LYPG 052230Z 33003KT CAVOK 11/04 Q1023 NOSIG",
      "taf": "TAF LYPG 051700Z 0518/0618 36008KT CAVOK TX23/0612Z TN08/0604Z"
    },
    {
      "icao": "LZIB",
      "alert": "OK",
      "vis_m": 9999,
      "fzfg": false,
      "metar_trigger": false,
      "taf_trigger": false,
      "metar": "METAR LZIB 052230Z VRB03KT CAVOK 14/10 Q1018 BECMG 29012KT",
      "taf": ""
    },
    {
      "icao": "LZKZ",
      "alert": "OK",
      "vis_m": 9999,
      "fzfg": false,
      "metar_trigger": false,
      "taf_trigger": false,
      "metar": "METAR LZKZ 052230Z 19009KT CAVOK 11/07 Q1018 NOSIG",
      "taf": "TAF LZKZ 051715Z 0518/0618 24009KT CAVOK"
    },
    {
      "icao": "LZTT",
      "alert": "OK",
      "vis_m": 9999,
      "fzfg": false,
      "metar_trigger": false,
      "taf_trigger": false,
      "metar": "METAR LZTT 052230Z 23007KT 200V290 9999 FEW063 SCT076 11/05 Q1018",
      "taf": "TAF LZTT 051715Z 0518/0618 26008KT 9999 FEW040"
    },
    {
      "icao": "OEJN",
      "alert": "OK",
      "vis_m": 9999,
      "fzfg": false,
      "metar_trigger": false,
      "taf_trigger": false,
      "metar": "METAR OEJN 052200Z 33008KT CAVOK 25/17 Q1013 NOSIG",
      "taf": "TAF OEJN 051700Z 0518/0624 35010KT 7000 FEW040"
    },
    {
      "icao": "OEMA",
      "alert": "OK",
      "vis_m": 9000,
      "fzfg": false,
      "metar_trigger": false,
      "taf_trigger": false,
      "metar": "METAR OEMA 052200Z 35005KT 9000 SCT045 26/M02 Q1017 NOSIG",
      "taf": "TAF OEMA 051700Z 0518/0624 32010KT 7000 SCT045"
    },
    {
      "icao": "OJAI",
      "alert": "OK",
      "vis_m": 4000,
      "fzfg": false,
      "metar_trigger": false,
      "taf_trigger": false,
      "metar": "METAR OJAI 052200Z 06003KT 4000 BR NSC 07/05 Q1020 NOSIG",
      "taf": "TAF OJAI 051700Z 0518/0624 28012KT 5000 HZ FEW025TCU SCT030"
    },
    {
      "icao": "OMAA",
      "alert": "OK",
      "vis_m": null,
      "fzfg": false,
      "metar_trigger": false,
      "taf_trigger": false,
      "metar": "",
      "taf": ""
    },
    {
      "icao": "OMDB",
      "alert": "OK",
      "vis_m": null,
      "fzfg": false,
      "metar_trigger": false,
      "taf_trigger": false,
      "metar": "",
      "taf": ""
    },
    {
      "icao": "UAAA",
      "alert": "OK",
      "vis_m": 9999,
      "fzfg": false,
      "metar_trigger": false,
      "taf_trigger": false,
      "metar": "METAR UAAA 052230Z 27002MPS 210V310 9999 FEW050CB SCT100 BKN200 13/07 Q1009 NOSIG",
      "taf": "TAF UAAA 051706Z 0518/0618 24003MPS 9999 SCT050CB BKN100 TX24/0610Z TN12/0601Z"
    },
    {
      "icao": "UBBB",
      "alert": "OK",
      "vis_m": 9999,
      "fzfg": false,
      "metar_trigger": false,
      "taf_trigger": false,
      "metar": "METAR UBBB 052230Z 30024G36KT 9999 -SHRA FEW015 BKN040CB OVC040 11/10 Q1008 WS R35 NOSIG",
      "taf": "TAF UBBB 051704Z 0518/0618 30024G34KT 9999 SCT010 SCT030CB OVC030 TX13/0611Z TN09/0600Z"
    },
    {
      "icao": "UDSG",
      "alert": "OK",
      "vis_m": 9999,
      "fzfg": false,
      "metar_trigger": false,
      "taf_trigger": false,
      "metar": "METAR UDSG 052230Z 32010KT 9999 NSC 04/M02 Q1016 NOSIG",
      "taf": "TAF UDSG 051658Z 0518/0618 VRB06KT 9999 SCT040"
    },
    {
      "icao": "UDYZ",
      "alert": "OK",
      "vis_m": 9999,
      "fzfg": false,
      "metar_trigger": false,
      "taf_trigger": false,
      "metar": "METAR UDYZ 052230Z 26003KT 9999 FEW046 06/01 Q1013 NOSIG",
      "taf": "TAF UDYZ 051700Z 0518/0618 VRB06KT 9999 FEW040"
    },
    {
      "icao": "UGKO",
      "alert": "OK",
      "vis_m": 9999,
      "fzfg": false,
      "metar_trigger": false,
      "taf_trigger": false,
      "metar": "METAR UGKO 052230Z 28007KT 9999 SCT020 OVC030 10/09 Q1018 NOSIG",
      "taf": "TAF UGKO 051700Z 0518/0618 25007KT 9999 SCT020 OVC050 TX13/0611Z TN09/0603Z"
    }
  ]
}