{
  "ts_utc": "2026-02-18T14:37:14Z",
  "threshold_m": 150,
  "source": "stations_override.txt (ICAO list) + aviationweather.gov (METAR/TAF raw)",
  "station_count": 159,
  "stations": [
    {
      "icao": "BIKF",
      "alert": "OK",
      "vis_m": 9999,
      "fzfg": false,
      "metar_trigger": false,
      "taf_trigger": false,
      "metar": "METAR BIKF 181430Z 06012KT CAVOK M01/M10 Q1009",
      "taf": "TAF BIKF 181331Z 1815/1915 06017KT 9999 FEW025 BKN045 TX00/1915Z TNM04/1824Z"
    },
    {
      "icao": "BKPR",
      "alert": "OK",
      "vis_m": 9999,
      "fzfg": false,
      "metar_trigger": false,
      "taf_trigger": false,
      "metar": "METAR BKPR 181430Z 32017KT 9999 FEW050 07/M04 Q1013 NOSIG",
      "taf": "TAF BKPR 181130Z 1812/1912 32015KT 9999 FEW040"
    },
    {
      "icao": "EBCI",
      "alert": "OK",
      "vis_m": 9999,
      "fzfg": false,
      "metar_trigger": false,
      "taf_trigger": false,
      "metar": "METAR EBCI 181420Z 10011KT CAVOK 06/M03 Q1004 NOSIG",
      "taf": "TAF EBCI 181103Z 1812/1918 10008KT 9999 FEW020"
    },
    {
      "icao": "EDDB",
      "alert": "OK",
      "vis_m": 9999,
      "fzfg": false,
      "metar_trigger": false,
      "taf_trigger": false,
      "metar": "METAR EDDB 181420Z AUTO 34004KT 9999 OVC023 M01/M05 Q1014 NOSIG",
      "taf": "TAF EDDB 181100Z 1812/1912 35004KT 9999 SCT015 BKN030"
    },
    {
      "icao": "EDDH",
      "alert": "OK",
      "vis_m": 9999,
      "fzfg": false,
      "metar_trigger": false,
      "taf_trigger": false,
      "metar": "METAR EDDH 181420Z AUTO VRB02KT CAVOK 02/M06 Q1015 NOSIG",
      "taf": "TAF EDDH 181100Z 1812/1918 36004KT 9999 SCT015 BKN020"
    },
    {
      "icao": "EDDK",
      "alert": "OK",
      "vis_m": 9999,
      "fzfg": false,
      "metar_trigger": false,
      "taf_trigger": false,
      "metar": "METAR EDDK 181420Z AUTO 10009KT 080V150 CAVOK 06/M02 Q1009 NOSIG",
      "taf": "TAF EDDK 181100Z 1812/1918 11008KT 9999 BKN025"
    },
    {
      "icao": "EDDN",
      "alert": "OK",
      "vis_m": 9999,
      "fzfg": false,
      "metar_trigger": false,
      "taf_trigger": false,
      "metar": "METAR EDDN 181420Z AUTO 24004KT 200V320 9999 OVC038 04/M04 Q1011 BECMG 08005KT",
      "taf": "TAF EDDN 181100Z 1812/1912 27006KT 9999 BKN025"
    },
    {
      "icao": "EDDS",
      "alert": "OK",
      "vis_m": 9999,
      "fzfg": false,
      "metar_trigger": false,
      "taf_trigger": false,
      "metar": "METAR EDDS 181420Z AUTO 09006KT 060V130 9999 FEW035 SCT047 04/M02 Q1009 NOSIG",
      "taf": "TAF EDDS 181100Z 1812/1912 09005KT 9999 SCT020 BKN045"
    },
    {
      "icao": "EDFH",
      "alert": "OK",
      "vis_m": 9999,
      "fzfg": false,
      "metar_trigger": false,
      "taf_trigger": false,
      "metar": "METAR EDFH 181420Z 11011KT 070V150 CAVOK 03/M02 Q1007",
      "taf": "TAF EDFH 181100Z 1812/1912 14007KT 9999 FEW015"
    },
    {
      "icao": "EDJA",
      "alert": "OK",
      "vis_m": 9999,
      "fzfg": false,
      "metar_trigger": false,
      "taf_trigger": false,
      "metar": "METAR EDJA 181420Z 19004KT 9999 -SN BKN036 OVC042 02/M00 Q1009",
      "taf": "TAF EDJA 181400Z 1815/1824 21005KT 9999 FEW015 BKN030"
    },
    {
      "icao": "EDLW",
      "alert": "OK",
      "vis_m": 9999,
      "fzfg": false,
      "metar_trigger": false,
      "taf_trigger": false,
      "metar": "METAR EDLW 181420Z 03012KT 9999 FEW017 SCT025 02/M01 Q1010",
      "taf": "TAF EDLW 181100Z 1812/1912 08008KT 9999 SCT012 BKN020"
    },
    {
      "icao": "EDNY",
      "alert": "OK",
      "vis_m": 2500,
      "fzfg": false,
      "metar_trigger": false,
      "taf_trigger": false,
      "metar": "METAR EDNY 181420Z 08003KT 050V120 2500 SN BR FEW005 SCT021 OVC028 01/00 Q1010",
      "taf": "TAF EDNY 181400Z 1815/1824 05004KT 9000 FEW008 OVC020"
    },
    {
      "icao": "EDSB",
      "alert": "OK",
      "vis_m": 9999,
      "fzfg": false,
      "metar_trigger": false,
      "taf_trigger": false,
      "metar": "METAR EDSB 181420Z 03008KT 9999 -RA SCT044 06/00 Q1009",
      "taf": "TAF EDSB 181100Z 1812/1912 02005KT 9999 SCT020 BKN035"
    },
    {
      "icao": "EETN",
      "alert": "OK",
      "vis_m": 9999,
      "fzfg": false,
      "metar_trigger": false,
      "taf_trigger": false,
      "metar": "METAR EETN 181420Z 11009KT CAVOK M08/M14 Q1013 NOSIG",
      "taf": "TAF EETN 181130Z 1812/1912 14010KT CAVOK"
    },
    {
      "icao": "EFTU",
      "alert": "OK",
      "vis_m": 9999,
      "fzfg": false,
      "metar_trigger": false,
      "taf_trigger": false,
      "metar": "METAR EFTU 181420Z AUTO 11006KT CAVOK M08/M11 Q1012",
      "taf": "TAF EFTU 181127Z 1812/1912 10006KT CAVOK"
    },
    {
      "icao": "EGBB",
      "alert": "OK",
      "vis_m": 9999,
      "fzfg": false,
      "metar_trigger": false,
      "taf_trigger": false,
      "metar": "METAR EGBB 181420Z 11015KT 9999 OVC029 05/M01 Q0999",
      "taf": "TAF EGBB 181058Z 1812/1912 11012KT 9999 SCT025"
    },
    {
      "icao": "EGGP",
      "alert": "OK",
      "vis_m": 9999,
      "fzfg": false,
      "metar_trigger": false,
      "taf_trigger": false,
      "metar": "METAR EGGP 181420Z 12018KT 9999 BKN032 05/M01 Q0999",
      "taf": "TAF EGGP 181103Z 1812/1912 11012KT 9999 FEW040"
    },
    {
      "icao": "EGGW",
      "alert": "OK",
      "vis_m": 9999,
      "fzfg": false,
      "metar_trigger": false,
      "taf_trigger": false,
      "metar": "METAR EGGW 181420Z AUTO 11020KT 9999 BKN023 OVC028 04/M00 Q0999",
      "taf": "TAF EGGW 181055Z 1812/1912 11017G27KT 9999 SCT020"
    },
    {
      "icao": "EGKK",
      "alert": "OK",
      "vis_m": 9999,
      "fzfg": false,
      "metar_trigger": false,
      "taf_trigger": false,
      "metar": "METAR EGKK 181420Z 10013KT 9999 BKN019 06/02 Q0999",
      "taf": "TAF EGKK 181053Z 1812/1918 10012KT 9999 BKN020"
    },
    {
      "icao": "EGNM",
      "alert": "OK",
      "vis_m": 9999,
      "fzfg": false,
      "metar_trigger": false,
      "taf_trigger": false,
      "metar": "METAR EGNM 181420Z 11016KT 9999 SCT025 BKN029 03/M01 Q1002",
      "taf": "TAF EGNM 181102Z 1812/1912 12010KT 9999 SCT012 BKN025"
    },
    {
      "icao": "EGPD",
      "alert": "OK",
      "vis_m": 9999,
      "fzfg": false,
      "metar_trigger": false,
      "taf_trigger": false,
      "metar": "METAR EGPD 181420Z COR AUTO 15017KT 9999 SCT030 BKN041 05/M01 Q1005 NOSIG",
      "taf": "TAF EGPD 181059Z 1812/1912 14012KT 9999 SCT040"
    },
    {
      "icao": "EGPF",
      "alert": "OK",
      "vis_m": 9999,
      "fzfg": false,
      "metar_trigger": false,
      "taf_trigger": false,
      "metar": "METAR EGPF 181420Z AUTO 10015G32KT 020V120 9999 SCT034 05/M01 Q1001",
      "taf": "TAF EGPF 181055Z 1812/1912 09009KT 9999 SCT040"
    },
    {
      "icao": "EHBK",
      "alert": "OK",
      "vis_m": 9999,
      "fzfg": false,
      "metar_trigger": false,
      "taf_trigger": false,
      "metar": "METAR EHBK 181425Z AUTO 08012KT 050V130 9999 NSC 06/00 Q1007 NOSIG",
      "taf": "TAF EHBK 181101Z 1812/1918 09010KT CAVOK"
    },
    {
      "icao": "EHEH",
      "alert": "OK",
      "vis_m": 9999,
      "fzfg": false,
      "metar_trigger": false,
      "taf_trigger": false,
      "metar": "METAR EHEH 181425Z AUTO 07013KT 050V140 9999 FEW025 SCT310 05/M01 Q1008 BLU NOSIG",
      "taf": ""
    },
    {
      "icao": "EKBI",
      "alert": "OK",
      "vis_m": 9999,
      "fzfg": false,
      "metar_trigger": false,
      "taf_trigger": false,
      "metar": "METAR EKBI 181420Z AUTO 25008KT 9999 BKN020/// M01/M04 Q1014",
      "taf": "TAF EKBI 181427Z 1815/1915 23007KT 9999 SCT020"
    },
    {
      "icao": "EKCH",
      "alert": "OK",
      "vis_m": 9999,
      "fzfg": false,
      "metar_trigger": false,
      "taf_trigger": false,
      "metar": "METAR EKCH 181420Z AUTO 27006KT 240V300 9999 FEW017/// FEW039/// M01/M06 Q1013 NOSIG",
      "taf": "TAF EKCH 181427Z 1815/1915 28008KT 9999 BKN020"
    },
    {
      "icao": "ENAL",
      "alert": "OK",
      "vis_m": 9999,
      "fzfg": false,
      "metar_trigger": false,
      "taf_trigger": false,
      "metar": "METAR ENAL 181420Z 22011KT 9999 VCSH FEW008 SCT014 BKN035 02/M04 Q1008",
      "taf": "TAF ENAL 181400Z 1815/1824 21010KT 9999 -SHSN FEW015CB BKN028"
    },
    {
      "icao": "ENBR",
      "alert": "OK",
      "vis_m": 9999,
      "fzfg": false,
      "metar_trigger": false,
      "taf_trigger": false,
      "metar": "METAR ENBR 181420Z 14002KT 9999 VCSH FEW010 BKN046 01/M01 Q1011 NOSIG RMK WIND 1200FT 09003KT",
      "taf": "TAF ENBR 181100Z 1812/1912 VRB05KT 9999 -SHSN FEW010 BKN020"
    },
    {
      "icao": "ENGM",
      "alert": "OK",
      "vis_m": 9999,
      "fzfg": false,
      "metar_trigger": false,
      "taf_trigger": false,
      "metar": "METAR ENGM 181420Z 00000KT 9999 -SHSN NSC M06/M10 Q1009 NOSIG",
      "taf": "TAF ENGM 181100Z 1812/1912 VRB03KT 9999 FEW030"
    },
    {
      "icao": "ENHD",
      "alert": "OK",
      "vis_m": 9999,
      "fzfg": false,
      "metar_trigger": false,
      "taf_trigger": false,
      "metar": "METAR ENHD 181420Z 11004KT 9999 FEW010 SCT024 04/M01 Q1011",
      "taf": "TAF ENHD 181400Z 1815/1823 10005KT 9999 FEW012 SCT025"
    },
    {
      "icao": "ENTC",
      "alert": "OK",
      "vis_m": 9999,
      "fzfg": false,
      "metar_trigger": false,
      "taf_trigger": false,
      "metar": "METAR ENTC 181420Z 25007KT 9999 BKN015 M05/M07 Q1005 TEMPO BKN012 TEMPO BKN012 RMK WIND 2600FT 11009KT",
      "taf": "TAF ENTC 181100Z 1812/1912 21008KT 9999 SCT012 BKN020"
    },
    {
      "icao": "ENTO",
      "alert": "OK",
      "vis_m": 9999,
      "fzfg": false,
      "metar_trigger": false,
      "taf_trigger": false,
      "metar": "METAR ENTO 181420Z 22006KT 9999 BKN045 M04/M07 Q1010 NOSIG",
      "taf": "TAF ENTO 181100Z 1812/1912 VRB03KT CAVOK"
    },
    {
      "icao": "ENVA",
      "alert": "OK",
      "vis_m": 9999,
      "fzfg": false,
      "metar_trigger": false,
      "taf_trigger": false,
      "metar": "METAR ENVA 181420Z VRB01KT 9999 SCT042 01/M11 Q1008 TEMPO 1400 SHSN VV014 RMK WIND 670FT 20009KT",
      "taf": "TAF ENVA 181100Z 1812/1912 09005KT 9999 FEW020 SCT030"
    },
    {
      "icao": "ENZV",
      "alert": "OK",
      "vis_m": 9999,
      "fzfg": false,
      "metar_trigger": false,
      "taf_trigger": false,
      "metar": "METAR ENZV 181420Z 32004KT 300V020 9999 FEW020 BKN025 BKN033 03/01 Q1011 NOSIG",
      "taf": "TAF ENZV 181100Z 1812/1912 34009KT 9999 FEW012 BKN025"
    },
    {
      "icao": "EPGD",
      "alert": "OK",
      "vis_m": 9999,
      "fzfg": false,
      "metar_trigger": false,
      "taf_trigger": false,
      "metar": "METAR EPGD 181430Z 29015KT 9999 -SN BKN030 M04/M07 Q1010",
      "taf": "TAF EPGD 181130Z 1812/1912 27010KT 9999 SCT037"
    },
    {
      "icao": "EPKK",
      "alert": "OK",
      "vis_m": 6000,
      "fzfg": false,
      "metar_trigger": false,
      "taf_trigger": false,
      "metar": "METAR EPKK 181430Z 22003KT 6000 -SHSN SCT015CB BKN026 01/M00 Q1010",
      "taf": "TAF EPKK 181430Z 1815/1915 29007KT 9999 BKN025"
    },
    {
      "icao": "EPKT",
      "alert": "OK",
      "vis_m": 9999,
      "fzfg": false,
      "metar_trigger": false,
      "taf_trigger": false,
      "metar": "METAR EPKT 181430Z 32006KT 9999 SCT016 BKN021 01/M02 Q1009",
      "taf": "TAF EPKT 181130Z 1812/1912 29007KT 9999 BKN035"
    },
    {
      "icao": "EPLB",
      "alert": "OK",
      "vis_m": 3700,
      "fzfg": false,
      "metar_trigger": false,
      "taf_trigger": false,
      "metar": "METAR EPLB 181430Z 16003KT 3700 -SN BR FEW012 OVC023 M01/M03 Q1009",
      "taf": "TAF EPLB 181130Z 1812/1912 VRB04KT 9999 BKN020"
    },
    {
      "icao": "EPMO",
      "alert": "OK",
      "vis_m": 9000,
      "fzfg": false,
      "metar_trigger": false,
      "taf_trigger": false,
      "metar": "METAR EPMO 181430Z 28009KT 9000 BKN016 M04/M07 Q1011",
      "taf": "TAF EPMO 181130Z 1812/1912 30010KT 8000 BKN020"
    },
    {
      "icao": "EPPO",
      "alert": "OK",
      "vis_m": 9999,
      "fzfg": false,
      "metar_trigger": false,
      "taf_trigger": false,
      "metar": "METAR EPPO 181430Z 29006KT 9999 FEW026 M01/M07 Q1012",
      "taf": "TAF EPPO 181130Z 1812/1912 34006KT 9999 SCT030"
    },
    {
      "icao": "EPRA",
      "alert": "OK",
      "vis_m": 2500,
      "fzfg": false,
      "metar_trigger": false,
      "taf_trigger": false,
      "metar": "METAR EPRA 181430Z 34009KT 2500 -SN BR OVC005 M01/M03 Q1009",
      "taf": "TAF EPRA 181430Z 1815/1824 32008KT 4000 -SN BR OVC007"
    },
    {
      "icao": "EPRZ",
      "alert": "OK",
      "vis_m": 2000,
      "fzfg": false,
      "metar_trigger": false,
      "taf_trigger": false,
      "metar": "METAR EPRZ 181430Z 25006KT 2000 -SHSN BR BKN013CB 01/M00 Q1009",
      "taf": "TAF EPRZ 181130Z 1812/1912 07004KT 9999 BKN035"
    },
    {
      "icao": "EPSC",
      "alert": "OK",
      "vis_m": 9999,
      "fzfg": false,
      "metar_trigger": false,
      "taf_trigger": false,
      "metar": "METAR EPSC 181430Z 30011KT 9999 BKN030 M02/M09 Q1013",
      "taf": "TAF EPSC 181130Z 1812/1912 29012KT 7000 SCT017 BKN030"
    },
    {
      "icao": "EPSY",
      "alert": "OK",
      "vis_m": 9999,
      "fzfg": false,
      "metar_trigger": false,
      "taf_trigger": false,
      "metar": "METAR EPSY 181430Z 26004KT 9999 FEW016 M05/M09 Q1010",
      "taf": "TAF EPSY 181430Z 1815/1824 27006KT 8000 SCT023"
    },
    {
      "icao": "EPWA",
      "alert": "OK",
      "vis_m": 9000,
      "fzfg": false,
      "metar_trigger": false,
      "taf_trigger": false,
      "metar": "METAR EPWA 181430Z 32009KT 9000 BKN018 M03/M05 Q1011 NOSIG",
      "taf": "TAF EPWA 181430Z 1815/1915 33010KT 8000 BKN020"
    },
    {
      "icao": "EPWR",
      "alert": "OK",
      "vis_m": 3500,
      "fzfg": false,
      "metar_trigger": false,
      "taf_trigger": false,
      "metar": "METAR EPWR 181430Z 34007KT 3500 BR OVC009 M01/M03 Q1012",
      "taf": "TAF EPWR 181430Z 1815/1915 34006KT 3000 BR BKN010"
    },
    {
      "icao": "ESGG",
      "alert": "OK",
      "vis_m": 9999,
      "fzfg": false,
      "metar_trigger": false,
      "taf_trigger": false,
      "metar": "METAR ESGG 181420Z 24005KT CAVOK M03/M11 Q1010",
      "taf": "TAF ESGG 181430Z 1815/1915 25003KT CAVOK"
    },
    {
      "icao": "ESKN",
      "alert": "OK",
      "vis_m": 9999,
      "fzfg": false,
      "metar_trigger": false,
      "taf_trigger": false,
      "metar": "METAR ESKN 181420Z 30006KT 9999 BKN030 M04/M10 Q1010",
      "taf": "TAF ESKN 181430Z 1815/1915 32006KT 9999 BKN030"
    },
    {
      "icao": "ESMS",
      "alert": "OK",
      "vis_m": 9999,
      "fzfg": false,
      "metar_trigger": false,
      "taf_trigger": false,
      "metar": "METAR ESMS 181420Z 30010KT 9999 BKN017 M02/M05 Q1012",
      "taf": "TAF ESMS 181427Z 1815/1915 30008KT 9999 BKN018"
    },
    {
      "icao": "ESSA",
      "alert": "OK",
      "vis_m": 9999,
      "fzfg": false,
      "metar_trigger": false,
      "taf_trigger": false,
      "metar": "METAR ESSA 181420Z 32003KT 9999 SCT029 M04/M10 Q1010 NOSIG",
      "taf": "TAF ESSA 181430Z 1815/1915 36004KT 9999 SCT030"
    },
    {
      "icao": "EYKA",
      "alert": "OK",
      "vis_m": 9999,
      "fzfg": false,
      "metar_trigger": false,
      "taf_trigger": false,
      "metar": "METAR EYKA 181420Z 15005G16KT 060V180 9999 OVC015 M07/M11 Q1010",
      "taf": ""
    },
    {
      "icao": "EYPA",
      "alert": "OK",
      "vis_m": 3600,
      "fzfg": false,
      "metar_trigger": false,
      "taf_trigger": false,
      "metar": "METAR EYPA 181420Z 15008KT 3600 SHSN BKN026CB M05/M07 Q1008",
      "taf": "TAF EYPA 181100Z 1812/1912 VRB05KT 5000 BR SCT015 BKN025"
    },
    {
      "icao": "EYVI",
      "alert": "OK",
      "vis_m": 9999,
      "fzfg": false,
      "metar_trigger": false,
      "taf_trigger": false,
      "metar": "METAR EYVI 181420Z 15007KT 9999 -SN OVC017 M07/M13 Q1010 NOSIG",
      "taf": "TAF EYVI 181101Z 1812/1912 VRB04KT 9000 OVC020"
    },
    {
      "icao": "GCFV",
      "alert": "OK",
      "vis_m": 9999,
      "fzfg": false,
      "metar_trigger": false,
      "taf_trigger": false,
      "metar": "METAR GCFV 181430Z 03014KT 360V060 9999 FEW017 19/12 Q1022",
      "taf": "TAF GCFV 181400Z 1815/1915 03015KT 9999 FEW020 TX19/1914Z TN16/1906Z"
    },
    {
      "icao": "GCLP",
      "alert": "OK",
      "vis_m": 9999,
      "fzfg": false,
      "metar_trigger": false,
      "taf_trigger": false,
      "metar": "METAR GCLP 181430Z 03022KT 9999 FEW025 20/13 Q1022 NOSIG",
      "taf": "TAF GCLP 181400Z 1815/1915 03020KT 9999 FEW020 TX20/1914Z TN14/1906Z"
    },
    {
      "icao": "GCTS",
      "alert": "OK",
      "vis_m": 9999,
      "fzfg": false,
      "metar_trigger": false,
      "taf_trigger": false,
      "metar": "METAR GCTS 181430Z 10018KT 070V130 CAVOK 22/13 Q1022 WS R07 NOSIG",
      "taf": "TAF GCTS 181400Z 1815/1915 08020KT CAVOK TX24/1914Z TN16/1906Z"
    },
    {
      "icao": "GMAD",
      "alert": "OK",
      "vis_m": 9999,
      "fzfg": false,
      "metar_trigger": false,
      "taf_trigger": false,
      "metar": "METAR GMAD 181430Z 25011KT CAVOK 23/10 Q1020 NOSIG",
      "taf": "TAF GMAD 181100Z 1812/1918 25003KT CAVOK"
    },
    {
      "icao": "GMMN",
      "alert": "OK",
      "vis_m": 6000,
      "fzfg": false,
      "metar_trigger": false,
      "taf_trigger": false,
      "metar": "METAR GMMN 181430Z 36007KT 300V030 6000 BKN016 16/13 Q1023 NOSIG",
      "taf": "TAF GMMN 181100Z 1812/1918 09010KT 9999 BKN016"
    },
    {
      "icao": "GMMX",
      "alert": "OK",
      "vis_m": 9999,
      "fzfg": false,
      "metar_trigger": false,
      "taf_trigger": false,
      "metar": "METAR GMMX 181430Z VRB04KT CAVOK 25/09 Q1021 NOSIG",
      "taf": "TAF GMMX 181100Z 1812/1918 28006KT 8000 NSC"
    },
    {
      "icao": "HEGN",
      "alert": "OK",
      "vis_m": 9999,
      "fzfg": false,
      "metar_trigger": false,
      "taf_trigger": false,
      "metar": "METAR HEGN 181400Z 01013KT CAVOK 25/06 Q1013 NOSIG",
      "taf": "TAF HEGN 181100Z 1812/1918 35012G22KT CAVOK"
    },
    {
      "icao": "HEMA",
      "alert": "OK",
      "vis_m": 9999,
      "fzfg": false,
      "metar_trigger": false,
      "taf_trigger": false,
      "metar": "METAR HEMA 181400Z 35012KT CAVOK 24/08 Q1012 NOSIG",
      "taf": "TAF HEMA 181100Z 1812/1918 34012G22KT CAVOK"
    },
    {
      "icao": "HESH",
      "alert": "OK",
      "vis_m": null,
      "fzfg": false,
      "metar_trigger": false,
      "taf_trigger": false,
      "metar": "",
      "taf": "TAF HESH 181100Z 1812/1918 02015KT CAVOK"
    },
    {
      "icao": "HESX",
      "alert": "OK",
      "vis_m": 9999,
      "fzfg": false,
      "metar_trigger": false,
      "taf_trigger": false,
      "metar": "METAR HESX 181400Z 29015KT CAVOK 18/03 Q1015 NOSIG",
      "taf": "TAF HESX 181100Z 1812/1918 27013G25KT 9999 SCT030"
    },
    {
      "icao": "LATI",
      "alert": "OK",
      "vis_m": 9999,
      "fzfg": false,
      "metar_trigger": false,
      "taf_trigger": false,
      "metar": "METAR LATI 181420Z 35007KT 320V030 CAVOK 12/M02 Q1015 NOSIG",
      "taf": "TAF LATI 181100Z 1812/1912 33010KT CAVOK TX17/1912Z TN02/1905Z"
    },
    {
      "icao": "LBPD",
      "alert": "OK",
      "vis_m": 9999,
      "fzfg": false,
      "metar_trigger": false,
      "taf_trigger": false,
      "metar": "METAR LBPD 181430Z AUTO 29025G35KT 9999 NCD 09/M02 Q1009 NOSIG",
      "taf": "TAF LBPD 181100Z 1812/1912 28026G38KT 9999 SCT050"
    },
    {
      "icao": "LBSF",
      "alert": "OK",
      "vis_m": 9999,
      "fzfg": false,
      "metar_trigger": false,
      "taf_trigger": false,
      "metar": "METAR LBSF 181430Z 29017KT 9999 SCT029 04/M02 Q1011 NOSIG",
      "taf": "TAF LBSF 181100Z 1812/1912 28026G38KT 9999 SCT025 BKN040"
    },
    {
      "icao": "LBWN",
      "alert": "OK",
      "vis_m": 3100,
      "fzfg": false,
      "metar_trigger": false,
      "taf_trigger": false,
      "metar": "METAR LBWN 181430Z 32011KT 300V360 3100 -SNRA SCT025 OVC033 M00/M01 Q1006 TEMPO 3000 SN BKN006",
      "taf": "TAF LBWN 181100Z 1812/1912 33018G32KT 7000 -SN BKN015 OVC030"
    },
    {
      "icao": "LCLK",
      "alert": "OK",
      "vis_m": 9999,
      "fzfg": false,
      "metar_trigger": false,
      "taf_trigger": false,
      "metar": "METAR LCLK 181430Z 23019KT 9999 FEW030 SCT050 17/08 Q1008 NOSIG",
      "taf": "TAF LCLK 181130Z 1812/1912 23022KT 8000 FEW025 FEW030TCU SCT035"
    },
    {
      "icao": "LCPH",
      "alert": "OK",
      "vis_m": 9999,
      "fzfg": false,
      "metar_trigger": false,
      "taf_trigger": false,
      "metar": "METAR LCPH 181430Z 31026KT 9999 SCT027TCU SCT042 16/10 Q1009 RERA TEMPO 4000 SHRA",
      "taf": "TAF LCPH 181130Z 1812/1912 26026KT 8000 SCT020 FEW025TCU BKN035"
    },
    {
      "icao": "LEAL",
      "alert": "OK",
      "vis_m": 9999,
      "fzfg": false,
      "metar_trigger": false,
      "taf_trigger": false,
      "metar": "METAR LEAL 181430Z 19011KT 150V230 CAVOK 18/11 Q1014 NOSIG",
      "taf": "TAF LEAL 181100Z 1812/1912 19010KT 9999 FEW030 TX21/1813Z TN12/1906Z"
    },
    {
      "icao": "LEBB",
      "alert": "OK",
      "vis_m": 9999,
      "fzfg": false,
      "metar_trigger": false,
      "taf_trigger": false,
      "metar": "METAR LEBB 181430Z 21017G35KT 160V260 9999 FEW030 19/06 Q1003 NOSIG",
      "taf": ""
    },
    {
      "icao": "LEBL",
      "alert": "OK",
      "vis_m": 9999,
      "fzfg": false,
      "metar_trigger": false,
      "taf_trigger": false,
      "metar": "METAR LEBL 181430Z 21012KT 9999 FEW015 15/11 Q1010 NOSIG",
      "taf": "TAF LEBL 181100Z 1812/1912 22010KT 9999 FEW015 TX17/1813Z TN11/1906Z"
    },
    {
      "icao": "LECH",
      "alert": "OK",
      "vis_m": 9000,
      "fzfg": false,
      "metar_trigger": false,
      "taf_trigger": false,
      "metar": "METAR LECH 181430Z AUTO 09008KT 050V110 9000 NCD 14/11 Q1011",
      "taf": ""
    },
    {
      "icao": "LEMD",
      "alert": "OK",
      "vis_m": 9999,
      "fzfg": false,
      "metar_trigger": false,
      "taf_trigger": false,
      "metar": "METAR LEMD 181430Z 22017KT 9999 FEW035 12/04 Q1014 NOSIG",
      "taf": "TAF LEMD 181100Z 1812/1918 22012KT 9999 SCT025 TX13/1915Z TN03/1906Z"
    },
    {
      "icao": "LEMG",
      "alert": "OK",
      "vis_m": 9999,
      "fzfg": false,
      "metar_trigger": false,
      "taf_trigger": false,
      "metar": "METAR LEMG 181430Z 31009KT CAVOK 20/09 Q1018 NOSIG",
      "taf": "TAF LEMG 181100Z 1812/1912 26010KT CAVOK TX23/1814Z TN11/1907Z"
    },
    {
      "icao": "LEVC",
      "alert": "OK",
      "vis_m": 9999,
      "fzfg": false,
      "metar_trigger": false,
      "taf_trigger": false,
      "metar": "METAR LEVC 181430Z 26020KT CAVOK 20/04 Q1012 NOSIG",
      "taf": "TAF LEVC 181100Z 1812/1912 27014KT 9999 FEW035 TX23/1814Z TN12/1906Z"
    },
    {
      "icao": "LEXJ",
      "alert": "OK",
      "vis_m": 5000,
      "fzfg": false,
      "metar_trigger": false,
      "taf_trigger": false,
      "metar": "METAR LEXJ 181430Z 34017G27KT 300V010 5000 SHRA SCT050TCU SCT075 13/09 Q1005",
      "taf": "TAF LEXJ 181400Z 1815/1915 28009KT 9999 FEW030 BKN060 TX17/1815Z TN08/1903Z"
    },
    {
      "icao": "LEZG",
      "alert": "OK",
      "vis_m": 9999,
      "fzfg": false,
      "metar_trigger": false,
      "taf_trigger": false,
      "metar": "METAR LEZG 181430Z 24022KT 9999 FEW050 17/05 Q1010 NOSIG",
      "taf": "TAF LEZG 181100Z 1812/1912 25009KT 9999 FEW040 TX19/1814Z TN07/1906Z"
    },
    {
      "icao": "LEZL",
      "alert": "OK",
      "vis_m": 9999,
      "fzfg": false,
      "metar_trigger": false,
      "taf_trigger": false,
      "metar": "METAR LEZL 181430Z 29005KT 210V330 9999 FEW034 17/10 Q1020 NOSIG",
      "taf": "TAF LEZL 181400Z 1815/1915 25010KT 9999 SCT030 TX21/1815Z TN08/1907Z"
    },
    {
      "icao": "LFBD",
      "alert": "OK",
      "vis_m": 9999,
      "fzfg": false,
      "metar_trigger": false,
      "taf_trigger": false,
      "metar": "METAR LFBD 181430Z AUTO 19014KT 9999 FEW048 BKN058 BKN120 17/08 Q1002 TEMPO VRB25G50KT 1500 TSRA BKN008 BKN020CB",
      "taf": "TAF LFBD 181100Z 1812/1918 20010KT 9999 BKN040 TX16/1815Z TN08/1903Z"
    },
    {
      "icao": "LFLL",
      "alert": "OK",
      "vis_m": 9999,
      "fzfg": false,
      "metar_trigger": false,
      "taf_trigger": false,
      "metar": "METAR LFLL 181430Z 17011KT 140V200 CAVOK 13/05 Q1007 NOSIG",
      "taf": "TAF LFLL 181100Z 1812/1918 18012KT 9999 BKN043"
    },
    {
      "icao": "LFLS",
      "alert": "OK",
      "vis_m": 9999,
      "fzfg": false,
      "metar_trigger": false,
      "taf_trigger": false,
      "metar": "METAR LFLS 181430Z AUTO 20010KT 170V240 9999 FEW034 OVC190 13/06 Q1007 NOSIG",
      "taf": "TAF LFLS 181400Z 1815/1915 22008KT CAVOK"
    },
    {
      "icao": "LFMN",
      "alert": "OK",
      "vis_m": 9999,
      "fzfg": false,
      "metar_trigger": false,
      "taf_trigger": false,
      "metar": "METAR LFMN 181430Z 08010KT CAVOK 14/07 Q1010 NOSIG",
      "taf": "TAF LFMN 181400Z 1815/1921 11010KT CAVOK"
    },
    {
      "icao": "LFOB",
      "alert": "OK",
      "vis_m": 9999,
      "fzfg": false,
      "metar_trigger": false,
      "taf_trigger": false,
      "metar": "METAR LFOB 181430Z AUTO 11012KT 9999 OVC005 05/04 Q1001 TEMPO 2000 RADZ",
      "taf": "TAF LFOB 181100Z 1812/1912 11012KT 9999 OVC007"
    },
    {
      "icao": "LFPO",
      "alert": "OK",
      "vis_m": 2000,
      "fzfg": false,
      "metar_trigger": false,
      "taf_trigger": false,
      "metar": "METAR LFPO 181430Z 10006KT 2000 -RADZ BR BKN002 OVC003 06/06 Q1000 NOSIG",
      "taf": ""
    },
    {
      "icao": "LFSB",
      "alert": "OK",
      "vis_m": 9999,
      "fzfg": false,
      "metar_trigger": false,
      "taf_trigger": false,
      "metar": "METAR LFSB 181430Z AUTO 09006KT 9999 RA FEW010/// OVC030/// ///CB 04/02 Q1007 TEMPO 2000 -RA BKN004",
      "taf": "TAF LFSB 181100Z 1812/1912 17004KT 9999 FEW010 BKN070"
    },
    {
      "icao": "LGAV",
      "alert": "OK",
      "vis_m": 9999,
      "fzfg": false,
      "metar_trigger": false,
      "taf_trigger": false,
      "metar": "METAR LGAV 181420Z 34010KT 9999 FEW025 15/M02 Q1011 NOSIG",
      "taf": "TAF LGAV 181100Z 1812/1912 30015KT 9999 FEW025"
    },
    {
      "icao": "LGTS",
      "alert": "OK",
      "vis_m": 9999,
      "fzfg": false,
      "metar_trigger": false,
      "taf_trigger": false,
      "metar": "METAR LGTS 181420Z 34019G29KT 300V010 9999 FEW020 12/M02 Q1011 NOSIG",
      "taf": "TAF LGTS 181100Z 1812/1912 33025G35KT 9999 FEW030"
    },
    {
      "icao": "LHBP",
      "alert": "OK",
      "vis_m": 9999,
      "fzfg": false,
      "metar_trigger": false,
      "taf_trigger": false,
      "metar": "METAR LHBP 181430Z 31013KT CAVOK 06/M04 Q1012 NOSIG",
      "taf": "TAF LHBP 181115Z 1812/1912 31017G27KT 9999 SCT035"
    },
    {
      "icao": "LHDC",
      "alert": "OK",
      "vis_m": 9999,
      "fzfg": false,
      "metar_trigger": false,
      "taf_trigger": false,
      "metar": "METAR LHDC 181415Z AUTO 22004KT 160V250 CAVOK 07/00 Q1010 NOSIG",
      "taf": "TAF LHDC 181415Z 1815/1824 24006KT CAVOK"
    },
    {
      "icao": "LIBD",
      "alert": "OK",
      "vis_m": 9999,
      "fzfg": false,
      "metar_trigger": false,
      "taf_trigger": false,
      "metar": "METAR LIBD 181420Z 08009KT CAVOK 14/05 Q1014",
      "taf": "TAF LIBD 181100Z 1812/1912 06010KT CAVOK"
    },
    {
      "icao": "LIBG",
      "alert": "OK",
      "vis_m": 9999,
      "fzfg": false,
      "metar_trigger": false,
      "taf_trigger": false,
      "metar": "METAR LIBG 181350Z 22006KT 180V250 9999 FEW020 16/02 Q1014",
      "taf": "TAF LIBG 181400Z 1815/1824 VRB05KT CAVOK"
    },
    {
      "icao": "LIBP",
      "alert": "OK",
      "vis_m": 9999,
      "fzfg": false,
      "metar_trigger": false,
      "taf_trigger": false,
      "metar": "METAR LIBP 181420Z AUTO 08009KT 050V110 9999 FEW180/// 14/02 Q1013",
      "taf": "TAF LIBP 181100Z 1812/1912 07010KT CAVOK"
    },
    {
      "icao": "LIBR",
      "alert": "OK",
      "vis_m": 9999,
      "fzfg": false,
      "metar_trigger": false,
      "taf_trigger": false,
      "metar": "METAR LIBR 181420Z 07006KT CAVOK 13/03 Q1015",
      "taf": "TAF LIBR 181100Z 1812/1912 32012KT CAVOK"
    },
    {
      "icao": "LICA",
      "alert": "OK",
      "vis_m": 9999,
      "fzfg": false,
      "metar_trigger": false,
      "taf_trigger": false,
      "metar": "METAR LICA 181420Z AUTO 26017KT 9999 BKN031/// BKN065/// 16/09 Q1017",
      "taf": "TAF LICA 181100Z 1812/1912 26015KT 9999 FEW025"
    },
    {
      "icao": "LICC",
      "alert": "OK",
      "vis_m": 9999,
      "fzfg": false,
      "metar_trigger": false,
      "taf_trigger": false,
      "metar": "METAR LICC 181420Z 23010KT 9999 SCT070 18/13 Q1017",
      "taf": "TAF LICC 181100Z 1812/1912 26010KT CAVOK"
    },
    {
      "icao": "LICJ",
      "alert": "OK",
      "vis_m": 9999,
      "fzfg": false,
      "metar_trigger": false,
      "taf_trigger": false,
      "metar": "METAR LICJ 181420Z 26014KT 9999 FEW030 15/09 Q1018",
      "taf": "TAF LICJ 181100Z 1812/1912 26013KT 9999 SCT035"
    },
    {
      "icao": "LIMC",
      "alert": "OK",
      "vis_m": 9999,
      "fzfg": false,
      "metar_trigger": false,
      "taf_trigger": false,
      "metar": "METAR LIMC 181420Z 18004KT CAVOK 12/M03 Q1011 NOSIG",
      "taf": "TAF LIMC 181100Z 1812/1918 VRB05KT CAVOK"
    },
    {
      "icao": "LIME",
      "alert": "OK",
      "vis_m": 9999,
      "fzfg": false,
      "metar_trigger": false,
      "taf_trigger": false,
      "metar": "METAR LIME 181420Z 19003KT 130V250 CAVOK 12/M03 Q1011 NOSIG",
      "taf": "TAF LIME 181100Z 1812/1912 VRB05KT CAVOK"
    },
    {
      "icao": "LIMF",
      "alert": "OK",
      "vis_m": 9999,
      "fzfg": false,
      "metar_trigger": false,
      "taf_trigger": false,
      "metar": "METAR LIMF 181420Z 07004KT 020V100 CAVOK 12/M04 Q1010",
      "taf": "TAF LIMF 181100Z 1812/1912 VRB05KT CAVOK"
    },
    {
      "icao": "LIMJ",
      "alert": "OK",
      "vis_m": 9999,
      "fzfg": false,
      "metar_trigger": false,
      "taf_trigger": false,
      "metar": "METAR LIMJ 181420Z 13020KT 9999 FEW029 14/09 Q1010",
      "taf": "TAF LIMJ 181100Z 1812/1912 12012KT 9999 FEW020"
    },
    {
      "icao": "LIPE",
      "alert": "OK",
      "vis_m": 9999,
      "fzfg": false,
      "metar_trigger": false,
      "taf_trigger": false,
      "metar": "METAR LIPE 181420Z 06004KT 020V100 9999 FEW070 14/02 Q1011",
      "taf": "TAF LIPE 181100Z 1812/1912 VRB05KT CAVOK"
    },
    {
      "icao": "LIPH",
      "alert": "OK",
      "vis_m": 9999,
      "fzfg": false,
      "metar_trigger": false,
      "taf_trigger": false,
      "metar": "METAR LIPH 181420Z 10004KT 060V170 CAVOK 13/M04 Q1011",
      "taf": "TAF LIPH 181100Z 1812/1912 VRB05KT CAVOK"
    },
    {
      "icao": "LIPQ",
      "alert": "OK",
      "vis_m": 9999,
      "fzfg": false,
      "metar_trigger": false,
      "taf_trigger": false,
      "metar": "METAR LIPQ 181420Z AUTO 27008KT 9999 FEW120/// 13/04 Q1011",
      "taf": "TAF LIPQ 181100Z 1812/1912 VRB05KT CAVOK"
    },
    {
      "icao": "LIPR",
      "alert": "OK",
      "vis_m": 9999,
      "fzfg": false,
      "metar_trigger": false,
      "taf_trigger": false,
      "metar": "METAR LIPR 181420Z 06005KT 9999 FEW070 11/05 Q1011",
      "taf": "TAF LIPR 181100Z 1812/1912 VRB05KT CAVOK"
    },
    {
      "icao": "LIPX",
      "alert": "OK",
      "vis_m": 9999,
      "fzfg": false,
      "metar_trigger": false,
      "taf_trigger": false,
      "metar": "METAR LIPX 181420Z 12004KT 090V150 CAVOK 13/M03 Q1011",
      "taf": "TAF LIPX 181100Z 1812/1912 07008KT CAVOK"
    },
    {
      "icao": "LIPY",
      "alert": "OK",
      "vis_m": 9999,
      "fzfg": false,
      "metar_trigger": false,
      "taf_trigger": false,
      "metar": "METAR LIPY 181420Z AUTO 25007KT 9999 FEW150/// 17/02 Q1012",
      "taf": "TAF LIPY 181100Z 1812/1912 VRB05KT CAVOK"
    },
    {
      "icao": "LIPZ",
      "alert": "OK",
      "vis_m": 9999,
      "fzfg": false,
      "metar_trigger": false,
      "taf_trigger": false,
      "metar": "METAR LIPZ 181420Z 13005KT CAVOK 12/03 Q1012 NOSIG",
      "taf": "TAF LIPZ 181100Z 1812/1918 VRB05KT CAVOK"
    },
    {
      "icao": "LIRF",
      "alert": "OK",
      "vis_m": 9999,
      "fzfg": false,
      "metar_trigger": false,
      "taf_trigger": false,
      "metar": "METAR LIRF 181420Z 20011KT 9999 FEW025 SCT045 15/09 Q1014 NOSIG",
      "taf": "TAF LIRF 181100Z 1812/1918 20012KT 9999 FEW025"
    },
    {
      "icao": "LIRN",
      "alert": "OK",
      "vis_m": 9999,
      "fzfg": false,
      "metar_trigger": false,
      "taf_trigger": false,
      "metar": "METAR LIRN 181420Z 21008KT 180V240 9999 SCT035 14/08 Q1015 NOSIG",
      "taf": "TAF LIRN 181100Z 1812/1912 22010KT 9999 FEW030"
    },
    {
      "icao": "LIRP",
      "alert": "OK",
      "vis_m": 5000,
      "fzfg": false,
      "metar_trigger": false,
      "taf_trigger": false,
      "metar": "METAR LIRP 181415Z VRB03KT 5000 RA SCT020 BKN025 12/11 Q1013 TEMPO 8000",
      "taf": "TAF LIRP 181100Z 1812/1912 23012KT 9999 SCT025"
    },
    {
      "icao": "LIRZ",
      "alert": "OK",
      "vis_m": 9999,
      "fzfg": false,
      "metar_trigger": false,
      "taf_trigger": false,
      "metar": "METAR LIRZ 181420Z AUTO 19008KT 9999 NCD 15/02 Q1012",
      "taf": "TAF LIRZ 181100Z 1812/1912 VRB05KT 9999 SCT035"
    },
    {
      "icao": "LJLJ",
      "alert": "OK",
      "vis_m": 9999,
      "fzfg": false,
      "metar_trigger": false,
      "taf_trigger": false,
      "metar": "METAR LJLJ 181430Z 07004KT 030V100 9999 FEW060 10/M04 Q1010 NOSIG",
      "taf": "TAF LJLJ 181100Z 1812/1912 VRB02KT 9999 FEW050"
    },
    {
      "icao": "LKMT",
      "alert": "OK",
      "vis_m": 9999,
      "fzfg": false,
      "metar_trigger": false,
      "taf_trigger": false,
      "metar": "METAR LKMT 181430Z 07004KT 050V110 9999 BKN033 01/01 Q1010 NOSIG",
      "taf": "TAF LKMT 181100Z 1812/1912 23013KT 9999 FEW018"
    },
    {
      "icao": "LKPR",
      "alert": "OK",
      "vis_m": 9999,
      "fzfg": false,
      "metar_trigger": false,
      "taf_trigger": false,
      "metar": "METAR LKPR 181430Z 30008KT 270V350 9999 -SHGS SCT014 BKN038 02/M01 Q1011 TEMPO 5000 SHGS SCT008TCU BKN014",
      "taf": "TAF LKPR 181400Z 1815/1921 26010KT 9999 SCT020 BKN035"
    },
    {
      "icao": "LLBG",
      "alert": "OK",
      "vis_m": 9999,
      "fzfg": false,
      "metar_trigger": false,
      "taf_trigger": false,
      "metar": "METAR LLBG 181420Z 27020KT 9999 FEW032 19/10 Q1014 NOSIG",
      "taf": "TAF LLBG 181105Z 1812/1912 23017KT 8000 NSC"
    },
    {
      "icao": "LMML",
      "alert": "OK",
      "vis_m": 9999,
      "fzfg": false,
      "metar_trigger": false,
      "taf_trigger": false,
      "metar": "METAR LMML 181415Z 29013KT 9999 FEW030 15/09 Q1020 NOSIG",
      "taf": "TAF LMML 181100Z 1812/1912 30015KT 9999 FEW025"
    },
    {
      "icao": "LOWW",
      "alert": "OK",
      "vis_m": 9999,
      "fzfg": false,
      "metar_trigger": false,
      "taf_trigger": false,
      "metar": "METAR LOWW 181420Z 28016KT 9999 SCT050 07/M05 Q1012 NOSIG",
      "taf": "TAF LOWW 181415Z 1815/1921 27010KT 9999 FEW050 TX05/1815Z TNM03/1901Z"
    },
    {
      "icao": "LPFR",
      "alert": "OK",
      "vis_m": 9999,
      "fzfg": false,
      "metar_trigger": false,
      "taf_trigger": false,
      "metar": "METAR LPFR 181430Z 25013KT 9999 SCT025 SCT035 BKN042 15/12 Q1022",
      "taf": "TAF LPFR 181100Z 1812/1912 22005KT 9999 SCT018"
    },
    {
      "icao": "LPMA",
      "alert": "OK",
      "vis_m": 9999,
      "fzfg": false,
      "metar_trigger": false,
      "taf_trigger": false,
      "metar": "METAR LPMA 181430Z 19007KT 9999 FEW014 19/12 Q1025",
      "taf": "TAF LPMA 181100Z 1812/1912 02008KT 9999 SCT014"
    },
    {
      "icao": "LPPR",
      "alert": "OK",
      "vis_m": 9999,
      "fzfg": false,
      "metar_trigger": false,
      "taf_trigger": false,
      "metar": "METAR LPPR 181430Z 27009KT 240V310 9999 FEW010 BKN025 15/11 Q1015",
      "taf": "TAF LPPR 181100Z 1812/1912 19017G27KT 2000 RADZ BR SCT002 BKN004"
    },
    {
      "icao": "LPPS",
      "alert": "OK",
      "vis_m": 9999,
      "fzfg": false,
      "metar_trigger": false,
      "taf_trigger": false,
      "metar": "METAR LPPS 181430Z 33009KT 300V360 9999 FEW014 19/14 Q1025",
      "taf": "TAF LPPS 181100Z 1812/1918 33005KT 9999 SCT015"
    },
    {
      "icao": "LPPT",
      "alert": "OK",
      "vis_m": 4000,
      "fzfg": false,
      "metar_trigger": false,
      "taf_trigger": false,
      "metar": "METAR LPPT 181430Z 23012KT 4000 -RADZ BR FEW004 BKN006 15/14 Q1019",
      "taf": "TAF LPPT 181100Z 1812/1918 22013KT 9999 SCT008 BKN015"
    },
    {
      "icao": "LQBK",
      "alert": "OK",
      "vis_m": 9999,
      "fzfg": false,
      "metar_trigger": false,
      "taf_trigger": false,
      "metar": "METAR LQBK 181430Z 10004KT 040V160 CAVOK 10/M02 Q1013 NOSIG",
      "taf": ""
    },
    {
      "icao": "LQSA",
      "alert": "OK",
      "vis_m": 9999,
      "fzfg": false,
      "metar_trigger": false,
      "taf_trigger": false,
      "metar": "METAR LQSA 181430Z VRB03KT CAVOK 07/M04 Q1013 NOSIG",
      "taf": "TAF LQSA 181100Z 1812/1912 VRB02KT 9999 SCT045 TX08/1912Z TNM02/1902Z"
    },
    {
      "icao": "LQTZ",
      "alert": "OK",
      "vis_m": 9999,
      "fzfg": false,
      "metar_trigger": false,
      "taf_trigger": false,
      "metar": "METAR LQTZ 181430Z 24004KT 180V290 9999 SCT055 08/M02 Q1014",
      "taf": "TAF LQTZ 181100Z 1812/1912 28005KT 9999 SCT045 TX10/1814Z TNM02/1901Z"
    },
    {
      "icao": "LRBC",
      "alert": "OK",
      "vis_m": 6000,
      "fzfg": false,
      "metar_trigger": false,
      "taf_trigger": false,
      "metar": "METAR LRBC 181430Z 35013KT 6000 -SN DRSN FEW014 OVC037 M02/M04 Q1007",
      "taf": "TAF LRBC 181400Z 1815/1824 35015KT 5000 -SN DRSN SCT010 OVC035"
    },
    {
      "icao": "LRBS",
      "alert": "OK",
      "vis_m": 9999,
      "fzfg": false,
      "metar_trigger": false,
      "taf_trigger": false,
      "metar": "METAR LRBS 181430Z VRB02KT CAVOK 05/01 Q1006 NOSIG",
      "taf": "TAF LRBS 181100Z 1812/1912 VRB04KT 9999 SCT010 OVC030"
    },
    {
      "icao": "LRBV",
      "alert": "OK",
      "vis_m": 9999,
      "fzfg": false,
      "metar_trigger": false,
      "taf_trigger": false,
      "metar": "METAR LRBV 181430Z 31014KT 9999 BKN015 00/M02 Q1007",
      "taf": "TAF LRBV 181400Z 1815/1824 30016KT 9999 SCT010 OVC015"
    },
    {
      "icao": "LRCL",
      "alert": "OK",
      "vis_m": 9999,
      "fzfg": false,
      "metar_trigger": false,
      "taf_trigger": false,
      "metar": "METAR LRCL 181430Z 31012KT 9999 FEW055 04/M03 Q1009",
      "taf": "TAF LRCL 181400Z 1815/1824 31014KT CAVOK"
    },
    {
      "icao": "LRCV",
      "alert": "OK",
      "vis_m": 9999,
      "fzfg": false,
      "metar_trigger": false,
      "taf_trigger": false,
      "metar": "METAR LRCV 181430Z 29018KT CAVOK 07/00 Q1007",
      "taf": "TAF LRCV 181400Z 1815/1824 29018KT CAVOK"
    },
    {
      "icao": "LRIA",
      "alert": "OK",
      "vis_m": 3500,
      "fzfg": false,
      "metar_trigger": false,
      "taf_trigger": false,
      "metar": "METAR LRIA 181430Z 31012KT 3500 -SN BR BKN008 OVC028 M04/M06 Q1007",
      "taf": "TAF LRIA 181400Z 1815/1824 31012KT 5000 -SN BR BKN008 OVC025"
    },
    {
      "icao": "LROP",
      "alert": "OK",
      "vis_m": 9999,
      "fzfg": false,
      "metar_trigger": false,
      "taf_trigger": false,
      "metar": "METAR LROP 181430Z 19003KT 140V240 CAVOK 05/05 Q1006 NOSIG",
      "taf": "TAF LROP 181100Z 1812/1912 VRB04KT 9999 SCT010 OVC030"
    },
    {
      "icao": "LRSB",
      "alert": "OK",
      "vis_m": 9999,
      "fzfg": false,
      "metar_trigger": false,
      "taf_trigger": false,
      "metar": "METAR LRSB 181430Z 30015KT 9999 SCT050 BKN062 03/M02 Q1008",
      "taf": "TAF LRSB 181100Z 1812/1912 32012KT 9999 SCT035 BKN065"
    },
    {
      "icao": "LRSM",
      "alert": "OK",
      "vis_m": 9999,
      "fzfg": false,
      "metar_trigger": false,
      "taf_trigger": false,
      "metar": "METAR LRSM 181430Z 25011KT 9999 FEW042 06/01 Q1010",
      "taf": "TAF LRSM 181400Z 1815/1824 25010KT 9999 SCT030"
    },
    {
      "icao": "LRSV",
      "alert": "OK",
      "vis_m": 9999,
      "fzfg": false,
      "metar_trigger": false,
      "taf_trigger": false,
      "metar": "METAR LRSV 181430Z 31012KT 9999 SCT035 M03/M06 Q1007",
      "taf": "TAF LRSV 181400Z 1815/1824 31009KT 9999 BKN035"
    },
    {
      "icao": "LRTM",
      "alert": "OK",
      "vis_m": 9999,
      "fzfg": false,
      "metar_trigger": false,
      "taf_trigger": false,
      "metar": "METAR LRTM 181430Z 32007KT CAVOK 03/M01 Q1009",
      "taf": "TAF LRTM 181400Z 1815/1824 32010KT 9999 SCT025"
    },
    {
      "icao": "LRTR",
      "alert": "OK",
      "vis_m": 9999,
      "fzfg": false,
      "metar_trigger": false,
      "taf_trigger": false,
      "metar": "METAR LRTR 181430Z 34007KT 9999 FEW030 SCT042 07/01 Q1012 NOSIG",
      "taf": "TAF LRTR 181100Z 1812/1912 30010KT 9999 SCT015 BKN040"
    },
    {
      "icao": "LTAC",
      "alert": "OK",
      "vis_m": 9999,
      "fzfg": false,
      "metar_trigger": false,
      "taf_trigger": false,
      "metar": "METAR LTAC 181420Z 23009KT 9999 SCT025 BKN080 06/03 Q0999 RESHRA NOSIG RMK RWY21C 24017KT RWY03L 24011KT 200V280 RWY21R 23014KT RWY03R 22007KT RWY21L 24014KT 200V260",
      "taf": "TAF LTAC 181040Z 1812/1912 24012KT 9999 SCT040 BKN100"
    },
    {
      "icao": "LTFM",
      "alert": "OK",
      "vis_m": 9999,
      "fzfg": false,
      "metar_trigger": false,
      "taf_trigger": false,
      "metar": "METAR LTFM 181420Z 29013G24KT 270V330 9999 -SHSNRA BKN006 BKN022 01/M00 Q1009 RESHSN NOSIG RMK RWY17L VRB14KT RWY34L 28011KT RWY16R 28011KT RWY36 29012KT RWY18 29012KT",
      "taf": "TAF LTFM 181040Z 1812/1918 32018KT 9999 -SHRASN BKN010 BKN025"
    },
    {
      "icao": "LUKK",
      "alert": "OK",
      "vis_m": 1400,
      "fzfg": false,
      "metar_trigger": false,
      "taf_trigger": false,
      "metar": "METAR LUKK 181430Z 35016KT 1400 1100NE R08/1900D SN BLSN OVC013 M05/M06 Q1004 TEMPO 35018G28KT 0800 +SN BLSN VV006",
      "taf": "TAF LUKK 181103Z 1812/1912 34014KT 5000 SN OVC008"
    },
    {
      "icao": "LWOH",
      "alert": "OK",
      "vis_m": 9999,
      "fzfg": false,
      "metar_trigger": false,
      "taf_trigger": false,
      "metar": "METAR LWOH 181420Z 27012KT 230V350 9999 SCT050 09/M05 Q1012",
      "taf": "TAF LWOH 181430Z 1815/1915 27015KT 9999 FEW050"
    },
    {
      "icao": "LWSK",
      "alert": "OK",
      "vis_m": 9999,
      "fzfg": false,
      "metar_trigger": false,
      "taf_trigger": false,
      "metar": "METAR LWSK 181420Z 32016KT 270V360 9999 FEW070 11/M03 Q1013 NOSIG",
      "taf": "TAF LWSK 181430Z 1815/1915 32015KT 9999 FEW070"
    },
    {
      "icao": "LYBE",
      "alert": "OK",
      "vis_m": 9999,
      "fzfg": false,
      "metar_trigger": false,
      "taf_trigger": false,
      "metar": "METAR LYBE 181430Z 32010KT 9999 SCT047 08/M01 Q1014 NOSIG",
      "taf": "TAF LYBE 181100Z 1812/1912 32015KT 9999 SCT030 TX12/1912Z TN01/1906Z"
    },
    {
      "icao": "LYNI",
      "alert": "OK",
      "vis_m": 9999,
      "fzfg": false,
      "metar_trigger": false,
      "taf_trigger": false,
      "metar": "METAR LYNI 181430Z 31012KT 280V340 9999 FEW027 SCT037 BKN067 07/M00 Q1014 NOSIG",
      "taf": ""
    },
    {
      "icao": "LYPG",
      "alert": "OK",
      "vis_m": 9999,
      "fzfg": false,
      "metar_trigger": false,
      "taf_trigger": false,
      "metar": "METAR LYPG 181430Z 16004KT 130V200 9999 FEW040 13/M04 Q1014 NOSIG",
      "taf": "TAF LYPG 181100Z 1812/1912 18007KT CAVOK TX13/1812Z TN02/1901Z"
    },
    {
      "icao": "LZIB",
      "alert": "OK",
      "vis_m": 9999,
      "fzfg": false,
      "metar_trigger": false,
      "taf_trigger": false,
      "metar": "METAR LZIB 181430Z 29015KT 9999 FEW045 06/M06 Q1012 NOSIG",
      "taf": "TAF LZIB 181115Z 1812/1912 26011KT 9999 SCT030"
    },
    {
      "icao": "LZKZ",
      "alert": "OK",
      "vis_m": 9999,
      "fzfg": false,
      "metar_trigger": false,
      "taf_trigger": false,
      "metar": "METAR LZKZ 181430Z 36010KT 9999 VCSH FEW020 SCT035 BKN047 03/M00 Q1009 NOSIG",
      "taf": "TAF LZKZ 181115Z 1812/1912 18006KT 9999 SCT030"
    },
    {
      "icao": "LZTT",
      "alert": "OK",
      "vis_m": 9999,
      "fzfg": false,
      "metar_trigger": false,
      "taf_trigger": false,
      "metar": "METAR LZTT 181430Z VRB05KT 9999 FEW016 02/M05 Q1007 NOSIG",
      "taf": ""
    },
    {
      "icao": "OEJN",
      "alert": "OK",
      "vis_m": 9999,
      "fzfg": false,
      "metar_trigger": false,
      "taf_trigger": false,
      "metar": "METAR OEJN 181400Z 31012KT CAVOK 29/19 Q1010 NOSIG",
      "taf": "TAF OEJN 181100Z 1812/1918 30010KT CAVOK"
    },
    {
      "icao": "OEMA",
      "alert": "OK",
      "vis_m": 9999,
      "fzfg": false,
      "metar_trigger": false,
      "taf_trigger": false,
      "metar": "METAR OEMA 181400Z 30005KT CAVOK 33/M01 Q1013 NOSIG",
      "taf": "TAF OEMA 181100Z 1812/1918 28008KT CAVOK"
    },
    {
      "icao": "OJAI",
      "alert": "OK",
      "vis_m": 4000,
      "fzfg": false,
      "metar_trigger": false,
      "taf_trigger": false,
      "metar": "METAR OJAI 181400Z 26020KT 4000 BLDU NSC 16/02 Q1014 NOSIG",
      "taf": "TAF OJAI 181119Z 1812/1918 24010KT 4000 HZ FEW030"
    },
    {
      "icao": "OMAA",
      "alert": "OK",
      "vis_m": 9999,
      "fzfg": false,
      "metar_trigger": false,
      "taf_trigger": false,
      "metar": "METAR OMAA 181430Z 35012KT CAVOK 25/15 Q1014 NOSIG",
      "taf": "TAF OMAA 181100Z 1812/1918 01012KT 8000 NSC"
    },
    {
      "icao": "OMDB",
      "alert": "OK",
      "vis_m": 9999,
      "fzfg": false,
      "metar_trigger": false,
      "taf_trigger": false,
      "metar": "METAR OMDB 181430Z 02008KT 340V050 CAVOK 26/13 Q1015 NOSIG",
      "taf": "TAF OMDB 181100Z 1812/1918 35013KT CAVOK"
    },
    {
      "icao": "UAAA",
      "alert": "OK",
      "vis_m": 4100,
      "fzfg": false,
      "metar_trigger": false,
      "taf_trigger": false,
      "metar": "METAR UAAA 181430Z 25003MPS 4100 BR FU BKN200 08/05 Q1017 NOSIG",
      "taf": "TAF UAAA 181108Z 1812/1912 22003MPS 5000 BR FU SCT050 BKN100 TX20/1909Z TN02/1903Z"
    },
    {
      "icao": "UBBB",
      "alert": "OK",
      "vis_m": 9999,
      "fzfg": false,
      "metar_trigger": false,
      "taf_trigger": false,
      "metar": "METAR UBBB 181430Z 03008KT 9999 BKN007 08/06 Q1009 NOSIG",
      "taf": "TAF UBBB 181047Z 1812/1912 36010KT 9999 SCT015 TX10/1812Z TN04/1900Z"
    },
    {
      "icao": "UDSG",
      "alert": "OK",
      "vis_m": 9999,
      "fzfg": false,
      "metar_trigger": false,
      "taf_trigger": false,
      "metar": "METAR UDSG 181430Z 13005KT 9999 BKN046 04/01 Q1010 NOSIG",
      "taf": "TAF UDSG 181100Z 1812/1912 VRB06KT 9999 BKN040"
    },
    {
      "icao": "UDYZ",
      "alert": "OK",
      "vis_m": 9999,
      "fzfg": false,
      "metar_trigger": false,
      "taf_trigger": false,
      "metar": "METAR UDYZ 181430Z COR 13010KT 9999 FEW043CB 17/03 Q1007 NOSIG",
      "taf": ""
    },
    {
      "icao": "UGKO",
      "alert": "OK",
      "vis_m": 9999,
      "fzfg": false,
      "metar_trigger": false,
      "taf_trigger": false,
      "metar": "METAR UGKO 181430Z 08013KT CAVOK 21/01 Q0998 NOSIG",
      "taf": "TAF UGKO 181100Z 1812/1912 08020KT 9999 BKN050 TX23/1812Z TN06/1912Z"
    }
  ]
}