{
  "ts_utc": "2026-04-06T16:25:57Z",
  "threshold_m": 150,
  "source": "stations_override.txt (ICAO list) + aviationweather.gov (METAR/TAF raw)",
  "station_count": 159,
  "stations": [
    {
      "icao": "BIKF",
      "alert": "OK",
      "vis_m": 6000,
      "fzfg": false,
      "metar_trigger": false,
      "taf_trigger": false,
      "metar": "METAR BIKF 061600Z 11042G62KT 6000 -RA BR SCT013 BKN028 OVC090 03/01 Q0989",
      "taf": "TAF BIKF 061618Z 0618/0718 10045G65KT 9000 -RA SCT013 BKN020 TX07/0703Z TN04/0618Z"
    },
    {
      "icao": "BKPR",
      "alert": "OK",
      "vis_m": null,
      "fzfg": false,
      "metar_trigger": false,
      "taf_trigger": false,
      "metar": "",
      "taf": "TAF BKPR 061130Z 0612/0712 35006KT CAVOK"
    },
    {
      "icao": "EBCI",
      "alert": "OK",
      "vis_m": 9999,
      "fzfg": false,
      "metar_trigger": false,
      "taf_trigger": false,
      "metar": "METAR EBCI 061550Z 06007KT CAVOK 14/02 Q1026 NOSIG",
      "taf": "TAF EBCI 061110Z 0612/0718 07006KT 9999 FEW040"
    },
    {
      "icao": "EDDB",
      "alert": "OK",
      "vis_m": 9999,
      "fzfg": false,
      "metar_trigger": false,
      "taf_trigger": false,
      "metar": "METAR EDDB 061620Z AUTO 29016KT CAVOK 12/M02 Q1024 TEMPO 29020G30KT",
      "taf": "TAF EDDB 061100Z 0612/0712 28020G35KT CAVOK"
    },
    {
      "icao": "EDDH",
      "alert": "OK",
      "vis_m": 9999,
      "fzfg": false,
      "metar_trigger": false,
      "taf_trigger": false,
      "metar": "METAR EDDH 061620Z AUTO 30016KT 9999 FEW034 09/01 Q1026 NOSIG",
      "taf": "TAF EDDH 061100Z 0612/0718 29015G30KT 9999 SCT040"
    },
    {
      "icao": "EDDK",
      "alert": "OK",
      "vis_m": 9999,
      "fzfg": false,
      "metar_trigger": false,
      "taf_trigger": false,
      "metar": "METAR EDDK 061620Z AUTO 34005KT 290V010 CAVOK 14/00 Q1027 NOSIG",
      "taf": "TAF EDDK 061100Z 0612/0718 VRB03KT 9999 FEW040"
    },
    {
      "icao": "EDDN",
      "alert": "OK",
      "vis_m": 9999,
      "fzfg": false,
      "metar_trigger": false,
      "taf_trigger": false,
      "metar": "METAR EDDN 061620Z AUTO 33005KT 300V360 CAVOK 14/01 Q1025 NOSIG",
      "taf": "TAF EDDN 061100Z 0612/0712 29007KT CAVOK"
    },
    {
      "icao": "EDDS",
      "alert": "OK",
      "vis_m": 9999,
      "fzfg": false,
      "metar_trigger": false,
      "taf_trigger": false,
      "metar": "METAR EDDS 061620Z AUTO 36007KT 330V030 CAVOK 15/03 Q1024 NOSIG",
      "taf": "TAF EDDS 061100Z 0612/0712 VRB03KT CAVOK"
    },
    {
      "icao": "EDFH",
      "alert": "OK",
      "vis_m": 9999,
      "fzfg": false,
      "metar_trigger": false,
      "taf_trigger": false,
      "metar": "METAR EDFH 061550Z VRB02KT CAVOK 13/M01 Q1026",
      "taf": "TAF EDFH 061100Z 0612/0712 VRB03KT 9999 FEW030"
    },
    {
      "icao": "EDJA",
      "alert": "OK",
      "vis_m": 9999,
      "fzfg": false,
      "metar_trigger": false,
      "taf_trigger": false,
      "metar": "METAR EDJA 061550Z 35003KT 290V050 CAVOK 16/05 Q1025",
      "taf": "TAF EDJA 061400Z 0615/0624 34005KT 9999 FEW045"
    },
    {
      "icao": "EDLW",
      "alert": "OK",
      "vis_m": 9999,
      "fzfg": false,
      "metar_trigger": false,
      "taf_trigger": false,
      "metar": "METAR EDLW 061550Z 30006KT 260V360 CAVOK 12/02 Q1027",
      "taf": "TAF EDLW 061100Z 0612/0712 28006KT 9999 FEW045"
    },
    {
      "icao": "EDNY",
      "alert": "OK",
      "vis_m": 9999,
      "fzfg": false,
      "metar_trigger": false,
      "taf_trigger": false,
      "metar": "METAR EDNY 061550Z 27003KT 220V340 CAVOK 18/06 Q1025",
      "taf": "TAF EDNY 061400Z 0615/0624 24005KT CAVOK"
    },
    {
      "icao": "EDSB",
      "alert": "OK",
      "vis_m": 9999,
      "fzfg": false,
      "metar_trigger": false,
      "taf_trigger": false,
      "metar": "METAR EDSB 061550Z VRB02KT CAVOK 17/03 Q1025",
      "taf": "TAF EDSB 061100Z 0612/0712 VRB03KT CAVOK"
    },
    {
      "icao": "EETN",
      "alert": "OK",
      "vis_m": 9999,
      "fzfg": false,
      "metar_trigger": false,
      "taf_trigger": false,
      "metar": "METAR EETN 061620Z 23007KT 9999 -RA OVC007 03/02 Q0994 TEMPO OVC005",
      "taf": "TAF EETN 061130Z 0612/0712 24012KT 8000 RA BKN006 OVC012"
    },
    {
      "icao": "EFTU",
      "alert": "OK",
      "vis_m": 9999,
      "fzfg": false,
      "metar_trigger": false,
      "taf_trigger": false,
      "metar": "METAR EFTU 061620Z AUTO 33008KT 290V360 9999 -RA OVC006 04/04 Q0996",
      "taf": "TAF EFTU 061429Z 0615/0715 33010KT 9999 -RA BKN008"
    },
    {
      "icao": "EGBB",
      "alert": "OK",
      "vis_m": 9999,
      "fzfg": false,
      "metar_trigger": false,
      "taf_trigger": false,
      "metar": "METAR EGBB 061620Z 15011KT CAVOK 15/02 Q1023",
      "taf": "TAF EGBB 061057Z 0612/0712 17009KT CAVOK"
    },
    {
      "icao": "EGGP",
      "alert": "OK",
      "vis_m": 9999,
      "fzfg": false,
      "metar_trigger": false,
      "taf_trigger": false,
      "metar": "METAR EGGP 061620Z 15010KT CAVOK 14/02 Q1022",
      "taf": "TAF EGGP 061057Z 0612/0712 15012KT 9999 FEW040"
    },
    {
      "icao": "EGGW",
      "alert": "OK",
      "vis_m": 9999,
      "fzfg": false,
      "metar_trigger": false,
      "taf_trigger": false,
      "metar": "METAR EGGW 061620Z AUTO 14008KT 110V170 9999 NCD 14/M01 Q1024",
      "taf": "TAF EGGW 061115Z 0612/0712 17010KT 9999 FEW045"
    },
    {
      "icao": "EGKK",
      "alert": "OK",
      "vis_m": 9999,
      "fzfg": false,
      "metar_trigger": false,
      "taf_trigger": false,
      "metar": "METAR EGKK 061620Z 13009KT 100V170 CAVOK 14/M02 Q1025",
      "taf": "TAF EGKK 061053Z 0612/0718 15010KT 9999 FEW045"
    },
    {
      "icao": "EGNM",
      "alert": "OK",
      "vis_m": 9999,
      "fzfg": false,
      "metar_trigger": false,
      "taf_trigger": false,
      "metar": "METAR EGNM 061620Z 18010KT 140V210 CAVOK 13/M00 Q1023",
      "taf": "TAF EGNM 061101Z 0612/0712 16009KT 9999 FEW030"
    },
    {
      "icao": "EGPD",
      "alert": "OK",
      "vis_m": 9999,
      "fzfg": false,
      "metar_trigger": false,
      "taf_trigger": false,
      "metar": "METAR EGPD 061620Z COR AUTO 15011KT 9999 NCD 09/04 Q1022 NOSIG",
      "taf": "TAF EGPD 061054Z 0612/0712 22006KT CAVOK"
    },
    {
      "icao": "EGPF",
      "alert": "OK",
      "vis_m": 9999,
      "fzfg": false,
      "metar_trigger": false,
      "taf_trigger": false,
      "metar": "METAR EGPF 061620Z AUTO 17011KT 9999 NCD 13/03 Q1021",
      "taf": ""
    },
    {
      "icao": "EHBK",
      "alert": "OK",
      "vis_m": 9999,
      "fzfg": false,
      "metar_trigger": false,
      "taf_trigger": false,
      "metar": "METAR EHBK 061555Z AUTO 12003KT 030V180 9999 NSC 14/01 Q1027 NOSIG",
      "taf": "TAF EHBK 061056Z 0612/0718 VRB02KT CAVOK"
    },
    {
      "icao": "EHEH",
      "alert": "OK",
      "vis_m": 9999,
      "fzfg": false,
      "metar_trigger": false,
      "taf_trigger": false,
      "metar": "METAR EHEH 061555Z AUTO 06003KT 9999 BKN160 OVC380 14/01 Q1027 BLU NOSIG RMK TREND REMOTE BY EHWX",
      "taf": "TAF EHEH 061131Z 0612/0718 25004KT CAVOK"
    },
    {
      "icao": "EKBI",
      "alert": "OK",
      "vis_m": 9999,
      "fzfg": false,
      "metar_trigger": false,
      "taf_trigger": false,
      "metar": "METAR EKBI 061620Z AUTO 29018KT 9999 FEW031/// 08/02 Q1023",
      "taf": "TAF EKBI 061427Z 0615/0715 29022G35KT 9999 BKN030"
    },
    {
      "icao": "EKCH",
      "alert": "OK",
      "vis_m": 9999,
      "fzfg": false,
      "metar_trigger": false,
      "taf_trigger": false,
      "metar": "METAR EKCH 061620Z AUTO 29021G31KT 9999 SCT036/// 10/01 Q1019 TEMPO 28025G35KT",
      "taf": "TAF EKCH 061427Z 0615/0715 28024G42KT 9999 BKN035"
    },
    {
      "icao": "ENAL",
      "alert": "OK",
      "vis_m": 9999,
      "fzfg": false,
      "metar_trigger": false,
      "taf_trigger": false,
      "metar": "METAR ENAL 061550Z 27013KT 9999 BKN036 07/M00 Q1019",
      "taf": "TAF ENAL 061400Z 0615/0624 28008KT 9999 FEW015 SCT030"
    },
    {
      "icao": "ENBR",
      "alert": "OK",
      "vis_m": 9999,
      "fzfg": false,
      "metar_trigger": false,
      "taf_trigger": false,
      "metar": "METAR ENBR 061550Z 31007KT 9999 SCT047 06/M01 Q1021 NOSIG RMK WIND 1200FT 30014KT",
      "taf": "TAF ENBR 061100Z 0612/0712 31012KT 9999 FEW012 BKN025"
    },
    {
      "icao": "ENGM",
      "alert": "OK",
      "vis_m": 9999,
      "fzfg": false,
      "metar_trigger": false,
      "taf_trigger": false,
      "metar": "METAR ENGM 061550Z 30008KT 250V350 CAVOK 10/M06 Q1012 WS R01R NOSIG",
      "taf": "TAF ENGM 061100Z 0612/0712 34008KT CAVOK"
    },
    {
      "icao": "ENHD",
      "alert": "OK",
      "vis_m": 9999,
      "fzfg": false,
      "metar_trigger": false,
      "taf_trigger": false,
      "metar": "METAR ENHD 061550Z 30012KT 9999 FEW039 08/M01 Q1022",
      "taf": "TAF ENHD 061400Z 0615/0622 33008KT 9999 FEW020 SCT035"
    },
    {
      "icao": "ENTC",
      "alert": "OK",
      "vis_m": 9999,
      "fzfg": false,
      "metar_trigger": false,
      "taf_trigger": false,
      "metar": "METAR ENTC 061550Z 03008KT 9999 BKN053 05/M03 Q1009 NOSIG RMK WIND 2600FT 08006KT",
      "taf": "TAF ENTC 061100Z 0612/0712 02005KT CAVOK"
    },
    {
      "icao": "ENTO",
      "alert": "OK",
      "vis_m": 9999,
      "fzfg": false,
      "metar_trigger": false,
      "taf_trigger": false,
      "metar": "METAR ENTO 061550Z 32014KT CAVOK 12/M06 Q1014 NOSIG",
      "taf": "TAF ENTO 061100Z 0612/0712 33015KT CAVOK"
    },
    {
      "icao": "ENVA",
      "alert": "OK",
      "vis_m": 9999,
      "fzfg": false,
      "metar_trigger": false,
      "taf_trigger": false,
      "metar": "METAR ENVA 061550Z 28024KT 9999 SCT027CB 06/M01 Q1013 TEMPO SHRA BKN014 SCT025CB RMK WIND 670FT 28026KT",
      "taf": "TAF ENVA 061100Z 0612/0712 27012KT 9999 FEW020 SCT050"
    },
    {
      "icao": "ENZV",
      "alert": "OK",
      "vis_m": 9999,
      "fzfg": false,
      "metar_trigger": false,
      "taf_trigger": false,
      "metar": "METAR ENZV 061550Z 31015KT 9999 SCT039 08/01 Q1022 NOSIG",
      "taf": "TAF ENZV 061100Z 0612/0712 32018KT 9999 FEW030"
    },
    {
      "icao": "EPGD",
      "alert": "OK",
      "vis_m": 9999,
      "fzfg": false,
      "metar_trigger": false,
      "taf_trigger": false,
      "metar": "METAR EPGD 061600Z 28033KT 9999 BKN032 07/00 Q1013",
      "taf": "TAF EPGD 061130Z 0612/0712 27025G35KT 9999 BKN030"
    },
    {
      "icao": "EPKK",
      "alert": "OK",
      "vis_m": 9999,
      "fzfg": false,
      "metar_trigger": false,
      "taf_trigger": false,
      "metar": "METAR EPKK 061600Z 29017KT CAVOK 11/M07 Q1021",
      "taf": "TAF EPKK 061430Z 0615/0715 30015KT 9999 SCT040"
    },
    {
      "icao": "EPKT",
      "alert": "OK",
      "vis_m": 9999,
      "fzfg": false,
      "metar_trigger": false,
      "taf_trigger": false,
      "metar": "METAR EPKT 061600Z 27018KT CAVOK 10/M05 Q1021",
      "taf": "TAF EPKT 061130Z 0612/0712 27015KT CAVOK"
    },
    {
      "icao": "EPLB",
      "alert": "OK",
      "vis_m": 9999,
      "fzfg": false,
      "metar_trigger": false,
      "taf_trigger": false,
      "metar": "METAR EPLB 061600Z 29014G25KT 260V320 CAVOK 09/M03 Q1017",
      "taf": "TAF EPLB 061130Z 0612/0712 27018KT 9999 BKN035"
    },
    {
      "icao": "EPMO",
      "alert": "OK",
      "vis_m": 9999,
      "fzfg": false,
      "metar_trigger": false,
      "taf_trigger": false,
      "metar": "METAR EPMO 061600Z 28021KT CAVOK 09/00 Q1017",
      "taf": "TAF EPMO 061130Z 0612/0712 27018KT 9999 SCT035"
    },
    {
      "icao": "EPPO",
      "alert": "OK",
      "vis_m": 9999,
      "fzfg": false,
      "metar_trigger": false,
      "taf_trigger": false,
      "metar": "METAR EPPO 061600Z 29015G25KT CAVOK 11/M04 Q1020",
      "taf": ""
    },
    {
      "icao": "EPRA",
      "alert": "OK",
      "vis_m": 9999,
      "fzfg": false,
      "metar_trigger": false,
      "taf_trigger": false,
      "metar": "METAR EPRA 061600Z 30016KT 270V330 CAVOK 09/M05 Q1018",
      "taf": "TAF EPRA 061430Z 0615/0624 29015KT 9999 SCT040"
    },
    {
      "icao": "EPRZ",
      "alert": "OK",
      "vis_m": 9999,
      "fzfg": false,
      "metar_trigger": false,
      "taf_trigger": false,
      "metar": "METAR EPRZ 061600Z 28021G33KT 260V320 CAVOK 11/M06 Q1019",
      "taf": "TAF EPRZ 061130Z 0612/0712 28014KT CAVOK"
    },
    {
      "icao": "EPSC",
      "alert": "OK",
      "vis_m": 9999,
      "fzfg": false,
      "metar_trigger": false,
      "taf_trigger": false,
      "metar": "METAR EPSC 061600Z 30024KT CAVOK 10/M01 Q1020",
      "taf": "TAF EPSC 061130Z 0612/0712 27015KT CAVOK"
    },
    {
      "icao": "EPSY",
      "alert": "OK",
      "vis_m": 9999,
      "fzfg": false,
      "metar_trigger": false,
      "taf_trigger": false,
      "metar": "METAR EPSY 061600Z 28017G30KT 240V320 9999 FEW017 BKN050TCU 08/M03 Q1014",
      "taf": "TAF EPSY 061430Z 0615/0624 27015G30KT 9999 SCT040"
    },
    {
      "icao": "EPWA",
      "alert": "OK",
      "vis_m": 9999,
      "fzfg": false,
      "metar_trigger": false,
      "taf_trigger": false,
      "metar": "METAR EPWA 061600Z 27022KT 9999 FEW053CB 10/M03 Q1017 NOSIG",
      "taf": "TAF EPWA 061430Z 0615/0715 27016KT CAVOK"
    },
    {
      "icao": "EPWR",
      "alert": "OK",
      "vis_m": 9999,
      "fzfg": false,
      "metar_trigger": false,
      "taf_trigger": false,
      "metar": "METAR EPWR 061600Z 28019KT CAVOK 13/M05 Q1022",
      "taf": "TAF EPWR 061430Z 0615/0715 28022G37KT 9999 SCT045"
    },
    {
      "icao": "ESGG",
      "alert": "OK",
      "vis_m": 9999,
      "fzfg": false,
      "metar_trigger": false,
      "taf_trigger": false,
      "metar": "METAR ESGG 061620Z 29013KT 260V320 CAVOK 09/M00 Q1014",
      "taf": "TAF ESGG 061430Z 0615/0715 29013KT 9999 SCT035"
    },
    {
      "icao": "ESKN",
      "alert": "OK",
      "vis_m": 9999,
      "fzfg": false,
      "metar_trigger": false,
      "taf_trigger": false,
      "metar": "METAR ESKN 061620Z 32020KT CAVOK 09/M02 Q1006",
      "taf": "TAF ESKN 061430Z 0615/0715 31018G28KT 9999 BKN045"
    },
    {
      "icao": "ESMS",
      "alert": "OK",
      "vis_m": 9999,
      "fzfg": false,
      "metar_trigger": false,
      "taf_trigger": false,
      "metar": "METAR ESMS 061620Z 30020KT 9999 FEW040 09/02 Q1017",
      "taf": "TAF ESMS 061427Z 0615/0715 29025G40KT 9999 SCT040"
    },
    {
      "icao": "ESSA",
      "alert": "OK",
      "vis_m": 9999,
      "fzfg": false,
      "metar_trigger": false,
      "taf_trigger": false,
      "metar": "METAR ESSA 061620Z 33014KT 9999 VCSH FEW028TCU BKN061 05/01 Q1005 TEMPO SHRA",
      "taf": "TAF ESSA 061430Z 0615/0715 30014G26KT 9999 BKN030"
    },
    {
      "icao": "EYKA",
      "alert": "OK",
      "vis_m": 9999,
      "fzfg": false,
      "metar_trigger": false,
      "taf_trigger": false,
      "metar": "METAR EYKA 061620Z 28018G29KT 9999 -RA BKN019 OVC027 05/02 Q1008",
      "taf": "TAF EYKA 061106Z 0612/0712 26015G25KT 8000 SCT015 BKN020"
    },
    {
      "icao": "EYPA",
      "alert": "OK",
      "vis_m": 9999,
      "fzfg": false,
      "metar_trigger": false,
      "taf_trigger": false,
      "metar": "METAR EYPA 061620Z 28008G18KT 230V330 9999 VCSH BKN065CB 04/02 Q1007",
      "taf": "TAF EYPA 061100Z 0612/0712 27012G22KT 8000 SCT025"
    },
    {
      "icao": "EYVI",
      "alert": "OK",
      "vis_m": 9999,
      "fzfg": false,
      "metar_trigger": false,
      "taf_trigger": false,
      "metar": "METAR EYVI 061620Z 24014KT 9999 BKN033 04/01 Q1007 NOSIG",
      "taf": "TAF EYVI 061102Z 0612/0712 26015G25KT 9000 FEW010 BKN030"
    },
    {
      "icao": "GCFV",
      "alert": "OK",
      "vis_m": 9999,
      "fzfg": false,
      "metar_trigger": false,
      "taf_trigger": false,
      "metar": "METAR GCFV 061600Z 29020KT 250V320 9999 FEW030 24/13 Q1016",
      "taf": "TAF GCFV 061400Z 0615/0715 29015KT 9999 FEW025 TX23/0714Z TN17/0706Z"
    },
    {
      "icao": "GCLP",
      "alert": "OK",
      "vis_m": 9999,
      "fzfg": false,
      "metar_trigger": false,
      "taf_trigger": false,
      "metar": "METAR GCLP 061600Z 03010KT 9999 BKN025 20/15 Q1017 NOSIG",
      "taf": "TAF GCLP 061400Z 0615/0715 03015KT 9999 FEW025 TX23/0714Z TN17/0706Z"
    },
    {
      "icao": "GCTS",
      "alert": "OK",
      "vis_m": 9999,
      "fzfg": false,
      "metar_trigger": false,
      "taf_trigger": false,
      "metar": "METAR GCTS 061600Z 12008KT 090V160 9999 BKN020 21/15 Q1017 NOSIG",
      "taf": "TAF GCTS 061400Z 0615/0715 10015KT 9999 SCT025 TX22/0714Z TN18/0706Z"
    },
    {
      "icao": "GMAD",
      "alert": "OK",
      "vis_m": 6000,
      "fzfg": false,
      "metar_trigger": false,
      "taf_trigger": false,
      "metar": "METAR GMAD 061600Z 07013KT 6000 SCT026 BKN100 29/02 Q1015 NOSIG",
      "taf": "TAF GMAD 061100Z 0612/0718 08014KT 8000 SCT026 BKN080"
    },
    {
      "icao": "GMMN",
      "alert": "OK",
      "vis_m": 9999,
      "fzfg": false,
      "metar_trigger": false,
      "taf_trigger": false,
      "metar": "METAR GMMN 061600Z 08011KT 040V110 9999 SCT020 BKN040 20/14 Q1017 RERA NOSIG",
      "taf": "TAF GMMN 061100Z 0612/0718 34010KT 9999 SCT016 BKN080"
    },
    {
      "icao": "GMMX",
      "alert": "OK",
      "vis_m": 6000,
      "fzfg": false,
      "metar_trigger": false,
      "taf_trigger": false,
      "metar": "METAR GMMX 061600Z 19004KT 140V230 6000 SCT020 BKN080 25/10 Q1016 TEMPO 1500 SHRA",
      "taf": "TAF GMMX 061100Z 0612/0718 12006KT 8000 SCT100"
    },
    {
      "icao": "HEGN",
      "alert": "OK",
      "vis_m": 9999,
      "fzfg": false,
      "metar_trigger": false,
      "taf_trigger": false,
      "metar": "METAR HEGN 061600Z 36015KT 9999 BKN025 24/06 Q1018 NOSIG",
      "taf": "TAF HEGN 061100Z 0612/0718 35010G24KT CAVOK"
    },
    {
      "icao": "HEMA",
      "alert": "OK",
      "vis_m": 9999,
      "fzfg": false,
      "metar_trigger": false,
      "taf_trigger": false,
      "metar": "METAR HEMA 061600Z 34014KT CAVOK 23/11 Q1017 NOSIG",
      "taf": "TAF HEMA 061100Z 0612/0718 35010G24KT CAVOK"
    },
    {
      "icao": "HESH",
      "alert": "OK",
      "vis_m": 9999,
      "fzfg": false,
      "metar_trigger": false,
      "taf_trigger": false,
      "metar": "METAR HESH 061600Z 36010KT CAVOK 25/07 Q1016 NOSIG",
      "taf": "TAF HESH 061100Z 0612/0718 02008G20KT CAVOK"
    },
    {
      "icao": "HESX",
      "alert": "OK",
      "vis_m": 9999,
      "fzfg": false,
      "metar_trigger": false,
      "taf_trigger": false,
      "metar": "METAR HESX 061600Z 31007KT 9999 FEW020 22/06 Q1019 NOSIG",
      "taf": "TAF HESX 061100Z 0612/0718 31009KT 9999 FEW025"
    },
    {
      "icao": "LATI",
      "alert": "OK",
      "vis_m": 9999,
      "fzfg": false,
      "metar_trigger": false,
      "taf_trigger": false,
      "metar": "METAR LATI 061620Z 33004KT 290V350 CAVOK 18/10 Q1022 NOSIG",
      "taf": "TAF LATI 061100Z 0612/0712 29010KT CAVOK TX23/0612Z TN06/0704Z"
    },
    {
      "icao": "LBPD",
      "alert": "OK",
      "vis_m": 9999,
      "fzfg": false,
      "metar_trigger": false,
      "taf_trigger": false,
      "metar": "METAR LBPD 061600Z AUTO 13004KT 9999 NCD 21/08 Q1017 NOSIG",
      "taf": "TAF LBPD 061100Z 0612/0712 VRB03KT 9999 SCT080"
    },
    {
      "icao": "LBSF",
      "alert": "OK",
      "vis_m": 9999,
      "fzfg": false,
      "metar_trigger": false,
      "taf_trigger": false,
      "metar": "METAR LBSF 061600Z AUTO 28003KT 240V330 9999 NSC 21/05 Q1019 NOSIG",
      "taf": "TAF LBSF 061100Z 0612/0712 32012KT 9999 SCT080"
    },
    {
      "icao": "LBWN",
      "alert": "OK",
      "vis_m": 9999,
      "fzfg": false,
      "metar_trigger": false,
      "taf_trigger": false,
      "metar": "METAR LBWN 061600Z AUTO 10009KT 9999 NCD 17/07 Q1016 NOSIG",
      "taf": ""
    },
    {
      "icao": "LCLK",
      "alert": "OK",
      "vis_m": 9999,
      "fzfg": false,
      "metar_trigger": false,
      "taf_trigger": false,
      "metar": "METAR LCLK 061600Z 28004KT 220V330 9999 FEW025 FEW030TCU 16/14 Q1017 NOSIG",
      "taf": "TAF LCLK 061130Z 0612/0712 22016KT 9999 FEW025"
    },
    {
      "icao": "LCPH",
      "alert": "OK",
      "vis_m": 9999,
      "fzfg": false,
      "metar_trigger": false,
      "taf_trigger": false,
      "metar": "METAR LCPH 061600Z 27009KT 250V320 9999 FEW025 SCT040 17/13 Q1018 NOSIG",
      "taf": "TAF LCPH 061130Z 0612/0712 29014KT 9999 FEW025"
    },
    {
      "icao": "LEAL",
      "alert": "OK",
      "vis_m": 9999,
      "fzfg": false,
      "metar_trigger": false,
      "taf_trigger": false,
      "metar": "METAR LEAL 061600Z 07012KT CAVOK 19/12 Q1022 NOSIG",
      "taf": "TAF LEAL 061100Z 0612/0712 08012KT CAVOK TX21/0612Z TN10/0706Z"
    },
    {
      "icao": "LEBB",
      "alert": "OK",
      "vis_m": 9999,
      "fzfg": false,
      "metar_trigger": false,
      "taf_trigger": false,
      "metar": "METAR LEBB 061600Z 16012KT 110V210 9999 FEW040 30/08 Q1015 NOSIG",
      "taf": ""
    },
    {
      "icao": "LEBL",
      "alert": "OK",
      "vis_m": 9999,
      "fzfg": false,
      "metar_trigger": false,
      "taf_trigger": false,
      "metar": "METAR LEBL 061600Z 21010KT 170V230 CAVOK 18/11 Q1023 NOSIG",
      "taf": "TAF LEBL 061100Z 0612/0712 21010KT CAVOK TX19/0612Z TN10/0705Z"
    },
    {
      "icao": "LECH",
      "alert": "OK",
      "vis_m": 9999,
      "fzfg": false,
      "metar_trigger": false,
      "taf_trigger": false,
      "metar": "METAR LECH 061600Z AUTO 12009KT 080V150 CAVOK 18/03 Q1023",
      "taf": "TAF LECH 061100Z 0612/0712 VRB03KT CAVOK TX22/0614Z TN09/0706Z"
    },
    {
      "icao": "LEMD",
      "alert": "OK",
      "vis_m": 9999,
      "fzfg": false,
      "metar_trigger": false,
      "taf_trigger": false,
      "metar": "METAR LEMD 061600Z 13007KT 100V160 CAVOK 25/06 Q1018 NOSIG",
      "taf": "TAF LEMD 061100Z 0612/0718 15010KT CAVOK TX27/0616Z TN09/0706Z"
    },
    {
      "icao": "LEMG",
      "alert": "OK",
      "vis_m": 9999,
      "fzfg": false,
      "metar_trigger": false,
      "taf_trigger": false,
      "metar": "METAR LEMG 061600Z 13006KT 080V200 CAVOK 19/09 Q1020 NOSIG",
      "taf": "TAF LEMG 061100Z 0612/0712 14010KT CAVOK TX22/0614Z TN13/0706Z"
    },
    {
      "icao": "LEVC",
      "alert": "OK",
      "vis_m": 9999,
      "fzfg": false,
      "metar_trigger": false,
      "taf_trigger": false,
      "metar": "METAR LEVC 061600Z 10008KT 060V140 CAVOK 20/04 Q1023 NOSIG",
      "taf": "TAF LEVC 061100Z 0612/0712 09010KT CAVOK TX22/0614Z TN08/0706Z"
    },
    {
      "icao": "LEXJ",
      "alert": "OK",
      "vis_m": 9999,
      "fzfg": false,
      "metar_trigger": false,
      "taf_trigger": false,
      "metar": "METAR LEXJ 061600Z 17006KT 120V260 CAVOK 30/08 Q1013",
      "taf": "TAF LEXJ 061400Z 0615/0715 18009KT 9999 FEW050 TX31/0615Z TN16/0706Z"
    },
    {
      "icao": "LEZG",
      "alert": "OK",
      "vis_m": 9999,
      "fzfg": false,
      "metar_trigger": false,
      "taf_trigger": false,
      "metar": "METAR LEZG 061600Z 10014KT 070V140 CAVOK 27/01 Q1019 NOSIG",
      "taf": "TAF LEZG 061100Z 0612/0712 10012KT CAVOK TX28/0614Z TN10/0706Z"
    },
    {
      "icao": "LEZL",
      "alert": "OK",
      "vis_m": 9999,
      "fzfg": false,
      "metar_trigger": false,
      "taf_trigger": false,
      "metar": "METAR LEZL 061600Z 25007KT 200V290 CAVOK 28/06 Q1016 NOSIG",
      "taf": "TAF LEZL 061400Z 0615/0715 VRB03KT CAVOK TX29/0615Z TN11/0706Z"
    },
    {
      "icao": "LFBD",
      "alert": "OK",
      "vis_m": 9999,
      "fzfg": false,
      "metar_trigger": false,
      "taf_trigger": false,
      "metar": "METAR LFBD 061600Z AUTO 12014KT CAVOK 29/10 Q1018 NOSIG",
      "taf": "TAF LFBD 061100Z 0612/0718 12010KT CAVOK TX29/0614Z TN13/0706Z"
    },
    {
      "icao": "LFLL",
      "alert": "OK",
      "vis_m": 9999,
      "fzfg": false,
      "metar_trigger": false,
      "taf_trigger": false,
      "metar": "METAR LFLL 061600Z 02004KT 340V070 CAVOK 24/08 Q1022 NOSIG",
      "taf": "TAF LFLL 061100Z 0612/0718 VRB02KT CAVOK"
    },
    {
      "icao": "LFLS",
      "alert": "OK",
      "vis_m": 9999,
      "fzfg": false,
      "metar_trigger": false,
      "taf_trigger": false,
      "metar": "METAR LFLS 061600Z AUTO VRB02KT CAVOK 25/08 Q1022 NOSIG",
      "taf": "TAF LFLS 061400Z 0615/0715 09005KT CAVOK"
    },
    {
      "icao": "LFMN",
      "alert": "OK",
      "vis_m": 9999,
      "fzfg": false,
      "metar_trigger": false,
      "taf_trigger": false,
      "metar": "METAR LFMN 061600Z COR 11006KT 9999 FEW013 17/13 Q1024 NOSIG",
      "taf": "TAF LFMN 061400Z 0615/0721 11008KT 9999 FEW016"
    },
    {
      "icao": "LFOB",
      "alert": "OK",
      "vis_m": 9999,
      "fzfg": false,
      "metar_trigger": false,
      "taf_trigger": false,
      "metar": "METAR LFOB 061600Z AUTO 09006KT 040V120 CAVOK 16/06 Q1025 NOSIG",
      "taf": "TAF LFOB 061100Z 0612/0712 10005KT CAVOK"
    },
    {
      "icao": "LFPO",
      "alert": "OK",
      "vis_m": 9999,
      "fzfg": false,
      "metar_trigger": false,
      "taf_trigger": false,
      "metar": "METAR LFPO 061600Z 08007KT 050V110 CAVOK 18/06 Q1024 NOSIG",
      "taf": "TAF LFPO 061100Z 0612/0718 10007KT CAVOK"
    },
    {
      "icao": "LFSB",
      "alert": "OK",
      "vis_m": 9999,
      "fzfg": false,
      "metar_trigger": false,
      "taf_trigger": false,
      "metar": "METAR LFSB 061600Z AUTO VRB03KT CAVOK 20/07 Q1024 NOSIG",
      "taf": "TAF LFSB 061105Z 0612/0712 35006KT 9999 FEW040"
    },
    {
      "icao": "LGAV",
      "alert": "OK",
      "vis_m": 9999,
      "fzfg": false,
      "metar_trigger": false,
      "taf_trigger": false,
      "metar": "METAR LGAV 061620Z 05009KT 9999 FEW025 18/06 Q1020 NOSIG",
      "taf": "TAF LGAV 061100Z 0612/0712 05010KT 9999 FEW020"
    },
    {
      "icao": "LGTS",
      "alert": "OK",
      "vis_m": 9999,
      "fzfg": false,
      "metar_trigger": false,
      "taf_trigger": false,
      "metar": "METAR LGTS 061550Z 17011KT 9999 FEW030 20/07 Q1019 NOSIG",
      "taf": "TAF LGTS 061100Z 0612/0712 VRB03KT 9999 FEW025"
    },
    {
      "icao": "LHBP",
      "alert": "OK",
      "vis_m": 9999,
      "fzfg": false,
      "metar_trigger": false,
      "taf_trigger": false,
      "metar": "METAR LHBP 061600Z 30019KT CAVOK 17/M00 Q1021 NOSIG",
      "taf": "TAF LHBP 061115Z 0612/0712 31020G35KT CAVOK"
    },
    {
      "icao": "LHDC",
      "alert": "OK",
      "vis_m": 9999,
      "fzfg": false,
      "metar_trigger": false,
      "taf_trigger": false,
      "metar": "METAR LHDC 061545Z AUTO 27018KT CAVOK 17/M01 Q1018 NOSIG",
      "taf": "TAF LHDC 061415Z 0615/0624 30020G30KT CAVOK"
    },
    {
      "icao": "LIBD",
      "alert": "OK",
      "vis_m": 9999,
      "fzfg": false,
      "metar_trigger": false,
      "taf_trigger": false,
      "metar": "METAR LIBD 061550Z 07005KT CAVOK 19/07 Q1022",
      "taf": "TAF LIBD 061100Z 0612/0712 05010KT CAVOK"
    },
    {
      "icao": "LIBG",
      "alert": "OK",
      "vis_m": 9999,
      "fzfg": false,
      "metar_trigger": false,
      "taf_trigger": false,
      "metar": "METAR LIBG 061550Z 23005KT 200V260 CAVOK 22/07 Q1022",
      "taf": "TAF LIBG 061400Z 0615/0624 25006KT CAVOK"
    },
    {
      "icao": "LIBP",
      "alert": "OK",
      "vis_m": 9999,
      "fzfg": false,
      "metar_trigger": false,
      "taf_trigger": false,
      "metar": "METAR LIBP 061550Z AUTO 05005KT 9999 NCD 21/03 Q1022",
      "taf": "TAF LIBP 061100Z 0612/0712 05010KT CAVOK"
    },
    {
      "icao": "LIBR",
      "alert": "OK",
      "vis_m": 9999,
      "fzfg": false,
      "metar_trigger": false,
      "taf_trigger": false,
      "metar": "METAR LIBR 061550Z 06003KT 020V090 CAVOK 17/09 Q1022",
      "taf": "TAF LIBR 061100Z 0612/0712 04010KT CAVOK"
    },
    {
      "icao": "LICA",
      "alert": "OK",
      "vis_m": 9999,
      "fzfg": false,
      "metar_trigger": false,
      "taf_trigger": false,
      "metar": "METAR LICA 061550Z AUTO 25010KT 9999 NCD 16/13 Q1025",
      "taf": "TAF LICA 061100Z 0612/0712 26010KT 9999 SCT015"
    },
    {
      "icao": "LICC",
      "alert": "OK",
      "vis_m": 9999,
      "fzfg": false,
      "metar_trigger": false,
      "taf_trigger": false,
      "metar": "METAR LICC 061550Z 09008KT CAVOK 19/14 Q1024",
      "taf": "TAF LICC 061100Z 0612/0712 08010KT CAVOK"
    },
    {
      "icao": "LICJ",
      "alert": "OK",
      "vis_m": 9999,
      "fzfg": false,
      "metar_trigger": false,
      "taf_trigger": false,
      "metar": "METAR LICJ 061550Z 01005KT CAVOK 16/13 Q1025",
      "taf": "TAF LICJ 061100Z 0612/0712 VRB05KT CAVOK"
    },
    {
      "icao": "LIMC",
      "alert": "OK",
      "vis_m": 9999,
      "fzfg": false,
      "metar_trigger": false,
      "taf_trigger": false,
      "metar": "METAR LIMC 061550Z 23008KT 190V270 CAVOK 26/05 Q1020 NOSIG",
      "taf": "TAF LIMC 061100Z 0612/0718 18006KT CAVOK"
    },
    {
      "icao": "LIME",
      "alert": "OK",
      "vis_m": 9999,
      "fzfg": false,
      "metar_trigger": false,
      "taf_trigger": false,
      "metar": "METAR LIME 061550Z 21006KT 170V250 CAVOK 23/09 Q1020 NOSIG",
      "taf": "TAF LIME 061100Z 0612/0712 VRB05KT CAVOK"
    },
    {
      "icao": "LIMF",
      "alert": "OK",
      "vis_m": 9999,
      "fzfg": false,
      "metar_trigger": false,
      "taf_trigger": false,
      "metar": "METAR LIMF 061550Z VRB02KT CAVOK 25/08 Q1020",
      "taf": "TAF LIMF 061100Z 0612/0712 VRB05KT CAVOK"
    },
    {
      "icao": "LIMJ",
      "alert": "OK",
      "vis_m": 9999,
      "fzfg": false,
      "metar_trigger": false,
      "taf_trigger": false,
      "metar": "METAR LIMJ 061550Z 14004KT 9999 FEW012 SCT022 BKN034 16/13 Q1024",
      "taf": "TAF LIMJ 061100Z 0612/0712 18012KT 9999 BKN020"
    },
    {
      "icao": "LIPE",
      "alert": "OK",
      "vis_m": 9999,
      "fzfg": false,
      "metar_trigger": false,
      "taf_trigger": false,
      "metar": "METAR LIPE 061550Z 05004KT 310V120 CAVOK 24/10 Q1020",
      "taf": "TAF LIPE 061100Z 0612/0712 VRB05KT CAVOK"
    },
    {
      "icao": "LIPH",
      "alert": "OK",
      "vis_m": 9999,
      "fzfg": false,
      "metar_trigger": false,
      "taf_trigger": false,
      "metar": "METAR LIPH 061550Z 13005KT 100V170 CAVOK 22/07 Q1020",
      "taf": "TAF LIPH 061100Z 0612/0712 VRB05KT CAVOK"
    },
    {
      "icao": "LIPQ",
      "alert": "OK",
      "vis_m": 9999,
      "fzfg": false,
      "metar_trigger": false,
      "taf_trigger": false,
      "metar": "METAR LIPQ 061550Z AUTO 19006KT 9999 NCD 20/06 Q1021",
      "taf": "TAF LIPQ 061100Z 0612/0712 20010KT CAVOK"
    },
    {
      "icao": "LIPR",
      "alert": "OK",
      "vis_m": 9999,
      "fzfg": false,
      "metar_trigger": false,
      "taf_trigger": false,
      "metar": "METAR LIPR 061550Z 09005KT 050V130 CAVOK 20/07 Q1021",
      "taf": "TAF LIPR 061100Z 0612/0712 07010KT CAVOK"
    },
    {
      "icao": "LIPX",
      "alert": "OK",
      "vis_m": 9999,
      "fzfg": false,
      "metar_trigger": false,
      "taf_trigger": false,
      "metar": "METAR LIPX 061550Z VRB02KT CAVOK 24/09 Q1020",
      "taf": "TAF LIPX 061100Z 0612/0712 VRB05KT CAVOK"
    },
    {
      "icao": "LIPY",
      "alert": "OK",
      "vis_m": 9999,
      "fzfg": false,
      "metar_trigger": false,
      "taf_trigger": false,
      "metar": "METAR LIPY 061550Z AUTO VRB01KT 9999 NCD 21/03 Q1021",
      "taf": "TAF LIPY 061100Z 0612/0712 03010KT CAVOK"
    },
    {
      "icao": "LIPZ",
      "alert": "OK",
      "vis_m": 9999,
      "fzfg": false,
      "metar_trigger": false,
      "taf_trigger": false,
      "metar": "METAR LIPZ 061550Z 14007KT CAVOK 18/07 Q1021 NOSIG",
      "taf": "TAF LIPZ 061100Z 0612/0718 15010KT CAVOK"
    },
    {
      "icao": "LIRF",
      "alert": "OK",
      "vis_m": 9999,
      "fzfg": false,
      "metar_trigger": false,
      "taf_trigger": false,
      "metar": "METAR LIRF 061550Z 27007KT CAVOK 18/10 Q1023 NOSIG",
      "taf": "TAF LIRF 061100Z 0612/0718 27010KT CAVOK"
    },
    {
      "icao": "LIRN",
      "alert": "OK",
      "vis_m": 9999,
      "fzfg": false,
      "metar_trigger": false,
      "taf_trigger": false,
      "metar": "METAR LIRN 061550Z 19008KT 150V230 CAVOK 16/13 Q1024 NOSIG",
      "taf": "TAF LIRN 061100Z 0612/0712 21010KT 9999 FEW016"
    },
    {
      "icao": "LIRP",
      "alert": "OK",
      "vis_m": 9999,
      "fzfg": false,
      "metar_trigger": false,
      "taf_trigger": false,
      "metar": "METAR LIRP 061545Z 26006KT 9999 FEW025 18/11 Q1025 NOSIG",
      "taf": "TAF LIRP 061100Z 0612/0712 24007KT CAVOK"
    },
    {
      "icao": "LIRZ",
      "alert": "OK",
      "vis_m": 9999,
      "fzfg": false,
      "metar_trigger": false,
      "taf_trigger": false,
      "metar": "METAR LIRZ 061550Z AUTO 28005KT 250V320 9999 NCD 23/04 Q1022",
      "taf": "TAF LIRZ 061100Z 0612/0712 VRB04KT CAVOK"
    },
    {
      "icao": "LJLJ",
      "alert": "OK",
      "vis_m": 9999,
      "fzfg": false,
      "metar_trigger": false,
      "taf_trigger": false,
      "metar": "METAR LJLJ 061600Z 14005KT 100V200 9999 FEW087 SCT120 24/04 Q1019 NOSIG",
      "taf": "TAF LJLJ 061100Z 0612/0712 VRB02KT 9999 FEW060"
    },
    {
      "icao": "LKMT",
      "alert": "OK",
      "vis_m": 9999,
      "fzfg": false,
      "metar_trigger": false,
      "taf_trigger": false,
      "metar": "METAR LKMT 061600Z 34009KT 320V020 CAVOK 13/M05 Q1022 NOSIG",
      "taf": "TAF LKMT 061100Z 0612/0712 33012KT CAVOK"
    },
    {
      "icao": "LKPR",
      "alert": "OK",
      "vis_m": 9999,
      "fzfg": false,
      "metar_trigger": false,
      "taf_trigger": false,
      "metar": "METAR LKPR 061600Z 31014KT CAVOK 12/M05 Q1024 NOSIG",
      "taf": "TAF LKPR 061400Z 0615/0721 29014KT CAVOK"
    },
    {
      "icao": "LLBG",
      "alert": "OK",
      "vis_m": 9999,
      "fzfg": false,
      "metar_trigger": false,
      "taf_trigger": false,
      "metar": "METAR LLBG 061620Z 30006KT 9999 FEW026 18/11 Q1020 NOSIG",
      "taf": "TAF LLBG 061110Z 0612/0712 28012KT 9999 SCT035 TX21/0612Z TN10/0703Z"
    },
    {
      "icao": "LMML",
      "alert": "OK",
      "vis_m": 9999,
      "fzfg": false,
      "metar_trigger": false,
      "taf_trigger": false,
      "metar": "METAR LMML 061615Z 28013KT 9999 FEW017 18/09 Q1025 NOSIG",
      "taf": "TAF LMML 061100Z 0612/0712 28008KT 9999 FEW015"
    },
    {
      "icao": "LOWW",
      "alert": "OK",
      "vis_m": 9999,
      "fzfg": false,
      "metar_trigger": false,
      "taf_trigger": false,
      "metar": "METAR LOWW 061550Z 33010KT CAVOK 16/02 Q1022 NOSIG",
      "taf": "TAF LOWW 061415Z 0615/0721 32012KT 9999 FEW050 TX17/0615Z TN05/0704Z"
    },
    {
      "icao": "LPFR",
      "alert": "OK",
      "vis_m": 9999,
      "fzfg": false,
      "metar_trigger": false,
      "taf_trigger": false,
      "metar": "METAR LPFR 061600Z 09005KT 060V130 9999 -RA FEW020 SCT030 17/15 Q1018",
      "taf": "TAF LPFR 061100Z 0612/0712 12013KT 9999 BKN040"
    },
    {
      "icao": "LPMA",
      "alert": "OK",
      "vis_m": 9999,
      "fzfg": false,
      "metar_trigger": false,
      "taf_trigger": false,
      "metar": "METAR LPMA 061600Z 04006KT 320V080 9999 SCT014 BKN030 20/12 Q1015",
      "taf": "TAF LPMA 061100Z 0612/0712 VRB05KT 9999 SCT014 SCT030"
    },
    {
      "icao": "LPPR",
      "alert": "OK",
      "vis_m": 9999,
      "fzfg": false,
      "metar_trigger": false,
      "taf_trigger": false,
      "metar": "METAR LPPR 061600Z 20011KT 9999 VCSH FEW037 23/10 Q1013",
      "taf": "TAF LPPR 061100Z 0612/0712 14010KT CAVOK"
    },
    {
      "icao": "LPPS",
      "alert": "OK",
      "vis_m": 9999,
      "fzfg": false,
      "metar_trigger": false,
      "taf_trigger": false,
      "metar": "METAR LPPS 061600Z 28013KT 9999 FEW015 SCT030 18/11 Q1015",
      "taf": ""
    },
    {
      "icao": "LPPT",
      "alert": "OK",
      "vis_m": 7000,
      "fzfg": false,
      "metar_trigger": false,
      "taf_trigger": false,
      "metar": "METAR LPPT 061600Z 18017KT 7000 -RA FEW030 SCT045 17/14 Q1016 RERA",
      "taf": "TAF LPPT 061100Z 0612/0718 11008KT 9999 SCT035"
    },
    {
      "icao": "LQBK",
      "alert": "OK",
      "vis_m": 9999,
      "fzfg": false,
      "metar_trigger": false,
      "taf_trigger": false,
      "metar": "METAR LQBK 061600Z 36005KT CAVOK 23/04 Q1019 NOSIG",
      "taf": "TAF LQBK 061100Z 0612/0712 06006KT CAVOK TX24/0614Z TN08/0704Z"
    },
    {
      "icao": "LQSA",
      "alert": "OK",
      "vis_m": 9999,
      "fzfg": false,
      "metar_trigger": false,
      "taf_trigger": false,
      "metar": "METAR LQSA 061600Z VRB02KT CAVOK 23/M03 Q1019 NOSIG",
      "taf": "TAF LQSA 061100Z 0612/0712 VRB02KT CAVOK TX23/0614Z TN03/0704Z"
    },
    {
      "icao": "LQTZ",
      "alert": "OK",
      "vis_m": 9999,
      "fzfg": false,
      "metar_trigger": false,
      "taf_trigger": false,
      "metar": "METAR LQTZ 061600Z 06006KT 010V090 CAVOK 23/05 Q1019",
      "taf": "TAF LQTZ 061100Z 0612/0712 03005KT CAVOK TX24/0613Z TN06/0704Z"
    },
    {
      "icao": "LRBC",
      "alert": "OK",
      "vis_m": 9999,
      "fzfg": false,
      "metar_trigger": false,
      "taf_trigger": false,
      "metar": "METAR LRBC 061600Z 34016KT 9999 SCT049 12/04 Q1017",
      "taf": "TAF LRBC 061400Z 0615/0624 36018KT 9999 SCT045"
    },
    {
      "icao": "LRBS",
      "alert": "OK",
      "vis_m": 9999,
      "fzfg": false,
      "metar_trigger": false,
      "taf_trigger": false,
      "metar": "METAR LRBS 061600Z 25014KT CAVOK 21/10 Q1015 NOSIG",
      "taf": "TAF LRBS 061100Z 0612/0712 25012KT CAVOK"
    },
    {
      "icao": "LRBV",
      "alert": "OK",
      "vis_m": 9999,
      "fzfg": false,
      "metar_trigger": false,
      "taf_trigger": false,
      "metar": "METAR LRBV 061600Z 26012G23KT 240V300 9999 VCSH FEW050CB SCT069 18/06 Q1016",
      "taf": "TAF LRBV 061400Z 0615/0624 29014KT 9999 SCT055"
    },
    {
      "icao": "LRCL",
      "alert": "OK",
      "vis_m": 9999,
      "fzfg": false,
      "metar_trigger": false,
      "taf_trigger": false,
      "metar": "METAR LRCL 061600Z 28014KT 9999 FEW050 17/03 Q1017",
      "taf": "TAF LRCL 061400Z 0615/0624 27018KT 9999 SCT045"
    },
    {
      "icao": "LRCV",
      "alert": "OK",
      "vis_m": 9999,
      "fzfg": false,
      "metar_trigger": false,
      "taf_trigger": false,
      "metar": "METAR LRCV 061600Z 24009KT CAVOK 22/09 Q1017",
      "taf": "TAF LRCV 061400Z 0615/0624 27009KT CAVOK"
    },
    {
      "icao": "LRIA",
      "alert": "OK",
      "vis_m": 9999,
      "fzfg": false,
      "metar_trigger": false,
      "taf_trigger": false,
      "metar": "METAR LRIA 061600Z 35013KT 9999 -RA FEW040CB 11/05 Q1017",
      "taf": "TAF LRIA 061400Z 0615/0624 33018KT 9999 FEW045"
    },
    {
      "icao": "LROP",
      "alert": "OK",
      "vis_m": 9999,
      "fzfg": false,
      "metar_trigger": false,
      "taf_trigger": false,
      "metar": "METAR LROP 061600Z 23012KT CAVOK 21/09 Q1015 NOSIG",
      "taf": "TAF LROP 061100Z 0612/0712 25012KT CAVOK"
    },
    {
      "icao": "LRSB",
      "alert": "OK",
      "vis_m": 9999,
      "fzfg": false,
      "metar_trigger": false,
      "taf_trigger": false,
      "metar": "METAR LRSB 061600Z 29011KT 9999 FEW060 SCT075 19/07 Q1017 NOSIG",
      "taf": "TAF LRSB 061100Z 0612/0712 30012KT 9999 SCT065"
    },
    {
      "icao": "LRSM",
      "alert": "OK",
      "vis_m": 9999,
      "fzfg": false,
      "metar_trigger": false,
      "taf_trigger": false,
      "metar": "METAR LRSM 061600Z 35015KT CAVOK 16/M00 Q1017",
      "taf": "TAF LRSM 061400Z 0615/0624 34010KT CAVOK"
    },
    {
      "icao": "LRSV",
      "alert": "OK",
      "vis_m": 9999,
      "fzfg": false,
      "metar_trigger": false,
      "taf_trigger": false,
      "metar": "METAR LRSV 061600Z 02005KT 340V050 9999 BKN025 BKN046 08/04 Q1017",
      "taf": "TAF LRSV 061400Z 0615/0624 32018KT 9999 FEW050CB"
    },
    {
      "icao": "LRTM",
      "alert": "OK",
      "vis_m": 9999,
      "fzfg": false,
      "metar_trigger": false,
      "taf_trigger": false,
      "metar": "METAR LRTM 061600Z 29016KT CAVOK 18/03 Q1016",
      "taf": "TAF LRTM 061400Z 0615/0624 30014KT 9999 SCT045"
    },
    {
      "icao": "LRTR",
      "alert": "OK",
      "vis_m": 9999,
      "fzfg": false,
      "metar_trigger": false,
      "taf_trigger": false,
      "metar": "METAR LRTR 061600Z 33009KT CAVOK 19/08 Q1020",
      "taf": "TAF LRTR 061100Z 0612/0712 26010KT CAVOK"
    },
    {
      "icao": "LTAC",
      "alert": "OK",
      "vis_m": 9999,
      "fzfg": false,
      "metar_trigger": false,
      "taf_trigger": false,
      "metar": "METAR LTAC 061620Z 23004KT 180V240 9999 SCT040 14/M00 Q1018 NOSIG",
      "taf": "TAF LTAC 061040Z 0612/0712 VRB02KT 9999 SCT040"
    },
    {
      "icao": "LTFM",
      "alert": "OK",
      "vis_m": 9999,
      "fzfg": false,
      "metar_trigger": false,
      "taf_trigger": false,
      "metar": "METAR LTFM 061550Z 11005KT 070V130 CAVOK 17/03 Q1019 NOSIG RMK RWY17L 09006KT RWY34L 09005KT 050V110 RWY16R 10006KT RWY36 08005KT 020V100 RWY18 11005KT",
      "taf": "TAF LTFM 061040Z 0612/0718 10008KT CAVOK"
    },
    {
      "icao": "LUKK",
      "alert": "OK",
      "vis_m": 9999,
      "fzfg": false,
      "metar_trigger": false,
      "taf_trigger": false,
      "metar": "METAR LUKK 061600Z 36015KT 330V040 CAVOK 13/04 Q1015 TEMPO 35022G32KT",
      "taf": ""
    },
    {
      "icao": "LWOH",
      "alert": "OK",
      "vis_m": 9999,
      "fzfg": false,
      "metar_trigger": false,
      "taf_trigger": false,
      "metar": "METAR LWOH 061620Z 12004KT 9999 FEW040 17/09 Q1020",
      "taf": "TAF LWOH 061430Z 0615/0715 17008KT 9999 FEW040"
    },
    {
      "icao": "LWSK",
      "alert": "OK",
      "vis_m": 9999,
      "fzfg": false,
      "metar_trigger": false,
      "taf_trigger": false,
      "metar": "METAR LWSK 061550Z VRB02KT CAVOK 24/07 Q1019 NOSIG",
      "taf": "TAF LWSK 061430Z 0615/0715 VRB02KT CAVOK"
    },
    {
      "icao": "LYBE",
      "alert": "OK",
      "vis_m": 9999,
      "fzfg": false,
      "metar_trigger": false,
      "taf_trigger": false,
      "metar": "METAR LYBE 061600Z 35006KT CAVOK 22/09 Q1020 NOSIG",
      "taf": "TAF LYBE 061100Z 0612/0712 34006KT CAVOK TX23/0613Z TN09/0705Z"
    },
    {
      "icao": "LYNI",
      "alert": "OK",
      "vis_m": 9999,
      "fzfg": false,
      "metar_trigger": false,
      "taf_trigger": false,
      "metar": "METAR LYNI 061600Z 32008KT CAVOK 22/02 Q1019 NOSIG",
      "taf": "TAF LYNI 061100Z 0612/0712 31006KT CAVOK TX23/0613Z TN07/0705Z"
    },
    {
      "icao": "LYPG",
      "alert": "OK",
      "vis_m": 9999,
      "fzfg": false,
      "metar_trigger": false,
      "taf_trigger": false,
      "metar": "METAR LYPG 061600Z 13009KT CAVOK 21/10 Q1020 NOSIG",
      "taf": "TAF LYPG 061100Z 0612/0712 18009KT CAVOK TX23/0612Z TN08/0704Z"
    },
    {
      "icao": "LZIB",
      "alert": "OK",
      "vis_m": 9999,
      "fzfg": false,
      "metar_trigger": false,
      "taf_trigger": false,
      "metar": "METAR LZIB 061600Z 35015KT CAVOK 16/M00 Q1022 NOSIG",
      "taf": "TAF LZIB 061115Z 0612/0712 33014KT CAVOK"
    },
    {
      "icao": "LZKZ",
      "alert": "OK",
      "vis_m": 9999,
      "fzfg": false,
      "metar_trigger": false,
      "taf_trigger": false,
      "metar": "METAR LZKZ 061600Z 34021KT CAVOK 14/M06 Q1018 NOSIG",
      "taf": "TAF LZKZ 061115Z 0612/0712 01009KT CAVOK"
    },
    {
      "icao": "LZTT",
      "alert": "OK",
      "vis_m": 9999,
      "fzfg": false,
      "metar_trigger": false,
      "taf_trigger": false,
      "metar": "METAR LZTT 061600Z 31011KT 9999 SCT063 09/M05 Q1020 NOSIG",
      "taf": "TAF LZTT 061115Z 0612/0712 27016KT 9999 SCT053"
    },
    {
      "icao": "OEJN",
      "alert": "OK",
      "vis_m": 8000,
      "fzfg": false,
      "metar_trigger": false,
      "taf_trigger": false,
      "metar": "METAR OEJN 061600Z 33018KT 8000 NSC 28/14 Q1013 NOSIG",
      "taf": "TAF OEJN 061100Z 0612/0718 30015KT CAVOK"
    },
    {
      "icao": "OEMA",
      "alert": "OK",
      "vis_m": 9999,
      "fzfg": false,
      "metar_trigger": false,
      "taf_trigger": false,
      "metar": "METAR OEMA 061600Z 31009KT 9999 SCT045 30/M04 Q1016 NOSIG",
      "taf": "TAF OEMA 061100Z 0612/0718 34012KT 7000 NSC"
    },
    {
      "icao": "OJAI",
      "alert": "OK",
      "vis_m": 5000,
      "fzfg": false,
      "metar_trigger": false,
      "taf_trigger": false,
      "metar": "METAR OJAI 061500Z 26012KT 5000 HZ FEW030 15/07 Q1020 NOSIG",
      "taf": "TAF OJAI 061100Z 0612/0718 28012KT 5000 HZ BKN030"
    },
    {
      "icao": "OMAA",
      "alert": "OK",
      "vis_m": null,
      "fzfg": false,
      "metar_trigger": false,
      "taf_trigger": false,
      "metar": "",
      "taf": ""
    },
    {
      "icao": "OMDB",
      "alert": "OK",
      "vis_m": null,
      "fzfg": false,
      "metar_trigger": false,
      "taf_trigger": false,
      "metar": "",
      "taf": ""
    },
    {
      "icao": "UAAA",
      "alert": "OK",
      "vis_m": 9999,
      "fzfg": false,
      "metar_trigger": false,
      "taf_trigger": false,
      "metar": "METAR UAAA 061600Z VRB01MPS 9999 SCT050CB BKN100 18/08 Q1008 NOSIG",
      "taf": "TAF UAAA 061100Z 0612/0712 02003MPS 9999 FEW050CB SCT100 TX23/0710Z TN11/0701Z"
    },
    {
      "icao": "UBBB",
      "alert": "OK",
      "vis_m": 9999,
      "fzfg": false,
      "metar_trigger": false,
      "taf_trigger": false,
      "metar": "METAR UBBB 061600Z 33014KT CAVOK 11/06 Q1016 NOSIG",
      "taf": "TAF UBBB 061057Z 0612/0712 33024G34KT 9999 SCT015 FEW040CB TX13/0612Z TN10/0701Z"
    },
    {
      "icao": "UDSG",
      "alert": "OK",
      "vis_m": 9999,
      "fzfg": false,
      "metar_trigger": false,
      "taf_trigger": false,
      "metar": "METAR UDSG 061600Z 36008KT 9999 NSC 07/M00 Q1018 NOSIG",
      "taf": "TAF UDSG 061100Z 0612/0712 VRB06KT 9999 FEW050"
    },
    {
      "icao": "UDYZ",
      "alert": "OK",
      "vis_m": 9999,
      "fzfg": false,
      "metar_trigger": false,
      "taf_trigger": false,
      "metar": "METAR UDYZ 061600Z 23004KT 9999 FEW046 15/03 Q1014 NOSIG",
      "taf": "TAF UDYZ 061100Z 0612/0712 04006KT 9999 FEW040"
    },
    {
      "icao": "UGKO",
      "alert": "OK",
      "vis_m": 9999,
      "fzfg": false,
      "metar_trigger": false,
      "taf_trigger": false,
      "metar": "METAR UGKO 061600Z 27009KT 9999 SCT017 BKN047 11/09 Q1020 NOSIG",
      "taf": "TAF UGKO 061100Z 0612/0712 27007KT 9999 SCT030 BKN050 TX20/0712Z TN08/0703Z"
    }
  ]
}