{
  "ts_utc": "2026-03-23T20:05:09Z",
  "threshold_m": 150,
  "source": "stations_override.txt (ICAO list) + aviationweather.gov (METAR/TAF raw)",
  "station_count": 159,
  "stations": [
    {
      "icao": "BIKF",
      "alert": "OK",
      "vis_m": 9999,
      "fzfg": false,
      "metar_trigger": false,
      "taf_trigger": false,
      "metar": "METAR BIKF 232000Z 02023G33KT 9999 BKN011 OVC031 M00/M02 Q0975",
      "taf": "TAF BIKF 231959Z 2321/2421 02023G33KT 9999 SCT010 BKN025 TX00/2414Z TNM03/2421Z"
    },
    {
      "icao": "BKPR",
      "alert": "OK",
      "vis_m": 9999,
      "fzfg": false,
      "metar_trigger": false,
      "taf_trigger": false,
      "metar": "METAR BKPR 232000Z 36008KT 9999 BKN065 08/02 Q1015 NOSIG",
      "taf": "TAF BKPR 231730Z 2318/2418 02010KT 9999 BKN050"
    },
    {
      "icao": "EBCI",
      "alert": "OK",
      "vis_m": 9000,
      "fzfg": false,
      "metar_trigger": false,
      "taf_trigger": false,
      "metar": "METAR EBCI 231950Z VRB01KT 9000 NSC 11/04 Q1021 NOSIG",
      "taf": "TAF EBCI 231706Z 2318/2424 30004KT 9999 FEW045"
    },
    {
      "icao": "EDDB",
      "alert": "OK",
      "vis_m": 9999,
      "fzfg": false,
      "metar_trigger": false,
      "taf_trigger": false,
      "metar": "METAR EDDB 231950Z AUTO 26002KT CAVOK 09/M01 Q1019 NOSIG",
      "taf": "TAF EDDB 231700Z 2318/2418 28004KT CAVOK"
    },
    {
      "icao": "EDDH",
      "alert": "OK",
      "vis_m": 9999,
      "fzfg": false,
      "metar_trigger": false,
      "taf_trigger": false,
      "metar": "METAR EDDH 231950Z AUTO VRB01KT CAVOK 06/03 Q1019 BECMG 4500 BR",
      "taf": "TAF EDDH 231700Z 2318/2424 30006KT CAVOK"
    },
    {
      "icao": "EDDK",
      "alert": "OK",
      "vis_m": 9999,
      "fzfg": false,
      "metar_trigger": false,
      "taf_trigger": false,
      "metar": "METAR EDDK 231950Z AUTO 00000KT CAVOK 09/00 Q1021 NOSIG",
      "taf": "TAF EDDK 231700Z 2318/2424 28005KT CAVOK"
    },
    {
      "icao": "EDDN",
      "alert": "OK",
      "vis_m": 9999,
      "fzfg": false,
      "metar_trigger": false,
      "taf_trigger": false,
      "metar": "METAR EDDN 231950Z AUTO VRB01KT CAVOK 05/M00 Q1020 NOSIG",
      "taf": "TAF EDDN 231700Z 2318/2418 VRB03KT CAVOK"
    },
    {
      "icao": "EDDS",
      "alert": "OK",
      "vis_m": 9999,
      "fzfg": false,
      "metar_trigger": false,
      "taf_trigger": false,
      "metar": "METAR EDDS 231950Z AUTO 30006KT CAVOK 06/M01 Q1020 NOSIG",
      "taf": "TAF EDDS 231700Z 2318/2418 02005KT CAVOK"
    },
    {
      "icao": "EDFH",
      "alert": "OK",
      "vis_m": 9999,
      "fzfg": false,
      "metar_trigger": false,
      "taf_trigger": false,
      "metar": "METAR EDFH 231950Z 13003KT CAVOK 10/M03 Q1020",
      "taf": "TAF EDFH 231700Z 2318/2418 30005KT CAVOK"
    },
    {
      "icao": "EDJA",
      "alert": "OK",
      "vis_m": 9999,
      "fzfg": false,
      "metar_trigger": false,
      "taf_trigger": false,
      "metar": "METAR EDJA 231950Z 19003KT CAVOK 05/00 Q1020",
      "taf": "TAF EDJA 231700Z 2318/2403 VRB03KT CAVOK"
    },
    {
      "icao": "EDLW",
      "alert": "OK",
      "vis_m": 9999,
      "fzfg": false,
      "metar_trigger": false,
      "taf_trigger": false,
      "metar": "METAR EDLW 231950Z 21004KT CAVOK 10/02 Q1020",
      "taf": "TAF EDLW 231700Z 2318/2418 VRB03KT CAVOK"
    },
    {
      "icao": "EDNY",
      "alert": "OK",
      "vis_m": 9999,
      "fzfg": false,
      "metar_trigger": false,
      "taf_trigger": false,
      "metar": "METAR EDNY 231950Z VRB01KT CAVOK 06/01 Q1021",
      "taf": "TAF EDNY 231700Z 2318/2403 VRB03KT CAVOK"
    },
    {
      "icao": "EDSB",
      "alert": "OK",
      "vis_m": 9999,
      "fzfg": false,
      "metar_trigger": false,
      "taf_trigger": false,
      "metar": "METAR EDSB 231950Z 00000KT CAVOK 07/01 Q1021",
      "taf": "TAF EDSB 231700Z 2318/2418 VRB03KT CAVOK"
    },
    {
      "icao": "EETN",
      "alert": "OK",
      "vis_m": 9999,
      "fzfg": false,
      "metar_trigger": false,
      "taf_trigger": false,
      "metar": "METAR EETN 231950Z 26013KT 9999 SCT024 BKN033 04/01 Q1010 NOSIG",
      "taf": "TAF EETN 231730Z 2318/2418 21008KT CAVOK"
    },
    {
      "icao": "EFTU",
      "alert": "OK",
      "vis_m": 9999,
      "fzfg": false,
      "metar_trigger": false,
      "taf_trigger": false,
      "metar": "METAR EFTU 231950Z AUTO 25005KT CAVOK 01/M00 Q1008",
      "taf": "TAF EFTU 231737Z 2318/2418 25005KT CAVOK"
    },
    {
      "icao": "EGBB",
      "alert": "OK",
      "vis_m": 9999,
      "fzfg": false,
      "metar_trigger": false,
      "taf_trigger": false,
      "metar": "METAR EGBB 231950Z 20004KT 160V230 CAVOK 11/06 Q1018",
      "taf": "TAF EGBB 231656Z 2318/2418 22006KT 9999 FEW035"
    },
    {
      "icao": "EGGP",
      "alert": "OK",
      "vis_m": 9999,
      "fzfg": false,
      "metar_trigger": false,
      "taf_trigger": false,
      "metar": "METAR EGGP 231950Z 20006KT CAVOK 10/05 Q1016",
      "taf": "TAF EGGP 231655Z 2318/2418 22008KT 9999 FEW030"
    },
    {
      "icao": "EGGW",
      "alert": "OK",
      "vis_m": 9000,
      "fzfg": false,
      "metar_trigger": false,
      "taf_trigger": false,
      "metar": "METAR EGGW 231950Z AUTO 23005KT 9000 NCD 10/06 Q1019",
      "taf": "TAF EGGW 231658Z 2318/2418 22008KT 9999 SCT030"
    },
    {
      "icao": "EGKK",
      "alert": "OK",
      "vis_m": 8000,
      "fzfg": false,
      "metar_trigger": false,
      "taf_trigger": false,
      "metar": "METAR EGKK 231950Z 20006KT 160V240 8000 NSC 10/06 Q1020",
      "taf": "TAF EGKK 231654Z 2318/2424 21008KT 9999 FEW030"
    },
    {
      "icao": "EGNM",
      "alert": "OK",
      "vis_m": 9999,
      "fzfg": false,
      "metar_trigger": false,
      "taf_trigger": false,
      "metar": "METAR EGNM 231950Z 22009KT CAVOK 09/03 Q1015",
      "taf": "TAF EGNM 231701Z 2318/2418 21008KT 9999 SCT025"
    },
    {
      "icao": "EGPD",
      "alert": "OK",
      "vis_m": 9999,
      "fzfg": false,
      "metar_trigger": false,
      "taf_trigger": false,
      "metar": "METAR EGPD 231950Z COR AUTO 21024KT 9999 FEW020 08/04 Q1004 NOSIG",
      "taf": ""
    },
    {
      "icao": "EGPF",
      "alert": "OK",
      "vis_m": 9999,
      "fzfg": false,
      "metar_trigger": false,
      "taf_trigger": false,
      "metar": "METAR EGPF 231950Z AUTO 22022KT 9999 SCT024 BKN029 BKN033 10/07 Q1008",
      "taf": ""
    },
    {
      "icao": "EHBK",
      "alert": "OK",
      "vis_m": 9999,
      "fzfg": false,
      "metar_trigger": false,
      "taf_trigger": false,
      "metar": "METAR EHBK 231955Z AUTO 32003KT 9999 NSC 11/02 Q1021 NOSIG",
      "taf": "TAF EHBK 231717Z 2318/2424 27004KT CAVOK"
    },
    {
      "icao": "EHEH",
      "alert": "OK",
      "vis_m": 8000,
      "fzfg": false,
      "metar_trigger": false,
      "taf_trigger": false,
      "metar": "METAR EHEH 231955Z AUTO VRB02KT 8000 BR OVC170 07/05 Q1021 BLU NOSIG",
      "taf": "TAF EHEH 231758Z 2318/2424 29003KT CAVOK"
    },
    {
      "icao": "EKBI",
      "alert": "OK",
      "vis_m": 9999,
      "fzfg": false,
      "metar_trigger": false,
      "taf_trigger": false,
      "metar": "METAR EKBI 231950Z AUTO 12001KT 9999 BKN110/// 03/01 Q1018",
      "taf": "TAF EKBI 231727Z 2318/2418 30004KT 9999 FEW040"
    },
    {
      "icao": "EKCH",
      "alert": "OK",
      "vis_m": 9999,
      "fzfg": false,
      "metar_trigger": false,
      "taf_trigger": false,
      "metar": "METAR EKCH 231950Z AUTO 18002KT 9999 BKN170/// 04/01 Q1018 NOSIG",
      "taf": "TAF EKCH 231727Z 2318/2418 03005KT 9999 FEW045"
    },
    {
      "icao": "ENAL",
      "alert": "OK",
      "vis_m": 9999,
      "fzfg": false,
      "metar_trigger": false,
      "taf_trigger": false,
      "metar": "METAR ENAL 231950Z 19010KT 9999 FEW010 SCT032 BKN038 04/M00 Q1005",
      "taf": "TAF ENAL 231700Z 2318/2403 23020KT 9999 -SHRASN FEW015TCU BKN030"
    },
    {
      "icao": "ENBR",
      "alert": "OK",
      "vis_m": 9999,
      "fzfg": false,
      "metar_trigger": false,
      "taf_trigger": false,
      "metar": "METAR ENBR 231950Z 17016KT 9999 -SHRA SCT015 BKN035 04/01 Q1010 BECMG BKN014 RMK WIND 1200FT 16019KT",
      "taf": "TAF ENBR 231700Z 2318/2418 18012KT 9999 FEW030 SCT040"
    },
    {
      "icao": "ENGM",
      "alert": "OK",
      "vis_m": 9999,
      "fzfg": false,
      "metar_trigger": false,
      "taf_trigger": false,
      "metar": "METAR ENGM 231950Z VRB02KT CAVOK 04/M08 Q1011 NOSIG",
      "taf": "TAF ENGM 231700Z 2318/2418 23008KT CAVOK"
    },
    {
      "icao": "ENHD",
      "alert": "OK",
      "vis_m": 9999,
      "fzfg": false,
      "metar_trigger": false,
      "taf_trigger": false,
      "metar": "METAR ENHD 231950Z 17011KT 9999 -SHRA SCT024 BKN036 05/03 Q1011",
      "taf": "TAF ENHD 231400Z 2315/2323 21008KT 9999 SCT025"
    },
    {
      "icao": "ENTC",
      "alert": "OK",
      "vis_m": 9999,
      "fzfg": false,
      "metar_trigger": false,
      "taf_trigger": false,
      "metar": "METAR ENTC 231950Z 23007KT 200V260 9999 FEW041 SCT053 02/M06 Q0990 TEMPO 26015G25KT 2000 SHSNRAGS BKN009 SCT020CB RMK WIND 2600FT 29023KT",
      "taf": ""
    },
    {
      "icao": "ENTO",
      "alert": "OK",
      "vis_m": 9999,
      "fzfg": false,
      "metar_trigger": false,
      "taf_trigger": false,
      "metar": "METAR ENTO 231950Z 26007KT 220V290 CAVOK 05/M04 Q1013 NOSIG",
      "taf": "TAF ENTO 231700Z 2318/2418 23008KT CAVOK"
    },
    {
      "icao": "ENVA",
      "alert": "OK",
      "vis_m": 9999,
      "fzfg": false,
      "metar_trigger": false,
      "taf_trigger": false,
      "metar": "METAR ENVA 231950Z 23013KT 9999 SCT048 04/M05 Q1005 NOSIG RMK WIND 670FT 24015KT",
      "taf": "TAF ENVA 231700Z 2318/2418 24015KT 9999 FEW020 SCT040"
    },
    {
      "icao": "ENZV",
      "alert": "OK",
      "vis_m": 9999,
      "fzfg": false,
      "metar_trigger": false,
      "taf_trigger": false,
      "metar": "METAR ENZV 231950Z 18011KT 9999 -RA FEW006 BKN017 BKN026 04/02 Q1013 BECMG BKN014",
      "taf": "TAF ENZV 231700Z 2318/2418 22008KT 9999 SCT030"
    },
    {
      "icao": "EPGD",
      "alert": "OK",
      "vis_m": 9999,
      "fzfg": false,
      "metar_trigger": false,
      "taf_trigger": false,
      "metar": "METAR EPGD 232000Z VRB01KT CAVOK 05/M00 Q1018",
      "taf": "TAF EPGD 231730Z 2318/2418 VRB02KT CAVOK"
    },
    {
      "icao": "EPKK",
      "alert": "OK",
      "vis_m": 9999,
      "fzfg": false,
      "metar_trigger": false,
      "taf_trigger": false,
      "metar": "METAR EPKK 232000Z 03003KT CAVOK 08/M01 Q1018",
      "taf": "TAF EPKK 231730Z 2318/2418 VRB02KT CAVOK"
    },
    {
      "icao": "EPKT",
      "alert": "OK",
      "vis_m": 9999,
      "fzfg": false,
      "metar_trigger": false,
      "taf_trigger": false,
      "metar": "METAR EPKT 232000Z VRB01KT CAVOK 05/M01 Q1018",
      "taf": "TAF EPKT 231730Z 2318/2418 33004KT CAVOK"
    },
    {
      "icao": "EPLB",
      "alert": "OK",
      "vis_m": 9999,
      "fzfg": false,
      "metar_trigger": false,
      "taf_trigger": false,
      "metar": "METAR EPLB 232000Z VRB01KT CAVOK 03/M03 Q1018",
      "taf": "TAF EPLB 231730Z 2318/2418 VRB02KT CAVOK"
    },
    {
      "icao": "EPMO",
      "alert": "OK",
      "vis_m": 9999,
      "fzfg": false,
      "metar_trigger": false,
      "taf_trigger": false,
      "metar": "METAR EPMO 232000Z 26002KT CAVOK 06/M02 Q1018",
      "taf": "TAF EPMO 231730Z 2318/2418 VRB03KT CAVOK"
    },
    {
      "icao": "EPPO",
      "alert": "OK",
      "vis_m": 9999,
      "fzfg": false,
      "metar_trigger": false,
      "taf_trigger": false,
      "metar": "METAR EPPO 232000Z VRB01KT CAVOK 04/M01 Q1019",
      "taf": "TAF EPPO 231730Z 2318/2418 VRB02KT CAVOK"
    },
    {
      "icao": "EPRA",
      "alert": "OK",
      "vis_m": 9999,
      "fzfg": false,
      "metar_trigger": false,
      "taf_trigger": false,
      "metar": "METAR EPRA 232000Z 20002KT CAVOK 05/M03 Q1018",
      "taf": "TAF EPRA 231730Z 2318/2403 VRB02KT CAVOK"
    },
    {
      "icao": "EPRZ",
      "alert": "OK",
      "vis_m": 9999,
      "fzfg": false,
      "metar_trigger": false,
      "taf_trigger": false,
      "metar": "METAR EPRZ 232000Z 29002KT CAVOK 04/M02 Q1018",
      "taf": "TAF EPRZ 231703Z 2318/2418 02004KT CAVOK"
    },
    {
      "icao": "EPSC",
      "alert": "OK",
      "vis_m": 9999,
      "fzfg": false,
      "metar_trigger": false,
      "taf_trigger": false,
      "metar": "METAR EPSC 232000Z 12002KT CAVOK 05/M00 Q1018",
      "taf": "TAF EPSC 231730Z 2318/2418 VRB02KT CAVOK"
    },
    {
      "icao": "EPSY",
      "alert": "OK",
      "vis_m": 9999,
      "fzfg": false,
      "metar_trigger": false,
      "taf_trigger": false,
      "metar": "METAR EPSY 232000Z 26001KT CAVOK 03/M02 Q1018",
      "taf": "TAF EPSY 231730Z 2318/2403 19005KT CAVOK"
    },
    {
      "icao": "EPWA",
      "alert": "OK",
      "vis_m": 9999,
      "fzfg": false,
      "metar_trigger": false,
      "taf_trigger": false,
      "metar": "METAR EPWA 232000Z 22002KT CAVOK 05/M02 Q1018 NOSIG",
      "taf": "TAF EPWA 231730Z 2318/2418 VRB03KT CAVOK"
    },
    {
      "icao": "EPWR",
      "alert": "OK",
      "vis_m": 9999,
      "fzfg": false,
      "metar_trigger": false,
      "taf_trigger": false,
      "metar": "METAR EPWR 232000Z 29002KT CAVOK 09/02 Q1019",
      "taf": "TAF EPWR 231730Z 2318/2418 25004KT CAVOK"
    },
    {
      "icao": "ESGG",
      "alert": "OK",
      "vis_m": 9999,
      "fzfg": false,
      "metar_trigger": false,
      "taf_trigger": false,
      "metar": "METAR ESGG 231950Z 23006KT CAVOK 02/00 Q1016",
      "taf": "TAF ESGG 231730Z 2318/2418 27008KT CAVOK"
    },
    {
      "icao": "ESKN",
      "alert": "OK",
      "vis_m": 9999,
      "fzfg": false,
      "metar_trigger": false,
      "taf_trigger": false,
      "metar": "METAR ESKN 231950Z 26009KT CAVOK 03/M02 Q1013",
      "taf": "TAF ESKN 231730Z 2318/2418 26012KT CAVOK"
    },
    {
      "icao": "ESMS",
      "alert": "OK",
      "vis_m": 9999,
      "fzfg": false,
      "metar_trigger": false,
      "taf_trigger": false,
      "metar": "METAR ESMS 231950Z 00000KT CAVOK 02/00 Q1017",
      "taf": "TAF ESMS 231727Z 2318/2418 30005KT CAVOK"
    },
    {
      "icao": "ESSA",
      "alert": "OK",
      "vis_m": 9999,
      "fzfg": false,
      "metar_trigger": false,
      "taf_trigger": false,
      "metar": "METAR ESSA 231950Z 25009KT CAVOK 04/M04 Q1011 NOSIG",
      "taf": "TAF ESSA 231730Z 2318/2418 24012KT CAVOK"
    },
    {
      "icao": "EYKA",
      "alert": "OK",
      "vis_m": 9999,
      "fzfg": false,
      "metar_trigger": false,
      "taf_trigger": false,
      "metar": "METAR EYKA 231950Z 22004KT CAVOK 07/M03 Q1017",
      "taf": "TAF EYKA 231700Z 2318/2418 VRB04KT 9000 NSC"
    },
    {
      "icao": "EYPA",
      "alert": "OK",
      "vis_m": 9999,
      "fzfg": false,
      "metar_trigger": false,
      "taf_trigger": false,
      "metar": "METAR EYPA 231950Z 18003KT 170V260 CAVOK 00/M00 Q1016",
      "taf": "TAF EYPA 231700Z 2318/2418 VRB03KT 8000 NSC"
    },
    {
      "icao": "EYVI",
      "alert": "OK",
      "vis_m": 9999,
      "fzfg": false,
      "metar_trigger": false,
      "taf_trigger": false,
      "metar": "METAR EYVI 231950Z 18003KT CAVOK 05/M01 Q1017 NOSIG",
      "taf": "TAF EYVI 231700Z 2318/2418 VRB05KT 9000 NSC"
    },
    {
      "icao": "GCFV",
      "alert": "OK",
      "vis_m": 9999,
      "fzfg": false,
      "metar_trigger": false,
      "taf_trigger": false,
      "metar": "METAR GCFV 231930Z 15005KT 9999 SCT025 18/17 Q1009",
      "taf": "TAF GCFV 231400Z 2315/2415 16016KT 9999 SCT025 TX22/2414Z TN16/2406Z"
    },
    {
      "icao": "GCLP",
      "alert": "OK",
      "vis_m": 9999,
      "fzfg": false,
      "metar_trigger": false,
      "taf_trigger": false,
      "metar": "METAR GCLP 231930Z 20006KT 9999 FEW020 SCT040 19/15 Q1008 NOSIG",
      "taf": "TAF GCLP 231400Z 2315/2415 19018KT 9999 SCT030 TX22/2414Z TN15/2406Z"
    },
    {
      "icao": "GCTS",
      "alert": "OK",
      "vis_m": 9999,
      "fzfg": false,
      "metar_trigger": false,
      "taf_trigger": false,
      "metar": "METAR GCTS 231930Z 19003KT 150V210 9999 SCT030 BKN100 19/14 Q1007 NOSIG",
      "taf": "TAF GCTS 231400Z 2315/2415 23005KT 9999 SCT020 TX22/2414Z TN15/2406Z"
    },
    {
      "icao": "GMAD",
      "alert": "OK",
      "vis_m": 9999,
      "fzfg": false,
      "metar_trigger": false,
      "taf_trigger": false,
      "metar": "METAR GMAD 232000Z 22006KT 9999 FEW030 17/15 Q1010 NOSIG",
      "taf": "TAF GMAD 231700Z 2318/2424 20008KT 8000 SCT020TCU SCT080"
    },
    {
      "icao": "GMMN",
      "alert": "OK",
      "vis_m": 9999,
      "fzfg": false,
      "metar_trigger": false,
      "taf_trigger": false,
      "metar": "METAR GMMN 232000Z 05006KT 9999 SCT020 15/13 Q1013 NOSIG",
      "taf": "TAF GMMN 231700Z 2318/2424 36010KT 9999 SCT020"
    },
    {
      "icao": "GMMX",
      "alert": "OK",
      "vis_m": 8000,
      "fzfg": false,
      "metar_trigger": false,
      "taf_trigger": false,
      "metar": "METAR GMMX 232000Z 28011KT 250V320 8000 TSRA BKN020 SCT030CB 14/12 Q1013 NOSIG",
      "taf": "TAF GMMX 231700Z 2318/2424 06006KT 8000 BKN023 FEW030CB"
    },
    {
      "icao": "HEGN",
      "alert": "OK",
      "vis_m": 9999,
      "fzfg": false,
      "metar_trigger": false,
      "taf_trigger": false,
      "metar": "METAR HEGN 231900Z 00000KT CAVOK 20/12 Q1008 NOSIG",
      "taf": "TAF HEGN 231700Z 2318/2424 31010KT 9999 SCT025"
    },
    {
      "icao": "HEMA",
      "alert": "OK",
      "vis_m": 9999,
      "fzfg": false,
      "metar_trigger": false,
      "taf_trigger": false,
      "metar": "METAR HEMA 231900Z 33010KT CAVOK 21/16 Q1008 NOSIG",
      "taf": "TAF HEMA 231700Z 2318/2424 35010KT 9999 SCT025"
    },
    {
      "icao": "HESH",
      "alert": "OK",
      "vis_m": 9999,
      "fzfg": false,
      "metar_trigger": false,
      "taf_trigger": false,
      "metar": "METAR HESH 231900Z 01003KT CAVOK 21/11 Q1007 NOSIG",
      "taf": "TAF HESH 231700Z 2318/2424 32010KT 9999 SCT025"
    },
    {
      "icao": "HESX",
      "alert": "OK",
      "vis_m": 9999,
      "fzfg": false,
      "metar_trigger": false,
      "taf_trigger": false,
      "metar": "METAR HESX 231900Z 36008KT 9999 RA FEW020 BKN100 15/11 Q1010 NOSIG",
      "taf": "TAF HESX 231700Z 2318/2424 30010KT 9999 SCT020"
    },
    {
      "icao": "LATI",
      "alert": "OK",
      "vis_m": 9999,
      "fzfg": false,
      "metar_trigger": false,
      "taf_trigger": false,
      "metar": "METAR LATI 231950Z 16003KT 9999 BKN072 OVC094 09/06 Q1014 NOSIG",
      "taf": "TAF LATI 231700Z 2318/2418 VRB05KT 9999 SCT080 TX19/2412Z TN06/2404Z"
    },
    {
      "icao": "LBPD",
      "alert": "OK",
      "vis_m": 9999,
      "fzfg": false,
      "metar_trigger": false,
      "taf_trigger": false,
      "metar": "METAR LBPD 232000Z AUTO 15005KT 9999 -RA OVC038/// 08/06 Q1015 NOSIG",
      "taf": "TAF LBPD 231700Z 2318/2418 09010KT 9999 SCT030 OVC050"
    },
    {
      "icao": "LBSF",
      "alert": "OK",
      "vis_m": 9999,
      "fzfg": false,
      "metar_trigger": false,
      "taf_trigger": false,
      "metar": "METAR LBSF 232000Z AUTO 03002KT 9999 SCT033/// BKN047/// 05/02 Q1016 NOSIG",
      "taf": "TAF LBSF 231700Z 2318/2418 03010KT 9999 BKN025 BKN040"
    },
    {
      "icao": "LBWN",
      "alert": "OK",
      "vis_m": 9999,
      "fzfg": false,
      "metar_trigger": false,
      "taf_trigger": false,
      "metar": "METAR LBWN 232000Z AUTO 35006KT 9999 NSC 07/04 Q1015 NOSIG",
      "taf": "TAF LBWN 231700Z 2318/2418 02010KT 9999 OVC045"
    },
    {
      "icao": "LCLK",
      "alert": "OK",
      "vis_m": 9999,
      "fzfg": false,
      "metar_trigger": false,
      "taf_trigger": false,
      "metar": "METAR LCLK 232000Z 31004KT 9999 FEW030 11/10 Q1009 NOSIG",
      "taf": "TAF LCLK 231730Z 2318/2418 31006KT 9999 FEW025 SCT045"
    },
    {
      "icao": "LCPH",
      "alert": "OK",
      "vis_m": 9999,
      "fzfg": false,
      "metar_trigger": false,
      "taf_trigger": false,
      "metar": "METAR LCPH 232000Z 08006KT 010V080 9999 FEW050 SCT080 13/10 Q1009 NOSIG",
      "taf": "TAF LCPH 231730Z 2318/2418 04007KT 9999 FEW025 SCT035"
    },
    {
      "icao": "LEAL",
      "alert": "OK",
      "vis_m": 9999,
      "fzfg": false,
      "metar_trigger": false,
      "taf_trigger": false,
      "metar": "METAR LEAL 231930Z 07017KT CAVOK 15/10 Q1019 NOSIG",
      "taf": "TAF LEAL 231700Z 2318/2418 08012KT 9999 FEW040 TX18/2412Z TN08/2406Z"
    },
    {
      "icao": "LEBB",
      "alert": "OK",
      "vis_m": 9999,
      "fzfg": false,
      "metar_trigger": false,
      "taf_trigger": false,
      "metar": "METAR LEBB 231930Z VRB02KT 9999 FEW030 12/10 Q1022 NOSIG",
      "taf": "TAF LEBB 231700Z 2318/2418 10006KT 9000 FEW020 SCT030 TX20/2414Z TN04/2406Z"
    },
    {
      "icao": "LEBL",
      "alert": "OK",
      "vis_m": 9999,
      "fzfg": false,
      "metar_trigger": false,
      "taf_trigger": false,
      "metar": "METAR LEBL 231930Z 10003KT 9999 FEW046 SCT056 14/09 Q1021 NOSIG",
      "taf": "TAF LEBL 231700Z 2318/2418 09012KT 9999 FEW020 TX18/2412Z TN09/2406Z"
    },
    {
      "icao": "LECH",
      "alert": "OK",
      "vis_m": 8000,
      "fzfg": false,
      "metar_trigger": false,
      "taf_trigger": false,
      "metar": "METAR LECH 231930Z AUTO VRB02KT 8000 NCD 08/06 Q1021",
      "taf": "TAF LECH 231700Z 2318/2418 VRB04KT 9999 FEW020 TX19/2413Z TN04/2406Z"
    },
    {
      "icao": "LEMD",
      "alert": "OK",
      "vis_m": 9999,
      "fzfg": false,
      "metar_trigger": false,
      "taf_trigger": false,
      "metar": "METAR LEMD 231930Z VRB02KT CAVOK 11/M00 Q1018 NOSIG",
      "taf": "TAF LEMD 231700Z 2318/2424 VRB04KT CAVOK TX18/2416Z TN02/2406Z"
    },
    {
      "icao": "LEMG",
      "alert": "OK",
      "vis_m": 9999,
      "fzfg": false,
      "metar_trigger": false,
      "taf_trigger": false,
      "metar": "METAR LEMG 231930Z 10005KT 060V160 9999 FEW014 SCT025 15/12 Q1017 NOSIG",
      "taf": "TAF LEMG 231700Z 2318/2418 13009KT 9999 FEW040 TX18/2413Z TN11/2406Z"
    },
    {
      "icao": "LEVC",
      "alert": "OK",
      "vis_m": 9999,
      "fzfg": false,
      "metar_trigger": false,
      "taf_trigger": false,
      "metar": "METAR LEVC 231930Z 08003KT 040V120 9999 FEW020 13/08 Q1021 NOSIG",
      "taf": "TAF LEVC 231700Z 2318/2418 06008KT 9999 FEW020 TX20/2412Z TN06/2406Z"
    },
    {
      "icao": "LEXJ",
      "alert": "OK",
      "vis_m": 8000,
      "fzfg": false,
      "metar_trigger": false,
      "taf_trigger": false,
      "metar": "METAR LEXJ 231930Z 08003KT 050V110 8000 NSC 11/08 Q1022",
      "taf": "TAF LEXJ 231400Z 2315/2415 05009KT 9999 SCT020 BKN040 TX19/2413Z TN03/2406Z"
    },
    {
      "icao": "LEZG",
      "alert": "OK",
      "vis_m": 9999,
      "fzfg": false,
      "metar_trigger": false,
      "taf_trigger": false,
      "metar": "METAR LEZG 231930Z 26008KT CAVOK 13/04 Q1019 NOSIG",
      "taf": "TAF LEZG 231700Z 2318/2418 30010KT CAVOK TX21/2414Z TN05/2406Z"
    },
    {
      "icao": "LEZL",
      "alert": "OK",
      "vis_m": 9999,
      "fzfg": false,
      "metar_trigger": false,
      "taf_trigger": false,
      "metar": "METAR LEZL 231930Z 13003KT CAVOK 17/11 Q1014 NOSIG",
      "taf": "TAF LEZL 231400Z 2315/2415 06007KT CAVOK TX25/2315Z TN12/2407Z"
    },
    {
      "icao": "LFBD",
      "alert": "OK",
      "vis_m": 9999,
      "fzfg": false,
      "metar_trigger": false,
      "taf_trigger": false,
      "metar": "METAR LFBD 232000Z AUTO 35006KT 300V010 CAVOK 13/05 Q1022 NOSIG",
      "taf": "TAF LFBD 231700Z 2318/2424 06010KT CAVOK TX19/2415Z TN04/2406Z"
    },
    {
      "icao": "LFLL",
      "alert": "OK",
      "vis_m": 9999,
      "fzfg": false,
      "metar_trigger": false,
      "taf_trigger": false,
      "metar": "METAR LFLL 232000Z 30003KT CAVOK 10/04 Q1020 NOSIG",
      "taf": "TAF LFLL 231700Z 2318/2424 35006KT CAVOK"
    },
    {
      "icao": "LFLS",
      "alert": "OK",
      "vis_m": 9999,
      "fzfg": false,
      "metar_trigger": false,
      "taf_trigger": false,
      "metar": "METAR LFLS 232000Z AUTO VRB03KT 9999 FEW058 BKN088 08/06 Q1020 NOSIG",
      "taf": "TAF LFLS 231400Z 2315/2415 36006KT 9999 SCT035"
    },
    {
      "icao": "LFMN",
      "alert": "OK",
      "vis_m": 9999,
      "fzfg": false,
      "metar_trigger": false,
      "taf_trigger": false,
      "metar": "METAR LFMN 232000Z 33004KT CAVOK 11/05 Q1018 NOSIG",
      "taf": "TAF LFMN 231400Z 2315/2421 17005KT CAVOK"
    },
    {
      "icao": "LFOB",
      "alert": "OK",
      "vis_m": 4600,
      "fzfg": false,
      "metar_trigger": false,
      "taf_trigger": false,
      "metar": "METAR LFOB 232000Z AUTO VRB02KT 4600 BR NSC 07/06 Q1022 NOSIG",
      "taf": ""
    },
    {
      "icao": "LFPO",
      "alert": "OK",
      "vis_m": 9999,
      "fzfg": false,
      "metar_trigger": false,
      "taf_trigger": false,
      "metar": "METAR LFPO 232000Z 35005KT 300V050 CAVOK 12/03 Q1022 NOSIG",
      "taf": "TAF LFPO 231700Z 2318/2424 02005KT CAVOK"
    },
    {
      "icao": "LFSB",
      "alert": "OK",
      "vis_m": 9999,
      "fzfg": false,
      "metar_trigger": false,
      "taf_trigger": false,
      "metar": "METAR LFSB 232000Z AUTO VRB03KT CAVOK 08/01 Q1021 NOSIG",
      "taf": "TAF LFSB 231700Z 2318/2418 VRB03KT CAVOK"
    },
    {
      "icao": "LGAV",
      "alert": "OK",
      "vis_m": 9999,
      "fzfg": false,
      "metar_trigger": false,
      "taf_trigger": false,
      "metar": "METAR LGAV 231950Z VRB02KT 9999 FEW025 09/04 Q1013 NOSIG",
      "taf": "TAF LGAV 231700Z 2318/2418 04012KT 9999 FEW025"
    },
    {
      "icao": "LGTS",
      "alert": "OK",
      "vis_m": 9999,
      "fzfg": false,
      "metar_trigger": false,
      "taf_trigger": false,
      "metar": "METAR LGTS 231950Z VRB03KT 9999 SCT030 10/08 Q1014 NOSIG",
      "taf": "TAF LGTS 231700Z 2318/2418 VRB03KT 9999 SCT025"
    },
    {
      "icao": "LHBP",
      "alert": "OK",
      "vis_m": 9999,
      "fzfg": false,
      "metar_trigger": false,
      "taf_trigger": false,
      "metar": "METAR LHBP 232000Z 33005KT CAVOK 05/M00 Q1018 NOSIG",
      "taf": "TAF LHBP 231715Z 2318/2418 34007KT CAVOK"
    },
    {
      "icao": "LHDC",
      "alert": "OK",
      "vis_m": 9999,
      "fzfg": false,
      "metar_trigger": false,
      "taf_trigger": false,
      "metar": "METAR LHDC 231945Z AUTO VRB01KT CAVOK 07/04 Q1017",
      "taf": "TAF LHDC 231415Z 2315/2324 27006KT CAVOK"
    },
    {
      "icao": "LIBD",
      "alert": "OK",
      "vis_m": 9999,
      "fzfg": false,
      "metar_trigger": false,
      "taf_trigger": false,
      "metar": "METAR LIBD 231950Z 27004KT 9999 FEW030 09/07 Q1015",
      "taf": "TAF LIBD 231700Z 2318/2418 35010KT 9999 SCT030"
    },
    {
      "icao": "LIBG",
      "alert": "OK",
      "vis_m": 9999,
      "fzfg": false,
      "metar_trigger": false,
      "taf_trigger": false,
      "metar": "METAR LIBG 231850Z VRB02KT 9999 FEW040 08/05 Q1014",
      "taf": "TAF LIBG 231700Z 2318/2403 03008KT 9999 SCT030"
    },
    {
      "icao": "LIBP",
      "alert": "OK",
      "vis_m": 9999,
      "fzfg": false,
      "metar_trigger": false,
      "taf_trigger": false,
      "metar": "METAR LIBP 231950Z AUTO 22004KT 9999 FEW035/// 08/06 Q1017",
      "taf": "TAF LIBP 231700Z 2318/2418 01010KT 9999 SCT030"
    },
    {
      "icao": "LIBR",
      "alert": "OK",
      "vis_m": 9999,
      "fzfg": false,
      "metar_trigger": false,
      "taf_trigger": false,
      "metar": "METAR LIBR 231950Z 02010KT 9999 FEW035 14/07 Q1014",
      "taf": "TAF LIBR 231700Z 2318/2418 35010KT 9999 FEW040"
    },
    {
      "icao": "LICA",
      "alert": "OK",
      "vis_m": 9999,
      "fzfg": false,
      "metar_trigger": false,
      "taf_trigger": false,
      "metar": "METAR LICA 231950Z AUTO 08004KT 040V110 9999 FEW066/// BKN084/// OVC100/// 09/07 Q1014",
      "taf": "TAF LICA 231700Z 2318/2418 08010KT 9999 SCT030"
    },
    {
      "icao": "LICC",
      "alert": "OK",
      "vis_m": 9999,
      "fzfg": false,
      "metar_trigger": false,
      "taf_trigger": false,
      "metar": "METAR LICC 231950Z 27005KT 9999 FEW030 SCT060 10/07 Q1014",
      "taf": "TAF LICC 231700Z 2318/2418 VRB05KT 9999 SCT020"
    },
    {
      "icao": "LICJ",
      "alert": "OK",
      "vis_m": 9999,
      "fzfg": false,
      "metar_trigger": false,
      "taf_trigger": false,
      "metar": "METAR LICJ 231950Z 30008KT CAVOK 14/08 Q1014",
      "taf": "TAF LICJ 231700Z 2318/2418 33007KT 9999 SCT030"
    },
    {
      "icao": "LIMC",
      "alert": "OK",
      "vis_m": 9999,
      "fzfg": false,
      "metar_trigger": false,
      "taf_trigger": false,
      "metar": "METAR LIMC 231950Z VRB02KT CAVOK 08/03 Q1018 NOSIG",
      "taf": "TAF LIMC 231700Z 2318/2424 36008KT CAVOK"
    },
    {
      "icao": "LIME",
      "alert": "OK",
      "vis_m": 9999,
      "fzfg": false,
      "metar_trigger": false,
      "taf_trigger": false,
      "metar": "METAR LIME 231950Z 01004KT CAVOK 10/02 Q1018 NOSIG",
      "taf": "TAF LIME 231700Z 2318/2418 03006KT CAVOK"
    },
    {
      "icao": "LIMF",
      "alert": "OK",
      "vis_m": 9999,
      "fzfg": false,
      "metar_trigger": false,
      "taf_trigger": false,
      "metar": "METAR LIMF 231950Z 31005KT CAVOK 11/M00 Q1018",
      "taf": "TAF LIMF 231700Z 2318/2418 VRB05KT CAVOK"
    },
    {
      "icao": "LIMJ",
      "alert": "OK",
      "vis_m": 9999,
      "fzfg": false,
      "metar_trigger": false,
      "taf_trigger": false,
      "metar": "METAR LIMJ 231950Z 34008KT 310V010 CAVOK 14/M00 Q1017",
      "taf": "TAF LIMJ 231700Z 2318/2418 04010KT CAVOK"
    },
    {
      "icao": "LIPE",
      "alert": "OK",
      "vis_m": 9999,
      "fzfg": false,
      "metar_trigger": false,
      "taf_trigger": false,
      "metar": "METAR LIPE 231950Z 21003KT 170V280 CAVOK 09/02 Q1018",
      "taf": "TAF LIPE 231700Z 2318/2418 VRB05KT 9999 SCT050"
    },
    {
      "icao": "LIPH",
      "alert": "OK",
      "vis_m": 9999,
      "fzfg": false,
      "metar_trigger": false,
      "taf_trigger": false,
      "metar": "METAR LIPH 231950Z VRB02KT CAVOK 11/03 Q1018",
      "taf": "TAF LIPH 231700Z 2318/2418 VRB05KT CAVOK"
    },
    {
      "icao": "LIPQ",
      "alert": "OK",
      "vis_m": 9999,
      "fzfg": false,
      "metar_trigger": false,
      "taf_trigger": false,
      "metar": "METAR LIPQ 231950Z AUTO 07004KT 030V100 9999 OVC100/// 11/02 Q1018",
      "taf": "TAF LIPQ 231700Z 2318/2418 04005KT 9999 FEW060"
    },
    {
      "icao": "LIPR",
      "alert": "OK",
      "vis_m": 9999,
      "fzfg": false,
      "metar_trigger": false,
      "taf_trigger": false,
      "metar": "METAR LIPR 231950Z 21003KT CAVOK 07/04 Q1017",
      "taf": "TAF LIPR 231700Z 2318/2418 VRB06KT 9999 SCT050"
    },
    {
      "icao": "LIPX",
      "alert": "OK",
      "vis_m": 9999,
      "fzfg": false,
      "metar_trigger": false,
      "taf_trigger": false,
      "metar": "METAR LIPX 231950Z 01004KT 9999 BKN090 10/02 Q1018",
      "taf": "TAF LIPX 231700Z 2318/2418 VRB05KT CAVOK"
    },
    {
      "icao": "LIPY",
      "alert": "OK",
      "vis_m": 7000,
      "fzfg": false,
      "metar_trigger": false,
      "taf_trigger": false,
      "metar": "METAR LIPY 231950Z AUTO 18003KT 7000 BKN075/// 09/08 Q1017",
      "taf": "TAF LIPY 231700Z 2318/2418 31010KT 9999 SCT040"
    },
    {
      "icao": "LIPZ",
      "alert": "OK",
      "vis_m": 9999,
      "fzfg": false,
      "metar_trigger": false,
      "taf_trigger": false,
      "metar": "METAR LIPZ 231950Z 05005KT CAVOK 12/03 Q1018 NOSIG",
      "taf": "TAF LIPZ 231700Z 2318/2424 03006KT CAVOK"
    },
    {
      "icao": "LIRF",
      "alert": "OK",
      "vis_m": 9999,
      "fzfg": false,
      "metar_trigger": false,
      "taf_trigger": false,
      "metar": "METAR LIRF 231950Z 17003KT 140V200 CAVOK 12/06 Q1015 NOSIG",
      "taf": "TAF LIRF 231700Z 2318/2424 31010KT 9999 SCT030"
    },
    {
      "icao": "LIRN",
      "alert": "OK",
      "vis_m": 9999,
      "fzfg": false,
      "metar_trigger": false,
      "taf_trigger": false,
      "metar": "METAR LIRN 231950Z 02007KT 9999 SCT060 11/06 Q1015 NOSIG",
      "taf": "TAF LIRN 231700Z 2318/2418 03006KT 9999 FEW040"
    },
    {
      "icao": "LIRP",
      "alert": "OK",
      "vis_m": 9999,
      "fzfg": false,
      "metar_trigger": false,
      "taf_trigger": false,
      "metar": "METAR LIRP 231945Z 21002KT CAVOK 07/05 Q1017 NOSIG",
      "taf": "TAF LIRP 231700Z 2318/2418 30006KT 9999 SCT060"
    },
    {
      "icao": "LIRZ",
      "alert": "OK",
      "vis_m": 9999,
      "fzfg": false,
      "metar_trigger": false,
      "taf_trigger": false,
      "metar": "METAR LIRZ 231950Z AUTO 04005KT 9999 NCD 03/02 Q1016",
      "taf": "TAF LIRZ 231700Z 2318/2418 04014KT 9999 FEW080"
    },
    {
      "icao": "LJLJ",
      "alert": "OK",
      "vis_m": 9999,
      "fzfg": false,
      "metar_trigger": false,
      "taf_trigger": false,
      "metar": "METAR LJLJ 231930Z VRB02KT 9999 FEW055 BKN090 08/03 Q1019 NOSIG",
      "taf": "TAF LJLJ 231700Z 2318/2418 12005KT 9999 FEW070 SCT090"
    },
    {
      "icao": "LKMT",
      "alert": "OK",
      "vis_m": 9999,
      "fzfg": false,
      "metar_trigger": false,
      "taf_trigger": false,
      "metar": "METAR LKMT 232000Z VRB02KT CAVOK 09/M00 Q1019 NOSIG",
      "taf": "TAF LKMT 231700Z 2318/2418 36005KT CAVOK"
    },
    {
      "icao": "LKPR",
      "alert": "OK",
      "vis_m": 9999,
      "fzfg": false,
      "metar_trigger": false,
      "taf_trigger": false,
      "metar": "METAR LKPR 232000Z 25003KT CAVOK 06/M02 Q1019 NOSIG",
      "taf": "TAF LKPR 231700Z 2318/2424 06004KT CAVOK"
    },
    {
      "icao": "LLBG",
      "alert": "OK",
      "vis_m": 9999,
      "fzfg": false,
      "metar_trigger": false,
      "taf_trigger": false,
      "metar": "METAR LLBG 231950Z VRB01KT CAVOK 13/10 Q1010 NOSIG",
      "taf": "TAF LLBG 231710Z 2318/2418 VRB04KT 9999 FEW040 TX19/2411Z TN08/2402Z"
    },
    {
      "icao": "LMML",
      "alert": "OK",
      "vis_m": 9999,
      "fzfg": false,
      "metar_trigger": false,
      "taf_trigger": false,
      "metar": "METAR LMML 231945Z 29006KT 9999 FEW020 12/09 Q1014 NOSIG",
      "taf": "TAF LMML 231700Z 2318/2418 VRB06KT 9999 FEW020"
    },
    {
      "icao": "LOWW",
      "alert": "OK",
      "vis_m": 9999,
      "fzfg": false,
      "metar_trigger": false,
      "taf_trigger": false,
      "metar": "METAR LOWW 231950Z 24004KT 180V270 CAVOK 11/02 Q1019 NOSIG",
      "taf": "TAF LOWW 231715Z 2318/2424 VRB04KT 9999 FEW050 TX17/2413Z TN05/2404Z"
    },
    {
      "icao": "LPFR",
      "alert": "OK",
      "vis_m": null,
      "fzfg": false,
      "metar_trigger": false,
      "taf_trigger": false,
      "metar": "",
      "taf": "TAF LPFR 231100Z 2312/2412 19007KT 9999 SCT020"
    },
    {
      "icao": "LPMA",
      "alert": "OK",
      "vis_m": 9999,
      "fzfg": false,
      "metar_trigger": false,
      "taf_trigger": false,
      "metar": "METAR LPMA 231930Z 03019KT 9999 BKN013 17/14 Q1013",
      "taf": "TAF LPMA 231700Z 2318/2418 02015KT 9999 SCT015"
    },
    {
      "icao": "LPPR",
      "alert": "OK",
      "vis_m": 9999,
      "fzfg": false,
      "metar_trigger": false,
      "taf_trigger": false,
      "metar": "METAR LPPR 231930Z 35003KT CAVOK 17/08 Q1016",
      "taf": "TAF LPPR 231700Z 2318/2418 33008KT CAVOK"
    },
    {
      "icao": "LPPS",
      "alert": "OK",
      "vis_m": 9999,
      "fzfg": false,
      "metar_trigger": false,
      "taf_trigger": false,
      "metar": "METAR LPPS 231930Z 06017KT 9999 SCT010 FEW014TCU 16/14 Q1013",
      "taf": "TAF LPPS 231700Z 2318/2424 07015KT 9999 SCT012"
    },
    {
      "icao": "LPPT",
      "alert": "OK",
      "vis_m": 9999,
      "fzfg": false,
      "metar_trigger": false,
      "taf_trigger": false,
      "metar": "METAR LPPT 231930Z 30008KT CAVOK 18/11 Q1015",
      "taf": "TAF LPPT 231700Z 2318/2424 32008KT 9999 FEW035"
    },
    {
      "icao": "LQBK",
      "alert": "OK",
      "vis_m": 9999,
      "fzfg": false,
      "metar_trigger": false,
      "taf_trigger": false,
      "metar": "METAR LQBK 232000Z 00000KT CAVOK 08/05 Q1017 NOSIG",
      "taf": "TAF LQBK 231700Z 2318/2418 34005KT CAVOK TX15/2414Z TN04/2405Z"
    },
    {
      "icao": "LQSA",
      "alert": "OK",
      "vis_m": 9999,
      "fzfg": false,
      "metar_trigger": false,
      "taf_trigger": false,
      "metar": "METAR LQSA 232000Z 31005KT 9999 BKN045 BKN065 07/03 Q1016 NOSIG",
      "taf": "TAF LQSA 231700Z 2318/2418 28005KT 9999 BKN055 TX12/2413Z TN04/2405Z"
    },
    {
      "icao": "LQTZ",
      "alert": "OK",
      "vis_m": 9999,
      "fzfg": false,
      "metar_trigger": false,
      "taf_trigger": false,
      "metar": "METAR LQTZ 232000Z 00000KT 9999 FEW069 06/04 Q1017",
      "taf": "TAF LQTZ 231700Z 2318/2418 04005KT 9999 SCT040 TX14/2414Z TN03/2405Z"
    },
    {
      "icao": "LRBC",
      "alert": "OK",
      "vis_m": 9999,
      "fzfg": false,
      "metar_trigger": false,
      "taf_trigger": false,
      "metar": "METAR LRBC 231930Z 35004KT 9999 FEW063 06/M00 Q1017",
      "taf": "TAF LRBC 231700Z 2318/2403 34005KT 9999 BKN060"
    },
    {
      "icao": "LRBS",
      "alert": "OK",
      "vis_m": 9999,
      "fzfg": false,
      "metar_trigger": false,
      "taf_trigger": false,
      "metar": "METAR LRBS 231930Z 31006KT CAVOK 09/05 Q1016 NOSIG",
      "taf": "TAF LRBS 231700Z 2318/2418 VRB04KT CAVOK"
    },
    {
      "icao": "LRBV",
      "alert": "OK",
      "vis_m": 9999,
      "fzfg": false,
      "metar_trigger": false,
      "taf_trigger": false,
      "metar": "METAR LRBV 231930Z COR VRB02KT 9999 OVC053 07/01 Q1017",
      "taf": "TAF LRBV 231700Z 2318/2403 VRB04KT 9999 BKN055"
    },
    {
      "icao": "LRCL",
      "alert": "OK",
      "vis_m": 9999,
      "fzfg": false,
      "metar_trigger": false,
      "taf_trigger": false,
      "metar": "METAR LRCL 231930Z 00000KT CAVOK 08/01 Q1017",
      "taf": "TAF LRCL 231700Z 2318/2403 VRB04KT CAVOK"
    },
    {
      "icao": "LRCV",
      "alert": "OK",
      "vis_m": 6000,
      "fzfg": false,
      "metar_trigger": false,
      "taf_trigger": false,
      "metar": "METAR LRCV 231930Z 32004KT 6000 -RA FEW042 OVC048 07/06 Q1018",
      "taf": "TAF LRCV 231700Z 2318/2403 VRB04KT 9999 BKN040"
    },
    {
      "icao": "LRIA",
      "alert": "OK",
      "vis_m": 9999,
      "fzfg": false,
      "metar_trigger": false,
      "taf_trigger": false,
      "metar": "METAR LRIA 231930Z VRB04KT CAVOK 09/M01 Q1017",
      "taf": "TAF LRIA 231700Z 2318/2403 VRB04KT CAVOK"
    },
    {
      "icao": "LROP",
      "alert": "OK",
      "vis_m": 9999,
      "fzfg": false,
      "metar_trigger": false,
      "taf_trigger": false,
      "metar": "METAR LROP 231930Z 32006KT CAVOK 09/03 Q1016 NOSIG",
      "taf": "TAF LROP 231700Z 2318/2418 VRB04KT CAVOK"
    },
    {
      "icao": "LRSB",
      "alert": "OK",
      "vis_m": 9999,
      "fzfg": false,
      "metar_trigger": false,
      "taf_trigger": false,
      "metar": "METAR LRSB 231930Z 12003KT 9999 BKN075 07/02 Q1017",
      "taf": "TAF LRSB 231700Z 2318/2418 VRB04KT 9999 BKN065"
    },
    {
      "icao": "LRSM",
      "alert": "OK",
      "vis_m": 9999,
      "fzfg": false,
      "metar_trigger": false,
      "taf_trigger": false,
      "metar": "METAR LRSM 231930Z AUTO 17002KT 9999 FEW240/// 06/00 Q1017",
      "taf": "TAF LRSM 231400Z 2315/2324 VRB04KT CAVOK"
    },
    {
      "icao": "LRSV",
      "alert": "OK",
      "vis_m": 9999,
      "fzfg": false,
      "metar_trigger": false,
      "taf_trigger": false,
      "metar": "METAR LRSV 231930Z 33002KT CAVOK 06/M01 Q1017",
      "taf": "TAF LRSV 231700Z 2318/2403 VRB04KT CAVOK"
    },
    {
      "icao": "LRTM",
      "alert": "OK",
      "vis_m": 9999,
      "fzfg": false,
      "metar_trigger": false,
      "taf_trigger": false,
      "metar": "METAR LRTM 231930Z AUTO 25003KT 9999 NCD 07/01 Q1017",
      "taf": "TAF LRTM 231400Z 2315/2324 VRB04KT CAVOK"
    },
    {
      "icao": "LRTR",
      "alert": "OK",
      "vis_m": 9999,
      "fzfg": false,
      "metar_trigger": false,
      "taf_trigger": false,
      "metar": "METAR LRTR 231930Z VRB02KT CAVOK 08/02 Q1016",
      "taf": "TAF LRTR 231700Z 2318/2418 VRB04KT CAVOK"
    },
    {
      "icao": "LTAC",
      "alert": "OK",
      "vis_m": 9999,
      "fzfg": false,
      "metar_trigger": false,
      "taf_trigger": false,
      "metar": "METAR LTAC 231950Z 34005KT 9999 BKN035 BKN080 06/05 Q1010 NOSIG RMK RWY21C 32003KT 270V050 RWY03L 33004KT RWY21R VRB01KT RWY03R 34002KT RWY21L 34003KT 310V010",
      "taf": "TAF LTAC 231640Z 2318/2418 VRB02KT 9999 BKN035 BKN100"
    },
    {
      "icao": "LTFM",
      "alert": "OK",
      "vis_m": 2800,
      "fzfg": false,
      "metar_trigger": false,
      "taf_trigger": false,
      "metar": "METAR LTFM 231950Z 03008KT 2800 1200S R35R/P1500N R17L/P1500N R34L/P1500N R36/P1500N -DZ BR BKN002 BKN018 08/08 Q1013 BECMG 1200 BCFG RMK RWY17L 03005KT RWY34L 02008KT RWY16R 03007KT RWY36 03008KT RWY18 04006KT",
      "taf": "TAF LTFM 231640Z 2318/2424 34006KT 1200 -DZ BCFG BKN002 BKN018"
    },
    {
      "icao": "LUKK",
      "alert": "OK",
      "vis_m": 9999,
      "fzfg": false,
      "metar_trigger": false,
      "taf_trigger": false,
      "metar": "METAR LUKK 232000Z 01005KT CAVOK 08/M00 Q1017 NOSIG",
      "taf": "TAF LUKK 231708Z 2318/2418 VRB05KT CAVOK"
    },
    {
      "icao": "LWOH",
      "alert": "OK",
      "vis_m": 9999,
      "fzfg": false,
      "metar_trigger": false,
      "taf_trigger": false,
      "metar": "METAR LWOH 231950Z 33006KT 290V350 9999 SCT050 05/01 Q1013",
      "taf": "TAF LWOH 231740Z 2318/2418 36006KT 9999 BKN040 BKN080"
    },
    {
      "icao": "LWSK",
      "alert": "OK",
      "vis_m": 9999,
      "fzfg": false,
      "metar_trigger": false,
      "taf_trigger": false,
      "metar": "METAR LWSK 231950Z 34005KT 290V010 9999 SCT050 OVC073 10/04 Q1014 NOSIG",
      "taf": "TAF LWSK 231740Z 2318/2418 VRB02KT 9999 SCT050 BKN080"
    },
    {
      "icao": "LYBE",
      "alert": "OK",
      "vis_m": 9999,
      "fzfg": false,
      "metar_trigger": false,
      "taf_trigger": false,
      "metar": "METAR LYBE 232000Z 12008KT CAVOK 08/01 Q1017 NOSIG",
      "taf": "TAF LYBE 231700Z 2318/2418 11006KT CAVOK TX17/2413Z TN06/2405Z"
    },
    {
      "icao": "LYNI",
      "alert": "OK",
      "vis_m": 9999,
      "fzfg": false,
      "metar_trigger": false,
      "taf_trigger": false,
      "metar": "METAR LYNI 232000Z 04004KT 350V110 CAVOK 08/03 Q1016 NOSIG",
      "taf": "TAF LYNI 231700Z 2318/2418 04007KT CAVOK TX14/2413Z TN04/2405Z"
    },
    {
      "icao": "LYPG",
      "alert": "OK",
      "vis_m": 9999,
      "fzfg": false,
      "metar_trigger": false,
      "taf_trigger": false,
      "metar": "METAR LYPG 232000Z 31006KT 9999 FEW090 11/04 Q1014 NOSIG",
      "taf": "TAF LYPG 231700Z 2318/2418 36008KT 9999 FEW040 SCT080 TX18/2413Z TN08/2400Z"
    },
    {
      "icao": "LZIB",
      "alert": "OK",
      "vis_m": 9999,
      "fzfg": false,
      "metar_trigger": false,
      "taf_trigger": false,
      "metar": "METAR LZIB 232000Z 00000KT CAVOK 11/01 Q1018 NOSIG",
      "taf": "TAF LZIB 231715Z 2318/2418 32005KT CAVOK"
    },
    {
      "icao": "LZKZ",
      "alert": "OK",
      "vis_m": 9999,
      "fzfg": false,
      "metar_trigger": false,
      "taf_trigger": false,
      "metar": "METAR LZKZ 232000Z 04005KT CAVOK 09/00 Q1017 NOSIG",
      "taf": "TAF LZKZ 231715Z 2318/2418 34006KT CAVOK"
    },
    {
      "icao": "LZTT",
      "alert": "OK",
      "vis_m": 9999,
      "fzfg": false,
      "metar_trigger": false,
      "taf_trigger": false,
      "metar": "METAR LZTT 232000Z 29005KT 9999 SCT066 SCT080 02/M02 Q1018",
      "taf": "TAF LZTT 231715Z 2318/2418 25004KT 9999 FEW070"
    },
    {
      "icao": "OEJN",
      "alert": "OK",
      "vis_m": 7000,
      "fzfg": false,
      "metar_trigger": false,
      "taf_trigger": false,
      "metar": "METAR OEJN 232000Z 20003KT 7000 NSC 28/19 Q1007 NOSIG",
      "taf": "TAF OEJN 231700Z 2318/2424 17006KT 7000 NSC"
    },
    {
      "icao": "OEMA",
      "alert": "OK",
      "vis_m": 9999,
      "fzfg": false,
      "metar_trigger": false,
      "taf_trigger": false,
      "metar": "METAR OEMA 232000Z VRB02KT 9999 FEW040 26/M01 Q1010 NOSIG",
      "taf": "TAF OEMA 231700Z 2318/2424 VRB03KT 9999 FEW045"
    },
    {
      "icao": "OJAI",
      "alert": "OK",
      "vis_m": 5000,
      "fzfg": false,
      "metar_trigger": false,
      "taf_trigger": false,
      "metar": "METAR OJAI 231900Z 30005KT 5000 HZ NSC 09/04 Q1011 NOSIG",
      "taf": ""
    },
    {
      "icao": "OMAA",
      "alert": "OK",
      "vis_m": null,
      "fzfg": false,
      "metar_trigger": false,
      "taf_trigger": false,
      "metar": "",
      "taf": ""
    },
    {
      "icao": "OMDB",
      "alert": "OK",
      "vis_m": null,
      "fzfg": false,
      "metar_trigger": false,
      "taf_trigger": false,
      "metar": "",
      "taf": ""
    },
    {
      "icao": "UAAA",
      "alert": "OK",
      "vis_m": 9999,
      "fzfg": false,
      "metar_trigger": false,
      "taf_trigger": false,
      "metar": "METAR UAAA 231930Z 18002MPS 160V220 9999 SCT050CB BKN100 11/06 Q1019 NOSIG",
      "taf": "TAF UAAA 231703Z 2318/2418 23003G08MPS 5000 -SHRA BR BKN030CB OVC100 TX15/2409Z TN06/2401Z"
    },
    {
      "icao": "UBBB",
      "alert": "OK",
      "vis_m": 1500,
      "fzfg": false,
      "metar_trigger": false,
      "taf_trigger": false,
      "metar": "METAR UBBB 232000Z 32008KT 1500 BR OVC002 08/07 Q1011 BECMG 0800 FG",
      "taf": ""
    },
    {
      "icao": "UDSG",
      "alert": "OK",
      "vis_m": 9999,
      "fzfg": false,
      "metar_trigger": false,
      "taf_trigger": false,
      "metar": "METAR UDSG 231930Z 33002KT 9999 FEW049 01/M01 Q1015 NOSIG",
      "taf": "TAF UDSG 231658Z 2318/2418 VRB06KT 9999 SCT040"
    },
    {
      "icao": "UDYZ",
      "alert": "OK",
      "vis_m": 9999,
      "fzfg": false,
      "metar_trigger": false,
      "taf_trigger": false,
      "metar": "METAR UDYZ 231930Z VRB03KT 9999 NSC 08/03 Q1013 NOSIG",
      "taf": "TAF UDYZ 231700Z 2318/2418 04006KT 9999 FEW040"
    },
    {
      "icao": "UGKO",
      "alert": "OK",
      "vis_m": 9999,
      "fzfg": false,
      "metar_trigger": false,
      "taf_trigger": false,
      "metar": "METAR UGKO 231930Z VRB02KT 9999 SCT006 BKN011 10/09 Q1012 NOSIG",
      "taf": "TAF UGKO 231700Z 2318/2418 26007KT 9000 SCT023 BKN040 TX19/2411Z TN06/2403Z"
    }
  ]
}