{
  "ts_utc": "2025-12-30T23:42:32Z",
  "threshold_m": 150,
  "source": "stations_override.txt (ICAO list) + aviationweather.gov (METAR/TAF raw)",
  "station_count": 159,
  "stations": [
    {
      "icao": "BIKF",
      "alert": "OK",
      "vis_m": 7000,
      "fzfg": false,
      "metar_trigger": false,
      "taf_trigger": false,
      "metar": "METAR BIKF 302330Z 26021KT 7000 -DZRA BKN009 06/05 Q1030",
      "taf": "TAF BIKF 302215Z 3100/0100 27017KT 9999 SCT017 BKN020 TX06/3100Z TNM02/3124Z"
    },
    {
      "icao": "BKPR",
      "alert": "OK",
      "vis_m": 9999,
      "fzfg": false,
      "metar_trigger": false,
      "taf_trigger": false,
      "metar": "METAR BKPR 302330Z 34006KT CAVOK M05/M08 Q1015 NOSIG",
      "taf": "TAF BKPR 302330Z 3100/3124 33008KT 9999 FEW050"
    },
    {
      "icao": "EBCI",
      "alert": "OK",
      "vis_m": 9999,
      "fzfg": false,
      "metar_trigger": false,
      "taf_trigger": false,
      "metar": "METAR EBCI 302320Z 30002KT CAVOK M01/M02 Q1030 NOSIG",
      "taf": "TAF EBCI 302310Z 3100/0106 27006KT 9999 FEW018 SCT035"
    },
    {
      "icao": "EDDB",
      "alert": "OK",
      "vis_m": 9999,
      "fzfg": false,
      "metar_trigger": false,
      "taf_trigger": false,
      "metar": "METAR EDDB 302320Z AUTO 28009KT CAVOK M03/M05 Q1022 NOSIG",
      "taf": "TAF EDDB 302300Z 3100/3124 31011KT CAVOK"
    },
    {
      "icao": "EDDH",
      "alert": "OK",
      "vis_m": 9999,
      "fzfg": false,
      "metar_trigger": false,
      "taf_trigger": false,
      "metar": "METAR EDDH 302320Z AUTO 22004KT 9999 BKN037 BKN044 M02/M05 Q1023 NOSIG",
      "taf": "TAF EDDH 301700Z 3018/3124 27004KT 9999 BKN030"
    },
    {
      "icao": "EDDK",
      "alert": "OK",
      "vis_m": 9999,
      "fzfg": false,
      "metar_trigger": false,
      "taf_trigger": false,
      "metar": "METAR EDDK 302320Z AUTO VRB01KT 9999 BKN042 M02/M03 Q1029 NOSIG",
      "taf": "TAF EDDK 302300Z 3100/0106 VRB03KT 9999 SCT040"
    },
    {
      "icao": "EDDN",
      "alert": "OK",
      "vis_m": 9999,
      "fzfg": false,
      "metar_trigger": false,
      "taf_trigger": false,
      "metar": "METAR EDDN 302320Z AUTO 19001KT CAVOK M09/M11 Q1026",
      "taf": "TAF EDDN 302300Z 3100/3124 VRB03KT CAVOK"
    },
    {
      "icao": "EDDS",
      "alert": "OK",
      "vis_m": 9999,
      "fzfg": false,
      "metar_trigger": false,
      "taf_trigger": false,
      "metar": "METAR EDDS 302320Z AUTO 26002KT CAVOK M06/M09 Q1026",
      "taf": "TAF EDDS 302300Z 3100/3124 24004KT CAVOK"
    },
    {
      "icao": "EDFH",
      "alert": "OK",
      "vis_m": 9000,
      "fzfg": false,
      "metar_trigger": false,
      "taf_trigger": false,
      "metar": "METAR EDFH 302320Z 24002KT 9000 NSC M04/M05 Q1026",
      "taf": "TAF EDFH 302300Z 3100/3124 23004KT 9999 FEW025"
    },
    {
      "icao": "EDJA",
      "alert": "OK",
      "vis_m": 9999,
      "fzfg": false,
      "metar_trigger": false,
      "taf_trigger": false,
      "metar": "METAR EDJA 302320Z AUTO 15005KT 9999 // FEW140/// M09/M10 Q1024",
      "taf": "TAF EDJA 301700Z 3018/3103 VRB03KT 9999 SCT040"
    },
    {
      "icao": "EDLW",
      "alert": "OK",
      "vis_m": 9999,
      "fzfg": false,
      "metar_trigger": false,
      "taf_trigger": false,
      "metar": "METAR EDLW 302320Z AUTO 23007KT 9999 // SCT040/// M01/M03 Q1027",
      "taf": "TAF EDLW 301700Z 3018/3118 24005KT CAVOK"
    },
    {
      "icao": "EDNY",
      "alert": "OK",
      "vis_m": 9999,
      "fzfg": false,
      "metar_trigger": false,
      "taf_trigger": false,
      "metar": "METAR EDNY 302320Z AUTO VRB01KT 9999 // NCD M04/M06 Q1026",
      "taf": "TAF EDNY 301400Z 3015/3024 04004KT 9999 OVC040"
    },
    {
      "icao": "EDSB",
      "alert": "OK",
      "vis_m": 9999,
      "fzfg": false,
      "metar_trigger": false,
      "taf_trigger": false,
      "metar": "METAR EDSB 302320Z AUTO 05002KT 9999 NCD M04/M05 Q1029",
      "taf": "TAF EDSB 302300Z 3100/3124 03004KT CAVOK"
    },
    {
      "icao": "EETN",
      "alert": "OK",
      "vis_m": 9999,
      "fzfg": false,
      "metar_trigger": false,
      "taf_trigger": false,
      "metar": "METAR EETN 302320Z 01013KT 330V030 9999 FEW025 M05/M12 Q1005",
      "taf": "TAF EETN 302330Z 3100/3124 01012KT CAVOK"
    },
    {
      "icao": "EFTU",
      "alert": "OK",
      "vis_m": 9999,
      "fzfg": false,
      "metar_trigger": false,
      "taf_trigger": false,
      "metar": "METAR EFTU 302320Z AUTO 36003KT CAVOK M09/M13 Q1009",
      "taf": "TAF EFTU 302327Z 3100/3124 35004KT CAVOK"
    },
    {
      "icao": "EGBB",
      "alert": "OK",
      "vis_m": 9999,
      "fzfg": false,
      "metar_trigger": false,
      "taf_trigger": false,
      "metar": "METAR EGBB 302320Z 32004KT CAVOK M01/M02 Q1035",
      "taf": "TAF EGBB 302257Z 3100/3124 34004KT 9999 SCT040"
    },
    {
      "icao": "EGGP",
      "alert": "OK",
      "vis_m": 9999,
      "fzfg": false,
      "metar_trigger": false,
      "taf_trigger": false,
      "metar": "METAR EGGP 302320Z VRB02KT 9999 SCT033 01/M01 Q1036",
      "taf": "TAF EGGP 302300Z 3100/3124 32004KT 9999 SCT035"
    },
    {
      "icao": "EGGW",
      "alert": "OK",
      "vis_m": 9999,
      "fzfg": false,
      "metar_trigger": false,
      "taf_trigger": false,
      "metar": "METAR EGGW 302320Z AUTO 35006KT 9999 OVC027 02/01 Q1033",
      "taf": "TAF EGGW 302302Z 3100/3124 34006KT 9999 FEW040"
    },
    {
      "icao": "EGKK",
      "alert": "OK",
      "vis_m": 9999,
      "fzfg": false,
      "metar_trigger": false,
      "taf_trigger": false,
      "metar": "METAR EGKK 302320Z 01005KT CAVOK 01/00 Q1033",
      "taf": "TAF EGKK 302304Z 3100/0106 34005KT 9999 FEW040"
    },
    {
      "icao": "EGNM",
      "alert": "OK",
      "vis_m": 9999,
      "fzfg": false,
      "metar_trigger": false,
      "taf_trigger": false,
      "metar": "METAR EGNM 302220Z 32006KT 9999 FEW039 M00/M02 Q1034",
      "taf": "TAF EGNM 301655Z 3018/3118 35006KT 9999 SCT035"
    },
    {
      "icao": "EGPD",
      "alert": "OK",
      "vis_m": 9999,
      "fzfg": false,
      "metar_trigger": false,
      "taf_trigger": false,
      "metar": "METAR EGPD 302320Z COR AUTO 28011KT 9999 OVC025 03/M01 Q1032 NOSIG",
      "taf": "TAF EGPD 302255Z 3100/3124 28009KT 9999 SCT030"
    },
    {
      "icao": "EGPF",
      "alert": "OK",
      "vis_m": 800,
      "fzfg": true,
      "metar_trigger": false,
      "taf_trigger": false,
      "metar": "METAR EGPF 302320Z VRB02KT 0800 R23/1000U FZFG FEW002 M05/M05 Q1036",
      "taf": "TAF EGPF 302255Z 3100/3124 VRB02KT 9999 FEW040"
    },
    {
      "icao": "EHBK",
      "alert": "OK",
      "vis_m": 9000,
      "fzfg": false,
      "metar_trigger": false,
      "taf_trigger": false,
      "metar": "METAR EHBK 302325Z AUTO 21006KT 9000 NCD M03/M04 Q1029",
      "taf": "TAF EHBK 302316Z 3100/0106 24003KT 9999 BKN045"
    },
    {
      "icao": "EHEH",
      "alert": "OK",
      "vis_m": 8000,
      "fzfg": false,
      "metar_trigger": false,
      "taf_trigger": false,
      "metar": "METAR EHEH 302325Z AUTO 27003KT 8000 BR NCD M04/M05 Q1030 BLU",
      "taf": "TAF EHEH 301747Z 3018/3124 31003KT CAVOK"
    },
    {
      "icao": "EKBI",
      "alert": "OK",
      "vis_m": 9999,
      "fzfg": false,
      "metar_trigger": false,
      "taf_trigger": false,
      "metar": "METAR EKBI 302320Z AUTO 27006KT 9999 OVC082/// M02/M04 Q1021",
      "taf": "TAF EKBI 302327Z 3100/3124 27008KT 9999 SCT030"
    },
    {
      "icao": "EKCH",
      "alert": "OK",
      "vis_m": 9999,
      "fzfg": false,
      "metar_trigger": false,
      "taf_trigger": false,
      "metar": "METAR EKCH 302320Z AUTO 28008KT 9999 FEW100/// M01/M05 Q1019 NOSIG",
      "taf": "TAF EKCH 302327Z 3100/3124 27009KT 9999 FEW040"
    },
    {
      "icao": "ENAL",
      "alert": "OK",
      "vis_m": 9999,
      "fzfg": false,
      "metar_trigger": false,
      "taf_trigger": false,
      "metar": "METAR ENAL 302320Z AUTO 29004KT 260V040 9999 FEW009/// SCT020/// BKN032/// 04/02 Q1017",
      "taf": "TAF ENAL 302300Z 3100/3109 32008KT 9999 FEW020 SCT040"
    },
    {
      "icao": "ENBR",
      "alert": "OK",
      "vis_m": 9000,
      "fzfg": false,
      "metar_trigger": false,
      "taf_trigger": false,
      "metar": "METAR ENBR 302320Z 30003KT 9000 -RADZ FEW005 BKN012 02/02 Q1019 RMK WIND 1200FT 34018KT",
      "taf": "TAF ENBR 302300Z 3100/3124 35008KT 9999 -SHRASN SCT010 BKN020"
    },
    {
      "icao": "ENGM",
      "alert": "OK",
      "vis_m": 9999,
      "fzfg": false,
      "metar_trigger": false,
      "taf_trigger": false,
      "metar": "METAR ENGM 302320Z 27004KT 240V310 9999 -SN NSC M03/M08 Q1012",
      "taf": "TAF ENGM 302300Z 3100/3124 VRB03KT CAVOK"
    },
    {
      "icao": "ENHD",
      "alert": "OK",
      "vis_m": 9999,
      "fzfg": false,
      "metar_trigger": false,
      "taf_trigger": false,
      "metar": "METAR ENHD 302320Z AUTO 32018KT 9999 BKN020/// BKN028/// 07/03 Q1019",
      "taf": "TAF ENHD 301400Z 3015/3023 VRB05KT 9999 FEW015 BKN030"
    },
    {
      "icao": "ENTC",
      "alert": "OK",
      "vis_m": 9999,
      "fzfg": false,
      "metar_trigger": false,
      "taf_trigger": false,
      "metar": "METAR ENTC 302320Z VRB02KT 9999 SCT049 BKN070 M06/M08 Q1011 RMK WIND 2600FT 01021KT",
      "taf": "TAF ENTC 302300Z 3100/3124 01008KT 9999 -SHSN FEW008 SCT030 BKN035"
    },
    {
      "icao": "ENTO",
      "alert": "OK",
      "vis_m": 9999,
      "fzfg": false,
      "metar_trigger": false,
      "taf_trigger": false,
      "metar": "METAR ENTO 302320Z AUTO 21005KT 9999 NCD M01/M08 Q1014",
      "taf": "TAF ENTO 302300Z 3100/3124 28005KT CAVOK"
    },
    {
      "icao": "ENVA",
      "alert": "OK",
      "vis_m": 9999,
      "fzfg": false,
      "metar_trigger": false,
      "taf_trigger": false,
      "metar": "METAR ENVA 302320Z VRB01KT 9999 FEW024 BKN032 M00/M00 Q1010 RMK WIND 670FT 29019KT",
      "taf": "TAF ENVA 302300Z 3100/3124 12008KT 9999 -SHSNRA FEW010TCU BKN025"
    },
    {
      "icao": "ENZV",
      "alert": "OK",
      "vis_m": 9999,
      "fzfg": false,
      "metar_trigger": false,
      "taf_trigger": false,
      "metar": "METAR ENZV 302250Z 08002KT 9999 -SHRA SCT019 BKN024 BKN032 02/01 Q1021",
      "taf": "TAF ENZV 302300Z 3100/3124 35005KT 9999 FEW015 BKN030"
    },
    {
      "icao": "EPGD",
      "alert": "OK",
      "vis_m": 9999,
      "fzfg": false,
      "metar_trigger": false,
      "taf_trigger": false,
      "metar": "METAR EPGD 302330Z 33012KT 9999 FEW035 M02/M06 Q1011",
      "taf": "TAF EPGD 302330Z 3100/3124 31012KT 8000 -SHSN BKN025CB"
    },
    {
      "icao": "EPKK",
      "alert": "OK",
      "vis_m": 9999,
      "fzfg": false,
      "metar_trigger": false,
      "taf_trigger": false,
      "metar": "METAR EPKK 302330Z 28016KT 9999 BKN023 M03/M07 Q1014",
      "taf": "TAF EPKK 302330Z 3100/3124 27012KT 9999 BKN020"
    },
    {
      "icao": "EPKT",
      "alert": "OK",
      "vis_m": 9999,
      "fzfg": false,
      "metar_trigger": false,
      "taf_trigger": false,
      "metar": "METAR EPKT 302330Z 29011KT 9999 FEW017 M05/M08 Q1014",
      "taf": "TAF EPKT 302330Z 3100/3124 30012KT 9999 BKN020"
    },
    {
      "icao": "EPLB",
      "alert": "OK",
      "vis_m": 9999,
      "fzfg": false,
      "metar_trigger": false,
      "taf_trigger": false,
      "metar": "METAR EPLB 302330Z 30014KT 9999 DRSN SCT015 BKN034 M03/M05 Q1005",
      "taf": "TAF EPLB 302330Z 3100/3124 30018KT 9999 BKN018"
    },
    {
      "icao": "EPMO",
      "alert": "OK",
      "vis_m": 2300,
      "fzfg": false,
      "metar_trigger": false,
      "taf_trigger": false,
      "metar": "METAR EPMO 302330Z 29017KT 2300 SHSN DRSN BKN012 BKN026CB M03/M03 Q1008",
      "taf": "TAF EPMO 302330Z 3100/3124 29015KT 6000 -SHSN BKN012 BKN016CB"
    },
    {
      "icao": "EPPO",
      "alert": "OK",
      "vis_m": 9999,
      "fzfg": false,
      "metar_trigger": false,
      "taf_trigger": false,
      "metar": "METAR EPPO 302330Z 29011KT CAVOK M03/M07 Q1016",
      "taf": "TAF EPPO 302330Z 3100/3124 31011KT CAVOK"
    },
    {
      "icao": "EPRA",
      "alert": "OK",
      "vis_m": 9999,
      "fzfg": false,
      "metar_trigger": false,
      "taf_trigger": false,
      "metar": "METAR EPRA 302330Z 31017G27KT 9999 -SN BKN023 OVC038 M03/M07 Q1008",
      "taf": "TAF EPRA 302330Z 3100/3109 30014KT 8000 -SN OVC025"
    },
    {
      "icao": "EPRZ",
      "alert": "OK",
      "vis_m": 9999,
      "fzfg": false,
      "metar_trigger": false,
      "taf_trigger": false,
      "metar": "METAR EPRZ 302330Z 28019KT 9999 BKN024 M03/M07 Q1008",
      "taf": ""
    },
    {
      "icao": "EPSC",
      "alert": "OK",
      "vis_m": 9999,
      "fzfg": false,
      "metar_trigger": false,
      "taf_trigger": false,
      "metar": "METAR EPSC 302330Z 29008KT CAVOK M05/M08 Q1018",
      "taf": "TAF EPSC 302330Z 3100/3124 30010KT 9999 SCT040"
    },
    {
      "icao": "EPSY",
      "alert": "OK",
      "vis_m": 9999,
      "fzfg": false,
      "metar_trigger": false,
      "taf_trigger": false,
      "metar": "METAR EPSY 302330Z 30009KT 9999 SCT032 M03/M03 Q1007",
      "taf": "TAF EPSY 302330Z 3100/3109 31010KT 9999 BKN040"
    },
    {
      "icao": "EPWA",
      "alert": "OK",
      "vis_m": 2500,
      "fzfg": false,
      "metar_trigger": false,
      "taf_trigger": false,
      "metar": "METAR EPWA 302330Z 30009KT 2500 SHSN BLSN SCT006 BKN012CB M03/M03 Q1008 TEMPO 0500 +SHSN BKN003",
      "taf": "TAF EPWA 302330Z 3100/3124 29015KT 4500 -SHSN BKN012 BKN015CB"
    },
    {
      "icao": "EPWR",
      "alert": "OK",
      "vis_m": 9999,
      "fzfg": false,
      "metar_trigger": false,
      "taf_trigger": false,
      "metar": "METAR EPWR 302330Z 29012KT CAVOK M03/M06 Q1018",
      "taf": "TAF EPWR 302330Z 3100/3124 29013KT CAVOK"
    },
    {
      "icao": "ESGG",
      "alert": "OK",
      "vis_m": 9999,
      "fzfg": false,
      "metar_trigger": false,
      "taf_trigger": false,
      "metar": "METAR ESGG 302320Z 26006KT CAVOK 00/M06 Q1015",
      "taf": "TAF ESGG 302330Z 3100/3124 25005KT CAVOK"
    },
    {
      "icao": "ESKN",
      "alert": "OK",
      "vis_m": 9999,
      "fzfg": false,
      "metar_trigger": false,
      "taf_trigger": false,
      "metar": "METAR ESKN 302320Z 29006KT CAVOK M07/M09 Q1012",
      "taf": "TAF ESKN 302330Z 3100/3124 29007KT CAVOK"
    },
    {
      "icao": "ESMS",
      "alert": "OK",
      "vis_m": 9999,
      "fzfg": false,
      "metar_trigger": false,
      "taf_trigger": false,
      "metar": "METAR ESMS 302320Z 29007KT CAVOK M03/M08 Q1018",
      "taf": "TAF ESMS 302327Z 3100/3124 28007KT 9999 FEW040"
    },
    {
      "icao": "ESSA",
      "alert": "OK",
      "vis_m": 9999,
      "fzfg": false,
      "metar_trigger": false,
      "taf_trigger": false,
      "metar": "METAR ESSA 302320Z 29004KT CAVOK M09/M11 Q1011 NOSIG",
      "taf": "TAF ESSA 302330Z 3100/3124 30003KT CAVOK"
    },
    {
      "icao": "EYKA",
      "alert": "OK",
      "vis_m": 9999,
      "fzfg": false,
      "metar_trigger": false,
      "taf_trigger": false,
      "metar": "METAR EYKA 302320Z 34007KT 260V060 CAVOK M03/M08 Q1001",
      "taf": "TAF EYKA 302300Z 3100/3124 32010KT 6000 BKN030"
    },
    {
      "icao": "EYPA",
      "alert": "OK",
      "vis_m": 9999,
      "fzfg": false,
      "metar_trigger": false,
      "taf_trigger": false,
      "metar": "METAR EYPA 302320Z AUTO 02012KT 9999 NCD M03/M09 Q1007",
      "taf": "TAF EYPA 302300Z 3100/3124 01010KT 9000 SCT030"
    },
    {
      "icao": "EYVI",
      "alert": "OK",
      "vis_m": 3000,
      "fzfg": false,
      "metar_trigger": false,
      "taf_trigger": false,
      "metar": "METAR EYVI 302320Z 33013KT 3000 SN OVC011 M05/M06 Q0998 NOSIG",
      "taf": "TAF EYVI 302300Z 3100/3124 32010KT 5000 SN SCT010 BKN020"
    },
    {
      "icao": "GCFV",
      "alert": "OK",
      "vis_m": 9999,
      "fzfg": false,
      "metar_trigger": false,
      "taf_trigger": false,
      "metar": "METAR GCFV 302330Z AUTO 25003KT CAVOK 15/12 Q1022",
      "taf": "TAF GCFV 302000Z 3021/3121 30005KT 9999 FEW025 TX21/3114Z TN14/3106Z"
    },
    {
      "icao": "GCLP",
      "alert": "OK",
      "vis_m": 9999,
      "fzfg": false,
      "metar_trigger": false,
      "taf_trigger": false,
      "metar": "METAR GCLP 302330Z 30005KT 9999 FEW027 17/13 Q1022 NOSIG",
      "taf": "TAF GCLP 302000Z 3021/3121 29003KT 9999 SCT030 TX22/3114Z TN15/3106Z"
    },
    {
      "icao": "GCTS",
      "alert": "OK",
      "vis_m": 9999,
      "fzfg": false,
      "metar_trigger": false,
      "taf_trigger": false,
      "metar": "METAR GCTS 302330Z 01005KT 9999 FEW025 16/10 Q1022 NOSIG",
      "taf": "TAF GCTS 302000Z 3021/3121 30005KT 9999 FEW025 TX24/3114Z TN16/3106Z"
    },
    {
      "icao": "GMAD",
      "alert": "OK",
      "vis_m": 9999,
      "fzfg": false,
      "metar_trigger": false,
      "taf_trigger": false,
      "metar": "METAR GMAD 302330Z 02003KT CAVOK 11/11 Q1022 NOSIG",
      "taf": "TAF GMAD 302300Z 3100/0106 06008KT 8000 SCT020"
    },
    {
      "icao": "GMMN",
      "alert": "OK",
      "vis_m": 9999,
      "fzfg": false,
      "metar_trigger": false,
      "taf_trigger": false,
      "metar": "METAR GMMN 302330Z 21007KT 9999 BKN030 11/09 Q1020 NOSIG",
      "taf": "TAF GMMN 302300Z 3100/0106 21007KT 9999 BKN026"
    },
    {
      "icao": "GMMX",
      "alert": "OK",
      "vis_m": 9999,
      "fzfg": false,
      "metar_trigger": false,
      "taf_trigger": false,
      "metar": "METAR GMMX 302330Z VRB01KT 9999 FEW020 SCT080 12/09 Q1021 NOSIG",
      "taf": "TAF GMMX 302300Z 3100/0106 22006KT 8000 SCT020 SCT080"
    },
    {
      "icao": "HEGN",
      "alert": "OK",
      "vis_m": 9999,
      "fzfg": false,
      "metar_trigger": false,
      "taf_trigger": false,
      "metar": "METAR HEGN 302300Z 00000KT CAVOK 14/09 Q1019 NOSIG",
      "taf": "TAF HEGN 302300Z 3100/0106 28010KT CAVOK"
    },
    {
      "icao": "HEMA",
      "alert": "OK",
      "vis_m": 9999,
      "fzfg": false,
      "metar_trigger": false,
      "taf_trigger": false,
      "metar": "METAR HEMA 302300Z 25005KT CAVOK 15/09 Q1018 NOSIG",
      "taf": "TAF HEMA 302300Z 3100/0106 25010KT CAVOK"
    },
    {
      "icao": "HESH",
      "alert": "OK",
      "vis_m": 9999,
      "fzfg": false,
      "metar_trigger": false,
      "taf_trigger": false,
      "metar": "METAR HESH 302300Z 26004KT CAVOK 16/10 Q1018 NOSIG",
      "taf": "TAF HESH 302300Z 3100/0106 30010KT CAVOK"
    },
    {
      "icao": "HESX",
      "alert": "OK",
      "vis_m": 9999,
      "fzfg": false,
      "metar_trigger": false,
      "taf_trigger": false,
      "metar": "METAR HESX 302300Z 18008KT CAVOK 14/07 Q1017 NOSIG",
      "taf": "TAF HESX 302300Z 3100/0106 20009KT 6000 NSC"
    },
    {
      "icao": "LATI",
      "alert": "OK",
      "vis_m": 9999,
      "fzfg": false,
      "metar_trigger": false,
      "taf_trigger": false,
      "metar": "METAR LATI 302320Z 31007KT 9999 SCT070 06/M06 Q1010 NOSIG",
      "taf": "TAF LATI 302300Z 3100/3124 30007KT 9999 FEW060 BKN080 TX07/3112Z TNM04/3123Z"
    },
    {
      "icao": "LBPD",
      "alert": "OK",
      "vis_m": 9999,
      "fzfg": false,
      "metar_trigger": false,
      "taf_trigger": false,
      "metar": "METAR LBPD 302330Z AUTO 27009KT 9999 FEW110/// 00/M09 Q1013",
      "taf": "TAF LBPD 302300Z 3100/3124 28016KT 9999 SCT050"
    },
    {
      "icao": "LBSF",
      "alert": "OK",
      "vis_m": 9999,
      "fzfg": false,
      "metar_trigger": false,
      "taf_trigger": false,
      "metar": "METAR LBSF 302330Z AUTO 28011KT 9999 NCD M04/M08 Q1014 NOSIG",
      "taf": "TAF LBSF 302300Z 3100/3124 28012KT 9999 SCT050"
    },
    {
      "icao": "LBWN",
      "alert": "OK",
      "vis_m": 9999,
      "fzfg": false,
      "metar_trigger": false,
      "taf_trigger": false,
      "metar": "METAR LBWN 302330Z AUTO 33006KT 9999 NCD M01/M04 Q1011 NOSIG",
      "taf": "TAF LBWN 302300Z 3100/3124 29012KT 9999 SCT020 BKN045"
    },
    {
      "icao": "LCLK",
      "alert": "OK",
      "vis_m": 6000,
      "fzfg": false,
      "metar_trigger": false,
      "taf_trigger": false,
      "metar": "METAR LCLK 302330Z 21010KT 180V240 6000 RA FEW014 SCT050 14/13 Q1011 NOSIG",
      "taf": "TAF LCLK 302330Z 3100/0100 22020KT 9999 FEW020 SCT040"
    },
    {
      "icao": "LCPH",
      "alert": "OK",
      "vis_m": 9999,
      "fzfg": false,
      "metar_trigger": false,
      "taf_trigger": false,
      "metar": "METAR LCPH 302330Z 19009KT 160V240 9999 TS SCT025 FEW030CB BKN050 17/14 Q1010 BECMG 3000 TSRA",
      "taf": "TAF LCPH 302330Z 3100/0100 24020KT 9999 SCT020 BKN040"
    },
    {
      "icao": "LEAL",
      "alert": "OK",
      "vis_m": 9999,
      "fzfg": false,
      "metar_trigger": false,
      "taf_trigger": false,
      "metar": "METAR LEAL 302330Z 26007KT 230V290 CAVOK 12/06 Q1018 NOSIG",
      "taf": "TAF LEAL 302300Z 3100/3124 29008KT CAVOK TX17/3114Z TN07/3106Z"
    },
    {
      "icao": "LEBB",
      "alert": "OK",
      "vis_m": 9999,
      "fzfg": false,
      "metar_trigger": false,
      "taf_trigger": false,
      "metar": "METAR LEBB 302330Z AUTO 35005KT 9999 OVC016 09/07 Q1023",
      "taf": "TAF LEBB 302300Z 3100/3124 VRB03KT 9999 SCT010 BKN020 TX10/3114Z TN01/3124Z"
    },
    {
      "icao": "LEBL",
      "alert": "OK",
      "vis_m": 9999,
      "fzfg": false,
      "metar_trigger": false,
      "taf_trigger": false,
      "metar": "METAR LEBL 302330Z 32008KT CAVOK 07/05 Q1017 NOSIG",
      "taf": "TAF LEBL 302300Z 3100/3124 34010KT 9999 FEW020 TX15/3112Z TN07/3107Z"
    },
    {
      "icao": "LECH",
      "alert": "OK",
      "vis_m": 8000,
      "fzfg": false,
      "metar_trigger": false,
      "taf_trigger": false,
      "metar": "METAR LECH 302330Z AUTO 33003KT 8000 NCD 10/01 Q1017",
      "taf": ""
    },
    {
      "icao": "LEMD",
      "alert": "OK",
      "vis_m": 9999,
      "fzfg": false,
      "metar_trigger": false,
      "taf_trigger": false,
      "metar": "METAR LEMD 302330Z 15001KT CAVOK 03/01 Q1020 NOSIG",
      "taf": "TAF LEMD 302300Z 3100/0106 VRB03KT CAVOK TX08/3114Z TNM02/3106Z"
    },
    {
      "icao": "LEMG",
      "alert": "OK",
      "vis_m": 9999,
      "fzfg": false,
      "metar_trigger": false,
      "taf_trigger": false,
      "metar": "METAR LEMG 302330Z 30009KT CAVOK 09/07 Q1020 NOSIG",
      "taf": "TAF LEMG 302300Z 3100/3124 29007KT CAVOK TX18/3114Z TN08/3106Z"
    },
    {
      "icao": "LEVC",
      "alert": "OK",
      "vis_m": 9999,
      "fzfg": false,
      "metar_trigger": false,
      "taf_trigger": false,
      "metar": "METAR LEVC 302330Z 29004KT CAVOK 06/05 Q1018 NOSIG",
      "taf": "TAF LEVC 302300Z 3100/3124 29006KT 9999 FEW020 TX17/3114Z TN05/3106Z"
    },
    {
      "icao": "LEXJ",
      "alert": "OK",
      "vis_m": 6000,
      "fzfg": false,
      "metar_trigger": false,
      "taf_trigger": false,
      "metar": "METAR LEXJ 302330Z AUTO 12005KT 080V140 6000 OVC017 09/06 Q1023",
      "taf": "TAF LEXJ 302000Z 3021/3121 VRB03KT 9999 SCT015 BKN035 TX10/3115Z TN07/3108Z"
    },
    {
      "icao": "LEZG",
      "alert": "OK",
      "vis_m": 9999,
      "fzfg": false,
      "metar_trigger": false,
      "taf_trigger": false,
      "metar": "METAR LEZG 302330Z 27013KT CAVOK 07/05 Q1019 NOSIG",
      "taf": "TAF LEZG 302300Z 3100/3124 29010KT 9999 FEW020 TX12/3114Z TN05/3106Z"
    },
    {
      "icao": "LEZL",
      "alert": "OK",
      "vis_m": 1200,
      "fzfg": false,
      "metar_trigger": false,
      "taf_trigger": false,
      "metar": "METAR LEZL 302330Z 32001KT 1200 0400NW R27/0550D R09/0600U BCFG VV005 06/06 Q1021 NOSIG",
      "taf": ""
    },
    {
      "icao": "LFBD",
      "alert": "OK",
      "vis_m": 9999,
      "fzfg": false,
      "metar_trigger": false,
      "taf_trigger": false,
      "metar": "METAR LFBD 302330Z AUTO 03005KT CAVOK M01/M03 Q1024 TEMPO 3000 BR",
      "taf": "TAF LFBD 302300Z 3100/0106 02005KT CAVOK TX05/3114Z TNM03/3106Z"
    },
    {
      "icao": "LFLL",
      "alert": "OK",
      "vis_m": 9999,
      "fzfg": false,
      "metar_trigger": false,
      "taf_trigger": false,
      "metar": "METAR LFLL 302330Z VRB02KT CAVOK M02/M05 Q1023 NOSIG",
      "taf": "TAF LFLL 302300Z 3100/0106 36005KT CAVOK"
    },
    {
      "icao": "LFLS",
      "alert": "OK",
      "vis_m": 9999,
      "fzfg": false,
      "metar_trigger": false,
      "taf_trigger": false,
      "metar": "METAR LFLS 302330Z AUTO 36007KT CAVOK M03/M05 Q1022",
      "taf": ""
    },
    {
      "icao": "LFMN",
      "alert": "OK",
      "vis_m": 9999,
      "fzfg": false,
      "metar_trigger": false,
      "taf_trigger": false,
      "metar": "METAR LFMN 302330Z 33013KT 9999 SCT038 08/01 Q1014 NOSIG",
      "taf": "TAF LFMN 302000Z 3021/0103 33010KT CAVOK"
    },
    {
      "icao": "LFOB",
      "alert": "OK",
      "vis_m": 9999,
      "fzfg": false,
      "metar_trigger": false,
      "taf_trigger": false,
      "metar": "METAR LFOB 302330Z AUTO 36007KT CAVOK M00/M01 Q1031",
      "taf": ""
    },
    {
      "icao": "LFPO",
      "alert": "OK",
      "vis_m": 9999,
      "fzfg": false,
      "metar_trigger": false,
      "taf_trigger": false,
      "metar": "METAR LFPO 302330Z AUTO 03007KT CAVOK M00/M02 Q1030",
      "taf": "TAF LFPO 301700Z 3018/3124 01005KT CAVOK"
    },
    {
      "icao": "LFSB",
      "alert": "OK",
      "vis_m": 6000,
      "fzfg": true,
      "metar_trigger": false,
      "taf_trigger": false,
      "metar": "METAR LFSB 302330Z AUTO 23002KT 6000 NSC M05/M06 Q1027 TEMPO 0500 FZFG VV///",
      "taf": "TAF LFSB 302300Z 3100/3124 31003KT 4000 BR NSC"
    },
    {
      "icao": "LGAV",
      "alert": "OK",
      "vis_m": 9999,
      "fzfg": false,
      "metar_trigger": false,
      "taf_trigger": false,
      "metar": "METAR LGAV 302320Z 35002KT 9999 FEW025 BKN045 11/07 Q1007 NOSIG",
      "taf": "TAF LGAV 302300Z 3100/3124 35015KT 9999 SCT025 BKN070"
    },
    {
      "icao": "LGTS",
      "alert": "OK",
      "vis_m": 9999,
      "fzfg": false,
      "metar_trigger": false,
      "taf_trigger": false,
      "metar": "METAR LGTS 302320Z 36017KT 9999 FEW025 06/M03 Q1011 NOSIG",
      "taf": "TAF LGTS 302300Z 3100/3124 34015G25KT 9999 SCT040"
    },
    {
      "icao": "LHBP",
      "alert": "OK",
      "vis_m": 9999,
      "fzfg": false,
      "metar_trigger": false,
      "taf_trigger": false,
      "metar": "METAR LHBP 302330Z 31015KT CAVOK M02/M06 Q1016 NOSIG",
      "taf": "TAF LHBP 302315Z 3100/3124 31012KT CAVOK"
    },
    {
      "icao": "LHDC",
      "alert": "OK",
      "vis_m": 9999,
      "fzfg": false,
      "metar_trigger": false,
      "taf_trigger": false,
      "metar": "METAR LHDC 302315Z AUTO 29006KT CAVOK M06/M08 Q1014",
      "taf": "TAF LHDC 301415Z 3015/3024 36010KT CAVOK"
    },
    {
      "icao": "LIBD",
      "alert": "OK",
      "vis_m": 9999,
      "fzfg": false,
      "metar_trigger": false,
      "taf_trigger": false,
      "metar": "METAR LIBD 302320Z 01010KT 330V040 CAVOK 09/M02 Q1014",
      "taf": "TAF LIBD 302300Z 3100/3124 36015KT 9999 FEW050"
    },
    {
      "icao": "LIBG",
      "alert": "OK",
      "vis_m": null,
      "fzfg": false,
      "metar_trigger": false,
      "taf_trigger": false,
      "metar": "",
      "taf": "TAF LIBG 301700Z 3018/3103 33007KT CAVOK"
    },
    {
      "icao": "LIBP",
      "alert": "OK",
      "vis_m": 9999,
      "fzfg": false,
      "metar_trigger": false,
      "taf_trigger": false,
      "metar": "METAR LIBP 302320Z AUTO 05013KT 9999 OVC061/// 09/M03 Q1018",
      "taf": "TAF LIBP 302300Z 3100/3124 04012KT 9999 SCT045"
    },
    {
      "icao": "LIBR",
      "alert": "OK",
      "vis_m": 9999,
      "fzfg": false,
      "metar_trigger": false,
      "taf_trigger": false,
      "metar": "METAR LIBR 302320Z 02012KT 9999 BKN040 11/05 Q1011",
      "taf": "TAF LIBR 302300Z 3100/3124 01016KT 9999 SCT020"
    },
    {
      "icao": "LICA",
      "alert": "OK",
      "vis_m": 9999,
      "fzfg": false,
      "metar_trigger": false,
      "taf_trigger": false,
      "metar": "METAR LICA 302320Z AUTO 05004KT 9999 -RA OVC057/// 09/08 Q1011",
      "taf": "TAF LICA 302300Z 3100/3124 08010KT 9999 FEW020 SCT060"
    },
    {
      "icao": "LICC",
      "alert": "OK",
      "vis_m": 9999,
      "fzfg": false,
      "metar_trigger": false,
      "taf_trigger": false,
      "metar": "METAR LICC 302320Z 20009KT CAVOK 09/06 Q1011",
      "taf": "TAF LICC 302300Z 3100/3124 29010KT 9999 FEW050"
    },
    {
      "icao": "LICJ",
      "alert": "OK",
      "vis_m": 9999,
      "fzfg": false,
      "metar_trigger": false,
      "taf_trigger": false,
      "metar": "METAR LICJ 302320Z 19005KT 150V220 9999 -RA SCT050 13/10 Q1013",
      "taf": "TAF LICJ 302300Z 3100/3124 28010KT 9999 SCT010 SCT040"
    },
    {
      "icao": "LIMC",
      "alert": "OK",
      "vis_m": 9999,
      "fzfg": false,
      "metar_trigger": false,
      "taf_trigger": false,
      "metar": "METAR LIMC 302320Z 36005KT 9999 SCT035 03/01 Q1019 NOSIG",
      "taf": "TAF LIMC 302300Z 3100/0106 03006KT 9999 BKN030"
    },
    {
      "icao": "LIME",
      "alert": "OK",
      "vis_m": 9999,
      "fzfg": false,
      "metar_trigger": false,
      "taf_trigger": false,
      "metar": "METAR LIME 302320Z VRB02KT 9999 BKN040 03/01 Q1019 NOSIG",
      "taf": "TAF LIME 302300Z 3100/3124 VRB05KT 9999 BKN030"
    },
    {
      "icao": "LIMF",
      "alert": "OK",
      "vis_m": 2500,
      "fzfg": false,
      "metar_trigger": false,
      "taf_trigger": false,
      "metar": "METAR LIMF 302320Z 27002KT 2500 BR SCT010 BKN030 04/02 Q1019",
      "taf": "TAF LIMF 302300Z 3100/3124 VRB05KT 1500 BR SCT010"
    },
    {
      "icao": "LIMJ",
      "alert": "OK",
      "vis_m": 9000,
      "fzfg": false,
      "metar_trigger": false,
      "taf_trigger": false,
      "metar": "METAR LIMJ 302320Z 03020KT 9000 NSC 06/02 Q1016",
      "taf": "TAF LIMJ 302300Z 3100/3124 02016KT 9999 FEW020"
    },
    {
      "icao": "LIPE",
      "alert": "OK",
      "vis_m": 3000,
      "fzfg": false,
      "metar_trigger": false,
      "taf_trigger": false,
      "metar": "METAR LIPE 302320Z 03002KT 3000 BR BKN054 BKN070 03/03 Q1019",
      "taf": "TAF LIPE 302300Z 3100/3124 VRB04KT 3000 BR BKN020"
    },
    {
      "icao": "LIPH",
      "alert": "OK",
      "vis_m": 9999,
      "fzfg": false,
      "metar_trigger": false,
      "taf_trigger": false,
      "metar": "METAR LIPH 302320Z AUTO 01004KT 9999 NCD 02/M04 Q1020",
      "taf": "TAF LIPH 302300Z 3100/3124 VRB04KT 9999 SCT045"
    },
    {
      "icao": "LIPQ",
      "alert": "OK",
      "vis_m": 9999,
      "fzfg": false,
      "metar_trigger": false,
      "taf_trigger": false,
      "metar": "METAR LIPQ 302320Z AUTO 05004KT 9999 NCD M02/M06 Q1020",
      "taf": "TAF LIPQ 302300Z 3100/3124 VRB05KT 9999 SCT050"
    },
    {
      "icao": "LIPR",
      "alert": "OK",
      "vis_m": 3600,
      "fzfg": false,
      "metar_trigger": false,
      "taf_trigger": false,
      "metar": "METAR LIPR 302320Z AUTO VRB01KT 3600 BR OVC054/// 04/03 Q1018",
      "taf": "TAF LIPR 302300Z 3100/3124 29005KT 3000 BR BKN020"
    },
    {
      "icao": "LIPX",
      "alert": "OK",
      "vis_m": 9999,
      "fzfg": false,
      "metar_trigger": false,
      "taf_trigger": false,
      "metar": "METAR LIPX 302320Z 06006KT 9999 SCT040 04/M03 Q1019",
      "taf": "TAF LIPX 302300Z 3100/3124 VRB05KT 9999 SCT040"
    },
    {
      "icao": "LIPY",
      "alert": "OK",
      "vis_m": 9999,
      "fzfg": false,
      "metar_trigger": false,
      "taf_trigger": false,
      "metar": "METAR LIPY 302320Z AUTO 13003KT 100V160 9999 BKN056/// OVC081/// 07/M00 Q1019",
      "taf": "TAF LIPY 302300Z 3100/3124 13006KT 6000 SCT045"
    },
    {
      "icao": "LIPZ",
      "alert": "OK",
      "vis_m": 9999,
      "fzfg": false,
      "metar_trigger": false,
      "taf_trigger": false,
      "metar": "METAR LIPZ 302320Z 02007KT CAVOK 01/M04 Q1020 NOSIG",
      "taf": "TAF LIPZ 302300Z 3100/0106 03006KT 9999 SCT040"
    },
    {
      "icao": "LIRF",
      "alert": "OK",
      "vis_m": 9999,
      "fzfg": false,
      "metar_trigger": false,
      "taf_trigger": false,
      "metar": "METAR LIRF 302320Z 05005KT CAVOK 06/03 Q1013 NOSIG",
      "taf": "TAF LIRF 302300Z 3100/0106 03012KT 9999 SCT030"
    },
    {
      "icao": "LIRN",
      "alert": "OK",
      "vis_m": 9999,
      "fzfg": false,
      "metar_trigger": false,
      "taf_trigger": false,
      "metar": "METAR LIRN 302320Z 03011KT CAVOK 09/03 Q1013 NOSIG",
      "taf": "TAF LIRN 302300Z 3100/3124 05015KT CAVOK"
    },
    {
      "icao": "LIRP",
      "alert": "OK",
      "vis_m": 9999,
      "fzfg": false,
      "metar_trigger": false,
      "taf_trigger": false,
      "metar": "METAR LIRP 302315Z 12008KT CAVOK 05/03 Q1014 NOSIG",
      "taf": "TAF LIRP 302300Z 3100/3124 09011KT 9999 FEW050"
    },
    {
      "icao": "LIRZ",
      "alert": "OK",
      "vis_m": 9999,
      "fzfg": false,
      "metar_trigger": false,
      "taf_trigger": false,
      "metar": "METAR LIRZ 302320Z AUTO 06005KT 030V090 9999 NCD 06/M01 Q1016",
      "taf": "TAF LIRZ 302300Z 3100/3124 04010KT CAVOK"
    },
    {
      "icao": "LJLJ",
      "alert": "OK",
      "vis_m": 9999,
      "fzfg": false,
      "metar_trigger": false,
      "taf_trigger": false,
      "metar": "METAR LJLJ 302330Z VRB02KT 9999 MIFG BKN056 M06/M06 Q1020 NOSIG",
      "taf": "TAF LJLJ 302300Z 3100/0100 VRB02KT 9999 SCT045 BKN075"
    },
    {
      "icao": "LKMT",
      "alert": "OK",
      "vis_m": 9999,
      "fzfg": false,
      "metar_trigger": false,
      "taf_trigger": false,
      "metar": "METAR LKMT 302330Z 28005KT 250V310 9999 FEW033 M04/M08 Q1017 NOSIG",
      "taf": "TAF LKMT 302300Z 3100/3124 32008KT 9999 SCT020"
    },
    {
      "icao": "LKPR",
      "alert": "OK",
      "vis_m": 9999,
      "fzfg": false,
      "metar_trigger": false,
      "taf_trigger": false,
      "metar": "METAR LKPR 302330Z 26010KT 9999 BKN030 M04/M07 Q1021 NOSIG",
      "taf": "TAF LKPR 302300Z 3100/0106 29013KT 9999 SCT025 BKN040"
    },
    {
      "icao": "LLBG",
      "alert": "OK",
      "vis_m": 9999,
      "fzfg": false,
      "metar_trigger": false,
      "taf_trigger": false,
      "metar": "METAR LLBG 302320Z 14007KT CAVOK 13/07 Q1016 NOSIG",
      "taf": "TAF LLBG 302311Z 3100/3124 15007KT CAVOK"
    },
    {
      "icao": "LMML",
      "alert": "OK",
      "vis_m": 9999,
      "fzfg": false,
      "metar_trigger": false,
      "taf_trigger": false,
      "metar": "METAR LMML 302315Z 30010KT 9999 VCTS SCT030TCU 13/10 Q1013 NOSIG",
      "taf": "TAF LMML 302300Z 3100/3124 30012KT 9999 SCT020TCU"
    },
    {
      "icao": "LOWW",
      "alert": "OK",
      "vis_m": 9999,
      "fzfg": false,
      "metar_trigger": false,
      "taf_trigger": false,
      "metar": "METAR LOWW 302320Z 31018KT 9999 FEW048 M01/M08 Q1020 NOSIG",
      "taf": "TAF LOWW 302315Z 3100/0106 31015KT CAVOK TX02/0106Z TNM03/3106Z"
    },
    {
      "icao": "LPFR",
      "alert": "OK",
      "vis_m": 9999,
      "fzfg": false,
      "metar_trigger": false,
      "taf_trigger": false,
      "metar": "METAR LPFR 302330Z 03007KT CAVOK 11/10 Q1020",
      "taf": "TAF LPFR 302300Z 3100/3124 03007KT CAVOK"
    },
    {
      "icao": "LPMA",
      "alert": "OK",
      "vis_m": 9999,
      "fzfg": false,
      "metar_trigger": false,
      "taf_trigger": false,
      "metar": "METAR LPMA 302330Z 33004KT 9999 SCT013 18/15 Q1019",
      "taf": "TAF LPMA 302300Z 3100/3124 VRB05KT 9999 SCT013"
    },
    {
      "icao": "LPPR",
      "alert": "OK",
      "vis_m": 7000,
      "fzfg": false,
      "metar_trigger": false,
      "taf_trigger": false,
      "metar": "METAR LPPR 302330Z VRB02KT 7000 NSC 08/07 Q1021",
      "taf": "TAF LPPR 302300Z 3100/3124 09005KT CAVOK"
    },
    {
      "icao": "LPPS",
      "alert": "OK",
      "vis_m": 9999,
      "fzfg": false,
      "metar_trigger": false,
      "taf_trigger": false,
      "metar": "METAR LPPS 302330Z 27005KT 9999 SCT010 18/17 Q1019",
      "taf": "TAF LPPS 302300Z 3100/0106 27005KT 9999 SCT010"
    },
    {
      "icao": "LPPT",
      "alert": "OK",
      "vis_m": 9999,
      "fzfg": false,
      "metar_trigger": false,
      "taf_trigger": false,
      "metar": "METAR LPPT 302330Z 34003KT CAVOK 09/07 Q1021",
      "taf": "TAF LPPT 302300Z 3100/0106 05005KT 5000 BR SCT003"
    },
    {
      "icao": "LQBK",
      "alert": "OK",
      "vis_m": 9999,
      "fzfg": false,
      "metar_trigger": false,
      "taf_trigger": false,
      "metar": "METAR LQBK 302330Z 15005KT 120V170 CAVOK M06/M07 Q1021 NOSIG",
      "taf": "TAF LQBK 302300Z 3100/3124 16005KT CAVOK TX01/3113Z TNM08/3105Z"
    },
    {
      "icao": "LQSA",
      "alert": "OK",
      "vis_m": 9999,
      "fzfg": false,
      "metar_trigger": false,
      "taf_trigger": false,
      "metar": "METAR LQSA 302330Z 27002KT CAVOK M08/M09 Q1018",
      "taf": "TAF LQSA 302300Z 3100/3124 29005KT 9999 SCT040 TXM00/3113Z TNM10/3106Z"
    },
    {
      "icao": "LQTZ",
      "alert": "OK",
      "vis_m": 6000,
      "fzfg": false,
      "metar_trigger": false,
      "taf_trigger": false,
      "metar": "METAR LQTZ 302330Z VRB02KT 6000 NSC M07/M07 Q1020",
      "taf": "TAF LQTZ 302300Z 3100/3124 27006KT CAVOK TX02/3113Z TNM09/3105Z"
    },
    {
      "icao": "LRBC",
      "alert": "OK",
      "vis_m": 9999,
      "fzfg": false,
      "metar_trigger": false,
      "taf_trigger": false,
      "metar": "METAR LRBC 302330Z 21007KT 200V260 CAVOK M03/M12 Q1007",
      "taf": "TAF LRBC 302300Z 3100/3109 VRB04KT 9999 BKN045"
    },
    {
      "icao": "LRBS",
      "alert": "OK",
      "vis_m": 9999,
      "fzfg": false,
      "metar_trigger": false,
      "taf_trigger": false,
      "metar": "METAR LRBS 302330Z 27003KT 250V310 CAVOK M04/M09 Q1012 NOSIG",
      "taf": "TAF LRBS 302300Z 3100/3124 27007KT CAVOK"
    },
    {
      "icao": "LRBV",
      "alert": "OK",
      "vis_m": 9999,
      "fzfg": false,
      "metar_trigger": false,
      "taf_trigger": false,
      "metar": "METAR LRBV 302330Z AUTO 29010KT 9999 NCD M05/M11 Q1009 RESG",
      "taf": "TAF LRBV 302000Z 3021/3106 28008KT 9999 SCT050"
    },
    {
      "icao": "LRCL",
      "alert": "OK",
      "vis_m": 9999,
      "fzfg": false,
      "metar_trigger": false,
      "taf_trigger": false,
      "metar": "METAR LRCL 302330Z 26010KT CAVOK M06/M11 Q1011",
      "taf": "TAF LRCL 302300Z 3100/3109 28008KT 9999 BKN040"
    },
    {
      "icao": "LRCV",
      "alert": "OK",
      "vis_m": 9999,
      "fzfg": false,
      "metar_trigger": false,
      "taf_trigger": false,
      "metar": "METAR LRCV 302330Z 29008KT CAVOK M05/M08 Q1014",
      "taf": "TAF LRCV 302300Z 3100/3109 30010KT CAVOK"
    },
    {
      "icao": "LRIA",
      "alert": "OK",
      "vis_m": 9999,
      "fzfg": false,
      "metar_trigger": false,
      "taf_trigger": false,
      "metar": "METAR LRIA 302330Z 24007KT CAVOK M03/M11 Q1006",
      "taf": "TAF LRIA 302300Z 3100/3109 26008KT CAVOK"
    },
    {
      "icao": "LROP",
      "alert": "OK",
      "vis_m": 9999,
      "fzfg": false,
      "metar_trigger": false,
      "taf_trigger": false,
      "metar": "METAR LROP 302330Z 26006KT CAVOK M06/M11 Q1012 NOSIG",
      "taf": "TAF LROP 302300Z 3100/3124 VRB04KT CAVOK"
    },
    {
      "icao": "LRSB",
      "alert": "OK",
      "vis_m": 9999,
      "fzfg": false,
      "metar_trigger": false,
      "taf_trigger": false,
      "metar": "METAR LRSB 302330Z 29014KT CAVOK M05/M11 Q1011",
      "taf": "TAF LRSB 302300Z 3100/3124 29010KT 9999 SCT040"
    },
    {
      "icao": "LRSM",
      "alert": "OK",
      "vis_m": 9999,
      "fzfg": false,
      "metar_trigger": false,
      "taf_trigger": false,
      "metar": "METAR LRSM 302330Z AUTO 26010KT 9999 BKN050/// OVC110/// M05/M09 Q1012",
      "taf": "TAF LRSM 301400Z 3015/3024 29008KT 9999 BKN040"
    },
    {
      "icao": "LRSV",
      "alert": "OK",
      "vis_m": 9999,
      "fzfg": false,
      "metar_trigger": false,
      "taf_trigger": false,
      "metar": "METAR LRSV 302330Z 24009KT CAVOK M05/M12 Q1003",
      "taf": "TAF LRSV 302300Z 3100/3109 26010KT CAVOK"
    },
    {
      "icao": "LRTM",
      "alert": "OK",
      "vis_m": 9999,
      "fzfg": false,
      "metar_trigger": false,
      "taf_trigger": false,
      "metar": "METAR LRTM 302330Z AUTO 23004KT 9999 R25////// FEW080/// M07/M10 Q1011",
      "taf": "TAF LRTM 301400Z 3015/3024 30012KT 5000 -SN SCT025 BKN040"
    },
    {
      "icao": "LRTR",
      "alert": "OK",
      "vis_m": 9999,
      "fzfg": false,
      "metar_trigger": false,
      "taf_trigger": false,
      "metar": "METAR LRTR 302330Z VRB02KT CAVOK M06/M09 Q1016",
      "taf": "TAF LRTR 302300Z 3100/3124 29009KT CAVOK"
    },
    {
      "icao": "LTAC",
      "alert": "OK",
      "vis_m": 3600,
      "fzfg": false,
      "metar_trigger": false,
      "taf_trigger": false,
      "metar": "METAR LTAC 302320Z 18003KT 150V220 3600 -SN BR SCT004 BKN020 BKN070 00/M00 Q1004 NOSIG RMK RWY21C VRB01KT RWY03L 17002KT RWY21R 00000KT RWY03R 18003KT 150V210 RWY21L 19003KT",
      "taf": "TAF LTAC 302240Z 3100/3124 VRB02KT 9999 SCT040 BKN100"
    },
    {
      "icao": "LTFM",
      "alert": "OK",
      "vis_m": 9999,
      "fzfg": false,
      "metar_trigger": false,
      "taf_trigger": false,
      "metar": "METAR LTFM 302320Z 36017KT 9999 BKN025 05/M00 Q1010 NOSIG RMK RWY17L 35015KT RWY34L 35015KT RWY16R 35014KT RWY36 35016KT RWY18 36016KT",
      "taf": "TAF LTFM 302240Z 3100/0106 35015KT 9999 SCT025"
    },
    {
      "icao": "LUKK",
      "alert": "OK",
      "vis_m": 9999,
      "fzfg": false,
      "metar_trigger": false,
      "taf_trigger": false,
      "metar": "METAR LUKK 302330Z 27011KT CAVOK M05/M10 Q1005 NOSIG",
      "taf": "TAF LUKK 302318Z 3100/3124 29012KT 9999 SCT035"
    },
    {
      "icao": "LWOH",
      "alert": "OK",
      "vis_m": null,
      "fzfg": false,
      "metar_trigger": false,
      "taf_trigger": false,
      "metar": "",
      "taf": "TAF LWOH 302020Z 3021/3121 33010KT 9999 SCT040 BKN070"
    },
    {
      "icao": "LWSK",
      "alert": "OK",
      "vis_m": 9999,
      "fzfg": false,
      "metar_trigger": false,
      "taf_trigger": false,
      "metar": "METAR LWSK 302320Z 36017KT 9999 FEW045 BKN080 01/M10 Q1016 NOSIG",
      "taf": "TAF LWSK 302020Z 3021/3121 01015KT 9999 BKN050 BKN070"
    },
    {
      "icao": "LYBE",
      "alert": "OK",
      "vis_m": 9999,
      "fzfg": false,
      "metar_trigger": false,
      "taf_trigger": false,
      "metar": "METAR LYBE 302330Z 26008KT CAVOK M03/M07 Q1019 NOSIG",
      "taf": "TAF LYBE 302300Z 3100/3124 25010KT CAVOK TX00/3112Z TNM06/3106Z"
    },
    {
      "icao": "LYNI",
      "alert": "OK",
      "vis_m": 9999,
      "fzfg": false,
      "metar_trigger": false,
      "taf_trigger": false,
      "metar": "METAR LYNI 302330Z 33006KT CAVOK M03/M08 Q1017 NOSIG",
      "taf": "TAF LYNI 302300Z 3100/3124 28008KT 9999 SCT040 TXM00/3112Z TNM05/3103Z"
    },
    {
      "icao": "LYPG",
      "alert": "OK",
      "vis_m": 9999,
      "fzfg": false,
      "metar_trigger": false,
      "taf_trigger": false,
      "metar": "METAR LYPG 302330Z 36014KT 320V020 CAVOK 04/M16 Q1014 NOSIG",
      "taf": "TAF LYPG 302300Z 3100/3124 01015G25KT CAVOK TX07/3112Z TN02/3105Z"
    },
    {
      "icao": "LZIB",
      "alert": "OK",
      "vis_m": 9999,
      "fzfg": false,
      "metar_trigger": false,
      "taf_trigger": false,
      "metar": "METAR LZIB 302330Z 31014KT 9999 FEW033 M01/M07 Q1019 NOSIG",
      "taf": "TAF LZIB 302315Z 3100/0100 31012KT 9999 FEW035"
    },
    {
      "icao": "LZKZ",
      "alert": "OK",
      "vis_m": 9999,
      "fzfg": false,
      "metar_trigger": false,
      "taf_trigger": false,
      "metar": "METAR LZKZ 302330Z 30012G26KT CAVOK M02/M11 Q1011 NOSIG",
      "taf": "TAF LZKZ 302315Z 3100/0100 30009KT 9999 FEW045"
    },
    {
      "icao": "LZTT",
      "alert": "OK",
      "vis_m": 9999,
      "fzfg": false,
      "metar_trigger": false,
      "taf_trigger": false,
      "metar": "METAR LZTT 302330Z 24012G23KT 170V280 9999 BKN047 M05/M13 Q1009",
      "taf": "TAF LZTT 302315Z 3100/0100 26009KT 9999 -SN FEW012 BKN040"
    },
    {
      "icao": "OEJN",
      "alert": "OK",
      "vis_m": 9999,
      "fzfg": false,
      "metar_trigger": false,
      "taf_trigger": false,
      "metar": "METAR OEJN 302300Z 36006KT CAVOK 20/09 Q1015 NOSIG",
      "taf": "TAF OEJN 302300Z 3100/0106 VRB03KT 7000 NSC"
    },
    {
      "icao": "OEMA",
      "alert": "OK",
      "vis_m": 9999,
      "fzfg": false,
      "metar_trigger": false,
      "taf_trigger": false,
      "metar": "METAR OEMA 302300Z VRB03KT CAVOK 15/M03 Q1021 NOSIG",
      "taf": "TAF OEMA 302300Z 3100/0106 11008KT CAVOK"
    },
    {
      "icao": "OJAI",
      "alert": "OK",
      "vis_m": 3500,
      "fzfg": false,
      "metar_trigger": false,
      "taf_trigger": false,
      "metar": "METAR OJAI 302300Z 00000KT 3500 BR NSC 05/04 Q1020 NOSIG",
      "taf": "TAF OJAI 302247Z 3100/0106 VRB02KT 4000 BR FEW030"
    },
    {
      "icao": "OMAA",
      "alert": "OK",
      "vis_m": 9999,
      "fzfg": false,
      "metar_trigger": false,
      "taf_trigger": false,
      "metar": "METAR OMAA 302300Z 30014KT 9999 FEW045 21/10 Q1016 NOSIG",
      "taf": "TAF OMAA 301700Z 3018/0100 31013KT 8000 FEW040"
    },
    {
      "icao": "OMDB",
      "alert": "OK",
      "vis_m": 9999,
      "fzfg": false,
      "metar_trigger": false,
      "taf_trigger": false,
      "metar": "METAR OMDB 302300Z 30019KT CAVOK 23/08 Q1015 NOSIG",
      "taf": "TAF OMDB 302300Z 3100/0106 29012KT 8000 FEW040"
    },
    {
      "icao": "UAAA",
      "alert": "OK",
      "vis_m": 2800,
      "fzfg": false,
      "metar_trigger": false,
      "taf_trigger": false,
      "metar": "METAR UAAA 302330Z 21002MPS 2800 BR BKN200 M00/M03 Q1007 NOSIG",
      "taf": "TAF UAAA 302301Z 3100/3124 29003MPS 3100 BR FU SCT050CB BKN100 TX07/3109Z TNM02/3101Z"
    },
    {
      "icao": "UBBB",
      "alert": "OK",
      "vis_m": 9999,
      "fzfg": false,
      "metar_trigger": false,
      "taf_trigger": false,
      "metar": "METAR UBBB 302330Z 21014KT CAVOK 06/M03 Q1010 NOSIG",
      "taf": "TAF UBBB 302301Z 3100/3124 19018G28KT CAVOK TX10/3110Z TN04/3103Z"
    },
    {
      "icao": "UDSG",
      "alert": "OK",
      "vis_m": 9999,
      "fzfg": false,
      "metar_trigger": false,
      "taf_trigger": false,
      "metar": "METAR UDSG 302330Z 04002KT 9999 NSC M14/M17 Q1015 NOSIG",
      "taf": "TAF UDSG 302258Z 3100/3124 VRB06KT 9999 BKN040"
    },
    {
      "icao": "UDYZ",
      "alert": "OK",
      "vis_m": 9999,
      "fzfg": false,
      "metar_trigger": false,
      "taf_trigger": false,
      "metar": "METAR UDYZ 302330Z 06004KT 360V080 9999 NSC M07/M11 Q1018 NOSIG",
      "taf": "TAF UDYZ 302300Z 3100/3124 VRB06KT 6000 NSC"
    },
    {
      "icao": "UGKO",
      "alert": "OK",
      "vis_m": 9999,
      "fzfg": false,
      "metar_trigger": false,
      "taf_trigger": false,
      "metar": "METAR UGKO 302330Z 08016G26KT CAVOK 01/M04 Q1010 NOSIG",
      "taf": "TAF UGKO 302300Z 3100/3124 08015KT CAVOK TX04/3112Z TNM01/3102Z"
    }
  ]
}