{
  "ts_utc": "2025-12-20T23:34:46Z",
  "threshold_m": 150,
  "source": "stations_override.txt (ICAO list) + aviationweather.gov (METAR/TAF raw)",
  "station_count": 114,
  "stations": [
    {
      "icao": "BIKF",
      "alert": "OK",
      "vis_m": 9999,
      "fzfg": false,
      "metar_trigger": false,
      "taf_trigger": false,
      "metar": "METAR BIKF 202330Z 05007KT CAVOK 05/03 Q1003",
      "taf": "TAF BIKF 202253Z 2100/2200 06008KT 9999 FEW020 TX09/2112Z TN03/2100Z"
    },
    {
      "icao": "BKPR",
      "alert": "OK",
      "vis_m": 200,
      "fzfg": true,
      "metar_trigger": false,
      "taf_trigger": false,
      "metar": "METAR BKPR 202330Z 14002KT 0200 R17/0450N R35/0650N FG BKN002 00/00 Q1019 NOSIG",
      "taf": "TAF BKPR 202330Z 2100/2124 VRB03KT 0150 FZFG BKN002"
    },
    {
      "icao": "EBBR",
      "alert": "OK",
      "vis_m": 9000,
      "fzfg": false,
      "metar_trigger": false,
      "taf_trigger": false,
      "metar": "METAR EBBR 202320Z 10004KT 9000 NSC 07/06 Q1011 NOSIG",
      "taf": ""
    },
    {
      "icao": "EBCI",
      "alert": "OK",
      "vis_m": 7000,
      "fzfg": false,
      "metar_trigger": false,
      "taf_trigger": false,
      "metar": "METAR EBCI 202320Z 14004KT 7000 FEW010 SCT025 08/08 Q1011 TEMPO 4000 BR",
      "taf": ""
    },
    {
      "icao": "EDDB",
      "alert": "OK",
      "vis_m": 1900,
      "fzfg": false,
      "metar_trigger": false,
      "taf_trigger": false,
      "metar": "METAR EDDB 202320Z AUTO 08006KT 1900 BR OVC002 06/06 Q1019 TEMPO 0600 FG OVC001",
      "taf": "TAF EDDB 202300Z 2100/2124 09008KT 2000 BR OVC002"
    },
    {
      "icao": "EDDH",
      "alert": "OK",
      "vis_m": 9999,
      "fzfg": false,
      "metar_trigger": false,
      "taf_trigger": false,
      "metar": "METAR EDDH 202320Z AUTO 09007KT 9999 OVC003 04/04 Q1018 TEMPO SCT003",
      "taf": "TAF EDDH 202300Z 2100/2206 09010KT 9000 OVC003"
    },
    {
      "icao": "EDDK",
      "alert": "OK",
      "vis_m": 9999,
      "fzfg": false,
      "metar_trigger": false,
      "taf_trigger": false,
      "metar": "METAR EDDK 202320Z AUTO 11006KT 9999 -RA OVC024 10/07 Q1013 NOSIG",
      "taf": "TAF EDDK 202300Z 2100/2206 11007KT 9999 BKN025"
    },
    {
      "icao": "EDDN",
      "alert": "OK",
      "vis_m": 9999,
      "fzfg": false,
      "metar_trigger": false,
      "taf_trigger": false,
      "metar": "METAR EDDN 202320Z AUTO 13003KT CAVOK 03/02 Q1016",
      "taf": "TAF EDDN 202300Z 2100/2124 11005KT CAVOK"
    },
    {
      "icao": "EDFH",
      "alert": "OK",
      "vis_m": 1500,
      "fzfg": false,
      "metar_trigger": false,
      "taf_trigger": false,
      "metar": "METAR EDFH 202320Z 15009KT 1500 BR BCFG BKN000 07/07 Q1013",
      "taf": "TAF EDFH 202300Z 2100/2124 13012KT 0300 FG VV001"
    },
    {
      "icao": "EDJA",
      "alert": "OK",
      "vis_m": 400,
      "fzfg": false,
      "metar_trigger": false,
      "taf_trigger": false,
      "metar": "METAR EDJA 202320Z AUTO 29002KT 0400 0350 R24/0400D // VV/// M02/M02 Q1014",
      "taf": "TAF EDJA 201700Z 2018/2103 04003KT 6000 NSC"
    },
    {
      "icao": "EDLW",
      "alert": "OK",
      "vis_m": null,
      "fzfg": false,
      "metar_trigger": false,
      "taf_trigger": false,
      "metar": "",
      "taf": "TAF EDLW 201700Z 2018/2118 04005KT 9999 BKN030"
    },
    {
      "icao": "EDSB",
      "alert": "OK",
      "vis_m": 350,
      "fzfg": false,
      "metar_trigger": false,
      "taf_trigger": false,
      "metar": "METAR EDSB 202320Z AUTO 35003KT 0350 0250 R21/0600U SCT004/// BKN180/// 06/06 Q1014",
      "taf": "TAF EDSB 202300Z 2100/2124 03003KT 0300 FG VV002"
    },
    {
      "icao": "EETN",
      "alert": "OK",
      "vis_m": 9999,
      "fzfg": false,
      "metar_trigger": false,
      "taf_trigger": false,
      "metar": "METAR EETN 202320Z 25011KT 9999 BKN009 BKN030 06/05 Q1006",
      "taf": "TAF EETN 202330Z 2100/2124 26014KT 9999 BKN015 BKN025"
    },
    {
      "icao": "EFHK",
      "alert": "OK",
      "vis_m": 9999,
      "fzfg": false,
      "metar_trigger": false,
      "taf_trigger": false,
      "metar": "METAR EFHK 202320Z 25008KT 9999 SCT013 BKN020 05/03 Q1004 BECMG BKN013",
      "taf": "TAF EFHK 202031Z 2021/2121 23009KT 9999 FEW009 SCT013 BKN016"
    },
    {
      "icao": "EFTU",
      "alert": "OK",
      "vis_m": 9999,
      "fzfg": false,
      "metar_trigger": false,
      "taf_trigger": false,
      "metar": "METAR EFTU 202320Z AUTO 28007KT 9999 BKN019 OVC030 05/03 Q1005",
      "taf": "TAF EFTU 202031Z 2021/2121 25010KT CAVOK"
    },
    {
      "icao": "EGGW",
      "alert": "OK",
      "vis_m": 8000,
      "fzfg": false,
      "metar_trigger": false,
      "taf_trigger": false,
      "metar": "METAR EGGW 202320Z AUTO 12009KT 8000 OVC005 06/05 Q1007",
      "taf": "TAF EGGW 202258Z 2100/2124 12007KT 6000 BKN005"
    },
    {
      "icao": "EGKK",
      "alert": "OK",
      "vis_m": 9000,
      "fzfg": false,
      "metar_trigger": false,
      "taf_trigger": false,
      "metar": "METAR EGKK 202320Z 09006KT 9000 -RA BKN006 09/09 Q1007",
      "taf": "TAF EGKK 202302Z 2100/2206 10005KT 9999 BKN010"
    },
    {
      "icao": "EHEH",
      "alert": "OK",
      "vis_m": 9999,
      "fzfg": false,
      "metar_trigger": false,
      "taf_trigger": false,
      "metar": "METAR EHEH 202325Z AUTO 12004KT 9999 OVC024 08/07 Q1012 WHT",
      "taf": "TAF EHEH 201723Z 2018/2124 11006KT 9999 SCT015 BKN020"
    },
    {
      "icao": "EKBI",
      "alert": "OK",
      "vis_m": 300,
      "fzfg": false,
      "metar_trigger": false,
      "taf_trigger": false,
      "metar": "METAR EKBI 202320Z AUTO 14004KT 110V170 0300 R09/1100N R27/0900N -RA FG VV003 04/04 Q1019",
      "taf": "TAF EKBI 202327Z 2100/2124 16005KT 6000 BKN008"
    },
    {
      "icao": "EKCH",
      "alert": "OK",
      "vis_m": 6000,
      "fzfg": false,
      "metar_trigger": false,
      "taf_trigger": false,
      "metar": "METAR EKCH 202320Z 25004KT 210V280 6000 OVC003 05/04 Q1020 TEMPO BKN005",
      "taf": "TAF EKCH 202327Z 2100/2124 26004KT 5000 BKN006"
    },
    {
      "icao": "ENTO",
      "alert": "OK",
      "vis_m": 9999,
      "fzfg": false,
      "metar_trigger": false,
      "taf_trigger": false,
      "metar": "METAR ENTO 202320Z AUTO 35004KT 9999 // NCD 02/M01 Q1018",
      "taf": "TAF ENTO 201700Z 2018/2118 VRB03KT CAVOK"
    },
    {
      "icao": "EPGD",
      "alert": "OK",
      "vis_m": 9999,
      "fzfg": false,
      "metar_trigger": false,
      "taf_trigger": false,
      "metar": "METAR EPGD 202330Z 25005KT 9999 BKN019 04/02 Q1020",
      "taf": "TAF EPGD 202330Z 2100/2124 25005KT 9999 BKN020"
    },
    {
      "icao": "EPKK",
      "alert": "OK",
      "vis_m": 5000,
      "fzfg": false,
      "metar_trigger": false,
      "taf_trigger": false,
      "metar": "METAR EPKK 202330Z 23002KT 5000 BR BKN009 OVC013 03/02 Q1019",
      "taf": "TAF EPKK 202330Z 2100/2124 VRB02KT 4000 BR OVC012"
    },
    {
      "icao": "EPKT",
      "alert": "OK",
      "vis_m": 1700,
      "fzfg": false,
      "metar_trigger": false,
      "taf_trigger": false,
      "metar": "METAR EPKT 202330Z VRB01KT 1700 BR FEW001 BKN010 04/04 Q1019",
      "taf": "TAF EPKT 202330Z 2100/2124 VRB02KT 1500 BR OVC012"
    },
    {
      "icao": "EPWA",
      "alert": "OK",
      "vis_m": 4900,
      "fzfg": false,
      "metar_trigger": false,
      "taf_trigger": false,
      "metar": "METAR EPWA 202330Z 03004KT 010V070 4900 BR OVC003 04/04 Q1020 TEMPO 2000 BR BKN002",
      "taf": "TAF EPWA 202330Z 2100/2124 VRB03KT 5000 BR OVC003"
    },
    {
      "icao": "EPWR",
      "alert": "OK",
      "vis_m": 2800,
      "fzfg": false,
      "metar_trigger": false,
      "taf_trigger": false,
      "metar": "METAR EPWR 202330Z 07003KT 2800 MIFG BR FEW005 03/03 Q1019",
      "taf": "TAF EPWR 202330Z 2100/2124 VRB02KT 2000 BR FEW005"
    },
    {
      "icao": "ESGG",
      "alert": "OK",
      "vis_m": 2200,
      "fzfg": false,
      "metar_trigger": false,
      "taf_trigger": false,
      "metar": "METAR ESGG 202320Z 23005KT 2200 BR OVC002 06/06 Q1018",
      "taf": "TAF ESGG 202330Z 2100/2124 24007KT 5000 BKN005"
    },
    {
      "icao": "ESKN",
      "alert": "OK",
      "vis_m": 9999,
      "fzfg": false,
      "metar_trigger": false,
      "taf_trigger": false,
      "metar": "METAR ESKN 202320Z 28009KT CAVOK 04/02 Q1015",
      "taf": "TAF ESKN 202330Z 2100/2124 28008KT CAVOK"
    },
    {
      "icao": "ESMX",
      "alert": "OK",
      "vis_m": 9999,
      "fzfg": false,
      "metar_trigger": false,
      "taf_trigger": false,
      "metar": "METAR ESMX 202320Z AUTO 27005KT 9999 FEW012/// OVC015/// 06/06 Q1018",
      "taf": ""
    },
    {
      "icao": "EVRA",
      "alert": "OK",
      "vis_m": 9999,
      "fzfg": false,
      "metar_trigger": false,
      "taf_trigger": false,
      "metar": "METAR EVRA 202320Z 22007KT 9999 FEW020 BKN045 05/04 Q1013 NOSIG",
      "taf": "TAF EVRA 202301Z 2100/2124 21007KT 9999 BKN015"
    },
    {
      "icao": "EYKA",
      "alert": "OK",
      "vis_m": 9999,
      "fzfg": false,
      "metar_trigger": false,
      "taf_trigger": false,
      "metar": "METAR EYKA 202320Z 23005KT 9999 OVC024 05/04 Q1018",
      "taf": "TAF EYKA 202300Z 2100/2124 24008KT 9000 SCT010 OVC015"
    },
    {
      "icao": "EYVI",
      "alert": "OK",
      "vis_m": 9999,
      "fzfg": false,
      "metar_trigger": false,
      "taf_trigger": false,
      "metar": "METAR EYVI 202320Z 26005KT 9999 OVC015 04/03 Q1017 NOSIG",
      "taf": "TAF EYVI 202300Z 2100/2124 VRB04KT 9000 SCT010 OVC015"
    },
    {
      "icao": "GCLP",
      "alert": "OK",
      "vis_m": 9999,
      "fzfg": false,
      "metar_trigger": false,
      "taf_trigger": false,
      "metar": "METAR GCLP 202300Z 34012KT 9999 FEW020 BKN040 16/13 Q1022 NOSIG",
      "taf": "TAF GCLP 202000Z 2021/2121 01013KT 9999 SCT035 TX21/2114Z TN15/2106Z"
    },
    {
      "icao": "GCTS",
      "alert": "OK",
      "vis_m": 9999,
      "fzfg": false,
      "metar_trigger": false,
      "taf_trigger": false,
      "metar": "METAR GCTS 202300Z 07013KT 9999 SCT045 17/10 Q1023 NOSIG",
      "taf": "TAF GCTS 202000Z 2021/2121 03009KT 9999 SCT035 TX22/2114Z TN15/2106Z"
    },
    {
      "icao": "HECA",
      "alert": "OK",
      "vis_m": 9999,
      "fzfg": false,
      "metar_trigger": false,
      "taf_trigger": false,
      "metar": "METAR HECA 202330Z 28004KT 9999 FEW025 15/05 Q1014 NOSIG",
      "taf": "TAF HECA 202300Z 2100/2206 08009KT 9999 FEW025"
    },
    {
      "icao": "HEGN",
      "alert": "OK",
      "vis_m": 9999,
      "fzfg": false,
      "metar_trigger": false,
      "taf_trigger": false,
      "metar": "METAR HEGN 202300Z 26006KT CAVOK 14/10 Q1015 NOSIG",
      "taf": "TAF HEGN 202300Z 2100/2206 25006KT CAVOK"
    },
    {
      "icao": "HESH",
      "alert": "OK",
      "vis_m": 9999,
      "fzfg": false,
      "metar_trigger": false,
      "taf_trigger": false,
      "metar": "METAR HESH 202300Z 30007KT CAVOK 16/09 Q1015 NOSIG",
      "taf": "TAF HESH 202300Z 2100/2206 32006KT CAVOK"
    },
    {
      "icao": "HESX",
      "alert": "OK",
      "vis_m": 9999,
      "fzfg": false,
      "metar_trigger": false,
      "taf_trigger": false,
      "metar": "METAR HESX 202300Z 08008KT CAVOK 13/09 Q1014 NOSIG",
      "taf": "TAF HESX 202300Z 2100/2206 09009KT CAVOK"
    },
    {
      "icao": "LATI",
      "alert": "OK",
      "vis_m": 6000,
      "fzfg": false,
      "metar_trigger": false,
      "taf_trigger": false,
      "metar": "METAR LATI 202320Z 14003KT 6000 1700S BCFG NSC 04/03 Q1016 NOSIG",
      "taf": "TAF LATI 202300Z 2100/2124 VRB03KT 6000 NSC TX17/2112Z TN01/2105Z"
    },
    {
      "icao": "LBSF",
      "alert": "OK",
      "vis_m": 9000,
      "fzfg": false,
      "metar_trigger": false,
      "taf_trigger": false,
      "metar": "METAR LBSF 202330Z AUTO 12005KT 9000 OVC028/// 05/03 Q1018 NOSIG",
      "taf": "TAF LBSF 202300Z 2100/2124 10010KT 9999 OVC020"
    },
    {
      "icao": "LBWN",
      "alert": "OK",
      "vis_m": 7000,
      "fzfg": false,
      "metar_trigger": false,
      "taf_trigger": false,
      "metar": "METAR LBWN 202330Z AUTO 35003KT 7000 -SHRA BKN009/// OVC027/// 07/07 Q1019 NOSIG",
      "taf": "TAF LBWN 202300Z 2100/2124 02010KT 7000 BKN008 OVC015"
    },
    {
      "icao": "LCLK",
      "alert": "OK",
      "vis_m": 9999,
      "fzfg": false,
      "metar_trigger": false,
      "taf_trigger": false,
      "metar": "METAR LCLK 202330Z 30005KT 9999 FEW035 BKN050 15/12 Q1017 NOSIG",
      "taf": "TAF LCLK 202330Z 2100/2200 04007KT 9999 SCT030"
    },
    {
      "icao": "LDDU",
      "alert": "OK",
      "vis_m": 9999,
      "fzfg": false,
      "metar_trigger": false,
      "taf_trigger": false,
      "metar": "METAR LDDU 202330Z 07006KT 9999 FEW065 10/06 Q1015",
      "taf": "TAF LDDU 202325Z 2100/2124 05004KT CAVOK TX15/2112Z TN09/2105Z"
    },
    {
      "icao": "LDSP",
      "alert": "OK",
      "vis_m": 9999,
      "fzfg": false,
      "metar_trigger": false,
      "taf_trigger": false,
      "metar": "METAR LDSP 202330Z AUTO 36003KT 340V040 CAVOK 07/03 Q1016",
      "taf": "TAF LDSP 202325Z 2100/2124 VRB02KT CAVOK TX16/2113Z TN07/2106Z"
    },
    {
      "icao": "LDZA",
      "alert": "OK",
      "vis_m": 1500,
      "fzfg": false,
      "metar_trigger": false,
      "taf_trigger": false,
      "metar": "METAR LDZA 202330Z 06003KT 020V120 1500 -DZ BR OVC002 03/02 Q1020 TEMPO 0800 BCFG",
      "taf": "TAF LDZA 202325Z 2100/2124 VRB02KT 2000 BR OVC003 TX05/2113Z TN03/2100Z"
    },
    {
      "icao": "LEAL",
      "alert": "OK",
      "vis_m": 9999,
      "fzfg": false,
      "metar_trigger": false,
      "taf_trigger": false,
      "metar": "METAR LEAL 202300Z 29006KT 240V320 9999 BKN068 14/07 Q1012 NOSIG",
      "taf": "TAF LEAL 202300Z 2100/2124 31012KT 9999 FEW030 TX15/2112Z TN08/2106Z"
    },
    {
      "icao": "LEBL",
      "alert": "OK",
      "vis_m": 9999,
      "fzfg": false,
      "metar_trigger": false,
      "taf_trigger": false,
      "metar": "METAR LEBL 202300Z 33006KT 9999 FEW030 BKN050 12/11 Q1010 NOSIG",
      "taf": "TAF LEBL 202300Z 2100/2124 33008KT 9999 FEW030 BKN050 TX16/2112Z TN09/2106Z"
    },
    {
      "icao": "LECH",
      "alert": "OK",
      "vis_m": 6000,
      "fzfg": false,
      "metar_trigger": false,
      "taf_trigger": false,
      "metar": "METAR LECH 202300Z AUTO 21004KT 6000 NCD 08/08 Q1011",
      "taf": ""
    },
    {
      "icao": "LEMD",
      "alert": "OK",
      "vis_m": 9999,
      "fzfg": false,
      "metar_trigger": false,
      "taf_trigger": false,
      "metar": "METAR LEMD 202300Z 13005KT 9999 BKN025 06/05 Q1011 NOSIG",
      "taf": "TAF LEMD 202300Z 2100/2206 20008KT 9999 SCT045 TX08/2114Z TN05/2107Z"
    },
    {
      "icao": "LEMG",
      "alert": "OK",
      "vis_m": 9999,
      "fzfg": false,
      "metar_trigger": false,
      "taf_trigger": false,
      "metar": "METAR LEMG 202300Z 29005KT 9999 FEW060 07/05 Q1016 NOSIG",
      "taf": "TAF LEMG 202300Z 2100/2124 30006KT 9999 FEW030 TX13/2114Z TN05/2106Z"
    },
    {
      "icao": "LERS",
      "alert": "OK",
      "vis_m": 9999,
      "fzfg": false,
      "metar_trigger": false,
      "taf_trigger": false,
      "metar": "METAR LERS 202300Z AUTO 01002KT CAVOK 10/08 Q1010",
      "taf": "TAF LERS 202000Z 2021/2121 VRB04KT 9999 FEW020 TX15/2112Z TN06/2106Z"
    },
    {
      "icao": "LEVC",
      "alert": "OK",
      "vis_m": 9999,
      "fzfg": false,
      "metar_trigger": false,
      "taf_trigger": false,
      "metar": "METAR LEVC 202300Z 25003KT 230V290 CAVOK 11/09 Q1011 NOSIG",
      "taf": "TAF LEVC 202300Z 2100/2124 26008KT 9999 FEW040 TX16/2112Z TN06/2107Z"
    },
    {
      "icao": "LFLL",
      "alert": "OK",
      "vis_m": 9999,
      "fzfg": false,
      "metar_trigger": false,
      "taf_trigger": false,
      "metar": "METAR LFLL 202330Z 14008KT CAVOK 10/07 Q1012 NOSIG",
      "taf": "TAF LFLL 201700Z 2018/2124 14006KT CAVOK"
    },
    {
      "icao": "LFMN",
      "alert": "OK",
      "vis_m": 9999,
      "fzfg": false,
      "metar_trigger": false,
      "taf_trigger": false,
      "metar": "METAR LFMN 202330Z 33008KT 9999 FEW050 BKN066 BKN100 13/11 Q1014 NOSIG",
      "taf": "TAF LFMN 202000Z 2021/2203 33010KT 9999 BKN040"
    },
    {
      "icao": "LFOB",
      "alert": "OK",
      "vis_m": 5000,
      "fzfg": false,
      "metar_trigger": false,
      "taf_trigger": false,
      "metar": "METAR LFOB 202330Z AUTO 12009KT 5000 BR OVC004 09/09 Q1009 TEMPO 0500 FG VV///",
      "taf": "TAF LFOB 201700Z 2018/2118 14005KT 6000 OVC006"
    },
    {
      "icao": "LFPO",
      "alert": "OK",
      "vis_m": 9000,
      "fzfg": false,
      "metar_trigger": false,
      "taf_trigger": false,
      "metar": "METAR LFPO 202330Z 15003KT 9000 FEW005 SCT093 BKN150 09/09 Q1009 TEMPO 4000 BR NSC",
      "taf": "TAF LFPO 202300Z 2100/2206 16005KT 8000 FEW005 BKN093 OVC160"
    },
    {
      "icao": "LFSB",
      "alert": "OK",
      "vis_m": 9999,
      "fzfg": false,
      "metar_trigger": false,
      "taf_trigger": false,
      "metar": "METAR LFSB 202330Z AUTO 00000KT CAVOK 05/03 Q1014 TEMPO 2500 BR",
      "taf": "TAF LFSB 201700Z 2018/2118 VRB03KT CAVOK"
    },
    {
      "icao": "LGAV",
      "alert": "OK",
      "vis_m": 9999,
      "fzfg": false,
      "metar_trigger": false,
      "taf_trigger": false,
      "metar": "METAR LGAV 202320Z 35004KT 9999 SCT025 11/09 Q1016 NOSIG",
      "taf": "TAF LGAV 202300Z 2100/2124 02012KT 9999 SCT025"
    },
    {
      "icao": "LGIR",
      "alert": "OK",
      "vis_m": 9999,
      "fzfg": false,
      "metar_trigger": false,
      "taf_trigger": false,
      "metar": "METAR LGIR 202320Z 19004KT 9999 FEW018TCU SCT025 BKN080 14/13 Q1014 NOSIG",
      "taf": "TAF LGIR 202300Z 2100/2124 18008KT 9999 SCT020 BKN080"
    },
    {
      "icao": "LGKR",
      "alert": "OK",
      "vis_m": 9999,
      "fzfg": false,
      "metar_trigger": false,
      "taf_trigger": false,
      "metar": "METAR LGKR 202320Z 00000KT 9999 FEW015 09/09 Q1015 NOSIG",
      "taf": "TAF LGKR 202300Z 2100/2124 VRB05KT 9999 SCT015"
    },
    {
      "icao": "LGRP",
      "alert": "OK",
      "vis_m": 9999,
      "fzfg": false,
      "metar_trigger": false,
      "taf_trigger": false,
      "metar": "METAR LGRP 202320Z 13006KT 070V170 9999 FEW018TCU SCT020 16/11 Q1013 WS R06 NOSIG",
      "taf": "TAF LGRP 202300Z 2100/2124 VRB05KT 9999 FEW018 SCT020"
    },
    {
      "icao": "LGTS",
      "alert": "OK",
      "vis_m": 8000,
      "fzfg": false,
      "metar_trigger": false,
      "taf_trigger": false,
      "metar": "METAR LGTS 202320Z VRB03KT 8000 FEW010 05/05 Q1018 NOSIG",
      "taf": "TAF LGTS 202300Z 2100/2124 VRB03KT 8000 FEW010"
    },
    {
      "icao": "LGZA",
      "alert": "OK",
      "vis_m": null,
      "fzfg": false,
      "metar_trigger": false,
      "taf_trigger": false,
      "metar": "",
      "taf": "TAF LGZA 202300Z 2100/2109 VRB05KT 9999 SCT020 BKN070"
    },
    {
      "icao": "LHBP",
      "alert": "OK",
      "vis_m": 8000,
      "fzfg": false,
      "metar_trigger": false,
      "taf_trigger": false,
      "metar": "METAR LHBP 202330Z 00000KT 8000 OVC008 05/04 Q1020 NOSIG",
      "taf": "TAF LHBP 202315Z 2100/2124 VRB03KT 8000 OVC010"
    },
    {
      "icao": "LHDC",
      "alert": "OK",
      "vis_m": 3500,
      "fzfg": false,
      "metar_trigger": false,
      "taf_trigger": false,
      "metar": "METAR LHDC 202315Z AUTO 22003KT 3500 BR FEW004 OVC011 05/05 Q1020",
      "taf": "TAF LHDC 201415Z 2015/2024 VRB02KT 0300 FG VV001"
    },
    {
      "icao": "LIBD",
      "alert": "OK",
      "vis_m": 9999,
      "fzfg": false,
      "metar_trigger": false,
      "taf_trigger": false,
      "metar": "METAR LIBD 202320Z 27005KT CAVOK 09/08 Q1015",
      "taf": "TAF LIBD 202300Z 2100/2124 VRB04KT 9999 SCT040"
    },
    {
      "icao": "LICC",
      "alert": "OK",
      "vis_m": 9999,
      "fzfg": false,
      "metar_trigger": false,
      "taf_trigger": false,
      "metar": "METAR LICC 202320Z 12007KT 080V200 9999 -RA SCT015 BKN020 15/14 Q1013 RESHRA",
      "taf": "TAF LICC 202300Z 2100/2124 05008KT 9999 SCT020"
    },
    {
      "icao": "LICJ",
      "alert": "OK",
      "vis_m": 9999,
      "fzfg": false,
      "metar_trigger": false,
      "taf_trigger": false,
      "metar": "METAR LICJ 202320Z 19005KT 9999 SCT055 13/11 Q1012",
      "taf": "TAF LICJ 202300Z 2100/2124 VRB06KT 9999 SCT040"
    },
    {
      "icao": "LIEO",
      "alert": "OK",
      "vis_m": 9999,
      "fzfg": false,
      "metar_trigger": false,
      "taf_trigger": false,
      "metar": "METAR LIEO 202320Z 21002KT 9999 SCT020 09/09 Q1013",
      "taf": "TAF LIEO 202300Z 2100/2124 VRB05KT 9999 BKN020"
    },
    {
      "icao": "LIMC",
      "alert": "OK",
      "vis_m": 3000,
      "fzfg": false,
      "metar_trigger": false,
      "taf_trigger": false,
      "metar": "METAR LIMC 202320Z 36002KT 3000 BR BKN046 07/07 Q1017 NOSIG",
      "taf": "TAF LIMC 202300Z 2100/2206 VRB03KT 2000 BR SCT003 BKN050"
    },
    {
      "icao": "LIME",
      "alert": "OK",
      "vis_m": 9999,
      "fzfg": false,
      "metar_trigger": false,
      "taf_trigger": false,
      "metar": "METAR LIME 202320Z 01002KT 9999 BKN050 06/06 Q1017 NOSIG",
      "taf": "TAF LIME 202300Z 2100/2124 VRB03KT 9000 BKN060"
    },
    {
      "icao": "LIPH",
      "alert": "OK",
      "vis_m": 2200,
      "fzfg": false,
      "metar_trigger": false,
      "taf_trigger": false,
      "metar": "METAR LIPH 202320Z AUTO VRB01KT 2200 0300E R07/0600N -RA BCFG VV002 03/03 Q1017",
      "taf": "TAF LIPH 202300Z 2100/2124 VRB04KT 8000 FEW030"
    },
    {
      "icao": "LIPQ",
      "alert": "OK",
      "vis_m": 9999,
      "fzfg": false,
      "metar_trigger": false,
      "taf_trigger": false,
      "metar": "METAR LIPQ 202320Z AUTO 02003KT 9999 NCD 04/03 Q1017",
      "taf": "TAF LIPQ 202300Z 2100/2124 VRB04KT CAVOK"
    },
    {
      "icao": "LIPX",
      "alert": "OK",
      "vis_m": 9999,
      "fzfg": false,
      "metar_trigger": false,
      "taf_trigger": false,
      "metar": "METAR LIPX 202320Z 24002KT 9999 0800S R04/0700D PRFG FEW005 03/02 Q1017",
      "taf": "TAF LIPX 202300Z 2100/2124 VRB03KT 7000 FEW003"
    },
    {
      "icao": "LIPY",
      "alert": "OK",
      "vis_m": 4800,
      "fzfg": false,
      "metar_trigger": false,
      "taf_trigger": false,
      "metar": "METAR LIPY 202320Z AUTO 21002KT 4800 BR OVC008/// 11/10 Q1017",
      "taf": "TAF LIPY 202300Z 2100/2124 VRB05KT 8000 OVC013"
    },
    {
      "icao": "LIPZ",
      "alert": "OK",
      "vis_m": 5000,
      "fzfg": false,
      "metar_trigger": false,
      "taf_trigger": false,
      "metar": "METAR LIPZ 202320Z 30002KT 5000 BR BCFG NSC 05/05 Q1017 NOSIG",
      "taf": "TAF LIPZ 202300Z 2100/2206 VRB04KT 8000 FEW020"
    },
    {
      "icao": "LIRA",
      "alert": "OK",
      "vis_m": 9999,
      "fzfg": false,
      "metar_trigger": false,
      "taf_trigger": false,
      "metar": "METAR LIRA 202320Z 06003KT CAVOK 08/04 Q1014",
      "taf": "TAF LIRA 202300Z 2100/2124 VRB05KT CAVOK"
    },
    {
      "icao": "LIRN",
      "alert": "OK",
      "vis_m": 9999,
      "fzfg": false,
      "metar_trigger": false,
      "taf_trigger": false,
      "metar": "METAR LIRN 202320Z 35005KT CAVOK 10/07 Q1014 NOSIG",
      "taf": "TAF LIRN 202300Z 2100/2124 05006KT CAVOK"
    },
    {
      "icao": "LLBG",
      "alert": "OK",
      "vis_m": 9999,
      "fzfg": false,
      "metar_trigger": false,
      "taf_trigger": false,
      "metar": "METAR LLBG 202320Z VRB02KT CAVOK 11/08 Q1015 NOSIG",
      "taf": "TAF LLBG 202308Z 2100/2124 VRB04KT CAVOK"
    },
    {
      "icao": "LMML",
      "alert": "OK",
      "vis_m": 9999,
      "fzfg": false,
      "metar_trigger": false,
      "taf_trigger": false,
      "metar": "METAR LMML 202315Z 10005KT 9999 -RA FEW012 BKN021 14/13 Q1012 NOSIG",
      "taf": "TAF LMML 202300Z 2100/2124 13007KT 9999 SCT014"
    },
    {
      "icao": "LOWW",
      "alert": "OK",
      "vis_m": 8000,
      "fzfg": false,
      "metar_trigger": false,
      "taf_trigger": false,
      "metar": "METAR LOWW 202320Z 13007KT 8000 -DZ FEW003 OVC004 02/01 Q1020 NOSIG",
      "taf": "TAF LOWW 202315Z 2100/2206 14005KT 5000 BR SCT001 OVC003 TX04/2202Z TN02/2106Z"
    },
    {
      "icao": "LPFR",
      "alert": "OK",
      "vis_m": 9999,
      "fzfg": false,
      "metar_trigger": false,
      "taf_trigger": false,
      "metar": "METAR LPFR 202300Z 24003KT 9999 FEW012 12/11 Q1014",
      "taf": "TAF LPFR 202300Z 2100/2124 VRB05KT 9999 SCT020"
    },
    {
      "icao": "LPPR",
      "alert": "OK",
      "vis_m": 6000,
      "fzfg": false,
      "metar_trigger": false,
      "taf_trigger": false,
      "metar": "METAR LPPR 202300Z 32018G29KT 290V350 6000 RA SCT005 BKN011 08/07 Q1006",
      "taf": "TAF LPPR 202300Z 2100/2124 26010KT 9999 SCT018"
    },
    {
      "icao": "LPPT",
      "alert": "OK",
      "vis_m": 9999,
      "fzfg": false,
      "metar_trigger": false,
      "taf_trigger": false,
      "metar": "METAR LPPT 202300Z 23009KT 9999 FEW015 FEW030TCU 11/10 Q1011",
      "taf": "TAF LPPT 202300Z 2100/2206 24010KT 9999 SCT025"
    },
    {
      "icao": "LQSA",
      "alert": "OK",
      "vis_m": 4000,
      "fzfg": false,
      "metar_trigger": false,
      "taf_trigger": false,
      "metar": "METAR LQSA 202330Z 16004KT 120V190 4000 BR OVC003 02/02 Q1019",
      "taf": "TAF LQSA 202300Z 2100/2124 VRB02KT 3000 BR BKN003 TX04/2113Z TNM01/2105Z"
    },
    {
      "icao": "LQTZ",
      "alert": "OK",
      "vis_m": 1200,
      "fzfg": false,
      "metar_trigger": false,
      "taf_trigger": false,
      "metar": "METAR LQTZ 202330Z 08003KT 1200 R09/1400U BR OVC002 04/04 Q1019",
      "taf": "TAF LQTZ 202300Z 2100/2124 10005KT 0300 FG VV002 TX06/2113Z TN01/2105Z"
    },
    {
      "icao": "LRCL",
      "alert": "OK",
      "vis_m": 4000,
      "fzfg": false,
      "metar_trigger": false,
      "taf_trigger": false,
      "metar": "METAR LRCL 202300Z 06002KT 4000 BR NSC 03/03 Q1019",
      "taf": "TAF LRCL 202300Z 2100/2109 VRB04KT 3000 BR NSC"
    },
    {
      "icao": "LRCV",
      "alert": "OK",
      "vis_m": 350,
      "fzfg": false,
      "metar_trigger": false,
      "taf_trigger": false,
      "metar": "METAR LRCV 202300Z 05004KT 0350 R26/0550N FG VV002 04/04 Q1021",
      "taf": "TAF LRCV 202300Z 2100/2109 13006KT 0300 FG VV001"
    },
    {
      "icao": "LRIA",
      "alert": "OK",
      "vis_m": 600,
      "fzfg": false,
      "metar_trigger": false,
      "taf_trigger": false,
      "metar": "METAR LRIA 202300Z 11006KT 0600 R14/1200D FG VV001 01/01 Q1021",
      "taf": "TAF LRIA 202300Z 2100/2109 VRB04KT 0800 FG OVC002"
    },
    {
      "icao": "LROP",
      "alert": "OK",
      "vis_m": 500,
      "fzfg": false,
      "metar_trigger": false,
      "taf_trigger": false,
      "metar": "METAR LROP 202300Z 02002KT 0500 R08R/1100U R08L/1000D FG OVC001 04/04 Q1021 NOSIG",
      "taf": "TAF LROP 202300Z 2100/2124 VRB04KT 0600 FG OVC001"
    },
    {
      "icao": "LRSB",
      "alert": "OK",
      "vis_m": 2000,
      "fzfg": false,
      "metar_trigger": false,
      "taf_trigger": false,
      "metar": "METAR LRSB 202300Z 23002KT 2000 MIFG BR SCT060 M02/M02 Q1019",
      "taf": "TAF LRSB 202300Z 2100/2124 VRB04KT 1500 BR NSC"
    },
    {
      "icao": "LRTR",
      "alert": "OK",
      "vis_m": 350,
      "fzfg": false,
      "metar_trigger": false,
      "taf_trigger": false,
      "metar": "METAR LRTR 202300Z 35003KT 0350 R29/0800U FG BKN002 05/05 Q1020",
      "taf": "TAF LRTR 202300Z 2100/2124 VRB04KT 0200 FG VV001"
    },
    {
      "icao": "LTAF",
      "alert": "OK",
      "vis_m": 9999,
      "fzfg": false,
      "metar_trigger": false,
      "taf_trigger": false,
      "metar": "METAR LTAF 202320Z 03003KT CAVOK 09/06 Q1018 NOSIG RMK RWY23 05005KT SKC",
      "taf": "TAF LTAF 202240Z 2100/2124 02008KT CAVOK"
    },
    {
      "icao": "LTAI",
      "alert": "OK",
      "vis_m": 9999,
      "fzfg": false,
      "metar_trigger": false,
      "taf_trigger": false,
      "metar": "METAR LTAI 202320Z 01006KT 9999 BKN030 BKN090 13/07 Q1017 NOSIG RMK RWY18C 02003KT 350V050 RWY36R 36005KT RWY18L 02004KT",
      "taf": "TAF LTAI 202240Z 2100/2124 34009KT 9999 BKN025 BKN090"
    },
    {
      "icao": "LTFM",
      "alert": "OK",
      "vis_m": 9999,
      "fzfg": false,
      "metar_trigger": false,
      "taf_trigger": false,
      "metar": "METAR LTFM 202320Z 02007KT 9999 SCT016 BKN022 12/08 Q1017 NOSIG RMK RWY17L 04007KT RWY34L 02007KT RWY16R 03006KT RWY36 02008KT RWY18 04007KT",
      "taf": "TAF LTFM 202240Z 2100/2206 05008KT 9999 SCT016 BKN022"
    },
    {
      "icao": "LUBL",
      "alert": "OK",
      "vis_m": null,
      "fzfg": false,
      "metar_trigger": false,
      "taf_trigger": false,
      "metar": "",
      "taf": ""
    },
    {
      "icao": "LUKK",
      "alert": "OK",
      "vis_m": 350,
      "fzfg": true,
      "metar_trigger": false,
      "taf_trigger": false,
      "metar": "METAR LUKK 202330Z VRB03KT 0350 R08/0400N FZFG VV001 M00/M00 Q1021 NOSIG",
      "taf": "TAF LUKK 202317Z 2100/2124 VRB04KT 0300 FZFG VV001"
    },
    {
      "icao": "LWSK",
      "alert": "OK",
      "vis_m": 200,
      "fzfg": true,
      "metar_trigger": false,
      "taf_trigger": false,
      "metar": "METAR LWSK 202320Z VRB01KT 0200 R34/0400N FZFG VV002 M01/M01 Q1020 NOSIG",
      "taf": "TAF LWSK 202330Z 2100/2124 VRB02KT 0200 FZFG VV002"
    },
    {
      "icao": "LYBE",
      "alert": "OK",
      "vis_m": 6000,
      "fzfg": false,
      "metar_trigger": false,
      "taf_trigger": false,
      "metar": "METAR LYBE 202330Z VRB02KT 6000 OVC006 05/04 Q1020 NOSIG",
      "taf": "TAF LYBE 202300Z 2100/2124 06004KT 0500 FG VV001 TX05/2113Z TN03/2106Z"
    },
    {
      "icao": "LZIB",
      "alert": "OK",
      "vis_m": 6000,
      "fzfg": false,
      "metar_trigger": false,
      "taf_trigger": false,
      "metar": "METAR LZIB 202330Z 16004KT 6000 -DZ SCT002 OVC003 03/03 Q1020 TEMPO 2800 BR OVC002",
      "taf": "TAF LZIB 202315Z 2100/2200 22004KT 3500 BR OVC006"
    },
    {
      "icao": "LZKZ",
      "alert": "OK",
      "vis_m": 9999,
      "fzfg": false,
      "metar_trigger": false,
      "taf_trigger": false,
      "metar": "METAR LZKZ 202330Z 01005KT 9999 SCT016 03/02 Q1019 BECMG CAVOK",
      "taf": "TAF LZKZ 202315Z 2100/2200 VRB02KT 5000 SCT011 BKN030"
    },
    {
      "icao": "LZTT",
      "alert": "OK",
      "vis_m": 800,
      "fzfg": true,
      "metar_trigger": false,
      "taf_trigger": false,
      "metar": "METAR LZTT 202330Z 00000KT 0800 R27/1600U FZFG BKN002 M04/M05 Q1018",
      "taf": "TAF LZTT 202315Z 2100/2200 VRB02KT 2000 BCFG BKN004"
    },
    {
      "icao": "OEJN",
      "alert": "OK",
      "vis_m": 9999,
      "fzfg": false,
      "metar_trigger": false,
      "taf_trigger": false,
      "metar": "METAR OEJN 202300Z 00000KT CAVOK 21/01 Q1012 NOSIG",
      "taf": "TAF OEJN 202300Z 2100/2206 06008KT CAVOK"
    },
    {
      "icao": "OEMA",
      "alert": "OK",
      "vis_m": 9999,
      "fzfg": false,
      "metar_trigger": false,
      "taf_trigger": false,
      "metar": "METAR OEMA 202300Z 06008KT CAVOK 12/M08 Q1020 NOSIG",
      "taf": "TAF OEMA 202300Z 2100/2206 09010KT CAVOK"
    },
    {
      "icao": "OERK",
      "alert": "OK",
      "vis_m": 9999,
      "fzfg": false,
      "metar_trigger": false,
      "taf_trigger": false,
      "metar": "METAR OERK 202300Z 32003KT CAVOK 06/03 Q1022 NOSIG",
      "taf": "TAF OERK 202300Z 2100/2206 30008KT 7000 NSC"
    },
    {
      "icao": "OJAI",
      "alert": "OK",
      "vis_m": 5000,
      "fzfg": false,
      "metar_trigger": false,
      "taf_trigger": false,
      "metar": "METAR OJAI 202300Z 12005KT 5000 BR NSC 07/05 Q1020 NOSIG",
      "taf": "TAF OJAI 202300Z 2100/2206 13006KT 4000 BR NSC"
    },
    {
      "icao": "OKBK",
      "alert": "OK",
      "vis_m": null,
      "fzfg": false,
      "metar_trigger": false,
      "taf_trigger": false,
      "metar": "",
      "taf": ""
    },
    {
      "icao": "OMAA",
      "alert": "OK",
      "vis_m": 9999,
      "fzfg": false,
      "metar_trigger": false,
      "taf_trigger": false,
      "metar": "METAR OMAA 202300Z 19006KT CAVOK 14/06 Q1018 NOSIG",
      "taf": "TAF OMAA 202300Z 2100/2206 19006KT 9999 FEW040"
    },
    {
      "icao": "UAAA",
      "alert": "OK",
      "vis_m": 5000,
      "fzfg": false,
      "metar_trigger": false,
      "taf_trigger": false,
      "metar": "METAR UAAA 202300Z COR 00000MPS 5000 BR FU SCT043CB OVC100 00/M03 Q1017 NOSIG",
      "taf": "TAF UAAA 202301Z 2100/2124 06003MPS 3100 BR BKN015CB OVC050 TX00/2107Z TNM03/2101Z"
    },
    {
      "icao": "UCFM",
      "alert": "OK",
      "vis_m": 750,
      "fzfg": true,
      "metar_trigger": false,
      "taf_trigger": false,
      "metar": "METAR UCFM 202300Z 08002MPS 0750 0550E R07/P1500N -SHSN FZFG BKN010 OVC040CB M02/M02 Q1018 NOSIG",
      "taf": "TAF UCFM 202251Z 2100/2124 12003MPS 1000 BR FEW004 BKN040CB"
    },
    {
      "icao": "UDYZ",
      "alert": "OK",
      "vis_m": 5000,
      "fzfg": false,
      "metar_trigger": false,
      "taf_trigger": false,
      "metar": "METAR UDYZ 202300Z 03002KT 5000 BR NSC M04/M07 Q1025 NOSIG",
      "taf": "TAF UDYZ 202300Z 2100/2124 VRB04KT 3500 BR NSC"
    },
    {
      "icao": "UGTB",
      "alert": "OK",
      "vis_m": 9000,
      "fzfg": false,
      "metar_trigger": false,
      "taf_trigger": false,
      "metar": "METAR UGTB 202300Z 03003KT 360V120 9000 NSC M03/M05 Q1026 NOSIG",
      "taf": "TAF UGTB 202300Z 2100/2124 34007KT CAVOK TX06/2112Z TNM03/2102Z"
    },
    {
      "icao": "UKKK",
      "alert": "OK",
      "vis_m": null,
      "fzfg": false,
      "metar_trigger": false,
      "taf_trigger": false,
      "metar": "",
      "taf": ""
    },
    {
      "icao": "UTTT",
      "alert": "OK",
      "vis_m": null,
      "fzfg": false,
      "metar_trigger": false,
      "taf_trigger": false,
      "metar": "",
      "taf": ""
    }
  ]
}