{
  "ts_utc": "2026-02-06T11:48:14Z",
  "threshold_m": 150,
  "source": "stations_override.txt (ICAO list) + aviationweather.gov (METAR/TAF raw)",
  "station_count": 159,
  "stations": [
    {
      "icao": "BIKF",
      "alert": "OK",
      "vis_m": 9999,
      "fzfg": false,
      "metar_trigger": false,
      "taf_trigger": false,
      "metar": "METAR BIKF 061130Z 03004KT 9999 FEW049 BKN110 01/M02 Q1006",
      "taf": "TAF BIKF 061104Z 0612/0712 05008KT 3000 SNRA OVC008 TX04/0618Z TNM02/0710Z"
    },
    {
      "icao": "BKPR",
      "alert": "OK",
      "vis_m": 9999,
      "fzfg": false,
      "metar_trigger": false,
      "taf_trigger": false,
      "metar": "METAR BKPR 061130Z 17004KT 9999 FEW020 BKN055 08/06 Q0996 NOSIG",
      "taf": "TAF BKPR 061130Z 0612/0712 17007KT 9999 SCT020 BKN040"
    },
    {
      "icao": "EBCI",
      "alert": "OK",
      "vis_m": 3800,
      "fzfg": false,
      "metar_trigger": false,
      "taf_trigger": false,
      "metar": "METAR EBCI 061120Z 19008KT 3800 -RADZ BKN008 BKN009 08/07 Q0989 TEMPO 4500 RADZ",
      "taf": "TAF EBCI 061109Z 0612/0718 15006KT 6000 -RA BKN007"
    },
    {
      "icao": "EDDB",
      "alert": "OK",
      "vis_m": 1000,
      "fzfg": false,
      "metar_trigger": false,
      "taf_trigger": false,
      "metar": "METAR EDDB 061120Z AUTO 08005KT 1000 0800 R06L/1700U R06R/1200N BCFG OVC002 01/00 Q0995 TEMPO 0700 FG OVC001",
      "taf": "TAF EDDB 061100Z 0612/0712 09004KT 3000 BR BKN003"
    },
    {
      "icao": "EDDH",
      "alert": "OK",
      "vis_m": 3100,
      "fzfg": false,
      "metar_trigger": false,
      "taf_trigger": false,
      "metar": "METAR EDDH 061120Z AUTO 08007KT 3100 BR OVC004 00/M00 Q0995 TEMPO 2500 OVC005",
      "taf": "TAF EDDH 061100Z 0612/0718 09007KT 4000 BR OVC004"
    },
    {
      "icao": "EDDK",
      "alert": "OK",
      "vis_m": 9999,
      "fzfg": false,
      "metar_trigger": false,
      "taf_trigger": false,
      "metar": "METAR EDDK 061120Z AUTO 13008KT 100V160 9999 BKN029 BKN038 05/01 Q0992 NOSIG",
      "taf": "TAF EDDK 061100Z 0612/0718 12007KT 9999 BKN040"
    },
    {
      "icao": "EDDN",
      "alert": "OK",
      "vis_m": 9999,
      "fzfg": false,
      "metar_trigger": false,
      "taf_trigger": false,
      "metar": "METAR EDDN 061120Z AUTO 18005KT 9999 OVC007 02/M00 Q0994 NOSIG",
      "taf": "TAF EDDN 061100Z 0612/0712 15004KT 9000 OVC006"
    },
    {
      "icao": "EDDS",
      "alert": "OK",
      "vis_m": 9999,
      "fzfg": false,
      "metar_trigger": false,
      "taf_trigger": false,
      "metar": "METAR EDDS 061120Z AUTO VRB01KT 9999 VCSH FEW///TCU 04/01 Q0992 NOSIG",
      "taf": "TAF EDDS 061100Z 0612/0712 19004KT 9999 BKN030"
    },
    {
      "icao": "EDFH",
      "alert": "OK",
      "vis_m": 1500,
      "fzfg": false,
      "metar_trigger": false,
      "taf_trigger": false,
      "metar": "METAR EDFH 061120Z 13013G24KT 1500 -RA BR OVC001 00/M00 Q0991",
      "taf": "TAF EDFH 061100Z 0612/0712 15012KT 5000 BR BKN005"
    },
    {
      "icao": "EDJA",
      "alert": "OK",
      "vis_m": 9999,
      "fzfg": false,
      "metar_trigger": false,
      "taf_trigger": false,
      "metar": "METAR EDJA 061120Z 22011G24KT 9999 FEW009 BKN015 OVC032 05/04 Q0993",
      "taf": "TAF EDJA 061100Z 0612/0621 22012KT 9000 SCT015 BKN030"
    },
    {
      "icao": "EDLW",
      "alert": "OK",
      "vis_m": 9999,
      "fzfg": false,
      "metar_trigger": false,
      "taf_trigger": false,
      "metar": "METAR EDLW 061120Z 01003KT 350V050 CAVOK 04/01 Q0991",
      "taf": "TAF EDLW 061100Z 0612/0712 08004KT 8000 NSC"
    },
    {
      "icao": "EDNY",
      "alert": "OK",
      "vis_m": 5000,
      "fzfg": false,
      "metar_trigger": false,
      "taf_trigger": false,
      "metar": "METAR EDNY 061120Z VRB02KT 5000 BR BKN026 OVC031 04/03 Q0994",
      "taf": "TAF EDNY 061100Z 0612/0621 21004KT 6000 BKN020"
    },
    {
      "icao": "EDSB",
      "alert": "OK",
      "vis_m": 4000,
      "fzfg": false,
      "metar_trigger": false,
      "taf_trigger": false,
      "metar": "METAR EDSB 061120Z 00000KT 4000 BR OVC005 03/02 Q0994",
      "taf": "TAF EDSB 061100Z 0612/0712 20004KT 6000 SCT004 BKN005"
    },
    {
      "icao": "EETN",
      "alert": "OK",
      "vis_m": 9999,
      "fzfg": false,
      "metar_trigger": false,
      "taf_trigger": false,
      "metar": "METAR EETN 061120Z 08008KT 9999 BKN025 OVC032 M08/M10 Q1013 NOSIG",
      "taf": "TAF EETN 061130Z 0612/0712 08010KT 9999 OVC025"
    },
    {
      "icao": "EFTU",
      "alert": "OK",
      "vis_m": 9999,
      "fzfg": false,
      "metar_trigger": false,
      "taf_trigger": false,
      "metar": "METAR EFTU 061120Z AUTO 06006KT 9999 FEW027 M12/M15 Q1015",
      "taf": "TAF EFTU 061126Z 0612/0712 06006KT 9999 FEW027"
    },
    {
      "icao": "EGBB",
      "alert": "OK",
      "vis_m": 3400,
      "fzfg": false,
      "metar_trigger": false,
      "taf_trigger": false,
      "metar": "METAR EGBB 061120Z 09007KT 3400 RADZ OVC004 06/05 Q0985",
      "taf": "TAF EGBB 061102Z 0612/0712 07009KT 9999 SCT004 BKN009"
    },
    {
      "icao": "EGGP",
      "alert": "OK",
      "vis_m": 9999,
      "fzfg": false,
      "metar_trigger": false,
      "taf_trigger": false,
      "metar": "METAR EGGP 061120Z 08014KT 9999 -RA SCT032 BKN041 05/03 Q0986",
      "taf": "TAF EGGP 061059Z 0612/0712 08012KT 9999 FEW012 BKN040"
    },
    {
      "icao": "EGGW",
      "alert": "OK",
      "vis_m": 6000,
      "fzfg": false,
      "metar_trigger": false,
      "taf_trigger": false,
      "metar": "METAR EGGW 061120Z AUTO 11008KT 6000 -RADZ OVC003 08/07 Q0984",
      "taf": "TAF EGGW 061057Z 0612/0712 11010KT 6000 -RA SCT006 BKN010"
    },
    {
      "icao": "EGKK",
      "alert": "OK",
      "vis_m": 9999,
      "fzfg": false,
      "metar_trigger": false,
      "taf_trigger": false,
      "metar": "METAR EGKK 061120Z 16005KT 130V190 9999 BKN009 11/10 Q0984",
      "taf": "TAF EGKK 061057Z 0612/0718 19008KT 9999 SCT010"
    },
    {
      "icao": "EGNM",
      "alert": "OK",
      "vis_m": 2000,
      "fzfg": false,
      "metar_trigger": false,
      "taf_trigger": false,
      "metar": "METAR EGNM 061120Z 06008KT 2000 -RADZ BR SCT002 OVC003 03/03 Q0988",
      "taf": "TAF EGNM 061100Z 0612/0712 07009KT 2000 -RA BR SCT002 BKN003"
    },
    {
      "icao": "EGPD",
      "alert": "OK",
      "vis_m": 8000,
      "fzfg": false,
      "metar_trigger": false,
      "taf_trigger": false,
      "metar": "METAR EGPD 061120Z 10014KT 8000 VCSH SCT010 BKN016 03/01 Q0997 TEMPO 4000 SHRA BKN010",
      "taf": "TAF EGPD 061058Z 0612/0712 10012KT 9999 SCT012 BKN020"
    },
    {
      "icao": "EGPF",
      "alert": "OK",
      "vis_m": 9999,
      "fzfg": false,
      "metar_trigger": false,
      "taf_trigger": false,
      "metar": "METAR EGPF 061120Z AUTO 07019KT 9999 BKN019 05/01 Q0992",
      "taf": "TAF EGPF 061103Z 0612/0712 07012KT 9999 SCT015 BKN025"
    },
    {
      "icao": "EHBK",
      "alert": "OK",
      "vis_m": 8000,
      "fzfg": false,
      "metar_trigger": false,
      "taf_trigger": false,
      "metar": "METAR EHBK 061125Z AUTO 10005KT 8000 DZ FEW002 FEW015CB BKN021 OVC024 07/06 Q0990 TEMPO 4000 -RADZ",
      "taf": "TAF EHBK 061120Z 0612/0718 16006KT 9999 OVC020"
    },
    {
      "icao": "EHEH",
      "alert": "OK",
      "vis_m": 6000,
      "fzfg": false,
      "metar_trigger": false,
      "taf_trigger": false,
      "metar": "METAR EHEH 061125Z AUTO 11006KT 070V150 6000 -DZ FEW004 OVC019 06/05 Q0990 WHT TEMPO 3000 RADZ SCT004 BKN005 RMK TREND REMOTE BY EHWX",
      "taf": "TAF EHEH 060544Z 0606/0712 10007KT 7000 SCT040"
    },
    {
      "icao": "EKBI",
      "alert": "OK",
      "vis_m": 9999,
      "fzfg": false,
      "metar_trigger": false,
      "taf_trigger": false,
      "metar": "METAR EKBI 061120Z 07016KT 9999 BKN007 M01/M02 Q0998",
      "taf": "TAF EKBI 061127Z 0612/0712 08018KT 8000 BKN010"
    },
    {
      "icao": "EKCH",
      "alert": "OK",
      "vis_m": 9999,
      "fzfg": false,
      "metar_trigger": false,
      "taf_trigger": false,
      "metar": "METAR EKCH 061120Z 09013KT 9999 -RADZ BKN011 01/M00 Q1000 TEMPO BKN015",
      "taf": "TAF EKCH 061127Z 0612/0712 07010KT 9000 BKN012"
    },
    {
      "icao": "ENAL",
      "alert": "OK",
      "vis_m": 9999,
      "fzfg": false,
      "metar_trigger": false,
      "taf_trigger": false,
      "metar": "METAR ENAL 061120Z 13003KT 100V160 CAVOK 04/M13 Q1007",
      "taf": "TAF ENAL 061100Z 0612/0621 06005KT CAVOK"
    },
    {
      "icao": "ENBR",
      "alert": "OK",
      "vis_m": 9999,
      "fzfg": false,
      "metar_trigger": false,
      "taf_trigger": false,
      "metar": "METAR ENBR 061120Z 35002KT CAVOK M00/M09 Q1005 NOSIG RMK WIND 1200FT 09007KT",
      "taf": "TAF ENBR 061100Z 0612/0712 03005KT CAVOK"
    },
    {
      "icao": "ENGM",
      "alert": "OK",
      "vis_m": 9999,
      "fzfg": false,
      "metar_trigger": false,
      "taf_trigger": false,
      "metar": "METAR ENGM 061120Z 02013KT 350V050 9999 VCFG NSC M11/M15 Q1013 NOSIG",
      "taf": "TAF ENGM 061100Z 0612/0712 02012KT 9999 FEW010 SCT040"
    },
    {
      "icao": "ENHD",
      "alert": "OK",
      "vis_m": 9999,
      "fzfg": false,
      "metar_trigger": false,
      "taf_trigger": false,
      "metar": "METAR ENHD 061120Z 08012KT 9999 VCSH FEW041 SCT048 02/M10 Q1004",
      "taf": "TAF ENHD 061100Z 0612/0621 08008KT 9999 BKN040"
    },
    {
      "icao": "ENTC",
      "alert": "OK",
      "vis_m": 9999,
      "fzfg": false,
      "metar_trigger": false,
      "taf_trigger": false,
      "metar": "METAR ENTC 061120Z VRB03KT 9999 VCSH FEW026 SCT035 OVC046 01/M01 Q1012 TEMPO 3500 -SHSRASN BKN014 RMK WIND 2600FT 33022KT",
      "taf": "TAF ENTC 061100Z 0612/0712 33006KT 9999 SCT020 BKN040"
    },
    {
      "icao": "ENTO",
      "alert": "OK",
      "vis_m": 4000,
      "fzfg": false,
      "metar_trigger": false,
      "taf_trigger": false,
      "metar": "METAR ENTO 061120Z 02017G27KT 4000 -SHSN SCT018 OVC028 M08/M12 Q1010 NOSIG",
      "taf": "TAF ENTO 061100Z 0612/0712 02016KT 9999 -SN BKN018"
    },
    {
      "icao": "ENVA",
      "alert": "OK",
      "vis_m": 9999,
      "fzfg": false,
      "metar_trigger": false,
      "taf_trigger": false,
      "metar": "METAR ENVA 061120Z 12009KT CAVOK M10/M19 Q1015 NOSIG RMK WIND 670FT 10009KT",
      "taf": "TAF ENVA 061100Z 0612/0712 12008KT CAVOK"
    },
    {
      "icao": "ENZV",
      "alert": "OK",
      "vis_m": 9999,
      "fzfg": false,
      "metar_trigger": false,
      "taf_trigger": false,
      "metar": "METAR ENZV 061120Z 36005KT 9999 -SN OVC033 M01/M04 Q1004 TEMPO 2000 -SN VV014",
      "taf": "TAF ENZV 061100Z 0612/0712 VRB03KT 9999 BKN030"
    },
    {
      "icao": "EPGD",
      "alert": "OK",
      "vis_m": 9999,
      "fzfg": false,
      "metar_trigger": false,
      "taf_trigger": false,
      "metar": "METAR EPGD 061130Z 10010KT 9999 OVC005 M01/M02 Q1000",
      "taf": "TAF EPGD 061130Z 0612/0712 09010KT 9999 OVC005"
    },
    {
      "icao": "EPKK",
      "alert": "OK",
      "vis_m": 4000,
      "fzfg": false,
      "metar_trigger": false,
      "taf_trigger": false,
      "metar": "METAR EPKK 061130Z 06005KT 4000 BR FEW002 OVC003 02/01 Q0995",
      "taf": "TAF EPKK 061130Z 0612/0712 06003KT 4000 BR OVC004"
    },
    {
      "icao": "EPKT",
      "alert": "OK",
      "vis_m": 9999,
      "fzfg": false,
      "metar_trigger": false,
      "taf_trigger": false,
      "metar": "METAR EPKT 061130Z 10004KT 070V140 CAVOK 05/02 Q0995",
      "taf": "TAF EPKT 061130Z 0612/0712 08003KT 9999 SCT040"
    },
    {
      "icao": "EPLB",
      "alert": "OK",
      "vis_m": 2400,
      "fzfg": false,
      "metar_trigger": false,
      "taf_trigger": false,
      "metar": "METAR EPLB 061130Z 10009KT 2400 BR BKN002 OVC004 01/01 Q0998",
      "taf": "TAF EPLB 061130Z 0612/0712 10009KT 6000 BKN003 OVC005"
    },
    {
      "icao": "EPMO",
      "alert": "OK",
      "vis_m": 5000,
      "fzfg": false,
      "metar_trigger": false,
      "taf_trigger": false,
      "metar": "METAR EPMO 061130Z 08007KT 5000 BR OVC005 01/00 Q0998",
      "taf": "TAF EPMO 061130Z 0612/0712 09010KT 5000 BR OVC005"
    },
    {
      "icao": "EPPO",
      "alert": "OK",
      "vis_m": 6000,
      "fzfg": false,
      "metar_trigger": false,
      "taf_trigger": false,
      "metar": "METAR EPPO 061130Z 10009KT 6000 OVC005 01/M00 Q0996",
      "taf": "TAF EPPO 061130Z 0612/0712 10008KT 6000 OVC006"
    },
    {
      "icao": "EPRA",
      "alert": "OK",
      "vis_m": 8000,
      "fzfg": false,
      "metar_trigger": false,
      "taf_trigger": false,
      "metar": "METAR EPRA 061130Z 11008KT 8000 OVC004 02/01 Q0997",
      "taf": "TAF EPRA 061130Z 0612/0621 11008KT 8000 OVC005"
    },
    {
      "icao": "EPRZ",
      "alert": "OK",
      "vis_m": 8000,
      "fzfg": false,
      "metar_trigger": false,
      "taf_trigger": false,
      "metar": "METAR EPRZ 061130Z 07009KT 8000 FEW006 SCT020 02/01 Q0997",
      "taf": "TAF EPRZ 061130Z 0612/0712 07009KT 8000 SCT023"
    },
    {
      "icao": "EPSC",
      "alert": "OK",
      "vis_m": 5000,
      "fzfg": false,
      "metar_trigger": false,
      "taf_trigger": false,
      "metar": "METAR EPSC 061130Z 07005KT 040V100 5000 BR OVC006 00/M00 Q0997",
      "taf": "TAF EPSC 061130Z 0612/0712 07005KT 6000 OVC006"
    },
    {
      "icao": "EPSY",
      "alert": "OK",
      "vis_m": 7000,
      "fzfg": false,
      "metar_trigger": false,
      "taf_trigger": false,
      "metar": "METAR EPSY 061130Z 11005KT 050V140 7000 OVC002 M02/M02 Q1000",
      "taf": "TAF EPSY 061130Z 0612/0621 10006KT 7000 OVC005"
    },
    {
      "icao": "EPWA",
      "alert": "OK",
      "vis_m": 4500,
      "fzfg": false,
      "metar_trigger": false,
      "taf_trigger": false,
      "metar": "METAR EPWA 061130Z 10008KT 4500 BR OVC004 01/00 Q0998 TEMPO 5000 BR",
      "taf": "TAF EPWA 061130Z 0612/0712 10009KT 4000 BR OVC003"
    },
    {
      "icao": "EPWR",
      "alert": "OK",
      "vis_m": 6000,
      "fzfg": false,
      "metar_trigger": false,
      "taf_trigger": false,
      "metar": "METAR EPWR 061130Z 11006KT 6000 FEW006 BKN030 03/02 Q0995",
      "taf": "TAF EPWR 061130Z 0612/0712 10010KT 6000 FEW006 BKN030"
    },
    {
      "icao": "ESGG",
      "alert": "OK",
      "vis_m": 1900,
      "fzfg": false,
      "metar_trigger": false,
      "taf_trigger": false,
      "metar": "METAR ESGG 061120Z 05015KT 1900 -SN VV013 M05/M06 Q1003",
      "taf": "TAF ESGG 061130Z 0612/0712 05015G25KT 6000 -SN OVC015"
    },
    {
      "icao": "ESKN",
      "alert": "OK",
      "vis_m": 9999,
      "fzfg": false,
      "metar_trigger": false,
      "taf_trigger": false,
      "metar": "METAR ESKN 061120Z 02011KT 350V050 9999 BKN006 M09/M10 Q1011",
      "taf": "TAF ESKN 061130Z 0612/0712 03010KT 9999 OVC007"
    },
    {
      "icao": "ESMS",
      "alert": "OK",
      "vis_m": 5000,
      "fzfg": false,
      "metar_trigger": false,
      "taf_trigger": false,
      "metar": "METAR ESMS 061120Z 09020KT 5000 BR OVC005 00/00 Q0999",
      "taf": "TAF ESMS 061127Z 0612/0712 09018KT 9000 -SNRADZ BKN010"
    },
    {
      "icao": "ESSA",
      "alert": "OK",
      "vis_m": 9999,
      "fzfg": false,
      "metar_trigger": false,
      "taf_trigger": false,
      "metar": "METAR ESSA 061120Z 02011KT 9999 BKN010 M08/M12 Q1013 TEMPO BKN009",
      "taf": "TAF ESSA 061130Z 0612/0712 04010KT 9999 SCT009 BKN015"
    },
    {
      "icao": "EYKA",
      "alert": "OK",
      "vis_m": 9999,
      "fzfg": false,
      "metar_trigger": false,
      "taf_trigger": false,
      "metar": "METAR EYKA 061120Z 09008KT 9999 OVC008 M04/M06 Q1005",
      "taf": "TAF EYKA 061105Z 0612/0712 09010KT 9000 OVC010"
    },
    {
      "icao": "EYPA",
      "alert": "OK",
      "vis_m": 9999,
      "fzfg": false,
      "metar_trigger": false,
      "taf_trigger": false,
      "metar": "METAR EYPA 061120Z 09009KT 060V120 9999 OVC013 M04/M07 Q1005",
      "taf": "TAF EYPA 061105Z 0612/0712 08010KT 9000 OVC015"
    },
    {
      "icao": "EYVI",
      "alert": "OK",
      "vis_m": 9999,
      "fzfg": false,
      "metar_trigger": false,
      "taf_trigger": false,
      "metar": "METAR EYVI 061120Z 10007KT 9999 OVC008 M05/M07 Q1005 NOSIG",
      "taf": "TAF EYVI 061112Z 0612/0712 12012KT 9000 BKN005 OVC010"
    },
    {
      "icao": "GCFV",
      "alert": "OK",
      "vis_m": 9999,
      "fzfg": false,
      "metar_trigger": false,
      "taf_trigger": false,
      "metar": "METAR GCFV 061130Z 31015KT 9999 FEW030 22/11 Q1022",
      "taf": "TAF GCFV 060800Z 0609/0709 33015KT 9999 FEW020 TX21/0614Z TN14/0706Z"
    },
    {
      "icao": "GCLP",
      "alert": "OK",
      "vis_m": 9999,
      "fzfg": false,
      "metar_trigger": false,
      "taf_trigger": false,
      "metar": "METAR GCLP 061130Z 36019KT 9999 FEW035 22/11 Q1022 NOSIG",
      "taf": "TAF GCLP 060800Z 0609/0709 36018KT 9999 SCT020 TX22/0614Z TN15/0706Z"
    },
    {
      "icao": "GCTS",
      "alert": "OK",
      "vis_m": 9999,
      "fzfg": false,
      "metar_trigger": false,
      "taf_trigger": false,
      "metar": "METAR GCTS 061130Z 25011KT 230V290 9999 FEW040 21/13 Q1022 NOSIG",
      "taf": ""
    },
    {
      "icao": "GMAD",
      "alert": "OK",
      "vis_m": 8000,
      "fzfg": false,
      "metar_trigger": false,
      "taf_trigger": false,
      "metar": "METAR GMAD 061130Z 24013KT 8000 SCT010 SCT023 19/17 Q1019 NOSIG",
      "taf": "TAF GMAD 061100Z 0612/0718 28012KT 8000 SCT020"
    },
    {
      "icao": "GMMN",
      "alert": "OK",
      "vis_m": 9999,
      "fzfg": false,
      "metar_trigger": false,
      "taf_trigger": false,
      "metar": "METAR GMMN 061130Z 25014KT 9999 BKN026 17/13 Q1016 NOSIG",
      "taf": "TAF GMMN 061100Z 0612/0718 24014KT 9999 BKN026"
    },
    {
      "icao": "GMMX",
      "alert": "OK",
      "vis_m": 9999,
      "fzfg": false,
      "metar_trigger": false,
      "taf_trigger": false,
      "metar": "METAR GMMX 061130Z 27015KT 9999 SCT026 17/11 Q1018 NOSIG",
      "taf": "TAF GMMX 061100Z 0612/0718 18006KT 8000 SCT026"
    },
    {
      "icao": "HEGN",
      "alert": "OK",
      "vis_m": 9999,
      "fzfg": false,
      "metar_trigger": false,
      "taf_trigger": false,
      "metar": "METAR HEGN 061100Z 12005KT CAVOK 26/15 Q1012 NOSIG",
      "taf": "TAF HEGN 061110Z 0612/0718 12008KT CAVOK"
    },
    {
      "icao": "HEMA",
      "alert": "OK",
      "vis_m": 9999,
      "fzfg": false,
      "metar_trigger": false,
      "taf_trigger": false,
      "metar": "METAR HEMA 061100Z 09006KT CAVOK 26/06 Q1013 NOSIG",
      "taf": "TAF HEMA 061110Z 0612/0718 12008KT CAVOK"
    },
    {
      "icao": "HESH",
      "alert": "OK",
      "vis_m": 9999,
      "fzfg": false,
      "metar_trigger": false,
      "taf_trigger": false,
      "metar": "METAR HESH 061100Z 16006KT CAVOK 25/15 Q1014 NOSIG",
      "taf": "TAF HESH 061110Z 0612/0718 19008KT CAVOK"
    },
    {
      "icao": "HESX",
      "alert": "OK",
      "vis_m": 9999,
      "fzfg": false,
      "metar_trigger": false,
      "taf_trigger": false,
      "metar": "METAR HESX 061100Z 24009KT CAVOK 25/03 Q1013 NOSIG",
      "taf": "TAF HESX 061110Z 0612/0718 22009KT 9999 FEW025"
    },
    {
      "icao": "LATI",
      "alert": "OK",
      "vis_m": null,
      "fzfg": false,
      "metar_trigger": false,
      "taf_trigger": false,
      "metar": "",
      "taf": "TAF LATI 061100Z 0612/0712 16016KT 9999 RA SCT020CB BKN030 OVC045 TX14/0711Z TN09/0705Z"
    },
    {
      "icao": "LBPD",
      "alert": "OK",
      "vis_m": 9999,
      "fzfg": false,
      "metar_trigger": false,
      "taf_trigger": false,
      "metar": "METAR LBPD 061130Z AUTO 10003KT 050V140 9999 BKN013/// 09/08 Q0999 NOSIG",
      "taf": "TAF LBPD 061100Z 0612/0712 VRB04KT 9999 SCT015 BKN033"
    },
    {
      "icao": "LBSF",
      "alert": "OK",
      "vis_m": 9999,
      "fzfg": false,
      "metar_trigger": false,
      "taf_trigger": false,
      "metar": "METAR LBSF 061130Z 10005KT 9999 SCT015 SCT067 BKN089 08/04 Q0998 NOSIG",
      "taf": "TAF LBSF 061100Z 0612/0712 10008KT 9999 SCT020 OVC040"
    },
    {
      "icao": "LBWN",
      "alert": "OK",
      "vis_m": 5000,
      "fzfg": false,
      "metar_trigger": false,
      "taf_trigger": false,
      "metar": "METAR LBWN 061130Z AUTO 21005KT 180V250 5000 BR OVC010/// 09/08 Q0999 NOSIG",
      "taf": "TAF LBWN 061100Z 0612/0712 25008KT 7000 BKN015"
    },
    {
      "icao": "LCLK",
      "alert": "OK",
      "vis_m": 9999,
      "fzfg": false,
      "metar_trigger": false,
      "taf_trigger": false,
      "metar": "METAR LCLK 061130Z 20007KT 9999 FEW020 SCT030 19/15 Q1008 NOSIG",
      "taf": "TAF LCLK 061130Z 0612/0712 16010KT 9999 FEW020"
    },
    {
      "icao": "LCPH",
      "alert": "OK",
      "vis_m": 9999,
      "fzfg": false,
      "metar_trigger": false,
      "taf_trigger": false,
      "metar": "METAR LCPH 061130Z 15010KT 9999 FEW012 SCT040 BKN070 19/16 Q1008 NOSIG",
      "taf": "TAF LCPH 061130Z 0612/0712 14012KT 9999 FEW020"
    },
    {
      "icao": "LEAL",
      "alert": "OK",
      "vis_m": 9999,
      "fzfg": false,
      "metar_trigger": false,
      "taf_trigger": false,
      "metar": "METAR LEAL 061130Z 24009KT 210V270 9999 FEW020 19/07 Q1005 NOSIG",
      "taf": "TAF LEAL 061100Z 0612/0712 24010KT 9999 FEW020 TX20/0614Z TN08/0706Z"
    },
    {
      "icao": "LEBB",
      "alert": "OK",
      "vis_m": 9999,
      "fzfg": false,
      "metar_trigger": false,
      "taf_trigger": false,
      "metar": "METAR LEBB 061130Z VRB06KT 9999 FEW050 15/04 Q0998 NOSIG",
      "taf": "TAF LEBB 061100Z 0612/0712 22009KT 9999 FEW040 TX16/0613Z TN09/0707Z"
    },
    {
      "icao": "LEBL",
      "alert": "OK",
      "vis_m": 9999,
      "fzfg": false,
      "metar_trigger": false,
      "taf_trigger": false,
      "metar": "METAR LEBL 061130Z 25017KT 9999 FEW030 18/07 Q1000 NOSIG",
      "taf": "TAF LEBL 061100Z 0612/0712 24012KT 9999 FEW025 TX17/0613Z TN08/0706Z"
    },
    {
      "icao": "LECH",
      "alert": "OK",
      "vis_m": 9999,
      "fzfg": false,
      "metar_trigger": false,
      "taf_trigger": false,
      "metar": "METAR LECH 061130Z AUTO 11006KT 050V150 CAVOK 16/01 Q1001",
      "taf": ""
    },
    {
      "icao": "LEMD",
      "alert": "OK",
      "vis_m": 6000,
      "fzfg": false,
      "metar_trigger": false,
      "taf_trigger": false,
      "metar": "METAR LEMD 061130Z VRB07G20KT 6000 RA FEW025TCU SCT030 BKN035 07/07 Q1003 BECMG NSW",
      "taf": ""
    },
    {
      "icao": "LEMG",
      "alert": "OK",
      "vis_m": 9999,
      "fzfg": false,
      "metar_trigger": false,
      "taf_trigger": false,
      "metar": "METAR LEMG 061130Z 25001KT 9999 FEW048 14/11 Q1009 NOSIG",
      "taf": "TAF LEMG 061100Z 0612/0712 VRB03KT 9999 FEW030 TX20/0614Z TN10/0707Z"
    },
    {
      "icao": "LEVC",
      "alert": "OK",
      "vis_m": 9999,
      "fzfg": false,
      "metar_trigger": false,
      "taf_trigger": false,
      "metar": "METAR LEVC 061130Z 26016KT 240V300 9999 FEW035 17/05 Q1003 NOSIG",
      "taf": "TAF LEVC 061100Z 0612/0712 26015KT 9999 FEW030 TX20/0614Z TN08/0706Z"
    },
    {
      "icao": "LEXJ",
      "alert": "OK",
      "vis_m": 9999,
      "fzfg": false,
      "metar_trigger": false,
      "taf_trigger": false,
      "metar": "METAR LEXJ 061130Z 21012G23KT 160V250 CAVOK 13/03 Q0996",
      "taf": ""
    },
    {
      "icao": "LEZG",
      "alert": "OK",
      "vis_m": 9999,
      "fzfg": false,
      "metar_trigger": false,
      "taf_trigger": false,
      "metar": "METAR LEZG 061130Z 24015KT 9999 FEW045 14/04 Q1001 NOSIG",
      "taf": "TAF LEZG 061100Z 0612/0712 25010KT 9999 FEW040 TX16/0615Z TN07/0706Z"
    },
    {
      "icao": "LEZL",
      "alert": "OK",
      "vis_m": 9999,
      "fzfg": false,
      "metar_trigger": false,
      "taf_trigger": false,
      "metar": "METAR LEZL 061130Z 23013KT 190V260 9999 FEW024 SCT046 16/12 Q1007 NOSIG",
      "taf": "TAF LEZL 060800Z 0609/0709 24012KT 9999 SCT030 TX18/0615Z TN12/0707Z"
    },
    {
      "icao": "LFBD",
      "alert": "OK",
      "vis_m": 9999,
      "fzfg": false,
      "metar_trigger": false,
      "taf_trigger": false,
      "metar": "METAR LFBD 061130Z AUTO 25015KT 9999 SCT033 BKN041 BKN052 14/08 Q0997 NOSIG",
      "taf": "TAF LFBD 061100Z 0612/0718 24010KT 9999 BKN030 TX15/0614Z TN06/0704Z"
    },
    {
      "icao": "LFLL",
      "alert": "OK",
      "vis_m": 9999,
      "fzfg": false,
      "metar_trigger": false,
      "taf_trigger": false,
      "metar": "METAR LFLL 061130Z 22011KT 190V250 CAVOK 14/06 Q0997 NOSIG",
      "taf": "TAF LFLL 061100Z 0612/0718 19008KT CAVOK"
    },
    {
      "icao": "LFLS",
      "alert": "OK",
      "vis_m": 9999,
      "fzfg": false,
      "metar_trigger": false,
      "taf_trigger": false,
      "metar": "METAR LFLS 061130Z AUTO 07007KT 9999 FEW047 OVC090 10/08 Q0997 TEMPO 4000 SHRA SCT040TCU BKN050",
      "taf": "TAF LFLS 060800Z 0609/0709 07007KT 9999 SCT050"
    },
    {
      "icao": "LFMN",
      "alert": "OK",
      "vis_m": 9999,
      "fzfg": false,
      "metar_trigger": false,
      "taf_trigger": false,
      "metar": "METAR LFMN 061130Z 10006KT 9999 FEW028 14/09 Q0995 NOSIG",
      "taf": "TAF LFMN 060800Z 0609/0715 34010KT CAVOK"
    },
    {
      "icao": "LFOB",
      "alert": "OK",
      "vis_m": 9999,
      "fzfg": false,
      "metar_trigger": false,
      "taf_trigger": false,
      "metar": "METAR LFOB 061130Z AUTO 22011KT 190V250 9999 BKN016 BKN029 BKN038 11/09 Q0988 TEMPO 2500 SHRA SCT020CB",
      "taf": "TAF LFOB 061100Z 0612/0712 22007KT 9999 BKN020"
    },
    {
      "icao": "LFPO",
      "alert": "OK",
      "vis_m": 9999,
      "fzfg": false,
      "metar_trigger": false,
      "taf_trigger": false,
      "metar": "METAR LFPO 061130Z 21012KT 180V250 9999 BKN018 BKN026 12/08 Q0990 TEMPO 4000 -SHRA BKN020TCU",
      "taf": "TAF LFPO 061100Z 0612/0718 22012KT 9999 BKN020"
    },
    {
      "icao": "LFSB",
      "alert": "OK",
      "vis_m": 9000,
      "fzfg": false,
      "metar_trigger": false,
      "taf_trigger": false,
      "metar": "METAR LFSB 061130Z AUTO 12006KT 9000 SCT026 BKN042 BKN054 08/07 Q0994 TEMPO FEW020CB BECMG 24010KT",
      "taf": "TAF LFSB 061100Z 0612/0712 24010KT 9999 SCT020 BKN040"
    },
    {
      "icao": "LGAV",
      "alert": "OK",
      "vis_m": 9999,
      "fzfg": false,
      "metar_trigger": false,
      "taf_trigger": false,
      "metar": "METAR LGAV 061120Z 19006KT 9999 FEW020 BKN060 15/10 Q1002 NOSIG",
      "taf": "TAF LGAV 061100Z 0612/0712 22012KT 9999 FEW025"
    },
    {
      "icao": "LGTS",
      "alert": "OK",
      "vis_m": 8000,
      "fzfg": false,
      "metar_trigger": false,
      "taf_trigger": false,
      "metar": "METAR LGTS 061120Z 09004KT 8000 -RA FEW010 BKN025 11/11 Q0999 NOSIG",
      "taf": "TAF LGTS 061100Z 0612/0712 VRB03KT 9999 FEW010 SCT025"
    },
    {
      "icao": "LHBP",
      "alert": "OK",
      "vis_m": 7000,
      "fzfg": false,
      "metar_trigger": false,
      "taf_trigger": false,
      "metar": "METAR LHBP 061130Z 10008KT 7000 OVC008 08/06 Q0995 BECMG BKN012",
      "taf": "TAF LHBP 061115Z 0612/0712 09008KT 8000 BKN015"
    },
    {
      "icao": "LHDC",
      "alert": "OK",
      "vis_m": 9999,
      "fzfg": false,
      "metar_trigger": false,
      "taf_trigger": false,
      "metar": "METAR LHDC 061115Z AUTO 20003KT 110V250 CAVOK 10/06 Q0996 NOSIG",
      "taf": "TAF LHDC 061115Z 0612/0621 16004KT CAVOK"
    },
    {
      "icao": "LIBD",
      "alert": "OK",
      "vis_m": 9999,
      "fzfg": false,
      "metar_trigger": false,
      "taf_trigger": false,
      "metar": "METAR LIBD 061120Z 25017KT CAVOK 20/09 Q0992",
      "taf": "TAF LIBD 061100Z 0612/0712 22018G28KT CAVOK"
    },
    {
      "icao": "LIBG",
      "alert": "OK",
      "vis_m": 9999,
      "fzfg": false,
      "metar_trigger": false,
      "taf_trigger": false,
      "metar": "METAR LIBG 061050Z 25007KT 210V280 9999 FEW025 18/13 Q0994",
      "taf": "TAF LIBG 061100Z 0612/0621 20009KT 9999 SCT030"
    },
    {
      "icao": "LIBP",
      "alert": "OK",
      "vis_m": 9999,
      "fzfg": false,
      "metar_trigger": false,
      "taf_trigger": false,
      "metar": "METAR LIBP 061120Z AUTO 03008KT 240V050 9999 SCT080/// 15/10 Q0990",
      "taf": "TAF LIBP 061100Z 0612/0712 25013KT 9999 BKN030"
    },
    {
      "icao": "LIBR",
      "alert": "OK",
      "vis_m": 9999,
      "fzfg": false,
      "metar_trigger": false,
      "taf_trigger": false,
      "metar": "METAR LIBR 061120Z 21014KT 9999 FEW015 19/13 Q0993",
      "taf": "TAF LIBR 061100Z 0612/0712 22018KT CAVOK"
    },
    {
      "icao": "LICA",
      "alert": "OK",
      "vis_m": 9000,
      "fzfg": false,
      "metar_trigger": false,
      "taf_trigger": false,
      "metar": "METAR LICA 061120Z AUTO 25019G29KT 9000 FEW024/// 17/14 Q1000",
      "taf": "TAF LICA 061100Z 0612/0712 27020G30KT 9999 BKN020"
    },
    {
      "icao": "LICC",
      "alert": "OK",
      "vis_m": 9999,
      "fzfg": false,
      "metar_trigger": false,
      "taf_trigger": false,
      "metar": "METAR LICC 061120Z 24013KT CAVOK 22/18 Q1002",
      "taf": "TAF LICC 061100Z 0612/0712 25015KT 9999 FEW040"
    },
    {
      "icao": "LICJ",
      "alert": "OK",
      "vis_m": 9999,
      "fzfg": false,
      "metar_trigger": false,
      "taf_trigger": false,
      "metar": "METAR LICJ 061120Z 25026KT CAVOK 17/10 Q1003",
      "taf": "TAF LICJ 061100Z 0612/0712 26022KT 9999 FEW020"
    },
    {
      "icao": "LIMC",
      "alert": "OK",
      "vis_m": 9999,
      "fzfg": false,
      "metar_trigger": false,
      "taf_trigger": false,
      "metar": "METAR LIMC 061120Z 25009KT 230V310 CAVOK 11/06 Q0995 NOSIG",
      "taf": "TAF LIMC 061100Z 0612/0718 VRB05KT 9999 SCT030"
    },
    {
      "icao": "LIME",
      "alert": "OK",
      "vis_m": 9999,
      "fzfg": false,
      "metar_trigger": false,
      "taf_trigger": false,
      "metar": "METAR LIME 061120Z 25005KT 9999 SCT080 10/07 Q0994 NOSIG",
      "taf": "TAF LIME 061100Z 0612/0712 26010KT 9999 SCT070"
    },
    {
      "icao": "LIMF",
      "alert": "OK",
      "vis_m": 9999,
      "fzfg": false,
      "metar_trigger": false,
      "taf_trigger": false,
      "metar": "METAR LIMF 061120Z 18004KT 130V230 CAVOK 11/04 Q0995",
      "taf": "TAF LIMF 061100Z 0612/0712 VRB05KT CAVOK"
    },
    {
      "icao": "LIMJ",
      "alert": "OK",
      "vis_m": 9999,
      "fzfg": false,
      "metar_trigger": false,
      "taf_trigger": false,
      "metar": "METAR LIMJ 061120Z 06010KT CAVOK 12/06 Q0994",
      "taf": "TAF LIMJ 061100Z 0612/0712 02012KT 9999 SCT040"
    },
    {
      "icao": "LIPE",
      "alert": "OK",
      "vis_m": 6000,
      "fzfg": false,
      "metar_trigger": false,
      "taf_trigger": false,
      "metar": "METAR LIPE 061120Z 29007KT 6000 -RA BKN005 BKN008 09/09 Q0994",
      "taf": "TAF LIPE 061100Z 0612/0712 VRB05KT 7000 BKN012"
    },
    {
      "icao": "LIPH",
      "alert": "OK",
      "vis_m": 9999,
      "fzfg": false,
      "metar_trigger": false,
      "taf_trigger": false,
      "metar": "METAR LIPH 061120Z 02004KT 350V060 9999 -RA BKN070 09/08 Q0993",
      "taf": "TAF LIPH 061100Z 0612/0712 VRB05KT 8000 BKN040"
    },
    {
      "icao": "LIPQ",
      "alert": "OK",
      "vis_m": 9999,
      "fzfg": false,
      "metar_trigger": false,
      "taf_trigger": false,
      "metar": "METAR LIPQ 061120Z AUTO 02003KT 350V050 9999 -RA OVC061/// 11/10 Q0992",
      "taf": "TAF LIPQ 061100Z 0612/0712 03005KT 9999 BKN040"
    },
    {
      "icao": "LIPR",
      "alert": "OK",
      "vis_m": 9999,
      "fzfg": false,
      "metar_trigger": false,
      "taf_trigger": false,
      "metar": "METAR LIPR 061120Z 33012KT 9999 BKN040 12/09 Q0991",
      "taf": "TAF LIPR 061100Z 0612/0712 33010KT 9999 BKN040"
    },
    {
      "icao": "LIPX",
      "alert": "OK",
      "vis_m": 9999,
      "fzfg": false,
      "metar_trigger": false,
      "taf_trigger": false,
      "metar": "METAR LIPX 061120Z 27008KT 9999 BKN090 11/08 Q0994",
      "taf": "TAF LIPX 061100Z 0612/0712 26010KT 9999 SCT070"
    },
    {
      "icao": "LIPY",
      "alert": "OK",
      "vis_m": 9999,
      "fzfg": false,
      "metar_trigger": false,
      "taf_trigger": false,
      "metar": "METAR LIPY 061120Z AUTO 25011KT 9999 BKN075/// 16/07 Q0990",
      "taf": "TAF LIPY 061100Z 0612/0712 28012KT 9999 BKN020"
    },
    {
      "icao": "LIPZ",
      "alert": "OK",
      "vis_m": 9999,
      "fzfg": false,
      "metar_trigger": false,
      "taf_trigger": false,
      "metar": "METAR LIPZ 061120Z 02007KT 9999 -RA FEW040 BKN065 09/08 Q0993 NOSIG",
      "taf": "TAF LIPZ 061100Z 0612/0718 VRB05KT 9999 BKN020"
    },
    {
      "icao": "LIRF",
      "alert": "OK",
      "vis_m": 9999,
      "fzfg": false,
      "metar_trigger": false,
      "taf_trigger": false,
      "metar": "METAR LIRF 061120Z 27008KT 9999 SCT040 16/09 Q0995 NOSIG",
      "taf": "TAF LIRF 061100Z 0612/0718 28010KT 9999 SCT030"
    },
    {
      "icao": "LIRN",
      "alert": "OK",
      "vis_m": 9999,
      "fzfg": false,
      "metar_trigger": false,
      "taf_trigger": false,
      "metar": "METAR LIRN 061120Z 25018KT 9999 SCT030 17/12 Q0996 NOSIG",
      "taf": "TAF LIRN 061100Z 0612/0712 26016KT 9999 SCT030"
    },
    {
      "icao": "LIRP",
      "alert": "OK",
      "vis_m": 9999,
      "fzfg": false,
      "metar_trigger": false,
      "taf_trigger": false,
      "metar": "METAR LIRP 061115Z 30006KT 9999 SCT060 14/09 Q0993 NOSIG",
      "taf": "TAF LIRP 061100Z 0612/0712 27005KT CAVOK"
    },
    {
      "icao": "LIRZ",
      "alert": "OK",
      "vis_m": 9999,
      "fzfg": false,
      "metar_trigger": false,
      "taf_trigger": false,
      "metar": "METAR LIRZ 061120Z AUTO 26010KT 9999 -RA BKN028/// 12/08 Q0993",
      "taf": "TAF LIRZ 061100Z 0612/0712 24012KT 9999 BKN040"
    },
    {
      "icao": "LJLJ",
      "alert": "OK",
      "vis_m": 8000,
      "fzfg": false,
      "metar_trigger": false,
      "taf_trigger": false,
      "metar": "METAR LJLJ 061130Z 10004KT 8000 FEW003 SCT008 BKN068 06/05 Q0993 NOSIG",
      "taf": "TAF LJLJ 061100Z 0612/0712 VRB02KT 9999 FEW004 BKN045"
    },
    {
      "icao": "LKMT",
      "alert": "OK",
      "vis_m": 2500,
      "fzfg": false,
      "metar_trigger": false,
      "taf_trigger": false,
      "metar": "METAR LKMT 061130Z 03003KT 360V060 2500 BR OVC031 02/01 Q0995 NOSIG",
      "taf": "TAF LKMT 061100Z 0612/0712 VRB02KT 4500 BR OVC035"
    },
    {
      "icao": "LKPR",
      "alert": "OK",
      "vis_m": 600,
      "fzfg": false,
      "metar_trigger": false,
      "taf_trigger": false,
      "metar": "METAR LKPR 061130Z 29003KT 230V320 0600 R24/0800D R30/1700N FG SCT002 BKN004 OVC016 02/02 Q0993 TEMPO 2000 BR",
      "taf": "TAF LKPR 061100Z 0612/0718 09003KT 3000 BR SCT002 OVC006"
    },
    {
      "icao": "LLBG",
      "alert": "OK",
      "vis_m": 9999,
      "fzfg": false,
      "metar_trigger": false,
      "taf_trigger": false,
      "metar": "METAR LLBG 061120Z 22010KT CAVOK 25/03 Q1011 NOSIG RMK SCT120 BKN140",
      "taf": "TAF LLBG 061104Z 0612/0712 22010KT CAVOK"
    },
    {
      "icao": "LMML",
      "alert": "OK",
      "vis_m": 9999,
      "fzfg": false,
      "metar_trigger": false,
      "taf_trigger": false,
      "metar": "METAR LMML 061145Z 29021KT CAVOK 20/12 Q1006 NOSIG",
      "taf": "TAF LMML 061100Z 0612/0712 28016KT 9999 FEW018"
    },
    {
      "icao": "LOWW",
      "alert": "OK",
      "vis_m": 9999,
      "fzfg": false,
      "metar_trigger": false,
      "taf_trigger": false,
      "metar": "METAR LOWW 061120Z 14006KT 9999 FEW010 BKN015 06/04 Q0993 TEMPO BKN013 TEMPO 24010KT",
      "taf": "TAF LOWW 061115Z 0612/0718 20007KT 9999 BKN020 TX07/0612Z TN03/0623Z"
    },
    {
      "icao": "LPFR",
      "alert": "OK",
      "vis_m": 9999,
      "fzfg": false,
      "metar_trigger": false,
      "taf_trigger": false,
      "metar": "METAR LPFR 061130Z 26017KT 9999 VCSH FEW018 FEW025CB 15/11 Q1009",
      "taf": "TAF LPFR 061100Z 0612/0712 26017KT 9999 SCT025"
    },
    {
      "icao": "LPMA",
      "alert": "OK",
      "vis_m": 9999,
      "fzfg": false,
      "metar_trigger": false,
      "taf_trigger": false,
      "metar": "METAR LPMA 061130Z 14007KT 100V180 9999 FEW015 20/07 Q1019",
      "taf": "TAF LPMA 061100Z 0612/0712 VRB05KT 9999 SCT015"
    },
    {
      "icao": "LPPR",
      "alert": "OK",
      "vis_m": 9999,
      "fzfg": false,
      "metar_trigger": false,
      "taf_trigger": false,
      "metar": "METAR LPPR 061130Z 22010KT 190V260 9999 -SHRA FEW018CB BKN025 12/09 Q1001",
      "taf": "TAF LPPR 061100Z 0612/0712 25015KT 9999 SCT025"
    },
    {
      "icao": "LPPS",
      "alert": "OK",
      "vis_m": 9999,
      "fzfg": false,
      "metar_trigger": false,
      "taf_trigger": false,
      "metar": "METAR LPPS 061130Z 29024KT 9999 FEW014 17/09 Q1019",
      "taf": "TAF LPPS 061100Z 0612/0718 29018KT 9999 SCT015"
    },
    {
      "icao": "LPPT",
      "alert": "OK",
      "vis_m": 9999,
      "fzfg": false,
      "metar_trigger": false,
      "taf_trigger": false,
      "metar": "METAR LPPT 061130Z 27013KT 240V300 9999 SCT025 13/08 Q1005",
      "taf": "TAF LPPT 061100Z 0612/0718 26015KT 9999 SCT025"
    },
    {
      "icao": "LQBK",
      "alert": "OK",
      "vis_m": 7000,
      "fzfg": false,
      "metar_trigger": false,
      "taf_trigger": false,
      "metar": "METAR LQBK 061130Z VRB01KT 7000 -RA FEW005 SCT015 BKN043 06/06 Q0994 NOSIG",
      "taf": ""
    },
    {
      "icao": "LQSA",
      "alert": "OK",
      "vis_m": 9999,
      "fzfg": false,
      "metar_trigger": false,
      "taf_trigger": false,
      "metar": "METAR LQSA 061130Z 13009KT 9999 SCT050 BKN060 11/05 Q0992 NOSIG",
      "taf": ""
    },
    {
      "icao": "LQTZ",
      "alert": "OK",
      "vis_m": 9999,
      "fzfg": false,
      "metar_trigger": false,
      "taf_trigger": false,
      "metar": "METAR LQTZ 061130Z VRB02KT 9999 -RA SCT035 BKN048 07/07 Q0994",
      "taf": "TAF LQTZ 061100Z 0612/0712 VRB02KT 7000 SCT035 BKN050 TX08/0613Z TN03/0705Z"
    },
    {
      "icao": "LRBC",
      "alert": "OK",
      "vis_m": 5000,
      "fzfg": false,
      "metar_trigger": false,
      "taf_trigger": false,
      "metar": "METAR LRBC 061130Z 17004KT 5000 -SN BR OVC002 01/01 Q1001",
      "taf": "TAF LRBC 061100Z 0612/0621 VRB04KT 5000 -SN BR BKN005 OVC020"
    },
    {
      "icao": "LRBS",
      "alert": "OK",
      "vis_m": 9999,
      "fzfg": false,
      "metar_trigger": false,
      "taf_trigger": false,
      "metar": "METAR LRBS 061130Z 06007KT 9999 BKN006 04/04 Q1000 NOSIG",
      "taf": "TAF LRBS 061100Z 0612/0712 08012KT 9999 OVC005"
    },
    {
      "icao": "LRBV",
      "alert": "OK",
      "vis_m": 9999,
      "fzfg": false,
      "metar_trigger": false,
      "taf_trigger": false,
      "metar": "METAR LRBV 061130Z 08004KT 030V130 9999 FEW020 09/03 Q0996",
      "taf": "TAF LRBV 061100Z 0612/0621 VRB04KT 9999 SCT020 BKN055"
    },
    {
      "icao": "LRCL",
      "alert": "OK",
      "vis_m": 9999,
      "fzfg": false,
      "metar_trigger": false,
      "taf_trigger": false,
      "metar": "METAR LRCL 061130Z 11005KT 080V140 CAVOK 10/05 Q0996",
      "taf": "TAF LRCL 061100Z 0612/0621 VRB04KT CAVOK"
    },
    {
      "icao": "LRCV",
      "alert": "OK",
      "vis_m": 300,
      "fzfg": false,
      "metar_trigger": false,
      "taf_trigger": false,
      "metar": "METAR LRCV 061130Z 22004KT 0300 R26/0400N FG VV002 04/04 Q0999",
      "taf": "TAF LRCV 061100Z 0612/0621 12006KT 0600 FG VV002"
    },
    {
      "icao": "LRIA",
      "alert": "OK",
      "vis_m": 5000,
      "fzfg": false,
      "metar_trigger": false,
      "taf_trigger": false,
      "metar": "METAR LRIA 061130Z 10007KT 5000 -FZRA OVC003 M01/M02 Q1002",
      "taf": "TAF LRIA 061100Z 0612/0621 10008KT 5000 -FZRA OVC003"
    },
    {
      "icao": "LROP",
      "alert": "OK",
      "vis_m": 9999,
      "fzfg": false,
      "metar_trigger": false,
      "taf_trigger": false,
      "metar": "METAR LROP 061130Z 09009KT 9999 OVC007 05/04 Q1000 NOSIG",
      "taf": "TAF LROP 061100Z 0612/0712 08012KT 9999 OVC005"
    },
    {
      "icao": "LRSB",
      "alert": "OK",
      "vis_m": 9999,
      "fzfg": false,
      "metar_trigger": false,
      "taf_trigger": false,
      "metar": "METAR LRSB 061130Z 12007KT 080V150 9999 FEW048 12/03 Q0996 NOSIG",
      "taf": "TAF LRSB 061100Z 0612/0712 VRB04KT 9999 SCT050"
    },
    {
      "icao": "LRSM",
      "alert": "OK",
      "vis_m": 9999,
      "fzfg": false,
      "metar_trigger": false,
      "taf_trigger": false,
      "metar": "METAR LRSM 061130Z 23004KT 170V280 9999 FEW030 13/04 Q0996",
      "taf": "TAF LRSM 061100Z 0612/0621 VRB04KT CAVOK"
    },
    {
      "icao": "LRSV",
      "alert": "CRITICAL",
      "vis_m": 50,
      "fzfg": true,
      "metar_trigger": true,
      "taf_trigger": false,
      "metar": "METAR LRSV 061130Z 10009KT 0050 R34/0250N -SN FZFG VV001 M01/M01 Q0999",
      "taf": "TAF LRSV 061100Z 0612/0621 10008KT 0300 -SN FZFG OVC001"
    },
    {
      "icao": "LRTM",
      "alert": "OK",
      "vis_m": 9999,
      "fzfg": false,
      "metar_trigger": false,
      "taf_trigger": false,
      "metar": "METAR LRTM 061130Z 14003KT 070V210 9999 FEW025 12/04 Q0996",
      "taf": "TAF LRTM 061100Z 0612/0621 VRB04KT CAVOK"
    },
    {
      "icao": "LRTR",
      "alert": "OK",
      "vis_m": 9999,
      "fzfg": false,
      "metar_trigger": false,
      "taf_trigger": false,
      "metar": "METAR LRTR 061130Z 17011KT CAVOK 13/06 Q0995",
      "taf": "TAF LRTR 061100Z 0612/0712 VRB04KT CAVOK"
    },
    {
      "icao": "LTAC",
      "alert": "OK",
      "vis_m": 9999,
      "fzfg": false,
      "metar_trigger": false,
      "taf_trigger": false,
      "metar": "METAR LTAC 061120Z 20010KT 9999 -SHRA FEW015 BKN025 BKN080 07/05 Q1006 NOSIG",
      "taf": "TAF LTAC 061040Z 0612/0712 18010KT 9999 BKN035 BKN080"
    },
    {
      "icao": "LTFM",
      "alert": "OK",
      "vis_m": 9999,
      "fzfg": false,
      "metar_trigger": false,
      "taf_trigger": false,
      "metar": "METAR LTFM 061120Z 22018KT 9999 FEW032 SCT080 16/08 Q1001 NOSIG",
      "taf": "TAF LTFM 061040Z 0612/0718 22015KT 9999 FEW028 SCT080"
    },
    {
      "icao": "LUKK",
      "alert": "OK",
      "vis_m": 6000,
      "fzfg": false,
      "metar_trigger": false,
      "taf_trigger": false,
      "metar": "METAR LUKK 061130Z 08010KT 6000 -FZRA -SHGS BKN007 OVC023CB M03/M04 Q1003 TEMPO 3000 FZRA BKN004",
      "taf": "TAF LUKK 061101Z 0612/0712 07010KT 9999 BKN008"
    },
    {
      "icao": "LWOH",
      "alert": "OK",
      "vis_m": 6000,
      "fzfg": false,
      "metar_trigger": false,
      "taf_trigger": false,
      "metar": "METAR LWOH 061120Z 16015KT 6000 RA SCT020 OVC036 08/06 Q0996",
      "taf": "TAF LWOH 061140Z 0612/0712 17012KT 7000 RA SCT015 OVC035"
    },
    {
      "icao": "LWSK",
      "alert": "OK",
      "vis_m": null,
      "fzfg": false,
      "metar_trigger": false,
      "taf_trigger": false,
      "metar": "",
      "taf": "TAF LWSK 061140Z 0612/0712 VRB02KT 9999 SCT015 OVC070"
    },
    {
      "icao": "LYBE",
      "alert": "OK",
      "vis_m": 9999,
      "fzfg": false,
      "metar_trigger": false,
      "taf_trigger": false,
      "metar": "METAR LYBE 061130Z 13011KT CAVOK 13/04 Q0995 NOSIG",
      "taf": "TAF LYBE 061100Z 0612/0712 12008KT CAVOK TX14/0613Z TN04/0706Z"
    },
    {
      "icao": "LYNI",
      "alert": "OK",
      "vis_m": 9999,
      "fzfg": false,
      "metar_trigger": false,
      "taf_trigger": false,
      "metar": "METAR LYNI 061130Z 12005KT 090V150 9999 FEW040 BKN070 12/06 Q0996 NOSIG",
      "taf": "TAF LYNI 061100Z 0612/0712 08007KT 9999 BKN040 OVC070 TX12/0612Z TN05/0706Z"
    },
    {
      "icao": "LYPG",
      "alert": "OK",
      "vis_m": 6000,
      "fzfg": false,
      "metar_trigger": false,
      "taf_trigger": false,
      "metar": "METAR LYPG 061130Z VRB02KT 6000 RA FEW007 SCT013 BKN030 10/10 Q0995 TEMPO 4000",
      "taf": "TAF LYPG 061100Z 0612/0712 16005KT 6000 FEW007 BKN030 OVC070 TX13/0712Z TN08/0705Z"
    },
    {
      "icao": "LZIB",
      "alert": "OK",
      "vis_m": 7000,
      "fzfg": false,
      "metar_trigger": false,
      "taf_trigger": false,
      "metar": "METAR LZIB 061130Z 12008KT 7000 SCT007 OVC013 07/06 Q0993 BECMG SCT009 BKN015",
      "taf": "TAF LZIB 061115Z 0612/0712 12007KT 9999 SCT013 BKN020"
    },
    {
      "icao": "LZKZ",
      "alert": "OK",
      "vis_m": 9999,
      "fzfg": false,
      "metar_trigger": false,
      "taf_trigger": false,
      "metar": "METAR LZKZ 061130Z 27002KT 9999 BKN021 BKN039 06/05 Q0996 NOSIG",
      "taf": "TAF LZKZ 061115Z 0612/0712 VRB02KT 9999 SCT020 BKN030"
    },
    {
      "icao": "LZTT",
      "alert": "OK",
      "vis_m": 9999,
      "fzfg": false,
      "metar_trigger": false,
      "taf_trigger": false,
      "metar": "METAR LZTT 061130Z 05004KT 9999 SCT009 BKN028 04/03 Q0995 NOSIG",
      "taf": "TAF LZTT 061115Z 0612/0712 VRB02KT 8000 FEW005 OVC020"
    },
    {
      "icao": "OEJN",
      "alert": "OK",
      "vis_m": 9999,
      "fzfg": false,
      "metar_trigger": false,
      "taf_trigger": false,
      "metar": "METAR OEJN 061100Z 29007KT 9999 FEW040 29/17 Q1012 NOSIG",
      "taf": "TAF OEJN 061100Z 0612/0718 25010KT 7000 SCT040"
    },
    {
      "icao": "OEMA",
      "alert": "OK",
      "vis_m": 9999,
      "fzfg": false,
      "metar_trigger": false,
      "taf_trigger": false,
      "metar": "METAR OEMA 061100Z 29007KT 9999 SCT040 27/08 Q1015 NOSIG",
      "taf": "TAF OEMA 061100Z 0612/0718 24012KT 7000 SCT040"
    },
    {
      "icao": "OJAI",
      "alert": "OK",
      "vis_m": null,
      "fzfg": false,
      "metar_trigger": false,
      "taf_trigger": false,
      "metar": "",
      "taf": "TAF OJAI 061044Z 0612/0718 25010KT 4000 DU FEW040"
    },
    {
      "icao": "OMAA",
      "alert": "OK",
      "vis_m": 9999,
      "fzfg": false,
      "metar_trigger": false,
      "taf_trigger": false,
      "metar": "METAR OMAA 061130Z 31008KT 290V360 CAVOK 26/14 Q1019 NOSIG",
      "taf": "TAF OMAA 061100Z 0612/0718 33010KT 8000 NSC"
    },
    {
      "icao": "OMDB",
      "alert": "OK",
      "vis_m": 9999,
      "fzfg": false,
      "metar_trigger": false,
      "taf_trigger": false,
      "metar": "METAR OMDB 061130Z 32008KT CAVOK 25/16 Q1019 NOSIG",
      "taf": "TAF OMDB 061100Z 0612/0718 33010KT 8000 NSC"
    },
    {
      "icao": "UAAA",
      "alert": "OK",
      "vis_m": 3800,
      "fzfg": false,
      "metar_trigger": false,
      "taf_trigger": false,
      "metar": "SPECI UAAA 061136Z 04005MPS 3800 -SHRASN BR SCT004 BKN018CB OVC100 01/00 Q1025 NOSIG RMK QBB130",
      "taf": "TAF UAAA 061102Z 0612/0712 01003G08MPS 1200 -SHSNRA BR BKN011CB OVC020 TX02/0707Z TNM04/0702Z"
    },
    {
      "icao": "UBBB",
      "alert": "OK",
      "vis_m": 9999,
      "fzfg": false,
      "metar_trigger": false,
      "taf_trigger": false,
      "metar": "METAR UBBB 061130Z 14010KT 9999 OVC018 06/03 Q1020 NOSIG",
      "taf": "TAF UBBB 061044Z 0612/0712 15014KT 9999 BKN020 TX06/0612Z TN03/0700Z"
    },
    {
      "icao": "UDSG",
      "alert": "OK",
      "vis_m": 9999,
      "fzfg": false,
      "metar_trigger": false,
      "taf_trigger": false,
      "metar": "METAR UDSG 061130Z 25003KT 9999 NSC M03/M07 Q1020 NOSIG",
      "taf": "TAF UDSG 061100Z 0612/0712 VRB06KT 9999 SCT040"
    },
    {
      "icao": "UDYZ",
      "alert": "OK",
      "vis_m": 9999,
      "fzfg": false,
      "metar_trigger": false,
      "taf_trigger": false,
      "metar": "METAR UDYZ 061130Z VRB02KT 9999 NSC 06/M04 Q1020 NOSIG",
      "taf": "TAF UDYZ 061100Z 0612/0712 VRB06KT 9999 FEW040"
    },
    {
      "icao": "UGKO",
      "alert": "OK",
      "vis_m": 9999,
      "fzfg": false,
      "metar_trigger": false,
      "taf_trigger": false,
      "metar": "METAR UGKO 061130Z 09022KT CAVOK 16/M02 Q1010 NOSIG",
      "taf": "TAF UGKO 061100Z 0612/0712 08022G33KT CAVOK TX18/0711Z TN09/0703Z"
    }
  ]
}