{
  "ts_utc": "2026-06-27T20:01:08Z",
  "threshold_m": 150,
  "source": "stations_override.txt (ICAO list) + aviationweather.gov (METAR/TAF raw)",
  "station_count": 159,
  "stations": [
    {
      "icao": "BIKF",
      "alert": "OK",
      "vis_m": 9999,
      "fzfg": false,
      "metar_trigger": false,
      "taf_trigger": false,
      "metar": "METAR BIKF 271930Z 07008KT 9999 -DZRA FEW015 OVC045 10/09 Q1002",
      "taf": "TAF BIKF 271958Z 2721/2821 07008KT 9999 -RA FEW012 BKN020 OVC040 TX12/2815Z TN09/2805Z"
    },
    {
      "icao": "BKPR",
      "alert": "OK",
      "vis_m": 9999,
      "fzfg": false,
      "metar_trigger": false,
      "taf_trigger": false,
      "metar": "METAR BKPR 272000Z 32007KT CAVOK 26/16 Q1022 NOSIG",
      "taf": "TAF BKPR 271730Z 2718/2818 03008KT CAVOK"
    },
    {
      "icao": "EBCI",
      "alert": "OK",
      "vis_m": 9999,
      "fzfg": false,
      "metar_trigger": false,
      "taf_trigger": false,
      "metar": "METAR EBCI 271950Z 33005KT 290V360 CAVOK 28/22 Q1014 NOSIG",
      "taf": "TAF EBCI 271700Z 2718/2824 02008KT CAVOK"
    },
    {
      "icao": "EDDB",
      "alert": "OK",
      "vis_m": 9999,
      "fzfg": false,
      "metar_trigger": false,
      "taf_trigger": false,
      "metar": "METAR EDDB 271950Z AUTO 06006KT 9999 VCSH FEW///CB 31/17 Q1016 TEMPO FM2030 25015G35KT TSRA",
      "taf": "TAF EDDB 271700Z 2718/2818 05005KT CAVOK"
    },
    {
      "icao": "EDDH",
      "alert": "OK",
      "vis_m": 9999,
      "fzfg": false,
      "metar_trigger": false,
      "taf_trigger": false,
      "metar": "METAR EDDH 271950Z AUTO 09006KT CAVOK 29/22 Q1015 TEMPO 36009KT",
      "taf": "TAF EDDH 271700Z 2718/2824 12008KT CAVOK"
    },
    {
      "icao": "EDDK",
      "alert": "OK",
      "vis_m": 9999,
      "fzfg": false,
      "metar_trigger": false,
      "taf_trigger": false,
      "metar": "METAR EDDK 271950Z AUTO 10005KT 050V140 CAVOK 31/19 Q1013 NOSIG",
      "taf": "TAF EDDK 271700Z 2718/2824 12005KT CAVOK"
    },
    {
      "icao": "EDDN",
      "alert": "OK",
      "vis_m": 9999,
      "fzfg": false,
      "metar_trigger": false,
      "taf_trigger": false,
      "metar": "METAR EDDN 271950Z AUTO VRB02KT CAVOK 29/18 Q1017 NOSIG",
      "taf": "TAF EDDN 271700Z 2718/2818 10005KT CAVOK"
    },
    {
      "icao": "EDDS",
      "alert": "OK",
      "vis_m": 9999,
      "fzfg": false,
      "metar_trigger": false,
      "taf_trigger": false,
      "metar": "METAR EDDS 271950Z AUTO VRB02KT CAVOK 30/13 Q1017 NOSIG",
      "taf": "TAF EDDS 271700Z 2718/2818 02005KT CAVOK"
    },
    {
      "icao": "EDFH",
      "alert": "OK",
      "vis_m": 9999,
      "fzfg": false,
      "metar_trigger": false,
      "taf_trigger": false,
      "metar": "METAR EDFH 271950Z 16006KT CAVOK 30/14 Q1017",
      "taf": "TAF EDFH 271700Z 2718/2818 17007KT CAVOK"
    },
    {
      "icao": "EDJA",
      "alert": "OK",
      "vis_m": 9999,
      "fzfg": false,
      "metar_trigger": false,
      "taf_trigger": false,
      "metar": "METAR EDJA 271950Z 18003KT CAVOK 25/14 Q1020",
      "taf": "TAF EDJA 271700Z 2718/2803 VRB02KT CAVOK"
    },
    {
      "icao": "EDLW",
      "alert": "OK",
      "vis_m": 9999,
      "fzfg": false,
      "metar_trigger": false,
      "taf_trigger": false,
      "metar": "METAR EDLW 271950Z 09005KT CAVOK 29/22 Q1013",
      "taf": "TAF EDLW 271700Z 2718/2818 14004KT CAVOK"
    },
    {
      "icao": "EDNY",
      "alert": "OK",
      "vis_m": 9999,
      "fzfg": false,
      "metar_trigger": false,
      "taf_trigger": false,
      "metar": "METAR EDNY 271950Z VRB02KT CAVOK 28/16 Q1018",
      "taf": "TAF EDNY 271700Z 2718/2803 VRB03KT CAVOK"
    },
    {
      "icao": "EDSB",
      "alert": "OK",
      "vis_m": 9999,
      "fzfg": false,
      "metar_trigger": false,
      "taf_trigger": false,
      "metar": "METAR EDSB 271950Z 05002KT CAVOK 32/20 Q1014",
      "taf": "TAF EDSB 271700Z 2718/2818 VRB03KT CAVOK"
    },
    {
      "icao": "EETN",
      "alert": "OK",
      "vis_m": 9999,
      "fzfg": false,
      "metar_trigger": false,
      "taf_trigger": false,
      "metar": "METAR EETN 271950Z 26005KT CAVOK 19/13 Q1018 NOSIG",
      "taf": "TAF EETN 271730Z 2718/2818 29010KT CAVOK"
    },
    {
      "icao": "EFTU",
      "alert": "OK",
      "vis_m": 9999,
      "fzfg": false,
      "metar_trigger": false,
      "taf_trigger": false,
      "metar": "METAR EFTU 271950Z AUTO 30003KT CAVOK 19/13 Q1017",
      "taf": "TAF EFTU 271723Z 2718/2818 30009KT CAVOK"
    },
    {
      "icao": "EGBB",
      "alert": "OK",
      "vis_m": 9999,
      "fzfg": false,
      "metar_trigger": false,
      "taf_trigger": false,
      "metar": "METAR EGBB 271950Z 19007KT 150V230 9999 FEW060CB 25/15 Q1013",
      "taf": "TAF EGBB 271700Z 2718/2818 21009KT 9999 FEW045"
    },
    {
      "icao": "EGGP",
      "alert": "OK",
      "vis_m": 9999,
      "fzfg": false,
      "metar_trigger": false,
      "taf_trigger": false,
      "metar": "METAR EGGP 271950Z 21009KT 180V240 CAVOK 24/14 Q1011",
      "taf": "TAF EGGP 271655Z 2718/2818 19014KT 9999 FEW035"
    },
    {
      "icao": "EGGW",
      "alert": "OK",
      "vis_m": 9999,
      "fzfg": false,
      "metar_trigger": false,
      "taf_trigger": false,
      "metar": "METAR EGGW 271950Z AUTO 20006KT 160V240 9999 //////CB 25/16 Q1015",
      "taf": "TAF EGGW 271700Z 2718/2818 19008KT CAVOK"
    },
    {
      "icao": "EGKK",
      "alert": "OK",
      "vis_m": 9999,
      "fzfg": false,
      "metar_trigger": false,
      "taf_trigger": false,
      "metar": "METAR EGKK 271950Z 21006KT 160V240 CAVOK 23/15 Q1015",
      "taf": "TAF EGKK 271655Z 2718/2824 18008KT 9999 FEW045"
    },
    {
      "icao": "EGNM",
      "alert": "OK",
      "vis_m": 9999,
      "fzfg": false,
      "metar_trigger": false,
      "taf_trigger": false,
      "metar": "METAR EGNM 271950Z 22005KT 180V260 9999 SCT052CB 22/16 Q1012",
      "taf": ""
    },
    {
      "icao": "EGPD",
      "alert": "OK",
      "vis_m": 9999,
      "fzfg": false,
      "metar_trigger": false,
      "taf_trigger": false,
      "metar": "METAR EGPD 271950Z AUTO 17016KT 9999 NCD 19/14 Q1008",
      "taf": "TAF EGPD 271655Z 2718/2818 17009KT 9999 SCT010"
    },
    {
      "icao": "EGPF",
      "alert": "OK",
      "vis_m": 9999,
      "fzfg": false,
      "metar_trigger": false,
      "taf_trigger": false,
      "metar": "METAR EGPF 271950Z AUTO 19011KT 160V230 9999 BKN022 19/16 Q1007",
      "taf": "TAF EGPF 271659Z 2718/2818 19008KT 9999 BKN025"
    },
    {
      "icao": "EHBK",
      "alert": "OK",
      "vis_m": 9999,
      "fzfg": false,
      "metar_trigger": false,
      "taf_trigger": false,
      "metar": "METAR EHBK 271955Z AUTO 03008KT 9999 NCD 31/22 Q1012 NOSIG",
      "taf": "TAF EHBK 271712Z 2718/2824 18005KT CAVOK"
    },
    {
      "icao": "EHEH",
      "alert": "OK",
      "vis_m": 9999,
      "fzfg": false,
      "metar_trigger": false,
      "taf_trigger": false,
      "metar": "METAR EHEH 271925Z AUTO 02007KT 350V050 9999 OVC360 30/20 Q1013 BLU NOSIG RMK TREND REMOTE BY EHWX",
      "taf": ""
    },
    {
      "icao": "EKBI",
      "alert": "OK",
      "vis_m": 9999,
      "fzfg": false,
      "metar_trigger": false,
      "taf_trigger": false,
      "metar": "METAR EKBI 271950Z AUTO 30007KT 9999 BKN140/// BKN220/// 25/21 Q1016",
      "taf": "TAF EKBI 271727Z 2718/2818 19008KT CAVOK"
    },
    {
      "icao": "EKCH",
      "alert": "OK",
      "vis_m": 9999,
      "fzfg": false,
      "metar_trigger": false,
      "taf_trigger": false,
      "metar": "METAR EKCH 271950Z AUTO 18005KT 9999 NCD 23/19 Q1016 NOSIG",
      "taf": "TAF EKCH 271727Z 2718/2818 17010KT CAVOK"
    },
    {
      "icao": "ENAL",
      "alert": "OK",
      "vis_m": 9999,
      "fzfg": false,
      "metar_trigger": false,
      "taf_trigger": false,
      "metar": "METAR ENAL 271950Z 31005KT 280V360 9999 FEW006 14/13 Q1010",
      "taf": "TAF ENAL 271700Z 2718/2803 06008KT 9999 FEW010 BKN040"
    },
    {
      "icao": "ENBR",
      "alert": "OK",
      "vis_m": 8000,
      "fzfg": false,
      "metar_trigger": false,
      "taf_trigger": false,
      "metar": "METAR ENBR 271950Z 18014KT 8000 BKN002 OVC005 14/14 Q1014 RMK WIND 1200FT 20017KT",
      "taf": ""
    },
    {
      "icao": "ENGM",
      "alert": "OK",
      "vis_m": 9999,
      "fzfg": false,
      "metar_trigger": false,
      "taf_trigger": false,
      "metar": "METAR ENGM 271950Z 20011KT CAVOK 23/16 Q1012 NOSIG",
      "taf": "TAF ENGM 271700Z 2718/2818 22012KT CAVOK"
    },
    {
      "icao": "ENHD",
      "alert": "OK",
      "vis_m": 9999,
      "fzfg": false,
      "metar_trigger": false,
      "taf_trigger": false,
      "metar": "METAR ENHD 271950Z AUTO 18010KT 9999 FEW002/// BKN003/// BKN004/// 16/14 Q1014",
      "taf": "TAF ENHD 271400Z 2715/2722 18012KT 9999 FEW015 SCT030"
    },
    {
      "icao": "ENTC",
      "alert": "OK",
      "vis_m": 9999,
      "fzfg": false,
      "metar_trigger": false,
      "taf_trigger": false,
      "metar": "METAR ENTC 271950Z 26003KT 230V290 9999 FEW020 BKN043 10/06 Q1016 RMK WIND 2600FT 26017KT",
      "taf": "TAF ENTC 271700Z 2718/2818 28012KT 9999 -SHRA SCT025 BKN040"
    },
    {
      "icao": "ENTO",
      "alert": "OK",
      "vis_m": 9999,
      "fzfg": false,
      "metar_trigger": false,
      "taf_trigger": false,
      "metar": "METAR ENTO 271950Z 20010KT CAVOK 20/17 Q1013 NOSIG",
      "taf": "TAF ENTO 271700Z 2718/2818 18008KT CAVOK"
    },
    {
      "icao": "ENVA",
      "alert": "OK",
      "vis_m": 9999,
      "fzfg": false,
      "metar_trigger": false,
      "taf_trigger": false,
      "metar": "METAR ENVA 271950Z 03003KT 350V100 CAVOK 17/15 Q1010 RMK WIND 670FT VRB02KT",
      "taf": "TAF ENVA 271700Z 2718/2818 24008KT 9999 -SHRA BKN040"
    },
    {
      "icao": "ENZV",
      "alert": "OK",
      "vis_m": 9999,
      "fzfg": false,
      "metar_trigger": false,
      "taf_trigger": false,
      "metar": "METAR ENZV 271950Z 20010KT CAVOK 19/16 Q1015 NOSIG",
      "taf": ""
    },
    {
      "icao": "EPGD",
      "alert": "OK",
      "vis_m": 9999,
      "fzfg": false,
      "metar_trigger": false,
      "taf_trigger": false,
      "metar": "METAR EPGD 271930Z 08004KT 060V120 CAVOK 26/19 Q1018",
      "taf": "TAF EPGD 271730Z 2718/2818 14007KT CAVOK"
    },
    {
      "icao": "EPKK",
      "alert": "OK",
      "vis_m": 9999,
      "fzfg": false,
      "metar_trigger": false,
      "taf_trigger": false,
      "metar": "METAR EPKK 271930Z 35002KT CAVOK 26/18 Q1020",
      "taf": "TAF EPKK 271730Z 2718/2818 VRB02KT CAVOK"
    },
    {
      "icao": "EPKT",
      "alert": "OK",
      "vis_m": 9999,
      "fzfg": false,
      "metar_trigger": false,
      "taf_trigger": false,
      "metar": "METAR EPKT 271930Z VRB02KT CAVOK 25/17 Q1020",
      "taf": "TAF EPKT 271730Z 2718/2818 19006KT CAVOK"
    },
    {
      "icao": "EPLB",
      "alert": "OK",
      "vis_m": 9999,
      "fzfg": false,
      "metar_trigger": false,
      "taf_trigger": false,
      "metar": "METAR EPLB 271930Z 18001KT CAVOK 25/16 Q1020",
      "taf": "TAF EPLB 271730Z 2718/2818 VRB03KT CAVOK"
    },
    {
      "icao": "EPMO",
      "alert": "OK",
      "vis_m": 9999,
      "fzfg": false,
      "metar_trigger": false,
      "taf_trigger": false,
      "metar": "METAR EPMO 271930Z 07004KT CAVOK 27/15 Q1018",
      "taf": "TAF EPMO 271730Z 2718/2818 VRB03KT CAVOK"
    },
    {
      "icao": "EPPO",
      "alert": "OK",
      "vis_m": 9999,
      "fzfg": false,
      "metar_trigger": false,
      "taf_trigger": false,
      "metar": "METAR EPPO 271930Z 12003KT CAVOK 26/17 Q1017",
      "taf": "TAF EPPO 271730Z 2718/2818 12004KT CAVOK"
    },
    {
      "icao": "EPRA",
      "alert": "OK",
      "vis_m": 9999,
      "fzfg": false,
      "metar_trigger": false,
      "taf_trigger": false,
      "metar": "METAR EPRA 271930Z 20005KT CAVOK 28/14 Q1019",
      "taf": "TAF EPRA 271730Z 2718/2803 16005KT CAVOK"
    },
    {
      "icao": "EPRZ",
      "alert": "OK",
      "vis_m": 9999,
      "fzfg": false,
      "metar_trigger": false,
      "taf_trigger": false,
      "metar": "METAR EPRZ 271930Z 15002KT CAVOK 27/16 Q1020",
      "taf": "TAF EPRZ 271730Z 2718/2818 18006KT CAVOK"
    },
    {
      "icao": "EPSC",
      "alert": "OK",
      "vis_m": 9999,
      "fzfg": false,
      "metar_trigger": false,
      "taf_trigger": false,
      "metar": "METAR EPSC 271930Z 10003KT CAVOK 26/17 Q1016",
      "taf": "TAF EPSC 271730Z 2718/2818 15006KT CAVOK"
    },
    {
      "icao": "EPSY",
      "alert": "OK",
      "vis_m": 9999,
      "fzfg": false,
      "metar_trigger": false,
      "taf_trigger": false,
      "metar": "METAR EPSY 271930Z 00000KT CAVOK 24/17 Q1019",
      "taf": "TAF EPSY 271730Z 2718/2803 VRB02KT CAVOK"
    },
    {
      "icao": "EPWA",
      "alert": "OK",
      "vis_m": 9999,
      "fzfg": false,
      "metar_trigger": false,
      "taf_trigger": false,
      "metar": "METAR EPWA 271930Z 14003KT CAVOK 30/15 Q1018 NOSIG",
      "taf": "TAF EPWA 271730Z 2718/2818 VRB03KT CAVOK"
    },
    {
      "icao": "EPWR",
      "alert": "OK",
      "vis_m": 9999,
      "fzfg": false,
      "metar_trigger": false,
      "taf_trigger": false,
      "metar": "METAR EPWR 271930Z 16004KT 140V200 CAVOK 31/18 Q1017",
      "taf": "TAF EPWR 271730Z 2718/2818 15004KT CAVOK"
    },
    {
      "icao": "ESGG",
      "alert": "OK",
      "vis_m": 9999,
      "fzfg": false,
      "metar_trigger": false,
      "taf_trigger": false,
      "metar": "METAR ESGG 271950Z 24003KT CAVOK 25/21 Q1016",
      "taf": "TAF ESGG 271730Z 2718/2818 20007KT CAVOK"
    },
    {
      "icao": "ESKN",
      "alert": "OK",
      "vis_m": 9999,
      "fzfg": false,
      "metar_trigger": false,
      "taf_trigger": false,
      "metar": "METAR ESKN 271950Z 12005KT CAVOK 21/17 Q1015",
      "taf": "TAF ESKN 271730Z 2718/2818 14010KT CAVOK"
    },
    {
      "icao": "ESMS",
      "alert": "OK",
      "vis_m": 9999,
      "fzfg": false,
      "metar_trigger": false,
      "taf_trigger": false,
      "metar": "METAR ESMS 271950Z 18004KT 150V240 CAVOK 24/17 Q1016",
      "taf": "TAF ESMS 271727Z 2718/2818 17006KT CAVOK"
    },
    {
      "icao": "ESSA",
      "alert": "OK",
      "vis_m": 9999,
      "fzfg": false,
      "metar_trigger": false,
      "taf_trigger": false,
      "metar": "METAR ESSA 271950Z 14008KT CAVOK 22/12 Q1015 NOSIG",
      "taf": "TAF ESSA 271730Z 2718/2818 14011KT CAVOK"
    },
    {
      "icao": "EYKA",
      "alert": "OK",
      "vis_m": 9999,
      "fzfg": false,
      "metar_trigger": false,
      "taf_trigger": false,
      "metar": "METAR EYKA 271950Z 29001KT CAVOK 22/17 Q1018",
      "taf": "TAF EYKA 271700Z 2718/2818 VRB03KT 9000 NSC"
    },
    {
      "icao": "EYPA",
      "alert": "OK",
      "vis_m": 9999,
      "fzfg": false,
      "metar_trigger": false,
      "taf_trigger": false,
      "metar": "METAR EYPA 271950Z 13002KT CAVOK 20/18 Q1018",
      "taf": "TAF EYPA 271700Z 2718/2818 VRB03KT 9000 NSC"
    },
    {
      "icao": "EYVI",
      "alert": "OK",
      "vis_m": 9999,
      "fzfg": false,
      "metar_trigger": false,
      "taf_trigger": false,
      "metar": "METAR EYVI 271950Z 28004KT CAVOK 24/16 Q1019 NOSIG",
      "taf": "TAF EYVI 271700Z 2718/2818 VRB03KT 9000 NSC"
    },
    {
      "icao": "GCFV",
      "alert": "OK",
      "vis_m": 9999,
      "fzfg": false,
      "metar_trigger": false,
      "taf_trigger": false,
      "metar": "METAR GCFV 271930Z 03012KT 9999 FEW018 23/18 Q1019",
      "taf": "TAF GCFV 271400Z 2715/2815 04015KT 9999 FEW030 TX26/2814Z TN21/2806Z"
    },
    {
      "icao": "GCLP",
      "alert": "OK",
      "vis_m": 9999,
      "fzfg": false,
      "metar_trigger": false,
      "taf_trigger": false,
      "metar": "METAR GCLP 271930Z 01017KT 9999 FEW025 24/18 Q1019 NOSIG",
      "taf": "TAF GCLP 271400Z 2715/2815 03024KT 9999 FEW030 TX27/2814Z TN21/2806Z"
    },
    {
      "icao": "GCTS",
      "alert": "OK",
      "vis_m": 9999,
      "fzfg": false,
      "metar_trigger": false,
      "taf_trigger": false,
      "metar": "METAR GCTS 271930Z 07015KT 040V100 9999 BKN035 24/17 Q1019 NOSIG",
      "taf": "TAF GCTS 271400Z 2715/2815 10018KT 9999 BKN030 TX28/2814Z TN20/2806Z"
    },
    {
      "icao": "GMAD",
      "alert": "OK",
      "vis_m": 8000,
      "fzfg": false,
      "metar_trigger": false,
      "taf_trigger": false,
      "metar": "METAR GMAD 271930Z 19009KT 8000 NSC 24/18 Q1015 NOSIG",
      "taf": "TAF GMAD 271700Z 2718/2824 20008KT 8000 SCT020"
    },
    {
      "icao": "GMMN",
      "alert": "OK",
      "vis_m": 9999,
      "fzfg": false,
      "metar_trigger": false,
      "taf_trigger": false,
      "metar": "METAR GMMN 271930Z 36012KT 9999 FEW020 22/17 Q1020 NOSIG",
      "taf": "TAF GMMN 271700Z 2718/2824 01013KT 9999 FEW020"
    },
    {
      "icao": "GMMX",
      "alert": "OK",
      "vis_m": 9999,
      "fzfg": false,
      "metar_trigger": false,
      "taf_trigger": false,
      "metar": "METAR GMMX 271930Z 36010KT 330V040 9999 FEW033 30/18 Q1018 NOSIG",
      "taf": "TAF GMMX 271700Z 2718/2824 02006KT CAVOK"
    },
    {
      "icao": "HEGN",
      "alert": "OK",
      "vis_m": 9999,
      "fzfg": false,
      "metar_trigger": false,
      "taf_trigger": false,
      "metar": "METAR HEGN 271900Z 31010KT CAVOK 31/11 Q1007 NOSIG",
      "taf": "TAF HEGN 271700Z 2718/2824 33006G18KT CAVOK"
    },
    {
      "icao": "HEMA",
      "alert": "OK",
      "vis_m": 9999,
      "fzfg": false,
      "metar_trigger": false,
      "taf_trigger": false,
      "metar": "METAR HEMA 271900Z 00000KT CAVOK 31/07 Q1006 NOSIG",
      "taf": "TAF HEMA 271700Z 2718/2824 33008G20KT CAVOK"
    },
    {
      "icao": "HESH",
      "alert": "OK",
      "vis_m": 9999,
      "fzfg": false,
      "metar_trigger": false,
      "taf_trigger": false,
      "metar": "METAR HESH 271900Z 36004KT CAVOK 32/10 Q1006 NOSIG",
      "taf": "TAF HESH 271700Z 2718/2824 35013KT CAVOK"
    },
    {
      "icao": "HESX",
      "alert": "OK",
      "vis_m": 9999,
      "fzfg": false,
      "metar_trigger": false,
      "taf_trigger": false,
      "metar": "METAR HESX 271900Z 34006KT CAVOK 28/19 Q1010 NOSIG",
      "taf": "TAF HESX 271700Z 2718/2824 02008KT CAVOK"
    },
    {
      "icao": "LATI",
      "alert": "OK",
      "vis_m": 9999,
      "fzfg": false,
      "metar_trigger": false,
      "taf_trigger": false,
      "metar": "METAR LATI 271950Z VRB01KT CAVOK 28/16 Q1017 NOSIG",
      "taf": "TAF LATI 271700Z 2718/2818 VRB05KT CAVOK TX37/2812Z TN21/2804Z"
    },
    {
      "icao": "LBPD",
      "alert": "OK",
      "vis_m": 9999,
      "fzfg": false,
      "metar_trigger": false,
      "taf_trigger": false,
      "metar": "METAR LBPD 271930Z AUTO 11007KT 9999 NCD 24/18 Q1022",
      "taf": "TAF LBPD 271700Z 2718/2818 07012KT CAVOK"
    },
    {
      "icao": "LBSF",
      "alert": "OK",
      "vis_m": 9999,
      "fzfg": false,
      "metar_trigger": false,
      "taf_trigger": false,
      "metar": "METAR LBSF 271930Z AUTO 14007KT 9999 NCD 22/16 Q1023 NOSIG",
      "taf": "TAF LBSF 271700Z 2718/2818 05010KT CAVOK"
    },
    {
      "icao": "LBWN",
      "alert": "OK",
      "vis_m": 9999,
      "fzfg": false,
      "metar_trigger": false,
      "taf_trigger": false,
      "metar": "METAR LBWN 271930Z AUTO 35003KT 9999 NCD 20/17 Q1022 NOSIG",
      "taf": "TAF LBWN 271700Z 2718/2818 11012KT CAVOK"
    },
    {
      "icao": "LCLK",
      "alert": "OK",
      "vis_m": 9999,
      "fzfg": false,
      "metar_trigger": false,
      "taf_trigger": false,
      "metar": "METAR LCLK 271930Z VRB01KT CAVOK 28/21 Q1008 NOSIG",
      "taf": "TAF LCLK 271730Z 2718/2818 35009KT 9999 FEW020"
    },
    {
      "icao": "LCPH",
      "alert": "OK",
      "vis_m": 9999,
      "fzfg": false,
      "metar_trigger": false,
      "taf_trigger": false,
      "metar": "METAR LCPH 271930Z AUTO 31007KT 9999 NCD 25/23 Q1009 NOSIG",
      "taf": "TAF LCPH 271730Z 2718/2818 35007KT 9999 FEW020"
    },
    {
      "icao": "LEAL",
      "alert": "OK",
      "vis_m": 9999,
      "fzfg": false,
      "metar_trigger": false,
      "taf_trigger": false,
      "metar": "METAR LEAL 271930Z 07004KT 020V110 CAVOK 27/22 Q1018 NOSIG",
      "taf": "TAF LEAL 271700Z 2718/2818 10008KT 9999 FEW020 TX32/2812Z TN22/2806Z"
    },
    {
      "icao": "LEBB",
      "alert": "OK",
      "vis_m": 9999,
      "fzfg": false,
      "metar_trigger": false,
      "taf_trigger": false,
      "metar": "METAR LEBB 271930Z 31007KT 280V340 9999 BKN017 BKN024 24/21 Q1020 NOSIG",
      "taf": "TAF LEBB 271700Z 2718/2818 32009KT 9999 BKN020 TX21/2813Z TN20/2805Z"
    },
    {
      "icao": "LEBL",
      "alert": "OK",
      "vis_m": 9999,
      "fzfg": false,
      "metar_trigger": false,
      "taf_trigger": false,
      "metar": "METAR LEBL 271930Z VRB02KT CAVOK 28/22 Q1018 NOSIG",
      "taf": "TAF LEBL 271700Z 2718/2818 18010KT CAVOK TX32/2812Z TN23/2805Z"
    },
    {
      "icao": "LECH",
      "alert": "OK",
      "vis_m": 9999,
      "fzfg": false,
      "metar_trigger": false,
      "taf_trigger": false,
      "metar": "METAR LECH 271930Z AUTO VRB02KT CAVOK 25/20 Q1020",
      "taf": "TAF LECH 271700Z 2718/2818 13008KT 9999 SCT015 TX34/2812Z TN19/2806Z"
    },
    {
      "icao": "LEMD",
      "alert": "OK",
      "vis_m": 9999,
      "fzfg": false,
      "metar_trigger": false,
      "taf_trigger": false,
      "metar": "METAR LEMD 271930Z 25005KT 210V290 CAVOK 33/07 Q1018 NOSIG",
      "taf": "TAF LEMD 271700Z 2718/2824 22010KT CAVOK TX32/2816Z TN20/2806Z"
    },
    {
      "icao": "LEMG",
      "alert": "OK",
      "vis_m": 9999,
      "fzfg": false,
      "metar_trigger": false,
      "taf_trigger": false,
      "metar": "METAR LEMG 271930Z 11009KT 9999 FEW010 24/20 Q1018 NOSIG",
      "taf": "TAF LEMG 271700Z 2718/2818 13010KT 9999 FEW020 TX33/2813Z TN23/2805Z"
    },
    {
      "icao": "LEVC",
      "alert": "OK",
      "vis_m": 9999,
      "fzfg": false,
      "metar_trigger": false,
      "taf_trigger": false,
      "metar": "METAR LEVC 271930Z 07006KT CAVOK 27/21 Q1018 NOSIG",
      "taf": "TAF LEVC 271700Z 2718/2818 11009KT 9999 FEW020 TX32/2812Z TN21/2806Z"
    },
    {
      "icao": "LEXJ",
      "alert": "OK",
      "vis_m": 9999,
      "fzfg": false,
      "metar_trigger": false,
      "taf_trigger": false,
      "metar": "METAR LEXJ 271930Z 32005KT 280V010 9999 SCT019 SCT027 23/19 Q1020",
      "taf": "TAF LEXJ 271400Z 2715/2815 VRB03KT 9999 BKN025 TX23/2813Z TN19/2805Z"
    },
    {
      "icao": "LEZG",
      "alert": "OK",
      "vis_m": 9999,
      "fzfg": false,
      "metar_trigger": false,
      "taf_trigger": false,
      "metar": "METAR LEZG 271930Z 10014KT 070V130 CAVOK 33/15 Q1015 NOSIG",
      "taf": "TAF LEZG 271700Z 2718/2818 11010KT CAVOK TX33/2815Z TN21/2806Z"
    },
    {
      "icao": "LEZL",
      "alert": "OK",
      "vis_m": 9999,
      "fzfg": false,
      "metar_trigger": false,
      "taf_trigger": false,
      "metar": "METAR LEZL 271930Z 26007KT CAVOK 33/14 Q1016 NOSIG",
      "taf": "TAF LEZL 271400Z 2715/2815 23010KT CAVOK TX36/2715Z TN22/2805Z"
    },
    {
      "icao": "LFBD",
      "alert": "OK",
      "vis_m": 9999,
      "fzfg": false,
      "metar_trigger": false,
      "taf_trigger": false,
      "metar": "METAR LFBD 271930Z AUTO 32010KT CAVOK 27/21 Q1017 TEMPO VRB15G25KT 2000 TSRA BKN050CB",
      "taf": "TAF LFBD 271700Z 2718/2824 30008KT CAVOK TX31/2813Z TN21/2823Z"
    },
    {
      "icao": "LFLL",
      "alert": "OK",
      "vis_m": 9999,
      "fzfg": false,
      "metar_trigger": false,
      "taf_trigger": false,
      "metar": "METAR LFLL 271930Z 17012KT CAVOK 33/12 Q1017 NOSIG",
      "taf": "TAF LFLL 271700Z 2718/2824 19012KT CAVOK"
    },
    {
      "icao": "LFLS",
      "alert": "OK",
      "vis_m": 9999,
      "fzfg": false,
      "metar_trigger": false,
      "taf_trigger": false,
      "metar": "METAR LFLS 271930Z AUTO 23006KT 180V270 CAVOK 29/11 Q1020 NOSIG",
      "taf": "TAF LFLS 271400Z 2715/2815 23012KT CAVOK"
    },
    {
      "icao": "LFMN",
      "alert": "OK",
      "vis_m": 9999,
      "fzfg": false,
      "metar_trigger": false,
      "taf_trigger": false,
      "metar": "METAR LFMN 271930Z 21005KT 9999 FEW110 BKN260 28/25 Q1018 NOSIG",
      "taf": "TAF LFMN 271400Z 2715/2821 16005KT CAVOK"
    },
    {
      "icao": "LFOB",
      "alert": "OK",
      "vis_m": 9999,
      "fzfg": false,
      "metar_trigger": false,
      "taf_trigger": false,
      "metar": "METAR LFOB 271930Z AUTO 01009KT 9999 ///CB 29/20 Q1013 TEMPO VRB30G55KT 1000 +TSRAGR BECMG SCT050",
      "taf": "TAF LFOB 271700Z 2718/2818 34010KT 9999 SCT050"
    },
    {
      "icao": "LFPO",
      "alert": "OK",
      "vis_m": 9999,
      "fzfg": false,
      "metar_trigger": false,
      "taf_trigger": false,
      "metar": "METAR LFPO 271930Z AUTO VRB03KT 9999 TS ///CB 33/17 Q1013 TEMPO VRB15G35KT 1500 TSGRRA",
      "taf": "TAF LFPO 271700Z 2718/2824 28007KT CAVOK"
    },
    {
      "icao": "LFSB",
      "alert": "OK",
      "vis_m": 9999,
      "fzfg": false,
      "metar_trigger": false,
      "taf_trigger": false,
      "metar": "METAR LFSB 271930Z AUTO 23004KT CAVOK 31/19 Q1016 NOSIG",
      "taf": "TAF LFSB 271700Z 2718/2818 VRB03KT CAVOK"
    },
    {
      "icao": "LGAV",
      "alert": "OK",
      "vis_m": 9999,
      "fzfg": false,
      "metar_trigger": false,
      "taf_trigger": false,
      "metar": "METAR LGAV 271950Z 02016KT CAVOK 29/13 Q1016 NOSIG",
      "taf": "TAF LGAV 271700Z 2718/2818 04018KT 9999 FEW025"
    },
    {
      "icao": "LGTS",
      "alert": "OK",
      "vis_m": 9999,
      "fzfg": false,
      "metar_trigger": false,
      "taf_trigger": false,
      "metar": "METAR LGTS 271950Z 11006KT 9999 SCT025 29/15 Q1017 NOSIG",
      "taf": "TAF LGTS 271700Z 2718/2818 VRB03KT 9999 FEW030"
    },
    {
      "icao": "LHBP",
      "alert": "OK",
      "vis_m": 9999,
      "fzfg": false,
      "metar_trigger": false,
      "taf_trigger": false,
      "metar": "METAR LHBP 271930Z 08004KT CAVOK 29/14 Q1019 NOSIG",
      "taf": "TAF LHBP 271715Z 2718/2818 16005KT CAVOK"
    },
    {
      "icao": "LHDC",
      "alert": "OK",
      "vis_m": 9999,
      "fzfg": false,
      "metar_trigger": false,
      "taf_trigger": false,
      "metar": "METAR LHDC 271915Z AUTO 05002KT CAVOK 29/14 Q1020 NOSIG",
      "taf": "TAF LHDC 271715Z 2718/2803 07007KT CAVOK"
    },
    {
      "icao": "LIBD",
      "alert": "OK",
      "vis_m": 9999,
      "fzfg": false,
      "metar_trigger": false,
      "taf_trigger": false,
      "metar": "METAR LIBD 271950Z 30002KT CAVOK 26/24 Q1018",
      "taf": "TAF LIBD 271700Z 2718/2818 VRB05KT CAVOK"
    },
    {
      "icao": "LIBG",
      "alert": "OK",
      "vis_m": 9999,
      "fzfg": false,
      "metar_trigger": false,
      "taf_trigger": false,
      "metar": "METAR LIBG 271950Z AUTO 32004KT 9999 NCD 29/15 Q1018",
      "taf": "TAF LIBG 271700Z 2718/2818 VRB05KT CAVOK"
    },
    {
      "icao": "LIBP",
      "alert": "OK",
      "vis_m": 9999,
      "fzfg": false,
      "metar_trigger": false,
      "taf_trigger": false,
      "metar": "METAR LIBP 271950Z AUTO 23002KT 9999 NCD 26/16 Q1019",
      "taf": "TAF LIBP 271700Z 2718/2818 VRB05KT CAVOK"
    },
    {
      "icao": "LIBR",
      "alert": "OK",
      "vis_m": 9999,
      "fzfg": false,
      "metar_trigger": false,
      "taf_trigger": false,
      "metar": "METAR LIBR 271950Z 33006KT CAVOK 27/25 Q1017",
      "taf": "TAF LIBR 271700Z 2718/2818 32010KT CAVOK"
    },
    {
      "icao": "LICA",
      "alert": "OK",
      "vis_m": 9999,
      "fzfg": false,
      "metar_trigger": false,
      "taf_trigger": false,
      "metar": "METAR LICA 271950Z AUTO 22002KT 9999 NCD 26/24 Q1019",
      "taf": "TAF LICA 271700Z 2718/2818 VRB05KT CAVOK"
    },
    {
      "icao": "LICC",
      "alert": "OK",
      "vis_m": 9999,
      "fzfg": false,
      "metar_trigger": false,
      "taf_trigger": false,
      "metar": "METAR LICC 271950Z 07006KT CAVOK 27/20 Q1017",
      "taf": "TAF LICC 271700Z 2718/2818 07010KT CAVOK"
    },
    {
      "icao": "LICJ",
      "alert": "OK",
      "vis_m": 9999,
      "fzfg": false,
      "metar_trigger": false,
      "taf_trigger": false,
      "metar": "METAR LICJ 271950Z 07009KT CAVOK 28/24 Q1018",
      "taf": "TAF LICJ 271700Z 2718/2818 06012KT CAVOK"
    },
    {
      "icao": "LIMC",
      "alert": "OK",
      "vis_m": 9999,
      "fzfg": false,
      "metar_trigger": false,
      "taf_trigger": false,
      "metar": "METAR LIMC 271950Z 05005KT CAVOK 29/21 Q1019 NOSIG",
      "taf": "TAF LIMC 271700Z 2718/2824 VRB05KT 9999 FEW050"
    },
    {
      "icao": "LIME",
      "alert": "OK",
      "vis_m": 9999,
      "fzfg": false,
      "metar_trigger": false,
      "taf_trigger": false,
      "metar": "METAR LIME 271950Z 12003KT 050V180 CAVOK 32/20 Q1019 NOSIG",
      "taf": "TAF LIME 271700Z 2718/2818 VRB05KT 9999 SCT050"
    },
    {
      "icao": "LIMF",
      "alert": "OK",
      "vis_m": 9999,
      "fzfg": false,
      "metar_trigger": false,
      "taf_trigger": false,
      "metar": "METAR LIMF 271950Z 33005KT CAVOK 31/22 Q1019",
      "taf": "TAF LIMF 271700Z 2718/2818 VRB05KT 9999 SCT050"
    },
    {
      "icao": "LIMJ",
      "alert": "OK",
      "vis_m": 9999,
      "fzfg": false,
      "metar_trigger": false,
      "taf_trigger": false,
      "metar": "METAR LIMJ 271950Z 28005KT CAVOK 29/22 Q1018",
      "taf": "TAF LIMJ 271700Z 2718/2818 VRB05KT CAVOK"
    },
    {
      "icao": "LIPE",
      "alert": "OK",
      "vis_m": 9999,
      "fzfg": false,
      "metar_trigger": false,
      "taf_trigger": false,
      "metar": "METAR LIPE 271950Z 10006KT CAVOK 29/19 Q1018",
      "taf": "TAF LIPE 271700Z 2718/2818 VRB05KT 9999 FEW040"
    },
    {
      "icao": "LIPH",
      "alert": "OK",
      "vis_m": 9999,
      "fzfg": false,
      "metar_trigger": false,
      "taf_trigger": false,
      "metar": "METAR LIPH 271950Z 00000KT CAVOK 26/19 Q1018",
      "taf": "TAF LIPH 271700Z 2718/2818 VRB05KT 9999 FEW040"
    },
    {
      "icao": "LIPQ",
      "alert": "OK",
      "vis_m": 9999,
      "fzfg": false,
      "metar_trigger": false,
      "taf_trigger": false,
      "metar": "METAR LIPQ 271950Z AUTO 14002KT 9999 NCD 26/21 Q1018",
      "taf": "TAF LIPQ 271700Z 2718/2818 VRB05KT 9999 FEW040"
    },
    {
      "icao": "LIPR",
      "alert": "OK",
      "vis_m": 9999,
      "fzfg": false,
      "metar_trigger": false,
      "taf_trigger": false,
      "metar": "METAR LIPR 271950Z VRB01KT CAVOK 28/21 Q1018",
      "taf": "TAF LIPR 271700Z 2718/2818 VRB05KT CAVOK"
    },
    {
      "icao": "LIPX",
      "alert": "OK",
      "vis_m": 9999,
      "fzfg": false,
      "metar_trigger": false,
      "taf_trigger": false,
      "metar": "METAR LIPX 271950Z 08004KT CAVOK 31/19 Q1018",
      "taf": "TAF LIPX 271700Z 2718/2818 VRB05KT CAVOK"
    },
    {
      "icao": "LIPY",
      "alert": "OK",
      "vis_m": 9999,
      "fzfg": false,
      "metar_trigger": false,
      "taf_trigger": false,
      "metar": "METAR LIPY 271950Z AUTO 19002KT 9999 NCD 27/21 Q1018",
      "taf": "TAF LIPY 271700Z 2718/2818 VRB05KT CAVOK"
    },
    {
      "icao": "LIPZ",
      "alert": "OK",
      "vis_m": 9999,
      "fzfg": false,
      "metar_trigger": false,
      "taf_trigger": false,
      "metar": "METAR LIPZ 271950Z 09002KT CAVOK 27/19 Q1018 NOSIG",
      "taf": "TAF LIPZ 271700Z 2718/2824 VRB05KT CAVOK"
    },
    {
      "icao": "LIRF",
      "alert": "OK",
      "vis_m": 9999,
      "fzfg": false,
      "metar_trigger": false,
      "taf_trigger": false,
      "metar": "METAR LIRF 271950Z 27004KT CAVOK 27/26 Q1018 NOSIG",
      "taf": "TAF LIRF 271700Z 2718/2824 27010KT CAVOK"
    },
    {
      "icao": "LIRN",
      "alert": "OK",
      "vis_m": 9999,
      "fzfg": false,
      "metar_trigger": false,
      "taf_trigger": false,
      "metar": "METAR LIRN 271950Z VRB02KT CAVOK 30/20 Q1019 NOSIG",
      "taf": "TAF LIRN 271700Z 2718/2818 VRB05KT 9999 FEW050"
    },
    {
      "icao": "LIRP",
      "alert": "OK",
      "vis_m": 9999,
      "fzfg": false,
      "metar_trigger": false,
      "taf_trigger": false,
      "metar": "METAR LIRP 271945Z 23002KT CAVOK 27/19 Q1018 NOSIG",
      "taf": "TAF LIRP 271700Z 2718/2818 32012KT CAVOK"
    },
    {
      "icao": "LIRZ",
      "alert": "OK",
      "vis_m": 9999,
      "fzfg": false,
      "metar_trigger": false,
      "taf_trigger": false,
      "metar": "METAR LIRZ 271950Z AUTO 27007KT 230V030 9999 NCD 30/18 Q1019",
      "taf": "TAF LIRZ 271700Z 2718/2818 VRB05KT CAVOK"
    },
    {
      "icao": "LJLJ",
      "alert": "OK",
      "vis_m": 9999,
      "fzfg": false,
      "metar_trigger": false,
      "taf_trigger": false,
      "metar": "METAR LJLJ 271930Z 04008KT CAVOK 25/19 Q1021 NOSIG",
      "taf": "TAF LJLJ 271700Z 2718/2818 VRB02KT CAVOK"
    },
    {
      "icao": "LKMT",
      "alert": "OK",
      "vis_m": 9999,
      "fzfg": false,
      "metar_trigger": false,
      "taf_trigger": false,
      "metar": "METAR LKMT 271930Z VRB01KT CAVOK 29/19 Q1019 NOSIG",
      "taf": "TAF LKMT 271700Z 2718/2818 19005KT CAVOK"
    },
    {
      "icao": "LKPR",
      "alert": "OK",
      "vis_m": 9999,
      "fzfg": false,
      "metar_trigger": false,
      "taf_trigger": false,
      "metar": "METAR LKPR 271930Z 12008KT CAVOK 30/16 Q1018 NOSIG",
      "taf": "TAF LKPR 271700Z 2718/2824 14006KT CAVOK"
    },
    {
      "icao": "LLBG",
      "alert": "OK",
      "vis_m": 9999,
      "fzfg": false,
      "metar_trigger": false,
      "taf_trigger": false,
      "metar": "METAR LLBG 271950Z VRB03KT CAVOK 26/21 Q1010 NOSIG",
      "taf": "TAF LLBG 271702Z 2718/2818 29006KT 9999 FEW020 TX31/2810Z TN23/2803Z"
    },
    {
      "icao": "LMML",
      "alert": "OK",
      "vis_m": 9999,
      "fzfg": false,
      "metar_trigger": false,
      "taf_trigger": false,
      "metar": "METAR LMML 271945Z 35007KT CAVOK 27/22 Q1018 NOSIG",
      "taf": "TAF LMML 271700Z 2718/2818 01008KT 9999 FEW020"
    },
    {
      "icao": "LOWW",
      "alert": "OK",
      "vis_m": 9999,
      "fzfg": false,
      "metar_trigger": false,
      "taf_trigger": false,
      "metar": "METAR LOWW 271950Z 19006KT CAVOK 28/14 Q1019 NOSIG",
      "taf": "TAF LOWW 271715Z 2718/2824 14012KT CAVOK TX39/2814Z TN22/2803Z"
    },
    {
      "icao": "LPFR",
      "alert": "OK",
      "vis_m": 9999,
      "fzfg": false,
      "metar_trigger": false,
      "taf_trigger": false,
      "metar": "METAR LPFR 271930Z 31014KT CAVOK 27/15 Q1017",
      "taf": "TAF LPFR 271700Z 2718/2818 26013KT CAVOK"
    },
    {
      "icao": "LPMA",
      "alert": "OK",
      "vis_m": 9999,
      "fzfg": false,
      "metar_trigger": false,
      "taf_trigger": false,
      "metar": "METAR LPMA 271930Z 02008KT 290V050 9999 SCT016 22/16 Q1023",
      "taf": "TAF LPMA 271700Z 2718/2818 01012KT 9999 SCT015"
    },
    {
      "icao": "LPPR",
      "alert": "OK",
      "vis_m": 9999,
      "fzfg": false,
      "metar_trigger": false,
      "taf_trigger": false,
      "metar": "METAR LPPR 271930Z VRB03KT 9999 FEW009 21/18 Q1021",
      "taf": "TAF LPPR 271700Z 2718/2818 28007KT 9999 SCT012"
    },
    {
      "icao": "LPPS",
      "alert": "OK",
      "vis_m": 9999,
      "fzfg": false,
      "metar_trigger": false,
      "taf_trigger": false,
      "metar": "METAR LPPS 271930Z 36010KT 9999 FEW015 22/16 Q1023",
      "taf": "TAF LPPS 271700Z 2718/2824 02010KT 9999 SCT015"
    },
    {
      "icao": "LPPT",
      "alert": "OK",
      "vis_m": 9999,
      "fzfg": false,
      "metar_trigger": false,
      "taf_trigger": false,
      "metar": "METAR LPPT 271930Z 30009KT 9999 FEW030 22/16 Q1020",
      "taf": "TAF LPPT 271700Z 2718/2824 31012KT CAVOK"
    },
    {
      "icao": "LQBK",
      "alert": "OK",
      "vis_m": 9999,
      "fzfg": false,
      "metar_trigger": false,
      "taf_trigger": false,
      "metar": "METAR LQBK 271930Z VRB01KT CAVOK 24/18 Q1019 NOSIG",
      "taf": "TAF LQBK 271700Z 2718/2818 15005KT CAVOK TX36/2813Z TN20/2803Z"
    },
    {
      "icao": "LQSA",
      "alert": "OK",
      "vis_m": 9999,
      "fzfg": false,
      "metar_trigger": false,
      "taf_trigger": false,
      "metar": "METAR LQSA 271930Z 19003KT 170V240 CAVOK 27/16 Q1021 NOSIG",
      "taf": "TAF LQSA 271700Z 2718/2818 VRB02KT CAVOK TX35/2813Z TN17/2803Z"
    },
    {
      "icao": "LQTZ",
      "alert": "OK",
      "vis_m": 9999,
      "fzfg": false,
      "metar_trigger": false,
      "taf_trigger": false,
      "metar": "METAR LQTZ 271930Z 10004KT CAVOK 25/18 Q1020",
      "taf": "TAF LQTZ 271700Z 2718/2818 VRB03KT CAVOK TX36/2814Z TN17/2803Z"
    },
    {
      "icao": "LRBC",
      "alert": "OK",
      "vis_m": 9999,
      "fzfg": false,
      "metar_trigger": false,
      "taf_trigger": false,
      "metar": "METAR LRBC 271930Z 00000KT CAVOK 21/15 Q1022",
      "taf": "TAF LRBC 271700Z 2718/2803 VRB04KT CAVOK"
    },
    {
      "icao": "LRBS",
      "alert": "OK",
      "vis_m": 9999,
      "fzfg": false,
      "metar_trigger": false,
      "taf_trigger": false,
      "metar": "METAR LRBS 271930Z 06004KT 040V120 CAVOK 25/15 Q1022 NOSIG",
      "taf": "TAF LRBS 271700Z 2718/2818 VRB04KT CAVOK"
    },
    {
      "icao": "LRBV",
      "alert": "OK",
      "vis_m": 9999,
      "fzfg": false,
      "metar_trigger": false,
      "taf_trigger": false,
      "metar": "METAR LRBV 271930Z 13005KT 100V180 CAVOK 23/16 Q1024",
      "taf": "TAF LRBV 271700Z 2718/2803 VRB04KT CAVOK"
    },
    {
      "icao": "LRCL",
      "alert": "OK",
      "vis_m": 9999,
      "fzfg": false,
      "metar_trigger": false,
      "taf_trigger": false,
      "metar": "METAR LRCL 271930Z VRB02KT CAVOK 23/14 Q1021",
      "taf": "TAF LRCL 271700Z 2718/2803 VRB04KT CAVOK"
    },
    {
      "icao": "LRCV",
      "alert": "OK",
      "vis_m": 9999,
      "fzfg": false,
      "metar_trigger": false,
      "taf_trigger": false,
      "metar": "METAR LRCV 271930Z 13006KT CAVOK 25/19 Q1022",
      "taf": "TAF LRCV 271700Z 2718/2803 13006KT CAVOK"
    },
    {
      "icao": "LRIA",
      "alert": "OK",
      "vis_m": 9999,
      "fzfg": false,
      "metar_trigger": false,
      "taf_trigger": false,
      "metar": "METAR LRIA 271930Z 22005KT CAVOK 24/16 Q1022",
      "taf": "TAF LRIA 271700Z 2718/2803 VRB04KT CAVOK"
    },
    {
      "icao": "LROP",
      "alert": "OK",
      "vis_m": 9999,
      "fzfg": false,
      "metar_trigger": false,
      "taf_trigger": false,
      "metar": "METAR LROP 271930Z 08003KT CAVOK 24/16 Q1022 NOSIG",
      "taf": "TAF LROP 271700Z 2718/2818 VRB04KT CAVOK"
    },
    {
      "icao": "LRSB",
      "alert": "OK",
      "vis_m": 9999,
      "fzfg": false,
      "metar_trigger": false,
      "taf_trigger": false,
      "metar": "METAR LRSB 271930Z 23003KT 160V270 CAVOK 21/17 Q1023",
      "taf": "TAF LRSB 271700Z 2718/2818 VRB04KT CAVOK"
    },
    {
      "icao": "LRSM",
      "alert": "OK",
      "vis_m": 9999,
      "fzfg": false,
      "metar_trigger": false,
      "taf_trigger": false,
      "metar": "METAR LRSM 271930Z VRB01KT CAVOK 25/16 Q1020",
      "taf": "TAF LRSM 271700Z 2718/2803 VRB04KT CAVOK"
    },
    {
      "icao": "LRSV",
      "alert": "OK",
      "vis_m": 9999,
      "fzfg": false,
      "metar_trigger": false,
      "taf_trigger": false,
      "metar": "METAR LRSV 271930Z 19005KT CAVOK 22/15 Q1023",
      "taf": "TAF LRSV 271700Z 2718/2803 VRB04KT CAVOK"
    },
    {
      "icao": "LRTM",
      "alert": "OK",
      "vis_m": 9999,
      "fzfg": false,
      "metar_trigger": false,
      "taf_trigger": false,
      "metar": "METAR LRTM 271930Z 26001KT CAVOK 24/19 Q1022",
      "taf": "TAF LRTM 271700Z 2718/2803 VRB04KT CAVOK"
    },
    {
      "icao": "LRTR",
      "alert": "OK",
      "vis_m": 9999,
      "fzfg": false,
      "metar_trigger": false,
      "taf_trigger": false,
      "metar": "METAR LRTR 271930Z 18003KT 160V220 CAVOK 27/18 Q1019",
      "taf": "TAF LRTR 271700Z 2718/2818 VRB04KT CAVOK"
    },
    {
      "icao": "LTAC",
      "alert": "OK",
      "vis_m": 9999,
      "fzfg": false,
      "metar_trigger": false,
      "taf_trigger": false,
      "metar": "METAR LTAC 271950Z 05012KT CAVOK 19/10 Q1021 NOSIG RMK RWY21C 06010KT RWY03L 04011KT RWY21R 05010KT RWY03R 03013KT RWY21L 04011KT",
      "taf": "TAF LTAC 271640Z 2718/2818 04012KT 9999 SCT040"
    },
    {
      "icao": "LTFM",
      "alert": "OK",
      "vis_m": 9999,
      "fzfg": false,
      "metar_trigger": false,
      "taf_trigger": false,
      "metar": "METAR LTFM 271950Z 06018KT 9999 SCT017 24/18 Q1020 NOSIG RMK RWY17L 06014KT RWY34L 07015KT RWY16R 06015KT RWY36 07014KT RWY18 08015KT",
      "taf": "TAF LTFM 271640Z 2718/2824 06012KT 9999 SCT016"
    },
    {
      "icao": "LUKK",
      "alert": "OK",
      "vis_m": 9999,
      "fzfg": false,
      "metar_trigger": false,
      "taf_trigger": false,
      "metar": "METAR LUKK 271930Z 27005KT CAVOK 23/14 Q1021 NOSIG",
      "taf": ""
    },
    {
      "icao": "LWOH",
      "alert": "OK",
      "vis_m": 9999,
      "fzfg": false,
      "metar_trigger": false,
      "taf_trigger": false,
      "metar": "METAR LWOH 271950Z 30003KT 270V050 9999 FEW040 21/17 Q1022",
      "taf": "TAF LWOH 271715Z 2718/2818 33005KT CAVOK"
    },
    {
      "icao": "LWSK",
      "alert": "OK",
      "vis_m": 9999,
      "fzfg": false,
      "metar_trigger": false,
      "taf_trigger": false,
      "metar": "METAR LWSK 271950Z 03006KT 9999 FEW050 29/17 Q1019 NOSIG",
      "taf": "TAF LWSK 271715Z 2718/2818 02010KT 9999 FEW050 SCT100"
    },
    {
      "icao": "LYBE",
      "alert": "OK",
      "vis_m": 9999,
      "fzfg": false,
      "metar_trigger": false,
      "taf_trigger": false,
      "metar": "METAR LYBE 271930Z 12004KT CAVOK 28/17 Q1019 NOSIG",
      "taf": "TAF LYBE 271700Z 2718/2818 08004KT CAVOK TX37/2813Z TN22/2803Z"
    },
    {
      "icao": "LYNI",
      "alert": "OK",
      "vis_m": 9999,
      "fzfg": false,
      "metar_trigger": false,
      "taf_trigger": false,
      "metar": "METAR LYNI 271930Z 05004KT CAVOK 28/17 Q1020 NOSIG",
      "taf": "TAF LYNI 271700Z 2718/2818 09003KT CAVOK TX37/2813Z TN20/2803Z"
    },
    {
      "icao": "LYPG",
      "alert": "OK",
      "vis_m": 9999,
      "fzfg": false,
      "metar_trigger": false,
      "taf_trigger": false,
      "metar": "METAR LYPG 271930Z 36005KT CAVOK 31/16 Q1017 NOSIG",
      "taf": "TAF LYPG 271700Z 2718/2818 36008KT CAVOK TX38/2814Z TN24/2803Z"
    },
    {
      "icao": "LZIB",
      "alert": "OK",
      "vis_m": 9999,
      "fzfg": false,
      "metar_trigger": false,
      "taf_trigger": false,
      "metar": "METAR LZIB 271930Z 14003KT CAVOK 31/14 Q1018 NOSIG",
      "taf": "TAF LZIB 271715Z 2718/2818 08005KT CAVOK"
    },
    {
      "icao": "LZKZ",
      "alert": "OK",
      "vis_m": 9999,
      "fzfg": false,
      "metar_trigger": false,
      "taf_trigger": false,
      "metar": "METAR LZKZ 271930Z 32003KT CAVOK 26/16 Q1020 NOSIG",
      "taf": "TAF LZKZ 271715Z 2718/2818 08005KT CAVOK"
    },
    {
      "icao": "LZTT",
      "alert": "OK",
      "vis_m": 9999,
      "fzfg": false,
      "metar_trigger": false,
      "taf_trigger": false,
      "metar": "METAR LZTT 271930Z 29006KT 9999 FEW070 23/18 Q1023",
      "taf": "TAF LZTT 271715Z 2718/2818 VRB02KT CAVOK"
    },
    {
      "icao": "OEJN",
      "alert": "OK",
      "vis_m": 9999,
      "fzfg": false,
      "metar_trigger": false,
      "taf_trigger": false,
      "metar": "METAR OEJN 271900Z 36006KT CAVOK 32/15 Q1006 NOSIG",
      "taf": "TAF OEJN 271700Z 2718/2824 01005KT CAVOK"
    },
    {
      "icao": "OEMA",
      "alert": "OK",
      "vis_m": 9999,
      "fzfg": false,
      "metar_trigger": false,
      "taf_trigger": false,
      "metar": "METAR OEMA 271900Z 26009KT CAVOK 38/01 Q1010 NOSIG",
      "taf": "TAF OEMA 271700Z 2718/2824 29010KT CAVOK"
    },
    {
      "icao": "OJAI",
      "alert": "OK",
      "vis_m": 5000,
      "fzfg": false,
      "metar_trigger": false,
      "taf_trigger": false,
      "metar": "METAR OJAI 271900Z 29010KT 5000 DU NSC 24/10 Q1014 NOSIG",
      "taf": "TAF OJAI 271700Z 2718/2824 30010KT 5000 HZ NSC"
    },
    {
      "icao": "OMAA",
      "alert": "OK",
      "vis_m": 9999,
      "fzfg": false,
      "metar_trigger": false,
      "taf_trigger": false,
      "metar": "METAR OMAA 271930Z 02005KT 330V110 CAVOK 31/25 Q1001 NOSIG",
      "taf": "TAF OMAA 271700Z 2718/2900 06005KT 8000 NSC"
    },
    {
      "icao": "OMDB",
      "alert": "OK",
      "vis_m": 9999,
      "fzfg": false,
      "metar_trigger": false,
      "taf_trigger": false,
      "metar": "METAR OMDB 271930Z 33005KT 300V020 CAVOK 34/24 Q1001 NOSIG",
      "taf": "TAF OMDB 271700Z 2718/2900 04005KT 8000 NSC"
    },
    {
      "icao": "UAAA",
      "alert": "OK",
      "vis_m": 9999,
      "fzfg": false,
      "metar_trigger": false,
      "taf_trigger": false,
      "metar": "METAR UAAA 271930Z 18003MPS 9999 SCT050CB BKN100 22/13 Q1008 NOSIG",
      "taf": "TAF UAAA 271701Z 2718/2818 20003MPS 9999 SCT050CB BKN100 TX35/2809Z TN20/2801Z"
    },
    {
      "icao": "UBBB",
      "alert": "OK",
      "vis_m": 9999,
      "fzfg": false,
      "metar_trigger": false,
      "taf_trigger": false,
      "metar": "METAR UBBB 271930Z 32018KT 9999 -RA SCT013 OVC038 20/18 Q1013 NOSIG",
      "taf": "TAF UBBB 271702Z 2718/2818 33014KT 9999 SCT050CB TX25/2810Z TN19/2801Z"
    },
    {
      "icao": "UDSG",
      "alert": "OK",
      "vis_m": 9999,
      "fzfg": false,
      "metar_trigger": false,
      "taf_trigger": false,
      "metar": "METAR UDSG 271930Z 08002KT 9999 FEW049 10/05 Q1021 NOSIG",
      "taf": "TAF UDSG 271658Z 2718/2818 VRB06KT 9999 FEW050"
    },
    {
      "icao": "UDYZ",
      "alert": "OK",
      "vis_m": 9999,
      "fzfg": false,
      "metar_trigger": false,
      "taf_trigger": false,
      "metar": "METAR UDYZ 271930Z 18006KT 120V210 9999 FEW046 18/09 Q1015 NOSIG",
      "taf": "TAF UDYZ 271700Z 2718/2818 04006KT 9999 FEW040"
    },
    {
      "icao": "UGKO",
      "alert": "OK",
      "vis_m": 9999,
      "fzfg": false,
      "metar_trigger": false,
      "taf_trigger": false,
      "metar": "METAR UGKO 271930Z 07006KT 040V100 9999 BKN033 15/14 Q1016 NOSIG",
      "taf": "TAF UGKO 271700Z 2718/2818 25007KT 9999 SCT023 BKN040 TX23/2811Z TN15/2802Z"
    }
  ]
}