{
  "ts_utc": "2026-02-26T23:48:04Z",
  "threshold_m": 150,
  "source": "stations_override.txt (ICAO list) + aviationweather.gov (METAR/TAF raw)",
  "station_count": 159,
  "stations": [
    {
      "icao": "BIKF",
      "alert": "OK",
      "vis_m": 9999,
      "fzfg": false,
      "metar_trigger": false,
      "taf_trigger": false,
      "metar": "METAR BIKF 262330Z 26023KT 9999 VCSH FEW004 BKN027 M03/M11 Q0983",
      "taf": "TAF BIKF 262226Z 2700/2800 29018G32KT 9999 -SHSN SCT015 BKN025 TX00/2716Z TNM04/2700Z"
    },
    {
      "icao": "BKPR",
      "alert": "OK",
      "vis_m": 9999,
      "fzfg": false,
      "metar_trigger": false,
      "taf_trigger": false,
      "metar": "METAR BKPR 262330Z VRB02KT CAVOK 00/M02 Q1028 NOSIG",
      "taf": "TAF BKPR 262330Z 2700/2724 VRB03KT CAVOK"
    },
    {
      "icao": "EBCI",
      "alert": "OK",
      "vis_m": 9999,
      "fzfg": false,
      "metar_trigger": false,
      "taf_trigger": false,
      "metar": "METAR EBCI 262320Z 20010KT CAVOK 12/08 Q1019 NOSIG",
      "taf": "TAF EBCI 262301Z 2700/2806 19009KT 9999 FEW025"
    },
    {
      "icao": "EDDB",
      "alert": "OK",
      "vis_m": 9999,
      "fzfg": false,
      "metar_trigger": false,
      "taf_trigger": false,
      "metar": "METAR EDDB 262320Z AUTO 20007KT CAVOK 07/06 Q1020 NOSIG",
      "taf": "TAF EDDB 262300Z 2700/2724 19007KT CAVOK"
    },
    {
      "icao": "EDDH",
      "alert": "OK",
      "vis_m": 9999,
      "fzfg": false,
      "metar_trigger": false,
      "taf_trigger": false,
      "metar": "METAR EDDH 262320Z AUTO 21009KT CAVOK 11/09 Q1016 NOSIG",
      "taf": "TAF EDDH 262300Z 2700/2806 20008KT CAVOK"
    },
    {
      "icao": "EDDK",
      "alert": "OK",
      "vis_m": 9999,
      "fzfg": false,
      "metar_trigger": false,
      "taf_trigger": false,
      "metar": "METAR EDDK 262320Z AUTO 18007KT CAVOK 11/08 Q1019 NOSIG",
      "taf": "TAF EDDK 262300Z 2700/2806 15006KT CAVOK"
    },
    {
      "icao": "EDDN",
      "alert": "OK",
      "vis_m": 450,
      "fzfg": false,
      "metar_trigger": false,
      "taf_trigger": false,
      "metar": "METAR EDDN 262320Z AUTO 13006KT 0450 0350 R28/1800U FG NCD 03/03 Q1024",
      "taf": "TAF EDDN 262300Z 2700/2724 13005KT 2000 BCFG NSC"
    },
    {
      "icao": "EDDS",
      "alert": "OK",
      "vis_m": 9999,
      "fzfg": false,
      "metar_trigger": false,
      "taf_trigger": false,
      "metar": "METAR EDDS 262320Z AUTO VRB01KT CAVOK 06/05 Q1023",
      "taf": "TAF EDDS 262300Z 2700/2724 VRB03KT CAVOK"
    },
    {
      "icao": "EDFH",
      "alert": "OK",
      "vis_m": 9999,
      "fzfg": false,
      "metar_trigger": false,
      "taf_trigger": false,
      "metar": "METAR EDFH 262320Z 22010KT CAVOK 11/08 Q1021",
      "taf": "TAF EDFH 262300Z 2700/2724 20009KT CAVOK"
    },
    {
      "icao": "EDJA",
      "alert": "OK",
      "vis_m": 9999,
      "fzfg": false,
      "metar_trigger": false,
      "taf_trigger": false,
      "metar": "METAR EDJA 262320Z AUTO 16003KT 9999 // FEW150/// 03/01 Q1024",
      "taf": "TAF EDJA 261700Z 2618/2703 20005KT CAVOK"
    },
    {
      "icao": "EDLW",
      "alert": "OK",
      "vis_m": 9999,
      "fzfg": false,
      "metar_trigger": false,
      "taf_trigger": false,
      "metar": "METAR EDLW 262320Z AUTO 20009KT 9999 // NCD 13/08 Q1018",
      "taf": "TAF EDLW 261700Z 2618/2718 20011KT CAVOK"
    },
    {
      "icao": "EDNY",
      "alert": "OK",
      "vis_m": 9999,
      "fzfg": false,
      "metar_trigger": false,
      "taf_trigger": false,
      "metar": "METAR EDNY 262320Z AUTO 00000KT 9999 4100 // NCD 02/02 Q1024",
      "taf": "TAF EDNY 261700Z 2618/2703 VRB01KT CAVOK"
    },
    {
      "icao": "EDSB",
      "alert": "OK",
      "vis_m": 450,
      "fzfg": false,
      "metar_trigger": false,
      "taf_trigger": false,
      "metar": "METAR EDSB 262320Z AUTO VRB01KT 0450 R21/1400D // FEW002/// 06/06 Q1023",
      "taf": "TAF EDSB 262300Z 2700/2724 VRB02KT CAVOK"
    },
    {
      "icao": "EETN",
      "alert": "OK",
      "vis_m": 9999,
      "fzfg": false,
      "metar_trigger": false,
      "taf_trigger": false,
      "metar": "METAR EETN 262320Z 21016G26KT 9999 OVC013 01/M01 Q1010",
      "taf": "TAF EETN 262330Z 2700/2724 21017KT 9999 OVC009"
    },
    {
      "icao": "EFTU",
      "alert": "OK",
      "vis_m": 5000,
      "fzfg": false,
      "metar_trigger": false,
      "taf_trigger": false,
      "metar": "METAR EFTU 262320Z AUTO 24013KT 5000 DZRA OVC002 03/03 Q1005 REDZ",
      "taf": "TAF EFTU 262335Z 2700/2724 24013KT 5000 DZRA OVC002"
    },
    {
      "icao": "EGBB",
      "alert": "OK",
      "vis_m": 9999,
      "fzfg": false,
      "metar_trigger": false,
      "taf_trigger": false,
      "metar": "METAR EGBB 262320Z 21005KT 180V240 9999 -RA SCT009 10/09 Q1009",
      "taf": "TAF EGBB 262257Z 2700/2724 22010KT 9999 BKN010"
    },
    {
      "icao": "EGGP",
      "alert": "OK",
      "vis_m": 9999,
      "fzfg": false,
      "metar_trigger": false,
      "taf_trigger": false,
      "metar": "METAR EGGP 262320Z 19004KT 9999 BKN022 BKN028 10/08 Q1007",
      "taf": "TAF EGGP 262257Z 2700/2724 19006KT 9999 SCT030"
    },
    {
      "icao": "EGGW",
      "alert": "OK",
      "vis_m": 9999,
      "fzfg": false,
      "metar_trigger": false,
      "taf_trigger": false,
      "metar": "METAR EGGW 262320Z AUTO 21016G29KT 9999 OVC012 10/08 Q1011",
      "taf": "TAF EGGW 262255Z 2700/2724 20012KT 9999 BKN012"
    },
    {
      "icao": "EGKK",
      "alert": "OK",
      "vis_m": 9999,
      "fzfg": false,
      "metar_trigger": false,
      "taf_trigger": false,
      "metar": "METAR EGKK 262320Z 21013G23KT 9999 -RA BKN014 11/09 Q1013",
      "taf": "TAF EGKK 262300Z 2700/2806 21012KT 9999 BKN016"
    },
    {
      "icao": "EGNM",
      "alert": "OK",
      "vis_m": null,
      "fzfg": false,
      "metar_trigger": false,
      "taf_trigger": false,
      "metar": "",
      "taf": "TAF EGNM 261658Z 2618/2718 22018G30KT 9999 BKN020"
    },
    {
      "icao": "EGPD",
      "alert": "OK",
      "vis_m": 9999,
      "fzfg": false,
      "metar_trigger": false,
      "taf_trigger": false,
      "metar": "METAR EGPD 262320Z COR AUTO 24010KT 9999 NCD 08/02 Q0998 NOSIG",
      "taf": "TAF EGPD 262254Z 2700/2724 22008KT 9999 FEW035"
    },
    {
      "icao": "EGPF",
      "alert": "OK",
      "vis_m": 9999,
      "fzfg": false,
      "metar_trigger": false,
      "taf_trigger": false,
      "metar": "METAR EGPF 262320Z AUTO 23009KT 9999 FEW031 07/05 Q1002",
      "taf": "TAF EGPF 262257Z 2700/2724 23010KT 9999 SCT030"
    },
    {
      "icao": "EHBK",
      "alert": "OK",
      "vis_m": 9999,
      "fzfg": false,
      "metar_trigger": false,
      "taf_trigger": false,
      "metar": "METAR EHBK 262325Z AUTO 21010KT 9999 NSC 12/09 Q1018",
      "taf": "TAF EHBK 262319Z 2700/2806 21011KT CAVOK"
    },
    {
      "icao": "EHEH",
      "alert": "OK",
      "vis_m": 9999,
      "fzfg": false,
      "metar_trigger": false,
      "taf_trigger": false,
      "metar": "SPECI EHEH 262339Z AUTO 20005KT 9999 OVC310 08/07 Q1017 BLU",
      "taf": "TAF EHEH 261804Z 2618/2724 22013KT CAVOK"
    },
    {
      "icao": "EKBI",
      "alert": "OK",
      "vis_m": 8000,
      "fzfg": false,
      "metar_trigger": false,
      "taf_trigger": false,
      "metar": "METAR EKBI 262320Z AUTO 22011KT 200V260 8000 RA OVC004/// 07/07 Q1012",
      "taf": "TAF EKBI 262327Z 2700/2724 20012KT 8000 -RADZ BKN008"
    },
    {
      "icao": "EKCH",
      "alert": "OK",
      "vis_m": 6000,
      "fzfg": false,
      "metar_trigger": false,
      "taf_trigger": false,
      "metar": "METAR EKCH 262320Z AUTO 20006KT 6000 OVC100/// 06/05 Q1015 NOSIG",
      "taf": "TAF EKCH 262327Z 2700/2724 21010KT 8000 BKN015"
    },
    {
      "icao": "ENAL",
      "alert": "OK",
      "vis_m": 9999,
      "fzfg": false,
      "metar_trigger": false,
      "taf_trigger": false,
      "metar": "METAR ENAL 262320Z AUTO 17005KT 9999 -RA OVC043/// 05/05 Q0992",
      "taf": "TAF ENAL 262300Z 2700/2709 17008KT 9999 -RA FEW020 BKN030"
    },
    {
      "icao": "ENBR",
      "alert": "OK",
      "vis_m": 8000,
      "fzfg": false,
      "metar_trigger": false,
      "taf_trigger": false,
      "metar": "METAR ENBR 262320Z 18016KT 8000 VCSH BKN006 06/06 Q0997 RMK WIND 1200FT 21023KT",
      "taf": "TAF ENBR 262300Z 2700/2724 18018KT 8000 -RA SCT003 BKN006"
    },
    {
      "icao": "ENGM",
      "alert": "OK",
      "vis_m": 700,
      "fzfg": false,
      "metar_trigger": false,
      "taf_trigger": false,
      "metar": "METAR ENGM 262320Z 19010KT 0700 0650SE R19R/0900N R01R/0750N R19L/0800U R01L/0750N FG VV002 02/01 Q1001",
      "taf": "TAF ENGM 262300Z 2700/2724 18008KT 0300 FG VV001"
    },
    {
      "icao": "ENHD",
      "alert": "OK",
      "vis_m": 8000,
      "fzfg": false,
      "metar_trigger": false,
      "taf_trigger": false,
      "metar": "METAR ENHD 262320Z 19011KT 8000 SCT007 BKN010 07/06 Q0999",
      "taf": "TAF ENHD 261400Z 2615/2623 18015KT 7000 -DZRA SCT004 BKN006"
    },
    {
      "icao": "ENTC",
      "alert": "OK",
      "vis_m": 9999,
      "fzfg": false,
      "metar_trigger": false,
      "taf_trigger": false,
      "metar": "METAR ENTC 262320Z 00000KT CAVOK M07/M10 Q0998 RMK WIND 2600FT 17024KT",
      "taf": "TAF ENTC 262300Z 2700/2724 18008KT CAVOK"
    },
    {
      "icao": "ENTO",
      "alert": "OK",
      "vis_m": 150,
      "fzfg": false,
      "metar_trigger": false,
      "taf_trigger": false,
      "metar": "METAR ENTO 262320Z AUTO 21011KT 0150 R18/0650N R36/0800N FG VV002 03/03 Q1003",
      "taf": "TAF ENTO 262300Z 2700/2724 20010KT 0200 FG VV001"
    },
    {
      "icao": "ENVA",
      "alert": "OK",
      "vis_m": 9999,
      "fzfg": false,
      "metar_trigger": false,
      "taf_trigger": false,
      "metar": "METAR ENVA 262320Z 05004KT 360V080 9999 BKN054 03/01 Q0995 RMK WIND 670FT 15013KT",
      "taf": "TAF ENVA 262300Z 2700/2724 09005KT 9999 FEW030 BKN040"
    },
    {
      "icao": "ENZV",
      "alert": "OK",
      "vis_m": 9999,
      "fzfg": false,
      "metar_trigger": false,
      "taf_trigger": false,
      "metar": "METAR ENZV 262320Z 19014KT 9999 BKN008 BKN034 07/06 Q1001",
      "taf": "TAF ENZV 262300Z 2700/2724 18015KT 8000 SCT004 BKN006"
    },
    {
      "icao": "EPGD",
      "alert": "OK",
      "vis_m": 9999,
      "fzfg": false,
      "metar_trigger": false,
      "taf_trigger": false,
      "metar": "METAR EPGD 262330Z 22006KT 190V260 CAVOK 04/00 Q1019",
      "taf": "TAF EPGD 262330Z 2700/2724 21005KT CAVOK"
    },
    {
      "icao": "EPKK",
      "alert": "OK",
      "vis_m": 9999,
      "fzfg": false,
      "metar_trigger": false,
      "taf_trigger": false,
      "metar": "METAR EPKK 262330Z VRB01KT CAVOK M02/M03 Q1025",
      "taf": "TAF EPKK 262330Z 2700/2724 VRB02KT CAVOK"
    },
    {
      "icao": "EPKT",
      "alert": "OK",
      "vis_m": 9999,
      "fzfg": false,
      "metar_trigger": false,
      "taf_trigger": false,
      "metar": "METAR EPKT 262330Z 21007KT CAVOK 03/M01 Q1024",
      "taf": "TAF EPKT 262330Z 2700/2724 20007KT CAVOK"
    },
    {
      "icao": "EPLB",
      "alert": "OK",
      "vis_m": 9999,
      "fzfg": false,
      "metar_trigger": false,
      "taf_trigger": false,
      "metar": "METAR EPLB 262330Z 11004KT CAVOK M02/M03 Q1027",
      "taf": "TAF EPLB 262330Z 2700/2724 13007KT CAVOK"
    },
    {
      "icao": "EPMO",
      "alert": "OK",
      "vis_m": 9999,
      "fzfg": false,
      "metar_trigger": false,
      "taf_trigger": false,
      "metar": "METAR EPMO 262330Z 16007KT CAVOK 01/M03 Q1024",
      "taf": "TAF EPMO 262330Z 2700/2724 14008KT CAVOK"
    },
    {
      "icao": "EPPO",
      "alert": "OK",
      "vis_m": 7000,
      "fzfg": false,
      "metar_trigger": false,
      "taf_trigger": false,
      "metar": "METAR EPPO 262330Z 17003KT 7000 NSC 03/02 Q1021",
      "taf": "TAF EPPO 262330Z 2700/2724 19006KT CAVOK"
    },
    {
      "icao": "EPRA",
      "alert": "OK",
      "vis_m": 9999,
      "fzfg": false,
      "metar_trigger": false,
      "taf_trigger": false,
      "metar": "METAR EPRA 262330Z 16008KT CAVOK M00/M03 Q1025",
      "taf": "TAF EPRA 262330Z 2700/2709 17006KT CAVOK"
    },
    {
      "icao": "EPRZ",
      "alert": "OK",
      "vis_m": 9999,
      "fzfg": false,
      "metar_trigger": false,
      "taf_trigger": false,
      "metar": "METAR EPRZ 262330Z 08003KT CAVOK M01/M03 Q1026",
      "taf": "TAF EPRZ 262330Z 2700/2724 09004KT CAVOK"
    },
    {
      "icao": "EPSC",
      "alert": "OK",
      "vis_m": 9999,
      "fzfg": false,
      "metar_trigger": false,
      "taf_trigger": false,
      "metar": "METAR EPSC 262330Z 14007KT CAVOK 05/04 Q1018",
      "taf": "TAF EPSC 262330Z 2700/2724 15006KT CAVOK"
    },
    {
      "icao": "EPSY",
      "alert": "OK",
      "vis_m": 9999,
      "fzfg": false,
      "metar_trigger": false,
      "taf_trigger": false,
      "metar": "METAR EPSY 262330Z 17006KT CAVOK M01/M03 Q1023",
      "taf": "TAF EPSY 262330Z 2700/2709 20006KT CAVOK"
    },
    {
      "icao": "EPWA",
      "alert": "OK",
      "vis_m": 9999,
      "fzfg": false,
      "metar_trigger": false,
      "taf_trigger": false,
      "metar": "METAR EPWA 262330Z 14007KT CAVOK M02/M04 Q1024 NOSIG",
      "taf": "TAF EPWA 262330Z 2700/2724 14008KT CAVOK"
    },
    {
      "icao": "EPWR",
      "alert": "OK",
      "vis_m": 9000,
      "fzfg": false,
      "metar_trigger": false,
      "taf_trigger": false,
      "metar": "METAR EPWR 262330Z 11001KT 9000 NSC 02/01 Q1022",
      "taf": "TAF EPWR 262330Z 2700/2724 13004KT CAVOK"
    },
    {
      "icao": "ESGG",
      "alert": "OK",
      "vis_m": 2000,
      "fzfg": false,
      "metar_trigger": false,
      "taf_trigger": false,
      "metar": "METAR ESGG 262320Z 21013KT 2000 DZ VV002 05/05 Q1009",
      "taf": "TAF ESGG 262330Z 2700/2724 21012KT 0200 FG VV002"
    },
    {
      "icao": "ESKN",
      "alert": "OK",
      "vis_m": 9999,
      "fzfg": false,
      "metar_trigger": false,
      "taf_trigger": false,
      "metar": "METAR ESKN 262320Z 23008KT 9999 FEW021 OVC100 06/05 Q1008",
      "taf": "TAF ESKN 262330Z 2700/2724 23010KT 9999 FEW025"
    },
    {
      "icao": "ESMS",
      "alert": "OK",
      "vis_m": 3800,
      "fzfg": false,
      "metar_trigger": false,
      "taf_trigger": false,
      "metar": "METAR ESMS 262320Z 20008KT 3800 BR SCT110 07/07 Q1014",
      "taf": "TAF ESMS 262327Z 2700/2724 20012KT 8000 BKN015"
    },
    {
      "icao": "ESSA",
      "alert": "OK",
      "vis_m": 9999,
      "fzfg": false,
      "metar_trigger": false,
      "taf_trigger": false,
      "metar": "METAR ESSA 262320Z 23013KT 9999 OVC009 05/04 Q1006 NOSIG",
      "taf": "TAF ESSA 262330Z 2700/2724 24012KT 9999 BKN008"
    },
    {
      "icao": "EYKA",
      "alert": "OK",
      "vis_m": 9999,
      "fzfg": false,
      "metar_trigger": false,
      "taf_trigger": false,
      "metar": "METAR EYKA 262320Z AUTO 19007KT 120V250 9999 BKN150/// M01/M05 Q1024",
      "taf": "TAF EYKA 262300Z 2700/2724 18010KT 9000 NSC"
    },
    {
      "icao": "EYPA",
      "alert": "OK",
      "vis_m": 9999,
      "fzfg": false,
      "metar_trigger": false,
      "taf_trigger": false,
      "metar": "METAR EYPA 262320Z AUTO 19016KT 9999 OVC026/// 03/M02 Q1019",
      "taf": "TAF EYPA 262300Z 2700/2724 18014KT 9000 OVC015"
    },
    {
      "icao": "EYVI",
      "alert": "OK",
      "vis_m": 9999,
      "fzfg": false,
      "metar_trigger": false,
      "taf_trigger": false,
      "metar": "METAR EYVI 262320Z 18014KT CAVOK M03/M06 Q1024 NOSIG",
      "taf": "TAF EYVI 262300Z 2700/2724 18014KT 9000 NSC"
    },
    {
      "icao": "GCFV",
      "alert": "OK",
      "vis_m": 9999,
      "fzfg": false,
      "metar_trigger": false,
      "taf_trigger": false,
      "metar": "METAR GCFV 262330Z AUTO 02018KT CAVOK 17/11 Q1015",
      "taf": ""
    },
    {
      "icao": "GCLP",
      "alert": "OK",
      "vis_m": 9999,
      "fzfg": false,
      "metar_trigger": false,
      "taf_trigger": false,
      "metar": "METAR GCLP 262330Z 36023KT 9999 -RA SCT026 BKN050 18/14 Q1016 NOSIG",
      "taf": "TAF GCLP 262000Z 2621/2721 36020KT 9999 SCT020 TX22/2714Z TN16/2706Z"
    },
    {
      "icao": "GCTS",
      "alert": "OK",
      "vis_m": 9999,
      "fzfg": false,
      "metar_trigger": false,
      "taf_trigger": false,
      "metar": "METAR GCTS 262330Z VRB02KT 9999 FEW060 18/08 Q1018 NOSIG",
      "taf": "TAF GCTS 262000Z 2621/2721 30005KT 9999 FEW035 TX27/2714Z TN16/2706Z"
    },
    {
      "icao": "GMAD",
      "alert": "OK",
      "vis_m": 6000,
      "fzfg": false,
      "metar_trigger": false,
      "taf_trigger": false,
      "metar": "METAR GMAD 262330Z 02005KT 6000 NSC 18/04 Q1016 NOSIG",
      "taf": "TAF GMAD 262300Z 2700/2806 10014KT 6000 NSC"
    },
    {
      "icao": "GMMN",
      "alert": "OK",
      "vis_m": 5000,
      "fzfg": false,
      "metar_trigger": false,
      "taf_trigger": false,
      "metar": "METAR GMMN 262330Z VRB01KT 5000 NSC 12/11 Q1020 BECMG 4000 RA",
      "taf": "TAF GMMN 262300Z 2700/2806 VRB02KT 5000 NSC"
    },
    {
      "icao": "GMMX",
      "alert": "OK",
      "vis_m": 8000,
      "fzfg": false,
      "metar_trigger": false,
      "taf_trigger": false,
      "metar": "METAR GMMX 262330Z 07011KT 8000 SCT080 19/01 Q1018 NOSIG",
      "taf": "TAF GMMX 262300Z 2700/2806 06006KT 8000 SCT090"
    },
    {
      "icao": "HEGN",
      "alert": "OK",
      "vis_m": 9999,
      "fzfg": false,
      "metar_trigger": false,
      "taf_trigger": false,
      "metar": "METAR HEGN 262300Z 29009KT CAVOK 16/07 Q1016 NOSIG",
      "taf": "TAF HEGN 262300Z 2700/2806 29015KT CAVOK"
    },
    {
      "icao": "HEMA",
      "alert": "OK",
      "vis_m": 9999,
      "fzfg": false,
      "metar_trigger": false,
      "taf_trigger": false,
      "metar": "METAR HEMA 262300Z 30012KT CAVOK 18/12 Q1014 NOSIG",
      "taf": "TAF HEMA 262300Z 2700/2806 26010KT CAVOK"
    },
    {
      "icao": "HESH",
      "alert": "OK",
      "vis_m": 9999,
      "fzfg": false,
      "metar_trigger": false,
      "taf_trigger": false,
      "metar": "METAR HESH 262300Z 36010KT CAVOK 19/09 Q1015 NOSIG",
      "taf": "TAF HESH 262300Z 2700/2806 30010KT CAVOK"
    },
    {
      "icao": "HESX",
      "alert": "OK",
      "vis_m": 9999,
      "fzfg": false,
      "metar_trigger": false,
      "taf_trigger": false,
      "metar": "METAR HESX 262300Z 35006KT CAVOK 10/04 Q1020 NOSIG",
      "taf": "TAF HESX 262300Z 2700/2806 31006KT 9999 FEW020"
    },
    {
      "icao": "LATI",
      "alert": "OK",
      "vis_m": null,
      "fzfg": false,
      "metar_trigger": false,
      "taf_trigger": false,
      "metar": "",
      "taf": "TAF LATI 262300Z 2700/2724 VRB05KT CAVOK TX18/2712Z TN02/2705Z"
    },
    {
      "icao": "LBPD",
      "alert": "OK",
      "vis_m": 9999,
      "fzfg": false,
      "metar_trigger": false,
      "taf_trigger": false,
      "metar": "METAR LBPD 262330Z AUTO 32003KT 270V020 9999 OVC049/// 01/01 Q1030",
      "taf": "TAF LBPD 262300Z 2700/2724 VRB03KT 9999 SCT070"
    },
    {
      "icao": "LBSF",
      "alert": "OK",
      "vis_m": 9999,
      "fzfg": false,
      "metar_trigger": false,
      "taf_trigger": false,
      "metar": "METAR LBSF 262330Z AUTO VRB02KT 9999 NCD M02/M02 Q1028 NOSIG",
      "taf": "TAF LBSF 262300Z 2700/2724 VRB04KT 9999 SCT050"
    },
    {
      "icao": "LBWN",
      "alert": "OK",
      "vis_m": 9999,
      "fzfg": false,
      "metar_trigger": false,
      "taf_trigger": false,
      "metar": "METAR LBWN 262330Z AUTO 30005KT 9999 NCD M02/M02 Q1030 NOSIG",
      "taf": "TAF LBWN 262300Z 2700/2724 30010KT 9999 SCT020"
    },
    {
      "icao": "LCLK",
      "alert": "OK",
      "vis_m": 9999,
      "fzfg": false,
      "metar_trigger": false,
      "taf_trigger": false,
      "metar": "METAR LCLK 262330Z 35017KT CAVOK 10/01 Q1015 NOSIG",
      "taf": "TAF LCLK 262330Z 2700/2800 35016KT 9999 FEW025"
    },
    {
      "icao": "LCPH",
      "alert": "OK",
      "vis_m": 9999,
      "fzfg": false,
      "metar_trigger": false,
      "taf_trigger": false,
      "metar": "METAR LCPH 262330Z 03007KT 010V080 9999 FEW030 07/00 Q1016 NOSIG",
      "taf": "TAF LCPH 262330Z 2700/2800 36008KT 9999 FEW030"
    },
    {
      "icao": "LEAL",
      "alert": "OK",
      "vis_m": 6000,
      "fzfg": false,
      "metar_trigger": false,
      "taf_trigger": false,
      "metar": "METAR LEAL 262330Z 00000KT 6000 NSC 09/08 Q1027 NOSIG",
      "taf": "TAF LEAL 262300Z 2700/2724 VRB04KT CAVOK TX19/2712Z TN06/2706Z"
    },
    {
      "icao": "LEBB",
      "alert": "OK",
      "vis_m": 9999,
      "fzfg": false,
      "metar_trigger": false,
      "taf_trigger": false,
      "metar": "METAR LEBB 262330Z AUTO 08003KT CAVOK 11/10 Q1022",
      "taf": "TAF LEBB 262300Z 2700/2724 10005KT 9999 FEW010 TX18/2712Z TN08/2705Z"
    },
    {
      "icao": "LEBL",
      "alert": "OK",
      "vis_m": 9000,
      "fzfg": false,
      "metar_trigger": false,
      "taf_trigger": false,
      "metar": "METAR LEBL 262330Z 29003KT 240V310 9000 BKN009 BKN013 12/11 Q1027 NOSIG",
      "taf": "TAF LEBL 262300Z 2700/2724 VRB03KT 9999 FEW015 TX17/2713Z TN07/2706Z"
    },
    {
      "icao": "LECH",
      "alert": "OK",
      "vis_m": 1100,
      "fzfg": false,
      "metar_trigger": false,
      "taf_trigger": false,
      "metar": "METAR LECH 262330Z AUTO 19004KT 1100 R06/1100N BR NCD 09/08 Q1027",
      "taf": ""
    },
    {
      "icao": "LEMD",
      "alert": "OK",
      "vis_m": 9999,
      "fzfg": false,
      "metar_trigger": false,
      "taf_trigger": false,
      "metar": "METAR LEMD 262330Z 34006KT CAVOK 08/02 Q1026 NOSIG",
      "taf": "TAF LEMD 262300Z 2700/2806 VRB04KT CAVOK TX20/2715Z TN02/2706Z"
    },
    {
      "icao": "LEMG",
      "alert": "OK",
      "vis_m": 9999,
      "fzfg": false,
      "metar_trigger": false,
      "taf_trigger": false,
      "metar": "METAR LEMG 262330Z 28001KT 9999 FEW015 BKN020 12/10 Q1026 NOSIG",
      "taf": "TAF LEMG 262300Z 2700/2724 29004KT 9999 FEW010 BKN020 TX20/2714Z TN08/2707Z"
    },
    {
      "icao": "LEVC",
      "alert": "OK",
      "vis_m": 5000,
      "fzfg": false,
      "metar_trigger": false,
      "taf_trigger": false,
      "metar": "METAR LEVC 262330Z 30004KT 5000 BR FEW005 08/07 Q1028 NOSIG",
      "taf": "TAF LEVC 262300Z 2700/2724 VRB04KT CAVOK TX20/2712Z TN05/2706Z"
    },
    {
      "icao": "LEXJ",
      "alert": "OK",
      "vis_m": 6000,
      "fzfg": false,
      "metar_trigger": false,
      "taf_trigger": false,
      "metar": "METAR LEXJ 262330Z AUTO 17003KT 6000 NCD 09/08 Q1021",
      "taf": "TAF LEXJ 262000Z 2621/2721 VRB03KT 9999 SCT010 TX16/2712Z TN09/2707Z"
    },
    {
      "icao": "LEZG",
      "alert": "OK",
      "vis_m": 9999,
      "fzfg": false,
      "metar_trigger": false,
      "taf_trigger": false,
      "metar": "METAR LEZG 262330Z 12006KT 100V160 CAVOK 11/08 Q1025 NOSIG",
      "taf": "TAF LEZG 262300Z 2700/2724 11009KT CAVOK TX20/2715Z TN06/2706Z"
    },
    {
      "icao": "LEZL",
      "alert": "OK",
      "vis_m": 9999,
      "fzfg": false,
      "metar_trigger": false,
      "taf_trigger": false,
      "metar": "METAR LEZL 262330Z 12004KT CAVOK 11/09 Q1024 NOSIG",
      "taf": "TAF LEZL 262000Z 2621/2721 05006KT CAVOK TX24/2715Z TN10/2707Z"
    },
    {
      "icao": "LFBD",
      "alert": "OK",
      "vis_m": 3200,
      "fzfg": false,
      "metar_trigger": false,
      "taf_trigger": false,
      "metar": "METAR LFBD 262330Z AUTO 12005KT 3200 R23/1200D BR NSC 08/08 Q1021 TEMPO 1500 MIFG",
      "taf": "TAF LFBD 262300Z 2700/2806 VRB03KT CAVOK TX19/2712Z TN08/2706Z"
    },
    {
      "icao": "LFLL",
      "alert": "OK",
      "vis_m": 9999,
      "fzfg": false,
      "metar_trigger": false,
      "taf_trigger": false,
      "metar": "METAR LFLL 262330Z 15007KT CAVOK 10/06 Q1024 NOSIG",
      "taf": "TAF LFLL 262300Z 2700/2806 17008KT CAVOK"
    },
    {
      "icao": "LFLS",
      "alert": "OK",
      "vis_m": 9999,
      "fzfg": false,
      "metar_trigger": false,
      "taf_trigger": false,
      "metar": "METAR LFLS 262330Z AUTO 10006KT CAVOK 04/03 Q1025",
      "taf": "TAF LFLS 261400Z 2615/2715 16005KT CAVOK"
    },
    {
      "icao": "LFMN",
      "alert": "OK",
      "vis_m": 9999,
      "fzfg": false,
      "metar_trigger": false,
      "taf_trigger": false,
      "metar": "METAR LFMN 262330Z 26003KT 9999 BKN026 14/11 Q1027 NOSIG",
      "taf": "TAF LFMN 262000Z 2621/2803 33010KT 9999 BKN030"
    },
    {
      "icao": "LFOB",
      "alert": "OK",
      "vis_m": 9999,
      "fzfg": false,
      "metar_trigger": false,
      "taf_trigger": false,
      "metar": "METAR LFOB 262330Z AUTO 12003KT CAVOK 08/06 Q1019 NOSIG",
      "taf": "TAF LFOB 262300Z 2700/2724 VRB03KT CAVOK"
    },
    {
      "icao": "LFPO",
      "alert": "OK",
      "vis_m": 9999,
      "fzfg": false,
      "metar_trigger": false,
      "taf_trigger": false,
      "metar": "METAR LFPO 262330Z 18003KT CAVOK 12/09 Q1020 NOSIG",
      "taf": "TAF LFPO 262300Z 2700/2806 18005KT CAVOK"
    },
    {
      "icao": "LFSB",
      "alert": "OK",
      "vis_m": 9999,
      "fzfg": false,
      "metar_trigger": false,
      "taf_trigger": false,
      "metar": "METAR LFSB 262330Z AUTO 18005KT CAVOK 08/07 Q1024 TEMPO 4000 BR",
      "taf": "TAF LFSB 262300Z 2700/2724 19003KT CAVOK"
    },
    {
      "icao": "LGAV",
      "alert": "OK",
      "vis_m": 9999,
      "fzfg": false,
      "metar_trigger": false,
      "taf_trigger": false,
      "metar": "METAR LGAV 262320Z 01005KT 9999 FEW025 07/03 Q1029 NOSIG",
      "taf": "TAF LGAV 262300Z 2700/2724 03012KT 9999 SCT020"
    },
    {
      "icao": "LGTS",
      "alert": "OK",
      "vis_m": 9999,
      "fzfg": false,
      "metar_trigger": false,
      "taf_trigger": false,
      "metar": "METAR LGTS 262320Z 11004KT 9999 SCT030 06/04 Q1030 NOSIG",
      "taf": "TAF LGTS 262300Z 2700/2724 13010KT 9999 SCT030"
    },
    {
      "icao": "LHBP",
      "alert": "OK",
      "vis_m": 9999,
      "fzfg": false,
      "metar_trigger": false,
      "taf_trigger": false,
      "metar": "METAR LHBP 262330Z 10002KT CAVOK M01/M04 Q1029 NOSIG",
      "taf": "TAF LHBP 262315Z 2700/2724 VRB03KT CAVOK"
    },
    {
      "icao": "LHDC",
      "alert": "OK",
      "vis_m": 9000,
      "fzfg": false,
      "metar_trigger": false,
      "taf_trigger": false,
      "metar": "METAR LHDC 262315Z AUTO 03002KT 9000 NCD M02/M04 Q1029",
      "taf": "TAF LHDC 261415Z 2615/2624 VRB03KT CAVOK"
    },
    {
      "icao": "LIBD",
      "alert": "OK",
      "vis_m": 9999,
      "fzfg": false,
      "metar_trigger": false,
      "taf_trigger": false,
      "metar": "METAR LIBD 262320Z 24006KT CAVOK 06/05 Q1027",
      "taf": "TAF LIBD 262300Z 2700/2724 VRB05KT CAVOK"
    },
    {
      "icao": "LIBG",
      "alert": "OK",
      "vis_m": null,
      "fzfg": false,
      "metar_trigger": false,
      "taf_trigger": false,
      "metar": "",
      "taf": "TAF LIBG 261700Z 2618/2703 VRB05KT CAVOK"
    },
    {
      "icao": "LIBP",
      "alert": "OK",
      "vis_m": 5000,
      "fzfg": false,
      "metar_trigger": false,
      "taf_trigger": false,
      "metar": "METAR LIBP 262320Z AUTO 20005KT 5000 BR NCD 05/05 Q1027",
      "taf": "TAF LIBP 262300Z 2700/2724 VRB05KT 7000 NSC"
    },
    {
      "icao": "LIBR",
      "alert": "OK",
      "vis_m": 7000,
      "fzfg": false,
      "metar_trigger": false,
      "taf_trigger": false,
      "metar": "METAR LIBR 262320Z 31006KT 7000 NSC 10/09 Q1026",
      "taf": "TAF LIBR 262300Z 2700/2724 VRB05KT 9999 SCT010"
    },
    {
      "icao": "LICA",
      "alert": "OK",
      "vis_m": 9999,
      "fzfg": false,
      "metar_trigger": false,
      "taf_trigger": false,
      "metar": "METAR LICA 262320Z 10003KT 080V140 9999 SCT020 11/11 Q1028",
      "taf": "TAF LICA 262300Z 2700/2724 VRB05KT 9999 SCT020"
    },
    {
      "icao": "LICC",
      "alert": "OK",
      "vis_m": 7000,
      "fzfg": false,
      "metar_trigger": false,
      "taf_trigger": false,
      "metar": "METAR LICC 262320Z 24004KT 7000 NSC 10/08 Q1028",
      "taf": "TAF LICC 262300Z 2700/2724 VRB05KT CAVOK"
    },
    {
      "icao": "LICJ",
      "alert": "OK",
      "vis_m": 9999,
      "fzfg": false,
      "metar_trigger": false,
      "taf_trigger": false,
      "metar": "METAR LICJ 262320Z 18003KT CAVOK 11/09 Q1027",
      "taf": "TAF LICJ 262300Z 2700/2724 VRB05KT CAVOK"
    },
    {
      "icao": "LIMC",
      "alert": "OK",
      "vis_m": 9999,
      "fzfg": false,
      "metar_trigger": false,
      "taf_trigger": false,
      "metar": "METAR LIMC 262320Z 03005KT 9999 BCFG NSC 04/04 Q1027 NOSIG",
      "taf": "TAF LIMC 261700Z 2618/2724 VRB04KT 8000 NSC"
    },
    {
      "icao": "LIME",
      "alert": "OK",
      "vis_m": 8000,
      "fzfg": false,
      "metar_trigger": false,
      "taf_trigger": false,
      "metar": "METAR LIME 262320Z 01004KT 8000 NSC 08/06 Q1027 NOSIG",
      "taf": "TAF LIME 262300Z 2700/2724 VRB05KT 3000 BR FEW030"
    },
    {
      "icao": "LIMF",
      "alert": "OK",
      "vis_m": 9999,
      "fzfg": false,
      "metar_trigger": false,
      "taf_trigger": false,
      "metar": "METAR LIMF 262320Z 30003KT CAVOK 08/04 Q1027",
      "taf": "TAF LIMF 262300Z 2700/2724 VRB04KT 4000 BR NSC"
    },
    {
      "icao": "LIMJ",
      "alert": "OK",
      "vis_m": 9999,
      "fzfg": false,
      "metar_trigger": false,
      "taf_trigger": false,
      "metar": "METAR LIMJ 262320Z VRB01KT 9999 FEW010 BKN032 14/12 Q1027",
      "taf": "TAF LIMJ 262300Z 2700/2724 VRB05KT 9999 SCT030"
    },
    {
      "icao": "LIPE",
      "alert": "OK",
      "vis_m": 4000,
      "fzfg": false,
      "metar_trigger": false,
      "taf_trigger": false,
      "metar": "METAR LIPE 262320Z 21003KT 4000 BR NSC 09/07 Q1027",
      "taf": "TAF LIPE 262300Z 2700/2724 VRB04KT 4000 BR FEW025"
    },
    {
      "icao": "LIPH",
      "alert": "OK",
      "vis_m": 400,
      "fzfg": false,
      "metar_trigger": false,
      "taf_trigger": false,
      "metar": "METAR LIPH 262320Z AUTO 33001KT 0400 0100E R07/1800D -RA FG FEW014/// 06/06 Q1027",
      "taf": "TAF LIPH 262300Z 2700/2724 VRB05KT 0100 FG OVC001"
    },
    {
      "icao": "LIPQ",
      "alert": "OK",
      "vis_m": 350,
      "fzfg": false,
      "metar_trigger": false,
      "taf_trigger": false,
      "metar": "METAR LIPQ 262320Z AUTO 36001KT 0350 R09/0900D FG SCT014/// 04/04 Q1027",
      "taf": "TAF LIPQ 262300Z 2700/2724 VRB04KT 0150 FG OVC002"
    },
    {
      "icao": "LIPR",
      "alert": "OK",
      "vis_m": 2400,
      "fzfg": false,
      "metar_trigger": false,
      "taf_trigger": false,
      "metar": "METAR LIPR 262320Z AUTO 23001KT 2400 BR NCD 05/05 Q1027",
      "taf": "TAF LIPR 262300Z 2700/2724 VRB04KT 3000 BR NSC"
    },
    {
      "icao": "LIPX",
      "alert": "OK",
      "vis_m": 7000,
      "fzfg": false,
      "metar_trigger": false,
      "taf_trigger": false,
      "metar": "METAR LIPX 262320Z 33002KT 7000 NSC 06/06 Q1027",
      "taf": "TAF LIPX 262300Z 2700/2724 VRB05KT 3000 BR NSC"
    },
    {
      "icao": "LIPY",
      "alert": "OK",
      "vis_m": 250,
      "fzfg": false,
      "metar_trigger": false,
      "taf_trigger": false,
      "metar": "METAR LIPY 262320Z AUTO 20003KT 0250 R22/P2000N -RA FG NCD 07/07 Q1027",
      "taf": "TAF LIPY 262300Z 2700/2724 VRB04KT 7000 NSC"
    },
    {
      "icao": "LIPZ",
      "alert": "OK",
      "vis_m": 50,
      "fzfg": false,
      "metar_trigger": false,
      "taf_trigger": false,
      "metar": "METAR LIPZ 262320Z 05001KT 0050 R04R/0275N FG VV001 06/06 Q1027 NOSIG",
      "taf": "TAF LIPZ 262300Z 2700/2806 VRB04KT 0100 FG OVC001"
    },
    {
      "icao": "LIRF",
      "alert": "OK",
      "vis_m": 8000,
      "fzfg": false,
      "metar_trigger": false,
      "taf_trigger": false,
      "metar": "METAR LIRF 262320Z 10002KT 8000 BCFG NSC 09/09 Q1027 BECMG 4000 BCFG",
      "taf": "TAF LIRF 262300Z 2700/2806 VRB05KT 4000 MIFG FEW030"
    },
    {
      "icao": "LIRN",
      "alert": "OK",
      "vis_m": 4000,
      "fzfg": false,
      "metar_trigger": false,
      "taf_trigger": false,
      "metar": "METAR LIRN 262320Z 03003KT 4000 BR NSC 10/09 Q1027 NOSIG",
      "taf": "TAF LIRN 262300Z 2700/2724 VRB05KT 6000 NSC"
    },
    {
      "icao": "LIRP",
      "alert": "OK",
      "vis_m": 6000,
      "fzfg": false,
      "metar_trigger": false,
      "taf_trigger": false,
      "metar": "METAR LIRP 262315Z VRB02KT 6000 BKN020 08/08 Q1028 NOSIG",
      "taf": "TAF LIRP 262300Z 2700/2724 VRB02KT 0600 BCFG BKN005"
    },
    {
      "icao": "LIRZ",
      "alert": "OK",
      "vis_m": 9999,
      "fzfg": false,
      "metar_trigger": false,
      "taf_trigger": false,
      "metar": "METAR LIRZ 262320Z AUTO 35003KT 9999 NCD 08/07 Q1027",
      "taf": "TAF LIRZ 262300Z 2700/2724 VRB05KT 4000 BR NSC"
    },
    {
      "icao": "LJLJ",
      "alert": "OK",
      "vis_m": 9999,
      "fzfg": false,
      "metar_trigger": false,
      "taf_trigger": false,
      "metar": "METAR LJLJ 262330Z 31002KT CAVOK 02/02 Q1027 NOSIG",
      "taf": "TAF LJLJ 262300Z 2700/2800 VRB02KT CAVOK"
    },
    {
      "icao": "LKMT",
      "alert": "OK",
      "vis_m": 9999,
      "fzfg": false,
      "metar_trigger": false,
      "taf_trigger": false,
      "metar": "METAR LKMT 262330Z 24011KT CAVOK 02/M01 Q1025 NOSIG",
      "taf": "TAF LKMT 262300Z 2700/2724 22012KT CAVOK"
    },
    {
      "icao": "LKPR",
      "alert": "OK",
      "vis_m": 9999,
      "fzfg": false,
      "metar_trigger": false,
      "taf_trigger": false,
      "metar": "METAR LKPR 262330Z 20005KT 9999 MIFG NSC 04/04 Q1024 NOSIG",
      "taf": "TAF LKPR 262300Z 2700/2806 VRB02KT CAVOK"
    },
    {
      "icao": "LLBG",
      "alert": "OK",
      "vis_m": 9999,
      "fzfg": false,
      "metar_trigger": false,
      "taf_trigger": false,
      "metar": "METAR LLBG 262320Z 28009KT 9999 FEW050 14/03 Q1015 TEMPO RA BKN040 RMK BKN096",
      "taf": "TAF LLBG 262305Z 2700/2724 29008KT 9999 SCT040 TX17/2711Z TN12/2704Z"
    },
    {
      "icao": "LMML",
      "alert": "OK",
      "vis_m": 9999,
      "fzfg": false,
      "metar_trigger": false,
      "taf_trigger": false,
      "metar": "METAR LMML 262345Z 27002KT CAVOK 11/10 Q1028 NOSIG",
      "taf": "TAF LMML 262300Z 2700/2724 VRB05KT 9999 FEW015"
    },
    {
      "icao": "LOWW",
      "alert": "OK",
      "vis_m": 9999,
      "fzfg": false,
      "metar_trigger": false,
      "taf_trigger": false,
      "metar": "METAR LOWW 262320Z 11003KT 9999 NSC 03/M00 Q1026 NOSIG",
      "taf": "TAF LOWW 262315Z 2700/2806 15005KT CAVOK TX11/2715Z TN01/2706Z"
    },
    {
      "icao": "LPFR",
      "alert": "OK",
      "vis_m": 9999,
      "fzfg": false,
      "metar_trigger": false,
      "taf_trigger": false,
      "metar": "METAR LPFR 262330Z 29003KT CAVOK 12/10 Q1024",
      "taf": "TAF LPFR 262300Z 2700/2724 VRB02KT CAVOK"
    },
    {
      "icao": "LPMA",
      "alert": "OK",
      "vis_m": 9999,
      "fzfg": false,
      "metar_trigger": false,
      "taf_trigger": false,
      "metar": "METAR LPMA 262330Z 34017KT 290V010 9999 BKN015 17/09 Q1025",
      "taf": "TAF LPMA 262300Z 2700/2724 01015KT 9999 SCT015"
    },
    {
      "icao": "LPPR",
      "alert": "OK",
      "vis_m": 9999,
      "fzfg": false,
      "metar_trigger": false,
      "taf_trigger": false,
      "metar": "METAR LPPR 262330Z 12003KT 9999 FEW011 11/10 Q1025",
      "taf": "TAF LPPR 262300Z 2700/2724 VRB02KT 9999 SCT012"
    },
    {
      "icao": "LPPS",
      "alert": "OK",
      "vis_m": 9999,
      "fzfg": false,
      "metar_trigger": false,
      "taf_trigger": false,
      "metar": "METAR LPPS 262330Z 36018KT 9999 SCT013 15/12 Q1026",
      "taf": "TAF LPPS 262300Z 2700/2806 02017KT 9999 SCT015"
    },
    {
      "icao": "LPPT",
      "alert": "OK",
      "vis_m": 9999,
      "fzfg": false,
      "metar_trigger": false,
      "taf_trigger": false,
      "metar": "METAR LPPT 262330Z 31007KT CAVOK 14/10 Q1024",
      "taf": "TAF LPPT 262300Z 2700/2806 32007KT 9999 FEW012"
    },
    {
      "icao": "LQBK",
      "alert": "OK",
      "vis_m": 9999,
      "fzfg": false,
      "metar_trigger": false,
      "taf_trigger": false,
      "metar": "METAR LQBK 262330Z VRB01KT CAVOK 01/00 Q1028 NOSIG",
      "taf": "TAF LQBK 262300Z 2700/2724 17005KT CAVOK TX16/2714Z TNM02/2706Z"
    },
    {
      "icao": "LQSA",
      "alert": "OK",
      "vis_m": 9999,
      "fzfg": false,
      "metar_trigger": false,
      "taf_trigger": false,
      "metar": "METAR LQSA 262330Z VRB03KT CAVOK 01/01 Q1028",
      "taf": "TAF LQSA 262300Z 2700/2724 VRB02KT CAVOK TX17/2714Z TNM00/2705Z"
    },
    {
      "icao": "LQTZ",
      "alert": "OK",
      "vis_m": 9999,
      "fzfg": false,
      "metar_trigger": false,
      "taf_trigger": false,
      "metar": "METAR LQTZ 262330Z 00000KT CAVOK M00/M00 Q1028",
      "taf": "TAF LQTZ 262300Z 2700/2724 VRB02KT CAVOK TX16/2714Z TNM03/2706Z"
    },
    {
      "icao": "LRBC",
      "alert": "OK",
      "vis_m": 9999,
      "fzfg": false,
      "metar_trigger": false,
      "taf_trigger": false,
      "metar": "METAR LRBC 262330Z AUTO VRB02KT 9999 OVC021/// M00/M02 Q1031",
      "taf": "TAF LRBC 262300Z 2700/2709 VRB04KT 5000 BR BKN015"
    },
    {
      "icao": "LRBS",
      "alert": "OK",
      "vis_m": 9000,
      "fzfg": false,
      "metar_trigger": false,
      "taf_trigger": false,
      "metar": "METAR LRBS 262330Z 00000KT 9000 BKN037 M02/M03 Q1031 NOSIG",
      "taf": "TAF LRBS 262300Z 2700/2724 VRB04KT CAVOK"
    },
    {
      "icao": "LRBV",
      "alert": "OK",
      "vis_m": 9999,
      "fzfg": false,
      "metar_trigger": false,
      "taf_trigger": false,
      "metar": "METAR LRBV 262330Z AUTO VRB02KT 9999 NCD M06/M07 Q1029",
      "taf": "TAF LRBV 262000Z 2621/2706 VRB03KT CAVOK"
    },
    {
      "icao": "LRCL",
      "alert": "OK",
      "vis_m": 9999,
      "fzfg": false,
      "metar_trigger": false,
      "taf_trigger": false,
      "metar": "METAR LRCL 262330Z 00000KT CAVOK M04/M06 Q1029",
      "taf": "TAF LRCL 262300Z 2700/2709 VRB03KT CAVOK"
    },
    {
      "icao": "LRCV",
      "alert": "OK",
      "vis_m": 9999,
      "fzfg": false,
      "metar_trigger": false,
      "taf_trigger": false,
      "metar": "METAR LRCV 262330Z 15002KT CAVOK M01/M02 Q1030",
      "taf": "TAF LRCV 262300Z 2700/2709 VRB03KT CAVOK"
    },
    {
      "icao": "LRIA",
      "alert": "OK",
      "vis_m": 9999,
      "fzfg": false,
      "metar_trigger": false,
      "taf_trigger": false,
      "metar": "METAR LRIA 262330Z 04005KT 9999 OVC016 M01/M03 Q1031",
      "taf": "TAF LRIA 262300Z 2700/2709 VRB04KT 5000 BR BKN015"
    },
    {
      "icao": "LROP",
      "alert": "OK",
      "vis_m": 7000,
      "fzfg": false,
      "metar_trigger": false,
      "taf_trigger": false,
      "metar": "METAR LROP 262330Z 35001KT 7000 SCT037 M03/M03 Q1031 NOSIG",
      "taf": "TAF LROP 262300Z 2700/2724 VRB04KT CAVOK"
    },
    {
      "icao": "LRSB",
      "alert": "OK",
      "vis_m": 9999,
      "fzfg": false,
      "metar_trigger": false,
      "taf_trigger": false,
      "metar": "METAR LRSB 262330Z 10002KT CAVOK M04/M04 Q1028",
      "taf": "TAF LRSB 262300Z 2700/2724 VRB04KT CAVOK"
    },
    {
      "icao": "LRSM",
      "alert": "OK",
      "vis_m": 9999,
      "fzfg": false,
      "metar_trigger": false,
      "taf_trigger": false,
      "metar": "METAR LRSM 262330Z AUTO 08004KT 9999 NCD M02/M04 Q1030",
      "taf": "TAF LRSM 261400Z 2615/2624 VRB03KT CAVOK"
    },
    {
      "icao": "LRSV",
      "alert": "OK",
      "vis_m": 9999,
      "fzfg": false,
      "metar_trigger": false,
      "taf_trigger": false,
      "metar": "METAR LRSV 262330Z 07005KT 9999 FEW015 M04/M04 Q1029",
      "taf": "TAF LRSV 262300Z 2700/2709 VRB04KT 5000 BR NSC"
    },
    {
      "icao": "LRTM",
      "alert": "OK",
      "vis_m": 9000,
      "fzfg": false,
      "metar_trigger": false,
      "taf_trigger": false,
      "metar": "METAR LRTM 262330Z AUTO 09006KT 9000 NCD M04/M05 Q1029",
      "taf": "TAF LRTM 262000Z 2621/2706 VRB04KT CAVOK"
    },
    {
      "icao": "LRTR",
      "alert": "OK",
      "vis_m": 9999,
      "fzfg": false,
      "metar_trigger": false,
      "taf_trigger": false,
      "metar": "METAR LRTR 262330Z 10006KT CAVOK M01/M01 Q1029",
      "taf": "TAF LRTR 262300Z 2700/2724 09006KT CAVOK"
    },
    {
      "icao": "LTAC",
      "alert": "OK",
      "vis_m": 9999,
      "fzfg": false,
      "metar_trigger": false,
      "taf_trigger": false,
      "metar": "METAR LTAC 262320Z 32012KT 9999 BKN040 M01/M06 Q1019 NOSIG RMK RWY21C 29009KT RWY03L 30009KT RWY21R 28007KT RWY03R 30010KT RWY21L 30010KT",
      "taf": "TAF LTAC 262240Z 2700/2724 VRB02KT 9999 BKN040"
    },
    {
      "icao": "LTFM",
      "alert": "OK",
      "vis_m": 9999,
      "fzfg": false,
      "metar_trigger": false,
      "taf_trigger": false,
      "metar": "METAR LTFM 262320Z 02012KT 330V040 9999 BKN030 05/M01 Q1029 NOSIG RMK RWY17L 01013KT RWY34L 01012KT RWY16R 01011KT RWY36 02015KT RWY18 02013KT",
      "taf": "TAF LTFM 262240Z 2700/2806 36015KT 9999 BKN028"
    },
    {
      "icao": "LUKK",
      "alert": "OK",
      "vis_m": 9999,
      "fzfg": false,
      "metar_trigger": false,
      "taf_trigger": false,
      "metar": "METAR LUKK 262330Z 01005KT 330V050 9999 OVC021 M02/M05 Q1031 NOSIG",
      "taf": "TAF LUKK 262316Z 2700/2724 VRB06KT 9999 OVC014"
    },
    {
      "icao": "LWOH",
      "alert": "OK",
      "vis_m": null,
      "fzfg": false,
      "metar_trigger": false,
      "taf_trigger": false,
      "metar": "",
      "taf": "TAF LWOH 262320Z 2700/2724 VRB02KT CAVOK"
    },
    {
      "icao": "LWSK",
      "alert": "OK",
      "vis_m": null,
      "fzfg": false,
      "metar_trigger": false,
      "taf_trigger": false,
      "metar": "",
      "taf": "TAF LWSK 262320Z 2700/2724 VRB02KT CAVOK"
    },
    {
      "icao": "LYBE",
      "alert": "OK",
      "vis_m": 9999,
      "fzfg": false,
      "metar_trigger": false,
      "taf_trigger": false,
      "metar": "METAR LYBE 262330Z 06004KT CAVOK 01/M01 Q1029 NOSIG",
      "taf": "TAF LYBE 262300Z 2700/2724 07005KT CAVOK TX13/2713Z TNM00/2706Z"
    },
    {
      "icao": "LYNI",
      "alert": "OK",
      "vis_m": 9999,
      "fzfg": false,
      "metar_trigger": false,
      "taf_trigger": false,
      "metar": "METAR LYNI 262330Z VRB02KT CAVOK 01/M00 Q1029 NOSIG",
      "taf": "TAF LYNI 262300Z 2700/2724 07004KT CAVOK TX14/2714Z TNM02/2705Z"
    },
    {
      "icao": "LYPG",
      "alert": "OK",
      "vis_m": 9999,
      "fzfg": false,
      "metar_trigger": false,
      "taf_trigger": false,
      "metar": "METAR LYPG 262330Z VRB02KT CAVOK 06/01 Q1027 NOSIG",
      "taf": "TAF LYPG 262300Z 2700/2724 36005KT CAVOK TX19/2712Z TN04/2705Z"
    },
    {
      "icao": "LZIB",
      "alert": "OK",
      "vis_m": 9999,
      "fzfg": false,
      "metar_trigger": false,
      "taf_trigger": false,
      "metar": "METAR LZIB 262330Z 03007KT CAVOK 01/M01 Q1028 NOSIG",
      "taf": "TAF LZIB 262315Z 2700/2800 06007KT CAVOK"
    },
    {
      "icao": "LZKZ",
      "alert": "OK",
      "vis_m": 9999,
      "fzfg": false,
      "metar_trigger": false,
      "taf_trigger": false,
      "metar": "METAR LZKZ 262330Z 28002KT CAVOK M01/M03 Q1028 NOSIG",
      "taf": "TAF LZKZ 262315Z 2700/2800 VRB02KT CAVOK"
    },
    {
      "icao": "LZTT",
      "alert": "OK",
      "vis_m": 9999,
      "fzfg": false,
      "metar_trigger": false,
      "taf_trigger": false,
      "metar": "METAR LZTT 262330Z 28003KT CAVOK M04/M05 Q1026",
      "taf": "TAF LZTT 262315Z 2700/2800 VRB02KT CAVOK"
    },
    {
      "icao": "OEJN",
      "alert": "OK",
      "vis_m": 9999,
      "fzfg": false,
      "metar_trigger": false,
      "taf_trigger": false,
      "metar": "METAR OEJN 262300Z 32009KT 9999 FEW040 24/15 Q1011 NOSIG",
      "taf": "TAF OEJN 262300Z 2700/2806 VRB03KT CAVOK"
    },
    {
      "icao": "OEMA",
      "alert": "OK",
      "vis_m": 9999,
      "fzfg": false,
      "metar_trigger": false,
      "taf_trigger": false,
      "metar": "METAR OEMA 262300Z 23009KT CAVOK 23/05 Q1013 NOSIG",
      "taf": "TAF OEMA 262300Z 2700/2806 VRB03KT 7000 NSC"
    },
    {
      "icao": "OJAI",
      "alert": "OK",
      "vis_m": 2500,
      "fzfg": false,
      "metar_trigger": false,
      "taf_trigger": false,
      "metar": "METAR OJAI 262300Z 28015KT 2500 -DZ SCT010 SCT020 07/06 Q1015 NOSIG",
      "taf": "TAF OJAI 262208Z 2700/2806 28018KT 3000 -RA BLDU SCT025 BKN030"
    },
    {
      "icao": "OMAA",
      "alert": "OK",
      "vis_m": 9999,
      "fzfg": false,
      "metar_trigger": false,
      "taf_trigger": false,
      "metar": "METAR OMAA 262330Z 30007KT CAVOK 20/13 Q1012 NOSIG",
      "taf": "TAF OMAA 262300Z 2700/2806 26007KT 8000 NSC"
    },
    {
      "icao": "OMDB",
      "alert": "OK",
      "vis_m": 9999,
      "fzfg": false,
      "metar_trigger": false,
      "taf_trigger": false,
      "metar": "METAR OMDB 262300Z 26006KT 9999 FEW035 22/12 Q1011 NOSIG",
      "taf": "TAF OMDB 262300Z 2700/2806 27010KT 8000 NSC"
    },
    {
      "icao": "UAAA",
      "alert": "OK",
      "vis_m": 9999,
      "fzfg": false,
      "metar_trigger": false,
      "taf_trigger": false,
      "metar": "METAR UAAA 262330Z 20003MPS 160V230 9999 BKN050CB OVC100 04/M01 Q1016 NOSIG",
      "taf": "TAF UAAA 262301Z 2700/2724 22003G08MPS 3100 -SHRASN BR BKN011CB OVC020 TX02/2708Z TNM07/2702Z"
    },
    {
      "icao": "UBBB",
      "alert": "OK",
      "vis_m": 9999,
      "fzfg": false,
      "metar_trigger": false,
      "taf_trigger": false,
      "metar": "METAR UBBB 262330Z 05010KT CAVOK 06/03 Q1016 NOSIG",
      "taf": "TAF UBBB 262306Z 2700/2724 06010KT 9999 BKN030 TX08/2710Z TN04/2701Z"
    },
    {
      "icao": "UDSG",
      "alert": "OK",
      "vis_m": 9999,
      "fzfg": false,
      "metar_trigger": false,
      "taf_trigger": false,
      "metar": "METAR UDSG 262330Z 07020G38KT 9999 OVC026 01/M03 Q1005 NOSIG",
      "taf": "TAF UDSG 262300Z 2700/2724 VRB06KT 9999 BKN040"
    },
    {
      "icao": "UDYZ",
      "alert": "OK",
      "vis_m": 9999,
      "fzfg": false,
      "metar_trigger": false,
      "taf_trigger": false,
      "metar": "METAR UDYZ 262330Z 04004KT 9999 -SHRA FEW010 BKN043CB 04/03 Q1005 NOSIG",
      "taf": "TAF UDYZ 262300Z 2700/2724 13006KT 9999 BKN040"
    },
    {
      "icao": "UGKO",
      "alert": "OK",
      "vis_m": 9999,
      "fzfg": false,
      "metar_trigger": false,
      "taf_trigger": false,
      "metar": "METAR UGKO 262330Z 08006KT 9999 -RA SCT015 BKN028 02/02 Q1015 NOSIG",
      "taf": "TAF UGKO 262300Z 2700/2724 08007KT 9999 -RA SCT020 OVC040 TX03/2712Z TN01/2703Z"
    }
  ]
}