{
  "ts_utc": "2026-07-09T23:19:59Z",
  "threshold_m": 150,
  "source": "stations_override.txt (ICAO list) + aviationweather.gov (METAR/TAF raw)",
  "station_count": 159,
  "stations": [
    {
      "icao": "BIKF",
      "alert": "OK",
      "vis_m": 9999,
      "fzfg": false,
      "metar_trigger": false,
      "taf_trigger": false,
      "metar": "METAR BIKF 092300Z 29016KT 9999 -SHRA FEW008CB BKN035 BKN060 08/08 Q1001",
      "taf": "TAF BIKF 092254Z 1000/1100 27012KT 9999 -SHRA FEW010 BKN025 TX11/1014Z TN08/1001Z"
    },
    {
      "icao": "BKPR",
      "alert": "OK",
      "vis_m": 9999,
      "fzfg": false,
      "metar_trigger": false,
      "taf_trigger": false,
      "metar": "METAR BKPR 092300Z VRB01KT CAVOK 15/09 Q1016 NOSIG",
      "taf": ""
    },
    {
      "icao": "EBCI",
      "alert": "OK",
      "vis_m": 9999,
      "fzfg": false,
      "metar_trigger": false,
      "taf_trigger": false,
      "metar": "METAR EBCI 092250Z 06007KT CAVOK 20/14 Q1017 NOSIG",
      "taf": "TAF EBCI 091700Z 0918/1024 06005KT CAVOK"
    },
    {
      "icao": "EDDB",
      "alert": "OK",
      "vis_m": 9999,
      "fzfg": false,
      "metar_trigger": false,
      "taf_trigger": false,
      "metar": "METAR EDDB 092250Z AUTO 26004KT CAVOK 15/13 Q1016 NOSIG",
      "taf": "TAF EDDB 091700Z 0918/1018 31010KT CAVOK"
    },
    {
      "icao": "EDDH",
      "alert": "OK",
      "vis_m": 9999,
      "fzfg": false,
      "metar_trigger": false,
      "taf_trigger": false,
      "metar": "METAR EDDH 092250Z AUTO 32004KT 9999 OVC014 16/14 Q1017 TEMPO OVC015",
      "taf": "TAF EDDH 091700Z 0918/1024 30009KT 9999 FEW020"
    },
    {
      "icao": "EDDK",
      "alert": "OK",
      "vis_m": 9999,
      "fzfg": false,
      "metar_trigger": false,
      "taf_trigger": false,
      "metar": "METAR EDDK 092250Z AUTO 06006KT CAVOK 15/13 Q1018 NOSIG",
      "taf": "TAF EDDK 091700Z 0918/1024 35007KT CAVOK"
    },
    {
      "icao": "EDDN",
      "alert": "OK",
      "vis_m": 9999,
      "fzfg": false,
      "metar_trigger": false,
      "taf_trigger": false,
      "metar": "METAR EDDN 092250Z AUTO 10003KT 360V160 CAVOK 16/12 Q1017",
      "taf": "TAF EDDN 091700Z 0918/1018 36006KT CAVOK"
    },
    {
      "icao": "EDDS",
      "alert": "OK",
      "vis_m": 9999,
      "fzfg": false,
      "metar_trigger": false,
      "taf_trigger": false,
      "metar": "METAR EDDS 092250Z AUTO 05003KT CAVOK 19/12 Q1016",
      "taf": "TAF EDDS 091700Z 0918/1018 02006KT CAVOK"
    },
    {
      "icao": "EDFH",
      "alert": "OK",
      "vis_m": 9999,
      "fzfg": false,
      "metar_trigger": false,
      "taf_trigger": false,
      "metar": "METAR EDFH 092250Z 05003KT 010V110 CAVOK 16/14 Q1018",
      "taf": "TAF EDFH 091700Z 0918/1018 02008KT CAVOK"
    },
    {
      "icao": "EDJA",
      "alert": "OK",
      "vis_m": 9999,
      "fzfg": false,
      "metar_trigger": false,
      "taf_trigger": false,
      "metar": "METAR EDJA 092250Z AUTO 07005KT 9999 // NCD 16/12 Q1018",
      "taf": "TAF EDJA 091700Z 0918/1003 05004KT CAVOK"
    },
    {
      "icao": "EDLW",
      "alert": "OK",
      "vis_m": 9999,
      "fzfg": false,
      "metar_trigger": false,
      "taf_trigger": false,
      "metar": "METAR EDLW 092250Z AUTO 04002KT 9999 // NCD 16/14 Q1018",
      "taf": "TAF EDLW 091700Z 0918/1018 03005KT 9999 FEW035"
    },
    {
      "icao": "EDNY",
      "alert": "OK",
      "vis_m": 9999,
      "fzfg": false,
      "metar_trigger": false,
      "taf_trigger": false,
      "metar": "METAR EDNY 092250Z AUTO 03008KT 9999 // NCD 20/13 Q1016",
      "taf": "TAF EDNY 091700Z 0918/1003 04006KT CAVOK"
    },
    {
      "icao": "EDSB",
      "alert": "OK",
      "vis_m": 9999,
      "fzfg": false,
      "metar_trigger": false,
      "taf_trigger": false,
      "metar": "METAR EDSB 092250Z AUTO 04008KT 9999 // NCD 21/13 Q1015",
      "taf": "TAF EDSB 091700Z 0918/1018 02009KT CAVOK"
    },
    {
      "icao": "EETN",
      "alert": "OK",
      "vis_m": 9999,
      "fzfg": false,
      "metar_trigger": false,
      "taf_trigger": false,
      "metar": "METAR EETN 092250Z 07003KT CAVOK 14/13 Q1012",
      "taf": "TAF EETN 091730Z 0918/1018 06007KT 9999 FEW025"
    },
    {
      "icao": "EFTU",
      "alert": "OK",
      "vis_m": 9999,
      "fzfg": false,
      "metar_trigger": false,
      "taf_trigger": false,
      "metar": "METAR EFTU 092250Z AUTO 01003KT CAVOK 13/13 Q1013",
      "taf": "TAF EFTU 092037Z 0921/1021 33003KT CAVOK"
    },
    {
      "icao": "EGBB",
      "alert": "OK",
      "vis_m": 9999,
      "fzfg": false,
      "metar_trigger": false,
      "taf_trigger": false,
      "metar": "METAR EGBB 092250Z 32007KT CAVOK 23/14 Q1017",
      "taf": "TAF EGBB 092255Z 1000/1024 VRB04KT CAVOK"
    },
    {
      "icao": "EGGP",
      "alert": "OK",
      "vis_m": 9000,
      "fzfg": false,
      "metar_trigger": false,
      "taf_trigger": false,
      "metar": "METAR EGGP 092250Z 31004KT 9000 NSC 16/14 Q1018",
      "taf": "TAF EGGP 092255Z 1000/1024 VRB02KT 9000 NSC"
    },
    {
      "icao": "EGGW",
      "alert": "OK",
      "vis_m": 9999,
      "fzfg": false,
      "metar_trigger": false,
      "taf_trigger": false,
      "metar": "METAR EGGW 092250Z AUTO 12007KT 9999 NCD 22/16 Q1017",
      "taf": "TAF EGGW 092259Z 1000/1024 16006KT CAVOK"
    },
    {
      "icao": "EGKK",
      "alert": "OK",
      "vis_m": 9999,
      "fzfg": false,
      "metar_trigger": false,
      "taf_trigger": false,
      "metar": "METAR EGKK 092250Z 09003KT CAVOK 22/16 Q1017",
      "taf": "TAF EGKK 092254Z 1000/1106 07006KT CAVOK"
    },
    {
      "icao": "EGNM",
      "alert": "OK",
      "vis_m": 9999,
      "fzfg": false,
      "metar_trigger": false,
      "taf_trigger": false,
      "metar": "METAR EGNM 092250Z 29005KT CAVOK 19/15 Q1018",
      "taf": "TAF EGNM 092255Z 1000/1024 VRB04KT CAVOK"
    },
    {
      "icao": "EGPD",
      "alert": "OK",
      "vis_m": 9999,
      "fzfg": false,
      "metar_trigger": false,
      "taf_trigger": false,
      "metar": "METAR EGPD 092250Z AUTO 35004KT 9999 NCD 14/14 Q1018",
      "taf": "TAF EGPD 092254Z 1000/1024 VRB02KT 9999 FEW040"
    },
    {
      "icao": "EGPF",
      "alert": "OK",
      "vis_m": 9999,
      "fzfg": false,
      "metar_trigger": false,
      "taf_trigger": false,
      "metar": "METAR EGPF 092250Z AUTO 29004KT 260V320 9999 NCD 16/14 Q1019",
      "taf": "TAF EGPF 092258Z 1000/1024 26005KT 9999 FEW025"
    },
    {
      "icao": "EHBK",
      "alert": "OK",
      "vis_m": 9999,
      "fzfg": false,
      "metar_trigger": false,
      "taf_trigger": false,
      "metar": "METAR EHBK 092255Z AUTO 04005KT 9999 NSC 18/14 Q1017",
      "taf": "TAF EHBK 091700Z 0918/1024 06007KT CAVOK"
    },
    {
      "icao": "EHEH",
      "alert": "OK",
      "vis_m": 9999,
      "fzfg": false,
      "metar_trigger": false,
      "taf_trigger": false,
      "metar": "METAR EHEH 092255Z AUTO 06005KT 9999 OVC340 19/15 Q1018 BLU",
      "taf": "TAF EHEH 091715Z 0918/1024 06006KT CAVOK"
    },
    {
      "icao": "EKBI",
      "alert": "OK",
      "vis_m": 9999,
      "fzfg": false,
      "metar_trigger": false,
      "taf_trigger": false,
      "metar": "METAR EKBI 092250Z AUTO 29006KT 9999 OVC003/// 14/13 Q1018",
      "taf": ""
    },
    {
      "icao": "EKCH",
      "alert": "OK",
      "vis_m": 9999,
      "fzfg": false,
      "metar_trigger": false,
      "taf_trigger": false,
      "metar": "METAR EKCH 092250Z AUTO 33005KT 9999 NCD 17/07 Q1015 NOSIG",
      "taf": "TAF EKCH 092027Z 0921/1021 33008KT CAVOK"
    },
    {
      "icao": "ENAL",
      "alert": "OK",
      "vis_m": 9999,
      "fzfg": false,
      "metar_trigger": false,
      "taf_trigger": false,
      "metar": "METAR ENAL 092250Z AUTO 25011KT 9999 OVC040/// 14/13 Q1018",
      "taf": "TAF ENAL 092000Z 0921/1006 26012KT 9999 FEW020 BKN040"
    },
    {
      "icao": "ENBR",
      "alert": "OK",
      "vis_m": 9999,
      "fzfg": false,
      "metar_trigger": false,
      "taf_trigger": false,
      "metar": "METAR ENBR 092250Z 32005KT CAVOK 13/12 Q1018 RMK WIND 1200FT 36010KT",
      "taf": "TAF ENBR 091700Z 0918/1018 33008KT 9999 FEW030"
    },
    {
      "icao": "ENGM",
      "alert": "OK",
      "vis_m": 9999,
      "fzfg": false,
      "metar_trigger": false,
      "taf_trigger": false,
      "metar": "METAR ENGM 092250Z 35005KT CAVOK 17/12 Q1016",
      "taf": "TAF ENGM 091700Z 0918/1018 36004KT CAVOK"
    },
    {
      "icao": "ENHD",
      "alert": "OK",
      "vis_m": 9999,
      "fzfg": false,
      "metar_trigger": false,
      "taf_trigger": false,
      "metar": "METAR ENHD 092250Z AUTO 35010KT 9999 NCD 14/13 Q1017",
      "taf": "TAF ENHD 091400Z 0915/0922 34012KT 9999 FEW010"
    },
    {
      "icao": "ENTC",
      "alert": "OK",
      "vis_m": 9999,
      "fzfg": false,
      "metar_trigger": false,
      "taf_trigger": false,
      "metar": "METAR ENTC 092250Z VRB02KT 9999 BKN038 BKN059 12/09 Q1013 RMK WIND 2600FT 19021KT",
      "taf": "TAF ENTC 091700Z 0918/1018 26008KT 9999 SCT018 BKN030"
    },
    {
      "icao": "ENTO",
      "alert": "OK",
      "vis_m": 3500,
      "fzfg": false,
      "metar_trigger": false,
      "taf_trigger": false,
      "metar": "METAR ENTO 092250Z AUTO 00000KT 3500 // NCD 17/08 Q1015",
      "taf": "TAF ENTO 091700Z 0918/1018 22010KT CAVOK"
    },
    {
      "icao": "ENVA",
      "alert": "OK",
      "vis_m": 9999,
      "fzfg": false,
      "metar_trigger": false,
      "taf_trigger": false,
      "metar": "METAR ENVA 092250Z 10002KT 9999 BKN032 14/13 Q1018 RMK WIND 670FT 11004KT",
      "taf": "TAF ENVA 091700Z 0918/1018 VRB05KT 9999 BKN030"
    },
    {
      "icao": "ENZV",
      "alert": "OK",
      "vis_m": 9999,
      "fzfg": false,
      "metar_trigger": false,
      "taf_trigger": false,
      "metar": "METAR ENZV 092250Z 33005KT CAVOK 16/13 Q1017",
      "taf": "TAF ENZV 091700Z 0918/1018 32008KT 9999 FEW030"
    },
    {
      "icao": "EPGD",
      "alert": "OK",
      "vis_m": 9999,
      "fzfg": false,
      "metar_trigger": false,
      "taf_trigger": false,
      "metar": "METAR EPGD 092300Z 29008KT CAVOK 13/11 Q1013",
      "taf": "TAF EPGD 091730Z 0918/1018 32016KT CAVOK"
    },
    {
      "icao": "EPKK",
      "alert": "OK",
      "vis_m": 9999,
      "fzfg": false,
      "metar_trigger": false,
      "taf_trigger": false,
      "metar": "METAR EPKK 092300Z 22003KT CAVOK 12/10 Q1014",
      "taf": "TAF EPKK 092030Z 0921/1021 29007KT CAVOK"
    },
    {
      "icao": "EPKT",
      "alert": "OK",
      "vis_m": 9999,
      "fzfg": false,
      "metar_trigger": false,
      "taf_trigger": false,
      "metar": "METAR EPKT 092300Z VRB01KT CAVOK 09/08 Q1014",
      "taf": "TAF EPKT 091730Z 0918/1018 30006KT CAVOK"
    },
    {
      "icao": "EPLB",
      "alert": "OK",
      "vis_m": 9999,
      "fzfg": false,
      "metar_trigger": false,
      "taf_trigger": false,
      "metar": "METAR EPLB 092300Z 30008KT CAVOK 15/10 Q1011",
      "taf": "TAF EPLB 091730Z 0918/1018 29010KT 9999 BKN030"
    },
    {
      "icao": "EPMO",
      "alert": "OK",
      "vis_m": 9999,
      "fzfg": false,
      "metar_trigger": false,
      "taf_trigger": false,
      "metar": "METAR EPMO 092300Z 29009KT CAVOK 15/11 Q1011",
      "taf": "TAF EPMO 091730Z 0918/1018 29012KT 9999 SCT040"
    },
    {
      "icao": "EPPO",
      "alert": "OK",
      "vis_m": 9999,
      "fzfg": false,
      "metar_trigger": false,
      "taf_trigger": false,
      "metar": "METAR EPPO 092300Z 32004KT CAVOK 13/08 Q1015",
      "taf": "TAF EPPO 091730Z 0918/1018 32012KT CAVOK"
    },
    {
      "icao": "EPRA",
      "alert": "OK",
      "vis_m": 9999,
      "fzfg": false,
      "metar_trigger": false,
      "taf_trigger": false,
      "metar": "METAR EPRA 092300Z 27006KT CAVOK 14/12 Q1012",
      "taf": "TAF EPRA 092030Z 0921/1006 27006KT CAVOK"
    },
    {
      "icao": "EPRZ",
      "alert": "OK",
      "vis_m": 9999,
      "fzfg": false,
      "metar_trigger": false,
      "taf_trigger": false,
      "metar": "METAR EPRZ 092300Z 25008KT 9999 FEW045CB 14/12 Q1013",
      "taf": "TAF EPRZ 091730Z 0918/1018 27008KT CAVOK"
    },
    {
      "icao": "EPSC",
      "alert": "OK",
      "vis_m": 9999,
      "fzfg": false,
      "metar_trigger": false,
      "taf_trigger": false,
      "metar": "METAR EPSC 092300Z 26004KT CAVOK 14/13 Q1015",
      "taf": "TAF EPSC 091730Z 0918/1018 34010KT CAVOK"
    },
    {
      "icao": "EPSY",
      "alert": "OK",
      "vis_m": 9999,
      "fzfg": false,
      "metar_trigger": false,
      "taf_trigger": false,
      "metar": "METAR EPSY 092300Z 30008KT 280V350 9999 BKN016 OVC022 14/11 Q1010",
      "taf": "TAF EPSY 092030Z 0921/1006 31010KT 9999 SCT030"
    },
    {
      "icao": "EPWA",
      "alert": "OK",
      "vis_m": 9999,
      "fzfg": false,
      "metar_trigger": false,
      "taf_trigger": false,
      "metar": "METAR EPWA 092300Z 29011KT CAVOK 15/12 Q1011 NOSIG",
      "taf": "TAF EPWA 092030Z 0921/1021 29010KT 9999 SCT040"
    },
    {
      "icao": "EPWR",
      "alert": "OK",
      "vis_m": 9999,
      "fzfg": false,
      "metar_trigger": false,
      "taf_trigger": false,
      "metar": "METAR EPWR 092300Z 28007KT CAVOK 15/09 Q1015",
      "taf": "TAF EPWR 092030Z 0921/1021 31004KT CAVOK"
    },
    {
      "icao": "ESGG",
      "alert": "OK",
      "vis_m": 9999,
      "fzfg": false,
      "metar_trigger": false,
      "taf_trigger": false,
      "metar": "METAR ESGG 092250Z 34005KT CAVOK 17/08 Q1015",
      "taf": "TAF ESGG 092030Z 0921/1021 32006KT CAVOK"
    },
    {
      "icao": "ESKN",
      "alert": "OK",
      "vis_m": 9999,
      "fzfg": false,
      "metar_trigger": false,
      "taf_trigger": false,
      "metar": "METAR ESKN 092250Z 34004KT CAVOK 15/10 Q1014",
      "taf": "TAF ESKN 092030Z 0921/1021 35010KT CAVOK"
    },
    {
      "icao": "ESMS",
      "alert": "OK",
      "vis_m": 9999,
      "fzfg": false,
      "metar_trigger": false,
      "taf_trigger": false,
      "metar": "METAR ESMS 092250Z 32003KT 290V350 CAVOK 13/10 Q1015",
      "taf": "TAF ESMS 092027Z 0921/1021 33008KT CAVOK"
    },
    {
      "icao": "ESSA",
      "alert": "OK",
      "vis_m": 9999,
      "fzfg": false,
      "metar_trigger": false,
      "taf_trigger": false,
      "metar": "METAR ESSA 092250Z 35005KT CAVOK 10/07 Q1014 NOSIG",
      "taf": "TAF ESSA 092030Z 0921/1021 36010KT CAVOK"
    },
    {
      "icao": "EYKA",
      "alert": "OK",
      "vis_m": 9999,
      "fzfg": false,
      "metar_trigger": false,
      "taf_trigger": false,
      "metar": "METAR EYKA 092250Z AUTO 27002KT 9999 FEW031/// SCT042/// BKN070/// 13/13 Q1006",
      "taf": "TAF EYKA 092318Z 1000/1024 VRB03KT 5000 BR SCT010 BKN015"
    },
    {
      "icao": "EYPA",
      "alert": "OK",
      "vis_m": 9999,
      "fzfg": false,
      "metar_trigger": false,
      "taf_trigger": false,
      "metar": "METAR EYPA 092250Z AUTO 36004KT 330V030 9999 SCT013/// 14/13 Q1009",
      "taf": "TAF EYPA 092300Z 1000/1024 VRB03KT 5000 BR BKN010"
    },
    {
      "icao": "EYVI",
      "alert": "OK",
      "vis_m": 800,
      "fzfg": false,
      "metar_trigger": false,
      "taf_trigger": false,
      "metar": "METAR EYVI 092250Z 17003KT 130V240 0800 R01/1000U FG VV001 11/11 Q1007 NOSIG",
      "taf": ""
    },
    {
      "icao": "GCFV",
      "alert": "OK",
      "vis_m": 9999,
      "fzfg": false,
      "metar_trigger": false,
      "taf_trigger": false,
      "metar": "METAR GCFV 092300Z AUTO 35014KT CAVOK 23/18 Q1017",
      "taf": "TAF GCFV 092000Z 0921/1021 36013KT 9999 SCT020 TX26/1014Z TN21/1006Z"
    },
    {
      "icao": "GCLP",
      "alert": "OK",
      "vis_m": 9999,
      "fzfg": false,
      "metar_trigger": false,
      "taf_trigger": false,
      "metar": "METAR GCLP 092300Z 36023KT 9999 FEW025 23/18 Q1018 NOSIG",
      "taf": "TAF GCLP 092000Z 0921/1021 01020KT 9999 FEW025 TX26/1014Z TN19/1006Z"
    },
    {
      "icao": "GCTS",
      "alert": "OK",
      "vis_m": 9999,
      "fzfg": false,
      "metar_trigger": false,
      "taf_trigger": false,
      "metar": "METAR GCTS 092300Z 00000KT 9999 FEW025 23/19 Q1018 NOSIG",
      "taf": "TAF GCTS 092000Z 0921/1021 04006KT CAVOK TX27/1014Z TN19/1006Z"
    },
    {
      "icao": "GMAD",
      "alert": "OK",
      "vis_m": 8000,
      "fzfg": false,
      "metar_trigger": false,
      "taf_trigger": false,
      "metar": "METAR GMAD 092300Z 18009KT 8000 SCT010 22/19 Q1014 NOSIG",
      "taf": "TAF GMAD 091700Z 0918/1024 26015KT 8000 SCT013"
    },
    {
      "icao": "GMMN",
      "alert": "OK",
      "vis_m": 9999,
      "fzfg": false,
      "metar_trigger": false,
      "taf_trigger": false,
      "metar": "METAR GMMN 092300Z 36006KT 330V030 9999 FEW020 21/17 Q1015 NOSIG",
      "taf": "TAF GMMN 092300Z 1000/1106 02008KT 9999 BKN020"
    },
    {
      "icao": "GMMX",
      "alert": "OK",
      "vis_m": 9999,
      "fzfg": false,
      "metar_trigger": false,
      "taf_trigger": false,
      "metar": "METAR GMMX 092300Z 28007KT CAVOK 25/17 Q1015 NOSIG",
      "taf": "TAF GMMX 092300Z 1000/1106 06006KT 8000 NSC"
    },
    {
      "icao": "HEGN",
      "alert": "OK",
      "vis_m": 9999,
      "fzfg": false,
      "metar_trigger": false,
      "taf_trigger": false,
      "metar": "METAR HEGN 092200Z 28010KT CAVOK 30/05 Q1008 NOSIG",
      "taf": "TAF HEGN 091700Z 0918/1024 30014KT CAVOK"
    },
    {
      "icao": "HEMA",
      "alert": "OK",
      "vis_m": 9999,
      "fzfg": false,
      "metar_trigger": false,
      "taf_trigger": false,
      "metar": "METAR HEMA 092200Z 23008KT CAVOK 28/10 Q1008 NOSIG",
      "taf": "TAF HEMA 091700Z 0918/1024 32014KT CAVOK"
    },
    {
      "icao": "HESH",
      "alert": "OK",
      "vis_m": 9999,
      "fzfg": false,
      "metar_trigger": false,
      "taf_trigger": false,
      "metar": "METAR HESH 092200Z 02005KT CAVOK 29/10 Q1006 NOSIG",
      "taf": "TAF HESH 091700Z 0918/1024 35012KT CAVOK"
    },
    {
      "icao": "HESX",
      "alert": "OK",
      "vis_m": 9999,
      "fzfg": false,
      "metar_trigger": false,
      "taf_trigger": false,
      "metar": "METAR HESX 092200Z 06004KT CAVOK 25/16 Q1009 NOSIG",
      "taf": "TAF HESX 091700Z 0918/1024 34010KT CAVOK"
    },
    {
      "icao": "LATI",
      "alert": "OK",
      "vis_m": null,
      "fzfg": false,
      "metar_trigger": false,
      "taf_trigger": false,
      "metar": "",
      "taf": "TAF LATI 092300Z 1000/1024 VRB03KT CAVOK TX35/1012Z TN18/1004Z"
    },
    {
      "icao": "LBPD",
      "alert": "OK",
      "vis_m": 9999,
      "fzfg": false,
      "metar_trigger": false,
      "taf_trigger": false,
      "metar": "METAR LBPD 092300Z AUTO 19001KT 9999 SCT090/// 15/12 Q1013",
      "taf": "TAF LBPD 092300Z 1000/1024 30012KT 9999 SCT070"
    },
    {
      "icao": "LBSF",
      "alert": "OK",
      "vis_m": 9999,
      "fzfg": false,
      "metar_trigger": false,
      "taf_trigger": false,
      "metar": "METAR LBSF 092300Z AUTO 36006KT 9999 NCD 13/06 Q1015 NOSIG",
      "taf": "TAF LBSF 092300Z 1000/1024 29010KT 9999 SCT060"
    },
    {
      "icao": "LBWN",
      "alert": "OK",
      "vis_m": 9999,
      "fzfg": false,
      "metar_trigger": false,
      "taf_trigger": false,
      "metar": "METAR LBWN 092300Z AUTO 29005KT 9999 NSC 15/14 Q1011 NOSIG",
      "taf": "TAF LBWN 092300Z 1000/1024 VRB04KT 9999 SCT040"
    },
    {
      "icao": "LCLK",
      "alert": "OK",
      "vis_m": 9999,
      "fzfg": false,
      "metar_trigger": false,
      "taf_trigger": false,
      "metar": "METAR LCLK 092300Z 22007KT CAVOK 24/23 Q1007 NOSIG",
      "taf": "TAF LCLK 091730Z 0918/1018 24007KT 9999 FEW018"
    },
    {
      "icao": "LCPH",
      "alert": "OK",
      "vis_m": 9999,
      "fzfg": false,
      "metar_trigger": false,
      "taf_trigger": false,
      "metar": "METAR LCPH 092300Z 07008KT 010V080 9999 FEW018 23/18 Q1007 NOSIG",
      "taf": "TAF LCPH 091730Z 0918/1018 02007KT 9999 FEW018"
    },
    {
      "icao": "LEAL",
      "alert": "OK",
      "vis_m": 9999,
      "fzfg": false,
      "metar_trigger": false,
      "taf_trigger": false,
      "metar": "METAR LEAL 092300Z 04004KT 360V060 CAVOK 27/24 Q1009 NOSIG",
      "taf": ""
    },
    {
      "icao": "LEBB",
      "alert": "OK",
      "vis_m": 4400,
      "fzfg": false,
      "metar_trigger": false,
      "taf_trigger": false,
      "metar": "METAR LEBB 092300Z AUTO VRB02KT 4400 RA BKN015 24/22 Q1013",
      "taf": ""
    },
    {
      "icao": "LEBL",
      "alert": "OK",
      "vis_m": 9999,
      "fzfg": false,
      "metar_trigger": false,
      "taf_trigger": false,
      "metar": "METAR LEBL 092300Z 30006KT CAVOK 27/16 Q1010 NOSIG",
      "taf": "TAF LEBL 091700Z 0918/1018 16007KT CAVOK TX35/1012Z TN24/1006Z"
    },
    {
      "icao": "LECH",
      "alert": "OK",
      "vis_m": 9999,
      "fzfg": false,
      "metar_trigger": false,
      "taf_trigger": false,
      "metar": "METAR LECH 092300Z AUTO 06006KT CAVOK 24/19 Q1012",
      "taf": "TAF LECH 091700Z 0918/1018 09008KT CAVOK TX35/1012Z TN20/1006Z"
    },
    {
      "icao": "LEMD",
      "alert": "OK",
      "vis_m": 9999,
      "fzfg": false,
      "metar_trigger": false,
      "taf_trigger": false,
      "metar": "METAR LEMD 092300Z 36002KT CAVOK 27/03 Q1011 NOSIG",
      "taf": "TAF LEMD 091700Z 0918/1024 VRB04KT CAVOK TX36/1016Z TN20/1005Z"
    },
    {
      "icao": "LEMG",
      "alert": "OK",
      "vis_m": 9999,
      "fzfg": false,
      "metar_trigger": false,
      "taf_trigger": false,
      "metar": "METAR LEMG 092300Z 28010KT CAVOK 30/04 Q1010 NOSIG",
      "taf": "TAF LEMG 091700Z 0918/1018 18010KT CAVOK TX36/1014Z TN20/1005Z"
    },
    {
      "icao": "LEVC",
      "alert": "OK",
      "vis_m": 9999,
      "fzfg": false,
      "metar_trigger": false,
      "taf_trigger": false,
      "metar": "METAR LEVC 092300Z 04005KT 300V080 CAVOK 27/24 Q1010 NOSIG",
      "taf": "TAF LEVC 091700Z 0918/1018 07009KT 9999 FEW015 TX32/1014Z TN22/1006Z"
    },
    {
      "icao": "LEXJ",
      "alert": "OK",
      "vis_m": 9999,
      "fzfg": false,
      "metar_trigger": false,
      "taf_trigger": false,
      "metar": "METAR LEXJ 092300Z AUTO 11003KT 080V140 9999 FEW014 OVC021 23/21 Q1013",
      "taf": "TAF LEXJ 092000Z 0921/1021 VRB03KT 9999 BKN018 TX27/1013Z TN22/1005Z"
    },
    {
      "icao": "LEZG",
      "alert": "OK",
      "vis_m": 9999,
      "fzfg": false,
      "metar_trigger": false,
      "taf_trigger": false,
      "metar": "METAR LEZG 092300Z 32011KT CAVOK 31/08 Q1010 NOSIG",
      "taf": ""
    },
    {
      "icao": "LEZL",
      "alert": "OK",
      "vis_m": 9999,
      "fzfg": false,
      "metar_trigger": false,
      "taf_trigger": false,
      "metar": "METAR LEZL 092300Z 22009KT CAVOK 23/19 Q1012 NOSIG",
      "taf": "TAF LEZL 092000Z 0921/1021 22009KT CAVOK TX34/1015Z TN18/1005Z"
    },
    {
      "icao": "LFBD",
      "alert": "OK",
      "vis_m": 9999,
      "fzfg": false,
      "metar_trigger": false,
      "taf_trigger": false,
      "metar": "METAR LFBD 092300Z AUTO 01004KT CAVOK 27/16 Q1010 TEMPO 23010KT",
      "taf": "TAF LFBD 091700Z 0918/1024 02010KT CAVOK TX37/1015Z TN24/1006Z"
    },
    {
      "icao": "LFLL",
      "alert": "OK",
      "vis_m": 9999,
      "fzfg": false,
      "metar_trigger": false,
      "taf_trigger": false,
      "metar": "METAR LFLL 092300Z 27003KT 220V010 CAVOK 26/12 Q1012 NOSIG",
      "taf": "TAF LFLL 091700Z 0918/1024 35012KT CAVOK"
    },
    {
      "icao": "LFLS",
      "alert": "OK",
      "vis_m": 9999,
      "fzfg": false,
      "metar_trigger": false,
      "taf_trigger": false,
      "metar": "METAR LFLS 092300Z AUTO 12003KT CAVOK 19/12 Q1013",
      "taf": "TAF LFLS 091400Z 0915/1015 35010KT CAVOK"
    },
    {
      "icao": "LFMN",
      "alert": "OK",
      "vis_m": 9999,
      "fzfg": false,
      "metar_trigger": false,
      "taf_trigger": false,
      "metar": "METAR LFMN 092300Z VRB03KT CAVOK 28/15 Q1010 NOSIG",
      "taf": "TAF LFMN 092000Z 0921/1103 VRB03KT CAVOK"
    },
    {
      "icao": "LFOB",
      "alert": "OK",
      "vis_m": 9999,
      "fzfg": false,
      "metar_trigger": false,
      "taf_trigger": false,
      "metar": "METAR LFOB 092300Z AUTO 02005KT CAVOK 21/15 Q1016 NOSIG",
      "taf": "TAF LFOB 091700Z 0918/1018 04010KT CAVOK"
    },
    {
      "icao": "LFPO",
      "alert": "OK",
      "vis_m": 9999,
      "fzfg": false,
      "metar_trigger": false,
      "taf_trigger": false,
      "metar": "METAR LFPO 092300Z AUTO 05012KT CAVOK 26/14 Q1014 NOSIG",
      "taf": "TAF LFPO 091700Z 0918/1024 04010KT CAVOK"
    },
    {
      "icao": "LFSB",
      "alert": "OK",
      "vis_m": 9999,
      "fzfg": false,
      "metar_trigger": false,
      "taf_trigger": false,
      "metar": "METAR LFSB 092300Z AUTO 33007KT CAVOK 20/12 Q1015 NOSIG",
      "taf": "TAF LFSB 091700Z 0918/1018 36010KT CAVOK"
    },
    {
      "icao": "LGAV",
      "alert": "OK",
      "vis_m": 9999,
      "fzfg": false,
      "metar_trigger": false,
      "taf_trigger": false,
      "metar": "METAR LGAV 092250Z VRB03KT 9999 FEW030 21/18 Q1011 NOSIG",
      "taf": "TAF LGAV 092300Z 1000/1024 01006KT 9999 FEW025 SCT070"
    },
    {
      "icao": "LGTS",
      "alert": "OK",
      "vis_m": 9999,
      "fzfg": false,
      "metar_trigger": false,
      "taf_trigger": false,
      "metar": "METAR LGTS 092250Z 11004KT 9999 FEW020 23/18 Q1011 NOSIG",
      "taf": "TAF LGTS 092300Z 1000/1024 VRB03KT 9999 FEW030"
    },
    {
      "icao": "LHBP",
      "alert": "OK",
      "vis_m": 9999,
      "fzfg": false,
      "metar_trigger": false,
      "taf_trigger": false,
      "metar": "METAR LHBP 092300Z 02001KT CAVOK 17/10 Q1014 NOSIG",
      "taf": "TAF LHBP 091715Z 0918/1018 02009KT CAVOK"
    },
    {
      "icao": "LHDC",
      "alert": "OK",
      "vis_m": 9999,
      "fzfg": false,
      "metar_trigger": false,
      "taf_trigger": false,
      "metar": "METAR LHDC 092245Z AUTO 04005KT 350V060 CAVOK 16/09 Q1014",
      "taf": "TAF LHDC 091715Z 0918/1003 35007KT CAVOK"
    },
    {
      "icao": "LIBD",
      "alert": "OK",
      "vis_m": 9999,
      "fzfg": false,
      "metar_trigger": false,
      "taf_trigger": false,
      "metar": "METAR LIBD 092250Z 23004KT CAVOK 21/13 Q1012",
      "taf": "TAF LIBD 091700Z 0918/1018 30005KT CAVOK"
    },
    {
      "icao": "LIBG",
      "alert": "OK",
      "vis_m": 9999,
      "fzfg": false,
      "metar_trigger": false,
      "taf_trigger": false,
      "metar": "METAR LIBG 092250Z AUTO 34003KT 9999 NCD 23/13 Q1012",
      "taf": "TAF LIBG 091700Z 0918/1018 36010KT CAVOK"
    },
    {
      "icao": "LIBP",
      "alert": "OK",
      "vis_m": 9999,
      "fzfg": false,
      "metar_trigger": false,
      "taf_trigger": false,
      "metar": "METAR LIBP 092250Z AUTO 20002KT 9999 NCD 21/15 Q1013",
      "taf": "TAF LIBP 091700Z 0918/1018 VRB05KT CAVOK"
    },
    {
      "icao": "LIBR",
      "alert": "OK",
      "vis_m": 9999,
      "fzfg": false,
      "metar_trigger": false,
      "taf_trigger": false,
      "metar": "METAR LIBR 092250Z 30008KT CAVOK 25/18 Q1011",
      "taf": "TAF LIBR 091700Z 0918/1018 35012KT CAVOK"
    },
    {
      "icao": "LICA",
      "alert": "OK",
      "vis_m": 9999,
      "fzfg": false,
      "metar_trigger": false,
      "taf_trigger": false,
      "metar": "METAR LICA 092250Z AUTO 10005KT 9999 NCD 23/21 Q1012",
      "taf": "TAF LICA 091700Z 0918/1018 26006KT 9999 FEW070"
    },
    {
      "icao": "LICC",
      "alert": "OK",
      "vis_m": 9999,
      "fzfg": false,
      "metar_trigger": false,
      "taf_trigger": false,
      "metar": "METAR LICC 092250Z 07005KT CAVOK 26/19 Q1011",
      "taf": "TAF LICC 091700Z 0918/1018 09010KT CAVOK"
    },
    {
      "icao": "LICJ",
      "alert": "OK",
      "vis_m": 9999,
      "fzfg": false,
      "metar_trigger": false,
      "taf_trigger": false,
      "metar": "METAR LICJ 092250Z 17002KT CAVOK 25/19 Q1011",
      "taf": "TAF LICJ 091700Z 0918/1018 06010KT CAVOK"
    },
    {
      "icao": "LIMC",
      "alert": "OK",
      "vis_m": 9999,
      "fzfg": false,
      "metar_trigger": false,
      "taf_trigger": false,
      "metar": "METAR LIMC 092250Z 02003KT CAVOK 26/17 Q1012 NOSIG",
      "taf": "TAF LIMC 091700Z 0918/1024 VRB06KT CAVOK"
    },
    {
      "icao": "LIME",
      "alert": "OK",
      "vis_m": 9999,
      "fzfg": false,
      "metar_trigger": false,
      "taf_trigger": false,
      "metar": "METAR LIME 092250Z 10004KT CAVOK 26/16 Q1013 NOSIG",
      "taf": "TAF LIME 091700Z 0918/1018 VRB05KT CAVOK"
    },
    {
      "icao": "LIMF",
      "alert": "OK",
      "vis_m": 9999,
      "fzfg": false,
      "metar_trigger": false,
      "taf_trigger": false,
      "metar": "METAR LIMF 092250Z 34004KT 9999 BKN110 27/17 Q1013",
      "taf": "TAF LIMF 091700Z 0918/1018 VRB05KT CAVOK"
    },
    {
      "icao": "LIMJ",
      "alert": "OK",
      "vis_m": 9999,
      "fzfg": false,
      "metar_trigger": false,
      "taf_trigger": false,
      "metar": "METAR LIMJ 092250Z VRB02KT CAVOK 27/20 Q1010",
      "taf": "TAF LIMJ 091700Z 0918/1018 VRB05KT 9999 FEW020"
    },
    {
      "icao": "LIPE",
      "alert": "OK",
      "vis_m": 9999,
      "fzfg": false,
      "metar_trigger": false,
      "taf_trigger": false,
      "metar": "METAR LIPE 092250Z AUTO 14005KT 9999 NCD 24/16 Q1011",
      "taf": "TAF LIPE 091700Z 0918/1018 10010KT CAVOK"
    },
    {
      "icao": "LIPH",
      "alert": "OK",
      "vis_m": 9999,
      "fzfg": false,
      "metar_trigger": false,
      "taf_trigger": false,
      "metar": "METAR LIPH 092250Z AUTO 36003KT 9999 OVC056/// 26/20 Q1013",
      "taf": "TAF LIPH 091700Z 0918/1018 15010KT 9999 FEW055"
    },
    {
      "icao": "LIPQ",
      "alert": "OK",
      "vis_m": 9999,
      "fzfg": false,
      "metar_trigger": false,
      "taf_trigger": false,
      "metar": "METAR LIPQ 092250Z AUTO VRB02KT 9999 FEW100/// 22/19 Q1013",
      "taf": "TAF LIPQ 091700Z 0918/1018 VRB05KT 9999 SCT055"
    },
    {
      "icao": "LIPR",
      "alert": "OK",
      "vis_m": null,
      "fzfg": false,
      "metar_trigger": false,
      "taf_trigger": false,
      "metar": "",
      "taf": "TAF LIPR 091700Z 0918/1018 10010KT CAVOK"
    },
    {
      "icao": "LIPX",
      "alert": "OK",
      "vis_m": 9999,
      "fzfg": false,
      "metar_trigger": false,
      "taf_trigger": false,
      "metar": "METAR LIPX 092250Z 08007KT 050V110 CAVOK 26/17 Q1013",
      "taf": "TAF LIPX 091700Z 0918/1018 VRB05KT CAVOK"
    },
    {
      "icao": "LIPY",
      "alert": "OK",
      "vis_m": 9999,
      "fzfg": false,
      "metar_trigger": false,
      "taf_trigger": false,
      "metar": "METAR LIPY 092250Z AUTO 23005KT 9999 NCD 21/15 Q1012",
      "taf": "TAF LIPY 091700Z 0918/1018 11010KT CAVOK"
    },
    {
      "icao": "LIPZ",
      "alert": "OK",
      "vis_m": 9999,
      "fzfg": false,
      "metar_trigger": false,
      "taf_trigger": false,
      "metar": "METAR LIPZ 092250Z 08003KT 9999 BKN060 26/20 Q1013 NOSIG",
      "taf": "TAF LIPZ 091700Z 0918/1024 15010KT 9999 FEW055"
    },
    {
      "icao": "LIRF",
      "alert": "OK",
      "vis_m": 9999,
      "fzfg": false,
      "metar_trigger": false,
      "taf_trigger": false,
      "metar": "METAR LIRF 092250Z VRB01KT CAVOK 23/23 Q1011 NOSIG",
      "taf": "TAF LIRF 091700Z 0918/1024 VRB05KT CAVOK"
    },
    {
      "icao": "LIRN",
      "alert": "OK",
      "vis_m": 9999,
      "fzfg": false,
      "metar_trigger": false,
      "taf_trigger": false,
      "metar": "METAR LIRN 092250Z 01003KT CAVOK 27/19 Q1012 NOSIG",
      "taf": "TAF LIRN 091700Z 0918/1018 VRB05KT 9999 SCT050"
    },
    {
      "icao": "LIRP",
      "alert": "OK",
      "vis_m": 9999,
      "fzfg": false,
      "metar_trigger": false,
      "taf_trigger": false,
      "metar": "METAR LIRP 092245Z 09002KT CAVOK 22/20 Q1011 NOSIG",
      "taf": "TAF LIRP 091700Z 0918/1018 28010KT CAVOK"
    },
    {
      "icao": "LIRZ",
      "alert": "OK",
      "vis_m": 9999,
      "fzfg": false,
      "metar_trigger": false,
      "taf_trigger": false,
      "metar": "METAR LIRZ 092250Z AUTO 34004KT 310V010 9999 NCD 24/16 Q1013",
      "taf": "TAF LIRZ 091700Z 0918/1018 07012KT 9999 FEW050"
    },
    {
      "icao": "LJLJ",
      "alert": "OK",
      "vis_m": 9999,
      "fzfg": false,
      "metar_trigger": false,
      "taf_trigger": false,
      "metar": "METAR LJLJ 092300Z 28003KT 9999 FEW060 BKN080 19/16 Q1016 NOSIG",
      "taf": "TAF LJLJ 092300Z 1000/1100 VRB02KT 9999 SCT080"
    },
    {
      "icao": "LKMT",
      "alert": "OK",
      "vis_m": 9999,
      "fzfg": false,
      "metar_trigger": false,
      "taf_trigger": false,
      "metar": "METAR LKMT 092300Z 19004KT CAVOK 14/11 Q1015 NOSIG",
      "taf": "TAF LKMT 091700Z 0918/1018 20004KT CAVOK"
    },
    {
      "icao": "LKPR",
      "alert": "OK",
      "vis_m": 9999,
      "fzfg": false,
      "metar_trigger": false,
      "taf_trigger": false,
      "metar": "METAR LKPR 092300Z 33007KT CAVOK 14/10 Q1017 NOSIG",
      "taf": "TAF LKPR 092300Z 1000/1106 31005KT CAVOK"
    },
    {
      "icao": "LLBG",
      "alert": "OK",
      "vis_m": 9999,
      "fzfg": false,
      "metar_trigger": false,
      "taf_trigger": false,
      "metar": "METAR LLBG 092250Z 16005KT 9999 FEW025 24/19 Q1009 NOSIG",
      "taf": "TAF LLBG 091601Z 0918/1018 28008KT 9999 FEW035 TX31/1012Z TN22/1004Z"
    },
    {
      "icao": "LMML",
      "alert": "OK",
      "vis_m": 9999,
      "fzfg": false,
      "metar_trigger": false,
      "taf_trigger": false,
      "metar": "METAR LMML 092315Z 22002KT CAVOK 23/19 Q1011 NOSIG",
      "taf": "TAF LMML 092300Z 1000/1024 26005KT 9999 FEW015"
    },
    {
      "icao": "LOWW",
      "alert": "OK",
      "vis_m": 9999,
      "fzfg": false,
      "metar_trigger": false,
      "taf_trigger": false,
      "metar": "METAR LOWW 092250Z 27005KT CAVOK 18/05 Q1016 NOSIG",
      "taf": "TAF LOWW 092315Z 1000/1106 35010KT CAVOK TX29/1014Z TN12/1003Z"
    },
    {
      "icao": "LPFR",
      "alert": "OK",
      "vis_m": 9999,
      "fzfg": false,
      "metar_trigger": false,
      "taf_trigger": false,
      "metar": "METAR LPFR 092300Z 29009KT CAVOK 21/15 Q1012",
      "taf": "TAF LPFR 092300Z 1000/1024 30010KT CAVOK"
    },
    {
      "icao": "LPMA",
      "alert": "OK",
      "vis_m": 9999,
      "fzfg": false,
      "metar_trigger": false,
      "taf_trigger": false,
      "metar": "METAR LPMA 092300Z VRB03KT 9999 SCT015 22/16 Q1019",
      "taf": "TAF LPMA 092300Z 1000/1024 VRB05KT 9999 SCT015"
    },
    {
      "icao": "LPPR",
      "alert": "OK",
      "vis_m": 9999,
      "fzfg": false,
      "metar_trigger": false,
      "taf_trigger": false,
      "metar": "METAR LPPR 092300Z 33004KT 300V020 9999 BKN018 OVC020 18/15 Q1014",
      "taf": "TAF LPPR 092300Z 1000/1024 33008KT 9999 BKN015"
    },
    {
      "icao": "LPPS",
      "alert": "OK",
      "vis_m": 9999,
      "fzfg": false,
      "metar_trigger": false,
      "taf_trigger": false,
      "metar": "METAR LPPS 092300Z 33009KT 9999 FEW014 22/18 Q1019",
      "taf": "TAF LPPS 092300Z 1000/1106 33012KT 9999 SCT014"
    },
    {
      "icao": "LPPT",
      "alert": "OK",
      "vis_m": 9999,
      "fzfg": false,
      "metar_trigger": false,
      "taf_trigger": false,
      "metar": "METAR LPPT 092300Z 34014KT 9999 FEW018 18/14 Q1013 NOSIG",
      "taf": "TAF LPPT 092300Z 1000/1106 31010KT CAVOK"
    },
    {
      "icao": "LQBK",
      "alert": "OK",
      "vis_m": 9999,
      "fzfg": false,
      "metar_trigger": false,
      "taf_trigger": false,
      "metar": "METAR LQBK 092300Z 14002KT CAVOK 16/13 Q1015 NOSIG",
      "taf": "TAF LQBK 092300Z 1000/1024 16005KT CAVOK TX30/1014Z TN12/1003Z"
    },
    {
      "icao": "LQSA",
      "alert": "OK",
      "vis_m": 9999,
      "fzfg": false,
      "metar_trigger": false,
      "taf_trigger": false,
      "metar": "METAR LQSA 092300Z 00000KT CAVOK 14/09 Q1017",
      "taf": "TAF LQSA 092300Z 1000/1024 VRB02KT CAVOK TX30/1014Z TN12/1003Z"
    },
    {
      "icao": "LQTZ",
      "alert": "OK",
      "vis_m": 9999,
      "fzfg": false,
      "metar_trigger": false,
      "taf_trigger": false,
      "metar": "METAR LQTZ 092300Z 00000KT CAVOK 12/12 Q1016",
      "taf": "TAF LQTZ 092300Z 1000/1024 VRB02KT CAVOK TX28/1013Z TN10/1003Z"
    },
    {
      "icao": "LRBC",
      "alert": "OK",
      "vis_m": 9999,
      "fzfg": false,
      "metar_trigger": false,
      "taf_trigger": false,
      "metar": "METAR LRBC 092300Z VRB02KT CAVOK 13/11 Q1012",
      "taf": "TAF LRBC 092000Z 0921/1006 31010KT CAVOK"
    },
    {
      "icao": "LRBS",
      "alert": "OK",
      "vis_m": 9999,
      "fzfg": false,
      "metar_trigger": false,
      "taf_trigger": false,
      "metar": "METAR LRBS 092300Z VRB02KT CAVOK 15/14 Q1012 NOSIG",
      "taf": "TAF LRBS 091700Z 0918/1018 VRB04KT CAVOK"
    },
    {
      "icao": "LRBV",
      "alert": "OK",
      "vis_m": 9999,
      "fzfg": false,
      "metar_trigger": false,
      "taf_trigger": false,
      "metar": "METAR LRBV 092300Z AUTO 22006KT 190V250 9999 SCT120/// BKN150/// 11/09 Q1013",
      "taf": "TAF LRBV 091700Z 0918/1003 27006KT CAVOK"
    },
    {
      "icao": "LRCL",
      "alert": "OK",
      "vis_m": 9999,
      "fzfg": false,
      "metar_trigger": false,
      "taf_trigger": false,
      "metar": "METAR LRCL 092300Z 28004KT 240V310 9999 BKN050 14/11 Q1013",
      "taf": "TAF LRCL 092000Z 0921/1006 28006KT 9999 SCT050"
    },
    {
      "icao": "LRCV",
      "alert": "OK",
      "vis_m": 9999,
      "fzfg": false,
      "metar_trigger": false,
      "taf_trigger": false,
      "metar": "METAR LRCV 092300Z 12005KT CAVOK 13/13 Q1013",
      "taf": "TAF LRCV 092000Z 0921/1006 VRB04KT CAVOK"
    },
    {
      "icao": "LRIA",
      "alert": "OK",
      "vis_m": 9999,
      "fzfg": false,
      "metar_trigger": false,
      "taf_trigger": false,
      "metar": "METAR LRIA 092300Z 21002KT CAVOK 13/11 Q1012",
      "taf": "TAF LRIA 092000Z 0921/1006 27006KT CAVOK"
    },
    {
      "icao": "LROP",
      "alert": "OK",
      "vis_m": 9999,
      "fzfg": false,
      "metar_trigger": false,
      "taf_trigger": false,
      "metar": "METAR LROP 092300Z 29004KT CAVOK 14/14 Q1012 NOSIG",
      "taf": "TAF LROP 091700Z 0918/1018 VRB04KT CAVOK"
    },
    {
      "icao": "LRSB",
      "alert": "OK",
      "vis_m": 9999,
      "fzfg": false,
      "metar_trigger": false,
      "taf_trigger": false,
      "metar": "METAR LRSB 092300Z VRB02KT CAVOK 11/10 Q1013",
      "taf": ""
    },
    {
      "icao": "LRSM",
      "alert": "OK",
      "vis_m": 9999,
      "fzfg": false,
      "metar_trigger": false,
      "taf_trigger": false,
      "metar": "METAR LRSM 092300Z AUTO 34006KT 9999 BKN100/// BKN120/// 15/10 Q1013",
      "taf": "TAF LRSM 092000Z 0921/1006 32006KT CAVOK"
    },
    {
      "icao": "LRSV",
      "alert": "OK",
      "vis_m": 9999,
      "fzfg": false,
      "metar_trigger": false,
      "taf_trigger": false,
      "metar": "METAR LRSV 092300Z 30005KT CAVOK 12/10 Q1012",
      "taf": "TAF LRSV 092000Z 0921/1006 30006KT 9999 SCT040"
    },
    {
      "icao": "LRTM",
      "alert": "OK",
      "vis_m": 9999,
      "fzfg": false,
      "metar_trigger": false,
      "taf_trigger": false,
      "metar": "METAR LRTM 092300Z 23006KT CAVOK 13/12 Q1013",
      "taf": "TAF LRTM 092000Z 0921/1006 VRB04KT CAVOK"
    },
    {
      "icao": "LRTR",
      "alert": "OK",
      "vis_m": 9999,
      "fzfg": false,
      "metar_trigger": false,
      "taf_trigger": false,
      "metar": "METAR LRTR 092300Z 35005KT CAVOK 14/10 Q1014",
      "taf": "TAF LRTR 091700Z 0918/1018 01010KT CAVOK"
    },
    {
      "icao": "LTAC",
      "alert": "OK",
      "vis_m": 9999,
      "fzfg": false,
      "metar_trigger": false,
      "taf_trigger": false,
      "metar": "METAR LTAC 092250Z VRB02KT CAVOK 19/11 Q1011 NOSIG RMK RWY21C VRB01KT RWY03L VRB01KT RWY21R VRB01KT RWY03R 16003KT RWY21L 15003KT 110V180",
      "taf": "TAF LTAC 092240Z 1000/1024 VRB02KT 9999 SCT040 SCT100"
    },
    {
      "icao": "LTFM",
      "alert": "OK",
      "vis_m": 9999,
      "fzfg": false,
      "metar_trigger": false,
      "taf_trigger": false,
      "metar": "METAR LTFM 092250Z 28004KT 210V340 CAVOK 19/17 Q1011 NOSIG RMK RWY17L VRB04KT RWY34L VRB02KT RWY16R VRB01KT RWY36 18003KT 120V220 RWY18 26004KT",
      "taf": "TAF LTFM 092240Z 1000/1106 24008KT CAVOK"
    },
    {
      "icao": "LUKK",
      "alert": "OK",
      "vis_m": 9999,
      "fzfg": false,
      "metar_trigger": false,
      "taf_trigger": false,
      "metar": "METAR LUKK 092300Z 34009KT CAVOK 16/13 Q1011 NOSIG",
      "taf": "TAF LUKK 092301Z 1000/1024 32008KT 9999 SCT040"
    },
    {
      "icao": "LWOH",
      "alert": "OK",
      "vis_m": null,
      "fzfg": false,
      "metar_trigger": false,
      "taf_trigger": false,
      "metar": "",
      "taf": "TAF LWOH 092030Z 0921/1021 34008KT 9999 FEW045"
    },
    {
      "icao": "LWSK",
      "alert": "OK",
      "vis_m": null,
      "fzfg": false,
      "metar_trigger": false,
      "taf_trigger": false,
      "metar": "",
      "taf": "TAF LWSK 092030Z 0921/1021 VRB02KT CAVOK"
    },
    {
      "icao": "LYBE",
      "alert": "OK",
      "vis_m": 9999,
      "fzfg": false,
      "metar_trigger": false,
      "taf_trigger": false,
      "metar": "METAR LYBE 092300Z 34003KT CAVOK 15/09 Q1014 NOSIG",
      "taf": "TAF LYBE 091700Z 0918/1018 30007KT CAVOK TX29/1014Z TN14/1003Z"
    },
    {
      "icao": "LYNI",
      "alert": "OK",
      "vis_m": 9999,
      "fzfg": false,
      "metar_trigger": false,
      "taf_trigger": false,
      "metar": "METAR LYNI 092300Z 07002KT CAVOK 16/08 Q1014 NOSIG",
      "taf": "TAF LYNI 091700Z 0918/1018 01004KT CAVOK TX30/1014Z TN12/1003Z"
    },
    {
      "icao": "LYPG",
      "alert": "OK",
      "vis_m": 9999,
      "fzfg": false,
      "metar_trigger": false,
      "taf_trigger": false,
      "metar": "METAR LYPG 092300Z 35011KT CAVOK 25/07 Q1012 NOSIG",
      "taf": "TAF LYPG 091700Z 0918/1018 36012KT 9999 FEW050 TX33/1013Z TN24/1003Z"
    },
    {
      "icao": "LZIB",
      "alert": "OK",
      "vis_m": 9999,
      "fzfg": false,
      "metar_trigger": false,
      "taf_trigger": false,
      "metar": "METAR LZIB 092300Z VRB03KT CAVOK 16/08 Q1015 NOSIG",
      "taf": "TAF LZIB 092315Z 1000/1100 VRB02KT CAVOK"
    },
    {
      "icao": "LZKZ",
      "alert": "OK",
      "vis_m": 9999,
      "fzfg": false,
      "metar_trigger": false,
      "taf_trigger": false,
      "metar": "METAR LZKZ 092300Z 01007KT 9999 FEW042 14/11 Q1014 NOSIG",
      "taf": "TAF LZKZ 092315Z 1000/1100 01003KT 9999 FEW045"
    },
    {
      "icao": "LZTT",
      "alert": "OK",
      "vis_m": 9999,
      "fzfg": false,
      "metar_trigger": false,
      "taf_trigger": false,
      "metar": "METAR LZTT 092300Z VRB02KT 9999 FEW050 BKN073 11/10 Q1015",
      "taf": "TAF LZTT 092315Z 1000/1100 27008KT 9999 FEW040"
    },
    {
      "icao": "OEJN",
      "alert": "OK",
      "vis_m": 9999,
      "fzfg": false,
      "metar_trigger": false,
      "taf_trigger": false,
      "metar": "METAR OEJN 092300Z 35008KT CAVOK 33/09 Q1003 NOSIG",
      "taf": "TAF OEJN 092300Z 1000/1106 VRB03KT 9999 SCT040"
    },
    {
      "icao": "OEMA",
      "alert": "OK",
      "vis_m": 9999,
      "fzfg": false,
      "metar_trigger": false,
      "taf_trigger": false,
      "metar": "METAR OEMA 092300Z 27009KT CAVOK 35/01 Q1010 NOSIG",
      "taf": "TAF OEMA 092300Z 1000/1106 27006KT CAVOK"
    },
    {
      "icao": "OJAI",
      "alert": "OK",
      "vis_m": 5000,
      "fzfg": false,
      "metar_trigger": false,
      "taf_trigger": false,
      "metar": "METAR OJAI 092300Z 31006KT 5000 HZ NSC 18/11 Q1013 NOSIG",
      "taf": "TAF OJAI 092300Z 1000/1106 29008KT 5000 HZ NSC"
    },
    {
      "icao": "OMAA",
      "alert": "OK",
      "vis_m": 9999,
      "fzfg": false,
      "metar_trigger": false,
      "taf_trigger": false,
      "metar": "METAR OMAA 092300Z VRB01KT CAVOK 33/25 Q0998 NOSIG",
      "taf": "TAF OMAA 092300Z 1000/1106 18006KT 8000 NSC"
    },
    {
      "icao": "OMDB",
      "alert": "OK",
      "vis_m": 9999,
      "fzfg": false,
      "metar_trigger": false,
      "taf_trigger": false,
      "metar": "METAR OMDB 092300Z 18006KT 150V210 CAVOK 33/29 Q0998 NOSIG",
      "taf": "TAF OMDB 092300Z 1000/1106 18006KT 8000 NSC"
    },
    {
      "icao": "UAAA",
      "alert": "OK",
      "vis_m": 9999,
      "fzfg": false,
      "metar_trigger": false,
      "taf_trigger": false,
      "metar": "METAR UAAA 092300Z 16002MPS 9999 SCT100 18/14 Q1012 NOSIG",
      "taf": "TAF UAAA 091703Z 0918/1018 18003MPS 9999 FEW050CB SCT100 TX34/1010Z TN19/1002Z"
    },
    {
      "icao": "UBBB",
      "alert": "OK",
      "vis_m": 9999,
      "fzfg": false,
      "metar_trigger": false,
      "taf_trigger": false,
      "metar": "METAR UBBB 092300Z 00000KT CAVOK 23/20 Q1009 NOSIG",
      "taf": "TAF UBBB 092252Z 1000/1024 33008KT CAVOK TX31/1010Z TN21/1001Z"
    },
    {
      "icao": "UDSG",
      "alert": "OK",
      "vis_m": 9999,
      "fzfg": false,
      "metar_trigger": false,
      "taf_trigger": false,
      "metar": "METAR UDSG 092300Z 22004KT 9999 FEW049 16/14 Q1017 NOSIG",
      "taf": "TAF UDSG 091658Z 0918/1018 VRB06KT 9999 FEW050"
    },
    {
      "icao": "UDYZ",
      "alert": "OK",
      "vis_m": 9999,
      "fzfg": false,
      "metar_trigger": false,
      "taf_trigger": false,
      "metar": "METAR UDYZ 092300Z 13003KT 9999 FEW046 22/13 Q1011 NOSIG",
      "taf": "TAF UDYZ 091700Z 0918/1018 04006KT 9999 FEW040"
    },
    {
      "icao": "UGKO",
      "alert": "OK",
      "vis_m": 9999,
      "fzfg": false,
      "metar_trigger": false,
      "taf_trigger": false,
      "metar": "METAR UGKO 092300Z VRB02KT 9999 BKN025 23/21 Q1007 NOSIG",
      "taf": "TAF UGKO 092300Z 1000/1024 25006KT CAVOK TX32/1011Z TN20/1002Z"
    }
  ]
}