{
  "ts_utc": "2026-05-21T23:34:35Z",
  "threshold_m": 150,
  "source": "stations_override.txt (ICAO list) + aviationweather.gov (METAR/TAF raw)",
  "station_count": 159,
  "stations": [
    {
      "icao": "BIKF",
      "alert": "OK",
      "vis_m": 9999,
      "fzfg": false,
      "metar_trigger": false,
      "taf_trigger": false,
      "metar": "METAR BIKF 212300Z 05001KT 9999 FEW021 BKN047 09/06 Q1010",
      "taf": "TAF BIKF 212258Z 2200/2300 09010KT 9999 FEW025 SCT035 TX09/2219Z TN07/2204Z"
    },
    {
      "icao": "BKPR",
      "alert": "OK",
      "vis_m": 9999,
      "fzfg": false,
      "metar_trigger": false,
      "taf_trigger": false,
      "metar": "METAR BKPR 212330Z 34010KT 9999 BKN065 16/09 Q1019 NOSIG",
      "taf": "TAF BKPR 212330Z 2200/2224 35008KT 9999 BKN050"
    },
    {
      "icao": "EBCI",
      "alert": "OK",
      "vis_m": 9999,
      "fzfg": false,
      "metar_trigger": false,
      "taf_trigger": false,
      "metar": "METAR EBCI 212320Z 07002KT CAVOK 15/10 Q1028 NOSIG",
      "taf": "TAF EBCI 212300Z 2200/2306 12004KT CAVOK"
    },
    {
      "icao": "EDDB",
      "alert": "OK",
      "vis_m": 9999,
      "fzfg": false,
      "metar_trigger": false,
      "taf_trigger": false,
      "metar": "METAR EDDB 212320Z AUTO 23004KT CAVOK 14/11 Q1028 NOSIG",
      "taf": "TAF EDDB 212300Z 2200/2224 VRB03KT CAVOK"
    },
    {
      "icao": "EDDH",
      "alert": "OK",
      "vis_m": 9999,
      "fzfg": false,
      "metar_trigger": false,
      "taf_trigger": false,
      "metar": "METAR EDDH 212320Z AUTO 21001KT 9999 3700 BR BKN043 10/10 Q1027 NOSIG",
      "taf": "TAF EDDH 212300Z 2200/2306 VRB02KT 9999 FEW020"
    },
    {
      "icao": "EDDK",
      "alert": "OK",
      "vis_m": 9999,
      "fzfg": false,
      "metar_trigger": false,
      "taf_trigger": false,
      "metar": "METAR EDDK 212320Z AUTO 00000KT CAVOK 11/10 Q1028 NOSIG",
      "taf": "TAF EDDK 212300Z 2200/2306 12004KT CAVOK"
    },
    {
      "icao": "EDDN",
      "alert": "OK",
      "vis_m": 9999,
      "fzfg": false,
      "metar_trigger": false,
      "taf_trigger": false,
      "metar": "METAR EDDN 212320Z AUTO 09003KT 050V110 CAVOK 10/08 Q1028",
      "taf": "TAF EDDN 212300Z 2200/2224 11005KT CAVOK"
    },
    {
      "icao": "EDDS",
      "alert": "OK",
      "vis_m": 9999,
      "fzfg": false,
      "metar_trigger": false,
      "taf_trigger": false,
      "metar": "METAR EDDS 212320Z AUTO VRB02KT CAVOK 12/09 Q1028",
      "taf": "TAF EDDS 212300Z 2200/2224 VRB02KT CAVOK"
    },
    {
      "icao": "EDFH",
      "alert": "OK",
      "vis_m": 9999,
      "fzfg": false,
      "metar_trigger": false,
      "taf_trigger": false,
      "metar": "METAR EDFH 212320Z 11003KT 040V150 CAVOK 14/09 Q1028",
      "taf": "TAF EDFH 212300Z 2200/2224 10005KT CAVOK"
    },
    {
      "icao": "EDJA",
      "alert": "OK",
      "vis_m": 9999,
      "fzfg": false,
      "metar_trigger": false,
      "taf_trigger": false,
      "metar": "METAR EDJA 212320Z AUTO 04003KT 9999 // FEW140/// 09/07 Q1028",
      "taf": "TAF EDJA 211700Z 2118/2203 VRB03KT CAVOK"
    },
    {
      "icao": "EDLW",
      "alert": "OK",
      "vis_m": 9999,
      "fzfg": false,
      "metar_trigger": false,
      "taf_trigger": false,
      "metar": "METAR EDLW 212320Z AUTO 17004KT 9999 // NCD 12/10 Q1028",
      "taf": "TAF EDLW 211700Z 2118/2218 23004KT CAVOK"
    },
    {
      "icao": "EDNY",
      "alert": "OK",
      "vis_m": null,
      "fzfg": false,
      "metar_trigger": false,
      "taf_trigger": false,
      "metar": "",
      "taf": "TAF EDNY 211700Z 2118/2203 04005KT CAVOK"
    },
    {
      "icao": "EDSB",
      "alert": "OK",
      "vis_m": 9999,
      "fzfg": false,
      "metar_trigger": false,
      "taf_trigger": false,
      "metar": "METAR EDSB 212320Z AUTO VRB02KT 9999 // NCD 15/12 Q1026",
      "taf": "TAF EDSB 212300Z 2200/2224 VRB03KT CAVOK"
    },
    {
      "icao": "EETN",
      "alert": "OK",
      "vis_m": 9999,
      "fzfg": false,
      "metar_trigger": false,
      "taf_trigger": false,
      "metar": "METAR EETN 212320Z VRB01KT CAVOK 12/10 Q1019",
      "taf": "TAF EETN 212330Z 2200/2224 VRB02KT 9999 SCT030"
    },
    {
      "icao": "EFTU",
      "alert": "OK",
      "vis_m": 9999,
      "fzfg": false,
      "metar_trigger": false,
      "taf_trigger": false,
      "metar": "METAR EFTU 212320Z AUTO 24003KT CAVOK 10/09 Q1019",
      "taf": "TAF EFTU 212032Z 2121/2221 20002KT CAVOK"
    },
    {
      "icao": "EGBB",
      "alert": "OK",
      "vis_m": 9999,
      "fzfg": false,
      "metar_trigger": false,
      "taf_trigger": false,
      "metar": "METAR EGBB 212320Z 14004KT CAVOK 15/13 Q1024",
      "taf": "TAF EGBB 212255Z 2200/2224 VRB04KT CAVOK"
    },
    {
      "icao": "EGGP",
      "alert": "OK",
      "vis_m": 9999,
      "fzfg": false,
      "metar_trigger": false,
      "taf_trigger": false,
      "metar": "METAR EGGP 212320Z 11007KT 9999 FEW049 16/12 Q1022",
      "taf": "TAF EGGP 212253Z 2200/2224 14008KT 9999 SCT030"
    },
    {
      "icao": "EGGW",
      "alert": "OK",
      "vis_m": 9999,
      "fzfg": false,
      "metar_trigger": false,
      "taf_trigger": false,
      "metar": "METAR EGGW 212320Z AUTO 17004KT 9999 NCD 14/10 Q1025",
      "taf": "TAF EGGW 212256Z 2200/2224 17006KT CAVOK"
    },
    {
      "icao": "EGKK",
      "alert": "OK",
      "vis_m": 9999,
      "fzfg": false,
      "metar_trigger": false,
      "taf_trigger": false,
      "metar": "METAR EGKK 212320Z 06003KT CAVOK 13/11 Q1025",
      "taf": "TAF EGKK 212254Z 2200/2306 10003KT CAVOK"
    },
    {
      "icao": "EGNM",
      "alert": "OK",
      "vis_m": 9999,
      "fzfg": false,
      "metar_trigger": false,
      "taf_trigger": false,
      "metar": "METAR EGNM 212320Z 15005KT CAVOK 14/12 Q1024",
      "taf": "TAF EGNM 212253Z 2200/2224 15004KT 9999 FEW035"
    },
    {
      "icao": "EGPD",
      "alert": "OK",
      "vis_m": 9999,
      "fzfg": false,
      "metar_trigger": false,
      "taf_trigger": false,
      "metar": "METAR EGPD 212320Z COR AUTO 17007KT 9999 NCD 15/13 Q1020 NOSIG",
      "taf": "TAF EGPD 212256Z 2200/2224 19009KT 9999 FEW040"
    },
    {
      "icao": "EGPF",
      "alert": "OK",
      "vis_m": 9999,
      "fzfg": false,
      "metar_trigger": false,
      "taf_trigger": false,
      "metar": "METAR EGPF 212320Z AUTO 16005KT 130V190 9999 NCD 15/12 Q1021",
      "taf": "TAF EGPF 212300Z 2200/2224 16008KT 9999 BKN020"
    },
    {
      "icao": "EHBK",
      "alert": "OK",
      "vis_m": 9999,
      "fzfg": false,
      "metar_trigger": false,
      "taf_trigger": false,
      "metar": "METAR EHBK 212325Z AUTO 13002KT 9999 NSC 13/10 Q1028",
      "taf": "TAF EHBK 212307Z 2200/2306 12003KT CAVOK"
    },
    {
      "icao": "EHEH",
      "alert": "OK",
      "vis_m": 9999,
      "fzfg": false,
      "metar_trigger": false,
      "taf_trigger": false,
      "metar": "METAR EHEH 212325Z AUTO 09001KT 9999 ////// 11/11 Q1027 BLU",
      "taf": "TAF EHEH 211735Z 2118/2224 25004KT 9999 FEW043"
    },
    {
      "icao": "EKBI",
      "alert": "OK",
      "vis_m": 9999,
      "fzfg": false,
      "metar_trigger": false,
      "taf_trigger": false,
      "metar": "METAR EKBI 212320Z AUTO 20003KT 9999 FEW062/// FEW072/// 10/09 Q1026",
      "taf": "TAF EKBI 212327Z 2200/2224 28009KT 9999 BKN040"
    },
    {
      "icao": "EKCH",
      "alert": "OK",
      "vis_m": 9999,
      "fzfg": false,
      "metar_trigger": false,
      "taf_trigger": false,
      "metar": "METAR EKCH 212320Z AUTO 25007KT 9999 NCD 09/07 Q1025 NOSIG",
      "taf": "TAF EKCH 212327Z 2200/2224 26008KT 9999 SCT018"
    },
    {
      "icao": "ENAL",
      "alert": "OK",
      "vis_m": 9999,
      "fzfg": false,
      "metar_trigger": false,
      "taf_trigger": false,
      "metar": "METAR ENAL 212320Z AUTO 10003KT 9999 NCD 08/07 Q1021",
      "taf": "TAF ENAL 212000Z 2121/2206 14005KT 9999 SCT050"
    },
    {
      "icao": "ENBR",
      "alert": "OK",
      "vis_m": 9999,
      "fzfg": false,
      "metar_trigger": false,
      "taf_trigger": false,
      "metar": "METAR ENBR 212320Z AUTO 15006KT 9999 OVC042/// 10/07 Q1022 RMK WIND 1200FT 17012KT",
      "taf": "TAF ENBR 211700Z 2118/2218 16007KT 9999 FEW025 SCT040"
    },
    {
      "icao": "ENGM",
      "alert": "OK",
      "vis_m": 9999,
      "fzfg": false,
      "metar_trigger": false,
      "taf_trigger": false,
      "metar": "METAR ENGM 212320Z 20005KT 9999 FEW047 11/09 Q1019",
      "taf": "TAF ENGM 211700Z 2118/2218 VRB03KT 9999 SCT030"
    },
    {
      "icao": "ENHD",
      "alert": "OK",
      "vis_m": 9999,
      "fzfg": false,
      "metar_trigger": false,
      "taf_trigger": false,
      "metar": "METAR ENHD 212320Z AUTO 15005KT 9999 OVC028/// 10/08 Q1023",
      "taf": ""
    },
    {
      "icao": "ENTC",
      "alert": "OK",
      "vis_m": 9999,
      "fzfg": false,
      "metar_trigger": false,
      "taf_trigger": false,
      "metar": "METAR ENTC 212320Z 05004KT CAVOK 06/04 Q1018 RMK WIND 2600FT 20011KT",
      "taf": ""
    },
    {
      "icao": "ENTO",
      "alert": "OK",
      "vis_m": 9999,
      "fzfg": false,
      "metar_trigger": false,
      "taf_trigger": false,
      "metar": "METAR ENTO 212320Z AUTO 31002KT 9999 NCD 11/08 Q1020",
      "taf": "TAF ENTO 211700Z 2118/2218 VRB03KT CAVOK"
    },
    {
      "icao": "ENVA",
      "alert": "OK",
      "vis_m": 9999,
      "fzfg": false,
      "metar_trigger": false,
      "taf_trigger": false,
      "metar": "METAR ENVA 212320Z AUTO 28009KT 9999 BKN028/// BKN034/// 12/10 Q1022 RMK WIND 670FT 28010KT",
      "taf": "TAF ENVA 211700Z 2118/2218 25010KT 9999 FEW025 BKN050"
    },
    {
      "icao": "ENZV",
      "alert": "OK",
      "vis_m": 9999,
      "fzfg": false,
      "metar_trigger": false,
      "taf_trigger": false,
      "metar": "METAR ENZV 212320Z 16003KT 9999 OVC028 11/07 Q1023",
      "taf": "TAF ENZV 211700Z 2118/2218 VRB05KT 9999 FEW010 BKN030"
    },
    {
      "icao": "EPGD",
      "alert": "OK",
      "vis_m": 9999,
      "fzfg": false,
      "metar_trigger": false,
      "taf_trigger": false,
      "metar": "METAR EPGD 212330Z 24005KT 200V260 CAVOK 12/08 Q1025",
      "taf": "TAF EPGD 212330Z 2200/2224 25008KT CAVOK"
    },
    {
      "icao": "EPKK",
      "alert": "OK",
      "vis_m": 9999,
      "fzfg": false,
      "metar_trigger": false,
      "taf_trigger": false,
      "metar": "METAR EPKK 212330Z VRB01KT 9999 BKN048 11/09 Q1027",
      "taf": "TAF EPKK 212330Z 2200/2224 VRB02KT 9999 SCT050"
    },
    {
      "icao": "EPKT",
      "alert": "OK",
      "vis_m": 7000,
      "fzfg": false,
      "metar_trigger": false,
      "taf_trigger": false,
      "metar": "METAR EPKT 212330Z 04001KT 7000 0800NW BCFG NSC 07/06 Q1027",
      "taf": "TAF EPKT 212330Z 2200/2224 VRB02KT CAVOK"
    },
    {
      "icao": "EPLB",
      "alert": "OK",
      "vis_m": 9999,
      "fzfg": false,
      "metar_trigger": false,
      "taf_trigger": false,
      "metar": "METAR EPLB 212330Z 34006KT CAVOK 14/12 Q1024",
      "taf": "TAF EPLB 212330Z 2200/2224 33008KT CAVOK"
    },
    {
      "icao": "EPMO",
      "alert": "OK",
      "vis_m": 9999,
      "fzfg": false,
      "metar_trigger": false,
      "taf_trigger": false,
      "metar": "METAR EPMO 212330Z 28001KT CAVOK 11/11 Q1026",
      "taf": "TAF EPMO 212330Z 2200/2224 VRB02KT CAVOK"
    },
    {
      "icao": "EPPO",
      "alert": "OK",
      "vis_m": 9999,
      "fzfg": false,
      "metar_trigger": false,
      "taf_trigger": false,
      "metar": "METAR EPPO 212330Z 29003KT CAVOK 13/09 Q1027",
      "taf": "TAF EPPO 212330Z 2200/2224 28005KT CAVOK"
    },
    {
      "icao": "EPRA",
      "alert": "OK",
      "vis_m": 9999,
      "fzfg": false,
      "metar_trigger": false,
      "taf_trigger": false,
      "metar": "METAR EPRA 212330Z 31003KT CAVOK 14/08 Q1026",
      "taf": "TAF EPRA 212330Z 2200/2209 30004KT CAVOK"
    },
    {
      "icao": "EPRZ",
      "alert": "OK",
      "vis_m": 9999,
      "fzfg": false,
      "metar_trigger": false,
      "taf_trigger": false,
      "metar": "METAR EPRZ 212330Z 31009KT CAVOK 15/10 Q1025",
      "taf": "TAF EPRZ 212330Z 2200/2224 31010KT CAVOK"
    },
    {
      "icao": "EPSC",
      "alert": "OK",
      "vis_m": 9999,
      "fzfg": false,
      "metar_trigger": false,
      "taf_trigger": false,
      "metar": "METAR EPSC 212330Z VRB02KT CAVOK 10/09 Q1027",
      "taf": "TAF EPSC 212330Z 2200/2224 VRB04KT CAVOK"
    },
    {
      "icao": "EPSY",
      "alert": "OK",
      "vis_m": 9999,
      "fzfg": false,
      "metar_trigger": false,
      "taf_trigger": false,
      "metar": "METAR EPSY 212330Z VRB01KT CAVOK 06/06 Q1025",
      "taf": "TAF EPSY 212330Z 2200/2209 VRB03KT CAVOK"
    },
    {
      "icao": "EPWA",
      "alert": "OK",
      "vis_m": 9999,
      "fzfg": false,
      "metar_trigger": false,
      "taf_trigger": false,
      "metar": "METAR EPWA 212330Z 27002KT CAVOK 12/10 Q1026 NOSIG",
      "taf": "TAF EPWA 212330Z 2200/2224 VRB03KT CAVOK"
    },
    {
      "icao": "EPWR",
      "alert": "OK",
      "vis_m": 9999,
      "fzfg": false,
      "metar_trigger": false,
      "taf_trigger": false,
      "metar": "METAR EPWR 212330Z 23003KT CAVOK 12/09 Q1028",
      "taf": "TAF EPWR 212330Z 2200/2224 VRB02KT CAVOK"
    },
    {
      "icao": "ESGG",
      "alert": "OK",
      "vis_m": 9999,
      "fzfg": false,
      "metar_trigger": false,
      "taf_trigger": false,
      "metar": "METAR ESGG 212320Z 22008KT CAVOK 08/07 Q1022",
      "taf": "TAF ESGG 212330Z 2200/2224 23007KT CAVOK"
    },
    {
      "icao": "ESKN",
      "alert": "OK",
      "vis_m": 9999,
      "fzfg": false,
      "metar_trigger": false,
      "taf_trigger": false,
      "metar": "METAR ESKN 212320Z 26005KT CAVOK 10/10 Q1020",
      "taf": "TAF ESKN 212330Z 2200/2224 26006KT CAVOK"
    },
    {
      "icao": "ESMS",
      "alert": "OK",
      "vis_m": 9999,
      "fzfg": false,
      "metar_trigger": false,
      "taf_trigger": false,
      "metar": "METAR ESMS 212320Z 25004KT CAVOK 07/06 Q1025",
      "taf": "TAF ESMS 212327Z 2200/2224 25008KT 9999 SCT014"
    },
    {
      "icao": "ESSA",
      "alert": "OK",
      "vis_m": 9999,
      "fzfg": false,
      "metar_trigger": false,
      "taf_trigger": false,
      "metar": "METAR ESSA 212320Z 19004KT CAVOK 10/09 Q1018 NOSIG",
      "taf": "TAF ESSA 212330Z 2200/2224 24005KT CAVOK"
    },
    {
      "icao": "EYKA",
      "alert": "OK",
      "vis_m": 9999,
      "fzfg": false,
      "metar_trigger": false,
      "taf_trigger": false,
      "metar": "METAR EYKA 212320Z 29008KT CAVOK 12/10 Q1022",
      "taf": "TAF EYKA 212300Z 2200/2224 27008KT 5000 BR SCT005"
    },
    {
      "icao": "EYPA",
      "alert": "OK",
      "vis_m": 5000,
      "fzfg": false,
      "metar_trigger": false,
      "taf_trigger": false,
      "metar": "METAR EYPA 212320Z AUTO 21005KT 180V270 5000 BR OVC002/// 09/09 Q1022",
      "taf": "TAF EYPA 212300Z 2200/2224 VRB03KT 3000 BR BKN002"
    },
    {
      "icao": "EYVI",
      "alert": "OK",
      "vis_m": 9999,
      "fzfg": false,
      "metar_trigger": false,
      "taf_trigger": false,
      "metar": "METAR EYVI 212320Z 31008KT CAVOK 13/12 Q1022 NOSIG",
      "taf": "TAF EYVI 212300Z 2200/2224 28008KT 5000 BR SCT005"
    },
    {
      "icao": "GCFV",
      "alert": "OK",
      "vis_m": 9999,
      "fzfg": false,
      "metar_trigger": false,
      "taf_trigger": false,
      "metar": "METAR GCFV 212300Z AUTO 30015KT 270V330 CAVOK 21/16 Q1017",
      "taf": "TAF GCFV 212000Z 2121/2221 31016KT 9999 FEW020 TX27/2214Z TN18/2206Z"
    },
    {
      "icao": "GCLP",
      "alert": "OK",
      "vis_m": 9999,
      "fzfg": false,
      "metar_trigger": false,
      "taf_trigger": false,
      "metar": "METAR GCLP 212300Z 36018KT 9999 FEW025 20/14 Q1018 NOSIG",
      "taf": "TAF GCLP 212000Z 2121/2221 01020KT 9999 FEW030 TX26/2214Z TN19/2206Z"
    },
    {
      "icao": "GCTS",
      "alert": "OK",
      "vis_m": 9999,
      "fzfg": false,
      "metar_trigger": false,
      "taf_trigger": false,
      "metar": "METAR GCTS 212300Z VRB01KT 9999 SCT020 20/15 Q1018 NOSIG",
      "taf": "TAF GCTS 212000Z 2121/2221 27008KT 9999 BKN020 TX25/2214Z TN18/2206Z"
    },
    {
      "icao": "GMAD",
      "alert": "OK",
      "vis_m": 9999,
      "fzfg": false,
      "metar_trigger": false,
      "taf_trigger": false,
      "metar": "METAR GMAD 212330Z 00000KT 9999 FEW013 17/16 Q1015 NOSIG",
      "taf": "TAF GMAD 212300Z 2200/2306 06008KT 8000 SCT016"
    },
    {
      "icao": "GMMN",
      "alert": "OK",
      "vis_m": 9999,
      "fzfg": false,
      "metar_trigger": false,
      "taf_trigger": false,
      "metar": "METAR GMMN 212330Z 07008KT 030V090 CAVOK 27/10 Q1016 NOSIG",
      "taf": "TAF GMMN 212300Z 2200/2306 06006KT CAVOK"
    },
    {
      "icao": "GMMX",
      "alert": "OK",
      "vis_m": 9999,
      "fzfg": false,
      "metar_trigger": false,
      "taf_trigger": false,
      "metar": "METAR GMMX 212330Z 24005KT CAVOK 25/07 Q1017 NOSIG",
      "taf": "TAF GMMX 212300Z 2200/2306 24006KT 8000 NSC"
    },
    {
      "icao": "HEGN",
      "alert": "OK",
      "vis_m": 9999,
      "fzfg": false,
      "metar_trigger": false,
      "taf_trigger": false,
      "metar": "METAR HEGN 212300Z 28009KT CAVOK 24/08 Q1011 NOSIG",
      "taf": "TAF HEGN 212300Z 2200/2306 29012KT CAVOK"
    },
    {
      "icao": "HEMA",
      "alert": "OK",
      "vis_m": 9999,
      "fzfg": false,
      "metar_trigger": false,
      "taf_trigger": false,
      "metar": "METAR HEMA 212300Z 33012KT CAVOK 24/07 Q1010 NOSIG",
      "taf": "TAF HEMA 212300Z 2200/2306 26012KT CAVOK"
    },
    {
      "icao": "HESH",
      "alert": "OK",
      "vis_m": 9999,
      "fzfg": false,
      "metar_trigger": false,
      "taf_trigger": false,
      "metar": "METAR HESH 212300Z 35009KT CAVOK 25/13 Q1011 NOSIG",
      "taf": "TAF HESH 212300Z 2200/2306 33010KT CAVOK"
    },
    {
      "icao": "HESX",
      "alert": "OK",
      "vis_m": 9999,
      "fzfg": false,
      "metar_trigger": false,
      "taf_trigger": false,
      "metar": "METAR HESX 212300Z 01004KT CAVOK 17/11 Q1014 NOSIG",
      "taf": "TAF HESX 212300Z 2200/2306 34009KT 9999 SCT025"
    },
    {
      "icao": "LATI",
      "alert": "OK",
      "vis_m": 9999,
      "fzfg": false,
      "metar_trigger": false,
      "taf_trigger": false,
      "metar": "METAR LATI 212320Z 24003KT 170V290 CAVOK 19/08 Q1016 NOSIG",
      "taf": "TAF LATI 212300Z 2200/2224 VRB05KT CAVOK TX29/2212Z TN12/2204Z"
    },
    {
      "icao": "LBPD",
      "alert": "OK",
      "vis_m": 9999,
      "fzfg": false,
      "metar_trigger": false,
      "taf_trigger": false,
      "metar": "METAR LBPD 212330Z AUTO 27012KT 9999 OVC120/// 19/11 Q1015",
      "taf": "TAF LBPD 212300Z 2200/2224 28014KT 9999 SCT060"
    },
    {
      "icao": "LBSF",
      "alert": "OK",
      "vis_m": 9999,
      "fzfg": false,
      "metar_trigger": false,
      "taf_trigger": false,
      "metar": "METAR LBSF 212330Z AUTO 32004KT 300V360 9999 FEW043/// BKN063/// 14/12 Q1018 NOSIG",
      "taf": "TAF LBSF 212300Z 2200/2224 29010KT 9999 BKN070"
    },
    {
      "icao": "LBWN",
      "alert": "OK",
      "vis_m": 9999,
      "fzfg": false,
      "metar_trigger": false,
      "taf_trigger": false,
      "metar": "METAR LBWN 212330Z AUTO 35004KT 320V040 9999 FEW014/// SCT036/// 18/18 Q1012 NOSIG",
      "taf": "TAF LBWN 212300Z 2200/2224 30010KT 9999 BKN015"
    },
    {
      "icao": "LCLK",
      "alert": "OK",
      "vis_m": 9999,
      "fzfg": false,
      "metar_trigger": false,
      "taf_trigger": false,
      "metar": "METAR LCLK 212330Z 17004KT 9999 FEW040 19/18 Q1010 NOSIG",
      "taf": "TAF LCLK 212330Z 2200/2300 28004KT 9999 FEW025"
    },
    {
      "icao": "LCPH",
      "alert": "OK",
      "vis_m": 9999,
      "fzfg": false,
      "metar_trigger": false,
      "taf_trigger": false,
      "metar": "METAR LCPH 212330Z 01006KT 010V080 CAVOK 16/13 Q1010 NOSIG",
      "taf": "TAF LCPH 212330Z 2200/2300 17008KT 9999 SCT015"
    },
    {
      "icao": "LEAL",
      "alert": "OK",
      "vis_m": 9999,
      "fzfg": false,
      "metar_trigger": false,
      "taf_trigger": false,
      "metar": "METAR LEAL 212300Z 33003KT 260V020 CAVOK 20/11 Q1025 NOSIG",
      "taf": "TAF LEAL 212300Z 2200/2224 VRB04KT CAVOK TX28/2212Z TN16/2205Z"
    },
    {
      "icao": "LEBB",
      "alert": "OK",
      "vis_m": 9999,
      "fzfg": false,
      "metar_trigger": false,
      "taf_trigger": false,
      "metar": "METAR LEBB 212300Z AUTO VRB01KT CAVOK 19/17 Q1023",
      "taf": "TAF LEBB 212300Z 2200/2224 13006KT CAVOK TX37/2214Z TN17/2204Z"
    },
    {
      "icao": "LEBL",
      "alert": "OK",
      "vis_m": 9999,
      "fzfg": false,
      "metar_trigger": false,
      "taf_trigger": false,
      "metar": "METAR LEBL 212300Z 26006KT 240V300 CAVOK 19/18 Q1025 NOSIG",
      "taf": "TAF LEBL 212300Z 2200/2224 VRB03KT 9999 FEW020 TX25/2212Z TN17/2205Z"
    },
    {
      "icao": "LECH",
      "alert": "OK",
      "vis_m": 9999,
      "fzfg": false,
      "metar_trigger": false,
      "taf_trigger": false,
      "metar": "METAR LECH 212300Z AUTO 19006KT CAVOK 18/10 Q1025",
      "taf": "TAF LECH 212300Z 2200/2224 VRB03KT CAVOK TX30/2212Z TN15/2205Z"
    },
    {
      "icao": "LEMD",
      "alert": "OK",
      "vis_m": 9999,
      "fzfg": false,
      "metar_trigger": false,
      "taf_trigger": false,
      "metar": "METAR LEMD 212300Z 34005KT CAVOK 18/10 Q1024 NOSIG",
      "taf": "TAF LEMD 212300Z 2200/2306 VRB04KT CAVOK TX34/2216Z TN15/2205Z"
    },
    {
      "icao": "LEMG",
      "alert": "OK",
      "vis_m": 9999,
      "fzfg": false,
      "metar_trigger": false,
      "taf_trigger": false,
      "metar": "METAR LEMG 212300Z 30005KT CAVOK 17/08 Q1023 NOSIG",
      "taf": "TAF LEMG 212300Z 2200/2224 29005KT CAVOK TX28/2214Z TN17/2207Z"
    },
    {
      "icao": "LEVC",
      "alert": "OK",
      "vis_m": 9999,
      "fzfg": false,
      "metar_trigger": false,
      "taf_trigger": false,
      "metar": "METAR LEVC 212300Z 29004KT CAVOK 18/12 Q1025 NOSIG",
      "taf": "TAF LEVC 212300Z 2200/2224 VRB04KT CAVOK TX31/2214Z TN16/2205Z"
    },
    {
      "icao": "LEXJ",
      "alert": "OK",
      "vis_m": 8000,
      "fzfg": false,
      "metar_trigger": false,
      "taf_trigger": false,
      "metar": "METAR LEXJ 212300Z AUTO VRB02KT 8000 NSC 18/14 Q1023",
      "taf": "TAF LEXJ 212000Z 2121/2221 21007KT CAVOK TX32/2214Z TN17/2203Z"
    },
    {
      "icao": "LEZG",
      "alert": "OK",
      "vis_m": 9999,
      "fzfg": false,
      "metar_trigger": false,
      "taf_trigger": false,
      "metar": "METAR LEZG 212300Z 09003KT 030V130 CAVOK 23/12 Q1023 NOSIG",
      "taf": "TAF LEZG 212300Z 2200/2224 10007KT CAVOK TX36/2215Z TN19/2205Z"
    },
    {
      "icao": "LEZL",
      "alert": "OK",
      "vis_m": 9999,
      "fzfg": false,
      "metar_trigger": false,
      "taf_trigger": false,
      "metar": "METAR LEZL 212300Z 22003KT CAVOK 23/10 Q1021 NOSIG",
      "taf": "TAF LEZL 212000Z 2121/2221 22004KT CAVOK TX38/2215Z TN19/2207Z"
    },
    {
      "icao": "LFBD",
      "alert": "OK",
      "vis_m": 9999,
      "fzfg": false,
      "metar_trigger": false,
      "taf_trigger": false,
      "metar": "METAR LFBD 212330Z AUTO 08003KT CAVOK 20/15 Q1023 NOSIG",
      "taf": "TAF LFBD 211700Z 2118/2224 10010KT CAVOK TX34/2215Z TN16/2205Z"
    },
    {
      "icao": "LFLL",
      "alert": "OK",
      "vis_m": 9999,
      "fzfg": false,
      "metar_trigger": false,
      "taf_trigger": false,
      "metar": "METAR LFLL 212330Z 19003KT CAVOK 17/12 Q1025 NOSIG",
      "taf": "TAF LFLL 212300Z 2200/2306 18003KT CAVOK"
    },
    {
      "icao": "LFLS",
      "alert": "OK",
      "vis_m": 9999,
      "fzfg": false,
      "metar_trigger": false,
      "taf_trigger": false,
      "metar": "METAR LFLS 212330Z AUTO 08004KT CAVOK 11/11 Q1026",
      "taf": "TAF LFLS 211400Z 2115/2215 VRB03KT CAVOK"
    },
    {
      "icao": "LFMN",
      "alert": "OK",
      "vis_m": 9999,
      "fzfg": false,
      "metar_trigger": false,
      "taf_trigger": false,
      "metar": "METAR LFMN 212330Z 34006KT CAVOK 19/12 Q1024 NOSIG",
      "taf": "TAF LFMN 212000Z 2121/2303 18005KT CAVOK"
    },
    {
      "icao": "LFOB",
      "alert": "OK",
      "vis_m": 9999,
      "fzfg": false,
      "metar_trigger": false,
      "taf_trigger": false,
      "metar": "METAR LFOB 212330Z AUTO 04003KT CAVOK 10/10 Q1026 NOSIG",
      "taf": "TAF LFOB 212300Z 2200/2224 10003KT CAVOK"
    },
    {
      "icao": "LFPO",
      "alert": "OK",
      "vis_m": 9999,
      "fzfg": false,
      "metar_trigger": false,
      "taf_trigger": false,
      "metar": "METAR LFPO 212330Z AUTO 00000KT CAVOK 13/12 Q1026 NOSIG",
      "taf": "TAF LFPO 211700Z 2118/2224 10005KT CAVOK"
    },
    {
      "icao": "LFSB",
      "alert": "OK",
      "vis_m": 9999,
      "fzfg": false,
      "metar_trigger": false,
      "taf_trigger": false,
      "metar": "METAR LFSB 212330Z AUTO 28002KT CAVOK 11/10 Q1027 NOSIG",
      "taf": "TAF LFSB 212300Z 2200/2224 VRB03KT CAVOK"
    },
    {
      "icao": "LGAV",
      "alert": "OK",
      "vis_m": 9999,
      "fzfg": false,
      "metar_trigger": false,
      "taf_trigger": false,
      "metar": "METAR LGAV 212320Z VRB02KT 9999 FEW030 15/11 Q1014 NOSIG",
      "taf": "TAF LGAV 212300Z 2200/2224 VRB03KT 9999 FEW030"
    },
    {
      "icao": "LGTS",
      "alert": "OK",
      "vis_m": 9999,
      "fzfg": false,
      "metar_trigger": false,
      "taf_trigger": false,
      "metar": "METAR LGTS 212320Z 33011KT 9999 SCT030 22/11 Q1014 NOSIG",
      "taf": "TAF LGTS 212300Z 2200/2224 32015KT 9999 FEW030"
    },
    {
      "icao": "LHBP",
      "alert": "OK",
      "vis_m": 9999,
      "fzfg": false,
      "metar_trigger": false,
      "taf_trigger": false,
      "metar": "METAR LHBP 212330Z 35004KT 320V030 CAVOK 16/09 Q1023 NOSIG",
      "taf": "TAF LHBP 212315Z 2200/2224 35009KT CAVOK"
    },
    {
      "icao": "LHDC",
      "alert": "OK",
      "vis_m": 9999,
      "fzfg": false,
      "metar_trigger": false,
      "taf_trigger": false,
      "metar": "METAR LHDC 212315Z AUTO 36015KT 330V030 CAVOK 18/10 Q1021",
      "taf": "TAF LHDC 211415Z 2115/2124 01016KT CAVOK"
    },
    {
      "icao": "LIBD",
      "alert": "OK",
      "vis_m": 9999,
      "fzfg": false,
      "metar_trigger": false,
      "taf_trigger": false,
      "metar": "METAR LIBD 212320Z 29008KT 270V330 CAVOK 19/14 Q1020",
      "taf": "TAF LIBD 212300Z 2200/2224 28010KT CAVOK"
    },
    {
      "icao": "LIBG",
      "alert": "OK",
      "vis_m": 9999,
      "fzfg": false,
      "metar_trigger": false,
      "taf_trigger": false,
      "metar": "METAR LIBG 212320Z AUTO 36013KT 9999 FEW240/// 19/11 Q1017",
      "taf": "TAF LIBG 212300Z 2200/2224 33015KT CAVOK"
    },
    {
      "icao": "LIBP",
      "alert": "OK",
      "vis_m": 9999,
      "fzfg": false,
      "metar_trigger": false,
      "taf_trigger": false,
      "metar": "METAR LIBP 212320Z AUTO 23006KT 9999 SCT110/// 15/10 Q1024",
      "taf": "TAF LIBP 212300Z 2200/2224 22006KT 9999 FEW060"
    },
    {
      "icao": "LIBR",
      "alert": "OK",
      "vis_m": 9999,
      "fzfg": false,
      "metar_trigger": false,
      "taf_trigger": false,
      "metar": "METAR LIBR 212320Z 32011KT CAVOK 19/15 Q1017",
      "taf": "TAF LIBR 212300Z 2200/2224 31016KT CAVOK"
    },
    {
      "icao": "LICA",
      "alert": "OK",
      "vis_m": 9999,
      "fzfg": false,
      "metar_trigger": false,
      "taf_trigger": false,
      "metar": "METAR LICA 212320Z AUTO 21003KT 190V260 9999 FEW018/// 17/15 Q1020",
      "taf": "TAF LICA 212300Z 2200/2224 VRB05KT 9999 SCT015"
    },
    {
      "icao": "LICC",
      "alert": "OK",
      "vis_m": 9999,
      "fzfg": false,
      "metar_trigger": false,
      "taf_trigger": false,
      "metar": "METAR LICC 212320Z VRB02KT CAVOK 16/09 Q1019",
      "taf": "TAF LICC 212300Z 2200/2224 27005KT CAVOK"
    },
    {
      "icao": "LICJ",
      "alert": "OK",
      "vis_m": 9999,
      "fzfg": false,
      "metar_trigger": false,
      "taf_trigger": false,
      "metar": "METAR LICJ 212320Z 19003KT CAVOK 18/15 Q1022",
      "taf": "TAF LICJ 212300Z 2200/2224 VRB05KT CAVOK"
    },
    {
      "icao": "LIMC",
      "alert": "OK",
      "vis_m": 9999,
      "fzfg": false,
      "metar_trigger": false,
      "taf_trigger": false,
      "metar": "METAR LIMC 212320Z 35005KT CAVOK 18/11 Q1025 NOSIG",
      "taf": "TAF LIMC 212300Z 2200/2306 VRB05KT CAVOK"
    },
    {
      "icao": "LIME",
      "alert": "OK",
      "vis_m": 9999,
      "fzfg": false,
      "metar_trigger": false,
      "taf_trigger": false,
      "metar": "METAR LIME 212320Z AUTO 01004KT 9999 NCD 18/11 Q1025",
      "taf": "TAF LIME 212300Z 2200/2224 VRB05KT CAVOK"
    },
    {
      "icao": "LIMF",
      "alert": "OK",
      "vis_m": 9999,
      "fzfg": false,
      "metar_trigger": false,
      "taf_trigger": false,
      "metar": "METAR LIMF 212320Z VRB03KT CAVOK 17/12 Q1025",
      "taf": "TAF LIMF 212300Z 2200/2224 VRB04KT CAVOK"
    },
    {
      "icao": "LIMJ",
      "alert": "OK",
      "vis_m": 9999,
      "fzfg": false,
      "metar_trigger": false,
      "taf_trigger": false,
      "metar": "METAR LIMJ 212320Z 03003KT CAVOK 19/12 Q1024",
      "taf": "TAF LIMJ 212300Z 2200/2224 VRB05KT CAVOK"
    },
    {
      "icao": "LIPE",
      "alert": "OK",
      "vis_m": 9999,
      "fzfg": false,
      "metar_trigger": false,
      "taf_trigger": false,
      "metar": "METAR LIPE 212320Z AUTO 17004KT 9999 NCD 18/12 Q1025",
      "taf": "TAF LIPE 212300Z 2200/2224 VRB05KT CAVOK"
    },
    {
      "icao": "LIPH",
      "alert": "OK",
      "vis_m": 9999,
      "fzfg": false,
      "metar_trigger": false,
      "taf_trigger": false,
      "metar": "METAR LIPH 212320Z AUTO VRB01KT 9999 SCT092/// 17/13 Q1025",
      "taf": "TAF LIPH 212300Z 2200/2224 VRB05KT CAVOK"
    },
    {
      "icao": "LIPQ",
      "alert": "OK",
      "vis_m": 9999,
      "fzfg": false,
      "metar_trigger": false,
      "taf_trigger": false,
      "metar": "METAR LIPQ 212320Z AUTO 04003KT 010V070 9999 FEW073/// SCT082/// 15/13 Q1025",
      "taf": "TAF LIPQ 212300Z 2200/2224 VRB05KT 9999 FEW080"
    },
    {
      "icao": "LIPR",
      "alert": "OK",
      "vis_m": 9999,
      "fzfg": false,
      "metar_trigger": false,
      "taf_trigger": false,
      "metar": "METAR LIPR 212320Z AUTO VRB02KT 9999 NCD 14/09 Q1025",
      "taf": "TAF LIPR 212300Z 2200/2224 VRB05KT CAVOK"
    },
    {
      "icao": "LIPX",
      "alert": "OK",
      "vis_m": 9999,
      "fzfg": false,
      "metar_trigger": false,
      "taf_trigger": false,
      "metar": "METAR LIPX 212320Z 34004KT CAVOK 17/13 Q1025",
      "taf": "TAF LIPX 212300Z 2200/2224 VRB05KT 9999 FEW050"
    },
    {
      "icao": "LIPY",
      "alert": "OK",
      "vis_m": 9999,
      "fzfg": false,
      "metar_trigger": false,
      "taf_trigger": false,
      "metar": "METAR LIPY 212320Z AUTO 18003KT 9999 NCD 14/10 Q1025",
      "taf": "TAF LIPY 212300Z 2200/2224 VRB05KT CAVOK"
    },
    {
      "icao": "LIPZ",
      "alert": "OK",
      "vis_m": 9999,
      "fzfg": false,
      "metar_trigger": false,
      "taf_trigger": false,
      "metar": "METAR LIPZ 212320Z VRB02KT CAVOK 18/11 Q1025 NOSIG",
      "taf": "TAF LIPZ 212300Z 2200/2306 VRB05KT CAVOK"
    },
    {
      "icao": "LIRF",
      "alert": "OK",
      "vis_m": 9999,
      "fzfg": false,
      "metar_trigger": false,
      "taf_trigger": false,
      "metar": "METAR LIRF 212320Z 03010KT CAVOK 19/08 Q1022 NOSIG",
      "taf": "TAF LIRF 212300Z 2200/2306 01010KT CAVOK"
    },
    {
      "icao": "LIRN",
      "alert": "OK",
      "vis_m": 9999,
      "fzfg": false,
      "metar_trigger": false,
      "taf_trigger": false,
      "metar": "METAR LIRN 212320Z 04004KT 360V090 CAVOK 19/08 Q1022 NOSIG",
      "taf": "TAF LIRN 212300Z 2200/2224 03005KT 9999 FEW040"
    },
    {
      "icao": "LIRP",
      "alert": "OK",
      "vis_m": 9999,
      "fzfg": false,
      "metar_trigger": false,
      "taf_trigger": false,
      "metar": "METAR LIRP 212315Z 12005KT CAVOK 15/14 Q1024 NOSIG",
      "taf": "TAF LIRP 212300Z 2200/2224 VRB03KT CAVOK"
    },
    {
      "icao": "LIRZ",
      "alert": "OK",
      "vis_m": 9999,
      "fzfg": false,
      "metar_trigger": false,
      "taf_trigger": false,
      "metar": "METAR LIRZ 212320Z AUTO 33008KT 9999 NCD 13/09 Q1025",
      "taf": "TAF LIRZ 212300Z 2200/2224 VRB05KT 9999 FEW030"
    },
    {
      "icao": "LJLJ",
      "alert": "OK",
      "vis_m": 9999,
      "fzfg": false,
      "metar_trigger": false,
      "taf_trigger": false,
      "metar": "METAR LJLJ 212300Z 29002KT 9999 FEW070 10/07 Q1027 NOSIG",
      "taf": "TAF LJLJ 212300Z 2200/2300 30003KT 9999 FEW070"
    },
    {
      "icao": "LKMT",
      "alert": "OK",
      "vis_m": 9999,
      "fzfg": false,
      "metar_trigger": false,
      "taf_trigger": false,
      "metar": "METAR LKMT 212330Z 16002KT CAVOK 11/08 Q1028 NOSIG",
      "taf": "TAF LKMT 212300Z 2200/2224 VRB02KT CAVOK"
    },
    {
      "icao": "LKPR",
      "alert": "OK",
      "vis_m": 9999,
      "fzfg": false,
      "metar_trigger": false,
      "taf_trigger": false,
      "metar": "METAR LKPR 212330Z 24004KT CAVOK 09/07 Q1029 NOSIG",
      "taf": "TAF LKPR 212300Z 2200/2306 30005KT CAVOK"
    },
    {
      "icao": "LLBG",
      "alert": "OK",
      "vis_m": 9999,
      "fzfg": false,
      "metar_trigger": false,
      "taf_trigger": false,
      "metar": "METAR LLBG 212320Z 17006KT 9999 SCT018 SCT035 19/15 Q1013 NOSIG",
      "taf": "TAF LLBG 212312Z 2200/2224 VRB04KT 9999 SCT020 TX24/2210Z TN17/2203Z"
    },
    {
      "icao": "LMML",
      "alert": "OK",
      "vis_m": 9999,
      "fzfg": false,
      "metar_trigger": false,
      "taf_trigger": false,
      "metar": "METAR LMML 212315Z VRB01KT 9999 FEW010 17/15 Q1020 NOSIG",
      "taf": "TAF LMML 212300Z 2200/2224 33012KT 9999 FEW040"
    },
    {
      "icao": "LOWW",
      "alert": "OK",
      "vis_m": 9999,
      "fzfg": false,
      "metar_trigger": false,
      "taf_trigger": false,
      "metar": "METAR LOWW 212320Z 33008KT CAVOK 14/08 Q1027 NOSIG",
      "taf": "TAF LOWW 212315Z 2200/2306 33005KT 9999 SCT050 TX24/2214Z TN14/2203Z"
    },
    {
      "icao": "LPFR",
      "alert": "OK",
      "vis_m": 9999,
      "fzfg": false,
      "metar_trigger": false,
      "taf_trigger": false,
      "metar": "METAR LPFR 212300Z 07009KT CAVOK 23/09 Q1020",
      "taf": "TAF LPFR 212300Z 2200/2224 08010KT CAVOK"
    },
    {
      "icao": "LPMA",
      "alert": "OK",
      "vis_m": 9999,
      "fzfg": false,
      "metar_trigger": false,
      "taf_trigger": false,
      "metar": "METAR LPMA 212300Z 35006KT 250V050 9999 SCT015 19/14 Q1020",
      "taf": "TAF LPMA 212300Z 2200/2224 36010KT 9999 SCT015"
    },
    {
      "icao": "LPPR",
      "alert": "OK",
      "vis_m": 9999,
      "fzfg": false,
      "metar_trigger": false,
      "taf_trigger": false,
      "metar": "METAR LPPR 212300Z 08004KT 050V120 CAVOK 20/13 Q1019",
      "taf": "TAF LPPR 212300Z 2200/2224 VRB02KT CAVOK"
    },
    {
      "icao": "LPPS",
      "alert": "OK",
      "vis_m": 9999,
      "fzfg": false,
      "metar_trigger": false,
      "taf_trigger": false,
      "metar": "METAR LPPS 212300Z 35007KT 9999 FEW014 17/14 Q1020",
      "taf": "TAF LPPS 212300Z 2200/2306 36010KT 9999 SCT015"
    },
    {
      "icao": "LPPT",
      "alert": "OK",
      "vis_m": 9999,
      "fzfg": false,
      "metar_trigger": false,
      "taf_trigger": false,
      "metar": "METAR LPPT 212300Z 01004KT 320V090 CAVOK 22/15 Q1020 NOSIG",
      "taf": "TAF LPPT 212300Z 2200/2306 VRB02KT CAVOK"
    },
    {
      "icao": "LQBK",
      "alert": "OK",
      "vis_m": 9999,
      "fzfg": false,
      "metar_trigger": false,
      "taf_trigger": false,
      "metar": "METAR LQBK 212300Z 28007KT CAVOK 16/09 Q1024 NOSIG",
      "taf": "TAF LQBK 212300Z 2200/2224 28006KT CAVOK TX24/2213Z TN12/2204Z"
    },
    {
      "icao": "LQSA",
      "alert": "OK",
      "vis_m": 9999,
      "fzfg": false,
      "metar_trigger": false,
      "taf_trigger": false,
      "metar": "METAR LQSA 212300Z VRB02KT 9999 SCT055 12/11 Q1024",
      "taf": "TAF LQSA 212300Z 2200/2224 29008KT 9999 SCT055 TX21/2213Z TN10/2204Z"
    },
    {
      "icao": "LQTZ",
      "alert": "OK",
      "vis_m": 9999,
      "fzfg": false,
      "metar_trigger": false,
      "taf_trigger": false,
      "metar": "METAR LQTZ 212300Z VRB01KT CAVOK 11/11 Q1023",
      "taf": "TAF LQTZ 212300Z 2200/2224 27006KT 9999 SCT050 TX24/2213Z TN08/2204Z"
    },
    {
      "icao": "LRBC",
      "alert": "OK",
      "vis_m": 9999,
      "fzfg": false,
      "metar_trigger": false,
      "taf_trigger": false,
      "metar": "METAR LRBC 212300Z 34012KT 9999 SCT019 BKN058 16/14 Q1017",
      "taf": "TAF LRBC 212300Z 2200/2209 34012KT 9999 SCT015 BKN045"
    },
    {
      "icao": "LRBS",
      "alert": "OK",
      "vis_m": 8000,
      "fzfg": false,
      "metar_trigger": false,
      "taf_trigger": false,
      "metar": "METAR LRBS 212300Z 33003KT 280V080 8000 -SHRA FEW040CB SCT048 17/15 Q1014 NOSIG",
      "taf": "TAF LRBS 212300Z 2200/2224 VRB04KT CAVOK"
    },
    {
      "icao": "LRBV",
      "alert": "OK",
      "vis_m": 9999,
      "fzfg": false,
      "metar_trigger": false,
      "taf_trigger": false,
      "metar": "METAR LRBV 212300Z AUTO 31009KT 270V340 9999 OVC045/// 14/12 Q1017",
      "taf": "TAF LRBV 211700Z 2118/2203 30014KT 9999 SCT015 BKN030"
    },
    {
      "icao": "LRCL",
      "alert": "OK",
      "vis_m": 9999,
      "fzfg": false,
      "metar_trigger": false,
      "taf_trigger": false,
      "metar": "METAR LRCL 212300Z 25005KT 220V280 9999 FEW056 15/12 Q1019",
      "taf": "TAF LRCL 212300Z 2200/2209 27008KT CAVOK"
    },
    {
      "icao": "LRCV",
      "alert": "OK",
      "vis_m": 9999,
      "fzfg": false,
      "metar_trigger": false,
      "taf_trigger": false,
      "metar": "METAR LRCV 212300Z 32004KT CAVOK 16/14 Q1016",
      "taf": "TAF LRCV 212300Z 2200/2209 VRB04KT CAVOK"
    },
    {
      "icao": "LRIA",
      "alert": "OK",
      "vis_m": 9999,
      "fzfg": false,
      "metar_trigger": false,
      "taf_trigger": false,
      "metar": "METAR LRIA 212300Z 26005KT 9999 SCT005 15/13 Q1017",
      "taf": "TAF LRIA 212300Z 2200/2209 28007KT 9999 SCT010 BKN040"
    },
    {
      "icao": "LROP",
      "alert": "OK",
      "vis_m": 9999,
      "fzfg": false,
      "metar_trigger": false,
      "taf_trigger": false,
      "metar": "METAR LROP 212300Z VRB03KT 9999 -RA SCT041 16/15 Q1015 NOSIG",
      "taf": "TAF LROP 212300Z 2200/2224 VRB04KT CAVOK"
    },
    {
      "icao": "LRSB",
      "alert": "OK",
      "vis_m": 9999,
      "fzfg": false,
      "metar_trigger": false,
      "taf_trigger": false,
      "metar": "METAR LRSB 212300Z COR 26008KT 9999 BKN050 SCT068 16/13 Q1018",
      "taf": "TAF LRSB 212300Z 2200/2224 29006KT 9999 BKN050"
    },
    {
      "icao": "LRSM",
      "alert": "OK",
      "vis_m": 9999,
      "fzfg": false,
      "metar_trigger": false,
      "taf_trigger": false,
      "metar": "METAR LRSM 212300Z AUTO 34012KT 9999 NCD 17/11 Q1020",
      "taf": "TAF LRSM 211400Z 2115/2124 36008KT CAVOK"
    },
    {
      "icao": "LRSV",
      "alert": "OK",
      "vis_m": 9999,
      "fzfg": false,
      "metar_trigger": false,
      "taf_trigger": false,
      "metar": "METAR LRSV 212300Z 31009KT 9999 FEW013 14/14 Q1018",
      "taf": "TAF LRSV 212300Z 2200/2209 32012KT 9999 SCT015 BKN045"
    },
    {
      "icao": "LRTM",
      "alert": "OK",
      "vis_m": 9999,
      "fzfg": false,
      "metar_trigger": false,
      "taf_trigger": false,
      "metar": "METAR LRTM 212300Z 26006KT CAVOK 14/13 Q1018",
      "taf": "TAF LRTM 212300Z 2200/2209 26006KT 9999 SCT045"
    },
    {
      "icao": "LRTR",
      "alert": "OK",
      "vis_m": 9999,
      "fzfg": false,
      "metar_trigger": false,
      "taf_trigger": false,
      "metar": "METAR LRTR 212300Z 36013KT CAVOK 18/10 Q1019",
      "taf": "TAF LRTR 212300Z 2200/2224 36010KT CAVOK"
    },
    {
      "icao": "LTAC",
      "alert": "OK",
      "vis_m": 9999,
      "fzfg": false,
      "metar_trigger": false,
      "taf_trigger": false,
      "metar": "METAR LTAC 212320Z 30003KT 260V330 9999 FEW040 SCT100 09/08 Q1014 NOSIG RMK RWY21C VRB02KT RWY03L VRB02KT RWY21R VRB02KT RWY03R VRB02KT RWY21L 01003KT 340V050",
      "taf": "TAF LTAC 212240Z 2200/2224 VRB02KT 9999 SCT040 SCT100"
    },
    {
      "icao": "LTFM",
      "alert": "OK",
      "vis_m": 9999,
      "fzfg": false,
      "metar_trigger": false,
      "taf_trigger": false,
      "metar": "METAR LTFM 212320Z 28006KT 250V330 9999 -SHRA BKN032 BKN080 16/15 Q1012 NOSIG RMK RWY17L VRB05KT RWY34L 27005KT RWY16R 25004KT RWY36 28006KT 230V300 RWY18 VRB04KT",
      "taf": "TAF LTFM 212240Z 2200/2306 30006KT 9999 BKN032 BKN080"
    },
    {
      "icao": "LUKK",
      "alert": "OK",
      "vis_m": 9999,
      "fzfg": false,
      "metar_trigger": false,
      "taf_trigger": false,
      "metar": "METAR LUKK 212300Z 01009KT CAVOK 16/15 Q1015 NOSIG",
      "taf": "TAF LUKK 212311Z 2200/2224 35009KT 9999 SCT045"
    },
    {
      "icao": "LWOH",
      "alert": "OK",
      "vis_m": null,
      "fzfg": false,
      "metar_trigger": false,
      "taf_trigger": false,
      "metar": "",
      "taf": "TAF LWOH 212330Z 2200/2224 34005KT 9999 FEW040 SCT090"
    },
    {
      "icao": "LWSK",
      "alert": "OK",
      "vis_m": 9999,
      "fzfg": false,
      "metar_trigger": false,
      "taf_trigger": false,
      "metar": "METAR LWSK 212320Z 33007KT 280V350 9999 SCT090 18/09 Q1017 NOSIG",
      "taf": "TAF LWSK 212330Z 2200/2224 34006KT 9999 FEW050 BKN090"
    },
    {
      "icao": "LYBE",
      "alert": "OK",
      "vis_m": 9999,
      "fzfg": false,
      "metar_trigger": false,
      "taf_trigger": false,
      "metar": "METAR LYBE 212300Z 34010KT CAVOK 19/11 Q1020 NOSIG",
      "taf": "TAF LYBE 212300Z 2200/2224 30009KT CAVOK TX26/2213Z TN13/2204Z"
    },
    {
      "icao": "LYNI",
      "alert": "OK",
      "vis_m": 9999,
      "fzfg": false,
      "metar_trigger": false,
      "taf_trigger": false,
      "metar": "METAR LYNI 212300Z 33008KT CAVOK 18/10 Q1017 NOSIG",
      "taf": "TAF LYNI 212300Z 2200/2224 33008KT 9999 SCT080 TX23/2212Z TN14/2204Z"
    },
    {
      "icao": "LYPG",
      "alert": "OK",
      "vis_m": 9999,
      "fzfg": false,
      "metar_trigger": false,
      "taf_trigger": false,
      "metar": "METAR LYPG 212300Z 33007KT CAVOK 20/08 Q1018 NOSIG",
      "taf": "TAF LYPG 212300Z 2200/2224 33012KT 9999 FEW040 TX28/2212Z TN18/2204Z"
    },
    {
      "icao": "LZIB",
      "alert": "OK",
      "vis_m": 9999,
      "fzfg": false,
      "metar_trigger": false,
      "taf_trigger": false,
      "metar": "METAR LZIB 212330Z 00000KT CAVOK 16/10 Q1026 NOSIG",
      "taf": "TAF LZIB 212315Z 2200/2300 31007KT CAVOK"
    },
    {
      "icao": "LZKZ",
      "alert": "OK",
      "vis_m": 9999,
      "fzfg": false,
      "metar_trigger": false,
      "taf_trigger": false,
      "metar": "METAR LZKZ 212330Z 01012KT CAVOK 17/10 Q1023 NOSIG",
      "taf": "TAF LZKZ 212315Z 2200/2300 01016KT CAVOK"
    },
    {
      "icao": "LZTT",
      "alert": "OK",
      "vis_m": 9999,
      "fzfg": false,
      "metar_trigger": false,
      "taf_trigger": false,
      "metar": "METAR LZTT 212330Z VRB02KT CAVOK 08/06 Q1026",
      "taf": "TAF LZTT 212315Z 2200/2300 26006KT CAVOK"
    },
    {
      "icao": "OEJN",
      "alert": "OK",
      "vis_m": 9999,
      "fzfg": false,
      "metar_trigger": false,
      "taf_trigger": false,
      "metar": "METAR OEJN 212300Z 33008KT CAVOK 28/19 Q1007 NOSIG",
      "taf": "TAF OEJN 212300Z 2200/2306 VRB03KT 7000 NSC"
    },
    {
      "icao": "OEMA",
      "alert": "OK",
      "vis_m": 9999,
      "fzfg": false,
      "metar_trigger": false,
      "taf_trigger": false,
      "metar": "METAR OEMA 212300Z 22007KT CAVOK 33/04 Q1012 NOSIG",
      "taf": "TAF OEMA 212300Z 2200/2306 VRB03KT CAVOK"
    },
    {
      "icao": "OJAI",
      "alert": "OK",
      "vis_m": 4000,
      "fzfg": false,
      "metar_trigger": false,
      "taf_trigger": false,
      "metar": "METAR OJAI 212300Z 28006KT 4000 HZ NSC 11/09 Q1016 NOSIG",
      "taf": "TAF OJAI 212300Z 2200/2306 28012KT 5000 HZ FEW035"
    },
    {
      "icao": "OMAA",
      "alert": "OK",
      "vis_m": 9999,
      "fzfg": false,
      "metar_trigger": false,
      "taf_trigger": false,
      "metar": "METAR OMAA 212330Z 17004KT 130V210 CAVOK 28/20 Q1004 NOSIG",
      "taf": "TAF OMAA 212300Z 2200/2306 18005KT CAVOK"
    },
    {
      "icao": "OMDB",
      "alert": "OK",
      "vis_m": 9999,
      "fzfg": false,
      "metar_trigger": false,
      "taf_trigger": false,
      "metar": "METAR OMDB 212300Z 19006KT 150V210 CAVOK 29/17 Q1004 NOSIG",
      "taf": "TAF OMDB 212300Z 2200/2306 19005KT 8000 NSC"
    },
    {
      "icao": "UAAA",
      "alert": "OK",
      "vis_m": 9999,
      "fzfg": false,
      "metar_trigger": false,
      "taf_trigger": false,
      "metar": "METAR UAAA 212300Z 16002MPS 9999 BKN050CB OVC100 19/10 Q1006 NOSIG",
      "taf": "TAF UAAA 212300Z 2200/2224 21003G08MPS 9999 BKN050CB OVC100 TX20/2210Z TN14/2200Z"
    },
    {
      "icao": "UBBB",
      "alert": "OK",
      "vis_m": 9999,
      "fzfg": false,
      "metar_trigger": false,
      "taf_trigger": false,
      "metar": "METAR UBBB 212330Z 22006KT 9999 FEW060CB 19/17 Q1008 NOSIG",
      "taf": "TAF UBBB 212310Z 2200/2224 33008KT 9999 SCT012 FEW040CB TX22/2210Z TN16/2200Z"
    },
    {
      "icao": "UDSG",
      "alert": "OK",
      "vis_m": 9999,
      "fzfg": false,
      "metar_trigger": false,
      "taf_trigger": false,
      "metar": "METAR UDSG 212300Z 00000KT 9999 SCT046CB 08/06 Q1013 NOSIG",
      "taf": "TAF UDSG 212300Z 2200/2224 21006KT 9999 SCT040"
    },
    {
      "icao": "UDYZ",
      "alert": "OK",
      "vis_m": 9999,
      "fzfg": false,
      "metar_trigger": false,
      "taf_trigger": false,
      "metar": "METAR UDYZ 212300Z 03003KT 9999 SCT043CB 11/10 Q1010 NOSIG",
      "taf": ""
    },
    {
      "icao": "UGKO",
      "alert": "OK",
      "vis_m": 6000,
      "fzfg": false,
      "metar_trigger": false,
      "taf_trigger": false,
      "metar": "METAR UGKO 212300Z 22003KT 6000 -RA BKN026 15/14 Q1011 NOSIG",
      "taf": "TAF UGKO 212300Z 2200/2224 25007KT 9999 BKN050 TX22/2211Z TN14/2202Z"
    }
  ]
}