{
  "ts_utc": "2026-06-14T10:31:32Z",
  "threshold_m": 150,
  "source": "stations_override.txt (ICAO list) + aviationweather.gov (METAR/TAF raw)",
  "station_count": 159,
  "stations": [
    {
      "icao": "BIKF",
      "alert": "OK",
      "vis_m": 9999,
      "fzfg": false,
      "metar_trigger": false,
      "taf_trigger": false,
      "metar": "METAR BIKF 141000Z 31004KT 270V010 9999 SCT023 12/08 Q1025",
      "taf": "TAF BIKF 140759Z 1409/1509 12005KT 9999 SCT015 TX14/1415Z TN08/1504Z"
    },
    {
      "icao": "BKPR",
      "alert": "OK",
      "vis_m": 9999,
      "fzfg": false,
      "metar_trigger": false,
      "taf_trigger": false,
      "metar": "METAR BKPR 141030Z VRB03KT CAVOK 25/11 Q1017 NOSIG",
      "taf": "TAF BKPR 140530Z 1406/1506 VRB05KT CAVOK"
    },
    {
      "icao": "EBCI",
      "alert": "OK",
      "vis_m": 9999,
      "fzfg": false,
      "metar_trigger": false,
      "taf_trigger": false,
      "metar": "METAR EBCI 141020Z 29007KT 260V340 9999 FEW030 16/07 Q1019 NOSIG",
      "taf": "TAF EBCI 140503Z 1406/1512 31008KT 9999 FEW020 SCT040"
    },
    {
      "icao": "EDDB",
      "alert": "OK",
      "vis_m": 9999,
      "fzfg": false,
      "metar_trigger": false,
      "taf_trigger": false,
      "metar": "METAR EDDB 141020Z AUTO 28016KT 250V310 9999 FEW024 SCT034 15/12 Q1008 RESHRA TEMPO 28015G25KT",
      "taf": "TAF EDDB 140500Z 1406/1506 26015KT 9999 SCT035"
    },
    {
      "icao": "EDDH",
      "alert": "OK",
      "vis_m": 9999,
      "fzfg": false,
      "metar_trigger": false,
      "taf_trigger": false,
      "metar": "METAR EDDH 141020Z AUTO 29016G27KT 260V320 9999 SCT025 BKN040 16/10 Q1009 TEMPO SHRA SCT015TCU",
      "taf": "TAF EDDH 140500Z 1406/1512 26009KT 9999 SCT025"
    },
    {
      "icao": "EDDK",
      "alert": "OK",
      "vis_m": 9999,
      "fzfg": false,
      "metar_trigger": false,
      "taf_trigger": false,
      "metar": "METAR EDDK 141020Z AUTO 28013KT 9999 FEW037 16/08 Q1017 TEMPO 29015G25KT",
      "taf": "TAF EDDK 140500Z 1406/1512 VRB03KT 9999 SCT030"
    },
    {
      "icao": "EDDN",
      "alert": "OK",
      "vis_m": 9999,
      "fzfg": false,
      "metar_trigger": false,
      "taf_trigger": false,
      "metar": "METAR EDDN 141020Z AUTO 31011KT 9999 BKN049 16/07 Q1016 TEMPO 29015G25KT",
      "taf": ""
    },
    {
      "icao": "EDDS",
      "alert": "OK",
      "vis_m": 9999,
      "fzfg": false,
      "metar_trigger": false,
      "taf_trigger": false,
      "metar": "METAR EDDS 141020Z AUTO 31012KT 280V340 CAVOK 19/08 Q1016 NOSIG",
      "taf": "TAF EDDS 140500Z 1406/1506 28008KT CAVOK"
    },
    {
      "icao": "EDFH",
      "alert": "OK",
      "vis_m": 9999,
      "fzfg": false,
      "metar_trigger": false,
      "taf_trigger": false,
      "metar": "METAR EDFH 141020Z 31012KT 270V340 9999 SCT033 15/07 Q1017",
      "taf": "TAF EDFH 140500Z 1406/1506 27005KT 9999 SCT020"
    },
    {
      "icao": "EDJA",
      "alert": "OK",
      "vis_m": 9999,
      "fzfg": false,
      "metar_trigger": false,
      "taf_trigger": false,
      "metar": "METAR EDJA 141020Z VRB06KT 9999 SCT033 BKN053 18/11 Q1017",
      "taf": "TAF EDJA 140800Z 1409/1418 28012KT 9999 FEW045"
    },
    {
      "icao": "EDLW",
      "alert": "OK",
      "vis_m": 9999,
      "fzfg": false,
      "metar_trigger": false,
      "taf_trigger": false,
      "metar": "METAR EDLW 141020Z 27008KT 230V340 9999 FEW034 SCT040 16/09 Q1015",
      "taf": "TAF EDLW 140500Z 1406/1506 26006KT 9999 SCT030"
    },
    {
      "icao": "EDNY",
      "alert": "OK",
      "vis_m": 9999,
      "fzfg": false,
      "metar_trigger": false,
      "taf_trigger": false,
      "metar": "METAR EDNY 141020Z 26013KT 230V320 CAVOK 24/08 Q1016",
      "taf": "TAF EDNY 140800Z 1409/1418 25010KT CAVOK"
    },
    {
      "icao": "EDSB",
      "alert": "OK",
      "vis_m": 9999,
      "fzfg": false,
      "metar_trigger": false,
      "taf_trigger": false,
      "metar": "METAR EDSB 141020Z 26007KT 220V310 CAVOK 21/10 Q1017",
      "taf": "TAF EDSB 140500Z 1406/1506 22004KT CAVOK"
    },
    {
      "icao": "EETN",
      "alert": "OK",
      "vis_m": 9999,
      "fzfg": false,
      "metar_trigger": false,
      "taf_trigger": false,
      "metar": "METAR EETN 141020Z 12010KT 9999 -SHRA FEW028CB BKN040 14/10 Q0999 NOSIG",
      "taf": "TAF EETN 140530Z 1406/1506 15010KT 9999 BKN012"
    },
    {
      "icao": "EFTU",
      "alert": "OK",
      "vis_m": 9999,
      "fzfg": false,
      "metar_trigger": false,
      "taf_trigger": false,
      "metar": "METAR EFTU 141020Z AUTO 18012KT 140V210 9999 BKN024 13/08 Q0997",
      "taf": "TAF EFTU 140837Z 1409/1509 18012KT 9999 FEW014"
    },
    {
      "icao": "EGBB",
      "alert": "OK",
      "vis_m": 9999,
      "fzfg": false,
      "metar_trigger": false,
      "taf_trigger": false,
      "metar": "METAR EGBB 141020Z 31007KT 9999 BKN031 16/09 Q1021",
      "taf": "TAF EGBB 140456Z 1406/1506 33006KT 9999 SCT035"
    },
    {
      "icao": "EGGP",
      "alert": "OK",
      "vis_m": 9999,
      "fzfg": false,
      "metar_trigger": false,
      "taf_trigger": false,
      "metar": "METAR EGGP 141020Z 30007KT 250V340 9999 SCT024 BKN034 15/08 Q1021",
      "taf": "TAF EGGP 140459Z 1406/1506 31006KT 9999 FEW030"
    },
    {
      "icao": "EGGW",
      "alert": "OK",
      "vis_m": 9999,
      "fzfg": false,
      "metar_trigger": false,
      "taf_trigger": false,
      "metar": "METAR EGGW 141020Z AUTO 32007KT 250V340 9999 BKN032 16/08 Q1020",
      "taf": "TAF EGGW 140458Z 1406/1506 30009KT 9999 FEW030"
    },
    {
      "icao": "EGKK",
      "alert": "OK",
      "vis_m": 9999,
      "fzfg": false,
      "metar_trigger": false,
      "taf_trigger": false,
      "metar": "METAR EGKK 141020Z 34004KT 230V020 CAVOK 18/09 Q1020",
      "taf": "TAF EGKK 140458Z 1406/1512 31010KT 9999 FEW035"
    },
    {
      "icao": "EGNM",
      "alert": "OK",
      "vis_m": 9999,
      "fzfg": false,
      "metar_trigger": false,
      "taf_trigger": false,
      "metar": "METAR EGNM 141020Z 01004KT 300V050 9999 SCT032 14/07 Q1020",
      "taf": "TAF EGNM 140459Z 1406/1506 29011KT 9999 FEW040"
    },
    {
      "icao": "EGPD",
      "alert": "OK",
      "vis_m": 9999,
      "fzfg": false,
      "metar_trigger": false,
      "taf_trigger": false,
      "metar": "METAR EGPD 141020Z COR AUTO 33018KT 9999 BKN016 OVC032 12/09 Q1020 NOSIG",
      "taf": ""
    },
    {
      "icao": "EGPF",
      "alert": "OK",
      "vis_m": 9999,
      "fzfg": false,
      "metar_trigger": false,
      "taf_trigger": false,
      "metar": "METAR EGPF 141020Z AUTO 01006KT 340V040 9999 SCT040 BKN048 17/08 Q1021",
      "taf": "TAF EGPF 140457Z 1406/1506 27006KT 9999 BKN030"
    },
    {
      "icao": "EHBK",
      "alert": "OK",
      "vis_m": 9999,
      "fzfg": false,
      "metar_trigger": false,
      "taf_trigger": false,
      "metar": "METAR EHBK 141025Z AUTO 32008KT 260V010 9999 FEW036 17/09 Q1018 NOSIG",
      "taf": "TAF EHBK 140449Z 1406/1512 30010KT 9999 BKN030"
    },
    {
      "icao": "EHEH",
      "alert": "OK",
      "vis_m": 9999,
      "fzfg": false,
      "metar_trigger": false,
      "taf_trigger": false,
      "metar": "METAR EHEH 141025Z AUTO 30006KT 230V360 9999 FEW047 BKN052 OVC058 17/10 Q1018 BLU NOSIG RMK TREND REMOTE BY EHWX",
      "taf": "TAF EHEH 140521Z 1406/1512 27004KT 9999 FEW030"
    },
    {
      "icao": "EKBI",
      "alert": "OK",
      "vis_m": 9999,
      "fzfg": false,
      "metar_trigger": false,
      "taf_trigger": false,
      "metar": "METAR EKBI 141020Z 31013KT 9999 BKN035 16/11 Q1007",
      "taf": "TAF EKBI 140827Z 1409/1509 29012KT 9999 SCT020"
    },
    {
      "icao": "EKCH",
      "alert": "OK",
      "vis_m": 9999,
      "fzfg": false,
      "metar_trigger": false,
      "taf_trigger": false,
      "metar": "METAR EKCH 141020Z AUTO 36010KT 9999 FEW026/// BKN065/// 15/11 Q1003 TEMPO SCT020CB",
      "taf": ""
    },
    {
      "icao": "ENAL",
      "alert": "OK",
      "vis_m": 9999,
      "fzfg": false,
      "metar_trigger": false,
      "taf_trigger": false,
      "metar": "METAR ENAL 141020Z 03013KT 9999 BKN021 12/07 Q1015",
      "taf": "TAF ENAL 140800Z 1409/1418 05015KT 9999 FEW015 BKN020"
    },
    {
      "icao": "ENBR",
      "alert": "OK",
      "vis_m": 9999,
      "fzfg": false,
      "metar_trigger": false,
      "taf_trigger": false,
      "metar": "METAR ENBR 141020Z 30007KT CAVOK 18/10 Q1009 NOSIG RMK WIND 1200FT 33009KT",
      "taf": "TAF ENBR 140500Z 1406/1506 32006KT CAVOK"
    },
    {
      "icao": "ENGM",
      "alert": "OK",
      "vis_m": 9999,
      "fzfg": false,
      "metar_trigger": false,
      "taf_trigger": false,
      "metar": "METAR ENGM 141020Z 34004KT 290V010 CAVOK 15/10 Q1004 NOSIG",
      "taf": ""
    },
    {
      "icao": "ENHD",
      "alert": "OK",
      "vis_m": 9999,
      "fzfg": false,
      "metar_trigger": false,
      "taf_trigger": false,
      "metar": "METAR ENHD 141020Z 32009KT CAVOK 16/10 Q1009",
      "taf": "TAF ENHD 140800Z 1409/1418 34008KT 9999 FEW006"
    },
    {
      "icao": "ENTC",
      "alert": "OK",
      "vis_m": 9999,
      "fzfg": false,
      "metar_trigger": false,
      "taf_trigger": false,
      "metar": "METAR ENTC 141020Z 04016KT 9999 FEW028 BKN052 11/05 Q1015 NOSIG RMK WIND 2600FT 09014KT",
      "taf": "TAF ENTC 140500Z 1406/1506 05012KT 9999 FEW020 BKN030"
    },
    {
      "icao": "ENTO",
      "alert": "OK",
      "vis_m": 9999,
      "fzfg": false,
      "metar_trigger": false,
      "taf_trigger": false,
      "metar": "METAR ENTO 141020Z 35012KT 330V030 9999 SCT035 18/10 Q1005 TEMPO SHRA FEW030CB",
      "taf": "TAF ENTO 140500Z 1406/1506 36012KT 9999 FEW030"
    },
    {
      "icao": "ENVA",
      "alert": "OK",
      "vis_m": 9999,
      "fzfg": false,
      "metar_trigger": false,
      "taf_trigger": false,
      "metar": "METAR ENVA 141020Z 27020KT 9999 BKN040 14/09 Q1010 NOSIG RMK WIND 670FT 27022KT",
      "taf": "TAF ENVA 140500Z 1406/1506 29012KT 9999 SCT012"
    },
    {
      "icao": "ENZV",
      "alert": "OK",
      "vis_m": 9999,
      "fzfg": false,
      "metar_trigger": false,
      "taf_trigger": false,
      "metar": "METAR ENZV 141020Z 29009KT CAVOK 16/11 Q1009 NOSIG",
      "taf": "TAF ENZV 140500Z 1406/1506 34005KT 9999 SCT012"
    },
    {
      "icao": "EPGD",
      "alert": "OK",
      "vis_m": 9999,
      "fzfg": false,
      "metar_trigger": false,
      "taf_trigger": false,
      "metar": "METAR EPGD 141000Z 27016KT 9999 BKN018 13/09 Q1002",
      "taf": "TAF EPGD 140530Z 1406/1506 26012KT 9999 SCT012 SCT040"
    },
    {
      "icao": "EPKK",
      "alert": "OK",
      "vis_m": 9999,
      "fzfg": false,
      "metar_trigger": false,
      "taf_trigger": false,
      "metar": "METAR EPKK 141000Z 27008KT 9999 SCT032 BKN060 15/08 Q1010",
      "taf": "TAF EPKK 140830Z 1409/1509 26010KT 9999 SCT030 BKN055"
    },
    {
      "icao": "EPKT",
      "alert": "OK",
      "vis_m": 9999,
      "fzfg": false,
      "metar_trigger": false,
      "taf_trigger": false,
      "metar": "METAR EPKT 141000Z 24013KT 9999 SCT030 16/08 Q1010",
      "taf": ""
    },
    {
      "icao": "EPLB",
      "alert": "OK",
      "vis_m": 9999,
      "fzfg": false,
      "metar_trigger": false,
      "taf_trigger": false,
      "metar": "METAR EPLB 141000Z 24012KT 9999 SCT032 SCT039TCU 16/09 Q1007",
      "taf": "TAF EPLB 140530Z 1406/1506 27015KT 9999 BKN030"
    },
    {
      "icao": "EPMO",
      "alert": "OK",
      "vis_m": 9999,
      "fzfg": false,
      "metar_trigger": false,
      "taf_trigger": false,
      "metar": "METAR EPMO 141000Z 24015KT 200V260 9999 SCT036CB 14/11 Q1006",
      "taf": "TAF EPMO 140530Z 1406/1506 27015KT 9999 BKN020"
    },
    {
      "icao": "EPPO",
      "alert": "OK",
      "vis_m": 9999,
      "fzfg": false,
      "metar_trigger": false,
      "taf_trigger": false,
      "metar": "METAR EPPO 141000Z 28019KT 9999 SCT032CB SCT034 15/09 Q1007",
      "taf": ""
    },
    {
      "icao": "EPRA",
      "alert": "OK",
      "vis_m": 9999,
      "fzfg": false,
      "metar_trigger": false,
      "taf_trigger": false,
      "metar": "METAR EPRA 141000Z 28009KT 260V320 9999 BKN035 12/09 Q1008",
      "taf": "TAF EPRA 140830Z 1409/1418 27012KT 9999 BKN030"
    },
    {
      "icao": "EPRZ",
      "alert": "OK",
      "vis_m": 9999,
      "fzfg": false,
      "metar_trigger": false,
      "taf_trigger": false,
      "metar": "METAR EPRZ 141000Z 26017KT 9999 SCT040 18/08 Q1009",
      "taf": "TAF EPRZ 140530Z 1406/1506 27014KT 9999 SCT025"
    },
    {
      "icao": "EPSC",
      "alert": "OK",
      "vis_m": 9999,
      "fzfg": false,
      "metar_trigger": false,
      "taf_trigger": false,
      "metar": "METAR EPSC 141000Z 26011KT 9999 -SHRA FEW014CB BKN037 13/10 Q1005",
      "taf": "TAF EPSC 140530Z 1406/1506 26012KT CAVOK"
    },
    {
      "icao": "EPSY",
      "alert": "OK",
      "vis_m": 9999,
      "fzfg": false,
      "metar_trigger": false,
      "taf_trigger": false,
      "metar": "METAR EPSY 141000Z 27010KT 220V300 9999 -SHRA SCT018CB BKN038 12/09 Q1003 RESHRA",
      "taf": "TAF EPSY 140830Z 1409/1418 23012KT 9999 BKN025"
    },
    {
      "icao": "EPWA",
      "alert": "OK",
      "vis_m": 9999,
      "fzfg": false,
      "metar_trigger": false,
      "taf_trigger": false,
      "metar": "METAR EPWA 141000Z 25014KT 9999 BKN033 17/10 Q1006 NOSIG",
      "taf": "TAF EPWA 140830Z 1409/1509 25012KT 9999 BKN022"
    },
    {
      "icao": "EPWR",
      "alert": "OK",
      "vis_m": 9999,
      "fzfg": false,
      "metar_trigger": false,
      "taf_trigger": false,
      "metar": "METAR EPWR 141000Z 29013KT 9999 FEW030CB SCT036 15/09 Q1010",
      "taf": "TAF EPWR 140830Z 1409/1509 27015G25KT 9999 -SHRA SCT040CB"
    },
    {
      "icao": "ESGG",
      "alert": "OK",
      "vis_m": 9999,
      "fzfg": false,
      "metar_trigger": false,
      "taf_trigger": false,
      "metar": "METAR ESGG 141020Z 35008KT 9999 FEW021 15/09 Q1003",
      "taf": "TAF ESGG 140830Z 1409/1509 33005KT 9999 SCT010 BKN040"
    },
    {
      "icao": "ESKN",
      "alert": "OK",
      "vis_m": 9999,
      "fzfg": false,
      "metar_trigger": false,
      "taf_trigger": false,
      "metar": "METAR ESKN 141020Z 30008KT 260V330 9999 -RA FEW019 SCT034 BKN049 13/10 Q0999",
      "taf": ""
    },
    {
      "icao": "ESMS",
      "alert": "OK",
      "vis_m": 9999,
      "fzfg": false,
      "metar_trigger": false,
      "taf_trigger": false,
      "metar": "METAR ESMS 141020Z 31012KT 9999 SCT024 BKN030 15/10 Q1002",
      "taf": "TAF ESMS 140827Z 1409/1509 29010KT 9999 BKN020"
    },
    {
      "icao": "ESSA",
      "alert": "OK",
      "vis_m": 9999,
      "fzfg": false,
      "metar_trigger": false,
      "taf_trigger": false,
      "metar": "METAR ESSA 141020Z 27011KT 9999 -RA FEW023 BKN035 10/08 Q0997 TEMPO 4000 RA",
      "taf": "TAF ESSA 140830Z 1409/1509 27010KT 9999 -RA SCT013 BKN040"
    },
    {
      "icao": "EYKA",
      "alert": "OK",
      "vis_m": 9999,
      "fzfg": false,
      "metar_trigger": false,
      "taf_trigger": false,
      "metar": "METAR EYKA 141020Z 26011KT 220V290 9999 -SHRA FEW027CB 16/10 Q1001",
      "taf": "TAF EYKA 132304Z 1400/1424 VRB05KT 5000 BR SCT015CB BKN025"
    },
    {
      "icao": "EYPA",
      "alert": "OK",
      "vis_m": 9999,
      "fzfg": false,
      "metar_trigger": false,
      "taf_trigger": false,
      "metar": "METAR EYPA 141020Z 25004KT 190V320 9999 -SHRA FEW020CB SCT030 BKN046 15/12 Q0998",
      "taf": "TAF EYPA 132300Z 1400/1424 VRB05KT 9000 SCT010 BKN020"
    },
    {
      "icao": "EYVI",
      "alert": "OK",
      "vis_m": 9999,
      "fzfg": false,
      "metar_trigger": false,
      "taf_trigger": false,
      "metar": "METAR EYVI 141020Z 24010KT 190V280 9999 SCT046CB 15/09 Q1002 NOSIG",
      "taf": ""
    },
    {
      "icao": "GCFV",
      "alert": "OK",
      "vis_m": 9999,
      "fzfg": false,
      "metar_trigger": false,
      "taf_trigger": false,
      "metar": "METAR GCFV 141000Z 04014KT 9999 SCT020 23/16 Q1020",
      "taf": "TAF GCFV 140800Z 1409/1509 03014KT 9999 FEW020 TX25/1414Z TN19/1506Z"
    },
    {
      "icao": "GCLP",
      "alert": "OK",
      "vis_m": 9999,
      "fzfg": false,
      "metar_trigger": false,
      "taf_trigger": false,
      "metar": "METAR GCLP 141000Z 01025KT 9999 FEW025 23/15 Q1020 NOSIG",
      "taf": "TAF GCLP 140800Z 1409/1509 02023KT 9999 FEW030 TX24/1414Z TN19/1506Z"
    },
    {
      "icao": "GCTS",
      "alert": "OK",
      "vis_m": 9999,
      "fzfg": false,
      "metar_trigger": false,
      "taf_trigger": false,
      "metar": "METAR GCTS 141000Z 09022KT 9999 FEW025 22/15 Q1020 WS R07 NOSIG",
      "taf": "TAF GCTS 140800Z 1409/1509 10016KT 9999 FEW020 TX26/1414Z TN18/1506Z"
    },
    {
      "icao": "GMAD",
      "alert": "OK",
      "vis_m": 8000,
      "fzfg": false,
      "metar_trigger": false,
      "taf_trigger": false,
      "metar": "METAR GMAD 141000Z 23005KT 190V280 8000 NSC 24/17 Q1017 NOSIG",
      "taf": "TAF GMAD 140500Z 1406/1512 07004KT 8000 BKN013"
    },
    {
      "icao": "GMMN",
      "alert": "OK",
      "vis_m": 9999,
      "fzfg": false,
      "metar_trigger": false,
      "taf_trigger": false,
      "metar": "METAR GMMN 141000Z 25006KT 160V330 9999 SCT023 24/17 Q1019 NOSIG",
      "taf": "TAF GMMN 140500Z 1406/1512 22003KT 3000 BR BKN010"
    },
    {
      "icao": "GMMX",
      "alert": "OK",
      "vis_m": 9999,
      "fzfg": false,
      "metar_trigger": false,
      "taf_trigger": false,
      "metar": "METAR GMMX 141000Z 30004KT 9999 SCT090 25/16 Q1019 NOSIG",
      "taf": "TAF GMMX 140500Z 1406/1512 26006KT 8000 SCT090"
    },
    {
      "icao": "HEGN",
      "alert": "OK",
      "vis_m": 9999,
      "fzfg": false,
      "metar_trigger": false,
      "taf_trigger": false,
      "metar": "METAR HEGN 141000Z 03005KT CAVOK 34/13 Q1009 NOSIG",
      "taf": "TAF HEGN 140513Z 1406/1512 35010G20KT CAVOK"
    },
    {
      "icao": "HEMA",
      "alert": "OK",
      "vis_m": 9999,
      "fzfg": false,
      "metar_trigger": false,
      "taf_trigger": false,
      "metar": "METAR HEMA 141000Z 01016KT CAVOK 37/09 Q1009 NOSIG",
      "taf": "TAF HEMA 140513Z 1406/1512 34010G22KT CAVOK"
    },
    {
      "icao": "HESH",
      "alert": "OK",
      "vis_m": 9999,
      "fzfg": false,
      "metar_trigger": false,
      "taf_trigger": false,
      "metar": "METAR HESH 141000Z 03007KT CAVOK 37/12 Q1012 NOSIG",
      "taf": "TAF HESH 140513Z 1406/1512 35014KT CAVOK"
    },
    {
      "icao": "HESX",
      "alert": "OK",
      "vis_m": 9999,
      "fzfg": false,
      "metar_trigger": false,
      "taf_trigger": false,
      "metar": "METAR HESX 141000Z 33008KT CAVOK 32/16 Q1011 NOSIG",
      "taf": "TAF HESX 140513Z 1406/1512 36009KT CAVOK"
    },
    {
      "icao": "LATI",
      "alert": "OK",
      "vis_m": 9999,
      "fzfg": false,
      "metar_trigger": false,
      "taf_trigger": false,
      "metar": "METAR LATI 141020Z 31006KT 240V020 CAVOK 28/14 Q1016 BECMG 28012KT",
      "taf": "TAF LATI 132300Z 1400/1424 VRB03KT CAVOK TX30/1412Z TN13/1404Z"
    },
    {
      "icao": "LBPD",
      "alert": "OK",
      "vis_m": 9999,
      "fzfg": false,
      "metar_trigger": false,
      "taf_trigger": false,
      "metar": "METAR LBPD 141030Z AUTO 29010KT 240V340 9999 FEW068/// 27/11 Q1014 NOSIG",
      "taf": "TAF LBPD 140500Z 1406/1506 27012KT CAVOK"
    },
    {
      "icao": "LBSF",
      "alert": "OK",
      "vis_m": 9999,
      "fzfg": false,
      "metar_trigger": false,
      "taf_trigger": false,
      "metar": "METAR LBSF 141030Z VRB04KT 9999 FEW067 24/10 Q1017 NOSIG",
      "taf": "TAF LBSF 140500Z 1406/1506 VRB04KT 9999 SCT060"
    },
    {
      "icao": "LBWN",
      "alert": "OK",
      "vis_m": 9999,
      "fzfg": false,
      "metar_trigger": false,
      "taf_trigger": false,
      "metar": "METAR LBWN 141000Z 28011KT 9999 SCT040 25/13 Q1013 NOSIG",
      "taf": "TAF LBWN 140500Z 1406/1506 26010KT 9999 SCT045"
    },
    {
      "icao": "LCLK",
      "alert": "OK",
      "vis_m": 9999,
      "fzfg": false,
      "metar_trigger": false,
      "taf_trigger": false,
      "metar": "METAR LCLK 141000Z 21014KT 9999 FEW020 FEW030CB 31/20 Q1008 NOSIG RMK CB TO W-NW",
      "taf": "TAF LCLK 140530Z 1406/1506 29008KT 9999 FEW020"
    },
    {
      "icao": "LCPH",
      "alert": "OK",
      "vis_m": 9999,
      "fzfg": false,
      "metar_trigger": false,
      "taf_trigger": false,
      "metar": "METAR LCPH 141000Z 26011KT 9999 FEW020 27/20 Q1009 NOSIG",
      "taf": "TAF LCPH 140530Z 1406/1506 34008KT 9999 SCT015"
    },
    {
      "icao": "LEAL",
      "alert": "OK",
      "vis_m": 9999,
      "fzfg": false,
      "metar_trigger": false,
      "taf_trigger": false,
      "metar": "METAR LEAL 141000Z 10007KT 050V170 CAVOK 28/14 Q1017 NOSIG",
      "taf": "TAF LEAL 140500Z 1406/1506 VRB04KT CAVOK TX29/1412Z TN19/1406Z"
    },
    {
      "icao": "LEBB",
      "alert": "OK",
      "vis_m": 9999,
      "fzfg": false,
      "metar_trigger": false,
      "taf_trigger": false,
      "metar": "METAR LEBB 141000Z VRB02KT CAVOK 32/17 Q1015 NOSIG",
      "taf": "TAF LEBB 140500Z 1406/1506 10006KT CAVOK TX35/1413Z TN16/1505Z"
    },
    {
      "icao": "LEBL",
      "alert": "OK",
      "vis_m": 9999,
      "fzfg": false,
      "metar_trigger": false,
      "taf_trigger": false,
      "metar": "METAR LEBL 141000Z 15005KT 100V200 CAVOK 28/15 Q1016 NOSIG",
      "taf": "TAF LEBL 140500Z 1406/1506 34006KT 9999 FEW020 TX30/1412Z TN21/1506Z"
    },
    {
      "icao": "LECH",
      "alert": "OK",
      "vis_m": 9999,
      "fzfg": false,
      "metar_trigger": false,
      "taf_trigger": false,
      "metar": "METAR LECH 141000Z AUTO VRB03KT CAVOK 30/08 Q1017",
      "taf": "TAF LECH 140500Z 1406/1506 VRB04KT CAVOK TX32/1413Z TN15/1406Z"
    },
    {
      "icao": "LEMD",
      "alert": "OK",
      "vis_m": 9999,
      "fzfg": false,
      "metar_trigger": false,
      "taf_trigger": false,
      "metar": "METAR LEMD 141000Z 01003KT 9999 FEW080 28/07 Q1018 NOSIG",
      "taf": "TAF LEMD 140500Z 1406/1512 VRB04KT CAVOK TX34/1416Z TN16/1505Z"
    },
    {
      "icao": "LEMG",
      "alert": "OK",
      "vis_m": 9999,
      "fzfg": false,
      "metar_trigger": false,
      "taf_trigger": false,
      "metar": "METAR LEMG 141000Z 12004KT 070V200 9999 FEW070CB 26/14 Q1017 RETS NOSIG",
      "taf": ""
    },
    {
      "icao": "LEVC",
      "alert": "OK",
      "vis_m": 9999,
      "fzfg": false,
      "metar_trigger": false,
      "taf_trigger": false,
      "metar": "METAR LEVC 141000Z 13005KT CAVOK 31/11 Q1016 NOSIG",
      "taf": "TAF LEVC 140500Z 1406/1506 VRB04KT CAVOK TX32/1412Z TN19/1406Z"
    },
    {
      "icao": "LEXJ",
      "alert": "OK",
      "vis_m": 9999,
      "fzfg": false,
      "metar_trigger": false,
      "taf_trigger": false,
      "metar": "METAR LEXJ 141000Z 04003KT 350V110 CAVOK 28/17 Q1015",
      "taf": "TAF LEXJ 140800Z 1409/1509 29008KT CAVOK TX32/1413Z TN18/1505Z"
    },
    {
      "icao": "LEZG",
      "alert": "OK",
      "vis_m": 9999,
      "fzfg": false,
      "metar_trigger": false,
      "taf_trigger": false,
      "metar": "METAR LEZG 141000Z 11005KT 060V160 CAVOK 29/08 Q1016 NOSIG",
      "taf": "TAF LEZG 140500Z 1406/1506 09005KT CAVOK TX36/1415Z TN20/1406Z"
    },
    {
      "icao": "LEZL",
      "alert": "OK",
      "vis_m": 9999,
      "fzfg": false,
      "metar_trigger": false,
      "taf_trigger": false,
      "metar": "METAR LEZL 141000Z 23008KT 180V280 9999 SCT030 26/17 Q1017 NOSIG",
      "taf": "TAF LEZL 140800Z 1409/1509 22009KT CAVOK TX32/1415Z TN18/1506Z"
    },
    {
      "icao": "LFBD",
      "alert": "OK",
      "vis_m": 9999,
      "fzfg": false,
      "metar_trigger": false,
      "taf_trigger": false,
      "metar": "METAR LFBD 141000Z AUTO 09012KT 060V120 CAVOK 31/09 Q1017 TEMPO 10015G25KT",
      "taf": "TAF LFBD 140500Z 1406/1512 06005KT CAVOK TX34/1415Z TN21/1504Z"
    },
    {
      "icao": "LFLL",
      "alert": "OK",
      "vis_m": 9999,
      "fzfg": false,
      "metar_trigger": false,
      "taf_trigger": false,
      "metar": "METAR LFLL 141000Z 35010KT 320V030 CAVOK 25/12 Q1019 NOSIG",
      "taf": "TAF LFLL 140500Z 1406/1512 VRB02KT CAVOK"
    },
    {
      "icao": "LFLS",
      "alert": "OK",
      "vis_m": 9999,
      "fzfg": false,
      "metar_trigger": false,
      "taf_trigger": false,
      "metar": "METAR LFLS 141000Z AUTO 35009KT 300V050 CAVOK 26/12 Q1019 NOSIG",
      "taf": "TAF LFLS 140800Z 1409/1509 36012KT CAVOK"
    },
    {
      "icao": "LFMN",
      "alert": "OK",
      "vis_m": 9999,
      "fzfg": false,
      "metar_trigger": false,
      "taf_trigger": false,
      "metar": "METAR LFMN 141000Z 17009KT 9999 BKN021 22/17 Q1015 NOSIG",
      "taf": "TAF LFMN 140800Z 1409/1515 16005KT 9999 SCT020"
    },
    {
      "icao": "LFOB",
      "alert": "OK",
      "vis_m": 9999,
      "fzfg": false,
      "metar_trigger": false,
      "taf_trigger": false,
      "metar": "METAR LFOB 141000Z AUTO 32005KT 220V020 CAVOK 19/10 Q1020 NOSIG",
      "taf": "TAF LFOB 140500Z 1406/1506 33008KT CAVOK"
    },
    {
      "icao": "LFPO",
      "alert": "OK",
      "vis_m": 9999,
      "fzfg": false,
      "metar_trigger": false,
      "taf_trigger": false,
      "metar": "METAR LFPO 141000Z 35005KT 250V060 CAVOK 21/08 Q1020 NOSIG",
      "taf": "TAF LFPO 140500Z 1406/1512 36006KT CAVOK"
    },
    {
      "icao": "LFSB",
      "alert": "OK",
      "vis_m": 9999,
      "fzfg": false,
      "metar_trigger": false,
      "taf_trigger": false,
      "metar": "METAR LFSB 141000Z AUTO 25009KT 200V300 CAVOK 25/07 Q1017 TEMPO 29015G25KT",
      "taf": "TAF LFSB 140500Z 1406/1506 27008KT CAVOK"
    },
    {
      "icao": "LGAV",
      "alert": "OK",
      "vis_m": 9999,
      "fzfg": false,
      "metar_trigger": false,
      "taf_trigger": false,
      "metar": "METAR LGAV 141020Z 08011KT 9999 FEW025 26/13 Q1016 NOSIG",
      "taf": "TAF LGAV 132300Z 1400/1424 02010KT 9999 SCT020"
    },
    {
      "icao": "LGTS",
      "alert": "OK",
      "vis_m": 9999,
      "fzfg": false,
      "metar_trigger": false,
      "taf_trigger": false,
      "metar": "METAR LGTS 141020Z 25007KT 9999 FEW035 27/13 Q1015 NOSIG",
      "taf": "TAF LGTS 132300Z 1400/1424 VRB03KT 9999 FEW025"
    },
    {
      "icao": "LHBP",
      "alert": "OK",
      "vis_m": 9999,
      "fzfg": false,
      "metar_trigger": false,
      "taf_trigger": false,
      "metar": "METAR LHBP 141000Z 23011KT 210V270 CAVOK 23/15 Q1012 BECMG 29015G28KT",
      "taf": "TAF LHBP 140515Z 1406/1506 VRB03KT CAVOK"
    },
    {
      "icao": "LHDC",
      "alert": "OK",
      "vis_m": 9999,
      "fzfg": false,
      "metar_trigger": false,
      "taf_trigger": false,
      "metar": "METAR LHDC 140945Z AUTO 23013KT 190V260 CAVOK 25/14 Q1011 NOSIG",
      "taf": "TAF LHDC 140215Z 1403/1412 16008KT CAVOK"
    },
    {
      "icao": "LIBD",
      "alert": "OK",
      "vis_m": 9999,
      "fzfg": false,
      "metar_trigger": false,
      "taf_trigger": false,
      "metar": "METAR LIBD 141020Z 07013KT CAVOK 30/11 Q1015",
      "taf": "TAF LIBD 140500Z 1406/1506 VRB05KT CAVOK"
    },
    {
      "icao": "LIBG",
      "alert": "OK",
      "vis_m": 9999,
      "fzfg": false,
      "metar_trigger": false,
      "taf_trigger": false,
      "metar": "METAR LIBG 141020Z AUTO 23008KT 180V290 9999 NCD 31/09 Q1016",
      "taf": "TAF LIBG 140500Z 1406/1506 VRB05KT CAVOK"
    },
    {
      "icao": "LIBP",
      "alert": "OK",
      "vis_m": 9999,
      "fzfg": false,
      "metar_trigger": false,
      "taf_trigger": false,
      "metar": "METAR LIBP 141020Z AUTO 23009KT 180V300 9999 NCD 34/11 Q1012",
      "taf": "TAF LIBP 140500Z 1406/1506 23005KT CAVOK"
    },
    {
      "icao": "LIBR",
      "alert": "OK",
      "vis_m": 9999,
      "fzfg": false,
      "metar_trigger": false,
      "taf_trigger": false,
      "metar": "METAR LIBR 141020Z 10009KT CAVOK 25/18 Q1016",
      "taf": "TAF LIBR 140500Z 1406/1506 33007KT CAVOK"
    },
    {
      "icao": "LICA",
      "alert": "OK",
      "vis_m": 9999,
      "fzfg": false,
      "metar_trigger": false,
      "taf_trigger": false,
      "metar": "METAR LICA 141020Z AUTO 24008KT 190V270 9999 NCD 26/18 Q1018",
      "taf": "TAF LICA 140500Z 1406/1506 VRB05KT CAVOK"
    },
    {
      "icao": "LICC",
      "alert": "OK",
      "vis_m": 9999,
      "fzfg": false,
      "metar_trigger": false,
      "taf_trigger": false,
      "metar": "METAR LICC 141020Z 11008KT 070V130 CAVOK 28/20 Q1017",
      "taf": "TAF LICC 140500Z 1406/1506 VRB05KT CAVOK"
    },
    {
      "icao": "LICJ",
      "alert": "OK",
      "vis_m": 9999,
      "fzfg": false,
      "metar_trigger": false,
      "taf_trigger": false,
      "metar": "METAR LICJ 141020Z 03013KT CAVOK 26/20 Q1017",
      "taf": "TAF LICJ 140500Z 1406/1506 VRB05KT CAVOK"
    },
    {
      "icao": "LIMC",
      "alert": "OK",
      "vis_m": 9999,
      "fzfg": false,
      "metar_trigger": false,
      "taf_trigger": false,
      "metar": "METAR LIMC 141020Z 25005KT 220V320 CAVOK 26/16 Q1014 NOSIG",
      "taf": "TAF LIMC 140500Z 1406/1512 VRB05KT CAVOK"
    },
    {
      "icao": "LIME",
      "alert": "OK",
      "vis_m": 9999,
      "fzfg": false,
      "metar_trigger": false,
      "taf_trigger": false,
      "metar": "METAR LIME 141020Z 27009KT CAVOK 25/14 Q1013 NOSIG",
      "taf": "TAF LIME 140500Z 1406/1506 VRB05KT CAVOK"
    },
    {
      "icao": "LIMF",
      "alert": "OK",
      "vis_m": 9999,
      "fzfg": false,
      "metar_trigger": false,
      "taf_trigger": false,
      "metar": "METAR LIMF 141020Z VRB02KT CAVOK 27/14 Q1014",
      "taf": "TAF LIMF 140500Z 1406/1506 VRB05KT CAVOK"
    },
    {
      "icao": "LIMJ",
      "alert": "OK",
      "vis_m": 9999,
      "fzfg": false,
      "metar_trigger": false,
      "taf_trigger": false,
      "metar": "METAR LIMJ 141020Z 16006KT 9999 SCT020 22/18 Q1016",
      "taf": "TAF LIMJ 140500Z 1406/1506 VRB05KT CAVOK"
    },
    {
      "icao": "LIPE",
      "alert": "OK",
      "vis_m": 9999,
      "fzfg": false,
      "metar_trigger": false,
      "taf_trigger": false,
      "metar": "METAR LIPE 141020Z 19004KT 120V230 CAVOK 29/12 Q1012",
      "taf": "TAF LIPE 140500Z 1406/1506 VRB05KT CAVOK"
    },
    {
      "icao": "LIPH",
      "alert": "OK",
      "vis_m": 9999,
      "fzfg": false,
      "metar_trigger": false,
      "taf_trigger": false,
      "metar": "METAR LIPH 141020Z VRB03KT CAVOK 26/14 Q1012",
      "taf": "TAF LIPH 140500Z 1406/1506 05005KT 9999 FEW030"
    },
    {
      "icao": "LIPQ",
      "alert": "OK",
      "vis_m": 9999,
      "fzfg": false,
      "metar_trigger": false,
      "taf_trigger": false,
      "metar": "METAR LIPQ 141020Z 24004KT 160V300 CAVOK 25/14 Q1012",
      "taf": "TAF LIPQ 140500Z 1406/1506 VRB05KT 9999 FEW060"
    },
    {
      "icao": "LIPR",
      "alert": "OK",
      "vis_m": 9999,
      "fzfg": false,
      "metar_trigger": false,
      "taf_trigger": false,
      "metar": "METAR LIPR 141020Z 06006KT CAVOK 28/11 Q1013",
      "taf": "TAF LIPR 140500Z 1406/1506 VRB05KT CAVOK"
    },
    {
      "icao": "LIPX",
      "alert": "OK",
      "vis_m": 9999,
      "fzfg": false,
      "metar_trigger": false,
      "taf_trigger": false,
      "metar": "METAR LIPX 141020Z VRB04KT CAVOK 27/15 Q1013",
      "taf": "TAF LIPX 140500Z 1406/1506 VRB05KT CAVOK"
    },
    {
      "icao": "LIPY",
      "alert": "OK",
      "vis_m": 9999,
      "fzfg": false,
      "metar_trigger": false,
      "taf_trigger": false,
      "metar": "METAR LIPY 141020Z AUTO 25010KT 220V290 9999 FEW210/// 32/11 Q1013",
      "taf": "TAF LIPY 140500Z 1406/1506 19005KT CAVOK"
    },
    {
      "icao": "LIPZ",
      "alert": "OK",
      "vis_m": 9999,
      "fzfg": false,
      "metar_trigger": false,
      "taf_trigger": false,
      "metar": "METAR LIPZ 141020Z 16005KT 130V190 9999 FEW030 24/19 Q1012 NOSIG",
      "taf": "TAF LIPZ 140500Z 1406/1512 05006KT 9999 FEW020"
    },
    {
      "icao": "LIRF",
      "alert": "OK",
      "vis_m": 9999,
      "fzfg": false,
      "metar_trigger": false,
      "taf_trigger": false,
      "metar": "METAR LIRF 141020Z 27008KT 230V310 CAVOK 27/09 Q1017 NOSIG",
      "taf": "TAF LIRF 140500Z 1406/1512 VRB05KT CAVOK"
    },
    {
      "icao": "LIRN",
      "alert": "OK",
      "vis_m": 9999,
      "fzfg": false,
      "metar_trigger": false,
      "taf_trigger": false,
      "metar": "METAR LIRN 141020Z 19007KT 140V240 CAVOK 26/17 Q1018 NOSIG",
      "taf": "TAF LIRN 140500Z 1406/1506 VRB04KT CAVOK"
    },
    {
      "icao": "LIRP",
      "alert": "OK",
      "vis_m": 9999,
      "fzfg": false,
      "metar_trigger": false,
      "taf_trigger": false,
      "metar": "METAR LIRP 141015Z 28008KT CAVOK 26/13 Q1016 NOSIG",
      "taf": "TAF LIRP 140500Z 1406/1506 VRB03KT CAVOK"
    },
    {
      "icao": "LIRZ",
      "alert": "OK",
      "vis_m": 9999,
      "fzfg": false,
      "metar_trigger": false,
      "taf_trigger": false,
      "metar": "METAR LIRZ 141020Z AUTO 23011KT 180V260 9999 NCD 29/11 Q1016",
      "taf": "TAF LIRZ 140500Z 1406/1506 VRB04KT CAVOK"
    },
    {
      "icao": "LJLJ",
      "alert": "OK",
      "vis_m": 9999,
      "fzfg": false,
      "metar_trigger": false,
      "taf_trigger": false,
      "metar": "METAR LJLJ 141000Z 35005KT 320V030 9999 FEW040 SCT250 25/16 Q1012 NOSIG",
      "taf": "TAF LJLJ 132300Z 1400/1500 VRB02KT CAVOK"
    },
    {
      "icao": "LKMT",
      "alert": "OK",
      "vis_m": 9999,
      "fzfg": false,
      "metar_trigger": false,
      "taf_trigger": false,
      "metar": "METAR LKMT 141000Z 23014KT 9999 FEW030 14/09 Q1011 NOSIG",
      "taf": "TAF LKMT 140500Z 1406/1506 24014KT 9999 SCT033"
    },
    {
      "icao": "LKPR",
      "alert": "OK",
      "vis_m": 9999,
      "fzfg": false,
      "metar_trigger": false,
      "taf_trigger": false,
      "metar": "METAR LKPR 141000Z 30017KT 9999 -SHRA FEW028TCU BKN048 14/06 Q1013 NOSIG",
      "taf": "TAF LKPR 140800Z 1409/1515 27010KT CAVOK"
    },
    {
      "icao": "LLBG",
      "alert": "OK",
      "vis_m": 9999,
      "fzfg": false,
      "metar_trigger": false,
      "taf_trigger": false,
      "metar": "METAR LLBG 141020Z 25011KT 9999 FEW040 30/14 Q1010 NOSIG",
      "taf": "TAF LLBG 132301Z 1400/1424 VRB04KT CAVOK TX29/1410Z TN20/1403Z"
    },
    {
      "icao": "LMML",
      "alert": "OK",
      "vis_m": 9999,
      "fzfg": false,
      "metar_trigger": false,
      "taf_trigger": false,
      "metar": "METAR LMML 141015Z 21007KT 160V250 9999 FEW020 27/19 Q1018 NOSIG",
      "taf": "TAF LMML 132300Z 1400/1424 25007KT 9999 FEW011"
    },
    {
      "icao": "LOWW",
      "alert": "OK",
      "vis_m": 9999,
      "fzfg": false,
      "metar_trigger": false,
      "taf_trigger": false,
      "metar": "METAR LOWW 141020Z 29018G28KT 9999 SCT050 23/10 Q1012 NOSIG",
      "taf": "TAF LOWW 140815Z 1409/1515 29015KT 9999 FEW050 TX21/1515Z TN14/1502Z"
    },
    {
      "icao": "LPFR",
      "alert": "OK",
      "vis_m": 9999,
      "fzfg": false,
      "metar_trigger": false,
      "taf_trigger": false,
      "metar": "METAR LPFR 141000Z 12005KT 090V150 9999 FEW022 BKN028 22/16 Q1017",
      "taf": "TAF LPFR 140500Z 1406/1506 25005KT 9999 BKN020"
    },
    {
      "icao": "LPMA",
      "alert": "OK",
      "vis_m": 9999,
      "fzfg": false,
      "metar_trigger": false,
      "taf_trigger": false,
      "metar": "METAR LPMA 141000Z 32010KT 270V030 9999 FEW015 22/16 Q1022",
      "taf": "TAF LPMA 140500Z 1406/1506 VRB05KT 9999 FEW015"
    },
    {
      "icao": "LPPR",
      "alert": "OK",
      "vis_m": 9999,
      "fzfg": false,
      "metar_trigger": false,
      "taf_trigger": false,
      "metar": "METAR LPPR 141000Z 27004KT 200V310 9999 VCSH FEW035 FEW040CB 19/17 Q1016",
      "taf": "TAF LPPR 140500Z 1406/1506 VRB02KT 9999 FEW045"
    },
    {
      "icao": "LPPS",
      "alert": "OK",
      "vis_m": 9999,
      "fzfg": false,
      "metar_trigger": false,
      "taf_trigger": false,
      "metar": "METAR LPPS 141000Z 35014KT 9999 FEW015 BKN030 21/14 Q1022",
      "taf": "TAF LPPS 140500Z 1406/1512 34013KT 9999 SCT015 BKN030"
    },
    {
      "icao": "LPPT",
      "alert": "OK",
      "vis_m": 9999,
      "fzfg": false,
      "metar_trigger": false,
      "taf_trigger": false,
      "metar": "METAR LPPT 141000Z VRB05KT CAVOK 25/14 Q1017",
      "taf": ""
    },
    {
      "icao": "LQBK",
      "alert": "OK",
      "vis_m": 9999,
      "fzfg": false,
      "metar_trigger": false,
      "taf_trigger": false,
      "metar": "METAR LQBK 141000Z VRB03KT 9999 FEW035 29/11 Q1012 NOSIG",
      "taf": "TAF LQBK 132300Z 1400/1424 15005KT CAVOK TX30/1414Z TN13/1403Z"
    },
    {
      "icao": "LQSA",
      "alert": "OK",
      "vis_m": 9999,
      "fzfg": false,
      "metar_trigger": false,
      "taf_trigger": false,
      "metar": "METAR LQSA 141000Z VRB03KT CAVOK 27/11 Q1015 NOSIG",
      "taf": "TAF LQSA 132300Z 1400/1424 VRB02KT CAVOK TX29/1414Z TN11/1404Z"
    },
    {
      "icao": "LQTZ",
      "alert": "OK",
      "vis_m": 9999,
      "fzfg": false,
      "metar_trigger": false,
      "taf_trigger": false,
      "metar": "METAR LQTZ 141000Z VRB02KT 9999 FEW050 28/14 Q1013",
      "taf": "TAF LQTZ 132300Z 1400/1424 VRB02KT CAVOK TX29/1413Z TN10/1403Z"
    },
    {
      "icao": "LRBC",
      "alert": "OK",
      "vis_m": 9999,
      "fzfg": false,
      "metar_trigger": false,
      "taf_trigger": false,
      "metar": "METAR LRBC 141000Z 25008KT 220V280 9999 BKN065 24/12 Q1010",
      "taf": "TAF LRBC 140200Z 1403/1412 VRB04KT CAVOK"
    },
    {
      "icao": "LRBS",
      "alert": "OK",
      "vis_m": 9999,
      "fzfg": false,
      "metar_trigger": false,
      "taf_trigger": false,
      "metar": "METAR LRBS 141000Z 27008KT 230V340 CAVOK 26/13 Q1012 NOSIG",
      "taf": "TAF LRBS 140500Z 1406/1506 25006KT CAVOK"
    },
    {
      "icao": "LRBV",
      "alert": "OK",
      "vis_m": 9999,
      "fzfg": false,
      "metar_trigger": false,
      "taf_trigger": false,
      "metar": "METAR LRBV 141000Z 30011KT 260V330 9999 SCT054 22/11 Q1014",
      "taf": "TAF LRBV 140200Z 1403/1412 VRB04KT 9999 SCT060"
    },
    {
      "icao": "LRCL",
      "alert": "OK",
      "vis_m": 9999,
      "fzfg": false,
      "metar_trigger": false,
      "taf_trigger": false,
      "metar": "METAR LRCL 141000Z 14008KT 100V170 9999 FEW036CB BKN060 23/14 Q1011",
      "taf": "TAF LRCL 140200Z 1403/1412 VRB04KT 9999 SCT045"
    },
    {
      "icao": "LRCV",
      "alert": "OK",
      "vis_m": 9999,
      "fzfg": false,
      "metar_trigger": false,
      "taf_trigger": false,
      "metar": "METAR LRCV 141000Z 31010KT CAVOK 26/15 Q1014",
      "taf": "TAF LRCV 140200Z 1403/1412 28008KT CAVOK"
    },
    {
      "icao": "LRIA",
      "alert": "OK",
      "vis_m": 9999,
      "fzfg": false,
      "metar_trigger": false,
      "taf_trigger": false,
      "metar": "METAR LRIA 141000Z VRB05KT 9999 BKN047 24/13 Q1010",
      "taf": "TAF LRIA 140200Z 1403/1412 VRB03KT CAVOK"
    },
    {
      "icao": "LROP",
      "alert": "OK",
      "vis_m": 9999,
      "fzfg": false,
      "metar_trigger": false,
      "taf_trigger": false,
      "metar": "METAR LROP 141000Z VRB05KT CAVOK 26/13 Q1012 NOSIG",
      "taf": "TAF LROP 140500Z 1406/1506 25006KT CAVOK"
    },
    {
      "icao": "LRSB",
      "alert": "OK",
      "vis_m": 9999,
      "fzfg": false,
      "metar_trigger": false,
      "taf_trigger": false,
      "metar": "METAR LRSB 141000Z 31012KT 9999 FEW050 SCT085 23/12 Q1013",
      "taf": "TAF LRSB 140500Z 1406/1506 VRB04KT 9999 SCT080"
    },
    {
      "icao": "LRSM",
      "alert": "OK",
      "vis_m": 9999,
      "fzfg": false,
      "metar_trigger": false,
      "taf_trigger": false,
      "metar": "METAR LRSM 141000Z AUTO 26010KT 9999 FEW035/// SCT075/// 24/15 Q1010",
      "taf": ""
    },
    {
      "icao": "LRSV",
      "alert": "OK",
      "vis_m": 9999,
      "fzfg": false,
      "metar_trigger": false,
      "taf_trigger": false,
      "metar": "METAR LRSV 141000Z VRB03KT 9999 VCSH FEW013 FEW032CB SCT045 20/11 Q1010 RESHRA",
      "taf": "TAF LRSV 140200Z 1403/1412 25006KT CAVOK"
    },
    {
      "icao": "LRTM",
      "alert": "OK",
      "vis_m": 9999,
      "fzfg": false,
      "metar_trigger": false,
      "taf_trigger": false,
      "metar": "METAR LRTM 141000Z 18007KT 130V230 9999 SCT030 FEW033CB 22/17 Q1012",
      "taf": "TAF LRTM 140200Z 1403/1412 VRB04KT 9999 SCT045"
    },
    {
      "icao": "LRTR",
      "alert": "OK",
      "vis_m": 9999,
      "fzfg": false,
      "metar_trigger": false,
      "taf_trigger": false,
      "metar": "METAR LRTR 141000Z 19009KT 160V230 9999 FEW055CB 25/17 Q1013",
      "taf": "TAF LRTR 140500Z 1406/1506 VRB04KT 9999 FEW040CB"
    },
    {
      "icao": "LTAC",
      "alert": "OK",
      "vis_m": 9999,
      "fzfg": false,
      "metar_trigger": false,
      "taf_trigger": false,
      "metar": "METAR LTAC 141020Z 06008KT 9999 FEW030CB BKN035 BKN080 18/11 Q1015 TEMPO -TSRA RMK RWY21C 08008KT RWY03L 08007KT RWY21R 07008KT RWY03R 08008KT RWY21L 08007KT",
      "taf": "TAF LTAC 132240Z 1400/1424 VRB02KT 9999 SCT040 SCT100"
    },
    {
      "icao": "LTFM",
      "alert": "OK",
      "vis_m": 9999,
      "fzfg": false,
      "metar_trigger": false,
      "taf_trigger": false,
      "metar": "METAR LTFM 141020Z 04009KT 360V080 9999 SCT035 24/10 Q1015 NOSIG RMK RWY17L 01008KT 350V050 RWY34L 02007KT 330V080 RWY16R 04008KT 350V100 RWY36 04008KT 350V070 RWY18 04008KT 360V070",
      "taf": "TAF LTFM 132240Z 1400/1506 28007KT CAVOK"
    },
    {
      "icao": "LUKK",
      "alert": "OK",
      "vis_m": 9999,
      "fzfg": false,
      "metar_trigger": false,
      "taf_trigger": false,
      "metar": "METAR LUKK 141000Z 27010KT 240V300 9999 SCT047 24/13 Q1010 TEMPO SCT045CB",
      "taf": "TAF LUKK 140512Z 1406/1506 25009KT CAVOK"
    },
    {
      "icao": "LWOH",
      "alert": "OK",
      "vis_m": 9999,
      "fzfg": false,
      "metar_trigger": false,
      "taf_trigger": false,
      "metar": "METAR LWOH 141020Z 15007KT 110V190 9999 FEW040 21/13 Q1019",
      "taf": "TAF LWOH 140830Z 1409/1509 VRB02KT CAVOK"
    },
    {
      "icao": "LWSK",
      "alert": "OK",
      "vis_m": 9999,
      "fzfg": false,
      "metar_trigger": false,
      "taf_trigger": false,
      "metar": "METAR LWSK 141020Z 30005KT CAVOK 28/10 Q1016 NOSIG",
      "taf": "TAF LWSK 140830Z 1409/1509 VRB02KT CAVOK"
    },
    {
      "icao": "LYBE",
      "alert": "OK",
      "vis_m": 9999,
      "fzfg": false,
      "metar_trigger": false,
      "taf_trigger": false,
      "metar": "METAR LYBE 141000Z 16009KT 140V200 CAVOK 28/14 Q1013 NOSIG",
      "taf": "TAF LYBE 140500Z 1406/1506 20007KT CAVOK TX31/1414Z TN16/1503Z"
    },
    {
      "icao": "LYNI",
      "alert": "OK",
      "vis_m": 9999,
      "fzfg": false,
      "metar_trigger": false,
      "taf_trigger": false,
      "metar": "METAR LYNI 141000Z VRB03KT CAVOK 27/12 Q1015 NOSIG",
      "taf": "TAF LYNI 140500Z 1406/1506 19007KT CAVOK TX31/1414Z TN16/1424Z"
    },
    {
      "icao": "LYPG",
      "alert": "OK",
      "vis_m": 9999,
      "fzfg": false,
      "metar_trigger": false,
      "taf_trigger": false,
      "metar": "METAR LYPG 141000Z VRB03KT CAVOK 28/13 Q1016 NOSIG",
      "taf": "TAF LYPG 140500Z 1406/1506 17005KT CAVOK TX31/1414Z TN19/1503Z"
    },
    {
      "icao": "LZIB",
      "alert": "OK",
      "vis_m": 9999,
      "fzfg": false,
      "metar_trigger": false,
      "taf_trigger": false,
      "metar": "METAR LZIB 141000Z 25010KT CAVOK 22/10 Q1012 NOSIG",
      "taf": "TAF LZIB 132315Z 1400/1500 29004KT CAVOK"
    },
    {
      "icao": "LZKZ",
      "alert": "OK",
      "vis_m": 9999,
      "fzfg": false,
      "metar_trigger": false,
      "taf_trigger": false,
      "metar": "METAR LZKZ 141000Z 23012KT 9999 SCT040 22/13 Q1009 NOSIG",
      "taf": "TAF LZKZ 132315Z 1400/1500 23004KT CAVOK"
    },
    {
      "icao": "LZTT",
      "alert": "OK",
      "vis_m": 9999,
      "fzfg": false,
      "metar_trigger": false,
      "taf_trigger": false,
      "metar": "METAR LZTT 141000Z 27017KT 9999 SCT070 18/06 Q1010 NOSIG",
      "taf": "TAF LZTT 132315Z 1400/1500 27008KT 9999 FEW045"
    },
    {
      "icao": "OEJN",
      "alert": "OK",
      "vis_m": 9999,
      "fzfg": false,
      "metar_trigger": false,
      "taf_trigger": false,
      "metar": "METAR OEJN 141000Z 28011KT CAVOK 35/21 Q1005 NOSIG",
      "taf": "TAF OEJN 140500Z 1406/1512 32014KT CAVOK"
    },
    {
      "icao": "OEMA",
      "alert": "OK",
      "vis_m": 9999,
      "fzfg": false,
      "metar_trigger": false,
      "taf_trigger": false,
      "metar": "METAR OEMA 141000Z 28008KT 220V330 CAVOK 42/M03 Q1010 NOSIG",
      "taf": "TAF OEMA 140500Z 1406/1512 28010KT CAVOK"
    },
    {
      "icao": "OJAI",
      "alert": "OK",
      "vis_m": 4000,
      "fzfg": false,
      "metar_trigger": false,
      "taf_trigger": false,
      "metar": "METAR OJAI 141000Z 27017KT 4000 BLDU NSC 28/07 Q1014 NOSIG",
      "taf": "TAF OJAI 140500Z 1406/1512 28012KT 6000 NSC"
    },
    {
      "icao": "OMAA",
      "alert": "OK",
      "vis_m": 9999,
      "fzfg": false,
      "metar_trigger": false,
      "taf_trigger": false,
      "metar": "METAR OMAA 141030Z VRB04KT CAVOK 45/10 Q1000 BECMG 34013KT",
      "taf": "TAF OMAA 140500Z 1406/1512 18005KT 8000 NSC"
    },
    {
      "icao": "OMDB",
      "alert": "OK",
      "vis_m": 9999,
      "fzfg": false,
      "metar_trigger": false,
      "taf_trigger": false,
      "metar": "METAR OMDB 141030Z 33010KT 310V010 CAVOK 40/18 Q1000 NOSIG",
      "taf": "TAF OMDB 140500Z 1406/1512 20005KT 8000 NSC"
    },
    {
      "icao": "UAAA",
      "alert": "OK",
      "vis_m": 9999,
      "fzfg": false,
      "metar_trigger": false,
      "taf_trigger": false,
      "metar": "METAR UAAA 141000Z 01003MPS 340V110 9999 SCT050CB 34/10 Q1006 NOSIG",
      "taf": "TAF UAAA 140502Z 1406/1506 34003G08MPS 9999 FEW050CB SCT100 TX35/1410Z TN19/1500Z"
    },
    {
      "icao": "UBBB",
      "alert": "OK",
      "vis_m": 9999,
      "fzfg": false,
      "metar_trigger": false,
      "taf_trigger": false,
      "metar": "METAR UBBB 141030Z 19010KT CAVOK 31/15 Q1005 NOSIG",
      "taf": "TAF UBBB 132302Z 1400/1424 32005KT 9999 SCT040 TX31/1410Z TN19/1400Z"
    },
    {
      "icao": "UDSG",
      "alert": "OK",
      "vis_m": 9999,
      "fzfg": false,
      "metar_trigger": false,
      "taf_trigger": false,
      "metar": "METAR UDSG 141000Z 07007KT 9999 VCTS BKN043CB 20/10 Q1012 TEMPO -TSRA",
      "taf": "TAF UDSG 140500Z 1406/1506 27006KT 9999 SCT040"
    },
    {
      "icao": "UDYZ",
      "alert": "OK",
      "vis_m": 9999,
      "fzfg": false,
      "metar_trigger": false,
      "taf_trigger": false,
      "metar": "METAR UDYZ 141000Z 03007KT 9999 VCTS BKN043CB 23/13 Q1007 NOSIG",
      "taf": "TAF UDYZ 140500Z 1406/1506 23006KT 9999 SCT040"
    },
    {
      "icao": "UGKO",
      "alert": "OK",
      "vis_m": 9999,
      "fzfg": false,
      "metar_trigger": false,
      "taf_trigger": false,
      "metar": "METAR UGKO 141000Z 29007KT 9999 BKN098 23/16 Q1008 NOSIG",
      "taf": "TAF UGKO 132300Z 1400/1424 26007KT 9999 SCT030 OVC050 TX23/1412Z TN16/1401Z"
    }
  ]
}