{
  "ts_utc": "2026-04-18T17:20:38Z",
  "threshold_m": 150,
  "source": "stations_override.txt (ICAO list) + aviationweather.gov (METAR/TAF raw)",
  "station_count": 159,
  "stations": [
    {
      "icao": "BIKF",
      "alert": "OK",
      "vis_m": 9999,
      "fzfg": false,
      "metar_trigger": false,
      "taf_trigger": false,
      "metar": "METAR BIKF 181700Z 05004KT 020V090 9999 FEW032 BKN230 06/M03 Q1015",
      "taf": "TAF BIKF 181049Z 1812/1912 28007KT 9999 BKN040 TX07/1815Z TN01/1902Z"
    },
    {
      "icao": "BKPR",
      "alert": "OK",
      "vis_m": 9999,
      "fzfg": false,
      "metar_trigger": false,
      "taf_trigger": false,
      "metar": "METAR BKPR 181700Z 02012KT 9999 FEW050 16/02 Q1015 NOSIG",
      "taf": "TAF BKPR 181130Z 1812/1912 01008KT 9999 FEW050"
    },
    {
      "icao": "EBCI",
      "alert": "OK",
      "vis_m": 9999,
      "fzfg": false,
      "metar_trigger": false,
      "taf_trigger": false,
      "metar": "METAR EBCI 181650Z 35004KT 310V020 9999 FEW010 SCT020 14/11 Q1021 NOSIG",
      "taf": "TAF EBCI 181115Z 1812/1918 31007KT 9999 SCT012 BKN035"
    },
    {
      "icao": "EDDB",
      "alert": "OK",
      "vis_m": 9999,
      "fzfg": false,
      "metar_trigger": false,
      "taf_trigger": false,
      "metar": "METAR EDDB 181650Z AUTO VRB01KT CAVOK 19/05 Q1018 NOSIG",
      "taf": "TAF EDDB 181100Z 1812/1912 11004KT CAVOK"
    },
    {
      "icao": "EDDH",
      "alert": "OK",
      "vis_m": 9999,
      "fzfg": false,
      "metar_trigger": false,
      "taf_trigger": false,
      "metar": "METAR EDDH 181650Z AUTO 32003KT 270V360 CAVOK 16/09 Q1019 NOSIG",
      "taf": "TAF EDDH 181100Z 1812/1918 28006KT CAVOK"
    },
    {
      "icao": "EDDK",
      "alert": "OK",
      "vis_m": 9999,
      "fzfg": false,
      "metar_trigger": false,
      "taf_trigger": false,
      "metar": "METAR EDDK 181650Z AUTO 34007KT 320V020 9999 SHRA FEW049 FEW///CB 16/11 Q1020 TEMPO TSRA",
      "taf": "TAF EDDK 181100Z 1812/1918 30007KT CAVOK"
    },
    {
      "icao": "EDDN",
      "alert": "OK",
      "vis_m": 9999,
      "fzfg": false,
      "metar_trigger": false,
      "taf_trigger": false,
      "metar": "METAR EDDN 181650Z AUTO 28004KT 250V310 CAVOK 21/07 Q1018 NOSIG",
      "taf": "TAF EDDN 181100Z 1812/1912 28004KT CAVOK"
    },
    {
      "icao": "EDDS",
      "alert": "OK",
      "vis_m": 9999,
      "fzfg": false,
      "metar_trigger": false,
      "taf_trigger": false,
      "metar": "METAR EDDS 181650Z AUTO 32007KT 280V340 CAVOK 20/08 Q1018 NOSIG",
      "taf": "TAF EDDS 181100Z 1812/1912 VRB03KT CAVOK"
    },
    {
      "icao": "EDFH",
      "alert": "OK",
      "vis_m": 9999,
      "fzfg": false,
      "metar_trigger": false,
      "taf_trigger": false,
      "metar": "METAR EDFH 181650Z 32008KT 9999 FEW048 17/08 Q1020",
      "taf": "TAF EDFH 181100Z 1812/1912 33006KT CAVOK"
    },
    {
      "icao": "EDJA",
      "alert": "OK",
      "vis_m": 9999,
      "fzfg": false,
      "metar_trigger": false,
      "taf_trigger": false,
      "metar": "METAR EDJA 181650Z 30003KT 270V330 CAVOK 19/05 Q1019",
      "taf": "TAF EDJA 181100Z 1812/1821 27004KT CAVOK"
    },
    {
      "icao": "EDLW",
      "alert": "OK",
      "vis_m": 9999,
      "fzfg": false,
      "metar_trigger": false,
      "taf_trigger": false,
      "metar": "METAR EDLW 181650Z VRB01KT 9999 VCSH NSC 14/12 Q1020",
      "taf": "TAF EDLW 181100Z 1812/1912 28006KT CAVOK"
    },
    {
      "icao": "EDNY",
      "alert": "OK",
      "vis_m": 9999,
      "fzfg": false,
      "metar_trigger": false,
      "taf_trigger": false,
      "metar": "METAR EDNY 181650Z VRB02KT CAVOK 21/06 Q1018",
      "taf": "TAF EDNY 181100Z 1812/1821 23004KT CAVOK"
    },
    {
      "icao": "EDSB",
      "alert": "OK",
      "vis_m": 9999,
      "fzfg": false,
      "metar_trigger": false,
      "taf_trigger": false,
      "metar": "METAR EDSB 181650Z 32003KT 280V350 CAVOK 22/09 Q1018",
      "taf": "TAF EDSB 181100Z 1812/1912 VRB03KT CAVOK"
    },
    {
      "icao": "EETN",
      "alert": "OK",
      "vis_m": 9999,
      "fzfg": false,
      "metar_trigger": false,
      "taf_trigger": false,
      "metar": "METAR EETN 181650Z 08010KT CAVOK 09/M03 Q1022 NOSIG",
      "taf": "TAF EETN 181130Z 1812/1912 07012KT CAVOK"
    },
    {
      "icao": "EFTU",
      "alert": "OK",
      "vis_m": 9999,
      "fzfg": false,
      "metar_trigger": false,
      "taf_trigger": false,
      "metar": "METAR EFTU 181650Z AUTO 23008KT CAVOK 10/M03 Q1022",
      "taf": "TAF EFTU 181124Z 1812/1912 16005KT CAVOK"
    },
    {
      "icao": "EGBB",
      "alert": "OK",
      "vis_m": 9999,
      "fzfg": false,
      "metar_trigger": false,
      "taf_trigger": false,
      "metar": "METAR EGBB 181650Z 31011KT 9999 FEW027 BKN042 11/06 Q1023",
      "taf": "TAF EGBB 181104Z 1812/1912 28009KT 9999 SCT035"
    },
    {
      "icao": "EGGP",
      "alert": "OK",
      "vis_m": 9999,
      "fzfg": false,
      "metar_trigger": false,
      "taf_trigger": false,
      "metar": "METAR EGGP 181650Z 31014KT 9999 SCT022 11/05 Q1024",
      "taf": "TAF EGGP 181058Z 1812/1912 27015KT 9999 SCT030"
    },
    {
      "icao": "EGGW",
      "alert": "OK",
      "vis_m": 9999,
      "fzfg": false,
      "metar_trigger": false,
      "taf_trigger": false,
      "metar": "METAR EGGW 181650Z AUTO 32012KT 9999 NCD 14/01 Q1021",
      "taf": "TAF EGGW 181052Z 1812/1912 30009KT 9999 SCT035"
    },
    {
      "icao": "EGKK",
      "alert": "OK",
      "vis_m": 9999,
      "fzfg": false,
      "metar_trigger": false,
      "taf_trigger": false,
      "metar": "METAR EGKK 181650Z 32008KT CAVOK 15/04 Q1021",
      "taf": "TAF EGKK 181055Z 1812/1918 29007KT 9999 FEW025"
    },
    {
      "icao": "EGNM",
      "alert": "OK",
      "vis_m": 9999,
      "fzfg": false,
      "metar_trigger": false,
      "taf_trigger": false,
      "metar": "METAR EGNM 181650Z 28017KT 9999 SCT034 10/04 Q1021",
      "taf": "TAF EGNM 181058Z 1812/1912 26012KT 9999 SCT025"
    },
    {
      "icao": "EGPD",
      "alert": "OK",
      "vis_m": 9999,
      "fzfg": false,
      "metar_trigger": false,
      "taf_trigger": false,
      "metar": "METAR EGPD 181650Z AUTO 30012KT 9999 FEW049 11/06 Q1017 TEMPO SHRA",
      "taf": "TAF EGPD 181058Z 1812/1912 28012KT 9999 SCT030"
    },
    {
      "icao": "EGPF",
      "alert": "OK",
      "vis_m": 9999,
      "fzfg": false,
      "metar_trigger": false,
      "taf_trigger": false,
      "metar": "METAR EGPF 181650Z AUTO 27015KT 9999 NCD 11/03 Q1021",
      "taf": "TAF EGPF 181055Z 1812/1912 27012KT 9999 SCT030"
    },
    {
      "icao": "EHBK",
      "alert": "OK",
      "vis_m": 9999,
      "fzfg": false,
      "metar_trigger": false,
      "taf_trigger": false,
      "metar": "METAR EHBK 181655Z AUTO VRB02KT 9999 NSC 14/11 Q1020 NOSIG",
      "taf": "TAF EHBK 181115Z 1812/1918 28007KT 9999 FEW020"
    },
    {
      "icao": "EHEH",
      "alert": "OK",
      "vis_m": 9999,
      "fzfg": false,
      "metar_trigger": false,
      "taf_trigger": false,
      "metar": "METAR EHEH 181655Z AUTO 28003KT 240V320 9999 FEW008 BKN018 BKN022 13/12 Q1020 WHT BECMG BKN025",
      "taf": ""
    },
    {
      "icao": "EKBI",
      "alert": "OK",
      "vis_m": 9999,
      "fzfg": false,
      "metar_trigger": false,
      "taf_trigger": false,
      "metar": "METAR EKBI 181650Z 23005KT 200V260 9999 FEW011 BKN074 12/10 Q1018",
      "taf": "TAF EKBI 181127Z 1812/1912 13010KT 9999 BKN040"
    },
    {
      "icao": "EKCH",
      "alert": "OK",
      "vis_m": 9999,
      "fzfg": false,
      "metar_trigger": false,
      "taf_trigger": false,
      "metar": "METAR EKCH 181650Z AUTO 14007KT 9999 OVC066/// 10/04 Q1019 NOSIG",
      "taf": "TAF EKCH 181127Z 1812/1912 14008KT CAVOK"
    },
    {
      "icao": "ENAL",
      "alert": "OK",
      "vis_m": 9999,
      "fzfg": false,
      "metar_trigger": false,
      "taf_trigger": false,
      "metar": "METAR ENAL 181650Z 06010KT 9999 SCT062 12/06 Q1014",
      "taf": ""
    },
    {
      "icao": "ENBR",
      "alert": "OK",
      "vis_m": 9999,
      "fzfg": false,
      "metar_trigger": false,
      "taf_trigger": false,
      "metar": "METAR ENBR 181650Z 17009KT 9999 SCT017 BKN022 10/07 Q1015 NOSIG RMK WIND 1200FT 16012KT",
      "taf": "TAF ENBR 181100Z 1812/1912 18012KT 9999 FEW010 BKN020"
    },
    {
      "icao": "ENGM",
      "alert": "OK",
      "vis_m": 9999,
      "fzfg": false,
      "metar_trigger": false,
      "taf_trigger": false,
      "metar": "METAR ENGM 181650Z VRB02KT CAVOK 13/03 Q1018 NOSIG",
      "taf": "TAF ENGM 181100Z 1812/1912 13005KT 9999 BKN045"
    },
    {
      "icao": "ENHD",
      "alert": "OK",
      "vis_m": 9999,
      "fzfg": false,
      "metar_trigger": false,
      "taf_trigger": false,
      "metar": "METAR ENHD 181650Z 19010KT 150V210 9999 FEW012 SCT040 11/07 Q1015",
      "taf": "TAF ENHD 181100Z 1812/1821 18012KT 9000 FEW010 BKN015"
    },
    {
      "icao": "ENTC",
      "alert": "OK",
      "vis_m": 9999,
      "fzfg": false,
      "metar_trigger": false,
      "taf_trigger": false,
      "metar": "METAR ENTC 181650Z 19012KT CAVOK 10/M01 Q1023 BECMG 27015KT RMK WIND 2600FT 17022KT",
      "taf": "TAF ENTC 181100Z 1812/1912 26005KT CAVOK"
    },
    {
      "icao": "ENTO",
      "alert": "OK",
      "vis_m": 5000,
      "fzfg": false,
      "metar_trigger": false,
      "taf_trigger": false,
      "metar": "METAR ENTO 181650Z VRB02KT 5000 BR -RA OVC047 08/08 Q1019 RERA TEMPO 3000",
      "taf": "TAF ENTO 181100Z 1812/1912 09005KT 7000 -RA FEW005 BKN035"
    },
    {
      "icao": "ENVA",
      "alert": "OK",
      "vis_m": 9999,
      "fzfg": false,
      "metar_trigger": false,
      "taf_trigger": false,
      "metar": "METAR ENVA 181650Z 15013KT 130V190 CAVOK 14/02 Q1016 RMK WIND 670FT 16021KT",
      "taf": "TAF ENVA 181100Z 1812/1912 14008KT CAVOK"
    },
    {
      "icao": "ENZV",
      "alert": "OK",
      "vis_m": 9999,
      "fzfg": false,
      "metar_trigger": false,
      "taf_trigger": false,
      "metar": "METAR ENZV 181650Z 16010KT 9999 SCT011 BKN046 11/08 Q1016 NOSIG",
      "taf": "TAF ENZV 181100Z 1812/1912 17012KT 9999 SCT010 BKN020"
    },
    {
      "icao": "EPGD",
      "alert": "OK",
      "vis_m": 9999,
      "fzfg": false,
      "metar_trigger": false,
      "taf_trigger": false,
      "metar": "METAR EPGD 181700Z 07004KT 040V100 CAVOK 10/M01 Q1020",
      "taf": "TAF EPGD 181130Z 1812/1912 06010KT CAVOK"
    },
    {
      "icao": "EPKK",
      "alert": "OK",
      "vis_m": 9999,
      "fzfg": false,
      "metar_trigger": false,
      "taf_trigger": false,
      "metar": "METAR EPKK 181700Z 05005KT 010V090 9999 FEW068 16/04 Q1018",
      "taf": "TAF EPKK 181130Z 1812/1912 VRB05KT CAVOK"
    },
    {
      "icao": "EPKT",
      "alert": "OK",
      "vis_m": 9999,
      "fzfg": false,
      "metar_trigger": false,
      "taf_trigger": false,
      "metar": "METAR EPKT 181700Z 36005KT CAVOK 16/03 Q1018",
      "taf": "TAF EPKT 181130Z 1812/1912 36010KT CAVOK"
    },
    {
      "icao": "EPLB",
      "alert": "OK",
      "vis_m": 9999,
      "fzfg": false,
      "metar_trigger": false,
      "taf_trigger": false,
      "metar": "METAR EPLB 181700Z VRB02KT CAVOK 14/01 Q1018",
      "taf": "TAF EPLB 181130Z 1812/1912 33010KT 9999 SCT045"
    },
    {
      "icao": "EPMO",
      "alert": "OK",
      "vis_m": 9999,
      "fzfg": false,
      "metar_trigger": false,
      "taf_trigger": false,
      "metar": "METAR EPMO 181700Z 02004KT CAVOK 15/01 Q1018",
      "taf": "TAF EPMO 181130Z 1812/1912 35010KT 9999 SCT045"
    },
    {
      "icao": "EPPO",
      "alert": "OK",
      "vis_m": 9999,
      "fzfg": false,
      "metar_trigger": false,
      "taf_trigger": false,
      "metar": "METAR EPPO 181700Z 36002KT CAVOK 18/01 Q1018",
      "taf": "TAF EPPO 181130Z 1812/1912 VRB02KT CAVOK"
    },
    {
      "icao": "EPRA",
      "alert": "OK",
      "vis_m": 9999,
      "fzfg": false,
      "metar_trigger": false,
      "taf_trigger": false,
      "metar": "METAR EPRA 181700Z 33005KT CAVOK 16/00 Q1018",
      "taf": "TAF EPRA 181130Z 1812/1821 34010KT 9999 SCT040"
    },
    {
      "icao": "EPRZ",
      "alert": "OK",
      "vis_m": 9999,
      "fzfg": false,
      "metar_trigger": false,
      "taf_trigger": false,
      "metar": "METAR EPRZ 181700Z 34007KT 310V020 CAVOK 15/02 Q1018",
      "taf": "TAF EPRZ 181130Z 1812/1912 33010KT CAVOK"
    },
    {
      "icao": "EPSC",
      "alert": "OK",
      "vis_m": 9999,
      "fzfg": false,
      "metar_trigger": false,
      "taf_trigger": false,
      "metar": "METAR EPSC 181700Z 15004KT CAVOK 17/01 Q1018",
      "taf": "TAF EPSC 181130Z 1812/1912 VRB03KT CAVOK"
    },
    {
      "icao": "EPSY",
      "alert": "OK",
      "vis_m": 9999,
      "fzfg": false,
      "metar_trigger": false,
      "taf_trigger": false,
      "metar": "METAR EPSY 181700Z 35005KT CAVOK 15/M01 Q1019",
      "taf": "TAF EPSY 181130Z 1812/1821 01006KT CAVOK"
    },
    {
      "icao": "EPWA",
      "alert": "OK",
      "vis_m": 9999,
      "fzfg": false,
      "metar_trigger": false,
      "taf_trigger": false,
      "metar": "METAR EPWA 181700Z 34007KT 320V020 CAVOK 16/M01 Q1018 NOSIG",
      "taf": "TAF EPWA 181130Z 1812/1912 35010KT 9999 SCT045"
    },
    {
      "icao": "EPWR",
      "alert": "OK",
      "vis_m": 9999,
      "fzfg": false,
      "metar_trigger": false,
      "taf_trigger": false,
      "metar": "METAR EPWR 181700Z 35004KT 290V040 CAVOK 19/01 Q1018",
      "taf": "TAF EPWR 181130Z 1812/1912 VRB02KT CAVOK"
    },
    {
      "icao": "ESGG",
      "alert": "OK",
      "vis_m": 9999,
      "fzfg": false,
      "metar_trigger": false,
      "taf_trigger": false,
      "metar": "METAR ESGG 181650Z 21007KT 9999 FEW046 10/02 Q1019",
      "taf": "TAF ESGG 181130Z 1812/1912 19007KT CAVOK"
    },
    {
      "icao": "ESKN",
      "alert": "OK",
      "vis_m": 9999,
      "fzfg": false,
      "metar_trigger": false,
      "taf_trigger": false,
      "metar": "METAR ESKN 181650Z 14007KT CAVOK 12/M02 Q1020",
      "taf": "TAF ESKN 181130Z 1812/1912 15007KT CAVOK"
    },
    {
      "icao": "ESMS",
      "alert": "OK",
      "vis_m": 9999,
      "fzfg": false,
      "metar_trigger": false,
      "taf_trigger": false,
      "metar": "METAR ESMS 181650Z 13006KT CAVOK 10/04 Q1019",
      "taf": "TAF ESMS 181127Z 1812/1912 15010KT CAVOK"
    },
    {
      "icao": "ESSA",
      "alert": "OK",
      "vis_m": 9999,
      "fzfg": false,
      "metar_trigger": false,
      "taf_trigger": false,
      "metar": "METAR ESSA 181650Z 12009KT CAVOK 11/M02 Q1021 NOSIG",
      "taf": "TAF ESSA 181130Z 1812/1912 05006KT CAVOK"
    },
    {
      "icao": "EYKA",
      "alert": "OK",
      "vis_m": 9999,
      "fzfg": false,
      "metar_trigger": false,
      "taf_trigger": false,
      "metar": "METAR EYKA 181650Z 33005KT 300V360 CAVOK 14/M01 Q1018",
      "taf": "TAF EYKA 181102Z 1812/1912 VRB03KT 8000 NSC"
    },
    {
      "icao": "EYPA",
      "alert": "OK",
      "vis_m": 9999,
      "fzfg": false,
      "metar_trigger": false,
      "taf_trigger": false,
      "metar": "METAR EYPA 181650Z 35003KT 290V050 CAVOK 07/03 Q1020",
      "taf": "TAF EYPA 181102Z 1812/1912 VRB03KT 6000 NSC"
    },
    {
      "icao": "EYVI",
      "alert": "OK",
      "vis_m": 9999,
      "fzfg": false,
      "metar_trigger": false,
      "taf_trigger": false,
      "metar": "METAR EYVI 181650Z 36009KT CAVOK 12/M03 Q1018 NOSIG",
      "taf": "TAF EYVI 181101Z 1812/1912 02013KT 9000 NSC"
    },
    {
      "icao": "GCFV",
      "alert": "OK",
      "vis_m": 9999,
      "fzfg": false,
      "metar_trigger": false,
      "taf_trigger": false,
      "metar": "METAR GCFV 181700Z 02010KT CAVOK 23/17 Q1011",
      "taf": "TAF GCFV 180800Z 1809/1909 01010KT 8000 NSC TX29/1814Z TN20/1906Z"
    },
    {
      "icao": "GCLP",
      "alert": "OK",
      "vis_m": 9999,
      "fzfg": false,
      "metar_trigger": false,
      "taf_trigger": false,
      "metar": "METAR GCLP 181700Z VRB04KT CAVOK 24/13 Q1011 NOSIG",
      "taf": "TAF GCLP 180800Z 1809/1909 18007KT 8000 NSC TX29/1814Z TN22/1906Z"
    },
    {
      "icao": "GCTS",
      "alert": "OK",
      "vis_m": 9999,
      "fzfg": false,
      "metar_trigger": false,
      "taf_trigger": false,
      "metar": "METAR GCTS 181700Z 10008KT 070V140 9999 FEW090 BKN130 29/07 Q1011 NOSIG",
      "taf": "TAF GCTS 180800Z 1809/1909 09016KT 8000 NSC TX30/1814Z TN22/1906Z"
    },
    {
      "icao": "GMAD",
      "alert": "OK",
      "vis_m": 8000,
      "fzfg": false,
      "metar_trigger": false,
      "taf_trigger": false,
      "metar": "METAR GMAD 181700Z 27012KT 8000 NSC 33/M01 Q1011 NOSIG",
      "taf": "TAF GMAD 181100Z 1812/1918 26010KT 8000 NSC"
    },
    {
      "icao": "GMMN",
      "alert": "OK",
      "vis_m": 9999,
      "fzfg": false,
      "metar_trigger": false,
      "taf_trigger": false,
      "metar": "METAR GMMN 181700Z 36010KT CAVOK 25/15 Q1015 NOSIG",
      "taf": "TAF GMMN 181100Z 1812/1918 36008KT CAVOK"
    },
    {
      "icao": "GMMX",
      "alert": "OK",
      "vis_m": 9999,
      "fzfg": false,
      "metar_trigger": false,
      "taf_trigger": false,
      "metar": "METAR GMMX 181700Z 05007KT 360V090 9999 SCT100 SCT200 31/06 Q1014 NOSIG",
      "taf": "TAF GMMX 181100Z 1812/1918 06006KT CAVOK"
    },
    {
      "icao": "HEGN",
      "alert": "OK",
      "vis_m": 9999,
      "fzfg": false,
      "metar_trigger": false,
      "taf_trigger": false,
      "metar": "METAR HEGN 181600Z 12005KT CAVOK 27/13 Q1006 NOSIG",
      "taf": "TAF HEGN 181105Z 1812/1918 01015G25KT 6000 SCT025"
    },
    {
      "icao": "HEMA",
      "alert": "OK",
      "vis_m": 9999,
      "fzfg": false,
      "metar_trigger": false,
      "taf_trigger": false,
      "metar": "METAR HEMA 181600Z 01008KT CAVOK 25/16 Q1007 NOSIG",
      "taf": "TAF HEMA 181105Z 1812/1918 35012G25KT 6000 SCT025"
    },
    {
      "icao": "HESH",
      "alert": "OK",
      "vis_m": 9999,
      "fzfg": false,
      "metar_trigger": false,
      "taf_trigger": false,
      "metar": "METAR HESH 181600Z 24010KT CAVOK 32/04 Q1004 NOSIG",
      "taf": "TAF HESH 181105Z 1812/1918 29010G22KT 6000 SCT025"
    },
    {
      "icao": "HESX",
      "alert": "OK",
      "vis_m": 9999,
      "fzfg": false,
      "metar_trigger": false,
      "taf_trigger": false,
      "metar": "METAR HESX 181600Z 30008KT CAVOK 25/09 Q1008 NOSIG",
      "taf": "TAF HESX 181105Z 1812/1918 26011KT 6000 FEW020"
    },
    {
      "icao": "LATI",
      "alert": "OK",
      "vis_m": null,
      "fzfg": false,
      "metar_trigger": false,
      "taf_trigger": false,
      "metar": "",
      "taf": "TAF LATI 181100Z 1812/1912 36014KT CAVOK TX27/1812Z TN10/1904Z"
    },
    {
      "icao": "LBPD",
      "alert": "OK",
      "vis_m": 9999,
      "fzfg": false,
      "metar_trigger": false,
      "taf_trigger": false,
      "metar": "METAR LBPD 181700Z AUTO 14008KT 9999 NCD 14/07 Q1013 NOSIG",
      "taf": "TAF LBPD 181100Z 1812/1912 12010KT 9999 SCT030 BKN050"
    },
    {
      "icao": "LBSF",
      "alert": "OK",
      "vis_m": 9999,
      "fzfg": false,
      "metar_trigger": false,
      "taf_trigger": false,
      "metar": "METAR LBSF 181700Z AUTO 21007KT 190V250 9999 FEW086/// 13/07 Q1014 NOSIG",
      "taf": "TAF LBSF 181100Z 1812/1912 04010KT 9999 SCT030 BKN060"
    },
    {
      "icao": "LBWN",
      "alert": "OK",
      "vis_m": 9999,
      "fzfg": false,
      "metar_trigger": false,
      "taf_trigger": false,
      "metar": "METAR LBWN 181700Z AUTO 13005KT 090V150 9999 NSC 13/07 Q1014 NOSIG",
      "taf": "TAF LBWN 181100Z 1812/1912 02012KT 9999 SCT040"
    },
    {
      "icao": "LCLK",
      "alert": "OK",
      "vis_m": 9999,
      "fzfg": false,
      "metar_trigger": false,
      "taf_trigger": false,
      "metar": "METAR LCLK 181700Z VRB01KT 9999 FEW020 SCT060 18/17 Q1002 NOSIG",
      "taf": "TAF LCLK 181130Z 1812/1912 20016KT 4000 DU FEW030"
    },
    {
      "icao": "LCPH",
      "alert": "OK",
      "vis_m": 9999,
      "fzfg": false,
      "metar_trigger": false,
      "taf_trigger": false,
      "metar": "METAR LCPH 181700Z 33012KT 9999 FEW013 SCT030 18/15 Q1004 NOSIG",
      "taf": "TAF LCPH 181130Z 1812/1912 24010KT 8000 FEW030"
    },
    {
      "icao": "LEAL",
      "alert": "OK",
      "vis_m": 9999,
      "fzfg": false,
      "metar_trigger": false,
      "taf_trigger": false,
      "metar": "METAR LEAL 181700Z 19005KT 140V240 CAVOK 24/06 Q1018 NOSIG",
      "taf": "TAF LEAL 181100Z 1812/1912 15009KT CAVOK TX24/1812Z TN11/1905Z"
    },
    {
      "icao": "LEBB",
      "alert": "OK",
      "vis_m": 9999,
      "fzfg": false,
      "metar_trigger": false,
      "taf_trigger": false,
      "metar": "METAR LEBB 181700Z 01004KT 320V090 9999 BKN022 BKN030 16/13 Q1022 NOSIG",
      "taf": "TAF LEBB 181100Z 1812/1912 01009KT 9999 FEW015 TX25/1912Z TN10/1902Z"
    },
    {
      "icao": "LEBL",
      "alert": "OK",
      "vis_m": 9999,
      "fzfg": false,
      "metar_trigger": false,
      "taf_trigger": false,
      "metar": "METAR LEBL 181700Z 22010KT 9999 FEW050 20/10 Q1019 NOSIG",
      "taf": "TAF LEBL 181100Z 1812/1912 21010KT CAVOK TX21/1812Z TN13/1906Z"
    },
    {
      "icao": "LECH",
      "alert": "OK",
      "vis_m": 9999,
      "fzfg": false,
      "metar_trigger": false,
      "taf_trigger": false,
      "metar": "METAR LECH 181700Z AUTO 18005KT 140V210 CAVOK 19/11 Q1019",
      "taf": "TAF LECH 181100Z 1812/1912 12007KT CAVOK TX24/1813Z TN13/1905Z"
    },
    {
      "icao": "LEMD",
      "alert": "OK",
      "vis_m": 9999,
      "fzfg": false,
      "metar_trigger": false,
      "taf_trigger": false,
      "metar": "METAR LEMD 181700Z 26004KT 180V340 CAVOK 26/04 Q1017 NOSIG",
      "taf": "TAF LEMD 181100Z 1812/1918 VRB04KT CAVOK TX28/1816Z TN10/1906Z"
    },
    {
      "icao": "LEMG",
      "alert": "OK",
      "vis_m": 9999,
      "fzfg": false,
      "metar_trigger": false,
      "taf_trigger": false,
      "metar": "METAR LEMG 181700Z 12005KT 090V150 CAVOK 21/08 Q1018 NOSIG",
      "taf": "TAF LEMG 181100Z 1812/1912 13010KT CAVOK TX23/1814Z TN09/1906Z"
    },
    {
      "icao": "LEVC",
      "alert": "OK",
      "vis_m": 9999,
      "fzfg": false,
      "metar_trigger": false,
      "taf_trigger": false,
      "metar": "METAR LEVC 181700Z 08009KT 040V120 CAVOK 20/12 Q1017 NOSIG",
      "taf": "TAF LEVC 181100Z 1812/1912 09010KT CAVOK TX26/1812Z TN12/1905Z"
    },
    {
      "icao": "LEXJ",
      "alert": "OK",
      "vis_m": 9999,
      "fzfg": false,
      "metar_trigger": false,
      "taf_trigger": false,
      "metar": "METAR LEXJ 181700Z 06005KT 320V110 9999 FEW018 OVC032 15/12 Q1022",
      "taf": "TAF LEXJ 180800Z 1809/1909 04009KT 9999 FEW020 TX17/1813Z TN12/1903Z"
    },
    {
      "icao": "LEZG",
      "alert": "OK",
      "vis_m": 9999,
      "fzfg": false,
      "metar_trigger": false,
      "taf_trigger": false,
      "metar": "METAR LEZG 181700Z 10003KT 060V160 CAVOK 28/09 Q1016 NOSIG",
      "taf": "TAF LEZG 181100Z 1812/1912 09006KT CAVOK TX30/1814Z TN13/1905Z"
    },
    {
      "icao": "LEZL",
      "alert": "OK",
      "vis_m": 9999,
      "fzfg": false,
      "metar_trigger": false,
      "taf_trigger": false,
      "metar": "METAR LEZL 181700Z 24012KT CAVOK 31/10 Q1014 NOSIG",
      "taf": "TAF LEZL 180800Z 1809/1909 VRB03KT CAVOK TX32/1815Z TN13/1906Z"
    },
    {
      "icao": "LFBD",
      "alert": "OK",
      "vis_m": 9999,
      "fzfg": false,
      "metar_trigger": false,
      "taf_trigger": false,
      "metar": "METAR LFBD 181700Z AUTO 33010KT 300V360 CAVOK 20/09 Q1020 NOSIG",
      "taf": "TAF LFBD 181100Z 1812/1918 35005KT CAVOK TX25/1815Z TN12/1906Z"
    },
    {
      "icao": "LFLL",
      "alert": "OK",
      "vis_m": 9999,
      "fzfg": false,
      "metar_trigger": false,
      "taf_trigger": false,
      "metar": "METAR LFLL 181700Z 35008KT CAVOK 23/09 Q1018 NOSIG",
      "taf": "TAF LFLL 181100Z 1812/1918 36006KT CAVOK"
    },
    {
      "icao": "LFLS",
      "alert": "OK",
      "vis_m": 9999,
      "fzfg": false,
      "metar_trigger": false,
      "taf_trigger": false,
      "metar": "METAR LFLS 181700Z AUTO 34006KT CAVOK 19/11 Q1018 NOSIG",
      "taf": "TAF LFLS 180800Z 1809/1909 VRB03KT CAVOK"
    },
    {
      "icao": "LFMN",
      "alert": "OK",
      "vis_m": 9999,
      "fzfg": false,
      "metar_trigger": false,
      "taf_trigger": false,
      "metar": "METAR LFMN 181700Z 16003KT 9999 FEW100 SCT200 19/17 Q1017 NOSIG",
      "taf": "TAF LFMN 180800Z 1809/1915 12006KT CAVOK"
    },
    {
      "icao": "LFOB",
      "alert": "OK",
      "vis_m": 9999,
      "fzfg": false,
      "metar_trigger": false,
      "taf_trigger": false,
      "metar": "METAR LFOB 181700Z AUTO 33011KT 9999 FEW041 OVC058 14/09 Q1021 NOSIG",
      "taf": "TAF LFOB 181100Z 1812/1912 34010KT 9999 SCT040"
    },
    {
      "icao": "LFPO",
      "alert": "OK",
      "vis_m": 9999,
      "fzfg": false,
      "metar_trigger": false,
      "taf_trigger": false,
      "metar": "METAR LFPO 181700Z 33013KT 300V360 9999 FEW033 BKN076 BKN260 18/12 Q1020 TEMPO SCT060TCU",
      "taf": "TAF LFPO 181100Z 1812/1918 24005KT CAVOK"
    },
    {
      "icao": "LFSB",
      "alert": "OK",
      "vis_m": 9999,
      "fzfg": false,
      "metar_trigger": false,
      "taf_trigger": false,
      "metar": "METAR LFSB 181700Z AUTO 29006KT CAVOK 22/08 Q1018 NOSIG",
      "taf": "TAF LFSB 181100Z 1812/1912 33004KT CAVOK"
    },
    {
      "icao": "LGAV",
      "alert": "OK",
      "vis_m": 9999,
      "fzfg": false,
      "metar_trigger": false,
      "taf_trigger": false,
      "metar": "METAR LGAV 181650Z 01012KT 9999 FEW025 17/03 Q1012 NOSIG",
      "taf": "TAF LGAV 181100Z 1812/1912 01018KT 9999 FEW025"
    },
    {
      "icao": "LGTS",
      "alert": "OK",
      "vis_m": 9999,
      "fzfg": false,
      "metar_trigger": false,
      "taf_trigger": false,
      "metar": "METAR LGTS 181650Z 20005KT 9999 FEW025 16/12 Q1013 NOSIG",
      "taf": "TAF LGTS 181100Z 1812/1912 35013KT 9999 SCT025 BKN050"
    },
    {
      "icao": "LHBP",
      "alert": "OK",
      "vis_m": 9999,
      "fzfg": false,
      "metar_trigger": false,
      "taf_trigger": false,
      "metar": "METAR LHBP 181700Z 34005KT 310V020 CAVOK 19/M00 Q1017 NOSIG",
      "taf": "TAF LHBP 181115Z 1812/1912 33005KT CAVOK"
    },
    {
      "icao": "LHDC",
      "alert": "OK",
      "vis_m": 9999,
      "fzfg": false,
      "metar_trigger": false,
      "taf_trigger": false,
      "metar": "METAR LHDC 181645Z AUTO 01010KT CAVOK 18/01 Q1016 NOSIG",
      "taf": "TAF LHDC 181115Z 1812/1821 01012G22KT CAVOK"
    },
    {
      "icao": "LIBD",
      "alert": "OK",
      "vis_m": 9999,
      "fzfg": false,
      "metar_trigger": false,
      "taf_trigger": false,
      "metar": "METAR LIBD 181650Z 32008KT 290V360 CAVOK 18/11 Q1014",
      "taf": "TAF LIBD 181100Z 1812/1912 34013KT CAVOK"
    },
    {
      "icao": "LIBG",
      "alert": "OK",
      "vis_m": 9999,
      "fzfg": false,
      "metar_trigger": false,
      "taf_trigger": false,
      "metar": "METAR LIBG 181650Z 34010KT CAVOK 20/06 Q1013",
      "taf": "TAF LIBG 181400Z 1815/1824 35012KT CAVOK"
    },
    {
      "icao": "LIBP",
      "alert": "OK",
      "vis_m": 9999,
      "fzfg": false,
      "metar_trigger": false,
      "taf_trigger": false,
      "metar": "METAR LIBP 181650Z AUTO 01005KT 340V040 9999 NCD 19/10 Q1017",
      "taf": "TAF LIBP 181100Z 1812/1912 02010KT CAVOK"
    },
    {
      "icao": "LIBR",
      "alert": "OK",
      "vis_m": 9999,
      "fzfg": false,
      "metar_trigger": false,
      "taf_trigger": false,
      "metar": "METAR LIBR 181650Z 31011KT CAVOK 17/14 Q1013",
      "taf": "TAF LIBR 181100Z 1812/1912 33016KT CAVOK"
    },
    {
      "icao": "LICA",
      "alert": "OK",
      "vis_m": 9999,
      "fzfg": false,
      "metar_trigger": false,
      "taf_trigger": false,
      "metar": "METAR LICA 181650Z AUTO 26006KT 9999 NCD 18/15 Q1015",
      "taf": "TAF LICA 181100Z 1812/1912 25012KT 9999 SCT010"
    },
    {
      "icao": "LICC",
      "alert": "OK",
      "vis_m": 9999,
      "fzfg": false,
      "metar_trigger": false,
      "taf_trigger": false,
      "metar": "METAR LICC 181650Z 10007KT 9999 FEW080 21/17 Q1013",
      "taf": "TAF LICC 181100Z 1812/1912 07012KT 9999 SCT050"
    },
    {
      "icao": "LICJ",
      "alert": "OK",
      "vis_m": 9999,
      "fzfg": false,
      "metar_trigger": false,
      "taf_trigger": false,
      "metar": "METAR LICJ 181650Z 35003KT 9999 FEW008 18/16 Q1015",
      "taf": "TAF LICJ 181100Z 1812/1912 32010KT 9999 SCT010"
    },
    {
      "icao": "LIMC",
      "alert": "OK",
      "vis_m": 9999,
      "fzfg": false,
      "metar_trigger": false,
      "taf_trigger": false,
      "metar": "METAR LIMC 181650Z 18003KT 140V220 CAVOK 23/11 Q1016 NOSIG",
      "taf": "TAF LIMC 181100Z 1812/1918 VRB05KT 9999 SCT050"
    },
    {
      "icao": "LIME",
      "alert": "OK",
      "vis_m": 9999,
      "fzfg": false,
      "metar_trigger": false,
      "taf_trigger": false,
      "metar": "METAR LIME 181650Z 18004KT 140V220 9999 SCT060 23/10 Q1016 NOSIG",
      "taf": "TAF LIME 181100Z 1812/1912 VRB05KT 9999 SCT050"
    },
    {
      "icao": "LIMF",
      "alert": "OK",
      "vis_m": 9999,
      "fzfg": false,
      "metar_trigger": false,
      "taf_trigger": false,
      "metar": "METAR LIMF 181650Z 08004KT CAVOK 22/14 Q1016",
      "taf": "TAF LIMF 181100Z 1812/1912 VRB05KT 9999 SCT050"
    },
    {
      "icao": "LIMJ",
      "alert": "OK",
      "vis_m": 9999,
      "fzfg": false,
      "metar_trigger": false,
      "taf_trigger": false,
      "metar": "METAR LIMJ 181650Z 20001KT CAVOK 22/12 Q1017",
      "taf": "TAF LIMJ 181100Z 1812/1912 19010KT CAVOK"
    },
    {
      "icao": "LIPE",
      "alert": "OK",
      "vis_m": 9999,
      "fzfg": false,
      "metar_trigger": false,
      "taf_trigger": false,
      "metar": "METAR LIPE 181650Z 08006KT CAVOK 23/09 Q1016",
      "taf": "TAF LIPE 181100Z 1812/1912 08010KT CAVOK"
    },
    {
      "icao": "LIPH",
      "alert": "OK",
      "vis_m": 9999,
      "fzfg": false,
      "metar_trigger": false,
      "taf_trigger": false,
      "metar": "METAR LIPH 181650Z 18004KT CAVOK 23/10 Q1016",
      "taf": "TAF LIPH 181100Z 1812/1912 18010KT CAVOK"
    },
    {
      "icao": "LIPQ",
      "alert": "OK",
      "vis_m": 9999,
      "fzfg": false,
      "metar_trigger": false,
      "taf_trigger": false,
      "metar": "METAR LIPQ 181650Z AUTO 26006KT 9999 NCD 22/10 Q1016",
      "taf": "TAF LIPQ 181100Z 1812/1912 VRB05KT 9999 SCT060"
    },
    {
      "icao": "LIPR",
      "alert": "OK",
      "vis_m": 9999,
      "fzfg": false,
      "metar_trigger": false,
      "taf_trigger": false,
      "metar": "METAR LIPR 181650Z AUTO 11004KT 080V140 9999 NCD 20/07 Q1017",
      "taf": "TAF LIPR 181100Z 1812/1912 VRB05KT CAVOK"
    },
    {
      "icao": "LIPX",
      "alert": "OK",
      "vis_m": 9999,
      "fzfg": false,
      "metar_trigger": false,
      "taf_trigger": false,
      "metar": "METAR LIPX 181650Z 23003KT 160V260 CAVOK 24/09 Q1016",
      "taf": "TAF LIPX 181100Z 1812/1912 VRB05KT 9999 FEW050"
    },
    {
      "icao": "LIPY",
      "alert": "OK",
      "vis_m": 9999,
      "fzfg": false,
      "metar_trigger": false,
      "taf_trigger": false,
      "metar": "METAR LIPY 181650Z AUTO 34004KT 9999 NCD 19/10 Q1017",
      "taf": "TAF LIPY 181100Z 1812/1912 34010KT CAVOK"
    },
    {
      "icao": "LIPZ",
      "alert": "OK",
      "vis_m": 9999,
      "fzfg": false,
      "metar_trigger": false,
      "taf_trigger": false,
      "metar": "METAR LIPZ 181650Z 18006KT CAVOK 21/09 Q1016 NOSIG",
      "taf": "TAF LIPZ 181100Z 1812/1918 05008KT CAVOK"
    },
    {
      "icao": "LIRF",
      "alert": "OK",
      "vis_m": 9999,
      "fzfg": false,
      "metar_trigger": false,
      "taf_trigger": false,
      "metar": "METAR LIRF 181650Z 29012KT CAVOK 20/13 Q1015 NOSIG",
      "taf": "TAF LIRF 181100Z 1812/1918 25012KT CAVOK"
    },
    {
      "icao": "LIRN",
      "alert": "OK",
      "vis_m": 9999,
      "fzfg": false,
      "metar_trigger": false,
      "taf_trigger": false,
      "metar": "METAR LIRN 181650Z 30006KT 260V020 CAVOK 26/08 Q1015 NOSIG",
      "taf": "TAF LIRN 181100Z 1812/1912 05012KT CAVOK"
    },
    {
      "icao": "LIRP",
      "alert": "OK",
      "vis_m": 9999,
      "fzfg": false,
      "metar_trigger": false,
      "taf_trigger": false,
      "metar": "METAR LIRP 181645Z 29008KT CAVOK 22/09 Q1016 NOSIG",
      "taf": "TAF LIRP 181100Z 1812/1912 33010KT CAVOK"
    },
    {
      "icao": "LIRZ",
      "alert": "OK",
      "vis_m": 9999,
      "fzfg": false,
      "metar_trigger": false,
      "taf_trigger": false,
      "metar": "METAR LIRZ 181650Z AUTO 05009KT 9999 NCD 21/06 Q1016",
      "taf": "TAF LIRZ 181100Z 1812/1912 05012KT 9999 FEW060"
    },
    {
      "icao": "LJLJ",
      "alert": "OK",
      "vis_m": 9999,
      "fzfg": false,
      "metar_trigger": false,
      "taf_trigger": false,
      "metar": "METAR LJLJ 181700Z 09004KT 9999 FEW060 BKN110 19/09 Q1017 NOSIG",
      "taf": "TAF LJLJ 181700Z 1818/1918 30003KT 9999 FEW070"
    },
    {
      "icao": "LKMT",
      "alert": "OK",
      "vis_m": 9999,
      "fzfg": false,
      "metar_trigger": false,
      "taf_trigger": false,
      "metar": "METAR LKMT 181700Z 03004KT CAVOK 15/03 Q1019 NOSIG",
      "taf": "TAF LKMT 181100Z 1812/1912 22008KT CAVOK"
    },
    {
      "icao": "LKPR",
      "alert": "OK",
      "vis_m": 9999,
      "fzfg": false,
      "metar_trigger": false,
      "taf_trigger": false,
      "metar": "METAR LKPR 181700Z 04003KT CAVOK 18/05 Q1018 NOSIG",
      "taf": "TAF LKPR 181400Z 1815/1921 07006KT CAVOK"
    },
    {
      "icao": "LLBG",
      "alert": "OK",
      "vis_m": 9999,
      "fzfg": false,
      "metar_trigger": false,
      "taf_trigger": false,
      "metar": "METAR LLBG 181650Z 28010KT 9999 FEW020 19/14 Q1008 NOSIG",
      "taf": "TAF LLBG 181702Z 1818/1918 27008KT 9999 FEW020 TX23/1910Z TN16/1903Z"
    },
    {
      "icao": "LMML",
      "alert": "OK",
      "vis_m": 9999,
      "fzfg": false,
      "metar_trigger": false,
      "taf_trigger": false,
      "metar": "METAR LMML 181715Z 32005KT 9999 FEW015 19/14 Q1014 NOSIG",
      "taf": "TAF LMML 181700Z 1818/1918 31006KT 9999 FEW012"
    },
    {
      "icao": "LOWW",
      "alert": "OK",
      "vis_m": 9999,
      "fzfg": false,
      "metar_trigger": false,
      "taf_trigger": false,
      "metar": "METAR LOWW 181650Z 04004KT CAVOK 17/02 Q1018 NOSIG",
      "taf": "TAF LOWW 181715Z 1818/1924 35007KT CAVOK TX20/1913Z TN08/1903Z"
    },
    {
      "icao": "LPFR",
      "alert": "OK",
      "vis_m": 9999,
      "fzfg": false,
      "metar_trigger": false,
      "taf_trigger": false,
      "metar": "METAR LPFR 181700Z 12007KT CAVOK 20/16 Q1016",
      "taf": "TAF LPFR 181700Z 1818/1918 14008KT CAVOK"
    },
    {
      "icao": "LPMA",
      "alert": "OK",
      "vis_m": 9999,
      "fzfg": false,
      "metar_trigger": false,
      "taf_trigger": false,
      "metar": "METAR LPMA 181700Z 04020KT 9999 FEW015 18/13 Q1014",
      "taf": "TAF LPMA 181700Z 1818/1918 02015KT 9999 SCT015"
    },
    {
      "icao": "LPPR",
      "alert": "OK",
      "vis_m": 9999,
      "fzfg": false,
      "metar_trigger": false,
      "taf_trigger": false,
      "metar": "METAR LPPR 181700Z 32005KT 290V350 CAVOK 22/12 Q1016",
      "taf": "TAF LPPR 181700Z 1818/1918 32007KT CAVOK"
    },
    {
      "icao": "LPPS",
      "alert": "OK",
      "vis_m": 9999,
      "fzfg": false,
      "metar_trigger": false,
      "taf_trigger": false,
      "metar": "METAR LPPS 181700Z 07015KT 040V110 9999 FEW015 17/13 Q1015",
      "taf": "TAF LPPS 181700Z 1818/1924 07012KT 9999 SCT015"
    },
    {
      "icao": "LPPT",
      "alert": "OK",
      "vis_m": 9999,
      "fzfg": false,
      "metar_trigger": false,
      "taf_trigger": false,
      "metar": "METAR LPPT 181700Z 26006KT 230V300 CAVOK 26/11 Q1015",
      "taf": "TAF LPPT 181700Z 1818/1924 30010KT CAVOK"
    },
    {
      "icao": "LQBK",
      "alert": "OK",
      "vis_m": 9999,
      "fzfg": false,
      "metar_trigger": false,
      "taf_trigger": false,
      "metar": "METAR LQBK 181700Z 06003KT CAVOK 19/02 Q1017 NOSIG",
      "taf": "TAF LQBK 181700Z 1818/1918 15005KT CAVOK TX22/1913Z TN06/1904Z"
    },
    {
      "icao": "LQSA",
      "alert": "OK",
      "vis_m": 9999,
      "fzfg": false,
      "metar_trigger": false,
      "taf_trigger": false,
      "metar": "METAR LQSA 181700Z 02006KT 350V080 CAVOK 17/00 Q1016 NOSIG",
      "taf": "TAF LQSA 181700Z 1818/1918 VRB02KT CAVOK TX23/1913Z TN03/1904Z"
    },
    {
      "icao": "LQTZ",
      "alert": "OK",
      "vis_m": 9999,
      "fzfg": false,
      "metar_trigger": false,
      "taf_trigger": false,
      "metar": "METAR LQTZ 181700Z 03005KT 360V070 CAVOK 17/02 Q1017",
      "taf": "TAF LQTZ 181700Z 1818/1918 VRB03KT CAVOK TX21/1913Z TN05/1904Z"
    },
    {
      "icao": "LRBC",
      "alert": "OK",
      "vis_m": 9999,
      "fzfg": false,
      "metar_trigger": false,
      "taf_trigger": false,
      "metar": "METAR LRBC 181700Z 36012KT 9999 -RA FEW040CB BKN050 12/07 Q1015",
      "taf": "TAF LRBC 181400Z 1815/1824 34012KT 9999 BKN050"
    },
    {
      "icao": "LRBS",
      "alert": "OK",
      "vis_m": 9999,
      "fzfg": false,
      "metar_trigger": false,
      "taf_trigger": false,
      "metar": "METAR LRBS 181700Z VRB01KT 9999 SCT048CB 14/09 Q1014 NOSIG",
      "taf": "TAF LRBS 181100Z 1812/1912 VRB04KT CAVOK"
    },
    {
      "icao": "LRBV",
      "alert": "OK",
      "vis_m": 9999,
      "fzfg": false,
      "metar_trigger": false,
      "taf_trigger": false,
      "metar": "METAR LRBV 181700Z VRB05KT 9999 BKN071 13/05 Q1015",
      "taf": "TAF LRBV 181400Z 1815/1824 34008KT 9999 SCT035 SCT050"
    },
    {
      "icao": "LRCL",
      "alert": "OK",
      "vis_m": 9999,
      "fzfg": false,
      "metar_trigger": false,
      "taf_trigger": false,
      "metar": "METAR LRCL 181700Z 31007KT CAVOK 15/02 Q1015",
      "taf": "TAF LRCL 181400Z 1815/1824 VRB04KT CAVOK"
    },
    {
      "icao": "LRCV",
      "alert": "OK",
      "vis_m": 9999,
      "fzfg": false,
      "metar_trigger": false,
      "taf_trigger": false,
      "metar": "METAR LRCV 181700Z 13010KT 9999 FEW035 SCT050CB 14/10 Q1014 RETS",
      "taf": "TAF LRCV 181400Z 1815/1824 18006KT 9999 SCT030"
    },
    {
      "icao": "LRIA",
      "alert": "OK",
      "vis_m": 9999,
      "fzfg": false,
      "metar_trigger": false,
      "taf_trigger": false,
      "metar": "METAR LRIA 181700Z 30010KT 280V340 9999 SCT032 11/08 Q1014",
      "taf": "TAF LRIA 181400Z 1815/1824 34012KT 9999 FEW035"
    },
    {
      "icao": "LROP",
      "alert": "OK",
      "vis_m": 9999,
      "fzfg": false,
      "metar_trigger": false,
      "taf_trigger": false,
      "metar": "METAR LROP 181700Z 10003KT 060V170 9999 -SHRA FEW040CB 15/08 Q1015 NOSIG",
      "taf": "TAF LROP 181100Z 1812/1912 VRB04KT CAVOK"
    },
    {
      "icao": "LRSB",
      "alert": "OK",
      "vis_m": 9999,
      "fzfg": false,
      "metar_trigger": false,
      "taf_trigger": false,
      "metar": "METAR LRSB 181700Z 34007KT 9999 SCT077 15/01 Q1015",
      "taf": "TAF LRSB 181100Z 1812/1912 32006KT 9999 SCT040"
    },
    {
      "icao": "LRSM",
      "alert": "OK",
      "vis_m": 9999,
      "fzfg": false,
      "metar_trigger": false,
      "taf_trigger": false,
      "metar": "METAR LRSM 181700Z 34008KT CAVOK 17/02 Q1016",
      "taf": "TAF LRSM 181400Z 1815/1824 02010KT CAVOK"
    },
    {
      "icao": "LRSV",
      "alert": "OK",
      "vis_m": 9999,
      "fzfg": false,
      "metar_trigger": false,
      "taf_trigger": false,
      "metar": "METAR LRSV 181700Z 31010KT 9999 -SHRA SCT039CB 11/06 Q1015",
      "taf": "TAF LRSV 181400Z 1815/1824 31014KT 9999 FEW045CB"
    },
    {
      "icao": "LRTM",
      "alert": "OK",
      "vis_m": 9999,
      "fzfg": false,
      "metar_trigger": false,
      "taf_trigger": false,
      "metar": "METAR LRTM 181700Z 01004KT 340V040 CAVOK 16/03 Q1015",
      "taf": "TAF LRTM 181400Z 1815/1824 32007KT 9999 SCT030"
    },
    {
      "icao": "LRTR",
      "alert": "OK",
      "vis_m": 9999,
      "fzfg": false,
      "metar_trigger": false,
      "taf_trigger": false,
      "metar": "METAR LRTR 181700Z 35008KT CAVOK 16/04 Q1016",
      "taf": "TAF LRTR 181100Z 1812/1912 36013KT CAVOK"
    },
    {
      "icao": "LTAC",
      "alert": "OK",
      "vis_m": 9999,
      "fzfg": false,
      "metar_trigger": false,
      "taf_trigger": false,
      "metar": "METAR LTAC 181650Z 04012KT 9999 SCT040 BKN100 08/03 Q1007 NOSIG RMK RWY21C 03009KT 360V060 RWY03L 04009KT 010V070 RWY21R 03009KT 350V060 RWY03R 03012KT RWY21L 03010KT 360V060",
      "taf": "TAF LTAC 181640Z 1818/1918 04008KT 9999 SCT040 BKN100"
    },
    {
      "icao": "LTFM",
      "alert": "OK",
      "vis_m": 9999,
      "fzfg": false,
      "metar_trigger": false,
      "taf_trigger": false,
      "metar": "METAR LTFM 181650Z 01008KT 320V020 9999 SCT009 SCT035 11/09 Q1013 NOSIG RMK RWY17L 01008KT RWY34L 36009KT RWY16R 01008KT RWY36 36009KT RWY18 01006KT",
      "taf": "TAF LTFM 181640Z 1818/1924 01010KT 9999 SCT009 SCT035"
    },
    {
      "icao": "LUKK",
      "alert": "OK",
      "vis_m": 9999,
      "fzfg": false,
      "metar_trigger": false,
      "taf_trigger": false,
      "metar": "METAR LUKK 181700Z 01007KT 340V050 9999 FEW037 BKN047CB 09/06 Q1014 RESHRA TEMPO SCT035CB",
      "taf": "TAF LUKK 181704Z 1818/1918 34008KT 9999 SCT040"
    },
    {
      "icao": "LWOH",
      "alert": "OK",
      "vis_m": null,
      "fzfg": false,
      "metar_trigger": false,
      "taf_trigger": false,
      "metar": "",
      "taf": ""
    },
    {
      "icao": "LWSK",
      "alert": "OK",
      "vis_m": null,
      "fzfg": false,
      "metar_trigger": false,
      "taf_trigger": false,
      "metar": "",
      "taf": ""
    },
    {
      "icao": "LYBE",
      "alert": "OK",
      "vis_m": 9999,
      "fzfg": false,
      "metar_trigger": false,
      "taf_trigger": false,
      "metar": "METAR LYBE 181700Z 01006KT CAVOK 17/02 Q1017 NOSIG",
      "taf": "TAF LYBE 181700Z 1818/1918 32006KT CAVOK TX21/1913Z TN04/1904Z"
    },
    {
      "icao": "LYNI",
      "alert": "OK",
      "vis_m": 9999,
      "fzfg": false,
      "metar_trigger": false,
      "taf_trigger": false,
      "metar": "METAR LYNI 181700Z 32013KT CAVOK 18/00 Q1015 NOSIG",
      "taf": "TAF LYNI 181700Z 1818/1918 33016KT CAVOK TX21/1912Z TN05/1904Z"
    },
    {
      "icao": "LYPG",
      "alert": "OK",
      "vis_m": 9999,
      "fzfg": false,
      "metar_trigger": false,
      "taf_trigger": false,
      "metar": "METAR LYPG 181700Z 35015KT 9999 FEW090 24/M00 Q1012 NOSIG",
      "taf": "TAF LYPG 181700Z 1818/1918 36014KT CAVOK TX26/1913Z TN15/1904Z"
    },
    {
      "icao": "LZIB",
      "alert": "OK",
      "vis_m": 9999,
      "fzfg": false,
      "metar_trigger": false,
      "taf_trigger": false,
      "metar": "METAR LZIB 181700Z 33008KT CAVOK 19/02 Q1018 NOSIG",
      "taf": "TAF LZIB 181715Z 1818/1918 35008KT CAVOK"
    },
    {
      "icao": "LZKZ",
      "alert": "OK",
      "vis_m": 9999,
      "fzfg": false,
      "metar_trigger": false,
      "taf_trigger": false,
      "metar": "METAR LZKZ 181700Z 01012KT CAVOK 16/02 Q1017 NOSIG",
      "taf": "TAF LZKZ 181715Z 1818/1918 02008KT CAVOK"
    },
    {
      "icao": "LZTT",
      "alert": "OK",
      "vis_m": 9999,
      "fzfg": false,
      "metar_trigger": false,
      "taf_trigger": false,
      "metar": "METAR LZTT 181700Z 06010KT 9999 FEW056 13/01 Q1017 NOSIG",
      "taf": "TAF LZTT 181715Z 1818/1918 08008KT CAVOK"
    },
    {
      "icao": "OEJN",
      "alert": "OK",
      "vis_m": 7000,
      "fzfg": false,
      "metar_trigger": false,
      "taf_trigger": false,
      "metar": "METAR OEJN 181700Z 16012KT 7000 NSC 36/09 Q1004 NOSIG",
      "taf": "TAF OEJN 181700Z 1818/1924 16012KT 7000 NSC"
    },
    {
      "icao": "OEMA",
      "alert": "OK",
      "vis_m": 6000,
      "fzfg": false,
      "metar_trigger": false,
      "taf_trigger": false,
      "metar": "METAR OEMA 181700Z 23012KT 6000 NSC 33/13 Q1011 NOSIG",
      "taf": "TAF OEMA 181700Z 1818/1924 24006KT 7000 FEW040"
    },
    {
      "icao": "OJAI",
      "alert": "OK",
      "vis_m": null,
      "fzfg": false,
      "metar_trigger": false,
      "taf_trigger": false,
      "metar": "",
      "taf": "TAF OJAI 181700Z 1818/1924 27018KT 2000 BLDU SCT035"
    },
    {
      "icao": "OMAA",
      "alert": "OK",
      "vis_m": null,
      "fzfg": false,
      "metar_trigger": false,
      "taf_trigger": false,
      "metar": "",
      "taf": ""
    },
    {
      "icao": "OMDB",
      "alert": "OK",
      "vis_m": null,
      "fzfg": false,
      "metar_trigger": false,
      "taf_trigger": false,
      "metar": "",
      "taf": ""
    },
    {
      "icao": "UAAA",
      "alert": "OK",
      "vis_m": 5000,
      "fzfg": false,
      "metar_trigger": false,
      "taf_trigger": false,
      "metar": "METAR UAAA 181700Z VRB01MPS 5000 BR SCT050 05/04 Q1020 NOSIG",
      "taf": "TAF UAAA 181703Z 1818/1918 20003MPS 3100 BR FU SCT040CB BKN100 TX13/1909Z TN04/1901Z"
    },
    {
      "icao": "UBBB",
      "alert": "OK",
      "vis_m": 9999,
      "fzfg": false,
      "metar_trigger": false,
      "taf_trigger": false,
      "metar": "METAR UBBB 181700Z 18014KT CAVOK 14/12 Q1009 NOSIG",
      "taf": "TAF UBBB 181701Z 1818/1918 15012KT 9999 SCT025 TX19/1909Z TN10/1901Z"
    },
    {
      "icao": "UDSG",
      "alert": "OK",
      "vis_m": 9000,
      "fzfg": false,
      "metar_trigger": false,
      "taf_trigger": false,
      "metar": "METAR UDSG 181700Z 30005KT 9000 BKN040CB 07/06 Q1011 NOSIG",
      "taf": "TAF UDSG 181700Z 1818/1918 24006KT 9999 BKN040"
    },
    {
      "icao": "UDYZ",
      "alert": "OK",
      "vis_m": 9999,
      "fzfg": false,
      "metar_trigger": false,
      "taf_trigger": false,
      "metar": "METAR UDYZ 181700Z 35006KT 9999 BKN043CB 15/08 Q1008 NOSIG",
      "taf": "TAF UDYZ 181700Z 1818/1918 04006KT 9999 SCT040"
    },
    {
      "icao": "UGKO",
      "alert": "OK",
      "vis_m": 9999,
      "fzfg": false,
      "metar_trigger": false,
      "taf_trigger": false,
      "metar": "METAR UGKO 181700Z 08014KT 050V150 9999 SCT096 20/05 Q1003 BECMG 26010KT",
      "taf": "TAF UGKO 181700Z 1818/1918 26010KT 9999 SCT022 OVC050 TX20/1818Z TN11/1903Z"
    }
  ]
}