{
  "ts_utc": "2026-04-19T06:13:07Z",
  "threshold_m": 150,
  "source": "stations_override.txt (ICAO list) + aviationweather.gov (METAR/TAF raw)",
  "station_count": 159,
  "stations": [
    {
      "icao": "BIKF",
      "alert": "OK",
      "vis_m": 9999,
      "fzfg": false,
      "metar_trigger": false,
      "taf_trigger": false,
      "metar": "METAR BIKF 190600Z 11017KT 9999 BKN035 05/01 Q1017",
      "taf": "TAF BIKF 190456Z 1906/2006 11013KT 9999 SCT015 BKN030 TX08/1915Z TN04/1906Z"
    },
    {
      "icao": "BKPR",
      "alert": "OK",
      "vis_m": 9999,
      "fzfg": false,
      "metar_trigger": false,
      "taf_trigger": false,
      "metar": "METAR BKPR 190600Z 05002KT CAVOK 07/03 Q1018 NOSIG",
      "taf": "TAF BKPR 190530Z 1906/2006 VRB05KT CAVOK"
    },
    {
      "icao": "EBCI",
      "alert": "OK",
      "vis_m": 9999,
      "fzfg": false,
      "metar_trigger": false,
      "taf_trigger": false,
      "metar": "METAR EBCI 190550Z VRB02KT 9999 SCT048 07/05 Q1022 NOSIG",
      "taf": "TAF EBCI 190501Z 1906/2012 33005KT 9999 FEW020"
    },
    {
      "icao": "EDDB",
      "alert": "OK",
      "vis_m": 9999,
      "fzfg": false,
      "metar_trigger": false,
      "taf_trigger": false,
      "metar": "METAR EDDB 190550Z AUTO 05004KT CAVOK 13/07 Q1015 NOSIG",
      "taf": "TAF EDDB 190500Z 1906/2006 33005KT 9999 BKN045"
    },
    {
      "icao": "EDDH",
      "alert": "OK",
      "vis_m": 9999,
      "fzfg": false,
      "metar_trigger": false,
      "taf_trigger": false,
      "metar": "METAR EDDH 190550Z AUTO 34007KT 310V010 9999 OVC009 08/06 Q1018 BECMG BKN010",
      "taf": "TAF EDDH 190500Z 1906/2012 32008KT 9999 OVC007"
    },
    {
      "icao": "EDDK",
      "alert": "OK",
      "vis_m": 9999,
      "fzfg": false,
      "metar_trigger": false,
      "taf_trigger": false,
      "metar": "METAR EDDK 190550Z AUTO 32007KT 9999 SCT008 08/07 Q1020 TEMPO BKN007",
      "taf": "TAF EDDK 190500Z 1906/2012 32008KT 9999 BKN008 BKN020"
    },
    {
      "icao": "EDDN",
      "alert": "OK",
      "vis_m": 9999,
      "fzfg": false,
      "metar_trigger": false,
      "taf_trigger": false,
      "metar": "METAR EDDN 190550Z AUTO 14005KT 9999 -SHRA FEW047 FEW///CB 11/10 Q1014 RESHRA TEMPO 34015G30KT TSRA SCT014 BKN020CB",
      "taf": "TAF EDDN 190500Z 1906/2006 VRB02KT CAVOK"
    },
    {
      "icao": "EDDS",
      "alert": "OK",
      "vis_m": 9999,
      "fzfg": false,
      "metar_trigger": false,
      "taf_trigger": false,
      "metar": "METAR EDDS 190550Z AUTO VRB01KT CAVOK 12/08 Q1015 NOSIG",
      "taf": "TAF EDDS 190500Z 1906/2006 28005KT 9999 FEW020"
    },
    {
      "icao": "EDFH",
      "alert": "OK",
      "vis_m": 9999,
      "fzfg": false,
      "metar_trigger": false,
      "taf_trigger": false,
      "metar": "METAR EDFH 190550Z 33008KT 9999 SCT007 OVC018 07/05 Q1018",
      "taf": "TAF EDFH 190500Z 1906/2006 33009KT 9999 BKN008"
    },
    {
      "icao": "EDJA",
      "alert": "OK",
      "vis_m": 9999,
      "fzfg": false,
      "metar_trigger": false,
      "taf_trigger": false,
      "metar": "METAR EDJA 190550Z 21009KT 9999 SCT057 11/07 Q1016",
      "taf": "TAF EDJA 190500Z 1906/1915 20005KT 9999 BKN050"
    },
    {
      "icao": "EDLW",
      "alert": "OK",
      "vis_m": 9999,
      "fzfg": false,
      "metar_trigger": false,
      "taf_trigger": false,
      "metar": "METAR EDLW 190550Z 30003KT 230V360 9999 FEW006 08/07 Q1019",
      "taf": "TAF EDLW 190500Z 1906/2006 32006KT 9999 SCT010 BKN020"
    },
    {
      "icao": "EDNY",
      "alert": "OK",
      "vis_m": 9999,
      "fzfg": false,
      "metar_trigger": false,
      "taf_trigger": false,
      "metar": "METAR EDNY 190550Z 00000KT CAVOK 09/08 Q1017",
      "taf": "TAF EDNY 190500Z 1906/1915 VRB03KT CAVOK"
    },
    {
      "icao": "EDSB",
      "alert": "OK",
      "vis_m": 9999,
      "fzfg": false,
      "metar_trigger": false,
      "taf_trigger": false,
      "metar": "METAR EDSB 190550Z VRB02KT CAVOK 11/08 Q1017",
      "taf": "TAF EDSB 190500Z 1906/2006 24004KT 9999 SCT030"
    },
    {
      "icao": "EETN",
      "alert": "OK",
      "vis_m": 9999,
      "fzfg": false,
      "metar_trigger": false,
      "taf_trigger": false,
      "metar": "METAR EETN 190550Z 06014KT 9999 SCT022 04/M02 Q1025 NOSIG",
      "taf": "TAF EETN 190530Z 1906/2006 07014KT CAVOK"
    },
    {
      "icao": "EFTU",
      "alert": "OK",
      "vis_m": 9999,
      "fzfg": false,
      "metar_trigger": false,
      "taf_trigger": false,
      "metar": "METAR EFTU 190550Z AUTO 11006KT 080V150 CAVOK 05/M03 Q1026",
      "taf": "TAF EFTU 190523Z 1906/2006 10010KT CAVOK"
    },
    {
      "icao": "EGBB",
      "alert": "OK",
      "vis_m": 9999,
      "fzfg": false,
      "metar_trigger": false,
      "taf_trigger": false,
      "metar": "METAR EGBB 190550Z 35004KT CAVOK 04/03 Q1026",
      "taf": "TAF EGBB 190453Z 1906/2006 33006KT 9999 FEW045"
    },
    {
      "icao": "EGGP",
      "alert": "OK",
      "vis_m": 9999,
      "fzfg": false,
      "metar_trigger": false,
      "taf_trigger": false,
      "metar": "METAR EGGP 190550Z 31003KT 270V340 9999 SCT041 06/03 Q1027",
      "taf": "TAF EGGP 190453Z 1906/2006 35004KT 9999 FEW035"
    },
    {
      "icao": "EGGW",
      "alert": "OK",
      "vis_m": 9999,
      "fzfg": false,
      "metar_trigger": false,
      "taf_trigger": false,
      "metar": "METAR EGGW 190550Z AUTO 32009KT 9999 NCD 05/02 Q1025",
      "taf": "TAF EGGW 190502Z 1906/2006 32010KT CAVOK"
    },
    {
      "icao": "EGKK",
      "alert": "OK",
      "vis_m": 9999,
      "fzfg": false,
      "metar_trigger": false,
      "taf_trigger": false,
      "metar": "METAR EGKK 190550Z 33008G19KT 270V350 CAVOK 07/03 Q1025",
      "taf": "TAF EGKK 190457Z 1906/2012 34008KT CAVOK"
    },
    {
      "icao": "EGNM",
      "alert": "OK",
      "vis_m": 9999,
      "fzfg": false,
      "metar_trigger": false,
      "taf_trigger": false,
      "metar": "METAR EGNM 190550Z 29011KT CAVOK 03/01 Q1025",
      "taf": "TAF EGNM 190454Z 1906/2006 29005KT 9999 FEW035"
    },
    {
      "icao": "EGPD",
      "alert": "OK",
      "vis_m": 9999,
      "fzfg": false,
      "metar_trigger": false,
      "taf_trigger": false,
      "metar": "METAR EGPD 190550Z COR AUTO 27007KT 9999 NCD 05/01 Q1023 NOSIG",
      "taf": "TAF EGPD 190456Z 1906/2006 29009KT 9999 FEW030"
    },
    {
      "icao": "EGPF",
      "alert": "OK",
      "vis_m": 9999,
      "fzfg": false,
      "metar_trigger": false,
      "taf_trigger": false,
      "metar": "METAR EGPF 190550Z AUTO VRB02KT 9999 NCD 02/02 Q1026",
      "taf": "TAF EGPF 190506Z 1906/2006 24004KT 9999 FEW030"
    },
    {
      "icao": "EHBK",
      "alert": "OK",
      "vis_m": 9999,
      "fzfg": false,
      "metar_trigger": false,
      "taf_trigger": false,
      "metar": "METAR EHBK 190555Z AUTO VRB02KT 9999 NCD 06/06 Q1021 BECMG 9999",
      "taf": "TAF EHBK 190501Z 1906/2012 34007KT CAVOK"
    },
    {
      "icao": "EHEH",
      "alert": "OK",
      "vis_m": 9999,
      "fzfg": false,
      "metar_trigger": false,
      "taf_trigger": false,
      "metar": "METAR EHEH 190555Z AUTO VRB02KT 7000 BR NCD 05/05 Q1021 WHT BECMG CAVOK",
      "taf": ""
    },
    {
      "icao": "EKBI",
      "alert": "OK",
      "vis_m": 9999,
      "fzfg": false,
      "metar_trigger": false,
      "taf_trigger": false,
      "metar": "METAR EKBI 190550Z AUTO 28004KT 260V320 9999 OVC007/// 07/07 Q1018",
      "taf": "TAF EKBI 190527Z 1906/2006 29006KT 9999 BKN008"
    },
    {
      "icao": "EKCH",
      "alert": "OK",
      "vis_m": 8000,
      "fzfg": false,
      "metar_trigger": false,
      "taf_trigger": false,
      "metar": "METAR EKCH 190550Z AUTO 00000KT 8000 BKN023/// OVC055/// 07/06 Q1017 NOSIG",
      "taf": "TAF EKCH 190527Z 1906/2006 VRB02KT 9999 BKN030"
    },
    {
      "icao": "ENAL",
      "alert": "OK",
      "vis_m": 800,
      "fzfg": false,
      "metar_trigger": false,
      "taf_trigger": false,
      "metar": "METAR ENAL 190550Z 32004KT 300V010 0800 FG VV003 07/06 Q1016",
      "taf": "TAF ENAL 190500Z 1906/1915 32007KT 9999 SCT005"
    },
    {
      "icao": "ENBR",
      "alert": "OK",
      "vis_m": 4000,
      "fzfg": false,
      "metar_trigger": false,
      "taf_trigger": false,
      "metar": "METAR ENBR 190550Z VRB01KT 4000 VCFG SCT002 OVC004 05/05 Q1016 BECMG 9999 NSW SCT004 BKN015 RMK WIND 1200FT 14004KT",
      "taf": ""
    },
    {
      "icao": "ENGM",
      "alert": "OK",
      "vis_m": 9999,
      "fzfg": false,
      "metar_trigger": false,
      "taf_trigger": false,
      "metar": "METAR ENGM 190550Z 07007KT 010V120 9999 -RA FEW010 OVC014 07/05 Q1018 TEMPO RA BKN009",
      "taf": "TAF ENGM 190500Z 1906/2006 09010KT 9999 RA SCT012 BKN018"
    },
    {
      "icao": "ENHD",
      "alert": "OK",
      "vis_m": 4200,
      "fzfg": false,
      "metar_trigger": false,
      "taf_trigger": false,
      "metar": "METAR ENHD 190550Z AUTO 20003KT 140V240 4200 +RA VV004 06/06 Q1016",
      "taf": "TAF ENHD 190500Z 1906/1915 VRB05KT 6000 SCT003 BKN010"
    },
    {
      "icao": "ENTC",
      "alert": "OK",
      "vis_m": 9999,
      "fzfg": false,
      "metar_trigger": false,
      "taf_trigger": false,
      "metar": "METAR ENTC 190550Z 21003KT CAVOK 05/00 Q1025 RMK WIND 2600FT 19005KT",
      "taf": "TAF ENTC 190500Z 1906/2006 22002KT CAVOK"
    },
    {
      "icao": "ENTO",
      "alert": "OK",
      "vis_m": 4400,
      "fzfg": false,
      "metar_trigger": false,
      "taf_trigger": false,
      "metar": "METAR ENTO 190550Z 14007KT 4400 RA BR VV003 07/07 Q1016 BECMG 1200 BR",
      "taf": ""
    },
    {
      "icao": "ENVA",
      "alert": "OK",
      "vis_m": 9999,
      "fzfg": false,
      "metar_trigger": false,
      "taf_trigger": false,
      "metar": "METAR ENVA 190550Z 11012KT CAVOK 10/00 Q1020 NOSIG RMK WIND 670FT 12009KT",
      "taf": "TAF ENVA 190500Z 1906/2006 11008KT CAVOK"
    },
    {
      "icao": "ENZV",
      "alert": "OK",
      "vis_m": 8000,
      "fzfg": false,
      "metar_trigger": false,
      "taf_trigger": false,
      "metar": "METAR ENZV 190550Z 26003KT 8000 3000SW BKN003 OVC007 06/06 Q1017 BECMG SCT003 BKN015",
      "taf": "TAF ENZV 190500Z 1906/2006 27005KT 9999 SCT003 BKN015"
    },
    {
      "icao": "EPGD",
      "alert": "OK",
      "vis_m": 9999,
      "fzfg": false,
      "metar_trigger": false,
      "taf_trigger": false,
      "metar": "METAR EPGD 190600Z 10003KT 060V140 CAVOK 08/04 Q1017",
      "taf": "TAF EPGD 190530Z 1906/2006 06007KT CAVOK"
    },
    {
      "icao": "EPKK",
      "alert": "OK",
      "vis_m": 9999,
      "fzfg": false,
      "metar_trigger": false,
      "taf_trigger": false,
      "metar": "METAR EPKK 190600Z VRB01KT CAVOK 09/05 Q1016",
      "taf": "TAF EPKK 190530Z 1906/2006 VRB02KT CAVOK"
    },
    {
      "icao": "EPKT",
      "alert": "OK",
      "vis_m": 9999,
      "fzfg": false,
      "metar_trigger": false,
      "taf_trigger": false,
      "metar": "METAR EPKT 190600Z 09004KT CAVOK 11/06 Q1016",
      "taf": "TAF EPKT 190530Z 1906/2006 VRB02KT CAVOK"
    },
    {
      "icao": "EPLB",
      "alert": "OK",
      "vis_m": 9999,
      "fzfg": false,
      "metar_trigger": false,
      "taf_trigger": false,
      "metar": "METAR EPLB 190600Z VRB01KT CAVOK 08/04 Q1016",
      "taf": "TAF EPLB 190530Z 1906/2006 VRB02KT CAVOK"
    },
    {
      "icao": "EPMO",
      "alert": "OK",
      "vis_m": 9999,
      "fzfg": false,
      "metar_trigger": false,
      "taf_trigger": false,
      "metar": "METAR EPMO 190600Z 06006KT CAVOK 09/03 Q1016",
      "taf": "TAF EPMO 190530Z 1906/2006 VRB04KT CAVOK"
    },
    {
      "icao": "EPPO",
      "alert": "OK",
      "vis_m": 9999,
      "fzfg": false,
      "metar_trigger": false,
      "taf_trigger": false,
      "metar": "METAR EPPO 190600Z 07002KT CAVOK 13/07 Q1015",
      "taf": "TAF EPPO 190530Z 1906/2006 VRB02KT CAVOK"
    },
    {
      "icao": "EPRA",
      "alert": "OK",
      "vis_m": 9999,
      "fzfg": false,
      "metar_trigger": false,
      "taf_trigger": false,
      "metar": "METAR EPRA 190600Z VRB01KT CAVOK 10/03 Q1016",
      "taf": "TAF EPRA 190530Z 1906/1915 VRB02KT CAVOK"
    },
    {
      "icao": "EPRZ",
      "alert": "OK",
      "vis_m": 9999,
      "fzfg": false,
      "metar_trigger": false,
      "taf_trigger": false,
      "metar": "METAR EPRZ 190600Z VRB02KT CAVOK 09/04 Q1016",
      "taf": "TAF EPRZ 190530Z 1906/2006 VRB02KT CAVOK"
    },
    {
      "icao": "EPSC",
      "alert": "OK",
      "vis_m": 9999,
      "fzfg": false,
      "metar_trigger": false,
      "taf_trigger": false,
      "metar": "METAR EPSC 190600Z 35003KT 310V030 CAVOK 10/08 Q1015",
      "taf": "TAF EPSC 190530Z 1906/2006 VRB03KT CAVOK"
    },
    {
      "icao": "EPSY",
      "alert": "OK",
      "vis_m": 9999,
      "fzfg": false,
      "metar_trigger": false,
      "taf_trigger": false,
      "metar": "METAR EPSY 190600Z VRB01KT CAVOK 07/01 Q1017",
      "taf": "TAF EPSY 190530Z 1906/1915 VRB02KT CAVOK"
    },
    {
      "icao": "EPWA",
      "alert": "OK",
      "vis_m": 9999,
      "fzfg": false,
      "metar_trigger": false,
      "taf_trigger": false,
      "metar": "METAR EPWA 190600Z 13003KT CAVOK 09/03 Q1016 NOSIG",
      "taf": "TAF EPWA 190530Z 1906/2006 VRB04KT CAVOK"
    },
    {
      "icao": "EPWR",
      "alert": "OK",
      "vis_m": 9999,
      "fzfg": false,
      "metar_trigger": false,
      "taf_trigger": false,
      "metar": "METAR EPWR 190600Z 10003KT CAVOK 09/05 Q1015",
      "taf": "TAF EPWR 190530Z 1906/2006 10008KT CAVOK"
    },
    {
      "icao": "ESGG",
      "alert": "OK",
      "vis_m": 9999,
      "fzfg": false,
      "metar_trigger": false,
      "taf_trigger": false,
      "metar": "METAR ESGG 190550Z 13005KT 100V160 9999 OVC020 06/06 Q1017",
      "taf": "TAF ESGG 190530Z 1906/2006 14004KT 9999 -RA OVC020"
    },
    {
      "icao": "ESKN",
      "alert": "OK",
      "vis_m": 9999,
      "fzfg": false,
      "metar_trigger": false,
      "taf_trigger": false,
      "metar": "METAR ESKN 190550Z 13010KT CAVOK 07/01 Q1021",
      "taf": "TAF ESKN 190530Z 1906/2006 09009KT CAVOK"
    },
    {
      "icao": "ESMS",
      "alert": "OK",
      "vis_m": 9999,
      "fzfg": false,
      "metar_trigger": false,
      "taf_trigger": false,
      "metar": "METAR ESMS 190550Z 09004KT 9999 BKN023 07/06 Q1016",
      "taf": "TAF ESMS 190527Z 1906/2006 VRB03KT 9999 BKN020"
    },
    {
      "icao": "ESSA",
      "alert": "OK",
      "vis_m": 9999,
      "fzfg": false,
      "metar_trigger": false,
      "taf_trigger": false,
      "metar": "METAR ESSA 190550Z 10007KT CAVOK 06/01 Q1023 NOSIG",
      "taf": "TAF ESSA 190530Z 1906/2006 11010KT CAVOK"
    },
    {
      "icao": "EYKA",
      "alert": "OK",
      "vis_m": 9999,
      "fzfg": false,
      "metar_trigger": false,
      "taf_trigger": false,
      "metar": "METAR EYKA 190550Z 06005KT CAVOK 06/M01 Q1018",
      "taf": "TAF EYKA 190500Z 1906/2006 VRB03KT 8000 SCT045"
    },
    {
      "icao": "EYPA",
      "alert": "OK",
      "vis_m": 9999,
      "fzfg": false,
      "metar_trigger": false,
      "taf_trigger": false,
      "metar": "METAR EYPA 190550Z 07009KT CAVOK 07/M00 Q1019",
      "taf": "TAF EYPA 190500Z 1906/2006 07010KT 8000 NSC"
    },
    {
      "icao": "EYVI",
      "alert": "OK",
      "vis_m": 9999,
      "fzfg": false,
      "metar_trigger": false,
      "taf_trigger": false,
      "metar": "METAR EYVI 190550Z 09005KT 060V120 CAVOK 07/M01 Q1017 NOSIG",
      "taf": "TAF EYVI 190500Z 1906/2006 07012KT CAVOK"
    },
    {
      "icao": "GCFV",
      "alert": "OK",
      "vis_m": 9999,
      "fzfg": false,
      "metar_trigger": false,
      "taf_trigger": false,
      "metar": "METAR GCFV 190600Z 33006KT CAVOK 24/08 Q1011",
      "taf": "TAF GCFV 190200Z 1903/2003 01010KT 8000 NSC TX29/1914Z TN20/1906Z"
    },
    {
      "icao": "GCLP",
      "alert": "OK",
      "vis_m": 9999,
      "fzfg": false,
      "metar_trigger": false,
      "taf_trigger": false,
      "metar": "METAR GCLP 190600Z VRB04KT CAVOK 26/06 Q1009 NOSIG",
      "taf": "TAF GCLP 190200Z 1903/2003 18007KT 8000 NSC TX28/1914Z TN22/1906Z"
    },
    {
      "icao": "GCTS",
      "alert": "OK",
      "vis_m": 9999,
      "fzfg": false,
      "metar_trigger": false,
      "taf_trigger": false,
      "metar": "METAR GCTS 190600Z 07010G24KT 330V120 CAVOK 31/03 Q1008 NOSIG",
      "taf": "TAF GCTS 190200Z 1903/2003 09012KT 8000 NSC TX29/1914Z TN22/1906Z"
    },
    {
      "icao": "GMAD",
      "alert": "OK",
      "vis_m": 8000,
      "fzfg": false,
      "metar_trigger": false,
      "taf_trigger": false,
      "metar": "METAR GMAD 190600Z 07006KT 8000 NSC 18/05 Q1011 NOSIG",
      "taf": "TAF GMAD 190500Z 1906/2012 05005KT 8000 NSC"
    },
    {
      "icao": "GMMN",
      "alert": "OK",
      "vis_m": 9999,
      "fzfg": false,
      "metar_trigger": false,
      "taf_trigger": false,
      "metar": "METAR GMMN 190600Z 15004KT CAVOK 12/10 Q1015 NOSIG",
      "taf": "TAF GMMN 190500Z 1906/2012 14006KT CAVOK"
    },
    {
      "icao": "GMMX",
      "alert": "OK",
      "vis_m": 9999,
      "fzfg": false,
      "metar_trigger": false,
      "taf_trigger": false,
      "metar": "METAR GMMX 190600Z 09004KT 9999 FEW100 SCT200 14/10 Q1015 NOSIG",
      "taf": "TAF GMMX 190500Z 1906/2012 10006KT 9999 SCT100 SCT200"
    },
    {
      "icao": "HEGN",
      "alert": "OK",
      "vis_m": 9999,
      "fzfg": false,
      "metar_trigger": false,
      "taf_trigger": false,
      "metar": "METAR HEGN 190500Z 33007KT CAVOK 24/08 Q1010 NOSIG",
      "taf": "TAF HEGN 190500Z 1906/2012 34015KT CAVOK"
    },
    {
      "icao": "HEMA",
      "alert": "OK",
      "vis_m": 9999,
      "fzfg": false,
      "metar_trigger": false,
      "taf_trigger": false,
      "metar": "METAR HEMA 190500Z 34012KT CAVOK 27/08 Q1010 NOSIG",
      "taf": "TAF HEMA 190500Z 1906/2012 35014KT 9999 SCT025"
    },
    {
      "icao": "HESH",
      "alert": "OK",
      "vis_m": 9999,
      "fzfg": false,
      "metar_trigger": false,
      "taf_trigger": false,
      "metar": "METAR HESH 190500Z 36009KT CAVOK 25/15 Q1009 NOSIG",
      "taf": "TAF HESH 190500Z 1906/2012 01014KT CAVOK"
    },
    {
      "icao": "HESX",
      "alert": "OK",
      "vis_m": 9999,
      "fzfg": false,
      "metar_trigger": false,
      "taf_trigger": false,
      "metar": "METAR HESX 190500Z 00000KT CAVOK 14/10 Q1011 NOSIG",
      "taf": "TAF HESX 190500Z 1906/2012 29009KT CAVOK"
    },
    {
      "icao": "LATI",
      "alert": "OK",
      "vis_m": 9999,
      "fzfg": false,
      "metar_trigger": false,
      "taf_trigger": false,
      "metar": "METAR LATI 190550Z 19003KT 160V220 CAVOK 13/04 Q1016 NOSIG",
      "taf": "TAF LATI 190500Z 1906/2006 VRB03KT CAVOK TX27/1912Z TN08/2004Z"
    },
    {
      "icao": "LBPD",
      "alert": "OK",
      "vis_m": 9999,
      "fzfg": false,
      "metar_trigger": false,
      "taf_trigger": false,
      "metar": "METAR LBPD 190600Z AUTO VRB04KT 9999 SCT087/// 13/07 Q1016 NOSIG",
      "taf": "TAF LBPD 190500Z 1906/2006 VRB04KT 9999 SCT030 BKN060"
    },
    {
      "icao": "LBSF",
      "alert": "OK",
      "vis_m": 9999,
      "fzfg": false,
      "metar_trigger": false,
      "taf_trigger": false,
      "metar": "METAR LBSF 190600Z VRB02KT CAVOK 08/04 Q1017 TEMPO 5000 BR",
      "taf": "TAF LBSF 190500Z 1906/2006 VRB04KT 9999 SCT050"
    },
    {
      "icao": "LBWN",
      "alert": "OK",
      "vis_m": 9999,
      "fzfg": false,
      "metar_trigger": false,
      "taf_trigger": false,
      "metar": "METAR LBWN 190600Z 36010KT CAVOK 14/07 Q1015 NOSIG",
      "taf": "TAF LBWN 190500Z 1906/2006 34010KT 9999 SCT040"
    },
    {
      "icao": "LCLK",
      "alert": "OK",
      "vis_m": 9999,
      "fzfg": false,
      "metar_trigger": false,
      "taf_trigger": false,
      "metar": "METAR LCLK 190600Z 22011KT 190V250 9999 FEW030 21/17 Q1006 NOSIG",
      "taf": "TAF LCLK 190530Z 1906/2006 24007KT 8000 FEW030"
    },
    {
      "icao": "LCPH",
      "alert": "OK",
      "vis_m": 9999,
      "fzfg": false,
      "metar_trigger": false,
      "taf_trigger": false,
      "metar": "METAR LCPH 190600Z AUTO 25004KT 170V300 9999 SCT033 OVC038 17/14 Q1007 NOSIG",
      "taf": "TAF LCPH 190530Z 1906/2006 31008KT 9999 SCT012 SCT025"
    },
    {
      "icao": "LEAL",
      "alert": "OK",
      "vis_m": 9999,
      "fzfg": false,
      "metar_trigger": false,
      "taf_trigger": false,
      "metar": "METAR LEAL 190600Z 00000KT CAVOK 13/08 Q1018 NOSIG",
      "taf": "TAF LEAL 190500Z 1906/2006 VRB04KT CAVOK TX25/1912Z TN12/2005Z"
    },
    {
      "icao": "LEBB",
      "alert": "OK",
      "vis_m": 9999,
      "fzfg": false,
      "metar_trigger": false,
      "taf_trigger": false,
      "metar": "METAR LEBB 190600Z 10004KT 060V180 9999 FEW012 12/11 Q1019 NOSIG",
      "taf": "TAF LEBB 190500Z 1906/2006 09005KT 9999 FEW040 TX24/1913Z TN12/1906Z"
    },
    {
      "icao": "LEBL",
      "alert": "OK",
      "vis_m": 9999,
      "fzfg": false,
      "metar_trigger": false,
      "taf_trigger": false,
      "metar": "METAR LEBL 190600Z 30008KT 270V330 9999 FEW040 15/09 Q1017 NOSIG",
      "taf": "TAF LEBL 190500Z 1906/2006 VRB04KT 9999 FEW040 TX21/1912Z TN13/1906Z"
    },
    {
      "icao": "LECH",
      "alert": "OK",
      "vis_m": 9000,
      "fzfg": false,
      "metar_trigger": false,
      "taf_trigger": false,
      "metar": "METAR LECH 190600Z AUTO VRB02KT 9000 NCD 13/08 Q1018",
      "taf": "TAF LECH 190500Z 1906/2006 VRB04KT CAVOK TX24/1913Z TN14/2005Z"
    },
    {
      "icao": "LEMD",
      "alert": "OK",
      "vis_m": 9999,
      "fzfg": false,
      "metar_trigger": false,
      "taf_trigger": false,
      "metar": "METAR LEMD 190600Z 35003KT 9999 FEW080 12/07 Q1019 NOSIG",
      "taf": "TAF LEMD 190500Z 1906/2012 VRB04KT CAVOK TX28/1916Z TN11/2006Z"
    },
    {
      "icao": "LEMG",
      "alert": "OK",
      "vis_m": 9999,
      "fzfg": false,
      "metar_trigger": false,
      "taf_trigger": false,
      "metar": "METAR LEMG 190600Z 28008KT CAVOK 10/07 Q1018 NOSIG",
      "taf": "TAF LEMG 190500Z 1906/2006 29010KT CAVOK TX23/1914Z TN09/1906Z"
    },
    {
      "icao": "LEVC",
      "alert": "OK",
      "vis_m": 9999,
      "fzfg": false,
      "metar_trigger": false,
      "taf_trigger": false,
      "metar": "METAR LEVC 190600Z VRB02KT CAVOK 13/11 Q1018 NOSIG",
      "taf": "TAF LEVC 190500Z 1906/2006 VRB04KT CAVOK TX27/1912Z TN12/2005Z"
    },
    {
      "icao": "LEXJ",
      "alert": "OK",
      "vis_m": 9999,
      "fzfg": false,
      "metar_trigger": false,
      "taf_trigger": false,
      "metar": "METAR LEXJ 190600Z VRB02KT 9999 FEW015 13/11 Q1019",
      "taf": "TAF LEXJ 190200Z 1903/2003 06009KT 9000 FEW020 TX21/1913Z TN12/1903Z"
    },
    {
      "icao": "LEZG",
      "alert": "OK",
      "vis_m": 9999,
      "fzfg": false,
      "metar_trigger": false,
      "taf_trigger": false,
      "metar": "METAR LEZG 190600Z 31003KT 270V340 CAVOK 14/11 Q1019 NOSIG",
      "taf": "TAF LEZG 190500Z 1906/2006 30010KT CAVOK TX30/1914Z TN14/2005Z"
    },
    {
      "icao": "LEZL",
      "alert": "OK",
      "vis_m": 9999,
      "fzfg": false,
      "metar_trigger": false,
      "taf_trigger": false,
      "metar": "METAR LEZL 190600Z 03004KT CAVOK 13/08 Q1016 NOSIG",
      "taf": "TAF LEZL 190200Z 1903/2003 VRB03KT CAVOK TX32/1915Z TN13/1906Z"
    },
    {
      "icao": "LFBD",
      "alert": "OK",
      "vis_m": 9999,
      "fzfg": false,
      "metar_trigger": false,
      "taf_trigger": false,
      "metar": "METAR LFBD 190600Z AUTO 03006KT CAVOK 12/10 Q1020 NOSIG",
      "taf": "TAF LFBD 190500Z 1906/2012 03005KT CAVOK TX25/1915Z TN12/1906Z"
    },
    {
      "icao": "LFLL",
      "alert": "OK",
      "vis_m": 9999,
      "fzfg": false,
      "metar_trigger": false,
      "taf_trigger": false,
      "metar": "METAR LFLL 190600Z VRB03KT CAVOK 14/12 Q1019 NOSIG",
      "taf": "TAF LFLL 190500Z 1906/2012 VRB03KT CAVOK"
    },
    {
      "icao": "LFLS",
      "alert": "OK",
      "vis_m": null,
      "fzfg": false,
      "metar_trigger": false,
      "taf_trigger": false,
      "metar": "",
      "taf": "TAF LFLS 190200Z 1903/2003 09005KT CAVOK"
    },
    {
      "icao": "LFMN",
      "alert": "OK",
      "vis_m": 9999,
      "fzfg": false,
      "metar_trigger": false,
      "taf_trigger": false,
      "metar": "METAR LFMN 190600Z COR 06003KT 030V100 9999 FEW009 BKN230 17/13 Q1016 NOSIG",
      "taf": ""
    },
    {
      "icao": "LFOB",
      "alert": "OK",
      "vis_m": 500,
      "fzfg": false,
      "metar_trigger": false,
      "taf_trigger": false,
      "metar": "METAR LFOB 190600Z AUTO 27003KT 230V300 0500 0450 R30/0650N R12/0650D FG VV/// 07/07 Q1023 TEMPO 0600 FG",
      "taf": "TAF LFOB 190500Z 1906/2006 30005KT 9999 SCT040"
    },
    {
      "icao": "LFPO",
      "alert": "OK",
      "vis_m": 9999,
      "fzfg": false,
      "metar_trigger": false,
      "taf_trigger": false,
      "metar": "METAR LFPO 190600Z VRB02KT CAVOK 08/07 Q1023 TEMPO BKN004",
      "taf": "TAF LFPO 190500Z 1906/2012 33006KT CAVOK"
    },
    {
      "icao": "LFSB",
      "alert": "OK",
      "vis_m": 9999,
      "fzfg": false,
      "metar_trigger": false,
      "taf_trigger": false,
      "metar": "METAR LFSB 190600Z AUTO VRB02KT CAVOK 10/09 Q1018 TEMPO FEW020TCU BKN030 BECMG 27012KT",
      "taf": "TAF LFSB 190500Z 1906/2006 VRB03KT 9999 FEW040 BKN080"
    },
    {
      "icao": "LGAV",
      "alert": "OK",
      "vis_m": 9999,
      "fzfg": false,
      "metar_trigger": false,
      "taf_trigger": false,
      "metar": "METAR LGAV 190550Z 01006KT 330V060 9999 FEW025 16/06 Q1017 NOSIG",
      "taf": "TAF LGAV 190500Z 1906/2006 02010KT 9999 FEW025"
    },
    {
      "icao": "LGTS",
      "alert": "OK",
      "vis_m": 9999,
      "fzfg": false,
      "metar_trigger": false,
      "taf_trigger": false,
      "metar": "METAR LGTS 190550Z VRB03KT 9999 FEW020 12/10 Q1017 NOSIG",
      "taf": "TAF LGTS 190500Z 1906/2006 12010KT 9999 FEW025"
    },
    {
      "icao": "LHBP",
      "alert": "OK",
      "vis_m": 9999,
      "fzfg": false,
      "metar_trigger": false,
      "taf_trigger": false,
      "metar": "METAR LHBP 190600Z VRB02KT CAVOK 11/03 Q1016 NOSIG",
      "taf": "TAF LHBP 190515Z 1906/2006 VRB03KT CAVOK"
    },
    {
      "icao": "LHDC",
      "alert": "OK",
      "vis_m": 9999,
      "fzfg": false,
      "metar_trigger": false,
      "taf_trigger": false,
      "metar": "METAR LHDC 190545Z AUTO 08004KT 040V100 CAVOK 11/03 Q1017 NOSIG",
      "taf": "TAF LHDC 190515Z 1906/1915 VRB02KT CAVOK"
    },
    {
      "icao": "LIBD",
      "alert": "OK",
      "vis_m": 9999,
      "fzfg": false,
      "metar_trigger": false,
      "taf_trigger": false,
      "metar": "METAR LIBD 190550Z 27005KT CAVOK 15/07 Q1016",
      "taf": "TAF LIBD 190500Z 1906/2006 26007KT CAVOK"
    },
    {
      "icao": "LIBG",
      "alert": "OK",
      "vis_m": 9999,
      "fzfg": false,
      "metar_trigger": false,
      "taf_trigger": false,
      "metar": "SPECI LIBG 190550Z VRB03KT CAVOK 18/09 Q1015",
      "taf": "TAF LIBG 190601Z 1906/1915 VRB04KT 9999 FEW045"
    },
    {
      "icao": "LIBP",
      "alert": "OK",
      "vis_m": 9999,
      "fzfg": false,
      "metar_trigger": false,
      "taf_trigger": false,
      "metar": "METAR LIBP 190550Z AUTO 24004KT 9999 NCD 12/07 Q1017",
      "taf": "TAF LIBP 190500Z 1906/2006 VRB05KT CAVOK"
    },
    {
      "icao": "LIBR",
      "alert": "OK",
      "vis_m": 9999,
      "fzfg": false,
      "metar_trigger": false,
      "taf_trigger": false,
      "metar": "METAR LIBR 190550Z 32012KT CAVOK 16/11 Q1015",
      "taf": "TAF LIBR 190500Z 1906/2006 32014KT CAVOK"
    },
    {
      "icao": "LICA",
      "alert": "OK",
      "vis_m": 9999,
      "fzfg": false,
      "metar_trigger": false,
      "taf_trigger": false,
      "metar": "METAR LICA 190550Z AUTO 07003KT 9999 FEW020/// 15/14 Q1017",
      "taf": "TAF LICA 190500Z 1906/2006 VRB05KT 9999 FEW020"
    },
    {
      "icao": "LICC",
      "alert": "OK",
      "vis_m": 9999,
      "fzfg": false,
      "metar_trigger": false,
      "taf_trigger": false,
      "metar": "METAR LICC 190550Z 24005KT CAVOK 12/10 Q1017",
      "taf": "TAF LICC 190500Z 1906/2006 26006KT 9999 FEW060"
    },
    {
      "icao": "LICJ",
      "alert": "OK",
      "vis_m": 9999,
      "fzfg": false,
      "metar_trigger": false,
      "taf_trigger": false,
      "metar": "METAR LICJ 190550Z 15002KT CAVOK 16/15 Q1017",
      "taf": "TAF LICJ 190500Z 1906/2006 VRB05KT CAVOK"
    },
    {
      "icao": "LIMC",
      "alert": "OK",
      "vis_m": 9999,
      "fzfg": false,
      "metar_trigger": false,
      "taf_trigger": false,
      "metar": "METAR LIMC 190550Z VRB02KT 9999 BKN060 16/13 Q1016 NOSIG",
      "taf": "TAF LIMC 190500Z 1906/2012 02010KT 9999 SCT040"
    },
    {
      "icao": "LIME",
      "alert": "OK",
      "vis_m": 4500,
      "fzfg": false,
      "metar_trigger": false,
      "taf_trigger": false,
      "metar": "METAR LIME 190550Z 22004KT 150V240 4500 TSRA BKN030CB BKN050 14/14 Q1017 NOSIG",
      "taf": "TAF LIME 190500Z 1906/2006 VRB05KT 9999 SCT040"
    },
    {
      "icao": "LIMF",
      "alert": "OK",
      "vis_m": 9999,
      "fzfg": false,
      "metar_trigger": false,
      "taf_trigger": false,
      "metar": "METAR LIMF 190550Z 36003KT 9999 SCT050 16/13 Q1016",
      "taf": "TAF LIMF 190500Z 1906/2006 VRB05KT 9999 SCT040"
    },
    {
      "icao": "LIMJ",
      "alert": "OK",
      "vis_m": 9999,
      "fzfg": false,
      "metar_trigger": false,
      "taf_trigger": false,
      "metar": "METAR LIMJ 190550Z VRB02KT 9999 FEW015 16/09 Q1016",
      "taf": "TAF LIMJ 190500Z 1906/2006 VRB05KT 9999 FEW015"
    },
    {
      "icao": "LIPE",
      "alert": "OK",
      "vis_m": 9999,
      "fzfg": false,
      "metar_trigger": false,
      "taf_trigger": false,
      "metar": "METAR LIPE 190550Z 19007KT CAVOK 14/09 Q1015",
      "taf": "TAF LIPE 190500Z 1906/2006 VRB05KT CAVOK"
    },
    {
      "icao": "LIPH",
      "alert": "OK",
      "vis_m": 9999,
      "fzfg": false,
      "metar_trigger": false,
      "taf_trigger": false,
      "metar": "METAR LIPH 190550Z 05003KT 9999 SCT090 14/11 Q1016",
      "taf": "TAF LIPH 190500Z 1906/2006 VRB05KT 9999 FEW050"
    },
    {
      "icao": "LIPQ",
      "alert": "OK",
      "vis_m": 9999,
      "fzfg": false,
      "metar_trigger": false,
      "taf_trigger": false,
      "metar": "METAR LIPQ 190550Z AUTO 13003KT 9999 FEW100/// SCT110/// BKN200/// 15/09 Q1016",
      "taf": "TAF LIPQ 190500Z 1906/2006 VRB05KT 9999 FEW070"
    },
    {
      "icao": "LIPR",
      "alert": "OK",
      "vis_m": 9999,
      "fzfg": false,
      "metar_trigger": false,
      "taf_trigger": false,
      "metar": "METAR LIPR 190550Z AUTO VRB01KT 9999 NCD 14/10 Q1016",
      "taf": "TAF LIPR 190500Z 1906/2006 VRB05KT CAVOK"
    },
    {
      "icao": "LIPX",
      "alert": "OK",
      "vis_m": 9999,
      "fzfg": false,
      "metar_trigger": false,
      "taf_trigger": false,
      "metar": "METAR LIPX 190550Z 34005KT 9999 BKN065 16/12 Q1016",
      "taf": "TAF LIPX 190500Z 1906/2006 VRB05KT 9999 SCT040"
    },
    {
      "icao": "LIPY",
      "alert": "OK",
      "vis_m": 9999,
      "fzfg": false,
      "metar_trigger": false,
      "taf_trigger": false,
      "metar": "METAR LIPY 190550Z AUTO 20002KT 9999 FEW240/// 13/08 Q1017",
      "taf": "TAF LIPY 190500Z 1906/2006 VRB05KT CAVOK"
    },
    {
      "icao": "LIPZ",
      "alert": "OK",
      "vis_m": 9999,
      "fzfg": false,
      "metar_trigger": false,
      "taf_trigger": false,
      "metar": "METAR LIPZ 190550Z 02004KT 9999 SCT070 14/12 Q1016 NOSIG",
      "taf": "TAF LIPZ 190500Z 1906/2012 VRB05KT 9999 FEW060"
    },
    {
      "icao": "LIRF",
      "alert": "OK",
      "vis_m": 9999,
      "fzfg": false,
      "metar_trigger": false,
      "taf_trigger": false,
      "metar": "METAR LIRF 190550Z 07003KT CAVOK 14/09 Q1016 NOSIG",
      "taf": "TAF LIRF 190500Z 1906/2012 07006KT CAVOK"
    },
    {
      "icao": "LIRN",
      "alert": "OK",
      "vis_m": 9999,
      "fzfg": false,
      "metar_trigger": false,
      "taf_trigger": false,
      "metar": "METAR LIRN 190550Z VRB02KT CAVOK 16/06 Q1017 NOSIG",
      "taf": "TAF LIRN 190500Z 1906/2006 VRB04KT CAVOK"
    },
    {
      "icao": "LIRP",
      "alert": "OK",
      "vis_m": 9999,
      "fzfg": false,
      "metar_trigger": false,
      "taf_trigger": false,
      "metar": "METAR LIRP 190545Z 12003KT CAVOK 11/09 Q1017 NOSIG",
      "taf": "TAF LIRP 190500Z 1906/2006 12004KT CAVOK"
    },
    {
      "icao": "LIRZ",
      "alert": "OK",
      "vis_m": 9999,
      "fzfg": false,
      "metar_trigger": false,
      "taf_trigger": false,
      "metar": "METAR LIRZ 190550Z AUTO 03003KT 9999 NCD 10/06 Q1018",
      "taf": "TAF LIRZ 190500Z 1906/2006 VRB05KT CAVOK"
    },
    {
      "icao": "LJLJ",
      "alert": "OK",
      "vis_m": 9999,
      "fzfg": false,
      "metar_trigger": false,
      "taf_trigger": false,
      "metar": "METAR LJLJ 190600Z VRB02KT CAVOK 09/06 Q1018 NOSIG",
      "taf": "TAF LJLJ 190500Z 1906/2006 VRB02KT CAVOK"
    },
    {
      "icao": "LKMT",
      "alert": "OK",
      "vis_m": 9999,
      "fzfg": false,
      "metar_trigger": false,
      "taf_trigger": false,
      "metar": "METAR LKMT 190600Z 22004KT CAVOK 08/05 Q1016 NOSIG",
      "taf": "TAF LKMT 190500Z 1906/2006 23008KT 9999 BKN035"
    },
    {
      "icao": "LKPR",
      "alert": "OK",
      "vis_m": 9999,
      "fzfg": false,
      "metar_trigger": false,
      "taf_trigger": false,
      "metar": "METAR LKPR 190600Z 25006KT 9999 -SHRA FEW050TCU 11/10 Q1015 TEMPO 7000 SHRA SCT040CB BKN045",
      "taf": "TAF LKPR 190500Z 1906/2012 24005KT CAVOK"
    },
    {
      "icao": "LLBG",
      "alert": "OK",
      "vis_m": 9999,
      "fzfg": false,
      "metar_trigger": false,
      "taf_trigger": false,
      "metar": "METAR LLBG 190550Z 21007KT 180V240 9999 FEW020 SCT030 20/14 Q1010 NOSIG",
      "taf": "TAF LLBG 190503Z 1906/2006 19006KT 9999 SCT025 TX23/1910Z TN15/2004Z"
    },
    {
      "icao": "LMML",
      "alert": "OK",
      "vis_m": 9000,
      "fzfg": false,
      "metar_trigger": false,
      "taf_trigger": false,
      "metar": "METAR LMML 190545Z 16004KT 9000 FEW006 16/16 Q1017 BECMG 9999",
      "taf": "TAF LMML 190500Z 1906/2006 VRB07KT 9999 FEW007"
    },
    {
      "icao": "LOWW",
      "alert": "OK",
      "vis_m": 9999,
      "fzfg": false,
      "metar_trigger": false,
      "taf_trigger": false,
      "metar": "METAR LOWW 190550Z 13003KT 110V180 CAVOK 11/06 Q1016 NOSIG",
      "taf": "TAF LOWW 190515Z 1906/2012 21004KT CAVOK TX20/1911Z TN08/2004Z"
    },
    {
      "icao": "LPFR",
      "alert": "OK",
      "vis_m": 9999,
      "fzfg": false,
      "metar_trigger": false,
      "taf_trigger": false,
      "metar": "METAR LPFR 190600Z 03007KT CAVOK 16/10 Q1015",
      "taf": "TAF LPFR 190500Z 1906/2006 02005KT CAVOK"
    },
    {
      "icao": "LPMA",
      "alert": "OK",
      "vis_m": 9999,
      "fzfg": false,
      "metar_trigger": false,
      "taf_trigger": false,
      "metar": "METAR LPMA 190600Z 01008KT 320V060 9999 SCT013 18/13 Q1012",
      "taf": "TAF LPMA 190500Z 1906/2006 02010KT 9999 SCT013"
    },
    {
      "icao": "LPPR",
      "alert": "OK",
      "vis_m": 9999,
      "fzfg": false,
      "metar_trigger": false,
      "taf_trigger": false,
      "metar": "METAR LPPR 190600Z VRB02KT 9999 FEW020 12/11 Q1015",
      "taf": "TAF LPPR 190500Z 1906/2006 VRB02KT 0800 BCFG SCT001 BKN002"
    },
    {
      "icao": "LPPS",
      "alert": "OK",
      "vis_m": 9999,
      "fzfg": false,
      "metar_trigger": false,
      "taf_trigger": false,
      "metar": "METAR LPPS 190600Z 10015KT 9999 FEW006 16/15 Q1012",
      "taf": "TAF LPPS 190500Z 1906/2012 09015KT 9999 SCT012"
    },
    {
      "icao": "LPPT",
      "alert": "OK",
      "vis_m": 4500,
      "fzfg": false,
      "metar_trigger": false,
      "taf_trigger": false,
      "metar": "METAR LPPT 190600Z 36002KT 4500 0800SW R02/1000U BR PRFG FEW001 13/12 Q1015",
      "taf": "TAF LPPT 190500Z 1906/2012 VRB02KT CAVOK"
    },
    {
      "icao": "LQBK",
      "alert": "OK",
      "vis_m": 9999,
      "fzfg": false,
      "metar_trigger": false,
      "taf_trigger": false,
      "metar": "METAR LQBK 190600Z VRB01KT CAVOK 09/04 Q1018 NOSIG",
      "taf": "TAF LQBK 190500Z 1906/2006 15005KT CAVOK TX23/1913Z TN07/2004Z"
    },
    {
      "icao": "LQSA",
      "alert": "OK",
      "vis_m": 9999,
      "fzfg": false,
      "metar_trigger": false,
      "taf_trigger": false,
      "metar": "METAR LQSA 190600Z VRB01KT CAVOK 06/02 Q1019 NOSIG",
      "taf": "TAF LQSA 190500Z 1906/2006 VRB02KT 9999 SCT060 TX24/1914Z TN05/1906Z"
    },
    {
      "icao": "LQTZ",
      "alert": "OK",
      "vis_m": 9999,
      "fzfg": false,
      "metar_trigger": false,
      "taf_trigger": false,
      "metar": "METAR LQTZ 190600Z 00000KT CAVOK 07/05 Q1018",
      "taf": "TAF LQTZ 190500Z 1906/2006 10005KT CAVOK TX22/1913Z TN06/1906Z"
    },
    {
      "icao": "LRBC",
      "alert": "OK",
      "vis_m": 9999,
      "fzfg": false,
      "metar_trigger": false,
      "taf_trigger": false,
      "metar": "METAR LRBC 190600Z VRB02KT CAVOK 12/06 Q1016",
      "taf": "TAF LRBC 190500Z 1906/1915 01006KT CAVOK"
    },
    {
      "icao": "LRBS",
      "alert": "OK",
      "vis_m": 9999,
      "fzfg": false,
      "metar_trigger": false,
      "taf_trigger": false,
      "metar": "METAR LRBS 190600Z 35004KT 310V030 CAVOK 13/09 Q1016 NOSIG",
      "taf": "TAF LRBS 190500Z 1906/2006 VRB04KT CAVOK"
    },
    {
      "icao": "LRBV",
      "alert": "OK",
      "vis_m": 9999,
      "fzfg": false,
      "metar_trigger": false,
      "taf_trigger": false,
      "metar": "METAR LRBV 190600Z 28003KT 240V320 CAVOK 10/04 Q1016",
      "taf": "TAF LRBV 190500Z 1906/1915 23006KT 9999 SCT050"
    },
    {
      "icao": "LRCL",
      "alert": "OK",
      "vis_m": 9999,
      "fzfg": false,
      "metar_trigger": false,
      "taf_trigger": false,
      "metar": "METAR LRCL 190600Z VRB01KT CAVOK 09/03 Q1017",
      "taf": "TAF LRCL 190500Z 1906/1915 VRB04KT CAVOK"
    },
    {
      "icao": "LRCV",
      "alert": "OK",
      "vis_m": 9999,
      "fzfg": false,
      "metar_trigger": false,
      "taf_trigger": false,
      "metar": "METAR LRCV 190600Z 06007KT CAVOK 11/08 Q1016",
      "taf": "TAF LRCV 190500Z 1906/1915 06007KT CAVOK"
    },
    {
      "icao": "LRIA",
      "alert": "OK",
      "vis_m": 9999,
      "fzfg": false,
      "metar_trigger": false,
      "taf_trigger": false,
      "metar": "METAR LRIA 190600Z 24004KT 210V320 CAVOK 10/06 Q1016",
      "taf": "TAF LRIA 190500Z 1906/1915 VRB04KT CAVOK"
    },
    {
      "icao": "LROP",
      "alert": "OK",
      "vis_m": 9999,
      "fzfg": false,
      "metar_trigger": false,
      "taf_trigger": false,
      "metar": "METAR LROP 190600Z 32003KT 290V360 CAVOK 14/07 Q1016 NOSIG",
      "taf": "TAF LROP 190500Z 1906/2006 VRB04KT CAVOK"
    },
    {
      "icao": "LRSB",
      "alert": "OK",
      "vis_m": 9999,
      "fzfg": false,
      "metar_trigger": false,
      "taf_trigger": false,
      "metar": "METAR LRSB 190600Z VRB01KT CAVOK 12/05 Q1016 NOSIG",
      "taf": "TAF LRSB 190500Z 1906/2006 VRB04KT CAVOK"
    },
    {
      "icao": "LRSM",
      "alert": "OK",
      "vis_m": 9999,
      "fzfg": false,
      "metar_trigger": false,
      "taf_trigger": false,
      "metar": "METAR LRSM 190600Z AUTO VRB02KT 9999 NCD 09/03 Q1017",
      "taf": ""
    },
    {
      "icao": "LRSV",
      "alert": "OK",
      "vis_m": 9999,
      "fzfg": false,
      "metar_trigger": false,
      "taf_trigger": false,
      "metar": "METAR LRSV 190600Z 31009KT CAVOK 11/03 Q1015",
      "taf": "TAF LRSV 190500Z 1906/1915 31008KT CAVOK"
    },
    {
      "icao": "LRTM",
      "alert": "OK",
      "vis_m": 9999,
      "fzfg": false,
      "metar_trigger": false,
      "taf_trigger": false,
      "metar": "METAR LRTM 190600Z 07004KT 040V110 CAVOK 08/04 Q1017",
      "taf": "TAF LRTM 190500Z 1906/1915 VRB04KT CAVOK"
    },
    {
      "icao": "LRTR",
      "alert": "OK",
      "vis_m": 9999,
      "fzfg": false,
      "metar_trigger": false,
      "taf_trigger": false,
      "metar": "METAR LRTR 190600Z 10004KT 070V130 CAVOK 08/05 Q1017 NOSIG",
      "taf": "TAF LRTR 190500Z 1906/2006 VRB04KT CAVOK"
    },
    {
      "icao": "LTAC",
      "alert": "OK",
      "vis_m": 9999,
      "fzfg": false,
      "metar_trigger": false,
      "taf_trigger": false,
      "metar": "METAR LTAC 190550Z VRB01KT 9999 SCT035 BKN100 07/03 Q1011 NOSIG RMK RWY21C VRB02KT RWY03L VRB02KT RWY21R VRB02KT RWY03R VRB01KT RWY21L VRB01KT",
      "taf": "TAF LTAC 190440Z 1906/2006 VRB02KT 9999 SCT040 BKN100"
    },
    {
      "icao": "LTFM",
      "alert": "OK",
      "vis_m": 9999,
      "fzfg": false,
      "metar_trigger": false,
      "taf_trigger": false,
      "metar": "METAR LTFM 190550Z 34007KT 9999 FEW008 BKN040 12/06 Q1016 NOSIG RMK RWY17L 35006KT RWY34L 33007KT RWY16R 33004KT RWY36 33006KT 290V020 RWY18 34007KT 300V010",
      "taf": "TAF LTFM 190440Z 1906/2012 28005KT 9999 FEW040 SCT100"
    },
    {
      "icao": "LUKK",
      "alert": "OK",
      "vis_m": 9999,
      "fzfg": false,
      "metar_trigger": false,
      "taf_trigger": false,
      "metar": "METAR LUKK 190600Z 33010KT CAVOK 10/04 Q1015 NOSIG",
      "taf": "TAF LUKK 190516Z 1906/2006 33012KT CAVOK"
    },
    {
      "icao": "LWOH",
      "alert": "OK",
      "vis_m": 9999,
      "fzfg": false,
      "metar_trigger": false,
      "taf_trigger": false,
      "metar": "METAR LWOH 190550Z VRB01KT CAVOK 09/02 Q1018",
      "taf": "TAF LWOH 190510Z 1906/2006 30005KT CAVOK"
    },
    {
      "icao": "LWSK",
      "alert": "OK",
      "vis_m": 9999,
      "fzfg": false,
      "metar_trigger": false,
      "taf_trigger": false,
      "metar": "METAR LWSK 190550Z VRB02KT CAVOK 10/05 Q1018 NOSIG",
      "taf": "TAF LWSK 190510Z 1906/2006 36006KT CAVOK"
    },
    {
      "icao": "LYBE",
      "alert": "OK",
      "vis_m": 9999,
      "fzfg": false,
      "metar_trigger": false,
      "taf_trigger": false,
      "metar": "METAR LYBE 190600Z 25004KT 200V270 CAVOK 10/05 Q1018 NOSIG",
      "taf": "TAF LYBE 190500Z 1906/2006 22005KT CAVOK TX22/1913Z TN08/1906Z"
    },
    {
      "icao": "LYNI",
      "alert": "OK",
      "vis_m": 9999,
      "fzfg": false,
      "metar_trigger": false,
      "taf_trigger": false,
      "metar": "METAR LYNI 190600Z VRB01KT CAVOK 09/04 Q1018 NOSIG",
      "taf": "TAF LYNI 190500Z 1906/2006 11004KT CAVOK TX22/1913Z TN06/1906Z"
    },
    {
      "icao": "LYPG",
      "alert": "OK",
      "vis_m": 9999,
      "fzfg": false,
      "metar_trigger": false,
      "taf_trigger": false,
      "metar": "METAR LYPG 190600Z 31007KT CAVOK 17/02 Q1017 NOSIG",
      "taf": "TAF LYPG 190500Z 1906/2006 36006KT CAVOK TX26/1913Z TN12/2004Z"
    },
    {
      "icao": "LZIB",
      "alert": "OK",
      "vis_m": 9999,
      "fzfg": false,
      "metar_trigger": false,
      "taf_trigger": false,
      "metar": "METAR LZIB 190600Z 05004KT CAVOK 11/05 Q1016 NOSIG",
      "taf": "TAF LZIB 190515Z 1906/2006 VRB02KT CAVOK"
    },
    {
      "icao": "LZKZ",
      "alert": "OK",
      "vis_m": 9999,
      "fzfg": false,
      "metar_trigger": false,
      "taf_trigger": false,
      "metar": "METAR LZKZ 190600Z 00000KT CAVOK 08/05 Q1017 NOSIG",
      "taf": "TAF LZKZ 190515Z 1906/2006 VRB02KT CAVOK"
    },
    {
      "icao": "LZTT",
      "alert": "OK",
      "vis_m": 9999,
      "fzfg": false,
      "metar_trigger": false,
      "taf_trigger": false,
      "metar": "METAR LZTT 190600Z VRB01KT CAVOK 07/02 Q1016 NOSIG",
      "taf": "TAF LZTT 190515Z 1906/2006 26005KT CAVOK"
    },
    {
      "icao": "OEJN",
      "alert": "OK",
      "vis_m": 7000,
      "fzfg": false,
      "metar_trigger": false,
      "taf_trigger": false,
      "metar": "METAR OEJN 190600Z 36006KT 7000 NSC 32/18 Q1008 NOSIG",
      "taf": "TAF OEJN 190500Z 1906/2012 22015KT 7000 FEW040"
    },
    {
      "icao": "OEMA",
      "alert": "OK",
      "vis_m": 9999,
      "fzfg": false,
      "metar_trigger": false,
      "taf_trigger": false,
      "metar": "METAR OEMA 190600Z 24004KT 9999 FEW040 BKN090 31/10 Q1013 NOSIG",
      "taf": "TAF OEMA 190500Z 1906/2012 23006KT 7000 SCT040"
    },
    {
      "icao": "OJAI",
      "alert": "OK",
      "vis_m": null,
      "fzfg": false,
      "metar_trigger": false,
      "taf_trigger": false,
      "metar": "",
      "taf": "TAF OJAI 190500Z 1906/2012 25012KT 4000 HZ SCT030"
    },
    {
      "icao": "OMAA",
      "alert": "OK",
      "vis_m": null,
      "fzfg": false,
      "metar_trigger": false,
      "taf_trigger": false,
      "metar": "",
      "taf": ""
    },
    {
      "icao": "OMDB",
      "alert": "OK",
      "vis_m": null,
      "fzfg": false,
      "metar_trigger": false,
      "taf_trigger": false,
      "metar": "",
      "taf": ""
    },
    {
      "icao": "UAAA",
      "alert": "OK",
      "vis_m": 9999,
      "fzfg": false,
      "metar_trigger": false,
      "taf_trigger": false,
      "metar": "METAR UAAA 190600Z 23004MPS 9999 SCT050CB OVC100 11/05 Q1017 NOSIG",
      "taf": "TAF UAAA 190503Z 1906/2006 22002G07MPS 9999 BKN040CB OVC100 TX12/1909Z TN04/2001Z"
    },
    {
      "icao": "UBBB",
      "alert": "OK",
      "vis_m": 9999,
      "fzfg": false,
      "metar_trigger": false,
      "taf_trigger": false,
      "metar": "METAR UBBB 190600Z 19018KT CAVOK 16/12 Q1001 NOSIG",
      "taf": "TAF UBBB 190456Z 1906/2006 19018G28KT 9999 SCT025 TX19/09Z TN10/2001Z"
    },
    {
      "icao": "UDSG",
      "alert": "OK",
      "vis_m": 4500,
      "fzfg": false,
      "metar_trigger": false,
      "taf_trigger": false,
      "metar": "METAR UDSG 190600Z 28003KT 4500 -SHRA BR SCT015CB OVC030 07/07 Q1009 NOSIG",
      "taf": "TAF UDSG 190500Z 1906/2006 27006KT 9999 BKN040"
    },
    {
      "icao": "UDYZ",
      "alert": "OK",
      "vis_m": 2700,
      "fzfg": false,
      "metar_trigger": false,
      "taf_trigger": false,
      "metar": "METAR UDYZ 190600Z 24004KT 2700 -SHRA BR OVC017CB 11/10 Q1008 NOSIG",
      "taf": "TAF UDYZ 190500Z 1906/2006 24006KT 6000 BKN030"
    },
    {
      "icao": "UGKO",
      "alert": "OK",
      "vis_m": 4400,
      "fzfg": false,
      "metar_trigger": false,
      "taf_trigger": false,
      "metar": "METAR UGKO 190600Z 29006KT 250V320 4400 -RA BR FEW003 SCT005 BKN007 10/09 Q1010 NOSIG",
      "taf": "TAF UGKO 190500Z 1906/2006 26007KT 9999 SCT020 BKN050 TX14/1911Z TN09/2003Z"
    }
  ]
}