{
  "ts_utc": "2026-02-10T11:35:31Z",
  "threshold_m": 150,
  "source": "stations_override.txt (ICAO list) + aviationweather.gov (METAR/TAF raw)",
  "station_count": 159,
  "stations": [
    {
      "icao": "BIKF",
      "alert": "OK",
      "vis_m": 9999,
      "fzfg": false,
      "metar_trigger": false,
      "taf_trigger": false,
      "metar": "METAR BIKF 101130Z 04012KT CAVOK 02/M01 Q1006",
      "taf": "TAF BIKF 101031Z 1012/1112 05012KT 9999 FEW040 TX04/1015Z TNM03/1110Z"
    },
    {
      "icao": "BKPR",
      "alert": "OK",
      "vis_m": 9999,
      "fzfg": false,
      "metar_trigger": false,
      "taf_trigger": false,
      "metar": "METAR BKPR 101130Z VRB02KT 9999 SCT008 BKN010 04/03 Q1008 NOSIG",
      "taf": "TAF BKPR 101130Z 1012/1112 15008KT 9999 BKN010 BKN025"
    },
    {
      "icao": "EBCI",
      "alert": "OK",
      "vis_m": 9999,
      "fzfg": false,
      "metar_trigger": false,
      "taf_trigger": false,
      "metar": "METAR EBCI 101120Z 22012KT 9999 BKN009 09/07 Q0993 BECMG BKN014",
      "taf": "TAF EBCI 101100Z 1012/1118 19009KT 9999 BKN007"
    },
    {
      "icao": "EDDB",
      "alert": "OK",
      "vis_m": 7000,
      "fzfg": false,
      "metar_trigger": false,
      "taf_trigger": false,
      "metar": "METAR EDDB 101120Z AUTO 11007KT 7000 OVC023 02/00 Q1001 NOSIG",
      "taf": "TAF EDDB 101100Z 1012/1112 13006KT 8000 BKN025"
    },
    {
      "icao": "EDDH",
      "alert": "OK",
      "vis_m": 9999,
      "fzfg": false,
      "metar_trigger": false,
      "taf_trigger": false,
      "metar": "METAR EDDH 101120Z AUTO 11008KT 080V140 CAVOK 03/00 Q0998 NOSIG",
      "taf": "TAF EDDH 101100Z 1012/1118 11011KT 9999 BKN030"
    },
    {
      "icao": "EDDK",
      "alert": "OK",
      "vis_m": 9999,
      "fzfg": false,
      "metar_trigger": false,
      "taf_trigger": false,
      "metar": "METAR EDDK 101120Z AUTO 14011KT 9999 BKN021 07/04 Q0995 NOSIG",
      "taf": "TAF EDDK 101100Z 1012/1118 12010KT 9999 BKN020"
    },
    {
      "icao": "EDDN",
      "alert": "OK",
      "vis_m": 9999,
      "fzfg": false,
      "metar_trigger": false,
      "taf_trigger": false,
      "metar": "METAR EDDN 101120Z AUTO 14009KT 9999 FEW012 04/00 Q1000 NOSIG",
      "taf": "TAF EDDN 101100Z 1012/1112 14008KT 9999 BKN040"
    },
    {
      "icao": "EDDS",
      "alert": "OK",
      "vis_m": 9999,
      "fzfg": false,
      "metar_trigger": false,
      "taf_trigger": false,
      "metar": "METAR EDDS 101120Z AUTO VRB02KT 9999 BKN037 05/03 Q0998 NOSIG",
      "taf": "TAF EDDS 101100Z 1012/1112 09005KT 9999 BKN030"
    },
    {
      "icao": "EDFH",
      "alert": "OK",
      "vis_m": 8000,
      "fzfg": false,
      "metar_trigger": false,
      "taf_trigger": false,
      "metar": "METAR EDFH 101120Z 15012KT 8000 SCT001 BKN011 OVC014 04/04 Q0995",
      "taf": "TAF EDFH 101100Z 1012/1112 17012KT 6000 BKN008"
    },
    {
      "icao": "EDJA",
      "alert": "OK",
      "vis_m": 9999,
      "fzfg": false,
      "metar_trigger": false,
      "taf_trigger": false,
      "metar": "METAR EDJA 101120Z 23008KT 9999 OVC058 05/00 Q1000",
      "taf": "TAF EDJA 101100Z 1012/1021 21006KT 9999 BKN045"
    },
    {
      "icao": "EDLW",
      "alert": "OK",
      "vis_m": 9999,
      "fzfg": false,
      "metar_trigger": false,
      "taf_trigger": false,
      "metar": "METAR EDLW 101120Z 16011KT 9999 FEW020 BKN039 OVC044 08/04 Q0994",
      "taf": "TAF EDLW 101100Z 1012/1112 15008KT 9999 BKN025"
    },
    {
      "icao": "EDNY",
      "alert": "OK",
      "vis_m": 3000,
      "fzfg": false,
      "metar_trigger": false,
      "taf_trigger": false,
      "metar": "METAR EDNY 101120Z 12003KT 3000 -RA BR FEW005 BKN007 OVC048 03/02 Q1001",
      "taf": "TAF EDNY 101100Z 1012/1021 VRB02KT 4000 BR BKN004"
    },
    {
      "icao": "EDSB",
      "alert": "OK",
      "vis_m": 9999,
      "fzfg": false,
      "metar_trigger": false,
      "taf_trigger": false,
      "metar": "METAR EDSB 101120Z 36003KT 330V030 9999 OVC036 06/05 Q0998",
      "taf": "TAF EDSB 101100Z 1012/1112 VRB03KT 9999 OVC035"
    },
    {
      "icao": "EETN",
      "alert": "OK",
      "vis_m": 9999,
      "fzfg": false,
      "metar_trigger": false,
      "taf_trigger": false,
      "metar": "METAR EETN 101120Z 18007KT 9999 OVC023 M06/M08 Q1005 NOSIG",
      "taf": "TAF EETN 101130Z 1012/1112 19008KT 9999 SCT008 BKN020"
    },
    {
      "icao": "EFTU",
      "alert": "OK",
      "vis_m": 9999,
      "fzfg": false,
      "metar_trigger": false,
      "taf_trigger": false,
      "metar": "METAR EFTU 101120Z AUTO 21005KT 180V240 9999 OVC014 M06/M09 Q1004",
      "taf": ""
    },
    {
      "icao": "EGBB",
      "alert": "OK",
      "vis_m": 4000,
      "fzfg": false,
      "metar_trigger": false,
      "taf_trigger": false,
      "metar": "METAR EGBB 101120Z 12008KT 4000 BR OVC004 08/07 Q0987",
      "taf": "TAF EGBB 101102Z 1012/1112 13006KT 7000 BKN007"
    },
    {
      "icao": "EGGP",
      "alert": "OK",
      "vis_m": 9999,
      "fzfg": false,
      "metar_trigger": false,
      "taf_trigger": false,
      "metar": "METAR EGGP 101120Z 12012KT 9999 OVC011 08/06 Q0986",
      "taf": "TAF EGGP 101056Z 1012/1112 12010KT 9999 BKN010"
    },
    {
      "icao": "EGGW",
      "alert": "OK",
      "vis_m": 3100,
      "fzfg": false,
      "metar_trigger": false,
      "taf_trigger": false,
      "metar": "METAR EGGW 101120Z AUTO 14007KT 3100 BR OVC002 08/08 Q0987",
      "taf": "TAF EGGW 101101Z 1012/1112 17005KT 3000 BR BKN004"
    },
    {
      "icao": "EGKK",
      "alert": "OK",
      "vis_m": 9999,
      "fzfg": false,
      "metar_trigger": false,
      "taf_trigger": false,
      "metar": "METAR EGKK 101120Z 20005KT 9999 SCT006 BKN015 10/10 Q0988",
      "taf": "TAF EGKK 101107Z 1012/1118 20010KT 9999 SCT010"
    },
    {
      "icao": "EGNM",
      "alert": "OK",
      "vis_m": 800,
      "fzfg": false,
      "metar_trigger": false,
      "taf_trigger": false,
      "metar": "METAR EGNM 101120Z 09011KT 0800 R14/P1500N -RA FG VV/// 05/05 Q0988",
      "taf": "TAF EGNM 101056Z 1012/1112 10010KT 0300 -RADZ FG VV///"
    },
    {
      "icao": "EGPD",
      "alert": "OK",
      "vis_m": 7000,
      "fzfg": false,
      "metar_trigger": false,
      "taf_trigger": false,
      "metar": "METAR EGPD 101120Z AUTO 12011KT 7000 BKN015 OVC022 06/03 Q0994 TEMPO BKN012",
      "taf": "TAF EGPD 101054Z 1012/1112 12012KT 9999 SCT015 BKN030"
    },
    {
      "icao": "EGPF",
      "alert": "OK",
      "vis_m": 7000,
      "fzfg": false,
      "metar_trigger": false,
      "taf_trigger": false,
      "metar": "METAR EGPF 101120Z AUTO 07011KT 7000 -RA FEW010/// SCT015/// BKN019/// //////TCU 06/05 Q0989",
      "taf": "TAF EGPF 101103Z 1012/1112 06011KT 9999 SCT020"
    },
    {
      "icao": "EHBK",
      "alert": "OK",
      "vis_m": 9999,
      "fzfg": false,
      "metar_trigger": false,
      "taf_trigger": false,
      "metar": "METAR EHBK 101125Z AUTO 19011KT 9999 OVC016 10/07 Q0993 NOSIG",
      "taf": "TAF EHBK 101121Z 1012/1118 19010KT 9999 BKN016"
    },
    {
      "icao": "EHEH",
      "alert": "OK",
      "vis_m": 7000,
      "fzfg": false,
      "metar_trigger": false,
      "taf_trigger": false,
      "metar": "METAR EHEH 101125Z AUTO 15008KT 120V190 7000 BR FEW005 SCT006 BKN007 06/05 Q0992 GRN NOSIG RMK TREND REMOTED BY EHWX",
      "taf": "TAF EHEH 100503Z 1006/1112 12007KT 9000 NSC"
    },
    {
      "icao": "EKBI",
      "alert": "OK",
      "vis_m": 2900,
      "fzfg": false,
      "metar_trigger": false,
      "taf_trigger": false,
      "metar": "METAR EKBI 101120Z AUTO 10007KT 2900 BR OVC003/// M00/M00 Q1000",
      "taf": "TAF EKBI 101127Z 1012/1112 09010KT 2500 BR BKN003"
    },
    {
      "icao": "EKCH",
      "alert": "OK",
      "vis_m": 4000,
      "fzfg": false,
      "metar_trigger": false,
      "taf_trigger": false,
      "metar": "METAR EKCH 101120Z 13008KT 4000 BR OVC006 M00/M01 Q1003 TEMPO 2500 -SNSG BKN004",
      "taf": "TAF EKCH 101127Z 1012/1112 12008KT 3000 BR BKN006"
    },
    {
      "icao": "ENAL",
      "alert": "OK",
      "vis_m": 9999,
      "fzfg": false,
      "metar_trigger": false,
      "taf_trigger": false,
      "metar": "METAR ENAL 101120Z 16005KT 130V190 9999 FEW040 03/M03 Q1003",
      "taf": "TAF ENAL 101100Z 1012/1021 15005KT 9999 FEW020 BKN040"
    },
    {
      "icao": "ENBR",
      "alert": "OK",
      "vis_m": 9999,
      "fzfg": false,
      "metar_trigger": false,
      "taf_trigger": false,
      "metar": "METAR ENBR 101120Z 00000KT CAVOK 02/M04 Q1002 NOSIG RMK WIND 1200FT 04003KT",
      "taf": "TAF ENBR 101100Z 1012/1112 VRB03KT CAVOK"
    },
    {
      "icao": "ENGM",
      "alert": "OK",
      "vis_m": 5000,
      "fzfg": false,
      "metar_trigger": false,
      "taf_trigger": false,
      "metar": "METAR ENGM 101120Z 00000KT 5000 2000W -SN BR FEW003 OVC006 M11/M13 Q1004 TEMPO BKN004",
      "taf": "TAF ENGM 101100Z 1012/1112 VRB03KT 9999 BKN004"
    },
    {
      "icao": "ENHD",
      "alert": "OK",
      "vis_m": 9999,
      "fzfg": false,
      "metar_trigger": false,
      "taf_trigger": false,
      "metar": "METAR ENHD 101120Z 10007KT 9999 SCT044 01/M06 Q1002",
      "taf": "TAF ENHD 101100Z 1012/1021 09008KT 9999 SCT040"
    },
    {
      "icao": "ENTC",
      "alert": "OK",
      "vis_m": 9999,
      "fzfg": false,
      "metar_trigger": false,
      "taf_trigger": false,
      "metar": "METAR ENTC 101120Z 15004KT 110V180 9999 VCSH FEW022 BKN035 M06/M09 Q1005 TEMPO 2000 -SHSN VV008 RMK WIND 2600FT 35010KT",
      "taf": "TAF ENTC 101100Z 1012/1112 20008KT 9999 FEW020 SCT030"
    },
    {
      "icao": "ENTO",
      "alert": "OK",
      "vis_m": 9999,
      "fzfg": false,
      "metar_trigger": false,
      "taf_trigger": false,
      "metar": "METAR ENTO 101120Z 02005KT CAVOK M09/M13 Q1004 NOSIG",
      "taf": "TAF ENTO 101100Z 1012/1112 02005KT 9999 SCT010 SCT025"
    },
    {
      "icao": "ENVA",
      "alert": "OK",
      "vis_m": 3000,
      "fzfg": false,
      "metar_trigger": false,
      "taf_trigger": false,
      "metar": "METAR ENVA 101120Z 14003KT 3000 -SN VV012 M02/M03 Q1003 BECMG 9999 NSW SCT020 RMK WIND 670FT VRB01KT",
      "taf": "TAF ENVA 101100Z 1012/1112 09005KT 2000 -SN VV024"
    },
    {
      "icao": "ENZV",
      "alert": "OK",
      "vis_m": 9999,
      "fzfg": false,
      "metar_trigger": false,
      "taf_trigger": false,
      "metar": "METAR ENZV 101120Z 11008KT CAVOK 03/M08 Q1002 NOSIG",
      "taf": "TAF ENZV 101100Z 1012/1112 10008KT CAVOK"
    },
    {
      "icao": "EPGD",
      "alert": "OK",
      "vis_m": 4900,
      "fzfg": false,
      "metar_trigger": false,
      "taf_trigger": false,
      "metar": "METAR EPGD 101130Z 15004KT 4900 BR OVC005 M04/M05 Q1004",
      "taf": "TAF EPGD 101130Z 1012/1112 16004KT 6000 OVC006"
    },
    {
      "icao": "EPKK",
      "alert": "OK",
      "vis_m": 8000,
      "fzfg": false,
      "metar_trigger": false,
      "taf_trigger": false,
      "metar": "METAR EPKK 101130Z 06006KT 020V090 8000 FEW046 02/M00 Q1004",
      "taf": "TAF EPKK 101130Z 1012/1112 06006KT 7000 SCT040"
    },
    {
      "icao": "EPKT",
      "alert": "OK",
      "vis_m": 7000,
      "fzfg": false,
      "metar_trigger": false,
      "taf_trigger": false,
      "metar": "METAR EPKT 101130Z 17004KT 7000 SCT028 BKN032 03/02 Q1003",
      "taf": "TAF EPKT 101130Z 1012/1112 20008KT 8000 BKN030"
    },
    {
      "icao": "EPLB",
      "alert": "OK",
      "vis_m": 9999,
      "fzfg": false,
      "metar_trigger": false,
      "taf_trigger": false,
      "metar": "METAR EPLB 101130Z 17005KT 9999 BKN044 M01/M05 Q1007",
      "taf": "TAF EPLB 101130Z 1012/1112 14007KT 7000 BKN025"
    },
    {
      "icao": "EPMO",
      "alert": "OK",
      "vis_m": 8000,
      "fzfg": false,
      "metar_trigger": false,
      "taf_trigger": false,
      "metar": "METAR EPMO 101130Z 11004KT 8000 -FZRA FEW010 BKN019 M03/M06 Q1005",
      "taf": "TAF EPMO 101130Z 1012/1112 12008KT 9999 BKN020"
    },
    {
      "icao": "EPPO",
      "alert": "OK",
      "vis_m": 5000,
      "fzfg": false,
      "metar_trigger": false,
      "taf_trigger": false,
      "metar": "METAR EPPO 101130Z 10004KT 5000 BR OVC043 01/M02 Q1003",
      "taf": "TAF EPPO 101130Z 1012/1112 14008KT 6000 OVC040"
    },
    {
      "icao": "EPRA",
      "alert": "OK",
      "vis_m": 9999,
      "fzfg": false,
      "metar_trigger": false,
      "taf_trigger": false,
      "metar": "METAR EPRA 101130Z 13006KT 9999 -FZRA BKN031 M02/M04 Q1005",
      "taf": "TAF EPRA 101130Z 1012/1021 14006KT 9999 BKN030"
    },
    {
      "icao": "EPRZ",
      "alert": "OK",
      "vis_m": 9999,
      "fzfg": false,
      "metar_trigger": false,
      "taf_trigger": false,
      "metar": "METAR EPRZ 101130Z 08005KT CAVOK M01/M04 Q1006",
      "taf": "TAF EPRZ 101130Z 1012/1112 08007KT CAVOK"
    },
    {
      "icao": "EPSC",
      "alert": "OK",
      "vis_m": 8000,
      "fzfg": false,
      "metar_trigger": false,
      "taf_trigger": false,
      "metar": "METAR EPSC 101130Z 12008KT 8000 BKN032 M00/M02 Q1002",
      "taf": "TAF EPSC 101130Z 1012/1112 13008KT 8000 BKN030"
    },
    {
      "icao": "EPSY",
      "alert": "OK",
      "vis_m": 3700,
      "fzfg": false,
      "metar_trigger": false,
      "taf_trigger": false,
      "metar": "METAR EPSY 101130Z VRB02KT 3700 BR BKN005 OVC011 M07/M08 Q1005",
      "taf": "TAF EPSY 101130Z 1012/1021 16005KT 5000 BR OVC006"
    },
    {
      "icao": "EPWA",
      "alert": "OK",
      "vis_m": 9999,
      "fzfg": false,
      "metar_trigger": false,
      "taf_trigger": false,
      "metar": "METAR EPWA 101130Z 14007KT 9999 -FZRA BKN020 M03/M06 Q1005 TEMPO FZRA",
      "taf": "TAF EPWA 101130Z 1012/1112 13008KT 9999 BKN020"
    },
    {
      "icao": "EPWR",
      "alert": "OK",
      "vis_m": 6000,
      "fzfg": false,
      "metar_trigger": false,
      "taf_trigger": false,
      "metar": "METAR EPWR 101130Z 12007KT 6000 BKN032 03/01 Q1002",
      "taf": "TAF EPWR 101130Z 1012/1112 12007KT 6000 BKN033"
    },
    {
      "icao": "ESGG",
      "alert": "OK",
      "vis_m": 9999,
      "fzfg": false,
      "metar_trigger": false,
      "taf_trigger": false,
      "metar": "METAR ESGG 101120Z 10005KT 9999 BKN007 M04/M06 Q1002",
      "taf": "TAF ESGG 101130Z 1012/1112 10005KT 9999 SCT008 BKN018"
    },
    {
      "icao": "ESKN",
      "alert": "OK",
      "vis_m": 9999,
      "fzfg": false,
      "metar_trigger": false,
      "taf_trigger": false,
      "metar": "METAR ESKN 101120Z 27009KT 9999 BKN015 M06/M09 Q1004",
      "taf": "TAF ESKN 101130Z 1012/1112 26005KT 9999 BKN016"
    },
    {
      "icao": "ESMS",
      "alert": "OK",
      "vis_m": 2300,
      "fzfg": false,
      "metar_trigger": false,
      "taf_trigger": false,
      "metar": "METAR ESMS 101120Z 13008KT 2300 BR OVC004 M01/M01 Q1002",
      "taf": "TAF ESMS 100827Z 1009/1109 12008KT 5000 BKN006"
    },
    {
      "icao": "ESSA",
      "alert": "OK",
      "vis_m": 9999,
      "fzfg": false,
      "metar_trigger": false,
      "taf_trigger": false,
      "metar": "METAR ESSA 101120Z 24007KT 9999 -SN BKN011 M09/M12 Q1004 TEMPO BKN010",
      "taf": "TAF ESSA 101130Z 1012/1112 24005KT 9999 OVC011"
    },
    {
      "icao": "EYKA",
      "alert": "OK",
      "vis_m": 4800,
      "fzfg": false,
      "metar_trigger": false,
      "taf_trigger": false,
      "metar": "METAR EYKA 101120Z VRB02KT 4800 -SN BR OVC004 M11/M13 Q1007",
      "taf": "TAF EYKA 101118Z 1012/1112 VRB03KT 5000 BR OVC005"
    },
    {
      "icao": "EYPA",
      "alert": "OK",
      "vis_m": 8000,
      "fzfg": false,
      "metar_trigger": false,
      "taf_trigger": false,
      "metar": "METAR EYPA 101120Z 15007KT 120V180 8000 OVC008 M11/M13 Q1006",
      "taf": "TAF EYPA 101117Z 1012/1112 15008KT 6000 OVC005"
    },
    {
      "icao": "EYVI",
      "alert": "OK",
      "vis_m": 9999,
      "fzfg": false,
      "metar_trigger": false,
      "taf_trigger": false,
      "metar": "METAR EYVI 101120Z 17010KT 9999 OVC010 M10/M14 Q1006 NOSIG",
      "taf": "TAF EYVI 101125Z 1012/1112 19008KT 5000 BR BKN010"
    },
    {
      "icao": "GCFV",
      "alert": "OK",
      "vis_m": 9999,
      "fzfg": false,
      "metar_trigger": false,
      "taf_trigger": false,
      "metar": "METAR GCFV 101100Z 02014KT 9999 FEW005 22/16 Q1024",
      "taf": "TAF GCFV 100800Z 1009/1109 04014KT 9999 SCT020 TX23/1014Z TN16/1106Z"
    },
    {
      "icao": "GCLP",
      "alert": "OK",
      "vis_m": 9999,
      "fzfg": false,
      "metar_trigger": false,
      "taf_trigger": false,
      "metar": "METAR GCLP 101100Z 02020KT 350V050 9999 SCT030 21/16 Q1024 NOSIG",
      "taf": "TAF GCLP 100800Z 1009/1109 02019KT 9999 FEW025 TX22/1014Z TN17/1106Z"
    },
    {
      "icao": "GCTS",
      "alert": "OK",
      "vis_m": 9999,
      "fzfg": false,
      "metar_trigger": false,
      "taf_trigger": false,
      "metar": "METAR GCTS 101100Z 07009KT 350V110 9999 FEW020 22/15 Q1025 NOSIG",
      "taf": "TAF GCTS 100800Z 1009/1109 06004KT 9999 FEW035 TX22/1014Z TN17/1106Z"
    },
    {
      "icao": "GMAD",
      "alert": "OK",
      "vis_m": 5000,
      "fzfg": false,
      "metar_trigger": false,
      "taf_trigger": false,
      "metar": "METAR GMAD 101130Z 09003KT 5000 SCT006 BKN016 17/15 Q1022 NOSIG",
      "taf": "TAF GMAD 101100Z 1012/1118 28011KT 8000 BKN016"
    },
    {
      "icao": "GMMN",
      "alert": "OK",
      "vis_m": 9999,
      "fzfg": false,
      "metar_trigger": false,
      "taf_trigger": false,
      "metar": "METAR GMMN 101130Z 27006KT 240V330 9999 SCT009 SCT030 21/18 Q1024 NOSIG",
      "taf": "TAF GMMN 101100Z 1012/1118 30007KT 9999 SCT016"
    },
    {
      "icao": "GMMX",
      "alert": "OK",
      "vis_m": 9999,
      "fzfg": false,
      "metar_trigger": false,
      "taf_trigger": false,
      "metar": "METAR GMMX 101130Z 04004KT 360V070 CAVOK 21/14 Q1023 NOSIG",
      "taf": "TAF GMMX 101100Z 1012/1118 24008KT 8000 SCT026"
    },
    {
      "icao": "HEGN",
      "alert": "OK",
      "vis_m": 9999,
      "fzfg": false,
      "metar_trigger": false,
      "taf_trigger": false,
      "metar": "METAR HEGN 101100Z 11005KT CAVOK 27/20 Q1011 NOSIG",
      "taf": "TAF HEGN 101100Z 1012/1118 34008KT 6000 SCT025"
    },
    {
      "icao": "HEMA",
      "alert": "OK",
      "vis_m": 9999,
      "fzfg": false,
      "metar_trigger": false,
      "taf_trigger": false,
      "metar": "METAR HEMA 101100Z 10006KT CAVOK 29/11 Q1012 NOSIG",
      "taf": "TAF HEMA 101100Z 1012/1118 09012KT CAVOK"
    },
    {
      "icao": "HESH",
      "alert": "OK",
      "vis_m": 9999,
      "fzfg": false,
      "metar_trigger": false,
      "taf_trigger": false,
      "metar": "METAR HESH 101100Z 17006KT 9999 SCT020 27/17 Q1012 NOSIG",
      "taf": "TAF HESH 101100Z 1012/1118 02008KT CAVOK"
    },
    {
      "icao": "HESX",
      "alert": "OK",
      "vis_m": 9999,
      "fzfg": false,
      "metar_trigger": false,
      "taf_trigger": false,
      "metar": "METAR HESX 101100Z 24006KT CAVOK 23/08 Q1012 NOSIG",
      "taf": "TAF HESX 101100Z 1012/1118 25008KT CAVOK"
    },
    {
      "icao": "LATI",
      "alert": "OK",
      "vis_m": 9999,
      "fzfg": false,
      "metar_trigger": false,
      "taf_trigger": false,
      "metar": "METAR LATI 101120Z 16003KT 120V200 9999 FEW050 BKN100 16/06 Q1007 NOSIG",
      "taf": "TAF LATI 101100Z 1012/1112 VRB05KT 9999 SCT040 BKN080 TX16/1012Z TN09/1105Z"
    },
    {
      "icao": "LBPD",
      "alert": "OK",
      "vis_m": 9999,
      "fzfg": false,
      "metar_trigger": false,
      "taf_trigger": false,
      "metar": "METAR LBPD 101130Z AUTO 11006KT 9999 SCT014/// BKN016/// OVC020/// 02/00 Q1014 TEMPO -SN",
      "taf": "TAF LBPD 101100Z 1012/1112 11010KT 9999 BKN020 OVC035"
    },
    {
      "icao": "LBSF",
      "alert": "OK",
      "vis_m": 9999,
      "fzfg": false,
      "metar_trigger": false,
      "taf_trigger": false,
      "metar": "METAR LBSF 101130Z 11017KT 9999 SCT014 BKN020 01/M03 Q1011 NOSIG",
      "taf": "TAF LBSF 101100Z 1012/1112 11014KT 9999 BKN015 OVC025"
    },
    {
      "icao": "LBWN",
      "alert": "OK",
      "vis_m": 9999,
      "fzfg": false,
      "metar_trigger": false,
      "taf_trigger": false,
      "metar": "METAR LBWN 101130Z 04006KT 350V110 9999 SCT021 OVC026 02/00 Q1014 NOSIG",
      "taf": "TAF LBWN 101100Z 1012/1112 04012KT 9999 SCT015 OVC030"
    },
    {
      "icao": "LCLK",
      "alert": "OK",
      "vis_m": 9999,
      "fzfg": false,
      "metar_trigger": false,
      "taf_trigger": false,
      "metar": "METAR LCLK 101130Z 22020KT 9999 FEW025 SCT060 20/14 Q1008 NOSIG",
      "taf": "TAF LCLK 101130Z 1012/1112 22020KT 9999 FEW025 SCT040"
    },
    {
      "icao": "LCPH",
      "alert": "OK",
      "vis_m": 9999,
      "fzfg": false,
      "metar_trigger": false,
      "taf_trigger": false,
      "metar": "METAR LCPH 101130Z 26014KT 9999 BKN037 OVC085 18/13 Q1009 NOSIG",
      "taf": "TAF LCPH 101130Z 1012/1112 26016KT 9999 FEW025 SCT040"
    },
    {
      "icao": "LEAL",
      "alert": "OK",
      "vis_m": 9999,
      "fzfg": false,
      "metar_trigger": false,
      "taf_trigger": false,
      "metar": "METAR LEAL 101100Z 24010KT 210V270 9999 FEW030 21/14 Q1011 NOSIG",
      "taf": "TAF LEAL 101100Z 1012/1112 25012KT 9999 SCT045 TX23/1012Z TN15/1106Z"
    },
    {
      "icao": "LEBB",
      "alert": "OK",
      "vis_m": 9999,
      "fzfg": false,
      "metar_trigger": false,
      "taf_trigger": false,
      "metar": "METAR LEBB 101100Z 22017G27KT 170V260 9999 SCT068 20/13 Q1002 TEMPO RA",
      "taf": "TAF LEBB 101100Z 1012/1112 20009KT 9999 FEW030 SCT070 TX20/1012Z TN09/1106Z"
    },
    {
      "icao": "LEBL",
      "alert": "OK",
      "vis_m": 9999,
      "fzfg": false,
      "metar_trigger": false,
      "taf_trigger": false,
      "metar": "METAR LEBL 101100Z 28001KT 9999 FEW020 SCT050 16/12 Q1005 NOSIG",
      "taf": "TAF LEBL 101100Z 1012/1112 22012KT 9999 FEW020 TX20/1012Z TN14/1106Z"
    },
    {
      "icao": "LECH",
      "alert": "OK",
      "vis_m": 9999,
      "fzfg": false,
      "metar_trigger": false,
      "taf_trigger": false,
      "metar": "METAR LECH 101100Z AUTO 22004KT 170V270 CAVOK 21/09 Q1006",
      "taf": ""
    },
    {
      "icao": "LEMD",
      "alert": "OK",
      "vis_m": 9999,
      "fzfg": false,
      "metar_trigger": false,
      "taf_trigger": false,
      "metar": "METAR LEMD 101100Z 23013G25KT 090V260 9999 SCT015 SCT055 BKN070 14/13 Q1012 TEMPO RA",
      "taf": "TAF LEMD 101100Z 1012/1118 24015KT 9999 SCT015 TX15/1015Z TN10/1107Z"
    },
    {
      "icao": "LEMG",
      "alert": "OK",
      "vis_m": 9999,
      "fzfg": false,
      "metar_trigger": false,
      "taf_trigger": false,
      "metar": "METAR LEMG 101100Z 18003KT 100V210 9999 BKN055 20/15 Q1018 NOSIG",
      "taf": "TAF LEMG 101100Z 1012/1112 28007KT 9999 SCT020 TX22/1014Z TN16/1107Z"
    },
    {
      "icao": "LEVC",
      "alert": "OK",
      "vis_m": 9999,
      "fzfg": false,
      "metar_trigger": false,
      "taf_trigger": false,
      "metar": "METAR LEVC 101100Z 25012KT 220V290 9999 FEW045 23/11 Q1008 NOSIG",
      "taf": "TAF LEVC 101100Z 1012/1112 26015KT 9999 FEW045 TX24/1014Z TN17/1106Z"
    },
    {
      "icao": "LEXJ",
      "alert": "OK",
      "vis_m": 9999,
      "fzfg": false,
      "metar_trigger": false,
      "taf_trigger": false,
      "metar": "METAR LEXJ 101100Z VRB04KT 9999 -RA FEW045 OVC070 18/12 Q1001",
      "taf": ""
    },
    {
      "icao": "LEZG",
      "alert": "OK",
      "vis_m": 9999,
      "fzfg": false,
      "metar_trigger": false,
      "taf_trigger": false,
      "metar": "METAR LEZG 101100Z 25017KT 9999 SCT040 19/12 Q1006 NOSIG",
      "taf": "TAF LEZG 101100Z 1012/1112 25018KT 9999 SCT070 TX20/1012Z TN13/1108Z"
    },
    {
      "icao": "LEZL",
      "alert": "OK",
      "vis_m": 9999,
      "fzfg": false,
      "metar_trigger": false,
      "taf_trigger": false,
      "metar": "METAR LEZL 101100Z 24008KT 210V270 9999 BKN009 17/16 Q1019 NOSIG",
      "taf": ""
    },
    {
      "icao": "LFBD",
      "alert": "OK",
      "vis_m": 1300,
      "fzfg": false,
      "metar_trigger": false,
      "taf_trigger": false,
      "metar": "METAR LFBD 101130Z AUTO 25017KT 1300 1200 R23/1400U R05/1700U R29/1500D +RA BR BKN006/// OVC012/// ///CB 14/14 Q0998 TEMPO 20015G25KT 3000 RA BKN003 SCT025CB",
      "taf": ""
    },
    {
      "icao": "LFLL",
      "alert": "OK",
      "vis_m": 9999,
      "fzfg": false,
      "metar_trigger": false,
      "taf_trigger": false,
      "metar": "METAR LFLL 101130Z 19020KT 9999 FEW050 SCT060 BKN093 11/07 Q1001 NOSIG",
      "taf": "TAF LFLL 101100Z 1012/1118 18020KT CAVOK"
    },
    {
      "icao": "LFLS",
      "alert": "OK",
      "vis_m": 9999,
      "fzfg": false,
      "metar_trigger": false,
      "taf_trigger": false,
      "metar": "METAR LFLS 101130Z AUTO 21006KT 160V260 9999 OVC026 11/06 Q1002 TEMPO 22018G30KT",
      "taf": "TAF LFLS 100800Z 1009/1109 22012KT 9999 BKN040"
    },
    {
      "icao": "LFMN",
      "alert": "OK",
      "vis_m": 9999,
      "fzfg": false,
      "metar_trigger": false,
      "taf_trigger": false,
      "metar": "METAR LFMN 101130Z 25003KT 220V290 9999 FEW023 BKN046 12/08 Q1006 NOSIG",
      "taf": ""
    },
    {
      "icao": "LFOB",
      "alert": "OK",
      "vis_m": 9999,
      "fzfg": false,
      "metar_trigger": false,
      "taf_trigger": false,
      "metar": "METAR LFOB 101130Z AUTO 21012KT 9999 BKN017 BKN025 OVC030 11/08 Q0992 TEMPO 4000 -SHRA BKN008 BKN012TCU",
      "taf": ""
    },
    {
      "icao": "LFPO",
      "alert": "OK",
      "vis_m": 6000,
      "fzfg": false,
      "metar_trigger": false,
      "taf_trigger": false,
      "metar": "METAR LFPO 101130Z 20010KT 170V230 6000 -DZ BKN011 OVC020 11/09 Q0994 TEMPO BKN010",
      "taf": "TAF LFPO 101100Z 1012/1118 21010KT 9999 BKN012"
    },
    {
      "icao": "LFSB",
      "alert": "OK",
      "vis_m": 9999,
      "fzfg": false,
      "metar_trigger": false,
      "taf_trigger": false,
      "metar": "METAR LFSB 101130Z AUTO 12005KT 9999 OVC036 08/05 Q0999 TEMPO 4500 -SHRA FEW040TCU",
      "taf": "TAF LFSB 101100Z 1012/1112 09005KT 9999 OVC035 OVC045"
    },
    {
      "icao": "LGAV",
      "alert": "OK",
      "vis_m": 9999,
      "fzfg": false,
      "metar_trigger": false,
      "taf_trigger": false,
      "metar": "METAR LGAV 101120Z 04013KT 9999 FEW018 SCT040 12/07 Q1009 NOSIG",
      "taf": "TAF LGAV 101100Z 1012/1112 03012KT 9999 SCT025 SCT070"
    },
    {
      "icao": "LGTS",
      "alert": "OK",
      "vis_m": 9999,
      "fzfg": false,
      "metar_trigger": false,
      "taf_trigger": false,
      "metar": "METAR LGTS 101120Z 30007KT 9999 FEW012 BKN035 10/06 Q1011 NOSIG",
      "taf": "TAF LGTS 101100Z 1012/1112 VRB03KT 9999 FEW010 BKN025"
    },
    {
      "icao": "LHBP",
      "alert": "OK",
      "vis_m": 9999,
      "fzfg": false,
      "metar_trigger": false,
      "taf_trigger": false,
      "metar": "METAR LHBP 101130Z 15012KT 9999 OVC018 03/M01 Q1008 NOSIG",
      "taf": "TAF LHBP 101115Z 1012/1112 15012KT 9999 BKN019"
    },
    {
      "icao": "LHDC",
      "alert": "OK",
      "vis_m": 9999,
      "fzfg": false,
      "metar_trigger": false,
      "taf_trigger": false,
      "metar": "METAR LHDC 101115Z AUTO 20004KT 150V250 9999 OVC024 05/01 Q1010 NOSIG",
      "taf": "TAF LHDC 101115Z 1012/1021 21006KT 9999 BKN025 OVC040"
    },
    {
      "icao": "LIBD",
      "alert": "OK",
      "vis_m": 9999,
      "fzfg": false,
      "metar_trigger": false,
      "taf_trigger": false,
      "metar": "METAR LIBD 101120Z 01005KT 330V050 CAVOK 13/07 Q1006",
      "taf": "TAF LIBD 101100Z 1012/1112 VRB05KT 9999 SCT040"
    },
    {
      "icao": "LIBG",
      "alert": "OK",
      "vis_m": 9999,
      "fzfg": false,
      "metar_trigger": false,
      "taf_trigger": false,
      "metar": "METAR LIBG 101050Z 25005KT 200V300 CAVOK 15/08 Q1007",
      "taf": "TAF LIBG 101100Z 1012/1021 18010KT 9999 FEW040"
    },
    {
      "icao": "LIBP",
      "alert": "OK",
      "vis_m": 9999,
      "fzfg": false,
      "metar_trigger": false,
      "taf_trigger": false,
      "metar": "METAR LIBP 101120Z AUTO 07007KT 9999 FEW100/// 13/08 Q1006",
      "taf": "TAF LIBP 101100Z 1012/1112 VRB05KT 9999 BKN020"
    },
    {
      "icao": "LIBR",
      "alert": "OK",
      "vis_m": 9999,
      "fzfg": false,
      "metar_trigger": false,
      "taf_trigger": false,
      "metar": "METAR LIBR 101120Z 04005KT 9999 SCT025 14/10 Q1007",
      "taf": "TAF LIBR 101100Z 1012/1112 VRB05KT 9999 SCT020"
    },
    {
      "icao": "LICA",
      "alert": "OK",
      "vis_m": 9999,
      "fzfg": false,
      "metar_trigger": false,
      "taf_trigger": false,
      "metar": "METAR LICA 101120Z AUTO 25007KT 9999 FEW025/// BKN057/// 15/12 Q1008",
      "taf": "TAF LICA 101100Z 1012/1112 26012KT 9999 BKN040"
    },
    {
      "icao": "LICC",
      "alert": "OK",
      "vis_m": 9999,
      "fzfg": false,
      "metar_trigger": false,
      "taf_trigger": false,
      "metar": "METAR LICC 101120Z 25013KT 9999 FEW030 17/13 Q1009",
      "taf": "TAF LICC 101100Z 1012/1112 26013KT 9999 SCT030"
    },
    {
      "icao": "LICJ",
      "alert": "OK",
      "vis_m": 9999,
      "fzfg": false,
      "metar_trigger": false,
      "taf_trigger": false,
      "metar": "METAR LICJ 101120Z 21009KT 9999 SCT030 15/09 Q1009",
      "taf": "TAF LICJ 101100Z 1012/1112 21015KT 9999 SCT025"
    },
    {
      "icao": "LIMC",
      "alert": "OK",
      "vis_m": 7000,
      "fzfg": false,
      "metar_trigger": false,
      "taf_trigger": false,
      "metar": "METAR LIMC 101120Z VRB02KT 7000 FEW012 BKN018 09/07 Q1005 NOSIG",
      "taf": "TAF LIMC 101100Z 1012/1118 VRB04KT 7000 SCT010 BKN020"
    },
    {
      "icao": "LIME",
      "alert": "OK",
      "vis_m": 9999,
      "fzfg": false,
      "metar_trigger": false,
      "taf_trigger": false,
      "metar": "METAR LIME 101120Z 14004KT 090V200 9999 FEW020 SCT055 10/06 Q1005 NOSIG",
      "taf": "TAF LIME 101100Z 1012/1112 VRB04KT 8000 BKN025"
    },
    {
      "icao": "LIMF",
      "alert": "OK",
      "vis_m": 7000,
      "fzfg": false,
      "metar_trigger": false,
      "taf_trigger": false,
      "metar": "METAR LIMF 101120Z 07003KT 020V100 7000 SCT020 BKN050 08/05 Q1005",
      "taf": "TAF LIMF 101100Z 1012/1112 VRB04KT 7000 BKN020"
    },
    {
      "icao": "LIMJ",
      "alert": "OK",
      "vis_m": 9999,
      "fzfg": false,
      "metar_trigger": false,
      "taf_trigger": false,
      "metar": "METAR LIMJ 101120Z 19007KT 9999 FEW020 BKN022 14/09 Q1005",
      "taf": "TAF LIMJ 101100Z 1012/1112 13007KT 9999 BKN014"
    },
    {
      "icao": "LIPE",
      "alert": "OK",
      "vis_m": 8000,
      "fzfg": false,
      "metar_trigger": false,
      "taf_trigger": false,
      "metar": "METAR LIPE 101120Z 07003KT 020V140 8000 FEW060 12/08 Q1005",
      "taf": "TAF LIPE 101100Z 1012/1112 VRB05KT 7000 SCT020"
    },
    {
      "icao": "LIPH",
      "alert": "OK",
      "vis_m": 9999,
      "fzfg": false,
      "metar_trigger": false,
      "taf_trigger": false,
      "metar": "METAR LIPH 101120Z 17003KT 140V200 9999 SCT040 BKN060 11/06 Q1006",
      "taf": "TAF LIPH 101100Z 1012/1112 VRB05KT 7000 BKN040"
    },
    {
      "icao": "LIPQ",
      "alert": "OK",
      "vis_m": 9999,
      "fzfg": false,
      "metar_trigger": false,
      "taf_trigger": false,
      "metar": "METAR LIPQ 101120Z AUTO VRB01KT 9999 FEW021/// SCT044/// BKN057/// 11/06 Q1005",
      "taf": "TAF LIPQ 101100Z 1012/1112 VRB05KT 9999 BKN040"
    },
    {
      "icao": "LIPR",
      "alert": "OK",
      "vis_m": 9999,
      "fzfg": false,
      "metar_trigger": false,
      "taf_trigger": false,
      "metar": "METAR LIPR 101120Z 06006KT 9999 FEW015 11/08 Q1006",
      "taf": "TAF LIPR 101100Z 1012/1112 VRB05KT 6000 SCT010 BKN020"
    },
    {
      "icao": "LIPX",
      "alert": "OK",
      "vis_m": 9999,
      "fzfg": false,
      "metar_trigger": false,
      "taf_trigger": false,
      "metar": "METAR LIPX 101120Z VRB02KT 9999 FEW018 SCT080 12/07 Q1005",
      "taf": "TAF LIPX 101100Z 1012/1112 VRB04KT 8000 BKN050"
    },
    {
      "icao": "LIPY",
      "alert": "OK",
      "vis_m": 9999,
      "fzfg": false,
      "metar_trigger": false,
      "taf_trigger": false,
      "metar": "METAR LIPY 101120Z AUTO 36005KT 9999 NCD 12/09 Q1006",
      "taf": "TAF LIPY 101100Z 1012/1112 VRB05KT 7000 FEW020 SCT040"
    },
    {
      "icao": "LIPZ",
      "alert": "OK",
      "vis_m": 9999,
      "fzfg": false,
      "metar_trigger": false,
      "taf_trigger": false,
      "metar": "METAR LIPZ 101120Z VRB02KT 9999 FEW040 BKN065 11/05 Q1006 NOSIG",
      "taf": "TAF LIPZ 101100Z 1012/1118 VRB05KT 9999 BKN050"
    },
    {
      "icao": "LIRF",
      "alert": "OK",
      "vis_m": 9999,
      "fzfg": false,
      "metar_trigger": false,
      "taf_trigger": false,
      "metar": "METAR LIRF 101120Z 18005KT 120V220 9999 FEW020 14/09 Q1007 NOSIG",
      "taf": "TAF LIRF 101100Z 1012/1118 22010KT 9999 FEW050"
    },
    {
      "icao": "LIRN",
      "alert": "OK",
      "vis_m": 9999,
      "fzfg": false,
      "metar_trigger": false,
      "taf_trigger": false,
      "metar": "METAR LIRN 101120Z 19006KT 140V230 9999 FEW020 BKN045 14/10 Q1007 NOSIG",
      "taf": "TAF LIRN 101100Z 1012/1112 20010KT 9999 SCT040"
    },
    {
      "icao": "LIRP",
      "alert": "OK",
      "vis_m": 9999,
      "fzfg": false,
      "metar_trigger": false,
      "taf_trigger": false,
      "metar": "METAR LIRP 101115Z 03003KT 9999 BKN050 13/11 Q1007 NOSIG",
      "taf": "TAF LIRP 101100Z 1012/1112 VRB03KT 9999 SCT015 BKN025"
    },
    {
      "icao": "LIRZ",
      "alert": "OK",
      "vis_m": 9999,
      "fzfg": false,
      "metar_trigger": false,
      "taf_trigger": false,
      "metar": "METAR LIRZ 101120Z AUTO VRB02KT 9999 BKN011/// 11/08 Q1006",
      "taf": "TAF LIRZ 101100Z 1012/1112 VRB05KT 7000 BKN010"
    },
    {
      "icao": "LJLJ",
      "alert": "OK",
      "vis_m": 9999,
      "fzfg": false,
      "metar_trigger": false,
      "taf_trigger": false,
      "metar": "METAR LJLJ 101100Z VRB01KT 9999 BKN010 BKN033 07/04 Q1005 NOSIG",
      "taf": "TAF LJLJ 101100Z 1012/1112 VRB02KT 9999 BKN025"
    },
    {
      "icao": "LKMT",
      "alert": "OK",
      "vis_m": 9999,
      "fzfg": false,
      "metar_trigger": false,
      "taf_trigger": false,
      "metar": "METAR LKMT 101130Z 20016KT 9999 FEW028 SCT047 06/02 Q1003 NOSIG",
      "taf": "TAF LKMT 101100Z 1012/1112 21012KT 9999 SCT025"
    },
    {
      "icao": "LKPR",
      "alert": "OK",
      "vis_m": 9999,
      "fzfg": false,
      "metar_trigger": false,
      "taf_trigger": false,
      "metar": "METAR LKPR 101130Z 17004KT 150V240 9999 OVC014 02/M01 Q1001 NOSIG",
      "taf": "TAF LKPR 101100Z 1012/1118 17006KT 9999 OVC020"
    },
    {
      "icao": "LLBG",
      "alert": "OK",
      "vis_m": 9999,
      "fzfg": false,
      "metar_trigger": false,
      "taf_trigger": false,
      "metar": "METAR LLBG 101120Z 23013KT 9999 SCT033 21/12 Q1011 NOSIG",
      "taf": "TAF LLBG 101105Z 1012/1112 25014KT 9999 SCT035"
    },
    {
      "icao": "LMML",
      "alert": "OK",
      "vis_m": 9999,
      "fzfg": false,
      "metar_trigger": false,
      "taf_trigger": false,
      "metar": "METAR LMML 101115Z 25011KT 210V270 9999 FEW027 16/10 Q1011 NOSIG",
      "taf": "TAF LMML 101100Z 1012/1112 28013KT 9999 SCT020"
    },
    {
      "icao": "LOWW",
      "alert": "OK",
      "vis_m": 9999,
      "fzfg": false,
      "metar_trigger": false,
      "taf_trigger": false,
      "metar": "METAR LOWW 101120Z 14016KT 9999 FEW009 BKN010 04/01 Q1004 TEMPO SCT012",
      "taf": "TAF LOWW 101115Z 1012/1118 13015KT 9999 BKN010 TX07/1114Z TN03/1105Z"
    },
    {
      "icao": "LPFR",
      "alert": "OK",
      "vis_m": 9000,
      "fzfg": false,
      "metar_trigger": false,
      "taf_trigger": false,
      "metar": "METAR LPFR 101100Z 25013KT 9000 BKN003 16/15 Q1021",
      "taf": "TAF LPFR 101100Z 1012/1112 25012KT 8000 SCT004 BKN008"
    },
    {
      "icao": "LPMA",
      "alert": "OK",
      "vis_m": 9999,
      "fzfg": false,
      "metar_trigger": false,
      "taf_trigger": false,
      "metar": "METAR LPMA 101100Z 12004KT 9999 FEW015 20/13 Q1025",
      "taf": "TAF LPMA 101100Z 1012/1112 VRB05KT 9999 SCT015"
    },
    {
      "icao": "LPPR",
      "alert": "OK",
      "vis_m": 2000,
      "fzfg": false,
      "metar_trigger": false,
      "taf_trigger": false,
      "metar": "METAR LPPR 101100Z 23011KT 210V270 2000 -RA BR BKN002 BKN005 15/15 Q1011",
      "taf": "TAF LPPR 101100Z 1012/1112 22010KT 6000 SCT004 BKN008"
    },
    {
      "icao": "LPPS",
      "alert": "OK",
      "vis_m": 9999,
      "fzfg": false,
      "metar_trigger": false,
      "taf_trigger": false,
      "metar": "METAR LPPS 101100Z 26009KT 9999 FEW010 18/14 Q1025",
      "taf": "TAF LPPS 101100Z 1012/1118 27008KT 9999 SCT012"
    },
    {
      "icao": "LPPT",
      "alert": "OK",
      "vis_m": 1800,
      "fzfg": false,
      "metar_trigger": false,
      "taf_trigger": false,
      "metar": "METAR LPPT 101100Z 23012KT 1800 DZ BR SCT002 BKN004 16/16 Q1017",
      "taf": "TAF LPPT 101100Z 1012/1118 23013KT 6000 SCT004 BKN008"
    },
    {
      "icao": "LQBK",
      "alert": "OK",
      "vis_m": 9999,
      "fzfg": false,
      "metar_trigger": false,
      "taf_trigger": false,
      "metar": "METAR LQBK 101130Z 34003KT 270V060 9999 -DZ BKN012 05/03 Q1006 NOSIG",
      "taf": ""
    },
    {
      "icao": "LQSA",
      "alert": "OK",
      "vis_m": 9999,
      "fzfg": false,
      "metar_trigger": false,
      "taf_trigger": false,
      "metar": "METAR LQSA 101130Z VRB03KT 9999 -RA FEW040 BKN055 10/05 Q1004 NOSIG",
      "taf": "TAF LQSA 101100Z 1012/1112 VRB02KT 9999 SCT035 TX09/1013Z TN03/1105Z"
    },
    {
      "icao": "LQTZ",
      "alert": "OK",
      "vis_m": 9999,
      "fzfg": false,
      "metar_trigger": false,
      "taf_trigger": false,
      "metar": "METAR LQTZ 101130Z 10003KT 050V190 9999 FEW025 BKN060 09/06 Q1006",
      "taf": ""
    },
    {
      "icao": "LRBC",
      "alert": "OK",
      "vis_m": 9999,
      "fzfg": false,
      "metar_trigger": false,
      "taf_trigger": false,
      "metar": "METAR LRBC 101100Z 15018KT 9999 FEW015 M02/M06 Q1015",
      "taf": "TAF LRBC 101100Z 1012/1021 16015KT 9999 SCT025"
    },
    {
      "icao": "LRBS",
      "alert": "OK",
      "vis_m": 9999,
      "fzfg": false,
      "metar_trigger": false,
      "taf_trigger": false,
      "metar": "METAR LRBS 101100Z 04006KT 340V070 9999 FEW031 BKN049 00/M05 Q1017 NOSIG",
      "taf": "TAF LRBS 101100Z 1012/1112 VRB04KT 9999 SCT040"
    },
    {
      "icao": "LRBV",
      "alert": "OK",
      "vis_m": 9999,
      "fzfg": false,
      "metar_trigger": false,
      "taf_trigger": false,
      "metar": "METAR LRBV 101100Z 12002KT 9999 FEW075 03/M06 Q1010",
      "taf": "TAF LRBV 101100Z 1012/1021 19012KT CAVOK"
    },
    {
      "icao": "LRCL",
      "alert": "OK",
      "vis_m": 9999,
      "fzfg": false,
      "metar_trigger": false,
      "taf_trigger": false,
      "metar": "METAR LRCL 101100Z 14008KT 9999 -SN OVC036 02/M01 Q1010",
      "taf": "TAF LRCL 101100Z 1012/1021 14010KT 9999 OVC035"
    },
    {
      "icao": "LRCV",
      "alert": "OK",
      "vis_m": 3000,
      "fzfg": false,
      "metar_trigger": false,
      "taf_trigger": false,
      "metar": "METAR LRCV 101100Z 10012KT 3000 -SN BR BKN010 BKN015 OVC030 M02/M03 Q1015",
      "taf": "TAF LRCV 101100Z 1012/1021 10012KT 3000 -SN BR BKN010 OVC030"
    },
    {
      "icao": "LRIA",
      "alert": "OK",
      "vis_m": 9999,
      "fzfg": false,
      "metar_trigger": false,
      "taf_trigger": false,
      "metar": "METAR LRIA 101100Z 14014KT 9999 FEW020 M01/M07 Q1016",
      "taf": "TAF LRIA 101100Z 1012/1021 14014KT 9999 SCT020"
    },
    {
      "icao": "LROP",
      "alert": "OK",
      "vis_m": 9999,
      "fzfg": false,
      "metar_trigger": false,
      "taf_trigger": false,
      "metar": "METAR LROP 101100Z 03008KT CAVOK M00/M06 Q1017 NOSIG",
      "taf": "TAF LROP 101100Z 1012/1112 VRB04KT 9999 SCT040"
    },
    {
      "icao": "LRSB",
      "alert": "OK",
      "vis_m": 9999,
      "fzfg": false,
      "metar_trigger": false,
      "taf_trigger": false,
      "metar": "METAR LRSB 101100Z 15012KT 9999 BKN075 SCT083 04/M04 Q1008",
      "taf": "TAF LRSB 101100Z 1012/1112 14016KT 9999 BKN050"
    },
    {
      "icao": "LRSM",
      "alert": "OK",
      "vis_m": 9999,
      "fzfg": false,
      "metar_trigger": false,
      "taf_trigger": false,
      "metar": "METAR LRSM 101100Z 27003KT 9999 OVC028 05/M02 Q1010",
      "taf": "TAF LRSM 101100Z 1012/1021 14006KT 9999 SCT010 OVC025"
    },
    {
      "icao": "LRSV",
      "alert": "OK",
      "vis_m": 9999,
      "fzfg": false,
      "metar_trigger": false,
      "taf_trigger": false,
      "metar": "METAR LRSV 101100Z 15012KT CAVOK M05/M06 Q1011",
      "taf": "TAF LRSV 101100Z 1012/1021 16012KT CAVOK"
    },
    {
      "icao": "LRTM",
      "alert": "OK",
      "vis_m": 9999,
      "fzfg": false,
      "metar_trigger": false,
      "taf_trigger": false,
      "metar": "METAR LRTM 101100Z 08004KT 030V110 9999 SCT037 FEW042CB 04/M04 Q1010",
      "taf": "TAF LRTM 101100Z 1012/1021 10005KT 9999 SCT040"
    },
    {
      "icao": "LRTR",
      "alert": "OK",
      "vis_m": 9999,
      "fzfg": false,
      "metar_trigger": false,
      "taf_trigger": false,
      "metar": "METAR LRTR 101100Z 13009KT 9999 FEW017 OVC040 03/01 Q1010",
      "taf": "TAF LRTR 101100Z 1012/1112 16008KT 9999 OVC040"
    },
    {
      "icao": "LTAC",
      "alert": "OK",
      "vis_m": 9999,
      "fzfg": false,
      "metar_trigger": false,
      "taf_trigger": false,
      "metar": "METAR LTAC 101120Z 08012KT 9999 SCT013 SCT035 BKN100 05/02 Q1007 NOSIG RMK RWY21C 09009KT 030V120 RWY03L 08011KT RWY21R 06009KT 020V100 RWY03R 05012KT RWY21L 07010KT",
      "taf": "TAF LTAC 101040Z 1012/1112 VRB02KT 9999 SCT040 BKN100"
    },
    {
      "icao": "LTFM",
      "alert": "OK",
      "vis_m": 9999,
      "fzfg": false,
      "metar_trigger": false,
      "taf_trigger": false,
      "metar": "METAR LTFM 101120Z 06020KT 9999 BKN016 BKN025 07/03 Q1010 NOSIG RMK RWY17L 06020KT RWY34L 06017KT RWY16R 06022KT RWY36 06019KT RWY18 07019KT",
      "taf": "TAF LTFM 101040Z 1012/1118 05015KT 9999 SCT012 BKN025"
    },
    {
      "icao": "LUKK",
      "alert": "OK",
      "vis_m": 9999,
      "fzfg": false,
      "metar_trigger": false,
      "taf_trigger": false,
      "metar": "METAR LUKK 101130Z 17009KT 9999 OVC023 M03/M06 Q1018 NOSIG",
      "taf": "TAF LUKK 101103Z 1012/1112 15009KT 9999 BKN020"
    },
    {
      "icao": "LWOH",
      "alert": "OK",
      "vis_m": 9999,
      "fzfg": false,
      "metar_trigger": false,
      "taf_trigger": false,
      "metar": "METAR LWOH 101120Z 17006KT 130V210 9999 SCT040 BKN090 10/05 Q1008",
      "taf": "TAF LWOH 101115Z 1012/1112 17008KT 9999 SCT030 BKN090"
    },
    {
      "icao": "LWSK",
      "alert": "OK",
      "vis_m": 9999,
      "fzfg": false,
      "metar_trigger": false,
      "taf_trigger": false,
      "metar": "METAR LWSK 101120Z VRB02KT 9999 BKN020 OVC050 09/04 Q1009 NOSIG",
      "taf": "TAF LWSK 101115Z 1012/1112 VRB02KT 9999 BKN020 OVC050"
    },
    {
      "icao": "LYBE",
      "alert": "OK",
      "vis_m": 9999,
      "fzfg": false,
      "metar_trigger": false,
      "taf_trigger": false,
      "metar": "METAR LYBE 101130Z 14018KT CAVOK 04/M02 Q1008 NOSIG",
      "taf": "TAF LYBE 101100Z 1012/1112 13019KT CAVOK TX14/1112Z TN00/1105Z"
    },
    {
      "icao": "LYNI",
      "alert": "OK",
      "vis_m": 9999,
      "fzfg": false,
      "metar_trigger": false,
      "taf_trigger": false,
      "metar": "METAR LYNI 101130Z 08009KT 9999 FEW017 BKN035 04/M02 Q1010 NOSIG",
      "taf": "TAF LYNI 101100Z 1012/1112 08012KT 9999 SCT017 BKN030 OVC080 TX12/1012Z TN01/1105Z"
    },
    {
      "icao": "LYPG",
      "alert": "OK",
      "vis_m": 8000,
      "fzfg": false,
      "metar_trigger": false,
      "taf_trigger": false,
      "metar": "METAR LYPG 101130Z 33003KT 300V010 8000 -RA FEW010 BKN040 OVC070 10/10 Q1008 NOSIG",
      "taf": "TAF LYPG 101100Z 1012/1112 17006KT 8000 FEW007 BKN040 BKN070 TX12/1013Z TN08/1106Z"
    },
    {
      "icao": "LZIB",
      "alert": "OK",
      "vis_m": 9999,
      "fzfg": false,
      "metar_trigger": false,
      "taf_trigger": false,
      "metar": "METAR LZIB 101130Z 11010KT 9999 FEW012 OVC016 03/M00 Q1006 NOSIG",
      "taf": "TAF LZIB 101115Z 1012/1112 12010KT 9999 SCT013 OVC020"
    },
    {
      "icao": "LZKZ",
      "alert": "OK",
      "vis_m": 7000,
      "fzfg": false,
      "metar_trigger": false,
      "taf_trigger": false,
      "metar": "METAR LZKZ 101130Z 19007KT 7000 -RA OVC006 03/02 Q1008 NOSIG",
      "taf": "TAF LZKZ 101115Z 1012/1112 21008KT 9999 SCT008 BKN016"
    },
    {
      "icao": "LZTT",
      "alert": "OK",
      "vis_m": 9999,
      "fzfg": false,
      "metar_trigger": false,
      "taf_trigger": false,
      "metar": "METAR LZTT 101130Z 26012KT 9999 FEW013 SCT030 04/M01 Q1005 NOSIG",
      "taf": "TAF LZTT 101115Z 1012/1112 25006KT 9999 FEW013 SCT035"
    },
    {
      "icao": "OEJN",
      "alert": "OK",
      "vis_m": 9999,
      "fzfg": false,
      "metar_trigger": false,
      "taf_trigger": false,
      "metar": "METAR OEJN 101100Z 26010KT CAVOK 32/12 Q1010 NOSIG",
      "taf": "TAF OEJN 101100Z 1012/1118 23010KT CAVOK"
    },
    {
      "icao": "OEMA",
      "alert": "OK",
      "vis_m": 9999,
      "fzfg": false,
      "metar_trigger": false,
      "taf_trigger": false,
      "metar": "METAR OEMA 101100Z 22007KT CAVOK 32/M01 Q1014 NOSIG",
      "taf": "TAF OEMA 101100Z 1012/1118 24010KT CAVOK"
    },
    {
      "icao": "OJAI",
      "alert": "OK",
      "vis_m": 3500,
      "fzfg": false,
      "metar_trigger": false,
      "taf_trigger": false,
      "metar": "METAR OJAI 101100Z 25019KT 3500 BLDU NSC 18/07 Q1012 NOSIG",
      "taf": "TAF OJAI 101100Z 1012/1118 26012KT 4000 HZ NSC"
    },
    {
      "icao": "OMAA",
      "alert": "OK",
      "vis_m": 9999,
      "fzfg": false,
      "metar_trigger": false,
      "taf_trigger": false,
      "metar": "METAR OMAA 101130Z 34014KT CAVOK 28/10 Q1014 NOSIG",
      "taf": "TAF OMAA 101100Z 1012/1118 33011KT 8000 NSC"
    },
    {
      "icao": "OMDB",
      "alert": "OK",
      "vis_m": 9999,
      "fzfg": false,
      "metar_trigger": false,
      "taf_trigger": false,
      "metar": "METAR OMDB 101130Z 32007KT 280V010 CAVOK 26/16 Q1014 NOSIG",
      "taf": "TAF OMDB 101100Z 1012/1118 27010KT 8000 NSC"
    },
    {
      "icao": "UAAA",
      "alert": "OK",
      "vis_m": 9999,
      "fzfg": false,
      "metar_trigger": false,
      "taf_trigger": false,
      "metar": "METAR UAAA 101100Z 02003MPS 9999 SCT050CB BKN100 09/02 Q1014 NOSIG",
      "taf": "TAF UAAA 101103Z 1012/1112 10003MPS 3100 BR FU SCT030CB BKN100 TX08/1109Z TNM02/1102Z"
    },
    {
      "icao": "UBBB",
      "alert": "OK",
      "vis_m": 9999,
      "fzfg": false,
      "metar_trigger": false,
      "taf_trigger": false,
      "metar": "METAR UBBB 101130Z 34024G34KT 9999 OVC024 01/M03 Q1020 NOSIG",
      "taf": "TAF UBBB 100440Z 1006/1106 34024G34KT 9999 BKN012 BKN025 TX04/1009Z TN02/1100Z"
    },
    {
      "icao": "UDSG",
      "alert": "OK",
      "vis_m": 9999,
      "fzfg": false,
      "metar_trigger": false,
      "taf_trigger": false,
      "metar": "METAR UDSG 101100Z 22006KT 9999 BKN043 00/M03 Q1011 NOSIG",
      "taf": "TAF UDSG 101100Z 1012/1112 VRB06KT 9999 BKN040"
    },
    {
      "icao": "UDYZ",
      "alert": "OK",
      "vis_m": 6000,
      "fzfg": false,
      "metar_trigger": false,
      "taf_trigger": false,
      "metar": "METAR UDYZ 101100Z 25005KT 6000 -RA FEW008 OVC017 04/02 Q1011 NOSIG",
      "taf": "TAF UDYZ 101100Z 1012/1112 23006KT 6000 BKN020"
    },
    {
      "icao": "UGKO",
      "alert": "OK",
      "vis_m": 9999,
      "fzfg": false,
      "metar_trigger": false,
      "taf_trigger": false,
      "metar": "METAR UGKO 101100Z 15003KT 120V230 9999 BKN045 06/03 Q1015 NOSIG",
      "taf": "TAF UGKO 101100Z 1012/1112 08010KT CAVOK TX09/1111Z TN03/1020Z"
    }
  ]
}