{
  "ts_utc": "2026-02-03T22:40:23Z",
  "threshold_m": 150,
  "source": "stations_override.txt (ICAO list) + aviationweather.gov (METAR/TAF raw)",
  "station_count": 159,
  "stations": [
    {
      "icao": "BIKF",
      "alert": "OK",
      "vis_m": 9999,
      "fzfg": false,
      "metar_trigger": false,
      "taf_trigger": false,
      "metar": "METAR BIKF 032230Z 08016KT CAVOK 03/M01 Q1009",
      "taf": "TAF BIKF 031948Z 0321/0421 07015KT 9999 FEW030 TX03/0321Z TN00/0421Z"
    },
    {
      "icao": "BKPR",
      "alert": "OK",
      "vis_m": 9999,
      "fzfg": false,
      "metar_trigger": false,
      "taf_trigger": false,
      "metar": "METAR BKPR 032230Z 19011KT 9999 SCT080 05/03 Q1015 NOSIG",
      "taf": "TAF BKPR 031730Z 0318/0418 19010KT 9999 SCT040"
    },
    {
      "icao": "EBCI",
      "alert": "OK",
      "vis_m": 9999,
      "fzfg": false,
      "metar_trigger": false,
      "taf_trigger": false,
      "metar": "METAR EBCI 032220Z 18008KT 9999 SCT045 07/05 Q0997 NOSIG",
      "taf": "TAF EBCI 031709Z 0318/0424 20010KT 9999 SCT015 BKN030"
    },
    {
      "icao": "EDDB",
      "alert": "OK",
      "vis_m": 9999,
      "fzfg": false,
      "metar_trigger": false,
      "taf_trigger": false,
      "metar": "METAR EDDB 032220Z AUTO 10012KT 070V130 9999 FEW032 BKN041 M05/M13 Q1009 NOSIG",
      "taf": "TAF EDDB 031700Z 0318/0418 08013KT 9999 OVC025"
    },
    {
      "icao": "EDDH",
      "alert": "OK",
      "vis_m": 9999,
      "fzfg": false,
      "metar_trigger": false,
      "taf_trigger": false,
      "metar": "METAR EDDH 032220Z AUTO 09012KT 060V120 9999 OVC024 M04/M11 Q1007 NOSIG",
      "taf": "TAF EDDH 031700Z 0318/0424 09013KT 9999 BKN035"
    },
    {
      "icao": "EDDK",
      "alert": "OK",
      "vis_m": 9999,
      "fzfg": false,
      "metar_trigger": false,
      "taf_trigger": false,
      "metar": "METAR EDDK 032220Z AUTO 12009KT 9999 BKN046 04/02 Q1000 NOSIG",
      "taf": "TAF EDDK 031700Z 0318/0424 12009KT 9999 BKN025"
    },
    {
      "icao": "EDDN",
      "alert": "OK",
      "vis_m": 8000,
      "fzfg": false,
      "metar_trigger": false,
      "taf_trigger": false,
      "metar": "METAR EDDN 032220Z AUTO 12007KT 8000 NCD M01/M02 Q1004",
      "taf": "TAF EDDN 031700Z 0318/0418 10006KT 9999 SCT035"
    },
    {
      "icao": "EDDS",
      "alert": "OK",
      "vis_m": 3800,
      "fzfg": false,
      "metar_trigger": false,
      "taf_trigger": false,
      "metar": "METAR EDDS 032220Z AUTO VRB01KT 3800 1000 R25/P2000N BR NCD M00/M00 Q1002",
      "taf": "TAF EDDS 031700Z 0318/0418 VRB02KT CAVOK"
    },
    {
      "icao": "EDFH",
      "alert": "OK",
      "vis_m": 300,
      "fzfg": true,
      "metar_trigger": false,
      "taf_trigger": false,
      "metar": "METAR EDFH 032220Z 14012KT 0300 R21/0350N FZFG VV/// M00/M00 Q1000",
      "taf": "TAF EDFH 031700Z 0318/0418 14015KT 4000 BR SCT005 OVC015"
    },
    {
      "icao": "EDJA",
      "alert": "OK",
      "vis_m": 9999,
      "fzfg": false,
      "metar_trigger": false,
      "taf_trigger": false,
      "metar": "METAR EDJA 032220Z AUTO 14003KT 9999 // SCT150/// M01/M02 Q1003",
      "taf": "TAF EDJA 031700Z 0318/0403 22006KT CAVOK"
    },
    {
      "icao": "EDLW",
      "alert": "OK",
      "vis_m": 9999,
      "fzfg": false,
      "metar_trigger": false,
      "taf_trigger": false,
      "metar": "METAR EDLW 032220Z AUTO VRB03KT 9999 // OVC027/// 04/02 Q0999",
      "taf": "TAF EDLW 031700Z 0318/0418 10007KT 9999 BKN025"
    },
    {
      "icao": "EDNY",
      "alert": "OK",
      "vis_m": 9999,
      "fzfg": false,
      "metar_trigger": false,
      "taf_trigger": false,
      "metar": "METAR EDNY 032220Z AUTO 04004KT 360V060 9999 // NCD M01/M01 Q1003",
      "taf": "TAF EDNY 031700Z 0318/0403 04004KT CAVOK"
    },
    {
      "icao": "EDSB",
      "alert": "OK",
      "vis_m": 300,
      "fzfg": false,
      "metar_trigger": false,
      "taf_trigger": false,
      "metar": "METAR EDSB 032220Z AUTO VRB02KT 0300 R21/0375N VV/// M00/M00 Q1002",
      "taf": ""
    },
    {
      "icao": "EETN",
      "alert": "OK",
      "vis_m": 9999,
      "fzfg": false,
      "metar_trigger": false,
      "taf_trigger": false,
      "metar": "METAR EETN 032220Z 01005KT 340V040 9999 FEW010 BKN015 M09/M11 Q1028",
      "taf": "TAF EETN 031730Z 0318/0418 02006KT 9999 SCT020"
    },
    {
      "icao": "EFTU",
      "alert": "OK",
      "vis_m": 9999,
      "fzfg": false,
      "metar_trigger": false,
      "taf_trigger": false,
      "metar": "METAR EFTU 032220Z AUTO VRB01KT 9999 OVC024 M11/M13 Q1029",
      "taf": "TAF EFTU 032030Z 0321/0421 VRB01KT 9999 BKN028"
    },
    {
      "icao": "EGBB",
      "alert": "OK",
      "vis_m": 1100,
      "fzfg": false,
      "metar_trigger": false,
      "taf_trigger": false,
      "metar": "METAR EGBB 032220Z 03003KT 1100 R15/P1500N -RASN OVC003 00/M00 Q0993",
      "taf": "TAF EGBB 031656Z 0318/0418 08009KT 7000 BKN008"
    },
    {
      "icao": "EGGP",
      "alert": "OK",
      "vis_m": 9000,
      "fzfg": false,
      "metar_trigger": false,
      "taf_trigger": false,
      "metar": "METAR EGGP 032220Z 13006KT 9000 -RADZ OVC009 01/M00 Q0993",
      "taf": "TAF EGGP 031702Z 0318/0418 10008KT 9999 BKN016"
    },
    {
      "icao": "EGGW",
      "alert": "OK",
      "vis_m": 2800,
      "fzfg": false,
      "metar_trigger": false,
      "taf_trigger": false,
      "metar": "METAR EGGW 032220Z AUTO VRB02KT 2800 -RADZ FEW002 BKN009 BKN023 00/00 Q0993",
      "taf": ""
    },
    {
      "icao": "EGKK",
      "alert": "OK",
      "vis_m": 6000,
      "fzfg": false,
      "metar_trigger": false,
      "taf_trigger": false,
      "metar": "METAR EGKK 032220Z 07003KT 010V090 6000 -RA BKN003 04/04 Q0993",
      "taf": "TAF EGKK 031655Z 0318/0424 VRB04KT 9999 BKN010"
    },
    {
      "icao": "EGNM",
      "alert": "OK",
      "vis_m": 300,
      "fzfg": false,
      "metar_trigger": false,
      "taf_trigger": false,
      "metar": "METAR EGNM 032150Z 04004KT 020V090 0300 R32/0325N FG VV/// 01/01 Q0994",
      "taf": ""
    },
    {
      "icao": "EGPD",
      "alert": "OK",
      "vis_m": 6000,
      "fzfg": false,
      "metar_trigger": false,
      "taf_trigger": false,
      "metar": "METAR EGPD 032220Z AUTO 11014G25KT 6000 -RA BKN008 OVC020 03/01 Q1001 RERA TEMPO 4000 RA BKN006",
      "taf": "TAF EGPD 031657Z 0318/0418 10012KT 9999 SCT012 BKN025"
    },
    {
      "icao": "EGPF",
      "alert": "OK",
      "vis_m": 9999,
      "fzfg": false,
      "metar_trigger": false,
      "taf_trigger": false,
      "metar": "METAR EGPF 032220Z AUTO 07012KT 9999 BKN015 OVC032 03/01 Q0996",
      "taf": "TAF EGPF 031654Z 0318/0418 08012KT 9999 SCT020"
    },
    {
      "icao": "EHBK",
      "alert": "OK",
      "vis_m": 9999,
      "fzfg": false,
      "metar_trigger": false,
      "taf_trigger": false,
      "metar": "METAR EHBK 032225Z AUTO 18008KT 9999 OVC046 08/06 Q0998",
      "taf": "TAF EHBK 031710Z 0318/0424 18008KT 9999 BKN045"
    },
    {
      "icao": "EHEH",
      "alert": "OK",
      "vis_m": null,
      "fzfg": false,
      "metar_trigger": false,
      "taf_trigger": false,
      "metar": "",
      "taf": "TAF EHEH 031755Z 0318/0424 11007KT 7000 SCT010 BKN012"
    },
    {
      "icao": "EKBI",
      "alert": "OK",
      "vis_m": 9999,
      "fzfg": false,
      "metar_trigger": false,
      "taf_trigger": false,
      "metar": "METAR EKBI 032220Z AUTO 09022G34KT 9999 FEW023/// OVC055/// M02/M07 Q1011",
      "taf": "TAF EKBI 032027Z 0321/0421 10022G40KT 9999 BKN030"
    },
    {
      "icao": "EKCH",
      "alert": "OK",
      "vis_m": 9999,
      "fzfg": false,
      "metar_trigger": false,
      "taf_trigger": false,
      "metar": "METAR EKCH 032220Z AUTO 09023G36KT 9999 OVC019/// M02/M06 Q1016 TEMPO 10020G33KT",
      "taf": "TAF EKCH 032027Z 0321/0421 10020KT 9999 BKN020"
    },
    {
      "icao": "ENAL",
      "alert": "OK",
      "vis_m": 9999,
      "fzfg": false,
      "metar_trigger": false,
      "taf_trigger": false,
      "metar": "METAR ENAL 032220Z AUTO 13014KT 9999 NCD M03/M14 Q1019",
      "taf": "TAF ENAL 032000Z 0321/0406 13016KT 9999 FEW050"
    },
    {
      "icao": "ENBR",
      "alert": "OK",
      "vis_m": 9999,
      "fzfg": false,
      "metar_trigger": false,
      "taf_trigger": false,
      "metar": "METAR ENBR 032220Z 00000KT CAVOK M05/M13 Q1017 RMK WIND 1200FT 11004KT",
      "taf": "TAF ENBR 031700Z 0318/0418 07005KT CAVOK"
    },
    {
      "icao": "ENGM",
      "alert": "OK",
      "vis_m": 9999,
      "fzfg": false,
      "metar_trigger": false,
      "taf_trigger": false,
      "metar": "METAR ENGM 032220Z 01005KT 9999 -SN OVC016 M09/M12 Q1026",
      "taf": "TAF ENGM 031700Z 0318/0418 02005KT 9999 -SN BKN020"
    },
    {
      "icao": "ENHD",
      "alert": "OK",
      "vis_m": 9999,
      "fzfg": false,
      "metar_trigger": false,
      "taf_trigger": false,
      "metar": "METAR ENHD 032220Z AUTO 10023KT 9999 NCD M01/M12 Q1016",
      "taf": "TAF ENHD 031400Z 0315/0323 09015KT CAVOK"
    },
    {
      "icao": "ENTC",
      "alert": "OK",
      "vis_m": 9999,
      "fzfg": false,
      "metar_trigger": false,
      "taf_trigger": false,
      "metar": "METAR ENTC 032220Z 19016KT 9999 FEW024 SCT034 BKN042 M00/M05 Q1022 RMK WIND 2600FT 25009KT",
      "taf": "TAF ENTC 031700Z 0318/0418 19012KT 9999 SCT015 BKN030"
    },
    {
      "icao": "ENTO",
      "alert": "OK",
      "vis_m": 9999,
      "fzfg": false,
      "metar_trigger": false,
      "taf_trigger": false,
      "metar": "METAR ENTO 032220Z AUTO 03010KT 9999 BKN017/// BKN019/// M07/M10 Q1024",
      "taf": "TAF ENTO 031700Z 0318/0418 08010KT 9999 BKN025"
    },
    {
      "icao": "ENVA",
      "alert": "OK",
      "vis_m": 9999,
      "fzfg": false,
      "metar_trigger": false,
      "taf_trigger": false,
      "metar": "METAR ENVA 032220Z 11005KT CAVOK M11/M16 Q1023 RMK WIND 670FT 12008KT",
      "taf": "TAF ENVA 031700Z 0318/0418 09006KT CAVOK"
    },
    {
      "icao": "ENZV",
      "alert": "OK",
      "vis_m": 9999,
      "fzfg": false,
      "metar_trigger": false,
      "taf_trigger": false,
      "metar": "METAR ENZV 032220Z 10014G24KT 070V140 9999 FEW047 M01/M11 Q1016",
      "taf": "TAF ENZV 031700Z 0318/0418 09015KT CAVOK"
    },
    {
      "icao": "EPGD",
      "alert": "OK",
      "vis_m": 9999,
      "fzfg": false,
      "metar_trigger": false,
      "taf_trigger": false,
      "metar": "METAR EPGD 032230Z 09008KT CAVOK M14/M17 Q1019",
      "taf": "TAF EPGD 031730Z 0318/0418 11008KT CAVOK"
    },
    {
      "icao": "EPKK",
      "alert": "OK",
      "vis_m": 2500,
      "fzfg": false,
      "metar_trigger": false,
      "taf_trigger": false,
      "metar": "METAR EPKK 032230Z 04006KT 2500 -SN BR SCT010 BKN021 M04/M06 Q1010",
      "taf": "TAF EPKK 032030Z 0321/0421 06008KT 4000 -SN BR OVC012"
    },
    {
      "icao": "EPKT",
      "alert": "OK",
      "vis_m": 5000,
      "fzfg": false,
      "metar_trigger": false,
      "taf_trigger": false,
      "metar": "METAR EPKT 032230Z 07007KT 5000 -SN BR FEW006 BKN021 M04/M05 Q1009",
      "taf": "TAF EPKT 031730Z 0318/0418 08010KT 9999 BKN040"
    },
    {
      "icao": "EPLB",
      "alert": "OK",
      "vis_m": 9999,
      "fzfg": false,
      "metar_trigger": false,
      "taf_trigger": false,
      "metar": "METAR EPLB 032230Z 11013KT 9999 OVC042 M08/M13 Q1016",
      "taf": "TAF EPLB 031730Z 0318/0418 09010KT 9999 BKN022"
    },
    {
      "icao": "EPMO",
      "alert": "OK",
      "vis_m": 9999,
      "fzfg": false,
      "metar_trigger": false,
      "taf_trigger": false,
      "metar": "METAR EPMO 032230Z 07015KT 9999 BKN020 M11/M16 Q1016",
      "taf": "TAF EPMO 031730Z 0318/0418 09009KT 9999 BKN027"
    },
    {
      "icao": "EPPO",
      "alert": "OK",
      "vis_m": 9999,
      "fzfg": false,
      "metar_trigger": false,
      "taf_trigger": false,
      "metar": "METAR EPPO 032230Z 08012KT CAVOK M09/M14 Q1012",
      "taf": ""
    },
    {
      "icao": "EPRA",
      "alert": "OK",
      "vis_m": 9999,
      "fzfg": false,
      "metar_trigger": false,
      "taf_trigger": false,
      "metar": "METAR EPRA 032230Z 10011KT 9999 FEW027 BKN036 M07/M13 Q1014",
      "taf": "TAF EPRA 032030Z 0321/0406 08010KT 9999 BKN030"
    },
    {
      "icao": "EPRZ",
      "alert": "OK",
      "vis_m": 2600,
      "fzfg": false,
      "metar_trigger": false,
      "taf_trigger": false,
      "metar": "METAR EPRZ 032230Z 09014KT 2600 -SN BR SCT015 BKN020 M06/M08 Q1014",
      "taf": "TAF EPRZ 031730Z 0318/0418 10010KT 9999 SCT032"
    },
    {
      "icao": "EPSC",
      "alert": "OK",
      "vis_m": 9999,
      "fzfg": false,
      "metar_trigger": false,
      "taf_trigger": false,
      "metar": "METAR EPSC 032230Z 08011KT 9999 OVC012 M09/M14 Q1013",
      "taf": ""
    },
    {
      "icao": "EPSY",
      "alert": "OK",
      "vis_m": 9999,
      "fzfg": false,
      "metar_trigger": false,
      "taf_trigger": false,
      "metar": "METAR EPSY 032230Z 07005KT 030V130 CAVOK M14/M17 Q1019",
      "taf": "TAF EPSY 032030Z 0321/0406 08008KT CAVOK"
    },
    {
      "icao": "EPWA",
      "alert": "OK",
      "vis_m": 9999,
      "fzfg": false,
      "metar_trigger": false,
      "taf_trigger": false,
      "metar": "METAR EPWA 032230Z 08012KT 9999 FEW014 BKN035 M09/M16 Q1016 NOSIG",
      "taf": "TAF EPWA 032030Z 0321/0421 09010KT 9999 BKN030"
    },
    {
      "icao": "EPWR",
      "alert": "OK",
      "vis_m": 4000,
      "fzfg": false,
      "metar_trigger": false,
      "taf_trigger": false,
      "metar": "METAR EPWR 032230Z 11008KT 4000 -SHGS -SN BKN010 M04/M06 Q1010",
      "taf": "TAF EPWR 032030Z 0321/0421 10010KT 6000 -SN SCT012 BKN025"
    },
    {
      "icao": "ESGG",
      "alert": "OK",
      "vis_m": 9999,
      "fzfg": false,
      "metar_trigger": false,
      "taf_trigger": false,
      "metar": "METAR ESGG 032220Z 08013KT CAVOK M05/M09 Q1019",
      "taf": "TAF ESGG 032030Z 0321/0421 08015KT CAVOK"
    },
    {
      "icao": "ESKN",
      "alert": "OK",
      "vis_m": 9999,
      "fzfg": false,
      "metar_trigger": false,
      "taf_trigger": false,
      "metar": "METAR ESKN 032220Z 04009KT 9999 BKN030 M06/M09 Q1026",
      "taf": "TAF ESKN 032030Z 0321/0421 05008KT 9999 BKN030"
    },
    {
      "icao": "ESMS",
      "alert": "OK",
      "vis_m": 9999,
      "fzfg": false,
      "metar_trigger": false,
      "taf_trigger": false,
      "metar": "METAR ESMS 032220Z 09020KT 9999 OVC017 M03/M06 Q1015",
      "taf": "TAF ESMS 032027Z 0321/0421 09020KT 9999 BKN016"
    },
    {
      "icao": "ESSA",
      "alert": "OK",
      "vis_m": 9999,
      "fzfg": false,
      "metar_trigger": false,
      "taf_trigger": false,
      "metar": "METAR ESSA 032220Z 04007KT CAVOK M10/M12 Q1028 NOSIG",
      "taf": "TAF ESSA 032030Z 0321/0421 03006KT 9999 SCT025"
    },
    {
      "icao": "EYKA",
      "alert": "OK",
      "vis_m": 9999,
      "fzfg": false,
      "metar_trigger": false,
      "taf_trigger": false,
      "metar": "METAR EYKA 032220Z 09006KT CAVOK M17/M18 Q1025",
      "taf": "TAF EYKA 031712Z 0318/0418 VRB04KT 5000 BR SCT005"
    },
    {
      "icao": "EYPA",
      "alert": "OK",
      "vis_m": 9999,
      "fzfg": false,
      "metar_trigger": false,
      "taf_trigger": false,
      "metar": "METAR EYPA 032220Z 08004KT CAVOK M13/M16 Q1025",
      "taf": "TAF EYPA 031712Z 0318/0418 VRB04KT 9000 NSC"
    },
    {
      "icao": "EYVI",
      "alert": "OK",
      "vis_m": 9999,
      "fzfg": false,
      "metar_trigger": false,
      "taf_trigger": false,
      "metar": "METAR EYVI 032220Z 09003KT CAVOK M15/M17 Q1024 NOSIG",
      "taf": "TAF EYVI 031711Z 0318/0418 VRB04KT 5000 BR SCT005"
    },
    {
      "icao": "GCFV",
      "alert": "OK",
      "vis_m": 9999,
      "fzfg": false,
      "metar_trigger": false,
      "taf_trigger": false,
      "metar": "METAR GCFV 032230Z VRB03KT 9999 SCT025 17/12 Q1019",
      "taf": "TAF GCFV 032000Z 0321/0421 26005KT 9999 FEW030 TX22/0414Z TN16/0406Z"
    },
    {
      "icao": "GCLP",
      "alert": "OK",
      "vis_m": 9999,
      "fzfg": false,
      "metar_trigger": false,
      "taf_trigger": false,
      "metar": "METAR GCLP 032230Z 00000KT 9999 FEW025 18/12 Q1019 NOSIG",
      "taf": "TAF GCLP 032000Z 0321/0421 30005KT 9999 SCT030 TX22/0414Z TN14/0406Z"
    },
    {
      "icao": "GCTS",
      "alert": "OK",
      "vis_m": 9999,
      "fzfg": false,
      "metar_trigger": false,
      "taf_trigger": false,
      "metar": "METAR GCTS 032230Z VRB01KT 9999 FEW035 17/10 Q1019 NOSIG",
      "taf": "TAF GCTS 032000Z 0321/0421 31007KT 9999 FEW030 TX24/0414Z TN16/0406Z"
    },
    {
      "icao": "GMAD",
      "alert": "OK",
      "vis_m": 8000,
      "fzfg": false,
      "metar_trigger": false,
      "taf_trigger": false,
      "metar": "METAR GMAD 032230Z 19007KT 8000 NSC 14/14 Q1017 NOSIG",
      "taf": "TAF GMAD 031700Z 0318/0424 26012KT 8000 SCT016 SCT080"
    },
    {
      "icao": "GMMN",
      "alert": "OK",
      "vis_m": 6000,
      "fzfg": false,
      "metar_trigger": false,
      "taf_trigger": false,
      "metar": "METAR GMMN 032230Z 23019KT 6000 -RA BKN006 BKN016 13/11 Q1014 NOSIG",
      "taf": "TAF GMMN 031700Z 0318/0424 23015KT 8000 SCT016TCU BKN020"
    },
    {
      "icao": "GMMX",
      "alert": "OK",
      "vis_m": 9999,
      "fzfg": false,
      "metar_trigger": false,
      "taf_trigger": false,
      "metar": "METAR GMMX 032230Z 21006KT 9999 FEW026 SCT100 13/10 Q1017 NOSIG",
      "taf": "TAF GMMX 031700Z 0318/0424 24006KT 8000 SCT023 SCT100"
    },
    {
      "icao": "HEGN",
      "alert": "OK",
      "vis_m": 9999,
      "fzfg": false,
      "metar_trigger": false,
      "taf_trigger": false,
      "metar": "METAR HEGN 032200Z 29010KT CAVOK 17/06 Q1020 NOSIG",
      "taf": "TAF HEGN 031700Z 0318/0424 32010G22KT CAVOK"
    },
    {
      "icao": "HEMA",
      "alert": "OK",
      "vis_m": 9999,
      "fzfg": false,
      "metar_trigger": false,
      "taf_trigger": false,
      "metar": "METAR HEMA 032200Z 31010KT CAVOK 18/11 Q1019 NOSIG",
      "taf": "TAF HEMA 031700Z 0318/0424 33008G20KT 6000 NSC"
    },
    {
      "icao": "HESH",
      "alert": "OK",
      "vis_m": 9999,
      "fzfg": false,
      "metar_trigger": false,
      "taf_trigger": false,
      "metar": "METAR HESH 032200Z 34013KT CAVOK 19/07 Q1019 NOSIG",
      "taf": "TAF HESH 031700Z 0318/0424 36013KT CAVOK"
    },
    {
      "icao": "HESX",
      "alert": "OK",
      "vis_m": 9999,
      "fzfg": false,
      "metar_trigger": false,
      "taf_trigger": false,
      "metar": "METAR HESX 032200Z 34002KT CAVOK 11/08 Q1022 NOSIG",
      "taf": "TAF HESX 031700Z 0318/0424 28010KT CAVOK"
    },
    {
      "icao": "LATI",
      "alert": "OK",
      "vis_m": 9999,
      "fzfg": false,
      "metar_trigger": false,
      "taf_trigger": false,
      "metar": "METAR LATI 032220Z 14004KT 9999 SCT110 07/04 Q1014 NOSIG",
      "taf": "TAF LATI 031700Z 0318/0418 VRB03KT CAVOK TX19/0413Z TN09/0406Z"
    },
    {
      "icao": "LBPD",
      "alert": "OK",
      "vis_m": 9999,
      "fzfg": false,
      "metar_trigger": false,
      "taf_trigger": false,
      "metar": "METAR LBPD 032230Z AUTO 00000KT 9999 OVC014/// M00/M00 Q1022",
      "taf": "TAF LBPD 031700Z 0318/0418 VRB03KT 9999 OVC015"
    },
    {
      "icao": "LBSF",
      "alert": "OK",
      "vis_m": 9999,
      "fzfg": false,
      "metar_trigger": false,
      "taf_trigger": false,
      "metar": "METAR LBSF 032230Z AUTO 09008KT 9999 NSC M02/M03 Q1019 NOSIG",
      "taf": "TAF LBSF 031700Z 0318/0418 10010KT 9999 SCT050"
    },
    {
      "icao": "LBWN",
      "alert": "OK",
      "vis_m": 9999,
      "fzfg": false,
      "metar_trigger": false,
      "taf_trigger": false,
      "metar": "METAR LBWN 032230Z AUTO 16004KT 120V190 9999 OVC016/// 03/01 Q1021 NOSIG",
      "taf": "TAF LBWN 031700Z 0318/0418 10010KT 9999 SCT020 BKN040"
    },
    {
      "icao": "LCLK",
      "alert": "OK",
      "vis_m": 9999,
      "fzfg": false,
      "metar_trigger": false,
      "taf_trigger": false,
      "metar": "METAR LCLK 032230Z 34007KT 9999 FEW050 11/07 Q1019 NOSIG",
      "taf": "TAF LCLK 031730Z 0318/0418 29008KT CAVOK"
    },
    {
      "icao": "LCPH",
      "alert": "OK",
      "vis_m": 9999,
      "fzfg": false,
      "metar_trigger": false,
      "taf_trigger": false,
      "metar": "METAR LCPH 032230Z 02010KT CAVOK 10/06 Q1019 NOSIG",
      "taf": "TAF LCPH 031730Z 0318/0418 02009KT CAVOK"
    },
    {
      "icao": "LEAL",
      "alert": "OK",
      "vis_m": 9999,
      "fzfg": false,
      "metar_trigger": false,
      "taf_trigger": false,
      "metar": "METAR LEAL 032230Z 27002KT CAVOK 08/04 Q1003 NOSIG",
      "taf": "TAF LEAL 031700Z 0318/0418 26008KT 9999 FEW030 TX18/0413Z TN07/0407Z"
    },
    {
      "icao": "LEBB",
      "alert": "OK",
      "vis_m": 9999,
      "fzfg": false,
      "metar_trigger": false,
      "taf_trigger": false,
      "metar": "METAR LEBB 032230Z 12006KT 070V190 9999 SCT050 11/03 Q0994 NOSIG",
      "taf": ""
    },
    {
      "icao": "LEBL",
      "alert": "OK",
      "vis_m": 9999,
      "fzfg": false,
      "metar_trigger": false,
      "taf_trigger": false,
      "metar": "METAR LEBL 032230Z VRB02KT 9999 FEW020 08/05 Q1000 NOSIG",
      "taf": "TAF LEBL 031700Z 0318/0418 24010KT 9999 FEW020 TX14/0414Z TN05/0406Z"
    },
    {
      "icao": "LECH",
      "alert": "OK",
      "vis_m": 9999,
      "fzfg": false,
      "metar_trigger": false,
      "taf_trigger": false,
      "metar": "METAR LECH 032230Z AUTO 22006KT 170V280 CAVOK 06/02 Q1000",
      "taf": ""
    },
    {
      "icao": "LEMD",
      "alert": "OK",
      "vis_m": 9999,
      "fzfg": false,
      "metar_trigger": false,
      "taf_trigger": false,
      "metar": "METAR LEMD 032230Z 18008KT 9999 SCT020 BKN029 06/04 Q0999 NOSIG",
      "taf": "TAF LEMD 031700Z 0318/0424 22010KT 9999 SCT020 TX12/0414Z TN04/0407Z"
    },
    {
      "icao": "LEMG",
      "alert": "OK",
      "vis_m": 9000,
      "fzfg": false,
      "metar_trigger": false,
      "taf_trigger": false,
      "metar": "METAR LEMG 032230Z 07003KT 030V110 9000 -RA SCT030 BKN040 BKN060 11/10 Q1004 RERA TEMPO 4000 RA BKN015",
      "taf": "TAF LEMG 031700Z 0318/0418 VRB03KT 9999 SCT020 TX16/0414Z TN10/0407Z"
    },
    {
      "icao": "LEVC",
      "alert": "OK",
      "vis_m": 9999,
      "fzfg": false,
      "metar_trigger": false,
      "taf_trigger": false,
      "metar": "METAR LEVC 032230Z 24009KT CAVOK 10/04 Q1002 NOSIG",
      "taf": "TAF LEVC 031700Z 0318/0418 22007KT 9999 FEW030 TX19/0413Z TN08/0406Z"
    },
    {
      "icao": "LEXJ",
      "alert": "OK",
      "vis_m": 9999,
      "fzfg": false,
      "metar_trigger": false,
      "taf_trigger": false,
      "metar": "METAR LEXJ 032230Z AUTO 20017G27KT 160V250 CAVOK 12/02 Q0991",
      "taf": "TAF LEXJ 032000Z 0321/0421 20009KT CAVOK TX16/0416Z TN08/0404Z"
    },
    {
      "icao": "LEZG",
      "alert": "OK",
      "vis_m": 9999,
      "fzfg": false,
      "metar_trigger": false,
      "taf_trigger": false,
      "metar": "METAR LEZG 032230Z 10006KT CAVOK 06/04 Q0999 NOSIG",
      "taf": "TAF LEZG 031700Z 0318/0418 23008KT 9999 FEW020 TX12/0414Z TN05/0406Z"
    },
    {
      "icao": "LEZL",
      "alert": "OK",
      "vis_m": 7000,
      "fzfg": false,
      "metar_trigger": false,
      "taf_trigger": false,
      "metar": "SPECI LEZL 032237Z 20009KT 140V240 7000 RA BKN006 BKN020 13/12 Q1001 NOSIG",
      "taf": "TAF LEZL 032000Z 0321/0421 18009KT 9999 BKN020 TX18/0415Z TN12/0407Z"
    },
    {
      "icao": "LFBD",
      "alert": "OK",
      "vis_m": 9999,
      "fzfg": false,
      "metar_trigger": false,
      "taf_trigger": false,
      "metar": "METAR LFBD 032230Z AUTO 16007KT CAVOK 07/03 Q0995 TEMPO BKN060TCU",
      "taf": "TAF LFBD 031700Z 0318/0424 22005KT CAVOK TX12/0417Z TN06/0406Z"
    },
    {
      "icao": "LFLL",
      "alert": "OK",
      "vis_m": 9999,
      "fzfg": false,
      "metar_trigger": false,
      "taf_trigger": false,
      "metar": "METAR LFLL 032230Z 14007KT CAVOK 08/05 Q1000 NOSIG",
      "taf": "TAF LFLL 031700Z 0318/0424 15006KT CAVOK"
    },
    {
      "icao": "LFLS",
      "alert": "OK",
      "vis_m": 9999,
      "fzfg": false,
      "metar_trigger": false,
      "taf_trigger": false,
      "metar": "METAR LFLS 032230Z AUTO 10005KT 070V130 CAVOK 02/01 Q1001",
      "taf": "TAF LFLS 031400Z 0315/0415 24008KT CAVOK"
    },
    {
      "icao": "LFMN",
      "alert": "OK",
      "vis_m": 9999,
      "fzfg": false,
      "metar_trigger": false,
      "taf_trigger": false,
      "metar": "METAR LFMN 032230Z 33010KT 9999 SCT025 BKN032 09/07 Q1004 RETS NOSIG",
      "taf": "TAF LFMN 032000Z 0321/0503 34010KT 9999 BKN030"
    },
    {
      "icao": "LFOB",
      "alert": "OK",
      "vis_m": 9999,
      "fzfg": false,
      "metar_trigger": false,
      "taf_trigger": false,
      "metar": "METAR LFOB 032230Z AUTO 19005KT CAVOK 06/06 Q0996 NOSIG",
      "taf": "TAF LFOB 031700Z 0318/0418 21010KT 9999 SCT020"
    },
    {
      "icao": "LFPO",
      "alert": "OK",
      "vis_m": 9999,
      "fzfg": false,
      "metar_trigger": false,
      "taf_trigger": false,
      "metar": "METAR LFPO 032230Z 19006KT CAVOK 06/05 Q0997 NOSIG",
      "taf": "TAF LFPO 031700Z 0318/0424 20009KT 9999 SCT025"
    },
    {
      "icao": "LFSB",
      "alert": "OK",
      "vis_m": 9999,
      "fzfg": false,
      "metar_trigger": false,
      "taf_trigger": false,
      "metar": "METAR LFSB 032230Z AUTO 18005KT CAVOK 05/04 Q1002 NOSIG",
      "taf": "TAF LFSB 031700Z 0318/0418 16004KT CAVOK"
    },
    {
      "icao": "LGAV",
      "alert": "OK",
      "vis_m": 9999,
      "fzfg": false,
      "metar_trigger": false,
      "taf_trigger": false,
      "metar": "METAR LGAV 032220Z VRB02KT 9999 FEW020 09/06 Q1020 NOSIG",
      "taf": "TAF LGAV 031700Z 0318/0418 21010KT 9999 FEW025"
    },
    {
      "icao": "LGTS",
      "alert": "OK",
      "vis_m": 9999,
      "fzfg": false,
      "metar_trigger": false,
      "taf_trigger": false,
      "metar": "METAR LGTS 032220Z VRB02KT 9999 FEW020 BKN030 10/10 Q1020 NOSIG",
      "taf": "TAF LGTS 031700Z 0318/0418 VRB03KT 9999 SCT030"
    },
    {
      "icao": "LHBP",
      "alert": "OK",
      "vis_m": 9000,
      "fzfg": false,
      "metar_trigger": false,
      "taf_trigger": false,
      "metar": "METAR LHBP 032230Z 07006KT 9000 OVC006 01/00 Q1012 TEMPO -FZRA",
      "taf": "TAF LHBP 031715Z 0318/0418 10010KT 5000 PL FZRA BKN007 OVC020"
    },
    {
      "icao": "LHDC",
      "alert": "OK",
      "vis_m": 8000,
      "fzfg": false,
      "metar_trigger": false,
      "taf_trigger": false,
      "metar": "METAR LHDC 032215Z AUTO 08009KT 8000 -RA OVC044 03/02 Q1013",
      "taf": "TAF LHDC 031415Z 0315/0324 08006KT 7000 -SN OVC030"
    },
    {
      "icao": "LIBD",
      "alert": "OK",
      "vis_m": 9999,
      "fzfg": false,
      "metar_trigger": false,
      "taf_trigger": false,
      "metar": "METAR LIBD 032220Z 17008KT CAVOK 15/12 Q1009",
      "taf": "TAF LIBD 031700Z 0318/0418 18012KT CAVOK"
    },
    {
      "icao": "LIBG",
      "alert": "OK",
      "vis_m": null,
      "fzfg": false,
      "metar_trigger": false,
      "taf_trigger": false,
      "metar": "",
      "taf": "TAF LIBG 031700Z 0318/0403 17020G30KT 9999 FEW010 SCT020"
    },
    {
      "icao": "LIBP",
      "alert": "OK",
      "vis_m": 9999,
      "fzfg": false,
      "metar_trigger": false,
      "taf_trigger": false,
      "metar": "METAR LIBP 032220Z AUTO 34003KT 310V010 9999 SCT077/// BKN100/// 11/09 Q1007",
      "taf": "TAF LIBP 031700Z 0318/0418 VRB05KT 9999 SCT050"
    },
    {
      "icao": "LIBR",
      "alert": "OK",
      "vis_m": 9999,
      "fzfg": false,
      "metar_trigger": false,
      "taf_trigger": false,
      "metar": "METAR LIBR 032220Z 18013KT 9999 FEW015 14/12 Q1011",
      "taf": "TAF LIBR 031700Z 0318/0418 16025G35KT 9999 SCT030"
    },
    {
      "icao": "LICA",
      "alert": "OK",
      "vis_m": 9999,
      "fzfg": false,
      "metar_trigger": false,
      "taf_trigger": false,
      "metar": "METAR LICA 032220Z AUTO 08018KT 9999 NCD 14/12 Q1010",
      "taf": "TAF LICA 031700Z 0318/0418 07015KT 9999 SCT025"
    },
    {
      "icao": "LICC",
      "alert": "OK",
      "vis_m": 9999,
      "fzfg": false,
      "metar_trigger": false,
      "taf_trigger": false,
      "metar": "METAR LICC 032220Z 06006KT CAVOK 15/11 Q1011",
      "taf": "TAF LICC 031700Z 0318/0418 VRB05KT 9999 FEW030"
    },
    {
      "icao": "LICJ",
      "alert": "OK",
      "vis_m": 9999,
      "fzfg": false,
      "metar_trigger": false,
      "taf_trigger": false,
      "metar": "METAR LICJ 032220Z 25003KT 180V300 CAVOK 16/11 Q1005",
      "taf": "TAF LICJ 031700Z 0318/0418 18015KT 9999 SCT030"
    },
    {
      "icao": "LIMC",
      "alert": "OK",
      "vis_m": 2500,
      "fzfg": false,
      "metar_trigger": false,
      "taf_trigger": false,
      "metar": "METAR LIMC 032220Z VRB02KT 2500 -RA BR OVC003 04/04 Q1008 NOSIG",
      "taf": ""
    },
    {
      "icao": "LIME",
      "alert": "OK",
      "vis_m": 6000,
      "fzfg": false,
      "metar_trigger": false,
      "taf_trigger": false,
      "metar": "METAR LIME 032220Z 32002KT 6000 SCT004 BKN010 05/05 Q1007 NOSIG",
      "taf": "TAF LIME 031700Z 0318/0418 VRB05KT 6000 SCT006 BKN020"
    },
    {
      "icao": "LIMF",
      "alert": "OK",
      "vis_m": 6000,
      "fzfg": false,
      "metar_trigger": false,
      "taf_trigger": false,
      "metar": "METAR LIMF 032220Z 09002KT 6000 SCT030 03/01 Q1007",
      "taf": "TAF LIMF 031700Z 0318/0418 VRB05KT 6000 SCT030"
    },
    {
      "icao": "LIMJ",
      "alert": "OK",
      "vis_m": 9999,
      "fzfg": false,
      "metar_trigger": false,
      "taf_trigger": false,
      "metar": "METAR LIMJ 032220Z 04016KT 9999 SCT025 SCT040 06/02 Q1006",
      "taf": "TAF LIMJ 031700Z 0318/0418 35015KT 9999 BKN030"
    },
    {
      "icao": "LIPE",
      "alert": "OK",
      "vis_m": 5000,
      "fzfg": false,
      "metar_trigger": false,
      "taf_trigger": false,
      "metar": "METAR LIPE 032220Z 26006KT 5000 BR OVC010 05/04 Q1008",
      "taf": "TAF LIPE 031700Z 0318/0418 27005KT 6000 FEW005 BKN014"
    },
    {
      "icao": "LIPH",
      "alert": "OK",
      "vis_m": 9999,
      "fzfg": false,
      "metar_trigger": false,
      "taf_trigger": false,
      "metar": "METAR LIPH 032220Z AUTO VRB02KT 9999 BKN012/// 05/04 Q1007",
      "taf": "TAF LIPH 031700Z 0318/0418 VRB06KT 6000 SCT020"
    },
    {
      "icao": "LIPQ",
      "alert": "OK",
      "vis_m": 4400,
      "fzfg": false,
      "metar_trigger": false,
      "taf_trigger": false,
      "metar": "METAR LIPQ 032220Z AUTO 10003KT 4400 BR BKN033/// OVC085/// 08/08 Q1007",
      "taf": "TAF LIPQ 031700Z 0318/0418 VRB05KT 9000 SCT020"
    },
    {
      "icao": "LIPR",
      "alert": "OK",
      "vis_m": 3100,
      "fzfg": false,
      "metar_trigger": false,
      "taf_trigger": false,
      "metar": "METAR LIPR 032220Z AUTO 30005KT 3100 -RA BR OVC006/// 07/06 Q1007",
      "taf": "TAF LIPR 031700Z 0318/0418 32008KT 9999 BKN040"
    },
    {
      "icao": "LIPX",
      "alert": "OK",
      "vis_m": 9999,
      "fzfg": false,
      "metar_trigger": false,
      "taf_trigger": false,
      "metar": "METAR LIPX 032220Z VRB02KT 9999 FEW020 BKN080 06/05 Q1007",
      "taf": "TAF LIPX 031700Z 0318/0418 VRB05KT 6000 BKN006"
    },
    {
      "icao": "LIPY",
      "alert": "OK",
      "vis_m": 3900,
      "fzfg": false,
      "metar_trigger": false,
      "taf_trigger": false,
      "metar": "METAR LIPY 032220Z AUTO 35003KT 320V030 3900 -RA BR OVC003/// 09/08 Q1007",
      "taf": "TAF LIPY 031700Z 0318/0418 VRB05KT 9999 SCT050"
    },
    {
      "icao": "LIPZ",
      "alert": "OK",
      "vis_m": 9999,
      "fzfg": false,
      "metar_trigger": false,
      "taf_trigger": false,
      "metar": "METAR LIPZ 032220Z 31003KT 290V360 9999 BKN010 07/06 Q1007 NOSIG",
      "taf": "TAF LIPZ 031700Z 0318/0424 VRB05KT 8000 FEW020"
    },
    {
      "icao": "LIRF",
      "alert": "OK",
      "vis_m": 9000,
      "fzfg": false,
      "metar_trigger": false,
      "taf_trigger": false,
      "metar": "METAR LIRF 032220Z 13007KT 110V170 9000 -RA FEW020 SCT040 12/12 Q1006 NOSIG",
      "taf": "TAF LIRF 031700Z 0318/0424 15015KT 9999 SCT030"
    },
    {
      "icao": "LIRN",
      "alert": "OK",
      "vis_m": 9999,
      "fzfg": false,
      "metar_trigger": false,
      "taf_trigger": false,
      "metar": "METAR LIRN 032220Z 20005KT 170V230 CAVOK 15/11 Q1008 NOSIG",
      "taf": "TAF LIRN 031700Z 0318/0418 17015KT 9999 SCT030"
    },
    {
      "icao": "LIRP",
      "alert": "OK",
      "vis_m": 9999,
      "fzfg": false,
      "metar_trigger": false,
      "taf_trigger": false,
      "metar": "METAR LIRP 032215Z VRB01KT 9999 SCT030 SCT040 11/10 Q1005 NOSIG",
      "taf": "TAF LIRP 031700Z 0318/0418 09010KT 9999 SCT040"
    },
    {
      "icao": "LIRZ",
      "alert": "OK",
      "vis_m": 4800,
      "fzfg": false,
      "metar_trigger": false,
      "taf_trigger": false,
      "metar": "METAR LIRZ 032220Z AUTO 12002KT 4800 -RA BR BKN006/// BKN043/// BKN056/// 10/10 Q1006",
      "taf": "TAF LIRZ 031700Z 0318/0418 VRB05KT 9999 BKN020"
    },
    {
      "icao": "LJLJ",
      "alert": "OK",
      "vis_m": 4000,
      "fzfg": false,
      "metar_trigger": false,
      "taf_trigger": false,
      "metar": "METAR LJLJ 032230Z 30004KT 4000 BR FEW002 BKN013 BKN023 03/02 Q1008 NOSIG",
      "taf": "TAF LJLJ 031700Z 0318/0418 11002KT 7000 -RA FEW004 OVC020"
    },
    {
      "icao": "LKMT",
      "alert": "OK",
      "vis_m": 6000,
      "fzfg": false,
      "metar_trigger": false,
      "taf_trigger": false,
      "metar": "METAR LKMT 032230Z 02003KT 6000 OVC025 M04/M06 Q1009 TEMPO 4500 BR",
      "taf": "TAF LKMT 031700Z 0318/0418 02006KT 8000 OVC030"
    },
    {
      "icao": "LKPR",
      "alert": "OK",
      "vis_m": 7000,
      "fzfg": false,
      "metar_trigger": false,
      "taf_trigger": false,
      "metar": "METAR LKPR 032230Z 14004KT 7000 OVC006 M01/M02 Q1006 NOSIG",
      "taf": "TAF LKPR 032000Z 0321/0503 11008KT 9000 OVC015"
    },
    {
      "icao": "LLBG",
      "alert": "OK",
      "vis_m": 9999,
      "fzfg": false,
      "metar_trigger": false,
      "taf_trigger": false,
      "metar": "METAR LLBG 032220Z 30008KT 9999 FEW040 16/09 Q1020 NOSIG",
      "taf": "TAF LLBG 031703Z 0318/0418 28007KT 9999 SCT035"
    },
    {
      "icao": "LMML",
      "alert": "OK",
      "vis_m": 9999,
      "fzfg": false,
      "metar_trigger": false,
      "taf_trigger": false,
      "metar": "METAR LMML 032215Z 13014KT CAVOK 15/13 Q1008 NOSIG",
      "taf": "TAF LMML 031700Z 0318/0418 15012KT CAVOK"
    },
    {
      "icao": "LOWW",
      "alert": "OK",
      "vis_m": 9999,
      "fzfg": false,
      "metar_trigger": false,
      "taf_trigger": false,
      "metar": "METAR LOWW 032220Z 13005KT 9999 FEW009 SCT011 BKN012 00/M01 Q1009 TEMPO BKN008",
      "taf": "TAF LOWW 032015Z 0321/0503 12010KT 9999 OVC009 TX01/0503Z TNM00/0400Z"
    },
    {
      "icao": "LPFR",
      "alert": "OK",
      "vis_m": 4000,
      "fzfg": false,
      "metar_trigger": false,
      "taf_trigger": false,
      "metar": "METAR LPFR 032230Z 24025KT 4000 -RA BKN005 BKN008 16/15 Q0999",
      "taf": "TAF LPFR 031700Z 0318/0418 25015KT 9999 FEW015 SCT030"
    },
    {
      "icao": "LPMA",
      "alert": "OK",
      "vis_m": 9999,
      "fzfg": false,
      "metar_trigger": false,
      "taf_trigger": false,
      "metar": "METAR LPMA 032230Z VRB02KT 9999 FEW015 17/12 Q1014",
      "taf": "TAF LPMA 031700Z 0318/0418 VRB05KT 9999 SCT015"
    },
    {
      "icao": "LPPR",
      "alert": "OK",
      "vis_m": 8000,
      "fzfg": false,
      "metar_trigger": false,
      "taf_trigger": false,
      "metar": "METAR LPPR 032230Z 15014KT 8000 -RADZ SCT009 BKN012 09/07 Q0989",
      "taf": "TAF LPPR 031700Z 0318/0418 21008KT 9999 SCT020"
    },
    {
      "icao": "LPPS",
      "alert": "OK",
      "vis_m": 9999,
      "fzfg": false,
      "metar_trigger": false,
      "taf_trigger": false,
      "metar": "METAR LPPS 032230Z 28017G27KT 9999 BKN011 SCT030 17/15 Q1015",
      "taf": "TAF LPPS 031700Z 0318/0424 27017KT 9999 SCT015"
    },
    {
      "icao": "LPPT",
      "alert": "OK",
      "vis_m": 4000,
      "fzfg": false,
      "metar_trigger": false,
      "taf_trigger": false,
      "metar": "METAR LPPT 032230Z 25016G26KT 4000 RA BR SCT004 BKN006 15/15 Q0994 RERA",
      "taf": ""
    },
    {
      "icao": "LQBK",
      "alert": "OK",
      "vis_m": 7000,
      "fzfg": false,
      "metar_trigger": false,
      "taf_trigger": false,
      "metar": "METAR LQBK 032230Z VRB02KT 7000 NSC 05/04 Q1008 NOSIG",
      "taf": "TAF LQBK 031700Z 0318/0418 VRB03KT 9999 SCT045 TX11/0414Z TN04/0406Z"
    },
    {
      "icao": "LQSA",
      "alert": "OK",
      "vis_m": 9999,
      "fzfg": false,
      "metar_trigger": false,
      "taf_trigger": false,
      "metar": "METAR LQSA 032230Z 10007G19KT 030V160 9999 -RA SCT030 BKN045 10/08 Q1009",
      "taf": "TAF LQSA 031700Z 0318/0418 15015KT 9999 BKN045 TX12/0413Z TN05/0405Z"
    },
    {
      "icao": "LQTZ",
      "alert": "OK",
      "vis_m": 9999,
      "fzfg": false,
      "metar_trigger": false,
      "taf_trigger": false,
      "metar": "METAR LQTZ 032230Z 11008KT 9999 FEW060 11/06 Q1008",
      "taf": "TAF LQTZ 031700Z 0318/0418 08005KT 9999 SCT055 TX14/0413Z TN06/0406Z"
    },
    {
      "icao": "LRBC",
      "alert": "OK",
      "vis_m": 9999,
      "fzfg": false,
      "metar_trigger": false,
      "taf_trigger": false,
      "metar": "METAR LRBC 032230Z 16011KT CAVOK M05/M09 Q1020",
      "taf": "TAF LRBC 032000Z 0321/0406 16012KT CAVOK"
    },
    {
      "icao": "LRBS",
      "alert": "OK",
      "vis_m": 9999,
      "fzfg": false,
      "metar_trigger": false,
      "taf_trigger": false,
      "metar": "METAR LRBS 032230Z 03003KT 360V060 CAVOK M04/M09 Q1022 NOSIG",
      "taf": "TAF LRBS 031700Z 0318/0418 06006KT CAVOK"
    },
    {
      "icao": "LRBV",
      "alert": "OK",
      "vis_m": 9999,
      "fzfg": false,
      "metar_trigger": false,
      "taf_trigger": false,
      "metar": "METAR LRBV 032230Z AUTO 11008KT 9999 SCT073/// OVC120/// 00/M03 Q1015",
      "taf": ""
    },
    {
      "icao": "LRCL",
      "alert": "OK",
      "vis_m": 9999,
      "fzfg": false,
      "metar_trigger": false,
      "taf_trigger": false,
      "metar": "METAR LRCL 032230Z 07006KT 9999 OVC048 03/M02 Q1014",
      "taf": "TAF LRCL 032000Z 0321/0406 11006KT 9999 BKN050"
    },
    {
      "icao": "LRCV",
      "alert": "OK",
      "vis_m": 9999,
      "fzfg": false,
      "metar_trigger": false,
      "taf_trigger": false,
      "metar": "METAR LRCV 032230Z 04003KT CAVOK M07/M08 Q1021",
      "taf": "TAF LRCV 032000Z 0321/0406 VRB04KT CAVOK"
    },
    {
      "icao": "LRIA",
      "alert": "OK",
      "vis_m": 9999,
      "fzfg": false,
      "metar_trigger": false,
      "taf_trigger": false,
      "metar": "METAR LRIA 032230Z 10012KT CAVOK M06/M10 Q1021",
      "taf": "TAF LRIA 032000Z 0321/0406 12008KT CAVOK"
    },
    {
      "icao": "LROP",
      "alert": "OK",
      "vis_m": 9999,
      "fzfg": false,
      "metar_trigger": false,
      "taf_trigger": false,
      "metar": "METAR LROP 032230Z 04006KT CAVOK M04/M11 Q1021 NOSIG",
      "taf": "TAF LROP 031700Z 0318/0418 06006KT CAVOK"
    },
    {
      "icao": "LRSB",
      "alert": "OK",
      "vis_m": 9999,
      "fzfg": false,
      "metar_trigger": false,
      "taf_trigger": false,
      "metar": "METAR LRSB 032230Z 25004KT 9999 BKN065 01/M01 Q1014",
      "taf": "TAF LRSB 031700Z 0318/0418 VRB04KT CAVOK"
    },
    {
      "icao": "LRSM",
      "alert": "OK",
      "vis_m": 9999,
      "fzfg": false,
      "metar_trigger": false,
      "taf_trigger": false,
      "metar": "METAR LRSM 032230Z AUTO 11007KT 9999 -RA FEW028/// SCT033/// BKN041/// 03/01 Q1014",
      "taf": "TAF LRSM 031400Z 0315/0324 VRB04KT 9999 BKN040"
    },
    {
      "icao": "LRSV",
      "alert": "OK",
      "vis_m": 9999,
      "fzfg": false,
      "metar_trigger": false,
      "taf_trigger": false,
      "metar": "METAR LRSV 032230Z 13010KT CAVOK M06/M08 Q1016",
      "taf": "TAF LRSV 032000Z 0321/0406 14010KT CAVOK"
    },
    {
      "icao": "LRTM",
      "alert": "OK",
      "vis_m": 8000,
      "fzfg": false,
      "metar_trigger": false,
      "taf_trigger": false,
      "metar": "METAR LRTM 032230Z AUTO VRB01KT 8000 NCD 01/M00 Q1015",
      "taf": "TAF LRTM 032000Z 0321/0406 VRB04KT CAVOK"
    },
    {
      "icao": "LRTR",
      "alert": "OK",
      "vis_m": 9999,
      "fzfg": false,
      "metar_trigger": false,
      "taf_trigger": false,
      "metar": "METAR LRTR 032230Z 11012KT 9999 -RA NSC 02/01 Q1013",
      "taf": "TAF LRTR 031700Z 0318/0418 11012KT CAVOK"
    },
    {
      "icao": "LTAC",
      "alert": "OK",
      "vis_m": 9999,
      "fzfg": false,
      "metar_trigger": false,
      "taf_trigger": false,
      "metar": "METAR LTAC 032220Z VRB01KT CAVOK M01/M04 Q1020 NOSIG",
      "taf": "TAF LTAC 031640Z 0318/0418 VRB02KT 9999 SCT040"
    },
    {
      "icao": "LTFM",
      "alert": "OK",
      "vis_m": 9999,
      "fzfg": false,
      "metar_trigger": false,
      "taf_trigger": false,
      "metar": "METAR LTFM 032220Z 18004KT 070V210 9999 SCT030 03/00 Q1023 NOSIG",
      "taf": "TAF LTFM 031640Z 0318/0424 13005KT 9999 BKN022"
    },
    {
      "icao": "LUKK",
      "alert": "OK",
      "vis_m": 9999,
      "fzfg": false,
      "metar_trigger": false,
      "taf_trigger": false,
      "metar": "METAR LUKK 032230Z VRB02KT CAVOK M09/M10 Q1024 NOSIG",
      "taf": "TAF LUKK 031708Z 0318/0418 13008KT CAVOK"
    },
    {
      "icao": "LWOH",
      "alert": "OK",
      "vis_m": null,
      "fzfg": false,
      "metar_trigger": false,
      "taf_trigger": false,
      "metar": "",
      "taf": "TAF LWOH 032030Z 0321/0421 VRB02KT 9999 BKN040"
    },
    {
      "icao": "LWSK",
      "alert": "OK",
      "vis_m": 9999,
      "fzfg": false,
      "metar_trigger": false,
      "taf_trigger": false,
      "metar": "METAR LWSK 032150Z VRB02KT 9999 SCT020 BKN033 04/02 Q1018 NOSIG",
      "taf": "TAF LWSK 032030Z 0321/0421 VRB02KT 9999 BKN025"
    },
    {
      "icao": "LYBE",
      "alert": "OK",
      "vis_m": 9999,
      "fzfg": false,
      "metar_trigger": false,
      "taf_trigger": false,
      "metar": "METAR LYBE 032230Z 12009KT 9999 -RA NSC 05/02 Q1011 NOSIG",
      "taf": "TAF LYBE 031700Z 0318/0418 12014KT CAVOK TX10/0412Z TN05/0406Z"
    },
    {
      "icao": "LYNI",
      "alert": "OK",
      "vis_m": 9999,
      "fzfg": false,
      "metar_trigger": false,
      "taf_trigger": false,
      "metar": "METAR LYNI 032230Z 11004KT 080V140 9999 FEW040 05/01 Q1016 NOSIG",
      "taf": "TAF LYNI 031700Z 0318/0418 11008KT 9999 BKN040 TX11/0413Z TN03/0406Z"
    },
    {
      "icao": "LYPG",
      "alert": "OK",
      "vis_m": 400,
      "fzfg": false,
      "metar_trigger": false,
      "taf_trigger": false,
      "metar": "METAR LYPG 032230Z 00000KT 0400 R18/0500N R36/0500N FG SCT050 OVC090 07/07 Q1015 TEMPO 0800",
      "taf": ""
    },
    {
      "icao": "LZIB",
      "alert": "OK",
      "vis_m": 9999,
      "fzfg": false,
      "metar_trigger": false,
      "taf_trigger": false,
      "metar": "METAR LZIB 032230Z 05006KT 9999 BKN009 BKN012 01/M01 Q1010 NOSIG",
      "taf": ""
    },
    {
      "icao": "LZKZ",
      "alert": "OK",
      "vis_m": 4000,
      "fzfg": false,
      "metar_trigger": false,
      "taf_trigger": false,
      "metar": "METAR LZKZ 032230Z 36006KT 4000 -SN BR OVC007 M00/M01 Q1013 NOSIG",
      "taf": "TAF LZKZ 031715Z 0318/0418 VRB02KT 4000 -SN BR SCT004 BKN016 OVC025"
    },
    {
      "icao": "LZTT",
      "alert": "OK",
      "vis_m": 9999,
      "fzfg": false,
      "metar_trigger": false,
      "taf_trigger": false,
      "metar": "METAR LZTT 032230Z 17008KT 9999 FEW008 SCT026 OVC033 M03/M04 Q1009",
      "taf": "TAF LZTT 031715Z 0318/0418 VRB02KT 4000 -SN SCT010 OVC020"
    },
    {
      "icao": "OEJN",
      "alert": "OK",
      "vis_m": 9999,
      "fzfg": false,
      "metar_trigger": false,
      "taf_trigger": false,
      "metar": "METAR OEJN 032200Z 01006KT 9999 FEW040 24/18 Q1016 NOSIQAR OEMA 0AZ 32005KT VOK 21/01 Q1019 NOSIG",
      "taf": "TAF OEJN 031700Z 0318/0424 01008KT 7000 NSC"
    },
    {
      "icao": "OEMA",
      "alert": "OK",
      "vis_m": 9999,
      "fzfg": false,
      "metar_trigger": false,
      "taf_trigger": false,
      "metar": "METAR OEMA 032200Z 32005KT CAVOK 21/01 Q1019 NOSIG",
      "taf": "TAF OEMA 031700Z 0318/0424 33006KT CAVOK"
    },
    {
      "icao": "OJAI",
      "alert": "OK",
      "vis_m": 4000,
      "fzfg": false,
      "metar_trigger": false,
      "taf_trigger": false,
      "metar": "METAR OJAI 032200Z 27009KT 4000 BR SCT020 10/08 Q1021 NOSIG",
      "taf": "TAF OJAI 031645Z 0318/0424 26014KT 4000 BR SCT035"
    },
    {
      "icao": "OMAA",
      "alert": "OK",
      "vis_m": 9999,
      "fzfg": false,
      "metar_trigger": false,
      "taf_trigger": false,
      "metar": "METAR OMAA 032230Z 11006KT CAVOK 18/11 Q1015 NOSIG",
      "taf": "TAF OMAA 031700Z 0318/0500 07007KT 8000 NSC"
    },
    {
      "icao": "OMDB",
      "alert": "OK",
      "vis_m": 9999,
      "fzfg": false,
      "metar_trigger": false,
      "taf_trigger": false,
      "metar": "METAR OMDB 032230Z 13007KT CAVOK 20/16 Q1015 NOSIG",
      "taf": "TAF OMDB 031700Z 0318/0500 10005KT 8000 NSC"
    },
    {
      "icao": "UAAA",
      "alert": "OK",
      "vis_m": 8000,
      "fzfg": false,
      "metar_trigger": false,
      "taf_trigger": false,
      "metar": "METAR UAAA 032230Z 12001MPS 8000 -SHRA BKN018CB OVC100 04/02 Q1022 NOSIG",
      "taf": "TAF UAAA 031702Z 0318/0418 26003MPS 3100 -SHRA BR FU BKN011CB OVC050 TX06/0409Z TNM02/0402Z"
    },
    {
      "icao": "UBBB",
      "alert": "OK",
      "vis_m": 9999,
      "fzfg": false,
      "metar_trigger": false,
      "taf_trigger": false,
      "metar": "METAR UBBB 032230Z 32022G34KT 9999 -DZ OVC006 06/05 Q1013 NOSIG",
      "taf": "TAF UBBB 031658Z 0318/0418 33022G32KT 9999 SCT010 SCT030 TX03/0406Z TN04/0409Z"
    },
    {
      "icao": "UDSG",
      "alert": "OK",
      "vis_m": 9999,
      "fzfg": false,
      "metar_trigger": false,
      "taf_trigger": false,
      "metar": "METAR UDSG 032230Z 35016G27KT 9999 BKN033 M01/M06 Q1013 NOSIG",
      "taf": "TAF UDSG 031658Z 0318/0418 VRB06KT 5000 BR BKN030"
    },
    {
      "icao": "UDYZ",
      "alert": "OK",
      "vis_m": 5000,
      "fzfg": false,
      "metar_trigger": false,
      "taf_trigger": false,
      "metar": "METAR UDYZ 032230Z 10007KT 5000 BR SCT046 02/01 Q1011 NOSIG",
      "taf": "TAF UDYZ 031700Z 0318/0418 VRB06KT 1500 BR BKN030"
    },
    {
      "icao": "UGKO",
      "alert": "OK",
      "vis_m": 9999,
      "fzfg": false,
      "metar_trigger": false,
      "taf_trigger": false,
      "metar": "METAR UGKO 032230Z 24009KT 9999 -RA SCT009 BKN020 04/03 Q1022 NOSIG",
      "taf": "TAF UGKO 031700Z 0318/0418 25008KT 9000 SCT030 OVC050 TX07/0410Z TN02/0418Z"
    }
  ]
}