{
  "ts_utc": "2026-05-02T09:33:02Z",
  "threshold_m": 150,
  "source": "stations_override.txt (ICAO list) + aviationweather.gov (METAR/TAF raw)",
  "station_count": 159,
  "stations": [
    {
      "icao": "BIKF",
      "alert": "OK",
      "vis_m": 9999,
      "fzfg": false,
      "metar_trigger": false,
      "taf_trigger": false,
      "metar": "METAR BIKF 020900Z 24011KT 9999 BKN033 04/M04 Q1020",
      "taf": "TAF BIKF 020759Z 0209/0309 23008KT 9999 SCT017 BKN027 TX07/0216Z TN02/0209Z"
    },
    {
      "icao": "BKPR",
      "alert": "OK",
      "vis_m": 9999,
      "fzfg": false,
      "metar_trigger": false,
      "taf_trigger": false,
      "metar": "METAR BKPR 020930Z 03014KT 9999 SCT035 13/M01 Q1022 NOSIG",
      "taf": "TAF BKPR 020530Z 0206/0306 01008KT 9999 FEW050"
    },
    {
      "icao": "EBCI",
      "alert": "OK",
      "vis_m": 9999,
      "fzfg": false,
      "metar_trigger": false,
      "taf_trigger": false,
      "metar": "METAR EBCI 020920Z 20008KT 170V230 9999 SCT030 20/13 Q1019 NOSIG",
      "taf": "TAF EBCI 020509Z 0206/0312 22006KT CAVOK"
    },
    {
      "icao": "EDDB",
      "alert": "OK",
      "vis_m": 9999,
      "fzfg": false,
      "metar_trigger": false,
      "taf_trigger": false,
      "metar": "METAR EDDB 020920Z AUTO 20011KT 170V230 CAVOK 23/06 Q1022 NOSIG",
      "taf": "TAF EDDB 020500Z 0206/0306 VRB03KT CAVOK"
    },
    {
      "icao": "EDDH",
      "alert": "OK",
      "vis_m": 9999,
      "fzfg": false,
      "metar_trigger": false,
      "taf_trigger": false,
      "metar": "METAR EDDH 020920Z AUTO 22009KT 190V250 CAVOK 23/08 Q1018 NOSIG",
      "taf": "TAF EDDH 020500Z 0206/0312 14006KT CAVOK"
    },
    {
      "icao": "EDDK",
      "alert": "OK",
      "vis_m": 9999,
      "fzfg": false,
      "metar_trigger": false,
      "taf_trigger": false,
      "metar": "METAR EDDK 020920Z AUTO 13005KT 090V170 CAVOK 21/07 Q1020 NOSIG",
      "taf": "TAF EDDK 020500Z 0206/0312 11004KT CAVOK"
    },
    {
      "icao": "EDDN",
      "alert": "OK",
      "vis_m": 9999,
      "fzfg": false,
      "metar_trigger": false,
      "taf_trigger": false,
      "metar": "METAR EDDN 020920Z AUTO 14009KT 110V180 CAVOK 21/04 Q1022 NOSIG",
      "taf": "TAF EDDN 020500Z 0206/0306 VRB03KT CAVOK"
    },
    {
      "icao": "EDDS",
      "alert": "OK",
      "vis_m": 9999,
      "fzfg": false,
      "metar_trigger": false,
      "taf_trigger": false,
      "metar": "METAR EDDS 020920Z AUTO VRB03KT CAVOK 21/05 Q1022 NOSIG",
      "taf": "TAF EDDS 020500Z 0206/0306 VRB03KT CAVOK"
    },
    {
      "icao": "EDFH",
      "alert": "OK",
      "vis_m": 9999,
      "fzfg": false,
      "metar_trigger": false,
      "taf_trigger": false,
      "metar": "METAR EDFH 020920Z 13009KT CAVOK 19/07 Q1021",
      "taf": "TAF EDFH 020500Z 0206/0306 14009KT CAVOK"
    },
    {
      "icao": "EDJA",
      "alert": "OK",
      "vis_m": 9999,
      "fzfg": false,
      "metar_trigger": false,
      "taf_trigger": false,
      "metar": "METAR EDJA 020920Z 23004KT 180V270 CAVOK 19/05 Q1023",
      "taf": "TAF EDJA 020800Z 0209/0218 25006KT CAVOK"
    },
    {
      "icao": "EDLW",
      "alert": "OK",
      "vis_m": 9999,
      "fzfg": false,
      "metar_trigger": false,
      "taf_trigger": false,
      "metar": "METAR EDLW 020920Z 19008KT CAVOK 22/08 Q1019",
      "taf": "TAF EDLW 020500Z 0206/0306 16007KT CAVOK"
    },
    {
      "icao": "EDNY",
      "alert": "OK",
      "vis_m": 9999,
      "fzfg": false,
      "metar_trigger": false,
      "taf_trigger": false,
      "metar": "METAR EDNY 020920Z 21003KT CAVOK 18/06 Q1023",
      "taf": "TAF EDNY 020800Z 0209/0218 VRB03KT CAVOK"
    },
    {
      "icao": "EDSB",
      "alert": "OK",
      "vis_m": 9999,
      "fzfg": false,
      "metar_trigger": false,
      "taf_trigger": false,
      "metar": "METAR EDSB 020920Z 23004KT 170V280 CAVOK 20/06 Q1022",
      "taf": "TAF EDSB 020500Z 0206/0306 VRB03KT CAVOK"
    },
    {
      "icao": "EETN",
      "alert": "OK",
      "vis_m": 9999,
      "fzfg": false,
      "metar_trigger": false,
      "taf_trigger": false,
      "metar": "METAR EETN 020920Z 26015KT CAVOK 17/04 Q1012 NOSIG",
      "taf": "TAF EETN 020530Z 0206/0306 26013KT CAVOK"
    },
    {
      "icao": "EFTU",
      "alert": "OK",
      "vis_m": 9999,
      "fzfg": false,
      "metar_trigger": false,
      "taf_trigger": false,
      "metar": "METAR EFTU 020920Z AUTO 26012KT CAVOK 17/02 Q1010",
      "taf": "TAF EFTU 020828Z 0209/0309 26010KT CAVOK"
    },
    {
      "icao": "EGBB",
      "alert": "OK",
      "vis_m": 9999,
      "fzfg": false,
      "metar_trigger": false,
      "taf_trigger": false,
      "metar": "METAR EGBB 020920Z VRB03KT 9999 FEW026 14/08 Q1017",
      "taf": "TAF EGBB 020454Z 0206/0306 23003KT 6000 FEW040"
    },
    {
      "icao": "EGGP",
      "alert": "OK",
      "vis_m": 9999,
      "fzfg": false,
      "metar_trigger": false,
      "taf_trigger": false,
      "metar": "METAR EGGP 020920Z 15003KT 080V200 9999 BKN031 13/09 Q1017",
      "taf": "TAF EGGP 020458Z 0206/0306 VRB03KT 9999 SCT040"
    },
    {
      "icao": "EGGW",
      "alert": "OK",
      "vis_m": 9999,
      "fzfg": false,
      "metar_trigger": false,
      "taf_trigger": false,
      "metar": "METAR EGGW 020920Z AUTO VRB03KT 9999 FEW024 16/09 Q1017",
      "taf": "TAF EGGW 020457Z 0206/0306 23004KT 9999 FEW045"
    },
    {
      "icao": "EGKK",
      "alert": "OK",
      "vis_m": 9999,
      "fzfg": false,
      "metar_trigger": false,
      "taf_trigger": false,
      "metar": "METAR EGKK 020920Z VRB02KT 9999 SCT009 14/10 Q1018",
      "taf": ""
    },
    {
      "icao": "EGNM",
      "alert": "OK",
      "vis_m": 9999,
      "fzfg": false,
      "metar_trigger": false,
      "taf_trigger": false,
      "metar": "METAR EGNM 020920Z 27013KT 9999 SCT018 12/07 Q1016",
      "taf": ""
    },
    {
      "icao": "EGPD",
      "alert": "OK",
      "vis_m": 9999,
      "fzfg": false,
      "metar_trigger": false,
      "taf_trigger": false,
      "metar": "METAR EGPD 020920Z COR AUTO 35008KT 310V020 9999 BKN046 15/09 Q1013 NOSIG",
      "taf": "TAF EGPD 020454Z 0206/0306 27005KT CAVOK"
    },
    {
      "icao": "EGPF",
      "alert": "OK",
      "vis_m": 9999,
      "fzfg": false,
      "metar_trigger": false,
      "taf_trigger": false,
      "metar": "METAR EGPF 020920Z AUTO 24004KT 9999 BKN010 OVC043 13/11 Q1015",
      "taf": "TAF EGPF 020456Z 0206/0306 02004KT 9999 BKN030"
    },
    {
      "icao": "EHBK",
      "alert": "OK",
      "vis_m": 9999,
      "fzfg": false,
      "metar_trigger": false,
      "taf_trigger": false,
      "metar": "METAR EHBK 020925Z AUTO 21008KT 180V240 9999 NSC 20/11 Q1019 NOSIG",
      "taf": "TAF EHBK 020513Z 0206/0312 19004KT CAVOK"
    },
    {
      "icao": "EHEH",
      "alert": "OK",
      "vis_m": 9999,
      "fzfg": false,
      "metar_trigger": false,
      "taf_trigger": false,
      "metar": "METAR EHEH 020925Z AUTO 20008KT 180V260 9999 SCT054 OVC270 21/11 Q1018 BLU NOSIG RMK TREND REMOTE BY EHWX",
      "taf": "TAF EHEH 020510Z 0206/0312 19005KT CAVOK"
    },
    {
      "icao": "EKBI",
      "alert": "OK",
      "vis_m": 9999,
      "fzfg": false,
      "metar_trigger": false,
      "taf_trigger": false,
      "metar": "METAR EKBI 020920Z AUTO 19009KT 160V240 9999 NCD 22/06 Q1016",
      "taf": "TAF EKBI 020827Z 0209/0309 20010KT CAVOK"
    },
    {
      "icao": "EKCH",
      "alert": "OK",
      "vis_m": 9999,
      "fzfg": false,
      "metar_trigger": false,
      "taf_trigger": false,
      "metar": "METAR EKCH 020920Z AUTO 19009KT 9999 NCD 15/08 Q1019 NOSIG",
      "taf": "TAF EKCH 020827Z 0209/0309 19010KT CAVOK"
    },
    {
      "icao": "ENAL",
      "alert": "OK",
      "vis_m": 9999,
      "fzfg": false,
      "metar_trigger": false,
      "taf_trigger": false,
      "metar": "METAR ENAL 020920Z 34005KT 300V010 9999 -RA SCT014 BKN020 05/03 Q1014",
      "taf": "TAF ENAL 020800Z 0209/0218 34008KT 9999 -RA FEW010 BKN025"
    },
    {
      "icao": "ENBR",
      "alert": "OK",
      "vis_m": 9999,
      "fzfg": false,
      "metar_trigger": false,
      "taf_trigger": false,
      "metar": "METAR ENBR 020920Z 17008KT 9999 BKN045 09/05 Q1013 NOSIG RMK WIND 1200FT 17018KT",
      "taf": "TAF ENBR 020500Z 0206/0306 17010KT 9999 -RA FEW020 BKN045"
    },
    {
      "icao": "ENGM",
      "alert": "OK",
      "vis_m": 9999,
      "fzfg": false,
      "metar_trigger": false,
      "taf_trigger": false,
      "metar": "METAR ENGM 020920Z 19011KT 170V230 CAVOK 16/M01 Q1011 NOSIG",
      "taf": "TAF ENGM 020500Z 0206/0306 18008KT CAVOK"
    },
    {
      "icao": "ENHD",
      "alert": "OK",
      "vis_m": 9999,
      "fzfg": false,
      "metar_trigger": false,
      "taf_trigger": false,
      "metar": "METAR ENHD 020920Z 16003KT 120V190 9999 -RA FEW003 SCT043 09/06 Q1013",
      "taf": "TAF ENHD 020800Z 0209/0218 16008KT 9999 -RA FEW020 BKN045"
    },
    {
      "icao": "ENTC",
      "alert": "OK",
      "vis_m": 9999,
      "fzfg": false,
      "metar_trigger": false,
      "taf_trigger": false,
      "metar": "METAR ENTC 020920Z 19028KT 9999 FEW007 SCT046 05/M01 Q0989 RMK WIND 2600FT 17041G52KT",
      "taf": ""
    },
    {
      "icao": "ENTO",
      "alert": "OK",
      "vis_m": 9999,
      "fzfg": false,
      "metar_trigger": false,
      "taf_trigger": false,
      "metar": "METAR ENTO 020920Z 19010KT 150V210 CAVOK 16/04 Q1012 NOSIG",
      "taf": "TAF ENTO 020500Z 0206/0306 21010KT CAVOK"
    },
    {
      "icao": "ENVA",
      "alert": "OK",
      "vis_m": 9999,
      "fzfg": false,
      "metar_trigger": false,
      "taf_trigger": false,
      "metar": "METAR ENVA 020920Z 29010KT 9999 -RA FEW007 SCT016 BKN024 06/05 Q1011 TEMPO RA BKN012 RMK WIND 670FT 28017KT",
      "taf": "TAF ENVA 020500Z 0206/0306 VRB04KT 9999 -RA FEW015 BKN025"
    },
    {
      "icao": "ENZV",
      "alert": "OK",
      "vis_m": 9999,
      "fzfg": false,
      "metar_trigger": false,
      "taf_trigger": false,
      "metar": "METAR ENZV 020920Z 00000KT CAVOK 11/05 Q1013 TEMPO SHRA BKN014CB",
      "taf": "TAF ENZV 020500Z 0206/0306 17008KT CAVOK"
    },
    {
      "icao": "EPGD",
      "alert": "OK",
      "vis_m": 9999,
      "fzfg": false,
      "metar_trigger": false,
      "taf_trigger": false,
      "metar": "METAR EPGD 020900Z 24005KT 140V300 CAVOK 21/01 Q1023",
      "taf": "TAF EPGD 020530Z 0206/0306 25005KT CAVOK"
    },
    {
      "icao": "EPKK",
      "alert": "OK",
      "vis_m": 9999,
      "fzfg": false,
      "metar_trigger": false,
      "taf_trigger": false,
      "metar": "METAR EPKK 020900Z 05004KT 010V140 CAVOK 18/05 Q1025",
      "taf": "TAF EPKK 020830Z 0209/0309 VRB02KT CAVOK"
    },
    {
      "icao": "EPKT",
      "alert": "OK",
      "vis_m": 9999,
      "fzfg": false,
      "metar_trigger": false,
      "taf_trigger": false,
      "metar": "METAR EPKT 020900Z 10009KT CAVOK 19/02 Q1025",
      "taf": "TAF EPKT 020530Z 0206/0306 07005KT CAVOK"
    },
    {
      "icao": "EPLB",
      "alert": "OK",
      "vis_m": 9999,
      "fzfg": false,
      "metar_trigger": false,
      "taf_trigger": false,
      "metar": "METAR EPLB 020900Z 24003KT 140V290 CAVOK 17/05 Q1025",
      "taf": "TAF EPLB 020530Z 0206/0306 VRB05KT CAVOK"
    },
    {
      "icao": "EPMO",
      "alert": "OK",
      "vis_m": 9999,
      "fzfg": false,
      "metar_trigger": false,
      "taf_trigger": false,
      "metar": "METAR EPMO 020900Z 24010KT CAVOK 21/03 Q1024",
      "taf": "TAF EPMO 020530Z 0206/0306 VRB03KT CAVOK"
    },
    {
      "icao": "EPPO",
      "alert": "OK",
      "vis_m": 9999,
      "fzfg": false,
      "metar_trigger": false,
      "taf_trigger": false,
      "metar": "METAR EPPO 020900Z 22003KT 130V270 CAVOK 23/06 Q1024",
      "taf": "TAF EPPO 020530Z 0206/0306 VRB02KT CAVOK"
    },
    {
      "icao": "EPRA",
      "alert": "OK",
      "vis_m": 9999,
      "fzfg": false,
      "metar_trigger": false,
      "taf_trigger": false,
      "metar": "METAR EPRA 020900Z VRB04KT CAVOK 20/05 Q1025",
      "taf": "TAF EPRA 020830Z 0209/0218 VRB03KT CAVOK"
    },
    {
      "icao": "EPRZ",
      "alert": "OK",
      "vis_m": 9999,
      "fzfg": false,
      "metar_trigger": false,
      "taf_trigger": false,
      "metar": "METAR EPRZ 020900Z 11005KT 050V160 CAVOK 16/02 Q1026",
      "taf": "TAF EPRZ 020530Z 0206/0306 02004KT CAVOK"
    },
    {
      "icao": "EPSC",
      "alert": "OK",
      "vis_m": 9999,
      "fzfg": false,
      "metar_trigger": false,
      "taf_trigger": false,
      "metar": "METAR EPSC 020900Z 16012KT CAVOK 22/05 Q1022",
      "taf": "TAF EPSC 020530Z 0206/0306 12005KT CAVOK"
    },
    {
      "icao": "EPSY",
      "alert": "OK",
      "vis_m": 9999,
      "fzfg": false,
      "metar_trigger": false,
      "taf_trigger": false,
      "metar": "METAR EPSY 020900Z 26004KT 190V330 CAVOK 22/02 Q1022",
      "taf": "TAF EPSY 020830Z 0209/0218 30008KT CAVOK"
    },
    {
      "icao": "EPWA",
      "alert": "OK",
      "vis_m": 9999,
      "fzfg": false,
      "metar_trigger": false,
      "taf_trigger": false,
      "metar": "METAR EPWA 020900Z VRB05KT CAVOK 21/04 Q1024 NOSIG",
      "taf": "TAF EPWA 020830Z 0209/0309 26010KT CAVOK"
    },
    {
      "icao": "EPWR",
      "alert": "OK",
      "vis_m": 9999,
      "fzfg": false,
      "metar_trigger": false,
      "taf_trigger": false,
      "metar": "METAR EPWR 020900Z VRB04KT CAVOK 22/04 Q1024",
      "taf": "TAF EPWR 020830Z 0209/0309 VRB02KT CAVOK"
    },
    {
      "icao": "ESGG",
      "alert": "OK",
      "vis_m": 9999,
      "fzfg": false,
      "metar_trigger": false,
      "taf_trigger": false,
      "metar": "METAR ESGG 020920Z 20013KT CAVOK 17/07 Q1015",
      "taf": "TAF ESGG 020830Z 0209/0309 20014KT CAVOK"
    },
    {
      "icao": "ESKN",
      "alert": "OK",
      "vis_m": 9999,
      "fzfg": false,
      "metar_trigger": false,
      "taf_trigger": false,
      "metar": "METAR ESKN 020920Z 24016KT CAVOK 20/05 Q1014",
      "taf": "TAF ESKN 020830Z 0209/0309 25015KT CAVOK"
    },
    {
      "icao": "ESMS",
      "alert": "OK",
      "vis_m": 9999,
      "fzfg": false,
      "metar_trigger": false,
      "taf_trigger": false,
      "metar": "METAR ESMS 020920Z 21015KT CAVOK 19/06 Q1019",
      "taf": "TAF ESMS 020827Z 0209/0309 18010KT CAVOK"
    },
    {
      "icao": "ESSA",
      "alert": "OK",
      "vis_m": 9999,
      "fzfg": false,
      "metar_trigger": false,
      "taf_trigger": false,
      "metar": "METAR ESSA 020920Z 25023KT CAVOK 17/01 Q1012 NOSIG",
      "taf": "TAF ESSA 020830Z 0209/0309 26016G26KT CAVOK"
    },
    {
      "icao": "EYKA",
      "alert": "OK",
      "vis_m": 9999,
      "fzfg": false,
      "metar_trigger": false,
      "taf_trigger": false,
      "metar": "METAR EYKA 020920Z 29008KT 260V320 CAVOK 20/04 Q1020",
      "taf": "TAF EYKA 020500Z 0206/0306 VRB03KT CAVOK"
    },
    {
      "icao": "EYPA",
      "alert": "OK",
      "vis_m": 9999,
      "fzfg": false,
      "metar_trigger": false,
      "taf_trigger": false,
      "metar": "METAR EYPA 020920Z 28004KT 250V320 CAVOK 12/05 Q1021",
      "taf": "TAF EYPA 020500Z 0206/0306 VRB03KT CAVOK"
    },
    {
      "icao": "EYVI",
      "alert": "OK",
      "vis_m": 9999,
      "fzfg": false,
      "metar_trigger": false,
      "taf_trigger": false,
      "metar": "METAR EYVI 020920Z 24009KT CAVOK 20/03 Q1020 NOSIG",
      "taf": "TAF EYVI 020500Z 0206/0306 26010KT CAVOK"
    },
    {
      "icao": "GCFV",
      "alert": "OK",
      "vis_m": 9999,
      "fzfg": false,
      "metar_trigger": false,
      "taf_trigger": false,
      "metar": "METAR GCFV 020900Z 02012KT 9999 FEW025 21/13 Q1019",
      "taf": "TAF GCFV 020800Z 0209/0309 05010KT 9999 FEW020 TX22/0214Z TN16/0306Z"
    },
    {
      "icao": "GCLP",
      "alert": "OK",
      "vis_m": 9999,
      "fzfg": false,
      "metar_trigger": false,
      "taf_trigger": false,
      "metar": "METAR GCLP 020900Z 03015KT 9999 FEW020 21/16 Q1019 NOSIG",
      "taf": "TAF GCLP 020800Z 0209/0309 04012KT 9999 FEW030 TX23/0214Z TN17/0306Z"
    },
    {
      "icao": "GCTS",
      "alert": "OK",
      "vis_m": 9999,
      "fzfg": false,
      "metar_trigger": false,
      "taf_trigger": false,
      "metar": "METAR GCTS 020900Z 08015KT 9999 FEW020 21/15 Q1019 NOSIG",
      "taf": "TAF GCTS 020800Z 0209/0309 10015KT 9999 FEW030 TX24/0214Z TN16/0306Z"
    },
    {
      "icao": "GMAD",
      "alert": "OK",
      "vis_m": 8000,
      "fzfg": false,
      "metar_trigger": false,
      "taf_trigger": false,
      "metar": "METAR GMAD 020900Z 10003KT 8000 FEW020 20/14 Q1017 NOSIG",
      "taf": "TAF GMAD 020500Z 0206/0312 08006KT CAVOK"
    },
    {
      "icao": "GMMN",
      "alert": "OK",
      "vis_m": 9999,
      "fzfg": false,
      "metar_trigger": false,
      "taf_trigger": false,
      "metar": "METAR GMMN 020900Z 01008KT 330V050 9999 BKN015 18/14 Q1019 NOSIG",
      "taf": "TAF GMMN 020500Z 0206/0312 02006KT 9999 BKN012"
    },
    {
      "icao": "GMMX",
      "alert": "OK",
      "vis_m": 8000,
      "fzfg": false,
      "metar_trigger": false,
      "taf_trigger": false,
      "metar": "METAR GMMX 020900Z 23006KT 200V270 8000 NSC 17/13 Q1018 NOSIG",
      "taf": "TAF GMMX 020500Z 0206/0312 06006KT 8000 SCT026"
    },
    {
      "icao": "HEGN",
      "alert": "OK",
      "vis_m": null,
      "fzfg": false,
      "metar_trigger": false,
      "taf_trigger": false,
      "metar": "",
      "taf": "TAF HEGN 020500Z 0206/0312 12015KT CAVOK"
    },
    {
      "icao": "HEMA",
      "alert": "OK",
      "vis_m": null,
      "fzfg": false,
      "metar_trigger": false,
      "taf_trigger": false,
      "metar": "",
      "taf": "TAF HEMA 020500Z 0206/0312 13015KT CAVOK"
    },
    {
      "icao": "HESH",
      "alert": "OK",
      "vis_m": null,
      "fzfg": false,
      "metar_trigger": false,
      "taf_trigger": false,
      "metar": "",
      "taf": "TAF HESH 020500Z 0206/0312 16011KT CAVOK"
    },
    {
      "icao": "HESX",
      "alert": "OK",
      "vis_m": null,
      "fzfg": false,
      "metar_trigger": false,
      "taf_trigger": false,
      "metar": "",
      "taf": "TAF HESX 020500Z 0206/0312 02010KT CAVOK"
    },
    {
      "icao": "LATI",
      "alert": "OK",
      "vis_m": 9999,
      "fzfg": false,
      "metar_trigger": false,
      "taf_trigger": false,
      "metar": "METAR LATI 020920Z 32007KT 240V010 CAVOK 18/M06 Q1020 BECMG 34008KT",
      "taf": "TAF LATI 020500Z 0206/0306 VRB05KT CAVOK TX22/0212Z TN05/0304Z"
    },
    {
      "icao": "LBPD",
      "alert": "OK",
      "vis_m": 9999,
      "fzfg": false,
      "metar_trigger": false,
      "taf_trigger": false,
      "metar": "METAR LBPD 020930Z AUTO 36003KT 280V050 9999 BKN065/// BKN080/// 12/M01 Q1022 NOSIG",
      "taf": "TAF LBPD 020500Z 0206/0306 30010KT 9999 BKN060"
    },
    {
      "icao": "LBSF",
      "alert": "OK",
      "vis_m": 9999,
      "fzfg": false,
      "metar_trigger": false,
      "taf_trigger": false,
      "metar": "METAR LBSF 020930Z VRB03KT 9999 FEW055 BKN068 11/M02 Q1022 NOSIG",
      "taf": "TAF LBSF 020500Z 0206/0306 VRB03KT 9999 FEW030 BKN050"
    },
    {
      "icao": "LBWN",
      "alert": "OK",
      "vis_m": 9999,
      "fzfg": false,
      "metar_trigger": false,
      "taf_trigger": false,
      "metar": "METAR LBWN 020930Z 36012KT 340V040 9999 SCT036 13/00 Q1021 NOSIG",
      "taf": "TAF LBWN 020500Z 0206/0306 33010KT 9999 SCT045"
    },
    {
      "icao": "LCLK",
      "alert": "OK",
      "vis_m": 9999,
      "fzfg": false,
      "metar_trigger": false,
      "taf_trigger": false,
      "metar": "METAR LCLK 020930Z 21009KT 9999 FEW018 22/17 Q1011 NOSIG",
      "taf": "TAF LCLK 020530Z 0206/0306 15005KT 9999 FEW020"
    },
    {
      "icao": "LCPH",
      "alert": "OK",
      "vis_m": 9999,
      "fzfg": false,
      "metar_trigger": false,
      "taf_trigger": false,
      "metar": "METAR LCPH 020930Z 07005KT 010V090 9999 -RA FEW025 21/11 Q1011 NOSIG",
      "taf": "TAF LCPH 020530Z 0206/0306 04005KT 9999 FEW020"
    },
    {
      "icao": "LEAL",
      "alert": "OK",
      "vis_m": 9999,
      "fzfg": false,
      "metar_trigger": false,
      "taf_trigger": false,
      "metar": "METAR LEAL 020900Z 07009KT 9999 SCT028 BKN048 21/15 Q1021 NOSIG",
      "taf": "TAF LEAL 020500Z 0206/0306 03006KT 9999 SCT025 SCT030 TX22/0213Z TN15/0206Z"
    },
    {
      "icao": "LEBB",
      "alert": "OK",
      "vis_m": 9999,
      "fzfg": false,
      "metar_trigger": false,
      "taf_trigger": false,
      "metar": "METAR LEBB 020900Z 32012KT 250V340 9999 FEW015 BKN042 19/15 Q1017 NOSIG",
      "taf": "TAF LEBB 020500Z 0206/0306 14009KT 9999 FEW035 TX24/0213Z TN12/0306Z"
    },
    {
      "icao": "LEBL",
      "alert": "OK",
      "vis_m": 8000,
      "fzfg": false,
      "metar_trigger": false,
      "taf_trigger": false,
      "metar": "METAR LEBL 020900Z 06007KT 8000 FEW011 SCT050 19/15 Q1023 NOSIG",
      "taf": "TAF LEBL 020500Z 0206/0306 07008KT 9999 SCT020 TX21/0212Z TN17/0206Z"
    },
    {
      "icao": "LECH",
      "alert": "OK",
      "vis_m": 8000,
      "fzfg": false,
      "metar_trigger": false,
      "taf_trigger": false,
      "metar": "METAR LECH 020900Z AUTO 14006KT 8000 -RA BKN005 BKN012 OVC026 16/15 Q1022",
      "taf": "TAF LECH 020500Z 0206/0306 VRB04KT 9999 SCT015 BKN025 TX21/0212Z TN12/0206Z"
    },
    {
      "icao": "LEMD",
      "alert": "OK",
      "vis_m": 6000,
      "fzfg": false,
      "metar_trigger": false,
      "taf_trigger": false,
      "metar": "METAR LEMD 020900Z VRB02KT 6000 -RA SCT025 SCT040TCU BKN060 14/14 Q1019 NOSIG",
      "taf": ""
    },
    {
      "icao": "LEMG",
      "alert": "OK",
      "vis_m": 8000,
      "fzfg": false,
      "metar_trigger": false,
      "taf_trigger": false,
      "metar": "METAR LEMG 020900Z 13008KT 100V170 8000 FEW015 SCT025 BKN035 19/16 Q1019 NOSIG",
      "taf": "TAF LEMG 020500Z 0206/0306 14010KT 9999 SCT020 TX23/0214Z TN14/0206Z"
    },
    {
      "icao": "LEVC",
      "alert": "OK",
      "vis_m": 9999,
      "fzfg": false,
      "metar_trigger": false,
      "taf_trigger": false,
      "metar": "METAR LEVC 020900Z 08005KT 020V140 9999 SCT020 BKN032 20/15 Q1021 NOSIG",
      "taf": "TAF LEVC 020500Z 0206/0306 02005KT 9999 SCT020 SCT030 TX22/0213Z TN16/0206Z"
    },
    {
      "icao": "LEXJ",
      "alert": "OK",
      "vis_m": 9999,
      "fzfg": false,
      "metar_trigger": false,
      "taf_trigger": false,
      "metar": "METAR LEXJ 020900Z 25002KT 9999 FEW010 FEW035CB 16/15 Q1016 RETS RESHRA",
      "taf": "TAF LEXJ 020800Z 0209/0309 29007KT 9999 SCT010 BKN020 TX19/0212Z TN11/0305Z"
    },
    {
      "icao": "LEZG",
      "alert": "OK",
      "vis_m": 9999,
      "fzfg": false,
      "metar_trigger": false,
      "taf_trigger": false,
      "metar": "METAR LEZG 020900Z 11013KT 080V150 9999 BKN020 20/14 Q1020 NOSIG",
      "taf": "TAF LEZG 020500Z 0206/0306 12011KT 9999 SCT020 SCT040 TX21/0214Z TN14/0206Z"
    },
    {
      "icao": "LEZL",
      "alert": "OK",
      "vis_m": 9999,
      "fzfg": false,
      "metar_trigger": false,
      "taf_trigger": false,
      "metar": "METAR LEZL 020900Z VRB02KT 9999 BKN038 20/13 Q1018 NOSIG",
      "taf": "TAF LEZL 020800Z 0209/0309 VRB03KT 9999 FEW040 TX28/0215Z TN15/0306Z"
    },
    {
      "icao": "LFBD",
      "alert": "OK",
      "vis_m": 8000,
      "fzfg": false,
      "metar_trigger": false,
      "taf_trigger": false,
      "metar": "METAR LFBD 020900Z AUTO 16003KT 8000 RA FEW041/// OVC084/// ///CB 17/13 Q1018 TEMPO 2000 TSRA",
      "taf": ""
    },
    {
      "icao": "LFLL",
      "alert": "OK",
      "vis_m": 9999,
      "fzfg": false,
      "metar_trigger": false,
      "taf_trigger": false,
      "metar": "METAR LFLL 020900Z 19016KT CAVOK 19/05 Q1022 NOSIG",
      "taf": "TAF LFLL 020500Z 0206/0312 18010KT CAVOK"
    },
    {
      "icao": "LFLS",
      "alert": "OK",
      "vis_m": 9999,
      "fzfg": false,
      "metar_trigger": false,
      "taf_trigger": false,
      "metar": "METAR LFLS 020900Z AUTO 23012KT 210V270 CAVOK 19/08 Q1023 NOSIG",
      "taf": "TAF LFLS 020800Z 0209/0309 22010KT CAVOK"
    },
    {
      "icao": "LFMN",
      "alert": "OK",
      "vis_m": 9999,
      "fzfg": false,
      "metar_trigger": false,
      "taf_trigger": false,
      "metar": "METAR LFMN 020900Z 08014KT CAVOK 21/06 Q1026 NOSIG",
      "taf": "TAF LFMN 020800Z 0209/0315 10010KT CAVOK"
    },
    {
      "icao": "LFOB",
      "alert": "OK",
      "vis_m": 9999,
      "fzfg": false,
      "metar_trigger": false,
      "taf_trigger": false,
      "metar": "METAR LFOB 020900Z AUTO 13005KT 080V160 9999 BKN005 17/17 Q1019 BECMG SCT030",
      "taf": "TAF LFOB 020500Z 0206/0306 VRB02KT 3000 BR BKN004"
    },
    {
      "icao": "LFPO",
      "alert": "OK",
      "vis_m": 9999,
      "fzfg": false,
      "metar_trigger": false,
      "taf_trigger": false,
      "metar": "METAR LFPO 020900Z 12005KT 090V160 CAVOK 20/15 Q1018 NOSIG",
      "taf": "TAF LFPO 020500Z 0206/0312 18005KT 9000 NSC"
    },
    {
      "icao": "LFSB",
      "alert": "OK",
      "vis_m": 9999,
      "fzfg": false,
      "metar_trigger": false,
      "taf_trigger": false,
      "metar": "METAR LFSB 020900Z AUTO 11004KT 050V180 CAVOK 21/08 Q1022 NOSIG",
      "taf": "TAF LFSB 020500Z 0206/0306 17004KT CAVOK"
    },
    {
      "icao": "LGAV",
      "alert": "OK",
      "vis_m": 9999,
      "fzfg": false,
      "metar_trigger": false,
      "taf_trigger": false,
      "metar": "METAR LGAV 020920Z 04017KT 9999 FEW018 SCT025 13/01 Q1018 NOSIG",
      "taf": "TAF LGAV 020500Z 0206/0306 01017KT 9999 SCT020 BKN060"
    },
    {
      "icao": "LGTS",
      "alert": "OK",
      "vis_m": 9999,
      "fzfg": false,
      "metar_trigger": false,
      "taf_trigger": false,
      "metar": "METAR LGTS 020920Z 30009KT 9999 FEW016 SCT025 14/02 Q1022 NOSIG",
      "taf": "TAF LGTS 020500Z 0206/0306 VRB03KT 9999 BKN035"
    },
    {
      "icao": "LHBP",
      "alert": "OK",
      "vis_m": 9999,
      "fzfg": false,
      "metar_trigger": false,
      "taf_trigger": false,
      "metar": "METAR LHBP 020930Z VRB06KT CAVOK 20/03 Q1023 NOSIG",
      "taf": "TAF LHBP 020515Z 0206/0306 VRB03KT CAVOK"
    },
    {
      "icao": "LHDC",
      "alert": "OK",
      "vis_m": 9999,
      "fzfg": false,
      "metar_trigger": false,
      "taf_trigger": false,
      "metar": "METAR LHDC 020845Z AUTO 08008KT 030V120 CAVOK 17/02 Q1023 NOSIG",
      "taf": "TAF LHDC 020815Z 0209/0218 04009KT CAVOK"
    },
    {
      "icao": "LIBD",
      "alert": "OK",
      "vis_m": 9999,
      "fzfg": false,
      "metar_trigger": false,
      "taf_trigger": false,
      "metar": "METAR LIBD 020920Z 03011KT 360V070 9999 FEW048 18/04 Q1023",
      "taf": "TAF LIBD 020500Z 0206/0306 VRB05KT CAVOK"
    },
    {
      "icao": "LIBG",
      "alert": "OK",
      "vis_m": 9999,
      "fzfg": false,
      "metar_trigger": false,
      "taf_trigger": false,
      "metar": "METAR LIBG 020850Z 01016KT 9999 FEW035 18/03 Q1021",
      "taf": "TAF LIBG 020800Z 0209/0218 03016KT CAVOK"
    },
    {
      "icao": "LIBP",
      "alert": "OK",
      "vis_m": 9999,
      "fzfg": false,
      "metar_trigger": false,
      "taf_trigger": false,
      "metar": "METAR LIBP 020920Z AUTO 03007KT 340V060 9999 NCD 19/04 Q1026",
      "taf": "TAF LIBP 020500Z 0206/0306 24007KT 9999 FEW050"
    },
    {
      "icao": "LIBR",
      "alert": "OK",
      "vis_m": 9999,
      "fzfg": false,
      "metar_trigger": false,
      "taf_trigger": false,
      "metar": "METAR LIBR 020920Z 05015KT CAVOK 17/05 Q1021",
      "taf": "TAF LIBR 020500Z 0206/0306 06018KT CAVOK"
    },
    {
      "icao": "LICA",
      "alert": "OK",
      "vis_m": 9999,
      "fzfg": false,
      "metar_trigger": false,
      "taf_trigger": false,
      "metar": "METAR LICA 020920Z AUTO 23008KT 190V260 9999 NCD 19/02 Q1020",
      "taf": "TAF LICA 020500Z 0206/0306 VRB05KT CAVOK"
    },
    {
      "icao": "LICC",
      "alert": "OK",
      "vis_m": 9999,
      "fzfg": false,
      "metar_trigger": false,
      "taf_trigger": false,
      "metar": "METAR LICC 020920Z 07007KT 030V110 CAVOK 19/14 Q1020",
      "taf": "TAF LICC 020500Z 0206/0306 24005KT CAVOK"
    },
    {
      "icao": "LICJ",
      "alert": "OK",
      "vis_m": 9999,
      "fzfg": false,
      "metar_trigger": false,
      "taf_trigger": false,
      "metar": "METAR LICJ 020920Z 04015KT 9999 FEW030 19/08 Q1022",
      "taf": "TAF LICJ 020500Z 0206/0306 04016KT CAVOK"
    },
    {
      "icao": "LIMC",
      "alert": "OK",
      "vis_m": 9999,
      "fzfg": false,
      "metar_trigger": false,
      "taf_trigger": false,
      "metar": "METAR LIMC 020920Z 17004KT 130V240 CAVOK 19/06 Q1026 NOSIG",
      "taf": "TAF LIMC 020500Z 0206/0312 VRB05KT CAVOK"
    },
    {
      "icao": "LIME",
      "alert": "OK",
      "vis_m": 9999,
      "fzfg": false,
      "metar_trigger": false,
      "taf_trigger": false,
      "metar": "METAR LIME 020920Z 28003KT 230V020 CAVOK 19/04 Q1026 NOSIG",
      "taf": "TAF LIME 020500Z 0206/0306 VRB05KT CAVOK"
    },
    {
      "icao": "LIMF",
      "alert": "OK",
      "vis_m": 9999,
      "fzfg": false,
      "metar_trigger": false,
      "taf_trigger": false,
      "metar": "METAR LIMF 020920Z 07004KT 330V140 CAVOK 18/09 Q1026",
      "taf": "TAF LIMF 020500Z 0206/0306 VRB05KT CAVOK"
    },
    {
      "icao": "LIMJ",
      "alert": "OK",
      "vis_m": 9999,
      "fzfg": false,
      "metar_trigger": false,
      "taf_trigger": false,
      "metar": "METAR LIMJ 020920Z 23003KT CAVOK 19/10 Q1026",
      "taf": "TAF LIMJ 020500Z 0206/0306 VRB05KT CAVOK"
    },
    {
      "icao": "LIPE",
      "alert": "OK",
      "vis_m": 9999,
      "fzfg": false,
      "metar_trigger": false,
      "taf_trigger": false,
      "metar": "METAR LIPE 020920Z VRB02KT CAVOK 20/03 Q1026",
      "taf": "TAF LIPE 020500Z 0206/0306 VRB05KT CAVOK"
    },
    {
      "icao": "LIPH",
      "alert": "OK",
      "vis_m": 9999,
      "fzfg": false,
      "metar_trigger": false,
      "taf_trigger": false,
      "metar": "METAR LIPH 020920Z VRB03KT CAVOK 21/05 Q1025",
      "taf": "TAF LIPH 020500Z 0206/0306 VRB05KT CAVOK"
    },
    {
      "icao": "LIPQ",
      "alert": "OK",
      "vis_m": 9999,
      "fzfg": false,
      "metar_trigger": false,
      "taf_trigger": false,
      "metar": "METAR LIPQ 020920Z AUTO 26003KT 220V300 9999 NCD 21/04 Q1024",
      "taf": "TAF LIPQ 020500Z 0206/0306 VRB05KT CAVOK"
    },
    {
      "icao": "LIPR",
      "alert": "OK",
      "vis_m": 9999,
      "fzfg": false,
      "metar_trigger": false,
      "taf_trigger": false,
      "metar": "METAR LIPR 020920Z 02005KT 320V070 CAVOK 19/03 Q1026",
      "taf": "TAF LIPR 020500Z 0206/0306 VRB05KT CAVOK"
    },
    {
      "icao": "LIPX",
      "alert": "OK",
      "vis_m": 9999,
      "fzfg": false,
      "metar_trigger": false,
      "taf_trigger": false,
      "metar": "METAR LIPX 020920Z 29005KT 190V340 CAVOK 22/02 Q1025",
      "taf": "TAF LIPX 020500Z 0206/0306 VRB05KT 9999 FEW060"
    },
    {
      "icao": "LIPY",
      "alert": "OK",
      "vis_m": 9999,
      "fzfg": false,
      "metar_trigger": false,
      "taf_trigger": false,
      "metar": "METAR LIPY 020920Z AUTO 35005KT 320V030 9999 NCD 18/10 Q1026",
      "taf": "TAF LIPY 020500Z 0206/0306 VRB05KT CAVOK"
    },
    {
      "icao": "LIPZ",
      "alert": "OK",
      "vis_m": 9999,
      "fzfg": false,
      "metar_trigger": false,
      "taf_trigger": false,
      "metar": "METAR LIPZ 020920Z 15004KT CAVOK 18/05 Q1025 NOSIG",
      "taf": "TAF LIPZ 020500Z 0206/0312 VRB05KT CAVOK"
    },
    {
      "icao": "LIRF",
      "alert": "OK",
      "vis_m": 9999,
      "fzfg": false,
      "metar_trigger": false,
      "taf_trigger": false,
      "metar": "METAR LIRF 020920Z 36005KT 260V060 CAVOK 20/02 Q1024 NOSIG",
      "taf": "TAF LIRF 020500Z 0206/0312 02008KT CAVOK"
    },
    {
      "icao": "LIRN",
      "alert": "OK",
      "vis_m": 9999,
      "fzfg": false,
      "metar_trigger": false,
      "taf_trigger": false,
      "metar": "METAR LIRN 020920Z 02011KT 340V050 9999 FEW060 18/03 Q1023 NOSIG",
      "taf": "TAF LIRN 020500Z 0206/0306 01005KT CAVOK"
    },
    {
      "icao": "LIRP",
      "alert": "OK",
      "vis_m": 9999,
      "fzfg": false,
      "metar_trigger": false,
      "taf_trigger": false,
      "metar": "METAR LIRP 020915Z 08003KT CAVOK 21/04 Q1025 NOSIG",
      "taf": "TAF LIRP 020500Z 0206/0306 10005KT CAVOK"
    },
    {
      "icao": "LIRZ",
      "alert": "OK",
      "vis_m": 9999,
      "fzfg": false,
      "metar_trigger": false,
      "taf_trigger": false,
      "metar": "METAR LIRZ 020920Z AUTO 02011KT 340V050 9999 NCD 19/02 Q1024",
      "taf": "TAF LIRZ 020500Z 0206/0306 VRB05KT CAVOK"
    },
    {
      "icao": "LJLJ",
      "alert": "OK",
      "vis_m": 9999,
      "fzfg": false,
      "metar_trigger": false,
      "taf_trigger": false,
      "metar": "METAR LJLJ 020900Z 07004KT 020V130 9999 FEW050 17/08 Q1025 NOSIG",
      "taf": "TAF LJLJ 020500Z 0206/0306 VRB02KT CAVOK"
    },
    {
      "icao": "LKMT",
      "alert": "OK",
      "vis_m": 9999,
      "fzfg": false,
      "metar_trigger": false,
      "taf_trigger": false,
      "metar": "METAR LKMT 020900Z 01005KT 340V050 CAVOK 18/04 Q1025 NOSIG",
      "taf": "TAF LKMT 020500Z 0206/0306 03008KT CAVOK"
    },
    {
      "icao": "LKPR",
      "alert": "OK",
      "vis_m": 9999,
      "fzfg": false,
      "metar_trigger": false,
      "taf_trigger": false,
      "metar": "METAR LKPR 020900Z 15006KT 100V210 CAVOK 20/03 Q1024 NOSIG",
      "taf": "TAF LKPR 020800Z 0209/0315 15006KT CAVOK"
    },
    {
      "icao": "LLBG",
      "alert": "OK",
      "vis_m": 9999,
      "fzfg": false,
      "metar_trigger": false,
      "taf_trigger": false,
      "metar": "METAR LLBG 020920Z VRB02KT CAVOK 29/01 Q1010 NOSIG",
      "taf": "TAF LLBG 020505Z 0206/0306 VRB03KT CAVOK TX30/0212Z TN14/0304Z"
    },
    {
      "icao": "LMML",
      "alert": "OK",
      "vis_m": 9999,
      "fzfg": false,
      "metar_trigger": false,
      "taf_trigger": false,
      "metar": "METAR LMML 020915Z 03011KT 360V060 9999 FEW045 20/07 Q1020 NOSIG",
      "taf": "TAF LMML 020500Z 0206/0306 04010KT 9999 FEW030"
    },
    {
      "icao": "LOWW",
      "alert": "OK",
      "vis_m": 9999,
      "fzfg": false,
      "metar_trigger": false,
      "taf_trigger": false,
      "metar": "METAR LOWW 020920Z 01006KT 320V060 CAVOK 20/07 Q1024 NOSIG",
      "taf": "TAF LOWW 020815Z 0209/0315 03006KT CAVOK TX25/0215Z TN10/0302Z"
    },
    {
      "icao": "LPFR",
      "alert": "OK",
      "vis_m": 9999,
      "fzfg": false,
      "metar_trigger": false,
      "taf_trigger": false,
      "metar": "METAR LPFR 020900Z 06005KT 350V090 9999 FEW030 18/11 Q1018",
      "taf": "TAF LPFR 020500Z 0206/0306 VRB02KT CAVOK"
    },
    {
      "icao": "LPMA",
      "alert": "OK",
      "vis_m": 9999,
      "fzfg": false,
      "metar_trigger": false,
      "taf_trigger": false,
      "metar": "METAR LPMA 020900Z 09003KT 030V120 9999 FEW015 20/12 Q1019",
      "taf": "TAF LPMA 020500Z 0206/0306 VRB05KT 9999 SCT015"
    },
    {
      "icao": "LPPR",
      "alert": "OK",
      "vis_m": 9999,
      "fzfg": false,
      "metar_trigger": false,
      "taf_trigger": false,
      "metar": "METAR LPPR 020900Z 17007KT 9999 FEW014 BKN040 16/13 Q1016",
      "taf": "TAF LPPR 020500Z 0206/0306 12005KT 9999 SCT035"
    },
    {
      "icao": "LPPS",
      "alert": "OK",
      "vis_m": 9999,
      "fzfg": false,
      "metar_trigger": false,
      "taf_trigger": false,
      "metar": "METAR LPPS 020900Z 31007KT 9999 SCT014 18/14 Q1020",
      "taf": "TAF LPPS 020500Z 0206/0312 28008KT 9999 SCT015"
    },
    {
      "icao": "LPPT",
      "alert": "OK",
      "vis_m": 9999,
      "fzfg": false,
      "metar_trigger": false,
      "taf_trigger": false,
      "metar": "METAR LPPT 020900Z 21010KT 9999 SCT020 BKN033 17/13 Q1017",
      "taf": "TAF LPPT 020500Z 0206/0312 VRB02KT 9999 SCT035"
    },
    {
      "icao": "LQBK",
      "alert": "OK",
      "vis_m": 9999,
      "fzfg": false,
      "metar_trigger": false,
      "taf_trigger": false,
      "metar": "METAR LQBK 020900Z VRB02KT CAVOK 18/05 Q1024 NOSIG",
      "taf": "TAF LQBK 020500Z 0206/0306 VRB02KT CAVOK TX19/0213Z TN09/0304Z"
    },
    {
      "icao": "LQSA",
      "alert": "OK",
      "vis_m": 9999,
      "fzfg": false,
      "metar_trigger": false,
      "taf_trigger": false,
      "metar": "METAR LQSA 020900Z 24006KT 190V300 9999 FEW060 14/02 Q1023 NOSIG",
      "taf": "TAF LQSA 020500Z 0206/0306 31005KT CAVOK TX18/0214Z TN04/0304Z"
    },
    {
      "icao": "LQTZ",
      "alert": "OK",
      "vis_m": 9999,
      "fzfg": false,
      "metar_trigger": false,
      "taf_trigger": false,
      "metar": "METAR LQTZ 020900Z 25004KT 190V300 9999 FEW050 16/03 Q1024",
      "taf": "TAF LQTZ 020500Z 0206/0306 VRB02KT 9999 SCT050 TX17/0213Z TN06/0304Z"
    },
    {
      "icao": "LRBC",
      "alert": "OK",
      "vis_m": 9999,
      "fzfg": false,
      "metar_trigger": false,
      "taf_trigger": false,
      "metar": "METAR LRBC 020900Z 05007KT 9999 -SHRA FEW023 SCT028CB BKN045 09/04 Q1024",
      "taf": "TAF LRBC 020800Z 0209/0218 01010KT 9999 SCT050"
    },
    {
      "icao": "LRBS",
      "alert": "OK",
      "vis_m": 9999,
      "fzfg": false,
      "metar_trigger": false,
      "taf_trigger": false,
      "metar": "METAR LRBS 020900Z 07009KT 010V100 9999 BKN040 13/05 Q1023 NOSIG",
      "taf": "TAF LRBS 020500Z 0206/0306 VRB04KT 9999 SCT035"
    },
    {
      "icao": "LRBV",
      "alert": "OK",
      "vis_m": 9999,
      "fzfg": false,
      "metar_trigger": false,
      "taf_trigger": false,
      "metar": "METAR LRBV 020900Z 09011KT 9999 VCSH FEW030 FEW045CB BKN053 08/01 Q1023",
      "taf": "TAF LRBV 020800Z 0209/0218 VRB03KT 9999 SCT035CB BKN050"
    },
    {
      "icao": "LRCL",
      "alert": "OK",
      "vis_m": 9999,
      "fzfg": false,
      "metar_trigger": false,
      "taf_trigger": false,
      "metar": "METAR LRCL 020900Z VRB04KT 9999 SCT059 14/M00 Q1023",
      "taf": "TAF LRCL 020800Z 0209/0218 VRB03KT CAVOK"
    },
    {
      "icao": "LRCV",
      "alert": "OK",
      "vis_m": 9999,
      "fzfg": false,
      "metar_trigger": false,
      "taf_trigger": false,
      "metar": "METAR LRCV 020900Z 28005KT 240V320 9999 FEW038 13/03 Q1023",
      "taf": "TAF LRCV 020800Z 0209/0218 VRB03KT CAVOK"
    },
    {
      "icao": "LRIA",
      "alert": "OK",
      "vis_m": 9999,
      "fzfg": false,
      "metar_trigger": false,
      "taf_trigger": false,
      "metar": "METAR LRIA 020900Z 14006KT 100V210 9999 FEW049 12/M00 Q1024",
      "taf": "TAF LRIA 020800Z 0209/0218 VRB04KT CAVOK"
    },
    {
      "icao": "LROP",
      "alert": "OK",
      "vis_m": 9999,
      "fzfg": false,
      "metar_trigger": false,
      "taf_trigger": false,
      "metar": "METAR LROP 020900Z 09010KT 9999 SCT042 14/04 Q1023 NOSIG",
      "taf": "TAF LROP 020500Z 0206/0306 VRB04KT 9999 SCT035"
    },
    {
      "icao": "LRSB",
      "alert": "OK",
      "vis_m": 9999,
      "fzfg": false,
      "metar_trigger": false,
      "taf_trigger": false,
      "metar": "METAR LRSB 020900Z 28005KT 9999 SCT065 SCT082 11/01 Q1023",
      "taf": "TAF LRSB 020500Z 0206/0306 VRB04KT 9999 SCT065"
    },
    {
      "icao": "LRSM",
      "alert": "OK",
      "vis_m": 9999,
      "fzfg": false,
      "metar_trigger": false,
      "taf_trigger": false,
      "metar": "METAR LRSM 020900Z 07006KT 020V120 CAVOK 16/01 Q1023",
      "taf": "TAF LRSM 020800Z 0209/0218 03012KT CAVOK"
    },
    {
      "icao": "LRSV",
      "alert": "OK",
      "vis_m": 9999,
      "fzfg": false,
      "metar_trigger": false,
      "taf_trigger": false,
      "metar": "METAR LRSV 020900Z 03007KT 290V080 9999 BKN032 10/02 Q1024",
      "taf": "TAF LRSV 020800Z 0209/0218 03010KT 9999 BKN030"
    },
    {
      "icao": "LRTM",
      "alert": "OK",
      "vis_m": 9999,
      "fzfg": false,
      "metar_trigger": false,
      "taf_trigger": false,
      "metar": "METAR LRTM 020900Z VRB04KT CAVOK 14/01 Q1023",
      "taf": "TAF LRTM 020800Z 0209/0218 VRB03KT CAVOK"
    },
    {
      "icao": "LRTR",
      "alert": "OK",
      "vis_m": 9999,
      "fzfg": false,
      "metar_trigger": false,
      "taf_trigger": false,
      "metar": "METAR LRTR 020900Z 33006KT 290V020 CAVOK 17/03 Q1023 NOSIG",
      "taf": "TAF LRTR 020500Z 0206/0306 09006KT CAVOK"
    },
    {
      "icao": "LTAC",
      "alert": "OK",
      "vis_m": 9999,
      "fzfg": false,
      "metar_trigger": false,
      "taf_trigger": false,
      "metar": "METAR LTAC 020920Z 09014KT 9999 FEW019 BKN025 BKN080 07/02 Q1014 NOSIG RMK RWY21C 07017KT RWY03L 08016KT RWY21R 06017KT RWY03R 07015KT RWY21L 07015KT 050V110",
      "taf": "TAF LTAC 020440Z 0206/0306 04012KT 9999 SCT035 BKN090"
    },
    {
      "icao": "LTFM",
      "alert": "OK",
      "vis_m": 9999,
      "fzfg": false,
      "metar_trigger": false,
      "taf_trigger": false,
      "metar": "METAR LTFM 020920Z 03009KT 9999 -SHRA BKN028 BKN080 09/05 Q1019 RESHRA NOSIG RMK RWY17L 03016KT 360V070 RWY34L 04012KT RWY16R 03014KT 360V060 RWY36 03009G20KT 340V050 RWY18 03014KT 350V050",
      "taf": "TAF LTFM 020440Z 0206/0312 04017KT 9999 SCT032 BKN090"
    },
    {
      "icao": "LUKK",
      "alert": "OK",
      "vis_m": 9999,
      "fzfg": false,
      "metar_trigger": false,
      "taf_trigger": false,
      "metar": "METAR LUKK 020900Z 07010KT 350V110 CAVOK 13/M06 Q1024 NOSIG",
      "taf": "TAF LUKK 020507Z 0206/0306 VRB05KT 9999 SCT040"
    },
    {
      "icao": "LWOH",
      "alert": "OK",
      "vis_m": 9999,
      "fzfg": false,
      "metar_trigger": false,
      "taf_trigger": false,
      "metar": "METAR LWOH 020920Z 03014KT 340V090 9999 FEW050 12/M03 Q1021",
      "taf": "TAF LWOH 020840Z 0209/0309 02012KT 9999 SCT050"
    },
    {
      "icao": "LWSK",
      "alert": "OK",
      "vis_m": 9999,
      "fzfg": false,
      "metar_trigger": false,
      "taf_trigger": false,
      "metar": "METAR LWSK 020930Z 14003KT CAVOK 15/02 Q1022 NOSIG",
      "taf": "TAF LWSK 020530Z 0206/0306 VRB02KT CAVOK"
    },
    {
      "icao": "LYBE",
      "alert": "OK",
      "vis_m": 9999,
      "fzfg": false,
      "metar_trigger": false,
      "taf_trigger": false,
      "metar": "METAR LYBE 020900Z 35006KT 290V040 CAVOK 17/03 Q1024 NOSIG",
      "taf": "TAF LYBE 020500Z 0206/0306 22004KT CAVOK TX20/0213Z TN06/0206Z"
    },
    {
      "icao": "LYNI",
      "alert": "OK",
      "vis_m": 9999,
      "fzfg": false,
      "metar_trigger": false,
      "taf_trigger": false,
      "metar": "METAR LYNI 020900Z VRB05KT 9999 FEW037 13/03 Q1023 NOSIG",
      "taf": "TAF LYNI 020500Z 0206/0306 09004KT 9999 SCT080 TX17/0213Z TN05/0304Z"
    },
    {
      "icao": "LYPG",
      "alert": "OK",
      "vis_m": 9999,
      "fzfg": false,
      "metar_trigger": false,
      "taf_trigger": false,
      "metar": "METAR LYPG 020900Z 11007KT 080V160 9999 FEW050 17/02 Q1021 NOSIG",
      "taf": "TAF LYPG 020500Z 0206/0306 36008KT 9999 FEW050 TX21/0214Z TN10/0304Z"
    },
    {
      "icao": "LZIB",
      "alert": "OK",
      "vis_m": 9999,
      "fzfg": false,
      "metar_trigger": false,
      "taf_trigger": false,
      "metar": "METAR LZIB 020930Z VRB03KT CAVOK 21/06 Q1024 NOSIG",
      "taf": "TAF LZIB 020515Z 0206/0306 VRB02KT CAVOK"
    },
    {
      "icao": "LZKZ",
      "alert": "OK",
      "vis_m": 9999,
      "fzfg": false,
      "metar_trigger": false,
      "taf_trigger": false,
      "metar": "METAR LZKZ 020930Z 04009KT 350V070 CAVOK 18/03 Q1024 NOSIG",
      "taf": "TAF LZKZ 020515Z 0206/0306 36006KT CAVOK"
    },
    {
      "icao": "LZTT",
      "alert": "OK",
      "vis_m": 9999,
      "fzfg": false,
      "metar_trigger": false,
      "taf_trigger": false,
      "metar": "METAR LZTT 020930Z 08013KT 9999 FEW050 16/03 Q1024 NOSIG",
      "taf": "TAF LZTT 020515Z 0206/0306 31005KT 9999 FEW050"
    },
    {
      "icao": "OEJN",
      "alert": "OK",
      "vis_m": 9999,
      "fzfg": false,
      "metar_trigger": false,
      "taf_trigger": false,
      "metar": "METAR OEJN 020900Z 34008KT CAVOK 36/04 Q1009 NOSIG",
      "taf": "TAF OEJN 020500Z 0206/0312 32015KT CAVOK"
    },
    {
      "icao": "OEMA",
      "alert": "OK",
      "vis_m": 9999,
      "fzfg": false,
      "metar_trigger": false,
      "taf_trigger": false,
      "metar": "METAR OEMA 020900Z VRB03KT CAVOK 34/M04 Q1015 NOSIG",
      "taf": "TAF OEMA 020500Z 0206/0312 30012KT CAVOK"
    },
    {
      "icao": "OJAI",
      "alert": "OK",
      "vis_m": 5000,
      "fzfg": false,
      "metar_trigger": false,
      "taf_trigger": false,
      "metar": "METAR OJAI 020900Z 08003KT 5000 HZ NSC 25/M01 Q1014 NOSIG",
      "taf": "TAF OJAI 020447Z 0206/0312 30012KT 5000 HZ NSC"
    },
    {
      "icao": "OMAA",
      "alert": "OK",
      "vis_m": 9999,
      "fzfg": false,
      "metar_trigger": false,
      "taf_trigger": false,
      "metar": "METAR OMAA 020930Z 33009KT 300V020 CAVOK 38/10 Q1007 NOSIG",
      "taf": "TAF OMAA 020500Z 0206/0312 33011KT CAVOK"
    },
    {
      "icao": "OMDB",
      "alert": "OK",
      "vis_m": 9999,
      "fzfg": false,
      "metar_trigger": false,
      "taf_trigger": false,
      "metar": "METAR OMDB 020930Z 33009KT 300V360 CAVOK 38/11 Q1007 NOSIG",
      "taf": "TAF OMDB 020500Z 0206/0312 22005KT CAVOK"
    },
    {
      "icao": "UAAA",
      "alert": "OK",
      "vis_m": 9999,
      "fzfg": false,
      "metar_trigger": false,
      "taf_trigger": false,
      "metar": "METAR UAAA 020900Z 04005MPS 020V080 9999 FEW050CB SCT100 BKN200 27/10 Q1011 NOSIG",
      "taf": "TAF UAAA 020505Z 0206/0306 04004G09MPS 9999 SCT050CB BKN100 TX28/0209Z TN15/0301Z"
    },
    {
      "icao": "UBBB",
      "alert": "OK",
      "vis_m": 9999,
      "fzfg": false,
      "metar_trigger": false,
      "taf_trigger": false,
      "metar": "METAR UBBB 020930Z 32014KT 9999 SCT027 17/12 Q1013 NOSIG",
      "taf": "TAF UBBB 020501Z 0206/0306 19014KT 9999 SCT020 TX19/0209Z TN11/0301Z"
    },
    {
      "icao": "UDSG",
      "alert": "OK",
      "vis_m": 9999,
      "fzfg": false,
      "metar_trigger": false,
      "taf_trigger": false,
      "metar": "METAR UDSG 020900Z 26005KT 230V300 9999 SCT026CB BKN040 13/06 Q1016 NOSIG",
      "taf": "TAF UDSG 020458Z 0206/0306 06006KT 9999 BKN040"
    },
    {
      "icao": "UDYZ",
      "alert": "OK",
      "vis_m": 9999,
      "fzfg": false,
      "metar_trigger": false,
      "taf_trigger": false,
      "metar": "METAR UDYZ 020900Z 27005KT 230V310 9999 FEW043CB 20/06 Q1013 NOSIG",
      "taf": "TAF UDYZ 020500Z 0206/0306 22006KT 9999 FEW040"
    },
    {
      "icao": "UGKO",
      "alert": "OK",
      "vis_m": 9999,
      "fzfg": false,
      "metar_trigger": false,
      "taf_trigger": false,
      "metar": "METAR UGKO 020900Z VRB02KT 9999 SCT012 BKN044 13/10 Q1017 NOSIG",
      "taf": "TAF UGKO 020500Z 0206/0306 26007KT 9999 SCT020 BKN050 TX14/0211Z TN08/0302Z"
    }
  ]
}