{
  "ts_utc": "2026-05-25T15:41:08Z",
  "threshold_m": 150,
  "source": "stations_override.txt (ICAO list) + aviationweather.gov (METAR/TAF raw)",
  "station_count": 159,
  "stations": [
    {
      "icao": "BIKF",
      "alert": "OK",
      "vis_m": 9999,
      "fzfg": false,
      "metar_trigger": false,
      "taf_trigger": false,
      "metar": "METAR BIKF 251530Z 26010KT 9999 FEW012 BKN092 09/06 Q1010",
      "taf": "TAF BIKF 251348Z 2515/2615 24015KT 9999 -SHRA SCT015TCU BKN028 TX09/2613Z TN06/2601Z"
    },
    {
      "icao": "BKPR",
      "alert": "OK",
      "vis_m": 9999,
      "fzfg": false,
      "metar_trigger": false,
      "taf_trigger": false,
      "metar": "METAR BKPR 251530Z 01015KT 9999 FEW060 26/09 Q1026 NOSIG",
      "taf": "TAF BKPR 251130Z 2512/2612 02008KT 9999 FEW050"
    },
    {
      "icao": "EBCI",
      "alert": "OK",
      "vis_m": 9999,
      "fzfg": false,
      "metar_trigger": false,
      "taf_trigger": false,
      "metar": "METAR EBCI 251520Z 06008KT 020V090 CAVOK 28/11 Q1031 NOSIG",
      "taf": "TAF EBCI 251100Z 2512/2618 04005KT CAVOK"
    },
    {
      "icao": "EDDB",
      "alert": "OK",
      "vis_m": 9999,
      "fzfg": false,
      "metar_trigger": false,
      "taf_trigger": false,
      "metar": "METAR EDDB 251520Z AUTO 30007KT 240V340 CAVOK 26/12 Q1030 NOSIG",
      "taf": "TAF EDDB 251100Z 2512/2612 29005KT CAVOK"
    },
    {
      "icao": "EDDH",
      "alert": "OK",
      "vis_m": 9999,
      "fzfg": false,
      "metar_trigger": false,
      "taf_trigger": false,
      "metar": "METAR EDDH 251520Z AUTO 31009KT 270V360 CAVOK 25/13 Q1031 NOSIG",
      "taf": "TAF EDDH 251100Z 2512/2618 30007KT CAVOK"
    },
    {
      "icao": "EDDK",
      "alert": "OK",
      "vis_m": 9999,
      "fzfg": false,
      "metar_trigger": false,
      "taf_trigger": false,
      "metar": "METAR EDDK 251520Z AUTO 05005KT 010V150 CAVOK 29/11 Q1030 NOSIG",
      "taf": "TAF EDDK 251100Z 2512/2618 VRB03KT CAVOK"
    },
    {
      "icao": "EDDN",
      "alert": "OK",
      "vis_m": 9999,
      "fzfg": false,
      "metar_trigger": false,
      "taf_trigger": false,
      "metar": "METAR EDDN 251520Z AUTO 31005KT 230V360 CAVOK 30/08 Q1030 NOSIG",
      "taf": "TAF EDDN 251100Z 2512/2612 VRB03KT CAVOK"
    },
    {
      "icao": "EDDS",
      "alert": "OK",
      "vis_m": 9999,
      "fzfg": false,
      "metar_trigger": false,
      "taf_trigger": false,
      "metar": "METAR EDDS 251520Z AUTO 01007KT 340V050 CAVOK 29/10 Q1030 NOSIG",
      "taf": "TAF EDDS 251100Z 2512/2612 VRB03KT CAVOK"
    },
    {
      "icao": "EDFH",
      "alert": "OK",
      "vis_m": 9999,
      "fzfg": false,
      "metar_trigger": false,
      "taf_trigger": false,
      "metar": "METAR EDFH 251520Z 03006KT 350V090 CAVOK 26/09 Q1032",
      "taf": "TAF EDFH 251100Z 2512/2612 03005KT CAVOK"
    },
    {
      "icao": "EDJA",
      "alert": "OK",
      "vis_m": 9999,
      "fzfg": false,
      "metar_trigger": false,
      "taf_trigger": false,
      "metar": "METAR EDJA 251520Z 02007KT 330V060 CAVOK 28/11 Q1031",
      "taf": "TAF EDJA 251400Z 2515/2524 03006KT CAVOK"
    },
    {
      "icao": "EDLW",
      "alert": "OK",
      "vis_m": 9999,
      "fzfg": false,
      "metar_trigger": false,
      "taf_trigger": false,
      "metar": "METAR EDLW 251520Z 03006KT 330V090 CAVOK 26/10 Q1031",
      "taf": "TAF EDLW 251100Z 2512/2612 VRB03KT CAVOK"
    },
    {
      "icao": "EDNY",
      "alert": "OK",
      "vis_m": 9999,
      "fzfg": false,
      "metar_trigger": false,
      "taf_trigger": false,
      "metar": "METAR EDNY 251520Z 02007KT 340V050 CAVOK 30/09 Q1029",
      "taf": "TAF EDNY 251400Z 2515/2524 02004KT CAVOK"
    },
    {
      "icao": "EDSB",
      "alert": "OK",
      "vis_m": 9999,
      "fzfg": false,
      "metar_trigger": false,
      "taf_trigger": false,
      "metar": "METAR EDSB 251520Z 02007KT 340V040 CAVOK 30/11 Q1029",
      "taf": "TAF EDSB 251100Z 2512/2612 02007KT CAVOK"
    },
    {
      "icao": "EETN",
      "alert": "OK",
      "vis_m": 9999,
      "fzfg": false,
      "metar_trigger": false,
      "taf_trigger": false,
      "metar": "METAR EETN 251520Z 28022KT CAVOK 13/05 Q1016 TEMPO 28022G34KT",
      "taf": "TAF EETN 251130Z 2512/2612 28020KT CAVOK"
    },
    {
      "icao": "EFTU",
      "alert": "OK",
      "vis_m": 9999,
      "fzfg": false,
      "metar_trigger": false,
      "taf_trigger": false,
      "metar": "METAR EFTU 251520Z AUTO 31012KT 280V360 CAVOK 14/02 Q1016",
      "taf": "TAF EFTU 251429Z 2515/2615 32015KT 9999 SCT047"
    },
    {
      "icao": "EGBB",
      "alert": "OK",
      "vis_m": 9999,
      "fzfg": false,
      "metar_trigger": false,
      "taf_trigger": false,
      "metar": "METAR EGBB 251520Z 16006KT 140V220 CAVOK 32/13 Q1029",
      "taf": "TAF EGBB 251055Z 2512/2612 17006KT CAVOK"
    },
    {
      "icao": "EGGP",
      "alert": "OK",
      "vis_m": 9999,
      "fzfg": false,
      "metar_trigger": false,
      "taf_trigger": false,
      "metar": "METAR EGGP 251520Z 17007KT 130V210 CAVOK 31/12 Q1028",
      "taf": "TAF EGGP 251057Z 2512/2612 14005KT CAVOK"
    },
    {
      "icao": "EGGW",
      "alert": "OK",
      "vis_m": 9999,
      "fzfg": false,
      "metar_trigger": false,
      "taf_trigger": false,
      "metar": "METAR EGGW 251520Z AUTO 13009KT 9999 NCD 31/13 Q1030",
      "taf": "TAF EGGW 251053Z 2512/2612 14007KT CAVOK"
    },
    {
      "icao": "EGKK",
      "alert": "OK",
      "vis_m": 9999,
      "fzfg": false,
      "metar_trigger": false,
      "taf_trigger": false,
      "metar": "METAR EGKK 251520Z 13007KT 100V160 CAVOK 31/15 Q1030",
      "taf": "TAF EGKK 251056Z 2512/2618 15010KT CAVOK"
    },
    {
      "icao": "EGNM",
      "alert": "OK",
      "vis_m": 9999,
      "fzfg": false,
      "metar_trigger": false,
      "taf_trigger": false,
      "metar": "METAR EGNM 251520Z 22010KT 190V250 CAVOK 30/12 Q1029",
      "taf": "TAF EGNM 251056Z 2512/2612 23007KT CAVOK"
    },
    {
      "icao": "EGPD",
      "alert": "OK",
      "vis_m": 9999,
      "fzfg": false,
      "metar_trigger": false,
      "taf_trigger": false,
      "metar": "METAR EGPD 251520Z COR AUTO 08004KT 010V150 9999 NCD 23/13 Q1027 NOSIG",
      "taf": "TAF EGPD 251056Z 2512/2612 10005KT 9999 FEW045"
    },
    {
      "icao": "EGPF",
      "alert": "OK",
      "vis_m": 9999,
      "fzfg": false,
      "metar_trigger": false,
      "taf_trigger": false,
      "metar": "METAR EGPF 251520Z AUTO 28009KT 250V310 9999 NCD 23/12 Q1029",
      "taf": "TAF EGPF 251053Z 2512/2612 26008KT 9999 FEW040"
    },
    {
      "icao": "EHBK",
      "alert": "OK",
      "vis_m": 9999,
      "fzfg": false,
      "metar_trigger": false,
      "taf_trigger": false,
      "metar": "METAR EHBK 251525Z AUTO 35005KT 270V070 9999 NCD 28/09 Q1030 NOSIG",
      "taf": "TAF EHBK 251042Z 2512/2618 06003KT CAVOK"
    },
    {
      "icao": "EHEH",
      "alert": "OK",
      "vis_m": 9999,
      "fzfg": false,
      "metar_trigger": false,
      "taf_trigger": false,
      "metar": "METAR EHEH 251525Z AUTO 36005KT 280V040 9999 ////// 28/11 Q1031 BLU NOSIG",
      "taf": "TAF EHEH 251154Z 2512/2618 06005KT CAVOK"
    },
    {
      "icao": "EKBI",
      "alert": "OK",
      "vis_m": 9999,
      "fzfg": false,
      "metar_trigger": false,
      "taf_trigger": false,
      "metar": "METAR EKBI 251520Z AUTO 26015KT 9999 NCD 22/12 Q1029",
      "taf": "TAF EKBI 251427Z 2515/2615 25015KT CAVOK"
    },
    {
      "icao": "EKCH",
      "alert": "OK",
      "vis_m": 9999,
      "fzfg": false,
      "metar_trigger": false,
      "taf_trigger": false,
      "metar": "METAR EKCH 251520Z AUTO 27015KT 9999 NCD 23/10 Q1028 NOSIG",
      "taf": "TAF EKCH 251427Z 2515/2615 28011KT CAVOK"
    },
    {
      "icao": "ENAL",
      "alert": "OK",
      "vis_m": 9999,
      "fzfg": false,
      "metar_trigger": false,
      "taf_trigger": false,
      "metar": "METAR ENAL 251520Z 24015KT 9999 SCT005 BKN010 11/10 Q1022",
      "taf": ""
    },
    {
      "icao": "ENBR",
      "alert": "OK",
      "vis_m": 1600,
      "fzfg": false,
      "metar_trigger": false,
      "taf_trigger": false,
      "metar": "METAR ENBR 251520Z 16010KT 1600 -RADZ BR VV002 10/10 Q1026 NOSIG RMK WIND 1200FT 21012KT",
      "taf": ""
    },
    {
      "icao": "ENGM",
      "alert": "OK",
      "vis_m": 9999,
      "fzfg": false,
      "metar_trigger": false,
      "taf_trigger": false,
      "metar": "METAR ENGM 251520Z 25008KT 220V300 CAVOK 19/06 Q1021 NOSIG",
      "taf": "TAF ENGM 251100Z 2512/2612 24008KT 9999 SCT040"
    },
    {
      "icao": "ENHD",
      "alert": "OK",
      "vis_m": 9999,
      "fzfg": false,
      "metar_trigger": false,
      "taf_trigger": false,
      "metar": "METAR ENHD 251520Z VRB02KT 9999 SCT037 BKN048 13/11 Q1027",
      "taf": ""
    },
    {
      "icao": "ENTC",
      "alert": "OK",
      "vis_m": 9999,
      "fzfg": false,
      "metar_trigger": false,
      "taf_trigger": false,
      "metar": "METAR ENTC 251520Z 28009KT 9999 -RA SCT020 OVC027 08/05 Q1011 NOSIG RMK WIND 2600FT 24012KT",
      "taf": ""
    },
    {
      "icao": "ENTO",
      "alert": "OK",
      "vis_m": 9999,
      "fzfg": false,
      "metar_trigger": false,
      "taf_trigger": false,
      "metar": "METAR ENTO 251520Z 30009KT 260V340 CAVOK 21/08 Q1022 NOSIG",
      "taf": "TAF ENTO 251100Z 2512/2612 21012KT CAVOK"
    },
    {
      "icao": "ENVA",
      "alert": "OK",
      "vis_m": 9999,
      "fzfg": false,
      "metar_trigger": false,
      "taf_trigger": false,
      "metar": "METAR ENVA 251520Z 27004KT 190V290 9999 SCT044 BKN056 12/08 Q1021 NOSIG RMK WIND 670FT 29005KT",
      "taf": "TAF ENVA 251100Z 2512/2612 24008KT 9999 SCT020 BKN030"
    },
    {
      "icao": "ENZV",
      "alert": "OK",
      "vis_m": 9999,
      "fzfg": false,
      "metar_trigger": false,
      "taf_trigger": false,
      "metar": "METAR ENZV 251520Z 31004KT CAVOK 15/10 Q1027 NOSIG",
      "taf": "TAF ENZV 251100Z 2512/2612 24007KT 9999 SCT040"
    },
    {
      "icao": "EPGD",
      "alert": "OK",
      "vis_m": 9999,
      "fzfg": false,
      "metar_trigger": false,
      "taf_trigger": false,
      "metar": "METAR EPGD 251530Z 27015KT CAVOK 21/07 Q1027",
      "taf": ""
    },
    {
      "icao": "EPKK",
      "alert": "OK",
      "vis_m": 9999,
      "fzfg": false,
      "metar_trigger": false,
      "taf_trigger": false,
      "metar": "METAR EPKK 251530Z 33010KT CAVOK 25/08 Q1028",
      "taf": "TAF EPKK 251430Z 2515/2615 30010KT CAVOK"
    },
    {
      "icao": "EPKT",
      "alert": "OK",
      "vis_m": 9999,
      "fzfg": false,
      "metar_trigger": false,
      "taf_trigger": false,
      "metar": "METAR EPKT 251530Z 34008KT CAVOK 23/09 Q1029",
      "taf": "TAF EPKT 251130Z 2512/2612 34010KT CAVOK"
    },
    {
      "icao": "EPLB",
      "alert": "OK",
      "vis_m": 9999,
      "fzfg": false,
      "metar_trigger": false,
      "taf_trigger": false,
      "metar": "METAR EPLB 251530Z 31012KT CAVOK 24/10 Q1025",
      "taf": "TAF EPLB 251130Z 2512/2612 30010KT CAVOK"
    },
    {
      "icao": "EPMO",
      "alert": "OK",
      "vis_m": 9999,
      "fzfg": false,
      "metar_trigger": false,
      "taf_trigger": false,
      "metar": "METAR EPMO 251530Z 29013KT 270V330 CAVOK 26/10 Q1026",
      "taf": "TAF EPMO 251130Z 2512/2612 29010KT CAVOK"
    },
    {
      "icao": "EPPO",
      "alert": "OK",
      "vis_m": 9999,
      "fzfg": false,
      "metar_trigger": false,
      "taf_trigger": false,
      "metar": "METAR EPPO 251530Z 29009KT CAVOK 27/10 Q1029",
      "taf": "TAF EPPO 251130Z 2512/2612 32010KT CAVOK"
    },
    {
      "icao": "EPRA",
      "alert": "OK",
      "vis_m": 9999,
      "fzfg": false,
      "metar_trigger": false,
      "taf_trigger": false,
      "metar": "METAR EPRA 251530Z 32014KT 270V340 CAVOK 24/09 Q1027",
      "taf": "TAF EPRA 251430Z 2515/2524 31010KT CAVOK"
    },
    {
      "icao": "EPRZ",
      "alert": "OK",
      "vis_m": 9999,
      "fzfg": false,
      "metar_trigger": false,
      "taf_trigger": false,
      "metar": "METAR EPRZ 251530Z 33009KT 300V360 CAVOK 25/09 Q1026",
      "taf": "TAF EPRZ 251130Z 2512/2612 33012KT CAVOK"
    },
    {
      "icao": "EPSC",
      "alert": "OK",
      "vis_m": 9999,
      "fzfg": false,
      "metar_trigger": false,
      "taf_trigger": false,
      "metar": "METAR EPSC 251530Z 28009KT 240V310 CAVOK 24/11 Q1029",
      "taf": ""
    },
    {
      "icao": "EPSY",
      "alert": "OK",
      "vis_m": 9999,
      "fzfg": false,
      "metar_trigger": false,
      "taf_trigger": false,
      "metar": "METAR EPSY 251530Z 32012KT 290V350 CAVOK 23/10 Q1026",
      "taf": "TAF EPSY 251430Z 2515/2524 30012KT CAVOK"
    },
    {
      "icao": "EPWA",
      "alert": "OK",
      "vis_m": 9999,
      "fzfg": false,
      "metar_trigger": false,
      "taf_trigger": false,
      "metar": "METAR EPWA 251530Z 30014KT CAVOK 25/09 Q1026 NOSIG",
      "taf": "TAF EPWA 251430Z 2515/2615 30010KT CAVOK"
    },
    {
      "icao": "EPWR",
      "alert": "OK",
      "vis_m": 9999,
      "fzfg": false,
      "metar_trigger": false,
      "taf_trigger": false,
      "metar": "METAR EPWR 251530Z 31011KT CAVOK 26/09 Q1029",
      "taf": "TAF EPWR 251430Z 2515/2615 33010KT CAVOK"
    },
    {
      "icao": "ESGG",
      "alert": "OK",
      "vis_m": 9999,
      "fzfg": false,
      "metar_trigger": false,
      "taf_trigger": false,
      "metar": "METAR ESGG 251520Z 26013KT CAVOK 20/10 Q1025",
      "taf": "TAF ESGG 251430Z 2515/2615 26010KT CAVOK"
    },
    {
      "icao": "ESKN",
      "alert": "OK",
      "vis_m": 9999,
      "fzfg": false,
      "metar_trigger": false,
      "taf_trigger": false,
      "metar": "METAR ESKN 251520Z 28014KT 250V310 9999 BKN049 19/10 Q1020",
      "taf": "TAF ESKN 251430Z 2515/2615 30012KT CAVOK"
    },
    {
      "icao": "ESMS",
      "alert": "OK",
      "vis_m": 9999,
      "fzfg": false,
      "metar_trigger": false,
      "taf_trigger": false,
      "metar": "METAR ESMS 251520Z 27015KT CAVOK 22/11 Q1028",
      "taf": "TAF ESMS 251427Z 2515/2615 28013KT CAVOK"
    },
    {
      "icao": "ESSA",
      "alert": "OK",
      "vis_m": 9999,
      "fzfg": false,
      "metar_trigger": false,
      "taf_trigger": false,
      "metar": "METAR ESSA 251520Z 28009KT CAVOK 16/07 Q1019 NOSIG",
      "taf": "TAF ESSA 251430Z 2515/2615 27009KT 9999 SCT045"
    },
    {
      "icao": "EYKA",
      "alert": "OK",
      "vis_m": 9999,
      "fzfg": false,
      "metar_trigger": false,
      "taf_trigger": false,
      "metar": "METAR EYKA 251520Z 30014KT 270V340 CAVOK 20/08 Q1021",
      "taf": "TAF EYKA 251100Z 2512/2612 28011KT 9000 FEW045"
    },
    {
      "icao": "EYPA",
      "alert": "OK",
      "vis_m": 9999,
      "fzfg": false,
      "metar_trigger": false,
      "taf_trigger": false,
      "metar": "METAR EYPA 251520Z 28005KT 230V330 CAVOK 15/10 Q1024",
      "taf": "TAF EYPA 251100Z 2512/2612 VRB03KT 9000 NSC"
    },
    {
      "icao": "EYVI",
      "alert": "OK",
      "vis_m": 9999,
      "fzfg": false,
      "metar_trigger": false,
      "taf_trigger": false,
      "metar": "METAR EYVI 251520Z 30017KT 9999 SCT049 20/09 Q1020 NOSIG",
      "taf": "TAF EYVI 251100Z 2512/2612 29013KT 9000 SCT045"
    },
    {
      "icao": "GCFV",
      "alert": "OK",
      "vis_m": 9999,
      "fzfg": false,
      "metar_trigger": false,
      "taf_trigger": false,
      "metar": "METAR GCFV 251530Z 07005KT 030V110 CAVOK 24/19 Q1017",
      "taf": "TAF GCFV 251400Z 2515/2615 15010KT CAVOK TX33/2614Z TN20/2606Z"
    },
    {
      "icao": "GCLP",
      "alert": "OK",
      "vis_m": 9999,
      "fzfg": false,
      "metar_trigger": false,
      "taf_trigger": false,
      "metar": "METAR GCLP 251530Z 03020KT 9999 FEW020 23/18 Q1017 NOSIG",
      "taf": "TAF GCLP 251400Z 2515/2615 03020KT 9999 FEW020 TX29/2614Z TN20/2606Z"
    },
    {
      "icao": "GCTS",
      "alert": "OK",
      "vis_m": 9999,
      "fzfg": false,
      "metar_trigger": false,
      "taf_trigger": false,
      "metar": "METAR GCTS 251530Z 11012KT CAVOK 24/17 Q1018 NOSIG",
      "taf": "TAF GCTS 251400Z 2515/2615 11010KT 9999 FEW015 TX30/2614Z TN21/2606Z"
    },
    {
      "icao": "GMAD",
      "alert": "OK",
      "vis_m": 9999,
      "fzfg": false,
      "metar_trigger": false,
      "taf_trigger": false,
      "metar": "METAR GMAD 251530Z 27013KT 9999 SCT040 37/08 Q1014 NOSIG",
      "taf": ""
    },
    {
      "icao": "GMMN",
      "alert": "OK",
      "vis_m": 9999,
      "fzfg": false,
      "metar_trigger": false,
      "taf_trigger": false,
      "metar": "METAR GMMN 251530Z 01015KT 330V040 CAVOK 40/10 Q1017 NOSIG",
      "taf": "TAF GMMN 251100Z 2512/2618 36010KT CAVOK"
    },
    {
      "icao": "GMMX",
      "alert": "OK",
      "vis_m": 8000,
      "fzfg": false,
      "metar_trigger": false,
      "taf_trigger": false,
      "metar": "METAR GMMX 251530Z 16009KT 120V220 8000 BKN033 SCT040TCU 38/10 Q1017 NOSIG",
      "taf": "TAF GMMX 251100Z 2512/2618 32008KT 8000 SCT040 SCT100"
    },
    {
      "icao": "HEGN",
      "alert": "OK",
      "vis_m": 9999,
      "fzfg": false,
      "metar_trigger": false,
      "taf_trigger": false,
      "metar": "METAR HEGN 251500Z 36020KT CAVOK 30/10 Q1011 NOSIG",
      "taf": "TAF HEGN 251100Z 2512/2618 34010G22KT CAVOK"
    },
    {
      "icao": "HEMA",
      "alert": "OK",
      "vis_m": 9999,
      "fzfg": false,
      "metar_trigger": false,
      "taf_trigger": false,
      "metar": "METAR HEMA 251500Z 35016KT CAVOK 29/14 Q1011 NOSIG",
      "taf": "TAF HEMA 251100Z 2512/2618 36015G30KT CAVOK"
    },
    {
      "icao": "HESH",
      "alert": "OK",
      "vis_m": 9999,
      "fzfg": false,
      "metar_trigger": false,
      "taf_trigger": false,
      "metar": "METAR HESH 251500Z 36008KT CAVOK 34/10 Q1010 NOSIG",
      "taf": "TAF HESH 251100Z 2512/2618 02015KT CAVOK"
    },
    {
      "icao": "HESX",
      "alert": "OK",
      "vis_m": 9999,
      "fzfg": false,
      "metar_trigger": false,
      "taf_trigger": false,
      "metar": "METAR HESX 251500Z 01012KT CAVOK 28/12 Q1016 NOSIG",
      "taf": "TAF HESX 251100Z 2512/2618 01006KT CAVOK"
    },
    {
      "icao": "LATI",
      "alert": "OK",
      "vis_m": 9999,
      "fzfg": false,
      "metar_trigger": false,
      "taf_trigger": false,
      "metar": "METAR LATI 251520Z 35012KT CAVOK 26/12 Q1023 NOSIG",
      "taf": "TAF LATI 251100Z 2512/2612 34012KT CAVOK TX32/2612Z TN14/2604Z"
    },
    {
      "icao": "LBPD",
      "alert": "OK",
      "vis_m": 9999,
      "fzfg": false,
      "metar_trigger": false,
      "taf_trigger": false,
      "metar": "METAR LBPD 251530Z AUTO 15006KT 9999 NCD 25/16 Q1022 NOSIG",
      "taf": "TAF LBPD 251100Z 2512/2612 30010KT 9999 SCT060"
    },
    {
      "icao": "LBSF",
      "alert": "OK",
      "vis_m": 9999,
      "fzfg": false,
      "metar_trigger": false,
      "taf_trigger": false,
      "metar": "METAR LBSF 251530Z AUTO 05007KT 9999 FEW003/// 25/10 Q1025 NOSIG",
      "taf": "TAF LBSF 251100Z 2512/2612 04010KT 9999 SCT060"
    },
    {
      "icao": "LBWN",
      "alert": "OK",
      "vis_m": 9999,
      "fzfg": false,
      "metar_trigger": false,
      "taf_trigger": false,
      "metar": "METAR LBWN 251530Z AUTO 10006KT 9999 NSC 23/12 Q1021 NOSIG",
      "taf": "TAF LBWN 251100Z 2512/2612 35010KT 9999 SCT040"
    },
    {
      "icao": "LCLK",
      "alert": "OK",
      "vis_m": 9999,
      "fzfg": false,
      "metar_trigger": false,
      "taf_trigger": false,
      "metar": "METAR LCLK 251530Z 23008KT 9999 -SHRA FEW007 FEW020TCU FEW025CB SCT050 23/19 Q1015 NOSIG RMK CB TO NW",
      "taf": "TAF LCLK 251130Z 2512/2612 21016KT 9999 FEW025"
    },
    {
      "icao": "LCPH",
      "alert": "OK",
      "vis_m": 9999,
      "fzfg": false,
      "metar_trigger": false,
      "taf_trigger": false,
      "metar": "METAR LCPH 251530Z 31011KT 250V320 9999 FEW025 FEW030TCU 22/17 Q1016 NOSIG",
      "taf": "TAF LCPH 251130Z 2512/2612 29012KT 9999 FEW020"
    },
    {
      "icao": "LEAL",
      "alert": "OK",
      "vis_m": 9999,
      "fzfg": false,
      "metar_trigger": false,
      "taf_trigger": false,
      "metar": "METAR LEAL 251530Z 08009KT 050V120 9999 FEW010 25/17 Q1026 NOSIG",
      "taf": "TAF LEAL 251100Z 2512/2612 09010KT CAVOK TX27/2512Z TN15/2605Z"
    },
    {
      "icao": "LEBB",
      "alert": "OK",
      "vis_m": 9999,
      "fzfg": false,
      "metar_trigger": false,
      "taf_trigger": false,
      "metar": "METAR LEBB 251530Z 13008KT 080V160 CAVOK 35/12 Q1022 NOSIG",
      "taf": "TAF LEBB 251100Z 2512/2612 13009KT CAVOK TX36/2515Z TN18/2605Z"
    },
    {
      "icao": "LEBL",
      "alert": "OK",
      "vis_m": 9999,
      "fzfg": false,
      "metar_trigger": false,
      "taf_trigger": false,
      "metar": "METAR LEBL 251530Z 12006KT 080V160 CAVOK 25/16 Q1028 NOSIG",
      "taf": "TAF LEBL 251100Z 2512/2612 12008KT 9999 FEW010 TX26/2512Z TN18/2605Z"
    },
    {
      "icao": "LECH",
      "alert": "OK",
      "vis_m": 9999,
      "fzfg": false,
      "metar_trigger": false,
      "taf_trigger": false,
      "metar": "METAR LECH 251530Z AUTO 09008KT 040V160 CAVOK 24/12 Q1028",
      "taf": "TAF LECH 251100Z 2512/2612 09009KT CAVOK TX30/2513Z TN13/2605Z"
    },
    {
      "icao": "LEMD",
      "alert": "OK",
      "vis_m": 9999,
      "fzfg": false,
      "metar_trigger": false,
      "taf_trigger": false,
      "metar": "METAR LEMD 251530Z 14006KT 080V190 CAVOK 31/02 Q1025 NOSIG",
      "taf": "TAF LEMD 251100Z 2512/2618 VRB04KT CAVOK TX33/2516Z TN14/2605Z"
    },
    {
      "icao": "LEMG",
      "alert": "OK",
      "vis_m": 9999,
      "fzfg": false,
      "metar_trigger": false,
      "taf_trigger": false,
      "metar": "METAR LEMG 251530Z 13008KT 090V170 CAVOK 24/12 Q1025 NOSIG",
      "taf": "TAF LEMG 251100Z 2512/2612 13010KT CAVOK TX27/2514Z TN17/2606Z"
    },
    {
      "icao": "LEVC",
      "alert": "OK",
      "vis_m": 9999,
      "fzfg": false,
      "metar_trigger": false,
      "taf_trigger": false,
      "metar": "METAR LEVC 251530Z 08010KT 050V120 CAVOK 27/08 Q1027 NOSIG",
      "taf": "TAF LEVC 251100Z 2512/2612 09010KT CAVOK TX28/2512Z TN15/2605Z"
    },
    {
      "icao": "LEXJ",
      "alert": "OK",
      "vis_m": 9999,
      "fzfg": false,
      "metar_trigger": false,
      "taf_trigger": false,
      "metar": "METAR LEXJ 251530Z VRB02KT CAVOK 32/19 Q1020",
      "taf": "TAF LEXJ 251400Z 2515/2615 16008KT CAVOK TX36/2613Z TN18/2604Z"
    },
    {
      "icao": "LEZG",
      "alert": "OK",
      "vis_m": 9999,
      "fzfg": false,
      "metar_trigger": false,
      "taf_trigger": false,
      "metar": "METAR LEZG 251530Z 09013KT 060V120 CAVOK 32/08 Q1025 NOSIG",
      "taf": "TAF LEZG 251100Z 2512/2612 11012KT CAVOK TX34/2515Z TN17/2605Z"
    },
    {
      "icao": "LEZL",
      "alert": "OK",
      "vis_m": 9999,
      "fzfg": false,
      "metar_trigger": false,
      "taf_trigger": false,
      "metar": "METAR LEZL 251530Z 12003KT CAVOK 36/08 Q1020 NOSIG",
      "taf": "TAF LEZL 251400Z 2515/2615 VRB03KT CAVOK TX36/2515Z TN15/2606Z"
    },
    {
      "icao": "LFBD",
      "alert": "OK",
      "vis_m": 9999,
      "fzfg": false,
      "metar_trigger": false,
      "taf_trigger": false,
      "metar": "METAR LFBD 251530Z AUTO 11004KT 050V170 CAVOK 34/15 Q1024 NOSIG",
      "taf": "TAF LFBD 251100Z 2512/2618 12008KT CAVOK TX37/2615Z TN20/2605Z"
    },
    {
      "icao": "LFLL",
      "alert": "OK",
      "vis_m": 9999,
      "fzfg": false,
      "metar_trigger": false,
      "taf_trigger": false,
      "metar": "METAR LFLL 251530Z VRB02KT CAVOK 32/14 Q1027 NOSIG",
      "taf": "TAF LFLL 251100Z 2512/2618 VRB04KT CAVOK"
    },
    {
      "icao": "LFLS",
      "alert": "OK",
      "vis_m": 9999,
      "fzfg": false,
      "metar_trigger": false,
      "taf_trigger": false,
      "metar": "METAR LFLS 251530Z AUTO 28005KT 240V330 CAVOK 31/10 Q1028 TEMPO FEW070CB",
      "taf": "TAF LFLS 251400Z 2515/2615 21006KT CAVOK"
    },
    {
      "icao": "LFMN",
      "alert": "OK",
      "vis_m": 9999,
      "fzfg": false,
      "metar_trigger": false,
      "taf_trigger": false,
      "metar": "METAR LFMN 251530Z 18005KT CAVOK 27/20 Q1027 NOSIG",
      "taf": "TAF LFMN 251400Z 2515/2621 14004KT CAVOK"
    },
    {
      "icao": "LFOB",
      "alert": "OK",
      "vis_m": 9999,
      "fzfg": false,
      "metar_trigger": false,
      "taf_trigger": false,
      "metar": "METAR LFOB 251530Z AUTO 07008KT CAVOK 30/19 Q1029 NOSIG",
      "taf": "TAF LFOB 251100Z 2512/2612 07008KT CAVOK"
    },
    {
      "icao": "LFPO",
      "alert": "OK",
      "vis_m": 9999,
      "fzfg": false,
      "metar_trigger": false,
      "taf_trigger": false,
      "metar": "METAR LFPO 251530Z 09009KT 070V130 CAVOK 31/17 Q1028 NOSIG",
      "taf": "TAF LFPO 251100Z 2512/2618 09008KT CAVOK"
    },
    {
      "icao": "LFSB",
      "alert": "OK",
      "vis_m": 9999,
      "fzfg": false,
      "metar_trigger": false,
      "taf_trigger": false,
      "metar": "METAR LFSB 251530Z AUTO 02006KT 340V090 CAVOK 32/12 Q1028 TEMPO FEW065TCU",
      "taf": "TAF LFSB 251100Z 2512/2612 36006KT CAVOK"
    },
    {
      "icao": "LGAV",
      "alert": "OK",
      "vis_m": 9999,
      "fzfg": false,
      "metar_trigger": false,
      "taf_trigger": false,
      "metar": "METAR LGAV 251520Z 03013KT 9999 FEW030 26/06 Q1022 NOSIG",
      "taf": "TAF LGAV 251100Z 2512/2612 05017KT 9999 FEW025"
    },
    {
      "icao": "LGTS",
      "alert": "OK",
      "vis_m": 9999,
      "fzfg": false,
      "metar_trigger": false,
      "taf_trigger": false,
      "metar": "METAR LGTS 251520Z 20006KT 9999 FEW025 27/12 Q1022 NOSIG",
      "taf": "TAF LGTS 251100Z 2512/2612 VRB03KT 9999 FEW025"
    },
    {
      "icao": "LHBP",
      "alert": "OK",
      "vis_m": 9999,
      "fzfg": false,
      "metar_trigger": false,
      "taf_trigger": false,
      "metar": "METAR LHBP 251530Z 33014KT CAVOK 30/10 Q1025 NOSIG",
      "taf": "TAF LHBP 251115Z 2512/2612 33012KT CAVOK"
    },
    {
      "icao": "LHDC",
      "alert": "OK",
      "vis_m": 9999,
      "fzfg": false,
      "metar_trigger": false,
      "taf_trigger": false,
      "metar": "METAR LHDC 251515Z AUTO 03011KT 360V060 CAVOK 29/11 Q1024 NOSIG",
      "taf": "TAF LHDC 251415Z 2515/2524 01008KT CAVOK"
    },
    {
      "icao": "LIBD",
      "alert": "OK",
      "vis_m": 9999,
      "fzfg": false,
      "metar_trigger": false,
      "taf_trigger": false,
      "metar": "METAR LIBD 251520Z 36007KT 310V030 CAVOK 25/12 Q1025",
      "taf": "TAF LIBD 251100Z 2512/2612 35010KT CAVOK"
    },
    {
      "icao": "LIBG",
      "alert": "OK",
      "vis_m": 9999,
      "fzfg": false,
      "metar_trigger": false,
      "taf_trigger": false,
      "metar": "METAR LIBG 251520Z AUTO 03011KT 9999 NCD 28/09 Q1024",
      "taf": "TAF LIBG 251100Z 2512/2612 VRB05KT CAVOK"
    },
    {
      "icao": "LIBP",
      "alert": "OK",
      "vis_m": 9999,
      "fzfg": false,
      "metar_trigger": false,
      "taf_trigger": false,
      "metar": "METAR LIBP 251520Z AUTO 03007KT 360V060 9999 NCD 27/12 Q1027",
      "taf": "TAF LIBP 251100Z 2512/2612 04010KT CAVOK"
    },
    {
      "icao": "LIBR",
      "alert": "OK",
      "vis_m": 9999,
      "fzfg": false,
      "metar_trigger": false,
      "taf_trigger": false,
      "metar": "METAR LIBR 251520Z 33012KT CAVOK 23/17 Q1024",
      "taf": "TAF LIBR 251100Z 2512/2612 35013KT CAVOK"
    },
    {
      "icao": "LICA",
      "alert": "OK",
      "vis_m": 9999,
      "fzfg": false,
      "metar_trigger": false,
      "taf_trigger": false,
      "metar": "METAR LICA 251520Z AUTO 22006KT 9999 FEW033/// BKN088/// BKN120/// 22/19 Q1025 RERA",
      "taf": "TAF LICA 251100Z 2512/2612 27011KT 9999 SCT070"
    },
    {
      "icao": "LICC",
      "alert": "OK",
      "vis_m": 9999,
      "fzfg": false,
      "metar_trigger": false,
      "taf_trigger": false,
      "metar": "METAR LICC 251520Z 12006KT 9999 SCT110 26/16 Q1024",
      "taf": "TAF LICC 251100Z 2512/2612 08010KT 9999 FEW070"
    },
    {
      "icao": "LICJ",
      "alert": "OK",
      "vis_m": 9999,
      "fzfg": false,
      "metar_trigger": false,
      "taf_trigger": false,
      "metar": "METAR LICJ 251520Z 02010KT CAVOK 23/20 Q1024",
      "taf": "TAF LICJ 251100Z 2512/2612 04010KT CAVOK"
    },
    {
      "icao": "LIMC",
      "alert": "OK",
      "vis_m": 9999,
      "fzfg": false,
      "metar_trigger": false,
      "taf_trigger": false,
      "metar": "METAR LIMC 251520Z 26007KT 220V280 CAVOK 32/08 Q1027 NOSIG",
      "taf": "TAF LIMC 251100Z 2512/2618 VRB05KT CAVOK"
    },
    {
      "icao": "LIME",
      "alert": "OK",
      "vis_m": 9999,
      "fzfg": false,
      "metar_trigger": false,
      "taf_trigger": false,
      "metar": "METAR LIME 251520Z 18004KT 140V220 CAVOK 31/11 Q1027 NOSIG",
      "taf": "TAF LIME 251100Z 2512/2612 VRB05KT 9999 FEW055"
    },
    {
      "icao": "LIMF",
      "alert": "OK",
      "vis_m": 9999,
      "fzfg": false,
      "metar_trigger": false,
      "taf_trigger": false,
      "metar": "METAR LIMF 251520Z VRB02KT CAVOK 32/10 Q1027",
      "taf": "TAF LIMF 251100Z 2512/2612 VRB04KT 9999 FEW040"
    },
    {
      "icao": "LIMJ",
      "alert": "OK",
      "vis_m": 9999,
      "fzfg": false,
      "metar_trigger": false,
      "taf_trigger": false,
      "metar": "METAR LIMJ 251520Z VRB02KT 9999 FEW080 25/19 Q1026",
      "taf": "TAF LIMJ 251100Z 2512/2612 VRB05KT 9999 FEW030"
    },
    {
      "icao": "LIPE",
      "alert": "OK",
      "vis_m": 9999,
      "fzfg": false,
      "metar_trigger": false,
      "taf_trigger": false,
      "metar": "METAR LIPE 251520Z 09005KT 050V120 CAVOK 32/14 Q1026",
      "taf": "TAF LIPE 251100Z 2512/2612 VRB05KT CAVOK"
    },
    {
      "icao": "LIPH",
      "alert": "OK",
      "vis_m": 9999,
      "fzfg": false,
      "metar_trigger": false,
      "taf_trigger": false,
      "metar": "METAR LIPH 251520Z 23005KT 190V290 CAVOK 33/16 Q1025",
      "taf": "TAF LIPH 251100Z 2512/2612 20010KT CAVOK"
    },
    {
      "icao": "LIPQ",
      "alert": "OK",
      "vis_m": 9999,
      "fzfg": false,
      "metar_trigger": false,
      "taf_trigger": false,
      "metar": "METAR LIPQ 251520Z AUTO 21007KT 9999 NCD 30/16 Q1026",
      "taf": "TAF LIPQ 251100Z 2512/2612 23010KT CAVOK"
    },
    {
      "icao": "LIPR",
      "alert": "OK",
      "vis_m": 9999,
      "fzfg": false,
      "metar_trigger": false,
      "taf_trigger": false,
      "metar": "METAR LIPR 251520Z 06004KT 040V100 CAVOK 27/16 Q1027",
      "taf": "TAF LIPR 251100Z 2512/2612 05010KT CAVOK"
    },
    {
      "icao": "LIPX",
      "alert": "OK",
      "vis_m": 9999,
      "fzfg": false,
      "metar_trigger": false,
      "taf_trigger": false,
      "metar": "METAR LIPX 251520Z 23005KT 190V280 CAVOK 32/12 Q1026",
      "taf": "TAF LIPX 251100Z 2512/2612 VRB05KT 9999 FEW050"
    },
    {
      "icao": "LIPY",
      "alert": "OK",
      "vis_m": 9999,
      "fzfg": false,
      "metar_trigger": false,
      "taf_trigger": false,
      "metar": "METAR LIPY 251520Z AUTO 36005KT 9999 NCD 25/15 Q1027",
      "taf": "TAF LIPY 251100Z 2512/2612 03010KT CAVOK"
    },
    {
      "icao": "LIPZ",
      "alert": "OK",
      "vis_m": 9999,
      "fzfg": false,
      "metar_trigger": false,
      "taf_trigger": false,
      "metar": "METAR LIPZ 251520Z 16006KT CAVOK 29/19 Q1026 NOSIG",
      "taf": "TAF LIPZ 251100Z 2512/2618 17010KT CAVOK"
    },
    {
      "icao": "LIRF",
      "alert": "OK",
      "vis_m": 9999,
      "fzfg": false,
      "metar_trigger": false,
      "taf_trigger": false,
      "metar": "METAR LIRF 251520Z 28009KT CAVOK 26/15 Q1025 NOSIG",
      "taf": "TAF LIRF 251100Z 2512/2618 26012KT CAVOK"
    },
    {
      "icao": "LIRN",
      "alert": "OK",
      "vis_m": 9999,
      "fzfg": false,
      "metar_trigger": false,
      "taf_trigger": false,
      "metar": "METAR LIRN 251520Z 02007KT 330V060 9999 FEW050 30/09 Q1025 NOSIG",
      "taf": ""
    },
    {
      "icao": "LIRP",
      "alert": "OK",
      "vis_m": 9999,
      "fzfg": false,
      "metar_trigger": false,
      "taf_trigger": false,
      "metar": "METAR LIRP 251515Z 31009KT CAVOK 29/13 Q1026 NOSIG",
      "taf": "TAF LIRP 251100Z 2512/2612 30012KT CAVOK"
    },
    {
      "icao": "LIRZ",
      "alert": "OK",
      "vis_m": 9999,
      "fzfg": false,
      "metar_trigger": false,
      "taf_trigger": false,
      "metar": "METAR LIRZ 251520Z AUTO 02010KT 350V050 9999 NCD 29/11 Q1026",
      "taf": "TAF LIRZ 251100Z 2512/2612 05013KT CAVOK"
    },
    {
      "icao": "LJLJ",
      "alert": "OK",
      "vis_m": 9999,
      "fzfg": false,
      "metar_trigger": false,
      "taf_trigger": false,
      "metar": "METAR LJLJ 251530Z 13003KT 080V210 9999 FEW070 29/14 Q1027 NOSIG",
      "taf": "TAF LJLJ 251100Z 2512/2612 08005KT 9999 FEW070"
    },
    {
      "icao": "LKMT",
      "alert": "OK",
      "vis_m": 9999,
      "fzfg": false,
      "metar_trigger": false,
      "taf_trigger": false,
      "metar": "METAR LKMT 251530Z 02008KT CAVOK 23/12 Q1030 NOSIG",
      "taf": "TAF LKMT 251100Z 2512/2612 01008KT CAVOK"
    },
    {
      "icao": "LKPR",
      "alert": "OK",
      "vis_m": 9999,
      "fzfg": false,
      "metar_trigger": false,
      "taf_trigger": false,
      "metar": "METAR LKPR 251530Z 02008KT 350V070 CAVOK 27/09 Q1030 NOSIG",
      "taf": "TAF LKPR 251400Z 2515/2621 34006KT CAVOK"
    },
    {
      "icao": "LLBG",
      "alert": "OK",
      "vis_m": 9999,
      "fzfg": false,
      "metar_trigger": false,
      "taf_trigger": false,
      "metar": "METAR LLBG 251520Z 34010KT 9999 FEW030 23/15 Q1016 NOSIG",
      "taf": "TAF LLBG 250403Z 2506/2606 VRB04KT 9999 SCT020 TX26/2512Z TN17/2603Z"
    },
    {
      "icao": "LMML",
      "alert": "OK",
      "vis_m": 9999,
      "fzfg": false,
      "metar_trigger": false,
      "taf_trigger": false,
      "metar": "METAR LMML 251515Z 09007KT 050V130 9999 FEW012 24/16 Q1024 NOSIG",
      "taf": "TAF LMML 251100Z 2512/2612 05009KT 9999 FEW018"
    },
    {
      "icao": "LOWW",
      "alert": "OK",
      "vis_m": 9999,
      "fzfg": false,
      "metar_trigger": false,
      "taf_trigger": false,
      "metar": "METAR LOWW 251520Z 36011KT 330V040 CAVOK 29/13 Q1028 NOSIG",
      "taf": "TAF LOWW 251415Z 2515/2621 35012KT CAVOK TX31/2614Z TN16/2603Z"
    },
    {
      "icao": "LPFR",
      "alert": "OK",
      "vis_m": 9999,
      "fzfg": false,
      "metar_trigger": false,
      "taf_trigger": false,
      "metar": "METAR LPFR 251530Z 09010KT 060V120 CAVOK 27/13 Q1021",
      "taf": "TAF LPFR 251100Z 2512/2612 11015KT CAVOK"
    },
    {
      "icao": "LPMA",
      "alert": "OK",
      "vis_m": 9999,
      "fzfg": false,
      "metar_trigger": false,
      "taf_trigger": false,
      "metar": "METAR LPMA 251530Z 03015KT 9999 FEW013 22/16 Q1019",
      "taf": "TAF LPMA 251100Z 2512/2612 03012KT 9999 SCT015"
    },
    {
      "icao": "LPPR",
      "alert": "OK",
      "vis_m": 9999,
      "fzfg": false,
      "metar_trigger": false,
      "taf_trigger": false,
      "metar": "METAR LPPR 251530Z 31005KT 260V340 CAVOK 23/15 Q1022",
      "taf": "TAF LPPR 251100Z 2512/2612 25005KT 9999 SCT008"
    },
    {
      "icao": "LPPS",
      "alert": "OK",
      "vis_m": 9999,
      "fzfg": false,
      "metar_trigger": false,
      "taf_trigger": false,
      "metar": "METAR LPPS 251530Z 01011KT 9999 SCT015 21/16 Q1020",
      "taf": "TAF LPPS 251100Z 2512/2618 05010KT 9999 SCT015 BKN030"
    },
    {
      "icao": "LPPT",
      "alert": "OK",
      "vis_m": 9999,
      "fzfg": false,
      "metar_trigger": false,
      "taf_trigger": false,
      "metar": "METAR LPPT 251530Z 24010KT 180V270 CAVOK 29/10 Q1021",
      "taf": "TAF LPPT 251100Z 2512/2618 23008KT CAVOK"
    },
    {
      "icao": "LQBK",
      "alert": "OK",
      "vis_m": 9999,
      "fzfg": false,
      "metar_trigger": false,
      "taf_trigger": false,
      "metar": "METAR LQBK 251530Z 36003KT CAVOK 29/15 Q1026 NOSIG",
      "taf": "TAF LQBK 250500Z 2506/2606 16005KT CAVOK TX28/2513Z TN14/2604Z"
    },
    {
      "icao": "LQSA",
      "alert": "OK",
      "vis_m": 9999,
      "fzfg": false,
      "metar_trigger": false,
      "taf_trigger": false,
      "metar": "METAR LQSA 251530Z 32009KT CAVOK 27/10 Q1026 NOSIG",
      "taf": "TAF LQSA 250500Z 2506/2606 VRB02KT 9999 SCT055 TX28/2514Z TN11/2604Z"
    },
    {
      "icao": "LQTZ",
      "alert": "OK",
      "vis_m": 9999,
      "fzfg": false,
      "metar_trigger": false,
      "taf_trigger": false,
      "metar": "METAR LQTZ 251530Z 36006KT 330V040 9999 FEW060 28/13 Q1026",
      "taf": "TAF LQTZ 250500Z 2506/2606 27005KT CAVOK TX28/2514Z TN11/2604Z"
    },
    {
      "icao": "LRBC",
      "alert": "OK",
      "vis_m": 9999,
      "fzfg": false,
      "metar_trigger": false,
      "taf_trigger": false,
      "metar": "METAR LRBC 251530Z 36011KT 340V040 CAVOK 26/11 Q1021",
      "taf": "TAF LRBC 251400Z 2515/2524 34015KT 9999 SCT055"
    },
    {
      "icao": "LRBS",
      "alert": "OK",
      "vis_m": 9999,
      "fzfg": false,
      "metar_trigger": false,
      "taf_trigger": false,
      "metar": "METAR LRBS 251530Z 27010KT 240V320 CAVOK 28/14 Q1021 NOSIG",
      "taf": "TAF LRBS 251100Z 2512/2612 28007KT CAVOK"
    },
    {
      "icao": "LRBV",
      "alert": "OK",
      "vis_m": 9999,
      "fzfg": false,
      "metar_trigger": false,
      "taf_trigger": false,
      "metar": "METAR LRBV 251530Z 29007KT 270V330 9999 FEW060 23/13 Q1024",
      "taf": "TAF LRBV 251400Z 2515/2524 29012KT CAVOK"
    },
    {
      "icao": "LRCL",
      "alert": "OK",
      "vis_m": 9999,
      "fzfg": false,
      "metar_trigger": false,
      "taf_trigger": false,
      "metar": "METAR LRCL 251530Z 31012KT 280V360 9999 FEW068 26/11 Q1024",
      "taf": "TAF LRCL 251400Z 2515/2524 32012KT CAVOK"
    },
    {
      "icao": "LRCV",
      "alert": "OK",
      "vis_m": 9999,
      "fzfg": false,
      "metar_trigger": false,
      "taf_trigger": false,
      "metar": "METAR LRCV 251530Z 27009KT CAVOK 27/15 Q1023",
      "taf": "TAF LRCV 251400Z 2515/2524 29007KT CAVOK"
    },
    {
      "icao": "LRIA",
      "alert": "OK",
      "vis_m": 9999,
      "fzfg": false,
      "metar_trigger": false,
      "taf_trigger": false,
      "metar": "METAR LRIA 251530Z 33011KT 290V350 CAVOK 25/09 Q1021",
      "taf": "TAF LRIA 251400Z 2515/2524 32012KT CAVOK"
    },
    {
      "icao": "LROP",
      "alert": "OK",
      "vis_m": 9999,
      "fzfg": false,
      "metar_trigger": false,
      "taf_trigger": false,
      "metar": "METAR LROP 251530Z 26010KT CAVOK 28/14 Q1021 NOSIG",
      "taf": "TAF LROP 251100Z 2512/2612 28007KT CAVOK"
    },
    {
      "icao": "LRSB",
      "alert": "OK",
      "vis_m": 9999,
      "fzfg": false,
      "metar_trigger": false,
      "taf_trigger": false,
      "metar": "METAR LRSB 251530Z 35010KT 9999 FEW055 26/13 Q1024",
      "taf": "TAF LRSB 251100Z 2512/2612 32012KT 9999 SCT050"
    },
    {
      "icao": "LRSM",
      "alert": "OK",
      "vis_m": 9999,
      "fzfg": false,
      "metar_trigger": false,
      "taf_trigger": false,
      "metar": "METAR LRSM 251530Z 34015KT CAVOK 28/10 Q1024",
      "taf": "TAF LRSM 251400Z 2515/2524 33014KT CAVOK"
    },
    {
      "icao": "LRSV",
      "alert": "OK",
      "vis_m": 9999,
      "fzfg": false,
      "metar_trigger": false,
      "taf_trigger": false,
      "metar": "METAR LRSV 251530Z 32018KT CAVOK 23/08 Q1023",
      "taf": "TAF LRSV 251400Z 2515/2524 31016KT CAVOK"
    },
    {
      "icao": "LRTM",
      "alert": "OK",
      "vis_m": 9999,
      "fzfg": false,
      "metar_trigger": false,
      "taf_trigger": false,
      "metar": "METAR LRTM 251530Z 30010KT 270V330 CAVOK 27/15 Q1023",
      "taf": "TAF LRTM 251400Z 2515/2524 32012KT CAVOK"
    },
    {
      "icao": "LRTR",
      "alert": "OK",
      "vis_m": 9999,
      "fzfg": false,
      "metar_trigger": false,
      "taf_trigger": false,
      "metar": "METAR LRTR 251530Z 35010KT CAVOK 29/13 Q1024",
      "taf": "TAF LRTR 251100Z 2512/2612 35010KT CAVOK"
    },
    {
      "icao": "LTAC",
      "alert": "OK",
      "vis_m": 9999,
      "fzfg": false,
      "metar_trigger": false,
      "taf_trigger": false,
      "metar": "METAR LTAC 251520Z 02008KT 9999 FEW030CB BKN035 18/08 Q1020 NOSIG RMK RWY21C 36008KT RWY03L 02006KT 330V080 RWY21R 36007KT RWY03R 34006KT 300V010 RWY21L 35008KT",
      "taf": "TAF LTAC 251040Z 2512/2612 VRB02KT 9999 SCT040 SCT100"
    },
    {
      "icao": "LTFM",
      "alert": "OK",
      "vis_m": 9999,
      "fzfg": false,
      "metar_trigger": false,
      "taf_trigger": false,
      "metar": "METAR LTFM 251520Z 05008KT CAVOK 22/10 Q1022 NOSIG RMK RWY17L 06007KT RWY34L 05006KT RWY16R 06006KT RWY36 06008KT RWY18 06006KT",
      "taf": "TAF LTFM 251040Z 2512/2618 01012KT CAVOK"
    },
    {
      "icao": "LUKK",
      "alert": "OK",
      "vis_m": 9999,
      "fzfg": false,
      "metar_trigger": false,
      "taf_trigger": false,
      "metar": "METAR LUKK 251530Z 34013KT 310V010 CAVOK 25/09 Q1020 TEMPO 34018G28KT",
      "taf": "TAF LUKK 251117Z 2512/2612 32014KT CAVOK"
    },
    {
      "icao": "LWOH",
      "alert": "OK",
      "vis_m": 9999,
      "fzfg": false,
      "metar_trigger": false,
      "taf_trigger": false,
      "metar": "METAR LWOH 251520Z 15006KT 100V180 9999 SCT040 22/12 Q1025",
      "taf": "TAF LWOH 251415Z 2515/2615 18006KT 9999 SCT040"
    },
    {
      "icao": "LWSK",
      "alert": "OK",
      "vis_m": 9999,
      "fzfg": false,
      "metar_trigger": false,
      "taf_trigger": false,
      "metar": "METAR LWSK 251520Z 34009KT 300V010 9999 FEW080 28/11 Q1023 NOSIG",
      "taf": "TAF LWSK 251415Z 2515/2615 36010KT 9999 FEW070"
    },
    {
      "icao": "LYBE",
      "alert": "OK",
      "vis_m": 9999,
      "fzfg": false,
      "metar_trigger": false,
      "taf_trigger": false,
      "metar": "METAR LYBE 251530Z 06002KT CAVOK 28/15 Q1025 NOSIG",
      "taf": "TAF LYBE 251100Z 2512/2612 34010KT CAVOK TX30/2513Z TN16/2604Z"
    },
    {
      "icao": "LYNI",
      "alert": "OK",
      "vis_m": 9999,
      "fzfg": false,
      "metar_trigger": false,
      "taf_trigger": false,
      "metar": "METAR LYNI 251530Z 32012KT 280V350 9999 FEW060 27/13 Q1024 NOSIG",
      "taf": "TAF LYNI 251100Z 2512/2612 32010KT CAVOK TX29/2612Z TN13/2604Z"
    },
    {
      "icao": "LYPG",
      "alert": "OK",
      "vis_m": 9999,
      "fzfg": false,
      "metar_trigger": false,
      "taf_trigger": false,
      "metar": "METAR LYPG 251530Z 17007KT 140V200 9999 FEW050 30/10 Q1022 NOSIG",
      "taf": "TAF LYPG 251100Z 2512/2612 36007KT CAVOK TX33/2514Z TN20/2604Z"
    },
    {
      "icao": "LZIB",
      "alert": "OK",
      "vis_m": 9999,
      "fzfg": false,
      "metar_trigger": false,
      "taf_trigger": false,
      "metar": "METAR LZIB 251530Z 36012KT CAVOK 29/14 Q1027 NOSIG",
      "taf": "TAF LZIB 250515Z 2506/2606 31004KT CAVOK"
    },
    {
      "icao": "LZKZ",
      "alert": "OK",
      "vis_m": 9999,
      "fzfg": false,
      "metar_trigger": false,
      "taf_trigger": false,
      "metar": "METAR LZKZ 251530Z 01014KT CAVOK 26/10 Q1026 NOSIG",
      "taf": "TAF LZKZ 250515Z 2506/2606 VRB02KT CAVOK"
    },
    {
      "icao": "LZTT",
      "alert": "OK",
      "vis_m": 9999,
      "fzfg": false,
      "metar_trigger": false,
      "taf_trigger": false,
      "metar": "METAR LZTT 251530Z 25007KT CAVOK 25/03 Q1028 NOSIG",
      "taf": "TAF LZTT 250515Z 2506/2606 27006KT 9999 FEW050"
    },
    {
      "icao": "OEJN",
      "alert": "OK",
      "vis_m": 9999,
      "fzfg": false,
      "metar_trigger": false,
      "taf_trigger": false,
      "metar": "METAR OEJN 251500Z 33016KT CAVOK 32/19 Q1007 NOSIG",
      "taf": "TAF OEJN 251100Z 2512/2618 35014KT CAVOK"
    },
    {
      "icao": "OEMA",
      "alert": "OK",
      "vis_m": 9999,
      "fzfg": false,
      "metar_trigger": false,
      "taf_trigger": false,
      "metar": "METAR OEMA 251500Z 27011KT 9999 FEW045 42/00 Q1011 NOSIG",
      "taf": "TAF OEMA 251100Z 2512/2618 27012KT 7000 NSC"
    },
    {
      "icao": "OJAI",
      "alert": "OK",
      "vis_m": 5000,
      "fzfg": false,
      "metar_trigger": false,
      "taf_trigger": false,
      "metar": "METAR OJAI 251500Z 28006KT 5000 HZ NSC 25/04 Q1017 NOSIG",
      "taf": "TAF OJAI 251100Z 2512/2618 29010KT 5000 HZ NSC"
    },
    {
      "icao": "OMAA",
      "alert": "OK",
      "vis_m": 9999,
      "fzfg": false,
      "metar_trigger": false,
      "taf_trigger": false,
      "metar": "METAR OMAA 251530Z 34007KT CAVOK 33/21 Q1005 NOSIG",
      "taf": "TAF OMAA 251100Z 2512/2618 34011KT 8000 NSC"
    },
    {
      "icao": "OMDB",
      "alert": "OK",
      "vis_m": 9999,
      "fzfg": false,
      "metar_trigger": false,
      "taf_trigger": false,
      "metar": "METAR OMDB 251530Z 32009KT CAVOK 35/17 Q1005 NOSIG",
      "taf": "TAF OMDB 251100Z 2512/2618 33012KT 8000 NSC"
    },
    {
      "icao": "UAAA",
      "alert": "OK",
      "vis_m": 9999,
      "fzfg": false,
      "metar_trigger": false,
      "taf_trigger": false,
      "metar": "METAR UAAA 251530Z 15002MPS 9999 SCT100 BKN200 18/06 Q1014 NOSIG",
      "taf": "TAF UAAA 251104Z 2512/2612 21003MPS 9999 SCT100 TX25/2610Z TN11/2601Z"
    },
    {
      "icao": "UBBB",
      "alert": "OK",
      "vis_m": 9999,
      "fzfg": false,
      "metar_trigger": false,
      "taf_trigger": false,
      "metar": "METAR UBBB 251530Z 32012KT 9999 FEW050CB 18/16 Q1010 NOSIG",
      "taf": "TAF UBBB 251051Z 2512/2612 34014G24KT 9999 FEW040CB SCT040 TX22/2512Z TN16/2501Z"
    },
    {
      "icao": "UDSG",
      "alert": "OK",
      "vis_m": 9999,
      "fzfg": false,
      "metar_trigger": false,
      "taf_trigger": false,
      "metar": "METAR UDSG 251530Z 36007KT 9999 SCT049CB 14/06 Q1018 NOSIG",
      "taf": "TAF UDSG 251100Z 2512/2612 24006KT 9999 SCT040"
    },
    {
      "icao": "UDYZ",
      "alert": "OK",
      "vis_m": 9999,
      "fzfg": false,
      "metar_trigger": false,
      "taf_trigger": false,
      "metar": "METAR UDYZ 251530Z 24007KT 9999 VCTS -SHRA BKN043CB 21/11 Q1013 TEMPO -TSRA",
      "taf": "TAF UDYZ 251100Z 2512/2612 24006KT 9999 SCT040"
    },
    {
      "icao": "UGKO",
      "alert": "OK",
      "vis_m": 9999,
      "fzfg": false,
      "metar_trigger": false,
      "taf_trigger": false,
      "metar": "METAR UGKO 251530Z 29007KT 9999 FEW016 SCT042 BKN072 17/15 Q1017 NOSIG",
      "taf": ""
    }
  ]
}