{
  "ts_utc": "2026-01-31T13:06:31Z",
  "threshold_m": 150,
  "source": "stations_override.txt (ICAO list) + aviationweather.gov (METAR/TAF raw)",
  "station_count": 159,
  "stations": [
    {
      "icao": "BIKF",
      "alert": "OK",
      "vis_m": 9999,
      "fzfg": false,
      "metar_trigger": false,
      "taf_trigger": false,
      "metar": "METAR BIKF 311300Z 06005KT 9999 SCT041 03/02 Q1002",
      "taf": "TAF BIKF 311049Z 3112/0112 04008KT 9999 BKN030 TX03/3115Z TN03/0112Z"
    },
    {
      "icao": "BKPR",
      "alert": "OK",
      "vis_m": 9999,
      "fzfg": false,
      "metar_trigger": false,
      "taf_trigger": false,
      "metar": "METAR BKPR 311300Z 34003KT 300V020 9999 SCT020 BKN050 08/04 Q1002 NOSIG",
      "taf": "TAF BKPR 311130Z 3112/0112 02008KT 9999 BKN040"
    },
    {
      "icao": "EBCI",
      "alert": "OK",
      "vis_m": 9999,
      "fzfg": false,
      "metar_trigger": false,
      "taf_trigger": false,
      "metar": "METAR EBCI 311250Z 18006KT 140V210 9999 SCT028 10/03 Q1001 NOSIG",
      "taf": "TAF EBCI 311120Z 3112/0118 19007KT 9999 SCT013"
    },
    {
      "icao": "EDDB",
      "alert": "OK",
      "vis_m": 9999,
      "fzfg": false,
      "metar_trigger": false,
      "taf_trigger": false,
      "metar": "METAR EDDB 311250Z AUTO 08012KT 9999 OVC013 M05/M08 Q1011 BECMG BKN015",
      "taf": "TAF EDDB 311100Z 3112/0112 08012KT 9000 OVC011"
    },
    {
      "icao": "EDDH",
      "alert": "OK",
      "vis_m": 9000,
      "fzfg": false,
      "metar_trigger": false,
      "taf_trigger": false,
      "metar": "METAR EDDH 311250Z AUTO 10011KT 9000 OVC011 M02/M05 Q1009 TEMPO OVC009",
      "taf": "TAF EDDH 311100Z 3112/0118 10011KT 8000 OVC008"
    },
    {
      "icao": "EDDK",
      "alert": "OK",
      "vis_m": 9999,
      "fzfg": false,
      "metar_trigger": false,
      "taf_trigger": false,
      "metar": "METAR EDDK 311250Z AUTO 11009KT 9999 -SHRA FEW035 BKN044 FEW///TCU 07/04 Q1003 RESHRA NOSIG",
      "taf": "TAF EDDK 311100Z 3112/0118 12008KT 9999 SCT012 BKN030"
    },
    {
      "icao": "EDDN",
      "alert": "OK",
      "vis_m": 9999,
      "fzfg": false,
      "metar_trigger": false,
      "taf_trigger": false,
      "metar": "METAR EDDN 311250Z AUTO 10006KT 9999 BKN019 OVC029 03/M01 Q1004 NOSIG",
      "taf": "TAF EDDN 311100Z 3112/0112 12004KT 9999 OVC020"
    },
    {
      "icao": "EDDS",
      "alert": "OK",
      "vis_m": 9999,
      "fzfg": false,
      "metar_trigger": false,
      "taf_trigger": false,
      "metar": "METAR EDDS 311250Z AUTO VRB02KT 9999 BKN003 03/02 Q1002 BECMG SCT005",
      "taf": "TAF EDDS 311100Z 3112/0112 VRB02KT 0400 FG OVC002"
    },
    {
      "icao": "EDFH",
      "alert": "OK",
      "vis_m": 600,
      "fzfg": false,
      "metar_trigger": false,
      "taf_trigger": false,
      "metar": "METAR EDFH 311250Z 14011KT 0600 R21/0800D FG OVC001 03/03 Q1002",
      "taf": "TAF EDFH 311100Z 3112/0112 14011KT 0300 FG VV002"
    },
    {
      "icao": "EDJA",
      "alert": "OK",
      "vis_m": 450,
      "fzfg": true,
      "metar_trigger": false,
      "taf_trigger": false,
      "metar": "METAR EDJA 311250Z 02005KT 350V070 0450 R06/0650N FZFG VV/// 00/M00 Q1002",
      "taf": "TAF EDJA 311100Z 3112/3121 05005KT 0300 FZFG VV001"
    },
    {
      "icao": "EDLW",
      "alert": "OK",
      "vis_m": 9999,
      "fzfg": false,
      "metar_trigger": false,
      "taf_trigger": false,
      "metar": "METAR EDLW 311250Z 18003KT 9999 OVC019 07/04 Q1002",
      "taf": "TAF EDLW 311100Z 3112/0112 11005KT 9999 SCT045"
    },
    {
      "icao": "EDNY",
      "alert": "OK",
      "vis_m": 9999,
      "fzfg": false,
      "metar_trigger": false,
      "taf_trigger": false,
      "metar": "METAR EDNY 311250Z 34003KT 9999 SCT012 04/02 Q1003",
      "taf": "TAF EDNY 311100Z 3112/3121 VRB03KT 9999 BKN007"
    },
    {
      "icao": "EDSB",
      "alert": "OK",
      "vis_m": 6000,
      "fzfg": false,
      "metar_trigger": false,
      "taf_trigger": false,
      "metar": "METAR EDSB 311250Z 00000KT 6000 OVC002 04/04 Q1004",
      "taf": "TAF EDSB 311100Z 3112/0112 VRB03KT 0400 FG VV002"
    },
    {
      "icao": "EETN",
      "alert": "OK",
      "vis_m": 9999,
      "fzfg": false,
      "metar_trigger": false,
      "taf_trigger": false,
      "metar": "METAR EETN 311250Z 09007KT 9999 FEW010 M13/M14 Q1031 NOSIG",
      "taf": "TAF EETN 311130Z 3112/0112 08010KT 9999 SCT015"
    },
    {
      "icao": "EFTU",
      "alert": "OK",
      "vis_m": 9999,
      "fzfg": false,
      "metar_trigger": false,
      "taf_trigger": false,
      "metar": "METAR EFTU 311250Z AUTO 08006KT CAVOK M13/M16 Q1032",
      "taf": "TAF EFTU 311132Z 3112/0112 09006KT CAVOK"
    },
    {
      "icao": "EGBB",
      "alert": "OK",
      "vis_m": 9999,
      "fzfg": false,
      "metar_trigger": false,
      "taf_trigger": false,
      "metar": "METAR EGBB 311250Z 16009KT 9999 BKN017 09/06 Q0995",
      "taf": "TAF EGBB 311056Z 3112/0112 17007KT 9999 FEW030"
    },
    {
      "icao": "EGGP",
      "alert": "OK",
      "vis_m": 9999,
      "fzfg": false,
      "metar_trigger": false,
      "taf_trigger": false,
      "metar": "METAR EGGP 311250Z 16012G22KT 9999 FEW015 BKN019 08/04 Q0993",
      "taf": "TAF EGGP 311104Z 3112/0112 15012KT 9999 BKN020"
    },
    {
      "icao": "EGGW",
      "alert": "OK",
      "vis_m": 9999,
      "fzfg": false,
      "metar_trigger": false,
      "taf_trigger": false,
      "metar": "METAR EGGW 311250Z AUTO 15007KT 130V190 9999 SCT016 BKN021 09/07 Q0997",
      "taf": "TAF EGGW 311101Z 3112/0112 17008KT 9999 FEW010 SCT030"
    },
    {
      "icao": "EGKK",
      "alert": "OK",
      "vis_m": 9999,
      "fzfg": false,
      "metar_trigger": false,
      "taf_trigger": false,
      "metar": "METAR EGKK 311250Z 19006KT 160V220 9999 SCT015 10/07 Q0998",
      "taf": "TAF EGKK 311057Z 3112/0118 17006KT 9999 SCT015"
    },
    {
      "icao": "EGNM",
      "alert": "OK",
      "vis_m": 9999,
      "fzfg": false,
      "metar_trigger": false,
      "taf_trigger": false,
      "metar": "METAR EGNM 311250Z 14010KT 110V180 9999 SCT007 BKN009 07/05 Q0995",
      "taf": ""
    },
    {
      "icao": "EGPD",
      "alert": "OK",
      "vis_m": 6000,
      "fzfg": false,
      "metar_trigger": false,
      "taf_trigger": false,
      "metar": "METAR EGPD 311250Z 12011KT 6000 -RA FEW006 BKN012 05/04 Q0999 RERA REDZ TEMPO 4000 RA BKN007",
      "taf": "TAF EGPD 311059Z 3112/0112 12012KT 9999 BKN012"
    },
    {
      "icao": "EGPF",
      "alert": "OK",
      "vis_m": 9999,
      "fzfg": false,
      "metar_trigger": false,
      "taf_trigger": false,
      "metar": "METAR EGPF 311250Z AUTO 06014KT 9999 FEW012 SCT038 07/05 Q0994",
      "taf": "TAF EGPF 311055Z 3112/0112 08012KT 9999 BKN018"
    },
    {
      "icao": "EHBK",
      "alert": "OK",
      "vis_m": 9999,
      "fzfg": false,
      "metar_trigger": false,
      "taf_trigger": false,
      "metar": "METAR EHBK 311255Z AUTO 21006KT 190V250 9999 FEW012 OVC043 09/07 Q1002 NOSIG",
      "taf": "TAF EHBK 311122Z 3112/0118 16006KT 9999 BKN040"
    },
    {
      "icao": "EHEH",
      "alert": "OK",
      "vis_m": null,
      "fzfg": false,
      "metar_trigger": false,
      "taf_trigger": false,
      "metar": "",
      "taf": "TAF EHEH 311120Z 3112/0118 14005KT 9999 FEW014 BKN020"
    },
    {
      "icao": "EKBI",
      "alert": "OK",
      "vis_m": 9999,
      "fzfg": false,
      "metar_trigger": false,
      "taf_trigger": false,
      "metar": "METAR EKBI 311250Z AUTO 10018KT 9999 OVC021/// M00/M05 Q1011",
      "taf": "TAF EKBI 311127Z 3112/0112 10020KT 9999 SCT020"
    },
    {
      "icao": "EKCH",
      "alert": "OK",
      "vis_m": 9999,
      "fzfg": false,
      "metar_trigger": false,
      "taf_trigger": false,
      "metar": "METAR EKCH 311250Z 11023KT 9999 BKN022 M02/M07 Q1017 TEMPO 09020G30KT",
      "taf": "TAF EKCH 311127Z 3112/0112 10018KT 9999 SCT020"
    },
    {
      "icao": "ENAL",
      "alert": "OK",
      "vis_m": 9999,
      "fzfg": false,
      "metar_trigger": false,
      "taf_trigger": false,
      "metar": "METAR ENAL 311250Z 14012KT CAVOK 01/M13 Q1014",
      "taf": "TAF ENAL 311100Z 3112/3121 14012KT CAVOK"
    },
    {
      "icao": "ENBR",
      "alert": "OK",
      "vis_m": 9999,
      "fzfg": false,
      "metar_trigger": false,
      "taf_trigger": false,
      "metar": "METAR ENBR 311250Z 08005KT 9999 FEW048 M00/M13 Q1014 NOSIG RMK WIND 1200FT 10010KT",
      "taf": "TAF ENBR 311100Z 3112/0112 VRB04KT CAVOK"
    },
    {
      "icao": "ENGM",
      "alert": "OK",
      "vis_m": 9999,
      "fzfg": false,
      "metar_trigger": false,
      "taf_trigger": false,
      "metar": "METAR ENGM 311250Z 09005KT 060V120 9999 BKN024 M06/M10 Q1022 NOSIG",
      "taf": "TAF ENGM 311100Z 3112/0112 04007KT 9999 -SN FEW020 BKN030"
    },
    {
      "icao": "ENHD",
      "alert": "OK",
      "vis_m": 9999,
      "fzfg": false,
      "metar_trigger": false,
      "taf_trigger": false,
      "metar": "METAR ENHD 311250Z 09018KT CAVOK M01/M08 Q1013",
      "taf": "TAF ENHD 311100Z 3112/3121 09018KT CAVOK"
    },
    {
      "icao": "ENTC",
      "alert": "OK",
      "vis_m": 9999,
      "fzfg": false,
      "metar_trigger": false,
      "taf_trigger": false,
      "metar": "METAR ENTC 311250Z 21017KT 180V240 CAVOK M07/M14 Q1019 NOSIG RMK WIND 2600FT 18018KT",
      "taf": "TAF ENTC 311100Z 3112/0112 20020KT CAVOK"
    },
    {
      "icao": "ENTO",
      "alert": "OK",
      "vis_m": 9999,
      "fzfg": false,
      "metar_trigger": false,
      "taf_trigger": false,
      "metar": "METAR ENTO 311250Z 12007KT 090V150 9999 BKN026 OVC032 M04/M09 Q1021 NOSIG",
      "taf": "TAF ENTO 311100Z 3112/0112 10008KT 9999 -SN SCT020 BKN035"
    },
    {
      "icao": "ENVA",
      "alert": "OK",
      "vis_m": 9999,
      "fzfg": false,
      "metar_trigger": false,
      "taf_trigger": false,
      "metar": "METAR ENVA 311250Z VRB07KT CAVOK M04/M14 Q1018 WS R09 TEMPO 15018G28KT RMK WIND 670FT 16017G31KT",
      "taf": "TAF ENVA 311100Z 3112/0112 12012KT CAVOK"
    },
    {
      "icao": "ENZV",
      "alert": "OK",
      "vis_m": 9999,
      "fzfg": false,
      "metar_trigger": false,
      "taf_trigger": false,
      "metar": "METAR ENZV 311250Z 09009KT 9999 BKN040 00/M09 Q1013 TEMPO 11015G25KT",
      "taf": "TAF ENZV 311100Z 3112/0112 09015KT CAVOK"
    },
    {
      "icao": "EPGD",
      "alert": "OK",
      "vis_m": 9999,
      "fzfg": false,
      "metar_trigger": false,
      "taf_trigger": false,
      "metar": "METAR EPGD 311300Z 10010KT CAVOK M09/M17 Q1020",
      "taf": "TAF EPGD 311130Z 3112/0112 11013KT CAVOK"
    },
    {
      "icao": "EPKK",
      "alert": "OK",
      "vis_m": 9999,
      "fzfg": false,
      "metar_trigger": false,
      "taf_trigger": false,
      "metar": "METAR EPKK 311300Z 06014KT 9999 BKN012 M08/M11 Q1011",
      "taf": "TAF EPKK 311130Z 3112/0112 07015KT 9999 SCT008 OVC011"
    },
    {
      "icao": "EPKT",
      "alert": "OK",
      "vis_m": 9999,
      "fzfg": false,
      "metar_trigger": false,
      "taf_trigger": false,
      "metar": "METAR EPKT 311300Z 08012KT CAVOK M07/M11 Q1011",
      "taf": "TAF EPKT 311130Z 3112/0112 07013KT CAVOK"
    },
    {
      "icao": "EPLB",
      "alert": "OK",
      "vis_m": 9999,
      "fzfg": false,
      "metar_trigger": false,
      "taf_trigger": false,
      "metar": "METAR EPLB 311300Z 06011KT CAVOK M10/M14 Q1016",
      "taf": "TAF EPLB 311130Z 3112/0112 07012KT CAVOK"
    },
    {
      "icao": "EPMO",
      "alert": "OK",
      "vis_m": 9999,
      "fzfg": false,
      "metar_trigger": false,
      "taf_trigger": false,
      "metar": "METAR EPMO 311300Z 07016KT CAVOK M09/M15 Q1018",
      "taf": "TAF EPMO 311130Z 3112/0112 08014KT CAVOK"
    },
    {
      "icao": "EPPO",
      "alert": "OK",
      "vis_m": 9999,
      "fzfg": false,
      "metar_trigger": false,
      "taf_trigger": false,
      "metar": "METAR EPPO 311300Z 11014KT CAVOK M07/M12 Q1015",
      "taf": "TAF EPPO 311130Z 3112/0112 09015KT CAVOK"
    },
    {
      "icao": "EPRA",
      "alert": "OK",
      "vis_m": 9999,
      "fzfg": false,
      "metar_trigger": false,
      "taf_trigger": false,
      "metar": "METAR EPRA 311300Z 07012KT CAVOK M10/M16 Q1015",
      "taf": "TAF EPRA 311130Z 3112/3121 08011KT CAVOK"
    },
    {
      "icao": "EPRZ",
      "alert": "OK",
      "vis_m": 9999,
      "fzfg": false,
      "metar_trigger": false,
      "taf_trigger": false,
      "metar": "METAR EPRZ 311300Z 06011KT 9999 BKN033 M09/M14 Q1013",
      "taf": "TAF EPRZ 311130Z 3112/0112 06013KT 9999 BKN035"
    },
    {
      "icao": "EPSC",
      "alert": "OK",
      "vis_m": 9999,
      "fzfg": false,
      "metar_trigger": false,
      "taf_trigger": false,
      "metar": "METAR EPSC 311300Z 10012KT 9999 FEW014 M07/M10 Q1015",
      "taf": "TAF EPSC 311130Z 3112/0112 10011KT 9999 BKN044"
    },
    {
      "icao": "EPSY",
      "alert": "OK",
      "vis_m": 9999,
      "fzfg": false,
      "metar_trigger": false,
      "taf_trigger": false,
      "metar": "METAR EPSY 311300Z 07008G20KT 330V120 CAVOK M08/M19 Q1020",
      "taf": "TAF EPSY 311130Z 3112/3121 09008KT CAVOK"
    },
    {
      "icao": "EPWA",
      "alert": "OK",
      "vis_m": 9999,
      "fzfg": false,
      "metar_trigger": false,
      "taf_trigger": false,
      "metar": "METAR EPWA 311300Z 08012KT CAVOK M08/M14 Q1017 NOSIG",
      "taf": "TAF EPWA 311130Z 3112/0112 08014KT CAVOK"
    },
    {
      "icao": "EPWR",
      "alert": "OK",
      "vis_m": 9999,
      "fzfg": false,
      "metar_trigger": false,
      "taf_trigger": false,
      "metar": "METAR EPWR 311300Z 08010KT 9999 BKN033 M05/M10 Q1012",
      "taf": "TAF EPWR 311130Z 3112/0112 09012KT 9999 OVC021"
    },
    {
      "icao": "ESGG",
      "alert": "OK",
      "vis_m": 9999,
      "fzfg": false,
      "metar_trigger": false,
      "taf_trigger": false,
      "metar": "METAR ESGG 311250Z 12010KT 090V160 CAVOK M02/M11 Q1018",
      "taf": "TAF ESGG 311130Z 3112/0112 12010KT CAVOK"
    },
    {
      "icao": "ESKN",
      "alert": "OK",
      "vis_m": 9999,
      "fzfg": false,
      "metar_trigger": false,
      "taf_trigger": false,
      "metar": "METAR ESKN 311250Z 13012KT CAVOK M02/M10 Q1027",
      "taf": "TAF ESKN 311130Z 3112/0112 12010G20KT CAVOK"
    },
    {
      "icao": "ESMS",
      "alert": "OK",
      "vis_m": 9999,
      "fzfg": false,
      "metar_trigger": false,
      "taf_trigger": false,
      "metar": "METAR ESMS 311250Z 10017KT 9999 DRSN NSC M03/M08 Q1016",
      "taf": "TAF ESMS 311127Z 3112/0112 10018KT 9999 SCT020"
    },
    {
      "icao": "ESSA",
      "alert": "OK",
      "vis_m": 9999,
      "fzfg": false,
      "metar_trigger": false,
      "taf_trigger": false,
      "metar": "METAR ESSA 311250Z 13010KT 9999 SCT033 M03/M09 Q1028 NOSIG",
      "taf": "TAF ESSA 311130Z 3112/0112 13010KT CAVOK"
    },
    {
      "icao": "EYKA",
      "alert": "OK",
      "vis_m": 9999,
      "fzfg": false,
      "metar_trigger": false,
      "taf_trigger": false,
      "metar": "METAR EYKA 311250Z 36004KT CAVOK M13/M19 Q1025",
      "taf": "TAF EYKA 311100Z 3112/0112 VRB04KT 9000 NSC"
    },
    {
      "icao": "EYPA",
      "alert": "OK",
      "vis_m": 9999,
      "fzfg": false,
      "metar_trigger": false,
      "taf_trigger": false,
      "metar": "METAR EYPA 311250Z 06007KT CAVOK M08/M20 Q1026",
      "taf": "TAF EYPA 311100Z 3112/0112 08007KT 9000 NSC"
    },
    {
      "icao": "EYVI",
      "alert": "OK",
      "vis_m": 9999,
      "fzfg": false,
      "metar_trigger": false,
      "taf_trigger": false,
      "metar": "METAR EYVI 311250Z 03005KT CAVOK M12/M16 Q1023 NOSIG",
      "taf": "TAF EYVI 311100Z 3112/0112 VRB04KT 8000 NSC"
    },
    {
      "icao": "GCFV",
      "alert": "OK",
      "vis_m": 9999,
      "fzfg": false,
      "metar_trigger": false,
      "taf_trigger": false,
      "metar": "METAR GCFV 311300Z COR 35011G22KT 310V020 9999 -DZ FEW014 BKN021 21/16 Q1023",
      "taf": ""
    },
    {
      "icao": "GCLP",
      "alert": "OK",
      "vis_m": 9999,
      "fzfg": false,
      "metar_trigger": false,
      "taf_trigger": false,
      "metar": "METAR GCLP 311300Z 36020KT 9999 FEW017 SCT023 21/15 Q1023 NOSIG",
      "taf": "TAF GCLP 310800Z 3109/0109 01020KT 9999 SCT025 TX22/3114Z TN16/0106Z"
    },
    {
      "icao": "GCTS",
      "alert": "OK",
      "vis_m": 9999,
      "fzfg": false,
      "metar_trigger": false,
      "taf_trigger": false,
      "metar": "METAR GCTS 311300Z 10015KT 060V120 9999 FEW020 22/15 Q1024 NOSIG",
      "taf": "TAF GCTS 310800Z 3109/0109 03007KT 9999 FEW025 TX23/3114Z TN14/0106Z"
    },
    {
      "icao": "GMAD",
      "alert": "OK",
      "vis_m": 6000,
      "fzfg": false,
      "metar_trigger": false,
      "taf_trigger": false,
      "metar": "METAR GMAD 311300Z 00000KT 6000 SCT023 SCT200 20/16 Q1020 NOSIG",
      "taf": "TAF GMAD 311100Z 3112/0118 22008KT 8000 SCT020"
    },
    {
      "icao": "GMMN",
      "alert": "OK",
      "vis_m": 9999,
      "fzfg": false,
      "metar_trigger": false,
      "taf_trigger": false,
      "metar": "METAR GMMN 311300Z VRB03KT 9999 BKN016 18/14 Q1023 NOSIG",
      "taf": "TAF GMMN 311100Z 3112/0118 VRB02KT 9999 SCT010 SCT020"
    },
    {
      "icao": "GMMX",
      "alert": "OK",
      "vis_m": 9999,
      "fzfg": false,
      "metar_trigger": false,
      "taf_trigger": false,
      "metar": "METAR GMMX 311300Z 03005KT 340V100 9999 SCT023 20/14 Q1022 NOSIG",
      "taf": "TAF GMMX 311100Z 3112/0118 06006KT 8000 SCT023"
    },
    {
      "icao": "HEGN",
      "alert": "OK",
      "vis_m": 9999,
      "fzfg": false,
      "metar_trigger": false,
      "taf_trigger": false,
      "metar": "METAR HEGN 311200Z 10007KT CAVOK 25/14 Q1014 NOSIG",
      "taf": "TAF HEGN 311100Z 3112/0118 11008KT CAVOK"
    },
    {
      "icao": "HEMA",
      "alert": "OK",
      "vis_m": 9999,
      "fzfg": false,
      "metar_trigger": false,
      "taf_trigger": false,
      "metar": "METAR HEMA 311200Z 05006KT CAVOK 25/05 Q1014 NOSIG",
      "taf": "TAF HEMA 311100Z 3112/0118 10008KT CAVOK"
    },
    {
      "icao": "HESH",
      "alert": "OK",
      "vis_m": null,
      "fzfg": false,
      "metar_trigger": false,
      "taf_trigger": false,
      "metar": "",
      "taf": "TAF HESH 311100Z 3112/0118 15008KT CAVOK"
    },
    {
      "icao": "HESX",
      "alert": "OK",
      "vis_m": 6000,
      "fzfg": false,
      "metar_trigger": false,
      "taf_trigger": false,
      "metar": "METAR HESX 311200Z 21017KT 6000 NSC 26/M01 Q1011 NOSIG",
      "taf": "TAF HESX 311100Z 3112/0118 20017KT 6000 NSC"
    },
    {
      "icao": "LATI",
      "alert": "OK",
      "vis_m": 9999,
      "fzfg": false,
      "metar_trigger": false,
      "taf_trigger": false,
      "metar": "METAR LATI 311250Z 24006KT 9999 SCT050 14/04 Q1003 NOSIG",
      "taf": "TAF LATI 311100Z 3112/0112 VRB05KT 9999 FEW050 SCT090 TX15/3112Z TN04/0105Z"
    },
    {
      "icao": "LBPD",
      "alert": "OK",
      "vis_m": 8000,
      "fzfg": false,
      "metar_trigger": false,
      "taf_trigger": false,
      "metar": "METAR LBPD 311300Z AUTO 11003KT 8000 SCT007/// BKN011/// OVC056/// 06/06 Q1004 NOSIG",
      "taf": "TAF LBPD 311100Z 3112/0112 10010KT 7000 OVC005"
    },
    {
      "icao": "LBSF",
      "alert": "OK",
      "vis_m": 9999,
      "fzfg": false,
      "metar_trigger": false,
      "taf_trigger": false,
      "metar": "METAR LBSF 311300Z 11007KT 9999 FEW022 SCT038 BKN063 08/02 Q1003 NOSIG",
      "taf": "TAF LBSF 311100Z 3112/0112 11010KT 9999 SCT004 SCT015 OVC030"
    },
    {
      "icao": "LBWN",
      "alert": "OK",
      "vis_m": 9999,
      "fzfg": false,
      "metar_trigger": false,
      "taf_trigger": false,
      "metar": "METAR LBWN 311300Z 13005KT 020V160 9999 SCT016 OVC019 04/02 Q1006 NOSIG",
      "taf": "TAF LBWN 311100Z 3112/0112 03010KT 9999 BKN020 OVC035"
    },
    {
      "icao": "LCLK",
      "alert": "OK",
      "vis_m": 9999,
      "fzfg": false,
      "metar_trigger": false,
      "taf_trigger": false,
      "metar": "METAR LCLK 311300Z 19011KT 9999 FEW025 20/17 Q1009 NOSIG",
      "taf": "TAF LCLK 311130Z 3112/0112 22014KT 9999 FEW012 SCT020"
    },
    {
      "icao": "LCPH",
      "alert": "OK",
      "vis_m": 9999,
      "fzfg": false,
      "metar_trigger": false,
      "taf_trigger": false,
      "metar": "METAR LCPH 311300Z AUTO 15007KT 9999 FEW080 19/15 Q1009 NOSIG",
      "taf": "TAF LCPH 311130Z 3112/0112 14010KT 7000 BR FEW015 SCT045"
    },
    {
      "icao": "LEAL",
      "alert": "OK",
      "vis_m": 9999,
      "fzfg": false,
      "metar_trigger": false,
      "taf_trigger": false,
      "metar": "METAR LEAL 311300Z 31030G42KT 260V340 9999 FEW025 17/02 Q1011 NOSIG",
      "taf": "TAF LEAL 311100Z 3112/0112 30020KT 9999 FEW010 TX18/3114Z TN10/0106Z"
    },
    {
      "icao": "LEBB",
      "alert": "OK",
      "vis_m": 9999,
      "fzfg": false,
      "metar_trigger": false,
      "taf_trigger": false,
      "metar": "METAR LEBB 311300Z 27010G20KT 230V330 9999 -RA BKN044 BKN050 OVC058 12/07 Q1011 TEMPO 3000 SHRA SCT035TCU",
      "taf": ""
    },
    {
      "icao": "LEBL",
      "alert": "OK",
      "vis_m": 9999,
      "fzfg": false,
      "metar_trigger": false,
      "taf_trigger": false,
      "metar": "METAR LEBL 311300Z 32014G29KT 290V360 CAVOK 15/04 Q1004 NOSIG",
      "taf": "TAF LEBL 311100Z 3112/0112 32009KT CAVOK TX16/3112Z TN07/0106Z"
    },
    {
      "icao": "LECH",
      "alert": "OK",
      "vis_m": 9000,
      "fzfg": false,
      "metar_trigger": false,
      "taf_trigger": false,
      "metar": "METAR LECH 311300Z AUTO 32034G51KT 280V350 9000 NCD 15/M01 Q1005",
      "taf": ""
    },
    {
      "icao": "LEMD",
      "alert": "OK",
      "vis_m": 9999,
      "fzfg": false,
      "metar_trigger": false,
      "taf_trigger": false,
      "metar": "METAR LEMD 311300Z 28019KT 250V310 9999 SCT048 11/01 Q1014 NOSIG",
      "taf": "TAF LEMD 311100Z 3112/0118 27015KT CAVOK TX12/3115Z TN02/0104Z"
    },
    {
      "icao": "LEMG",
      "alert": "OK",
      "vis_m": 9999,
      "fzfg": false,
      "metar_trigger": false,
      "taf_trigger": false,
      "metar": "METAR LEMG 311300Z 31011KT 280V340 9999 FEW046 15/05 Q1019 NOSIG",
      "taf": "TAF LEMG 311100Z 3112/0112 30015KT 9999 FEW045 TX18/3115Z TN12/0106Z"
    },
    {
      "icao": "LEVC",
      "alert": "OK",
      "vis_m": 9999,
      "fzfg": false,
      "metar_trigger": false,
      "taf_trigger": false,
      "metar": "METAR LEVC 311300Z 29027G40KT CAVOK 17/M00 Q1008 NOSIG",
      "taf": "TAF LEVC 311100Z 3112/0112 30022KT CAVOK TX18/3114Z TN10/0106Z"
    },
    {
      "icao": "LEXJ",
      "alert": "OK",
      "vis_m": 9999,
      "fzfg": false,
      "metar_trigger": false,
      "taf_trigger": false,
      "metar": "METAR LEXJ 311300Z 30026G36KT 9999 SCT078 BKN086 13/06 Q1011",
      "taf": ""
    },
    {
      "icao": "LEZG",
      "alert": "OK",
      "vis_m": 9999,
      "fzfg": false,
      "metar_trigger": false,
      "taf_trigger": false,
      "metar": "METAR LEZG 311300Z 32006KT 280V350 9999 FEW030 BKN060 11/04 Q1010 NOSIG",
      "taf": "TAF LEZG 311100Z 3112/0112 27009KT 9999 FEW030 TX14/3113Z TN06/0106Z"
    },
    {
      "icao": "LEZL",
      "alert": "OK",
      "vis_m": 9999,
      "fzfg": false,
      "metar_trigger": false,
      "taf_trigger": false,
      "metar": "METAR LEZL 311300Z 26009KT 220V290 9999 FEW042 16/08 Q1021 NOSIG",
      "taf": "TAF LEZL 310800Z 3109/0109 27010KT CAVOK TX17/3115Z TN10/0107Z"
    },
    {
      "icao": "LFBD",
      "alert": "OK",
      "vis_m": 9999,
      "fzfg": false,
      "metar_trigger": false,
      "taf_trigger": false,
      "metar": "METAR LFBD 311300Z AUTO 28016KT 250V310 9999 FEW019/// BKN024/// BKN032/// ///CB 12/09 Q1004 TEMPO 28015G25KT 1000 -TSRA",
      "taf": "TAF LFBD 311100Z 3112/0118 27010KT 9999 BKN030 TX12/3114Z TN07/0105Z"
    },
    {
      "icao": "LFLL",
      "alert": "OK",
      "vis_m": 9999,
      "fzfg": false,
      "metar_trigger": false,
      "taf_trigger": false,
      "metar": "METAR LFLL 311300Z 12006KT 090V150 9999 BKN042 09/03 Q1003 NOSIG",
      "taf": "TAF LFLL 311100Z 3112/0118 17005KT 9999 BKN035"
    },
    {
      "icao": "LFLS",
      "alert": "OK",
      "vis_m": 9999,
      "fzfg": false,
      "metar_trigger": false,
      "taf_trigger": false,
      "metar": "METAR LFLS 311300Z AUTO 06003KT 030V110 9999 FEW033 BKN056 08/02 Q1003 TEMPO 4000 -SHRA BKN015 BKN030TCU",
      "taf": "TAF LFLS 310800Z 3109/0109 08005KT 9999 BKN040"
    },
    {
      "icao": "LFMN",
      "alert": "OK",
      "vis_m": 9999,
      "fzfg": false,
      "metar_trigger": false,
      "taf_trigger": false,
      "metar": "METAR LFMN 311300Z 31006KT 9999 SCT063 BKN260 13/03 Q1001 BECMG 09010KT",
      "taf": "TAF LFMN 310800Z 3109/0115 34010KT 9999 SCT050 BKN120"
    },
    {
      "icao": "LFOB",
      "alert": "OK",
      "vis_m": 9999,
      "fzfg": false,
      "metar_trigger": false,
      "taf_trigger": false,
      "metar": "METAR LFOB 311300Z AUTO 17005KT 9999 OVC006 07/06 Q1001 BECMG BKN014",
      "taf": "TAF LFOB 311100Z 3112/0112 17005KT 8000 OVC005"
    },
    {
      "icao": "LFPO",
      "alert": "OK",
      "vis_m": 8000,
      "fzfg": false,
      "metar_trigger": false,
      "taf_trigger": false,
      "metar": "METAR LFPO 311300Z 17007KT 8000 OVC005 07/06 Q1002 BECMG BKN008",
      "taf": "TAF LFPO 311100Z 3112/0118 18005KT 4000 BR OVC003"
    },
    {
      "icao": "LFSB",
      "alert": "OK",
      "vis_m": 9999,
      "fzfg": false,
      "metar_trigger": false,
      "taf_trigger": false,
      "metar": "METAR LFSB 311300Z AUTO 15006KT CAVOK 08/02 Q1003 NOSIG",
      "taf": "TAF LFSB 311100Z 3112/0112 12007KT 9999 FEW030"
    },
    {
      "icao": "LGAV",
      "alert": "OK",
      "vis_m": 9999,
      "fzfg": false,
      "metar_trigger": false,
      "taf_trigger": false,
      "metar": "METAR LGAV 311250Z 29009KT 9999 FEW020 SCT035 17/06 Q1003 NOSIG",
      "taf": "TAF LGAV 311100Z 3112/0112 27010KT 9999 FEW020"
    },
    {
      "icao": "LGTS",
      "alert": "OK",
      "vis_m": 9999,
      "fzfg": false,
      "metar_trigger": false,
      "taf_trigger": false,
      "metar": "METAR LGTS 311250Z VRB03KT 9999 SCT025 14/07 Q1002 NOSIG",
      "taf": "TAF LGTS 311100Z 3112/0112 08010KT 9999 SCT030"
    },
    {
      "icao": "LHBP",
      "alert": "OK",
      "vis_m": 9999,
      "fzfg": false,
      "metar_trigger": false,
      "taf_trigger": false,
      "metar": "METAR LHBP 311300Z 07004KT 040V100 9999 -RA BKN007 OVC020 03/02 Q1006 NOSIG",
      "taf": "TAF LHBP 311115Z 3112/0112 08007KT 9999 SCT012 OVC030"
    },
    {
      "icao": "LHDC",
      "alert": "OK",
      "vis_m": 7000,
      "fzfg": false,
      "metar_trigger": false,
      "taf_trigger": false,
      "metar": "METAR LHDC 311245Z AUTO 04009KT 7000 -DZ BKN005 02/02 Q1006 NOSIG",
      "taf": "TAF LHDC 311115Z 3112/3121 04008KT 9000 -RASN SCT004 OVC015"
    },
    {
      "icao": "LIBD",
      "alert": "OK",
      "vis_m": 9999,
      "fzfg": false,
      "metar_trigger": false,
      "taf_trigger": false,
      "metar": "METAR LIBD 311250Z 08012KT 9999 SCT040 14/08 Q1000",
      "taf": "TAF LIBD 311100Z 3112/0112 11010KT CAVOK"
    },
    {
      "icao": "LIBG",
      "alert": "OK",
      "vis_m": 9999,
      "fzfg": false,
      "metar_trigger": false,
      "taf_trigger": false,
      "metar": "METAR LIBG 311250Z 19005KT 9999 SCT020 15/07 Q1001",
      "taf": "TAF LIBG 311100Z 3112/3121 15010KT 9999 SCT040"
    },
    {
      "icao": "LIBP",
      "alert": "OK",
      "vis_m": 9999,
      "fzfg": false,
      "metar_trigger": false,
      "taf_trigger": false,
      "metar": "METAR LIBP 311250Z AUTO 06008KT 030V090 9999 NCD 12/08 Q1001",
      "taf": "TAF LIBP 311100Z 3112/0112 VRB05KT 9999 FEW030"
    },
    {
      "icao": "LIBR",
      "alert": "OK",
      "vis_m": 9999,
      "fzfg": false,
      "metar_trigger": false,
      "taf_trigger": false,
      "metar": "METAR LIBR 311250Z 12006KT 080V160 9999 BKN025 13/09 Q1001",
      "taf": "TAF LIBR 311100Z 3112/0112 12010KT 9999 SCT020"
    },
    {
      "icao": "LICA",
      "alert": "OK",
      "vis_m": 9999,
      "fzfg": false,
      "metar_trigger": false,
      "taf_trigger": false,
      "metar": "METAR LICA 311250Z AUTO 08015KT 9999 FEW120/// 14/09 Q0999",
      "taf": "TAF LICA 311100Z 3112/0112 08014KT 9999 SCT020"
    },
    {
      "icao": "LICC",
      "alert": "OK",
      "vis_m": 4000,
      "fzfg": false,
      "metar_trigger": false,
      "taf_trigger": false,
      "metar": "METAR LICC 311250Z 06010KT 4000 RA BR SCT020 BKN040 10/07 Q0998",
      "taf": ""
    },
    {
      "icao": "LICJ",
      "alert": "OK",
      "vis_m": 9999,
      "fzfg": false,
      "metar_trigger": false,
      "taf_trigger": false,
      "metar": "METAR LICJ 311250Z 08006KT 9999 BKN060 13/08 Q0995",
      "taf": "TAF LICJ 311100Z 3112/0112 18011KT 9999 SCT030"
    },
    {
      "icao": "LIMC",
      "alert": "OK",
      "vis_m": 9000,
      "fzfg": false,
      "metar_trigger": false,
      "taf_trigger": false,
      "metar": "METAR LIMC 311250Z VRB01KT 9000 SCT040 BKN060 08/04 Q1004 NOSIG",
      "taf": "TAF LIMC 311100Z 3112/0118 VRB05KT 9000 BKN030"
    },
    {
      "icao": "LIME",
      "alert": "OK",
      "vis_m": 8000,
      "fzfg": false,
      "metar_trigger": false,
      "taf_trigger": false,
      "metar": "METAR LIME 311250Z 22006KT 180V250 8000 SCT015 SCT040 08/04 Q1004 NOSIG",
      "taf": "TAF LIME 311100Z 3112/0112 VRB04KT 9999 SCT020"
    },
    {
      "icao": "LIMF",
      "alert": "OK",
      "vis_m": 6000,
      "fzfg": false,
      "metar_trigger": false,
      "taf_trigger": false,
      "metar": "METAR LIMF 311250Z VRB02KT 6000 NSC 08/02 Q1004",
      "taf": "TAF LIMF 311100Z 3112/0112 VRB04KT 4000 BR SCT040"
    },
    {
      "icao": "LIMJ",
      "alert": "OK",
      "vis_m": 9999,
      "fzfg": false,
      "metar_trigger": false,
      "taf_trigger": false,
      "metar": "METAR LIMJ 311250Z 04018KT 9999 FEW032 SCT070 09/04 Q1002",
      "taf": "TAF LIMJ 311100Z 3112/0112 04015KT 9999 SCT030"
    },
    {
      "icao": "LIPE",
      "alert": "OK",
      "vis_m": 3500,
      "fzfg": false,
      "metar_trigger": false,
      "taf_trigger": false,
      "metar": "METAR LIPE 311250Z 29004KT 3500 BR BKN003 06/05 Q1004",
      "taf": "TAF LIPE 311100Z 3112/0112 VRB04KT 3000 BR BKN008"
    },
    {
      "icao": "LIPH",
      "alert": "OK",
      "vis_m": 9999,
      "fzfg": false,
      "metar_trigger": false,
      "taf_trigger": false,
      "metar": "METAR LIPH 311250Z 09006KT 060V130 CAVOK 11/05 Q1003",
      "taf": "TAF LIPH 311100Z 3112/0112 VRB04KT 9999 FEW050"
    },
    {
      "icao": "LIPQ",
      "alert": "OK",
      "vis_m": 9999,
      "fzfg": false,
      "metar_trigger": false,
      "taf_trigger": false,
      "metar": "METAR LIPQ 311250Z AUTO 01004KT 350V050 9999 NCD 12/01 Q1003",
      "taf": "TAF LIPQ 311100Z 3112/0112 VRB05KT CAVOK"
    },
    {
      "icao": "LIPR",
      "alert": "OK",
      "vis_m": 3100,
      "fzfg": false,
      "metar_trigger": false,
      "taf_trigger": false,
      "metar": "METAR LIPR 311250Z AUTO 31010KT 3100 DZRA BR OVC004/// 06/06 Q1003",
      "taf": "TAF LIPR 311100Z 3112/0112 29008KT 4000 BR BKN008"
    },
    {
      "icao": "LIPX",
      "alert": "OK",
      "vis_m": 8000,
      "fzfg": false,
      "metar_trigger": false,
      "taf_trigger": false,
      "metar": "METAR LIPX 311250Z 19005KT 160V230 8000 BKN010 07/05 Q1004",
      "taf": "TAF LIPX 311100Z 3112/0112 VRB05KT 3000 BR NSC"
    },
    {
      "icao": "LIPY",
      "alert": "OK",
      "vis_m": 8000,
      "fzfg": false,
      "metar_trigger": false,
      "taf_trigger": false,
      "metar": "METAR LIPY 311250Z AUTO 31005KT 8000 -RA OVC004/// 08/08 Q1002 RERA",
      "taf": "TAF LIPY 311100Z 3112/0112 VRB05KT 6000 BKN005"
    },
    {
      "icao": "LIPZ",
      "alert": "OK",
      "vis_m": 9999,
      "fzfg": false,
      "metar_trigger": false,
      "taf_trigger": false,
      "metar": "METAR LIPZ 311250Z 15003KT CAVOK 08/05 Q1003 NOSIG",
      "taf": "TAF LIPZ 311100Z 3112/0118 03006KT 9999 FEW040"
    },
    {
      "icao": "LIRF",
      "alert": "OK",
      "vis_m": 9999,
      "fzfg": false,
      "metar_trigger": false,
      "taf_trigger": false,
      "metar": "METAR LIRF 311250Z 13007KT 9999 DZ FEW055 14/08 Q0998 NOSIG",
      "taf": "TAF LIRF 311100Z 3112/0118 14012KT 9999 SCT030"
    },
    {
      "icao": "LIRN",
      "alert": "OK",
      "vis_m": 9999,
      "fzfg": false,
      "metar_trigger": false,
      "taf_trigger": false,
      "metar": "METAR LIRN 311250Z 21004KT 170V240 9999 SCT040 14/08 Q0999 NOSIG",
      "taf": "TAF LIRN 311100Z 3112/0112 VRB06KT 8000 SCT040"
    },
    {
      "icao": "LIRP",
      "alert": "OK",
      "vis_m": 9999,
      "fzfg": false,
      "metar_trigger": false,
      "taf_trigger": false,
      "metar": "METAR LIRP 311245Z 08005KT 9999 SCT060 13/06 Q1000 NOSIG",
      "taf": "TAF LIRP 311100Z 3112/0112 08010KT 9999 FEW030 SCT060"
    },
    {
      "icao": "LIRZ",
      "alert": "OK",
      "vis_m": 9999,
      "fzfg": false,
      "metar_trigger": false,
      "taf_trigger": false,
      "metar": "METAR LIRZ 311250Z AUTO 02006KT 350V050 9999 SCT063/// 13/07 Q0999",
      "taf": "TAF LIRZ 311100Z 3112/0112 03012KT 9999 SCT040"
    },
    {
      "icao": "LJLJ",
      "alert": "OK",
      "vis_m": 9999,
      "fzfg": false,
      "metar_trigger": false,
      "taf_trigger": false,
      "metar": "METAR LJLJ 311300Z VRB02KT 9999 FEW013 OVC037 06/02 Q1004 NOSIG",
      "taf": "TAF LJLJ 311100Z 3112/0112 VRB02KT 9999 FEW020 OVC035"
    },
    {
      "icao": "LKMT",
      "alert": "OK",
      "vis_m": 8000,
      "fzfg": false,
      "metar_trigger": false,
      "taf_trigger": false,
      "metar": "METAR LKMT 311300Z 04011KT 8000 OVC013 M05/M07 Q1009 NOSIG",
      "taf": "TAF LKMT 311100Z 3112/0112 03010KT 7000 SCT010 BKN014 OVC018"
    },
    {
      "icao": "LKPR",
      "alert": "OK",
      "vis_m": 5000,
      "fzfg": false,
      "metar_trigger": false,
      "taf_trigger": false,
      "metar": "METAR LKPR 311300Z 07007KT 5000 BR BKN007 OVC021 M01/M02 Q1006 NOSIG",
      "taf": "TAF LKPR 311100Z 3112/0118 06006KT 1700 BR BKN003 OVC005"
    },
    {
      "icao": "LLBG",
      "alert": "OK",
      "vis_m": 9999,
      "fzfg": false,
      "metar_trigger": false,
      "taf_trigger": false,
      "metar": "METAR LLBG 311250Z 19009KT CAVOK 24/08 Q1012 NOSIG RMK SCT100",
      "taf": "TAF LLBG 311101Z 3112/0112 18010KT CAVOK"
    },
    {
      "icao": "LMML",
      "alert": "OK",
      "vis_m": 9999,
      "fzfg": false,
      "metar_trigger": false,
      "taf_trigger": false,
      "metar": "METAR LMML 311245Z 21015KT 170V240 9999 FEW020TCU SCT038 18/12 Q0997 NOSIG",
      "taf": "TAF LMML 311100Z 3112/0112 21018KT 9999 FEW020"
    },
    {
      "icao": "LOWW",
      "alert": "OK",
      "vis_m": 6000,
      "fzfg": false,
      "metar_trigger": false,
      "taf_trigger": false,
      "metar": "METAR LOWW 311250Z 01005KT 6000 FEW003 BKN006 01/M00 Q1006 TEMPO 4000 BR BKN004",
      "taf": "TAF LOWW 311115Z 3112/0118 35005KT 4000 BR BKN012 TX02/3113Z TNM02/0106Z"
    },
    {
      "icao": "LPFR",
      "alert": "OK",
      "vis_m": 9999,
      "fzfg": false,
      "metar_trigger": false,
      "taf_trigger": false,
      "metar": "METAR LPFR 311300Z 23009KT 9999 FEW020 15/11 Q1022",
      "taf": "TAF LPFR 311100Z 3112/0112 28005KT 9999 SCT035"
    },
    {
      "icao": "LPMA",
      "alert": "OK",
      "vis_m": 9999,
      "fzfg": false,
      "metar_trigger": false,
      "taf_trigger": false,
      "metar": "METAR LPMA 311300Z 20005KT 9999 FEW011 BKN015 19/16 Q1025",
      "taf": "TAF LPMA 311100Z 3112/0112 VRB05KT 9999 SCT015"
    },
    {
      "icao": "LPPR",
      "alert": "OK",
      "vis_m": 9999,
      "fzfg": false,
      "metar_trigger": false,
      "taf_trigger": false,
      "metar": "METAR LPPR 311300Z 24003KT 200V310 9999 VCSH FEW020 13/10 Q1018",
      "taf": "TAF LPPR 311100Z 3112/0112 30008KT 9999 SCT035"
    },
    {
      "icao": "LPPS",
      "alert": "OK",
      "vis_m": 9999,
      "fzfg": false,
      "metar_trigger": false,
      "taf_trigger": false,
      "metar": "METAR LPPS 311300Z 29005KT 260V330 9999 FEW014 19/14 Q1025",
      "taf": "TAF LPPS 311100Z 3112/0118 VRB05KT 9999 SCT012"
    },
    {
      "icao": "LPPT",
      "alert": "OK",
      "vis_m": 9999,
      "fzfg": false,
      "metar_trigger": false,
      "taf_trigger": false,
      "metar": "METAR LPPT 311300Z 28008KT 250V320 9999 SCT035 15/08 Q1020",
      "taf": "TAF LPPT 311100Z 3112/0118 25008KT 9999 SCT030"
    },
    {
      "icao": "LQBK",
      "alert": "OK",
      "vis_m": 9999,
      "fzfg": false,
      "metar_trigger": false,
      "taf_trigger": false,
      "metar": "METAR LQBK 311300Z 35005KT 9999 FEW015 BKN023 07/03 Q1005 NOSIG",
      "taf": "TAF LQBK 311100Z 3112/0112 06005KT 9999 SCT017 BKN035 TX07/3113Z TN01/0105Z"
    },
    {
      "icao": "LQSA",
      "alert": "OK",
      "vis_m": 9999,
      "fzfg": false,
      "metar_trigger": false,
      "taf_trigger": false,
      "metar": "METAR LQSA 311300Z 28005KT 240V300 9999 FEW022 BKN050 07/03 Q1002 NOSIG",
      "taf": "TAF LQSA 311100Z 3112/0112 VRB02KT 9999 BKN045 TX08/3113Z TN01/0105Z"
    },
    {
      "icao": "LQTZ",
      "alert": "OK",
      "vis_m": 9999,
      "fzfg": false,
      "metar_trigger": false,
      "taf_trigger": false,
      "metar": "METAR LQTZ 311300Z 13004KT 100V160 9999 SCT014 BKN021 06/04 Q1004",
      "taf": "TAF LQTZ 311100Z 3112/0112 10005KT 9999 SCT015 BKN025 TX07/3113Z TN01/0105Z"
    },
    {
      "icao": "LRBC",
      "alert": "OK",
      "vis_m": 9999,
      "fzfg": false,
      "metar_trigger": false,
      "taf_trigger": false,
      "metar": "METAR LRBC 311300Z 36013KT 9999 FEW013 OVC065 M03/M07 Q1010",
      "taf": "TAF LRBC 311100Z 3112/3121 35012KT 9999 BKN015 OVC030"
    },
    {
      "icao": "LRBS",
      "alert": "OK",
      "vis_m": 9999,
      "fzfg": false,
      "metar_trigger": false,
      "taf_trigger": false,
      "metar": "METAR LRBS 311300Z 08008KT 9999 SCT015 OVC034 02/M01 Q1008 NOSIG",
      "taf": "TAF LRBS 311100Z 3112/0112 09012KT 5000 -SN BR BKN010 OVC025"
    },
    {
      "icao": "LRBV",
      "alert": "OK",
      "vis_m": 9000,
      "fzfg": false,
      "metar_trigger": false,
      "taf_trigger": false,
      "metar": "METAR LRBV 311300Z 09005KT 9000 -SN FEW010 BKN017 01/M02 Q1004",
      "taf": "TAF LRBV 311100Z 3112/3121 12006KT 9999 -SN BKN010 OVC030"
    },
    {
      "icao": "LRCL",
      "alert": "OK",
      "vis_m": 9999,
      "fzfg": false,
      "metar_trigger": false,
      "taf_trigger": false,
      "metar": "METAR LRCL 311300Z 09005KT 9999 -RA SCT007 OVC011 03/02 Q1005",
      "taf": "TAF LRCL 311100Z 3112/3121 VRB04KT 5000 -RA BR BKN005 OVC020"
    },
    {
      "icao": "LRCV",
      "alert": "OK",
      "vis_m": 5000,
      "fzfg": false,
      "metar_trigger": false,
      "taf_trigger": false,
      "metar": "METAR LRCV 311300Z 10012KT 5000 BR OVC006 01/00 Q1006",
      "taf": "TAF LRCV 311100Z 3112/3121 11015KT 5000 BR OVC005"
    },
    {
      "icao": "LRIA",
      "alert": "OK",
      "vis_m": 9999,
      "fzfg": false,
      "metar_trigger": false,
      "taf_trigger": false,
      "metar": "METAR LRIA 311300Z 33012KT 9999 FEW015 OVC023 M06/M10 Q1011",
      "taf": "TAF LRIA 311100Z 3112/3121 34012KT 9999 BKN015 OVC025"
    },
    {
      "icao": "LROP",
      "alert": "OK",
      "vis_m": 9999,
      "fzfg": false,
      "metar_trigger": false,
      "taf_trigger": false,
      "metar": "METAR LROP 311300Z 09007KT 9999 BKN014 OVC034 02/M01 Q1008 NOSIG",
      "taf": "TAF LROP 311100Z 3112/0112 09012KT 5000 -SN BR BKN010 OVC025"
    },
    {
      "icao": "LRSB",
      "alert": "OK",
      "vis_m": 1500,
      "fzfg": false,
      "metar_trigger": false,
      "taf_trigger": false,
      "metar": "METAR LRSB 311300Z COR 20002KT 1500 -DZ BR SCT002 OVC005 03/03 Q1004 NOSIG",
      "taf": "TAF LRSB 311100Z 3112/0112 VRB04KT 9999 BKN015 OVC030"
    },
    {
      "icao": "LRSM",
      "alert": "OK",
      "vis_m": 9999,
      "fzfg": false,
      "metar_trigger": false,
      "taf_trigger": false,
      "metar": "METAR LRSM 311300Z AUTO 32003KT 9999 BKN034/// OVC043/// 05/01 Q1006",
      "taf": ""
    },
    {
      "icao": "LRSV",
      "alert": "OK",
      "vis_m": 9999,
      "fzfg": false,
      "metar_trigger": false,
      "taf_trigger": false,
      "metar": "METAR LRSV 311300Z 36012KT 9999 SCT042 M08/M09 Q1009",
      "taf": "TAF LRSV 311100Z 3112/3121 36010KT 9999 BKN010 BKN030"
    },
    {
      "icao": "LRTM",
      "alert": "OK",
      "vis_m": 9999,
      "fzfg": false,
      "metar_trigger": false,
      "taf_trigger": false,
      "metar": "METAR LRTM 311300Z 00000KT 9999 -RA SCT010 BKN014 OVC036 04/03 Q1005",
      "taf": "TAF LRTM 311100Z 3112/3121 VRB04KT 8000 -RA BKN015 OVC020"
    },
    {
      "icao": "LRTR",
      "alert": "OK",
      "vis_m": 9999,
      "fzfg": false,
      "metar_trigger": false,
      "taf_trigger": false,
      "metar": "METAR LRTR 311300Z VRB01KT 9999 BKN009 OVC016 05/04 Q1005",
      "taf": "TAF LRTR 311100Z 3112/0112 VRB04KT 9999 BKN010 OVC020"
    },
    {
      "icao": "LTAC",
      "alert": "OK",
      "vis_m": 7000,
      "fzfg": false,
      "metar_trigger": false,
      "taf_trigger": false,
      "metar": "METAR LTAC 311250Z 22009KT 7000 -SHRA FEW020CB BKN025 07/05 Q1004 NOSIG RMK RWY21C 22008KT RWY03L 22009KT RWY21R 21008KT RWY03R 20009KT RWY21L 21009KT",
      "taf": "TAF LTAC 311040Z 3112/0112 VRB02KT 9999 SCT035 BKN090"
    },
    {
      "icao": "LTFM",
      "alert": "OK",
      "vis_m": 6000,
      "fzfg": false,
      "metar_trigger": false,
      "taf_trigger": false,
      "metar": "METAR LTFM 311250Z 04018KT 6000 -SHRA BKN011 BKN025 07/05 Q1003 NOSIG RMK RWY17L 04018KT RWY34L 03014KT RWY16R 04017KT RWY36 04019KT RWY18 05016KT",
      "taf": "TAF LTFM 311040Z 3112/0118 05017G27KT 9999 BKN011 BKN025"
    },
    {
      "icao": "LUKK",
      "alert": "OK",
      "vis_m": 9999,
      "fzfg": false,
      "metar_trigger": false,
      "taf_trigger": false,
      "metar": "METAR LUKK 311300Z 36013KT 330V030 9999 BKN020 M06/M09 Q1008 NOSIG",
      "taf": "TAF LUKK 311116Z 3112/0112 36014KT 9999 BKN015"
    },
    {
      "icao": "LWOH",
      "alert": "OK",
      "vis_m": 9999,
      "fzfg": false,
      "metar_trigger": false,
      "taf_trigger": false,
      "metar": "METAR LWOH 311250Z VRB02KT 9999 FEW040 BKN050 07/04 Q1002",
      "taf": "TAF LWOH 311115Z 3112/0112 VRB02KT 9999 SCT045"
    },
    {
      "icao": "LWSK",
      "alert": "OK",
      "vis_m": 9999,
      "fzfg": false,
      "metar_trigger": false,
      "taf_trigger": false,
      "metar": "METAR LWSK 311250Z 34005KT 270V030 9999 SCT030 11/05 Q1002 NOSIG",
      "taf": "TAF LWSK 311115Z 3112/0112 VRB02KT 9999 FEW040"
    },
    {
      "icao": "LYBE",
      "alert": "OK",
      "vis_m": 9999,
      "fzfg": false,
      "metar_trigger": false,
      "taf_trigger": false,
      "metar": "METAR LYBE 311300Z 01005KT 9999 BKN020 07/03 Q1005 NOSIG",
      "taf": "TAF LYBE 311100Z 3112/0112 04005KT 9999 SCT015 BKN030 TX08/3113Z TN03/0106Z"
    },
    {
      "icao": "LYNI",
      "alert": "OK",
      "vis_m": 9999,
      "fzfg": false,
      "metar_trigger": false,
      "taf_trigger": false,
      "metar": "METAR LYNI 311300Z 33008KT 9999 SCT017 BKN040 07/04 Q1004 NOSIG",
      "taf": "TAF LYNI 311100Z 3112/0112 34008KT 9999 FEW015 BKN030 TX08/3113Z TN02/0106Z"
    },
    {
      "icao": "LYPG",
      "alert": "OK",
      "vis_m": 9999,
      "fzfg": false,
      "metar_trigger": false,
      "taf_trigger": false,
      "metar": "METAR LYPG 311300Z 19003KT 140V230 9999 FEW020 BKN080 12/07 Q1003 NOSIG",
      "taf": "TAF LYPG 311100Z 3112/0112 18005KT 9999 FEW020 SCT050 TX13/3112Z TN05/0106Z"
    },
    {
      "icao": "LZIB",
      "alert": "OK",
      "vis_m": 7000,
      "fzfg": false,
      "metar_trigger": false,
      "taf_trigger": false,
      "metar": "METAR LZIB 311300Z VRB02KT 7000 BKN009 BKN012 03/01 Q1006 TEMPO SCT011 OVC016",
      "taf": ""
    },
    {
      "icao": "LZKZ",
      "alert": "OK",
      "vis_m": 9999,
      "fzfg": false,
      "metar_trigger": false,
      "taf_trigger": false,
      "metar": "METAR LZKZ 311300Z 02017KT 9999 BKN036 M01/M06 Q1007 NOSIG",
      "taf": "TAF LZKZ 311115Z 3112/0112 01013KT 9999 BKN032"
    },
    {
      "icao": "LZTT",
      "alert": "OK",
      "vis_m": 9999,
      "fzfg": false,
      "metar_trigger": false,
      "taf_trigger": false,
      "metar": "METAR LZTT 311300Z 07008KT 9999 BKN017 M05/M07 Q1005 NOSIG",
      "taf": "TAF LZTT 311115Z 3112/0112 06009KT 9999 OVC009"
    },
    {
      "icao": "OEJN",
      "alert": "OK",
      "vis_m": 9999,
      "fzfg": false,
      "metar_trigger": false,
      "taf_trigger": false,
      "metar": "METAR OEJN 311300Z 28007KT CAVOK 29/17 Q1012 NOSIG",
      "taf": "TAF OEJN 311100Z 3112/0118 27010KT 9999 FEW040"
    },
    {
      "icao": "OEMA",
      "alert": "OK",
      "vis_m": 9999,
      "fzfg": false,
      "metar_trigger": false,
      "taf_trigger": false,
      "metar": "METAR OEMA 311300Z VRB03KT CAVOK 29/04 Q1015 NOSIG",
      "taf": "TAF OEMA 311100Z 3112/0118 26008KT CAVOK"
    },
    {
      "icao": "OJAI",
      "alert": "OK",
      "vis_m": 5000,
      "fzfg": false,
      "metar_trigger": false,
      "taf_trigger": false,
      "metar": "METAR OJAI 311200Z 23009KT 5000 HZ NSC 18/06 Q1015 NOSIG",
      "taf": "TAF OJAI 311032Z 3112/0118 24012KT 5000 HZ NSC"
    },
    {
      "icao": "OMAA",
      "alert": "OK",
      "vis_m": 9999,
      "fzfg": false,
      "metar_trigger": false,
      "taf_trigger": false,
      "metar": "METAR OMAA 311300Z 32008KT 280V350 CAVOK 22/12 Q1017 NOSIG",
      "taf": "TAF OMAA 311100Z 3112/0118 32011KT 8000 NSC"
    },
    {
      "icao": "OMDB",
      "alert": "OK",
      "vis_m": 9999,
      "fzfg": false,
      "metar_trigger": false,
      "taf_trigger": false,
      "metar": "METAR OMDB 311300Z 29009KT 9999 FEW033 22/13 Q1017 NOSIG",
      "taf": "TAF OMDB 311100Z 3112/0118 27012KT 9999 FEW033"
    },
    {
      "icao": "UAAA",
      "alert": "OK",
      "vis_m": 4400,
      "fzfg": false,
      "metar_trigger": false,
      "taf_trigger": false,
      "metar": "METAR UAAA 311300Z 25003MPS 4400 BR FU SCT100 BKN200 M01/M04 Q1017 NOSIG",
      "taf": "TAF UAAA 311103Z 3112/0112 20003MPS 1200 BR FU SCT011 BKN020 TX04/0109Z TNM05/0102Z"
    },
    {
      "icao": "UBBB",
      "alert": "OK",
      "vis_m": 9999,
      "fzfg": false,
      "metar_trigger": false,
      "taf_trigger": false,
      "metar": "METAR UBBB 311300Z 31008KT 9999 SCT008 05/03 Q1005 NOSIG",
      "taf": "TAF UBBB 311054Z 3112/0112 31005KT 9999 FEW030 TX12/3112Z TN02/0100Z"
    },
    {
      "icao": "UDSG",
      "alert": "OK",
      "vis_m": 700,
      "fzfg": true,
      "metar_trigger": false,
      "taf_trigger": false,
      "metar": "METAR UDSG 311300Z 17002KT 0700 R02/0800U SN FZFG OVC013 M03/M03 Q1013 NOSIG",
      "taf": "TAF UDSG 311058Z 3112/0112 VRB04KT 1500 BR OVC010"
    },
    {
      "icao": "UDYZ",
      "alert": "OK",
      "vis_m": 1100,
      "fzfg": false,
      "metar_trigger": false,
      "taf_trigger": false,
      "metar": "METAR UDYZ 311300Z 26002KT 1100 1000W R08/1000N -SN BR OVC016 M01/M02 Q1015 NOSIG",
      "taf": "TAF UDYZ 311100Z 3112/0112 VRB04KT 2000 BR SCT007 BKN020"
    },
    {
      "icao": "UGKO",
      "alert": "OK",
      "vis_m": 9999,
      "fzfg": false,
      "metar_trigger": false,
      "taf_trigger": false,
      "metar": "METAR UGKO 311300Z 05007KT 9999 -RA SCT054 OVC080 13/07 Q1008 NOSIG",
      "taf": "TAF UGKO 311100Z 3112/0112 08007KT 9999 BKN050 TX14/3112Z TN08/0103Z"
    }
  ]
}