{
  "ts_utc": "2026-01-10T19:17:56Z",
  "threshold_m": 150,
  "source": "stations_override.txt (ICAO list) + aviationweather.gov (METAR/TAF raw)",
  "station_count": 159,
  "stations": [
    {
      "icao": "BIKF",
      "alert": "OK",
      "vis_m": 9999,
      "fzfg": false,
      "metar_trigger": false,
      "taf_trigger": false,
      "metar": "METAR BIKF 101900Z 06005KT CAVOK M05/M06 Q1007",
      "taf": "TAF BIKF 101623Z 1018/1118 04005KT 9999 FEW030 TXM01/1112Z TNM07/1018Z"
    },
    {
      "icao": "BKPR",
      "alert": "OK",
      "vis_m": 1500,
      "fzfg": false,
      "metar_trigger": false,
      "taf_trigger": false,
      "metar": "METAR BKPR 101900Z 01010KT 1500 SN OVC005 00/00 Q0998 NOSIG",
      "taf": ""
    },
    {
      "icao": "EBCI",
      "alert": "OK",
      "vis_m": 6000,
      "fzfg": false,
      "metar_trigger": false,
      "taf_trigger": false,
      "metar": "METAR EBCI 101850Z 36006KT 6000 BKN006 M03/M04 Q1018 NOSIG",
      "taf": "TAF EBCI 101700Z 1018/1124 01006KT 8000 BKN010"
    },
    {
      "icao": "EDDB",
      "alert": "OK",
      "vis_m": 9999,
      "fzfg": false,
      "metar_trigger": false,
      "taf_trigger": false,
      "metar": "METAR EDDB 101850Z AUTO 36009KT 9999 SCT022 BKN047 M01/M04 Q1015 NOSIG",
      "taf": "TAF EDDB 101700Z 1018/1118 30010KT 9999 SCT020"
    },
    {
      "icao": "EDDH",
      "alert": "OK",
      "vis_m": 9999,
      "fzfg": false,
      "metar_trigger": false,
      "taf_trigger": false,
      "metar": "METAR EDDH 101850Z AUTO 34005KT CAVOK M04/M05 Q1020 NOSIG",
      "taf": "TAF EDDH 101700Z 1018/1124 VRB03KT CAVOK"
    },
    {
      "icao": "EDDK",
      "alert": "OK",
      "vis_m": 9999,
      "fzfg": false,
      "metar_trigger": false,
      "taf_trigger": false,
      "metar": "METAR EDDK 101850Z AUTO 04004KT 9999 OVC044 M02/M04 Q1017 NOSIG",
      "taf": "TAF EDDK 101700Z 1018/1124 VRB03KT 9999 SCT025"
    },
    {
      "icao": "EDDN",
      "alert": "OK",
      "vis_m": 4200,
      "fzfg": false,
      "metar_trigger": false,
      "taf_trigger": false,
      "metar": "METAR EDDN 101850Z AUTO 35006KT 4200 -SN BR FEW021 BKN030 BKN037 M04/M06 Q1012 BECMG 9999",
      "taf": "TAF EDDN 101700Z 1018/1118 35006KT 7000 SCT009 OVC020"
    },
    {
      "icao": "EDDS",
      "alert": "OK",
      "vis_m": 9999,
      "fzfg": false,
      "metar_trigger": false,
      "taf_trigger": false,
      "metar": "METAR EDDS 101850Z AUTO 31007KT 9999 BKN007 BKN010 OVC032 M00/M01 Q1011 NOSIG",
      "taf": "TAF EDDS 101700Z 1018/1118 32007KT 9999 SCT010 BKN015"
    },
    {
      "icao": "EDFH",
      "alert": "OK",
      "vis_m": 2000,
      "fzfg": false,
      "metar_trigger": false,
      "taf_trigger": false,
      "metar": "METAR EDFH 101850Z 02008KT 2000 -SN BR BKN001 M04/M05 Q1013",
      "taf": "TAF EDFH 101700Z 1018/1118 36006KT 8000 SCT004 BKN010"
    },
    {
      "icao": "EDJA",
      "alert": "OK",
      "vis_m": 9999,
      "fzfg": false,
      "metar_trigger": false,
      "taf_trigger": false,
      "metar": "METAR EDJA 101850Z 23010KT 9999 FEW040 BKN049 M01/M03 Q1010",
      "taf": "TAF EDJA 101700Z 1018/1103 25010KT 6000 SCT008 OVC015"
    },
    {
      "icao": "EDLW",
      "alert": "OK",
      "vis_m": 9999,
      "fzfg": false,
      "metar_trigger": false,
      "taf_trigger": false,
      "metar": "METAR EDLW 101850Z 04006KT CAVOK M05/M09 Q1018",
      "taf": "TAF EDLW 101700Z 1018/1118 05008KT CAVOK"
    },
    {
      "icao": "EDNY",
      "alert": "OK",
      "vis_m": 4000,
      "fzfg": false,
      "metar_trigger": false,
      "taf_trigger": false,
      "metar": "METAR EDNY 101850Z 25011KT 4000 -SN BKN008 OVC011 00/M00 Q1012",
      "taf": "TAF EDNY 101700Z 1018/1103 25009KT 6000 SCT010 BKN015"
    },
    {
      "icao": "EDSB",
      "alert": "OK",
      "vis_m": 9999,
      "fzfg": false,
      "metar_trigger": false,
      "taf_trigger": false,
      "metar": "METAR EDSB 101850Z 33003KT 270V360 9999 FEW007 OVC018 01/M00 Q1014",
      "taf": "TAF EDSB 101700Z 1018/1118 34004KT 9999 SCT005 BKN020"
    },
    {
      "icao": "EETN",
      "alert": "OK",
      "vis_m": 1000,
      "fzfg": false,
      "metar_trigger": false,
      "taf_trigger": false,
      "metar": "METAR EETN 101850Z 04015KT 1000 R08/P2000N +SN BLSN VV010 M05/M07 Q1006 NOSIG",
      "taf": "TAF EETN 101730Z 1018/1118 04015G25KT 2500 SN BLSN BKN012 OVC020"
    },
    {
      "icao": "EFTU",
      "alert": "OK",
      "vis_m": 9999,
      "fzfg": false,
      "metar_trigger": false,
      "taf_trigger": false,
      "metar": "METAR EFTU 101850Z AUTO 03010KT 350V080 CAVOK M08/M11 Q1012",
      "taf": "TAF EFTU 101734Z 1018/1118 02010KT CAVOK"
    },
    {
      "icao": "EGBB",
      "alert": "OK",
      "vis_m": 9999,
      "fzfg": false,
      "metar_trigger": false,
      "taf_trigger": false,
      "metar": "METAR EGBB 101850Z 16004KT CAVOK M02/M03 Q1020",
      "taf": "TAF EGBB 101657Z 1018/1118 21003KT 9999 FEW025"
    },
    {
      "icao": "EGGP",
      "alert": "OK",
      "vis_m": 9999,
      "fzfg": false,
      "metar_trigger": false,
      "taf_trigger": false,
      "metar": "METAR EGGP 101850Z 15006KT CAVOK 01/M00 Q1019",
      "taf": "TAF EGGP 101657Z 1018/1118 17004KT 9999 SCT040"
    },
    {
      "icao": "EGGW",
      "alert": "OK",
      "vis_m": 9999,
      "fzfg": false,
      "metar_trigger": false,
      "taf_trigger": false,
      "metar": "METAR EGGW 101850Z AUTO VRB02KT 9999 -RA BKN013 01/M01 Q1020",
      "taf": ""
    },
    {
      "icao": "EGKK",
      "alert": "OK",
      "vis_m": 9999,
      "fzfg": false,
      "metar_trigger": false,
      "taf_trigger": false,
      "metar": "METAR EGKK 101850Z VRB02KT 9999 FEW021 00/M02 Q1021",
      "taf": "TAF EGKK 101652Z 1018/1124 VRB03KT 9999 SCT020"
    },
    {
      "icao": "EGNM",
      "alert": "OK",
      "vis_m": 9999,
      "fzfg": false,
      "metar_trigger": false,
      "taf_trigger": false,
      "metar": "METAR EGNM 101850Z 16005KT CAVOK M01/M03 Q1019",
      "taf": "TAF EGNM 101656Z 1018/1118 17003KT 9999 FEW040"
    },
    {
      "icao": "EGPD",
      "alert": "OK",
      "vis_m": 9999,
      "fzfg": false,
      "metar_trigger": false,
      "taf_trigger": false,
      "metar": "METAR EGPD 101850Z COR AUTO 18011KT 9999 BKN031 03/00 Q1014 NOSIG",
      "taf": "TAF EGPD 101654Z 1018/1118 17010KT 9999 FEW015 SCT025"
    },
    {
      "icao": "EGPF",
      "alert": "OK",
      "vis_m": 9999,
      "fzfg": false,
      "metar_trigger": false,
      "taf_trigger": false,
      "metar": "METAR EGPF 101850Z AUTO 04006KT 9999 FEW045 02/01 Q1014",
      "taf": "TAF EGPF 101704Z 1018/1118 12003KT 9999 FEW015 SCT030"
    },
    {
      "icao": "EHBK",
      "alert": "OK",
      "vis_m": 9999,
      "fzfg": false,
      "metar_trigger": false,
      "taf_trigger": false,
      "metar": "METAR EHBK 101855Z AUTO 02005KT 340V050 9999 OVC017/// M03/M05 Q1017 NOSIG",
      "taf": "TAF EHBK 101706Z 1018/1124 VRB02KT 9999 BKN020"
    },
    {
      "icao": "EHEH",
      "alert": "OK",
      "vis_m": 9999,
      "fzfg": false,
      "metar_trigger": false,
      "taf_trigger": false,
      "metar": "METAR EHEH 101855Z AUTO 04007KT 010V070 9999 OVC024 M02/M06 Q1019 WHT BECMG SCT014 BKN018 RMK TREND REMOTE BY EHWX",
      "taf": "TAF EHEH 101723Z 1018/1124 03006KT 9999 OVC020"
    },
    {
      "icao": "EKBI",
      "alert": "OK",
      "vis_m": 9999,
      "fzfg": false,
      "metar_trigger": false,
      "taf_trigger": false,
      "metar": "METAR EKBI 101850Z AUTO VRB01KT 9999 NCD M08/M10 Q1022",
      "taf": "TAF EKBI 101727Z 1018/1118 02006KT CAVOK"
    },
    {
      "icao": "EKCH",
      "alert": "OK",
      "vis_m": 9999,
      "fzfg": false,
      "metar_trigger": false,
      "taf_trigger": false,
      "metar": "METAR EKCH 101850Z AUTO 36017KT 9999 NCD M02/M10 Q1020 TEMPO 35017G27KT",
      "taf": "TAF EKCH 101727Z 1018/1118 36015KT CAVOK"
    },
    {
      "icao": "ENAL",
      "alert": "OK",
      "vis_m": 9999,
      "fzfg": false,
      "metar_trigger": false,
      "taf_trigger": false,
      "metar": "METAR ENAL 101850Z 15007KT CAVOK M04/M09 Q1021",
      "taf": "TAF ENAL 101700Z 1018/1103 16008KT CAVOK"
    },
    {
      "icao": "ENBR",
      "alert": "OK",
      "vis_m": 9999,
      "fzfg": false,
      "metar_trigger": false,
      "taf_trigger": false,
      "metar": "METAR ENBR 101850Z 12008KT 9999 SCT050 M03/M11 Q1022 NOSIG RMK WIND 1200FT 13016KT",
      "taf": "TAF ENBR 101700Z 1018/1118 11005KT CAVOK"
    },
    {
      "icao": "ENGM",
      "alert": "OK",
      "vis_m": 9999,
      "fzfg": false,
      "metar_trigger": false,
      "taf_trigger": false,
      "metar": "METAR ENGM 101850Z 34004KT 9999 FEW010 M16/M18 Q1023 NOSIG",
      "taf": "TAF ENGM 101700Z 1018/1118 34005KT CAVOK"
    },
    {
      "icao": "ENHD",
      "alert": "OK",
      "vis_m": 9999,
      "fzfg": false,
      "metar_trigger": false,
      "taf_trigger": false,
      "metar": "METAR ENHD 101850Z 11014KT 9999 BKN043 M02/M09 Q1023",
      "taf": "TAF ENHD 101400Z 1015/1023 12012KT 9999 SCT040"
    },
    {
      "icao": "ENTC",
      "alert": "OK",
      "vis_m": 9999,
      "fzfg": false,
      "metar_trigger": false,
      "taf_trigger": false,
      "metar": "METAR ENTC 101850Z 18003KT 120V200 CAVOK M12/M14 Q1018 NOSIG RMK WIND 2600FT 17013KT",
      "taf": "TAF ENTC 101700Z 1018/1118 20005KT CAVOK"
    },
    {
      "icao": "ENTO",
      "alert": "OK",
      "vis_m": 9999,
      "fzfg": false,
      "metar_trigger": false,
      "taf_trigger": false,
      "metar": "METAR ENTO 101850Z 33003KT CAVOK M10/M13 Q1023 NOSIG",
      "taf": "TAF ENTO 101700Z 1018/1118 36003KT CAVOK"
    },
    {
      "icao": "ENVA",
      "alert": "OK",
      "vis_m": 9999,
      "fzfg": false,
      "metar_trigger": false,
      "taf_trigger": false,
      "metar": "METAR ENVA 101850Z 12007KT CAVOK M11/M14 Q1023 RMK WIND 670FT 15007KT",
      "taf": "TAF ENVA 101700Z 1018/1118 10006KT CAVOK"
    },
    {
      "icao": "ENZV",
      "alert": "OK",
      "vis_m": 9999,
      "fzfg": false,
      "metar_trigger": false,
      "taf_trigger": false,
      "metar": "METAR ENZV 101850Z 11006KT 9999 SCT043 M03/M10 Q1024 NOSIG",
      "taf": "TAF ENZV 101700Z 1018/1118 10012KT 9999 BKN040"
    },
    {
      "icao": "EPGD",
      "alert": "OK",
      "vis_m": 7000,
      "fzfg": false,
      "metar_trigger": false,
      "taf_trigger": false,
      "metar": "METAR EPGD 101900Z 35014KT 7000 -SHSN DRSN FEW005 SCT023TCU BKN033 M02/M05 Q1005 RESHSN",
      "taf": "TAF EPGD 101730Z 1018/1118 34012KT 9999 -SHSN SCT020TCU"
    },
    {
      "icao": "EPKK",
      "alert": "OK",
      "vis_m": 9999,
      "fzfg": false,
      "metar_trigger": false,
      "taf_trigger": false,
      "metar": "METAR EPKK 101900Z 23010KT 9999 -SN SCT032 OVC054 M10/M13 Q1008",
      "taf": "TAF EPKK 101730Z 1018/1118 23005KT 9999 SCT025"
    },
    {
      "icao": "EPKT",
      "alert": "OK",
      "vis_m": 9999,
      "fzfg": false,
      "metar_trigger": false,
      "taf_trigger": false,
      "metar": "METAR EPKT 101900Z 26011KT 9999 -SN SCT009 OVC011 M08/M11 Q1007",
      "taf": "TAF EPKT 101730Z 1018/1118 28010KT 9999 SCT020"
    },
    {
      "icao": "EPLB",
      "alert": "OK",
      "vis_m": 8000,
      "fzfg": false,
      "metar_trigger": false,
      "taf_trigger": false,
      "metar": "METAR EPLB 101900Z 25010KT 8000 -SN SCT011 M09/M11 Q1003",
      "taf": "TAF EPLB 101730Z 1018/1118 26008KT 8000 -SN BKN020"
    },
    {
      "icao": "EPMO",
      "alert": "OK",
      "vis_m": 3200,
      "fzfg": false,
      "metar_trigger": false,
      "taf_trigger": false,
      "metar": "METAR EPMO 101900Z 29009KT 3200 -SN BR SCT006 BKN012 M05/M06 Q1004",
      "taf": "TAF EPMO 101730Z 1018/1118 30010KT 6000 -SN BKN020"
    },
    {
      "icao": "EPPO",
      "alert": "OK",
      "vis_m": 9999,
      "fzfg": false,
      "metar_trigger": false,
      "taf_trigger": false,
      "metar": "METAR EPPO 101900Z 31006KT 9999 FEW042 M04/M06 Q1010",
      "taf": "TAF EPPO 101730Z 1018/1118 32008KT 9999 SCT030"
    },
    {
      "icao": "EPRA",
      "alert": "OK",
      "vis_m": 9000,
      "fzfg": false,
      "metar_trigger": false,
      "taf_trigger": false,
      "metar": "METAR EPRA 101900Z 28012KT 9000 -SN BKN011 M07/M10 Q1004",
      "taf": "TAF EPRA 101730Z 1018/1103 29010KT 9999 BKN020"
    },
    {
      "icao": "EPRZ",
      "alert": "OK",
      "vis_m": 8000,
      "fzfg": false,
      "metar_trigger": false,
      "taf_trigger": false,
      "metar": "METAR EPRZ 101900Z 26013KT 8000 -SN SCT008 BKN013 OVC033 M09/M12 Q1006",
      "taf": "TAF EPRZ 101730Z 1018/1118 27008KT 9999 BKN020"
    },
    {
      "icao": "EPSC",
      "alert": "OK",
      "vis_m": 9999,
      "fzfg": false,
      "metar_trigger": false,
      "taf_trigger": false,
      "metar": "METAR EPSC 101900Z 32013KT 9999 FEW024 BKN035 M01/M05 Q1013",
      "taf": "TAF EPSC 101730Z 1018/1118 33010KT 9999 BKN025"
    },
    {
      "icao": "EPSY",
      "alert": "OK",
      "vis_m": 3900,
      "fzfg": false,
      "metar_trigger": false,
      "taf_trigger": false,
      "metar": "METAR EPSY 101900Z 32007KT 3900 -SN BR BKN012 M06/M08 Q1003",
      "taf": "TAF EPSY 101730Z 1018/1103 32007KT 9999 BKN025"
    },
    {
      "icao": "EPWA",
      "alert": "OK",
      "vis_m": 3500,
      "fzfg": false,
      "metar_trigger": false,
      "taf_trigger": false,
      "metar": "METAR EPWA 101900Z 28010KT 3500 SN BKN008 BKN030 M06/M07 Q1003 TEMPO 1500 SN",
      "taf": "TAF EPWA 101730Z 1018/1118 29008KT 7000 -SN BKN020"
    },
    {
      "icao": "EPWR",
      "alert": "OK",
      "vis_m": 9999,
      "fzfg": false,
      "metar_trigger": false,
      "taf_trigger": false,
      "metar": "METAR EPWR 101900Z 28015KT CAVOK M06/M10 Q1011",
      "taf": "TAF EPWR 101730Z 1018/1118 29010KT 9999 SCT019 BKN040"
    },
    {
      "icao": "ESGG",
      "alert": "OK",
      "vis_m": 9999,
      "fzfg": false,
      "metar_trigger": false,
      "taf_trigger": false,
      "metar": "METAR ESGG 101850Z 36007KT CAVOK M09/M11 Q1021",
      "taf": "TAF ESGG 101730Z 1018/1118 01007KT CAVOK"
    },
    {
      "icao": "ESKN",
      "alert": "OK",
      "vis_m": 9999,
      "fzfg": false,
      "metar_trigger": false,
      "taf_trigger": false,
      "metar": "METAR ESKN 101850Z 33015KT CAVOK M07/M08 Q1017",
      "taf": "TAF ESKN 101730Z 1018/1118 35013G23KT 9999 FEW014"
    },
    {
      "icao": "ESMS",
      "alert": "OK",
      "vis_m": 9999,
      "fzfg": false,
      "metar_trigger": false,
      "taf_trigger": false,
      "metar": "METAR ESMS 101850Z 34011KT CAVOK M08/M12 Q1018",
      "taf": "TAF ESMS 101727Z 1018/1118 34010KT CAVOK"
    },
    {
      "icao": "ESSA",
      "alert": "OK",
      "vis_m": 9999,
      "fzfg": false,
      "metar_trigger": false,
      "taf_trigger": false,
      "metar": "METAR ESSA 101850Z 32013KT 9999 SCT034 M07/M08 Q1016 NOSIG",
      "taf": "TAF ESSA 101730Z 1018/1118 35012G22KT CAVOK"
    },
    {
      "icao": "EYKA",
      "alert": "OK",
      "vis_m": 2500,
      "fzfg": false,
      "metar_trigger": false,
      "taf_trigger": false,
      "metar": "METAR EYKA 101850Z 32003KT 2500 SN SCT040 BKN047 M12/M13 Q1001",
      "taf": "TAF EYKA 101706Z 1018/1118 VRB04KT 8000 SCT010 BKN020"
    },
    {
      "icao": "EYPA",
      "alert": "OK",
      "vis_m": 9999,
      "fzfg": false,
      "metar_trigger": false,
      "taf_trigger": false,
      "metar": "METAR EYPA 101850Z 01011KT 340V040 CAVOK M05/M09 Q1004",
      "taf": "TAF EYPA 101707Z 1018/1118 01010KT 9000 SCT030"
    },
    {
      "icao": "EYVI",
      "alert": "OK",
      "vis_m": 4300,
      "fzfg": false,
      "metar_trigger": false,
      "taf_trigger": false,
      "metar": "METAR EYVI 101850Z 31005KT 290V350 4300 SN BKN013 BKN036 M12/M14 Q0999 NOSIG",
      "taf": "TAF EYVI 101711Z 1018/1118 VRB04KT 8000 SCT010 BKN020"
    },
    {
      "icao": "GCFV",
      "alert": "OK",
      "vis_m": 9999,
      "fzfg": false,
      "metar_trigger": false,
      "taf_trigger": false,
      "metar": "METAR GCFV 101900Z 03017KT 9999 FEW025 SCT030 18/11 Q1025",
      "taf": "TAF GCFV 101400Z 1015/1115 04015KT 9999 SCT025 TX20/1114Z TN14/1106Z"
    },
    {
      "icao": "GCLP",
      "alert": "OK",
      "vis_m": 9999,
      "fzfg": false,
      "metar_trigger": false,
      "taf_trigger": false,
      "metar": "METAR GCLP 101900Z 01013KT 9999 FEW038 BKN045 18/10 Q1026 NOSIG",
      "taf": "TAF GCLP 101400Z 1015/1115 03016KT 9999 SCT025 BKN045 TX21/1114Z TN15/1106Z"
    },
    {
      "icao": "GCTS",
      "alert": "OK",
      "vis_m": 9999,
      "fzfg": false,
      "metar_trigger": false,
      "taf_trigger": false,
      "metar": "METAR GCTS 101900Z 06013KT 9999 SCT045 18/10 Q1026 NOSIG",
      "taf": "TAF GCTS 101400Z 1015/1115 09018KT 9999 SCT045 TX23/1114Z TN16/1106Z"
    },
    {
      "icao": "GMAD",
      "alert": "OK",
      "vis_m": 9999,
      "fzfg": false,
      "metar_trigger": false,
      "taf_trigger": false,
      "metar": "METAR GMAD 101900Z 21004KT 150V230 CAVOK 13/09 Q1024 NOSIG",
      "taf": "TAF GMAD 101700Z 1018/1124 25008KT CAVOK"
    },
    {
      "icao": "GMMN",
      "alert": "OK",
      "vis_m": 9999,
      "fzfg": false,
      "metar_trigger": false,
      "taf_trigger": false,
      "metar": "METAR GMMN 101900Z 04004KT 9999 SCT013 11/09 Q1028 NOSIG",
      "taf": "TAF GMMN 101700Z 1018/1124 02006KT 9999 SCT030"
    },
    {
      "icao": "GMMX",
      "alert": "OK",
      "vis_m": 9999,
      "fzfg": false,
      "metar_trigger": false,
      "taf_trigger": false,
      "metar": "METAR GMMX 101900Z 04005KT CAVOK 14/09 Q1026 NOSIG",
      "taf": "TAF GMMX 101700Z 1018/1124 08006KT 8000 NSC"
    },
    {
      "icao": "HEGN",
      "alert": "OK",
      "vis_m": 9999,
      "fzfg": false,
      "metar_trigger": false,
      "taf_trigger": false,
      "metar": "METAR HEGN 101800Z 29007KT CAVOK 16/08 Q1020 NOSIG",
      "taf": "TAF HEGN 101700Z 1018/1124 33013KT CAVOK"
    },
    {
      "icao": "HEMA",
      "alert": "OK",
      "vis_m": 9999,
      "fzfg": false,
      "metar_trigger": false,
      "taf_trigger": false,
      "metar": "METAR HEMA 101900Z 30009KT CAVOK 16/09 Q1019 NOSIG",
      "taf": "TAF HEMA 101700Z 1018/1124 32015KT CAVOK"
    },
    {
      "icao": "HESH",
      "alert": "OK",
      "vis_m": 9999,
      "fzfg": false,
      "metar_trigger": false,
      "taf_trigger": false,
      "metar": "METAR HESH 101900Z 35008KT CAVOK 18/09 Q1019 NOSIG",
      "taf": "TAF HESH 101700Z 1018/1124 36012KT CAVOK"
    },
    {
      "icao": "HESX",
      "alert": "OK",
      "vis_m": 9999,
      "fzfg": false,
      "metar_trigger": false,
      "taf_trigger": false,
      "metar": "METAR HESX 101900Z 18003KT CAVOK 15/07 Q1020 NOSIG",
      "taf": "TAF HESX 101700Z 1018/1124 22008KT 9999 SCT025"
    },
    {
      "icao": "LATI",
      "alert": "OK",
      "vis_m": null,
      "fzfg": false,
      "metar_trigger": false,
      "taf_trigger": false,
      "metar": "",
      "taf": "TAF LATI 101700Z 1018/1118 14014KT 9999 SCT030 BKN060 TX12/1112Z TN03/1105Z"
    },
    {
      "icao": "LBPD",
      "alert": "OK",
      "vis_m": 9999,
      "fzfg": false,
      "metar_trigger": false,
      "taf_trigger": false,
      "metar": "METAR LBPD 101900Z AUTO 31004KT 9999 BKN018/// OVC071/// 04/04 Q0997 NOSIG",
      "taf": "TAF LBPD 101700Z 1018/1118 28010KT 9999 SCT020 BKN050"
    },
    {
      "icao": "LBSF",
      "alert": "OK",
      "vis_m": 7000,
      "fzfg": false,
      "metar_trigger": false,
      "taf_trigger": false,
      "metar": "METAR LBSF 101900Z AUTO VRB02KT 7000 OVC048/// 02/01 Q0996 TEMPO 5000 BR SCT010",
      "taf": "TAF LBSF 101700Z 1018/1118 28015G28KT 5000 RA BKN015 OVC040"
    },
    {
      "icao": "LBWN",
      "alert": "OK",
      "vis_m": 9000,
      "fzfg": false,
      "metar_trigger": false,
      "taf_trigger": false,
      "metar": "METAR LBWN 101900Z AUTO 06008KT 9000 RA BKN015/// OVC028/// 05/05 Q0996 TEMPO 5000 RA OVC020",
      "taf": "TAF LBWN 101700Z 1018/1118 06008KT 9999 SCT020 BKN040"
    },
    {
      "icao": "LCLK",
      "alert": "OK",
      "vis_m": 9999,
      "fzfg": false,
      "metar_trigger": false,
      "taf_trigger": false,
      "metar": "METAR LCLK 101900Z 21004KT 9999 FEW060 15/12 Q1016 NOSIG",
      "taf": "TAF LCLK 101730Z 1018/1118 23007KT 9999 FEW030"
    },
    {
      "icao": "LCPH",
      "alert": "OK",
      "vis_m": 8000,
      "fzfg": false,
      "metar_trigger": false,
      "taf_trigger": false,
      "metar": "METAR LCPH 101900Z 25009KT 8000 -SHRA FEW015 FEW020CB FEW030TCU BKN040 17/14 Q1016 RETSRA NOSIG",
      "taf": "TAF LCPH 101730Z 1018/1118 24016KT 9999 SCT030 SCT050"
    },
    {
      "icao": "LEAL",
      "alert": "OK",
      "vis_m": 9999,
      "fzfg": false,
      "metar_trigger": false,
      "taf_trigger": false,
      "metar": "METAR LEAL 101900Z 26013KT CAVOK 14/01 Q1024 NOSIG",
      "taf": "TAF LEAL 101700Z 1018/1118 28008KT CAVOK TX16/1114Z TN07/1106Z"
    },
    {
      "icao": "LEBB",
      "alert": "OK",
      "vis_m": 9999,
      "fzfg": false,
      "metar_trigger": false,
      "taf_trigger": false,
      "metar": "SPECI LEBB 101910Z VRB02KT 9999 -SHRA FEW015 FEW025TCU SCT035 BKN045 08/08 Q1027 RESHRA TEMPO SHRA",
      "taf": "TAF LEBB 101700Z 1018/1118 24008KT 9999 FEW020 BKN040 TX14/1114Z TN04/1105Z"
    },
    {
      "icao": "LEBL",
      "alert": "OK",
      "vis_m": 9999,
      "fzfg": false,
      "metar_trigger": false,
      "taf_trigger": false,
      "metar": "METAR LEBL 101900Z 30009KT 270V340 9999 FEW036 11/02 Q1019 NOSIG",
      "taf": "TAF LEBL 101700Z 1018/1118 30010KT 9999 FEW020 TX13/1113Z TN05/1106Z"
    },
    {
      "icao": "LECH",
      "alert": "OK",
      "vis_m": 9000,
      "fzfg": false,
      "metar_trigger": false,
      "taf_trigger": false,
      "metar": "METAR LECH 101900Z AUTO 30007G17KT 260V350 9000 NCD 10/M02 Q1023",
      "taf": ""
    },
    {
      "icao": "LEMD",
      "alert": "OK",
      "vis_m": 9999,
      "fzfg": false,
      "metar_trigger": false,
      "taf_trigger": false,
      "metar": "METAR LEMD 101900Z 23003KT 200V280 CAVOK 06/M01 Q1026 NOSIG",
      "taf": "TAF LEMD 101700Z 1018/1124 VRB03KT CAVOK TX10/1114Z TNM03/1106Z"
    },
    {
      "icao": "LEMG",
      "alert": "OK",
      "vis_m": 9999,
      "fzfg": false,
      "metar_trigger": false,
      "taf_trigger": false,
      "metar": "METAR LEMG 101900Z 29018G32KT 260V320 CAVOK 12/03 Q1026 NOSIG",
      "taf": "TAF LEMG 101700Z 1018/1118 29014KT CAVOK TX17/1114Z TN06/1107Z"
    },
    {
      "icao": "LEVC",
      "alert": "OK",
      "vis_m": 9999,
      "fzfg": false,
      "metar_trigger": false,
      "taf_trigger": false,
      "metar": "METAR LEVC 101900Z 29008KT CAVOK 10/01 Q1024 NOSIG",
      "taf": "TAF LEVC 101700Z 1018/1118 29008KT CAVOK TX16/1114Z TN04/1106Z"
    },
    {
      "icao": "LEXJ",
      "alert": "OK",
      "vis_m": 9999,
      "fzfg": false,
      "metar_trigger": false,
      "taf_trigger": false,
      "metar": "METAR LEXJ 101900Z 25007KT 210V300 9999 FEW034 BKN050 10/05 Q1027",
      "taf": "TAF LEXJ 101400Z 1015/1115 27012KT 9999 BKN035 TX15/1113Z TN08/1101Z"
    },
    {
      "icao": "LEZG",
      "alert": "OK",
      "vis_m": 9999,
      "fzfg": false,
      "metar_trigger": false,
      "taf_trigger": false,
      "metar": "METAR LEZG 101900Z 28010KT 9999 OVC050 09/03 Q1025 NOSIG",
      "taf": "TAF LEZG 101700Z 1018/1118 28009KT 9999 SCT040 TX12/1115Z TN03/1106Z"
    },
    {
      "icao": "LEZL",
      "alert": "OK",
      "vis_m": 9999,
      "fzfg": false,
      "metar_trigger": false,
      "taf_trigger": false,
      "metar": "METAR LEZL 101900Z 15003KT CAVOK 10/08 Q1028 NOSIG",
      "taf": "TAF LEZL 101400Z 1015/1115 22004KT CAVOK TX15/1115Z TN04/1107Z"
    },
    {
      "icao": "LFBD",
      "alert": "OK",
      "vis_m": 9999,
      "fzfg": false,
      "metar_trigger": false,
      "taf_trigger": false,
      "metar": "METAR LFBD 101900Z AUTO 27005KT 9999 FEW039 SCT054 BKN076 06/05 Q1024",
      "taf": "TAF LFBD 101700Z 1018/1124 30005KT 9999 SCT030 TX07/1115Z TN00/1106Z"
    },
    {
      "icao": "LFLL",
      "alert": "OK",
      "vis_m": 6000,
      "fzfg": false,
      "metar_trigger": false,
      "taf_trigger": false,
      "metar": "METAR LFLL 101900Z VRB02KT 6000 -SNRA SCT026 BKN036 02/01 Q1019 NOSIG",
      "taf": "TAF LFLL 101700Z 1018/1124 31008KT 9999 BKN035"
    },
    {
      "icao": "LFLS",
      "alert": "OK",
      "vis_m": 9999,
      "fzfg": false,
      "metar_trigger": false,
      "taf_trigger": false,
      "metar": "METAR LFLS 101900Z AUTO 24006KT 9999 -SN BKN013 BKN019 BKN027 01/00 Q1018 TEMPO 1100 SN BKN002",
      "taf": ""
    },
    {
      "icao": "LFMN",
      "alert": "OK",
      "vis_m": 9999,
      "fzfg": false,
      "metar_trigger": false,
      "taf_trigger": false,
      "metar": "METAR LFMN 101900Z 35014KT CAVOK 11/M12 Q1007 NOSIG",
      "taf": "TAF LFMN 101400Z 1015/1121 33013KT CAVOK"
    },
    {
      "icao": "LFOB",
      "alert": "OK",
      "vis_m": 9999,
      "fzfg": false,
      "metar_trigger": false,
      "taf_trigger": false,
      "metar": "METAR LFOB 101900Z AUTO 31008KT 9999 OVC042 02/M00 Q1020 NOSIG",
      "taf": ""
    },
    {
      "icao": "LFPO",
      "alert": "OK",
      "vis_m": 9999,
      "fzfg": false,
      "metar_trigger": false,
      "taf_trigger": false,
      "metar": "METAR LFPO 101900Z AUTO 32009KT 9999 SCT048 03/M02 Q1020 NOSIG",
      "taf": "TAF LFPO 101700Z 1018/1124 30010G20KT 9999 BKN025"
    },
    {
      "icao": "LFSB",
      "alert": "OK",
      "vis_m": 9999,
      "fzfg": false,
      "metar_trigger": false,
      "taf_trigger": false,
      "metar": "METAR LFSB 101900Z AUTO 27014KT 9999 -SN SCT041 OVC052 01/M01 Q1014 TEMPO 4000 -SN BKN013",
      "taf": "TAF LFSB 101700Z 1018/1118 25012KT 9999 BKN025"
    },
    {
      "icao": "LGAV",
      "alert": "OK",
      "vis_m": 9999,
      "fzfg": false,
      "metar_trigger": false,
      "taf_trigger": false,
      "metar": "METAR LGAV 101850Z 24013KT 9999 SCT025 15/06 Q1002 NOSIG",
      "taf": "TAF LGAV 101700Z 1018/1118 25015KT 9999 SCT025 BKN070"
    },
    {
      "icao": "LGTS",
      "alert": "OK",
      "vis_m": 9999,
      "fzfg": false,
      "metar_trigger": false,
      "taf_trigger": false,
      "metar": "METAR LGTS 101850Z 11007KT 9999 FEW015 06/06 Q0998 NOSIG",
      "taf": "TAF LGTS 101700Z 1018/1118 22010KT 9999 SCT030"
    },
    {
      "icao": "LHBP",
      "alert": "OK",
      "vis_m": 4000,
      "fzfg": false,
      "metar_trigger": false,
      "taf_trigger": false,
      "metar": "METAR LHBP 101900Z VRB01KT 4000 BR FEW012 OVC015 M04/M05 Q1005 NOSIG",
      "taf": "TAF LHBP 101715Z 1018/1118 VRB02KT 5000 BR BKN015"
    },
    {
      "icao": "LHDC",
      "alert": "OK",
      "vis_m": 9999,
      "fzfg": false,
      "metar_trigger": false,
      "taf_trigger": false,
      "metar": "METAR LHDC 101845Z AUTO 03017KT 9999 OVC025 M06/M11 Q1005 NOSIG",
      "taf": "TAF LHDC 101415Z 1015/1024 VRB03KT 7000 BKN025 BKN060"
    },
    {
      "icao": "LIBD",
      "alert": "OK",
      "vis_m": 9999,
      "fzfg": false,
      "metar_trigger": false,
      "taf_trigger": false,
      "metar": "METAR LIBD 101850Z 27013KT 9999 -RA BKN035 07/04 Q1000",
      "taf": "TAF LIBD 101700Z 1018/1118 28015G25KT 9999 FEW040"
    },
    {
      "icao": "LIBG",
      "alert": "OK",
      "vis_m": 9999,
      "fzfg": false,
      "metar_trigger": false,
      "taf_trigger": false,
      "metar": "METAR LIBG 101850Z 27008KT 240V310 CAVOK 07/06 Q1000",
      "taf": "TAF LIBG 101700Z 1018/1103 29012KT 9999 SCT040"
    },
    {
      "icao": "LIBP",
      "alert": "OK",
      "vis_m": 9999,
      "fzfg": false,
      "metar_trigger": false,
      "taf_trigger": false,
      "metar": "METAR LIBP 101850Z AUTO 31004KT 270V350 9999 SCT041/// 08/M00 Q1005",
      "taf": "TAF LIBP 101700Z 1018/1118 30010KT 9999 SCT040"
    },
    {
      "icao": "LIBR",
      "alert": "OK",
      "vis_m": 9999,
      "fzfg": false,
      "metar_trigger": false,
      "taf_trigger": false,
      "metar": "METAR LIBR 101850Z 26010KT 9999 FEW030 07/03 Q0999",
      "taf": "TAF LIBR 101700Z 1018/1118 28015KT 9999 SCT040"
    },
    {
      "icao": "LICA",
      "alert": "OK",
      "vis_m": 9999,
      "fzfg": false,
      "metar_trigger": false,
      "taf_trigger": false,
      "metar": "METAR LICA 101850Z AUTO 27009KT 9999 -RA BKN040/// 08/05 Q1004",
      "taf": "TAF LICA 101700Z 1018/1118 25025G37KT 9999 SCT020"
    },
    {
      "icao": "LICC",
      "alert": "OK",
      "vis_m": 9999,
      "fzfg": false,
      "metar_trigger": false,
      "taf_trigger": false,
      "metar": "METAR LICC 101850Z 27016KT 9999 FEW050 08/03 Q1007",
      "taf": "TAF LICC 101700Z 1018/1118 26018G30KT 9999 FEW050"
    },
    {
      "icao": "LICJ",
      "alert": "OK",
      "vis_m": 8000,
      "fzfg": false,
      "metar_trigger": false,
      "taf_trigger": false,
      "metar": "METAR LICJ 101850Z 30032G42KT 8000 RA SCT035 BKN050 12/06 Q1009",
      "taf": "TAF LICJ 101700Z 1018/1118 29030G40KT 9999 SCT030"
    },
    {
      "icao": "LIMC",
      "alert": "OK",
      "vis_m": 9999,
      "fzfg": false,
      "metar_trigger": false,
      "taf_trigger": false,
      "metar": "METAR LIMC 101850Z 36007KT CAVOK 01/M03 Q1006 NOSIG",
      "taf": "TAF LIMC 101700Z 1018/1124 01012KT CAVOK"
    },
    {
      "icao": "LIME",
      "alert": "OK",
      "vis_m": 9999,
      "fzfg": false,
      "metar_trigger": false,
      "taf_trigger": false,
      "metar": "METAR LIME 101850Z 33005KT CAVOK 04/M07 Q1005 NOSIG",
      "taf": "TAF LIME 101700Z 1018/1118 VRB04KT 9999 SCT050"
    },
    {
      "icao": "LIMF",
      "alert": "OK",
      "vis_m": 9999,
      "fzfg": false,
      "metar_trigger": false,
      "taf_trigger": false,
      "metar": "METAR LIMF 101850Z 31011KT CAVOK 08/M13 Q1006",
      "taf": "TAF LIMF 101700Z 1018/1118 30012KT 8000 NSC"
    },
    {
      "icao": "LIMJ",
      "alert": "OK",
      "vis_m": 9999,
      "fzfg": false,
      "metar_trigger": false,
      "taf_trigger": false,
      "metar": "METAR LIMJ 101850Z 36005KT 330V050 CAVOK 11/M11 Q1006",
      "taf": "TAF LIMJ 101700Z 1018/1118 35013KT CAVOK"
    },
    {
      "icao": "LIPE",
      "alert": "OK",
      "vis_m": 9999,
      "fzfg": false,
      "metar_trigger": false,
      "taf_trigger": false,
      "metar": "METAR LIPE 101850Z 22003KT 160V260 CAVOK 02/M02 Q1005",
      "taf": "TAF LIPE 101700Z 1018/1118 28007KT 7000 NSC"
    },
    {
      "icao": "LIPH",
      "alert": "OK",
      "vis_m": 9999,
      "fzfg": false,
      "metar_trigger": false,
      "taf_trigger": false,
      "metar": "METAR LIPH 101850Z VRB01KT CAVOK 03/01 Q1005",
      "taf": "TAF LIPH 101700Z 1018/1118 VRB05KT CAVOK"
    },
    {
      "icao": "LIPQ",
      "alert": "OK",
      "vis_m": 9999,
      "fzfg": false,
      "metar_trigger": false,
      "taf_trigger": false,
      "metar": "METAR LIPQ 101850Z AUTO VRB01KT 9999 OVC110/// 02/00 Q1005",
      "taf": "TAF LIPQ 101700Z 1018/1118 VRB05KT CAVOK"
    },
    {
      "icao": "LIPR",
      "alert": "OK",
      "vis_m": 9999,
      "fzfg": false,
      "metar_trigger": false,
      "taf_trigger": false,
      "metar": "METAR LIPR 101850Z VRB02KT CAVOK 01/M01 Q1005",
      "taf": "TAF LIPR 101700Z 1018/1118 28010KT 7000 FEW040"
    },
    {
      "icao": "LIPX",
      "alert": "OK",
      "vis_m": 9000,
      "fzfg": false,
      "metar_trigger": false,
      "taf_trigger": false,
      "metar": "METAR LIPX 101850Z VRB04KT 9000 NSC 02/M01 Q1004",
      "taf": "TAF LIPX 101700Z 1018/1118 VRB05KT 8000 NSC"
    },
    {
      "icao": "LIPY",
      "alert": "OK",
      "vis_m": 9999,
      "fzfg": false,
      "metar_trigger": false,
      "taf_trigger": false,
      "metar": "METAR LIPY 101850Z AUTO 20003KT 120V290 9999 NCD 05/M01 Q1006",
      "taf": "TAF LIPY 101700Z 1018/1118 28007KT 9999 FEW040"
    },
    {
      "icao": "LIPZ",
      "alert": "OK",
      "vis_m": 9999,
      "fzfg": false,
      "metar_trigger": false,
      "taf_trigger": false,
      "metar": "METAR LIPZ 101850Z 24004KT 9999 SCT060 04/02 Q1005 NOSIG",
      "taf": "TAF LIPZ 101700Z 1018/1124 VRB05KT CAVOK"
    },
    {
      "icao": "LIRF",
      "alert": "OK",
      "vis_m": 9999,
      "fzfg": false,
      "metar_trigger": false,
      "taf_trigger": false,
      "metar": "METAR LIRF 101850Z VRB02KT CAVOK 06/04 Q1005 NOSIG",
      "taf": "TAF LIRF 101700Z 1018/1124 02007KT 9999 SCT030"
    },
    {
      "icao": "LIRN",
      "alert": "OK",
      "vis_m": 9999,
      "fzfg": false,
      "metar_trigger": false,
      "taf_trigger": false,
      "metar": "METAR LIRN 101850Z 01004KT 320V060 CAVOK 08/04 Q1003 NOSIG",
      "taf": "TAF LIRN 101700Z 1018/1118 VRB05KT 9999 SCT030"
    },
    {
      "icao": "LIRP",
      "alert": "OK",
      "vis_m": 9999,
      "fzfg": false,
      "metar_trigger": false,
      "taf_trigger": false,
      "metar": "METAR LIRP 101845Z 35004KT CAVOK 06/M01 Q1005 NOSIG",
      "taf": "TAF LIRP 101700Z 1018/1118 27007KT CAVOK"
    },
    {
      "icao": "LIRZ",
      "alert": "OK",
      "vis_m": 9999,
      "fzfg": false,
      "metar_trigger": false,
      "taf_trigger": false,
      "metar": "METAR LIRZ 101850Z AUTO 02005KT 9999 NCD 02/00 Q1006",
      "taf": "TAF LIRZ 101700Z 1018/1118 VRB05KT 9999 FEW030"
    },
    {
      "icao": "LJLJ",
      "alert": "OK",
      "vis_m": 500,
      "fzfg": true,
      "metar_trigger": false,
      "taf_trigger": false,
      "metar": "METAR LJLJ 101900Z VRB01KT 0500 R30/0600N FZFG VV002 M01/M01 Q1005 NOSIG",
      "taf": "TAF LJLJ 101700Z 1018/1118 VRB02KT 0200 FZFG VV001"
    },
    {
      "icao": "LKMT",
      "alert": "OK",
      "vis_m": 9999,
      "fzfg": false,
      "metar_trigger": false,
      "taf_trigger": false,
      "metar": "METAR LKMT 101900Z 13003KT 110V180 9999 -SN OVC039 M09/M11 Q1010 NOSIG",
      "taf": "TAF LKMT 101700Z 1018/1118 36012KT 8000 BKN030"
    },
    {
      "icao": "LKPR",
      "alert": "OK",
      "vis_m": 9999,
      "fzfg": false,
      "metar_trigger": false,
      "taf_trigger": false,
      "metar": "METAR LKPR 101900Z 30005KT CAVOK M11/M13 Q1013 NOSIG",
      "taf": "TAF LKPR 101700Z 1018/1124 33008KT CAVOK"
    },
    {
      "icao": "LLBG",
      "alert": "OK",
      "vis_m": 9999,
      "fzfg": false,
      "metar_trigger": false,
      "taf_trigger": false,
      "metar": "METAR LLBG 101850Z 12004KT CAVOK 15/10 Q1020 NOSIG RMK SCT090",
      "taf": "TAF LLBG 101706Z 1018/1118 15005KT CAVOK"
    },
    {
      "icao": "LMML",
      "alert": "OK",
      "vis_m": 9999,
      "fzfg": false,
      "metar_trigger": false,
      "taf_trigger": false,
      "metar": "METAR LMML 101915Z 28022KT 9999 FEW028 11/06 Q1012 NOSIG",
      "taf": "TAF LMML 101700Z 1018/1118 29028G38KT 9999 FEW020TCU"
    },
    {
      "icao": "LOWW",
      "alert": "OK",
      "vis_m": 9999,
      "fzfg": false,
      "metar_trigger": false,
      "taf_trigger": false,
      "metar": "METAR LOWW 101850Z 01014KT 330V030 9999 -SN FEW040 M06/M12 Q1010 NOSIG",
      "taf": "TAF LOWW 101715Z 1018/1124 35012KT 9999 BKN030 TXM03/1111Z TNM07/1100Z"
    },
    {
      "icao": "LPFR",
      "alert": "OK",
      "vis_m": 9999,
      "fzfg": false,
      "metar_trigger": false,
      "taf_trigger": false,
      "metar": "METAR LPFR 101900Z 31004KT CAVOK 12/07 Q1029",
      "taf": "TAF LPFR 101700Z 1018/1118 33008KT 9999 SCT030"
    },
    {
      "icao": "LPMA",
      "alert": "OK",
      "vis_m": 9999,
      "fzfg": false,
      "metar_trigger": false,
      "taf_trigger": false,
      "metar": "METAR LPMA 101900Z 33005KT 9999 FEW016 15/11 Q1029",
      "taf": "TAF LPMA 101700Z 1018/1118 04008KT 9999 SCT015"
    },
    {
      "icao": "LPPR",
      "alert": "OK",
      "vis_m": 9999,
      "fzfg": false,
      "metar_trigger": false,
      "taf_trigger": false,
      "metar": "METAR LPPR 101900Z 16007KT 9999 FEW009 SCT026 BKN040 12/09 Q1028",
      "taf": "TAF LPPR 101700Z 1018/1118 20007KT 9999 FEW015 BKN035"
    },
    {
      "icao": "LPPS",
      "alert": "OK",
      "vis_m": 9999,
      "fzfg": false,
      "metar_trigger": false,
      "taf_trigger": false,
      "metar": "METAR LPPS 101900Z 02003KT 280V080 9999 FEW015 15/12 Q1029",
      "taf": "TAF LPPS 101700Z 1018/1124 09007KT 9999 SCT015 SCT030"
    },
    {
      "icao": "LPPT",
      "alert": "OK",
      "vis_m": 9999,
      "fzfg": false,
      "metar_trigger": false,
      "taf_trigger": false,
      "metar": "METAR LPPT 101900Z 28004KT 9999 FEW035 12/08 Q1029",
      "taf": "TAF LPPT 101700Z 1018/1124 29005KT 9999 FEW020 SCT035"
    },
    {
      "icao": "LQBK",
      "alert": "OK",
      "vis_m": 7000,
      "fzfg": false,
      "metar_trigger": false,
      "taf_trigger": false,
      "metar": "METAR LQBK 101900Z VRB02KT 7000 FEW007 SCT010 BKN035 M00/M00 Q1006 NOSIG",
      "taf": ""
    },
    {
      "icao": "LQSA",
      "alert": "OK",
      "vis_m": 2500,
      "fzfg": false,
      "metar_trigger": false,
      "taf_trigger": false,
      "metar": "METAR LQSA 101900Z 31006KT 2500 -SN BR SCT008 BKN015 OVC030 00/00 Q1002 NOSIG",
      "taf": "TAF LQSA 101700Z 1018/1118 29006KT 6000 SCT010 BKN025 TX00/1018Z TNM07/1118Z"
    },
    {
      "icao": "LQTZ",
      "alert": "OK",
      "vis_m": 9999,
      "fzfg": false,
      "metar_trigger": false,
      "taf_trigger": false,
      "metar": "METAR LQTZ 101900Z 29005KT 9999 FEW005 OVC017 00/00 Q1004",
      "taf": ""
    },
    {
      "icao": "LRBC",
      "alert": "OK",
      "vis_m": 9999,
      "fzfg": false,
      "metar_trigger": false,
      "taf_trigger": false,
      "metar": "METAR LRBC 101900Z 35013KT 9999 OVC040 M05/M09 Q1003",
      "taf": "TAF LRBC 101700Z 1018/1103 34008KT CAVOK"
    },
    {
      "icao": "LRBS",
      "alert": "OK",
      "vis_m": 9999,
      "fzfg": false,
      "metar_trigger": false,
      "taf_trigger": false,
      "metar": "METAR LRBS 101900Z 05008KT 020V080 9999 FEW040 M00/M02 Q0999 BECMG 5000 -SN",
      "taf": "TAF LRBS 101700Z 1018/1118 06013KT 7000 OVC010"
    },
    {
      "icao": "LRBV",
      "alert": "OK",
      "vis_m": 7000,
      "fzfg": false,
      "metar_trigger": false,
      "taf_trigger": false,
      "metar": "METAR LRBV 101900Z VRB02KT 7000 SCT013 OVC021 M02/M04 Q0999",
      "taf": ""
    },
    {
      "icao": "LRCL",
      "alert": "OK",
      "vis_m": 9999,
      "fzfg": false,
      "metar_trigger": false,
      "taf_trigger": false,
      "metar": "METAR LRCL 101900Z 35001KT 9999 OVC016 M03/M05 Q1002",
      "taf": "TAF LRCL 101700Z 1018/1103 VRB04KT 9999 OVC020"
    },
    {
      "icao": "LRCV",
      "alert": "OK",
      "vis_m": 1500,
      "fzfg": false,
      "metar_trigger": false,
      "taf_trigger": false,
      "metar": "METAR LRCV 101900Z 36003KT 1500 SN BR BKN008 OVC014 00/00 Q0999",
      "taf": "TAF LRCV 101700Z 1018/1103 VRB04KT 5000 -RA BR BKN035"
    },
    {
      "icao": "LRIA",
      "alert": "OK",
      "vis_m": 9999,
      "fzfg": false,
      "metar_trigger": false,
      "taf_trigger": false,
      "metar": "METAR LRIA 101900Z 31009KT 9999 BKN035 M07/M09 Q1004",
      "taf": "TAF LRIA 101700Z 1018/1103 35010KT CAVOK"
    },
    {
      "icao": "LROP",
      "alert": "OK",
      "vis_m": 9999,
      "fzfg": false,
      "metar_trigger": false,
      "taf_trigger": false,
      "metar": "METAR LROP 101900Z 06012KT CAVOK 00/M03 Q0999 BECMG 5000 -SN",
      "taf": "TAF LROP 101700Z 1018/1118 06013KT 7000 OVC010"
    },
    {
      "icao": "LRSB",
      "alert": "OK",
      "vis_m": 9999,
      "fzfg": false,
      "metar_trigger": false,
      "taf_trigger": false,
      "metar": "METAR LRSB 101900Z 33004KT 9999 OVC013 M02/M04 Q1000",
      "taf": "TAF LRSB 101700Z 1018/1118 VRB04KT 9999 OVC010"
    },
    {
      "icao": "LRSM",
      "alert": "OK",
      "vis_m": 9999,
      "fzfg": false,
      "metar_trigger": false,
      "taf_trigger": false,
      "metar": "METAR LRSM 101900Z AUTO 35010KT 9999 OVC034/// M05/M09 Q1004",
      "taf": ""
    },
    {
      "icao": "LRSV",
      "alert": "OK",
      "vis_m": 6000,
      "fzfg": false,
      "metar_trigger": false,
      "taf_trigger": false,
      "metar": "METAR LRSV 101900Z 34009KT 6000 SCT010 BKN022 M10/M12 Q1002",
      "taf": "TAF LRSV 101700Z 1018/1103 02010KT CAVOK"
    },
    {
      "icao": "LRTM",
      "alert": "OK",
      "vis_m": 9999,
      "fzfg": false,
      "metar_trigger": false,
      "taf_trigger": false,
      "metar": "METAR LRTM 101900Z AUTO 25003KT 220V280 9999 OVC023/// M02/M04 Q1001",
      "taf": "TAF LRTM 101400Z 1015/1024 VRB04KT 9999 SCT020 BKN030"
    },
    {
      "icao": "LRTR",
      "alert": "OK",
      "vis_m": 5000,
      "fzfg": false,
      "metar_trigger": false,
      "taf_trigger": false,
      "metar": "METAR LRTR 101900Z 36010KT 5000 BR FEW007 OVC017 M02/M02 Q1003",
      "taf": "TAF LRTR 101700Z 1018/1118 35010KT 7000 OVC015"
    },
    {
      "icao": "LTAC",
      "alert": "OK",
      "vis_m": 4300,
      "fzfg": false,
      "metar_trigger": false,
      "taf_trigger": false,
      "metar": "METAR LTAC 101850Z 02003KT 4300 BR FEW010 BKN040 BKN090 01/M00 Q1007 NOSIG RMK RWY21C 05003KT RWY03L 03003KT 340V050 RWY21R 04003KT 010V080 RWY03R VRB01KT RWY21L 02003KT 350V050",
      "taf": "TAF LTAC 101640Z 1018/1118 20009KT 7000 SCT040 BKN100"
    },
    {
      "icao": "LTFM",
      "alert": "OK",
      "vis_m": 6000,
      "fzfg": false,
      "metar_trigger": false,
      "taf_trigger": false,
      "metar": "METAR LTFM 101850Z 21015KT 6000 -TSRA SCT013 SCT018CB BKN024 12/10 Q0996 RETSRA NOSIG RMK RWY17L 21011KT RWY34L 20013KT RWY16R 21011KT RWY36 22013KT RWY18 22015KT",
      "taf": "TAF LTFM 101640Z 1018/1124 21023G35KT 9999 -SHRA SCT040 BKN090"
    },
    {
      "icao": "LUKK",
      "alert": "OK",
      "vis_m": 9999,
      "fzfg": false,
      "metar_trigger": false,
      "taf_trigger": false,
      "metar": "METAR LUKK 101900Z 36009KT 9999 BKN014 M05/M09 Q1002 TEMPO 3000 BR",
      "taf": "TAF LUKK 101727Z 1018/1118 VRB05KT 9999 SCT030"
    },
    {
      "icao": "LWOH",
      "alert": "OK",
      "vis_m": 9999,
      "fzfg": false,
      "metar_trigger": false,
      "taf_trigger": false,
      "metar": "METAR LWOH 101850Z 18012KT 9999 -RA SCT015 BKN025 04/02 Q0997",
      "taf": "TAF LWOH 101735Z 1018/1118 17010KT 9999 -RA SCT020 OVC035"
    },
    {
      "icao": "LWSK",
      "alert": "OK",
      "vis_m": null,
      "fzfg": false,
      "metar_trigger": false,
      "taf_trigger": false,
      "metar": "",
      "taf": "TAF LWSK 101735Z 1018/1118 VRB02KT 1500 BR BKN005 OVC015"
    },
    {
      "icao": "LYBE",
      "alert": "OK",
      "vis_m": 5000,
      "fzfg": false,
      "metar_trigger": false,
      "taf_trigger": false,
      "metar": "METAR LYBE 101900Z 33012KT 5000 BR OVC004 M02/M03 Q1004 NOSIG",
      "taf": "TAF LYBE 101700Z 1018/1118 36008KT 4000 BR BKN002 BKN022 TXM01/1018Z TNM05/1106Z"
    },
    {
      "icao": "LYNI",
      "alert": "OK",
      "vis_m": 4000,
      "fzfg": false,
      "metar_trigger": false,
      "taf_trigger": false,
      "metar": "METAR LYNI 101900Z 32010KT 4000 SN SCT005 BKN012 OVC025 01/00 Q1000 TEMPO BKN005 BKN012",
      "taf": "TAF LYNI 101700Z 1018/1118 35012KT 8000 SCT015 BKN030 TXM00/1018Z TNM07/1118Z"
    },
    {
      "icao": "LYPG",
      "alert": "OK",
      "vis_m": 9999,
      "fzfg": false,
      "metar_trigger": false,
      "taf_trigger": false,
      "metar": "METAR LYPG 101900Z 01013KT 9999 RA FEW013 SCT033 BKN050 06/03 Q0997 TEMPO 02025KT",
      "taf": "TAF LYPG 101700Z 1018/1118 36012KT 9999 SCT040 SCT070 TX08/1021Z TN04/1105Z"
    },
    {
      "icao": "LZIB",
      "alert": "OK",
      "vis_m": 9999,
      "fzfg": false,
      "metar_trigger": false,
      "taf_trigger": false,
      "metar": "METAR LZIB 101900Z 30008KT CAVOK M05/M11 Q1008 NOSIG",
      "taf": "TAF LZIB 101715Z 1018/1118 32013KT 9999 BKN040"
    },
    {
      "icao": "LZKZ",
      "alert": "OK",
      "vis_m": 9999,
      "fzfg": false,
      "metar_trigger": false,
      "taf_trigger": false,
      "metar": "METAR LZKZ 101900Z 01020KT CAVOK M09/M15 Q1005 NOSIG",
      "taf": "TAF LZKZ 101715Z 1018/1118 02013KT 9999 BKN035"
    },
    {
      "icao": "LZTT",
      "alert": "OK",
      "vis_m": 9999,
      "fzfg": false,
      "metar_trigger": false,
      "taf_trigger": false,
      "metar": "METAR LZTT 101900Z 18005KT 9999 FEW013 BKN028 M11/M15 Q1002",
      "taf": "TAF LZTT 101715Z 1018/1118 10006KT 9999 SCT010 BKN025"
    },
    {
      "icao": "OEJN",
      "alert": "OK",
      "vis_m": 9999,
      "fzfg": false,
      "metar_trigger": false,
      "taf_trigger": false,
      "metar": "METAR OEJN 101900Z 35007KT CAVOK 24/17 Q1015 NOSIG",
      "taf": "TAF OEJN 101700Z 1018/1124 36005KT 7000 NSC"
    },
    {
      "icao": "OEMA",
      "alert": "OK",
      "vis_m": 9999,
      "fzfg": false,
      "metar_trigger": false,
      "taf_trigger": false,
      "metar": "METAR OEMA 101900Z VRB02KT CAVOK 19/M01 Q1021 NOSIG",
      "taf": "TAF OEMA 101700Z 1018/1124 08008KT CAVOK"
    },
    {
      "icao": "OJAI",
      "alert": "OK",
      "vis_m": 5000,
      "fzfg": false,
      "metar_trigger": false,
      "taf_trigger": false,
      "metar": "METAR OJAI 101900Z 00000KT 5000 BR NSC 08/07 Q1022 NOSIG",
      "taf": "TAF OJAI 101700Z 1018/1124 14006KT 5000 BR NSC"
    },
    {
      "icao": "OMAA",
      "alert": "OK",
      "vis_m": 9999,
      "fzfg": false,
      "metar_trigger": false,
      "taf_trigger": false,
      "metar": "METAR OMAA 101900Z 06004KT CAVOK 19/10 Q1020 NOSIG",
      "taf": "TAF OMAA 101700Z 1018/1200 06005KT 8000 NSC"
    },
    {
      "icao": "OMDB",
      "alert": "OK",
      "vis_m": 9999,
      "fzfg": false,
      "metar_trigger": false,
      "taf_trigger": false,
      "metar": "METAR OMDB 101900Z 11006KT CAVOK 22/11 Q1020 NOSIG",
      "taf": "TAF OMDB 101700Z 1018/1200 33010KT 8000 NSC"
    },
    {
      "icao": "UAAA",
      "alert": "OK",
      "vis_m": 1200,
      "fzfg": true,
      "metar_trigger": false,
      "taf_trigger": false,
      "metar": "METAR UAAA 101900Z 15002MPS 1200 R23L/P2000U BR FEW100 M05/M06 Q1017 NOSIG",
      "taf": "TAF UAAA 101700Z 1018/1118 24003MPS 0800 FZFG SCT011 BKN100 TX05/1109Z TNM07/1101Z"
    },
    {
      "icao": "UBBB",
      "alert": "OK",
      "vis_m": 9999,
      "fzfg": false,
      "metar_trigger": false,
      "taf_trigger": false,
      "metar": "METAR UBBB 101900Z 31008KT 9999 -RA SCT010 OVC027 06/05 Q1016 NOSIG",
      "taf": "TAF UBBB 101659Z 1018/1118 33010KT 8000 BKN007 BKN025 TX12/1110Z TN04/1102Z"
    },
    {
      "icao": "UDSG",
      "alert": "OK",
      "vis_m": 9999,
      "fzfg": false,
      "metar_trigger": false,
      "taf_trigger": false,
      "metar": "METAR UDSG 101900Z 10004KT 9999 FEW049 M16/M17 Q1017 NOSIG",
      "taf": "TAF UDSG 101658Z 1018/1118 VRB06KT 9999 FEW040"
    },
    {
      "icao": "UDYZ",
      "alert": "OK",
      "vis_m": 1900,
      "fzfg": true,
      "metar_trigger": false,
      "taf_trigger": false,
      "metar": "METAR UDYZ 101900Z 34004KT 1900 1300W R08/P2000U BR FEW046 M04/M05 Q1017 NOSIG",
      "taf": "TAF UDYZ 101700Z 1018/1118 VRB04KT 0800 FZFG FEW020"
    },
    {
      "icao": "UGKO",
      "alert": "OK",
      "vis_m": 9999,
      "fzfg": false,
      "metar_trigger": false,
      "taf_trigger": false,
      "metar": "METAR UGKO 101900Z 08016KT CAVOK 03/00 Q1014 NOSIG",
      "taf": "TAF UGKO 101700Z 1018/1118 08017G27KT CAVOK TX15/1111Z TN03/1022Z"
    }
  ]
}