{
  "ts_utc": "2025-12-22T07:03:05Z",
  "threshold_m": 150,
  "source": "stations_override.txt (ICAO list) + aviationweather.gov (METAR/TAF raw)",
  "station_count": 114,
  "stations": [
    {
      "icao": "BIKF",
      "alert": "OK",
      "vis_m": 9999,
      "fzfg": false,
      "metar_trigger": false,
      "taf_trigger": false,
      "metar": "METAR BIKF 220630Z 12025G37KT 9999 BKN014 08/06 Q1000",
      "taf": "TAF BIKF 220454Z 2206/2306 13025G38KT 9999 -SHRA BKN022 TX07/2206Z TN02/2306Z"
    },
    {
      "icao": "BKPR",
      "alert": "OK",
      "vis_m": 2500,
      "fzfg": false,
      "metar_trigger": false,
      "taf_trigger": false,
      "metar": "METAR BKPR 220700Z 30003KT 2500 BR BKN007 01/01 Q1019 NOSIG",
      "taf": "TAF BKPR 220530Z 2206/2306 VRB03KT 3000 BR BKN006"
    },
    {
      "icao": "EBBR",
      "alert": "OK",
      "vis_m": 9999,
      "fzfg": false,
      "metar_trigger": false,
      "taf_trigger": false,
      "metar": "METAR EBBR 220650Z 10006KT CAVOK 04/01 Q1008 NOSIG",
      "taf": "TAF EBBR 220502Z 2206/2312 05005KT CAVOK"
    },
    {
      "icao": "EBCI",
      "alert": "OK",
      "vis_m": 9999,
      "fzfg": false,
      "metar_trigger": false,
      "taf_trigger": false,
      "metar": "METAR EBCI 220650Z VRB02KT CAVOK 05/01 Q1008 NOSIG",
      "taf": "TAF EBCI 220502Z 2206/2312 05005KT CAVOK"
    },
    {
      "icao": "EDDB",
      "alert": "OK",
      "vis_m": 3800,
      "fzfg": false,
      "metar_trigger": false,
      "taf_trigger": false,
      "metar": "METAR EDDB 220650Z AUTO 09009KT 3800 BR OVC003 03/03 Q1018 BECMG 6000",
      "taf": "TAF EDDB 220500Z 2206/2306 07010KT 2500 BR BKN003"
    },
    {
      "icao": "EDDH",
      "alert": "OK",
      "vis_m": 5000,
      "fzfg": false,
      "metar_trigger": false,
      "taf_trigger": false,
      "metar": "METAR EDDH 220650Z AUTO 10014KT 5000 BR OVC002 04/04 Q1017 TEMPO 3500",
      "taf": "TAF EDDH 220500Z 2206/2312 09011KT 6000 OVC003"
    },
    {
      "icao": "EDDK",
      "alert": "OK",
      "vis_m": 9999,
      "fzfg": false,
      "metar_trigger": false,
      "taf_trigger": false,
      "metar": "METAR EDDK 220650Z AUTO 10006KT CAVOK 04/01 Q1010 NOSIG",
      "taf": "TAF EDDK 220500Z 2206/2312 11006KT CAVOK"
    },
    {
      "icao": "EDDN",
      "alert": "OK",
      "vis_m": 9999,
      "fzfg": false,
      "metar_trigger": false,
      "taf_trigger": false,
      "metar": "METAR EDDN 220650Z AUTO 12006KT 9999 OVC011 02/00 Q1011 NOSIG",
      "taf": "TAF EDDN 220500Z 2206/2306 09006KT 9999 OVC010"
    },
    {
      "icao": "EDFH",
      "alert": "OK",
      "vis_m": 9999,
      "fzfg": false,
      "metar_trigger": false,
      "taf_trigger": false,
      "metar": "METAR EDFH 220650Z 12013KT CAVOK M00/M01 Q1009",
      "taf": "TAF EDFH 220500Z 2206/2306 13011KT CAVOK"
    },
    {
      "icao": "EDJA",
      "alert": "OK",
      "vis_m": 3500,
      "fzfg": false,
      "metar_trigger": false,
      "taf_trigger": false,
      "metar": "METAR EDJA 220650Z 06005KT 3500 BR BKN002 OVC012 M03/M03 Q1009",
      "taf": "TAF EDJA 220500Z 2206/2215 07005KT 2000 BR OVC002"
    },
    {
      "icao": "EDLW",
      "alert": "OK",
      "vis_m": 9999,
      "fzfg": false,
      "metar_trigger": false,
      "taf_trigger": false,
      "metar": "METAR EDLW 220650Z 06008KT CAVOK 03/02 Q1010",
      "taf": "TAF EDLW 220500Z 2206/2306 08007KT CAVOK"
    },
    {
      "icao": "EDSB",
      "alert": "OK",
      "vis_m": 8000,
      "fzfg": false,
      "metar_trigger": false,
      "taf_trigger": false,
      "metar": "METAR EDSB 220650Z 02003KT 8000 SCT004 OVC007 01/00 Q1010",
      "taf": "TAF EDSB 220500Z 2206/2306 03004KT 2000 BR BKN002"
    },
    {
      "icao": "EETN",
      "alert": "OK",
      "vis_m": 9999,
      "fzfg": false,
      "metar_trigger": false,
      "taf_trigger": false,
      "metar": "METAR EETN 220650Z 34004KT 9999 BKN011 FEW015CB BKN021 02/00 Q1020 NOSIG",
      "taf": "TAF EETN 220530Z 2206/2306 35008KT 9999 SCT013 BKN020"
    },
    {
      "icao": "EFHK",
      "alert": "OK",
      "vis_m": 9999,
      "fzfg": false,
      "metar_trigger": false,
      "taf_trigger": false,
      "metar": "METAR EFHK 220650Z 30004KT 9999 FEW011 BKN030 00/M00 Q1020 TEMPO BKN008",
      "taf": "TAF EFHK 220534Z 2206/2306 33006KT 9999 FEW012 BKN025"
    },
    {
      "icao": "EFTU",
      "alert": "OK",
      "vis_m": 4200,
      "fzfg": false,
      "metar_trigger": false,
      "taf_trigger": false,
      "metar": "METAR EFTU 220650Z AUTO 04004KT 350V090 4200 1900 BR OVC001 M01/M01 Q1021",
      "taf": ""
    },
    {
      "icao": "EGGW",
      "alert": "OK",
      "vis_m": 3200,
      "fzfg": false,
      "metar_trigger": false,
      "taf_trigger": false,
      "metar": "METAR EGGW 220650Z AUTO 11005KT 3200 BR BKN003 OVC026 08/08 Q1006",
      "taf": "TAF EGGW 220454Z 2206/2306 10008KT 7000 FEW007 SCT020"
    },
    {
      "icao": "EGKK",
      "alert": "OK",
      "vis_m": 9999,
      "fzfg": false,
      "metar_trigger": false,
      "taf_trigger": false,
      "metar": "METAR EGKK 220650Z 09005KT 9999 BKN017 09/09 Q1005",
      "taf": "TAF EGKK 220456Z 2206/2312 10008KT 9999 SCT025"
    },
    {
      "icao": "EHEH",
      "alert": "OK",
      "vis_m": 9999,
      "fzfg": false,
      "metar_trigger": false,
      "taf_trigger": false,
      "metar": "METAR EHEH 220655Z AUTO 07006KT 050V140 9999 SCT170 BKN260 OVC330 05/02 Q1009 BLU NOSIG RMK TREND REMOTE BY EHWX",
      "taf": "TAF EHEH 220526Z 2206/2312 09006KT CAVOK"
    },
    {
      "icao": "EKBI",
      "alert": "OK",
      "vis_m": 9999,
      "fzfg": false,
      "metar_trigger": false,
      "taf_trigger": false,
      "metar": "METAR EKBI 220650Z AUTO 10013KT 070V130 9999 BKN012/// 04/02 Q1020",
      "taf": "TAF EKBI 220527Z 2206/2306 10014KT 9999 BKN010"
    },
    {
      "icao": "EKCH",
      "alert": "OK",
      "vis_m": 9999,
      "fzfg": false,
      "metar_trigger": false,
      "taf_trigger": false,
      "metar": "METAR EKCH 220650Z 09012KT 9999 FEW012 BKN014 05/03 Q1023 BECMG BKN015",
      "taf": "TAF EKCH 220527Z 2206/2306 09012KT 9999 BKN017"
    },
    {
      "icao": "ENTO",
      "alert": "OK",
      "vis_m": 9999,
      "fzfg": false,
      "metar_trigger": false,
      "taf_trigger": false,
      "metar": "METAR ENTO 220650Z 36008KT CAVOK M03/M04 Q1025 NOSIG",
      "taf": "TAF ENTO 220500Z 2206/2306 01008KT CAVOK"
    },
    {
      "icao": "EPGD",
      "alert": "OK",
      "vis_m": 9999,
      "fzfg": false,
      "metar_trigger": false,
      "taf_trigger": false,
      "metar": "METAR EPGD 220630Z VRB01KT 9999 BKN022 04/01 Q1023",
      "taf": "TAF EPGD 220530Z 2206/2306 VRB03KT 9999 BKN018"
    },
    {
      "icao": "EPKK",
      "alert": "OK",
      "vis_m": 2900,
      "fzfg": false,
      "metar_trigger": false,
      "taf_trigger": false,
      "metar": "METAR EPKK 220630Z 06009KT 2900 BR BKN002 OVC003 02/02 Q1020",
      "taf": "TAF EPKK 220530Z 2206/2306 06009KT 3000 BR OVC002"
    },
    {
      "icao": "EPKT",
      "alert": "OK",
      "vis_m": 9000,
      "fzfg": false,
      "metar_trigger": false,
      "taf_trigger": false,
      "metar": "METAR EPKT 220630Z 10008KT 9000 OVC003 03/02 Q1019",
      "taf": "TAF EPKT 220530Z 2206/2306 07005KT 9999 OVC003"
    },
    {
      "icao": "EPWA",
      "alert": "OK",
      "vis_m": 9999,
      "fzfg": false,
      "metar_trigger": false,
      "taf_trigger": false,
      "metar": "METAR EPWA 220630Z VRB01KT 9999 BKN025 02/M01 Q1023 NOSIG",
      "taf": "TAF EPWA 220530Z 2206/2306 VRB03KT 9999 BKN025"
    },
    {
      "icao": "EPWR",
      "alert": "OK",
      "vis_m": 2000,
      "fzfg": false,
      "metar_trigger": false,
      "taf_trigger": false,
      "metar": "METAR EPWR 220630Z 09007KT 2000 BR OVC002 04/04 Q1019",
      "taf": "TAF EPWR 220530Z 2206/2306 09009KT 1500 BR OVC003"
    },
    {
      "icao": "ESGG",
      "alert": "OK",
      "vis_m": 9999,
      "fzfg": false,
      "metar_trigger": false,
      "taf_trigger": false,
      "metar": "METAR ESGG 220650Z 10005KT CAVOK M00/M01 Q1023",
      "taf": "TAF ESGG 220530Z 2206/2306 09006KT CAVOK"
    },
    {
      "icao": "ESKN",
      "alert": "OK",
      "vis_m": 9999,
      "fzfg": false,
      "metar_trigger": false,
      "taf_trigger": false,
      "metar": "METAR ESKN 220650Z 29004KT CAVOK M04/M05 Q1024",
      "taf": "TAF ESKN 220530Z 2206/2306 31005KT CAVOK"
    },
    {
      "icao": "ESMX",
      "alert": "OK",
      "vis_m": 9999,
      "fzfg": false,
      "metar_trigger": false,
      "taf_trigger": false,
      "metar": "METAR ESMX 220650Z AUTO 00000KT 9999 NCD M04/M04 Q1024",
      "taf": "TAF ESMX 220530Z 2206/2215 01003KT CAVOK"
    },
    {
      "icao": "EVRA",
      "alert": "OK",
      "vis_m": 9999,
      "fzfg": false,
      "metar_trigger": false,
      "taf_trigger": false,
      "metar": "METAR EVRA 220650Z 33006KT 300V360 9999 OVC019 05/01 Q1021 NOSIG",
      "taf": "TAF EVRA 220508Z 2206/2306 34010KT 9999 BKN020"
    },
    {
      "icao": "EYKA",
      "alert": "OK",
      "vis_m": 9999,
      "fzfg": false,
      "metar_trigger": false,
      "taf_trigger": false,
      "metar": "METAR EYKA 220650Z 31003KT 260V360 9999 OVC012 03/02 Q1022",
      "taf": "TAF EYKA 220500Z 2206/2306 VRB04KT 9000 OVC015"
    },
    {
      "icao": "EYVI",
      "alert": "OK",
      "vis_m": 9999,
      "fzfg": false,
      "metar_trigger": false,
      "taf_trigger": false,
      "metar": "METAR EYVI 220650Z 33006KT 9999 OVC010 02/01 Q1021 NOSIG",
      "taf": "TAF EYVI 220514Z 2206/2306 31007KT 9000 OVC010"
    },
    {
      "icao": "GCLP",
      "alert": "OK",
      "vis_m": 9999,
      "fzfg": false,
      "metar_trigger": false,
      "taf_trigger": false,
      "metar": "METAR GCLP 220630Z 34012KT 9999 -RA FEW025 BKN045 17/13 Q1019 NOSIG",
      "taf": "TAF GCLP 220200Z 2203/2303 01014KT 9999 SCT030 BKN035 TX20/2214Z TN15/2206Z"
    },
    {
      "icao": "GCTS",
      "alert": "OK",
      "vis_m": 9999,
      "fzfg": false,
      "metar_trigger": false,
      "taf_trigger": false,
      "metar": "METAR GCTS 220630Z 36009KT 350V050 9999 FEW030 15/08 Q1019 NOSIG",
      "taf": "TAF GCTS 220200Z 2203/2303 VRB05KT 9999 SCT035 TX24/2214Z TN16/2206Z"
    },
    {
      "icao": "HECA",
      "alert": "OK",
      "vis_m": 6000,
      "fzfg": false,
      "metar_trigger": false,
      "taf_trigger": false,
      "metar": "METAR HECA 220700Z 17012KT 6000 NSC 16/01 Q1014 NOSIG",
      "taf": "TAF HECA 220500Z 2206/2312 15009KT 6000 NSC"
    },
    {
      "icao": "HEGN",
      "alert": "OK",
      "vis_m": 9999,
      "fzfg": false,
      "metar_trigger": false,
      "taf_trigger": false,
      "metar": "METAR HEGN 220600Z 28002KT CAVOK 16/07 Q1015 NOSIG",
      "taf": "TAF HEGN 220500Z 2206/2312 27008KT CAVOK"
    },
    {
      "icao": "HESH",
      "alert": "OK",
      "vis_m": 9999,
      "fzfg": false,
      "metar_trigger": false,
      "taf_trigger": false,
      "metar": "METAR HESH 220600Z 29006KT CAVOK 19/12 Q1015 NOSIG",
      "taf": "TAF HESH 220500Z 2206/2312 30008KT CAVOK"
    },
    {
      "icao": "HESX",
      "alert": "OK",
      "vis_m": 9999,
      "fzfg": false,
      "metar_trigger": false,
      "taf_trigger": false,
      "metar": "METAR HESX 220600Z 19007KT CAVOK 12/01 Q1013 NOSIG",
      "taf": "TAF HESX 220500Z 2206/2312 20008KT CAVOK"
    },
    {
      "icao": "LATI",
      "alert": "OK",
      "vis_m": 9999,
      "fzfg": false,
      "metar_trigger": false,
      "taf_trigger": false,
      "metar": "METAR LATI 220650Z 14002KT CAVOK 02/M00 Q1015 NOSIG",
      "taf": "TAF LATI 220500Z 2206/2306 VRB05KT CAVOK TX17/2212Z TN01/2305Z"
    },
    {
      "icao": "LBSF",
      "alert": "OK",
      "vis_m": 5000,
      "fzfg": false,
      "metar_trigger": false,
      "taf_trigger": false,
      "metar": "METAR LBSF 220700Z VRB01KT 5000 BR BKN028 M00/M01 Q1020 NOSIG",
      "taf": "TAF LBSF 220500Z 2206/2306 VRB04KT 5000 BR SCT007 BKN020"
    },
    {
      "icao": "LBWN",
      "alert": "OK",
      "vis_m": 9999,
      "fzfg": false,
      "metar_trigger": false,
      "taf_trigger": false,
      "metar": "METAR LBWN 220700Z 35010KT 9999 OVC015 06/05 Q1021 NOSIG",
      "taf": "TAF LBWN 220500Z 2206/2306 35010KT 9999 BKN012 OVC020"
    },
    {
      "icao": "LCLK",
      "alert": "OK",
      "vis_m": 9999,
      "fzfg": false,
      "metar_trigger": false,
      "taf_trigger": false,
      "metar": "METAR LCLK 220700Z 06014KT 9999 FEW018TCU SCT050 19/15 Q1015 NOSIG",
      "taf": "TAF LCLK 220530Z 2206/2306 03012KT 9999 FEW020 SCT030"
    },
    {
      "icao": "LDDU",
      "alert": "OK",
      "vis_m": 9999,
      "fzfg": false,
      "metar_trigger": false,
      "taf_trigger": false,
      "metar": "METAR LDDU 220700Z 05006KT CAVOK 09/01 Q1015 NOSIG",
      "taf": "TAF LDDU 220525Z 2206/2306 08007KT CAVOK TX15/2212Z TN08/2206Z"
    },
    {
      "icao": "LDSP",
      "alert": "OK",
      "vis_m": 9999,
      "fzfg": false,
      "metar_trigger": false,
      "taf_trigger": false,
      "metar": "METAR LDSP 220700Z 36004KT CAVOK 05/03 Q1015 NOSIG",
      "taf": "TAF LDSP 220525Z 2206/2306 31004KT CAVOK TX15/2212Z TN07/2206Z"
    },
    {
      "icao": "LDZA",
      "alert": "OK",
      "vis_m": 4000,
      "fzfg": false,
      "metar_trigger": false,
      "taf_trigger": false,
      "metar": "METAR LDZA 220700Z VRB01KT 4000 BR FEW004 OVC018 04/03 Q1019 TEMPO BKN004",
      "taf": "TAF LDZA 220525Z 2206/2306 VRB02KT 7000 OVC015 TX06/2213Z TN01/2305Z"
    },
    {
      "icao": "LEAL",
      "alert": "OK",
      "vis_m": 9999,
      "fzfg": false,
      "metar_trigger": false,
      "taf_trigger": false,
      "metar": "METAR LEAL 220630Z 28008KT 250V320 CAVOK 08/02 Q1007 NOSIG",
      "taf": "TAF LEAL 220500Z 2206/2306 28008KT 9999 FEW040 TX13/2213Z TN08/2207Z"
    },
    {
      "icao": "LEBL",
      "alert": "OK",
      "vis_m": 9999,
      "fzfg": false,
      "metar_trigger": false,
      "taf_trigger": false,
      "metar": "METAR LEBL 220630Z 31012KT 9999 DZ SCT047 BKN060 08/04 Q1003 NOSIG",
      "taf": "TAF LEBL 220500Z 2206/2306 32012KT 9999 SCT040 TX12/2213Z TN06/2306Z"
    },
    {
      "icao": "LECH",
      "alert": "OK",
      "vis_m": 9999,
      "fzfg": false,
      "metar_trigger": false,
      "taf_trigger": false,
      "metar": "METAR LECH 220630Z AUTO 30001KT CAVOK 05/01 Q1004",
      "taf": ""
    },
    {
      "icao": "LEMD",
      "alert": "OK",
      "vis_m": 6000,
      "fzfg": false,
      "metar_trigger": false,
      "taf_trigger": false,
      "metar": "METAR LEMD 220630Z 19005KT 150V220 6000 FEW002 SCT004 00/00 Q1007 TEMPO BKN005",
      "taf": "TAF LEMD 220500Z 2206/2312 VRB04KT 9999 SCT020 TX07/2215Z TNM01/2306Z"
    },
    {
      "icao": "LEMG",
      "alert": "OK",
      "vis_m": 9999,
      "fzfg": false,
      "metar_trigger": false,
      "taf_trigger": false,
      "metar": "METAR LEMG 220630Z 29011KT CAVOK 06/02 Q1011 NOSIG",
      "taf": "TAF LEMG 220500Z 2206/2306 30005KT 9999 FEW040 TX14/2214Z TN07/2206Z"
    },
    {
      "icao": "LERS",
      "alert": "OK",
      "vis_m": 9999,
      "fzfg": false,
      "metar_trigger": false,
      "taf_trigger": false,
      "metar": "METAR LERS 220630Z VRB05KT 9999 FEW020 08/02 Q1003",
      "taf": "TAF LERS 220200Z 2203/2303 VRB04KT 9999 FEW020 TX12/2213Z TN06/2206Z"
    },
    {
      "icao": "LEVC",
      "alert": "OK",
      "vis_m": 9999,
      "fzfg": false,
      "metar_trigger": false,
      "taf_trigger": false,
      "metar": "METAR LEVC 220630Z 30005KT CAVOK 06/M01 Q1006 NOSIG",
      "taf": "TAF LEVC 220500Z 2206/2306 27010KT 9999 FEW040 TX12/2213Z TN05/2207Z"
    },
    {
      "icao": "LFLL",
      "alert": "OK",
      "vis_m": 5000,
      "fzfg": false,
      "metar_trigger": false,
      "taf_trigger": false,
      "metar": "METAR LFLL 220630Z 12005KT 080V170 5000 -RA BR FEW040 OVC053 08/07 Q1006 TEMPO 4500 -RA BKN012",
      "taf": "TAF LFLL 220500Z 2206/2312 15005KT CAVOK"
    },
    {
      "icao": "LFMN",
      "alert": "OK",
      "vis_m": 9999,
      "fzfg": false,
      "metar_trigger": false,
      "taf_trigger": false,
      "metar": "METAR LFMN 220630Z 05015G26KT 010V080 9999 -RA BKN043 15/08 Q1008 NOSIG",
      "taf": "TAF LFMN 220200Z 2203/2309 08015KT 9999 BKN040"
    },
    {
      "icao": "LFOB",
      "alert": "OK",
      "vis_m": 9999,
      "fzfg": false,
      "metar_trigger": false,
      "taf_trigger": false,
      "metar": "METAR LFOB 220630Z AUTO 09005KT 9999 OVC013 08/07 Q1006 NOSIG",
      "taf": ""
    },
    {
      "icao": "LFPO",
      "alert": "OK",
      "vis_m": 9999,
      "fzfg": false,
      "metar_trigger": false,
      "taf_trigger": false,
      "metar": "METAR LFPO 220630Z VRB02KT 9999 FEW013 BKN230 07/07 Q1006 NOSIG",
      "taf": "TAF LFPO 220500Z 2206/2312 10003KT CAVOK"
    },
    {
      "icao": "LFSB",
      "alert": "OK",
      "vis_m": 9999,
      "fzfg": false,
      "metar_trigger": false,
      "taf_trigger": false,
      "metar": "METAR LFSB 220630Z AUTO 22001KT 9999 SCT004 OVC130 01/00 Q1009 BECMG 4000 BR BKN003",
      "taf": "TAF LFSB 220500Z 2206/2306 07004KT CAVOK"
    },
    {
      "icao": "LGAV",
      "alert": "OK",
      "vis_m": 9999,
      "fzfg": false,
      "metar_trigger": false,
      "taf_trigger": false,
      "metar": "METAR LGAV 220650Z 02009KT 9999 FEW025 SCT040 BKN070 14/08 Q1015 NOSIG",
      "taf": "TAF LGAV 220500Z 2206/2306 03015KT 9999 SCT035"
    },
    {
      "icao": "LGIR",
      "alert": "OK",
      "vis_m": 9999,
      "fzfg": false,
      "metar_trigger": false,
      "taf_trigger": false,
      "metar": "METAR LGIR 220650Z 17007KT 9999 FEW020 13/11 Q1014 NOSIG",
      "taf": "TAF LGIR 220500Z 2206/2306 18010KT 9999 SCT020 SCT080"
    },
    {
      "icao": "LGKR",
      "alert": "OK",
      "vis_m": 9999,
      "fzfg": false,
      "metar_trigger": false,
      "taf_trigger": false,
      "metar": "METAR LGKR 220650Z 00000KT 9999 FEW020 SCT040 09/08 Q1013 NOSIG",
      "taf": "TAF LGKR 220500Z 2206/2306 VRB03KT 9999 FEW010 SCT020"
    },
    {
      "icao": "LGRP",
      "alert": "OK",
      "vis_m": 1000,
      "fzfg": false,
      "metar_trigger": false,
      "taf_trigger": false,
      "metar": "METAR LGRP 220650Z 25005KT 1000 +TSRA FEW016CB FEW018TCU BKN020 14/14 Q1013 NOSIG",
      "taf": ""
    },
    {
      "icao": "LGTS",
      "alert": "OK",
      "vis_m": 9000,
      "fzfg": false,
      "metar_trigger": false,
      "taf_trigger": false,
      "metar": "METAR LGTS 220650Z 12004KT 9000 FEW008 07/07 Q1019 NOSIG",
      "taf": "TAF LGTS 220500Z 2206/2306 VRB03KT 9999 FEW025"
    },
    {
      "icao": "LGZA",
      "alert": "OK",
      "vis_m": 9999,
      "fzfg": false,
      "metar_trigger": false,
      "taf_trigger": false,
      "metar": "METAR LGZA 220650Z 00000KT 9999 SCT020 BKN080 12/10 Q1013",
      "taf": "TAF LGZA 220500Z 2206/2215 08010KT 9999 FEW020 BKN080"
    },
    {
      "icao": "LHBP",
      "alert": "OK",
      "vis_m": 4000,
      "fzfg": false,
      "metar_trigger": false,
      "taf_trigger": false,
      "metar": "METAR LHBP 220700Z 14003KT 4000 -DZ BR OVC005 04/03 Q1021 TEMPO 2500 OVC004",
      "taf": "TAF LHBP 220515Z 2206/2306 12005KT 6000 OVC010"
    },
    {
      "icao": "LHDC",
      "alert": "OK",
      "vis_m": 3500,
      "fzfg": false,
      "metar_trigger": false,
      "taf_trigger": false,
      "metar": "METAR LHDC 220615Z AUTO VRB02KT 3500 BR OVC019 05/04 Q1021 NOSIG",
      "taf": "TAF LHDC 220515Z 2206/2215 VRB03KT 6000 OVC017"
    },
    {
      "icao": "LIBD",
      "alert": "OK",
      "vis_m": 3500,
      "fzfg": false,
      "metar_trigger": false,
      "taf_trigger": false,
      "metar": "METAR LIBD 220650Z 22004KT 3500 BR NSC 07/07 Q1014",
      "taf": "TAF LIBD 220500Z 2206/2306 VRB05KT 9999 FEW030"
    },
    {
      "icao": "LICC",
      "alert": "OK",
      "vis_m": 9999,
      "fzfg": false,
      "metar_trigger": false,
      "taf_trigger": false,
      "metar": "METAR LICC 220650Z 25005KT 9999 BKN020 12/11 Q1011",
      "taf": "TAF LICC 220500Z 2206/2306 VRB06KT 8000 RA BKN012"
    },
    {
      "icao": "LICJ",
      "alert": "OK",
      "vis_m": 9999,
      "fzfg": false,
      "metar_trigger": false,
      "taf_trigger": false,
      "metar": "METAR LICJ 220650Z 21007KT 9999 FEW065 13/10 Q1009",
      "taf": "TAF LICJ 220500Z 2206/2306 VRB05KT 9999 FEW040"
    },
    {
      "icao": "LIEO",
      "alert": "OK",
      "vis_m": 9999,
      "fzfg": false,
      "metar_trigger": false,
      "taf_trigger": false,
      "metar": "METAR LIEO 220650Z VRB02KT 9999 SCT020 10/10 Q1007",
      "taf": "TAF LIEO 220500Z 2206/2306 VRB05KT 9999 SCT020"
    },
    {
      "icao": "LIMC",
      "alert": "OK",
      "vis_m": 9999,
      "fzfg": false,
      "metar_trigger": false,
      "taf_trigger": false,
      "metar": "METAR LIMC 220650Z 01002KT 9999 BKN045 08/06 Q1015 NOSIG",
      "taf": "TAF LIMC 220500Z 2206/2312 VRB03KT 9999 BKN035"
    },
    {
      "icao": "LIME",
      "alert": "OK",
      "vis_m": 9999,
      "fzfg": false,
      "metar_trigger": false,
      "taf_trigger": false,
      "metar": "METAR LIME 220650Z 04002KT 9999 SCT050 05/03 Q1015 NOSIG",
      "taf": "TAF LIME 220500Z 2206/2306 VRB03KT 8000 BKN035"
    },
    {
      "icao": "LIPH",
      "alert": "OK",
      "vis_m": 9999,
      "fzfg": false,
      "metar_trigger": false,
      "taf_trigger": false,
      "metar": "METAR LIPH 220650Z VRB02KT CAVOK 02/01 Q1015",
      "taf": "TAF LIPH 220500Z 2206/2306 VRB04KT 9999 FEW030"
    },
    {
      "icao": "LIPQ",
      "alert": "OK",
      "vis_m": 9999,
      "fzfg": false,
      "metar_trigger": false,
      "taf_trigger": false,
      "metar": "METAR LIPQ 220650Z AUTO VRB01KT 9999 NCD 03/01 Q1015",
      "taf": "TAF LIPQ 220500Z 2206/2306 07007KT CAVOK"
    },
    {
      "icao": "LIPX",
      "alert": "OK",
      "vis_m": 9999,
      "fzfg": false,
      "metar_trigger": false,
      "taf_trigger": false,
      "metar": "METAR LIPX 220650Z 01003KT 9999 SCT060 01/01 Q1015",
      "taf": "TAF LIPX 220500Z 2206/2306 VRB03KT 9999 BKN040"
    },
    {
      "icao": "LIPY",
      "alert": "OK",
      "vis_m": 5000,
      "fzfg": false,
      "metar_trigger": false,
      "taf_trigger": false,
      "metar": "METAR LIPY 220650Z AUTO 18003KT 5000 BR FEW007/// OVC074/// 10/10 Q1014",
      "taf": "TAF LIPY 220500Z 2206/2306 VRB05KT 3000 BR BKN010"
    },
    {
      "icao": "LIPZ",
      "alert": "OK",
      "vis_m": 9999,
      "fzfg": false,
      "metar_trigger": false,
      "taf_trigger": false,
      "metar": "METAR LIPZ 220650Z 03008KT 9999 FEW070 04/01 Q1015 NOSIG",
      "taf": "TAF LIPZ 220500Z 2206/2312 03005KT 9999 FEW030"
    },
    {
      "icao": "LIRA",
      "alert": "OK",
      "vis_m": 9999,
      "fzfg": false,
      "metar_trigger": false,
      "taf_trigger": false,
      "metar": "METAR LIRA 220650Z 10007KT 9999 BKN055 13/05 Q1011",
      "taf": "TAF LIRA 220500Z 2206/2306 05005KT 9999 SCT060"
    },
    {
      "icao": "LIRN",
      "alert": "OK",
      "vis_m": 9999,
      "fzfg": false,
      "metar_trigger": false,
      "taf_trigger": false,
      "metar": "METAR LIRN 220650Z VRB02KT CAVOK 12/08 Q1011 NOSIG",
      "taf": "TAF LIRN 220500Z 2206/2306 05005KT 9999 SCT050"
    },
    {
      "icao": "LLBG",
      "alert": "OK",
      "vis_m": 9999,
      "fzfg": false,
      "metar_trigger": false,
      "taf_trigger": false,
      "metar": "METAR LLBG 220650Z VRB02KT CAVOK 16/06 Q1015 NOSIG",
      "taf": "TAF LLBG 220501Z 2206/2306 VRB04KT CAVOK"
    },
    {
      "icao": "LMML",
      "alert": "OK",
      "vis_m": 9999,
      "fzfg": false,
      "metar_trigger": false,
      "taf_trigger": false,
      "metar": "METAR LMML 220645Z 30003KT 9999 FEW016 11/10 Q1010 NOSIG",
      "taf": "TAF LMML 220500Z 2206/2306 VRB05KT 9999 SCT022"
    },
    {
      "icao": "LOWW",
      "alert": "OK",
      "vis_m": 9000,
      "fzfg": false,
      "metar_trigger": false,
      "taf_trigger": false,
      "metar": "METAR LOWW 220650Z 14015KT 9000 FEW003 SCT004 BKN012 03/02 Q1018 TEMPO BKN005",
      "taf": "TAF LOWW 220515Z 2206/2312 14015KT 8000 OVC006 TX04/2223Z TN03/2206Z"
    },
    {
      "icao": "LPFR",
      "alert": "OK",
      "vis_m": 9999,
      "fzfg": false,
      "metar_trigger": false,
      "taf_trigger": false,
      "metar": "METAR LPFR 220630Z 02005KT 9999 FEW015 05/04 Q1013",
      "taf": "TAF LPFR 220500Z 2206/2306 VRB02KT 9999 FEW015"
    },
    {
      "icao": "LPPR",
      "alert": "OK",
      "vis_m": 9000,
      "fzfg": false,
      "metar_trigger": false,
      "taf_trigger": false,
      "metar": "METAR LPPR 220630Z 12004KT 040V170 9000 FEW036 07/06 Q1009",
      "taf": "TAF LPPR 220500Z 2206/2306 VRB02KT 9999 FEW015 SCT030"
    },
    {
      "icao": "LPPT",
      "alert": "OK",
      "vis_m": 9999,
      "fzfg": false,
      "metar_trigger": false,
      "taf_trigger": false,
      "metar": "METAR LPPT 220630Z VRB03KT 9999 -SHRA FEW018 FEW020TCU BKN045 07/07 Q1012 RESHRA",
      "taf": "TAF LPPT 220500Z 2206/2312 VRB05KT 9999 SCT030"
    },
    {
      "icao": "LQSA",
      "alert": "OK",
      "vis_m": 9999,
      "fzfg": false,
      "metar_trigger": false,
      "taf_trigger": false,
      "metar": "METAR LQSA 220630Z 14007KT 9999 OVC012 00/M01 Q1018 NOSIG",
      "taf": "TAF LQSA 220500Z 2206/2306 VRB02KT 9999 BKN012 TX06/2213Z TNM04/2305Z"
    },
    {
      "icao": "LQTZ",
      "alert": "OK",
      "vis_m": 7000,
      "fzfg": false,
      "metar_trigger": false,
      "taf_trigger": false,
      "metar": "METAR LQTZ 220630Z 26001KT 7000 OVC017 04/04 Q1018",
      "taf": "TAF LQTZ 220500Z 2206/2306 VRB02KT 6000 BKN015 TX05/2213Z TNM01/2305Z"
    },
    {
      "icao": "LRCL",
      "alert": "OK",
      "vis_m": 8000,
      "fzfg": false,
      "metar_trigger": false,
      "taf_trigger": false,
      "metar": "METAR LRCL 220630Z 13004KT 8000 OVC005 03/01 Q1021",
      "taf": "TAF LRCL 220500Z 2206/2215 VRB04KT 9999 OVC010"
    },
    {
      "icao": "LRCV",
      "alert": "OK",
      "vis_m": 2000,
      "fzfg": false,
      "metar_trigger": false,
      "taf_trigger": false,
      "metar": "METAR LRCV 220630Z 00000KT 2000 BR OVC005 04/03 Q1021",
      "taf": "TAF LRCV 220500Z 2206/2215 VRB04KT 3000 BR OVC005"
    },
    {
      "icao": "LRIA",
      "alert": "OK",
      "vis_m": 5000,
      "fzfg": false,
      "metar_trigger": false,
      "taf_trigger": false,
      "metar": "METAR LRIA 220630Z VRB02KT 5000 BR OVC006 03/03 Q1022",
      "taf": "TAF LRIA 220500Z 2206/2215 VRB04KT 5000 BR OVC005"
    },
    {
      "icao": "LROP",
      "alert": "OK",
      "vis_m": 2500,
      "fzfg": false,
      "metar_trigger": false,
      "taf_trigger": false,
      "metar": "METAR LROP 220630Z 07004KT 2500 BR BKN002 OVC003 03/03 Q1023 NOSIG",
      "taf": "TAF LROP 220500Z 2206/2306 07008KT 3000 -DZ BR BKN002 OVC010"
    },
    {
      "icao": "LRSB",
      "alert": "OK",
      "vis_m": 600,
      "fzfg": true,
      "metar_trigger": false,
      "taf_trigger": false,
      "metar": "METAR LRSB 220630Z 15003KT 0600 R27/2000D FZFG OVC002 M02/M02 Q1020",
      "taf": "TAF LRSB 220500Z 2206/2306 VRB04KT 0800 FZFG OVC002"
    },
    {
      "icao": "LRTR",
      "alert": "OK",
      "vis_m": 4000,
      "fzfg": false,
      "metar_trigger": false,
      "taf_trigger": false,
      "metar": "METAR LRTR 220630Z VRB02KT 4000 -DZ BR BKN003 OVC006 03/03 Q1021",
      "taf": "TAF LRTR 220500Z 2206/2306 VRB04KT 3000 BR OVC002"
    },
    {
      "icao": "LTAF",
      "alert": "OK",
      "vis_m": 9999,
      "fzfg": false,
      "metar_trigger": false,
      "taf_trigger": false,
      "metar": "METAR LTAF 220650Z 02006KT CAVOK 14/M00 Q1018 NOSIG RMK RWY23 04007KT 5AC100",
      "taf": "TAF LTAF 220440Z 2206/2306 05009KT CAVOK"
    },
    {
      "icao": "LTAI",
      "alert": "OK",
      "vis_m": 9999,
      "fzfg": false,
      "metar_trigger": false,
      "taf_trigger": false,
      "metar": "METAR LTAI 220650Z 35006KT 9999 BKN030 BKN080 13/09 Q1015 NOSIG RMK RWY18C 35003KT RWY36R 35005KT RWY18L VRB02KT",
      "taf": "TAF LTAI 220440Z 2206/2306 34009KT 9999 SCT030 BKN100"
    },
    {
      "icao": "LTFM",
      "alert": "OK",
      "vis_m": 9999,
      "fzfg": false,
      "metar_trigger": false,
      "taf_trigger": false,
      "metar": "METAR LTFM 220650Z 05017KT 9999 BKN012 BKN022 12/08 Q1018 NOSIG RMK RWY17L 05015KT RWY34L 04016KT RWY16R 05013KT RWY36 05016KT RWY18 06014KT",
      "taf": "TAF LTFM 220440Z 2206/2312 03017G27KT 9999 -SHRA BKN012 BKN022"
    },
    {
      "icao": "LUBL",
      "alert": "OK",
      "vis_m": null,
      "fzfg": false,
      "metar_trigger": false,
      "taf_trigger": false,
      "metar": "",
      "taf": ""
    },
    {
      "icao": "LUKK",
      "alert": "OK",
      "vis_m": 9999,
      "fzfg": false,
      "metar_trigger": false,
      "taf_trigger": false,
      "metar": "METAR LUKK 220630Z VRB03KT 9999 OVC010 02/02 Q1022 NOSIG",
      "taf": "TAF LUKK 220518Z 2206/2306 35005KT 5000 BR OVC005"
    },
    {
      "icao": "LWSK",
      "alert": "OK",
      "vis_m": 6000,
      "fzfg": false,
      "metar_trigger": false,
      "taf_trigger": false,
      "metar": "METAR LWSK 220650Z VRB01KT 6000 BKN004 OVC007 01/01 Q1020 NOSIG",
      "taf": "TAF LWSK 220510Z 2206/2306 VRB02KT 7000 OVC005"
    },
    {
      "icao": "LYBE",
      "alert": "OK",
      "vis_m": 6000,
      "fzfg": false,
      "metar_trigger": false,
      "taf_trigger": false,
      "metar": "METAR LYBE 220630Z 08006KT 6000 SCT007 OVC014 04/03 Q1020 NOSIG",
      "taf": "TAF LYBE 220500Z 2206/2306 11008KT 9999 BKN010 OVC020 TX08/2213Z TN01/2306Z"
    },
    {
      "icao": "LZIB",
      "alert": "OK",
      "vis_m": 9999,
      "fzfg": false,
      "metar_trigger": false,
      "taf_trigger": false,
      "metar": "METAR LZIB 220700Z 10011KT 9999 -DZ SCT008 OVC012 03/02 Q1019 NOSIG",
      "taf": "TAF LZIB 220515Z 2206/2306 12009KT 6000 SCT003 OVC011"
    },
    {
      "icao": "LZKZ",
      "alert": "OK",
      "vis_m": 8000,
      "fzfg": false,
      "metar_trigger": false,
      "taf_trigger": false,
      "metar": "METAR LZKZ 220700Z 36004KT 8000 OVC009 05/03 Q1020 TEMPO OVC010",
      "taf": ""
    },
    {
      "icao": "LZTT",
      "alert": "OK",
      "vis_m": 300,
      "fzfg": false,
      "metar_trigger": false,
      "taf_trigger": false,
      "metar": "METAR LZTT 220700Z VRB01KT 0300 R27/0700N FG OVC002 00/M00 Q1018 TEMPO 2000 BR BKN005",
      "taf": "TAF LZTT 220515Z 2206/2306 VRB02KT 4000 FEW003 BKN011"
    },
    {
      "icao": "OEJN",
      "alert": "OK",
      "vis_m": 9999,
      "fzfg": false,
      "metar_trigger": false,
      "taf_trigger": false,
      "metar": "METAR OEJN 220700Z VRB03KT 9999 FEW040 29/10 Q1013 NOSIG",
      "taf": "TAF OEJN 220500Z 2206/2312 VRB03KT 9999 FEW040"
    },
    {
      "icao": "OEMA",
      "alert": "OK",
      "vis_m": 9999,
      "fzfg": false,
      "metar_trigger": false,
      "taf_trigger": false,
      "metar": "METAR OEMA 220700Z 08008KT CAVOK 18/M02 Q1020 NOSIG",
      "taf": "TAF OEMA 220500Z 2206/2312 12010KT CAVOK"
    },
    {
      "icao": "OERK",
      "alert": "OK",
      "vis_m": 9999,
      "fzfg": false,
      "metar_trigger": false,
      "taf_trigger": false,
      "metar": "METAR OERK 220700Z 14006KT CAVOK 14/07 Q1024 NOSIG",
      "taf": "TAF OERK 220500Z 2206/2312 16010KT CAVOK"
    },
    {
      "icao": "OJAI",
      "alert": "OK",
      "vis_m": 5000,
      "fzfg": false,
      "metar_trigger": false,
      "taf_trigger": false,
      "metar": "METAR OJAI 220600Z 03003KT 5000 HZ NSC 06/01 Q1018 NOSIG",
      "taf": "TAF OJAI 220500Z 2206/2312 12010KT 5000 HZ NSC"
    },
    {
      "icao": "OKBK",
      "alert": "OK",
      "vis_m": null,
      "fzfg": false,
      "metar_trigger": false,
      "taf_trigger": false,
      "metar": "",
      "taf": ""
    },
    {
      "icao": "OMAA",
      "alert": "OK",
      "vis_m": 9999,
      "fzfg": false,
      "metar_trigger": false,
      "taf_trigger": false,
      "metar": "METAR OMAA 220700Z 04009KT CAVOK 22/07 Q1021 NOSIG",
      "taf": "TAF OMAA 220500Z 2206/2312 07007KT 8000 NSC"
    },
    {
      "icao": "UAAA",
      "alert": "OK",
      "vis_m": 4000,
      "fzfg": false,
      "metar_trigger": false,
      "taf_trigger": false,
      "metar": "METAR UAAA 220630Z 36002MPS 330V070 4000 BR SCT200 M02/M03 Q1030 NOSIG",
      "taf": "TAF UAAA 220503Z 2206/2306 04003G08MPS 3100 BR FU SCT030 BKN100 TXM00/2207Z TNM06/2301Z"
    },
    {
      "icao": "UCFM",
      "alert": "CRITICAL",
      "vis_m": 100,
      "fzfg": true,
      "metar_trigger": true,
      "taf_trigger": false,
      "metar": "METAR UCFM 220630Z VRB01MPS 0100 R07/0150N FZFG BKN001 M04/M04 Q1028 NOSIG",
      "taf": ""
    },
    {
      "icao": "UDYZ",
      "alert": "OK",
      "vis_m": 1900,
      "fzfg": false,
      "metar_trigger": false,
      "taf_trigger": false,
      "metar": "METAR UDYZ 220630Z 00000KT 1900 BR NSC M01/M03 Q1024 NOSIG",
      "taf": "TAF UDYZ 220500Z 2206/2306 VRB04KT 6000 SCT040"
    },
    {
      "icao": "UGTB",
      "alert": "OK",
      "vis_m": 9999,
      "fzfg": false,
      "metar_trigger": false,
      "taf_trigger": false,
      "metar": "METAR UGTB 220630Z 31012KT CAVOK 03/M02 Q1019 NOSIG",
      "taf": "TAF UGTB 220500Z 2206/2306 31015KT CAVOK TX10/2212Z TN02/2303Z"
    },
    {
      "icao": "UKKK",
      "alert": "OK",
      "vis_m": null,
      "fzfg": false,
      "metar_trigger": false,
      "taf_trigger": false,
      "metar": "",
      "taf": ""
    },
    {
      "icao": "UTTT",
      "alert": "OK",
      "vis_m": null,
      "fzfg": false,
      "metar_trigger": false,
      "taf_trigger": false,
      "metar": "",
      "taf": ""
    }
  ]
}