{
  "ts_utc": "2025-12-29T09:47:43Z",
  "threshold_m": 150,
  "source": "stations_override.txt (ICAO list) + aviationweather.gov (METAR/TAF raw)",
  "station_count": 159,
  "stations": [
    {
      "icao": "BIKF",
      "alert": "OK",
      "vis_m": 500,
      "fzfg": false,
      "metar_trigger": false,
      "taf_trigger": false,
      "metar": "METAR BIKF 290930Z 16002KT 0500 R19/1000N FG BKN003 02/02 Q1039",
      "taf": "TAF BIKF 290733Z 2909/3009 29005KT 9999 SCT015 BKN025 TX06/2918Z TN03/3002Z"
    },
    {
      "icao": "BKPR",
      "alert": "OK",
      "vis_m": 9999,
      "fzfg": false,
      "metar_trigger": false,
      "taf_trigger": false,
      "metar": "METAR BKPR 290930Z VRB01KT CAVOK 01/M05 Q1021 NOSIG",
      "taf": "TAF BKPR 290530Z 2906/3006 26006KT CAVOK"
    },
    {
      "icao": "EBCI",
      "alert": "OK",
      "vis_m": 4500,
      "fzfg": false,
      "metar_trigger": false,
      "taf_trigger": false,
      "metar": "METAR EBCI 290920Z 08004KT 040V100 4500 BR BKN012 M01/M01 Q1027 BECMG 6000 NSW BKN016",
      "taf": ""
    },
    {
      "icao": "EDDB",
      "alert": "OK",
      "vis_m": 9999,
      "fzfg": false,
      "metar_trigger": false,
      "taf_trigger": false,
      "metar": "METAR EDDB 290920Z AUTO 28008KT 9999 SCT011 BKN021 03/01 Q1018 NOSIG",
      "taf": ""
    },
    {
      "icao": "EDDH",
      "alert": "OK",
      "vis_m": 9999,
      "fzfg": false,
      "metar_trigger": false,
      "taf_trigger": false,
      "metar": "METAR EDDH 290920Z AUTO 28008KT 9999 SCT020 OVC027 06/04 Q1020 NOSIG",
      "taf": "TAF EDDH 290500Z 2906/3012 30010KT 9999 BKN020"
    },
    {
      "icao": "EDDK",
      "alert": "OK",
      "vis_m": 9999,
      "fzfg": false,
      "metar_trigger": false,
      "taf_trigger": false,
      "metar": "METAR EDDK 290920Z AUTO VRB02KT 9999 FEW004 OVC017 M03/M04 Q1026 NOSIG",
      "taf": "TAF EDDK 290500Z 2906/3012 30004KT 9999 SCT004 BKN015"
    },
    {
      "icao": "EDDN",
      "alert": "OK",
      "vis_m": 9999,
      "fzfg": false,
      "metar_trigger": false,
      "taf_trigger": false,
      "metar": "METAR EDDN 290920Z AUTO 11002KT CAVOK M05/M08 Q1023 NOSIG",
      "taf": "TAF EDDN 290500Z 2906/3006 11004KT CAVOK"
    },
    {
      "icao": "EDDS",
      "alert": "OK",
      "vis_m": 9999,
      "fzfg": false,
      "metar_trigger": false,
      "taf_trigger": false,
      "metar": "METAR EDDS 290920Z AUTO VRB02KT CAVOK M05/M07 Q1022 TEMPO 3000 BR",
      "taf": "TAF EDDS 290500Z 2906/3006 VRB03KT CAVOK"
    },
    {
      "icao": "EDFH",
      "alert": "OK",
      "vis_m": 9999,
      "fzfg": false,
      "metar_trigger": false,
      "taf_trigger": false,
      "metar": "METAR EDFH 290920Z 01008KT 340V040 CAVOK M03/M05 Q1023",
      "taf": "TAF EDFH 290500Z 2906/3006 07007KT CAVOK"
    },
    {
      "icao": "EDJA",
      "alert": "OK",
      "vis_m": 4100,
      "fzfg": false,
      "metar_trigger": false,
      "taf_trigger": false,
      "metar": "METAR EDJA 290920Z 20007KT 4100 BR OVC002 M05/M06 Q1021",
      "taf": ""
    },
    {
      "icao": "EDLW",
      "alert": "OK",
      "vis_m": 9999,
      "fzfg": false,
      "metar_trigger": false,
      "taf_trigger": false,
      "metar": "METAR EDLW 290920Z 23003KT 210V270 9999 OVC020 M00/M00 Q1025",
      "taf": "TAF EDLW 290500Z 2906/3006 16005KT 9999 OVC020"
    },
    {
      "icao": "EDNY",
      "alert": "OK",
      "vis_m": 9000,
      "fzfg": false,
      "metar_trigger": false,
      "taf_trigger": false,
      "metar": "METAR EDNY 290920Z 33003KT 280V030 9000 OVC008 M01/M03 Q1023",
      "taf": "TAF EDNY 290800Z 2909/2918 VRB02KT 8000 OVC008"
    },
    {
      "icao": "EDSB",
      "alert": "OK",
      "vis_m": 700,
      "fzfg": true,
      "metar_trigger": false,
      "taf_trigger": false,
      "metar": "METAR EDSB 290920Z 19005KT 160V220 0700 R21/0900D FZFG BKN001 OVC005 M04/M04 Q1025",
      "taf": "TAF EDSB 290500Z 2906/3006 VRB03KT CAVOK"
    },
    {
      "icao": "EETN",
      "alert": "OK",
      "vis_m": 9999,
      "fzfg": false,
      "metar_trigger": false,
      "taf_trigger": false,
      "metar": "METAR EETN 290920Z 32013G23KT 300V360 9999 BKN026 00/M05 Q0994 TEMPO 31018G30KT",
      "taf": "TAF EETN 290530Z 2906/3006 32015G25KT 9999 SCT030"
    },
    {
      "icao": "EFTU",
      "alert": "OK",
      "vis_m": 9999,
      "fzfg": false,
      "metar_trigger": false,
      "taf_trigger": false,
      "metar": "METAR EFTU 290920Z AUTO 32009KT 290V010 CAVOK M03/M06 Q0997",
      "taf": "TAF EFTU 290831Z 2909/3009 33012KT 9999 BKN025"
    },
    {
      "icao": "EGBB",
      "alert": "OK",
      "vis_m": 9999,
      "fzfg": false,
      "metar_trigger": false,
      "taf_trigger": false,
      "metar": "METAR EGBB 290920Z 07008KT 050V110 9999 OVC019 05/01 Q1030",
      "taf": "TAF EGBB 290459Z 2906/3006 05007KT 9999 BKN018"
    },
    {
      "icao": "EGGP",
      "alert": "OK",
      "vis_m": 9999,
      "fzfg": false,
      "metar_trigger": false,
      "taf_trigger": false,
      "metar": "METAR EGGP 290920Z 09006KT 9999 BKN020 BKN023 05/00 Q1032",
      "taf": "TAF EGGP 290454Z 2906/3006 07007KT 9999 BKN020"
    },
    {
      "icao": "EGGW",
      "alert": "OK",
      "vis_m": 9999,
      "fzfg": false,
      "metar_trigger": false,
      "taf_trigger": false,
      "metar": "METAR EGGW 290920Z AUTO 06010KT 020V090 9999 OVC017 04/01 Q1029",
      "taf": "TAF EGGW 290452Z 2906/3006 03010KT 9999 SCT016"
    },
    {
      "icao": "EGKK",
      "alert": "OK",
      "vis_m": 9999,
      "fzfg": false,
      "metar_trigger": false,
      "taf_trigger": false,
      "metar": "METAR EGKK 290920Z 03009KT 9999 BKN023 05/02 Q1029",
      "taf": "TAF EGKK 290451Z 2906/3012 03006KT 9999 SCT020"
    },
    {
      "icao": "EGNM",
      "alert": "OK",
      "vis_m": 9999,
      "fzfg": false,
      "metar_trigger": false,
      "taf_trigger": false,
      "metar": "METAR EGNM 290920Z 05003KT 010V090 9999 OVC018 04/01 Q1031",
      "taf": "TAF EGNM 290455Z 2906/3006 03005KT 9999 BKN018"
    },
    {
      "icao": "EGPD",
      "alert": "OK",
      "vis_m": 6000,
      "fzfg": false,
      "metar_trigger": false,
      "taf_trigger": false,
      "metar": "METAR EGPD 290920Z 30011KT 6000 VCSH FEW008 SCT012 BKN028 04/03 Q1032 TEMPO BKN008",
      "taf": ""
    },
    {
      "icao": "EGPF",
      "alert": "OK",
      "vis_m": 9999,
      "fzfg": false,
      "metar_trigger": false,
      "taf_trigger": false,
      "metar": "METAR EGPF 290920Z AUTO 23004KT 9999 OVC027 01/00 Q1034",
      "taf": "TAF EGPF 290454Z 2906/3006 05004KT 9999 BKN018"
    },
    {
      "icao": "EHBK",
      "alert": "OK",
      "vis_m": 2900,
      "fzfg": false,
      "metar_trigger": false,
      "taf_trigger": false,
      "metar": "METAR EHBK 290925Z AUTO 31002KT 2900 BR OVC014/// M02/M02 Q1026 BECMG 6000 NSW BKN016",
      "taf": ""
    },
    {
      "icao": "EHEH",
      "alert": "OK",
      "vis_m": 6000,
      "fzfg": false,
      "metar_trigger": false,
      "taf_trigger": false,
      "metar": "METAR EHEH 290925Z AUTO 24002KT 6000 BR OVC020 M00/M01 Q1027 WHT NOSIG RMK TREND REMOTE BY EHWX",
      "taf": "TAF EHEH 290542Z 2906/3012 27003KT 4000 BR FEW001 BKN018"
    },
    {
      "icao": "EKBI",
      "alert": "OK",
      "vis_m": 9999,
      "fzfg": false,
      "metar_trigger": false,
      "taf_trigger": false,
      "metar": "METAR EKBI 290920Z AUTO 30006KT 9999 NCD 04/03 Q1019",
      "taf": "TAF EKBI 290829Z 2909/3009 31010KT 9999 SCT025"
    },
    {
      "icao": "EKCH",
      "alert": "OK",
      "vis_m": 9999,
      "fzfg": false,
      "metar_trigger": false,
      "taf_trigger": false,
      "metar": "METAR EKCH 290920Z AUTO 30009KT 9999 NCD 03/02 Q1016 NOSIG",
      "taf": "TAF EKCH 290827Z 2909/3009 29010KT CAVOK"
    },
    {
      "icao": "ENAL",
      "alert": "OK",
      "vis_m": 9999,
      "fzfg": false,
      "metar_trigger": false,
      "taf_trigger": false,
      "metar": "METAR ENAL 290920Z 33010KT 290V010 9999 VCSH FEW010 SCT024 BKN060 M01/M03 Q1025",
      "taf": "TAF ENAL 290800Z 2909/2918 35015KT 9999 FEW020CB BKN035"
    },
    {
      "icao": "ENBR",
      "alert": "OK",
      "vis_m": 9999,
      "fzfg": false,
      "metar_trigger": false,
      "taf_trigger": false,
      "metar": "METAR ENBR 290920Z 34011KT 9999 VCSH SCT041 01/M02 Q1025 TEMPO 33018G28KT RMK WIND 1200FT 34026KT",
      "taf": ""
    },
    {
      "icao": "ENGM",
      "alert": "OK",
      "vis_m": 9999,
      "fzfg": false,
      "metar_trigger": false,
      "taf_trigger": false,
      "metar": "METAR ENGM 290920Z 36006KT CAVOK M01/M10 Q1017 NOSIG",
      "taf": "TAF ENGM 290500Z 2906/3006 34008KT CAVOK"
    },
    {
      "icao": "ENHD",
      "alert": "OK",
      "vis_m": 9999,
      "fzfg": false,
      "metar_trigger": false,
      "taf_trigger": false,
      "metar": "METAR ENHD 290920Z 36023KT 9999 SCT049 04/M03 Q1024",
      "taf": "TAF ENHD 290800Z 2909/2918 35025KT 9999 -SHRA FEW015 SCT030"
    },
    {
      "icao": "ENTC",
      "alert": "OK",
      "vis_m": 9999,
      "fzfg": false,
      "metar_trigger": false,
      "taf_trigger": false,
      "metar": "METAR ENTC 290920Z 36012KT 9999 -SHSN BKN022 M03/M06 Q1005 TEMPO 0700 SHSN VV006 RMK WIND 2600FT 35036KT",
      "taf": "TAF ENTC 290500Z 2906/3006 36012KT 9999 -SHSN SCT020CB BKN030"
    },
    {
      "icao": "ENTO",
      "alert": "OK",
      "vis_m": 9999,
      "fzfg": false,
      "metar_trigger": false,
      "taf_trigger": false,
      "metar": "METAR ENTO 290920Z VRB02KT CAVOK 01/M08 Q1018 NOSIG",
      "taf": "TAF ENTO 290500Z 2906/3006 28005KT CAVOK"
    },
    {
      "icao": "ENVA",
      "alert": "OK",
      "vis_m": 5000,
      "fzfg": false,
      "metar_trigger": false,
      "taf_trigger": false,
      "metar": "METAR ENVA 290920Z 29024KT 5000 -SHSN VV016 M00/M02 Q1015 TEMPO 30025G35KT 0600 SHSN VV007 RMK WIND 670FT 30030G44KT",
      "taf": "TAF ENVA 290500Z 2906/3006 29018KT 9999 FEW015 BKN025"
    },
    {
      "icao": "ENZV",
      "alert": "OK",
      "vis_m": 9999,
      "fzfg": false,
      "metar_trigger": false,
      "taf_trigger": false,
      "metar": "METAR ENZV 290920Z 35017KT 9999 FEW048 04/M02 Q1024 TEMPO 35020G30KT",
      "taf": ""
    },
    {
      "icao": "EPGD",
      "alert": "OK",
      "vis_m": 9999,
      "fzfg": false,
      "metar_trigger": false,
      "taf_trigger": false,
      "metar": "METAR EPGD 290930Z 30011KT 9999 FEW023 SCT031 03/01 Q1009",
      "taf": "TAF EPGD 290530Z 2906/3006 29012KT 9999 BKN020"
    },
    {
      "icao": "EPKK",
      "alert": "OK",
      "vis_m": 9999,
      "fzfg": false,
      "metar_trigger": false,
      "taf_trigger": false,
      "metar": "METAR EPKK 290930Z 26011KT 9999 OVC014 M01/M05 Q1015",
      "taf": "TAF EPKK 290830Z 2909/3009 25012KT 9999 BKN016"
    },
    {
      "icao": "EPKT",
      "alert": "OK",
      "vis_m": 9999,
      "fzfg": false,
      "metar_trigger": false,
      "taf_trigger": false,
      "metar": "METAR EPKT 290930Z 26013KT 9999 -SN BKN009 M02/M03 Q1015",
      "taf": "TAF EPKT 290530Z 2906/3006 26012KT 9999 BKN009"
    },
    {
      "icao": "EPLB",
      "alert": "OK",
      "vis_m": 9999,
      "fzfg": false,
      "metar_trigger": false,
      "taf_trigger": false,
      "metar": "METAR EPLB 290930Z 27010KT 9999 OVC008 M01/M02 Q1010",
      "taf": "TAF EPLB 290530Z 2906/3006 29014KT 9999 BKN030"
    },
    {
      "icao": "EPMO",
      "alert": "OK",
      "vis_m": 6000,
      "fzfg": false,
      "metar_trigger": false,
      "taf_trigger": false,
      "metar": "METAR EPMO 290930Z 25012KT 6000 BKN007 BKN016 00/M00 Q1010",
      "taf": "TAF EPMO 290530Z 2906/3006 27012KT 9999 OVC007"
    },
    {
      "icao": "EPPO",
      "alert": "OK",
      "vis_m": 9999,
      "fzfg": false,
      "metar_trigger": false,
      "taf_trigger": false,
      "metar": "METAR EPPO 290930Z 27010KT 9999 OVC020 02/M00 Q1014",
      "taf": ""
    },
    {
      "icao": "EPRA",
      "alert": "OK",
      "vis_m": 9999,
      "fzfg": false,
      "metar_trigger": false,
      "taf_trigger": false,
      "metar": "METAR EPRA 290930Z 29013KT 9999 OVC008 M01/M03 Q1011",
      "taf": "TAF EPRA 290830Z 2909/2918 28012KT 9999 OVC010"
    },
    {
      "icao": "EPRZ",
      "alert": "OK",
      "vis_m": 9999,
      "fzfg": false,
      "metar_trigger": false,
      "taf_trigger": false,
      "metar": "METAR EPRZ 290930Z 27015KT 9999 OVC015 M01/M04 Q1013",
      "taf": "TAF EPRZ 290530Z 2906/3006 27014KT 9999 BKN015"
    },
    {
      "icao": "EPSC",
      "alert": "OK",
      "vis_m": 9999,
      "fzfg": false,
      "metar_trigger": false,
      "taf_trigger": false,
      "metar": "METAR EPSC 290930Z 28010KT 9999 BKN007 03/01 Q1015",
      "taf": "TAF EPSC 290530Z 2906/3006 29010KT 9999 SCT012 BKN018"
    },
    {
      "icao": "EPSY",
      "alert": "OK",
      "vis_m": 9999,
      "fzfg": false,
      "metar_trigger": false,
      "taf_trigger": false,
      "metar": "METAR EPSY 290930Z 26007KT 230V300 9999 SCT008 BKN017 OVC031 01/M01 Q1007",
      "taf": "TAF EPSY 290830Z 2909/2918 27010KT 9999 SCT009 BKN017"
    },
    {
      "icao": "EPWA",
      "alert": "OK",
      "vis_m": 9999,
      "fzfg": false,
      "metar_trigger": false,
      "taf_trigger": false,
      "metar": "METAR EPWA 290930Z 27013KT 9999 OVC007 00/M01 Q1010 NOSIG",
      "taf": "TAF EPWA 290830Z 2909/3009 28011KT 9999 OVC008"
    },
    {
      "icao": "EPWR",
      "alert": "OK",
      "vis_m": 7000,
      "fzfg": false,
      "metar_trigger": false,
      "taf_trigger": false,
      "metar": "METAR EPWR 290930Z 28014KT 7000 -SN DRSN BKN005 BKN011 00/M00 Q1017",
      "taf": "TAF EPWR 290830Z 2909/3009 29012KT 9999 BKN012"
    },
    {
      "icao": "ESGG",
      "alert": "OK",
      "vis_m": 9999,
      "fzfg": false,
      "metar_trigger": false,
      "taf_trigger": false,
      "metar": "METAR ESGG 290920Z 03006KT CAVOK M01/M04 Q1015",
      "taf": "TAF ESGG 290830Z 2909/3009 35009KT CAVOK"
    },
    {
      "icao": "ESKN",
      "alert": "OK",
      "vis_m": 9999,
      "fzfg": false,
      "metar_trigger": false,
      "taf_trigger": false,
      "metar": "METAR ESKN 290920Z 31016G28KT CAVOK M00/M10 Q1009",
      "taf": "TAF ESKN 290830Z 2909/3009 32016G26KT CAVOK"
    },
    {
      "icao": "ESMS",
      "alert": "OK",
      "vis_m": 6000,
      "fzfg": false,
      "metar_trigger": false,
      "taf_trigger": false,
      "metar": "METAR ESMS 290920Z 33005KT 6000 SCT005 01/01 Q1015",
      "taf": "TAF ESMS 290827Z 2909/3009 31010KT CAVOK"
    },
    {
      "icao": "ESSA",
      "alert": "OK",
      "vis_m": 9999,
      "fzfg": false,
      "metar_trigger": false,
      "taf_trigger": false,
      "metar": "METAR ESSA 290920Z 30016KT CAVOK M02/M13 Q1007 NOSIG",
      "taf": "TAF ESSA 290830Z 2909/3009 32015G25KT 9999 SCT040"
    },
    {
      "icao": "EYKA",
      "alert": "OK",
      "vis_m": 9999,
      "fzfg": false,
      "metar_trigger": false,
      "taf_trigger": false,
      "metar": "METAR EYKA 290920Z 26011KT 9999 -SHRA SCT015CB OVC023 02/M00 Q1001",
      "taf": "TAF EYKA 290500Z 2906/3006 28010KT 6000 BKN025"
    },
    {
      "icao": "EYPA",
      "alert": "OK",
      "vis_m": 9999,
      "fzfg": false,
      "metar_trigger": false,
      "taf_trigger": false,
      "metar": "METAR EYPA 290920Z 35009G23KT 280V030 9999 VCSH FEW020CB SCT040 BKN048 04/M02 Q1004",
      "taf": ""
    },
    {
      "icao": "EYVI",
      "alert": "OK",
      "vis_m": 9999,
      "fzfg": false,
      "metar_trigger": false,
      "taf_trigger": false,
      "metar": "METAR EYVI 290920Z 26010KT 9999 OVC007 01/M01 Q1000 NOSIG",
      "taf": ""
    },
    {
      "icao": "GCFV",
      "alert": "OK",
      "vis_m": 9999,
      "fzfg": false,
      "metar_trigger": false,
      "taf_trigger": false,
      "metar": "METAR GCFV 290930Z 27003KT 9999 FEW045 18/11 Q1021",
      "taf": "TAF GCFV 290800Z 2909/3009 12005KT 9999 SCT030 TX21/2914Z TN14/3006Z"
    },
    {
      "icao": "GCLP",
      "alert": "OK",
      "vis_m": 9999,
      "fzfg": false,
      "metar_trigger": false,
      "taf_trigger": false,
      "metar": "METAR GCLP 290930Z 28003KT 230V350 9999 FEW040 19/12 Q1021 NOSIG",
      "taf": "TAF GCLP 290800Z 2909/3009 16006KT 9999 BKN030 TX21/2914Z TN14/3006Z"
    },
    {
      "icao": "GCTS",
      "alert": "OK",
      "vis_m": 9999,
      "fzfg": false,
      "metar_trigger": false,
      "taf_trigger": false,
      "metar": "METAR GCTS 290930Z 04003KT 010V080 9999 FEW030 19/12 Q1021 NOSIG",
      "taf": "TAF GCTS 290800Z 2909/3009 16005KT 9999 SCT035 TX23/2914Z TN16/3006Z"
    },
    {
      "icao": "GMAD",
      "alert": "OK",
      "vis_m": 9999,
      "fzfg": false,
      "metar_trigger": false,
      "taf_trigger": false,
      "metar": "METAR GMAD 290930Z 07006KT 9999 FEW020 SCT200 12/12 Q1020 NOSIG",
      "taf": "TAF GMAD 290500Z 2906/3012 07004KT 8000 SCT020 SCT080"
    },
    {
      "icao": "GMMN",
      "alert": "OK",
      "vis_m": 9999,
      "fzfg": false,
      "metar_trigger": false,
      "taf_trigger": false,
      "metar": "METAR GMMN 290930Z 22011KT 9999 BKN020 12/11 Q1020 NOSIG",
      "taf": "TAF GMMN 290500Z 2906/3012 22008KT 9999 SCT004 BKN023"
    },
    {
      "icao": "GMMX",
      "alert": "OK",
      "vis_m": 9999,
      "fzfg": false,
      "metar_trigger": false,
      "taf_trigger": false,
      "metar": "METAR GMMX 290930Z VRB02KT 9999 SCT030 SCT090 11/08 Q1021 NOSIG",
      "taf": "TAF GMMX 290500Z 2906/3012 20006KT 8000 SCT026 SCT090"
    },
    {
      "icao": "HEGN",
      "alert": "OK",
      "vis_m": 9999,
      "fzfg": false,
      "metar_trigger": false,
      "taf_trigger": false,
      "metar": "METAR HEGN 290900Z 32009KT CAVOK 20/09 Q1018 NOSIG",
      "taf": "TAF HEGN 290500Z 2906/3012 35014KT CAVOK"
    },
    {
      "icao": "HEMA",
      "alert": "OK",
      "vis_m": 9999,
      "fzfg": false,
      "metar_trigger": false,
      "taf_trigger": false,
      "metar": "METAR HEMA 290900Z 31007KT CAVOK 23/03 Q1018 NOSIG",
      "taf": "TAF HEMA 290500Z 2906/3012 36014KT CAVOK"
    },
    {
      "icao": "HESH",
      "alert": "OK",
      "vis_m": 9999,
      "fzfg": false,
      "metar_trigger": false,
      "taf_trigger": false,
      "metar": "METAR HESH 290900Z 04005KT CAVOK 23/10 Q1017 NOSIG",
      "taf": "TAF HESH 290500Z 2906/3012 02012KT CAVOK"
    },
    {
      "icao": "HESX",
      "alert": "OK",
      "vis_m": 9999,
      "fzfg": false,
      "metar_trigger": false,
      "taf_trigger": false,
      "metar": "METAR HESX 290900Z 28017KT 9999 FEW030 18/07 Q1017 NOSIG",
      "taf": "TAF HESX 290501Z 2906/3012 22010KT CAVOK"
    },
    {
      "icao": "LATI",
      "alert": "OK",
      "vis_m": null,
      "fzfg": false,
      "metar_trigger": false,
      "taf_trigger": false,
      "metar": "",
      "taf": "TAF LATI 290500Z 2906/3006 VRB05KT CAVOK TX14/2912Z TNM03/3005Z"
    },
    {
      "icao": "LBPD",
      "alert": "OK",
      "vis_m": 9999,
      "fzfg": false,
      "metar_trigger": false,
      "taf_trigger": false,
      "metar": "METAR LBPD 290930Z AUTO 28023KT 9999 NCD 08/M08 Q1016 NOSIG",
      "taf": "TAF LBPD 290500Z 2906/3006 28020G32KT CAVOK"
    },
    {
      "icao": "LBSF",
      "alert": "OK",
      "vis_m": 9999,
      "fzfg": false,
      "metar_trigger": false,
      "taf_trigger": false,
      "metar": "METAR LBSF 290930Z 29015KT CAVOK 01/M07 Q1019 NOSIG",
      "taf": "TAF LBSF 290500Z 2906/3006 29014KT 9999 SCT025"
    },
    {
      "icao": "LBWN",
      "alert": "OK",
      "vis_m": 9999,
      "fzfg": false,
      "metar_trigger": false,
      "taf_trigger": false,
      "metar": "METAR LBWN 290930Z 27016KT 9999 FEW026 04/M02 Q1015 NOSIG",
      "taf": "TAF LBWN 290500Z 2906/3006 27016KT 9999 SCT045"
    },
    {
      "icao": "LCLK",
      "alert": "OK",
      "vis_m": 9999,
      "fzfg": false,
      "metar_trigger": false,
      "taf_trigger": false,
      "metar": "METAR LCLK 290930Z 03011KT 9999 FEW025 16/06 Q1010 NOSIG",
      "taf": "TAF LCLK 290530Z 2906/3006 36012KT 9999 FEW030"
    },
    {
      "icao": "LCPH",
      "alert": "OK",
      "vis_m": 9999,
      "fzfg": false,
      "metar_trigger": false,
      "taf_trigger": false,
      "metar": "METAR LCPH 290930Z 35015KT 9999 FEW025 17/04 Q1010 NOSIG",
      "taf": "TAF LCPH 290530Z 2906/3006 33017KT 9999 FEW030"
    },
    {
      "icao": "LEAL",
      "alert": "OK",
      "vis_m": 9999,
      "fzfg": false,
      "metar_trigger": false,
      "taf_trigger": false,
      "metar": "METAR LEAL 290930Z 32004KT 290V020 9999 FEW028 14/09 Q1019 NOSIG",
      "taf": "TAF LEAL 290500Z 2906/3006 02006KT 9999 BKN030 TX16/2913Z TN08/2906Z"
    },
    {
      "icao": "LEBB",
      "alert": "OK",
      "vis_m": 9999,
      "fzfg": false,
      "metar_trigger": false,
      "taf_trigger": false,
      "metar": "METAR LEBB 290930Z 08004KT 060V120 CAVOK 09/07 Q1021 NOSIG",
      "taf": "TAF LEBB 290500Z 2906/3006 11008KT 9999 FEW040 TX15/2914Z TN04/2908Z"
    },
    {
      "icao": "LEBL",
      "alert": "OK",
      "vis_m": 9999,
      "fzfg": false,
      "metar_trigger": false,
      "taf_trigger": false,
      "metar": "METAR LEBL 290930Z 33005KT 9999 SCT018 SCT023 12/10 Q1020 NOSIG",
      "taf": "TAF LEBL 290500Z 2906/3006 34006KT 9999 SCT025 TX15/2912Z TN08/2907Z"
    },
    {
      "icao": "LECH",
      "alert": "OK",
      "vis_m": 9999,
      "fzfg": false,
      "metar_trigger": false,
      "taf_trigger": false,
      "metar": "METAR LECH 290930Z AUTO 03005KT 9999 -RA BKN070 08/07 Q1020",
      "taf": ""
    },
    {
      "icao": "LEMD",
      "alert": "OK",
      "vis_m": 9999,
      "fzfg": false,
      "metar_trigger": false,
      "taf_trigger": false,
      "metar": "METAR LEMD 290930Z 01004KT 330V090 9999 BKN050 07/04 Q1020 NOSIG",
      "taf": "TAF LEMD 290500Z 2906/3012 VRB04KT 9999 SCT040 TX11/2915Z TNM01/3007Z"
    },
    {
      "icao": "LEMG",
      "alert": "OK",
      "vis_m": 9999,
      "fzfg": false,
      "metar_trigger": false,
      "taf_trigger": false,
      "metar": "METAR LEMG 290930Z 30009KT 9999 FEW030 09/08 Q1019 NOSIG",
      "taf": "TAF LEMG 290500Z 2906/3006 29006KT CAVOK TX16/2914Z TN09/2906Z"
    },
    {
      "icao": "LEVC",
      "alert": "OK",
      "vis_m": 9999,
      "fzfg": false,
      "metar_trigger": false,
      "taf_trigger": false,
      "metar": "METAR LEVC 290930Z 27003KT CAVOK 09/07 Q1021 NOSIG",
      "taf": "TAF LEVC 290500Z 2906/3006 31006KT 9999 SCT050 TX15/2913Z TN06/2906Z"
    },
    {
      "icao": "LEXJ",
      "alert": "OK",
      "vis_m": 9999,
      "fzfg": false,
      "metar_trigger": false,
      "taf_trigger": false,
      "metar": "METAR LEXJ 290930Z VRB02KT CAVOK 07/06 Q1020",
      "taf": ""
    },
    {
      "icao": "LEZG",
      "alert": "OK",
      "vis_m": 100,
      "fzfg": false,
      "metar_trigger": false,
      "taf_trigger": false,
      "metar": "METAR LEZG 290930Z 00000KT 0100 R30R/0400N R12R/0400N R30L/0250N R12L/0350N FG VV001 06/06 Q1021 NOSIG",
      "taf": ""
    },
    {
      "icao": "LEZL",
      "alert": "OK",
      "vis_m": 9999,
      "fzfg": false,
      "metar_trigger": false,
      "taf_trigger": false,
      "metar": "METAR LEZL 290930Z 05004KT CAVOK 10/08 Q1019 NOSIG",
      "taf": "TAF LEZL 290800Z 2909/3009 03005KT CAVOK TX16/2915Z TN06/3006Z"
    },
    {
      "icao": "LFBD",
      "alert": "OK",
      "vis_m": 9000,
      "fzfg": false,
      "metar_trigger": false,
      "taf_trigger": false,
      "metar": "METAR LFBD 290930Z AUTO 04007KT 9000 NSC 02/00 Q1022 NOSIG",
      "taf": "TAF LFBD 290500Z 2906/3012 06005KT CAVOK TX11/2913Z TN00/2906Z"
    },
    {
      "icao": "LFLL",
      "alert": "OK",
      "vis_m": 6000,
      "fzfg": false,
      "metar_trigger": false,
      "taf_trigger": false,
      "metar": "METAR LFLL 290930Z 12003KT 070V160 6000 OVC006 M00/M02 Q1023 NOSIG",
      "taf": "TAF LFLL 290500Z 2906/3012 VRB03KT 7000 OVC008"
    },
    {
      "icao": "LFLS",
      "alert": "OK",
      "vis_m": 6000,
      "fzfg": false,
      "metar_trigger": false,
      "taf_trigger": false,
      "metar": "METAR LFLS 290930Z AUTO 10006KT 6000 FEW005 M01/M02 Q1022",
      "taf": ""
    },
    {
      "icao": "LFMN",
      "alert": "OK",
      "vis_m": 9999,
      "fzfg": false,
      "metar_trigger": false,
      "taf_trigger": false,
      "metar": "METAR LFMN 290930Z 32014KT CAVOK 09/M03 Q1021 NOSIG",
      "taf": "TAF LFMN 290800Z 2909/3015 34012KT CAVOK"
    },
    {
      "icao": "LFOB",
      "alert": "OK",
      "vis_m": 6000,
      "fzfg": false,
      "metar_trigger": false,
      "taf_trigger": false,
      "metar": "METAR LFOB 290930Z AUTO 02013KT 6000 NSC M02/M03 Q1026",
      "taf": ""
    },
    {
      "icao": "LFPO",
      "alert": "OK",
      "vis_m": 9999,
      "fzfg": false,
      "metar_trigger": false,
      "taf_trigger": false,
      "metar": "METAR LFPO 290938Z 03006KT CAVOK M00/M04 Q1025 NOSIG",
      "taf": "TAF LFPO 290500Z 2906/3012 01005KT CAVOK"
    },
    {
      "icao": "LFSB",
      "alert": "OK",
      "vis_m": 6000,
      "fzfg": false,
      "metar_trigger": false,
      "taf_trigger": false,
      "metar": "METAR LFSB 290930Z AUTO 32002KT 6000 OVC015 M05/M05 Q1023 TEMPO 4000 BR BKN003",
      "taf": ""
    },
    {
      "icao": "LGAV",
      "alert": "OK",
      "vis_m": 9999,
      "fzfg": false,
      "metar_trigger": false,
      "taf_trigger": false,
      "metar": "METAR LGAV 290920Z VRB01KT 9999 FEW025 12/M00 Q1019 NOSIG",
      "taf": "TAF LGAV 290500Z 2906/3006 VRB05KT 9999 FEW020"
    },
    {
      "icao": "LGTS",
      "alert": "OK",
      "vis_m": 9999,
      "fzfg": false,
      "metar_trigger": false,
      "taf_trigger": false,
      "metar": "METAR LGTS 290920Z 32019G29KT CAVOK 08/M04 Q1020 NOSIG",
      "taf": "TAF LGTS 290500Z 2906/3006 33020G35KT 9999 FEW030"
    },
    {
      "icao": "LHBP",
      "alert": "OK",
      "vis_m": 9999,
      "fzfg": false,
      "metar_trigger": false,
      "taf_trigger": false,
      "metar": "METAR LHBP 290930Z 28011KT CAVOK 01/M06 Q1017 NOSIG",
      "taf": "TAF LHBP 290515Z 2906/3006 28009KT CAVOK"
    },
    {
      "icao": "LHDC",
      "alert": "OK",
      "vis_m": 9999,
      "fzfg": false,
      "metar_trigger": false,
      "taf_trigger": false,
      "metar": "METAR LHDC 290915Z AUTO 19012KT CAVOK M01/M03 Q1016 NOSIG",
      "taf": "TAF LHDC 290815Z 2909/2918 18010KT CAVOK"
    },
    {
      "icao": "LIBD",
      "alert": "OK",
      "vis_m": 9999,
      "fzfg": false,
      "metar_trigger": false,
      "taf_trigger": false,
      "metar": "METAR LIBD 290920Z 27007KT CAVOK 12/07 Q1021",
      "taf": "TAF LIBD 290500Z 2906/3006 28012KT CAVOK"
    },
    {
      "icao": "LIBG",
      "alert": "OK",
      "vis_m": 9999,
      "fzfg": false,
      "metar_trigger": false,
      "taf_trigger": false,
      "metar": "METAR LIBG 290850Z 27006KT 230V300 CAVOK 11/08 Q1020",
      "taf": "TAF LIBG 290800Z 2909/2918 33010KT CAVOK"
    },
    {
      "icao": "LIBP",
      "alert": "OK",
      "vis_m": 9999,
      "fzfg": false,
      "metar_trigger": false,
      "taf_trigger": false,
      "metar": "METAR LIBP 290920Z AUTO 25005KT 9999 NCD 08/00 Q1022",
      "taf": "TAF LIBP 290500Z 2906/3006 VRB05KT CAVOK"
    },
    {
      "icao": "LIBR",
      "alert": "OK",
      "vis_m": 9999,
      "fzfg": false,
      "metar_trigger": false,
      "taf_trigger": false,
      "metar": "METAR LIBR 290920Z 32013KT CAVOK 12/08 Q1020",
      "taf": "TAF LIBR 290500Z 2906/3006 33015KT CAVOK"
    },
    {
      "icao": "LICA",
      "alert": "OK",
      "vis_m": 9999,
      "fzfg": false,
      "metar_trigger": false,
      "taf_trigger": false,
      "metar": "METAR LICA 290920Z AUTO 08003KT 9999 NCD 14/09 Q1021",
      "taf": "TAF LICA 290500Z 2906/3006 07006KT 9999 FEW030"
    },
    {
      "icao": "LICC",
      "alert": "OK",
      "vis_m": 9999,
      "fzfg": false,
      "metar_trigger": false,
      "taf_trigger": false,
      "metar": "METAR LICC 290920Z 23005KT CAVOK 12/10 Q1021",
      "taf": "TAF LICC 290500Z 2906/3006 VRB05KT 9999 FEW040"
    },
    {
      "icao": "LICJ",
      "alert": "OK",
      "vis_m": 9999,
      "fzfg": false,
      "metar_trigger": false,
      "taf_trigger": false,
      "metar": "METAR LICJ 290920Z VRB02KT CAVOK 14/07 Q1021",
      "taf": "TAF LICJ 290500Z 2906/3006 VRB05KT CAVOK"
    },
    {
      "icao": "LIMC",
      "alert": "OK",
      "vis_m": 9999,
      "fzfg": false,
      "metar_trigger": false,
      "taf_trigger": false,
      "metar": "METAR LIMC 290920Z 36004KT CAVOK 05/03 Q1021 NOSIG",
      "taf": "TAF LIMC 290500Z 2906/3012 VRB04KT CAVOK"
    },
    {
      "icao": "LIME",
      "alert": "OK",
      "vis_m": 9999,
      "fzfg": false,
      "metar_trigger": false,
      "taf_trigger": false,
      "metar": "METAR LIME 290920Z VRB01KT CAVOK 06/M00 Q1020 NOSIG",
      "taf": "TAF LIME 290500Z 2906/3006 VRB05KT CAVOK"
    },
    {
      "icao": "LIMF",
      "alert": "OK",
      "vis_m": 9999,
      "fzfg": false,
      "metar_trigger": false,
      "taf_trigger": false,
      "metar": "METAR LIMF 290920Z 24004KT CAVOK 04/M02 Q1021",
      "taf": "TAF LIMF 290500Z 2906/3006 VRB05KT CAVOK"
    },
    {
      "icao": "LIMJ",
      "alert": "OK",
      "vis_m": 9999,
      "fzfg": false,
      "metar_trigger": false,
      "taf_trigger": false,
      "metar": "METAR LIMJ 290920Z 06009KT CAVOK 12/M01 Q1020",
      "taf": "TAF LIMJ 290500Z 2906/3006 01015KT CAVOK"
    },
    {
      "icao": "LIPE",
      "alert": "OK",
      "vis_m": 9999,
      "fzfg": false,
      "metar_trigger": false,
      "taf_trigger": false,
      "metar": "METAR LIPE 290920Z 21003KT 190V250 CAVOK 04/02 Q1021",
      "taf": "TAF LIPE 290500Z 2906/3006 VRB06KT 6000 NSC"
    },
    {
      "icao": "LIPH",
      "alert": "OK",
      "vis_m": 7000,
      "fzfg": false,
      "metar_trigger": false,
      "taf_trigger": false,
      "metar": "METAR LIPH 290920Z VRB02KT 7000 NSC 03/01 Q1021",
      "taf": ""
    },
    {
      "icao": "LIPQ",
      "alert": "OK",
      "vis_m": 9999,
      "fzfg": false,
      "metar_trigger": false,
      "taf_trigger": false,
      "metar": "METAR LIPQ 290920Z AUTO VRB01KT 9999 NCD 06/00 Q1021",
      "taf": "TAF LIPQ 290500Z 2906/3006 VRB05KT CAVOK"
    },
    {
      "icao": "LIPR",
      "alert": "OK",
      "vis_m": 9999,
      "fzfg": false,
      "metar_trigger": false,
      "taf_trigger": false,
      "metar": "METAR LIPR 290920Z VRB02KT CAVOK 06/03 Q1022",
      "taf": "TAF LIPR 290500Z 2906/3006 VRB05KT CAVOK"
    },
    {
      "icao": "LIPX",
      "alert": "CRITICAL",
      "vis_m": 100,
      "fzfg": true,
      "metar_trigger": true,
      "taf_trigger": false,
      "metar": "METAR LIPX 290920Z VRB02KT 0100 R04/0325N FZFG VV002 M02/M02 Q1021",
      "taf": ""
    },
    {
      "icao": "LIPY",
      "alert": "OK",
      "vis_m": 9999,
      "fzfg": false,
      "metar_trigger": false,
      "taf_trigger": false,
      "metar": "METAR LIPY 290920Z AUTO VRB01KT 9999 NCD 07/04 Q1022",
      "taf": "TAF LIPY 290500Z 2906/3006 VRB05KT CAVOK"
    },
    {
      "icao": "LIPZ",
      "alert": "OK",
      "vis_m": 8000,
      "fzfg": false,
      "metar_trigger": false,
      "taf_trigger": false,
      "metar": "METAR LIPZ 290920Z 22003KT 8000 0800S PRFG NSC 01/01 Q1021 BECMG 0800 FG",
      "taf": "TAF LIPZ 290500Z 2906/3012 VRB05KT CAVOK"
    },
    {
      "icao": "LIRF",
      "alert": "OK",
      "vis_m": 9999,
      "fzfg": false,
      "metar_trigger": false,
      "taf_trigger": false,
      "metar": "METAR LIRF 290920Z 08005KT 050V110 CAVOK 07/03 Q1021 NOSIG",
      "taf": "TAF LIRF 290500Z 2906/3012 07006KT CAVOK"
    },
    {
      "icao": "LIRN",
      "alert": "OK",
      "vis_m": 9999,
      "fzfg": false,
      "metar_trigger": false,
      "taf_trigger": false,
      "metar": "METAR LIRN 290920Z 34003KT 270V040 CAVOK 11/01 Q1021 NOSIG",
      "taf": "TAF LIRN 290500Z 2906/3006 VRB05KT CAVOK"
    },
    {
      "icao": "LIRP",
      "alert": "OK",
      "vis_m": 9999,
      "fzfg": false,
      "metar_trigger": false,
      "taf_trigger": false,
      "metar": "METAR LIRP 290915Z 11004KT CAVOK 05/05 Q1020 NOSIG",
      "taf": "TAF LIRP 290500Z 2906/3006 12005KT CAVOK"
    },
    {
      "icao": "LIRZ",
      "alert": "OK",
      "vis_m": 9999,
      "fzfg": false,
      "metar_trigger": false,
      "taf_trigger": false,
      "metar": "METAR LIRZ 290920Z AUTO VRB02KT 9999 NCD 02/M00 Q1021",
      "taf": "TAF LIRZ 290500Z 2906/3006 VRB05KT 8000 NSC"
    },
    {
      "icao": "LJLJ",
      "alert": "OK",
      "vis_m": 6000,
      "fzfg": false,
      "metar_trigger": false,
      "taf_trigger": false,
      "metar": "METAR LJLJ 290930Z 00000KT 6000 OVC003 M02/M02 Q1019 NOSIG",
      "taf": "TAF LJLJ 290500Z 2906/3006 VRB02KT 7000 OVC005"
    },
    {
      "icao": "LKMT",
      "alert": "OK",
      "vis_m": 9999,
      "fzfg": false,
      "metar_trigger": false,
      "taf_trigger": false,
      "metar": "METAR LKMT 290930Z 29004KT 9999 BKN016 OVC023 M03/M04 Q1018 TEMPO BKN014",
      "taf": "TAF LKMT 290500Z 2906/3006 23008KT CAVOK"
    },
    {
      "icao": "LKPR",
      "alert": "OK",
      "vis_m": 9999,
      "fzfg": false,
      "metar_trigger": false,
      "taf_trigger": false,
      "metar": "METAR LKPR 290930Z 18005KT 9999 SCT017 BKN020 M02/M04 Q1019 NOSIG",
      "taf": "TAF LKPR 290800Z 2909/3015 24008KT 9999 SCT015"
    },
    {
      "icao": "LLBG",
      "alert": "OK",
      "vis_m": 9999,
      "fzfg": false,
      "metar_trigger": false,
      "taf_trigger": false,
      "metar": "METAR LLBG 290920Z 24021KT 9999 FEW020TCU BKN025 17/13 Q1011 TEMPO 24025G40KT 5000 TSRA FEW025CB BKN030",
      "taf": "TAF LLBG 290505Z 2906/3006 21012KT 9999 SCT030 BKN040"
    },
    {
      "icao": "LMML",
      "alert": "OK",
      "vis_m": 9999,
      "fzfg": false,
      "metar_trigger": false,
      "taf_trigger": false,
      "metar": "METAR LMML 290945Z 14005KT 100V180 9999 FEW017TCU 17/13 Q1021 NOSIG",
      "taf": "TAF LMML 290500Z 2906/3006 VRB05KT 9999 SCT020"
    },
    {
      "icao": "LOWW",
      "alert": "OK",
      "vis_m": 9999,
      "fzfg": false,
      "metar_trigger": false,
      "taf_trigger": false,
      "metar": "METAR LOWW 290920Z VRB02KT CAVOK 01/M04 Q1018 TEMPO 29010KT",
      "taf": "TAF LOWW 290815Z 2909/3015 30010KT CAVOK TX04/2913Z TNM01/2909Z"
    },
    {
      "icao": "LPFR",
      "alert": "OK",
      "vis_m": 9999,
      "fzfg": false,
      "metar_trigger": false,
      "taf_trigger": false,
      "metar": "METAR LPFR 290930Z 09004KT 030V130 CAVOK 12/08 Q1019",
      "taf": "TAF LPFR 290510Z 2906/3006 VRB02KT CAVOK"
    },
    {
      "icao": "LPMA",
      "alert": "OK",
      "vis_m": 9999,
      "fzfg": false,
      "metar_trigger": false,
      "taf_trigger": false,
      "metar": "METAR LPMA 290930Z 23010KT 9999 SCT016 SCT030 17/11 Q1020",
      "taf": "TAF LPMA 290510Z 2906/3006 VRB05KT 9999 SCT016"
    },
    {
      "icao": "LPPR",
      "alert": "OK",
      "vis_m": 9999,
      "fzfg": false,
      "metar_trigger": false,
      "taf_trigger": false,
      "metar": "METAR LPPR 290930Z VRB02KT 9999 FEW040 10/05 Q1020",
      "taf": "TAF LPPR 290510Z 2906/3006 10007KT CAVOK"
    },
    {
      "icao": "LPPS",
      "alert": "OK",
      "vis_m": 9999,
      "fzfg": false,
      "metar_trigger": false,
      "taf_trigger": false,
      "metar": "METAR LPPS 290930Z 17010KT 9999 SCT015 SCT030 17/11 Q1020",
      "taf": "TAF LPPS 290510Z 2906/3012 VRB05KT 9999 SCT015"
    },
    {
      "icao": "LPPT",
      "alert": "OK",
      "vis_m": 9999,
      "fzfg": false,
      "metar_trigger": false,
      "taf_trigger": false,
      "metar": "METAR LPPT 290930Z 06002KT 9999 FEW008 09/08 Q1020",
      "taf": "TAF LPPT 290510Z 2906/3012 06005KT CAVOK"
    },
    {
      "icao": "LQBK",
      "alert": "OK",
      "vis_m": 6000,
      "fzfg": false,
      "metar_trigger": false,
      "taf_trigger": false,
      "metar": "METAR LQBK 290930Z VRB02KT 6000 SCT002 M03/M04 Q1021 NOSIG",
      "taf": ""
    },
    {
      "icao": "LQSA",
      "alert": "OK",
      "vis_m": 9999,
      "fzfg": false,
      "metar_trigger": false,
      "taf_trigger": false,
      "metar": "METAR LQSA 290930Z VRB02KT CAVOK M03/M06 Q1022 NOSIG",
      "taf": "TAF LQSA 290500Z 2906/3006 VRB02KT CAVOK TX04/2913Z TNM08/2906Z"
    },
    {
      "icao": "LQTZ",
      "alert": "OK",
      "vis_m": 9999,
      "fzfg": false,
      "metar_trigger": false,
      "taf_trigger": false,
      "metar": "METAR LQTZ 290930Z VRB01KT CAVOK M01/M02 Q1021",
      "taf": "TAF LQTZ 290500Z 2906/3006 33005KT CAVOK TX05/2913Z TNM07/2906Z"
    },
    {
      "icao": "LRBC",
      "alert": "OK",
      "vis_m": 9999,
      "fzfg": false,
      "metar_trigger": false,
      "taf_trigger": false,
      "metar": "METAR LRBC 290930Z 28008KT 9999 BKN060 04/M06 Q1011",
      "taf": "TAF LRBC 290800Z 2909/2918 27007KT 9999 BKN055"
    },
    {
      "icao": "LRBS",
      "alert": "OK",
      "vis_m": 9999,
      "fzfg": false,
      "metar_trigger": false,
      "taf_trigger": false,
      "metar": "METAR LRBS 290930Z VRB07KT CAVOK 05/M05 Q1014 NOSIG",
      "taf": "TAF LRBS 290500Z 2906/3006 26012KT CAVOK"
    },
    {
      "icao": "LRBV",
      "alert": "OK",
      "vis_m": 9999,
      "fzfg": false,
      "metar_trigger": false,
      "taf_trigger": false,
      "metar": "METAR LRBV 290930Z 30023KT 9999 SCT047 M00/M06 Q1012",
      "taf": "TAF LRBV 290800Z 2909/2918 29016KT 9999 SCT035"
    },
    {
      "icao": "LRCL",
      "alert": "OK",
      "vis_m": 9999,
      "fzfg": false,
      "metar_trigger": false,
      "taf_trigger": false,
      "metar": "METAR LRCL 290930Z 15003KT 110V220 CAVOK 01/M06 Q1015",
      "taf": "TAF LRCL 290800Z 2909/2918 26006KT CAVOK"
    },
    {
      "icao": "LRCV",
      "alert": "OK",
      "vis_m": 9999,
      "fzfg": false,
      "metar_trigger": false,
      "taf_trigger": false,
      "metar": "METAR LRCV 290930Z 29021KT CAVOK 01/M03 Q1015",
      "taf": "TAF LRCV 290800Z 2909/2918 28018KT CAVOK"
    },
    {
      "icao": "LRIA",
      "alert": "OK",
      "vis_m": 9999,
      "fzfg": false,
      "metar_trigger": false,
      "taf_trigger": false,
      "metar": "METAR LRIA 290930Z 30017G27KT 270V330 9999 FEW027 BKN045 02/M04 Q1010",
      "taf": "TAF LRIA 290800Z 2909/2918 31012KT CAVOK"
    },
    {
      "icao": "LROP",
      "alert": "OK",
      "vis_m": 9999,
      "fzfg": false,
      "metar_trigger": false,
      "taf_trigger": false,
      "metar": "METAR LROP 290930Z 29014KT CAVOK 05/M07 Q1014 NOSIG",
      "taf": "TAF LROP 290500Z 2906/3006 25012KT CAVOK"
    },
    {
      "icao": "LRSB",
      "alert": "OK",
      "vis_m": 9999,
      "fzfg": false,
      "metar_trigger": false,
      "taf_trigger": false,
      "metar": "METAR LRSB 290930Z 22005KT CAVOK M00/M05 Q1015",
      "taf": "TAF LRSB 290500Z 2906/3006 31012KT 9999 SCT050"
    },
    {
      "icao": "LRSM",
      "alert": "OK",
      "vis_m": 9999,
      "fzfg": false,
      "metar_trigger": false,
      "taf_trigger": false,
      "metar": "METAR LRSM 290930Z 24011KT 9999 SCT014 M00/M04 Q1016",
      "taf": "TAF LRSM 290800Z 2909/2918 25012KT CAVOK"
    },
    {
      "icao": "LRSV",
      "alert": "OK",
      "vis_m": 9999,
      "fzfg": false,
      "metar_trigger": false,
      "taf_trigger": false,
      "metar": "METAR LRSV 290930Z 31011KT 9999 BKN046 00/M06 Q1009",
      "taf": "TAF LRSV 290800Z 2909/2918 31013KT 9999 BKN030"
    },
    {
      "icao": "LRTM",
      "alert": "OK",
      "vis_m": 9999,
      "fzfg": false,
      "metar_trigger": false,
      "taf_trigger": false,
      "metar": "METAR LRTM 290930Z 21007KT 180V250 CAVOK 01/M05 Q1015",
      "taf": "TAF LRTM 290800Z 2909/2918 24012KT CAVOK"
    },
    {
      "icao": "LRTR",
      "alert": "OK",
      "vis_m": 9999,
      "fzfg": false,
      "metar_trigger": false,
      "taf_trigger": false,
      "metar": "METAR LRTR 290930Z 18008KT 9999 FEW018 00/M03 Q1019",
      "taf": "TAF LRTR 290500Z 2906/3006 VRB04KT CAVOK"
    },
    {
      "icao": "LTAC",
      "alert": "OK",
      "vis_m": 9999,
      "fzfg": false,
      "metar_trigger": false,
      "taf_trigger": false,
      "metar": "METAR LTAC 290920Z 26014KT 9999 SCT023 BKN100 M01/M05 Q1009 NOSIG RMK RWY21C 25012KT RWY03L 26010KT RWY21R 25013KT RWY03R 24013KT RWY21L 25012KT",
      "taf": "TAF LTAC 290440Z 2906/3006 26015KT 9999 SCT040 BKN100"
    },
    {
      "icao": "LTFM",
      "alert": "OK",
      "vis_m": 9999,
      "fzfg": false,
      "metar_trigger": false,
      "taf_trigger": false,
      "metar": "METAR LTFM 290920Z 31014KT 9999 FEW030 05/M05 Q1016 NOSIG RMK RWY17L 31016KT RWY34L 31013KT RWY16R 32015KT RWY36 32017KT RWY18 31016KT",
      "taf": "TAF LTFM 290440Z 2906/3012 28012KT CAVOK"
    },
    {
      "icao": "LUKK",
      "alert": "OK",
      "vis_m": 9999,
      "fzfg": false,
      "metar_trigger": false,
      "taf_trigger": false,
      "metar": "METAR LUKK 290930Z 33018G32KT 300V360 9999 FEW033 OVC053 02/M04 Q1007 TEMPO 33022G36KT",
      "taf": "TAF LUKK 290515Z 2906/3006 32016G26KT 9999 SCT015 BKN030"
    },
    {
      "icao": "LWOH",
      "alert": "OK",
      "vis_m": null,
      "fzfg": false,
      "metar_trigger": false,
      "taf_trigger": false,
      "metar": "",
      "taf": "TAF LWOH 290830Z 2909/3009 33005KT CAVOK"
    },
    {
      "icao": "LWSK",
      "alert": "OK",
      "vis_m": null,
      "fzfg": false,
      "metar_trigger": false,
      "taf_trigger": false,
      "metar": "",
      "taf": "TAF LWSK 290830Z 2909/3009 35008KT CAVOK"
    },
    {
      "icao": "LYBE",
      "alert": "OK",
      "vis_m": 9999,
      "fzfg": false,
      "metar_trigger": false,
      "taf_trigger": false,
      "metar": "METAR LYBE 290930Z 27004KT 230V290 CAVOK 02/M03 Q1021 NOSIG",
      "taf": "TAF LYBE 290500Z 2906/3006 24007KT CAVOK TX06/2912Z TNM04/3006Z"
    },
    {
      "icao": "LYNI",
      "alert": "OK",
      "vis_m": 9999,
      "fzfg": false,
      "metar_trigger": false,
      "taf_trigger": false,
      "metar": "METAR LYNI 290930Z VRB05KT CAVOK 03/M04 Q1022 NOSIG",
      "taf": "TAF LYNI 290500Z 2906/3006 20004KT CAVOK TX06/2912Z TNM05/3006Z"
    },
    {
      "icao": "LYPG",
      "alert": "OK",
      "vis_m": 9999,
      "fzfg": false,
      "metar_trigger": false,
      "taf_trigger": false,
      "metar": "METAR LYPG 290930Z VRB01KT CAVOK 07/M06 Q1021 NOSIG",
      "taf": "TAF LYPG 290500Z 2906/3006 16005KT CAVOK TX12/2913Z TNM01/3005Z"
    },
    {
      "icao": "LZIB",
      "alert": "OK",
      "vis_m": 9999,
      "fzfg": false,
      "metar_trigger": false,
      "taf_trigger": false,
      "metar": "METAR LZIB 290930Z 30009KT CAVOK 03/M07 Q1018 NOSIG",
      "taf": "TAF LZIB 290515Z 2906/3006 30007KT CAVOK"
    },
    {
      "icao": "LZKZ",
      "alert": "OK",
      "vis_m": 9999,
      "fzfg": false,
      "metar_trigger": false,
      "taf_trigger": false,
      "metar": "METAR LZKZ 290930Z VRB02KT CAVOK M02/M06 Q1014 NOSIG",
      "taf": "TAF LZKZ 290515Z 2906/3006 VRB02KT CAVOK"
    },
    {
      "icao": "LZTT",
      "alert": "OK",
      "vis_m": 9999,
      "fzfg": false,
      "metar_trigger": false,
      "taf_trigger": false,
      "metar": "METAR LZTT 290930Z 23014G25KT 140V260 CAVOK 01/M15 Q1010 NOSIG",
      "taf": ""
    },
    {
      "icao": "OEJN",
      "alert": "OK",
      "vis_m": 9999,
      "fzfg": false,
      "metar_trigger": false,
      "taf_trigger": false,
      "metar": "METAR OEJN 290900Z 32006KT CAVOK 27/14 Q1015 NOSIG",
      "taf": "TAF OEJN 290500Z 2906/3012 30012KT CAVOK"
    },
    {
      "icao": "OEMA",
      "alert": "OK",
      "vis_m": 9999,
      "fzfg": false,
      "metar_trigger": false,
      "taf_trigger": false,
      "metar": "METAR OEMA 290900Z 14003KT CAVOK 21/00 Q1018 NOSIG",
      "taf": "TAF OEMA 290500Z 2906/3012 28018KT 7000 NSC"
    },
    {
      "icao": "OJAI",
      "alert": "OK",
      "vis_m": 3000,
      "fzfg": false,
      "metar_trigger": false,
      "taf_trigger": false,
      "metar": "METAR OJAI 290900Z 24018KT 3000 -RA SCT030 BKN035 09/07 Q1012 NOSIG",
      "taf": "TAF OJAI 290500Z 2906/3012 29018G36KT 3000 RA BR SCT025TCU BKN030"
    },
    {
      "icao": "OMAA",
      "alert": "OK",
      "vis_m": 9999,
      "fzfg": false,
      "metar_trigger": false,
      "taf_trigger": false,
      "metar": "METAR OMAA 290900Z 20013KT 170V230 9999 FEW045 28/15 Q1011 BECMG 26011KT",
      "taf": "TAF OMAA 290500Z 2906/3012 18010KT 8000 NSC"
    },
    {
      "icao": "OMDB",
      "alert": "OK",
      "vis_m": 7000,
      "fzfg": false,
      "metar_trigger": false,
      "taf_trigger": false,
      "metar": "METAR OMDB 290930Z 21014KT 7000 -RA SCT040 FEW050TCU 28/16 Q1011 BECMG 29013KT",
      "taf": "TAF OMDB 290500Z 2906/3012 19015KT 8000 NSC"
    },
    {
      "icao": "UAAA",
      "alert": "OK",
      "vis_m": 4200,
      "fzfg": false,
      "metar_trigger": false,
      "taf_trigger": false,
      "metar": "METAR UAAA 290930Z 03002MPS 4200 FU FEW100 07/M01 Q1012 NOSIG",
      "taf": "TAF UAAA 290501Z 2906/3006 05003MPS 3100 BR FU SCT050 BKN100 TX04/2909Z TNM03/3001Z"
    },
    {
      "icao": "UBBB",
      "alert": "OK",
      "vis_m": 9999,
      "fzfg": false,
      "metar_trigger": false,
      "taf_trigger": false,
      "metar": "METAR UBBB 290930Z 32010KT CAVOK 09/00 Q1000 NOSIG",
      "taf": "TAF UBBB 290503Z 2906/3006 22006KT CAVOK TX08/2910Z TN02/3002Z"
    },
    {
      "icao": "UDSG",
      "alert": "OK",
      "vis_m": 4600,
      "fzfg": false,
      "metar_trigger": false,
      "taf_trigger": false,
      "metar": "METAR UDSG 290930Z 04001KT 4600 -SN BR OVC030 M06/M09 Q1002 NOSIG",
      "taf": "TAF UDSG 290458Z 2906/3006 VRB06KT 5000 BR BKN030"
    },
    {
      "icao": "UDYZ",
      "alert": "OK",
      "vis_m": 9999,
      "fzfg": false,
      "metar_trigger": false,
      "taf_trigger": false,
      "metar": "METAR UDYZ 290930Z 27002KT 9999 BKN033CB M03/M05 Q1004 NOSIG",
      "taf": "TAF UDYZ 290500Z 2906/3006 20006KT 9999 SCT040"
    },
    {
      "icao": "UGKO",
      "alert": "OK",
      "vis_m": 9999,
      "fzfg": false,
      "metar_trigger": false,
      "taf_trigger": false,
      "metar": "METAR UGKO 290930Z 06008KT 9999 TS BKN043CB 00/M00 Q1004 NOSIG",
      "taf": ""
    }
  ]
}