{
  "ts_utc": "2026-04-12T09:03:19Z",
  "threshold_m": 150,
  "source": "stations_override.txt (ICAO list) + aviationweather.gov (METAR/TAF raw)",
  "station_count": 159,
  "stations": [
    {
      "icao": "BIKF",
      "alert": "OK",
      "vis_m": 9999,
      "fzfg": false,
      "metar_trigger": false,
      "taf_trigger": false,
      "metar": "METAR BIKF 120830Z 36025KT 9999 -RA BKN014 OVC046 02/00 Q0997",
      "taf": "TAF BIKF 120731Z 1209/1309 36025G35KT 9999 SCT010 BKN025 TX04/1216Z TNM03/1306Z"
    },
    {
      "icao": "BKPR",
      "alert": "OK",
      "vis_m": 9999,
      "fzfg": false,
      "metar_trigger": false,
      "taf_trigger": false,
      "metar": "METAR BKPR 120900Z VRB02KT 9999 SCT070 13/06 Q1019 NOSIG",
      "taf": "TAF BKPR 120530Z 1206/1306 09006KT 9999 FEW040 SCT080"
    },
    {
      "icao": "EBCI",
      "alert": "OK",
      "vis_m": 9999,
      "fzfg": false,
      "metar_trigger": false,
      "taf_trigger": false,
      "metar": "METAR EBCI 120850Z 19008KT CAVOK 08/03 Q1016 NOSIG",
      "taf": "TAF EBCI 120506Z 1206/1312 20008KT CAVOK"
    },
    {
      "icao": "EDDB",
      "alert": "OK",
      "vis_m": 9999,
      "fzfg": false,
      "metar_trigger": false,
      "taf_trigger": false,
      "metar": "METAR EDDB 120850Z AUTO 16008KT 9999 OVC019 09/M01 Q1016 NOSIG",
      "taf": "TAF EDDB 120500Z 1206/1306 13008KT CAVOK"
    },
    {
      "icao": "EDDH",
      "alert": "OK",
      "vis_m": 9999,
      "fzfg": false,
      "metar_trigger": false,
      "taf_trigger": false,
      "metar": "METAR EDDH 120850Z AUTO 30006KT 9999 BKN016 11/07 Q1016 BECMG SCT015",
      "taf": "TAF EDDH 120500Z 1206/1312 26005KT CAVOK"
    },
    {
      "icao": "EDDK",
      "alert": "OK",
      "vis_m": 9999,
      "fzfg": false,
      "metar_trigger": false,
      "taf_trigger": false,
      "metar": "METAR EDDK 120850Z AUTO 16006KT CAVOK 08/05 Q1017 NOSIG",
      "taf": "TAF EDDK 120500Z 1206/1312 VRB03KT 9999 FEW020"
    },
    {
      "icao": "EDDN",
      "alert": "OK",
      "vis_m": 9999,
      "fzfg": false,
      "metar_trigger": false,
      "taf_trigger": false,
      "metar": "METAR EDDN 120850Z AUTO 28008KT 9999 -RA OVC007 09/07 Q1016 NOSIG",
      "taf": ""
    },
    {
      "icao": "EDDS",
      "alert": "OK",
      "vis_m": 9999,
      "fzfg": false,
      "metar_trigger": false,
      "taf_trigger": false,
      "metar": "METAR EDDS 120850Z AUTO 33006KT 290V010 9999 -DZ OVC015 06/04 Q1016 NOSIG",
      "taf": "TAF EDDS 120500Z 1206/1306 31010KT 9999 BKN015"
    },
    {
      "icao": "EDFH",
      "alert": "OK",
      "vis_m": 9999,
      "fzfg": false,
      "metar_trigger": false,
      "taf_trigger": false,
      "metar": "METAR EDFH 120850Z 29005KT 240V330 CAVOK 06/02 Q1017",
      "taf": "TAF EDFH 120500Z 1206/1306 28006KT CAVOK"
    },
    {
      "icao": "EDJA",
      "alert": "OK",
      "vis_m": 9999,
      "fzfg": false,
      "metar_trigger": false,
      "taf_trigger": false,
      "metar": "METAR EDJA 120850Z 36007KT 340V050 9999 -RA FEW004 SCT006 OVC008 10/09 Q1015",
      "taf": "TAF EDJA 120800Z 1209/1218 33005KT 7000 SCT005 OVC015"
    },
    {
      "icao": "EDLW",
      "alert": "OK",
      "vis_m": 9999,
      "fzfg": false,
      "metar_trigger": false,
      "taf_trigger": false,
      "metar": "METAR EDLW 120850Z 22006KT CAVOK 09/03 Q1016",
      "taf": "TAF EDLW 120500Z 1206/1306 22006KT 9999 FEW020"
    },
    {
      "icao": "EDNY",
      "alert": "OK",
      "vis_m": 9999,
      "fzfg": false,
      "metar_trigger": false,
      "taf_trigger": false,
      "metar": "METAR EDNY 120850Z 05004KT 350V090 9999 -DZ FEW007 SCT010 OVC018 11/09 Q1015",
      "taf": "TAF EDNY 120800Z 1209/1218 28005KT 9000 SCT008 OVC015"
    },
    {
      "icao": "EDSB",
      "alert": "OK",
      "vis_m": 9999,
      "fzfg": false,
      "metar_trigger": false,
      "taf_trigger": false,
      "metar": "METAR EDSB 120850Z VRB02KT 9999 OVC045 09/06 Q1018",
      "taf": "TAF EDSB 120500Z 1206/1306 VRB03KT 9999 BKN030"
    },
    {
      "icao": "EETN",
      "alert": "OK",
      "vis_m": 9999,
      "fzfg": false,
      "metar_trigger": false,
      "taf_trigger": false,
      "metar": "METAR EETN 120850Z 10008KT CAVOK 11/M00 Q1025 NOSIG",
      "taf": "TAF EETN 120530Z 1206/1306 12007KT 9999 FEW030"
    },
    {
      "icao": "EFTU",
      "alert": "OK",
      "vis_m": 9999,
      "fzfg": false,
      "metar_trigger": false,
      "taf_trigger": false,
      "metar": "METAR EFTU 120850Z AUTO 12012KT 100V170 CAVOK 11/M03 Q1025",
      "taf": "TAF EFTU 120825Z 1209/1309 14009KT CAVOK"
    },
    {
      "icao": "EGBB",
      "alert": "OK",
      "vis_m": 9999,
      "fzfg": false,
      "metar_trigger": false,
      "taf_trigger": false,
      "metar": "METAR EGBB 120850Z 21010G20KT 160V280 9999 BKN024 10/04 Q1006",
      "taf": "TAF EGBB 120458Z 1206/1306 20012KT 9999 FEW030"
    },
    {
      "icao": "EGGP",
      "alert": "OK",
      "vis_m": 9999,
      "fzfg": false,
      "metar_trigger": false,
      "taf_trigger": false,
      "metar": "METAR EGGP 120850Z 22007KT 180V250 9999 SCT032 10/06 Q1004",
      "taf": "TAF EGGP 120457Z 1206/1306 19009KT 9999 SCT030"
    },
    {
      "icao": "EGGW",
      "alert": "OK",
      "vis_m": 9999,
      "fzfg": false,
      "metar_trigger": false,
      "taf_trigger": false,
      "metar": "METAR EGGW 120850Z AUTO 22016KT 170V240 9999 FEW028 10/03 Q1009",
      "taf": "TAF EGGW 120501Z 1206/1306 20016KT 9999 SCT030"
    },
    {
      "icao": "EGKK",
      "alert": "OK",
      "vis_m": 9999,
      "fzfg": false,
      "metar_trigger": false,
      "taf_trigger": false,
      "metar": "METAR EGKK 120850Z 24010KT 9999 SCT027 10/05 Q1011",
      "taf": ""
    },
    {
      "icao": "EGNM",
      "alert": "OK",
      "vis_m": 9999,
      "fzfg": false,
      "metar_trigger": false,
      "taf_trigger": false,
      "metar": "METAR EGNM 120850Z 22016G26KT 190V260 9999 SCT017 SCT025 08/04 Q1002",
      "taf": "TAF EGNM 120457Z 1206/1306 20013KT 9999 SCT030"
    },
    {
      "icao": "EGPD",
      "alert": "OK",
      "vis_m": 9999,
      "fzfg": false,
      "metar_trigger": false,
      "taf_trigger": false,
      "metar": "METAR EGPD 120850Z COR 18016KT 9999 SCT027 09/04 Q0994 NOSIG",
      "taf": "TAF EGPD 120453Z 1206/1306 18013KT 9999 SCT020"
    },
    {
      "icao": "EGPF",
      "alert": "OK",
      "vis_m": 9999,
      "fzfg": false,
      "metar_trigger": false,
      "taf_trigger": false,
      "metar": "METAR EGPF 120850Z AUTO 20025G35KT 9999 FEW020 BKN033 OVC046 09/06 Q0995",
      "taf": "TAF EGPF 120455Z 1206/1306 21010KT 9999 SCT030"
    },
    {
      "icao": "EHBK",
      "alert": "OK",
      "vis_m": 9999,
      "fzfg": false,
      "metar_trigger": false,
      "taf_trigger": false,
      "metar": "METAR EHBK 120855Z AUTO 19008KT 9999 NSC 09/04 Q1016 NOSIG",
      "taf": "TAF EHBK 120441Z 1206/1312 21008KT CAVOK"
    },
    {
      "icao": "EHEH",
      "alert": "OK",
      "vis_m": 9999,
      "fzfg": false,
      "metar_trigger": false,
      "taf_trigger": false,
      "metar": "METAR EHEH 120855Z AUTO 22010KT 190V260 9999 OVC230 11/03 Q1015 BLU NOSIG RMK TREND REMOTE BY EHWX",
      "taf": "TAF EHEH 120517Z 1206/1312 18007KT CAVOK"
    },
    {
      "icao": "EKBI",
      "alert": "OK",
      "vis_m": 9999,
      "fzfg": false,
      "metar_trigger": false,
      "taf_trigger": false,
      "metar": "METAR EKBI 120850Z AUTO 13005KT 100V180 9999 FEW011/// 08/06 Q1015",
      "taf": "TAF EKBI 120827Z 1209/1309 16005KT CAVOK"
    },
    {
      "icao": "EKCH",
      "alert": "OK",
      "vis_m": 9999,
      "fzfg": false,
      "metar_trigger": false,
      "taf_trigger": false,
      "metar": "METAR EKCH 120850Z AUTO 14013KT 9999 BKN077/// 07/01 Q1017 NOSIG",
      "taf": "TAF EKCH 120827Z 1209/1309 12012KT 9999 SCT040"
    },
    {
      "icao": "ENAL",
      "alert": "OK",
      "vis_m": 9999,
      "fzfg": false,
      "metar_trigger": false,
      "taf_trigger": false,
      "metar": "METAR ENAL 120850Z 14008KT CAVOK 10/M02 Q1008",
      "taf": "TAF ENAL 120500Z 1206/1215 14012KT CAVOK"
    },
    {
      "icao": "ENBR",
      "alert": "OK",
      "vis_m": 9999,
      "fzfg": false,
      "metar_trigger": false,
      "taf_trigger": false,
      "metar": "METAR ENBR 120820Z 13015KT CAVOK 08/01 Q1007",
      "taf": "TAF ENBR 120500Z 1206/1306 15015KT 9999 SCT045"
    },
    {
      "icao": "ENGM",
      "alert": "OK",
      "vis_m": null,
      "fzfg": false,
      "metar_trigger": false,
      "taf_trigger": false,
      "metar": "",
      "taf": "TAF ENGM 120500Z 1206/1306 11005KT CAVOK"
    },
    {
      "icao": "ENHD",
      "alert": "OK",
      "vis_m": null,
      "fzfg": false,
      "metar_trigger": false,
      "taf_trigger": false,
      "metar": "",
      "taf": "TAF ENHD 120500Z 1206/1215 13022G32KT 9999 FEW025"
    },
    {
      "icao": "ENTC",
      "alert": "OK",
      "vis_m": null,
      "fzfg": false,
      "metar_trigger": false,
      "taf_trigger": false,
      "metar": "",
      "taf": "TAF ENTC 120500Z 1206/1306 02003KT CAVOK"
    },
    {
      "icao": "ENTO",
      "alert": "OK",
      "vis_m": null,
      "fzfg": false,
      "metar_trigger": false,
      "taf_trigger": false,
      "metar": "",
      "taf": "TAF ENTO 120500Z 1206/1306 10010KT 9999 BKN035"
    },
    {
      "icao": "ENVA",
      "alert": "OK",
      "vis_m": null,
      "fzfg": false,
      "metar_trigger": false,
      "taf_trigger": false,
      "metar": "",
      "taf": "TAF ENVA 120500Z 1206/1306 12015KT CAVOK"
    },
    {
      "icao": "ENZV",
      "alert": "OK",
      "vis_m": null,
      "fzfg": false,
      "metar_trigger": false,
      "taf_trigger": false,
      "metar": "",
      "taf": "TAF ENZV 120500Z 1206/1306 14017KT 9999 BKN035"
    },
    {
      "icao": "EPGD",
      "alert": "OK",
      "vis_m": 9999,
      "fzfg": false,
      "metar_trigger": false,
      "taf_trigger": false,
      "metar": "METAR EPGD 120830Z 12009KT CAVOK 09/M02 Q1021",
      "taf": "TAF EPGD 120530Z 1206/1306 VRB02KT CAVOK"
    },
    {
      "icao": "EPKK",
      "alert": "OK",
      "vis_m": 9999,
      "fzfg": false,
      "metar_trigger": false,
      "taf_trigger": false,
      "metar": "METAR EPKK 120830Z 09007KT CAVOK 09/M01 Q1020",
      "taf": "TAF EPKK 120830Z 1209/1309 07008KT CAVOK"
    },
    {
      "icao": "EPKT",
      "alert": "OK",
      "vis_m": 9999,
      "fzfg": false,
      "metar_trigger": false,
      "taf_trigger": false,
      "metar": "METAR EPKT 120830Z 13007KT CAVOK 09/M03 Q1019",
      "taf": "TAF EPKT 120530Z 1206/1306 07004KT CAVOK"
    },
    {
      "icao": "EPLB",
      "alert": "OK",
      "vis_m": 9999,
      "fzfg": false,
      "metar_trigger": false,
      "taf_trigger": false,
      "metar": "METAR EPLB 120830Z 10005KT 050V130 CAVOK 10/01 Q1021",
      "taf": "TAF EPLB 120530Z 1206/1306 VRB02KT CAVOK"
    },
    {
      "icao": "EPMO",
      "alert": "OK",
      "vis_m": 9999,
      "fzfg": false,
      "metar_trigger": false,
      "taf_trigger": false,
      "metar": "METAR EPMO 120830Z 08008KT CAVOK 11/M01 Q1021",
      "taf": "TAF EPMO 120530Z 1206/1306 VRB02KT CAVOK"
    },
    {
      "icao": "EPPO",
      "alert": "OK",
      "vis_m": 9999,
      "fzfg": false,
      "metar_trigger": false,
      "taf_trigger": false,
      "metar": "METAR EPPO 120830Z 13011KT CAVOK 11/M02 Q1019",
      "taf": "TAF EPPO 120530Z 1206/1306 12010KT CAVOK"
    },
    {
      "icao": "EPRA",
      "alert": "OK",
      "vis_m": 9999,
      "fzfg": false,
      "metar_trigger": false,
      "taf_trigger": false,
      "metar": "METAR EPRA 120830Z 01004KT 290V060 CAVOK 10/M02 Q1021",
      "taf": "TAF EPRA 120830Z 1209/1218 09006KT CAVOK"
    },
    {
      "icao": "EPRZ",
      "alert": "OK",
      "vis_m": 9999,
      "fzfg": false,
      "metar_trigger": false,
      "taf_trigger": false,
      "metar": "METAR EPRZ 120830Z 26004KT 200V320 9999 FEW040 09/M02 Q1021",
      "taf": "TAF EPRZ 120530Z 1206/1306 VRB02KT CAVOK"
    },
    {
      "icao": "EPSC",
      "alert": "OK",
      "vis_m": 9999,
      "fzfg": false,
      "metar_trigger": false,
      "taf_trigger": false,
      "metar": "METAR EPSC 120830Z 13015KT CAVOK 09/M03 Q1017",
      "taf": "TAF EPSC 120530Z 1206/1306 11011KT CAVOK"
    },
    {
      "icao": "EPSY",
      "alert": "OK",
      "vis_m": 9999,
      "fzfg": false,
      "metar_trigger": false,
      "taf_trigger": false,
      "metar": "METAR EPSY 120830Z 34003KT 300V040 CAVOK 11/M02 Q1021",
      "taf": "TAF EPSY 120830Z 1209/1218 VRB02KT CAVOK"
    },
    {
      "icao": "EPWA",
      "alert": "OK",
      "vis_m": 9999,
      "fzfg": false,
      "metar_trigger": false,
      "taf_trigger": false,
      "metar": "METAR EPWA 120830Z 07004KT CAVOK 10/M02 Q1021 NOSIG",
      "taf": "TAF EPWA 120830Z 1209/1309 11010KT CAVOK"
    },
    {
      "icao": "EPWR",
      "alert": "OK",
      "vis_m": 9999,
      "fzfg": false,
      "metar_trigger": false,
      "taf_trigger": false,
      "metar": "METAR EPWR 120830Z 12011KT CAVOK 08/M03 Q1018",
      "taf": "TAF EPWR 120830Z 1209/1309 12013KT CAVOK"
    },
    {
      "icao": "ESGG",
      "alert": "OK",
      "vis_m": 9999,
      "fzfg": false,
      "metar_trigger": false,
      "taf_trigger": false,
      "metar": "METAR ESGG 120850Z 13012KT CAVOK 06/M03 Q1017",
      "taf": "TAF ESGG 120830Z 1209/1309 12010KT CAVOK"
    },
    {
      "icao": "ESKN",
      "alert": "OK",
      "vis_m": 9999,
      "fzfg": false,
      "metar_trigger": false,
      "taf_trigger": false,
      "metar": "METAR ESKN 120850Z 13009KT CAVOK 09/M01 Q1023",
      "taf": "TAF ESKN 120830Z 1209/1309 11010KT CAVOK"
    },
    {
      "icao": "ESMS",
      "alert": "OK",
      "vis_m": 9999,
      "fzfg": false,
      "metar_trigger": false,
      "taf_trigger": false,
      "metar": "METAR ESMS 120850Z 13012KT CAVOK 07/M00 Q1017",
      "taf": "TAF ESMS 120827Z 1209/1309 12010KT CAVOK"
    },
    {
      "icao": "ESSA",
      "alert": "OK",
      "vis_m": 9999,
      "fzfg": false,
      "metar_trigger": false,
      "taf_trigger": false,
      "metar": "METAR ESSA 120850Z 12010KT CAVOK 09/M09 Q1023 NOSIG",
      "taf": "TAF ESSA 120830Z 1209/1309 11009KT CAVOK"
    },
    {
      "icao": "EYKA",
      "alert": "OK",
      "vis_m": 9999,
      "fzfg": false,
      "metar_trigger": false,
      "taf_trigger": false,
      "metar": "METAR EYKA 120850Z 08006KT 040V100 9999 BKN025 07/00 Q1023",
      "taf": "TAF EYKA 120500Z 1206/1306 VRB04KT 9000 NSC"
    },
    {
      "icao": "EYPA",
      "alert": "OK",
      "vis_m": 9999,
      "fzfg": false,
      "metar_trigger": false,
      "taf_trigger": false,
      "metar": "METAR EYPA 120850Z 28004KT 230V320 CAVOK 10/M00 Q1022",
      "taf": "TAF EYPA 120500Z 1206/1306 VRB05KT 9000 SCT045"
    },
    {
      "icao": "EYVI",
      "alert": "OK",
      "vis_m": 9999,
      "fzfg": false,
      "metar_trigger": false,
      "taf_trigger": false,
      "metar": "METAR EYVI 120850Z 09007KT 050V140 9999 BKN026 BKN030 06/M01 Q1022 NOSIG",
      "taf": "TAF EYVI 120505Z 1206/1306 09012KT 9000 BKN020"
    },
    {
      "icao": "GCFV",
      "alert": "OK",
      "vis_m": 9000,
      "fzfg": false,
      "metar_trigger": false,
      "taf_trigger": false,
      "metar": "METAR GCFV 120830Z 35013KT 9000 SCT021 BKN025 16/15 Q1021",
      "taf": "TAF GCFV 120800Z 1209/1309 02018KT 9999 FEW020 BKN035 TX22/1214Z TN16/1306Z"
    },
    {
      "icao": "GCLP",
      "alert": "OK",
      "vis_m": 9999,
      "fzfg": false,
      "metar_trigger": false,
      "taf_trigger": false,
      "metar": "SPECI GCLP 120846Z 36017KT 9999 FEW015 BKN025 18/15 Q1022 RERA NOSIG",
      "taf": "TAF GCLP 120800Z 1209/1309 01024KT 9999 BKN030 TX22/1214Z TN15/1306Z"
    },
    {
      "icao": "GCTS",
      "alert": "OK",
      "vis_m": 9999,
      "fzfg": false,
      "metar_trigger": false,
      "taf_trigger": false,
      "metar": "METAR GCTS 120830Z 07007KT 010V090 9999 SCT035 19/11 Q1022 NOSIG",
      "taf": "TAF GCTS 120800Z 1209/1309 05007KT 9999 SCT040 TX23/1214Z TN15/1306Z"
    },
    {
      "icao": "GMAD",
      "alert": "OK",
      "vis_m": 8000,
      "fzfg": false,
      "metar_trigger": false,
      "taf_trigger": false,
      "metar": "METAR GMAD 120830Z 15004KT 8000 FEW016 16/12 Q1015 NOSIG",
      "taf": "TAF GMAD 120500Z 1206/1312 07004KT 8000 SCT020"
    },
    {
      "icao": "GMMN",
      "alert": "OK",
      "vis_m": 9999,
      "fzfg": false,
      "metar_trigger": false,
      "taf_trigger": false,
      "metar": "METAR GMMN 120830Z 31008KT 9999 BKN020 13/11 Q1019 NOSIG",
      "taf": "TAF GMMN 120500Z 1206/1312 26008KT 9999 BKN008"
    },
    {
      "icao": "GMMX",
      "alert": "OK",
      "vis_m": 7000,
      "fzfg": false,
      "metar_trigger": false,
      "taf_trigger": false,
      "metar": "SPECI GMMX 120854Z 36007KT 320V040 7000 SCT006 SCT024 12/11 Q1019 NOSIG",
      "taf": "TAF GMMX 120500Z 1206/1312 24006KT 8000 SCT026"
    },
    {
      "icao": "HEGN",
      "alert": "OK",
      "vis_m": 9999,
      "fzfg": false,
      "metar_trigger": false,
      "taf_trigger": false,
      "metar": "METAR HEGN 120800Z 33012KT CAVOK 25/03 Q1017 NOSIG",
      "taf": "TAF HEGN 120500Z 1206/1312 34015KT CAVOK"
    },
    {
      "icao": "HEMA",
      "alert": "OK",
      "vis_m": 9999,
      "fzfg": false,
      "metar_trigger": false,
      "taf_trigger": false,
      "metar": "METAR HEMA 120800Z 36019KT CAVOK 25/11 Q1017 NOSIG",
      "taf": "TAF HEMA 120500Z 1206/1312 36015KT CAVOK"
    },
    {
      "icao": "HESH",
      "alert": "OK",
      "vis_m": 9999,
      "fzfg": false,
      "metar_trigger": false,
      "taf_trigger": false,
      "metar": "METAR HESH 120800Z 35010KT CAVOK 25/08 Q1015 NOSIG",
      "taf": "TAF HESH 120500Z 1206/1312 02012KT CAVOK"
    },
    {
      "icao": "HESX",
      "alert": "OK",
      "vis_m": 9999,
      "fzfg": false,
      "metar_trigger": false,
      "taf_trigger": false,
      "metar": "METAR HESX 120800Z 00000KT CAVOK 21/07 Q1018 NOSIG",
      "taf": "TAF HESX 120500Z 1206/1312 32008KT CAVOK"
    },
    {
      "icao": "LATI",
      "alert": "OK",
      "vis_m": 9999,
      "fzfg": false,
      "metar_trigger": false,
      "taf_trigger": false,
      "metar": "METAR LATI 120850Z VRB02KT CAVOK 20/04 Q1016 NOSIG",
      "taf": "TAF LATI 120500Z 1206/1306 VRB03KT CAVOK TX24/1213Z TN10/1303Z"
    },
    {
      "icao": "LBPD",
      "alert": "OK",
      "vis_m": 9999,
      "fzfg": false,
      "metar_trigger": false,
      "taf_trigger": false,
      "metar": "METAR LBPD 120900Z AUTO 28005KT 240V340 9999 NCD 13/02 Q1020 NOSIG",
      "taf": "TAF LBPD 120500Z 1206/1306 VRB04KT 9999 BKN060"
    },
    {
      "icao": "LBSF",
      "alert": "OK",
      "vis_m": 9999,
      "fzfg": false,
      "metar_trigger": false,
      "taf_trigger": false,
      "metar": "METAR LBSF 120900Z VRB03KT 9999 FEW051 11/M01 Q1020 NOSIG",
      "taf": "TAF LBSF 120500Z 1206/1306 VRB04KT 9999 BKN050"
    },
    {
      "icao": "LBWN",
      "alert": "OK",
      "vis_m": 9999,
      "fzfg": false,
      "metar_trigger": false,
      "taf_trigger": false,
      "metar": "METAR LBWN 120900Z 13009KT 090V150 9999 SCT031 11/04 Q1021 NOSIG",
      "taf": "TAF LBWN 120500Z 1206/1306 VRB03KT 9999 SCT020 BKN040"
    },
    {
      "icao": "LCLK",
      "alert": "OK",
      "vis_m": 9999,
      "fzfg": false,
      "metar_trigger": false,
      "taf_trigger": false,
      "metar": "METAR LCLK 120900Z 20010KT 9999 FEW025 SCT060 22/11 Q1014 NOSIG",
      "taf": "TAF LCLK 120530Z 1206/1306 26006KT 9999 FEW030"
    },
    {
      "icao": "LCPH",
      "alert": "OK",
      "vis_m": 9999,
      "fzfg": false,
      "metar_trigger": false,
      "taf_trigger": false,
      "metar": "METAR LCPH 120900Z 31015KT 250V320 9999 FEW030 20/11 Q1015 NOSIG",
      "taf": "TAF LCPH 120530Z 1206/1306 31015KT 9999 SCT025"
    },
    {
      "icao": "LEAL",
      "alert": "OK",
      "vis_m": 9999,
      "fzfg": false,
      "metar_trigger": false,
      "taf_trigger": false,
      "metar": "METAR LEAL 120830Z 02005KT 340V060 9999 FEW065 20/13 Q1008 NOSIG",
      "taf": "TAF LEAL 120500Z 1206/1306 01012KT CAVOK TX19/1213Z TN12/1206Z"
    },
    {
      "icao": "LEBB",
      "alert": "OK",
      "vis_m": 9999,
      "fzfg": false,
      "metar_trigger": false,
      "taf_trigger": false,
      "metar": "METAR LEBB 120830Z 26001KT 9999 FEW020 BKN052 10/09 Q1018 NOSIG",
      "taf": "TAF LEBB 120500Z 1206/1306 31009KT 9999 BKN040 TX14/1214Z TN08/1300Z"
    },
    {
      "icao": "LEBL",
      "alert": "OK",
      "vis_m": 9999,
      "fzfg": false,
      "metar_trigger": false,
      "taf_trigger": false,
      "metar": "METAR LEBL 120830Z 34010KT 300V010 CAVOK 16/09 Q1010 NOSIG",
      "taf": "TAF LEBL 120500Z 1206/1306 VRB04KT CAVOK TX18/1212Z TN11/1206Z"
    },
    {
      "icao": "LECH",
      "alert": "OK",
      "vis_m": 9999,
      "fzfg": false,
      "metar_trigger": false,
      "taf_trigger": false,
      "metar": "METAR LECH 120830Z AUTO VRB01KT CAVOK 14/07 Q1010",
      "taf": "TAF LECH 120500Z 1206/1306 01010KT CAVOK TX18/1214Z TN08/1206Z"
    },
    {
      "icao": "LEMD",
      "alert": "OK",
      "vis_m": 9999,
      "fzfg": false,
      "metar_trigger": false,
      "taf_trigger": false,
      "metar": "METAR LEMD 120830Z 03004KT 330V080 9999 FEW050 SCT077 13/09 Q1011 NOSIG",
      "taf": ""
    },
    {
      "icao": "LEMG",
      "alert": "OK",
      "vis_m": 9999,
      "fzfg": false,
      "metar_trigger": false,
      "taf_trigger": false,
      "metar": "METAR LEMG 120830Z 30011KT 9999 FEW080 18/12 Q1010 NOSIG",
      "taf": "TAF LEMG 120500Z 1206/1306 30012KT 9999 FEW040 TX21/1214Z TN15/1206Z"
    },
    {
      "icao": "LEVC",
      "alert": "OK",
      "vis_m": 9999,
      "fzfg": false,
      "metar_trigger": false,
      "taf_trigger": false,
      "metar": "METAR LEVC 120830Z 31009KT 9999 SCT050 16/12 Q1010 NOSIG",
      "taf": "TAF LEVC 120500Z 1206/1306 36008KT CAVOK TX17/1213Z TN11/1206Z"
    },
    {
      "icao": "LEXJ",
      "alert": "OK",
      "vis_m": 9999,
      "fzfg": false,
      "metar_trigger": false,
      "taf_trigger": false,
      "metar": "METAR LEXJ 120830Z 27005KT 240V300 9999 FEW035 BKN045 10/05 Q1019",
      "taf": "TAF LEXJ 120800Z 1209/1309 29009KT 9999 SCT030 BKN040 TX15/1214Z TN08/1306Z"
    },
    {
      "icao": "LEZG",
      "alert": "OK",
      "vis_m": 5000,
      "fzfg": false,
      "metar_trigger": false,
      "taf_trigger": false,
      "metar": "METAR LEZG 120830Z 29016KT 5000 -RA FEW020 BKN065 08/06 Q1014 NOSIG",
      "taf": "TAF LEZG 120500Z 1206/1306 31020KT CAVOK TX12/1213Z TN07/1206Z"
    },
    {
      "icao": "LEZL",
      "alert": "OK",
      "vis_m": 9999,
      "fzfg": false,
      "metar_trigger": false,
      "taf_trigger": false,
      "metar": "METAR LEZL 120830Z 28007KT 250V330 CAVOK 15/10 Q1013 NOSIG",
      "taf": "TAF LEZL 120800Z 1209/1309 31010KT CAVOK TX21/1215Z TN09/1306Z"
    },
    {
      "icao": "LFBD",
      "alert": "OK",
      "vis_m": 9999,
      "fzfg": false,
      "metar_trigger": false,
      "taf_trigger": false,
      "metar": "METAR LFBD 120830Z AUTO VRB03KT 9999 SCT005 OVC082 09/08 Q1018 NOSIG",
      "taf": ""
    },
    {
      "icao": "LFLL",
      "alert": "OK",
      "vis_m": 9999,
      "fzfg": false,
      "metar_trigger": false,
      "taf_trigger": false,
      "metar": "METAR LFLL 120800Z COR 32009KT 9999 -RA BKN008 BKN023 BKN033 08/07 Q1016 NOSIG",
      "taf": "TAF LFLL 120500Z 1206/1312 34012KT 9999 SCT018 OVC035"
    },
    {
      "icao": "LFLS",
      "alert": "OK",
      "vis_m": 9999,
      "fzfg": false,
      "metar_trigger": false,
      "taf_trigger": false,
      "metar": "METAR LFLS 120830Z AUTO 31005KT 270V330 9999 -RA OVC009/// ///TCU 08/07 Q1015 TEMPO 4000 RA BKN007",
      "taf": "TAF LFLS 120800Z 1209/1309 33008KT 9999 OVC018"
    },
    {
      "icao": "LFMN",
      "alert": "OK",
      "vis_m": 9999,
      "fzfg": false,
      "metar_trigger": false,
      "taf_trigger": false,
      "metar": "METAR LFMN 120830Z 36003KT 330V040 CAVOK 16/12 Q1011 NOSIG",
      "taf": "TAF LFMN 120800Z 1209/1315 09010KT CAVOK"
    },
    {
      "icao": "LFOB",
      "alert": "OK",
      "vis_m": 9999,
      "fzfg": false,
      "metar_trigger": false,
      "taf_trigger": false,
      "metar": "METAR LFOB 120830Z AUTO 22011KT CAVOK 09/04 Q1016 NOSIG",
      "taf": "TAF LFOB 120500Z 1206/1306 20010KT CAVOK"
    },
    {
      "icao": "LFPO",
      "alert": "OK",
      "vis_m": 9999,
      "fzfg": false,
      "metar_trigger": false,
      "taf_trigger": false,
      "metar": "METAR LFPO 120830Z VRB03KT CAVOK 08/04 Q1017 NOSIG",
      "taf": "TAF LFPO 120500Z 1206/1312 20004KT CAVOK"
    },
    {
      "icao": "LFSB",
      "alert": "OK",
      "vis_m": 9999,
      "fzfg": false,
      "metar_trigger": false,
      "taf_trigger": false,
      "metar": "METAR LFSB 120830Z AUTO 34010KT 9999 -RA FEW008/// SCT033/// OVC072/// ///TCU 07/05 Q1017 TEMPO BKN008",
      "taf": "TAF LFSB 120500Z 1206/1306 32007KT 9999 OVC020"
    },
    {
      "icao": "LGAV",
      "alert": "OK",
      "vis_m": 9999,
      "fzfg": false,
      "metar_trigger": false,
      "taf_trigger": false,
      "metar": "METAR LGAV 120850Z VRB03KT 9999 SCT025 17/09 Q1019 NOSIG",
      "taf": "TAF LGAV 120500Z 1206/1306 VRB05KT 9999 BKN025"
    },
    {
      "icao": "LGTS",
      "alert": "OK",
      "vis_m": 9999,
      "fzfg": false,
      "metar_trigger": false,
      "taf_trigger": false,
      "metar": "METAR LGTS 120850Z 31006KT 9999 SCT025 15/10 Q1020 NOSIG",
      "taf": "TAF LGTS 120500Z 1206/1306 13010KT 9999 FEW010 BKN025"
    },
    {
      "icao": "LHBP",
      "alert": "OK",
      "vis_m": 9999,
      "fzfg": false,
      "metar_trigger": false,
      "taf_trigger": false,
      "metar": "METAR LHBP 120900Z 13008KT CAVOK 11/M02 Q1020 NOSIG",
      "taf": "TAF LHBP 120515Z 1206/1306 10006KT CAVOK"
    },
    {
      "icao": "LHDC",
      "alert": "OK",
      "vis_m": 9999,
      "fzfg": false,
      "metar_trigger": false,
      "taf_trigger": false,
      "metar": "METAR LHDC 120815Z AUTO VRB03KT CAVOK 11/M02 Q1021 NOSIG",
      "taf": "TAF LHDC 120815Z 1209/1218 VRB04KT CAVOK"
    },
    {
      "icao": "LIBD",
      "alert": "OK",
      "vis_m": 9999,
      "fzfg": false,
      "metar_trigger": false,
      "taf_trigger": false,
      "metar": "METAR LIBD 120850Z 18005KT 140V200 CAVOK 18/13 Q1015",
      "taf": "TAF LIBD 120500Z 1206/1306 VRB05KT 9999 FEW040"
    },
    {
      "icao": "LIBG",
      "alert": "OK",
      "vis_m": 7000,
      "fzfg": false,
      "metar_trigger": false,
      "taf_trigger": false,
      "metar": "METAR LIBG 120750Z 17005KT 7000 BKN016 16/16 Q1016",
      "taf": ""
    },
    {
      "icao": "LIBP",
      "alert": "OK",
      "vis_m": 9999,
      "fzfg": false,
      "metar_trigger": false,
      "taf_trigger": false,
      "metar": "METAR LIBP 120850Z AUTO VRB01KT 9999 OVC008/// 15/14 Q1015",
      "taf": "TAF LIBP 120500Z 1206/1306 VRB05KT 6000 BKN020"
    },
    {
      "icao": "LIBR",
      "alert": "OK",
      "vis_m": 9999,
      "fzfg": false,
      "metar_trigger": false,
      "taf_trigger": false,
      "metar": "METAR LIBR 120850Z 20010KT 9999 SCT015 17/14 Q1016",
      "taf": ""
    },
    {
      "icao": "LICA",
      "alert": "OK",
      "vis_m": 9999,
      "fzfg": false,
      "metar_trigger": false,
      "taf_trigger": false,
      "metar": "METAR LICA 120850Z AUTO 08017KT 9999 NCD 18/13 Q1014",
      "taf": "TAF LICA 120500Z 1206/1306 08018KT CAVOK"
    },
    {
      "icao": "LICC",
      "alert": "OK",
      "vis_m": 9999,
      "fzfg": false,
      "metar_trigger": false,
      "taf_trigger": false,
      "metar": "METAR LICC 120850Z 06016KT 9999 FEW020 SCT060 18/13 Q1014",
      "taf": "TAF LICC 120500Z 1206/1306 VRB05KT CAVOK"
    },
    {
      "icao": "LICJ",
      "alert": "OK",
      "vis_m": 9999,
      "fzfg": false,
      "metar_trigger": false,
      "taf_trigger": false,
      "metar": "METAR LICJ 120850Z 21006KT CAVOK 19/12 Q1009",
      "taf": "TAF LICJ 120500Z 1206/1306 VRB05KT CAVOK"
    },
    {
      "icao": "LIMC",
      "alert": "OK",
      "vis_m": 9999,
      "fzfg": false,
      "metar_trigger": false,
      "taf_trigger": false,
      "metar": "METAR LIMC 120850Z 09004KT 010V140 9999 SCT035 SCT070 15/09 Q1015 NOSIG",
      "taf": "TAF LIMC 120500Z 1206/1312 VRB05KT 9999 FEW040"
    },
    {
      "icao": "LIME",
      "alert": "OK",
      "vis_m": 9999,
      "fzfg": false,
      "metar_trigger": false,
      "taf_trigger": false,
      "metar": "METAR LIME 120850Z VRB02KT CAVOK 14/08 Q1015 NOSIG",
      "taf": "TAF LIME 120500Z 1206/1306 VRB04KT 9999 FEW040"
    },
    {
      "icao": "LIMF",
      "alert": "OK",
      "vis_m": 8000,
      "fzfg": false,
      "metar_trigger": false,
      "taf_trigger": false,
      "metar": "METAR LIMF 120850Z 01003KT 330V030 8000 OVC015 14/10 Q1015",
      "taf": "TAF LIMF 120500Z 1206/1306 VRB04KT 9999 SCT045"
    },
    {
      "icao": "LIMJ",
      "alert": "OK",
      "vis_m": 9999,
      "fzfg": false,
      "metar_trigger": false,
      "taf_trigger": false,
      "metar": "METAR LIMJ 120850Z 03007KT 9999 FEW060 19/11 Q1012",
      "taf": "TAF LIMJ 120500Z 1206/1306 VRB05KT 9999 FEW025"
    },
    {
      "icao": "LIPE",
      "alert": "OK",
      "vis_m": 6000,
      "fzfg": false,
      "metar_trigger": false,
      "taf_trigger": false,
      "metar": "METAR LIPE 120850Z 06004KT 030V110 6000 SCT009 BKN020 15/13 Q1014",
      "taf": "TAF LIPE 120500Z 1206/1306 VRB05KT 2000 BR BKN010"
    },
    {
      "icao": "LIPH",
      "alert": "OK",
      "vis_m": 9999,
      "fzfg": false,
      "metar_trigger": false,
      "taf_trigger": false,
      "metar": "METAR LIPH 120850Z 08005KT CAVOK 17/07 Q1015",
      "taf": "TAF LIPH 120500Z 1206/1306 VRB05KT CAVOK"
    },
    {
      "icao": "LIPQ",
      "alert": "OK",
      "vis_m": 9999,
      "fzfg": false,
      "metar_trigger": false,
      "taf_trigger": false,
      "metar": "METAR LIPQ 120850Z AUTO VRB02KT 9999 NCD 20/07 Q1015",
      "taf": "TAF LIPQ 120500Z 1206/1306 VRB05KT 9999 FEW060"
    },
    {
      "icao": "LIPR",
      "alert": "OK",
      "vis_m": 9999,
      "fzfg": false,
      "metar_trigger": false,
      "taf_trigger": false,
      "metar": "METAR LIPR 120850Z 14005KT 110V190 9999 BKN010 15/12 Q1014",
      "taf": "TAF LIPR 120500Z 1206/1306 VRB05KT 2000 BR BKN010"
    },
    {
      "icao": "LIPX",
      "alert": "OK",
      "vis_m": 9999,
      "fzfg": false,
      "metar_trigger": false,
      "taf_trigger": false,
      "metar": "METAR LIPX 120850Z 11007KT 040V190 9999 FEW060 17/04 Q1015",
      "taf": "TAF LIPX 120500Z 1206/1306 VRB05KT CAVOK"
    },
    {
      "icao": "LIPY",
      "alert": "OK",
      "vis_m": 9999,
      "fzfg": false,
      "metar_trigger": false,
      "taf_trigger": false,
      "metar": "METAR LIPY 120850Z AUTO 13005KT 090V190 9999 BKN018/// 17/13 Q1014",
      "taf": "TAF LIPY 120500Z 1206/1306 VRB05KT 2000 BR BKN010"
    },
    {
      "icao": "LIPZ",
      "alert": "OK",
      "vis_m": 9999,
      "fzfg": false,
      "metar_trigger": false,
      "taf_trigger": false,
      "metar": "METAR LIPZ 120850Z 08006KT 050V110 CAVOK 16/07 Q1015 NOSIG",
      "taf": "TAF LIPZ 120500Z 1206/1312 VRB05KT CAVOK"
    },
    {
      "icao": "LIRF",
      "alert": "OK",
      "vis_m": 9999,
      "fzfg": false,
      "metar_trigger": false,
      "taf_trigger": false,
      "metar": "METAR LIRF 120850Z 06004KT CAVOK 16/13 Q1012 NOSIG",
      "taf": "TAF LIRF 120500Z 1206/1312 10006KT CAVOK"
    },
    {
      "icao": "LIRN",
      "alert": "OK",
      "vis_m": 9999,
      "fzfg": false,
      "metar_trigger": false,
      "taf_trigger": false,
      "metar": "METAR LIRN 120850Z 35006KT 310V050 CAVOK 18/09 Q1013 NOSIG",
      "taf": "TAF LIRN 120500Z 1206/1306 VRB05KT CAVOK"
    },
    {
      "icao": "LIRP",
      "alert": "OK",
      "vis_m": 8000,
      "fzfg": false,
      "metar_trigger": false,
      "taf_trigger": false,
      "metar": "METAR LIRP 120845Z 13003KT 8000 NSC 15/12 Q1011 NOSIG",
      "taf": "TAF LIRP 120500Z 1206/1306 12005KT 9999 FEW010"
    },
    {
      "icao": "LIRZ",
      "alert": "OK",
      "vis_m": 9999,
      "fzfg": false,
      "metar_trigger": false,
      "taf_trigger": false,
      "metar": "METAR LIRZ 120850Z AUTO VRB01KT 9999 NCD 16/12 Q1013",
      "taf": "TAF LIRZ 120500Z 1206/1306 VRB05KT CAVOK"
    },
    {
      "icao": "LJLJ",
      "alert": "OK",
      "vis_m": 9999,
      "fzfg": false,
      "metar_trigger": false,
      "taf_trigger": false,
      "metar": "METAR LJLJ 120830Z 11003KT 060V150 9999 FEW040 BKN130 12/06 Q1017 NOSIG",
      "taf": "TAF LJLJ 120500Z 1206/1306 VRB02KT CAVOK"
    },
    {
      "icao": "LKMT",
      "alert": "OK",
      "vis_m": 9999,
      "fzfg": false,
      "metar_trigger": false,
      "taf_trigger": false,
      "metar": "METAR LKMT 120830Z VRB03KT CAVOK 07/M01 Q1019 NOSIG",
      "taf": "TAF LKMT 120500Z 1206/1306 VRB02KT CAVOK"
    },
    {
      "icao": "LKPR",
      "alert": "OK",
      "vis_m": 9999,
      "fzfg": false,
      "metar_trigger": false,
      "taf_trigger": false,
      "metar": "METAR LKPR 120830Z 09007KT CAVOK 07/M01 Q1016 NOSIG",
      "taf": "TAF LKPR 120800Z 1209/1315 08006KT CAVOK"
    },
    {
      "icao": "LLBG",
      "alert": "OK",
      "vis_m": 9999,
      "fzfg": false,
      "metar_trigger": false,
      "taf_trigger": false,
      "metar": "METAR LLBG 120850Z 26009KT 220V300 9999 SCT030 SCT040 21/10 Q1017 NOSIG",
      "taf": "TAF LLBG 120502Z 1206/1306 VRB03KT 9999 SCT025 TX20/1209Z TN11/1303Z"
    },
    {
      "icao": "LMML",
      "alert": "OK",
      "vis_m": 9999,
      "fzfg": false,
      "metar_trigger": false,
      "taf_trigger": false,
      "metar": "METAR LMML 120845Z 10023KT CAVOK 21/13 Q1010 NOSIG",
      "taf": "TAF LMML 120500Z 1206/1306 13008KT CAVOK"
    },
    {
      "icao": "LOWW",
      "alert": "OK",
      "vis_m": 9999,
      "fzfg": false,
      "metar_trigger": false,
      "taf_trigger": false,
      "metar": "METAR LOWW 120850Z 13011KT CAVOK 09/01 Q1017 NOSIG",
      "taf": "TAF LOWW 120815Z 1209/1315 14013KT 9999 FEW040 TX18/1314Z TN08/1305Z"
    },
    {
      "icao": "LPFR",
      "alert": "OK",
      "vis_m": 9999,
      "fzfg": false,
      "metar_trigger": false,
      "taf_trigger": false,
      "metar": "METAR LPFR 120830Z 33019KT CAVOK 13/03 Q1016",
      "taf": "TAF LPFR 120500Z 1206/1306 31012KT CAVOK"
    },
    {
      "icao": "LPMA",
      "alert": "OK",
      "vis_m": 9999,
      "fzfg": false,
      "metar_trigger": false,
      "taf_trigger": false,
      "metar": "METAR LPMA 120830Z 02019KT 9999 SCT015 SCT030 14/06 Q1027",
      "taf": "TAF LPMA 120500Z 1206/1306 01015KT 9999 SCT015 SCT030"
    },
    {
      "icao": "LPPR",
      "alert": "OK",
      "vis_m": 9999,
      "fzfg": false,
      "metar_trigger": false,
      "taf_trigger": false,
      "metar": "METAR LPPR 120830Z 02007KT 340V060 9999 FEW034 SCT042 11/04 Q1020",
      "taf": "TAF LPPR 120500Z 1206/1306 36008KT 9999 FEW025"
    },
    {
      "icao": "LPPS",
      "alert": "OK",
      "vis_m": 9999,
      "fzfg": false,
      "metar_trigger": false,
      "taf_trigger": false,
      "metar": "METAR LPPS 120830Z 02011KT 350V070 9999 SCT015 BKN030 14/06 Q1027",
      "taf": "TAF LPPS 120500Z 1206/1312 02015KT 9999 SCT015 SCT030"
    },
    {
      "icao": "LPPT",
      "alert": "OK",
      "vis_m": 9999,
      "fzfg": false,
      "metar_trigger": false,
      "taf_trigger": false,
      "metar": "METAR LPPT 120830Z 35021G31KT 9999 BKN033 13/06 Q1019 WS R02",
      "taf": "TAF LPPT 120500Z 1206/1312 34018KT 9999 FEW025"
    },
    {
      "icao": "LQBK",
      "alert": "OK",
      "vis_m": 9999,
      "fzfg": false,
      "metar_trigger": false,
      "taf_trigger": false,
      "metar": "METAR LQBK 120830Z VRB03KT CAVOK 14/04 Q1017 NOSIG",
      "taf": "TAF LQBK 120500Z 1206/1306 03005KT CAVOK TX20/1214Z TN06/1304Z"
    },
    {
      "icao": "LQSA",
      "alert": "OK",
      "vis_m": 9999,
      "fzfg": false,
      "metar_trigger": false,
      "taf_trigger": false,
      "metar": "METAR LQSA 120830Z VRB02KT CAVOK 15/03 Q1017 NOSIG",
      "taf": "TAF LQSA 120500Z 1206/1306 VRB02KT CAVOK TX24/1214Z TN06/1304Z"
    },
    {
      "icao": "LQTZ",
      "alert": "OK",
      "vis_m": 9999,
      "fzfg": false,
      "metar_trigger": false,
      "taf_trigger": false,
      "metar": "METAR LQTZ 120830Z 12009KT CAVOK 15/05 Q1018",
      "taf": "TAF LQTZ 120500Z 1206/1306 06006KT CAVOK TX21/1214Z TN07/1304Z"
    },
    {
      "icao": "LRBC",
      "alert": "OK",
      "vis_m": 9999,
      "fzfg": false,
      "metar_trigger": false,
      "taf_trigger": false,
      "metar": "METAR LRBC 120830Z VRB04KT 9999 FEW026 SCT043 09/01 Q1021",
      "taf": "TAF LRBC 120800Z 1209/1218 35005KT 9999 SCT040"
    },
    {
      "icao": "LRBS",
      "alert": "OK",
      "vis_m": 9999,
      "fzfg": false,
      "metar_trigger": false,
      "taf_trigger": false,
      "metar": "METAR LRBS 120830Z VRB04KT 9999 FEW025 11/04 Q1021 NOSIG",
      "taf": "TAF LRBS 120500Z 1206/1306 VRB04KT 5000 BR NSC"
    },
    {
      "icao": "LRBV",
      "alert": "OK",
      "vis_m": 9999,
      "fzfg": false,
      "metar_trigger": false,
      "taf_trigger": false,
      "metar": "METAR LRBV 120830Z 33003KT 9999 FEW071 10/M04 Q1020",
      "taf": "TAF LRBV 120800Z 1209/1218 VRB04KT CAVOK"
    },
    {
      "icao": "LRCL",
      "alert": "OK",
      "vis_m": 9999,
      "fzfg": false,
      "metar_trigger": false,
      "taf_trigger": false,
      "metar": "METAR LRCL 120830Z COR 09003KT 010V140 9999 FEW061 11/M02 Q1020",
      "taf": "TAF LRCL 120800Z 1209/1218 VRB04KT CAVOK"
    },
    {
      "icao": "LRCV",
      "alert": "OK",
      "vis_m": 9999,
      "fzfg": false,
      "metar_trigger": false,
      "taf_trigger": false,
      "metar": "METAR LRCV 120830Z 17003KT 130V230 9999 FEW025 12/04 Q1021",
      "taf": "TAF LRCV 120800Z 1209/1218 09006KT CAVOK"
    },
    {
      "icao": "LRIA",
      "alert": "OK",
      "vis_m": 9999,
      "fzfg": false,
      "metar_trigger": false,
      "taf_trigger": false,
      "metar": "METAR LRIA 120830Z VRB03KT 9999 FEW027 SCT031 BKN037 09/00 Q1021",
      "taf": "TAF LRIA 120800Z 1209/1218 VRB04KT 9999 BKN035"
    },
    {
      "icao": "LROP",
      "alert": "OK",
      "vis_m": 9999,
      "fzfg": false,
      "metar_trigger": false,
      "taf_trigger": false,
      "metar": "METAR LROP 120830Z 09005KT 060V130 9999 SCT027 12/02 Q1021 NOSIG",
      "taf": "TAF LROP 120500Z 1206/1306 VRB04KT 5000 BR NSC"
    },
    {
      "icao": "LRSB",
      "alert": "OK",
      "vis_m": 9999,
      "fzfg": false,
      "metar_trigger": false,
      "taf_trigger": false,
      "metar": "METAR LRSB 120830Z COR VRB03KT CAVOK 11/M03 Q1020",
      "taf": "TAF LRSB 120500Z 1206/1306 VRB04KT CAVOK"
    },
    {
      "icao": "LRSM",
      "alert": "OK",
      "vis_m": 9999,
      "fzfg": false,
      "metar_trigger": false,
      "taf_trigger": false,
      "metar": "METAR LRSM 120830Z AUTO VRB03KT 9999 NCD 10/M03 Q1021",
      "taf": ""
    },
    {
      "icao": "LRSV",
      "alert": "OK",
      "vis_m": 9999,
      "fzfg": false,
      "metar_trigger": false,
      "taf_trigger": false,
      "metar": "METAR LRSV 120830Z VRB02KT 9999 SCT039 07/M02 Q1020",
      "taf": "TAF LRSV 120800Z 1209/1218 VRB04KT 9999 SCT040"
    },
    {
      "icao": "LRTM",
      "alert": "OK",
      "vis_m": 9999,
      "fzfg": false,
      "metar_trigger": false,
      "taf_trigger": false,
      "metar": "METAR LRTM 120830Z 22003KT 160V320 CAVOK 11/M00 Q1020",
      "taf": "TAF LRTM 120800Z 1209/1218 VRB04KT CAVOK"
    },
    {
      "icao": "LRTR",
      "alert": "OK",
      "vis_m": 9999,
      "fzfg": false,
      "metar_trigger": false,
      "taf_trigger": false,
      "metar": "METAR LRTR 120830Z 09006KT 050V140 CAVOK 12/01 Q1020 NOSIG",
      "taf": "TAF LRTR 120500Z 1206/1306 08008KT CAVOK"
    },
    {
      "icao": "LTAC",
      "alert": "OK",
      "vis_m": 9999,
      "fzfg": false,
      "metar_trigger": false,
      "taf_trigger": false,
      "metar": "METAR LTAC 120850Z VRB03KT 9999 SCT033 08/M02 Q1016 NOSIG RMK RWY21C 03003KT 340V060 RWY03L VRB02KT RWY21R 05005KT 010V090 RWY03R VRB02KT RWY21L VRB02KT",
      "taf": "TAF LTAC 120440Z 1206/1306 VRB02KT 9999 SCT040"
    },
    {
      "icao": "LTFM",
      "alert": "OK",
      "vis_m": 9999,
      "fzfg": false,
      "metar_trigger": false,
      "taf_trigger": false,
      "metar": "METAR LTFM 120850Z 07010KT 040V100 9999 FEW035 BKN090 11/02 Q1021 NOSIG RMK RWY17L 07011KT RWY34L 08009KT RWY16R 07011KT RWY36 08011KT 040V100 RWY18 07011KT",
      "taf": "TAF LTFM 120440Z 1206/1312 VRB02KT 9999 SCT035 BKN100"
    },
    {
      "icao": "LUKK",
      "alert": "OK",
      "vis_m": 9999,
      "fzfg": false,
      "metar_trigger": false,
      "taf_trigger": false,
      "metar": "METAR LUKK 120830Z 14005KT 100V230 CAVOK 09/03 Q1021 NOSIG",
      "taf": "TAF LUKK 120504Z 1206/1306 VRB06KT 9999 BKN030"
    },
    {
      "icao": "LWOH",
      "alert": "OK",
      "vis_m": 9999,
      "fzfg": false,
      "metar_trigger": false,
      "taf_trigger": false,
      "metar": "METAR LWOH 120850Z 15005KT 130V190 9999 FEW045 12/06 Q1018",
      "taf": "TAF LWOH 120830Z 1209/1309 16008KT CAVOK"
    },
    {
      "icao": "LWSK",
      "alert": "OK",
      "vis_m": 9999,
      "fzfg": false,
      "metar_trigger": false,
      "taf_trigger": false,
      "metar": "METAR LWSK 120850Z 08003KT 360V170 9999 BKN080 15/07 Q1019 NOSIG",
      "taf": "TAF LWSK 120830Z 1209/1309 VRB02KT 9999 SCT090"
    },
    {
      "icao": "LYBE",
      "alert": "OK",
      "vis_m": 9999,
      "fzfg": false,
      "metar_trigger": false,
      "taf_trigger": false,
      "metar": "METAR LYBE 120830Z 13009KT CAVOK 13/01 Q1020 NOSIG",
      "taf": "TAF LYBE 120500Z 1206/1306 08008KT CAVOK TX18/1213Z TN06/1206Z"
    },
    {
      "icao": "LYNI",
      "alert": "OK",
      "vis_m": 9999,
      "fzfg": false,
      "metar_trigger": false,
      "taf_trigger": false,
      "metar": "METAR LYNI 120830Z 22004KT 170V280 9999 BKN090 12/05 Q1019 NOSIG",
      "taf": "TAF LYNI 120500Z 1206/1306 07005KT 9999 SCT045 SCT090 TX18/1213Z TN07/1304Z"
    },
    {
      "icao": "LYPG",
      "alert": "OK",
      "vis_m": 9999,
      "fzfg": false,
      "metar_trigger": false,
      "taf_trigger": false,
      "metar": "METAR LYPG 120830Z 19001KT CAVOK 19/04 Q1017 NOSIG",
      "taf": "TAF LYPG 120500Z 1206/1306 19007KT CAVOK TX24/1213Z TN10/1303Z"
    },
    {
      "icao": "LZIB",
      "alert": "OK",
      "vis_m": 9999,
      "fzfg": false,
      "metar_trigger": false,
      "taf_trigger": false,
      "metar": "METAR LZIB 120900Z 08008KT 9999 BKN049 09/M01 Q1019 BECMG 14012KT",
      "taf": "TAF LZIB 120515Z 1206/1306 04007KT 9999 SCT040 BKN047"
    },
    {
      "icao": "LZKZ",
      "alert": "OK",
      "vis_m": 9999,
      "fzfg": false,
      "metar_trigger": false,
      "taf_trigger": false,
      "metar": "METAR LZKZ 120900Z VRB02KT CAVOK 11/M04 Q1021 NOSIG",
      "taf": "TAF LZKZ 120515Z 1206/1306 VRB02KT CAVOK"
    },
    {
      "icao": "LZTT",
      "alert": "OK",
      "vis_m": 9999,
      "fzfg": false,
      "metar_trigger": false,
      "taf_trigger": false,
      "metar": "METAR LZTT 120900Z VRB03KT CAVOK 07/M05 Q1019 NOSIG",
      "taf": "TAF LZTT 120515Z 1206/1306 07008KT CAVOK"
    },
    {
      "icao": "OEJN",
      "alert": "OK",
      "vis_m": 9999,
      "fzfg": false,
      "metar_trigger": false,
      "taf_trigger": false,
      "metar": "METAR OEJN 120900Z 33010KT CAVOK 30/07 Q1013 NOSIG",
      "taf": "TAF OEJN 120500Z 1206/1312 34014KT CAVOK"
    },
    {
      "icao": "OEMA",
      "alert": "OK",
      "vis_m": 9999,
      "fzfg": false,
      "metar_trigger": false,
      "taf_trigger": false,
      "metar": "METAR OEMA 120900Z 13007KT CAVOK 28/M06 Q1016 NOSIG",
      "taf": "TAF OEMA 120500Z 1206/1312 10006KT CAVOK"
    },
    {
      "icao": "OJAI",
      "alert": "OK",
      "vis_m": 4000,
      "fzfg": false,
      "metar_trigger": false,
      "taf_trigger": false,
      "metar": "METAR OJAI 120800Z 26008KT 4000 HZ FEW030 16/06 Q1019 NOSIG",
      "taf": "TAF OJAI 120500Z 1206/1312 29010KT 5000 HZ FEW030"
    },
    {
      "icao": "OMAA",
      "alert": "OK",
      "vis_m": null,
      "fzfg": false,
      "metar_trigger": false,
      "taf_trigger": false,
      "metar": "",
      "taf": ""
    },
    {
      "icao": "OMDB",
      "alert": "OK",
      "vis_m": null,
      "fzfg": false,
      "metar_trigger": false,
      "taf_trigger": false,
      "metar": "",
      "taf": ""
    },
    {
      "icao": "UAAA",
      "alert": "OK",
      "vis_m": 9999,
      "fzfg": false,
      "metar_trigger": false,
      "taf_trigger": false,
      "metar": "METAR UAAA 120830Z 08002MPS 9999 FEW050 20/07 Q1022 NOSIG",
      "taf": "TAF UAAA 120501Z 1206/1306 35003MPS 9999 FEW100 TX21/1208Z TN05/1301Z"
    },
    {
      "icao": "UBBB",
      "alert": "OK",
      "vis_m": 9999,
      "fzfg": false,
      "metar_trigger": false,
      "taf_trigger": false,
      "metar": "METAR UBBB 120900Z 33020KT 9999 SCT015 13/09 Q1014 NOSIG",
      "taf": "TAF UBBB 120506Z 1206/1306 35016KT 9999 SCT012 SCT040 TX13/1208Z TN08/1300Z"
    },
    {
      "icao": "UDSG",
      "alert": "OK",
      "vis_m": 9999,
      "fzfg": false,
      "metar_trigger": false,
      "taf_trigger": false,
      "metar": "METAR UDSG 120830Z 31002KT 9999 SCT033CB BKN040 06/01 Q1013 NOSIG",
      "taf": "TAF UDSG 120458Z 1206/1306 36006KT 9999 BKN030"
    },
    {
      "icao": "UDYZ",
      "alert": "OK",
      "vis_m": 9999,
      "fzfg": false,
      "metar_trigger": false,
      "taf_trigger": false,
      "metar": "METAR UDYZ 120830Z 11006KT 070V150 9999 SCT040CB 14/05 Q1011 NOSIG",
      "taf": "TAF UDYZ 120500Z 1206/1306 20006KT 9999 BKN040"
    },
    {
      "icao": "UGKO",
      "alert": "OK",
      "vis_m": 9999,
      "fzfg": false,
      "metar_trigger": false,
      "taf_trigger": false,
      "metar": "METAR UGKO 120830Z VRB02KT 9999 SCT025 BKN050 12/05 Q1017 NOSIG",
      "taf": "TAF UGKO 120500Z 1206/1306 26007KT 9999 SCT020 BKN045 TX12/1211Z TN06/1303Z"
    }
  ]
}