{
  "ts_utc": "2026-05-09T01:18:39Z",
  "threshold_m": 150,
  "source": "stations_override.txt (ICAO list) + aviationweather.gov (METAR/TAF raw)",
  "station_count": 159,
  "stations": [
    {
      "icao": "BIKF",
      "alert": "OK",
      "vis_m": 9999,
      "fzfg": false,
      "metar_trigger": false,
      "taf_trigger": false,
      "metar": "METAR BIKF 090100Z 29006KT 9999 FEW018 BKN059 03/01 Q1025",
      "taf": "TAF BIKF 090104Z 0903/1003 27012KT 9999 SCT013 BKN023 TX06/0915Z TN04/0906Z"
    },
    {
      "icao": "BKPR",
      "alert": "OK",
      "vis_m": 9000,
      "fzfg": false,
      "metar_trigger": false,
      "taf_trigger": false,
      "metar": "METAR BKPR 090100Z VRB01KT 9000 -RA FEW014 BKN035 BKN061 12/12 Q1016 NOSIG",
      "taf": "TAF BKPR 082330Z 0900/0924 VRB05KT 9999 SCT020 BKN050"
    },
    {
      "icao": "EBCI",
      "alert": "OK",
      "vis_m": 9999,
      "fzfg": false,
      "metar_trigger": false,
      "taf_trigger": false,
      "metar": "METAR EBCI 090050Z 09006KT CAVOK 11/06 Q1018 NOSIG",
      "taf": "TAF EBCI 082315Z 0900/1006 06004KT CAVOK"
    },
    {
      "icao": "EDDB",
      "alert": "OK",
      "vis_m": 9999,
      "fzfg": false,
      "metar_trigger": false,
      "taf_trigger": false,
      "metar": "METAR EDDB 090050Z AUTO 04004KT CAVOK 10/06 Q1021 NOSIG",
      "taf": "TAF EDDB 082300Z 0900/0924 06004KT CAVOK"
    },
    {
      "icao": "EDDH",
      "alert": "OK",
      "vis_m": 9999,
      "fzfg": false,
      "metar_trigger": false,
      "taf_trigger": false,
      "metar": "METAR EDDH 090050Z AUTO 08005KT CAVOK 06/02 Q1022 NOSIG",
      "taf": "TAF EDDH 082300Z 0900/1006 08005KT CAVOK"
    },
    {
      "icao": "EDDK",
      "alert": "OK",
      "vis_m": 9999,
      "fzfg": false,
      "metar_trigger": false,
      "taf_trigger": false,
      "metar": "METAR EDDK 090050Z AUTO VRB01KT CAVOK 07/06 Q1019 NOSIG",
      "taf": "TAF EDDK 082300Z 0900/1006 VRB03KT CAVOK"
    },
    {
      "icao": "EDDN",
      "alert": "OK",
      "vis_m": 9999,
      "fzfg": false,
      "metar_trigger": false,
      "taf_trigger": false,
      "metar": "METAR EDDN 090050Z AUTO 34003KT 300V050 CAVOK 07/06 Q1018",
      "taf": "TAF EDDN 082300Z 0900/0924 VRB03KT CAVOK"
    },
    {
      "icao": "EDDS",
      "alert": "OK",
      "vis_m": 9999,
      "fzfg": false,
      "metar_trigger": false,
      "taf_trigger": false,
      "metar": "METAR EDDS 090050Z AUTO 28004KT CAVOK 10/06 Q1017",
      "taf": "TAF EDDS 082300Z 0900/0924 VRB03KT CAVOK"
    },
    {
      "icao": "EDFH",
      "alert": "OK",
      "vis_m": 9999,
      "fzfg": false,
      "metar_trigger": false,
      "taf_trigger": false,
      "metar": "METAR EDFH 090050Z 12003KT 070V150 CAVOK 07/04 Q1018",
      "taf": "TAF EDFH 082300Z 0900/0924 11006KT CAVOK"
    },
    {
      "icao": "EDJA",
      "alert": "OK",
      "vis_m": 9999,
      "fzfg": false,
      "metar_trigger": false,
      "taf_trigger": false,
      "metar": "METAR EDJA 090050Z AUTO 00000KT 9999 // OVC180/// 10/06 Q1017",
      "taf": "TAF EDJA 081700Z 0818/0903 05004KT CAVOK"
    },
    {
      "icao": "EDLW",
      "alert": "OK",
      "vis_m": 9999,
      "fzfg": false,
      "metar_trigger": false,
      "taf_trigger": false,
      "metar": "METAR EDLW 090050Z AUTO VRB02KT 9999 // NCD 07/07 Q1019",
      "taf": "TAF EDLW 081700Z 0818/0918 10004KT CAVOK"
    },
    {
      "icao": "EDNY",
      "alert": "OK",
      "vis_m": 9999,
      "fzfg": false,
      "metar_trigger": false,
      "taf_trigger": false,
      "metar": "METAR EDNY 090050Z AUTO VRB02KT 9999 // BKN160/// 11/08 Q1016",
      "taf": "TAF EDNY 081700Z 0818/0903 VRB03KT CAVOK"
    },
    {
      "icao": "EDSB",
      "alert": "OK",
      "vis_m": 9999,
      "fzfg": false,
      "metar_trigger": false,
      "taf_trigger": false,
      "metar": "METAR EDSB 090050Z AUTO 01003KT 9999 FEW064/// 12/08 Q1017",
      "taf": "TAF EDSB 082300Z 0900/0924 03006KT CAVOK"
    },
    {
      "icao": "EETN",
      "alert": "OK",
      "vis_m": 9999,
      "fzfg": false,
      "metar_trigger": false,
      "taf_trigger": false,
      "metar": "METAR EETN 090050Z 08004KT CAVOK 03/M01 Q1028",
      "taf": "TAF EETN 082330Z 0900/0924 08005KT CAVOK"
    },
    {
      "icao": "EFTU",
      "alert": "OK",
      "vis_m": 9999,
      "fzfg": false,
      "metar_trigger": false,
      "taf_trigger": false,
      "metar": "METAR EFTU 090050Z AUTO 09003KT CAVOK 01/M03 Q1027",
      "taf": "TAF EFTU 082325Z 0900/0924 11002KT CAVOK"
    },
    {
      "icao": "EGBB",
      "alert": "OK",
      "vis_m": 9999,
      "fzfg": false,
      "metar_trigger": false,
      "taf_trigger": false,
      "metar": "METAR EGBB 090050Z VRB01KT 9999 BKN042 11/09 Q1018",
      "taf": "TAF EGBB 082253Z 0900/0924 09003KT 9999 FEW045"
    },
    {
      "icao": "EGGP",
      "alert": "OK",
      "vis_m": 8000,
      "fzfg": false,
      "metar_trigger": false,
      "taf_trigger": false,
      "metar": "METAR EGGP 090050Z 32003KT 8000 FEW048 10/09 Q1018",
      "taf": "TAF EGGP 082300Z 0900/0924 VRB04KT 9999 FEW045"
    },
    {
      "icao": "EGGW",
      "alert": "OK",
      "vis_m": 9999,
      "fzfg": false,
      "metar_trigger": false,
      "taf_trigger": false,
      "metar": "METAR EGGW 090050Z AUTO 09003KT 9999 NCD 08/06 Q1018",
      "taf": "TAF EGGW 082300Z 0900/0924 12006KT 9999 FEW045"
    },
    {
      "icao": "EGKK",
      "alert": "OK",
      "vis_m": 9999,
      "fzfg": false,
      "metar_trigger": false,
      "taf_trigger": false,
      "metar": "METAR EGKK 090050Z 07005KT CAVOK 08/07 Q1018",
      "taf": "TAF EGKK 082256Z 0900/1006 05003KT CAVOK"
    },
    {
      "icao": "EGNM",
      "alert": "OK",
      "vis_m": 9999,
      "fzfg": false,
      "metar_trigger": false,
      "taf_trigger": false,
      "metar": "METAR EGNM 090050Z 03003KT 9999 FEW046 09/07 Q1019",
      "taf": "TAF EGNM 082256Z 0900/0924 04003KT 9999 FEW040"
    },
    {
      "icao": "EGPD",
      "alert": "OK",
      "vis_m": 8000,
      "fzfg": false,
      "metar_trigger": false,
      "taf_trigger": false,
      "metar": "METAR EGPD 090050Z COR AUTO 35003KT 290V040 8000 -RA FEW018 SCT024 BKN028 07/06 Q1022 NOSIG",
      "taf": ""
    },
    {
      "icao": "EGPF",
      "alert": "OK",
      "vis_m": 9999,
      "fzfg": false,
      "metar_trigger": false,
      "taf_trigger": false,
      "metar": "METAR EGPF 090050Z AUTO 22005KT 9999 NCD 03/01 Q1021",
      "taf": "TAF EGPF 082255Z 0900/0924 29004KT 9999 FEW045"
    },
    {
      "icao": "EHBK",
      "alert": "OK",
      "vis_m": 9999,
      "fzfg": false,
      "metar_trigger": false,
      "taf_trigger": false,
      "metar": "METAR EHBK 090055Z AUTO 10003KT 9999 NSC 09/05 Q1018",
      "taf": "TAF EHBK 082313Z 0900/1006 06005KT CAVOK"
    },
    {
      "icao": "EHEH",
      "alert": "OK",
      "vis_m": 9999,
      "fzfg": false,
      "metar_trigger": false,
      "taf_trigger": false,
      "metar": "METAR EHEH 090055Z AUTO 01001KT 9999 NCD 06/06 Q1018 BLU",
      "taf": ""
    },
    {
      "icao": "EKBI",
      "alert": "OK",
      "vis_m": 9999,
      "fzfg": false,
      "metar_trigger": false,
      "taf_trigger": false,
      "metar": "METAR EKBI 090050Z AUTO 08005KT 9999 NCD 04/00 Q1024",
      "taf": "TAF EKBI 082327Z 0900/0924 09005KT CAVOK"
    },
    {
      "icao": "EKCH",
      "alert": "OK",
      "vis_m": 9999,
      "fzfg": false,
      "metar_trigger": false,
      "taf_trigger": false,
      "metar": "METAR EKCH 090050Z AUTO 05005KT 9999 NCD 06/M00 Q1025 NOSIG",
      "taf": "TAF EKCH 082327Z 0900/0924 11010KT CAVOK"
    },
    {
      "icao": "ENAL",
      "alert": "OK",
      "vis_m": 9999,
      "fzfg": false,
      "metar_trigger": false,
      "taf_trigger": false,
      "metar": "METAR ENAL 090050Z AUTO 23016KT 9999 FEW052/// 09/03 Q1017",
      "taf": "TAF ENAL 082300Z 0900/0909 22010KT 9999 FEW020 SCT040"
    },
    {
      "icao": "ENBR",
      "alert": "OK",
      "vis_m": 9999,
      "fzfg": false,
      "metar_trigger": false,
      "taf_trigger": false,
      "metar": "METAR ENBR 090050Z 19012KT 9999 BKN014 08/05 Q1021 RMK WIND 1200FT 20017KT",
      "taf": ""
    },
    {
      "icao": "ENGM",
      "alert": "OK",
      "vis_m": 9999,
      "fzfg": false,
      "metar_trigger": false,
      "taf_trigger": false,
      "metar": "METAR ENGM 090050Z 00000KT CAVOK 05/M00 Q1023",
      "taf": "TAF ENGM 082300Z 0900/0924 VRB03KT CAVOK"
    },
    {
      "icao": "ENHD",
      "alert": "OK",
      "vis_m": 9999,
      "fzfg": false,
      "metar_trigger": false,
      "taf_trigger": false,
      "metar": "METAR ENHD 090050Z AUTO 17010KT 140V200 9999 NCD 09/06 Q1021",
      "taf": "TAF ENHD 081400Z 0815/0822 17015KT CAVOK"
    },
    {
      "icao": "ENTC",
      "alert": "OK",
      "vis_m": 9999,
      "fzfg": false,
      "metar_trigger": false,
      "taf_trigger": false,
      "metar": "METAR ENTC 090050Z 05003KT 360V100 CAVOK 02/M01 Q1024 RMK WIND 2600FT 13012KT",
      "taf": "TAF ENTC 082300Z 0900/0924 02009KT CAVOK"
    },
    {
      "icao": "ENTO",
      "alert": "OK",
      "vis_m": 9999,
      "fzfg": false,
      "metar_trigger": false,
      "taf_trigger": false,
      "metar": "METAR ENTO 090050Z AUTO 21003KT 9999 // NCD 08/07 Q1024",
      "taf": "TAF ENTO 082300Z 0900/0924 VRB03KT CAVOK"
    },
    {
      "icao": "ENVA",
      "alert": "OK",
      "vis_m": 9999,
      "fzfg": false,
      "metar_trigger": false,
      "taf_trigger": false,
      "metar": "METAR ENVA 090050Z AUTO 03004KT 360V060 9999 NCD 09/01 Q1018 RMK WIND 670FT 15014KT",
      "taf": "TAF ENVA 082300Z 0900/0924 13005KT CAVOK"
    },
    {
      "icao": "ENZV",
      "alert": "OK",
      "vis_m": 9999,
      "fzfg": false,
      "metar_trigger": false,
      "taf_trigger": false,
      "metar": "METAR ENZV 090050Z AUTO 18007KT 9999 NCD 08/05 Q1022",
      "taf": "TAF ENZV 082300Z 0900/0924 17008KT CAVOK"
    },
    {
      "icao": "EPGD",
      "alert": "OK",
      "vis_m": 9999,
      "fzfg": false,
      "metar_trigger": false,
      "taf_trigger": false,
      "metar": "METAR EPGD 090100Z 35003KT CAVOK 04/03 Q1021",
      "taf": "TAF EPGD 082330Z 0900/0924 31005KT CAVOK"
    },
    {
      "icao": "EPKK",
      "alert": "OK",
      "vis_m": 9999,
      "fzfg": false,
      "metar_trigger": false,
      "taf_trigger": false,
      "metar": "METAR EPKK 090100Z 01004KT 9999 OVC040 10/07 Q1019",
      "taf": "TAF EPKK 082330Z 0900/0924 03005KT 9999 BKN030"
    },
    {
      "icao": "EPKT",
      "alert": "OK",
      "vis_m": 9999,
      "fzfg": false,
      "metar_trigger": false,
      "taf_trigger": false,
      "metar": "METAR EPKT 090100Z VRB01KT 9999 OVC035 08/07 Q1019",
      "taf": "TAF EPKT 082330Z 0900/0924 31004KT 9999 BKN030"
    },
    {
      "icao": "EPLB",
      "alert": "OK",
      "vis_m": 9999,
      "fzfg": false,
      "metar_trigger": false,
      "taf_trigger": false,
      "metar": "METAR EPLB 090100Z 29005KT 9999 FEW018 OVC042 10/08 Q1018",
      "taf": "TAF EPLB 082330Z 0900/0924 30004KT 9999 BKN030"
    },
    {
      "icao": "EPMO",
      "alert": "OK",
      "vis_m": 9999,
      "fzfg": false,
      "metar_trigger": false,
      "taf_trigger": false,
      "metar": "METAR EPMO 090100Z COR 33004KT 9999 BKN007 08/07 Q1019",
      "taf": "TAF EPMO 082330Z 0900/0924 36005KT 9999 BKN012 BKN020"
    },
    {
      "icao": "EPPO",
      "alert": "OK",
      "vis_m": 9999,
      "fzfg": false,
      "metar_trigger": false,
      "taf_trigger": false,
      "metar": "METAR EPPO 090100Z 00000KT 9999 0300NW BCFG NSC 02/01 Q1020",
      "taf": ""
    },
    {
      "icao": "EPRA",
      "alert": "OK",
      "vis_m": 9999,
      "fzfg": false,
      "metar_trigger": false,
      "taf_trigger": false,
      "metar": "METAR EPRA 090100Z 30005KT 260V340 9999 BKN032 09/06 Q1019",
      "taf": "TAF EPRA 082330Z 0900/0909 29007KT 9999 BKN030"
    },
    {
      "icao": "EPRZ",
      "alert": "OK",
      "vis_m": 9999,
      "fzfg": false,
      "metar_trigger": false,
      "taf_trigger": false,
      "metar": "METAR EPRZ 090100Z 30005KT 9999 BKN028 BKN040 11/09 Q1018",
      "taf": "TAF EPRZ 082330Z 0900/0924 31003KT 9999 BKN020"
    },
    {
      "icao": "EPSC",
      "alert": "OK",
      "vis_m": 9999,
      "fzfg": false,
      "metar_trigger": false,
      "taf_trigger": false,
      "metar": "METAR EPSC 090100Z VRB02KT CAVOK 04/03 Q1021",
      "taf": "TAF EPSC 082330Z 0900/0924 03003KT CAVOK"
    },
    {
      "icao": "EPSY",
      "alert": "OK",
      "vis_m": 9999,
      "fzfg": false,
      "metar_trigger": false,
      "taf_trigger": false,
      "metar": "METAR EPSY 090100Z 01008KT 9999 -DZ FEW014 SCT027 BKN033 08/06 Q1019",
      "taf": "TAF EPSY 082330Z 0900/0909 01006KT 9999 OVC026"
    },
    {
      "icao": "EPWA",
      "alert": "OK",
      "vis_m": 9999,
      "fzfg": false,
      "metar_trigger": false,
      "taf_trigger": false,
      "metar": "METAR EPWA 090100Z 31005KT 9999 SCT015 BKN036 09/07 Q1019 TEMPO BKN013",
      "taf": "TAF EPWA 082330Z 0900/0924 34005KT 9999 BKN020"
    },
    {
      "icao": "EPWR",
      "alert": "OK",
      "vis_m": 800,
      "fzfg": false,
      "metar_trigger": false,
      "taf_trigger": false,
      "metar": "METAR EPWR 090100Z 30002KT 0800 R29/0600D FG NSC 07/07 Q1020",
      "taf": ""
    },
    {
      "icao": "ESGG",
      "alert": "OK",
      "vis_m": 9999,
      "fzfg": false,
      "metar_trigger": false,
      "taf_trigger": false,
      "metar": "METAR ESGG 090050Z 13005KT CAVOK 05/01 Q1024",
      "taf": "TAF ESGG 082330Z 0900/0924 VRB03KT CAVOK"
    },
    {
      "icao": "ESKN",
      "alert": "OK",
      "vis_m": 9999,
      "fzfg": false,
      "metar_trigger": false,
      "taf_trigger": false,
      "metar": "METAR ESKN 090050Z 07002KT CAVOK 01/M02 Q1026",
      "taf": "TAF ESKN 082330Z 0900/0924 VRB02KT CAVOK"
    },
    {
      "icao": "ESMS",
      "alert": "OK",
      "vis_m": 9999,
      "fzfg": false,
      "metar_trigger": false,
      "taf_trigger": false,
      "metar": "METAR ESMS 090050Z 03004KT CAVOK M00/M02 Q1024",
      "taf": "TAF ESMS 082327Z 0900/0924 10004KT CAVOK"
    },
    {
      "icao": "ESSA",
      "alert": "OK",
      "vis_m": 9999,
      "fzfg": false,
      "metar_trigger": false,
      "taf_trigger": false,
      "metar": "METAR ESSA 090050Z 08004KT CAVOK M02/M05 Q1027 NOSIG",
      "taf": "TAF ESSA 082330Z 0900/0924 VRB03KT CAVOK"
    },
    {
      "icao": "EYKA",
      "alert": "OK",
      "vis_m": 9999,
      "fzfg": false,
      "metar_trigger": false,
      "taf_trigger": false,
      "metar": "METAR EYKA 090050Z 02008KT 350V050 9999 -RA FEW027 BKN032 OVC038 07/06 Q1019",
      "taf": "TAF EYKA 082300Z 0900/0924 04013KT 9000 SCT010 BKN015"
    },
    {
      "icao": "EYPA",
      "alert": "OK",
      "vis_m": 9999,
      "fzfg": false,
      "metar_trigger": false,
      "taf_trigger": false,
      "metar": "METAR EYPA 090050Z 07007KT CAVOK 08/M03 Q1021",
      "taf": "TAF EYPA 082300Z 0900/0924 04010KT CAVOK"
    },
    {
      "icao": "EYVI",
      "alert": "OK",
      "vis_m": 9999,
      "fzfg": false,
      "metar_trigger": false,
      "taf_trigger": false,
      "metar": "METAR EYVI 090050Z 03017KT 9999 -RA BKN009 OVC016 07/05 Q1015 TEMPO 02019G29KT BKN015",
      "taf": "TAF EYVI 082300Z 0900/0924 02015KT 9000 SCT010 BKN015"
    },
    {
      "icao": "GCFV",
      "alert": "OK",
      "vis_m": 9999,
      "fzfg": false,
      "metar_trigger": false,
      "taf_trigger": false,
      "metar": "METAR GCFV 090100Z AUTO 22006KT 9999 FEW033 18/13 Q1015",
      "taf": "TAF GCFV 082000Z 0821/0921 27005KT 9999 SCT030 TX24/0914Z TN17/0906Z"
    },
    {
      "icao": "GCLP",
      "alert": "OK",
      "vis_m": 9999,
      "fzfg": false,
      "metar_trigger": false,
      "taf_trigger": false,
      "metar": "METAR GCLP 090100Z 23003KT 9999 FEW035 19/16 Q1015 NOSIG",
      "taf": "TAF GCLP 082000Z 0821/0921 33005KT 9999 SCT035 TX22/0914Z TN16/0906Z"
    },
    {
      "icao": "GCTS",
      "alert": "OK",
      "vis_m": 9999,
      "fzfg": false,
      "metar_trigger": false,
      "taf_trigger": false,
      "metar": "METAR GCTS 090100Z 35006KT 9999 FEW030 18/11 Q1015 NOSIG",
      "taf": "TAF GCTS 082000Z 0821/0921 30007KT 9999 FEW025 TX24/0914Z TN16/0906Z"
    },
    {
      "icao": "GMAD",
      "alert": "OK",
      "vis_m": 9999,
      "fzfg": false,
      "metar_trigger": false,
      "taf_trigger": false,
      "metar": "METAR GMAD 090100Z 17003KT 9999 SCT040 SCT100 16/11 Q1014 NOSIG",
      "taf": "TAF GMAD 082300Z 0900/1006 20005KT 8000 NSC"
    },
    {
      "icao": "GMMN",
      "alert": "OK",
      "vis_m": 9999,
      "fzfg": false,
      "metar_trigger": false,
      "taf_trigger": false,
      "metar": "METAR GMMN 090100Z 19011KT 9999 SCT026 15/10 Q1012 NOSIG",
      "taf": "TAF GMMN 082300Z 0900/1006 18005KT CAVOK"
    },
    {
      "icao": "GMMX",
      "alert": "OK",
      "vis_m": 9999,
      "fzfg": false,
      "metar_trigger": false,
      "taf_trigger": false,
      "metar": "METAR GMMX 090100Z VRB02KT 9999 FEW023 BKN080 14/08 Q1013 NOSIG",
      "taf": "TAF GMMX 082300Z 0900/1006 26006KT 9999 FEW023 BKN080"
    },
    {
      "icao": "HEGN",
      "alert": "OK",
      "vis_m": 9999,
      "fzfg": false,
      "metar_trigger": false,
      "taf_trigger": false,
      "metar": "METAR HEGN 090100Z 30011KT CAVOK 22/09 Q1011 NOSIG",
      "taf": "TAF HEGN 082300Z 0900/1006 29012KT CAVOK"
    },
    {
      "icao": "HEMA",
      "alert": "OK",
      "vis_m": null,
      "fzfg": false,
      "metar_trigger": false,
      "taf_trigger": false,
      "metar": "",
      "taf": "TAF HEMA 082300Z 0900/1006 30012KT CAVOK"
    },
    {
      "icao": "HESH",
      "alert": "OK",
      "vis_m": 9999,
      "fzfg": false,
      "metar_trigger": false,
      "taf_trigger": false,
      "metar": "METAR HESH 090100Z 34014KT CAVOK 25/15 Q1010 NOSIG",
      "taf": "TAF HESH 082300Z 0900/1006 34012KT CAVOK"
    },
    {
      "icao": "HESX",
      "alert": "OK",
      "vis_m": 9999,
      "fzfg": false,
      "metar_trigger": false,
      "taf_trigger": false,
      "metar": "METAR HESX 090100Z 36006KT CAVOK 15/13 Q1016 NOSIG",
      "taf": "TAF HESX 082300Z 0900/1006 02010KT CAVOK"
    },
    {
      "icao": "LATI",
      "alert": "OK",
      "vis_m": null,
      "fzfg": false,
      "metar_trigger": false,
      "taf_trigger": false,
      "metar": "",
      "taf": "TAF LATI 082300Z 0900/0924 VRB05KT 4000 -RA BR BKN015 OVC030 TX22/0913Z TN11/0924Z"
    },
    {
      "icao": "LBPD",
      "alert": "OK",
      "vis_m": 9999,
      "fzfg": false,
      "metar_trigger": false,
      "taf_trigger": false,
      "metar": "METAR LBPD 090100Z AUTO 34005KT 9999 SCT004/// SCT008/// OVC012/// 13/13 Q1014",
      "taf": "TAF LBPD 082300Z 0900/0924 VRB03KT 9999 BKN070"
    },
    {
      "icao": "LBSF",
      "alert": "OK",
      "vis_m": 9999,
      "fzfg": false,
      "metar_trigger": false,
      "taf_trigger": false,
      "metar": "METAR LBSF 090100Z AUTO VRB02KT 9999 BKN053/// OVC082/// 12/11 Q1015 NOSIG",
      "taf": "TAF LBSF 082300Z 0900/0924 VRB03KT 9999 SCT025 BKN060"
    },
    {
      "icao": "LBWN",
      "alert": "OK",
      "vis_m": 9999,
      "fzfg": false,
      "metar_trigger": false,
      "taf_trigger": false,
      "metar": "METAR LBWN 090100Z AUTO VRB02KT 9999 NSC 13/13 Q1014 TEMPO 3000 -RA BR",
      "taf": "TAF LBWN 082300Z 0900/0924 VRB04KT 5000 BR SCT040"
    },
    {
      "icao": "LCLK",
      "alert": "OK",
      "vis_m": 9999,
      "fzfg": false,
      "metar_trigger": false,
      "taf_trigger": false,
      "metar": "METAR LCLK 090100Z VRB01KT CAVOK 18/09 Q1015 NOSIG",
      "taf": "TAF LCLK 082330Z 0900/1000 31007KT CAVOK"
    },
    {
      "icao": "LCPH",
      "alert": "OK",
      "vis_m": 9999,
      "fzfg": false,
      "metar_trigger": false,
      "taf_trigger": false,
      "metar": "METAR LCPH 090100Z AUTO 02006KT 9999 NCD 16/08 Q1016 NOSIG",
      "taf": "TAF LCPH 082330Z 0900/1000 01007KT CAVOK"
    },
    {
      "icao": "LEAL",
      "alert": "OK",
      "vis_m": 9999,
      "fzfg": false,
      "metar_trigger": false,
      "taf_trigger": false,
      "metar": "METAR LEAL 090100Z 01005KT 9999 FEW016 17/13 Q1011 NOSIG",
      "taf": "TAF LEAL 082300Z 0900/0924 05007KT 9999 FEW035 TX23/0912Z TN14/0905Z"
    },
    {
      "icao": "LEBB",
      "alert": "OK",
      "vis_m": 9999,
      "fzfg": false,
      "metar_trigger": false,
      "taf_trigger": false,
      "metar": "METAR LEBB 090100Z AUTO 11006KT 070V150 CAVOK 15/11 Q1010",
      "taf": "TAF LEBB 082300Z 0900/0924 13007KT 9999 FEW055 TX22/0912Z TN10/0905Z"
    },
    {
      "icao": "LEBL",
      "alert": "OK",
      "vis_m": 9999,
      "fzfg": false,
      "metar_trigger": false,
      "taf_trigger": false,
      "metar": "METAR LEBL 090100Z 10004KT 060V140 9999 FEW020 BKN032 17/13 Q1015 NOSIG",
      "taf": "TAF LEBL 082300Z 0900/0924 08006KT 9999 FEW020 TX20/0913Z TN15/0905Z"
    },
    {
      "icao": "LECH",
      "alert": "OK",
      "vis_m": 4900,
      "fzfg": false,
      "metar_trigger": false,
      "taf_trigger": false,
      "metar": "METAR LECH 090100Z AUTO VRB01KT 4900 BR OVC023 11/11 Q1014",
      "taf": "TAF LECH 082300Z 0900/0924 VRB04KT 9999 FEW020 TX19/0914Z TN11/0905Z"
    },
    {
      "icao": "LEMD",
      "alert": "OK",
      "vis_m": 9999,
      "fzfg": false,
      "metar_trigger": false,
      "taf_trigger": false,
      "metar": "METAR LEMD 090100Z VRB01KT 9999 FEW075 10/10 Q1011 NOSIG",
      "taf": "TAF LEMD 082300Z 0900/1006 VRB04KT 9999 FEW045 TX17/0913Z TN09/0905Z"
    },
    {
      "icao": "LEMG",
      "alert": "OK",
      "vis_m": 9999,
      "fzfg": false,
      "metar_trigger": false,
      "taf_trigger": false,
      "metar": "METAR LEMG 090100Z 00000KT 9999 FEW025 SCT030 BKN085 16/15 Q1011 NOSIG",
      "taf": "TAF LEMG 082300Z 0900/0924 VRB02KT 9999 SCT015 TX20/0914Z TN16/0906Z"
    },
    {
      "icao": "LEVC",
      "alert": "OK",
      "vis_m": 9999,
      "fzfg": false,
      "metar_trigger": false,
      "taf_trigger": false,
      "metar": "METAR LEVC 090100Z 01004KT 9999 FEW015 SCT054 16/13 Q1013 NOSIG",
      "taf": "TAF LEVC 082300Z 0900/1000 02005KT 9999 SCT015 TXTX21/0912Z TNTN14/0905Z"
    },
    {
      "icao": "LEXJ",
      "alert": "OK",
      "vis_m": 9000,
      "fzfg": false,
      "metar_trigger": false,
      "taf_trigger": false,
      "metar": "METAR LEXJ 090100Z AUTO 00000KT 9000 NSC 12/11 Q1010",
      "taf": "TAF LEXJ 082000Z 0821/0921 20009KT 9999 FEW010 TX22/0914Z TN10/0905Z"
    },
    {
      "icao": "LEZG",
      "alert": "OK",
      "vis_m": 9999,
      "fzfg": false,
      "metar_trigger": false,
      "taf_trigger": false,
      "metar": "METAR LEZG 090100Z 10008KT 9999 FEW080 14/12 Q1013 NOSIG",
      "taf": "TAF LEZG 082300Z 0900/0924 12010KT 9999 FEW020 TX21/0914Z TN13/0905Z"
    },
    {
      "icao": "LEZL",
      "alert": "OK",
      "vis_m": 9999,
      "fzfg": false,
      "metar_trigger": false,
      "taf_trigger": false,
      "metar": "METAR LEZL 090100Z AUTO 09003KT CAVOK 16/12 Q1009",
      "taf": "TAF LEZL 082000Z 0821/0921 22010KT CAVOK TX22/0914Z TN15/0906Z"
    },
    {
      "icao": "LFBD",
      "alert": "OK",
      "vis_m": 9999,
      "fzfg": false,
      "metar_trigger": false,
      "taf_trigger": false,
      "metar": "METAR LFBD 090100Z AUTO 11005KT CAVOK 15/13 Q1011 NOSIG",
      "taf": "TAF LFBD 082300Z 0900/1006 VRB03KT CAVOK TX24/0914Z TN12/0905Z"
    },
    {
      "icao": "LFLL",
      "alert": "OK",
      "vis_m": 9999,
      "fzfg": false,
      "metar_trigger": false,
      "taf_trigger": false,
      "metar": "METAR LFLL 090100Z 17009KT CAVOK 16/07 Q1015 NOSIG",
      "taf": "TAF LFLL 082300Z 0900/1006 16008KT CAVOK"
    },
    {
      "icao": "LFLS",
      "alert": "OK",
      "vis_m": 9999,
      "fzfg": false,
      "metar_trigger": false,
      "taf_trigger": false,
      "metar": "METAR LFLS 090100Z AUTO 09005KT CAVOK 09/07 Q1016",
      "taf": "TAF LFLS 081400Z 0815/0915 VRB04KT 9999 FEW045"
    },
    {
      "icao": "LFMN",
      "alert": "OK",
      "vis_m": 9999,
      "fzfg": false,
      "metar_trigger": false,
      "taf_trigger": false,
      "metar": "METAR LFMN 090100Z 33009KT CAVOK 16/10 Q1016 NOSIG",
      "taf": "TAF LFMN 082000Z 0821/1003 33010KT CAVOK"
    },
    {
      "icao": "LFOB",
      "alert": "OK",
      "vis_m": 9999,
      "fzfg": false,
      "metar_trigger": false,
      "taf_trigger": false,
      "metar": "METAR LFOB 090100Z AUTO 29004KT CAVOK 07/07 Q1016 TEMPO 4000 BR",
      "taf": "TAF LFOB 082300Z 0900/0924 VRB03KT CAVOK"
    },
    {
      "icao": "LFPO",
      "alert": "OK",
      "vis_m": 9999,
      "fzfg": false,
      "metar_trigger": false,
      "taf_trigger": false,
      "metar": "METAR LFPO 090100Z AUTO 01004KT CAVOK 13/09 Q1015 NOSIG",
      "taf": "TAF LFPO 082300Z 0900/1006 04005KT CAVOK"
    },
    {
      "icao": "LFSB",
      "alert": "OK",
      "vis_m": 9999,
      "fzfg": false,
      "metar_trigger": false,
      "taf_trigger": false,
      "metar": "METAR LFSB 090100Z AUTO 25002KT CAVOK 09/09 Q1016 NOSIG",
      "taf": "TAF LFSB 082300Z 0900/0924 34004KT CAVOK"
    },
    {
      "icao": "LGAV",
      "alert": "OK",
      "vis_m": 9999,
      "fzfg": false,
      "metar_trigger": false,
      "taf_trigger": false,
      "metar": "METAR LGAV 090020Z VRB03KT 9999 SCT025 18/10 Q1016 NOSIG",
      "taf": "TAF LGAV 082300Z 0900/0924 VRB03KT 9999 SCT025 SCT070"
    },
    {
      "icao": "LGTS",
      "alert": "OK",
      "vis_m": 7000,
      "fzfg": false,
      "metar_trigger": false,
      "taf_trigger": false,
      "metar": "METAR LGTS 090050Z VRB02KT 7000 BKN006 BKN020 16/15 Q1016 NOSIG",
      "taf": "TAF LGTS 082300Z 0900/0924 VRB03KT 9999 SCT025"
    },
    {
      "icao": "LHBP",
      "alert": "OK",
      "vis_m": 9999,
      "fzfg": false,
      "metar_trigger": false,
      "taf_trigger": false,
      "metar": "METAR LHBP 090100Z 04003KT 360V070 CAVOK 14/10 Q1016 NOSIG",
      "taf": "TAF LHBP 082315Z 0900/0924 33007KT CAVOK"
    },
    {
      "icao": "LHDC",
      "alert": "OK",
      "vis_m": 9999,
      "fzfg": false,
      "metar_trigger": false,
      "taf_trigger": false,
      "metar": "METAR LHDC 090045Z AUTO 03007KT CAVOK 13/12 Q1015",
      "taf": "TAF LHDC 081415Z 0815/0824 28006KT CAVOK"
    },
    {
      "icao": "LIBD",
      "alert": "OK",
      "vis_m": 9999,
      "fzfg": false,
      "metar_trigger": false,
      "taf_trigger": false,
      "metar": "METAR LIBD 090050Z 24005KT CAVOK 13/13 Q1016",
      "taf": "TAF LIBD 082300Z 0900/0924 28008KT 8000 BKN020"
    },
    {
      "icao": "LIBG",
      "alert": "OK",
      "vis_m": null,
      "fzfg": false,
      "metar_trigger": false,
      "taf_trigger": false,
      "metar": "",
      "taf": "TAF LIBG 081400Z 0815/0824 02008KT 9999 FEW008 SCT020"
    },
    {
      "icao": "LIBP",
      "alert": "OK",
      "vis_m": 9999,
      "fzfg": false,
      "metar_trigger": false,
      "taf_trigger": false,
      "metar": "METAR LIBP 090050Z AUTO 23005KT 9999 SCT100/// 15/14 Q1016",
      "taf": "TAF LIBP 082300Z 0900/0924 VRB05KT 9999 SCT070"
    },
    {
      "icao": "LIBR",
      "alert": "OK",
      "vis_m": 8000,
      "fzfg": false,
      "metar_trigger": false,
      "taf_trigger": false,
      "metar": "METAR LIBR 090050Z 01009KT 8000 NSC 15/15 Q1015",
      "taf": "TAF LIBR 082300Z 0900/0924 02010KT 9999 BKN010 BKN020"
    },
    {
      "icao": "LICA",
      "alert": "OK",
      "vis_m": 9999,
      "fzfg": false,
      "metar_trigger": false,
      "taf_trigger": false,
      "metar": "METAR LICA 090050Z AUTO 10004KT 9999 OVC056/// 14/13 Q1015",
      "taf": "TAF LICA 082300Z 0900/0924 VRB05KT 9999 FEW030"
    },
    {
      "icao": "LICC",
      "alert": "OK",
      "vis_m": 8000,
      "fzfg": false,
      "metar_trigger": false,
      "taf_trigger": false,
      "metar": "METAR LICC 090050Z 24005KT 8000 NSC 16/13 Q1015",
      "taf": "TAF LICC 082300Z 0900/0924 VRB05KT 9999 FEW040"
    },
    {
      "icao": "LICJ",
      "alert": "OK",
      "vis_m": 9999,
      "fzfg": false,
      "metar_trigger": false,
      "taf_trigger": false,
      "metar": "METAR LICJ 090050Z 18003KT CAVOK 16/14 Q1016",
      "taf": "TAF LICJ 082300Z 0900/0924 VRB05KT 9999 FEW040"
    },
    {
      "icao": "LIMC",
      "alert": "OK",
      "vis_m": 9999,
      "fzfg": false,
      "metar_trigger": false,
      "taf_trigger": false,
      "metar": "METAR LIMC 090050Z VRB01KT CAVOK 10/10 Q1017 NOSIG",
      "taf": "TAF LIMC 082300Z 0900/1006 VRB05KT 9999 FEW030"
    },
    {
      "icao": "LIME",
      "alert": "OK",
      "vis_m": 9999,
      "fzfg": false,
      "metar_trigger": false,
      "taf_trigger": false,
      "metar": "METAR LIME 090050Z 01004KT CAVOK 13/10 Q1017 NOSIG",
      "taf": "TAF LIME 082300Z 0900/0924 VRB05KT 9999 SCT050"
    },
    {
      "icao": "LIMF",
      "alert": "OK",
      "vis_m": 9999,
      "fzfg": false,
      "metar_trigger": false,
      "taf_trigger": false,
      "metar": "METAR LIMF 090020Z VRB01KT CAVOK 11/10 Q1017",
      "taf": "TAF LIMF 082300Z 0900/0924 VRB05KT 9999 SCT030"
    },
    {
      "icao": "LIMJ",
      "alert": "OK",
      "vis_m": 9999,
      "fzfg": false,
      "metar_trigger": false,
      "taf_trigger": false,
      "metar": "METAR LIMJ 090050Z 03007KT CAVOK 18/12 Q1016",
      "taf": "TAF LIMJ 082300Z 0900/0924 03007KT 9999 SCT020"
    },
    {
      "icao": "LIPE",
      "alert": "OK",
      "vis_m": 9999,
      "fzfg": false,
      "metar_trigger": false,
      "taf_trigger": false,
      "metar": "METAR LIPE 090050Z 20005KT CAVOK 13/09 Q1016",
      "taf": "TAF LIPE 082300Z 0900/0924 VRB05KT CAVOK"
    },
    {
      "icao": "LIPH",
      "alert": "OK",
      "vis_m": 9999,
      "fzfg": false,
      "metar_trigger": false,
      "taf_trigger": false,
      "metar": "METAR LIPH 090050Z AUTO VRB01KT 9999 NCD 13/12 Q1016",
      "taf": "TAF LIPH 082300Z 0900/0924 VRB05KT CAVOK"
    },
    {
      "icao": "LIPQ",
      "alert": "OK",
      "vis_m": 9999,
      "fzfg": false,
      "metar_trigger": false,
      "taf_trigger": false,
      "metar": "METAR LIPQ 090050Z AUTO VRB02KT 9999 NCD 13/12 Q1016",
      "taf": "TAF LIPQ 082300Z 0900/0924 VRB05KT 9999 SCT050"
    },
    {
      "icao": "LIPR",
      "alert": "OK",
      "vis_m": 9999,
      "fzfg": false,
      "metar_trigger": false,
      "taf_trigger": false,
      "metar": "METAR LIPR 090050Z AUTO 22003KT 9999 BKN110/// BKN140/// 15/13 Q1016",
      "taf": "TAF LIPR 082300Z 0900/0924 VRB05KT CAVOK"
    },
    {
      "icao": "LIPX",
      "alert": "OK",
      "vis_m": null,
      "fzfg": false,
      "metar_trigger": false,
      "taf_trigger": false,
      "metar": "",
      "taf": "TAF LIPX 082300Z 0900/0924 VRB05KT 9999 FEW050"
    },
    {
      "icao": "LIPY",
      "alert": "OK",
      "vis_m": 9999,
      "fzfg": false,
      "metar_trigger": false,
      "taf_trigger": false,
      "metar": "METAR LIPY 090050Z AUTO 18002KT 9999 BKN140/// 13/12 Q1016",
      "taf": "TAF LIPY 082300Z 0900/0924 VRB05KT CAVOK"
    },
    {
      "icao": "LIPZ",
      "alert": "OK",
      "vis_m": 9999,
      "fzfg": false,
      "metar_trigger": false,
      "taf_trigger": false,
      "metar": "METAR LIPZ 090050Z VRB01KT CAVOK 15/13 Q1016 NOSIG",
      "taf": "TAF LIPZ 082300Z 0900/1006 VRB05KT CAVOK"
    },
    {
      "icao": "LIRF",
      "alert": "OK",
      "vis_m": 9999,
      "fzfg": false,
      "metar_trigger": false,
      "taf_trigger": false,
      "metar": "METAR LIRF 090050Z 03002KT CAVOK 13/13 Q1016 NOSIG",
      "taf": "TAF LIRF 082300Z 0900/1006 05006KT 9999 FEW020"
    },
    {
      "icao": "LIRN",
      "alert": "OK",
      "vis_m": 9999,
      "fzfg": false,
      "metar_trigger": false,
      "taf_trigger": false,
      "metar": "METAR LIRN 090050Z 34002KT CAVOK 15/09 Q1016 NOSIG",
      "taf": "TAF LIRN 082300Z 0900/0924 06007KT 9999 FEW050"
    },
    {
      "icao": "LIRP",
      "alert": "OK",
      "vis_m": 9999,
      "fzfg": false,
      "metar_trigger": false,
      "taf_trigger": false,
      "metar": "METAR LIRP 090045Z 12003KT CAVOK 12/11 Q1016 NOSIG",
      "taf": "TAF LIRP 082300Z 0900/0924 09005KT CAVOK"
    },
    {
      "icao": "LIRZ",
      "alert": "OK",
      "vis_m": 9999,
      "fzfg": false,
      "metar_trigger": false,
      "taf_trigger": false,
      "metar": "METAR LIRZ 090050Z AUTO 02004KT 9999 NCD 10/10 Q1016",
      "taf": "TAF LIRZ 082300Z 0900/0924 VRB05KT 9999 SCT040"
    },
    {
      "icao": "LJLJ",
      "alert": "OK",
      "vis_m": 9999,
      "fzfg": false,
      "metar_trigger": false,
      "taf_trigger": false,
      "metar": "METAR LJLJ 090100Z 00000KT 9999 SCT090 BKN180 10/09 Q1017 NOSIG",
      "taf": "TAF LJLJ 082300Z 0900/1000 28003KT 9999 FEW065 SCT085"
    },
    {
      "icao": "LKMT",
      "alert": "OK",
      "vis_m": 9999,
      "fzfg": false,
      "metar_trigger": false,
      "taf_trigger": false,
      "metar": "METAR LKMT 090100Z 01003KT 9999 BKN025 OVC040 09/07 Q1019 NOSIG",
      "taf": "TAF LKMT 082300Z 0900/0924 02006KT 9999 BKN025"
    },
    {
      "icao": "LKPR",
      "alert": "OK",
      "vis_m": 9999,
      "fzfg": false,
      "metar_trigger": false,
      "taf_trigger": false,
      "metar": "METAR LKPR 090100Z VRB02KT CAVOK 06/06 Q1019 NOSIG",
      "taf": "TAF LKPR 082300Z 0900/1006 35005KT 4000 BR NSC"
    },
    {
      "icao": "LLBG",
      "alert": "OK",
      "vis_m": 9999,
      "fzfg": false,
      "metar_trigger": false,
      "taf_trigger": false,
      "metar": "METAR LLBG 090050Z 16006KT 9999 FEW015 SCT018 18/15 Q1015 TEMPO BKN012",
      "taf": "TAF LLBG 082307Z 0900/0924 VRB04KT CAVOK TX29/0912Z TN15/0903Z"
    },
    {
      "icao": "LMML",
      "alert": "OK",
      "vis_m": 9999,
      "fzfg": false,
      "metar_trigger": false,
      "taf_trigger": false,
      "metar": "METAR LMML 090115Z 29006KT CAVOK 17/14 Q1015 NOSIG",
      "taf": "TAF LMML 082300Z 0900/0924 29008KT 9999 FEW012"
    },
    {
      "icao": "LOWW",
      "alert": "OK",
      "vis_m": 9999,
      "fzfg": false,
      "metar_trigger": false,
      "taf_trigger": false,
      "metar": "METAR LOWW 090050Z 34004KT CAVOK 09/07 Q1018 NOSIG",
      "taf": "TAF LOWW 082315Z 0900/1006 01008KT 9999 FEW050 TX21/0913Z TN08/1003Z"
    },
    {
      "icao": "LPFR",
      "alert": "OK",
      "vis_m": 9999,
      "fzfg": false,
      "metar_trigger": false,
      "taf_trigger": false,
      "metar": "METAR LPFR 090100Z 16018G34KT 140V200 9999 2900E SHRA SCT012 SCT020CB SCT024 17/15 Q1007",
      "taf": "TAF LPFR 082300Z 0900/0924 VRB05KT 9999 SCT020"
    },
    {
      "icao": "LPMA",
      "alert": "OK",
      "vis_m": 9999,
      "fzfg": false,
      "metar_trigger": false,
      "taf_trigger": false,
      "metar": "METAR LPMA 090100Z 25006KT 220V280 9999 FEW015 16/10 Q1010",
      "taf": "TAF LPMA 082300Z 0900/0924 VRB05KT 9999 SCT015"
    },
    {
      "icao": "LPPR",
      "alert": "OK",
      "vis_m": 9999,
      "fzfg": false,
      "metar_trigger": false,
      "taf_trigger": false,
      "metar": "METAR LPPR 090100Z 10007KT 9999 FEW014 14/12 Q1005",
      "taf": "TAF LPPR 082300Z 0900/0924 13010KT 9999 SCT025"
    },
    {
      "icao": "LPPS",
      "alert": "OK",
      "vis_m": 9999,
      "fzfg": false,
      "metar_trigger": false,
      "taf_trigger": false,
      "metar": "METAR LPPS 090100Z 29017KT 9999 SCT014 SCT030 16/12 Q1009",
      "taf": "TAF LPPS 082300Z 0900/1006 27020G32KT 9999 SCT015 SCT030"
    },
    {
      "icao": "LPPT",
      "alert": "OK",
      "vis_m": 6000,
      "fzfg": false,
      "metar_trigger": false,
      "taf_trigger": false,
      "metar": "METAR LPPT 090100Z 12006KT 090V150 6000 RA FEW010 FEW020CB SCT028 BKN040 12/11 Q1005 RERA",
      "taf": "TAF LPPT 082300Z 0900/1006 17017KT 9999 SCT020"
    },
    {
      "icao": "LQBK",
      "alert": "OK",
      "vis_m": 9999,
      "fzfg": false,
      "metar_trigger": false,
      "taf_trigger": false,
      "metar": "METAR LQBK 090100Z 15003KT CAVOK 14/10 Q1016 NOSIG",
      "taf": "TAF LQBK 082300Z 0900/0924 16005KT CAVOK TX23/0913Z TN11/0904Z"
    },
    {
      "icao": "LQSA",
      "alert": "OK",
      "vis_m": 8000,
      "fzfg": false,
      "metar_trigger": false,
      "taf_trigger": false,
      "metar": "METAR LQSA 090100Z VRB02KT 8000 -RA FEW015 BKN050 12/11 Q1017",
      "taf": "TAF LQSA 082300Z 0900/0924 VRB02KT 9999 SCT055 TX20/0913Z TN10/0904Z"
    },
    {
      "icao": "LQTZ",
      "alert": "OK",
      "vis_m": 3400,
      "fzfg": false,
      "metar_trigger": false,
      "taf_trigger": false,
      "metar": "METAR LQTZ 090100Z 00000KT 3400 -RA BR SCT032 BKN068 13/13 Q1016",
      "taf": "TAF LQTZ 082300Z 0900/0924 27005KT 9999 BKN050 TX22/0913Z TN11/0904Z"
    },
    {
      "icao": "LRBC",
      "alert": "OK",
      "vis_m": 9999,
      "fzfg": false,
      "metar_trigger": false,
      "taf_trigger": false,
      "metar": "METAR LRBC 090100Z 34009KT 9999 -RA SCT011 OVC028 15/14 Q1016",
      "taf": "TAF LRBC 082300Z 0900/0909 34006KT 9999 BKN040"
    },
    {
      "icao": "LRBS",
      "alert": "OK",
      "vis_m": 9999,
      "fzfg": false,
      "metar_trigger": false,
      "taf_trigger": false,
      "metar": "METAR LRBS 090100Z 06006KT CAVOK 15/14 Q1014 NOSIG",
      "taf": "TAF LRBS 082300Z 0900/0924 07010KT CAVOK"
    },
    {
      "icao": "LRBV",
      "alert": "OK",
      "vis_m": 9999,
      "fzfg": false,
      "metar_trigger": false,
      "taf_trigger": false,
      "metar": "METAR LRBV 090100Z AUTO 13003KT 9999 SCT013/// BKN063/// BKN098/// 13/12 Q1015",
      "taf": "TAF LRBV 081700Z 0818/0903 VRB04KT 9999 BKN050"
    },
    {
      "icao": "LRCL",
      "alert": "OK",
      "vis_m": 9999,
      "fzfg": false,
      "metar_trigger": false,
      "taf_trigger": false,
      "metar": "METAR LRCL 090100Z VRB02KT CAVOK 11/10 Q1015",
      "taf": "TAF LRCL 082300Z 0900/0909 VRB04KT CAVOK"
    },
    {
      "icao": "LRCV",
      "alert": "OK",
      "vis_m": 9000,
      "fzfg": false,
      "metar_trigger": false,
      "taf_trigger": false,
      "metar": "METAR LRCV 090100Z 00000KT 9000 SHRA SCT045CB 15/15 Q1014",
      "taf": "TAF LRCV 082300Z 0900/0909 30006KT CAVOK"
    },
    {
      "icao": "LRIA",
      "alert": "OK",
      "vis_m": 5000,
      "fzfg": false,
      "metar_trigger": false,
      "taf_trigger": false,
      "metar": "METAR LRIA 090100Z VRB01KT 5000 BCFG BR SCT004 12/12 Q1016",
      "taf": "TAF LRIA 082300Z 0900/0909 VRB04KT 5000 BR NSC"
    },
    {
      "icao": "LROP",
      "alert": "OK",
      "vis_m": 8000,
      "fzfg": false,
      "metar_trigger": false,
      "taf_trigger": false,
      "metar": "METAR LROP 090100Z 07010KT 8000 FEW045 14/14 Q1014 NOSIG",
      "taf": "TAF LROP 082300Z 0900/0924 07010KT CAVOK"
    },
    {
      "icao": "LRSB",
      "alert": "OK",
      "vis_m": 9999,
      "fzfg": false,
      "metar_trigger": false,
      "taf_trigger": false,
      "metar": "METAR LRSB 090100Z 21001KT 9999 FEW070 SCT080 12/11 Q1015",
      "taf": "TAF LRSB 082300Z 0900/0924 VRB04KT CAVOK"
    },
    {
      "icao": "LRSM",
      "alert": "OK",
      "vis_m": 6000,
      "fzfg": false,
      "metar_trigger": false,
      "taf_trigger": false,
      "metar": "METAR LRSM 090100Z AUTO 12001KT 6000 FEW240/// 09/09 Q1015",
      "taf": "TAF LRSM 081400Z 0815/0824 VRB04KT 9999 SCT045"
    },
    {
      "icao": "LRSV",
      "alert": "OK",
      "vis_m": 9999,
      "fzfg": false,
      "metar_trigger": false,
      "taf_trigger": false,
      "metar": "METAR LRSV 090100Z 32006KT 9999 SCT032 12/11 Q1017",
      "taf": "TAF LRSV 082300Z 0900/0909 31008KT CAVOK"
    },
    {
      "icao": "LRTM",
      "alert": "OK",
      "vis_m": 9999,
      "fzfg": false,
      "metar_trigger": false,
      "taf_trigger": false,
      "metar": "METAR LRTM 090100Z COR VRB02KT CAVOK 13/11 Q1015",
      "taf": "TAF LRTM 082300Z 0900/0909 VRB04KT 9999 BKN040"
    },
    {
      "icao": "LRTR",
      "alert": "OK",
      "vis_m": 9999,
      "fzfg": false,
      "metar_trigger": false,
      "taf_trigger": false,
      "metar": "METAR LRTR 090100Z 36003KT 330V060 CAVOK 15/12 Q1014",
      "taf": "TAF LRTR 082300Z 0900/0924 VRB04KT CAVOK"
    },
    {
      "icao": "LTAC",
      "alert": "OK",
      "vis_m": 9999,
      "fzfg": false,
      "metar_trigger": false,
      "taf_trigger": false,
      "metar": "METAR LTAC 090050Z VRB02KT CAVOK 09/07 Q1020 NOSIG RMK RWY21C 33002KT RWY03L 00000KT RWY21R 00000KT RWY03R 00000KT RWY21L 31001KT",
      "taf": "TAF LTAC 082240Z 0900/0924 VRB02KT CAVOK"
    },
    {
      "icao": "LTFM",
      "alert": "OK",
      "vis_m": 9999,
      "fzfg": false,
      "metar_trigger": false,
      "taf_trigger": false,
      "metar": "METAR LTFM 090050Z 09006KT 9999 SCT035 BKN080 16/11 Q1016 RESHRA NOSIG RMK RWY17L 09005KT RWY34L 08006KT RWY16R 09006KT RWY36 10006KT RWY18 09006KT",
      "taf": "TAF LTFM 082240Z 0900/1006 35007KT 9999 SCT035 BKN080"
    },
    {
      "icao": "LUKK",
      "alert": "OK",
      "vis_m": 9999,
      "fzfg": false,
      "metar_trigger": false,
      "taf_trigger": false,
      "metar": "METAR LUKK 090100Z 17004KT CAVOK 12/11 Q1016 NOSIG",
      "taf": "TAF LUKK 082327Z 0900/0924 VRB05KT CAVOK"
    },
    {
      "icao": "LWOH",
      "alert": "OK",
      "vis_m": null,
      "fzfg": false,
      "metar_trigger": false,
      "taf_trigger": false,
      "metar": "",
      "taf": "TAF LWOH 082350Z 0900/0924 VRB02KT 9999 SCT040 BKN080"
    },
    {
      "icao": "LWSK",
      "alert": "OK",
      "vis_m": 9999,
      "fzfg": false,
      "metar_trigger": false,
      "taf_trigger": false,
      "metar": "METAR LWSK 090030Z 00000KT 9999 SCT020 OVC033 13/12 Q1016 NOSIG",
      "taf": "TAF LWSK 082350Z 0900/0924 VRB02KT 9999 SCT060 BKN100"
    },
    {
      "icao": "LYBE",
      "alert": "OK",
      "vis_m": 9999,
      "fzfg": false,
      "metar_trigger": false,
      "taf_trigger": false,
      "metar": "METAR LYBE 090100Z 28011KT CAVOK 16/12 Q1015 NOSIG",
      "taf": "TAF LYBE 082300Z 0900/0924 29005KT 9999 SCT040 TX22/0913Z TN13/0903Z"
    },
    {
      "icao": "LYNI",
      "alert": "OK",
      "vis_m": 9999,
      "fzfg": false,
      "metar_trigger": false,
      "taf_trigger": false,
      "metar": "METAR LYNI 090100Z 00000KT 9999 BKN080 14/14 Q1015 NOSIG",
      "taf": "TAF LYNI 082300Z 0900/0924 16004KT 9999 SCT050 BKN070 TX18/0914Z TN12/0903Z"
    },
    {
      "icao": "LYPG",
      "alert": "OK",
      "vis_m": 9999,
      "fzfg": false,
      "metar_trigger": false,
      "taf_trigger": false,
      "metar": "METAR LYPG 090100Z VRB01KT 9999 FEW050 OVC080 15/13 Q1014 NOSIG",
      "taf": "TAF LYPG 082300Z 0900/0924 16005KT 9999 SCT040 BKN070 TX24/0914Z TN15/0906Z"
    },
    {
      "icao": "LZIB",
      "alert": "OK",
      "vis_m": 9999,
      "fzfg": false,
      "metar_trigger": false,
      "taf_trigger": false,
      "metar": "METAR LZIB 090100Z 35002KT CAVOK 12/07 Q1017 NOSIG",
      "taf": "TAF LZIB 082315Z 0900/1000 03006KT CAVOK"
    },
    {
      "icao": "LZKZ",
      "alert": "OK",
      "vis_m": 9999,
      "fzfg": false,
      "metar_trigger": false,
      "taf_trigger": false,
      "metar": "METAR LZKZ 090100Z 36012KT CAVOK 13/10 Q1017 NOSIG",
      "taf": "TAF LZKZ 082315Z 0900/1000 36012KT CAVOK"
    },
    {
      "icao": "LZTT",
      "alert": "OK",
      "vis_m": 6000,
      "fzfg": false,
      "metar_trigger": false,
      "taf_trigger": false,
      "metar": "METAR LZTT 090100Z 05007KT 6000 OVC003 09/09 Q1018",
      "taf": "TAF LZTT 082315Z 0900/1000 VRB02KT 9999 SCT013 OVC030"
    },
    {
      "icao": "OEJN",
      "alert": "OK",
      "vis_m": 9999,
      "fzfg": false,
      "metar_trigger": false,
      "taf_trigger": false,
      "metar": "METAR OEJN 090100Z 35009KT CAVOK 26/20 Q1007 NOSIG",
      "taf": "TAF OEJN 082300Z 0900/1006 34006KT 7000 FEW040"
    },
    {
      "icao": "OEMA",
      "alert": "OK",
      "vis_m": 8000,
      "fzfg": false,
      "metar_trigger": false,
      "taf_trigger": false,
      "metar": "METAR OEMA 090100Z 04006KT 8000 NSC 27/09 Q1013 NOSIG",
      "taf": "TAF OEMA 082300Z 0900/1006 VRB03KT 7000 NSC"
    },
    {
      "icao": "OJAI",
      "alert": "OK",
      "vis_m": 4000,
      "fzfg": false,
      "metar_trigger": false,
      "taf_trigger": false,
      "metar": "METAR OJAI 090100Z 31004KT 4000 HZ NSC 13/07 Q1017 NOSIG",
      "taf": "TAF OJAI 082250Z 0900/1006 VRB02KT 5000 HZ NSC"
    },
    {
      "icao": "OMAA",
      "alert": "OK",
      "vis_m": 9999,
      "fzfg": false,
      "metar_trigger": false,
      "taf_trigger": false,
      "metar": "METAR OMAA 090100Z 27007KT CAVOK 29/22 Q1006 NOSIG",
      "taf": "TAF OMAA 082300Z 0900/1006 VRB02KT 8000 NSC"
    },
    {
      "icao": "OMDB",
      "alert": "OK",
      "vis_m": 9999,
      "fzfg": false,
      "metar_trigger": false,
      "taf_trigger": false,
      "metar": "METAR OMDB 090100Z 20006KT 150V220 CAVOK 28/24 Q1006 NOSIG",
      "taf": "TAF OMDB 082300Z 0900/1006 18006KT 8000 NSC"
    },
    {
      "icao": "UAAA",
      "alert": "OK",
      "vis_m": 9999,
      "fzfg": false,
      "metar_trigger": false,
      "taf_trigger": false,
      "metar": "METAR UAAA 090100Z VRB01MPS 9999 SCT100 BKN200 19/10 Q1014 NOSIG",
      "taf": "TAF UAAA 082305Z 0900/0924 32002G07MPS 9999 SCT050CB BKN100 TX30/0910Z TN17/0900Z"
    },
    {
      "icao": "UBBB",
      "alert": "OK",
      "vis_m": 9999,
      "fzfg": false,
      "metar_trigger": false,
      "taf_trigger": false,
      "metar": "METAR UBBB 090100Z 18002KT CAVOK 14/11 Q1017 NOSIG",
      "taf": "TAF UBBB 082303Z 0900/0924 VRB04KT 9999 FEW040 TX24/0910Z TN12/0901Z"
    },
    {
      "icao": "UDSG",
      "alert": "OK",
      "vis_m": 9999,
      "fzfg": false,
      "metar_trigger": false,
      "taf_trigger": false,
      "metar": "METAR UDSG 090100Z 11002KT 9999 NSC 01/M01 Q1023 NOSIG",
      "taf": "TAF UDSG 082300Z 0900/0924 VRB06KT 9999 FEW050"
    },
    {
      "icao": "UDYZ",
      "alert": "OK",
      "vis_m": 9999,
      "fzfg": false,
      "metar_trigger": false,
      "taf_trigger": false,
      "metar": "METAR UDYZ 090100Z 36005KT 9999 NSC 10/02 Q1021 NOSIG",
      "taf": "TAF UDYZ 082300Z 0900/0924 16004KT 9999 FEW040"
    },
    {
      "icao": "UGKO",
      "alert": "OK",
      "vis_m": 9999,
      "fzfg": false,
      "metar_trigger": false,
      "taf_trigger": false,
      "metar": "METAR UGKO 090100Z 12003KT CAVOK 09/08 Q1019 NOSIG",
      "taf": "TAF UGKO 082300Z 0900/0924 09007KT CAVOK TX26/0912Z TN09/0902Z"
    }
  ]
}