{
  "ts_utc": "2026-01-30T19:39:39Z",
  "threshold_m": 150,
  "source": "stations_override.txt (ICAO list) + aviationweather.gov (METAR/TAF raw)",
  "station_count": 159,
  "stations": [
    {
      "icao": "BIKF",
      "alert": "OK",
      "vis_m": 9999,
      "fzfg": false,
      "metar_trigger": false,
      "taf_trigger": false,
      "metar": "METAR BIKF 301930Z 04004KT CAVOK 01/00 Q1000",
      "taf": "TAF BIKF 301923Z 3021/3121 02008KT 9999 SCT040 TX03/3115Z TNM02/3023Z"
    },
    {
      "icao": "BKPR",
      "alert": "OK",
      "vis_m": 9999,
      "fzfg": false,
      "metar_trigger": false,
      "taf_trigger": false,
      "metar": "METAR BKPR 301930Z 34003KT 9999 SCT010 BKN035 05/05 Q1001 NOSIG",
      "taf": "TAF BKPR 301730Z 3018/3118 VRB05KT 9999 SCT015 BKN030"
    },
    {
      "icao": "EBCI",
      "alert": "OK",
      "vis_m": 9999,
      "fzfg": false,
      "metar_trigger": false,
      "taf_trigger": false,
      "metar": "METAR EBCI 301920Z 15007KT 9999 BKN009 05/04 Q0994 TEMPO SCT020",
      "taf": "TAF EBCI 301720Z 3018/3124 16007KT 9999 BKN008"
    },
    {
      "icao": "EDDB",
      "alert": "OK",
      "vis_m": 5000,
      "fzfg": false,
      "metar_trigger": false,
      "taf_trigger": false,
      "metar": "METAR EDDB 301920Z AUTO 09009KT 070V130 5000 -SN BR BKN010 M02/M03 Q1006 TEMPO 2500 -SN OVC008",
      "taf": "TAF EDDB 301700Z 3018/3118 08012KT 6000 SCT004 OVC009"
    },
    {
      "icao": "EDDH",
      "alert": "OK",
      "vis_m": 9000,
      "fzfg": false,
      "metar_trigger": false,
      "taf_trigger": false,
      "metar": "METAR EDDH 301920Z AUTO 11010KT 9000 OVC010 M01/M04 Q1004 BECMG OVC008",
      "taf": "TAF EDDH 301700Z 3018/3124 10012KT 9000 OVC012"
    },
    {
      "icao": "EDDK",
      "alert": "OK",
      "vis_m": 9999,
      "fzfg": false,
      "metar_trigger": false,
      "taf_trigger": false,
      "metar": "METAR EDDK 301920Z AUTO 12011KT 090V150 9999 -RA BKN013 OVC038 03/01 Q0998 TEMPO BKN015",
      "taf": "TAF EDDK 301700Z 3018/3124 12009KT 9999 OVC014"
    },
    {
      "icao": "EDDN",
      "alert": "OK",
      "vis_m": 9999,
      "fzfg": false,
      "metar_trigger": false,
      "taf_trigger": false,
      "metar": "METAR EDDN 301920Z AUTO 12007KT 9999 OVC013 01/M01 Q1001 NOSIG",
      "taf": "TAF EDDN 301700Z 3018/3118 13005KT 9999 OVC012"
    },
    {
      "icao": "EDDS",
      "alert": "OK",
      "vis_m": 9999,
      "fzfg": false,
      "metar_trigger": false,
      "taf_trigger": false,
      "metar": "METAR EDDS 301920Z AUTO 11003KT 080V140 9999 -RA FEW009 OVC015 03/02 Q0999 TEMPO 4000 BKN010",
      "taf": "TAF EDDS 301700Z 3018/3118 12004KT 9999 BKN015"
    },
    {
      "icao": "EDFH",
      "alert": "OK",
      "vis_m": 400,
      "fzfg": false,
      "metar_trigger": false,
      "taf_trigger": false,
      "metar": "METAR EDFH 301920Z 14013KT 0400 R21/0400N FG VV/// 00/00 Q0997",
      "taf": "TAF EDFH 301700Z 3018/3118 14011KT 0600 FG VV002"
    },
    {
      "icao": "EDJA",
      "alert": "OK",
      "vis_m": 9999,
      "fzfg": false,
      "metar_trigger": false,
      "taf_trigger": false,
      "metar": "METAR EDJA 301920Z 21006KT 9999 -RA FEW014 BKN041 01/00 Q1000",
      "taf": "TAF EDJA 301700Z 3018/3103 17004KT 9999 BKN020"
    },
    {
      "icao": "EDLW",
      "alert": "OK",
      "vis_m": 9999,
      "fzfg": false,
      "metar_trigger": false,
      "taf_trigger": false,
      "metar": "METAR EDLW 301920Z 05003KT 350V110 CAVOK 01/M01 Q0998",
      "taf": "TAF EDLW 301700Z 3018/3118 11007KT CAVOK"
    },
    {
      "icao": "EDNY",
      "alert": "OK",
      "vis_m": 3200,
      "fzfg": false,
      "metar_trigger": false,
      "taf_trigger": false,
      "metar": "METAR EDNY 301920Z 04002KT 3200 RA BR FEW030 BKN034 01/01 Q1001",
      "taf": "TAF EDNY 301700Z 3018/3103 VRB02KT 6000 SCT008 BKN015"
    },
    {
      "icao": "EDSB",
      "alert": "OK",
      "vis_m": 5000,
      "fzfg": false,
      "metar_trigger": false,
      "taf_trigger": false,
      "metar": "METAR EDSB 301920Z 05005KT 5000 DZ BR FEW017 BKN033 OVC042 03/02 Q0999",
      "taf": "TAF EDSB 301700Z 3018/3118 30004KT 6000 FEW015 OVC020"
    },
    {
      "icao": "EETN",
      "alert": "OK",
      "vis_m": 9999,
      "fzfg": true,
      "metar_trigger": false,
      "taf_trigger": false,
      "metar": "METAR EETN 301920Z 00000KT 9999 BCFG FEW001 BKN003 M19/M20 Q1027 TEMPO 0700 FZFG VV002",
      "taf": "TAF EETN 301730Z 3018/3118 VRB02KT 9999 SCT003"
    },
    {
      "icao": "EFTU",
      "alert": "OK",
      "vis_m": 9999,
      "fzfg": false,
      "metar_trigger": false,
      "taf_trigger": false,
      "metar": "METAR EFTU 301920Z AUTO 08003KT CAVOK M18/M19 Q1028",
      "taf": "TAF EFTU 301730Z 3018/3118 08003KT CAVOK"
    },
    {
      "icao": "EGBB",
      "alert": "OK",
      "vis_m": 6000,
      "fzfg": false,
      "metar_trigger": false,
      "taf_trigger": false,
      "metar": "METAR EGBB 301920Z 11014KT 6000 -RADZ BKN010 08/06 Q0983 RERA",
      "taf": "TAF EGBB 301704Z 3018/3118 12010KT 9999 SCT025"
    },
    {
      "icao": "EGGP",
      "alert": "OK",
      "vis_m": 8000,
      "fzfg": false,
      "metar_trigger": false,
      "taf_trigger": false,
      "metar": "METAR EGGP 301920Z 08010KT 8000 -RA SCT015 BKN020 06/05 Q0983",
      "taf": "TAF EGGP 301658Z 3018/3118 10009KT 9999 SCT016"
    },
    {
      "icao": "EGGW",
      "alert": "OK",
      "vis_m": 6000,
      "fzfg": false,
      "metar_trigger": false,
      "taf_trigger": false,
      "metar": "METAR EGGW 301920Z AUTO 13014KT 6000 -RA BKN005/// //////TCU 07/06 Q0985",
      "taf": ""
    },
    {
      "icao": "EGKK",
      "alert": "OK",
      "vis_m": 8000,
      "fzfg": false,
      "metar_trigger": false,
      "taf_trigger": false,
      "metar": "METAR EGKK 301920Z 18013KT 140V210 8000 -RA BKN011 09/08 Q0986",
      "taf": ""
    },
    {
      "icao": "EGNM",
      "alert": "OK",
      "vis_m": 150,
      "fzfg": false,
      "metar_trigger": false,
      "taf_trigger": false,
      "metar": "METAR EGNM 301920Z 09011KT 0150 R14/0350N -DZ FG VV/// 05/05 Q0986",
      "taf": "TAF EGNM 301701Z 3018/3118 10009KT 6000 BKN003"
    },
    {
      "icao": "EGPD",
      "alert": "OK",
      "vis_m": 6000,
      "fzfg": false,
      "metar_trigger": false,
      "taf_trigger": false,
      "metar": "METAR EGPD 301920Z AUTO 12013KT 6000 -RA BKN011/// OVC028/// //////TCU 04/02 Q0995 TEMPO 4000 RADZ BKN009",
      "taf": "TAF EGPD 301659Z 3018/3118 13015G25KT 9999 BKN016"
    },
    {
      "icao": "EGPF",
      "alert": "OK",
      "vis_m": 9999,
      "fzfg": false,
      "metar_trigger": false,
      "taf_trigger": false,
      "metar": "METAR EGPF 301920Z AUTO 06014KT 9999 BKN024 05/02 Q0989",
      "taf": "TAF EGPF 301658Z 3018/3118 08012KT 9999 FEW018 SCT030"
    },
    {
      "icao": "EHBK",
      "alert": "OK",
      "vis_m": 9999,
      "fzfg": false,
      "metar_trigger": false,
      "taf_trigger": false,
      "metar": "METAR EHBK 301925Z AUTO 14005KT 9999 OVC037/// 04/02 Q0996 NOSIG",
      "taf": "TAF EHBK 301708Z 3018/3124 15007KT 9999 BKN016"
    },
    {
      "icao": "EHEH",
      "alert": "OK",
      "vis_m": null,
      "fzfg": false,
      "metar_trigger": false,
      "taf_trigger": false,
      "metar": "",
      "taf": "TAF EHEH 301800Z 3019/0101 12007KT 9999 SCT016 BKN040"
    },
    {
      "icao": "EKBI",
      "alert": "OK",
      "vis_m": 9999,
      "fzfg": false,
      "metar_trigger": false,
      "taf_trigger": false,
      "metar": "METAR EKBI 301920Z AUTO 10018KT 9999 -SN OVC018/// M00/M03 Q1006",
      "taf": "TAF EKBI 301727Z 3018/3118 10016KT 9999 BKN016"
    },
    {
      "icao": "EKCH",
      "alert": "OK",
      "vis_m": 9999,
      "fzfg": false,
      "metar_trigger": false,
      "taf_trigger": false,
      "metar": "METAR EKCH 301920Z 09016KT 9999 OVC016 M00/M03 Q1011 TEMPO 09020G30KT BKN014",
      "taf": "TAF EKCH 301727Z 3018/3118 09018KT 9999 -SN OVC015"
    },
    {
      "icao": "ENAL",
      "alert": "OK",
      "vis_m": 9999,
      "fzfg": false,
      "metar_trigger": false,
      "taf_trigger": false,
      "metar": "METAR ENAL 301920Z 14013KT CAVOK M00/M13 Q1011",
      "taf": "TAF ENAL 301700Z 3018/3103 14008KT 9999 FEW040"
    },
    {
      "icao": "ENBR",
      "alert": "OK",
      "vis_m": 9999,
      "fzfg": false,
      "metar_trigger": false,
      "taf_trigger": false,
      "metar": "METAR ENBR 301920Z 06004KT CAVOK M04/M15 Q1010 NOSIG RMK WIND 1200FT 12007KT",
      "taf": "TAF ENBR 301700Z 3018/3118 VRB03KT CAVOK"
    },
    {
      "icao": "ENGM",
      "alert": "OK",
      "vis_m": 9999,
      "fzfg": false,
      "metar_trigger": false,
      "taf_trigger": false,
      "metar": "METAR ENGM 301920Z 07006KT 9999 -SN BKN029 M06/M10 Q1019 NOSIG",
      "taf": "TAF ENGM 301700Z 3018/3118 03008KT 9999 -SN FEW020 BKN030"
    },
    {
      "icao": "ENHD",
      "alert": "OK",
      "vis_m": 9999,
      "fzfg": false,
      "metar_trigger": false,
      "taf_trigger": false,
      "metar": "METAR ENHD 301920Z 10014KT 9999 FEW044 M02/M12 Q1010",
      "taf": "TAF ENHD 301400Z 3015/3023 10015KT CAVOK"
    },
    {
      "icao": "ENTC",
      "alert": "OK",
      "vis_m": 9999,
      "fzfg": false,
      "metar_trigger": false,
      "taf_trigger": false,
      "metar": "METAR ENTC 301920Z 20010KT CAVOK M05/M14 Q1020 NOSIG RMK WIND 2600FT 18034KT",
      "taf": "TAF ENTC 301700Z 3018/3118 19014KT CAVOK"
    },
    {
      "icao": "ENTO",
      "alert": "OK",
      "vis_m": 9999,
      "fzfg": false,
      "metar_trigger": false,
      "taf_trigger": false,
      "metar": "METAR ENTO 301920Z 11010KT 080V140 9999 OVC037 M03/M11 Q1017 NOSIG",
      "taf": "TAF ENTO 301700Z 3018/3118 07010KT 9999 -SN FEW020 BKN030"
    },
    {
      "icao": "ENVA",
      "alert": "OK",
      "vis_m": 9999,
      "fzfg": false,
      "metar_trigger": false,
      "taf_trigger": false,
      "metar": "METAR ENVA 301920Z 10010KT 070V150 CAVOK M05/M14 Q1016 NOSIG RMK WIND 670FT 16024G35KT",
      "taf": "TAF ENVA 301700Z 3018/3118 12010KT CAVOK"
    },
    {
      "icao": "ENZV",
      "alert": "OK",
      "vis_m": 9999,
      "fzfg": false,
      "metar_trigger": false,
      "taf_trigger": false,
      "metar": "METAR ENZV 301920Z 09014KT CAVOK M02/M12 Q1010 NOSIG",
      "taf": "TAF ENZV 301700Z 3018/3118 10015KT 9999 BKN045"
    },
    {
      "icao": "EPGD",
      "alert": "OK",
      "vis_m": 9999,
      "fzfg": false,
      "metar_trigger": false,
      "taf_trigger": false,
      "metar": "METAR EPGD 301930Z 10011KT CAVOK M12/M14 Q1015",
      "taf": "TAF EPGD 301730Z 3018/3118 10012KT CAVOK"
    },
    {
      "icao": "EPKK",
      "alert": "OK",
      "vis_m": 2500,
      "fzfg": false,
      "metar_trigger": false,
      "taf_trigger": false,
      "metar": "METAR EPKK 301930Z 06015KT 2500 -FZDZ BR BKN005 OVC006 M02/M03 Q1006",
      "taf": "TAF EPKK 301730Z 3018/3118 06014KT 3000 BR BKN005 OVC006"
    },
    {
      "icao": "EPKT",
      "alert": "OK",
      "vis_m": 7000,
      "fzfg": false,
      "metar_trigger": false,
      "taf_trigger": false,
      "metar": "METAR EPKT 301930Z 07015KT 7000 -FZDZ FEW005 OVC007 M03/M04 Q1006",
      "taf": "TAF EPKT 301730Z 3018/3118 06012KT 9999 OVC010"
    },
    {
      "icao": "EPLB",
      "alert": "OK",
      "vis_m": 9999,
      "fzfg": false,
      "metar_trigger": false,
      "taf_trigger": false,
      "metar": "METAR EPLB 301930Z 07014KT 9999 OVC012 M08/M10 Q1011",
      "taf": "TAF EPLB 301730Z 3018/3118 08011KT 9999 BKN012"
    },
    {
      "icao": "EPMO",
      "alert": "OK",
      "vis_m": 9999,
      "fzfg": false,
      "metar_trigger": false,
      "taf_trigger": false,
      "metar": "METAR EPMO 301930Z 07018KT CAVOK M09/M12 Q1013",
      "taf": "TAF EPMO 301730Z 3018/3118 07013KT 9999 FEW013"
    },
    {
      "icao": "EPPO",
      "alert": "OK",
      "vis_m": 9999,
      "fzfg": false,
      "metar_trigger": false,
      "taf_trigger": false,
      "metar": "METAR EPPO 301930Z 09013KT 9999 BKN013 OVC039 M04/M07 Q1010",
      "taf": "TAF EPPO 301730Z 3018/3118 09010KT 9999 BKN015"
    },
    {
      "icao": "EPRA",
      "alert": "OK",
      "vis_m": 9999,
      "fzfg": false,
      "metar_trigger": false,
      "taf_trigger": false,
      "metar": "METAR EPRA 301930Z 06011KT 9999 OVC011 M07/M10 Q1010",
      "taf": ""
    },
    {
      "icao": "EPRZ",
      "alert": "OK",
      "vis_m": 9999,
      "fzfg": false,
      "metar_trigger": false,
      "taf_trigger": false,
      "metar": "METAR EPRZ 301930Z 05012KT 9999 OVC008 M03/M05 Q1008",
      "taf": "TAF EPRZ 301730Z 3018/3118 06012KT 8000 OVC006"
    },
    {
      "icao": "EPSC",
      "alert": "OK",
      "vis_m": 8000,
      "fzfg": false,
      "metar_trigger": false,
      "taf_trigger": false,
      "metar": "METAR EPSC 301930Z 08009KT 8000 SCT009 OVC037 M04/M06 Q1009",
      "taf": "TAF EPSC 301730Z 3018/3118 08012KT 9999 BKN008 BKN012"
    },
    {
      "icao": "EPSY",
      "alert": "OK",
      "vis_m": 9999,
      "fzfg": false,
      "metar_trigger": false,
      "taf_trigger": false,
      "metar": "METAR EPSY 301930Z 08006KT 030V110 CAVOK M12/M14 Q1015",
      "taf": "TAF EPSY 301730Z 3018/3103 07006KT CAVOK"
    },
    {
      "icao": "EPWA",
      "alert": "OK",
      "vis_m": 9999,
      "fzfg": false,
      "metar_trigger": false,
      "taf_trigger": false,
      "metar": "METAR EPWA 301930Z 08012KT 9999 SCT014 M08/M11 Q1012 NOSIG",
      "taf": "TAF EPWA 301730Z 3018/3118 07011KT 9999 OVC013"
    },
    {
      "icao": "EPWR",
      "alert": "OK",
      "vis_m": 8000,
      "fzfg": false,
      "metar_trigger": false,
      "taf_trigger": false,
      "metar": "METAR EPWR 301930Z 07010KT 8000 -SN OVC023 M01/M04 Q1006",
      "taf": "TAF EPWR 301730Z 3018/3118 08010KT 9999 OVC015"
    },
    {
      "icao": "ESGG",
      "alert": "OK",
      "vis_m": 9999,
      "fzfg": false,
      "metar_trigger": false,
      "taf_trigger": false,
      "metar": "METAR ESGG 301920Z 10010KT 9999 BKN028 M04/M10 Q1015",
      "taf": "TAF ESGG 301730Z 3018/3118 10009KT 9999 BKN030"
    },
    {
      "icao": "ESKN",
      "alert": "OK",
      "vis_m": 9999,
      "fzfg": false,
      "metar_trigger": false,
      "taf_trigger": false,
      "metar": "METAR ESKN 301920Z 13012KT 9999 BKN033 M03/M10 Q1022",
      "taf": "TAF ESKN 301730Z 3018/3118 11010KT 9999 BKN030"
    },
    {
      "icao": "ESMS",
      "alert": "OK",
      "vis_m": 9999,
      "fzfg": false,
      "metar_trigger": false,
      "taf_trigger": false,
      "metar": "METAR ESMS 301920Z 09017KT 9999 BKN011 M01/M03 Q1011",
      "taf": "TAF ESMS 301727Z 3018/3118 09018KT 9999 -SN OVC015"
    },
    {
      "icao": "ESSA",
      "alert": "OK",
      "vis_m": 9999,
      "fzfg": false,
      "metar_trigger": false,
      "taf_trigger": false,
      "metar": "METAR ESSA 301920Z 08005KT 9999 SCT035 M08/M12 Q1024 NOSIG",
      "taf": "TAF ESSA 301730Z 3018/3118 10009KT 9999 BKN030"
    },
    {
      "icao": "EYKA",
      "alert": "OK",
      "vis_m": 9999,
      "fzfg": false,
      "metar_trigger": false,
      "taf_trigger": false,
      "metar": "METAR EYKA 301920Z 08007KT CAVOK M16/M19 Q1021",
      "taf": "TAF EYKA 301706Z 3018/3118 05005KT 9000 NSC"
    },
    {
      "icao": "EYPA",
      "alert": "OK",
      "vis_m": 9999,
      "fzfg": false,
      "metar_trigger": false,
      "taf_trigger": false,
      "metar": "METAR EYPA 301920Z 10008KT 070V130 CAVOK M12/M19 Q1021",
      "taf": "TAF EYPA 301705Z 3018/3118 09008KT 9000 NSC"
    },
    {
      "icao": "EYVI",
      "alert": "OK",
      "vis_m": 9999,
      "fzfg": false,
      "metar_trigger": false,
      "taf_trigger": false,
      "metar": "METAR EYVI 301920Z 07009KT CAVOK M15/M18 Q1020 NOSIG",
      "taf": "TAF EYVI 301706Z 3018/3118 06008KT 9000 NSC"
    },
    {
      "icao": "GCFV",
      "alert": "OK",
      "vis_m": 9999,
      "fzfg": false,
      "metar_trigger": false,
      "taf_trigger": false,
      "metar": "METAR GCFV 301930Z 35014KT 9999 BKN022 20/13 Q1024",
      "taf": "TAF GCFV 301400Z 3015/3115 01014KT 9999 FEW025 TX23/3114Z TN18/3106Z"
    },
    {
      "icao": "GCLP",
      "alert": "OK",
      "vis_m": 9999,
      "fzfg": false,
      "metar_trigger": false,
      "taf_trigger": false,
      "metar": "METAR GCLP 301930Z 36016KT 9999 BKN025 20/15 Q1024 NOSIG",
      "taf": "TAF GCLP 301400Z 3015/3115 01020KT 9999 FEW025 TX22/3114Z TN17/3106Z"
    },
    {
      "icao": "GCTS",
      "alert": "OK",
      "vis_m": 9999,
      "fzfg": false,
      "metar_trigger": false,
      "taf_trigger": false,
      "metar": "METAR GCTS 301930Z 24004KT 9999 OVC022 20/15 Q1024 NOSIG",
      "taf": ""
    },
    {
      "icao": "GMAD",
      "alert": "OK",
      "vis_m": 8000,
      "fzfg": false,
      "metar_trigger": false,
      "taf_trigger": false,
      "metar": "METAR GMAD 301930Z 15006KT 8000 SCT006 BKN016 17/16 Q1022 NOSIG",
      "taf": "TAF GMAD 301700Z 3018/3124 20008KT 8000 SCT016"
    },
    {
      "icao": "GMMN",
      "alert": "OK",
      "vis_m": 9999,
      "fzfg": false,
      "metar_trigger": false,
      "taf_trigger": false,
      "metar": "METAR GMMN 301930Z 23009KT 9999 FEW006 BKN013 16/15 Q1022 TEMPO 5000 RA",
      "taf": "TAF GMMN 301700Z 3018/3124 24010KT 9999 BKN016"
    },
    {
      "icao": "GMMX",
      "alert": "OK",
      "vis_m": 9999,
      "fzfg": false,
      "metar_trigger": false,
      "taf_trigger": false,
      "metar": "METAR GMMX 301930Z 21004KT 180V250 9999 BKN020 17/13 Q1024 NOSIG",
      "taf": "TAF GMMX 301700Z 3018/3124 28006KT 9999 BKN020"
    },
    {
      "icao": "HEGN",
      "alert": "OK",
      "vis_m": 9999,
      "fzfg": false,
      "metar_trigger": false,
      "taf_trigger": false,
      "metar": "METAR HEGN 301900Z 19002KT CAVOK 19/12 Q1015 NOSIG",
      "taf": "TAF HEGN 301700Z 3018/3124 13008KT CAVOK"
    },
    {
      "icao": "HEMA",
      "alert": "OK",
      "vis_m": 9999,
      "fzfg": false,
      "metar_trigger": false,
      "taf_trigger": false,
      "metar": "METAR HEMA 301900Z 21006KT CAVOK 18/09 Q1016 NOSIG",
      "taf": "TAF HEMA 301700Z 3018/3124 07008KT CAVOK"
    },
    {
      "icao": "HESH",
      "alert": "OK",
      "vis_m": 9999,
      "fzfg": false,
      "metar_trigger": false,
      "taf_trigger": false,
      "metar": "METAR HESH 301900Z 30002KT CAVOK 19/10 Q1015 NOSIG",
      "taf": "TAF HESH 301700Z 3018/3124 30008KT CAVOK"
    },
    {
      "icao": "HESX",
      "alert": "OK",
      "vis_m": 9999,
      "fzfg": false,
      "metar_trigger": false,
      "taf_trigger": false,
      "metar": "METAR HESX 301900Z 23004KT CAVOK 17/02 Q1014 NOSIG",
      "taf": "TAF HESX 301700Z 3018/3124 28012KT 7000 NSC"
    },
    {
      "icao": "LATI",
      "alert": "OK",
      "vis_m": 9999,
      "fzfg": false,
      "metar_trigger": false,
      "taf_trigger": false,
      "metar": "METAR LATI 301850Z VRB02KT 9999 SCT047 BKN076 09/04 Q1002 NOSIG",
      "taf": "TAF LATI 301700Z 3018/3118 VRB05KT 9999 RA FEW030CB BKN050 TX14/3112Z TN05/3105Z"
    },
    {
      "icao": "LBPD",
      "alert": "OK",
      "vis_m": 9999,
      "fzfg": false,
      "metar_trigger": false,
      "taf_trigger": false,
      "metar": "METAR LBPD 301930Z AUTO 10005KT 9999 BKN065/// OVC086/// 07/06 Q1002 NOSIG",
      "taf": "TAF LBPD 301700Z 3018/3118 27010KT 9999 SCT030 BKN050"
    },
    {
      "icao": "LBSF",
      "alert": "OK",
      "vis_m": 9000,
      "fzfg": false,
      "metar_trigger": false,
      "taf_trigger": false,
      "metar": "METAR LBSF 301930Z AUTO 00000KT 9000 BKN071/// BKN083/// 01/00 Q1002 TEMPO 5000 BR",
      "taf": "TAF LBSF 301700Z 3018/3118 28010KT 9999 SCT030 BKN050"
    },
    {
      "icao": "LBWN",
      "alert": "OK",
      "vis_m": 9999,
      "fzfg": false,
      "metar_trigger": false,
      "taf_trigger": false,
      "metar": "METAR LBWN 301930Z AUTO 28009KT 260V320 9999 -SHRA OVC015/// 03/02 Q1003 NOSIG",
      "taf": "TAF LBWN 301700Z 3018/3118 28010KT 9999 BKN020 OVC030"
    },
    {
      "icao": "LCLK",
      "alert": "OK",
      "vis_m": 9999,
      "fzfg": false,
      "metar_trigger": false,
      "taf_trigger": false,
      "metar": "METAR LCLK 301930Z 24008KT CAVOK 16/12 Q1009 NOSIG",
      "taf": "TAF LCLK 301730Z 3018/3118 22009KT 9999 FEW030"
    },
    {
      "icao": "LCPH",
      "alert": "OK",
      "vis_m": 9999,
      "fzfg": false,
      "metar_trigger": false,
      "taf_trigger": false,
      "metar": "METAR LCPH 301930Z 26013KT 250V320 9999 SCT025 SCT030 BKN046 17/12 Q1010 NOSIG",
      "taf": "TAF LCPH 301730Z 3018/3118 27018KT 9999 FEW025"
    },
    {
      "icao": "LEAL",
      "alert": "OK",
      "vis_m": 9999,
      "fzfg": false,
      "metar_trigger": false,
      "taf_trigger": false,
      "metar": "METAR LEAL 301930Z 26005KT CAVOK 14/04 Q1004 NOSIG",
      "taf": "TAF LEAL 301700Z 3018/3118 26009KT CAVOK TX18/3114Z TN11/3106Z"
    },
    {
      "icao": "LEBB",
      "alert": "OK",
      "vis_m": 9999,
      "fzfg": false,
      "metar_trigger": false,
      "taf_trigger": false,
      "metar": "METAR LEBB 301930Z 07005KT 040V100 9999 FEW050 09/06 Q0997 NOSIG",
      "taf": "TAF LEBB 301700Z 3018/3118 28009KT 9999 FEW035 TX13/3114Z TN07/3022Z"
    },
    {
      "icao": "LEBL",
      "alert": "OK",
      "vis_m": 9999,
      "fzfg": false,
      "metar_trigger": false,
      "taf_trigger": false,
      "metar": "METAR LEBL 301930Z VRB02KT 9999 FEW020 SCT055 13/06 Q1000 NOSIG",
      "taf": "TAF LEBL 301700Z 3018/3118 32009KT 9999 FEW050 TX15/3112Z TN09/3106Z"
    },
    {
      "icao": "LECH",
      "alert": "OK",
      "vis_m": 8000,
      "fzfg": false,
      "metar_trigger": false,
      "taf_trigger": false,
      "metar": "METAR LECH 301930Z AUTO 21003KT 8000 FEW070 12/01 Q1001",
      "taf": ""
    },
    {
      "icao": "LEMD",
      "alert": "OK",
      "vis_m": 9999,
      "fzfg": false,
      "metar_trigger": false,
      "taf_trigger": false,
      "metar": "METAR LEMD 301930Z 24015G27KT 220V290 9999 SCT065 SCT075 09/07 Q1002 NOSIG",
      "taf": ""
    },
    {
      "icao": "LEMG",
      "alert": "OK",
      "vis_m": 9999,
      "fzfg": false,
      "metar_trigger": false,
      "taf_trigger": false,
      "metar": "METAR LEMG 301930Z 27005KT 240V300 9999 FEW070 16/09 Q1012 NOSIG",
      "taf": "TAF LEMG 301700Z 3018/3118 VRB02KT 9999 BKN050 TX18/3115Z TN12/3106Z"
    },
    {
      "icao": "LEVC",
      "alert": "OK",
      "vis_m": 9999,
      "fzfg": false,
      "metar_trigger": false,
      "taf_trigger": false,
      "metar": "METAR LEVC 301930Z 13002KT 9999 SCT049 14/05 Q1002 NOSIG",
      "taf": "TAF LEVC 301700Z 3018/3118 26010KT CAVOK TX17/3114Z TN10/3106Z"
    },
    {
      "icao": "LEXJ",
      "alert": "OK",
      "vis_m": 8000,
      "fzfg": false,
      "metar_trigger": false,
      "taf_trigger": false,
      "metar": "METAR LEXJ 301930Z 29003KT 260V320 8000 OVC050 09/06 Q0997",
      "taf": ""
    },
    {
      "icao": "LEZG",
      "alert": "OK",
      "vis_m": 9999,
      "fzfg": false,
      "metar_trigger": false,
      "taf_trigger": false,
      "metar": "METAR LEZG 301930Z 22007KT 190V260 9999 FEW050 10/05 Q1000 NOSIG",
      "taf": ""
    },
    {
      "icao": "LEZL",
      "alert": "OK",
      "vis_m": 9999,
      "fzfg": false,
      "metar_trigger": false,
      "taf_trigger": false,
      "metar": "METAR LEZL 301930Z 26016KT 9999 FEW040 16/12 Q1013 NOSIG",
      "taf": "TAF LEZL 301400Z 3015/3115 23010KT 9999 BKN020 TX18/3015Z TN10/3107Z"
    },
    {
      "icao": "LFBD",
      "alert": "OK",
      "vis_m": 9999,
      "fzfg": false,
      "metar_trigger": false,
      "taf_trigger": false,
      "metar": "METAR LFBD 301930Z AUTO 22007KT 9999 FEW030 SCT160 OVC180 10/09 Q0996 TEMPO 24015G30KT 3000 SHRA BKN020TCU SCT025CB",
      "taf": "TAF LFBD 301700Z 3018/3124 21010KT 9999 BKN020 TX12/3114Z TN06/3106Z"
    },
    {
      "icao": "LFLL",
      "alert": "OK",
      "vis_m": 9999,
      "fzfg": false,
      "metar_trigger": false,
      "taf_trigger": false,
      "metar": "METAR LFLL 301930Z 14008KT CAVOK 07/04 Q0999 NOSIG",
      "taf": "TAF LFLL 301700Z 3018/3124 16008KT CAVOK"
    },
    {
      "icao": "LFLS",
      "alert": "OK",
      "vis_m": 9999,
      "fzfg": false,
      "metar_trigger": false,
      "taf_trigger": false,
      "metar": "METAR LFLS 301930Z AUTO 08010KT CAVOK 04/03 Q0999 NOSIG",
      "taf": "TAF LFLS 301400Z 3015/3115 09008KT 9999 SCT040"
    },
    {
      "icao": "LFMN",
      "alert": "OK",
      "vis_m": 9999,
      "fzfg": false,
      "metar_trigger": false,
      "taf_trigger": false,
      "metar": "METAR LFMN 301930Z 35004KT 320V040 9999 FEW056 09/07 Q1000 NOSIG",
      "taf": "TAF LFMN 301400Z 3015/3121 14005KT 9999 FEW025 BKN050"
    },
    {
      "icao": "LFOB",
      "alert": "OK",
      "vis_m": 9999,
      "fzfg": false,
      "metar_trigger": false,
      "taf_trigger": false,
      "metar": "METAR LFOB 301930Z AUTO 17013KT 9999 SCT013/// BKN019/// BKN031/// ///TCU 09/08 Q0991 TEMPO 16015G25KT 4000 RA BKN012 SCT020TCU OVC045",
      "taf": "TAF LFOB 301700Z 3018/3118 13010KT 9999 BKN020 OVC045"
    },
    {
      "icao": "LFPO",
      "alert": "OK",
      "vis_m": 8000,
      "fzfg": false,
      "metar_trigger": false,
      "taf_trigger": false,
      "metar": "METAR LFPO 301930Z 18010KT 8000 FEW009 BKN016 BKN023 09/08 Q0992 NOSIG",
      "taf": ""
    },
    {
      "icao": "LFSB",
      "alert": "OK",
      "vis_m": 9999,
      "fzfg": false,
      "metar_trigger": false,
      "taf_trigger": false,
      "metar": "METAR LFSB 301930Z AUTO 15005KT 9999 BKN049 04/02 Q0999 NOSIG",
      "taf": ""
    },
    {
      "icao": "LGAV",
      "alert": "OK",
      "vis_m": 9999,
      "fzfg": false,
      "metar_trigger": false,
      "taf_trigger": false,
      "metar": "METAR LGAV 301920Z VRB01KT 9999 FEW030 12/07 Q1003 NOSIG",
      "taf": "TAF LGAV 301700Z 3018/3118 VRB05KT 9999 FEW020"
    },
    {
      "icao": "LGTS",
      "alert": "OK",
      "vis_m": 9999,
      "fzfg": false,
      "metar_trigger": false,
      "taf_trigger": false,
      "metar": "METAR LGTS 301920Z 10004KT 9999 FEW025 09/07 Q1001 NOSIG",
      "taf": "TAF LGTS 301700Z 3018/3118 34008KT 9999 SCT025"
    },
    {
      "icao": "LHBP",
      "alert": "OK",
      "vis_m": 5000,
      "fzfg": false,
      "metar_trigger": false,
      "taf_trigger": false,
      "metar": "METAR LHBP 301930Z 36004KT 5000 -RA BR FEW003 BKN013 OVC018 03/03 Q1003 NOSIG",
      "taf": "TAF LHBP 301715Z 3018/3118 33005KT 5000 -RADZ BR SCT004 OVC015"
    },
    {
      "icao": "LHDC",
      "alert": "OK",
      "vis_m": 3200,
      "fzfg": false,
      "metar_trigger": false,
      "taf_trigger": false,
      "metar": "METAR LHDC 301915Z AUTO 07005KT 3200 -DZ BR OVC005 04/03 Q1002",
      "taf": "TAF LHDC 301415Z 3015/3024 03008KT 7000 -DZ OVC012"
    },
    {
      "icao": "LIBD",
      "alert": "OK",
      "vis_m": 9999,
      "fzfg": false,
      "metar_trigger": false,
      "taf_trigger": false,
      "metar": "METAR LIBD 301920Z 22005KT 180V260 CAVOK 05/05 Q1001",
      "taf": "TAF LIBD 301700Z 3018/3118 VRB05KT CAVOK"
    },
    {
      "icao": "LIBG",
      "alert": "OK",
      "vis_m": 9999,
      "fzfg": false,
      "metar_trigger": false,
      "taf_trigger": false,
      "metar": "METAR LIBG 301850Z VRB02KT CAVOK 10/07 Q1001",
      "taf": "TAF LIBG 301700Z 3018/3103 VRB05KT CAVOK"
    },
    {
      "icao": "LIBP",
      "alert": "OK",
      "vis_m": 9999,
      "fzfg": false,
      "metar_trigger": false,
      "taf_trigger": false,
      "metar": "METAR LIBP 301850Z AUTO 22004KT 9999 FEW023/// BKN040/// 07/07 Q1002",
      "taf": "TAF LIBP 301700Z 3018/3118 VRB05KT 7000 FEW050"
    },
    {
      "icao": "LIBR",
      "alert": "OK",
      "vis_m": 9999,
      "fzfg": false,
      "metar_trigger": false,
      "taf_trigger": false,
      "metar": "METAR LIBR 301920Z 31005KT 260V330 CAVOK 08/06 Q1001",
      "taf": "TAF LIBR 301700Z 3018/3118 VRB05KT CAVOK"
    },
    {
      "icao": "LICA",
      "alert": "OK",
      "vis_m": 9999,
      "fzfg": false,
      "metar_trigger": false,
      "taf_trigger": false,
      "metar": "METAR LICA 301850Z AUTO 29007KT 9999 BKN045/// 11/09 Q1002",
      "taf": "TAF LICA 301700Z 3018/3118 26010KT 8000 SCT015"
    },
    {
      "icao": "LICC",
      "alert": "OK",
      "vis_m": 9999,
      "fzfg": false,
      "metar_trigger": false,
      "taf_trigger": false,
      "metar": "METAR LICC 301920Z 25015KT CAVOK 13/09 Q1003",
      "taf": "TAF LICC 301700Z 3018/3118 27010KT 9999 SCT020"
    },
    {
      "icao": "LICJ",
      "alert": "OK",
      "vis_m": 9999,
      "fzfg": false,
      "metar_trigger": false,
      "taf_trigger": false,
      "metar": "METAR LICJ 301920Z 29019KT 9999 SCT030 15/10 Q1005",
      "taf": "TAF LICJ 301700Z 3018/3118 27018KT 9999 FEW025"
    },
    {
      "icao": "LIMC",
      "alert": "OK",
      "vis_m": 5000,
      "fzfg": false,
      "metar_trigger": false,
      "taf_trigger": false,
      "metar": "METAR LIMC 301920Z 23004KT 190V280 5000 BR BKN005 05/04 Q1001 NOSIG",
      "taf": "TAF LIMC 301700Z 3018/3124 VRB05KT 8000 BKN020"
    },
    {
      "icao": "LIME",
      "alert": "OK",
      "vis_m": 3000,
      "fzfg": false,
      "metar_trigger": false,
      "taf_trigger": false,
      "metar": "METAR LIME 301920Z VRB02KT 3000 BR FEW020 05/04 Q1001 NOSIG",
      "taf": "TAF LIME 301700Z 3018/3118 VRB04KT 4000 BR SCT015"
    },
    {
      "icao": "LIMF",
      "alert": "OK",
      "vis_m": 3000,
      "fzfg": false,
      "metar_trigger": false,
      "taf_trigger": false,
      "metar": "METAR LIMF 301920Z 24004KT 200V280 3000 BR NSC 04/03 Q1001",
      "taf": "TAF LIMF 301700Z 3018/3118 VRB04KT 4000 BR NSC"
    },
    {
      "icao": "LIMJ",
      "alert": "OK",
      "vis_m": 9999,
      "fzfg": false,
      "metar_trigger": false,
      "taf_trigger": false,
      "metar": "METAR LIMJ 301920Z 04008KT 9999 BKN040 10/04 Q1000",
      "taf": "TAF LIMJ 301700Z 3018/3118 04010KT 9999 SCT030"
    },
    {
      "icao": "LIPE",
      "alert": "OK",
      "vis_m": 1500,
      "fzfg": false,
      "metar_trigger": false,
      "taf_trigger": false,
      "metar": "METAR LIPE 301920Z 35002KT 1500 BR SCT002 BKN014 05/05 Q1002",
      "taf": "TAF LIPE 301700Z 3018/3118 VRB04KT 4000 BR BKN012"
    },
    {
      "icao": "LIPH",
      "alert": "OK",
      "vis_m": 2000,
      "fzfg": false,
      "metar_trigger": false,
      "taf_trigger": false,
      "metar": "METAR LIPH 301920Z 24004KT 2000 BR NSC 05/05 Q1001",
      "taf": "TAF LIPH 301700Z 3018/3118 VRB04KT 3000 BR BKN020"
    },
    {
      "icao": "LIPQ",
      "alert": "OK",
      "vis_m": 8000,
      "fzfg": false,
      "metar_trigger": false,
      "taf_trigger": false,
      "metar": "METAR LIPQ 301920Z AUTO 09002KT 8000 BKN028/// 07/06 Q1002",
      "taf": "TAF LIPQ 301700Z 3018/3118 VRB04KT 9999 SCT030"
    },
    {
      "icao": "LIPR",
      "alert": "OK",
      "vis_m": 1500,
      "fzfg": false,
      "metar_trigger": false,
      "taf_trigger": false,
      "metar": "METAR LIPR 301920Z VRB01KT 1500 BR BKN002 04/04 Q1002",
      "taf": "TAF LIPR 301700Z 3018/3118 VRB05KT 1400 BR BKN012"
    },
    {
      "icao": "LIPX",
      "alert": "OK",
      "vis_m": 400,
      "fzfg": false,
      "metar_trigger": false,
      "taf_trigger": false,
      "metar": "METAR LIPX 301920Z VRB02KT 0400 R04/1100N FG VV001 05/05 Q1002",
      "taf": "TAF LIPX 301700Z 3018/3118 VRB05KT 0300 FG OVC003"
    },
    {
      "icao": "LIPY",
      "alert": "OK",
      "vis_m": 9999,
      "fzfg": false,
      "metar_trigger": false,
      "taf_trigger": false,
      "metar": "METAR LIPY 301850Z AUTO VRB02KT 9999 OVC007/// 07/06 Q1002",
      "taf": "TAF LIPY 301700Z 3018/3118 VRB05KT 4000 BR BKN010"
    },
    {
      "icao": "LIPZ",
      "alert": "OK",
      "vis_m": 4000,
      "fzfg": false,
      "metar_trigger": false,
      "taf_trigger": false,
      "metar": "METAR LIPZ 301920Z 25005KT 4000 BR SCT015 05/04 Q1002 BECMG 2000 BR",
      "taf": "TAF LIPZ 301700Z 3018/3124 VRB04KT 3000 BR BKN020"
    },
    {
      "icao": "LIRF",
      "alert": "OK",
      "vis_m": 9999,
      "fzfg": false,
      "metar_trigger": false,
      "taf_trigger": false,
      "metar": "METAR LIRF 301920Z 06005KT CAVOK 10/08 Q1001 NOSIG",
      "taf": "TAF LIRF 301700Z 3018/3124 07007KT 9999 FEW020"
    },
    {
      "icao": "LIRN",
      "alert": "OK",
      "vis_m": 8000,
      "fzfg": false,
      "metar_trigger": false,
      "taf_trigger": false,
      "metar": "METAR LIRN 301920Z VRB02KT 8000 SCT050 10/09 Q1002 NOSIG",
      "taf": "TAF LIRN 301700Z 3018/3118 VRB06KT 8000 FEW020"
    },
    {
      "icao": "LIRP",
      "alert": "OK",
      "vis_m": 9999,
      "fzfg": false,
      "metar_trigger": false,
      "taf_trigger": false,
      "metar": "METAR LIRP 301915Z 12007KT 9999 SCT025 SCT040 BKN070 10/10 Q1001 NOSIG",
      "taf": "TAF LIRP 301700Z 3018/3118 12008KT 9999 FEW015 SCT030 BKN050"
    },
    {
      "icao": "LIRZ",
      "alert": "OK",
      "vis_m": 9999,
      "fzfg": false,
      "metar_trigger": false,
      "taf_trigger": false,
      "metar": "METAR LIRZ 301850Z AUTO 36005KT 9999 OVC070/// 08/06 Q1001",
      "taf": "TAF LIRZ 301700Z 3018/3118 VRB05KT 9999 FEW050"
    },
    {
      "icao": "LJLJ",
      "alert": "OK",
      "vis_m": 9999,
      "fzfg": false,
      "metar_trigger": false,
      "taf_trigger": false,
      "metar": "METAR LJLJ 301930Z 28005KT 9999 FEW020 BKN030 04/02 Q1002 NOSIG",
      "taf": "TAF LJLJ 301700Z 3018/3118 VRB02KT 9999 BKN020"
    },
    {
      "icao": "LKMT",
      "alert": "OK",
      "vis_m": 7000,
      "fzfg": false,
      "metar_trigger": false,
      "taf_trigger": false,
      "metar": "METAR LKMT 301930Z 05009KT 7000 OVC007 M00/M01 Q1004 NOSIG",
      "taf": "TAF LKMT 301700Z 3018/3118 02010KT 8000 OVC012"
    },
    {
      "icao": "LKPR",
      "alert": "OK",
      "vis_m": 3300,
      "fzfg": false,
      "metar_trigger": false,
      "taf_trigger": false,
      "metar": "METAR LKPR 301930Z 09006KT 3300 BR FEW002 BKN003 OVC005 M01/M01 Q1003 NOSIG",
      "taf": ""
    },
    {
      "icao": "LLBG",
      "alert": "OK",
      "vis_m": 9000,
      "fzfg": false,
      "metar_trigger": false,
      "taf_trigger": false,
      "metar": "METAR LLBG 301920Z 14004KT 9000 NSC 16/11 Q1014 NOSIG",
      "taf": "TAF LLBG 301702Z 3018/3118 VRB03KT CAVOK"
    },
    {
      "icao": "LMML",
      "alert": "OK",
      "vis_m": 9999,
      "fzfg": false,
      "metar_trigger": false,
      "taf_trigger": false,
      "metar": "METAR LMML 301845Z 28019KT 9999 FEW016 15/12 Q1007 NOSIG",
      "taf": "TAF LMML 301700Z 3018/3118 28018G28KT 9999 FEW015"
    },
    {
      "icao": "LOWW",
      "alert": "OK",
      "vis_m": 9999,
      "fzfg": false,
      "metar_trigger": false,
      "taf_trigger": false,
      "metar": "METAR LOWW 301920Z 33004KT 9999 SCT015 BKN034 01/M01 Q1003 NOSIG",
      "taf": "TAF LOWW 301715Z 3018/3124 35005KT 8000 FEW010 OVC020 TX02/3113Z TNM00/3106Z"
    },
    {
      "icao": "LPFR",
      "alert": "OK",
      "vis_m": 9999,
      "fzfg": false,
      "metar_trigger": false,
      "taf_trigger": false,
      "metar": "METAR LPFR 301930Z 26020KT 9999 FEW008 15/14 Q1015",
      "taf": "TAF LPFR 301700Z 3018/3118 27017KT 9999 SCT012"
    },
    {
      "icao": "LPMA",
      "alert": "OK",
      "vis_m": 9999,
      "fzfg": false,
      "metar_trigger": false,
      "taf_trigger": false,
      "metar": "METAR LPMA 301930Z VRB02KT 9999 FEW015 19/16 Q1024",
      "taf": "TAF LPMA 301700Z 3018/3118 VRB05KT 9999 SCT015"
    },
    {
      "icao": "LPPR",
      "alert": "OK",
      "vis_m": 9999,
      "fzfg": false,
      "metar_trigger": false,
      "taf_trigger": false,
      "metar": "METAR LPPR 301930Z 31014KT 280V340 9999 BKN038 13/05 Q1008",
      "taf": ""
    },
    {
      "icao": "LPPS",
      "alert": "OK",
      "vis_m": 9999,
      "fzfg": false,
      "metar_trigger": false,
      "taf_trigger": false,
      "metar": "METAR LPPS 301930Z 30013KT 9999 SCT004 BKN010 18/17 Q1024",
      "taf": "TAF LPPS 301700Z 3018/3124 30010KT 9999 SCT013 BKN030"
    },
    {
      "icao": "LPPT",
      "alert": "OK",
      "vis_m": 9999,
      "fzfg": false,
      "metar_trigger": false,
      "taf_trigger": false,
      "metar": "METAR LPPT 301930Z 27016G32KT 9999 -RA FEW015 BKN030 14/11 Q1013 WS R20",
      "taf": "TAF LPPT 301700Z 3018/3124 26015KT 9999 FEW008 SCT020"
    },
    {
      "icao": "LQBK",
      "alert": "OK",
      "vis_m": 9999,
      "fzfg": false,
      "metar_trigger": false,
      "taf_trigger": false,
      "metar": "METAR LQBK 301930Z 33002KT CAVOK 04/03 Q1002 NOSIG",
      "taf": "TAF LQBK 301700Z 3018/3118 07004KT CAVOK TX08/3113Z TN02/3105Z"
    },
    {
      "icao": "LQSA",
      "alert": "OK",
      "vis_m": 9999,
      "fzfg": false,
      "metar_trigger": false,
      "taf_trigger": false,
      "metar": "METAR LQSA 301930Z 00000KT 9999 SCT025 BKN040 04/04 Q1001 NOSIG",
      "taf": "TAF LQSA 301700Z 3018/3118 VRB02KT 9999 SCT012 BKN040 TX06/3113Z TN01/3106Z"
    },
    {
      "icao": "LQTZ",
      "alert": "OK",
      "vis_m": 9999,
      "fzfg": false,
      "metar_trigger": false,
      "taf_trigger": false,
      "metar": "METAR LQTZ 301930Z VRB02KT 9999 BKN031 05/03 Q1002",
      "taf": "TAF LQTZ 301700Z 3018/3118 VRB02KT 9999 BKN030 TX06/3113Z TN02/3105Z"
    },
    {
      "icao": "LRBC",
      "alert": "OK",
      "vis_m": 9999,
      "fzfg": false,
      "metar_trigger": false,
      "taf_trigger": false,
      "metar": "METAR LRBC 301930Z 35015KT 9999 BKN013 OVC035 M01/M03 Q1005",
      "taf": "TAF LRBC 301700Z 3018/3103 35014KT 9999 OVC010"
    },
    {
      "icao": "LRBS",
      "alert": "OK",
      "vis_m": 9999,
      "fzfg": false,
      "metar_trigger": false,
      "taf_trigger": false,
      "metar": "METAR LRBS 301930Z 16003KT 120V220 9999 -DZ BKN008 05/04 Q1003 NOSIG",
      "taf": "TAF LRBS 301700Z 3018/3118 23006KT 9999 BKN010 OVC030"
    },
    {
      "icao": "LRBV",
      "alert": "OK",
      "vis_m": 9999,
      "fzfg": false,
      "metar_trigger": false,
      "taf_trigger": false,
      "metar": "METAR LRBV 301930Z 05004KT 9999 -RASN BKN017 OVC037 02/M00 Q1001",
      "taf": "TAF LRBV 301700Z 3018/3103 VRB04KT 9999 SCT020 OVC035"
    },
    {
      "icao": "LRCL",
      "alert": "OK",
      "vis_m": 2000,
      "fzfg": false,
      "metar_trigger": false,
      "taf_trigger": false,
      "metar": "METAR LRCL 301930Z 08005KT 2000 BR BKN019 OVC025 03/02 Q1001",
      "taf": "TAF LRCL 301700Z 3018/3103 VRB04KT 7000 -RA BR BKN020 OVC050"
    },
    {
      "icao": "LRCV",
      "alert": "OK",
      "vis_m": 6000,
      "fzfg": false,
      "metar_trigger": false,
      "taf_trigger": false,
      "metar": "METAR LRCV 301930Z 00000KT 6000 NSC 04/04 Q1002",
      "taf": "TAF LRCV 301700Z 3018/3103 VRB04KT 7000 SCT015"
    },
    {
      "icao": "LRIA",
      "alert": "OK",
      "vis_m": 9999,
      "fzfg": false,
      "metar_trigger": false,
      "taf_trigger": false,
      "metar": "METAR LRIA 301930Z COR 32012KT 9999 BKN010 OVC012 M03/M05 Q1005",
      "taf": "TAF LRIA 301700Z 3018/3103 34014KT 9999 OVC010"
    },
    {
      "icao": "LROP",
      "alert": "OK",
      "vis_m": 9999,
      "fzfg": false,
      "metar_trigger": false,
      "taf_trigger": false,
      "metar": "METAR LROP 301930Z 17003KT 9999 -DZ OVC013 05/05 Q1002 NOSIG",
      "taf": "TAF LROP 301700Z 3018/3118 23006KT 9999 BKN010 OVC030"
    },
    {
      "icao": "LRSB",
      "alert": "OK",
      "vis_m": 6000,
      "fzfg": false,
      "metar_trigger": false,
      "taf_trigger": false,
      "metar": "METAR LRSB 301930Z VRB01KT 6000 OVC013 04/03 Q1001",
      "taf": "TAF LRSB 301700Z 3018/3118 VRB04KT 7000 -RA BKN015 OVC030"
    },
    {
      "icao": "LRSM",
      "alert": "OK",
      "vis_m": 5000,
      "fzfg": false,
      "metar_trigger": false,
      "taf_trigger": false,
      "metar": "METAR LRSM 301930Z AUTO 36003KT 5000 -SHRA OVC036/// 04/03 Q1002",
      "taf": "TAF LRSM 301400Z 3015/3024 VRB04KT 9999 OVC025"
    },
    {
      "icao": "LRSV",
      "alert": "OK",
      "vis_m": 6000,
      "fzfg": false,
      "metar_trigger": false,
      "taf_trigger": false,
      "metar": "METAR LRSV 301930Z 35011KT 6000 -SN BKN006 BKN026 M04/M04 Q1004",
      "taf": "TAF LRSV 301700Z 3018/3103 35012KT 7000 -SN BKN005 OVC010"
    },
    {
      "icao": "LRTM",
      "alert": "OK",
      "vis_m": 550,
      "fzfg": false,
      "metar_trigger": false,
      "taf_trigger": false,
      "metar": "METAR LRTM 301930Z AUTO 07004KT 0550 R07/0900N -RA FG BKN017/// 02/01 Q1002",
      "taf": ""
    },
    {
      "icao": "LRTR",
      "alert": "OK",
      "vis_m": 5000,
      "fzfg": false,
      "metar_trigger": false,
      "taf_trigger": false,
      "metar": "METAR LRTR 301930Z VRB02KT 5000 BR BKN005 OVC012 03/03 Q1002 NOSIG",
      "taf": "TAF LRTR 301700Z 3018/3118 VRB04KT 3000 -DZ BR SCT003 OVC005"
    },
    {
      "icao": "LTAC",
      "alert": "OK",
      "vis_m": 9999,
      "fzfg": false,
      "metar_trigger": false,
      "taf_trigger": false,
      "metar": "METAR LTAC 301920Z 23010KT 9999 SCT040 BKN100 08/03 Q1003 NOSIG",
      "taf": "TAF LTAC 301640Z 3018/3118 VRB02KT 9999 SCT040 SCT100"
    },
    {
      "icao": "LTFM",
      "alert": "OK",
      "vis_m": 9999,
      "fzfg": false,
      "metar_trigger": false,
      "taf_trigger": false,
      "metar": "METAR LTFM 301920Z 31004KT 240V320 9999 BKN010 BKN025 06/05 Q1004 NOSIG",
      "taf": "TAF LTFM 301640Z 3018/3124 32012KT 9999 BKN012 BKN025"
    },
    {
      "icao": "LUKK",
      "alert": "OK",
      "vis_m": 9999,
      "fzfg": false,
      "metar_trigger": false,
      "taf_trigger": false,
      "metar": "METAR LUKK 301930Z 36015KT 9999 -SN DRSN BKN013 OVC024 M03/M05 Q1003 TEMPO 01018G26KT 4000 SN BKN006",
      "taf": "TAF LUKK 301726Z 3018/3118 36014KT 5000 -SN BKN010"
    },
    {
      "icao": "LWOH",
      "alert": "OK",
      "vis_m": 9999,
      "fzfg": false,
      "metar_trigger": false,
      "taf_trigger": false,
      "metar": "METAR LWOH 301920Z VRB02KT 9999 SCT040 05/02 Q1002",
      "taf": "TAF LWOH 301740Z 3018/3118 16010KT 9999 FEW015 BKN035"
    },
    {
      "icao": "LWSK",
      "alert": "OK",
      "vis_m": 9999,
      "fzfg": false,
      "metar_trigger": false,
      "taf_trigger": false,
      "metar": "METAR LWSK 301920Z VRB01KT 9999 FEW040 SCT075 05/03 Q1002 NOSIG",
      "taf": "TAF LWSK 301740Z 3018/3118 VRB02KT 9999 SCT040 BKN070"
    },
    {
      "icao": "LYBE",
      "alert": "OK",
      "vis_m": 9999,
      "fzfg": false,
      "metar_trigger": false,
      "taf_trigger": false,
      "metar": "METAR LYBE 301930Z 27003KT 250V310 9999 OVC008 05/04 Q1003 NOSIG",
      "taf": "TAF LYBE 301700Z 3018/3118 04005KT 9999 BKN012 BKN023 TX07/3113Z TN03/3106Z"
    },
    {
      "icao": "LYNI",
      "alert": "OK",
      "vis_m": 9999,
      "fzfg": false,
      "metar_trigger": false,
      "taf_trigger": false,
      "metar": "METAR LYNI 301930Z 34003KT 9999 FEW015 BKN021 06/05 Q1002 NOSIG",
      "taf": "TAF LYNI 301700Z 3018/3118 VRB02KT 9999 SCT015 BKN040 TX08/3113Z TN02/3106Z"
    },
    {
      "icao": "LYPG",
      "alert": "OK",
      "vis_m": 9999,
      "fzfg": false,
      "metar_trigger": false,
      "taf_trigger": false,
      "metar": "METAR LYPG 301930Z VRB01KT 9999 FEW010 SCT040 BKN070 07/07 Q1002 NOSIG",
      "taf": "TAF LYPG 301700Z 3018/3118 35005KT 9999 FEW010 SCT050 TX13/3112Z TN05/3106Z"
    },
    {
      "icao": "LZIB",
      "alert": "OK",
      "vis_m": 9000,
      "fzfg": false,
      "metar_trigger": false,
      "taf_trigger": false,
      "metar": "METAR LZIB 301930Z 30004KT 9000 FEW009 01/M01 Q1003 NOSIG",
      "taf": "TAF LZIB 301715Z 3018/3118 30005KT 7000 FEW010 SCT040"
    },
    {
      "icao": "LZKZ",
      "alert": "OK",
      "vis_m": 9999,
      "fzfg": false,
      "metar_trigger": false,
      "taf_trigger": false,
      "metar": "METAR LZKZ 301930Z 36012KT 9999 BKN026 OVC036 02/M01 Q1003 NOSIG",
      "taf": "TAF LZKZ 301715Z 3018/3118 01013KT 9999 FEW020 BKN030"
    },
    {
      "icao": "LZTT",
      "alert": "OK",
      "vis_m": 5000,
      "fzfg": false,
      "metar_trigger": false,
      "taf_trigger": false,
      "metar": "METAR LZTT 301930Z 05009KT 5000 -SN BR BKN002 OVC016 M02/M02 Q1002",
      "taf": "TAF LZTT 301715Z 3018/3118 06007KT 4000 BR BKN002 OVC004"
    },
    {
      "icao": "OEJN",
      "alert": "OK",
      "vis_m": 9999,
      "fzfg": false,
      "metar_trigger": false,
      "taf_trigger": false,
      "metar": "METAR OEJN 301900Z 35007KT CAVOK 25/17 Q1014 NOSIG",
      "taf": "TAF OEJN 301700Z 3018/3124 36006KT CAVOK"
    },
    {
      "icao": "OEMA",
      "alert": "OK",
      "vis_m": 9999,
      "fzfg": false,
      "metar_trigger": false,
      "taf_trigger": false,
      "metar": "METAR OEMA 301900Z 28006KT CAVOK 23/06 Q1018 NOSIG",
      "taf": "TAF OEMA 301700Z 3018/3124 27006KT CAVOK"
    },
    {
      "icao": "OJAI",
      "alert": "OK",
      "vis_m": null,
      "fzfg": false,
      "metar_trigger": false,
      "taf_trigger": false,
      "metar": "",
      "taf": "TAF OJAI 301617Z 3018/3124 23006KT 5000 HZ NSC"
    },
    {
      "icao": "OMAA",
      "alert": "OK",
      "vis_m": 9999,
      "fzfg": false,
      "metar_trigger": false,
      "taf_trigger": false,
      "metar": "METAR OMAA 301930Z 28004KT CAVOK 19/11 Q1018 NOSIG",
      "taf": "TAF OMAA 301700Z 3018/0100 27010KT 8000 FEW030"
    },
    {
      "icao": "OMDB",
      "alert": "OK",
      "vis_m": 9999,
      "fzfg": false,
      "metar_trigger": false,
      "taf_trigger": false,
      "metar": "METAR OMDB 301930Z 23004KT CAVOK 20/13 Q1017 NOSIG",
      "taf": "TAF OMDB 301700Z 3018/0100 28010KT 8000 NSC"
    },
    {
      "icao": "UAAA",
      "alert": "OK",
      "vis_m": 1600,
      "fzfg": false,
      "metar_trigger": false,
      "taf_trigger": false,
      "metar": "METAR UAAA 301930Z VRB01MPS 1600 R23L/P2000D BR OVC003 M04/M05 Q1019 NOSIG RMK QBB100",
      "taf": "TAF UAAA 301702Z 3018/3118 22003MPS 1000 BR FU OVC004 TX01/3109Z TNM06/3102Z"
    },
    {
      "icao": "UBBB",
      "alert": "OK",
      "vis_m": 150,
      "fzfg": false,
      "metar_trigger": false,
      "taf_trigger": false,
      "metar": "METAR UBBB 301930Z 18014KT 0150 R17/0500 FG VV002 07/07 Q1008 NOSIG",
      "taf": ""
    },
    {
      "icao": "UDSG",
      "alert": "OK",
      "vis_m": 4200,
      "fzfg": false,
      "metar_trigger": false,
      "taf_trigger": false,
      "metar": "METAR UDSG 301930Z 10001KT 4200 BR BKN023 M07/M07 Q1013 NOSIG",
      "taf": "TAF UDSG 301658Z 3018/3118 VRB06KT 2000 BR OVC020"
    },
    {
      "icao": "UDYZ",
      "alert": "OK",
      "vis_m": 2600,
      "fzfg": false,
      "metar_trigger": false,
      "taf_trigger": false,
      "metar": "METAR UDYZ 301930Z 00000KT 2600 BR BKN014 M02/M04 Q1016 NOSIG",
      "taf": "TAF UDYZ 301700Z 3018/3118 VRB04KT 2300 BR BKN015"
    },
    {
      "icao": "UGKO",
      "alert": "OK",
      "vis_m": 9999,
      "fzfg": false,
      "metar_trigger": false,
      "taf_trigger": false,
      "metar": "METAR UGKO 301930Z 08016KT CAVOK 14/M02 Q1003 NOSIG",
      "taf": "TAF UGKO 301700Z 3018/3118 08007KT CAVOK TX15/3112Z TN10/3118Z"
    }
  ]
}