{
  "ts_utc": "2026-02-21T19:55:52Z",
  "threshold_m": 150,
  "source": "stations_override.txt (ICAO list) + aviationweather.gov (METAR/TAF raw)",
  "station_count": 159,
  "stations": [
    {
      "icao": "BIKF",
      "alert": "OK",
      "vis_m": 9999,
      "fzfg": false,
      "metar_trigger": false,
      "taf_trigger": false,
      "metar": "METAR BIKF 211930Z 07024KT 9999 FEW048 BKN120 01/M07 Q0998",
      "taf": "TAF BIKF 211945Z 2121/2221 07022G32KT CAVOK TX03/2215Z TN00/2123Z"
    },
    {
      "icao": "BKPR",
      "alert": "OK",
      "vis_m": null,
      "fzfg": false,
      "metar_trigger": false,
      "taf_trigger": false,
      "metar": "",
      "taf": "TAF BKPR 211730Z 2118/2218 01008KT 9999 SCT020 BKN030"
    },
    {
      "icao": "EBCI",
      "alert": "OK",
      "vis_m": 9999,
      "fzfg": false,
      "metar_trigger": false,
      "taf_trigger": false,
      "metar": "METAR EBCI 211920Z 22016KT 9999 FEW006 BKN009 11/10 Q1022 TEMPO 3000 -DZ BR BKN004",
      "taf": "TAF EBCI 211720Z 2118/2224 23010KT 9999 BKN012"
    },
    {
      "icao": "EDDB",
      "alert": "OK",
      "vis_m": 9999,
      "fzfg": false,
      "metar_trigger": false,
      "taf_trigger": false,
      "metar": "METAR EDDB 211950Z AUTO 24008KT 9999 FEW026 SCT039 06/05 Q1017 NOSIG",
      "taf": "TAF EDDB 211700Z 2118/2218 23008KT 9999 BKN030"
    },
    {
      "icao": "EDDH",
      "alert": "OK",
      "vis_m": 9999,
      "fzfg": false,
      "metar_trigger": false,
      "taf_trigger": false,
      "metar": "METAR EDDH 211950Z AUTO 27003KT 230V300 9999 BKN009 OVC014 07/06 Q1016 TEMPO 4500 -RADZ",
      "taf": "TAF EDDH 211700Z 2118/2224 23007KT 9999 OVC011"
    },
    {
      "icao": "EDDK",
      "alert": "OK",
      "vis_m": 9999,
      "fzfg": false,
      "metar_trigger": false,
      "taf_trigger": false,
      "metar": "METAR EDDK 211950Z AUTO 25009KT 9999 BKN015 BKN020 10/08 Q1021 BECMG BKN014",
      "taf": "TAF EDDK 211700Z 2118/2224 23007KT 9999 BKN015"
    },
    {
      "icao": "EDDN",
      "alert": "OK",
      "vis_m": 7000,
      "fzfg": false,
      "metar_trigger": false,
      "taf_trigger": false,
      "metar": "METAR EDDN 211950Z AUTO 20003KT 7000 -RADZ FEW005 BKN010 06/06 Q1023 TEMPO OVC008",
      "taf": "TAF EDDN 211700Z 2118/2218 23009KT 9999 SCT012 BKN020"
    },
    {
      "icao": "EDDS",
      "alert": "OK",
      "vis_m": 9999,
      "fzfg": false,
      "metar_trigger": false,
      "taf_trigger": false,
      "metar": "METAR EDDS 211950Z AUTO 26006KT 210V290 CAVOK 08/06 Q1024 NOSIG",
      "taf": "TAF EDDS 211700Z 2118/2218 22004KT 9999 BKN020"
    },
    {
      "icao": "EDFH",
      "alert": "OK",
      "vis_m": 9999,
      "fzfg": false,
      "metar_trigger": false,
      "taf_trigger": false,
      "metar": "METAR EDFH 211920Z 25009KT 9999 FEW010 SCT020 08/07 Q1022",
      "taf": "TAF EDFH 211700Z 2118/2218 26012KT 9999 SCT004 BKN010"
    },
    {
      "icao": "EDJA",
      "alert": "OK",
      "vis_m": 9999,
      "fzfg": false,
      "metar_trigger": false,
      "taf_trigger": false,
      "metar": "METAR EDJA 211920Z 24017G29KT 9999 OVC009 07/05 Q1025",
      "taf": "TAF EDJA 211700Z 2118/2203 24010KT 9999 SCT009 BKN025"
    },
    {
      "icao": "EDLW",
      "alert": "OK",
      "vis_m": 9999,
      "fzfg": false,
      "metar_trigger": false,
      "taf_trigger": false,
      "metar": "METAR EDLW 211920Z 23012KT 9999 SCT009 BKN012 OVC016 10/08 Q1020",
      "taf": "TAF EDLW 211700Z 2118/2218 25012KT 9999 SCT008 BKN015"
    },
    {
      "icao": "EDNY",
      "alert": "OK",
      "vis_m": 9999,
      "fzfg": false,
      "metar_trigger": false,
      "taf_trigger": false,
      "metar": "METAR EDNY 211920Z 27004KT 230V330 9999 -RA SCT029 BKN048 OVC057 08/06 Q1028",
      "taf": "TAF EDNY 211700Z 2118/2203 24011KT 7000 OVC020"
    },
    {
      "icao": "EDSB",
      "alert": "OK",
      "vis_m": 9999,
      "fzfg": false,
      "metar_trigger": false,
      "taf_trigger": false,
      "metar": "METAR EDSB 211920Z 20014KT CAVOK 10/08 Q1026",
      "taf": "TAF EDSB 211700Z 2118/2218 21012KT 9999 BKN035"
    },
    {
      "icao": "EETN",
      "alert": "OK",
      "vis_m": 9999,
      "fzfg": false,
      "metar_trigger": false,
      "taf_trigger": false,
      "metar": "METAR EETN 211950Z 20017KT 9999 BKN021 M03/M07 Q1003 NOSIG",
      "taf": "TAF EETN 211730Z 2118/2218 19014KT 9999 SCT015 BKN025"
    },
    {
      "icao": "EFTU",
      "alert": "OK",
      "vis_m": 2500,
      "fzfg": false,
      "metar_trigger": false,
      "taf_trigger": false,
      "metar": "METAR EFTU 211950Z AUTO 21010KT 2500 -SN OVC003 M00/M00 Q0998",
      "taf": "TAF EFTU 211732Z 2118/2218 22011KT 6000 -SN OVC003"
    },
    {
      "icao": "EGBB",
      "alert": "OK",
      "vis_m": 9999,
      "fzfg": false,
      "metar_trigger": false,
      "taf_trigger": false,
      "metar": "METAR EGBB 211950Z 21008KT 170V240 9999 FEW010 BKN018 11/10 Q1016",
      "taf": ""
    },
    {
      "icao": "EGGP",
      "alert": "OK",
      "vis_m": 9999,
      "fzfg": false,
      "metar_trigger": false,
      "taf_trigger": false,
      "metar": "METAR EGGP 211950Z 23014KT 9999 FEW028 SCT044 11/08 Q1013",
      "taf": "TAF EGGP 211702Z 2118/2218 23009KT 9999 SCT030"
    },
    {
      "icao": "EGGW",
      "alert": "OK",
      "vis_m": 9999,
      "fzfg": false,
      "metar_trigger": false,
      "taf_trigger": false,
      "metar": "METAR EGGW 211950Z AUTO 23012KT 9999 BKN010 12/10 Q1017",
      "taf": ""
    },
    {
      "icao": "EGKK",
      "alert": "OK",
      "vis_m": 9999,
      "fzfg": false,
      "metar_trigger": false,
      "taf_trigger": false,
      "metar": "METAR EGKK 211950Z 22009KT 9999 BKN006 12/11 Q1020",
      "taf": "TAF EGKK 211655Z 2118/2224 24012KT 9999 BKN007"
    },
    {
      "icao": "EGNM",
      "alert": "OK",
      "vis_m": 9999,
      "fzfg": false,
      "metar_trigger": false,
      "taf_trigger": false,
      "metar": "METAR EGNM 211950Z 23011KT 9999 SCT008 BKN011 10/09 Q1011",
      "taf": "TAF EGNM 211703Z 2118/2218 25014KT 9999 SCT020"
    },
    {
      "icao": "EGPD",
      "alert": "OK",
      "vis_m": 3000,
      "fzfg": false,
      "metar_trigger": false,
      "taf_trigger": false,
      "metar": "METAR EGPD 211950Z COR 16004KT 3000 RADZ BR OVC003 06/06 Q1005 BECMG 9999 NSW SCT005",
      "taf": ""
    },
    {
      "icao": "EGPF",
      "alert": "OK",
      "vis_m": 9000,
      "fzfg": false,
      "metar_trigger": false,
      "taf_trigger": false,
      "metar": "METAR EGPF 211950Z AUTO 23013KT 9000 -RA FEW007 SCT018 BKN028 10/09 Q1007 RERA REDZ",
      "taf": "TAF EGPF 211657Z 2118/2218 22009KT 9999 BKN030"
    },
    {
      "icao": "EHBK",
      "alert": "OK",
      "vis_m": 2400,
      "fzfg": false,
      "metar_trigger": false,
      "taf_trigger": false,
      "metar": "METAR EHBK 211925Z AUTO 22013KT 2400 +DZ BKN001 OVC003 10/09 Q1021 BECMG 4000 BKN004",
      "taf": "TAF EHBK 211716Z 2118/2224 24012KT 9999 BKN018"
    },
    {
      "icao": "EHEH",
      "alert": "OK",
      "vis_m": 2200,
      "fzfg": false,
      "metar_trigger": false,
      "taf_trigger": false,
      "metar": "METAR EHEH 211925Z AUTO 22009KT 190V260 2200 R21/P3000N DZ FEW002 SCT003 BKN005 10/10 Q1020 YLO TEMPO 2000 DZRA BKN002 OVC005",
      "taf": "TAF EHEH 211731Z 2118/2224 24008KT 8000 SCT015 BKN020"
    },
    {
      "icao": "EKBI",
      "alert": "OK",
      "vis_m": 9999,
      "fzfg": false,
      "metar_trigger": false,
      "taf_trigger": false,
      "metar": "METAR EKBI 211950Z AUTO 24006KT 9999 NCD 01/01 Q1013",
      "taf": "TAF EKBI 211727Z 2118/2218 27010KT 9999 SCT012"
    },
    {
      "icao": "EKCH",
      "alert": "OK",
      "vis_m": 9999,
      "fzfg": false,
      "metar_trigger": false,
      "taf_trigger": false,
      "metar": "METAR EKCH 211950Z AUTO 26012KT 9999 NCD 02/01 Q1010 NOSIG",
      "taf": "TAF EKCH 211727Z 2118/2218 24010KT 3500 -RADZ BR BKN008"
    },
    {
      "icao": "ENAL",
      "alert": "OK",
      "vis_m": 1000,
      "fzfg": false,
      "metar_trigger": false,
      "taf_trigger": false,
      "metar": "METAR ENAL 211920Z COR 23007KT 180V240 1000 SN VV005 00/M00 Q1009",
      "taf": "TAF ENAL 211700Z 2118/2203 34008KT 9999 FEW010 SCT030"
    },
    {
      "icao": "ENBR",
      "alert": "OK",
      "vis_m": 9999,
      "fzfg": false,
      "metar_trigger": false,
      "taf_trigger": false,
      "metar": "METAR ENBR 211920Z 03002KT CAVOK 01/M01 Q1009 NOSIG RMK WIND 1200FT 01007KT",
      "taf": "TAF ENBR 211700Z 2118/2218 VRB03KT 9999 FEW020"
    },
    {
      "icao": "ENGM",
      "alert": "OK",
      "vis_m": 9999,
      "fzfg": false,
      "metar_trigger": false,
      "taf_trigger": false,
      "metar": "METAR ENGM 211920Z 00000KT 9999 FEW003 M03/M05 Q1006 NOSIG",
      "taf": "TAF ENGM 211700Z 2118/2218 36003KT CAVOK"
    },
    {
      "icao": "ENHD",
      "alert": "OK",
      "vis_m": 9999,
      "fzfg": false,
      "metar_trigger": false,
      "taf_trigger": false,
      "metar": "METAR ENHD 211920Z 06003KT CAVOK 00/M02 Q1010",
      "taf": "TAF ENHD 211400Z 2115/2123 34012KT 9999 FEW040"
    },
    {
      "icao": "ENTC",
      "alert": "OK",
      "vis_m": 9999,
      "fzfg": false,
      "metar_trigger": false,
      "taf_trigger": false,
      "metar": "METAR ENTC 211920Z 21010KT 9999 FEW007 SCT009 BKN042 M05/M07 Q0998 RMK WIND 2600FT 29015KT",
      "taf": ""
    },
    {
      "icao": "ENTO",
      "alert": "OK",
      "vis_m": 9999,
      "fzfg": false,
      "metar_trigger": false,
      "taf_trigger": false,
      "metar": "METAR ENTO 211920Z 32004KT CAVOK 01/M03 Q1007 NOSIG",
      "taf": "TAF ENTO 211700Z 2118/2218 34005KT CAVOK"
    },
    {
      "icao": "ENVA",
      "alert": "OK",
      "vis_m": 9999,
      "fzfg": false,
      "metar_trigger": false,
      "taf_trigger": false,
      "metar": "METAR ENVA 211920Z 29014KT 9999 FEW023 02/M02 Q1005 RMK WIND 670FT 31023KT",
      "taf": ""
    },
    {
      "icao": "ENZV",
      "alert": "OK",
      "vis_m": 9999,
      "fzfg": false,
      "metar_trigger": false,
      "taf_trigger": false,
      "metar": "METAR ENZV 211920Z 17004KT CAVOK 01/M01 Q1010 NOSIG",
      "taf": "TAF ENZV 211700Z 2118/2218 33005KT 9999 SCT040"
    },
    {
      "icao": "EPGD",
      "alert": "OK",
      "vis_m": 7000,
      "fzfg": false,
      "metar_trigger": false,
      "taf_trigger": false,
      "metar": "METAR EPGD 211930Z 24011KT 7000 -DZ OVC004 03/02 Q1010",
      "taf": "TAF EPGD 211730Z 2118/2218 25012KT 7000 BKN007"
    },
    {
      "icao": "EPKK",
      "alert": "OK",
      "vis_m": 7000,
      "fzfg": false,
      "metar_trigger": false,
      "taf_trigger": false,
      "metar": "METAR EPKK 211930Z 21005KT 7000 OVC021 02/01 Q1020",
      "taf": "TAF EPKK 211730Z 2118/2218 25010KT 9999 OVC020"
    },
    {
      "icao": "EPKT",
      "alert": "OK",
      "vis_m": 8000,
      "fzfg": false,
      "metar_trigger": false,
      "taf_trigger": false,
      "metar": "METAR EPKT 211930Z 21009KT 8000 BKN019 01/M01 Q1019",
      "taf": "TAF EPKT 211730Z 2118/2218 22010KT 9999 BKN020"
    },
    {
      "icao": "EPLB",
      "alert": "OK",
      "vis_m": 7000,
      "fzfg": false,
      "metar_trigger": false,
      "taf_trigger": false,
      "metar": "METAR EPLB 211930Z 22009KT 7000 -SN SCT017 OVC023 M00/M02 Q1018",
      "taf": "TAF EPLB 211730Z 2118/2218 VRB02KT CAVOK"
    },
    {
      "icao": "EPMO",
      "alert": "OK",
      "vis_m": 1200,
      "fzfg": false,
      "metar_trigger": false,
      "taf_trigger": false,
      "metar": "METAR EPMO 211930Z 20009KT 1200 R08/1300N -DZ BR BKN001 02/02 Q1015",
      "taf": "TAF EPMO 211730Z 2118/2218 19007KT 3500 BR OVC006"
    },
    {
      "icao": "EPPO",
      "alert": "OK",
      "vis_m": 8000,
      "fzfg": false,
      "metar_trigger": false,
      "taf_trigger": false,
      "metar": "METAR EPPO 211930Z 24006KT 8000 -RA FEW020 BKN047 04/03 Q1016",
      "taf": "TAF EPPO 211730Z 2118/2218 26010KT 9999 BKN015"
    },
    {
      "icao": "EPRA",
      "alert": "OK",
      "vis_m": 8000,
      "fzfg": false,
      "metar_trigger": false,
      "taf_trigger": false,
      "metar": "METAR EPRA 211930Z 23009KT 8000 -RADZ OVC008 02/01 Q1017",
      "taf": "TAF EPRA 211730Z 2118/2203 19010KT 8000 -RA BKN014 OVC023"
    },
    {
      "icao": "EPRZ",
      "alert": "OK",
      "vis_m": 9999,
      "fzfg": false,
      "metar_trigger": false,
      "taf_trigger": false,
      "metar": "METAR EPRZ 211930Z 22008KT 9999 BKN030 02/M01 Q1020",
      "taf": "TAF EPRZ 211730Z 2118/2218 22010KT 9999 BKN030"
    },
    {
      "icao": "EPSC",
      "alert": "OK",
      "vis_m": 9999,
      "fzfg": false,
      "metar_trigger": false,
      "taf_trigger": false,
      "metar": "METAR EPSC 211930Z 25007KT 9999 FEW006 OVC010 05/05 Q1013",
      "taf": "TAF EPSC 211730Z 2118/2218 25010KT 7000 BKN010"
    },
    {
      "icao": "EPSY",
      "alert": "OK",
      "vis_m": 1700,
      "fzfg": false,
      "metar_trigger": false,
      "taf_trigger": false,
      "metar": "METAR EPSY 211930Z 19007KT 1700 BR OVC003 M01/M01 Q1013 REFZDZ",
      "taf": "TAF EPSY 211730Z 2118/2203 19010KT 4000 BR OVC006"
    },
    {
      "icao": "EPWA",
      "alert": "OK",
      "vis_m": 7000,
      "fzfg": false,
      "metar_trigger": false,
      "taf_trigger": false,
      "metar": "METAR EPWA 211930Z 22005KT 180V250 7000 OVC004 02/02 Q1016 TEMPO 4000 BR",
      "taf": "TAF EPWA 211730Z 2118/2218 19006KT 6000 BKN008 BKN012"
    },
    {
      "icao": "EPWR",
      "alert": "OK",
      "vis_m": 9999,
      "fzfg": false,
      "metar_trigger": false,
      "taf_trigger": false,
      "metar": "METAR EPWR 211930Z 24008KT CAVOK 05/02 Q1018",
      "taf": "TAF EPWR 211730Z 2118/2218 25010KT 9999 SCT040"
    },
    {
      "icao": "ESGG",
      "alert": "OK",
      "vis_m": 9999,
      "fzfg": false,
      "metar_trigger": false,
      "taf_trigger": false,
      "metar": "METAR ESGG 211950Z 34008KT 9999 BKN007 01/00 Q1006",
      "taf": "TAF ESGG 211730Z 2118/2218 24010KT 0200 FG VV002"
    },
    {
      "icao": "ESKN",
      "alert": "OK",
      "vis_m": 2900,
      "fzfg": false,
      "metar_trigger": false,
      "taf_trigger": false,
      "metar": "METAR ESKN 211950Z 27008KT 2900 -SN BKN003 OVC006 00/00 Q1000",
      "taf": ""
    },
    {
      "icao": "ESMS",
      "alert": "OK",
      "vis_m": 9999,
      "fzfg": false,
      "metar_trigger": false,
      "taf_trigger": false,
      "metar": "METAR ESMS 211950Z 26013KT 9999 FEW008 02/02 Q1009",
      "taf": ""
    },
    {
      "icao": "ESSA",
      "alert": "OK",
      "vis_m": 3200,
      "fzfg": false,
      "metar_trigger": false,
      "taf_trigger": false,
      "metar": "METAR ESSA 211950Z 32010KT 3200 -SN SCT003 BKN007 OVC010 M01/M01 Q1000 BECMG 9999 NSW SCT015",
      "taf": ""
    },
    {
      "icao": "EYKA",
      "alert": "OK",
      "vis_m": 2700,
      "fzfg": false,
      "metar_trigger": false,
      "taf_trigger": false,
      "metar": "METAR EYKA 211950Z 20008KT 150V250 2700 SN BR BKN010 OVC040 M03/M04 Q1012",
      "taf": "TAF EYKA 211711Z 2118/2218 20010KT 5000 SN OVC015"
    },
    {
      "icao": "EYPA",
      "alert": "OK",
      "vis_m": 3000,
      "fzfg": false,
      "metar_trigger": false,
      "taf_trigger": false,
      "metar": "METAR EYPA 211950Z 18013KT 3000 -SN BR OVC004 M01/M02 Q1007 REFZRA",
      "taf": "TAF EYPA 211722Z 2118/2218 24012G22KT 5000 SN -FZDZ OVC005"
    },
    {
      "icao": "EYVI",
      "alert": "OK",
      "vis_m": 9999,
      "fzfg": false,
      "metar_trigger": false,
      "taf_trigger": false,
      "metar": "METAR EYVI 211950Z 19016KT 9999 BKN020 M02/M08 Q1012 NOSIG",
      "taf": "TAF EYVI 211709Z 2118/2218 19013KT 5000 SN OVC015"
    },
    {
      "icao": "GCFV",
      "alert": "OK",
      "vis_m": 9999,
      "fzfg": false,
      "metar_trigger": false,
      "taf_trigger": false,
      "metar": "METAR GCFV 211930Z 01008KT CAVOK 18/16 Q1021",
      "taf": "TAF GCFV 211400Z 2115/2215 04010KT 9999 FEW014 TX25/2214Z TN18/2206Z"
    },
    {
      "icao": "GCLP",
      "alert": "OK",
      "vis_m": 9999,
      "fzfg": false,
      "metar_trigger": false,
      "taf_trigger": false,
      "metar": "METAR GCLP 211930Z 02014KT 9999 FEW020 18/15 Q1021 NOSIG",
      "taf": "TAF GCLP 211400Z 2115/2215 03018KT 9999 FEW020 TX26/2214Z TN18/2206Z"
    },
    {
      "icao": "GCTS",
      "alert": "OK",
      "vis_m": 9999,
      "fzfg": false,
      "metar_trigger": false,
      "taf_trigger": false,
      "metar": "METAR GCTS 211930Z VRB03KT CAVOK 19/14 Q1022 NOSIG",
      "taf": "TAF GCTS 211400Z 2115/2215 09015KT CAVOK TX28/2214Z TN18/2206Z"
    },
    {
      "icao": "GMAD",
      "alert": "OK",
      "vis_m": 9999,
      "fzfg": false,
      "metar_trigger": false,
      "taf_trigger": false,
      "metar": "METAR GMAD 211930Z 18005KT 130V210 CAVOK 19/09 Q1021 NOSIG",
      "taf": "TAF GMAD 211700Z 2118/2224 20008KT CAVOK"
    },
    {
      "icao": "GMMN",
      "alert": "OK",
      "vis_m": 8000,
      "fzfg": false,
      "metar_trigger": false,
      "taf_trigger": false,
      "metar": "METAR GMMN 211930Z 03004KT 8000 NSC 16/12 Q1025 NOSIG",
      "taf": ""
    },
    {
      "icao": "GMMX",
      "alert": "OK",
      "vis_m": 9999,
      "fzfg": false,
      "metar_trigger": false,
      "taf_trigger": false,
      "metar": "METAR GMMX 211930Z 05004KT CAVOK 21/04 Q1025 NOSIG",
      "taf": "TAF GMMX 211700Z 2118/2224 04006KT 8000 NSC"
    },
    {
      "icao": "HEGN",
      "alert": "OK",
      "vis_m": 9999,
      "fzfg": false,
      "metar_trigger": false,
      "taf_trigger": false,
      "metar": "METAR HEGN 211900Z 32011KT CAVOK 21/04 Q1014 NOSIG",
      "taf": "TAF HEGN 211700Z 2118/2224 31014KT CAVOK"
    },
    {
      "icao": "HEMA",
      "alert": "OK",
      "vis_m": 9999,
      "fzfg": false,
      "metar_trigger": false,
      "taf_trigger": false,
      "metar": "METAR HEMA 211900Z 30006KT CAVOK 20/15 Q1013 NOSIG",
      "taf": "TAF HEMA 211700Z 2118/2224 30014KT CAVOK"
    },
    {
      "icao": "HESH",
      "alert": "OK",
      "vis_m": 9999,
      "fzfg": false,
      "metar_trigger": false,
      "taf_trigger": false,
      "metar": "METAR HESH 211900Z 34005KT CAVOK 21/12 Q1012 NOSIG",
      "taf": "TAF HESH 211700Z 2118/2224 35012KT CAVOK"
    },
    {
      "icao": "HESX",
      "alert": "OK",
      "vis_m": 9999,
      "fzfg": false,
      "metar_trigger": false,
      "taf_trigger": false,
      "metar": "METAR HESX 211900Z 04006KT CAVOK 14/07 Q1017 NOSIG",
      "taf": "TAF HESX 211700Z 2118/2224 30009KT CAVOK"
    },
    {
      "icao": "LATI",
      "alert": "OK",
      "vis_m": 9999,
      "fzfg": false,
      "metar_trigger": false,
      "taf_trigger": false,
      "metar": "METAR LATI 211950Z VRB02KT CAVOK 08/00 Q1017 NOSIG",
      "taf": "TAF LATI 211700Z 2118/2218 32008KT CAVOK TX16/2212Z TN02/2205Z"
    },
    {
      "icao": "LBPD",
      "alert": "OK",
      "vis_m": 9999,
      "fzfg": false,
      "metar_trigger": false,
      "taf_trigger": false,
      "metar": "METAR LBPD 211930Z AUTO 29012KT 9999 -SHRA SCT031/// BKN036/// OVC042/// 03/01 Q1019 NOSIG",
      "taf": "TAF LBPD 211700Z 2118/2218 27014KT 9999 SCT020 OVC030"
    },
    {
      "icao": "LBSF",
      "alert": "OK",
      "vis_m": 9999,
      "fzfg": false,
      "metar_trigger": false,
      "taf_trigger": false,
      "metar": "METAR LBSF 211930Z AUTO 33008KT 9999 OVC023/// M03/M06 Q1021 NOSIG",
      "taf": "TAF LBSF 211700Z 2118/2218 30008KT 9999 SCT020 BKN035"
    },
    {
      "icao": "LBWN",
      "alert": "OK",
      "vis_m": 9999,
      "fzfg": false,
      "metar_trigger": false,
      "taf_trigger": false,
      "metar": "METAR LBWN 211930Z AUTO 31011KT 270V350 9999 OVC008/// 00/M00 Q1020 NOSIG",
      "taf": "TAF LBWN 211700Z 2118/2218 30012KT 9999 OVC008"
    },
    {
      "icao": "LCLK",
      "alert": "OK",
      "vis_m": 9999,
      "fzfg": false,
      "metar_trigger": false,
      "taf_trigger": false,
      "metar": "METAR LCLK 211930Z 30008KT 270V330 9999 SCT045 15/12 Q1014 NOSIG",
      "taf": "TAF LCLK 211730Z 2118/2218 26006KT 9999 FEW020 SCT030"
    },
    {
      "icao": "LCPH",
      "alert": "OK",
      "vis_m": 9999,
      "fzfg": false,
      "metar_trigger": false,
      "taf_trigger": false,
      "metar": "METAR LCPH 211930Z 02003KT 9999 FEW035 12/09 Q1015 NOSIG",
      "taf": "TAF LCPH 211730Z 2118/2218 34008KT 9999 FEW020 SCT040"
    },
    {
      "icao": "LEAL",
      "alert": "OK",
      "vis_m": 9999,
      "fzfg": false,
      "metar_trigger": false,
      "taf_trigger": false,
      "metar": "METAR LEAL 211930Z 00000KT CAVOK 12/07 Q1031 NOSIG",
      "taf": ""
    },
    {
      "icao": "LEBB",
      "alert": "OK",
      "vis_m": 9999,
      "fzfg": false,
      "metar_trigger": false,
      "taf_trigger": false,
      "metar": "METAR LEBB 211930Z 00000KT CAVOK 10/07 Q1030 NOSIG",
      "taf": "TAF LEBB 211700Z 2118/2218 12005KT CAVOK TX16/2215Z TN05/2207Z"
    },
    {
      "icao": "LEBL",
      "alert": "OK",
      "vis_m": 9999,
      "fzfg": false,
      "metar_trigger": false,
      "taf_trigger": false,
      "metar": "METAR LEBL 211930Z 26007KT CAVOK 12/09 Q1029 NOSIG",
      "taf": "TAF LEBL 211700Z 2118/2218 22010KT CAVOK TX19/2213Z TN06/2207Z"
    },
    {
      "icao": "LECH",
      "alert": "OK",
      "vis_m": 9000,
      "fzfg": false,
      "metar_trigger": false,
      "taf_trigger": false,
      "metar": "METAR LECH 211930Z AUTO 19004KT 9000 NCD 09/07 Q1030",
      "taf": ""
    },
    {
      "icao": "LEMD",
      "alert": "OK",
      "vis_m": 9999,
      "fzfg": false,
      "metar_trigger": false,
      "taf_trigger": false,
      "metar": "METAR LEMD 211930Z VRB01KT CAVOK 10/01 Q1030 NOSIG",
      "taf": "TAF LEMD 211700Z 2118/2224 VRB04KT CAVOK TX20/2216Z TN01/2207Z"
    },
    {
      "icao": "LEMG",
      "alert": "OK",
      "vis_m": 9999,
      "fzfg": false,
      "metar_trigger": false,
      "taf_trigger": false,
      "metar": "METAR LEMG 211930Z 00000KT CAVOK 11/09 Q1030 NOSIG",
      "taf": "TAF LEMG 211700Z 2118/2218 13010KT CAVOK TX19/2214Z TN10/2207Z"
    },
    {
      "icao": "LEVC",
      "alert": "OK",
      "vis_m": 9999,
      "fzfg": false,
      "metar_trigger": false,
      "taf_trigger": false,
      "metar": "METAR LEVC 211930Z 35004KT 310V040 9999 FEW007 13/10 Q1031 NOSIG",
      "taf": "TAF LEVC 211700Z 2118/2218 11010KT CAVOK TX21/2214Z TN06/2206Z"
    },
    {
      "icao": "LEXJ",
      "alert": "OK",
      "vis_m": 8000,
      "fzfg": false,
      "metar_trigger": false,
      "taf_trigger": false,
      "metar": "METAR LEXJ 211930Z 00000KT 8000 NSC 09/07 Q1030",
      "taf": "TAF LEXJ 211400Z 2115/2215 VRB03KT CAVOK TX14/2214Z TN07/2207Z"
    },
    {
      "icao": "LEZG",
      "alert": "OK",
      "vis_m": 9999,
      "fzfg": false,
      "metar_trigger": false,
      "taf_trigger": false,
      "metar": "METAR LEZG 211930Z 21006KT CAVOK 10/05 Q1030 NOSIG",
      "taf": "TAF LEZG 211700Z 2118/2218 32006KT CAVOK TX18/2214Z TN03/2206Z"
    },
    {
      "icao": "LEZL",
      "alert": "OK",
      "vis_m": 9999,
      "fzfg": false,
      "metar_trigger": false,
      "taf_trigger": false,
      "metar": "METAR LEZL 211930Z 05003KT CAVOK 16/10 Q1027 NOSIG",
      "taf": "TAF LEZL 211400Z 2115/2215 05007KT CAVOK TX22/2115Z TN08/2207Z"
    },
    {
      "icao": "LFBD",
      "alert": "OK",
      "vis_m": 9999,
      "fzfg": false,
      "metar_trigger": false,
      "taf_trigger": false,
      "metar": "METAR LFBD 211930Z AUTO VRB01KT CAVOK 10/07 Q1031 BECMG 2000 BR",
      "taf": "TAF LFBD 211700Z 2118/2224 VRB03KT 9999 BKN025 TX16/2214Z TN04/2207Z"
    },
    {
      "icao": "LFLL",
      "alert": "OK",
      "vis_m": 9999,
      "fzfg": false,
      "metar_trigger": false,
      "taf_trigger": false,
      "metar": "METAR LFLL 211930Z 35005KT 9999 FEW040 09/06 Q1030 NOSIG",
      "taf": "TAF LFLL 211700Z 2118/2224 06005KT 9999 BKN040"
    },
    {
      "icao": "LFLS",
      "alert": "OK",
      "vis_m": 9999,
      "fzfg": false,
      "metar_trigger": false,
      "taf_trigger": false,
      "metar": "METAR LFLS 211930Z AUTO VRB03KT CAVOK 07/04 Q1030 NOSIG",
      "taf": "TAF LFLS 211400Z 2115/2215 01008KT 9999 BKN030"
    },
    {
      "icao": "LFMN",
      "alert": "OK",
      "vis_m": 9999,
      "fzfg": false,
      "metar_trigger": false,
      "taf_trigger": false,
      "metar": "METAR LFMN 211930Z 32008KT CAVOK 11/07 Q1024 NOSIG",
      "taf": "TAF LFMN 211400Z 2115/2221 10005KT CAVOK"
    },
    {
      "icao": "LFOB",
      "alert": "OK",
      "vis_m": 9999,
      "fzfg": false,
      "metar_trigger": false,
      "taf_trigger": false,
      "metar": "METAR LFOB 211930Z AUTO 22011KT 9999 OVC007 12/11 Q1024 TEMPO 3000 RADZ OVC003",
      "taf": "TAF LFOB 211700Z 2118/2218 24012KT 9999 OVC015"
    },
    {
      "icao": "LFPO",
      "alert": "OK",
      "vis_m": 9999,
      "fzfg": false,
      "metar_trigger": false,
      "taf_trigger": false,
      "metar": "METAR LFPO 211930Z 23013KT 9999 OVC015 13/10 Q1026 TEMPO BKN013",
      "taf": "TAF LFPO 211700Z 2118/2224 24010KT 9999 BKN013"
    },
    {
      "icao": "LFSB",
      "alert": "OK",
      "vis_m": 9999,
      "fzfg": false,
      "metar_trigger": false,
      "taf_trigger": false,
      "metar": "METAR LFSB 211930Z AUTO 23007KT CAVOK 11/06 Q1029 NOSIG",
      "taf": "TAF LFSB 211700Z 2118/2218 24008KT 9999 FEW030 BKN045"
    },
    {
      "icao": "LGAV",
      "alert": "OK",
      "vis_m": 9999,
      "fzfg": false,
      "metar_trigger": false,
      "taf_trigger": false,
      "metar": "METAR LGAV 211950Z VRB01KT 9999 FEW020TCU SCT040 11/07 Q1015 NOSIG",
      "taf": "TAF LGAV 211700Z 2118/2218 01010KT 9999 SCT025 SCT070"
    },
    {
      "icao": "LGTS",
      "alert": "OK",
      "vis_m": 9999,
      "fzfg": false,
      "metar_trigger": false,
      "taf_trigger": false,
      "metar": "METAR LGTS 211920Z 34016KT 9999 FEW025 09/01 Q1017 NOSIG",
      "taf": "TAF LGTS 211700Z 2118/2218 34013KT 9999 FEW030"
    },
    {
      "icao": "LHBP",
      "alert": "OK",
      "vis_m": 9999,
      "fzfg": false,
      "metar_trigger": false,
      "taf_trigger": false,
      "metar": "METAR LHBP 211930Z 25005KT 9999 SCT027 BKN043 03/01 Q1023 NOSIG",
      "taf": "TAF LHBP 211715Z 2118/2218 25005KT 9999 BKN020 BKN050"
    },
    {
      "icao": "LHDC",
      "alert": "OK",
      "vis_m": 4400,
      "fzfg": false,
      "metar_trigger": false,
      "taf_trigger": false,
      "metar": "METAR LHDC 211915Z AUTO 19005KT 160V220 4400 BR FEW007 OVC046 02/02 Q1023",
      "taf": "TAF LHDC 211415Z 2115/2124 24006KT 8000 SCT004 BKN030"
    },
    {
      "icao": "LIBD",
      "alert": "OK",
      "vis_m": 9999,
      "fzfg": false,
      "metar_trigger": false,
      "taf_trigger": false,
      "metar": "METAR LIBD 211920Z 28009KT 9999 SCT035 10/05 Q1020",
      "taf": "TAF LIBD 211700Z 2118/2218 28013KT 9999 SCT030"
    },
    {
      "icao": "LIBG",
      "alert": "OK",
      "vis_m": 9999,
      "fzfg": false,
      "metar_trigger": false,
      "taf_trigger": false,
      "metar": "METAR LIBG 211850Z 29006KT 260V320 CAVOK 10/06 Q1019",
      "taf": "TAF LIBG 211700Z 2118/2203 34015KT 9999 SCT040"
    },
    {
      "icao": "LIBP",
      "alert": "OK",
      "vis_m": 9999,
      "fzfg": false,
      "metar_trigger": false,
      "taf_trigger": false,
      "metar": "METAR LIBP 211920Z AUTO 22005KT 9999 NCD 06/04 Q1024",
      "taf": "TAF LIBP 211700Z 2118/2218 24006KT 9999 SCT030"
    },
    {
      "icao": "LIBR",
      "alert": "OK",
      "vis_m": 9999,
      "fzfg": false,
      "metar_trigger": false,
      "taf_trigger": false,
      "metar": "METAR LIBR 211920Z 33018KT 9999 FEW030 12/05 Q1018",
      "taf": "TAF LIBR 211700Z 2118/2218 32018G28KT 9999 SCT020"
    },
    {
      "icao": "LICA",
      "alert": "OK",
      "vis_m": 9999,
      "fzfg": false,
      "metar_trigger": false,
      "taf_trigger": false,
      "metar": "METAR LICA 211920Z AUTO 21004KT 200V260 9999 BKN040/// 11/09 Q1021",
      "taf": "TAF LICA 211700Z 2118/2218 28012KT 9999 FEW020"
    },
    {
      "icao": "LICC",
      "alert": "OK",
      "vis_m": 9999,
      "fzfg": false,
      "metar_trigger": false,
      "taf_trigger": false,
      "metar": "METAR LICC 211920Z VRB01KT 9999 SCT050 12/07 Q1021",
      "taf": "TAF LICC 211700Z 2118/2218 24006KT 9999 BKN050"
    },
    {
      "icao": "LICJ",
      "alert": "OK",
      "vis_m": 9999,
      "fzfg": false,
      "metar_trigger": false,
      "taf_trigger": false,
      "metar": "METAR LICJ 211920Z 34014KT 9999 SCT025 14/08 Q1024",
      "taf": "TAF LICJ 211700Z 2118/2218 33014KT 9999 FEW030"
    },
    {
      "icao": "LIMC",
      "alert": "OK",
      "vis_m": 9999,
      "fzfg": false,
      "metar_trigger": false,
      "taf_trigger": false,
      "metar": "METAR LIMC 211920Z VRB02KT CAVOK 08/04 Q1023 NOSIG",
      "taf": "TAF LIMC 211700Z 2118/2224 VRB05KT CAVOK"
    },
    {
      "icao": "LIME",
      "alert": "OK",
      "vis_m": 9999,
      "fzfg": false,
      "metar_trigger": false,
      "taf_trigger": false,
      "metar": "METAR LIME 211920Z AUTO 06004KT 9999 NCD 07/05 Q1023",
      "taf": "TAF LIME 211700Z 2118/2218 23006KT CAVOK"
    },
    {
      "icao": "LIMF",
      "alert": "OK",
      "vis_m": 9999,
      "fzfg": false,
      "metar_trigger": false,
      "taf_trigger": false,
      "metar": "METAR LIMF 211920Z 12003KT 080V150 CAVOK 10/02 Q1023",
      "taf": "TAF LIMF 211700Z 2118/2218 VRB05KT CAVOK"
    },
    {
      "icao": "LIMJ",
      "alert": "OK",
      "vis_m": 9999,
      "fzfg": false,
      "metar_trigger": false,
      "taf_trigger": false,
      "metar": "METAR LIMJ 211920Z VRB02KT CAVOK 11/07 Q1024",
      "taf": "TAF LIMJ 211700Z 2118/2218 VRB05KT CAVOK"
    },
    {
      "icao": "LIPE",
      "alert": "OK",
      "vis_m": 9999,
      "fzfg": false,
      "metar_trigger": false,
      "taf_trigger": false,
      "metar": "METAR LIPE 211920Z 09005KT CAVOK 09/04 Q1023",
      "taf": "TAF LIPE 211700Z 2118/2218 VRB05KT CAVOK"
    },
    {
      "icao": "LIPH",
      "alert": "OK",
      "vis_m": 9999,
      "fzfg": false,
      "metar_trigger": false,
      "taf_trigger": false,
      "metar": "METAR LIPH 211920Z VRB02KT CAVOK 09/06 Q1024",
      "taf": "TAF LIPH 211700Z 2118/2218 22006KT 9999 FEW040"
    },
    {
      "icao": "LIPQ",
      "alert": "OK",
      "vis_m": 9999,
      "fzfg": false,
      "metar_trigger": false,
      "taf_trigger": false,
      "metar": "METAR LIPQ 211920Z AUTO 11005KT 9999 NCD 06/05 Q1024",
      "taf": "TAF LIPQ 211700Z 2118/2218 VRB06KT 9999 FEW030"
    },
    {
      "icao": "LIPR",
      "alert": "OK",
      "vis_m": 9999,
      "fzfg": false,
      "metar_trigger": false,
      "taf_trigger": false,
      "metar": "METAR LIPR 211920Z 10003KT CAVOK 06/04 Q1024",
      "taf": "TAF LIPR 211700Z 2118/2218 VRB06KT CAVOK"
    },
    {
      "icao": "LIPX",
      "alert": "OK",
      "vis_m": 9999,
      "fzfg": false,
      "metar_trigger": false,
      "taf_trigger": false,
      "metar": "METAR LIPX 211920Z 34005KT CAVOK 06/04 Q1024",
      "taf": "TAF LIPX 211700Z 2118/2218 VRB05KT CAVOK"
    },
    {
      "icao": "LIPY",
      "alert": "OK",
      "vis_m": 9999,
      "fzfg": false,
      "metar_trigger": false,
      "taf_trigger": false,
      "metar": "METAR LIPY 211920Z AUTO 19003KT 9999 NCD 06/05 Q1024",
      "taf": "TAF LIPY 211700Z 2118/2218 VRB05KT CAVOK"
    },
    {
      "icao": "LIPZ",
      "alert": "OK",
      "vis_m": 9999,
      "fzfg": false,
      "metar_trigger": false,
      "taf_trigger": false,
      "metar": "METAR LIPZ 211920Z VRB02KT CAVOK 08/07 Q1024 NOSIG",
      "taf": "TAF LIPZ 211700Z 2118/2224 VRB05KT CAVOK"
    },
    {
      "icao": "LIRF",
      "alert": "OK",
      "vis_m": 9999,
      "fzfg": false,
      "metar_trigger": false,
      "taf_trigger": false,
      "metar": "METAR LIRF 211920Z 35004KT CAVOK 10/05 Q1022 NOSIG",
      "taf": "TAF LIRF 211700Z 2118/2224 01006KT CAVOK"
    },
    {
      "icao": "LIRN",
      "alert": "OK",
      "vis_m": 9999,
      "fzfg": false,
      "metar_trigger": false,
      "taf_trigger": false,
      "metar": "METAR LIRN 211920Z 36004KT 9999 FEW050 11/07 Q1022 NOSIG",
      "taf": "TAF LIRN 211700Z 2118/2218 29008KT 9999 FEW040"
    },
    {
      "icao": "LIRP",
      "alert": "OK",
      "vis_m": 9999,
      "fzfg": false,
      "metar_trigger": false,
      "taf_trigger": false,
      "metar": "METAR LIRP 211915Z 03001KT CAVOK 08/08 Q1024 NOSIG",
      "taf": "TAF LIRP 211700Z 2118/2218 27005KT CAVOK"
    },
    {
      "icao": "LIRZ",
      "alert": "OK",
      "vis_m": 9999,
      "fzfg": false,
      "metar_trigger": false,
      "taf_trigger": false,
      "metar": "METAR LIRZ 211920Z AUTO VRB02KT 9999 NCD 07/04 Q1023",
      "taf": "TAF LIRZ 211700Z 2118/2218 VRB05KT 9999 FEW030"
    },
    {
      "icao": "LJLJ",
      "alert": "OK",
      "vis_m": 9999,
      "fzfg": false,
      "metar_trigger": false,
      "taf_trigger": false,
      "metar": "METAR LJLJ 211930Z VRB02KT 9999 MIFG FEW060 M00/M01 Q1024 NOSIG",
      "taf": "TAF LJLJ 211700Z 2118/2218 VRB02KT 9999 FEW050"
    },
    {
      "icao": "LKMT",
      "alert": "OK",
      "vis_m": 9000,
      "fzfg": false,
      "metar_trigger": false,
      "taf_trigger": false,
      "metar": "METAR LKMT 211930Z 23013KT 9000 FEW045 01/00 Q1021 NOSIG",
      "taf": "TAF LKMT 211700Z 2118/2218 23010KT 6000 OVC036"
    },
    {
      "icao": "LKPR",
      "alert": "OK",
      "vis_m": 9999,
      "fzfg": false,
      "metar_trigger": false,
      "taf_trigger": false,
      "metar": "METAR LKPR 211930Z 22011KT 9999 FEW045 06/03 Q1021 NOSIG",
      "taf": "TAF LKPR 211700Z 2118/2224 23011KT 9999 SCT030"
    },
    {
      "icao": "LLBG",
      "alert": "OK",
      "vis_m": 9999,
      "fzfg": false,
      "metar_trigger": false,
      "taf_trigger": false,
      "metar": "METAR LLBG 211950Z 15005KT 9999 FEW030 15/12 Q1016 NOSIG",
      "taf": "TAF LLBG 211713Z 2118/2218 VRB04KT 9999 SCT030"
    },
    {
      "icao": "LMML",
      "alert": "OK",
      "vis_m": 9999,
      "fzfg": false,
      "metar_trigger": false,
      "taf_trigger": false,
      "metar": "METAR LMML 211945Z 30014KT 9999 FEW020 13/10 Q1022 NOSIG",
      "taf": "TAF LMML 211700Z 2118/2218 31015KT 9999 FEW018"
    },
    {
      "icao": "LOWW",
      "alert": "OK",
      "vis_m": 9999,
      "fzfg": false,
      "metar_trigger": false,
      "taf_trigger": false,
      "metar": "METAR LOWW 211920Z 29010KT CAVOK 05/02 Q1023 NOSIG",
      "taf": "TAF LOWW 211715Z 2118/2224 19005KT 9999 FEW030 BKN040 TX09/2224Z TN05/2202Z"
    },
    {
      "icao": "LPFR",
      "alert": "OK",
      "vis_m": 9999,
      "fzfg": false,
      "metar_trigger": false,
      "taf_trigger": false,
      "metar": "METAR LPFR 211930Z 03005KT CAVOK 17/06 Q1027",
      "taf": "TAF LPFR 211700Z 2118/2218 12008KT CAVOK"
    },
    {
      "icao": "LPMA",
      "alert": "OK",
      "vis_m": 9999,
      "fzfg": false,
      "metar_trigger": false,
      "taf_trigger": false,
      "metar": "METAR LPMA 211930Z 01009KT 9999 FEW016 16/10 Q1025",
      "taf": "TAF LPMA 211700Z 2118/2218 03015KT 9999 SCT015"
    },
    {
      "icao": "LPPR",
      "alert": "OK",
      "vis_m": 9999,
      "fzfg": false,
      "metar_trigger": false,
      "taf_trigger": false,
      "metar": "METAR LPPR 211930Z 01004KT CAVOK 10/08 Q1029",
      "taf": "TAF LPPR 211700Z 2118/2218 31005KT CAVOK"
    },
    {
      "icao": "LPPS",
      "alert": "OK",
      "vis_m": 9999,
      "fzfg": false,
      "metar_trigger": false,
      "taf_trigger": false,
      "metar": "METAR LPPS 211930Z 07010KT 9999 SCT015 16/11 Q1025",
      "taf": "TAF LPPS 211700Z 2118/2224 06010KT 9999 SCT015"
    },
    {
      "icao": "LPPT",
      "alert": "OK",
      "vis_m": 9999,
      "fzfg": false,
      "metar_trigger": false,
      "taf_trigger": false,
      "metar": "METAR LPPT 211930Z 35005KT CAVOK 16/09 Q1028",
      "taf": "TAF LPPT 211700Z 2118/2224 02007KT CAVOK"
    },
    {
      "icao": "LQBK",
      "alert": "OK",
      "vis_m": 9999,
      "fzfg": false,
      "metar_trigger": false,
      "taf_trigger": false,
      "metar": "METAR LQBK 211930Z 26002KT 9999 BKN030 03/01 Q1026 NOSIG",
      "taf": "TAF LQBK 211700Z 2118/2218 19005KT 9999 SCT040 TX12/2213Z TNM00/2205Z"
    },
    {
      "icao": "LQSA",
      "alert": "OK",
      "vis_m": 9999,
      "fzfg": false,
      "metar_trigger": false,
      "taf_trigger": false,
      "metar": "METAR LQSA 211930Z 31007KT 9999 -DZ FEW015 BKN030 01/01 Q1023 NOSIG",
      "taf": "TAF LQSA 211700Z 2118/2218 33005KT 9999 BKN030 TX09/2214Z TNM01/2204Z"
    },
    {
      "icao": "LQTZ",
      "alert": "OK",
      "vis_m": 4000,
      "fzfg": false,
      "metar_trigger": false,
      "taf_trigger": false,
      "metar": "METAR LQTZ 211930Z 31003KT 4000 -SN BR FEW007 BKN012 OVC030 01/01 Q1025",
      "taf": "TAF LQTZ 211700Z 2118/2218 30005KT 9999 SCT020 BKN035 TX12/2213Z TNM01/2206Z"
    },
    {
      "icao": "LRBC",
      "alert": "OK",
      "vis_m": 9999,
      "fzfg": false,
      "metar_trigger": false,
      "taf_trigger": false,
      "metar": "METAR LRBC 211930Z 16004KT 9999 -SN OVC022 M02/M03 Q1024",
      "taf": "TAF LRBC 211700Z 2118/2203 VRB04KT 7000 BKN040"
    },
    {
      "icao": "LRBS",
      "alert": "OK",
      "vis_m": 2000,
      "fzfg": false,
      "metar_trigger": false,
      "taf_trigger": false,
      "metar": "METAR LRBS 211930Z VRB02KT 2000 -SN BR BKN007 SCT017 OVC030 M02/M03 Q1024 NOSIG",
      "taf": "TAF LRBS 211700Z 2118/2218 06010KT 3000 -SN BR BKN015 OVC030"
    },
    {
      "icao": "LRBV",
      "alert": "OK",
      "vis_m": 4000,
      "fzfg": false,
      "metar_trigger": false,
      "taf_trigger": false,
      "metar": "METAR LRBV 211930Z 25003KT 4000 +SG FEW016 BKN030 OVC040 M03/M04 Q1021",
      "taf": "TAF LRBV 211700Z 2118/2203 VRB04KT 9999 BKN030"
    },
    {
      "icao": "LRCL",
      "alert": "OK",
      "vis_m": 9999,
      "fzfg": false,
      "metar_trigger": false,
      "taf_trigger": false,
      "metar": "METAR LRCL 211930Z 00000KT 9999 -SN OVC028 00/M01 Q1023",
      "taf": "TAF LRCL 211700Z 2118/2203 VRB04KT 9999 OVC035"
    },
    {
      "icao": "LRCV",
      "alert": "OK",
      "vis_m": 9999,
      "fzfg": false,
      "metar_trigger": false,
      "taf_trigger": false,
      "metar": "METAR LRCV 211930Z 26007KT 9999 SCT005 OVC021 M02/M03 Q1024",
      "taf": "TAF LRCV 211700Z 2118/2203 VRB04KT 9999 OVC030"
    },
    {
      "icao": "LRIA",
      "alert": "OK",
      "vis_m": 9999,
      "fzfg": false,
      "metar_trigger": false,
      "taf_trigger": false,
      "metar": "METAR LRIA 211930Z 11006KT 9999 OVC049 M01/M05 Q1024",
      "taf": "TAF LRIA 211700Z 2118/2203 08005KT CAVOK"
    },
    {
      "icao": "LROP",
      "alert": "OK",
      "vis_m": 1500,
      "fzfg": false,
      "metar_trigger": false,
      "taf_trigger": false,
      "metar": "METAR LROP 211930Z 01005KT 1500 -SN BR OVC006 M01/M01 Q1024 NOSIG",
      "taf": "TAF LROP 211700Z 2118/2218 06010KT 3000 -SN BR BKN015 OVC030"
    },
    {
      "icao": "LRSB",
      "alert": "OK",
      "vis_m": 1600,
      "fzfg": false,
      "metar_trigger": false,
      "taf_trigger": false,
      "metar": "METAR LRSB 211930Z 17001KT 1600 -SN BR FEW010 BKN014 OVC021 M00/M01 Q1022",
      "taf": "TAF LRSB 211700Z 2118/2218 VRB04KT 3000 -SN BR BKN010 OVC030"
    },
    {
      "icao": "LRSM",
      "alert": "OK",
      "vis_m": 9999,
      "fzfg": false,
      "metar_trigger": false,
      "taf_trigger": false,
      "metar": "METAR LRSM 211930Z AUTO 24004KT 9999 DZ FEW006/// SCT008/// BKN010/// 03/01 Q1023",
      "taf": ""
    },
    {
      "icao": "LRSV",
      "alert": "OK",
      "vis_m": 9999,
      "fzfg": false,
      "metar_trigger": false,
      "taf_trigger": false,
      "metar": "METAR LRSV 211930Z 15008KT 9999 BKN035 M03/M06 Q1020",
      "taf": "TAF LRSV 211700Z 2118/2203 13008KT 9999 SCT040"
    },
    {
      "icao": "LRTM",
      "alert": "OK",
      "vis_m": 5000,
      "fzfg": false,
      "metar_trigger": false,
      "taf_trigger": false,
      "metar": "METAR LRTM 211930Z AUTO 24004KT 5000 -SN FEW024/// 00/M00 Q1023",
      "taf": "TAF LRTM 211400Z 2115/2124 VRB04KT 9999 SCT020 BKN030"
    },
    {
      "icao": "LRTR",
      "alert": "OK",
      "vis_m": 7000,
      "fzfg": false,
      "metar_trigger": false,
      "taf_trigger": false,
      "metar": "METAR LRTR 211930Z 23004KT 190V250 7000 BKN009 BKN017 03/02 Q1024",
      "taf": "TAF LRTR 211700Z 2118/2218 VRB04KT 9999 BKN025"
    },
    {
      "icao": "LTAC",
      "alert": "OK",
      "vis_m": 9999,
      "fzfg": false,
      "metar_trigger": false,
      "taf_trigger": false,
      "metar": "METAR LTAC 211920Z 36003KT 320V040 9999 SCT040 BKN100 05/02 Q1012 NOSIG RMK RWY21C 01004KT RWY03L VRB02KT RWY21R 01004KT RWY03R 00000KT RWY21L 34003KT",
      "taf": "TAF LTAC 211640Z 2118/2218 VRB02KT 9999 SCT040 BKN100"
    },
    {
      "icao": "LTFM",
      "alert": "OK",
      "vis_m": 9999,
      "fzfg": false,
      "metar_trigger": false,
      "taf_trigger": false,
      "metar": "METAR LTFM 211920Z 01015KT 9999 BKN009 BKN020 08/07 Q1014 NOSIG RMK RWY17L 01014KT RWY34L 01016KT RWY16R 01014KT RWY36 01016KT RWY18 02014KT",
      "taf": "TAF LTFM 211640Z 2118/2224 01018KT 9999 BKN008 BKN020"
    },
    {
      "icao": "LUKK",
      "alert": "OK",
      "vis_m": 9999,
      "fzfg": false,
      "metar_trigger": false,
      "taf_trigger": false,
      "metar": "METAR LUKK 211930Z 06005KT 020V130 CAVOK M02/M06 Q1024 NOSIG",
      "taf": "TAF LUKK 211728Z 2118/2218 VRB05KT 9999 BKN040"
    },
    {
      "icao": "LWOH",
      "alert": "OK",
      "vis_m": 9999,
      "fzfg": false,
      "metar_trigger": false,
      "taf_trigger": false,
      "metar": "METAR LWOH 211950Z 32008KT 290V350 9999 SCT050 04/M01 Q1017",
      "taf": "TAF LWOH 211710Z 2118/2218 34010KT 9999 BKN050"
    },
    {
      "icao": "LWSK",
      "alert": "OK",
      "vis_m": 9999,
      "fzfg": false,
      "metar_trigger": false,
      "taf_trigger": false,
      "metar": "METAR LWSK 211950Z 02012KT 9999 SCT030 BKN070 02/M01 Q1022 NOSIG",
      "taf": "TAF LWSK 211710Z 2118/2218 01016KT 9999 FEW035 SCT070"
    },
    {
      "icao": "LYBE",
      "alert": "OK",
      "vis_m": 9999,
      "fzfg": false,
      "metar_trigger": false,
      "taf_trigger": false,
      "metar": "METAR LYBE 211930Z 24005KT 9999 SCT013 BKN020 02/00 Q1025 TEMPO 3000 -SNRA BKN005",
      "taf": "TAF LYBE 211700Z 2118/2218 28008KT 9999 BKN014 BKN027 TX09/2213Z TN00/2204Z"
    },
    {
      "icao": "LYNI",
      "alert": "OK",
      "vis_m": 9999,
      "fzfg": false,
      "metar_trigger": false,
      "taf_trigger": false,
      "metar": "METAR LYNI 211930Z 12003KT 9999 -SN SCT017 BKN033 OVC080 M00/M02 Q1024 NOSIG",
      "taf": "TAF LYNI 211700Z 2118/2218 35006KT 9999 SCT015 BKN040 TX05/2212Z TN00/2205Z"
    },
    {
      "icao": "LYPG",
      "alert": "OK",
      "vis_m": 9999,
      "fzfg": false,
      "metar_trigger": false,
      "taf_trigger": false,
      "metar": "METAR LYPG 211930Z 35014KT 9999 FEW090 10/M01 Q1019 NOSIG",
      "taf": "TAF LYPG 211700Z 2118/2218 02015KT 9999 SCT080 TX16/2213Z TN07/2205Z"
    },
    {
      "icao": "LZIB",
      "alert": "OK",
      "vis_m": 5000,
      "fzfg": false,
      "metar_trigger": false,
      "taf_trigger": false,
      "metar": "METAR LZIB 211930Z VRB01KT 5000 BR FEW010 01/00 Q1024 NOSIG",
      "taf": "TAF LZIB 211715Z 2118/2218 30004KT 6000 FEW010 SCT040"
    },
    {
      "icao": "LZKZ",
      "alert": "OK",
      "vis_m": 9999,
      "fzfg": false,
      "metar_trigger": false,
      "taf_trigger": false,
      "metar": "METAR LZKZ 211930Z 31003KT CAVOK 00/M02 Q1022 NOSIG",
      "taf": ""
    },
    {
      "icao": "LZTT",
      "alert": "OK",
      "vis_m": 9999,
      "fzfg": false,
      "metar_trigger": false,
      "taf_trigger": false,
      "metar": "METAR LZTT 211930Z 27010KT 9999 FEW018 SCT063 01/M01 Q1019",
      "taf": "TAF LZTT 211715Z 2118/2218 22004KT 9999 FEW020 BKN050"
    },
    {
      "icao": "OEJN",
      "alert": "OK",
      "vis_m": 9999,
      "fzfg": false,
      "metar_trigger": false,
      "taf_trigger": false,
      "metar": "METAR OEJN 211900Z 36003KT CAVOK 26/19 Q1011 NOSIG",
      "taf": "TAF OEJN 211700Z 2118/2224 VRB03KT 7000 NSC"
    },
    {
      "icao": "OEMA",
      "alert": "OK",
      "vis_m": 9999,
      "fzfg": false,
      "metar_trigger": false,
      "taf_trigger": false,
      "metar": "METAR OEMA 211900Z 09012KT CAVOK 27/M10 Q1016 NOSIG",
      "taf": "TAF OEMA 211700Z 2118/2224 10008KT CAVOK"
    },
    {
      "icao": "OJAI",
      "alert": "OK",
      "vis_m": 5000,
      "fzfg": false,
      "metar_trigger": false,
      "taf_trigger": false,
      "metar": "METAR OJAI 211900Z 30010KT 5000 HZ NSC 12/08 Q1017 NOSIG",
      "taf": "TAF OJAI 211700Z 2118/2224 27012KT 5000 HZ FEW035"
    },
    {
      "icao": "OMAA",
      "alert": "OK",
      "vis_m": 9999,
      "fzfg": false,
      "metar_trigger": false,
      "taf_trigger": false,
      "metar": "METAR OMAA 211930Z 31007KT CAVOK 23/18 Q1014 NOSIG",
      "taf": "TAF OMAA 211700Z 2118/2300 34008KT 8000 NSC"
    },
    {
      "icao": "OMDB",
      "alert": "OK",
      "vis_m": 9999,
      "fzfg": false,
      "metar_trigger": false,
      "taf_trigger": false,
      "metar": "METAR OMDB 211930Z 30007KT 280V350 CAVOK 24/18 Q1013 NOSIG",
      "taf": "TAF OMDB 211700Z 2118/2300 18005KT 8000 NSC"
    },
    {
      "icao": "UAAA",
      "alert": "OK",
      "vis_m": 9999,
      "fzfg": false,
      "metar_trigger": false,
      "taf_trigger": false,
      "metar": "METAR UAAA 211930Z 35002MPS 9999 SCT020 BKN100 00/M03 Q1028 NOSIG",
      "taf": "TAF UAAA 211702Z 2118/2218 21003MPS 3100 BR FU SCT011 BKN100 TX08/2209Z TNM03/2201Z"
    },
    {
      "icao": "UBBB",
      "alert": "OK",
      "vis_m": 9999,
      "fzfg": false,
      "metar_trigger": false,
      "taf_trigger": false,
      "metar": "METAR UBBB 211930Z 32016KT 9999 BKN026 07/05 Q1021 NOSIG",
      "taf": "TAF UBBB 211700Z 2118/2218 32020G30KT 9999 SCT012 BKN025 TX08/2210Z TN04/2201Z"
    },
    {
      "icao": "UDSG",
      "alert": "OK",
      "vis_m": 6000,
      "fzfg": false,
      "metar_trigger": false,
      "taf_trigger": false,
      "metar": "METAR UDSG 211930Z 10003KT 6000 NSC M03/M04 Q1021 NOSIG",
      "taf": "TAF UDSG 211700Z 2118/2218 VRB06KT 9999 FEW040"
    },
    {
      "icao": "UDYZ",
      "alert": "OK",
      "vis_m": 9999,
      "fzfg": false,
      "metar_trigger": false,
      "taf_trigger": false,
      "metar": "METAR UDYZ 211930Z 03006KT 9999 NSC 05/M02 Q1019 NOSIG",
      "taf": "TAF UDYZ 211700Z 2118/2218 VRB04KT 6000 FEW040"
    },
    {
      "icao": "UGKO",
      "alert": "OK",
      "vis_m": 9999,
      "fzfg": false,
      "metar_trigger": false,
      "taf_trigger": false,
      "metar": "METAR UGKO 211930Z 08013KT CAVOK 15/M04 Q1010 NOSIG",
      "taf": "TAF UGKO 211700Z 2118/2218 08017KT CAVOK TX18/2212Z TN10/2120Z"
    }
  ]
}