{
  "ts_utc": "2026-01-05T18:51:53Z",
  "threshold_m": 150,
  "source": "stations_override.txt (ICAO list) + aviationweather.gov (METAR/TAF raw)",
  "station_count": 159,
  "stations": [
    {
      "icao": "BIKF",
      "alert": "OK",
      "vis_m": 9999,
      "fzfg": false,
      "metar_trigger": false,
      "taf_trigger": false,
      "metar": "METAR BIKF 051830Z 03012KT 9999 FEW016 SCT220 M01/M04 Q1015",
      "taf": "TAF BIKF 051612Z 0518/0618 03010KT CAVOK TXM02/0518Z TNM06/0610Z"
    },
    {
      "icao": "BKPR",
      "alert": "OK",
      "vis_m": 9999,
      "fzfg": false,
      "metar_trigger": false,
      "taf_trigger": false,
      "metar": "METAR BKPR 051830Z 17010KT 9999 BKN060 09/07 Q1008 NOSIG",
      "taf": "TAF BKPR 051730Z 0518/0618 18008KT 9999 SCT020 BKN040"
    },
    {
      "icao": "EBCI",
      "alert": "OK",
      "vis_m": 9999,
      "fzfg": false,
      "metar_trigger": false,
      "taf_trigger": false,
      "metar": "METAR EBCI 051820Z 21009KT 9999 FEW006 BKN018 M03/M04 Q1012 NOSIG",
      "taf": "TAF EBCI 051715Z 0518/0624 23007KT 9999 SCT007 BKN011"
    },
    {
      "icao": "EDDB",
      "alert": "OK",
      "vis_m": 9999,
      "fzfg": false,
      "metar_trigger": false,
      "taf_trigger": false,
      "metar": "METAR EDDB 051820Z AUTO 18004KT 9999 FEW039 M04/M06 Q1013 NOSIG",
      "taf": "TAF EDDB 051700Z 0518/0618 17004KT 9999 SCT045"
    },
    {
      "icao": "EDDH",
      "alert": "OK",
      "vis_m": 4500,
      "fzfg": false,
      "metar_trigger": false,
      "taf_trigger": false,
      "metar": "METAR EDDH 051820Z AUTO 21005KT 170V230 4500 -SHSN BR BKN014 BKN020 BKN025 FEW///TCU M01/M02 Q1010 TEMPO 1000 SHSN BKN008CB",
      "taf": "TAF EDDH 051700Z 0518/0624 21004KT 9999 BKN015"
    },
    {
      "icao": "EDDK",
      "alert": "OK",
      "vis_m": 9999,
      "fzfg": false,
      "metar_trigger": false,
      "taf_trigger": false,
      "metar": "METAR EDDK 051820Z AUTO 17005KT 9999 FEW005 OVC015 M02/M03 Q1012 TEMPO BKN005",
      "taf": "TAF EDDK 051700Z 0518/0624 16007KT 9999 FEW008 BKN020"
    },
    {
      "icao": "EDDN",
      "alert": "OK",
      "vis_m": 9999,
      "fzfg": false,
      "metar_trigger": false,
      "taf_trigger": false,
      "metar": "METAR EDDN 051820Z AUTO 11003KT CAVOK M07/M09 Q1013 NOSIG",
      "taf": "TAF EDDN 051700Z 0518/0618 VRB02KT 9999 SCT030"
    },
    {
      "icao": "EDDS",
      "alert": "OK",
      "vis_m": 9999,
      "fzfg": false,
      "metar_trigger": false,
      "taf_trigger": false,
      "metar": "METAR EDDS 051820Z AUTO VRB02KT CAVOK M07/M11 Q1012 NOSIG",
      "taf": "TAF EDDS 051700Z 0518/0618 VRB03KT CAVOK"
    },
    {
      "icao": "EDFH",
      "alert": "OK",
      "vis_m": 9999,
      "fzfg": false,
      "metar_trigger": false,
      "taf_trigger": false,
      "metar": "METAR EDFH 051820Z 22005KT 190V250 9999 OVC007 M04/M06 Q1010",
      "taf": "TAF EDFH 051700Z 0518/0618 20006KT 9999 OVC010"
    },
    {
      "icao": "EDJA",
      "alert": "OK",
      "vis_m": 9999,
      "fzfg": false,
      "metar_trigger": false,
      "taf_trigger": false,
      "metar": "METAR EDJA 051820Z 16005KT CAVOK M11/M13 Q1012",
      "taf": "TAF EDJA 051700Z 0518/0603 22004KT CAVOK"
    },
    {
      "icao": "EDLW",
      "alert": "OK",
      "vis_m": 6000,
      "fzfg": false,
      "metar_trigger": false,
      "taf_trigger": false,
      "metar": "METAR EDLW 051820Z 19011KT 6000 -SN SCT021 BKN024 OVC029 M02/M04 Q1010",
      "taf": "TAF EDLW 051700Z 0518/0618 22008KT 9999 BKN020"
    },
    {
      "icao": "EDNY",
      "alert": "OK",
      "vis_m": 9999,
      "fzfg": false,
      "metar_trigger": false,
      "taf_trigger": false,
      "metar": "METAR EDNY 051820Z 07003KT CAVOK M10/M12 Q1013",
      "taf": "TAF EDNY 051700Z 0518/0603 VRB03KT CAVOK"
    },
    {
      "icao": "EDSB",
      "alert": "OK",
      "vis_m": 9000,
      "fzfg": false,
      "metar_trigger": false,
      "taf_trigger": false,
      "metar": "METAR EDSB 051820Z 11003KT 9000 NSC M07/M08 Q1014",
      "taf": "TAF EDSB 051700Z 0518/0618 VRB03KT CAVOK"
    },
    {
      "icao": "EETN",
      "alert": "OK",
      "vis_m": 9999,
      "fzfg": false,
      "metar_trigger": false,
      "taf_trigger": false,
      "metar": "METAR EETN 051850Z VRB02KT CAVOK M14/M16 Q1019 NOSIG",
      "taf": "TAF EETN 051730Z 0518/0618 VRB02KT CAVOK"
    },
    {
      "icao": "EFTU",
      "alert": "OK",
      "vis_m": 9999,
      "fzfg": false,
      "metar_trigger": false,
      "taf_trigger": false,
      "metar": "METAR EFTU 051820Z AUTO 10002KT CAVOK M20/M22 Q1017",
      "taf": "TAF EFTU 051723Z 0518/0618 VRB02KT CAVOK"
    },
    {
      "icao": "EGBB",
      "alert": "OK",
      "vis_m": 9999,
      "fzfg": false,
      "metar_trigger": false,
      "taf_trigger": false,
      "metar": "METAR EGBB 051820Z 32005KT CAVOK M02/M05 Q1017",
      "taf": "TAF EGBB 051656Z 0518/0618 30005KT 9999 FEW025"
    },
    {
      "icao": "EGGP",
      "alert": "OK",
      "vis_m": 9999,
      "fzfg": false,
      "metar_trigger": false,
      "taf_trigger": false,
      "metar": "METAR EGGP 051820Z 32004KT CAVOK M00/M04 Q1017",
      "taf": "TAF EGGP 051654Z 0518/0618 31005KT 9999 FEW030"
    },
    {
      "icao": "EGGW",
      "alert": "OK",
      "vis_m": 9999,
      "fzfg": false,
      "metar_trigger": false,
      "taf_trigger": false,
      "metar": "METAR EGGW 051820Z AUTO 31011KT 9999 NCD M02/M05 Q1015",
      "taf": "TAF EGGW 051658Z 0518/0618 31009KT 9999 FEW030"
    },
    {
      "icao": "EGKK",
      "alert": "OK",
      "vis_m": 9999,
      "fzfg": false,
      "metar_trigger": false,
      "taf_trigger": false,
      "metar": "METAR EGKK 051820Z 30004KT 260V340 CAVOK M01/M05 Q1015",
      "taf": "TAF EGKK 051653Z 0518/0624 30006KT 9999 FEW035"
    },
    {
      "icao": "EGNM",
      "alert": "OK",
      "vis_m": 9999,
      "fzfg": false,
      "metar_trigger": false,
      "taf_trigger": false,
      "metar": "METAR EGNM 051820Z 27009KT CAVOK M03/M06 Q1015",
      "taf": "TAF EGNM 051659Z 0518/0618 27009KT 9999 FEW020"
    },
    {
      "icao": "EGPD",
      "alert": "OK",
      "vis_m": 9999,
      "fzfg": false,
      "metar_trigger": false,
      "taf_trigger": false,
      "metar": "METAR EGPD 051820Z COR AUTO 27007KT 9999 NCD M03/M04 Q1014 NOSIG",
      "taf": "TAF EGPD 051653Z 0518/0618 29010KT 9999 FEW012"
    },
    {
      "icao": "EGPF",
      "alert": "OK",
      "vis_m": 9999,
      "fzfg": false,
      "metar_trigger": false,
      "taf_trigger": false,
      "metar": "METAR EGPF 051820Z AUTO 22005KT 9999 NCD M02/M06 Q1017",
      "taf": "TAF EGPF 051655Z 0518/0618 28005KT CAVOK"
    },
    {
      "icao": "EHBK",
      "alert": "OK",
      "vis_m": 9999,
      "fzfg": false,
      "metar_trigger": false,
      "taf_trigger": false,
      "metar": "METAR EHBK 051825Z AUTO 22012KT 9999 FEW014 OVC016 M02/M03 Q1011 NOSIG",
      "taf": "TAF EHBK 051721Z 0518/0624 22007KT 9999 BKN008"
    },
    {
      "icao": "EHEH",
      "alert": "OK",
      "vis_m": 8000,
      "fzfg": false,
      "metar_trigger": false,
      "taf_trigger": false,
      "metar": "METAR EHEH 051825Z AUTO 20008KT 8000 BR FEW007 SCT008 BKN009 M01/M03 Q1011 GRN NOSIG RMK TREND REMOTE BY EHWX",
      "taf": ""
    },
    {
      "icao": "EKBI",
      "alert": "OK",
      "vis_m": 9999,
      "fzfg": false,
      "metar_trigger": false,
      "taf_trigger": false,
      "metar": "METAR EKBI 051820Z AUTO 01001KT 9999 FEW005/// OVC018/// M02/M03 Q1009",
      "taf": ""
    },
    {
      "icao": "EKCH",
      "alert": "OK",
      "vis_m": 8000,
      "fzfg": false,
      "metar_trigger": false,
      "taf_trigger": false,
      "metar": "METAR EKCH 051820Z 19001KT 8000 -SHSN OVC020 M01/M02 Q1010 TEMPO 1200 SHSN BKN010 SCT020CB",
      "taf": "TAF EKCH 051727Z 0518/0618 23006KT 9999 SCT030"
    },
    {
      "icao": "ENAL",
      "alert": "OK",
      "vis_m": 9999,
      "fzfg": false,
      "metar_trigger": false,
      "taf_trigger": false,
      "metar": "METAR ENAL 051820Z 14012KT 9999 FEW030 M04/M11 Q1011",
      "taf": "TAF ENAL 051700Z 0518/0603 14012KT 9999 SCT035"
    },
    {
      "icao": "ENBR",
      "alert": "OK",
      "vis_m": 9999,
      "fzfg": false,
      "metar_trigger": false,
      "taf_trigger": false,
      "metar": "METAR ENBR 051820Z 08003KT 9999 SCT050 M07/M13 Q1010 NOSIG RMK WIND 1200FT 10008KT",
      "taf": "TAF ENBR 051700Z 0518/0618 07005KT 9999 SCT050"
    },
    {
      "icao": "ENGM",
      "alert": "OK",
      "vis_m": 9999,
      "fzfg": false,
      "metar_trigger": false,
      "taf_trigger": false,
      "metar": "METAR ENGM 051820Z 01004KT 9999 -SN FEW020 M09/M11 Q1013 NOSIG",
      "taf": "TAF ENGM 051700Z 0518/0618 02005KT 8000 -SN SCT020 BKN040"
    },
    {
      "icao": "ENHD",
      "alert": "OK",
      "vis_m": 800,
      "fzfg": false,
      "metar_trigger": false,
      "taf_trigger": false,
      "metar": "METAR ENHD 051820Z 10012KT 0800 R13/1800N R31/P2000N SN VV008 M03/M04 Q1009",
      "taf": "TAF ENHD 051400Z 0515/0523 11015KT 9999 -SHSN FEW015CB BKN025"
    },
    {
      "icao": "ENTC",
      "alert": "OK",
      "vis_m": 9999,
      "fzfg": false,
      "metar_trigger": false,
      "taf_trigger": false,
      "metar": "METAR ENTC 051820Z 27008KT CAVOK M08/M12 Q1012 NOSIG RMK WIND 2600FT 10007KT",
      "taf": "TAF ENTC 051700Z 0518/0618 23005KT CAVOK"
    },
    {
      "icao": "ENTO",
      "alert": "OK",
      "vis_m": 9999,
      "fzfg": false,
      "metar_trigger": false,
      "taf_trigger": false,
      "metar": "METAR ENTO 051820Z 36009KT 9999 -SN OVC013 M08/M09 Q1012 TEMPO SCT013 BKN018",
      "taf": "TAF ENTO 051700Z 0518/0618 36010KT 9999 SCT012 BKN020"
    },
    {
      "icao": "ENVA",
      "alert": "OK",
      "vis_m": 9999,
      "fzfg": false,
      "metar_trigger": false,
      "taf_trigger": false,
      "metar": "METAR ENVA 051820Z 08006KT CAVOK M16/M18 Q1014 NOSIG RMK WIND 670FT 12006KT",
      "taf": "TAF ENVA 051700Z 0518/0618 10007KT CAVOK"
    },
    {
      "icao": "ENZV",
      "alert": "OK",
      "vis_m": 3400,
      "fzfg": false,
      "metar_trigger": false,
      "taf_trigger": false,
      "metar": "METAR ENZV 051820Z 13013KT 3400 -SHSN OVC027 M04/M05 Q1009 TEMPO 1500 SHSN VV014",
      "taf": ""
    },
    {
      "icao": "EPGD",
      "alert": "OK",
      "vis_m": 6000,
      "fzfg": false,
      "metar_trigger": false,
      "taf_trigger": false,
      "metar": "METAR EPGD 051830Z COR 19003KT 160V230 6000 -SN BKN004 M03/M03 Q1013",
      "taf": "TAF EPGD 051730Z 0518/0618 19006KT 9999 BKN030"
    },
    {
      "icao": "EPKK",
      "alert": "OK",
      "vis_m": 9999,
      "fzfg": false,
      "metar_trigger": false,
      "taf_trigger": false,
      "metar": "METAR EPKK 051830Z 05004KT CAVOK M03/M07 Q1012",
      "taf": "TAF EPKK 051730Z 0518/0618 06006KT CAVOK"
    },
    {
      "icao": "EPKT",
      "alert": "OK",
      "vis_m": 9999,
      "fzfg": false,
      "metar_trigger": false,
      "taf_trigger": false,
      "metar": "METAR EPKT 051830Z 05004KT CAVOK M03/M08 Q1012",
      "taf": "TAF EPKT 051730Z 0518/0618 VRB02KT CAVOK"
    },
    {
      "icao": "EPLB",
      "alert": "OK",
      "vis_m": 9999,
      "fzfg": false,
      "metar_trigger": false,
      "taf_trigger": false,
      "metar": "METAR EPLB 051830Z 06006KT CAVOK M06/M08 Q1014",
      "taf": "TAF EPLB 051730Z 0518/0618 09005KT CAVOK"
    },
    {
      "icao": "EPMO",
      "alert": "OK",
      "vis_m": 3300,
      "fzfg": false,
      "metar_trigger": false,
      "taf_trigger": false,
      "metar": "METAR EPMO 051830Z 09003KT 070V130 3300 BR NSC M09/M09 Q1015",
      "taf": "TAF EPMO 051730Z 0518/0618 09004KT 4000 BR NSC"
    },
    {
      "icao": "EPPO",
      "alert": "OK",
      "vis_m": 7000,
      "fzfg": false,
      "metar_trigger": false,
      "taf_trigger": false,
      "metar": "METAR EPPO 051830Z 10002KT 7000 BKN034 M06/M08 Q1013",
      "taf": "TAF EPPO 051730Z 0518/0618 16004KT CAVOK"
    },
    {
      "icao": "EPRA",
      "alert": "OK",
      "vis_m": 9999,
      "fzfg": false,
      "metar_trigger": false,
      "taf_trigger": false,
      "metar": "METAR EPRA 051830Z 06005KT CAVOK M06/M09 Q1014",
      "taf": "TAF EPRA 051730Z 0518/0603 04006KT CAVOK"
    },
    {
      "icao": "EPRZ",
      "alert": "OK",
      "vis_m": 9999,
      "fzfg": false,
      "metar_trigger": false,
      "taf_trigger": false,
      "metar": "METAR EPRZ 051830Z 08007KT CAVOK M03/M07 Q1012",
      "taf": "TAF EPRZ 051730Z 0518/0618 06008KT CAVOK"
    },
    {
      "icao": "EPSC",
      "alert": "OK",
      "vis_m": 9999,
      "fzfg": false,
      "metar_trigger": false,
      "taf_trigger": false,
      "metar": "METAR EPSC 051830Z 15006KT CAVOK M02/M05 Q1012",
      "taf": "TAF EPSC 051730Z 0518/0618 16006KT 9999 BKN040"
    },
    {
      "icao": "EPSY",
      "alert": "OK",
      "vis_m": 3800,
      "fzfg": false,
      "metar_trigger": false,
      "taf_trigger": false,
      "metar": "METAR EPSY 051830Z VRB02KT 3800 BR FEW044 M07/M07 Q1015",
      "taf": "TAF EPSY 051730Z 0518/0603 VRB02KT 6000 BKN040"
    },
    {
      "icao": "EPWA",
      "alert": "OK",
      "vis_m": 9999,
      "fzfg": false,
      "metar_trigger": false,
      "taf_trigger": false,
      "metar": "METAR EPWA 051830Z 10002KT CAVOK M08/M10 Q1015 NOSIG",
      "taf": "TAF EPWA 051730Z 0518/0618 10004KT CAVOK"
    },
    {
      "icao": "EPWR",
      "alert": "OK",
      "vis_m": 9999,
      "fzfg": false,
      "metar_trigger": false,
      "taf_trigger": false,
      "metar": "METAR EPWR 051830Z 10002KT CAVOK M04/M07 Q1013",
      "taf": "TAF EPWR 051730Z 0518/0618 14005KT CAVOK"
    },
    {
      "icao": "ESGG",
      "alert": "OK",
      "vis_m": 9999,
      "fzfg": false,
      "metar_trigger": false,
      "taf_trigger": false,
      "metar": "METAR ESGG 051820Z VRB03KT 9999 BKN046 M07/M08 Q1010",
      "taf": "TAF ESGG 051730Z 0518/0618 10004KT 9999 SCT040"
    },
    {
      "icao": "ESKN",
      "alert": "OK",
      "vis_m": 8000,
      "fzfg": false,
      "metar_trigger": false,
      "taf_trigger": false,
      "metar": "METAR ESKN 051820Z 04007KT 8000 -SN FEW013 BKN037 M04/M06 Q1012",
      "taf": "TAF ESKN 051730Z 0518/0618 06008KT 9999 BKN030"
    },
    {
      "icao": "ESMS",
      "alert": "OK",
      "vis_m": 4500,
      "fzfg": false,
      "metar_trigger": false,
      "taf_trigger": false,
      "metar": "METAR ESMS 051820Z 16001KT 4500 -SN OVC003 M02/M02 Q1009",
      "taf": ""
    },
    {
      "icao": "ESSA",
      "alert": "OK",
      "vis_m": 9999,
      "fzfg": false,
      "metar_trigger": false,
      "taf_trigger": false,
      "metar": "METAR ESSA 051820Z 07005KT 9999 SCT036 M11/M12 Q1015 NOSIG",
      "taf": "TAF ESSA 051730Z 0518/0618 04005KT 9999 BKN035"
    },
    {
      "icao": "EYKA",
      "alert": "OK",
      "vis_m": 9999,
      "fzfg": false,
      "metar_trigger": false,
      "taf_trigger": false,
      "metar": "METAR EYKA 051850Z 21005KT 150V250 9999 OVC019 M03/M06 Q1017",
      "taf": "TAF EYKA 051712Z 0518/0618 VRB04KT 5000 BR BKN015"
    },
    {
      "icao": "EYPA",
      "alert": "OK",
      "vis_m": 9999,
      "fzfg": false,
      "metar_trigger": false,
      "taf_trigger": false,
      "metar": "METAR EYPA 051850Z 11006KT 9999 OVC010 M03/M04 Q1014",
      "taf": "TAF EYPA 051729Z 0518/0618 VRB05KT 5000 BR SCT010 BKN015"
    },
    {
      "icao": "EYVI",
      "alert": "OK",
      "vis_m": 9999,
      "fzfg": false,
      "metar_trigger": false,
      "taf_trigger": false,
      "metar": "METAR EYVI 051820Z 18006KT 9999 -SN FEW009 BKN020 M04/M05 Q1017 NOSIG",
      "taf": "TAF EYVI 051706Z 0518/0618 19010KT 5000 BR SCT010 BKN015"
    },
    {
      "icao": "GCFV",
      "alert": "OK",
      "vis_m": 9999,
      "fzfg": false,
      "metar_trigger": false,
      "taf_trigger": false,
      "metar": "METAR GCFV 051830Z 35015KT 9999 FEW018 SCT035 18/13 Q1016 RERA",
      "taf": "TAF GCFV 051400Z 0515/0615 02014KT 9999 SCT030 TX21/0614Z TN15/0606Z"
    },
    {
      "icao": "GCLP",
      "alert": "OK",
      "vis_m": 9999,
      "fzfg": false,
      "metar_trigger": false,
      "taf_trigger": false,
      "metar": "METAR GCLP 051830Z 02020KT 9999 4500SE -RA FEW020 SCT025 BKN045 17/15 Q1017 NOSIG",
      "taf": "TAF GCLP 051400Z 0515/0615 35007KT 9999 SCT030 TX20/0614Z TN15/0606Z"
    },
    {
      "icao": "GCTS",
      "alert": "OK",
      "vis_m": 9999,
      "fzfg": false,
      "metar_trigger": false,
      "taf_trigger": false,
      "metar": "METAR GCTS 051830Z 08016KT 9999 FEW020 SCT070 18/13 Q1017 NOSIG",
      "taf": "TAF GCTS 051400Z 0515/0615 VRB07KT 9999 SCT030 TX22/0614Z TN16/0606Z"
    },
    {
      "icao": "GMAD",
      "alert": "OK",
      "vis_m": 9999,
      "fzfg": false,
      "metar_trigger": false,
      "taf_trigger": false,
      "metar": "METAR GMAD 051730Z 26015KT 9999 SCT026TCU FEW030 17/15 Q1010 NOSIG",
      "taf": "TAF GMAD 051700Z 0518/0624 27010KT 8000 SCT023TCU SCT080"
    },
    {
      "icao": "GMMN",
      "alert": "OK",
      "vis_m": 9999,
      "fzfg": false,
      "metar_trigger": false,
      "taf_trigger": false,
      "metar": "METAR GMMN 051830Z 32010KT 9999 BKN023 13/09 Q1013 NOSIG",
      "taf": "TAF GMMN 051700Z 0518/0618 32012KT 9999 BKN020 SCT030TCU"
    },
    {
      "icao": "GMMX",
      "alert": "OK",
      "vis_m": 8000,
      "fzfg": false,
      "metar_trigger": false,
      "taf_trigger": false,
      "metar": "METAR GMMX 051830Z 36006KT 320V030 8000 -RA SCT010 BKN020 FEW030CB 12/11 Q1013 TEMPO 3000 SHRA",
      "taf": "TAF GMMX 051700Z 0518/0624 30008KT 8000 BKN023 SCT080"
    },
    {
      "icao": "HEGN",
      "alert": "OK",
      "vis_m": 9999,
      "fzfg": false,
      "metar_trigger": false,
      "taf_trigger": false,
      "metar": "METAR HEGN 051800Z 29004KT CAVOK 19/11 Q1019 NOSIG",
      "taf": "TAF HEGN 051700Z 0518/0624 34012KT CAVOK"
    },
    {
      "icao": "HEMA",
      "alert": "OK",
      "vis_m": 6000,
      "fzfg": false,
      "metar_trigger": false,
      "taf_trigger": false,
      "metar": "METAR HEMA 051800Z 29008KT 6000 NSC 20/16 Q1018 NOSIG",
      "taf": "TAF HEMA 051700Z 0518/0624 33013KT 6000 NSC"
    },
    {
      "icao": "HESH",
      "alert": "OK",
      "vis_m": 9999,
      "fzfg": false,
      "metar_trigger": false,
      "taf_trigger": false,
      "metar": "METAR HESH 051800Z 36004KT CAVOK 21/11 Q1018 NOSIG",
      "taf": "TAF HESH 051700Z 0518/0624 36010KT CAVOK"
    },
    {
      "icao": "HESX",
      "alert": "OK",
      "vis_m": 9999,
      "fzfg": false,
      "metar_trigger": false,
      "taf_trigger": false,
      "metar": "METAR HESX 051800Z 00000KT CAVOK 13/06 Q1020 NOSIG",
      "taf": "TAF HESX 051700Z 0518/0624 26006KT CAVOK"
    },
    {
      "icao": "LATI",
      "alert": "OK",
      "vis_m": 9999,
      "fzfg": false,
      "metar_trigger": false,
      "taf_trigger": false,
      "metar": "METAR LATI 051850Z 16011KT 9999 BKN060 OVC075 16/04 Q1007 NOSIG",
      "taf": "TAF LATI 051700Z 0518/0618 14012KT 9999 SCT040 BKN080 TX18/0612Z TN12/0605Z"
    },
    {
      "icao": "LBPD",
      "alert": "OK",
      "vis_m": 9999,
      "fzfg": false,
      "metar_trigger": false,
      "taf_trigger": false,
      "metar": "METAR LBPD 051830Z AUTO 25004KT 200V280 9999 OVC130/// 10/08 Q1012 NOSIG",
      "taf": "TAF LBPD 051700Z 0518/0618 VRB03KT 9999 SCT060"
    },
    {
      "icao": "LBSF",
      "alert": "OK",
      "vis_m": 9999,
      "fzfg": false,
      "metar_trigger": false,
      "taf_trigger": false,
      "metar": "METAR LBSF 051830Z AUTO 11010KT 9999 BKN062/// 09/06 Q1011 NOSIG",
      "taf": "TAF LBSF 051700Z 0518/0618 11010KT 9999 SCT040 BKN060"
    },
    {
      "icao": "LBWN",
      "alert": "OK",
      "vis_m": 9999,
      "fzfg": false,
      "metar_trigger": false,
      "taf_trigger": false,
      "metar": "METAR LBWN 051830Z AUTO 12006KT 9999 NSC 12/11 Q1014 NOSIG",
      "taf": "TAF LBWN 051700Z 0518/0618 VRB04KT 9999 BKN040"
    },
    {
      "icao": "LCLK",
      "alert": "OK",
      "vis_m": 9999,
      "fzfg": false,
      "metar_trigger": false,
      "taf_trigger": false,
      "metar": "METAR LCLK 051830Z 34009KT CAVOK 12/09 Q1021 NOSIG",
      "taf": "TAF LCLK 051730Z 0518/0618 34008KT CAVOK"
    },
    {
      "icao": "LCPH",
      "alert": "OK",
      "vis_m": 9999,
      "fzfg": false,
      "metar_trigger": false,
      "taf_trigger": false,
      "metar": "METAR LCPH 051830Z 06006KT 010V080 CAVOK 13/08 Q1021 NOSIG",
      "taf": "TAF LCPH 051730Z 0518/0618 08008KT 9999 FEW040"
    },
    {
      "icao": "LEAL",
      "alert": "OK",
      "vis_m": 9999,
      "fzfg": false,
      "metar_trigger": false,
      "taf_trigger": false,
      "metar": "METAR LEAL 051830Z 07012KT 9999 SCT021 OVC035 10/07 Q1008 NOSIG",
      "taf": "TAF LEAL 051700Z 0518/0618 VRB04KT 9999 SCT020 TX12/0614Z TN04/0606Z"
    },
    {
      "icao": "LEBB",
      "alert": "OK",
      "vis_m": 9999,
      "fzfg": false,
      "metar_trigger": false,
      "taf_trigger": false,
      "metar": "METAR LEBB 051830Z VRB01KT 9999 FEW070 04/M00 Q1016 NOSIG",
      "taf": "TAF LEBB 051700Z 0518/0618 13005KT 9999 FEW030 TX07/0618Z TNM00/0521Z"
    },
    {
      "icao": "LEBL",
      "alert": "OK",
      "vis_m": 9999,
      "fzfg": false,
      "metar_trigger": false,
      "taf_trigger": false,
      "metar": "METAR LEBL 051830Z 33012KT 300V010 9999 FEW025 04/M00 Q1009 NOSIG",
      "taf": "TAF LEBL 051700Z 0518/0618 33013KT 9999 FEW030 SCT040 TX11/0613Z TN01/0606Z"
    },
    {
      "icao": "LECH",
      "alert": "OK",
      "vis_m": 9000,
      "fzfg": false,
      "metar_trigger": false,
      "taf_trigger": false,
      "metar": "METAR LECH 051830Z AUTO 34003KT 9000 NSC 04/M05 Q1009",
      "taf": ""
    },
    {
      "icao": "LEMD",
      "alert": "OK",
      "vis_m": 9999,
      "fzfg": false,
      "metar_trigger": false,
      "taf_trigger": false,
      "metar": "METAR LEMD 051830Z 36011KT CAVOK 02/M06 Q1010 NOSIG",
      "taf": "TAF LEMD 051700Z 0518/0624 01010KT 9999 FEW040 TX06/0614Z TNM03/0607Z"
    },
    {
      "icao": "LEMG",
      "alert": "OK",
      "vis_m": 9999,
      "fzfg": false,
      "metar_trigger": false,
      "taf_trigger": false,
      "metar": "METAR LEMG 051830Z 28010KT 9999 FEW035TCU SCT060 12/10 Q1006 NOSIG",
      "taf": "TAF LEMG 051700Z 0518/0618 VRB04KT 9999 FEW050 TX12/0614Z TN04/0606Z"
    },
    {
      "icao": "LEVC",
      "alert": "OK",
      "vis_m": 9999,
      "fzfg": false,
      "metar_trigger": false,
      "taf_trigger": false,
      "metar": "METAR LEVC 051830Z 35003KT 300V040 9999 BKN051 07/03 Q1010 NOSIG",
      "taf": "TAF LEVC 051700Z 0518/0618 VRB04KT 9999 BKN015 TX12/0614Z TN00/0606Z"
    },
    {
      "icao": "LEXJ",
      "alert": "OK",
      "vis_m": 8000,
      "fzfg": false,
      "metar_trigger": false,
      "taf_trigger": false,
      "metar": "METAR LEXJ 051830Z 20005KT 140V260 8000 FEW055 OVC070 06/00 Q1016",
      "taf": ""
    },
    {
      "icao": "LEZG",
      "alert": "OK",
      "vis_m": 9999,
      "fzfg": false,
      "metar_trigger": false,
      "taf_trigger": false,
      "metar": "METAR LEZG 051830Z 30016KT 9999 FEW050 03/M09 Q1011 NOSIG",
      "taf": "TAF LEZG 051700Z 0518/0618 31018KT 9999 FEW050 TX07/0615Z TN00/0606Z"
    },
    {
      "icao": "LEZL",
      "alert": "OK",
      "vis_m": 9999,
      "fzfg": false,
      "metar_trigger": false,
      "taf_trigger": false,
      "metar": "METAR LEZL 051830Z 36004KT 320V040 9999 FEW045 10/06 Q1009 NOSIG",
      "taf": "TAF LEZL 051400Z 0515/0615 VRB03KT CAVOK TX15/0515Z TN02/0607Z"
    },
    {
      "icao": "LFBD",
      "alert": "OK",
      "vis_m": 9999,
      "fzfg": false,
      "metar_trigger": false,
      "taf_trigger": false,
      "metar": "METAR LFBD 051830Z AUTO 19004KT 9999 FEW049 M02/M05 Q1015 NOSIG",
      "taf": "TAF LFBD 051700Z 0518/0624 VRB03KT CAVOK TX04/0614Z TNM02/0601Z"
    },
    {
      "icao": "LFLL",
      "alert": "OK",
      "vis_m": 9999,
      "fzfg": false,
      "metar_trigger": false,
      "taf_trigger": false,
      "metar": "METAR LFLL 051830Z 34006KT CAVOK M03/M06 Q1014 NOSIG",
      "taf": "TAF LFLL 051700Z 0518/0624 34008KT CAVOK"
    },
    {
      "icao": "LFLS",
      "alert": "OK",
      "vis_m": 9999,
      "fzfg": false,
      "metar_trigger": false,
      "taf_trigger": false,
      "metar": "METAR LFLS 051830Z AUTO 35011KT CAVOK M04/M06 Q1012",
      "taf": ""
    },
    {
      "icao": "LFMN",
      "alert": "OK",
      "vis_m": 9999,
      "fzfg": false,
      "metar_trigger": false,
      "taf_trigger": false,
      "metar": "METAR LFMN 051830Z 29005KT 9999 BKN060 BKN200 08/03 Q1005 NOSIG",
      "taf": "TAF LFMN 051400Z 0515/0621 24010KT CAVOK"
    },
    {
      "icao": "LFOB",
      "alert": "OK",
      "vis_m": 2800,
      "fzfg": true,
      "metar_trigger": false,
      "taf_trigger": false,
      "metar": "METAR LFOB 051830Z AUTO 24004KT 2800 0600 R30/1800U R12/4900N BCFG FEW004 BKN150 M04/M04 Q1014 TEMPO 0600 FZFG VV///",
      "taf": "TAF LFOB 051700Z 0518/0618 21006KT 6000 SCT015"
    },
    {
      "icao": "LFPO",
      "alert": "OK",
      "vis_m": 6000,
      "fzfg": false,
      "metar_trigger": false,
      "taf_trigger": false,
      "metar": "METAR LFPO 051830Z AUTO 24003KT 6000 -SN BKN010 OVC040 M01/M02 Q1014 TEMPO 2500 BR BKN004",
      "taf": "TAF LFPO 051700Z 0518/0624 26004KT 6000 BKN008"
    },
    {
      "icao": "LFSB",
      "alert": "OK",
      "vis_m": 9999,
      "fzfg": false,
      "metar_trigger": false,
      "taf_trigger": false,
      "metar": "METAR LFSB 051830Z AUTO 22002KT CAVOK M06/M09 Q1014 NOSIG",
      "taf": "TAF LFSB 051700Z 0518/0618 VRB03KT CAVOK"
    },
    {
      "icao": "LGAV",
      "alert": "OK",
      "vis_m": 9999,
      "fzfg": false,
      "metar_trigger": false,
      "taf_trigger": false,
      "metar": "METAR LGAV 051820Z 20009KT 9999 FEW018 SCT030 15/10 Q1016 NOSIG",
      "taf": "TAF LGAV 051700Z 0518/0618 19014KT 9999 FEW018 SCT030 BKN070"
    },
    {
      "icao": "LGTS",
      "alert": "OK",
      "vis_m": 9999,
      "fzfg": false,
      "metar_trigger": false,
      "taf_trigger": false,
      "metar": "METAR LGTS 051820Z 12006KT 9999 SCT035 14/10 Q1013 NOSIG",
      "taf": "TAF LGTS 051700Z 0518/0618 14010KT 9999 SCT030"
    },
    {
      "icao": "LHBP",
      "alert": "OK",
      "vis_m": 3000,
      "fzfg": false,
      "metar_trigger": false,
      "taf_trigger": false,
      "metar": "METAR LHBP 051830Z 34004KT 3000 SN BKN009 OVC020 M02/M02 Q1011 NOSIG",
      "taf": "TAF LHBP 051715Z 0518/0618 35006KT 5000 -SN SCT010 OVC020"
    },
    {
      "icao": "LHDC",
      "alert": "OK",
      "vis_m": 4300,
      "fzfg": false,
      "metar_trigger": false,
      "taf_trigger": false,
      "metar": "METAR LHDC 051815Z AUTO 05007KT 4300 -SN BR FEW008 OVC022 M01/M01 Q1010 NOSIG",
      "taf": "TAF LHDC 051715Z 0518/0603 05006KT 4000 -SN SCT012 OVC025"
    },
    {
      "icao": "LIBD",
      "alert": "OK",
      "vis_m": 8000,
      "fzfg": false,
      "metar_trigger": false,
      "taf_trigger": false,
      "metar": "METAR LIBD 051820Z 35004KT 8000 -RA BKN020 14/13 Q1004",
      "taf": "TAF LIBD 051700Z 0518/0618 28007KT 9999 SCT015"
    },
    {
      "icao": "LIBG",
      "alert": "OK",
      "vis_m": 7000,
      "fzfg": false,
      "metar_trigger": false,
      "taf_trigger": false,
      "metar": "METAR LIBG 051750Z 16015KT 7000 FEW008 BKN020 16/16 Q1003",
      "taf": "TAF LIBG 051700Z 0518/0603 17012KT 9999 SCT030"
    },
    {
      "icao": "LIBP",
      "alert": "OK",
      "vis_m": 9999,
      "fzfg": false,
      "metar_trigger": false,
      "taf_trigger": false,
      "metar": "METAR LIBP 051820Z AUTO VRB02KT 9999 OVC009/// 07/06 Q1006",
      "taf": "TAF LIBP 051700Z 0518/0618 34007KT 9999 OVC008"
    },
    {
      "icao": "LIBR",
      "alert": "OK",
      "vis_m": 9999,
      "fzfg": false,
      "metar_trigger": false,
      "taf_trigger": false,
      "metar": "METAR LIBR 051820Z 17017KT 9999 FEW012 15/13 Q1003",
      "taf": "TAF LIBR 051700Z 0518/0618 17013KT 9999 BKN015"
    },
    {
      "icao": "LICA",
      "alert": "OK",
      "vis_m": 9999,
      "fzfg": false,
      "metar_trigger": false,
      "taf_trigger": false,
      "metar": "METAR LICA 051820Z AUTO 08005KT 9999 FEW073/// 13/13 Q1004",
      "taf": "TAF LICA 051700Z 0518/0618 VRB05KT 9999 SCT050"
    },
    {
      "icao": "LICC",
      "alert": "OK",
      "vis_m": 9999,
      "fzfg": false,
      "metar_trigger": false,
      "taf_trigger": false,
      "metar": "METAR LICC 051820Z 28010KT CAVOK 14/11 Q1005",
      "taf": "TAF LICC 051700Z 0518/0618 26013KT 9999 SCT030"
    },
    {
      "icao": "LICJ",
      "alert": "OK",
      "vis_m": 9999,
      "fzfg": false,
      "metar_trigger": false,
      "taf_trigger": false,
      "metar": "METAR LICJ 051820Z 20016KT CAVOK 16/10 Q1003",
      "taf": "TAF LICJ 051700Z 0518/0618 21016KT 9999 FEW030"
    },
    {
      "icao": "LIMC",
      "alert": "OK",
      "vis_m": 9999,
      "fzfg": false,
      "metar_trigger": false,
      "taf_trigger": false,
      "metar": "METAR LIMC 051820Z VRB02KT CAVOK M02/M05 Q1007 NOSIG",
      "taf": "TAF LIMC 051700Z 0518/0624 VRB03KT CAVOK"
    },
    {
      "icao": "LIME",
      "alert": "OK",
      "vis_m": 9999,
      "fzfg": false,
      "metar_trigger": false,
      "taf_trigger": false,
      "metar": "METAR LIME 051820Z 35002KT CAVOK M01/M04 Q1007 NOSIG",
      "taf": "TAF LIME 051700Z 0518/0618 VRB03KT CAVOK"
    },
    {
      "icao": "LIMF",
      "alert": "OK",
      "vis_m": 9999,
      "fzfg": false,
      "metar_trigger": false,
      "taf_trigger": false,
      "metar": "METAR LIMF 051820Z 34003KT 310V010 CAVOK M01/M06 Q1007",
      "taf": "TAF LIMF 051700Z 0518/0618 VRB03KT CAVOK"
    },
    {
      "icao": "LIMJ",
      "alert": "OK",
      "vis_m": 9999,
      "fzfg": false,
      "metar_trigger": false,
      "taf_trigger": false,
      "metar": "METAR LIMJ 051820Z AUTO 03017KT 9999 BKN150/// 03/M03 Q1005",
      "taf": "TAF LIMJ 051700Z 0518/0618 01014KT CAVOK"
    },
    {
      "icao": "LIPE",
      "alert": "OK",
      "vis_m": 9999,
      "fzfg": false,
      "metar_trigger": false,
      "taf_trigger": false,
      "metar": "METAR LIPE 051820Z 30002KT 9999 BKN050 03/M04 Q1008",
      "taf": "TAF LIPE 051700Z 0518/0618 28007KT 9999 BKN020"
    },
    {
      "icao": "LIPH",
      "alert": "OK",
      "vis_m": 9999,
      "fzfg": false,
      "metar_trigger": false,
      "taf_trigger": false,
      "metar": "METAR LIPH 051820Z 01003KT CAVOK 02/M05 Q1007",
      "taf": "TAF LIPH 051700Z 0518/0618 03006KT 9999 SCT070"
    },
    {
      "icao": "LIPQ",
      "alert": "OK",
      "vis_m": 9999,
      "fzfg": false,
      "metar_trigger": false,
      "taf_trigger": false,
      "metar": "METAR LIPQ 051820Z AUTO 36003KT 270V070 9999 OVC036/// 03/M01 Q1007",
      "taf": "TAF LIPQ 051700Z 0518/0618 08008KT 9999 BKN030"
    },
    {
      "icao": "LIPR",
      "alert": "OK",
      "vis_m": 9999,
      "fzfg": false,
      "metar_trigger": false,
      "taf_trigger": false,
      "metar": "METAR LIPR 051820Z 27006KT 9999 BKN020 02/01 Q1007",
      "taf": "TAF LIPR 051700Z 0518/0618 30012KT 9999 BKN020"
    },
    {
      "icao": "LIPX",
      "alert": "OK",
      "vis_m": 9999,
      "fzfg": false,
      "metar_trigger": false,
      "taf_trigger": false,
      "metar": "METAR LIPX 051820Z 34005KT 320V020 CAVOK 01/M07 Q1007",
      "taf": "TAF LIPX 051700Z 0518/0618 VRB04KT CAVOK"
    },
    {
      "icao": "LIPY",
      "alert": "OK",
      "vis_m": 6000,
      "fzfg": false,
      "metar_trigger": false,
      "taf_trigger": false,
      "metar": "METAR LIPY 051820Z AUTO 27004KT 6000 -RA OVC007/// 04/03 Q1007 REDZ",
      "taf": "TAF LIPY 051700Z 0518/0618 32010KT 9999 BKN010"
    },
    {
      "icao": "LIPZ",
      "alert": "OK",
      "vis_m": 9999,
      "fzfg": false,
      "metar_trigger": false,
      "taf_trigger": false,
      "metar": "METAR LIPZ 051820Z 03005KT CAVOK 02/M01 Q1007 NOSIG",
      "taf": "TAF LIPZ 051700Z 0518/0624 02008KT 9999 SCT070"
    },
    {
      "icao": "LIRF",
      "alert": "OK",
      "vis_m": 9999,
      "fzfg": false,
      "metar_trigger": false,
      "taf_trigger": false,
      "metar": "METAR LIRF 051820Z 07005KT 9999 FEW005 SCT018 13/12 Q1002 RERA NOSIG",
      "taf": "TAF LIRF 051700Z 0518/0624 09008KT 9999 SCT020"
    },
    {
      "icao": "LIRN",
      "alert": "OK",
      "vis_m": 9999,
      "fzfg": false,
      "metar_trigger": false,
      "taf_trigger": false,
      "metar": "METAR LIRN 051820Z 35005KT 300V050 CAVOK 14/11 Q1003 NOSIG",
      "taf": "TAF LIRN 051700Z 0518/0618 VRB06KT 9999 SCT020 SCT050"
    },
    {
      "icao": "LIRP",
      "alert": "OK",
      "vis_m": 9999,
      "fzfg": false,
      "metar_trigger": false,
      "taf_trigger": false,
      "metar": "METAR LIRP 051815Z 15004KT CAVOK 04/M01 Q1005 NOSIG",
      "taf": "TAF LIRP 051700Z 0518/0618 12008KT 9999 SCT040 BKN070"
    },
    {
      "icao": "LIRZ",
      "alert": "OK",
      "vis_m": 9999,
      "fzfg": false,
      "metar_trigger": false,
      "taf_trigger": false,
      "metar": "METAR LIRZ 051820Z AUTO 34007KT 9999 -RA OVC015/// 05/04 Q1004",
      "taf": "TAF LIRZ 051700Z 0518/0618 01010KT 6000 RA BKN012 BKN020"
    },
    {
      "icao": "LJLJ",
      "alert": "OK",
      "vis_m": 3000,
      "fzfg": false,
      "metar_trigger": false,
      "taf_trigger": false,
      "metar": "METAR LJLJ 051830Z 13002KT 3000 SN FEW004 BKN010 OVC023 M02/M03 Q1010 NOSIG",
      "taf": "TAF LJLJ 051700Z 0518/0618 10004KT 7000 -SN SCT020 OVC040"
    },
    {
      "icao": "LKMT",
      "alert": "OK",
      "vis_m": 9999,
      "fzfg": false,
      "metar_trigger": false,
      "taf_trigger": false,
      "metar": "METAR LKMT 051830Z 00000KT CAVOK M04/M07 Q1012 NOSIG",
      "taf": "TAF LKMT 051700Z 0518/0618 18003KT CAVOK"
    },
    {
      "icao": "LKPR",
      "alert": "OK",
      "vis_m": 9999,
      "fzfg": false,
      "metar_trigger": false,
      "taf_trigger": false,
      "metar": "METAR LKPR 051830Z 23007KT 190V260 9999 BKN040 M03/M09 Q1012 NOSIG",
      "taf": "TAF LKPR 051700Z 0518/0624 23007KT 9999 BKN040"
    },
    {
      "icao": "LLBG",
      "alert": "OK",
      "vis_m": 9999,
      "fzfg": false,
      "metar_trigger": false,
      "taf_trigger": false,
      "metar": "METAR LLBG 051820Z VRB02KT CAVOK 15/07 Q1019 NOSIG",
      "taf": "TAF LLBG 051700Z 0518/0618 VRB03KT CAVOK"
    },
    {
      "icao": "LMML",
      "alert": "OK",
      "vis_m": 8000,
      "fzfg": false,
      "metar_trigger": false,
      "taf_trigger": false,
      "metar": "METAR LMML 051845Z 21007KT 8000 NSC 16/15 Q1006 NOSIG",
      "taf": "TAF LMML 051700Z 0518/0618 22012KT 8000 NSC"
    },
    {
      "icao": "LOWW",
      "alert": "OK",
      "vis_m": 9999,
      "fzfg": false,
      "metar_trigger": false,
      "taf_trigger": false,
      "metar": "METAR LOWW 051820Z 01004KT 9999 FEW030 SCT040 BKN050 M03/M08 Q1013 TEMPO 31010KT",
      "taf": ""
    },
    {
      "icao": "LPFR",
      "alert": "OK",
      "vis_m": 9999,
      "fzfg": false,
      "metar_trigger": false,
      "taf_trigger": false,
      "metar": "METAR LPFR 051830Z 32011KT CAVOK 09/M02 Q1012",
      "taf": "TAF LPFR 051700Z 0518/0618 34017KT CAVOK"
    },
    {
      "icao": "LPMA",
      "alert": "OK",
      "vis_m": 9999,
      "fzfg": false,
      "metar_trigger": false,
      "taf_trigger": false,
      "metar": "METAR LPMA 051830Z 02018KT 350V050 9999 BKN015 FEW018CB 16/08 Q1021",
      "taf": "TAF LPMA 051700Z 0518/0618 02017KT 9999 SCT015"
    },
    {
      "icao": "LPPR",
      "alert": "OK",
      "vis_m": 9999,
      "fzfg": false,
      "metar_trigger": false,
      "taf_trigger": false,
      "metar": "METAR LPPR 051830Z 34011KT CAVOK 08/03 Q1016",
      "taf": "TAF LPPR 051700Z 0518/0618 02010KT CAVOK"
    },
    {
      "icao": "LPPS",
      "alert": "OK",
      "vis_m": 9999,
      "fzfg": false,
      "metar_trigger": false,
      "taf_trigger": false,
      "metar": "METAR LPPS 051830Z 04012G24KT 010V070 9999 SCT015 SCT030 14/09 Q1022",
      "taf": "TAF LPPS 051700Z 0518/0624 02015KT 9999 SCT015"
    },
    {
      "icao": "LPPT",
      "alert": "OK",
      "vis_m": 9999,
      "fzfg": false,
      "metar_trigger": false,
      "taf_trigger": false,
      "metar": "METAR LPPT 051830Z 34006KT 9999 FEW025 08/03 Q1015",
      "taf": "TAF LPPT 051700Z 0518/0624 34015KT 9999 FEW035"
    },
    {
      "icao": "LQBK",
      "alert": "OK",
      "vis_m": 7000,
      "fzfg": false,
      "metar_trigger": false,
      "taf_trigger": false,
      "metar": "METAR LQBK 051830Z 32002KT 7000 FZDZ FEW010 SCT017 OVC020 M00/M01 Q1011 NOSIG",
      "taf": "TAF LQBK 051700Z 0518/0618 33007KT 7000 -SN BKN007 OVC013 TXM00/0613Z TNM03/0605Z"
    },
    {
      "icao": "LQSA",
      "alert": "OK",
      "vis_m": 3000,
      "fzfg": false,
      "metar_trigger": false,
      "taf_trigger": false,
      "metar": "METAR LQSA 051830Z 12005KT 3000 RASN SCT003 BKN010 OVC035 00/00 Q1007 RERA BECMG 2000 SN BKN008 OVC030",
      "taf": "TAF LQSA 051700Z 0518/0618 30005KT 3000 RA BKN008 OVC030 TX00/0518Z TNM02/0618Z"
    },
    {
      "icao": "LQTZ",
      "alert": "OK",
      "vis_m": 5000,
      "fzfg": false,
      "metar_trigger": false,
      "taf_trigger": false,
      "metar": "METAR LQTZ 051830Z 30004KT 5000 BR OVC005 M00/M00 Q1009",
      "taf": "TAF LQTZ 051700Z 0518/0618 30005KT 5000 BR BKN005 OVC015 TXM00/0613Z TNM03/0605Z"
    },
    {
      "icao": "LRBC",
      "alert": "OK",
      "vis_m": 3000,
      "fzfg": false,
      "metar_trigger": false,
      "taf_trigger": false,
      "metar": "METAR LRBC 051830Z 10002KT 3000 -RASN BR OVC003 M01/M02 Q1016",
      "taf": "TAF LRBC 051700Z 0518/0603 12004KT 3000 -RASN OVC015"
    },
    {
      "icao": "LRBS",
      "alert": "OK",
      "vis_m": 7000,
      "fzfg": false,
      "metar_trigger": false,
      "taf_trigger": false,
      "metar": "METAR LRBS 051830Z 04007KT 010V070 7000 OVC003 01/01 Q1015 BECMG 5000 BR",
      "taf": "TAF LRBS 051700Z 0518/0618 05010KT 9999 -RA OVC005"
    },
    {
      "icao": "LRBV",
      "alert": "OK",
      "vis_m": 9999,
      "fzfg": false,
      "metar_trigger": false,
      "taf_trigger": false,
      "metar": "METAR LRBV 051830Z VRB02KT 9999 SCT051 M00/M01 Q1011",
      "taf": "TAF LRBV 051700Z 0518/0603 VRB04KT 9999 SCT030 OVC050"
    },
    {
      "icao": "LRCL",
      "alert": "OK",
      "vis_m": 9999,
      "fzfg": false,
      "metar_trigger": false,
      "taf_trigger": false,
      "metar": "METAR LRCL 051830Z 09009KT 9999 BKN040 OVC061 01/00 Q1010",
      "taf": "TAF LRCL 051700Z 0518/0603 VRB04KT 9999 -RASN SCT010 OVC025"
    },
    {
      "icao": "LRCV",
      "alert": "OK",
      "vis_m": 3000,
      "fzfg": false,
      "metar_trigger": false,
      "taf_trigger": false,
      "metar": "METAR LRCV 051830Z 10005KT 3000 BR OVC002 01/01 Q1014",
      "taf": "TAF LRCV 051700Z 0518/0603 08010KT 5000 -DZRA BR OVC005"
    },
    {
      "icao": "LRIA",
      "alert": "OK",
      "vis_m": 3900,
      "fzfg": false,
      "metar_trigger": false,
      "taf_trigger": false,
      "metar": "METAR LRIA 051830Z 11010KT 3900 -SN BKN001 OVC006 M01/M01 Q1017",
      "taf": "TAF LRIA 051700Z 0518/0603 10008KT 3000 -SN BKN002 OVC010"
    },
    {
      "icao": "LROP",
      "alert": "OK",
      "vis_m": 9999,
      "fzfg": false,
      "metar_trigger": false,
      "taf_trigger": false,
      "metar": "METAR LROP 051830Z 05011KT 9999 -RA OVC003 01/01 Q1015 NOSIG",
      "taf": "TAF LROP 051700Z 0518/0618 05010KT 9999 -RA OVC005"
    },
    {
      "icao": "LRSB",
      "alert": "OK",
      "vis_m": 6000,
      "fzfg": false,
      "metar_trigger": false,
      "taf_trigger": false,
      "metar": "METAR LRSB 051830Z 24003KT 6000 FEW070 BKN082 M02/M02 Q1009",
      "taf": "TAF LRSB 051700Z 0518/0618 VRB04KT 5000 BR SCT005 BKN060"
    },
    {
      "icao": "LRSM",
      "alert": "OK",
      "vis_m": 6000,
      "fzfg": false,
      "metar_trigger": false,
      "taf_trigger": false,
      "metar": "METAR LRSM 051830Z AUTO 03002KT 6000 DZ SCT035/// OVC041/// 00/M01 Q1010",
      "taf": "TAF LRSM 051400Z 0515/0524 06006KT 9999 BKN035"
    },
    {
      "icao": "LRSV",
      "alert": "OK",
      "vis_m": 4000,
      "fzfg": false,
      "metar_trigger": false,
      "taf_trigger": false,
      "metar": "METAR LRSV 051830Z 13011KT 4000 -SN BR BKN003 M02/M03 Q1014",
      "taf": "TAF LRSV 051700Z 0518/0603 13010KT 5000 BR OVC005"
    },
    {
      "icao": "LRTM",
      "alert": "OK",
      "vis_m": 3600,
      "fzfg": false,
      "metar_trigger": false,
      "taf_trigger": false,
      "metar": "METAR LRTM 051830Z AUTO 26002KT 3600 FEW003/// OVC050/// M00/M01 Q1010 REFZRA",
      "taf": "TAF LRTM 051400Z 0515/0524 VRB04KT 3000 -RASN BR BKN010 OVC025"
    },
    {
      "icao": "LRTR",
      "alert": "OK",
      "vis_m": 5000,
      "fzfg": false,
      "metar_trigger": false,
      "taf_trigger": false,
      "metar": "METAR LRTR 051830Z 10005KT 5000 RA BR BKN012 OVC030 01/01 Q1009",
      "taf": "TAF LRTR 051700Z 0518/0618 VRB04KT 5000 -RA BR OVC030"
    },
    {
      "icao": "LTAC",
      "alert": "OK",
      "vis_m": 9999,
      "fzfg": false,
      "metar_trigger": false,
      "taf_trigger": false,
      "metar": "METAR LTAC 051820Z VRB01KT CAVOK 02/M00 Q1022 NOSIG RMK RWY21C 07003KT RWY03L VRB02KT RWY21R 06003KT RWY03R VRB01KT RWY21L VRB01KT",
      "taf": "TAF LTAC 051640Z 0518/0618 VRB02KT CAVOK"
    },
    {
      "icao": "LTFM",
      "alert": "OK",
      "vis_m": 9999,
      "fzfg": false,
      "metar_trigger": false,
      "taf_trigger": false,
      "metar": "METAR LTFM 051820Z 18008KT CAVOK 13/06 Q1017 NOSIG RMK RWY17L 17010G20KT RWY34L 18006KT RWY16R 18011KT RWY36 15008KT RWY18 16006KT",
      "taf": "TAF LTFM 051640Z 0518/0624 19012KT CAVOK"
    },
    {
      "icao": "LUKK",
      "alert": "OK",
      "vis_m": 9999,
      "fzfg": false,
      "metar_trigger": false,
      "taf_trigger": false,
      "metar": "METAR LUKK 051830Z 09010KT 9999 -SN OVC006 M01/M01 Q1018 TEMPO 1500 SN BKN004",
      "taf": "TAF LUKK 051705Z 0518/0618 12006KT 5000 SN BKN008"
    },
    {
      "icao": "LWOH",
      "alert": "OK",
      "vis_m": 9999,
      "fzfg": false,
      "metar_trigger": false,
      "taf_trigger": false,
      "metar": "METAR LWOH 051850Z 09004KT 040V210 9999 BKN050 10/05 Q1010",
      "taf": "TAF LWOH 051735Z 0518/0618 16008KT 9999 SCT030 BKN050"
    },
    {
      "icao": "LWSK",
      "alert": "OK",
      "vis_m": 9999,
      "fzfg": false,
      "metar_trigger": false,
      "taf_trigger": false,
      "metar": "METAR LWSK 051850Z 11014KT 9999 FEW050 BKN090 13/07 Q1010 NOSIG",
      "taf": ""
    },
    {
      "icao": "LYBE",
      "alert": "OK",
      "vis_m": 3000,
      "fzfg": false,
      "metar_trigger": false,
      "taf_trigger": false,
      "metar": "METAR LYBE 051830Z 27004KT 190V290 3000 RA BR BKN003 BKN013 M00/M01 Q1010 NOSIG",
      "taf": "TAF LYBE 051700Z 0518/0618 27005KT 4000 BR BKN005 BKN025 TX00/0518Z TNM01/0606Z"
    },
    {
      "icao": "LYNI",
      "alert": "OK",
      "vis_m": 9999,
      "fzfg": false,
      "metar_trigger": false,
      "taf_trigger": false,
      "metar": "METAR LYNI 051830Z 04003KT 360V070 9999 FEW043 05/03 Q1009 NOSIG",
      "taf": "TAF LYNI 051700Z 0518/0618 05004KT 9999 BKN080 TX03/0518Z TN01/0606Z"
    },
    {
      "icao": "LYPG",
      "alert": "OK",
      "vis_m": 8000,
      "fzfg": false,
      "metar_trigger": false,
      "taf_trigger": false,
      "metar": "METAR LYPG 051830Z 05006KT 8000 RA FEW026 SCT034 OVC050 12/11 Q1008 RESHRA NOSIG",
      "taf": "TAF LYPG 051700Z 0518/0618 14012KT 6000 RA FEW015 BKN040 OVC070 TX14/0613Z TN11/0605Z"
    },
    {
      "icao": "LZIB",
      "alert": "OK",
      "vis_m": 3800,
      "fzfg": false,
      "metar_trigger": false,
      "taf_trigger": false,
      "metar": "METAR LZIB 051830Z 30007KT 3800 -SN SCT026 BKN032 M03/M05 Q1013 TEMPO 2000 -SN BKN020",
      "taf": ""
    },
    {
      "icao": "LZKZ",
      "alert": "OK",
      "vis_m": 7000,
      "fzfg": false,
      "metar_trigger": false,
      "taf_trigger": false,
      "metar": "METAR LZKZ 051830Z 01007KT 7000 -SN BKN030 M01/M06 Q1010 TEMPO 1500 SN",
      "taf": "TAF LZKZ 051715Z 0518/0618 02006KT 9999 SCT040"
    },
    {
      "icao": "LZTT",
      "alert": "OK",
      "vis_m": 9999,
      "fzfg": false,
      "metar_trigger": false,
      "taf_trigger": false,
      "metar": "METAR LZTT 051830Z 01003KT 9999 SCT050 BKN080 M05/M08 Q1008",
      "taf": "TAF LZTT 051715Z 0518/0618 VRB02KT 9999 SCT055 BKN080"
    },
    {
      "icao": "OEJN",
      "alert": "OK",
      "vis_m": 8000,
      "fzfg": false,
      "metar_trigger": false,
      "taf_trigger": false,
      "metar": "METAR OEJN 051800Z 35004KT 8000 FEW040 27/17 Q1016 NOSIG",
      "taf": "TAF OEJN 051700Z 0518/0624 35006KT 7000 FEW040"
    },
    {
      "icao": "OEMA",
      "alert": "OK",
      "vis_m": 3000,
      "fzfg": false,
      "metar_trigger": false,
      "taf_trigger": false,
      "metar": "METAR OEMA 051800Z 03006KT 3000 DU NSC 21/01 Q1022 NOSIG",
      "taf": "TAF OEMA 051700Z 0518/0624 09010KT 7000 NSC"
    },
    {
      "icao": "OJAI",
      "alert": "OK",
      "vis_m": 5000,
      "fzfg": false,
      "metar_trigger": false,
      "taf_trigger": false,
      "metar": "METAR OJAI 051800Z 05005KT 5000 HZ NSC 09/01 Q1024 NOSIG",
      "taf": "TAF OJAI 051649Z 0518/0624 VRB02KT 5000 HZ NSC"
    },
    {
      "icao": "OMAA",
      "alert": "OK",
      "vis_m": 9999,
      "fzfg": false,
      "metar_trigger": false,
      "taf_trigger": false,
      "metar": "METAR OMAA 051800Z 29004KT CAVOK 21/15 Q1021 NOSIG",
      "taf": "TAF OMAA 051700Z 0518/0700 05005KT 8000 FEW030"
    },
    {
      "icao": "OMDB",
      "alert": "OK",
      "vis_m": 9999,
      "fzfg": false,
      "metar_trigger": false,
      "taf_trigger": false,
      "metar": "METAR OMDB 051830Z 07007KT CAVOK 22/12 Q1021 NOSIG",
      "taf": "TAF OMDB 051700Z 0518/0700 06007KT 8000 FEW035"
    },
    {
      "icao": "UAAA",
      "alert": "OK",
      "vis_m": 5000,
      "fzfg": false,
      "metar_trigger": false,
      "taf_trigger": false,
      "metar": "METAR UAAA 051830Z 05002MPS 020V080 5000 BR OVC006 M01/M02 Q1037 NOSIG RMK QBB200",
      "taf": "TAF UAAA 051701Z 0518/0618 06003MPS 3100 BR FU BKN011 OVC030 TX01/0609Z TNM03/0602Z"
    },
    {
      "icao": "UBBB",
      "alert": "OK",
      "vis_m": 9999,
      "fzfg": false,
      "metar_trigger": false,
      "taf_trigger": false,
      "metar": "METAR UBBB 051830Z 29004KT CAVOK 07/05 Q1025 NOSIG",
      "taf": "TAF UBBB 051706Z 0518/0618 20010KT CAVOK TX12/0610Z TN02/0602Z"
    },
    {
      "icao": "UDSG",
      "alert": "OK",
      "vis_m": 5000,
      "fzfg": false,
      "metar_trigger": false,
      "taf_trigger": false,
      "metar": "METAR UDSG 051830Z 10001KT 5000 BR NSC M16/M19 Q1030 NOSIG",
      "taf": "TAF UDSG 051700Z 0518/0618 VRB06KT 5000 BR FEW040"
    },
    {
      "icao": "UDYZ",
      "alert": "OK",
      "vis_m": 3000,
      "fzfg": false,
      "metar_trigger": false,
      "taf_trigger": false,
      "metar": "METAR UDYZ 051830Z 32004KT 3000 BR NSC M10/M13 Q1032 NOSIG",
      "taf": "TAF UDYZ 051700Z 0518/0618 VRB04KT 2300 BR NSC"
    },
    {
      "icao": "UGKO",
      "alert": "OK",
      "vis_m": 9999,
      "fzfg": false,
      "metar_trigger": false,
      "taf_trigger": false,
      "metar": "METAR UGKO 051830Z 14004KT CAVOK 05/01 Q1023 NOSIG",
      "taf": "TAF UGKO 051700Z 0518/0618 08007KT CAVOK TX16/0611Z TN03/0523Z"
    }
  ]
}