{
  "ts_utc": "2026-01-04T17:54:31Z",
  "threshold_m": 150,
  "source": "stations_override.txt (ICAO list) + aviationweather.gov (METAR/TAF raw)",
  "station_count": 159,
  "stations": [
    {
      "icao": "BIKF",
      "alert": "OK",
      "vis_m": 9999,
      "fzfg": false,
      "metar_trigger": false,
      "taf_trigger": false,
      "metar": "METAR BIKF 041730Z 09001KT 9999 BKN012 M00/M02 Q1024",
      "taf": "TAF BIKF 041628Z 0418/0518 10008KT 9999 SCT012 BKN020 TX03/0506Z TNM01/0418Z"
    },
    {
      "icao": "BKPR",
      "alert": "OK",
      "vis_m": 9999,
      "fzfg": false,
      "metar_trigger": false,
      "taf_trigger": false,
      "metar": "METAR BKPR 041730Z 35015KT 9999 FEW080 03/01 Q1009 NOSIG",
      "taf": "TAF BKPR 041730Z 0418/0518 19008KT 9999 BKN040"
    },
    {
      "icao": "EBCI",
      "alert": "OK",
      "vis_m": 9999,
      "fzfg": false,
      "metar_trigger": false,
      "taf_trigger": false,
      "metar": "METAR EBCI 041720Z 22007KT 9999 SCT030 M02/M06 Q1012 NOSIG",
      "taf": ""
    },
    {
      "icao": "EDDB",
      "alert": "OK",
      "vis_m": 9999,
      "fzfg": false,
      "metar_trigger": false,
      "taf_trigger": false,
      "metar": "METAR EDDB 041750Z AUTO 24010KT 9999 VCSH BKN008 BKN016 BKN028 FEW///CB M00/M01 Q1007 TEMPO 3000 SHSN BKN008",
      "taf": "TAF EDDB 041700Z 0418/0518 24007KT 9999 BKN025"
    },
    {
      "icao": "EDDH",
      "alert": "OK",
      "vis_m": 9999,
      "fzfg": false,
      "metar_trigger": false,
      "taf_trigger": false,
      "metar": "METAR EDDH 041750Z AUTO 19005KT 150V210 9999 -SHSN BKN007 OVC013 FEW///TCU 00/M01 Q1005 TEMPO 2000 SHSN BKN007",
      "taf": "TAF EDDH 041700Z 0418/0524 20004KT 9999 SCT012 BKN015"
    },
    {
      "icao": "EDDK",
      "alert": "OK",
      "vis_m": 9999,
      "fzfg": false,
      "metar_trigger": false,
      "taf_trigger": false,
      "metar": "METAR EDDK 041750Z AUTO 22005KT CAVOK M01/M05 Q1011 NOSIG",
      "taf": "TAF EDDK 041700Z 0418/0524 22007KT 9999 SCT025"
    },
    {
      "icao": "EDDN",
      "alert": "OK",
      "vis_m": 9999,
      "fzfg": false,
      "metar_trigger": false,
      "taf_trigger": false,
      "metar": "METAR EDDN 041750Z AUTO 22004KT 9999 FEW029 OVC038 M02/M07 Q1012 NOSIG",
      "taf": "TAF EDDN 041700Z 0418/0518 VRB03KT 9999 BKN030"
    },
    {
      "icao": "EDDS",
      "alert": "OK",
      "vis_m": 9999,
      "fzfg": false,
      "metar_trigger": false,
      "taf_trigger": false,
      "metar": "METAR EDDS 041750Z AUTO 26002KT 9999 BKN037 M03/M08 Q1011 NOSIG",
      "taf": "TAF EDDS 041700Z 0418/0518 VRB03KT 9999 BKN035"
    },
    {
      "icao": "EDFH",
      "alert": "OK",
      "vis_m": 9999,
      "fzfg": false,
      "metar_trigger": false,
      "taf_trigger": false,
      "metar": "METAR EDFH 041720Z 24007KT 210V270 9999 FEW015 SCT020 M04/M07 Q1010",
      "taf": "TAF EDFH 041700Z 0418/0518 24006KT 9999 SCT020"
    },
    {
      "icao": "EDJA",
      "alert": "OK",
      "vis_m": 9999,
      "fzfg": false,
      "metar_trigger": false,
      "taf_trigger": false,
      "metar": "METAR EDJA 041720Z 16004KT CAVOK M08/M11 Q1010",
      "taf": "TAF EDJA 041700Z 0418/0503 VRB02KT CAVOK"
    },
    {
      "icao": "EDLW",
      "alert": "OK",
      "vis_m": 9999,
      "fzfg": false,
      "metar_trigger": false,
      "taf_trigger": false,
      "metar": "METAR EDLW 041720Z 22016KT 9999 FEW020 BKN024 OVC031 00/M03 Q1009",
      "taf": "TAF EDLW 041700Z 0418/0518 22015KT 9999 BKN020"
    },
    {
      "icao": "EDNY",
      "alert": "OK",
      "vis_m": 9999,
      "fzfg": false,
      "metar_trigger": false,
      "taf_trigger": false,
      "metar": "METAR EDNY 041720Z AUTO VRB02KT 9999 // NCD M07/M08 Q1012",
      "taf": "TAF EDNY 041400Z 0415/0424 VRB02KT CAVOK"
    },
    {
      "icao": "EDSB",
      "alert": "OK",
      "vis_m": 9999,
      "fzfg": false,
      "metar_trigger": false,
      "taf_trigger": false,
      "metar": "METAR EDSB 041720Z VRB02KT 9999 FEW046 M01/M05 Q1013",
      "taf": "TAF EDSB 041700Z 0418/0518 20004KT 9999 BKN040"
    },
    {
      "icao": "EETN",
      "alert": "OK",
      "vis_m": 6000,
      "fzfg": false,
      "metar_trigger": false,
      "taf_trigger": false,
      "metar": "METAR EETN 041750Z 05008KT 6000 -SN OVC009 M05/M06 Q1000 TEMPO 3000 SN",
      "taf": "TAF EETN 041730Z 0418/0518 05012KT 9999 OVC008"
    },
    {
      "icao": "EFTU",
      "alert": "OK",
      "vis_m": 9999,
      "fzfg": false,
      "metar_trigger": false,
      "taf_trigger": false,
      "metar": "METAR EFTU 041750Z AUTO 04006KT 010V080 CAVOK M17/M19 Q1004",
      "taf": "TAF EFTU 041726Z 0418/0518 04009KT CAVOK"
    },
    {
      "icao": "EGBB",
      "alert": "OK",
      "vis_m": 9999,
      "fzfg": false,
      "metar_trigger": false,
      "taf_trigger": false,
      "metar": "METAR EGBB 041720Z 20004KT 9999 SCT021CB 00/M02 Q1011",
      "taf": "TAF EGBB 041655Z 0418/0518 VRB04KT 9999 SCT025"
    },
    {
      "icao": "EGGP",
      "alert": "OK",
      "vis_m": 9000,
      "fzfg": false,
      "metar_trigger": false,
      "taf_trigger": false,
      "metar": "METAR EGGP 041720Z 25007KT 9000 VCSH SCT026CB BKN033 01/M01 Q1011 RESHRA",
      "taf": "TAF EGGP 041700Z 0418/0518 28005KT 9999 SCT020"
    },
    {
      "icao": "EGGW",
      "alert": "OK",
      "vis_m": 9999,
      "fzfg": false,
      "metar_trigger": false,
      "taf_trigger": false,
      "metar": "METAR EGGW 041720Z AUTO 26009KT 9999 NCD M00/M03 Q1011",
      "taf": "TAF EGGW 041700Z 0418/0518 28008KT CAVOK"
    },
    {
      "icao": "EGKK",
      "alert": "OK",
      "vis_m": 9999,
      "fzfg": false,
      "metar_trigger": false,
      "taf_trigger": false,
      "metar": "METAR EGKK 041720Z 24004KT CAVOK M00/M04 Q1012",
      "taf": "TAF EGKK 041658Z 0418/0524 25005KT 9999 FEW045"
    },
    {
      "icao": "EGNM",
      "alert": "OK",
      "vis_m": 9999,
      "fzfg": false,
      "metar_trigger": false,
      "taf_trigger": false,
      "metar": "METAR EGNM 041720Z 26007KT 9999 FEW025 M01/M04 Q1008",
      "taf": "TAF EGNM 041657Z 0418/0518 29015KT 9999 FEW045"
    },
    {
      "icao": "EGPD",
      "alert": "OK",
      "vis_m": 9999,
      "fzfg": false,
      "metar_trigger": false,
      "taf_trigger": false,
      "metar": "METAR EGPD 041720Z AUTO 29014KT 9999 SCT024 SCT035 BKN049 M02/M05 Q1006 TEMPO 1800 SHSN",
      "taf": "TAF EGPD 041658Z 0418/0518 30012KT 9999 FEW012"
    },
    {
      "icao": "EGPF",
      "alert": "OK",
      "vis_m": 9999,
      "fzfg": false,
      "metar_trigger": false,
      "taf_trigger": false,
      "metar": "METAR EGPF 041720Z AUTO 33004KT 270V360 9999 NCD M01/M05 Q1010",
      "taf": "TAF EGPF 041656Z 0418/0518 36007KT 9999 FEW040"
    },
    {
      "icao": "EHBK",
      "alert": "OK",
      "vis_m": 9999,
      "fzfg": false,
      "metar_trigger": false,
      "taf_trigger": false,
      "metar": "METAR EHBK 041725Z AUTO 22010KT 9999 NCD M01/M04 Q1011 NOSIG",
      "taf": "TAF EHBK 041711Z 0418/0524 23011KT 9999 BKN048"
    },
    {
      "icao": "EHEH",
      "alert": "OK",
      "vis_m": 9999,
      "fzfg": false,
      "metar_trigger": false,
      "taf_trigger": false,
      "metar": "METAR EHEH 041725Z AUTO 22008KT 9999 NCD M03/M05 Q1010 BLU NOSIG RMK TREND REMOTE BY EHWX",
      "taf": "TAF EHEH 041157Z 0412/0518 22010KT 9999 SCT020 BKN030"
    },
    {
      "icao": "EKBI",
      "alert": "OK",
      "vis_m": 9999,
      "fzfg": false,
      "metar_trigger": false,
      "taf_trigger": false,
      "metar": "METAR EKBI 041720Z AUTO 11001KT 9999 NCD M09/M10 Q1004",
      "taf": "TAF EKBI 041727Z 0418/0518 VRB03KT CAVOK"
    },
    {
      "icao": "EKCH",
      "alert": "OK",
      "vis_m": 9999,
      "fzfg": false,
      "metar_trigger": false,
      "taf_trigger": false,
      "metar": "METAR EKCH 041720Z 26008KT 9999 BKN035 M01/M05 Q1003 NOSIG",
      "taf": "TAF EKCH 041727Z 0418/0518 28008KT 9999 BKN035"
    },
    {
      "icao": "ENAL",
      "alert": "OK",
      "vis_m": 9999,
      "fzfg": false,
      "metar_trigger": false,
      "taf_trigger": false,
      "metar": "METAR ENAL 041720Z 14012KT 9999 FEW046 SCT062 M03/M12 Q1004",
      "taf": "TAF ENAL 041700Z 0418/0503 14010KT 9999 SCT055"
    },
    {
      "icao": "ENBR",
      "alert": "OK",
      "vis_m": 9999,
      "fzfg": false,
      "metar_trigger": false,
      "taf_trigger": false,
      "metar": "METAR ENBR 041720Z 07004KT CAVOK M06/M13 Q1004 NOSIG RMK WIND 1200FT 10006KT",
      "taf": "TAF ENBR 041700Z 0418/0518 07005KT CAVOK"
    },
    {
      "icao": "ENGM",
      "alert": "OK",
      "vis_m": 9999,
      "fzfg": false,
      "metar_trigger": false,
      "taf_trigger": false,
      "metar": "METAR ENGM 041720Z 02013KT 9999 -SN OVC036 M08/M12 Q1006 NOSIG",
      "taf": "TAF ENGM 041700Z 0418/0518 02009KT 9999 FEW020 BKN030"
    },
    {
      "icao": "ENHD",
      "alert": "OK",
      "vis_m": 9999,
      "fzfg": false,
      "metar_trigger": false,
      "taf_trigger": false,
      "metar": "METAR ENHD 041720Z 09009KT 9999 BKN040 M04/M11 Q1004",
      "taf": "TAF ENHD 041400Z 0415/0423 11009KT 9999 FEW040"
    },
    {
      "icao": "ENTC",
      "alert": "OK",
      "vis_m": 9999,
      "fzfg": false,
      "metar_trigger": false,
      "taf_trigger": false,
      "metar": "METAR ENTC 041720Z 30006KT 9999 VCSH BKN024 M04/M06 Q1006 TEMPO 0700 SHSN VV006 RMK WIND 2600FT 34023KT",
      "taf": "TAF ENTC 041700Z 0418/0518 36008KT 8000 -SHSN VV018"
    },
    {
      "icao": "ENTO",
      "alert": "OK",
      "vis_m": 9999,
      "fzfg": false,
      "metar_trigger": false,
      "taf_trigger": false,
      "metar": "METAR ENTO 041720Z 03010KT 9999 -SN OVC028 M06/M09 Q1005 NOSIG",
      "taf": "TAF ENTO 041700Z 0418/0518 36012KT 9000 -SN FEW015 BKN025"
    },
    {
      "icao": "ENVA",
      "alert": "OK",
      "vis_m": 9999,
      "fzfg": false,
      "metar_trigger": false,
      "taf_trigger": false,
      "metar": "METAR ENVA 041720Z 13009KT CAVOK M12/M15 Q1010 RMK WIND 670FT 10009KT",
      "taf": "TAF ENVA 041700Z 0418/0518 11010KT CAVOK"
    },
    {
      "icao": "ENZV",
      "alert": "OK",
      "vis_m": 9999,
      "fzfg": false,
      "metar_trigger": false,
      "taf_trigger": false,
      "metar": "METAR ENZV 041720Z 11006KT CAVOK M06/M13 Q1004 NOSIG",
      "taf": "TAF ENZV 041700Z 0418/0518 12007KT 9999 FEW030"
    },
    {
      "icao": "EPGD",
      "alert": "OK",
      "vis_m": 9999,
      "fzfg": false,
      "metar_trigger": false,
      "taf_trigger": false,
      "metar": "METAR EPGD 041730Z 24017KT 9999 DRSN NSC M04/M08 Q1000",
      "taf": "TAF EPGD 041730Z 0418/0518 24015KT 9999 BKN015"
    },
    {
      "icao": "EPKK",
      "alert": "OK",
      "vis_m": 9999,
      "fzfg": false,
      "metar_trigger": false,
      "taf_trigger": false,
      "metar": "METAR EPKK 041730Z 23007KT CAVOK M03/M09 Q1011",
      "taf": "TAF EPKK 041730Z 0418/0518 22010KT CAVOK"
    },
    {
      "icao": "EPKT",
      "alert": "OK",
      "vis_m": 9999,
      "fzfg": false,
      "metar_trigger": false,
      "taf_trigger": false,
      "metar": "METAR EPKT 041730Z 22011KT CAVOK M03/M08 Q1009",
      "taf": "TAF EPKT 041730Z 0418/0518 23010KT CAVOK"
    },
    {
      "icao": "EPLB",
      "alert": "OK",
      "vis_m": 9999,
      "fzfg": false,
      "metar_trigger": false,
      "taf_trigger": false,
      "metar": "METAR EPLB 041730Z 24010KT CAVOK M03/M07 Q1009",
      "taf": "TAF EPLB 041730Z 0418/0518 22007KT CAVOK"
    },
    {
      "icao": "EPMO",
      "alert": "OK",
      "vis_m": 9999,
      "fzfg": false,
      "metar_trigger": false,
      "taf_trigger": false,
      "metar": "METAR EPMO 041730Z 22011KT 9999 DRSN SCT027 BKN036 M02/M06 Q1007",
      "taf": "TAF EPMO 041730Z 0418/0518 20007KT 9999 SCT030"
    },
    {
      "icao": "EPPO",
      "alert": "OK",
      "vis_m": 9999,
      "fzfg": false,
      "metar_trigger": false,
      "taf_trigger": false,
      "metar": "METAR EPPO 041730Z 24006KT 9999 -SHSN SCT006 BKN042CB M01/M02 Q1006",
      "taf": "TAF EPPO 041730Z 0418/0518 22006KT 9999 BKN020"
    },
    {
      "icao": "EPRA",
      "alert": "OK",
      "vis_m": 9999,
      "fzfg": false,
      "metar_trigger": false,
      "taf_trigger": false,
      "metar": "METAR EPRA 041730Z 23008KT 9999 SCT044 M03/M07 Q1009",
      "taf": "TAF EPRA 041730Z 0418/0503 22010KT 9999 BKN040"
    },
    {
      "icao": "EPRZ",
      "alert": "OK",
      "vis_m": 9999,
      "fzfg": false,
      "metar_trigger": false,
      "taf_trigger": false,
      "metar": "METAR EPRZ 041730Z 22006KT CAVOK M03/M10 Q1011",
      "taf": "TAF EPRZ 041730Z 0418/0518 21007KT CAVOK"
    },
    {
      "icao": "EPSC",
      "alert": "OK",
      "vis_m": 9999,
      "fzfg": false,
      "metar_trigger": false,
      "taf_trigger": false,
      "metar": "METAR EPSC 041730Z VRB02KT CAVOK M04/M05 Q1005",
      "taf": "TAF EPSC 041730Z 0418/0518 22005KT 9999 SCT020"
    },
    {
      "icao": "EPSY",
      "alert": "OK",
      "vis_m": 9999,
      "fzfg": false,
      "metar_trigger": false,
      "taf_trigger": false,
      "metar": "METAR EPSY 041730Z 21007KT CAVOK M06/M08 Q1004",
      "taf": "TAF EPSY 041730Z 0418/0503 21010KT CAVOK"
    },
    {
      "icao": "EPWA",
      "alert": "OK",
      "vis_m": 9999,
      "fzfg": false,
      "metar_trigger": false,
      "taf_trigger": false,
      "metar": "METAR EPWA 041730Z 22005KT 9999 SCT030 M03/M08 Q1008 TEMPO 2900 SHSN",
      "taf": "TAF EPWA 041730Z 0418/0518 20007KT 9999 SCT030"
    },
    {
      "icao": "EPWR",
      "alert": "OK",
      "vis_m": 9999,
      "fzfg": false,
      "metar_trigger": false,
      "taf_trigger": false,
      "metar": "METAR EPWR 041730Z 21005KT CAVOK M01/M05 Q1009",
      "taf": "TAF EPWR 041730Z 0418/0518 22008KT 9999 FEW040"
    },
    {
      "icao": "ESGG",
      "alert": "OK",
      "vis_m": 9999,
      "fzfg": false,
      "metar_trigger": false,
      "taf_trigger": false,
      "metar": "METAR ESGG 041720Z 04008KT 9999 SCT014 M05/M07 Q1002",
      "taf": "TAF ESGG 041730Z 0418/0518 04008KT 9999 -SN SCT008 BKN025"
    },
    {
      "icao": "ESKN",
      "alert": "OK",
      "vis_m": 9999,
      "fzfg": false,
      "metar_trigger": false,
      "taf_trigger": false,
      "metar": "METAR ESKN 041720Z 02008KT 340V050 9999 BKN017 M06/M08 Q1002",
      "taf": "TAF ESKN 041730Z 0418/0518 02009KT 9999 BKN017"
    },
    {
      "icao": "ESMS",
      "alert": "OK",
      "vis_m": 8000,
      "fzfg": false,
      "metar_trigger": false,
      "taf_trigger": false,
      "metar": "METAR ESMS 041720Z 27008KT 8000 -SHSN FEW002TCU BKN009 BKN012 M02/M02 Q1002",
      "taf": "TAF ESMS 041727Z 0418/0518 27006KT 9000 -SHSN BKN018"
    },
    {
      "icao": "ESSA",
      "alert": "OK",
      "vis_m": 9999,
      "fzfg": false,
      "metar_trigger": false,
      "taf_trigger": false,
      "metar": "METAR ESSA 041720Z 03015KT 9999 -SN BKN018 M06/M08 Q1003 NOSIG",
      "taf": "TAF ESSA 041730Z 0418/0518 03014KT 9999 -SN BKN018"
    },
    {
      "icao": "EYKA",
      "alert": "OK",
      "vis_m": 2300,
      "fzfg": false,
      "metar_trigger": false,
      "taf_trigger": false,
      "metar": "METAR EYKA 041750Z 25011KT 2300 SN OVC011 M02/M04 Q1001",
      "taf": "TAF EYKA 041705Z 0418/0518 22010KT 7000 SCT010 BKN015"
    },
    {
      "icao": "EYPA",
      "alert": "OK",
      "vis_m": 9999,
      "fzfg": false,
      "metar_trigger": false,
      "taf_trigger": false,
      "metar": "METAR EYPA 041750Z 20011KT 170V240 9999 SCT020 BKN031 BKN039 01/M02 Q0997",
      "taf": "TAF EYPA 041706Z 0418/0518 21012KT 6000 SCT005 BKN015"
    },
    {
      "icao": "EYVI",
      "alert": "OK",
      "vis_m": 9999,
      "fzfg": false,
      "metar_trigger": false,
      "taf_trigger": false,
      "metar": "METAR EYVI 041750Z 23010KT 9999 -SHSN BKN006CB M03/M04 Q1001 NOSIG",
      "taf": "TAF EYVI 041705Z 0418/0518 20011KT 6000 SCT010 BKN015"
    },
    {
      "icao": "GCFV",
      "alert": "OK",
      "vis_m": 9999,
      "fzfg": false,
      "metar_trigger": false,
      "taf_trigger": false,
      "metar": "METAR GCFV 041730Z 28010KT 250V320 9999 FEW020 20/15 Q1010",
      "taf": "TAF GCFV 041400Z 0415/0515 30015KT 9999 SCT030 TX21/0514Z TN15/0506Z"
    },
    {
      "icao": "GCLP",
      "alert": "OK",
      "vis_m": 9999,
      "fzfg": false,
      "metar_trigger": false,
      "taf_trigger": false,
      "metar": "METAR GCLP 041730Z 25007KT 200V290 9999 SCT035 22/15 Q1010 NOSIG",
      "taf": "TAF GCLP 041400Z 0415/0515 14006KT 9999 SCT030 BKN060 TX21/0514Z TN15/0506Z"
    },
    {
      "icao": "GCTS",
      "alert": "OK",
      "vis_m": 9999,
      "fzfg": false,
      "metar_trigger": false,
      "taf_trigger": false,
      "metar": "METAR GCTS 041730Z 11007KT 9999 SCT045 21/14 Q1011 NOSIG",
      "taf": "TAF GCTS 041400Z 0415/0515 12006KT 9999 BKN030 TX22/0514Z TN16/0506Z"
    },
    {
      "icao": "GMAD",
      "alert": "OK",
      "vis_m": 6000,
      "fzfg": false,
      "metar_trigger": false,
      "taf_trigger": false,
      "metar": "METAR GMAD 041730Z 25015KT 6000 -RA FEW010 SCT016 SCT023TCU 17/17 Q1007 TEMPO 3000 SHRA",
      "taf": "TAF GMAD 041700Z 0418/0524 22012KT 6000 FEW010 SCT016 BKN023TCU"
    },
    {
      "icao": "GMMN",
      "alert": "OK",
      "vis_m": 9999,
      "fzfg": false,
      "metar_trigger": false,
      "taf_trigger": false,
      "metar": "METAR GMMN 041730Z 27009KT 9999 SCT015 BKN040TCU 15/13 Q1005 NOSIG",
      "taf": "TAF GMMN 041700Z 0418/0524 22008KT 9999 SCT013 BKN030"
    },
    {
      "icao": "GMMX",
      "alert": "OK",
      "vis_m": 8000,
      "fzfg": false,
      "metar_trigger": false,
      "taf_trigger": false,
      "metar": "METAR GMMX 041730Z 28012KT 260V320 8000 SCT020 SCT040 15/12 Q1006 TEMPO 30016G27KT",
      "taf": "TAF GMMX 041700Z 0418/0524 24012KT 8000 SCT023 SCT090"
    },
    {
      "icao": "HEGN",
      "alert": "OK",
      "vis_m": 9999,
      "fzfg": false,
      "metar_trigger": false,
      "taf_trigger": false,
      "metar": "METAR HEGN 041700Z 29005KT CAVOK 18/10 Q1019 NOSIG",
      "taf": "TAF HEGN 041700Z 0418/0524 30010KT CAVOK"
    },
    {
      "icao": "HEMA",
      "alert": "OK",
      "vis_m": 8000,
      "fzfg": false,
      "metar_trigger": false,
      "taf_trigger": false,
      "metar": "METAR HEMA 041700Z 32012KT 8000 NSC 20/14 Q1018 NOSIG",
      "taf": "TAF HEMA 041700Z 0418/0524 32012KT CAVOK"
    },
    {
      "icao": "HESH",
      "alert": "OK",
      "vis_m": 9999,
      "fzfg": false,
      "metar_trigger": false,
      "taf_trigger": false,
      "metar": "METAR HESH 041700Z 35006KT CAVOK 21/10 Q1018 NOSIG",
      "taf": "TAF HESH 041700Z 0418/0524 35010KT CAVOK"
    },
    {
      "icao": "HESX",
      "alert": "OK",
      "vis_m": 9999,
      "fzfg": false,
      "metar_trigger": false,
      "taf_trigger": false,
      "metar": "METAR HESX 041700Z 05006KT CAVOK 14/08 Q1020 NOSIG",
      "taf": ""
    },
    {
      "icao": "LATI",
      "alert": "OK",
      "vis_m": 9999,
      "fzfg": false,
      "metar_trigger": false,
      "taf_trigger": false,
      "metar": "METAR LATI 041750Z 15007KT 9999 FEW060 BKN110 15/06 Q1010 NOSIG",
      "taf": "TAF LATI 041700Z 0418/0518 14010KT 9999 BKN060 TX16/0512Z TN12/0505Z"
    },
    {
      "icao": "LBPD",
      "alert": "OK",
      "vis_m": 9999,
      "fzfg": false,
      "metar_trigger": false,
      "taf_trigger": false,
      "metar": "METAR LBPD 041730Z AUTO 27011KT 9999 SCT170/// 18/03 Q1009 NOSIG",
      "taf": "TAF LBPD 041700Z 0418/0518 24012KT 9999 SCT070"
    },
    {
      "icao": "LBSF",
      "alert": "OK",
      "vis_m": 9999,
      "fzfg": false,
      "metar_trigger": false,
      "taf_trigger": false,
      "metar": "METAR LBSF 041730Z AUTO 21018KT 9999 BKN085/// 15/03 Q1009 WS ALL RWY TEMPO 21020G35KT",
      "taf": "TAF LBSF 041700Z 0418/0518 16012KT 9999 SCT040 BKN060"
    },
    {
      "icao": "LBWN",
      "alert": "OK",
      "vis_m": 9999,
      "fzfg": false,
      "metar_trigger": false,
      "taf_trigger": false,
      "metar": "METAR LBWN 041730Z AUTO 24010KT 210V270 9999 NSC 16/09 Q1010 NOSIG",
      "taf": "TAF LBWN 041700Z 0418/0518 24012KT 9999 SCT030"
    },
    {
      "icao": "LCLK",
      "alert": "OK",
      "vis_m": 9999,
      "fzfg": false,
      "metar_trigger": false,
      "taf_trigger": false,
      "metar": "METAR LCLK 041730Z 35007KT 9999 FEW040 13/09 Q1025 NOSIG",
      "taf": "TAF LCLK 041730Z 0418/0518 36009KT CAVOK"
    },
    {
      "icao": "LCPH",
      "alert": "OK",
      "vis_m": 9999,
      "fzfg": false,
      "metar_trigger": false,
      "taf_trigger": false,
      "metar": "METAR LCPH 041730Z 08003KT 9999 FEW050 12/08 Q1024 NOSIG",
      "taf": "TAF LCPH 041730Z 0418/0518 07008KT 9999 FEW045"
    },
    {
      "icao": "LEAL",
      "alert": "OK",
      "vis_m": 9999,
      "fzfg": false,
      "metar_trigger": false,
      "taf_trigger": false,
      "metar": "METAR LEAL 041730Z 06012KT 9999 FEW014 BKN045 14/11 Q1003 NOSIG",
      "taf": "TAF LEAL 041700Z 0418/0518 05012KT 9999 SCT020 TX12/0514Z TN09/0506Z"
    },
    {
      "icao": "LEBB",
      "alert": "OK",
      "vis_m": 9999,
      "fzfg": false,
      "metar_trigger": false,
      "taf_trigger": false,
      "metar": "METAR LEBB 041730Z 02003KT 340V070 9999 FEW049 02/M01 Q1014 NOSIG",
      "taf": "TAF LEBB 041700Z 0418/0518 VRB03KT 9999 FEW040 TX08/0514Z TNM00/0420Z"
    },
    {
      "icao": "LEBL",
      "alert": "OK",
      "vis_m": 9999,
      "fzfg": false,
      "metar_trigger": false,
      "taf_trigger": false,
      "metar": "METAR LEBL 041730Z 34005KT 280V360 9999 BKN035 09/06 Q1006 NOSIG",
      "taf": "TAF LEBL 041700Z 0418/0518 34008KT 9999 BKN025 TX09/0418Z TN04/0506Z"
    },
    {
      "icao": "LECH",
      "alert": "OK",
      "vis_m": 9999,
      "fzfg": false,
      "metar_trigger": false,
      "taf_trigger": false,
      "metar": "METAR LECH 041730Z AUTO 01003KT 9999 BKN014 OVC023 07/06 Q1006",
      "taf": ""
    },
    {
      "icao": "LEMD",
      "alert": "OK",
      "vis_m": 9999,
      "fzfg": false,
      "metar_trigger": false,
      "taf_trigger": false,
      "metar": "METAR LEMD 041730Z 17004KT 130V210 9999 SCT035 SCT046 BKN060 11/06 Q1003 NOSIG",
      "taf": "TAF LEMD 041700Z 0418/0524 VRB03KT 9999 SCT035 TX08/0418Z TNM02/0523Z"
    },
    {
      "icao": "LEMG",
      "alert": "OK",
      "vis_m": 2000,
      "fzfg": false,
      "metar_trigger": false,
      "taf_trigger": false,
      "metar": "METAR LEMG 041730Z 08018G30KT 050V110 2000 R31/1100N R12/P2000 R13/1200N RA BR SCT009 BKN015 OVC040 14/13 Q0998 NOSIG",
      "taf": ""
    },
    {
      "icao": "LEVC",
      "alert": "OK",
      "vis_m": 7000,
      "fzfg": false,
      "metar_trigger": false,
      "taf_trigger": false,
      "metar": "METAR LEVC 041730Z 05006KT 360V080 7000 -DZ FEW017 SCT020 OVC025 10/08 Q1006 NOSIG",
      "taf": "TAF LEVC 041700Z 0418/0518 03009KT 9999 SCT020 TX10/0514Z TN05/0506Z"
    },
    {
      "icao": "LEXJ",
      "alert": "OK",
      "vis_m": 9999,
      "fzfg": false,
      "metar_trigger": false,
      "taf_trigger": false,
      "metar": "METAR LEXJ 041730Z 10006KT 060V140 9999 FEW030 BKN050 05/M03 Q1015",
      "taf": "TAF LEXJ 041400Z 0415/0515 20009KT 9999 SCT040 TX08/0415Z TN02/0421Z"
    },
    {
      "icao": "LEZG",
      "alert": "OK",
      "vis_m": 9999,
      "fzfg": false,
      "metar_trigger": false,
      "taf_trigger": false,
      "metar": "METAR LEZG 041730Z 30015KT 9999 SCT075 04/M04 Q1008 NOSIG",
      "taf": "TAF LEZG 041700Z 0418/0518 31020G30KT 9999 BKN050 TX05/0515Z TN00/0506Z"
    },
    {
      "icao": "LEZL",
      "alert": "OK",
      "vis_m": 8000,
      "fzfg": false,
      "metar_trigger": false,
      "taf_trigger": false,
      "metar": "METAR LEZL 041730Z 05005KT 8000 SCT046 15/12 Q1000 NOSIG",
      "taf": "TAF LEZL 041400Z 0415/0515 05012KT 9999 SCT040 TX16/0515Z TN05/0507Z"
    },
    {
      "icao": "LFBD",
      "alert": "OK",
      "vis_m": 9999,
      "fzfg": false,
      "metar_trigger": false,
      "taf_trigger": false,
      "metar": "METAR LFBD 041730Z AUTO 01008KT CAVOK 01/M04 Q1014 NOSIG",
      "taf": "TAF LFBD 041700Z 0418/0524 36005KT CAVOK TX05/0515Z TNM05/0508Z"
    },
    {
      "icao": "LFLL",
      "alert": "OK",
      "vis_m": 9999,
      "fzfg": false,
      "metar_trigger": false,
      "taf_trigger": false,
      "metar": "METAR LFLL 041730Z 34010KT CAVOK M01/M05 Q1012 NOSIG",
      "taf": "TAF LFLL 041700Z 0418/0524 34010KT CAVOK"
    },
    {
      "icao": "LFLS",
      "alert": "OK",
      "vis_m": 9999,
      "fzfg": false,
      "metar_trigger": false,
      "taf_trigger": false,
      "metar": "METAR LFLS 041730Z AUTO 34010KT CAVOK M02/M06 Q1010 TEMPO BKN007",
      "taf": "TAF LFLS 041400Z 0415/0515 34008KT CAVOK"
    },
    {
      "icao": "LFMN",
      "alert": "OK",
      "vis_m": 9999,
      "fzfg": false,
      "metar_trigger": false,
      "taf_trigger": false,
      "metar": "METAR LFMN 041730Z 32012KT CAVOK 07/M00 Q1004 NOSIG",
      "taf": "TAF LFMN 041400Z 0415/0521 09010KT CAVOK"
    },
    {
      "icao": "LFOB",
      "alert": "OK",
      "vis_m": 9999,
      "fzfg": false,
      "metar_trigger": false,
      "taf_trigger": false,
      "metar": "METAR LFOB 041730Z AUTO 23002KT 9999 FEW042 M01/M04 Q1013 NOSIG",
      "taf": "TAF LFOB 041700Z 0418/0518 26005KT CAVOK"
    },
    {
      "icao": "LFPO",
      "alert": "OK",
      "vis_m": 9999,
      "fzfg": false,
      "metar_trigger": false,
      "taf_trigger": false,
      "metar": "METAR LFPO 041730Z AUTO 25003KT 9999 FEW043 M01/M05 Q1014 NOSIG",
      "taf": "TAF LFPO 041700Z 0418/0524 29003KT CAVOK"
    },
    {
      "icao": "LFSB",
      "alert": "OK",
      "vis_m": 9999,
      "fzfg": false,
      "metar_trigger": false,
      "taf_trigger": false,
      "metar": "METAR LFSB 041730Z AUTO 24003KT 9999 BKN041 M03/M06 Q1012 NOSIG",
      "taf": "TAF LFSB 041700Z 0418/0518 VRB03KT 9999 SCT035"
    },
    {
      "icao": "LGAV",
      "alert": "OK",
      "vis_m": 9999,
      "fzfg": false,
      "metar_trigger": false,
      "taf_trigger": false,
      "metar": "METAR LGAV 041720Z 20020KT 9999 FEW025 SCT070 16/11 Q1018 NOSIG",
      "taf": "TAF LGAV 041700Z 0418/0518 21018KT 9999 FEW025 SCT070"
    },
    {
      "icao": "LGTS",
      "alert": "OK",
      "vis_m": 9999,
      "fzfg": false,
      "metar_trigger": false,
      "taf_trigger": false,
      "metar": "METAR LGTS 041720Z 12008KT 9999 FEW025 16/09 Q1013 NOSIG",
      "taf": "TAF LGTS 041700Z 0418/0518 16014KT 9999 SCT030"
    },
    {
      "icao": "LHBP",
      "alert": "OK",
      "vis_m": 9999,
      "fzfg": false,
      "metar_trigger": false,
      "taf_trigger": false,
      "metar": "METAR LHBP 041730Z 00000KT CAVOK M04/M07 Q1015 NOSIG",
      "taf": "TAF LHBP 041715Z 0418/0518 VRB03KT CAVOK"
    },
    {
      "icao": "LHDC",
      "alert": "OK",
      "vis_m": 6000,
      "fzfg": false,
      "metar_trigger": false,
      "taf_trigger": false,
      "metar": "METAR LHDC 041715Z AUTO 16005KT 6000 NSC M03/M03 Q1014 NOSIG",
      "taf": "TAF LHDC 041715Z 0418/0503 VRB03KT 6000 NSC"
    },
    {
      "icao": "LIBD",
      "alert": "OK",
      "vis_m": 9999,
      "fzfg": false,
      "metar_trigger": false,
      "taf_trigger": false,
      "metar": "METAR LIBD 041720Z 18007KT CAVOK 15/09 Q1006",
      "taf": "TAF LIBD 041700Z 0418/0518 17008KT 9999 SCT030"
    },
    {
      "icao": "LIBG",
      "alert": "OK",
      "vis_m": 8000,
      "fzfg": false,
      "metar_trigger": false,
      "taf_trigger": false,
      "metar": "METAR LIBG 041650Z 16008KT 8000 FEW020 15/15 Q1007",
      "taf": "TAF LIBG 041700Z 0418/0503 17010KT 9999 SCT030"
    },
    {
      "icao": "LIBP",
      "alert": "OK",
      "vis_m": 9999,
      "fzfg": false,
      "metar_trigger": false,
      "taf_trigger": false,
      "metar": "METAR LIBP 041720Z AUTO 20003KT 9999 -RA OVC019/// 07/07 Q1008",
      "taf": "TAF LIBP 041700Z 0418/0518 35007KT 4000 RA OVC010"
    },
    {
      "icao": "LIBR",
      "alert": "OK",
      "vis_m": 9999,
      "fzfg": false,
      "metar_trigger": false,
      "taf_trigger": false,
      "metar": "METAR LIBR 041720Z 20019KT 9999 FEW025 16/13 Q1007",
      "taf": "TAF LIBR 041700Z 0418/0518 17015KT 9999 SCT030"
    },
    {
      "icao": "LICA",
      "alert": "OK",
      "vis_m": 9999,
      "fzfg": false,
      "metar_trigger": false,
      "taf_trigger": false,
      "metar": "METAR LICA 041720Z AUTO 05009KT 9999 SCT130/// 14/09 Q1007",
      "taf": "TAF LICA 041700Z 0418/0518 08012KT 9999 FEW050"
    },
    {
      "icao": "LICC",
      "alert": "OK",
      "vis_m": 9999,
      "fzfg": false,
      "metar_trigger": false,
      "taf_trigger": false,
      "metar": "METAR LICC 041720Z VRB02KT CAVOK 15/12 Q1009",
      "taf": "TAF LICC 041700Z 0418/0518 VRB05KT 9999 SCT030"
    },
    {
      "icao": "LICJ",
      "alert": "OK",
      "vis_m": 9999,
      "fzfg": false,
      "metar_trigger": false,
      "taf_trigger": false,
      "metar": "METAR LICJ 041720Z 20015KT CAVOK 18/05 Q1005",
      "taf": "TAF LICJ 041700Z 0418/0518 19018G28KT 9999 FEW030"
    },
    {
      "icao": "LIMC",
      "alert": "OK",
      "vis_m": 9999,
      "fzfg": false,
      "metar_trigger": false,
      "taf_trigger": false,
      "metar": "METAR LIMC 041720Z 03002KT CAVOK M00/M02 Q1009 NOSIG",
      "taf": "TAF LIMC 041700Z 0418/0524 VRB04KT CAVOK"
    },
    {
      "icao": "LIME",
      "alert": "OK",
      "vis_m": 9999,
      "fzfg": false,
      "metar_trigger": false,
      "taf_trigger": false,
      "metar": "METAR LIME 041720Z VRB01KT CAVOK 00/M04 Q1009 NOSIG",
      "taf": "TAF LIME 041700Z 0418/0518 VRB04KT CAVOK"
    },
    {
      "icao": "LIMF",
      "alert": "OK",
      "vis_m": 9999,
      "fzfg": false,
      "metar_trigger": false,
      "taf_trigger": false,
      "metar": "METAR LIMF 041720Z VRB02KT CAVOK 03/M05 Q1009",
      "taf": "TAF LIMF 041700Z 0418/0518 VRB04KT CAVOK"
    },
    {
      "icao": "LIMJ",
      "alert": "OK",
      "vis_m": 9999,
      "fzfg": false,
      "metar_trigger": false,
      "taf_trigger": false,
      "metar": "METAR LIMJ 041720Z 03017KT CAVOK 04/M01 Q1007",
      "taf": "TAF LIMJ 041700Z 0418/0518 03016KT CAVOK"
    },
    {
      "icao": "LIPE",
      "alert": "OK",
      "vis_m": 3000,
      "fzfg": false,
      "metar_trigger": false,
      "taf_trigger": false,
      "metar": "METAR LIPE 041720Z 30004KT 260V360 3000 BR OVC025 03/02 Q1010",
      "taf": "TAF LIPE 041700Z 0418/0518 29006KT 4000 -RA BR OVC008"
    },
    {
      "icao": "LIPH",
      "alert": "OK",
      "vis_m": 9999,
      "fzfg": false,
      "metar_trigger": false,
      "taf_trigger": false,
      "metar": "METAR LIPH 041720Z 05006KT CAVOK 04/M04 Q1010",
      "taf": "TAF LIPH 041700Z 0418/0518 04008KT CAVOK"
    },
    {
      "icao": "LIPQ",
      "alert": "OK",
      "vis_m": 9999,
      "fzfg": false,
      "metar_trigger": false,
      "taf_trigger": false,
      "metar": "METAR LIPQ 041720Z AUTO 06006KT 030V100 9999 BKN230/// 04/M06 Q1011",
      "taf": "TAF LIPQ 041700Z 0418/0518 08008KT CAVOK"
    },
    {
      "icao": "LIPR",
      "alert": "OK",
      "vis_m": 7000,
      "fzfg": false,
      "metar_trigger": false,
      "taf_trigger": false,
      "metar": "METAR LIPR 041720Z 29005KT 7000 SCT020 BKN040 05/03 Q1009",
      "taf": ""
    },
    {
      "icao": "LIPX",
      "alert": "OK",
      "vis_m": 9999,
      "fzfg": false,
      "metar_trigger": false,
      "taf_trigger": false,
      "metar": "METAR LIPX 041720Z 01003KT CAVOK M00/M01 Q1010",
      "taf": "TAF LIPX 041700Z 0418/0518 VRB04KT 8000 NSC"
    },
    {
      "icao": "LIPY",
      "alert": "OK",
      "vis_m": 9999,
      "fzfg": false,
      "metar_trigger": false,
      "taf_trigger": false,
      "metar": "METAR LIPY 041720Z AUTO 23004KT 9999 RA OVC028/// 05/05 Q1008",
      "taf": "TAF LIPY 041700Z 0418/0518 30008KT 4000 RA OVC014"
    },
    {
      "icao": "LIPZ",
      "alert": "OK",
      "vis_m": 9999,
      "fzfg": false,
      "metar_trigger": false,
      "taf_trigger": false,
      "metar": "METAR LIPZ 041720Z 04008KT CAVOK 02/M03 Q1010 NOSIG",
      "taf": "TAF LIPZ 041700Z 0418/0524 05012KT CAVOK"
    },
    {
      "icao": "LIRF",
      "alert": "OK",
      "vis_m": 9000,
      "fzfg": false,
      "metar_trigger": false,
      "taf_trigger": false,
      "metar": "METAR LIRF 041720Z 10005KT 9000 -RA SCT020 SCT040 13/12 Q1004 NOSIG",
      "taf": "TAF LIRF 041700Z 0418/0524 16010KT 8000 RA SCT020 SCT030"
    },
    {
      "icao": "LIRN",
      "alert": "OK",
      "vis_m": 9999,
      "fzfg": false,
      "metar_trigger": false,
      "taf_trigger": false,
      "metar": "METAR LIRN 041720Z 19007G19KT 150V230 9999 -DZ BKN025 16/13 Q1005 NOSIG",
      "taf": "TAF LIRN 041700Z 0418/0518 17010KT 8000 RA BKN020"
    },
    {
      "icao": "LIRP",
      "alert": "OK",
      "vis_m": 9999,
      "fzfg": false,
      "metar_trigger": false,
      "taf_trigger": false,
      "metar": "METAR LIRP 041715Z 13009KT 9999 -RA SCT050 SCT070 07/04 Q1005 NOSIG",
      "taf": "TAF LIRP 041700Z 0418/0518 08010KT 9999 SCT020 BKN050"
    },
    {
      "icao": "LIRZ",
      "alert": "OK",
      "vis_m": 9999,
      "fzfg": false,
      "metar_trigger": false,
      "taf_trigger": false,
      "metar": "METAR LIRZ 041720Z AUTO 35009KT 9999 -RA OVC048/// 06/05 Q1005",
      "taf": "TAF LIRZ 041700Z 0418/0518 01010KT 6000 RA BKN020"
    },
    {
      "icao": "LJLJ",
      "alert": "OK",
      "vis_m": 9999,
      "fzfg": false,
      "metar_trigger": false,
      "taf_trigger": false,
      "metar": "METAR LJLJ 041730Z 00000KT 9999 FEW030 BKN230 M02/M03 Q1013 NOSIG",
      "taf": "TAF LJLJ 041700Z 0418/0518 VRB02KT 9999 FEW030"
    },
    {
      "icao": "LKMT",
      "alert": "OK",
      "vis_m": 9999,
      "fzfg": false,
      "metar_trigger": false,
      "taf_trigger": false,
      "metar": "METAR LKMT 041730Z 19007KT 160V220 9999 BKN045 M01/M07 Q1011 NOSIG",
      "taf": "TAF LKMT 041700Z 0418/0518 20005KT CAVOK"
    },
    {
      "icao": "LKPR",
      "alert": "OK",
      "vis_m": 9999,
      "fzfg": false,
      "metar_trigger": false,
      "taf_trigger": false,
      "metar": "METAR LKPR 041730Z 21017KT 9999 FEW028 M01/M06 Q1010 NOSIG",
      "taf": "TAF LKPR 041700Z 0418/0524 22016KT 9999 FEW030"
    },
    {
      "icao": "LLBG",
      "alert": "OK",
      "vis_m": 9999,
      "fzfg": false,
      "metar_trigger": false,
      "taf_trigger": false,
      "metar": "METAR LLBG 041750Z VRB02KT CAVOK 19/05 Q1021 NOSIG",
      "taf": "TAF LLBG 041724Z 0418/0518 VRB04KT CAVOK"
    },
    {
      "icao": "LMML",
      "alert": "OK",
      "vis_m": 9999,
      "fzfg": false,
      "metar_trigger": false,
      "taf_trigger": false,
      "metar": "METAR LMML 041745Z 17009KT CAVOK 16/14 Q1009 NOSIG",
      "taf": "TAF LMML 041700Z 0418/0518 17012KT 9999 FEW015"
    },
    {
      "icao": "LOWW",
      "alert": "OK",
      "vis_m": 9999,
      "fzfg": false,
      "metar_trigger": false,
      "taf_trigger": false,
      "metar": "METAR LOWW 041720Z 16004KT 140V200 CAVOK M04/M10 Q1014 NOSIG",
      "taf": "TAF LOWW 041715Z 0418/0524 12004KT CAVOK TXM02/0418Z TNM06/0504Z"
    },
    {
      "icao": "LPFR",
      "alert": "OK",
      "vis_m": 9999,
      "fzfg": false,
      "metar_trigger": false,
      "taf_trigger": false,
      "metar": "METAR LPFR 041730Z 31007KT 9999 FEW020 16/12 Q1001",
      "taf": "TAF LPFR 041700Z 0418/0518 34007KT 9999 SCT025"
    },
    {
      "icao": "LPMA",
      "alert": "OK",
      "vis_m": 9999,
      "fzfg": false,
      "metar_trigger": false,
      "taf_trigger": false,
      "metar": "METAR LPMA 041730Z 35007KT 260V050 9999 SCT015 FEW018CB 17/13 Q1010",
      "taf": "TAF LPMA 041700Z 0418/0518 35010KT 9999 SCT015"
    },
    {
      "icao": "LPPR",
      "alert": "OK",
      "vis_m": 9999,
      "fzfg": false,
      "metar_trigger": false,
      "taf_trigger": false,
      "metar": "METAR LPPR 041730Z 35003KT 330V030 CAVOK 13/09 Q1005",
      "taf": "TAF LPPR 041700Z 0418/0518 VRB02KT CAVOK"
    },
    {
      "icao": "LPPS",
      "alert": "OK",
      "vis_m": 9000,
      "fzfg": false,
      "metar_trigger": false,
      "taf_trigger": false,
      "metar": "METAR LPPS 041730Z 35015KT 9000 -SHRA BKN014 17/15 Q1010",
      "taf": "TAF LPPS 041700Z 0418/0524 34015KT 9999 SCT015"
    },
    {
      "icao": "LPPT",
      "alert": "OK",
      "vis_m": 9999,
      "fzfg": false,
      "metar_trigger": false,
      "taf_trigger": false,
      "metar": "METAR LPPT 041730Z 33010KT 9999 FEW015 14/10 Q1003",
      "taf": "TAF LPPT 041700Z 0418/0524 33012KT CAVOK"
    },
    {
      "icao": "LQBK",
      "alert": "OK",
      "vis_m": 5000,
      "fzfg": false,
      "metar_trigger": false,
      "taf_trigger": false,
      "metar": "METAR LQBK 041730Z 06004KT 5000 -SN BR SCT015 OVC033 M01/M01 Q1015 NOSIG",
      "taf": "TAF LQBK 041700Z 0418/0518 02005KT 7000 -SN SCT012 OVC035 TX00/0513Z TNM01/0505Z"
    },
    {
      "icao": "LQSA",
      "alert": "OK",
      "vis_m": 1000,
      "fzfg": false,
      "metar_trigger": false,
      "taf_trigger": false,
      "metar": "METAR LQSA 041730Z 30004KT 270V330 1000 R11/1400N SN BKN005 OVC020 M01/M01 Q1012 NOSIG",
      "taf": ""
    },
    {
      "icao": "LQTZ",
      "alert": "OK",
      "vis_m": 2500,
      "fzfg": false,
      "metar_trigger": false,
      "taf_trigger": false,
      "metar": "METAR LQTZ 041730Z 11003KT 2500 -SN BR BKN002 OVC006 M01/M01 Q1014",
      "taf": "TAF LQTZ 041700Z 0418/0518 30006KT 7000 SCT008 OVC020 TX00/0513Z TNM02/0505Z"
    },
    {
      "icao": "LRBC",
      "alert": "OK",
      "vis_m": 9999,
      "fzfg": false,
      "metar_trigger": false,
      "taf_trigger": false,
      "metar": "METAR LRBC 041730Z 34006KT 310V010 CAVOK 01/M04 Q1012",
      "taf": "TAF LRBC 041700Z 0418/0503 33010KT 9999 BKN050"
    },
    {
      "icao": "LRBS",
      "alert": "OK",
      "vis_m": 7000,
      "fzfg": false,
      "metar_trigger": false,
      "taf_trigger": false,
      "metar": "METAR LRBS 041730Z 25008KT 7000 BKN004 OVC049 03/02 Q1012 NOSIG",
      "taf": "TAF LRBS 041700Z 0418/0518 23008KT 5000 BR BKN002"
    },
    {
      "icao": "LRBV",
      "alert": "OK",
      "vis_m": 9999,
      "fzfg": false,
      "metar_trigger": false,
      "taf_trigger": false,
      "metar": "METAR LRBV 041730Z 32008KT 9999 FEW015 BKN053 M01/M03 Q1013",
      "taf": ""
    },
    {
      "icao": "LRCL",
      "alert": "OK",
      "vis_m": 9999,
      "fzfg": false,
      "metar_trigger": false,
      "taf_trigger": false,
      "metar": "METAR LRCL 041730Z 17002KT CAVOK M03/M04 Q1014",
      "taf": "TAF LRCL 041700Z 0418/0503 VRB04KT CAVOK"
    },
    {
      "icao": "LRCV",
      "alert": "OK",
      "vis_m": 2900,
      "fzfg": false,
      "metar_trigger": false,
      "taf_trigger": false,
      "metar": "METAR LRCV 041730Z COR 28007KT 2900 -RASN BR BKN001 OVC003 01/01 Q1013 RERA",
      "taf": "TAF LRCV 041700Z 0418/0503 31006KT 3000 RA BR BKN010 OVC035"
    },
    {
      "icao": "LRIA",
      "alert": "OK",
      "vis_m": 9999,
      "fzfg": false,
      "metar_trigger": false,
      "taf_trigger": false,
      "metar": "METAR LRIA 041730Z COR 28007KT 250V010 9999 FEW043 M00/M04 Q1012",
      "taf": "TAF LRIA 041700Z 0418/0503 30010KT 9999 SCT045"
    },
    {
      "icao": "LROP",
      "alert": "OK",
      "vis_m": 6000,
      "fzfg": false,
      "metar_trigger": false,
      "taf_trigger": false,
      "metar": "METAR LROP 041730Z 25006KT 6000 SCT004 03/03 Q1012 NOSIG",
      "taf": "TAF LROP 041700Z 0418/0518 23008KT 5000 BR BKN002"
    },
    {
      "icao": "LRSB",
      "alert": "OK",
      "vis_m": 2000,
      "fzfg": false,
      "metar_trigger": false,
      "taf_trigger": false,
      "metar": "METAR LRSB 041730Z 04002KT 2000 -SN BR FEW016 BKN022 OVC030 M01/M02 Q1013",
      "taf": "TAF LRSB 041700Z 0418/0518 VRB03KT 3000 -SN BR SCT010 BKN040"
    },
    {
      "icao": "LRSM",
      "alert": "OK",
      "vis_m": 9999,
      "fzfg": false,
      "metar_trigger": false,
      "taf_trigger": false,
      "metar": "METAR LRSM 041730Z AUTO 18003KT 9999 FEW240/// M05/M06 Q1015",
      "taf": "TAF LRSM 041400Z 0415/0424 VRB04KT 9999 SCT030"
    },
    {
      "icao": "LRSV",
      "alert": "OK",
      "vis_m": 9999,
      "fzfg": false,
      "metar_trigger": false,
      "taf_trigger": false,
      "metar": "METAR LRSV 041730Z 00000KT CAVOK M02/M09 Q1011",
      "taf": "TAF LRSV 041700Z 0418/0503 30005KT CAVOK"
    },
    {
      "icao": "LRTM",
      "alert": "OK",
      "vis_m": 7000,
      "fzfg": false,
      "metar_trigger": false,
      "taf_trigger": false,
      "metar": "METAR LRTM 041730Z AUTO 08003KT 7000 FEW005/// BKN110/// M03/M04 Q1014",
      "taf": "TAF LRTM 041400Z 0415/0424 VRB04KT 5000 -SN BR BKN015 OVC030"
    },
    {
      "icao": "LRTR",
      "alert": "OK",
      "vis_m": 3500,
      "fzfg": false,
      "metar_trigger": false,
      "taf_trigger": false,
      "metar": "METAR LRTR 041730Z 30004KT 3500 BR FEW002 M01/M01 Q1015",
      "taf": "TAF LRTR 041700Z 0418/0518 VRB04KT 3000 BR NSC"
    },
    {
      "icao": "LTAC",
      "alert": "OK",
      "vis_m": 8000,
      "fzfg": false,
      "metar_trigger": false,
      "taf_trigger": false,
      "metar": "METAR LTAC 041720Z 04003KT 360V060 8000 SCT040 BKN100 02/M00 Q1023 NOSIG RMK RWY21C 08002KT RWY03L 05003KT RWY21R VRB01KT RWY03R 00000KT RWY21L 04003KT 010V080",
      "taf": "TAF LTAC 041640Z 0418/0518 VRB02KT 6000 SCT040 SCT100"
    },
    {
      "icao": "LTFM",
      "alert": "OK",
      "vis_m": 9999,
      "fzfg": false,
      "metar_trigger": false,
      "taf_trigger": false,
      "metar": "METAR LTFM 041720Z 21027KT CAVOK 15/08 Q1015 NOSIG RMK RWY17L 21027KT RWY34L 20022KT RWY16R 21021G34KT RWY36 22029KT RWY18 22030G40KT",
      "taf": "TAF LTFM 041640Z 0418/0524 21023G33KT CAVOK"
    },
    {
      "icao": "LUKK",
      "alert": "OK",
      "vis_m": 5000,
      "fzfg": false,
      "metar_trigger": false,
      "taf_trigger": false,
      "metar": "METAR LUKK 041730Z 30004KT 280V340 5000 BR OVC038 01/00 Q1011 NOSIG",
      "taf": "TAF LUKK 041729Z 0418/0518 31006KT 9999 SCT012 BKN025"
    },
    {
      "icao": "LWOH",
      "alert": "OK",
      "vis_m": 9999,
      "fzfg": false,
      "metar_trigger": false,
      "taf_trigger": false,
      "metar": "METAR LWOH 041750Z 14014KT 9999 BKN045 11/07 Q1012",
      "taf": "TAF LWOH 041720Z 0418/0518 15015KT 9999 BKN040"
    },
    {
      "icao": "LWSK",
      "alert": "OK",
      "vis_m": 9999,
      "fzfg": false,
      "metar_trigger": false,
      "taf_trigger": false,
      "metar": "METAR LWSK 041750Z VRB03KT 9999 SCT080 14/05 Q1009 NOSIG",
      "taf": "TAF LWSK 041720Z 0418/0518 11012KT 9999 FEW050 BKN070"
    },
    {
      "icao": "LYBE",
      "alert": "OK",
      "vis_m": 2500,
      "fzfg": false,
      "metar_trigger": false,
      "taf_trigger": false,
      "metar": "METAR LYBE 041730Z 30002KT 2500 SN SCT001 BKN007 M01/M01 Q1016 NOSIG",
      "taf": "TAF LYBE 041700Z 0418/0518 05005KT 2000 SN BKN003 OVC025 TX01/0512Z TNM02/0505Z"
    },
    {
      "icao": "LYNI",
      "alert": "OK",
      "vis_m": 9999,
      "fzfg": false,
      "metar_trigger": false,
      "taf_trigger": false,
      "metar": "METAR LYNI 041730Z 35007KT 320V040 9999 SCT008 BKN033 OVC070 00/M01 Q1015 NOSIG",
      "taf": "TAF LYNI 041700Z 0418/0518 33008KT 9999 SCT010 BKN030 OVC070 TX06/0513Z TNM00/0500Z"
    },
    {
      "icao": "LYPG",
      "alert": "OK",
      "vis_m": 9999,
      "fzfg": false,
      "metar_trigger": false,
      "taf_trigger": false,
      "metar": "METAR LYPG 041730Z 15021G31KT 9999 -RA FEW026 SCT040 OVC070 16/11 Q1007 WS ALL RWY NOSIG",
      "taf": "TAF LYPG 041700Z 0418/0518 15009KT 9999 FEW015 SCT030 OVC070 TX14/0513Z TN09/0505Z"
    },
    {
      "icao": "LZIB",
      "alert": "OK",
      "vis_m": 9999,
      "fzfg": false,
      "metar_trigger": false,
      "taf_trigger": false,
      "metar": "METAR LZIB 041730Z VRB03KT CAVOK M01/M10 Q1014 NOSIG",
      "taf": "TAF LZIB 041715Z 0418/0518 30007KT CAVOK"
    },
    {
      "icao": "LZKZ",
      "alert": "OK",
      "vis_m": 9999,
      "fzfg": false,
      "metar_trigger": false,
      "taf_trigger": false,
      "metar": "METAR LZKZ 041730Z VRB02KT CAVOK M05/M07 Q1013 NOSIG",
      "taf": "TAF LZKZ 041715Z 0418/0518 19004KT CAVOK"
    },
    {
      "icao": "LZTT",
      "alert": "OK",
      "vis_m": 9999,
      "fzfg": false,
      "metar_trigger": false,
      "taf_trigger": false,
      "metar": "METAR LZTT 041730Z 27011KT CAVOK M06/M11 Q1009 NOSIG",
      "taf": "TAF LZTT 041715Z 0418/0518 25009KT 9999 FEW040"
    },
    {
      "icao": "OEJN",
      "alert": "OK",
      "vis_m": 9999,
      "fzfg": false,
      "metar_trigger": false,
      "taf_trigger": false,
      "metar": "METAR OEJN 041700Z 30007KT CAVOK 29/11 Q1014 NOSIG",
      "taf": "TAF OEJN 041700Z 0418/0524 VRB03KT 7000 NSC"
    },
    {
      "icao": "OEMA",
      "alert": "OK",
      "vis_m": 9999,
      "fzfg": false,
      "metar_trigger": false,
      "taf_trigger": false,
      "metar": "METAR OEMA 041700Z 06013KT CAVOK 22/M03 Q1022 NOSIG",
      "taf": "TAF OEMA 041700Z 0418/0524 08015KT 7000 NSC"
    },
    {
      "icao": "OJAI",
      "alert": "OK",
      "vis_m": 4000,
      "fzfg": false,
      "metar_trigger": false,
      "taf_trigger": false,
      "metar": "METAR OJAI 041700Z 08010KT 4000 HZ FEW025 09/03 Q1026 NOSIG",
      "taf": "TAF OJAI 041700Z 0418/0524 14012KT 5000 HZ NSC"
    },
    {
      "icao": "OMAA",
      "alert": "OK",
      "vis_m": 9999,
      "fzfg": false,
      "metar_trigger": false,
      "taf_trigger": false,
      "metar": "METAR OMAA 041700Z 31007KT CAVOK 22/16 Q1020 NOSIG",
      "taf": "TAF OMAA 041700Z 0418/0600 31010KT 8000 NSC"
    },
    {
      "icao": "OMDB",
      "alert": "OK",
      "vis_m": 9999,
      "fzfg": false,
      "metar_trigger": false,
      "taf_trigger": false,
      "metar": "METAR OMDB 041730Z 30013KT CAVOK 23/15 Q1019 NOSIG",
      "taf": "TAF OMDB 041700Z 0418/0600 28010KT 8000 NSC"
    },
    {
      "icao": "UAAA",
      "alert": "OK",
      "vis_m": 4100,
      "fzfg": false,
      "metar_trigger": false,
      "taf_trigger": false,
      "metar": "METAR UAAA 041730Z VRB01MPS 4100 BR FU SCT045 BKN100 01/M02 Q1031 NOSIG",
      "taf": "TAF UAAA 041703Z 0418/0518 06003MPS 1200 BR FU BKN020 OVC100 TX03/0509Z TNM03/0502Z"
    },
    {
      "icao": "UBBB",
      "alert": "OK",
      "vis_m": 9999,
      "fzfg": false,
      "metar_trigger": false,
      "taf_trigger": false,
      "metar": "METAR UBBB 041730Z VRB02KT CAVOK 00/M01 Q1025 NOSIG",
      "taf": "TAF UBBB 041706Z 0418/0518 VRB04KT CAVOK TX12/0510Z TN01/0500Z"
    },
    {
      "icao": "UDSG",
      "alert": "OK",
      "vis_m": 9000,
      "fzfg": false,
      "metar_trigger": false,
      "taf_trigger": false,
      "metar": "METAR UDSG 041730Z 06004KT 9000 FEW049 M17/M19 Q1031 NOSIG",
      "taf": "TAF UDSG 041700Z 0418/0518 VRB06KT 9999 FEW050"
    },
    {
      "icao": "UDYZ",
      "alert": "OK",
      "vis_m": 7000,
      "fzfg": false,
      "metar_trigger": false,
      "taf_trigger": false,
      "metar": "METAR UDYZ 041730Z 36002KT 7000 NSC M09/M13 Q1034 NOSIG",
      "taf": "TAF UDYZ 041700Z 0418/0518 04006KT 6000 NSC"
    },
    {
      "icao": "UGKO",
      "alert": "OK",
      "vis_m": 9999,
      "fzfg": false,
      "metar_trigger": false,
      "taf_trigger": false,
      "metar": "METAR UGKO 041730Z 10007KT 9999 BKN078 06/M01 Q1024 NOSIG",
      "taf": "TAF UGKO 041700Z 0418/0518 09007KT CAVOK TX09/0511Z TN03/0503Z"
    }
  ]
}