{
  "ts_utc": "2026-01-01T23:26:32Z",
  "threshold_m": 150,
  "source": "stations_override.txt (ICAO list) + aviationweather.gov (METAR/TAF raw)",
  "station_count": 159,
  "stations": [
    {
      "icao": "BIKF",
      "alert": "OK",
      "vis_m": 9999,
      "fzfg": false,
      "metar_trigger": false,
      "taf_trigger": false,
      "metar": "METAR BIKF 012300Z 15007KT CAVOK M01/M04 Q1023",
      "taf": "TAF BIKF 012241Z 0200/0300 07006KT 9999 FEW040 TXM01/0200Z TNM05/0221Z"
    },
    {
      "icao": "BKPR",
      "alert": "OK",
      "vis_m": null,
      "fzfg": false,
      "metar_trigger": false,
      "taf_trigger": false,
      "metar": "",
      "taf": ""
    },
    {
      "icao": "EBCI",
      "alert": "OK",
      "vis_m": 9999,
      "fzfg": false,
      "metar_trigger": false,
      "taf_trigger": false,
      "metar": "METAR EBCI 012250Z 25013KT 9999 BKN043 03/00 Q1003 NOSIG",
      "taf": "TAF EBCI 012308Z 0200/0306 27012KT 9999 SCT015TCU SCT040"
    },
    {
      "icao": "EDDB",
      "alert": "OK",
      "vis_m": 9999,
      "fzfg": false,
      "metar_trigger": false,
      "taf_trigger": false,
      "metar": "METAR EDDB 012320Z AUTO 23018KT 9999 -RA BKN016 OVC023 02/01 Q0990 TEMPO 23020G30KT BKN014",
      "taf": "TAF EDDB 012300Z 0200/0224 24020G30KT 9999 SCT015 OVC030"
    },
    {
      "icao": "EDDH",
      "alert": "OK",
      "vis_m": 9999,
      "fzfg": false,
      "metar_trigger": false,
      "taf_trigger": false,
      "metar": "METAR EDDH 012320Z AUTO 24015KT 210V280 9999 BKN015 BKN025 02/00 Q0986 TEMPO 25020G30KT 3500 SHSNRA BKN009CB",
      "taf": "TAF EDDH 012300Z 0200/0306 26015G30KT 9999 SCT015 SCT025"
    },
    {
      "icao": "EDDK",
      "alert": "OK",
      "vis_m": 9999,
      "fzfg": false,
      "metar_trigger": false,
      "taf_trigger": false,
      "metar": "METAR EDDK 012320Z AUTO 26020KT 9999 SHRA FEW022 SCT044 FEW///CB 04/M00 Q0999 TEMPO 26020G30KT NSW",
      "taf": "TAF EDDK 011700Z 0118/0224 26014KT 9999 BKN020"
    },
    {
      "icao": "EDDN",
      "alert": "OK",
      "vis_m": 9999,
      "fzfg": false,
      "metar_trigger": false,
      "taf_trigger": false,
      "metar": "METAR EDDN 012320Z AUTO 25015KT 9999 OVC022 01/M04 Q1001",
      "taf": "TAF EDDN 012300Z 0200/0224 24015G25KT 9999 BKN020"
    },
    {
      "icao": "EDDS",
      "alert": "OK",
      "vis_m": 9999,
      "fzfg": false,
      "metar_trigger": false,
      "taf_trigger": false,
      "metar": "METAR EDDS 012320Z AUTO 22009KT 180V270 CAVOK 00/M06 Q1003",
      "taf": "TAF EDDS 012300Z 0200/0224 22008KT 9999 BKN030"
    },
    {
      "icao": "EDFH",
      "alert": "OK",
      "vis_m": 9999,
      "fzfg": false,
      "metar_trigger": false,
      "taf_trigger": false,
      "metar": "METAR EDFH 012250Z 25019G30KT 9999 BKN004 M00/M01 Q1000",
      "taf": "TAF EDFH 012300Z 0200/0224 26015G25KT 9999 BKN010"
    },
    {
      "icao": "EDJA",
      "alert": "OK",
      "vis_m": 9999,
      "fzfg": false,
      "metar_trigger": false,
      "taf_trigger": false,
      "metar": "METAR EDJA 012250Z AUTO 24013KT 9999 // BKN220/// M01/M09 Q1005",
      "taf": "TAF EDJA 011700Z 0118/0203 24020G35KT CAVOK"
    },
    {
      "icao": "EDLW",
      "alert": "OK",
      "vis_m": 9999,
      "fzfg": false,
      "metar_trigger": false,
      "taf_trigger": false,
      "metar": "METAR EDLW 012250Z AUTO 24017KT 9999 // FEW019/// BKN022/// BKN049/// 03/M00 Q0996",
      "taf": "TAF EDLW 011700Z 0118/0218 24015G25KT 9999 SCT012 BKN015"
    },
    {
      "icao": "EDNY",
      "alert": "OK",
      "vis_m": 9999,
      "fzfg": false,
      "metar_trigger": false,
      "taf_trigger": false,
      "metar": "METAR EDNY 012250Z AUTO 22016KT 9999 // SCT240/// 00/M06 Q1008",
      "taf": ""
    },
    {
      "icao": "EDSB",
      "alert": "OK",
      "vis_m": 9999,
      "fzfg": false,
      "metar_trigger": false,
      "taf_trigger": false,
      "metar": "METAR EDSB 012250Z AUTO 21016KT 9999 OVC033/// 02/M05 Q1006",
      "taf": "TAF EDSB 012300Z 0200/0224 22013KT 9999 OVC030"
    },
    {
      "icao": "EETN",
      "alert": "OK",
      "vis_m": 7000,
      "fzfg": false,
      "metar_trigger": false,
      "taf_trigger": false,
      "metar": "METAR EETN 012320Z 11013KT 7000 -SN BKN037 M08/M11 Q0984",
      "taf": ""
    },
    {
      "icao": "EFTU",
      "alert": "OK",
      "vis_m": 9999,
      "fzfg": false,
      "metar_trigger": false,
      "taf_trigger": false,
      "metar": "METAR EFTU 012320Z AUTO 09017KT 9999 -SN OVC010 M06/M09 Q0982",
      "taf": "TAF EFTU 012031Z 0121/0221 10018G28KT 9999 BKN014"
    },
    {
      "icao": "EGBB",
      "alert": "OK",
      "vis_m": 9999,
      "fzfg": false,
      "metar_trigger": false,
      "taf_trigger": false,
      "metar": "METAR EGBB 012320Z 28007KT CAVOK 03/M01 Q1006",
      "taf": "TAF EGBB 012258Z 0200/0224 28010KT 9999 SCT030"
    },
    {
      "icao": "EGGP",
      "alert": "OK",
      "vis_m": 9999,
      "fzfg": false,
      "metar_trigger": false,
      "taf_trigger": false,
      "metar": "METAR EGGP 012320Z 29016KT 9999 SCT035 05/M01 Q1006",
      "taf": "TAF EGGP 012256Z 0200/0224 32012KT 9999 FEW035"
    },
    {
      "icao": "EGGW",
      "alert": "OK",
      "vis_m": 9999,
      "fzfg": false,
      "metar_trigger": false,
      "taf_trigger": false,
      "metar": "METAR EGGW 012320Z AUTO 28014KT 9999 NCD 02/M01 Q1005",
      "taf": "TAF EGGW 012304Z 0200/0224 29015KT 9999 SCT020"
    },
    {
      "icao": "EGKK",
      "alert": "OK",
      "vis_m": 9999,
      "fzfg": false,
      "metar_trigger": false,
      "taf_trigger": false,
      "metar": "METAR EGKK 012320Z 29011KT CAVOK 04/M00 Q1007",
      "taf": "TAF EGKK 012304Z 0200/0306 29011KT 9999 FEW030"
    },
    {
      "icao": "EGNM",
      "alert": "OK",
      "vis_m": 9999,
      "fzfg": false,
      "metar_trigger": false,
      "taf_trigger": false,
      "metar": "METAR EGNM 012250Z 28018KT CAVOK 01/M04 Q1003",
      "taf": "TAF EGNM 012255Z 0200/0224 29015KT 9999 FEW030"
    },
    {
      "icao": "EGPD",
      "alert": "OK",
      "vis_m": 9999,
      "fzfg": false,
      "metar_trigger": false,
      "taf_trigger": false,
      "metar": "METAR EGPD 012320Z COR AUTO 30015KT 9999 -SN SCT007/// SCT010/// BKN020/// //////CB M01/M02 Q1000 RESN TEMPO 1500 SHSN BKN007",
      "taf": "TAF EGPD 012252Z 0200/0224 31015KT 9999 SCT012"
    },
    {
      "icao": "EGPF",
      "alert": "OK",
      "vis_m": 9999,
      "fzfg": false,
      "metar_trigger": false,
      "taf_trigger": false,
      "metar": "METAR EGPF 012320Z AUTO 28007KT 9999 NCD 01/M02 Q1005",
      "taf": "TAF EGPF 012300Z 0200/0224 29010KT 9999 FEW035"
    },
    {
      "icao": "EHBK",
      "alert": "OK",
      "vis_m": 9999,
      "fzfg": false,
      "metar_trigger": false,
      "taf_trigger": false,
      "metar": "METAR EHBK 012255Z AUTO 24013G23KT 210V270 9999 FEW016/// SCT026/// BKN030/// 03/01 Q1000",
      "taf": "TAF EHBK 012316Z 0200/0306 25013KT 9999 SCT022"
    },
    {
      "icao": "EHEH",
      "alert": "OK",
      "vis_m": 9999,
      "fzfg": false,
      "metar_trigger": false,
      "taf_trigger": false,
      "metar": "METAR EHEH 012255Z AUTO 24011KT 210V290 9999 OVC170 03/00 Q0999 BLU",
      "taf": ""
    },
    {
      "icao": "EKBI",
      "alert": "OK",
      "vis_m": 9999,
      "fzfg": false,
      "metar_trigger": false,
      "taf_trigger": false,
      "metar": "METAR EKBI 012320Z 26016KT 9999 -SHRA BKN012 FEW020CB 04/02 Q0974",
      "taf": "TAF EKBI 012027Z 0121/0221 26014KT 9999 FEW010 BKN015"
    },
    {
      "icao": "EKCH",
      "alert": "OK",
      "vis_m": 9999,
      "fzfg": false,
      "metar_trigger": false,
      "taf_trigger": false,
      "metar": "METAR EKCH 012320Z 22018KT 9999 FEW022 03/00 Q0977 TEMPO 23018G28KT",
      "taf": "TAF EKCH 012027Z 0121/0221 25015KT 9999 SCT040"
    },
    {
      "icao": "ENAL",
      "alert": "OK",
      "vis_m": 9999,
      "fzfg": false,
      "metar_trigger": false,
      "taf_trigger": false,
      "metar": "METAR ENAL 012250Z AUTO 05023KT 9999 -SN OVC020/// M01/M04 Q0991",
      "taf": "TAF ENAL 012000Z 0121/0206 06025KT 9999 SCT030"
    },
    {
      "icao": "ENBR",
      "alert": "OK",
      "vis_m": 9999,
      "fzfg": false,
      "metar_trigger": false,
      "taf_trigger": false,
      "metar": "METAR ENBR 012250Z 35010KT 320V020 CAVOK 00/M04 Q0983 RMK WIND 1200FT 01020G30KT",
      "taf": "TAF ENBR 011700Z 0118/0218 35012KT 9999 FEW010 SCT050"
    },
    {
      "icao": "ENGM",
      "alert": "OK",
      "vis_m": 2000,
      "fzfg": false,
      "metar_trigger": false,
      "taf_trigger": false,
      "metar": "METAR ENGM 012250Z 01016KT 2000 -SN FEW008 BKN010 OVC016 M03/M04 Q0976",
      "taf": "TAF ENGM 011700Z 0118/0218 36012KT 9999 -SN BKN020"
    },
    {
      "icao": "ENHD",
      "alert": "OK",
      "vis_m": 9999,
      "fzfg": false,
      "metar_trigger": false,
      "taf_trigger": false,
      "metar": "METAR ENHD 012250Z AUTO 36023KT 9999 NCD 03/M02 Q0981",
      "taf": "TAF ENHD 011400Z 0115/0123 34020KT 9999 FEW020 SCT040"
    },
    {
      "icao": "ENTC",
      "alert": "OK",
      "vis_m": 9999,
      "fzfg": false,
      "metar_trigger": false,
      "taf_trigger": false,
      "metar": "METAR ENTC 012250Z 24010KT 210V290 9999 FEW015 M10/M13 Q1000 RMK WIND 2600FT 22005KT",
      "taf": ""
    },
    {
      "icao": "ENTO",
      "alert": "OK",
      "vis_m": 9999,
      "fzfg": false,
      "metar_trigger": false,
      "taf_trigger": false,
      "metar": "METAR ENTO 012250Z AUTO 35012KT 9999 OVC025/// M02/M06 Q0975",
      "taf": "TAF ENTO 011700Z 0118/0218 35008KT 9999 SCT020"
    },
    {
      "icao": "ENVA",
      "alert": "OK",
      "vis_m": 5000,
      "fzfg": false,
      "metar_trigger": false,
      "taf_trigger": false,
      "metar": "METAR ENVA 012250Z 07008KT 5000 -SN BKN031 M04/M06 Q0989 RMK WIND 670FT 08008KT",
      "taf": "TAF ENVA 011700Z 0118/0218 09008KT 9999 -SN SCT009 BKN020"
    },
    {
      "icao": "ENZV",
      "alert": "OK",
      "vis_m": 9999,
      "fzfg": false,
      "metar_trigger": false,
      "taf_trigger": false,
      "metar": "METAR ENZV 012250Z 35015KT CAVOK 03/M01 Q0980",
      "taf": "TAF ENZV 011700Z 0118/0218 34018KT 9999 FEW020"
    },
    {
      "icao": "EPGD",
      "alert": "OK",
      "vis_m": 9999,
      "fzfg": false,
      "metar_trigger": false,
      "taf_trigger": false,
      "metar": "METAR EPGD 012300Z 23019KT 9999 BKN014 01/M00 Q0982",
      "taf": "TAF EPGD 011730Z 0118/0218 23014KT 7000 -SN BKN014"
    },
    {
      "icao": "EPKK",
      "alert": "OK",
      "vis_m": 9999,
      "fzfg": false,
      "metar_trigger": false,
      "taf_trigger": false,
      "metar": "METAR EPKK 012300Z 24012KT 9999 BKN039 02/M05 Q0998",
      "taf": "TAF EPKK 012030Z 0121/0221 23015KT 9999 BKN040"
    },
    {
      "icao": "EPKT",
      "alert": "OK",
      "vis_m": 9999,
      "fzfg": false,
      "metar_trigger": false,
      "taf_trigger": false,
      "metar": "METAR EPKT 012300Z 21018KT 9999 SCT029 OVC033 01/M05 Q0997",
      "taf": "TAF EPKT 011730Z 0118/0218 24012KT 9999 BKN030"
    },
    {
      "icao": "EPLB",
      "alert": "OK",
      "vis_m": 9999,
      "fzfg": false,
      "metar_trigger": false,
      "taf_trigger": false,
      "metar": "METAR EPLB 012300Z 23017KT 9999 BKN035 01/M03 Q0995",
      "taf": "TAF EPLB 011730Z 0118/0218 22015KT 9999 OVC020"
    },
    {
      "icao": "EPMO",
      "alert": "OK",
      "vis_m": 9999,
      "fzfg": false,
      "metar_trigger": false,
      "taf_trigger": false,
      "metar": "METAR EPMO 012300Z 22017KT 9999 FEW022 BKN031 02/M01 Q0990",
      "taf": "TAF EPMO 011730Z 0118/0218 23012KT 9999 BKN025"
    },
    {
      "icao": "EPPO",
      "alert": "OK",
      "vis_m": 9999,
      "fzfg": false,
      "metar_trigger": false,
      "taf_trigger": false,
      "metar": "METAR EPPO 012300Z 24014KT 9999 BKN023 03/M02 Q0989",
      "taf": "TAF EPPO 011730Z 0118/0218 24015G25KT 9999 OVC021"
    },
    {
      "icao": "EPRA",
      "alert": "OK",
      "vis_m": 9999,
      "fzfg": false,
      "metar_trigger": false,
      "taf_trigger": false,
      "metar": "METAR EPRA 012300Z 24016KT 9999 -RA BKN035 01/M03 Q0994",
      "taf": "TAF EPRA 012030Z 0121/0206 22015KT 9999 BKN030"
    },
    {
      "icao": "EPRZ",
      "alert": "OK",
      "vis_m": 9999,
      "fzfg": false,
      "metar_trigger": false,
      "taf_trigger": false,
      "metar": "METAR EPRZ 012300Z 20014KT CAVOK 01/M04 Q0998",
      "taf": "TAF EPRZ 011730Z 0118/0218 20012KT 9999 BKN020"
    },
    {
      "icao": "EPSC",
      "alert": "OK",
      "vis_m": 9999,
      "fzfg": false,
      "metar_trigger": false,
      "taf_trigger": false,
      "metar": "METAR EPSC 012300Z 22010KT 190V250 9999 FEW009 BKN010 BKN013 02/01 Q0986",
      "taf": "TAF EPSC 011730Z 0118/0218 23012KT 9999 -RA BKN018"
    },
    {
      "icao": "EPSY",
      "alert": "OK",
      "vis_m": 5000,
      "fzfg": false,
      "metar_trigger": false,
      "taf_trigger": false,
      "metar": "METAR EPSY 012300Z 22014G24KT 5000 -RASN BR FEW002 OVC006 00/M00 Q0986",
      "taf": "TAF EPSY 012030Z 0121/0206 22014KT 4000 -SNRA BR OVC005"
    },
    {
      "icao": "EPWA",
      "alert": "OK",
      "vis_m": 9999,
      "fzfg": false,
      "metar_trigger": false,
      "taf_trigger": false,
      "metar": "METAR EPWA 012300Z 23015KT 9999 -SN BKN027 02/M02 Q0991 NOSIG",
      "taf": "TAF EPWA 012030Z 0121/0221 23012G25KT 9999 BKN022"
    },
    {
      "icao": "EPWR",
      "alert": "OK",
      "vis_m": 9999,
      "fzfg": false,
      "metar_trigger": false,
      "taf_trigger": false,
      "metar": "METAR EPWR 012300Z 23011KT 9999 FEW037 OVC042 02/M02 Q0994",
      "taf": "TAF EPWR 012030Z 0121/0221 24013KT 9999 OVC035"
    },
    {
      "icao": "ESGG",
      "alert": "OK",
      "vis_m": 2000,
      "fzfg": false,
      "metar_trigger": false,
      "taf_trigger": false,
      "metar": "METAR ESGG 012320Z 01007KT 2000 -SN VV008 M01/M01 Q0972",
      "taf": "TAF ESGG 012030Z 0121/0221 10005KT 7000 -SN BKN017"
    },
    {
      "icao": "ESKN",
      "alert": "OK",
      "vis_m": 750,
      "fzfg": true,
      "metar_trigger": false,
      "taf_trigger": false,
      "metar": "METAR ESKN 012320Z VRB02KT 0750 R08/P2000N R26/P2000N -SN FZFG OVC002 M00/M00 Q0973",
      "taf": "TAF ESKN 012030Z 0121/0221 08004KT 9999 SCT025"
    },
    {
      "icao": "ESMS",
      "alert": "OK",
      "vis_m": 9000,
      "fzfg": false,
      "metar_trigger": false,
      "taf_trigger": false,
      "metar": "METAR ESMS 012320Z 23017KT 9000 SCT017 03/01 Q0977",
      "taf": "TAF ESMS 012027Z 0121/0221 27015KT 9999 FEW010 BKN015"
    },
    {
      "icao": "ESSA",
      "alert": "OK",
      "vis_m": 1600,
      "fzfg": false,
      "metar_trigger": false,
      "taf_trigger": false,
      "metar": "METAR ESSA 012320Z 05011KT 1600 R01L/P2000N R19R/P2000N R01R/P2000N R19L/P2000N SN VV006 M01/M01 Q0974 TEMPO 2000 SN",
      "taf": ""
    },
    {
      "icao": "EYKA",
      "alert": "OK",
      "vis_m": 1500,
      "fzfg": false,
      "metar_trigger": false,
      "taf_trigger": false,
      "metar": "METAR EYKA 012320Z 20008KT 160V250 1500 -SNRA BR BKN004 OVC008 M00/M00 Q0984",
      "taf": "TAF EYKA 012313Z 0200/0224 21012KT 5000 SNRA BR OVC010"
    },
    {
      "icao": "EYPA",
      "alert": "OK",
      "vis_m": 9999,
      "fzfg": false,
      "metar_trigger": false,
      "taf_trigger": false,
      "metar": "METAR EYPA 012320Z 23010G20KT 180V290 9999 -SHRASN BKN014CB 02/01 Q0979",
      "taf": "TAF EYPA 012310Z 0200/0224 23009G19KT 5000 SHRASN SCT010 SCT012CB BKN015"
    },
    {
      "icao": "EYVI",
      "alert": "OK",
      "vis_m": 1200,
      "fzfg": false,
      "metar_trigger": false,
      "taf_trigger": false,
      "metar": "METAR EYVI 012320Z 17010KT 1200 R19/P2000N SN OVC007 M03/M04 Q0985 NOSIG",
      "taf": "TAF EYVI 011727Z 0118/0218 17017KT 1500 SN OVC010"
    },
    {
      "icao": "GCFV",
      "alert": "OK",
      "vis_m": 9999,
      "fzfg": false,
      "metar_trigger": false,
      "taf_trigger": false,
      "metar": "METAR GCFV 012300Z 22012G22KT 9999 FEW020 20/16 Q1009",
      "taf": "TAF GCFV 012000Z 0121/0221 20012KT 9999 FEW025 TX23/0214Z TN17/0206Z"
    },
    {
      "icao": "GCLP",
      "alert": "OK",
      "vis_m": 9999,
      "fzfg": false,
      "metar_trigger": false,
      "taf_trigger": false,
      "metar": "METAR GCLP 012300Z 21018KT 9999 FEW030 SCT040 19/15 Q1008 NOSIG",
      "taf": "TAF GCLP 012000Z 0121/0221 20013KT 9999 SCT030 BKN040 TX23/0214Z TN17/0206Z"
    },
    {
      "icao": "GCTS",
      "alert": "OK",
      "vis_m": 9999,
      "fzfg": false,
      "metar_trigger": false,
      "taf_trigger": false,
      "metar": "METAR GCTS 012300Z 27006KT 9999 SCT025 18/16 Q1009 NOSIG",
      "taf": "TAF GCTS 012000Z 0121/0221 27012KT 9999 SCT015 BKN040 TX25/0214Z TN18/0206Z"
    },
    {
      "icao": "GMAD",
      "alert": "OK",
      "vis_m": 9999,
      "fzfg": false,
      "metar_trigger": false,
      "taf_trigger": false,
      "metar": "METAR GMAD 012300Z 04006KT 360V060 CAVOK 16/09 Q1011 NOSIG",
      "taf": "TAF GMAD 012300Z 0200/0306 07006KT CAVOK"
    },
    {
      "icao": "GMMN",
      "alert": "OK",
      "vis_m": 9999,
      "fzfg": false,
      "metar_trigger": false,
      "taf_trigger": false,
      "metar": "METAR GMMN 012300Z 14006KT CAVOK 12/10 Q1010 NOSIG",
      "taf": "TAF GMMN 012300Z 0200/0306 14006KT CAVOK"
    },
    {
      "icao": "GMMX",
      "alert": "OK",
      "vis_m": 9999,
      "fzfg": false,
      "metar_trigger": false,
      "taf_trigger": false,
      "metar": "METAR GMMX 012300Z VRB07G18KT CAVOK 20/06 Q1011 NOSIG",
      "taf": "TAF GMMX 011700Z 0118/0224 06006KT 8000 SCT020 SCT090"
    },
    {
      "icao": "HEGN",
      "alert": "OK",
      "vis_m": 9999,
      "fzfg": false,
      "metar_trigger": false,
      "taf_trigger": false,
      "metar": "METAR HEGN 012300Z 29006KT CAVOK 16/05 Q1018 NOSIG",
      "taf": "TAF HEGN 012300Z 0200/0306 29008KT CAVOK"
    },
    {
      "icao": "HEMA",
      "alert": "OK",
      "vis_m": 9999,
      "fzfg": false,
      "metar_trigger": false,
      "taf_trigger": false,
      "metar": "METAR HEMA 012300Z 29008KT CAVOK 18/10 Q1016 NOSIG",
      "taf": "TAF HEMA 012300Z 0200/0306 26008KT CAVOK"
    },
    {
      "icao": "HESH",
      "alert": "OK",
      "vis_m": 9999,
      "fzfg": false,
      "metar_trigger": false,
      "taf_trigger": false,
      "metar": "METAR HESH 012300Z 25003KT CAVOK 19/M02 Q1016 NOSIG",
      "taf": "TAF HESH 012300Z 0200/0306 31008KT CAVOK"
    },
    {
      "icao": "HESX",
      "alert": "OK",
      "vis_m": 9999,
      "fzfg": false,
      "metar_trigger": false,
      "taf_trigger": false,
      "metar": "METAR HESX 012300Z 21004KT CAVOK 11/04 Q1018 NOSIG",
      "taf": "TAF HESX 012300Z 0200/0306 27008KT 6000 FEW025"
    },
    {
      "icao": "LATI",
      "alert": "OK",
      "vis_m": 9999,
      "fzfg": false,
      "metar_trigger": false,
      "taf_trigger": false,
      "metar": "METAR LATI 012320Z 18006KT CAVOK M02/M09 Q1021 NOSIG",
      "taf": "TAF LATI 012300Z 0200/0224 VRB05KT CAVOK TX11/0212Z TNM00/0203Z"
    },
    {
      "icao": "LBPD",
      "alert": "OK",
      "vis_m": 9999,
      "fzfg": false,
      "metar_trigger": false,
      "taf_trigger": false,
      "metar": "METAR LBPD 012300Z AUTO 30003KT 9999 NCD M06/M09 Q1019",
      "taf": "TAF LBPD 012300Z 0200/0224 VRB03KT 9999 SCT070"
    },
    {
      "icao": "LBSF",
      "alert": "OK",
      "vis_m": 9999,
      "fzfg": false,
      "metar_trigger": false,
      "taf_trigger": false,
      "metar": "METAR LBSF 012300Z AUTO VRB02KT 9999 NCD M09/M11 Q1017 NOSIG",
      "taf": "TAF LBSF 012300Z 0200/0224 VRB03KT 9999 SCT040"
    },
    {
      "icao": "LBWN",
      "alert": "OK",
      "vis_m": 9999,
      "fzfg": false,
      "metar_trigger": false,
      "taf_trigger": false,
      "metar": "METAR LBWN 012300Z AUTO 01005KT 9999 NCD M04/M10 Q1019 NOSIG",
      "taf": "TAF LBWN 012300Z 0200/0224 VRB03KT CAVOK"
    },
    {
      "icao": "LCLK",
      "alert": "OK",
      "vis_m": 9999,
      "fzfg": false,
      "metar_trigger": false,
      "taf_trigger": false,
      "metar": "METAR LCLK 012300Z 36012KT 9999 SCT040 09/03 Q1017 NOSIG",
      "taf": "TAF LCLK 011730Z 0118/0218 29012KT 9999 FEW025 SCT050"
    },
    {
      "icao": "LCPH",
      "alert": "OK",
      "vis_m": 9999,
      "fzfg": false,
      "metar_trigger": false,
      "taf_trigger": false,
      "metar": "METAR LCPH 012300Z 02007KT 010V080 9999 BKN050 09/02 Q1017 NOSIG",
      "taf": "TAF LCPH 011730Z 0118/0218 33015KT 9999 FEW025 SCT040"
    },
    {
      "icao": "LEAL",
      "alert": "OK",
      "vis_m": 9999,
      "fzfg": false,
      "metar_trigger": false,
      "taf_trigger": false,
      "metar": "METAR LEAL 012300Z 30004KT CAVOK 12/09 Q1016 NOSIG",
      "taf": "TAF LEAL 012300Z 0200/0224 26004KT 9999 FEW030 TX16/0214Z TN08/0206Z"
    },
    {
      "icao": "LEBB",
      "alert": "OK",
      "vis_m": 9999,
      "fzfg": false,
      "metar_trigger": false,
      "taf_trigger": false,
      "metar": "METAR LEBB 012300Z AUTO 12006KT 080V140 CAVOK 06/02 Q1013",
      "taf": "TAF LEBB 012300Z 0200/0224 12006KT 9999 FEW070 TX12/0214Z TN05/0200Z"
    },
    {
      "icao": "LEBL",
      "alert": "OK",
      "vis_m": 9999,
      "fzfg": false,
      "metar_trigger": false,
      "taf_trigger": false,
      "metar": "METAR LEBL 012300Z 34007KT CAVOK 07/04 Q1014 NOSIG",
      "taf": "TAF LEBL 012300Z 0200/0224 34006KT 9999 FEW015 TX15/0212Z TN05/0206Z"
    },
    {
      "icao": "LECH",
      "alert": "OK",
      "vis_m": 7000,
      "fzfg": false,
      "metar_trigger": false,
      "taf_trigger": false,
      "metar": "METAR LECH 012300Z AUTO 04004KT 7000 NSC 05/04 Q1014",
      "taf": ""
    },
    {
      "icao": "LEMD",
      "alert": "OK",
      "vis_m": 9999,
      "fzfg": false,
      "metar_trigger": false,
      "taf_trigger": false,
      "metar": "METAR LEMD 012300Z VRB02KT 9999 BKN025 BKN036 04/03 Q1015 NOSIG",
      "taf": "TAF LEMD 012300Z 0200/0306 VRB03KT 9999 SCT025 TX11/0215Z TN04/0208Z"
    },
    {
      "icao": "LEMG",
      "alert": "OK",
      "vis_m": 9999,
      "fzfg": false,
      "metar_trigger": false,
      "taf_trigger": false,
      "metar": "METAR LEMG 012300Z VRB02KT 9999 FEW020 SCT029 OVC034 13/12 Q1016 NOSIG",
      "taf": "TAF LEMG 012300Z 0200/0224 29004KT 9999 SCT020 TX16/0214Z TN09/0207Z"
    },
    {
      "icao": "LEVC",
      "alert": "OK",
      "vis_m": 9999,
      "fzfg": false,
      "metar_trigger": false,
      "taf_trigger": false,
      "metar": "METAR LEVC 012300Z 29004KT CAVOK 08/06 Q1014 NOSIG",
      "taf": "TAF LEVC 012300Z 0200/0224 26006KT 9999 FEW035 TX17/0214Z TN07/0206Z"
    },
    {
      "icao": "LEXJ",
      "alert": "OK",
      "vis_m": 5000,
      "fzfg": false,
      "metar_trigger": false,
      "taf_trigger": false,
      "metar": "METAR LEXJ 012300Z AUTO VRB01KT 5000 BR NSC 05/03 Q1012",
      "taf": "TAF LEXJ 012000Z 0121/0221 10007KT 9999 FEW070 TX12/0213Z TN07/0121Z"
    },
    {
      "icao": "LEZG",
      "alert": "OK",
      "vis_m": 8000,
      "fzfg": false,
      "metar_trigger": false,
      "taf_trigger": false,
      "metar": "METAR LEZG 012300Z 23004KT 8000 OVC006 03/03 Q1016 NOSIG",
      "taf": "TAF LEZG 012300Z 0200/0224 05004KT 4000 BR OVC005 TX07/0215Z TN01/0203Z"
    },
    {
      "icao": "LEZL",
      "alert": "OK",
      "vis_m": 9999,
      "fzfg": false,
      "metar_trigger": false,
      "taf_trigger": false,
      "metar": "METAR LEZL 012300Z 06004KT 020V100 CAVOK 12/11 Q1012 NOSIG",
      "taf": "TAF LEZL 012000Z 0121/0221 05007KT 9999 FEW040 TX18/0215Z TN09/0207Z"
    },
    {
      "icao": "LFBD",
      "alert": "OK",
      "vis_m": 1900,
      "fzfg": true,
      "metar_trigger": false,
      "taf_trigger": false,
      "metar": "METAR LFBD 012300Z AUTO 11005KT 1900 1300 R23/2200D R05/2200U R29/1700D BR VV/// 00/00 Q1015 TEMPO 0300 FZFG",
      "taf": "TAF LFBD 012300Z 0200/0306 VRB03KT 1500 BR OVC002 TX05/0215Z TNM03/0208Z"
    },
    {
      "icao": "LFLL",
      "alert": "OK",
      "vis_m": 5000,
      "fzfg": false,
      "metar_trigger": false,
      "taf_trigger": false,
      "metar": "METAR LFLL 012300Z 22004KT 5000 BR NSC M03/M04 Q1012 NOSIG",
      "taf": ""
    },
    {
      "icao": "LFLS",
      "alert": "OK",
      "vis_m": 9999,
      "fzfg": false,
      "metar_trigger": false,
      "taf_trigger": false,
      "metar": "METAR LFLS 012300Z AUTO 10006KT CAVOK M03/M05 Q1011",
      "taf": "TAF LFLS 011400Z 0115/0215 VRB03KT CAVOK"
    },
    {
      "icao": "LFMN",
      "alert": "OK",
      "vis_m": 9999,
      "fzfg": false,
      "metar_trigger": false,
      "taf_trigger": false,
      "metar": "METAR LFMN 012300Z 33010KT 9999 FEW043 BKN060 06/M01 Q1011 NOSIG",
      "taf": "TAF LFMN 012000Z 0121/0303 33010KT 9999 FEW060"
    },
    {
      "icao": "LFOB",
      "alert": "OK",
      "vis_m": 9999,
      "fzfg": false,
      "metar_trigger": false,
      "taf_trigger": false,
      "metar": "METAR LFOB 012300Z AUTO 26007KT 9999 OVC007 03/02 Q1008 NOSIG",
      "taf": "TAF LFOB 012300Z 0200/0224 24009KT 9999 BKN025"
    },
    {
      "icao": "LFPO",
      "alert": "OK",
      "vis_m": 9999,
      "fzfg": false,
      "metar_trigger": false,
      "taf_trigger": false,
      "metar": "METAR LFPO 012300Z AUTO 25010KT 9999 FEW010/// SCT026/// BKN036/// ///TCU 02/01 Q1009 TEMPO BKN006",
      "taf": "TAF LFPO 012300Z 0200/0306 25010KT 9999 BKN030"
    },
    {
      "icao": "LFSB",
      "alert": "OK",
      "vis_m": 9999,
      "fzfg": false,
      "metar_trigger": false,
      "taf_trigger": false,
      "metar": "METAR LFSB 012300Z AUTO 09005KT CAVOK M04/M07 Q1010 NOSIG",
      "taf": "TAF LFSB 012300Z 0200/0224 27005KT 9999 FEW035"
    },
    {
      "icao": "LGAV",
      "alert": "OK",
      "vis_m": 9999,
      "fzfg": false,
      "metar_trigger": false,
      "taf_trigger": false,
      "metar": "METAR LGAV 012250Z 26004KT CAVOK M03/M06 Q1024 NOSIG",
      "taf": "TAF LGAV 012300Z 0200/0224 VRB05KT 9999 FEW025"
    },
    {
      "icao": "LGTS",
      "alert": "OK",
      "vis_m": 9999,
      "fzfg": false,
      "metar_trigger": false,
      "taf_trigger": false,
      "metar": "METAR LGTS 012250Z 11004KT CAVOK M01/M07 Q1023 NOSIG",
      "taf": "TAF LGTS 012300Z 0200/0224 VRB03KT 9999 FEW030"
    },
    {
      "icao": "LHBP",
      "alert": "OK",
      "vis_m": 9999,
      "fzfg": false,
      "metar_trigger": false,
      "taf_trigger": false,
      "metar": "METAR LHBP 012300Z 12004KT CAVOK M02/M04 Q1005 NOSIG",
      "taf": "TAF LHBP 012315Z 0200/0224 16005KT CAVOK"
    },
    {
      "icao": "LHDC",
      "alert": "OK",
      "vis_m": 9999,
      "fzfg": false,
      "metar_trigger": false,
      "taf_trigger": false,
      "metar": "METAR LHDC 012245Z AUTO 19017KT CAVOK M00/M05 Q1007",
      "taf": "TAF LHDC 011415Z 0115/0124 18014KT 8000 SN BKN005 BKN025"
    },
    {
      "icao": "LIBD",
      "alert": "OK",
      "vis_m": 9999,
      "fzfg": false,
      "metar_trigger": false,
      "taf_trigger": false,
      "metar": "METAR LIBD 012250Z 19007KT CAVOK 06/M03 Q1017",
      "taf": "TAF LIBD 012300Z 0200/0224 20015KT CAVOK"
    },
    {
      "icao": "LIBG",
      "alert": "OK",
      "vis_m": null,
      "fzfg": false,
      "metar_trigger": false,
      "taf_trigger": false,
      "metar": "",
      "taf": "TAF LIBG 011700Z 0118/0203 VRB05KT CAVOK"
    },
    {
      "icao": "LIBP",
      "alert": "OK",
      "vis_m": 9999,
      "fzfg": false,
      "metar_trigger": false,
      "taf_trigger": false,
      "metar": "METAR LIBP 012250Z AUTO 22024KT 9999 NCD 13/01 Q1012",
      "taf": "TAF LIBP 012300Z 0200/0224 22020KT CAVOK"
    },
    {
      "icao": "LIBR",
      "alert": "OK",
      "vis_m": 9999,
      "fzfg": false,
      "metar_trigger": false,
      "taf_trigger": false,
      "metar": "METAR LIBR 012250Z 17008KT CAVOK 04/00 Q1019",
      "taf": "TAF LIBR 012300Z 0200/0224 20012KT CAVOK"
    },
    {
      "icao": "LICA",
      "alert": "OK",
      "vis_m": 9999,
      "fzfg": false,
      "metar_trigger": false,
      "taf_trigger": false,
      "metar": "METAR LICA 012250Z AUTO 07006KT 9999 SCT100/// 03/02 Q1021",
      "taf": "TAF LICA 012300Z 0200/0224 07012KT 9999 SCT050"
    },
    {
      "icao": "LICC",
      "alert": "OK",
      "vis_m": 9999,
      "fzfg": false,
      "metar_trigger": false,
      "taf_trigger": false,
      "metar": "METAR LICC 012250Z 25004KT 9999 SCT070 07/04 Q1022",
      "taf": "TAF LICC 012300Z 0200/0224 25010KT 9999 SCT030"
    },
    {
      "icao": "LICJ",
      "alert": "OK",
      "vis_m": 9999,
      "fzfg": false,
      "metar_trigger": false,
      "taf_trigger": false,
      "metar": "METAR LICJ 012250Z 19015KT CAVOK 13/09 Q1019",
      "taf": "TAF LICJ 012300Z 0200/0224 19018G30KT 9999 SCT030"
    },
    {
      "icao": "LIMC",
      "alert": "OK",
      "vis_m": 9999,
      "fzfg": false,
      "metar_trigger": false,
      "taf_trigger": false,
      "metar": "METAR LIMC 012250Z 24003KT 9999 OVC050 03/00 Q1011 NOSIG",
      "taf": "TAF LIMC 012300Z 0200/0306 VRB04KT 7000 BKN040"
    },
    {
      "icao": "LIME",
      "alert": "OK",
      "vis_m": 2000,
      "fzfg": false,
      "metar_trigger": false,
      "taf_trigger": false,
      "metar": "METAR LIME 012250Z VRB02KT 2000 -DZ BR BKN040 02/01 Q1011 NOSIG",
      "taf": "TAF LIME 012300Z 0200/0224 VRB04KT 3000 BR BKN040"
    },
    {
      "icao": "LIMF",
      "alert": "OK",
      "vis_m": 3500,
      "fzfg": false,
      "metar_trigger": false,
      "taf_trigger": false,
      "metar": "METAR LIMF 012250Z 26005KT 220V280 3500 BR BKN035 01/M01 Q1011",
      "taf": "TAF LIMF 012300Z 0200/0224 VRB04KT 3000 BR BKN040"
    },
    {
      "icao": "LIMJ",
      "alert": "OK",
      "vis_m": 9999,
      "fzfg": false,
      "metar_trigger": false,
      "taf_trigger": false,
      "metar": "METAR LIMJ 012250Z 16010KT 9999 BKN045 12/05 Q1010",
      "taf": "TAF LIMJ 012300Z 0200/0224 VRB05KT 9999 SCT025"
    },
    {
      "icao": "LIPE",
      "alert": "OK",
      "vis_m": 3000,
      "fzfg": false,
      "metar_trigger": false,
      "taf_trigger": false,
      "metar": "METAR LIPE 012250Z 26003KT 3000 BR BKN010 02/01 Q1012",
      "taf": "TAF LIPE 012300Z 0200/0224 VRB05KT 9999 SCT010 BKN050"
    },
    {
      "icao": "LIPH",
      "alert": "OK",
      "vis_m": 9999,
      "fzfg": false,
      "metar_trigger": false,
      "taf_trigger": false,
      "metar": "METAR LIPH 012250Z AUTO 28002KT 9999 OVC031/// 02/M01 Q1011",
      "taf": "TAF LIPH 012300Z 0200/0224 VRB04KT 9999 OVC030"
    },
    {
      "icao": "LIPQ",
      "alert": "OK",
      "vis_m": 9999,
      "fzfg": false,
      "metar_trigger": false,
      "taf_trigger": false,
      "metar": "METAR LIPQ 012250Z AUTO VRB01KT 9999 BKN027/// OVC047/// 03/01 Q1011",
      "taf": "TAF LIPQ 012300Z 0200/0224 VRB05KT 9999 FEW030"
    },
    {
      "icao": "LIPR",
      "alert": "OK",
      "vis_m": 9999,
      "fzfg": false,
      "metar_trigger": false,
      "taf_trigger": false,
      "metar": "METAR LIPR 012250Z AUTO 16006KT 9999 FEW077/// 07/03 Q1011",
      "taf": "TAF LIPR 012300Z 0200/0224 18010KT CAVOK"
    },
    {
      "icao": "LIPX",
      "alert": "OK",
      "vis_m": 6000,
      "fzfg": false,
      "metar_trigger": false,
      "taf_trigger": false,
      "metar": "METAR LIPX 012250Z VRB02KT 6000 BKN060 01/00 Q1011",
      "taf": "TAF LIPX 012300Z 0200/0224 VRB04KT 6000 BKN040"
    },
    {
      "icao": "LIPY",
      "alert": "OK",
      "vis_m": 9999,
      "fzfg": false,
      "metar_trigger": false,
      "taf_trigger": false,
      "metar": "METAR LIPY 012250Z AUTO 21003KT 150V240 9999 OVC036/// 07/03 Q1013",
      "taf": "TAF LIPY 012300Z 0200/0224 VRB05KT 9999 OVC030"
    },
    {
      "icao": "LIPZ",
      "alert": "OK",
      "vis_m": 9999,
      "fzfg": false,
      "metar_trigger": false,
      "taf_trigger": false,
      "metar": "METAR LIPZ 012250Z VRB02KT 9999 SCT040 BKN060 03/M03 Q1011 NOSIG",
      "taf": "TAF LIPZ 012300Z 0200/0306 VRB05KT 9999 BKN030"
    },
    {
      "icao": "LIRF",
      "alert": "OK",
      "vis_m": 9999,
      "fzfg": false,
      "metar_trigger": false,
      "taf_trigger": false,
      "metar": "METAR LIRF 012250Z 08005KT 9999 RA FEW020 SCT045 09/07 Q1015 WS R16L NOSIG",
      "taf": "TAF LIRF 012300Z 0200/0306 14010KT 9999 BKN030"
    },
    {
      "icao": "LIRN",
      "alert": "OK",
      "vis_m": 9999,
      "fzfg": false,
      "metar_trigger": false,
      "taf_trigger": false,
      "metar": "METAR LIRN 012250Z 20005KT 170V230 9999 FEW050 09/04 Q1017 NOSIG",
      "taf": "TAF LIRN 012300Z 0200/0224 VRB05KT 9999 SCT040"
    },
    {
      "icao": "LIRP",
      "alert": "OK",
      "vis_m": 7000,
      "fzfg": false,
      "metar_trigger": false,
      "taf_trigger": false,
      "metar": "METAR LIRP 012245Z VRB03KT 7000 -RA SCT015 BKN030 06/05 Q1013 NOSIG",
      "taf": "TAF LIRP 012300Z 0200/0224 10006KT 9999 FEW040 BKN060"
    },
    {
      "icao": "LIRZ",
      "alert": "OK",
      "vis_m": 5000,
      "fzfg": false,
      "metar_trigger": false,
      "taf_trigger": false,
      "metar": "METAR LIRZ 012250Z AUTO VRB01KT 5000 -RA OVC018/// 05/04 Q1015",
      "taf": "TAF LIRZ 012300Z 0200/0224 19012KT 9999 BKN040"
    },
    {
      "icao": "LJLJ",
      "alert": "OK",
      "vis_m": 9999,
      "fzfg": false,
      "metar_trigger": false,
      "taf_trigger": false,
      "metar": "METAR LJLJ 012300Z 26006KT 220V310 9999 OVC028 02/M01 Q1008 NOSIG",
      "taf": "TAF LJLJ 012300Z 0200/0300 30004KT 9999 OVC030"
    },
    {
      "icao": "LKMT",
      "alert": "OK",
      "vis_m": 9999,
      "fzfg": false,
      "metar_trigger": false,
      "taf_trigger": false,
      "metar": "METAR LKMT 012300Z 22018KT 9999 OVC039 01/M05 Q0999 NOSIG",
      "taf": "TAF LKMT 012300Z 0200/0224 21018KT 9999 SCT040"
    },
    {
      "icao": "LKPR",
      "alert": "OK",
      "vis_m": 9999,
      "fzfg": false,
      "metar_trigger": false,
      "taf_trigger": false,
      "metar": "METAR LKPR 012300Z 21019KT 9999 OVC022 00/M03 Q0997 NOSIG",
      "taf": "TAF LKPR 012300Z 0200/0306 22018KT 9999 BKN020"
    },
    {
      "icao": "LLBG",
      "alert": "OK",
      "vis_m": 9999,
      "fzfg": false,
      "metar_trigger": false,
      "taf_trigger": false,
      "metar": "METAR LLBG 012320Z 14004KT 9999 BKN029 14/13 Q1017 RERA TEMPO 6000 RA",
      "taf": "TAF LLBG 012313Z 0200/0224 17006KT 9999 BKN030"
    },
    {
      "icao": "LMML",
      "alert": "OK",
      "vis_m": 9999,
      "fzfg": false,
      "metar_trigger": false,
      "taf_trigger": false,
      "metar": "METAR LMML 012315Z VRB01KT 9999 FEW017 12/11 Q1021 RERA NOSIG",
      "taf": "TAF LMML 012300Z 0200/0224 14010KT 9999 SCT025"
    },
    {
      "icao": "LOWW",
      "alert": "OK",
      "vis_m": 9999,
      "fzfg": false,
      "metar_trigger": false,
      "taf_trigger": false,
      "metar": "METAR LOWW 012320Z 30013KT CAVOK 04/M08 Q1003 NOSIG",
      "taf": "TAF LOWW 012315Z 0200/0306 27012KT CAVOK TX05/0212Z TN00/0200Z"
    },
    {
      "icao": "LPFR",
      "alert": "OK",
      "vis_m": 9999,
      "fzfg": false,
      "metar_trigger": false,
      "taf_trigger": false,
      "metar": "METAR LPFR 012300Z 12016KT 9999 FEW010 16/15 Q1009",
      "taf": "TAF LPFR 012300Z 0200/0224 13017KT 9999 FEW010 SCT020"
    },
    {
      "icao": "LPMA",
      "alert": "OK",
      "vis_m": 9999,
      "fzfg": false,
      "metar_trigger": false,
      "taf_trigger": false,
      "metar": "METAR LPMA 012300Z 23012KT 9999 SCT013 FEW018TCU 17/14 Q1002",
      "taf": "TAF LPMA 012300Z 0200/0224 22015KT 9999 SCT013 SCT030"
    },
    {
      "icao": "LPPR",
      "alert": "OK",
      "vis_m": 9999,
      "fzfg": false,
      "metar_trigger": false,
      "taf_trigger": false,
      "metar": "METAR LPPR 012300Z 11014KT 9999 FEW036 12/08 Q1006",
      "taf": "TAF LPPR 012300Z 0200/0224 11013KT 9999 SCT040"
    },
    {
      "icao": "LPPS",
      "alert": "OK",
      "vis_m": 9999,
      "fzfg": false,
      "metar_trigger": false,
      "taf_trigger": false,
      "metar": "METAR LPPS 012300Z 24011KT 210V270 9999 FEW014 17/13 Q1002",
      "taf": "TAF LPPS 012300Z 0200/0306 27015KT 9999 SCT013 SCT030"
    },
    {
      "icao": "LPPT",
      "alert": "OK",
      "vis_m": 9999,
      "fzfg": false,
      "metar_trigger": false,
      "taf_trigger": false,
      "metar": "METAR LPPT 012300Z 12012KT 090V160 9999 BKN010 15/14 Q1005",
      "taf": "TAF LPPT 012300Z 0200/0306 14013KT 9999 SCT012 BKN025"
    },
    {
      "icao": "LQBK",
      "alert": "OK",
      "vis_m": 9999,
      "fzfg": false,
      "metar_trigger": false,
      "taf_trigger": false,
      "metar": "METAR LQBK 012300Z 17004KT CAVOK M01/M03 Q1009 NOSIG",
      "taf": "TAF LQBK 012300Z 0200/0224 15005KT CAVOK TX12/0213Z TNM01/0200Z"
    },
    {
      "icao": "LQSA",
      "alert": "OK",
      "vis_m": 9999,
      "fzfg": false,
      "metar_trigger": false,
      "taf_trigger": false,
      "metar": "METAR LQSA 012300Z 15010KT 110V180 9999 BKN050 03/M01 Q1013",
      "taf": "TAF LQSA 012300Z 0200/0224 VRB02KT CAVOK TX08/0213Z TNM01/0200Z"
    },
    {
      "icao": "LQTZ",
      "alert": "OK",
      "vis_m": 9999,
      "fzfg": false,
      "metar_trigger": false,
      "taf_trigger": false,
      "metar": "METAR LQTZ 012300Z VRB02KT 9999 FEW050 03/M04 Q1010",
      "taf": "TAF LQTZ 012300Z 0200/0224 14005KT CAVOK TX13/0213Z TN01/0200Z"
    },
    {
      "icao": "LRBC",
      "alert": "OK",
      "vis_m": 9999,
      "fzfg": false,
      "metar_trigger": false,
      "taf_trigger": false,
      "metar": "METAR LRBC 012300Z 18010KT CAVOK M04/M09 Q1010",
      "taf": "TAF LRBC 012000Z 0121/0206 17010KT CAVOK"
    },
    {
      "icao": "LRBS",
      "alert": "OK",
      "vis_m": 9999,
      "fzfg": false,
      "metar_trigger": false,
      "taf_trigger": false,
      "metar": "METAR LRBS 012300Z 26003KT CAVOK M04/M08 Q1016 NOSIG",
      "taf": "TAF LRBS 011700Z 0118/0218 25008KT CAVOK"
    },
    {
      "icao": "LRBV",
      "alert": "OK",
      "vis_m": 5000,
      "fzfg": false,
      "metar_trigger": false,
      "taf_trigger": false,
      "metar": "METAR LRBV 012300Z AUTO 19001KT 5000 BR NCD M10/M12 Q1011",
      "taf": "TAF LRBV 012000Z 0121/0206 VRB04KT 9999 SCT035 BKN050"
    },
    {
      "icao": "LRCL",
      "alert": "OK",
      "vis_m": 9999,
      "fzfg": false,
      "metar_trigger": false,
      "taf_trigger": false,
      "metar": "METAR LRCL 012300Z VRB02KT 9999 OVC060 M03/M06 Q1010",
      "taf": "TAF LRCL 012000Z 0121/0206 VRB04KT 9999 SCT040"
    },
    {
      "icao": "LRCV",
      "alert": "OK",
      "vis_m": 9999,
      "fzfg": false,
      "metar_trigger": false,
      "taf_trigger": false,
      "metar": "METAR LRCV 012300Z 02005KT CAVOK M05/M07 Q1015",
      "taf": "TAF LRCV 012000Z 0121/0206 VRB04KT CAVOK"
    },
    {
      "icao": "LRIA",
      "alert": "OK",
      "vis_m": 9999,
      "fzfg": false,
      "metar_trigger": false,
      "taf_trigger": false,
      "metar": "METAR LRIA 012300Z 17007KT CAVOK M01/M08 Q1009",
      "taf": "TAF LRIA 012000Z 0121/0206 20009KT CAVOK"
    },
    {
      "icao": "LROP",
      "alert": "OK",
      "vis_m": 9999,
      "fzfg": false,
      "metar_trigger": false,
      "taf_trigger": false,
      "metar": "METAR LROP 012300Z 24004KT CAVOK M05/M10 Q1016 NOSIG",
      "taf": "TAF LROP 011700Z 0118/0218 25007KT CAVOK"
    },
    {
      "icao": "LRSB",
      "alert": "OK",
      "vis_m": 9999,
      "fzfg": false,
      "metar_trigger": false,
      "taf_trigger": false,
      "metar": "METAR LRSB 012300Z 24003KT 170V320 9999 SCT058 M08/M09 Q1010",
      "taf": "TAF LRSB 011700Z 0118/0218 VRB04KT 9999 BKN045"
    },
    {
      "icao": "LRSM",
      "alert": "OK",
      "vis_m": 9999,
      "fzfg": false,
      "metar_trigger": false,
      "taf_trigger": false,
      "metar": "METAR LRSM 012300Z AUTO 18014KT 9999 OVC050/// 02/M04 Q1007",
      "taf": ""
    },
    {
      "icao": "LRSV",
      "alert": "OK",
      "vis_m": 9999,
      "fzfg": false,
      "metar_trigger": false,
      "taf_trigger": false,
      "metar": "METAR LRSV 012300Z 22014KT CAVOK M01/M06 Q1004",
      "taf": "TAF LRSV 012000Z 0121/0206 21012KT CAVOK"
    },
    {
      "icao": "LRTM",
      "alert": "OK",
      "vis_m": 9999,
      "fzfg": false,
      "metar_trigger": false,
      "taf_trigger": false,
      "metar": "METAR LRTM 012300Z AUTO 10003KT 070V140 9999 OVC055/// M03/M06 Q1011",
      "taf": "TAF LRTM 011400Z 0115/0124 21006KT 9999 BKN035"
    },
    {
      "icao": "LRTR",
      "alert": "OK",
      "vis_m": 9999,
      "fzfg": false,
      "metar_trigger": false,
      "taf_trigger": false,
      "metar": "METAR LRTR 012300Z 18014KT CAVOK 02/M07 Q1010 NOSIG",
      "taf": "TAF LRTR 011700Z 0118/0218 11009KT 9999 BKN045"
    },
    {
      "icao": "LTAC",
      "alert": "OK",
      "vis_m": 9999,
      "fzfg": false,
      "metar_trigger": false,
      "taf_trigger": false,
      "metar": "METAR LTAC 012250Z 02003KT CAVOK M12/M15 Q1020 NOSIG RMK RWY21C VRB02KT RWY03L 02002KT RWY21R VRB01KT RWY03R VRB01KT RWY21L 09004KT",
      "taf": "TAF LTAC 012240Z 0200/0224 VRB02KT CAVOK"
    },
    {
      "icao": "LTFM",
      "alert": "OK",
      "vis_m": 9999,
      "fzfg": false,
      "metar_trigger": false,
      "taf_trigger": false,
      "metar": "METAR LTFM 012250Z 18009KT CAVOK M03/M07 Q1022 NOSIG RMK RWY17L 19008KT RWY34L 20007KT RWY16R 21005KT RWY36 20007KT RWY18 20012KT",
      "taf": "TAF LTFM 012240Z 0200/0306 20008KT CAVOK"
    },
    {
      "icao": "LUKK",
      "alert": "OK",
      "vis_m": 9999,
      "fzfg": false,
      "metar_trigger": false,
      "taf_trigger": false,
      "metar": "METAR LUKK 012300Z 21007KT CAVOK M03/M09 Q1011 NOSIG",
      "taf": "TAF LUKK 012315Z 0200/0224 21010KT CAVOK"
    },
    {
      "icao": "LWOH",
      "alert": "OK",
      "vis_m": null,
      "fzfg": false,
      "metar_trigger": false,
      "taf_trigger": false,
      "metar": "",
      "taf": "TAF LWOH 012310Z 0200/0224 VRB03KT CAVOK"
    },
    {
      "icao": "LWSK",
      "alert": "OK",
      "vis_m": 9999,
      "fzfg": false,
      "metar_trigger": false,
      "taf_trigger": false,
      "metar": "METAR LWSK 012320Z VRB02KT CAVOK M09/M13 Q1021 NOSIG",
      "taf": "TAF LWSK 012310Z 0200/0224 VRB02KT CAVOK"
    },
    {
      "icao": "LYBE",
      "alert": "OK",
      "vis_m": 9999,
      "fzfg": false,
      "metar_trigger": false,
      "taf_trigger": false,
      "metar": "METAR LYBE 012300Z 16009KT CAVOK 05/M06 Q1011 NOSIG",
      "taf": "TAF LYBE 012300Z 0200/0224 17010KT CAVOK TX11/0212Z TN03/0200Z"
    },
    {
      "icao": "LYNI",
      "alert": "OK",
      "vis_m": 9999,
      "fzfg": false,
      "metar_trigger": false,
      "taf_trigger": false,
      "metar": "METAR LYNI 012300Z VRB02KT CAVOK M04/M10 Q1017 NOSIG",
      "taf": "TAF LYNI 012300Z 0200/0224 18007KT CAVOK TX09/0212Z TNM05/0200Z"
    },
    {
      "icao": "LYPG",
      "alert": "OK",
      "vis_m": 9999,
      "fzfg": false,
      "metar_trigger": false,
      "taf_trigger": false,
      "metar": "METAR LYPG 012300Z VRB02KT 9999 FEW040 SCT050 M02/M08 Q1022 NOSIG",
      "taf": "TAF LYPG 012300Z 0200/0224 36006KT 9999 FEW030 BKN040 TX06/0218Z TNM02/0200Z"
    },
    {
      "icao": "LZIB",
      "alert": "OK",
      "vis_m": 9999,
      "fzfg": false,
      "metar_trigger": false,
      "taf_trigger": false,
      "metar": "METAR LZIB 012300Z 21010KT CAVOK M00/M05 Q1003 NOSIG",
      "taf": "TAF LZIB 012315Z 0200/0300 27015KT CAVOK"
    },
    {
      "icao": "LZKZ",
      "alert": "OK",
      "vis_m": 9999,
      "fzfg": false,
      "metar_trigger": false,
      "taf_trigger": false,
      "metar": "METAR LZKZ 012300Z VRB02KT 9999 FEW013 SCT032 M02/M04 Q1004 NOSIG",
      "taf": "TAF LZKZ 012315Z 0200/0300 22009KT 9999 FEW013 SCT030"
    },
    {
      "icao": "LZTT",
      "alert": "OK",
      "vis_m": 9999,
      "fzfg": false,
      "metar_trigger": false,
      "taf_trigger": false,
      "metar": "METAR LZTT 012300Z 24012KT 9999 SCT053 M01/M06 Q0998",
      "taf": "TAF LZTT 012315Z 0200/0300 26015KT 9999 SCT050"
    },
    {
      "icao": "OEJN",
      "alert": "OK",
      "vis_m": 9999,
      "fzfg": false,
      "metar_trigger": false,
      "taf_trigger": false,
      "metar": "METAR OEJN 012300Z 36004KT CAVOK 22/11 Q1015 NOSIG",
      "taf": "TAF OEJN 012300Z 0200/0306 02006KT CAVOK"
    },
    {
      "icao": "OEMA",
      "alert": "OK",
      "vis_m": 9999,
      "fzfg": false,
      "metar_trigger": false,
      "taf_trigger": false,
      "metar": "METAR OEMA 012300Z 04003KT CAVOK 15/M03 Q1019 NOSIG",
      "taf": "TAF OEMA 012300Z 0200/0306 VRB03KT CAVOK"
    },
    {
      "icao": "OJAI",
      "alert": "OK",
      "vis_m": 2500,
      "fzfg": false,
      "metar_trigger": false,
      "taf_trigger": false,
      "metar": "METAR OJAI 012300Z 26023KT 2500 -RA BKN040 09/08 Q1016 NOSIG",
      "taf": "TAF OJAI 012300Z 0200/0306 25014KT 5000 HZ SCT035"
    },
    {
      "icao": "OMAA",
      "alert": "OK",
      "vis_m": 9999,
      "fzfg": false,
      "metar_trigger": false,
      "taf_trigger": false,
      "metar": "METAR OMAA 012300Z 18003KT CAVOK 17/14 Q1017 NOSIG",
      "taf": "TAF OMAA 012300Z 0200/0306 VRB02KT 8000 FEW035"
    },
    {
      "icao": "OMDB",
      "alert": "OK",
      "vis_m": 9999,
      "fzfg": false,
      "metar_trigger": false,
      "taf_trigger": false,
      "metar": "METAR OMDB 012300Z 18005KT 100V240 CAVOK 17/10 Q1018 NOSIG",
      "taf": "TAF OMDB 012300Z 0200/0306 16005KT 8000 NSC"
    },
    {
      "icao": "UAAA",
      "alert": "OK",
      "vis_m": 2500,
      "fzfg": false,
      "metar_trigger": false,
      "taf_trigger": false,
      "metar": "METAR UAAA 012300Z 23002MPS 2500 BR OVC005 M01/M01 Q1020 NOSIG RMK QBB160",
      "taf": "TAF UAAA 012300Z 0200/0224 32003MPS 1200 BR BKN004 OVC011 TX02/0209Z TNM03/0202Z"
    },
    {
      "icao": "UBBB",
      "alert": "OK",
      "vis_m": 9999,
      "fzfg": false,
      "metar_trigger": false,
      "taf_trigger": false,
      "metar": "METAR UBBB 012300Z 33018KT 9999 BKN037 05/01 Q1013 NOSIG",
      "taf": "TAF UBBB 012314Z 0200/0224 32022G32KT 9999 BKN025 TX04/0210Z TN02/0203Z"
    },
    {
      "icao": "UDSG",
      "alert": "OK",
      "vis_m": 3600,
      "fzfg": false,
      "metar_trigger": false,
      "taf_trigger": false,
      "metar": "METAR UDSG 012300Z 36010KT 3600 -SN BR OVC020 M05/M08 Q1009 NOSIG",
      "taf": "TAF UDSG 012300Z 0200/0224 36006KT 1500 BR OVC020"
    },
    {
      "icao": "UDYZ",
      "alert": "OK",
      "vis_m": 1100,
      "fzfg": false,
      "metar_trigger": false,
      "taf_trigger": false,
      "metar": "METAR UDYZ 012300Z 27001KT 1100 R08/P2000D -SHSN BR OVC027CB 00/M01 Q1008 NOSIG",
      "taf": "TAF UDYZ 012300Z 0200/0224 32006KT 2000 BR BKN030"
    },
    {
      "icao": "UGKO",
      "alert": "OK",
      "vis_m": 9999,
      "fzfg": false,
      "metar_trigger": false,
      "taf_trigger": false,
      "metar": "METAR UGKO 012300Z 23016KT 9999 BKN052 03/M01 Q1016 NOSIG",
      "taf": "TAF UGKO 012300Z 0200/0224 24010KT 9999 BKN050 TX03/0200Z TNM03/0204Z"
    }
  ]
}