{
  "ts_utc": "2026-01-09T21:29:04Z",
  "threshold_m": 150,
  "source": "stations_override.txt (ICAO list) + aviationweather.gov (METAR/TAF raw)",
  "station_count": 159,
  "stations": [
    {
      "icao": "BIKF",
      "alert": "OK",
      "vis_m": 9999,
      "fzfg": false,
      "metar_trigger": false,
      "taf_trigger": false,
      "metar": "METAR BIKF 092100Z 02012KT CAVOK M02/M07 Q1012",
      "taf": "TAF BIKF 091952Z 0921/1021 03008KT CAVOK TXM02/1021Z TNM07/1010Z"
    },
    {
      "icao": "BKPR",
      "alert": "OK",
      "vis_m": null,
      "fzfg": false,
      "metar_trigger": false,
      "taf_trigger": false,
      "metar": "",
      "taf": "TAF BKPR 091730Z 0918/1018 18008KT 9999 FEW012 SCT030 BKN080"
    },
    {
      "icao": "EBCI",
      "alert": "OK",
      "vis_m": 5000,
      "fzfg": false,
      "metar_trigger": false,
      "taf_trigger": false,
      "metar": "METAR EBCI 092120Z 26011KT 5000 -SNRA SCT003 OVC005 01/01 Q0993 TEMPO 2500 -SN OVC004",
      "taf": "TAF EBCI 091700Z 0918/1024 30010KT 6000 -RASN SCT006 BKN010"
    },
    {
      "icao": "EDDB",
      "alert": "OK",
      "vis_m": 9999,
      "fzfg": false,
      "metar_trigger": false,
      "taf_trigger": false,
      "metar": "METAR EDDB 092120Z AUTO 08013KT 9999 FEW021 BKN030 BKN047 M06/M11 Q1001 TEMPO 4000 -SN",
      "taf": "TAF EDDB 091700Z 0918/1018 08015KT 9999 SCT020"
    },
    {
      "icao": "EDDH",
      "alert": "OK",
      "vis_m": 9999,
      "fzfg": false,
      "metar_trigger": false,
      "taf_trigger": false,
      "metar": "METAR EDDH 092120Z AUTO 08017KT CAVOK M02/M08 Q1001 TEMPO 09020G35KT",
      "taf": "TAF EDDH 091700Z 0918/1024 08020G30KT 9999 SCT030"
    },
    {
      "icao": "EDDK",
      "alert": "OK",
      "vis_m": 9999,
      "fzfg": false,
      "metar_trigger": false,
      "taf_trigger": false,
      "metar": "METAR EDDK 092120Z AUTO 20007KT 9999 -RADZ BKN015 03/01 Q0991 TEMPO RA BKN012",
      "taf": "TAF EDDK 091700Z 0918/1024 23008KT 9999 FEW014 OVC025"
    },
    {
      "icao": "EDDN",
      "alert": "OK",
      "vis_m": 9999,
      "fzfg": false,
      "metar_trigger": false,
      "taf_trigger": false,
      "metar": "METAR EDDN 092120Z AUTO 21008KT 9999 SCT016 BKN027 BKN045 03/01 Q0995 RESHRA",
      "taf": "TAF EDDN 091700Z 0918/1018 20008KT 9999 BKN035"
    },
    {
      "icao": "EDDS",
      "alert": "OK",
      "vis_m": 9999,
      "fzfg": false,
      "metar_trigger": false,
      "taf_trigger": false,
      "metar": "METAR EDDS 092120Z AUTO 23007KT 170V270 9999 VCSH SCT018 SCT043 FEW///TCU 03/01 Q0995",
      "taf": "TAF EDDS 091700Z 0918/1018 20013KT 9999 BKN025"
    },
    {
      "icao": "EDFH",
      "alert": "OK",
      "vis_m": 5000,
      "fzfg": false,
      "metar_trigger": false,
      "taf_trigger": false,
      "metar": "METAR EDFH 092120Z 25016G26KT 220V300 5000 -SN OVC005 00/M01 Q0991",
      "taf": "TAF EDFH 091700Z 0918/1018 24015G25KT 6000 SCT002 BKN008"
    },
    {
      "icao": "EDJA",
      "alert": "OK",
      "vis_m": 9999,
      "fzfg": false,
      "metar_trigger": false,
      "taf_trigger": false,
      "metar": "METAR EDJA 092120Z 23020G33KT CAVOK 03/M02 Q0997",
      "taf": "TAF EDJA 091700Z 0918/1003 24015G25KT 9999 SCT035"
    },
    {
      "icao": "EDLW",
      "alert": "OK",
      "vis_m": 9999,
      "fzfg": false,
      "metar_trigger": false,
      "taf_trigger": false,
      "metar": "METAR EDLW 092120Z AUTO 10004KT 9999 // SCT014/// BKN017/// OVC028/// 02/01 Q0990",
      "taf": "TAF EDLW 091700Z 0918/1018 17007KT 9999 BKN015"
    },
    {
      "icao": "EDNY",
      "alert": "OK",
      "vis_m": 9999,
      "fzfg": false,
      "metar_trigger": false,
      "taf_trigger": false,
      "metar": "METAR EDNY 092120Z AUTO 24016KT 9999 // FEW037/// BKN060/// OVC083/// 05/M01 Q0999",
      "taf": "TAF EDNY 091700Z 0918/1003 23015G25KT 9999 SCT025 BKN040"
    },
    {
      "icao": "EDSB",
      "alert": "OK",
      "vis_m": 9999,
      "fzfg": false,
      "metar_trigger": false,
      "taf_trigger": false,
      "metar": "METAR EDSB 092120Z 20020KT 9999 -RA BKN032 OVC039 05/02 Q0997",
      "taf": "TAF EDSB 091700Z 0918/1018 20015G25KT 9999 BKN030"
    },
    {
      "icao": "EETN",
      "alert": "OK",
      "vis_m": 9999,
      "fzfg": false,
      "metar_trigger": false,
      "taf_trigger": false,
      "metar": "METAR EETN 092120Z 04013KT 010V070 9999 BKN013 BKN019 M05/M07 Q1014 NOSIG",
      "taf": "TAF EETN 091730Z 0918/1018 05018G30KT 9999 DRSN SCT020"
    },
    {
      "icao": "EFTU",
      "alert": "OK",
      "vis_m": 9999,
      "fzfg": false,
      "metar_trigger": false,
      "taf_trigger": false,
      "metar": "METAR EFTU 092120Z AUTO 04009KT CAVOK M15/M20 Q1020",
      "taf": "TAF EFTU 092025Z 0921/1021 04009KT CAVOK"
    },
    {
      "icao": "EGBB",
      "alert": "OK",
      "vis_m": 9999,
      "fzfg": false,
      "metar_trigger": false,
      "taf_trigger": false,
      "metar": "METAR EGBB 092120Z 32009KT 9999 BKN018 BKN022 02/00 Q1005",
      "taf": "TAF EGBB 091701Z 0918/1018 32008KT 9999 FEW010"
    },
    {
      "icao": "EGGP",
      "alert": "OK",
      "vis_m": 9999,
      "fzfg": false,
      "metar_trigger": false,
      "taf_trigger": false,
      "metar": "METAR EGGP 092120Z 35005KT 9999 SCT040 03/00 Q1007",
      "taf": "TAF EGGP 091658Z 0918/1018 34010KT 9999 SCT020"
    },
    {
      "icao": "EGGW",
      "alert": "OK",
      "vis_m": 9999,
      "fzfg": false,
      "metar_trigger": false,
      "taf_trigger": false,
      "metar": "METAR EGGW 092120Z AUTO 33014KT 9999 BKN012 OVC018 02/01 Q1002",
      "taf": "TAF EGGW 091704Z 0918/1018 32013KT 9999 SCT010 BKN016"
    },
    {
      "icao": "EGKK",
      "alert": "OK",
      "vis_m": 9999,
      "fzfg": false,
      "metar_trigger": false,
      "taf_trigger": false,
      "metar": "METAR EGKK 092120Z 32015KT 9999 BKN021 04/01 Q1003",
      "taf": "TAF EGKK 091657Z 0918/1024 31012KT 9999 SCT020"
    },
    {
      "icao": "EGNM",
      "alert": "OK",
      "vis_m": 9999,
      "fzfg": false,
      "metar_trigger": false,
      "taf_trigger": false,
      "metar": "METAR EGNM 092120Z 36006KT 9999 SCT026 01/M01 Q1006",
      "taf": "TAF EGNM 091827Z 0918/1018 01010KT 9999 SCT025"
    },
    {
      "icao": "EGPD",
      "alert": "OK",
      "vis_m": 9999,
      "fzfg": false,
      "metar_trigger": false,
      "taf_trigger": false,
      "metar": "METAR EGPD 092120Z AUTO VRB02KT 9999 -RA OVC033/// //////TCU 02/00 Q1009",
      "taf": ""
    },
    {
      "icao": "EGPF",
      "alert": "OK",
      "vis_m": 4500,
      "fzfg": false,
      "metar_trigger": false,
      "taf_trigger": false,
      "metar": "METAR EGPF 092120Z AUTO 26001KT 4500 -RA FEW020 SCT032 BKN042 00/00 Q1008",
      "taf": "TAF EGPF 091659Z 0918/1018 VRB03KT 9999 SCT020"
    },
    {
      "icao": "EHBK",
      "alert": "OK",
      "vis_m": 2000,
      "fzfg": false,
      "metar_trigger": false,
      "taf_trigger": false,
      "metar": "METAR EHBK 092125Z AUTO 25006KT 220V290 2000 -SN BKN001 OVC002 00/00 Q0991 TEMPO 1500 SN VV001",
      "taf": "TAF EHBK 091712Z 0918/1024 24013KT 9999 -RADZ BKN008"
    },
    {
      "icao": "EHEH",
      "alert": "OK",
      "vis_m": 2800,
      "fzfg": false,
      "metar_trigger": false,
      "taf_trigger": false,
      "metar": "METAR EHEH 092055Z AUTO 32008KT 260V020 2800 R21/P3000N DZ FEW003 BKN005 BKN006 01/00 Q0990 YLO TEMPO 1500 SN BKN003 OVC004 RMK TREND REMOTE BY EHWX",
      "taf": ""
    },
    {
      "icao": "EKBI",
      "alert": "OK",
      "vis_m": 9999,
      "fzfg": false,
      "metar_trigger": false,
      "taf_trigger": false,
      "metar": "METAR EKBI 092120Z AUTO 07021G32KT 9999 -SN OVC033/// M01/M06 Q1008",
      "taf": "TAF EKBI 092027Z 0921/1021 07020KT 9000 BKN025"
    },
    {
      "icao": "EKCH",
      "alert": "OK",
      "vis_m": 9999,
      "fzfg": false,
      "metar_trigger": false,
      "taf_trigger": false,
      "metar": "METAR EKCH 092120Z AUTO 05019G29KT 9999 OVC034/// M01/M06 Q1010 TEMPO 06015G25KT",
      "taf": ""
    },
    {
      "icao": "ENAL",
      "alert": "OK",
      "vis_m": 9999,
      "fzfg": false,
      "metar_trigger": false,
      "taf_trigger": false,
      "metar": "METAR ENAL 092120Z AUTO 19005KT 9999 NCD 00/M07 Q1016",
      "taf": "TAF ENAL 092000Z 0921/1006 17008KT CAVOK"
    },
    {
      "icao": "ENBR",
      "alert": "OK",
      "vis_m": 9999,
      "fzfg": false,
      "metar_trigger": false,
      "taf_trigger": false,
      "metar": "METAR ENBR 092120Z 02003KT CAVOK M06/M13 Q1017 RMK WIND 1200FT 15004KT",
      "taf": "TAF ENBR 091700Z 0918/1018 08005KT CAVOK"
    },
    {
      "icao": "ENGM",
      "alert": "OK",
      "vis_m": 9999,
      "fzfg": false,
      "metar_trigger": false,
      "taf_trigger": false,
      "metar": "METAR ENGM 092120Z 08005KT 050V110 9999 -SN OVC034 M05/M09 Q1021 NOSIG",
      "taf": "TAF ENGM 091700Z 0918/1018 02005KT 9999 -SN FEW010 BKN030"
    },
    {
      "icao": "ENHD",
      "alert": "OK",
      "vis_m": 9999,
      "fzfg": false,
      "metar_trigger": false,
      "taf_trigger": false,
      "metar": "METAR ENHD 092120Z AUTO 10011KT 9999 NCD M02/M10 Q1017",
      "taf": "TAF ENHD 091400Z 0915/0923 10008KT CAVOK"
    },
    {
      "icao": "ENTC",
      "alert": "OK",
      "vis_m": 9999,
      "fzfg": false,
      "metar_trigger": false,
      "taf_trigger": false,
      "metar": "METAR ENTC 092120Z 22009KT CAVOK M06/M12 Q1023 NOSIG RMK WIND 2600FT 18019KT",
      "taf": "TAF ENTC 091700Z 0918/1018 20005KT CAVOK"
    },
    {
      "icao": "ENTO",
      "alert": "OK",
      "vis_m": 9999,
      "fzfg": false,
      "metar_trigger": false,
      "taf_trigger": false,
      "metar": "METAR ENTO 092120Z 03009KT 010V070 9999 OVC033 M04/M09 Q1020 RESN NOSIG",
      "taf": "TAF ENTO 091700Z 0918/1018 03010KT 9999 -SN BKN030"
    },
    {
      "icao": "ENVA",
      "alert": "OK",
      "vis_m": 9999,
      "fzfg": false,
      "metar_trigger": false,
      "taf_trigger": false,
      "metar": "METAR ENVA 092120Z 14007KT 090V180 CAVOK M02/M10 Q1018 RMK WIND 670FT 16017KT",
      "taf": "TAF ENVA 091700Z 0918/1018 10008KT CAVOK"
    },
    {
      "icao": "ENZV",
      "alert": "OK",
      "vis_m": 9999,
      "fzfg": false,
      "metar_trigger": false,
      "taf_trigger": false,
      "metar": "METAR ENZV 092120Z 08007KT 9999 FEW044 M02/M10 Q1017",
      "taf": ""
    },
    {
      "icao": "EPGD",
      "alert": "OK",
      "vis_m": 9999,
      "fzfg": false,
      "metar_trigger": false,
      "taf_trigger": false,
      "metar": "METAR EPGD 092100Z 05013KT 9999 -SN BKN022 M03/M07 Q1005",
      "taf": "TAF EPGD 091730Z 0918/1018 05012KT 9999 BKN016"
    },
    {
      "icao": "EPKK",
      "alert": "OK",
      "vis_m": 4500,
      "fzfg": false,
      "metar_trigger": false,
      "taf_trigger": false,
      "metar": "METAR EPKK 092100Z VRB01KT 4500 BR NSC M10/M12 Q1001",
      "taf": "TAF EPKK 092030Z 0921/1021 05005KT 6000 NSC"
    },
    {
      "icao": "EPKT",
      "alert": "OK",
      "vis_m": 4600,
      "fzfg": false,
      "metar_trigger": false,
      "taf_trigger": false,
      "metar": "METAR EPKT 092100Z 03002KT 4600 BR NSC M09/M10 Q1000",
      "taf": ""
    },
    {
      "icao": "EPLB",
      "alert": "OK",
      "vis_m": 9999,
      "fzfg": false,
      "metar_trigger": false,
      "taf_trigger": false,
      "metar": "METAR EPLB 092100Z 31006KT 9999 -SN FEW016 OVC023 M10/M12 Q1000",
      "taf": "TAF EPLB 091730Z 0918/1018 29008KT 7000 -SN BKN020"
    },
    {
      "icao": "EPMO",
      "alert": "OK",
      "vis_m": 9999,
      "fzfg": false,
      "metar_trigger": false,
      "taf_trigger": false,
      "metar": "METAR EPMO 092100Z 32007KT CAVOK M14/M15 Q1003",
      "taf": "TAF EPMO 091730Z 0918/1018 33007KT 8000 BKN020"
    },
    {
      "icao": "EPPO",
      "alert": "OK",
      "vis_m": 9999,
      "fzfg": false,
      "metar_trigger": false,
      "taf_trigger": false,
      "metar": "METAR EPPO 092100Z 08010KT 9999 FEW010 M09/M11 Q1004",
      "taf": "TAF EPPO 091730Z 0918/1018 08005KT 7000 NSC"
    },
    {
      "icao": "EPRA",
      "alert": "OK",
      "vis_m": 9999,
      "fzfg": false,
      "metar_trigger": false,
      "taf_trigger": false,
      "metar": "METAR EPRA 092100Z 31005KT 9999 BKN018 M11/M13 Q1001",
      "taf": "TAF EPRA 092030Z 0921/1006 32008KT 8000 SCT020"
    },
    {
      "icao": "EPRZ",
      "alert": "OK",
      "vis_m": 3000,
      "fzfg": false,
      "metar_trigger": false,
      "taf_trigger": false,
      "metar": "METAR EPRZ 092100Z 26005KT 3000 BR BKN011 M12/M13 Q1001",
      "taf": ""
    },
    {
      "icao": "EPSC",
      "alert": "OK",
      "vis_m": 9999,
      "fzfg": false,
      "metar_trigger": false,
      "taf_trigger": false,
      "metar": "METAR EPSC 092100Z 05009KT 020V080 CAVOK M04/M08 Q1005",
      "taf": "TAF EPSC 091730Z 0918/1018 07010KT CAVOK"
    },
    {
      "icao": "EPSY",
      "alert": "OK",
      "vis_m": 9999,
      "fzfg": false,
      "metar_trigger": false,
      "taf_trigger": false,
      "metar": "METAR EPSY 092100Z 33009KT 9999 -SN SCT005 BKN008 M12/M14 Q1002",
      "taf": "TAF EPSY 092030Z 0921/1006 34008KT 9999 -SN BKN012"
    },
    {
      "icao": "EPWA",
      "alert": "OK",
      "vis_m": 9999,
      "fzfg": false,
      "metar_trigger": false,
      "taf_trigger": false,
      "metar": "METAR EPWA 092100Z 33008KT 9999 FEW009 M12/M14 Q1002 NOSIG",
      "taf": "TAF EPWA 092030Z 0921/1021 33008KT 8000 BKN020"
    },
    {
      "icao": "EPWR",
      "alert": "OK",
      "vis_m": 8000,
      "fzfg": false,
      "metar_trigger": false,
      "taf_trigger": false,
      "metar": "METAR EPWR 092100Z 07007KT 8000 NSC M06/M10 Q1002",
      "taf": "TAF EPWR 092030Z 0921/1021 08008KT 7000 NSC"
    },
    {
      "icao": "ESGG",
      "alert": "OK",
      "vis_m": 9999,
      "fzfg": false,
      "metar_trigger": false,
      "taf_trigger": false,
      "metar": "METAR ESGG 092120Z 05011KT 9999 BKN031 M04/M07 Q1015",
      "taf": "TAF ESGG 092030Z 0921/1021 04008KT 9999 BKN035"
    },
    {
      "icao": "ESKN",
      "alert": "OK",
      "vis_m": 9999,
      "fzfg": false,
      "metar_trigger": false,
      "taf_trigger": false,
      "metar": "METAR ESKN 092120Z 01008KT 340V040 CAVOK M07/M09 Q1019",
      "taf": "TAF ESKN 092030Z 0921/1021 02010KT 9999 BKN040"
    },
    {
      "icao": "ESMS",
      "alert": "OK",
      "vis_m": 9999,
      "fzfg": false,
      "metar_trigger": false,
      "taf_trigger": false,
      "metar": "METAR ESMS 092120Z 08023KT 9999 BKN039 M01/M07 Q1008",
      "taf": "TAF ESMS 092027Z 0921/1021 08020KT 9999 BKN040"
    },
    {
      "icao": "ESSA",
      "alert": "OK",
      "vis_m": 9999,
      "fzfg": false,
      "metar_trigger": false,
      "taf_trigger": false,
      "metar": "METAR ESSA 092120Z 01009KT CAVOK M11/M13 Q1021 NOSIG",
      "taf": "TAF ESSA 092030Z 0921/1021 02010KT CAVOK"
    },
    {
      "icao": "EYKA",
      "alert": "OK",
      "vis_m": 9000,
      "fzfg": false,
      "metar_trigger": false,
      "taf_trigger": false,
      "metar": "METAR EYKA 092120Z COR 36011KT 330V030 9000 -SN DRSN BKN015 OVC020 M08/M10 Q1000",
      "taf": "TAF EYKA 091723Z 0918/1018 02012KT 3000 SN BLSN SCT005 OVC010"
    },
    {
      "icao": "EYPA",
      "alert": "OK",
      "vis_m": 9999,
      "fzfg": false,
      "metar_trigger": false,
      "taf_trigger": false,
      "metar": "METAR EYPA 092120Z 03014KT CAVOK M06/M10 Q1006",
      "taf": "TAF EYPA 091722Z 0918/1018 04014KT 9000 NSC"
    },
    {
      "icao": "EYVI",
      "alert": "OK",
      "vis_m": 4300,
      "fzfg": false,
      "metar_trigger": false,
      "taf_trigger": false,
      "metar": "METAR EYVI 092120Z 01010KT 4300 SN FEW008 BKN034 M10/M13 Q0997 NOSIG",
      "taf": "TAF EYVI 091725Z 0918/1018 01013KT 1500 SN OVC015"
    },
    {
      "icao": "GCFV",
      "alert": "OK",
      "vis_m": 9999,
      "fzfg": false,
      "metar_trigger": false,
      "taf_trigger": false,
      "metar": "METAR GCFV 092100Z 03016KT 9999 SCT025 BKN038 18/12 Q1029",
      "taf": "TAF GCFV 092000Z 0921/1021 05015KT 9999 SCT025 TX20/1014Z TN15/1006Z"
    },
    {
      "icao": "GCLP",
      "alert": "OK",
      "vis_m": 9999,
      "fzfg": false,
      "metar_trigger": false,
      "taf_trigger": false,
      "metar": "METAR GCLP 092100Z 01016KT 9999 SCT027 SCT045 18/12 Q1028 NOSIG",
      "taf": "TAF GCLP 092000Z 0921/1021 03013KT 9999 SCT030 TX19/1014Z TN15/1006Z"
    },
    {
      "icao": "GCTS",
      "alert": "OK",
      "vis_m": 9999,
      "fzfg": false,
      "metar_trigger": false,
      "taf_trigger": false,
      "metar": "METAR GCTS 092100Z 04007KT 9999 BKN035 17/09 Q1029 NOSIG",
      "taf": "TAF GCTS 092000Z 0921/1021 04009KT 9999 FEW030 TX23/1014Z TN15/1006Z"
    },
    {
      "icao": "GMAD",
      "alert": "OK",
      "vis_m": 9999,
      "fzfg": false,
      "metar_trigger": false,
      "taf_trigger": false,
      "metar": "METAR GMAD 092100Z 15006KT CAVOK 10/09 Q1027 NOSIG",
      "taf": "TAF GMAD 091700Z 0918/1024 06008KT CAVOK"
    },
    {
      "icao": "GMMN",
      "alert": "OK",
      "vis_m": 8000,
      "fzfg": false,
      "metar_trigger": false,
      "taf_trigger": false,
      "metar": "METAR GMMN 092100Z 07004KT 040V100 8000 FEW023 10/08 Q1030 NOSIG",
      "taf": "TAF GMMN 091700Z 0918/1024 02006KT 9999 FEW023"
    },
    {
      "icao": "GMMX",
      "alert": "OK",
      "vis_m": 9999,
      "fzfg": false,
      "metar_trigger": false,
      "taf_trigger": false,
      "metar": "METAR GMMX 092100Z 09005KT CAVOK 10/07 Q1029 NOSIG",
      "taf": "TAF GMMX 091700Z 0918/1024 06006KT 8000 NSC"
    },
    {
      "icao": "HEGN",
      "alert": "OK",
      "vis_m": 9999,
      "fzfg": false,
      "metar_trigger": false,
      "taf_trigger": false,
      "metar": "METAR HEGN 092100Z 29007KT CAVOK 16/02 Q1020 NOSIG",
      "taf": "TAF HEGN 091700Z 0918/1024 31010G22KT CAVOK"
    },
    {
      "icao": "HEMA",
      "alert": "OK",
      "vis_m": 9999,
      "fzfg": false,
      "metar_trigger": false,
      "taf_trigger": false,
      "metar": "METAR HEMA 092100Z 32015KT CAVOK 18/06 Q1018 NOSIG",
      "taf": "TAF HEMA 091700Z 0918/1024 34008G20KT 8000 NSC"
    },
    {
      "icao": "HESH",
      "alert": "OK",
      "vis_m": 9999,
      "fzfg": false,
      "metar_trigger": false,
      "taf_trigger": false,
      "metar": "METAR HESH 092100Z 36009KT CAVOK 19/04 Q1018 NOSIG",
      "taf": "TAF HESH 091700Z 0918/1024 36012KT CAVOK"
    },
    {
      "icao": "HESX",
      "alert": "OK",
      "vis_m": 9999,
      "fzfg": false,
      "metar_trigger": false,
      "taf_trigger": false,
      "metar": "METAR HESX 092100Z 25007KT CAVOK 12/07 Q1021 NOSIG",
      "taf": "TAF HESX 091700Z 0918/1024 32015KT 9999 SCT025"
    },
    {
      "icao": "LATI",
      "alert": "OK",
      "vis_m": 9999,
      "fzfg": false,
      "metar_trigger": false,
      "taf_trigger": false,
      "metar": "METAR LATI 092120Z 21012KT 180V240 9999 FEW017 SCT030 BKN057 14/09 Q1005 NOSIG",
      "taf": "TAF LATI 091700Z 0918/1018 14013KT 9999 -RA SCT030 BKN060 TX14/1001Z TN07/1018Z"
    },
    {
      "icao": "LBPD",
      "alert": "OK",
      "vis_m": 9999,
      "fzfg": false,
      "metar_trigger": false,
      "taf_trigger": false,
      "metar": "METAR LBPD 092100Z AUTO 27003KT 9999 BKN100/// 01/M02 Q1005",
      "taf": "TAF LBPD 091700Z 0918/1018 VRB03KT 9999 SCT050"
    },
    {
      "icao": "LBSF",
      "alert": "OK",
      "vis_m": 9999,
      "fzfg": false,
      "metar_trigger": false,
      "taf_trigger": false,
      "metar": "METAR LBSF 092100Z AUTO VRB02KT 9999 -RASN SCT041/// BKN047/// OVC062/// 01/M04 Q1004 REFZRA TEMPO 5000 SNRA",
      "taf": "TAF LBSF 091700Z 0918/1018 VRB03KT 9999 SCT030 BKN050"
    },
    {
      "icao": "LBWN",
      "alert": "OK",
      "vis_m": 9999,
      "fzfg": false,
      "metar_trigger": false,
      "taf_trigger": false,
      "metar": "METAR LBWN 092100Z AUTO 06003KT 9999 NSC 02/M04 Q1005 NOSIG",
      "taf": "TAF LBWN 091700Z 0918/1018 VRB04KT CAVOK"
    },
    {
      "icao": "LCLK",
      "alert": "OK",
      "vis_m": 9999,
      "fzfg": false,
      "metar_trigger": false,
      "taf_trigger": false,
      "metar": "METAR LCLK 092100Z VRB02KT 9999 FEW020 12/06 Q1014 NOSIG",
      "taf": "TAF LCLK 091730Z 0918/1018 30018KT 9999 FEW020 SCT040"
    },
    {
      "icao": "LCPH",
      "alert": "OK",
      "vis_m": 9999,
      "fzfg": false,
      "metar_trigger": false,
      "taf_trigger": false,
      "metar": "METAR LCPH 092100Z 32018KT 9999 FEW030 BKN043 15/06 Q1014 NOSIG",
      "taf": "TAF LCPH 091730Z 0918/1018 30025G35KT 9999 FEW025 SCT040"
    },
    {
      "icao": "LEAL",
      "alert": "OK",
      "vis_m": 9999,
      "fzfg": false,
      "metar_trigger": false,
      "taf_trigger": false,
      "metar": "METAR LEAL 092100Z 25009KT 9999 SCT060 15/05 Q1022 WS R28 NOSIG",
      "taf": "TAF LEAL 091700Z 0918/1018 27009KT CAVOK TX16/1014Z TN08/1006Z"
    },
    {
      "icao": "LEBB",
      "alert": "OK",
      "vis_m": 9999,
      "fzfg": false,
      "metar_trigger": false,
      "taf_trigger": false,
      "metar": "METAR LEBB 092100Z 27008KT 230V300 9999 FEW025 SCT037 BKN050 08/04 Q1021 TEMPO 3000 SHRA SCT025TCU",
      "taf": "TAF LEBB 091700Z 0918/1018 29009KT 9999 FEW020 SCT040 TX10/0923Z TN07/0923Z"
    },
    {
      "icao": "LEBL",
      "alert": "OK",
      "vis_m": 9999,
      "fzfg": false,
      "metar_trigger": false,
      "taf_trigger": false,
      "metar": "METAR LEBL 092100Z 31010KT 270V350 9999 FEW050 10/M01 Q1014 NOSIG",
      "taf": ""
    },
    {
      "icao": "LECH",
      "alert": "OK",
      "vis_m": 9999,
      "fzfg": false,
      "metar_trigger": false,
      "taf_trigger": false,
      "metar": "METAR LECH 092100Z AUTO 02007KT 340V050 CAVOK 08/01 Q1019",
      "taf": ""
    },
    {
      "icao": "LEMD",
      "alert": "OK",
      "vis_m": 9999,
      "fzfg": false,
      "metar_trigger": false,
      "taf_trigger": false,
      "metar": "METAR LEMD 092100Z 25013KT CAVOK 08/M01 Q1022 NOSIG",
      "taf": ""
    },
    {
      "icao": "LEMG",
      "alert": "OK",
      "vis_m": 9999,
      "fzfg": false,
      "metar_trigger": false,
      "taf_trigger": false,
      "metar": "METAR LEMG 092100Z 31010KT CAVOK 13/09 Q1025 NOSIG",
      "taf": "TAF LEMG 091700Z 0918/1018 29010KT 9999 FEW030 TX18/1014Z TN10/1006Z"
    },
    {
      "icao": "LEVC",
      "alert": "OK",
      "vis_m": 9999,
      "fzfg": false,
      "metar_trigger": false,
      "taf_trigger": false,
      "metar": "METAR LEVC 092100Z 25010KT 9999 FEW040 12/03 Q1020 NOSIG",
      "taf": "TAF LEVC 091700Z 0918/1018 27015KT 9999 FEW040 TX16/1014Z TN07/1006Z"
    },
    {
      "icao": "LEXJ",
      "alert": "OK",
      "vis_m": 9999,
      "fzfg": false,
      "metar_trigger": false,
      "taf_trigger": false,
      "metar": "METAR LEXJ 092100Z 29018KT 260V320 9999 SCT030 BKN040 BKN050 08/05 Q1023",
      "taf": ""
    },
    {
      "icao": "LEZG",
      "alert": "OK",
      "vis_m": 9999,
      "fzfg": false,
      "metar_trigger": false,
      "taf_trigger": false,
      "metar": "METAR LEZG 092100Z 27013KT 9999 FEW070 SCT085 07/02 Q1020 NOSIG",
      "taf": "TAF LEZG 091700Z 0918/1018 29012KT 9999 FEW040 TX11/1015Z TN05/1006Z"
    },
    {
      "icao": "LEZL",
      "alert": "OK",
      "vis_m": 9999,
      "fzfg": false,
      "metar_trigger": false,
      "taf_trigger": false,
      "metar": "METAR LEZL 092100Z 28003KT 260V320 CAVOK 10/08 Q1028 NOSIG",
      "taf": "TAF LEZL 092000Z 0921/1021 30003KT CAVOK TX15/1015Z TN06/1007Z"
    },
    {
      "icao": "LFBD",
      "alert": "OK",
      "vis_m": 9999,
      "fzfg": false,
      "metar_trigger": false,
      "taf_trigger": false,
      "metar": "METAR LFBD 092100Z AUTO 22009KT 9999 SCT039/// BKN054/// BKN150/// //////CB 05/04 Q1014",
      "taf": ""
    },
    {
      "icao": "LFLL",
      "alert": "OK",
      "vis_m": 9999,
      "fzfg": false,
      "metar_trigger": false,
      "taf_trigger": false,
      "metar": "METAR LFLL 092100Z 26006KT 9999 BKN035 BKN200 05/00 Q1007 NOSIG",
      "taf": "TAF LFLL 091700Z 0918/1024 25010KT 9999 SCT060"
    },
    {
      "icao": "LFLS",
      "alert": "OK",
      "vis_m": 9999,
      "fzfg": false,
      "metar_trigger": false,
      "taf_trigger": false,
      "metar": "METAR LFLS 092100Z AUTO 07007KT 9999 SCT037 BKN043 BKN050 01/01 Q1007",
      "taf": ""
    },
    {
      "icao": "LFMN",
      "alert": "OK",
      "vis_m": 9999,
      "fzfg": false,
      "metar_trigger": false,
      "taf_trigger": false,
      "metar": "METAR LFMN 092100Z 25012KT 210V330 CAVOK 10/02 Q1000 NOSIG",
      "taf": "TAF LFMN 092000Z 0921/1103 30015KT CAVOK"
    },
    {
      "icao": "LFOB",
      "alert": "OK",
      "vis_m": 9999,
      "fzfg": false,
      "metar_trigger": false,
      "taf_trigger": false,
      "metar": "METAR LFOB 092100Z AUTO 28018G31KT 9999 FEW026 BKN031 BKN039 05/02 Q1000 TEMPO 4000 -SHRA BKN011TCU",
      "taf": "TAF LFOB 091700Z 0918/1018 28015G25KT 9999 BKN025"
    },
    {
      "icao": "LFPO",
      "alert": "OK",
      "vis_m": 9999,
      "fzfg": false,
      "metar_trigger": false,
      "taf_trigger": false,
      "metar": "METAR LFPO 092100Z 28016KT 9999 FEW021 SCT040 05/01 Q1002 NOSIG",
      "taf": "TAF LFPO 091700Z 0918/1024 27015KT 9999 SCT020 BKN140"
    },
    {
      "icao": "LFSB",
      "alert": "OK",
      "vis_m": 9999,
      "fzfg": false,
      "metar_trigger": false,
      "taf_trigger": false,
      "metar": "METAR LFSB 092100Z AUTO 26017KT 9999 -RA FEW018 BKN023 BKN028 04/02 Q1000 TEMPO 4000 -SHRASN FEW020TCU BECMG 25015G30KT",
      "taf": ""
    },
    {
      "icao": "LGAV",
      "alert": "OK",
      "vis_m": 9999,
      "fzfg": false,
      "metar_trigger": false,
      "taf_trigger": false,
      "metar": "METAR LGAV 092120Z VRB02KT 9999 FEW030 10/05 Q1011 NOSIG",
      "taf": "TAF LGAV 091700Z 0918/1018 24012KT 9999 FEW025"
    },
    {
      "icao": "LGTS",
      "alert": "OK",
      "vis_m": 9999,
      "fzfg": false,
      "metar_trigger": false,
      "taf_trigger": false,
      "metar": "METAR LGTS 092120Z 11004KT 9999 FEW025 02/01 Q1007 NOSIG",
      "taf": "TAF LGTS 091700Z 0918/1018 VRB03KT 9999 FEW030"
    },
    {
      "icao": "LHBP",
      "alert": "OK",
      "vis_m": 6000,
      "fzfg": false,
      "metar_trigger": false,
      "taf_trigger": false,
      "metar": "METAR LHBP 092100Z 03004KT 6000 OVC006 M07/M08 Q1002 TEMPO OVC004",
      "taf": "TAF LHBP 091715Z 0918/1018 09006KT 7000 BKN015 BKN025"
    },
    {
      "icao": "LHDC",
      "alert": "OK",
      "vis_m": 6000,
      "fzfg": false,
      "metar_trigger": false,
      "taf_trigger": false,
      "metar": "METAR LHDC 092045Z AUTO 06006KT 6000 OVC013 M05/M07 Q1002",
      "taf": "TAF LHDC 091415Z 0915/0924 VRB02KT 7000 NSC"
    },
    {
      "icao": "LIBD",
      "alert": "OK",
      "vis_m": 9999,
      "fzfg": false,
      "metar_trigger": false,
      "taf_trigger": false,
      "metar": "METAR LIBD 092120Z 25004KT 200V290 CAVOK 11/06 Q1004",
      "taf": "TAF LIBD 091700Z 0918/1018 25016KT 9999 SCT040"
    },
    {
      "icao": "LIBG",
      "alert": "OK",
      "vis_m": null,
      "fzfg": false,
      "metar_trigger": false,
      "taf_trigger": false,
      "metar": "",
      "taf": "TAF LIBG 091700Z 0918/1003 21010KT 9999 SCT040"
    },
    {
      "icao": "LIBP",
      "alert": "OK",
      "vis_m": 9999,
      "fzfg": false,
      "metar_trigger": false,
      "taf_trigger": false,
      "metar": "METAR LIBP 092120Z AUTO 23016KT 9999 BKN180/// 13/03 Q1001",
      "taf": "TAF LIBP 091700Z 0918/1018 24012KT 9999 SCT050"
    },
    {
      "icao": "LIBR",
      "alert": "OK",
      "vis_m": 9999,
      "fzfg": false,
      "metar_trigger": false,
      "taf_trigger": false,
      "metar": "METAR LIBR 092120Z 21005KT CAVOK 14/10 Q1005",
      "taf": "TAF LIBR 091700Z 0918/1018 21013KT 9999 FEW040"
    },
    {
      "icao": "LICA",
      "alert": "OK",
      "vis_m": 9999,
      "fzfg": false,
      "metar_trigger": false,
      "taf_trigger": false,
      "metar": "METAR LICA 092120Z AUTO 25018KT 9999 BKN029/// BKN065/// 16/12 Q1010",
      "taf": "TAF LICA 091700Z 0918/1018 27026G38KT 9999 BKN016"
    },
    {
      "icao": "LICC",
      "alert": "OK",
      "vis_m": 9999,
      "fzfg": false,
      "metar_trigger": false,
      "taf_trigger": false,
      "metar": "METAR LICC 092120Z 27012KT 9999 BKN040 14/10 Q1013",
      "taf": "TAF LICC 091700Z 0918/1018 26013KT 9999 FEW050"
    },
    {
      "icao": "LICJ",
      "alert": "OK",
      "vis_m": 9999,
      "fzfg": false,
      "metar_trigger": false,
      "taf_trigger": false,
      "metar": "METAR LICJ 092120Z 22017KT 9999 SCT060 15/12 Q1012 WS R25",
      "taf": "TAF LICJ 091700Z 0918/1018 23020G30KT 9999 SCT020"
    },
    {
      "icao": "LIMC",
      "alert": "OK",
      "vis_m": 5000,
      "fzfg": false,
      "metar_trigger": false,
      "taf_trigger": false,
      "metar": "METAR LIMC 092120Z 01005KT 5000 BR NSC M02/M03 Q1000 NOSIG",
      "taf": "TAF LIMC 091700Z 0918/1024 VRB04KT 9000 SCT030"
    },
    {
      "icao": "LIME",
      "alert": "OK",
      "vis_m": 7000,
      "fzfg": false,
      "metar_trigger": false,
      "taf_trigger": false,
      "metar": "METAR LIME 092120Z 04004KT 7000 SCT035 M03/M04 Q0999 NOSIG",
      "taf": "TAF LIME 091700Z 0918/1018 VRB04KT 9999 SCT050"
    },
    {
      "icao": "LIMF",
      "alert": "OK",
      "vis_m": 5000,
      "fzfg": false,
      "metar_trigger": false,
      "taf_trigger": false,
      "metar": "METAR LIMF 092120Z 26003KT 240V030 5000 BR NSC M01/M04 Q1000",
      "taf": "TAF LIMF 091700Z 0918/1018 VRB05KT 9999 FEW030"
    },
    {
      "icao": "LIMJ",
      "alert": "OK",
      "vis_m": 9999,
      "fzfg": false,
      "metar_trigger": false,
      "taf_trigger": false,
      "metar": "METAR LIMJ 092120Z 04010KT CAVOK 09/M01 Q0999",
      "taf": "TAF LIMJ 091700Z 0918/1018 36013KT 9999 FEW030"
    },
    {
      "icao": "LIPE",
      "alert": "OK",
      "vis_m": 6000,
      "fzfg": false,
      "metar_trigger": false,
      "taf_trigger": false,
      "metar": "METAR LIPE 092120Z VRB02KT 6000 NSC M01/M02 Q1001",
      "taf": "TAF LIPE 091700Z 0918/1018 VRB05KT 6000 BKN015"
    },
    {
      "icao": "LIPH",
      "alert": "OK",
      "vis_m": 8000,
      "fzfg": false,
      "metar_trigger": false,
      "taf_trigger": false,
      "metar": "METAR LIPH 092120Z VRB02KT 8000 NSC M00/M01 Q1000",
      "taf": "TAF LIPH 091700Z 0918/1018 VRB05KT 9999 SCT040"
    },
    {
      "icao": "LIPQ",
      "alert": "OK",
      "vis_m": 9999,
      "fzfg": false,
      "metar_trigger": false,
      "taf_trigger": false,
      "metar": "METAR LIPQ 092120Z AUTO 29001KT 9999 BKN033/// 02/01 Q1000",
      "taf": "TAF LIPQ 091700Z 0918/1018 VRB05KT 9999 BKN030"
    },
    {
      "icao": "LIPR",
      "alert": "OK",
      "vis_m": 8000,
      "fzfg": false,
      "metar_trigger": false,
      "taf_trigger": false,
      "metar": "METAR LIPR 092120Z 24004KT 210V270 8000 NSC M00/M01 Q1001",
      "taf": "TAF LIPR 091700Z 0918/1018 29010KT 9999 SCT040"
    },
    {
      "icao": "LIPX",
      "alert": "OK",
      "vis_m": 9999,
      "fzfg": false,
      "metar_trigger": false,
      "taf_trigger": false,
      "metar": "METAR LIPX 092120Z VRB02KT CAVOK M04/M05 Q1000",
      "taf": "TAF LIPX 091700Z 0918/1018 VRB05KT 9999 FEW020"
    },
    {
      "icao": "LIPY",
      "alert": "OK",
      "vis_m": 9999,
      "fzfg": false,
      "metar_trigger": false,
      "taf_trigger": false,
      "metar": "METAR LIPY 092120Z AUTO VRB02KT 9999 BKN210/// 05/03 Q1001",
      "taf": "TAF LIPY 091700Z 0918/1018 24012KT 9999 SCT050"
    },
    {
      "icao": "LIPZ",
      "alert": "OK",
      "vis_m": 9999,
      "fzfg": false,
      "metar_trigger": false,
      "taf_trigger": false,
      "metar": "METAR LIPZ 092120Z 22004KT CAVOK 00/M01 Q1000 NOSIG",
      "taf": "TAF LIPZ 091700Z 0918/1024 VRB05KT 9999 SCT030"
    },
    {
      "icao": "LIRF",
      "alert": "OK",
      "vis_m": 9999,
      "fzfg": false,
      "metar_trigger": false,
      "taf_trigger": false,
      "metar": "METAR LIRF 092120Z 25016KT 9999 FEW030 14/07 Q1004 WS R16R NOSIG",
      "taf": "TAF LIRF 091700Z 0918/1024 25023G35KT 9999 SCT020"
    },
    {
      "icao": "LIRN",
      "alert": "OK",
      "vis_m": 9999,
      "fzfg": false,
      "metar_trigger": false,
      "taf_trigger": false,
      "metar": "METAR LIRN 092120Z 27007KT 200V300 9999 FEW040 13/07 Q1007 NOSIG",
      "taf": "TAF LIRN 091700Z 0918/1018 25018KT 9999 BKN025"
    },
    {
      "icao": "LIRP",
      "alert": "OK",
      "vis_m": 9999,
      "fzfg": false,
      "metar_trigger": false,
      "taf_trigger": false,
      "metar": "METAR LIRP 092115Z 27019KT 9999 SCT030 12/06 Q1001 NOSIG",
      "taf": "TAF LIRP 091700Z 0918/1018 27015KT 9999 FEW020 SCT040"
    },
    {
      "icao": "LIRZ",
      "alert": "OK",
      "vis_m": 9999,
      "fzfg": false,
      "metar_trigger": false,
      "taf_trigger": false,
      "metar": "METAR LIRZ 092120Z AUTO 13007KT 9999 SCT065/// 09/04 Q1002",
      "taf": "TAF LIRZ 091700Z 0918/1018 24012KT 9999 BKN040"
    },
    {
      "icao": "LJLJ",
      "alert": "OK",
      "vis_m": 4000,
      "fzfg": false,
      "metar_trigger": false,
      "taf_trigger": false,
      "metar": "METAR LJLJ 092100Z 24003KT 4000 -RA BR FEW010 OVC030 00/M00 Q0999 NOSIG",
      "taf": "TAF LJLJ 091700Z 0918/1018 29006KT 6000 FEW003 BKN016 BKN030"
    },
    {
      "icao": "LKMT",
      "alert": "OK",
      "vis_m": 6000,
      "fzfg": false,
      "metar_trigger": false,
      "taf_trigger": false,
      "metar": "METAR LKMT 092100Z 28002KT 6000 OVC046 M04/M07 Q1000 TEMPO 4500 -SN BR",
      "taf": "TAF LKMT 091700Z 0918/1018 VRB02KT 9999 BKN035"
    },
    {
      "icao": "LKPR",
      "alert": "OK",
      "vis_m": 3500,
      "fzfg": false,
      "metar_trigger": false,
      "taf_trigger": false,
      "metar": "METAR LKPR 092100Z 05005KT 3500 BR FEW002 BKN003 OVC016 M04/M05 Q0997 TEMPO 2000 BR BKN002",
      "taf": "TAF LKPR 092000Z 0921/1103 06005KT 6000 SCT008 OVC013"
    },
    {
      "icao": "LLBG",
      "alert": "OK",
      "vis_m": 9999,
      "fzfg": false,
      "metar_trigger": false,
      "taf_trigger": false,
      "metar": "METAR LLBG 092120Z 29014KT 9999 FEW038 SCT048 16/07 Q1017 TEMPO RA BKN030",
      "taf": "TAF LLBG 091703Z 0918/1018 29012KT 9999 SCT035"
    },
    {
      "icao": "LMML",
      "alert": "OK",
      "vis_m": 9999,
      "fzfg": false,
      "metar_trigger": false,
      "taf_trigger": false,
      "metar": "METAR LMML 092115Z 23007KT 9999 FEW017 13/11 Q1017 NOSIG",
      "taf": "TAF LMML 091700Z 0918/1018 24018KT 9999 FEW015"
    },
    {
      "icao": "LOWW",
      "alert": "OK",
      "vis_m": 5000,
      "fzfg": false,
      "metar_trigger": false,
      "taf_trigger": false,
      "metar": "METAR LOWW 092120Z 16004KT 5000 BR FEW005 SCT008 M07/M08 Q1001 BECMG 4000 BR BKN008",
      "taf": "TAF LOWW 092015Z 0921/1103 12003KT 6000 BKN008 TXM02/1013Z TNM06/1101Z"
    },
    {
      "icao": "LPFR",
      "alert": "OK",
      "vis_m": 9999,
      "fzfg": false,
      "metar_trigger": false,
      "taf_trigger": false,
      "metar": "METAR LPFR 092100Z 33008KT 9999 FEW020 11/09 Q1029",
      "taf": "TAF LPFR 091700Z 0918/1018 26012KT 9999 SCT012 BKN018"
    },
    {
      "icao": "LPMA",
      "alert": "OK",
      "vis_m": 9999,
      "fzfg": false,
      "metar_trigger": false,
      "taf_trigger": false,
      "metar": "METAR LPMA 092100Z 36007KT 9999 BKN012 15/12 Q1032",
      "taf": "TAF LPMA 091700Z 0918/1018 05010KT 9999 SCT015"
    },
    {
      "icao": "LPPR",
      "alert": "OK",
      "vis_m": 9999,
      "fzfg": false,
      "metar_trigger": false,
      "taf_trigger": false,
      "metar": "METAR LPPR 092100Z 01004KT 340V050 9999 FEW020 SCT025 09/07 Q1028",
      "taf": "TAF LPPR 091700Z 0918/1018 30007KT 9999 FEW015 SCT030"
    },
    {
      "icao": "LPPS",
      "alert": "OK",
      "vis_m": 9999,
      "fzfg": false,
      "metar_trigger": false,
      "taf_trigger": false,
      "metar": "METAR LPPS 092100Z 36004KT 9999 FEW014 14/11 Q1032",
      "taf": "TAF LPPS 091700Z 0918/1024 07008KT 9999 SCT015 SCT030"
    },
    {
      "icao": "LPPT",
      "alert": "OK",
      "vis_m": 9999,
      "fzfg": false,
      "metar_trigger": false,
      "taf_trigger": false,
      "metar": "METAR LPPT 092100Z 25003KT 9999 FEW012 10/08 Q1030",
      "taf": "TAF LPPT 091700Z 0918/1024 32010KT 9999 SCT020"
    },
    {
      "icao": "LQBK",
      "alert": "OK",
      "vis_m": 3500,
      "fzfg": false,
      "metar_trigger": false,
      "taf_trigger": false,
      "metar": "METAR LQBK 092100Z 12006KT 070V140 3500 -RA BR FEW010 BKN033 OVC045 01/01 Q1000 NOSIG",
      "taf": "TAF LQBK 091700Z 0918/1018 VRB03KT 7000 SCT040 TX00/1013Z TNM02/1006Z"
    },
    {
      "icao": "LQSA",
      "alert": "OK",
      "vis_m": 3000,
      "fzfg": false,
      "metar_trigger": false,
      "taf_trigger": false,
      "metar": "METAR LQSA 092100Z VRB05KT 3000 -FZRA BR FEW005 SCT020 BKN040 M00/M00 Q1000 NOSIG",
      "taf": ""
    },
    {
      "icao": "LQTZ",
      "alert": "OK",
      "vis_m": 2000,
      "fzfg": false,
      "metar_trigger": false,
      "taf_trigger": false,
      "metar": "METAR LQTZ 092100Z VRB02KT 2000 -RA BR BKN015 OVC025 00/00 Q1001",
      "taf": "TAF LQTZ 091700Z 0918/1018 16005KT 3000 BR SCT005 BKN025 TX01/1013Z TNM03/1006Z"
    },
    {
      "icao": "LRBC",
      "alert": "OK",
      "vis_m": 9999,
      "fzfg": false,
      "metar_trigger": false,
      "taf_trigger": false,
      "metar": "METAR LRBC 092100Z 14007KT CAVOK M04/M11 Q1002",
      "taf": "TAF LRBC 092000Z 0921/1006 14005KT CAVOK"
    },
    {
      "icao": "LRBS",
      "alert": "OK",
      "vis_m": 9999,
      "fzfg": false,
      "metar_trigger": false,
      "taf_trigger": false,
      "metar": "METAR LRBS 092100Z 00000KT 9999 BKN034 OVC047 01/M03 Q1004 NOSIG",
      "taf": "TAF LRBS 091700Z 0918/1018 VRB04KT CAVOK"
    },
    {
      "icao": "LRBV",
      "alert": "OK",
      "vis_m": 9999,
      "fzfg": false,
      "metar_trigger": false,
      "taf_trigger": false,
      "metar": "METAR LRBV 092100Z 09005KT 9999 BKN045 M05/M09 Q1001",
      "taf": "TAF LRBV 091700Z 0918/1003 VRB04KT 9999 BKN050"
    },
    {
      "icao": "LRCL",
      "alert": "OK",
      "vis_m": 9999,
      "fzfg": false,
      "metar_trigger": false,
      "taf_trigger": false,
      "metar": "METAR LRCL 092100Z 06006KT 9999 OVC042 M05/M08 Q1002",
      "taf": "TAF LRCL 092000Z 0921/1006 09006KT 9999 OVC040"
    },
    {
      "icao": "LRCV",
      "alert": "OK",
      "vis_m": 9999,
      "fzfg": false,
      "metar_trigger": false,
      "taf_trigger": false,
      "metar": "METAR LRCV 092100Z 10004KT 9999 -SN SCT040 BKN049 M01/M02 Q1002",
      "taf": "TAF LRCV 092000Z 0921/1006 VRB04KT 9999 SCT025 BKN035"
    },
    {
      "icao": "LRIA",
      "alert": "OK",
      "vis_m": 9999,
      "fzfg": false,
      "metar_trigger": false,
      "taf_trigger": false,
      "metar": "METAR LRIA 092100Z 22003KT 200V260 CAVOK M04/M10 Q1002",
      "taf": "TAF LRIA 092000Z 0921/1006 21005KT CAVOK"
    },
    {
      "icao": "LROP",
      "alert": "OK",
      "vis_m": 9999,
      "fzfg": false,
      "metar_trigger": false,
      "taf_trigger": false,
      "metar": "METAR LROP 092100Z VRB02KT 9999 OVC032 00/M03 Q1004 NOSIG",
      "taf": "TAF LROP 091700Z 0918/1018 VRB04KT CAVOK"
    },
    {
      "icao": "LRSB",
      "alert": "OK",
      "vis_m": 9999,
      "fzfg": false,
      "metar_trigger": false,
      "taf_trigger": false,
      "metar": "METAR LRSB 092100Z 11004KT 9999 FEW038 OVC047 M03/M08 Q1000",
      "taf": "TAF LRSB 091700Z 0918/1018 VRB04KT 9999 OVC045"
    },
    {
      "icao": "LRSM",
      "alert": "OK",
      "vis_m": 9999,
      "fzfg": false,
      "metar_trigger": false,
      "taf_trigger": false,
      "metar": "METAR LRSM 092100Z AUTO 10005KT 9999 FEW028/// OVC032/// M05/M08 Q1003",
      "taf": "TAF LRSM 091400Z 0915/0924 VRB04KT CAVOK"
    },
    {
      "icao": "LRSV",
      "alert": "OK",
      "vis_m": 9999,
      "fzfg": false,
      "metar_trigger": false,
      "taf_trigger": false,
      "metar": "METAR LRSV 092100Z COR 25008KT CAVOK M06/M12 Q0999",
      "taf": "TAF LRSV 092000Z 0921/1006 24008KT CAVOK"
    },
    {
      "icao": "LRTM",
      "alert": "OK",
      "vis_m": 9999,
      "fzfg": false,
      "metar_trigger": false,
      "taf_trigger": false,
      "metar": "METAR LRTM 092100Z AUTO 06007KT 9999 FEW032/// OVC046/// M05/M08 Q1002",
      "taf": "TAF LRTM 091400Z 0915/0924 VRB04KT CAVOK"
    },
    {
      "icao": "LRTR",
      "alert": "OK",
      "vis_m": 3000,
      "fzfg": false,
      "metar_trigger": false,
      "taf_trigger": false,
      "metar": "METAR LRTR 092100Z 11007KT 3000 -SN BR BKN005 OVC024 M02/M02 Q1001 RESN",
      "taf": "TAF LRTR 091700Z 0918/1018 11010KT 3000 -SN BR BKN010 OVC025"
    },
    {
      "icao": "LTAC",
      "alert": "OK",
      "vis_m": 9999,
      "fzfg": false,
      "metar_trigger": false,
      "taf_trigger": false,
      "metar": "METAR LTAC 092120Z 20006KT CAVOK M04/M09 Q1011 NOSIG RMK RWY21C 15006KT RWY03L 19005KT RWY21R 15006KT RWY03R 18006KT RWY21L 15006KT",
      "taf": "TAF LTAC 091640Z 0918/1018 26012KT CAVOK"
    },
    {
      "icao": "LTFM",
      "alert": "OK",
      "vis_m": 9999,
      "fzfg": false,
      "metar_trigger": false,
      "taf_trigger": false,
      "metar": "METAR LTFM 092120Z 21023KT CAVOK 08/01 Q1008 NOSIG RMK RWY17L 21017KT RWY34L 20018KT RWY16R 21016G27KT RWY36 22020KT RWY18 22021KT",
      "taf": "TAF LTFM 091640Z 0918/1024 20018KT CAVOK"
    },
    {
      "icao": "LUKK",
      "alert": "OK",
      "vis_m": 9999,
      "fzfg": false,
      "metar_trigger": false,
      "taf_trigger": false,
      "metar": "METAR LUKK 092100Z 23007KT CAVOK M06/M10 Q1002 NOSIG",
      "taf": "TAF LUKK 091702Z 0918/1018 VRB05KT 9999 SCT030"
    },
    {
      "icao": "LWOH",
      "alert": "OK",
      "vis_m": null,
      "fzfg": false,
      "metar_trigger": false,
      "taf_trigger": false,
      "metar": "",
      "taf": "TAF LWOH 092050Z 0921/1021 13010KT 9999 RA SCT005 OVC020"
    },
    {
      "icao": "LWSK",
      "alert": "OK",
      "vis_m": 9999,
      "fzfg": false,
      "metar_trigger": false,
      "taf_trigger": false,
      "metar": "METAR LWSK 092120Z VRB02KT 9999 FEW060 SCT090 M02/M04 Q1006 NOSIG",
      "taf": "TAF LWSK 092050Z 0921/1021 VRB02KT 9999 BKN050 BKN080"
    },
    {
      "icao": "LYBE",
      "alert": "OK",
      "vis_m": 2000,
      "fzfg": false,
      "metar_trigger": false,
      "taf_trigger": false,
      "metar": "METAR LYBE 092100Z 23006KT 2000 -RA BR SCT007 BKN023 00/00 Q1001 BECMG BKN007",
      "taf": "TAF LYBE 091700Z 0918/1018 10006KT 6000 BKN040 TX01/0918Z TN00/1006Z"
    },
    {
      "icao": "LYNI",
      "alert": "OK",
      "vis_m": 9999,
      "fzfg": false,
      "metar_trigger": false,
      "taf_trigger": false,
      "metar": "METAR LYNI 092100Z VRB03KT 9999 SCT040 02/00 Q1003 NOSIG",
      "taf": "TAF LYNI 091700Z 0918/1018 17004KT 8000 SCT015 BKN030 TX01/0918Z TN00/1006Z"
    },
    {
      "icao": "LYPG",
      "alert": "OK",
      "vis_m": 6000,
      "fzfg": false,
      "metar_trigger": false,
      "taf_trigger": false,
      "metar": "METAR LYPG 092100Z 31003KT 240V020 6000 RA SCT013 SCT026 BKN030 02/02 Q1004 RESHRA NOSIG",
      "taf": "TAF LYPG 091700Z 0918/1018 35005KT 7000 RA FEW010 SCT023 OVC070 TX08/1012Z TN02/0918Z"
    },
    {
      "icao": "LZIB",
      "alert": "OK",
      "vis_m": 9999,
      "fzfg": false,
      "metar_trigger": false,
      "taf_trigger": false,
      "metar": "METAR LZIB 092100Z 04005KT 9999 OVC010 M04/M06 Q1001 NOSIG",
      "taf": "TAF LZIB 091715Z 0918/1018 06005KT 9999 OVC008"
    },
    {
      "icao": "LZKZ",
      "alert": "OK",
      "vis_m": 9999,
      "fzfg": false,
      "metar_trigger": false,
      "taf_trigger": false,
      "metar": "METAR LZKZ 092100Z 08002KT CAVOK M09/M11 Q1002 NOSIG",
      "taf": "TAF LZKZ 091715Z 0918/1018 VRB02KT 9999 SCT045"
    },
    {
      "icao": "LZTT",
      "alert": "OK",
      "vis_m": 9999,
      "fzfg": false,
      "metar_trigger": false,
      "taf_trigger": false,
      "metar": "METAR LZTT 092100Z VRB02KT 9999 BKN026 M10/M12 Q0997",
      "taf": "TAF LZTT 091715Z 0918/1018 VRB02KT 9999 BKN045"
    },
    {
      "icao": "OEJN",
      "alert": "OK",
      "vis_m": 9999,
      "fzfg": false,
      "metar_trigger": false,
      "taf_trigger": false,
      "metar": "METAR OEJN 092100Z 00000KT 9999 FEW040 24/17 Q1014 NOSIG",
      "taf": "TAF OEJN 091700Z 0918/1024 04006KT 6000 SCT040"
    },
    {
      "icao": "OEMA",
      "alert": "OK",
      "vis_m": 9999,
      "fzfg": false,
      "metar_trigger": false,
      "taf_trigger": false,
      "metar": "METAR OEMA 092100Z 26004KT CAVOK 22/09 Q1017 NOSIG",
      "taf": "TAF OEMA 091700Z 0918/1024 30010KT 7000 SCT040"
    },
    {
      "icao": "OJAI",
      "alert": "OK",
      "vis_m": 2500,
      "fzfg": false,
      "metar_trigger": false,
      "taf_trigger": false,
      "metar": "METAR OJAI 092100Z 28022KT 2500 BLDU FEW030 SCT040 08/06 Q1016 NOSIG",
      "taf": "TAF OJAI 091700Z 0918/1024 26016KT 2500 RA BR SCT030 BKN035"
    },
    {
      "icao": "OMAA",
      "alert": "OK",
      "vis_m": 9999,
      "fzfg": false,
      "metar_trigger": false,
      "taf_trigger": false,
      "metar": "METAR OMAA 092100Z 04003KT CAVOK 19/13 Q1018 NOSIG",
      "taf": "TAF OMAA 091700Z 0918/1100 VRB02KT 8000 NSC"
    },
    {
      "icao": "OMDB",
      "alert": "OK",
      "vis_m": 9999,
      "fzfg": false,
      "metar_trigger": false,
      "taf_trigger": false,
      "metar": "METAR OMDB 092100Z 08005KT 050V110 CAVOK 21/12 Q1018 NOSIG",
      "taf": "TAF OMDB 091700Z 0918/1100 12005KT 8000 NSC"
    },
    {
      "icao": "UAAA",
      "alert": "OK",
      "vis_m": 1800,
      "fzfg": false,
      "metar_trigger": false,
      "taf_trigger": false,
      "metar": "METAR UAAA 092100Z VRB01MPS 1800 R23L/P2000N BR OVC004 M05/M06 Q1020 NOSIG RMK QBB140",
      "taf": "TAF UAAA 091701Z 0918/1018 17003MPS 1200 BR FU BKN011 OVC020 TX03/1009Z TNM07/1001Z"
    },
    {
      "icao": "UBBB",
      "alert": "OK",
      "vis_m": 9999,
      "fzfg": false,
      "metar_trigger": false,
      "taf_trigger": false,
      "metar": "METAR UBBB 092100Z 31016G26KT CAVOK 08/05 Q1003 NOSIG",
      "taf": ""
    },
    {
      "icao": "UDSG",
      "alert": "OK",
      "vis_m": 1500,
      "fzfg": false,
      "metar_trigger": false,
      "taf_trigger": false,
      "metar": "METAR UDSG 092100Z 05003KT 1500 R02/P2000U BR OVC023 M03/M03 Q1006 NOSIG",
      "taf": "TAF UDSG 091700Z 0918/1018 VRB06KT 1500 BR OVC020"
    },
    {
      "icao": "UDYZ",
      "alert": "OK",
      "vis_m": 1600,
      "fzfg": false,
      "metar_trigger": false,
      "taf_trigger": false,
      "metar": "METAR UDYZ 092100Z VRB02KT 1600 R08/P2000N BR FEW006 BKN033CB M00/M02 Q1007 NOSIG",
      "taf": "TAF UDYZ 091700Z 0918/1018 24006KT 1000 BR BKN030CB"
    },
    {
      "icao": "UGKO",
      "alert": "OK",
      "vis_m": 9999,
      "fzfg": false,
      "metar_trigger": false,
      "taf_trigger": false,
      "metar": "METAR UGKO 092100Z VRB02KT 9999 BKN094 05/05 Q1006 NOSIG",
      "taf": "TAF UGKO 091700Z 0918/1018 25010KT 9999 OVC050 TX09/1012Z TN04/1003Z"
    }
  ]
}