{
  "ts_utc": "2025-12-18T22:46:41Z",
  "threshold_m": 150,
  "source": "stations_override.txt (ICAO list) + aviationweather.gov (METAR/TAF raw)",
  "station_count": 114,
  "stations": [
    {
      "icao": "BIKF",
      "alert": "OK",
      "vis_m": 9999,
      "fzfg": false,
      "metar_trigger": false,
      "taf_trigger": false,
      "metar": "METAR BIKF 182230Z 02012KT CAVOK 02/M00 Q0977",
      "taf": "TAF BIKF 181957Z 1821/1921 04012KT 9999 SCT035 TX05/1918Z TNM01/1906Z"
    },
    {
      "icao": "BKPR",
      "alert": "OK",
      "vis_m": 6000,
      "fzfg": false,
      "metar_trigger": false,
      "taf_trigger": false,
      "metar": "METAR BKPR 182230Z VRB02KT 6000 NSC 00/M00 Q1031 NOSIG",
      "taf": "TAF BKPR 181730Z 1818/1918 VRB03KT CAVOK"
    },
    {
      "icao": "EBBR",
      "alert": "OK",
      "vis_m": 9999,
      "fzfg": false,
      "metar_trigger": false,
      "taf_trigger": false,
      "metar": "METAR EBBR 182220Z 21018G28KT 9999 -RA BKN039 14/07 Q1011 NOSIG",
      "taf": ""
    },
    {
      "icao": "EBCI",
      "alert": "OK",
      "vis_m": 9999,
      "fzfg": false,
      "metar_trigger": false,
      "taf_trigger": false,
      "metar": "METAR EBCI 182220Z 20015KT CAVOK 13/07 Q1012 TEMPO 20015G25KT",
      "taf": ""
    },
    {
      "icao": "EDDB",
      "alert": "OK",
      "vis_m": 9999,
      "fzfg": false,
      "metar_trigger": false,
      "taf_trigger": false,
      "metar": "METAR EDDB 182220Z AUTO 16006KT CAVOK 04/03 Q1020 NOSIG",
      "taf": "TAF EDDB 181700Z 1818/1918 17008KT CAVOK"
    },
    {
      "icao": "EDDH",
      "alert": "OK",
      "vis_m": 9999,
      "fzfg": false,
      "metar_trigger": false,
      "taf_trigger": false,
      "metar": "METAR EDDH 182220Z AUTO 14009KT CAVOK 07/06 Q1012 NOSIG",
      "taf": "TAF EDDH 181700Z 1818/1924 16009KT CAVOK"
    },
    {
      "icao": "EDDK",
      "alert": "OK",
      "vis_m": 9999,
      "fzfg": false,
      "metar_trigger": false,
      "taf_trigger": false,
      "metar": "METAR EDDK 182220Z AUTO 15010KT CAVOK 09/06 Q1015 NOSIG",
      "taf": "TAF EDDK 181700Z 1818/1924 14011KT CAVOK"
    },
    {
      "icao": "EDDN",
      "alert": "OK",
      "vis_m": 9999,
      "fzfg": false,
      "metar_trigger": false,
      "taf_trigger": false,
      "metar": "METAR EDDN 182220Z AUTO 12009KT CAVOK 01/00 Q1022",
      "taf": "TAF EDDN 181700Z 1818/1918 12008KT CAVOK"
    },
    {
      "icao": "EDFH",
      "alert": "OK",
      "vis_m": 9999,
      "fzfg": false,
      "metar_trigger": false,
      "taf_trigger": false,
      "metar": "METAR EDFH 182220Z 19013KT 160V220 CAVOK 09/05 Q1016",
      "taf": ""
    },
    {
      "icao": "EDJA",
      "alert": "OK",
      "vis_m": 9999,
      "fzfg": false,
      "metar_trigger": false,
      "taf_trigger": false,
      "metar": "METAR EDJA 182220Z AUTO 17004KT 9999 // FEW002/// 00/M00 Q1021",
      "taf": "TAF EDJA 181700Z 1818/1903 VRB02KT CAVOK"
    },
    {
      "icao": "EDLW",
      "alert": "OK",
      "vis_m": 9999,
      "fzfg": false,
      "metar_trigger": false,
      "taf_trigger": false,
      "metar": "METAR EDLW 182220Z AUTO 17017KT 9999 // NCD 11/06 Q1013",
      "taf": "TAF EDLW 181700Z 1818/1918 18014KT CAVOK"
    },
    {
      "icao": "EDSB",
      "alert": "OK",
      "vis_m": 8000,
      "fzfg": false,
      "metar_trigger": false,
      "taf_trigger": false,
      "metar": "METAR EDSB 182220Z 19002KT 8000 NSC 04/04 Q1020",
      "taf": ""
    },
    {
      "icao": "EETN",
      "alert": "OK",
      "vis_m": 9000,
      "fzfg": false,
      "metar_trigger": false,
      "taf_trigger": false,
      "metar": "METAR EETN 182220Z 22012KT 9000 -DZ OVC005 05/05 Q1017",
      "taf": "TAF EETN 181730Z 1818/1918 20012KT 8000 OVC005"
    },
    {
      "icao": "EFHK",
      "alert": "OK",
      "vis_m": 4500,
      "fzfg": false,
      "metar_trigger": false,
      "taf_trigger": false,
      "metar": "METAR EFHK 182220Z 20014KT 4500 -DZ BR FEW002 BKN003 06/05 Q1014 TEMPO 5000",
      "taf": "TAF EFHK 182037Z 1821/1921 20007KT 4000 -DZ BR FEW002 OVC004"
    },
    {
      "icao": "EFTU",
      "alert": "OK",
      "vis_m": 9000,
      "fzfg": false,
      "metar_trigger": false,
      "taf_trigger": false,
      "metar": "METAR EFTU 182220Z AUTO 23011KT 9000 DZRA OVC008 06/05 Q1012",
      "taf": ""
    },
    {
      "icao": "EGGW",
      "alert": "OK",
      "vis_m": 9999,
      "fzfg": false,
      "metar_trigger": false,
      "taf_trigger": false,
      "metar": "METAR EGGW 182220Z AUTO 21012KT 9999 BKN016 BKN020 10/08 Q1003",
      "taf": ""
    },
    {
      "icao": "EGKK",
      "alert": "OK",
      "vis_m": 4500,
      "fzfg": false,
      "metar_trigger": false,
      "taf_trigger": false,
      "metar": "METAR EGKK 182220Z 24009KT 200V270 4500 RA FEW008 SCT011 BKN022 11/10 Q1006",
      "taf": "TAF EGKK 181700Z 1818/1924 18016G28KT 9999 BKN016"
    },
    {
      "icao": "EHEH",
      "alert": "OK",
      "vis_m": 9999,
      "fzfg": false,
      "metar_trigger": false,
      "taf_trigger": false,
      "metar": "METAR EHEH 182225Z AUTO 20013KT 160V230 9999 FEW063 BKN070 OVC100 13/06 Q1010 BLU",
      "taf": "TAF EHEH 181733Z 1818/1924 18013KT CAVOK"
    },
    {
      "icao": "EKBI",
      "alert": "OK",
      "vis_m": 9999,
      "fzfg": false,
      "metar_trigger": false,
      "taf_trigger": false,
      "metar": "METAR EKBI 182220Z AUTO 16010KT 130V190 9999 FEW038/// BKN073/// 08/06 Q1008",
      "taf": "TAF EKBI 182027Z 1821/1921 19012KT 7000 BKN006"
    },
    {
      "icao": "EKCH",
      "alert": "OK",
      "vis_m": 9999,
      "fzfg": false,
      "metar_trigger": false,
      "taf_trigger": false,
      "metar": "METAR EKCH 182220Z AUTO 17015KT 9999 NCD 07/06 Q1014 NOSIG",
      "taf": "TAF EKCH 182027Z 1821/1921 19012KT 9999 BKN020"
    },
    {
      "icao": "ENTO",
      "alert": "OK",
      "vis_m": 8000,
      "fzfg": false,
      "metar_trigger": false,
      "taf_trigger": false,
      "metar": "METAR ENTO 182220Z AUTO 18015KT 8000 RA BKN002/// BKN003/// 08/08 Q1007",
      "taf": ""
    },
    {
      "icao": "EPGD",
      "alert": "OK",
      "vis_m": 5000,
      "fzfg": false,
      "metar_trigger": false,
      "taf_trigger": false,
      "metar": "METAR EPGD 182230Z 21006KT 5000 BR BKN004 05/04 Q1021",
      "taf": ""
    },
    {
      "icao": "EPKK",
      "alert": "OK",
      "vis_m": 1500,
      "fzfg": false,
      "metar_trigger": false,
      "taf_trigger": false,
      "metar": "METAR EPKK 182230Z VRB01KT 1500 BR NSC M00/M00 Q1026",
      "taf": "TAF EPKK 182030Z 1821/1921 VRB02KT 2500 BR NSC"
    },
    {
      "icao": "EPKT",
      "alert": "OK",
      "vis_m": 1700,
      "fzfg": false,
      "metar_trigger": false,
      "taf_trigger": false,
      "metar": "METAR EPKT 182230Z 13002KT 1700 BR NSC 01/00 Q1025",
      "taf": "TAF EPKT 181730Z 1818/1918 14004KT 3000 BR NSC"
    },
    {
      "icao": "EPWA",
      "alert": "OK",
      "vis_m": 800,
      "fzfg": false,
      "metar_trigger": false,
      "taf_trigger": false,
      "metar": "METAR EPWA 182230Z 14006KT 0800 R33/0900N FG OVC002 03/03 Q1026 TEMPO 0700 FG",
      "taf": ""
    },
    {
      "icao": "EPWR",
      "alert": "OK",
      "vis_m": 5000,
      "fzfg": false,
      "metar_trigger": false,
      "taf_trigger": false,
      "metar": "METAR EPWR 182230Z 12005KT 5000 MIFG BR NSC 00/00 Q1024",
      "taf": "TAF EPWR 182030Z 1821/1921 11004KT 5000 BR NSC"
    },
    {
      "icao": "ESGG",
      "alert": "OK",
      "vis_m": 800,
      "fzfg": false,
      "metar_trigger": false,
      "taf_trigger": false,
      "metar": "METAR ESGG 182220Z 17012KT 0800 R03/P2000N R21/P2000N -RA VV002 06/06 Q1010",
      "taf": "TAF ESGG 182030Z 1821/1921 19009KT 6000 OVC010"
    },
    {
      "icao": "ESKN",
      "alert": "OK",
      "vis_m": 9999,
      "fzfg": false,
      "metar_trigger": false,
      "taf_trigger": false,
      "metar": "METAR ESKN 182220Z 21007KT 9999 BKN013 06/05 Q1013",
      "taf": ""
    },
    {
      "icao": "ESMX",
      "alert": "OK",
      "vis_m": 4700,
      "fzfg": false,
      "metar_trigger": false,
      "taf_trigger": false,
      "metar": "METAR ESMX 182220Z AUTO 17008KT 4700 BR OVC003/// 06/06 Q1014",
      "taf": ""
    },
    {
      "icao": "EVRA",
      "alert": "OK",
      "vis_m": 7000,
      "fzfg": false,
      "metar_trigger": false,
      "taf_trigger": false,
      "metar": "METAR EVRA 182220Z 19010KT 7000 OVC003 02/01 Q1022 NOSIG",
      "taf": "TAF EVRA 182008Z 1821/1921 18010KT 5000 BR OVC002"
    },
    {
      "icao": "EYKA",
      "alert": "OK",
      "vis_m": 450,
      "fzfg": true,
      "metar_trigger": false,
      "taf_trigger": false,
      "metar": "METAR EYKA 182220Z 18006KT 140V220 0450 R26/1100D FZFG VV002 M00/M00 Q1025",
      "taf": ""
    },
    {
      "icao": "EYVI",
      "alert": "OK",
      "vis_m": 250,
      "fzfg": true,
      "metar_trigger": false,
      "taf_trigger": false,
      "metar": "METAR EYVI 182220Z 19007KT 0250 R01/0800N -FZDZ FZFG VV001 M01/M01 Q1025 NOSIG",
      "taf": "TAF EYVI 181702Z 1818/1918 19007KT 0350 FZFG VV001"
    },
    {
      "icao": "GCLP",
      "alert": "OK",
      "vis_m": 9999,
      "fzfg": false,
      "metar_trigger": false,
      "taf_trigger": false,
      "metar": "METAR GCLP 182230Z 35010KT 9999 FEW020 BKN035 18/15 Q1023 NOSIG",
      "taf": "TAF GCLP 182000Z 1821/1921 02017KT 9999 SCT025 TX21/1914Z TN17/1906Z"
    },
    {
      "icao": "GCTS",
      "alert": "OK",
      "vis_m": 9999,
      "fzfg": false,
      "metar_trigger": false,
      "taf_trigger": false,
      "metar": "METAR GCTS 182230Z 07007KT 9999 BKN030 19/14 Q1024 NOSIG",
      "taf": "TAF GCTS 182000Z 1821/1921 02005KT 9999 SCT035 TX23/1914Z TN16/1906Z"
    },
    {
      "icao": "HECA",
      "alert": "OK",
      "vis_m": 9999,
      "fzfg": false,
      "metar_trigger": false,
      "taf_trigger": false,
      "metar": "METAR HECA 182230Z 09007KT CAVOK 12/05 Q1027 NOSIG",
      "taf": ""
    },
    {
      "icao": "HEGN",
      "alert": "OK",
      "vis_m": null,
      "fzfg": false,
      "metar_trigger": false,
      "taf_trigger": false,
      "metar": "",
      "taf": "TAF HEGN 181700Z 1818/1924 31010KT CAVOK"
    },
    {
      "icao": "HESH",
      "alert": "OK",
      "vis_m": 9999,
      "fzfg": false,
      "metar_trigger": false,
      "taf_trigger": false,
      "metar": "METAR HESH 182200Z 34009KT CAVOK 16/02 Q1026 NOSIG",
      "taf": "TAF HESH 181700Z 1818/1924 35010KT CAVOK"
    },
    {
      "icao": "HESX",
      "alert": "OK",
      "vis_m": 9999,
      "fzfg": false,
      "metar_trigger": false,
      "taf_trigger": false,
      "metar": "METAR HESX 182200Z 03005KT CAVOK 11/06 Q1028 NOSIG",
      "taf": ""
    },
    {
      "icao": "LATI",
      "alert": "OK",
      "vis_m": 2000,
      "fzfg": false,
      "metar_trigger": false,
      "taf_trigger": false,
      "metar": "METAR LATI 182220Z 16003KT 2000 BR NSC 08/06 Q1030 NOSIG",
      "taf": "TAF LATI 181700Z 1818/1918 VRB05KT CAVOK TX18/1912Z TN05/1905Z"
    },
    {
      "icao": "LBSF",
      "alert": "OK",
      "vis_m": 6000,
      "fzfg": true,
      "metar_trigger": false,
      "taf_trigger": false,
      "metar": "METAR LBSF 182230Z AUTO VRB02KT 6000 NCD M02/M02 Q1030 TEMPO 0800 FZFG",
      "taf": "TAF LBSF 181700Z 1818/1918 VRB03KT 5000 BR NSC"
    },
    {
      "icao": "LBWN",
      "alert": "OK",
      "vis_m": 9999,
      "fzfg": false,
      "metar_trigger": false,
      "taf_trigger": false,
      "metar": "METAR LBWN 182230Z AUTO 28004KT 9999 NCD 06/00 Q1028 NOSIG",
      "taf": "TAF LBWN 181700Z 1818/1918 VRB03KT CAVOK"
    },
    {
      "icao": "LCLK",
      "alert": "OK",
      "vis_m": 9999,
      "fzfg": false,
      "metar_trigger": false,
      "taf_trigger": false,
      "metar": "METAR LCLK 182230Z 31006KT CAVOK 13/09 Q1026 NOSIG",
      "taf": "TAF LCLK 181730Z 1818/1918 31007KT CAVOK"
    },
    {
      "icao": "LDDU",
      "alert": "OK",
      "vis_m": 9999,
      "fzfg": false,
      "metar_trigger": false,
      "taf_trigger": false,
      "metar": "METAR LDDU 182230Z 08004KT 040V130 9999 BKN032 10/09 Q1030",
      "taf": "TAF LDDU 181725Z 1818/1918 08005KT 9999 SCT030 TX16/1911Z TN11/1905Z"
    },
    {
      "icao": "LDSP",
      "alert": "OK",
      "vis_m": 9999,
      "fzfg": false,
      "metar_trigger": false,
      "taf_trigger": false,
      "metar": "METAR LDSP 182230Z AUTO VRB02KT CAVOK 10/10 Q1029",
      "taf": "TAF LDSP 181725Z 1818/1918 VRB02KT 9999 BKN025 TX16/1912Z TN10/1905Z"
    },
    {
      "icao": "LDZA",
      "alert": "OK",
      "vis_m": 200,
      "fzfg": true,
      "metar_trigger": false,
      "taf_trigger": false,
      "metar": "METAR LDZA 182230Z VRB01KT 0200 R04/0450N R22/0800U FZFG NSC M00/M01 Q1028 BECMG VV001",
      "taf": "TAF LDZA 181725Z 1818/1918 VRB02KT 0400 FG NSC TX10/1914Z TN01/1904Z"
    },
    {
      "icao": "LEAL",
      "alert": "OK",
      "vis_m": 9999,
      "fzfg": false,
      "metar_trigger": false,
      "taf_trigger": false,
      "metar": "METAR LEAL 182230Z 29005KT CAVOK 12/11 Q1023 NOSIG",
      "taf": "TAF LEAL 181700Z 1818/1918 32006KT 9999 FEW020 TX17/1912Z TN08/1906Z"
    },
    {
      "icao": "LEBL",
      "alert": "OK",
      "vis_m": 8000,
      "fzfg": false,
      "metar_trigger": false,
      "taf_trigger": false,
      "metar": "METAR LEBL 182230Z 32007KT 8000 NSC 10/09 Q1023 NOSIG",
      "taf": "TAF LEBL 181700Z 1818/1918 22005KT 9999 FEW010 TX16/1912Z TN07/1906Z"
    },
    {
      "icao": "LECH",
      "alert": "OK",
      "vis_m": 6000,
      "fzfg": false,
      "metar_trigger": false,
      "taf_trigger": false,
      "metar": "METAR LECH 182230Z AUTO 25004KT 200V270 6000 NCD 09/09 Q1023",
      "taf": ""
    },
    {
      "icao": "LEMD",
      "alert": "OK",
      "vis_m": 9999,
      "fzfg": false,
      "metar_trigger": false,
      "taf_trigger": false,
      "metar": "METAR LEMD 182230Z 18003KT 9999 FEW046 09/07 Q1022 NOSIG",
      "taf": "TAF LEMD 181700Z 1818/1924 VRB04KT 9999 FEW030 TX11/1915Z TN06/1907Z"
    },
    {
      "icao": "LEMG",
      "alert": "OK",
      "vis_m": 9999,
      "fzfg": false,
      "metar_trigger": false,
      "taf_trigger": false,
      "metar": "METAR LEMG 182230Z 31004KT CAVOK 10/08 Q1023 NOSIG",
      "taf": "TAF LEMG 181700Z 1818/1918 29010KT 9999 FEW030 TX17/1914Z TN09/1906Z"
    },
    {
      "icao": "LERS",
      "alert": "OK",
      "vis_m": 6000,
      "fzfg": false,
      "metar_trigger": false,
      "taf_trigger": false,
      "metar": "METAR LERS 182230Z AUTO 06005KT 6000 NCD 08/08 Q1023",
      "taf": ""
    },
    {
      "icao": "LEVC",
      "alert": "OK",
      "vis_m": 9999,
      "fzfg": false,
      "metar_trigger": false,
      "taf_trigger": false,
      "metar": "METAR LEVC 182230Z 30003KT CAVOK 08/08 Q1023 NOSIG",
      "taf": "TAF LEVC 181700Z 1818/1918 VRB03KT 9999 FEW020 TX16/1912Z TN06/1906Z"
    },
    {
      "icao": "LFLL",
      "alert": "OK",
      "vis_m": 9999,
      "fzfg": false,
      "metar_trigger": false,
      "taf_trigger": false,
      "metar": "METAR LFLL 182230Z 17009KT 9999 FEW046 BKN260 13/06 Q1021 NOSIG",
      "taf": "TAF LFLL 181700Z 1818/1924 18012KT CAVOK"
    },
    {
      "icao": "LFMN",
      "alert": "OK",
      "vis_m": 9999,
      "fzfg": false,
      "metar_trigger": false,
      "taf_trigger": false,
      "metar": "METAR LFMN 182230Z 34009KT 9999 FEW060 11/07 Q1027 NOSIG",
      "taf": "TAF LFMN 182000Z 1821/2003 34010KT 9999 FEW023 SCT050"
    },
    {
      "icao": "LFOB",
      "alert": "OK",
      "vis_m": 9999,
      "fzfg": false,
      "metar_trigger": false,
      "taf_trigger": false,
      "metar": "METAR LFOB 182230Z AUTO 20010KT 9999 -RA BKN032/// OVC046/// ///TCU 12/10 Q1011 TEMPO 4000 RA BKN014 OVC025 BECMG 18015G25KT",
      "taf": "TAF LFOB 181700Z 1818/1918 18015G25KT CAVOK"
    },
    {
      "icao": "LFPO",
      "alert": "OK",
      "vis_m": 9999,
      "fzfg": false,
      "metar_trigger": false,
      "taf_trigger": false,
      "metar": "METAR LFPO 182230Z 19014KT 9999 BKN033 BKN096 14/08 Q1013 NOSIG",
      "taf": ""
    },
    {
      "icao": "LFSB",
      "alert": "OK",
      "vis_m": 9999,
      "fzfg": false,
      "metar_trigger": false,
      "taf_trigger": false,
      "metar": "METAR LFSB 182230Z AUTO 17009KT CAVOK 04/02 Q1021 NOSIG",
      "taf": "TAF LFSB 181700Z 1818/1918 17006KT CAVOK"
    },
    {
      "icao": "LGAV",
      "alert": "OK",
      "vis_m": 9999,
      "fzfg": false,
      "metar_trigger": false,
      "taf_trigger": false,
      "metar": "METAR LGAV 182220Z VRB03KT 9999 FEW018 06/05 Q1030 NOSIG",
      "taf": "TAF LGAV 181700Z 1818/1918 VRB05KT 9999 FEW018"
    },
    {
      "icao": "LGIR",
      "alert": "OK",
      "vis_m": 9999,
      "fzfg": false,
      "metar_trigger": false,
      "taf_trigger": false,
      "metar": "METAR LGIR 182220Z 17007KT 9999 FEW018 11/09 Q1029 NOSIG",
      "taf": "TAF LGIR 181700Z 1818/1918 VRB03KT 9999 SCT020"
    },
    {
      "icao": "LGKR",
      "alert": "OK",
      "vis_m": 8000,
      "fzfg": false,
      "metar_trigger": false,
      "taf_trigger": false,
      "metar": "METAR LGKR 182220Z VRB01KT 8000 SCT010 SCT020 14/13 Q1029 NOSIG",
      "taf": "TAF LGKR 181700Z 1818/1918 VRB03KT 9999 FEW010 SCT020"
    },
    {
      "icao": "LGRP",
      "alert": "OK",
      "vis_m": 9999,
      "fzfg": false,
      "metar_trigger": false,
      "taf_trigger": false,
      "metar": "METAR LGRP 182220Z VRB03KT 9999 FEW020 14/11 Q1026 NOSIG",
      "taf": "TAF LGRP 181700Z 1818/1918 26010KT 9999 FEW018"
    },
    {
      "icao": "LGTS",
      "alert": "OK",
      "vis_m": 7000,
      "fzfg": false,
      "metar_trigger": false,
      "taf_trigger": false,
      "metar": "METAR LGTS 182220Z 11006KT 7000 FEW006 04/04 Q1030 NOSIG",
      "taf": "TAF LGTS 181700Z 1818/1918 VRB03KT 9999 FEW025"
    },
    {
      "icao": "LGZA",
      "alert": "OK",
      "vis_m": null,
      "fzfg": false,
      "metar_trigger": false,
      "taf_trigger": false,
      "metar": "",
      "taf": "TAF LGZA 182000Z 1821/1906 VRB03KT 9999 FEW020"
    },
    {
      "icao": "LHBP",
      "alert": "OK",
      "vis_m": 4700,
      "fzfg": false,
      "metar_trigger": false,
      "taf_trigger": false,
      "metar": "METAR LHBP 182230Z 09003KT 060V120 4700 BR FEW005 BKN012 BKN030 06/04 Q1029 TEMPO BKN005 OVC012",
      "taf": "TAF LHBP 181715Z 1818/1918 08005KT 5000 BR SCT006 BKN025"
    },
    {
      "icao": "LHDC",
      "alert": "OK",
      "vis_m": 3000,
      "fzfg": false,
      "metar_trigger": false,
      "taf_trigger": false,
      "metar": "METAR LHDC 182215Z AUTO 07004KT 040V100 3000 BR OVC032 03/03 Q1030",
      "taf": "TAF LHDC 181415Z 1815/1824 20005KT 7000 BKN016"
    },
    {
      "icao": "LIBD",
      "alert": "OK",
      "vis_m": 100,
      "fzfg": false,
      "metar_trigger": false,
      "taf_trigger": false,
      "metar": "METAR LIBD 182220Z 29003KT 260V330 0100 0050 R07/0600U FG VV002 11/11 Q1029",
      "taf": "TAF LIBD 181700Z 1818/1918 VRB04KT 0300 FG OVC001"
    },
    {
      "icao": "LICC",
      "alert": "OK",
      "vis_m": 7000,
      "fzfg": false,
      "metar_trigger": false,
      "taf_trigger": false,
      "metar": "METAR LICC 182220Z 24004KT 7000 SCT010 SCT060 13/12 Q1028",
      "taf": "TAF LICC 181700Z 1818/1918 VRB05KT 9999 SCT025 SCT050"
    },
    {
      "icao": "LICJ",
      "alert": "OK",
      "vis_m": 9999,
      "fzfg": false,
      "metar_trigger": false,
      "taf_trigger": false,
      "metar": "METAR LICJ 182220Z 10004KT CAVOK 13/11 Q1027",
      "taf": "TAF LICJ 181700Z 1818/1918 VRB05KT 9999 FEW020"
    },
    {
      "icao": "LIEO",
      "alert": "OK",
      "vis_m": 9999,
      "fzfg": false,
      "metar_trigger": false,
      "taf_trigger": false,
      "metar": "METAR LIEO 182220Z AUTO 27003KT 200V280 9999 BKN096/// 12/12 Q1025",
      "taf": "TAF LIEO 181700Z 1818/1918 VRB06KT 7000 SCT010 SCT040"
    },
    {
      "icao": "LIMC",
      "alert": "OK",
      "vis_m": 3000,
      "fzfg": false,
      "metar_trigger": false,
      "taf_trigger": false,
      "metar": "METAR LIMC 182220Z VRB01KT 3000 R35R/1200U R17L/0700U R35L/1100U BR BCFG BKN060 08/08 Q1029 NOSIG",
      "taf": "TAF LIMC 181700Z 1818/1924 VRB03KT 2000 BR BKN008"
    },
    {
      "icao": "LIME",
      "alert": "OK",
      "vis_m": 3000,
      "fzfg": false,
      "metar_trigger": false,
      "taf_trigger": false,
      "metar": "METAR LIME 182220Z 21003KT 180V260 3000 BR FEW002 BKN007 10/10 Q1029 BECMG 1500 BR",
      "taf": "TAF LIME 181700Z 1818/1918 VRB03KT 2500 BR BKN006"
    },
    {
      "icao": "LIPH",
      "alert": "OK",
      "vis_m": 100,
      "fzfg": false,
      "metar_trigger": false,
      "taf_trigger": false,
      "metar": "METAR LIPH 182220Z AUTO VRB02KT 0100 0050W R07/0250D FG VV001 07/07 Q1029",
      "taf": "TAF LIPH 181700Z 1818/1918 VRB04KT 3000 BR BKN010"
    },
    {
      "icao": "LIPQ",
      "alert": "OK",
      "vis_m": 350,
      "fzfg": false,
      "metar_trigger": false,
      "taf_trigger": false,
      "metar": "METAR LIPQ 182220Z AUTO 06003KT 0350 R09/0900N FG VV002 10/10 Q1029",
      "taf": "TAF LIPQ 181700Z 1818/1918 VRB04KT 3000 BR BKN020"
    },
    {
      "icao": "LIPX",
      "alert": "OK",
      "vis_m": 800,
      "fzfg": false,
      "metar_trigger": false,
      "taf_trigger": false,
      "metar": "METAR LIPX 182220Z VRB01KT 0800 R04/1300U FG BKN002 09/09 Q1029",
      "taf": ""
    },
    {
      "icao": "LIPY",
      "alert": "OK",
      "vis_m": 3700,
      "fzfg": false,
      "metar_trigger": false,
      "taf_trigger": false,
      "metar": "METAR LIPY 182220Z AUTO 18003KT 150V210 3700 BR OVC004/// 10/10 Q1029",
      "taf": "TAF LIPY 181700Z 1818/1918 VRB04KT 4000 BR OVC006"
    },
    {
      "icao": "LIPZ",
      "alert": "OK",
      "vis_m": 1000,
      "fzfg": false,
      "metar_trigger": false,
      "taf_trigger": false,
      "metar": "METAR LIPZ 182220Z VRB02KT 1000 R04R/P2000N BR BKN020 09/09 Q1029 BECMG 0400 FG OVC005",
      "taf": "TAF LIPZ 181700Z 1818/1924 VRB04KT 3000 BR BKN010"
    },
    {
      "icao": "LIRA",
      "alert": "OK",
      "vis_m": 9999,
      "fzfg": false,
      "metar_trigger": false,
      "taf_trigger": false,
      "metar": "METAR LIRA 182220Z VRB01KT CAVOK 11/09 Q1028",
      "taf": "TAF LIRA 181700Z 1818/1918 VRB06KT 9999 FEW030"
    },
    {
      "icao": "LIRN",
      "alert": "OK",
      "vis_m": 8000,
      "fzfg": false,
      "metar_trigger": false,
      "taf_trigger": false,
      "metar": "METAR LIRN 182220Z 34003KT 8000 NSC 09/07 Q1028 NOSIG",
      "taf": "TAF LIRN 181700Z 1818/1918 VRB05KT 9999 SCT030"
    },
    {
      "icao": "LLBG",
      "alert": "OK",
      "vis_m": 9999,
      "fzfg": false,
      "metar_trigger": false,
      "taf_trigger": false,
      "metar": "METAR LLBG 182220Z VRB02KT 9999 SCT045 12/09 Q1027 NOSIG",
      "taf": "TAF LLBG 181704Z 1818/1918 VRB03KT 9999 SCT045"
    },
    {
      "icao": "LMML",
      "alert": "OK",
      "vis_m": 9999,
      "fzfg": false,
      "metar_trigger": false,
      "taf_trigger": false,
      "metar": "METAR LMML 182245Z 06008KT 9999 BKN014 16/14 Q1026 NOSIG",
      "taf": "TAF LMML 181700Z 1818/1918 10012KT 9999 FEW019"
    },
    {
      "icao": "LOWW",
      "alert": "OK",
      "vis_m": 2000,
      "fzfg": false,
      "metar_trigger": false,
      "taf_trigger": false,
      "metar": "METAR LOWW 182220Z 10002KT 2000 1300E R16/P1500D R29/P1500N -DZ BR FEW001 BKN002 03/03 Q1027 TEMPO 1200 BR VV003",
      "taf": "TAF LOWW 182015Z 1821/2003 13004KT 3000 -DZ BR OVC005 TX04/1916Z TN02/1821Z"
    },
    {
      "icao": "LPFR",
      "alert": "OK",
      "vis_m": 9999,
      "fzfg": false,
      "metar_trigger": false,
      "taf_trigger": false,
      "metar": "METAR LPFR 182230Z 17009KT 9999 FEW024 15/12 Q1021",
      "taf": "TAF LPFR 181700Z 1818/1918 VRB02KT 9999 SCT020 BKN035"
    },
    {
      "icao": "LPPR",
      "alert": "OK",
      "vis_m": 9999,
      "fzfg": false,
      "metar_trigger": false,
      "taf_trigger": false,
      "metar": "METAR LPPR 182230Z 14005KT 9999 -RA FEW003 13/12 Q1018",
      "taf": ""
    },
    {
      "icao": "LPPT",
      "alert": "OK",
      "vis_m": 3500,
      "fzfg": false,
      "metar_trigger": false,
      "taf_trigger": false,
      "metar": "METAR LPPT 182230Z 17011KT 3500 -DZRA BR FEW004 BKN010 14/13 Q1019",
      "taf": ""
    },
    {
      "icao": "LQSA",
      "alert": "OK",
      "vis_m": 150,
      "fzfg": false,
      "metar_trigger": false,
      "taf_trigger": false,
      "metar": "METAR LQSA 182230Z VRB02KT 0150 R11/0200N FG VV002 00/00 Q1030",
      "taf": "TAF LQSA 181700Z 1818/1918 VRB02KT 1500 BR SCT005 TX10/1913Z TNM01/1905Z"
    },
    {
      "icao": "LQTZ",
      "alert": "OK",
      "vis_m": 600,
      "fzfg": false,
      "metar_trigger": false,
      "taf_trigger": false,
      "metar": "METAR LQTZ 182230Z 00000KT 0600 R09/0325N FG NSC 02/02 Q1029",
      "taf": "TAF LQTZ 181700Z 1818/1918 VRB02KT 3000 BR NSC TX11/1913Z TN00/1906Z"
    },
    {
      "icao": "LRCL",
      "alert": "OK",
      "vis_m": 4000,
      "fzfg": false,
      "metar_trigger": false,
      "taf_trigger": false,
      "metar": "METAR LRCL 182230Z 27003KT 4000 BR OVC065 01/01 Q1031",
      "taf": "TAF LRCL 182000Z 1821/1906 VRB04KT 3000 BR NSC"
    },
    {
      "icao": "LRCV",
      "alert": "OK",
      "vis_m": 2800,
      "fzfg": false,
      "metar_trigger": false,
      "taf_trigger": false,
      "metar": "METAR LRCV 182230Z 32005KT 2800 BR NSC 01/01 Q1029",
      "taf": "TAF LRCV 182000Z 1821/1906 26006KT 3000 BR NSC"
    },
    {
      "icao": "LRIA",
      "alert": "OK",
      "vis_m": 9999,
      "fzfg": false,
      "metar_trigger": false,
      "taf_trigger": false,
      "metar": "METAR LRIA 182230Z 22001KT CAVOK 03/02 Q1028",
      "taf": "TAF LRIA 182000Z 1821/1906 VRB04KT 5000 BR NSC"
    },
    {
      "icao": "LROP",
      "alert": "OK",
      "vis_m": 3000,
      "fzfg": false,
      "metar_trigger": false,
      "taf_trigger": false,
      "metar": "METAR LROP 182230Z 22005KT 3000 BR NSC 02/02 Q1029 BECMG 1500 BR",
      "taf": "TAF LROP 181700Z 1818/1918 VRB04KT 5000 BR NSC"
    },
    {
      "icao": "LRSB",
      "alert": "OK",
      "vis_m": 5000,
      "fzfg": false,
      "metar_trigger": false,
      "taf_trigger": false,
      "metar": "METAR LRSB 182230Z VRB01KT 5000 BR FEW065 M00/M00 Q1030",
      "taf": "TAF LRSB 181700Z 1818/1918 VRB04KT CAVOK"
    },
    {
      "icao": "LRTR",
      "alert": "OK",
      "vis_m": 8000,
      "fzfg": false,
      "metar_trigger": false,
      "taf_trigger": false,
      "metar": "METAR LRTR 182230Z 08005KT 8000 NSC 06/05 Q1029 NOSIG",
      "taf": "TAF LRTR 181700Z 1818/1918 11007KT 5000 BR SCT045"
    },
    {
      "icao": "LTAF",
      "alert": "OK",
      "vis_m": 9999,
      "fzfg": false,
      "metar_trigger": false,
      "taf_trigger": false,
      "metar": "METAR LTAF 182220Z 06002KT CAVOK 06/04 Q1026 NOSIG RMK RWY23 06004KT SKC",
      "taf": "TAF LTAF 181640Z 1818/1918 VRB02KT CAVOK"
    },
    {
      "icao": "LTAI",
      "alert": "OK",
      "vis_m": 9999,
      "fzfg": false,
      "metar_trigger": false,
      "taf_trigger": false,
      "metar": "METAR LTAI 182220Z 36003KT CAVOK 07/00 Q1027 NOSIG RMK RWY18C 36003KT RWY36R 35005KT RWY18L 02002KT",
      "taf": "TAF LTAI 181640Z 1818/1918 34006KT CAVOK"
    },
    {
      "icao": "LTFM",
      "alert": "OK",
      "vis_m": 6000,
      "fzfg": false,
      "metar_trigger": false,
      "taf_trigger": false,
      "metar": "METAR LTFM 182220Z 20007KT 6000 NSC 07/06 Q1029 NOSIG RMK RWY17L 23005KT RWY34L 18004KT RWY16R 24006KT RWY36 20006KT RWY18 21009KT",
      "taf": "TAF LTFM 181640Z 1818/1924 20005KT CAVOK"
    },
    {
      "icao": "LUBL",
      "alert": "OK",
      "vis_m": null,
      "fzfg": false,
      "metar_trigger": false,
      "taf_trigger": false,
      "metar": "",
      "taf": ""
    },
    {
      "icao": "LUKK",
      "alert": "OK",
      "vis_m": 6000,
      "fzfg": false,
      "metar_trigger": false,
      "taf_trigger": false,
      "metar": "METAR LUKK 182230Z 01003KT 6000 NSC 03/02 Q1028 TEMPO 3000 BR",
      "taf": "TAF LUKK 181718Z 1818/1918 VRB05KT CAVOK"
    },
    {
      "icao": "LWSK",
      "alert": "OK",
      "vis_m": 4000,
      "fzfg": false,
      "metar_trigger": false,
      "taf_trigger": false,
      "metar": "METAR LWSK 182220Z 14001KT 4000 BR NSC M01/M02 Q1032 NOSIG",
      "taf": "TAF LWSK 182020Z 1821/1921 VRB02KT 5000 BR NSC"
    },
    {
      "icao": "LYBE",
      "alert": "OK",
      "vis_m": 5000,
      "fzfg": false,
      "metar_trigger": false,
      "taf_trigger": false,
      "metar": "METAR LYBE 182230Z 12003KT 5000 BR NSC 08/06 Q1029 NOSIG",
      "taf": "TAF LYBE 181700Z 1818/1918 04005KT 5000 BR NSC TX10/1912Z TN01/1906Z"
    },
    {
      "icao": "LZIB",
      "alert": "OK",
      "vis_m": 1500,
      "fzfg": false,
      "metar_trigger": false,
      "taf_trigger": false,
      "metar": "METAR LZIB 182230Z 03006KT 1500 -DZ BR SCT001 OVC002 04/04 Q1027 NOSIG",
      "taf": "TAF LZIB 181715Z 1818/1918 06005KT 6000 SCT002 BKN003 OVC008"
    },
    {
      "icao": "LZKZ",
      "alert": "OK",
      "vis_m": 3900,
      "fzfg": false,
      "metar_trigger": false,
      "taf_trigger": false,
      "metar": "METAR LZKZ 182230Z 18002KT 3900 BR OVC008 04/03 Q1030 NOSIG",
      "taf": "TAF LZKZ 181715Z 1818/1918 19004KT 6000 OVC013"
    },
    {
      "icao": "LZTT",
      "alert": "OK",
      "vis_m": 250,
      "fzfg": true,
      "metar_trigger": false,
      "taf_trigger": false,
      "metar": "METAR LZTT 182230Z VRB02KT 0250 R27/0800N FZFG OVC002 M01/M01 Q1027",
      "taf": ""
    },
    {
      "icao": "OEJN",
      "alert": "OK",
      "vis_m": 9999,
      "fzfg": false,
      "metar_trigger": false,
      "taf_trigger": false,
      "metar": "METAR OEJN 182200Z 05010KT CAVOK 21/M02 Q1018 NOSIG",
      "taf": "TAF OEJN 181800Z 1818/1924 03015KT 7000 NSC"
    },
    {
      "icao": "OEMA",
      "alert": "OK",
      "vis_m": 9999,
      "fzfg": false,
      "metar_trigger": false,
      "taf_trigger": false,
      "metar": "METAR OEMA 182200Z 02003KT CAVOK 11/02 Q1026 NOSIG",
      "taf": "TAF OEMA 181800Z 1818/1924 03010KT 7000 NSC"
    },
    {
      "icao": "OERK",
      "alert": "OK",
      "vis_m": 9999,
      "fzfg": false,
      "metar_trigger": false,
      "taf_trigger": false,
      "metar": "METAR OERK 182200Z 28010KT CAVOK 07/03 Q1020 NOSIG",
      "taf": "TAF OERK 181700Z 1818/1924 31012KT 8000 SCT030"
    },
    {
      "icao": "OJAI",
      "alert": "OK",
      "vis_m": 2000,
      "fzfg": false,
      "metar_trigger": false,
      "taf_trigger": false,
      "metar": "METAR OJAI 182200Z 02001KT 2000 BR NSC 05/04 Q1028 NOSIG",
      "taf": "TAF OJAI 181700Z 1818/1924 30006KT 4000 HZ NSC"
    },
    {
      "icao": "OKBK",
      "alert": "OK",
      "vis_m": null,
      "fzfg": false,
      "metar_trigger": false,
      "taf_trigger": false,
      "metar": "",
      "taf": ""
    },
    {
      "icao": "OMAA",
      "alert": "OK",
      "vis_m": 9999,
      "fzfg": false,
      "metar_trigger": false,
      "taf_trigger": false,
      "metar": "SPECI OMAA 182216Z 27010KT 9999 -RA FEW010 BKN025 21/19 Q1012 RETS TEMPO VRB15G25KT 4000 SHRA RMK DIST TCU TO S",
      "taf": "TAF OMAA 181700Z 1818/2000 17014KT 7000 NSC"
    },
    {
      "icao": "UAAA",
      "alert": "OK",
      "vis_m": 2100,
      "fzfg": false,
      "metar_trigger": false,
      "taf_trigger": false,
      "metar": "METAR UAAA 182230Z 36002MPS 340V040 2100 -SN BR OVC018 M03/M04 Q1033 NOSIG",
      "taf": ""
    },
    {
      "icao": "UCFM",
      "alert": "OK",
      "vis_m": 2600,
      "fzfg": false,
      "metar_trigger": false,
      "taf_trigger": false,
      "metar": "METAR UCFM 182230Z 11003MPS 2600 -SN BR SCT010 M01/M02 Q1032 NOSIG",
      "taf": "TAF UCFM 181652Z 1818/1918 12003MPS 2000 BR FEW004 OVC025CB"
    },
    {
      "icao": "UDYZ",
      "alert": "OK",
      "vis_m": 5000,
      "fzfg": false,
      "metar_trigger": false,
      "taf_trigger": false,
      "metar": "METAR UDYZ 182230Z 00000KT 5000 BR NSC M03/M06 Q1031 NOSIG",
      "taf": "TAF UDYZ 181700Z 1818/1918 VRB04KT 3500 BR NSC"
    },
    {
      "icao": "UGTB",
      "alert": "OK",
      "vis_m": 9000,
      "fzfg": false,
      "metar_trigger": false,
      "taf_trigger": false,
      "metar": "METAR UGTB 182230Z 34005KT 9000 NSC M01/M02 Q1031 NOSIG",
      "taf": "TAF UGTB 181700Z 1818/1918 VRB02KT 8000 NSC TX09/1911Z TN00/1903Z"
    },
    {
      "icao": "UKKK",
      "alert": "OK",
      "vis_m": null,
      "fzfg": false,
      "metar_trigger": false,
      "taf_trigger": false,
      "metar": "",
      "taf": ""
    },
    {
      "icao": "UTTT",
      "alert": "OK",
      "vis_m": null,
      "fzfg": false,
      "metar_trigger": false,
      "taf_trigger": false,
      "metar": "",
      "taf": ""
    }
  ]
}