{
  "ts_utc": "2026-05-09T23:02:34Z",
  "threshold_m": 150,
  "source": "stations_override.txt (ICAO list) + aviationweather.gov (METAR/TAF raw)",
  "station_count": 159,
  "stations": [
    {
      "icao": "BIKF",
      "alert": "OK",
      "vis_m": 9999,
      "fzfg": false,
      "metar_trigger": false,
      "taf_trigger": false,
      "metar": "METAR BIKF 092230Z 28004KT 9999 BKN009 OVC028 06/06 Q1023",
      "taf": "TAF BIKF 092248Z 1000/1100 27005KT 9999 BKN008 OVC014 TX07/1013Z TN05/1006Z"
    },
    {
      "icao": "BKPR",
      "alert": "OK",
      "vis_m": 3000,
      "fzfg": false,
      "metar_trigger": false,
      "taf_trigger": false,
      "metar": "METAR BKPR 092300Z 27003KT 3000 R35/0300D BR SCT020 09/09 Q1018 TEMPO 0800 BCFG",
      "taf": "TAF BKPR 091730Z 0918/1018 VRB05KT 9999 BKN050"
    },
    {
      "icao": "EBCI",
      "alert": "OK",
      "vis_m": 9999,
      "fzfg": false,
      "metar_trigger": false,
      "taf_trigger": false,
      "metar": "METAR EBCI 092250Z 02006KT CAVOK 13/07 Q1015 NOSIG",
      "taf": "TAF EBCI 091714Z 0918/1024 05007KT CAVOK"
    },
    {
      "icao": "EDDB",
      "alert": "OK",
      "vis_m": 9999,
      "fzfg": false,
      "metar_trigger": false,
      "taf_trigger": false,
      "metar": "METAR EDDB 092250Z AUTO 10003KT CAVOK 08/06 Q1019 NOSIG",
      "taf": "TAF EDDB 091700Z 0918/1018 10004KT CAVOK"
    },
    {
      "icao": "EDDH",
      "alert": "OK",
      "vis_m": 9999,
      "fzfg": false,
      "metar_trigger": false,
      "taf_trigger": false,
      "metar": "METAR EDDH 092250Z AUTO 08004KT CAVOK 12/06 Q1018 NOSIG",
      "taf": "TAF EDDH 091700Z 0918/1024 12007KT 9999 SCT045"
    },
    {
      "icao": "EDDK",
      "alert": "OK",
      "vis_m": 9999,
      "fzfg": false,
      "metar_trigger": false,
      "taf_trigger": false,
      "metar": "METAR EDDK 092250Z AUTO 07003KT 040V100 CAVOK 10/08 Q1015 NOSIG",
      "taf": "TAF EDDK 091700Z 0918/1024 10003KT CAVOK"
    },
    {
      "icao": "EDDN",
      "alert": "OK",
      "vis_m": 9999,
      "fzfg": false,
      "metar_trigger": false,
      "taf_trigger": false,
      "metar": "METAR EDDN 092250Z AUTO 12004KT CAVOK 12/07 Q1015",
      "taf": "TAF EDDN 091700Z 0918/1018 07003KT CAVOK"
    },
    {
      "icao": "EDDS",
      "alert": "OK",
      "vis_m": 9999,
      "fzfg": false,
      "metar_trigger": false,
      "taf_trigger": false,
      "metar": "METAR EDDS 092250Z AUTO 32003KT CAVOK 14/09 Q1014",
      "taf": "TAF EDDS 091700Z 0918/1018 03005KT CAVOK"
    },
    {
      "icao": "EDFH",
      "alert": "OK",
      "vis_m": 9999,
      "fzfg": false,
      "metar_trigger": false,
      "taf_trigger": false,
      "metar": "METAR EDFH 092250Z 11003KT 070V140 CAVOK 12/07 Q1015",
      "taf": "TAF EDFH 091700Z 0918/1018 10005KT CAVOK"
    },
    {
      "icao": "EDJA",
      "alert": "OK",
      "vis_m": 9999,
      "fzfg": false,
      "metar_trigger": false,
      "taf_trigger": false,
      "metar": "METAR EDJA 092250Z AUTO 05003KT 030V100 9999 // FEW140/// 12/06 Q1014",
      "taf": "TAF EDJA 091700Z 0918/1003 06005KT CAVOK"
    },
    {
      "icao": "EDLW",
      "alert": "OK",
      "vis_m": 9999,
      "fzfg": false,
      "metar_trigger": false,
      "taf_trigger": false,
      "metar": "METAR EDLW 092250Z AUTO VRB02KT 9999 // FEW086/// 10/07 Q1015",
      "taf": "TAF EDLW 091700Z 0918/1018 07004KT CAVOK"
    },
    {
      "icao": "EDNY",
      "alert": "OK",
      "vis_m": 9999,
      "fzfg": false,
      "metar_trigger": false,
      "taf_trigger": false,
      "metar": "METAR EDNY 092250Z AUTO 02004KT 350V060 9999 // NCD 14/07 Q1013",
      "taf": "TAF EDNY 091700Z 0918/1003 03004KT CAVOK"
    },
    {
      "icao": "EDSB",
      "alert": "OK",
      "vis_m": 9999,
      "fzfg": false,
      "metar_trigger": false,
      "taf_trigger": false,
      "metar": "METAR EDSB 092250Z AUTO 02007KT 9999 // NCD 16/11 Q1013",
      "taf": "TAF EDSB 091700Z 0918/1018 02006KT CAVOK"
    },
    {
      "icao": "EETN",
      "alert": "OK",
      "vis_m": 9999,
      "fzfg": false,
      "metar_trigger": false,
      "taf_trigger": false,
      "metar": "METAR EETN 092250Z 08004KT CAVOK 05/M03 Q1022",
      "taf": "TAF EETN 091730Z 0918/1018 06012KT CAVOK"
    },
    {
      "icao": "EFTU",
      "alert": "OK",
      "vis_m": 9999,
      "fzfg": false,
      "metar_trigger": false,
      "taf_trigger": false,
      "metar": "METAR EFTU 092250Z AUTO 13004KT CAVOK 03/M07 Q1022",
      "taf": "TAF EFTU 092031Z 0921/1021 13005KT CAVOK"
    },
    {
      "icao": "EGBB",
      "alert": "OK",
      "vis_m": 9999,
      "fzfg": false,
      "metar_trigger": false,
      "taf_trigger": false,
      "metar": "METAR EGBB 092250Z 04010KT 9999 OVC013 10/07 Q1020",
      "taf": ""
    },
    {
      "icao": "EGGP",
      "alert": "OK",
      "vis_m": 9999,
      "fzfg": false,
      "metar_trigger": false,
      "taf_trigger": false,
      "metar": "METAR EGGP 092250Z 06009KT 9999 FEW038 08/04 Q1022",
      "taf": "TAF EGGP 091704Z 0918/1018 05011KT 9999 FEW045"
    },
    {
      "icao": "EGGW",
      "alert": "OK",
      "vis_m": 9999,
      "fzfg": false,
      "metar_trigger": false,
      "taf_trigger": false,
      "metar": "METAR EGGW 092250Z AUTO 03010KT 9999 NCD 09/06 Q1019",
      "taf": "TAF EGGW 091658Z 0918/1018 08006KT 9999 FEW045"
    },
    {
      "icao": "EGKK",
      "alert": "OK",
      "vis_m": 9999,
      "fzfg": false,
      "metar_trigger": false,
      "taf_trigger": false,
      "metar": "METAR EGKK 092220Z 06004KT CAVOK 11/04 Q1017",
      "taf": "TAF EGKK 091700Z 0918/1024 05009KT CAVOK"
    },
    {
      "icao": "EGNM",
      "alert": "OK",
      "vis_m": 9999,
      "fzfg": false,
      "metar_trigger": false,
      "taf_trigger": false,
      "metar": "METAR EGNM 092250Z 02014KT 9999 FEW010 BKN046 06/04 Q1022",
      "taf": "TAF EGNM 091707Z 0918/1018 04013KT 9999 SCT040"
    },
    {
      "icao": "EGPD",
      "alert": "OK",
      "vis_m": 9999,
      "fzfg": false,
      "metar_trigger": false,
      "taf_trigger": false,
      "metar": "METAR EGPD 092250Z COR AUTO VRB02KT 9999 NCD 03/M01 Q1025 NOSIG",
      "taf": "TAF EGPD 091654Z 0918/1018 36010KT 9999 SCT045"
    },
    {
      "icao": "EGPF",
      "alert": "OK",
      "vis_m": 9999,
      "fzfg": false,
      "metar_trigger": false,
      "taf_trigger": false,
      "metar": "METAR EGPF 092250Z AUTO VRB02KT 9999 OVC049 07/04 Q1026",
      "taf": "TAF EGPF 091659Z 0918/1018 06004KT 9999 SCT030"
    },
    {
      "icao": "EHBK",
      "alert": "OK",
      "vis_m": 9999,
      "fzfg": false,
      "metar_trigger": false,
      "taf_trigger": false,
      "metar": "METAR EHBK 092255Z AUTO 07006KT 9999 NCD 12/07 Q1015",
      "taf": "TAF EHBK 091701Z 0918/1024 04005KT CAVOK"
    },
    {
      "icao": "EHEH",
      "alert": "OK",
      "vis_m": 9999,
      "fzfg": false,
      "metar_trigger": false,
      "taf_trigger": false,
      "metar": "METAR EHEH 092255Z AUTO 01003KT 9999 NCD 09/07 Q1016 BLU",
      "taf": "TAF EHEH 091720Z 0918/1024 03007KT CAVOK"
    },
    {
      "icao": "EKBI",
      "alert": "OK",
      "vis_m": 9999,
      "fzfg": false,
      "metar_trigger": false,
      "taf_trigger": false,
      "metar": "METAR EKBI 092250Z AUTO 09002KT 9999 NCD 04/02 Q1019",
      "taf": "TAF EKBI 092027Z 0921/1021 11006KT CAVOK"
    },
    {
      "icao": "EKCH",
      "alert": "OK",
      "vis_m": 9999,
      "fzfg": false,
      "metar_trigger": false,
      "taf_trigger": false,
      "metar": "METAR EKCH 092250Z AUTO 12004KT 9999 NCD 07/05 Q1020 NOSIG",
      "taf": "TAF EKCH 092027Z 0921/1021 16006KT CAVOK"
    },
    {
      "icao": "ENAL",
      "alert": "OK",
      "vis_m": 9999,
      "fzfg": false,
      "metar_trigger": false,
      "taf_trigger": false,
      "metar": "METAR ENAL 092250Z AUTO 22019KT 9999 BKN016/// BKN020/// 06/03 Q1017 REDZ REDZRA",
      "taf": "TAF ENAL 092000Z 0921/1006 23018KT 9999 FEW012 SCT020"
    },
    {
      "icao": "ENBR",
      "alert": "OK",
      "vis_m": 9999,
      "fzfg": false,
      "metar_trigger": false,
      "taf_trigger": false,
      "metar": "METAR ENBR 092250Z VRB05KT 9999 -RA SHGR FEW017 SCT024TCU BKN031 04/03 Q1020 RMK WIND 1200FT 29005KT",
      "taf": "TAF ENBR 091700Z 0918/1018 26005KT 9999 -SHRA FEW018 BKN035"
    },
    {
      "icao": "ENGM",
      "alert": "OK",
      "vis_m": 9999,
      "fzfg": false,
      "metar_trigger": false,
      "taf_trigger": false,
      "metar": "METAR ENGM 092250Z 00000KT CAVOK 05/M03 Q1016",
      "taf": "TAF ENGM 091700Z 0918/1018 20015KT CAVOK"
    },
    {
      "icao": "ENHD",
      "alert": "OK",
      "vis_m": 9999,
      "fzfg": false,
      "metar_trigger": false,
      "taf_trigger": false,
      "metar": "METAR ENHD 092250Z AUTO 05002KT 9999 NCD 05/02 Q1020",
      "taf": "TAF ENHD 091400Z 0915/0922 33005KT 9999 -RA FEW008 BKN020"
    },
    {
      "icao": "ENTC",
      "alert": "OK",
      "vis_m": 9999,
      "fzfg": false,
      "metar_trigger": false,
      "taf_trigger": false,
      "metar": "METAR ENTC 092250Z AUTO 08003KT 9999 NCD 07/M00 Q1011 RMK WIND 2600FT 12003KT",
      "taf": "TAF ENTC 091700Z 0918/1018 02006KT 9999 SCT060"
    },
    {
      "icao": "ENTO",
      "alert": "OK",
      "vis_m": 9999,
      "fzfg": false,
      "metar_trigger": false,
      "taf_trigger": false,
      "metar": "METAR ENTO 092250Z AUTO 24002KT 9999 SCT046/// 07/04 Q1017",
      "taf": "TAF ENTO 091700Z 0918/1018 20010KT CAVOK"
    },
    {
      "icao": "ENVA",
      "alert": "OK",
      "vis_m": 9999,
      "fzfg": false,
      "metar_trigger": false,
      "taf_trigger": false,
      "metar": "METAR ENVA 092250Z 12006KT 9999 FEW045 05/05 Q1015 RMK WIND 670FT 13006KT",
      "taf": "TAF ENVA 091700Z 0918/1018 13005KT 9999 -RA SCT020 BKN035"
    },
    {
      "icao": "ENZV",
      "alert": "OK",
      "vis_m": 9999,
      "fzfg": false,
      "metar_trigger": false,
      "taf_trigger": false,
      "metar": "METAR ENZV 092250Z 33002KT 9999 FEW011 SCT025 05/03 Q1020",
      "taf": "TAF ENZV 091700Z 0918/1018 34005KT 9999 FEW010 BKN025"
    },
    {
      "icao": "EPGD",
      "alert": "OK",
      "vis_m": 9999,
      "fzfg": false,
      "metar_trigger": false,
      "taf_trigger": false,
      "metar": "METAR EPGD 092230Z 30002KT CAVOK 03/M00 Q1020",
      "taf": "TAF EPGD 091730Z 0918/1018 04010KT CAVOK"
    },
    {
      "icao": "EPKK",
      "alert": "OK",
      "vis_m": 9999,
      "fzfg": false,
      "metar_trigger": false,
      "taf_trigger": false,
      "metar": "METAR EPKK 092230Z 03003KT CAVOK 07/06 Q1020",
      "taf": "TAF EPKK 092030Z 0921/1021 04005KT 9999 BKN050"
    },
    {
      "icao": "EPKT",
      "alert": "OK",
      "vis_m": 2500,
      "fzfg": false,
      "metar_trigger": false,
      "taf_trigger": false,
      "metar": "METAR EPKT 092230Z 08002KT 2500 0200N BCFG BR NSC 03/03 Q1019",
      "taf": ""
    },
    {
      "icao": "EPLB",
      "alert": "OK",
      "vis_m": 9999,
      "fzfg": false,
      "metar_trigger": false,
      "taf_trigger": false,
      "metar": "METAR EPLB 092230Z 30005KT CAVOK 05/04 Q1019",
      "taf": "TAF EPLB 091730Z 0918/1018 33005KT 9999 BKN040"
    },
    {
      "icao": "EPMO",
      "alert": "OK",
      "vis_m": 9999,
      "fzfg": false,
      "metar_trigger": false,
      "taf_trigger": false,
      "metar": "METAR EPMO 092230Z 08002KT CAVOK 06/04 Q1020",
      "taf": "TAF EPMO 091730Z 0918/1018 06010KT CAVOK"
    },
    {
      "icao": "EPPO",
      "alert": "OK",
      "vis_m": 9999,
      "fzfg": false,
      "metar_trigger": false,
      "taf_trigger": false,
      "metar": "METAR EPPO 092230Z VRB01KT CAVOK 06/04 Q1019",
      "taf": "TAF EPPO 091730Z 0918/1018 VRB02KT CAVOK"
    },
    {
      "icao": "EPRA",
      "alert": "OK",
      "vis_m": 9999,
      "fzfg": false,
      "metar_trigger": false,
      "taf_trigger": false,
      "metar": "METAR EPRA 092230Z VRB02KT CAVOK 06/03 Q1020",
      "taf": "TAF EPRA 092030Z 0921/1006 VRB02KT CAVOK"
    },
    {
      "icao": "EPRZ",
      "alert": "OK",
      "vis_m": 9999,
      "fzfg": false,
      "metar_trigger": false,
      "taf_trigger": false,
      "metar": "METAR EPRZ 092230Z 30003KT CAVOK 08/07 Q1020",
      "taf": "TAF EPRZ 091730Z 0918/1018 34007KT 9999 BKN047"
    },
    {
      "icao": "EPSC",
      "alert": "OK",
      "vis_m": 9999,
      "fzfg": false,
      "metar_trigger": false,
      "taf_trigger": false,
      "metar": "METAR EPSC 092230Z VRB02KT CAVOK 07/02 Q1019",
      "taf": "TAF EPSC 091730Z 0918/1018 03007KT CAVOK"
    },
    {
      "icao": "EPSY",
      "alert": "OK",
      "vis_m": 9999,
      "fzfg": false,
      "metar_trigger": false,
      "taf_trigger": false,
      "metar": "METAR EPSY 092230Z 21002KT CAVOK 00/M00 Q1020",
      "taf": "TAF EPSY 092030Z 0921/1006 VRB02KT CAVOK"
    },
    {
      "icao": "EPWA",
      "alert": "OK",
      "vis_m": 9999,
      "fzfg": false,
      "metar_trigger": false,
      "taf_trigger": false,
      "metar": "METAR EPWA 092230Z 15002KT CAVOK 05/04 Q1020 NOSIG",
      "taf": "TAF EPWA 092030Z 0921/1021 VRB02KT CAVOK"
    },
    {
      "icao": "EPWR",
      "alert": "OK",
      "vis_m": 9999,
      "fzfg": false,
      "metar_trigger": false,
      "taf_trigger": false,
      "metar": "METAR EPWR 092230Z VRB01KT 9999 MIFG NSC 07/06 Q1019",
      "taf": "TAF EPWR 092030Z 0921/1021 13004KT CAVOK"
    },
    {
      "icao": "ESGG",
      "alert": "OK",
      "vis_m": 9999,
      "fzfg": false,
      "metar_trigger": false,
      "taf_trigger": false,
      "metar": "METAR ESGG 092250Z 20004KT CAVOK 06/M01 Q1018",
      "taf": "TAF ESGG 092030Z 0921/1021 16003KT CAVOK"
    },
    {
      "icao": "ESKN",
      "alert": "OK",
      "vis_m": 9999,
      "fzfg": false,
      "metar_trigger": false,
      "taf_trigger": false,
      "metar": "METAR ESKN 092250Z 14006KT CAVOK 06/03 Q1020",
      "taf": "TAF ESKN 092030Z 0921/1021 11003KT CAVOK"
    },
    {
      "icao": "ESMS",
      "alert": "OK",
      "vis_m": 9999,
      "fzfg": false,
      "metar_trigger": false,
      "taf_trigger": false,
      "metar": "METAR ESMS 092250Z 09005KT CAVOK 05/01 Q1020",
      "taf": "TAF ESMS 092027Z 0921/1021 14010KT CAVOK"
    },
    {
      "icao": "ESSA",
      "alert": "OK",
      "vis_m": 9999,
      "fzfg": false,
      "metar_trigger": false,
      "taf_trigger": false,
      "metar": "METAR ESSA 092250Z 16004KT CAVOK 02/M01 Q1020 NOSIG",
      "taf": "TAF ESSA 092030Z 0921/1021 14007KT CAVOK"
    },
    {
      "icao": "EYKA",
      "alert": "OK",
      "vis_m": 9999,
      "fzfg": false,
      "metar_trigger": false,
      "taf_trigger": false,
      "metar": "METAR EYKA 092250Z 34005KT 320V020 9999 OVC004 06/05 Q1017",
      "taf": "TAF EYKA 092300Z 1000/1024 VRB03KT 5000 BR OVC005"
    },
    {
      "icao": "EYPA",
      "alert": "OK",
      "vis_m": 9999,
      "fzfg": false,
      "metar_trigger": false,
      "taf_trigger": false,
      "metar": "METAR EYPA 092250Z AUTO 11001KT 9999 NCD 03/01 Q1020",
      "taf": "TAF EYPA 092300Z 1000/1024 VRB03KT 9000 NSC"
    },
    {
      "icao": "EYVI",
      "alert": "OK",
      "vis_m": 4400,
      "fzfg": false,
      "metar_trigger": false,
      "taf_trigger": false,
      "metar": "METAR EYVI 092250Z 32004KT 4400 BR OVC002 06/05 Q1016 NOSIG",
      "taf": "TAF EYVI 092300Z 1000/1024 VRB03KT 3000 BR OVC002"
    },
    {
      "icao": "GCFV",
      "alert": "OK",
      "vis_m": 9999,
      "fzfg": false,
      "metar_trigger": false,
      "taf_trigger": false,
      "metar": "METAR GCFV 092230Z 36006KT 9999 FEW037 20/14 Q1018",
      "taf": "TAF GCFV 092000Z 0921/1021 30005KT 9999 SCT040 TX24/1014Z TN17/1006Z"
    },
    {
      "icao": "GCLP",
      "alert": "OK",
      "vis_m": 9999,
      "fzfg": false,
      "metar_trigger": false,
      "taf_trigger": false,
      "metar": "METAR GCLP 092230Z 35007KT 9999 SCT030 BKN050 20/15 Q1018 NOSIG",
      "taf": "TAF GCLP 092000Z 0921/1021 36007KT 9999 SCT020 BKN035 TX23/1014Z TN17/1006Z"
    },
    {
      "icao": "GCTS",
      "alert": "OK",
      "vis_m": 9999,
      "fzfg": false,
      "metar_trigger": false,
      "taf_trigger": false,
      "metar": "METAR GCTS 092230Z 05009KT 9999 FEW030 BKN045 20/13 Q1018 NOSIG",
      "taf": "TAF GCTS 092000Z 0921/1021 04006KT 9999 SCT040 TX25/1014Z TN18/1006Z"
    },
    {
      "icao": "GMAD",
      "alert": "OK",
      "vis_m": 9999,
      "fzfg": false,
      "metar_trigger": false,
      "taf_trigger": false,
      "metar": "METAR GMAD 092230Z 23007KT 9999 FEW033 17/15 Q1017 NOSIG",
      "taf": "TAF GMAD 091700Z 0918/1024 26010KT 8000 SCT026"
    },
    {
      "icao": "GMMN",
      "alert": "OK",
      "vis_m": 9999,
      "fzfg": false,
      "metar_trigger": false,
      "taf_trigger": false,
      "metar": "METAR GMMN 092230Z 25005KT 9999 SCT020 15/12 Q1017 NOSIG",
      "taf": "TAF GMMN 091700Z 0918/1024 26012KT 9999 BKN030"
    },
    {
      "icao": "GMMX",
      "alert": "OK",
      "vis_m": 9999,
      "fzfg": false,
      "metar_trigger": false,
      "taf_trigger": false,
      "metar": "METAR GMMX 092230Z 27005KT 9999 SCT026 16/09 Q1017 NOSIG",
      "taf": "TAF GMMX 091700Z 0918/1024 32015KT 9999 BKN026"
    },
    {
      "icao": "HEGN",
      "alert": "OK",
      "vis_m": 9999,
      "fzfg": false,
      "metar_trigger": false,
      "taf_trigger": false,
      "metar": "METAR HEGN 092200Z 30010KT CAVOK 26/03 Q1011 NOSIG",
      "taf": "TAF HEGN 092300Z 1000/1106 30015KT CAVOK"
    },
    {
      "icao": "HEMA",
      "alert": "OK",
      "vis_m": 9999,
      "fzfg": false,
      "metar_trigger": false,
      "taf_trigger": false,
      "metar": "METAR HEMA 092200Z 32008KT CAVOK 24/11 Q1011 NOSIG",
      "taf": "TAF HEMA 092300Z 1000/1106 31015KT CAVOK"
    },
    {
      "icao": "HESH",
      "alert": "OK",
      "vis_m": 9999,
      "fzfg": false,
      "metar_trigger": false,
      "taf_trigger": false,
      "metar": "METAR HESH 092200Z 35016KT CAVOK 28/13 Q1010 NOSIG",
      "taf": "TAF HESH 092300Z 1000/1106 35015KT CAVOK"
    },
    {
      "icao": "HESX",
      "alert": "OK",
      "vis_m": 9999,
      "fzfg": false,
      "metar_trigger": false,
      "taf_trigger": false,
      "metar": "METAR HESX 092200Z 04008KT CAVOK 19/10 Q1016 NOSIG",
      "taf": "TAF HESX 092300Z 1000/1106 06010KT CAVOK"
    },
    {
      "icao": "LATI",
      "alert": "OK",
      "vis_m": 3500,
      "fzfg": false,
      "metar_trigger": false,
      "taf_trigger": false,
      "metar": "METAR LATI 092250Z VRB03KT 3500 0600S R17/P2000N R35/0800N BCFG NSC 13/11 Q1017 NOSIG",
      "taf": "TAF LATI 091700Z 0918/1018 VRB04KT CAVOK TX24/1012Z TN11/1004Z"
    },
    {
      "icao": "LBPD",
      "alert": "OK",
      "vis_m": 9999,
      "fzfg": false,
      "metar_trigger": false,
      "taf_trigger": false,
      "metar": "METAR LBPD 092300Z AUTO VRB02KT 9999 FEW100/// 14/14 Q1015",
      "taf": "TAF LBPD 091700Z 0918/1018 29010KT 9999 BKN070"
    },
    {
      "icao": "LBSF",
      "alert": "OK",
      "vis_m": 9999,
      "fzfg": false,
      "metar_trigger": false,
      "taf_trigger": false,
      "metar": "METAR LBSF 092300Z AUTO 36005KT 9999 FEW019/// 12/11 Q1017 NOSIG",
      "taf": "TAF LBSF 091700Z 0918/1018 VRB04KT 9999 BKN050"
    },
    {
      "icao": "LBWN",
      "alert": "OK",
      "vis_m": 4100,
      "fzfg": false,
      "metar_trigger": false,
      "taf_trigger": false,
      "metar": "METAR LBWN 092300Z AUTO 27003KT 4100 BR NSC 14/14 Q1014 TEMPO 2000 BR",
      "taf": "TAF LBWN 091700Z 0918/1018 VRB03KT 9999 SCT030 BKN045"
    },
    {
      "icao": "LCLK",
      "alert": "OK",
      "vis_m": 9999,
      "fzfg": false,
      "metar_trigger": false,
      "taf_trigger": false,
      "metar": "METAR LCLK 092230Z 30004KT CAVOK 21/12 Q1015 NOSIG",
      "taf": "TAF LCLK 091730Z 0918/1018 33006KT CAVOK"
    },
    {
      "icao": "LCPH",
      "alert": "OK",
      "vis_m": 9999,
      "fzfg": false,
      "metar_trigger": false,
      "taf_trigger": false,
      "metar": "METAR LCPH 092230Z 02004KT CAVOK 18/05 Q1015 NOSIG",
      "taf": "TAF LCPH 091730Z 0918/1018 35009KT CAVOK"
    },
    {
      "icao": "LEAL",
      "alert": "OK",
      "vis_m": 9999,
      "fzfg": false,
      "metar_trigger": false,
      "taf_trigger": false,
      "metar": "METAR LEAL 092230Z VRB01KT CAVOK 16/15 Q1015 NOSIG",
      "taf": "TAF LEAL 091700Z 0918/1018 22010KT 9999 FEW035 TX26/1012Z TN13/1005Z"
    },
    {
      "icao": "LEBB",
      "alert": "OK",
      "vis_m": 9999,
      "fzfg": false,
      "metar_trigger": false,
      "taf_trigger": false,
      "metar": "METAR LEBB 092230Z 12003KT 080V140 CAVOK 15/14 Q1008 NOSIG",
      "taf": ""
    },
    {
      "icao": "LEBL",
      "alert": "OK",
      "vis_m": 6000,
      "fzfg": false,
      "metar_trigger": false,
      "taf_trigger": false,
      "metar": "METAR LEBL 092230Z 31004KT 270V330 6000 FEW050 SCT060 15/14 Q1013 NOSIG",
      "taf": "TAF LEBL 091700Z 0918/1018 03010KT 9999 FEW020 TX21/1013Z TN13/1005Z"
    },
    {
      "icao": "LECH",
      "alert": "OK",
      "vis_m": 3000,
      "fzfg": false,
      "metar_trigger": false,
      "taf_trigger": false,
      "metar": "METAR LECH 092230Z AUTO 21004KT 180V240 3000 BR BKN004 OVC030 13/13 Q1014",
      "taf": "TAF LECH 091700Z 0918/1018 04010KT 9999 FEW020 TX23/1014Z TN10/1005Z"
    },
    {
      "icao": "LEMD",
      "alert": "OK",
      "vis_m": 9999,
      "fzfg": false,
      "metar_trigger": false,
      "taf_trigger": false,
      "metar": "METAR LEMD 092230Z 16004KT 9999 BKN050 BKN075 11/11 Q1013 NOSIG",
      "taf": ""
    },
    {
      "icao": "LEMG",
      "alert": "OK",
      "vis_m": 9999,
      "fzfg": false,
      "metar_trigger": false,
      "taf_trigger": false,
      "metar": "METAR LEMG 092230Z 22002KT 9999 FEW017 16/13 Q1016 NOSIG",
      "taf": "TAF LEMG 091700Z 0918/1018 16006KT 9999 FEW015 SCT030 TX22/1014Z TN15/1007Z"
    },
    {
      "icao": "LEVC",
      "alert": "OK",
      "vis_m": 9999,
      "fzfg": false,
      "metar_trigger": false,
      "taf_trigger": false,
      "metar": "METAR LEVC 092230Z 15001KT 9999 FEW063 16/15 Q1014 NOSIG",
      "taf": "TAF LEVC 091700Z 0918/1018 VRB04KT 9999 BKN020 TX24/1012Z TN13/1005Z"
    },
    {
      "icao": "LEXJ",
      "alert": "OK",
      "vis_m": 9999,
      "fzfg": false,
      "metar_trigger": false,
      "taf_trigger": false,
      "metar": "METAR LEXJ 092230Z AUTO 22007KT 180V260 CAVOK 17/09 Q1007",
      "taf": "TAF LEXJ 092000Z 0921/1021 20009KT 9999 FEW050 TX21/1015Z TN13/1005Z"
    },
    {
      "icao": "LEZG",
      "alert": "OK",
      "vis_m": 9999,
      "fzfg": false,
      "metar_trigger": false,
      "taf_trigger": false,
      "metar": "METAR LEZG 092230Z 08005KT 9999 FEW085 15/12 Q1012 NOSIG",
      "taf": "TAF LEZG 091700Z 0918/1018 12010KT 9999 FEW020 TX23/1014Z TN11/1005Z"
    },
    {
      "icao": "LEZL",
      "alert": "OK",
      "vis_m": 9999,
      "fzfg": false,
      "metar_trigger": false,
      "taf_trigger": false,
      "metar": "METAR LEZL 092230Z 20005KT 150V240 9999 FEW030 17/14 Q1014 NOSIG",
      "taf": "TAF LEZL 092000Z 0921/1021 20008KT 9999 SCT030 TX22/1015Z TN12/1007Z"
    },
    {
      "icao": "LFBD",
      "alert": "OK",
      "vis_m": 9999,
      "fzfg": false,
      "metar_trigger": false,
      "taf_trigger": false,
      "metar": "METAR LFBD 092230Z AUTO 16007KT CAVOK 18/12 Q1010 TEMPO 4000 SHRA BKN040TCU",
      "taf": ""
    },
    {
      "icao": "LFLL",
      "alert": "OK",
      "vis_m": 9999,
      "fzfg": false,
      "metar_trigger": false,
      "taf_trigger": false,
      "metar": "METAR LFLL 092230Z 20005KT 9999 FEW066TCU BKN068 BKN100 19/10 Q1012 TEMPO 4000 SHRA FEW050CB BKN055TCU",
      "taf": "TAF LFLL 091700Z 0918/1024 18007KT CAVOK"
    },
    {
      "icao": "LFLS",
      "alert": "OK",
      "vis_m": 9999,
      "fzfg": false,
      "metar_trigger": false,
      "taf_trigger": false,
      "metar": "METAR LFLS 092230Z AUTO 00000KT 9999 BKN058/// BKN070/// OVC110/// ///CB 15/12 Q1013",
      "taf": "TAF LFLS 091400Z 0915/1015 30005KT CAVOK"
    },
    {
      "icao": "LFMN",
      "alert": "OK",
      "vis_m": 9999,
      "fzfg": false,
      "metar_trigger": false,
      "taf_trigger": false,
      "metar": "METAR LFMN 092230Z 05013KT 9999 FEW066 BKN100 20/13 Q1012 NOSIG",
      "taf": "TAF LFMN 092000Z 0921/1103 09020KT 9999 BKN080"
    },
    {
      "icao": "LFOB",
      "alert": "OK",
      "vis_m": 9999,
      "fzfg": false,
      "metar_trigger": false,
      "taf_trigger": false,
      "metar": "METAR LFOB 092230Z AUTO 03007KT CAVOK 14/09 Q1013 NOSIG",
      "taf": "TAF LFOB 091700Z 0918/1018 06008KT CAVOK"
    },
    {
      "icao": "LFPO",
      "alert": "OK",
      "vis_m": 9999,
      "fzfg": false,
      "metar_trigger": false,
      "taf_trigger": false,
      "metar": "METAR LFPO 092230Z AUTO 04010KT CAVOK 17/10 Q1012 NOSIG",
      "taf": "TAF LFPO 091700Z 0918/1024 07005KT CAVOK"
    },
    {
      "icao": "LFSB",
      "alert": "OK",
      "vis_m": 9999,
      "fzfg": false,
      "metar_trigger": false,
      "taf_trigger": false,
      "metar": "METAR LFSB 092230Z AUTO 31004KT CAVOK 15/10 Q1012 NOSIG",
      "taf": "TAF LFSB 091700Z 0918/1018 36006KT CAVOK"
    },
    {
      "icao": "LGAV",
      "alert": "OK",
      "vis_m": 9999,
      "fzfg": false,
      "metar_trigger": false,
      "taf_trigger": false,
      "metar": "METAR LGAV 092250Z 27004KT 240V320 9999 FEW030 14/11 Q1015 NOSIG",
      "taf": "TAF LGAV 091700Z 0918/1018 VRB05KT 9999 FEW025"
    },
    {
      "icao": "LGTS",
      "alert": "OK",
      "vis_m": 9999,
      "fzfg": false,
      "metar_trigger": false,
      "taf_trigger": false,
      "metar": "METAR LGTS 092250Z VRB03KT 9999 FEW025 15/15 Q1016 NOSIG",
      "taf": "TAF LGTS 091700Z 0918/1018 VRB03KT 9999 FEW025"
    },
    {
      "icao": "LHBP",
      "alert": "OK",
      "vis_m": 9999,
      "fzfg": false,
      "metar_trigger": false,
      "taf_trigger": false,
      "metar": "METAR LHBP 092230Z 08007KT CAVOK 14/07 Q1017 NOSIG",
      "taf": "TAF LHBP 091715Z 0918/1018 32007KT CAVOK"
    },
    {
      "icao": "LHDC",
      "alert": "OK",
      "vis_m": 9999,
      "fzfg": false,
      "metar_trigger": false,
      "taf_trigger": false,
      "metar": "METAR LHDC 092215Z AUTO 03009KT CAVOK 13/06 Q1017",
      "taf": "TAF LHDC 091415Z 0915/0924 02007KT CAVOK"
    },
    {
      "icao": "LIBD",
      "alert": "OK",
      "vis_m": 9999,
      "fzfg": false,
      "metar_trigger": false,
      "taf_trigger": false,
      "metar": "METAR LIBD 092250Z 21004KT CAVOK 13/12 Q1016",
      "taf": "TAF LIBD 091700Z 0918/1018 22005KT CAVOK"
    },
    {
      "icao": "LIBG",
      "alert": "OK",
      "vis_m": null,
      "fzfg": false,
      "metar_trigger": false,
      "taf_trigger": false,
      "metar": "",
      "taf": "TAF LIBG 091400Z 0915/0924 VRB05KT 9999 FEW040"
    },
    {
      "icao": "LIBP",
      "alert": "OK",
      "vis_m": 9999,
      "fzfg": false,
      "metar_trigger": false,
      "taf_trigger": false,
      "metar": "METAR LIBP 092220Z AUTO VRB01KT 9999 NCD 14/14 Q1016",
      "taf": "TAF LIBP 091700Z 0918/1018 VRB05KT 9999 FEW080"
    },
    {
      "icao": "LIBR",
      "alert": "OK",
      "vis_m": 9999,
      "fzfg": false,
      "metar_trigger": false,
      "taf_trigger": false,
      "metar": "METAR LIBR 092250Z 25003KT CAVOK 15/13 Q1016",
      "taf": "TAF LIBR 091700Z 0918/1018 23005KT CAVOK"
    },
    {
      "icao": "LICA",
      "alert": "OK",
      "vis_m": 9999,
      "fzfg": false,
      "metar_trigger": false,
      "taf_trigger": false,
      "metar": "METAR LICA 092220Z AUTO 05016KT 9999 SCT130/// 19/14 Q1015",
      "taf": "TAF LICA 091700Z 0918/1018 08015KT 9999 FEW080"
    },
    {
      "icao": "LICC",
      "alert": "OK",
      "vis_m": 9999,
      "fzfg": false,
      "metar_trigger": false,
      "taf_trigger": false,
      "metar": "METAR LICC 092250Z 05008KT CAVOK 19/16 Q1016",
      "taf": "TAF LICC 091700Z 0918/1018 09010KT 9999 SCT020"
    },
    {
      "icao": "LICJ",
      "alert": "OK",
      "vis_m": 9000,
      "fzfg": false,
      "metar_trigger": false,
      "taf_trigger": false,
      "metar": "METAR LICJ 092250Z 29029KT 9000 -RA BKN075 20/17 Q1017",
      "taf": "TAF LICJ 091700Z 0918/1018 08010KT CAVOK"
    },
    {
      "icao": "LIMC",
      "alert": "OK",
      "vis_m": 9999,
      "fzfg": false,
      "metar_trigger": false,
      "taf_trigger": false,
      "metar": "METAR LIMC 092250Z 05003KT CAVOK 13/10 Q1015 NOSIG",
      "taf": ""
    },
    {
      "icao": "LIME",
      "alert": "OK",
      "vis_m": 9999,
      "fzfg": false,
      "metar_trigger": false,
      "taf_trigger": false,
      "metar": "METAR LIME 092250Z 01003KT CAVOK 16/10 Q1015 NOSIG",
      "taf": "TAF LIME 091700Z 0918/1018 VRB05KT 9999 SCT040"
    },
    {
      "icao": "LIMF",
      "alert": "OK",
      "vis_m": 9999,
      "fzfg": false,
      "metar_trigger": false,
      "taf_trigger": false,
      "metar": "METAR LIMF 092250Z 32009KT 9999 FEW050 18/11 Q1015",
      "taf": "TAF LIMF 091700Z 0918/1018 VRB05KT 9999 SCT030"
    },
    {
      "icao": "LIMJ",
      "alert": "OK",
      "vis_m": 9999,
      "fzfg": false,
      "metar_trigger": false,
      "taf_trigger": false,
      "metar": "METAR LIMJ 092250Z VRB02KT CAVOK 18/13 Q1014",
      "taf": "TAF LIMJ 091700Z 0918/1018 19010KT 9999 SCT020"
    },
    {
      "icao": "LIPE",
      "alert": "OK",
      "vis_m": 9999,
      "fzfg": false,
      "metar_trigger": false,
      "taf_trigger": false,
      "metar": "METAR LIPE 092250Z 12005KT CAVOK 14/11 Q1014",
      "taf": "TAF LIPE 091700Z 0918/1018 10010KT 9999 FEW060"
    },
    {
      "icao": "LIPH",
      "alert": "OK",
      "vis_m": 9999,
      "fzfg": false,
      "metar_trigger": false,
      "taf_trigger": false,
      "metar": "METAR LIPH 092250Z AUTO 02003KT 9999 BKN060/// 17/13 Q1016",
      "taf": "TAF LIPH 091700Z 0918/1018 12006KT 9999 FEW050"
    },
    {
      "icao": "LIPQ",
      "alert": "OK",
      "vis_m": 9999,
      "fzfg": false,
      "metar_trigger": false,
      "taf_trigger": false,
      "metar": "METAR LIPQ 092250Z AUTO 04002KT 9999 NCD 13/11 Q1016",
      "taf": "TAF LIPQ 091700Z 0918/1018 VRB05KT 9999 FEW040"
    },
    {
      "icao": "LIPR",
      "alert": "OK",
      "vis_m": 9999,
      "fzfg": false,
      "metar_trigger": false,
      "taf_trigger": false,
      "metar": "METAR LIPR 092250Z AUTO 13003KT 080V150 9999 FEW240/// 17/11 Q1015",
      "taf": "TAF LIPR 091700Z 0918/1018 VRB05KT 9999 FEW060"
    },
    {
      "icao": "LIPX",
      "alert": "OK",
      "vis_m": 9999,
      "fzfg": false,
      "metar_trigger": false,
      "taf_trigger": false,
      "metar": "METAR LIPX 092250Z 06004KT CAVOK 17/11 Q1015",
      "taf": "TAF LIPX 091700Z 0918/1018 VRB05KT 9999 SCT040"
    },
    {
      "icao": "LIPY",
      "alert": "OK",
      "vis_m": 9999,
      "fzfg": false,
      "metar_trigger": false,
      "taf_trigger": false,
      "metar": "METAR LIPY 092220Z AUTO 17003KT 9999 BKN220/// 15/12 Q1015",
      "taf": "TAF LIPY 091700Z 0918/1018 VRB05KT 9999 FEW060"
    },
    {
      "icao": "LIPZ",
      "alert": "OK",
      "vis_m": 9999,
      "fzfg": false,
      "metar_trigger": false,
      "taf_trigger": false,
      "metar": "METAR LIPZ 092250Z 15003KT 9999 FEW060 18/16 Q1015 NOSIG",
      "taf": "TAF LIPZ 091700Z 0918/1024 VRB05KT 9999 FEW060"
    },
    {
      "icao": "LIRF",
      "alert": "OK",
      "vis_m": 9000,
      "fzfg": false,
      "metar_trigger": false,
      "taf_trigger": false,
      "metar": "METAR LIRF 092250Z 22008KT 9000 -DZ FEW050 18/15 Q1016 NOSIG",
      "taf": "TAF LIRF 091700Z 0918/1024 VRB05KT 9999 FEW050"
    },
    {
      "icao": "LIRN",
      "alert": "OK",
      "vis_m": 9999,
      "fzfg": false,
      "metar_trigger": false,
      "taf_trigger": false,
      "metar": "METAR LIRN 092250Z 27004KT CAVOK 19/13 Q1015 NOSIG",
      "taf": "TAF LIRN 091700Z 0918/1018 VRB05KT 9999 FEW080"
    },
    {
      "icao": "LIRP",
      "alert": "OK",
      "vis_m": 9999,
      "fzfg": false,
      "metar_trigger": false,
      "taf_trigger": false,
      "metar": "METAR LIRP 092245Z 15003KT CAVOK 16/14 Q1014 NOSIG",
      "taf": "TAF LIRP 091700Z 0918/1018 25009KT 9999 SCT060"
    },
    {
      "icao": "LIRZ",
      "alert": "OK",
      "vis_m": 9999,
      "fzfg": false,
      "metar_trigger": false,
      "taf_trigger": false,
      "metar": "METAR LIRZ 092220Z AUTO 27005KT 9999 NCD 15/13 Q1015",
      "taf": "TAF LIRZ 091700Z 0918/1018 VRB05KT 9999 FEW060"
    },
    {
      "icao": "LJLJ",
      "alert": "OK",
      "vis_m": 9999,
      "fzfg": false,
      "metar_trigger": false,
      "taf_trigger": false,
      "metar": "METAR LJLJ 092230Z VRB02KT 9999 FEW050 13/09 Q1018 NOSIG",
      "taf": "TAF LJLJ 092300Z 1000/1100 12005KT 9999 SCT060"
    },
    {
      "icao": "LKMT",
      "alert": "OK",
      "vis_m": 9999,
      "fzfg": false,
      "metar_trigger": false,
      "taf_trigger": false,
      "metar": "METAR LKMT 092230Z 35003KT CAVOK 05/04 Q1019 NOSIG",
      "taf": "TAF LKMT 091700Z 0918/1018 02007KT CAVOK"
    },
    {
      "icao": "LKPR",
      "alert": "OK",
      "vis_m": 9999,
      "fzfg": false,
      "metar_trigger": false,
      "taf_trigger": false,
      "metar": "METAR LKPR 092230Z 12007KT CAVOK 09/05 Q1018 NOSIG",
      "taf": "TAF LKPR 092000Z 0921/1103 09006KT CAVOK"
    },
    {
      "icao": "LLBG",
      "alert": "OK",
      "vis_m": 9999,
      "fzfg": false,
      "metar_trigger": false,
      "taf_trigger": false,
      "metar": "METAR LLBG 092250Z VRB03KT CAVOK 18/14 Q1015 NOSIG",
      "taf": "TAF LLBG 091702Z 0918/1018 34006KT CAVOK TX28/1012Z TN15/1003Z"
    },
    {
      "icao": "LMML",
      "alert": "OK",
      "vis_m": null,
      "fzfg": false,
      "metar_trigger": false,
      "taf_trigger": false,
      "metar": "",
      "taf": "TAF LMML 091700Z 0918/1018 10015KT 9999 FEW015"
    },
    {
      "icao": "LOWW",
      "alert": "OK",
      "vis_m": 9999,
      "fzfg": false,
      "metar_trigger": false,
      "taf_trigger": false,
      "metar": "METAR LOWW 092250Z 31002KT CAVOK 10/05 Q1018 NOSIG",
      "taf": "TAF LOWW 092015Z 0921/1103 07003KT CAVOK TX24/1014Z TN09/1003Z"
    },
    {
      "icao": "LPFR",
      "alert": "OK",
      "vis_m": 9999,
      "fzfg": false,
      "metar_trigger": false,
      "taf_trigger": false,
      "metar": "METAR LPFR 092230Z 21011KT 9999 FEW018 17/14 Q1013",
      "taf": "TAF LPFR 091700Z 0918/1018 23015KT 9999 SCT020"
    },
    {
      "icao": "LPMA",
      "alert": "OK",
      "vis_m": 9999,
      "fzfg": false,
      "metar_trigger": false,
      "taf_trigger": false,
      "metar": "METAR LPMA 092230Z 01003KT 310V100 9999 FEW015 16/11 Q1015",
      "taf": "TAF LPMA 091700Z 0918/1018 03008KT 9999 SCT015"
    },
    {
      "icao": "LPPR",
      "alert": "OK",
      "vis_m": 6000,
      "fzfg": false,
      "metar_trigger": false,
      "taf_trigger": false,
      "metar": "METAR LPPR 092230Z 17014KT 6000 TSRA SCT018 SCT025CB 13/11 Q1008",
      "taf": "TAF LPPR 091700Z 0918/1018 16012KT 9999 SCT020"
    },
    {
      "icao": "LPPS",
      "alert": "OK",
      "vis_m": 9999,
      "fzfg": false,
      "metar_trigger": false,
      "taf_trigger": false,
      "metar": "METAR LPPS 092230Z 28014KT 9999 SCT015 16/09 Q1015",
      "taf": "TAF LPPS 091700Z 0918/1024 27015KT 9999 SCT015 SCT030"
    },
    {
      "icao": "LPPT",
      "alert": "OK",
      "vis_m": 9999,
      "fzfg": false,
      "metar_trigger": false,
      "taf_trigger": false,
      "metar": "METAR LPPT 092230Z 21012KT 9999 FEW016 14/11 Q1009",
      "taf": "TAF LPPT 091700Z 0918/1024 22015KT 9999 SCT020"
    },
    {
      "icao": "LQBK",
      "alert": "OK",
      "vis_m": 9999,
      "fzfg": false,
      "metar_trigger": false,
      "taf_trigger": false,
      "metar": "METAR LQBK 092230Z 15003KT CAVOK 11/08 Q1016 NOSIG",
      "taf": "TAF LQBK 091700Z 0918/1018 16005KT CAVOK TX25/1013Z TN10/1004Z"
    },
    {
      "icao": "LQSA",
      "alert": "OK",
      "vis_m": 9999,
      "fzfg": false,
      "metar_trigger": false,
      "taf_trigger": false,
      "metar": "METAR LQSA 092230Z 16003KT 130V220 CAVOK 09/09 Q1018",
      "taf": "TAF LQSA 091700Z 0918/1018 VRB02KT 9999 FEW050 TX23/1014Z TN08/1004Z"
    },
    {
      "icao": "LQTZ",
      "alert": "OK",
      "vis_m": 9999,
      "fzfg": false,
      "metar_trigger": false,
      "taf_trigger": false,
      "metar": "METAR LQTZ 092230Z VRB01KT CAVOK 09/09 Q1017",
      "taf": "TAF LQTZ 091700Z 0918/1018 VRB02KT CAVOK TX25/1013Z TN08/1004Z"
    },
    {
      "icao": "LRBC",
      "alert": "OK",
      "vis_m": 5000,
      "fzfg": false,
      "metar_trigger": false,
      "taf_trigger": false,
      "metar": "METAR LRBC 092230Z 34010KT 5000 +RA BR OVC006 13/13 Q1016",
      "taf": "TAF LRBC 092000Z 0921/1006 VRB04KT 5000 -RA BR BKN010 OVC030"
    },
    {
      "icao": "LRBS",
      "alert": "OK",
      "vis_m": 6000,
      "fzfg": false,
      "metar_trigger": false,
      "taf_trigger": false,
      "metar": "METAR LRBS 092230Z 31003KT 6000 MIFG NSC 14/13 Q1015 NOSIG",
      "taf": ""
    },
    {
      "icao": "LRBV",
      "alert": "OK",
      "vis_m": 9999,
      "fzfg": false,
      "metar_trigger": false,
      "taf_trigger": false,
      "metar": "METAR LRBV 092230Z AUTO 29009KT 9999 -RA OVC010/// 12/11 Q1016 REDZ",
      "taf": "TAF LRBV 091700Z 0918/1003 VRB04KT 5000 -RA BR SCT015 BKN030"
    },
    {
      "icao": "LRCL",
      "alert": "OK",
      "vis_m": 9999,
      "fzfg": false,
      "metar_trigger": false,
      "taf_trigger": false,
      "metar": "METAR LRCL 092230Z 09003KT CAVOK 11/10 Q1017",
      "taf": "TAF LRCL 092000Z 0921/1006 VRB04KT 9999 SCT045"
    },
    {
      "icao": "LRCV",
      "alert": "OK",
      "vis_m": 3000,
      "fzfg": false,
      "metar_trigger": false,
      "taf_trigger": false,
      "metar": "METAR LRCV 092230Z 32002KT 3000 BR BKN002 15/15 Q1016",
      "taf": "TAF LRCV 092000Z 0921/1006 VRB04KT 7000 SCT015 OVC040"
    },
    {
      "icao": "LRIA",
      "alert": "OK",
      "vis_m": 9999,
      "fzfg": false,
      "metar_trigger": false,
      "taf_trigger": false,
      "metar": "METAR LRIA 092230Z 33010KT 9999 -RA BKN003 OVC016 14/13 Q1016",
      "taf": "TAF LRIA 092000Z 0921/1006 VRB04KT 5000 -RA BR BKN010 OVC030"
    },
    {
      "icao": "LROP",
      "alert": "OK",
      "vis_m": 8000,
      "fzfg": false,
      "metar_trigger": false,
      "taf_trigger": false,
      "metar": "METAR LROP 092230Z 35004KT 8000 NSC 14/13 Q1015 NOSIG",
      "taf": "TAF LROP 091700Z 0918/1018 04008KT 9999 BKN040"
    },
    {
      "icao": "LRSB",
      "alert": "OK",
      "vis_m": 9999,
      "fzfg": false,
      "metar_trigger": false,
      "taf_trigger": false,
      "metar": "METAR LRSB 092230Z 07002KT 9999 OVC070 12/12 Q1017",
      "taf": "TAF LRSB 091700Z 0918/1018 VRB04KT 9999 SCT040 BKN070"
    },
    {
      "icao": "LRSM",
      "alert": "OK",
      "vis_m": 9999,
      "fzfg": false,
      "metar_trigger": false,
      "taf_trigger": false,
      "metar": "METAR LRSM 092230Z AUTO 19002KT 9999 NCD 09/07 Q1017",
      "taf": "TAF LRSM 091400Z 0915/0924 34006KT CAVOK"
    },
    {
      "icao": "LRSV",
      "alert": "OK",
      "vis_m": 9999,
      "fzfg": false,
      "metar_trigger": false,
      "taf_trigger": false,
      "metar": "METAR LRSV 092230Z 32005KT 9999 -RA FEW009 BKN030 12/12 Q1017",
      "taf": "TAF LRSV 092000Z 0921/1006 35008KT 5000 -RA BR SCT015 BKN040"
    },
    {
      "icao": "LRTM",
      "alert": "OK",
      "vis_m": 7000,
      "fzfg": false,
      "metar_trigger": false,
      "taf_trigger": false,
      "metar": "METAR LRTM 092230Z 23003KT 7000 FEW004 12/11 Q1017",
      "taf": "TAF LRTM 092000Z 0921/1006 VRB04KT 9999 SCT040"
    },
    {
      "icao": "LRTR",
      "alert": "OK",
      "vis_m": 9999,
      "fzfg": false,
      "metar_trigger": false,
      "taf_trigger": false,
      "metar": "METAR LRTR 092230Z 11006KT CAVOK 11/10 Q1016",
      "taf": "TAF LRTR 091700Z 0918/1018 VRB04KT 9999 SCT045"
    },
    {
      "icao": "LTAC",
      "alert": "OK",
      "vis_m": 9999,
      "fzfg": false,
      "metar_trigger": false,
      "taf_trigger": false,
      "metar": "METAR LTAC 092250Z 16005KT 9999 FEW040 BKN080 13/11 Q1018 NOSIG RMK RWY21C 15006KT RWY03L 15006KT RWY21R 14006KT RWY03R 15004KT RWY21L 15005KT",
      "taf": "TAF LTAC 092240Z 1000/1024 VRB02KT 9999 SCT040 SCT100"
    },
    {
      "icao": "LTFM",
      "alert": "OK",
      "vis_m": 9999,
      "fzfg": false,
      "metar_trigger": false,
      "taf_trigger": false,
      "metar": "METAR LTFM 092250Z 19007KT 9999 SCT035 BKN100 16/13 Q1015 NOSIG RMK RWY17L 20010KT RWY34L 21005KT RWY16R 24004KT 200V320 RWY36 21006KT RWY18 21007KT",
      "taf": "TAF LTFM 092240Z 1000/1106 20010KT 9999 SCT035 BKN100"
    },
    {
      "icao": "LUKK",
      "alert": "OK",
      "vis_m": 9000,
      "fzfg": false,
      "metar_trigger": false,
      "taf_trigger": false,
      "metar": "METAR LUKK 092230Z 24003KT 200V260 9000 -SHRA FEW022 BKN046CB 14/13 Q1016 TEMPO 5000 SHRA",
      "taf": "TAF LUKK 091704Z 0918/1018 VRB06KT 9999 SCT040"
    },
    {
      "icao": "LWOH",
      "alert": "OK",
      "vis_m": null,
      "fzfg": false,
      "metar_trigger": false,
      "taf_trigger": false,
      "metar": "",
      "taf": "TAF LWOH 092040Z 0921/1021 34005KT 9999 SCT040"
    },
    {
      "icao": "LWSK",
      "alert": "OK",
      "vis_m": 9999,
      "fzfg": false,
      "metar_trigger": false,
      "taf_trigger": false,
      "metar": "METAR LWSK 092250Z VRB02KT CAVOK 12/10 Q1017 NOSIG",
      "taf": "TAF LWSK 092040Z 0921/1021 VRB02KT 9999 FEW050 SCT100"
    },
    {
      "icao": "LYBE",
      "alert": "OK",
      "vis_m": 9999,
      "fzfg": false,
      "metar_trigger": false,
      "taf_trigger": false,
      "metar": "METAR LYBE 092230Z 24004KT 170V260 CAVOK 14/13 Q1017 NOSIG",
      "taf": "TAF LYBE 091700Z 0918/1018 23005KT CAVOK TX25/1013Z TN11/1003Z"
    },
    {
      "icao": "LYNI",
      "alert": "OK",
      "vis_m": 9999,
      "fzfg": false,
      "metar_trigger": false,
      "taf_trigger": false,
      "metar": "METAR LYNI 092230Z VRB02KT CAVOK 13/13 Q1017 NOSIG",
      "taf": "TAF LYNI 091700Z 0918/1018 11005KT 9999 BKN040 TX24/1013Z TN09/1003Z"
    },
    {
      "icao": "LYPG",
      "alert": "OK",
      "vis_m": 9999,
      "fzfg": false,
      "metar_trigger": false,
      "taf_trigger": false,
      "metar": "METAR LYPG 092230Z 34005KT CAVOK 14/13 Q1018 NOSIG",
      "taf": "TAF LYPG 091700Z 0918/1018 VRB02KT 9999 FEW030 TX23/1014Z TN13/1005Z"
    },
    {
      "icao": "LZIB",
      "alert": "OK",
      "vis_m": 9999,
      "fzfg": false,
      "metar_trigger": false,
      "taf_trigger": false,
      "metar": "METAR LZIB 092230Z 01002KT CAVOK 10/04 Q1018 NOSIG",
      "taf": "TAF LZIB 091715Z 0918/1018 33009KT CAVOK"
    },
    {
      "icao": "LZKZ",
      "alert": "OK",
      "vis_m": 9999,
      "fzfg": false,
      "metar_trigger": false,
      "taf_trigger": false,
      "metar": "METAR LZKZ 092230Z 01011KT 9999 BKN048 12/06 Q1018 NOSIG",
      "taf": "TAF LZKZ 091715Z 0918/1018 02012KT CAVOK"
    },
    {
      "icao": "LZTT",
      "alert": "OK",
      "vis_m": 9999,
      "fzfg": false,
      "metar_trigger": false,
      "taf_trigger": false,
      "metar": "METAR LZTT 092230Z 07005KT 040V110 9999 FEW012 OVC025 08/05 Q1019",
      "taf": ""
    },
    {
      "icao": "OEJN",
      "alert": "OK",
      "vis_m": 9999,
      "fzfg": false,
      "metar_trigger": false,
      "taf_trigger": false,
      "metar": "METAR OEJN 092300Z 33006KT CAVOK 27/21 Q1007 NOSIG",
      "taf": "TAF OEJN 092300Z 1000/1106 VRB03KT 7000 NSC"
    },
    {
      "icao": "OEMA",
      "alert": "OK",
      "vis_m": 9999,
      "fzfg": false,
      "metar_trigger": false,
      "taf_trigger": false,
      "metar": "METAR OEMA 092300Z 01004KT CAVOK 30/01 Q1012 NOSIG",
      "taf": "TAF OEMA 092300Z 1000/1106 VRB03KT 7000 NSC"
    },
    {
      "icao": "OJAI",
      "alert": "OK",
      "vis_m": 4000,
      "fzfg": false,
      "metar_trigger": false,
      "taf_trigger": false,
      "metar": "METAR OJAI 092200Z COR 28006KT 4000 HZ NSC 18/09 Q1017 NOSIG",
      "taf": "TAF OJAI 091700Z 0918/1024 30014KT 5000 HZ NSC"
    },
    {
      "icao": "OMAA",
      "alert": "OK",
      "vis_m": 9999,
      "fzfg": false,
      "metar_trigger": false,
      "taf_trigger": false,
      "metar": "METAR OMAA 092300Z 30006KT CAVOK 29/20 Q1007 NOSIG",
      "taf": "TAF OMAA 092300Z 1000/1106 31014KT 8000 NSC"
    },
    {
      "icao": "OMDB",
      "alert": "OK",
      "vis_m": 9999,
      "fzfg": false,
      "metar_trigger": false,
      "taf_trigger": false,
      "metar": "METAR OMDB 092300Z 19006KT 110V230 CAVOK 29/19 Q1006 NOSIG",
      "taf": "TAF OMDB 092300Z 1000/1106 20007KT CAVOK"
    },
    {
      "icao": "UAAA",
      "alert": "OK",
      "vis_m": 9999,
      "fzfg": false,
      "metar_trigger": false,
      "taf_trigger": false,
      "metar": "METAR UAAA 092230Z 21004MPS 9999 SCT050CB BKN100 20/11 Q1011 NOSIG",
      "taf": "TAF UAAA 091700Z 0918/1018 22003G08MPS 9999 SCT050CB BKN100 TX22/1010Z TN17/1000Z"
    },
    {
      "icao": "UBBB",
      "alert": "OK",
      "vis_m": 9999,
      "fzfg": false,
      "metar_trigger": false,
      "taf_trigger": false,
      "metar": "METAR UBBB 092300Z 24004KT CAVOK 19/10 Q1016 NOSIG",
      "taf": "TAF UBBB 091705Z 0918/1018 19006KT CAVOK TX21/0912Z TN13/1001Z"
    },
    {
      "icao": "UDSG",
      "alert": "OK",
      "vis_m": 9999,
      "fzfg": false,
      "metar_trigger": false,
      "taf_trigger": false,
      "metar": "METAR UDSG 092230Z 09003KT 9999 NSC 07/02 Q1022 NOSIG",
      "taf": "TAF UDSG 091700Z 0918/1018 06006KT 9999 SCT050"
    },
    {
      "icao": "UDYZ",
      "alert": "OK",
      "vis_m": 9999,
      "fzfg": false,
      "metar_trigger": false,
      "taf_trigger": false,
      "metar": "METAR UDYZ 092230Z 04006KT 9999 NSC 14/04 Q1019 NOSIG",
      "taf": "TAF UDYZ 091700Z 0918/1018 24006KT 9999 FEW040"
    },
    {
      "icao": "UGKO",
      "alert": "OK",
      "vis_m": 9999,
      "fzfg": false,
      "metar_trigger": false,
      "taf_trigger": false,
      "metar": "METAR UGKO 092230Z VRB02KT CAVOK 12/09 Q1015 NOSIG",
      "taf": "TAF UGKO 091700Z 0918/1018 25007KT CAVOK TX29/1011Z TN12/0920Z"
    }
  ]
}