{
  "ts_utc": "2026-07-13T21:37:28Z",
  "threshold_m": 150,
  "source": "stations_override.txt (ICAO list) + aviationweather.gov (METAR/TAF raw)",
  "station_count": 159,
  "stations": [
    {
      "icao": "BIKF",
      "alert": "OK",
      "vis_m": 9999,
      "fzfg": false,
      "metar_trigger": false,
      "taf_trigger": false,
      "metar": "METAR BIKF 132130Z 17018KT 9999 OVC003 11/10 Q1020",
      "taf": "TAF BIKF 131936Z 1321/1421 17018KT 4000 RADZ BKN005 OVC010 TX11/1415Z TN10/1404Z"
    },
    {
      "icao": "BKPR",
      "alert": "OK",
      "vis_m": 9999,
      "fzfg": false,
      "metar_trigger": false,
      "taf_trigger": false,
      "metar": "METAR BKPR 132130Z 31005KT 9999 FEW070 20/13 Q1020 NOSIG",
      "taf": "TAF BKPR 131730Z 1318/1418 32008KT 9999 FEW060"
    },
    {
      "icao": "EBCI",
      "alert": "OK",
      "vis_m": 9999,
      "fzfg": false,
      "metar_trigger": false,
      "taf_trigger": false,
      "metar": "METAR EBCI 132120Z 36007KT CAVOK 23/15 Q1018 NOSIG",
      "taf": "TAF EBCI 131715Z 1318/1424 03010KT CAVOK"
    },
    {
      "icao": "EDDB",
      "alert": "OK",
      "vis_m": 9999,
      "fzfg": false,
      "metar_trigger": false,
      "taf_trigger": false,
      "metar": "METAR EDDB 132120Z AUTO 04007KT CAVOK 21/16 Q1020 NOSIG",
      "taf": "TAF EDDB 131700Z 1318/1418 04008KT CAVOK"
    },
    {
      "icao": "EDDH",
      "alert": "OK",
      "vis_m": 9999,
      "fzfg": false,
      "metar_trigger": false,
      "taf_trigger": false,
      "metar": "METAR EDDH 132120Z AUTO 09005KT 060V120 CAVOK 20/16 Q1021 NOSIG",
      "taf": "TAF EDDH 131700Z 1318/1424 06007KT CAVOK"
    },
    {
      "icao": "EDDK",
      "alert": "OK",
      "vis_m": 9999,
      "fzfg": false,
      "metar_trigger": false,
      "taf_trigger": false,
      "metar": "METAR EDDK 132120Z AUTO 05009KT CAVOK 25/15 Q1016 NOSIG",
      "taf": "TAF EDDK 131700Z 1318/1424 03007KT CAVOK"
    },
    {
      "icao": "EDDN",
      "alert": "OK",
      "vis_m": 9999,
      "fzfg": false,
      "metar_trigger": false,
      "taf_trigger": false,
      "metar": "METAR EDDN 132120Z AUTO 06008KT CAVOK 25/14 Q1016",
      "taf": "TAF EDDN 131700Z 1318/1418 06004KT CAVOK"
    },
    {
      "icao": "EDDS",
      "alert": "OK",
      "vis_m": 9999,
      "fzfg": false,
      "metar_trigger": false,
      "taf_trigger": false,
      "metar": "METAR EDDS 132120Z AUTO 34002KT CAVOK 24/11 Q1016",
      "taf": "TAF EDDS 131700Z 1318/1418 07005KT CAVOK"
    },
    {
      "icao": "EDFH",
      "alert": "OK",
      "vis_m": 9999,
      "fzfg": false,
      "metar_trigger": false,
      "taf_trigger": false,
      "metar": "METAR EDFH 132120Z 07004KT 040V100 CAVOK 24/09 Q1018",
      "taf": "TAF EDFH 131700Z 1318/1418 08007KT CAVOK"
    },
    {
      "icao": "EDJA",
      "alert": "OK",
      "vis_m": 9999,
      "fzfg": false,
      "metar_trigger": false,
      "taf_trigger": false,
      "metar": "METAR EDJA 132120Z AUTO 06003KT 9999 // NCD 20/12 Q1018",
      "taf": "TAF EDJA 131700Z 1318/1403 07005KT CAVOK"
    },
    {
      "icao": "EDLW",
      "alert": "OK",
      "vis_m": 9999,
      "fzfg": false,
      "metar_trigger": false,
      "taf_trigger": false,
      "metar": "METAR EDLW 132120Z AUTO 07005KT 9999 // BKN090/// 24/13 Q1017",
      "taf": "TAF EDLW 131700Z 1318/1418 05007KT CAVOK"
    },
    {
      "icao": "EDNY",
      "alert": "OK",
      "vis_m": 9999,
      "fzfg": false,
      "metar_trigger": false,
      "taf_trigger": false,
      "metar": "METAR EDNY 132120Z AUTO 11002KT 9999 // FEW170/// 23/16 Q1016",
      "taf": "TAF EDNY 131700Z 1318/1403 VRB03KT CAVOK"
    },
    {
      "icao": "EDSB",
      "alert": "OK",
      "vis_m": 9999,
      "fzfg": false,
      "metar_trigger": false,
      "taf_trigger": false,
      "metar": "METAR EDSB 132120Z 02004KT CAVOK 25/13 Q1014",
      "taf": "TAF EDSB 131700Z 1318/1418 02007KT CAVOK"
    },
    {
      "icao": "EETN",
      "alert": "OK",
      "vis_m": 9999,
      "fzfg": false,
      "metar_trigger": false,
      "taf_trigger": false,
      "metar": "METAR EETN 132120Z 34005KT 9999 BKN024 18/16 Q1018 NOSIG",
      "taf": ""
    },
    {
      "icao": "EFTU",
      "alert": "OK",
      "vis_m": 9999,
      "fzfg": false,
      "metar_trigger": false,
      "taf_trigger": false,
      "metar": "METAR EFTU 132120Z AUTO 34003KT 9999 FEW039 16/12 Q1020",
      "taf": "TAF EFTU 132027Z 1321/1421 34004KT CAVOK"
    },
    {
      "icao": "EGBB",
      "alert": "OK",
      "vis_m": 9999,
      "fzfg": false,
      "metar_trigger": false,
      "taf_trigger": false,
      "metar": "METAR EGBB 132120Z 05010KT CAVOK 18/11 Q1024",
      "taf": "TAF EGBB 131655Z 1318/1418 05010KT 9999 FEW040"
    },
    {
      "icao": "EGGP",
      "alert": "OK",
      "vis_m": 9999,
      "fzfg": false,
      "metar_trigger": false,
      "taf_trigger": false,
      "metar": "METAR EGGP 132120Z 08011KT 9999 7000SE NSC 19/09 Q1024",
      "taf": "TAF EGGP 131654Z 1318/1418 07009KT CAVOK"
    },
    {
      "icao": "EGGW",
      "alert": "OK",
      "vis_m": 9999,
      "fzfg": false,
      "metar_trigger": false,
      "taf_trigger": false,
      "metar": "METAR EGGW 132120Z AUTO 03010KT 9999 NCD 17/14 Q1023",
      "taf": "TAF EGGW 131656Z 1318/1418 06012KT 9999 FEW045"
    },
    {
      "icao": "EGKK",
      "alert": "OK",
      "vis_m": 9999,
      "fzfg": false,
      "metar_trigger": false,
      "taf_trigger": false,
      "metar": "METAR EGKK 132120Z 05010KT 9999 FEW020 20/16 Q1021",
      "taf": "TAF EGKK 131656Z 1318/1424 05013KT CAVOK"
    },
    {
      "icao": "EGNM",
      "alert": "OK",
      "vis_m": 9999,
      "fzfg": false,
      "metar_trigger": false,
      "taf_trigger": false,
      "metar": "METAR EGNM 132120Z 03009KT 340V050 CAVOK 13/11 Q1026",
      "taf": "TAF EGNM 131655Z 1318/1418 06010KT CAVOK"
    },
    {
      "icao": "EGPD",
      "alert": "OK",
      "vis_m": 9999,
      "fzfg": false,
      "metar_trigger": false,
      "taf_trigger": false,
      "metar": "METAR EGPD 132120Z AUTO VRB02KT 9999 SCT012 12/09 Q1029",
      "taf": ""
    },
    {
      "icao": "EGPF",
      "alert": "OK",
      "vis_m": 9999,
      "fzfg": false,
      "metar_trigger": false,
      "taf_trigger": false,
      "metar": "METAR EGPF 132120Z AUTO 06010KT 9999 NCD 14/10 Q1028",
      "taf": "TAF EGPF 131650Z 1318/1418 06012KT CAVOK"
    },
    {
      "icao": "EHBK",
      "alert": "OK",
      "vis_m": 9999,
      "fzfg": false,
      "metar_trigger": false,
      "taf_trigger": false,
      "metar": "METAR EHBK 132125Z AUTO 01007KT 310V040 9999 NSC 25/15 Q1017",
      "taf": "TAF EHBK 131710Z 1318/1424 05010KT CAVOK"
    },
    {
      "icao": "EHEH",
      "alert": "OK",
      "vis_m": 9999,
      "fzfg": false,
      "metar_trigger": false,
      "taf_trigger": false,
      "metar": "METAR EHEH 132125Z AUTO 01006KT 330V040 9999 FEW089 23/16 Q1018 BLU NOSIG RMK TREND REMOTE BY EHWO",
      "taf": "TAF EHEH 131724Z 1318/1424 05009KT CAVOK"
    },
    {
      "icao": "EKBI",
      "alert": "OK",
      "vis_m": 9999,
      "fzfg": false,
      "metar_trigger": false,
      "taf_trigger": false,
      "metar": "METAR EKBI 132120Z AUTO 09003KT 9999 NCD 18/15 Q1024",
      "taf": "TAF EKBI 132027Z 1321/1421 VRB04KT 9999 SCT025"
    },
    {
      "icao": "EKCH",
      "alert": "OK",
      "vis_m": 9999,
      "fzfg": false,
      "metar_trigger": false,
      "taf_trigger": false,
      "metar": "METAR EKCH 132120Z AUTO 02004KT 9999 BKN140/// 18/16 Q1024 NOSIG",
      "taf": "TAF EKCH 132027Z 1321/1421 35008KT 9999 FEW030"
    },
    {
      "icao": "ENAL",
      "alert": "OK",
      "vis_m": 9999,
      "fzfg": false,
      "metar_trigger": false,
      "taf_trigger": false,
      "metar": "METAR ENAL 132120Z 35004KT 310V020 9999 BKN010 12/11 Q1029",
      "taf": "TAF ENAL 132000Z 1321/1406 36007KT 9999 BKN010"
    },
    {
      "icao": "ENBR",
      "alert": "OK",
      "vis_m": 9999,
      "fzfg": false,
      "metar_trigger": false,
      "taf_trigger": false,
      "metar": "METAR ENBR 132120Z 33008KT CAVOK 12/11 Q1026 RMK WIND 1200FT 34011KT",
      "taf": "TAF ENBR 131700Z 1318/1418 33010KT CAVOK"
    },
    {
      "icao": "ENGM",
      "alert": "OK",
      "vis_m": 9999,
      "fzfg": false,
      "metar_trigger": false,
      "taf_trigger": false,
      "metar": "METAR ENGM 132120Z VRB02KT CAVOK 21/13 Q1023",
      "taf": "TAF ENGM 131700Z 1318/1418 VRB03KT CAVOK"
    },
    {
      "icao": "ENHD",
      "alert": "OK",
      "vis_m": 9999,
      "fzfg": false,
      "metar_trigger": false,
      "taf_trigger": false,
      "metar": "METAR ENHD 132120Z AUTO 35014KT 9999 NCD 12/11 Q1026",
      "taf": "TAF ENHD 131400Z 1315/1322 34009KT CAVOK"
    },
    {
      "icao": "ENTC",
      "alert": "OK",
      "vis_m": 9999,
      "fzfg": false,
      "metar_trigger": false,
      "taf_trigger": false,
      "metar": "METAR ENTC 132120Z 22025KT 9999 SCT047 13/08 Q1017 RMK WIND 2600FT 22019KT",
      "taf": "TAF ENTC 131700Z 1318/1418 20025KT 9999 FEW030 BKN060"
    },
    {
      "icao": "ENTO",
      "alert": "OK",
      "vis_m": 3600,
      "fzfg": false,
      "metar_trigger": false,
      "taf_trigger": false,
      "metar": "METAR ENTO 132120Z AUTO 27004KT 3600 // NCD 19/08 Q1024",
      "taf": "TAF ENTO 131700Z 1318/1418 24010KT CAVOK"
    },
    {
      "icao": "ENVA",
      "alert": "OK",
      "vis_m": 9999,
      "fzfg": false,
      "metar_trigger": false,
      "taf_trigger": false,
      "metar": "METAR ENVA 132120Z 26011KT 9999 SCT016 14/11 Q1028 RMK WIND 670FT 28013KT",
      "taf": "TAF ENVA 131700Z 1318/1418 27009KT CAVOK"
    },
    {
      "icao": "ENZV",
      "alert": "OK",
      "vis_m": 9999,
      "fzfg": false,
      "metar_trigger": false,
      "taf_trigger": false,
      "metar": "METAR ENZV 132120Z 23002KT CAVOK 14/12 Q1026",
      "taf": "TAF ENZV 131700Z 1318/1418 30006KT CAVOK"
    },
    {
      "icao": "EPGD",
      "alert": "OK",
      "vis_m": 9999,
      "fzfg": false,
      "metar_trigger": false,
      "taf_trigger": false,
      "metar": "METAR EPGD 132130Z 34004KT CAVOK 14/11 Q1022",
      "taf": "TAF EPGD 131730Z 1318/1418 36010KT CAVOK"
    },
    {
      "icao": "EPKK",
      "alert": "OK",
      "vis_m": 600,
      "fzfg": false,
      "metar_trigger": false,
      "taf_trigger": false,
      "metar": "METAR EPKK 132130Z 24004KT 0600 R25/1000N FG BKN054 18/17 Q1019",
      "taf": "TAF EPKK 132030Z 1321/1421 VRB02KT 4500 BR FEW040"
    },
    {
      "icao": "EPKT",
      "alert": "OK",
      "vis_m": 9999,
      "fzfg": false,
      "metar_trigger": false,
      "taf_trigger": false,
      "metar": "METAR EPKT 132130Z 34001KT CAVOK 17/16 Q1019",
      "taf": "TAF EPKT 131730Z 1318/1418 02006KT CAVOK"
    },
    {
      "icao": "EPLB",
      "alert": "OK",
      "vis_m": 9999,
      "fzfg": false,
      "metar_trigger": false,
      "taf_trigger": false,
      "metar": "METAR EPLB 132130Z 36003KT 330V030 CAVOK 20/17 Q1017",
      "taf": "TAF EPLB 131730Z 1318/1418 30008KT CAVOK"
    },
    {
      "icao": "EPMO",
      "alert": "OK",
      "vis_m": 9999,
      "fzfg": false,
      "metar_trigger": false,
      "taf_trigger": false,
      "metar": "METAR EPMO 132130Z 33008KT 9999 FEW009 18/18 Q1019",
      "taf": "TAF EPMO 131730Z 1318/1418 33006KT 9999 SCT030"
    },
    {
      "icao": "EPPO",
      "alert": "OK",
      "vis_m": 9999,
      "fzfg": false,
      "metar_trigger": false,
      "taf_trigger": false,
      "metar": "METAR EPPO 132130Z 04006KT CAVOK 21/17 Q1020",
      "taf": "TAF EPPO 131730Z 1318/1418 02008KT CAVOK"
    },
    {
      "icao": "EPRA",
      "alert": "OK",
      "vis_m": 9999,
      "fzfg": false,
      "metar_trigger": false,
      "taf_trigger": false,
      "metar": "METAR EPRA 132130Z 34005KT CAVOK 22/19 Q1018",
      "taf": "TAF EPRA 132030Z 1321/1406 28008KT 9999 SCT040"
    },
    {
      "icao": "EPRZ",
      "alert": "OK",
      "vis_m": 9999,
      "fzfg": false,
      "metar_trigger": false,
      "taf_trigger": false,
      "metar": "METAR EPRZ 132130Z 25005KT 9999 SCT025 18/17 Q1018",
      "taf": "TAF EPRZ 131730Z 1318/1418 32008KT CAVOK"
    },
    {
      "icao": "EPSC",
      "alert": "OK",
      "vis_m": 9999,
      "fzfg": false,
      "metar_trigger": false,
      "taf_trigger": false,
      "metar": "METAR EPSC 132130Z 02007KT 350V050 CAVOK 17/14 Q1021",
      "taf": "TAF EPSC 131730Z 1318/1418 03010KT CAVOK"
    },
    {
      "icao": "EPSY",
      "alert": "OK",
      "vis_m": 9999,
      "fzfg": false,
      "metar_trigger": false,
      "taf_trigger": false,
      "metar": "METAR EPSY 132130Z 32007KT 280V350 9999 BKN007 16/15 Q1019",
      "taf": "TAF EPSY 132030Z 1321/1406 32008KT 9999 BKN010"
    },
    {
      "icao": "EPWA",
      "alert": "OK",
      "vis_m": 9999,
      "fzfg": false,
      "metar_trigger": false,
      "taf_trigger": false,
      "metar": "METAR EPWA 132130Z 35010KT CAVOK 21/18 Q1018 NOSIG",
      "taf": "TAF EPWA 132030Z 1321/1421 33007KT CAVOK"
    },
    {
      "icao": "EPWR",
      "alert": "OK",
      "vis_m": 9999,
      "fzfg": false,
      "metar_trigger": false,
      "taf_trigger": false,
      "metar": "METAR EPWR 132130Z 28001KT CAVOK 21/15 Q1019",
      "taf": "TAF EPWR 132030Z 1321/1421 VRB02KT CAVOK"
    },
    {
      "icao": "ESGG",
      "alert": "OK",
      "vis_m": 9999,
      "fzfg": false,
      "metar_trigger": false,
      "taf_trigger": false,
      "metar": "METAR ESGG 132120Z 34004KT CAVOK 19/10 Q1024",
      "taf": "TAF ESGG 131730Z 1318/1418 02008KT CAVOK"
    },
    {
      "icao": "ESKN",
      "alert": "OK",
      "vis_m": 9999,
      "fzfg": false,
      "metar_trigger": false,
      "taf_trigger": false,
      "metar": "METAR ESKN 132050Z 08001KT CAVOK 16/13 Q1023",
      "taf": "TAF ESKN 131730Z 1318/1418 34005KT CAVOK"
    },
    {
      "icao": "ESMS",
      "alert": "OK",
      "vis_m": 9999,
      "fzfg": false,
      "metar_trigger": false,
      "taf_trigger": false,
      "metar": "METAR ESMS 132120Z 00000KT CAVOK 16/12 Q1024",
      "taf": "TAF ESMS 132027Z 1321/1421 VRB04KT 9999 FEW035"
    },
    {
      "icao": "ESSA",
      "alert": "OK",
      "vis_m": 9999,
      "fzfg": false,
      "metar_trigger": false,
      "taf_trigger": false,
      "metar": "METAR ESSA 132120Z 02005KT CAVOK 13/06 Q1023 NOSIG",
      "taf": "TAF ESSA 131730Z 1318/1418 01010KT CAVOK"
    },
    {
      "icao": "EYKA",
      "alert": "OK",
      "vis_m": 9999,
      "fzfg": false,
      "metar_trigger": false,
      "taf_trigger": false,
      "metar": "METAR EYKA 132120Z 32003KT 270V030 CAVOK 20/18 Q1017",
      "taf": "TAF EYKA 131700Z 1318/1418 VRB03KT 9000 NSC"
    },
    {
      "icao": "EYPA",
      "alert": "OK",
      "vis_m": 9999,
      "fzfg": false,
      "metar_trigger": false,
      "taf_trigger": false,
      "metar": "METAR EYPA 132120Z 01007KT CAVOK 14/13 Q1019",
      "taf": "TAF EYPA 131700Z 1318/1418 VRB04KT 9000 NSC"
    },
    {
      "icao": "EYVI",
      "alert": "OK",
      "vis_m": 9999,
      "fzfg": false,
      "metar_trigger": false,
      "taf_trigger": false,
      "metar": "METAR EYVI 132120Z 32004KT CAVOK 20/19 Q1016 NOSIG",
      "taf": "TAF EYVI 131700Z 1318/1418 33008KT 9000 SCT045"
    },
    {
      "icao": "GCFV",
      "alert": "OK",
      "vis_m": 9999,
      "fzfg": false,
      "metar_trigger": false,
      "taf_trigger": false,
      "metar": "METAR GCFV 132130Z 04007KT 9999 FEW015 23/20 Q1017",
      "taf": "TAF GCFV 132000Z 1321/1421 04009KT 9999 SCT025 TX26/1414Z TN21/1406Z"
    },
    {
      "icao": "GCLP",
      "alert": "OK",
      "vis_m": 9999,
      "fzfg": false,
      "metar_trigger": false,
      "taf_trigger": false,
      "metar": "METAR GCLP 132130Z 01013KT 9999 FEW025 23/18 Q1017 NOSIG",
      "taf": "TAF GCLP 132000Z 1321/1421 36007KT 9999 SCT030 TX27/1414Z TN21/1406Z"
    },
    {
      "icao": "GCTS",
      "alert": "OK",
      "vis_m": 9999,
      "fzfg": false,
      "metar_trigger": false,
      "taf_trigger": false,
      "metar": "METAR GCTS 132130Z 08008KT 9999 FEW030 23/18 Q1017 NOSIG",
      "taf": "TAF GCTS 132000Z 1321/1421 05006KT 9999 SCT030 TX27/1414Z TN19/1406Z"
    },
    {
      "icao": "GMAD",
      "alert": "OK",
      "vis_m": 9999,
      "fzfg": false,
      "metar_trigger": false,
      "taf_trigger": false,
      "metar": "METAR GMAD 132130Z 19006KT CAVOK 22/19 Q1015 NOSIG",
      "taf": "TAF GMAD 131700Z 1318/1424 27014KT CAVOK"
    },
    {
      "icao": "GMMN",
      "alert": "OK",
      "vis_m": 9999,
      "fzfg": false,
      "metar_trigger": false,
      "taf_trigger": false,
      "metar": "METAR GMMN 132130Z 04009KT 9999 FEW020 22/18 Q1017 NOSIG",
      "taf": "TAF GMMN 131700Z 1318/1424 36012KT CAVOK"
    },
    {
      "icao": "GMMX",
      "alert": "OK",
      "vis_m": 9999,
      "fzfg": false,
      "metar_trigger": false,
      "taf_trigger": false,
      "metar": "METAR GMMX 132130Z 03010KT 360V060 CAVOK 29/17 Q1015 NOSIG",
      "taf": "TAF GMMX 131700Z 1318/1424 32008KT CAVOK"
    },
    {
      "icao": "HEGN",
      "alert": "OK",
      "vis_m": 9999,
      "fzfg": false,
      "metar_trigger": false,
      "taf_trigger": false,
      "metar": "METAR HEGN 132100Z 28009KT CAVOK 31/04 Q1005 NOSIG",
      "taf": "TAF HEGN 131700Z 1318/1424 34015KT CAVOK"
    },
    {
      "icao": "HEMA",
      "alert": "OK",
      "vis_m": 9999,
      "fzfg": false,
      "metar_trigger": false,
      "taf_trigger": false,
      "metar": "METAR HEMA 132100Z 26003KT CAVOK 29/12 Q1005 NOSIG",
      "taf": "TAF HEMA 131700Z 1318/1424 34015KT CAVOK"
    },
    {
      "icao": "HESH",
      "alert": "OK",
      "vis_m": 9999,
      "fzfg": false,
      "metar_trigger": false,
      "taf_trigger": false,
      "metar": "METAR HESH 132100Z 35006KT CAVOK 31/18 Q1004 NOSIG",
      "taf": "TAF HESH 131700Z 1318/1424 33012KT CAVOK"
    },
    {
      "icao": "HESX",
      "alert": "OK",
      "vis_m": 9999,
      "fzfg": false,
      "metar_trigger": false,
      "taf_trigger": false,
      "metar": "METAR HESX 132100Z 36007KT CAVOK 24/17 Q1009 NOSIG",
      "taf": "TAF HESX 131700Z 1318/1424 32012KT CAVOK"
    },
    {
      "icao": "LATI",
      "alert": "OK",
      "vis_m": 9999,
      "fzfg": false,
      "metar_trigger": false,
      "taf_trigger": false,
      "metar": "METAR LATI 132120Z VRB02KT CAVOK 22/17 Q1015 NOSIG",
      "taf": "TAF LATI 131700Z 1318/1418 34010KT CAVOK TX35/1411Z TN18/1404Z"
    },
    {
      "icao": "LBPD",
      "alert": "OK",
      "vis_m": 9999,
      "fzfg": false,
      "metar_trigger": false,
      "taf_trigger": false,
      "metar": "METAR LBPD 132130Z AUTO 00000KT 9999 OVC099/// 22/13 Q1016",
      "taf": "TAF LBPD 131700Z 1318/1418 27012KT 9999 SCT070"
    },
    {
      "icao": "LBSF",
      "alert": "OK",
      "vis_m": 9999,
      "fzfg": false,
      "metar_trigger": false,
      "taf_trigger": false,
      "metar": "METAR LBSF 132130Z AUTO 10003KT 050V120 9999 FEW050/// 16/12 Q1019 NOSIG",
      "taf": "TAF LBSF 131700Z 1318/1418 32010KT 9999 SCT050"
    },
    {
      "icao": "LBWN",
      "alert": "OK",
      "vis_m": 9999,
      "fzfg": false,
      "metar_trigger": false,
      "taf_trigger": false,
      "metar": "METAR LBWN 132130Z AUTO 00000KT 9999 NSC 17/17 Q1014 NOSIG",
      "taf": "TAF LBWN 131700Z 1318/1418 VRB04KT 9999 SCT030 SCT045"
    },
    {
      "icao": "LCLK",
      "alert": "OK",
      "vis_m": 9999,
      "fzfg": false,
      "metar_trigger": false,
      "taf_trigger": false,
      "metar": "METAR LCLK 132130Z 02003KT CAVOK 27/22 Q1005 NOSIG",
      "taf": "TAF LCLK 131730Z 1318/1418 24007KT 9999 FEW025"
    },
    {
      "icao": "LCPH",
      "alert": "OK",
      "vis_m": 9999,
      "fzfg": false,
      "metar_trigger": false,
      "taf_trigger": false,
      "metar": "METAR LCPH 132130Z AUTO 02005KT 9999 NCD 24/19 Q1006 NOSIG",
      "taf": "TAF LCPH 131730Z 1318/1418 35007KT 9999 FEW020"
    },
    {
      "icao": "LEAL",
      "alert": "OK",
      "vis_m": 9999,
      "fzfg": false,
      "metar_trigger": false,
      "taf_trigger": false,
      "metar": "METAR LEAL 132130Z 19003KT 170V230 CAVOK 27/24 Q1014 NOSIG",
      "taf": "TAF LEAL 131700Z 1318/1418 11009KT 9999 FEW010 TX33/1412Z TN23/1406Z"
    },
    {
      "icao": "LEBB",
      "alert": "OK",
      "vis_m": 9999,
      "fzfg": false,
      "metar_trigger": false,
      "taf_trigger": false,
      "metar": "METAR LEBB 132130Z 31004KT 9999 FEW019 SCT049 23/21 Q1016 NOSIG",
      "taf": "TAF LEBB 131700Z 1318/1418 28009KT 9999 SCT030 TX31/1412Z TN21/1405Z"
    },
    {
      "icao": "LEBL",
      "alert": "OK",
      "vis_m": 9999,
      "fzfg": false,
      "metar_trigger": false,
      "taf_trigger": false,
      "metar": "METAR LEBL 132130Z 12002KT 9999 FEW010 27/26 Q1014 NOSIG",
      "taf": "TAF LEBL 131700Z 1318/1418 05012KT 9999 FEW020 TX31/1412Z TN24/1406Z"
    },
    {
      "icao": "LECH",
      "alert": "OK",
      "vis_m": 9999,
      "fzfg": false,
      "metar_trigger": false,
      "taf_trigger": false,
      "metar": "METAR LECH 132130Z AUTO 19003KT 160V230 CAVOK 25/22 Q1015",
      "taf": "TAF LECH 131700Z 1318/1418 13008KT 9999 FEW010 TX35/1412Z TN21/1406Z"
    },
    {
      "icao": "LEMD",
      "alert": "OK",
      "vis_m": 9999,
      "fzfg": false,
      "metar_trigger": false,
      "taf_trigger": false,
      "metar": "METAR LEMD 132130Z 29005KT 280V340 CAVOK 28/05 Q1016 NOSIG",
      "taf": "TAF LEMD 131700Z 1318/1424 VRB04KT CAVOK TX37/1416Z TN19/1405Z"
    },
    {
      "icao": "LEMG",
      "alert": "OK",
      "vis_m": 9999,
      "fzfg": false,
      "metar_trigger": false,
      "taf_trigger": false,
      "metar": "METAR LEMG 132130Z 31005KT CAVOK 24/17 Q1013 NOSIG",
      "taf": "TAF LEMG 131700Z 1318/1418 08008KT CAVOK TX35/1414Z TN24/1405Z"
    },
    {
      "icao": "LEVC",
      "alert": "OK",
      "vis_m": 9999,
      "fzfg": false,
      "metar_trigger": false,
      "taf_trigger": false,
      "metar": "METAR LEVC 132130Z 04005KT 010V070 CAVOK 28/24 Q1013 NOSIG",
      "taf": "TAF LEVC 131700Z 1318/1418 11009KT 9999 FEW015 TX33/1414Z TN24/1406Z"
    },
    {
      "icao": "LEXJ",
      "alert": "OK",
      "vis_m": 8000,
      "fzfg": false,
      "metar_trigger": false,
      "taf_trigger": false,
      "metar": "METAR LEXJ 132130Z AUTO 00000KT 8000 SCT022 21/20 Q1016",
      "taf": "TAF LEXJ 132000Z 1321/1421 VRB03KT 9999 SCT020 TX27/1412Z TN19/1405Z"
    },
    {
      "icao": "LEZG",
      "alert": "OK",
      "vis_m": 9999,
      "fzfg": false,
      "metar_trigger": false,
      "taf_trigger": false,
      "metar": "METAR LEZG 132130Z 18008KT 150V210 9999 FEW085 FEW100CB 33/18 Q1012 NOSIG",
      "taf": "TAF LEZG 131700Z 1318/1418 08008KT CAVOK TX37/1415Z TN24/1406Z"
    },
    {
      "icao": "LEZL",
      "alert": "OK",
      "vis_m": 9999,
      "fzfg": false,
      "metar_trigger": false,
      "taf_trigger": false,
      "metar": "METAR LEZL 132130Z 21007KT 190V250 CAVOK 25/15 Q1015 NOSIG",
      "taf": "TAF LEZL 132000Z 1321/1421 23010KT CAVOK TX34/1415Z TN20/1405Z"
    },
    {
      "icao": "LFBD",
      "alert": "OK",
      "vis_m": 9999,
      "fzfg": false,
      "metar_trigger": false,
      "taf_trigger": false,
      "metar": "METAR LFBD 132130Z AUTO 29004KT CAVOK 24/19 Q1015 NOSIG",
      "taf": ""
    },
    {
      "icao": "LFLL",
      "alert": "OK",
      "vis_m": 9999,
      "fzfg": false,
      "metar_trigger": false,
      "taf_trigger": false,
      "metar": "METAR LFLL 132130Z 17007KT 130V200 CAVOK 31/13 Q1015 NOSIG",
      "taf": "TAF LFLL 131700Z 1318/1424 18010KT CAVOK"
    },
    {
      "icao": "LFLS",
      "alert": "OK",
      "vis_m": 9999,
      "fzfg": false,
      "metar_trigger": false,
      "taf_trigger": false,
      "metar": "METAR LFLS 132130Z AUTO 19010KT CAVOK 27/16 Q1017",
      "taf": "TAF LFLS 131400Z 1315/1415 21008KT CAVOK"
    },
    {
      "icao": "LFMN",
      "alert": "OK",
      "vis_m": 9999,
      "fzfg": false,
      "metar_trigger": false,
      "taf_trigger": false,
      "metar": "METAR LFMN 132130Z 04005KT CAVOK 27/20 Q1016 NOSIG",
      "taf": "TAF LFMN 132000Z 1321/1503 VRB03KT CAVOK"
    },
    {
      "icao": "LFOB",
      "alert": "OK",
      "vis_m": 9999,
      "fzfg": false,
      "metar_trigger": false,
      "taf_trigger": false,
      "metar": "METAR LFOB 132130Z AUTO 02012KT CAVOK 23/17 Q1016 NOSIG",
      "taf": "TAF LFOB 131700Z 1318/1418 04015G25KT CAVOK"
    },
    {
      "icao": "LFPO",
      "alert": "OK",
      "vis_m": 9999,
      "fzfg": false,
      "metar_trigger": false,
      "taf_trigger": false,
      "metar": "METAR LFPO 132130Z AUTO 04010KT 9999 ///CB 28/16 Q1015 TEMPO VRB15G25KT 4000 -TSRA BECMG NSC",
      "taf": "TAF LFPO 131700Z 1318/1424 04015KT CAVOK"
    },
    {
      "icao": "LFSB",
      "alert": "OK",
      "vis_m": 9999,
      "fzfg": false,
      "metar_trigger": false,
      "taf_trigger": false,
      "metar": "METAR LFSB 132130Z AUTO 31002KT CAVOK 24/14 Q1015 TEMPO VRB20G35KT 2000 TSRA SCT090CB",
      "taf": "TAF LFSB 131700Z 1318/1418 01005KT CAVOK"
    },
    {
      "icao": "LGAV",
      "alert": "OK",
      "vis_m": 9999,
      "fzfg": false,
      "metar_trigger": false,
      "taf_trigger": false,
      "metar": "METAR LGAV 132120Z 07002KT 9999 FEW025 26/15 Q1013 NOSIG",
      "taf": "TAF LGAV 131700Z 1318/1418 03010KT 9999 FEW025"
    },
    {
      "icao": "LGTS",
      "alert": "OK",
      "vis_m": 9999,
      "fzfg": false,
      "metar_trigger": false,
      "taf_trigger": false,
      "metar": "METAR LGTS 132120Z 31009KT 9999 FEW025 28/15 Q1014 NOSIG",
      "taf": "TAF LGTS 131700Z 1318/1418 33015KT 9999 FEW030"
    },
    {
      "icao": "LHBP",
      "alert": "OK",
      "vis_m": 9999,
      "fzfg": false,
      "metar_trigger": false,
      "taf_trigger": false,
      "metar": "METAR LHBP 132130Z 12006KT CAVOK 21/12 Q1018 NOSIG",
      "taf": "TAF LHBP 131715Z 1318/1418 VRB03KT CAVOK"
    },
    {
      "icao": "LHDC",
      "alert": "OK",
      "vis_m": 9999,
      "fzfg": false,
      "metar_trigger": false,
      "taf_trigger": false,
      "metar": "METAR LHDC 132115Z AUTO 03004KT 350V050 CAVOK 20/14 Q1017",
      "taf": "TAF LHDC 131415Z 1315/1324 02009KT CAVOK"
    },
    {
      "icao": "LIBD",
      "alert": "OK",
      "vis_m": 9999,
      "fzfg": false,
      "metar_trigger": false,
      "taf_trigger": false,
      "metar": "METAR LIBD 132120Z 28005KT CAVOK 25/14 Q1017",
      "taf": "TAF LIBD 131700Z 1318/1418 33010KT CAVOK"
    },
    {
      "icao": "LIBG",
      "alert": "OK",
      "vis_m": 9999,
      "fzfg": false,
      "metar_trigger": false,
      "taf_trigger": false,
      "metar": "METAR LIBG 132120Z AUTO 35004KT 9999 NCD 23/13 Q1016",
      "taf": "TAF LIBG 131700Z 1318/1418 35010KT CAVOK"
    },
    {
      "icao": "LIBP",
      "alert": "OK",
      "vis_m": 9999,
      "fzfg": false,
      "metar_trigger": false,
      "taf_trigger": false,
      "metar": "METAR LIBP 132120Z AUTO 25003KT 9999 NCD 24/16 Q1017",
      "taf": "TAF LIBP 131700Z 1318/1418 VRB04KT CAVOK"
    },
    {
      "icao": "LIBR",
      "alert": "OK",
      "vis_m": 9999,
      "fzfg": false,
      "metar_trigger": false,
      "taf_trigger": false,
      "metar": "METAR LIBR 132120Z 34009KT CAVOK 26/21 Q1016",
      "taf": "TAF LIBR 131700Z 1318/1418 34012KT CAVOK"
    },
    {
      "icao": "LICA",
      "alert": "OK",
      "vis_m": 9999,
      "fzfg": false,
      "metar_trigger": false,
      "taf_trigger": false,
      "metar": "METAR LICA 132120Z AUTO 22003KT 9999 NCD 26/23 Q1017",
      "taf": "TAF LICA 131700Z 1318/1418 26010KT CAVOK"
    },
    {
      "icao": "LICC",
      "alert": "OK",
      "vis_m": 9999,
      "fzfg": false,
      "metar_trigger": false,
      "taf_trigger": false,
      "metar": "METAR LICC 132120Z 10001KT CAVOK 26/18 Q1017",
      "taf": "TAF LICC 131700Z 1318/1418 11010KT CAVOK"
    },
    {
      "icao": "LICJ",
      "alert": "OK",
      "vis_m": 9999,
      "fzfg": false,
      "metar_trigger": false,
      "taf_trigger": false,
      "metar": "METAR LICJ 132120Z 23003KT 160V310 CAVOK 28/23 Q1017",
      "taf": "TAF LICJ 131700Z 1318/1418 05010KT CAVOK"
    },
    {
      "icao": "LIMC",
      "alert": "OK",
      "vis_m": 9999,
      "fzfg": false,
      "metar_trigger": false,
      "taf_trigger": false,
      "metar": "METAR LIMC 132120Z VRB02KT CAVOK 25/18 Q1017 NOSIG",
      "taf": "TAF LIMC 131700Z 1318/1424 VRB05KT 9999 SCT050"
    },
    {
      "icao": "LIME",
      "alert": "OK",
      "vis_m": 9999,
      "fzfg": false,
      "metar_trigger": false,
      "taf_trigger": false,
      "metar": "METAR LIME 132120Z 01003KT CAVOK 27/20 Q1017 NOSIG",
      "taf": "TAF LIME 131700Z 1318/1418 VRB05KT 9999 FEW070"
    },
    {
      "icao": "LIMF",
      "alert": "OK",
      "vis_m": 9999,
      "fzfg": false,
      "metar_trigger": false,
      "taf_trigger": false,
      "metar": "METAR LIMF 132120Z 35005KT 9999 FEW070 27/20 Q1018",
      "taf": "TAF LIMF 131700Z 1318/1418 VRB05KT 9999 FEW050"
    },
    {
      "icao": "LIMJ",
      "alert": "OK",
      "vis_m": 9999,
      "fzfg": false,
      "metar_trigger": false,
      "taf_trigger": false,
      "metar": "METAR LIMJ 132120Z VRB02KT CAVOK 29/18 Q1016",
      "taf": "TAF LIMJ 131700Z 1318/1418 VRB05KT CAVOK"
    },
    {
      "icao": "LIPE",
      "alert": "OK",
      "vis_m": 9999,
      "fzfg": false,
      "metar_trigger": false,
      "taf_trigger": false,
      "metar": "METAR LIPE 132120Z 07005KT CAVOK 28/18 Q1016",
      "taf": "TAF LIPE 131700Z 1318/1418 VRB04KT CAVOK"
    },
    {
      "icao": "LIPH",
      "alert": "OK",
      "vis_m": 9999,
      "fzfg": false,
      "metar_trigger": false,
      "taf_trigger": false,
      "metar": "METAR LIPH 132120Z AUTO 25002KT 9999 BKN190/// 27/21 Q1017",
      "taf": "TAF LIPH 131700Z 1318/1418 VRB05KT CAVOK"
    },
    {
      "icao": "LIPQ",
      "alert": "OK",
      "vis_m": 9999,
      "fzfg": false,
      "metar_trigger": false,
      "taf_trigger": false,
      "metar": "METAR LIPQ 132120Z AUTO 33004KT 250V030 9999 NCD 24/20 Q1016",
      "taf": "TAF LIPQ 131700Z 1318/1418 VRB05KT CAVOK"
    },
    {
      "icao": "LIPR",
      "alert": "OK",
      "vis_m": 9999,
      "fzfg": false,
      "metar_trigger": false,
      "taf_trigger": false,
      "metar": "METAR LIPR 132120Z AUTO 11001KT 9999 BKN190/// 25/20 Q1016",
      "taf": "TAF LIPR 131700Z 1318/1418 12010KT CAVOK"
    },
    {
      "icao": "LIPX",
      "alert": "OK",
      "vis_m": 9999,
      "fzfg": false,
      "metar_trigger": false,
      "taf_trigger": false,
      "metar": "METAR LIPX 132120Z 08005KT 9999 FEW070 28/20 Q1017",
      "taf": "TAF LIPX 131700Z 1318/1418 VRB06KT CAVOK"
    },
    {
      "icao": "LIPY",
      "alert": "OK",
      "vis_m": 9999,
      "fzfg": false,
      "metar_trigger": false,
      "taf_trigger": false,
      "metar": "METAR LIPY 132120Z AUTO VRB02KT 9999 NCD 24/13 Q1016",
      "taf": "TAF LIPY 131700Z 1318/1418 VRB05KT CAVOK"
    },
    {
      "icao": "LIPZ",
      "alert": "OK",
      "vis_m": 9999,
      "fzfg": false,
      "metar_trigger": false,
      "taf_trigger": false,
      "metar": "METAR LIPZ 132120Z 21004KT CAVOK 27/21 Q1017 NOSIG",
      "taf": "TAF LIPZ 131700Z 1318/1424 16010KT CAVOK"
    },
    {
      "icao": "LIRF",
      "alert": "OK",
      "vis_m": 9999,
      "fzfg": false,
      "metar_trigger": false,
      "taf_trigger": false,
      "metar": "METAR LIRF 132120Z 31002KT CAVOK 25/24 Q1017 NOSIG",
      "taf": "TAF LIRF 131700Z 1318/1424 27010KT CAVOK"
    },
    {
      "icao": "LIRN",
      "alert": "OK",
      "vis_m": 9999,
      "fzfg": false,
      "metar_trigger": false,
      "taf_trigger": false,
      "metar": "METAR LIRN 132120Z VRB02KT CAVOK 28/16 Q1018 NOSIG",
      "taf": "TAF LIRN 131700Z 1318/1418 VRB05KT CAVOK"
    },
    {
      "icao": "LIRP",
      "alert": "OK",
      "vis_m": 9999,
      "fzfg": false,
      "metar_trigger": false,
      "taf_trigger": false,
      "metar": "METAR LIRP 132115Z 34003KT CAVOK 27/21 Q1017 NOSIG",
      "taf": "TAF LIRP 131700Z 1318/1418 28008KT CAVOK"
    },
    {
      "icao": "LIRZ",
      "alert": "OK",
      "vis_m": 9999,
      "fzfg": false,
      "metar_trigger": false,
      "taf_trigger": false,
      "metar": "METAR LIRZ 132120Z AUTO 20007KT 9999 NCD 29/17 Q1017",
      "taf": "TAF LIRZ 131700Z 1318/1418 VRB05KT CAVOK"
    },
    {
      "icao": "LJLJ",
      "alert": "OK",
      "vis_m": 9999,
      "fzfg": false,
      "metar_trigger": false,
      "taf_trigger": false,
      "metar": "METAR LJLJ 132130Z 09007KT 9999 FEW065 BKN250 23/17 Q1018 NOSIG",
      "taf": "TAF LJLJ 131700Z 1318/1418 23005KT 9999 FEW065"
    },
    {
      "icao": "LKMT",
      "alert": "OK",
      "vis_m": 9999,
      "fzfg": false,
      "metar_trigger": false,
      "taf_trigger": false,
      "metar": "METAR LKMT 132130Z VRB02KT CAVOK 18/17 Q1019 NOSIG",
      "taf": "TAF LKMT 131700Z 1318/1418 03008KT CAVOK"
    },
    {
      "icao": "LKPR",
      "alert": "OK",
      "vis_m": 9999,
      "fzfg": false,
      "metar_trigger": false,
      "taf_trigger": false,
      "metar": "METAR LKPR 132130Z 04005KT 350V050 CAVOK 22/15 Q1019 NOSIG",
      "taf": "TAF LKPR 132000Z 1321/1503 07005KT CAVOK"
    },
    {
      "icao": "LLBG",
      "alert": "OK",
      "vis_m": 9999,
      "fzfg": false,
      "metar_trigger": false,
      "taf_trigger": false,
      "metar": "METAR LLBG 132120Z 19004KT 150V230 9999 SCT017 26/22 Q1008 NOSIG",
      "taf": "TAF LLBG 131702Z 1318/1418 VRB04KT 9999 FEW020 TX31/1412Z TN23/1403Z"
    },
    {
      "icao": "LMML",
      "alert": "OK",
      "vis_m": 9999,
      "fzfg": false,
      "metar_trigger": false,
      "taf_trigger": false,
      "metar": "METAR LMML 132115Z 06004KT 040V100 9999 FEW006 26/24 Q1018 NOSIG",
      "taf": "TAF LMML 131700Z 1318/1418 07010KT 9999 FEW015"
    },
    {
      "icao": "LOWW",
      "alert": "OK",
      "vis_m": 9999,
      "fzfg": false,
      "metar_trigger": false,
      "taf_trigger": false,
      "metar": "METAR LOWW 132120Z 09002KT CAVOK 22/14 Q1018 NOSIG",
      "taf": ""
    },
    {
      "icao": "LPFR",
      "alert": "OK",
      "vis_m": 9999,
      "fzfg": false,
      "metar_trigger": false,
      "taf_trigger": false,
      "metar": "METAR LPFR 132130Z 28010KT CAVOK 23/17 Q1015",
      "taf": "TAF LPFR 131700Z 1318/1418 23012KT CAVOK"
    },
    {
      "icao": "LPMA",
      "alert": "OK",
      "vis_m": 9999,
      "fzfg": false,
      "metar_trigger": false,
      "taf_trigger": false,
      "metar": "METAR LPMA 132130Z 00000KT 9999 FEW015 22/17 Q1017",
      "taf": "TAF LPMA 131700Z 1318/1418 VRB05KT 9999 SCT015"
    },
    {
      "icao": "LPPR",
      "alert": "OK",
      "vis_m": 9999,
      "fzfg": false,
      "metar_trigger": false,
      "taf_trigger": false,
      "metar": "METAR LPPR 132130Z VRB02KT 9999 FEW045 19/17 Q1017",
      "taf": "TAF LPPR 131700Z 1318/1418 23010KT 9999 SCT020"
    },
    {
      "icao": "LPPS",
      "alert": "OK",
      "vis_m": 9999,
      "fzfg": false,
      "metar_trigger": false,
      "taf_trigger": false,
      "metar": "METAR LPPS 132130Z 28004KT 9999 SCT014 SCT030 22/18 Q1018",
      "taf": "TAF LPPS 131700Z 1318/1424 27010KT 9999 SCT015 SCT030"
    },
    {
      "icao": "LPPT",
      "alert": "OK",
      "vis_m": 9999,
      "fzfg": false,
      "metar_trigger": false,
      "taf_trigger": false,
      "metar": "METAR LPPT 132130Z 32009KT CAVOK 20/17 Q1016 NOSIG",
      "taf": "TAF LPPT 131700Z 1318/1424 31010KT 9999 FEW025"
    },
    {
      "icao": "LQBK",
      "alert": "OK",
      "vis_m": 9999,
      "fzfg": false,
      "metar_trigger": false,
      "taf_trigger": false,
      "metar": "METAR LQBK 132130Z 15003KT CAVOK 19/14 Q1018 NOSIG",
      "taf": "TAF LQBK 131700Z 1318/1418 16005KT CAVOK TX33/1414Z TN16/1404Z"
    },
    {
      "icao": "LQSA",
      "alert": "OK",
      "vis_m": 9999,
      "fzfg": false,
      "metar_trigger": false,
      "taf_trigger": false,
      "metar": "METAR LQSA 132130Z 14003KT CAVOK 18/14 Q1020 NOSIG",
      "taf": "TAF LQSA 131700Z 1318/1418 VRB02KT CAVOK TX31/1413Z TN14/1403Z"
    },
    {
      "icao": "LQTZ",
      "alert": "OK",
      "vis_m": 9999,
      "fzfg": false,
      "metar_trigger": false,
      "taf_trigger": false,
      "metar": "METAR LQTZ 132130Z 07001KT CAVOK 16/16 Q1018",
      "taf": "TAF LQTZ 131700Z 1318/1418 27006KT 9999 SCT050 TX33/1414Z TN13/1403Z"
    },
    {
      "icao": "LRBC",
      "alert": "OK",
      "vis_m": 9999,
      "fzfg": false,
      "metar_trigger": false,
      "taf_trigger": false,
      "metar": "METAR LRBC 132130Z 06002KT 9999 SCT057 17/15 Q1016",
      "taf": "TAF LRBC 132000Z 1321/1406 VRB04KT CAVOK"
    },
    {
      "icao": "LRBS",
      "alert": "OK",
      "vis_m": 9999,
      "fzfg": false,
      "metar_trigger": false,
      "taf_trigger": false,
      "metar": "METAR LRBS 132130Z 31001KT CAVOK 18/14 Q1016 NOSIG",
      "taf": "TAF LRBS 131700Z 1318/1418 VRB04KT CAVOK"
    },
    {
      "icao": "LRBV",
      "alert": "OK",
      "vis_m": 9999,
      "fzfg": false,
      "metar_trigger": false,
      "taf_trigger": false,
      "metar": "METAR LRBV 132130Z AUTO VRB02KT 9999 BKN069/// 15/13 Q1018",
      "taf": "TAF LRBV 131700Z 1318/1403 VRB04KT 9999 SCT040 SCT060"
    },
    {
      "icao": "LRCL",
      "alert": "OK",
      "vis_m": 9999,
      "fzfg": false,
      "metar_trigger": false,
      "taf_trigger": false,
      "metar": "METAR LRCL 132130Z 29004KT CAVOK 20/12 Q1017",
      "taf": "TAF LRCL 132000Z 1321/1406 28006KT CAVOK"
    },
    {
      "icao": "LRCV",
      "alert": "OK",
      "vis_m": 9999,
      "fzfg": false,
      "metar_trigger": false,
      "taf_trigger": false,
      "metar": "METAR LRCV 132130Z 06003KT CAVOK 16/15 Q1016",
      "taf": "TAF LRCV 132000Z 1321/1406 VRB04KT CAVOK"
    },
    {
      "icao": "LRIA",
      "alert": "OK",
      "vis_m": 9999,
      "fzfg": false,
      "metar_trigger": false,
      "taf_trigger": false,
      "metar": "METAR LRIA 132130Z 31003KT CAVOK 17/12 Q1015",
      "taf": "TAF LRIA 132000Z 1321/1406 30006KT CAVOK"
    },
    {
      "icao": "LROP",
      "alert": "OK",
      "vis_m": 9999,
      "fzfg": false,
      "metar_trigger": false,
      "taf_trigger": false,
      "metar": "METAR LROP 132130Z 33004KT CAVOK 18/15 Q1016 NOSIG",
      "taf": "TAF LROP 131700Z 1318/1418 VRB04KT CAVOK"
    },
    {
      "icao": "LRSB",
      "alert": "OK",
      "vis_m": 9999,
      "fzfg": false,
      "metar_trigger": false,
      "taf_trigger": false,
      "metar": "METAR LRSB 132130Z VRB01KT 9999 SCT085 15/13 Q1017",
      "taf": "TAF LRSB 131700Z 1318/1418 VRB04KT 9999 SCT050"
    },
    {
      "icao": "LRSM",
      "alert": "OK",
      "vis_m": 9999,
      "fzfg": false,
      "metar_trigger": false,
      "taf_trigger": false,
      "metar": "METAR LRSM 132130Z AUTO 31004KT 9999 BKN080/// OVC130/// 20/14 Q1017",
      "taf": "TAF LRSM 131400Z 1315/1324 30007KT CAVOK"
    },
    {
      "icao": "LRSV",
      "alert": "OK",
      "vis_m": 9999,
      "fzfg": false,
      "metar_trigger": false,
      "taf_trigger": false,
      "metar": "METAR LRSV 132130Z 29010KT 9999 BKN017 17/15 Q1016",
      "taf": "TAF LRSV 132000Z 1321/1406 32010KT CAVOK"
    },
    {
      "icao": "LRTM",
      "alert": "OK",
      "vis_m": 9999,
      "fzfg": false,
      "metar_trigger": false,
      "taf_trigger": false,
      "metar": "METAR LRTM 132130Z 23006KT CAVOK 18/15 Q1017",
      "taf": "TAF LRTM 132000Z 1321/1406 VRB04KT CAVOK"
    },
    {
      "icao": "LRTR",
      "alert": "OK",
      "vis_m": 9999,
      "fzfg": false,
      "metar_trigger": false,
      "taf_trigger": false,
      "metar": "METAR LRTR 132130Z 34004KT CAVOK 17/12 Q1017 NOSIG",
      "taf": "TAF LRTR 131700Z 1318/1418 35008KT CAVOK"
    },
    {
      "icao": "LTAC",
      "alert": "OK",
      "vis_m": 9999,
      "fzfg": false,
      "metar_trigger": false,
      "taf_trigger": false,
      "metar": "METAR LTAC 132120Z 32006KT CAVOK 20/13 Q1013 NOSIG RMK RWY21C 36004KT RWY03L 30006KT RWY21R 33004KT RWY03R 30005KT RWY21L 34005KT",
      "taf": "TAF LTAC 131640Z 1318/1418 VRB02KT CAVOK"
    },
    {
      "icao": "LTFM",
      "alert": "OK",
      "vis_m": 8000,
      "fzfg": false,
      "metar_trigger": false,
      "taf_trigger": false,
      "metar": "METAR LTFM 132120Z COR 02006KT 350V050 8000 3900S -TSRA SCT013 FEW018CB BKN025 23/20 Q1013 BECMG TL2150 NSW RMK RWY17L 04004KT 340V110 RWY34L 05014KT RWY16R 35004KT 310V010 RWY36 03006KT RWY18 01004KT 300V040",
      "taf": "TAF LTFM 131640Z 1318/1424 35006KT 9999 SCT025"
    },
    {
      "icao": "LUKK",
      "alert": "OK",
      "vis_m": 9999,
      "fzfg": false,
      "metar_trigger": false,
      "taf_trigger": false,
      "metar": "METAR LUKK 132130Z VRB02KT CAVOK 18/15 Q1014 NOSIG",
      "taf": "TAF LUKK 131717Z 1318/1418 33006KT CAVOK"
    },
    {
      "icao": "LWOH",
      "alert": "OK",
      "vis_m": null,
      "fzfg": false,
      "metar_trigger": false,
      "taf_trigger": false,
      "metar": "",
      "taf": "TAF LWOH 132055Z 1321/1421 35006KT CAVOK"
    },
    {
      "icao": "LWSK",
      "alert": "OK",
      "vis_m": 9999,
      "fzfg": false,
      "metar_trigger": false,
      "taf_trigger": false,
      "metar": "METAR LWSK 132120Z 27003KT 200V350 9999 FEW080 22/13 Q1018 NOSIG",
      "taf": "TAF LWSK 132055Z 1321/1421 01005KT CAVOK"
    },
    {
      "icao": "LYBE",
      "alert": "OK",
      "vis_m": 9999,
      "fzfg": false,
      "metar_trigger": false,
      "taf_trigger": false,
      "metar": "METAR LYBE 132130Z 06003KT CAVOK 21/14 Q1018 NOSIG",
      "taf": "TAF LYBE 131700Z 1318/1418 03006KT CAVOK TX31/1414Z TN16/1403Z"
    },
    {
      "icao": "LYNI",
      "alert": "OK",
      "vis_m": 9999,
      "fzfg": false,
      "metar_trigger": false,
      "taf_trigger": false,
      "metar": "METAR LYNI 132130Z VRB01KT CAVOK 19/12 Q1018 NOSIG",
      "taf": "TAF LYNI 131700Z 1318/1418 35007KT CAVOK TX30/1414Z TN14/1403Z"
    },
    {
      "icao": "LYPG",
      "alert": "OK",
      "vis_m": 9999,
      "fzfg": false,
      "metar_trigger": false,
      "taf_trigger": false,
      "metar": "METAR LYPG 132130Z 34007KT CAVOK 26/11 Q1016 NOSIG",
      "taf": "TAF LYPG 131700Z 1318/1418 36012KT CAVOK TX36/1415Z TN24/1403Z"
    },
    {
      "icao": "LZIB",
      "alert": "OK",
      "vis_m": 9999,
      "fzfg": false,
      "metar_trigger": false,
      "taf_trigger": false,
      "metar": "METAR LZIB 132130Z 36003KT CAVOK 22/15 Q1018 NOSIG",
      "taf": ""
    },
    {
      "icao": "LZKZ",
      "alert": "OK",
      "vis_m": 9999,
      "fzfg": false,
      "metar_trigger": false,
      "taf_trigger": false,
      "metar": "METAR LZKZ 132130Z VRB01KT CAVOK 17/15 Q1018 NOSIG",
      "taf": ""
    },
    {
      "icao": "LZTT",
      "alert": "OK",
      "vis_m": 9999,
      "fzfg": false,
      "metar_trigger": false,
      "taf_trigger": false,
      "metar": "METAR LZTT 132130Z VRB02KT 9999 FEW056 13/13 Q1021",
      "taf": "TAF LZTT 131715Z 1318/1418 VRB02KT 9999 FEW030"
    },
    {
      "icao": "OEJN",
      "alert": "OK",
      "vis_m": 9999,
      "fzfg": false,
      "metar_trigger": false,
      "taf_trigger": false,
      "metar": "METAR OEJN 132100Z 36004KT CAVOK 31/22 Q1002 NOSIG",
      "taf": "TAF OEJN 131700Z 1318/1424 36005KT CAVOK"
    },
    {
      "icao": "OEMA",
      "alert": "OK",
      "vis_m": 9999,
      "fzfg": false,
      "metar_trigger": false,
      "taf_trigger": false,
      "metar": "METAR OEMA 132100Z 22006KT CAVOK 39/09 Q1007 NOSIG",
      "taf": "TAF OEMA 131700Z 1318/1424 28010KT CAVOK"
    },
    {
      "icao": "OJAI",
      "alert": "OK",
      "vis_m": 5000,
      "fzfg": false,
      "metar_trigger": false,
      "taf_trigger": false,
      "metar": "METAR OJAI 132100Z 27007KT 5000 HZ NSC 24/16 Q1011 NOSIG",
      "taf": "TAF OJAI 131647Z 1318/1424 27010KT 5000 HZ NSC"
    },
    {
      "icao": "OMAA",
      "alert": "OK",
      "vis_m": 9999,
      "fzfg": false,
      "metar_trigger": false,
      "taf_trigger": false,
      "metar": "METAR OMAA 132130Z 19002KT CAVOK 33/25 Q0996 NOSIG",
      "taf": "TAF OMAA 131700Z 1318/1500 VRB02KT 8000 NSC"
    },
    {
      "icao": "OMDB",
      "alert": "OK",
      "vis_m": 9999,
      "fzfg": false,
      "metar_trigger": false,
      "taf_trigger": false,
      "metar": "METAR OMDB 132130Z 20005KT CAVOK 34/24 Q0996 NOSIG",
      "taf": "TAF OMDB 131700Z 1318/1500 VRB02KT 8000 NSC"
    },
    {
      "icao": "UAAA",
      "alert": "OK",
      "vis_m": 9999,
      "fzfg": false,
      "metar_trigger": false,
      "taf_trigger": false,
      "metar": "METAR UAAA 132130Z 11002MPS 9999 FEW050CB BKN100 23/14 Q1008 NOSIG",
      "taf": "TAF UAAA 131701Z 1318/1418 16003MPS 9999 SCT050CB BKN100 TX33/1410Z TN21/1401Z"
    },
    {
      "icao": "UBBB",
      "alert": "OK",
      "vis_m": 9999,
      "fzfg": false,
      "metar_trigger": false,
      "taf_trigger": false,
      "metar": "METAR UBBB 132130Z 33006KT CAVOK 24/20 Q1007 NOSIG",
      "taf": "TAF UBBB 131700Z 1318/1418 32008KT CAVOK TX34/1410Z TN23/1401Z"
    },
    {
      "icao": "UDSG",
      "alert": "OK",
      "vis_m": 9999,
      "fzfg": false,
      "metar_trigger": false,
      "taf_trigger": false,
      "metar": "METAR UDSG 132130Z VRB01KT 9999 FEW049 18/15 Q1015 NOSIG",
      "taf": "TAF UDSG 131658Z 1318/1418 VRB06KT 9999 FEW050"
    },
    {
      "icao": "UDYZ",
      "alert": "OK",
      "vis_m": 9999,
      "fzfg": false,
      "metar_trigger": false,
      "taf_trigger": false,
      "metar": "METAR UDYZ 132130Z 36013KT 9999 NSC 27/16 Q1009 NOSIG",
      "taf": "TAF UDYZ 131700Z 1318/1418 02006KT 9999 FEW040"
    },
    {
      "icao": "UGKO",
      "alert": "OK",
      "vis_m": 9999,
      "fzfg": false,
      "metar_trigger": false,
      "taf_trigger": false,
      "metar": "METAR UGKO 132130Z VRB02KT 9999 BKN024 21/20 Q1009 NOSIG",
      "taf": "TAF UGKO 131700Z 1318/1418 26007KT 9999 SCT025 OVC040 TX26/1411Z TN20/1402Z"
    }
  ]
}