{
  "ts_utc": "2026-01-06T14:28:52Z",
  "threshold_m": 150,
  "source": "stations_override.txt (ICAO list) + aviationweather.gov (METAR/TAF raw)",
  "station_count": 159,
  "stations": [
    {
      "icao": "BIKF",
      "alert": "OK",
      "vis_m": 9999,
      "fzfg": false,
      "metar_trigger": false,
      "taf_trigger": false,
      "metar": "METAR BIKF 061400Z 10008KT CAVOK M05/M11 Q1020",
      "taf": "TAF BIKF 061330Z 0615/0715 07013KT CAVOK TXM01/0715Z TNM05/0623Z"
    },
    {
      "icao": "BKPR",
      "alert": "OK",
      "vis_m": 6000,
      "fzfg": false,
      "metar_trigger": false,
      "taf_trigger": false,
      "metar": "METAR BKPR 061400Z 17008KT 6000 -RA SCT010 BKN035 07/07 Q1008 NOSIG",
      "taf": "TAF BKPR 061130Z 0612/0712 17008KT 9999 SCT015 BKN030"
    },
    {
      "icao": "EBCI",
      "alert": "OK",
      "vis_m": 4000,
      "fzfg": true,
      "metar_trigger": false,
      "taf_trigger": false,
      "metar": "METAR EBCI 061350Z 23008KT 4000 BR SCT003 BKN005 M01/M02 Q1016 TEMPO 0800 FZFG BKN002",
      "taf": "TAF EBCI 061100Z 0612/0718 24004KT 9999 BKN006"
    },
    {
      "icao": "EDDB",
      "alert": "OK",
      "vis_m": 9999,
      "fzfg": false,
      "metar_trigger": false,
      "taf_trigger": false,
      "metar": "METAR EDDB 061350Z AUTO 25005KT 9999 FEW024 SCT033 OVC041 M03/M04 Q1014 NOSIG",
      "taf": "TAF EDDB 061100Z 0612/0712 21005KT 9999 BKN009"
    },
    {
      "icao": "EDDH",
      "alert": "OK",
      "vis_m": 9999,
      "fzfg": false,
      "metar_trigger": false,
      "taf_trigger": false,
      "metar": "METAR EDDH 061350Z AUTO 21008KT 9999 BKN011 BKN030 BKN037 M00/M03 Q1012 TEMPO SCT010",
      "taf": "TAF EDDH 061100Z 0612/0718 20008KT 9000 OVC008"
    },
    {
      "icao": "EDDK",
      "alert": "OK",
      "vis_m": 9999,
      "fzfg": false,
      "metar_trigger": false,
      "taf_trigger": false,
      "metar": "METAR EDDK 061350Z AUTO 13002KT 9999 BKN015 BKN028 BKN040 01/M02 Q1016 NOSIG",
      "taf": "TAF EDDK 061100Z 0612/0718 VRB03KT 9999 OVC012"
    },
    {
      "icao": "EDDN",
      "alert": "OK",
      "vis_m": 9999,
      "fzfg": false,
      "metar_trigger": false,
      "taf_trigger": false,
      "metar": "METAR EDDN 061350Z AUTO 33002KT 9999 OVC013 M04/M07 Q1015 NOSIG",
      "taf": "TAF EDDN 061100Z 0612/0712 VRB03KT 8000 FEW006 BKN020"
    },
    {
      "icao": "EDDS",
      "alert": "OK",
      "vis_m": 9999,
      "fzfg": false,
      "metar_trigger": false,
      "taf_trigger": false,
      "metar": "METAR EDDS 061350Z AUTO VRB02KT 9999 OVC013 M04/M06 Q1015 TEMPO BKN015",
      "taf": "TAF EDDS 061100Z 0612/0712 VRB03KT 8000 SCT007 BKN025"
    },
    {
      "icao": "EDFH",
      "alert": "OK",
      "vis_m": 9999,
      "fzfg": false,
      "metar_trigger": false,
      "taf_trigger": false,
      "metar": "METAR EDFH 061350Z 24004KT 9999 FEW010 SCT016 M03/M04 Q1014",
      "taf": "TAF EDFH 061100Z 0612/0712 28005KT 4000 BR OVC002"
    },
    {
      "icao": "EDJA",
      "alert": "OK",
      "vis_m": 9999,
      "fzfg": false,
      "metar_trigger": false,
      "taf_trigger": false,
      "metar": "METAR EDJA 061350Z 26004KT 230V310 CAVOK M05/M09 Q1013",
      "taf": "TAF EDJA 061100Z 0612/0621 VRB03KT CAVOK"
    },
    {
      "icao": "EDLW",
      "alert": "OK",
      "vis_m": 9999,
      "fzfg": false,
      "metar_trigger": false,
      "taf_trigger": false,
      "metar": "METAR EDLW 061350Z 21009KT 9999 SCT013 BKN015 OVC040 M01/M03 Q1015",
      "taf": "TAF EDLW 061100Z 0612/0712 21008KT 9999 BKN009"
    },
    {
      "icao": "EDNY",
      "alert": "OK",
      "vis_m": 9999,
      "fzfg": false,
      "metar_trigger": false,
      "taf_trigger": false,
      "metar": "METAR EDNY 061350Z VRB02KT 9999 FEW014 M04/M07 Q1015",
      "taf": "TAF EDNY 061100Z 0612/0621 VRB03KT 9999 OVC012"
    },
    {
      "icao": "EDSB",
      "alert": "OK",
      "vis_m": 9999,
      "fzfg": false,
      "metar_trigger": false,
      "taf_trigger": false,
      "metar": "METAR EDSB 061350Z 21005KT 9999 -SN OVC014 M02/M05 Q1017",
      "taf": "TAF EDSB 061100Z 0612/0712 20005KT 9999 OVC012"
    },
    {
      "icao": "EETN",
      "alert": "OK",
      "vis_m": 5000,
      "fzfg": false,
      "metar_trigger": false,
      "taf_trigger": false,
      "metar": "METAR EETN 061350Z 12009KT 5000 -SN BKN032 M07/M08 Q1016 TEMPO 2000 BKN010",
      "taf": "TAF EETN 061130Z 0612/0712 13012KT 9999 BKN020"
    },
    {
      "icao": "EFTU",
      "alert": "OK",
      "vis_m": 9999,
      "fzfg": false,
      "metar_trigger": false,
      "taf_trigger": false,
      "metar": "METAR EFTU 061350Z AUTO 11010KT 9999 -SHSN OVC009 M04/M06 Q1015",
      "taf": "TAF EFTU 061127Z 0612/0712 10010KT 9999 BKN013"
    },
    {
      "icao": "EGBB",
      "alert": "OK",
      "vis_m": 9999,
      "fzfg": false,
      "metar_trigger": false,
      "taf_trigger": false,
      "metar": "METAR EGBB 061350Z 21006KT 180V250 CAVOK 03/00 Q1012",
      "taf": "TAF EGBB 061059Z 0612/0712 22008KT 9999 SCT040"
    },
    {
      "icao": "EGGP",
      "alert": "OK",
      "vis_m": 9999,
      "fzfg": false,
      "metar_trigger": false,
      "taf_trigger": false,
      "metar": "METAR EGGP 061350Z 16008KT 9999 FEW046 03/01 Q1010",
      "taf": "TAF EGGP 061055Z 0612/0712 20005KT 9999 FEW030"
    },
    {
      "icao": "EGGW",
      "alert": "OK",
      "vis_m": 9999,
      "fzfg": false,
      "metar_trigger": false,
      "taf_trigger": false,
      "metar": "METAR EGGW 061350Z AUTO 23006KT 9999 NCD 02/01 Q1013",
      "taf": ""
    },
    {
      "icao": "EGKK",
      "alert": "OK",
      "vis_m": 9999,
      "fzfg": false,
      "metar_trigger": false,
      "taf_trigger": false,
      "metar": "METAR EGKK 061350Z 22006KT 9999 BKN037 02/01 Q1015",
      "taf": ""
    },
    {
      "icao": "EGNM",
      "alert": "OK",
      "vis_m": 9999,
      "fzfg": false,
      "metar_trigger": false,
      "taf_trigger": false,
      "metar": "METAR EGNM 061350Z 24011KT 9999 SCT009 SCT012 02/00 Q1008",
      "taf": "TAF EGNM 061056Z 0612/0712 21009KT 3000 BR BKN003"
    },
    {
      "icao": "EGPD",
      "alert": "OK",
      "vis_m": 9999,
      "fzfg": false,
      "metar_trigger": false,
      "taf_trigger": false,
      "metar": "METAR EGPD 061350Z AUTO VRB03KT 9999 SCT047 00/M02 Q1002 TEMPO 4000 SN",
      "taf": "TAF EGPD 061102Z 0612/0712 20004KT 9999 FEW030"
    },
    {
      "icao": "EGPF",
      "alert": "OK",
      "vis_m": 9999,
      "fzfg": false,
      "metar_trigger": false,
      "taf_trigger": false,
      "metar": "METAR EGPF 061350Z AUTO 21013KT 9999 BKN010 OVC017 05/04 Q1003",
      "taf": ""
    },
    {
      "icao": "EHBK",
      "alert": "OK",
      "vis_m": 9999,
      "fzfg": false,
      "metar_trigger": false,
      "taf_trigger": false,
      "metar": "METAR EHBK 061355Z AUTO 22009KT 9999 BKN007/// OVC008/// 00/M01 Q1016 TEMPO 6000 BKN004",
      "taf": "TAF EHBK 061122Z 0612/0718 22008KT CAVOK"
    },
    {
      "icao": "EHEH",
      "alert": "OK",
      "vis_m": 8000,
      "fzfg": false,
      "metar_trigger": false,
      "taf_trigger": false,
      "metar": "METAR EHEH 061355Z AUTO 22008KT 8000 BR NCD M01/M03 Q1015 BLU NOSIG",
      "taf": ""
    },
    {
      "icao": "EKBI",
      "alert": "OK",
      "vis_m": 5000,
      "fzfg": false,
      "metar_trigger": false,
      "taf_trigger": false,
      "metar": "METAR EKBI 061350Z AUTO 15007KT 5000 OVC007/// M02/M02 Q1009",
      "taf": "TAF EKBI 061127Z 0612/0712 15008KT 9999 FEW002 BKN025"
    },
    {
      "icao": "EKCH",
      "alert": "OK",
      "vis_m": 9000,
      "fzfg": false,
      "metar_trigger": false,
      "taf_trigger": false,
      "metar": "METAR EKCH 061350Z AUTO 26003KT 9000 SCT046/// M01/M03 Q1012 NOSIG",
      "taf": "TAF EKCH 061127Z 0612/0712 22004KT 8000 BKN040"
    },
    {
      "icao": "ENAL",
      "alert": "OK",
      "vis_m": 9999,
      "fzfg": false,
      "metar_trigger": false,
      "taf_trigger": false,
      "metar": "METAR ENAL 061350Z 13011KT CAVOK M05/M12 Q1011",
      "taf": "TAF ENAL 061100Z 0612/0621 14012KT CAVOK"
    },
    {
      "icao": "ENBR",
      "alert": "OK",
      "vis_m": 9999,
      "fzfg": false,
      "metar_trigger": false,
      "taf_trigger": false,
      "metar": "METAR ENBR 061350Z 06003KT 030V090 CAVOK M07/M13 Q1010 NOSIG RMK WIND 1200FT 12010KT",
      "taf": "TAF ENBR 061100Z 0612/0712 07005KT CAVOK"
    },
    {
      "icao": "ENGM",
      "alert": "OK",
      "vis_m": 3000,
      "fzfg": false,
      "metar_trigger": false,
      "taf_trigger": false,
      "metar": "METAR ENGM 061350Z 36007KT 3000 -SN BR FEW013 SCT029 BKN048 M08/M10 Q1011 TEMPO 6000",
      "taf": "TAF ENGM 061100Z 0612/0712 01009KT 8000 -SN FEW015 BKN030"
    },
    {
      "icao": "ENHD",
      "alert": "OK",
      "vis_m": 9999,
      "fzfg": false,
      "metar_trigger": false,
      "taf_trigger": false,
      "metar": "METAR ENHD 061350Z 10009KT 9999 SCT033 M04/M07 Q1009",
      "taf": "TAF ENHD 061100Z 0612/0621 09008KT 9999 FEW035"
    },
    {
      "icao": "ENTC",
      "alert": "OK",
      "vis_m": 9999,
      "fzfg": false,
      "metar_trigger": false,
      "taf_trigger": false,
      "metar": "METAR ENTC 061350Z VRB04KT CAVOK M11/M14 Q1020 NOSIG RMK WIND 2600FT 17012KT",
      "taf": "TAF ENTC 061100Z 0612/0712 15003KT CAVOK"
    },
    {
      "icao": "ENTO",
      "alert": "OK",
      "vis_m": 9999,
      "fzfg": false,
      "metar_trigger": false,
      "taf_trigger": false,
      "metar": "METAR ENTO 061350Z 35011KT 9999 -SHSN BKN014 M09/M11 Q1012 RESN TEMPO BKN016",
      "taf": "TAF ENTO 061100Z 0612/0712 36010KT 9999 SCT012 BKN016"
    },
    {
      "icao": "ENVA",
      "alert": "OK",
      "vis_m": 9999,
      "fzfg": false,
      "metar_trigger": false,
      "taf_trigger": false,
      "metar": "METAR ENVA 061350Z 09004KT CAVOK M16/M20 Q1015 NOSIG RMK WIND 670FT 11009KT",
      "taf": "TAF ENVA 061100Z 0612/0712 11008KT CAVOK"
    },
    {
      "icao": "ENZV",
      "alert": "OK",
      "vis_m": 9999,
      "fzfg": false,
      "metar_trigger": false,
      "taf_trigger": false,
      "metar": "METAR ENZV 061350Z 00000KT 9999 FEW036 SCT047 M02/M04 Q1009 NOSIG",
      "taf": "TAF ENZV 061100Z 0612/0712 09005KT 9999 SCT035"
    },
    {
      "icao": "EPGD",
      "alert": "OK",
      "vis_m": 9999,
      "fzfg": false,
      "metar_trigger": false,
      "taf_trigger": false,
      "metar": "METAR EPGD 061400Z 24004KT CAVOK M03/M07 Q1012",
      "taf": "TAF EPGD 061130Z 0612/0712 25006KT CAVOK"
    },
    {
      "icao": "EPKK",
      "alert": "OK",
      "vis_m": 9999,
      "fzfg": false,
      "metar_trigger": false,
      "taf_trigger": false,
      "metar": "METAR EPKK 061400Z 24004KT CAVOK M03/M08 Q1014",
      "taf": "TAF EPKK 061130Z 0612/0712 25010KT CAVOK"
    },
    {
      "icao": "EPKT",
      "alert": "OK",
      "vis_m": 9999,
      "fzfg": false,
      "metar_trigger": false,
      "taf_trigger": false,
      "metar": "METAR EPKT 061400Z 26005KT CAVOK M03/M09 Q1014",
      "taf": "TAF EPKT 061130Z 0612/0712 28005KT CAVOK"
    },
    {
      "icao": "EPLB",
      "alert": "OK",
      "vis_m": 9999,
      "fzfg": false,
      "metar_trigger": false,
      "taf_trigger": false,
      "metar": "METAR EPLB 061400Z 29006KT 9999 OVC025 M03/M05 Q1013",
      "taf": "TAF EPLB 061130Z 0612/0712 29010KT 9999 BKN020"
    },
    {
      "icao": "EPMO",
      "alert": "OK",
      "vis_m": 3000,
      "fzfg": false,
      "metar_trigger": false,
      "taf_trigger": false,
      "metar": "METAR EPMO 061400Z 26004KT 3000 BR NSC M09/M10 Q1014",
      "taf": ""
    },
    {
      "icao": "EPPO",
      "alert": "OK",
      "vis_m": 9999,
      "fzfg": false,
      "metar_trigger": false,
      "taf_trigger": false,
      "metar": "METAR EPPO 061400Z 18004KT CAVOK M05/M09 Q1014",
      "taf": "TAF EPPO 061130Z 0612/0712 27003KT CAVOK"
    },
    {
      "icao": "EPRA",
      "alert": "OK",
      "vis_m": 9999,
      "fzfg": false,
      "metar_trigger": false,
      "taf_trigger": false,
      "metar": "METAR EPRA 061400Z 28005KT 250V310 CAVOK M04/M09 Q1014",
      "taf": "TAF EPRA 061130Z 0612/0621 27006KT CAVOK"
    },
    {
      "icao": "EPRZ",
      "alert": "OK",
      "vis_m": 9999,
      "fzfg": false,
      "metar_trigger": false,
      "taf_trigger": false,
      "metar": "METAR EPRZ 061400Z 30006KT CAVOK M02/M07 Q1013",
      "taf": "TAF EPRZ 061130Z 0612/0712 27010KT CAVOK"
    },
    {
      "icao": "EPSC",
      "alert": "OK",
      "vis_m": 9999,
      "fzfg": false,
      "metar_trigger": false,
      "taf_trigger": false,
      "metar": "METAR EPSC 061400Z 19004KT 170V230 9999 BKN011 M03/M05 Q1013",
      "taf": ""
    },
    {
      "icao": "EPSY",
      "alert": "OK",
      "vis_m": 6000,
      "fzfg": false,
      "metar_trigger": false,
      "taf_trigger": false,
      "metar": "METAR EPSY 061400Z 25002KT 6000 NSC M06/M07 Q1012",
      "taf": "TAF EPSY 061130Z 0612/0621 VRB02KT 6000 BKN025"
    },
    {
      "icao": "EPWA",
      "alert": "OK",
      "vis_m": 4400,
      "fzfg": false,
      "metar_trigger": false,
      "taf_trigger": false,
      "metar": "METAR EPWA 061400Z 29006KT 4400 BR NSC M07/M09 Q1014 NOSIG",
      "taf": ""
    },
    {
      "icao": "EPWR",
      "alert": "OK",
      "vis_m": 9999,
      "fzfg": false,
      "metar_trigger": false,
      "taf_trigger": false,
      "metar": "METAR EPWR 061400Z 27003KT CAVOK M03/M08 Q1015",
      "taf": "TAF EPWR 061130Z 0612/0712 26004KT CAVOK"
    },
    {
      "icao": "ESGG",
      "alert": "OK",
      "vis_m": 4000,
      "fzfg": true,
      "metar_trigger": false,
      "taf_trigger": false,
      "metar": "METAR ESGG 061350Z VRB02KT 4000 FZFG VV002 M08/M09 Q1010",
      "taf": "TAF ESGG 061130Z 0612/0712 09004KT 0800 FZFG OVC002"
    },
    {
      "icao": "ESKN",
      "alert": "OK",
      "vis_m": 1200,
      "fzfg": false,
      "metar_trigger": false,
      "taf_trigger": false,
      "metar": "METAR ESKN 061350Z 31010KT 1200 R08/P2000N R26/P2000N SN VV013 M05/M05 Q1008",
      "taf": ""
    },
    {
      "icao": "ESMS",
      "alert": "CRITICAL",
      "vis_m": 100,
      "fzfg": true,
      "metar_trigger": true,
      "taf_trigger": false,
      "metar": "METAR ESMS 061350Z 00000KT 0100 R17/0300N R35/0300N FZFG VV002 M04/M04 Q1011",
      "taf": "TAF ESMS 061127Z 0612/0712 VRB03KT 5000 BKN040"
    },
    {
      "icao": "ESSA",
      "alert": "OK",
      "vis_m": 600,
      "fzfg": false,
      "metar_trigger": false,
      "taf_trigger": false,
      "metar": "METAR ESSA 061350Z 07008KT 0600 -SHSN VV008 M02/M02 Q1008 TEMPO 1200 SHSN VV015",
      "taf": ""
    },
    {
      "icao": "EYKA",
      "alert": "OK",
      "vis_m": 5000,
      "fzfg": false,
      "metar_trigger": false,
      "taf_trigger": false,
      "metar": "METAR EYKA 061350Z 09002KT 5000 -SN BR OVC024 M05/M06 Q1012",
      "taf": "TAF EYKA 061118Z 0612/0712 VRB03KT 5000 SN OVC025"
    },
    {
      "icao": "EYPA",
      "alert": "OK",
      "vis_m": 9999,
      "fzfg": false,
      "metar_trigger": false,
      "taf_trigger": false,
      "metar": "METAR EYPA 061350Z 13004KT 9999 BKN021 M05/M07 Q1012",
      "taf": "TAF EYPA 061113Z 0612/0712 15008KT 7000 BKN040"
    },
    {
      "icao": "EYVI",
      "alert": "OK",
      "vis_m": 6000,
      "fzfg": false,
      "metar_trigger": false,
      "taf_trigger": false,
      "metar": "METAR EYVI 061350Z 10005KT 6000 -SN BKN014 M05/M07 Q1011 NOSIG",
      "taf": "TAF EYVI 061101Z 0612/0712 09012KT 1500 SN BR OVC015"
    },
    {
      "icao": "GCFV",
      "alert": "OK",
      "vis_m": 9999,
      "fzfg": false,
      "metar_trigger": false,
      "taf_trigger": false,
      "metar": "METAR GCFV 061400Z 02021KT 9999 SCT040 20/09 Q1022",
      "taf": "TAF GCFV 060800Z 0609/0709 02018KT 9999 SCT035 TX21/0614Z TN15/0706Z"
    },
    {
      "icao": "GCLP",
      "alert": "OK",
      "vis_m": 9999,
      "fzfg": false,
      "metar_trigger": false,
      "taf_trigger": false,
      "metar": "METAR GCLP 061400Z 02021KT 9999 SCT040 BKN055 19/11 Q1023 NOSIG",
      "taf": "TAF GCLP 060800Z 0609/0709 36019KT 9999 FEW030 SCT045 TX21/0614Z TN15/0706Z"
    },
    {
      "icao": "GCTS",
      "alert": "OK",
      "vis_m": 9999,
      "fzfg": false,
      "metar_trigger": false,
      "taf_trigger": false,
      "metar": "METAR GCTS 061400Z 09023KT 9999 FEW035 BKN050 19/10 Q1023 NOSIG",
      "taf": "TAF GCTS 060800Z 0609/0709 08018KT 9999 SCT045 TX23/0614Z TN16/0706Z"
    },
    {
      "icao": "GMAD",
      "alert": "OK",
      "vis_m": 9999,
      "fzfg": false,
      "metar_trigger": false,
      "taf_trigger": false,
      "metar": "METAR GMAD 061400Z 34007KT 280V030 9999 FEW026 19/04 Q1016 NOSIG",
      "taf": "TAF GMAD 061100Z 0612/0718 28013KT 8000 SCT023"
    },
    {
      "icao": "GMMN",
      "alert": "OK",
      "vis_m": 9999,
      "fzfg": false,
      "metar_trigger": false,
      "taf_trigger": false,
      "metar": "METAR GMMN 061400Z 34014KT 9999 BKN030 13/06 Q1021 NOSIG",
      "taf": "TAF GMMN 061100Z 0612/0718 34011KT 9999 BKN024"
    },
    {
      "icao": "GMMX",
      "alert": "OK",
      "vis_m": 8000,
      "fzfg": false,
      "metar_trigger": false,
      "taf_trigger": false,
      "metar": "METAR GMMX 061400Z 04005KT 360V080 8000 BKN020 FEW023TCU 12/06 Q1020 NOSIG",
      "taf": "TAF GMMX 061100Z 0612/0718 02006KT 8000 BKN023 SCT080"
    },
    {
      "icao": "HEGN",
      "alert": "OK",
      "vis_m": 9999,
      "fzfg": false,
      "metar_trigger": false,
      "taf_trigger": false,
      "metar": "METAR HEGN 061400Z 05002KT CAVOK 26/04 Q1018 NOSIG",
      "taf": "TAF HEGN 061100Z 0612/0718 35015KT CAVOK"
    },
    {
      "icao": "HEMA",
      "alert": "OK",
      "vis_m": 4000,
      "fzfg": false,
      "metar_trigger": false,
      "taf_trigger": false,
      "metar": "METAR HEMA 061400Z 35012KT 4000 SA NSC 24/16 Q1017 NOSIG",
      "taf": "TAF HEMA 061100Z 0612/0718 36016KT 6000 NSC"
    },
    {
      "icao": "HESH",
      "alert": "OK",
      "vis_m": 9999,
      "fzfg": false,
      "metar_trigger": false,
      "taf_trigger": false,
      "metar": "METAR HESH 061400Z 36006KT CAVOK 26/13 Q1018 NOSIG",
      "taf": "TAF HESH 061100Z 0612/0718 02013KT CAVOK"
    },
    {
      "icao": "HESX",
      "alert": "OK",
      "vis_m": 9999,
      "fzfg": false,
      "metar_trigger": false,
      "taf_trigger": false,
      "metar": "METAR HESX 061400Z 01004KT CAVOK 19/01 Q1018 NOSIG",
      "taf": "TAF HESX 061100Z 0612/0718 VRB03KT 6000 NSC"
    },
    {
      "icao": "LATI",
      "alert": "OK",
      "vis_m": 9999,
      "fzfg": false,
      "metar_trigger": false,
      "taf_trigger": false,
      "metar": "METAR LATI 061420Z 14008KT 9999 VCTS FEW027CB SCT050 BKN080 17/11 Q1005 NOSIG",
      "taf": ""
    },
    {
      "icao": "LBPD",
      "alert": "OK",
      "vis_m": 9999,
      "fzfg": false,
      "metar_trigger": false,
      "taf_trigger": false,
      "metar": "METAR LBPD 061400Z AUTO 22003KT 190V270 9999 FEW067/// SCT160/// BKN190/// 15/08 Q1009 NOSIG",
      "taf": "TAF LBPD 061100Z 0612/0712 VRB04KT 8000 BKN060"
    },
    {
      "icao": "LBSF",
      "alert": "OK",
      "vis_m": 9000,
      "fzfg": false,
      "metar_trigger": false,
      "taf_trigger": false,
      "metar": "METAR LBSF 061400Z 33003KT 280V050 9000 -RA SCT044 OVC080 10/08 Q1008 TEMPO 5000 RA",
      "taf": "TAF LBSF 061100Z 0612/0712 10012KT 9999 BKN040"
    },
    {
      "icao": "LBWN",
      "alert": "OK",
      "vis_m": 9999,
      "fzfg": false,
      "metar_trigger": false,
      "taf_trigger": false,
      "metar": "METAR LBWN 061400Z AUTO 19008KT 9999 FEW043/// 17/10 Q1010 NOSIG",
      "taf": "TAF LBWN 061100Z 0612/0712 11010KT 9999 SCT030"
    },
    {
      "icao": "LCLK",
      "alert": "OK",
      "vis_m": 9999,
      "fzfg": false,
      "metar_trigger": false,
      "taf_trigger": false,
      "metar": "METAR LCLK 061400Z 06008KT 9999 FEW035 19/13 Q1020 NOSIG",
      "taf": "TAF LCLK 061130Z 0612/0712 04012KT 9999 FEW035"
    },
    {
      "icao": "LCPH",
      "alert": "OK",
      "vis_m": 9999,
      "fzfg": false,
      "metar_trigger": false,
      "taf_trigger": false,
      "metar": "METAR LCPH 061400Z 15011KT 9999 FEW035 19/13 Q1020 NOSIG",
      "taf": "TAF LCPH 061130Z 0612/0712 15012KT 9999 FEW030"
    },
    {
      "icao": "LEAL",
      "alert": "OK",
      "vis_m": 9999,
      "fzfg": false,
      "metar_trigger": false,
      "taf_trigger": false,
      "metar": "METAR LEAL 061400Z VRB05KT CAVOK 12/M03 Q1013 NOSIG",
      "taf": "TAF LEAL 061100Z 0612/0712 02008KT 9999 FEW030 TX12/0614Z TN04/0706Z"
    },
    {
      "icao": "LEBB",
      "alert": "OK",
      "vis_m": 9999,
      "fzfg": false,
      "metar_trigger": false,
      "taf_trigger": false,
      "metar": "METAR LEBB 061400Z 01006KT 320V050 9999 FEW043 BKN050 06/02 Q1022 NOSIG",
      "taf": "TAF LEBB 061100Z 0612/0712 35009KT 9999 SCT020 BKN040 TX09/0712Z TN01/0619Z"
    },
    {
      "icao": "LEBL",
      "alert": "OK",
      "vis_m": 9999,
      "fzfg": false,
      "metar_trigger": false,
      "taf_trigger": false,
      "metar": "METAR LEBL 061400Z 33010G20KT 290V360 CAVOK 08/M01 Q1011 NOSIG",
      "taf": "TAF LEBL 061100Z 0612/0712 34013KT CAVOK TX10/0613Z TN01/0706Z"
    },
    {
      "icao": "LECH",
      "alert": "OK",
      "vis_m": 9999,
      "fzfg": false,
      "metar_trigger": false,
      "taf_trigger": false,
      "metar": "METAR LECH 061400Z AUTO 33016G28KT 290V030 CAVOK 08/M04 Q1012",
      "taf": ""
    },
    {
      "icao": "LEMD",
      "alert": "OK",
      "vis_m": 9999,
      "fzfg": false,
      "metar_trigger": false,
      "taf_trigger": false,
      "metar": "METAR LEMD 061400Z 35017G28KT CAVOK 05/M07 Q1016 NOSIG",
      "taf": "TAF LEMD 061100Z 0612/0718 01010KT CAVOK TX06/0614Z TNM04/0707Z"
    },
    {
      "icao": "LEMG",
      "alert": "OK",
      "vis_m": 9999,
      "fzfg": false,
      "metar_trigger": false,
      "taf_trigger": false,
      "metar": "METAR LEMG 061400Z 32015G25KT CAVOK 11/M02 Q1016 NOSIG",
      "taf": "TAF LEMG 061100Z 0612/0712 30014KT CAVOK TX12/0614Z TN04/0706Z"
    },
    {
      "icao": "LEVC",
      "alert": "OK",
      "vis_m": 9999,
      "fzfg": false,
      "metar_trigger": false,
      "taf_trigger": false,
      "metar": "METAR LEVC 061400Z 33008KT 9999 FEW030 11/M02 Q1013 NOSIG",
      "taf": "TAF LEVC 061100Z 0612/0712 35009KT CAVOK TX12/0614Z TNM01/0706Z"
    },
    {
      "icao": "LEXJ",
      "alert": "OK",
      "vis_m": 9999,
      "fzfg": false,
      "metar_trigger": false,
      "taf_trigger": false,
      "metar": "METAR LEXJ 061400Z 36008KT 300V040 9999 FEW045 09/M01 Q1023",
      "taf": "TAF LEXJ 060800Z 0609/0709 35012KT 9999 SCT045 TX09/0614Z TN04/0619Z"
    },
    {
      "icao": "LEZG",
      "alert": "OK",
      "vis_m": 9999,
      "fzfg": false,
      "metar_trigger": false,
      "taf_trigger": false,
      "metar": "METAR LEZG 061400Z 30026G37KT 270V330 9999 BKN040 07/M01 Q1015 NOSIG",
      "taf": "TAF LEZG 061100Z 0612/0712 32020KT 9999 FEW030 TX07/0615Z TNM01/0706Z"
    },
    {
      "icao": "LEZL",
      "alert": "OK",
      "vis_m": 9999,
      "fzfg": false,
      "metar_trigger": false,
      "taf_trigger": false,
      "metar": "METAR LEZL 061400Z 02010KT 340V050 CAVOK 13/M02 Q1019 NOSIG",
      "taf": "TAF LEZL 060800Z 0609/0709 VRB03KT CAVOK TX13/0615Z TN02/0707Z"
    },
    {
      "icao": "LFBD",
      "alert": "OK",
      "vis_m": 9999,
      "fzfg": false,
      "metar_trigger": false,
      "taf_trigger": false,
      "metar": "METAR LFBD 061400Z AUTO 01010KT 340V040 CAVOK 04/M03 Q1021",
      "taf": "TAF LFBD 060500Z 0606/0712 03010KT 9999 BKN045 TX04/0614Z TNM03/0700Z"
    },
    {
      "icao": "LFLL",
      "alert": "OK",
      "vis_m": 9999,
      "fzfg": false,
      "metar_trigger": false,
      "taf_trigger": false,
      "metar": "METAR LFLL 061400Z 36015KT 9999 OVC015 M02/M05 Q1016 NOSIG",
      "taf": ""
    },
    {
      "icao": "LFLS",
      "alert": "OK",
      "vis_m": 9999,
      "fzfg": false,
      "metar_trigger": false,
      "taf_trigger": false,
      "metar": "METAR LFLS 061400Z AUTO 35009KT 310V050 9999 OVC007 M04/M05 Q1015 TEMPO 36015G25KT BKN011",
      "taf": ""
    },
    {
      "icao": "LFMN",
      "alert": "OK",
      "vis_m": 9999,
      "fzfg": false,
      "metar_trigger": false,
      "taf_trigger": false,
      "metar": "METAR LFMN 061400Z 20004KT 160V230 CAVOK 11/M02 Q1004 NOSIG",
      "taf": ""
    },
    {
      "icao": "LFOB",
      "alert": "OK",
      "vis_m": 9999,
      "fzfg": false,
      "metar_trigger": false,
      "taf_trigger": false,
      "metar": "METAR LFOB 061400Z AUTO 25004KT 9999 SCT035 02/M02 Q1017 NOSIG",
      "taf": "TAF LFOB 061100Z 0612/0712 VRB03KT 6000 NSC"
    },
    {
      "icao": "LFPO",
      "alert": "OK",
      "vis_m": 8000,
      "fzfg": false,
      "metar_trigger": false,
      "taf_trigger": false,
      "metar": "METAR LFPO 061400Z 18004KT 8000 NSC 02/M01 Q1018 NOSIG",
      "taf": ""
    },
    {
      "icao": "LFSB",
      "alert": "OK",
      "vis_m": 9999,
      "fzfg": false,
      "metar_trigger": false,
      "taf_trigger": false,
      "metar": "METAR LFSB 061400Z AUTO 30005KT 280V350 9999 BKN021 M02/M06 Q1017 NOSIG",
      "taf": "TAF LFSB 061100Z 0612/0712 VRB03KT 9999 FEW015 BKN040"
    },
    {
      "icao": "LGAV",
      "alert": "OK",
      "vis_m": 9999,
      "fzfg": false,
      "metar_trigger": false,
      "taf_trigger": false,
      "metar": "METAR LGAV 061350Z 20011KT 9999 FEW018 SCT030 17/10 Q1013 NOSIG",
      "taf": "TAF LGAV 061100Z 0612/0712 18012KT 9999 FEW020"
    },
    {
      "icao": "LGTS",
      "alert": "OK",
      "vis_m": 9999,
      "fzfg": false,
      "metar_trigger": false,
      "taf_trigger": false,
      "metar": "METAR LGTS 061350Z 13007KT 9999 DZ FEW020 SCT035 17/12 Q1009 NOSIG",
      "taf": "TAF LGTS 061100Z 0612/0712 14013KT 9999 SCT030"
    },
    {
      "icao": "LHBP",
      "alert": "OK",
      "vis_m": 2700,
      "fzfg": false,
      "metar_trigger": false,
      "taf_trigger": false,
      "metar": "SPECI LHBP 061415Z 33007KT 2700 SN BKN020 OVC037 M02/M04 Q1012 TEMPO 5000 -SN",
      "taf": "TAF LHBP 061115Z 0612/0712 32007KT CAVOK"
    },
    {
      "icao": "LHDC",
      "alert": "OK",
      "vis_m": 9999,
      "fzfg": false,
      "metar_trigger": false,
      "taf_trigger": false,
      "metar": "METAR LHDC 061345Z AUTO 06006KT 9999 BKN024 OVC034 00/M03 Q1012 NOSIG",
      "taf": "TAF LHDC 061115Z 0612/0621 03006KT 9999 SCT012 OVC020"
    },
    {
      "icao": "LIBD",
      "alert": "OK",
      "vis_m": 7000,
      "fzfg": false,
      "metar_trigger": false,
      "taf_trigger": false,
      "metar": "METAR LIBD 061350Z 06005KT 020V090 7000 OVC004 13/13 Q1001",
      "taf": "TAF LIBD 061100Z 0612/0712 15008KT 6000 BKN007"
    },
    {
      "icao": "LIBG",
      "alert": "OK",
      "vis_m": 8000,
      "fzfg": false,
      "metar_trigger": false,
      "taf_trigger": false,
      "metar": "METAR LIBG 061350Z 17011KT 8000 SCT010 17/17 Q1003",
      "taf": "TAF LIBG 061400Z 0615/0624 17010KT 9999 SCT015"
    },
    {
      "icao": "LIBP",
      "alert": "OK",
      "vis_m": 8000,
      "fzfg": false,
      "metar_trigger": false,
      "taf_trigger": false,
      "metar": "METAR LIBP 061350Z AUTO VRB02KT 8000 +RA OVC010/// 07/06 Q1003",
      "taf": "TAF LIBP 061100Z 0612/0712 31012KT 6000 RA OVC005"
    },
    {
      "icao": "LIBR",
      "alert": "OK",
      "vis_m": 8000,
      "fzfg": false,
      "metar_trigger": false,
      "taf_trigger": false,
      "metar": "METAR LIBR 061350Z 20018G29KT 8000 SCT015 17/14 Q1003",
      "taf": "TAF LIBR 061100Z 0612/0712 18013KT 9999 BKN015"
    },
    {
      "icao": "LICA",
      "alert": "OK",
      "vis_m": 9999,
      "fzfg": false,
      "metar_trigger": false,
      "taf_trigger": false,
      "metar": "METAR LICA 061350Z AUTO 08005KT 9999 NCD 19/13 Q1003",
      "taf": "TAF LICA 061100Z 0612/0712 07012KT 9999 SCT050"
    },
    {
      "icao": "LICC",
      "alert": "OK",
      "vis_m": 5000,
      "fzfg": false,
      "metar_trigger": false,
      "taf_trigger": false,
      "metar": "METAR LICC 061350Z 25006KT 5000 BR FEW015TCU SCT040 20/16 Q1004",
      "taf": "TAF LICC 061100Z 0612/0712 26013KT 9999 FEW030"
    },
    {
      "icao": "LICJ",
      "alert": "OK",
      "vis_m": 9999,
      "fzfg": false,
      "metar_trigger": false,
      "taf_trigger": false,
      "metar": "METAR LICJ 061350Z 23019KT 9999 SCT035 17/12 Q1002",
      "taf": "TAF LICJ 061100Z 0612/0712 21016KT 9999 FEW030"
    },
    {
      "icao": "LIMC",
      "alert": "OK",
      "vis_m": 9999,
      "fzfg": false,
      "metar_trigger": false,
      "taf_trigger": false,
      "metar": "METAR LIMC 061350Z 17003KT 120V210 CAVOK 05/M06 Q1007 NOSIG",
      "taf": "TAF LIMC 061100Z 0612/0718 VRB04KT CAVOK"
    },
    {
      "icao": "LIME",
      "alert": "OK",
      "vis_m": 9999,
      "fzfg": false,
      "metar_trigger": false,
      "taf_trigger": false,
      "metar": "METAR LIME 061350Z 14003KT 100V180 CAVOK 04/M08 Q1007 NOSIG",
      "taf": "TAF LIME 061100Z 0612/0712 VRB03KT CAVOK"
    },
    {
      "icao": "LIMF",
      "alert": "OK",
      "vis_m": 9999,
      "fzfg": false,
      "metar_trigger": false,
      "taf_trigger": false,
      "metar": "METAR LIMF 061350Z 08003KT 030V110 CAVOK 05/M09 Q1007",
      "taf": "TAF LIMF 061100Z 0612/0712 VRB03KT CAVOK"
    },
    {
      "icao": "LIMJ",
      "alert": "OK",
      "vis_m": 9999,
      "fzfg": false,
      "metar_trigger": false,
      "taf_trigger": false,
      "metar": "METAR LIMJ 061350Z 04013KT CAVOK 07/M05 Q1005",
      "taf": "TAF LIMJ 061100Z 0612/0712 03016KT CAVOK"
    },
    {
      "icao": "LIPE",
      "alert": "OK",
      "vis_m": 2000,
      "fzfg": false,
      "metar_trigger": false,
      "taf_trigger": false,
      "metar": "METAR LIPE 061350Z 27005KT 2000 R12/1600U R30/1300U -SN BR SCT003 BKN005 00/00 Q1009",
      "taf": "TAF LIPE 061100Z 0612/0712 28007KT 0800 SN OVC004"
    },
    {
      "icao": "LIPH",
      "alert": "OK",
      "vis_m": 9999,
      "fzfg": false,
      "metar_trigger": false,
      "taf_trigger": false,
      "metar": "METAR LIPH 061350Z 09009KT 9999 FEW025 02/M01 Q1009",
      "taf": "TAF LIPH 061100Z 0612/0712 05006KT 9999 SCT070"
    },
    {
      "icao": "LIPQ",
      "alert": "OK",
      "vis_m": 2400,
      "fzfg": false,
      "metar_trigger": false,
      "taf_trigger": false,
      "metar": "METAR LIPQ 061350Z AUTO 09003KT 060V130 2400 -SN OVC016/// 00/M01 Q1009",
      "taf": ""
    },
    {
      "icao": "LIPR",
      "alert": "OK",
      "vis_m": 1200,
      "fzfg": false,
      "metar_trigger": false,
      "taf_trigger": false,
      "metar": "METAR LIPR 061350Z 29012KT 1200 R30/1400D SN BR BKN004 BKN012 00/00 Q1007",
      "taf": "TAF LIPR 061100Z 0612/0712 31012KT 1200 SN OVC004"
    },
    {
      "icao": "LIPX",
      "alert": "OK",
      "vis_m": 9999,
      "fzfg": false,
      "metar_trigger": false,
      "taf_trigger": false,
      "metar": "METAR LIPX 061350Z 21004KT 170V240 CAVOK 02/M01 Q1008",
      "taf": "TAF LIPX 061100Z 0612/0712 VRB04KT CAVOK"
    },
    {
      "icao": "LIPY",
      "alert": "OK",
      "vis_m": 8000,
      "fzfg": false,
      "metar_trigger": false,
      "taf_trigger": false,
      "metar": "METAR LIPY 061350Z AUTO 30013KT 8000 RA OVC007/// 02/02 Q1005",
      "taf": "TAF LIPY 061100Z 0612/0712 32013KT 6000 RA OVC005"
    },
    {
      "icao": "LIPZ",
      "alert": "OK",
      "vis_m": 9999,
      "fzfg": false,
      "metar_trigger": false,
      "taf_trigger": false,
      "metar": "METAR LIPZ 061350Z 06011KT 9999 BKN010 01/M01 Q1009 NOSIG",
      "taf": "TAF LIPZ 061100Z 0612/0718 08016KT 9999 SCT040"
    },
    {
      "icao": "LIRF",
      "alert": "OK",
      "vis_m": 4000,
      "fzfg": false,
      "metar_trigger": false,
      "taf_trigger": false,
      "metar": "METAR LIRF 061350Z 36012KT 4000 RA FEW010 BKN035 09/09 Q0998 NOSIG",
      "taf": "TAF LIRF 061100Z 0612/0718 34012KT 9999 SCT020"
    },
    {
      "icao": "LIRN",
      "alert": "OK",
      "vis_m": 9999,
      "fzfg": false,
      "metar_trigger": false,
      "taf_trigger": false,
      "metar": "METAR LIRN 061350Z 19010KT 140V220 9999 FEW020 BKN040 16/13 Q0999 NOSIG",
      "taf": "TAF LIRN 061100Z 0612/0712 18010KT 9999 SCT020 SCT050"
    },
    {
      "icao": "LIRP",
      "alert": "OK",
      "vis_m": 9999,
      "fzfg": false,
      "metar_trigger": false,
      "taf_trigger": false,
      "metar": "METAR LIRP 061345Z 12005KT 9999 BKN070 05/04 Q1004 NOSIG",
      "taf": "TAF LIRP 061100Z 0612/0712 12008KT 9999 SCT030 BKN070"
    },
    {
      "icao": "LIRZ",
      "alert": "OK",
      "vis_m": 9999,
      "fzfg": false,
      "metar_trigger": false,
      "taf_trigger": false,
      "metar": "METAR LIRZ 061350Z AUTO 01015KT 9999 -RASN BKN013/// 02/01 Q1001 REDZ RERA",
      "taf": "TAF LIRZ 061100Z 0612/0712 01010KT 6000 RA BKN020"
    },
    {
      "icao": "LJLJ",
      "alert": "OK",
      "vis_m": 700,
      "fzfg": true,
      "metar_trigger": false,
      "taf_trigger": false,
      "metar": "METAR LJLJ 061400Z 14006KT 0700 R30/1400U SN FZFG OVC010 M03/M04 Q1011 TEMPO BKN003",
      "taf": "TAF LJLJ 061100Z 0612/0712 VRB02KT 1500 -SN BKN006 OVC020"
    },
    {
      "icao": "LKMT",
      "alert": "OK",
      "vis_m": 9999,
      "fzfg": false,
      "metar_trigger": false,
      "taf_trigger": false,
      "metar": "METAR LKMT 061400Z 04004KT CAVOK M03/M08 Q1014 NOSIG",
      "taf": "TAF LKMT 061100Z 0612/0712 VRB02KT CAVOK"
    },
    {
      "icao": "LKPR",
      "alert": "OK",
      "vis_m": 9999,
      "fzfg": false,
      "metar_trigger": false,
      "taf_trigger": false,
      "metar": "METAR LKPR 061400Z 24005KT 9999 BKN024 M03/M07 Q1014 NOSIG",
      "taf": "TAF LKPR 061400Z 0615/0721 22006KT 9999 SCT040"
    },
    {
      "icao": "LLBG",
      "alert": "OK",
      "vis_m": 9999,
      "fzfg": false,
      "metar_trigger": false,
      "taf_trigger": false,
      "metar": "METAR LLBG 061350Z 29010KT CAVOK 20/13 Q1020 NOSIG",
      "taf": "TAF LLBG 061102Z 0612/0712 32006KT CAVOK"
    },
    {
      "icao": "LMML",
      "alert": "OK",
      "vis_m": 8000,
      "fzfg": false,
      "metar_trigger": false,
      "taf_trigger": false,
      "metar": "METAR LMML 061415Z COR 22014KT 8000 NSC 18/16 Q1005 NOSIG",
      "taf": "TAF LMML 061100Z 0612/0712 20015KT 8000 NSC"
    },
    {
      "icao": "LOWW",
      "alert": "OK",
      "vis_m": 9999,
      "fzfg": false,
      "metar_trigger": false,
      "taf_trigger": false,
      "metar": "METAR LOWW 061350Z 34010KT 320V020 CAVOK M02/M09 Q1014 NOSIG",
      "taf": "TAF LOWW 061415Z 0615/0721 32012KT 9999 FEW050 TXM02/0615Z TNM04/0721Z"
    },
    {
      "icao": "LPFR",
      "alert": "OK",
      "vis_m": 9999,
      "fzfg": false,
      "metar_trigger": false,
      "taf_trigger": false,
      "metar": "METAR LPFR 061400Z 35011KT CAVOK 13/M02 Q1021",
      "taf": "TAF LPFR 061100Z 0612/0712 36013KT CAVOK"
    },
    {
      "icao": "LPMA",
      "alert": "OK",
      "vis_m": 9999,
      "fzfg": false,
      "metar_trigger": false,
      "taf_trigger": false,
      "metar": "METAR LPMA 061400Z 02013KT 340V050 9999 BKN015 FEW018TCU 16/08 Q1027",
      "taf": "TAF LPMA 061100Z 0612/0712 02015KT 9999 SCT015"
    },
    {
      "icao": "LPPR",
      "alert": "OK",
      "vis_m": 9999,
      "fzfg": false,
      "metar_trigger": false,
      "taf_trigger": false,
      "metar": "METAR LPPR 061400Z 01009KT 330V050 9999 FEW040 10/01 Q1024",
      "taf": "TAF LPPR 061100Z 0612/0712 01008KT CAVOK"
    },
    {
      "icao": "LPPS",
      "alert": "OK",
      "vis_m": 9999,
      "fzfg": false,
      "metar_trigger": false,
      "taf_trigger": false,
      "metar": "METAR LPPS 061400Z 02014G24KT 9999 FEW015 16/08 Q1027",
      "taf": "TAF LPPS 061100Z 0612/0718 03013KT 9999 FEW015 SCT030"
    },
    {
      "icao": "LPPT",
      "alert": "OK",
      "vis_m": 9999,
      "fzfg": false,
      "metar_trigger": false,
      "taf_trigger": false,
      "metar": "METAR LPPT 061400Z 34016KT 9999 FEW030 11/00 Q1023",
      "taf": "TAF LPPT 061100Z 0612/0718 34015KT CAVOK"
    },
    {
      "icao": "LQBK",
      "alert": "OK",
      "vis_m": 2000,
      "fzfg": false,
      "metar_trigger": false,
      "taf_trigger": false,
      "metar": "METAR LQBK 061400Z 34006KT 2000 R16/1300N -SN BR BKN005 OVC012 M02/M03 Q1013 NOSIG",
      "taf": "TAF LQBK 061100Z 0612/0712 33007KT 7000 -SN SCT010 OVC020 TXM01/0613Z TNM04/0705Z"
    },
    {
      "icao": "LQSA",
      "alert": "OK",
      "vis_m": 7000,
      "fzfg": false,
      "metar_trigger": false,
      "taf_trigger": false,
      "metar": "METAR LQSA 061400Z 31004KT 7000 -FZRA OVC008 M00/M01 Q1007 NOSIG",
      "taf": ""
    },
    {
      "icao": "LQTZ",
      "alert": "OK",
      "vis_m": 4300,
      "fzfg": false,
      "metar_trigger": false,
      "taf_trigger": false,
      "metar": "METAR LQTZ 061400Z 04004KT 360V090 4300 BR BKN007 OVC010 M02/M02 Q1011",
      "taf": "TAF LQTZ 061100Z 0612/0712 30005KT 4000 BR BKN004 OVC010 TXM00/0613Z TNM06/0705Z"
    },
    {
      "icao": "LRBC",
      "alert": "OK",
      "vis_m": 800,
      "fzfg": false,
      "metar_trigger": false,
      "taf_trigger": false,
      "metar": "METAR LRBC 061400Z 22002KT 0800 R16/1100D FG VV002 02/02 Q1010",
      "taf": ""
    },
    {
      "icao": "LRBS",
      "alert": "OK",
      "vis_m": 8000,
      "fzfg": false,
      "metar_trigger": false,
      "taf_trigger": false,
      "metar": "METAR LRBS 061400Z 24006KT 210V270 8000 BKN005 04/04 Q1011 NOSIG",
      "taf": ""
    },
    {
      "icao": "LRBV",
      "alert": "OK",
      "vis_m": 9999,
      "fzfg": false,
      "metar_trigger": false,
      "taf_trigger": false,
      "metar": "METAR LRBV 061400Z 04004KT 350V080 9999 FEW043 SCT067 06/03 Q1008",
      "taf": "TAF LRBV 061100Z 0612/0621 VRB04KT 9999 BKN045"
    },
    {
      "icao": "LRCL",
      "alert": "OK",
      "vis_m": 7000,
      "fzfg": false,
      "metar_trigger": false,
      "taf_trigger": false,
      "metar": "METAR LRCL 061400Z 00000KT 7000 OVC005 02/01 Q1010",
      "taf": "TAF LRCL 061100Z 0612/0621 29005KT 9999 BKN010 OVC040"
    },
    {
      "icao": "LRCV",
      "alert": "OK",
      "vis_m": 9999,
      "fzfg": false,
      "metar_trigger": false,
      "taf_trigger": false,
      "metar": "METAR LRCV 061400Z 36003KT 330V040 9999 -RA BKN003 03/03 Q1010",
      "taf": "TAF LRCV 061100Z 0612/0621 VRB04KT 5000 -RA BR BKN005 OVC045"
    },
    {
      "icao": "LRIA",
      "alert": "OK",
      "vis_m": 200,
      "fzfg": false,
      "metar_trigger": false,
      "taf_trigger": false,
      "metar": "METAR LRIA 061400Z 33006KT 0200 R14/0500N FG VV001 02/02 Q1011",
      "taf": ""
    },
    {
      "icao": "LROP",
      "alert": "OK",
      "vis_m": 7000,
      "fzfg": false,
      "metar_trigger": false,
      "taf_trigger": false,
      "metar": "METAR LROP 061400Z 25006KT 210V270 7000 -RA BKN005 04/04 Q1011 NOSIG",
      "taf": ""
    },
    {
      "icao": "LRSB",
      "alert": "OK",
      "vis_m": 6000,
      "fzfg": false,
      "metar_trigger": false,
      "taf_trigger": false,
      "metar": "METAR LRSB 061400Z 32003KT 6000 BKN015 BKN068 02/02 Q1009 NOSIG",
      "taf": "TAF LRSB 061100Z 0612/0712 VRB04KT 5000 BR SCT015 SCT060"
    },
    {
      "icao": "LRSM",
      "alert": "OK",
      "vis_m": 2000,
      "fzfg": false,
      "metar_trigger": false,
      "taf_trigger": false,
      "metar": "METAR LRSM 061400Z 21003KT 2000 BR SCT004 OVC022 00/M00 Q1012",
      "taf": ""
    },
    {
      "icao": "LRSV",
      "alert": "OK",
      "vis_m": 4000,
      "fzfg": false,
      "metar_trigger": false,
      "taf_trigger": false,
      "metar": "METAR LRSV 061400Z 36007KT 4000 -FZDZ BR OVC004 M00/M01 Q1010",
      "taf": "TAF LRSV 061100Z 0612/0621 35008KT 5000 -FZRA BR SCT010"
    },
    {
      "icao": "LRTM",
      "alert": "OK",
      "vis_m": 900,
      "fzfg": false,
      "metar_trigger": false,
      "taf_trigger": false,
      "metar": "METAR LRTM 061400Z 23002KT 0900 R07/1200N FG SCT005 BKN015 OVC035 01/01 Q1010",
      "taf": "TAF LRTM 061100Z 0612/0621 VRB04KT 3000 BR BKN010 BKN035"
    },
    {
      "icao": "LRTR",
      "alert": "OK",
      "vis_m": 2500,
      "fzfg": false,
      "metar_trigger": false,
      "taf_trigger": false,
      "metar": "METAR LRTR 061400Z 36001KT 2500 BR SCT002 BKN004 OVC005 M00/M00 Q1011",
      "taf": "TAF LRTR 061100Z 0612/0712 VRB04KT 3000 BR BKN002"
    },
    {
      "icao": "LTAC",
      "alert": "OK",
      "vis_m": 7000,
      "fzfg": false,
      "metar_trigger": false,
      "taf_trigger": false,
      "metar": "METAR LTAC 061350Z 01003KT 330V030 7000 NSC 09/01 Q1020 NOSIG RMK RWY21C 35002KT RWY03L 35002KT RWY21R 34002KT RWY03R 02001KT RWY21L 00000KT",
      "taf": "TAF LTAC 061040Z 0612/0712 VRB02KT CAVOK"
    },
    {
      "icao": "LTFM",
      "alert": "OK",
      "vis_m": 9999,
      "fzfg": false,
      "metar_trigger": false,
      "taf_trigger": false,
      "metar": "METAR LTFM 061350Z 16012KT CAVOK 17/06 Q1013 NOSIG RMK RWY17L 17014KT 150V210 RWY34L 14009KT RWY16R 16012KT RWY36 17013KT RWY18 19016KT",
      "taf": "TAF LTFM 061040Z 0612/0718 19015G25KT CAVOK"
    },
    {
      "icao": "LUKK",
      "alert": "OK",
      "vis_m": 500,
      "fzfg": false,
      "metar_trigger": false,
      "taf_trigger": false,
      "metar": "METAR LUKK 061400Z 22003KT 0500 0400SW R08/0500N FG VV002 06/06 Q1010 TEMPO 0600 FG VV003",
      "taf": "TAF LUKK 061116Z 0612/0712 VRB06KT 0300 FG VV001"
    },
    {
      "icao": "LWOH",
      "alert": "OK",
      "vis_m": 9999,
      "fzfg": false,
      "metar_trigger": false,
      "taf_trigger": false,
      "metar": "METAR LWOH 061420Z 29003KT 260V320 9999 -RA SCT010 OVC040 09/08 Q1008",
      "taf": "TAF LWOH 061410Z 0615/0715 VRB02KT 9999 SCT015 OVC040"
    },
    {
      "icao": "LWSK",
      "alert": "OK",
      "vis_m": 7000,
      "fzfg": false,
      "metar_trigger": false,
      "taf_trigger": false,
      "metar": "METAR LWSK 061420Z VRB02KT 7000 SCT017 BKN030 BKN075 10/09 Q1010 REDZ NOSIG",
      "taf": "TAF LWSK 061410Z 0615/0715 VRB02KT 9999 SCT020 BKN035 BKN070"
    },
    {
      "icao": "LYBE",
      "alert": "OK",
      "vis_m": 6000,
      "fzfg": false,
      "metar_trigger": false,
      "taf_trigger": false,
      "metar": "METAR LYBE 061400Z 36003KT 6000 -SG BKN005 M01/M02 Q1012 NOSIG",
      "taf": "TAF LYBE 061100Z 0612/0712 30007KT 7000 BKN007 BKN025 TXM01/0613Z TNM03/0706Z"
    },
    {
      "icao": "LYNI",
      "alert": "OK",
      "vis_m": 9999,
      "fzfg": false,
      "metar_trigger": false,
      "taf_trigger": false,
      "metar": "METAR LYNI 061400Z 33010KT 9999 SCT005 BKN010 OVC020 01/01 Q1010 NOSIG",
      "taf": "TAF LYNI 061100Z 0612/0712 33010KT 9999 BKN010 BKN030 BKN070 TX02/0613Z TNM02/0706Z"
    },
    {
      "icao": "LYPG",
      "alert": "OK",
      "vis_m": 4000,
      "fzfg": false,
      "metar_trigger": false,
      "taf_trigger": false,
      "metar": "METAR LYPG 061400Z 24003KT 210V280 4000 RA FEW010 SCT034 OVC070 11/10 Q1005 NOSIG",
      "taf": "TAF LYPG 061100Z 0612/0712 14005KT 8000 SCT005 BKN030 TX14/0613Z TN11/0705Z"
    },
    {
      "icao": "LZIB",
      "alert": "OK",
      "vis_m": 9999,
      "fzfg": false,
      "metar_trigger": false,
      "taf_trigger": false,
      "metar": "METAR LZIB 061400Z 35007KT CAVOK M02/M10 Q1014 NOSIG",
      "taf": "TAF LZIB 061115Z 0612/0712 33009KT 9999 FEW020"
    },
    {
      "icao": "LZKZ",
      "alert": "OK",
      "vis_m": 9999,
      "fzfg": false,
      "metar_trigger": false,
      "taf_trigger": false,
      "metar": "METAR LZKZ 061400Z 01013KT 9999 FEW042 M00/M05 Q1011 NOSIG",
      "taf": "TAF LZKZ 061115Z 0612/0712 03015KT 9999 BKN040"
    },
    {
      "icao": "LZTT",
      "alert": "OK",
      "vis_m": 9999,
      "fzfg": false,
      "metar_trigger": false,
      "taf_trigger": false,
      "metar": "METAR LZTT 061400Z 08008KT 9999 SCT016 BKN040 M04/M08 Q1009 NOSIG",
      "taf": ""
    },
    {
      "icao": "OEJN",
      "alert": "OK",
      "vis_m": 8000,
      "fzfg": false,
      "metar_trigger": false,
      "taf_trigger": false,
      "metar": "METAR OEJN 061400Z 24008KT 8000 NSC 30/11 Q1015 NOSIG",
      "taf": "TAF OEJN 061100Z 0612/0718 30010KT 7000 NSC"
    },
    {
      "icao": "OEMA",
      "alert": "OK",
      "vis_m": 8000,
      "fzfg": false,
      "metar_trigger": false,
      "taf_trigger": false,
      "metar": "METAR OEMA 061400Z 08006KT 8000 NSC 26/03 Q1021 NOSIG",
      "taf": "TAF OEMA 061100Z 0612/0718 07010KT 7000 NSC"
    },
    {
      "icao": "OJAI",
      "alert": "OK",
      "vis_m": 5000,
      "fzfg": false,
      "metar_trigger": false,
      "taf_trigger": false,
      "metar": "METAR OJAI 061400Z 05008KT 5000 HZ NSC 15/03 Q1022 NOSIG",
      "taf": "TAF OJAI 061100Z 0612/0718 11008KT 5000 HZ NSC"
    },
    {
      "icao": "OMAA",
      "alert": "OK",
      "vis_m": 9999,
      "fzfg": false,
      "metar_trigger": false,
      "taf_trigger": false,
      "metar": "METAR OMAA 061400Z 34011KT CAVOK 23/12 Q1020 NOSIG",
      "taf": "TAF OMAA 061100Z 0612/0718 33012KT 8000 FEW045"
    },
    {
      "icao": "OMDB",
      "alert": "OK",
      "vis_m": 9999,
      "fzfg": false,
      "metar_trigger": false,
      "taf_trigger": false,
      "metar": "METAR OMDB 061400Z 01011KT 350V050 CAVOK 24/10 Q1020 NOSIG",
      "taf": "TAF OMDB 061100Z 0612/0718 35012KT 8000 NSC"
    },
    {
      "icao": "UAAA",
      "alert": "OK",
      "vis_m": 1700,
      "fzfg": false,
      "metar_trigger": false,
      "taf_trigger": false,
      "metar": "METAR UAAA 061400Z 22003MPS 1700 R05R/P2000N BR NSC M01/M04 Q1029 NOSIG",
      "taf": "TAF UAAA 061100Z 0612/0712 22003MPS 3100 BR FU BKN011 BKN050 TX03/0709Z TNM04/0701Z"
    },
    {
      "icao": "UBBB",
      "alert": "OK",
      "vis_m": 7000,
      "fzfg": false,
      "metar_trigger": false,
      "taf_trigger": false,
      "metar": "METAR UBBB 061400Z 16006KT 7000 BKN004 08/07 Q1024 NOSIG",
      "taf": ""
    },
    {
      "icao": "UDSG",
      "alert": "OK",
      "vis_m": 9000,
      "fzfg": false,
      "metar_trigger": false,
      "taf_trigger": false,
      "metar": "METAR UDSG 061400Z 00000KT 9000 FEW049 M10/M13 Q1028 NOSIG",
      "taf": "TAF UDSG 061058Z 0612/0712 VRB06KT 9999 FEW040"
    },
    {
      "icao": "UDYZ",
      "alert": "OK",
      "vis_m": 4400,
      "fzfg": false,
      "metar_trigger": false,
      "taf_trigger": false,
      "metar": "METAR UDYZ 061400Z 00000KT 4400 BR NSC M04/M09 Q1030 NOSIG",
      "taf": "TAF UDYZ 061100Z 0612/0712 VRB04KT 3500 BR FEW040"
    },
    {
      "icao": "UGKO",
      "alert": "OK",
      "vis_m": 9999,
      "fzfg": false,
      "metar_trigger": false,
      "taf_trigger": false,
      "metar": "METAR UGKO 061400Z 11007KT CAVOK 12/M01 Q1019 NOSIG",
      "taf": "TAF UGKO 061100Z 0612/0712 09008KT CAVOK TX17/0712Z TN03/0703Z"
    }
  ]
}