{
  "ts_utc": "2026-01-28T19:02:50Z",
  "threshold_m": 150,
  "source": "stations_override.txt (ICAO list) + aviationweather.gov (METAR/TAF raw)",
  "station_count": 159,
  "stations": [
    {
      "icao": "BIKF",
      "alert": "OK",
      "vis_m": 9999,
      "fzfg": false,
      "metar_trigger": false,
      "taf_trigger": false,
      "metar": "METAR BIKF 281830Z 06016KT CAVOK 04/M04 Q0998",
      "taf": "TAF BIKF 281647Z 2818/2918 05014KT 9999 FEW025 TX06/2918Z TN02/2904Z"
    },
    {
      "icao": "BKPR",
      "alert": "OK",
      "vis_m": 9999,
      "fzfg": false,
      "metar_trigger": false,
      "taf_trigger": false,
      "metar": "METAR BKPR 281900Z 16008KT 9999 -RA FEW025 BKN050 05/03 Q0998 NOSIG",
      "taf": "TAF BKPR 281730Z 2818/2918 18008KT 9999 BKN040"
    },
    {
      "icao": "EBCI",
      "alert": "OK",
      "vis_m": 1300,
      "fzfg": false,
      "metar_trigger": false,
      "taf_trigger": false,
      "metar": "METAR EBCI 281850Z 35004KT 320V050 1300 R24/P2000N BR SCT001 OVC002 04/04 Q0995 TEMPO 0800 FG",
      "taf": "TAF EBCI 281714Z 2818/2924 02003KT 0800 FG SCT001 BKN002"
    },
    {
      "icao": "EDDB",
      "alert": "OK",
      "vis_m": 9999,
      "fzfg": false,
      "metar_trigger": false,
      "taf_trigger": false,
      "metar": "METAR EDDB 281850Z AUTO 08010KT 9999 OVC015 M01/M03 Q1001 TEMPO BKN009",
      "taf": "TAF EDDB 281700Z 2818/2918 07010KT 9999 OVC011"
    },
    {
      "icao": "EDDH",
      "alert": "OK",
      "vis_m": 9999,
      "fzfg": false,
      "metar_trigger": false,
      "taf_trigger": false,
      "metar": "METAR EDDH 281850Z AUTO 07012KT 9999 BKN015 OVC029 01/M01 Q1002 TEMPO BKN014",
      "taf": "TAF EDDH 281700Z 2818/2924 08009KT 9999 OVC010"
    },
    {
      "icao": "EDDK",
      "alert": "OK",
      "vis_m": 8000,
      "fzfg": false,
      "metar_trigger": false,
      "taf_trigger": false,
      "metar": "METAR EDDK 281850Z AUTO 34005KT 310V010 8000 -SHRA FEW005 BKN009 FEW///TCU 02/01 Q0995 TEMPO 3000 RADZ BKN004",
      "taf": "TAF EDDK 281700Z 2818/2924 34005KT 7000 SCT003 BKN005"
    },
    {
      "icao": "EDDN",
      "alert": "OK",
      "vis_m": 9999,
      "fzfg": false,
      "metar_trigger": false,
      "taf_trigger": false,
      "metar": "METAR EDDN 281850Z AUTO 07004KT 040V100 9999 OVC015 02/M01 Q0992 BECMG BKN010",
      "taf": "TAF EDDN 281700Z 2818/2918 03005KT CAVOK"
    },
    {
      "icao": "EDDS",
      "alert": "OK",
      "vis_m": 8000,
      "fzfg": false,
      "metar_trigger": false,
      "taf_trigger": false,
      "metar": "METAR EDDS 281850Z AUTO 32005KT 300V360 8000 -RA SCT006 BKN015 BKN022 02/01 Q0991 BECMG BKN006",
      "taf": "TAF EDDS 281700Z 2818/2918 34005KT 9000 BKN007"
    },
    {
      "icao": "EDFH",
      "alert": "OK",
      "vis_m": 4800,
      "fzfg": false,
      "metar_trigger": false,
      "taf_trigger": false,
      "metar": "METAR EDFH 281850Z VRB02KT 4800 -RA BR FEW003 SCT025 OVC033 01/00 Q0993",
      "taf": ""
    },
    {
      "icao": "EDJA",
      "alert": "OK",
      "vis_m": 6000,
      "fzfg": false,
      "metar_trigger": false,
      "taf_trigger": false,
      "metar": "METAR EDJA 281850Z 23003KT 6000 SCT012 BKN015 OVC025 00/M01 Q0991",
      "taf": "TAF EDJA 281700Z 2818/2903 24005KT 6000 SCT005 BKN010"
    },
    {
      "icao": "EDLW",
      "alert": "OK",
      "vis_m": 4800,
      "fzfg": false,
      "metar_trigger": false,
      "taf_trigger": false,
      "metar": "METAR EDLW 281820Z COR 03008KT 4800 -SN OVC003 M00/M01 Q0995",
      "taf": "TAF EDLW 281700Z 2818/2918 07007KT 5000 BR SCT003 BKN005"
    },
    {
      "icao": "EDNY",
      "alert": "OK",
      "vis_m": 4700,
      "fzfg": false,
      "metar_trigger": false,
      "taf_trigger": false,
      "metar": "METAR EDNY 281850Z 06002KT 4700 BR OVC009 02/01 Q0992",
      "taf": "TAF EDNY 281700Z 2818/2903 VRB02KT 6000 BKN020"
    },
    {
      "icao": "EDSB",
      "alert": "OK",
      "vis_m": 5000,
      "fzfg": false,
      "metar_trigger": false,
      "taf_trigger": false,
      "metar": "METAR EDSB 281850Z 02008KT 5000 RA BR BKN005 OVC033 04/03 Q0993",
      "taf": "TAF EDSB 281700Z 2818/2918 02005KT 6000 SCT006 OVC015"
    },
    {
      "icao": "EETN",
      "alert": "OK",
      "vis_m": 9999,
      "fzfg": false,
      "metar_trigger": false,
      "taf_trigger": false,
      "metar": "METAR EETN 281850Z 08012KT 9999 OVC015 M07/M09 Q1015 NOSIG",
      "taf": "TAF EETN 281730Z 2818/2918 09012KT 9999 OVC012"
    },
    {
      "icao": "EFTU",
      "alert": "OK",
      "vis_m": 9999,
      "fzfg": false,
      "metar_trigger": false,
      "taf_trigger": false,
      "metar": "METAR EFTU 281850Z AUTO 08009KT 9999 -SHSN OVC010 M11/M13 Q1017",
      "taf": "TAF EFTU 281734Z 2818/2918 08005KT 9999 BKN010"
    },
    {
      "icao": "EGBB",
      "alert": "OK",
      "vis_m": 9999,
      "fzfg": false,
      "metar_trigger": false,
      "taf_trigger": false,
      "metar": "METAR EGBB 281850Z 15005KT CAVOK 03/02 Q0995",
      "taf": "TAF EGBB 281658Z 2818/2918 14004KT 9999 FEW025"
    },
    {
      "icao": "EGGP",
      "alert": "OK",
      "vis_m": 9999,
      "fzfg": false,
      "metar_trigger": false,
      "taf_trigger": false,
      "metar": "METAR EGGP 281850Z 12006KT CAVOK 05/02 Q0995",
      "taf": "TAF EGGP 281657Z 2818/2918 11005KT 9999 FEW035"
    },
    {
      "icao": "EGGW",
      "alert": "OK",
      "vis_m": 9999,
      "fzfg": false,
      "metar_trigger": false,
      "taf_trigger": false,
      "metar": "METAR EGGW 281850Z AUTO 10003KT 070V150 9999 NCD 04/03 Q0995",
      "taf": "TAF EGGW 281701Z 2818/2918 12006KT 9999 SCT035"
    },
    {
      "icao": "EGKK",
      "alert": "OK",
      "vis_m": 9999,
      "fzfg": false,
      "metar_trigger": false,
      "taf_trigger": false,
      "metar": "METAR EGKK 281850Z 18002KT CAVOK 04/03 Q0996",
      "taf": "TAF EGKK 281701Z 2818/2924 09004KT 9999 FEW035"
    },
    {
      "icao": "EGNM",
      "alert": "OK",
      "vis_m": 200,
      "fzfg": false,
      "metar_trigger": false,
      "taf_trigger": false,
      "metar": "METAR EGNM 281850Z 05003KT 020V090 0200 R32/0250N FG VV/// 02/02 Q0996",
      "taf": "TAF EGNM 281658Z 2818/2918 VRB02KT 0100 FG VV///"
    },
    {
      "icao": "EGPD",
      "alert": "OK",
      "vis_m": 6000,
      "fzfg": false,
      "metar_trigger": false,
      "taf_trigger": false,
      "metar": "METAR EGPD 281850Z AUTO 13011KT 6000 -RA BKN007 OVC034 06/05 Q0998 RERA TEMPO BKN009",
      "taf": ""
    },
    {
      "icao": "EGPF",
      "alert": "OK",
      "vis_m": 9999,
      "fzfg": false,
      "metar_trigger": false,
      "taf_trigger": false,
      "metar": "METAR EGPF 281850Z AUTO 06005KT 9999 NCD 03/02 Q0996",
      "taf": "TAF EGPF 281658Z 2818/2918 09005KT 9999 SCT040"
    },
    {
      "icao": "EHBK",
      "alert": "OK",
      "vis_m": 1700,
      "fzfg": false,
      "metar_trigger": false,
      "taf_trigger": false,
      "metar": "METAR EHBK 281855Z AUTO 03009KT 1700 BR OVC001/// 02/02 Q0995 BECMG 3000 BKN004",
      "taf": "TAF EHBK 281716Z 2818/2924 01005KT 1500 BR -DZRA BKN001"
    },
    {
      "icao": "EHEH",
      "alert": "OK",
      "vis_m": null,
      "fzfg": false,
      "metar_trigger": false,
      "taf_trigger": false,
      "metar": "",
      "taf": "TAF EHEH 281735Z 2818/2924 04010KT 5000 BKN007"
    },
    {
      "icao": "EKBI",
      "alert": "OK",
      "vis_m": 9999,
      "fzfg": false,
      "metar_trigger": false,
      "taf_trigger": false,
      "metar": "METAR EKBI 281850Z AUTO 07016KT 9999 OVC023/// M01/M04 Q1006",
      "taf": "TAF EKBI 281727Z 2818/2918 08015KT 9999 BKN012"
    },
    {
      "icao": "EKCH",
      "alert": "OK",
      "vis_m": 9999,
      "fzfg": false,
      "metar_trigger": false,
      "taf_trigger": false,
      "metar": "METAR EKCH 281850Z AUTO 05017KT 9999 OVC023/// M01/M05 Q1007 NOSIG",
      "taf": "TAF EKCH 281727Z 2818/2918 05015KT 9999 BKN018"
    },
    {
      "icao": "ENAL",
      "alert": "OK",
      "vis_m": 9999,
      "fzfg": false,
      "metar_trigger": false,
      "taf_trigger": false,
      "metar": "METAR ENAL 281850Z 14012KT 9999 SCT027 M01/M06 Q1010",
      "taf": "TAF ENAL 281700Z 2818/2903 15009KT 9999 SCT025"
    },
    {
      "icao": "ENBR",
      "alert": "OK",
      "vis_m": 9999,
      "fzfg": false,
      "metar_trigger": false,
      "taf_trigger": false,
      "metar": "METAR ENBR 281850Z 00000KT CAVOK M04/M08 Q1009 NOSIG RMK WIND 1200FT VRB02KT",
      "taf": "TAF ENBR 281700Z 2818/2918 05003KT CAVOK"
    },
    {
      "icao": "ENGM",
      "alert": "OK",
      "vis_m": 9999,
      "fzfg": false,
      "metar_trigger": false,
      "taf_trigger": false,
      "metar": "METAR ENGM 281850Z 04005KT 9999 -SN BKN030 M09/M12 Q1015 NOSIG",
      "taf": "TAF ENGM 281700Z 2818/2918 02007KT 9999 -SN BKN025"
    },
    {
      "icao": "ENHD",
      "alert": "OK",
      "vis_m": 9999,
      "fzfg": false,
      "metar_trigger": false,
      "taf_trigger": false,
      "metar": "METAR ENHD 281850Z 10006KT 9999 FEW041 M03/M14 Q1010",
      "taf": "TAF ENHD 281400Z 2815/2823 10008KT CAVOK"
    },
    {
      "icao": "ENTC",
      "alert": "OK",
      "vis_m": 9999,
      "fzfg": false,
      "metar_trigger": false,
      "taf_trigger": false,
      "metar": "METAR ENTC 281850Z 20003KT 140V240 9999 BKN007 M07/M08 Q1016 TEMPO BKN012 RMK WIND 2600FT 04010KT",
      "taf": "TAF ENTC 281700Z 2818/2918 22005KT 9999 FEW010 SCT025"
    },
    {
      "icao": "ENTO",
      "alert": "OK",
      "vis_m": 9999,
      "fzfg": false,
      "metar_trigger": false,
      "taf_trigger": false,
      "metar": "METAR ENTO 281850Z 36009KT 9999 -SN OVC028 M07/M10 Q1014 NOSIG",
      "taf": "TAF ENTO 281700Z 2818/2918 02008KT 9999 -SN BKN025"
    },
    {
      "icao": "ENVA",
      "alert": "OK",
      "vis_m": 9999,
      "fzfg": false,
      "metar_trigger": false,
      "taf_trigger": false,
      "metar": "METAR ENVA 281850Z 12005KT CAVOK M13/M17 Q1012 NOSIG RMK WIND 670FT 11006KT",
      "taf": "TAF ENVA 281700Z 2818/2918 10008KT CAVOK"
    },
    {
      "icao": "ENZV",
      "alert": "OK",
      "vis_m": 9999,
      "fzfg": false,
      "metar_trigger": false,
      "taf_trigger": false,
      "metar": "METAR ENZV 281850Z 17006KT 9999 FEW039 M04/M14 Q1010 NOSIG",
      "taf": "TAF ENZV 281700Z 2818/2918 14006KT 9999 BKN040"
    },
    {
      "icao": "EPGD",
      "alert": "OK",
      "vis_m": 9999,
      "fzfg": false,
      "metar_trigger": false,
      "taf_trigger": false,
      "metar": "METAR EPGD 281830Z 05011KT 9999 OVC004 M04/M04 Q1003",
      "taf": "TAF EPGD 281730Z 2818/2918 06010KT 9999 BKN006 OVC011"
    },
    {
      "icao": "EPKK",
      "alert": "OK",
      "vis_m": 4700,
      "fzfg": false,
      "metar_trigger": false,
      "taf_trigger": false,
      "metar": "METAR EPKK 281830Z 05008KT 4700 BR BKN010 BKN043 01/M01 Q0998",
      "taf": "TAF EPKK 281730Z 2818/2918 06007KT 5000 BR BKN015"
    },
    {
      "icao": "EPKT",
      "alert": "OK",
      "vis_m": 5000,
      "fzfg": false,
      "metar_trigger": false,
      "taf_trigger": false,
      "metar": "METAR EPKT 281830Z 05009KT 5000 BR OVC004 M00/M01 Q0998",
      "taf": "TAF EPKT 281730Z 2818/2918 05008KT 5000 BR BKN005"
    },
    {
      "icao": "EPLB",
      "alert": "OK",
      "vis_m": 3600,
      "fzfg": false,
      "metar_trigger": false,
      "taf_trigger": false,
      "metar": "METAR EPLB 281830Z 35004KT 320V020 3600 BR FEW004 BKN007 OVC009 00/M00 Q0999",
      "taf": "TAF EPLB 281730Z 2818/2918 34005KT 1800 BR OVC002"
    },
    {
      "icao": "EPMO",
      "alert": "OK",
      "vis_m": 4000,
      "fzfg": false,
      "metar_trigger": false,
      "taf_trigger": false,
      "metar": "METAR EPMO 281830Z 02004KT 4000 BR BKN008 BKN023 M00/M01 Q1001",
      "taf": "TAF EPMO 281730Z 2818/2918 02006KT 6000 BKN020"
    },
    {
      "icao": "EPPO",
      "alert": "OK",
      "vis_m": 6000,
      "fzfg": false,
      "metar_trigger": false,
      "taf_trigger": false,
      "metar": "METAR EPPO 281830Z 07008KT 6000 OVC007 M01/M02 Q1002",
      "taf": "TAF EPPO 281730Z 2818/2918 07006KT 9999 BKN012"
    },
    {
      "icao": "EPRA",
      "alert": "OK",
      "vis_m": 1600,
      "fzfg": false,
      "metar_trigger": false,
      "taf_trigger": false,
      "metar": "METAR EPRA 281830Z 36004KT 1600 1400N BR OVC002 M00/M01 Q1000",
      "taf": "TAF EPRA 281730Z 2818/2903 02005KT 4000 BR OVC005"
    },
    {
      "icao": "EPRZ",
      "alert": "OK",
      "vis_m": 9999,
      "fzfg": false,
      "metar_trigger": false,
      "taf_trigger": false,
      "metar": "METAR EPRZ 281830Z 34005KT 9999 OVC013 02/M00 Q0999",
      "taf": "TAF EPRZ 281730Z 2818/2918 26006KT 9999 OVC016"
    },
    {
      "icao": "EPSC",
      "alert": "OK",
      "vis_m": 6000,
      "fzfg": false,
      "metar_trigger": false,
      "taf_trigger": false,
      "metar": "METAR EPSC 281830Z 04005KT 6000 OVC003 M01/M01 Q1003",
      "taf": "TAF EPSC 281730Z 2818/2918 06008KT 9999 BKN005 BKN011"
    },
    {
      "icao": "EPSY",
      "alert": "OK",
      "vis_m": 6000,
      "fzfg": false,
      "metar_trigger": false,
      "taf_trigger": false,
      "metar": "METAR EPSY 281830Z 01009KT 6000 OVC005 M05/M06 Q1002",
      "taf": "TAF EPSY 281730Z 2818/2903 02010KT 7000 OVC006"
    },
    {
      "icao": "EPWA",
      "alert": "OK",
      "vis_m": 7000,
      "fzfg": false,
      "metar_trigger": false,
      "taf_trigger": false,
      "metar": "METAR EPWA 281830Z 03006KT 7000 BKN007 01/M00 Q1001 NOSIG",
      "taf": "TAF EPWA 281730Z 2818/2918 02008KT 8000 BKN008"
    },
    {
      "icao": "EPWR",
      "alert": "OK",
      "vis_m": 9999,
      "fzfg": false,
      "metar_trigger": false,
      "taf_trigger": false,
      "metar": "METAR EPWR 281830Z 07007KT 030V090 9999 BKN013 00/M02 Q1000",
      "taf": "TAF EPWR 281730Z 2818/2918 08008KT 9999 OVC013"
    },
    {
      "icao": "ESGG",
      "alert": "OK",
      "vis_m": 9999,
      "fzfg": false,
      "metar_trigger": false,
      "taf_trigger": false,
      "metar": "METAR ESGG 281850Z 05008KT CAVOK M06/M09 Q1010",
      "taf": "TAF ESGG 281730Z 2818/2918 06008KT CAVOK"
    },
    {
      "icao": "ESKN",
      "alert": "OK",
      "vis_m": 9999,
      "fzfg": false,
      "metar_trigger": false,
      "taf_trigger": false,
      "metar": "METAR ESKN 281850Z 02008KT 340V040 9999 BKN035 M06/M08 Q1014",
      "taf": "TAF ESKN 281730Z 2818/2918 02008KT 9999 BKN035"
    },
    {
      "icao": "ESMS",
      "alert": "OK",
      "vis_m": 9999,
      "fzfg": false,
      "metar_trigger": false,
      "taf_trigger": false,
      "metar": "METAR ESMS 281850Z 06014KT 9999 BKN020 M01/M05 Q1006",
      "taf": "TAF ESMS 281727Z 2818/2918 05014KT 9999 OVC020"
    },
    {
      "icao": "ESSA",
      "alert": "OK",
      "vis_m": 9999,
      "fzfg": false,
      "metar_trigger": false,
      "taf_trigger": false,
      "metar": "METAR ESSA 281850Z 36003KT CAVOK M13/M15 Q1015 NOSIG",
      "taf": "TAF ESSA 281730Z 2818/2918 02006KT 9999 FEW020"
    },
    {
      "icao": "EYKA",
      "alert": "OK",
      "vis_m": 9999,
      "fzfg": false,
      "metar_trigger": false,
      "taf_trigger": false,
      "metar": "METAR EYKA 281850Z 03006KT 340V070 9999 OVC015 M08/M11 Q1004",
      "taf": "TAF EYKA 281702Z 2818/2918 03009KT 8000 OVC015"
    },
    {
      "icao": "EYPA",
      "alert": "OK",
      "vis_m": 9999,
      "fzfg": false,
      "metar_trigger": false,
      "taf_trigger": false,
      "metar": "METAR EYPA 281850Z 06010KT CAVOK M09/M13 Q1008",
      "taf": "TAF EYPA 281702Z 2818/2918 06012KT 9000 SCT015"
    },
    {
      "icao": "EYVI",
      "alert": "OK",
      "vis_m": 9999,
      "fzfg": false,
      "metar_trigger": false,
      "taf_trigger": false,
      "metar": "METAR EYVI 281850Z 04010KT 9999 -SN OVC008 M07/M09 Q1002 TEMPO BKN005",
      "taf": ""
    },
    {
      "icao": "GCFV",
      "alert": "OK",
      "vis_m": 9999,
      "fzfg": false,
      "metar_trigger": false,
      "taf_trigger": false,
      "metar": "METAR GCFV 281830Z 30006KT 260V340 9999 SCT020 BKN025 20/14 Q1022",
      "taf": "TAF GCFV 281400Z 2815/2915 31013KT 9999 FEW020 BKN030 TX23/2914Z TN14/2906Z"
    },
    {
      "icao": "GCLP",
      "alert": "OK",
      "vis_m": 9999,
      "fzfg": false,
      "metar_trigger": false,
      "taf_trigger": false,
      "metar": "METAR GCLP 281830Z 03012KT 9999 FEW020 BKN030 19/16 Q1022 NOSIG",
      "taf": ""
    },
    {
      "icao": "GCTS",
      "alert": "OK",
      "vis_m": 9999,
      "fzfg": false,
      "metar_trigger": false,
      "taf_trigger": false,
      "metar": "METAR GCTS 281830Z 12005KT 080V160 9999 SCT030 20/16 Q1022 NOSIG",
      "taf": "TAF GCTS 281400Z 2815/2915 17007KT 9999 SCT030 TX23/2914Z TN16/2906Z"
    },
    {
      "icao": "GMAD",
      "alert": "OK",
      "vis_m": 8000,
      "fzfg": false,
      "metar_trigger": false,
      "taf_trigger": false,
      "metar": "METAR GMAD 281830Z 23012KT 8000 BKN016 17/16 Q1020 NOSIG",
      "taf": "TAF GMAD 281700Z 2818/2924 23012KT 8000 BKN016"
    },
    {
      "icao": "GMMN",
      "alert": "OK",
      "vis_m": 9999,
      "fzfg": false,
      "metar_trigger": false,
      "taf_trigger": false,
      "metar": "METAR GMMN 281830Z 23012KT 9999 -DZ BKN005 BKN016 16/14 Q1018 NOSIG",
      "taf": "TAF GMMN 281700Z 2818/2924 24016KT 9999 BKN020"
    },
    {
      "icao": "GMMX",
      "alert": "OK",
      "vis_m": 9999,
      "fzfg": false,
      "metar_trigger": false,
      "taf_trigger": false,
      "metar": "METAR GMMX 281830Z 27005KT 9999 FEW020 SCT090 16/12 Q1020 NOSIG",
      "taf": "TAF GMMX 281700Z 2818/2924 28006KT 9999 SCT020 SCT090"
    },
    {
      "icao": "HEGN",
      "alert": "OK",
      "vis_m": 2000,
      "fzfg": false,
      "metar_trigger": false,
      "taf_trigger": false,
      "metar": "METAR HEGN 281800Z 27006KT 2000 DU NSC 18/07 Q1020 NOSIG",
      "taf": "TAF HEGN 281745Z 2818/2924 35008KT 6000 NSC"
    },
    {
      "icao": "HEMA",
      "alert": "OK",
      "vis_m": 4000,
      "fzfg": false,
      "metar_trigger": false,
      "taf_trigger": false,
      "metar": "METAR HEMA 281800Z 25005KT 4000 DU NSC 19/04 Q1018 NOSIG",
      "taf": "TAF HEMA 281745Z 2818/2924 26008KT 6000 NSC"
    },
    {
      "icao": "HESH",
      "alert": "OK",
      "vis_m": 6000,
      "fzfg": false,
      "metar_trigger": false,
      "taf_trigger": false,
      "metar": "METAR HESH 281800Z 31005KT 6000 NSC 20/04 Q1018 NOSIG",
      "taf": "TAF HESH 281745Z 2818/2924 30008KT 6000 NSC"
    },
    {
      "icao": "HESX",
      "alert": "OK",
      "vis_m": 9999,
      "fzfg": false,
      "metar_trigger": false,
      "taf_trigger": false,
      "metar": "METAR HESX 281800Z 23008KT CAVOK 15/05 Q1018 NOSIG",
      "taf": "TAF HESX 281700Z 2818/2924 24009KT 9999 SCT020"
    },
    {
      "icao": "LATI",
      "alert": "OK",
      "vis_m": 9999,
      "fzfg": false,
      "metar_trigger": false,
      "taf_trigger": false,
      "metar": "METAR LATI 281850Z 12009KT 9999 FEW022 SCT045 BKN070 12/07 Q1000 NOSIG",
      "taf": "TAF LATI 281700Z 2818/2918 16012KT 9999 SCT030 BKN070 TX13/2912Z TN07/2905Z"
    },
    {
      "icao": "LBPD",
      "alert": "OK",
      "vis_m": 9999,
      "fzfg": false,
      "metar_trigger": false,
      "taf_trigger": false,
      "metar": "METAR LBPD 281900Z AUTO 00000KT 9999 FEW100/// OVC120/// 06/05 Q1002 NOSIG",
      "taf": "TAF LBPD 281700Z 2818/2918 VRB04KT CAVOK"
    },
    {
      "icao": "LBSF",
      "alert": "OK",
      "vis_m": 5000,
      "fzfg": false,
      "metar_trigger": false,
      "taf_trigger": false,
      "metar": "METAR LBSF 281900Z AUTO VRB02KT 5000 BR SCT059/// BKN077/// 01/00 Q1001 TEMPO 3000 BR",
      "taf": "TAF LBSF 281700Z 2818/2918 VRB04KT CAVOK"
    },
    {
      "icao": "LBWN",
      "alert": "OK",
      "vis_m": 9999,
      "fzfg": false,
      "metar_trigger": false,
      "taf_trigger": false,
      "metar": "METAR LBWN 281900Z AUTO 12008KT 9999 NSC 07/07 Q1003 NOSIG",
      "taf": "TAF LBWN 281700Z 2818/2918 12010KT 9999 SCT040"
    },
    {
      "icao": "LCLK",
      "alert": "OK",
      "vis_m": 9999,
      "fzfg": false,
      "metar_trigger": false,
      "taf_trigger": false,
      "metar": "METAR LCLK 281830Z 32004KT 270V340 9999 FEW050 13/12 Q1014 NOSIG",
      "taf": "TAF LCLK 281730Z 2818/2918 28008KT 9999 FEW025 SCT045"
    },
    {
      "icao": "LCPH",
      "alert": "OK",
      "vis_m": 9999,
      "fzfg": false,
      "metar_trigger": false,
      "taf_trigger": false,
      "metar": "METAR LCPH 281830Z 31017KT 9999 FEW030 BKN060 17/10 Q1014 NOSIG",
      "taf": "TAF LCPH 281730Z 2818/2918 30017KT 9999 FEW030 SCT040"
    },
    {
      "icao": "LEAL",
      "alert": "OK",
      "vis_m": 9999,
      "fzfg": false,
      "metar_trigger": false,
      "taf_trigger": false,
      "metar": "METAR LEAL 281830Z 29016KT 260V320 CAVOK 17/04 Q1003 WS R28 NOSIG",
      "taf": "TAF LEAL 281700Z 2818/2918 27020KT 9999 FEW040 TX22/2914Z TN11/2907Z"
    },
    {
      "icao": "LEBB",
      "alert": "OK",
      "vis_m": 9999,
      "fzfg": false,
      "metar_trigger": false,
      "taf_trigger": false,
      "metar": "METAR LEBB 281830Z VRB02KT 9999 BKN050 10/05 Q0999 NOSIG",
      "taf": "TAF LEBB 281700Z 2818/2918 22009KT 9999 FEW030 TX16/2914Z TN08/2906Z"
    },
    {
      "icao": "LEBL",
      "alert": "OK",
      "vis_m": 9999,
      "fzfg": false,
      "metar_trigger": false,
      "taf_trigger": false,
      "metar": "METAR LEBL 281830Z 31018KT 280V340 9999 FEW030 10/M00 Q0996 NOSIG",
      "taf": "TAF LEBL 281700Z 2818/2918 33010KT 9999 FEW020 TX14/2912Z TN07/2906Z"
    },
    {
      "icao": "LECH",
      "alert": "OK",
      "vis_m": 9999,
      "fzfg": false,
      "metar_trigger": false,
      "taf_trigger": false,
      "metar": "METAR LECH 281830Z AUTO 25005KT 180V310 CAVOK 08/01 Q1000",
      "taf": ""
    },
    {
      "icao": "LEMD",
      "alert": "OK",
      "vis_m": 9999,
      "fzfg": false,
      "metar_trigger": false,
      "taf_trigger": false,
      "metar": "METAR LEMD 281830Z 27009KT 9999 SCT050 BKN065 08/01 Q1003 NOSIG",
      "taf": "TAF LEMD 281700Z 2818/2924 27010KT 9999 FEW050 TX15/2915Z TN05/2908Z"
    },
    {
      "icao": "LEMG",
      "alert": "OK",
      "vis_m": 9999,
      "fzfg": false,
      "metar_trigger": false,
      "taf_trigger": false,
      "metar": "METAR LEMG 281830Z 29006KT 250V340 9999 SCT065 BKN080 16/10 Q1009 NOSIG",
      "taf": "TAF LEMG 281700Z 2818/2918 29005KT 9999 FEW020 BKN025 TX19/2914Z TN13/2907Z"
    },
    {
      "icao": "LEVC",
      "alert": "OK",
      "vis_m": 9999,
      "fzfg": false,
      "metar_trigger": false,
      "taf_trigger": false,
      "metar": "METAR LEVC 281830Z 27012KT 240V300 CAVOK 12/03 Q1002 NOSIG",
      "taf": "TAF LEVC 281700Z 2818/2918 28018KT 9999 FEW030 TX21/2914Z TN09/2907Z"
    },
    {
      "icao": "LEXJ",
      "alert": "OK",
      "vis_m": 9999,
      "fzfg": false,
      "metar_trigger": false,
      "taf_trigger": false,
      "metar": "METAR LEXJ 281830Z 28006KT 210V350 9999 -RA SCT038 11/05 Q0998",
      "taf": "TAF LEXJ 281400Z 2815/2915 20009KT 9999 FEW040 TX16/2914Z TN09/2905Z"
    },
    {
      "icao": "LEZG",
      "alert": "OK",
      "vis_m": 9999,
      "fzfg": false,
      "metar_trigger": false,
      "taf_trigger": false,
      "metar": "METAR LEZG 281830Z 00000KT 9999 FEW050 05/05 Q1000 NOSIG",
      "taf": "TAF LEZG 281700Z 2818/2918 VRB04KT 9999 FEW040 TX14/2913Z TN06/2900Z"
    },
    {
      "icao": "LEZL",
      "alert": "OK",
      "vis_m": 9999,
      "fzfg": false,
      "metar_trigger": false,
      "taf_trigger": false,
      "metar": "METAR LEZL 281830Z 22007KT 9999 FEW049 16/14 Q1009 NOSIG",
      "taf": "TAF LEZL 281400Z 2815/2915 24012KT 9999 SCT020 TX18/2915Z TN14/2907Z"
    },
    {
      "icao": "LFBD",
      "alert": "OK",
      "vis_m": 9999,
      "fzfg": false,
      "metar_trigger": false,
      "taf_trigger": false,
      "metar": "METAR LFBD 281830Z AUTO 11006KT 9999 FEW042 SCT150 BKN180 07/06 Q0997 NOSIG",
      "taf": "TAF LFBD 281700Z 2818/2924 VRB03KT CAVOK TX12/2915Z TN06/2906Z"
    },
    {
      "icao": "LFLL",
      "alert": "OK",
      "vis_m": 7000,
      "fzfg": false,
      "metar_trigger": false,
      "taf_trigger": false,
      "metar": "METAR LFLL 281830Z 33007KT 7000 -RA FEW008 BKN011 BKN020 05/04 Q0995 TEMPO 4000 RA BKN014",
      "taf": "TAF LFLL 281700Z 2818/2924 34007KT 9999 BKN020 OVC042"
    },
    {
      "icao": "LFLS",
      "alert": "OK",
      "vis_m": 9999,
      "fzfg": false,
      "metar_trigger": false,
      "taf_trigger": false,
      "metar": "METAR LFLS 281830Z AUTO 33005KT 290V350 9999 -RA BKN013 BKN026 BKN033 04/03 Q0995 TEMPO 4000 RA OVC008",
      "taf": "TAF LFLS 281400Z 2815/2915 VRB05KT 6000 -RA SCT012 OVC020"
    },
    {
      "icao": "LFMN",
      "alert": "OK",
      "vis_m": 9999,
      "fzfg": false,
      "metar_trigger": false,
      "taf_trigger": false,
      "metar": "METAR LFMN 281830Z 33004KT 9999 BKN050 09/08 Q0990 NOSIG",
      "taf": "TAF LFMN 281400Z 2815/2921 24010KT 9999 BKN020"
    },
    {
      "icao": "LFOB",
      "alert": "OK",
      "vis_m": 6000,
      "fzfg": false,
      "metar_trigger": false,
      "taf_trigger": false,
      "metar": "METAR LFOB 281830Z AUTO 01001KT 6000 NSC 03/02 Q0996 BECMG 3000 BR OVC003",
      "taf": "TAF LFOB 281700Z 2818/2918 VRB03KT CAVOK"
    },
    {
      "icao": "LFPO",
      "alert": "OK",
      "vis_m": 9999,
      "fzfg": false,
      "metar_trigger": false,
      "taf_trigger": false,
      "metar": "METAR LFPO 281830Z 31005KT CAVOK 06/04 Q0996 NOSIG",
      "taf": "TAF LFPO 281700Z 2818/2924 VRB03KT CAVOK"
    },
    {
      "icao": "LFSB",
      "alert": "OK",
      "vis_m": 9999,
      "fzfg": false,
      "metar_trigger": false,
      "taf_trigger": false,
      "metar": "METAR LFSB 281830Z AUTO 24005KT 9999 -RA BKN014 OVC023 03/02 Q0993 TEMPO 4000 -RA",
      "taf": "TAF LFSB 281700Z 2818/2918 26005KT 9999 OVC020"
    },
    {
      "icao": "LGAV",
      "alert": "OK",
      "vis_m": 9999,
      "fzfg": false,
      "metar_trigger": false,
      "taf_trigger": false,
      "metar": "METAR LGAV 281850Z 21008KT 9999 FEW025 14/09 Q1008 NOSIG",
      "taf": "TAF LGAV 281700Z 2818/2918 22010KT 9999 FEW018 SCT070"
    },
    {
      "icao": "LGTS",
      "alert": "OK",
      "vis_m": 9999,
      "fzfg": false,
      "metar_trigger": false,
      "taf_trigger": false,
      "metar": "METAR LGTS 281850Z 11006KT 9999 FEW030 11/08 Q1004 NOSIG",
      "taf": "TAF LGTS 281700Z 2818/2918 34008KT 9999 FEW010 BKN025"
    },
    {
      "icao": "LHBP",
      "alert": "OK",
      "vis_m": 7000,
      "fzfg": false,
      "metar_trigger": false,
      "taf_trigger": false,
      "metar": "METAR LHBP 281830Z 05004KT 020V080 7000 -RA SCT004 OVC050 03/02 Q0996 NOSIG",
      "taf": "TAF LHBP 281715Z 2818/2918 07008KT 6000 BKN020 OVC035"
    },
    {
      "icao": "LHDC",
      "alert": "OK",
      "vis_m": 9999,
      "fzfg": false,
      "metar_trigger": false,
      "taf_trigger": false,
      "metar": "METAR LHDC 281815Z AUTO 08008KT CAVOK 04/03 Q0997 NOSIG",
      "taf": "TAF LHDC 281415Z 2815/2824 13006KT 9999 BKN045 OVC080"
    },
    {
      "icao": "LIBD",
      "alert": "OK",
      "vis_m": 9999,
      "fzfg": false,
      "metar_trigger": false,
      "taf_trigger": false,
      "metar": "METAR LIBD 281850Z 16004KT 130V200 CAVOK 11/05 Q0997",
      "taf": "TAF LIBD 281700Z 2818/2918 20010KT 9999 SCT040"
    },
    {
      "icao": "LIBG",
      "alert": "OK",
      "vis_m": 9999,
      "fzfg": false,
      "metar_trigger": false,
      "taf_trigger": false,
      "metar": "METAR LIBG 281750Z 21004KT 180V250 CAVOK 12/09 Q0998",
      "taf": "TAF LIBG 281700Z 2818/2903 21012KT 9999 FEW020"
    },
    {
      "icao": "LIBP",
      "alert": "OK",
      "vis_m": 9999,
      "fzfg": false,
      "metar_trigger": false,
      "taf_trigger": false,
      "metar": "METAR LIBP 281850Z AUTO 24013KT 9999 FEW093/// 13/04 Q0993",
      "taf": "TAF LIBP 281700Z 2818/2918 23016KT 9999 SCT080"
    },
    {
      "icao": "LIBR",
      "alert": "OK",
      "vis_m": 9999,
      "fzfg": false,
      "metar_trigger": false,
      "taf_trigger": false,
      "metar": "METAR LIBR 281850Z 22011KT CAVOK 13/07 Q0998",
      "taf": "TAF LIBR 281700Z 2818/2918 17012KT 9999 SCT030"
    },
    {
      "icao": "LICA",
      "alert": "OK",
      "vis_m": 9999,
      "fzfg": false,
      "metar_trigger": false,
      "taf_trigger": false,
      "metar": "METAR LICA 281850Z AUTO 28011KT 9999 FEW092/// 14/10 Q1002",
      "taf": "TAF LICA 281700Z 2818/2918 27016KT 9999 SCT040"
    },
    {
      "icao": "LICC",
      "alert": "OK",
      "vis_m": 9999,
      "fzfg": false,
      "metar_trigger": false,
      "taf_trigger": false,
      "metar": "METAR LICC 281850Z 28004KT 260V320 CAVOK 13/09 Q1002",
      "taf": "TAF LICC 281700Z 2818/2918 25020KT 9999 SCT030"
    },
    {
      "icao": "LICJ",
      "alert": "OK",
      "vis_m": 9999,
      "fzfg": false,
      "metar_trigger": false,
      "taf_trigger": false,
      "metar": "METAR LICJ 281850Z 19012G26KT CAVOK 15/10 Q1000 WS R25",
      "taf": "TAF LICJ 281700Z 2818/2918 21016KT 9999 SCT040"
    },
    {
      "icao": "LIMC",
      "alert": "OK",
      "vis_m": 4000,
      "fzfg": false,
      "metar_trigger": false,
      "taf_trigger": false,
      "metar": "METAR LIMC 281850Z 29003KT 4000 -DZ BR SCT004 OVC020 05/05 Q0991 NOSIG",
      "taf": "TAF LIMC 281700Z 2818/2924 VRB05KT 6000 BKN020"
    },
    {
      "icao": "LIME",
      "alert": "OK",
      "vis_m": 4500,
      "fzfg": false,
      "metar_trigger": false,
      "taf_trigger": false,
      "metar": "METAR LIME 281850Z 28005KT 4500 -RA BR SCT003 OVC020 05/05 Q0991 RERA TEMPO 2000 BR",
      "taf": ""
    },
    {
      "icao": "LIMF",
      "alert": "OK",
      "vis_m": 3000,
      "fzfg": false,
      "metar_trigger": false,
      "taf_trigger": false,
      "metar": "METAR LIMF 281850Z 06002KT 3000 -RA BR BKN006 OVC030 05/04 Q0991",
      "taf": "TAF LIMF 281700Z 2818/2918 VRB04KT 7000 BKN040"
    },
    {
      "icao": "LIMJ",
      "alert": "OK",
      "vis_m": 9999,
      "fzfg": false,
      "metar_trigger": false,
      "taf_trigger": false,
      "metar": "METAR LIMJ 281850Z 04008KT 9999 SCT038 BKN048 08/04 Q0990",
      "taf": "TAF LIMJ 281700Z 2818/2918 04008KT 4000 RA SCT040"
    },
    {
      "icao": "LIPE",
      "alert": "OK",
      "vis_m": 6000,
      "fzfg": false,
      "metar_trigger": false,
      "taf_trigger": false,
      "metar": "METAR LIPE 281850Z 27006KT 6000 BKN007 06/06 Q0991",
      "taf": "TAF LIPE 281700Z 2818/2918 VRB05KT 6000 BKN006"
    },
    {
      "icao": "LIPH",
      "alert": "OK",
      "vis_m": 8000,
      "fzfg": false,
      "metar_trigger": false,
      "taf_trigger": false,
      "metar": "METAR LIPH 281850Z 06004KT 8000 SCT005 BKN010 09/09 Q0989",
      "taf": "TAF LIPH 281700Z 2818/2918 VRB05KT 6000 BKN010"
    },
    {
      "icao": "LIPQ",
      "alert": "OK",
      "vis_m": 9999,
      "fzfg": false,
      "metar_trigger": false,
      "taf_trigger": false,
      "metar": "METAR LIPQ 281850Z AUTO VRB02KT 9999 -RA OVC005/// 10/10 Q0989",
      "taf": "TAF LIPQ 281700Z 2818/2918 12010KT 6000 RA OVC012"
    },
    {
      "icao": "LIPR",
      "alert": "OK",
      "vis_m": 6000,
      "fzfg": false,
      "metar_trigger": false,
      "taf_trigger": false,
      "metar": "METAR LIPR 281850Z AUTO VRB02KT 6000 SCT150/// SCT180/// 07/07 Q0991",
      "taf": "TAF LIPR 281700Z 2818/2918 21007KT 8000 SCT040"
    },
    {
      "icao": "LIPX",
      "alert": "OK",
      "vis_m": 4500,
      "fzfg": false,
      "metar_trigger": false,
      "taf_trigger": false,
      "metar": "METAR LIPX 281850Z 27008KT 4500 RA BR OVC020 06/06 Q0990",
      "taf": "TAF LIPX 281700Z 2818/2918 24006KT 3000 BR BKN014"
    },
    {
      "icao": "LIPY",
      "alert": "OK",
      "vis_m": 9999,
      "fzfg": false,
      "metar_trigger": false,
      "taf_trigger": false,
      "metar": "METAR LIPY 281850Z AUTO 22007KT 9999 SCT110/// 10/05 Q0991",
      "taf": "TAF LIPY 281700Z 2818/2918 22013KT 9999 FEW040 BKN070"
    },
    {
      "icao": "LIPZ",
      "alert": "OK",
      "vis_m": 7000,
      "fzfg": false,
      "metar_trigger": false,
      "taf_trigger": false,
      "metar": "METAR LIPZ 281850Z VRB01KT 7000 SCT004 BKN010 08/08 Q0989 NOSIG",
      "taf": "TAF LIPZ 281700Z 2818/2924 22007KT 6000 BKN010"
    },
    {
      "icao": "LIRF",
      "alert": "OK",
      "vis_m": 9999,
      "fzfg": false,
      "metar_trigger": false,
      "taf_trigger": false,
      "metar": "METAR LIRF 281850Z 24014KT CAVOK 13/06 Q0995 NOSIG",
      "taf": "TAF LIRF 281700Z 2818/2924 24016KT 9999 SCT030"
    },
    {
      "icao": "LIRN",
      "alert": "OK",
      "vis_m": 9999,
      "fzfg": false,
      "metar_trigger": false,
      "taf_trigger": false,
      "metar": "METAR LIRN 281850Z 22009KT 9999 SCT035 13/07 Q0998 NOSIG",
      "taf": "TAF LIRN 281700Z 2818/2918 23012KT 9999 SCT030"
    },
    {
      "icao": "LIRP",
      "alert": "OK",
      "vis_m": 9999,
      "fzfg": false,
      "metar_trigger": false,
      "taf_trigger": false,
      "metar": "METAR LIRP 281845Z 26010KT 9999 SCT030 SCT040 10/08 Q0992 NOSIG",
      "taf": "TAF LIRP 281700Z 2818/2918 24010KT 9999 SCT020 SCT040"
    },
    {
      "icao": "LIRZ",
      "alert": "OK",
      "vis_m": 9999,
      "fzfg": false,
      "metar_trigger": false,
      "taf_trigger": false,
      "metar": "METAR LIRZ 281850Z AUTO VRB02KT 9999 SCT029/// SCT052/// 07/06 Q0994",
      "taf": "TAF LIRZ 281700Z 2818/2918 16010KT 7000 BKN025"
    },
    {
      "icao": "LJLJ",
      "alert": "OK",
      "vis_m": 6000,
      "fzfg": false,
      "metar_trigger": false,
      "taf_trigger": false,
      "metar": "METAR LJLJ 281830Z 29005KT 6000 -RA FEW002 SCT010 BKN020 05/04 Q0990 NOSIG",
      "taf": "TAF LJLJ 281700Z 2818/2918 29005KT 7000 -RA FEW002 SCT015 OVC030"
    },
    {
      "icao": "LKMT",
      "alert": "OK",
      "vis_m": 4500,
      "fzfg": false,
      "metar_trigger": false,
      "taf_trigger": false,
      "metar": "METAR LKMT 281830Z 02005KT 4500 BR OVC014 01/00 Q0997 NOSIG",
      "taf": "TAF LKMT 281700Z 2818/2918 03009KT 4000 BR SCT008 BKN016"
    },
    {
      "icao": "LKPR",
      "alert": "OK",
      "vis_m": 7000,
      "fzfg": false,
      "metar_trigger": false,
      "taf_trigger": false,
      "metar": "METAR LKPR 281830Z 07010KT 7000 FEW011 OVC017 00/M01 Q0994 NOSIG",
      "taf": "TAF LKPR 281700Z 2818/2924 06008KT 6000 BKN012"
    },
    {
      "icao": "LLBG",
      "alert": "OK",
      "vis_m": 9999,
      "fzfg": false,
      "metar_trigger": false,
      "taf_trigger": false,
      "metar": "METAR LLBG 281850Z 13004KT 9999 SCT036 14/12 Q1017 NOSIG RMK SCT084",
      "taf": "TAF LLBG 281720Z 2818/2918 18008KT 9999 SCT030"
    },
    {
      "icao": "LMML",
      "alert": "OK",
      "vis_m": 9999,
      "fzfg": false,
      "metar_trigger": false,
      "taf_trigger": false,
      "metar": "METAR LMML 281845Z 23017G28KT 9999 -RA NSC 16/10 Q1004 NOSIG",
      "taf": "TAF LMML 281700Z 2818/2918 24012KT 9999 FEW028"
    },
    {
      "icao": "LOWW",
      "alert": "OK",
      "vis_m": 3900,
      "fzfg": false,
      "metar_trigger": false,
      "taf_trigger": false,
      "metar": "METAR LOWW 281850Z VRB01KT 3900 1100E R16/P1500D R29/P1500D BR SCT003 BKN004 01/01 Q0993 TEMPO 1500 DZ",
      "taf": "TAF LOWW 281715Z 2818/2924 14007KT 3000 BR OVC003 TX02/2901Z TN00/2924Z"
    },
    {
      "icao": "LPFR",
      "alert": "OK",
      "vis_m": 3000,
      "fzfg": false,
      "metar_trigger": false,
      "taf_trigger": false,
      "metar": "METAR LPFR 281830Z 24007KT 3000 -DZ BR BKN003 BKN010 14/14 Q1010",
      "taf": "TAF LPFR 281700Z 2818/2918 26015KT 8000 SCT012 BKN030"
    },
    {
      "icao": "LPMA",
      "alert": "OK",
      "vis_m": 9999,
      "fzfg": false,
      "metar_trigger": false,
      "taf_trigger": false,
      "metar": "METAR LPMA 281830Z VRB02KT 9999 FEW014 19/14 Q1018",
      "taf": "TAF LPMA 281700Z 2818/2918 VRB05KT 9999 SCT015"
    },
    {
      "icao": "LPPR",
      "alert": "OK",
      "vis_m": 8000,
      "fzfg": false,
      "metar_trigger": false,
      "taf_trigger": false,
      "metar": "METAR LPPR 281830Z 20010KT 8000 FEW018 13/10 Q1001",
      "taf": "TAF LPPR 281700Z 2818/2918 22010KT 9999 SCT025"
    },
    {
      "icao": "LPPS",
      "alert": "OK",
      "vis_m": 9999,
      "fzfg": false,
      "metar_trigger": false,
      "taf_trigger": false,
      "metar": "METAR LPPS 281830Z 29017KT 9999 SCT011 17/15 Q1018",
      "taf": "TAF LPPS 281700Z 2818/2924 27015KT 9999 SCT012 SCT030"
    },
    {
      "icao": "LPPT",
      "alert": "OK",
      "vis_m": 9999,
      "fzfg": false,
      "metar_trigger": false,
      "taf_trigger": false,
      "metar": "METAR LPPT 281830Z 22010KT 9999 SCT008 BKN012 14/13 Q1005",
      "taf": "TAF LPPT 281700Z 2818/2924 23012KT 9999 BKN016"
    },
    {
      "icao": "LQBK",
      "alert": "OK",
      "vis_m": 9999,
      "fzfg": false,
      "metar_trigger": false,
      "taf_trigger": false,
      "metar": "METAR LQBK 281830Z 31003KT 9999 -RA FEW040 BKN047 07/06 Q0991 NOSIG",
      "taf": ""
    },
    {
      "icao": "LQSA",
      "alert": "OK",
      "vis_m": 9999,
      "fzfg": false,
      "metar_trigger": false,
      "taf_trigger": false,
      "metar": "METAR LQSA 281830Z 15017G31KT 9999 SCT055 09/03 Q0992 NOSIG",
      "taf": "TAF LQSA 281700Z 2818/2918 15012KT 9999 SCT050 TX10/2914Z TN03/2905Z"
    },
    {
      "icao": "LQTZ",
      "alert": "OK",
      "vis_m": 9999,
      "fzfg": false,
      "metar_trigger": false,
      "taf_trigger": false,
      "metar": "METAR LQTZ 281830Z 11007KT CAVOK 10/04 Q0992",
      "taf": "TAF LQTZ 281700Z 2818/2918 10006KT 9999 SCT060 TX11/2913Z TN03/2905Z"
    },
    {
      "icao": "LRBC",
      "alert": "OK",
      "vis_m": 400,
      "fzfg": false,
      "metar_trigger": false,
      "taf_trigger": false,
      "metar": "METAR LRBC 281830Z 02002KT 0400 R16/0700N FG VV002 01/01 Q1000",
      "taf": "TAF LRBC 281700Z 2818/2903 14006KT 0300 FG VV001"
    },
    {
      "icao": "LRBS",
      "alert": "OK",
      "vis_m": 3000,
      "fzfg": false,
      "metar_trigger": false,
      "taf_trigger": false,
      "metar": "METAR LRBS 281830Z 00000KT 3000 MIFG BR NSC 05/04 Q1001 BECMG 1500 BR",
      "taf": "TAF LRBS 281700Z 2818/2918 VRB04KT 5000 BR SCT020"
    },
    {
      "icao": "LRBV",
      "alert": "OK",
      "vis_m": 9999,
      "fzfg": false,
      "metar_trigger": false,
      "taf_trigger": false,
      "metar": "METAR LRBV 281830Z 10003KT 060V150 CAVOK 03/01 Q0998",
      "taf": "TAF LRBV 281700Z 2818/2903 15006KT CAVOK"
    },
    {
      "icao": "LRCL",
      "alert": "OK",
      "vis_m": 9999,
      "fzfg": false,
      "metar_trigger": false,
      "taf_trigger": false,
      "metar": "METAR LRCL 281830Z 04002KT 9999 FEW004 BKN058 02/01 Q0999",
      "taf": "TAF LRCL 281700Z 2818/2903 VRB04KT 3000 BR BKN005"
    },
    {
      "icao": "LRCV",
      "alert": "OK",
      "vis_m": 2500,
      "fzfg": false,
      "metar_trigger": false,
      "taf_trigger": false,
      "metar": "METAR LRCV 281830Z 07006KT 2500 BR NSC 03/03 Q1000",
      "taf": "TAF LRCV 281700Z 2818/2903 08007KT 0200 FG OVC001"
    },
    {
      "icao": "LRIA",
      "alert": "OK",
      "vis_m": 150,
      "fzfg": false,
      "metar_trigger": false,
      "taf_trigger": false,
      "metar": "METAR LRIA 281830Z 09005KT 0150 R14/0550N FG VV001 02/02 Q1000",
      "taf": "TAF LRIA 281700Z 2818/2903 11007KT 0150 FG VV001"
    },
    {
      "icao": "LROP",
      "alert": "OK",
      "vis_m": 3500,
      "fzfg": false,
      "metar_trigger": false,
      "taf_trigger": false,
      "metar": "METAR LROP 281830Z 28003KT 3500 MIFG BR FEW001 03/03 Q1001 BECMG 1500 BR",
      "taf": "TAF LROP 281700Z 2818/2918 VRB04KT 5000 BR SCT020"
    },
    {
      "icao": "LRSB",
      "alert": "OK",
      "vis_m": 4500,
      "fzfg": false,
      "metar_trigger": false,
      "taf_trigger": false,
      "metar": "METAR LRSB 281830Z VRB02KT 4500 BR BKN085 03/03 Q0998",
      "taf": "TAF LRSB 281700Z 2818/2918 VRB04KT 3000 BR NSC"
    },
    {
      "icao": "LRSM",
      "alert": "OK",
      "vis_m": 9999,
      "fzfg": false,
      "metar_trigger": false,
      "taf_trigger": false,
      "metar": "METAR LRSM 281830Z AUTO 00000KT 9999 OVC041/// 03/02 Q0999",
      "taf": "TAF LRSM 281400Z 2815/2824 11005KT 9999 BKN040"
    },
    {
      "icao": "LRSV",
      "alert": "OK",
      "vis_m": 150,
      "fzfg": true,
      "metar_trigger": false,
      "taf_trigger": false,
      "metar": "METAR LRSV 281830Z 19003KT 0150 R34/0300N FZFG VV001 M00/M00 Q0999",
      "taf": "TAF LRSV 281700Z 2818/2903 VRB04KT 0150 FG VV001"
    },
    {
      "icao": "LRTM",
      "alert": "OK",
      "vis_m": 550,
      "fzfg": false,
      "metar_trigger": false,
      "taf_trigger": false,
      "metar": "METAR LRTM 281830Z AUTO 23004KT 0550 R07/0800D FG VV000 01/01 Q0999",
      "taf": "TAF LRTM 281400Z 2815/2824 VRB04KT 0300 FG BKN001 OVC005"
    },
    {
      "icao": "LRTR",
      "alert": "OK",
      "vis_m": 9999,
      "fzfg": false,
      "metar_trigger": false,
      "taf_trigger": false,
      "metar": "METAR LRTR 281830Z 10007KT CAVOK 06/03 Q0996",
      "taf": "TAF LRTR 281700Z 2818/2918 11007KT CAVOK"
    },
    {
      "icao": "LTAC",
      "alert": "OK",
      "vis_m": 9999,
      "fzfg": false,
      "metar_trigger": false,
      "taf_trigger": false,
      "metar": "METAR LTAC 281850Z VRB03KT 9999 SCT030 BKN080 05/03 Q1011 NOSIG RMK RWY21C 03002KT RWY03L VRB02KT RWY21R VRB02KT RWY03R 00000KT RWY21L VRB02KT",
      "taf": "TAF LTAC 281640Z 2818/2918 VRB02KT 9999 SCT040 BKN100"
    },
    {
      "icao": "LTFM",
      "alert": "OK",
      "vis_m": 9999,
      "fzfg": false,
      "metar_trigger": false,
      "taf_trigger": false,
      "metar": "METAR LTFM 281850Z 21014KT CAVOK 11/08 Q1007 NOSIG RMK RWY17L 21012KT RWY34L 20013KT RWY16R 21011KT RWY36 21014KT RWY18 21014KT",
      "taf": "TAF LTFM 281640Z 2818/2924 21014KT CAVOK"
    },
    {
      "icao": "LUKK",
      "alert": "OK",
      "vis_m": 9999,
      "fzfg": false,
      "metar_trigger": false,
      "taf_trigger": false,
      "metar": "METAR LUKK 281830Z 16006KT 9999 FEW006 OVC010 03/03 Q1002 NOSIG",
      "taf": "TAF LUKK 281729Z 2818/2918 14006KT 1000 -DZ BR OVC002"
    },
    {
      "icao": "LWOH",
      "alert": "OK",
      "vis_m": 9999,
      "fzfg": false,
      "metar_trigger": false,
      "taf_trigger": false,
      "metar": "METAR LWOH 281850Z 15017KT 9999 -DZ FEW015 OVC040 08/05 Q1001",
      "taf": "TAF LWOH 281745Z 2818/2918 VRB03KT 9999 -RA BKN040"
    },
    {
      "icao": "LWSK",
      "alert": "OK",
      "vis_m": 9999,
      "fzfg": false,
      "metar_trigger": false,
      "taf_trigger": false,
      "metar": "METAR LWSK 281850Z 36003KT 9999 SCT050 BKN090 04/02 Q1002 NOSIG",
      "taf": "TAF LWSK 281745Z 2818/2918 VRB02KT 9999 BKN060"
    },
    {
      "icao": "LYBE",
      "alert": "OK",
      "vis_m": 9999,
      "fzfg": false,
      "metar_trigger": false,
      "taf_trigger": false,
      "metar": "METAR LYBE 281830Z 14012KT CAVOK 10/03 Q0994 NOSIG",
      "taf": "TAF LYBE 281700Z 2818/2918 12014KT CAVOK TX14/2913Z TN06/2906Z"
    },
    {
      "icao": "LYNI",
      "alert": "OK",
      "vis_m": 9999,
      "fzfg": false,
      "metar_trigger": false,
      "taf_trigger": false,
      "metar": "METAR LYNI 281830Z 13006KT 110V170 9999 -RA BKN060 08/02 Q0999 NOSIG",
      "taf": "TAF LYNI 281700Z 2818/2918 15008KT 9999 BKN080 TX14/2913Z TN03/2906Z"
    },
    {
      "icao": "LYPG",
      "alert": "OK",
      "vis_m": 4000,
      "fzfg": false,
      "metar_trigger": false,
      "taf_trigger": false,
      "metar": "METAR LYPG 281830Z 25005KT 220V280 4000 TSRA FEW010 FEW030CB BKN050 08/08 Q0998 NOSIG",
      "taf": "TAF LYPG 281700Z 2818/2918 16006KT 2000 BR FEW010 BKN040 OVC070 TX13/2913Z TN04/2905Z"
    },
    {
      "icao": "LZIB",
      "alert": "OK",
      "vis_m": 9999,
      "fzfg": false,
      "metar_trigger": false,
      "taf_trigger": false,
      "metar": "METAR LZIB 281830Z 05010KT 9999 FEW010 BKN014 03/01 Q0994 TEMPO BKN010",
      "taf": "TAF LZIB 281715Z 2818/2918 06009KT 9999 BKN014 OVC030"
    },
    {
      "icao": "LZKZ",
      "alert": "OK",
      "vis_m": 4500,
      "fzfg": false,
      "metar_trigger": false,
      "taf_trigger": false,
      "metar": "METAR LZKZ 281830Z 35005KT 4500 -RA BR BKN010 OVC025 01/01 Q0998 NOSIG",
      "taf": "TAF LZKZ 281715Z 2818/2918 VRB02KT 5000 BR BKN009 OVC014"
    },
    {
      "icao": "LZTT",
      "alert": "OK",
      "vis_m": 4500,
      "fzfg": false,
      "metar_trigger": false,
      "taf_trigger": false,
      "metar": "METAR LZTT 281830Z 06001KT 4500 -SN OVC012 00/M01 Q0995",
      "taf": "TAF LZTT 281715Z 2818/2918 07005KT 9999 SCT009 BKN025"
    },
    {
      "icao": "OEJN",
      "alert": "OK",
      "vis_m": 9999,
      "fzfg": false,
      "metar_trigger": false,
      "taf_trigger": false,
      "metar": "METAR OEJN 281900Z 36008KT CAVOK 24/13 Q1017 NOSIG",
      "taf": "TAF OEJN 281700Z 2818/2924 04005KT 7000 SCT040"
    },
    {
      "icao": "OEMA",
      "alert": "OK",
      "vis_m": 9999,
      "fzfg": false,
      "metar_trigger": false,
      "taf_trigger": false,
      "metar": "METAR OEMA 281900Z 28008KT CAVOK 22/M06 Q1019 NOSIG",
      "taf": "TAF OEMA 281700Z 2818/2924 30004KT 7000 NSC"
    },
    {
      "icao": "OJAI",
      "alert": "OK",
      "vis_m": 4000,
      "fzfg": false,
      "metar_trigger": false,
      "taf_trigger": false,
      "metar": "METAR OJAI 281800Z 24008KT 4000 HZ SCT030 08/05 Q1018 NOSIG",
      "taf": "TAF OJAI 281700Z 2818/2924 24014KT 3000 BR SCT025TCU BKN030"
    },
    {
      "icao": "OMAA",
      "alert": "OK",
      "vis_m": 9999,
      "fzfg": false,
      "metar_trigger": false,
      "taf_trigger": false,
      "metar": "METAR OMAA 281900Z 05005KT CAVOK 19/14 Q1019 NOSIG",
      "taf": "TAF OMAA 281700Z 2818/3000 07005KT 8000 NSC"
    },
    {
      "icao": "OMDB",
      "alert": "OK",
      "vis_m": 9999,
      "fzfg": false,
      "metar_trigger": false,
      "taf_trigger": false,
      "metar": "METAR OMDB 281900Z 05006KT 010V090 CAVOK 21/14 Q1019 NOSIG",
      "taf": "TAF OMDB 281700Z 2818/3000 08005KT 8000 NSC"
    },
    {
      "icao": "UAAA",
      "alert": "OK",
      "vis_m": 250,
      "fzfg": true,
      "metar_trigger": false,
      "taf_trigger": false,
      "metar": "METAR UAAA 281830Z 28002MPS 240V320 0250 R23L/0800U FZFG VV002 M02/M02 Q1025 NOSIG RMK QBB080",
      "taf": "TAF UAAA 281706Z 2818/2918 20003MPS 0200 FZFG VV001 TXM01/2909Z TNM07/2902Z"
    },
    {
      "icao": "UBBB",
      "alert": "OK",
      "vis_m": 9999,
      "fzfg": false,
      "metar_trigger": false,
      "taf_trigger": false,
      "metar": "METAR UBBB 281900Z 17008KT 9999 OVC017 07/05 Q1016 NOSIG",
      "taf": "TAF UBBB 281701Z 2818/2918 15005KT 9999 SCT012 BKN025 TX09/2910Z TN04/2901Z"
    },
    {
      "icao": "UDSG",
      "alert": "OK",
      "vis_m": 2800,
      "fzfg": false,
      "metar_trigger": false,
      "taf_trigger": false,
      "metar": "METAR UDSG 281830Z 11002KT 2800 BR SCT040 M13/M14 Q1015 NOSIG",
      "taf": "TAF UDSG 281700Z 2818/2918 VRB06KT 2000 BR BKN020"
    },
    {
      "icao": "UDYZ",
      "alert": "OK",
      "vis_m": 3400,
      "fzfg": false,
      "metar_trigger": false,
      "taf_trigger": false,
      "metar": "METAR UDYZ 281830Z 21003KT 3400 BR BKN010 M04/M06 Q1018 NOSIG",
      "taf": "TAF UDYZ 281700Z 2818/2918 VRB04KT 3000 BR BKN010"
    },
    {
      "icao": "UGKO",
      "alert": "OK",
      "vis_m": 9999,
      "fzfg": false,
      "metar_trigger": false,
      "taf_trigger": false,
      "metar": "METAR UGKO 281830Z 10010KT CAVOK 09/M01 Q1010 NOSIG",
      "taf": "TAF UGKO 281700Z 2818/2918 09006KT CAVOK TX16/2911Z TN03/2905Z"
    }
  ]
}