{
  "ts_utc": "2026-01-03T10:25:54Z",
  "threshold_m": 150,
  "source": "stations_override.txt (ICAO list) + aviationweather.gov (METAR/TAF raw)",
  "station_count": 159,
  "stations": [
    {
      "icao": "BIKF",
      "alert": "OK",
      "vis_m": 9999,
      "fzfg": false,
      "metar_trigger": false,
      "taf_trigger": false,
      "metar": "METAR BIKF 031000Z 03008KT CAVOK M04/M08 Q1029",
      "taf": "TAF BIKF 030748Z 0309/0409 01008KT 9999 FEW030 TXM02/0403Z TNM08/0312Z"
    },
    {
      "icao": "BKPR",
      "alert": "OK",
      "vis_m": null,
      "fzfg": false,
      "metar_trigger": false,
      "taf_trigger": false,
      "metar": "",
      "taf": "TAF BKPR 030530Z 0306/0406 17008KT 9999 BKN030"
    },
    {
      "icao": "EBCI",
      "alert": "OK",
      "vis_m": 9999,
      "fzfg": false,
      "metar_trigger": false,
      "taf_trigger": false,
      "metar": "METAR EBCI 030950Z 26008KT 240V310 9999 SCT011 BKN017 M00/M01 Q1005 NOSIG",
      "taf": "TAF EBCI 030515Z 0306/0412 26010KT 9999 FEW015 SCT035"
    },
    {
      "icao": "EDDB",
      "alert": "OK",
      "vis_m": 3300,
      "fzfg": false,
      "metar_trigger": false,
      "taf_trigger": false,
      "metar": "METAR EDDB 031020Z AUTO 24016KT 3300 SN BR BKN006 BKN010 00/M00 Q0996 TEMPO 1000 SN BKN004",
      "taf": "TAF EDDB 030500Z 0306/0406 27012G22KT 9999 BKN015"
    },
    {
      "icao": "EDDH",
      "alert": "OK",
      "vis_m": 9999,
      "fzfg": false,
      "metar_trigger": false,
      "taf_trigger": false,
      "metar": "METAR EDDH 031020Z AUTO VRB01KT CAVOK M01/M02 Q0995 NOSIG",
      "taf": "TAF EDDH 030500Z 0306/0412 24008KT 4500 -SN BKN012"
    },
    {
      "icao": "EDDK",
      "alert": "OK",
      "vis_m": 9999,
      "fzfg": false,
      "metar_trigger": false,
      "taf_trigger": false,
      "metar": "METAR EDDK 031020Z AUTO 24012KT 9999 SHSN BKN022 BKN027 BKN034 FEW///CB 01/M03 Q1003 BECMG NSW",
      "taf": "TAF EDDK 030500Z 0306/0412 22006KT 9999 BKN030"
    },
    {
      "icao": "EDDN",
      "alert": "OK",
      "vis_m": 9999,
      "fzfg": false,
      "metar_trigger": false,
      "taf_trigger": false,
      "metar": "METAR EDDN 031020Z AUTO 24011KT 9999 BKN017 BKN024 M01/M05 Q1005 NOSIG",
      "taf": "TAF EDDN 030500Z 0306/0406 25010KT 9999 BKN020"
    },
    {
      "icao": "EDDS",
      "alert": "OK",
      "vis_m": 9999,
      "fzfg": false,
      "metar_trigger": false,
      "taf_trigger": false,
      "metar": "METAR EDDS 031020Z AUTO 22008KT 170V270 9999 BKN025 M01/M07 Q1006 NOSIG",
      "taf": "TAF EDDS 030500Z 0306/0406 22005KT 9999 SCT025"
    },
    {
      "icao": "EDFH",
      "alert": "OK",
      "vis_m": 9999,
      "fzfg": false,
      "metar_trigger": false,
      "taf_trigger": false,
      "metar": "METAR EDFH 030950Z 25013KT 9999 -SHSN SCT012CB BKN015CB OVC045 M03/M05 Q1002",
      "taf": "TAF EDFH 030500Z 0306/0406 26012KT 9999 BKN015"
    },
    {
      "icao": "EDJA",
      "alert": "OK",
      "vis_m": 9999,
      "fzfg": false,
      "metar_trigger": false,
      "taf_trigger": false,
      "metar": "METAR EDJA 030950Z 23006KT 9999 FEW010 M04/M06 Q1006",
      "taf": "TAF EDJA 030800Z 0309/0318 23007KT 9999 SCT035"
    },
    {
      "icao": "EDLW",
      "alert": "OK",
      "vis_m": 9999,
      "fzfg": false,
      "metar_trigger": false,
      "taf_trigger": false,
      "metar": "METAR EDLW 030950Z 22018KT 9999 BKN019 BKN024 00/M03 Q1000",
      "taf": "TAF EDLW 030500Z 0306/0406 24014KT 9999 SCT006 BKN015"
    },
    {
      "icao": "EDNY",
      "alert": "OK",
      "vis_m": 9999,
      "fzfg": false,
      "metar_trigger": false,
      "taf_trigger": false,
      "metar": "METAR EDNY 030950Z 26007KT 230V300 CAVOK M03/M04 Q1008",
      "taf": "TAF EDNY 030800Z 0309/0318 VRB02KT 9999 FEW020"
    },
    {
      "icao": "EDSB",
      "alert": "OK",
      "vis_m": 9999,
      "fzfg": false,
      "metar_trigger": false,
      "taf_trigger": false,
      "metar": "METAR EDSB 030950Z 20013KT 9999 FEW034 M01/M04 Q1008",
      "taf": "TAF EDSB 030500Z 0306/0406 20007KT 9999 SCT025"
    },
    {
      "icao": "EETN",
      "alert": "OK",
      "vis_m": 3300,
      "fzfg": false,
      "metar_trigger": false,
      "taf_trigger": false,
      "metar": "METAR EETN 031020Z 08009KT 3300 SN OVC017 M05/M06 Q0988 TEMPO 2000",
      "taf": "TAF EETN 030530Z 0306/0406 09008KT 9000 SCT007 BKN015"
    },
    {
      "icao": "EFTU",
      "alert": "OK",
      "vis_m": 9999,
      "fzfg": false,
      "metar_trigger": false,
      "taf_trigger": false,
      "metar": "METAR EFTU 031020Z AUTO 07011KT 9999 OVC009 M08/M10 Q0990",
      "taf": "TAF EFTU 030827Z 0309/0409 06012KT 9999 OVC008"
    },
    {
      "icao": "EGBB",
      "alert": "OK",
      "vis_m": 9999,
      "fzfg": false,
      "metar_trigger": false,
      "taf_trigger": false,
      "metar": "METAR EGBB 031020Z 31012KT CAVOK 01/M05 Q1010",
      "taf": "TAF EGBB 030453Z 0306/0406 30008KT CAVOK"
    },
    {
      "icao": "EGGP",
      "alert": "OK",
      "vis_m": 9999,
      "fzfg": false,
      "metar_trigger": false,
      "taf_trigger": false,
      "metar": "METAR EGGP 031020Z 34008KT 9999 FEW041 02/M05 Q1012",
      "taf": "TAF EGGP 030455Z 0306/0406 32009KT 9999 SCT030"
    },
    {
      "icao": "EGGW",
      "alert": "OK",
      "vis_m": 9999,
      "fzfg": false,
      "metar_trigger": false,
      "taf_trigger": false,
      "metar": "METAR EGGW 031020Z AUTO 32016KT 9999 NCD M01/M06 Q1008",
      "taf": "TAF EGGW 030454Z 0306/0406 30009KT 9999 FEW025"
    },
    {
      "icao": "EGKK",
      "alert": "OK",
      "vis_m": 9999,
      "fzfg": false,
      "metar_trigger": false,
      "taf_trigger": false,
      "metar": "METAR EGKK 031020Z 30010KT CAVOK 01/M05 Q1010",
      "taf": "TAF EGKK 030459Z 0306/0412 30010KT 9999 FEW030"
    },
    {
      "icao": "EGNM",
      "alert": "OK",
      "vis_m": 9999,
      "fzfg": false,
      "metar_trigger": false,
      "taf_trigger": false,
      "metar": "METAR EGNM 031020Z 29011KT 9999 FEW020CB M01/M06 Q1009",
      "taf": "TAF EGNM 030604Z 0306/0406 30015KT 9999 FEW030"
    },
    {
      "icao": "EGPD",
      "alert": "OK",
      "vis_m": 1000,
      "fzfg": false,
      "metar_trigger": false,
      "taf_trigger": false,
      "metar": "METAR EGPD 031020Z COR 33019KT 1000 R34/1300D SHSN -SHGS SCT008CB BKN012 00/M01 Q1009 RESHSN TEMPO 0600 +SHSN BKN006CB",
      "taf": ""
    },
    {
      "icao": "EGPF",
      "alert": "OK",
      "vis_m": 9999,
      "fzfg": false,
      "metar_trigger": false,
      "taf_trigger": false,
      "metar": "METAR EGPF 031020Z AUTO 26005KT 210V310 9999 NCD 01/M05 Q1014",
      "taf": "TAF EGPF 030456Z 0306/0406 30009KT 9999 FEW030"
    },
    {
      "icao": "EHBK",
      "alert": "OK",
      "vis_m": 2100,
      "fzfg": false,
      "metar_trigger": false,
      "taf_trigger": false,
      "metar": "METAR EHBK 030955Z AUTO 25007KT 210V280 2100 -SN FEW002 SCT003 BKN004 M00/M01 Q1003 RESN TEMPO 1200 SHSN BKN005 SCT015CB",
      "taf": "TAF EHBK 030509Z 0306/0412 22010KT 9999 SCT022"
    },
    {
      "icao": "EHEH",
      "alert": "OK",
      "vis_m": 4100,
      "fzfg": false,
      "metar_trigger": false,
      "taf_trigger": false,
      "metar": "SPECI EHEH 030956Z AUTO 23010KT 4100 -FZRA FEW005 SCT006 BKN008 00/M00 Q1002 GRN TEMPO 1500 -SHSN SCT005 SCT015CB RMK TREND REMOTE BY EHWX",
      "taf": "TAF EHEH 030540Z 0306/0412 24010KT SCT020 BKN025"
    },
    {
      "icao": "EKBI",
      "alert": "OK",
      "vis_m": 9999,
      "fzfg": false,
      "metar_trigger": false,
      "taf_trigger": false,
      "metar": "METAR EKBI 031020Z AUTO 21001KT 9999 BKN140/// M06/M08 Q0994",
      "taf": "TAF EKBI 030827Z 0309/0409 27005KT 9999 FEW030"
    },
    {
      "icao": "EKCH",
      "alert": "OK",
      "vis_m": 9999,
      "fzfg": false,
      "metar_trigger": false,
      "taf_trigger": false,
      "metar": "METAR EKCH 031020Z 28010KT 9999 FEW009 BKN040 M02/M04 Q0991 TEMPO 3000 BKN008",
      "taf": "TAF EKCH 030827Z 0309/0409 30010KT 9999 BKN020"
    },
    {
      "icao": "ENAL",
      "alert": "OK",
      "vis_m": 9999,
      "fzfg": false,
      "metar_trigger": false,
      "taf_trigger": false,
      "metar": "METAR ENAL 030950Z 08012KT CAVOK M05/M10 Q1002",
      "taf": "TAF ENAL 030800Z 0309/0318 08012KT CAVOK"
    },
    {
      "icao": "ENBR",
      "alert": "OK",
      "vis_m": 9999,
      "fzfg": false,
      "metar_trigger": false,
      "taf_trigger": false,
      "metar": "METAR ENBR 030950Z 01005KT CAVOK M06/M14 Q0999 NOSIG RMK WIND 1200FT 04013KT",
      "taf": "TAF ENBR 030500Z 0306/0406 01008KT CAVOK"
    },
    {
      "icao": "ENGM",
      "alert": "OK",
      "vis_m": 9000,
      "fzfg": false,
      "metar_trigger": false,
      "taf_trigger": false,
      "metar": "METAR ENGM 030950Z 01018KT 9000 -SN FEW045 M08/M13 Q0995 TEMPO 4000",
      "taf": "TAF ENGM 030500Z 0306/0406 36015KT 9000 -SN FEW025 BKN040"
    },
    {
      "icao": "ENHD",
      "alert": "OK",
      "vis_m": 9999,
      "fzfg": false,
      "metar_trigger": false,
      "taf_trigger": false,
      "metar": "METAR ENHD 030950Z 06006KT 020V090 CAVOK M05/M13 Q0998",
      "taf": "TAF ENHD 030800Z 0309/0318 01012KT CAVOK"
    },
    {
      "icao": "ENTC",
      "alert": "OK",
      "vis_m": 9999,
      "fzfg": false,
      "metar_trigger": false,
      "taf_trigger": false,
      "metar": "METAR ENTC 030950Z 21010KT 9999 FEW024 SCT038 BKN052 M05/M09 Q1001 NOSIG RMK WIND 2600FT 19012KT",
      "taf": "TAF ENTC 030500Z 0306/0406 29010KT 9999 -SHSN FEW020 BKN025"
    },
    {
      "icao": "ENTO",
      "alert": "OK",
      "vis_m": 9999,
      "fzfg": false,
      "metar_trigger": false,
      "taf_trigger": false,
      "metar": "METAR ENTO 030950Z 01015KT 9999 -SN OVC024 M06/M11 Q0994 TEMPO 01015G25KT",
      "taf": ""
    },
    {
      "icao": "ENVA",
      "alert": "OK",
      "vis_m": 9999,
      "fzfg": false,
      "metar_trigger": false,
      "taf_trigger": false,
      "metar": "METAR ENVA 030950Z 12006KT CAVOK M14/M15 Q1004 NOSIG RMK WIND 670FT 11008KT",
      "taf": "TAF ENVA 030500Z 0306/0406 11008KT CAVOK"
    },
    {
      "icao": "ENZV",
      "alert": "OK",
      "vis_m": 9999,
      "fzfg": false,
      "metar_trigger": false,
      "taf_trigger": false,
      "metar": "METAR ENZV 030950Z 03007KT CAVOK M05/M13 Q0997 NOSIG",
      "taf": "TAF ENZV 030500Z 0306/0406 10005KT CAVOK"
    },
    {
      "icao": "EPGD",
      "alert": "OK",
      "vis_m": 4000,
      "fzfg": false,
      "metar_trigger": false,
      "taf_trigger": false,
      "metar": "METAR EPGD 031000Z 25016KT 4000 -SHSN FEW002 BKN014CB M02/M04 Q0988 RESHSN",
      "taf": "TAF EPGD 030530Z 0306/0406 24015KT 6000 -SN BKN015"
    },
    {
      "icao": "EPKK",
      "alert": "OK",
      "vis_m": 9999,
      "fzfg": false,
      "metar_trigger": false,
      "taf_trigger": false,
      "metar": "METAR EPKK 031000Z 23009KT 9999 FEW015 M01/M04 Q1001",
      "taf": ""
    },
    {
      "icao": "EPKT",
      "alert": "OK",
      "vis_m": 9999,
      "fzfg": false,
      "metar_trigger": false,
      "taf_trigger": false,
      "metar": "METAR EPKT 031000Z 25019KT CAVOK M01/M05 Q1000",
      "taf": ""
    },
    {
      "icao": "EPLB",
      "alert": "OK",
      "vis_m": 9999,
      "fzfg": false,
      "metar_trigger": false,
      "taf_trigger": false,
      "metar": "METAR EPLB 031000Z 24016KT 9999 DRSN FEW030 BKN036 M01/M04 Q0997",
      "taf": "TAF EPLB 030530Z 0306/0406 22010KT 9999 BKN030"
    },
    {
      "icao": "EPMO",
      "alert": "OK",
      "vis_m": 2400,
      "fzfg": false,
      "metar_trigger": false,
      "taf_trigger": false,
      "metar": "METAR EPMO 031000Z 24014KT 2400 -SHSN DRSN BR FEW010 BKN014 SCT030CB M01/M02 Q0995 RESHSN",
      "taf": ""
    },
    {
      "icao": "EPPO",
      "alert": "OK",
      "vis_m": 9999,
      "fzfg": false,
      "metar_trigger": false,
      "taf_trigger": false,
      "metar": "METAR EPPO 031000Z 26012KT 9999 -SHSN FEW013CB BKN020 M00/M03 Q0996",
      "taf": "TAF EPPO 030530Z 0306/0406 26014KT 9999 FEW017"
    },
    {
      "icao": "EPRA",
      "alert": "OK",
      "vis_m": 9999,
      "fzfg": false,
      "metar_trigger": false,
      "taf_trigger": false,
      "metar": "METAR EPRA 031000Z 26015KT 9999 BKN025 OVC033 M01/M05 Q0997",
      "taf": "TAF EPRA 030830Z 0309/0318 25014KT 9999 BKN025"
    },
    {
      "icao": "EPRZ",
      "alert": "OK",
      "vis_m": 9999,
      "fzfg": false,
      "metar_trigger": false,
      "taf_trigger": false,
      "metar": "METAR EPRZ 031000Z 25019KT 9999 SCT030CB 01/M06 Q1000",
      "taf": ""
    },
    {
      "icao": "EPSC",
      "alert": "OK",
      "vis_m": 9999,
      "fzfg": false,
      "metar_trigger": false,
      "taf_trigger": false,
      "metar": "METAR EPSC 031000Z 24007KT 200V260 CAVOK M01/M05 Q0994",
      "taf": "TAF EPSC 030530Z 0306/0406 26012KT 9999 SCT035"
    },
    {
      "icao": "EPSY",
      "alert": "OK",
      "vis_m": 9999,
      "fzfg": false,
      "metar_trigger": false,
      "taf_trigger": false,
      "metar": "METAR EPSY 031000Z 24012KT 210V280 9999 -SHSN SCT011 BKN025CB M01/M04 Q0991",
      "taf": "TAF EPSY 030830Z 0309/0318 24012KT 9999 BKN020"
    },
    {
      "icao": "EPWA",
      "alert": "OK",
      "vis_m": 9999,
      "fzfg": false,
      "metar_trigger": false,
      "taf_trigger": false,
      "metar": "METAR EPWA 031000Z 26014KT 9999 -SHSN BKN028CB M01/M03 Q0995 RESHSN NOSIG",
      "taf": "TAF EPWA 030830Z 0309/0409 24012KT 9999 BKN030"
    },
    {
      "icao": "EPWR",
      "alert": "OK",
      "vis_m": 9999,
      "fzfg": false,
      "metar_trigger": false,
      "taf_trigger": false,
      "metar": "METAR EPWR 031000Z 26012KT CAVOK 02/M05 Q0999",
      "taf": "TAF EPWR 030830Z 0309/0409 26015KT 9999 FEW040"
    },
    {
      "icao": "ESGG",
      "alert": "OK",
      "vis_m": 4200,
      "fzfg": false,
      "metar_trigger": false,
      "taf_trigger": false,
      "metar": "METAR ESGG 031020Z 35009KT 4200 -SN OVC011 M07/M09 Q0989",
      "taf": ""
    },
    {
      "icao": "ESKN",
      "alert": "OK",
      "vis_m": 9999,
      "fzfg": false,
      "metar_trigger": false,
      "taf_trigger": false,
      "metar": "METAR ESKN 031020Z 01008KT 330V040 9999 BKN009 M02/M03 Q0984",
      "taf": ""
    },
    {
      "icao": "ESMS",
      "alert": "OK",
      "vis_m": 9999,
      "fzfg": false,
      "metar_trigger": false,
      "taf_trigger": false,
      "metar": "METAR ESMS 031020Z 32010KT 9999 4000NW SN SCT016 BKN021 M02/M04 Q0989",
      "taf": "TAF ESMS 030827Z 0309/0409 32015KT 9999 -SN BKN025"
    },
    {
      "icao": "ESSA",
      "alert": "OK",
      "vis_m": 7000,
      "fzfg": false,
      "metar_trigger": false,
      "taf_trigger": false,
      "metar": "METAR ESSA 031020Z 03016KT 7000 -SN OVC007 M03/M04 Q0986 TEMPO 2000 SN VV015",
      "taf": "TAF ESSA 030830Z 0309/0409 02018KT 7000 -SN BKN009"
    },
    {
      "icao": "EYKA",
      "alert": "OK",
      "vis_m": 9999,
      "fzfg": false,
      "metar_trigger": false,
      "taf_trigger": false,
      "metar": "METAR EYKA 031020Z 22006KT 190V260 9999 BKN016 BKN037 OVC044 00/M02 Q0989",
      "taf": "TAF EYKA 030500Z 0306/0406 VRB04KT 8000 BKN010 OVC015"
    },
    {
      "icao": "EYPA",
      "alert": "OK",
      "vis_m": 3000,
      "fzfg": false,
      "metar_trigger": false,
      "taf_trigger": false,
      "metar": "METAR EYPA 031020Z 16012KT 3000 SHRASN BKN005 BKN011CB 00/M01 Q0985",
      "taf": ""
    },
    {
      "icao": "EYVI",
      "alert": "OK",
      "vis_m": 9999,
      "fzfg": false,
      "metar_trigger": false,
      "taf_trigger": false,
      "metar": "METAR EYVI 031020Z 22010KT 9999 -SHSN BKN006CB M01/M01 Q0990 NOSIG",
      "taf": "TAF EYVI 030510Z 0306/0406 21010KT 9000 BKN005"
    },
    {
      "icao": "GCFV",
      "alert": "OK",
      "vis_m": 9999,
      "fzfg": false,
      "metar_trigger": false,
      "taf_trigger": false,
      "metar": "METAR GCFV 031000Z 26018KT 9999 FEW025 SCT045 19/13 Q1007",
      "taf": ""
    },
    {
      "icao": "GCLP",
      "alert": "OK",
      "vis_m": 9999,
      "fzfg": false,
      "metar_trigger": false,
      "taf_trigger": false,
      "metar": "METAR GCLP 031000Z 07003KT 330V120 9999 FEW040 20/15 Q1008 NOSIG",
      "taf": "TAF GCLP 030800Z 0309/0409 23010KT 9999 SCT035 TX23/0314Z TN16/0406Z"
    },
    {
      "icao": "GCTS",
      "alert": "OK",
      "vis_m": 9999,
      "fzfg": false,
      "metar_trigger": false,
      "taf_trigger": false,
      "metar": "METAR GCTS 031000Z 29017KT 9999 FEW040 20/12 Q1008 WS R25 NOSIG",
      "taf": "TAF GCTS 030800Z 0309/0409 28022KT 9999 FEW040 TX24/0314Z TN16/0406Z"
    },
    {
      "icao": "GMAD",
      "alert": "OK",
      "vis_m": 8000,
      "fzfg": false,
      "metar_trigger": false,
      "taf_trigger": false,
      "metar": "METAR GMAD 031000Z 06004KT 8000 SCT023TCU BKN030 15/15 Q1006 TEMPO 4000 RA",
      "taf": "TAF GMAD 030500Z 0306/0412 24008KT 6000 BKN20TCU BKN080"
    },
    {
      "icao": "GMMN",
      "alert": "OK",
      "vis_m": 9999,
      "fzfg": false,
      "metar_trigger": false,
      "taf_trigger": false,
      "metar": "METAR GMMN 031000Z 18015KT 9999 SCT020 BKN040 14/11 Q1002 RERA NOSIG",
      "taf": "TAF GMMN 030500Z 0306/0412 18020KT 9999 SCT030 SCT100"
    },
    {
      "icao": "GMMX",
      "alert": "OK",
      "vis_m": 9999,
      "fzfg": false,
      "metar_trigger": false,
      "taf_trigger": false,
      "metar": "METAR GMMX 031000Z 08007KT 9999 FEW016 SCT023 15/12 Q1003 NOSIG",
      "taf": "TAF GMMX 030500Z 0306/0412 22004KT 6000 RA SCT016 BKN023"
    },
    {
      "icao": "HEGN",
      "alert": "OK",
      "vis_m": 9999,
      "fzfg": false,
      "metar_trigger": false,
      "taf_trigger": false,
      "metar": "METAR HEGN 031000Z 33010KT CAVOK 21/08 Q1023 NOSIG",
      "taf": "TAF HEGN 030500Z 0306/0412 34018KT CAVOK"
    },
    {
      "icao": "HEMA",
      "alert": "OK",
      "vis_m": 9999,
      "fzfg": false,
      "metar_trigger": false,
      "taf_trigger": false,
      "metar": "METAR HEMA 031000Z 34021KT 9999 BKN025 21/12 Q1021 NOSIG",
      "taf": "TAF HEMA 030500Z 0306/0412 36018KT CAVOK"
    },
    {
      "icao": "HESH",
      "alert": "OK",
      "vis_m": 9999,
      "fzfg": false,
      "metar_trigger": false,
      "taf_trigger": false,
      "metar": "METAR HESH 031000Z 36014KT CAVOK 21/09 Q1022 NOSIG",
      "taf": "TAF HESH 030500Z 0306/0412 03012KT CAVOK"
    },
    {
      "icao": "HESX",
      "alert": "OK",
      "vis_m": 9999,
      "fzfg": false,
      "metar_trigger": false,
      "taf_trigger": false,
      "metar": "METAR HESX 031000Z 01010KT CAVOK 17/03 Q1026 NOSIG",
      "taf": "TAF HESX 030500Z 0306/0412 02008KT 9999 SCT020"
    },
    {
      "icao": "LATI",
      "alert": "OK",
      "vis_m": 9999,
      "fzfg": false,
      "metar_trigger": false,
      "taf_trigger": false,
      "metar": "METAR LATI 031020Z COR 13009KT 9999 RA FEW006 SCT023 OVC049 11/09 Q1010 NOSIG",
      "taf": "TAF LATI 030500Z 0306/0406 14013KT 9999 SCT025 BKN070 TX14/0318Z TN12/0403Z"
    },
    {
      "icao": "LBPD",
      "alert": "OK",
      "vis_m": 9999,
      "fzfg": false,
      "metar_trigger": false,
      "taf_trigger": false,
      "metar": "METAR LBPD 031000Z AUTO VRB03KT 9999 FEW074/// BKN093/// 02/M05 Q1007 NOSIG",
      "taf": "TAF LBPD 030500Z 0306/0406 VRB03KT 9999 SCT020 BKN080"
    },
    {
      "icao": "LBSF",
      "alert": "OK",
      "vis_m": 9999,
      "fzfg": false,
      "metar_trigger": false,
      "taf_trigger": false,
      "metar": "METAR LBSF 031000Z 19005KT 130V280 9999 SCT068 13/01 Q1004 TEMPO 21016G28KT",
      "taf": "TAF LBSF 030500Z 0306/0406 08012KT 9999 SCT025 SCT050"
    },
    {
      "icao": "LBWN",
      "alert": "OK",
      "vis_m": 9999,
      "fzfg": false,
      "metar_trigger": false,
      "taf_trigger": false,
      "metar": "METAR LBWN 031000Z 24007KT 210V270 9999 FEW040 15/05 Q1005 TEMPO 23018G28KT",
      "taf": "TAF LBWN 030500Z 0306/0406 30010KT CAVOK"
    },
    {
      "icao": "LCLK",
      "alert": "OK",
      "vis_m": 9999,
      "fzfg": false,
      "metar_trigger": false,
      "taf_trigger": false,
      "metar": "METAR LCLK 031000Z 34004KT 300V020 9999 FEW030 17/05 Q1027 NOSIG",
      "taf": "TAF LCLK 030530Z 0306/0406 33007KT 9999 FEW040"
    },
    {
      "icao": "LCPH",
      "alert": "OK",
      "vis_m": 9999,
      "fzfg": false,
      "metar_trigger": false,
      "taf_trigger": false,
      "metar": "METAR LCPH 031000Z 15005KT 100V170 9999 FEW030 SCT060 17/06 Q1027 NOSIG",
      "taf": "TAF LCPH 030530Z 0306/0406 04006KT 9999 SCT045"
    },
    {
      "icao": "LEAL",
      "alert": "OK",
      "vis_m": 9999,
      "fzfg": false,
      "metar_trigger": false,
      "taf_trigger": false,
      "metar": "METAR LEAL 031000Z 34005KT 300V040 9999 BKN045 15/10 Q1005 NOSIG",
      "taf": "TAF LEAL 030500Z 0306/0406 VRB05KT CAVOK TX17/0314Z TN09/0306Z"
    },
    {
      "icao": "LEBB",
      "alert": "OK",
      "vis_m": 9999,
      "fzfg": false,
      "metar_trigger": false,
      "taf_trigger": false,
      "metar": "METAR LEBB 031000Z 06003KT 010V130 9999 -RA SCT014 BKN025 07/06 Q1011 TEMPO BKN010",
      "taf": ""
    },
    {
      "icao": "LEBL",
      "alert": "OK",
      "vis_m": 9999,
      "fzfg": false,
      "metar_trigger": false,
      "taf_trigger": false,
      "metar": "METAR LEBL 031000Z 07010KT 9999 BKN027 12/07 Q1009 NOSIG",
      "taf": ""
    },
    {
      "icao": "LECH",
      "alert": "OK",
      "vis_m": 9000,
      "fzfg": false,
      "metar_trigger": false,
      "taf_trigger": false,
      "metar": "METAR LECH 031000Z AUTO 03006KT 360V070 9000 NSC 11/07 Q1008",
      "taf": ""
    },
    {
      "icao": "LEMD",
      "alert": "OK",
      "vis_m": 9999,
      "fzfg": false,
      "metar_trigger": false,
      "taf_trigger": false,
      "metar": "METAR LEMD 031000Z VRB01KT 9999 BKN075 07/07 Q1006 NOSIG",
      "taf": "TAF LEMD 030500Z 0306/0412 VRB03KT CAVOK TX13/0314Z TN05/0307Z"
    },
    {
      "icao": "LEMG",
      "alert": "OK",
      "vis_m": 9999,
      "fzfg": false,
      "metar_trigger": false,
      "taf_trigger": false,
      "metar": "METAR LEMG 031000Z 26007KT 9999 FEW040 BKN080 13/11 Q1004 NOSIG",
      "taf": "TAF LEMG 030500Z 0306/0406 29005KT 9999 FEW015 TX18/0314Z TN10/0307Z"
    },
    {
      "icao": "LEVC",
      "alert": "OK",
      "vis_m": 5000,
      "fzfg": false,
      "metar_trigger": false,
      "taf_trigger": false,
      "metar": "METAR LEVC 031000Z 33007KT 5000 BR FEW001 BKN011 11/10 Q1007 NOSIG",
      "taf": ""
    },
    {
      "icao": "LEXJ",
      "alert": "OK",
      "vis_m": 7000,
      "fzfg": false,
      "metar_trigger": false,
      "taf_trigger": false,
      "metar": "METAR LEXJ 031000Z 09007KT 060V120 7000 -RA OVC022 08/05 Q1011",
      "taf": "TAF LEXJ 030800Z 0309/0409 08009KT 8000 SCT070 TX10/0313Z TN05/0408Z"
    },
    {
      "icao": "LEZG",
      "alert": "OK",
      "vis_m": 200,
      "fzfg": false,
      "metar_trigger": false,
      "taf_trigger": false,
      "metar": "METAR LEZG 031000Z 00000KT 0200 R30R/0650N R12R/0550N R30L/0375U R12L/0450N FG VV002 04/04 Q1008 NOSIG",
      "taf": "TAF LEZG 030500Z 0306/0406 VRB04KT CAVOK TX11/0315Z TN05/0306Z"
    },
    {
      "icao": "LEZL",
      "alert": "OK",
      "vis_m": 9999,
      "fzfg": false,
      "metar_trigger": false,
      "taf_trigger": false,
      "metar": "METAR LEZL 031000Z 13008KT 100V170 9999 FEW042 16/12 Q1003 NOSIG",
      "taf": "TAF LEZL 030800Z 0309/0409 08008KT 9999 SCT030 TX19/0315Z TN09/0407Z"
    },
    {
      "icao": "LFBD",
      "alert": "OK",
      "vis_m": 1700,
      "fzfg": true,
      "metar_trigger": false,
      "taf_trigger": false,
      "metar": "METAR LFBD 031000Z AUTO 06009KT 1700 BR OVC002 M00/M00 Q1013",
      "taf": "TAF LFBD 030500Z 0306/0412 VRB03KT 0500 FZFG VV/// TX03/0313Z TNM04/0406Z"
    },
    {
      "icao": "LFLL",
      "alert": "OK",
      "vis_m": 9999,
      "fzfg": false,
      "metar_trigger": false,
      "taf_trigger": false,
      "metar": "METAR LFLL 031000Z 34007KT 9999 FEW021 01/M02 Q1011 NOSIG",
      "taf": ""
    },
    {
      "icao": "LFLS",
      "alert": "OK",
      "vis_m": 9999,
      "fzfg": false,
      "metar_trigger": false,
      "taf_trigger": false,
      "metar": "METAR LFLS 031000Z AUTO 36006KT 330V030 9999 BKN014 BKN039 01/M02 Q1010 BECMG NSC",
      "taf": "TAF LFLS 030800Z 0309/0409 35006KT 9999 OVC013"
    },
    {
      "icao": "LFMN",
      "alert": "OK",
      "vis_m": 9999,
      "fzfg": false,
      "metar_trigger": false,
      "taf_trigger": false,
      "metar": "METAR LFMN 031000Z 33014KT 9999 SCT030 07/M05 Q1003 NOSIG",
      "taf": "TAF LFMN 030800Z 0309/0415 33012KT 9999 SCT030"
    },
    {
      "icao": "LFOB",
      "alert": "OK",
      "vis_m": 9999,
      "fzfg": false,
      "metar_trigger": false,
      "taf_trigger": false,
      "metar": "METAR LFOB 031000Z AUTO 29010KT 9999 FEW033 02/M00 Q1009 NOSIG",
      "taf": "TAF LFOB 030500Z 0306/0406 28008KT CAVOK"
    },
    {
      "icao": "LFPO",
      "alert": "OK",
      "vis_m": 9999,
      "fzfg": false,
      "metar_trigger": false,
      "taf_trigger": false,
      "metar": "METAR LFPO 031000Z AUTO 27008KT 9999 FEW030 SCT082 00/M01 Q1010",
      "taf": ""
    },
    {
      "icao": "LFSB",
      "alert": "OK",
      "vis_m": 9999,
      "fzfg": false,
      "metar_trigger": false,
      "taf_trigger": false,
      "metar": "METAR LFSB 031000Z AUTO 29011KT 9999 SCT019 M01/M04 Q1010 NOSIG",
      "taf": "TAF LFSB 030511Z 0306/0406 26010KT 9999 FEW010"
    },
    {
      "icao": "LGAV",
      "alert": "OK",
      "vis_m": 9999,
      "fzfg": false,
      "metar_trigger": false,
      "taf_trigger": false,
      "metar": "METAR LGAV 031020Z 21018KT 9999 FEW020 SCT040 17/10 Q1016 NOSIG",
      "taf": "TAF LGAV 030500Z 0306/0406 21018G30KT 9999 FEW025"
    },
    {
      "icao": "LGTS",
      "alert": "OK",
      "vis_m": 9999,
      "fzfg": false,
      "metar_trigger": false,
      "taf_trigger": false,
      "metar": "METAR LGTS 030950Z VRB03KT 9999 FEW015 SCT025 07/02 Q1011 NOSIG",
      "taf": "TAF LGTS 030500Z 0306/0406 VRB03KT 9999 SCT025"
    },
    {
      "icao": "LHBP",
      "alert": "OK",
      "vis_m": 9999,
      "fzfg": false,
      "metar_trigger": false,
      "taf_trigger": false,
      "metar": "METAR LHBP 031000Z 30010KT 9999 FEW044 04/M06 Q1007 NOSIG",
      "taf": "TAF LHBP 030515Z 0306/0406 25007KT 9999 OVC005"
    },
    {
      "icao": "LHDC",
      "alert": "OK",
      "vis_m": 9999,
      "fzfg": false,
      "metar_trigger": false,
      "taf_trigger": false,
      "metar": "METAR LHDC 030945Z AUTO 24009KT CAVOK 02/M00 Q1006 NOSIG",
      "taf": "TAF LHDC 030815Z 0309/0318 25012KT CAVOK"
    },
    {
      "icao": "LIBD",
      "alert": "OK",
      "vis_m": 9999,
      "fzfg": false,
      "metar_trigger": false,
      "taf_trigger": false,
      "metar": "METAR LIBD 031020Z 16004KT CAVOK 15/10 Q1006",
      "taf": "TAF LIBD 030500Z 0306/0406 23011KT 9999 SCT035"
    },
    {
      "icao": "LIBG",
      "alert": "OK",
      "vis_m": 9999,
      "fzfg": false,
      "metar_trigger": false,
      "taf_trigger": false,
      "metar": "METAR LIBG 030950Z 22009KT 9999 FEW030 16/14 Q1008",
      "taf": "TAF LIBG 030800Z 0309/0318 22012KT 9999 SCT040"
    },
    {
      "icao": "LIBP",
      "alert": "OK",
      "vis_m": 9999,
      "fzfg": false,
      "metar_trigger": false,
      "taf_trigger": false,
      "metar": "METAR LIBP 030950Z AUTO 35006KT 9999 BKN220/// 15/06 Q1005",
      "taf": "TAF LIBP 030500Z 0306/0406 23012KT 9999 SCT020"
    },
    {
      "icao": "LIBR",
      "alert": "OK",
      "vis_m": 9999,
      "fzfg": false,
      "metar_trigger": false,
      "taf_trigger": false,
      "metar": "METAR LIBR 031020Z 22011KT CAVOK 16/10 Q1008",
      "taf": "TAF LIBR 030500Z 0306/0406 21015KT 9999 SCT030"
    },
    {
      "icao": "LICA",
      "alert": "OK",
      "vis_m": 9999,
      "fzfg": false,
      "metar_trigger": false,
      "taf_trigger": false,
      "metar": "METAR LICA 030950Z AUTO 08006KT 9999 NCD 16/10 Q1011",
      "taf": "TAF LICA 030500Z 0306/0406 07010KT 9999 SCT040"
    },
    {
      "icao": "LICC",
      "alert": "OK",
      "vis_m": 9999,
      "fzfg": false,
      "metar_trigger": false,
      "taf_trigger": false,
      "metar": "METAR LICC 031020Z 27013KT 9999 SCT030 18/14 Q1013",
      "taf": "TAF LICC 030500Z 0306/0406 25013KT 9999 SCT030"
    },
    {
      "icao": "LICJ",
      "alert": "OK",
      "vis_m": 9999,
      "fzfg": false,
      "metar_trigger": false,
      "taf_trigger": false,
      "metar": "METAR LICJ 031020Z AUTO 20018KT 9999 NCD 17/10 Q1010",
      "taf": "TAF LICJ 030500Z 0306/0406 19018G30KT CAVOK"
    },
    {
      "icao": "LIMC",
      "alert": "OK",
      "vis_m": 3000,
      "fzfg": false,
      "metar_trigger": false,
      "taf_trigger": false,
      "metar": "METAR LIMC 030950Z 14006KT 3000 0900S R35R/P2000N R17L/1900D R35L/1300D PRFG SCT002 M01/M02 Q1005 NOSIG",
      "taf": "TAF LIMC 030500Z 0306/0412 VRB04KT CAVOK"
    },
    {
      "icao": "LIME",
      "alert": "OK",
      "vis_m": 300,
      "fzfg": true,
      "metar_trigger": false,
      "taf_trigger": false,
      "metar": "METAR LIME 030950Z VRB02KT 0300 R28/0450N FZFG BKN002 M01/M01 Q1005 NOSIG",
      "taf": "TAF LIME 030500Z 0306/0406 VRB04KT 0300 FZFG NSC"
    },
    {
      "icao": "LIMF",
      "alert": "OK",
      "vis_m": 9999,
      "fzfg": false,
      "metar_trigger": false,
      "taf_trigger": false,
      "metar": "METAR LIMF 030950Z VRB02KT CAVOK 04/M03 Q1004",
      "taf": "TAF LIMF 030500Z 0306/0406 VRB04KT CAVOK"
    },
    {
      "icao": "LIMJ",
      "alert": "OK",
      "vis_m": 9999,
      "fzfg": false,
      "metar_trigger": false,
      "taf_trigger": false,
      "metar": "METAR LIMJ 030950Z 03015KT CAVOK 08/00 Q1003",
      "taf": "TAF LIMJ 030500Z 0306/0406 03013KT CAVOK"
    },
    {
      "icao": "LIPE",
      "alert": "OK",
      "vis_m": 100,
      "fzfg": false,
      "metar_trigger": false,
      "taf_trigger": false,
      "metar": "METAR LIPE 031020Z 24005KT 0100 R12/0400N R30/0400N FG VV001 01/01 Q1006",
      "taf": "TAF LIPE 030500Z 0306/0406 VRB05KT 0600 FG BKN002"
    },
    {
      "icao": "LIPH",
      "alert": "OK",
      "vis_m": 9999,
      "fzfg": false,
      "metar_trigger": false,
      "taf_trigger": false,
      "metar": "METAR LIPH 031020Z VRB02KT CAVOK 04/M01 Q1005",
      "taf": "TAF LIPH 030500Z 0306/0406 VRB04KT 9999 SCT040"
    },
    {
      "icao": "LIPQ",
      "alert": "OK",
      "vis_m": 9999,
      "fzfg": false,
      "metar_trigger": false,
      "taf_trigger": false,
      "metar": "METAR LIPQ 031020Z AUTO VRB02KT 9999 NCD 10/02 Q1005",
      "taf": "TAF LIPQ 030500Z 0306/0406 VRB05KT 9999 SCT020"
    },
    {
      "icao": "LIPR",
      "alert": "OK",
      "vis_m": 1000,
      "fzfg": false,
      "metar_trigger": false,
      "taf_trigger": false,
      "metar": "METAR LIPR 031020Z 28004KT 1000 R30/1300U BR SCT002 03/03 Q1006",
      "taf": "TAF LIPR 030500Z 0306/0406 VRB06KT 7000 SCT050"
    },
    {
      "icao": "LIPX",
      "alert": "OK",
      "vis_m": 1500,
      "fzfg": false,
      "metar_trigger": false,
      "taf_trigger": false,
      "metar": "METAR LIPX 031020Z VRB01KT 1500 PRFG OVC004 02/02 Q1005",
      "taf": "TAF LIPX 030500Z 0306/0406 VRB04KT 3000 BR FEW020"
    },
    {
      "icao": "LIPY",
      "alert": "OK",
      "vis_m": 5000,
      "fzfg": false,
      "metar_trigger": false,
      "taf_trigger": false,
      "metar": "METAR LIPY 030950Z AUTO 33005KT 300V010 5000 BR BKN005/// 06/05 Q1006",
      "taf": ""
    },
    {
      "icao": "LIPZ",
      "alert": "OK",
      "vis_m": 9999,
      "fzfg": false,
      "metar_trigger": false,
      "taf_trigger": false,
      "metar": "METAR LIPZ 031020Z 36004KT 320V030 CAVOK 05/M01 Q1005 NOSIG",
      "taf": "TAF LIPZ 030500Z 0306/0412 VRB05KT 9999 FEW020"
    },
    {
      "icao": "LIRF",
      "alert": "OK",
      "vis_m": 9000,
      "fzfg": false,
      "metar_trigger": false,
      "taf_trigger": false,
      "metar": "METAR LIRF 030950Z 24010KT 9000 BKN025 15/11 Q1006 NOSIG",
      "taf": "TAF LIRF 030500Z 0306/0412 24014KT 9999 SCT020"
    },
    {
      "icao": "LIRN",
      "alert": "OK",
      "vis_m": 9999,
      "fzfg": false,
      "metar_trigger": false,
      "taf_trigger": false,
      "metar": "METAR LIRN 030950Z 22012KT 9999 FEW030 16/12 Q1008 NOSIG",
      "taf": "TAF LIRN 030500Z 0306/0406 23013KT 9999 BKN030"
    },
    {
      "icao": "LIRP",
      "alert": "OK",
      "vis_m": 9999,
      "fzfg": false,
      "metar_trigger": false,
      "taf_trigger": false,
      "metar": "METAR LIRP 030945Z 24015KT 9999 FEW025 SCT030 13/06 Q1003 NOSIG",
      "taf": "TAF LIRP 030500Z 0306/0406 23012KT 9999 BKN040"
    },
    {
      "icao": "LIRZ",
      "alert": "OK",
      "vis_m": 9999,
      "fzfg": false,
      "metar_trigger": false,
      "taf_trigger": false,
      "metar": "METAR LIRZ 030950Z AUTO 31002KT 9999 FEW037/// 11/08 Q1005",
      "taf": "TAF LIRZ 030500Z 0306/0406 VRB05KT 9999 SCT030"
    },
    {
      "icao": "LJLJ",
      "alert": "OK",
      "vis_m": 9999,
      "fzfg": false,
      "metar_trigger": false,
      "taf_trigger": false,
      "metar": "METAR LJLJ 031000Z 13004KT 060V160 9999 FEW007 BKN015 03/01 Q1007 NOSIG",
      "taf": ""
    },
    {
      "icao": "LKMT",
      "alert": "OK",
      "vis_m": 9999,
      "fzfg": false,
      "metar_trigger": false,
      "taf_trigger": false,
      "metar": "METAR LKMT 031000Z 21015KT 9999 BKN038 M00/M05 Q1003 NOSIG",
      "taf": "TAF LKMT 030500Z 0306/0406 22015KT 9999 SCT040"
    },
    {
      "icao": "LKPR",
      "alert": "OK",
      "vis_m": 9999,
      "fzfg": false,
      "metar_trigger": false,
      "taf_trigger": false,
      "metar": "METAR LKPR 031000Z 21022KT 9999 FEW026 M01/M04 Q1001 NOSIG",
      "taf": "TAF LKPR 030800Z 0309/0415 23012KT 9999 BKN035"
    },
    {
      "icao": "LLBG",
      "alert": "OK",
      "vis_m": 9999,
      "fzfg": false,
      "metar_trigger": false,
      "taf_trigger": false,
      "metar": "METAR LLBG 031020Z 36007KT 9999 FEW050 17/05 Q1026 NOSIG",
      "taf": "TAF LLBG 030508Z 0306/0406 VRB03KT CAVOK"
    },
    {
      "icao": "LMML",
      "alert": "OK",
      "vis_m": 9999,
      "fzfg": false,
      "metar_trigger": false,
      "taf_trigger": false,
      "metar": "METAR LMML 031015Z 21014KT 170V240 9999 FEW025 18/12 Q1015 NOSIG",
      "taf": "TAF LMML 030500Z 0306/0406 24020KT 9999 FEW020"
    },
    {
      "icao": "LOWW",
      "alert": "OK",
      "vis_m": 9999,
      "fzfg": false,
      "metar_trigger": false,
      "taf_trigger": false,
      "metar": "METAR LOWW 031020Z 29015G26KT 260V320 CAVOK 04/M07 Q1006 WS R29 NOSIG",
      "taf": ""
    },
    {
      "icao": "LPFR",
      "alert": "OK",
      "vis_m": 7000,
      "fzfg": false,
      "metar_trigger": false,
      "taf_trigger": false,
      "metar": "METAR LPFR 031000Z 16014KT 7000 -RA SCT012 FEW018CB SCT025 16/14 Q0999",
      "taf": "TAF LPFR 030500Z 0306/0406 18015KT 9999 SCT015 SCT030"
    },
    {
      "icao": "LPMA",
      "alert": "OK",
      "vis_m": 9999,
      "fzfg": false,
      "metar_trigger": false,
      "taf_trigger": false,
      "metar": "METAR LPMA 031000Z 32011G22KT 250V360 9999 SCT015 FEW018CB 17/10 Q0999",
      "taf": ""
    },
    {
      "icao": "LPPR",
      "alert": "OK",
      "vis_m": 9999,
      "fzfg": false,
      "metar_trigger": false,
      "taf_trigger": false,
      "metar": "METAR LPPR 031000Z 09009KT 050V130 9999 FEW048 15/09 Q1001",
      "taf": "TAF LPPR 030500Z 0306/0406 08010KT 9999 FEW035"
    },
    {
      "icao": "LPPS",
      "alert": "OK",
      "vis_m": 9999,
      "fzfg": false,
      "metar_trigger": false,
      "taf_trigger": false,
      "metar": "METAR LPPS 031000Z 31024G34KT 9999 SCT014 17/13 Q0998",
      "taf": ""
    },
    {
      "icao": "LPPT",
      "alert": "OK",
      "vis_m": 2000,
      "fzfg": false,
      "metar_trigger": false,
      "taf_trigger": false,
      "metar": "METAR LPPT 031000Z 11008KT 070V150 2000 RADZ BKN002 13/13 Q0998",
      "taf": ""
    },
    {
      "icao": "LQBK",
      "alert": "OK",
      "vis_m": 9999,
      "fzfg": false,
      "metar_trigger": false,
      "taf_trigger": false,
      "metar": "METAR LQBK 031000Z 15006KT 9999 -SG FEW020 BKN045 01/01 Q1010 NOSIG",
      "taf": ""
    },
    {
      "icao": "LQSA",
      "alert": "OK",
      "vis_m": 9999,
      "fzfg": false,
      "metar_trigger": false,
      "taf_trigger": false,
      "metar": "METAR LQSA 031000Z 33011KT 300V360 9999 SCT015 BKN055 06/04 Q1006 NOSIG",
      "taf": "TAF LQSA 030500Z 0306/0406 16006KT 9999 BKN045 TX08/0312Z TN01/0319Z"
    },
    {
      "icao": "LQTZ",
      "alert": "OK",
      "vis_m": 1300,
      "fzfg": false,
      "metar_trigger": false,
      "taf_trigger": false,
      "metar": "METAR LQTZ 031000Z 30004KT 1300 R09/1200N SN BR SCT004 BKN008 OVC016 00/00 Q1010",
      "taf": "TAF LQTZ 030500Z 0306/0406 27005KT 9999 SCT015 BKN030 TX03/0313Z TNM00/0406Z"
    },
    {
      "icao": "LRBC",
      "alert": "OK",
      "vis_m": 9999,
      "fzfg": false,
      "metar_trigger": false,
      "taf_trigger": false,
      "metar": "METAR LRBC 031000Z 17003KT 140V200 9999 FEW028 SCT037 05/01 Q1002",
      "taf": "TAF LRBC 030800Z 0309/0318 VRB04KT 9999 BKN040"
    },
    {
      "icao": "LRBS",
      "alert": "OK",
      "vis_m": 9999,
      "fzfg": false,
      "metar_trigger": false,
      "taf_trigger": false,
      "metar": "METAR LRBS 031000Z 32003KT 250V030 CAVOK 06/01 Q1003 NOSIG",
      "taf": "TAF LRBS 030500Z 0306/0406 VRB04KT 9999 SCT045"
    },
    {
      "icao": "LRBV",
      "alert": "OK",
      "vis_m": 1500,
      "fzfg": false,
      "metar_trigger": false,
      "taf_trigger": false,
      "metar": "METAR LRBV 031000Z 23004KT 200V260 1500 -SN BR FEW007 BKN030 00/M01 Q1004",
      "taf": ""
    },
    {
      "icao": "LRCL",
      "alert": "OK",
      "vis_m": 8000,
      "fzfg": false,
      "metar_trigger": false,
      "taf_trigger": false,
      "metar": "METAR LRCL 031000Z VRB01KT 8000 SCT013 BKN033 OVC058 01/00 Q1005",
      "taf": "TAF LRCL 030800Z 0309/0318 VRB04KT 3000 -SN BR BKN015 OVC030"
    },
    {
      "icao": "LRCV",
      "alert": "OK",
      "vis_m": 9999,
      "fzfg": false,
      "metar_trigger": false,
      "taf_trigger": false,
      "metar": "METAR LRCV 031000Z 36004KT 9999 -RA FEW030 OVC048 02/01 Q1004",
      "taf": "TAF LRCV 030800Z 0309/0318 01006KT 9999 SCT045"
    },
    {
      "icao": "LRIA",
      "alert": "OK",
      "vis_m": 9999,
      "fzfg": false,
      "metar_trigger": false,
      "taf_trigger": false,
      "metar": "METAR LRIA 031000Z 23005KT 180V280 CAVOK 04/02 Q1001",
      "taf": "TAF LRIA 030800Z 0309/0318 18008KT 9999 BKN045"
    },
    {
      "icao": "LROP",
      "alert": "OK",
      "vis_m": 9999,
      "fzfg": false,
      "metar_trigger": false,
      "taf_trigger": false,
      "metar": "METAR LROP 031000Z 33005KT CAVOK 07/00 Q1003 NOSIG",
      "taf": "TAF LROP 030500Z 0306/0406 VRB04KT 9999 SCT045"
    },
    {
      "icao": "LRSB",
      "alert": "OK",
      "vis_m": 6000,
      "fzfg": false,
      "metar_trigger": false,
      "taf_trigger": false,
      "metar": "METAR LRSB 031000Z COR VRB01KT 6000 -SN FEW013 BKN022 BKN031 02/02 Q1005 NOSIG",
      "taf": "TAF LRSB 030500Z 0306/0406 VRB04KT 1500 SN BKN005 OVC015"
    },
    {
      "icao": "LRSM",
      "alert": "OK",
      "vis_m": 9999,
      "fzfg": false,
      "metar_trigger": false,
      "taf_trigger": false,
      "metar": "METAR LRSM 031000Z AUTO 24011KT 9999 FEW008/// SCT010/// BKN055/// 02/M00 Q1005",
      "taf": ""
    },
    {
      "icao": "LRSV",
      "alert": "OK",
      "vis_m": 9999,
      "fzfg": false,
      "metar_trigger": false,
      "taf_trigger": false,
      "metar": "METAR LRSV 031000Z 28007KT CAVOK 02/M04 Q1000",
      "taf": "TAF LRSV 030800Z 0309/0318 26008KT CAVOK"
    },
    {
      "icao": "LRTM",
      "alert": "OK",
      "vis_m": 2500,
      "fzfg": false,
      "metar_trigger": false,
      "taf_trigger": false,
      "metar": "METAR LRTM 031000Z 24005KT 2500 -SN BR SCT004 BKN011 BKN026 00/00 Q1005",
      "taf": "TAF LRTM 030800Z 0309/0318 24006KT 3000 -SN BR BKN005 OVC015"
    },
    {
      "icao": "LRTR",
      "alert": "OK",
      "vis_m": 9999,
      "fzfg": false,
      "metar_trigger": false,
      "taf_trigger": false,
      "metar": "METAR LRTR 031000Z 30005KT 9999 FEW025 SCT041 01/01 Q1008",
      "taf": "TAF LRTR 030500Z 0306/0406 05007KT 5000 -SN SCT005 OVC015"
    },
    {
      "icao": "LTAC",
      "alert": "OK",
      "vis_m": 9999,
      "fzfg": false,
      "metar_trigger": false,
      "taf_trigger": false,
      "metar": "METAR LTAC 030950Z 11003KT 050V160 9999 SCT040 BKN100 M04/M10 Q1022 NOSIG RMK RWY21C 11004KT 070V140 RWY03L VRB02KT RWY21R 11004KT RWY03R 08003KT 020V180 RWY21L 12003KT",
      "taf": "TAF LTAC 030440Z 0306/0406 VRB02KT CAVOK"
    },
    {
      "icao": "LTFM",
      "alert": "OK",
      "vis_m": 9999,
      "fzfg": false,
      "metar_trigger": false,
      "taf_trigger": false,
      "metar": "METAR LTFM 030950Z 21034G44KT 9999 SCT035 BKN090 12/06 Q1011 RESHRA NOSIG RMK RWY17L 21032G44KT RWY34L 20028G40KT RWY16R 21030G44KT RWY36 21033G43KT RWY18 22036G46KT",
      "taf": "TAF LTFM 030440Z 0306/0412 20026G38KT 9999 SCT035 BKN090"
    },
    {
      "icao": "LUKK",
      "alert": "OK",
      "vis_m": 9999,
      "fzfg": false,
      "metar_trigger": false,
      "taf_trigger": false,
      "metar": "METAR LUKK 031000Z 33006KT 290V360 CAVOK 04/M01 Q1002 NOSIG",
      "taf": "TAF LUKK 030508Z 0306/0406 VRB06KT 9999 SCT035"
    },
    {
      "icao": "LWOH",
      "alert": "OK",
      "vis_m": 8000,
      "fzfg": false,
      "metar_trigger": false,
      "taf_trigger": false,
      "metar": "METAR LWOH 031020Z 16016KT 8000 RA SCT020 OVC035 08/05 Q1009",
      "taf": "TAF LWOH 030820Z 0309/0409 16014KT 9999 BKN035"
    },
    {
      "icao": "LWSK",
      "alert": "OK",
      "vis_m": 9999,
      "fzfg": false,
      "metar_trigger": false,
      "taf_trigger": false,
      "metar": "METAR LWSK 031020Z COR 21002KT 9999 FEW040 SCT060 07/01 Q1007 NOSIG",
      "taf": "TAF LWSK 030820Z 0309/0409 VRB03KT 9999 BKN040"
    },
    {
      "icao": "LYBE",
      "alert": "OK",
      "vis_m": 3000,
      "fzfg": false,
      "metar_trigger": false,
      "taf_trigger": false,
      "metar": "METAR LYBE 031000Z 22006KT 3000 -SN SCT002 BKN013 00/00 Q1009 NOSIG",
      "taf": "TAF LYBE 030500Z 0306/0406 02012KT 9999 BKN006 TX02/0313Z TN01/0307Z"
    },
    {
      "icao": "LYNI",
      "alert": "OK",
      "vis_m": 7000,
      "fzfg": false,
      "metar_trigger": false,
      "taf_trigger": false,
      "metar": "METAR LYNI 031000Z 33022KT 300V360 7000 RA SCT015 BKN033 OVC067 05/03 Q1006 NOSIG",
      "taf": "TAF LYNI 030500Z 0306/0406 16008KT 9999 BKN040 TX08/0309Z TN01/0318Z"
    },
    {
      "icao": "LYPG",
      "alert": "OK",
      "vis_m": 8000,
      "fzfg": false,
      "metar_trigger": false,
      "taf_trigger": false,
      "metar": "METAR LYPG 031000Z 12008KT 8000 -RA FEW020 SCT034 OVC070 11/10 Q1008 NOSIG",
      "taf": "TAF LYPG 030500Z 0306/0406 15008KT 9999 FEW020 BKN040 OVC080 TX13/0315Z TN10/0306Z"
    },
    {
      "icao": "LZIB",
      "alert": "OK",
      "vis_m": 9999,
      "fzfg": false,
      "metar_trigger": false,
      "taf_trigger": false,
      "metar": "METAR LZIB 031000Z 29018KT CAVOK 04/M07 Q1005 NOSIG",
      "taf": "TAF LZIB 030515Z 0306/0406 29013KT CAVOK"
    },
    {
      "icao": "LZKZ",
      "alert": "OK",
      "vis_m": 9999,
      "fzfg": false,
      "metar_trigger": false,
      "taf_trigger": false,
      "metar": "METAR LZKZ 031000Z 24012KT 9999 FEW040 02/M04 Q1002 NOSIG",
      "taf": "TAF LZKZ 030515Z 0306/0406 24008KT CAVOK"
    },
    {
      "icao": "LZTT",
      "alert": "OK",
      "vis_m": 9999,
      "fzfg": false,
      "metar_trigger": false,
      "taf_trigger": false,
      "metar": "METAR LZTT 031000Z 28022KT 9999 VCSH FEW010 SCT030 M02/M08 Q1000 NOSIG",
      "taf": "TAF LZTT 030515Z 0306/0406 25010KT 9999 FEW040"
    },
    {
      "icao": "OEJN",
      "alert": "OK",
      "vis_m": 9999,
      "fzfg": false,
      "metar_trigger": false,
      "taf_trigger": false,
      "metar": "METAR OEJN 031000Z 27008KT CAVOK 29/16 Q1015 NOSIG",
      "taf": "TAF OEJN 030500Z 0306/0412 32010KT CAVOK"
    },
    {
      "icao": "OEMA",
      "alert": "OK",
      "vis_m": 9999,
      "fzfg": false,
      "metar_trigger": false,
      "taf_trigger": false,
      "metar": "METAR OEMA 031000Z VRB03KT CAVOK 25/M02 Q1020 NOSIG",
      "taf": "TAF OEMA 030500Z 0306/0412 06008KT CAVOK"
    },
    {
      "icao": "OJAI",
      "alert": "OK",
      "vis_m": 4000,
      "fzfg": false,
      "metar_trigger": false,
      "taf_trigger": false,
      "metar": "METAR OJAI 031000Z 11004KT 4000 HZ FEW020 10/04 Q1027 NOSIG",
      "taf": "TAF OJAI 030443Z 0306/0412 VRB02KT 3000 BR SCT035"
    },
    {
      "icao": "OMAA",
      "alert": "OK",
      "vis_m": 9999,
      "fzfg": false,
      "metar_trigger": false,
      "taf_trigger": false,
      "metar": "METAR OMAA 031000Z 31009KT 280V340 9999 FEW045 23/16 Q1018 NOSIG",
      "taf": "TAF OMAA 030500Z 0306/0412 VRB02KT 7000 NSC"
    },
    {
      "icao": "OMDB",
      "alert": "OK",
      "vis_m": 9999,
      "fzfg": false,
      "metar_trigger": false,
      "taf_trigger": false,
      "metar": "METAR OMDB 031000Z 33008KT 270V060 9999 FEW030 25/15 Q1017 NOSIG",
      "taf": "TAF OMDB 030500Z 0306/0412 19005KT 3000 HZ NSC"
    },
    {
      "icao": "UAAA",
      "alert": "OK",
      "vis_m": 100,
      "fzfg": false,
      "metar_trigger": false,
      "taf_trigger": false,
      "metar": "SPECI UAAA 031022Z VRB01MPS 0100 R23L/0175N FG VV001 01/00 Q1021 NOSIG RMK QBB040",
      "taf": ""
    },
    {
      "icao": "UBBB",
      "alert": "OK",
      "vis_m": 9999,
      "fzfg": false,
      "metar_trigger": false,
      "taf_trigger": false,
      "metar": "METAR UBBB 031000Z 19014KT CAVOK 07/02 Q1025 NOSIG",
      "taf": "TAF UBBB 030501Z 0306/0406 18012KT 9999 SCT030 TX07/0310Z TN02/0401Z"
    },
    {
      "icao": "UDSG",
      "alert": "OK",
      "vis_m": 9999,
      "fzfg": false,
      "metar_trigger": false,
      "taf_trigger": false,
      "metar": "METAR UDSG 031000Z 00000KT 9999 NSC M13/M19 Q1025 NOSIG",
      "taf": "TAF UDSG 030458Z 0306/0406 VRB06KT 9999 FEW040"
    },
    {
      "icao": "UDYZ",
      "alert": "OK",
      "vis_m": 9999,
      "fzfg": false,
      "metar_trigger": false,
      "taf_trigger": false,
      "metar": "METAR UDYZ 031000Z 13001KT 9999 NSC M04/M15 Q1029 NOSIG",
      "taf": "TAF UDYZ 030500Z 0306/0406 VRB06KT 9999 NSC"
    },
    {
      "icao": "UGKO",
      "alert": "OK",
      "vis_m": 9999,
      "fzfg": false,
      "metar_trigger": false,
      "taf_trigger": false,
      "metar": "METAR UGKO 031000Z 09017G27KT CAVOK 05/M05 Q1023 NOSIG",
      "taf": "TAF UGKO 030500Z 0306/0406 08017KT CAVOK TX05/0311Z TNM02/0402Z"
    }
  ]
}