{
  "ts_utc": "2026-02-05T14:28:43Z",
  "threshold_m": 150,
  "source": "stations_override.txt (ICAO list) + aviationweather.gov (METAR/TAF raw)",
  "station_count": 159,
  "stations": [
    {
      "icao": "BIKF",
      "alert": "OK",
      "vis_m": 9999,
      "fzfg": false,
      "metar_trigger": false,
      "taf_trigger": false,
      "metar": "METAR BIKF 051400Z 02006KT CAVOK 02/M05 Q1006",
      "taf": "TAF BIKF 051344Z 0515/0615 05008KT CAVOK TX04/0615Z TNM01/0603Z"
    },
    {
      "icao": "BKPR",
      "alert": "OK",
      "vis_m": null,
      "fzfg": false,
      "metar_trigger": false,
      "taf_trigger": false,
      "metar": "",
      "taf": "TAF BKPR 051130Z 0512/0612 19007KT 9999 SCT050"
    },
    {
      "icao": "EBCI",
      "alert": "OK",
      "vis_m": 9999,
      "fzfg": false,
      "metar_trigger": false,
      "taf_trigger": false,
      "metar": "METAR EBCI 051420Z 14006KT 9999 -RA SCT012 BKN014 07/05 Q0987 TEMPO BKN015",
      "taf": "TAF EBCI 051101Z 0512/0618 14007KT 9999 -RA BKN018"
    },
    {
      "icao": "EDDB",
      "alert": "OK",
      "vis_m": 3600,
      "fzfg": false,
      "metar_trigger": false,
      "taf_trigger": false,
      "metar": "METAR EDDB 051420Z AUTO 09008KT 3600 BR OVC005 M02/M03 Q0997 TEMPO 2500 -FZRA OVC004",
      "taf": "TAF EDDB 051100Z 0512/0612 08007KT 5000 BR OVC004"
    },
    {
      "icao": "EDDH",
      "alert": "OK",
      "vis_m": 9999,
      "fzfg": false,
      "metar_trigger": false,
      "taf_trigger": false,
      "metar": "METAR EDDH 051420Z AUTO 09009KT 9999 OVC011 M03/M05 Q0997 TEMPO BKN008",
      "taf": "TAF EDDH 051100Z 0512/0618 08009KT 8000 OVC007"
    },
    {
      "icao": "EDDK",
      "alert": "OK",
      "vis_m": 9999,
      "fzfg": false,
      "metar_trigger": false,
      "taf_trigger": false,
      "metar": "METAR EDDK 051420Z AUTO 13011KT 100V160 9999 SCT020 06/02 Q0990 NOSIG",
      "taf": "TAF EDDK 051100Z 0512/0618 11009KT 9999 SCT030"
    },
    {
      "icao": "EDDN",
      "alert": "OK",
      "vis_m": 9999,
      "fzfg": false,
      "metar_trigger": false,
      "taf_trigger": false,
      "metar": "METAR EDDN 051420Z AUTO VRB04KT 9999 OVC013 03/M00 Q0993 NOSIG",
      "taf": "TAF EDDN 051100Z 0512/0612 VRB03KT 9999 BKN007"
    },
    {
      "icao": "EDDS",
      "alert": "OK",
      "vis_m": 9999,
      "fzfg": false,
      "metar_trigger": false,
      "taf_trigger": false,
      "metar": "METAR EDDS 051420Z AUTO 06003KT 030V100 CAVOK 07/01 Q0990 NOSIG",
      "taf": "TAF EDDS 051100Z 0512/0612 10004KT 3000 BR BKN002"
    },
    {
      "icao": "EDFH",
      "alert": "OK",
      "vis_m": 250,
      "fzfg": true,
      "metar_trigger": false,
      "taf_trigger": false,
      "metar": "METAR EDFH 051420Z 14015KT 0250 R21/0350N FG VV/// 01/01 Q0989",
      "taf": "TAF EDFH 051100Z 0512/0612 14012KT 0200 FZFG VV001"
    },
    {
      "icao": "EDJA",
      "alert": "OK",
      "vis_m": 9999,
      "fzfg": false,
      "metar_trigger": false,
      "taf_trigger": false,
      "metar": "METAR EDJA 051420Z 02007KT CAVOK 07/01 Q0991",
      "taf": "TAF EDJA 051400Z 0515/0524 VRB03KT CAVOK"
    },
    {
      "icao": "EDLW",
      "alert": "OK",
      "vis_m": 9999,
      "fzfg": false,
      "metar_trigger": false,
      "taf_trigger": false,
      "metar": "METAR EDLW 051420Z 04010KT CAVOK 05/01 Q0990",
      "taf": "TAF EDLW 051100Z 0512/0612 07007KT 9999 SCT025"
    },
    {
      "icao": "EDNY",
      "alert": "OK",
      "vis_m": 9999,
      "fzfg": false,
      "metar_trigger": false,
      "taf_trigger": false,
      "metar": "METAR EDNY 051420Z 22003KT 190V260 CAVOK 06/02 Q0991",
      "taf": "TAF EDNY 051400Z 0515/0524 03005KT CAVOK"
    },
    {
      "icao": "EDSB",
      "alert": "OK",
      "vis_m": 9999,
      "fzfg": false,
      "metar_trigger": false,
      "taf_trigger": false,
      "metar": "METAR EDSB 051420Z 02010KT CAVOK 04/02 Q0991",
      "taf": "TAF EDSB 051100Z 0512/0612 02004KT 8000 OVC007"
    },
    {
      "icao": "EETN",
      "alert": "OK",
      "vis_m": 9999,
      "fzfg": false,
      "metar_trigger": false,
      "taf_trigger": false,
      "metar": "METAR EETN 051420Z 08007KT CAVOK M12/M14 Q1018 NOSIG",
      "taf": "TAF EETN 051130Z 0512/0612 10010KT 9999 SCT030"
    },
    {
      "icao": "EFTU",
      "alert": "OK",
      "vis_m": 9999,
      "fzfg": false,
      "metar_trigger": false,
      "taf_trigger": false,
      "metar": "METAR EFTU 051420Z AUTO 08007KT 9999 -SHSN OVC011 M11/M13 Q1019",
      "taf": ""
    },
    {
      "icao": "EGBB",
      "alert": "OK",
      "vis_m": 5000,
      "fzfg": false,
      "metar_trigger": false,
      "taf_trigger": false,
      "metar": "METAR EGBB 051420Z 09013G29KT 050V170 5000 -RADZ OVC006 05/04 Q0982",
      "taf": "TAF EGBB 051054Z 0512/0612 09012KT 9999 -RA BKN012"
    },
    {
      "icao": "EGGP",
      "alert": "OK",
      "vis_m": 9999,
      "fzfg": false,
      "metar_trigger": false,
      "taf_trigger": false,
      "metar": "METAR EGGP 051420Z 09020KT 9999 -RA SCT024 BKN030 04/01 Q0983",
      "taf": "TAF EGGP 051058Z 0512/0612 09020G30KT 9999 SCT017"
    },
    {
      "icao": "EGGW",
      "alert": "OK",
      "vis_m": 3700,
      "fzfg": false,
      "metar_trigger": false,
      "taf_trigger": false,
      "metar": "METAR EGGW 051420Z AUTO 10013KT 3700 BR OVC003 06/05 Q0982",
      "taf": "TAF EGGW 051100Z 0512/0612 10013KT 7000 -RA SCT005 BKN010"
    },
    {
      "icao": "EGKK",
      "alert": "OK",
      "vis_m": 9000,
      "fzfg": false,
      "metar_trigger": false,
      "taf_trigger": false,
      "metar": "METAR EGKK 051420Z 10007KT 9000 BKN005 09/09 Q0982",
      "taf": "TAF EGKK 051105Z 0512/0618 09010KT 9999 SCT007 BKN020"
    },
    {
      "icao": "EGNM",
      "alert": "OK",
      "vis_m": 3500,
      "fzfg": false,
      "metar_trigger": false,
      "taf_trigger": false,
      "metar": "METAR EGNM 051420Z 08015G26KT 3500 -RASN BR OVC003 02/01 Q0987",
      "taf": ""
    },
    {
      "icao": "EGPD",
      "alert": "OK",
      "vis_m": 4500,
      "fzfg": false,
      "metar_trigger": false,
      "taf_trigger": false,
      "metar": "METAR EGPD 051420Z AUTO 10017KT 4500 RADZ BKN010 OVC026 03/01 Q0998 TEMPO 6000 -RADZ",
      "taf": ""
    },
    {
      "icao": "EGPF",
      "alert": "OK",
      "vis_m": 9999,
      "fzfg": false,
      "metar_trigger": false,
      "taf_trigger": false,
      "metar": "METAR EGPF 051420Z AUTO 07023KT 9999 BKN021 BKN029 BKN040 05/01 Q0991",
      "taf": "TAF EGPF 051107Z 0512/0612 08018G30KT 9999 SCT020"
    },
    {
      "icao": "EHBK",
      "alert": "OK",
      "vis_m": 9999,
      "fzfg": false,
      "metar_trigger": false,
      "taf_trigger": false,
      "metar": "METAR EHBK 051425Z AUTO 09007KT 9999 BKN046 08/04 Q0988 NOSIG",
      "taf": "TAF EHBK 051111Z 0512/0618 10008KT 9999 BKN045"
    },
    {
      "icao": "EHEH",
      "alert": "OK",
      "vis_m": null,
      "fzfg": false,
      "metar_trigger": false,
      "taf_trigger": false,
      "metar": "",
      "taf": "TAF EHEH 051134Z 0512/0618 10008KT CAVOK"
    },
    {
      "icao": "EKBI",
      "alert": "OK",
      "vis_m": 1900,
      "fzfg": false,
      "metar_trigger": false,
      "taf_trigger": false,
      "metar": "METAR EKBI 051419Z 07020G30KT 1900 -SN DRSN OVC007 M02/M03 Q1001",
      "taf": ""
    },
    {
      "icao": "EKCH",
      "alert": "OK",
      "vis_m": 600,
      "fzfg": false,
      "metar_trigger": false,
      "taf_trigger": false,
      "metar": "METAR EKCH 051420Z 07020KT 0600 R22L/1200N R04L/1200N R12/P1500N SN BKN004 M01/M02 Q1003 TEMPO 3000 BKN005",
      "taf": "TAF EKCH 051127Z 0512/0612 08016G28KT 9999 BKN010"
    },
    {
      "icao": "ENAL",
      "alert": "OK",
      "vis_m": 9999,
      "fzfg": false,
      "metar_trigger": false,
      "taf_trigger": false,
      "metar": "METAR ENAL 051420Z 06009KT CAVOK M01/M11 Q1010",
      "taf": "TAF ENAL 051100Z 0512/0521 06008KT CAVOK"
    },
    {
      "icao": "ENBR",
      "alert": "OK",
      "vis_m": 9999,
      "fzfg": false,
      "metar_trigger": false,
      "taf_trigger": false,
      "metar": "METAR ENBR 051420Z 36002KT CAVOK 00/M10 Q1008 NOSIG RMK WIND 1200FT VRB02KT",
      "taf": "TAF ENBR 051100Z 0512/0612 04005KT CAVOK"
    },
    {
      "icao": "ENGM",
      "alert": "OK",
      "vis_m": 9999,
      "fzfg": false,
      "metar_trigger": false,
      "taf_trigger": false,
      "metar": "METAR ENGM 051420Z 03006KT 9999 VCSH BKN024 M10/M15 Q1015 NOSIG",
      "taf": "TAF ENGM 051100Z 0512/0612 02008KT 9999 SCT025"
    },
    {
      "icao": "ENHD",
      "alert": "OK",
      "vis_m": 9999,
      "fzfg": false,
      "metar_trigger": false,
      "taf_trigger": false,
      "metar": "METAR ENHD 051420Z 04003KT 310V080 CAVOK 02/M13 Q1007",
      "taf": "TAF ENHD 051100Z 0512/0521 06008KT CAVOK"
    },
    {
      "icao": "ENTC",
      "alert": "OK",
      "vis_m": 9999,
      "fzfg": false,
      "metar_trigger": false,
      "taf_trigger": false,
      "metar": "METAR ENTC 051420Z VRB02KT 9999 -SHSN VV018 M00/M01 Q1015 TEMPO 2000 -SN BKN007 RMK WIND 2600FT 31015KT",
      "taf": ""
    },
    {
      "icao": "ENTO",
      "alert": "OK",
      "vis_m": 7000,
      "fzfg": false,
      "metar_trigger": false,
      "taf_trigger": false,
      "metar": "METAR ENTO 051420Z 03014KT 7000 -SN OVC022 M07/M11 Q1014 NOSIG",
      "taf": "TAF ENTO 051100Z 0512/0612 03012KT 8000 -SN BKN025"
    },
    {
      "icao": "ENVA",
      "alert": "OK",
      "vis_m": 9999,
      "fzfg": false,
      "metar_trigger": false,
      "taf_trigger": false,
      "metar": "METAR ENVA 051420Z 09007KT CAVOK M06/M18 Q1013 NOSIG RMK WIND 670FT 13012KT",
      "taf": "TAF ENVA 051100Z 0512/0612 10008KT CAVOK"
    },
    {
      "icao": "ENZV",
      "alert": "OK",
      "vis_m": 9999,
      "fzfg": false,
      "metar_trigger": false,
      "taf_trigger": false,
      "metar": "METAR ENZV 051420Z 07011KT CAVOK 01/M12 Q1007 NOSIG",
      "taf": "TAF ENZV 051100Z 0512/0612 08008KT CAVOK"
    },
    {
      "icao": "EPGD",
      "alert": "OK",
      "vis_m": 4800,
      "fzfg": false,
      "metar_trigger": false,
      "taf_trigger": false,
      "metar": "METAR EPGD 051400Z 09009KT 4800 -FZRA BR OVC003 M05/M06 Q1003 REFZDZ",
      "taf": ""
    },
    {
      "icao": "EPKK",
      "alert": "OK",
      "vis_m": 7000,
      "fzfg": false,
      "metar_trigger": false,
      "taf_trigger": false,
      "metar": "METAR EPKK 051400Z 07011KT 7000 FEW011 03/00 Q0998",
      "taf": "TAF EPKK 051130Z 0512/0612 06008KT 4500 BR OVC007"
    },
    {
      "icao": "EPKT",
      "alert": "OK",
      "vis_m": 9000,
      "fzfg": false,
      "metar_trigger": false,
      "taf_trigger": false,
      "metar": "METAR EPKT 051400Z 05007KT 9000 -RA FEW049 03/01 Q0997",
      "taf": "TAF EPKT 051130Z 0512/0612 09006KT 7000 BKN030"
    },
    {
      "icao": "EPLB",
      "alert": "OK",
      "vis_m": 6000,
      "fzfg": false,
      "metar_trigger": false,
      "taf_trigger": false,
      "metar": "METAR EPLB 051400Z 10013KT 6000 OVC003 M00/M00 Q1002",
      "taf": "TAF EPLB 051130Z 0512/0612 10012KT 3000 BR OVC002"
    },
    {
      "icao": "EPMO",
      "alert": "OK",
      "vis_m": 7000,
      "fzfg": false,
      "metar_trigger": false,
      "taf_trigger": false,
      "metar": "METAR EPMO 051400Z 08013KT 7000 OVC007 M02/M02 Q1002",
      "taf": "TAF EPMO 051130Z 0512/0612 09011KT 9000 OVC008"
    },
    {
      "icao": "EPPO",
      "alert": "OK",
      "vis_m": 4700,
      "fzfg": false,
      "metar_trigger": false,
      "taf_trigger": false,
      "metar": "METAR EPPO 051400Z 10010KT 4700 BR OVC006 M02/M03 Q0999",
      "taf": "TAF EPPO 051130Z 0512/0612 10008KT 6000 OVC006"
    },
    {
      "icao": "EPRA",
      "alert": "OK",
      "vis_m": 1200,
      "fzfg": false,
      "metar_trigger": false,
      "taf_trigger": false,
      "metar": "METAR EPRA 051400Z 09011KT 1200 R07/1400D BR OVC002 M00/M01 Q1001",
      "taf": ""
    },
    {
      "icao": "EPRZ",
      "alert": "OK",
      "vis_m": 9999,
      "fzfg": false,
      "metar_trigger": false,
      "taf_trigger": false,
      "metar": "METAR EPRZ 051400Z 08014KT 9999 OVC004 02/01 Q0999",
      "taf": "TAF EPRZ 051130Z 0512/0612 09012KT 8000 OVC004"
    },
    {
      "icao": "EPSC",
      "alert": "OK",
      "vis_m": 8000,
      "fzfg": false,
      "metar_trigger": false,
      "taf_trigger": false,
      "metar": "METAR EPSC 051400Z 07006KT 8000 SCT008 OVC009 M03/M04 Q0999 REFZRA",
      "taf": "TAF EPSC 051130Z 0512/0612 08008KT 8000 OVC010"
    },
    {
      "icao": "EPSY",
      "alert": "OK",
      "vis_m": 9000,
      "fzfg": false,
      "metar_trigger": false,
      "taf_trigger": false,
      "metar": "METAR EPSY 051400Z 09007KT 050V130 9000 OVC009 M04/M06 Q1004",
      "taf": "TAF EPSY 051130Z 0512/0521 10010KT 7000 OVC008"
    },
    {
      "icao": "EPWA",
      "alert": "OK",
      "vis_m": 9000,
      "fzfg": false,
      "metar_trigger": false,
      "taf_trigger": false,
      "metar": "METAR EPWA 051400Z 10013KT 9000 OVC007 M01/M02 Q1002 NOSIG",
      "taf": "TAF EPWA 051130Z 0512/0612 09011KT 9999 OVC007"
    },
    {
      "icao": "EPWR",
      "alert": "OK",
      "vis_m": 2300,
      "fzfg": false,
      "metar_trigger": false,
      "taf_trigger": false,
      "metar": "METAR EPWR 051400Z 10008KT 2300 BR OVC002 00/M00 Q0998",
      "taf": ""
    },
    {
      "icao": "ESGG",
      "alert": "OK",
      "vis_m": 9999,
      "fzfg": false,
      "metar_trigger": false,
      "taf_trigger": false,
      "metar": "METAR ESGG 051420Z 05015KT CAVOK M03/M08 Q1007",
      "taf": "TAF ESGG 051130Z 0512/0612 07014G24KT 9999 SCT040"
    },
    {
      "icao": "ESKN",
      "alert": "OK",
      "vis_m": 9999,
      "fzfg": false,
      "metar_trigger": false,
      "taf_trigger": false,
      "metar": "METAR ESKN 051420Z AUTO 04007KT 010V070 9999 OVC019/// M04/M06 Q1014",
      "taf": ""
    },
    {
      "icao": "ESMS",
      "alert": "OK",
      "vis_m": 1200,
      "fzfg": false,
      "metar_trigger": false,
      "taf_trigger": false,
      "metar": "METAR ESMS 051420Z 08021KT 1200 R17/1800N R35/1900D -SN VV008 M01/M02 Q1002",
      "taf": "TAF ESMS 051127Z 0512/0612 08018G33KT 7000 BKN006"
    },
    {
      "icao": "ESSA",
      "alert": "OK",
      "vis_m": 9999,
      "fzfg": false,
      "metar_trigger": false,
      "taf_trigger": false,
      "metar": "METAR ESSA 051420Z 08013KT 9999 BKN017 M05/M09 Q1016 TEMPO BKN014",
      "taf": ""
    },
    {
      "icao": "EYKA",
      "alert": "OK",
      "vis_m": 9999,
      "fzfg": false,
      "metar_trigger": false,
      "taf_trigger": false,
      "metar": "METAR EYKA 051420Z 09009KT 9999 OVC015 M07/M09 Q1010",
      "taf": "TAF EYKA 051100Z 0512/0612 10009KT 6000 OVC015"
    },
    {
      "icao": "EYPA",
      "alert": "OK",
      "vis_m": 9999,
      "fzfg": false,
      "metar_trigger": false,
      "taf_trigger": false,
      "metar": "METAR EYPA 051420Z 10010KT 9999 -SN OVC022 M07/M12 Q1009",
      "taf": "TAF EYPA 051100Z 0512/0612 09010KT 6000 BKN020"
    },
    {
      "icao": "EYVI",
      "alert": "OK",
      "vis_m": 9999,
      "fzfg": false,
      "metar_trigger": false,
      "taf_trigger": false,
      "metar": "METAR EYVI 051420Z 11008KT 9999 OVC013 M07/M09 Q1010 NOSIG",
      "taf": "TAF EYVI 051100Z 0512/0612 11008KT 9000 OVC015"
    },
    {
      "icao": "GCFV",
      "alert": "OK",
      "vis_m": 9999,
      "fzfg": false,
      "metar_trigger": false,
      "taf_trigger": false,
      "metar": "METAR GCFV 051400Z 14009KT 9999 FEW025 21/15 Q1014",
      "taf": "TAF GCFV 051400Z 0515/0615 17007KT 9999 FEW025 TX21/0614Z TN16/0606Z"
    },
    {
      "icao": "GCLP",
      "alert": "OK",
      "vis_m": 9999,
      "fzfg": false,
      "metar_trigger": false,
      "taf_trigger": false,
      "metar": "METAR GCLP 051400Z 08007KT 040V110 9999 FEW025 21/17 Q1014 NOSIG",
      "taf": "TAF GCLP 051400Z 0515/0615 18008KT 9999 SCT025 TX21/0614Z TN16/0606Z"
    },
    {
      "icao": "GCTS",
      "alert": "OK",
      "vis_m": 9999,
      "fzfg": false,
      "metar_trigger": false,
      "taf_trigger": false,
      "metar": "METAR GCTS 051400Z 09011KT 060V120 9999 SCT030 24/15 Q1014 NOSIG",
      "taf": "TAF GCTS 051400Z 0515/0615 VRB05KT 9999 SCT025 TX24/0614Z TN16/0606Z"
    },
    {
      "icao": "GMAD",
      "alert": "OK",
      "vis_m": 8000,
      "fzfg": false,
      "metar_trigger": false,
      "taf_trigger": false,
      "metar": "METAR GMAD 051400Z 00000KT 8000 SCT023 BKN033 19/16 Q1015 NOSIG",
      "taf": "TAF GMAD 051100Z 0512/0618 28004KT 6000 BKN016"
    },
    {
      "icao": "GMMN",
      "alert": "OK",
      "vis_m": 9999,
      "fzfg": false,
      "metar_trigger": false,
      "taf_trigger": false,
      "metar": "METAR GMMN 051400Z 23022KT 9999 BKN015 18/14 Q1011 TEMPO 23025G35KT",
      "taf": "TAF GMMN 051100Z 0512/0618 24025KT 9999 BKN012"
    },
    {
      "icao": "GMMX",
      "alert": "OK",
      "vis_m": 9999,
      "fzfg": false,
      "metar_trigger": false,
      "taf_trigger": false,
      "metar": "METAR GMMX 051400Z 29007KT 250V350 9999 SCT026 20/15 Q1013 NOSIG",
      "taf": "TAF GMMX 051100Z 0512/0618 28006KT 8000 SCT026 SCT080"
    },
    {
      "icao": "HEGN",
      "alert": "OK",
      "vis_m": 9999,
      "fzfg": false,
      "metar_trigger": false,
      "taf_trigger": false,
      "metar": "METAR HEGN 051300Z 10004KT CAVOK 24/03 Q1012 NOSIG",
      "taf": "TAF HEGN 051100Z 0512/0618 08008KT CAVOK"
    },
    {
      "icao": "HEMA",
      "alert": "OK",
      "vis_m": 9999,
      "fzfg": false,
      "metar_trigger": false,
      "taf_trigger": false,
      "metar": "METAR HEMA 051300Z 01009KT CAVOK 22/11 Q1012 NOSIG",
      "taf": "TAF HEMA 051100Z 0512/0618 36010KT CAVOK"
    },
    {
      "icao": "HESH",
      "alert": "OK",
      "vis_m": 9999,
      "fzfg": false,
      "metar_trigger": false,
      "taf_trigger": false,
      "metar": "METAR HESH 051300Z 09009KT CAVOK 25/09 Q1012 NOSIG",
      "taf": "TAF HESH 051100Z 0512/0618 16008KT CAVOK"
    },
    {
      "icao": "HESX",
      "alert": "OK",
      "vis_m": 9999,
      "fzfg": false,
      "metar_trigger": false,
      "taf_trigger": false,
      "metar": "METAR HESX 051300Z 21005KT CAVOK 23/00 Q1012 NOSIG",
      "taf": "TAF HESX 051100Z 0512/0618 20010KT 9999 SCT020"
    },
    {
      "icao": "LATI",
      "alert": "OK",
      "vis_m": 9999,
      "fzfg": false,
      "metar_trigger": false,
      "taf_trigger": false,
      "metar": "METAR LATI 051420Z 17003KT 9999 SCT045 BKN080 13/06 Q0998 NOSIG",
      "taf": "TAF LATI 051100Z 0512/0612 16006KT 9999 SCT040 BKN070 TX15/0512Z TN07/0604Z"
    },
    {
      "icao": "LBPD",
      "alert": "OK",
      "vis_m": 9999,
      "fzfg": false,
      "metar_trigger": false,
      "taf_trigger": false,
      "metar": "METAR LBPD 051400Z AUTO 29005KT 9999 FEW010/// SCT015/// OVC026/// 05/05 Q1000 NOSIG",
      "taf": "TAF LBPD 051100Z 0512/0612 30010KT 9999 SCT003 BKN010 OVC017"
    },
    {
      "icao": "LBSF",
      "alert": "OK",
      "vis_m": 9999,
      "fzfg": false,
      "metar_trigger": false,
      "taf_trigger": false,
      "metar": "METAR LBSF 051400Z 11010KT 9999 FEW019 BKN035 BKN046 06/03 Q0999 NOSIG",
      "taf": "TAF LBSF 051100Z 0512/0612 10012KT 9999 SCT012 BKN025 OVC040"
    },
    {
      "icao": "LBWN",
      "alert": "OK",
      "vis_m": 8000,
      "fzfg": false,
      "metar_trigger": false,
      "taf_trigger": false,
      "metar": "METAR LBWN 051400Z 11016KT 8000 -RA FEW011 OVC035 08/08 Q1003 TEMPO 5000 RA",
      "taf": "TAF LBWN 051100Z 0512/0612 09010KT 6000 RA BKN012 OVC040"
    },
    {
      "icao": "LCLK",
      "alert": "OK",
      "vis_m": 9999,
      "fzfg": false,
      "metar_trigger": false,
      "taf_trigger": false,
      "metar": "METAR LCLK 051400Z 09008KT 010V100 9999 FEW030 18/11 Q1014 NOSIG",
      "taf": "TAF LCLK 051130Z 0512/0612 09010KT 9999 FEW025"
    },
    {
      "icao": "LCPH",
      "alert": "OK",
      "vis_m": 9999,
      "fzfg": false,
      "metar_trigger": false,
      "taf_trigger": false,
      "metar": "METAR LCPH 051400Z 15010KT 090V160 9999 FEW030 SCT040 17/11 Q1013 NOSIG",
      "taf": "TAF LCPH 051130Z 0512/0612 12017KT 9999 FEW020"
    },
    {
      "icao": "LEAL",
      "alert": "OK",
      "vis_m": 9999,
      "fzfg": false,
      "metar_trigger": false,
      "taf_trigger": false,
      "metar": "METAR LEAL 051400Z 25024G34KT 9999 FEW045 25/12 Q0992 NOSIG",
      "taf": ""
    },
    {
      "icao": "LEBB",
      "alert": "OK",
      "vis_m": 9999,
      "fzfg": false,
      "metar_trigger": false,
      "taf_trigger": false,
      "metar": "METAR LEBB 051400Z 12004KT 080V150 9999 VCTS FEW035CB SCT048 BKN065 13/11 Q0983 TEMPO 3000 SHRA",
      "taf": ""
    },
    {
      "icao": "LEBL",
      "alert": "OK",
      "vis_m": 8000,
      "fzfg": false,
      "metar_trigger": false,
      "taf_trigger": false,
      "metar": "METAR LEBL 051400Z COR 16005KT 120V210 8000 SCT016 BKN020 BKN050 13/12 Q0987 NOSIG",
      "taf": "TAF LEBL 051100Z 0512/0612 VRB04KT 9999 SCT010 SCT040 TX17/0514Z TN08/0606Z"
    },
    {
      "icao": "LECH",
      "alert": "OK",
      "vis_m": 9999,
      "fzfg": false,
      "metar_trigger": false,
      "taf_trigger": false,
      "metar": "METAR LECH 051400Z AUTO 25023G35KT CAVOK 19/08 Q0988",
      "taf": ""
    },
    {
      "icao": "LEMD",
      "alert": "OK",
      "vis_m": 9999,
      "fzfg": false,
      "metar_trigger": false,
      "taf_trigger": false,
      "metar": "METAR LEMD 051400Z 24026G37KT 210V270 9999 SCT035 14/06 Q0991 NOSIG",
      "taf": ""
    },
    {
      "icao": "LEMG",
      "alert": "OK",
      "vis_m": 9999,
      "fzfg": false,
      "metar_trigger": false,
      "taf_trigger": false,
      "metar": "METAR LEMG 051400Z 30008KT 9999 -RA FEW018 SCT025 BKN050 17/15 Q1001 TEMPO 4000 RA",
      "taf": "TAF LEMG 051100Z 0512/0612 23012KT 9999 SCT040 TX18/0514Z TN13/0607Z"
    },
    {
      "icao": "LEVC",
      "alert": "OK",
      "vis_m": 9999,
      "fzfg": false,
      "metar_trigger": false,
      "taf_trigger": false,
      "metar": "METAR LEVC 051400Z 26020KT 9999 FEW035 SCT055 21/12 Q0990 NOSIG",
      "taf": ""
    },
    {
      "icao": "LEXJ",
      "alert": "OK",
      "vis_m": 9999,
      "fzfg": false,
      "metar_trigger": false,
      "taf_trigger": false,
      "metar": "METAR LEXJ 051400Z 08003KT 010V150 9999 FEW025 15/09 Q0981",
      "taf": "TAF LEXJ 051400Z 0515/0615 20009KT 9999 FEW025 SCT045 TX18/0515Z TN09/0607Z"
    },
    {
      "icao": "LEZG",
      "alert": "OK",
      "vis_m": 9999,
      "fzfg": false,
      "metar_trigger": false,
      "taf_trigger": false,
      "metar": "METAR LEZG 051400Z 14005KT 080V200 9999 FEW070 13/12 Q0988 NOSIG",
      "taf": "TAF LEZG 051100Z 0512/0612 10009KT 9999 FEW010 TX16/0514Z TN08/0606Z"
    },
    {
      "icao": "LEZL",
      "alert": "OK",
      "vis_m": 9999,
      "fzfg": false,
      "metar_trigger": false,
      "taf_trigger": false,
      "metar": "METAR LEZL 051400Z 24022G37KT 9999 FEW030 19/13 Q1000 NOSIG",
      "taf": "TAF LEZL 051400Z 0515/0615 23018KT 9999 FEW030 TX20/0515Z TN12/0607Z"
    },
    {
      "icao": "LFBD",
      "alert": "OK",
      "vis_m": 5000,
      "fzfg": false,
      "metar_trigger": false,
      "taf_trigger": false,
      "metar": "METAR LFBD 051400Z AUTO 17009KT 5000 RA BR FEW010/// SCT014/// BKN024/// //////CB 08/08 Q0982 TEMPO -TSRA BKN010 BKN040TCU",
      "taf": "TAF LFBD 051100Z 0512/0618 17010KT 9999 BKN040 TX12/0515Z TN10/0606Z"
    },
    {
      "icao": "LFLL",
      "alert": "OK",
      "vis_m": 9999,
      "fzfg": false,
      "metar_trigger": false,
      "taf_trigger": false,
      "metar": "METAR LFLL 051400Z 17006KT 140V200 9999 FEW022 OVC200 12/06 Q0988 NOSIG",
      "taf": "TAF LFLL 051100Z 0512/0618 17010KT CAVOK"
    },
    {
      "icao": "LFLS",
      "alert": "OK",
      "vis_m": 9999,
      "fzfg": false,
      "metar_trigger": false,
      "taf_trigger": false,
      "metar": "METAR LFLS 051400Z AUTO 24009KT CAVOK 11/07 Q0988 NOSIG",
      "taf": "TAF LFLS 050800Z 0509/0609 09007KT 9999 FEW020 SCT080"
    },
    {
      "icao": "LFMN",
      "alert": "OK",
      "vis_m": 9999,
      "fzfg": false,
      "metar_trigger": false,
      "taf_trigger": false,
      "metar": "METAR LFMN 051400Z 00000KT 9999 FEW030 BKN200 13/08 Q0993 NOSIG",
      "taf": "TAF LFMN 051400Z 0515/0621 24008KT CAVOK"
    },
    {
      "icao": "LFOB",
      "alert": "OK",
      "vis_m": 9999,
      "fzfg": false,
      "metar_trigger": false,
      "taf_trigger": false,
      "metar": "METAR LFOB 051400Z AUTO 13008KT 9999 OVC013 10/09 Q0984 NOSIG",
      "taf": ""
    },
    {
      "icao": "LFPO",
      "alert": "OK",
      "vis_m": 9999,
      "fzfg": false,
      "metar_trigger": false,
      "taf_trigger": false,
      "metar": "METAR LFPO 051400Z 15008KT 120V180 9999 SCT018 BKN090 12/08 Q0984 NOSIG",
      "taf": ""
    },
    {
      "icao": "LFSB",
      "alert": "OK",
      "vis_m": 9999,
      "fzfg": false,
      "metar_trigger": false,
      "taf_trigger": false,
      "metar": "METAR LFSB 051400Z AUTO 09006KT 060V130 CAVOK 10/02 Q0989 NOSIG",
      "taf": "TAF LFSB 051100Z 0512/0612 11007KT CAVOK"
    },
    {
      "icao": "LGAV",
      "alert": "OK",
      "vis_m": 9999,
      "fzfg": false,
      "metar_trigger": false,
      "taf_trigger": false,
      "metar": "METAR LGAV 051420Z 22012KT 210V360 9999 SCT025 SCT070 14/10 Q1000 NOSIG",
      "taf": "TAF LGAV 051100Z 0512/0612 19020KT 9999 FEW020 SCT035"
    },
    {
      "icao": "LGTS",
      "alert": "OK",
      "vis_m": 9999,
      "fzfg": false,
      "metar_trigger": false,
      "taf_trigger": false,
      "metar": "METAR LGTS 051420Z 15007KT 9999 FEW015 SCT025 14/10 Q0997 NOSIG",
      "taf": "TAF LGTS 051100Z 0512/0612 VRB03KT 9999 SCT025"
    },
    {
      "icao": "LHBP",
      "alert": "OK",
      "vis_m": 9999,
      "fzfg": false,
      "metar_trigger": false,
      "taf_trigger": false,
      "metar": "METAR LHBP 051400Z 11009KT 9999 BKN034 09/05 Q0996 NOSIG",
      "taf": "TAF LHBP 051115Z 0512/0612 09011KT 9999 SCT030"
    },
    {
      "icao": "LHDC",
      "alert": "OK",
      "vis_m": 9999,
      "fzfg": false,
      "metar_trigger": false,
      "taf_trigger": false,
      "metar": "METAR LHDC 051345Z AUTO VRB02KT CAVOK 14/05 Q0997 NOSIG",
      "taf": "TAF LHDC 051415Z 0515/0524 07005KT CAVOK"
    },
    {
      "icao": "LIBD",
      "alert": "OK",
      "vis_m": 9999,
      "fzfg": false,
      "metar_trigger": false,
      "taf_trigger": false,
      "metar": "METAR LIBD 051420Z 03003KT 340V100 9999 VCSH SCT045 15/09 Q0996",
      "taf": "TAF LIBD 051100Z 0512/0612 23010KT CAVOK"
    },
    {
      "icao": "LIBG",
      "alert": "OK",
      "vis_m": 9999,
      "fzfg": false,
      "metar_trigger": false,
      "taf_trigger": false,
      "metar": "METAR LIBG 051350Z 23007KT 200V280 9999 FEW040 16/09 Q0996",
      "taf": "TAF LIBG 051400Z 0515/0524 23010KT 9999 SCT030"
    },
    {
      "icao": "LIBP",
      "alert": "OK",
      "vis_m": 9999,
      "fzfg": false,
      "metar_trigger": false,
      "taf_trigger": false,
      "metar": "METAR LIBP 051420Z AUTO 05008KT 010V070 9999 BKN014/// 13/10 Q0997",
      "taf": "TAF LIBP 051100Z 0512/0612 VRB05KT 9999 BKN030"
    },
    {
      "icao": "LIBR",
      "alert": "OK",
      "vis_m": 9999,
      "fzfg": false,
      "metar_trigger": false,
      "taf_trigger": false,
      "metar": "METAR LIBR 051420Z 24006KT 210V270 9999 FEW040 16/08 Q0996",
      "taf": "TAF LIBR 051100Z 0512/0612 20014KT CAVOK"
    },
    {
      "icao": "LICA",
      "alert": "OK",
      "vis_m": 9999,
      "fzfg": false,
      "metar_trigger": false,
      "taf_trigger": false,
      "metar": "METAR LICA 051420Z AUTO 25018KT 9999 FEW020/// BKN044/// 15/12 Q0999",
      "taf": "TAF LICA 051100Z 0512/0612 26016KT 9999 BKN030"
    },
    {
      "icao": "LICC",
      "alert": "OK",
      "vis_m": 9999,
      "fzfg": false,
      "metar_trigger": false,
      "taf_trigger": false,
      "metar": "METAR LICC 051420Z 26017KT 9999 FEW030 20/17 Q0999",
      "taf": "TAF LICC 051100Z 0512/0612 23016KT 9999 SCT040"
    },
    {
      "icao": "LICJ",
      "alert": "OK",
      "vis_m": 9999,
      "fzfg": false,
      "metar_trigger": false,
      "taf_trigger": false,
      "metar": "METAR LICJ 051420Z 25011KT 9999 FEW030 16/13 Q1001",
      "taf": "TAF LICJ 051100Z 0512/0612 24016KT 9999 SCT030"
    },
    {
      "icao": "LIMC",
      "alert": "OK",
      "vis_m": 9999,
      "fzfg": false,
      "metar_trigger": false,
      "taf_trigger": false,
      "metar": "METAR LIMC 051420Z 23005KT 140V290 CAVOK 11/04 Q0994 NOSIG",
      "taf": "TAF LIMC 051100Z 0512/0618 VRB05KT 9999 FEW010"
    },
    {
      "icao": "LIME",
      "alert": "OK",
      "vis_m": 9999,
      "fzfg": false,
      "metar_trigger": false,
      "taf_trigger": false,
      "metar": "METAR LIME 051420Z 22006KT 200V260 CAVOK 11/05 Q0994 NOSIG",
      "taf": ""
    },
    {
      "icao": "LIMF",
      "alert": "OK",
      "vis_m": 9999,
      "fzfg": false,
      "metar_trigger": false,
      "taf_trigger": false,
      "metar": "METAR LIMF 051420Z 07005KT CAVOK 10/04 Q0993",
      "taf": "TAF LIMF 051100Z 0512/0612 VRB05KT CAVOK"
    },
    {
      "icao": "LIMJ",
      "alert": "OK",
      "vis_m": 9999,
      "fzfg": false,
      "metar_trigger": false,
      "taf_trigger": false,
      "metar": "METAR LIMJ 051420Z 12015KT 9999 -RA FEW013 BKN018 11/10 Q0994",
      "taf": "TAF LIMJ 051100Z 0512/0612 14014KT 9999 SCT020"
    },
    {
      "icao": "LIPE",
      "alert": "OK",
      "vis_m": 9999,
      "fzfg": false,
      "metar_trigger": false,
      "taf_trigger": false,
      "metar": "METAR LIPE 051420Z 03003KT 330V100 CAVOK 13/05 Q0994",
      "taf": "TAF LIPE 051100Z 0512/0612 27008KT CAVOK"
    },
    {
      "icao": "LIPH",
      "alert": "OK",
      "vis_m": 9999,
      "fzfg": false,
      "metar_trigger": false,
      "taf_trigger": false,
      "metar": "METAR LIPH 051420Z 09007KT 9999 SCT020 BKN030 10/08 Q0994",
      "taf": "TAF LIPH 051100Z 0512/0612 VRB05KT 8000 BKN040"
    },
    {
      "icao": "LIPQ",
      "alert": "OK",
      "vis_m": 8000,
      "fzfg": false,
      "metar_trigger": false,
      "taf_trigger": false,
      "metar": "METAR LIPQ 051420Z AUTO 05003KT 020V090 8000 DZ OVC014/// 08/07 Q0994",
      "taf": "TAF LIPQ 051100Z 0512/0612 VRB05KT 8000 BKN040"
    },
    {
      "icao": "LIPR",
      "alert": "OK",
      "vis_m": 9999,
      "fzfg": false,
      "metar_trigger": false,
      "taf_trigger": false,
      "metar": "METAR LIPR 051420Z 10004KT 060V120 9999 BKN050 10/07 Q0995",
      "taf": "TAF LIPR 051100Z 0512/0612 29007KT 9999 BKN040"
    },
    {
      "icao": "LIPX",
      "alert": "OK",
      "vis_m": 9999,
      "fzfg": false,
      "metar_trigger": false,
      "taf_trigger": false,
      "metar": "METAR LIPX 051420Z 27005KT 230V310 CAVOK 11/05 Q0994",
      "taf": "TAF LIPX 051100Z 0512/0612 VRB05KT 6000 FEW010"
    },
    {
      "icao": "LIPY",
      "alert": "OK",
      "vis_m": 9999,
      "fzfg": false,
      "metar_trigger": false,
      "taf_trigger": false,
      "metar": "METAR LIPY 051420Z AUTO VRB02KT 9999 SCT044/// 14/09 Q0995",
      "taf": "TAF LIPY 051100Z 0512/0612 VRB05KT 9999 BKN020"
    },
    {
      "icao": "LIPZ",
      "alert": "OK",
      "vis_m": 9999,
      "fzfg": false,
      "metar_trigger": false,
      "taf_trigger": false,
      "metar": "METAR LIPZ 051420Z 09005KT 050V110 9999 FEW015 SCT040 10/08 Q0994 NOSIG",
      "taf": "TAF LIPZ 051100Z 0512/0618 VRB05KT 7000 BKN050"
    },
    {
      "icao": "LIRF",
      "alert": "OK",
      "vis_m": 9999,
      "fzfg": false,
      "metar_trigger": false,
      "taf_trigger": false,
      "metar": "METAR LIRF 051420Z 25006KT 9999 FEW040 SCT055 14/06 Q0998 NOSIG",
      "taf": "TAF LIRF 051100Z 0512/0618 27007KT 9999 FEW040"
    },
    {
      "icao": "LIRN",
      "alert": "OK",
      "vis_m": 9999,
      "fzfg": false,
      "metar_trigger": false,
      "taf_trigger": false,
      "metar": "METAR LIRN 051420Z 28007KT 260V340 9999 SCT040 15/06 Q0998 NOSIG",
      "taf": "TAF LIRN 051100Z 0512/0612 24010KT 9999 BKN030"
    },
    {
      "icao": "LIRP",
      "alert": "OK",
      "vis_m": 9999,
      "fzfg": false,
      "metar_trigger": false,
      "taf_trigger": false,
      "metar": "METAR LIRP 051415Z 01003KT 9999 FEW010 SCT025 BKN050 11/10 Q0996 NOSIG",
      "taf": "TAF LIRP 051100Z 0512/0612 VRB03KT 9999 SCT020 BKN030"
    },
    {
      "icao": "LIRZ",
      "alert": "OK",
      "vis_m": 9999,
      "fzfg": false,
      "metar_trigger": false,
      "taf_trigger": false,
      "metar": "METAR LIRZ 051420Z AUTO 18003KT 9999 BKN049/// 12/07 Q0997",
      "taf": "TAF LIRZ 051100Z 0512/0612 20008KT 9999 SCT025"
    },
    {
      "icao": "LJLJ",
      "alert": "OK",
      "vis_m": 9999,
      "fzfg": false,
      "metar_trigger": false,
      "taf_trigger": false,
      "metar": "METAR LJLJ 051400Z VRB02KT 9999 -RA FEW002 BKN010 OVC020 04/03 Q0995 NOSIG",
      "taf": "TAF LJLJ 051100Z 0512/0612 VRB02KT 9999 BKN010 OVC020"
    },
    {
      "icao": "LKMT",
      "alert": "OK",
      "vis_m": 1800,
      "fzfg": false,
      "metar_trigger": false,
      "taf_trigger": false,
      "metar": "METAR LKMT 051400Z 01004KT 1800 BR OVC005 02/01 Q0997 NOSIG",
      "taf": "TAF LKMT 051100Z 0512/0612 03004KT 4000 BR BKN008 OVC012"
    },
    {
      "icao": "LKPR",
      "alert": "OK",
      "vis_m": 2900,
      "fzfg": false,
      "metar_trigger": false,
      "taf_trigger": false,
      "metar": "METAR LKPR 051400Z 06005KT 2900 BR BKN003 OVC016 04/03 Q0994 NOSIG",
      "taf": "TAF LKPR 051400Z 0515/0621 10006KT 3000 BR BKN003"
    },
    {
      "icao": "LLBG",
      "alert": "OK",
      "vis_m": 9999,
      "fzfg": false,
      "metar_trigger": false,
      "taf_trigger": false,
      "metar": "METAR LLBG 051420Z 33006KT CAVOK 20/10 Q1012 NOSIG",
      "taf": "TAF LLBG 051109Z 0512/0612 VRB04KT CAVOK"
    },
    {
      "icao": "LMML",
      "alert": "OK",
      "vis_m": 9999,
      "fzfg": false,
      "metar_trigger": false,
      "taf_trigger": false,
      "metar": "METAR LMML 051415Z 26014KT CAVOK 18/12 Q1003 NOSIG",
      "taf": "TAF LMML 051100Z 0512/0612 27012KT CAVOK"
    },
    {
      "icao": "LOWW",
      "alert": "OK",
      "vis_m": 9000,
      "fzfg": false,
      "metar_trigger": false,
      "taf_trigger": false,
      "metar": "METAR LOWW 051420Z VRB01KT 9000 FEW015 SCT017 BKN019 06/04 Q0995 NOSIG",
      "taf": "TAF LOWW 051415Z 0515/0621 13005KT 9000 FEW010 BKN020 TX05/0515Z TN02/0620Z"
    },
    {
      "icao": "LPFR",
      "alert": "OK",
      "vis_m": 7000,
      "fzfg": false,
      "metar_trigger": false,
      "taf_trigger": false,
      "metar": "METAR LPFR 051400Z 25021KT 7000 FEW025 17/14 Q1002",
      "taf": "TAF LPFR 051100Z 0512/0612 23017KT 9999 SCT025"
    },
    {
      "icao": "LPMA",
      "alert": "OK",
      "vis_m": 9999,
      "fzfg": false,
      "metar_trigger": false,
      "taf_trigger": false,
      "metar": "METAR LPMA 051400Z 03013KT 9999 FEW016 21/11 Q1010",
      "taf": "TAF LPMA 051100Z 0512/0612 04013KT 9999 SCT015"
    },
    {
      "icao": "LPPR",
      "alert": "OK",
      "vis_m": 9999,
      "fzfg": false,
      "metar_trigger": false,
      "taf_trigger": false,
      "metar": "METAR LPPR 051400Z 24016G29KT 9999 FEW018CB BKN025 15/11 Q0989",
      "taf": "TAF LPPR 051100Z 0512/0612 22017KT 9999 SCT025"
    },
    {
      "icao": "LPPS",
      "alert": "OK",
      "vis_m": 9999,
      "fzfg": false,
      "metar_trigger": false,
      "taf_trigger": false,
      "metar": "METAR LPPS 051400Z 27016KT 9999 FEW014 19/13 Q1010",
      "taf": "TAF LPPS 051100Z 0512/0618 27017KT 9999 SCT015"
    },
    {
      "icao": "LPPT",
      "alert": "OK",
      "vis_m": 9000,
      "fzfg": false,
      "metar_trigger": false,
      "taf_trigger": false,
      "metar": "METAR LPPT 051400Z 24018KT 210V270 9000 SCT020 SCT025 16/13 Q0997 WS R20",
      "taf": "TAF LPPT 051100Z 0512/0618 25017KT 9999 SCT025"
    },
    {
      "icao": "LQBK",
      "alert": "OK",
      "vis_m": 9999,
      "fzfg": false,
      "metar_trigger": false,
      "taf_trigger": false,
      "metar": "METAR LQBK 051400Z 31004KT 9999 SCT013 BKN047 08/06 Q0995 NOSIG",
      "taf": "TAF LQBK 051100Z 0512/0612 33005KT 9999 SCT045 TX08/0513Z TN03/0605Z"
    },
    {
      "icao": "LQSA",
      "alert": "OK",
      "vis_m": 9999,
      "fzfg": false,
      "metar_trigger": false,
      "taf_trigger": false,
      "metar": "METAR LQSA 051400Z 16008KT 100V180 9999 BKN050 11/04 Q0995 NOSIG",
      "taf": "TAF LQSA 051100Z 0512/0612 11006KT 9999 BKN055 TX12/0513Z TN02/0605Z"
    },
    {
      "icao": "LQTZ",
      "alert": "OK",
      "vis_m": 9999,
      "fzfg": false,
      "metar_trigger": false,
      "taf_trigger": false,
      "metar": "METAR LQTZ 051400Z 11007KT 9999 BKN060 14/05 Q0994",
      "taf": "TAF LQTZ 051100Z 0512/0612 10005KT 9999 SCT050 TX15/0514Z TN03/0605Z"
    },
    {
      "icao": "LRBC",
      "alert": "OK",
      "vis_m": 8000,
      "fzfg": false,
      "metar_trigger": false,
      "taf_trigger": false,
      "metar": "METAR LRBC 051400Z COR 17007KT 8000 -RA OVC007 05/05 Q1005",
      "taf": "TAF LRBC 051100Z 0512/0521 17008KT 5000 -RA BR OVC005"
    },
    {
      "icao": "LRBS",
      "alert": "OK",
      "vis_m": 6000,
      "fzfg": false,
      "metar_trigger": false,
      "taf_trigger": false,
      "metar": "METAR LRBS 051400Z 07009KT 6000 SCT007 BKN027 OVC042 07/07 Q1001 NOSIG",
      "taf": "TAF LRBS 051100Z 0512/0612 08012KT 5000 -RA BR BKN005 BKN035"
    },
    {
      "icao": "LRBV",
      "alert": "OK",
      "vis_m": 9999,
      "fzfg": false,
      "metar_trigger": false,
      "taf_trigger": false,
      "metar": "METAR LRBV 051400Z 08016KT 9999 SCT042 BKN069 07/02 Q0999",
      "taf": "TAF LRBV 051100Z 0512/0521 12014KT 9999 BKN050"
    },
    {
      "icao": "LRCL",
      "alert": "OK",
      "vis_m": 9999,
      "fzfg": false,
      "metar_trigger": false,
      "taf_trigger": false,
      "metar": "METAR LRCL 051400Z 11010KT 9999 FEW033 11/04 Q0998",
      "taf": "TAF LRCL 051100Z 0512/0521 13008KT CAVOK"
    },
    {
      "icao": "LRCV",
      "alert": "OK",
      "vis_m": 2500,
      "fzfg": false,
      "metar_trigger": false,
      "taf_trigger": false,
      "metar": "METAR LRCV 051400Z COR 05005KT 2500 -RA BR OVC004 05/05 Q1000",
      "taf": ""
    },
    {
      "icao": "LRIA",
      "alert": "OK",
      "vis_m": 2000,
      "fzfg": false,
      "metar_trigger": false,
      "taf_trigger": false,
      "metar": "METAR LRIA 051400Z 11018KT 2000 -DZ BR OVC002 02/01 Q1006",
      "taf": "TAF LRIA 051100Z 0512/0521 12018KT 3000 -RADZ BR OVC002"
    },
    {
      "icao": "LROP",
      "alert": "OK",
      "vis_m": 7000,
      "fzfg": false,
      "metar_trigger": false,
      "taf_trigger": false,
      "metar": "METAR LROP 051400Z 09013KT 7000 -RA OVC004 07/07 Q1001 NOSIG",
      "taf": "TAF LROP 051100Z 0512/0612 08012KT 5000 -RA BR BKN005 BKN035"
    },
    {
      "icao": "LRSB",
      "alert": "OK",
      "vis_m": 9999,
      "fzfg": false,
      "metar_trigger": false,
      "taf_trigger": false,
      "metar": "METAR LRSB 051400Z 12014KT 9999 SCT078 SCT085 10/04 Q0997",
      "taf": "TAF LRSB 051100Z 0512/0612 14012KT CAVOK"
    },
    {
      "icao": "LRSM",
      "alert": "OK",
      "vis_m": 9999,
      "fzfg": false,
      "metar_trigger": false,
      "taf_trigger": false,
      "metar": "METAR LRSM 051400Z 14005KT CAVOK 14/05 Q0997",
      "taf": "TAF LRSM 051100Z 0512/0521 12012KT 9999 SCT045"
    },
    {
      "icao": "LRSV",
      "alert": "OK",
      "vis_m": 100,
      "fzfg": false,
      "metar_trigger": false,
      "taf_trigger": false,
      "metar": "METAR LRSV 051400Z 14014KT 0100 R34/0325N -RA FG VV001 02/02 Q1003",
      "taf": "TAF LRSV 051100Z 0512/0521 15016KT 0150 -DZ FG VV001"
    },
    {
      "icao": "LRTM",
      "alert": "OK",
      "vis_m": 9999,
      "fzfg": false,
      "metar_trigger": false,
      "taf_trigger": false,
      "metar": "METAR LRTM 051400Z 07008KT CAVOK 11/04 Q0998",
      "taf": "TAF LRTM 051100Z 0512/0521 10012KT CAVOK"
    },
    {
      "icao": "LRTR",
      "alert": "OK",
      "vis_m": 9999,
      "fzfg": false,
      "metar_trigger": false,
      "taf_trigger": false,
      "metar": "METAR LRTR 051400Z 15009KT 120V180 9999 FEW045 14/05 Q0996 NOSIG",
      "taf": "TAF LRTR 051100Z 0512/0612 10010KT CAVOK"
    },
    {
      "icao": "LTAC",
      "alert": "OK",
      "vis_m": 9999,
      "fzfg": false,
      "metar_trigger": false,
      "taf_trigger": false,
      "metar": "METAR LTAC 051420Z 03008KT 9999 SCT040 BKN100 07/01 Q1010 NOSIG",
      "taf": "TAF LTAC 051040Z 0512/0612 VRB02KT 9999 SCT040 BKN100"
    },
    {
      "icao": "LTFM",
      "alert": "OK",
      "vis_m": 4800,
      "fzfg": false,
      "metar_trigger": false,
      "taf_trigger": false,
      "metar": "METAR LTFM 051420Z COR 14012KT 4800 RA SCT035 BKN080 11/08 Q1003 BECMG TL1520 9999 NSW",
      "taf": "TAF LTFM 051040Z 0512/0618 15010KT 9999 -RA SCT035 BKN080"
    },
    {
      "icao": "LUKK",
      "alert": "OK",
      "vis_m": 8000,
      "fzfg": false,
      "metar_trigger": false,
      "taf_trigger": false,
      "metar": "METAR LUKK 051400Z 12011KT 8000 OVC006 M01/M01 Q1010 NOSIG",
      "taf": "TAF LUKK 051117Z 0512/0612 12014KT 4000 BR OVC004"
    },
    {
      "icao": "LWOH",
      "alert": "OK",
      "vis_m": 9999,
      "fzfg": false,
      "metar_trigger": false,
      "taf_trigger": false,
      "metar": "METAR LWOH 051420Z 16003KT 110V210 9999 FEW020 BKN040 10/04 Q0998",
      "taf": "TAF LWOH 051145Z 0512/0612 18006KT 9999 SCT020 BKN040"
    },
    {
      "icao": "LWSK",
      "alert": "OK",
      "vis_m": 9999,
      "fzfg": false,
      "metar_trigger": false,
      "taf_trigger": false,
      "metar": "METAR LWSK 051420Z VRB02KT 9999 FEW040 16/07 Q0996 NOSIG",
      "taf": "TAF LWSK 051145Z 0512/0612 VRB02KT 9999 FEW040 SCT080"
    },
    {
      "icao": "LYBE",
      "alert": "OK",
      "vis_m": 9999,
      "fzfg": false,
      "metar_trigger": false,
      "taf_trigger": false,
      "metar": "METAR LYBE 051400Z 12015KT CAVOK 12/03 Q0995 NOSIG",
      "taf": "TAF LYBE 051100Z 0512/0612 14015KT CAVOK TX13/0513Z TN04/0606Z"
    },
    {
      "icao": "LYNI",
      "alert": "OK",
      "vis_m": 9999,
      "fzfg": false,
      "metar_trigger": false,
      "taf_trigger": false,
      "metar": "METAR LYNI 051400Z 09014KT 9999 FEW047 11/04 Q0997 NOSIG",
      "taf": "TAF LYNI 051100Z 0512/0612 07015KT 9999 BKN050 TX12/0513Z TN01/0606Z"
    },
    {
      "icao": "LYPG",
      "alert": "OK",
      "vis_m": 9999,
      "fzfg": false,
      "metar_trigger": false,
      "taf_trigger": false,
      "metar": "METAR LYPG 051400Z VRB02KT 9999 -RA FEW024 SCT034 OVC070 11/09 Q0998 TEMPO 3000 SHRA FEW020 FEW027TCU BKN034",
      "taf": "TAF LYPG 051100Z 0512/0612 16007KT 9999 FEW015 BKN040 BKN070 TX13/0512Z TN08/0605Z"
    },
    {
      "icao": "LZIB",
      "alert": "OK",
      "vis_m": 9999,
      "fzfg": false,
      "metar_trigger": false,
      "taf_trigger": false,
      "metar": "METAR LZIB 051400Z 34002KT 9999 FEW013 BKN024 07/05 Q0995 NOSIG",
      "taf": "TAF LZIB 051115Z 0512/0612 12007KT 9999 BKN012 BKN020"
    },
    {
      "icao": "LZKZ",
      "alert": "OK",
      "vis_m": 9999,
      "fzfg": false,
      "metar_trigger": false,
      "taf_trigger": false,
      "metar": "METAR LZKZ 051400Z 36009KT CAVOK 08/04 Q0997 NOSIG",
      "taf": "TAF LZKZ 051115Z 0512/0612 01009KT 9999 BKN030"
    },
    {
      "icao": "LZTT",
      "alert": "OK",
      "vis_m": 9000,
      "fzfg": false,
      "metar_trigger": false,
      "taf_trigger": false,
      "metar": "METAR LZTT 051400Z 34003KT 9000 -RA SCT005 OVC027 03/02 Q0997 NOSIG",
      "taf": "TAF LZTT 051115Z 0512/0612 VRB02KT 9999 FEW005 BKN025"
    },
    {
      "icao": "OEJN",
      "alert": "OK",
      "vis_m": 9999,
      "fzfg": false,
      "metar_trigger": false,
      "taf_trigger": false,
      "metar": "METAR OEJN 051400Z 30008KT 9999 FEW040 SCT100 28/16 Q1011 NOSIG",
      "taf": "TAF OEJN 051100Z 0512/0618 30012KT 7000 FEW040"
    },
    {
      "icao": "OEMA",
      "alert": "OK",
      "vis_m": 9999,
      "fzfg": false,
      "metar_trigger": false,
      "taf_trigger": false,
      "metar": "METAR OEMA 051400Z 10006KT CAVOK 27/M01 Q1015 NOSIG",
      "taf": "TAF OEMA 051100Z 0512/0618 12010KT 7000 FEW045"
    },
    {
      "icao": "OJAI",
      "alert": "OK",
      "vis_m": 5000,
      "fzfg": false,
      "metar_trigger": false,
      "taf_trigger": false,
      "metar": "METAR OJAI 051300Z 16009KT 5000 HZ NSC 20/M02 Q1014 NOSIG",
      "taf": "TAF OJAI 051030Z 0512/0618 07010KT 5000 HZ FEW035"
    },
    {
      "icao": "OMAA",
      "alert": "OK",
      "vis_m": 9999,
      "fzfg": false,
      "metar_trigger": false,
      "taf_trigger": false,
      "metar": "METAR OMAA 051400Z 32014KT CAVOK 22/14 Q1018 NOSIG",
      "taf": "TAF OMAA 051100Z 0512/0618 31010KT 8000 NSC"
    },
    {
      "icao": "OMDB",
      "alert": "OK",
      "vis_m": 9999,
      "fzfg": false,
      "metar_trigger": false,
      "taf_trigger": false,
      "metar": "METAR OMDB 051400Z 31010KT CAVOK 23/17 Q1018 NOSIG",
      "taf": "TAF OMDB 051100Z 0512/0618 28010KT 8000 NSC"
    },
    {
      "icao": "UAAA",
      "alert": "OK",
      "vis_m": 1600,
      "fzfg": false,
      "metar_trigger": false,
      "taf_trigger": false,
      "metar": "METAR UAAA 051400Z 12002MPS 1600 R23L/P2000 BR FU BKN100 00/M03 Q1012 NOSIG",
      "taf": "TAF UAAA 051101Z 0512/0612 21003MPS 1200 BR FU SCT050CB BKN100 TX04/0608Z TNM02/0524Z"
    },
    {
      "icao": "UBBB",
      "alert": "OK",
      "vis_m": 9999,
      "fzfg": false,
      "metar_trigger": false,
      "taf_trigger": false,
      "metar": "METAR UBBB 051400Z 01002KT 9999 -RA OVC021 01/M03 Q1027 NOSIG",
      "taf": "TAF UBBB 051054Z 0512/0612 33010KT 9999 SCT012 BKN023 TX02/0514Z TN00/0600Z"
    },
    {
      "icao": "UDSG",
      "alert": "OK",
      "vis_m": 9999,
      "fzfg": false,
      "metar_trigger": false,
      "taf_trigger": false,
      "metar": "METAR UDSG 051400Z 24001KT 9999 SCT043 M04/M09 Q1022 NOSIG",
      "taf": "TAF UDSG 051058Z 0512/0612 VRB06KT 9999 SCT040"
    },
    {
      "icao": "UDYZ",
      "alert": "OK",
      "vis_m": 9999,
      "fzfg": false,
      "metar_trigger": false,
      "taf_trigger": false,
      "metar": "METAR UDYZ 051400Z 23003KT 9999 NSC 04/M05 Q1023 NOSIG",
      "taf": "TAF UDYZ 051100Z 0512/0612 VRB06KT 9999 NSC"
    },
    {
      "icao": "UGKO",
      "alert": "OK",
      "vis_m": 9999,
      "fzfg": false,
      "metar_trigger": false,
      "taf_trigger": false,
      "metar": "METAR UGKO 051400Z 09024KT CAVOK 10/M03 Q1014 NOSIG",
      "taf": "TAF UGKO 051100Z 0512/0612 08027G39KT CAVOK TX15/0611Z TN05/0604Z"
    }
  ]
}