{
  "ts_utc": "2026-02-20T20:45:58Z",
  "threshold_m": 150,
  "source": "stations_override.txt (ICAO list) + aviationweather.gov (METAR/TAF raw)",
  "station_count": 159,
  "stations": [
    {
      "icao": "BIKF",
      "alert": "OK",
      "vis_m": 9999,
      "fzfg": false,
      "metar_trigger": false,
      "taf_trigger": false,
      "metar": "METAR BIKF 202030Z 01008KT CAVOK M02/M08 Q1009",
      "taf": "TAF BIKF 201930Z 2021/2121 02005KT CAVOK TX01/2115Z TNM06/2106Z"
    },
    {
      "icao": "BKPR",
      "alert": "OK",
      "vis_m": 9999,
      "fzfg": false,
      "metar_trigger": false,
      "taf_trigger": false,
      "metar": "METAR BKPR 202030Z 36004KT CAVOK 04/03 Q1015 NOSIG",
      "taf": "TAF BKPR 201730Z 2018/2118 25005KT 9999 FEW015 SCT030"
    },
    {
      "icao": "EBCI",
      "alert": "OK",
      "vis_m": 9999,
      "fzfg": false,
      "metar_trigger": false,
      "taf_trigger": false,
      "metar": "METAR EBCI 202020Z 20017KT 9999 -DZRA FEW008 BKN012 07/06 Q1018 TEMPO 20017G27KT 4500 -DZRA",
      "taf": "TAF EBCI 201720Z 2018/2124 23008KT 9999 SCT020 SCT040"
    },
    {
      "icao": "EDDB",
      "alert": "OK",
      "vis_m": 9999,
      "fzfg": false,
      "metar_trigger": false,
      "taf_trigger": false,
      "metar": "METAR EDDB 202020Z AUTO 15011KT 130V190 CAVOK M02/M06 Q1020 NOSIG",
      "taf": "TAF EDDB 201700Z 2018/2118 16009KT 9999 SCT014"
    },
    {
      "icao": "EDDH",
      "alert": "OK",
      "vis_m": 8000,
      "fzfg": false,
      "metar_trigger": false,
      "taf_trigger": false,
      "metar": "METAR EDDH 202020Z AUTO 17008KT 8000 -RA OVC012 02/00 Q1015 TEMPO 4500 BKN009",
      "taf": "TAF EDDH 201700Z 2018/2124 18012KT 9999 OVC020"
    },
    {
      "icao": "EDDK",
      "alert": "OK",
      "vis_m": 9999,
      "fzfg": false,
      "metar_trigger": false,
      "taf_trigger": false,
      "metar": "METAR EDDK 202020Z AUTO 17011KT 9999 -SHRA SCT027 BKN036 OVC046 FEW///TCU 06/03 Q1019 TEMPO RA",
      "taf": "TAF EDDK 201700Z 2018/2124 16008KT 9999 BKN030"
    },
    {
      "icao": "EDDN",
      "alert": "OK",
      "vis_m": 9000,
      "fzfg": false,
      "metar_trigger": false,
      "taf_trigger": false,
      "metar": "METAR EDDN 202020Z AUTO 17005KT 140V210 9000 -DZ OVC015 02/M00 Q1023 TEMPO BKN012",
      "taf": "TAF EDDN 201700Z 2018/2118 17006KT 9999 OVC020"
    },
    {
      "icao": "EDDS",
      "alert": "OK",
      "vis_m": 9999,
      "fzfg": false,
      "metar_trigger": false,
      "taf_trigger": false,
      "metar": "METAR EDDS 202020Z AUTO 21003KT 170V270 9999 SCT027 SCT038 05/03 Q1022 NOSIG",
      "taf": "TAF EDDS 201700Z 2018/2118 20003KT 9999 BKN015"
    },
    {
      "icao": "EDFH",
      "alert": "OK",
      "vis_m": 9999,
      "fzfg": false,
      "metar_trigger": false,
      "taf_trigger": false,
      "metar": "METAR EDFH 202020Z 22009KT 9999 -RA FEW007 BKN010 03/02 Q1020",
      "taf": "TAF EDFH 201700Z 2018/2118 20007KT 6000 SCT003 BKN015"
    },
    {
      "icao": "EDJA",
      "alert": "OK",
      "vis_m": 9999,
      "fzfg": false,
      "metar_trigger": false,
      "taf_trigger": false,
      "metar": "METAR EDJA 202020Z 21005KT 9999 SCT028 BKN032 OVC048 03/02 Q1023",
      "taf": "TAF EDJA 201700Z 2018/2103 21008KT 9999 FEW015 BKN040"
    },
    {
      "icao": "EDLW",
      "alert": "OK",
      "vis_m": 9999,
      "fzfg": false,
      "metar_trigger": false,
      "taf_trigger": false,
      "metar": "METAR EDLW 202020Z 18014KT 9999 R24///// -RA SCT025 OVC029 05/03 Q1017",
      "taf": "TAF EDLW 201700Z 2018/2118 19012KT 9999 BKN030"
    },
    {
      "icao": "EDNY",
      "alert": "OK",
      "vis_m": 9999,
      "fzfg": false,
      "metar_trigger": false,
      "taf_trigger": false,
      "metar": "METAR EDNY 202020Z 23006KT 9999 FEW022 BKN033 OVC043 05/04 Q1025",
      "taf": "TAF EDNY 201700Z 2018/2103 22004KT 9999 FEW007 BKN040"
    },
    {
      "icao": "EDSB",
      "alert": "OK",
      "vis_m": 9999,
      "fzfg": false,
      "metar_trigger": false,
      "taf_trigger": false,
      "metar": "METAR EDSB 202020Z COR 20009KT 9999 -RA SCT035 BKN042 OVC048 06/05 Q1024",
      "taf": "TAF EDSB 201700Z 2018/2118 19006KT 9999 FEW015 BKN020"
    },
    {
      "icao": "EETN",
      "alert": "OK",
      "vis_m": 9999,
      "fzfg": false,
      "metar_trigger": false,
      "taf_trigger": false,
      "metar": "METAR EETN 202020Z 23009KT CAVOK M04/M06 Q1015 NOSIG",
      "taf": "TAF EETN 201730Z 2018/2118 25010KT 9999 SCT030"
    },
    {
      "icao": "EFTU",
      "alert": "OK",
      "vis_m": 9999,
      "fzfg": false,
      "metar_trigger": false,
      "taf_trigger": false,
      "metar": "METAR EFTU 202020Z AUTO 20007KT CAVOK M04/M10 Q1011",
      "taf": "TAF EFTU 202035Z 2021/2121 20007KT CAVOK"
    },
    {
      "icao": "EGBB",
      "alert": "OK",
      "vis_m": 9999,
      "fzfg": false,
      "metar_trigger": false,
      "taf_trigger": false,
      "metar": "METAR EGBB 202020Z 26009KT 240V300 CAVOK 09/05 Q1013",
      "taf": "TAF EGBB 201658Z 2018/2118 26010KT 9999 FEW030"
    },
    {
      "icao": "EGGP",
      "alert": "OK",
      "vis_m": 9999,
      "fzfg": false,
      "metar_trigger": false,
      "taf_trigger": false,
      "metar": "METAR EGGP 202020Z 26014KT CAVOK 08/04 Q1011",
      "taf": "TAF EGGP 201657Z 2018/2118 25012KT 9999 SCT035"
    },
    {
      "icao": "EGGW",
      "alert": "OK",
      "vis_m": 9999,
      "fzfg": false,
      "metar_trigger": false,
      "taf_trigger": false,
      "metar": "METAR EGGW 202020Z AUTO 26016KT 9999 FEW037 08/05 Q1013",
      "taf": "TAF EGGW 201657Z 2018/2118 26016G26KT 9999 SCT018"
    },
    {
      "icao": "EGKK",
      "alert": "OK",
      "vis_m": 9999,
      "fzfg": false,
      "metar_trigger": false,
      "taf_trigger": false,
      "metar": "METAR EGKK 202020Z 25011KT 9999 FEW034 BKN041 10/06 Q1016",
      "taf": "TAF EGKK 201652Z 2018/2124 23012KT 9999 SCT018"
    },
    {
      "icao": "EGNM",
      "alert": "OK",
      "vis_m": 9999,
      "fzfg": false,
      "metar_trigger": false,
      "taf_trigger": false,
      "metar": "METAR EGNM 202020Z 26020KT 9999 SCT013 07/05 Q1007",
      "taf": ""
    },
    {
      "icao": "EGPD",
      "alert": "OK",
      "vis_m": 9999,
      "fzfg": false,
      "metar_trigger": false,
      "taf_trigger": false,
      "metar": "METAR EGPD 202020Z COR AUTO 25011KT 9999 NCD 08/02 Q0999 NOSIG",
      "taf": "TAF EGPD 201653Z 2018/2118 24007KT 9999 FEW045"
    },
    {
      "icao": "EGPF",
      "alert": "OK",
      "vis_m": 9000,
      "fzfg": false,
      "metar_trigger": false,
      "taf_trigger": false,
      "metar": "METAR EGPF 202020Z AUTO 24014KT 9000 SCT018 BKN031 BKN044 08/07 Q1004",
      "taf": "TAF EGPF 201704Z 2018/2118 23012KT 9999 FEW012 SCT025"
    },
    {
      "icao": "EHBK",
      "alert": "OK",
      "vis_m": 9000,
      "fzfg": false,
      "metar_trigger": false,
      "taf_trigger": false,
      "metar": "METAR EHBK 202025Z AUTO 20016KT 9000 -RA FEW010 FEW015CB SCT027 BKN033 07/05 Q1017 BECMG 7000 DZRA BKN012",
      "taf": "TAF EHBK 201713Z 2018/2124 21010KT 9999 -RADZ BKN025"
    },
    {
      "icao": "EHEH",
      "alert": "OK",
      "vis_m": 4100,
      "fzfg": false,
      "metar_trigger": false,
      "taf_trigger": false,
      "metar": "METAR EHEH 202025Z AUTO 21014KT 4100 -RADZ FEW008 SCT015 OVC018 08/06 Q1015 GRN TEMPO 4000 RA SCT008 BKN012",
      "taf": "TAF EHEH 201732Z 2018/2124 21012KT 9999 BKN040"
    },
    {
      "icao": "EKBI",
      "alert": "OK",
      "vis_m": 2900,
      "fzfg": false,
      "metar_trigger": false,
      "taf_trigger": false,
      "metar": "METAR EKBI 202020Z AUTO 18009KT 2900 -RA BR OVC004/// 01/01 Q1010",
      "taf": "TAF EKBI 202028Z 2021/2121 17015KT 5000 -SN BKN020"
    },
    {
      "icao": "EKCH",
      "alert": "OK",
      "vis_m": 8000,
      "fzfg": false,
      "metar_trigger": false,
      "taf_trigger": false,
      "metar": "METAR EKCH 202027Z 19017KT 8000 -SN OVC013 M01/M03 Q1015 TEMPO 4000 BKN018",
      "taf": "TAF EKCH 202027Z 2021/2121 18018KT 9000 BKN020"
    },
    {
      "icao": "ENAL",
      "alert": "OK",
      "vis_m": 9999,
      "fzfg": false,
      "metar_trigger": false,
      "taf_trigger": false,
      "metar": "METAR ENAL 202020Z 20011KT 170V230 9999 -RA FEW015 BKN040 05/M00 Q0992",
      "taf": "TAF ENAL 202000Z 2021/2106 18012KT 9999 FEW020 BKN030"
    },
    {
      "icao": "ENBR",
      "alert": "OK",
      "vis_m": 9999,
      "fzfg": false,
      "metar_trigger": false,
      "taf_trigger": false,
      "metar": "METAR ENBR 202020Z 14013KT 9999 -RADZ BKN014 02/01 Q0997 TEMPO 3000 RADZ BKN008 RMK WIND 1200FT 15024KT",
      "taf": "TAF ENBR 201700Z 2018/2118 15015KT 9000 -RADZ FEW008 BKN012"
    },
    {
      "icao": "ENGM",
      "alert": "OK",
      "vis_m": 4800,
      "fzfg": false,
      "metar_trigger": false,
      "taf_trigger": false,
      "metar": "METAR ENGM 202020Z 19013KT 4800 -SN BKN008 M03/M04 Q1004 TEMPO 2000",
      "taf": "TAF ENGM 201700Z 2018/2118 19010KT 6000 -SN BKN012"
    },
    {
      "icao": "ENHD",
      "alert": "OK",
      "vis_m": 7000,
      "fzfg": false,
      "metar_trigger": false,
      "taf_trigger": false,
      "metar": "METAR ENHD 202020Z 14017KT 7000 -RA SCT003 OVC004 04/03 Q0997",
      "taf": "TAF ENHD 201400Z 2015/2023 15015KT 7000 -RA SCT005 BKN010"
    },
    {
      "icao": "ENTC",
      "alert": "OK",
      "vis_m": 9999,
      "fzfg": false,
      "metar_trigger": false,
      "taf_trigger": false,
      "metar": "METAR ENTC 202020Z 16004KT 130V200 CAVOK M11/M16 Q0996 NOSIG RMK WIND 2600FT 19009KT",
      "taf": "TAF ENTC 201700Z 2018/2118 20008KT CAVOK"
    },
    {
      "icao": "ENTO",
      "alert": "OK",
      "vis_m": 1400,
      "fzfg": false,
      "metar_trigger": false,
      "taf_trigger": false,
      "metar": "METAR ENTO 202020Z 18015KT 1400 R18/P2000N R36/P2000N -SN VV003 M02/M02 Q1006 TEMPO 2000",
      "taf": ""
    },
    {
      "icao": "ENVA",
      "alert": "OK",
      "vis_m": 1500,
      "fzfg": false,
      "metar_trigger": false,
      "taf_trigger": false,
      "metar": "METAR ENVA 202020Z 10005KT 010V140 1500 R09/P2000N R27/P2000N -SN VV011 M01/M03 Q0996 TEMPO 1200 SN VV008 RMK WIND 670FT 16017KT",
      "taf": ""
    },
    {
      "icao": "ENZV",
      "alert": "OK",
      "vis_m": 5000,
      "fzfg": false,
      "metar_trigger": false,
      "taf_trigger": false,
      "metar": "METAR ENZV 202020Z 16013KT 5000 RA FEW006 SCT007 BKN010 04/03 Q0999 TEMPO 3000 RADZ BKN005",
      "taf": ""
    },
    {
      "icao": "EPGD",
      "alert": "OK",
      "vis_m": 9999,
      "fzfg": false,
      "metar_trigger": false,
      "taf_trigger": false,
      "metar": "METAR EPGD 202030Z 19010KT CAVOK M05/M09 Q1022",
      "taf": "TAF EPGD 201730Z 2018/2118 17012KT CAVOK"
    },
    {
      "icao": "EPKK",
      "alert": "OK",
      "vis_m": 9999,
      "fzfg": false,
      "metar_trigger": false,
      "taf_trigger": false,
      "metar": "METAR EPKK 202030Z 06007KT CAVOK M06/M10 Q1025",
      "taf": "TAF EPKK 202030Z 2021/2121 06010KT CAVOK"
    },
    {
      "icao": "EPKT",
      "alert": "OK",
      "vis_m": 9999,
      "fzfg": false,
      "metar_trigger": false,
      "taf_trigger": false,
      "metar": "METAR EPKT 202030Z 06007KT CAVOK M07/M09 Q1025",
      "taf": "TAF EPKT 201730Z 2018/2118 07010KT CAVOK"
    },
    {
      "icao": "EPLB",
      "alert": "OK",
      "vis_m": 4500,
      "fzfg": false,
      "metar_trigger": false,
      "taf_trigger": false,
      "metar": "METAR EPLB 202030Z 00000KT 4500 BR NSC M10/M11 Q1028",
      "taf": "TAF EPLB 201730Z 2018/2118 VRB02KT 8000 NSC"
    },
    {
      "icao": "EPMO",
      "alert": "OK",
      "vis_m": 9999,
      "fzfg": false,
      "metar_trigger": false,
      "taf_trigger": false,
      "metar": "METAR EPMO 202030Z 15004KT 110V170 CAVOK M05/M09 Q1027",
      "taf": "TAF EPMO 201730Z 2018/2118 VRB04KT CAVOK"
    },
    {
      "icao": "EPPO",
      "alert": "OK",
      "vis_m": 9999,
      "fzfg": false,
      "metar_trigger": false,
      "taf_trigger": false,
      "metar": "METAR EPPO 202030Z 15013KT CAVOK M03/M08 Q1024",
      "taf": "TAF EPPO 201730Z 2018/2118 16010KT CAVOK"
    },
    {
      "icao": "EPRA",
      "alert": "OK",
      "vis_m": 9999,
      "fzfg": false,
      "metar_trigger": false,
      "taf_trigger": false,
      "metar": "METAR EPRA 202030Z 13006KT CAVOK M06/M10 Q1027",
      "taf": "TAF EPRA 202030Z 2021/2106 12006KT CAVOK"
    },
    {
      "icao": "EPRZ",
      "alert": "OK",
      "vis_m": 9999,
      "fzfg": false,
      "metar_trigger": false,
      "taf_trigger": false,
      "metar": "METAR EPRZ 202030Z 05006KT CAVOK M06/M11 Q1027",
      "taf": "TAF EPRZ 201730Z 2018/2118 05007KT CAVOK"
    },
    {
      "icao": "EPSC",
      "alert": "OK",
      "vis_m": 9999,
      "fzfg": false,
      "metar_trigger": false,
      "taf_trigger": false,
      "metar": "METAR EPSC 202030Z 15013KT CAVOK M02/M08 Q1021",
      "taf": "TAF EPSC 201730Z 2018/2118 15012KT CAVOK"
    },
    {
      "icao": "EPSY",
      "alert": "OK",
      "vis_m": 9999,
      "fzfg": false,
      "metar_trigger": false,
      "taf_trigger": false,
      "metar": "METAR EPSY 202030Z 19002KT CAVOK M09/M09 Q1026",
      "taf": "TAF EPSY 202030Z 2021/2106 VRB02KT CAVOK"
    },
    {
      "icao": "EPWA",
      "alert": "OK",
      "vis_m": 9999,
      "fzfg": false,
      "metar_trigger": false,
      "taf_trigger": false,
      "metar": "METAR EPWA 202030Z 15007KT CAVOK M07/M10 Q1027 NOSIG",
      "taf": "TAF EPWA 202030Z 2021/2121 14008KT CAVOK"
    },
    {
      "icao": "EPWR",
      "alert": "OK",
      "vis_m": 9999,
      "fzfg": false,
      "metar_trigger": false,
      "taf_trigger": false,
      "metar": "METAR EPWR 202030Z 12008KT CAVOK M08/M09 Q1026",
      "taf": "TAF EPWR 202030Z 2021/2121 15005KT CAVOK"
    },
    {
      "icao": "ESGG",
      "alert": "OK",
      "vis_m": 1400,
      "fzfg": false,
      "metar_trigger": false,
      "taf_trigger": false,
      "metar": "METAR ESGG 202020Z 18016KT 1400 R03/P2000N R21/P2000N -SN VV012 M03/M04 Q1010",
      "taf": "TAF ESGG 202030Z 2021/2121 18016KT 3000 -SN BKN015"
    },
    {
      "icao": "ESKN",
      "alert": "OK",
      "vis_m": 9999,
      "fzfg": false,
      "metar_trigger": false,
      "taf_trigger": false,
      "metar": "METAR ESKN 202020Z 19012KT CAVOK M01/M10 Q1011",
      "taf": "TAF ESKN 202030Z 2021/2121 19010KT CAVOK"
    },
    {
      "icao": "ESMS",
      "alert": "OK",
      "vis_m": 1500,
      "fzfg": false,
      "metar_trigger": false,
      "taf_trigger": false,
      "metar": "METAR ESMS 202020Z 19020KT 1500 R17/P2000N R35/P2000N -SN VV015 M02/M04 Q1015",
      "taf": "TAF ESMS 202027Z 2021/2121 16016KT 9999 BKN030"
    },
    {
      "icao": "ESSA",
      "alert": "OK",
      "vis_m": 9999,
      "fzfg": false,
      "metar_trigger": false,
      "taf_trigger": false,
      "metar": "METAR ESSA 202020Z 18014KT CAVOK M01/M09 Q1010 NOSIG",
      "taf": "TAF ESSA 202030Z 2021/2121 19016KT CAVOK"
    },
    {
      "icao": "EYKA",
      "alert": "OK",
      "vis_m": 9999,
      "fzfg": false,
      "metar_trigger": false,
      "taf_trigger": false,
      "metar": "METAR EYKA 202020Z 22005KT CAVOK M06/M09 Q1026",
      "taf": "TAF EYKA 201700Z 2018/2118 VRB05KT 9000 NSC"
    },
    {
      "icao": "EYPA",
      "alert": "OK",
      "vis_m": 9999,
      "fzfg": false,
      "metar_trigger": false,
      "taf_trigger": false,
      "metar": "METAR EYPA 202020Z 20010KT 180V240 9999 SCT016 M01/M05 Q1023",
      "taf": "TAF EYPA 201700Z 2018/2118 22011KT 9000 SCT010"
    },
    {
      "icao": "EYVI",
      "alert": "OK",
      "vis_m": 9999,
      "fzfg": false,
      "metar_trigger": false,
      "taf_trigger": false,
      "metar": "METAR EYVI 202020Z 23006KT CAVOK M07/M09 Q1025 NOSIG",
      "taf": "TAF EYVI 201700Z 2018/2118 VRB05KT 5000 BR SCT003"
    },
    {
      "icao": "GCFV",
      "alert": "OK",
      "vis_m": 9999,
      "fzfg": false,
      "metar_trigger": false,
      "taf_trigger": false,
      "metar": "METAR GCFV 202030Z 02014KT 9999 FEW020 17/13 Q1022",
      "taf": "TAF GCFV 202000Z 2021/2121 02009KT 9999 FEW015 TX23/2114Z TN15/2106Z"
    },
    {
      "icao": "GCLP",
      "alert": "OK",
      "vis_m": 9999,
      "fzfg": false,
      "metar_trigger": false,
      "taf_trigger": false,
      "metar": "METAR GCLP 202030Z 02017KT 9999 FEW020 SCT040 17/13 Q1022 NOSIG",
      "taf": "TAF GCLP 202000Z 2021/2121 36017KT 9999 FEW020 TX23/2114Z TN15/2106Z"
    },
    {
      "icao": "GCTS",
      "alert": "OK",
      "vis_m": 9999,
      "fzfg": false,
      "metar_trigger": false,
      "taf_trigger": false,
      "metar": "METAR GCTS 202030Z 06013KT CAVOK 17/13 Q1022 NOSIG",
      "taf": "TAF GCTS 202000Z 2021/2121 05012KT CAVOK TX26/2114Z TN16/2106Z"
    },
    {
      "icao": "GMAD",
      "alert": "OK",
      "vis_m": 6000,
      "fzfg": false,
      "metar_trigger": false,
      "taf_trigger": false,
      "metar": "METAR GMAD 202030Z 00000KT 6000 FEW016 13/11 Q1022 NOSIG",
      "taf": "TAF GMAD 201700Z 2018/2124 26008KT 6000 SCT016"
    },
    {
      "icao": "GMMN",
      "alert": "OK",
      "vis_m": 9999,
      "fzfg": false,
      "metar_trigger": false,
      "taf_trigger": false,
      "metar": "METAR GMMN 202030Z 02003KT 350V060 CAVOK 11/09 Q1024 NOSIG",
      "taf": "TAF GMMN 201700Z 2018/2124 36007KT CAVOK"
    },
    {
      "icao": "GMMX",
      "alert": "OK",
      "vis_m": 9999,
      "fzfg": false,
      "metar_trigger": false,
      "taf_trigger": false,
      "metar": "METAR GMMX 202030Z 07005KT CAVOK 18/11 Q1024 NOSIG",
      "taf": "TAF GMMX 201700Z 2018/2124 06006KT 8000 NSC"
    },
    {
      "icao": "HEGN",
      "alert": "OK",
      "vis_m": 9999,
      "fzfg": false,
      "metar_trigger": false,
      "taf_trigger": false,
      "metar": "METAR HEGN 202000Z 32008KT CAVOK 18/07 Q1017 NOSIG",
      "taf": "TAF HEGN 201700Z 2018/2124 29013KT CAVOK"
    },
    {
      "icao": "HEMA",
      "alert": "OK",
      "vis_m": 9999,
      "fzfg": false,
      "metar_trigger": false,
      "taf_trigger": false,
      "metar": "METAR HEMA 202000Z 29010KT CAVOK 19/13 Q1016 NOSIG",
      "taf": "TAF HEMA 201700Z 2018/2124 30014KT CAVOK"
    },
    {
      "icao": "HESH",
      "alert": "OK",
      "vis_m": 9999,
      "fzfg": false,
      "metar_trigger": false,
      "taf_trigger": false,
      "metar": "METAR HESH 202000Z 35007KT CAVOK 20/07 Q1016 NOSIG",
      "taf": "TAF HESH 201700Z 2018/2124 01012KT CAVOK"
    },
    {
      "icao": "HESX",
      "alert": "OK",
      "vis_m": 9999,
      "fzfg": false,
      "metar_trigger": false,
      "taf_trigger": false,
      "metar": "METAR HESX 202000Z 02007KT CAVOK 12/07 Q1019 NOSIG",
      "taf": "TAF HESX 201700Z 2018/2124 04010KT CAVOK"
    },
    {
      "icao": "LATI",
      "alert": "OK",
      "vis_m": 9999,
      "fzfg": false,
      "metar_trigger": false,
      "taf_trigger": false,
      "metar": "METAR LATI 202020Z 17006KT 9999 FEW060 SCT100 08/06 Q1014 NOSIG",
      "taf": "TAF LATI 201700Z 2018/2118 VRB05KT 9999 -RA FEW030CB BKN070 TX15/2112Z TN04/2105Z"
    },
    {
      "icao": "LBPD",
      "alert": "OK",
      "vis_m": 9999,
      "fzfg": false,
      "metar_trigger": false,
      "taf_trigger": false,
      "metar": "METAR LBPD 202030Z AUTO 22003KT 9999 BKN071/// BKN080/// OVC091/// 08/07 Q1014",
      "taf": "TAF LBPD 201700Z 2018/2118 VRB04KT 9999 BKN060"
    },
    {
      "icao": "LBSF",
      "alert": "OK",
      "vis_m": 9000,
      "fzfg": false,
      "metar_trigger": false,
      "taf_trigger": false,
      "metar": "METAR LBSF 202030Z AUTO 23003KT 180V300 9000 FEW022/// SCT026/// 04/03 Q1015 TEMPO 3000 BR",
      "taf": "TAF LBSF 201700Z 2018/2118 VRB04KT 9999 SCT050 BKN070"
    },
    {
      "icao": "LBWN",
      "alert": "OK",
      "vis_m": 9999,
      "fzfg": false,
      "metar_trigger": false,
      "taf_trigger": false,
      "metar": "METAR LBWN 202030Z AUTO 08007KT 030V150 9999 -RA BKN011/// BKN020/// OVC024/// 04/02 Q1020 TEMPO 5000 RA",
      "taf": "TAF LBWN 201700Z 2018/2118 04012KT 9999 BKN045"
    },
    {
      "icao": "LCLK",
      "alert": "OK",
      "vis_m": 9999,
      "fzfg": false,
      "metar_trigger": false,
      "taf_trigger": false,
      "metar": "METAR LCLK 202030Z 34007KT CAVOK 13/10 Q1020 NOSIG",
      "taf": "TAF LCLK 201730Z 2018/2118 35009KT 9999 FEW035"
    },
    {
      "icao": "LCPH",
      "alert": "OK",
      "vis_m": 9999,
      "fzfg": false,
      "metar_trigger": false,
      "taf_trigger": false,
      "metar": "METAR LCPH 202030Z 02005KT 010V080 CAVOK 12/09 Q1020 NOSIG",
      "taf": "TAF LCPH 201730Z 2018/2118 01008KT 9999 FEW035"
    },
    {
      "icao": "LEAL",
      "alert": "OK",
      "vis_m": 9999,
      "fzfg": false,
      "metar_trigger": false,
      "taf_trigger": false,
      "metar": "METAR LEAL 202030Z 02004KT 350V050 CAVOK 13/05 Q1027 NOSIG",
      "taf": "TAF LEAL 201700Z 2018/2118 VRB04KT CAVOK TX17/2113Z TN07/2106Z"
    },
    {
      "icao": "LEBB",
      "alert": "OK",
      "vis_m": 9999,
      "fzfg": false,
      "metar_trigger": false,
      "taf_trigger": false,
      "metar": "METAR LEBB 202030Z 09004KT 9999 FEW045 SCT050 08/07 Q1033 NOSIG",
      "taf": "TAF LEBB 201700Z 2018/2118 12005KT 9999 FEW040 TX18/2115Z TN03/2107Z"
    },
    {
      "icao": "LEBL",
      "alert": "OK",
      "vis_m": 9999,
      "fzfg": false,
      "metar_trigger": false,
      "taf_trigger": false,
      "metar": "METAR LEBL 202030Z 03005KT 340V060 9999 FEW020 11/08 Q1026 NOSIG",
      "taf": "TAF LEBL 201700Z 2018/2118 VRB03KT 9999 FEW040 TX17/2113Z TN07/2107Z"
    },
    {
      "icao": "LECH",
      "alert": "OK",
      "vis_m": 9999,
      "fzfg": false,
      "metar_trigger": false,
      "taf_trigger": false,
      "metar": "METAR LECH 202030Z AUTO 21003KT CAVOK 09/02 Q1027",
      "taf": ""
    },
    {
      "icao": "LEMD",
      "alert": "OK",
      "vis_m": 9999,
      "fzfg": false,
      "metar_trigger": false,
      "taf_trigger": false,
      "metar": "METAR LEMD 202030Z VRB01KT CAVOK 07/00 Q1029 NOSIG",
      "taf": ""
    },
    {
      "icao": "LEMG",
      "alert": "OK",
      "vis_m": 9999,
      "fzfg": false,
      "metar_trigger": false,
      "taf_trigger": false,
      "metar": "METAR LEMG 202030Z 00000KT CAVOK 10/07 Q1027 NOSIG",
      "taf": "TAF LEMG 201700Z 2018/2118 VRB02KT CAVOK TX20/2114Z TN11/2107Z"
    },
    {
      "icao": "LEVC",
      "alert": "OK",
      "vis_m": 9999,
      "fzfg": false,
      "metar_trigger": false,
      "taf_trigger": false,
      "metar": "METAR LEVC 202030Z 32004KT 270V360 CAVOK 12/05 Q1027 NOSIG",
      "taf": "TAF LEVC 201700Z 2018/2118 VRB03KT CAVOK TX19/2114Z TN06/2106Z"
    },
    {
      "icao": "LEXJ",
      "alert": "OK",
      "vis_m": 9999,
      "fzfg": false,
      "metar_trigger": false,
      "taf_trigger": false,
      "metar": "METAR LEXJ 202030Z 21005KT 9999 OVC050 11/06 Q1033",
      "taf": "TAF LEXJ 202000Z 2021/2121 22006KT 9999 FEW030 TX16/2114Z TN06/2106Z"
    },
    {
      "icao": "LEZG",
      "alert": "OK",
      "vis_m": 9999,
      "fzfg": false,
      "metar_trigger": false,
      "taf_trigger": false,
      "metar": "METAR LEZG 202030Z 26012KT CAVOK 10/04 Q1030 NOSIG",
      "taf": "TAF LEZG 201700Z 2018/2118 30016KT CAVOK TX16/2114Z TN05/2106Z"
    },
    {
      "icao": "LEZL",
      "alert": "OK",
      "vis_m": 9999,
      "fzfg": false,
      "metar_trigger": false,
      "taf_trigger": false,
      "metar": "METAR LEZL 202030Z 03003KT CAVOK 12/09 Q1027 NOSIG",
      "taf": "TAF LEZL 202000Z 2021/2121 04005KT CAVOK TX22/2115Z TN05/2107Z"
    },
    {
      "icao": "LFBD",
      "alert": "OK",
      "vis_m": 9999,
      "fzfg": false,
      "metar_trigger": false,
      "taf_trigger": false,
      "metar": "METAR LFBD 202030Z AUTO 24006KT CAVOK 10/08 Q1031 NOSIG",
      "taf": "TAF LFBD 201700Z 2018/2124 27005KT 9999 BKN030 TX14/2113Z TN06/2124Z"
    },
    {
      "icao": "LFLL",
      "alert": "OK",
      "vis_m": 9999,
      "fzfg": false,
      "metar_trigger": false,
      "taf_trigger": false,
      "metar": "METAR LFLL 202030Z 20002KT 9999 OVC036 07/04 Q1029 NOSIG",
      "taf": "TAF LFLL 201700Z 2018/2124 04004KT 9999 BKN040"
    },
    {
      "icao": "LFLS",
      "alert": "OK",
      "vis_m": 9999,
      "fzfg": false,
      "metar_trigger": false,
      "taf_trigger": false,
      "metar": "METAR LFLS 202030Z AUTO VRB02KT 9999 BKN030 BKN035 OVC048 05/02 Q1028",
      "taf": "TAF LFLS 201400Z 2015/2115 35009KT 9999 BKN030"
    },
    {
      "icao": "LFMN",
      "alert": "OK",
      "vis_m": 9999,
      "fzfg": false,
      "metar_trigger": false,
      "taf_trigger": false,
      "metar": "METAR LFMN 202030Z COR 34005KT CAVOK 12/05 Q1017 NOSIG",
      "taf": "TAF LFMN 202000Z 2021/2203 33010KT CAVOK"
    },
    {
      "icao": "LFOB",
      "alert": "OK",
      "vis_m": 9999,
      "fzfg": false,
      "metar_trigger": false,
      "taf_trigger": false,
      "metar": "METAR LFOB 202030Z AUTO 23009KT 9999 -RA BKN012 BKN019 OVC026 09/09 Q1020 TEMPO 4000 -RADZ BKN008 BECMG 25015G25KT",
      "taf": ""
    },
    {
      "icao": "LFPO",
      "alert": "OK",
      "vis_m": 9999,
      "fzfg": false,
      "metar_trigger": false,
      "taf_trigger": false,
      "metar": "METAR LFPO 202030Z 23014KT 9999 BKN020 OVC033 10/07 Q1022 TEMPO BKN012",
      "taf": "TAF LFPO 201700Z 2018/2124 23010KT 9999 SCT030"
    },
    {
      "icao": "LFSB",
      "alert": "OK",
      "vis_m": 9999,
      "fzfg": false,
      "metar_trigger": false,
      "taf_trigger": false,
      "metar": "METAR LFSB 202030Z AUTO 22004KT 180V260 9999 FEW034 BKN082 OVC100 06/04 Q1026 NOSIG",
      "taf": "TAF LFSB 201700Z 2018/2118 25008KT 9999 FEW020 BKN040"
    },
    {
      "icao": "LGAV",
      "alert": "OK",
      "vis_m": 9999,
      "fzfg": false,
      "metar_trigger": false,
      "taf_trigger": false,
      "metar": "METAR LGAV 202020Z 20017KT 9999 FEW015 SCT025 BKN070 13/10 Q1014 NOSIG",
      "taf": "TAF LGAV 201700Z 2018/2118 20018KT 9999 SCT020"
    },
    {
      "icao": "LGTS",
      "alert": "OK",
      "vis_m": 9999,
      "fzfg": false,
      "metar_trigger": false,
      "taf_trigger": false,
      "metar": "METAR LGTS 202020Z 30006KT 9999 FEW010 SCT025 12/11 Q1014 NOSIG",
      "taf": "TAF LGTS 201700Z 2018/2118 VRB03KT 9999 SCT025"
    },
    {
      "icao": "LHBP",
      "alert": "OK",
      "vis_m": 9999,
      "fzfg": false,
      "metar_trigger": false,
      "taf_trigger": false,
      "metar": "METAR LHBP 202030Z 34009KT CAVOK 03/M09 Q1021 NOSIG",
      "taf": "TAF LHBP 201715Z 2018/2118 34007KT CAVOK"
    },
    {
      "icao": "LHDC",
      "alert": "OK",
      "vis_m": 9999,
      "fzfg": false,
      "metar_trigger": false,
      "taf_trigger": false,
      "metar": "METAR LHDC 202015Z AUTO 04015KT CAVOK 02/M06 Q1019",
      "taf": "TAF LHDC 201415Z 2015/2024 03020G30KT CAVOK"
    },
    {
      "icao": "LIBD",
      "alert": "OK",
      "vis_m": 9999,
      "fzfg": false,
      "metar_trigger": false,
      "taf_trigger": false,
      "metar": "METAR LIBD 202020Z 33006KT 300V360 9999 FEW020 SCT035 12/08 Q1015",
      "taf": ""
    },
    {
      "icao": "LIBG",
      "alert": "OK",
      "vis_m": null,
      "fzfg": false,
      "metar_trigger": false,
      "taf_trigger": false,
      "metar": "",
      "taf": "TAF LIBG 201700Z 2018/2103 36008KT 9999 SCT020"
    },
    {
      "icao": "LIBP",
      "alert": "OK",
      "vis_m": 9999,
      "fzfg": false,
      "metar_trigger": false,
      "taf_trigger": false,
      "metar": "METAR LIBP 202020Z AUTO 31007KT 270V350 9999 -DZ OVC031/// 09/04 Q1018 REDZ",
      "taf": "TAF LIBP 201700Z 2018/2118 31012KT 9999 SCT030"
    },
    {
      "icao": "LIBR",
      "alert": "OK",
      "vis_m": 9999,
      "fzfg": false,
      "metar_trigger": false,
      "taf_trigger": false,
      "metar": "METAR LIBR 202020Z 31007KT CAVOK 09/07 Q1014",
      "taf": "TAF LIBR 201700Z 2018/2118 VRB06KT CAVOK"
    },
    {
      "icao": "LICA",
      "alert": "OK",
      "vis_m": 9999,
      "fzfg": false,
      "metar_trigger": false,
      "taf_trigger": false,
      "metar": "METAR LICA 202020Z AUTO VRB02KT 9999 FEW021/// SCT024/// BKN081/// 09/09 Q1015",
      "taf": "TAF LICA 201700Z 2018/2118 26012KT 9999 SCT030 BKN050"
    },
    {
      "icao": "LICC",
      "alert": "OK",
      "vis_m": 9999,
      "fzfg": false,
      "metar_trigger": false,
      "taf_trigger": false,
      "metar": "METAR LICC 202020Z 23009KT 9999 FEW050 09/06 Q1014",
      "taf": "TAF LICC 201700Z 2018/2118 26008KT 9999 SCT040"
    },
    {
      "icao": "LICJ",
      "alert": "OK",
      "vis_m": 9999,
      "fzfg": false,
      "metar_trigger": false,
      "taf_trigger": false,
      "metar": "METAR LICJ 202020Z 30011KT 9999 FEW030 15/11 Q1017",
      "taf": "TAF LICJ 201700Z 2018/2118 27016G26KT 9999 SCT035"
    },
    {
      "icao": "LIMC",
      "alert": "OK",
      "vis_m": 9999,
      "fzfg": false,
      "metar_trigger": false,
      "taf_trigger": false,
      "metar": "METAR LIMC 202020Z 10007KT CAVOK 09/06 Q1019 NOSIG",
      "taf": "TAF LIMC 201700Z 2018/2124 VRB05KT CAVOK"
    },
    {
      "icao": "LIME",
      "alert": "OK",
      "vis_m": 9999,
      "fzfg": false,
      "metar_trigger": false,
      "taf_trigger": false,
      "metar": "METAR LIME 202020Z 12012KT CAVOK 08/06 Q1019 NOSIG",
      "taf": "TAF LIME 201700Z 2018/2118 VRB05KT CAVOK"
    },
    {
      "icao": "LIMF",
      "alert": "OK",
      "vis_m": 9999,
      "fzfg": false,
      "metar_trigger": false,
      "taf_trigger": false,
      "metar": "METAR LIMF 202020Z VRB01KT CAVOK 11/M01 Q1019",
      "taf": "TAF LIMF 201700Z 2018/2118 VRB05KT CAVOK"
    },
    {
      "icao": "LIMJ",
      "alert": "OK",
      "vis_m": 9999,
      "fzfg": false,
      "metar_trigger": false,
      "taf_trigger": false,
      "metar": "METAR LIMJ 202020Z VRB01KT CAVOK 13/04 Q1017",
      "taf": "TAF LIMJ 201700Z 2018/2118 03007KT CAVOK"
    },
    {
      "icao": "LIPE",
      "alert": "OK",
      "vis_m": 9999,
      "fzfg": false,
      "metar_trigger": false,
      "taf_trigger": false,
      "metar": "METAR LIPE 202020Z 14008KT CAVOK 08/02 Q1020",
      "taf": "TAF LIPE 201700Z 2018/2118 12010KT CAVOK"
    },
    {
      "icao": "LIPH",
      "alert": "OK",
      "vis_m": 9999,
      "fzfg": false,
      "metar_trigger": false,
      "taf_trigger": false,
      "metar": "METAR LIPH 202020Z VRB02KT 9999 BKN030 09/04 Q1020",
      "taf": "TAF LIPH 201700Z 2018/2118 VRB05KT 9999 FEW040"
    },
    {
      "icao": "LIPQ",
      "alert": "OK",
      "vis_m": 9999,
      "fzfg": false,
      "metar_trigger": false,
      "taf_trigger": false,
      "metar": "METAR LIPQ 202020Z AUTO VRB02KT 9999 FEW250/// 05/01 Q1020",
      "taf": "TAF LIPQ 201700Z 2018/2118 VRB06KT 9999 SCT030"
    },
    {
      "icao": "LIPR",
      "alert": "OK",
      "vis_m": 9999,
      "fzfg": false,
      "metar_trigger": false,
      "taf_trigger": false,
      "metar": "METAR LIPR 202020Z 22003KT 9999 SCT045 04/03 Q1019",
      "taf": "TAF LIPR 201700Z 2018/2118 VRB06KT 9999 FEW030"
    },
    {
      "icao": "LIPX",
      "alert": "OK",
      "vis_m": 9999,
      "fzfg": false,
      "metar_trigger": false,
      "taf_trigger": false,
      "metar": "METAR LIPX 202020Z 00000KT 9999 SCT025 06/05 Q1020",
      "taf": "TAF LIPX 201700Z 2018/2118 VRB05KT 9999 SCT020"
    },
    {
      "icao": "LIPY",
      "alert": "OK",
      "vis_m": 9999,
      "fzfg": false,
      "metar_trigger": false,
      "taf_trigger": false,
      "metar": "METAR LIPY 202020Z AUTO 03010KT 9999 FEW034/// 09/04 Q1019",
      "taf": "TAF LIPY 201700Z 2018/2118 35015KT 9999 SCT030"
    },
    {
      "icao": "LIPZ",
      "alert": "OK",
      "vis_m": 9999,
      "fzfg": false,
      "metar_trigger": false,
      "taf_trigger": false,
      "metar": "METAR LIPZ 202020Z 10009KT 9999 SCT025 08/04 Q1020 NOSIG",
      "taf": "TAF LIPZ 201700Z 2018/2124 VRB05KT CAVOK"
    },
    {
      "icao": "LIRF",
      "alert": "OK",
      "vis_m": 9999,
      "fzfg": false,
      "metar_trigger": false,
      "taf_trigger": false,
      "metar": "METAR LIRF 202020Z 33007KT CAVOK 09/04 Q1015 NOSIG",
      "taf": ""
    },
    {
      "icao": "LIRN",
      "alert": "OK",
      "vis_m": 9999,
      "fzfg": false,
      "metar_trigger": false,
      "taf_trigger": false,
      "metar": "METAR LIRN 202020Z VRB03KT 9999 SCT035 09/06 Q1015 NOSIG",
      "taf": "TAF LIRN 201700Z 2018/2118 24008KT 9999 SCT020"
    },
    {
      "icao": "LIRP",
      "alert": "OK",
      "vis_m": 9999,
      "fzfg": false,
      "metar_trigger": false,
      "taf_trigger": false,
      "metar": "METAR LIRP 202015Z 12012KT CAVOK 10/05 Q1018 NOSIG",
      "taf": "TAF LIRP 201700Z 2018/2118 VRB03KT CAVOK"
    },
    {
      "icao": "LIRZ",
      "alert": "OK",
      "vis_m": 9999,
      "fzfg": false,
      "metar_trigger": false,
      "taf_trigger": false,
      "metar": "METAR LIRZ 202020Z AUTO 01005KT 9999 NCD 06/02 Q1018",
      "taf": "TAF LIRZ 201700Z 2018/2118 01014KT 9999 SCT035"
    },
    {
      "icao": "LJLJ",
      "alert": "OK",
      "vis_m": 9999,
      "fzfg": false,
      "metar_trigger": false,
      "taf_trigger": false,
      "metar": "METAR LJLJ 202030Z VRB02KT 9999 BKN006 01/01 Q1022 NOSIG",
      "taf": "TAF LJLJ 201700Z 2018/2118 13003KT 9999 FEW008 SCT040 BKN050"
    },
    {
      "icao": "LKMT",
      "alert": "OK",
      "vis_m": 9999,
      "fzfg": false,
      "metar_trigger": false,
      "taf_trigger": false,
      "metar": "METAR LKMT 202030Z 36005KT CAVOK M07/M09 Q1024 NOSIG",
      "taf": "TAF LKMT 201700Z 2018/2118 03010KT CAVOK"
    },
    {
      "icao": "LKPR",
      "alert": "OK",
      "vis_m": 9999,
      "fzfg": false,
      "metar_trigger": false,
      "taf_trigger": false,
      "metar": "METAR LKPR 202030Z 16008KT CAVOK M02/M06 Q1022 BECMG FM2100 21008KT",
      "taf": "TAF LKPR 202000Z 2021/2203 16006KT 9999 BKN025"
    },
    {
      "icao": "LLBG",
      "alert": "OK",
      "vis_m": 9999,
      "fzfg": false,
      "metar_trigger": false,
      "taf_trigger": false,
      "metar": "METAR LLBG 202020Z 14004KT CAVOK 16/10 Q1018 NOSIG",
      "taf": "TAF LLBG 201703Z 2018/2118 17005KT CAVOK"
    },
    {
      "icao": "LMML",
      "alert": "OK",
      "vis_m": 9999,
      "fzfg": false,
      "metar_trigger": false,
      "taf_trigger": false,
      "metar": "METAR LMML 202045Z 28017G31KT 9999 FEW021 13/10 Q1017 NOSIG",
      "taf": "TAF LMML 201700Z 2018/2118 29023G39KT 9999 SCT019"
    },
    {
      "icao": "LOWW",
      "alert": "OK",
      "vis_m": 9999,
      "fzfg": false,
      "metar_trigger": false,
      "taf_trigger": false,
      "metar": "METAR LOWW 202020Z 33009KT CAVOK M00/M04 Q1025 NOSIG",
      "taf": "TAF LOWW 202019Z 2021/2203 35008KT 9999 SCT050 TX05/2123Z TNM05/2105Z"
    },
    {
      "icao": "LPFR",
      "alert": "OK",
      "vis_m": 9999,
      "fzfg": false,
      "metar_trigger": false,
      "taf_trigger": false,
      "metar": "METAR LPFR 202030Z 33004KT 300V360 CAVOK 13/08 Q1027",
      "taf": "TAF LPFR 201700Z 2018/2118 25007KT CAVOK"
    },
    {
      "icao": "LPMA",
      "alert": "OK",
      "vis_m": 9999,
      "fzfg": false,
      "metar_trigger": false,
      "taf_trigger": false,
      "metar": "METAR LPMA 202030Z 02009KT 9999 BKN016 16/09 Q1026",
      "taf": "TAF LPMA 201700Z 2018/2118 03013KT 9999 SCT015"
    },
    {
      "icao": "LPPR",
      "alert": "OK",
      "vis_m": 9999,
      "fzfg": false,
      "metar_trigger": false,
      "taf_trigger": false,
      "metar": "METAR LPPR 202030Z 35004KT 320V040 CAVOK 09/06 Q1030",
      "taf": "TAF LPPR 201700Z 2018/2118 31010KT CAVOK"
    },
    {
      "icao": "LPPS",
      "alert": "OK",
      "vis_m": 9999,
      "fzfg": false,
      "metar_trigger": false,
      "taf_trigger": false,
      "metar": "METAR LPPS 202030Z 08010KT 040V110 9999 FEW015 BKN030 16/10 Q1027",
      "taf": "TAF LPPS 201700Z 2018/2124 09012KT 9999 FEW015 BKN030"
    },
    {
      "icao": "LPPT",
      "alert": "OK",
      "vis_m": 9999,
      "fzfg": false,
      "metar_trigger": false,
      "taf_trigger": false,
      "metar": "METAR LPPT 202030Z 33011KT CAVOK 11/07 Q1029",
      "taf": "TAF LPPT 201700Z 2018/2124 08008KT CAVOK"
    },
    {
      "icao": "LQBK",
      "alert": "OK",
      "vis_m": 9999,
      "fzfg": false,
      "metar_trigger": false,
      "taf_trigger": false,
      "metar": "METAR LQBK 202030Z 28010KT 9999 -SN BKN017 OVC025 00/M01 Q1022 TEMPO 5000 BKN012 OVC020",
      "taf": "TAF LQBK 201700Z 2018/2118 30007KT 9999 SCT012 BKN025 TX04/2113Z TNM01/2106Z"
    },
    {
      "icao": "LQSA",
      "alert": "OK",
      "vis_m": 9999,
      "fzfg": false,
      "metar_trigger": false,
      "taf_trigger": false,
      "metar": "METAR LQSA 202030Z 29005KT 250V310 9999 -DZ BKN015 OVC025 03/03 Q1018 NOSIG",
      "taf": "TAF LQSA 201700Z 2018/2118 30006KT 9999 SCT008 BKN025 TX05/2113Z TNM01/2104Z"
    },
    {
      "icao": "LQTZ",
      "alert": "OK",
      "vis_m": 9999,
      "fzfg": false,
      "metar_trigger": false,
      "taf_trigger": false,
      "metar": "METAR LQTZ 202030Z 30008KT 9999 SCT005 OVC015 01/01 Q1020",
      "taf": "TAF LQTZ 201700Z 2018/2118 27007KT 9999 SCT015 OVC030 TX04/2018Z TNM01/2106Z"
    },
    {
      "icao": "LRBC",
      "alert": "OK",
      "vis_m": 9999,
      "fzfg": false,
      "metar_trigger": false,
      "taf_trigger": false,
      "metar": "METAR LRBC 202030Z 35011KT 9999 OVC062 M01/M06 Q1028",
      "taf": "TAF LRBC 202000Z 2021/2106 35012KT CAVOK"
    },
    {
      "icao": "LRBS",
      "alert": "OK",
      "vis_m": 3000,
      "fzfg": false,
      "metar_trigger": false,
      "taf_trigger": false,
      "metar": "METAR LRBS 202030Z 05022KT 3000 -SN SCT028 BKN032 OVC037 01/M04 Q1022 NOSIG",
      "taf": "TAF LRBS 201700Z 2018/2118 08025KT 9999 BKN045"
    },
    {
      "icao": "LRBV",
      "alert": "OK",
      "vis_m": 4800,
      "fzfg": false,
      "metar_trigger": false,
      "taf_trigger": false,
      "metar": "METAR LRBV 202030Z 07022KT 4800 -SN BR FEW016 BKN024 OVC031 M01/M09 Q1021 RESN",
      "taf": "TAF LRBV 202000Z 2021/2106 07020KT 5000 -SN BR BKN025"
    },
    {
      "icao": "LRCL",
      "alert": "OK",
      "vis_m": 9999,
      "fzfg": false,
      "metar_trigger": false,
      "taf_trigger": false,
      "metar": "METAR LRCL 202030Z 07004KT 9999 -RA OVC038 03/M00 Q1020",
      "taf": "TAF LRCL 202000Z 2021/2106 07006KT 9999 BKN040"
    },
    {
      "icao": "LRCV",
      "alert": "OK",
      "vis_m": 9999,
      "fzfg": false,
      "metar_trigger": false,
      "taf_trigger": false,
      "metar": "METAR LRCV 202030Z 10020KT 9999 -RA FEW012 OVC027 01/00 Q1020",
      "taf": "TAF LRCV 202000Z 2021/2106 10016KT 5000 -RA OVC030"
    },
    {
      "icao": "LRIA",
      "alert": "OK",
      "vis_m": 9999,
      "fzfg": false,
      "metar_trigger": false,
      "taf_trigger": false,
      "metar": "METAR LRIA 202030Z 33008KT CAVOK M03/M07 Q1029",
      "taf": "TAF LRIA 202000Z 2021/2106 34010KT CAVOK"
    },
    {
      "icao": "LROP",
      "alert": "OK",
      "vis_m": 9999,
      "fzfg": false,
      "metar_trigger": false,
      "taf_trigger": false,
      "metar": "METAR LROP 202030Z 06026G37KT 9999 -RASN OVC037 02/M07 Q1022 NOSIG",
      "taf": "TAF LROP 201700Z 2018/2118 08025KT 9999 BKN045"
    },
    {
      "icao": "LRSB",
      "alert": "OK",
      "vis_m": 6000,
      "fzfg": false,
      "metar_trigger": false,
      "taf_trigger": false,
      "metar": "METAR LRSB 202030Z 11010KT 6000 -SN FEW005 BKN013 OVC025 01/00 Q1019 RESN",
      "taf": "TAF LRSB 201700Z 2018/2118 12006KT 9999 BKN060"
    },
    {
      "icao": "LRSM",
      "alert": "OK",
      "vis_m": 9999,
      "fzfg": false,
      "metar_trigger": false,
      "taf_trigger": false,
      "metar": "METAR LRSM 202030Z AUTO 09007KT 9999 FEW065/// OVC080/// 05/M01 Q1020",
      "taf": "TAF LRSM 201400Z 2015/2024 04014KT CAVOK"
    },
    {
      "icao": "LRSV",
      "alert": "OK",
      "vis_m": 9999,
      "fzfg": false,
      "metar_trigger": false,
      "taf_trigger": false,
      "metar": "METAR LRSV 202030Z VRB01KT CAVOK M06/M10 Q1027",
      "taf": "TAF LRSV 202000Z 2021/2106 VRB04KT CAVOK"
    },
    {
      "icao": "LRTM",
      "alert": "OK",
      "vis_m": 9999,
      "fzfg": false,
      "metar_trigger": false,
      "taf_trigger": false,
      "metar": "METAR LRTM 202030Z AUTO 12008KT 9999 BKN038/// 05/M02 Q1020",
      "taf": "TAF LRTM 201400Z 2015/2024 08012KT 9999 BKN050"
    },
    {
      "icao": "LRTR",
      "alert": "OK",
      "vis_m": 4000,
      "fzfg": false,
      "metar_trigger": false,
      "taf_trigger": false,
      "metar": "METAR LRTR 202030Z 35001KT 4000 RA BR FEW028 BKN035 06/06 Q1018",
      "taf": "TAF LRTR 201700Z 2018/2118 VRB04KT 5000 -RA BR OVC045"
    },
    {
      "icao": "LTAC",
      "alert": "OK",
      "vis_m": 9999,
      "fzfg": false,
      "metar_trigger": false,
      "taf_trigger": false,
      "metar": "METAR LTAC 202020Z 07003KT 020V150 CAVOK 02/M01 Q1021 NOSIG RMK RWY21C 08003KT 040V100 RWY03L 07003KT 030V110 RWY21R VRB02KT RWY03R VRB01KT RWY21L 07005KT",
      "taf": "TAF LTAC 201640Z 2018/2118 VRB02KT CAVOK"
    },
    {
      "icao": "LTFM",
      "alert": "OK",
      "vis_m": 9999,
      "fzfg": false,
      "metar_trigger": false,
      "taf_trigger": false,
      "metar": "METAR LTFM 202020Z 16005KT CAVOK 10/05 Q1018 NOSIG RMK RWY17L 16005KT RWY34L 19003KT RWY16R 14006KT RWY36 17004KT 140V240 RWY18 17006KT",
      "taf": "TAF LTFM 201640Z 2018/2124 20010KT CAVOK"
    },
    {
      "icao": "LUKK",
      "alert": "OK",
      "vis_m": 9999,
      "fzfg": false,
      "metar_trigger": false,
      "taf_trigger": false,
      "metar": "METAR LUKK 202030Z 02011KT CAVOK M03/M09 Q1028 NOSIG",
      "taf": "TAF LUKK 201716Z 2018/2118 02012KT CAVOK"
    },
    {
      "icao": "LWOH",
      "alert": "OK",
      "vis_m": 9999,
      "fzfg": false,
      "metar_trigger": false,
      "taf_trigger": false,
      "metar": "METAR LWOH 201950Z 02003KT 320V030 9999 SCT040 SCT090 05/04 Q1014",
      "taf": "TAF LWOH 202020Z 2021/2121 VRB03KT 9999 SCT040"
    },
    {
      "icao": "LWSK",
      "alert": "OK",
      "vis_m": 9999,
      "fzfg": false,
      "metar_trigger": false,
      "taf_trigger": false,
      "metar": "METAR LWSK 202020Z VRB02KT 9999 BKN050 05/04 Q1015 NOSIG",
      "taf": "TAF LWSK 202020Z 2021/2121 VRB03KT 9999 SCT050"
    },
    {
      "icao": "LYBE",
      "alert": "OK",
      "vis_m": 8000,
      "fzfg": false,
      "metar_trigger": false,
      "taf_trigger": false,
      "metar": "METAR LYBE 202030Z 27015KT 8000 -RA BKN004 BKN027 04/04 Q1018 NOSIG",
      "taf": "TAF LYBE 201700Z 2018/2118 05008KT 9999 SCT012 BKN027 TX06/2018Z TN01/2106Z"
    },
    {
      "icao": "LYNI",
      "alert": "OK",
      "vis_m": 9999,
      "fzfg": false,
      "metar_trigger": false,
      "taf_trigger": false,
      "metar": "METAR LYNI 202030Z VRB01KT 9999 BKN047 06/05 Q1016 NOSIG",
      "taf": "TAF LYNI 201700Z 2018/2118 06005KT 9999 SCT040 TX07/2018Z TN01/2106Z"
    },
    {
      "icao": "LYPG",
      "alert": "OK",
      "vis_m": 5000,
      "fzfg": false,
      "metar_trigger": false,
      "taf_trigger": false,
      "metar": "METAR LYPG 202030Z 33003KT 5000 BR FEW034 06/06 Q1016 TEMPO 3000",
      "taf": "TAF LYPG 201700Z 2018/2118 34005KT 6000 FEW030 SCT090 TX14/2113Z TN05/2024Z"
    },
    {
      "icao": "LZIB",
      "alert": "OK",
      "vis_m": 9999,
      "fzfg": false,
      "metar_trigger": false,
      "taf_trigger": false,
      "metar": "METAR LZIB 202030Z 30005KT 260V340 CAVOK 01/M09 Q1023 NOSIG",
      "taf": "TAF LZIB 201715Z 2018/2118 31012KT 9999 FEW040"
    },
    {
      "icao": "LZKZ",
      "alert": "OK",
      "vis_m": 9999,
      "fzfg": false,
      "metar_trigger": false,
      "taf_trigger": false,
      "metar": "METAR LZKZ 202030Z 01019KT CAVOK M01/M11 Q1021 NOSIG",
      "taf": "TAF LZKZ 201715Z 2018/2118 01015KT CAVOK"
    },
    {
      "icao": "LZTT",
      "alert": "OK",
      "vis_m": 9999,
      "fzfg": false,
      "metar_trigger": false,
      "taf_trigger": false,
      "metar": "METAR LZTT 202030Z 14003KT 110V190 CAVOK M08/M11 Q1021",
      "taf": "TAF LZTT 201715Z 2018/2118 07007KT 9999 FEW050"
    },
    {
      "icao": "OEJN",
      "alert": "OK",
      "vis_m": 9999,
      "fzfg": false,
      "metar_trigger": false,
      "taf_trigger": false,
      "metar": "METAR OEJN 202000Z 31006KT CAVOK 26/19 Q1014 NOSIG",
      "taf": "TAF OEJN 201700Z 2018/2124 36006KT 7000 NSC"
    },
    {
      "icao": "OEMA",
      "alert": "OK",
      "vis_m": 9999,
      "fzfg": false,
      "metar_trigger": false,
      "taf_trigger": false,
      "metar": "METAR OEMA 202000Z 04009KT CAVOK 26/M05 Q1020 NOSIG",
      "taf": "TAF OEMA 201700Z 2018/2124 10010KT 7000 NSC"
    },
    {
      "icao": "OJAI",
      "alert": "OK",
      "vis_m": 4000,
      "fzfg": false,
      "metar_trigger": false,
      "taf_trigger": false,
      "metar": "METAR OJAI 202000Z 11016KT 4000 BLDU NSC 15/01 Q1021 NOSIG",
      "taf": "TAF OJAI 201648Z 2018/2124 12010KT 5000 HZ NSC"
    },
    {
      "icao": "OMAA",
      "alert": "OK",
      "vis_m": 9999,
      "fzfg": false,
      "metar_trigger": false,
      "taf_trigger": false,
      "metar": "METAR OMAA 202030Z 33007KT CAVOK 22/19 Q1017 NOSIG",
      "taf": "TAF OMAA 201700Z 2018/2200 03006KT 8000 NSC"
    },
    {
      "icao": "OMDB",
      "alert": "OK",
      "vis_m": 9999,
      "fzfg": false,
      "metar_trigger": false,
      "taf_trigger": false,
      "metar": "METAR OMDB 202030Z 33004KT 290V020 CAVOK 24/21 Q1017 NOSIG",
      "taf": "TAF OMDB 201700Z 2018/2200 05005KT 8000 NSC"
    },
    {
      "icao": "UAAA",
      "alert": "OK",
      "vis_m": 1200,
      "fzfg": false,
      "metar_trigger": false,
      "taf_trigger": false,
      "metar": "METAR UAAA 202030Z 28002MPS 1200 R23L/P2000N BR OVC002 03/03 Q1019 NOSIG RMK QBB070",
      "taf": "TAF UAAA 201707Z 2018/2118 24003MPS 1400 BR FU BKN005 OVC011 TX08/2109Z TN01/2103Z"
    },
    {
      "icao": "UBBB",
      "alert": "OK",
      "vis_m": 9999,
      "fzfg": false,
      "metar_trigger": false,
      "taf_trigger": false,
      "metar": "METAR UBBB 202030Z 14010KT 9999 SCT019 07/05 Q1028 NOSIG",
      "taf": "TAF UBBB 201701Z 2018/2118 18008KT 9999 SCT025 TX12/2110Z TN07/2101Z"
    },
    {
      "icao": "UDSG",
      "alert": "OK",
      "vis_m": 9999,
      "fzfg": false,
      "metar_trigger": false,
      "taf_trigger": false,
      "metar": "METAR UDSG 202030Z 09003KT 9999 NSC M05/M07 Q1028 NOSIG",
      "taf": "TAF UDSG 201658Z 2018/2118 VRB06KT 9999 FEW040"
    },
    {
      "icao": "UDYZ",
      "alert": "OK",
      "vis_m": 5000,
      "fzfg": false,
      "metar_trigger": false,
      "taf_trigger": false,
      "metar": "METAR UDYZ 202030Z 14002KT 5000 BR NSC 01/M03 Q1028 NOSIG",
      "taf": "TAF UDYZ 201700Z 2018/2118 VRB04KT 9999 FEW040"
    },
    {
      "icao": "UGKO",
      "alert": "OK",
      "vis_m": 9999,
      "fzfg": false,
      "metar_trigger": false,
      "taf_trigger": false,
      "metar": "METAR UGKO 202030Z 08020G30KT CAVOK 12/M04 Q1022 NOSIG",
      "taf": "TAF UGKO 201700Z 2018/2118 08017KT CAVOK TX22/2111Z TN08/2102Z"
    }
  ]
}