{
  "ts_utc": "2026-04-10T04:16:33Z",
  "threshold_m": 150,
  "source": "stations_override.txt (ICAO list) + aviationweather.gov (METAR/TAF raw)",
  "station_count": 159,
  "stations": [
    {
      "icao": "BIKF",
      "alert": "OK",
      "vis_m": 9999,
      "fzfg": false,
      "metar_trigger": false,
      "taf_trigger": false,
      "metar": "METAR BIKF 100400Z 21017G29KT 9999 -RA FEW035 BKN190 02/M03 Q0994",
      "taf": "TAF BIKF 100106Z 1003/1103 19015KT 9999 SCT030 TX04/1015Z TNM03/1103Z"
    },
    {
      "icao": "BKPR",
      "alert": "OK",
      "vis_m": 9999,
      "fzfg": false,
      "metar_trigger": false,
      "taf_trigger": false,
      "metar": "METAR BKPR 100400Z VRB01KT CAVOK M01/M03 Q1017 NOSIG",
      "taf": "TAF BKPR 092330Z 1000/1024 01007KT 9999 SCT050"
    },
    {
      "icao": "EBCI",
      "alert": "OK",
      "vis_m": 9999,
      "fzfg": false,
      "metar_trigger": false,
      "taf_trigger": false,
      "metar": "METAR EBCI 100350Z 32008KT 290V350 9999 FEW045 08/01 Q1020 NOSIG",
      "taf": "TAF EBCI 092313Z 1000/1106 32010KT 9999 SCT020"
    },
    {
      "icao": "EDDB",
      "alert": "OK",
      "vis_m": 9999,
      "fzfg": false,
      "metar_trigger": false,
      "taf_trigger": false,
      "metar": "METAR EDDB 100350Z AUTO 11007KT CAVOK M00/M04 Q1017 NOSIG",
      "taf": "TAF EDDB 092300Z 1000/1024 09005KT CAVOK"
    },
    {
      "icao": "EDDH",
      "alert": "OK",
      "vis_m": 9999,
      "fzfg": false,
      "metar_trigger": false,
      "taf_trigger": false,
      "metar": "METAR EDDH 100350Z AUTO 16012KT 9999 RA FEW019 BKN040 OVC046 04/01 Q1014 BECMG 16007KT NSW",
      "taf": "TAF EDDH 092300Z 1000/1106 13011KT 9999 BKN045"
    },
    {
      "icao": "EDDK",
      "alert": "OK",
      "vis_m": 9999,
      "fzfg": false,
      "metar_trigger": false,
      "taf_trigger": false,
      "metar": "METAR EDDK 100350Z AUTO 31017KT 9999 FEW039 BKN047 10/04 Q1017 BECMG 31010KT",
      "taf": ""
    },
    {
      "icao": "EDDN",
      "alert": "OK",
      "vis_m": 9999,
      "fzfg": false,
      "metar_trigger": false,
      "taf_trigger": false,
      "metar": "METAR EDDN 100350Z AUTO 08004KT 050V120 9999 -RA FEW022 07/02 Q1015",
      "taf": ""
    },
    {
      "icao": "EDDS",
      "alert": "OK",
      "vis_m": 9999,
      "fzfg": false,
      "metar_trigger": false,
      "taf_trigger": false,
      "metar": "METAR EDDS 100350Z AUTO VRB02KT 9999 SHRA FEW///TCU 12/05 Q1014",
      "taf": "TAF EDDS 092300Z 1000/1024 28004KT CAVOK"
    },
    {
      "icao": "EDFH",
      "alert": "OK",
      "vis_m": 9999,
      "fzfg": false,
      "metar_trigger": false,
      "taf_trigger": false,
      "metar": "METAR EDFH 100350Z 31010KT 9999 FEW013 BKN016 11/08 Q1015",
      "taf": "TAF EDFH 092300Z 1000/1024 20007KT 9999 SCT030"
    },
    {
      "icao": "EDJA",
      "alert": "OK",
      "vis_m": 9999,
      "fzfg": false,
      "metar_trigger": false,
      "taf_trigger": false,
      "metar": "METAR EDJA 100350Z 22008KT CAVOK 10/05 Q1015",
      "taf": "TAF EDJA 100200Z 1003/1012 VRB03KT CAVOK"
    },
    {
      "icao": "EDLW",
      "alert": "OK",
      "vis_m": 9999,
      "fzfg": false,
      "metar_trigger": false,
      "taf_trigger": false,
      "metar": "METAR EDLW 100350Z COR 27007KT 250V310 9999 SCT017 BKN023 BKN043 09/06 Q1016",
      "taf": "TAF EDLW 100320Z 1004/1024 29008KT 9999 BKN020"
    },
    {
      "icao": "EDNY",
      "alert": "OK",
      "vis_m": 9999,
      "fzfg": false,
      "metar_trigger": false,
      "taf_trigger": false,
      "metar": "METAR EDNY 100350Z 06003KT CAVOK 05/04 Q1016",
      "taf": "TAF EDNY 100200Z 1003/1012 VRB03KT CAVOK"
    },
    {
      "icao": "EDSB",
      "alert": "OK",
      "vis_m": 9999,
      "fzfg": false,
      "metar_trigger": false,
      "taf_trigger": false,
      "metar": "METAR EDSB 100350Z 27003KT 220V320 CAVOK 10/08 Q1014",
      "taf": "TAF EDSB 092300Z 1000/1024 20003KT CAVOK"
    },
    {
      "icao": "EETN",
      "alert": "OK",
      "vis_m": 9999,
      "fzfg": false,
      "metar_trigger": false,
      "taf_trigger": false,
      "metar": "METAR EETN 100350Z 08004KT CAVOK M02/M03 Q1026 NOSIG",
      "taf": "TAF EETN 092330Z 1000/1024 07010KT CAVOK"
    },
    {
      "icao": "EFTU",
      "alert": "OK",
      "vis_m": 9999,
      "fzfg": false,
      "metar_trigger": false,
      "taf_trigger": false,
      "metar": "METAR EFTU 100350Z AUTO VRB01KT CAVOK M05/M07 Q1026",
      "taf": "TAF EFTU 100223Z 1003/1103 VRB02KT CAVOK"
    },
    {
      "icao": "EGBB",
      "alert": "OK",
      "vis_m": 9999,
      "fzfg": false,
      "metar_trigger": false,
      "taf_trigger": false,
      "metar": "METAR EGBB 100350Z 27004KT CAVOK 05/00 Q1021",
      "taf": "TAF EGBB 092255Z 1000/1024 28006KT 9999 FEW045"
    },
    {
      "icao": "EGGP",
      "alert": "OK",
      "vis_m": 9999,
      "fzfg": false,
      "metar_trigger": false,
      "taf_trigger": false,
      "metar": "METAR EGGP 100350Z AUTO 25010KT 9999 SCT028/// 05/01 Q1020",
      "taf": "TAF EGGP 092255Z 1000/1024 28013KT 9999 FEW030"
    },
    {
      "icao": "EGGW",
      "alert": "OK",
      "vis_m": 9999,
      "fzfg": false,
      "metar_trigger": false,
      "taf_trigger": false,
      "metar": "METAR EGGW 100350Z AUTO 32008KT 9999 NCD 05/00 Q1020",
      "taf": "TAF EGGW 092257Z 1000/1024 27010KT 9999 SCT040"
    },
    {
      "icao": "EGKK",
      "alert": "OK",
      "vis_m": 9999,
      "fzfg": false,
      "metar_trigger": false,
      "taf_trigger": false,
      "metar": "METAR EGKK 100350Z 35008KT CAVOK 07/M00 Q1021",
      "taf": "TAF EGKK 092254Z 1000/1106 32012KT CAVOK"
    },
    {
      "icao": "EGNM",
      "alert": "OK",
      "vis_m": 9999,
      "fzfg": false,
      "metar_trigger": false,
      "taf_trigger": false,
      "metar": "METAR EGNM 100350Z 25008KT 9999 SCT023 04/01 Q1018",
      "taf": "TAF EGNM 092256Z 1000/1024 27012KT 9999 FEW025"
    },
    {
      "icao": "EGPD",
      "alert": "OK",
      "vis_m": 9999,
      "fzfg": false,
      "metar_trigger": false,
      "taf_trigger": false,
      "metar": "METAR EGPD 100350Z COR AUTO 28011KT 9999 NCD 04/00 Q1012 NOSIG",
      "taf": "TAF EGPD 092255Z 1000/1024 27009KT 9999 FEW040"
    },
    {
      "icao": "EGPF",
      "alert": "OK",
      "vis_m": 9999,
      "fzfg": false,
      "metar_trigger": false,
      "taf_trigger": false,
      "metar": "METAR EGPF 100350Z AUTO 26007KT 9999 -RASN SCT039/// //////TCU 04/01 Q1016",
      "taf": ""
    },
    {
      "icao": "EHBK",
      "alert": "OK",
      "vis_m": 9999,
      "fzfg": false,
      "metar_trigger": false,
      "taf_trigger": false,
      "metar": "METAR EHBK 100355Z AUTO 29005KT 250V340 9999 SCT041 BKN046 09/04 Q1018 NOSIG",
      "taf": "TAF EHBK 092304Z 1000/1106 30010KT 9999 SCT030"
    },
    {
      "icao": "EHEH",
      "alert": "OK",
      "vis_m": 9999,
      "fzfg": false,
      "metar_trigger": false,
      "taf_trigger": false,
      "metar": "METAR EHEH 100355Z AUTO 30007KT 260V350 9999 FEW031 OVC110 09/02 Q1019 BLU",
      "taf": "TAF EHEH 092340Z 1000/1106 30010KT 9999 SCT025 BKN045"
    },
    {
      "icao": "EKBI",
      "alert": "OK",
      "vis_m": 9999,
      "fzfg": false,
      "metar_trigger": false,
      "taf_trigger": false,
      "metar": "METAR EKBI 100350Z AUTO 13014KT 9999 -RA OVC008/// 02/01 Q1012",
      "taf": "TAF EKBI 100227Z 1003/1103 13015KT 9999 BKN045"
    },
    {
      "icao": "EKCH",
      "alert": "OK",
      "vis_m": 9999,
      "fzfg": false,
      "metar_trigger": false,
      "taf_trigger": false,
      "metar": "METAR EKCH 100350Z AUTO 13021KT 9999 FEW019/// 03/M01 Q1018 NOSIG",
      "taf": "TAF EKCH 100227Z 1003/1103 13015KT CAVOK"
    },
    {
      "icao": "ENAL",
      "alert": "OK",
      "vis_m": 9999,
      "fzfg": false,
      "metar_trigger": false,
      "taf_trigger": false,
      "metar": "METAR ENAL 100350Z AUTO 06012KT 9999 FEW005/// SCT052/// 06/05 Q1009",
      "taf": "TAF ENAL 100200Z 1003/1012 05009KT 9999 -RA BKN040"
    },
    {
      "icao": "ENBR",
      "alert": "OK",
      "vis_m": 9999,
      "fzfg": false,
      "metar_trigger": false,
      "taf_trigger": false,
      "metar": "METAR ENBR 100350Z 14020KT 9999 -DZ BKN031 04/M02 Q1009 RMK WIND 1200FT 13042G53KT",
      "taf": "TAF ENBR 092300Z 1000/1024 15020KT 9999 -RA FEW040 SCT050"
    },
    {
      "icao": "ENGM",
      "alert": "OK",
      "vis_m": 9999,
      "fzfg": false,
      "metar_trigger": false,
      "taf_trigger": false,
      "metar": "METAR ENGM 100350Z VRB02KT CAVOK M03/M07 Q1018 NOSIG",
      "taf": "TAF ENGM 092300Z 1000/1024 VRB03KT CAVOK"
    },
    {
      "icao": "ENHD",
      "alert": "OK",
      "vis_m": 9999,
      "fzfg": false,
      "metar_trigger": false,
      "taf_trigger": false,
      "metar": "METAR ENHD 100350Z AUTO 12023G35KT 9999 -RA FEW009/// SCT016/// OVC035/// 05/M02 Q1008 RERA REDZ REDZRA",
      "taf": "TAF ENHD 100200Z 1003/1012 14018KT 9999 -RA BKN030"
    },
    {
      "icao": "ENTC",
      "alert": "OK",
      "vis_m": 9999,
      "fzfg": false,
      "metar_trigger": false,
      "taf_trigger": false,
      "metar": "METAR ENTC 100320Z AUTO VRB02KT 9999 NCD 04/M01 Q1014 RMK WIND 2600FT 18008KT",
      "taf": "TAF ENTC 092300Z 1000/1024 20005KT CAVOK"
    },
    {
      "icao": "ENTO",
      "alert": "OK",
      "vis_m": 9999,
      "fzfg": false,
      "metar_trigger": false,
      "taf_trigger": false,
      "metar": "METAR ENTO 100350Z 16010KT 9999 FEW018 SCT027 03/M02 Q1018",
      "taf": "TAF ENTO 092300Z 1000/1024 15008KT CAVOK"
    },
    {
      "icao": "ENVA",
      "alert": "OK",
      "vis_m": 9999,
      "fzfg": false,
      "metar_trigger": false,
      "taf_trigger": false,
      "metar": "METAR ENVA 100350Z 14013KT CAVOK 08/M05 Q1014 RMK WIND 670FT 15008KT",
      "taf": "TAF ENVA 092300Z 1000/1024 14015KT CAVOK"
    },
    {
      "icao": "ENZV",
      "alert": "OK",
      "vis_m": 9999,
      "fzfg": false,
      "metar_trigger": false,
      "taf_trigger": false,
      "metar": "METAR ENZV 100350Z 12015KT 9999 -RA BKN034 03/M00 Q1009",
      "taf": ""
    },
    {
      "icao": "EPGD",
      "alert": "OK",
      "vis_m": 9999,
      "fzfg": false,
      "metar_trigger": false,
      "taf_trigger": false,
      "metar": "METAR EPGD 100400Z 12004KT CAVOK M01/M05 Q1022",
      "taf": "TAF EPGD 092330Z 1000/1024 VRB02KT CAVOK"
    },
    {
      "icao": "EPKK",
      "alert": "OK",
      "vis_m": 6000,
      "fzfg": false,
      "metar_trigger": false,
      "taf_trigger": false,
      "metar": "METAR EPKK 100400Z VRB02KT 6000 NSC M02/M04 Q1019",
      "taf": "TAF EPKK 100230Z 1003/1103 24002KT 5000 BR NSC"
    },
    {
      "icao": "EPKT",
      "alert": "OK",
      "vis_m": 3100,
      "fzfg": false,
      "metar_trigger": false,
      "taf_trigger": false,
      "metar": "METAR EPKT 100400Z VRB01KT 3100 BR NSC M06/M07 Q1019",
      "taf": "TAF EPKT 092330Z 1000/1024 VRB02KT 6000 NSC"
    },
    {
      "icao": "EPLB",
      "alert": "OK",
      "vis_m": 9999,
      "fzfg": false,
      "metar_trigger": false,
      "taf_trigger": false,
      "metar": "METAR EPLB 100400Z 30002KT CAVOK M03/M03 Q1020",
      "taf": "TAF EPLB 092330Z 1000/1024 VRB05KT CAVOK"
    },
    {
      "icao": "EPMO",
      "alert": "OK",
      "vis_m": 9999,
      "fzfg": false,
      "metar_trigger": false,
      "taf_trigger": false,
      "metar": "METAR EPMO 100400Z 03003KT CAVOK M03/M04 Q1022",
      "taf": "TAF EPMO 092330Z 1000/1024 06004KT CAVOK"
    },
    {
      "icao": "EPPO",
      "alert": "OK",
      "vis_m": 9999,
      "fzfg": false,
      "metar_trigger": false,
      "taf_trigger": false,
      "metar": "METAR EPPO 100400Z 10007KT CAVOK M03/M05 Q1020",
      "taf": "TAF EPPO 092330Z 1000/1024 06006KT CAVOK"
    },
    {
      "icao": "EPRA",
      "alert": "OK",
      "vis_m": 9999,
      "fzfg": false,
      "metar_trigger": false,
      "taf_trigger": false,
      "metar": "METAR EPRA 100400Z VRB02KT CAVOK M02/M03 Q1020",
      "taf": "TAF EPRA 100230Z 1003/1012 VRB02KT CAVOK"
    },
    {
      "icao": "EPRZ",
      "alert": "OK",
      "vis_m": 5000,
      "fzfg": false,
      "metar_trigger": false,
      "taf_trigger": false,
      "metar": "METAR EPRZ 100400Z 04003KT 5000 BR BKN020 M00/M00 Q1019",
      "taf": ""
    },
    {
      "icao": "EPSC",
      "alert": "OK",
      "vis_m": 9999,
      "fzfg": false,
      "metar_trigger": false,
      "taf_trigger": false,
      "metar": "METAR EPSC 100400Z 11011KT CAVOK M00/M04 Q1019",
      "taf": "TAF EPSC 092330Z 1000/1024 06006KT CAVOK"
    },
    {
      "icao": "EPSY",
      "alert": "OK",
      "vis_m": 9999,
      "fzfg": false,
      "metar_trigger": false,
      "taf_trigger": false,
      "metar": "METAR EPSY 100400Z 36002KT CAVOK M05/M06 Q1022",
      "taf": "TAF EPSY 100230Z 1003/1012 03005KT CAVOK"
    },
    {
      "icao": "EPWA",
      "alert": "OK",
      "vis_m": 9999,
      "fzfg": false,
      "metar_trigger": false,
      "taf_trigger": false,
      "metar": "METAR EPWA 100400Z 00000KT CAVOK M02/M04 Q1021 NOSIG",
      "taf": "TAF EPWA 100230Z 1003/1103 VRB02KT 9999 SCT035"
    },
    {
      "icao": "EPWR",
      "alert": "OK",
      "vis_m": 9999,
      "fzfg": false,
      "metar_trigger": false,
      "taf_trigger": false,
      "metar": "METAR EPWR 100400Z VRB01KT CAVOK M04/M05 Q1019",
      "taf": "TAF EPWR 100230Z 1003/1103 VRB02KT CAVOK"
    },
    {
      "icao": "ESGG",
      "alert": "OK",
      "vis_m": 9999,
      "fzfg": false,
      "metar_trigger": false,
      "taf_trigger": false,
      "metar": "METAR ESGG 100350Z 13013KT CAVOK M02/M05 Q1018",
      "taf": "TAF ESGG 100230Z 1003/1103 14009KT CAVOK"
    },
    {
      "icao": "ESKN",
      "alert": "OK",
      "vis_m": 9999,
      "fzfg": false,
      "metar_trigger": false,
      "taf_trigger": false,
      "metar": "METAR ESKN 100350Z 09004KT CAVOK M03/M03 Q1023",
      "taf": "TAF ESKN 100230Z 1003/1103 05004KT CAVOK"
    },
    {
      "icao": "ESMS",
      "alert": "OK",
      "vis_m": 9999,
      "fzfg": false,
      "metar_trigger": false,
      "taf_trigger": false,
      "metar": "METAR ESMS 100350Z 14010KT CAVOK 02/M02 Q1018",
      "taf": "TAF ESMS 100227Z 1003/1103 12010KT CAVOK"
    },
    {
      "icao": "ESSA",
      "alert": "OK",
      "vis_m": 9999,
      "fzfg": false,
      "metar_trigger": false,
      "taf_trigger": false,
      "metar": "METAR ESSA 100350Z 08005KT CAVOK M03/M04 Q1024 NOSIG",
      "taf": "TAF ESSA 100230Z 1003/1103 10006KT CAVOK"
    },
    {
      "icao": "EYKA",
      "alert": "OK",
      "vis_m": 9999,
      "fzfg": false,
      "metar_trigger": false,
      "taf_trigger": false,
      "metar": "METAR EYKA 100350Z 32003KT 280V010 CAVOK M00/M04 Q1022",
      "taf": "TAF EYKA 092302Z 1000/1024 VRB04KT 9000 BKN040"
    },
    {
      "icao": "EYPA",
      "alert": "OK",
      "vis_m": 9999,
      "fzfg": false,
      "metar_trigger": false,
      "taf_trigger": false,
      "metar": "METAR EYPA 100350Z 05002KT CAVOK M03/M05 Q1024",
      "taf": "TAF EYPA 092302Z 1000/1024 VRB04KT 9000 NSC"
    },
    {
      "icao": "EYVI",
      "alert": "OK",
      "vis_m": 9999,
      "fzfg": false,
      "metar_trigger": false,
      "taf_trigger": false,
      "metar": "METAR EYVI 100350Z 32004KT CAVOK M00/M03 Q1020 NOSIG",
      "taf": "TAF EYVI 092302Z 1000/1024 VRB04KT 9000 BKN035"
    },
    {
      "icao": "GCFV",
      "alert": "OK",
      "vis_m": 9999,
      "fzfg": false,
      "metar_trigger": false,
      "taf_trigger": false,
      "metar": "METAR GCFV 100400Z AUTO 30007KT 260V320 CAVOK 17/10 Q1016",
      "taf": "TAF GCFV 100200Z 1003/1103 31010KT 9999 SCT030 TX21/1014Z TN15/1006Z"
    },
    {
      "icao": "GCLP",
      "alert": "OK",
      "vis_m": 9999,
      "fzfg": false,
      "metar_trigger": false,
      "taf_trigger": false,
      "metar": "METAR GCLP 100400Z 34009KT 9999 FEW040 17/09 Q1017 NOSIG",
      "taf": "TAF GCLP 100200Z 1003/1103 34014KT 9999 SCT030 TX22/1014Z TN15/1006Z"
    },
    {
      "icao": "GCTS",
      "alert": "OK",
      "vis_m": 9999,
      "fzfg": false,
      "metar_trigger": false,
      "taf_trigger": false,
      "metar": "METAR GCTS 100400Z 33006KT 9999 FEW025 16/11 Q1017 NOSIG",
      "taf": "TAF GCTS 100200Z 1003/1103 VRB08KT 9999 SCT030 TX23/1014Z TN15/1006Z"
    },
    {
      "icao": "GMAD",
      "alert": "OK",
      "vis_m": 9999,
      "fzfg": false,
      "metar_trigger": false,
      "taf_trigger": false,
      "metar": "METAR GMAD 100400Z 19006KT 9999 FEW016 SCT026 BKN080 13/12 Q1012 NOSIG",
      "taf": "TAF GMAD 092300Z 1000/1106 18006KT 6000 SCT020 SCT080"
    },
    {
      "icao": "GMMN",
      "alert": "OK",
      "vis_m": 8000,
      "fzfg": false,
      "metar_trigger": false,
      "taf_trigger": false,
      "metar": "METAR GMMN 100400Z VRB02KT 8000 -RA BKN016 SCT023TCU 11/08 Q1012 NOSIG",
      "taf": "TAF GMMN 092300Z 1000/1106 06006KT 9999 FEW026 SCT100"
    },
    {
      "icao": "GMMX",
      "alert": "OK",
      "vis_m": 6000,
      "fzfg": false,
      "metar_trigger": false,
      "taf_trigger": false,
      "metar": "METAR GMMX 100412Z COR 24006KT 210V270 6000 SCT013 BKN023 11/10 Q1012 NOSIG",
      "taf": "TAF GMMX 092300Z 1000/1106 26008KT 8000 SCT013 BKN023"
    },
    {
      "icao": "HEGN",
      "alert": "OK",
      "vis_m": 9999,
      "fzfg": false,
      "metar_trigger": false,
      "taf_trigger": false,
      "metar": "METAR HEGN 100400Z 29006KT CAVOK 17/M04 Q1015 NOSIG",
      "taf": "TAF HEGN 092300Z 1000/1106 26010KT CAVOK"
    },
    {
      "icao": "HEMA",
      "alert": "OK",
      "vis_m": 9999,
      "fzfg": false,
      "metar_trigger": false,
      "taf_trigger": false,
      "metar": "METAR HEMA 100400Z 29011KT CAVOK 20/06 Q1014 NOSIG",
      "taf": "TAF HEMA 092300Z 1000/1106 27010KT CAVOK"
    },
    {
      "icao": "HESH",
      "alert": "OK",
      "vis_m": 9999,
      "fzfg": false,
      "metar_trigger": false,
      "taf_trigger": false,
      "metar": "METAR HESH 100400Z 00000KT CAVOK 19/06 Q1014 NOSIG",
      "taf": "TAF HESH 092300Z 1000/1106 33010KT CAVOK"
    },
    {
      "icao": "HESX",
      "alert": "OK",
      "vis_m": 9999,
      "fzfg": false,
      "metar_trigger": false,
      "taf_trigger": false,
      "metar": "METAR HESX 100400Z 26006KT CAVOK 12/08 Q1015 NOSIG",
      "taf": "TAF HESX 092300Z 1000/1106 VRB03KT CAVOK"
    },
    {
      "icao": "LATI",
      "alert": "OK",
      "vis_m": 9999,
      "fzfg": false,
      "metar_trigger": false,
      "taf_trigger": false,
      "metar": "METAR LATI 100350Z 16003KT 9999 BKN027 07/03 Q1016 NOSIG",
      "taf": "TAF LATI 092300Z 1000/1024 VRB05KT CAVOK TX21/1012Z TN04/1004Z"
    },
    {
      "icao": "LBPD",
      "alert": "OK",
      "vis_m": 9999,
      "fzfg": false,
      "metar_trigger": false,
      "taf_trigger": false,
      "metar": "METAR LBPD 100400Z AUTO 27004KT 9999 FEW240/// 02/M00 Q1016 NOSIG",
      "taf": "TAF LBPD 092300Z 1000/1024 29010KT 9999 SCT060"
    },
    {
      "icao": "LBSF",
      "alert": "OK",
      "vis_m": 9999,
      "fzfg": false,
      "metar_trigger": false,
      "taf_trigger": false,
      "metar": "METAR LBSF 100400Z 34005KT 310V010 9999 BKN068 02/M04 Q1016 NOSIG",
      "taf": "TAF LBSF 092300Z 1000/1024 VRB03KT 9999 SCT060"
    },
    {
      "icao": "LBWN",
      "alert": "OK",
      "vis_m": 9999,
      "fzfg": false,
      "metar_trigger": false,
      "taf_trigger": false,
      "metar": "METAR LBWN 100400Z AUTO 34004KT 290V020 9999 FEW015/// OVC042/// 04/03 Q1016 NOSIG",
      "taf": "TAF LBWN 092300Z 1000/1024 02010KT 9999 SCT025 BKN040"
    },
    {
      "icao": "LCLK",
      "alert": "OK",
      "vis_m": 9999,
      "fzfg": false,
      "metar_trigger": false,
      "taf_trigger": false,
      "metar": "METAR LCLK 100400Z 27006KT 9999 FEW025 FEW030TCU 15/13 Q1011 NOSIG",
      "taf": "TAF LCLK 092330Z 1000/1100 25009KT 9999 FEW020 SCT050"
    },
    {
      "icao": "LCPH",
      "alert": "OK",
      "vis_m": 9999,
      "fzfg": false,
      "metar_trigger": false,
      "taf_trigger": false,
      "metar": "METAR LCPH 100400Z 33005KT 9999 FEW012 FEW020TCU BKN040 16/14 Q1011 NOSIG",
      "taf": "TAF LCPH 092330Z 1000/1100 26007KT 9999 SCT018"
    },
    {
      "icao": "LEAL",
      "alert": "OK",
      "vis_m": 9999,
      "fzfg": false,
      "metar_trigger": false,
      "taf_trigger": false,
      "metar": "METAR LEAL 100400Z 26003KT CAVOK 13/06 Q1016 NOSIG",
      "taf": "TAF LEAL 092300Z 1000/1024 36004KT CAVOK TX26/1013Z TN14/1006Z"
    },
    {
      "icao": "LEBB",
      "alert": "OK",
      "vis_m": 9999,
      "fzfg": false,
      "metar_trigger": false,
      "taf_trigger": false,
      "metar": "METAR LEBB 100400Z 00000KT 9999 BKN017 14/12 Q1022 NOSIG",
      "taf": "TAF LEBB 092300Z 1000/1024 31006KT 9999 FEW010 TX31/1014Z TN11/1006Z"
    },
    {
      "icao": "LEBL",
      "alert": "OK",
      "vis_m": 9999,
      "fzfg": false,
      "metar_trigger": false,
      "taf_trigger": false,
      "metar": "METAR LEBL 100400Z 33009KT 9999 FEW015 14/07 Q1017 NOSIG",
      "taf": "TAF LEBL 092300Z 1000/1024 20005KT 9999 FEW005 TX23/1012Z TN12/1006Z"
    },
    {
      "icao": "LECH",
      "alert": "OK",
      "vis_m": 9999,
      "fzfg": false,
      "metar_trigger": false,
      "taf_trigger": false,
      "metar": "METAR LECH 100400Z AUTO 19004KT CAVOK 13/03 Q1018",
      "taf": "TAF LECH 092300Z 1000/1024 VRB04KT CAVOK TX26/1014Z TN09/1006Z"
    },
    {
      "icao": "LEMD",
      "alert": "OK",
      "vis_m": 9999,
      "fzfg": false,
      "metar_trigger": false,
      "taf_trigger": false,
      "metar": "METAR LEMD 100400Z VRB02KT CAVOK 12/04 Q1019 NOSIG",
      "taf": "TAF LEMD 092300Z 1000/1106 VRB04KT CAVOK TX29/1015Z TN09/1006Z"
    },
    {
      "icao": "LEMG",
      "alert": "OK",
      "vis_m": 9999,
      "fzfg": false,
      "metar_trigger": false,
      "taf_trigger": false,
      "metar": "METAR LEMG 100400Z 29006KT CAVOK 13/12 Q1012 NOSIG",
      "taf": "TAF LEMG 092300Z 1000/1024 29005KT 9999 FEW020 SCT040 TX24/1014Z TN14/1007Z"
    },
    {
      "icao": "LEVC",
      "alert": "OK",
      "vis_m": 9999,
      "fzfg": false,
      "metar_trigger": false,
      "taf_trigger": false,
      "metar": "METAR LEVC 100400Z 25002KT CAVOK 12/06 Q1017 NOSIG",
      "taf": "TAF LEVC 092300Z 1000/1024 29004KT 9999 FEW010 TX26/1013Z TN13/1006Z"
    },
    {
      "icao": "LEXJ",
      "alert": "OK",
      "vis_m": 9999,
      "fzfg": false,
      "metar_trigger": false,
      "taf_trigger": false,
      "metar": "METAR LEXJ 100400Z 30003KT 260V330 9999 BKN021 13/11 Q1021",
      "taf": "TAF LEXJ 100200Z 1003/1103 28007KT 9000 SCT010 TX24/1014Z TN12/1007Z"
    },
    {
      "icao": "LEZG",
      "alert": "OK",
      "vis_m": 9999,
      "fzfg": false,
      "metar_trigger": false,
      "taf_trigger": false,
      "metar": "METAR LEZG 100400Z 26009KT CAVOK 14/07 Q1018 NOSIG",
      "taf": "TAF LEZG 092300Z 1000/1024 29010KT CAVOK TX30/1015Z TN12/1006Z"
    },
    {
      "icao": "LEZL",
      "alert": "OK",
      "vis_m": 9999,
      "fzfg": false,
      "metar_trigger": false,
      "taf_trigger": false,
      "metar": "METAR LEZL 100400Z 00000KT CAVOK 13/12 Q1013 NOSIG",
      "taf": "TAF LEZL 100200Z 1003/1103 21006KT CAVOK TX26/1015Z TN11/1007Z"
    },
    {
      "icao": "LFBD",
      "alert": "OK",
      "vis_m": 6000,
      "fzfg": false,
      "metar_trigger": false,
      "taf_trigger": false,
      "metar": "METAR LFBD 100400Z AUTO 27007KT 6000 OVC003 14/14 Q1020 TEMPO 0400 FG VV///",
      "taf": "TAF LFBD 092300Z 1000/1106 24008KT 3000 BR BKN002 TX27/1015Z TN12/1005Z"
    },
    {
      "icao": "LFLL",
      "alert": "OK",
      "vis_m": 9999,
      "fzfg": false,
      "metar_trigger": false,
      "taf_trigger": false,
      "metar": "METAR LFLL 100400Z VRB02KT CAVOK 11/07 Q1017 NOSIG",
      "taf": "TAF LFLL 092300Z 1000/1106 VRB02KT CAVOK"
    },
    {
      "icao": "LFLS",
      "alert": "OK",
      "vis_m": 9999,
      "fzfg": false,
      "metar_trigger": false,
      "taf_trigger": false,
      "metar": "METAR LFLS 100400Z AUTO 08006KT CAVOK 06/04 Q1017 NOSIG",
      "taf": "TAF LFLS 100200Z 1003/1103 09005KT CAVOK"
    },
    {
      "icao": "LFMN",
      "alert": "OK",
      "vis_m": 9999,
      "fzfg": false,
      "metar_trigger": false,
      "taf_trigger": false,
      "metar": "METAR LFMN 100400Z 32006KT 9999 OVC014 14/11 Q1014 NOSIG",
      "taf": "TAF LFMN 100200Z 1003/1109 01005KT 9999 OVC015"
    },
    {
      "icao": "LFOB",
      "alert": "OK",
      "vis_m": 9999,
      "fzfg": false,
      "metar_trigger": false,
      "taf_trigger": false,
      "metar": "METAR LFOB 100400Z AUTO 33006KT CAVOK 07/04 Q1021 NOSIG",
      "taf": "TAF LFOB 092300Z 1000/1024 33010KT CAVOK"
    },
    {
      "icao": "LFPO",
      "alert": "OK",
      "vis_m": 9999,
      "fzfg": false,
      "metar_trigger": false,
      "taf_trigger": false,
      "metar": "METAR LFPO 100400Z 33008KT CAVOK 09/04 Q1021 NOSIG",
      "taf": "TAF LFPO 092300Z 1000/1106 33010KT CAVOK"
    },
    {
      "icao": "LFSB",
      "alert": "OK",
      "vis_m": 9999,
      "fzfg": false,
      "metar_trigger": false,
      "taf_trigger": false,
      "metar": "METAR LFSB 100400Z AUTO 21003KT 9999 -RA FEW056 BKN092 OVC120 10/08 Q1016 NOSIG",
      "taf": "TAF LFSB 092300Z 1000/1024 VRB03KT CAVOK"
    },
    {
      "icao": "LGAV",
      "alert": "OK",
      "vis_m": 9999,
      "fzfg": false,
      "metar_trigger": false,
      "taf_trigger": false,
      "metar": "METAR LGAV 100350Z 36002KT 9999 FEW030 SCT070 11/06 Q1015 NOSIG",
      "taf": "TAF LGAV 092300Z 1000/1024 VRB03KT 9999 SCT030"
    },
    {
      "icao": "LGTS",
      "alert": "OK",
      "vis_m": 9999,
      "fzfg": false,
      "metar_trigger": false,
      "taf_trigger": false,
      "metar": "METAR LGTS 100350Z 10005KT 9999 FEW030 08/06 Q1016 NOSIG",
      "taf": "TAF LGTS 092300Z 1000/1024 34015KT 9999 FEW025"
    },
    {
      "icao": "LHBP",
      "alert": "OK",
      "vis_m": 9999,
      "fzfg": false,
      "metar_trigger": false,
      "taf_trigger": false,
      "metar": "METAR LHBP 100400Z 35005KT CAVOK M01/M03 Q1018 NOSIG",
      "taf": "TAF LHBP 092315Z 1000/1024 07007KT CAVOK"
    },
    {
      "icao": "LHDC",
      "alert": "OK",
      "vis_m": 9999,
      "fzfg": false,
      "metar_trigger": false,
      "taf_trigger": false,
      "metar": "METAR LHDC 100345Z AUTO 03011KT CAVOK 02/M03 Q1018 NOSIG",
      "taf": "TAF LHDC 100215Z 1003/1012 04007KT CAVOK"
    },
    {
      "icao": "LIBD",
      "alert": "OK",
      "vis_m": 9999,
      "fzfg": false,
      "metar_trigger": false,
      "taf_trigger": false,
      "metar": "METAR LIBD 100350Z 21004KT CAVOK 08/04 Q1014",
      "taf": "TAF LIBD 092300Z 1000/1024 22006KT CAVOK"
    },
    {
      "icao": "LIBG",
      "alert": "OK",
      "vis_m": null,
      "fzfg": false,
      "metar_trigger": false,
      "taf_trigger": false,
      "metar": "",
      "taf": ""
    },
    {
      "icao": "LIBP",
      "alert": "OK",
      "vis_m": 9999,
      "fzfg": false,
      "metar_trigger": false,
      "taf_trigger": false,
      "metar": "METAR LIBP 100350Z AUTO 25003KT 220V280 9999 NCD 07/07 Q1015",
      "taf": "TAF LIBP 092300Z 1000/1024 VRB05KT CAVOK"
    },
    {
      "icao": "LIBR",
      "alert": "OK",
      "vis_m": 9999,
      "fzfg": false,
      "metar_trigger": false,
      "taf_trigger": false,
      "metar": "METAR LIBR 100350Z 23005KT CAVOK 09/05 Q1015",
      "taf": "TAF LIBR 092300Z 1000/1024 VRB05KT CAVOK"
    },
    {
      "icao": "LICA",
      "alert": "OK",
      "vis_m": 9999,
      "fzfg": false,
      "metar_trigger": false,
      "taf_trigger": false,
      "metar": "METAR LICA 100350Z AUTO 10003KT 070V130 9999 NCD 08/05 Q1016",
      "taf": "TAF LICA 092300Z 1000/1024 26005KT CAVOK"
    },
    {
      "icao": "LICC",
      "alert": "OK",
      "vis_m": 9999,
      "fzfg": false,
      "metar_trigger": false,
      "taf_trigger": false,
      "metar": "METAR LICC 100350Z 24005KT CAVOK 07/03 Q1016",
      "taf": "TAF LICC 092300Z 1000/1024 VRB05KT CAVOK"
    },
    {
      "icao": "LICJ",
      "alert": "OK",
      "vis_m": 9999,
      "fzfg": false,
      "metar_trigger": false,
      "taf_trigger": false,
      "metar": "METAR LICJ 100350Z 10002KT CAVOK 12/06 Q1016",
      "taf": "TAF LICJ 092300Z 1000/1024 VRB05KT CAVOK"
    },
    {
      "icao": "LIMC",
      "alert": "OK",
      "vis_m": 9999,
      "fzfg": false,
      "metar_trigger": false,
      "taf_trigger": false,
      "metar": "METAR LIMC 100350Z 05003KT 010V070 CAVOK 12/07 Q1015 NOSIG",
      "taf": "TAF LIMC 092300Z 1000/1106 VRB05KT CAVOK"
    },
    {
      "icao": "LIME",
      "alert": "OK",
      "vis_m": 9999,
      "fzfg": false,
      "metar_trigger": false,
      "taf_trigger": false,
      "metar": "METAR LIME 100350Z 01003KT CAVOK 10/07 Q1015 NOSIG",
      "taf": "TAF LIME 092300Z 1000/1024 VRB05KT CAVOK"
    },
    {
      "icao": "LIMF",
      "alert": "OK",
      "vis_m": 9999,
      "fzfg": false,
      "metar_trigger": false,
      "taf_trigger": false,
      "metar": "METAR LIMF 100350Z 04004KT CAVOK 12/08 Q1015",
      "taf": "TAF LIMF 092300Z 1000/1024 VRB05KT CAVOK"
    },
    {
      "icao": "LIMJ",
      "alert": "OK",
      "vis_m": 9999,
      "fzfg": false,
      "metar_trigger": false,
      "taf_trigger": false,
      "metar": "METAR LIMJ 100350Z 04003KT 010V070 9999 SCT018 14/11 Q1014",
      "taf": "TAF LIMJ 092300Z 1000/1024 VRB05KT 9000 FEW014"
    },
    {
      "icao": "LIPE",
      "alert": "OK",
      "vis_m": 9999,
      "fzfg": false,
      "metar_trigger": false,
      "taf_trigger": false,
      "metar": "METAR LIPE 100350Z VRB01KT CAVOK 08/M04 Q1015",
      "taf": "TAF LIPE 092300Z 1000/1024 VRB05KT CAVOK"
    },
    {
      "icao": "LIPH",
      "alert": "OK",
      "vis_m": null,
      "fzfg": false,
      "metar_trigger": false,
      "taf_trigger": false,
      "metar": "",
      "taf": "TAF LIPH 092300Z 1000/1024 VRB05KT CAVOK"
    },
    {
      "icao": "LIPQ",
      "alert": "OK",
      "vis_m": 9999,
      "fzfg": false,
      "metar_trigger": false,
      "taf_trigger": false,
      "metar": "METAR LIPQ 100350Z AUTO 01004KT 9999 NCD 05/04 Q1015",
      "taf": "TAF LIPQ 092300Z 1000/1024 VRB05KT CAVOK"
    },
    {
      "icao": "LIPR",
      "alert": "OK",
      "vis_m": 9999,
      "fzfg": false,
      "metar_trigger": false,
      "taf_trigger": false,
      "metar": "METAR LIPR 100350Z AUTO 24002KT 9999 NCD 09/08 Q1015",
      "taf": "TAF LIPR 092300Z 1000/1024 VRB05KT CAVOK"
    },
    {
      "icao": "LIPX",
      "alert": "OK",
      "vis_m": 9999,
      "fzfg": false,
      "metar_trigger": false,
      "taf_trigger": false,
      "metar": "METAR LIPX 100350Z VRB01KT CAVOK 09/07 Q1015",
      "taf": "TAF LIPX 092300Z 1000/1024 VRB05KT 9999 FEW040"
    },
    {
      "icao": "LIPY",
      "alert": "OK",
      "vis_m": 9999,
      "fzfg": false,
      "metar_trigger": false,
      "taf_trigger": false,
      "metar": "METAR LIPY 100350Z AUTO VRB02KT 9999 BKN063/// 10/07 Q1015",
      "taf": "TAF LIPY 092300Z 1000/1024 VRB05KT CAVOK"
    },
    {
      "icao": "LIPZ",
      "alert": "OK",
      "vis_m": 9999,
      "fzfg": false,
      "metar_trigger": false,
      "taf_trigger": false,
      "metar": "METAR LIPZ 100350Z 01004KT 340V040 CAVOK 08/06 Q1015 NOSIG",
      "taf": "TAF LIPZ 092300Z 1000/1106 VRB05KT CAVOK"
    },
    {
      "icao": "LIRF",
      "alert": "OK",
      "vis_m": 8000,
      "fzfg": false,
      "metar_trigger": false,
      "taf_trigger": false,
      "metar": "METAR LIRF 100350Z 06004KT 8000 BCFG NSC 07/07 Q1015 NOSIG",
      "taf": "TAF LIRF 092300Z 1000/1106 VRB05KT CAVOK"
    },
    {
      "icao": "LIRN",
      "alert": "OK",
      "vis_m": 9999,
      "fzfg": false,
      "metar_trigger": false,
      "taf_trigger": false,
      "metar": "METAR LIRN 100350Z AUTO 35001KT 9999 NCD 10/09 Q1016",
      "taf": "TAF LIRN 092300Z 1000/1024 VRB05KT 9999 SCT015"
    },
    {
      "icao": "LIRP",
      "alert": "OK",
      "vis_m": 9999,
      "fzfg": false,
      "metar_trigger": false,
      "taf_trigger": false,
      "metar": "METAR LIRP 100345Z 11005KT 9999 SCT070 08/08 Q1015 NOSIG",
      "taf": "TAF LIRP 092300Z 1000/1024 12004KT 5000 BR FEW010"
    },
    {
      "icao": "LIRZ",
      "alert": "OK",
      "vis_m": 9999,
      "fzfg": false,
      "metar_trigger": false,
      "taf_trigger": false,
      "metar": "METAR LIRZ 100350Z AUTO 02004KT 9999 NCD 06/04 Q1015",
      "taf": "TAF LIRZ 092300Z 1000/1024 VRB05KT CAVOK"
    },
    {
      "icao": "LJLJ",
      "alert": "OK",
      "vis_m": 9999,
      "fzfg": false,
      "metar_trigger": false,
      "taf_trigger": false,
      "metar": "METAR LJLJ 100400Z 25001KT 9999 FEW060 SCT200 M00/M02 Q1016 NOSIG",
      "taf": "TAF LJLJ 092300Z 1000/1100 VRB02KT CAVOK"
    },
    {
      "icao": "LKMT",
      "alert": "OK",
      "vis_m": 4500,
      "fzfg": false,
      "metar_trigger": false,
      "taf_trigger": false,
      "metar": "METAR LKMT 100400Z VRB01KT 4500 BR NSC M04/M05 Q1019 NOSIG",
      "taf": "TAF LKMT 092300Z 1000/1024 VRB02KT CAVOK"
    },
    {
      "icao": "LKPR",
      "alert": "OK",
      "vis_m": 9999,
      "fzfg": false,
      "metar_trigger": false,
      "taf_trigger": false,
      "metar": "METAR LKPR 100400Z 11006KT CAVOK 00/M04 Q1017 NOSIG",
      "taf": "TAF LKPR 100200Z 1003/1109 10006KT CAVOK"
    },
    {
      "icao": "LLBG",
      "alert": "OK",
      "vis_m": 9999,
      "fzfg": false,
      "metar_trigger": false,
      "taf_trigger": false,
      "metar": "METAR LLBG 100350Z 14008KT 9999 SCT030 12/09 Q1014 NOSIG",
      "taf": "TAF LLBG 092314Z 1000/1024 VRB04KT 9999 SCT025 TX22/1011Z TN13/1003Z"
    },
    {
      "icao": "LMML",
      "alert": "OK",
      "vis_m": 9999,
      "fzfg": false,
      "metar_trigger": false,
      "taf_trigger": false,
      "metar": "METAR LMML 100415Z 25007KT CAVOK 14/07 Q1017 NOSIG",
      "taf": "TAF LMML 092300Z 1000/1024 28008KT CAVOK ."
    },
    {
      "icao": "LOWW",
      "alert": "OK",
      "vis_m": 9999,
      "fzfg": false,
      "metar_trigger": false,
      "taf_trigger": false,
      "metar": "METAR LOWW 100350Z 35003KT CAVOK M01/M04 Q1018 NOSIG",
      "taf": "TAF LOWW 100215Z 1003/1109 VRB04KT CAVOK TX09/1109Z TNM01/1003Z"
    },
    {
      "icao": "LPFR",
      "alert": "OK",
      "vis_m": 9999,
      "fzfg": false,
      "metar_trigger": false,
      "taf_trigger": false,
      "metar": "METAR LPFR 100400Z 32005KT CAVOK 14/13 Q1013",
      "taf": "TAF LPFR 092300Z 1000/1024 03008KT 9999 SCT030"
    },
    {
      "icao": "LPMA",
      "alert": "OK",
      "vis_m": 9999,
      "fzfg": false,
      "metar_trigger": false,
      "taf_trigger": false,
      "metar": "METAR LPMA 100400Z 35016KT 310V020 9999 -SHRA BKN015 FEW016TCU 16/11 Q1017",
      "taf": "TAF LPMA 092300Z 1000/1024 36015KT 9999 SCT015"
    },
    {
      "icao": "LPPR",
      "alert": "OK",
      "vis_m": 9999,
      "fzfg": false,
      "metar_trigger": false,
      "taf_trigger": false,
      "metar": "METAR LPPR 100400Z VRB01KT CAVOK 15/11 Q1013",
      "taf": "TAF LPPR 092300Z 1000/1024 VRB02KT CAVOK"
    },
    {
      "icao": "LPPS",
      "alert": "OK",
      "vis_m": 9999,
      "fzfg": false,
      "metar_trigger": false,
      "taf_trigger": false,
      "metar": "METAR LPPS 100400Z 36019KT 9999 SCT012 SCT030 15/12 Q1017",
      "taf": "TAF LPPS 092300Z 1000/1106 34015KT 9999 SCT012 SCT030"
    },
    {
      "icao": "LPPT",
      "alert": "OK",
      "vis_m": 9999,
      "fzfg": false,
      "metar_trigger": false,
      "taf_trigger": false,
      "metar": "METAR LPPT 100400Z 07004KT CAVOK 18/12 Q1012",
      "taf": "TAF LPPT 092300Z 1000/1106 23007KT 9999 SCT030"
    },
    {
      "icao": "LQBK",
      "alert": "OK",
      "vis_m": 9999,
      "fzfg": false,
      "metar_trigger": false,
      "taf_trigger": false,
      "metar": "METAR LQBK 100400Z 00000KT CAVOK M01/M03 Q1017 NOSIG",
      "taf": "TAF LQBK 092300Z 1000/1024 17005KT CAVOK TX16/1013Z TNM00/1004Z"
    },
    {
      "icao": "LQSA",
      "alert": "OK",
      "vis_m": 9999,
      "fzfg": false,
      "metar_trigger": false,
      "taf_trigger": false,
      "metar": "METAR LQSA 100400Z 00000KT CAVOK M01/M03 Q1018 NOSIG",
      "taf": "TAF LQSA 092300Z 1000/1024 32006KT 9999 SCT060 TX17/1014Z TNM02/1005Z"
    },
    {
      "icao": "LQTZ",
      "alert": "OK",
      "vis_m": 9999,
      "fzfg": false,
      "metar_trigger": false,
      "taf_trigger": false,
      "metar": "METAR LQTZ 100400Z VRB01KT CAVOK M02/M02 Q1018",
      "taf": "TAF LQTZ 092300Z 1000/1024 VRB02KT CAVOK TX15/1013Z TNM02/1004Z"
    },
    {
      "icao": "LRBC",
      "alert": "OK",
      "vis_m": 9999,
      "fzfg": false,
      "metar_trigger": false,
      "taf_trigger": false,
      "metar": "METAR LRBC 100400Z 33008KT 9999 SCT036 BKN055 02/M02 Q1017",
      "taf": "TAF LRBC 100200Z 1003/1012 34010KT 9999 SCT035"
    },
    {
      "icao": "LRBS",
      "alert": "OK",
      "vis_m": 9999,
      "fzfg": false,
      "metar_trigger": false,
      "taf_trigger": false,
      "metar": "METAR LRBS 100400Z 08005KT 9999 FEW049 03/M00 Q1017 NOSIG",
      "taf": "TAF LRBS 092300Z 1000/1024 VRB04KT CAVOK"
    },
    {
      "icao": "LRBV",
      "alert": "OK",
      "vis_m": 9999,
      "fzfg": false,
      "metar_trigger": false,
      "taf_trigger": false,
      "metar": "METAR LRBV 100400Z 24001KT 9999 OVC020 M00/M02 Q1016",
      "taf": "TAF LRBV 100200Z 1003/1012 09006KT 9999 BKN040"
    },
    {
      "icao": "LRCL",
      "alert": "OK",
      "vis_m": 9999,
      "fzfg": false,
      "metar_trigger": false,
      "taf_trigger": false,
      "metar": "METAR LRCL 100400Z 11001KT CAVOK M02/M05 Q1017",
      "taf": "TAF LRCL 100200Z 1003/1012 VRB04KT CAVOK"
    },
    {
      "icao": "LRCV",
      "alert": "OK",
      "vis_m": 9999,
      "fzfg": false,
      "metar_trigger": false,
      "taf_trigger": false,
      "metar": "METAR LRCV 100400Z 11007KT 9999 BKN013 03/02 Q1017",
      "taf": "TAF LRCV 100200Z 1003/1012 VRB04KT CAVOK"
    },
    {
      "icao": "LRIA",
      "alert": "OK",
      "vis_m": 9999,
      "fzfg": false,
      "metar_trigger": false,
      "taf_trigger": false,
      "metar": "METAR LRIA 100400Z 31007KT 9999 FEW006 BKN045 02/01 Q1017",
      "taf": "TAF LRIA 100200Z 1003/1012 32010KT 9999 BKN020"
    },
    {
      "icao": "LROP",
      "alert": "OK",
      "vis_m": 9999,
      "fzfg": false,
      "metar_trigger": false,
      "taf_trigger": false,
      "metar": "METAR LROP 100400Z 11005KT 9999 FEW048 04/M02 Q1017 NOSIG",
      "taf": "TAF LROP 092300Z 1000/1024 VRB04KT CAVOK"
    },
    {
      "icao": "LRSB",
      "alert": "OK",
      "vis_m": 9999,
      "fzfg": false,
      "metar_trigger": false,
      "taf_trigger": false,
      "metar": "METAR LRSB 100400Z 25007KT 9999 SCT052 M01/M02 Q1016",
      "taf": "TAF LRSB 092300Z 1000/1024 VRB04KT 9999 SCT045"
    },
    {
      "icao": "LRSM",
      "alert": "OK",
      "vis_m": 5000,
      "fzfg": false,
      "metar_trigger": false,
      "taf_trigger": false,
      "metar": "METAR LRSM 100400Z 11001KT 5000 BR NSC M04/M06 Q1018",
      "taf": "TAF LRSM 100200Z 1003/1012 VRB04KT CAVOK"
    },
    {
      "icao": "LRSV",
      "alert": "OK",
      "vis_m": 9999,
      "fzfg": false,
      "metar_trigger": false,
      "taf_trigger": false,
      "metar": "METAR LRSV 100400Z 31009KT 9999 -SN BKN039 00/M02 Q1016",
      "taf": "TAF LRSV 100200Z 1003/1012 33010KT 9999 SCT035"
    },
    {
      "icao": "LRTM",
      "alert": "OK",
      "vis_m": 9999,
      "fzfg": false,
      "metar_trigger": false,
      "taf_trigger": false,
      "metar": "METAR LRTM 100400Z VRB02KT 9999 FEW011 M03/M04 Q1017",
      "taf": "TAF LRTM 100200Z 1003/1012 VRB04KT CAVOK"
    },
    {
      "icao": "LRTR",
      "alert": "OK",
      "vis_m": 8000,
      "fzfg": false,
      "metar_trigger": false,
      "taf_trigger": false,
      "metar": "METAR LRTR 100400Z 10003KT 8000 NSC M00/M01 Q1017 NOSIG",
      "taf": "TAF LRTR 092300Z 1000/1024 VRB04KT CAVOK"
    },
    {
      "icao": "LTAC",
      "alert": "OK",
      "vis_m": 6000,
      "fzfg": false,
      "metar_trigger": false,
      "taf_trigger": false,
      "metar": "SPECI LTAC 100404Z VRB02KT 6000 BKN030 BKN080 01/M02 Q1012 RESN NOSIG",
      "taf": "TAF LTAC 092240Z 1000/1024 VRB02KT 9999 SCT040 BKN100"
    },
    {
      "icao": "LTFM",
      "alert": "OK",
      "vis_m": 9999,
      "fzfg": false,
      "metar_trigger": false,
      "taf_trigger": false,
      "metar": "METAR LTFM 100350Z 32006KT 290V360 9999 SCT020 BKN080 06/04 Q1015 NOSIG RMK RWY17L VRB04KT RWY34L 30005KT RWY16R 27003KT 240V300 RWY36 32004KT 290V350 RWY18 29004KT",
      "taf": "TAF LTFM 092240Z 1000/1106 VRB02KT 9999 SCT035 BKN090"
    },
    {
      "icao": "LUKK",
      "alert": "OK",
      "vis_m": 9999,
      "fzfg": false,
      "metar_trigger": false,
      "taf_trigger": false,
      "metar": "METAR LUKK 100400Z 36009KT 9999 OVC035 03/01 Q1016 TEMPO BKN008",
      "taf": "TAF LUKK 092325Z 1000/1024 32008KT 9999 BKN015"
    },
    {
      "icao": "LWOH",
      "alert": "OK",
      "vis_m": null,
      "fzfg": false,
      "metar_trigger": false,
      "taf_trigger": false,
      "metar": "",
      "taf": "TAF LWOH 100210Z 1003/1103 34005KT CAVOK"
    },
    {
      "icao": "LWSK",
      "alert": "OK",
      "vis_m": 9999,
      "fzfg": false,
      "metar_trigger": false,
      "taf_trigger": false,
      "metar": "METAR LWSK 100350Z VRB01KT CAVOK 01/M02 Q1018 NOSIG",
      "taf": "TAF LWSK 100210Z 1003/1103 VRB02KT CAVOK"
    },
    {
      "icao": "LYBE",
      "alert": "OK",
      "vis_m": 9999,
      "fzfg": false,
      "metar_trigger": false,
      "taf_trigger": false,
      "metar": "METAR LYBE 100400Z VRB03KT CAVOK 01/M01 Q1017 NOSIG",
      "taf": "TAF LYBE 092300Z 1000/1024 23005KT CAVOK TX13/1013Z TN01/1004Z"
    },
    {
      "icao": "LYNI",
      "alert": "OK",
      "vis_m": 9999,
      "fzfg": false,
      "metar_trigger": false,
      "taf_trigger": false,
      "metar": "METAR LYNI 100400Z 11003KT 080V140 CAVOK 01/M01 Q1018 NOSIG",
      "taf": "TAF LYNI 092300Z 1000/1024 02005KT 9999 SCT060 TX15/1012Z TN00/1004Z"
    },
    {
      "icao": "LYPG",
      "alert": "OK",
      "vis_m": 9999,
      "fzfg": false,
      "metar_trigger": false,
      "taf_trigger": false,
      "metar": "METAR LYPG 100400Z 35010KT CAVOK 11/M06 Q1016 NOSIG",
      "taf": "TAF LYPG 092300Z 1000/1024 36005KT CAVOK TX22/1013Z TN06/1004Z"
    },
    {
      "icao": "LZIB",
      "alert": "OK",
      "vis_m": 9999,
      "fzfg": false,
      "metar_trigger": false,
      "taf_trigger": false,
      "metar": "METAR LZIB 100400Z 03006KT CAVOK M01/M06 Q1019 NOSIG",
      "taf": "TAF LZIB 092315Z 1000/1100 04007KT CAVOK"
    },
    {
      "icao": "LZKZ",
      "alert": "OK",
      "vis_m": 9999,
      "fzfg": false,
      "metar_trigger": false,
      "taf_trigger": false,
      "metar": "METAR LZKZ 100400Z VRB02KT CAVOK M01/M05 Q1019 NOSIG",
      "taf": "TAF LZKZ 092315Z 1000/1100 01009KT CAVOK"
    },
    {
      "icao": "LZTT",
      "alert": "OK",
      "vis_m": 9999,
      "fzfg": false,
      "metar_trigger": false,
      "taf_trigger": false,
      "metar": "METAR LZTT 100400Z VRB02KT 9999 FEW016 M06/M08 Q1017",
      "taf": "TAF LZTT 092315Z 1000/1100 07007KT 9999 BKN045"
    },
    {
      "icao": "OEJN",
      "alert": "OK",
      "vis_m": 9999,
      "fzfg": false,
      "metar_trigger": false,
      "taf_trigger": false,
      "metar": "METAR OEJN 100400Z 35004KT CAVOK 21/12 Q1012 NOSIG",
      "taf": "TAF OEJN 092300Z 1000/1106 VRB03KT CAVOK"
    },
    {
      "icao": "OEMA",
      "alert": "OK",
      "vis_m": 9999,
      "fzfg": false,
      "metar_trigger": false,
      "taf_trigger": false,
      "metar": "METAR OEMA 100400Z 01004KT CAVOK 20/M01 Q1017 NOSIG",
      "taf": "TAF OEMA 092300Z 1000/1106 06005KT CAVOK"
    },
    {
      "icao": "OJAI",
      "alert": "OK",
      "vis_m": 4000,
      "fzfg": false,
      "metar_trigger": false,
      "taf_trigger": false,
      "metar": "METAR OJAI 100400Z 08003KT 4000 BR NSC 07/06 Q1016 NOSIG",
      "taf": "TAF OJAI 092300Z 1000/1106 25012KT 5000 HZ NSC"
    },
    {
      "icao": "OMAA",
      "alert": "OK",
      "vis_m": null,
      "fzfg": false,
      "metar_trigger": false,
      "taf_trigger": false,
      "metar": "",
      "taf": ""
    },
    {
      "icao": "OMDB",
      "alert": "OK",
      "vis_m": null,
      "fzfg": false,
      "metar_trigger": false,
      "taf_trigger": false,
      "metar": "",
      "taf": ""
    },
    {
      "icao": "UAAA",
      "alert": "OK",
      "vis_m": 9999,
      "fzfg": false,
      "metar_trigger": false,
      "taf_trigger": false,
      "metar": "METAR UAAA 100400Z 00000MPS 9999 SCT050CB BKN100 15/07 Q1021 NOSIG",
      "taf": "TAF UAAA 092302Z 1000/1024 16003G08MPS 9999 BKN050CB OVC100 TX18/1008Z TN08/1001Z"
    },
    {
      "icao": "UBBB",
      "alert": "OK",
      "vis_m": 9999,
      "fzfg": false,
      "metar_trigger": false,
      "taf_trigger": false,
      "metar": "METAR UBBB 100400Z VRB02KT CAVOK 10/07 Q1017 NOSIG",
      "taf": "TAF UBBB 092301Z 1000/1024 34006KT CAVOK TX15/1010Z TN07/1001Z"
    },
    {
      "icao": "UDSG",
      "alert": "OK",
      "vis_m": 3100,
      "fzfg": false,
      "metar_trigger": false,
      "taf_trigger": false,
      "metar": "METAR UDSG 100400Z 13004KT 3100 -SHSN BR BKN010CB 00/00 Q1012 NOSIG",
      "taf": ""
    },
    {
      "icao": "UDYZ",
      "alert": "OK",
      "vis_m": 9999,
      "fzfg": false,
      "metar_trigger": false,
      "taf_trigger": false,
      "metar": "METAR UDYZ 100400Z 24004KT 9999 BKN043CB 08/06 Q1011 NOSIG",
      "taf": "TAF UDYZ 092300Z 1000/1024 03006KT 9999 OVC040"
    },
    {
      "icao": "UGKO",
      "alert": "OK",
      "vis_m": 9999,
      "fzfg": false,
      "metar_trigger": false,
      "taf_trigger": false,
      "metar": "METAR UGKO 100400Z 36007KT 330V050 9999 -SHRA BKN028CB OVC045 05/04 Q1014 NOSIG",
      "taf": "TAF UGKO 092300Z 1000/1024 08010KT 9999 SCT020 OVC050 TX12/1011Z TN05/1003Z"
    }
  ]
}