{
  "ts_utc": "2026-02-10T08:32:00Z",
  "threshold_m": 150,
  "source": "stations_override.txt (ICAO list) + aviationweather.gov (METAR/TAF raw)",
  "station_count": 159,
  "stations": [
    {
      "icao": "BIKF",
      "alert": "OK",
      "vis_m": 9999,
      "fzfg": false,
      "metar_trigger": false,
      "taf_trigger": false,
      "metar": "METAR BIKF 100800Z 06017KT 9999 FEW019 SCT060 OVC100 04/M02 Q1005",
      "taf": "TAF BIKF 100753Z 1009/1109 05012KT 9999 BKN040 TX05/1015Z TNM02/1109Z"
    },
    {
      "icao": "BKPR",
      "alert": "OK",
      "vis_m": 9999,
      "fzfg": false,
      "metar_trigger": false,
      "taf_trigger": false,
      "metar": "METAR BKPR 100830Z 34007KT 9999 SCT008 BKN010 02/01 Q1009 NOSIG",
      "taf": "TAF BKPR 100530Z 1006/1106 35010KT 9999 SCT015 BKN030"
    },
    {
      "icao": "EBCI",
      "alert": "OK",
      "vis_m": 8000,
      "fzfg": false,
      "metar_trigger": false,
      "taf_trigger": false,
      "metar": "METAR EBCI 100820Z 18008KT 8000 SCT005 BKN006 07/06 Q0993 TEMPO 4500 -DZ BKN004",
      "taf": "TAF EBCI 100515Z 1006/1112 15009KT 9999 SCT008 BKN012"
    },
    {
      "icao": "EDDB",
      "alert": "OK",
      "vis_m": 4000,
      "fzfg": false,
      "metar_trigger": false,
      "taf_trigger": false,
      "metar": "METAR EDDB 100820Z AUTO 12005KT 4000 BR OVC025 01/M00 Q1003 BECMG 6000",
      "taf": "TAF EDDB 100500Z 1006/1106 13006KT 4000 BR SCT015"
    },
    {
      "icao": "EDDH",
      "alert": "OK",
      "vis_m": 4200,
      "fzfg": false,
      "metar_trigger": false,
      "taf_trigger": false,
      "metar": "METAR EDDH 100820Z AUTO 11008KT 4200 BR OVC004 01/00 Q1000 BECMG 6000",
      "taf": "TAF EDDH 100500Z 1006/1112 11007KT 5000 BR OVC003"
    },
    {
      "icao": "EDDK",
      "alert": "OK",
      "vis_m": 9000,
      "fzfg": false,
      "metar_trigger": false,
      "taf_trigger": false,
      "metar": "METAR EDDK 100820Z AUTO 12010KT 090V150 9000 -SHRA FEW036 SCT///TCU 04/02 Q0996 RESHRA NOSIG",
      "taf": "TAF EDDK 100500Z 1006/1112 12009KT 9999 BKN025"
    },
    {
      "icao": "EDDN",
      "alert": "OK",
      "vis_m": 9999,
      "fzfg": false,
      "metar_trigger": false,
      "taf_trigger": false,
      "metar": "METAR EDDN 100820Z AUTO 14007KT 9999 OVC009 02/M00 Q1001 NOSIG",
      "taf": "TAF EDDN 100500Z 1006/1106 13008KT CAVOK"
    },
    {
      "icao": "EDDS",
      "alert": "OK",
      "vis_m": 6000,
      "fzfg": false,
      "metar_trigger": false,
      "taf_trigger": false,
      "metar": "METAR EDDS 100820Z AUTO VRB02KT 6000 -FZRA SCT040 M00/M01 Q0999 BECMG NSW",
      "taf": "TAF EDDS 100500Z 1006/1106 VRB03KT 9999 SCT040"
    },
    {
      "icao": "EDFH",
      "alert": "OK",
      "vis_m": 500,
      "fzfg": false,
      "metar_trigger": false,
      "taf_trigger": false,
      "metar": "METAR EDFH 100820Z 14013KT 120V180 0500 R21/0700D FG BKN001 01/00 Q0996",
      "taf": "TAF EDFH 100500Z 1006/1106 15012KT 1200 BR OVC005"
    },
    {
      "icao": "EDJA",
      "alert": "OK",
      "vis_m": 9999,
      "fzfg": false,
      "metar_trigger": false,
      "taf_trigger": false,
      "metar": "METAR EDJA 100820Z 24005KT CAVOK M01/M03 Q1000",
      "taf": "TAF EDJA 100800Z 1009/1018 23007KT 9999 BKN050"
    },
    {
      "icao": "EDLW",
      "alert": "OK",
      "vis_m": 9999,
      "fzfg": false,
      "metar_trigger": false,
      "taf_trigger": false,
      "metar": "METAR EDLW 100820Z 14008KT CAVOK 05/01 Q0996",
      "taf": "TAF EDLW 100500Z 1006/1106 15008KT 9999 FEW030"
    },
    {
      "icao": "EDNY",
      "alert": "OK",
      "vis_m": 350,
      "fzfg": true,
      "metar_trigger": false,
      "taf_trigger": false,
      "metar": "METAR EDNY 100820Z 01003KT 330V060 0350 R24/0450N FZFG VV/// M00/M00 Q1002",
      "taf": "TAF EDNY 100800Z 1009/1018 VRB02KT 0300 FZFG VV001"
    },
    {
      "icao": "EDSB",
      "alert": "OK",
      "vis_m": 3800,
      "fzfg": false,
      "metar_trigger": false,
      "taf_trigger": false,
      "metar": "METAR EDSB 100820Z 32003KT 3800 -RA BR FEW029 02/01 Q0999",
      "taf": ""
    },
    {
      "icao": "EETN",
      "alert": "OK",
      "vis_m": 9999,
      "fzfg": false,
      "metar_trigger": false,
      "taf_trigger": false,
      "metar": "METAR EETN 100820Z 19008KT 9999 FEW008 OVC020 M06/M07 Q1007 TEMPO BKN008",
      "taf": "TAF EETN 100530Z 1006/1106 20008KT 9999 OVC012"
    },
    {
      "icao": "EFTU",
      "alert": "OK",
      "vis_m": 9999,
      "fzfg": false,
      "metar_trigger": false,
      "taf_trigger": false,
      "metar": "METAR EFTU 100820Z AUTO 24004KT 210V270 9999 OVC015 M06/M09 Q1005",
      "taf": "TAF EFTU 100536Z 1006/1106 23004KT 9999 OVC009"
    },
    {
      "icao": "EGBB",
      "alert": "OK",
      "vis_m": 3000,
      "fzfg": false,
      "metar_trigger": false,
      "taf_trigger": false,
      "metar": "METAR EGBB 100820Z 12008KT 3000 BR OVC003 07/06 Q0988",
      "taf": "TAF EGBB 100459Z 1006/1106 11007KT 7000 BKN007"
    },
    {
      "icao": "EGGP",
      "alert": "OK",
      "vis_m": 8000,
      "fzfg": false,
      "metar_trigger": false,
      "taf_trigger": false,
      "metar": "METAR EGGP 100820Z 11010KT 8000 -DZ OVC008 07/05 Q0988",
      "taf": "TAF EGGP 100505Z 1006/1106 11010KT 9999 SCT012"
    },
    {
      "icao": "EGGW",
      "alert": "OK",
      "vis_m": 200,
      "fzfg": false,
      "metar_trigger": false,
      "taf_trigger": false,
      "metar": "METAR EGGW 100820Z AUTO 13006KT 100V160 0200 R07/0450N FG OVC001 07/07 Q0989",
      "taf": "TAF EGGW 100457Z 1006/1106 11010KT 6000 -DZ OVC002"
    },
    {
      "icao": "EGKK",
      "alert": "OK",
      "vis_m": 9999,
      "fzfg": false,
      "metar_trigger": false,
      "taf_trigger": false,
      "metar": "METAR EGKK 100820Z 11003KT 9999 SCT004 SCT009 BKN012 08/08 Q0989",
      "taf": ""
    },
    {
      "icao": "EGNM",
      "alert": "OK",
      "vis_m": 1100,
      "fzfg": false,
      "metar_trigger": false,
      "taf_trigger": false,
      "metar": "METAR EGNM 100820Z 10011KT 1100 R14/P1500N -RA BR OVC002 05/05 Q0990",
      "taf": "TAF EGNM 100505Z 1006/1106 10007KT 6000 SCT003 BKN005"
    },
    {
      "icao": "EGPD",
      "alert": "OK",
      "vis_m": 6000,
      "fzfg": false,
      "metar_trigger": false,
      "taf_trigger": false,
      "metar": "METAR EGPD 100820Z AUTO 14011KT 6000 -RA OVC008/// //////TCU 06/04 Q0994 TEMPO 4000 RADZ BKN006",
      "taf": "TAF EGPD 100455Z 1006/1106 12012KT 9999 SCT005 BKN010"
    },
    {
      "icao": "EGPF",
      "alert": "OK",
      "vis_m": 9999,
      "fzfg": false,
      "metar_trigger": false,
      "taf_trigger": false,
      "metar": "METAR EGPF 100820Z AUTO 07011KT 9999 -RA BKN014 06/05 Q0990",
      "taf": "TAF EGPF 100456Z 1006/1106 07009KT 9999 FEW015 SCT025"
    },
    {
      "icao": "EHBK",
      "alert": "OK",
      "vis_m": 9999,
      "fzfg": false,
      "metar_trigger": false,
      "taf_trigger": false,
      "metar": "METAR EHBK 100825Z AUTO 12007KT 9999 FEW012/// OVC022/// 05/04 Q0994 NOSIG",
      "taf": "TAF EHBK 100513Z 1006/1112 10006KT 9999 -RA BKN040"
    },
    {
      "icao": "EHEH",
      "alert": "OK",
      "vis_m": 8000,
      "fzfg": false,
      "metar_trigger": false,
      "taf_trigger": false,
      "metar": "METAR EHEH 100825Z AUTO 13007KT 100V160 8000 BR OVC015 04/03 Q0994 WHT NOSIG RMK TREND REMOTED BY EHWX",
      "taf": "TAF EHEH 100503Z 1006/1112 12007KT 9000 NSC"
    },
    {
      "icao": "EKBI",
      "alert": "OK",
      "vis_m": 1800,
      "fzfg": false,
      "metar_trigger": false,
      "taf_trigger": false,
      "metar": "METAR EKBI 100820Z AUTO 10008KT 1800 BR OVC003/// M01/M01 Q1001",
      "taf": "TAF EKBI 100827Z 1009/1109 10010KT 1800 BR BKN003"
    },
    {
      "icao": "EKCH",
      "alert": "OK",
      "vis_m": 2500,
      "fzfg": false,
      "metar_trigger": false,
      "taf_trigger": false,
      "metar": "METAR EKCH 100820Z 12007KT 2500 BR OVC005 M00/M01 Q1004 TEMPO 5000 -SNSG BKN004",
      "taf": "TAF EKCH 100827Z 1009/1109 12008KT 2500 -SNSG BR BKN005"
    },
    {
      "icao": "ENAL",
      "alert": "OK",
      "vis_m": 9999,
      "fzfg": false,
      "metar_trigger": false,
      "taf_trigger": false,
      "metar": "METAR ENAL 100820Z 16004KT 9999 SCT045 00/M02 Q1004",
      "taf": "TAF ENAL 100500Z 1006/1015 15005KT 9999 BKN025"
    },
    {
      "icao": "ENBR",
      "alert": "OK",
      "vis_m": 9999,
      "fzfg": false,
      "metar_trigger": false,
      "taf_trigger": false,
      "metar": "METAR ENBR 100820Z 08002KT CAVOK M04/M06 Q1004 NOSIG RMK WIND 1200FT 06002KT",
      "taf": "TAF ENBR 100500Z 1006/1106 VRB04KT 9999 FEW030"
    },
    {
      "icao": "ENGM",
      "alert": "OK",
      "vis_m": 5000,
      "fzfg": false,
      "metar_trigger": false,
      "taf_trigger": false,
      "metar": "METAR ENGM 100820Z VRB01KT 5000 0600NE R19R/P2000N R01R/P2000N R19L/0800D R01L/P2000N -SN BR FEW002 OVC004 M13/M15 Q1005 TEMPO 2000 BR",
      "taf": ""
    },
    {
      "icao": "ENHD",
      "alert": "OK",
      "vis_m": 9999,
      "fzfg": false,
      "metar_trigger": false,
      "taf_trigger": false,
      "metar": "METAR ENHD 100820Z 09006KT 9999 BKN036 00/M06 Q1003",
      "taf": "TAF ENHD 100500Z 1006/1015 10009KT 9999 BKN030"
    },
    {
      "icao": "ENTC",
      "alert": "OK",
      "vis_m": 9999,
      "fzfg": false,
      "metar_trigger": false,
      "taf_trigger": false,
      "metar": "METAR ENTC 100820Z VRB02KT CAVOK M09/M12 Q1006 NOSIG RMK WIND 2600FT 34009KT",
      "taf": "TAF ENTC 100500Z 1006/1106 20008KT 9999 FEW020 SCT030"
    },
    {
      "icao": "ENTO",
      "alert": "OK",
      "vis_m": 9999,
      "fzfg": false,
      "metar_trigger": false,
      "taf_trigger": false,
      "metar": "METAR ENTO 100820Z 35004KT CAVOK M12/M14 Q1006 NOSIG",
      "taf": "TAF ENTO 100500Z 1006/1106 01005KT 9999 SCT010 BKN025"
    },
    {
      "icao": "ENVA",
      "alert": "OK",
      "vis_m": 9999,
      "fzfg": false,
      "metar_trigger": false,
      "taf_trigger": false,
      "metar": "METAR ENVA 100820Z 08006KT 9999 BKN025 OVC037 M04/M04 Q1003 TEMPO 2000 SHSN VV009 RMK WIND 670FT 19011KT",
      "taf": "TAF ENVA 100500Z 1006/1106 09005KT 9999 BKN025"
    },
    {
      "icao": "ENZV",
      "alert": "OK",
      "vis_m": 9999,
      "fzfg": false,
      "metar_trigger": false,
      "taf_trigger": false,
      "metar": "METAR ENZV 100820Z VRB02KT 9999 BKN045 01/M05 Q1003 NOSIG",
      "taf": "TAF ENZV 100500Z 1006/1106 09006KT 9999 BKN030"
    },
    {
      "icao": "EPGD",
      "alert": "OK",
      "vis_m": 2300,
      "fzfg": false,
      "metar_trigger": false,
      "taf_trigger": false,
      "metar": "METAR EPGD 100800Z 17003KT 2300 BR OVC002 M07/M08 Q1006",
      "taf": "TAF EPGD 100530Z 1006/1106 17005KT 3000 BR OVC002"
    },
    {
      "icao": "EPKK",
      "alert": "OK",
      "vis_m": 5000,
      "fzfg": false,
      "metar_trigger": false,
      "taf_trigger": false,
      "metar": "METAR EPKK 100800Z 07007KT 5000 BR BKN040 M02/M04 Q1006",
      "taf": "TAF EPKK 100830Z 1009/1109 06006KT 6000 BKN040"
    },
    {
      "icao": "EPKT",
      "alert": "OK",
      "vis_m": 3700,
      "fzfg": false,
      "metar_trigger": false,
      "taf_trigger": false,
      "metar": "METAR EPKT 100800Z 13007KT 3700 -FZRA BR FEW004 BKN026 M00/M01 Q1005",
      "taf": ""
    },
    {
      "icao": "EPLB",
      "alert": "OK",
      "vis_m": 9999,
      "fzfg": false,
      "metar_trigger": false,
      "taf_trigger": false,
      "metar": "METAR EPLB 100800Z 14007KT 9999 OVC022 M06/M08 Q1008",
      "taf": "TAF EPLB 100530Z 1006/1106 14006KT 9999 OVC030"
    },
    {
      "icao": "EPMO",
      "alert": "OK",
      "vis_m": 8000,
      "fzfg": false,
      "metar_trigger": false,
      "taf_trigger": false,
      "metar": "METAR EPMO 100800Z 12006KT 090V150 8000 BKN011 M06/M07 Q1007",
      "taf": "TAF EPMO 100530Z 1006/1106 11010KT 9999 BKN033"
    },
    {
      "icao": "EPPO",
      "alert": "OK",
      "vis_m": 8000,
      "fzfg": false,
      "metar_trigger": false,
      "taf_trigger": false,
      "metar": "METAR EPPO 100800Z 14007KT 8000 BKN033 M02/M04 Q1005",
      "taf": "TAF EPPO 100530Z 1006/1106 14008KT 9999 OVC023"
    },
    {
      "icao": "EPRA",
      "alert": "OK",
      "vis_m": 9999,
      "fzfg": false,
      "metar_trigger": false,
      "taf_trigger": false,
      "metar": "METAR EPRA 100800Z 14005KT 110V180 9999 SCT035 M05/M08 Q1007",
      "taf": "TAF EPRA 100830Z 1009/1018 14006KT 9999 BKN030"
    },
    {
      "icao": "EPRZ",
      "alert": "OK",
      "vis_m": 9999,
      "fzfg": false,
      "metar_trigger": false,
      "taf_trigger": false,
      "metar": "METAR EPRZ 100800Z 09009KT CAVOK M04/M07 Q1008",
      "taf": "TAF EPRZ 100530Z 1006/1106 10011KT 9999 BKN040"
    },
    {
      "icao": "EPSC",
      "alert": "OK",
      "vis_m": 8000,
      "fzfg": false,
      "metar_trigger": false,
      "taf_trigger": false,
      "metar": "METAR EPSC 100800Z 12008KT 8000 OVC010 M02/M04 Q1004",
      "taf": "TAF EPSC 100530Z 1006/1106 13008KT 9999 OVC010"
    },
    {
      "icao": "EPSY",
      "alert": "OK",
      "vis_m": 2300,
      "fzfg": false,
      "metar_trigger": false,
      "taf_trigger": false,
      "metar": "METAR EPSY 100800Z VRB02KT 2300 BR OVC002 M11/M12 Q1007",
      "taf": "TAF EPSY 100830Z 1009/1018 16005KT 5000 BR OVC006"
    },
    {
      "icao": "EPWA",
      "alert": "OK",
      "vis_m": 9999,
      "fzfg": false,
      "metar_trigger": false,
      "taf_trigger": false,
      "metar": "METAR EPWA 100800Z 14006KT 9999 BKN012 M06/M08 Q1008 TEMPO BKN008",
      "taf": "TAF EPWA 100830Z 1009/1109 14008KT 9999 BKN012"
    },
    {
      "icao": "EPWR",
      "alert": "OK",
      "vis_m": 5000,
      "fzfg": false,
      "metar_trigger": false,
      "taf_trigger": false,
      "metar": "METAR EPWR 100800Z 12006KT 5000 BR BKN025 00/M01 Q1004",
      "taf": "TAF EPWR 100830Z 1009/1109 12009KT 5000 BR BKN025"
    },
    {
      "icao": "ESGG",
      "alert": "OK",
      "vis_m": 9999,
      "fzfg": false,
      "metar_trigger": false,
      "taf_trigger": false,
      "metar": "METAR ESGG 100820Z 10004KT 9999 BKN049 M05/M07 Q1004",
      "taf": "TAF ESGG 100530Z 1006/1106 10004KT CAVOK"
    },
    {
      "icao": "ESKN",
      "alert": "OK",
      "vis_m": 9999,
      "fzfg": false,
      "metar_trigger": false,
      "taf_trigger": false,
      "metar": "METAR ESKN 100820Z 23005KT 9999 BKN021 M07/M08 Q1006",
      "taf": ""
    },
    {
      "icao": "ESMS",
      "alert": "OK",
      "vis_m": 5000,
      "fzfg": false,
      "metar_trigger": false,
      "taf_trigger": false,
      "metar": "METAR ESMS 100820Z 13007KT 5000 BR OVC005 M01/M01 Q1004",
      "taf": "TAF ESMS 100527Z 1006/1106 12008KT 5000 BKN010"
    },
    {
      "icao": "ESSA",
      "alert": "OK",
      "vis_m": 9999,
      "fzfg": false,
      "metar_trigger": false,
      "taf_trigger": false,
      "metar": "METAR ESSA 100820Z 26005KT 9999 -SN BKN008 M10/M12 Q1005 TEMPO BKN010",
      "taf": "TAF ESSA 100530Z 1006/1106 26007KT 9999 OVC011"
    },
    {
      "icao": "EYKA",
      "alert": "OK",
      "vis_m": 8000,
      "fzfg": false,
      "metar_trigger": false,
      "taf_trigger": false,
      "metar": "METAR EYKA 100820Z 16006KT 130V200 8000 -SN OVC005 M14/M16 Q1009",
      "taf": "TAF EYKA 100525Z 1006/1106 VRB03KT 6000 NSC"
    },
    {
      "icao": "EYPA",
      "alert": "OK",
      "vis_m": 5000,
      "fzfg": false,
      "metar_trigger": false,
      "taf_trigger": false,
      "metar": "METAR EYPA 100820Z 13009KT 5000 -SN OVC005 M12/M14 Q1008",
      "taf": "TAF EYPA 100511Z 1006/1106 14008KT 5000 BR OVC002"
    },
    {
      "icao": "EYVI",
      "alert": "OK",
      "vis_m": 9999,
      "fzfg": false,
      "metar_trigger": false,
      "taf_trigger": false,
      "metar": "METAR EYVI 100820Z 17011KT CAVOK M12/M16 Q1008 NOSIG",
      "taf": "TAF EYVI 100530Z 1006/1106 17008KT 5000 BR NSC"
    },
    {
      "icao": "GCFV",
      "alert": "OK",
      "vis_m": 9999,
      "fzfg": false,
      "metar_trigger": false,
      "taf_trigger": false,
      "metar": "METAR GCFV 100800Z 33006KT 270V350 9999 FEW005 SCT014 18/15 Q1023",
      "taf": "TAF GCFV 100800Z 1009/1109 04014KT 9999 SCT020 TX23/1014Z TN16/1106Z"
    },
    {
      "icao": "GCLP",
      "alert": "OK",
      "vis_m": 9999,
      "fzfg": false,
      "metar_trigger": false,
      "taf_trigger": false,
      "metar": "METAR GCLP 100800Z 01014KT 9999 FEW020 SCT035 18/15 Q1023 NOSIG",
      "taf": "TAF GCLP 100800Z 1009/1109 02019KT 9999 FEW025 TX22/1014Z TN17/1106Z"
    },
    {
      "icao": "GCTS",
      "alert": "OK",
      "vis_m": 9999,
      "fzfg": false,
      "metar_trigger": false,
      "taf_trigger": false,
      "metar": "METAR GCTS 100800Z 36006KT 9999 BKN015 16/12 Q1024 NOSIG",
      "taf": "TAF GCTS 100800Z 1009/1109 06004KT 9999 FEW035 TX22/1014Z TN17/1106Z"
    },
    {
      "icao": "GMAD",
      "alert": "OK",
      "vis_m": 4000,
      "fzfg": false,
      "metar_trigger": false,
      "taf_trigger": false,
      "metar": "SPECI GMAD 100821Z 03003KT 340V070 4000 BR OVC003 15/14 Q1021 BECMG 5000 SCT010 BKN016",
      "taf": "TAF GMAD 100500Z 1006/1112 12005KT 8000 BKN010"
    },
    {
      "icao": "GMMN",
      "alert": "OK",
      "vis_m": 2000,
      "fzfg": false,
      "metar_trigger": false,
      "taf_trigger": false,
      "metar": "SPECI GMMN 100819Z 24003KT 170V270 2000 R35L/0700V1200U BR BKN002 SCT040 14/13 Q1024 BECMG 8000",
      "taf": "TAF GMMN 100500Z 1006/1112 19010KT 1200 BR BKN004 BKN015"
    },
    {
      "icao": "GMMX",
      "alert": "OK",
      "vis_m": 9999,
      "fzfg": false,
      "metar_trigger": false,
      "taf_trigger": false,
      "metar": "METAR GMMX 100800Z 04004KT CAVOK 13/11 Q1023 NOSIG",
      "taf": ""
    },
    {
      "icao": "HEGN",
      "alert": "OK",
      "vis_m": 9999,
      "fzfg": false,
      "metar_trigger": false,
      "taf_trigger": false,
      "metar": "METAR HEGN 100800Z 00000KT 9999 SCT020 24/22 Q1013 NOSIG",
      "taf": "TAF HEGN 100522Z 1006/1112 24006KT 6000 FEW025"
    },
    {
      "icao": "HEMA",
      "alert": "OK",
      "vis_m": 9999,
      "fzfg": false,
      "metar_trigger": false,
      "taf_trigger": false,
      "metar": "METAR HEMA 100800Z 11007KT CAVOK 26/13 Q1013 NOSIG",
      "taf": "TAF HEMA 100500Z 1006/1112 25008KT CAVOK"
    },
    {
      "icao": "HESH",
      "alert": "OK",
      "vis_m": 9999,
      "fzfg": false,
      "metar_trigger": false,
      "taf_trigger": false,
      "metar": "METAR HESH 100800Z 34006KT CAVOK 23/18 Q1013 NOSIG",
      "taf": "TAF HESH 100500Z 1006/1112 29008KT CAVOK"
    },
    {
      "icao": "HESX",
      "alert": "OK",
      "vis_m": 6000,
      "fzfg": false,
      "metar_trigger": false,
      "taf_trigger": false,
      "metar": "METAR HESX 100800Z 19008KT 6000 NSC 18/11 Q1013 NOSIG",
      "taf": "TAF HESX 100500Z 1006/1112 27008KT CAVOK"
    },
    {
      "icao": "LATI",
      "alert": "OK",
      "vis_m": 9999,
      "fzfg": false,
      "metar_trigger": false,
      "taf_trigger": false,
      "metar": "METAR LATI 100820Z 15004KT 9999 BKN098 11/08 Q1008 NOSIG",
      "taf": "TAF LATI 100500Z 1006/1106 VRB05KT 9999 BKN050 TX14/1012Z TN08/1105Z"
    },
    {
      "icao": "LBPD",
      "alert": "OK",
      "vis_m": 9999,
      "fzfg": false,
      "metar_trigger": false,
      "taf_trigger": false,
      "metar": "METAR LBPD 100830Z AUTO 13005KT 9999 -SHRA SCT022/// OVC027/// 01/01 Q1015 NOSIG",
      "taf": "TAF LBPD 100500Z 1006/1106 11010KT 9999 BKN015 OVC030"
    },
    {
      "icao": "LBSF",
      "alert": "OK",
      "vis_m": 9999,
      "fzfg": false,
      "metar_trigger": false,
      "taf_trigger": false,
      "metar": "METAR LBSF 100830Z 11018KT 9999 SCT014 OVC022 00/M03 Q1012 NOSIG",
      "taf": "TAF LBSF 100500Z 1006/1106 11014KT 9999 BKN015 OVC020"
    },
    {
      "icao": "LBWN",
      "alert": "OK",
      "vis_m": 9999,
      "fzfg": false,
      "metar_trigger": false,
      "taf_trigger": false,
      "metar": "METAR LBWN 100830Z 02013KT 9999 BKN025 01/M02 Q1015 NOSIG",
      "taf": "TAF LBWN 100500Z 1006/1106 01012KT 9999 SCT015 OVC030"
    },
    {
      "icao": "LCLK",
      "alert": "OK",
      "vis_m": 9999,
      "fzfg": false,
      "metar_trigger": false,
      "taf_trigger": false,
      "metar": "METAR LCLK 100800Z 20005KT 160V250 9999 FEW025 19/14 Q1009 NOSIG",
      "taf": "TAF LCLK 100530Z 1006/1106 22007KT 9999 FEW025 SCT040"
    },
    {
      "icao": "LCPH",
      "alert": "OK",
      "vis_m": 9999,
      "fzfg": false,
      "metar_trigger": false,
      "taf_trigger": false,
      "metar": "METAR LCPH 100800Z VRB02KT 9999 FEW020 SCT050 18/12 Q1009 NOSIG",
      "taf": "TAF LCPH 100530Z 1006/1106 02007KT 9999 FEW025 SCT040"
    },
    {
      "icao": "LEAL",
      "alert": "OK",
      "vis_m": 9999,
      "fzfg": false,
      "metar_trigger": false,
      "taf_trigger": false,
      "metar": "METAR LEAL 100800Z 24003KT 200V280 9999 FEW025 14/12 Q1011 NOSIG",
      "taf": "TAF LEAL 100500Z 1006/1106 26009KT 9999 FEW040 TX23/1012Z TN13/1006Z"
    },
    {
      "icao": "LEBB",
      "alert": "OK",
      "vis_m": 9999,
      "fzfg": false,
      "metar_trigger": false,
      "taf_trigger": false,
      "metar": "METAR LEBB 100800Z 21011KT 130V250 9999 -RA FEW060 17/12 Q1002 TEMPO 3000 SHRA SCT035TCU",
      "taf": "TAF LEBB 100500Z 1006/1106 20009KT 9999 SCT030 TX19/1014Z TN09/1106Z"
    },
    {
      "icao": "LEBL",
      "alert": "OK",
      "vis_m": 9999,
      "fzfg": false,
      "metar_trigger": false,
      "taf_trigger": false,
      "metar": "METAR LEBL 100800Z 30003KT 260V360 9999 FEW020 SCT055 11/10 Q1006 NOSIG",
      "taf": ""
    },
    {
      "icao": "LECH",
      "alert": "OK",
      "vis_m": 9999,
      "fzfg": false,
      "metar_trigger": false,
      "taf_trigger": false,
      "metar": "METAR LECH 100800Z AUTO 25003KT 200V340 CAVOK 13/08 Q1007",
      "taf": ""
    },
    {
      "icao": "LEMD",
      "alert": "OK",
      "vis_m": 9999,
      "fzfg": false,
      "metar_trigger": false,
      "taf_trigger": false,
      "metar": "METAR LEMD 100800Z 19010G21KT 160V220 9999 SCT012 SCT080 13/13 Q1011 NOSIG",
      "taf": "TAF LEMD 100500Z 1006/1112 24010KT 9999 FEW030 TX16/1014Z TN11/1007Z"
    },
    {
      "icao": "LEMG",
      "alert": "OK",
      "vis_m": 9999,
      "fzfg": false,
      "metar_trigger": false,
      "taf_trigger": false,
      "metar": "METAR LEMG 100800Z 22004KT 9999 SCT070 17/13 Q1018 NOSIG",
      "taf": "TAF LEMG 100500Z 1006/1106 28007KT 9999 SCT040 TX22/1014Z TN15/1007Z"
    },
    {
      "icao": "LEVC",
      "alert": "OK",
      "vis_m": 9999,
      "fzfg": false,
      "metar_trigger": false,
      "taf_trigger": false,
      "metar": "METAR LEVC 100800Z 19007KT 9999 FEW045 18/12 Q1008 NOSIG",
      "taf": "TAF LEVC 100500Z 1006/1106 23008KT 9999 FEW040 TX24/1014Z TN17/1006Z"
    },
    {
      "icao": "LEXJ",
      "alert": "OK",
      "vis_m": 9999,
      "fzfg": false,
      "metar_trigger": false,
      "taf_trigger": false,
      "metar": "METAR LEXJ 100800Z 24007KT 190V260 9999 FEW060 BKN085 16/11 Q1000",
      "taf": "TAF LEXJ 100800Z 1009/1109 22009KT 9999 SCT050 TX19/1013Z TN11/1107Z"
    },
    {
      "icao": "LEZG",
      "alert": "OK",
      "vis_m": 4000,
      "fzfg": false,
      "metar_trigger": false,
      "taf_trigger": false,
      "metar": "METAR LEZG 100800Z 11005KT 090V160 4000 BR FEW003 BKN060 09/09 Q1007 BECMG NSW",
      "taf": ""
    },
    {
      "icao": "LEZL",
      "alert": "OK",
      "vis_m": 9000,
      "fzfg": false,
      "metar_trigger": false,
      "taf_trigger": false,
      "metar": "METAR LEZL 100800Z 25006KT 210V280 9000 OVC005 16/16 Q1019 NOSIG",
      "taf": "TAF LEZL 100800Z 1009/1109 24010KT 9999 BKN020 TX18/1015Z TN15/1107Z"
    },
    {
      "icao": "LFBD",
      "alert": "OK",
      "vis_m": 2400,
      "fzfg": false,
      "metar_trigger": false,
      "taf_trigger": false,
      "metar": "METAR LFBD 100800Z AUTO 22009KT 2400 +RA BR BKN007/// OVC016/// ///TCU 13/13 Q0999 TEMPO 20015G25KT 3000 RA BKN003 SCT025CB",
      "taf": ""
    },
    {
      "icao": "LFLL",
      "alert": "OK",
      "vis_m": 9999,
      "fzfg": false,
      "metar_trigger": false,
      "taf_trigger": false,
      "metar": "METAR LFLL 100800Z 18015KT 150V210 9999 FEW040 BKN060 09/06 Q1002 NOSIG",
      "taf": "TAF LFLL 100500Z 1006/1112 18020G30KT 9999 BKN050"
    },
    {
      "icao": "LFLS",
      "alert": "OK",
      "vis_m": 9999,
      "fzfg": false,
      "metar_trigger": false,
      "taf_trigger": false,
      "metar": "METAR LFLS 100800Z AUTO VRB03KT 9999 BKN035 OVC058 07/05 Q1003 TEMPO 22018G30KT",
      "taf": "TAF LFLS 100800Z 1009/1109 22012KT 9999 BKN040"
    },
    {
      "icao": "LFMN",
      "alert": "OK",
      "vis_m": 9999,
      "fzfg": false,
      "metar_trigger": false,
      "taf_trigger": false,
      "metar": "METAR LFMN 100800Z 32009KT 9999 FEW020 BKN060 BKN230 10/05 Q1006 NOSIG",
      "taf": "TAF LFMN 100200Z 1003/1109 33010KT CAVOK"
    },
    {
      "icao": "LFOB",
      "alert": "OK",
      "vis_m": 9999,
      "fzfg": false,
      "metar_trigger": false,
      "taf_trigger": false,
      "metar": "METAR LFOB 100800Z AUTO 21006KT 9999 SCT009 BKN014 OVC022 09/09 Q0993 TEMPO 4000 -DZ BKN008 OVC015",
      "taf": ""
    },
    {
      "icao": "LFPO",
      "alert": "OK",
      "vis_m": 9999,
      "fzfg": false,
      "metar_trigger": false,
      "taf_trigger": false,
      "metar": "METAR LFPO 100800Z 20005KT 9999 SCT010 BKN023 10/09 Q0995 NOSIG",
      "taf": "TAF LFPO 100500Z 1006/1112 20008KT 9999 BKN020"
    },
    {
      "icao": "LFSB",
      "alert": "OK",
      "vis_m": 5000,
      "fzfg": false,
      "metar_trigger": false,
      "taf_trigger": false,
      "metar": "METAR LFSB 100800Z AUTO 13008KT 5000 RA BR BKN036/// BKN044/// OVC050/// ///CB 04/04 Q1000 TEMPO NSW BECMG BKN045",
      "taf": "TAF LFSB 100500Z 1006/1106 12008KT 9999 BKN045"
    },
    {
      "icao": "LGAV",
      "alert": "OK",
      "vis_m": 9999,
      "fzfg": false,
      "metar_trigger": false,
      "taf_trigger": false,
      "metar": "METAR LGAV 100820Z 33009KT 300V010 9999 FEW020 SCT040 13/06 Q1008 NOSIG",
      "taf": "TAF LGAV 100500Z 1006/1106 33008KT 9999 SCT025 SCT070"
    },
    {
      "icao": "LGTS",
      "alert": "OK",
      "vis_m": 9999,
      "fzfg": false,
      "metar_trigger": false,
      "taf_trigger": false,
      "metar": "METAR LGTS 100820Z VRB03KT 9999 FEW010 BKN030 10/04 Q1011 NOSIG",
      "taf": "TAF LGTS 100500Z 1006/1106 12008KT 9999 FEW010 BKN025"
    },
    {
      "icao": "LHBP",
      "alert": "OK",
      "vis_m": 9999,
      "fzfg": false,
      "metar_trigger": false,
      "taf_trigger": false,
      "metar": "METAR LHBP 100800Z 17010KT 9999 SCT019 BKN027 02/M02 Q1010 NOSIG",
      "taf": "TAF LHBP 100515Z 1006/1106 14012KT 9999 BKN045"
    },
    {
      "icao": "LHDC",
      "alert": "OK",
      "vis_m": 9999,
      "fzfg": false,
      "metar_trigger": false,
      "taf_trigger": false,
      "metar": "METAR LHDC 100745Z AUTO 20005KT 9999 BKN022 BKN048 03/01 Q1011 NOSIG",
      "taf": "TAF LHDC 100815Z 1009/1018 19006KT 9999 BKN025 OVC040"
    },
    {
      "icao": "LIBD",
      "alert": "OK",
      "vis_m": 9999,
      "fzfg": false,
      "metar_trigger": false,
      "taf_trigger": false,
      "metar": "METAR LIBD 100820Z 22005KT CAVOK 12/07 Q1007",
      "taf": "TAF LIBD 100500Z 1006/1106 VRB05KT 9999 SCT040"
    },
    {
      "icao": "LIBG",
      "alert": "OK",
      "vis_m": 9999,
      "fzfg": false,
      "metar_trigger": false,
      "taf_trigger": false,
      "metar": "METAR LIBG 100750Z VRB01KT CAVOK 10/09 Q1007",
      "taf": "TAF LIBG 100800Z 1009/1018 VRB05KT 9999 SCT015 SCT040"
    },
    {
      "icao": "LIBP",
      "alert": "OK",
      "vis_m": 9999,
      "fzfg": false,
      "metar_trigger": false,
      "taf_trigger": false,
      "metar": "METAR LIBP 100820Z AUTO 20004KT 9999 NCD 08/07 Q1007",
      "taf": "TAF LIBP 100500Z 1006/1106 VRB05KT 7000 BKN020"
    },
    {
      "icao": "LIBR",
      "alert": "OK",
      "vis_m": 9999,
      "fzfg": false,
      "metar_trigger": false,
      "taf_trigger": false,
      "metar": "METAR LIBR 100820Z 30006KT CAVOK 12/09 Q1007",
      "taf": "TAF LIBR 100500Z 1006/1106 VRB05KT 9999 SCT020"
    },
    {
      "icao": "LICA",
      "alert": "OK",
      "vis_m": 9999,
      "fzfg": false,
      "metar_trigger": false,
      "taf_trigger": false,
      "metar": "METAR LICA 100820Z AUTO 05003KT 020V080 9999 FEW014/// BKN057/// 12/12 Q1009 REDZ RERA",
      "taf": "TAF LICA 100500Z 1006/1106 VRB05KT 9999 BKN040"
    },
    {
      "icao": "LICC",
      "alert": "OK",
      "vis_m": 9999,
      "fzfg": false,
      "metar_trigger": false,
      "taf_trigger": false,
      "metar": "METAR LICC 100820Z 27011KT CAVOK 14/11 Q1009",
      "taf": "TAF LICC 100500Z 1006/1106 26013KT 9999 SCT030"
    },
    {
      "icao": "LICJ",
      "alert": "OK",
      "vis_m": 9999,
      "fzfg": false,
      "metar_trigger": false,
      "taf_trigger": false,
      "metar": "METAR LICJ 100820Z 19009KT 9999 SCT030 SCT050 14/08 Q1009",
      "taf": "TAF LICJ 100500Z 1006/1106 23015KT 9999 SCT040"
    },
    {
      "icao": "LIMC",
      "alert": "OK",
      "vis_m": 9999,
      "fzfg": false,
      "metar_trigger": false,
      "taf_trigger": false,
      "metar": "METAR LIMC 100820Z 10005KT 9999 BKN022 08/06 Q1005 NOSIG",
      "taf": "TAF LIMC 100500Z 1006/1112 VRB04KT 9999 BKN040"
    },
    {
      "icao": "LIME",
      "alert": "OK",
      "vis_m": 9999,
      "fzfg": false,
      "metar_trigger": false,
      "taf_trigger": false,
      "metar": "METAR LIME 100820Z 01003KT 9999 SCT070 07/05 Q1006 NOSIG",
      "taf": "TAF LIME 100500Z 1006/1106 VRB04KT 9999 BKN040"
    },
    {
      "icao": "LIMF",
      "alert": "OK",
      "vis_m": 7000,
      "fzfg": false,
      "metar_trigger": false,
      "taf_trigger": false,
      "metar": "METAR LIMF 100820Z 02002KT 7000 SCT010 BKN022 07/06 Q1005",
      "taf": "TAF LIMF 100500Z 1006/1106 VRB04KT 9999 BKN015"
    },
    {
      "icao": "LIMJ",
      "alert": "OK",
      "vis_m": 9999,
      "fzfg": false,
      "metar_trigger": false,
      "taf_trigger": false,
      "metar": "METAR LIMJ 100820Z 09006KT 9999 VCSH BKN022 12/08 Q1005",
      "taf": "TAF LIMJ 100500Z 1006/1106 06010KT 9999 SCT020"
    },
    {
      "icao": "LIPE",
      "alert": "OK",
      "vis_m": 8000,
      "fzfg": false,
      "metar_trigger": false,
      "taf_trigger": false,
      "metar": "METAR LIPE 100820Z 19005KT 8000 FEW010 08/06 Q1006",
      "taf": "TAF LIPE 100500Z 1006/1106 VRB05KT 3000 BR SCT020"
    },
    {
      "icao": "LIPH",
      "alert": "OK",
      "vis_m": 9999,
      "fzfg": false,
      "metar_trigger": false,
      "taf_trigger": false,
      "metar": "METAR LIPH 100820Z VRB01KT 9999 SCT050 BKN060 07/05 Q1006",
      "taf": "TAF LIPH 100500Z 1006/1106 VRB05KT 7000 SCT060"
    },
    {
      "icao": "LIPQ",
      "alert": "OK",
      "vis_m": 9999,
      "fzfg": false,
      "metar_trigger": false,
      "taf_trigger": false,
      "metar": "METAR LIPQ 100820Z AUTO 11003KT 070V130 9999 BKN089/// 09/07 Q1006",
      "taf": "TAF LIPQ 100500Z 1006/1106 VRB05KT 9999 BKN050"
    },
    {
      "icao": "LIPR",
      "alert": "OK",
      "vis_m": 5000,
      "fzfg": false,
      "metar_trigger": false,
      "taf_trigger": false,
      "metar": "METAR LIPR 100820Z VRB02KT 5000 BR FEW060 09/09 Q1006",
      "taf": "TAF LIPR 100500Z 1006/1106 VRB05KT 6000 SCT010 BKN020"
    },
    {
      "icao": "LIPX",
      "alert": "OK",
      "vis_m": 9999,
      "fzfg": false,
      "metar_trigger": false,
      "taf_trigger": false,
      "metar": "METAR LIPX 100820Z VRB02KT CAVOK 08/06 Q1006",
      "taf": "TAF LIPX 100500Z 1006/1106 VRB04KT 9999 BKN080"
    },
    {
      "icao": "LIPY",
      "alert": "OK",
      "vis_m": 9999,
      "fzfg": false,
      "metar_trigger": false,
      "taf_trigger": false,
      "metar": "METAR LIPY 100820Z AUTO 20005KT 9999 BKN065/// 11/09 Q1006",
      "taf": "TAF LIPY 100500Z 1006/1106 31007KT 7000 BKN020"
    },
    {
      "icao": "LIPZ",
      "alert": "OK",
      "vis_m": 9999,
      "fzfg": false,
      "metar_trigger": false,
      "taf_trigger": false,
      "metar": "METAR LIPZ 100820Z 33003KT 290V360 9999 BKN050 08/05 Q1006 NOSIG",
      "taf": "TAF LIPZ 100500Z 1006/1112 05006KT 9999 SCT060"
    },
    {
      "icao": "LIRF",
      "alert": "OK",
      "vis_m": 9999,
      "fzfg": false,
      "metar_trigger": false,
      "taf_trigger": false,
      "metar": "METAR LIRF 100820Z 06004KT CAVOK 10/10 Q1007 NOSIG",
      "taf": ""
    },
    {
      "icao": "LIRN",
      "alert": "OK",
      "vis_m": 8000,
      "fzfg": false,
      "metar_trigger": false,
      "taf_trigger": false,
      "metar": "METAR LIRN 100820Z VRB02KT 8000 FEW020 SCT045 11/09 Q1007 TEMPO RA",
      "taf": "TAF LIRN 100500Z 1006/1106 VRB05KT 9999 SCT040"
    },
    {
      "icao": "LIRP",
      "alert": "OK",
      "vis_m": 9999,
      "fzfg": false,
      "metar_trigger": false,
      "taf_trigger": false,
      "metar": "METAR LIRP 100815Z 12004KT 9999 SCT050 09/09 Q1007 NOSIG",
      "taf": "TAF LIRP 100500Z 1006/1106 14005KT 9999 SCT030 BKN050"
    },
    {
      "icao": "LIRZ",
      "alert": "OK",
      "vis_m": 9999,
      "fzfg": false,
      "metar_trigger": false,
      "taf_trigger": false,
      "metar": "METAR LIRZ 100820Z AUTO VRB01KT 9999 OVC008/// 09/08 Q1007",
      "taf": "TAF LIRZ 100500Z 1006/1106 02007KT 7000 SCT050"
    },
    {
      "icao": "LJLJ",
      "alert": "OK",
      "vis_m": 5000,
      "fzfg": false,
      "metar_trigger": false,
      "taf_trigger": false,
      "metar": "METAR LJLJ 100800Z 00000KT 5000 BR BKN003 BKN027 05/05 Q1006 NOSIG",
      "taf": "TAF LJLJ 100500Z 1006/1106 VRB02KT 3500 BR OVC014"
    },
    {
      "icao": "LKMT",
      "alert": "OK",
      "vis_m": 2500,
      "fzfg": false,
      "metar_trigger": false,
      "taf_trigger": false,
      "metar": "METAR LKMT 100800Z 36003KT 330V040 2500 BR SCT023 BKN041 M00/M01 Q1005 NOSIG",
      "taf": "TAF LKMT 100500Z 1006/1106 VRB02KT 3000 BR OVC020"
    },
    {
      "icao": "LKPR",
      "alert": "OK",
      "vis_m": 9999,
      "fzfg": false,
      "metar_trigger": false,
      "taf_trigger": false,
      "metar": "METAR LKPR 100800Z 14005KT 090V180 9999 OVC016 01/M01 Q1003 NOSIG",
      "taf": "TAF LKPR 100800Z 1009/1115 17006KT 9999 OVC009"
    },
    {
      "icao": "LLBG",
      "alert": "OK",
      "vis_m": 9999,
      "fzfg": false,
      "metar_trigger": false,
      "taf_trigger": false,
      "metar": "METAR LLBG 100820Z 20008KT 9999 SCT020 20/15 Q1012 NOSIG",
      "taf": "TAF LLBG 100502Z 1006/1106 VRB04KT 1000 FG SCT008"
    },
    {
      "icao": "LMML",
      "alert": "OK",
      "vis_m": 9999,
      "fzfg": false,
      "metar_trigger": false,
      "taf_trigger": false,
      "metar": "METAR LMML 100815Z 26012KT 230V290 9999 FEW020 15/11 Q1011 NOSIG",
      "taf": "TAF LMML 100500Z 1006/1106 27013KT 9999 SCT022"
    },
    {
      "icao": "LOWW",
      "alert": "OK",
      "vis_m": 9999,
      "fzfg": false,
      "metar_trigger": false,
      "taf_trigger": false,
      "metar": "METAR LOWW 100820Z 15015KT 9999 FEW004 BKN005 04/02 Q1005 NOSIG",
      "taf": "TAF LOWW 100815Z 1009/1115 13015KT 8000 FEW005 BKN006 TX07/1114Z TN03/1104Z"
    },
    {
      "icao": "LPFR",
      "alert": "OK",
      "vis_m": 9999,
      "fzfg": false,
      "metar_trigger": false,
      "taf_trigger": false,
      "metar": "METAR LPFR 100800Z 26011KT 9999 BKN003 15/15 Q1020",
      "taf": "TAF LPFR 100500Z 1006/1106 25012KT 8000 SCT004 BKN008"
    },
    {
      "icao": "LPMA",
      "alert": "OK",
      "vis_m": 9999,
      "fzfg": false,
      "metar_trigger": false,
      "taf_trigger": false,
      "metar": "METAR LPMA 100800Z VRB02KT 9999 FEW015 15/12 Q1024",
      "taf": "TAF LPMA 100500Z 1006/1106 VRB05KT 9999 SCT015"
    },
    {
      "icao": "LPPR",
      "alert": "OK",
      "vis_m": 4500,
      "fzfg": false,
      "metar_trigger": false,
      "taf_trigger": false,
      "metar": "METAR LPPR 100800Z 23011KT 200V260 4500 TSRA BR BKN002 SCT018CB 14/14 Q1010 RETSRA",
      "taf": "TAF LPPR 100500Z 1006/1106 22010KT 6000 SCT004 BKN008"
    },
    {
      "icao": "LPPS",
      "alert": "OK",
      "vis_m": 9999,
      "fzfg": false,
      "metar_trigger": false,
      "taf_trigger": false,
      "metar": "METAR LPPS 100800Z 27005KT 240V300 9999 FEW007 16/15 Q1024",
      "taf": "TAF LPPS 100500Z 1006/1112 27008KT 9999 SCT012"
    },
    {
      "icao": "LPPT",
      "alert": "OK",
      "vis_m": 2500,
      "fzfg": false,
      "metar_trigger": false,
      "taf_trigger": false,
      "metar": "METAR LPPT 100800Z 23014KT 2500 RADZ BR BKN002 FEW020TCU 15/15 Q1016",
      "taf": "TAF LPPT 100500Z 1006/1112 23010KT 6000 SCT004 BKN008"
    },
    {
      "icao": "LQBK",
      "alert": "OK",
      "vis_m": 9999,
      "fzfg": false,
      "metar_trigger": false,
      "taf_trigger": false,
      "metar": "METAR LQBK 100800Z 05003KT 030V090 9999 -RA FEW007 BKN013 OVC030 04/02 Q1007 NOSIG",
      "taf": "TAF LQBK 100500Z 1006/1106 07006KT 9999 SCT015 BKN035 TX07/1013Z TN03/1105Z"
    },
    {
      "icao": "LQSA",
      "alert": "OK",
      "vis_m": 9999,
      "fzfg": false,
      "metar_trigger": false,
      "taf_trigger": false,
      "metar": "METAR LQSA 100800Z VRB01KT 9999 FEW012 SCT060 06/05 Q1006 NOSIG",
      "taf": ""
    },
    {
      "icao": "LQTZ",
      "alert": "OK",
      "vis_m": 9999,
      "fzfg": false,
      "metar_trigger": false,
      "taf_trigger": false,
      "metar": "METAR LQTZ 100800Z 12003KT 100V180 9999 BKN060 05/04 Q1007",
      "taf": "TAF LQTZ 100500Z 1006/1106 09005KT 9999 SCT025 BKN045 TX11/1012Z TN02/1105Z"
    },
    {
      "icao": "LRBC",
      "alert": "OK",
      "vis_m": 9999,
      "fzfg": false,
      "metar_trigger": false,
      "taf_trigger": false,
      "metar": "METAR LRBC 100800Z 16013KT 9999 FEW011 M07/M09 Q1017",
      "taf": "TAF LRBC 100800Z 1009/1018 16015KT 9999 SCT025"
    },
    {
      "icao": "LRBS",
      "alert": "OK",
      "vis_m": 9999,
      "fzfg": false,
      "metar_trigger": false,
      "taf_trigger": false,
      "metar": "METAR LRBS 100800Z 04008KT 010V080 9999 FEW012 BKN039 M03/M06 Q1019 NOSIG",
      "taf": "TAF LRBS 100500Z 1006/1106 05010KT 9999 SCT010 OVC040"
    },
    {
      "icao": "LRBV",
      "alert": "OK",
      "vis_m": 9999,
      "fzfg": false,
      "metar_trigger": false,
      "taf_trigger": false,
      "metar": "METAR LRBV 100800Z 10005KT CAVOK M01/M07 Q1011",
      "taf": "TAF LRBV 100800Z 1009/1018 10007KT CAVOK"
    },
    {
      "icao": "LRCL",
      "alert": "OK",
      "vis_m": 9999,
      "fzfg": false,
      "metar_trigger": false,
      "taf_trigger": false,
      "metar": "METAR LRCL 100800Z 11007KT 9999 FEW044 01/M04 Q1011",
      "taf": "TAF LRCL 100800Z 1009/1018 13010KT CAVOK"
    },
    {
      "icao": "LRCV",
      "alert": "OK",
      "vis_m": 3000,
      "fzfg": false,
      "metar_trigger": false,
      "taf_trigger": false,
      "metar": "METAR LRCV 100800Z 09012KT 3000 SN BR SCT006 BKN018 OVC035 M03/M04 Q1017",
      "taf": "TAF LRCV 100800Z 1009/1018 10012KT 3000 SN BR BKN010 OVC030"
    },
    {
      "icao": "LRIA",
      "alert": "OK",
      "vis_m": 9999,
      "fzfg": false,
      "metar_trigger": false,
      "taf_trigger": false,
      "metar": "METAR LRIA 100800Z 13011KT 9999 FEW010 M06/M09 Q1018",
      "taf": "TAF LRIA 100800Z 1009/1018 14012KT 9999 SCT025"
    },
    {
      "icao": "LROP",
      "alert": "OK",
      "vis_m": 9999,
      "fzfg": false,
      "metar_trigger": false,
      "taf_trigger": false,
      "metar": "METAR LROP 100800Z 05009KT 9999 FEW013 OVC038 M03/M08 Q1019 NOSIG",
      "taf": "TAF LROP 100500Z 1006/1106 05010KT 9999 SCT010 OVC040"
    },
    {
      "icao": "LRSB",
      "alert": "OK",
      "vis_m": 9999,
      "fzfg": false,
      "metar_trigger": false,
      "taf_trigger": false,
      "metar": "METAR LRSB 100800Z 26003KT 9999 FEW048 BKN060 01/M01 Q1010",
      "taf": "TAF LRSB 100500Z 1006/1106 VRB04KT 9999 BKN050"
    },
    {
      "icao": "LRSM",
      "alert": "OK",
      "vis_m": 9999,
      "fzfg": false,
      "metar_trigger": false,
      "taf_trigger": false,
      "metar": "METAR LRSM 100800Z 14006KT 9999 OVC020 04/M02 Q1011",
      "taf": "TAF LRSM 100800Z 1009/1018 14006KT 9999 OVC025"
    },
    {
      "icao": "LRSV",
      "alert": "OK",
      "vis_m": 9999,
      "fzfg": false,
      "metar_trigger": false,
      "taf_trigger": false,
      "metar": "METAR LRSV 100800Z 16011KT CAVOK M07/M08 Q1012",
      "taf": "TAF LRSV 100800Z 1009/1018 16014KT CAVOK"
    },
    {
      "icao": "LRTM",
      "alert": "OK",
      "vis_m": 9999,
      "fzfg": false,
      "metar_trigger": false,
      "taf_trigger": false,
      "metar": "METAR LRTM 100800Z 10005KT 9999 FEW045 01/M05 Q1012",
      "taf": "TAF LRTM 100800Z 1009/1018 10006KT 9999 SCT045"
    },
    {
      "icao": "LRTR",
      "alert": "OK",
      "vis_m": 8000,
      "fzfg": false,
      "metar_trigger": false,
      "taf_trigger": false,
      "metar": "METAR LRTR 100800Z 09007KT 8000 -RASN SCT011 OVC035 01/01 Q1011",
      "taf": ""
    },
    {
      "icao": "LTAC",
      "alert": "OK",
      "vis_m": 9999,
      "fzfg": false,
      "metar_trigger": false,
      "taf_trigger": false,
      "metar": "METAR LTAC 100820Z 09012KT 9999 SCT010 SCT035 BKN100 05/02 Q1009 NOSIG RMK RWY21C 09010KT RWY03L 08009KT RWY21R 08009KT RWY03R 05013KT RWY21L 08011KT",
      "taf": "TAF LTAC 100440Z 1006/1106 VRB02KT 9999 SCT040 BKN100"
    },
    {
      "icao": "LTFM",
      "alert": "OK",
      "vis_m": 9999,
      "fzfg": false,
      "metar_trigger": false,
      "taf_trigger": false,
      "metar": "METAR LTFM 100820Z 05014KT 9999 BKN011 BKN022 06/04 Q1012 NOSIG RMK RWY17L 03011KT RWY34L 03010KT RWY16R 02011KT RWY36 04013KT RWY18 05012KT",
      "taf": "TAF LTFM 100440Z 1006/1112 06020G30KT 9999 BKN016 BKN025"
    },
    {
      "icao": "LUKK",
      "alert": "OK",
      "vis_m": 9999,
      "fzfg": false,
      "metar_trigger": false,
      "taf_trigger": false,
      "metar": "METAR LUKK 100800Z VRB02KT 9999 BKN010 M10/M11 Q1020 NOSIG",
      "taf": ""
    },
    {
      "icao": "LWOH",
      "alert": "OK",
      "vis_m": 9999,
      "fzfg": false,
      "metar_trigger": false,
      "taf_trigger": false,
      "metar": "METAR LWOH 100820Z 18007KT 140V210 9999 BKN025 07/04 Q1008",
      "taf": "TAF LWOH 100500Z 1006/1106 17010KT 9999 OVC020"
    },
    {
      "icao": "LWSK",
      "alert": "OK",
      "vis_m": 9999,
      "fzfg": false,
      "metar_trigger": false,
      "taf_trigger": false,
      "metar": "METAR LWSK 100820Z VRB02KT 9999 BKN020 OVC050 07/04 Q1010 NOSIG",
      "taf": "TAF LWSK 100500Z 1006/1106 VRB03KT 9999 BKN020 OVC040"
    },
    {
      "icao": "LYBE",
      "alert": "OK",
      "vis_m": 9999,
      "fzfg": false,
      "metar_trigger": false,
      "taf_trigger": false,
      "metar": "METAR LYBE 100800Z 13018KT 9999 FEW020 SCT045 01/M03 Q1010 NOSIG",
      "taf": "TAF LYBE 100500Z 1006/1106 11016KT 9999 SCT045 TX05/1013Z TN00/1105Z"
    },
    {
      "icao": "LYNI",
      "alert": "OK",
      "vis_m": 9999,
      "fzfg": false,
      "metar_trigger": false,
      "taf_trigger": false,
      "metar": "METAR LYNI 100800Z 08012KT 9999 -SN FEW017 BKN037 03/M02 Q1011 NOSIG",
      "taf": "TAF LYNI 100500Z 1006/1106 06010KT 9999 SCT015 BKN035 OVC080 TX03/1012Z TN01/1105Z"
    },
    {
      "icao": "LYPG",
      "alert": "OK",
      "vis_m": 5000,
      "fzfg": false,
      "metar_trigger": false,
      "taf_trigger": false,
      "metar": "METAR LYPG 100800Z 00000KT 5000 BR FEW010 BKN050 OVC080 09/09 Q1008 NOSIG",
      "taf": "TAF LYPG 100500Z 1006/1106 VRB02KT 8000 FEW010 SCT040 OVC070 TX12/1012Z TN08/1006Z"
    },
    {
      "icao": "LZIB",
      "alert": "OK",
      "vis_m": 9999,
      "fzfg": false,
      "metar_trigger": false,
      "taf_trigger": false,
      "metar": "METAR LZIB 100800Z 12011KT 9999 FEW011 SCT018 BKN024 02/M00 Q1007 NOSIG",
      "taf": "TAF LZIB 100515Z 1006/1106 12008KT 9999 BKN017 OVC021"
    },
    {
      "icao": "LZKZ",
      "alert": "OK",
      "vis_m": 9999,
      "fzfg": false,
      "metar_trigger": false,
      "taf_trigger": false,
      "metar": "METAR LZKZ 100800Z VRB03KT 9999 OVC015 02/00 Q1009 TEMPO BKN014",
      "taf": "TAF LZKZ 100515Z 1006/1106 02004KT 9999 SCT020 BKN028"
    },
    {
      "icao": "LZTT",
      "alert": "OK",
      "vis_m": 9999,
      "fzfg": false,
      "metar_trigger": false,
      "taf_trigger": false,
      "metar": "METAR LZTT 100800Z 18002KT 9999 FEW002 BKN050 01/M00 Q1006 NOSIG",
      "taf": "TAF LZTT 100515Z 1006/1106 VRB02KT 9999 FEW010 SCT040"
    },
    {
      "icao": "OEJN",
      "alert": "OK",
      "vis_m": 9999,
      "fzfg": false,
      "metar_trigger": false,
      "taf_trigger": false,
      "metar": "METAR OEJN 100800Z 32004KT CAVOK 32/08 Q1013 NOSIG",
      "taf": "TAF OEJN 100500Z 1006/1112 24010KT CAVOK"
    },
    {
      "icao": "OEMA",
      "alert": "OK",
      "vis_m": 9999,
      "fzfg": false,
      "metar_trigger": false,
      "taf_trigger": false,
      "metar": "METAR OEMA 100800Z 21004KT CAVOK 25/02 Q1017 NOSIG",
      "taf": "TAF OEMA 100500Z 1006/1112 25010KT CAVOK"
    },
    {
      "icao": "OJAI",
      "alert": "OK",
      "vis_m": 3500,
      "fzfg": false,
      "metar_trigger": false,
      "taf_trigger": false,
      "metar": "METAR OJAI 100800Z 29013KT 3500 HZ NSC 15/09 Q1013 NOSIG",
      "taf": "TAF OJAI 100500Z 1006/1112 26012KT 4000 HZ NSC"
    },
    {
      "icao": "OMAA",
      "alert": "OK",
      "vis_m": 9999,
      "fzfg": false,
      "metar_trigger": false,
      "taf_trigger": false,
      "metar": "METAR OMAA 100830Z 32009KT 290V360 CAVOK 27/10 Q1016 NOSIG",
      "taf": "TAF OMAA 100500Z 1006/1112 18005KT 8000 NSC"
    },
    {
      "icao": "OMDB",
      "alert": "OK",
      "vis_m": 9999,
      "fzfg": false,
      "metar_trigger": false,
      "taf_trigger": false,
      "metar": "METAR OMDB 100830Z 28005KT 240V320 9999 FEW030 25/17 Q1016 NOSIG",
      "taf": "TAF OMDB 100500Z 1006/1112 22007KT 8000 NSC"
    },
    {
      "icao": "UAAA",
      "alert": "OK",
      "vis_m": 9000,
      "fzfg": false,
      "metar_trigger": false,
      "taf_trigger": false,
      "metar": "METAR UAAA 100800Z 06002MPS 9000 SCT050 BKN100 09/03 Q1015 NOSIG",
      "taf": "TAF UAAA 100502Z 1006/1106 04003MPS 9999 SCT050CB BKN100 TX12/1009Z TNM02/1102Z"
    },
    {
      "icao": "UBBB",
      "alert": "OK",
      "vis_m": 9999,
      "fzfg": false,
      "metar_trigger": false,
      "taf_trigger": false,
      "metar": "METAR UBBB 100800Z 35025G35KT 9999 -SN BKN015 OVC026 01/M02 Q1019 NOSIG",
      "taf": "TAF UBBB 100440Z 1006/1106 34024G34KT 9999 BKN012 BKN025 TX04/1009Z TN02/1100Z"
    },
    {
      "icao": "UDSG",
      "alert": "OK",
      "vis_m": 9999,
      "fzfg": false,
      "metar_trigger": false,
      "taf_trigger": false,
      "metar": "METAR UDSG 100800Z 03004KT 9999 BKN043 00/M02 Q1011 NOSIG",
      "taf": "TAF UDSG 100500Z 1006/1106 VRB06KT 3000 BR OVC020"
    },
    {
      "icao": "UDYZ",
      "alert": "OK",
      "vis_m": 5000,
      "fzfg": false,
      "metar_trigger": false,
      "taf_trigger": false,
      "metar": "METAR UDYZ 100800Z VRB02KT 5000 -RA BR FEW007 OVC024 04/02 Q1011 NOSIG",
      "taf": "TAF UDYZ 100500Z 1006/1106 24006KT 2000 BR BKN020"
    },
    {
      "icao": "UGKO",
      "alert": "OK",
      "vis_m": 9999,
      "fzfg": false,
      "metar_trigger": false,
      "taf_trigger": false,
      "metar": "METAR UGKO 100800Z 25005KT 9999 SCT023 OVC058 03/02 Q1017 NOSIG",
      "taf": "TAF UGKO 100500Z 1006/1106 26007KT 9999 SCT022 OVC050 TX07/1011Z TN03/1020Z"
    }
  ]
}