{
  "ts_utc": "2026-01-10T04:50:43Z",
  "threshold_m": 150,
  "source": "stations_override.txt (ICAO list) + aviationweather.gov (METAR/TAF raw)",
  "station_count": 159,
  "stations": [
    {
      "icao": "BIKF",
      "alert": "OK",
      "vis_m": 9999,
      "fzfg": false,
      "metar_trigger": false,
      "taf_trigger": false,
      "metar": "METAR BIKF 100430Z 01011KT CAVOK M02/M06 Q1011",
      "taf": "TAF BIKF 100105Z 1003/1103 03009KT 9999 FEW025 TXM02/1021Z TNM07/1010Z"
    },
    {
      "icao": "BKPR",
      "alert": "OK",
      "vis_m": 9999,
      "fzfg": false,
      "metar_trigger": false,
      "taf_trigger": false,
      "metar": "METAR BKPR 100430Z 16010KT 9999 -RA SCT020 BKN040 01/01 Q1000 NOSIG",
      "taf": "TAF BKPR 092330Z 1000/1024 18008KT 9999 SCT020 BKN040"
    },
    {
      "icao": "EBCI",
      "alert": "OK",
      "vis_m": 1600,
      "fzfg": false,
      "metar_trigger": false,
      "taf_trigger": false,
      "metar": "METAR EBCI 100420Z 31005KT 280V350 1600 -SN BKN002 OVC003 M00/M00 Q1000 TEMPO 1400 -SN",
      "taf": "TAF EBCI 092312Z 1000/1106 30010KT 2500 -SN SCT001 BKN003"
    },
    {
      "icao": "EDDB",
      "alert": "OK",
      "vis_m": 9999,
      "fzfg": false,
      "metar_trigger": false,
      "taf_trigger": false,
      "metar": "METAR EDDB 100420Z AUTO 08011KT CAVOK M07/M11 Q1006 NOSIG",
      "taf": "TAF EDDB 092300Z 1000/1024 07013KT 9999 BKN030"
    },
    {
      "icao": "EDDH",
      "alert": "OK",
      "vis_m": 9999,
      "fzfg": false,
      "metar_trigger": false,
      "taf_trigger": false,
      "metar": "METAR EDDH 100420Z AUTO 08014KT CAVOK M02/M07 Q1007 TEMPO 09015G25KT",
      "taf": ""
    },
    {
      "icao": "EDDK",
      "alert": "OK",
      "vis_m": 4100,
      "fzfg": false,
      "metar_trigger": false,
      "taf_trigger": false,
      "metar": "METAR EDDK 100420Z AUTO 24006KT 4100 -SN BR OVC005 00/M01 Q0997 RESN TEMPO 2500 SN BKN004",
      "taf": "TAF EDDK 092300Z 1000/1106 24005KT 7000 BKN012"
    },
    {
      "icao": "EDDN",
      "alert": "OK",
      "vis_m": 9999,
      "fzfg": false,
      "metar_trigger": false,
      "taf_trigger": false,
      "metar": "METAR EDDN 100420Z AUTO 20005KT 9999 -RA SCT009 BKN021 02/00 Q0998",
      "taf": "TAF EDDN 092300Z 1000/1024 19007KT 9999 SCT012 BKN040"
    },
    {
      "icao": "EDDS",
      "alert": "OK",
      "vis_m": 5000,
      "fzfg": false,
      "metar_trigger": false,
      "taf_trigger": false,
      "metar": "METAR EDDS 100420Z AUTO 21005KT 170V260 5000 -SHSN BR BKN006 BKN033 OVC042 FEW///CB 01/00 Q0998 RESHSN",
      "taf": "TAF EDDS 092300Z 1000/1024 21009KT 9999 BKN015"
    },
    {
      "icao": "EDFH",
      "alert": "OK",
      "vis_m": 2400,
      "fzfg": false,
      "metar_trigger": false,
      "taf_trigger": false,
      "metar": "METAR EDFH 100420Z 26016KT 2400 -SN OVC002 M00/M01 Q0995",
      "taf": "TAF EDFH 092300Z 1000/1024 26015G25KT 6000 BKN005"
    },
    {
      "icao": "EDJA",
      "alert": "OK",
      "vis_m": 9999,
      "fzfg": false,
      "metar_trigger": false,
      "taf_trigger": false,
      "metar": "METAR EDJA 100420Z AUTO 24018G29KT 9999 // FEW016/// BKN019/// OVC027/// 01/M02 Q0999",
      "taf": "TAF EDJA 100200Z 1003/1012 24015G25KT 9999 BKN015 OVC025"
    },
    {
      "icao": "EDLW",
      "alert": "OK",
      "vis_m": 8000,
      "fzfg": false,
      "metar_trigger": false,
      "taf_trigger": false,
      "metar": "METAR EDLW 100420Z 04008KT 8000 SCT004 OVC006 M02/M02 Q0997",
      "taf": "TAF EDLW 100420Z 1005/1024 05010KT 6000 SCT004 BKN007"
    },
    {
      "icao": "EDNY",
      "alert": "OK",
      "vis_m": 9999,
      "fzfg": false,
      "metar_trigger": false,
      "taf_trigger": false,
      "metar": "METAR EDNY 100420Z AUTO 24017KT 210V270 9999 // SCT018/// BKN023/// OVC041/// 03/00 Q1002",
      "taf": "TAF EDNY 100200Z 1003/1012 24012KT 9999 SCT010 BKN030"
    },
    {
      "icao": "EDSB",
      "alert": "OK",
      "vis_m": 9999,
      "fzfg": false,
      "metar_trigger": false,
      "taf_trigger": false,
      "metar": "METAR EDSB 100420Z 21013KT 9999 FEW018 BKN027 OVC044 03/01 Q1000",
      "taf": ""
    },
    {
      "icao": "EETN",
      "alert": "OK",
      "vis_m": 9999,
      "fzfg": false,
      "metar_trigger": false,
      "taf_trigger": false,
      "metar": "METAR EETN 100420Z 04013KT 9999 DRSN OVC010 M07/M09 Q1009 TEMPO 02018G30KT",
      "taf": "TAF EETN 092330Z 1000/1024 03016G26KT 9999 DRSN BKN012"
    },
    {
      "icao": "EFTU",
      "alert": "OK",
      "vis_m": 9999,
      "fzfg": false,
      "metar_trigger": false,
      "taf_trigger": false,
      "metar": "METAR EFTU 100420Z AUTO 05007KT 020V080 CAVOK M13/M17 Q1016",
      "taf": "TAF EFTU 100225Z 1003/1103 04010KT CAVOK"
    },
    {
      "icao": "EGBB",
      "alert": "OK",
      "vis_m": 9999,
      "fzfg": false,
      "metar_trigger": false,
      "taf_trigger": false,
      "metar": "METAR EGBB 100420Z 31005KT CAVOK 00/M02 Q1011",
      "taf": "TAF EGBB 092257Z 1000/1024 32006KT 9999 SCT018"
    },
    {
      "icao": "EGGP",
      "alert": "OK",
      "vis_m": 9999,
      "fzfg": false,
      "metar_trigger": false,
      "taf_trigger": false,
      "metar": "METAR EGGP 100420Z AUTO 30003KT 9999 NCD 01/M01 Q1012",
      "taf": "TAF EGGP 092304Z 1000/1024 02010KT 9999 SCT040"
    },
    {
      "icao": "EGGW",
      "alert": "OK",
      "vis_m": 9999,
      "fzfg": false,
      "metar_trigger": false,
      "taf_trigger": false,
      "metar": "METAR EGGW 100420Z AUTO 33012KT 9999 BKN009 M00/M01 Q1009",
      "taf": "TAF EGGW 092255Z 1000/1024 33013KT 9999 SCT010 BKN016"
    },
    {
      "icao": "EGKK",
      "alert": "OK",
      "vis_m": 9999,
      "fzfg": false,
      "metar_trigger": false,
      "taf_trigger": false,
      "metar": "METAR EGKK 100420Z 33010KT 9999 FEW017 02/M01 Q1009",
      "taf": "TAF EGKK 092254Z 1000/1106 32012KT 9999 SCT020"
    },
    {
      "icao": "EGNM",
      "alert": "OK",
      "vis_m": null,
      "fzfg": false,
      "metar_trigger": false,
      "taf_trigger": false,
      "metar": "",
      "taf": "TAF EGNM 092301Z 1000/1024 01010KT 9999 FEW030"
    },
    {
      "icao": "EGPD",
      "alert": "OK",
      "vis_m": 9999,
      "fzfg": false,
      "metar_trigger": false,
      "taf_trigger": false,
      "metar": "METAR EGPD 100420Z AUTO 22007KT 9999 NCD 02/M00 Q1012 TEMPO 4000 SHRASN BKN014",
      "taf": "TAF EGPD 092254Z 1000/1024 12007KT 9999 FEW015 SCT025"
    },
    {
      "icao": "EGPF",
      "alert": "OK",
      "vis_m": 2000,
      "fzfg": false,
      "metar_trigger": false,
      "taf_trigger": false,
      "metar": "METAR EGPF 100420Z AUTO 06002KT 2000 BR FEW004 BKN015 OVC032 00/00 Q1012",
      "taf": ""
    },
    {
      "icao": "EHBK",
      "alert": "OK",
      "vis_m": 5000,
      "fzfg": false,
      "metar_trigger": false,
      "taf_trigger": false,
      "metar": "METAR EHBK 100425Z AUTO 34008KT 5000 -SG FEW007 OVC011 M02/M02 Q0999",
      "taf": "TAF EHBK 092318Z 1000/1106 32007KT 2000 -SN BR BKN004"
    },
    {
      "icao": "EHEH",
      "alert": "OK",
      "vis_m": 9999,
      "fzfg": false,
      "metar_trigger": false,
      "taf_trigger": false,
      "metar": "METAR EHEH 100425Z AUTO 35009KT 320V030 9999 OVC009 M02/M04 Q1000 GRN",
      "taf": "TAF EHEH 092351Z 1000/1106 33008KT 8000 -SN SCT005 BKN007"
    },
    {
      "icao": "EKBI",
      "alert": "OK",
      "vis_m": 9999,
      "fzfg": false,
      "metar_trigger": false,
      "taf_trigger": false,
      "metar": "METAR EKBI 100420Z AUTO 06017KT 9999 OVC046/// M01/M06 Q1012",
      "taf": "TAF EKBI 100227Z 1003/1103 07015KT 9000 BKN025"
    },
    {
      "icao": "EKCH",
      "alert": "OK",
      "vis_m": 9999,
      "fzfg": false,
      "metar_trigger": false,
      "taf_trigger": false,
      "metar": "METAR EKCH 100420Z AUTO 04019KT 9999 OVC044/// M02/M06 Q1013 TEMPO 06018G30KT",
      "taf": "TAF EKCH 100227Z 1003/1103 05015KT 9999 BKN030"
    },
    {
      "icao": "ENAL",
      "alert": "OK",
      "vis_m": 9999,
      "fzfg": false,
      "metar_trigger": false,
      "taf_trigger": false,
      "metar": "METAR ENAL 100420Z AUTO 16007KT 9999 NCD M01/M10 Q1018",
      "taf": "TAF ENAL 100200Z 1003/1012 23008KT CAVOK"
    },
    {
      "icao": "ENBR",
      "alert": "OK",
      "vis_m": 9999,
      "fzfg": false,
      "metar_trigger": false,
      "taf_trigger": false,
      "metar": "METAR ENBR 100420Z 11002KT CAVOK M06/M12 Q1019 RMK WIND 1200FT 16003KT",
      "taf": "TAF ENBR 092300Z 1000/1024 08005KT CAVOK"
    },
    {
      "icao": "ENGM",
      "alert": "OK",
      "vis_m": 9999,
      "fzfg": false,
      "metar_trigger": false,
      "taf_trigger": false,
      "metar": "METAR ENGM 100420Z VRB02KT CAVOK M15/M16 Q1022",
      "taf": "TAF ENGM 092300Z 1000/1024 03005KT 9999 -SN FEW020 BKN030"
    },
    {
      "icao": "ENHD",
      "alert": "OK",
      "vis_m": 9999,
      "fzfg": false,
      "metar_trigger": false,
      "taf_trigger": false,
      "metar": "METAR ENHD 100420Z AUTO 09006KT 9999 NCD M07/M13 Q1020",
      "taf": "TAF ENHD 100200Z 1003/1012 10008KT CAVOK"
    },
    {
      "icao": "ENTC",
      "alert": "OK",
      "vis_m": 9999,
      "fzfg": false,
      "metar_trigger": false,
      "taf_trigger": false,
      "metar": "METAR ENTC 100420Z 11003KT CAVOK M12/M13 Q1022 RMK WIND 2600FT 20003KT",
      "taf": "TAF ENTC 092300Z 1000/1024 22008KT CAVOK"
    },
    {
      "icao": "ENTO",
      "alert": "OK",
      "vis_m": 9999,
      "fzfg": false,
      "metar_trigger": false,
      "taf_trigger": false,
      "metar": "METAR ENTO 100420Z AUTO 02007KT 9999 NCD M08/M11 Q1022",
      "taf": "TAF ENTO 092300Z 1000/1024 04010KT 9999 -SN FEW020 BKN030"
    },
    {
      "icao": "ENVA",
      "alert": "OK",
      "vis_m": 9999,
      "fzfg": false,
      "metar_trigger": false,
      "taf_trigger": false,
      "metar": "METAR ENVA 100420Z 11005KT CAVOK M03/M11 Q1020 RMK WIND 670FT 15012KT",
      "taf": "TAF ENVA 092300Z 1000/1024 10008KT CAVOK"
    },
    {
      "icao": "ENZV",
      "alert": "OK",
      "vis_m": 9999,
      "fzfg": false,
      "metar_trigger": false,
      "taf_trigger": false,
      "metar": "METAR ENZV 100420Z 11007KT CAVOK M04/M12 Q1020",
      "taf": "TAF ENZV 092300Z 1000/1024 08008KT CAVOK"
    },
    {
      "icao": "EPGD",
      "alert": "OK",
      "vis_m": 9999,
      "fzfg": false,
      "metar_trigger": false,
      "taf_trigger": false,
      "metar": "METAR EPGD 100430Z 03014KT 360V060 9999 -SN DRSN BKN024 M02/M07 Q1005",
      "taf": ""
    },
    {
      "icao": "EPKK",
      "alert": "OK",
      "vis_m": 4500,
      "fzfg": false,
      "metar_trigger": false,
      "taf_trigger": false,
      "metar": "METAR EPKK 100430Z 08006KT 4500 -SN BR OVC007 M12/M14 Q1002",
      "taf": "TAF EPKK 100230Z 1003/1103 06007KT 3500 BR OVC005"
    },
    {
      "icao": "EPKT",
      "alert": "OK",
      "vis_m": 7000,
      "fzfg": false,
      "metar_trigger": false,
      "taf_trigger": false,
      "metar": "METAR EPKT 100430Z 04006KT 7000 -SN OVC005 M12/M13 Q1001",
      "taf": ""
    },
    {
      "icao": "EPLB",
      "alert": "OK",
      "vis_m": 7000,
      "fzfg": false,
      "metar_trigger": false,
      "taf_trigger": false,
      "metar": "METAR EPLB 100430Z 28008KT 7000 -SN FEW003 SCT008 M15/M16 Q1000",
      "taf": "TAF EPLB 092330Z 1000/1024 29008KT 9999 SCT014 BKN018"
    },
    {
      "icao": "EPMO",
      "alert": "OK",
      "vis_m": 9999,
      "fzfg": false,
      "metar_trigger": false,
      "taf_trigger": false,
      "metar": "METAR EPMO 100430Z 30006KT CAVOK M16/M17 Q1002",
      "taf": "TAF EPMO 092330Z 1000/1024 33008KT CAVOK"
    },
    {
      "icao": "EPPO",
      "alert": "OK",
      "vis_m": 9999,
      "fzfg": false,
      "metar_trigger": false,
      "taf_trigger": false,
      "metar": "METAR EPPO 100430Z VRB01KT 9999 BKN028 M10/M13 Q1006",
      "taf": "TAF EPPO 092330Z 1000/1024 06006KT CAVOK"
    },
    {
      "icao": "EPRA",
      "alert": "OK",
      "vis_m": 9999,
      "fzfg": false,
      "metar_trigger": false,
      "taf_trigger": false,
      "metar": "METAR EPRA 100430Z 30005KT 9999 FEW009 M15/M17 Q1002",
      "taf": "TAF EPRA 100230Z 1003/1012 30008KT 8000 NSC"
    },
    {
      "icao": "EPRZ",
      "alert": "OK",
      "vis_m": 9999,
      "fzfg": false,
      "metar_trigger": false,
      "taf_trigger": false,
      "metar": "METAR EPRZ 100430Z 28005KT 9999 -SN BKN006 OVC013 M11/M13 Q1001",
      "taf": ""
    },
    {
      "icao": "EPSC",
      "alert": "OK",
      "vis_m": 9999,
      "fzfg": false,
      "metar_trigger": false,
      "taf_trigger": false,
      "metar": "METAR EPSC 100430Z 07005KT 040V110 9999 BKN032 M03/M08 Q1007",
      "taf": "TAF EPSC 092330Z 1000/1024 06010KT CAVOK"
    },
    {
      "icao": "EPSY",
      "alert": "OK",
      "vis_m": 7000,
      "fzfg": false,
      "metar_trigger": false,
      "taf_trigger": false,
      "metar": "METAR EPSY 100430Z 32007KT 7000 -SN SCT005 BKN019 M10/M11 Q1001",
      "taf": "TAF EPSY 100230Z 1003/1012 34008KT 9999 SCT016"
    },
    {
      "icao": "EPWA",
      "alert": "OK",
      "vis_m": 9999,
      "fzfg": false,
      "metar_trigger": false,
      "taf_trigger": false,
      "metar": "METAR EPWA 100430Z 27005KT CAVOK M15/M17 Q1002 NOSIG",
      "taf": "TAF EPWA 100230Z 1003/1103 28005KT CAVOK"
    },
    {
      "icao": "EPWR",
      "alert": "OK",
      "vis_m": 9999,
      "fzfg": false,
      "metar_trigger": false,
      "taf_trigger": false,
      "metar": "METAR EPWR 100430Z 05003KT 9999 FEW011 M09/M12 Q1004",
      "taf": "TAF EPWR 100230Z 1003/1103 08008KT 7000 NSC"
    },
    {
      "icao": "ESGG",
      "alert": "OK",
      "vis_m": 9999,
      "fzfg": false,
      "metar_trigger": false,
      "taf_trigger": false,
      "metar": "METAR ESGG 100420Z 02009KT 9999 FEW014 M08/M09 Q1017",
      "taf": "TAF ESGG 100230Z 1003/1103 03010KT 9999 FEW015"
    },
    {
      "icao": "ESKN",
      "alert": "OK",
      "vis_m": 9999,
      "fzfg": false,
      "metar_trigger": false,
      "taf_trigger": false,
      "metar": "METAR ESKN 100420Z 34009KT CAVOK M08/M10 Q1018",
      "taf": "TAF ESKN 100230Z 1003/1103 36010KT CAVOK"
    },
    {
      "icao": "ESMS",
      "alert": "OK",
      "vis_m": 9999,
      "fzfg": false,
      "metar_trigger": false,
      "taf_trigger": false,
      "metar": "METAR ESMS 100420Z 04017KT 9999 BKN039 M02/M07 Q1011",
      "taf": "TAF ESMS 100227Z 1003/1103 05012KT 9999 BKN040"
    },
    {
      "icao": "ESSA",
      "alert": "OK",
      "vis_m": 9999,
      "fzfg": false,
      "metar_trigger": false,
      "taf_trigger": false,
      "metar": "METAR ESSA 100420Z 35009KT CAVOK M10/M12 Q1018 NOSIG",
      "taf": "TAF ESSA 100230Z 1003/1103 36010KT CAVOK"
    },
    {
      "icao": "EYKA",
      "alert": "OK",
      "vis_m": 9999,
      "fzfg": false,
      "metar_trigger": false,
      "taf_trigger": false,
      "metar": "METAR EYKA 100420Z 36009KT 9999 -SN BKN023 OVC046 M08/M11 Q1000",
      "taf": "TAF EYKA 092304Z 1000/1024 01012KT 5000 SN SCT010 OVC020"
    },
    {
      "icao": "EYPA",
      "alert": "OK",
      "vis_m": 9999,
      "fzfg": false,
      "metar_trigger": false,
      "taf_trigger": false,
      "metar": "METAR EYPA 100420Z 02014KT 9999 FEW025 M05/M08 Q1004",
      "taf": "TAF EYPA 092304Z 1000/1024 01012G22KT 9000 SCT010 OVC025"
    },
    {
      "icao": "EYVI",
      "alert": "OK",
      "vis_m": 2400,
      "fzfg": false,
      "metar_trigger": false,
      "taf_trigger": false,
      "metar": "METAR EYVI 100420Z 36011KT 2400 SN FEW012 BKN031 M10/M12 Q0997 NOSIG",
      "taf": "TAF EYVI 092303Z 1000/1024 01012KT 5000 SN SCT010 OVC020"
    },
    {
      "icao": "GCFV",
      "alert": "OK",
      "vis_m": 9999,
      "fzfg": false,
      "metar_trigger": false,
      "taf_trigger": false,
      "metar": "METAR GCFV 100430Z AUTO 04015KT 9999 BKN025 BKN043 18/12 Q1027",
      "taf": "TAF GCFV 100200Z 1003/1103 05015KT 9999 BKN025 TX20/1014Z TN15/1006Z"
    },
    {
      "icao": "GCLP",
      "alert": "OK",
      "vis_m": 9999,
      "fzfg": false,
      "metar_trigger": false,
      "taf_trigger": false,
      "metar": "METAR GCLP 100430Z 01011KT 9999 FEW035 BKN050 18/09 Q1027 NOSIG",
      "taf": "TAF GCLP 100200Z 1003/1103 03013KT 9999 BKN030 TX19/1014Z TN15/1006Z"
    },
    {
      "icao": "GCTS",
      "alert": "OK",
      "vis_m": 9999,
      "fzfg": false,
      "metar_trigger": false,
      "taf_trigger": false,
      "metar": "METAR GCTS 100430Z 03010KT 9999 FEW040 17/10 Q1028 NOSIG",
      "taf": "TAF GCTS 100200Z 1003/1103 04009KT 9999 SCT030 TX23/1014Z TN15/1006Z"
    },
    {
      "icao": "GMAD",
      "alert": "OK",
      "vis_m": 9999,
      "fzfg": false,
      "metar_trigger": false,
      "taf_trigger": false,
      "metar": "METAR GMAD 100430Z 05003KT 340V100 CAVOK 49/49 Q1025 NOSIG",
      "taf": "TAF GMAD 092300Z 1000/1106 06008KT CAVOK"
    },
    {
      "icao": "GMMN",
      "alert": "OK",
      "vis_m": 9999,
      "fzfg": false,
      "metar_trigger": false,
      "taf_trigger": false,
      "metar": "METAR GMMN 100430Z 14003KT 9999 FEW023 04/03 Q1029 NOSIG",
      "taf": "TAF GMMN 092300Z 1000/1106 12004KT 9999 FEW020"
    },
    {
      "icao": "GMMX",
      "alert": "OK",
      "vis_m": 8000,
      "fzfg": false,
      "metar_trigger": false,
      "taf_trigger": false,
      "metar": "METAR GMMX 100430Z /////KT 8000 NSC ///// Q//// NOSIG",
      "taf": "TAF GMMX 092300Z 1000/1106 06006KT 8000 NSC"
    },
    {
      "icao": "HEGN",
      "alert": "OK",
      "vis_m": 9999,
      "fzfg": false,
      "metar_trigger": false,
      "taf_trigger": false,
      "metar": "METAR HEGN 100400Z 30013KT CAVOK 14/07 Q1021 NOSIG",
      "taf": ""
    },
    {
      "icao": "HEMA",
      "alert": "OK",
      "vis_m": 9999,
      "fzfg": false,
      "metar_trigger": false,
      "taf_trigger": false,
      "metar": "METAR HEMA 100400Z 31016KT CAVOK 16/08 Q1019 NOSIG",
      "taf": ""
    },
    {
      "icao": "HESH",
      "alert": "OK",
      "vis_m": 9999,
      "fzfg": false,
      "metar_trigger": false,
      "taf_trigger": false,
      "metar": "METAR HESH 100400Z 34009KT CAVOK 16/04 Q1020 NOSIG",
      "taf": ""
    },
    {
      "icao": "HESX",
      "alert": "OK",
      "vis_m": 9999,
      "fzfg": false,
      "metar_trigger": false,
      "taf_trigger": false,
      "metar": "METAR HESX 100400Z 22006KT CAVOK 09/06 Q1021 NOSIG",
      "taf": ""
    },
    {
      "icao": "LATI",
      "alert": "OK",
      "vis_m": 9999,
      "fzfg": false,
      "metar_trigger": false,
      "taf_trigger": false,
      "metar": "METAR LATI 100450Z 12004KT 100V160 9999 BKN088 BKN120 11/07 Q1001 NOSIG",
      "taf": "TAF LATI 092300Z 1000/1024 20013KT 9999 SCT030 BKN080 TX14/1001Z TN06/1100Z"
    },
    {
      "icao": "LBPD",
      "alert": "OK",
      "vis_m": 9999,
      "fzfg": false,
      "metar_trigger": false,
      "taf_trigger": false,
      "metar": "METAR LBPD 100430Z AUTO 27007KT 9999 FEW072/// BKN085/// OVC190/// 01/M01 Q1003 NOSIG",
      "taf": "TAF LBPD 092300Z 1000/1024 VRB03KT 9999 SCT050"
    },
    {
      "icao": "LBSF",
      "alert": "OK",
      "vis_m": 6000,
      "fzfg": false,
      "metar_trigger": false,
      "taf_trigger": false,
      "metar": "METAR LBSF 100430Z 04006KT 350V070 6000 -RA FEW011 SCT029 OVC035 01/00 Q1002 TEMPO 3000 SNRA",
      "taf": "TAF LBSF 092300Z 1000/1024 VRB03KT 9999 SCT030 BKN050"
    },
    {
      "icao": "LBWN",
      "alert": "OK",
      "vis_m": 9999,
      "fzfg": false,
      "metar_trigger": false,
      "taf_trigger": false,
      "metar": "METAR LBWN 100430Z AUTO 32004KT 280V360 9999 NSC 01/M04 Q1000 NOSIG",
      "taf": "TAF LBWN 092300Z 1000/1024 VRB04KT 9999 BKN040"
    },
    {
      "icao": "LCLK",
      "alert": "OK",
      "vis_m": 9999,
      "fzfg": false,
      "metar_trigger": false,
      "taf_trigger": false,
      "metar": "METAR LCLK 100430Z 34005KT 9999 FEW020 10/06 Q1016 NOSIG",
      "taf": "TAF LCLK 092330Z 1000/1100 26007KT 9999 FEW020 SCT040"
    },
    {
      "icao": "LCPH",
      "alert": "OK",
      "vis_m": 9999,
      "fzfg": false,
      "metar_trigger": false,
      "taf_trigger": false,
      "metar": "METAR LCPH 100430Z 32010KT 9999 SCT035 BKN043 16/10 Q1017 NOSIG",
      "taf": "TAF LCPH 092330Z 1000/1100 31012KT 9999 FEW025 SCT040"
    },
    {
      "icao": "LEAL",
      "alert": "OK",
      "vis_m": 9999,
      "fzfg": false,
      "metar_trigger": false,
      "taf_trigger": false,
      "metar": "METAR LEAL 100430Z 27005KT CAVOK 09/04 Q1024 NOSIG",
      "taf": "TAF LEAL 092300Z 1000/1024 27009KT 9999 FEW040 TX16/1014Z TN08/1006Z"
    },
    {
      "icao": "LEBB",
      "alert": "OK",
      "vis_m": 9999,
      "fzfg": false,
      "metar_trigger": false,
      "taf_trigger": false,
      "metar": "METAR LEBB 100430Z 27012KT 220V300 9999 VCSH FEW015 FEW025TCU SCT027 08/06 Q1023 TEMPO SHRA",
      "taf": "TAF LEBB 092300Z 1000/1024 28010KT 9999 FEW020 BKN040 TX10/1014Z TN08/1000Z"
    },
    {
      "icao": "LEBL",
      "alert": "OK",
      "vis_m": 9999,
      "fzfg": false,
      "metar_trigger": false,
      "taf_trigger": false,
      "metar": "METAR LEBL 100430Z 32014KT 9999 FEW048 07/01 Q1016 NOSIG",
      "taf": ""
    },
    {
      "icao": "LECH",
      "alert": "OK",
      "vis_m": 9000,
      "fzfg": false,
      "metar_trigger": false,
      "taf_trigger": false,
      "metar": "METAR LECH 100430Z AUTO 26005KT 190V330 9000 NCD 07/M04 Q1021",
      "taf": ""
    },
    {
      "icao": "LEMD",
      "alert": "OK",
      "vis_m": 9999,
      "fzfg": false,
      "metar_trigger": false,
      "taf_trigger": false,
      "metar": "METAR LEMD 100430Z 28010KT 250V320 9999 FEW050 05/M01 Q1024 NOSIG",
      "taf": "TAF LEMD 092300Z 1000/1106 27006KT 9999 SCT030 TX10/1014Z TN01/1006Z"
    },
    {
      "icao": "LEMG",
      "alert": "OK",
      "vis_m": 9999,
      "fzfg": false,
      "metar_trigger": false,
      "taf_trigger": false,
      "metar": "METAR LEMG 100430Z 29011KT 250V310 CAVOK 11/06 Q1026 NOSIG",
      "taf": "TAF LEMG 092300Z 1000/1024 29012KT 9999 FEW030 TX18/1014Z TN10/1006Z"
    },
    {
      "icao": "LEVC",
      "alert": "OK",
      "vis_m": 9999,
      "fzfg": false,
      "metar_trigger": false,
      "taf_trigger": false,
      "metar": "METAR LEVC 100430Z 29004KT 260V330 CAVOK 06/02 Q1023 NOSIG",
      "taf": "TAF LEVC 092300Z 1000/1024 26008KT 9999 FEW040 TX16/1014Z TN07/1006Z"
    },
    {
      "icao": "LEXJ",
      "alert": "OK",
      "vis_m": 9000,
      "fzfg": false,
      "metar_trigger": false,
      "taf_trigger": false,
      "metar": "METAR LEXJ 100430Z 28011KT 9000 FEW016 SCT028 BKN055 08/05 Q1024",
      "taf": "TAF LEXJ 100200Z 1003/1103 27015KT 9999 SCT025 BKN040 TX11/1015Z TN08/1007Z"
    },
    {
      "icao": "LEZG",
      "alert": "OK",
      "vis_m": 9999,
      "fzfg": false,
      "metar_trigger": false,
      "taf_trigger": false,
      "metar": "METAR LEZG 100430Z 26009KT 9999 FEW050 SCT060 06/M00 Q1022 NOSIG",
      "taf": "TAF LEZG 092300Z 1000/1024 27010KT 9999 FEW040 TX11/1015Z TN05/1006Z"
    },
    {
      "icao": "LEZL",
      "alert": "OK",
      "vis_m": 9999,
      "fzfg": false,
      "metar_trigger": false,
      "taf_trigger": false,
      "metar": "METAR LEZL 100430Z 00000KT CAVOK 05/05 Q1028 NOSIG",
      "taf": "TAF LEZL 100200Z 1003/1103 VRB03KT CAVOK TX15/1015Z TN06/1007Z"
    },
    {
      "icao": "LFBD",
      "alert": "OK",
      "vis_m": 9999,
      "fzfg": false,
      "metar_trigger": false,
      "taf_trigger": false,
      "metar": "METAR LFBD 100430Z AUTO 28011KT 9999 ///TCU 06/05 Q1018",
      "taf": ""
    },
    {
      "icao": "LFLL",
      "alert": "OK",
      "vis_m": 9999,
      "fzfg": false,
      "metar_trigger": false,
      "taf_trigger": false,
      "metar": "METAR LFLL 100430Z 24006KT 9999 BKN035 BKN050 04/00 Q1010 NOSIG",
      "taf": "TAF LFLL 092300Z 1000/1106 25008KT 9999 BKN025"
    },
    {
      "icao": "LFLS",
      "alert": "OK",
      "vis_m": 9999,
      "fzfg": false,
      "metar_trigger": false,
      "taf_trigger": false,
      "metar": "METAR LFLS 100430Z AUTO 16003KT 120V230 9999 SCT019 BKN026 BKN036 01/01 Q1010 TEMPO 2000 -SHSN BKN008 BKN030TCU",
      "taf": "TAF LFLS 100200Z 1003/1103 VRB03KT 9999 BKN030"
    },
    {
      "icao": "LFMN",
      "alert": "OK",
      "vis_m": 9999,
      "fzfg": false,
      "metar_trigger": false,
      "taf_trigger": false,
      "metar": "METAR LFMN 100430Z 26011KT 230V340 CAVOK 11/M07 Q1001 TEMPO 29015G35KT",
      "taf": "TAF LFMN 100200Z 1003/1109 34015KT CAVOK"
    },
    {
      "icao": "LFOB",
      "alert": "OK",
      "vis_m": 9999,
      "fzfg": false,
      "metar_trigger": false,
      "taf_trigger": false,
      "metar": "METAR LFOB 100430Z AUTO 30015KT 9999 FEW043 02/M00 Q1006 TEMPO BKN014 BECMG 28015G25KT",
      "taf": "TAF LFOB 092300Z 1000/1024 28015G25KT 9999 BKN025"
    },
    {
      "icao": "LFPO",
      "alert": "OK",
      "vis_m": 9999,
      "fzfg": false,
      "metar_trigger": false,
      "taf_trigger": false,
      "metar": "METAR LFPO 100430Z 29012KT 9999 SCT030 BKN043 04/01 Q1007 NOSIG",
      "taf": "TAF LFPO 092300Z 1000/1106 28015KT 9999 SCT020 SCT040"
    },
    {
      "icao": "LFSB",
      "alert": "OK",
      "vis_m": 9999,
      "fzfg": false,
      "metar_trigger": false,
      "taf_trigger": false,
      "metar": "METAR LFSB 100430Z AUTO 24014KT 210V270 9999 -RA FEW016 BKN027 BKN042 03/01 Q1004 TEMPO 3000 -SHRASN SCT020TCU BECMG 25017G30KT",
      "taf": "TAF LFSB 092300Z 1000/1024 25017G30KT 9999 BKN030"
    },
    {
      "icao": "LGAV",
      "alert": "OK",
      "vis_m": 9999,
      "fzfg": false,
      "metar_trigger": false,
      "taf_trigger": false,
      "metar": "METAR LGAV 100350Z 22009KT 9999 FEW030 14/07 Q1007 NOSIG",
      "taf": "TAF LGAV 092300Z 1000/1024 24012KT 9999 FEW025"
    },
    {
      "icao": "LGTS",
      "alert": "OK",
      "vis_m": 6000,
      "fzfg": false,
      "metar_trigger": false,
      "taf_trigger": false,
      "metar": "METAR LGTS 100420Z 11004KT 6000 FEW025 01/01 Q1003 NOSIG",
      "taf": "TAF LGTS 092300Z 1000/1024 VRB03KT 9999 FEW030"
    },
    {
      "icao": "LHBP",
      "alert": "OK",
      "vis_m": 3000,
      "fzfg": false,
      "metar_trigger": false,
      "taf_trigger": false,
      "metar": "METAR LHBP 100430Z 28003KT 3000 BR OVC004 M06/M07 Q1002 TEMPO 2500 BR",
      "taf": "TAF LHBP 092315Z 1000/1024 VRB03KT 7000 BKN015 OVC030"
    },
    {
      "icao": "LHDC",
      "alert": "OK",
      "vis_m": 8000,
      "fzfg": false,
      "metar_trigger": false,
      "taf_trigger": false,
      "metar": "METAR LHDC 100415Z AUTO 01003KT 310V040 8000 OVC027 M05/M07 Q1002",
      "taf": ""
    },
    {
      "icao": "LIBD",
      "alert": "OK",
      "vis_m": 9999,
      "fzfg": false,
      "metar_trigger": false,
      "taf_trigger": false,
      "metar": "METAR LIBD 100420Z 21009KT CAVOK 10/05 Q0999",
      "taf": "TAF LIBD 092300Z 1000/1024 23012KT 9999 SCT040"
    },
    {
      "icao": "LIBG",
      "alert": "OK",
      "vis_m": null,
      "fzfg": false,
      "metar_trigger": false,
      "taf_trigger": false,
      "metar": "",
      "taf": "TAF LIBG 091700Z 0918/1003 21010KT 9999 SCT040"
    },
    {
      "icao": "LIBP",
      "alert": "OK",
      "vis_m": 7000,
      "fzfg": false,
      "metar_trigger": false,
      "taf_trigger": false,
      "metar": "METAR LIBP 100420Z AUTO 30009KT 270V330 7000 RA OVC041/// 07/05 Q0999",
      "taf": "TAF LIBP 092300Z 1000/1024 24015KT 9999 SCT040"
    },
    {
      "icao": "LIBR",
      "alert": "OK",
      "vis_m": 9999,
      "fzfg": false,
      "metar_trigger": false,
      "taf_trigger": false,
      "metar": "METAR LIBR 100420Z 01003KT 340V040 9999 -RA BKN045 12/06 Q1001",
      "taf": "TAF LIBR 092300Z 1000/1024 21012KT 9999 SCT040"
    },
    {
      "icao": "LICA",
      "alert": "OK",
      "vis_m": 9999,
      "fzfg": false,
      "metar_trigger": false,
      "taf_trigger": false,
      "metar": "METAR LICA 100420Z AUTO 27029KT 9999 -RA OVC016/// 13/09 Q1004 RETSRA",
      "taf": "TAF LICA 092300Z 1000/1024 27025G35KT 9999 BKN020"
    },
    {
      "icao": "LICC",
      "alert": "OK",
      "vis_m": 9999,
      "fzfg": false,
      "metar_trigger": false,
      "taf_trigger": false,
      "metar": "METAR LICC 100420Z 26022KT 9999 BKN070 15/11 Q1007",
      "taf": "TAF LICC 092300Z 1000/1024 26018G30KT 9999 FEW050"
    },
    {
      "icao": "LICJ",
      "alert": "OK",
      "vis_m": 8000,
      "fzfg": false,
      "metar_trigger": false,
      "taf_trigger": false,
      "metar": "METAR LICJ 100420Z 28024KT 8000 -RA FEW030 SCT050 15/09 Q1009",
      "taf": "TAF LICJ 092300Z 1000/1024 23020G30KT 9999 SCT030"
    },
    {
      "icao": "LIMC",
      "alert": "OK",
      "vis_m": 4000,
      "fzfg": false,
      "metar_trigger": false,
      "taf_trigger": false,
      "metar": "METAR LIMC 100420Z 02005KT 4000 BR NSC M06/M07 Q1000 NOSIG",
      "taf": "TAF LIMC 092300Z 1000/1106 VRB04KT 6000 NSC"
    },
    {
      "icao": "LIME",
      "alert": "OK",
      "vis_m": 8000,
      "fzfg": false,
      "metar_trigger": false,
      "taf_trigger": false,
      "metar": "METAR LIME 100420Z 01003KT 340V040 8000 NSC M03/M05 Q1000 NOSIG",
      "taf": "TAF LIME 092300Z 1000/1024 VRB04KT 8000 SCT040"
    },
    {
      "icao": "LIMF",
      "alert": "OK",
      "vis_m": 6000,
      "fzfg": false,
      "metar_trigger": false,
      "taf_trigger": false,
      "metar": "METAR LIMF 100420Z 06005KT 020V090 6000 NSC M03/M07 Q0999",
      "taf": "TAF LIMF 092300Z 1000/1024 VRB05KT 6000 NSC"
    },
    {
      "icao": "LIMJ",
      "alert": "OK",
      "vis_m": 9999,
      "fzfg": false,
      "metar_trigger": false,
      "taf_trigger": false,
      "metar": "METAR LIMJ 100420Z 06007KT 020V080 CAVOK 08/M04 Q1000",
      "taf": "TAF LIMJ 092300Z 1000/1024 04008KT CAVOK"
    },
    {
      "icao": "LIPE",
      "alert": "OK",
      "vis_m": 5000,
      "fzfg": false,
      "metar_trigger": false,
      "taf_trigger": false,
      "metar": "METAR LIPE 100420Z 27007KT 5000 BR OVC040 01/M01 Q1001",
      "taf": "TAF LIPE 092300Z 1000/1024 VRB05KT 6000 NSC"
    },
    {
      "icao": "LIPH",
      "alert": "OK",
      "vis_m": 9999,
      "fzfg": false,
      "metar_trigger": false,
      "taf_trigger": false,
      "metar": "METAR LIPH 100420Z AUTO 22003KT 9999 OVC012/// M01/M03 Q1000",
      "taf": "TAF LIPH 092300Z 1000/1024 VRB05KT 9999 SCT040"
    },
    {
      "icao": "LIPQ",
      "alert": "OK",
      "vis_m": 6000,
      "fzfg": false,
      "metar_trigger": false,
      "taf_trigger": false,
      "metar": "METAR LIPQ 100420Z AUTO 35005KT 6000 BKN100/// BKN210/// 01/01 Q0999",
      "taf": "TAF LIPQ 092300Z 1000/1024 VRB05KT 9999 BKN030"
    },
    {
      "icao": "LIPR",
      "alert": "OK",
      "vis_m": 6000,
      "fzfg": false,
      "metar_trigger": false,
      "taf_trigger": false,
      "metar": "METAR LIPR 100420Z AUTO 30006KT 6000 BKN029/// BKN080/// 01/M01 Q1000",
      "taf": "TAF LIPR 092300Z 1000/1024 VRB05KT 7000 SCT040"
    },
    {
      "icao": "LIPX",
      "alert": "OK",
      "vis_m": 7000,
      "fzfg": false,
      "metar_trigger": false,
      "taf_trigger": false,
      "metar": "METAR LIPX 100420Z 12003KT 030V150 7000 NSC M04/M05 Q1001",
      "taf": "TAF LIPX 092300Z 1000/1024 VRB05KT 8000 NSC"
    },
    {
      "icao": "LIPY",
      "alert": "OK",
      "vis_m": 3300,
      "fzfg": false,
      "metar_trigger": false,
      "taf_trigger": false,
      "metar": "METAR LIPY 100420Z AUTO 28006KT 250V320 3300 -RA BR BKN006/// OVC032/// 04/04 Q0999 RERA",
      "taf": "TAF LIPY 092300Z 1000/1024 24012KT 9999 SCT050"
    },
    {
      "icao": "LIPZ",
      "alert": "OK",
      "vis_m": 9999,
      "fzfg": false,
      "metar_trigger": false,
      "taf_trigger": false,
      "metar": "METAR LIPZ 100420Z 29005KT CAVOK M02/M03 Q1000 NOSIG",
      "taf": "TAF LIPZ 092300Z 1000/1106 VRB05KT CAVOK"
    },
    {
      "icao": "LIRF",
      "alert": "OK",
      "vis_m": 9999,
      "fzfg": false,
      "metar_trigger": false,
      "taf_trigger": false,
      "metar": "METAR LIRF 100420Z 26019G29KT 9999 FEW045 12/06 Q0998 NOSIG",
      "taf": "TAF LIRF 092300Z 1000/1106 25023G35KT 9999 SCT025"
    },
    {
      "icao": "LIRN",
      "alert": "OK",
      "vis_m": 8000,
      "fzfg": false,
      "metar_trigger": false,
      "taf_trigger": false,
      "metar": "METAR LIRN 100420Z 25017G27KT 220V290 8000 -RA BKN040 10/07 Q1001 NOSIG",
      "taf": "TAF LIRN 092300Z 1000/1024 26018G28KT 9999 SCT040"
    },
    {
      "icao": "LIRP",
      "alert": "OK",
      "vis_m": 9999,
      "fzfg": false,
      "metar_trigger": false,
      "taf_trigger": false,
      "metar": "METAR LIRP 100415Z 36003KT 9999 FEW030 07/04 Q0998 NOSIG",
      "taf": "TAF LIRP 092300Z 1000/1024 26015KT 9999 SCT020 SCT040"
    },
    {
      "icao": "LIRZ",
      "alert": "OK",
      "vis_m": 9999,
      "fzfg": false,
      "metar_trigger": false,
      "taf_trigger": false,
      "metar": "METAR LIRZ 100420Z AUTO 25005KT 210V290 9999 -DZRA BKN024/// BKN066/// 06/03 Q0999",
      "taf": "TAF LIRZ 092300Z 1000/1024 VRB05KT 9999 BKN040"
    },
    {
      "icao": "LJLJ",
      "alert": "OK",
      "vis_m": 4000,
      "fzfg": false,
      "metar_trigger": false,
      "taf_trigger": false,
      "metar": "METAR LJLJ 100430Z VRB02KT 4000 BR SCT001 OVC015 00/M00 Q1000 NOSIG",
      "taf": "TAF LJLJ 092300Z 1000/1100 30003KT 4000 BR FEW003 BKN016 BKN030"
    },
    {
      "icao": "LKMT",
      "alert": "OK",
      "vis_m": 4000,
      "fzfg": false,
      "metar_trigger": false,
      "taf_trigger": false,
      "metar": "METAR LKMT 100430Z 36001KT 4000 BR OVC024 M04/M05 Q1001 NOSIG",
      "taf": "TAF LKMT 092300Z 1000/1024 VRB02KT 9999 BKN035"
    },
    {
      "icao": "LKPR",
      "alert": "OK",
      "vis_m": 4100,
      "fzfg": false,
      "metar_trigger": false,
      "taf_trigger": false,
      "metar": "METAR LKPR 100430Z 34001KT 4100 -SN BR BKN003 OVC007 M04/M05 Q0999 NOSIG",
      "taf": "TAF LKPR 100200Z 1003/1109 06005KT 5000 BR SCT008 OVC013"
    },
    {
      "icao": "LLBG",
      "alert": "OK",
      "vis_m": 9999,
      "fzfg": false,
      "metar_trigger": false,
      "taf_trigger": false,
      "metar": "METAR LLBG 100420Z 29005KT 9999 SCT040 15/08 Q1019 NOSIG",
      "taf": "TAF LLBG 092311Z 1000/1024 28012KT 9999 SCT035"
    },
    {
      "icao": "LMML",
      "alert": "OK",
      "vis_m": 9999,
      "fzfg": false,
      "metar_trigger": false,
      "taf_trigger": false,
      "metar": "METAR LMML 100445Z 26013KT 230V290 9999 FEW020 14/11 Q1012 NOSIG",
      "taf": "TAF LMML 092300Z 1000/1024 25018KT 9999 SCT017"
    },
    {
      "icao": "LOWW",
      "alert": "OK",
      "vis_m": 4400,
      "fzfg": false,
      "metar_trigger": false,
      "taf_trigger": false,
      "metar": "METAR LOWW 100420Z 16005KT 4400 -SN BR FEW003 BKN004 M05/M06 Q1001 NOSIG",
      "taf": "TAF LOWW 100215Z 1003/1109 12003KT 6000 BKN008 TXM02/1012Z TNM06/1100Z"
    },
    {
      "icao": "LPFR",
      "alert": "OK",
      "vis_m": 9999,
      "fzfg": false,
      "metar_trigger": false,
      "taf_trigger": false,
      "metar": "METAR LPFR 100430Z VRB02KT CAVOK 07/06 Q1029",
      "taf": "TAF LPFR 092300Z 1000/1024 32005KT 9999 FEW035"
    },
    {
      "icao": "LPMA",
      "alert": "OK",
      "vis_m": 9999,
      "fzfg": false,
      "metar_trigger": false,
      "taf_trigger": false,
      "metar": "METAR LPMA 100430Z 34006KT 9999 SCT015 15/10 Q1031",
      "taf": "TAF LPMA 092300Z 1000/1024 03008KT 9999 SCT016"
    },
    {
      "icao": "LPPR",
      "alert": "OK",
      "vis_m": 9999,
      "fzfg": false,
      "metar_trigger": false,
      "taf_trigger": false,
      "metar": "METAR LPPR 100430Z 12006KT 9999 FEW018 SCT042 07/07 Q1029",
      "taf": "TAF LPPR 092300Z 1000/1024 VRB02KT 9999 BKN025"
    },
    {
      "icao": "LPPS",
      "alert": "OK",
      "vis_m": 9999,
      "fzfg": false,
      "metar_trigger": false,
      "taf_trigger": false,
      "metar": "METAR LPPS 100430Z 01006KT 9999 SCT012 SCT030 14/13 Q1031",
      "taf": "TAF LPPS 092300Z 1000/1106 06008KT 9999 SCT015 SCT030"
    },
    {
      "icao": "LPPT",
      "alert": "OK",
      "vis_m": 9999,
      "fzfg": false,
      "metar_trigger": false,
      "taf_trigger": false,
      "metar": "METAR LPPT 100430Z 28003KT 9999 FEW015 09/08 Q1029",
      "taf": "TAF LPPT 092300Z 1000/1106 VRB02KT 9999 FEW030"
    },
    {
      "icao": "LQBK",
      "alert": "OK",
      "vis_m": 1300,
      "fzfg": false,
      "metar_trigger": false,
      "taf_trigger": false,
      "metar": "METAR LQBK 100430Z 33005KT 1300 R16/1600N BR OVC003 00/00 Q1000 NOSIG",
      "taf": ""
    },
    {
      "icao": "LQSA",
      "alert": "OK",
      "vis_m": 350,
      "fzfg": true,
      "metar_trigger": false,
      "taf_trigger": false,
      "metar": "METAR LQSA 100430Z VRB02KT 0350 R11/0400N FZFG VV002 M01/M01 Q0998 NOSIG",
      "taf": "TAF LQSA 092300Z 1000/1024 VRB02KT 4000 BR FEW005 SCT050 TX01/1000Z TNM04/1007Z"
    },
    {
      "icao": "LQTZ",
      "alert": "OK",
      "vis_m": 3500,
      "fzfg": false,
      "metar_trigger": false,
      "taf_trigger": false,
      "metar": "METAR LQTZ 100430Z 12004KT 3500 BR SCT002 01/01 Q0999",
      "taf": "TAF LQTZ 092300Z 1000/1024 16005KT 6000 SCT005 BKN025 TX02/1013Z TNM00/1006Z"
    },
    {
      "icao": "LRBC",
      "alert": "OK",
      "vis_m": 9999,
      "fzfg": false,
      "metar_trigger": false,
      "taf_trigger": false,
      "metar": "METAR LRBC 100430Z 34005KT 9999 -SN FEW035 OVC046 M05/M08 Q1000",
      "taf": "TAF LRBC 100200Z 1003/1012 VRB04KT CAVOK"
    },
    {
      "icao": "LRBS",
      "alert": "OK",
      "vis_m": 9999,
      "fzfg": false,
      "metar_trigger": false,
      "taf_trigger": false,
      "metar": "METAR LRBS 100430Z 32004KT 280V350 9999 BKN042 00/M02 Q1000 NOSIG",
      "taf": "TAF LRBS 092300Z 1000/1024 VRB04KT 9999 BKN030"
    },
    {
      "icao": "LRBV",
      "alert": "OK",
      "vis_m": 7000,
      "fzfg": false,
      "metar_trigger": false,
      "taf_trigger": false,
      "metar": "METAR LRBV 100430Z AUTO 21003KT 7000 SG FEW016/// OVC041/// M05/M08 Q0999 REDZ",
      "taf": "TAF LRBV 100200Z 1003/1012 VRB04KT 9999 BKN025 BKN050"
    },
    {
      "icao": "LRCL",
      "alert": "OK",
      "vis_m": 9999,
      "fzfg": false,
      "metar_trigger": false,
      "taf_trigger": false,
      "metar": "METAR LRCL 100430Z 00000KT 9999 OVC025 M06/M08 Q1000",
      "taf": "TAF LRCL 100200Z 1003/1012 VRB04KT 9999 OVC035"
    },
    {
      "icao": "LRCV",
      "alert": "OK",
      "vis_m": 9999,
      "fzfg": false,
      "metar_trigger": false,
      "taf_trigger": false,
      "metar": "METAR LRCV 100430Z 00000KT 9999 SCT026 M01/M01 Q1000",
      "taf": "TAF LRCV 100200Z 1003/1012 VRB04KT 9999 BKN040"
    },
    {
      "icao": "LRIA",
      "alert": "OK",
      "vis_m": 9999,
      "fzfg": false,
      "metar_trigger": false,
      "taf_trigger": false,
      "metar": "METAR LRIA 100430Z 08007KT CAVOK M06/M08 Q1000",
      "taf": "TAF LRIA 100200Z 1003/1012 VRB04KT CAVOK"
    },
    {
      "icao": "LROP",
      "alert": "OK",
      "vis_m": 9999,
      "fzfg": false,
      "metar_trigger": false,
      "taf_trigger": false,
      "metar": "METAR LROP 100430Z 32004KT 300V360 9999 BKN042 00/M03 Q1000 NOSIG",
      "taf": "TAF LROP 092300Z 1000/1024 VRB04KT 9999 BKN030"
    },
    {
      "icao": "LRSB",
      "alert": "OK",
      "vis_m": 9999,
      "fzfg": false,
      "metar_trigger": false,
      "taf_trigger": false,
      "metar": "METAR LRSB 100430Z 30003KT 280V340 9999 BKN016 SCT052 M04/M05 Q0999",
      "taf": "TAF LRSB 092300Z 1000/1024 VRB04KT 9999 OVC040"
    },
    {
      "icao": "LRSM",
      "alert": "OK",
      "vis_m": 9999,
      "fzfg": false,
      "metar_trigger": false,
      "taf_trigger": false,
      "metar": "METAR LRSM 100430Z AUTO 07003KT 9999 BKN018/// OVC024/// M05/M07 Q1001",
      "taf": ""
    },
    {
      "icao": "LRSV",
      "alert": "OK",
      "vis_m": 9999,
      "fzfg": false,
      "metar_trigger": false,
      "taf_trigger": false,
      "metar": "METAR LRSV 100430Z VRB02KT CAVOK M06/M10 Q0998",
      "taf": "TAF LRSV 100200Z 1003/1012 VRB04KT CAVOK"
    },
    {
      "icao": "LRTM",
      "alert": "OK",
      "vis_m": 7000,
      "fzfg": false,
      "metar_trigger": false,
      "taf_trigger": false,
      "metar": "METAR LRTM 100430Z AUTO 07006KT 7000 -SN BKN024/// M05/M07 Q1000",
      "taf": "TAF LRTM 100200Z 1003/1012 VRB04KT 9999 OVC040"
    },
    {
      "icao": "LRTR",
      "alert": "OK",
      "vis_m": 3000,
      "fzfg": false,
      "metar_trigger": false,
      "taf_trigger": false,
      "metar": "METAR LRTR 100430Z 15001KT 3000 -SN BR BKN002 OVC009 M01/M01 Q1001",
      "taf": "TAF LRTR 092300Z 1000/1024 VRB04KT 3000 -SN BR BKN010 OVC025"
    },
    {
      "icao": "LTAC",
      "alert": "OK",
      "vis_m": 9999,
      "fzfg": false,
      "metar_trigger": false,
      "taf_trigger": false,
      "metar": "METAR LTAC 100420Z 06003KT CAVOK M03/M06 Q1012 NOSIG RMK RWY21C 03004KT RWY03L 04004KT RWY21R 02004KT RWY03R 06003KT RWY21L 08002KT",
      "taf": "TAF LTAC 092240Z 1000/1024 VRB02KT CAVOK"
    },
    {
      "icao": "LTFM",
      "alert": "OK",
      "vis_m": 9999,
      "fzfg": false,
      "metar_trigger": false,
      "taf_trigger": false,
      "metar": "METAR LTFM 100420Z 19015KT 9999 SCT035 BKN090 10/05 Q1004 NOSIG RMK RWY17L 20015KT RWY34L 19015KT RWY16R 20014KT RWY36 20016KT RWY18 21020KT",
      "taf": "TAF LTFM 092240Z 1000/1106 21020G32KT 9999 SCT028 BKN090"
    },
    {
      "icao": "LUKK",
      "alert": "OK",
      "vis_m": 9999,
      "fzfg": false,
      "metar_trigger": false,
      "taf_trigger": false,
      "metar": "METAR LUKK 100430Z 23003KT 200V270 CAVOK M08/M09 Q1001 NOSIG",
      "taf": "TAF LUKK 092317Z 1000/1024 VRB04KT 9999 SCT045"
    },
    {
      "icao": "LWOH",
      "alert": "OK",
      "vis_m": 6000,
      "fzfg": false,
      "metar_trigger": false,
      "taf_trigger": false,
      "metar": "METAR LWOH 100450Z 14014KT 6000 -RA SCT010 OVC035 07/05 Q1001",
      "taf": "TAF LWOH 100230Z 1003/1103 16010KT 9999 -RA FEW005 BKN020 OVC040"
    },
    {
      "icao": "LWSK",
      "alert": "OK",
      "vis_m": 9000,
      "fzfg": false,
      "metar_trigger": false,
      "taf_trigger": false,
      "metar": "METAR LWSK 100450Z VRB01KT 9000 FEW040 SCT070 M02/M04 Q1003 NOSIG",
      "taf": "TAF LWSK 100230Z 1003/1103 VRB02KT 9999 SCT040 BKN060"
    },
    {
      "icao": "LYBE",
      "alert": "OK",
      "vis_m": 1500,
      "fzfg": false,
      "metar_trigger": false,
      "taf_trigger": false,
      "metar": "METAR LYBE 100430Z 30003KT 260V330 1500 BR BKN003 BKN020 01/00 Q1001 NOSIG",
      "taf": "TAF LYBE 092300Z 1000/1024 26006KT 2000 BR BKN008 BKN025 TX00/1000Z TNM02/1019Z"
    },
    {
      "icao": "LYNI",
      "alert": "OK",
      "vis_m": 5000,
      "fzfg": false,
      "metar_trigger": false,
      "taf_trigger": false,
      "metar": "METAR LYNI 100430Z VRB02KT 5000 BR SCT030 OVC070 01/01 Q1001 NOSIG",
      "taf": "TAF LYNI 092300Z 1000/1024 07004KT 8000 SCT015 BKN030 TX01/1000Z TNM02/1024Z"
    },
    {
      "icao": "LYPG",
      "alert": "OK",
      "vis_m": 6000,
      "fzfg": false,
      "metar_trigger": false,
      "taf_trigger": false,
      "metar": "METAR LYPG 100430Z 07004KT 020V110 6000 -RA FEW010 SCT020 BKN033 04/04 Q1000 NOSIG",
      "taf": "TAF LYPG 092300Z 1000/1024 35005KT 7000 RA FEW010 BKN030 OVC070 TX08/1012Z TN02/1005Z"
    },
    {
      "icao": "LZIB",
      "alert": "OK",
      "vis_m": 9999,
      "fzfg": false,
      "metar_trigger": false,
      "taf_trigger": false,
      "metar": "METAR LZIB 100430Z 11002KT 9999 BKN007 OVC009 M04/M06 Q1001 NOSIG",
      "taf": "TAF LZIB 092315Z 1000/1100 06004KT 9999 BKN016"
    },
    {
      "icao": "LZKZ",
      "alert": "OK",
      "vis_m": 7000,
      "fzfg": false,
      "metar_trigger": false,
      "taf_trigger": false,
      "metar": "METAR LZKZ 100430Z 02003KT 7000 OVC009 M08/M10 Q1001 NOSIG",
      "taf": ""
    },
    {
      "icao": "LZTT",
      "alert": "OK",
      "vis_m": 9999,
      "fzfg": false,
      "metar_trigger": false,
      "taf_trigger": false,
      "metar": "METAR LZTT 100430Z 33003KT 9999 BKN023 M12/M13 Q0997",
      "taf": "TAF LZTT 092315Z 1000/1100 VRB02KT 9999 SCT030 BKN050"
    },
    {
      "icao": "OEJN",
      "alert": "OK",
      "vis_m": 6000,
      "fzfg": false,
      "metar_trigger": false,
      "taf_trigger": false,
      "metar": "METAR OEJN 100400Z 04002KT 6000 NSC 22/18 Q1014 NOSIG",
      "taf": "TAF OEJN 092300Z 1000/1106 VRB03KT 7000 SCT040"
    },
    {
      "icao": "OEMA",
      "alert": "OK",
      "vis_m": 9999,
      "fzfg": false,
      "metar_trigger": false,
      "taf_trigger": false,
      "metar": "METAR OEMA 100400Z 02007KT CAVOK 16/10 Q1019 NOSIG",
      "taf": "TAF OEMA 092300Z 1000/1106 VRB03KT 7000 NSC"
    },
    {
      "icao": "OJAI",
      "alert": "OK",
      "vis_m": 2500,
      "fzfg": false,
      "metar_trigger": false,
      "taf_trigger": false,
      "metar": "METAR OJAI 100400Z 26008KT 2500 BR SCT025 08/06 Q1019 NOSIG",
      "taf": ""
    },
    {
      "icao": "OMAA",
      "alert": "OK",
      "vis_m": 5000,
      "fzfg": false,
      "metar_trigger": false,
      "taf_trigger": false,
      "metar": "METAR OMAA 100400Z VRB01KT 5000 HZ NSC 16/13 Q1019 BECMG 7000 NSW",
      "taf": "TAF OMAA 092300Z 1000/1106 VRB02KT 8000 NSC"
    },
    {
      "icao": "OMDB",
      "alert": "OK",
      "vis_m": 8000,
      "fzfg": false,
      "metar_trigger": false,
      "taf_trigger": false,
      "metar": "METAR OMDB 100430Z VRB04KT 8000 NSC 18/13 Q1020 NOSIG",
      "taf": "TAF OMDB 092300Z 1000/1106 12005KT 8000 NSC"
    },
    {
      "icao": "UAAA",
      "alert": "OK",
      "vis_m": 400,
      "fzfg": true,
      "metar_trigger": false,
      "taf_trigger": false,
      "metar": "METAR UAAA 100430Z VRB01MPS 0400 R23L/0500D FZFG VV002 M06/M07 Q1020 NOSIG RMK QBB060",
      "taf": "TAF UAAA 092301Z 1000/1024 17003MPS 1200 BR FU BKN011 OVC020 TX03/1009Z TNM07/1001Z"
    },
    {
      "icao": "UBBB",
      "alert": "OK",
      "vis_m": 9999,
      "fzfg": false,
      "metar_trigger": false,
      "taf_trigger": false,
      "metar": "METAR UBBB 100430Z 34016KT 9999 BKN020 09/05 Q1009 NOSIG",
      "taf": "TAF UBBB 092304Z 1000/1024 32020G30KT 9999 SCT010 BKN025 TX10/1010Z TN06/1000Z"
    },
    {
      "icao": "UDSG",
      "alert": "OK",
      "vis_m": 1300,
      "fzfg": true,
      "metar_trigger": false,
      "taf_trigger": false,
      "metar": "METAR UDSG 100430Z 03002KT 1300 R02/2000N SN BR OVC015 M02/M02 Q1007 NOSIG",
      "taf": "TAF UDSG 092300Z 1000/1024 VRB06KT 0800 FZFG OVC006"
    },
    {
      "icao": "UDYZ",
      "alert": "OK",
      "vis_m": 1300,
      "fzfg": false,
      "metar_trigger": false,
      "taf_trigger": false,
      "metar": "METAR UDYZ 100430Z 10003KT 1300 0900W R08/0900U BCFG FEW006 BKN041 M01/M02 Q1008 NOSIG",
      "taf": ""
    },
    {
      "icao": "UGKO",
      "alert": "OK",
      "vis_m": 6000,
      "fzfg": false,
      "metar_trigger": false,
      "taf_trigger": false,
      "metar": "METAR UGKO 100430Z 23012KT 6000 -SHRA BKN015CB OVC056 03/02 Q1013 NOSIG",
      "taf": "TAF UGKO 092300Z 1000/1024 25010KT 9999 OVC050 TX09/1012Z TN04/1003Z"
    }
  ]
}