{
  "ts_utc": "2025-12-18T23:54:43Z",
  "threshold_m": 150,
  "source": "stations_override.txt (ICAO list) + aviationweather.gov (METAR/TAF raw)",
  "station_count": 114,
  "stations": [
    {
      "icao": "BIKF",
      "alert": "OK",
      "vis_m": 9999,
      "fzfg": false,
      "metar_trigger": false,
      "taf_trigger": false,
      "metar": "METAR BIKF 182330Z 02010KT CAVOK 02/M01 Q0977",
      "taf": "TAF BIKF 182248Z 1900/2000 04012KT 9999 SCT035 TX06/1921Z TN00/1909Z"
    },
    {
      "icao": "BKPR",
      "alert": "OK",
      "vis_m": null,
      "fzfg": false,
      "metar_trigger": false,
      "taf_trigger": false,
      "metar": "",
      "taf": "TAF BKPR 182330Z 1900/1924 VRB03KT 6000 FEW015"
    },
    {
      "icao": "EBBR",
      "alert": "OK",
      "vis_m": 9999,
      "fzfg": false,
      "metar_trigger": false,
      "taf_trigger": false,
      "metar": "METAR EBBR 182320Z 20014G24KT 170V230 9999 -RA BKN040 14/07 Q1011 NOSIG",
      "taf": "TAF EBBR 182310Z 1900/2006 21012KT 9999 BKN025"
    },
    {
      "icao": "EBCI",
      "alert": "OK",
      "vis_m": 9999,
      "fzfg": false,
      "metar_trigger": false,
      "taf_trigger": false,
      "metar": "METAR EBCI 182320Z 20016KT CAVOK 13/07 Q1012 TEMPO 20015G25KT",
      "taf": "TAF EBCI 182310Z 1900/2006 20014KT 9999 BKN025"
    },
    {
      "icao": "EDDB",
      "alert": "OK",
      "vis_m": 9999,
      "fzfg": false,
      "metar_trigger": false,
      "taf_trigger": false,
      "metar": "METAR EDDB 182350Z AUTO 15005KT CAVOK 03/02 Q1019 NOSIG",
      "taf": "TAF EDDB 182300Z 1900/1924 17008KT CAVOK"
    },
    {
      "icao": "EDDH",
      "alert": "OK",
      "vis_m": 9999,
      "fzfg": false,
      "metar_trigger": false,
      "taf_trigger": false,
      "metar": "METAR EDDH 182350Z AUTO 17011KT CAVOK 09/06 Q1012 NOSIG",
      "taf": "TAF EDDH 182300Z 1900/2006 16010KT CAVOK"
    },
    {
      "icao": "EDDK",
      "alert": "OK",
      "vis_m": 9999,
      "fzfg": false,
      "metar_trigger": false,
      "taf_trigger": false,
      "metar": "METAR EDDK 182350Z AUTO 14011KT CAVOK 11/06 Q1015 NOSIG",
      "taf": "TAF EDDK 182300Z 1900/2006 15010KT 9999 BKN030"
    },
    {
      "icao": "EDDN",
      "alert": "OK",
      "vis_m": 9999,
      "fzfg": false,
      "metar_trigger": false,
      "taf_trigger": false,
      "metar": "METAR EDDN 182350Z AUTO 13007KT CAVOK 01/00 Q1021",
      "taf": "TAF EDDN 182300Z 1900/1924 12008KT CAVOK"
    },
    {
      "icao": "EDFH",
      "alert": "OK",
      "vis_m": 9999,
      "fzfg": false,
      "metar_trigger": false,
      "taf_trigger": false,
      "metar": "METAR EDFH 182320Z 21014KT 180V240 CAVOK 10/05 Q1016",
      "taf": "TAF EDFH 182300Z 1900/1924 19012KT CAVOK"
    },
    {
      "icao": "EDJA",
      "alert": "OK",
      "vis_m": 9999,
      "fzfg": false,
      "metar_trigger": false,
      "taf_trigger": false,
      "metar": "METAR EDJA 182320Z AUTO 18003KT 9999 // FEW140/// M01/M01 Q1021",
      "taf": "TAF EDJA 181700Z 1818/1903 VRB02KT CAVOK"
    },
    {
      "icao": "EDLW",
      "alert": "OK",
      "vis_m": 9999,
      "fzfg": false,
      "metar_trigger": false,
      "taf_trigger": false,
      "metar": "METAR EDLW 182320Z AUTO 18017KT 9999 // NCD 12/06 Q1013",
      "taf": "TAF EDLW 181700Z 1818/1918 18014KT CAVOK"
    },
    {
      "icao": "EDSB",
      "alert": "OK",
      "vis_m": 9999,
      "fzfg": false,
      "metar_trigger": false,
      "taf_trigger": false,
      "metar": "METAR EDSB 182320Z AUTO VRB02KT 9999 // NCD 02/02 Q1020",
      "taf": "TAF EDSB 182300Z 1900/1924 VRB03KT 8000 NSC"
    },
    {
      "icao": "EETN",
      "alert": "OK",
      "vis_m": 9999,
      "fzfg": false,
      "metar_trigger": false,
      "taf_trigger": false,
      "metar": "METAR EETN 182350Z 21011KT 9999 BKN007 OVC015 05/04 Q1017",
      "taf": "TAF EETN 182330Z 1900/1924 20012KT 9999 OVC007"
    },
    {
      "icao": "EFHK",
      "alert": "OK",
      "vis_m": 9999,
      "fzfg": false,
      "metar_trigger": false,
      "taf_trigger": false,
      "metar": "METAR EFHK 182350Z 21014KT 9999 BKN008 OVC014 06/05 Q1014 TEMPO BKN010",
      "taf": "TAF EFHK 182334Z 1900/1924 21015KT 9999 FEW004 BKN007 BKN010"
    },
    {
      "icao": "EFTU",
      "alert": "OK",
      "vis_m": 5000,
      "fzfg": false,
      "metar_trigger": false,
      "taf_trigger": false,
      "metar": "METAR EFTU 182350Z AUTO 23009KT 200V260 5000 -SHRA OVC007 06/05 Q1012",
      "taf": "TAF EFTU 182334Z 1900/1924 23010KT 9999 OVC006"
    },
    {
      "icao": "EGGW",
      "alert": "OK",
      "vis_m": 9999,
      "fzfg": false,
      "metar_trigger": false,
      "taf_trigger": false,
      "metar": "METAR EGGW 182320Z AUTO 22010KT 9999 FEW019 SCT024 BKN028 10/08 Q1005",
      "taf": "TAF EGGW 182255Z 1900/1924 22010KT 9999 FEW020"
    },
    {
      "icao": "EGKK",
      "alert": "OK",
      "vis_m": 9999,
      "fzfg": false,
      "metar_trigger": false,
      "taf_trigger": false,
      "metar": "METAR EGKK 182320Z 22009KT 180V240 9999 -RA FEW015 SCT018 10/10 Q1006",
      "taf": "TAF EGKK 182258Z 1900/2006 24008KT CAVOK"
    },
    {
      "icao": "EHEH",
      "alert": "OK",
      "vis_m": 9999,
      "fzfg": false,
      "metar_trigger": false,
      "taf_trigger": false,
      "metar": "METAR EHEH 182325Z AUTO 20013KT 9999 FEW039 OVC081 14/07 Q1011 BLU",
      "taf": "TAF EHEH 181733Z 1818/1924 18013KT CAVOK"
    },
    {
      "icao": "EKBI",
      "alert": "OK",
      "vis_m": 9999,
      "fzfg": false,
      "metar_trigger": false,
      "taf_trigger": false,
      "metar": "METAR EKBI 182350Z AUTO 17010KT 140V200 9999 OVC066/// 09/07 Q1007",
      "taf": "TAF EKBI 182327Z 1900/1924 18015KT 8000 BKN020"
    },
    {
      "icao": "EKCH",
      "alert": "OK",
      "vis_m": 9999,
      "fzfg": false,
      "metar_trigger": false,
      "taf_trigger": false,
      "metar": "METAR EKCH 182350Z AUTO 17015KT 9999 NCD 07/06 Q1013 NOSIG",
      "taf": "TAF EKCH 182327Z 1900/1924 18012KT 9999 BKN020"
    },
    {
      "icao": "ENTO",
      "alert": "OK",
      "vis_m": 8000,
      "fzfg": false,
      "metar_trigger": false,
      "taf_trigger": false,
      "metar": "METAR ENTO 182320Z AUTO 16011KT 8000 RA VV004 07/07 Q1006 REDZ",
      "taf": "TAF ENTO 182300Z 1900/1924 19012KT 9000 -RA SCT004 BKN007"
    },
    {
      "icao": "EPGD",
      "alert": "OK",
      "vis_m": 4500,
      "fzfg": false,
      "metar_trigger": false,
      "taf_trigger": false,
      "metar": "METAR EPGD 182330Z 20007KT 4500 BR OVC004 04/04 Q1021",
      "taf": "TAF EPGD 182330Z 1900/1924 20006KT 6000 OVC005"
    },
    {
      "icao": "EPKK",
      "alert": "OK",
      "vis_m": 1400,
      "fzfg": false,
      "metar_trigger": false,
      "taf_trigger": false,
      "metar": "METAR EPKK 182330Z 05004KT 1400 0500W R25/P2000N BCFG BR NSC M02/M02 Q1026",
      "taf": "TAF EPKK 182330Z 1900/1924 VRB02KT 1500 BR NSC"
    },
    {
      "icao": "EPKT",
      "alert": "OK",
      "vis_m": 1400,
      "fzfg": false,
      "metar_trigger": false,
      "taf_trigger": false,
      "metar": "METAR EPKT 182330Z 10004KT 1400 R26/P2000N BR NSC M00/M01 Q1025",
      "taf": "TAF EPKT 182330Z 1900/1924 14004KT 1500 BR NSC"
    },
    {
      "icao": "EPWA",
      "alert": "OK",
      "vis_m": 1300,
      "fzfg": false,
      "metar_trigger": false,
      "taf_trigger": false,
      "metar": "METAR EPWA 182330Z 15007KT 1300 1200W R33/1800N BR OVC002 02/02 Q1026 NOSIG",
      "taf": "TAF EPWA 182330Z 1900/1924 16006KT 1500 BR OVC002"
    },
    {
      "icao": "EPWR",
      "alert": "OK",
      "vis_m": 6000,
      "fzfg": false,
      "metar_trigger": false,
      "taf_trigger": false,
      "metar": "METAR EPWR 182330Z 11005KT 6000 NSC 01/00 Q1023",
      "taf": "TAF EPWR 182330Z 1900/1924 12006KT 5000 BR NSC"
    },
    {
      "icao": "ESGG",
      "alert": "OK",
      "vis_m": 3700,
      "fzfg": false,
      "metar_trigger": false,
      "taf_trigger": false,
      "metar": "METAR ESGG 182320Z 17012KT 3700 -RA VV003 06/06 Q1010",
      "taf": "TAF ESGG 182330Z 1900/1924 19009KT 6000 OVC010"
    },
    {
      "icao": "ESKN",
      "alert": "OK",
      "vis_m": 9999,
      "fzfg": false,
      "metar_trigger": false,
      "taf_trigger": false,
      "metar": "METAR ESKN 182320Z 16007KT 9999 BKN013 06/05 Q1013",
      "taf": "TAF ESKN 182330Z 1900/1924 14005KT 9999 BKN014"
    },
    {
      "icao": "ESMX",
      "alert": "OK",
      "vis_m": 7000,
      "fzfg": false,
      "metar_trigger": false,
      "taf_trigger": false,
      "metar": "METAR ESMX 182320Z AUTO 16009KT 7000 OVC006/// 07/07 Q1014",
      "taf": ""
    },
    {
      "icao": "EVRA",
      "alert": "OK",
      "vis_m": 7000,
      "fzfg": false,
      "metar_trigger": false,
      "taf_trigger": false,
      "metar": "METAR EVRA 182350Z 19008KT 7000 OVC003 02/01 Q1022 NOSIG",
      "taf": "TAF EVRA 182301Z 1900/1924 18010KT 5000 BR OVC002"
    },
    {
      "icao": "EYKA",
      "alert": "OK",
      "vis_m": 1600,
      "fzfg": true,
      "metar_trigger": false,
      "taf_trigger": false,
      "metar": "METAR EYKA 182350Z AUTO 18004KT 130V220 1600 BR OVC001/// M00/M00 Q1025",
      "taf": "TAF EYKA 182300Z 1900/1924 18006KT 0600 FZFG VV001"
    },
    {
      "icao": "EYVI",
      "alert": "OK",
      "vis_m": 300,
      "fzfg": true,
      "metar_trigger": false,
      "taf_trigger": false,
      "metar": "METAR EYVI 182350Z 20008KT 0300 R01/1000U -FZDZ FZFG VV001 M01/M02 Q1026 NOSIG",
      "taf": "TAF EYVI 182300Z 1900/1924 19009KT 0350 FZFG VV001"
    },
    {
      "icao": "GCLP",
      "alert": "OK",
      "vis_m": 9999,
      "fzfg": false,
      "metar_trigger": false,
      "taf_trigger": false,
      "metar": "METAR GCLP 182330Z 36009KT 9999 -RA SCT018 BKN030 18/16 Q1023 NOSIG",
      "taf": "TAF GCLP 182000Z 1821/1921 02017KT 9999 SCT025 TX21/1914Z TN17/1906Z"
    },
    {
      "icao": "GCTS",
      "alert": "OK",
      "vis_m": 9999,
      "fzfg": false,
      "metar_trigger": false,
      "taf_trigger": false,
      "metar": "METAR GCTS 182330Z 06008KT 9999 BKN030 19/14 Q1023 NOSIG",
      "taf": "TAF GCTS 182000Z 1821/1921 02005KT 9999 SCT035 TX23/1914Z TN16/1906Z"
    },
    {
      "icao": "HECA",
      "alert": "OK",
      "vis_m": 9999,
      "fzfg": false,
      "metar_trigger": false,
      "taf_trigger": false,
      "metar": "METAR HECA 182330Z 05005KT 010V070 CAVOK 12/04 Q1027 NOSIG",
      "taf": "TAF HECA 182300Z 1900/2006 07007KT CAVOK"
    },
    {
      "icao": "HEGN",
      "alert": "OK",
      "vis_m": 9999,
      "fzfg": false,
      "metar_trigger": false,
      "taf_trigger": false,
      "metar": "METAR HEGN 182300Z 28008KT CAVOK 14/04 Q1025 NOSIG",
      "taf": "TAF HEGN 182300Z 1900/2006 28008KT CAVOK"
    },
    {
      "icao": "HESH",
      "alert": "OK",
      "vis_m": 9999,
      "fzfg": false,
      "metar_trigger": false,
      "taf_trigger": false,
      "metar": "METAR HESH 182300Z 35006KT CAVOK 16/02 Q1026 NOSIG",
      "taf": "TAF HESH 182300Z 1900/2006 33010KT CAVOK"
    },
    {
      "icao": "HESX",
      "alert": "OK",
      "vis_m": 9999,
      "fzfg": false,
      "metar_trigger": false,
      "taf_trigger": false,
      "metar": "METAR HESX 182300Z 02005KT CAVOK 10/06 Q1028 NOSIG",
      "taf": "TAF HESX 182300Z 1900/2006 05006KT CAVOK"
    },
    {
      "icao": "LATI",
      "alert": "OK",
      "vis_m": 5000,
      "fzfg": false,
      "metar_trigger": false,
      "taf_trigger": false,
      "metar": "METAR LATI 182350Z 17004KT 5000 BKN070 08/06 Q1030 NOSIG",
      "taf": "TAF LATI 182300Z 1900/1924 VRB05KT 2000 BCFG NSC TX17/1912Z TN04/1905Z"
    },
    {
      "icao": "LBSF",
      "alert": "OK",
      "vis_m": 3900,
      "fzfg": true,
      "metar_trigger": false,
      "taf_trigger": false,
      "metar": "METAR LBSF 182330Z AUTO VRB02KT 3900 BR NCD M02/M02 Q1030 TEMPO 0800 FZFG",
      "taf": "TAF LBSF 182300Z 1900/1924 VRB03KT 1500 BR NSC"
    },
    {
      "icao": "LBWN",
      "alert": "OK",
      "vis_m": 9999,
      "fzfg": false,
      "metar_trigger": false,
      "taf_trigger": false,
      "metar": "METAR LBWN 182330Z AUTO 27002KT 9999 NCD 05/01 Q1028 NOSIG",
      "taf": "TAF LBWN 182300Z 1900/1924 VRB04KT CAVOK"
    },
    {
      "icao": "LCLK",
      "alert": "OK",
      "vis_m": 9999,
      "fzfg": false,
      "metar_trigger": false,
      "taf_trigger": false,
      "metar": "METAR LCLK 182330Z 31005KT CAVOK 13/10 Q1026 NOSIG",
      "taf": "TAF LCLK 182330Z 1900/2000 31007KT CAVOK"
    },
    {
      "icao": "LDDU",
      "alert": "OK",
      "vis_m": 9999,
      "fzfg": false,
      "metar_trigger": false,
      "taf_trigger": false,
      "metar": "METAR LDDU 182330Z 10003KT 9999 BKN032 10/09 Q1029",
      "taf": "TAF LDDU 182325Z 1900/1924 08005KT 9999 SCT030 TX16/1911Z TN11/1905Z"
    },
    {
      "icao": "LDSP",
      "alert": "OK",
      "vis_m": 9999,
      "fzfg": false,
      "metar_trigger": false,
      "taf_trigger": false,
      "metar": "METAR LDSP 182330Z AUTO 36003KT 330V050 9999 BKN024/// BKN027/// BKN034/// 12/11 Q1029",
      "taf": "TAF LDSP 182325Z 1900/1924 VRB02KT 9999 SCT025 TX16/1912Z TN10/1905Z"
    },
    {
      "icao": "LDZA",
      "alert": "CRITICAL",
      "vis_m": 100,
      "fzfg": true,
      "metar_trigger": true,
      "taf_trigger": false,
      "metar": "METAR LDZA 182330Z VRB02KT 0100 R04/0350N R22/0275N FZFG VV001 M01/M01 Q1027 NOSIG",
      "taf": "TAF LDZA 182325Z 1900/1924 VRB02KT 0200 FG VV001 TX08/1914Z TNM01/1900Z"
    },
    {
      "icao": "LEAL",
      "alert": "OK",
      "vis_m": 9999,
      "fzfg": false,
      "metar_trigger": false,
      "taf_trigger": false,
      "metar": "METAR LEAL 182330Z 30007KT CAVOK 13/11 Q1022 NOSIG",
      "taf": "TAF LEAL 182300Z 1900/1924 32006KT 9999 SCT020 TX17/1912Z TN08/1906Z"
    },
    {
      "icao": "LEBL",
      "alert": "OK",
      "vis_m": 7000,
      "fzfg": false,
      "metar_trigger": false,
      "taf_trigger": false,
      "metar": "METAR LEBL 182330Z 33009KT 7000 NSC 10/09 Q1023 NOSIG",
      "taf": "TAF LEBL 182300Z 1900/1924 34009KT 9999 FEW020 TX16/1912Z TN07/1906Z"
    },
    {
      "icao": "LECH",
      "alert": "OK",
      "vis_m": 300,
      "fzfg": false,
      "metar_trigger": false,
      "taf_trigger": false,
      "metar": "METAR LECH 182330Z AUTO 20005KT 0300 R06/0275N FG VV006 09/09 Q1023",
      "taf": ""
    },
    {
      "icao": "LEMD",
      "alert": "OK",
      "vis_m": 9999,
      "fzfg": false,
      "metar_trigger": false,
      "taf_trigger": false,
      "metar": "METAR LEMD 182330Z 16003KT 9999 FEW052 09/07 Q1021 NOSIG",
      "taf": "TAF LEMD 182300Z 1900/2006 VRB04KT 9999 FEW025 TX11/1915Z TN06/1907Z"
    },
    {
      "icao": "LEMG",
      "alert": "OK",
      "vis_m": 9999,
      "fzfg": false,
      "metar_trigger": false,
      "taf_trigger": false,
      "metar": "METAR LEMG 182330Z 30005KT 9999 FEW048 10/09 Q1023 NOSIG",
      "taf": "TAF LEMG 182300Z 1900/1924 29010KT 9999 FEW030 TX17/1914Z TN09/1906Z"
    },
    {
      "icao": "LERS",
      "alert": "OK",
      "vis_m": 9999,
      "fzfg": false,
      "metar_trigger": false,
      "taf_trigger": false,
      "metar": "METAR LERS 182330Z AUTO 36007KT CAVOK 09/09 Q1023",
      "taf": ""
    },
    {
      "icao": "LEVC",
      "alert": "OK",
      "vis_m": 9999,
      "fzfg": false,
      "metar_trigger": false,
      "taf_trigger": false,
      "metar": "METAR LEVC 182330Z 29004KT CAVOK 08/08 Q1023 NOSIG",
      "taf": "TAF LEVC 182300Z 1900/1924 28004KT 9999 SCT020 TX16/1912Z TN06/1906Z"
    },
    {
      "icao": "LFLL",
      "alert": "OK",
      "vis_m": 9999,
      "fzfg": false,
      "metar_trigger": false,
      "taf_trigger": false,
      "metar": "METAR LFLL 182330Z 18007KT 9999 FEW049 BKN150 13/06 Q1022 NOSIG",
      "taf": "TAF LFLL 182300Z 1900/2006 15008KT 9999 FEW050"
    },
    {
      "icao": "LFMN",
      "alert": "OK",
      "vis_m": 9999,
      "fzfg": false,
      "metar_trigger": false,
      "taf_trigger": false,
      "metar": "METAR LFMN 182330Z 34010KT 9999 SCT060 11/06 Q1026 NOSIG",
      "taf": "TAF LFMN 182000Z 1821/2003 34010KT 9999 FEW023 SCT050"
    },
    {
      "icao": "LFOB",
      "alert": "OK",
      "vis_m": 9999,
      "fzfg": false,
      "metar_trigger": false,
      "taf_trigger": false,
      "metar": "METAR LFOB 182330Z AUTO 20012KT 9999 -DZ OVC024/// ///TCU 12/10 Q1011 TEMPO 4000 -RA BKN008 OVC014 BECMG 18015G25KT",
      "taf": "TAF LFOB 182300Z 1900/1924 18015G25KT 9999 BKN020 OVC040"
    },
    {
      "icao": "LFPO",
      "alert": "OK",
      "vis_m": 9999,
      "fzfg": false,
      "metar_trigger": false,
      "taf_trigger": false,
      "metar": "METAR LFPO 182330Z AUTO 19011KT 9999 -RA SCT030 BKN039 OVC050 13/08 Q1013 TEMPO 4000 RA BKN008",
      "taf": "TAF LFPO 182300Z 1900/2006 20010KT 9999 -RA BKN040"
    },
    {
      "icao": "LFSB",
      "alert": "OK",
      "vis_m": 9999,
      "fzfg": false,
      "metar_trigger": false,
      "taf_trigger": false,
      "metar": "METAR LFSB 182330Z AUTO 18007KT CAVOK 03/02 Q1021 NOSIG",
      "taf": "TAF LFSB 182300Z 1900/1924 17005KT CAVOK"
    },
    {
      "icao": "LGAV",
      "alert": "OK",
      "vis_m": 9999,
      "fzfg": false,
      "metar_trigger": false,
      "taf_trigger": false,
      "metar": "METAR LGAV 182320Z VRB02KT 9999 FEW018 05/04 Q1029 NOSIG",
      "taf": "TAF LGAV 182300Z 1900/1924 VRB05KT 9999 FEW018"
    },
    {
      "icao": "LGIR",
      "alert": "OK",
      "vis_m": 9999,
      "fzfg": false,
      "metar_trigger": false,
      "taf_trigger": false,
      "metar": "METAR LGIR 182320Z 17008KT 9999 FEW018 10/09 Q1029 NOSIG",
      "taf": "TAF LGIR 182300Z 1900/1924 VRB03KT 9999 SCT020"
    },
    {
      "icao": "LGKR",
      "alert": "OK",
      "vis_m": 7000,
      "fzfg": false,
      "metar_trigger": false,
      "taf_trigger": false,
      "metar": "METAR LGKR 182320Z 00000KT 7000 SCT010 SCT020 13/12 Q1029 NOSIG",
      "taf": "TAF LGKR 182300Z 1900/1924 VRB03KT 9000 FEW010 SCT020"
    },
    {
      "icao": "LGRP",
      "alert": "OK",
      "vis_m": 9999,
      "fzfg": false,
      "metar_trigger": false,
      "taf_trigger": false,
      "metar": "METAR LGRP 182320Z 21004KT 9999 FEW020 14/10 Q1026 NOSIG",
      "taf": "TAF LGRP 182300Z 1900/1924 25010KT 9999 FEW018"
    },
    {
      "icao": "LGTS",
      "alert": "OK",
      "vis_m": 7000,
      "fzfg": false,
      "metar_trigger": false,
      "taf_trigger": false,
      "metar": "METAR LGTS 182320Z VRB03KT 7000 FEW006 04/04 Q1030 NOSIG",
      "taf": "TAF LGTS 182300Z 1900/1924 VRB03KT 9999 FEW025"
    },
    {
      "icao": "LGZA",
      "alert": "OK",
      "vis_m": null,
      "fzfg": false,
      "metar_trigger": false,
      "taf_trigger": false,
      "metar": "",
      "taf": "TAF LGZA 182300Z 1900/1909 VRB03KT 9999 SCT020"
    },
    {
      "icao": "LHBP",
      "alert": "OK",
      "vis_m": 4800,
      "fzfg": false,
      "metar_trigger": false,
      "taf_trigger": false,
      "metar": "METAR LHBP 182330Z 10005KT 4800 BR BKN005 BKN026 06/05 Q1029 TEMPO OVC004",
      "taf": "TAF LHBP 182315Z 1900/1924 09006KT 5000 BR SCT006 OVC020"
    },
    {
      "icao": "LHDC",
      "alert": "OK",
      "vis_m": 3700,
      "fzfg": false,
      "metar_trigger": false,
      "taf_trigger": false,
      "metar": "METAR LHDC 182315Z AUTO 07005KT 3700 BR FEW027 BKN036 04/03 Q1030",
      "taf": "TAF LHDC 181415Z 1815/1824 20005KT 7000 BKN016"
    },
    {
      "icao": "LIBD",
      "alert": "OK",
      "vis_m": 200,
      "fzfg": false,
      "metar_trigger": false,
      "taf_trigger": false,
      "metar": "METAR LIBD 182320Z 28003KT 250V330 0200 0100 R07/0700U FG VV002 10/10 Q1029",
      "taf": "TAF LIBD 182300Z 1900/1924 VRB04KT 0100 FG OVC001"
    },
    {
      "icao": "LICC",
      "alert": "OK",
      "vis_m": 2000,
      "fzfg": false,
      "metar_trigger": false,
      "taf_trigger": false,
      "metar": "METAR LICC 182320Z 24002KT 2000 R08/0400N MIFG FEW010 12/11 Q1028",
      "taf": ""
    },
    {
      "icao": "LICJ",
      "alert": "OK",
      "vis_m": 9999,
      "fzfg": false,
      "metar_trigger": false,
      "taf_trigger": false,
      "metar": "METAR LICJ 182320Z 13002KT CAVOK 12/10 Q1027",
      "taf": "TAF LICJ 182300Z 1900/1924 18005KT 9999 FEW020"
    },
    {
      "icao": "LIEO",
      "alert": "OK",
      "vis_m": 9999,
      "fzfg": false,
      "metar_trigger": false,
      "taf_trigger": false,
      "metar": "METAR LIEO 182320Z AUTO VRB02KT 9999 BKN100/// BKN150/// 12/12 Q1025",
      "taf": "TAF LIEO 182300Z 1900/1924 VRB06KT 7000 SCT010 SCT040"
    },
    {
      "icao": "LIMC",
      "alert": "OK",
      "vis_m": 3000,
      "fzfg": false,
      "metar_trigger": false,
      "taf_trigger": false,
      "metar": "METAR LIMC 182320Z VRB02KT 3000 R35R/1600D R17L/1000U R35L/1600U BR BCFG BKN060 08/08 Q1029 NOSIG",
      "taf": "TAF LIMC 182300Z 1900/2006 VRB03KT 2000 BR BKN030"
    },
    {
      "icao": "LIME",
      "alert": "OK",
      "vis_m": 2000,
      "fzfg": false,
      "metar_trigger": false,
      "taf_trigger": false,
      "metar": "METAR LIME 182320Z 21003KT 2000 BR SCT002 BKN005 09/09 Q1029 NOSIG",
      "taf": "TAF LIME 182300Z 1900/1924 VRB03KT 3000 BR BKN006"
    },
    {
      "icao": "LIPH",
      "alert": "OK",
      "vis_m": 150,
      "fzfg": false,
      "metar_trigger": false,
      "taf_trigger": false,
      "metar": "METAR LIPH 182320Z AUTO 07002KT 0150 0100W R07/0500N FG VV002 07/07 Q1029",
      "taf": "TAF LIPH 182300Z 1900/1924 VRB04KT 0100 FG OVC001"
    },
    {
      "icao": "LIPQ",
      "alert": "OK",
      "vis_m": 250,
      "fzfg": false,
      "metar_trigger": false,
      "taf_trigger": false,
      "metar": "METAR LIPQ 182320Z AUTO 35002KT 0250 R09/0700D FG VV002 09/09 Q1029",
      "taf": "TAF LIPQ 182300Z 1900/1924 VRB04KT 0500 FG OVC002"
    },
    {
      "icao": "LIPX",
      "alert": "OK",
      "vis_m": 500,
      "fzfg": false,
      "metar_trigger": false,
      "taf_trigger": false,
      "metar": "METAR LIPX 182320Z VRB02KT 0500 R04/1000D BCFG BKN002 09/09 Q1029",
      "taf": "TAF LIPX 182300Z 1900/1924 VRB03KT 1000 BR OVC002"
    },
    {
      "icao": "LIPY",
      "alert": "OK",
      "vis_m": 5000,
      "fzfg": false,
      "metar_trigger": false,
      "taf_trigger": false,
      "metar": "METAR LIPY 182320Z AUTO 19004KT 5000 BR OVC004/// 10/10 Q1029",
      "taf": "TAF LIPY 182300Z 1900/1924 VRB05KT 3000 BR OVC004"
    },
    {
      "icao": "LIPZ",
      "alert": "OK",
      "vis_m": 2000,
      "fzfg": false,
      "metar_trigger": false,
      "taf_trigger": false,
      "metar": "METAR LIPZ 182320Z 21002KT 2000 0400N BR BKN020 09/09 Q1029 BECMG 0400 FG OVC005",
      "taf": "TAF LIPZ 182300Z 1900/2006 VRB04KT 0200 FG OVC001"
    },
    {
      "icao": "LIRA",
      "alert": "OK",
      "vis_m": 9999,
      "fzfg": false,
      "metar_trigger": false,
      "taf_trigger": false,
      "metar": "METAR LIRA 182320Z 01002KT CAVOK 10/09 Q1028",
      "taf": "TAF LIRA 182300Z 1900/1924 VRB06KT 9999 FEW030"
    },
    {
      "icao": "LIRN",
      "alert": "OK",
      "vis_m": 9999,
      "fzfg": false,
      "metar_trigger": false,
      "taf_trigger": false,
      "metar": "METAR LIRN 182320Z 32003KT CAVOK 09/06 Q1028 NOSIG",
      "taf": "TAF LIRN 182300Z 1900/1924 VRB05KT 9999 SCT030"
    },
    {
      "icao": "LLBG",
      "alert": "OK",
      "vis_m": 9999,
      "fzfg": false,
      "metar_trigger": false,
      "taf_trigger": false,
      "metar": "METAR LLBG 182350Z VRB01KT 9999 SCT045 12/09 Q1027 NOSIG",
      "taf": "TAF LLBG 182309Z 1900/1924 VRB03KT 9999 SCT045"
    },
    {
      "icao": "LMML",
      "alert": "OK",
      "vis_m": 9999,
      "fzfg": false,
      "metar_trigger": false,
      "taf_trigger": false,
      "metar": "METAR LMML 182345Z 07009KT 9999 BKN012 16/15 Q1025 NOSIG",
      "taf": "TAF LMML 182300Z 1900/1924 11012KT 9999 FEW015"
    },
    {
      "icao": "LOWW",
      "alert": "OK",
      "vis_m": 2100,
      "fzfg": false,
      "metar_trigger": false,
      "taf_trigger": false,
      "metar": "METAR LOWW 182320Z 12005KT 2100 -DZ BR BKN001 04/03 Q1026 TEMPO 1200 BR VV002",
      "taf": "TAF LOWW 182315Z 1900/2006 13004KT 3000 -DZ BR OVC005 TX04/1913Z TN02/2006Z"
    },
    {
      "icao": "LPFR",
      "alert": "OK",
      "vis_m": 9999,
      "fzfg": false,
      "metar_trigger": false,
      "taf_trigger": false,
      "metar": "METAR LPFR 182330Z 17009KT 9999 FEW020 15/12 Q1021",
      "taf": "TAF LPFR 182300Z 1900/1924 19007KT 9999 SCT018 SCT035"
    },
    {
      "icao": "LPPR",
      "alert": "OK",
      "vis_m": 6000,
      "fzfg": false,
      "metar_trigger": false,
      "taf_trigger": false,
      "metar": "METAR LPPR 182330Z 27003KT 210V310 6000 RA SCT004 BKN006 BKN030 13/12 Q1019",
      "taf": "TAF LPPR 182300Z 1900/1924 VRB02KT 8000 -RA SCT004 BKN025"
    },
    {
      "icao": "LPPT",
      "alert": "OK",
      "vis_m": 6000,
      "fzfg": false,
      "metar_trigger": false,
      "taf_trigger": false,
      "metar": "METAR LPPT 182330Z 17012KT 6000 -RA BKN006 14/13 Q1019",
      "taf": "TAF LPPT 182300Z 1900/2006 18012KT 6000 -RA SCT006 BKN015"
    },
    {
      "icao": "LQSA",
      "alert": "OK",
      "vis_m": 150,
      "fzfg": true,
      "metar_trigger": false,
      "taf_trigger": false,
      "metar": "METAR LQSA 182330Z 14002KT 0150 R11/0225N FZFG VV002 M00/M00 Q1030",
      "taf": "TAF LQSA 182300Z 1900/1924 VRB02KT 0400 FZFG OVC003 TX10/1913Z TNM02/1905Z"
    },
    {
      "icao": "LQTZ",
      "alert": "OK",
      "vis_m": 400,
      "fzfg": false,
      "metar_trigger": false,
      "taf_trigger": false,
      "metar": "METAR LQTZ 182330Z 00000KT 0400 R09/0450N FG BKN001 01/01 Q1029",
      "taf": "TAF LQTZ 182300Z 1900/1924 VRB02KT 3000 BR NSC TX12/1913Z TNM00/1906Z"
    },
    {
      "icao": "LRCL",
      "alert": "OK",
      "vis_m": 4000,
      "fzfg": false,
      "metar_trigger": false,
      "taf_trigger": false,
      "metar": "METAR LRCL 182330Z 31002KT 4000 BR BKN039 OVC065 02/01 Q1031",
      "taf": "TAF LRCL 182300Z 1900/1909 VRB04KT 3000 BR NSC"
    },
    {
      "icao": "LRCV",
      "alert": "OK",
      "vis_m": 3000,
      "fzfg": false,
      "metar_trigger": false,
      "taf_trigger": false,
      "metar": "METAR LRCV 182330Z 36001KT 3000 BR NSC 00/00 Q1029",
      "taf": "TAF LRCV 182300Z 1900/1909 VRB04KT 3000 BR NSC"
    },
    {
      "icao": "LRIA",
      "alert": "OK",
      "vis_m": 8000,
      "fzfg": false,
      "metar_trigger": false,
      "taf_trigger": false,
      "metar": "METAR LRIA 182330Z 25003KT 8000 NSC 03/02 Q1028",
      "taf": "TAF LRIA 182300Z 1900/1909 VRB04KT CAVOK"
    },
    {
      "icao": "LROP",
      "alert": "OK",
      "vis_m": 3000,
      "fzfg": false,
      "metar_trigger": false,
      "taf_trigger": false,
      "metar": "METAR LROP 182330Z 25003KT 3000 BR NSC 01/01 Q1028 BECMG 1500 BR",
      "taf": "TAF LROP 182300Z 1900/1924 VRB04KT 3000 BR NSC"
    },
    {
      "icao": "LRSB",
      "alert": "OK",
      "vis_m": 6000,
      "fzfg": false,
      "metar_trigger": false,
      "taf_trigger": false,
      "metar": "METAR LRSB 182330Z VRB01KT 6000 BKN055 01/00 Q1030",
      "taf": "TAF LRSB 182300Z 1900/1924 VRB04KT 5000 BR NSC"
    },
    {
      "icao": "LRTR",
      "alert": "OK",
      "vis_m": 8000,
      "fzfg": false,
      "metar_trigger": false,
      "taf_trigger": false,
      "metar": "METAR LRTR 182330Z 09006KT 8000 NSC 07/05 Q1029 NOSIG",
      "taf": "TAF LRTR 182300Z 1900/1924 11006KT CAVOK"
    },
    {
      "icao": "LTAF",
      "alert": "OK",
      "vis_m": 2600,
      "fzfg": false,
      "metar_trigger": false,
      "taf_trigger": false,
      "metar": "METAR LTAF 182320Z 03003KT 2600 BR NSC 05/04 Q1026 BECMG TL0020 9999 NSW RMK RWY23 07004KT SKC",
      "taf": "TAF LTAF 182240Z 1900/1924 VRB02KT CAVOK"
    },
    {
      "icao": "LTAI",
      "alert": "OK",
      "vis_m": 9999,
      "fzfg": false,
      "metar_trigger": false,
      "taf_trigger": false,
      "metar": "METAR LTAI 182320Z 35009KT CAVOK 05/00 Q1027 NOSIG RMK RWY18C 35005KT RWY36R 35006KT RWY18L 03004KT",
      "taf": "TAF LTAI 182240Z 1900/1924 34006KT CAVOK"
    },
    {
      "icao": "LTFM",
      "alert": "OK",
      "vis_m": 6000,
      "fzfg": false,
      "metar_trigger": false,
      "taf_trigger": false,
      "metar": "METAR LTFM 182320Z 19008KT 6000 2800N BR NSC 07/06 Q1029 NOSIG RMK RWY17L 20008KT 160V230 RWY34L 17005KT RWY16R 20005KT RWY36 18007KT 160V220 RWY18 21010G22KT 180V250",
      "taf": "TAF LTFM 182240Z 1900/2006 23005KT 6000 NSC"
    },
    {
      "icao": "LUBL",
      "alert": "OK",
      "vis_m": null,
      "fzfg": false,
      "metar_trigger": false,
      "taf_trigger": false,
      "metar": "",
      "taf": ""
    },
    {
      "icao": "LUKK",
      "alert": "OK",
      "vis_m": 5000,
      "fzfg": false,
      "metar_trigger": false,
      "taf_trigger": false,
      "metar": "METAR LUKK 182330Z VRB02KT 5000 BR NSC 03/02 Q1028 TEMPO 3000 BR",
      "taf": "TAF LUKK 182313Z 1900/1924 VRB05KT 5000 BR NSC"
    },
    {
      "icao": "LWSK",
      "alert": "OK",
      "vis_m": 3500,
      "fzfg": false,
      "metar_trigger": false,
      "taf_trigger": false,
      "metar": "METAR LWSK 182350Z 08001KT 3500 BR NSC M01/M02 Q1032 NOSIG",
      "taf": "TAF LWSK 182320Z 1900/1924 VRB02KT 3000 BR NSC"
    },
    {
      "icao": "LYBE",
      "alert": "OK",
      "vis_m": 5000,
      "fzfg": false,
      "metar_trigger": false,
      "taf_trigger": false,
      "metar": "METAR LYBE 182330Z 14003KT 5000 BR NSC 07/05 Q1028 NOSIG",
      "taf": "TAF LYBE 182300Z 1900/1924 10004KT 5000 BR NSC TX10/1912Z TN01/1906Z"
    },
    {
      "icao": "LZIB",
      "alert": "OK",
      "vis_m": 700,
      "fzfg": false,
      "metar_trigger": false,
      "taf_trigger": false,
      "metar": "METAR LZIB 182330Z 02005KT 0700 R31/0900N R22/P2000N -DZ FG VV002 04/04 Q1027 NOSIG",
      "taf": ""
    },
    {
      "icao": "LZKZ",
      "alert": "OK",
      "vis_m": 3600,
      "fzfg": false,
      "metar_trigger": false,
      "taf_trigger": false,
      "metar": "METAR LZKZ 182330Z 18002KT 3600 BR OVC008 04/04 Q1030 NOSIG",
      "taf": "TAF LZKZ 182315Z 1900/2000 VRB02KT 4000 BR OVC011"
    },
    {
      "icao": "LZTT",
      "alert": "OK",
      "vis_m": 250,
      "fzfg": true,
      "metar_trigger": false,
      "taf_trigger": false,
      "metar": "METAR LZTT 182330Z VRB02KT 0250 R27/0700N FZFG OVC002 M01/M01 Q1027",
      "taf": "TAF LZTT 182315Z 1900/2000 VRB02KT 1200 BR BCFG BKN003"
    },
    {
      "icao": "OEJN",
      "alert": "OK",
      "vis_m": 9999,
      "fzfg": false,
      "metar_trigger": false,
      "taf_trigger": false,
      "metar": "METAR OEJN 182300Z 04014KT CAVOK 20/M02 Q1018 NOSIG",
      "taf": "TAF OEJN 182300Z 1900/2006 06015KT 7000 NSC"
    },
    {
      "icao": "OEMA",
      "alert": "OK",
      "vis_m": 9999,
      "fzfg": false,
      "metar_trigger": false,
      "taf_trigger": false,
      "metar": "METAR OEMA 182300Z 36003KT CAVOK 10/02 Q1025 NOSIG",
      "taf": "TAF OEMA 182300Z 1900/2006 08006KT CAVOK"
    },
    {
      "icao": "OERK",
      "alert": "OK",
      "vis_m": 9999,
      "fzfg": false,
      "metar_trigger": false,
      "taf_trigger": false,
      "metar": "METAR OERK 182300Z 26007KT CAVOK 07/03 Q1019 NOSIG",
      "taf": "TAF OERK 182300Z 1900/2006 32010KT 8000 SCT030"
    },
    {
      "icao": "OJAI",
      "alert": "OK",
      "vis_m": 1500,
      "fzfg": false,
      "metar_trigger": false,
      "taf_trigger": false,
      "metar": "METAR OJAI 182300Z 06003KT 1500 BR NSC 04/04 Q1028 NOSIG",
      "taf": ""
    },
    {
      "icao": "OKBK",
      "alert": "OK",
      "vis_m": null,
      "fzfg": false,
      "metar_trigger": false,
      "taf_trigger": false,
      "metar": "",
      "taf": ""
    },
    {
      "icao": "OMAA",
      "alert": "OK",
      "vis_m": 7000,
      "fzfg": false,
      "metar_trigger": false,
      "taf_trigger": false,
      "metar": "SPECI OMAA 182345Z 28019G29KT 7000 -RA FEW009 SCT030 20/18 Q1012 RERA WS ALL RWY TEMPO 4000 SHRA FEW035TCU RMK DIST CB TO SE",
      "taf": "TAF OMAA 182300Z 1900/2006 21008KT 7000 FEW030"
    },
    {
      "icao": "UAAA",
      "alert": "OK",
      "vis_m": 2200,
      "fzfg": false,
      "metar_trigger": false,
      "taf_trigger": false,
      "metar": "METAR UAAA 182330Z VRB01MPS 2200 -SN BR OVC028 M03/M04 Q1032 NOSIG",
      "taf": "TAF UAAA 182301Z 1900/1924 34002MPS 3100 -SN BR SCT011 OVC030 TXM03/1908Z TNM04/1902Z"
    },
    {
      "icao": "UCFM",
      "alert": "OK",
      "vis_m": 3000,
      "fzfg": false,
      "metar_trigger": false,
      "taf_trigger": false,
      "metar": "METAR UCFM 182330Z 11003MPS 3000 BR SCT010 M01/M02 Q1032 NOSIG",
      "taf": "TAF UCFM 182302Z 1900/1924 10003MPS 3100 BR SCT010 BKN040CB"
    },
    {
      "icao": "UDYZ",
      "alert": "OK",
      "vis_m": 3400,
      "fzfg": false,
      "metar_trigger": false,
      "taf_trigger": false,
      "metar": "METAR UDYZ 182330Z 00000KT 3400 BR NSC M04/M06 Q1031 NOSIG",
      "taf": "TAF UDYZ 182300Z 1900/1924 VRB04KT 3500 BR NSC"
    },
    {
      "icao": "UGTB",
      "alert": "OK",
      "vis_m": 9999,
      "fzfg": false,
      "metar_trigger": false,
      "taf_trigger": false,
      "metar": "METAR UGTB 182330Z 34005KT CAVOK M01/M02 Q1031 NOSIG",
      "taf": "TAF UGTB 182300Z 1900/1924 30010KT 8000 NSC TX09/1911Z TN00/1903Z"
    },
    {
      "icao": "UKKK",
      "alert": "OK",
      "vis_m": null,
      "fzfg": false,
      "metar_trigger": false,
      "taf_trigger": false,
      "metar": "",
      "taf": ""
    },
    {
      "icao": "UTTT",
      "alert": "OK",
      "vis_m": null,
      "fzfg": false,
      "metar_trigger": false,
      "taf_trigger": false,
      "metar": "",
      "taf": ""
    }
  ]
}