{
  "ts_utc": "2026-05-06T06:39:56Z",
  "threshold_m": 150,
  "source": "stations_override.txt (ICAO list) + aviationweather.gov (METAR/TAF raw)",
  "station_count": 159,
  "stations": [
    {
      "icao": "BIKF",
      "alert": "OK",
      "vis_m": 9999,
      "fzfg": false,
      "metar_trigger": false,
      "taf_trigger": false,
      "metar": "METAR BIKF 060630Z 03019KT 9999 FEW024 01/M05 Q1023",
      "taf": "TAF BIKF 060436Z 0606/0706 03018G30KT 9999 FEW020 TX06/0615Z TNM01/0705Z"
    },
    {
      "icao": "BKPR",
      "alert": "OK",
      "vis_m": 9999,
      "fzfg": false,
      "metar_trigger": false,
      "taf_trigger": false,
      "metar": "METAR BKPR 060630Z VRB02KT CAVOK 14/04 Q1017 NOSIG",
      "taf": "TAF BKPR 060530Z 0606/0706 20008KT 9999 SCT060"
    },
    {
      "icao": "EBCI",
      "alert": "OK",
      "vis_m": 3000,
      "fzfg": false,
      "metar_trigger": false,
      "taf_trigger": false,
      "metar": "METAR EBCI 060620Z 35007KT 320V020 3000 -RADZ BKN003 08/07 Q1007 TEMPO 2500 -DZRA",
      "taf": "TAF EBCI 060510Z 0606/0712 01007KT 4000 -RADZ BKN007"
    },
    {
      "icao": "EDDB",
      "alert": "OK",
      "vis_m": 2700,
      "fzfg": false,
      "metar_trigger": false,
      "taf_trigger": false,
      "metar": "METAR EDDB 060620Z AUTO 06009KT 2700 -RADZ BR BKN006 OVC011 11/11 Q1004 TEMPO 2500 DZ BKN004",
      "taf": "TAF EDDB 060500Z 0606/0706 03007KT 7000 OVC008"
    },
    {
      "icao": "EDDH",
      "alert": "OK",
      "vis_m": 9999,
      "fzfg": false,
      "metar_trigger": false,
      "taf_trigger": false,
      "metar": "METAR EDDH 060620Z AUTO 03008KT 360V060 CAVOK 09/03 Q1008 NOSIG",
      "taf": "TAF EDDH 060500Z 0606/0712 03007KT 9999 SCT040"
    },
    {
      "icao": "EDDK",
      "alert": "OK",
      "vis_m": 2400,
      "fzfg": false,
      "metar_trigger": false,
      "taf_trigger": false,
      "metar": "METAR EDDK 060620Z AUTO 31004KT 2400 -SHRA BR OVC003 FEW///TCU 11/11 Q1005 BECMG 5000 SCT003 BKN005",
      "taf": ""
    },
    {
      "icao": "EDDN",
      "alert": "OK",
      "vis_m": 9999,
      "fzfg": false,
      "metar_trigger": false,
      "taf_trigger": false,
      "metar": "METAR EDDN 060620Z AUTO 12005KT 9999 FEW025 13/10 Q1006 BECMG 23005KT",
      "taf": "TAF EDDN 060500Z 0606/0706 23005KT 9999 SCT025"
    },
    {
      "icao": "EDDS",
      "alert": "OK",
      "vis_m": 9999,
      "fzfg": false,
      "metar_trigger": false,
      "taf_trigger": false,
      "metar": "METAR EDDS 060620Z AUTO VRB02KT CAVOK 12/08 Q1006 NOSIG",
      "taf": "TAF EDDS 060500Z 0606/0706 VRB03KT CAVOK"
    },
    {
      "icao": "EDFH",
      "alert": "OK",
      "vis_m": 9999,
      "fzfg": false,
      "metar_trigger": false,
      "taf_trigger": false,
      "metar": "METAR EDFH 060620Z 22007KT 180V250 9999 FEW011 BKN017 11/09 Q1005",
      "taf": "TAF EDFH 060500Z 0606/0706 27006KT 9999 SCT006 BKN015"
    },
    {
      "icao": "EDJA",
      "alert": "OK",
      "vis_m": 9999,
      "fzfg": false,
      "metar_trigger": false,
      "taf_trigger": false,
      "metar": "METAR EDJA 060620Z VRB01KT CAVOK 11/08 Q1007",
      "taf": "TAF EDJA 060500Z 0606/0615 VRB03KT CAVOK"
    },
    {
      "icao": "EDLW",
      "alert": "OK",
      "vis_m": 5000,
      "fzfg": false,
      "metar_trigger": false,
      "taf_trigger": false,
      "metar": "METAR EDLW 060620Z 36005KT 5000 -RA BR OVC004 09/09 Q1005",
      "taf": "TAF EDLW 060500Z 0606/0706 36005KT 8000 SCT003 BKN005"
    },
    {
      "icao": "EDNY",
      "alert": "OK",
      "vis_m": 9999,
      "fzfg": false,
      "metar_trigger": false,
      "taf_trigger": false,
      "metar": "METAR EDNY 060620Z VRB01KT CAVOK 11/10 Q1007",
      "taf": "TAF EDNY 060500Z 0606/0615 VRB03KT CAVOK"
    },
    {
      "icao": "EDSB",
      "alert": "OK",
      "vis_m": 9999,
      "fzfg": false,
      "metar_trigger": false,
      "taf_trigger": false,
      "metar": "METAR EDSB 060620Z 21006KT CAVOK 13/11 Q1006",
      "taf": "TAF EDSB 060500Z 0606/0706 20007KT 9999 SCT035"
    },
    {
      "icao": "EETN",
      "alert": "OK",
      "vis_m": 9999,
      "fzfg": false,
      "metar_trigger": false,
      "taf_trigger": false,
      "metar": "METAR EETN 060620Z 28008KT 9999 FEW023 07/00 Q1013 NOSIG",
      "taf": "TAF EETN 060530Z 0606/0706 27008KT CAVOK"
    },
    {
      "icao": "EFTU",
      "alert": "OK",
      "vis_m": 9999,
      "fzfg": false,
      "metar_trigger": false,
      "taf_trigger": false,
      "metar": "METAR EFTU 060620Z AUTO 25005KT 220V290 CAVOK 07/M02 Q1012",
      "taf": "TAF EFTU 060529Z 0606/0706 29005KT CAVOK"
    },
    {
      "icao": "EGBB",
      "alert": "OK",
      "vis_m": 9999,
      "fzfg": false,
      "metar_trigger": false,
      "taf_trigger": false,
      "metar": "METAR EGBB 060620Z 01009KT CAVOK 07/02 Q1015",
      "taf": "TAF EGBB 060452Z 0606/0706 03008KT 9999 SCT040"
    },
    {
      "icao": "EGGP",
      "alert": "OK",
      "vis_m": 9999,
      "fzfg": false,
      "metar_trigger": false,
      "taf_trigger": false,
      "metar": "METAR EGGP 060620Z 06007KT 030V110 CAVOK 06/03 Q1016",
      "taf": "TAF EGGP 060501Z 0606/0706 06007KT 9999 FEW020 SCT035"
    },
    {
      "icao": "EGGW",
      "alert": "OK",
      "vis_m": 9999,
      "fzfg": false,
      "metar_trigger": false,
      "taf_trigger": false,
      "metar": "METAR EGGW 060620Z AUTO 36013G23KT 9999 SCT013 08/04 Q1013",
      "taf": "TAF EGGW 060502Z 0606/0706 35010KT 9999 BKN013"
    },
    {
      "icao": "EGKK",
      "alert": "OK",
      "vis_m": 9999,
      "fzfg": false,
      "metar_trigger": false,
      "taf_trigger": false,
      "metar": "METAR EGKK 060620Z 36007KT 330V040 9999 FEW019 09/05 Q1012",
      "taf": "TAF EGKK 060459Z 0606/0712 02009KT 9999 SCT020"
    },
    {
      "icao": "EGNM",
      "alert": "OK",
      "vis_m": 9999,
      "fzfg": false,
      "metar_trigger": false,
      "taf_trigger": false,
      "metar": "METAR EGNM 060620Z 02010KT 9999 FEW025 04/01 Q1015",
      "taf": "TAF EGNM 060458Z 0606/0706 02008KT 9999 FEW025 SCT040"
    },
    {
      "icao": "EGPD",
      "alert": "OK",
      "vis_m": 9999,
      "fzfg": false,
      "metar_trigger": false,
      "taf_trigger": false,
      "metar": "METAR EGPD 060620Z COR AUTO 02002KT 9999 NCD 02/M00 Q1017 NOSIG",
      "taf": "TAF EGPD 060456Z 0606/0706 VRB03KT 9999 FEW035"
    },
    {
      "icao": "EGPF",
      "alert": "OK",
      "vis_m": 9999,
      "fzfg": false,
      "metar_trigger": false,
      "taf_trigger": false,
      "metar": "METAR EGPF 060620Z AUTO 06005KT 9999 NCD 06/01 Q1017",
      "taf": "TAF EGPF 060455Z 0606/0706 06010KT 9999 FEW045"
    },
    {
      "icao": "EHBK",
      "alert": "OK",
      "vis_m": 9000,
      "fzfg": false,
      "metar_trigger": false,
      "taf_trigger": false,
      "metar": "METAR EHBK 060625Z AUTO 35008KT 300V040 9000 +DZ SCT002/// BKN003/// OVC005/// 09/08 Q1006 TEMPO 4000 RA BKN002",
      "taf": "TAF EHBK 060445Z 0606/0712 36007KT 6000 -RA OVC004"
    },
    {
      "icao": "EHEH",
      "alert": "OK",
      "vis_m": 9000,
      "fzfg": false,
      "metar_trigger": false,
      "taf_trigger": false,
      "metar": "METAR EHEH 060625Z AUTO 35006KT 310V040 9000 -DZ OVC040 09/08 Q1007 REDZ BLU TEMPO SCT006 BKN008",
      "taf": "TAF EHEH 060514Z 0606/0712 36005KT 8000 SCT010 BKN012"
    },
    {
      "icao": "EKBI",
      "alert": "OK",
      "vis_m": 9999,
      "fzfg": false,
      "metar_trigger": false,
      "taf_trigger": false,
      "metar": "METAR EKBI 060620Z AUTO 02004KT 340V050 9999 NCD 07/02 Q1012",
      "taf": "TAF EKBI 060527Z 0606/0706 02006KT CAVOK"
    },
    {
      "icao": "EKCH",
      "alert": "OK",
      "vis_m": 9999,
      "fzfg": false,
      "metar_trigger": false,
      "taf_trigger": false,
      "metar": "METAR EKCH 060620Z AUTO 03009KT 9999 NCD 08/M00 Q1010 NOSIG",
      "taf": "TAF EKCH 060527Z 0606/0706 06010KT CAVOK"
    },
    {
      "icao": "ENAL",
      "alert": "OK",
      "vis_m": 9999,
      "fzfg": false,
      "metar_trigger": false,
      "taf_trigger": false,
      "metar": "METAR ENAL 060620Z 26006KT 9999 VCSH FEW003 SCT008 BKN018 01/00 Q1012",
      "taf": "TAF ENAL 060500Z 0606/0615 20012KT 9999 -SHRA FEW012 SCT018 BKN030"
    },
    {
      "icao": "ENBR",
      "alert": "OK",
      "vis_m": 9999,
      "fzfg": false,
      "metar_trigger": false,
      "taf_trigger": false,
      "metar": "METAR ENBR 060620Z 18003KT 140V230 9999 VCSH FEW007 SCT015CB 02/01 Q1014 TEMPO 3000 SHSNRA SCT007 BKN014CB RMK WIND 1200FT 23006KT",
      "taf": "TAF ENBR 060500Z 0606/0706 VRB05KT 9999 FEW010 SCT040"
    },
    {
      "icao": "ENGM",
      "alert": "OK",
      "vis_m": 9999,
      "fzfg": false,
      "metar_trigger": false,
      "taf_trigger": false,
      "metar": "METAR ENGM 060620Z VRB02KT CAVOK 04/M08 Q1012 NOSIG",
      "taf": "TAF ENGM 060500Z 0606/0706 VRB03KT CAVOK"
    },
    {
      "icao": "ENHD",
      "alert": "OK",
      "vis_m": 9999,
      "fzfg": false,
      "metar_trigger": false,
      "taf_trigger": false,
      "metar": "METAR ENHD 060620Z 18003KT 9999 FEW020TCU BKN035 05/M00 Q1015",
      "taf": "TAF ENHD 060500Z 0606/0615 VRB05KT 9999 FEW015 SCT030"
    },
    {
      "icao": "ENTC",
      "alert": "OK",
      "vis_m": 9999,
      "fzfg": false,
      "metar_trigger": false,
      "taf_trigger": false,
      "metar": "METAR ENTC 060620Z 02006KT 350V050 9999 FEW020 SCT052 BKN062 03/M02 Q1005 NOSIG RMK WIND 2600FT 36009KT",
      "taf": "TAF ENTC 060500Z 0606/0706 04008KT 9999 FEW010 SCT020 BKN045"
    },
    {
      "icao": "ENTO",
      "alert": "OK",
      "vis_m": 9999,
      "fzfg": false,
      "metar_trigger": false,
      "taf_trigger": false,
      "metar": "METAR ENTO 060620Z 36007KT CAVOK 05/M06 Q1013 NOSIG",
      "taf": "TAF ENTO 060500Z 0606/0706 35008KT CAVOK"
    },
    {
      "icao": "ENVA",
      "alert": "OK",
      "vis_m": 9999,
      "fzfg": false,
      "metar_trigger": false,
      "taf_trigger": false,
      "metar": "METAR ENVA 060620Z 18003KT 120V240 9999 FEW036 BKN046 03/M03 Q1012 NOSIG RMK WIND 670FT 21009KT",
      "taf": "TAF ENVA 060500Z 0606/0706 VRB05KT 9999 FEW035"
    },
    {
      "icao": "ENZV",
      "alert": "OK",
      "vis_m": 9999,
      "fzfg": false,
      "metar_trigger": false,
      "taf_trigger": false,
      "metar": "METAR ENZV 060620Z VRB02KT CAVOK 06/M01 Q1015 NOSIG",
      "taf": "TAF ENZV 060500Z 0606/0706 VRB02KT 9999 SCT030"
    },
    {
      "icao": "EPGD",
      "alert": "OK",
      "vis_m": 8000,
      "fzfg": false,
      "metar_trigger": false,
      "taf_trigger": false,
      "metar": "METAR EPGD 060630Z 05008KT 8000 -RA OVC003 07/07 Q1008",
      "taf": "TAF EPGD 060530Z 0606/0706 05010KT 9999 -RA BKN012"
    },
    {
      "icao": "EPKK",
      "alert": "OK",
      "vis_m": 9999,
      "fzfg": false,
      "metar_trigger": false,
      "taf_trigger": false,
      "metar": "METAR EPKK 060630Z 24009KT CAVOK 19/09 Q1006",
      "taf": "TAF EPKK 060530Z 0606/0706 VRB02KT CAVOK"
    },
    {
      "icao": "EPKT",
      "alert": "OK",
      "vis_m": 9999,
      "fzfg": false,
      "metar_trigger": false,
      "taf_trigger": false,
      "metar": "METAR EPKT 060630Z 21016KT CAVOK 17/08 Q1006",
      "taf": "TAF EPKT 060530Z 0606/0706 20010KT CAVOK"
    },
    {
      "icao": "EPLB",
      "alert": "OK",
      "vis_m": 9999,
      "fzfg": false,
      "metar_trigger": false,
      "taf_trigger": false,
      "metar": "METAR EPLB 060630Z 19015KT CAVOK 22/06 Q1006",
      "taf": "TAF EPLB 060530Z 0606/0706 22010KT CAVOK"
    },
    {
      "icao": "EPMO",
      "alert": "OK",
      "vis_m": 9999,
      "fzfg": false,
      "metar_trigger": false,
      "taf_trigger": false,
      "metar": "METAR EPMO 060630Z 10005KT CAVOK 15/10 Q1005",
      "taf": "TAF EPMO 060530Z 0606/0706 09010KT CAVOK"
    },
    {
      "icao": "EPPO",
      "alert": "OK",
      "vis_m": 9999,
      "fzfg": false,
      "metar_trigger": false,
      "taf_trigger": false,
      "metar": "METAR EPPO 060630Z 09006KT 9999 -RA BKN012 12/09 Q1004",
      "taf": "TAF EPPO 060530Z 0606/0706 06006KT 9999 BKN011"
    },
    {
      "icao": "EPRA",
      "alert": "OK",
      "vis_m": 9999,
      "fzfg": false,
      "metar_trigger": false,
      "taf_trigger": false,
      "metar": "METAR EPRA 060630Z 18006KT 150V210 CAVOK 19/06 Q1006",
      "taf": "TAF EPRA 060530Z 0606/0615 19010KT CAVOK"
    },
    {
      "icao": "EPRZ",
      "alert": "OK",
      "vis_m": 9999,
      "fzfg": false,
      "metar_trigger": false,
      "taf_trigger": false,
      "metar": "METAR EPRZ 060630Z 17010KT 9999 FEW050CB 19/06 Q1007",
      "taf": "TAF EPRZ 060530Z 0606/0706 13003KT CAVOK"
    },
    {
      "icao": "EPSC",
      "alert": "OK",
      "vis_m": 4500,
      "fzfg": false,
      "metar_trigger": false,
      "taf_trigger": false,
      "metar": "METAR EPSC 060630Z 02006KT 360V070 4500 -RA BR SCT003 BKN004 09/09 Q1006",
      "taf": "TAF EPSC 060530Z 0606/0706 03008KT 9999 -RA SCT010 BKN020"
    },
    {
      "icao": "EPSY",
      "alert": "OK",
      "vis_m": 9999,
      "fzfg": false,
      "metar_trigger": false,
      "taf_trigger": false,
      "metar": "METAR EPSY 060630Z 07008KT 040V110 CAVOK 13/08 Q1006",
      "taf": "TAF EPSY 060530Z 0606/0615 08010KT CAVOK"
    },
    {
      "icao": "EPWA",
      "alert": "OK",
      "vis_m": 9999,
      "fzfg": false,
      "metar_trigger": false,
      "taf_trigger": false,
      "metar": "METAR EPWA 060630Z 20004KT 160V240 CAVOK 19/08 Q1005 NOSIG",
      "taf": "TAF EPWA 060530Z 0606/0706 09006KT CAVOK"
    },
    {
      "icao": "EPWR",
      "alert": "OK",
      "vis_m": 9999,
      "fzfg": false,
      "metar_trigger": false,
      "taf_trigger": false,
      "metar": "METAR EPWR 060630Z 24004KT 210V280 CAVOK 15/11 Q1005",
      "taf": "TAF EPWR 060530Z 0606/0706 28002KT CAVOK"
    },
    {
      "icao": "ESGG",
      "alert": "OK",
      "vis_m": 9999,
      "fzfg": false,
      "metar_trigger": false,
      "taf_trigger": false,
      "metar": "METAR ESGG 060620Z 12007KT CAVOK 07/M04 Q1012",
      "taf": "TAF ESGG 060530Z 0606/0706 12006KT CAVOK"
    },
    {
      "icao": "ESKN",
      "alert": "OK",
      "vis_m": 9999,
      "fzfg": false,
      "metar_trigger": false,
      "taf_trigger": false,
      "metar": "METAR ESKN 060620Z 09005KT CAVOK 09/M03 Q1013",
      "taf": "TAF ESKN 060530Z 0606/0706 VRB03KT CAVOK"
    },
    {
      "icao": "ESMS",
      "alert": "OK",
      "vis_m": 9999,
      "fzfg": false,
      "metar_trigger": false,
      "taf_trigger": false,
      "metar": "METAR ESMS 060620Z 05007KT CAVOK 08/00 Q1009",
      "taf": "TAF ESMS 060527Z 0606/0706 07010KT CAVOK"
    },
    {
      "icao": "ESSA",
      "alert": "OK",
      "vis_m": 9999,
      "fzfg": false,
      "metar_trigger": false,
      "taf_trigger": false,
      "metar": "METAR ESSA 060620Z VRB03KT CAVOK 06/M04 Q1013 NOSIG",
      "taf": "TAF ESSA 060530Z 0606/0706 VRB03KT CAVOK"
    },
    {
      "icao": "EYKA",
      "alert": "OK",
      "vis_m": 9999,
      "fzfg": false,
      "metar_trigger": false,
      "taf_trigger": false,
      "metar": "METAR EYKA 060620Z 04009KT 010V070 CAVOK 09/00 Q1011",
      "taf": "TAF EYKA 060521Z 0606/0706 04010KT 9000 BKN045"
    },
    {
      "icao": "EYPA",
      "alert": "OK",
      "vis_m": 9999,
      "fzfg": false,
      "metar_trigger": false,
      "taf_trigger": false,
      "metar": "METAR EYPA 060620Z 08010KT 050V120 CAVOK 10/M01 Q1012",
      "taf": "TAF EYPA 060519Z 0606/0706 07010KT 9000 NSC"
    },
    {
      "icao": "EYVI",
      "alert": "OK",
      "vis_m": 9999,
      "fzfg": false,
      "metar_trigger": false,
      "taf_trigger": false,
      "metar": "METAR EYVI 060620Z 03009KT CAVOK 11/07 Q1010 NOSIG",
      "taf": "TAF EYVI 060500Z 0606/0706 05012KT 9000 NSC"
    },
    {
      "icao": "GCFV",
      "alert": "OK",
      "vis_m": 9999,
      "fzfg": false,
      "metar_trigger": false,
      "taf_trigger": false,
      "metar": "METAR GCFV 060630Z 02016KT 350V050 9999 BKN017 19/15 Q1013",
      "taf": "TAF GCFV 060200Z 0603/0703 04012KT 9999 FEW025 TX23/0614Z TN18/0606Z"
    },
    {
      "icao": "GCLP",
      "alert": "OK",
      "vis_m": 9999,
      "fzfg": false,
      "metar_trigger": false,
      "taf_trigger": false,
      "metar": "METAR GCLP 060630Z 36011KT 9999 FEW018 19/15 Q1013 NOSIG",
      "taf": "TAF GCLP 060200Z 0603/0703 01012KT 9999 SCT030 TX23/0614Z TN18/0606Z"
    },
    {
      "icao": "GCTS",
      "alert": "OK",
      "vis_m": 9999,
      "fzfg": false,
      "metar_trigger": false,
      "taf_trigger": false,
      "metar": "METAR GCTS 060630Z 06008KT 9999 FEW015 SCT025 19/15 Q1014 NOSIG",
      "taf": "TAF GCTS 060200Z 0603/0703 05008KT 9999 FEW025 TX24/0614Z TN17/0606Z"
    },
    {
      "icao": "GMAD",
      "alert": "OK",
      "vis_m": 9999,
      "fzfg": false,
      "metar_trigger": false,
      "taf_trigger": false,
      "metar": "METAR GMAD 060630Z 13004KT CAVOK 15/13 Q1011 NOSIG",
      "taf": "TAF GMAD 060500Z 0606/0712 07004KT CAVOK"
    },
    {
      "icao": "GMMN",
      "alert": "OK",
      "vis_m": 9999,
      "fzfg": false,
      "metar_trigger": false,
      "taf_trigger": false,
      "metar": "METAR GMMN 060630Z VRB02KT 9999 FEW026 BKN100 15/10 Q1013 NOSIG",
      "taf": "TAF GMMN 060500Z 0606/0712 02003KT 9999 SCT026 SCT100"
    },
    {
      "icao": "GMMX",
      "alert": "OK",
      "vis_m": 9999,
      "fzfg": false,
      "metar_trigger": false,
      "taf_trigger": false,
      "metar": "METAR GMMX 060630Z 26004KT CAVOK 12/08 Q1013 NOSIG",
      "taf": "TAF GMMX 060500Z 0606/0712 06006KT 9999 SCT080"
    },
    {
      "icao": "HEGN",
      "alert": "OK",
      "vis_m": 9999,
      "fzfg": false,
      "metar_trigger": false,
      "taf_trigger": false,
      "metar": "METAR HEGN 060600Z 33016KT CAVOK 20/07 Q1015 NOSIG",
      "taf": "TAF HEGN 060500Z 0606/0712 33010G20KT CAVOK"
    },
    {
      "icao": "HEMA",
      "alert": "OK",
      "vis_m": 9999,
      "fzfg": false,
      "metar_trigger": false,
      "taf_trigger": false,
      "metar": "METAR HEMA 060600Z 33020KT CAVOK 23/09 Q1014 NOSIG",
      "taf": "TAF HEMA 060500Z 0606/0712 34010G20KT CAVOK"
    },
    {
      "icao": "HESH",
      "alert": "OK",
      "vis_m": 9999,
      "fzfg": false,
      "metar_trigger": false,
      "taf_trigger": false,
      "metar": "METAR HESH 060600Z 36014KT CAVOK 22/08 Q1014 NOSIG",
      "taf": "TAF HESH 060500Z 0606/0712 36015KT CAVOK"
    },
    {
      "icao": "HESX",
      "alert": "OK",
      "vis_m": 9999,
      "fzfg": false,
      "metar_trigger": false,
      "taf_trigger": false,
      "metar": "METAR HESX 060600Z 01006KT 9999 SCT025 17/07 Q1018 NOSIG",
      "taf": "TAF HESX 060500Z 0606/0712 35010KT 9999 FEW030"
    },
    {
      "icao": "LATI",
      "alert": "OK",
      "vis_m": 9999,
      "fzfg": false,
      "metar_trigger": false,
      "taf_trigger": false,
      "metar": "METAR LATI 060620Z VRB02KT 9999 BKN150 17/09 Q1017 NOSIG",
      "taf": "TAF LATI 060500Z 0606/0706 VRB03KT CAVOK TX24/0611Z TN10/0704Z"
    },
    {
      "icao": "LBPD",
      "alert": "OK",
      "vis_m": 9999,
      "fzfg": false,
      "metar_trigger": false,
      "taf_trigger": false,
      "metar": "METAR LBPD 060630Z AUTO 30005KT 260V340 9999 NCD 14/08 Q1016 NOSIG",
      "taf": "TAF LBPD 060500Z 0606/0706 VRB04KT 9999 SCT070"
    },
    {
      "icao": "LBSF",
      "alert": "OK",
      "vis_m": 9999,
      "fzfg": false,
      "metar_trigger": false,
      "taf_trigger": false,
      "metar": "METAR LBSF 060630Z VRB01KT CAVOK 15/07 Q1017 NOSIG",
      "taf": "TAF LBSF 060500Z 0606/0706 VRB04KT 9999 SCT070"
    },
    {
      "icao": "LBWN",
      "alert": "OK",
      "vis_m": 9999,
      "fzfg": false,
      "metar_trigger": false,
      "taf_trigger": false,
      "metar": "METAR LBWN 060630Z 12010KT CAVOK 14/07 Q1016 NOSIG",
      "taf": "TAF LBWN 060500Z 0606/0706 VRB03KT CAVOK"
    },
    {
      "icao": "LCLK",
      "alert": "OK",
      "vis_m": 9999,
      "fzfg": false,
      "metar_trigger": false,
      "taf_trigger": false,
      "metar": "METAR LCLK 060630Z 16006KT 130V190 9999 FEW030 20/11 Q1016 NOSIG",
      "taf": "TAF LCLK 060530Z 0606/0706 VRB03KT CAVOK"
    },
    {
      "icao": "LCPH",
      "alert": "OK",
      "vis_m": 9999,
      "fzfg": false,
      "metar_trigger": false,
      "taf_trigger": false,
      "metar": "METAR LCPH 060630Z AUTO 20004KT 150V260 9999 NCD 19/09 Q1016 NOSIG",
      "taf": "TAF LCPH 060530Z 0606/0706 02008KT CAVOK"
    },
    {
      "icao": "LEAL",
      "alert": "OK",
      "vis_m": 9999,
      "fzfg": false,
      "metar_trigger": false,
      "taf_trigger": false,
      "metar": "METAR LEAL 060630Z 33003KT 300V030 9999 SCT024 19/13 Q1011 NOSIG",
      "taf": "TAF LEAL 060500Z 0606/0706 VRB04KT 9999 FEW015 TX23/0612Z TN12/0606Z"
    },
    {
      "icao": "LEBB",
      "alert": "OK",
      "vis_m": 9999,
      "fzfg": false,
      "metar_trigger": false,
      "taf_trigger": false,
      "metar": "METAR LEBB 060630Z VRB02KT 9999 FEW027 BKN041 12/10 Q1014 NOSIG",
      "taf": "TAF LEBB 060500Z 0606/0706 VRB03KT 9999 SCT015 BKN025 TX16/0616Z TN07/0705Z"
    },
    {
      "icao": "LEBL",
      "alert": "OK",
      "vis_m": 9999,
      "fzfg": false,
      "metar_trigger": false,
      "taf_trigger": false,
      "metar": "METAR LEBL 060630Z 31003KT 9999 FEW020 13/08 Q1012 NOSIG",
      "taf": "TAF LEBL 060500Z 0606/0706 33008KT 9999 FEW020 TX20/0613Z TN13/0705Z"
    },
    {
      "icao": "LECH",
      "alert": "OK",
      "vis_m": 9999,
      "fzfg": false,
      "metar_trigger": false,
      "taf_trigger": false,
      "metar": "METAR LECH 060630Z AUTO 19003KT 160V220 CAVOK 11/07 Q1012",
      "taf": "TAF LECH 060500Z 0606/0706 32007KT 9999 FEW040 TX20/0614Z TN07/0606Z"
    },
    {
      "icao": "LEMD",
      "alert": "OK",
      "vis_m": 9999,
      "fzfg": false,
      "metar_trigger": false,
      "taf_trigger": false,
      "metar": "METAR LEMD 060630Z VRB02KT CAVOK 08/04 Q1013 NOSIG",
      "taf": "TAF LEMD 060500Z 0606/0712 VRB04KT 9999 FEW050 TX21/0616Z TN08/0705Z"
    },
    {
      "icao": "LEMG",
      "alert": "OK",
      "vis_m": 9999,
      "fzfg": false,
      "metar_trigger": false,
      "taf_trigger": false,
      "metar": "METAR LEMG 060630Z 28012KT CAVOK 17/06 Q1010 NOSIG",
      "taf": "TAF LEMG 060500Z 0606/0706 29012KT CAVOK TX26/0614Z TN16/0607Z"
    },
    {
      "icao": "LEVC",
      "alert": "OK",
      "vis_m": 9999,
      "fzfg": false,
      "metar_trigger": false,
      "taf_trigger": false,
      "metar": "METAR LEVC 060630Z 31005KT 290V350 9999 FEW038 15/09 Q1012 NOSIG",
      "taf": "TAF LEVC 060500Z 0606/0706 30006KT 9999 FEW040 TX22/0612Z TN12/0606Z"
    },
    {
      "icao": "LEXJ",
      "alert": "OK",
      "vis_m": 9999,
      "fzfg": false,
      "metar_trigger": false,
      "taf_trigger": false,
      "metar": "METAR LEXJ 060630Z 26009KT 230V290 9999 FEW025 BKN070 13/09 Q1014",
      "taf": "TAF LEXJ 060200Z 0603/0703 22009KT 9999 FEW015 BKN025 TX18/0616Z TN09/0703Z"
    },
    {
      "icao": "LEZG",
      "alert": "OK",
      "vis_m": 9999,
      "fzfg": false,
      "metar_trigger": false,
      "taf_trigger": false,
      "metar": "METAR LEZG 060630Z VRB01KT CAVOK 10/07 Q1014 NOSIG",
      "taf": "TAF LEZG 060500Z 0606/0706 28007KT 9999 SCT070 TX19/0614Z TN09/0606Z"
    },
    {
      "icao": "LEZL",
      "alert": "OK",
      "vis_m": 9999,
      "fzfg": false,
      "metar_trigger": false,
      "taf_trigger": false,
      "metar": "METAR LEZL 060630Z 01003KT CAVOK 14/09 Q1012 NOSIG",
      "taf": "TAF LEZL 060200Z 0603/0703 VRB03KT CAVOK TX27/0615Z TN11/0607Z"
    },
    {
      "icao": "LFBD",
      "alert": "OK",
      "vis_m": 9999,
      "fzfg": false,
      "metar_trigger": false,
      "taf_trigger": false,
      "metar": "METAR LFBD 060630Z AUTO 22008KT 9999 3000 SCT012/// SCT023/// BKN031/// ///CB 12/11 Q1010 TEMPO 2000 TSRA BKN005 BKN020CB",
      "taf": "TAF LFBD 060500Z 0606/0712 21010KT 9999 BKN030 TX17/0614Z TN08/0703Z"
    },
    {
      "icao": "LFLL",
      "alert": "OK",
      "vis_m": 6000,
      "fzfg": false,
      "metar_trigger": false,
      "taf_trigger": false,
      "metar": "METAR LFLL 060630Z 25005KT 6000 RA BKN003 BKN013 FEW030TCU BKN046 11/11 Q1009 TEMPO 4000",
      "taf": ""
    },
    {
      "icao": "LFLS",
      "alert": "OK",
      "vis_m": 9999,
      "fzfg": false,
      "metar_trigger": false,
      "taf_trigger": false,
      "metar": "METAR LFLS 060630Z AUTO VRB02KT 9999 -RA FEW004/// SCT039/// OVC058/// ///TCU 10/10 Q1009 TEMPO 4000 RA BKN004 OVC020",
      "taf": "TAF LFLS 060200Z 0603/0703 09005KT 9999 -RA OVC045"
    },
    {
      "icao": "LFMN",
      "alert": "OK",
      "vis_m": 9999,
      "fzfg": false,
      "metar_trigger": false,
      "taf_trigger": false,
      "metar": "METAR LFMN 060630Z 29006KT 270V330 9999 VCSH FEW043TCU SCT050 15/12 Q1009 NOSIG",
      "taf": "TAF LFMN 060200Z 0603/0709 02006KT 9999 BKN040"
    },
    {
      "icao": "LFOB",
      "alert": "OK",
      "vis_m": 9999,
      "fzfg": false,
      "metar_trigger": false,
      "taf_trigger": false,
      "metar": "METAR LFOB 060630Z AUTO 36011KT 9999 FEW018 OVC090 09/08 Q1009 TEMPO 4000 -RA BKN013",
      "taf": "TAF LFOB 060500Z 0606/0706 36008KT 9999 BKN020"
    },
    {
      "icao": "LFPO",
      "alert": "OK",
      "vis_m": 5000,
      "fzfg": false,
      "metar_trigger": false,
      "taf_trigger": false,
      "metar": "METAR LFPO 060630Z 36009KT 330V040 5000 -RA OVC008 10/08 Q1008 NOSIG",
      "taf": "TAF LFPO 060500Z 0606/0712 35008KT 4000 -RA OVC008"
    },
    {
      "icao": "LFSB",
      "alert": "OK",
      "vis_m": 9999,
      "fzfg": false,
      "metar_trigger": false,
      "taf_trigger": false,
      "metar": "METAR LFSB 060630Z AUTO 14003KT CAVOK 11/10 Q1007 NOSIG",
      "taf": "TAF LFSB 060500Z 0606/0706 VRB03KT 9999 FEW030 SCT060"
    },
    {
      "icao": "LGAV",
      "alert": "OK",
      "vis_m": 9999,
      "fzfg": false,
      "metar_trigger": false,
      "taf_trigger": false,
      "metar": "METAR LGAV 060620Z VRB02KT CAVOK 19/08 Q1016 NOSIG",
      "taf": "TAF LGAV 060500Z 0606/0706 VRB03KT 9999 FEW025"
    },
    {
      "icao": "LGTS",
      "alert": "OK",
      "vis_m": 9999,
      "fzfg": false,
      "metar_trigger": false,
      "taf_trigger": false,
      "metar": "METAR LGTS 060620Z VRB02KT CAVOK 18/11 Q1016 NOSIG",
      "taf": "TAF LGTS 060500Z 0606/0706 VRB03KT 9999 FEW025"
    },
    {
      "icao": "LHBP",
      "alert": "OK",
      "vis_m": 9999,
      "fzfg": false,
      "metar_trigger": false,
      "taf_trigger": false,
      "metar": "METAR LHBP 060630Z 23009KT 190V270 CAVOK 17/09 Q1011 NOSIG",
      "taf": "TAF LHBP 060515Z 0606/0706 20010KT CAVOK"
    },
    {
      "icao": "LHDC",
      "alert": "OK",
      "vis_m": 9999,
      "fzfg": false,
      "metar_trigger": false,
      "taf_trigger": false,
      "metar": "METAR LHDC 060615Z AUTO 21014KT 180V240 CAVOK 18/08 Q1013 NOSIG",
      "taf": "TAF LHDC 060515Z 0606/0615 18006KT CAVOK"
    },
    {
      "icao": "LIBD",
      "alert": "OK",
      "vis_m": 9999,
      "fzfg": false,
      "metar_trigger": false,
      "taf_trigger": false,
      "metar": "METAR LIBD 060620Z 18003KT CAVOK 18/14 Q1014",
      "taf": "TAF LIBD 060500Z 0606/0706 17008KT 9999 FEW030"
    },
    {
      "icao": "LIBG",
      "alert": "OK",
      "vis_m": 9999,
      "fzfg": false,
      "metar_trigger": false,
      "taf_trigger": false,
      "metar": "SPECI LIBG 060601Z 16006KT 9999 SCT013 BKN020 17/17 Q1015",
      "taf": "TAF LIBG 060500Z 0607/0615 17013KT 9999 BKN020"
    },
    {
      "icao": "LIBP",
      "alert": "OK",
      "vis_m": 9999,
      "fzfg": false,
      "metar_trigger": false,
      "taf_trigger": false,
      "metar": "METAR LIBP 060620Z AUTO VRB02KT 9999 FEW071/// SCT084/// BKN180/// 17/15 Q1013",
      "taf": "TAF LIBP 060500Z 0606/0706 VRB05KT 9999 SCT070"
    },
    {
      "icao": "LIBR",
      "alert": "OK",
      "vis_m": 9999,
      "fzfg": false,
      "metar_trigger": false,
      "taf_trigger": false,
      "metar": "METAR LIBR 060620Z 18011KT 9999 BKN012 17/15 Q1015",
      "taf": "TAF LIBR 060500Z 0606/0706 17013KT 9999 FEW015"
    },
    {
      "icao": "LICA",
      "alert": "OK",
      "vis_m": 9999,
      "fzfg": false,
      "metar_trigger": false,
      "taf_trigger": false,
      "metar": "METAR LICA 060620Z AUTO 14004KT 080V200 9999 NCD 19/15 Q1015",
      "taf": "TAF LICA 060500Z 0606/0706 09008KT 9999 FEW020"
    },
    {
      "icao": "LICC",
      "alert": "OK",
      "vis_m": 9999,
      "fzfg": false,
      "metar_trigger": false,
      "taf_trigger": false,
      "metar": "METAR LICC 060620Z 28004KT 250V310 9999 BKN100 18/13 Q1016",
      "taf": "TAF LICC 060500Z 0606/0706 24006KT 9999 FEW030"
    },
    {
      "icao": "LICJ",
      "alert": "OK",
      "vis_m": 9999,
      "fzfg": false,
      "metar_trigger": false,
      "taf_trigger": false,
      "metar": "METAR LICJ 060620Z 36003KT CAVOK 18/16 Q1014",
      "taf": "TAF LICJ 060500Z 0606/0706 VRB05KT CAVOK"
    },
    {
      "icao": "LIMC",
      "alert": "OK",
      "vis_m": 4000,
      "fzfg": false,
      "metar_trigger": false,
      "taf_trigger": false,
      "metar": "METAR LIMC 060620Z 11006KT 070V140 4000 -RA BR BKN007 14/13 Q1008 NOSIG",
      "taf": "TAF LIMC 060500Z 0606/0712 VRB05KT 6000 BKN015"
    },
    {
      "icao": "LIME",
      "alert": "OK",
      "vis_m": 6000,
      "fzfg": false,
      "metar_trigger": false,
      "taf_trigger": false,
      "metar": "METAR LIME 060620Z 11006KT 6000 -RA FEW004 SCT025 BKN050 14/14 Q1010 NOSIG",
      "taf": "TAF LIME 060500Z 0606/0706 VRB05KT 9999 BKN015"
    },
    {
      "icao": "LIMF",
      "alert": "OK",
      "vis_m": 1800,
      "fzfg": false,
      "metar_trigger": false,
      "taf_trigger": false,
      "metar": "METAR LIMF 060620Z 32004KT 1800 RA BR BKN002 OVC015 12/12 Q1008 REDZ",
      "taf": "TAF LIMF 060500Z 0606/0706 VRB05KT 9999 BKN020"
    },
    {
      "icao": "LIMJ",
      "alert": "OK",
      "vis_m": 9999,
      "fzfg": false,
      "metar_trigger": false,
      "taf_trigger": false,
      "metar": "METAR LIMJ 060620Z 13020KT 9999 -TSRA SCT018 SCT030CB BKN050 18/15 Q1007",
      "taf": "TAF LIMJ 060500Z 0606/0706 17014KT 9999 BKN030"
    },
    {
      "icao": "LIPE",
      "alert": "OK",
      "vis_m": 8000,
      "fzfg": false,
      "metar_trigger": false,
      "taf_trigger": false,
      "metar": "METAR LIPE 060620Z 12006KT 8000 RA SCT030 BKN060 14/14 Q1010",
      "taf": "TAF LIPE 060500Z 0606/0706 13006KT 9999 SCT030"
    },
    {
      "icao": "LIPH",
      "alert": "OK",
      "vis_m": 7000,
      "fzfg": false,
      "metar_trigger": false,
      "taf_trigger": false,
      "metar": "METAR LIPH 060620Z 06004KT 010V080 7000 SCT006 BKN012 15/15 Q1010",
      "taf": "TAF LIPH 060500Z 0606/0706 06007KT 6000 SCT007 BKN015"
    },
    {
      "icao": "LIPQ",
      "alert": "OK",
      "vis_m": 9999,
      "fzfg": false,
      "metar_trigger": false,
      "taf_trigger": false,
      "metar": "METAR LIPQ 060620Z AUTO 13004KT 100V170 9999 RA OVC017/// 16/15 Q1011",
      "taf": "TAF LIPQ 060500Z 0606/0706 VRB05KT 9999 BKN015"
    },
    {
      "icao": "LIPR",
      "alert": "OK",
      "vis_m": 9999,
      "fzfg": false,
      "metar_trigger": false,
      "taf_trigger": false,
      "metar": "METAR LIPR 060620Z 19005KT 140V220 9999 SCT040 BKN065 17/12 Q1011",
      "taf": "TAF LIPR 060500Z 0606/0706 17012KT 9999 SCT030"
    },
    {
      "icao": "LIPX",
      "alert": "OK",
      "vis_m": 8000,
      "fzfg": false,
      "metar_trigger": false,
      "taf_trigger": false,
      "metar": "METAR LIPX 060620Z 05007KT 8000 -RA SCT013 BKN020 BKN075 14/14 Q1010",
      "taf": "TAF LIPX 060500Z 0606/0706 VRB05KT 9999 BKN020"
    },
    {
      "icao": "LIPY",
      "alert": "OK",
      "vis_m": 9999,
      "fzfg": false,
      "metar_trigger": false,
      "taf_trigger": false,
      "metar": "METAR LIPY 060620Z AUTO 03003KT 350V060 9999 -RA BKN076/// 17/16 Q1012",
      "taf": "TAF LIPY 060500Z 0606/0706 15007KT 9999 SCT030"
    },
    {
      "icao": "LIPZ",
      "alert": "OK",
      "vis_m": 4000,
      "fzfg": false,
      "metar_trigger": false,
      "taf_trigger": false,
      "metar": "METAR LIPZ 060620Z 06006KT 4000 -RA BR SCT005 BKN070 15/15 Q1010 NOSIG",
      "taf": "TAF LIPZ 060500Z 0606/0712 04007KT 6000 SCT007 BKN015"
    },
    {
      "icao": "LIRF",
      "alert": "OK",
      "vis_m": 9999,
      "fzfg": false,
      "metar_trigger": false,
      "taf_trigger": false,
      "metar": "METAR LIRF 060620Z 12007KT CAVOK 16/12 Q1013 REDZ NOSIG",
      "taf": "TAF LIRF 060500Z 0606/0712 16015KT 9999 BKN030"
    },
    {
      "icao": "LIRN",
      "alert": "OK",
      "vis_m": 9999,
      "fzfg": false,
      "metar_trigger": false,
      "taf_trigger": false,
      "metar": "METAR LIRN 060620Z VRB01KT 9999 SCT045 SCT080 17/12 Q1015 NOSIG",
      "taf": "TAF LIRN 060500Z 0606/0706 VRB05KT 9999 SCT050"
    },
    {
      "icao": "LIRP",
      "alert": "OK",
      "vis_m": 8000,
      "fzfg": false,
      "metar_trigger": false,
      "taf_trigger": false,
      "metar": "METAR LIRP 060615Z 14006KT 8000 -RA SCT015 BKN025 16/15 Q1010 NOSIG RMQ OVC VIS MIN 8000 BLU",
      "taf": "TAF LIRP 060500Z 0606/0706 12005KT 9999 SCT015 BKN040"
    },
    {
      "icao": "LIRZ",
      "alert": "OK",
      "vis_m": 9999,
      "fzfg": false,
      "metar_trigger": false,
      "taf_trigger": false,
      "metar": "METAR LIRZ 060620Z AUTO 15006KT 9999 -RA SCT040/// BKN074/// 15/12 Q1013",
      "taf": "TAF LIRZ 060500Z 0606/0706 VRB05KT 9999 BKN030"
    },
    {
      "icao": "LJLJ",
      "alert": "OK",
      "vis_m": 9999,
      "fzfg": false,
      "metar_trigger": false,
      "taf_trigger": false,
      "metar": "METAR LJLJ 060630Z 09002KT 9999 -RA FEW030 BKN040 13/11 Q1012 NOSIG",
      "taf": "TAF LJLJ 060500Z 0606/0706 VRB02KT 9999 BKN035"
    },
    {
      "icao": "LKMT",
      "alert": "OK",
      "vis_m": 9999,
      "fzfg": false,
      "metar_trigger": false,
      "taf_trigger": false,
      "metar": "METAR LKMT 060630Z 22012KT CAVOK 17/10 Q1007 NOSIG",
      "taf": "TAF LKMT 060500Z 0606/0706 21013KT CAVOK"
    },
    {
      "icao": "LKPR",
      "alert": "OK",
      "vis_m": 9999,
      "fzfg": false,
      "metar_trigger": false,
      "taf_trigger": false,
      "metar": "METAR LKPR 060630Z 23008KT 9999 FEW010 13/11 Q1006 NOSIG",
      "taf": "TAF LKPR 060500Z 0606/0712 23010KT CAVOK"
    },
    {
      "icao": "LLBG",
      "alert": "OK",
      "vis_m": 9999,
      "fzfg": false,
      "metar_trigger": false,
      "taf_trigger": false,
      "metar": "METAR LLBG 060620Z 21008KT 9999 FEW040 19/11 Q1017 NOSIG RMK BKN060",
      "taf": "TAF LLBG 060506Z 0606/0706 VRB04KT 9999 SCT030 BKN050 TX22/0611Z TN13/0704Z"
    },
    {
      "icao": "LMML",
      "alert": "OK",
      "vis_m": 9999,
      "fzfg": false,
      "metar_trigger": false,
      "taf_trigger": false,
      "metar": "METAR LMML 060615Z 13015KT CAVOK 18/15 Q1014 NOSIG",
      "taf": "TAF LMML 060500Z 0606/0706 13012KT 9999 FEW012"
    },
    {
      "icao": "LOWW",
      "alert": "OK",
      "vis_m": 9999,
      "fzfg": false,
      "metar_trigger": false,
      "taf_trigger": false,
      "metar": "METAR LOWW 060620Z 19004KT 160V220 CAVOK 18/10 Q1009 BECMG FM0730 16014KT",
      "taf": "TAF LOWW 060515Z 0606/0712 16012KT CAVOK TX25/0613Z TN15/0703Z"
    },
    {
      "icao": "LPFR",
      "alert": "OK",
      "vis_m": 9999,
      "fzfg": false,
      "metar_trigger": false,
      "taf_trigger": false,
      "metar": "METAR LPFR 060630Z 27004KT CAVOK 13/08 Q1013",
      "taf": "TAF LPFR 060500Z 0606/0706 VRB02KT 9999 FEW020"
    },
    {
      "icao": "LPMA",
      "alert": "OK",
      "vis_m": 9999,
      "fzfg": false,
      "metar_trigger": false,
      "taf_trigger": false,
      "metar": "METAR LPMA 060630Z 36012KT 330V030 9999 4000NE -DZRA FEW006 SCT014 14/11 Q1017",
      "taf": "TAF LPMA 060500Z 0606/0706 02013KT 9999 SCT015"
    },
    {
      "icao": "LPPR",
      "alert": "OK",
      "vis_m": 9999,
      "fzfg": false,
      "metar_trigger": false,
      "taf_trigger": false,
      "metar": "METAR LPPR 060630Z 09003KT 040V120 9999 FEW015 10/09 Q1015",
      "taf": "TAF LPPR 060500Z 0606/0706 VRB02KT 9999 SCT025"
    },
    {
      "icao": "LPPS",
      "alert": "OK",
      "vis_m": 9999,
      "fzfg": false,
      "metar_trigger": false,
      "taf_trigger": false,
      "metar": "METAR LPPS 060630Z 04007KT 010V080 9999 SCT014 BKN030 15/11 Q1017",
      "taf": "TAF LPPS 060500Z 0606/0712 04013KT 9999 SCT012 BKN030"
    },
    {
      "icao": "LPPT",
      "alert": "OK",
      "vis_m": 9999,
      "fzfg": false,
      "metar_trigger": false,
      "taf_trigger": false,
      "metar": "METAR LPPT 060630Z 33006KT 300V360 9999 FEW020 13/10 Q1015",
      "taf": "TAF LPPT 060500Z 0606/0712 34007KT 9999 FEW030"
    },
    {
      "icao": "LQBK",
      "alert": "OK",
      "vis_m": 9999,
      "fzfg": false,
      "metar_trigger": false,
      "taf_trigger": false,
      "metar": "METAR LQBK 060630Z VRB03KT CAVOK 19/09 Q1013 NOSIG",
      "taf": "TAF LQBK 060500Z 0606/0706 20005KT CAVOK TX25/0613Z TN11/0703Z"
    },
    {
      "icao": "LQSA",
      "alert": "OK",
      "vis_m": 9999,
      "fzfg": false,
      "metar_trigger": false,
      "taf_trigger": false,
      "metar": "METAR LQSA 060630Z 32004KT 290V350 CAVOK 13/07 Q1015 NOSIG",
      "taf": "TAF LQSA 060500Z 0606/0706 15005KT CAVOK TX25/0614Z TN09/0704Z"
    },
    {
      "icao": "LQTZ",
      "alert": "OK",
      "vis_m": 9999,
      "fzfg": false,
      "metar_trigger": false,
      "taf_trigger": false,
      "metar": "METAR LQTZ 060630Z VRB01KT CAVOK 18/10 Q1014",
      "taf": "TAF LQTZ 060500Z 0606/0706 10005KT CAVOK TX26/0612Z TN08/0606Z"
    },
    {
      "icao": "LRBC",
      "alert": "OK",
      "vis_m": 9999,
      "fzfg": false,
      "metar_trigger": false,
      "taf_trigger": false,
      "metar": "METAR LRBC 060630Z 17007KT CAVOK 15/08 Q1014",
      "taf": "TAF LRBC 060500Z 0606/0615 16012KT CAVOK"
    },
    {
      "icao": "LRBS",
      "alert": "OK",
      "vis_m": 9999,
      "fzfg": false,
      "metar_trigger": false,
      "taf_trigger": false,
      "metar": "METAR LRBS 060630Z 09004KT 050V130 CAVOK 17/08 Q1015 NOSIG",
      "taf": "TAF LRBS 060500Z 0606/0706 VRB04KT CAVOK"
    },
    {
      "icao": "LRBV",
      "alert": "OK",
      "vis_m": 9999,
      "fzfg": false,
      "metar_trigger": false,
      "taf_trigger": false,
      "metar": "METAR LRBV 060630Z VRB03KT CAVOK 15/07 Q1015",
      "taf": "TAF LRBV 060500Z 0606/0615 VRB04KT CAVOK"
    },
    {
      "icao": "LRCL",
      "alert": "OK",
      "vis_m": 9999,
      "fzfg": false,
      "metar_trigger": false,
      "taf_trigger": false,
      "metar": "METAR LRCL 060630Z 08003KT 040V120 CAVOK 15/05 Q1014",
      "taf": "TAF LRCL 060500Z 0606/0615 VRB04KT CAVOK"
    },
    {
      "icao": "LRCV",
      "alert": "OK",
      "vis_m": 9999,
      "fzfg": false,
      "metar_trigger": false,
      "taf_trigger": false,
      "metar": "METAR LRCV 060630Z 13006KT CAVOK 16/11 Q1015",
      "taf": "TAF LRCV 060500Z 0606/0615 09006KT CAVOK"
    },
    {
      "icao": "LRIA",
      "alert": "OK",
      "vis_m": 9999,
      "fzfg": false,
      "metar_trigger": false,
      "taf_trigger": false,
      "metar": "METAR LRIA 060630Z 12007KT CAVOK 17/05 Q1014",
      "taf": "TAF LRIA 060500Z 0606/0615 11008KT CAVOK"
    },
    {
      "icao": "LROP",
      "alert": "OK",
      "vis_m": 9999,
      "fzfg": false,
      "metar_trigger": false,
      "taf_trigger": false,
      "metar": "METAR LROP 060630Z 05004KT 360V080 CAVOK 15/08 Q1015 NOSIG",
      "taf": "TAF LROP 060500Z 0606/0706 VRB04KT CAVOK"
    },
    {
      "icao": "LRSB",
      "alert": "OK",
      "vis_m": 9999,
      "fzfg": false,
      "metar_trigger": false,
      "taf_trigger": false,
      "metar": "METAR LRSB 060630Z 09004KT CAVOK 18/07 Q1014",
      "taf": "TAF LRSB 060500Z 0606/0706 VRB04KT CAVOK"
    },
    {
      "icao": "LRSM",
      "alert": "OK",
      "vis_m": 9999,
      "fzfg": false,
      "metar_trigger": false,
      "taf_trigger": false,
      "metar": "METAR LRSM 060630Z 21005KT 180V250 CAVOK 20/08 Q1013",
      "taf": "TAF LRSM 060500Z 0606/0615 VRB04KT CAVOK"
    },
    {
      "icao": "LRSV",
      "alert": "OK",
      "vis_m": 9999,
      "fzfg": false,
      "metar_trigger": false,
      "taf_trigger": false,
      "metar": "METAR LRSV 060630Z 23005KT CAVOK 17/06 Q1013",
      "taf": "TAF LRSV 060500Z 0606/0615 24009KT CAVOK"
    },
    {
      "icao": "LRTM",
      "alert": "OK",
      "vis_m": 9999,
      "fzfg": false,
      "metar_trigger": false,
      "taf_trigger": false,
      "metar": "METAR LRTM 060630Z 07005KT 020V110 CAVOK 15/08 Q1014",
      "taf": "TAF LRTM 060500Z 0606/0615 VRB04KT CAVOK"
    },
    {
      "icao": "LRTR",
      "alert": "OK",
      "vis_m": 9999,
      "fzfg": false,
      "metar_trigger": false,
      "taf_trigger": false,
      "metar": "METAR LRTR 060630Z 14003KT 110V210 CAVOK 18/09 Q1014 NOSIG",
      "taf": "TAF LRTR 060500Z 0606/0706 VRB04KT CAVOK"
    },
    {
      "icao": "LTAC",
      "alert": "OK",
      "vis_m": 9999,
      "fzfg": false,
      "metar_trigger": false,
      "taf_trigger": false,
      "metar": "METAR LTAC 060620Z VRB02KT 9999 SCT023 BKN100 08/05 Q1017 NOSIG RMK RWY21C VRB02KT RWY03L VRB02KT RWY21R VRB02KT RWY03R 00000KT RWY21L 32003KT 270V010",
      "taf": "TAF LTAC 060440Z 0606/0706 VRB02KT 9999 SCT035 BKN100"
    },
    {
      "icao": "LTFM",
      "alert": "OK",
      "vis_m": 9999,
      "fzfg": false,
      "metar_trigger": false,
      "taf_trigger": false,
      "metar": "METAR LTFM 060620Z 20004KT 160V240 CAVOK 15/08 Q1017 NOSIG RMK RWY17L 18004KT 140V220 RWY34L 18003KT 130V220 RWY16R 16004KT 120V190 RWY36 VRB03KT RWY18 16005KT",
      "taf": "TAF LTFM 060440Z 0606/0712 VRB02KT CAVOK"
    },
    {
      "icao": "LUKK",
      "alert": "OK",
      "vis_m": 9999,
      "fzfg": false,
      "metar_trigger": false,
      "taf_trigger": false,
      "metar": "METAR LUKK 060630Z 24007KT 200V270 CAVOK 19/05 Q1015 NOSIG",
      "taf": "TAF LUKK 060504Z 0606/0706 21010KT CAVOK"
    },
    {
      "icao": "LWOH",
      "alert": "OK",
      "vis_m": 9999,
      "fzfg": false,
      "metar_trigger": false,
      "taf_trigger": false,
      "metar": "METAR LWOH 060620Z VRB01KT 9999 FEW050 SCT090 12/07 Q1018",
      "taf": "TAF LWOH 060520Z 0606/0706 16005KT 9999 FEW040 SCT100"
    },
    {
      "icao": "LWSK",
      "alert": "OK",
      "vis_m": 9999,
      "fzfg": false,
      "metar_trigger": false,
      "taf_trigger": false,
      "metar": "METAR LWSK 060620Z VRB02KT CAVOK 16/08 Q1017 NOSIG",
      "taf": "TAF LWSK 060520Z 0606/0706 VRB02KT CAVOK"
    },
    {
      "icao": "LYBE",
      "alert": "OK",
      "vis_m": 9999,
      "fzfg": false,
      "metar_trigger": false,
      "taf_trigger": false,
      "metar": "METAR LYBE 060630Z 12005KT CAVOK 19/11 Q1014 NOSIG",
      "taf": "TAF LYBE 060500Z 0606/0706 15005KT CAVOK TX28/0613Z TN15/0704Z"
    },
    {
      "icao": "LYNI",
      "alert": "OK",
      "vis_m": 9999,
      "fzfg": false,
      "metar_trigger": false,
      "taf_trigger": false,
      "metar": "METAR LYNI 060630Z VRB02KT CAVOK 17/06 Q1016 NOSIG",
      "taf": "TAF LYNI 060500Z 0606/0706 10005KT CAVOK TX28/0614Z TN12/0704Z"
    },
    {
      "icao": "LYPG",
      "alert": "OK",
      "vis_m": 9999,
      "fzfg": false,
      "metar_trigger": false,
      "taf_trigger": false,
      "metar": "METAR LYPG 060630Z VRB01KT CAVOK 18/07 Q1017 NOSIG",
      "taf": "TAF LYPG 060500Z 0606/0706 18008KT 9999 FEW060 SCT084 TX24/0613Z TN14/0704Z"
    },
    {
      "icao": "LZIB",
      "alert": "OK",
      "vis_m": 9999,
      "fzfg": false,
      "metar_trigger": false,
      "taf_trigger": false,
      "metar": "METAR LZIB 060630Z VRB01KT CAVOK 16/11 Q1009 NOSIG",
      "taf": "TAF LZIB 060515Z 0606/0706 20007KT CAVOK"
    },
    {
      "icao": "LZKZ",
      "alert": "OK",
      "vis_m": 9999,
      "fzfg": false,
      "metar_trigger": false,
      "taf_trigger": false,
      "metar": "METAR LZKZ 060630Z 20013KT CAVOK 16/08 Q1011 NOSIG",
      "taf": "TAF LZKZ 060515Z 0606/0706 21006KT CAVOK"
    },
    {
      "icao": "LZTT",
      "alert": "OK",
      "vis_m": 9999,
      "fzfg": false,
      "metar_trigger": false,
      "taf_trigger": false,
      "metar": "METAR LZTT 060630Z 25010KT 210V270 9999 FEW063 17/05 Q1009 NOSIG",
      "taf": "TAF LZTT 060515Z 0606/0706 25009KT 9999 FEW060"
    },
    {
      "icao": "OEJN",
      "alert": "OK",
      "vis_m": 9999,
      "fzfg": false,
      "metar_trigger": false,
      "taf_trigger": false,
      "metar": "METAR OEJN 060600Z 33013KT 9999 SCT040 29/14 Q1009 NOSIG",
      "taf": "TAF OEJN 060500Z 0606/0712 33015KT 9999 FEW040"
    },
    {
      "icao": "OEMA",
      "alert": "OK",
      "vis_m": 9999,
      "fzfg": false,
      "metar_trigger": false,
      "taf_trigger": false,
      "metar": "METAR OEMA 060600Z VRB02KT CAVOK 29/M02 Q1015 NOSIG",
      "taf": "TAF OEMA 060500Z 0606/0712 17005KT CAVOK"
    },
    {
      "icao": "OJAI",
      "alert": "OK",
      "vis_m": 5000,
      "fzfg": false,
      "metar_trigger": false,
      "taf_trigger": false,
      "metar": "METAR OJAI 060600Z 18004KT 5000 HZ SCT025 BKN030 12/07 Q1018 NOSIG",
      "taf": "TAF OJAI 060436Z 0606/0712 25004KT 5000 HZ FEW035"
    },
    {
      "icao": "OMAA",
      "alert": "OK",
      "vis_m": 9999,
      "fzfg": false,
      "metar_trigger": false,
      "taf_trigger": false,
      "metar": "METAR OMAA 060630Z 16008KT 120V200 CAVOK 36/17 Q1007 NOSIG",
      "taf": "TAF OMAA 060500Z 0606/0712 17013KT 8000 NSC"
    },
    {
      "icao": "OMDB",
      "alert": "OK",
      "vis_m": 9999,
      "fzfg": false,
      "metar_trigger": false,
      "taf_trigger": false,
      "metar": "METAR OMDB 060630Z 18008KT 140V220 CAVOK 38/15 Q1008 NOSIG",
      "taf": "TAF OMDB 060500Z 0606/0712 20007KT 8000 NSC"
    },
    {
      "icao": "UAAA",
      "alert": "OK",
      "vis_m": 9999,
      "fzfg": false,
      "metar_trigger": false,
      "taf_trigger": false,
      "metar": "METAR UAAA 060630Z 04003MPS 340V110 9999 SCT050 BKN200 24/10 Q1017 NOSIG",
      "taf": "TAF UAAA 060502Z 0606/0706 32003MPS 9999 FEW050CB SCT100 TX25/0608Z TN11/0701Z"
    },
    {
      "icao": "UBBB",
      "alert": "OK",
      "vis_m": 9999,
      "fzfg": false,
      "metar_trigger": false,
      "taf_trigger": false,
      "metar": "METAR UBBB 060630Z 35010KT 9999 -TSRA BKN040CB 13/10 Q1013 NOSIG",
      "taf": "TAF UBBB 060501Z 0606/0706 34010KT 9999 SCT012 FEW050CB TX16/0609Z TN10/0701Z"
    },
    {
      "icao": "UDSG",
      "alert": "OK",
      "vis_m": 9000,
      "fzfg": false,
      "metar_trigger": false,
      "taf_trigger": false,
      "metar": "METAR UDSG 060630Z 24002KT 9000 -SHRA BKN030CB 05/02 Q1015 NOSIG",
      "taf": "TAF UDSG 060458Z 0606/0706 24006KT 9999 SCT040"
    },
    {
      "icao": "UDYZ",
      "alert": "OK",
      "vis_m": 9999,
      "fzfg": false,
      "metar_trigger": false,
      "taf_trigger": false,
      "metar": "METAR UDYZ 060630Z 30005KT 270V340 9999 FEW043CB 17/04 Q1012 NOSIG",
      "taf": "TAF UDYZ 060500Z 0606/0706 19006KT 9999 SCT040"
    },
    {
      "icao": "UGKO",
      "alert": "OK",
      "vis_m": 9999,
      "fzfg": false,
      "metar_trigger": false,
      "taf_trigger": false,
      "metar": "METAR UGKO 060630Z 26008KT 9999 -SHRA SCT008 BKN022CB OVC053 12/11 Q1016 NOSIG",
      "taf": "TAF UGKO 060500Z 0606/0706 25007KT 9999 SCT020 BKN050 TX14/0611Z TN08/0702Z"
    }
  ]
}