{
  "ts_utc": "2026-07-22T07:30:20Z",
  "threshold_m": 150,
  "source": "stations_override.txt (ICAO list) + aviationweather.gov (METAR/TAF raw)",
  "station_count": 159,
  "stations": [
    {
      "icao": "BIKF",
      "alert": "OK",
      "vis_m": 9999,
      "fzfg": false,
      "metar_trigger": false,
      "taf_trigger": false,
      "metar": "METAR BIKF 220700Z 16016KT 9999 OVC005 12/11 Q1019",
      "taf": "TAF BIKF 220453Z 2206/2306 19020KT 2000 -RADZ BR OVC003 TX11/2214Z TN10/2305Z"
    },
    {
      "icao": "BKPR",
      "alert": "OK",
      "vis_m": null,
      "fzfg": false,
      "metar_trigger": false,
      "taf_trigger": false,
      "metar": "",
      "taf": "TAF BKPR 220530Z 2206/2306 35008KT 9999 SCT050"
    },
    {
      "icao": "EBCI",
      "alert": "OK",
      "vis_m": 9999,
      "fzfg": false,
      "metar_trigger": false,
      "taf_trigger": false,
      "metar": "METAR EBCI 220720Z 31004KT 270V020 9999 FEW021 BKN033 16/13 Q1025 NOSIG",
      "taf": "TAF EBCI 220501Z 2206/2312 33005KT 9999 FEW020 SCT040"
    },
    {
      "icao": "EDDB",
      "alert": "OK",
      "vis_m": 9999,
      "fzfg": false,
      "metar_trigger": false,
      "taf_trigger": false,
      "metar": "METAR EDDB 220720Z AUTO 26010KT 9999 FEW016 SCT022 OVC034 16/11 Q1018 NOSIG",
      "taf": "TAF EDDB 220500Z 2206/2306 26010KT 9999 BKN025"
    },
    {
      "icao": "EDDH",
      "alert": "OK",
      "vis_m": 9999,
      "fzfg": false,
      "metar_trigger": false,
      "taf_trigger": false,
      "metar": "METAR EDDH 220720Z AUTO 26008KT 230V300 9999 BKN006 BKN010 BKN041 15/14 Q1017 RERA TEMPO 2000 DZRA BKN004",
      "taf": ""
    },
    {
      "icao": "EDDK",
      "alert": "OK",
      "vis_m": 9999,
      "fzfg": false,
      "metar_trigger": false,
      "taf_trigger": false,
      "metar": "METAR EDDK 220720Z AUTO 24005KT 200V280 9999 FEW021 BKN039 17/12 Q1023 NOSIG",
      "taf": "TAF EDDK 220500Z 2206/2312 VRB03KT 9999 BKN040"
    },
    {
      "icao": "EDDN",
      "alert": "OK",
      "vis_m": 9999,
      "fzfg": false,
      "metar_trigger": false,
      "taf_trigger": false,
      "metar": "METAR EDDN 220720Z AUTO VRB02KT CAVOK 17/10 Q1022 NOSIG",
      "taf": "TAF EDDN 220500Z 2206/2306 VRB03KT CAVOK"
    },
    {
      "icao": "EDDS",
      "alert": "OK",
      "vis_m": 9999,
      "fzfg": false,
      "metar_trigger": false,
      "taf_trigger": false,
      "metar": "METAR EDDS 220720Z AUTO 34002KT CAVOK 19/08 Q1022 NOSIG",
      "taf": "TAF EDDS 220500Z 2206/2306 VRB03KT CAVOK"
    },
    {
      "icao": "EDFH",
      "alert": "OK",
      "vis_m": 9999,
      "fzfg": false,
      "metar_trigger": false,
      "taf_trigger": false,
      "metar": "METAR EDFH 220720Z 34004KT 270V050 CAVOK 14/09 Q1024",
      "taf": "TAF EDFH 220500Z 2206/2306 32007KT 9999 SCT040"
    },
    {
      "icao": "EDJA",
      "alert": "OK",
      "vis_m": 9999,
      "fzfg": false,
      "metar_trigger": false,
      "taf_trigger": false,
      "metar": "METAR EDJA 220720Z 20003KT 170V230 CAVOK 16/10 Q1023",
      "taf": "TAF EDJA 220500Z 2206/2215 VRB02KT CAVOK"
    },
    {
      "icao": "EDLW",
      "alert": "OK",
      "vis_m": 9999,
      "fzfg": false,
      "metar_trigger": false,
      "taf_trigger": false,
      "metar": "METAR EDLW 220720Z 25007KT 210V290 9999 SCT020 OVC038 16/12 Q1022",
      "taf": "TAF EDLW 220500Z 2206/2306 25005KT 9999 OVC035"
    },
    {
      "icao": "EDNY",
      "alert": "OK",
      "vis_m": 9999,
      "fzfg": false,
      "metar_trigger": false,
      "taf_trigger": false,
      "metar": "METAR EDNY 220720Z VRB02KT CAVOK 18/11 Q1023",
      "taf": "TAF EDNY 220500Z 2206/2215 05004KT CAVOK"
    },
    {
      "icao": "EDSB",
      "alert": "OK",
      "vis_m": 9999,
      "fzfg": false,
      "metar_trigger": false,
      "taf_trigger": false,
      "metar": "METAR EDSB 220720Z VRB02KT CAVOK 17/09 Q1023",
      "taf": "TAF EDSB 220500Z 2206/2306 VRB03KT CAVOK"
    },
    {
      "icao": "EETN",
      "alert": "OK",
      "vis_m": 9999,
      "fzfg": false,
      "metar_trigger": false,
      "taf_trigger": false,
      "metar": "METAR EETN 220720Z 32004KT 9999 SCT048 14/09 Q1007 TEMPO FEW030CB",
      "taf": "TAF EETN 220530Z 2206/2306 32008KT 9999 BKN025"
    },
    {
      "icao": "EFTU",
      "alert": "OK",
      "vis_m": 9999,
      "fzfg": false,
      "metar_trigger": false,
      "taf_trigger": false,
      "metar": "METAR EFTU 220720Z AUTO VRB02KT CAVOK 17/06 Q1008",
      "taf": "TAF EFTU 220525Z 2206/2306 32003KT CAVOK"
    },
    {
      "icao": "EGBB",
      "alert": "OK",
      "vis_m": 9999,
      "fzfg": false,
      "metar_trigger": false,
      "taf_trigger": false,
      "metar": "METAR EGBB 220720Z 34009KT 9999 BKN017 17/13 Q1027",
      "taf": "TAF EGBB 220453Z 2206/2306 05004KT 9999 FEW045"
    },
    {
      "icao": "EGGP",
      "alert": "OK",
      "vis_m": 9999,
      "fzfg": false,
      "metar_trigger": false,
      "taf_trigger": false,
      "metar": "METAR EGGP 220720Z 29006KT 270V330 9999 OVC019 16/10 Q1027",
      "taf": "TAF EGGP 220502Z 2206/2306 30007KT 9999 SCT020"
    },
    {
      "icao": "EGGW",
      "alert": "OK",
      "vis_m": 9999,
      "fzfg": false,
      "metar_trigger": false,
      "taf_trigger": false,
      "metar": "METAR EGGW 220720Z AUTO 15004KT 9999 NCD 17/12 Q1026",
      "taf": "TAF EGGW 220458Z 2206/2306 11004KT 9999 FEW045"
    },
    {
      "icao": "EGKK",
      "alert": "OK",
      "vis_m": 9999,
      "fzfg": false,
      "metar_trigger": false,
      "taf_trigger": false,
      "metar": "METAR EGKK 220720Z VRB02KT CAVOK 19/14 Q1026",
      "taf": "TAF EGKK 220455Z 2206/2312 VRB03KT 9999 FEW045"
    },
    {
      "icao": "EGNM",
      "alert": "OK",
      "vis_m": 9999,
      "fzfg": false,
      "metar_trigger": false,
      "taf_trigger": false,
      "metar": "METAR EGNM 220720Z 02005KT 9999 SCT008 BKN012 14/13 Q1027",
      "taf": ""
    },
    {
      "icao": "EGPD",
      "alert": "OK",
      "vis_m": 9999,
      "fzfg": false,
      "metar_trigger": false,
      "taf_trigger": false,
      "metar": "METAR EGPD 220720Z AUTO 31012KT 9999 SCT024 BKN030 OVC049 16/11 Q1026",
      "taf": "TAF EGPD 220456Z 2206/2306 31009KT 9999 SCT020"
    },
    {
      "icao": "EGPF",
      "alert": "OK",
      "vis_m": 9999,
      "fzfg": false,
      "metar_trigger": false,
      "taf_trigger": false,
      "metar": "METAR EGPF 220720Z AUTO 23004KT 190V270 9999 NCD 16/12 Q1028",
      "taf": "TAF EGPF 220454Z 2206/2306 26005KT CAVOK"
    },
    {
      "icao": "EHBK",
      "alert": "OK",
      "vis_m": 9999,
      "fzfg": false,
      "metar_trigger": false,
      "taf_trigger": false,
      "metar": "METAR EHBK 220725Z AUTO 25004KT 200V290 9999 FEW017/// OVC032/// 16/12 Q1024 NOSIG",
      "taf": "TAF EHBK 220442Z 2206/2312 29005KT 9999 SCT040"
    },
    {
      "icao": "EHEH",
      "alert": "OK",
      "vis_m": 9999,
      "fzfg": false,
      "metar_trigger": false,
      "taf_trigger": false,
      "metar": "METAR EHEH 220655Z AUTO 29005KT 250V350 9999 SCT014 OVC016 16/13 Q1024 WHT TEMPO 4500 -DZRA SCT010 BKN015",
      "taf": "TAF EHEH 220507Z 2206/2312 29001KT 9999 BKN030"
    },
    {
      "icao": "EKBI",
      "alert": "OK",
      "vis_m": 8000,
      "fzfg": false,
      "metar_trigger": false,
      "taf_trigger": false,
      "metar": "METAR EKBI 220720Z 27013KT 8000 -DZ BKN012 14/13 Q1013",
      "taf": "TAF EKBI 220527Z 2206/2306 26012KT 2800 RADZ BR BKN004"
    },
    {
      "icao": "EKCH",
      "alert": "OK",
      "vis_m": 9999,
      "fzfg": false,
      "metar_trigger": false,
      "taf_trigger": false,
      "metar": "METAR EKCH 220720Z 24014KT 9999 FEW009 BKN014 16/13 Q1012 TEMPO 3000 BKN008",
      "taf": "TAF EKCH 220527Z 2206/2306 25012KT 9999 BKN020"
    },
    {
      "icao": "ENAL",
      "alert": "OK",
      "vis_m": 9999,
      "fzfg": false,
      "metar_trigger": false,
      "taf_trigger": false,
      "metar": "METAR ENAL 220720Z 30004KT 260V330 9999 SCT036 BKN045 13/08 Q1019",
      "taf": "TAF ENAL 220500Z 2206/2215 32008KT 9999 -DZ FEW005 BKN018"
    },
    {
      "icao": "ENBR",
      "alert": "OK",
      "vis_m": 9999,
      "fzfg": false,
      "metar_trigger": false,
      "taf_trigger": false,
      "metar": "METAR ENBR 220720Z 32009KT 9999 FEW009 SCT011 BKN014 11/09 Q1018 TEMPO BKN010 RMK WIND 1200FT 33020KT",
      "taf": ""
    },
    {
      "icao": "ENGM",
      "alert": "OK",
      "vis_m": 9999,
      "fzfg": false,
      "metar_trigger": false,
      "taf_trigger": false,
      "metar": "METAR ENGM 220720Z 03016KT 360V060 9999 FEW037 17/07 Q1012 TEMPO 02016G26KT",
      "taf": ""
    },
    {
      "icao": "ENHD",
      "alert": "OK",
      "vis_m": 9999,
      "fzfg": false,
      "metar_trigger": false,
      "taf_trigger": false,
      "metar": "METAR ENHD 220720Z 33020KT 9999 FEW009 13/10 Q1018",
      "taf": "TAF ENHD 220500Z 2206/2215 32017KT 9999 SCT006"
    },
    {
      "icao": "ENTC",
      "alert": "OK",
      "vis_m": 9999,
      "fzfg": false,
      "metar_trigger": false,
      "taf_trigger": false,
      "metar": "METAR ENTC 220720Z 19009KT 9999 SCT013 BKN016 11/09 Q1007 TEMPO RA BKN010 RMK WIND 2600FT 23010KT",
      "taf": "TAF ENTC 220500Z 2206/2306 21010KT 9999 -SHRA FEW010 SCT018 BKN025"
    },
    {
      "icao": "ENTO",
      "alert": "OK",
      "vis_m": 9999,
      "fzfg": false,
      "metar_trigger": false,
      "taf_trigger": false,
      "metar": "METAR ENTO 220720Z 03011KT 360V060 9999 FEW035 18/10 Q1012 NOSIG",
      "taf": "TAF ENTO 220500Z 2206/2306 01015KT CAVOK"
    },
    {
      "icao": "ENVA",
      "alert": "OK",
      "vis_m": 9999,
      "fzfg": false,
      "metar_trigger": false,
      "taf_trigger": false,
      "metar": "METAR ENVA 220720Z 26016KT 9999 -DZ FEW011 SCT019 BKN026 11/10 Q1016 TEMPO BKN012 RMK WIND 670FT 27015KT",
      "taf": ""
    },
    {
      "icao": "ENZV",
      "alert": "OK",
      "vis_m": 9999,
      "fzfg": false,
      "metar_trigger": false,
      "taf_trigger": false,
      "metar": "METAR ENZV 220720Z 33016KT 9999 SCT010 14/10 Q1017 NOSIG",
      "taf": ""
    },
    {
      "icao": "EPGD",
      "alert": "OK",
      "vis_m": 9999,
      "fzfg": false,
      "metar_trigger": false,
      "taf_trigger": false,
      "metar": "METAR EPGD 220700Z 28013KT CAVOK 17/13 Q1013",
      "taf": "TAF EPGD 220530Z 2206/2306 26010KT CAVOK"
    },
    {
      "icao": "EPKK",
      "alert": "OK",
      "vis_m": 9999,
      "fzfg": false,
      "metar_trigger": false,
      "taf_trigger": false,
      "metar": "METAR EPKK 220700Z 22005KT 180V240 9999 FEW020 17/12 Q1018",
      "taf": "TAF EPKK 220530Z 2206/2306 24004KT CAVOK"
    },
    {
      "icao": "EPKT",
      "alert": "OK",
      "vis_m": 9999,
      "fzfg": false,
      "metar_trigger": false,
      "taf_trigger": false,
      "metar": "METAR EPKT 220700Z 25004KT 220V280 CAVOK 17/11 Q1018",
      "taf": "TAF EPKT 220530Z 2206/2306 27005KT CAVOK"
    },
    {
      "icao": "EPLB",
      "alert": "OK",
      "vis_m": 9999,
      "fzfg": false,
      "metar_trigger": false,
      "taf_trigger": false,
      "metar": "METAR EPLB 220700Z 30010KT CAVOK 17/09 Q1015",
      "taf": "TAF EPLB 220530Z 2206/2306 28012KT CAVOK"
    },
    {
      "icao": "EPMO",
      "alert": "OK",
      "vis_m": 9999,
      "fzfg": false,
      "metar_trigger": false,
      "taf_trigger": false,
      "metar": "METAR EPMO 220700Z 27011KT CAVOK 18/11 Q1015",
      "taf": "TAF EPMO 220530Z 2206/2306 27013KT CAVOK"
    },
    {
      "icao": "EPPO",
      "alert": "OK",
      "vis_m": 9999,
      "fzfg": false,
      "metar_trigger": false,
      "taf_trigger": false,
      "metar": "METAR EPPO 220700Z 25006KT 230V290 CAVOK 18/08 Q1017",
      "taf": "TAF EPPO 220530Z 2206/2306 23005KT CAVOK"
    },
    {
      "icao": "EPRA",
      "alert": "OK",
      "vis_m": 9999,
      "fzfg": false,
      "metar_trigger": false,
      "taf_trigger": false,
      "metar": "METAR EPRA 220700Z 30010KT 270V340 CAVOK 18/06 Q1016",
      "taf": "TAF EPRA 220530Z 2206/2215 28012KT CAVOK"
    },
    {
      "icao": "EPRZ",
      "alert": "OK",
      "vis_m": 9999,
      "fzfg": false,
      "metar_trigger": false,
      "taf_trigger": false,
      "metar": "METAR EPRZ 220700Z 30008KT 280V350 9999 FEW036 18/07 Q1017",
      "taf": "TAF EPRZ 220530Z 2206/2306 28008KT CAVOK"
    },
    {
      "icao": "EPSC",
      "alert": "OK",
      "vis_m": 9999,
      "fzfg": false,
      "metar_trigger": false,
      "taf_trigger": false,
      "metar": "METAR EPSC 220700Z 24008KT 220V290 9999 SCT017 SCT020 BKN023 16/11 Q1016",
      "taf": "TAF EPSC 220530Z 2206/2306 25008KT CAVOK"
    },
    {
      "icao": "EPSY",
      "alert": "OK",
      "vis_m": 9999,
      "fzfg": false,
      "metar_trigger": false,
      "taf_trigger": false,
      "metar": "METAR EPSY 220700Z 26005KT 190V350 CAVOK 16/10 Q1013",
      "taf": "TAF EPSY 220530Z 2206/2215 27004KT CAVOK"
    },
    {
      "icao": "EPWA",
      "alert": "OK",
      "vis_m": 9999,
      "fzfg": false,
      "metar_trigger": false,
      "taf_trigger": false,
      "metar": "METAR EPWA 220700Z 27012KT CAVOK 17/10 Q1015 NOSIG",
      "taf": "TAF EPWA 220530Z 2206/2306 27011KT CAVOK"
    },
    {
      "icao": "EPWR",
      "alert": "OK",
      "vis_m": 9999,
      "fzfg": false,
      "metar_trigger": false,
      "taf_trigger": false,
      "metar": "METAR EPWR 220700Z 27009KT 9999 FEW045 19/08 Q1018",
      "taf": "TAF EPWR 220530Z 2206/2306 24005KT CAVOK"
    },
    {
      "icao": "ESGG",
      "alert": "OK",
      "vis_m": 9999,
      "fzfg": false,
      "metar_trigger": false,
      "taf_trigger": false,
      "metar": "METAR ESGG 220720Z 01005KT 350V050 9999 SCT019 BKN025 16/12 Q1009",
      "taf": "TAF ESGG 220530Z 2206/2306 23006KT 9999 BKN020"
    },
    {
      "icao": "ESKN",
      "alert": "OK",
      "vis_m": 9999,
      "fzfg": false,
      "metar_trigger": false,
      "taf_trigger": false,
      "metar": "METAR ESKN 220720Z 25005KT 210V310 9999 FEW040 SCT100 18/14 Q1008",
      "taf": "TAF ESKN 220530Z 2206/2306 28006KT CAVOK"
    },
    {
      "icao": "ESMS",
      "alert": "OK",
      "vis_m": 9999,
      "fzfg": false,
      "metar_trigger": false,
      "taf_trigger": false,
      "metar": "METAR ESMS 220720Z 25007KT 9999 BKN008 14/14 Q1011",
      "taf": "TAF ESMS 220527Z 2206/2306 25010KT 9999 BKN020"
    },
    {
      "icao": "ESSA",
      "alert": "OK",
      "vis_m": 9999,
      "fzfg": false,
      "metar_trigger": false,
      "taf_trigger": false,
      "metar": "METAR ESSA 220720Z 00000KT 9999 FEW005 SCT078 14/12 Q1008 NOSIG",
      "taf": "TAF ESSA 220530Z 2206/2306 VRB03KT 9999 -RA SCT040"
    },
    {
      "icao": "EYKA",
      "alert": "OK",
      "vis_m": 9999,
      "fzfg": false,
      "metar_trigger": false,
      "taf_trigger": false,
      "metar": "METAR EYKA 220720Z 31006KT 270V350 9999 OVC011 13/12 Q1010",
      "taf": "TAF EYKA 220525Z 2206/2306 31009KT 9999 OVC010"
    },
    {
      "icao": "EYPA",
      "alert": "OK",
      "vis_m": 9999,
      "fzfg": false,
      "metar_trigger": false,
      "taf_trigger": false,
      "metar": "METAR EYPA 220720Z VRB02KT CAVOK 17/10 Q1011",
      "taf": "TAF EYPA 220513Z 2206/2306 26005KT 9999 SCT030"
    },
    {
      "icao": "EYVI",
      "alert": "OK",
      "vis_m": 4700,
      "fzfg": false,
      "metar_trigger": false,
      "taf_trigger": false,
      "metar": "METAR EYVI 220720Z VRB07KT 4700 BR OVC007 13/12 Q1009 NOSIG",
      "taf": "TAF EYVI 220500Z 2206/2306 30012KT 9000 BKN005"
    },
    {
      "icao": "GCFV",
      "alert": "OK",
      "vis_m": 9999,
      "fzfg": false,
      "metar_trigger": false,
      "taf_trigger": false,
      "metar": "METAR GCFV 220700Z 36014KT 9999 FEW019 22/18 Q1017",
      "taf": "TAF GCFV 220200Z 2203/2303 01014KT 9999 FEW020 TX27/2214Z TN22/2206Z"
    },
    {
      "icao": "GCLP",
      "alert": "OK",
      "vis_m": 9999,
      "fzfg": false,
      "metar_trigger": false,
      "taf_trigger": false,
      "metar": "METAR GCLP 220700Z 36021KT 9999 FEW022 SCT027 23/18 Q1017 NOSIG",
      "taf": "TAF GCLP 220200Z 2203/2303 36025KT 9999 SCT025 TX29/2214Z TN22/2206Z"
    },
    {
      "icao": "GCTS",
      "alert": "OK",
      "vis_m": 9999,
      "fzfg": false,
      "metar_trigger": false,
      "taf_trigger": false,
      "metar": "METAR GCTS 220700Z 34003KT 310V070 CAVOK 22/18 Q1018 NOSIG",
      "taf": "TAF GCTS 220200Z 2203/2303 05010KT CAVOK TX29/2214Z TN21/2206Z"
    },
    {
      "icao": "GMAD",
      "alert": "OK",
      "vis_m": 5000,
      "fzfg": false,
      "metar_trigger": false,
      "taf_trigger": false,
      "metar": "METAR GMAD 220700Z 24008KT 220V290 5000 OVC005 20/19 Q1014 NOSIG",
      "taf": "TAF GMAD 220500Z 2206/2312 25004KT 6000 SCT006"
    },
    {
      "icao": "GMMN",
      "alert": "OK",
      "vis_m": 9999,
      "fzfg": false,
      "metar_trigger": false,
      "taf_trigger": false,
      "metar": "METAR GMMN 220700Z 04009KT 9999 BKN010 22/19 Q1017 NOSIG",
      "taf": "TAF GMMN 220500Z 2206/2312 02004KT 9999 SCT010"
    },
    {
      "icao": "GMMX",
      "alert": "OK",
      "vis_m": 9999,
      "fzfg": false,
      "metar_trigger": false,
      "taf_trigger": false,
      "metar": "METAR GMMX 220700Z 24005KT 220V280 CAVOK 25/17 Q1016 NOSIG",
      "taf": "TAF GMMX 220500Z 2206/2312 30005KT 8000 NSC"
    },
    {
      "icao": "HEGN",
      "alert": "OK",
      "vis_m": 9999,
      "fzfg": false,
      "metar_trigger": false,
      "taf_trigger": false,
      "metar": "METAR HEGN 220700Z 35010KT CAVOK 35/11 Q1007 NOSIG",
      "taf": "TAF HEGN 220500Z 2206/2312 33010G20KT CAVOK"
    },
    {
      "icao": "HEMA",
      "alert": "OK",
      "vis_m": 9999,
      "fzfg": false,
      "metar_trigger": false,
      "taf_trigger": false,
      "metar": "METAR HEMA 220700Z 35024KT CAVOK 36/14 Q1005 NOSIG",
      "taf": "TAF HEMA 220500Z 2206/2312 34010G22KT CAVOK"
    },
    {
      "icao": "HESH",
      "alert": "OK",
      "vis_m": 9999,
      "fzfg": false,
      "metar_trigger": false,
      "taf_trigger": false,
      "metar": "METAR HESH 220700Z 36016KT CAVOK 35/15 Q1006 NOSIG",
      "taf": "TAF HESH 220500Z 2206/2312 35015KT CAVOK"
    },
    {
      "icao": "HESX",
      "alert": "OK",
      "vis_m": 9999,
      "fzfg": false,
      "metar_trigger": false,
      "taf_trigger": false,
      "metar": "METAR HESX 220700Z 29007KT CAVOK 28/21 Q1009 NOSIG",
      "taf": "TAF HESX 220500Z 2206/2312 28009KT CAVOK"
    },
    {
      "icao": "LATI",
      "alert": "OK",
      "vis_m": 9999,
      "fzfg": false,
      "metar_trigger": false,
      "taf_trigger": false,
      "metar": "METAR LATI 220720Z VRB01KT CAVOK 29/20 Q1012 NOSIG",
      "taf": "TAF LATI 220500Z 2206/2306 VRB05KT CAVOK TX33/2212Z TN17/2304Z"
    },
    {
      "icao": "LBPD",
      "alert": "OK",
      "vis_m": 9999,
      "fzfg": false,
      "metar_trigger": false,
      "taf_trigger": false,
      "metar": "METAR LBPD 220700Z AUTO VRB03KT 9999 BKN210/// 24/17 Q1012 NOSIG",
      "taf": "TAF LBPD 220500Z 2206/2306 27008KT 9999 SCT040 BKN050"
    },
    {
      "icao": "LBSF",
      "alert": "OK",
      "vis_m": 9999,
      "fzfg": false,
      "metar_trigger": false,
      "taf_trigger": false,
      "metar": "METAR LBSF 220700Z 29005KT 250V020 9999 FEW014 SCT063 20/16 Q1015 NOSIG",
      "taf": "TAF LBSF 220500Z 2206/2306 34012KT 9999 SCT040 BKN050"
    },
    {
      "icao": "LBWN",
      "alert": "OK",
      "vis_m": 9999,
      "fzfg": false,
      "metar_trigger": false,
      "taf_trigger": false,
      "metar": "METAR LBWN 220700Z 12008KT 080V160 9999 FEW018 26/22 Q1011 NOSIG",
      "taf": "TAF LBWN 220500Z 2206/2306 VRB03KT 9999 SCT045"
    },
    {
      "icao": "LCLK",
      "alert": "OK",
      "vis_m": 8000,
      "fzfg": false,
      "metar_trigger": false,
      "taf_trigger": false,
      "metar": "METAR LCLK 220700Z 16005KT 110V210 8000 FEW005 31/27 Q1006 NOSIG",
      "taf": "TAF LCLK 220530Z 2206/2306 14007KT 9999 FEW010"
    },
    {
      "icao": "LCPH",
      "alert": "OK",
      "vis_m": 9999,
      "fzfg": false,
      "metar_trigger": false,
      "taf_trigger": false,
      "metar": "METAR LCPH 220700Z VRB03KT CAVOK 28/22 Q1005 NOSIG",
      "taf": "TAF LCPH 220530Z 2206/2306 24007KT 9999 FEW015"
    },
    {
      "icao": "LEAL",
      "alert": "OK",
      "vis_m": 9999,
      "fzfg": false,
      "metar_trigger": false,
      "taf_trigger": false,
      "metar": "METAR LEAL 220700Z VRB02KT 9999 SCT009 29/23 Q1016 NOSIG",
      "taf": "TAF LEAL 220500Z 2206/2306 VRB04KT 9999 FEW010 TX35/2213Z TN25/2305Z"
    },
    {
      "icao": "LEBB",
      "alert": "OK",
      "vis_m": 9999,
      "fzfg": false,
      "metar_trigger": false,
      "taf_trigger": false,
      "metar": "METAR LEBB 220700Z 09005KT 030V130 CAVOK 20/15 Q1020 NOSIG",
      "taf": "TAF LEBB 220500Z 2206/2306 VRB03KT CAVOK TX30/2212Z TN17/2206Z"
    },
    {
      "icao": "LEBL",
      "alert": "OK",
      "vis_m": 9999,
      "fzfg": false,
      "metar_trigger": false,
      "taf_trigger": false,
      "metar": "METAR LEBL 220700Z 08009KT CAVOK 28/16 Q1018 NOSIG",
      "taf": "TAF LEBL 220500Z 2206/2306 09009KT 9999 FEW020 TX31/2213Z TN26/2206Z"
    },
    {
      "icao": "LECH",
      "alert": "OK",
      "vis_m": 9999,
      "fzfg": false,
      "metar_trigger": false,
      "taf_trigger": false,
      "metar": "METAR LECH 220700Z AUTO 04006KT 320V080 CAVOK 26/18 Q1020",
      "taf": "TAF LECH 220500Z 2206/2306 VRB04KT 9999 SCT010 TX34/2214Z TN24/2305Z"
    },
    {
      "icao": "LEMD",
      "alert": "OK",
      "vis_m": 9999,
      "fzfg": false,
      "metar_trigger": false,
      "taf_trigger": false,
      "metar": "METAR LEMD 220700Z 35004KT CAVOK 24/06 Q1019 NOSIG",
      "taf": "TAF LEMD 220500Z 2206/2312 VRB04KT CAVOK TX41/2216Z TN19/2305Z"
    },
    {
      "icao": "LEMG",
      "alert": "OK",
      "vis_m": 9999,
      "fzfg": false,
      "metar_trigger": false,
      "taf_trigger": false,
      "metar": "METAR LEMG 220700Z 29006KT 260V320 CAVOK 25/17 Q1016 NOSIG",
      "taf": "TAF LEMG 220500Z 2206/2306 30005KT CAVOK TX36/2214Z TN23/2305Z"
    },
    {
      "icao": "LEVC",
      "alert": "OK",
      "vis_m": 9000,
      "fzfg": false,
      "metar_trigger": false,
      "taf_trigger": false,
      "metar": "METAR LEVC 220700Z 08003KT 020V130 9000 FEW017 28/24 Q1017 NOSIG",
      "taf": ""
    },
    {
      "icao": "LEXJ",
      "alert": "OK",
      "vis_m": 9999,
      "fzfg": false,
      "metar_trigger": false,
      "taf_trigger": false,
      "metar": "METAR LEXJ 220700Z 21002KT CAVOK 19/15 Q1019",
      "taf": "TAF LEXJ 220200Z 2203/2303 VRB03KT CAVOK TX29/2212Z TN17/2205Z"
    },
    {
      "icao": "LEZG",
      "alert": "OK",
      "vis_m": 9999,
      "fzfg": false,
      "metar_trigger": false,
      "taf_trigger": false,
      "metar": "METAR LEZG 220700Z 28009KT CAVOK 24/09 Q1018 NOSIG",
      "taf": "TAF LEZG 220500Z 2206/2306 29009KT CAVOK TX40/2215Z TN24/2305Z"
    },
    {
      "icao": "LEZL",
      "alert": "OK",
      "vis_m": 9999,
      "fzfg": false,
      "metar_trigger": false,
      "taf_trigger": false,
      "metar": "METAR LEZL 220700Z 20003KT 100V270 CAVOK 25/17 Q1016 NOSIG",
      "taf": "TAF LEZL 220200Z 2203/2303 21008KT CAVOK TX40/2215Z TN23/2205Z"
    },
    {
      "icao": "LFBD",
      "alert": "OK",
      "vis_m": 9999,
      "fzfg": false,
      "metar_trigger": false,
      "taf_trigger": false,
      "metar": "METAR LFBD 220700Z AUTO 05010KT CAVOK 22/08 Q1020 NOSIG",
      "taf": "TAF LFBD 220500Z 2206/2312 03010KT CAVOK TX35/2215Z TN20/2206Z"
    },
    {
      "icao": "LFLL",
      "alert": "OK",
      "vis_m": 9999,
      "fzfg": false,
      "metar_trigger": false,
      "taf_trigger": false,
      "metar": "METAR LFLL 220700Z 35006KT 310V020 CAVOK 18/08 Q1022 NOSIG",
      "taf": "TAF LFLL 220500Z 2206/2312 35010KT CAVOK"
    },
    {
      "icao": "LFLS",
      "alert": "OK",
      "vis_m": 9999,
      "fzfg": false,
      "metar_trigger": false,
      "taf_trigger": false,
      "metar": "METAR LFLS 220700Z AUTO 27005KT 230V310 CAVOK 18/09 Q1021 NOSIG",
      "taf": "TAF LFLS 220200Z 2203/2303 25004KT CAVOK"
    },
    {
      "icao": "LFMN",
      "alert": "OK",
      "vis_m": 9999,
      "fzfg": false,
      "metar_trigger": false,
      "taf_trigger": false,
      "metar": "METAR LFMN 220700Z 32010KT 9999 FEW043 SCT070 28/10 Q1015 BECMG 16010KT",
      "taf": "TAF LFMN 220200Z 2203/2309 34010KT 9999 BKN020"
    },
    {
      "icao": "LFOB",
      "alert": "OK",
      "vis_m": 9999,
      "fzfg": false,
      "metar_trigger": false,
      "taf_trigger": false,
      "metar": "METAR LFOB 220700Z AUTO 36008KT 310V050 9999 BKN028 16/12 Q1026 NOSIG",
      "taf": "TAF LFOB 220500Z 2206/2306 36010KT CAVOK"
    },
    {
      "icao": "LFPO",
      "alert": "OK",
      "vis_m": 9999,
      "fzfg": false,
      "metar_trigger": false,
      "taf_trigger": false,
      "metar": "METAR LFPO 220700Z 02010KT 9999 FEW020 18/12 Q1025 NOSIG",
      "taf": "TAF LFPO 220500Z 2206/2312 02010KT CAVOK"
    },
    {
      "icao": "LFSB",
      "alert": "OK",
      "vis_m": 9999,
      "fzfg": false,
      "metar_trigger": false,
      "taf_trigger": false,
      "metar": "METAR LFSB 220700Z AUTO VRB01KT CAVOK 19/09 Q1023 NOSIG",
      "taf": "TAF LFSB 220500Z 2206/2306 VRB03KT CAVOK"
    },
    {
      "icao": "LGAV",
      "alert": "OK",
      "vis_m": 9999,
      "fzfg": false,
      "metar_trigger": false,
      "taf_trigger": false,
      "metar": "METAR LGAV 220720Z VRB03KT CAVOK 33/18 Q1012 NOSIG",
      "taf": "TAF LGAV 220500Z 2206/2306 VRB03KT 9999 FEW025"
    },
    {
      "icao": "LGTS",
      "alert": "OK",
      "vis_m": 9999,
      "fzfg": false,
      "metar_trigger": false,
      "taf_trigger": false,
      "metar": "METAR LGTS 220720Z 26009KT CAVOK 29/19 Q1011 NOSIG",
      "taf": "TAF LGTS 220500Z 2206/2306 VRB03KT 9999 FEW030"
    },
    {
      "icao": "LHBP",
      "alert": "OK",
      "vis_m": 9999,
      "fzfg": false,
      "metar_trigger": false,
      "taf_trigger": false,
      "metar": "METAR LHBP 220700Z 34007KT 310V010 CAVOK 20/08 Q1017 NOSIG",
      "taf": "TAF LHBP 220515Z 2206/2306 30005KT CAVOK"
    },
    {
      "icao": "LHDC",
      "alert": "OK",
      "vis_m": 9999,
      "fzfg": false,
      "metar_trigger": false,
      "taf_trigger": false,
      "metar": "METAR LHDC 220645Z AUTO 02012KT 340V060 9999 OVC072 //////TCU 20/09 Q1016 NOSIG",
      "taf": "TAF LHDC 220515Z 2206/2215 02012G22KT CAVOK"
    },
    {
      "icao": "LIBD",
      "alert": "OK",
      "vis_m": 9999,
      "fzfg": false,
      "metar_trigger": false,
      "taf_trigger": false,
      "metar": "METAR LIBD 220720Z 32009KT 280V360 9999 FEW020 26/20 Q1014",
      "taf": "TAF LIBD 220500Z 2206/2306 VRB05KT 9999 FEW040"
    },
    {
      "icao": "LIBG",
      "alert": "OK",
      "vis_m": 9999,
      "fzfg": false,
      "metar_trigger": false,
      "taf_trigger": false,
      "metar": "METAR LIBG 220720Z AUTO 01007KT 330V050 9999 NCD 29/19 Q1013",
      "taf": ""
    },
    {
      "icao": "LIBP",
      "alert": "OK",
      "vis_m": 9999,
      "fzfg": false,
      "metar_trigger": false,
      "taf_trigger": false,
      "metar": "METAR LIBP 220720Z AUTO 01007KT 330V050 9999 NCD 26/19 Q1016",
      "taf": "TAF LIBP 220500Z 2206/2306 VRB05KT 9999 FEW050"
    },
    {
      "icao": "LIBR",
      "alert": "OK",
      "vis_m": 9999,
      "fzfg": false,
      "metar_trigger": false,
      "taf_trigger": false,
      "metar": "METAR LIBR 220720Z 36009KT 9999 SCT020 28/23 Q1013",
      "taf": "TAF LIBR 220500Z 2206/2306 33013KT 9999 FEW040"
    },
    {
      "icao": "LICA",
      "alert": "OK",
      "vis_m": 9999,
      "fzfg": false,
      "metar_trigger": false,
      "taf_trigger": false,
      "metar": "METAR LICA 220720Z AUTO 21005KT 180V240 9999 NCD 33/16 Q1012",
      "taf": "TAF LICA 220500Z 2206/2306 VRB05KT CAVOK"
    },
    {
      "icao": "LICC",
      "alert": "OK",
      "vis_m": 9999,
      "fzfg": false,
      "metar_trigger": false,
      "taf_trigger": false,
      "metar": "METAR LICC 220720Z 27004KT 210V320 CAVOK 37/16 Q1011",
      "taf": "TAF LICC 220500Z 2206/2306 27010KT 9999 FEW020"
    },
    {
      "icao": "LICJ",
      "alert": "OK",
      "vis_m": 9999,
      "fzfg": false,
      "metar_trigger": false,
      "taf_trigger": false,
      "metar": "METAR LICJ 220720Z AUTO VRB02KT 9999 NCD 31/25 Q1013",
      "taf": "TAF LICJ 220500Z 2206/2306 28012KT CAVOK"
    },
    {
      "icao": "LIMC",
      "alert": "OK",
      "vis_m": 9999,
      "fzfg": false,
      "metar_trigger": false,
      "taf_trigger": false,
      "metar": "METAR LIMC 220720Z 34004KT 270V030 CAVOK 25/13 Q1019 NOSIG",
      "taf": "TAF LIMC 220500Z 2206/2312 VRB05KT 9999 FEW050"
    },
    {
      "icao": "LIME",
      "alert": "OK",
      "vis_m": 9999,
      "fzfg": false,
      "metar_trigger": false,
      "taf_trigger": false,
      "metar": "METAR LIME 220720Z VRB02KT 9999 SCT045 25/16 Q1019 NOSIG",
      "taf": "TAF LIME 220500Z 2206/2306 VRB05KT 9999 SCT030"
    },
    {
      "icao": "LIMF",
      "alert": "OK",
      "vis_m": 9999,
      "fzfg": false,
      "metar_trigger": false,
      "taf_trigger": false,
      "metar": "METAR LIMF 220720Z 07005KT 040V110 9999 FEW030 SCT070 24/17 Q1020",
      "taf": "TAF LIMF 220500Z 2206/2306 VRB05KT 9999 SCT030"
    },
    {
      "icao": "LIMJ",
      "alert": "OK",
      "vis_m": 9999,
      "fzfg": false,
      "metar_trigger": false,
      "taf_trigger": false,
      "metar": "METAR LIMJ 220720Z 04012KT CAVOK 26/17 Q1016",
      "taf": "TAF LIMJ 220500Z 2206/2306 01012KT 9999 SCT030"
    },
    {
      "icao": "LIPE",
      "alert": "OK",
      "vis_m": 9999,
      "fzfg": false,
      "metar_trigger": false,
      "taf_trigger": false,
      "metar": "METAR LIPE 220720Z 30005KT 260V340 9999 FEW040 22/18 Q1018",
      "taf": "TAF LIPE 220500Z 2206/2306 VRB04KT 9999 FEW030"
    },
    {
      "icao": "LIPH",
      "alert": "OK",
      "vis_m": 9999,
      "fzfg": false,
      "metar_trigger": false,
      "taf_trigger": false,
      "metar": "METAR LIPH 220720Z 07007KT 030V100 CAVOK 25/12 Q1018",
      "taf": "TAF LIPH 220500Z 2206/2306 05010KT 9999 FEW030"
    },
    {
      "icao": "LIPQ",
      "alert": "OK",
      "vis_m": 9999,
      "fzfg": false,
      "metar_trigger": false,
      "taf_trigger": false,
      "metar": "METAR LIPQ 220720Z AUTO 07005KT 020V110 9999 NCD 26/09 Q1018",
      "taf": "TAF LIPQ 220500Z 2206/2306 05012KT 9999 FEW040"
    },
    {
      "icao": "LIPR",
      "alert": "OK",
      "vis_m": 9999,
      "fzfg": false,
      "metar_trigger": false,
      "taf_trigger": false,
      "metar": "METAR LIPR 220720Z 36006KT 280V070 9999 BKN030 23/19 Q1017",
      "taf": "TAF LIPR 220500Z 2206/2306 VRB05KT 9999 FEW030"
    },
    {
      "icao": "LIPX",
      "alert": "OK",
      "vis_m": 9999,
      "fzfg": false,
      "metar_trigger": false,
      "taf_trigger": false,
      "metar": "METAR LIPX 220720Z AUTO 10006KT 060V140 9999 FEW094/// 26/13 Q1018",
      "taf": "TAF LIPX 220500Z 2206/2306 VRB05KT 9999 SCT050"
    },
    {
      "icao": "LIPY",
      "alert": "OK",
      "vis_m": 9999,
      "fzfg": false,
      "metar_trigger": false,
      "taf_trigger": false,
      "metar": "METAR LIPY 220720Z AUTO VRB03KT 9999 NCD 25/19 Q1017",
      "taf": "TAF LIPY 220500Z 2206/2306 VRB06KT 9999 SCT040"
    },
    {
      "icao": "LIPZ",
      "alert": "OK",
      "vis_m": 9999,
      "fzfg": false,
      "metar_trigger": false,
      "taf_trigger": false,
      "metar": "METAR LIPZ 220720Z 05009KT CAVOK 25/13 Q1018 NOSIG",
      "taf": "TAF LIPZ 220500Z 2206/2312 04010KT 9999 FEW040"
    },
    {
      "icao": "LIRF",
      "alert": "OK",
      "vis_m": 9999,
      "fzfg": false,
      "metar_trigger": false,
      "taf_trigger": false,
      "metar": "METAR LIRF 220720Z 04007KT CAVOK 29/19 Q1013 NOSIG",
      "taf": "TAF LIRF 220500Z 2206/2312 03010KT CAVOK"
    },
    {
      "icao": "LIRN",
      "alert": "OK",
      "vis_m": 9999,
      "fzfg": false,
      "metar_trigger": false,
      "taf_trigger": false,
      "metar": "METAR LIRN 220720Z 03006KT 360V070 CAVOK 30/16 Q1013 NOSIG",
      "taf": "TAF LIRN 220500Z 2206/2306 03010KT CAVOK"
    },
    {
      "icao": "LIRP",
      "alert": "OK",
      "vis_m": 9999,
      "fzfg": false,
      "metar_trigger": false,
      "taf_trigger": false,
      "metar": "METAR LIRP 220715Z 10008KT CAVOK 28/13 Q1015 NOSIG",
      "taf": "TAF LIRP 220500Z 2206/2306 12010KT CAVOK"
    },
    {
      "icao": "LIRZ",
      "alert": "OK",
      "vis_m": 9999,
      "fzfg": false,
      "metar_trigger": false,
      "taf_trigger": false,
      "metar": "METAR LIRZ 220720Z AUTO 03014KT 9999 NCD 25/15 Q1016",
      "taf": "TAF LIRZ 220500Z 2206/2306 04012KT 9999 FEW040"
    },
    {
      "icao": "LJLJ",
      "alert": "OK",
      "vis_m": 9999,
      "fzfg": false,
      "metar_trigger": false,
      "taf_trigger": false,
      "metar": "METAR LJLJ 220700Z VRB01KT 9999 FEW075 17/12 Q1021 NOSIG",
      "taf": "TAF LJLJ 220500Z 2206/2306 VRB02KT 9999 FEW075"
    },
    {
      "icao": "LKMT",
      "alert": "OK",
      "vis_m": 9999,
      "fzfg": false,
      "metar_trigger": false,
      "taf_trigger": false,
      "metar": "METAR LKMT 220700Z 32004KT 270V020 CAVOK 18/07 Q1019 NOSIG",
      "taf": "TAF LKMT 220500Z 2206/2306 36006KT CAVOK"
    },
    {
      "icao": "LKPR",
      "alert": "OK",
      "vis_m": 9999,
      "fzfg": false,
      "metar_trigger": false,
      "taf_trigger": false,
      "metar": "METAR LKPR 220700Z 25007KT CAVOK 17/08 Q1020 NOSIG",
      "taf": "TAF LKPR 220500Z 2206/2312 25007KT CAVOK"
    },
    {
      "icao": "LLBG",
      "alert": "OK",
      "vis_m": 9999,
      "fzfg": false,
      "metar_trigger": false,
      "taf_trigger": false,
      "metar": "METAR LLBG 220720Z 24006KT 200V280 CAVOK 31/21 Q1007 NOSIG",
      "taf": "TAF LLBG 220503Z 2206/2306 19007KT 9999 FEW020 TX34/2211Z TN25/2303Z"
    },
    {
      "icao": "LMML",
      "alert": "OK",
      "vis_m": 9999,
      "fzfg": false,
      "metar_trigger": false,
      "taf_trigger": false,
      "metar": "METAR LMML 220715Z 26010KT 230V290 CAVOK 36/17 Q1014 NOSIG",
      "taf": "TAF LMML 220500Z 2206/2306 29013KT CAVOK"
    },
    {
      "icao": "LOWW",
      "alert": "OK",
      "vis_m": 9999,
      "fzfg": false,
      "metar_trigger": false,
      "taf_trigger": false,
      "metar": "METAR LOWW 220720Z 34010KT 300V010 CAVOK 21/08 Q1020 NOSIG",
      "taf": "TAF LOWW 220515Z 2206/2312 32010KT 9999 FEW050 TX25/2214Z TN15/2303Z"
    },
    {
      "icao": "LPFR",
      "alert": "OK",
      "vis_m": 9999,
      "fzfg": false,
      "metar_trigger": false,
      "taf_trigger": false,
      "metar": "METAR LPFR 220700Z 21002KT CAVOK 22/17 Q1016",
      "taf": "TAF LPFR 220500Z 2206/2306 31008KT CAVOK"
    },
    {
      "icao": "LPMA",
      "alert": "OK",
      "vis_m": 9999,
      "fzfg": false,
      "metar_trigger": false,
      "taf_trigger": false,
      "metar": "METAR LPMA 220700Z 01009KT 330V040 9999 SCT015 22/17 Q1021",
      "taf": "TAF LPMA 220500Z 2206/2306 02010KT 9999 SCT015"
    },
    {
      "icao": "LPPR",
      "alert": "OK",
      "vis_m": 6000,
      "fzfg": false,
      "metar_trigger": false,
      "taf_trigger": false,
      "metar": "METAR LPPR 220700Z 10005KT 070V130 6000 FEW013 BKN018 20/18 Q1018",
      "taf": "TAF LPPR 220500Z 2206/2306 VRB02KT 9999 FEW012"
    },
    {
      "icao": "LPPS",
      "alert": "OK",
      "vis_m": 9999,
      "fzfg": false,
      "metar_trigger": false,
      "taf_trigger": false,
      "metar": "METAR LPPS 220700Z 03008KT 360V060 9999 FEW015 22/17 Q1021",
      "taf": "TAF LPPS 220500Z 2206/2312 02010KT 9999 SCT015"
    },
    {
      "icao": "LPPT",
      "alert": "OK",
      "vis_m": 9999,
      "fzfg": false,
      "metar_trigger": false,
      "taf_trigger": false,
      "metar": "METAR LPPT 220700Z VRB02KT 9999 FEW010 20/18 Q1018 NOSIG",
      "taf": "TAF LPPT 220500Z 2206/2312 30010KT CAVOK"
    },
    {
      "icao": "LQBK",
      "alert": "OK",
      "vis_m": 9999,
      "fzfg": false,
      "metar_trigger": false,
      "taf_trigger": false,
      "metar": "METAR LQBK 220700Z 30006KT 260V330 9999 FEW035 20/13 Q1020 NOSIG",
      "taf": "TAF LQBK 220500Z 2206/2306 16005KT CAVOK TX24/2213Z TN12/2303Z"
    },
    {
      "icao": "LQSA",
      "alert": "OK",
      "vis_m": 9999,
      "fzfg": false,
      "metar_trigger": false,
      "taf_trigger": false,
      "metar": "METAR LQSA 220700Z 31006KT 9999 SCT020 BKN060 16/14 Q1020 NOSIG",
      "taf": "TAF LQSA 220500Z 2206/2306 30005KT 9999 BKN040 TX23/2213Z TN11/2304Z"
    },
    {
      "icao": "LQTZ",
      "alert": "OK",
      "vis_m": 9999,
      "fzfg": false,
      "metar_trigger": false,
      "taf_trigger": false,
      "metar": "METAR LQTZ 220700Z 29006KT 250V320 9999 FEW030 18/15 Q1019",
      "taf": "TAF LQTZ 220500Z 2206/2306 27005KT 9999 SCT045 TX24/2214Z TN10/2303Z"
    },
    {
      "icao": "LRBC",
      "alert": "OK",
      "vis_m": 9999,
      "fzfg": false,
      "metar_trigger": false,
      "taf_trigger": false,
      "metar": "METAR LRBC 220700Z 34012KT CAVOK 19/12 Q1015",
      "taf": "TAF LRBC 220500Z 2206/2215 34014KT CAVOK"
    },
    {
      "icao": "LRBS",
      "alert": "OK",
      "vis_m": 9999,
      "fzfg": false,
      "metar_trigger": false,
      "taf_trigger": false,
      "metar": "METAR LRBS 220700Z 05010KT 020V080 9999 -TSRA FEW013 BKN045CB 17/16 Q1012 NOSIG",
      "taf": "TAF LRBS 220500Z 2206/2306 05010KT 9999 FEW035CB"
    },
    {
      "icao": "LRBV",
      "alert": "OK",
      "vis_m": 5000,
      "fzfg": false,
      "metar_trigger": false,
      "taf_trigger": false,
      "metar": "METAR LRBV 220700Z COR 28005KT 240V320 5000 -SHRA BR FEW015 FEW038CB BKN074 14/13 Q1016 RESHRA",
      "taf": "TAF LRBV 220500Z 2206/2215 21007KT 9999 FEW045CB BKN060"
    },
    {
      "icao": "LRCL",
      "alert": "OK",
      "vis_m": 9999,
      "fzfg": false,
      "metar_trigger": false,
      "taf_trigger": false,
      "metar": "METAR LRCL 220700Z VRB01KT 9999 BKN065 17/12 Q1015",
      "taf": "TAF LRCL 220500Z 2206/2215 30007KT 9999 BKN050"
    },
    {
      "icao": "LRCV",
      "alert": "OK",
      "vis_m": 9999,
      "fzfg": false,
      "metar_trigger": false,
      "taf_trigger": false,
      "metar": "METAR LRCV 220700Z 09008KT CAVOK 19/18 Q1013",
      "taf": "TAF LRCV 220500Z 2206/2215 10007KT CAVOK"
    },
    {
      "icao": "LRIA",
      "alert": "OK",
      "vis_m": 9999,
      "fzfg": false,
      "metar_trigger": false,
      "taf_trigger": false,
      "metar": "METAR LRIA 220700Z 33008KT 300V020 CAVOK 20/11 Q1015",
      "taf": "TAF LRIA 220500Z 2206/2215 30006KT CAVOK"
    },
    {
      "icao": "LROP",
      "alert": "OK",
      "vis_m": 9999,
      "fzfg": false,
      "metar_trigger": false,
      "taf_trigger": false,
      "metar": "METAR LROP 220700Z 07015KT 9999 -TSRA FEW020 SCT037CB 17/16 Q1013 RESHRA TEMPO VRB20KT 5000 TSRA BKN010 BKN030CB",
      "taf": "TAF LROP 220500Z 2206/2306 05010KT 9999 FEW035CB"
    },
    {
      "icao": "LRSB",
      "alert": "OK",
      "vis_m": 9999,
      "fzfg": false,
      "metar_trigger": false,
      "taf_trigger": false,
      "metar": "METAR LRSB 220700Z VRB02KT 9999 FEW023 SCT035 BKN060 16/13 Q1016 NOSIG",
      "taf": "TAF LRSB 220500Z 2206/2306 VRB04KT 9999 SCT040 BKN060"
    },
    {
      "icao": "LRSM",
      "alert": "OK",
      "vis_m": 9999,
      "fzfg": false,
      "metar_trigger": false,
      "taf_trigger": false,
      "metar": "METAR LRSM 220700Z 35011KT CAVOK 20/10 Q1015",
      "taf": "TAF LRSM 220500Z 2206/2215 VRB04KT CAVOK"
    },
    {
      "icao": "LRSV",
      "alert": "OK",
      "vis_m": 9999,
      "fzfg": false,
      "metar_trigger": false,
      "taf_trigger": false,
      "metar": "METAR LRSV 220700Z 33006KT 280V360 CAVOK 16/10 Q1016",
      "taf": "TAF LRSV 220500Z 2206/2215 33010KT CAVOK"
    },
    {
      "icao": "LRTM",
      "alert": "OK",
      "vis_m": 9999,
      "fzfg": false,
      "metar_trigger": false,
      "taf_trigger": false,
      "metar": "METAR LRTM 220700Z 08006KT 9999 FEW043 17/15 Q1015",
      "taf": "TAF LRTM 220500Z 2206/2215 VRB04KT 9999 SCT045"
    },
    {
      "icao": "LRTR",
      "alert": "OK",
      "vis_m": 9999,
      "fzfg": false,
      "metar_trigger": false,
      "taf_trigger": false,
      "metar": "METAR LRTR 220700Z 25004KT 190V300 CAVOK 18/14 Q1016",
      "taf": "TAF LRTR 220500Z 2206/2306 33010KT 9999 SCT045"
    },
    {
      "icao": "LTAC",
      "alert": "OK",
      "vis_m": 9999,
      "fzfg": false,
      "metar_trigger": false,
      "taf_trigger": false,
      "metar": "METAR LTAC 220720Z VRB07KT CAVOK 25/11 Q1016 NOSIG RMK RWY21C 04007KT 340V070 RWY03L 04007KT 330V110 RWY21R 36006KT 290V050 RWY03R 03005KT 330V080 RWY21L 36006KT 310V090",
      "taf": "TAF LTAC 220440Z 2206/2306 VRB02KT CAVOK"
    },
    {
      "icao": "LTFM",
      "alert": "OK",
      "vis_m": 9999,
      "fzfg": false,
      "metar_trigger": false,
      "taf_trigger": false,
      "metar": "METAR LTFM 220720Z 12008KT 090V150 CAVOK 28/18 Q1012 NOSIG RMK RWY17L 09012KT RWY34L 11008KT 080V140 RWY16R 09010KT RWY36 08009KT 030V130 RWY18 08012KT",
      "taf": "TAF LTFM 220440Z 2206/2312 08012G22KT CAVOK"
    },
    {
      "icao": "LUKK",
      "alert": "OK",
      "vis_m": 9999,
      "fzfg": false,
      "metar_trigger": false,
      "taf_trigger": false,
      "metar": "METAR LUKK 220700Z 04010KT CAVOK 22/13 Q1014 NOSIG",
      "taf": "TAF LUKK 220504Z 2206/2306 35009KT CAVOK"
    },
    {
      "icao": "LWOH",
      "alert": "OK",
      "vis_m": 9999,
      "fzfg": false,
      "metar_trigger": false,
      "taf_trigger": false,
      "metar": "METAR LWOH 220720Z VRB02KT 9999 FEW035 23/16 Q1016",
      "taf": "TAF LWOH 220515Z 2206/2306 VRB02KT 9999 FEW040 SCT100"
    },
    {
      "icao": "LWSK",
      "alert": "OK",
      "vis_m": 9999,
      "fzfg": false,
      "metar_trigger": false,
      "taf_trigger": false,
      "metar": "METAR LWSK 220720Z 02011KT 350V060 9999 BKN030 23/18 Q1014 NOSIG",
      "taf": "TAF LWSK 220515Z 2206/2306 VRB02KT 9999 FEW040 SCT100"
    },
    {
      "icao": "LYBE",
      "alert": "OK",
      "vis_m": 9999,
      "fzfg": false,
      "metar_trigger": false,
      "taf_trigger": false,
      "metar": "METAR LYBE 220700Z 26010KT CAVOK 17/15 Q1018 NOSIG",
      "taf": "TAF LYBE 220500Z 2206/2306 33008KT CAVOK TX26/2214Z TN13/2303Z"
    },
    {
      "icao": "LYNI",
      "alert": "OK",
      "vis_m": 9999,
      "fzfg": false,
      "metar_trigger": false,
      "taf_trigger": false,
      "metar": "METAR LYNI 220700Z 31024G34KT 9999 FEW020 SCT040 BKN070 19/14 Q1016 NOSIG",
      "taf": ""
    },
    {
      "icao": "LYPG",
      "alert": "OK",
      "vis_m": 9999,
      "fzfg": false,
      "metar_trigger": false,
      "taf_trigger": false,
      "metar": "METAR LYPG 220700Z 36009KT 320V030 9999 FEW015 26/17 Q1013 NOSIG",
      "taf": "TAF LYPG 220500Z 2206/2306 34008KT 9999 FEW040 TX32/2213Z TN22/2303Z"
    },
    {
      "icao": "LZIB",
      "alert": "OK",
      "vis_m": 9999,
      "fzfg": false,
      "metar_trigger": false,
      "taf_trigger": false,
      "metar": "METAR LZIB 220700Z 30010KT CAVOK 20/09 Q1019 NOSIG",
      "taf": "TAF LZIB 220515Z 2206/2306 33007KT CAVOK"
    },
    {
      "icao": "LZKZ",
      "alert": "OK",
      "vis_m": 9999,
      "fzfg": false,
      "metar_trigger": false,
      "taf_trigger": false,
      "metar": "METAR LZKZ 220700Z 01016KT 9999 SCT043 19/09 Q1017 NOSIG",
      "taf": "TAF LZKZ 220515Z 2206/2306 02008KT CAVOK"
    },
    {
      "icao": "LZTT",
      "alert": "OK",
      "vis_m": 9999,
      "fzfg": false,
      "metar_trigger": false,
      "taf_trigger": false,
      "metar": "METAR LZTT 220700Z VRB03KT 9999 SCT033 16/07 Q1018 NOSIG",
      "taf": "TAF LZTT 220515Z 2206/2306 29005KT 9999 FEW040 SCT060"
    },
    {
      "icao": "OEJN",
      "alert": "OK",
      "vis_m": 6000,
      "fzfg": false,
      "metar_trigger": false,
      "taf_trigger": false,
      "metar": "METAR OEJN 220700Z 20008KT 6000 NSC 36/24 Q1005 NOSIG",
      "taf": "TAF OEJN 220500Z 2206/2312 23012KT 9999 SCT040"
    },
    {
      "icao": "OEMA",
      "alert": "OK",
      "vis_m": 9999,
      "fzfg": false,
      "metar_trigger": false,
      "taf_trigger": false,
      "metar": "METAR OEMA 220700Z 29005KT CAVOK 40/M02 Q1009 NOSIG",
      "taf": "TAF OEMA 220500Z 2206/2312 27014KT CAVOK"
    },
    {
      "icao": "OJAI",
      "alert": "OK",
      "vis_m": 5000,
      "fzfg": false,
      "metar_trigger": false,
      "taf_trigger": false,
      "metar": "METAR OJAI 220700Z 27010KT 5000 HZ NSC 29/12 Q1012 NOSIG",
      "taf": ""
    },
    {
      "icao": "OMAA",
      "alert": "OK",
      "vis_m": null,
      "fzfg": false,
      "metar_trigger": false,
      "taf_trigger": false,
      "metar": "",
      "taf": "TAF OMAA 220500Z 2206/2312 29013KT 8000 NSC"
    },
    {
      "icao": "OMDB",
      "alert": "OK",
      "vis_m": null,
      "fzfg": false,
      "metar_trigger": false,
      "taf_trigger": false,
      "metar": "",
      "taf": "TAF OMDB 220500Z 2206/2312 21008KT 8000 NSC"
    },
    {
      "icao": "UAAA",
      "alert": "OK",
      "vis_m": 9999,
      "fzfg": false,
      "metar_trigger": false,
      "taf_trigger": false,
      "metar": "METAR UAAA 220700Z 36003MPS 9999 SCT050CB BKN100 27/14 Q1007 NOSIG",
      "taf": "TAF UAAA 220507Z 2206/2306 04003MPS 9999 SCT050CB BKN100 TX27/2209Z TN18/2300Z"
    },
    {
      "icao": "UBBB",
      "alert": "OK",
      "vis_m": 9999,
      "fzfg": false,
      "metar_trigger": false,
      "taf_trigger": false,
      "metar": "METAR UBBB 220700Z 16010KT 100V200 CAVOK 31/15 Q1010 NOSIG",
      "taf": "TAF UBBB 220503Z 2206/2306 15008KT CAVOK TX33/2210Z TN22/2301Z"
    },
    {
      "icao": "UDSG",
      "alert": "OK",
      "vis_m": 9999,
      "fzfg": false,
      "metar_trigger": false,
      "taf_trigger": false,
      "metar": "METAR UDSG 220700Z VRB02KT 9999 FEW049 24/12 Q1018 NOSIG",
      "taf": "TAF UDSG 220458Z 2206/2306 06006KT 9999 SCT050"
    },
    {
      "icao": "UDYZ",
      "alert": "OK",
      "vis_m": 9999,
      "fzfg": false,
      "metar_trigger": false,
      "taf_trigger": false,
      "metar": "METAR UDYZ 220700Z 28006KT 9999 SCT043CB 26/15 Q1013 NOSIG",
      "taf": "TAF UDYZ 220500Z 2206/2306 20006KT 9999 FEW040"
    },
    {
      "icao": "UGKO",
      "alert": "OK",
      "vis_m": 9999,
      "fzfg": false,
      "metar_trigger": false,
      "taf_trigger": false,
      "metar": "METAR UGKO 220700Z 24004KT 210V280 9999 SCT040 BKN053 24/19 Q1012 NOSIG",
      "taf": "TAF UGKO 220500Z 2206/2306 26006KT 9999 SCT022 BKN045 TX28/2211Z TN20/2302Z"
    }
  ]
}