{
  "ts_utc": "2026-03-12T22:48:40Z",
  "threshold_m": 150,
  "source": "stations_override.txt (ICAO list) + aviationweather.gov (METAR/TAF raw)",
  "station_count": 159,
  "stations": [
    {
      "icao": "BIKF",
      "alert": "OK",
      "vis_m": 9999,
      "fzfg": false,
      "metar_trigger": false,
      "taf_trigger": false,
      "metar": "METAR BIKF 122230Z 34019KT 9999 BKN021 01/M03 Q0972",
      "taf": "TAF BIKF 121957Z 1221/1321 34025G35KT 9999 SCT018 BKN028 TX03/1314Z TNM00/1221Z"
    },
    {
      "icao": "BKPR",
      "alert": "OK",
      "vis_m": 9999,
      "fzfg": false,
      "metar_trigger": false,
      "taf_trigger": false,
      "metar": "METAR BKPR 122230Z 34010KT CAVOK 08/M00 Q1021 NOSIG",
      "taf": "TAF BKPR 121730Z 1218/1318 VRB03KT 9999 FEW050"
    },
    {
      "icao": "EBCI",
      "alert": "OK",
      "vis_m": 9999,
      "fzfg": false,
      "metar_trigger": false,
      "taf_trigger": false,
      "metar": "METAR EBCI 122220Z 20021G31KT CAVOK 09/04 Q1013 TEMPO 20015G25KT",
      "taf": "TAF EBCI 121705Z 1218/1324 20015G25KT 9999 FEW030"
    },
    {
      "icao": "EDDB",
      "alert": "OK",
      "vis_m": 9999,
      "fzfg": false,
      "metar_trigger": false,
      "taf_trigger": false,
      "metar": "METAR EDDB 122220Z AUTO 17009KT CAVOK 06/01 Q1017 NOSIG",
      "taf": "TAF EDDB 121700Z 1218/1318 17009KT CAVOK"
    },
    {
      "icao": "EDDH",
      "alert": "OK",
      "vis_m": 9999,
      "fzfg": false,
      "metar_trigger": false,
      "taf_trigger": false,
      "metar": "METAR EDDH 122220Z AUTO 19013KT CAVOK 09/02 Q1012 NOSIG",
      "taf": "TAF EDDH 121700Z 1218/1324 20012KT 9999 SCT030"
    },
    {
      "icao": "EDDK",
      "alert": "OK",
      "vis_m": 9999,
      "fzfg": false,
      "metar_trigger": false,
      "taf_trigger": false,
      "metar": "METAR EDDK 122220Z AUTO 15009KT 9999 FEW041 07/02 Q1016 NOSIG",
      "taf": "TAF EDDK 121700Z 1218/1324 15008KT CAVOK"
    },
    {
      "icao": "EDDN",
      "alert": "OK",
      "vis_m": 9999,
      "fzfg": false,
      "metar_trigger": false,
      "taf_trigger": false,
      "metar": "METAR EDDN 122220Z AUTO 12007KT CAVOK 03/00 Q1020",
      "taf": "TAF EDDN 121700Z 1218/1318 16003KT CAVOK"
    },
    {
      "icao": "EDDS",
      "alert": "OK",
      "vis_m": 9999,
      "fzfg": false,
      "metar_trigger": false,
      "taf_trigger": false,
      "metar": "METAR EDDS 122220Z AUTO VRB02KT CAVOK 05/01 Q1020",
      "taf": "TAF EDDS 121700Z 1218/1318 26004KT CAVOK"
    },
    {
      "icao": "EDFH",
      "alert": "OK",
      "vis_m": 9999,
      "fzfg": false,
      "metar_trigger": false,
      "taf_trigger": false,
      "metar": "METAR EDFH 122220Z 21011KT CAVOK 05/01 Q1017",
      "taf": "TAF EDFH 121700Z 1218/1318 21012KT 9999 SCT035"
    },
    {
      "icao": "EDJA",
      "alert": "OK",
      "vis_m": 9999,
      "fzfg": false,
      "metar_trigger": false,
      "taf_trigger": false,
      "metar": "METAR EDJA 122220Z AUTO 15004KT 9999 // FEW140/// 02/01 Q1021",
      "taf": "TAF EDJA 121700Z 1218/1303 VRB03KT CAVOK"
    },
    {
      "icao": "EDLW",
      "alert": "OK",
      "vis_m": 9999,
      "fzfg": false,
      "metar_trigger": false,
      "taf_trigger": false,
      "metar": "METAR EDLW 122220Z AUTO 19011KT 9999 // FEW250/// 08/02 Q1014",
      "taf": "TAF EDLW 121700Z 1218/1318 21012KT CAVOK"
    },
    {
      "icao": "EDNY",
      "alert": "OK",
      "vis_m": 9999,
      "fzfg": false,
      "metar_trigger": false,
      "taf_trigger": false,
      "metar": "METAR EDNY 122220Z AUTO 00000KT 9999 // NCD 01/01 Q1021",
      "taf": "TAF EDNY 121700Z 1218/1303 VRB02KT CAVOK"
    },
    {
      "icao": "EDSB",
      "alert": "OK",
      "vis_m": 9999,
      "fzfg": false,
      "metar_trigger": false,
      "taf_trigger": false,
      "metar": "METAR EDSB 122220Z COR 21004KT CAVOK 06/02 Q1020",
      "taf": "TAF EDSB 121700Z 1218/1318 20005KT CAVOK"
    },
    {
      "icao": "EETN",
      "alert": "OK",
      "vis_m": 9999,
      "fzfg": false,
      "metar_trigger": false,
      "taf_trigger": false,
      "metar": "METAR EETN 122220Z 20011KT 9999 OVC006 03/02 Q1014",
      "taf": "TAF EETN 121730Z 1218/1318 21012KT 9999 SCT020"
    },
    {
      "icao": "EFTU",
      "alert": "OK",
      "vis_m": 9999,
      "fzfg": false,
      "metar_trigger": false,
      "taf_trigger": false,
      "metar": "METAR EFTU 122220Z AUTO 19008KT CAVOK 02/01 Q1009",
      "taf": "TAF EFTU 122036Z 1221/1321 20010KT CAVOK"
    },
    {
      "icao": "EGBB",
      "alert": "OK",
      "vis_m": 6000,
      "fzfg": false,
      "metar_trigger": false,
      "taf_trigger": false,
      "metar": "METAR EGBB 122220Z 24014G24KT 210V280 6000 RA BKN046 09/07 Q0996",
      "taf": "TAF EGBB 121700Z 1218/1318 20020G32KT 9999 SCT020"
    },
    {
      "icao": "EGGP",
      "alert": "OK",
      "vis_m": 9999,
      "fzfg": false,
      "metar_trigger": false,
      "taf_trigger": false,
      "metar": "METAR EGGP 122220Z 23012KT 190V250 9999 VCSH FEW016 SCT027 BKN047 07/04 Q0993",
      "taf": ""
    },
    {
      "icao": "EGGW",
      "alert": "OK",
      "vis_m": 5000,
      "fzfg": false,
      "metar_trigger": false,
      "taf_trigger": false,
      "metar": "METAR EGGW 122220Z AUTO 21020G31KT 5000 -RADZ OVC008 11/09 Q0999",
      "taf": "TAF EGGW 121656Z 1218/1318 21025G38KT 9999 BKN012"
    },
    {
      "icao": "EGKK",
      "alert": "OK",
      "vis_m": 2400,
      "fzfg": false,
      "metar_trigger": false,
      "taf_trigger": false,
      "metar": "METAR EGKK 122220Z 21020G34KT 2400 -RA BKN009 OVC012 11/10 Q1004 REDZ",
      "taf": ""
    },
    {
      "icao": "EGNM",
      "alert": "OK",
      "vis_m": 9999,
      "fzfg": false,
      "metar_trigger": false,
      "taf_trigger": false,
      "metar": "METAR EGNM 122220Z 25016G26KT 9999 -RA FEW020 SCT031 06/04 Q0992",
      "taf": ""
    },
    {
      "icao": "EGPD",
      "alert": "OK",
      "vis_m": 9999,
      "fzfg": false,
      "metar_trigger": false,
      "taf_trigger": false,
      "metar": "METAR EGPD 122220Z COR AUTO 20011KT 9999 NCD 03/00 Q0982 NOSIG",
      "taf": "TAF EGPD 121657Z 1218/1318 21012KT 9999 SCT020"
    },
    {
      "icao": "EGPF",
      "alert": "OK",
      "vis_m": 9999,
      "fzfg": false,
      "metar_trigger": false,
      "taf_trigger": false,
      "metar": "METAR EGPF 122220Z AUTO 22020KT 9999 BKN037 BKN049 05/01 Q0985",
      "taf": "TAF EGPF 121657Z 1218/1318 23018G32KT 9999 SCT030"
    },
    {
      "icao": "EHBK",
      "alert": "OK",
      "vis_m": 9999,
      "fzfg": false,
      "metar_trigger": false,
      "taf_trigger": false,
      "metar": "METAR EHBK 122225Z AUTO 21019KT 9999 NSC 09/02 Q1014",
      "taf": "TAF EHBK 121713Z 1218/1324 21018G28KT 9999 SCT040"
    },
    {
      "icao": "EHEH",
      "alert": "OK",
      "vis_m": 9999,
      "fzfg": false,
      "metar_trigger": false,
      "taf_trigger": false,
      "metar": "METAR EHEH 122225Z AUTO 20017KT 9999 OVC260 10/04 Q1012 BLU TEMPO 21015G25KT RMK TREND REMOTE BY EHWX",
      "taf": "TAF EHEH 121733Z 1218/1324 20015G25KT CAVOK"
    },
    {
      "icao": "EKBI",
      "alert": "OK",
      "vis_m": 9999,
      "fzfg": false,
      "metar_trigger": false,
      "taf_trigger": false,
      "metar": "METAR EKBI 122220Z AUTO 19023G34KT 9999 OVC029/// 09/03 Q1004 REDZRA",
      "taf": "TAF EKBI 122027Z 1221/1321 20020KT 9999 BKN020"
    },
    {
      "icao": "EKCH",
      "alert": "OK",
      "vis_m": 9999,
      "fzfg": false,
      "metar_trigger": false,
      "taf_trigger": false,
      "metar": "METAR EKCH 122220Z AUTO 18013KT 130V250 9999 SCT220/// 05/02 Q1011 NOSIG",
      "taf": "TAF EKCH 122027Z 1221/1321 19015KT 9999 FEW030"
    },
    {
      "icao": "ENAL",
      "alert": "OK",
      "vis_m": 9999,
      "fzfg": false,
      "metar_trigger": false,
      "taf_trigger": false,
      "metar": "METAR ENAL 122220Z 17011KT 9999 -RA SCT037 BKN061 06/02 Q0977",
      "taf": "TAF ENAL 122000Z 1221/1306 19018KT 9999 -SHRA FEW025TCU BKN040"
    },
    {
      "icao": "ENBR",
      "alert": "OK",
      "vis_m": 9999,
      "fzfg": false,
      "metar_trigger": false,
      "taf_trigger": false,
      "metar": "METAR ENBR 122220Z 18021KT 9999 -SHRA SCT012 BKN016 05/04 Q0983 RMK WIND 1200FT 20027G39KT",
      "taf": ""
    },
    {
      "icao": "ENGM",
      "alert": "OK",
      "vis_m": 8000,
      "fzfg": false,
      "metar_trigger": false,
      "taf_trigger": false,
      "metar": "METAR ENGM 122220Z 20032G45KT 8000 -RA OVC009 04/02 Q0991",
      "taf": "TAF ENGM 121700Z 1218/1318 18025G38KT 8000 -RA OVC008"
    },
    {
      "icao": "ENHD",
      "alert": "OK",
      "vis_m": 9999,
      "fzfg": false,
      "metar_trigger": false,
      "taf_trigger": false,
      "metar": "METAR ENHD 122220Z AUTO 18016KT 9999 NCD 06/04 Q0985",
      "taf": "TAF ENHD 121400Z 1215/1223 16025KT 8000 -RA SCT006 BKN012"
    },
    {
      "icao": "ENTC",
      "alert": "OK",
      "vis_m": 9999,
      "fzfg": false,
      "metar_trigger": false,
      "taf_trigger": false,
      "metar": "METAR ENTC 122220Z VRB02KT CAVOK M01/M03 Q0986 RMK WIND 2600FT 17014KT",
      "taf": "TAF ENTC 121700Z 1218/1318 18005KT CAVOK"
    },
    {
      "icao": "ENTO",
      "alert": "OK",
      "vis_m": 5000,
      "fzfg": false,
      "metar_trigger": false,
      "taf_trigger": false,
      "metar": "METAR ENTO 122220Z 20024G37KT 5000 RA BR OVC004 04/04 Q0994 REDZRA",
      "taf": "TAF ENTO 121700Z 1218/1318 20030G40KT 2000 +RADZ BR OVC002"
    },
    {
      "icao": "ENVA",
      "alert": "OK",
      "vis_m": 9999,
      "fzfg": false,
      "metar_trigger": false,
      "taf_trigger": false,
      "metar": "METAR ENVA 122220Z 17016G31KT 130V200 CAVOK 08/M00 Q0980 RMK WIND 670FT 18029G48KT",
      "taf": ""
    },
    {
      "icao": "ENZV",
      "alert": "OK",
      "vis_m": 9000,
      "fzfg": false,
      "metar_trigger": false,
      "taf_trigger": false,
      "metar": "METAR ENZV 122220Z 19018KT 9000 BKN006 07/06 Q0987",
      "taf": "TAF ENZV 121700Z 1218/1318 18028G38KT 8000 -RA SCT008 BKN012"
    },
    {
      "icao": "EPGD",
      "alert": "OK",
      "vis_m": 9999,
      "fzfg": false,
      "metar_trigger": false,
      "taf_trigger": false,
      "metar": "METAR EPGD 122230Z 17008KT CAVOK 05/01 Q1018",
      "taf": "TAF EPGD 121730Z 1218/1318 18005KT CAVOK"
    },
    {
      "icao": "EPKK",
      "alert": "OK",
      "vis_m": 9999,
      "fzfg": false,
      "metar_trigger": false,
      "taf_trigger": false,
      "metar": "METAR EPKK 122230Z VRB01KT CAVOK 07/05 Q1022",
      "taf": "TAF EPKK 122030Z 1221/1321 VRB02KT CAVOK"
    },
    {
      "icao": "EPKT",
      "alert": "OK",
      "vis_m": 9999,
      "fzfg": false,
      "metar_trigger": false,
      "taf_trigger": false,
      "metar": "METAR EPKT 122230Z 11003KT CAVOK 06/04 Q1022",
      "taf": "TAF EPKT 121730Z 1218/1318 33005KT CAVOK"
    },
    {
      "icao": "EPLB",
      "alert": "OK",
      "vis_m": 9000,
      "fzfg": false,
      "metar_trigger": false,
      "taf_trigger": false,
      "metar": "METAR EPLB 122230Z 14001KT 9000 NSC 05/03 Q1022",
      "taf": "TAF EPLB 121730Z 1218/1318 VRB02KT CAVOK"
    },
    {
      "icao": "EPMO",
      "alert": "OK",
      "vis_m": 5000,
      "fzfg": false,
      "metar_trigger": false,
      "taf_trigger": false,
      "metar": "METAR EPMO 122230Z 20002KT 5000 BR NSC 07/06 Q1022",
      "taf": "TAF EPMO 121730Z 1218/1318 28010KT CAVOK"
    },
    {
      "icao": "EPPO",
      "alert": "OK",
      "vis_m": 9999,
      "fzfg": false,
      "metar_trigger": false,
      "taf_trigger": false,
      "metar": "METAR EPPO 122230Z 16004KT CAVOK 02/00 Q1020",
      "taf": "TAF EPPO 121730Z 1218/1318 19003KT CAVOK"
    },
    {
      "icao": "EPRA",
      "alert": "OK",
      "vis_m": 9999,
      "fzfg": false,
      "metar_trigger": false,
      "taf_trigger": false,
      "metar": "METAR EPRA 122230Z 19001KT CAVOK 08/06 Q1022",
      "taf": "TAF EPRA 122030Z 1221/1306 VRB02KT CAVOK"
    },
    {
      "icao": "EPRZ",
      "alert": "OK",
      "vis_m": 9999,
      "fzfg": false,
      "metar_trigger": false,
      "taf_trigger": false,
      "metar": "METAR EPRZ 122230Z VRB02KT CAVOK 07/02 Q1022",
      "taf": "TAF EPRZ 121730Z 1218/1318 18005KT CAVOK"
    },
    {
      "icao": "EPSC",
      "alert": "OK",
      "vis_m": 9999,
      "fzfg": false,
      "metar_trigger": false,
      "taf_trigger": false,
      "metar": "METAR EPSC 122230Z 15009KT CAVOK 07/00 Q1017",
      "taf": "TAF EPSC 121730Z 1218/1318 18005KT CAVOK"
    },
    {
      "icao": "EPSY",
      "alert": "OK",
      "vis_m": 800,
      "fzfg": false,
      "metar_trigger": false,
      "taf_trigger": false,
      "metar": "METAR EPSY 122230Z VRB03KT 0800 R01/1200D FG BKN001 00/00 Q1021",
      "taf": ""
    },
    {
      "icao": "EPWA",
      "alert": "OK",
      "vis_m": 8000,
      "fzfg": false,
      "metar_trigger": false,
      "taf_trigger": false,
      "metar": "METAR EPWA 122230Z 20002KT 8000 SCT028 07/06 Q1022 NOSIG",
      "taf": "TAF EPWA 122030Z 1221/1321 VRB03KT 9999 SCT040"
    },
    {
      "icao": "EPWR",
      "alert": "OK",
      "vis_m": 5000,
      "fzfg": false,
      "metar_trigger": false,
      "taf_trigger": false,
      "metar": "METAR EPWR 122230Z VRB02KT 5000 MIFG BR NSC 03/03 Q1021",
      "taf": "TAF EPWR 122030Z 1221/1321 18004KT 4000 BR NSC"
    },
    {
      "icao": "ESGG",
      "alert": "OK",
      "vis_m": 9999,
      "fzfg": false,
      "metar_trigger": false,
      "taf_trigger": false,
      "metar": "METAR ESGG 122220Z 20030G44KT 9999 OVC030 07/02 Q1003",
      "taf": "TAF ESGG 122030Z 1221/1321 19025G38KT 9999 BKN035"
    },
    {
      "icao": "ESKN",
      "alert": "OK",
      "vis_m": 9999,
      "fzfg": false,
      "metar_trigger": false,
      "taf_trigger": false,
      "metar": "METAR ESKN 122220Z 20013KT CAVOK 08/02 Q1006",
      "taf": "TAF ESKN 122030Z 1221/1321 18010KT CAVOK"
    },
    {
      "icao": "ESMS",
      "alert": "OK",
      "vis_m": 9999,
      "fzfg": false,
      "metar_trigger": false,
      "taf_trigger": false,
      "metar": "METAR ESMS 122220Z 18016KT CAVOK 06/02 Q1011",
      "taf": "TAF ESMS 122027Z 1221/1321 20012KT 9999 FEW030"
    },
    {
      "icao": "ESSA",
      "alert": "OK",
      "vis_m": 9999,
      "fzfg": false,
      "metar_trigger": false,
      "taf_trigger": false,
      "metar": "METAR ESSA 122220Z 18017KT CAVOK 05/01 Q1005 NOSIG",
      "taf": "TAF ESSA 122030Z 1221/1321 18017G27KT CAVOK"
    },
    {
      "icao": "EYKA",
      "alert": "OK",
      "vis_m": 9999,
      "fzfg": false,
      "metar_trigger": false,
      "taf_trigger": false,
      "metar": "METAR EYKA 122220Z AUTO VRB01KT 9999 FEW047/// OVC058/// 05/04 Q1021",
      "taf": "TAF EYKA 121713Z 1218/1318 VRB04KT 5000 BR SCT010 BKN015"
    },
    {
      "icao": "EYPA",
      "alert": "OK",
      "vis_m": 2500,
      "fzfg": false,
      "metar_trigger": false,
      "taf_trigger": false,
      "metar": "METAR EYPA 122220Z 15007KT 2500 BR OVC001 M00/M00 Q1019",
      "taf": "TAF EYPA 121720Z 1218/1318 VRB05KT 3000 BR OVC002"
    },
    {
      "icao": "EYVI",
      "alert": "OK",
      "vis_m": 9999,
      "fzfg": false,
      "metar_trigger": false,
      "taf_trigger": false,
      "metar": "METAR EYVI 122220Z 36002KT CAVOK 07/04 Q1021 NOSIG",
      "taf": "TAF EYVI 121713Z 1218/1318 VRB04KT 8000 SCT030"
    },
    {
      "icao": "GCFV",
      "alert": "OK",
      "vis_m": 9000,
      "fzfg": false,
      "metar_trigger": false,
      "taf_trigger": false,
      "metar": "METAR GCFV 122230Z 02014KT 9000 NSC 18/15 Q1020",
      "taf": "TAF GCFV 122000Z 1221/1321 03015KT 8000 NSC TX22/1314Z TN15/1306Z"
    },
    {
      "icao": "GCLP",
      "alert": "OK",
      "vis_m": 9999,
      "fzfg": false,
      "metar_trigger": false,
      "taf_trigger": false,
      "metar": "METAR GCLP 122230Z 35016KT 9999 FEW030 17/12 Q1019 NOSIG",
      "taf": "TAF GCLP 122000Z 1221/1321 36015KT 9999 FEW030 TX21/1314Z TN15/1306Z"
    },
    {
      "icao": "GCTS",
      "alert": "OK",
      "vis_m": 9999,
      "fzfg": false,
      "metar_trigger": false,
      "taf_trigger": false,
      "metar": "METAR GCTS 122230Z 05009KT 9999 FEW030 16/09 Q1019 NOSIG",
      "taf": "TAF GCTS 122000Z 1221/1321 04008KT 9999 FEW035 TX22/1314Z TN14/1306Z"
    },
    {
      "icao": "GMAD",
      "alert": "OK",
      "vis_m": 9999,
      "fzfg": false,
      "metar_trigger": false,
      "taf_trigger": false,
      "metar": "METAR GMAD 122230Z 18008KT CAVOK 15/08 Q1018 NOSIG",
      "taf": "TAF GMAD 121700Z 1218/1324 26010KT CAVOK"
    },
    {
      "icao": "GMMN",
      "alert": "OK",
      "vis_m": 9999,
      "fzfg": false,
      "metar_trigger": false,
      "taf_trigger": false,
      "metar": "METAR GMMN 122230Z 22005KT CAVOK 11/09 Q1021 NOSIG",
      "taf": "TAF GMMN 121100Z 1212/1318 36010KT CAVOK"
    },
    {
      "icao": "GMMX",
      "alert": "OK",
      "vis_m": 9999,
      "fzfg": false,
      "metar_trigger": false,
      "taf_trigger": false,
      "metar": "METAR GMMX 122230Z VRB01KT CAVOK 13/08 Q1021 NOSIG",
      "taf": "TAF GMMX 121700Z 1218/1324 04006KT 8000 NSC"
    },
    {
      "icao": "HEGN",
      "alert": "OK",
      "vis_m": 9999,
      "fzfg": false,
      "metar_trigger": false,
      "taf_trigger": false,
      "metar": "METAR HEGN 122200Z 33003KT CAVOK 20/01 Q1013 NOSIG",
      "taf": "TAF HEGN 121700Z 1218/1324 32010KT 9999 SCT025"
    },
    {
      "icao": "HEMA",
      "alert": "OK",
      "vis_m": 9999,
      "fzfg": false,
      "metar_trigger": false,
      "taf_trigger": false,
      "metar": "METAR HEMA 122200Z 20003KT CAVOK 20/11 Q1013 NOSIG",
      "taf": "TAF HEMA 121700Z 1218/1324 33010KT 9999 SCT025"
    },
    {
      "icao": "HESH",
      "alert": "OK",
      "vis_m": 9999,
      "fzfg": false,
      "metar_trigger": false,
      "taf_trigger": false,
      "metar": "METAR HESH 122200Z 26004KT CAVOK 20/05 Q1014 NOSIG",
      "taf": "TAF HESH 121700Z 1218/1324 36010KT 9999 SCT025"
    },
    {
      "icao": "HESX",
      "alert": "OK",
      "vis_m": 9999,
      "fzfg": false,
      "metar_trigger": false,
      "taf_trigger": false,
      "metar": "METAR HESX 122200Z 05012KT CAVOK 14/10 Q1014 NOSIG",
      "taf": "TAF HESX 121700Z 1218/1324 03012G25KT 9999 BKN025"
    },
    {
      "icao": "LATI",
      "alert": "OK",
      "vis_m": null,
      "fzfg": false,
      "metar_trigger": false,
      "taf_trigger": false,
      "metar": "",
      "taf": "TAF LATI 121700Z 1218/1318 VRB03KT CAVOK TX20/1311Z TN04/1305Z"
    },
    {
      "icao": "LBPD",
      "alert": "OK",
      "vis_m": 9999,
      "fzfg": false,
      "metar_trigger": false,
      "taf_trigger": false,
      "metar": "METAR LBPD 122230Z AUTO 11007KT 9999 OVC240/// 04/04 Q1024",
      "taf": "TAF LBPD 121700Z 1218/1318 09010KT CAVOK"
    },
    {
      "icao": "LBSF",
      "alert": "OK",
      "vis_m": 9999,
      "fzfg": false,
      "metar_trigger": false,
      "taf_trigger": false,
      "metar": "METAR LBSF 122230Z AUTO 13008KT 9999 NCD 04/00 Q1022 NOSIG",
      "taf": "TAF LBSF 121700Z 1218/1318 11010KT CAVOK"
    },
    {
      "icao": "LBWN",
      "alert": "OK",
      "vis_m": 9000,
      "fzfg": false,
      "metar_trigger": false,
      "taf_trigger": false,
      "metar": "METAR LBWN 122230Z AUTO 25003KT 9000 NCD 01/01 Q1024 NOSIG",
      "taf": "TAF LBWN 121700Z 1218/1318 VRB04KT 9999 SCT020"
    },
    {
      "icao": "LCLK",
      "alert": "OK",
      "vis_m": 9999,
      "fzfg": false,
      "metar_trigger": false,
      "taf_trigger": false,
      "metar": "METAR LCLK 122230Z 33010KT CAVOK 13/07 Q1015 NOSIG",
      "taf": "TAF LCLK 121730Z 1218/1318 34008KT 9999 FEW030"
    },
    {
      "icao": "LCPH",
      "alert": "OK",
      "vis_m": 9999,
      "fzfg": false,
      "metar_trigger": false,
      "taf_trigger": false,
      "metar": "METAR LCPH 122230Z 01006KT CAVOK 13/00 Q1015 NOSIG",
      "taf": "TAF LCPH 121730Z 1218/1318 04008KT 9999 FEW030"
    },
    {
      "icao": "LEAL",
      "alert": "OK",
      "vis_m": 9999,
      "fzfg": false,
      "metar_trigger": false,
      "taf_trigger": false,
      "metar": "METAR LEAL 122230Z 29002KT CAVOK 12/12 Q1024 NOSIG",
      "taf": "TAF LEAL 121700Z 1218/1318 VRB04KT 9999 FEW035 TX22/1312Z TN09/1306Z"
    },
    {
      "icao": "LEBB",
      "alert": "OK",
      "vis_m": 9999,
      "fzfg": false,
      "metar_trigger": false,
      "taf_trigger": false,
      "metar": "METAR LEBB 122230Z 10003KT 080V140 CAVOK 10/09 Q1023 NOSIG",
      "taf": "TAF LEBB 121700Z 1218/1318 12005KT CAVOK TX20/1313Z TN06/1307Z"
    },
    {
      "icao": "LEBL",
      "alert": "OK",
      "vis_m": 9999,
      "fzfg": false,
      "metar_trigger": false,
      "taf_trigger": false,
      "metar": "METAR LEBL 122230Z VRB01KT CAVOK 11/10 Q1023 NOSIG",
      "taf": "TAF LEBL 121700Z 1218/1318 20010KT 9999 SCT020 TX16/1313Z TN10/1307Z"
    },
    {
      "icao": "LECH",
      "alert": "OK",
      "vis_m": 9000,
      "fzfg": false,
      "metar_trigger": false,
      "taf_trigger": false,
      "metar": "METAR LECH 122230Z AUTO 20005KT 9000 NCD 10/07 Q1023",
      "taf": ""
    },
    {
      "icao": "LEMD",
      "alert": "OK",
      "vis_m": 9999,
      "fzfg": false,
      "metar_trigger": false,
      "taf_trigger": false,
      "metar": "METAR LEMD 122230Z 12003KT 070V150 CAVOK 09/06 Q1024 NOSIG",
      "taf": "TAF LEMD 121700Z 1218/1324 VRB04KT CAVOK TX19/1315Z TN02/1307Z"
    },
    {
      "icao": "LEMG",
      "alert": "OK",
      "vis_m": 9999,
      "fzfg": false,
      "metar_trigger": false,
      "taf_trigger": false,
      "metar": "METAR LEMG 122230Z 28006KT CAVOK 11/10 Q1025 NOSIG",
      "taf": "TAF LEMG 121700Z 1218/1318 14005KT CAVOK TX19/1315Z TN07/1307Z"
    },
    {
      "icao": "LEVC",
      "alert": "OK",
      "vis_m": 9999,
      "fzfg": false,
      "metar_trigger": false,
      "taf_trigger": false,
      "metar": "METAR LEVC 122230Z 26006KT CAVOK 11/10 Q1023 NOSIG",
      "taf": "TAF LEVC 121700Z 1218/1318 13010KT 9999 FEW035 TX21/1314Z TN09/1306Z"
    },
    {
      "icao": "LEXJ",
      "alert": "OK",
      "vis_m": 9000,
      "fzfg": false,
      "metar_trigger": false,
      "taf_trigger": false,
      "metar": "METAR LEXJ 122230Z AUTO VRB02KT 9000 NCD 09/06 Q1022",
      "taf": "TAF LEXJ 122000Z 1221/1321 20009KT 9999 FEW040 TX19/1311Z TN08/1302Z"
    },
    {
      "icao": "LEZG",
      "alert": "OK",
      "vis_m": 9999,
      "fzfg": false,
      "metar_trigger": false,
      "taf_trigger": false,
      "metar": "METAR LEZG 122230Z VRB02KT CAVOK 13/10 Q1022 NOSIG",
      "taf": "TAF LEZG 121700Z 1218/1318 27008KT 9999 FEW030 TX20/1314Z TN07/1306Z"
    },
    {
      "icao": "LEZL",
      "alert": "OK",
      "vis_m": 9999,
      "fzfg": false,
      "metar_trigger": false,
      "taf_trigger": false,
      "metar": "METAR LEZL 122230Z 04003KT CAVOK 13/11 Q1023 NOSIG",
      "taf": "TAF LEZL 122000Z 1221/1321 07004KT CAVOK TX24/1315Z TN08/1307Z"
    },
    {
      "icao": "LFBD",
      "alert": "OK",
      "vis_m": 7000,
      "fzfg": false,
      "metar_trigger": false,
      "taf_trigger": false,
      "metar": "METAR LFBD 122230Z AUTO 22005KT 7000 2000 NSC 08/08 Q1022 TEMPO 1500 MIFG",
      "taf": "TAF LFBD 121700Z 1218/1324 24005KT 9999 SCT040 TX16/1314Z TN07/1306Z"
    },
    {
      "icao": "LFLL",
      "alert": "OK",
      "vis_m": 9999,
      "fzfg": false,
      "metar_trigger": false,
      "taf_trigger": false,
      "metar": "METAR LFLL 122230Z 19003KT CAVOK 07/01 Q1022 NOSIG",
      "taf": "TAF LFLL 121700Z 1218/1324 VRB03KT CAVOK"
    },
    {
      "icao": "LFLS",
      "alert": "OK",
      "vis_m": 9999,
      "fzfg": false,
      "metar_trigger": false,
      "taf_trigger": false,
      "metar": "METAR LFLS 122230Z AUTO 09005KT CAVOK 02/00 Q1022",
      "taf": "TAF LFLS 121400Z 1215/1315 36005KT CAVOK"
    },
    {
      "icao": "LFMN",
      "alert": "OK",
      "vis_m": 9999,
      "fzfg": false,
      "metar_trigger": false,
      "taf_trigger": false,
      "metar": "METAR LFMN 122230Z 31006KT CAVOK 12/10 Q1021 NOSIG",
      "taf": "TAF LFMN 122000Z 1221/1403 33010KT CAVOK"
    },
    {
      "icao": "LFOB",
      "alert": "OK",
      "vis_m": 9999,
      "fzfg": false,
      "metar_trigger": false,
      "taf_trigger": false,
      "metar": "METAR LFOB 122230Z AUTO 21012KT 9999 FEW024 SCT084 BKN240 10/07 Q1013 BECMG 22015G25KT OVC013",
      "taf": "TAF LFOB 121700Z 1218/1318 22015G25KT 9999 BKN030"
    },
    {
      "icao": "LFPO",
      "alert": "OK",
      "vis_m": 9999,
      "fzfg": false,
      "metar_trigger": false,
      "taf_trigger": false,
      "metar": "METAR LFPO 122230Z 20010KT 9999 SCT026 BKN260 10/06 Q1016 NOSIG",
      "taf": "TAF LFPO 121700Z 1218/1324 21012KT 9999 BKN030"
    },
    {
      "icao": "LFSB",
      "alert": "OK",
      "vis_m": 9999,
      "fzfg": false,
      "metar_trigger": false,
      "taf_trigger": false,
      "metar": "METAR LFSB 122230Z AUTO 15006KT CAVOK 05/03 Q1021 NOSIG",
      "taf": "TAF LFSB 121700Z 1218/1318 18003KT CAVOK"
    },
    {
      "icao": "LGAV",
      "alert": "OK",
      "vis_m": 9999,
      "fzfg": false,
      "metar_trigger": false,
      "taf_trigger": false,
      "metar": "METAR LGAV 122220Z 29003KT 9999 FEW025 07/06 Q1021 NOSIG",
      "taf": ""
    },
    {
      "icao": "LGTS",
      "alert": "OK",
      "vis_m": 9999,
      "fzfg": false,
      "metar_trigger": false,
      "taf_trigger": false,
      "metar": "METAR LGTS 122220Z 10006KT 9999 FEW020 06/04 Q1022 NOSIG",
      "taf": "TAF LGTS 121700Z 1218/1318 VRB03KT 9999 FEW030"
    },
    {
      "icao": "LHBP",
      "alert": "OK",
      "vis_m": 9999,
      "fzfg": false,
      "metar_trigger": false,
      "taf_trigger": false,
      "metar": "METAR LHBP 122230Z VRB01KT CAVOK 05/03 Q1022 NOSIG",
      "taf": "TAF LHBP 121715Z 1218/1318 12005KT CAVOK"
    },
    {
      "icao": "LHDC",
      "alert": "OK",
      "vis_m": 8000,
      "fzfg": false,
      "metar_trigger": false,
      "taf_trigger": false,
      "metar": "METAR LHDC 122215Z AUTO VRB02KT 8000 NCD 05/03 Q1022",
      "taf": "TAF LHDC 121415Z 1215/1224 VRB03KT CAVOK"
    },
    {
      "icao": "LIBD",
      "alert": "OK",
      "vis_m": 9999,
      "fzfg": false,
      "metar_trigger": false,
      "taf_trigger": false,
      "metar": "METAR LIBD 122220Z 25004KT CAVOK 08/06 Q1020",
      "taf": "TAF LIBD 121700Z 1218/1318 VRB05KT 9999 FEW030"
    },
    {
      "icao": "LIBG",
      "alert": "OK",
      "vis_m": 9999,
      "fzfg": false,
      "metar_trigger": false,
      "taf_trigger": false,
      "metar": "METAR LIBG 122150Z 24004KT 160V260 CAVOK 09/08 Q1020",
      "taf": "TAF LIBG 122000Z 1221/1306 VRB04KT 9999 FEW030"
    },
    {
      "icao": "LIBP",
      "alert": "OK",
      "vis_m": 9999,
      "fzfg": false,
      "metar_trigger": false,
      "taf_trigger": false,
      "metar": "METAR LIBP 122220Z AUTO 23003KT 9999 BKN013/// BKN024/// 12/10 Q1021",
      "taf": "TAF LIBP 121700Z 1218/1318 VRB05KT 9999 SCT015"
    },
    {
      "icao": "LIBR",
      "alert": "OK",
      "vis_m": 4000,
      "fzfg": false,
      "metar_trigger": false,
      "taf_trigger": false,
      "metar": "METAR LIBR 122220Z 27003KT 4000 1000W BCFG NSC 10/09 Q1020",
      "taf": "TAF LIBR 121700Z 1218/1318 VRB05KT 9999 FEW020"
    },
    {
      "icao": "LICA",
      "alert": "OK",
      "vis_m": 9999,
      "fzfg": false,
      "metar_trigger": false,
      "taf_trigger": false,
      "metar": "METAR LICA 122220Z AUTO VRB02KT 9999 OVC017/// 11/10 Q1021",
      "taf": "TAF LICA 121700Z 1218/1318 VRB05KT 9999 SCT020"
    },
    {
      "icao": "LICC",
      "alert": "OK",
      "vis_m": 9999,
      "fzfg": false,
      "metar_trigger": false,
      "taf_trigger": false,
      "metar": "METAR LICC 122220Z 27005KT 9999 SCT100 11/09 Q1021",
      "taf": "TAF LICC 121700Z 1218/1318 28006KT 9999 SCT030"
    },
    {
      "icao": "LICJ",
      "alert": "OK",
      "vis_m": 9999,
      "fzfg": false,
      "metar_trigger": false,
      "taf_trigger": false,
      "metar": "METAR LICJ 122220Z 13003KT CAVOK 13/09 Q1020",
      "taf": "TAF LICJ 121700Z 1218/1318 VRB05KT 9999 SCT030"
    },
    {
      "icao": "LIMC",
      "alert": "OK",
      "vis_m": 9999,
      "fzfg": false,
      "metar_trigger": false,
      "taf_trigger": false,
      "metar": "METAR LIMC 122220Z 03003KT CAVOK 06/05 Q1022 NOSIG",
      "taf": "TAF LIMC 121700Z 1218/1324 VRB04KT CAVOK"
    },
    {
      "icao": "LIME",
      "alert": "OK",
      "vis_m": 9999,
      "fzfg": false,
      "metar_trigger": false,
      "taf_trigger": false,
      "metar": "METAR LIME 122220Z AUTO 01002KT 9999 NCD 10/07 Q1022",
      "taf": "TAF LIME 121700Z 1218/1318 VRB04KT 9999 FEW030"
    },
    {
      "icao": "LIMF",
      "alert": "OK",
      "vis_m": 9999,
      "fzfg": false,
      "metar_trigger": false,
      "taf_trigger": false,
      "metar": "METAR LIMF 122220Z 32003KT CAVOK 10/05 Q1022",
      "taf": "TAF LIMF 121700Z 1218/1318 VRB04KT 8000 FEW040"
    },
    {
      "icao": "LIMJ",
      "alert": "OK",
      "vis_m": 9999,
      "fzfg": false,
      "metar_trigger": false,
      "taf_trigger": false,
      "metar": "METAR LIMJ 122220Z VRB01KT CAVOK 11/09 Q1021",
      "taf": "TAF LIMJ 121700Z 1218/1318 VRB04KT CAVOK"
    },
    {
      "icao": "LIPE",
      "alert": "OK",
      "vis_m": 9999,
      "fzfg": false,
      "metar_trigger": false,
      "taf_trigger": false,
      "metar": "METAR LIPE 122220Z 20004KT 170V240 CAVOK 10/08 Q1022",
      "taf": "TAF LIPE 121700Z 1218/1318 VRB04KT 9999 FEW020"
    },
    {
      "icao": "LIPH",
      "alert": "OK",
      "vis_m": 7000,
      "fzfg": false,
      "metar_trigger": false,
      "taf_trigger": false,
      "metar": "METAR LIPH 122220Z AUTO 06002KT 7000 NCD 11/10 Q1022",
      "taf": "TAF LIPH 121700Z 1218/1318 VRB04KT 9999 FEW030"
    },
    {
      "icao": "LIPQ",
      "alert": "OK",
      "vis_m": 9999,
      "fzfg": false,
      "metar_trigger": false,
      "taf_trigger": false,
      "metar": "METAR LIPQ 122220Z AUTO 33003KT 9999 BKN089/// 11/10 Q1022",
      "taf": "TAF LIPQ 121700Z 1218/1318 VRB05KT 9999 SCT050"
    },
    {
      "icao": "LIPR",
      "alert": "OK",
      "vis_m": 9999,
      "fzfg": false,
      "metar_trigger": false,
      "taf_trigger": false,
      "metar": "METAR LIPR 122220Z AUTO VRB02KT 9999 FEW063/// BKN087/// 11/10 Q1021",
      "taf": "TAF LIPR 121700Z 1218/1318 VRB05KT 9999 SCT040"
    },
    {
      "icao": "LIPX",
      "alert": "OK",
      "vis_m": 9999,
      "fzfg": false,
      "metar_trigger": false,
      "taf_trigger": false,
      "metar": "METAR LIPX 122220Z VRB02KT CAVOK 08/07 Q1022",
      "taf": "TAF LIPX 121700Z 1218/1318 VRB04KT 8000 FEW030"
    },
    {
      "icao": "LIPY",
      "alert": "OK",
      "vis_m": 200,
      "fzfg": false,
      "metar_trigger": false,
      "taf_trigger": false,
      "metar": "METAR LIPY 122220Z AUTO VRB01KT 0200 R22/1600U BCFG FEW002/// SCT085/// 11/11 Q1021",
      "taf": "TAF LIPY 121700Z 1218/1318 VRB05KT 9999 SCT040"
    },
    {
      "icao": "LIPZ",
      "alert": "OK",
      "vis_m": 5000,
      "fzfg": false,
      "metar_trigger": false,
      "taf_trigger": false,
      "metar": "METAR LIPZ 122220Z 05007KT 5000 BR FEW040 10/10 Q1022 NOSIG",
      "taf": "TAF LIPZ 121700Z 1218/1324 VRB05KT 6000 FEW020"
    },
    {
      "icao": "LIRF",
      "alert": "OK",
      "vis_m": 8000,
      "fzfg": false,
      "metar_trigger": false,
      "taf_trigger": false,
      "metar": "METAR LIRF 122220Z 36003KT 8000 R16L/1000D R16R/P2000N R25/0600U R34R/1500N BCFG NSC 08/08 Q1020 NOSIG",
      "taf": "TAF LIRF 121700Z 1218/1324 12010KT 9999 SCT030"
    },
    {
      "icao": "LIRN",
      "alert": "OK",
      "vis_m": 8000,
      "fzfg": false,
      "metar_trigger": false,
      "taf_trigger": false,
      "metar": "METAR LIRN 122220Z 02003KT 320V050 8000 SCT020 12/10 Q1021 NOSIG",
      "taf": "TAF LIRN 121700Z 1218/1318 VRB05KT 7000 SCT020"
    },
    {
      "icao": "LIRP",
      "alert": "OK",
      "vis_m": 9999,
      "fzfg": false,
      "metar_trigger": false,
      "taf_trigger": false,
      "metar": "METAR LIRP 122215Z VRB03KT 9999 BKN060 09/09 Q1021 NOSIG",
      "taf": "TAF LIRP 121700Z 1218/1318 03005KT 9999 SCT020 BKN060"
    },
    {
      "icao": "LIRZ",
      "alert": "OK",
      "vis_m": 9999,
      "fzfg": false,
      "metar_trigger": false,
      "taf_trigger": false,
      "metar": "METAR LIRZ 122220Z AUTO 01009KT 9999 NCD 09/07 Q1020",
      "taf": "TAF LIRZ 121700Z 1218/1318 VRB05KT 9999 BKN040"
    },
    {
      "icao": "LJLJ",
      "alert": "OK",
      "vis_m": 9999,
      "fzfg": false,
      "metar_trigger": false,
      "taf_trigger": false,
      "metar": "METAR LJLJ 122230Z 28005KT 9999 FEW037TCU BKN050 BKN065 09/07 Q1022 NOSIG",
      "taf": "TAF LJLJ 121700Z 1218/1318 12005KT 9999 FEW045 BKN060"
    },
    {
      "icao": "LKMT",
      "alert": "OK",
      "vis_m": 9000,
      "fzfg": false,
      "metar_trigger": false,
      "taf_trigger": false,
      "metar": "METAR LKMT 122230Z VRB01KT 9000 NSC 05/05 Q1022 NOSIG",
      "taf": "TAF LKMT 121700Z 1218/1318 22008KT 9999 SCT035"
    },
    {
      "icao": "LKPR",
      "alert": "OK",
      "vis_m": 9999,
      "fzfg": false,
      "metar_trigger": false,
      "taf_trigger": false,
      "metar": "METAR LKPR 122230Z 17008KT CAVOK 03/01 Q1021 NOSIG",
      "taf": "TAF LKPR 122000Z 1221/1403 15005KT CAVOK"
    },
    {
      "icao": "LLBG",
      "alert": "OK",
      "vis_m": 9999,
      "fzfg": false,
      "metar_trigger": false,
      "taf_trigger": false,
      "metar": "METAR LLBG 122220Z VRB03KT CAVOK 13/07 Q1015 NOSIG RMK FEW080",
      "taf": "TAF LLBG 121702Z 1218/1318 VRB03KT 9999 FEW015 TX22/1312Z TN09/1304Z"
    },
    {
      "icao": "LMML",
      "alert": "OK",
      "vis_m": 9999,
      "fzfg": false,
      "metar_trigger": false,
      "taf_trigger": false,
      "metar": "METAR LMML 122245Z 26006KT 9999 FEW020 11/10 Q1021 NOSIG",
      "taf": "TAF LMML 121700Z 1218/1318 34006KT 9999 SCT016"
    },
    {
      "icao": "LOWW",
      "alert": "OK",
      "vis_m": 9999,
      "fzfg": false,
      "metar_trigger": false,
      "taf_trigger": false,
      "metar": "METAR LOWW 122220Z 29006KT CAVOK 09/05 Q1023 NOSIG",
      "taf": "TAF LOWW 122015Z 1221/1403 29008KT CAVOK TX17/1314Z TN03/1305Z"
    },
    {
      "icao": "LPFR",
      "alert": "OK",
      "vis_m": 9999,
      "fzfg": false,
      "metar_trigger": false,
      "taf_trigger": false,
      "metar": "METAR LPFR 122230Z 35003KT CAVOK 14/10 Q1023",
      "taf": "TAF LPFR 121700Z 1218/1318 13005KT CAVOK"
    },
    {
      "icao": "LPMA",
      "alert": "OK",
      "vis_m": 9999,
      "fzfg": false,
      "metar_trigger": false,
      "taf_trigger": false,
      "metar": "METAR LPMA 122230Z 01016KT 9999 BKN015 16/11 Q1025",
      "taf": "TAF LPMA 121700Z 1218/1318 02015KT 9999 SCT015"
    },
    {
      "icao": "LPPR",
      "alert": "OK",
      "vis_m": 9000,
      "fzfg": false,
      "metar_trigger": false,
      "taf_trigger": false,
      "metar": "METAR LPPR 122230Z 05002KT 9000 FEW005 08/08 Q1026",
      "taf": "TAF LPPR 121700Z 1218/1318 30007KT 9999 FEW020"
    },
    {
      "icao": "LPPS",
      "alert": "OK",
      "vis_m": 9999,
      "fzfg": false,
      "metar_trigger": false,
      "taf_trigger": false,
      "metar": "METAR LPPS 122230Z 06012KT 020V090 9999 BKN015 16/11 Q1025",
      "taf": "TAF LPPS 121700Z 1218/1324 06015KT 9999 SCT015"
    },
    {
      "icao": "LPPT",
      "alert": "OK",
      "vis_m": 9999,
      "fzfg": false,
      "metar_trigger": false,
      "taf_trigger": false,
      "metar": "METAR LPPT 122230Z 32011KT 9999 FEW020 11/10 Q1025",
      "taf": "TAF LPPT 121700Z 1218/1324 31010KT 9999 FEW030"
    },
    {
      "icao": "LQBK",
      "alert": "OK",
      "vis_m": 9999,
      "fzfg": false,
      "metar_trigger": false,
      "taf_trigger": false,
      "metar": "METAR LQBK 122230Z VRB01KT CAVOK 05/04 Q1022 NOSIG",
      "taf": "TAF LQBK 121700Z 1218/1318 15005KT 9999 SCT045 TX17/1313Z TN07/1306Z"
    },
    {
      "icao": "LQSA",
      "alert": "OK",
      "vis_m": 9999,
      "fzfg": false,
      "metar_trigger": false,
      "taf_trigger": false,
      "metar": "METAR LQSA 122230Z 13002KT CAVOK 06/04 Q1022 NOSIG",
      "taf": ""
    },
    {
      "icao": "LQTZ",
      "alert": "OK",
      "vis_m": 8000,
      "fzfg": false,
      "metar_trigger": false,
      "taf_trigger": false,
      "metar": "METAR LQTZ 122230Z 00000KT 8000 -RA FEW045 BKN065 08/07 Q1022",
      "taf": "TAF LQTZ 121700Z 1218/1318 30005KT 9999 SCT050 TX19/1313Z TN02/1306Z"
    },
    {
      "icao": "LRBC",
      "alert": "OK",
      "vis_m": 9999,
      "fzfg": false,
      "metar_trigger": false,
      "taf_trigger": false,
      "metar": "METAR LRBC 122230Z 00000KT CAVOK 02/01 Q1025",
      "taf": "TAF LRBC 122000Z 1221/1306 VRB04KT CAVOK"
    },
    {
      "icao": "LRBS",
      "alert": "OK",
      "vis_m": 9999,
      "fzfg": false,
      "metar_trigger": false,
      "taf_trigger": false,
      "metar": "METAR LRBS 122230Z 00000KT CAVOK 03/01 Q1024 NOSIG",
      "taf": "TAF LRBS 121700Z 1218/1318 02005KT CAVOK"
    },
    {
      "icao": "LRBV",
      "alert": "OK",
      "vis_m": 9999,
      "fzfg": false,
      "metar_trigger": false,
      "taf_trigger": false,
      "metar": "METAR LRBV 122230Z AUTO 07002KT 9999 NCD 02/M02 Q1023",
      "taf": "TAF LRBV 122000Z 1221/1306 VRB04KT CAVOK"
    },
    {
      "icao": "LRCL",
      "alert": "OK",
      "vis_m": 9999,
      "fzfg": false,
      "metar_trigger": false,
      "taf_trigger": false,
      "metar": "METAR LRCL 122230Z 25005KT CAVOK 03/M04 Q1022",
      "taf": "TAF LRCL 122000Z 1221/1306 VRB04KT CAVOK"
    },
    {
      "icao": "LRCV",
      "alert": "OK",
      "vis_m": 9999,
      "fzfg": false,
      "metar_trigger": false,
      "taf_trigger": false,
      "metar": "METAR LRCV 122230Z 04007KT CAVOK 02/02 Q1024",
      "taf": "TAF LRCV 122000Z 1221/1306 06007KT CAVOK"
    },
    {
      "icao": "LRIA",
      "alert": "OK",
      "vis_m": 9999,
      "fzfg": false,
      "metar_trigger": false,
      "taf_trigger": false,
      "metar": "METAR LRIA 122230Z 09006KT CAVOK 06/M01 Q1025",
      "taf": "TAF LRIA 122000Z 1221/1306 VRB04KT CAVOK"
    },
    {
      "icao": "LROP",
      "alert": "OK",
      "vis_m": 9999,
      "fzfg": false,
      "metar_trigger": false,
      "taf_trigger": false,
      "metar": "METAR LROP 122230Z COR 05002KT CAVOK 04/01 Q1024 NOSIG",
      "taf": "TAF LROP 121700Z 1218/1318 02005KT CAVOK"
    },
    {
      "icao": "LRSB",
      "alert": "OK",
      "vis_m": 9999,
      "fzfg": false,
      "metar_trigger": false,
      "taf_trigger": false,
      "metar": "METAR LRSB 122230Z VRB01KT CAVOK 03/M04 Q1022",
      "taf": "TAF LRSB 121700Z 1218/1318 VRB04KT CAVOK"
    },
    {
      "icao": "LRSM",
      "alert": "OK",
      "vis_m": 9999,
      "fzfg": false,
      "metar_trigger": false,
      "taf_trigger": false,
      "metar": "METAR LRSM 122230Z AUTO 17003KT 9999 NCD 04/M00 Q1022",
      "taf": "TAF LRSM 121400Z 1215/1224 VRB04KT CAVOK"
    },
    {
      "icao": "LRSV",
      "alert": "OK",
      "vis_m": 9999,
      "fzfg": false,
      "metar_trigger": false,
      "taf_trigger": false,
      "metar": "METAR LRSV 122230Z 16006KT CAVOK 03/00 Q1023",
      "taf": "TAF LRSV 122000Z 1221/1306 17005KT CAVOK"
    },
    {
      "icao": "LRTM",
      "alert": "OK",
      "vis_m": 9999,
      "fzfg": false,
      "metar_trigger": false,
      "taf_trigger": false,
      "metar": "METAR LRTM 122230Z AUTO VRB01KT 9999 NCD M00/M04 Q1022",
      "taf": "TAF LRTM 121400Z 1215/1224 VRB04KT CAVOK"
    },
    {
      "icao": "LRTR",
      "alert": "OK",
      "vis_m": 9999,
      "fzfg": false,
      "metar_trigger": false,
      "taf_trigger": false,
      "metar": "METAR LRTR 122230Z 08007KT CAVOK 04/02 Q1022 NOSIG",
      "taf": "TAF LRTR 121700Z 1218/1318 VRB04KT CAVOK"
    },
    {
      "icao": "LTAC",
      "alert": "OK",
      "vis_m": 9999,
      "fzfg": false,
      "metar_trigger": false,
      "taf_trigger": false,
      "metar": "METAR LTAC 122220Z VRB01KT CAVOK M01/M07 Q1018 NOSIG RMK RWY21C 36003KT RWY03L VRB02KT RWY21R 36003KT RWY03R 00000KT RWY21L VRB02KT",
      "taf": "TAF LTAC 121640Z 1218/1318 VRB02KT CAVOK"
    },
    {
      "icao": "LTFM",
      "alert": "OK",
      "vis_m": 9999,
      "fzfg": false,
      "metar_trigger": false,
      "taf_trigger": false,
      "metar": "METAR LTFM 122220Z 03011KT 9999 BKN020 07/02 Q1022 NOSIG RMK RWY17L 04010KT RWY34L 02010KT RWY16R 03010KT RWY36 04010KT RWY18 04010KT",
      "taf": "TAF LTFM 121640Z 1218/1324 04010KT 9999 BKN017"
    },
    {
      "icao": "LUKK",
      "alert": "OK",
      "vis_m": 9999,
      "fzfg": false,
      "metar_trigger": false,
      "taf_trigger": false,
      "metar": "METAR LUKK 122230Z VRB02KT CAVOK 02/M02 Q1025 NOSIG",
      "taf": "TAF LUKK 121716Z 1218/1318 VRB04KT CAVOK"
    },
    {
      "icao": "LWOH",
      "alert": "OK",
      "vis_m": null,
      "fzfg": false,
      "metar_trigger": false,
      "taf_trigger": false,
      "metar": "",
      "taf": "TAF LWOH 122030Z 1221/1321 VRB02KT 9999 FEW040"
    },
    {
      "icao": "LWSK",
      "alert": "OK",
      "vis_m": null,
      "fzfg": false,
      "metar_trigger": false,
      "taf_trigger": false,
      "metar": "",
      "taf": "TAF LWSK 122030Z 1221/1321 VRB02KT CAVOK"
    },
    {
      "icao": "LYBE",
      "alert": "OK",
      "vis_m": 9999,
      "fzfg": false,
      "metar_trigger": false,
      "taf_trigger": false,
      "metar": "METAR LYBE 122230Z 09009KT CAVOK 11/01 Q1022 NOSIG",
      "taf": "TAF LYBE 121700Z 1218/1318 07005KT CAVOK TX19/1313Z TN05/1305Z"
    },
    {
      "icao": "LYNI",
      "alert": "OK",
      "vis_m": 9999,
      "fzfg": false,
      "metar_trigger": false,
      "taf_trigger": false,
      "metar": "METAR LYNI 122230Z VRB01KT CAVOK 09/02 Q1021 NOSIG",
      "taf": "TAF LYNI 121700Z 1218/1318 07006KT CAVOK TX18/1313Z TN03/1305Z"
    },
    {
      "icao": "LYPG",
      "alert": "OK",
      "vis_m": 9999,
      "fzfg": false,
      "metar_trigger": false,
      "taf_trigger": false,
      "metar": "METAR LYPG 122230Z VRB02KT CAVOK 10/06 Q1020 NOSIG",
      "taf": "TAF LYPG 121700Z 1218/1318 36005KT 9999 SCT090 TX20/1314Z TN07/1305Z"
    },
    {
      "icao": "LZIB",
      "alert": "OK",
      "vis_m": 9999,
      "fzfg": false,
      "metar_trigger": false,
      "taf_trigger": false,
      "metar": "METAR LZIB 122230Z 29006KT CAVOK 11/06 Q1022 NOSIG",
      "taf": "TAF LZIB 121715Z 1218/1318 32009KT CAVOK"
    },
    {
      "icao": "LZKZ",
      "alert": "OK",
      "vis_m": 9999,
      "fzfg": false,
      "metar_trigger": false,
      "taf_trigger": false,
      "metar": "METAR LZKZ 122230Z 35004KT CAVOK 06/03 Q1022 NOSIG",
      "taf": "TAF LZKZ 121715Z 1218/1318 34005KT CAVOK"
    },
    {
      "icao": "LZTT",
      "alert": "OK",
      "vis_m": 9999,
      "fzfg": false,
      "metar_trigger": false,
      "taf_trigger": false,
      "metar": "METAR LZTT 122230Z 30009KT CAVOK 02/M00 Q1022",
      "taf": "TAF LZTT 121715Z 1218/1318 36005KT 9999 FEW050"
    },
    {
      "icao": "OEJN",
      "alert": "OK",
      "vis_m": 9999,
      "fzfg": false,
      "metar_trigger": false,
      "taf_trigger": false,
      "metar": "METAR OEJN 122200Z 34003KT CAVOK 23/17 Q1012 NOSIG",
      "taf": "TAF OEJN 121700Z 1218/1324 03006KT 9999 FEW040"
    },
    {
      "icao": "OEMA",
      "alert": "OK",
      "vis_m": 9999,
      "fzfg": false,
      "metar_trigger": false,
      "taf_trigger": false,
      "metar": "METAR OEMA 122200Z 30008KT CAVOK 23/M02 Q1016 NOSIG",
      "taf": "TAF OEMA 121700Z 1218/1324 30012KT CAVOK"
    },
    {
      "icao": "OJAI",
      "alert": "OK",
      "vis_m": 4000,
      "fzfg": false,
      "metar_trigger": false,
      "taf_trigger": false,
      "metar": "METAR OJAI 122200Z 04002KT 4000 HZ NSC 09/M00 Q1016 NOSIG",
      "taf": ""
    },
    {
      "icao": "OMAA",
      "alert": "OK",
      "vis_m": null,
      "fzfg": false,
      "metar_trigger": false,
      "taf_trigger": false,
      "metar": "",
      "taf": ""
    },
    {
      "icao": "OMDB",
      "alert": "OK",
      "vis_m": null,
      "fzfg": false,
      "metar_trigger": false,
      "taf_trigger": false,
      "metar": "",
      "taf": ""
    },
    {
      "icao": "UAAA",
      "alert": "OK",
      "vis_m": 9999,
      "fzfg": false,
      "metar_trigger": false,
      "taf_trigger": false,
      "metar": "METAR UAAA 122230Z 19002MPS 9999 NSC M07/M09 Q1032 NOSIG",
      "taf": "TAF UAAA 121702Z 1218/1318 22003MPS 3100 BR FU FEW011 SCT050 TX04/1309Z TNM10/1301Z"
    },
    {
      "icao": "UBBB",
      "alert": "OK",
      "vis_m": 9999,
      "fzfg": false,
      "metar_trigger": false,
      "taf_trigger": false,
      "metar": "METAR UBBB 122230Z 07002KT 9999 FEW023 07/04 Q1028 NOSIG",
      "taf": "TAF UBBB 121702Z 1218/1318 14006KT 9999 SCT020 TX11/1310Z TN03/1301Z"
    },
    {
      "icao": "UDSG",
      "alert": "OK",
      "vis_m": 9999,
      "fzfg": false,
      "metar_trigger": false,
      "taf_trigger": false,
      "metar": "METAR UDSG 122230Z 12011KT 9999 FEW049 M03/M07 Q1023 NOSIG",
      "taf": "TAF UDSG 121658Z 1218/1318 VRB06KT 9999 SCT040"
    },
    {
      "icao": "UDYZ",
      "alert": "OK",
      "vis_m": 9999,
      "fzfg": false,
      "metar_trigger": false,
      "taf_trigger": false,
      "metar": "METAR UDYZ 122230Z 00000KT 9999 BKN046 02/M02 Q1023 NOSIG",
      "taf": "TAF UDYZ 121700Z 1218/1318 03006KT 9999 FEW040"
    },
    {
      "icao": "UGKO",
      "alert": "OK",
      "vis_m": 9999,
      "fzfg": false,
      "metar_trigger": false,
      "taf_trigger": false,
      "metar": "METAR UGKO 122230Z 08022G32KT CAVOK 09/M03 Q1021 NOSIG",
      "taf": "TAF UGKO 121700Z 1218/1318 08020G33KT CAVOK TX17/1311Z TN09/1303Z"
    }
  ]
}