{
  "ts_utc": "2026-05-27T17:28:18Z",
  "threshold_m": 150,
  "source": "stations_override.txt (ICAO list) + aviationweather.gov (METAR/TAF raw)",
  "station_count": 159,
  "stations": [
    {
      "icao": "BIKF",
      "alert": "OK",
      "vis_m": 9999,
      "fzfg": false,
      "metar_trigger": false,
      "taf_trigger": false,
      "metar": "METAR BIKF 271700Z 23013G23KT 200V260 9999 -RA SCT015 BKN024 07/04 Q1020",
      "taf": "TAF BIKF 271634Z 2718/2818 22014KT 9999 FEW018 BKN032 TX09/2816Z TN05/2805Z"
    },
    {
      "icao": "BKPR",
      "alert": "OK",
      "vis_m": null,
      "fzfg": false,
      "metar_trigger": false,
      "taf_trigger": false,
      "metar": "",
      "taf": ""
    },
    {
      "icao": "EBCI",
      "alert": "OK",
      "vis_m": 9999,
      "fzfg": false,
      "metar_trigger": false,
      "taf_trigger": false,
      "metar": "METAR EBCI 271720Z 06011KT CAVOK 26/13 Q1024 NOSIG",
      "taf": "TAF EBCI 271120Z 2712/2818 06008KT CAVOK"
    },
    {
      "icao": "EDDB",
      "alert": "OK",
      "vis_m": 9999,
      "fzfg": false,
      "metar_trigger": false,
      "taf_trigger": false,
      "metar": "METAR EDDB 271720Z AUTO 35011KT 320V020 CAVOK 20/05 Q1022 NOSIG",
      "taf": "TAF EDDB 271700Z 2718/2818 34008KT CAVOK"
    },
    {
      "icao": "EDDH",
      "alert": "OK",
      "vis_m": 9999,
      "fzfg": false,
      "metar_trigger": false,
      "taf_trigger": false,
      "metar": "METAR EDDH 271720Z AUTO 30012KT 270V330 CAVOK 18/04 Q1025 NOSIG",
      "taf": "TAF EDDH 271700Z 2718/2824 31010KT CAVOK"
    },
    {
      "icao": "EDDK",
      "alert": "OK",
      "vis_m": 9999,
      "fzfg": false,
      "metar_trigger": false,
      "taf_trigger": false,
      "metar": "METAR EDDK 271720Z AUTO 02009KT 350V050 CAVOK 24/10 Q1024 NOSIG",
      "taf": "TAF EDDK 271700Z 2718/2824 35009KT CAVOK"
    },
    {
      "icao": "EDDN",
      "alert": "OK",
      "vis_m": 9999,
      "fzfg": false,
      "metar_trigger": false,
      "taf_trigger": false,
      "metar": "METAR EDDN 271720Z AUTO 35012KT 330V030 CAVOK 26/10 Q1021 NOSIG",
      "taf": "TAF EDDN 271700Z 2718/2818 35010KT CAVOK"
    },
    {
      "icao": "EDDS",
      "alert": "OK",
      "vis_m": 9999,
      "fzfg": false,
      "metar_trigger": false,
      "taf_trigger": false,
      "metar": "METAR EDDS 271720Z AUTO 36011KT 330V040 CAVOK 28/10 Q1021 NOSIG",
      "taf": "TAF EDDS 271700Z 2718/2818 34010KT CAVOK"
    },
    {
      "icao": "EDFH",
      "alert": "OK",
      "vis_m": 9999,
      "fzfg": false,
      "metar_trigger": false,
      "taf_trigger": false,
      "metar": "METAR EDFH 271720Z 35010KT 320V030 CAVOK 23/13 Q1024",
      "taf": "TAF EDFH 271700Z 2718/2818 01010KT CAVOK"
    },
    {
      "icao": "EDJA",
      "alert": "OK",
      "vis_m": 9999,
      "fzfg": false,
      "metar_trigger": false,
      "taf_trigger": false,
      "metar": "METAR EDJA 271720Z 36007KT CAVOK 26/10 Q1022",
      "taf": "TAF EDJA 271400Z 2715/2724 31007KT CAVOK"
    },
    {
      "icao": "EDLW",
      "alert": "OK",
      "vis_m": 9999,
      "fzfg": false,
      "metar_trigger": false,
      "taf_trigger": false,
      "metar": "METAR EDLW 271720Z COR 35008KT CAVOK 21/09 Q1025",
      "taf": "TAF EDLW 271700Z 2718/2818 35007KT CAVOK"
    },
    {
      "icao": "EDNY",
      "alert": "OK",
      "vis_m": 9999,
      "fzfg": false,
      "metar_trigger": false,
      "taf_trigger": false,
      "metar": "METAR EDNY 271720Z 32005KT 260V040 9999 FEW043 26/12 Q1021",
      "taf": "TAF EDNY 271400Z 2715/2724 04006KT CAVOK"
    },
    {
      "icao": "EDSB",
      "alert": "OK",
      "vis_m": 9999,
      "fzfg": false,
      "metar_trigger": false,
      "taf_trigger": false,
      "metar": "METAR EDSB 271720Z 03009KT CAVOK 29/13 Q1020",
      "taf": "TAF EDSB 271700Z 2718/2818 02007KT CAVOK"
    },
    {
      "icao": "EETN",
      "alert": "OK",
      "vis_m": 9999,
      "fzfg": false,
      "metar_trigger": false,
      "taf_trigger": false,
      "metar": "METAR EETN 271720Z 30011KT CAVOK 10/06 Q1005 NOSIG",
      "taf": "TAF EETN 271130Z 2712/2812 28019KT 9999 FEW030CB BKN045"
    },
    {
      "icao": "EFTU",
      "alert": "OK",
      "vis_m": 9999,
      "fzfg": false,
      "metar_trigger": false,
      "taf_trigger": false,
      "metar": "METAR EFTU 271720Z AUTO 33012KT 290V360 CAVOK 12/03 Q1008",
      "taf": "TAF EFTU 271433Z 2715/2815 32015G25KT 9999 FEW040CB"
    },
    {
      "icao": "EGBB",
      "alert": "OK",
      "vis_m": 9999,
      "fzfg": false,
      "metar_trigger": false,
      "taf_trigger": false,
      "metar": "METAR EGBB 271720Z 06012KT 040V130 CAVOK 24/15 Q1024",
      "taf": "TAF EGBB 271703Z 2718/2818 08011KT 9999 FEW040"
    },
    {
      "icao": "EGGP",
      "alert": "OK",
      "vis_m": 9999,
      "fzfg": false,
      "metar_trigger": false,
      "taf_trigger": false,
      "metar": "METAR EGGP 271720Z 13011KT CAVOK 23/14 Q1023",
      "taf": "TAF EGGP 271655Z 2718/2818 13012KT 9999 FEW045"
    },
    {
      "icao": "EGGW",
      "alert": "OK",
      "vis_m": 9999,
      "fzfg": false,
      "metar_trigger": false,
      "taf_trigger": false,
      "metar": "METAR EGGW 271720Z AUTO 11013KT 9999 NCD 22/12 Q1024",
      "taf": "TAF EGGW 271653Z 2718/2818 10010KT CAVOK"
    },
    {
      "icao": "EGKK",
      "alert": "OK",
      "vis_m": 9999,
      "fzfg": false,
      "metar_trigger": false,
      "taf_trigger": false,
      "metar": "METAR EGKK 271720Z 06013KT CAVOK 24/15 Q1023",
      "taf": "TAF EGKK 271655Z 2718/2824 07010KT CAVOK"
    },
    {
      "icao": "EGNM",
      "alert": "OK",
      "vis_m": 9999,
      "fzfg": false,
      "metar_trigger": false,
      "taf_trigger": false,
      "metar": "METAR EGNM 271720Z 11011KT CAVOK 17/09 Q1026",
      "taf": "TAF EGNM 271655Z 2718/2818 10010KT 9999 SCT045"
    },
    {
      "icao": "EGPD",
      "alert": "OK",
      "vis_m": 9999,
      "fzfg": false,
      "metar_trigger": false,
      "taf_trigger": false,
      "metar": "METAR EGPD 271720Z COR AUTO 16014KT 9999 NCD 14/07 Q1028 NOSIG",
      "taf": "TAF EGPD 271655Z 2718/2818 16010KT 9999 FEW015"
    },
    {
      "icao": "EGPF",
      "alert": "OK",
      "vis_m": 9999,
      "fzfg": false,
      "metar_trigger": false,
      "taf_trigger": false,
      "metar": "METAR EGPF 271720Z AUTO 06012KT 9999 NCD 19/11 Q1026",
      "taf": "TAF EGPF 271655Z 2718/2818 06012KT 9999 BKN040"
    },
    {
      "icao": "EHBK",
      "alert": "OK",
      "vis_m": 9999,
      "fzfg": false,
      "metar_trigger": false,
      "taf_trigger": false,
      "metar": "METAR EHBK 271655Z AUTO 04009KT 9999 NCD 25/12 Q1024 NOSIG",
      "taf": "TAF EHBK 271657Z 2718/2824 05007KT CAVOK"
    },
    {
      "icao": "EHEH",
      "alert": "OK",
      "vis_m": 9999,
      "fzfg": false,
      "metar_trigger": false,
      "taf_trigger": false,
      "metar": "METAR EHEH 271655Z AUTO 03008KT 350V080 9999 NCD 24/10 Q1025 BLU NOSIG RMK TREND REMOTE BY EHWX",
      "taf": "TAF EHEH 271104Z 2712/2818 05007KT CAVOK"
    },
    {
      "icao": "EKBI",
      "alert": "OK",
      "vis_m": 9999,
      "fzfg": false,
      "metar_trigger": false,
      "taf_trigger": false,
      "metar": "METAR EKBI 271720Z AUTO 30013KT 9999 NCD 13/06 Q1025",
      "taf": "TAF EKBI 271427Z 2715/2815 31015KT CAVOK"
    },
    {
      "icao": "EKCH",
      "alert": "OK",
      "vis_m": 9999,
      "fzfg": false,
      "metar_trigger": false,
      "taf_trigger": false,
      "metar": "METAR EKCH 271720Z AUTO 33012KT 9999 NCD 16/04 Q1022 NOSIG",
      "taf": "TAF EKCH 271427Z 2715/2815 31012KT CAVOK"
    },
    {
      "icao": "ENAL",
      "alert": "OK",
      "vis_m": 9999,
      "fzfg": false,
      "metar_trigger": false,
      "taf_trigger": false,
      "metar": "METAR ENAL 271720Z 27007KT 240V310 9999 SCT021 SCT032 10/04 Q1028",
      "taf": "TAF ENAL 271400Z 2715/2724 30008KT 9999 SCT030"
    },
    {
      "icao": "ENBR",
      "alert": "OK",
      "vis_m": 9999,
      "fzfg": false,
      "metar_trigger": false,
      "taf_trigger": false,
      "metar": "METAR ENBR 271720Z 32012KT 9999 SCT027 11/04 Q1028 NOSIG RMK WIND 1200FT 32015KT",
      "taf": "TAF ENBR 271100Z 2712/2812 31008KT 9999 SCT020 BKN030"
    },
    {
      "icao": "ENGM",
      "alert": "OK",
      "vis_m": 9999,
      "fzfg": false,
      "metar_trigger": false,
      "taf_trigger": false,
      "metar": "METAR ENGM 271720Z 36013KT CAVOK 16/M03 Q1020 NOSIG",
      "taf": "TAF ENGM 271100Z 2712/2812 35007KT CAVOK"
    },
    {
      "icao": "ENHD",
      "alert": "OK",
      "vis_m": 9999,
      "fzfg": false,
      "metar_trigger": false,
      "taf_trigger": false,
      "metar": "METAR ENHD 271720Z 33015KT 9999 FEW015 11/05 Q1028",
      "taf": "TAF ENHD 271400Z 2715/2722 30012KT 9999 FEW015"
    },
    {
      "icao": "ENTC",
      "alert": "OK",
      "vis_m": 9999,
      "fzfg": false,
      "metar_trigger": false,
      "taf_trigger": false,
      "metar": "METAR ENTC 271720Z 32009KT 9999 SCT030 BKN045 09/03 Q1015 NOSIG RMK WIND 2600FT 32018KT",
      "taf": "TAF ENTC 271100Z 2712/2812 35007KT 9999 BKN045"
    },
    {
      "icao": "ENTO",
      "alert": "OK",
      "vis_m": 9999,
      "fzfg": false,
      "metar_trigger": false,
      "taf_trigger": false,
      "metar": "METAR ENTO 271720Z 15003KT 070V230 CAVOK 18/03 Q1020 BECMG 34010KT",
      "taf": "TAF ENTO 271100Z 2712/2812 33010KT CAVOK"
    },
    {
      "icao": "ENVA",
      "alert": "OK",
      "vis_m": 9999,
      "fzfg": false,
      "metar_trigger": false,
      "taf_trigger": false,
      "metar": "METAR ENVA 271720Z 28015KT 9999 VCSH FEW016 SCT024 OVC035 08/05 Q1025 NOSIG RMK WIND 670FT 28019KT",
      "taf": "TAF ENVA 271100Z 2712/2812 26015KT 9999 -SHRA SCT015 BKN030"
    },
    {
      "icao": "ENZV",
      "alert": "OK",
      "vis_m": 9999,
      "fzfg": false,
      "metar_trigger": false,
      "taf_trigger": false,
      "metar": "METAR ENZV 271720Z 33020KT CAVOK 12/05 Q1027 NOSIG",
      "taf": "TAF ENZV 271100Z 2712/2812 32015KT 9999 SCT018"
    },
    {
      "icao": "EPGD",
      "alert": "OK",
      "vis_m": 9999,
      "fzfg": false,
      "metar_trigger": false,
      "taf_trigger": false,
      "metar": "METAR EPGD 271700Z 30017KT CAVOK 16/02 Q1018",
      "taf": "TAF EPGD 271130Z 2712/2812 31015KT CAVOK"
    },
    {
      "icao": "EPKK",
      "alert": "OK",
      "vis_m": 9999,
      "fzfg": false,
      "metar_trigger": false,
      "taf_trigger": false,
      "metar": "METAR EPKK 271700Z 33012KT CAVOK 22/01 Q1017",
      "taf": "TAF EPKK 271430Z 2715/2815 32015KT CAVOK"
    },
    {
      "icao": "EPKT",
      "alert": "OK",
      "vis_m": 9999,
      "fzfg": false,
      "metar_trigger": false,
      "taf_trigger": false,
      "metar": "METAR EPKT 271700Z 33010KT 290V350 CAVOK 20/03 Q1017",
      "taf": "TAF EPKT 271130Z 2712/2812 32014KT CAVOK"
    },
    {
      "icao": "EPLB",
      "alert": "OK",
      "vis_m": 9999,
      "fzfg": false,
      "metar_trigger": false,
      "taf_trigger": false,
      "metar": "METAR EPLB 271700Z 32010KT CAVOK 19/01 Q1014",
      "taf": "TAF EPLB 271130Z 2712/2812 31015KT CAVOK"
    },
    {
      "icao": "EPMO",
      "alert": "OK",
      "vis_m": 9999,
      "fzfg": false,
      "metar_trigger": false,
      "taf_trigger": false,
      "metar": "METAR EPMO 271700Z 34013KT 300V010 CAVOK 18/04 Q1016",
      "taf": "TAF EPMO 271130Z 2712/2812 30015KT CAVOK"
    },
    {
      "icao": "EPPO",
      "alert": "OK",
      "vis_m": 9999,
      "fzfg": false,
      "metar_trigger": false,
      "taf_trigger": false,
      "metar": "METAR EPPO 271700Z 31013KT CAVOK 20/M01 Q1019",
      "taf": "TAF EPPO 271130Z 2712/2812 32012KT CAVOK"
    },
    {
      "icao": "EPRA",
      "alert": "OK",
      "vis_m": 9999,
      "fzfg": false,
      "metar_trigger": false,
      "taf_trigger": false,
      "metar": "METAR EPRA 271700Z 34014G26KT 310V010 CAVOK 20/M01 Q1015",
      "taf": "TAF EPRA 271430Z 2715/2724 31010KT CAVOK"
    },
    {
      "icao": "EPRZ",
      "alert": "OK",
      "vis_m": 9999,
      "fzfg": false,
      "metar_trigger": false,
      "taf_trigger": false,
      "metar": "METAR EPRZ 271700Z 33012KT CAVOK 22/01 Q1014",
      "taf": "TAF EPRZ 271130Z 2712/2812 30016KT CAVOK"
    },
    {
      "icao": "EPSC",
      "alert": "OK",
      "vis_m": 9999,
      "fzfg": false,
      "metar_trigger": false,
      "taf_trigger": false,
      "metar": "METAR EPSC 271700Z 33015KT CAVOK 17/06 Q1021",
      "taf": "TAF EPSC 271130Z 2712/2812 31015KT CAVOK"
    },
    {
      "icao": "EPSY",
      "alert": "OK",
      "vis_m": 9999,
      "fzfg": false,
      "metar_trigger": false,
      "taf_trigger": false,
      "metar": "METAR EPSY 271700Z 34014G25KT 300V010 CAVOK 15/M01 Q1017",
      "taf": "TAF EPSY 271430Z 2715/2724 33012KT CAVOK"
    },
    {
      "icao": "EPWA",
      "alert": "OK",
      "vis_m": 9999,
      "fzfg": false,
      "metar_trigger": false,
      "taf_trigger": false,
      "metar": "METAR EPWA 271700Z 34015KT 300V010 CAVOK 20/01 Q1016 NOSIG",
      "taf": "TAF EPWA 271430Z 2715/2815 30015KT CAVOK"
    },
    {
      "icao": "EPWR",
      "alert": "OK",
      "vis_m": 9999,
      "fzfg": false,
      "metar_trigger": false,
      "taf_trigger": false,
      "metar": "METAR EPWR 271700Z 33015KT CAVOK 22/02 Q1019",
      "taf": "TAF EPWR 271430Z 2715/2815 33014KT CAVOK"
    },
    {
      "icao": "ESGG",
      "alert": "OK",
      "vis_m": 9999,
      "fzfg": false,
      "metar_trigger": false,
      "taf_trigger": false,
      "metar": "METAR ESGG 271720Z 29010KT 260V340 CAVOK 14/01 Q1021",
      "taf": "TAF ESGG 271430Z 2715/2815 30010G20KT CAVOK"
    },
    {
      "icao": "ESKN",
      "alert": "OK",
      "vis_m": 9999,
      "fzfg": false,
      "metar_trigger": false,
      "taf_trigger": false,
      "metar": "METAR ESKN 271720Z 33009KT 300V360 CAVOK 15/03 Q1016",
      "taf": "TAF ESKN 271430Z 2715/2815 32015G25KT CAVOK"
    },
    {
      "icao": "ESMS",
      "alert": "OK",
      "vis_m": 9999,
      "fzfg": false,
      "metar_trigger": false,
      "taf_trigger": false,
      "metar": "METAR ESMS 271720Z 32018KT CAVOK 15/03 Q1021",
      "taf": "TAF ESMS 271427Z 2715/2815 29015KT CAVOK"
    },
    {
      "icao": "ESSA",
      "alert": "OK",
      "vis_m": 9999,
      "fzfg": false,
      "metar_trigger": false,
      "taf_trigger": false,
      "metar": "METAR ESSA 271720Z 30012KT 9999 VCSH SCT063CB 10/04 Q1015 TEMPO SHRA FEW050CB",
      "taf": ""
    },
    {
      "icao": "EYKA",
      "alert": "OK",
      "vis_m": 9999,
      "fzfg": false,
      "metar_trigger": false,
      "taf_trigger": false,
      "metar": "METAR EYKA 271720Z 32010G21KT 270V020 CAVOK 13/02 Q1013",
      "taf": "TAF EYKA 271700Z 2718/2818 30008KT 8000 SCT045"
    },
    {
      "icao": "EYPA",
      "alert": "OK",
      "vis_m": 9999,
      "fzfg": false,
      "metar_trigger": false,
      "taf_trigger": false,
      "metar": "METAR EYPA 271720Z 29005KT 250V340 9999 VCSH FEW067CB 12/08 Q1015",
      "taf": "TAF EYPA 271700Z 2718/2818 31006KT 6000 SCT045"
    },
    {
      "icao": "EYVI",
      "alert": "OK",
      "vis_m": 9999,
      "fzfg": false,
      "metar_trigger": false,
      "taf_trigger": false,
      "metar": "METAR EYVI 271720Z 32014KT 290V350 CAVOK 13/01 Q1011 NOSIG",
      "taf": "TAF EYVI 271700Z 2718/2818 30010KT 8000 SCT045"
    },
    {
      "icao": "GCFV",
      "alert": "OK",
      "vis_m": 9999,
      "fzfg": false,
      "metar_trigger": false,
      "taf_trigger": false,
      "metar": "METAR GCFV 271700Z 05014KT 030V110 9999 FEW020 24/17 Q1018",
      "taf": "TAF GCFV 271400Z 2715/2815 03016KT CAVOK TX24/2814Z TN20/2806Z"
    },
    {
      "icao": "GCLP",
      "alert": "OK",
      "vis_m": 9999,
      "fzfg": false,
      "metar_trigger": false,
      "taf_trigger": false,
      "metar": "METAR GCLP 271700Z 02021KT 9999 FEW020 23/16 Q1019 NOSIG",
      "taf": "TAF GCLP 271400Z 2715/2815 02025KT 9999 FEW020 TX24/2814Z TN19/2806Z"
    },
    {
      "icao": "GCTS",
      "alert": "OK",
      "vis_m": 9999,
      "fzfg": false,
      "metar_trigger": false,
      "taf_trigger": false,
      "metar": "METAR GCTS 271700Z 11015KT CAVOK 23/17 Q1019 NOSIG",
      "taf": "TAF GCTS 271400Z 2715/2815 10016KT CAVOK TX25/2814Z TN19/2806Z"
    },
    {
      "icao": "GMAD",
      "alert": "OK",
      "vis_m": 8000,
      "fzfg": false,
      "metar_trigger": false,
      "taf_trigger": false,
      "metar": "METAR GMAD 271700Z 24014KT 8000 NSC 24/17 Q1015 NOSIG",
      "taf": "TAF GMAD 271700Z 2718/2824 25014KT 8000 NSC"
    },
    {
      "icao": "GMMN",
      "alert": "OK",
      "vis_m": 9999,
      "fzfg": false,
      "metar_trigger": false,
      "taf_trigger": false,
      "metar": "METAR GMMN 271700Z 31013KT CAVOK 28/18 Q1016 NOSIG",
      "taf": "TAF GMMN 271700Z 2718/2824 32012KT CAVOK"
    },
    {
      "icao": "GMMX",
      "alert": "OK",
      "vis_m": 9999,
      "fzfg": false,
      "metar_trigger": false,
      "taf_trigger": false,
      "metar": "METAR GMMX 271700Z 33011KT 290V020 9999 SCT033 FEW040TCU 38/12 Q1015 NOSIG",
      "taf": "TAF GMMX 271100Z 2712/2818 24006KT 8000 NSC"
    },
    {
      "icao": "HEGN",
      "alert": "OK",
      "vis_m": 9999,
      "fzfg": false,
      "metar_trigger": false,
      "taf_trigger": false,
      "metar": "METAR HEGN 271600Z 35010KT CAVOK 29/11 Q1011 NOSIG",
      "taf": "TAF HEGN 271700Z 2718/2824 33008G20KT CAVOK"
    },
    {
      "icao": "HEMA",
      "alert": "OK",
      "vis_m": 9999,
      "fzfg": false,
      "metar_trigger": false,
      "taf_trigger": false,
      "metar": "METAR HEMA 271600Z 01009KT CAVOK 27/15 Q1010 NOSIG",
      "taf": "TAF HEMA 271700Z 2718/2824 32008G20KT CAVOK"
    },
    {
      "icao": "HESH",
      "alert": "OK",
      "vis_m": 9999,
      "fzfg": false,
      "metar_trigger": false,
      "taf_trigger": false,
      "metar": "METAR HESH 271600Z 03007KT CAVOK 31/15 Q1009 NOSIG",
      "taf": "TAF HESH 271700Z 2718/2824 04012KT CAVOK"
    },
    {
      "icao": "HESX",
      "alert": "OK",
      "vis_m": 9999,
      "fzfg": false,
      "metar_trigger": false,
      "taf_trigger": false,
      "metar": "METAR HESX 271600Z 36008KT CAVOK 28/11 Q1013 NOSIG",
      "taf": "TAF HESX 271700Z 2718/2824 36010KT CAVOK"
    },
    {
      "icao": "LATI",
      "alert": "OK",
      "vis_m": 9999,
      "fzfg": false,
      "metar_trigger": false,
      "taf_trigger": false,
      "metar": "METAR LATI 271720Z 32008KT 290V350 CAVOK 26/14 Q1014 NOSIG",
      "taf": "TAF LATI 271700Z 2718/2818 VRB05KT CAVOK TX34/2812Z TN16/2804Z"
    },
    {
      "icao": "LBPD",
      "alert": "OK",
      "vis_m": 9999,
      "fzfg": false,
      "metar_trigger": false,
      "taf_trigger": false,
      "metar": "METAR LBPD 271700Z AUTO 10005KT 9999 NCD 28/14 Q1013 NOSIG",
      "taf": "TAF LBPD 271700Z 2718/2818 VRB03KT CAVOK"
    },
    {
      "icao": "LBSF",
      "alert": "OK",
      "vis_m": 9999,
      "fzfg": false,
      "metar_trigger": false,
      "taf_trigger": false,
      "metar": "METAR LBSF 271700Z AUTO 09006KT 9999 FEW056/// 25/14 Q1015 NOSIG",
      "taf": "TAF LBSF 271700Z 2718/2818 02010KT CAVOK"
    },
    {
      "icao": "LBWN",
      "alert": "OK",
      "vis_m": 9999,
      "fzfg": false,
      "metar_trigger": false,
      "taf_trigger": false,
      "metar": "METAR LBWN 271700Z AUTO 12005KT 9999 NCD 25/17 Q1011 NOSIG",
      "taf": "TAF LBWN 271700Z 2718/2818 VRB04KT 9999 SCT040"
    },
    {
      "icao": "LCLK",
      "alert": "OK",
      "vis_m": 9999,
      "fzfg": false,
      "metar_trigger": false,
      "taf_trigger": false,
      "metar": "METAR LCLK 271630Z 21006KT 9999 FEW040 27/16 Q1011 NOSIG",
      "taf": "TAF LCLK 271130Z 2712/2812 21014KT 9999 FEW035"
    },
    {
      "icao": "LCPH",
      "alert": "OK",
      "vis_m": 9999,
      "fzfg": false,
      "metar_trigger": false,
      "taf_trigger": false,
      "metar": "METAR LCPH 271630Z 31012KT 9999 FEW020 22/20 Q1012 NOSIG",
      "taf": "TAF LCPH 271130Z 2712/2812 31015KT 9999 FEW020"
    },
    {
      "icao": "LEAL",
      "alert": "OK",
      "vis_m": 9999,
      "fzfg": false,
      "metar_trigger": false,
      "taf_trigger": false,
      "metar": "METAR LEAL 271700Z 09006KT 060V120 CAVOK 26/14 Q1020 NOSIG",
      "taf": "TAF LEAL 271700Z 2718/2818 10009KT CAVOK TX29/2812Z TN16/2806Z"
    },
    {
      "icao": "LEBB",
      "alert": "OK",
      "vis_m": 9999,
      "fzfg": false,
      "metar_trigger": false,
      "taf_trigger": false,
      "metar": "METAR LEBB 271700Z 27005KT CAVOK 28/17 Q1018 NOSIG",
      "taf": "TAF LEBB 271700Z 2718/2818 12005KT CAVOK TX36/2813Z TN17/2804Z"
    },
    {
      "icao": "LEBL",
      "alert": "OK",
      "vis_m": 9999,
      "fzfg": false,
      "metar_trigger": false,
      "taf_trigger": false,
      "metar": "METAR LEBL 271700Z 22019KT CAVOK 25/18 Q1019 NOSIG",
      "taf": "TAF LEBL 271700Z 2718/2818 23013KT CAVOK TX30/2812Z TN20/2806Z"
    },
    {
      "icao": "LECH",
      "alert": "OK",
      "vis_m": 9999,
      "fzfg": false,
      "metar_trigger": false,
      "taf_trigger": false,
      "metar": "METAR LECH 271700Z AUTO 12006KT 080V140 CAVOK 27/06 Q1021",
      "taf": "TAF LECH 271700Z 2718/2818 VRB04KT CAVOK TX33/2813Z TN15/2806Z"
    },
    {
      "icao": "LEMD",
      "alert": "OK",
      "vis_m": 9999,
      "fzfg": false,
      "metar_trigger": false,
      "taf_trigger": false,
      "metar": "METAR LEMD 271700Z 12003KT 9999 FEW080 35/06 Q1019 NOSIG",
      "taf": "TAF LEMD 271700Z 2718/2824 VRB04KT CAVOK TX35/2816Z TN14/2806Z"
    },
    {
      "icao": "LEMG",
      "alert": "OK",
      "vis_m": 9999,
      "fzfg": false,
      "metar_trigger": false,
      "taf_trigger": false,
      "metar": "METAR LEMG 271700Z 15005KT 110V210 CAVOK 23/13 Q1020 NOSIG",
      "taf": "TAF LEMG 271700Z 2718/2818 13010KT CAVOK TX28/2814Z TN17/2807Z"
    },
    {
      "icao": "LEVC",
      "alert": "OK",
      "vis_m": 9999,
      "fzfg": false,
      "metar_trigger": false,
      "taf_trigger": false,
      "metar": "METAR LEVC 271700Z 12008KT 080V160 CAVOK 27/13 Q1020 NOSIG",
      "taf": "TAF LEVC 271700Z 2718/2818 12009KT CAVOK TX33/2812Z TN16/2806Z"
    },
    {
      "icao": "LEXJ",
      "alert": "OK",
      "vis_m": 9999,
      "fzfg": false,
      "metar_trigger": false,
      "taf_trigger": false,
      "metar": "METAR LEXJ 271700Z 09001KT CAVOK 23/19 Q1019",
      "taf": "TAF LEXJ 271400Z 2715/2815 05008KT CAVOK TX30/2812Z TN15/2805Z"
    },
    {
      "icao": "LEZG",
      "alert": "OK",
      "vis_m": 9999,
      "fzfg": false,
      "metar_trigger": false,
      "taf_trigger": false,
      "metar": "METAR LEZG 271700Z VRB02KT CAVOK 35/03 Q1018 NOSIG",
      "taf": "TAF LEZG 271700Z 2718/2818 VRB04KT CAVOK TX37/2815Z TN20/2806Z"
    },
    {
      "icao": "LEZL",
      "alert": "OK",
      "vis_m": 9999,
      "fzfg": false,
      "metar_trigger": false,
      "taf_trigger": false,
      "metar": "METAR LEZL 271700Z VRB06KT CAVOK 36/02 Q1016 NOSIG",
      "taf": "TAF LEZL 271400Z 2715/2815 09012KT CAVOK TX38/2815Z TN16/2807Z"
    },
    {
      "icao": "LFBD",
      "alert": "OK",
      "vis_m": 9999,
      "fzfg": false,
      "metar_trigger": false,
      "taf_trigger": false,
      "metar": "METAR LFBD 271700Z AUTO 12004KT 060V180 9999 // NSC 36/09 Q1019",
      "taf": "TAF LFBD 271100Z 2712/2818 12005KT CAVOK TX39/2814Z TN21/2805Z"
    },
    {
      "icao": "LFLL",
      "alert": "OK",
      "vis_m": 9999,
      "fzfg": false,
      "metar_trigger": false,
      "taf_trigger": false,
      "metar": "METAR LFLL 271700Z 01010KT CAVOK 31/10 Q1020 NOSIG",
      "taf": "TAF LFLL 271700Z 2718/2824 36008KT CAVOK"
    },
    {
      "icao": "LFLS",
      "alert": "OK",
      "vis_m": 9999,
      "fzfg": false,
      "metar_trigger": false,
      "taf_trigger": false,
      "metar": "METAR LFLS 271700Z AUTO 36011KT CAVOK 28/10 Q1020 BECMG 09006KT",
      "taf": "TAF LFLS 271400Z 2715/2815 36008KT CAVOK"
    },
    {
      "icao": "LFMN",
      "alert": "OK",
      "vis_m": 9999,
      "fzfg": false,
      "metar_trigger": false,
      "taf_trigger": false,
      "metar": "METAR LFMN 271700Z 11003KT CAVOK 24/19 Q1017 NOSIG",
      "taf": "TAF LFMN 271400Z 2715/2821 09007KT CAVOK"
    },
    {
      "icao": "LFOB",
      "alert": "OK",
      "vis_m": 9999,
      "fzfg": false,
      "metar_trigger": false,
      "taf_trigger": false,
      "metar": "METAR LFOB 271700Z AUTO 06007KT CAVOK 30/17 Q1022 NOSIG",
      "taf": "TAF LFOB 271700Z 2718/2818 VRB04KT CAVOK"
    },
    {
      "icao": "LFPO",
      "alert": "OK",
      "vis_m": 9999,
      "fzfg": false,
      "metar_trigger": false,
      "taf_trigger": false,
      "metar": "METAR LFPO 271700Z 10007KT CAVOK 31/14 Q1021 NOSIG",
      "taf": "TAF LFPO 271700Z 2718/2824 10005KT CAVOK"
    },
    {
      "icao": "LFSB",
      "alert": "OK",
      "vis_m": 9999,
      "fzfg": false,
      "metar_trigger": false,
      "taf_trigger": false,
      "metar": "METAR LFSB 271700Z AUTO 01009KT 340V040 9999 FEW010 31/13 Q1020 NOSIG",
      "taf": "TAF LFSB 271700Z 2718/2818 35007KT CAVOK"
    },
    {
      "icao": "LGAV",
      "alert": "OK",
      "vis_m": 9999,
      "fzfg": false,
      "metar_trigger": false,
      "taf_trigger": false,
      "metar": "METAR LGAV 271720Z 04008KT CAVOK 23/11 Q1014 NOSIG",
      "taf": "TAF LGAV 271700Z 2718/2818 04010KT 9999 FEW025"
    },
    {
      "icao": "LGTS",
      "alert": "OK",
      "vis_m": 9999,
      "fzfg": false,
      "metar_trigger": false,
      "taf_trigger": false,
      "metar": "METAR LGTS 271720Z 17008KT 9999 FEW020 27/14 Q1013 NOSIG",
      "taf": "TAF LGTS 271700Z 2718/2818 VRB03KT 9999 FEW025"
    },
    {
      "icao": "LHBP",
      "alert": "OK",
      "vis_m": 9999,
      "fzfg": false,
      "metar_trigger": false,
      "taf_trigger": false,
      "metar": "METAR LHBP 271700Z 34010KT CAVOK 29/12 Q1013 NOSIG",
      "taf": "TAF LHBP 271715Z 2718/2818 32007KT CAVOK"
    },
    {
      "icao": "LHDC",
      "alert": "OK",
      "vis_m": 9999,
      "fzfg": false,
      "metar_trigger": false,
      "taf_trigger": false,
      "metar": "METAR LHDC 271645Z AUTO 29015KT CAVOK 30/09 Q1011 BECMG 35014G24KT TEMPO VRB23G45KT 3000 TSRA SCT060CB BKN100",
      "taf": "TAF LHDC 271415Z 2715/2724 28014G24KT CAVOK"
    },
    {
      "icao": "LIBD",
      "alert": "OK",
      "vis_m": 9999,
      "fzfg": false,
      "metar_trigger": false,
      "taf_trigger": false,
      "metar": "METAR LIBD 271720Z VRB02KT CAVOK 27/12 Q1015",
      "taf": "TAF LIBD 271700Z 2718/2818 26007KT CAVOK"
    },
    {
      "icao": "LIBG",
      "alert": "OK",
      "vis_m": 9999,
      "fzfg": false,
      "metar_trigger": false,
      "taf_trigger": false,
      "metar": "METAR LIBG 271720Z AUTO 03007KT 9999 NCD 30/13 Q1014",
      "taf": "TAF LIBG 271700Z 2718/2818 35012KT 9999 SCT030"
    },
    {
      "icao": "LIBP",
      "alert": "OK",
      "vis_m": 9999,
      "fzfg": false,
      "metar_trigger": false,
      "taf_trigger": false,
      "metar": "METAR LIBP 271720Z AUTO 07003KT 9999 NCD 28/15 Q1015",
      "taf": "TAF LIBP 271700Z 2718/2818 VRB04KT 9999 SCT030"
    },
    {
      "icao": "LIBR",
      "alert": "OK",
      "vis_m": 9999,
      "fzfg": false,
      "metar_trigger": false,
      "taf_trigger": false,
      "metar": "METAR LIBR 271720Z 32011KT CAVOK 22/19 Q1014",
      "taf": "TAF LIBR 271700Z 2718/2818 33016KT CAVOK"
    },
    {
      "icao": "LICA",
      "alert": "OK",
      "vis_m": 9999,
      "fzfg": false,
      "metar_trigger": false,
      "taf_trigger": false,
      "metar": "METAR LICA 271720Z AUTO 24008KT 9999 NCD 22/20 Q1017",
      "taf": "TAF LICA 271700Z 2718/2818 26010KT 9999 FEW020"
    },
    {
      "icao": "LICC",
      "alert": "OK",
      "vis_m": 9999,
      "fzfg": false,
      "metar_trigger": false,
      "taf_trigger": false,
      "metar": "METAR LICC 271720Z 08007KT 9999 FEW080 24/15 Q1016",
      "taf": "TAF LICC 271700Z 2718/2818 09013KT 9999 FEW070"
    },
    {
      "icao": "LICJ",
      "alert": "OK",
      "vis_m": 9999,
      "fzfg": false,
      "metar_trigger": false,
      "taf_trigger": false,
      "metar": "METAR LICJ 271720Z 33004KT CAVOK 23/20 Q1018",
      "taf": "TAF LICJ 271700Z 2718/2818 VRB05KT CAVOK"
    },
    {
      "icao": "LIMC",
      "alert": "OK",
      "vis_m": 9999,
      "fzfg": false,
      "metar_trigger": false,
      "taf_trigger": false,
      "metar": "METAR LIMC 271720Z 26006KT CAVOK 33/14 Q1015 NOSIG",
      "taf": "TAF LIMC 271700Z 2718/2824 20010KT CAVOK"
    },
    {
      "icao": "LIME",
      "alert": "OK",
      "vis_m": 9999,
      "fzfg": false,
      "metar_trigger": false,
      "taf_trigger": false,
      "metar": "METAR LIME 271720Z 22008KT CAVOK 32/14 Q1015 NOSIG",
      "taf": "TAF LIME 271700Z 2718/2818 19010KT 9999 FEW040"
    },
    {
      "icao": "LIMF",
      "alert": "OK",
      "vis_m": 9999,
      "fzfg": false,
      "metar_trigger": false,
      "taf_trigger": false,
      "metar": "METAR LIMF 271720Z 07005KT 050V110 CAVOK 32/16 Q1016",
      "taf": "TAF LIMF 271700Z 2718/2818 VRB05KT CAVOK"
    },
    {
      "icao": "LIMJ",
      "alert": "OK",
      "vis_m": 9999,
      "fzfg": false,
      "metar_trigger": false,
      "taf_trigger": false,
      "metar": "METAR LIMJ 271720Z 15004KT CAVOK 24/23 Q1017",
      "taf": "TAF LIMJ 271700Z 2718/2818 VRB05KT CAVOK"
    },
    {
      "icao": "LIPE",
      "alert": "OK",
      "vis_m": 9999,
      "fzfg": false,
      "metar_trigger": false,
      "taf_trigger": false,
      "metar": "METAR LIPE 271720Z 23004KT 190V260 CAVOK 33/15 Q1014",
      "taf": "TAF LIPE 271700Z 2718/2818 VRB05KT 9999 SCT050"
    },
    {
      "icao": "LIPH",
      "alert": "OK",
      "vis_m": 9999,
      "fzfg": false,
      "metar_trigger": false,
      "taf_trigger": false,
      "metar": "METAR LIPH 271720Z 11006KT CAVOK 28/22 Q1014",
      "taf": "TAF LIPH 271700Z 2718/2818 VRB05KT 9999 SCT050"
    },
    {
      "icao": "LIPQ",
      "alert": "OK",
      "vis_m": 9999,
      "fzfg": false,
      "metar_trigger": false,
      "taf_trigger": false,
      "metar": "METAR LIPQ 271720Z AUTO 08005KT 030V110 9999 FEW027/// BKN110/// BKN220/// 25/15 Q1015",
      "taf": "TAF LIPQ 271700Z 2718/2818 04010KT 9999 SCT060"
    },
    {
      "icao": "LIPR",
      "alert": "OK",
      "vis_m": 9999,
      "fzfg": false,
      "metar_trigger": false,
      "taf_trigger": false,
      "metar": "METAR LIPR 271720Z 12004KT CAVOK 29/16 Q1015",
      "taf": "TAF LIPR 271700Z 2718/2818 12010KT 9999 SCT040"
    },
    {
      "icao": "LIPX",
      "alert": "OK",
      "vis_m": 9999,
      "fzfg": false,
      "metar_trigger": false,
      "taf_trigger": false,
      "metar": "METAR LIPX 271720Z 26006KT 230V290 CAVOK 33/15 Q1014",
      "taf": "TAF LIPX 271700Z 2718/2818 VRB05KT CAVOK"
    },
    {
      "icao": "LIPY",
      "alert": "OK",
      "vis_m": 9999,
      "fzfg": false,
      "metar_trigger": false,
      "taf_trigger": false,
      "metar": "METAR LIPY 271720Z AUTO 03005KT 9999 NCD 28/15 Q1015",
      "taf": "TAF LIPY 271700Z 2718/2818 VRB05KT 9999 SCT060"
    },
    {
      "icao": "LIPZ",
      "alert": "OK",
      "vis_m": 9999,
      "fzfg": false,
      "metar_trigger": false,
      "taf_trigger": false,
      "metar": "METAR LIPZ 271720Z 13006KT CAVOK 28/22 Q1014 NOSIG",
      "taf": "TAF LIPZ 271700Z 2718/2824 04010KT 9999 SCT060"
    },
    {
      "icao": "LIRF",
      "alert": "OK",
      "vis_m": 9999,
      "fzfg": false,
      "metar_trigger": false,
      "taf_trigger": false,
      "metar": "METAR LIRF 271720Z 28008KT CAVOK 24/18 Q1016 NOSIG",
      "taf": "TAF LIRF 271700Z 2718/2824 28010KT CAVOK"
    },
    {
      "icao": "LIRN",
      "alert": "OK",
      "vis_m": 9999,
      "fzfg": false,
      "metar_trigger": false,
      "taf_trigger": false,
      "metar": "METAR LIRN 271720Z 19006KT CAVOK 24/20 Q1017 NOSIG",
      "taf": "TAF LIRN 271700Z 2718/2818 VRB05KT CAVOK"
    },
    {
      "icao": "LIRP",
      "alert": "OK",
      "vis_m": 9999,
      "fzfg": false,
      "metar_trigger": false,
      "taf_trigger": false,
      "metar": "METAR LIRP 271715Z 26010KT CAVOK 25/18 Q1017 NOSIG",
      "taf": "TAF LIRP 271700Z 2718/2818 28013KT CAVOK"
    },
    {
      "icao": "LIRZ",
      "alert": "OK",
      "vis_m": 9999,
      "fzfg": false,
      "metar_trigger": false,
      "taf_trigger": false,
      "metar": "METAR LIRZ 271720Z AUTO 28005KT 9999 NCD 31/14 Q1015",
      "taf": "TAF LIRZ 271700Z 2718/2818 VRB05KT 9999 FEW070"
    },
    {
      "icao": "LJLJ",
      "alert": "OK",
      "vis_m": 9999,
      "fzfg": false,
      "metar_trigger": false,
      "taf_trigger": false,
      "metar": "METAR LJLJ 271700Z 27005KT 9999 FEW010 FEW050TCU BKN220 19/18 Q1018 NOSIG",
      "taf": "TAF LJLJ 271700Z 2718/2818 30004KT 9999 FEW060"
    },
    {
      "icao": "LKMT",
      "alert": "OK",
      "vis_m": 9999,
      "fzfg": false,
      "metar_trigger": false,
      "taf_trigger": false,
      "metar": "METAR LKMT 271700Z 36011KT CAVOK 22/05 Q1017 NOSIG",
      "taf": "TAF LKMT 271700Z 2718/2818 36008KT CAVOK"
    },
    {
      "icao": "LKPR",
      "alert": "OK",
      "vis_m": 9999,
      "fzfg": false,
      "metar_trigger": false,
      "taf_trigger": false,
      "metar": "METAR LKPR 271700Z 34014KT CAVOK 22/08 Q1021 NOSIG",
      "taf": "TAF LKPR 271700Z 2718/2824 34012KT CAVOK"
    },
    {
      "icao": "LLBG",
      "alert": "OK",
      "vis_m": 9999,
      "fzfg": false,
      "metar_trigger": false,
      "taf_trigger": false,
      "metar": "METAR LLBG 271720Z 30006KT 9999 FEW030 22/17 Q1013 NOSIG",
      "taf": "TAF LLBG 271702Z 2718/2818 VRB03KT 9999 FEW025 TX26/2812Z TN18/2803Z"
    },
    {
      "icao": "LMML",
      "alert": "OK",
      "vis_m": 9999,
      "fzfg": false,
      "metar_trigger": false,
      "taf_trigger": false,
      "metar": "METAR LMML 271715Z 29010KT 9999 FEW018 27/13 Q1018 NOSIG",
      "taf": "TAF LMML 271700Z 2718/2818 28009KT CAVOK"
    },
    {
      "icao": "LOWW",
      "alert": "OK",
      "vis_m": 9999,
      "fzfg": false,
      "metar_trigger": false,
      "taf_trigger": false,
      "metar": "METAR LOWW 271720Z 01013KT CAVOK 27/12 Q1016 NOSIG",
      "taf": "TAF LOWW 271715Z 2718/2824 34013KT 9999 FEW050 TX27/2718Z TN14/2824Z"
    },
    {
      "icao": "LPFR",
      "alert": "OK",
      "vis_m": 9999,
      "fzfg": false,
      "metar_trigger": false,
      "taf_trigger": false,
      "metar": "METAR LPFR 271700Z 11009KT CAVOK 27/13 Q1017",
      "taf": "TAF LPFR 271700Z 2718/2818 08008KT CAVOK"
    },
    {
      "icao": "LPMA",
      "alert": "OK",
      "vis_m": 9999,
      "fzfg": false,
      "metar_trigger": false,
      "taf_trigger": false,
      "metar": "METAR LPMA 271700Z 17006KT 130V200 9999 FEW016 21/14 Q1021",
      "taf": "TAF LPMA 271700Z 2718/2818 VRB05KT 9999 SCT015"
    },
    {
      "icao": "LPPR",
      "alert": "OK",
      "vis_m": 9999,
      "fzfg": false,
      "metar_trigger": false,
      "taf_trigger": false,
      "metar": "METAR LPPR 271700Z 30004KT 270V340 CAVOK 28/11 Q1018",
      "taf": "TAF LPPR 271700Z 2718/2818 32008KT CAVOK"
    },
    {
      "icao": "LPPS",
      "alert": "OK",
      "vis_m": 9999,
      "fzfg": false,
      "metar_trigger": false,
      "taf_trigger": false,
      "metar": "METAR LPPS 271700Z 32012KT 9999 FEW016 21/13 Q1021",
      "taf": "TAF LPPS 271700Z 2718/2824 31012KT 9999 FEW015 BKN030"
    },
    {
      "icao": "LPPT",
      "alert": "OK",
      "vis_m": 9999,
      "fzfg": false,
      "metar_trigger": false,
      "taf_trigger": false,
      "metar": "METAR LPPT 271700Z 25013KT CAVOK 30/09 Q1017",
      "taf": "TAF LPPT 271700Z 2718/2824 26013KT CAVOK"
    },
    {
      "icao": "LQBK",
      "alert": "OK",
      "vis_m": 9999,
      "fzfg": false,
      "metar_trigger": false,
      "taf_trigger": false,
      "metar": "METAR LQBK 271700Z VRB02KT CAVOK 30/17 Q1015 NOSIG",
      "taf": "TAF LQBK 271700Z 2718/2818 30005KT 9999 SCT045 TX26/2814Z TN16/2803Z"
    },
    {
      "icao": "LQSA",
      "alert": "OK",
      "vis_m": 9999,
      "fzfg": false,
      "metar_trigger": false,
      "taf_trigger": false,
      "metar": "METAR LQSA 271700Z 31005KT CAVOK 28/05 Q1016 NOSIG",
      "taf": "TAF LQSA 271700Z 2718/2818 29005KT 9999 FEW060 TX25/2814Z TN16/2804Z"
    },
    {
      "icao": "LQTZ",
      "alert": "OK",
      "vis_m": 9999,
      "fzfg": false,
      "metar_trigger": false,
      "taf_trigger": false,
      "metar": "METAR LQTZ 271700Z 03004KT 360V070 CAVOK 28/11 Q1015",
      "taf": "TAF LQTZ 271700Z 2718/2818 29006KT 9999 SCT040 TX25/2813Z TN14/2803Z"
    },
    {
      "icao": "LRBC",
      "alert": "OK",
      "vis_m": 9999,
      "fzfg": false,
      "metar_trigger": false,
      "taf_trigger": false,
      "metar": "METAR LRBC 271700Z 36010KT 340V040 9999 FEW035 22/14 Q1012",
      "taf": "TAF LRBC 271400Z 2715/2724 15008KT CAVOK"
    },
    {
      "icao": "LRBS",
      "alert": "OK",
      "vis_m": 9999,
      "fzfg": false,
      "metar_trigger": false,
      "taf_trigger": false,
      "metar": "METAR LRBS 271700Z 27005KT 240V300 CAVOK 28/14 Q1011 NOSIG",
      "taf": "TAF LRBS 271100Z 2712/2812 24010KT CAVOK"
    },
    {
      "icao": "LRBV",
      "alert": "OK",
      "vis_m": 9999,
      "fzfg": false,
      "metar_trigger": false,
      "taf_trigger": false,
      "metar": "METAR LRBV 271700Z 27006KT 9999 FEW060CB 23/12 Q1013",
      "taf": "TAF LRBV 271400Z 2715/2724 30012KT CAVOK"
    },
    {
      "icao": "LRCL",
      "alert": "OK",
      "vis_m": 9999,
      "fzfg": false,
      "metar_trigger": false,
      "taf_trigger": false,
      "metar": "METAR LRCL 271700Z 29010KT 260V350 CAVOK 27/08 Q1012",
      "taf": "TAF LRCL 271400Z 2715/2724 29008KT CAVOK"
    },
    {
      "icao": "LRCV",
      "alert": "OK",
      "vis_m": 9999,
      "fzfg": false,
      "metar_trigger": false,
      "taf_trigger": false,
      "metar": "METAR LRCV 271700Z 28009KT CAVOK 27/16 Q1012",
      "taf": "TAF LRCV 271400Z 2715/2724 26008KT CAVOK"
    },
    {
      "icao": "LRIA",
      "alert": "OK",
      "vis_m": 9999,
      "fzfg": false,
      "metar_trigger": false,
      "taf_trigger": false,
      "metar": "METAR LRIA 271700Z 30009KT CAVOK 20/13 Q1012",
      "taf": "TAF LRIA 271400Z 2715/2724 23012KT CAVOK"
    },
    {
      "icao": "LROP",
      "alert": "OK",
      "vis_m": 9999,
      "fzfg": false,
      "metar_trigger": false,
      "taf_trigger": false,
      "metar": "METAR LROP 271700Z 25007KT CAVOK 26/17 Q1011 NOSIG",
      "taf": "TAF LROP 271100Z 2712/2812 24010KT CAVOK"
    },
    {
      "icao": "LRSB",
      "alert": "OK",
      "vis_m": 9999,
      "fzfg": false,
      "metar_trigger": false,
      "taf_trigger": false,
      "metar": "METAR LRSB 271700Z 29012KT 9999 FEW062 26/13 Q1013",
      "taf": "TAF LRSB 271100Z 2712/2812 32012KT CAVOK"
    },
    {
      "icao": "LRSM",
      "alert": "OK",
      "vis_m": 9999,
      "fzfg": false,
      "metar_trigger": false,
      "taf_trigger": false,
      "metar": "METAR LRSM 271700Z AUTO 05007KT 030V090 9999 BKN100/// BKN120/// 23/12 Q1012",
      "taf": "TAF LRSM 271400Z 2715/2724 28014KT CAVOK"
    },
    {
      "icao": "LRSV",
      "alert": "OK",
      "vis_m": 9999,
      "fzfg": false,
      "metar_trigger": false,
      "taf_trigger": false,
      "metar": "METAR LRSV 271700Z 30019KT 9999 -SHRA FEW040CB 16/13 Q1013",
      "taf": "TAF LRSV 271400Z 2715/2724 29014KT 9999 SCT040CB"
    },
    {
      "icao": "LRTM",
      "alert": "OK",
      "vis_m": 9999,
      "fzfg": false,
      "metar_trigger": false,
      "taf_trigger": false,
      "metar": "METAR LRTM 271700Z 28006KT 9999 FEW049CB 27/15 Q1012",
      "taf": "TAF LRTM 271400Z 2715/2724 30007KT CAVOK"
    },
    {
      "icao": "LRTR",
      "alert": "OK",
      "vis_m": 9999,
      "fzfg": false,
      "metar_trigger": false,
      "taf_trigger": false,
      "metar": "METAR LRTR 271700Z 30006KT CAVOK 27/10 Q1013",
      "taf": "TAF LRTR 271100Z 2712/2812 28009KT CAVOK"
    },
    {
      "icao": "LTAC",
      "alert": "OK",
      "vis_m": 9999,
      "fzfg": false,
      "metar_trigger": false,
      "taf_trigger": false,
      "metar": "METAR LTAC 271720Z 15005KT 120V180 9999 FEW040 21/09 Q1016 NOSIG",
      "taf": "TAF LTAC 271640Z 2718/2818 VRB02KT CAVOK"
    },
    {
      "icao": "LTFM",
      "alert": "OK",
      "vis_m": 9999,
      "fzfg": false,
      "metar_trigger": false,
      "taf_trigger": false,
      "metar": "METAR LTFM 271720Z 07008KT CAVOK 21/08 Q1013 NOSIG",
      "taf": "TAF LTFM 271640Z 2718/2824 VRB02KT CAVOK"
    },
    {
      "icao": "LUKK",
      "alert": "OK",
      "vis_m": 9999,
      "fzfg": false,
      "metar_trigger": false,
      "taf_trigger": false,
      "metar": "METAR LUKK 271700Z 31008KT 280V340 9999 VCTS -SHRA SCT049CB 19/15 Q1011 RETS TEMPO 30020G32KT 3000 TSRA BKN030CB",
      "taf": "TAF LUKK 271719Z 2718/2818 33014KT 9999 SCT040"
    },
    {
      "icao": "LWOH",
      "alert": "OK",
      "vis_m": 9999,
      "fzfg": false,
      "metar_trigger": false,
      "taf_trigger": false,
      "metar": "METAR LWOH 271720Z VRB01KT 9999 FEW035 22/15 Q1016",
      "taf": "TAF LWOH 271720Z 2718/2818 16010KT 9999 FEW040"
    },
    {
      "icao": "LWSK",
      "alert": "OK",
      "vis_m": 9999,
      "fzfg": false,
      "metar_trigger": false,
      "taf_trigger": false,
      "metar": "METAR LWSK 271720Z 02008KT 9999 FEW060 29/12 Q1013 NOSIG",
      "taf": "TAF LWSK 271720Z 2718/2818 02010KT CAVOK"
    },
    {
      "icao": "LYBE",
      "alert": "OK",
      "vis_m": 9999,
      "fzfg": false,
      "metar_trigger": false,
      "taf_trigger": false,
      "metar": "METAR LYBE 271700Z 28006KT CAVOK 29/13 Q1014 NOSIG",
      "taf": "TAF LYBE 271700Z 2718/2818 28008KT CAVOK TX28/2813Z TN19/2804Z"
    },
    {
      "icao": "LYNI",
      "alert": "OK",
      "vis_m": 9999,
      "fzfg": false,
      "metar_trigger": false,
      "taf_trigger": false,
      "metar": "METAR LYNI 271700Z 33004KT CAVOK 28/15 Q1014 NOSIG",
      "taf": "TAF LYNI 271700Z 2718/2818 04006KT CAVOK TX27/2814Z TN14/2804Z"
    },
    {
      "icao": "LYPG",
      "alert": "OK",
      "vis_m": 9999,
      "fzfg": false,
      "metar_trigger": false,
      "taf_trigger": false,
      "metar": "METAR LYPG 271700Z 14003KT 100V170 9999 FEW050 30/13 Q1012 NOSIG",
      "taf": "TAF LYPG 271700Z 2718/2818 36008KT 9999 FEW040 TX33/2813Z TN20/2803Z"
    },
    {
      "icao": "LZIB",
      "alert": "OK",
      "vis_m": 9999,
      "fzfg": false,
      "metar_trigger": false,
      "taf_trigger": false,
      "metar": "METAR LZIB 271700Z 35016KT CAVOK 29/08 Q1015 NOSIG",
      "taf": "TAF LZIB 271715Z 2718/2818 33009KT CAVOK"
    },
    {
      "icao": "LZKZ",
      "alert": "OK",
      "vis_m": 9999,
      "fzfg": false,
      "metar_trigger": false,
      "taf_trigger": false,
      "metar": "METAR LZKZ 271700Z 36014KT CAVOK 21/14 Q1013 NOSIG",
      "taf": "TAF LZKZ 271715Z 2718/2818 01009KT CAVOK"
    },
    {
      "icao": "LZTT",
      "alert": "OK",
      "vis_m": 9999,
      "fzfg": false,
      "metar_trigger": false,
      "taf_trigger": false,
      "metar": "METAR LZTT 271700Z VRB02KT 9999 FEW030 BKN050 18/13 Q1016 NOSIG",
      "taf": "TAF LZTT 271715Z 2718/2818 04005KT 9999 SCT060"
    },
    {
      "icao": "OEJN",
      "alert": "OK",
      "vis_m": 9999,
      "fzfg": false,
      "metar_trigger": false,
      "taf_trigger": false,
      "metar": "METAR OEJN 271700Z 33010KT CAVOK 30/20 Q1008 NOSIG",
      "taf": "TAF OEJN 271700Z 2718/2824 01008KT CAVOK"
    },
    {
      "icao": "OEMA",
      "alert": "OK",
      "vis_m": 9999,
      "fzfg": false,
      "metar_trigger": false,
      "taf_trigger": false,
      "metar": "METAR OEMA 271700Z 26013KT CAVOK 41/01 Q1010 NOSIG",
      "taf": "TAF OEMA 271700Z 2718/2824 29010KT CAVOK"
    },
    {
      "icao": "OJAI",
      "alert": "OK",
      "vis_m": 5000,
      "fzfg": false,
      "metar_trigger": false,
      "taf_trigger": false,
      "metar": "METAR OJAI 271700Z 25008KT 5000 HZ NSC 23/14 Q1015 NOSIG",
      "taf": "TAF OJAI 271700Z 2718/2824 29012KT 5000 HZ NSC"
    },
    {
      "icao": "OMAA",
      "alert": "OK",
      "vis_m": 9999,
      "fzfg": false,
      "metar_trigger": false,
      "taf_trigger": false,
      "metar": "METAR OMAA 271700Z 30008KT CAVOK 31/24 Q1006 NOSIG",
      "taf": "TAF OMAA 271700Z 2718/2900 27007KT 8000 NSC"
    },
    {
      "icao": "OMDB",
      "alert": "OK",
      "vis_m": 9999,
      "fzfg": false,
      "metar_trigger": false,
      "taf_trigger": false,
      "metar": "METAR OMDB 271700Z 24004KT 170V260 CAVOK 34/22 Q1005 NOSIG",
      "taf": "TAF OMDB 271700Z 2718/2900 18005KT 8000 NSC"
    },
    {
      "icao": "UAAA",
      "alert": "OK",
      "vis_m": 5000,
      "fzfg": false,
      "metar_trigger": false,
      "taf_trigger": false,
      "metar": "METAR UAAA 271700Z 19004MPS 160V220 5000 -SHRA BR BKN050CB OVC100 14/13 Q1021 NOSIG",
      "taf": "TAF UAAA 271702Z 2718/2818 23003G08MPS 9999 BKN050CB OVC100 TX24/2810Z TN11/2801Z"
    },
    {
      "icao": "UBBB",
      "alert": "OK",
      "vis_m": 9999,
      "fzfg": false,
      "metar_trigger": false,
      "taf_trigger": false,
      "metar": "METAR UBBB 271700Z 08004KT 030V100 CAVOK 18/12 Q1017 NOSIG",
      "taf": "TAF UBBB 271702Z 2718/2818 12005KT CAVOK TX27/2810Z TN17/2801Z"
    },
    {
      "icao": "UDSG",
      "alert": "OK",
      "vis_m": 9999,
      "fzfg": false,
      "metar_trigger": false,
      "taf_trigger": false,
      "metar": "METAR UDSG 271700Z 08002KT 9999 NSC 13/07 Q1021 NOSIG",
      "taf": "TAF UDSG 271658Z 2718/2818 VRB06KT 9999 FEW050"
    },
    {
      "icao": "UDYZ",
      "alert": "OK",
      "vis_m": 9999,
      "fzfg": false,
      "metar_trigger": false,
      "taf_trigger": false,
      "metar": "METAR UDYZ 271700Z VRB02KT 9999 NSC 22/07 Q1016 NOSIG",
      "taf": "TAF UDYZ 271700Z 2718/2818 14006KT 9999 NSC"
    },
    {
      "icao": "UGKO",
      "alert": "OK",
      "vis_m": 9999,
      "fzfg": false,
      "metar_trigger": false,
      "taf_trigger": false,
      "metar": "METAR UGKO 271700Z AUTO 09003KT CAVOK 18/14 Q1016 NOSIG",
      "taf": "TAF UGKO 271700Z 2718/2818 08007KT CAVOK TX29/2812Z TN12/2802Z"
    }
  ]
}