{
  "ts_utc": "2026-01-26T11:16:23Z",
  "threshold_m": 150,
  "source": "stations_override.txt (ICAO list) + aviationweather.gov (METAR/TAF raw)",
  "station_count": 159,
  "stations": [
    {
      "icao": "BIKF",
      "alert": "OK",
      "vis_m": 9999,
      "fzfg": false,
      "metar_trigger": false,
      "taf_trigger": false,
      "metar": "METAR BIKF 261100Z 08020KT 9999 SCT039 BKN190 04/M02 Q0999",
      "taf": "TAF BIKF 261033Z 2612/2712 08017KT 9999 FEW025 TX05/2615Z TN02/2612Z"
    },
    {
      "icao": "BKPR",
      "alert": "OK",
      "vis_m": 9999,
      "fzfg": false,
      "metar_trigger": false,
      "taf_trigger": false,
      "metar": "METAR BKPR 261100Z 15007KT 9999 BKN030 12/07 Q0997 NOSIG",
      "taf": ""
    },
    {
      "icao": "EBCI",
      "alert": "OK",
      "vis_m": 200,
      "fzfg": true,
      "metar_trigger": false,
      "taf_trigger": false,
      "metar": "METAR EBCI 261050Z 30003KT 270V330 0200 R24/0450N FZFG OVC001 M02/M02 Q1002 NOSIG",
      "taf": "TAF EBCI 260504Z 2606/2712 33003KT 3500 BR BKN008"
    },
    {
      "icao": "EDDB",
      "alert": "OK",
      "vis_m": 2900,
      "fzfg": false,
      "metar_trigger": false,
      "taf_trigger": false,
      "metar": "METAR EDDB 261050Z AUTO 12006KT 2900 BR OVC003 00/M00 Q0996 TEMPO 4000 BR",
      "taf": "TAF EDDB 260500Z 2606/2706 08009KT 6000 OVC005"
    },
    {
      "icao": "EDDH",
      "alert": "OK",
      "vis_m": 9999,
      "fzfg": false,
      "metar_trigger": false,
      "taf_trigger": false,
      "metar": "METAR EDDH 261050Z AUTO 05008KT 010V070 9999 -SNRA OVC007 01/00 Q0998 RESN TEMPO 4500 -SN OVC004",
      "taf": ""
    },
    {
      "icao": "EDDK",
      "alert": "OK",
      "vis_m": 2400,
      "fzfg": false,
      "metar_trigger": false,
      "taf_trigger": false,
      "metar": "METAR EDDK 261050Z AUTO 29012KT 2400 -SN BR BKN005 M01/M02 Q1000 TEMPO 5000 BKN004",
      "taf": ""
    },
    {
      "icao": "EDDN",
      "alert": "OK",
      "vis_m": 1500,
      "fzfg": false,
      "metar_trigger": false,
      "taf_trigger": false,
      "metar": "METAR EDDN 261050Z AUTO 21003KT 1500 1300 R28/1900N SN BR SCT001 BKN005 OVC010 01/M00 Q0998 TEMPO 1200 SN OVC001",
      "taf": "TAF EDDN 260500Z 2606/2706 22005KT 2000 -SN BR OVC003"
    },
    {
      "icao": "EDDS",
      "alert": "OK",
      "vis_m": 9999,
      "fzfg": false,
      "metar_trigger": false,
      "taf_trigger": false,
      "metar": "METAR EDDS 261050Z AUTO 26004KT 9999 BKN022 03/01 Q0999 NOSIG",
      "taf": "TAF EDDS 260500Z 2606/2706 VRB03KT 4000 -SN BR BKN020"
    },
    {
      "icao": "EDFH",
      "alert": "OK",
      "vis_m": 9000,
      "fzfg": false,
      "metar_trigger": false,
      "taf_trigger": false,
      "metar": "METAR EDFH 261050Z 28012KT 9000 BKN005 M00/M01 Q0998",
      "taf": "TAF EDFH 260500Z 2606/2706 26006KT 6000 SCT001 BKN003"
    },
    {
      "icao": "EDJA",
      "alert": "OK",
      "vis_m": 9999,
      "fzfg": false,
      "metar_trigger": false,
      "taf_trigger": false,
      "metar": "METAR EDJA 261050Z 23011KT 9999 OVC008 02/00 Q1000",
      "taf": "TAF EDJA 260800Z 2609/2618 23012KT 9999 OVC007"
    },
    {
      "icao": "EDLW",
      "alert": "OK",
      "vis_m": 1800,
      "fzfg": false,
      "metar_trigger": false,
      "taf_trigger": false,
      "metar": "METAR EDLW 261050Z 25006KT 1800 SN BKN005 BKN014 BKN024 M01/M02 Q0999",
      "taf": "TAF EDLW 260500Z 2606/2706 33008KT 6000 OVC006"
    },
    {
      "icao": "EDNY",
      "alert": "OK",
      "vis_m": 9999,
      "fzfg": false,
      "metar_trigger": false,
      "taf_trigger": false,
      "metar": "METAR EDNY 261050Z 24015KT 9999 BKN016 OVC053 05/03 Q1001",
      "taf": "TAF EDNY 260800Z 2609/2618 24008KT 9999 BKN015"
    },
    {
      "icao": "EDSB",
      "alert": "OK",
      "vis_m": 4000,
      "fzfg": false,
      "metar_trigger": false,
      "taf_trigger": false,
      "metar": "METAR EDSB 261050Z 21009KT 4000 BR SCT004 BKN050 04/03 Q1002",
      "taf": ""
    },
    {
      "icao": "EETN",
      "alert": "OK",
      "vis_m": 8000,
      "fzfg": false,
      "metar_trigger": false,
      "taf_trigger": false,
      "metar": "METAR EETN 261050Z VRB02KT 8000 -SN OVC009 M08/M09 Q1010 NOSIG",
      "taf": "TAF EETN 260530Z 2606/2706 17005KT 9999 SCT015 OVC020"
    },
    {
      "icao": "EFTU",
      "alert": "OK",
      "vis_m": 9999,
      "fzfg": false,
      "metar_trigger": false,
      "taf_trigger": false,
      "metar": "METAR EFTU 261050Z AUTO 26003KT 9999 OVC042 M07/M09 Q1011",
      "taf": "TAF EFTU 260824Z 2609/2709 VRB02KT 9999 BKN049"
    },
    {
      "icao": "EGBB",
      "alert": "OK",
      "vis_m": 3700,
      "fzfg": false,
      "metar_trigger": false,
      "taf_trigger": false,
      "metar": "METAR EGBB 261050Z 12008KT 3700 BR BKN007 03/02 Q1001",
      "taf": "TAF EGBB 261100Z 2612/2712 12009KT 4000 BR BKN008"
    },
    {
      "icao": "EGGP",
      "alert": "OK",
      "vis_m": 9000,
      "fzfg": false,
      "metar_trigger": false,
      "taf_trigger": false,
      "metar": "METAR EGGP 261050Z 13011KT 9000 BKN013 OVC030 03/01 Q1000",
      "taf": "TAF EGGP 261057Z 2612/2712 12010KT 9999 SCT025"
    },
    {
      "icao": "EGGW",
      "alert": "OK",
      "vis_m": 5000,
      "fzfg": false,
      "metar_trigger": false,
      "taf_trigger": false,
      "metar": "METAR EGGW 261050Z AUTO 12005KT 5000 HZ OVC006 03/02 Q1002",
      "taf": "TAF EGGW 261102Z 2612/2712 13009KT 5000 HZ BKN006"
    },
    {
      "icao": "EGKK",
      "alert": "OK",
      "vis_m": 5000,
      "fzfg": false,
      "metar_trigger": false,
      "taf_trigger": false,
      "metar": "METAR EGKK 261050Z 08006KT 5000 BR BKN009 05/04 Q1002",
      "taf": "TAF EGKK 261101Z 2612/2718 06005KT 4000 BR BKN009"
    },
    {
      "icao": "EGNM",
      "alert": "OK",
      "vis_m": 3500,
      "fzfg": false,
      "metar_trigger": false,
      "taf_trigger": false,
      "metar": "METAR EGNM 261050Z 12007KT 3500 BR SCT005 BKN007 02/02 Q1001",
      "taf": "TAF EGNM 261056Z 2612/2712 11008KT 7000 BKN010"
    },
    {
      "icao": "EGPD",
      "alert": "OK",
      "vis_m": 9999,
      "fzfg": false,
      "metar_trigger": false,
      "taf_trigger": false,
      "metar": "METAR EGPD 261050Z 13010KT 9999 SCT013 BKN021 05/02 Q1003 TEMPO BKN012",
      "taf": "TAF EGPD 261056Z 2612/2712 12009KT 9999 SCT016 BKN030"
    },
    {
      "icao": "EGPF",
      "alert": "OK",
      "vis_m": 9999,
      "fzfg": false,
      "metar_trigger": false,
      "taf_trigger": false,
      "metar": "METAR EGPF 261050Z AUTO 08012KT 9999 BKN021 OVC026 04/01 Q1000",
      "taf": "TAF EGPF 261058Z 2612/2712 08011KT 9999 FEW018 SCT030"
    },
    {
      "icao": "EHBK",
      "alert": "OK",
      "vis_m": 2100,
      "fzfg": false,
      "metar_trigger": false,
      "taf_trigger": false,
      "metar": "METAR EHBK 261055Z AUTO 26005KT 220V310 2100 BR OVC003/// M02/M02 Q1002 TEMPO BKN006",
      "taf": ""
    },
    {
      "icao": "EHEH",
      "alert": "OK",
      "vis_m": null,
      "fzfg": false,
      "metar_trigger": false,
      "taf_trigger": false,
      "metar": "",
      "taf": "TAF EHEH 260554Z 2606/2712 33004KT 2500 BR BKN008"
    },
    {
      "icao": "EKBI",
      "alert": "OK",
      "vis_m": 9999,
      "fzfg": false,
      "metar_trigger": false,
      "taf_trigger": false,
      "metar": "METAR EKBI 261050Z 04017KT 9999 BKN019 M02/M06 Q1005",
      "taf": "TAF EKBI 260828Z 2609/2709 06012KT 9999 BKN018"
    },
    {
      "icao": "EKCH",
      "alert": "OK",
      "vis_m": 9999,
      "fzfg": false,
      "metar_trigger": false,
      "taf_trigger": false,
      "metar": "METAR EKCH 261050Z 04014KT 9999 OVC010 M01/M03 Q1004 NOSIG",
      "taf": "TAF EKCH 260827Z 2609/2709 05020KT 9999 OVC015"
    },
    {
      "icao": "ENAL",
      "alert": "OK",
      "vis_m": 9999,
      "fzfg": false,
      "metar_trigger": false,
      "taf_trigger": false,
      "metar": "METAR ENAL 261050Z 16006KT CAVOK M01/M07 Q1011",
      "taf": "TAF ENAL 260800Z 2609/2618 16005KT CAVOK"
    },
    {
      "icao": "ENBR",
      "alert": "OK",
      "vis_m": 9999,
      "fzfg": false,
      "metar_trigger": false,
      "taf_trigger": false,
      "metar": "METAR ENBR 261050Z 13002KT CAVOK M04/M08 Q1010 NOSIG RMK WIND 1200FT 35008KT",
      "taf": "TAF ENBR 260500Z 2606/2706 09004KT 9999 BKN030"
    },
    {
      "icao": "ENGM",
      "alert": "OK",
      "vis_m": 9999,
      "fzfg": false,
      "metar_trigger": false,
      "taf_trigger": false,
      "metar": "METAR ENGM 261050Z 04007KT CAVOK M12/M15 Q1013 NOSIG",
      "taf": "TAF ENGM 260500Z 2606/2706 36005KT CAVOK"
    },
    {
      "icao": "ENHD",
      "alert": "OK",
      "vis_m": 9999,
      "fzfg": false,
      "metar_trigger": false,
      "taf_trigger": false,
      "metar": "METAR ENHD 261050Z /////KT CAVOK M03/M10 Q1011 RMK WIND RWY 31 11004KT",
      "taf": "TAF ENHD 260800Z 2609/2618 09005KT CAVOK"
    },
    {
      "icao": "ENTC",
      "alert": "OK",
      "vis_m": 9999,
      "fzfg": false,
      "metar_trigger": false,
      "taf_trigger": false,
      "metar": "METAR ENTC 261050Z VRB02KT 9999 SCT045 BKN065 M04/M07 Q1013 TEMPO 3500 -SHSN VV014 RMK WIND 2600FT 36015KT",
      "taf": "TAF ENTC 260500Z 2606/2706 02009KT 9999 SCT020 BKN030"
    },
    {
      "icao": "ENTO",
      "alert": "OK",
      "vis_m": 9999,
      "fzfg": false,
      "metar_trigger": false,
      "taf_trigger": false,
      "metar": "METAR ENTO 261050Z 36011KT CAVOK M10/M14 Q1013 NOSIG",
      "taf": "TAF ENTO 260500Z 2606/2706 01009KT 9999 FEW040"
    },
    {
      "icao": "ENVA",
      "alert": "OK",
      "vis_m": 9999,
      "fzfg": false,
      "metar_trigger": false,
      "taf_trigger": false,
      "metar": "METAR ENVA 261050Z 10005KT CAVOK M11/M14 Q1015 NOSIG RMK WIND 670FT 11005KT",
      "taf": "TAF ENVA 260500Z 2606/2706 10008KT 9999 BKN040"
    },
    {
      "icao": "ENZV",
      "alert": "OK",
      "vis_m": 9999,
      "fzfg": false,
      "metar_trigger": false,
      "taf_trigger": false,
      "metar": "METAR ENZV 261050Z 13006KT CAVOK M02/M10 Q1011 NOSIG",
      "taf": "TAF ENZV 260500Z 2606/2706 07007KT 9999 BKN040"
    },
    {
      "icao": "EPGD",
      "alert": "OK",
      "vis_m": 5000,
      "fzfg": false,
      "metar_trigger": false,
      "taf_trigger": false,
      "metar": "METAR EPGD 261100Z 09008KT 5000 -FZRA BR BKN004 M03/M04 Q1001",
      "taf": ""
    },
    {
      "icao": "EPKK",
      "alert": "OK",
      "vis_m": 8000,
      "fzfg": false,
      "metar_trigger": false,
      "taf_trigger": false,
      "metar": "METAR EPKK 261100Z 22004KT 8000 NSC 04/01 Q0999",
      "taf": "TAF EPKK 260830Z 2609/2709 VRB02KT 9999 SCT040"
    },
    {
      "icao": "EPKT",
      "alert": "OK",
      "vis_m": 6000,
      "fzfg": false,
      "metar_trigger": false,
      "taf_trigger": false,
      "metar": "METAR EPKT 261100Z 20007KT 160V220 6000 BKN038 06/04 Q0998",
      "taf": ""
    },
    {
      "icao": "EPLB",
      "alert": "OK",
      "vis_m": 9999,
      "fzfg": false,
      "metar_trigger": false,
      "taf_trigger": false,
      "metar": "METAR EPLB 261100Z 11005KT 9999 BKN009 01/M00 Q1001",
      "taf": "TAF EPLB 260530Z 2606/2706 12012KT 9999 OVC010"
    },
    {
      "icao": "EPMO",
      "alert": "OK",
      "vis_m": 4500,
      "fzfg": false,
      "metar_trigger": false,
      "taf_trigger": false,
      "metar": "METAR EPMO 261100Z 09007KT 4500 -FZRA BR BKN007 M01/M02 Q1001",
      "taf": "TAF EPMO 260530Z 2606/2706 09012KT 7000 OVC010"
    },
    {
      "icao": "EPPO",
      "alert": "OK",
      "vis_m": 3200,
      "fzfg": false,
      "metar_trigger": false,
      "taf_trigger": false,
      "metar": "METAR EPPO 261100Z 11005KT 3200 BR OVC005 00/M01 Q0998",
      "taf": "TAF EPPO 260530Z 2606/2706 09010KT 3500 BR OVC006"
    },
    {
      "icao": "EPRA",
      "alert": "OK",
      "vis_m": 9999,
      "fzfg": false,
      "metar_trigger": false,
      "taf_trigger": false,
      "metar": "METAR EPRA 261100Z 13006KT 9999 FEW008 02/M01 Q1000",
      "taf": "TAF EPRA 260830Z 2609/2618 14008KT 9999 OVC007"
    },
    {
      "icao": "EPRZ",
      "alert": "OK",
      "vis_m": 9999,
      "fzfg": false,
      "metar_trigger": false,
      "taf_trigger": false,
      "metar": "METAR EPRZ 261100Z 08012KT CAVOK 01/M00 Q1000",
      "taf": "TAF EPRZ 260530Z 2606/2706 08015KT 9999 BKN006"
    },
    {
      "icao": "EPSC",
      "alert": "OK",
      "vis_m": 5000,
      "fzfg": false,
      "metar_trigger": false,
      "taf_trigger": false,
      "metar": "METAR EPSC 261100Z 10006KT 5000 BR BKN005 M01/M01 Q0998",
      "taf": "TAF EPSC 260530Z 2606/2706 09010KT 4000 -FZRA BR OVC005"
    },
    {
      "icao": "EPSY",
      "alert": "OK",
      "vis_m": 4100,
      "fzfg": false,
      "metar_trigger": false,
      "taf_trigger": false,
      "metar": "METAR EPSY 261100Z 10004KT 050V150 4100 -FZRA BR OVC005 M04/M05 Q1002",
      "taf": "TAF EPSY 260830Z 2609/2618 12010KT 7000 BKN012"
    },
    {
      "icao": "EPWA",
      "alert": "OK",
      "vis_m": 9000,
      "fzfg": false,
      "metar_trigger": false,
      "taf_trigger": false,
      "metar": "METAR EPWA 261100Z 12009KT 9000 BKN008 M00/M01 Q1001 REFZRA NOSIG",
      "taf": "TAF EPWA 260830Z 2609/2709 10012KT 8000 OVC006"
    },
    {
      "icao": "EPWR",
      "alert": "OK",
      "vis_m": 9999,
      "fzfg": false,
      "metar_trigger": false,
      "taf_trigger": false,
      "metar": "METAR EPWR 261100Z 22008KT 190V250 9999 FEW030 07/01 Q0997",
      "taf": "TAF EPWR 260830Z 2609/2709 13005KT 3500 BR FEW030"
    },
    {
      "icao": "ESGG",
      "alert": "OK",
      "vis_m": 9999,
      "fzfg": false,
      "metar_trigger": false,
      "taf_trigger": false,
      "metar": "METAR ESGG 261050Z 04012KT 9999 BKN025 M05/M08 Q1008",
      "taf": "TAF ESGG 260830Z 2609/2709 04013KT 9999 BKN020"
    },
    {
      "icao": "ESKN",
      "alert": "OK",
      "vis_m": 9999,
      "fzfg": false,
      "metar_trigger": false,
      "taf_trigger": false,
      "metar": "METAR ESKN 261050Z 01009KT 340V060 9999 SCT012 M04/M06 Q1010",
      "taf": "TAF ESKN 260830Z 2609/2709 34007KT 9999 -SN FEW008 BKN030"
    },
    {
      "icao": "ESMS",
      "alert": "OK",
      "vis_m": 8000,
      "fzfg": false,
      "metar_trigger": false,
      "taf_trigger": false,
      "metar": "METAR ESMS 261050Z 07016KT 8000 OVC007 M00/M02 Q1002",
      "taf": "TAF ESMS 260827Z 2609/2709 06012KT 9999 BKN006"
    },
    {
      "icao": "ESSA",
      "alert": "OK",
      "vis_m": 9999,
      "fzfg": false,
      "metar_trigger": false,
      "taf_trigger": false,
      "metar": "METAR ESSA 261050Z 02007KT 9999 SCT019 M06/M10 Q1012 NOSIG",
      "taf": "TAF ESSA 260830Z 2609/2709 01008KT 9999 -SN OVC020"
    },
    {
      "icao": "EYKA",
      "alert": "OK",
      "vis_m": 9999,
      "fzfg": false,
      "metar_trigger": false,
      "taf_trigger": false,
      "metar": "METAR EYKA 261050Z 11007KT 080V160 9999 OVC013 M07/M09 Q1007",
      "taf": "TAF EYKA 261105Z 2612/2712 10008KT 9000 OVC015"
    },
    {
      "icao": "EYPA",
      "alert": "OK",
      "vis_m": 9999,
      "fzfg": false,
      "metar_trigger": false,
      "taf_trigger": false,
      "metar": "METAR EYPA 261050Z 08007KT 9999 OVC012 M06/M09 Q1006",
      "taf": "TAF EYPA 261105Z 2612/2712 08008KT 9000 OVC015"
    },
    {
      "icao": "EYVI",
      "alert": "OK",
      "vis_m": 9000,
      "fzfg": false,
      "metar_trigger": false,
      "taf_trigger": false,
      "metar": "METAR EYVI 261050Z 14012KT 9000 OVC007 M07/M09 Q1007 NOSIG",
      "taf": "TAF EYVI 261102Z 2612/2712 14010KT 8000 OVC005"
    },
    {
      "icao": "GCFV",
      "alert": "OK",
      "vis_m": 9999,
      "fzfg": false,
      "metar_trigger": false,
      "taf_trigger": false,
      "metar": "METAR GCFV 261100Z 06005KT 020V090 9999 FEW033 18/10 Q1025",
      "taf": "TAF GCFV 260800Z 2609/2709 09006KT 9999 FEW035 TX20/2614Z TN12/2706Z"
    },
    {
      "icao": "GCLP",
      "alert": "OK",
      "vis_m": 9999,
      "fzfg": false,
      "metar_trigger": false,
      "taf_trigger": false,
      "metar": "METAR GCLP 261100Z 11004KT 080V140 9999 FEW035 19/11 Q1026 NOSIG",
      "taf": "TAF GCLP 260800Z 2609/2709 10005KT 9999 FEW035 TX20/2614Z TN14/2706Z"
    },
    {
      "icao": "GCTS",
      "alert": "OK",
      "vis_m": 9999,
      "fzfg": false,
      "metar_trigger": false,
      "taf_trigger": false,
      "metar": "METAR GCTS 261100Z 21006KT 160V250 9999 SCT035 19/10 Q1026 NOSIG",
      "taf": "TAF GCTS 260800Z 2609/2709 24010KT 9999 SCT035 TX22/2614Z TN14/2706Z"
    },
    {
      "icao": "GMAD",
      "alert": "OK",
      "vis_m": 8000,
      "fzfg": false,
      "metar_trigger": false,
      "taf_trigger": false,
      "metar": "METAR GMAD 261100Z 05006KT 020V100 8000 NSC 15/12 Q1025 NOSIG",
      "taf": "TAF GMAD 260500Z 2606/2712 06005KT CAVOK"
    },
    {
      "icao": "GMMN",
      "alert": "OK",
      "vis_m": 9999,
      "fzfg": false,
      "metar_trigger": false,
      "taf_trigger": false,
      "metar": "METAR GMMN 261100Z 21011KT 9999 SCT030 16/12 Q1024 NOSIG",
      "taf": "TAF GMMN 261100Z 2612/2718 20012KT 9999 SCT030"
    },
    {
      "icao": "GMMX",
      "alert": "OK",
      "vis_m": 9999,
      "fzfg": false,
      "metar_trigger": false,
      "taf_trigger": false,
      "metar": "METAR GMMX 261100Z VRB01KT CAVOK 14/08 Q1024 NOSIG",
      "taf": "TAF GMMX 260500Z 2606/2712 14006KT 8000 NSC"
    },
    {
      "icao": "HEGN",
      "alert": "OK",
      "vis_m": 9999,
      "fzfg": false,
      "metar_trigger": false,
      "taf_trigger": false,
      "metar": "METAR HEGN 261000Z 12007KT CAVOK 25/09 Q1016 NOSIG",
      "taf": "TAF HEGN 261100Z 2612/2718 12012KT CAVOK"
    },
    {
      "icao": "HEMA",
      "alert": "OK",
      "vis_m": 9999,
      "fzfg": false,
      "metar_trigger": false,
      "taf_trigger": false,
      "metar": "METAR HEMA 261000Z 11007KT CAVOK 24/11 Q1014 NOSIG",
      "taf": "TAF HEMA 261100Z 2612/2718 13012KT CAVOK"
    },
    {
      "icao": "HESH",
      "alert": "OK",
      "vis_m": 9999,
      "fzfg": false,
      "metar_trigger": false,
      "taf_trigger": false,
      "metar": "METAR HESH 261000Z 06002KT CAVOK 25/08 Q1016 NOSIG",
      "taf": "TAF HESH 261100Z 2612/2718 18012KT CAVOK"
    },
    {
      "icao": "HESX",
      "alert": "OK",
      "vis_m": 9999,
      "fzfg": false,
      "metar_trigger": false,
      "taf_trigger": false,
      "metar": "METAR HESX 261000Z 18011KT 9999 FEW030 SCT100 18/M01 Q1014 NOSIG",
      "taf": "TAF HESX 261100Z 2612/2718 18011KT 9999 FEW030 SCT100"
    },
    {
      "icao": "LATI",
      "alert": "OK",
      "vis_m": 9999,
      "fzfg": false,
      "metar_trigger": false,
      "taf_trigger": false,
      "metar": "METAR LATI 261050Z 36003KT 9999 FEW010 SCT028 OVC044 11/07 Q0999 NOSIG",
      "taf": "TAF LATI 261100Z 2612/2712 VRB05KT 9999 SCT012 BKN060 TX14/2712Z TN05/2704Z"
    },
    {
      "icao": "LBPD",
      "alert": "OK",
      "vis_m": 4100,
      "fzfg": false,
      "metar_trigger": false,
      "taf_trigger": false,
      "metar": "METAR LBPD 261100Z AUTO 29008KT 4100 BR OVC003/// 06/06 Q1001 NOSIG",
      "taf": "TAF LBPD 261100Z 2612/2712 VRB04KT 5000 BR BKN004 OVC050"
    },
    {
      "icao": "LBSF",
      "alert": "OK",
      "vis_m": 9999,
      "fzfg": false,
      "metar_trigger": false,
      "taf_trigger": false,
      "metar": "METAR LBSF 261100Z 14014KT 9999 SCT012 OVC017 09/06 Q1000 TEMPO 5000 RA",
      "taf": "TAF LBSF 261100Z 2612/2712 14010KT 9999 SCT012 OVC025"
    },
    {
      "icao": "LBWN",
      "alert": "OK",
      "vis_m": 9999,
      "fzfg": false,
      "metar_trigger": false,
      "taf_trigger": false,
      "metar": "METAR LBWN 261100Z 11010KT 9999 BKN049 12/09 Q1006 NOSIG",
      "taf": "TAF LBWN 261100Z 2612/2712 10010KT 9999 SCT040"
    },
    {
      "icao": "LCLK",
      "alert": "OK",
      "vis_m": 9999,
      "fzfg": false,
      "metar_trigger": false,
      "taf_trigger": false,
      "metar": "METAR LCLK 261100Z 09012KT 9999 FEW020 SCT045 19/14 Q1014 NOSIG",
      "taf": "TAF LCLK 260530Z 2606/2706 02009KT 9999 SCT025"
    },
    {
      "icao": "LCPH",
      "alert": "OK",
      "vis_m": 9999,
      "fzfg": false,
      "metar_trigger": false,
      "taf_trigger": false,
      "metar": "METAR LCPH 261100Z 11017KT 090V160 9999 FEW030 SCT040 18/11 Q1012 NOSIG",
      "taf": "TAF LCPH 260530Z 2606/2706 07009KT 9999 FEW025"
    },
    {
      "icao": "LEAL",
      "alert": "OK",
      "vis_m": 9999,
      "fzfg": false,
      "metar_trigger": false,
      "taf_trigger": false,
      "metar": "METAR LEAL 261100Z VRB01KT 9999 FEW030 19/08 Q1011 NOSIG",
      "taf": "TAF LEAL 260500Z 2606/2706 25005KT 9999 FEW040 TX20/2613Z TN11/2606Z"
    },
    {
      "icao": "LEBB",
      "alert": "OK",
      "vis_m": 9999,
      "fzfg": false,
      "metar_trigger": false,
      "taf_trigger": false,
      "metar": "METAR LEBB 261100Z 16009KT 110V200 9999 FEW060 12/05 Q1005 NOSIG",
      "taf": ""
    },
    {
      "icao": "LEBL",
      "alert": "OK",
      "vis_m": 9999,
      "fzfg": false,
      "metar_trigger": false,
      "taf_trigger": false,
      "metar": "METAR LEBL 261100Z 32015KT 290V350 9999 FEW025 13/05 Q1007 NOSIG",
      "taf": "TAF LEBL 260500Z 2606/2706 31012KT 9999 FEW050 TX16/2612Z TN09/2606Z"
    },
    {
      "icao": "LECH",
      "alert": "OK",
      "vis_m": 9999,
      "fzfg": false,
      "metar_trigger": false,
      "taf_trigger": false,
      "metar": "METAR LECH 261100Z AUTO 33008KT 290V020 CAVOK 14/M01 Q1009",
      "taf": ""
    },
    {
      "icao": "LEMD",
      "alert": "OK",
      "vis_m": 4000,
      "fzfg": false,
      "metar_trigger": false,
      "taf_trigger": false,
      "metar": "SPECI LEMD 261113Z VRB02KT 4000 RA BR FEW004 BKN009 BKN015 07/07 Q1012 TEMPO BKN005",
      "taf": ""
    },
    {
      "icao": "LEMG",
      "alert": "OK",
      "vis_m": 9999,
      "fzfg": false,
      "metar_trigger": false,
      "taf_trigger": false,
      "metar": "METAR LEMG 261100Z 30013KT 9999 SCT050 19/11 Q1016 NOSIG",
      "taf": "TAF LEMG 260500Z 2606/2706 30010KT 9999 SCT045 TX20/2614Z TN09/2607Z"
    },
    {
      "icao": "LEVC",
      "alert": "OK",
      "vis_m": 9999,
      "fzfg": false,
      "metar_trigger": false,
      "taf_trigger": false,
      "metar": "METAR LEVC 261100Z 18004KT 140V240 9999 FEW050 15/03 Q1010 NOSIG",
      "taf": "TAF LEVC 260500Z 2606/2706 27007KT 9999 SCT050 TX19/2613Z TN11/2606Z"
    },
    {
      "icao": "LEXJ",
      "alert": "OK",
      "vis_m": 9999,
      "fzfg": false,
      "metar_trigger": false,
      "taf_trigger": false,
      "metar": "METAR LEXJ 261100Z 22010G23KT 150V270 9999 SCT065 12/04 Q1003",
      "taf": ""
    },
    {
      "icao": "LEZG",
      "alert": "OK",
      "vis_m": 9999,
      "fzfg": false,
      "metar_trigger": false,
      "taf_trigger": false,
      "metar": "METAR LEZG 261100Z 24017KT 9999 BKN070 OVC085 11/04 Q1010 NOSIG",
      "taf": "TAF LEZG 260500Z 2606/2706 29010KT 9999 FEW030 TX12/2613Z TN06/2607Z"
    },
    {
      "icao": "LEZL",
      "alert": "OK",
      "vis_m": 9999,
      "fzfg": false,
      "metar_trigger": false,
      "taf_trigger": false,
      "metar": "METAR LEZL 261100Z 22007KT 180V250 9999 FEW010 OVC020 17/15 Q1017 NOSIG",
      "taf": "TAF LEZL 260800Z 2609/2709 24010KT 9999 SCT025 TX19/2615Z TN11/2707Z"
    },
    {
      "icao": "LFBD",
      "alert": "OK",
      "vis_m": 9999,
      "fzfg": false,
      "metar_trigger": false,
      "taf_trigger": false,
      "metar": "METAR LFBD 261100Z AUTO 16007KT 9999 FEW036 11/09 Q1006 TEMPO BKN012 BKN025TCU",
      "taf": "TAF LFBD 260500Z 2606/2712 21005KT 9999 BKN030 TX12/2614Z TN04/2606Z"
    },
    {
      "icao": "LFLL",
      "alert": "OK",
      "vis_m": 9999,
      "fzfg": false,
      "metar_trigger": false,
      "taf_trigger": false,
      "metar": "METAR LFLL 261100Z VRB02KT 9999 FEW016 BKN053 06/03 Q1006 NOSIG",
      "taf": "TAF LFLL 260500Z 2606/2712 VRB03KT 9999 BKN043"
    },
    {
      "icao": "LFLS",
      "alert": "OK",
      "vis_m": 9999,
      "fzfg": false,
      "metar_trigger": false,
      "taf_trigger": false,
      "metar": "METAR LFLS 261100Z AUTO 27005KT 240V300 9999 SCT018 SCT023 OVC045 06/03 Q1006 NOSIG",
      "taf": "TAF LFLS 260800Z 2609/2709 VRB02KT 9999 BKN020"
    },
    {
      "icao": "LFMN",
      "alert": "OK",
      "vis_m": 9999,
      "fzfg": false,
      "metar_trigger": false,
      "taf_trigger": false,
      "metar": "METAR LFMN 261100Z 33009KT 9999 FEW040 12/02 Q1001 BECMG 21010KT",
      "taf": "TAF LFMN 260800Z 2609/2715 33010KT CAVOK"
    },
    {
      "icao": "LFOB",
      "alert": "OK",
      "vis_m": 800,
      "fzfg": false,
      "metar_trigger": false,
      "taf_trigger": false,
      "metar": "METAR LFOB 261100Z AUTO 14005KT 0800 0750 R30/1200U R12/1000D FG VV/// 05/05 Q1002 BECMG 9999 NSW OVC012",
      "taf": "TAF LFOB 260500Z 2606/2706 VRB03KT 4000 BR OVC003"
    },
    {
      "icao": "LFPO",
      "alert": "OK",
      "vis_m": 4000,
      "fzfg": false,
      "metar_trigger": false,
      "taf_trigger": false,
      "metar": "METAR LFPO 261100Z 17004KT 150V210 4000 BR BKN003 05/05 Q1003 NOSIG",
      "taf": "TAF LFPO 260500Z 2606/2712 22005KT 9999 BKN006"
    },
    {
      "icao": "LFSB",
      "alert": "OK",
      "vis_m": 9999,
      "fzfg": false,
      "metar_trigger": false,
      "taf_trigger": false,
      "metar": "METAR LFSB 261100Z AUTO 25014KT 9999 BKN023 BKN028 OVC086 06/03 Q1003 NOSIG",
      "taf": "TAF LFSB 260500Z 2606/2706 25010KT 8000 FEW014 BKN025"
    },
    {
      "icao": "LGAV",
      "alert": "OK",
      "vis_m": 7000,
      "fzfg": false,
      "metar_trigger": false,
      "taf_trigger": false,
      "metar": "METAR LGAV 261050Z 13007KT 7000 -TSRA FEW015TCU FEW018CB BKN020 BKN070 11/10 Q0999 NOSIG",
      "taf": "TAF LGAV 261100Z 2612/2712 20012KT 9999 SCT020 BKN070"
    },
    {
      "icao": "LGTS",
      "alert": "OK",
      "vis_m": 9999,
      "fzfg": false,
      "metar_trigger": false,
      "taf_trigger": false,
      "metar": "METAR LGTS 261050Z 12006KT 9999 -RA FEW010 FEW018TCU BKN030 12/12 Q0999 TEMPO 5000 RA",
      "taf": "TAF LGTS 261100Z 2612/2712 14005KT 9999 FEW008 BKN025"
    },
    {
      "icao": "LHBP",
      "alert": "OK",
      "vis_m": 7000,
      "fzfg": false,
      "metar_trigger": false,
      "taf_trigger": false,
      "metar": "METAR LHBP 261100Z 01004KT 340V060 7000 OVC005 06/04 Q1000 NOSIG",
      "taf": "TAF LHBP 260515Z 2606/2706 09008KT 9999 FEW020 BKN040"
    },
    {
      "icao": "LHDC",
      "alert": "OK",
      "vis_m": 9999,
      "fzfg": false,
      "metar_trigger": false,
      "taf_trigger": false,
      "metar": "METAR LHDC 261045Z AUTO 04003KT 350V100 9999 -SHRA OVC043 //////TCU 07/05 Q1001 NOSIG",
      "taf": "TAF LHDC 260815Z 2609/2618 01005KT 9999 SCT040 BKN055"
    },
    {
      "icao": "LIBD",
      "alert": "OK",
      "vis_m": 9999,
      "fzfg": false,
      "metar_trigger": false,
      "taf_trigger": false,
      "metar": "METAR LIBD 261050Z VRB02KT 9999 FEW030 14/06 Q0999",
      "taf": "TAF LIBD 260500Z 2606/2706 19010KT CAVOK"
    },
    {
      "icao": "LIBG",
      "alert": "OK",
      "vis_m": 9999,
      "fzfg": false,
      "metar_trigger": false,
      "taf_trigger": false,
      "metar": "METAR LIBG 261050Z VRB02KT CAVOK 13/09 Q0999",
      "taf": "TAF LIBG 260800Z 2609/2618 VRB06KT 9999 SCT020"
    },
    {
      "icao": "LIBP",
      "alert": "OK",
      "vis_m": 9999,
      "fzfg": false,
      "metar_trigger": false,
      "taf_trigger": false,
      "metar": "METAR LIBP 261050Z AUTO 03005KT 340V070 9999 NCD 12/06 Q1000",
      "taf": "TAF LIBP 260500Z 2606/2706 VRB05KT CAVOK"
    },
    {
      "icao": "LIBR",
      "alert": "OK",
      "vis_m": 9999,
      "fzfg": false,
      "metar_trigger": false,
      "taf_trigger": false,
      "metar": "METAR LIBR 261050Z 25008KT CAVOK 13/08 Q0999",
      "taf": "TAF LIBR 260500Z 2606/2706 VRB06KT 8000 NSC"
    },
    {
      "icao": "LICA",
      "alert": "OK",
      "vis_m": 9999,
      "fzfg": false,
      "metar_trigger": false,
      "taf_trigger": false,
      "metar": "METAR LICA 261050Z AUTO 24009KT 9999 NCD 14/09 Q1000",
      "taf": "TAF LICA 260500Z 2606/2706 26013KT 9999 BKN050"
    },
    {
      "icao": "LICC",
      "alert": "OK",
      "vis_m": 9999,
      "fzfg": false,
      "metar_trigger": false,
      "taf_trigger": false,
      "metar": "METAR LICC 261050Z 24005KT 190V280 9999 FEW030 16/13 Q1000",
      "taf": "TAF LICC 260500Z 2606/2706 26010KT 9999 SCT030"
    },
    {
      "icao": "LICJ",
      "alert": "OK",
      "vis_m": 9999,
      "fzfg": false,
      "metar_trigger": false,
      "taf_trigger": false,
      "metar": "METAR LICJ 261050Z 19009KT 9999 SCT025 SCT040 12/08 Q0999",
      "taf": "TAF LICJ 260500Z 2606/2706 20015KT 9999 BKN025"
    },
    {
      "icao": "LIMC",
      "alert": "OK",
      "vis_m": 9999,
      "fzfg": false,
      "metar_trigger": false,
      "taf_trigger": false,
      "metar": "METAR LIMC 261050Z 34003KT 280V040 9999 SCT015 08/04 Q1002 NOSIG",
      "taf": "TAF LIMC 260500Z 2606/2712 VRB04KT 4000 BR SCT015"
    },
    {
      "icao": "LIME",
      "alert": "OK",
      "vis_m": 9999,
      "fzfg": false,
      "metar_trigger": false,
      "taf_trigger": false,
      "metar": "METAR LIME 261050Z 24003KT 160V280 9999 FEW020 07/03 Q1001 NOSIG",
      "taf": "TAF LIME 260500Z 2606/2706 VRB05KT 7000 FEW020"
    },
    {
      "icao": "LIMF",
      "alert": "OK",
      "vis_m": 4000,
      "fzfg": false,
      "metar_trigger": false,
      "taf_trigger": false,
      "metar": "METAR LIMF 261050Z VRB02KT 4000 BR FEW002 05/04 Q1002",
      "taf": ""
    },
    {
      "icao": "LIMJ",
      "alert": "OK",
      "vis_m": 9999,
      "fzfg": false,
      "metar_trigger": false,
      "taf_trigger": false,
      "metar": "METAR LIMJ 261050Z 03015KT CAVOK 09/02 Q1001",
      "taf": "TAF LIMJ 260500Z 2606/2706 03010KT 9999 BKN040"
    },
    {
      "icao": "LIPE",
      "alert": "OK",
      "vis_m": 7000,
      "fzfg": false,
      "metar_trigger": false,
      "taf_trigger": false,
      "metar": "METAR LIPE 261050Z 27007KT 7000 BKN015 07/04 Q1002",
      "taf": "TAF LIPE 260500Z 2606/2706 VRB04KT 6000 SCT015"
    },
    {
      "icao": "LIPH",
      "alert": "OK",
      "vis_m": 9999,
      "fzfg": false,
      "metar_trigger": false,
      "taf_trigger": false,
      "metar": "METAR LIPH 261050Z 26004KT 210V340 9999 BKN010 07/05 Q1001",
      "taf": "TAF LIPH 260500Z 2606/2706 VRB04KT 3000 BR BKN006"
    },
    {
      "icao": "LIPQ",
      "alert": "OK",
      "vis_m": 9999,
      "fzfg": false,
      "metar_trigger": false,
      "taf_trigger": false,
      "metar": "METAR LIPQ 261050Z AUTO VRB02KT 9999 FEW021/// 11/05 Q1000",
      "taf": "TAF LIPQ 260500Z 2606/2706 VRB04KT 8000 SCT020"
    },
    {
      "icao": "LIPR",
      "alert": "OK",
      "vis_m": 8000,
      "fzfg": false,
      "metar_trigger": false,
      "taf_trigger": false,
      "metar": "METAR LIPR 261050Z 31010KT 8000 BKN010 06/04 Q1002",
      "taf": "TAF LIPR 260500Z 2606/2706 28006KT 6000 FEW025"
    },
    {
      "icao": "LIPX",
      "alert": "OK",
      "vis_m": 9999,
      "fzfg": false,
      "metar_trigger": false,
      "taf_trigger": false,
      "metar": "METAR LIPX 261050Z 28007KT 250V310 9999 FEW015 08/05 Q1001",
      "taf": "TAF LIPX 260500Z 2606/2706 VRB05KT 2000 BR SCT020"
    },
    {
      "icao": "LIPY",
      "alert": "OK",
      "vis_m": 9999,
      "fzfg": false,
      "metar_trigger": false,
      "taf_trigger": false,
      "metar": "METAR LIPY 261050Z AUTO 31009KT 9999 OVC010/// 07/06 Q1001",
      "taf": ""
    },
    {
      "icao": "LIPZ",
      "alert": "OK",
      "vis_m": 9999,
      "fzfg": false,
      "metar_trigger": false,
      "taf_trigger": false,
      "metar": "METAR LIPZ 261050Z 29006KT 270V340 9999 BKN012 08/06 Q1001 NOSIG",
      "taf": "TAF LIPZ 260500Z 2606/2712 VRB04KT 2000 BR BKN002"
    },
    {
      "icao": "LIRF",
      "alert": "OK",
      "vis_m": 9999,
      "fzfg": false,
      "metar_trigger": false,
      "taf_trigger": false,
      "metar": "METAR LIRF 261050Z 08006KT 9999 -RA FEW050 08/08 Q0999 NOSIG",
      "taf": "TAF LIRF 260500Z 2606/2712 07007KT 9999 SCT030"
    },
    {
      "icao": "LIRN",
      "alert": "OK",
      "vis_m": 9999,
      "fzfg": false,
      "metar_trigger": false,
      "taf_trigger": false,
      "metar": "METAR LIRN 261050Z 26003KT 230V030 9999 BKN045 11/07 Q0999 TEMPO 4000 SHRA",
      "taf": "TAF LIRN 260500Z 2606/2706 VRB05KT 9999 BKN040"
    },
    {
      "icao": "LIRP",
      "alert": "OK",
      "vis_m": 9999,
      "fzfg": false,
      "metar_trigger": false,
      "taf_trigger": false,
      "metar": "METAR LIRP 261045Z 12011KT 9999 FEW035 BKN060 09/08 Q1001 NOSIG",
      "taf": "TAF LIRP 260500Z 2606/2706 11005KT 9999 -RA SCT025 BKN035"
    },
    {
      "icao": "LIRZ",
      "alert": "OK",
      "vis_m": 9999,
      "fzfg": false,
      "metar_trigger": false,
      "taf_trigger": false,
      "metar": "METAR LIRZ 261050Z AUTO 33005KT 300V360 9999 NCD 09/05 Q1000",
      "taf": "TAF LIRZ 260500Z 2606/2706 VRB05KT 9999 BKN030"
    },
    {
      "icao": "LJLJ",
      "alert": "OK",
      "vis_m": 3500,
      "fzfg": false,
      "metar_trigger": false,
      "taf_trigger": false,
      "metar": "METAR LJLJ 261100Z VRB02KT 3500 BR BKN003 03/03 Q1000 NOSIG",
      "taf": "TAF LJLJ 261100Z 2612/2712 VRB02KT 3500 BR BKN002"
    },
    {
      "icao": "LKMT",
      "alert": "OK",
      "vis_m": 9999,
      "fzfg": false,
      "metar_trigger": false,
      "taf_trigger": false,
      "metar": "METAR LKMT 261100Z 25010KT 9999 SCT007 BKN016 05/04 Q1000 NOSIG",
      "taf": ""
    },
    {
      "icao": "LKPR",
      "alert": "OK",
      "vis_m": 9999,
      "fzfg": false,
      "metar_trigger": false,
      "taf_trigger": false,
      "metar": "METAR LKPR 261100Z 18008KT 130V210 9999 BKN019 02/M01 Q0997 NOSIG",
      "taf": "TAF LKPR 260800Z 2609/2715 20010KT 9999 BKN017 OVC027"
    },
    {
      "icao": "LLBG",
      "alert": "OK",
      "vis_m": 9999,
      "fzfg": false,
      "metar_trigger": false,
      "taf_trigger": false,
      "metar": "METAR LLBG 261050Z 21011KT CAVOK 24/M00 Q1013 NOSIG",
      "taf": "TAF LLBG 261104Z 2612/2712 20008KT CAVOK"
    },
    {
      "icao": "LMML",
      "alert": "OK",
      "vis_m": 9999,
      "fzfg": false,
      "metar_trigger": false,
      "taf_trigger": false,
      "metar": "METAR LMML 261115Z 24008KT 190V280 9999 -RA BKN019TCU 12/09 Q1001 RESHRA NOSIG",
      "taf": "TAF LMML 261100Z 2612/2712 25020G30KT 9999 SCT015"
    },
    {
      "icao": "LOWW",
      "alert": "OK",
      "vis_m": 5000,
      "fzfg": false,
      "metar_trigger": false,
      "taf_trigger": false,
      "metar": "METAR LOWW 261050Z 11005KT 080V140 5000 BR FEW002 BKN004 02/01 Q1001 TEMPO 4500 BR SCT003 BKN005",
      "taf": "TAF LOWW 260815Z 2609/2715 VRB04KT 0800 FG OVC002 TX05/2614Z TNM00/2706Z"
    },
    {
      "icao": "LPFR",
      "alert": "OK",
      "vis_m": 9000,
      "fzfg": false,
      "metar_trigger": false,
      "taf_trigger": false,
      "metar": "METAR LPFR 261100Z 25015KT 9000 FEW008 BKN032 16/15 Q1018",
      "taf": "TAF LPFR 261100Z 2612/2712 25015KT 9999 SCT012 BKN025"
    },
    {
      "icao": "LPMA",
      "alert": "OK",
      "vis_m": 9999,
      "fzfg": false,
      "metar_trigger": false,
      "taf_trigger": false,
      "metar": "METAR LPMA 261100Z 22015KT 190V260 9999 FEW016 BKN030 18/09 Q1022",
      "taf": "TAF LPMA 261100Z 2612/2712 22018KT 9999 SCT015"
    },
    {
      "icao": "LPPR",
      "alert": "OK",
      "vis_m": 6000,
      "fzfg": false,
      "metar_trigger": false,
      "taf_trigger": false,
      "metar": "METAR LPPR 261100Z 21014KT 6000 -RADZ BKN007 BKN011 14/14 Q1008",
      "taf": "TAF LPPR 261100Z 2612/2712 19015KT 9999 SCT012 BKN025"
    },
    {
      "icao": "LPPS",
      "alert": "OK",
      "vis_m": 9999,
      "fzfg": false,
      "metar_trigger": false,
      "taf_trigger": false,
      "metar": "METAR LPPS 261100Z 25005KT 220V290 9999 FEW015 BKN030 18/10 Q1022",
      "taf": "TAF LPPS 261100Z 2612/2718 VRB05KT 9999 SCT015 SCT030"
    },
    {
      "icao": "LPPT",
      "alert": "OK",
      "vis_m": 7000,
      "fzfg": false,
      "metar_trigger": false,
      "taf_trigger": false,
      "metar": "METAR LPPT 261100Z 23014KT 200V260 7000 FEW005 BKN007 15/14 Q1014",
      "taf": "TAF LPPT 261100Z 2612/2718 23017KT 9999 SCT012 BKN025"
    },
    {
      "icao": "LQBK",
      "alert": "OK",
      "vis_m": 3500,
      "fzfg": false,
      "metar_trigger": false,
      "taf_trigger": false,
      "metar": "METAR LQBK 261100Z 34004KT 3500 BR BKN002 OVC006 04/04 Q1000 NOSIG",
      "taf": "TAF LQBK 261100Z 2612/2712 30005KT 6000 NSC TX06/2613Z TN02/2706Z"
    },
    {
      "icao": "LQSA",
      "alert": "OK",
      "vis_m": 9999,
      "fzfg": false,
      "metar_trigger": false,
      "taf_trigger": false,
      "metar": "METAR LQSA 261100Z VRB02KT 9999 SCT045 07/04 Q0999 NOSIG",
      "taf": "TAF LQSA 261100Z 2612/2712 VRB02KT 9999 SCT050 TX09/2613Z TN01/2704Z"
    },
    {
      "icao": "LQTZ",
      "alert": "OK",
      "vis_m": 9999,
      "fzfg": false,
      "metar_trigger": false,
      "taf_trigger": false,
      "metar": "METAR LQTZ 261100Z VRB01KT CAVOK 10/06 Q0999",
      "taf": "TAF LQTZ 261100Z 2612/2712 28006KT 9999 SCT040 TX11/2613Z TN01/2706Z"
    },
    {
      "icao": "LRBC",
      "alert": "OK",
      "vis_m": 150,
      "fzfg": false,
      "metar_trigger": false,
      "taf_trigger": false,
      "metar": "METAR LRBC 261100Z 14005KT 0150 R16/0450N FG VV002 03/03 Q1007",
      "taf": ""
    },
    {
      "icao": "LRBS",
      "alert": "OK",
      "vis_m": 1500,
      "fzfg": false,
      "metar_trigger": false,
      "taf_trigger": false,
      "metar": "METAR LRBS 261100Z 06010KT 1500 BR OVC001 05/05 Q1004 BECMG 3000 OVC005",
      "taf": "TAF LRBS 260500Z 2606/2706 06010KT 0200 FG VV001"
    },
    {
      "icao": "LRBV",
      "alert": "OK",
      "vis_m": 9999,
      "fzfg": false,
      "metar_trigger": false,
      "taf_trigger": false,
      "metar": "METAR LRBV 261100Z 13011KT 9999 FEW065 08/04 Q1002",
      "taf": "TAF LRBV 260800Z 2609/2618 VRB04KT CAVOK"
    },
    {
      "icao": "LRCL",
      "alert": "OK",
      "vis_m": 9999,
      "fzfg": false,
      "metar_trigger": false,
      "taf_trigger": false,
      "metar": "METAR LRCL 261100Z 08006KT 9999 FEW044 06/02 Q1001",
      "taf": "TAF LRCL 260800Z 2609/2618 05007KT 9999 BKN065"
    },
    {
      "icao": "LRCV",
      "alert": "OK",
      "vis_m": 250,
      "fzfg": false,
      "metar_trigger": false,
      "taf_trigger": false,
      "metar": "METAR LRCV 261100Z 08010KT 0250 R26/0400N -RA FG VV002 04/04 Q1002",
      "taf": ""
    },
    {
      "icao": "LRIA",
      "alert": "OK",
      "vis_m": 100,
      "fzfg": false,
      "metar_trigger": false,
      "taf_trigger": false,
      "metar": "METAR LRIA 261100Z 11018KT 0100 R14/0350N -DZ FG VV001 03/03 Q1007",
      "taf": ""
    },
    {
      "icao": "LROP",
      "alert": "OK",
      "vis_m": 1800,
      "fzfg": false,
      "metar_trigger": false,
      "taf_trigger": false,
      "metar": "METAR LROP 261100Z 06009KT 1800 0800N PRFG OVC001 06/06 Q1004 BECMG 3000 BR OVC005",
      "taf": "TAF LROP 260500Z 2606/2706 06012KT 0200 FG VV001"
    },
    {
      "icao": "LRSB",
      "alert": "OK",
      "vis_m": 9999,
      "fzfg": false,
      "metar_trigger": false,
      "taf_trigger": false,
      "metar": "METAR LRSB 261100Z 17017G27KT 9999 FEW050 13/06 Q0999",
      "taf": "TAF LRSB 260500Z 2606/2706 13014KT CAVOK"
    },
    {
      "icao": "LRSM",
      "alert": "OK",
      "vis_m": 9999,
      "fzfg": false,
      "metar_trigger": false,
      "taf_trigger": false,
      "metar": "METAR LRSM 261100Z VRB04KT CAVOK 08/03 Q1000",
      "taf": "TAF LRSM 260800Z 2609/2618 VRB04KT CAVOK"
    },
    {
      "icao": "LRSV",
      "alert": "OK",
      "vis_m": 100,
      "fzfg": false,
      "metar_trigger": false,
      "taf_trigger": false,
      "metar": "METAR LRSV 261100Z 12011KT 0100 R34/0250N FG VV001 01/01 Q1005",
      "taf": "TAF LRSV 260800Z 2609/2618 14012KT 0150 FG VV001"
    },
    {
      "icao": "LRTM",
      "alert": "OK",
      "vis_m": 9999,
      "fzfg": false,
      "metar_trigger": false,
      "taf_trigger": false,
      "metar": "METAR LRTM 261100Z 11002KT 9999 FEW016 04/01 Q1001",
      "taf": "TAF LRTM 260800Z 2609/2618 09008KT CAVOK"
    },
    {
      "icao": "LRTR",
      "alert": "OK",
      "vis_m": 7000,
      "fzfg": false,
      "metar_trigger": false,
      "taf_trigger": false,
      "metar": "METAR LRTR 261100Z 05005KT 7000 -RA SCT043 08/08 Q0999 RERA NOSIG",
      "taf": "TAF LRTR 260500Z 2606/2706 14008KT CAVOK"
    },
    {
      "icao": "LTAC",
      "alert": "OK",
      "vis_m": 9999,
      "fzfg": false,
      "metar_trigger": false,
      "taf_trigger": false,
      "metar": "METAR LTAC 261050Z 17010KT 9999 SCT035 BKN100 10/03 Q1012 NOSIG",
      "taf": "TAF LTAC 261040Z 2612/2712 17008KT 9999 SCT035 BKN090"
    },
    {
      "icao": "LTFM",
      "alert": "OK",
      "vis_m": 9999,
      "fzfg": false,
      "metar_trigger": false,
      "taf_trigger": false,
      "metar": "METAR LTFM 261050Z 14010KT CAVOK 16/06 Q1006 NOSIG",
      "taf": "TAF LTFM 261040Z 2612/2718 12009KT CAVOK"
    },
    {
      "icao": "LUKK",
      "alert": "OK",
      "vis_m": 750,
      "fzfg": false,
      "metar_trigger": false,
      "taf_trigger": false,
      "metar": "METAR LUKK 261100Z 12012KT 0750 0400SW R08/0550N FG VV001 01/01 Q1011 NOSIG",
      "taf": ""
    },
    {
      "icao": "LWOH",
      "alert": "OK",
      "vis_m": 9999,
      "fzfg": false,
      "metar_trigger": false,
      "taf_trigger": false,
      "metar": "METAR LWOH 261050Z 00000KT 9999 FEW015 BKN035 09/06 Q0997",
      "taf": "TAF LWOH 260830Z 2609/2709 VRB02KT 9999 SCT020 OVC050"
    },
    {
      "icao": "LWSK",
      "alert": "OK",
      "vis_m": null,
      "fzfg": false,
      "metar_trigger": false,
      "taf_trigger": false,
      "metar": "",
      "taf": "TAF LWSK 260830Z 2609/2709 VRB02KT 3000 BR SCT010 SCT030 OVC070"
    },
    {
      "icao": "LYBE",
      "alert": "OK",
      "vis_m": 9999,
      "fzfg": false,
      "metar_trigger": false,
      "taf_trigger": false,
      "metar": "METAR LYBE 261100Z 10007KT 9999 SCT040 08/04 Q0999 NOSIG",
      "taf": "TAF LYBE 260500Z 2606/2706 14014KT CAVOK TX10/2613Z TN03/2706Z"
    },
    {
      "icao": "LYNI",
      "alert": "OK",
      "vis_m": 9999,
      "fzfg": false,
      "metar_trigger": false,
      "taf_trigger": false,
      "metar": "METAR LYNI 261100Z 30008KT 250V320 9999 FEW020 SCT060 11/05 Q0998 TEMPO 05013KT",
      "taf": "TAF LYNI 260500Z 2606/2706 08010KT 9999 SCT012 BKN050 TX11/2613Z TN04/2706Z"
    },
    {
      "icao": "LYPG",
      "alert": "OK",
      "vis_m": 9999,
      "fzfg": false,
      "metar_trigger": false,
      "taf_trigger": false,
      "metar": "METAR LYPG 261100Z 33005KT 300V020 9999 FEW010 SCT040 BKN080 11/07 Q1000 NOSIG",
      "taf": "TAF LYPG 260500Z 2606/2706 08008KT 9999 FEW023 SCT040 BKN080 TX12/2613Z TN07/2705Z"
    },
    {
      "icao": "LZIB",
      "alert": "OK",
      "vis_m": 9999,
      "fzfg": false,
      "metar_trigger": false,
      "taf_trigger": false,
      "metar": "METAR LZIB 261100Z VRB03KT 9999 FEW009 05/03 Q1001 NOSIG",
      "taf": "TAF LZIB 261115Z 2612/2712 VRB02KT 9999 FEW013"
    },
    {
      "icao": "LZKZ",
      "alert": "OK",
      "vis_m": 9999,
      "fzfg": false,
      "metar_trigger": false,
      "taf_trigger": false,
      "metar": "METAR LZKZ 261100Z 09004KT 9999 -RA FEW030 BKN043 05/04 Q1000 NOSIG",
      "taf": "TAF LZKZ 261115Z 2612/2712 27005KT 9999 FEW015 BKN030"
    },
    {
      "icao": "LZTT",
      "alert": "OK",
      "vis_m": 8000,
      "fzfg": false,
      "metar_trigger": false,
      "taf_trigger": false,
      "metar": "METAR LZTT 261100Z VRB01KT 8000 -RA BKN004 OVC023 04/03 Q0999 NOSIG",
      "taf": "TAF LZTT 261115Z 2612/2712 16005KT 9999 FEW008 BKN035"
    },
    {
      "icao": "OEJN",
      "alert": "OK",
      "vis_m": 8000,
      "fzfg": false,
      "metar_trigger": false,
      "taf_trigger": false,
      "metar": "METAR OEJN 261100Z VRB03KT 8000 NSC 33/08 Q1011 NOSIG",
      "taf": "TAF OEJN 260500Z 2606/2712 09015KT 6000 NSC"
    },
    {
      "icao": "OEMA",
      "alert": "OK",
      "vis_m": 9999,
      "fzfg": false,
      "metar_trigger": false,
      "taf_trigger": false,
      "metar": "METAR OEMA 261100Z 08006KT CAVOK 21/M01 Q1020 NOSIG",
      "taf": "TAF OEMA 260500Z 2606/2712 09014KT 7000 NSC"
    },
    {
      "icao": "OJAI",
      "alert": "OK",
      "vis_m": 4500,
      "fzfg": false,
      "metar_trigger": false,
      "taf_trigger": false,
      "metar": "METAR OJAI 261100Z 16015KT 4500 BLDU NSC 17/01 Q1018 NOSIG",
      "taf": "TAF OJAI 261034Z 2612/2718 13008KT 5000 HZ NSC"
    },
    {
      "icao": "OMAA",
      "alert": "OK",
      "vis_m": 9999,
      "fzfg": false,
      "metar_trigger": false,
      "taf_trigger": false,
      "metar": "METAR OMAA 261100Z 31016KT 9999 SCT035 22/12 Q1016 NOSIG",
      "taf": "TAF OMAA 261100Z 2612/2718 33014KT 8000 SCT040"
    },
    {
      "icao": "OMDB",
      "alert": "OK",
      "vis_m": 9999,
      "fzfg": false,
      "metar_trigger": false,
      "taf_trigger": false,
      "metar": "METAR OMDB 261100Z 29014KT 230V350 9999 SCT030 23/14 Q1015 NOSIG",
      "taf": "TAF OMDB 261100Z 2612/2718 31013KT 8000 SCT035"
    },
    {
      "icao": "UAAA",
      "alert": "OK",
      "vis_m": 9999,
      "fzfg": false,
      "metar_trigger": false,
      "taf_trigger": false,
      "metar": "METAR UAAA 261100Z 34002MPS 9999 FEW200 02/M06 Q1021 NOSIG",
      "taf": "TAF UAAA 260504Z 2606/2706 23003MPS 6000 SCT050 BKN100 TX01/2608Z TNM09/2702Z"
    },
    {
      "icao": "UBBB",
      "alert": "OK",
      "vis_m": 9999,
      "fzfg": false,
      "metar_trigger": false,
      "taf_trigger": false,
      "metar": "METAR UBBB 261100Z 31014G24KT 9999 BKN011 OVC026 07/04 Q1020 NOSIG",
      "taf": "TAF UBBB 261055Z 2612/2712 34016KT 9999 SCT012 BKN030 TX07/2612Z TN02/2701Z"
    },
    {
      "icao": "UDSG",
      "alert": "OK",
      "vis_m": 4500,
      "fzfg": true,
      "metar_trigger": false,
      "taf_trigger": false,
      "metar": "METAR UDSG 261100Z 28001KT 4500 BR FEW036 M07/M08 Q1022 NOSIG",
      "taf": "TAF UDSG 260458Z 2606/2706 VRB06KT 0800 FZFG OVC006"
    },
    {
      "icao": "UDYZ",
      "alert": "OK",
      "vis_m": 2600,
      "fzfg": false,
      "metar_trigger": false,
      "taf_trigger": false,
      "metar": "METAR UDYZ 261100Z 22003KT 2600 BR BKN008 M04/M06 Q1025 NOSIG",
      "taf": "TAF UDYZ 260500Z 2606/2706 VRB04KT 2300 BR BKN010"
    },
    {
      "icao": "UGKO",
      "alert": "OK",
      "vis_m": 9999,
      "fzfg": false,
      "metar_trigger": false,
      "taf_trigger": false,
      "metar": "METAR UGKO 261100Z 09008KT CAVOK 15/06 Q1016 NOSIG",
      "taf": "TAF UGKO 261100Z 2612/2712 08020KT CAVOK TX16/2612Z TN07/2618Z"
    }
  ]
}