{
  "ts_utc": "2026-01-16T19:40:11Z",
  "threshold_m": 150,
  "source": "stations_override.txt (ICAO list) + aviationweather.gov (METAR/TAF raw)",
  "station_count": 159,
  "stations": [
    {
      "icao": "BIKF",
      "alert": "OK",
      "vis_m": 9999,
      "fzfg": false,
      "metar_trigger": false,
      "taf_trigger": false,
      "metar": "METAR BIKF 161930Z 02013KT CAVOK 01/M01 Q1007",
      "taf": "TAF BIKF 161634Z 1618/1718 02015KT 9999 FEW030 TX05/1718Z TNM02/1706Z"
    },
    {
      "icao": "BKPR",
      "alert": "OK",
      "vis_m": 9999,
      "fzfg": false,
      "metar_trigger": false,
      "taf_trigger": false,
      "metar": "METAR BKPR 161930Z 34011KT CAVOK 04/02 Q1024 NOSIG",
      "taf": ""
    },
    {
      "icao": "EBCI",
      "alert": "OK",
      "vis_m": 9999,
      "fzfg": false,
      "metar_trigger": false,
      "taf_trigger": false,
      "metar": "METAR EBCI 161920Z 15005KT 9999 FEW035 08/06 Q1014 NOSIG",
      "taf": "TAF EBCI 161715Z 1618/1724 15005KT 9999 FEW020 SCT030"
    },
    {
      "icao": "EDDB",
      "alert": "OK",
      "vis_m": 9999,
      "fzfg": false,
      "metar_trigger": false,
      "taf_trigger": false,
      "metar": "METAR EDDB 161920Z AUTO 13004KT CAVOK 03/01 Q1021 NOSIG",
      "taf": "TAF EDDB 161700Z 1618/1718 11008KT CAVOK"
    },
    {
      "icao": "EDDH",
      "alert": "OK",
      "vis_m": 9999,
      "fzfg": false,
      "metar_trigger": false,
      "taf_trigger": false,
      "metar": "METAR EDDH 161920Z AUTO 09004KT 9999 -RA NSC 07/05 Q1018 NOSIG",
      "taf": "TAF EDDH 161700Z 1618/1724 06003KT 9999 SCT030"
    },
    {
      "icao": "EDDK",
      "alert": "OK",
      "vis_m": 9999,
      "fzfg": false,
      "metar_trigger": false,
      "taf_trigger": false,
      "metar": "METAR EDDK 161920Z AUTO 09003KT CAVOK 08/06 Q1016 NOSIG",
      "taf": "TAF EDDK 161700Z 1618/1724 12008KT 9999 BKN030"
    },
    {
      "icao": "EDDN",
      "alert": "OK",
      "vis_m": 9999,
      "fzfg": false,
      "metar_trigger": false,
      "taf_trigger": false,
      "metar": "METAR EDDN 161920Z AUTO 10008KT CAVOK 01/M01 Q1019 BECMG OVC005",
      "taf": "TAF EDDN 161700Z 1618/1718 11006KT CAVOK"
    },
    {
      "icao": "EDDS",
      "alert": "OK",
      "vis_m": 9999,
      "fzfg": false,
      "metar_trigger": false,
      "taf_trigger": false,
      "metar": "METAR EDDS 161920Z AUTO 08003KT CAVOK 04/01 Q1016 NOSIG",
      "taf": "TAF EDDS 161700Z 1618/1718 VRB03KT CAVOK"
    },
    {
      "icao": "EDFH",
      "alert": "OK",
      "vis_m": 9999,
      "fzfg": false,
      "metar_trigger": false,
      "taf_trigger": false,
      "metar": "METAR EDFH 161920Z 14007KT CAVOK 06/04 Q1015",
      "taf": "TAF EDFH 161700Z 1618/1718 16009KT CAVOK"
    },
    {
      "icao": "EDJA",
      "alert": "OK",
      "vis_m": 9999,
      "fzfg": false,
      "metar_trigger": false,
      "taf_trigger": false,
      "metar": "METAR EDJA 161920Z 04007KT CAVOK 03/M00 Q1016",
      "taf": "TAF EDJA 161700Z 1618/1703 06005KT CAVOK"
    },
    {
      "icao": "EDLW",
      "alert": "OK",
      "vis_m": 9999,
      "fzfg": false,
      "metar_trigger": false,
      "taf_trigger": false,
      "metar": "METAR EDLW 161920Z 11004KT 9999 SCT040 09/08 Q1016",
      "taf": "TAF EDLW 161700Z 1618/1718 22005KT 9999 BKN030"
    },
    {
      "icao": "EDNY",
      "alert": "OK",
      "vis_m": 6000,
      "fzfg": false,
      "metar_trigger": false,
      "taf_trigger": false,
      "metar": "METAR EDNY 161920Z VRB02KT 6000 NSC M01/M01 Q1016",
      "taf": ""
    },
    {
      "icao": "EDSB",
      "alert": "OK",
      "vis_m": 9999,
      "fzfg": false,
      "metar_trigger": false,
      "taf_trigger": false,
      "metar": "METAR EDSB 161920Z 36003KT 330V030 CAVOK 05/04 Q1016",
      "taf": "TAF EDSB 161700Z 1618/1718 03004KT CAVOK"
    },
    {
      "icao": "EETN",
      "alert": "OK",
      "vis_m": 9999,
      "fzfg": false,
      "metar_trigger": false,
      "taf_trigger": false,
      "metar": "METAR EETN 161920Z 17010KT 9999 OVC007 M07/M08 Q1030 NOSIG",
      "taf": "TAF EETN 161730Z 1618/1718 16012KT 9999 BKN015"
    },
    {
      "icao": "EFTU",
      "alert": "OK",
      "vis_m": 9999,
      "fzfg": false,
      "metar_trigger": false,
      "taf_trigger": false,
      "metar": "METAR EFTU 161920Z AUTO 17012KT 9999 OVC008 M01/M02 Q1025",
      "taf": "TAF EFTU 161737Z 1618/1718 17009KT 9999 OVC006"
    },
    {
      "icao": "EGBB",
      "alert": "OK",
      "vis_m": 9999,
      "fzfg": false,
      "metar_trigger": false,
      "taf_trigger": false,
      "metar": "METAR EGBB 161920Z 14008KT 9999 FEW048 04/03 Q1008",
      "taf": "TAF EGBB 161654Z 1618/1718 14007KT 9999 FEW012 SCT025"
    },
    {
      "icao": "EGGP",
      "alert": "OK",
      "vis_m": 9999,
      "fzfg": false,
      "metar_trigger": false,
      "taf_trigger": false,
      "metar": "METAR EGGP 161920Z 11009KT CAVOK 05/03 Q1006",
      "taf": "TAF EGGP 161655Z 1618/1718 13007KT 9999 FEW025"
    },
    {
      "icao": "EGGW",
      "alert": "OK",
      "vis_m": 9999,
      "fzfg": false,
      "metar_trigger": false,
      "taf_trigger": false,
      "metar": "METAR EGGW 161920Z AUTO 15007KT 9999 BKN010 06/05 Q1009",
      "taf": ""
    },
    {
      "icao": "EGKK",
      "alert": "OK",
      "vis_m": 9999,
      "fzfg": false,
      "metar_trigger": false,
      "taf_trigger": false,
      "metar": "METAR EGKK 161920Z AUTO 11006KT 9999 FEW011/// 07/07 Q1010",
      "taf": "TAF EGKK 161655Z 1618/1724 16004KT 9999 SCT010 BKN045"
    },
    {
      "icao": "EGNM",
      "alert": "OK",
      "vis_m": 6000,
      "fzfg": false,
      "metar_trigger": false,
      "taf_trigger": false,
      "metar": "METAR EGNM 161920Z 10005KT 070V140 6000 SCT005 BKN010 05/04 Q1008",
      "taf": "TAF EGNM 161655Z 1618/1718 13006KT 9999 SCT012"
    },
    {
      "icao": "EGPD",
      "alert": "OK",
      "vis_m": 9000,
      "fzfg": false,
      "metar_trigger": false,
      "taf_trigger": false,
      "metar": "METAR EGPD 161920Z VRB02KT 9000 NSC M01/M02 Q1007 TEMPO 4000 BR",
      "taf": "TAF EGPD 161655Z 1618/1718 VRB03KT 9999 FEW040"
    },
    {
      "icao": "EGPF",
      "alert": "OK",
      "vis_m": 9999,
      "fzfg": false,
      "metar_trigger": false,
      "taf_trigger": false,
      "metar": "METAR EGPF 161920Z AUTO 06009KT 9999 SCT031/// SCT045/// //////TCU 04/03 Q1006",
      "taf": "TAF EGPF 161654Z 1618/1718 07009KT 9999 SCT025"
    },
    {
      "icao": "EHBK",
      "alert": "OK",
      "vis_m": 9999,
      "fzfg": false,
      "metar_trigger": false,
      "taf_trigger": false,
      "metar": "METAR EHBK 161925Z AUTO 14005KT 9999 NSC 08/07 Q1015 NOSIG",
      "taf": "TAF EHBK 161706Z 1618/1724 16005KT 9999 BKN035"
    },
    {
      "icao": "EHEH",
      "alert": "OK",
      "vis_m": 9999,
      "fzfg": false,
      "metar_trigger": false,
      "taf_trigger": false,
      "metar": "METAR EHEH 161925Z AUTO 13004KT 120V200 9999 OVC140 08/07 Q1015 BLU NOSIG RMK TREND REMOTE BY EHWX",
      "taf": "TAF EHEH 161744Z 1618/1724 19003KT 9999 FEW030 BKN035"
    },
    {
      "icao": "EKBI",
      "alert": "OK",
      "vis_m": 9999,
      "fzfg": false,
      "metar_trigger": false,
      "taf_trigger": false,
      "metar": "METAR EKBI 161920Z AUTO 19004KT 9999 OVC021/// 05/05 Q1018",
      "taf": "TAF EKBI 161727Z 1618/1718 12006KT 8000 BKN016"
    },
    {
      "icao": "EKCH",
      "alert": "OK",
      "vis_m": 8000,
      "fzfg": false,
      "metar_trigger": false,
      "taf_trigger": false,
      "metar": "METAR EKCH 161920Z AUTO 19007KT 8000 NCD 02/02 Q1020 NOSIG",
      "taf": "TAF EKCH 161727Z 1618/1718 15010KT 9999 BKN030"
    },
    {
      "icao": "ENAL",
      "alert": "OK",
      "vis_m": 9999,
      "fzfg": false,
      "metar_trigger": false,
      "taf_trigger": false,
      "metar": "METAR ENAL 161920Z 18007KT 9999 -RA FEW030 SCT039 BKN049 06/03 Q1007",
      "taf": "TAF ENAL 161700Z 1618/1703 19010KT 9999 FEW020 BKN040"
    },
    {
      "icao": "ENBR",
      "alert": "OK",
      "vis_m": 9999,
      "fzfg": false,
      "metar_trigger": false,
      "taf_trigger": false,
      "metar": "METAR ENBR 161920Z 14005KT 9999 BKN012 03/03 Q1010 TEMPO BKN008 RMK WIND 1200FT 22008KT",
      "taf": "TAF ENBR 161700Z 1618/1718 VRB05KT 9999 -RA FEW008 BKN015"
    },
    {
      "icao": "ENGM",
      "alert": "OK",
      "vis_m": 8000,
      "fzfg": false,
      "metar_trigger": false,
      "taf_trigger": false,
      "metar": "METAR ENGM 161920Z VRB02KT 8000 -RA OVC002 02/01 Q1010 TEMPO 5000",
      "taf": "TAF ENGM 161700Z 1618/1718 17010KT 8000 -RA SCT003 BKN005"
    },
    {
      "icao": "ENHD",
      "alert": "OK",
      "vis_m": 9999,
      "fzfg": false,
      "metar_trigger": false,
      "taf_trigger": false,
      "metar": "METAR ENHD 161920Z 26006KT 9999 BKN015 06/03 Q1011",
      "taf": "TAF ENHD 161400Z 1615/1623 34012KT 8000 -RA SCT010 BKN018"
    },
    {
      "icao": "ENTC",
      "alert": "OK",
      "vis_m": 9999,
      "fzfg": false,
      "metar_trigger": false,
      "taf_trigger": false,
      "metar": "METAR ENTC 161920Z VRB02KT CAVOK M04/M08 Q1013 NOSIG RMK WIND 2600FT 17003KT",
      "taf": "TAF ENTC 161700Z 1618/1718 02005KT CAVOK"
    },
    {
      "icao": "ENTO",
      "alert": "OK",
      "vis_m": 6000,
      "fzfg": false,
      "metar_trigger": false,
      "taf_trigger": false,
      "metar": "METAR ENTO 161920Z 19016KT 6000 BKN002 OVC003 05/05 Q1010 REDZRA REDZ TEMPO 4000 -DZRA BR",
      "taf": "TAF ENTO 161700Z 1618/1718 17015KT 6000 -RA SCT003 BKN006"
    },
    {
      "icao": "ENVA",
      "alert": "OK",
      "vis_m": 9999,
      "fzfg": false,
      "metar_trigger": false,
      "taf_trigger": false,
      "metar": "METAR ENVA 161920Z 12004KT 070V160 9999 FEW038 SCT046 06/M01 Q1006 NOSIG RMK WIND 670FT 16015KT",
      "taf": "TAF ENVA 161700Z 1618/1718 13008KT 9999 FEW012 BKN050"
    },
    {
      "icao": "ENZV",
      "alert": "OK",
      "vis_m": 9999,
      "fzfg": false,
      "metar_trigger": false,
      "taf_trigger": false,
      "metar": "METAR ENZV 161920Z 16005KT 9999 BKN022 05/04 Q1012 NOSIG",
      "taf": "TAF ENZV 161700Z 1618/1718 24012KT 9999 SCT010 BKN018"
    },
    {
      "icao": "EPGD",
      "alert": "OK",
      "vis_m": 500,
      "fzfg": true,
      "metar_trigger": false,
      "taf_trigger": false,
      "metar": "METAR EPGD 161930Z 17013KT 0500 R29/1400N FZFG OVC001 M02/M03 Q1025",
      "taf": "TAF EPGD 161730Z 1618/1718 16010KT 0600 FZFG OVC002"
    },
    {
      "icao": "EPKK",
      "alert": "OK",
      "vis_m": 2500,
      "fzfg": false,
      "metar_trigger": false,
      "taf_trigger": false,
      "metar": "METAR EPKK 161930Z 06008KT 2500 BR OVC003 M01/M02 Q1026",
      "taf": "TAF EPKK 161730Z 1618/1718 06006KT 4000 BR OVC005"
    },
    {
      "icao": "EPKT",
      "alert": "OK",
      "vis_m": 250,
      "fzfg": true,
      "metar_trigger": false,
      "taf_trigger": false,
      "metar": "METAR EPKT 161930Z 11007KT 0250 R26/0800N FZFG OVC001 M01/M01 Q1025",
      "taf": ""
    },
    {
      "icao": "EPLB",
      "alert": "OK",
      "vis_m": 9999,
      "fzfg": false,
      "metar_trigger": false,
      "taf_trigger": false,
      "metar": "METAR EPLB 161930Z 11010KT CAVOK M12/M14 Q1031",
      "taf": "TAF EPLB 161730Z 1618/1718 11008KT 8000 NSC"
    },
    {
      "icao": "EPMO",
      "alert": "OK",
      "vis_m": 4700,
      "fzfg": false,
      "metar_trigger": false,
      "taf_trigger": false,
      "metar": "METAR EPMO 161930Z 11007KT 4700 BR FEW010 M06/M08 Q1029",
      "taf": ""
    },
    {
      "icao": "EPPO",
      "alert": "OK",
      "vis_m": 2800,
      "fzfg": false,
      "metar_trigger": false,
      "taf_trigger": false,
      "metar": "METAR EPPO 161930Z 13012KT 2800 BR OVC004 02/01 Q1024",
      "taf": "TAF EPPO 161730Z 1618/1718 13010KT 2000 BR OVC004"
    },
    {
      "icao": "EPRA",
      "alert": "OK",
      "vis_m": 9000,
      "fzfg": false,
      "metar_trigger": false,
      "taf_trigger": false,
      "metar": "METAR EPRA 161930Z 11010KT 9000 FEW008 M07/M09 Q1028",
      "taf": "TAF EPRA 161730Z 1618/1703 11009KT 8000 NSC"
    },
    {
      "icao": "EPRZ",
      "alert": "OK",
      "vis_m": 8000,
      "fzfg": false,
      "metar_trigger": false,
      "taf_trigger": false,
      "metar": "METAR EPRZ 161930Z 09013KT 8000 OVC005 M05/M08 Q1029",
      "taf": "TAF EPRZ 161730Z 1618/1718 09010KT 8000 SCT035"
    },
    {
      "icao": "EPSC",
      "alert": "OK",
      "vis_m": 2600,
      "fzfg": false,
      "metar_trigger": false,
      "taf_trigger": false,
      "metar": "METAR EPSC 161930Z 13010KT 2600 BR SCT003 BKN005 02/02 Q1022",
      "taf": "TAF EPSC 161730Z 1618/1718 15010KT 2500 BR OVC005"
    },
    {
      "icao": "EPSY",
      "alert": "OK",
      "vis_m": 5000,
      "fzfg": false,
      "metar_trigger": false,
      "taf_trigger": false,
      "metar": "METAR EPSY 161930Z 14006KT 080V180 5000 BR BKN012 M11/M13 Q1029",
      "taf": "TAF EPSY 161730Z 1618/1703 14008KT 5000 BR BKN010"
    },
    {
      "icao": "EPWA",
      "alert": "OK",
      "vis_m": 9999,
      "fzfg": false,
      "metar_trigger": false,
      "taf_trigger": false,
      "metar": "METAR EPWA 161930Z 12011KT CAVOK M07/M09 Q1029 NOSIG",
      "taf": ""
    },
    {
      "icao": "EPWR",
      "alert": "OK",
      "vis_m": 2200,
      "fzfg": false,
      "metar_trigger": false,
      "taf_trigger": false,
      "metar": "METAR EPWR 161930Z 09002KT 2200 MIFG BR NSC 00/00 Q1023",
      "taf": "TAF EPWR 161730Z 1618/1718 13008KT 4000 BR NSC"
    },
    {
      "icao": "ESGG",
      "alert": "OK",
      "vis_m": 5000,
      "fzfg": false,
      "metar_trigger": false,
      "taf_trigger": false,
      "metar": "METAR ESGG 161920Z 20011KT 5000 BR OVC004 04/03 Q1016",
      "taf": ""
    },
    {
      "icao": "ESKN",
      "alert": "OK",
      "vis_m": 2300,
      "fzfg": false,
      "metar_trigger": false,
      "taf_trigger": false,
      "metar": "METAR ESKN 161920Z 17012KT 2300 BR OVC003 03/03 Q1019",
      "taf": "TAF ESKN 161730Z 1618/1718 17012KT 5000 OVC004"
    },
    {
      "icao": "ESMS",
      "alert": "OK",
      "vis_m": 2500,
      "fzfg": false,
      "metar_trigger": false,
      "taf_trigger": false,
      "metar": "METAR ESMS 161920Z 16004KT 090V180 2500 BR NSC 01/01 Q1020",
      "taf": "TAF ESMS 161727Z 1618/1718 15010KT 2500 BR BKN030"
    },
    {
      "icao": "ESSA",
      "alert": "OK",
      "vis_m": 4400,
      "fzfg": false,
      "metar_trigger": false,
      "taf_trigger": false,
      "metar": "METAR ESSA 161920Z 16015KT 4400 BR OVC004 02/01 Q1019 TEMPO 2500",
      "taf": ""
    },
    {
      "icao": "EYKA",
      "alert": "OK",
      "vis_m": 9999,
      "fzfg": false,
      "metar_trigger": false,
      "taf_trigger": false,
      "metar": "METAR EYKA 161920Z 18006KT 120V260 CAVOK M12/M15 Q1034",
      "taf": "TAF EYKA 161700Z 1618/1718 15010KT 6000 NSC"
    },
    {
      "icao": "EYPA",
      "alert": "OK",
      "vis_m": 7000,
      "fzfg": false,
      "metar_trigger": false,
      "taf_trigger": false,
      "metar": "METAR EYPA 161920Z 16014KT 7000 OVC005 M06/M07 Q1029",
      "taf": "TAF EYPA 161700Z 1618/1718 15012KT 5000 BR OVC005"
    },
    {
      "icao": "EYVI",
      "alert": "OK",
      "vis_m": 9999,
      "fzfg": false,
      "metar_trigger": false,
      "taf_trigger": false,
      "metar": "METAR EYVI 161920Z 16010KT CAVOK M14/M17 Q1034 NOSIG",
      "taf": "TAF EYVI 161700Z 1618/1718 15010KT 6000 NSC"
    },
    {
      "icao": "GCFV",
      "alert": "OK",
      "vis_m": 9000,
      "fzfg": false,
      "metar_trigger": false,
      "taf_trigger": false,
      "metar": "METAR GCFV 161930Z 36014KT 9000 -DZ BKN012 17/15 Q1023",
      "taf": "TAF GCFV 161400Z 1615/1715 36012KT 9999 BKN030 TX20/1714Z TN15/1706Z"
    },
    {
      "icao": "GCLP",
      "alert": "OK",
      "vis_m": 9999,
      "fzfg": false,
      "metar_trigger": false,
      "taf_trigger": false,
      "metar": "METAR GCLP 161930Z 02022KT 9999 FEW013 BKN025 17/15 Q1024 REDZ NOSIG",
      "taf": "TAF GCLP 161400Z 1615/1715 01018KT 9999 BKN025 TX21/1714Z TN15/1706Z"
    },
    {
      "icao": "GCTS",
      "alert": "OK",
      "vis_m": 9999,
      "fzfg": false,
      "metar_trigger": false,
      "taf_trigger": false,
      "metar": "METAR GCTS 161930Z 09004KT 9999 FEW030 18/12 Q1024 NOSIG",
      "taf": "TAF GCTS 161400Z 1615/1715 VRB05KT 9999 SCT035 TX22/1714Z TN14/1706Z"
    },
    {
      "icao": "GMAD",
      "alert": "OK",
      "vis_m": 9999,
      "fzfg": false,
      "metar_trigger": false,
      "taf_trigger": false,
      "metar": "METAR GMAD 161930Z 21007KT 9999 SCT013 BKN023 14/14 Q1020 NOSIG",
      "taf": "TAF GMAD 161800Z 1618/1724 20010KT 6000 SCT008 BKN020"
    },
    {
      "icao": "GMMN",
      "alert": "OK",
      "vis_m": 9999,
      "fzfg": false,
      "metar_trigger": false,
      "taf_trigger": false,
      "metar": "METAR GMMN 161930Z 24008KT 9999 SCT010 BKN017 11/10 Q1018 NOSIG",
      "taf": "TAF GMMN 161700Z 1618/1724 24010KT 9999 BKN009 BKN020"
    },
    {
      "icao": "GMMX",
      "alert": "OK",
      "vis_m": 8000,
      "fzfg": false,
      "metar_trigger": false,
      "taf_trigger": false,
      "metar": "METAR GMMX 161930Z 26010KT 8000 SCT013 BKN020 12/11 Q1019 NOSIG",
      "taf": "TAF GMMX 161700Z 1618/1724 26010KT 8000 SCT016 BKN023"
    },
    {
      "icao": "HEGN",
      "alert": "OK",
      "vis_m": 9999,
      "fzfg": false,
      "metar_trigger": false,
      "taf_trigger": false,
      "metar": "METAR HEGN 161900Z 31008KT CAVOK 17/07 Q1019 NOSIG",
      "taf": "TAF HEGN 161700Z 1618/1724 31010KT CAVOK"
    },
    {
      "icao": "HEMA",
      "alert": "OK",
      "vis_m": 9999,
      "fzfg": false,
      "metar_trigger": false,
      "taf_trigger": false,
      "metar": "METAR HEMA 161900Z 30007KT CAVOK 17/09 Q1018 NOSIG",
      "taf": "TAF HEMA 161700Z 1618/1724 33012KT 9999 SCT025"
    },
    {
      "icao": "HESH",
      "alert": "OK",
      "vis_m": 9999,
      "fzfg": false,
      "metar_trigger": false,
      "taf_trigger": false,
      "metar": "METAR HESH 161900Z 31008KT CAVOK 18/07 Q1018 NOSIG",
      "taf": "TAF HESH 161700Z 1618/1724 33010KT CAVOK"
    },
    {
      "icao": "HESX",
      "alert": "OK",
      "vis_m": 9999,
      "fzfg": false,
      "metar_trigger": false,
      "taf_trigger": false,
      "metar": "METAR HESX 161900Z 01004KT CAVOK 13/08 Q1021 NOSIG",
      "taf": "TAF HESX 161700Z 1618/1724 02010KT 9999 SCT025 SCT070"
    },
    {
      "icao": "LATI",
      "alert": "OK",
      "vis_m": 8000,
      "fzfg": false,
      "metar_trigger": false,
      "taf_trigger": false,
      "metar": "METAR LATI 161920Z 14003KT 8000 BKN092 10/06 Q1022 NOSIG",
      "taf": "TAF LATI 161700Z 1618/1718 VRB05KT CAVOK TX17/1712Z TN05/1705Z"
    },
    {
      "icao": "LBPD",
      "alert": "OK",
      "vis_m": 4500,
      "fzfg": false,
      "metar_trigger": false,
      "taf_trigger": false,
      "metar": "METAR LBPD 161930Z AUTO 11014KT 4500 -SN SCT013/// OVC018/// 00/00 Q1030 TEMPO 2500 -SN",
      "taf": "TAF LBPD 161700Z 1618/1718 10010KT 7000 RASN SCT007 OVC020"
    },
    {
      "icao": "LBSF",
      "alert": "OK",
      "vis_m": 9999,
      "fzfg": false,
      "metar_trigger": false,
      "taf_trigger": false,
      "metar": "METAR LBSF 161930Z AUTO 11006KT 9999 -SHRA FEW012/// BKN016/// OVC018/// 01/M01 Q1026 NOSIG",
      "taf": "TAF LBSF 161700Z 1618/1718 10010KT 8000 RA SCT020 BKN040"
    },
    {
      "icao": "LBWN",
      "alert": "OK",
      "vis_m": 9999,
      "fzfg": false,
      "metar_trigger": false,
      "taf_trigger": false,
      "metar": "METAR LBWN 161930Z AUTO VRB04KT 9999 FEW019/// M05/M09 Q1032 NOSIG",
      "taf": "TAF LBWN 161700Z 1618/1718 35010KT 9999 SCT030"
    },
    {
      "icao": "LCLK",
      "alert": "OK",
      "vis_m": 9999,
      "fzfg": false,
      "metar_trigger": false,
      "taf_trigger": false,
      "metar": "METAR LCLK 161930Z 31003KT 9999 FEW030 12/10 Q1020 NOSIG",
      "taf": "TAF LCLK 161730Z 1618/1718 33006KT 9999 FEW025"
    },
    {
      "icao": "LCPH",
      "alert": "OK",
      "vis_m": 9999,
      "fzfg": false,
      "metar_trigger": false,
      "taf_trigger": false,
      "metar": "METAR LCPH 161930Z 06005KT 010V080 9999 SCT028 BKN040 15/10 Q1020 NOSIG",
      "taf": "TAF LCPH 161730Z 1618/1718 03007KT 9999 FEW025"
    },
    {
      "icao": "LEAL",
      "alert": "OK",
      "vis_m": 9999,
      "fzfg": false,
      "metar_trigger": false,
      "taf_trigger": false,
      "metar": "METAR LEAL 161930Z 01004KT CAVOK 14/10 Q1012 NOSIG",
      "taf": "TAF LEAL 161700Z 1618/1718 VRB04KT 9999 FEW060 TX14/1713Z TN07/1706Z"
    },
    {
      "icao": "LEBB",
      "alert": "OK",
      "vis_m": 9999,
      "fzfg": false,
      "metar_trigger": false,
      "taf_trigger": false,
      "metar": "METAR LEBB 161930Z 15003KT 070V170 9999 SCT067 09/04 Q1011 NOSIG",
      "taf": "TAF LEBB 161700Z 1618/1718 12006KT 9999 FEW045 TX11/1714Z TN06/1707Z"
    },
    {
      "icao": "LEBL",
      "alert": "OK",
      "vis_m": 9999,
      "fzfg": false,
      "metar_trigger": false,
      "taf_trigger": false,
      "metar": "METAR LEBL 161930Z VRB02KT 9999 SCT020 BKN025 BKN060 13/11 Q1014 NOSIG",
      "taf": "TAF LEBL 161700Z 1618/1718 VRB04KT 9000 SCT015 BKN050 TX13/1712Z TN09/1706Z"
    },
    {
      "icao": "LECH",
      "alert": "OK",
      "vis_m": 6000,
      "fzfg": false,
      "metar_trigger": false,
      "taf_trigger": false,
      "metar": "METAR LECH 161930Z AUTO 06003KT 6000 SCT017 BKN024 BKN040 09/08 Q1012",
      "taf": ""
    },
    {
      "icao": "LEMD",
      "alert": "OK",
      "vis_m": 9999,
      "fzfg": false,
      "metar_trigger": false,
      "taf_trigger": false,
      "metar": "METAR LEMD 161930Z 19005KT 150V230 9999 FEW025 BKN040 07/04 Q1011 NOSIG",
      "taf": "TAF LEMD 161700Z 1618/1724 VRB04KT 9999 SCT025 TX07/1714Z TN02/1708Z"
    },
    {
      "icao": "LEMG",
      "alert": "OK",
      "vis_m": 9999,
      "fzfg": false,
      "metar_trigger": false,
      "taf_trigger": false,
      "metar": "METAR LEMG 161930Z VRB02KT 9999 FEW038 SCT070 11/08 Q1013 NOSIG",
      "taf": "TAF LEMG 161700Z 1618/1718 27006KT 9999 FEW030 SCT050 TX15/1714Z TN07/1707Z"
    },
    {
      "icao": "LEVC",
      "alert": "OK",
      "vis_m": 9999,
      "fzfg": false,
      "metar_trigger": false,
      "taf_trigger": false,
      "metar": "METAR LEVC 161930Z 28005KT 9999 FEW014 BKN042 11/09 Q1012 NOSIG",
      "taf": "TAF LEVC 161700Z 1618/1718 VRB04KT 9999 FEW030 TX13/1712Z TN04/1706Z"
    },
    {
      "icao": "LEXJ",
      "alert": "OK",
      "vis_m": 9000,
      "fzfg": false,
      "metar_trigger": false,
      "taf_trigger": false,
      "metar": "METAR LEXJ 161930Z 22004KT 190V260 9000 RA BKN050 OVC065 09/07 Q1012",
      "taf": ""
    },
    {
      "icao": "LEZG",
      "alert": "OK",
      "vis_m": 6000,
      "fzfg": false,
      "metar_trigger": false,
      "taf_trigger": false,
      "metar": "METAR LEZG 161930Z 27003KT 260V320 6000 SCT008 BKN040 OVC080 08/08 Q1012 NOSIG",
      "taf": "TAF LEZG 161700Z 1618/1718 VRB04KT 9999 FEW040 TX09/1714Z TN04/1706Z"
    },
    {
      "icao": "LEZL",
      "alert": "OK",
      "vis_m": 9999,
      "fzfg": false,
      "metar_trigger": false,
      "taf_trigger": false,
      "metar": "METAR LEZL 161930Z VRB01KT CAVOK 11/10 Q1013 NOSIG",
      "taf": ""
    },
    {
      "icao": "LFBD",
      "alert": "OK",
      "vis_m": 8000,
      "fzfg": false,
      "metar_trigger": false,
      "taf_trigger": false,
      "metar": "METAR LFBD 161930Z AUTO 14006KT 8000 NSC 08/08 Q1011 NOSIG",
      "taf": "TAF LFBD 161700Z 1618/1724 12006KT 9999 BKN030 TX09/1713Z TN05/1704Z"
    },
    {
      "icao": "LFLL",
      "alert": "OK",
      "vis_m": 9999,
      "fzfg": false,
      "metar_trigger": false,
      "taf_trigger": false,
      "metar": "METAR LFLL 161930Z 00000KT CAVOK 10/04 Q1015 NOSIG",
      "taf": "TAF LFLL 161700Z 1618/1724 14008KT CAVOK"
    },
    {
      "icao": "LFLS",
      "alert": "OK",
      "vis_m": 9999,
      "fzfg": false,
      "metar_trigger": false,
      "taf_trigger": false,
      "metar": "METAR LFLS 161930Z AUTO VRB02KT CAVOK 10/04 Q1015 NOSIG",
      "taf": "TAF LFLS 161400Z 1615/1715 16008KT CAVOK"
    },
    {
      "icao": "LFMN",
      "alert": "OK",
      "vis_m": 9999,
      "fzfg": false,
      "metar_trigger": false,
      "taf_trigger": false,
      "metar": "METAR LFMN 161930Z VRB07KT 9999 BKN043 BKN070 12/06 Q1018 NOSIG",
      "taf": ""
    },
    {
      "icao": "LFOB",
      "alert": "OK",
      "vis_m": 9999,
      "fzfg": false,
      "metar_trigger": false,
      "taf_trigger": false,
      "metar": "METAR LFOB 161930Z AUTO 12005KT CAVOK 07/06 Q1012 NOSIG",
      "taf": "TAF LFOB 161700Z 1618/1718 11005KT CAVOK"
    },
    {
      "icao": "LFPO",
      "alert": "OK",
      "vis_m": 9999,
      "fzfg": false,
      "metar_trigger": false,
      "taf_trigger": false,
      "metar": "METAR LFPO 161930Z AUTO 14004KT 9999 -RA FEW023/// SCT062/// BKN074/// ///TCU 09/08 Q1012 TEMPO 4000 -SHRA",
      "taf": "TAF LFPO 161700Z 1618/1724 13004KT 9999 BKN025"
    },
    {
      "icao": "LFSB",
      "alert": "OK",
      "vis_m": 9999,
      "fzfg": false,
      "metar_trigger": false,
      "taf_trigger": false,
      "metar": "METAR LFSB 161930Z AUTO 16003KT 130V190 CAVOK 05/03 Q1016 NOSIG",
      "taf": "TAF LFSB 161700Z 1618/1718 16005KT CAVOK"
    },
    {
      "icao": "LGAV",
      "alert": "OK",
      "vis_m": 9999,
      "fzfg": false,
      "metar_trigger": false,
      "taf_trigger": false,
      "metar": "METAR LGAV 161920Z 28004KT 9999 FEW025 BKN040 11/06 Q1022 NOSIG",
      "taf": "TAF LGAV 161700Z 1618/1718 04012KT 9999 FEW018 BKN025"
    },
    {
      "icao": "LGTS",
      "alert": "OK",
      "vis_m": 9999,
      "fzfg": false,
      "metar_trigger": false,
      "taf_trigger": false,
      "metar": "METAR LGTS 161920Z VRB03KT 9999 FEW020 06/03 Q1023 NOSIG",
      "taf": "TAF LGTS 161700Z 1618/1718 08013KT 9999 FEW012 BKN025"
    },
    {
      "icao": "LHBP",
      "alert": "OK",
      "vis_m": 1600,
      "fzfg": false,
      "metar_trigger": false,
      "taf_trigger": false,
      "metar": "METAR LHBP 161930Z 08006KT 1600 -DZ BR OVC002 02/01 Q1027 NOSIG",
      "taf": "TAF LHBP 161715Z 1618/1718 08005KT 5000 BR SCT004 OVC010"
    },
    {
      "icao": "LHDC",
      "alert": "OK",
      "vis_m": 9999,
      "fzfg": false,
      "metar_trigger": false,
      "taf_trigger": false,
      "metar": "METAR LHDC 161915Z AUTO 07005KT 9999 OVC007 02/00 Q1027",
      "taf": "TAF LHDC 161415Z 1615/1624 07005KT 8000 OVC035"
    },
    {
      "icao": "LIBD",
      "alert": "OK",
      "vis_m": 9999,
      "fzfg": false,
      "metar_trigger": false,
      "taf_trigger": false,
      "metar": "METAR LIBD 161920Z 22006KT 9999 FEW015 06/05 Q1021",
      "taf": "TAF LIBD 161700Z 1618/1718 VRB05KT 9999 FEW030"
    },
    {
      "icao": "LIBG",
      "alert": "OK",
      "vis_m": 9999,
      "fzfg": false,
      "metar_trigger": false,
      "taf_trigger": false,
      "metar": "METAR LIBG 161850Z 35003KT 310V020 9999 FEW040 11/11 Q1020",
      "taf": "TAF LIBG 161700Z 1618/1703 VRB05KT 8000 FEW025"
    },
    {
      "icao": "LIBP",
      "alert": "OK",
      "vis_m": 100,
      "fzfg": false,
      "metar_trigger": false,
      "taf_trigger": false,
      "metar": "METAR LIBP 161920Z AUTO 26002KT 0100 R22/0450N FG OVC002/// 07/07 Q1022",
      "taf": "TAF LIBP 161700Z 1618/1718 VRB03KT 0300 FG OVC002"
    },
    {
      "icao": "LIBR",
      "alert": "OK",
      "vis_m": 9999,
      "fzfg": false,
      "metar_trigger": false,
      "taf_trigger": false,
      "metar": "METAR LIBR 161920Z 35003KT 9999 FEW025 SCT035 13/11 Q1021",
      "taf": "TAF LIBR 161700Z 1618/1718 VRB05KT 9999 FEW025"
    },
    {
      "icao": "LICA",
      "alert": "OK",
      "vis_m": 9999,
      "fzfg": false,
      "metar_trigger": false,
      "taf_trigger": false,
      "metar": "METAR LICA 161920Z AUTO 07012KT 9999 NCD 14/11 Q1019",
      "taf": "TAF LICA 161700Z 1618/1718 08012KT 9999 SCT040"
    },
    {
      "icao": "LICC",
      "alert": "OK",
      "vis_m": 8000,
      "fzfg": false,
      "metar_trigger": false,
      "taf_trigger": false,
      "metar": "METAR LICC 161920Z 04005KT 8000 -RA FEW010 SCT020 BKN080 15/13 Q1018",
      "taf": "TAF LICC 161700Z 1618/1718 06010KT 9999 SCT020"
    },
    {
      "icao": "LICJ",
      "alert": "OK",
      "vis_m": 9999,
      "fzfg": false,
      "metar_trigger": false,
      "taf_trigger": false,
      "metar": "METAR LICJ 161920Z 14004KT 110V190 9999 -RA SCT045 14/11 Q1017",
      "taf": "TAF LICJ 161700Z 1618/1718 VRB06KT 9999 SCT040"
    },
    {
      "icao": "LIMC",
      "alert": "OK",
      "vis_m": 2000,
      "fzfg": false,
      "metar_trigger": false,
      "taf_trigger": false,
      "metar": "METAR LIMC 161920Z 10003KT 050V120 2000 -RA BR BKN005 BKN045 07/06 Q1021 NOSIG",
      "taf": "TAF LIMC 161700Z 1618/1724 VRB03KT 5000 BR OVC020"
    },
    {
      "icao": "LIME",
      "alert": "OK",
      "vis_m": 1600,
      "fzfg": false,
      "metar_trigger": false,
      "taf_trigger": false,
      "metar": "METAR LIME 161920Z AUTO 14003KT 100V220 1600 1400NE BR NCD 07/07 Q1022",
      "taf": "TAF LIME 161700Z 1618/1718 VRB04KT 1000 BR BKN008"
    },
    {
      "icao": "LIMF",
      "alert": "OK",
      "vis_m": 3000,
      "fzfg": false,
      "metar_trigger": false,
      "taf_trigger": false,
      "metar": "METAR LIMF 161920Z 28006KT 3000 -RA BR OVC040 07/05 Q1021",
      "taf": "TAF LIMF 161700Z 1618/1718 VRB03KT 2500 -RA OVC040"
    },
    {
      "icao": "LIMJ",
      "alert": "OK",
      "vis_m": 9999,
      "fzfg": false,
      "metar_trigger": false,
      "taf_trigger": false,
      "metar": "METAR LIMJ 161920Z 04014KT 9999 SCT025 BKN040 10/07 Q1020",
      "taf": "TAF LIMJ 161700Z 1618/1718 02014KT 8000 SCT030"
    },
    {
      "icao": "LIPE",
      "alert": "OK",
      "vis_m": 2000,
      "fzfg": false,
      "metar_trigger": false,
      "taf_trigger": false,
      "metar": "METAR LIPE 161920Z 08003KT 2000 BR OVC010 08/07 Q1022",
      "taf": "TAF LIPE 161700Z 1618/1718 VRB04KT 2000 BR BKN020"
    },
    {
      "icao": "LIPH",
      "alert": "OK",
      "vis_m": 5000,
      "fzfg": false,
      "metar_trigger": false,
      "taf_trigger": false,
      "metar": "METAR LIPH 161920Z VRB01KT 5000 BR SCT020 07/06 Q1023",
      "taf": "TAF LIPH 161700Z 1618/1718 VRB04KT 7000 SCT040"
    },
    {
      "icao": "LIPQ",
      "alert": "OK",
      "vis_m": 1900,
      "fzfg": false,
      "metar_trigger": false,
      "taf_trigger": false,
      "metar": "METAR LIPQ 161920Z AUTO 30002KT 1900 BR BKN017/// BKN056/// BKN065/// 08/08 Q1022",
      "taf": "TAF LIPQ 161700Z 1618/1718 VRB04KT 2500 BR BKN020"
    },
    {
      "icao": "LIPR",
      "alert": "OK",
      "vis_m": 3000,
      "fzfg": false,
      "metar_trigger": false,
      "taf_trigger": false,
      "metar": "METAR LIPR 161920Z AUTO 28002KT 3000 BR BKN008/// OVC013/// 07/06 Q1022",
      "taf": "TAF LIPR 161700Z 1618/1718 VRB04KT 2000 BR BKN020"
    },
    {
      "icao": "LIPX",
      "alert": "OK",
      "vis_m": 1100,
      "fzfg": false,
      "metar_trigger": false,
      "taf_trigger": false,
      "metar": "METAR LIPX 161920Z 19002KT 1100 R04/P2000N BR BKN065 07/06 Q1022",
      "taf": "TAF LIPX 161700Z 1618/1718 VRB04KT 2000 BR BKN003"
    },
    {
      "icao": "LIPY",
      "alert": "OK",
      "vis_m": 2500,
      "fzfg": false,
      "metar_trigger": false,
      "taf_trigger": false,
      "metar": "METAR LIPY 161920Z AUTO VRB02KT 2500 BR OVC004/// 08/08 Q1022",
      "taf": "TAF LIPY 161700Z 1618/1718 VRB05KT 1500 BR OVC010"
    },
    {
      "icao": "LIPZ",
      "alert": "OK",
      "vis_m": 4500,
      "fzfg": false,
      "metar_trigger": false,
      "taf_trigger": false,
      "metar": "METAR LIPZ 161920Z 24003KT 220V290 4500 BR BKN015 07/06 Q1023 NOSIG",
      "taf": "TAF LIPZ 161700Z 1618/1724 VRB04KT 6000 SCT030"
    },
    {
      "icao": "LIRF",
      "alert": "OK",
      "vis_m": 9999,
      "fzfg": false,
      "metar_trigger": false,
      "taf_trigger": false,
      "metar": "METAR LIRF 161920Z 03003KT CAVOK 08/07 Q1018 NOSIG",
      "taf": "TAF LIRF 161700Z 1618/1724 06007KT CAVOK"
    },
    {
      "icao": "LIRN",
      "alert": "OK",
      "vis_m": 9999,
      "fzfg": false,
      "metar_trigger": false,
      "taf_trigger": false,
      "metar": "METAR LIRN 161920Z 02006KT CAVOK 12/05 Q1018 NOSIG",
      "taf": "TAF LIRN 161700Z 1618/1718 05010KT CAVOK"
    },
    {
      "icao": "LIRP",
      "alert": "OK",
      "vis_m": 9999,
      "fzfg": false,
      "metar_trigger": false,
      "taf_trigger": false,
      "metar": "METAR LIRP 161915Z 30003KT CAVOK 09/09 Q1019 NOSIG",
      "taf": "TAF LIRP 161700Z 1618/1718 12005KT CAVOK"
    },
    {
      "icao": "LIRZ",
      "alert": "OK",
      "vis_m": 8000,
      "fzfg": false,
      "metar_trigger": false,
      "taf_trigger": false,
      "metar": "METAR LIRZ 161920Z AUTO VRB02KT 8000 2000S NCD 05/05 Q1019",
      "taf": "TAF LIRZ 161700Z 1618/1718 03005KT CAVOK"
    },
    {
      "icao": "LJLJ",
      "alert": "OK",
      "vis_m": 9999,
      "fzfg": false,
      "metar_trigger": false,
      "taf_trigger": false,
      "metar": "METAR LJLJ 161930Z 31001KT 9999 FEW020 BKN040 02/02 Q1022 NOSIG",
      "taf": "TAF LJLJ 161700Z 1618/1718 30004KT 9999 FEW020 BKN040"
    },
    {
      "icao": "LKMT",
      "alert": "OK",
      "vis_m": 400,
      "fzfg": true,
      "metar_trigger": false,
      "taf_trigger": false,
      "metar": "METAR LKMT 161930Z 27002KT 0400 R22/1400U R04/0550N FZFG VV003 M01/M01 Q1025 NOSIG",
      "taf": "TAF LKMT 161700Z 1618/1718 VRB02KT 1500 BR NSC"
    },
    {
      "icao": "LKPR",
      "alert": "OK",
      "vis_m": 7000,
      "fzfg": false,
      "metar_trigger": false,
      "taf_trigger": false,
      "metar": "METAR LKPR 161930Z 07005KT 7000 FEW007 OVC009 00/00 Q1022 NOSIG",
      "taf": "TAF LKPR 161700Z 1618/1724 11005KT 6000 OVC007"
    },
    {
      "icao": "LLBG",
      "alert": "OK",
      "vis_m": 9999,
      "fzfg": false,
      "metar_trigger": false,
      "taf_trigger": false,
      "metar": "METAR LLBG 161920Z 12004KT CAVOK 13/09 Q1020 NOSIG",
      "taf": "TAF LLBG 161714Z 1618/1718 VRB04KT 9999 SCT040"
    },
    {
      "icao": "LMML",
      "alert": "OK",
      "vis_m": 9999,
      "fzfg": false,
      "metar_trigger": false,
      "taf_trigger": false,
      "metar": "METAR LMML 161915Z 13008KT 090V150 9999 FEW020TCU SCT049 15/14 Q1015 NOSIG",
      "taf": "TAF LMML 161700Z 1618/1718 12010KT 9999 SCT014"
    },
    {
      "icao": "LOWW",
      "alert": "OK",
      "vis_m": 2300,
      "fzfg": false,
      "metar_trigger": false,
      "taf_trigger": false,
      "metar": "METAR LOWW 161920Z 21003KT 180V240 2300 BR FEW001 BKN003 M00/M01 Q1025 TEMPO 1200 BR -FZDZ OVC002",
      "taf": ""
    },
    {
      "icao": "LPFR",
      "alert": "OK",
      "vis_m": 9999,
      "fzfg": false,
      "metar_trigger": false,
      "taf_trigger": false,
      "metar": "METAR LPFR 161930Z 29005KT 9999 FEW018 11/09 Q1015",
      "taf": "TAF LPFR 161700Z 1618/1718 32007KT 9999 SCT030"
    },
    {
      "icao": "LPMA",
      "alert": "OK",
      "vis_m": 9999,
      "fzfg": false,
      "metar_trigger": false,
      "taf_trigger": false,
      "metar": "METAR LPMA 161930Z 33007G17KT 260V050 9999 BKN015 16/09 Q1026",
      "taf": "TAF LPMA 161700Z 1618/1718 VRB05KT 9999 SCT015"
    },
    {
      "icao": "LPPR",
      "alert": "OK",
      "vis_m": 8000,
      "fzfg": false,
      "metar_trigger": false,
      "taf_trigger": false,
      "metar": "METAR LPPR 161930Z VRB02KT 8000 -SHRA FEW004 SCT025 BKN040 07/07 Q1014",
      "taf": "TAF LPPR 161700Z 1618/1718 VRB05KT 9999 FEW015 SCT030"
    },
    {
      "icao": "LPPS",
      "alert": "OK",
      "vis_m": 9999,
      "fzfg": false,
      "metar_trigger": false,
      "taf_trigger": false,
      "metar": "METAR LPPS 161930Z 33016KT 9999 SCT015 SCT030 16/11 Q1025",
      "taf": "TAF LPPS 161700Z 1618/1724 33015KT 9999 SCT014 SCT030"
    },
    {
      "icao": "LPPT",
      "alert": "OK",
      "vis_m": 9999,
      "fzfg": false,
      "metar_trigger": false,
      "taf_trigger": false,
      "metar": "METAR LPPT 161930Z 29004KT 250V330 9999 FEW020 FEW025TCU SCT035 10/07 Q1015",
      "taf": "TAF LPPT 161700Z 1618/1724 30007KT 9999 FEW018 SCT030"
    },
    {
      "icao": "LQBK",
      "alert": "OK",
      "vis_m": 9999,
      "fzfg": false,
      "metar_trigger": false,
      "taf_trigger": false,
      "metar": "METAR LQBK 161930Z 00000KT CAVOK 04/03 Q1023 NOSIG",
      "taf": ""
    },
    {
      "icao": "LQSA",
      "alert": "OK",
      "vis_m": 4000,
      "fzfg": false,
      "metar_trigger": false,
      "taf_trigger": false,
      "metar": "METAR LQSA 161930Z 20002KT 4000 BR NSC M01/M01 Q1023 BECMG 3000 BR",
      "taf": "TAF LQSA 161700Z 1618/1718 VRB02KT 8000 NSC TX03/1714Z TNM03/1705Z"
    },
    {
      "icao": "LQTZ",
      "alert": "OK",
      "vis_m": 9999,
      "fzfg": false,
      "metar_trigger": false,
      "taf_trigger": false,
      "metar": "METAR LQTZ 161930Z 32002KT CAVOK 01/01 Q1023",
      "taf": "TAF LQTZ 161700Z 1618/1718 12005KT 6000 NSC TX06/1713Z TNM02/1705Z"
    },
    {
      "icao": "LRBC",
      "alert": "OK",
      "vis_m": 9999,
      "fzfg": false,
      "metar_trigger": false,
      "taf_trigger": false,
      "metar": "METAR LRBC 161930Z 03003KT CAVOK M09/M13 Q1035",
      "taf": "TAF LRBC 161700Z 1618/1703 35005KT CAVOK"
    },
    {
      "icao": "LRBS",
      "alert": "OK",
      "vis_m": 9999,
      "fzfg": false,
      "metar_trigger": false,
      "taf_trigger": false,
      "metar": "METAR LRBS 161930Z 00000KT CAVOK M05/M08 Q1034 NOSIG",
      "taf": "TAF LRBS 161700Z 1618/1718 VRB04KT CAVOK"
    },
    {
      "icao": "LRBV",
      "alert": "OK",
      "vis_m": 9999,
      "fzfg": false,
      "metar_trigger": false,
      "taf_trigger": false,
      "metar": "METAR LRBV 161930Z 14004KT 9999 SCT024 BKN050 M05/M09 Q1030",
      "taf": "TAF LRBV 161700Z 1618/1703 10008KT 9999 SCT030"
    },
    {
      "icao": "LRCL",
      "alert": "OK",
      "vis_m": 9999,
      "fzfg": false,
      "metar_trigger": false,
      "taf_trigger": false,
      "metar": "METAR LRCL 161930Z 13009KT 9999 FEW047 01/M07 Q1029",
      "taf": "TAF LRCL 161700Z 1618/1703 10008KT 9999 BKN035"
    },
    {
      "icao": "LRCV",
      "alert": "OK",
      "vis_m": 9999,
      "fzfg": false,
      "metar_trigger": false,
      "taf_trigger": false,
      "metar": "METAR LRCV 161930Z 09005KT 9999 OVC045 M04/M06 Q1033",
      "taf": "TAF LRCV 161700Z 1618/1703 08010KT 9999 OVC035"
    },
    {
      "icao": "LRIA",
      "alert": "OK",
      "vis_m": 6000,
      "fzfg": false,
      "metar_trigger": false,
      "taf_trigger": false,
      "metar": "METAR LRIA 161930Z 27003KT 230V290 6000 NSC M13/M15 Q1036",
      "taf": "TAF LRIA 161700Z 1618/1703 VRB04KT CAVOK"
    },
    {
      "icao": "LROP",
      "alert": "OK",
      "vis_m": 9999,
      "fzfg": false,
      "metar_trigger": false,
      "taf_trigger": false,
      "metar": "METAR LROP 161930Z 00000KT CAVOK M05/M09 Q1034 NOSIG",
      "taf": "TAF LROP 161700Z 1618/1718 VRB04KT CAVOK"
    },
    {
      "icao": "LRSB",
      "alert": "OK",
      "vis_m": 9999,
      "fzfg": false,
      "metar_trigger": false,
      "taf_trigger": false,
      "metar": "METAR LRSB 161930Z 10009KT 9999 OVC034 00/M04 Q1027",
      "taf": "TAF LRSB 161700Z 1618/1718 10010KT 9999 SCT020 OVC035"
    },
    {
      "icao": "LRSM",
      "alert": "OK",
      "vis_m": 9999,
      "fzfg": false,
      "metar_trigger": false,
      "taf_trigger": false,
      "metar": "METAR LRSM 161930Z AUTO 11006KT 9999 FEW040/// OVC047/// 03/M02 Q1028",
      "taf": "TAF LRSM 161400Z 1615/1624 10006KT CAVOK"
    },
    {
      "icao": "LRSV",
      "alert": "OK",
      "vis_m": 8000,
      "fzfg": false,
      "metar_trigger": false,
      "taf_trigger": false,
      "metar": "METAR LRSV 161930Z 06004KT 8000 NSC M12/M14 Q1033",
      "taf": "TAF LRSV 161700Z 1618/1703 08005KT 7000 NSC"
    },
    {
      "icao": "LRTM",
      "alert": "OK",
      "vis_m": 9999,
      "fzfg": false,
      "metar_trigger": false,
      "taf_trigger": false,
      "metar": "METAR LRTM 161930Z AUTO 09005KT 9999 NCD M06/M10 Q1030",
      "taf": "TAF LRTM 161400Z 1615/1624 VRB04KT 9999 SCT045"
    },
    {
      "icao": "LRTR",
      "alert": "OK",
      "vis_m": 9999,
      "fzfg": false,
      "metar_trigger": false,
      "taf_trigger": false,
      "metar": "METAR LRTR 161930Z 10012KT 9999 SCT009 OVC020 02/M01 Q1027",
      "taf": "TAF LRTR 161700Z 1618/1718 10008KT 9999 SCT010 BKN030"
    },
    {
      "icao": "LTAC",
      "alert": "OK",
      "vis_m": 9999,
      "fzfg": false,
      "metar_trigger": false,
      "taf_trigger": false,
      "metar": "METAR LTAC 161920Z 31007KT 260V330 9999 FEW015 SCT025 BKN080 03/M01 Q1018 NOSIG RMK RWY21C 30008KT RWY03L 31005KT RWY21R 29006KT RWY03R 30007KT RWY21L 31008KT",
      "taf": "TAF LTAC 161640Z 1618/1718 26008KT 9999 SCT025 BKN080"
    },
    {
      "icao": "LTFM",
      "alert": "OK",
      "vis_m": 9999,
      "fzfg": false,
      "metar_trigger": false,
      "taf_trigger": false,
      "metar": "METAR LTFM 161920Z 04021KT 9999 -SHRA BKN008 BKN022 02/01 Q1028 NOSIG RMK RWY17L 05017KT RWY34L 04018KT RWY16R 04018KT RWY36 04018KT RWY18 05018KT",
      "taf": "TAF LTFM 161640Z 1618/1724 02017KT 9999 -SHRA SCT007 BKN022"
    },
    {
      "icao": "LUKK",
      "alert": "OK",
      "vis_m": 9999,
      "fzfg": false,
      "metar_trigger": false,
      "taf_trigger": false,
      "metar": "METAR LUKK 161930Z 34004KT 310V020 CAVOK M11/M15 Q1034 NOSIG",
      "taf": "TAF LUKK 161728Z 1618/1718 36009KT CAVOK"
    },
    {
      "icao": "LWOH",
      "alert": "OK",
      "vis_m": 9999,
      "fzfg": false,
      "metar_trigger": false,
      "taf_trigger": false,
      "metar": "METAR LWOH 161920Z 35006KT 9999 SCT033 BKN080 05/03 Q1022",
      "taf": "TAF LWOH 161730Z 1618/1718 VRB02KT 9999 SCT030 BKN080"
    },
    {
      "icao": "LWSK",
      "alert": "OK",
      "vis_m": 9999,
      "fzfg": false,
      "metar_trigger": false,
      "taf_trigger": false,
      "metar": "METAR LWSK 161920Z 08003KT 9999 FEW090 02/M00 Q1024 NOSIG",
      "taf": "TAF LWSK 161730Z 1618/1718 VRB02KT 9999 SCT050 BKN090"
    },
    {
      "icao": "LYBE",
      "alert": "OK",
      "vis_m": 9999,
      "fzfg": false,
      "metar_trigger": false,
      "taf_trigger": false,
      "metar": "METAR LYBE 161930Z 12009KT CAVOK 02/M01 Q1026 NOSIG",
      "taf": "TAF LYBE 161700Z 1618/1718 12015KT CAVOK TX04/1712Z TNM00/1706Z"
    },
    {
      "icao": "LYNI",
      "alert": "OK",
      "vis_m": 9999,
      "fzfg": false,
      "metar_trigger": false,
      "taf_trigger": false,
      "metar": "METAR LYNI 161930Z 03005KT 350V080 CAVOK M00/M03 Q1028 NOSIG",
      "taf": "TAF LYNI 161700Z 1618/1718 05007KT 9999 FEW017 SCT050 TX03/1712Z TNM01/1706Z"
    },
    {
      "icao": "LYPG",
      "alert": "OK",
      "vis_m": 6000,
      "fzfg": false,
      "metar_trigger": false,
      "taf_trigger": false,
      "metar": "METAR LYPG 161930Z VRB01KT 6000 2000S FEW050 07/06 Q1022 BECMG 3000 BR",
      "taf": "TAF LYPG 161700Z 1618/1718 34005KT 9999 FEW080 TX14/1713Z TN02/1706Z"
    },
    {
      "icao": "LZIB",
      "alert": "OK",
      "vis_m": 2400,
      "fzfg": false,
      "metar_trigger": false,
      "taf_trigger": false,
      "metar": "METAR LZIB 161930Z 04005KT 2400 -DZ BR BKN002 OVC004 01/01 Q1025 TEMPO 3000 -DZ BR OVC005",
      "taf": "TAF LZIB 161715Z 1618/1718 05005KT 2500 BR BKN014"
    },
    {
      "icao": "LZKZ",
      "alert": "OK",
      "vis_m": 9999,
      "fzfg": false,
      "metar_trigger": false,
      "taf_trigger": false,
      "metar": "METAR LZKZ 161930Z 34008KT 9999 BKN038 03/M00 Q1027 NOSIG",
      "taf": "TAF LZKZ 161715Z 1618/1718 01005KT 9999 BKN015 OVC030"
    },
    {
      "icao": "LZTT",
      "alert": "OK",
      "vis_m": 4000,
      "fzfg": false,
      "metar_trigger": false,
      "taf_trigger": false,
      "metar": "METAR LZTT 161930Z 28002KT 4000 BR SCT002 OVC030 01/00 Q1025",
      "taf": "TAF LZTT 161715Z 1618/1718 VRB02KT 2500 BR OVC006"
    },
    {
      "icao": "OEJN",
      "alert": "OK",
      "vis_m": 9999,
      "fzfg": false,
      "metar_trigger": false,
      "taf_trigger": false,
      "metar": "METAR OEJN 161900Z 35008KT 9999 BKN040 25/14 Q1014 NOSIG",
      "taf": "TAF OEJN 161700Z 1618/1724 34006KT 7000 FEW040"
    },
    {
      "icao": "OEMA",
      "alert": "OK",
      "vis_m": 8000,
      "fzfg": false,
      "metar_trigger": false,
      "taf_trigger": false,
      "metar": "METAR OEMA 161900Z 34005KT 8000 NSC 17/02 Q1020 NOSIG",
      "taf": "TAF OEMA 161700Z 1618/1724 08010KT 7000 NSC"
    },
    {
      "icao": "OJAI",
      "alert": "OK",
      "vis_m": 3000,
      "fzfg": false,
      "metar_trigger": false,
      "taf_trigger": false,
      "metar": "METAR OJAI 161900Z 04007KT 3000 BR NSC 06/05 Q1021 NOSIG",
      "taf": "TAF OJAI 161647Z 1618/1724 16006KT 4000 BR FEW035"
    },
    {
      "icao": "OMAA",
      "alert": "OK",
      "vis_m": 9999,
      "fzfg": false,
      "metar_trigger": false,
      "taf_trigger": false,
      "metar": "METAR OMAA 161900Z 29007KT 9999 FEW040 19/10 Q1019 NOSIG",
      "taf": "TAF OMAA 161700Z 1618/1800 32014KT 8000 FEW040"
    },
    {
      "icao": "OMDB",
      "alert": "OK",
      "vis_m": 9999,
      "fzfg": false,
      "metar_trigger": false,
      "taf_trigger": false,
      "metar": "METAR OMDB 161930Z 26011KT 230V290 9999 SCT040 20/11 Q1018 NOSIG",
      "taf": "TAF OMDB 161700Z 1618/1800 28012KT 8000 SCT040"
    },
    {
      "icao": "UAAA",
      "alert": "OK",
      "vis_m": 3100,
      "fzfg": false,
      "metar_trigger": false,
      "taf_trigger": false,
      "metar": "METAR UAAA 161930Z 26004MPS 3100 -SN BR OVC033 M15/M18 Q1024 NOSIG",
      "taf": "TAF UAAA 161705Z 1618/1718 26004MPS 1500 -SHSN BR BKN007 OVC015CB TXM15/1708Z TNM18/1703Z"
    },
    {
      "icao": "UBBB",
      "alert": "OK",
      "vis_m": 9999,
      "fzfg": false,
      "metar_trigger": false,
      "taf_trigger": false,
      "metar": "METAR UBBB 161930Z 29008KT CAVOK 02/01 Q1023 NOSIG",
      "taf": "TAF UBBB 161705Z 1618/1718 30005KT 9999 SCT025 TX06/1710Z TN00/1700Z"
    },
    {
      "icao": "UDSG",
      "alert": "OK",
      "vis_m": 9999,
      "fzfg": false,
      "metar_trigger": false,
      "taf_trigger": false,
      "metar": "METAR UDSG 161930Z 05005KT 9999 FEW049 M16/M19 Q1020 NOSIG",
      "taf": "TAF UDSG 161658Z 1618/1718 VRB06KT 9999 BKN040"
    },
    {
      "icao": "UDYZ",
      "alert": "OK",
      "vis_m": 9999,
      "fzfg": false,
      "metar_trigger": false,
      "taf_trigger": false,
      "metar": "METAR UDYZ 161930Z 02002KT 9999 NSC M05/M09 Q1022 NOSIG",
      "taf": "TAF UDYZ 161700Z 1618/1718 VRB06KT 9999 FEW040"
    },
    {
      "icao": "UGKO",
      "alert": "OK",
      "vis_m": 9999,
      "fzfg": false,
      "metar_trigger": false,
      "taf_trigger": false,
      "metar": "METAR UGKO 161930Z 10004KT 9999 SCT027 BKN063 01/01 Q1020 NOSIG",
      "taf": "TAF UGKO 161700Z 1618/1718 09007KT 9000 SCT020 BKN070 TX04/1711Z TN00/1706Z"
    }
  ]
}