{
  "ts_utc": "2026-05-22T05:47:30Z",
  "threshold_m": 150,
  "source": "stations_override.txt (ICAO list) + aviationweather.gov (METAR/TAF raw)",
  "station_count": 159,
  "stations": [
    {
      "icao": "BIKF",
      "alert": "OK",
      "vis_m": 9999,
      "fzfg": false,
      "metar_trigger": false,
      "taf_trigger": false,
      "metar": "METAR BIKF 220530Z 10003KT 9999 BKN048 09/06 Q1008",
      "taf": "TAF BIKF 220450Z 2206/2306 09010KT 9999 FEW025 SCT035 TX09/2212Z TN08/2207Z"
    },
    {
      "icao": "BKPR",
      "alert": "OK",
      "vis_m": 9999,
      "fzfg": false,
      "metar_trigger": false,
      "taf_trigger": false,
      "metar": "METAR BKPR 220530Z 01006KT 9999 SCT080 17/11 Q1021 NOSIG",
      "taf": "TAF BKPR 220530Z 2206/2306 35008KT 9999 SCT030 BKN070"
    },
    {
      "icao": "EBCI",
      "alert": "OK",
      "vis_m": 9999,
      "fzfg": false,
      "metar_trigger": false,
      "taf_trigger": false,
      "metar": "METAR EBCI 220520Z VRB02KT CAVOK 13/10 Q1028 NOSIG",
      "taf": "TAF EBCI 220500Z 2206/2312 15003KT CAVOK"
    },
    {
      "icao": "EDDB",
      "alert": "OK",
      "vis_m": 9999,
      "fzfg": false,
      "metar_trigger": false,
      "taf_trigger": false,
      "metar": "METAR EDDB 220520Z AUTO 24003KT 210V280 CAVOK 15/12 Q1029 NOSIG",
      "taf": "TAF EDDB 220500Z 2206/2306 VRB03KT 9999 SCT040"
    },
    {
      "icao": "EDDH",
      "alert": "OK",
      "vis_m": 9999,
      "fzfg": false,
      "metar_trigger": false,
      "taf_trigger": false,
      "metar": "METAR EDDH 220520Z AUTO 32002KT 9999 OVC026 13/12 Q1028 NOSIG",
      "taf": "TAF EDDH 220500Z 2206/2312 VRB02KT 9999 BKN035"
    },
    {
      "icao": "EDDK",
      "alert": "OK",
      "vis_m": 9999,
      "fzfg": false,
      "metar_trigger": false,
      "taf_trigger": false,
      "metar": "METAR EDDK 220520Z AUTO VRB02KT CAVOK 12/10 Q1029 NOSIG",
      "taf": "TAF EDDK 220500Z 2206/2312 13004KT CAVOK"
    },
    {
      "icao": "EDDN",
      "alert": "OK",
      "vis_m": 9999,
      "fzfg": false,
      "metar_trigger": false,
      "taf_trigger": false,
      "metar": "METAR EDDN 220520Z AUTO 11002KT CAVOK 12/08 Q1029 NOSIG",
      "taf": "TAF EDDN 220500Z 2206/2306 VRB03KT CAVOK"
    },
    {
      "icao": "EDDS",
      "alert": "OK",
      "vis_m": 9999,
      "fzfg": false,
      "metar_trigger": false,
      "taf_trigger": false,
      "metar": "METAR EDDS 220520Z AUTO VRB01KT CAVOK 15/10 Q1028 NOSIG",
      "taf": "TAF EDDS 220500Z 2206/2306 VRB02KT CAVOK"
    },
    {
      "icao": "EDFH",
      "alert": "OK",
      "vis_m": 9999,
      "fzfg": false,
      "metar_trigger": false,
      "taf_trigger": false,
      "metar": "METAR EDFH 220520Z 12004KT 080V180 CAVOK 14/10 Q1029",
      "taf": "TAF EDFH 220500Z 2206/2306 10005KT CAVOK"
    },
    {
      "icao": "EDJA",
      "alert": "OK",
      "vis_m": 9999,
      "fzfg": false,
      "metar_trigger": false,
      "taf_trigger": false,
      "metar": "METAR EDJA 220520Z 04003KT 010V070 CAVOK 11/08 Q1029",
      "taf": "TAF EDJA 220500Z 2206/2215 VRB02KT CAVOK"
    },
    {
      "icao": "EDLW",
      "alert": "OK",
      "vis_m": 9999,
      "fzfg": false,
      "metar_trigger": false,
      "taf_trigger": false,
      "metar": "METAR EDLW 220520Z 14006KT CAVOK 13/10 Q1029",
      "taf": "TAF EDLW 220500Z 2206/2306 15006KT CAVOK"
    },
    {
      "icao": "EDNY",
      "alert": "OK",
      "vis_m": 9999,
      "fzfg": false,
      "metar_trigger": false,
      "taf_trigger": false,
      "metar": "METAR EDNY 220520Z 04004KT CAVOK 13/09 Q1028",
      "taf": "TAF EDNY 220500Z 2206/2215 05005KT CAVOK"
    },
    {
      "icao": "EDSB",
      "alert": "OK",
      "vis_m": 9999,
      "fzfg": false,
      "metar_trigger": false,
      "taf_trigger": false,
      "metar": "METAR EDSB 220520Z VRB01KT CAVOK 14/12 Q1028",
      "taf": "TAF EDSB 220500Z 2206/2306 VRB03KT CAVOK"
    },
    {
      "icao": "EETN",
      "alert": "OK",
      "vis_m": 9999,
      "fzfg": false,
      "metar_trigger": false,
      "taf_trigger": false,
      "metar": "METAR EETN 220520Z 29006KT CAVOK 12/09 Q1018 NOSIG",
      "taf": "TAF EETN 220530Z 2206/2306 29010KT 9999 BKN040"
    },
    {
      "icao": "EFTU",
      "alert": "OK",
      "vis_m": 9999,
      "fzfg": false,
      "metar_trigger": false,
      "taf_trigger": false,
      "metar": "METAR EFTU 220520Z AUTO VRB02KT CAVOK 13/09 Q1018",
      "taf": "TAF EFTU 220538Z 2206/2306 28003KT 9999 -SHRA NSC"
    },
    {
      "icao": "EGBB",
      "alert": "OK",
      "vis_m": 9999,
      "fzfg": false,
      "metar_trigger": false,
      "taf_trigger": false,
      "metar": "METAR EGBB 220520Z 14005KT CAVOK 12/11 Q1024",
      "taf": "TAF EGBB 220455Z 2206/2306 VRB04KT CAVOK"
    },
    {
      "icao": "EGGP",
      "alert": "OK",
      "vis_m": 9999,
      "fzfg": false,
      "metar_trigger": false,
      "taf_trigger": false,
      "metar": "METAR EGGP 220520Z 12006KT CAVOK 14/11 Q1022",
      "taf": "TAF EGGP 220454Z 2206/2306 15006KT 9999 SCT030"
    },
    {
      "icao": "EGGW",
      "alert": "OK",
      "vis_m": 9999,
      "fzfg": false,
      "metar_trigger": false,
      "taf_trigger": false,
      "metar": "METAR EGGW 220520Z AUTO 14003KT 9999 NCD 13/10 Q1025",
      "taf": "TAF EGGW 220456Z 2206/2306 12004KT CAVOK"
    },
    {
      "icao": "EGKK",
      "alert": "OK",
      "vis_m": 9999,
      "fzfg": false,
      "metar_trigger": false,
      "taf_trigger": false,
      "metar": "METAR EGKK 220520Z 10003KT CAVOK 12/11 Q1025",
      "taf": "TAF EGKK 220454Z 2206/2312 10003KT CAVOK"
    },
    {
      "icao": "EGNM",
      "alert": "OK",
      "vis_m": 9999,
      "fzfg": false,
      "metar_trigger": false,
      "taf_trigger": false,
      "metar": "METAR EGNM 220520Z 16004KT CAVOK 14/12 Q1023",
      "taf": "TAF EGNM 220453Z 2206/2306 15004KT 9999 FEW035"
    },
    {
      "icao": "EGPD",
      "alert": "OK",
      "vis_m": 9999,
      "fzfg": false,
      "metar_trigger": false,
      "taf_trigger": false,
      "metar": "METAR EGPD 220520Z COR AUTO 14003KT 100V200 9999 NCD 14/12 Q1020 NOSIG",
      "taf": "TAF EGPD 220456Z 2206/2306 19009KT 9999 FEW040"
    },
    {
      "icao": "EGPF",
      "alert": "OK",
      "vis_m": 9999,
      "fzfg": false,
      "metar_trigger": false,
      "taf_trigger": false,
      "metar": "METAR EGPF 220520Z AUTO 09006KT 030V130 9999 BKN031 OVC043 14/12 Q1019",
      "taf": "TAF EGPF 220459Z 2206/2306 06006KT 9999 BKN020"
    },
    {
      "icao": "EHBK",
      "alert": "OK",
      "vis_m": 9999,
      "fzfg": false,
      "metar_trigger": false,
      "taf_trigger": false,
      "metar": "METAR EHBK 220525Z AUTO VRB02KT 9999 NSC 15/11 Q1028 NOSIG",
      "taf": "TAF EHBK 220458Z 2206/2312 12003KT CAVOK"
    },
    {
      "icao": "EHEH",
      "alert": "OK",
      "vis_m": 9999,
      "fzfg": false,
      "metar_trigger": false,
      "taf_trigger": false,
      "metar": "METAR EHEH 220525Z AUTO 12004KT 080V180 9999 ////// 14/12 Q1028 BLU NOSIG RMK TREND REMOTE BY EHWX",
      "taf": "TAF EHEH 212313Z 2200/2306 VRB01KT CAVOK"
    },
    {
      "icao": "EKBI",
      "alert": "OK",
      "vis_m": 4800,
      "fzfg": false,
      "metar_trigger": false,
      "taf_trigger": false,
      "metar": "METAR EKBI 220520Z AUTO 23005KT 4800 BR OVC004/// 12/12 Q1027",
      "taf": "TAF EKBI 220527Z 2206/2306 24008KT 4000 BR BKN004"
    },
    {
      "icao": "EKCH",
      "alert": "OK",
      "vis_m": 9999,
      "fzfg": false,
      "metar_trigger": false,
      "taf_trigger": false,
      "metar": "METAR EKCH 220520Z AUTO 25007KT 9999 OVC072/// 13/11 Q1027 NOSIG",
      "taf": "TAF EKCH 220527Z 2206/2306 26008KT 9999 SCT025"
    },
    {
      "icao": "ENAL",
      "alert": "OK",
      "vis_m": 9999,
      "fzfg": false,
      "metar_trigger": false,
      "taf_trigger": false,
      "metar": "METAR ENAL 220520Z 13007KT 9999 SCT044 BKN061 11/08 Q1020",
      "taf": "TAF ENAL 220500Z 2206/2215 15005KT 9999 -RA SCT025 BKN035"
    },
    {
      "icao": "ENBR",
      "alert": "OK",
      "vis_m": 9999,
      "fzfg": false,
      "metar_trigger": false,
      "taf_trigger": false,
      "metar": "METAR ENBR 220520Z 13007KT 9999 BKN018 11/07 Q1023 NOSIG RMK WIND 1200FT 15016KT",
      "taf": "TAF ENBR 220500Z 2206/2306 16007KT 9999 BKN015"
    },
    {
      "icao": "ENGM",
      "alert": "OK",
      "vis_m": 9999,
      "fzfg": false,
      "metar_trigger": false,
      "taf_trigger": false,
      "metar": "METAR ENGM 220520Z 36005KT 9999 1000NE R19R/P2000N R01R/P2000N R19L/1400 R01L/P2000N PRFG FEW002 12/07 Q1021 NOSIG",
      "taf": "TAF ENGM 220500Z 2206/2306 VRB03KT 9999 FEW040"
    },
    {
      "icao": "ENHD",
      "alert": "OK",
      "vis_m": 9999,
      "fzfg": false,
      "metar_trigger": false,
      "taf_trigger": false,
      "metar": "METAR ENHD 220520Z 15008KT 9999 BKN013 11/08 Q1023",
      "taf": ""
    },
    {
      "icao": "ENTC",
      "alert": "OK",
      "vis_m": 9999,
      "fzfg": false,
      "metar_trigger": false,
      "taf_trigger": false,
      "metar": "METAR ENTC 220520Z VRB02KT CAVOK 08/05 Q1018 NOSIG RMK WIND 2600FT 20011KT",
      "taf": "TAF ENTC 220500Z 2206/2306 VRB03KT CAVOK"
    },
    {
      "icao": "ENTO",
      "alert": "OK",
      "vis_m": 9999,
      "fzfg": false,
      "metar_trigger": false,
      "taf_trigger": false,
      "metar": "METAR ENTO 220520Z 36002KT CAVOK 12/07 Q1022 NOSIG",
      "taf": "TAF ENTO 220500Z 2206/2306 33003KT CAVOK"
    },
    {
      "icao": "ENVA",
      "alert": "OK",
      "vis_m": 9999,
      "fzfg": false,
      "metar_trigger": false,
      "taf_trigger": false,
      "metar": "METAR ENVA 220520Z VRB02KT 9999 FEW018 SCT023 12/09 Q1022 NOSIG RMK WIND 670FT 16003KT",
      "taf": "TAF ENVA 220500Z 2206/2306 VRB05KT 9999 FEW018 BKN025"
    },
    {
      "icao": "ENZV",
      "alert": "OK",
      "vis_m": 9999,
      "fzfg": false,
      "metar_trigger": false,
      "taf_trigger": false,
      "metar": "METAR ENZV 220520Z 16002KT 9999 BKN013 BKN016 OVC023 12/08 Q1024",
      "taf": "TAF ENZV 220500Z 2206/2306 17008KT 9999 FEW010 BKN020"
    },
    {
      "icao": "EPGD",
      "alert": "OK",
      "vis_m": 9999,
      "fzfg": false,
      "metar_trigger": false,
      "taf_trigger": false,
      "metar": "METAR EPGD 220530Z 29010KT CAVOK 13/09 Q1026",
      "taf": "TAF EPGD 220530Z 2206/2306 28010KT CAVOK"
    },
    {
      "icao": "EPKK",
      "alert": "OK",
      "vis_m": 9999,
      "fzfg": false,
      "metar_trigger": false,
      "taf_trigger": false,
      "metar": "METAR EPKK 220530Z 21004KT 190V250 CAVOK 13/10 Q1028",
      "taf": "TAF EPKK 220530Z 2206/2306 23005KT CAVOK"
    },
    {
      "icao": "EPKT",
      "alert": "OK",
      "vis_m": 9999,
      "fzfg": false,
      "metar_trigger": false,
      "taf_trigger": false,
      "metar": "METAR EPKT 220530Z VRB02KT CAVOK 12/09 Q1028",
      "taf": "TAF EPKT 220530Z 2206/2306 27003KT CAVOK"
    },
    {
      "icao": "EPLB",
      "alert": "OK",
      "vis_m": 9999,
      "fzfg": false,
      "metar_trigger": false,
      "taf_trigger": false,
      "metar": "METAR EPLB 220530Z 34006KT CAVOK 16/10 Q1026",
      "taf": "TAF EPLB 220530Z 2206/2306 33008KT CAVOK"
    },
    {
      "icao": "EPMO",
      "alert": "OK",
      "vis_m": 9999,
      "fzfg": false,
      "metar_trigger": false,
      "taf_trigger": false,
      "metar": "METAR EPMO 220530Z 23004KT 170V280 CAVOK 16/11 Q1026",
      "taf": "TAF EPMO 220530Z 2206/2306 24005KT 9999 SCT045"
    },
    {
      "icao": "EPPO",
      "alert": "OK",
      "vis_m": 9999,
      "fzfg": false,
      "metar_trigger": false,
      "taf_trigger": false,
      "metar": "METAR EPPO 220530Z 34004KT CAVOK 15/11 Q1028",
      "taf": "TAF EPPO 220530Z 2206/2306 31007KT CAVOK"
    },
    {
      "icao": "EPRA",
      "alert": "OK",
      "vis_m": 9999,
      "fzfg": false,
      "metar_trigger": false,
      "taf_trigger": false,
      "metar": "METAR EPRA 220530Z VRB02KT CAVOK 16/10 Q1027",
      "taf": "TAF EPRA 220530Z 2206/2215 30008KT CAVOK"
    },
    {
      "icao": "EPRZ",
      "alert": "OK",
      "vis_m": 9999,
      "fzfg": false,
      "metar_trigger": false,
      "taf_trigger": false,
      "metar": "METAR EPRZ 220530Z 33006KT 290V020 CAVOK 15/11 Q1027",
      "taf": "TAF EPRZ 220530Z 2206/2306 30008KT CAVOK"
    },
    {
      "icao": "EPSC",
      "alert": "OK",
      "vis_m": 9999,
      "fzfg": false,
      "metar_trigger": false,
      "taf_trigger": false,
      "metar": "METAR EPSC 220530Z 20003KT 170V240 CAVOK 14/11 Q1028",
      "taf": "TAF EPSC 220530Z 2206/2306 VRB02KT 9999 BKN044"
    },
    {
      "icao": "EPSY",
      "alert": "OK",
      "vis_m": 9999,
      "fzfg": false,
      "metar_trigger": false,
      "taf_trigger": false,
      "metar": "METAR EPSY 220530Z 24004KT CAVOK 14/11 Q1026",
      "taf": "TAF EPSY 220530Z 2206/2215 VRB02KT CAVOK"
    },
    {
      "icao": "EPWA",
      "alert": "OK",
      "vis_m": 9999,
      "fzfg": false,
      "metar_trigger": false,
      "taf_trigger": false,
      "metar": "METAR EPWA 220530Z 26004KT CAVOK 15/10 Q1027 NOSIG",
      "taf": "TAF EPWA 220530Z 2206/2306 24005KT CAVOK"
    },
    {
      "icao": "EPWR",
      "alert": "OK",
      "vis_m": 9999,
      "fzfg": false,
      "metar_trigger": false,
      "taf_trigger": false,
      "metar": "METAR EPWR 220530Z 30009KT CAVOK 15/11 Q1029",
      "taf": "TAF EPWR 220530Z 2206/2306 31007KT CAVOK"
    },
    {
      "icao": "ESGG",
      "alert": "OK",
      "vis_m": 9999,
      "fzfg": false,
      "metar_trigger": false,
      "taf_trigger": false,
      "metar": "METAR ESGG 220520Z 23007KT CAVOK 11/09 Q1023",
      "taf": "TAF ESGG 220530Z 2206/2306 25007KT CAVOK"
    },
    {
      "icao": "ESKN",
      "alert": "OK",
      "vis_m": 9999,
      "fzfg": false,
      "metar_trigger": false,
      "taf_trigger": false,
      "metar": "METAR ESKN 220520Z 27010KT 9999 BKN004 10/10 Q1021",
      "taf": "TAF ESKN 220530Z 2206/2306 26006KT 9999 BKN004"
    },
    {
      "icao": "ESMS",
      "alert": "OK",
      "vis_m": 9999,
      "fzfg": false,
      "metar_trigger": false,
      "taf_trigger": false,
      "metar": "METAR ESMS 220520Z 25008KT CAVOK 12/12 Q1026",
      "taf": "TAF ESMS 220527Z 2206/2306 25008KT 9999 SCT014"
    },
    {
      "icao": "ESSA",
      "alert": "OK",
      "vis_m": 9999,
      "fzfg": false,
      "metar_trigger": false,
      "taf_trigger": false,
      "metar": "METAR ESSA 220520Z 25007KT CAVOK 12/10 Q1019 NOSIG",
      "taf": "TAF ESSA 220530Z 2206/2306 27008KT CAVOK"
    },
    {
      "icao": "EYKA",
      "alert": "OK",
      "vis_m": 9999,
      "fzfg": false,
      "metar_trigger": false,
      "taf_trigger": false,
      "metar": "METAR EYKA 220520Z 28010KT 250V310 9999 OVC009 11/10 Q1023",
      "taf": "TAF EYKA 220500Z 2206/2306 28010KT 9000 OVC010"
    },
    {
      "icao": "EYPA",
      "alert": "OK",
      "vis_m": 9999,
      "fzfg": false,
      "metar_trigger": false,
      "taf_trigger": false,
      "metar": "METAR EYPA 220520Z 24004KT 200V310 9999 SCT004 11/09 Q1023",
      "taf": "TAF EYPA 220500Z 2206/2306 27010KT 9000 NSC"
    },
    {
      "icao": "EYVI",
      "alert": "OK",
      "vis_m": 9999,
      "fzfg": false,
      "metar_trigger": false,
      "taf_trigger": false,
      "metar": "METAR EYVI 220520Z 30008KT 9999 FEW013 13/10 Q1023 NOSIG",
      "taf": "TAF EYVI 220500Z 2206/2306 29010KT 9000 BKN030"
    },
    {
      "icao": "GCFV",
      "alert": "OK",
      "vis_m": 9999,
      "fzfg": false,
      "metar_trigger": false,
      "taf_trigger": false,
      "metar": "METAR GCFV 220530Z 29015KT 260V340 9999 FEW025 20/14 Q1016",
      "taf": "TAF GCFV 220200Z 2203/2303 31015KT 9999 FEW015 TX27/2214Z TN18/2206Z"
    },
    {
      "icao": "GCLP",
      "alert": "OK",
      "vis_m": 9999,
      "fzfg": false,
      "metar_trigger": false,
      "taf_trigger": false,
      "metar": "METAR GCLP 220530Z 35008KT 9999 FEW025 19/14 Q1017 NOSIG",
      "taf": "TAF GCLP 220200Z 2203/2303 01020KT 9999 FEW025 TX26/2214Z TN19/2206Z"
    },
    {
      "icao": "GCTS",
      "alert": "OK",
      "vis_m": 9999,
      "fzfg": false,
      "metar_trigger": false,
      "taf_trigger": false,
      "metar": "METAR GCTS 220530Z 35004KT 9999 BKN021 19/14 Q1018 NOSIG",
      "taf": "TAF GCTS 220200Z 2203/2303 23008KT 9999 SCT020 TX25/2214Z TN18/2206Z"
    },
    {
      "icao": "GMAD",
      "alert": "OK",
      "vis_m": 6000,
      "fzfg": false,
      "metar_trigger": false,
      "taf_trigger": false,
      "metar": "METAR GMAD 220530Z 18004KT 6000 OVC003 17/17 Q1016 NOSIG",
      "taf": "TAF GMAD 212300Z 2200/2306 06008KT 8000 SCT016"
    },
    {
      "icao": "GMMN",
      "alert": "OK",
      "vis_m": 9999,
      "fzfg": false,
      "metar_trigger": false,
      "taf_trigger": false,
      "metar": "METAR GMMN 220530Z 21007KT 180V250 CAVOK 18/10 Q1016 NOSIG",
      "taf": "TAF GMMN 220500Z 2206/2312 14004KT CAVOK"
    },
    {
      "icao": "GMMX",
      "alert": "OK",
      "vis_m": 9999,
      "fzfg": false,
      "metar_trigger": false,
      "taf_trigger": false,
      "metar": "METAR GMMX 220530Z VRB01KT CAVOK 23/08 Q1017 NOSIG",
      "taf": "TAF GMMX 220500Z 2206/2312 24006KT 8000 NSC"
    },
    {
      "icao": "HEGN",
      "alert": "OK",
      "vis_m": 9999,
      "fzfg": false,
      "metar_trigger": false,
      "taf_trigger": false,
      "metar": "METAR HEGN 220500Z 29013KT CAVOK 24/13 Q1014 NOSIG",
      "taf": "TAF HEGN 220500Z 2206/2312 35015KT CAVOK"
    },
    {
      "icao": "HEMA",
      "alert": "OK",
      "vis_m": 9999,
      "fzfg": false,
      "metar_trigger": false,
      "taf_trigger": false,
      "metar": "METAR HEMA 220500Z 33015KT CAVOK 27/09 Q1012 NOSIG",
      "taf": "TAF HEMA 220500Z 2206/2312 36018KT CAVOK"
    },
    {
      "icao": "HESH",
      "alert": "OK",
      "vis_m": 9999,
      "fzfg": false,
      "metar_trigger": false,
      "taf_trigger": false,
      "metar": "METAR HESH 220500Z 34008KT CAVOK 25/16 Q1012 NOSIG",
      "taf": "TAF HESH 220500Z 2206/2312 03015KT CAVOK"
    },
    {
      "icao": "HESX",
      "alert": "OK",
      "vis_m": 9999,
      "fzfg": false,
      "metar_trigger": false,
      "taf_trigger": false,
      "metar": "METAR HESX 220500Z 27004KT CAVOK 18/10 Q1014 NOSIG",
      "taf": "TAF HESX 220500Z 2206/2312 28008KT CAVOK"
    },
    {
      "icao": "LATI",
      "alert": "OK",
      "vis_m": null,
      "fzfg": false,
      "metar_trigger": false,
      "taf_trigger": false,
      "metar": "",
      "taf": "TAF LATI 220500Z 2206/2306 VRB05KT 9999 FEW040 SCT080 TX29/2212Z TN14/2304Z"
    },
    {
      "icao": "LBPD",
      "alert": "OK",
      "vis_m": 9999,
      "fzfg": false,
      "metar_trigger": false,
      "taf_trigger": false,
      "metar": "METAR LBPD 220530Z AUTO 27013KT 9999 -RA FEW044/// BKN057/// OVC066/// 17/14 Q1016 NOSIG",
      "taf": "TAF LBPD 220500Z 2206/2306 28014KT 9999 SCT060"
    },
    {
      "icao": "LBSF",
      "alert": "OK",
      "vis_m": 9999,
      "fzfg": false,
      "metar_trigger": false,
      "taf_trigger": false,
      "metar": "METAR LBSF 220530Z 28007KT 9999 -RA BKN037 OVC046 14/11 Q1019 NOSIG",
      "taf": "TAF LBSF 220500Z 2206/2306 29010KT 9999 SCT040 BKN060"
    },
    {
      "icao": "LBWN",
      "alert": "OK",
      "vis_m": 9999,
      "fzfg": false,
      "metar_trigger": false,
      "taf_trigger": false,
      "metar": "METAR LBWN 220530Z 03007KT 320V060 9999 BKN016 18/17 Q1014 NOSIG",
      "taf": "TAF LBWN 220500Z 2206/2306 02010KT 9999 BKN015"
    },
    {
      "icao": "LCLK",
      "alert": "OK",
      "vis_m": 9999,
      "fzfg": false,
      "metar_trigger": false,
      "taf_trigger": false,
      "metar": "METAR LCLK 220530Z 18007KT 140V210 9999 FEW007 SCT020 23/19 Q1012 NOSIG",
      "taf": "TAF LCLK 220530Z 2206/2306 21007KT 9999 FEW012"
    },
    {
      "icao": "LCPH",
      "alert": "OK",
      "vis_m": 9999,
      "fzfg": false,
      "metar_trigger": false,
      "taf_trigger": false,
      "metar": "METAR LCPH 220530Z 15004KT 090V170 9999 FEW020 22/17 Q1012 NOSIG",
      "taf": "TAF LCPH 220530Z 2206/2306 04007KT 9999 SCT015"
    },
    {
      "icao": "LEAL",
      "alert": "OK",
      "vis_m": 9999,
      "fzfg": false,
      "metar_trigger": false,
      "taf_trigger": false,
      "metar": "METAR LEAL 220530Z VRB01KT CAVOK 19/10 Q1025 NOSIG",
      "taf": "TAF LEAL 220500Z 2206/2306 VRB04KT CAVOK TX28/2212Z TN16/2206Z"
    },
    {
      "icao": "LEBB",
      "alert": "OK",
      "vis_m": 9999,
      "fzfg": false,
      "metar_trigger": false,
      "taf_trigger": false,
      "metar": "METAR LEBB 220530Z 12006KT 090V150 CAVOK 18/16 Q1022 NOSIG",
      "taf": "TAF LEBB 220500Z 2206/2306 13006KT CAVOK TX37/2214Z TN18/2206Z"
    },
    {
      "icao": "LEBL",
      "alert": "OK",
      "vis_m": 9999,
      "fzfg": false,
      "metar_trigger": false,
      "taf_trigger": false,
      "metar": "METAR LEBL 220500Z 31006KT CAVOK 18/11 Q1024 NOSIG",
      "taf": "TAF LEBL 220500Z 2206/2306 VRB03KT 9999 FEW020 TX25/2212Z TN17/2206Z"
    },
    {
      "icao": "LECH",
      "alert": "OK",
      "vis_m": 9999,
      "fzfg": false,
      "metar_trigger": false,
      "taf_trigger": false,
      "metar": "METAR LECH 220530Z AUTO 00000KT CAVOK 15/10 Q1026",
      "taf": "TAF LECH 220500Z 2206/2306 04006KT CAVOK TX30/2212Z TN15/2206Z"
    },
    {
      "icao": "LEMD",
      "alert": "OK",
      "vis_m": 9999,
      "fzfg": false,
      "metar_trigger": false,
      "taf_trigger": false,
      "metar": "METAR LEMD 220530Z 35003KT CAVOK 13/09 Q1026 NOSIG",
      "taf": "TAF LEMD 220500Z 2206/2312 35005KT CAVOK TX34/2216Z TN13/2206Z"
    },
    {
      "icao": "LEMG",
      "alert": "OK",
      "vis_m": 9999,
      "fzfg": false,
      "metar_trigger": false,
      "taf_trigger": false,
      "metar": "METAR LEMG 220530Z 29008KT CAVOK 15/07 Q1023 NOSIG",
      "taf": "TAF LEMG 220500Z 2206/2306 29005KT CAVOK TX28/2214Z TN17/2207Z"
    },
    {
      "icao": "LEVC",
      "alert": "OK",
      "vis_m": 9999,
      "fzfg": false,
      "metar_trigger": false,
      "taf_trigger": false,
      "metar": "METAR LEVC 220530Z VRB02KT CAVOK 16/11 Q1025 NOSIG",
      "taf": "TAF LEVC 220500Z 2206/2306 VRB04KT CAVOK TX31/2214Z TN15/2206Z"
    },
    {
      "icao": "LEXJ",
      "alert": "OK",
      "vis_m": 9000,
      "fzfg": false,
      "metar_trigger": false,
      "taf_trigger": false,
      "metar": "METAR LEXJ 220530Z VRB01KT 9000 NSC 16/15 Q1021",
      "taf": "TAF LEXJ 220200Z 2203/2303 19007KT CAVOK TX32/2214Z TN17/2203Z"
    },
    {
      "icao": "LEZG",
      "alert": "OK",
      "vis_m": 9999,
      "fzfg": false,
      "metar_trigger": false,
      "taf_trigger": false,
      "metar": "METAR LEZG 220530Z 10003KT CAVOK 18/12 Q1025 NOSIG",
      "taf": "TAF LEZG 220500Z 2206/2306 VRB04KT CAVOK TX36/2215Z TN17/2206Z"
    },
    {
      "icao": "LEZL",
      "alert": "OK",
      "vis_m": 9999,
      "fzfg": false,
      "metar_trigger": false,
      "taf_trigger": false,
      "metar": "METAR LEZL 220530Z 04007KT CAVOK 19/07 Q1020 NOSIG",
      "taf": "TAF LEZL 220200Z 2203/2303 06010KT CAVOK TX38/2215Z TN19/2207Z"
    },
    {
      "icao": "LFBD",
      "alert": "OK",
      "vis_m": 9999,
      "fzfg": false,
      "metar_trigger": false,
      "taf_trigger": false,
      "metar": "METAR LFBD 220530Z AUTO 11004KT CAVOK 19/14 Q1023 NOSIG",
      "taf": "TAF LFBD 220500Z 2206/2312 VRB03KT CAVOK TX34/2215Z TN16/2206Z"
    },
    {
      "icao": "LFLL",
      "alert": "OK",
      "vis_m": 9999,
      "fzfg": false,
      "metar_trigger": false,
      "taf_trigger": false,
      "metar": "METAR LFLL 220530Z 13002KT CAVOK 15/11 Q1026 NOSIG",
      "taf": "TAF LFLL 220500Z 2206/2312 18003KT CAVOK"
    },
    {
      "icao": "LFLS",
      "alert": "OK",
      "vis_m": 9999,
      "fzfg": false,
      "metar_trigger": false,
      "taf_trigger": false,
      "metar": "METAR LFLS 220530Z AUTO 08007KT CAVOK 15/12 Q1027 NOSIG",
      "taf": "TAF LFLS 220200Z 2203/2303 09009KT CAVOK"
    },
    {
      "icao": "LFMN",
      "alert": "OK",
      "vis_m": 9999,
      "fzfg": false,
      "metar_trigger": false,
      "taf_trigger": false,
      "metar": "METAR LFMN 220530Z 05003KT 010V070 CAVOK 20/12 Q1025 NOSIG",
      "taf": "TAF LFMN 220200Z 2203/2309 34010KT CAVOK"
    },
    {
      "icao": "LFOB",
      "alert": "OK",
      "vis_m": 9999,
      "fzfg": false,
      "metar_trigger": false,
      "taf_trigger": false,
      "metar": "METAR LFOB 220530Z AUTO 00000KT 9999 3900 NSC 11/11 Q1027 NOSIG",
      "taf": "TAF LFOB 220500Z 2206/2306 VRB03KT CAVOK"
    },
    {
      "icao": "LFPO",
      "alert": "OK",
      "vis_m": 9999,
      "fzfg": false,
      "metar_trigger": false,
      "taf_trigger": false,
      "metar": "METAR LFPO 220536Z 07002KT CAVOK 16/14 Q1026 NOSIG",
      "taf": "TAF LFPO 220500Z 2206/2312 10005KT CAVOK"
    },
    {
      "icao": "LFSB",
      "alert": "OK",
      "vis_m": 9999,
      "fzfg": false,
      "metar_trigger": false,
      "taf_trigger": false,
      "metar": "METAR LFSB 220530Z AUTO VRB02KT CAVOK 13/11 Q1028 NOSIG",
      "taf": "TAF LFSB 220500Z 2206/2306 VRB03KT CAVOK"
    },
    {
      "icao": "LGAV",
      "alert": "OK",
      "vis_m": 9999,
      "fzfg": false,
      "metar_trigger": false,
      "taf_trigger": false,
      "metar": "METAR LGAV 220520Z VRB01KT 9999 FEW030 21/12 Q1014 NOSIG",
      "taf": "TAF LGAV 220500Z 2206/2306 02010KT 9999 FEW030 SCT070"
    },
    {
      "icao": "LGTS",
      "alert": "OK",
      "vis_m": 9999,
      "fzfg": false,
      "metar_trigger": false,
      "taf_trigger": false,
      "metar": "METAR LGTS 220520Z 30005KT 9999 FEW030 21/12 Q1015 NOSIG",
      "taf": "TAF LGTS 220500Z 2206/2306 32015KT 9999 FEW030"
    },
    {
      "icao": "LHBP",
      "alert": "OK",
      "vis_m": 9999,
      "fzfg": false,
      "metar_trigger": false,
      "taf_trigger": false,
      "metar": "METAR LHBP 220530Z 30007KT CAVOK 17/10 Q1025 NOSIG",
      "taf": "TAF LHBP 220515Z 2206/2306 35009KT CAVOK"
    },
    {
      "icao": "LHDC",
      "alert": "OK",
      "vis_m": 9999,
      "fzfg": false,
      "metar_trigger": false,
      "taf_trigger": false,
      "metar": "METAR LHDC 220515Z AUTO 01015KT 340V050 CAVOK 19/10 Q1023 NOSIG",
      "taf": "TAF LHDC 220515Z 2206/2215 01014G25KT CAVOK"
    },
    {
      "icao": "LIBD",
      "alert": "OK",
      "vis_m": 9999,
      "fzfg": false,
      "metar_trigger": false,
      "taf_trigger": false,
      "metar": "METAR LIBD 220520Z 29008KT 260V320 CAVOK 19/13 Q1020",
      "taf": "TAF LIBD 220500Z 2206/2306 28010KT CAVOK"
    },
    {
      "icao": "LIBG",
      "alert": "OK",
      "vis_m": 9999,
      "fzfg": false,
      "metar_trigger": false,
      "taf_trigger": false,
      "metar": "METAR LIBG 220520Z AUTO 35016KT 9999 NCD 20/13 Q1018",
      "taf": "TAF LIBG 220500Z 2206/2306 33015KT CAVOK"
    },
    {
      "icao": "LIBP",
      "alert": "OK",
      "vis_m": 9999,
      "fzfg": false,
      "metar_trigger": false,
      "taf_trigger": false,
      "metar": "METAR LIBP 220520Z AUTO 22007KT 9999 NCD 16/11 Q1025",
      "taf": "TAF LIBP 220500Z 2206/2306 22006KT CAVOK"
    },
    {
      "icao": "LIBR",
      "alert": "OK",
      "vis_m": 9999,
      "fzfg": false,
      "metar_trigger": false,
      "taf_trigger": false,
      "metar": "METAR LIBR 220520Z 32014KT CAVOK 19/16 Q1018",
      "taf": "TAF LIBR 220500Z 2206/2306 31016KT CAVOK"
    },
    {
      "icao": "LICA",
      "alert": "OK",
      "vis_m": 9999,
      "fzfg": false,
      "metar_trigger": false,
      "taf_trigger": false,
      "metar": "METAR LICA 220520Z AUTO 20004KT 170V240 9999 FEW015/// 19/16 Q1020",
      "taf": "TAF LICA 220500Z 2206/2306 VRB05KT 9999 SCT015"
    },
    {
      "icao": "LICC",
      "alert": "OK",
      "vis_m": 9999,
      "fzfg": false,
      "metar_trigger": false,
      "taf_trigger": false,
      "metar": "METAR LICC 220520Z 26005KT CAVOK 17/11 Q1019",
      "taf": "TAF LICC 220500Z 2206/2306 27005KT CAVOK"
    },
    {
      "icao": "LICJ",
      "alert": "OK",
      "vis_m": 9999,
      "fzfg": false,
      "metar_trigger": false,
      "taf_trigger": false,
      "metar": "METAR LICJ 220520Z 28006KT 9999 FEW010 19/18 Q1022",
      "taf": "TAF LICJ 220500Z 2206/2306 VRB05KT CAVOK"
    },
    {
      "icao": "LIMC",
      "alert": "OK",
      "vis_m": 9999,
      "fzfg": false,
      "metar_trigger": false,
      "taf_trigger": false,
      "metar": "METAR LIMC 220520Z 02006KT CAVOK 17/12 Q1026 NOSIG",
      "taf": "TAF LIMC 220500Z 2206/2312 VRB05KT CAVOK"
    },
    {
      "icao": "LIME",
      "alert": "OK",
      "vis_m": 9999,
      "fzfg": false,
      "metar_trigger": false,
      "taf_trigger": false,
      "metar": "METAR LIME 220520Z 02004KT CAVOK 18/11 Q1026 NOSIG",
      "taf": "TAF LIME 220500Z 2206/2306 VRB05KT CAVOK"
    },
    {
      "icao": "LIMF",
      "alert": "OK",
      "vis_m": 9999,
      "fzfg": false,
      "metar_trigger": false,
      "taf_trigger": false,
      "metar": "METAR LIMF 220520Z VRB02KT 9999 FEW080 18/14 Q1027",
      "taf": "TAF LIMF 220500Z 2206/2306 VRB04KT CAVOK"
    },
    {
      "icao": "LIMJ",
      "alert": "OK",
      "vis_m": 9999,
      "fzfg": false,
      "metar_trigger": false,
      "taf_trigger": false,
      "metar": "METAR LIMJ 220520Z VRB02KT CAVOK 20/11 Q1025",
      "taf": "TAF LIMJ 220500Z 2206/2306 VRB05KT CAVOK"
    },
    {
      "icao": "LIPE",
      "alert": "OK",
      "vis_m": 9999,
      "fzfg": false,
      "metar_trigger": false,
      "taf_trigger": false,
      "metar": "METAR LIPE 220520Z 19007KT CAVOK 18/10 Q1026",
      "taf": "TAF LIPE 220500Z 2206/2306 VRB05KT CAVOK"
    },
    {
      "icao": "LIPH",
      "alert": "OK",
      "vis_m": 9999,
      "fzfg": false,
      "metar_trigger": false,
      "taf_trigger": false,
      "metar": "METAR LIPH 220520Z 03004KT 360V070 9999 SCT080 19/14 Q1026",
      "taf": "TAF LIPH 220500Z 2206/2306 VRB05KT CAVOK"
    },
    {
      "icao": "LIPQ",
      "alert": "OK",
      "vis_m": 9999,
      "fzfg": false,
      "metar_trigger": false,
      "taf_trigger": false,
      "metar": "METAR LIPQ 220520Z AUTO VRB01KT 9999 FEW076/// 17/11 Q1026",
      "taf": "TAF LIPQ 220500Z 2206/2306 VRB05KT 9999 FEW080"
    },
    {
      "icao": "LIPR",
      "alert": "OK",
      "vis_m": 9999,
      "fzfg": false,
      "metar_trigger": false,
      "taf_trigger": false,
      "metar": "METAR LIPR 220520Z AUTO 24004KT 9999 BKN086/// 14/10 Q1026",
      "taf": "TAF LIPR 220500Z 2206/2306 VRB05KT CAVOK"
    },
    {
      "icao": "LIPX",
      "alert": "OK",
      "vis_m": 9999,
      "fzfg": false,
      "metar_trigger": false,
      "taf_trigger": false,
      "metar": "METAR LIPX 220520Z VRB02KT 9999 SCT080 17/14 Q1026",
      "taf": "TAF LIPX 220500Z 2206/2306 VRB05KT 9999 FEW050"
    },
    {
      "icao": "LIPY",
      "alert": "OK",
      "vis_m": 9999,
      "fzfg": false,
      "metar_trigger": false,
      "taf_trigger": false,
      "metar": "METAR LIPY 220520Z AUTO 22005KT 9999 BKN096/// 16/11 Q1026",
      "taf": "TAF LIPY 220500Z 2206/2306 VRB05KT CAVOK"
    },
    {
      "icao": "LIPZ",
      "alert": "OK",
      "vis_m": 9999,
      "fzfg": false,
      "metar_trigger": false,
      "taf_trigger": false,
      "metar": "METAR LIPZ 220520Z 04006KT CAVOK 18/16 Q1026 NOSIG",
      "taf": "TAF LIPZ 220500Z 2206/2312 VRB05KT CAVOK"
    },
    {
      "icao": "LIRF",
      "alert": "OK",
      "vis_m": 9999,
      "fzfg": false,
      "metar_trigger": false,
      "taf_trigger": false,
      "metar": "METAR LIRF 220520Z 36008KT CAVOK 19/09 Q1023 NOSIG",
      "taf": "TAF LIRF 220500Z 2206/2312 01010KT CAVOK"
    },
    {
      "icao": "LIRN",
      "alert": "OK",
      "vis_m": 9999,
      "fzfg": false,
      "metar_trigger": false,
      "taf_trigger": false,
      "metar": "METAR LIRN 220520Z 33004KT 300V020 CAVOK 21/08 Q1022 NOSIG",
      "taf": "TAF LIRN 220500Z 2206/2306 03005KT 9999 FEW040"
    },
    {
      "icao": "LIRP",
      "alert": "OK",
      "vis_m": 9999,
      "fzfg": false,
      "metar_trigger": false,
      "taf_trigger": false,
      "metar": "METAR LIRP 220515Z 16002KT CAVOK 14/13 Q1026 NOSIG",
      "taf": "TAF LIRP 220500Z 2206/2306 VRB03KT CAVOK"
    },
    {
      "icao": "LIRZ",
      "alert": "OK",
      "vis_m": 9999,
      "fzfg": false,
      "metar_trigger": false,
      "taf_trigger": false,
      "metar": "METAR LIRZ 220520Z AUTO 34004KT 270V010 9999 NCD 14/09 Q1026",
      "taf": "TAF LIRZ 220500Z 2206/2306 VRB05KT 9999 FEW030"
    },
    {
      "icao": "LJLJ",
      "alert": "OK",
      "vis_m": 9999,
      "fzfg": false,
      "metar_trigger": false,
      "taf_trigger": false,
      "metar": "METAR LJLJ 220530Z VRB01KT 9999 FEW007 12/08 Q1028 NOSIG",
      "taf": "TAF LJLJ 220500Z 2206/2306 30003KT 9999 FEW070"
    },
    {
      "icao": "LKMT",
      "alert": "OK",
      "vis_m": 9999,
      "fzfg": false,
      "metar_trigger": false,
      "taf_trigger": false,
      "metar": "METAR LKMT 220530Z VRB02KT CAVOK 13/10 Q1029 NOSIG",
      "taf": "TAF LKMT 220500Z 2206/2306 VRB02KT CAVOK"
    },
    {
      "icao": "LKPR",
      "alert": "OK",
      "vis_m": 9999,
      "fzfg": false,
      "metar_trigger": false,
      "taf_trigger": false,
      "metar": "METAR LKPR 220530Z 26004KT CAVOK 12/10 Q1030 NOSIG",
      "taf": "TAF LKPR 220500Z 2206/2312 23005KT CAVOK"
    },
    {
      "icao": "LLBG",
      "alert": "OK",
      "vis_m": 9999,
      "fzfg": false,
      "metar_trigger": false,
      "taf_trigger": false,
      "metar": "METAR LLBG 220520Z 19009KT 160V220 9999 SCT024 SCT044 21/15 Q1015 BECMG 29010KT",
      "taf": "TAF LLBG 220511Z 2206/2306 VRB04KT 9999 SCT025 TX24/2210Z TN15/2304Z"
    },
    {
      "icao": "LMML",
      "alert": "OK",
      "vis_m": 9999,
      "fzfg": false,
      "metar_trigger": false,
      "taf_trigger": false,
      "metar": "METAR LMML 220545Z 32010KT CAVOK 20/14 Q1020 NOSIG",
      "taf": "TAF LMML 220500Z 2206/2306 33010KT 9999 FEW040"
    },
    {
      "icao": "LOWW",
      "alert": "OK",
      "vis_m": 9999,
      "fzfg": false,
      "metar_trigger": false,
      "taf_trigger": false,
      "metar": "METAR LOWW 220520Z 33006KT 280V350 CAVOK 16/10 Q1029 NOSIG",
      "taf": "TAF LOWW 220515Z 2206/2312 33010KT 9999 SCT050 TX25/2312Z TN14/2303Z"
    },
    {
      "icao": "LPFR",
      "alert": "OK",
      "vis_m": 9999,
      "fzfg": false,
      "metar_trigger": false,
      "taf_trigger": false,
      "metar": "METAR LPFR 220530Z 07011KT CAVOK 22/07 Q1019",
      "taf": "TAF LPFR 220500Z 2206/2306 08010KT CAVOK"
    },
    {
      "icao": "LPMA",
      "alert": "OK",
      "vis_m": 9999,
      "fzfg": false,
      "metar_trigger": false,
      "taf_trigger": false,
      "metar": "METAR LPMA 220530Z 24004KT 9999 FEW015 17/14 Q1020",
      "taf": "TAF LPMA 220500Z 2206/2306 36010KT 9999 SCT015"
    },
    {
      "icao": "LPPR",
      "alert": "OK",
      "vis_m": 9999,
      "fzfg": false,
      "metar_trigger": false,
      "taf_trigger": false,
      "metar": "METAR LPPR 220530Z 07003KT 030V160 CAVOK 17/13 Q1019",
      "taf": "TAF LPPR 220500Z 2206/2306 VRB02KT CAVOK"
    },
    {
      "icao": "LPPS",
      "alert": "OK",
      "vis_m": 9999,
      "fzfg": false,
      "metar_trigger": false,
      "taf_trigger": false,
      "metar": "METAR LPPS 220530Z 34014KT 9999 SCT011 17/15 Q1020",
      "taf": "TAF LPPS 220500Z 2206/2312 36015KT 9999 SCT015"
    },
    {
      "icao": "LPPT",
      "alert": "OK",
      "vis_m": 9999,
      "fzfg": false,
      "metar_trigger": false,
      "taf_trigger": false,
      "metar": "METAR LPPT 220530Z 03006KT 320V060 CAVOK 18/14 Q1019",
      "taf": "TAF LPPT 220500Z 2206/2312 VRB02KT CAVOK"
    },
    {
      "icao": "LQBK",
      "alert": "OK",
      "vis_m": 9999,
      "fzfg": false,
      "metar_trigger": false,
      "taf_trigger": false,
      "metar": "METAR LQBK 220530Z VRB03KT CAVOK 17/10 Q1026 NOSIG",
      "taf": "TAF LQBK 220500Z 2206/2306 28006KT CAVOK TX24/2213Z TN14/2304Z"
    },
    {
      "icao": "LQSA",
      "alert": "OK",
      "vis_m": 8000,
      "fzfg": false,
      "metar_trigger": false,
      "taf_trigger": false,
      "metar": "METAR LQSA 220530Z VRB01KT 8000 FEW005 BKN035 11/11 Q1026 NOSIG",
      "taf": "TAF LQSA 220500Z 2206/2306 VRB02KT 9999 SCT045 TX22/2214Z TN12/2206Z"
    },
    {
      "icao": "LQTZ",
      "alert": "OK",
      "vis_m": 9999,
      "fzfg": false,
      "metar_trigger": false,
      "taf_trigger": false,
      "metar": "METAR LQTZ 220530Z 30005KT CAVOK 14/13 Q1026",
      "taf": "TAF LQTZ 220500Z 2206/2306 27006KT 9999 SCT050 TX24/2213Z TN10/2304Z"
    },
    {
      "icao": "LRBC",
      "alert": "OK",
      "vis_m": 9999,
      "fzfg": false,
      "metar_trigger": false,
      "taf_trigger": false,
      "metar": "METAR LRBC 220530Z 35014KT 9999 SCT016 BKN056 17/15 Q1019",
      "taf": "TAF LRBC 220500Z 2206/2215 35014KT 9999 BKN050"
    },
    {
      "icao": "LRBS",
      "alert": "OK",
      "vis_m": 9999,
      "fzfg": false,
      "metar_trigger": false,
      "taf_trigger": false,
      "metar": "METAR LRBS 220530Z 01004KT 320V050 9999 -SHRA FEW024 BKN028CB OVC033 16/15 Q1017 NOSIG",
      "taf": "TAF LRBS 220500Z 2206/2306 03007KT 9999 SCT030CB BKN040"
    },
    {
      "icao": "LRBV",
      "alert": "OK",
      "vis_m": 9999,
      "fzfg": false,
      "metar_trigger": false,
      "taf_trigger": false,
      "metar": "METAR LRBV 220530Z 30009KT 9999 -SHRA FEW017 BKN036 FEW040CB 14/12 Q1020",
      "taf": "TAF LRBV 220500Z 2206/2215 30010KT 9999 SCT015 BKN045"
    },
    {
      "icao": "LRCL",
      "alert": "OK",
      "vis_m": 9999,
      "fzfg": false,
      "metar_trigger": false,
      "taf_trigger": false,
      "metar": "METAR LRCL 220530Z 27006KT 240V310 9999 -RA BKN048 16/11 Q1022",
      "taf": "TAF LRCL 220500Z 2206/2215 28010KT 9999 BKN045"
    },
    {
      "icao": "LRCV",
      "alert": "OK",
      "vis_m": 9999,
      "fzfg": false,
      "metar_trigger": false,
      "taf_trigger": false,
      "metar": "METAR LRCV 220530Z 34004KT 310V010 CAVOK 17/15 Q1018",
      "taf": "TAF LRCV 220500Z 2206/2215 VRB04KT CAVOK"
    },
    {
      "icao": "LRIA",
      "alert": "OK",
      "vis_m": 9999,
      "fzfg": false,
      "metar_trigger": false,
      "taf_trigger": false,
      "metar": "METAR LRIA 220530Z 31009KT 260V360 9999 FEW010 FEW030CB 17/14 Q1019",
      "taf": "TAF LRIA 220500Z 2206/2215 32010KT CAVOK"
    },
    {
      "icao": "LROP",
      "alert": "OK",
      "vis_m": 9999,
      "fzfg": false,
      "metar_trigger": false,
      "taf_trigger": false,
      "metar": "METAR LROP 220530Z 02007KT 9999 -SHRA SCT030CB BKN031 17/16 Q1017 NOSIG",
      "taf": "TAF LROP 220500Z 2206/2306 04007KT 9999 SCT030CB BKN040"
    },
    {
      "icao": "LRSB",
      "alert": "OK",
      "vis_m": 9999,
      "fzfg": false,
      "metar_trigger": false,
      "taf_trigger": false,
      "metar": "METAR LRSB 220530Z 27005KT 9999 -SHRA SCT040CB BKN050 14/12 Q1021 NOSIG",
      "taf": "TAF LRSB 220500Z 2206/2306 29006KT 9999 BKN045"
    },
    {
      "icao": "LRSM",
      "alert": "OK",
      "vis_m": 9999,
      "fzfg": false,
      "metar_trigger": false,
      "taf_trigger": false,
      "metar": "METAR LRSM 220530Z 35012KT CAVOK 18/11 Q1022",
      "taf": "TAF LRSM 220500Z 2206/2215 35013KT CAVOK"
    },
    {
      "icao": "LRSV",
      "alert": "OK",
      "vis_m": 9999,
      "fzfg": false,
      "metar_trigger": false,
      "taf_trigger": false,
      "metar": "METAR LRSV 220530Z 31017KT 9999 FEW008 15/13 Q1021",
      "taf": "TAF LRSV 220500Z 2206/2215 31016KT CAVOK"
    },
    {
      "icao": "LRTM",
      "alert": "OK",
      "vis_m": 9999,
      "fzfg": false,
      "metar_trigger": false,
      "taf_trigger": false,
      "metar": "METAR LRTM 220530Z 27005KT 230V290 9999 -RA FEW049 16/12 Q1020",
      "taf": "TAF LRTM 220500Z 2206/2215 28010KT 9999 SCT045"
    },
    {
      "icao": "LRTR",
      "alert": "OK",
      "vis_m": 9999,
      "fzfg": false,
      "metar_trigger": false,
      "taf_trigger": false,
      "metar": "METAR LRTR 220530Z 36014KT CAVOK 18/13 Q1020",
      "taf": "TAF LRTR 220500Z 2206/2306 36012KT CAVOK"
    },
    {
      "icao": "LTAC",
      "alert": "OK",
      "vis_m": 9999,
      "fzfg": false,
      "metar_trigger": false,
      "taf_trigger": false,
      "metar": "METAR LTAC 220520Z 34003KT 300V010 9999 FEW040 SCT100 13/09 Q1015 NOSIG RMK RWY21C 31003KT 270V360 RWY03L 34003KT 260V360 RWY21R VRB02KT RWY03R VRB02KT RWY21L 34003KT 300V360",
      "taf": "TAF LTAC 220440Z 2206/2306 VRB02KT 9999 SCT040 SCT100"
    },
    {
      "icao": "LTFM",
      "alert": "OK",
      "vis_m": 9999,
      "fzfg": false,
      "metar_trigger": false,
      "taf_trigger": false,
      "metar": "METAR LTFM 220520Z 29006KT 260V340 9999 BKN012 BKN028 17/15 Q1013 NOSIG RMK RWY17L VRB05KT RWY34L 29005KT RWY16R 29005KT 250V320 RWY36 28005KT 210V310 RWY18 VRB05KT",
      "taf": "TAF LTFM 220440Z 2206/2312 29006KT 9999 SCT014 BKN032"
    },
    {
      "icao": "LUKK",
      "alert": "OK",
      "vis_m": 9999,
      "fzfg": false,
      "metar_trigger": false,
      "taf_trigger": false,
      "metar": "METAR LUKK 220530Z 36011KT CAVOK 19/15 Q1017 NOSIG",
      "taf": "TAF LUKK 220509Z 2206/2306 35012KT 9999 SCT040"
    },
    {
      "icao": "LWOH",
      "alert": "OK",
      "vis_m": 9999,
      "fzfg": false,
      "metar_trigger": false,
      "taf_trigger": false,
      "metar": "METAR LWOH 220520Z 32004KT 9999 BKN050 13/10 Q1019",
      "taf": "TAF LWOH 220530Z 2206/2306 34005KT 9999 BKN050 BKN080"
    },
    {
      "icao": "LWSK",
      "alert": "OK",
      "vis_m": null,
      "fzfg": false,
      "metar_trigger": false,
      "taf_trigger": false,
      "metar": "",
      "taf": "TAF LWSK 220530Z 2206/2306 32008KT 9999 SCT050 BKN080"
    },
    {
      "icao": "LYBE",
      "alert": "OK",
      "vis_m": 9999,
      "fzfg": false,
      "metar_trigger": false,
      "taf_trigger": false,
      "metar": "METAR LYBE 220530Z 32006KT CAVOK 18/12 Q1022 NOSIG",
      "taf": "TAF LYBE 220500Z 2206/2306 34015KT 9999 SCT040 TX26/2213Z TN14/2304Z"
    },
    {
      "icao": "LYNI",
      "alert": "OK",
      "vis_m": 9999,
      "fzfg": false,
      "metar_trigger": false,
      "taf_trigger": false,
      "metar": "METAR LYNI 220530Z 32016KT 290V350 9999 FEW045 BKN075 17/11 Q1019 NOSIG",
      "taf": "TAF LYNI 220500Z 2206/2306 33014KT 9999 SCT030 SCT080 TX23/2212Z TN15/2304Z"
    },
    {
      "icao": "LYPG",
      "alert": "OK",
      "vis_m": 9999,
      "fzfg": false,
      "metar_trigger": false,
      "taf_trigger": false,
      "metar": "METAR LYPG 220530Z 36013KT 9999 FEW040 SCT050 BKN080 23/09 Q1018 NOSIG",
      "taf": "TAF LYPG 220500Z 2206/2306 36015G25KT 9999 FEW040 SCT080 TX28/2212Z TN18/2304Z"
    },
    {
      "icao": "LZIB",
      "alert": "OK",
      "vis_m": 9999,
      "fzfg": false,
      "metar_trigger": false,
      "taf_trigger": false,
      "metar": "METAR LZIB 220530Z 36009KT CAVOK 18/09 Q1027 NOSIG",
      "taf": "TAF LZIB 220515Z 2206/2306 31008KT CAVOK"
    },
    {
      "icao": "LZKZ",
      "alert": "OK",
      "vis_m": 9999,
      "fzfg": false,
      "metar_trigger": false,
      "taf_trigger": false,
      "metar": "METAR LZKZ 220530Z 01017KT CAVOK 18/10 Q1025 NOSIG",
      "taf": "TAF LZKZ 220515Z 2206/2306 01015KT CAVOK"
    },
    {
      "icao": "LZTT",
      "alert": "OK",
      "vis_m": 9999,
      "fzfg": false,
      "metar_trigger": false,
      "taf_trigger": false,
      "metar": "METAR LZTT 220530Z VRB02KT 9999 FEW040 12/07 Q1027 NOSIG",
      "taf": "TAF LZTT 220515Z 2206/2306 26006KT CAVOK"
    },
    {
      "icao": "OEJN",
      "alert": "OK",
      "vis_m": 9999,
      "fzfg": false,
      "metar_trigger": false,
      "taf_trigger": false,
      "metar": "METAR OEJN 220500Z 33008KT CAVOK 30/21 Q1009 NOSIG",
      "taf": "TAF OEJN 220500Z 2206/2312 33010KT CAVOK"
    },
    {
      "icao": "OEMA",
      "alert": "OK",
      "vis_m": 9999,
      "fzfg": false,
      "metar_trigger": false,
      "taf_trigger": false,
      "metar": "METAR OEMA 220500Z 35004KT CAVOK 32/02 Q1015 NOSIG",
      "taf": "TAF OEMA 220500Z 2206/2312 28013KT 7000 NSC"
    },
    {
      "icao": "OJAI",
      "alert": "OK",
      "vis_m": 5000,
      "fzfg": false,
      "metar_trigger": false,
      "taf_trigger": false,
      "metar": "METAR OJAI 220500Z 21004KT 5000 HZ NSC 15/11 Q1017 NOSIG",
      "taf": "TAF OJAI 220500Z 2206/2312 28012KT 5000 HZ FEW035"
    },
    {
      "icao": "OMAA",
      "alert": "OK",
      "vis_m": 9999,
      "fzfg": false,
      "metar_trigger": false,
      "taf_trigger": false,
      "metar": "METAR OMAA 220530Z VRB02KT CAVOK 35/13 Q1007 NOSIG",
      "taf": "TAF OMAA 220500Z 2206/2312 VRB02KT CAVOK"
    },
    {
      "icao": "OMDB",
      "alert": "OK",
      "vis_m": 9999,
      "fzfg": false,
      "metar_trigger": false,
      "taf_trigger": false,
      "metar": "METAR OMDB 220530Z 22005KT 130V250 CAVOK 35/13 Q1007 NOSIG",
      "taf": "TAF OMDB 220500Z 2206/2312 22005KT 8000 NSC"
    },
    {
      "icao": "UAAA",
      "alert": "OK",
      "vis_m": 9999,
      "fzfg": false,
      "metar_trigger": false,
      "taf_trigger": false,
      "metar": "METAR UAAA 220530Z 26003MPS 9999 BKN050CB OVC100 19/13 Q1008 NOSIG",
      "taf": "TAF UAAA 220509Z 2206/2306 29004G09MPS 6000 BKN020CB OVC050 TX20/2206Z TN09/2300Z"
    },
    {
      "icao": "UBBB",
      "alert": "OK",
      "vis_m": 9999,
      "fzfg": false,
      "metar_trigger": false,
      "taf_trigger": false,
      "metar": "METAR UBBB 220530Z 02006KT 330V050 9999 FEW060CB 21/16 Q1011 NOSIG",
      "taf": "TAF UBBB 220458Z 2206/2306 02006KT 9999 FEW050CB TX22/2209Z TN16/2300Z"
    },
    {
      "icao": "UDSG",
      "alert": "OK",
      "vis_m": 9999,
      "fzfg": false,
      "metar_trigger": false,
      "taf_trigger": false,
      "metar": "METAR UDSG 220530Z 24002KT 9999 FEW049 13/08 Q1015 NOSIG",
      "taf": "TAF UDSG 220458Z 2206/2306 21006KT 9999 SCT040"
    },
    {
      "icao": "UDYZ",
      "alert": "OK",
      "vis_m": 9999,
      "fzfg": false,
      "metar_trigger": false,
      "taf_trigger": false,
      "metar": "METAR UDYZ 220530Z 20003KT 140V240 9999 FEW046 18/10 Q1012 NOSIG",
      "taf": "TAF UDYZ 220500Z 2206/2306 20006KT 9999 SCT040"
    },
    {
      "icao": "UGKO",
      "alert": "OK",
      "vis_m": 9999,
      "fzfg": false,
      "metar_trigger": false,
      "taf_trigger": false,
      "metar": "METAR UGKO 220530Z VRB02KT 9999 SCT017 OVC045 15/14 Q1014 NOSIG",
      "taf": "TAF UGKO 220500Z 2206/2306 25007KT 9999 BKN050 TX22/2211Z TN13/2302Z"
    }
  ]
}