{
  "ts_utc": "2026-04-10T12:08:10Z",
  "threshold_m": 150,
  "source": "stations_override.txt (ICAO list) + aviationweather.gov (METAR/TAF raw)",
  "station_count": 159,
  "stations": [
    {
      "icao": "BIKF",
      "alert": "OK",
      "vis_m": 9999,
      "fzfg": false,
      "metar_trigger": false,
      "taf_trigger": false,
      "metar": "METAR BIKF 101200Z 18008KT 9999 SCT028 03/M04 Q1001",
      "taf": "TAF BIKF 101031Z 1012/1112 18006KT 9999 SCT030 TX04/1015Z TNM03/1103Z"
    },
    {
      "icao": "BKPR",
      "alert": "OK",
      "vis_m": 9999,
      "fzfg": false,
      "metar_trigger": false,
      "taf_trigger": false,
      "metar": "METAR BKPR 101200Z VRB04KT 9999 FEW035 12/M04 Q1017 NOSIG",
      "taf": "TAF BKPR 101130Z 1012/1112 01009KT 9999 SCT040 BKN070"
    },
    {
      "icao": "EBCI",
      "alert": "OK",
      "vis_m": 9999,
      "fzfg": false,
      "metar_trigger": false,
      "taf_trigger": false,
      "metar": "METAR EBCI 101150Z 24005KT 210V300 9999 FEW042 12/02 Q1020 NOSIG",
      "taf": "TAF EBCI 101100Z 1012/1118 VRB03KT 9999 FEW040"
    },
    {
      "icao": "EDDB",
      "alert": "OK",
      "vis_m": 9999,
      "fzfg": false,
      "metar_trigger": false,
      "taf_trigger": false,
      "metar": "METAR EDDB 101150Z AUTO 19006KT 140V230 CAVOK 07/M03 Q1018 NOSIG",
      "taf": "TAF EDDB 101100Z 1012/1112 14010KT 9999 FEW045"
    },
    {
      "icao": "EDDH",
      "alert": "OK",
      "vis_m": 9999,
      "fzfg": false,
      "metar_trigger": false,
      "taf_trigger": false,
      "metar": "METAR EDDH 101150Z AUTO 27008KT 230V320 9999 SCT039 BKN049 11/02 Q1016 NOSIG",
      "taf": "TAF EDDH 101100Z 1012/1118 30011KT 9999 BKN020"
    },
    {
      "icao": "EDDK",
      "alert": "OK",
      "vis_m": 9999,
      "fzfg": false,
      "metar_trigger": false,
      "taf_trigger": false,
      "metar": "METAR EDDK 101150Z AUTO 25007KT 230V360 9999 SCT037 11/02 Q1020 NOSIG",
      "taf": "TAF EDDK 101100Z 1012/1118 30006KT 9999 SCT040"
    },
    {
      "icao": "EDDN",
      "alert": "OK",
      "vis_m": 9999,
      "fzfg": false,
      "metar_trigger": false,
      "taf_trigger": false,
      "metar": "METAR EDDN 101150Z AUTO 35011KT 310V010 9999 BKN019 BKN030 BKN040 10/05 Q1017 NOSIG",
      "taf": "TAF EDDN 101100Z 1012/1112 31008KT 9999 BKN020"
    },
    {
      "icao": "EDDS",
      "alert": "OK",
      "vis_m": 9999,
      "fzfg": false,
      "metar_trigger": false,
      "taf_trigger": false,
      "metar": "METAR EDDS 101150Z AUTO VRB03KT 9999 FEW022 OVC033 11/04 Q1018 NOSIG",
      "taf": "TAF EDDS 101100Z 1012/1112 32005KT 9999 SCT030"
    },
    {
      "icao": "EDFH",
      "alert": "OK",
      "vis_m": 9999,
      "fzfg": false,
      "metar_trigger": false,
      "taf_trigger": false,
      "metar": "METAR EDFH 101150Z VRB02KT CAVOK 09/M06 Q1019",
      "taf": "TAF EDFH 101100Z 1012/1112 34005KT 9999 FEW025"
    },
    {
      "icao": "EDJA",
      "alert": "OK",
      "vis_m": 9999,
      "fzfg": false,
      "metar_trigger": false,
      "taf_trigger": false,
      "metar": "METAR EDJA 101150Z 35008KT 9999 BKN005 BKN008 OVC014 08/07 Q1018",
      "taf": "TAF EDJA 101100Z 1012/1021 32006KT 9000 SCT005 BKN012"
    },
    {
      "icao": "EDLW",
      "alert": "OK",
      "vis_m": 9999,
      "fzfg": false,
      "metar_trigger": false,
      "taf_trigger": false,
      "metar": "METAR EDLW 101150Z 23003KT 190V330 9999 BKN040 11/03 Q1019",
      "taf": "TAF EDLW 101100Z 1012/1112 30005KT 9999 SCT035"
    },
    {
      "icao": "EDNY",
      "alert": "OK",
      "vis_m": 9999,
      "fzfg": false,
      "metar_trigger": false,
      "taf_trigger": false,
      "metar": "METAR EDNY 101150Z 18005KT 150V210 9999 BKN022 OVC030 12/07 Q1018",
      "taf": "TAF EDNY 101100Z 1012/1021 22003KT 9999 FEW025 BKN050"
    },
    {
      "icao": "EDSB",
      "alert": "OK",
      "vis_m": 9999,
      "fzfg": false,
      "metar_trigger": false,
      "taf_trigger": false,
      "metar": "METAR EDSB 101150Z 04006KT 010V080 9999 BKN030 13/06 Q1019",
      "taf": "TAF EDSB 101100Z 1012/1112 01004KT 9999 FEW030"
    },
    {
      "icao": "EETN",
      "alert": "OK",
      "vis_m": 9999,
      "fzfg": false,
      "metar_trigger": false,
      "taf_trigger": false,
      "metar": "METAR EETN 101150Z 05012KT CAVOK 06/M05 Q1023 NOSIG",
      "taf": "TAF EETN 101130Z 1012/1112 06013KT CAVOK"
    },
    {
      "icao": "EFTU",
      "alert": "OK",
      "vis_m": 9999,
      "fzfg": false,
      "metar_trigger": false,
      "taf_trigger": false,
      "metar": "METAR EFTU 101150Z AUTO 07009KT 020V110 CAVOK 09/M06 Q1024",
      "taf": "TAF EFTU 101122Z 1012/1112 10007KT CAVOK"
    },
    {
      "icao": "EGBB",
      "alert": "OK",
      "vis_m": 9999,
      "fzfg": false,
      "metar_trigger": false,
      "taf_trigger": false,
      "metar": "METAR EGBB 101150Z 20008KT 160V240 9999 FEW044 10/M01 Q1018",
      "taf": "TAF EGBB 101104Z 1012/1112 18010KT 9999 FEW045"
    },
    {
      "icao": "EGGP",
      "alert": "OK",
      "vis_m": 9999,
      "fzfg": false,
      "metar_trigger": false,
      "taf_trigger": false,
      "metar": "METAR EGGP 101150Z 17008KT 9999 FEW029 10/M01 Q1017",
      "taf": "TAF EGGP 101101Z 1012/1112 17010KT 9999 FEW025"
    },
    {
      "icao": "EGGW",
      "alert": "OK",
      "vis_m": 9999,
      "fzfg": false,
      "metar_trigger": false,
      "taf_trigger": false,
      "metar": "METAR EGGW 101150Z AUTO 20007KT 140V240 9999 SCT039 10/01 Q1019",
      "taf": "TAF EGGW 101100Z 1012/1112 21009KT 9999 SCT040"
    },
    {
      "icao": "EGKK",
      "alert": "OK",
      "vis_m": 9999,
      "fzfg": false,
      "metar_trigger": false,
      "taf_trigger": false,
      "metar": "METAR EGKK 101150Z 18006KT 110V240 9999 FEW042 11/01 Q1020",
      "taf": "TAF EGKK 101053Z 1012/1118 20010KT 9999 FEW035"
    },
    {
      "icao": "EGNM",
      "alert": "OK",
      "vis_m": 9999,
      "fzfg": false,
      "metar_trigger": false,
      "taf_trigger": false,
      "metar": "METAR EGNM 101150Z 24005KT 200V300 9999 SCT032 07/M02 Q1017",
      "taf": "TAF EGNM 101101Z 1012/1112 22009KT 9999 FEW025"
    },
    {
      "icao": "EGPD",
      "alert": "OK",
      "vis_m": 9999,
      "fzfg": false,
      "metar_trigger": false,
      "taf_trigger": false,
      "metar": "METAR EGPD 101150Z AUTO 23007KT 190V290 9999 NCD 10/M03 Q1013 BECMG 16010KT",
      "taf": "TAF EGPD 101054Z 1012/1112 28009KT 9999 FEW045"
    },
    {
      "icao": "EGPF",
      "alert": "OK",
      "vis_m": 9999,
      "fzfg": false,
      "metar_trigger": false,
      "taf_trigger": false,
      "metar": "METAR EGPF 101150Z AUTO 19010KT 9999 SCT035 BKN042 09/02 Q1014",
      "taf": "TAF EGPF 101059Z 1012/1112 20008KT 9999 SCT030"
    },
    {
      "icao": "EHBK",
      "alert": "OK",
      "vis_m": 9999,
      "fzfg": false,
      "metar_trigger": false,
      "taf_trigger": false,
      "metar": "METAR EHBK 101155Z AUTO 22004KT 130V300 9999 NSC 11/02 Q1020 NOSIG",
      "taf": "TAF EHBK 101118Z 1012/1118 26004KT CAVOK"
    },
    {
      "icao": "EHEH",
      "alert": "OK",
      "vis_m": 9999,
      "fzfg": false,
      "metar_trigger": false,
      "taf_trigger": false,
      "metar": "METAR EHEH 101155Z AUTO 27003KT 250V050 9999 BKN040 OVC160 11/01 Q1020 BLU NOSIG RMK TREND REMOTE BY EHWX",
      "taf": "TAF EHEH 101106Z 1012/1118 26004KT 9999 BKN030"
    },
    {
      "icao": "EKBI",
      "alert": "OK",
      "vis_m": 9999,
      "fzfg": false,
      "metar_trigger": false,
      "taf_trigger": false,
      "metar": "METAR EKBI 101150Z 26013KT 9999 -RA BKN011 FEW012CB 08/06 Q1013",
      "taf": "TAF EKBI 101127Z 1012/1112 28010KT 9999 BKN015"
    },
    {
      "icao": "EKCH",
      "alert": "OK",
      "vis_m": 9999,
      "fzfg": false,
      "metar_trigger": false,
      "taf_trigger": false,
      "metar": "METAR EKCH 101150Z AUTO 14013KT 9999 OVC080/// 06/01 Q1018 NOSIG",
      "taf": "TAF EKCH 101127Z 1012/1112 14012KT 9999 SCT025"
    },
    {
      "icao": "ENAL",
      "alert": "OK",
      "vis_m": 9999,
      "fzfg": false,
      "metar_trigger": false,
      "taf_trigger": false,
      "metar": "METAR ENAL 101150Z 24008KT 210V270 CAVOK 09/M03 Q1010",
      "taf": "TAF ENAL 101100Z 1012/1021 VRB05KT 9999 BKN060"
    },
    {
      "icao": "ENBR",
      "alert": "OK",
      "vis_m": 9999,
      "fzfg": false,
      "metar_trigger": false,
      "taf_trigger": false,
      "metar": "METAR ENBR 101150Z VRB02KT 9999 FEW010 BKN050 04/01 Q1012 NOSIG RMK WIND 1200FT 13010KT",
      "taf": "TAF ENBR 101100Z 1012/1112 15009KT 9999 -RA SCT015 BKN030"
    },
    {
      "icao": "ENGM",
      "alert": "OK",
      "vis_m": 9999,
      "fzfg": false,
      "metar_trigger": false,
      "taf_trigger": false,
      "metar": "METAR ENGM 101150Z COR 14014KT 110V170 CAVOK 06/M05 Q1017 NOSIG",
      "taf": "TAF ENGM 101100Z 1012/1112 14010KT CAVOK"
    },
    {
      "icao": "ENHD",
      "alert": "OK",
      "vis_m": 9999,
      "fzfg": false,
      "metar_trigger": false,
      "taf_trigger": false,
      "metar": "METAR ENHD 101150Z 12011KT 9999 -DZ FEW015 BKN045 04/02 Q1012",
      "taf": "TAF ENHD 101100Z 1012/1021 14012KT 9999 -RA BKN020"
    },
    {
      "icao": "ENTC",
      "alert": "OK",
      "vis_m": 9999,
      "fzfg": false,
      "metar_trigger": false,
      "taf_trigger": false,
      "metar": "METAR ENTC 101150Z 20008KT CAVOK 09/M02 Q1015 NOSIG RMK WIND 2600FT 14004KT",
      "taf": "TAF ENTC 101100Z 1012/1112 20008KT CAVOK"
    },
    {
      "icao": "ENTO",
      "alert": "OK",
      "vis_m": 9999,
      "fzfg": false,
      "metar_trigger": false,
      "taf_trigger": false,
      "metar": "METAR ENTO 101150Z COR 10005KT 040V180 9999 FEW036 05/M03 Q1016 NOSIG",
      "taf": "TAF ENTO 101100Z 1012/1112 10008KT 9999 SCT030"
    },
    {
      "icao": "ENVA",
      "alert": "OK",
      "vis_m": 9999,
      "fzfg": false,
      "metar_trigger": false,
      "taf_trigger": false,
      "metar": "METAR ENVA 101150Z 14013KT 110V170 CAVOK 10/M05 Q1015 TEMPO 16018G28KT RMK WIND 670FT 15025KT",
      "taf": "TAF ENVA 101100Z 1012/1112 14012KT CAVOK"
    },
    {
      "icao": "ENZV",
      "alert": "OK",
      "vis_m": 9999,
      "fzfg": false,
      "metar_trigger": false,
      "taf_trigger": false,
      "metar": "METAR ENZV 101150Z 14008KT 9999 -SHRA BKN030 05/01 Q1012 NOSIG",
      "taf": "TAF ENZV 101100Z 1012/1112 14009KT 9999 -RA BKN025"
    },
    {
      "icao": "EPGD",
      "alert": "OK",
      "vis_m": 9999,
      "fzfg": false,
      "metar_trigger": false,
      "taf_trigger": false,
      "metar": "METAR EPGD 101200Z 05009KT 360V070 9999 FEW045 07/M02 Q1020",
      "taf": "TAF EPGD 101130Z 1012/1112 17006KT 9999 SCT045"
    },
    {
      "icao": "EPKK",
      "alert": "OK",
      "vis_m": 9999,
      "fzfg": false,
      "metar_trigger": false,
      "taf_trigger": false,
      "metar": "METAR EPKK 101200Z 04004KT 350V100 9999 SCT048 07/M05 Q1018",
      "taf": "TAF EPKK 101130Z 1012/1112 07007KT 9999 SCT040"
    },
    {
      "icao": "EPKT",
      "alert": "OK",
      "vis_m": 9999,
      "fzfg": false,
      "metar_trigger": false,
      "taf_trigger": false,
      "metar": "METAR EPKT 101200Z 11007KT 090V150 9999 FEW048 07/M05 Q1018",
      "taf": "TAF EPKT 101130Z 1012/1112 10010KT CAVOK"
    },
    {
      "icao": "EPLB",
      "alert": "OK",
      "vis_m": 9999,
      "fzfg": false,
      "metar_trigger": false,
      "taf_trigger": false,
      "metar": "METAR EPLB 101200Z 29005KT 240V330 9999 OVC039 05/M03 Q1019",
      "taf": "TAF EPLB 101130Z 1012/1112 30005KT 9999 BKN040"
    },
    {
      "icao": "EPMO",
      "alert": "OK",
      "vis_m": 9999,
      "fzfg": false,
      "metar_trigger": false,
      "taf_trigger": false,
      "metar": "METAR EPMO 101200Z VRB03KT CAVOK 08/M04 Q1019",
      "taf": "TAF EPMO 101130Z 1012/1112 VRB05KT 9999 SCT049"
    },
    {
      "icao": "EPPO",
      "alert": "OK",
      "vis_m": 9999,
      "fzfg": false,
      "metar_trigger": false,
      "taf_trigger": false,
      "metar": "METAR EPPO 101200Z 15006KT 110V180 CAVOK 10/M06 Q1018",
      "taf": "TAF EPPO 101130Z 1012/1112 11010KT CAVOK"
    },
    {
      "icao": "EPRA",
      "alert": "OK",
      "vis_m": 9999,
      "fzfg": false,
      "metar_trigger": false,
      "taf_trigger": false,
      "metar": "METAR EPRA 101200Z VRB03KT 9999 BKN046 07/M05 Q1019",
      "taf": "TAF EPRA 101130Z 1012/1021 05005KT 9999 SCT040"
    },
    {
      "icao": "EPRZ",
      "alert": "OK",
      "vis_m": 9999,
      "fzfg": false,
      "metar_trigger": false,
      "taf_trigger": false,
      "metar": "METAR EPRZ 101200Z 30006KT 9999 BKN042 07/M02 Q1019",
      "taf": "TAF EPRZ 101130Z 1012/1112 VRB02KT 9999 BKN040"
    },
    {
      "icao": "EPSC",
      "alert": "OK",
      "vis_m": 9999,
      "fzfg": false,
      "metar_trigger": false,
      "taf_trigger": false,
      "metar": "METAR EPSC 101200Z 16006KT 130V190 CAVOK 09/M04 Q1018",
      "taf": "TAF EPSC 101130Z 1012/1112 14010KT CAVOK"
    },
    {
      "icao": "EPSY",
      "alert": "OK",
      "vis_m": 9999,
      "fzfg": false,
      "metar_trigger": false,
      "taf_trigger": false,
      "metar": "METAR EPSY 101200Z 05005KT 340V110 9999 FEW047 07/M04 Q1019",
      "taf": "TAF EPSY 101130Z 1012/1021 VRB02KT 9999 SCT040"
    },
    {
      "icao": "EPWA",
      "alert": "OK",
      "vis_m": 9999,
      "fzfg": false,
      "metar_trigger": false,
      "taf_trigger": false,
      "metar": "METAR EPWA 101200Z VRB04KT CAVOK 08/M05 Q1019 NOSIG",
      "taf": "TAF EPWA 101130Z 1012/1112 VRB05KT 9999 SCT049"
    },
    {
      "icao": "EPWR",
      "alert": "OK",
      "vis_m": 9999,
      "fzfg": false,
      "metar_trigger": false,
      "taf_trigger": false,
      "metar": "METAR EPWR 101200Z 12007KT 070V160 CAVOK 08/M06 Q1018",
      "taf": "TAF EPWR 101130Z 1012/1112 14010KT CAVOK"
    },
    {
      "icao": "ESGG",
      "alert": "OK",
      "vis_m": 9999,
      "fzfg": false,
      "metar_trigger": false,
      "taf_trigger": false,
      "metar": "METAR ESGG 101150Z 12014KT 090V150 9999 FEW045 08/M03 Q1015",
      "taf": "TAF ESGG 101130Z 1012/1112 15012G22KT CAVOK"
    },
    {
      "icao": "ESKN",
      "alert": "OK",
      "vis_m": 9999,
      "fzfg": false,
      "metar_trigger": false,
      "taf_trigger": false,
      "metar": "METAR ESKN 101150Z 15011KT 120V190 CAVOK 07/M04 Q1023",
      "taf": "TAF ESKN 101130Z 1012/1112 15010KT CAVOK"
    },
    {
      "icao": "ESMS",
      "alert": "OK",
      "vis_m": 9999,
      "fzfg": false,
      "metar_trigger": false,
      "taf_trigger": false,
      "metar": "METAR ESMS 101150Z 14013KT 9999 FEW021 05/M00 Q1018",
      "taf": "TAF ESMS 101127Z 1012/1112 13010KT 9999 SCT025"
    },
    {
      "icao": "ESSA",
      "alert": "OK",
      "vis_m": 9999,
      "fzfg": false,
      "metar_trigger": false,
      "taf_trigger": false,
      "metar": "METAR ESSA 101150Z 20007KT CAVOK 09/M03 Q1023 NOSIG",
      "taf": "TAF ESSA 101130Z 1012/1112 17006KT CAVOK"
    },
    {
      "icao": "EYKA",
      "alert": "OK",
      "vis_m": 9999,
      "fzfg": false,
      "metar_trigger": false,
      "taf_trigger": false,
      "metar": "METAR EYKA 101150Z 36009KT 320V020 CAVOK 10/M03 Q1018",
      "taf": "TAF EYKA 101100Z 1012/1112 36010KT 9000 SCT045"
    },
    {
      "icao": "EYPA",
      "alert": "OK",
      "vis_m": 9999,
      "fzfg": false,
      "metar_trigger": false,
      "taf_trigger": false,
      "metar": "METAR EYPA 101150Z 31004KT 220V010 CAVOK 06/M01 Q1022",
      "taf": "TAF EYPA 101100Z 1012/1112 33010KT 9000 SCT045"
    },
    {
      "icao": "EYVI",
      "alert": "OK",
      "vis_m": 9999,
      "fzfg": false,
      "metar_trigger": false,
      "taf_trigger": false,
      "metar": "METAR EYVI 101150Z 35011KT 320V030 CAVOK 09/M03 Q1016 NOSIG",
      "taf": "TAF EYVI 101100Z 1012/1112 36010KT 9000 NSC"
    },
    {
      "icao": "GCFV",
      "alert": "OK",
      "vis_m": 6000,
      "fzfg": false,
      "metar_trigger": false,
      "taf_trigger": false,
      "metar": "METAR GCFV 101200Z 25019KT 210V280 6000 -SHRA SCT025TCU BKN035 18/13 Q1017",
      "taf": "TAF GCFV 100800Z 1009/1109 30012KT 9999 SCT030 TX21/1014Z TN15/1106Z"
    },
    {
      "icao": "GCLP",
      "alert": "OK",
      "vis_m": 9999,
      "fzfg": false,
      "metar_trigger": false,
      "taf_trigger": false,
      "metar": "METAR GCLP 101200Z 34014KT 310V010 9999 FEW035 BKN055 21/11 Q1018 NOSIG",
      "taf": "TAF GCLP 100800Z 1009/1109 34015KT 9999 SCT030 TX22/1014Z TN15/1106Z"
    },
    {
      "icao": "GCTS",
      "alert": "OK",
      "vis_m": 9999,
      "fzfg": false,
      "metar_trigger": false,
      "taf_trigger": false,
      "metar": "METAR GCTS 101200Z 16008KT 120V210 9999 FEW030 BKN045 21/12 Q1019 NOSIG",
      "taf": "TAF GCTS 100800Z 1009/1109 VRB08KT 9999 SCT030 TX23/1014Z TN16/1106Z"
    },
    {
      "icao": "GMAD",
      "alert": "OK",
      "vis_m": 6000,
      "fzfg": false,
      "metar_trigger": false,
      "taf_trigger": false,
      "metar": "METAR GMAD 101200Z 17004KT 120V230 6000 -RA BKN020 SCT026TCU 17/12 Q1014 NOSIG",
      "taf": "TAF GMAD 101100Z 1012/1118 28012KT 6000 BKN020 SCT023TCU"
    },
    {
      "icao": "GMMN",
      "alert": "OK",
      "vis_m": 9999,
      "fzfg": false,
      "metar_trigger": false,
      "taf_trigger": false,
      "metar": "METAR GMMN 101200Z 36005KT 310V050 9999 SCT020 19/13 Q1014 NOSIG",
      "taf": "TAF GMMN 101100Z 1012/1118 VRB03KT 9999 SCT020"
    },
    {
      "icao": "GMMX",
      "alert": "OK",
      "vis_m": 9999,
      "fzfg": false,
      "metar_trigger": false,
      "taf_trigger": false,
      "metar": "METAR GMMX 101200Z VRB02KT 9999 BKN023 18/12 Q1013 NOSIG",
      "taf": "TAF GMMX 101100Z 1012/1118 32015KT 8000 SCT015 BKN023"
    },
    {
      "icao": "HEGN",
      "alert": "OK",
      "vis_m": 9999,
      "fzfg": false,
      "metar_trigger": false,
      "taf_trigger": false,
      "metar": "METAR HEGN 101100Z 01010KT CAVOK 28/01 Q1015 NOSIG",
      "taf": "TAF HEGN 101100Z 1012/1118 03015KT CAVOK"
    },
    {
      "icao": "HEMA",
      "alert": "OK",
      "vis_m": 9999,
      "fzfg": false,
      "metar_trigger": false,
      "taf_trigger": false,
      "metar": "METAR HEMA 101100Z 01019KT CAVOK 29/M01 Q1015 NOSIG",
      "taf": "TAF HEMA 101100Z 1012/1118 02015KT CAVOK"
    },
    {
      "icao": "HESH",
      "alert": "OK",
      "vis_m": 9999,
      "fzfg": false,
      "metar_trigger": false,
      "taf_trigger": false,
      "metar": "METAR HESH 101100Z 07008KT CAVOK 28/05 Q1013 NOSIG",
      "taf": "TAF HESH 101100Z 1012/1118 13010KT CAVOK"
    },
    {
      "icao": "HESX",
      "alert": "OK",
      "vis_m": 9999,
      "fzfg": false,
      "metar_trigger": false,
      "taf_trigger": false,
      "metar": "METAR HESX 101100Z 27007KT CAVOK 24/07 Q1016 NOSIG",
      "taf": "TAF HESX 101100Z 1012/1118 30010KT CAVOK"
    },
    {
      "icao": "LATI",
      "alert": "OK",
      "vis_m": 9999,
      "fzfg": false,
      "metar_trigger": false,
      "taf_trigger": false,
      "metar": "METAR LATI 101150Z 26008KT 230V290 CAVOK 20/05 Q1015 NOSIG",
      "taf": "TAF LATI 101100Z 1012/1112 29010KT CAVOK TX21/1111Z TN07/1102Z"
    },
    {
      "icao": "LBPD",
      "alert": "OK",
      "vis_m": 9999,
      "fzfg": false,
      "metar_trigger": false,
      "taf_trigger": false,
      "metar": "METAR LBPD 101200Z AUTO 33006KT 290V040 9999 BKN078/// 13/M04 Q1017 NOSIG",
      "taf": "TAF LBPD 101100Z 1012/1112 29012KT 9999 SCT060"
    },
    {
      "icao": "LBSF",
      "alert": "OK",
      "vis_m": 9999,
      "fzfg": false,
      "metar_trigger": false,
      "taf_trigger": false,
      "metar": "METAR LBSF 101200Z 30008KT 250V340 9999 SCT078 BKN088 10/M05 Q1017 NOSIG",
      "taf": "TAF LBSF 101100Z 1012/1112 32010KT 9999 SCT050"
    },
    {
      "icao": "LBWN",
      "alert": "OK",
      "vis_m": 9999,
      "fzfg": false,
      "metar_trigger": false,
      "taf_trigger": false,
      "metar": "METAR LBWN 101200Z AUTO 35010KT 320V030 9999 SCT045/// 09/M00 Q1018 NOSIG",
      "taf": "TAF LBWN 101100Z 1012/1112 01010KT 9999 SCT025 BKN045"
    },
    {
      "icao": "LCLK",
      "alert": "OK",
      "vis_m": 9999,
      "fzfg": false,
      "metar_trigger": false,
      "taf_trigger": false,
      "metar": "METAR LCLK 101200Z 27008KT 230V300 9999 FEW020 FEW030TCU BKN045 21/11 Q1012 NOSIG",
      "taf": "TAF LCLK 101130Z 1012/1112 22020KT 9999 FEW020 SCT040"
    },
    {
      "icao": "LCPH",
      "alert": "OK",
      "vis_m": 9999,
      "fzfg": false,
      "metar_trigger": false,
      "taf_trigger": false,
      "metar": "METAR LCPH 101200Z 31014KT 250V320 9999 FEW025 20/10 Q1013 NOSIG",
      "taf": "TAF LCPH 101130Z 1012/1112 29016KT 9999 FEW020"
    },
    {
      "icao": "LEAL",
      "alert": "OK",
      "vis_m": 9999,
      "fzfg": false,
      "metar_trigger": false,
      "taf_trigger": false,
      "metar": "METAR LEAL 101200Z 06011KT CAVOK 26/06 Q1017 NOSIG",
      "taf": "TAF LEAL 101100Z 1012/1112 07015KT CAVOK TX26/1013Z TN15/1106Z"
    },
    {
      "icao": "LEBB",
      "alert": "OK",
      "vis_m": 9999,
      "fzfg": false,
      "metar_trigger": false,
      "taf_trigger": false,
      "metar": "METAR LEBB 101200Z 10004KT 010V160 CAVOK 25/12 Q1015 NOSIG",
      "taf": "TAF LEBB 101100Z 1012/1112 VRB03KT 9999 SCT025 TX30/1015Z TN13/1107Z"
    },
    {
      "icao": "LEBL",
      "alert": "OK",
      "vis_m": 9999,
      "fzfg": false,
      "metar_trigger": false,
      "taf_trigger": false,
      "metar": "METAR LEBL 101200Z 21010KT CAVOK 20/13 Q1017 NOSIG",
      "taf": "TAF LEBL 101100Z 1012/1112 20009KT CAVOK TX22/1012Z TN12/1106Z"
    },
    {
      "icao": "LECH",
      "alert": "OK",
      "vis_m": 9999,
      "fzfg": false,
      "metar_trigger": false,
      "taf_trigger": false,
      "metar": "METAR LECH 101200Z AUTO 13007KT 090V160 CAVOK 24/04 Q1018",
      "taf": "TAF LECH 101100Z 1012/1112 VRB04KT CAVOK TX27/1014Z TN10/1106Z"
    },
    {
      "icao": "LEMD",
      "alert": "OK",
      "vis_m": 9999,
      "fzfg": false,
      "metar_trigger": false,
      "taf_trigger": false,
      "metar": "METAR LEMD 101200Z 11003KT CAVOK 26/04 Q1017 NOSIG",
      "taf": "TAF LEMD 101100Z 1012/1118 VRB04KT CAVOK TX29/1015Z TN10/1106Z"
    },
    {
      "icao": "LEMG",
      "alert": "OK",
      "vis_m": 9999,
      "fzfg": false,
      "metar_trigger": false,
      "taf_trigger": false,
      "metar": "METAR LEMG 101200Z 13005KT 090V170 CAVOK 20/12 Q1012 NOSIG",
      "taf": ""
    },
    {
      "icao": "LEVC",
      "alert": "OK",
      "vis_m": 9999,
      "fzfg": false,
      "metar_trigger": false,
      "taf_trigger": false,
      "metar": "METAR LEVC 101200Z 09005KT 030V160 9999 FEW068 26/03 Q1017 NOSIG",
      "taf": "TAF LEVC 101100Z 1012/1112 10010KT CAVOK TX28/1013Z TN13/1106Z"
    },
    {
      "icao": "LEXJ",
      "alert": "OK",
      "vis_m": 9000,
      "fzfg": false,
      "metar_trigger": false,
      "taf_trigger": false,
      "metar": "METAR LEXJ 101200Z 06009KT 340V110 9000 NSC 16/13 Q1014",
      "taf": "TAF LEXJ 100800Z 1009/1109 VRB03KT 9999 SCT020 TX24/1014Z TN13/1109Z"
    },
    {
      "icao": "LEZG",
      "alert": "OK",
      "vis_m": 9999,
      "fzfg": false,
      "metar_trigger": false,
      "taf_trigger": false,
      "metar": "METAR LEZG 101200Z 32004KT CAVOK 24/06 Q1017 NOSIG",
      "taf": "TAF LEZG 101100Z 1012/1112 11009KT CAVOK TX30/1015Z TN08/1106Z"
    },
    {
      "icao": "LEZL",
      "alert": "OK",
      "vis_m": 9999,
      "fzfg": false,
      "metar_trigger": false,
      "taf_trigger": false,
      "metar": "METAR LEZL 101200Z 02004KT CAVOK 23/14 Q1012 NOSIG",
      "taf": ""
    },
    {
      "icao": "LFBD",
      "alert": "OK",
      "vis_m": 9999,
      "fzfg": false,
      "metar_trigger": false,
      "taf_trigger": false,
      "metar": "METAR LFBD 101200Z AUTO VRB03KT 9999 BKN016 18/12 Q1018 NOSIG",
      "taf": "TAF LFBD 101100Z 1012/1118 VRB03KT 9999 BKN013 TX26/1016Z TN10/1117Z"
    },
    {
      "icao": "LFLL",
      "alert": "OK",
      "vis_m": 9999,
      "fzfg": false,
      "metar_trigger": false,
      "taf_trigger": false,
      "metar": "METAR LFLL 101200Z 34008G20KT 310V040 9999 FEW030 BKN260 19/11 Q1018 NOSIG",
      "taf": "TAF LFLL 101100Z 1012/1118 35005KT CAVOK"
    },
    {
      "icao": "LFLS",
      "alert": "OK",
      "vis_m": 9999,
      "fzfg": false,
      "metar_trigger": false,
      "taf_trigger": false,
      "metar": "METAR LFLS 101200Z AUTO 33006KT 300V010 CAVOK 20/10 Q1018 NOSIG",
      "taf": "TAF LFLS 100800Z 1009/1109 VRB02KT CAVOK"
    },
    {
      "icao": "LFMN",
      "alert": "OK",
      "vis_m": 9999,
      "fzfg": false,
      "metar_trigger": false,
      "taf_trigger": false,
      "metar": "METAR LFMN 101200Z 12007KT 9999 SCT012 17/13 Q1015 NOSIG",
      "taf": "TAF LFMN 100800Z 1009/1115 12010KT CAVOK"
    },
    {
      "icao": "LFOB",
      "alert": "OK",
      "vis_m": 9999,
      "fzfg": false,
      "metar_trigger": false,
      "taf_trigger": false,
      "metar": "METAR LFOB 101200Z AUTO 11004KT 080V170 CAVOK 13/04 Q1020 NOSIG",
      "taf": "TAF LFOB 101100Z 1012/1112 10005KT CAVOK"
    },
    {
      "icao": "LFPO",
      "alert": "OK",
      "vis_m": 9999,
      "fzfg": false,
      "metar_trigger": false,
      "taf_trigger": false,
      "metar": "METAR LFPO 101200Z 04005KT 350V100 CAVOK 15/02 Q1019 NOSIG",
      "taf": "TAF LFPO 101100Z 1012/1118 VRB03KT CAVOK"
    },
    {
      "icao": "LFSB",
      "alert": "OK",
      "vis_m": 9999,
      "fzfg": false,
      "metar_trigger": false,
      "taf_trigger": false,
      "metar": "METAR LFSB 101200Z AUTO 35009KT 320V020 9999 SCT020 BKN025 BKN030 15/10 Q1018 NOSIG",
      "taf": "TAF LFSB 101100Z 1012/1112 36010KT 9999 BKN025"
    },
    {
      "icao": "LGAV",
      "alert": "OK",
      "vis_m": 9999,
      "fzfg": false,
      "metar_trigger": false,
      "taf_trigger": false,
      "metar": "METAR LGAV 101150Z 07007KT 9999 FEW025 SCT040 17/09 Q1016 NOSIG",
      "taf": "TAF LGAV 101100Z 1012/1112 VRB05KT 9999 SCT025 SCT070"
    },
    {
      "icao": "LGTS",
      "alert": "OK",
      "vis_m": 9999,
      "fzfg": false,
      "metar_trigger": false,
      "taf_trigger": false,
      "metar": "METAR LGTS 101150Z 27006KT 9999 FEW025 17/M00 Q1016 NOSIG",
      "taf": "TAF LGTS 101100Z 1012/1112 13012KT 9999 SCT025"
    },
    {
      "icao": "LHBP",
      "alert": "OK",
      "vis_m": 9999,
      "fzfg": false,
      "metar_trigger": false,
      "taf_trigger": false,
      "metar": "METAR LHBP 101200Z 34003KT 290V050 CAVOK 11/M04 Q1018 NOSIG",
      "taf": "TAF LHBP 101115Z 1012/1112 VRB03KT CAVOK"
    },
    {
      "icao": "LHDC",
      "alert": "OK",
      "vis_m": 9999,
      "fzfg": false,
      "metar_trigger": false,
      "taf_trigger": false,
      "metar": "METAR LHDC 101145Z AUTO VRB04KT CAVOK 10/M07 Q1017 NOSIG",
      "taf": "TAF LHDC 101115Z 1012/1021 32004KT CAVOK"
    },
    {
      "icao": "LIBD",
      "alert": "OK",
      "vis_m": 9999,
      "fzfg": false,
      "metar_trigger": false,
      "taf_trigger": false,
      "metar": "METAR LIBD 101150Z 07009KT CAVOK 18/08 Q1015",
      "taf": "TAF LIBD 101100Z 1012/1112 06012KT CAVOK"
    },
    {
      "icao": "LIBG",
      "alert": "OK",
      "vis_m": 9999,
      "fzfg": false,
      "metar_trigger": false,
      "taf_trigger": false,
      "metar": "METAR LIBG 101150Z 20006KT 140V250 CAVOK 20/11 Q1015",
      "taf": "TAF LIBG 101100Z 1012/1021 19010KT CAVOK"
    },
    {
      "icao": "LIBP",
      "alert": "OK",
      "vis_m": 9999,
      "fzfg": false,
      "metar_trigger": false,
      "taf_trigger": false,
      "metar": "METAR LIBP 101150Z AUTO 07010KT 9999 NCD 19/07 Q1015",
      "taf": "TAF LIBP 101100Z 1012/1112 08012KT CAVOK"
    },
    {
      "icao": "LIBR",
      "alert": "OK",
      "vis_m": 9999,
      "fzfg": false,
      "metar_trigger": false,
      "taf_trigger": false,
      "metar": "METAR LIBR 101150Z 11009KT CAVOK 17/08 Q1016",
      "taf": "TAF LIBR 101100Z 1012/1112 10012KT CAVOK"
    },
    {
      "icao": "LICA",
      "alert": "OK",
      "vis_m": 9999,
      "fzfg": false,
      "metar_trigger": false,
      "taf_trigger": false,
      "metar": "METAR LICA 101150Z AUTO 25010KT 9999 NCD 19/12 Q1017",
      "taf": "TAF LICA 101100Z 1012/1112 26012KT CAVOK"
    },
    {
      "icao": "LICC",
      "alert": "OK",
      "vis_m": 9999,
      "fzfg": false,
      "metar_trigger": false,
      "taf_trigger": false,
      "metar": "METAR LICC 101150Z 09006KT 050V110 CAVOK 22/16 Q1016",
      "taf": "TAF LICC 101100Z 1012/1112 09012KT CAVOK"
    },
    {
      "icao": "LICJ",
      "alert": "OK",
      "vis_m": 9999,
      "fzfg": false,
      "metar_trigger": false,
      "taf_trigger": false,
      "metar": "METAR LICJ 101150Z 29011KT CAVOK 20/13 Q1016",
      "taf": "TAF LICJ 101100Z 1012/1112 29010KT CAVOK"
    },
    {
      "icao": "LIMC",
      "alert": "OK",
      "vis_m": 9999,
      "fzfg": false,
      "metar_trigger": false,
      "taf_trigger": false,
      "metar": "METAR LIMC 101150Z 13004KT 090V180 CAVOK 19/09 Q1014 NOSIG",
      "taf": "TAF LIMC 101100Z 1012/1118 VRB05KT CAVOK"
    },
    {
      "icao": "LIME",
      "alert": "OK",
      "vis_m": 9999,
      "fzfg": false,
      "metar_trigger": false,
      "taf_trigger": false,
      "metar": "METAR LIME 101150Z VRB04KT CAVOK 17/07 Q1014 NOSIG",
      "taf": "TAF LIME 101100Z 1012/1112 VRB05KT CAVOK"
    },
    {
      "icao": "LIMF",
      "alert": "OK",
      "vis_m": 9999,
      "fzfg": false,
      "metar_trigger": false,
      "taf_trigger": false,
      "metar": "METAR LIMF 101150Z 09004KT 040V140 CAVOK 19/10 Q1014",
      "taf": "TAF LIMF 101100Z 1012/1112 VRB05KT CAVOK"
    },
    {
      "icao": "LIMJ",
      "alert": "OK",
      "vis_m": 9999,
      "fzfg": false,
      "metar_trigger": false,
      "taf_trigger": false,
      "metar": "METAR LIMJ 101150Z 21004KT 9999 BKN020 17/13 Q1015",
      "taf": "TAF LIMJ 101100Z 1012/1112 VRB05KT 9999 BKN020"
    },
    {
      "icao": "LIPE",
      "alert": "OK",
      "vis_m": 9999,
      "fzfg": false,
      "metar_trigger": false,
      "taf_trigger": false,
      "metar": "METAR LIPE 101150Z 07004KT 340V120 CAVOK 19/06 Q1014",
      "taf": "TAF LIPE 101100Z 1012/1112 VRB05KT CAVOK"
    },
    {
      "icao": "LIPH",
      "alert": "OK",
      "vis_m": 9999,
      "fzfg": false,
      "metar_trigger": false,
      "taf_trigger": false,
      "metar": "METAR LIPH 101150Z VRB02KT CAVOK 18/05 Q1015",
      "taf": "TAF LIPH 101100Z 1012/1112 VRB05KT CAVOK"
    },
    {
      "icao": "LIPQ",
      "alert": "OK",
      "vis_m": 9999,
      "fzfg": false,
      "metar_trigger": false,
      "taf_trigger": false,
      "metar": "METAR LIPQ 101150Z AUTO 23006KT 170V270 9999 BKN160/// 18/03 Q1015",
      "taf": "TAF LIPQ 101100Z 1012/1112 19010KT CAVOK"
    },
    {
      "icao": "LIPR",
      "alert": "OK",
      "vis_m": 9999,
      "fzfg": false,
      "metar_trigger": false,
      "taf_trigger": false,
      "metar": "METAR LIPR 101150Z 11008KT CAVOK 15/10 Q1015",
      "taf": "TAF LIPR 101100Z 1012/1112 09010KT CAVOK"
    },
    {
      "icao": "LIPX",
      "alert": "OK",
      "vis_m": 9999,
      "fzfg": false,
      "metar_trigger": false,
      "taf_trigger": false,
      "metar": "METAR LIPX 101150Z VRB03KT CAVOK 17/06 Q1014",
      "taf": "TAF LIPX 101100Z 1012/1112 VRB05KT CAVOK"
    },
    {
      "icao": "LIPY",
      "alert": "OK",
      "vis_m": 9999,
      "fzfg": false,
      "metar_trigger": false,
      "taf_trigger": false,
      "metar": "METAR LIPY 101150Z AUTO 07008KT 040V100 9999 NCD 18/11 Q1014",
      "taf": "TAF LIPY 101100Z 1012/1112 10010KT CAVOK"
    },
    {
      "icao": "LIPZ",
      "alert": "OK",
      "vis_m": 9999,
      "fzfg": false,
      "metar_trigger": false,
      "taf_trigger": false,
      "metar": "METAR LIPZ 101150Z 15007KT CAVOK 16/08 Q1015 NOSIG",
      "taf": "TAF LIPZ 101100Z 1012/1118 15010KT CAVOK"
    },
    {
      "icao": "LIRF",
      "alert": "OK",
      "vis_m": 9999,
      "fzfg": false,
      "metar_trigger": false,
      "taf_trigger": false,
      "metar": "METAR LIRF 101150Z 18008KT 140V210 CAVOK 20/11 Q1016 NOSIG",
      "taf": "TAF LIRF 101100Z 1012/1118 19013KT CAVOK"
    },
    {
      "icao": "LIRN",
      "alert": "OK",
      "vis_m": 9999,
      "fzfg": false,
      "metar_trigger": false,
      "taf_trigger": false,
      "metar": "METAR LIRN 101150Z 21008KT 170V240 CAVOK 20/11 Q1016 NOSIG",
      "taf": "TAF LIRN 101100Z 1012/1112 20010KT CAVOK"
    },
    {
      "icao": "LIRP",
      "alert": "OK",
      "vis_m": 9999,
      "fzfg": false,
      "metar_trigger": false,
      "taf_trigger": false,
      "metar": "METAR LIRP 101145Z 25004KT CAVOK 21/10 Q1015 NOSIG",
      "taf": "TAF LIRP 101100Z 1012/1112 25005KT 9999 FEW080"
    },
    {
      "icao": "LIRZ",
      "alert": "OK",
      "vis_m": 9999,
      "fzfg": false,
      "metar_trigger": false,
      "taf_trigger": false,
      "metar": "METAR LIRZ 101150Z AUTO 26006KT 230V290 9999 NCD 21/06 Q1015",
      "taf": "TAF LIRZ 101100Z 1012/1112 22010KT CAVOK"
    },
    {
      "icao": "LJLJ",
      "alert": "OK",
      "vis_m": 9999,
      "fzfg": false,
      "metar_trigger": false,
      "taf_trigger": false,
      "metar": "METAR LJLJ 101200Z 08005KT 9999 BKN100 14/01 Q1015 NOSIG",
      "taf": "TAF LJLJ 101100Z 1012/1112 10005KT 9999 FEW070"
    },
    {
      "icao": "LKMT",
      "alert": "OK",
      "vis_m": 9999,
      "fzfg": false,
      "metar_trigger": false,
      "taf_trigger": false,
      "metar": "METAR LKMT 101200Z VRB02KT CAVOK 08/M03 Q1017 NOSIG",
      "taf": "TAF LKMT 101100Z 1012/1112 VRB02KT 9999 SCT045"
    },
    {
      "icao": "LKPR",
      "alert": "OK",
      "vis_m": 9999,
      "fzfg": false,
      "metar_trigger": false,
      "taf_trigger": false,
      "metar": "METAR LKPR 101200Z 16006KT 9999 FEW015 SCT018 BKN033 03/M00 Q1017 NOSIG",
      "taf": "TAF LKPR 101100Z 1012/1118 14006KT 9999 BKN035"
    },
    {
      "icao": "LLBG",
      "alert": "OK",
      "vis_m": 9999,
      "fzfg": false,
      "metar_trigger": false,
      "taf_trigger": false,
      "metar": "METAR LLBG 101150Z 27010KT 9999 FEW030 22/12 Q1015 NOSIG",
      "taf": "TAF LLBG 101102Z 1012/1112 28012KT 9999 SCT030 TX22/1012Z TN12/1103Z"
    },
    {
      "icao": "LMML",
      "alert": "OK",
      "vis_m": 9999,
      "fzfg": false,
      "metar_trigger": false,
      "taf_trigger": false,
      "metar": "METAR LMML 101145Z 28009KT 250V320 CAVOK 24/12 Q1018 NOSIG",
      "taf": "TAF LMML 101100Z 1012/1112 26008KT CAVOK ."
    },
    {
      "icao": "LOWW",
      "alert": "OK",
      "vis_m": 9999,
      "fzfg": false,
      "metar_trigger": false,
      "taf_trigger": false,
      "metar": "METAR LOWW 101150Z 26005KT 9999 FEW020 BKN026 03/01 Q1019 BECMG 13007KT",
      "taf": "TAF LOWW 101115Z 1012/1118 VRB03KT 9999 -RA FEW012 BKN030 TX13/1115Z TN02/1104Z"
    },
    {
      "icao": "LPFR",
      "alert": "OK",
      "vis_m": 9999,
      "fzfg": false,
      "metar_trigger": false,
      "taf_trigger": false,
      "metar": "METAR LPFR 101200Z 26011KT 9999 FEW025 17/14 Q1013",
      "taf": "TAF LPFR 101100Z 1012/1112 25012KT 9999 FEW030"
    },
    {
      "icao": "LPMA",
      "alert": "OK",
      "vis_m": 9000,
      "fzfg": false,
      "metar_trigger": false,
      "taf_trigger": false,
      "metar": "METAR LPMA 101200Z 36014G24KT 300V040 9000 -SHRA BKN015 FEW018TCU 16/13 Q1019",
      "taf": "TAF LPMA 101100Z 1012/1112 36015KT 9999 SCT015"
    },
    {
      "icao": "LPPR",
      "alert": "OK",
      "vis_m": 9999,
      "fzfg": false,
      "metar_trigger": false,
      "taf_trigger": false,
      "metar": "METAR LPPR 101200Z 13005KT 090V170 CAVOK 28/13 Q1013",
      "taf": "TAF LPPR 101100Z 1012/1112 08007KT CAVOK"
    },
    {
      "icao": "LPPS",
      "alert": "OK",
      "vis_m": 7000,
      "fzfg": false,
      "metar_trigger": false,
      "taf_trigger": false,
      "metar": "METAR LPPS 101200Z 36016KT 7000 VCSH SCT010 BKN030 15/13 Q1019",
      "taf": "TAF LPPS 101100Z 1012/1118 36018KT 9999 SCT012 SCT030"
    },
    {
      "icao": "LPPT",
      "alert": "OK",
      "vis_m": 9999,
      "fzfg": false,
      "metar_trigger": false,
      "taf_trigger": false,
      "metar": "METAR LPPT 101200Z VRB03KT 9999 FEW013 21/15 Q1013",
      "taf": "TAF LPPT 101100Z 1012/1118 23010KT 9999 FEW030"
    },
    {
      "icao": "LQBK",
      "alert": "OK",
      "vis_m": 9999,
      "fzfg": false,
      "metar_trigger": false,
      "taf_trigger": false,
      "metar": "METAR LQBK 101200Z 04004KT 010V110 CAVOK 17/M03 Q1015 NOSIG",
      "taf": "TAF LQBK 101100Z 1012/1112 17005KT CAVOK TX18/1013Z TN05/1104Z"
    },
    {
      "icao": "LQSA",
      "alert": "OK",
      "vis_m": 9999,
      "fzfg": false,
      "metar_trigger": false,
      "taf_trigger": false,
      "metar": "METAR LQSA 101200Z 26005KT 170V330 CAVOK 15/M03 Q1016 NOSIG",
      "taf": "TAF LQSA 101100Z 1012/1112 28006KT 9999 SCT060 TX16/1014Z TN03/1104Z"
    },
    {
      "icao": "LQTZ",
      "alert": "OK",
      "vis_m": 9999,
      "fzfg": false,
      "metar_trigger": false,
      "taf_trigger": false,
      "metar": "METAR LQTZ 101200Z VRB04KT CAVOK 16/M04 Q1016",
      "taf": "TAF LQTZ 101100Z 1012/1112 VRB02KT CAVOK TX16/1013Z TN04/1104Z"
    },
    {
      "icao": "LRBC",
      "alert": "OK",
      "vis_m": 9999,
      "fzfg": false,
      "metar_trigger": false,
      "taf_trigger": false,
      "metar": "METAR LRBC 101200Z 35007KT 310V030 9999 FEW037 BKN055 08/M01 Q1018",
      "taf": "TAF LRBC 101100Z 1012/1021 36010KT 9999 SCT020 BKN045"
    },
    {
      "icao": "LRBS",
      "alert": "OK",
      "vis_m": 9999,
      "fzfg": false,
      "metar_trigger": false,
      "taf_trigger": false,
      "metar": "METAR LRBS 101200Z COR 27006KT 230V360 9999 SCT042 FEW045CB 10/M00 Q1018 NOSIG",
      "taf": "TAF LRBS 101100Z 1012/1112 VRB04KT 9999 SCT045"
    },
    {
      "icao": "LRBV",
      "alert": "OK",
      "vis_m": 9999,
      "fzfg": false,
      "metar_trigger": false,
      "taf_trigger": false,
      "metar": "METAR LRBV 101200Z 06004KT 9999 SCT035 BKN049 BKN072 06/M03 Q1017",
      "taf": "TAF LRBV 101100Z 1012/1021 VRB04KT 9999 SCT025"
    },
    {
      "icao": "LRCL",
      "alert": "OK",
      "vis_m": 9999,
      "fzfg": false,
      "metar_trigger": false,
      "taf_trigger": false,
      "metar": "METAR LRCL 101200Z 16004KT 110V230 9999 BKN069 09/M05 Q1017",
      "taf": "TAF LRCL 101100Z 1012/1021 VRB04KT 9999 SCT045"
    },
    {
      "icao": "LRCV",
      "alert": "OK",
      "vis_m": 9999,
      "fzfg": false,
      "metar_trigger": false,
      "taf_trigger": false,
      "metar": "METAR LRCV 101200Z 19005KT 140V240 9999 SCT040 12/02 Q1018",
      "taf": "TAF LRCV 101100Z 1012/1021 22008KT 9999 SCT035"
    },
    {
      "icao": "LRIA",
      "alert": "OK",
      "vis_m": 9999,
      "fzfg": false,
      "metar_trigger": false,
      "taf_trigger": false,
      "metar": "METAR LRIA 101200Z 30011KT CAVOK 06/M01 Q1018",
      "taf": "TAF LRIA 101100Z 1012/1021 33010KT 9999 BKN040"
    },
    {
      "icao": "LROP",
      "alert": "OK",
      "vis_m": 9999,
      "fzfg": false,
      "metar_trigger": false,
      "taf_trigger": false,
      "metar": "METAR LROP 101200Z 28006KT 220V320 9999 FEW048 10/M03 Q1018 NOSIG",
      "taf": "TAF LROP 101100Z 1012/1112 VRB04KT 9999 SCT045"
    },
    {
      "icao": "LRSB",
      "alert": "OK",
      "vis_m": 9999,
      "fzfg": false,
      "metar_trigger": false,
      "taf_trigger": false,
      "metar": "METAR LRSB 101200Z 25006KT 220V300 9999 VCSH FEW040CB SCT050 09/M03 Q1016",
      "taf": "TAF LRSB 101100Z 1012/1112 VRB04KT 9999 SCT045"
    },
    {
      "icao": "LRSM",
      "alert": "OK",
      "vis_m": 9999,
      "fzfg": false,
      "metar_trigger": false,
      "taf_trigger": false,
      "metar": "METAR LRSM 101200Z 33006KT 270V360 CAVOK 11/M08 Q1017",
      "taf": "TAF LRSM 101100Z 1012/1021 VRB04KT CAVOK"
    },
    {
      "icao": "LRSV",
      "alert": "OK",
      "vis_m": 9999,
      "fzfg": false,
      "metar_trigger": false,
      "taf_trigger": false,
      "metar": "METAR LRSV 101200Z 29009KT 260V340 9999 FEW040 04/M04 Q1017",
      "taf": "TAF LRSV 101100Z 1012/1021 34010KT 9999 BKN035"
    },
    {
      "icao": "LRTM",
      "alert": "OK",
      "vis_m": 9999,
      "fzfg": false,
      "metar_trigger": false,
      "taf_trigger": false,
      "metar": "METAR LRTM 101200Z 23005KT 150V280 9999 BKN034 FEW036TCU 10/M03 Q1017",
      "taf": "TAF LRTM 101100Z 1012/1021 VRB04KT 9999 SCT040"
    },
    {
      "icao": "LRTR",
      "alert": "OK",
      "vis_m": 9999,
      "fzfg": false,
      "metar_trigger": false,
      "taf_trigger": false,
      "metar": "METAR LRTR 101200Z 30009KT 260V340 9999 FEW041 11/M00 Q1017",
      "taf": "TAF LRTR 101100Z 1012/1112 31010KT 9999 SCT035"
    },
    {
      "icao": "LTAC",
      "alert": "OK",
      "vis_m": 9999,
      "fzfg": false,
      "metar_trigger": false,
      "taf_trigger": false,
      "metar": "METAR LTAC 101150Z 36005KT 310V050 9999 SCT035 BKN080 06/M03 Q1012 NOSIG RMK RWY21C 36005KT 300V080 RWY03L 36004KT 330V050 RWY21R 34004KT 260V030 RWY03R VRB03KT RWY21L VRB04KT",
      "taf": "TAF LTAC 101040Z 1012/1112 VRB02KT 9999 SCT035 BKN100"
    },
    {
      "icao": "LTFM",
      "alert": "OK",
      "vis_m": 9999,
      "fzfg": false,
      "metar_trigger": false,
      "taf_trigger": false,
      "metar": "METAR LTFM 101150Z 03012KT 330V080 9999 FEW018TCU SCT025 BKN080 09/04 Q1018 NOSIG RMK RWY17L 04009KT 360V070 RWY34L 02011KT 340V040 RWY16R 04009KT 350V070 RWY36 04012KT 360V070 RWY18 06009KT 010V080",
      "taf": "TAF LTFM 101040Z 1012/1118 02012KT 9999 SCT025 BKN080"
    },
    {
      "icao": "LUKK",
      "alert": "OK",
      "vis_m": 9999,
      "fzfg": false,
      "metar_trigger": false,
      "taf_trigger": false,
      "metar": "METAR LUKK 101200Z 33010KT 290V350 CAVOK 08/M03 Q1017 NOSIG",
      "taf": "TAF LUKK 101101Z 1012/1112 34010KT 9999 BKN035"
    },
    {
      "icao": "LWOH",
      "alert": "OK",
      "vis_m": 9999,
      "fzfg": false,
      "metar_trigger": false,
      "taf_trigger": false,
      "metar": "METAR LWOH 101150Z 16005KT 120V200 9999 FEW043 15/01 Q1015",
      "taf": "TAF LWOH 101115Z 1012/1112 17010KT 9999 FEW040"
    },
    {
      "icao": "LWSK",
      "alert": "OK",
      "vis_m": 9999,
      "fzfg": false,
      "metar_trigger": false,
      "taf_trigger": false,
      "metar": "METAR LWSK 101150Z 03007KT 350V080 CAVOK 15/M01 Q1017 NOSIG",
      "taf": "TAF LWSK 101115Z 1012/1112 04010KT CAVOK"
    },
    {
      "icao": "LYBE",
      "alert": "OK",
      "vis_m": 9999,
      "fzfg": false,
      "metar_trigger": false,
      "taf_trigger": false,
      "metar": "METAR LYBE 101200Z VRB03KT CAVOK 13/M01 Q1018 NOSIG",
      "taf": "TAF LYBE 101100Z 1012/1112 04005KT CAVOK TX14/1013Z TN06/1104Z"
    },
    {
      "icao": "LYNI",
      "alert": "OK",
      "vis_m": 9999,
      "fzfg": false,
      "metar_trigger": false,
      "taf_trigger": false,
      "metar": "METAR LYNI 101200Z 33010KT 280V020 9999 FEW050 SCT080 14/M04 Q1017 NOSIG",
      "taf": "TAF LYNI 101100Z 1012/1112 32012KT 9999 SCT050 BKN080 TX15/1012Z TN06/1105Z"
    },
    {
      "icao": "LYPG",
      "alert": "OK",
      "vis_m": 9999,
      "fzfg": false,
      "metar_trigger": false,
      "taf_trigger": false,
      "metar": "METAR LYPG 101200Z 16005KT 110V200 CAVOK 19/M02 Q1015 TEMPO 15015KT",
      "taf": "TAF LYPG 101100Z 1012/1112 17008KT 9999 FEW090 TX22/1013Z TN11/1104Z"
    },
    {
      "icao": "LZIB",
      "alert": "OK",
      "vis_m": 9999,
      "fzfg": false,
      "metar_trigger": false,
      "taf_trigger": false,
      "metar": "METAR LZIB 101200Z VRB03KT 9999 FEW034 07/M01 Q1019 NOSIG",
      "taf": ""
    },
    {
      "icao": "LZKZ",
      "alert": "OK",
      "vis_m": 9999,
      "fzfg": false,
      "metar_trigger": false,
      "taf_trigger": false,
      "metar": "METAR LZKZ 101200Z VRB02KT CAVOK 09/M07 Q1018 NOSIG",
      "taf": "TAF LZKZ 101115Z 1012/1112 01006KT 9999 FEW045"
    },
    {
      "icao": "LZTT",
      "alert": "OK",
      "vis_m": 9999,
      "fzfg": false,
      "metar_trigger": false,
      "taf_trigger": false,
      "metar": "METAR LZTT 101200Z 24004KT 180V310 9999 FEW060 06/M09 Q1016 NOSIG",
      "taf": "TAF LZTT 101115Z 1012/1112 07007KT 9999 SCT045"
    },
    {
      "icao": "OEJN",
      "alert": "OK",
      "vis_m": 9999,
      "fzfg": false,
      "metar_trigger": false,
      "taf_trigger": false,
      "metar": "METAR OEJN 101200Z 31014KT CAVOK 31/11 Q1011 NOSIG",
      "taf": "TAF OEJN 101100Z 1012/1118 30016KT CAVOK"
    },
    {
      "icao": "OEMA",
      "alert": "OK",
      "vis_m": 9999,
      "fzfg": false,
      "metar_trigger": false,
      "taf_trigger": false,
      "metar": "METAR OEMA 101200Z 23008KT CAVOK 32/M10 Q1013 NOSIG",
      "taf": "TAF OEMA 101100Z 1012/1118 24015KT 7000 NSC"
    },
    {
      "icao": "OJAI",
      "alert": "OK",
      "vis_m": 5000,
      "fzfg": false,
      "metar_trigger": false,
      "taf_trigger": false,
      "metar": "METAR OJAI 101200Z 26017KT 5000 BLDU FEW030 19/05 Q1016 NOSIG",
      "taf": "TAF OJAI 101038Z 1012/1118 25012KT 5000 HZ NSC"
    },
    {
      "icao": "OMAA",
      "alert": "OK",
      "vis_m": null,
      "fzfg": false,
      "metar_trigger": false,
      "taf_trigger": false,
      "metar": "",
      "taf": ""
    },
    {
      "icao": "OMDB",
      "alert": "OK",
      "vis_m": null,
      "fzfg": false,
      "metar_trigger": false,
      "taf_trigger": false,
      "metar": "",
      "taf": ""
    },
    {
      "icao": "UAAA",
      "alert": "OK",
      "vis_m": 9999,
      "fzfg": false,
      "metar_trigger": false,
      "taf_trigger": false,
      "metar": "METAR UAAA 101200Z 08002MPS 9999 SCT050CB BKN100 18/07 Q1020 NOSIG",
      "taf": "TAF UAAA 101101Z 1012/1112 21002G07MPS 9999 SCT050CB BKN100 TX19/1108Z TN07/1101Z"
    },
    {
      "icao": "UBBB",
      "alert": "OK",
      "vis_m": 9999,
      "fzfg": false,
      "metar_trigger": false,
      "taf_trigger": false,
      "metar": "METAR UBBB 101200Z 18018KT 9999 BKN012 15/11 Q1012 NOSIG",
      "taf": "TAF UBBB 101056Z 1012/1112 17016KT 9999 SCT012 BKN025 TX14/1012Z TN07/1101Z"
    },
    {
      "icao": "UDSG",
      "alert": "OK",
      "vis_m": 9999,
      "fzfg": false,
      "metar_trigger": false,
      "taf_trigger": false,
      "metar": "METAR UDSG 101200Z 21015KT 9999 BKN030CB 08/02 Q1011 NOSIG",
      "taf": "TAF UDSG 101058Z 1012/1112 18010KT 9999 BKN030"
    },
    {
      "icao": "UDYZ",
      "alert": "OK",
      "vis_m": 9999,
      "fzfg": false,
      "metar_trigger": false,
      "taf_trigger": false,
      "metar": "METAR UDYZ 101200Z 01006KT 340V050 9999 VCTS SCT043CB 15/06 Q1009 TEMPO -TSRA",
      "taf": "TAF UDYZ 101100Z 1012/1112 30006KT 9999 SCT040"
    },
    {
      "icao": "UGKO",
      "alert": "OK",
      "vis_m": 9999,
      "fzfg": false,
      "metar_trigger": false,
      "taf_trigger": false,
      "metar": "METAR UGKO 101200Z 24005KT 9999 -SHRA SCT030CB BKN045 11/07 Q1013 NOSIG",
      "taf": "TAF UGKO 101100Z 1012/1112 26007KT 9999 SCT022 BKN050 TX13/1111Z TN05/1103Z"
    }
  ]
}