{
  "ts_utc": "2026-01-06T10:47:31Z",
  "threshold_m": 150,
  "source": "stations_override.txt (ICAO list) + aviationweather.gov (METAR/TAF raw)",
  "station_count": 159,
  "stations": [
    {
      "icao": "BIKF",
      "alert": "OK",
      "vis_m": 9999,
      "fzfg": false,
      "metar_trigger": false,
      "taf_trigger": false,
      "metar": "METAR BIKF 061030Z 08005KT CAVOK M04/M09 Q1021",
      "taf": "TAF BIKF 061033Z 0612/0712 07013KT CAVOK TXM01/0707Z TNM04/0612Z"
    },
    {
      "icao": "BKPR",
      "alert": "OK",
      "vis_m": 7000,
      "fzfg": false,
      "metar_trigger": false,
      "taf_trigger": false,
      "metar": "METAR BKPR 061030Z 17004KT 7000 -RA SCT012 BKN030 07/07 Q1009 NOSIG",
      "taf": "TAF BKPR 060530Z 0606/0706 17008KT 9999 SCT020 BKN040"
    },
    {
      "icao": "EBCI",
      "alert": "OK",
      "vis_m": 500,
      "fzfg": true,
      "metar_trigger": false,
      "taf_trigger": false,
      "metar": "METAR EBCI 061020Z 23009KT 0500 R24/0700U FZFG BKN002 BKN003 M03/M03 Q1017 TEMPO 0500 FZFG BKN001",
      "taf": "TAF EBCI 060500Z 0606/0712 26007KT 9999 SCT006 BKN010"
    },
    {
      "icao": "EDDB",
      "alert": "OK",
      "vis_m": 9999,
      "fzfg": false,
      "metar_trigger": false,
      "taf_trigger": false,
      "metar": "METAR EDDB 061020Z AUTO 18004KT 9999 -SN BKN011 OVC017 M05/M07 Q1014 BECMG BKN015",
      "taf": "TAF EDDB 060500Z 0606/0706 09004KT CAVOK"
    },
    {
      "icao": "EDDH",
      "alert": "OK",
      "vis_m": 6000,
      "fzfg": false,
      "metar_trigger": false,
      "taf_trigger": false,
      "metar": "METAR EDDH 061020Z AUTO 23008KT 200V260 6000 BKN007 M00/M02 Q1013 TEMPO 4500 -SN",
      "taf": "TAF EDDH 060500Z 0606/0712 20005KT 8000 OVC007"
    },
    {
      "icao": "EDDK",
      "alert": "OK",
      "vis_m": 9999,
      "fzfg": false,
      "metar_trigger": false,
      "taf_trigger": false,
      "metar": "METAR EDDK 061020Z AUTO VRB02KT 9999 OVC012 M01/M03 Q1017 NOSIG",
      "taf": "TAF EDDK 060500Z 0606/0712 21004KT 9999 BKN010"
    },
    {
      "icao": "EDDN",
      "alert": "OK",
      "vis_m": 9999,
      "fzfg": false,
      "metar_trigger": false,
      "taf_trigger": false,
      "metar": "METAR EDDN 061020Z AUTO 11004KT 9999 -SN FEW008 BKN023 OVC039 M06/M10 Q1016 TEMPO BKN014",
      "taf": ""
    },
    {
      "icao": "EDDS",
      "alert": "OK",
      "vis_m": 9999,
      "fzfg": false,
      "metar_trigger": false,
      "taf_trigger": false,
      "metar": "METAR EDDS 061020Z AUTO VRB02KT 9999 FEW006 BKN016 OVC021 M05/M07 Q1015 NOSIG",
      "taf": ""
    },
    {
      "icao": "EDFH",
      "alert": "OK",
      "vis_m": 5000,
      "fzfg": false,
      "metar_trigger": false,
      "taf_trigger": false,
      "metar": "METAR EDFH 061020Z 28006KT 5000 BR OVC002 M04/M05 Q1014",
      "taf": ""
    },
    {
      "icao": "EDJA",
      "alert": "OK",
      "vis_m": 9999,
      "fzfg": false,
      "metar_trigger": false,
      "taf_trigger": false,
      "metar": "METAR EDJA 061020Z 22005KT CAVOK M08/M12 Q1014",
      "taf": "TAF EDJA 060800Z 0609/0618 VRB03KT CAVOK"
    },
    {
      "icao": "EDLW",
      "alert": "OK",
      "vis_m": 9999,
      "fzfg": false,
      "metar_trigger": false,
      "taf_trigger": false,
      "metar": "METAR EDLW 061020Z 23008KT 9999 SCT008 OVC010 M01/M03 Q1015",
      "taf": "TAF EDLW 060500Z 0606/0706 21008KT 9999 BKN012"
    },
    {
      "icao": "EDNY",
      "alert": "OK",
      "vis_m": 9999,
      "fzfg": false,
      "metar_trigger": false,
      "taf_trigger": false,
      "metar": "METAR EDNY 061020Z VRB02KT 9999 OVC012 M05/M08 Q1016",
      "taf": "TAF EDNY 060800Z 0609/0618 VRB03KT 9999 OVC012"
    },
    {
      "icao": "EDSB",
      "alert": "OK",
      "vis_m": 9999,
      "fzfg": false,
      "metar_trigger": false,
      "taf_trigger": false,
      "metar": "METAR EDSB 061020Z 21004KT 9999 OVC013 M03/M06 Q1018",
      "taf": ""
    },
    {
      "icao": "EETN",
      "alert": "OK",
      "vis_m": 9000,
      "fzfg": false,
      "metar_trigger": false,
      "taf_trigger": false,
      "metar": "METAR EETN 061020Z 11011KT 9000 -SN BKN005 OVC019 M09/M10 Q1018 NOSIG",
      "taf": ""
    },
    {
      "icao": "EFTU",
      "alert": "OK",
      "vis_m": 9999,
      "fzfg": false,
      "metar_trigger": false,
      "taf_trigger": false,
      "metar": "METAR EFTU 061020Z AUTO 10012KT 9999 BKN016 M07/M09 Q1016",
      "taf": "TAF EFTU 060830Z 0609/0709 10010KT 9999 BKN020"
    },
    {
      "icao": "EGBB",
      "alert": "OK",
      "vis_m": 9999,
      "fzfg": false,
      "metar_trigger": false,
      "taf_trigger": false,
      "metar": "METAR EGBB 061020Z 22005KT CAVOK M00/M02 Q1016",
      "taf": ""
    },
    {
      "icao": "EGGP",
      "alert": "OK",
      "vis_m": 9999,
      "fzfg": false,
      "metar_trigger": false,
      "taf_trigger": false,
      "metar": "METAR EGGP 061020Z 17004KT 9999 VCSH FEW022 01/00 Q1014",
      "taf": "TAF EGGP 060454Z 0606/0706 31005KT 9999 FEW030"
    },
    {
      "icao": "EGGW",
      "alert": "OK",
      "vis_m": 9999,
      "fzfg": false,
      "metar_trigger": false,
      "taf_trigger": false,
      "metar": "METAR EGGW 061020Z AUTO 25009KT 9999 FEW031 BKN047 00/M01 Q1016",
      "taf": ""
    },
    {
      "icao": "EGKK",
      "alert": "OK",
      "vis_m": 9999,
      "fzfg": false,
      "metar_trigger": false,
      "taf_trigger": false,
      "metar": "METAR EGKK 061020Z 23005KT 9999 FEW039 M00/M02 Q1018",
      "taf": "TAF EGKK 060455Z 0606/0712 24005KT CAVOK"
    },
    {
      "icao": "EGNM",
      "alert": "OK",
      "vis_m": 1800,
      "fzfg": false,
      "metar_trigger": false,
      "taf_trigger": false,
      "metar": "METAR EGNM 061020Z 20005KT 1800 BR BKN002 M00/M01 Q1012",
      "taf": ""
    },
    {
      "icao": "EGPD",
      "alert": "OK",
      "vis_m": 9999,
      "fzfg": false,
      "metar_trigger": false,
      "taf_trigger": false,
      "metar": "METAR EGPD 061020Z COR 15006KT CAVOK M01/M02 Q1006 NOSIG",
      "taf": "TAF EGPD 060456Z 0606/0706 20004KT 9999 FEW012"
    },
    {
      "icao": "EGPF",
      "alert": "OK",
      "vis_m": 7000,
      "fzfg": false,
      "metar_trigger": false,
      "taf_trigger": false,
      "metar": "METAR EGPF 061020Z 09004KT 7000 -RA FEW018TCU SCT030 BKN041 00/M00 Q1008",
      "taf": ""
    },
    {
      "icao": "EHBK",
      "alert": "OK",
      "vis_m": 9999,
      "fzfg": false,
      "metar_trigger": false,
      "taf_trigger": false,
      "metar": "METAR EHBK 061025Z AUTO 22008KT 9999 OVC033/// M01/M02 Q1017 NOSIG",
      "taf": "TAF EHBK 060523Z 0606/0712 20008KT 6000 BKN018"
    },
    {
      "icao": "EHEH",
      "alert": "OK",
      "vis_m": 4600,
      "fzfg": false,
      "metar_trigger": false,
      "taf_trigger": false,
      "metar": "SPECI EHEH 061027Z AUTO 21006KT 4600 BR SCT001 SCT002 BKN004 M01/M01 Q1017 YLO TEMPO 1500 -SHSN SCT002 BKN003 SCT15CB RMK TREND REMOTE BY EHWX LVP A",
      "taf": ""
    },
    {
      "icao": "EKBI",
      "alert": "OK",
      "vis_m": 1400,
      "fzfg": true,
      "metar_trigger": false,
      "taf_trigger": false,
      "metar": "METAR EKBI 061020Z 14004KT 1400 R09/0900N R27/0550N BCFG BKN002 M03/M04 Q1010",
      "taf": "TAF EKBI 060827Z 0609/0709 VRB02KT 0200 FZFG VV002"
    },
    {
      "icao": "EKCH",
      "alert": "OK",
      "vis_m": 4000,
      "fzfg": false,
      "metar_trigger": false,
      "taf_trigger": false,
      "metar": "METAR EKCH 061033Z 22001KT 4000 BR BKN040 M02/M02 Q1012 BECMG 5000",
      "taf": ""
    },
    {
      "icao": "ENAL",
      "alert": "OK",
      "vis_m": 9999,
      "fzfg": false,
      "metar_trigger": false,
      "taf_trigger": false,
      "metar": "METAR ENAL 061020Z 14013KT CAVOK M05/M13 Q1011",
      "taf": "TAF ENAL 060800Z 0609/0618 14012KT CAVOK"
    },
    {
      "icao": "ENBR",
      "alert": "OK",
      "vis_m": 9999,
      "fzfg": false,
      "metar_trigger": false,
      "taf_trigger": false,
      "metar": "METAR ENBR 061020Z 00000KT CAVOK M07/M13 Q1011 NOSIG RMK WIND 1200FT 12010KT",
      "taf": "TAF ENBR 060500Z 0606/0706 07005KT CAVOK"
    },
    {
      "icao": "ENGM",
      "alert": "OK",
      "vis_m": 5000,
      "fzfg": false,
      "metar_trigger": false,
      "taf_trigger": false,
      "metar": "METAR ENGM 061020Z 01009KT 5000 -SN BR FEW017 SCT029 OVC049 M08/M11 Q1012 TEMPO 4000",
      "taf": "TAF ENGM 060500Z 0606/0706 01009KT 8000 -SN FEW008 BKN020"
    },
    {
      "icao": "ENHD",
      "alert": "OK",
      "vis_m": 9999,
      "fzfg": false,
      "metar_trigger": false,
      "taf_trigger": false,
      "metar": "METAR ENHD 061020Z 09006KT CAVOK M05/M08 Q1011",
      "taf": "TAF ENHD 060800Z 0609/0618 09008KT 9999 FEW030"
    },
    {
      "icao": "ENTC",
      "alert": "OK",
      "vis_m": 9999,
      "fzfg": false,
      "metar_trigger": false,
      "taf_trigger": false,
      "metar": "METAR ENTC 061020Z VRB02KT CAVOK M13/M16 Q1019 NOSIG RMK WIND 2600FT 16008KT",
      "taf": "TAF ENTC 060500Z 0606/0706 22005KT CAVOK"
    },
    {
      "icao": "ENTO",
      "alert": "OK",
      "vis_m": 9999,
      "fzfg": false,
      "metar_trigger": false,
      "taf_trigger": false,
      "metar": "METAR ENTO 061020Z 35010KT 9999 BKN013 M09/M12 Q1012 NOSIG",
      "taf": ""
    },
    {
      "icao": "ENVA",
      "alert": "OK",
      "vis_m": 9999,
      "fzfg": false,
      "metar_trigger": false,
      "taf_trigger": false,
      "metar": "METAR ENVA 061020Z 11009KT CAVOK M17/M20 Q1016 NOSIG RMK WIND 670FT 12008KT",
      "taf": "TAF ENVA 060500Z 0606/0706 12008KT CAVOK"
    },
    {
      "icao": "ENZV",
      "alert": "OK",
      "vis_m": 9999,
      "fzfg": false,
      "metar_trigger": false,
      "taf_trigger": false,
      "metar": "METAR ENZV 061020Z 00000KT 9999 OVC031 M04/M05 Q1010 NOSIG",
      "taf": "TAF ENZV 060500Z 0606/0706 06008KT 9999 FEW010 BKN035"
    },
    {
      "icao": "EPGD",
      "alert": "OK",
      "vis_m": 9000,
      "fzfg": false,
      "metar_trigger": false,
      "taf_trigger": false,
      "metar": "METAR EPGD 061030Z 24003KT 220V310 9000 NSC M03/M07 Q1012",
      "taf": ""
    },
    {
      "icao": "EPKK",
      "alert": "OK",
      "vis_m": 9999,
      "fzfg": false,
      "metar_trigger": false,
      "taf_trigger": false,
      "metar": "METAR EPKK 061030Z 27007KT CAVOK M03/M08 Q1014",
      "taf": "TAF EPKK 060830Z 0609/0709 27010KT 7000 SCT060"
    },
    {
      "icao": "EPKT",
      "alert": "OK",
      "vis_m": 9999,
      "fzfg": false,
      "metar_trigger": false,
      "taf_trigger": false,
      "metar": "METAR EPKT 061030Z 25003KT CAVOK M05/M08 Q1013",
      "taf": "TAF EPKT 060530Z 0606/0706 27005KT 3500 BR NSC"
    },
    {
      "icao": "EPLB",
      "alert": "OK",
      "vis_m": 9999,
      "fzfg": false,
      "metar_trigger": false,
      "taf_trigger": false,
      "metar": "METAR EPLB 061030Z 29006KT 9999 OVC010 M03/M04 Q1011",
      "taf": ""
    },
    {
      "icao": "EPMO",
      "alert": "OK",
      "vis_m": 1900,
      "fzfg": false,
      "metar_trigger": false,
      "taf_trigger": false,
      "metar": "METAR EPMO 061030Z 26007KT 1900 BR NSC M10/M11 Q1013",
      "taf": ""
    },
    {
      "icao": "EPPO",
      "alert": "OK",
      "vis_m": 9000,
      "fzfg": false,
      "metar_trigger": false,
      "taf_trigger": false,
      "metar": "METAR EPPO 061030Z 23003KT 9000 NSC M06/M09 Q1014",
      "taf": ""
    },
    {
      "icao": "EPRA",
      "alert": "OK",
      "vis_m": 9999,
      "fzfg": false,
      "metar_trigger": false,
      "taf_trigger": false,
      "metar": "METAR EPRA 061030Z 29006KT CAVOK M05/M09 Q1012",
      "taf": "TAF EPRA 060830Z 0609/0618 29005KT 8000 NSC"
    },
    {
      "icao": "EPRZ",
      "alert": "OK",
      "vis_m": 9999,
      "fzfg": false,
      "metar_trigger": false,
      "taf_trigger": false,
      "metar": "METAR EPRZ 061030Z 27009KT 9999 FEW015 M02/M05 Q1012",
      "taf": "TAF EPRZ 060530Z 0606/0706 26010KT 7000 -SN FEW005 OVC017"
    },
    {
      "icao": "EPSC",
      "alert": "OK",
      "vis_m": 9999,
      "fzfg": false,
      "metar_trigger": false,
      "taf_trigger": false,
      "metar": "METAR EPSC 061030Z 17004KT 9999 FEW006 M05/M07 Q1013",
      "taf": "TAF EPSC 060530Z 0606/0706 18006KT 9999 SCT035"
    },
    {
      "icao": "EPSY",
      "alert": "OK",
      "vis_m": 6000,
      "fzfg": false,
      "metar_trigger": false,
      "taf_trigger": false,
      "metar": "METAR EPSY 061030Z VRB02KT 6000 BKN026 M06/M07 Q1012",
      "taf": "TAF EPSY 060830Z 0609/0618 VRB02KT 9999 SCT030"
    },
    {
      "icao": "EPWA",
      "alert": "OK",
      "vis_m": 5000,
      "fzfg": false,
      "metar_trigger": false,
      "taf_trigger": false,
      "metar": "METAR EPWA 061030Z 28005KT 5000 BR SCT027 M09/M11 Q1013 NOSIG",
      "taf": ""
    },
    {
      "icao": "EPWR",
      "alert": "OK",
      "vis_m": 9999,
      "fzfg": false,
      "metar_trigger": false,
      "taf_trigger": false,
      "metar": "METAR EPWR 061030Z 27003KT CAVOK M02/M08 Q1015",
      "taf": "TAF EPWR 060830Z 0609/0709 28003KT 9999 BKN033"
    },
    {
      "icao": "ESGG",
      "alert": "OK",
      "vis_m": 2300,
      "fzfg": false,
      "metar_trigger": false,
      "taf_trigger": false,
      "metar": "METAR ESGG 061020Z VRB03KT 2300 VV002 M08/M10 Q1011",
      "taf": ""
    },
    {
      "icao": "ESKN",
      "alert": "OK",
      "vis_m": 750,
      "fzfg": false,
      "metar_trigger": false,
      "taf_trigger": false,
      "metar": "METAR ESKN 061020Z 30006KT 0750 R08/1400D R26/1500N SN VV010 M04/M05 Q1009",
      "taf": "TAF ESKN 060830Z 0609/0709 VRB03KT 9000 -SN SCT006 BKN030"
    },
    {
      "icao": "ESMS",
      "alert": "CRITICAL",
      "vis_m": 50,
      "fzfg": true,
      "metar_trigger": true,
      "taf_trigger": false,
      "metar": "METAR ESMS 061020Z 00000KT 0050 R17/0175N R35/0450N FZFG VV002 M03/M03 Q1011",
      "taf": ""
    },
    {
      "icao": "ESSA",
      "alert": "OK",
      "vis_m": 9999,
      "fzfg": false,
      "metar_trigger": false,
      "taf_trigger": false,
      "metar": "METAR ESSA 061020Z 08009KT 9999 FEW028 BKN051 M02/M03 Q1010 NOSIG",
      "taf": ""
    },
    {
      "icao": "EYKA",
      "alert": "OK",
      "vis_m": 2400,
      "fzfg": false,
      "metar_trigger": false,
      "taf_trigger": false,
      "metar": "METAR EYKA 061020Z 08006KT 2400 SN BR OVC027 M07/M08 Q1014",
      "taf": "TAF EYKA 060526Z 0606/0706 09007KT 9000 NSC"
    },
    {
      "icao": "EYPA",
      "alert": "OK",
      "vis_m": 9999,
      "fzfg": false,
      "metar_trigger": false,
      "taf_trigger": false,
      "metar": "METAR EYPA 061020Z COR 15009KT CAVOK M04/M06 Q1013",
      "taf": "TAF EYPA 060515Z 0606/0706 15010KT 7000 BKN035"
    },
    {
      "icao": "EYVI",
      "alert": "OK",
      "vis_m": 2200,
      "fzfg": false,
      "metar_trigger": false,
      "taf_trigger": false,
      "metar": "METAR EYVI 061020Z 09007KT 2200 -SN BR OVC036 M06/M08 Q1013 NOSIG",
      "taf": "TAF EYVI 060509Z 0606/0706 VRB04KT 9000 BKN020"
    },
    {
      "icao": "GCFV",
      "alert": "OK",
      "vis_m": 9999,
      "fzfg": false,
      "metar_trigger": false,
      "taf_trigger": false,
      "metar": "METAR GCFV 061030Z 01021KT 9999 SCT045 17/10 Q1024",
      "taf": "TAF GCFV 060800Z 0609/0709 02018KT 9999 SCT035 TX21/0614Z TN15/0706Z"
    },
    {
      "icao": "GCLP",
      "alert": "OK",
      "vis_m": 9999,
      "fzfg": false,
      "metar_trigger": false,
      "taf_trigger": false,
      "metar": "METAR GCLP 061030Z 36019KT 330V030 9999 FEW040 BKN055 18/09 Q1024 NOSIG",
      "taf": "TAF GCLP 060800Z 0609/0709 36019KT 9999 FEW030 SCT045 TX21/0614Z TN15/0706Z"
    },
    {
      "icao": "GCTS",
      "alert": "OK",
      "vis_m": 9999,
      "fzfg": false,
      "metar_trigger": false,
      "taf_trigger": false,
      "metar": "METAR GCTS 061030Z 07021KT 9999 FEW050 19/08 Q1024 NOSIG",
      "taf": "TAF GCTS 060800Z 0609/0709 08018KT 9999 SCT045 TX23/0614Z TN16/0706Z"
    },
    {
      "icao": "GMAD",
      "alert": "OK",
      "vis_m": 9999,
      "fzfg": false,
      "metar_trigger": false,
      "taf_trigger": false,
      "metar": "METAR GMAD 061030Z 30007KT 9999 FEW026 17/05 Q1018 NOSIG",
      "taf": "TAF GMAD 060500Z 0606/0712 24006KT 8000 SCT023"
    },
    {
      "icao": "GMMN",
      "alert": "OK",
      "vis_m": 9999,
      "fzfg": false,
      "metar_trigger": false,
      "taf_trigger": false,
      "metar": "METAR GMMN 061030Z 29004KT 230V350 9999 BKN024 12/09 Q1021 NOSIG",
      "taf": "TAF GMMN 060500Z 0606/0712 25006KT 9999 BKN030"
    },
    {
      "icao": "GMMX",
      "alert": "OK",
      "vis_m": 8000,
      "fzfg": false,
      "metar_trigger": false,
      "taf_trigger": false,
      "metar": "METAR GMMX 061030Z 27006KT 8000 SCT023 BKN080 11/07 Q1021 NOSIG",
      "taf": ""
    },
    {
      "icao": "HEGN",
      "alert": "OK",
      "vis_m": 9999,
      "fzfg": false,
      "metar_trigger": false,
      "taf_trigger": false,
      "metar": "METAR HEGN 061000Z 34005KT CAVOK 24/03 Q1019 NOSIG",
      "taf": "TAF HEGN 060500Z 0606/0712 32013KT CAVOK"
    },
    {
      "icao": "HEMA",
      "alert": "OK",
      "vis_m": 6000,
      "fzfg": false,
      "metar_trigger": false,
      "taf_trigger": false,
      "metar": "METAR HEMA 061000Z 35014KT 6000 NSC 25/11 Q1018 NOSIG",
      "taf": "TAF HEMA 060500Z 0606/0712 33014KT CAVOK"
    },
    {
      "icao": "HESH",
      "alert": "OK",
      "vis_m": 9999,
      "fzfg": false,
      "metar_trigger": false,
      "taf_trigger": false,
      "metar": "METAR HESH 061000Z 01012KT CAVOK 25/13 Q1019 NOSIG",
      "taf": "TAF HESH 060500Z 0606/0712 35011KT CAVOK"
    },
    {
      "icao": "HESX",
      "alert": "OK",
      "vis_m": 9999,
      "fzfg": false,
      "metar_trigger": false,
      "taf_trigger": false,
      "metar": "METAR HESX 061000Z VRB03KT CAVOK 17/03 Q1020 NOSIG",
      "taf": "TAF HESX 060500Z 0606/0712 VRB02KT 6000 NSC"
    },
    {
      "icao": "LATI",
      "alert": "OK",
      "vis_m": null,
      "fzfg": false,
      "metar_trigger": false,
      "taf_trigger": false,
      "metar": "",
      "taf": "TAF LATI 060500Z 0606/0706 VRB04KT 9999 RA BKN030 OVC060 TX16/0612Z TN12/0705Z"
    },
    {
      "icao": "LBPD",
      "alert": "OK",
      "vis_m": 9999,
      "fzfg": false,
      "metar_trigger": false,
      "taf_trigger": false,
      "metar": "METAR LBPD 061030Z AUTO 27004KT 240V310 9999 FEW130/// BKN150/// 11/10 Q1010 NOSIG",
      "taf": ""
    },
    {
      "icao": "LBSF",
      "alert": "OK",
      "vis_m": 9999,
      "fzfg": false,
      "metar_trigger": false,
      "taf_trigger": false,
      "metar": "METAR LBSF 061030Z 09008KT 9999 SCT051 BKN077 13/06 Q1009 NOSIG",
      "taf": "TAF LBSF 060500Z 0606/0706 10012KT 9999 SCT040 BKN060"
    },
    {
      "icao": "LBWN",
      "alert": "OK",
      "vis_m": 9999,
      "fzfg": false,
      "metar_trigger": false,
      "taf_trigger": false,
      "metar": "METAR LBWN 061030Z 11009KT 9999 FEW034 BKN040 15/11 Q1010 NOSIG",
      "taf": "TAF LBWN 060500Z 0606/0706 11008KT 9999 SCT030"
    },
    {
      "icao": "LCLK",
      "alert": "OK",
      "vis_m": 9999,
      "fzfg": false,
      "metar_trigger": false,
      "taf_trigger": false,
      "metar": "METAR LCLK 061030Z 05006KT CAVOK 20/12 Q1020 NOSIG",
      "taf": "TAF LCLK 060530Z 0606/0706 35010KT CAVOK"
    },
    {
      "icao": "LCPH",
      "alert": "OK",
      "vis_m": 9999,
      "fzfg": false,
      "metar_trigger": false,
      "taf_trigger": false,
      "metar": "METAR LCPH 061030Z 15011KT 9999 FEW035 21/12 Q1019 NOSIG",
      "taf": "TAF LCPH 060530Z 0606/0706 06008KT 9999 FEW040"
    },
    {
      "icao": "LEAL",
      "alert": "OK",
      "vis_m": 9999,
      "fzfg": false,
      "metar_trigger": false,
      "taf_trigger": false,
      "metar": "METAR LEAL 061030Z 32008KT 9999 FEW030 SCT062 09/M02 Q1013 NOSIG",
      "taf": "TAF LEAL 060500Z 0606/0706 VRB04KT 9999 SCT020 TX12/0614Z TN04/0606Z"
    },
    {
      "icao": "LEBB",
      "alert": "OK",
      "vis_m": 3500,
      "fzfg": false,
      "metar_trigger": false,
      "taf_trigger": false,
      "metar": "METAR LEBB 061030Z 33010KT 290V350 3500 RA SCT017 BKN024 OVC033 04/03 Q1023 TEMPO 6000",
      "taf": ""
    },
    {
      "icao": "LEBL",
      "alert": "OK",
      "vis_m": 9999,
      "fzfg": false,
      "metar_trigger": false,
      "taf_trigger": false,
      "metar": "METAR LEBL 061030Z 33017KT 290V350 CAVOK 05/M02 Q1012 NOSIG",
      "taf": "TAF LEBL 060500Z 0606/0706 34013KT 9999 FEW025 TX11/0613Z TN00/0706Z"
    },
    {
      "icao": "LECH",
      "alert": "OK",
      "vis_m": 9999,
      "fzfg": false,
      "metar_trigger": false,
      "taf_trigger": false,
      "metar": "METAR LECH 061030Z AUTO 33022G35KT 300V020 CAVOK 06/M03 Q1012",
      "taf": ""
    },
    {
      "icao": "LEMD",
      "alert": "OK",
      "vis_m": 9999,
      "fzfg": false,
      "metar_trigger": false,
      "taf_trigger": false,
      "metar": "METAR LEMD 061030Z 36020KT 330V040 CAVOK 03/M09 Q1017 NOSIG",
      "taf": ""
    },
    {
      "icao": "LEMG",
      "alert": "OK",
      "vis_m": 9999,
      "fzfg": false,
      "metar_trigger": false,
      "taf_trigger": false,
      "metar": "METAR LEMG 061030Z 31016G27KT 280V340 CAVOK 08/M03 Q1016 NOSIG",
      "taf": ""
    },
    {
      "icao": "LEVC",
      "alert": "OK",
      "vis_m": 9999,
      "fzfg": false,
      "metar_trigger": false,
      "taf_trigger": false,
      "metar": "METAR LEVC 061030Z 29005KT 260V330 CAVOK 09/M02 Q1014 NOSIG",
      "taf": "TAF LEVC 060500Z 0606/0706 30006KT 9999 BKN040 TX12/0614Z TN01/0606Z"
    },
    {
      "icao": "LEXJ",
      "alert": "OK",
      "vis_m": 9999,
      "fzfg": false,
      "metar_trigger": false,
      "taf_trigger": false,
      "metar": "METAR LEXJ 061030Z 02011KT 310V060 9999 SCT045 08/M02 Q1024",
      "taf": "TAF LEXJ 060800Z 0609/0709 35012KT 9999 SCT045 TX09/0614Z TN04/0619Z"
    },
    {
      "icao": "LEZG",
      "alert": "OK",
      "vis_m": 9999,
      "fzfg": false,
      "metar_trigger": false,
      "taf_trigger": false,
      "metar": "METAR LEZG 061030Z 31026G38KT 9999 FEW035 06/M03 Q1015 NOSIG",
      "taf": ""
    },
    {
      "icao": "LEZL",
      "alert": "OK",
      "vis_m": 9999,
      "fzfg": false,
      "metar_trigger": false,
      "taf_trigger": false,
      "metar": "METAR LEZL 061030Z 35005KT 320V030 CAVOK 08/M00 Q1020 NOSIG",
      "taf": "TAF LEZL 060800Z 0609/0709 VRB03KT CAVOK TX13/0615Z TN02/0707Z"
    },
    {
      "icao": "LFBD",
      "alert": "OK",
      "vis_m": 9999,
      "fzfg": false,
      "metar_trigger": false,
      "taf_trigger": false,
      "metar": "METAR LFBD 061030Z AUTO 01010KT 9999 4400 SCT009 SCT043 02/M01 Q1021",
      "taf": "TAF LFBD 060500Z 0606/0712 03010KT 9999 BKN045 TX04/0614Z TNM03/0700Z"
    },
    {
      "icao": "LFLL",
      "alert": "OK",
      "vis_m": 7000,
      "fzfg": false,
      "metar_trigger": false,
      "taf_trigger": false,
      "metar": "METAR LFLL 061030Z VRB02KT 7000 BKN008 M04/M06 Q1017 NOSIG",
      "taf": ""
    },
    {
      "icao": "LFLS",
      "alert": "OK",
      "vis_m": 9999,
      "fzfg": false,
      "metar_trigger": false,
      "taf_trigger": false,
      "metar": "METAR LFLS 061030Z AUTO 35004KT 290V040 9999 BKN011 BKN017 M05/M06 Q1016 NOSIG",
      "taf": ""
    },
    {
      "icao": "LFMN",
      "alert": "OK",
      "vis_m": 9999,
      "fzfg": false,
      "metar_trigger": false,
      "taf_trigger": false,
      "metar": "METAR LFMN 061030Z 32009KT CAVOK 08/M03 Q1005 BECMG 21005KT",
      "taf": "TAF LFMN 060800Z 0609/0715 33010KT CAVOK"
    },
    {
      "icao": "LFOB",
      "alert": "OK",
      "vis_m": 4000,
      "fzfg": false,
      "metar_trigger": false,
      "taf_trigger": false,
      "metar": "METAR LFOB 061030Z AUTO 32002KT 4000 0250 R30/0325N R12/P5000 BCFG NSC M04/M04 Q1019 BECMG 6000 NSW",
      "taf": "TAF LFOB 060500Z 0606/0706 27005KT 6000 NSC"
    },
    {
      "icao": "LFPO",
      "alert": "OK",
      "vis_m": 8000,
      "fzfg": false,
      "metar_trigger": false,
      "taf_trigger": false,
      "metar": "METAR LFPO 061030Z 26004KT 8000 NSC M01/M03 Q1020 NOSIG",
      "taf": "TAF LFPO 060500Z 0606/0712 30005KT 6000 FEW003"
    },
    {
      "icao": "LFSB",
      "alert": "OK",
      "vis_m": 9999,
      "fzfg": false,
      "metar_trigger": false,
      "taf_trigger": false,
      "metar": "METAR LFSB 061030Z AUTO 17003KT 9999 BKN020 BKN027 OVC036 M05/M07 Q1017 NOSIG",
      "taf": "TAF LFSB 060500Z 0606/0706 VRB03KT CAVOK"
    },
    {
      "icao": "LGAV",
      "alert": "OK",
      "vis_m": 9999,
      "fzfg": false,
      "metar_trigger": false,
      "taf_trigger": false,
      "metar": "METAR LGAV 061020Z 19012KT 9999 FEW018 SCT030 18/11 Q1014 NOSIG",
      "taf": "TAF LGAV 060500Z 0606/0706 18015KT 9999 FEW018 SCT030"
    },
    {
      "icao": "LGTS",
      "alert": "OK",
      "vis_m": 9999,
      "fzfg": false,
      "metar_trigger": false,
      "taf_trigger": false,
      "metar": "METAR LGTS 061020Z 14008KT 9999 FEW025 18/10 Q1011 NOSIG",
      "taf": "TAF LGTS 060500Z 0606/0706 14010KT 9999 SCT030"
    },
    {
      "icao": "LHBP",
      "alert": "OK",
      "vis_m": 9999,
      "fzfg": false,
      "metar_trigger": false,
      "taf_trigger": false,
      "metar": "METAR LHBP 061030Z 31005KT CAVOK M02/M04 Q1013 NOSIG",
      "taf": "TAF LHBP 060515Z 0606/0706 34009KT 9999 BKN045"
    },
    {
      "icao": "LHDC",
      "alert": "OK",
      "vis_m": 9999,
      "fzfg": false,
      "metar_trigger": false,
      "taf_trigger": false,
      "metar": "METAR LHDC 061015Z AUTO 04005KT 010V070 9999 OVC016 M00/M02 Q1012 NOSIG",
      "taf": "TAF LHDC 060815Z 0609/0618 01007KT 6000 SCT012 OVC030"
    },
    {
      "icao": "LIBD",
      "alert": "OK",
      "vis_m": 6000,
      "fzfg": false,
      "metar_trigger": false,
      "taf_trigger": false,
      "metar": "METAR LIBD 061020Z 11005KT 080V140 6000 OVC004 12/12 Q1004",
      "taf": ""
    },
    {
      "icao": "LIBG",
      "alert": "OK",
      "vis_m": 8000,
      "fzfg": false,
      "metar_trigger": false,
      "taf_trigger": false,
      "metar": "METAR LIBG 060950Z 16007KT 130V240 8000 SCT010 17/17 Q1005",
      "taf": "TAF LIBG 060800Z 0609/0618 15008KT 9999 SCT015"
    },
    {
      "icao": "LIBP",
      "alert": "OK",
      "vis_m": 9999,
      "fzfg": false,
      "metar_trigger": false,
      "taf_trigger": false,
      "metar": "METAR LIBP 061020Z AUTO VRB02KT 9999 -DZ OVC005/// 07/07 Q1005",
      "taf": "TAF LIBP 060500Z 0606/0706 VRB05KT 4000 RA OVC005"
    },
    {
      "icao": "LIBR",
      "alert": "OK",
      "vis_m": 7000,
      "fzfg": false,
      "metar_trigger": false,
      "taf_trigger": false,
      "metar": "METAR LIBR 061020Z 21014KT 7000 SCT015 17/14 Q1005",
      "taf": "TAF LIBR 060500Z 0606/0706 VRB05KT 9999 BKN012"
    },
    {
      "icao": "LICA",
      "alert": "OK",
      "vis_m": 9999,
      "fzfg": false,
      "metar_trigger": false,
      "taf_trigger": false,
      "metar": "METAR LICA 061020Z AUTO 07011KT 9999 SCT110/// 17/12 Q1004",
      "taf": "TAF LICA 060500Z 0606/0706 07010KT 9999 SCT050"
    },
    {
      "icao": "LICC",
      "alert": "OK",
      "vis_m": 9999,
      "fzfg": false,
      "metar_trigger": false,
      "taf_trigger": false,
      "metar": "METAR LICC 061020Z VRB02KT CAVOK 18/15 Q1006",
      "taf": "TAF LICC 060500Z 0606/0706 26013KT 9999 FEW030"
    },
    {
      "icao": "LICJ",
      "alert": "OK",
      "vis_m": 9000,
      "fzfg": false,
      "metar_trigger": false,
      "taf_trigger": false,
      "metar": "METAR LICJ 061020Z 21017KT 9000 SCT040 18/12 Q1002",
      "taf": "TAF LICJ 060500Z 0606/0706 21016KT 9999 FEW030"
    },
    {
      "icao": "LIMC",
      "alert": "OK",
      "vis_m": 9999,
      "fzfg": false,
      "metar_trigger": false,
      "taf_trigger": false,
      "metar": "METAR LIMC 061020Z VRB02KT CAVOK 02/M05 Q1009 NOSIG",
      "taf": "TAF LIMC 060500Z 0606/0712 VRB03KT CAVOK"
    },
    {
      "icao": "LIME",
      "alert": "OK",
      "vis_m": 9999,
      "fzfg": false,
      "metar_trigger": false,
      "taf_trigger": false,
      "metar": "METAR LIME 061020Z 04002KT CAVOK 01/M05 Q1008 NOSIG",
      "taf": "TAF LIME 060500Z 0606/0706 VRB03KT CAVOK"
    },
    {
      "icao": "LIMF",
      "alert": "OK",
      "vis_m": 9999,
      "fzfg": false,
      "metar_trigger": false,
      "taf_trigger": false,
      "metar": "METAR LIMF 061020Z VRB01KT CAVOK 02/M08 Q1008",
      "taf": "TAF LIMF 060500Z 0606/0706 VRB03KT CAVOK"
    },
    {
      "icao": "LIMJ",
      "alert": "OK",
      "vis_m": 9999,
      "fzfg": false,
      "metar_trigger": false,
      "taf_trigger": false,
      "metar": "METAR LIMJ 061020Z 05014KT CAVOK 04/M06 Q1007",
      "taf": "TAF LIMJ 060500Z 0606/0706 03015KT CAVOK"
    },
    {
      "icao": "LIPE",
      "alert": "OK",
      "vis_m": 800,
      "fzfg": false,
      "metar_trigger": false,
      "taf_trigger": false,
      "metar": "METAR LIPE 061020Z 27006KT 0800 R12/1000U R30/0900N -SN FG VV003 00/00 Q1010",
      "taf": "TAF LIPE 060500Z 0606/0706 28007KT 9999 BKN020"
    },
    {
      "icao": "LIPH",
      "alert": "OK",
      "vis_m": 9999,
      "fzfg": false,
      "metar_trigger": false,
      "taf_trigger": false,
      "metar": "METAR LIPH 061020Z 06004KT 9999 BKN070 03/M04 Q1010",
      "taf": "TAF LIPH 060500Z 0606/0706 03006KT 9999 SCT070"
    },
    {
      "icao": "LIPQ",
      "alert": "OK",
      "vis_m": 9999,
      "fzfg": false,
      "metar_trigger": false,
      "taf_trigger": false,
      "metar": "METAR LIPQ 061020Z AUTO 07006KT 030V120 9999 -RASN OVC025/// 02/M03 Q1010",
      "taf": "TAF LIPQ 060500Z 0606/0706 08008KT 9999 BKN030"
    },
    {
      "icao": "LIPR",
      "alert": "OK",
      "vis_m": 1300,
      "fzfg": false,
      "metar_trigger": false,
      "taf_trigger": false,
      "metar": "METAR LIPR 061020Z 29014KT 1300 R30/1600D SN BR SCT005 BKN013 00/00 Q1008",
      "taf": "TAF LIPR 060500Z 0606/0706 30012KT 1200 SN BKN020"
    },
    {
      "icao": "LIPX",
      "alert": "OK",
      "vis_m": 9999,
      "fzfg": false,
      "metar_trigger": false,
      "taf_trigger": false,
      "metar": "METAR LIPX 061020Z VRB02KT 9999 SCT090 02/M04 Q1009",
      "taf": "TAF LIPX 060500Z 0606/0706 VRB04KT CAVOK"
    },
    {
      "icao": "LIPY",
      "alert": "OK",
      "vis_m": 6000,
      "fzfg": false,
      "metar_trigger": false,
      "taf_trigger": false,
      "metar": "METAR LIPY 061020Z AUTO 28007KT 6000 -RA OVC006/// 02/02 Q1007",
      "taf": "TAF LIPY 060500Z 0606/0706 VRB05KT 4000 RA BKN010"
    },
    {
      "icao": "LIPZ",
      "alert": "OK",
      "vis_m": 9999,
      "fzfg": false,
      "metar_trigger": false,
      "taf_trigger": false,
      "metar": "METAR LIPZ 061020Z 10016KT 9999 SCT040 BKN060 02/M01 Q1010 NOSIG",
      "taf": "TAF LIPZ 060500Z 0606/0712 02008KT 9999 SCT070"
    },
    {
      "icao": "LIRF",
      "alert": "OK",
      "vis_m": 9999,
      "fzfg": false,
      "metar_trigger": false,
      "taf_trigger": false,
      "metar": "METAR LIRF 061020Z 13009KT 110V180 9999 -RA FEW010 SCT040 13/12 Q1000 RESHRA NOSIG",
      "taf": "TAF LIRF 060500Z 0606/0712 05005KT 9999 SCT020"
    },
    {
      "icao": "LIRN",
      "alert": "OK",
      "vis_m": 9999,
      "fzfg": false,
      "metar_trigger": false,
      "taf_trigger": false,
      "metar": "METAR LIRN 061020Z VRB02KT 9999 FEW020 BKN050 14/11 Q1002 NOSIG",
      "taf": "TAF LIRN 060500Z 0606/0706 VRB06KT 9999 SCT020 SCT050"
    },
    {
      "icao": "LIRP",
      "alert": "OK",
      "vis_m": 9999,
      "fzfg": false,
      "metar_trigger": false,
      "taf_trigger": false,
      "metar": "METAR LIRP 061015Z 11004KT 9999 -RA FEW030 BKN070 04/04 Q1005 NOSIG",
      "taf": "TAF LIRP 060500Z 0606/0706 12005KT 9999 FEW030"
    },
    {
      "icao": "LIRZ",
      "alert": "OK",
      "vis_m": 9999,
      "fzfg": false,
      "metar_trigger": false,
      "taf_trigger": false,
      "metar": "METAR LIRZ 061020Z AUTO 02013KT 9999 -RA OVC037/// 06/03 Q1001",
      "taf": "TAF LIRZ 060500Z 0606/0706 01010KT 6000 RA BKN020"
    },
    {
      "icao": "LJLJ",
      "alert": "OK",
      "vis_m": 500,
      "fzfg": true,
      "metar_trigger": false,
      "taf_trigger": false,
      "metar": "METAR LJLJ 061030Z 13003KT 0500 R30/0900D SN FZFG BKN006 OVC010 M03/M04 Q1012 TEMPO BKN003",
      "taf": ""
    },
    {
      "icao": "LKMT",
      "alert": "OK",
      "vis_m": 9999,
      "fzfg": false,
      "metar_trigger": false,
      "taf_trigger": false,
      "metar": "METAR LKMT 061030Z 00000KT CAVOK M03/M07 Q1015 NOSIG",
      "taf": "TAF LKMT 060500Z 0606/0706 VRB02KT CAVOK"
    },
    {
      "icao": "LKPR",
      "alert": "OK",
      "vis_m": 9999,
      "fzfg": false,
      "metar_trigger": false,
      "taf_trigger": false,
      "metar": "METAR LKPR 061030Z 21007KT 9999 SCT045 M05/M08 Q1014 NOSIG",
      "taf": "TAF LKPR 060800Z 0609/0715 21007KT CAVOK"
    },
    {
      "icao": "LLBG",
      "alert": "OK",
      "vis_m": 9999,
      "fzfg": false,
      "metar_trigger": false,
      "taf_trigger": false,
      "metar": "METAR LLBG 061020Z VRB02KT CAVOK 21/14 Q1019 NOSIG",
      "taf": "TAF LLBG 060501Z 0606/0706 13004KT CAVOK"
    },
    {
      "icao": "LMML",
      "alert": "OK",
      "vis_m": 8000,
      "fzfg": false,
      "metar_trigger": false,
      "taf_trigger": false,
      "metar": "METAR LMML 061045Z 20013KT 8000 NSC 19/16 Q1006 NOSIG",
      "taf": "TAF LMML 060500Z 0606/0706 20015KT 8000 NSC"
    },
    {
      "icao": "LOWW",
      "alert": "OK",
      "vis_m": 9999,
      "fzfg": false,
      "metar_trigger": false,
      "taf_trigger": false,
      "metar": "METAR LOWW 061020Z 33013KT CAVOK M01/M09 Q1015 NOSIG",
      "taf": "TAF LOWW 060815Z 0609/0715 32012KT 9999 FEW050 TXM02/0613Z TNM04/0707Z"
    },
    {
      "icao": "LPFR",
      "alert": "OK",
      "vis_m": 9999,
      "fzfg": false,
      "metar_trigger": false,
      "taf_trigger": false,
      "metar": "METAR LPFR 061030Z 36012KT 320V020 CAVOK 11/M01 Q1022",
      "taf": "TAF LPFR 060500Z 0606/0706 VRB02KT CAVOK"
    },
    {
      "icao": "LPMA",
      "alert": "OK",
      "vis_m": 9999,
      "fzfg": false,
      "metar_trigger": false,
      "taf_trigger": false,
      "metar": "METAR LPMA 061030Z 02017KT 9999 -SHRA BKN015 FEW018TCU 16/10 Q1028",
      "taf": "TAF LPMA 060500Z 0606/0706 02015KT 9999 SCT015"
    },
    {
      "icao": "LPPR",
      "alert": "OK",
      "vis_m": 9999,
      "fzfg": false,
      "metar_trigger": false,
      "taf_trigger": false,
      "metar": "METAR LPPR 061030Z 36010KT CAVOK 07/01 Q1026",
      "taf": "TAF LPPR 060500Z 0606/0706 01008KT CAVOK"
    },
    {
      "icao": "LPPS",
      "alert": "OK",
      "vis_m": 9999,
      "fzfg": false,
      "metar_trigger": false,
      "taf_trigger": false,
      "metar": "METAR LPPS 061030Z 04011KT 350V060 9999 SCT015 16/08 Q1028",
      "taf": "TAF LPPS 060500Z 0606/0712 03013KT 9999 SCT015 SCT030"
    },
    {
      "icao": "LPPT",
      "alert": "OK",
      "vis_m": 9999,
      "fzfg": false,
      "metar_trigger": false,
      "taf_trigger": false,
      "metar": "METAR LPPT 061030Z 35012KT 9999 FEW025 09/03 Q1024",
      "taf": "TAF LPPT 060500Z 0606/0712 36010KT CAVOK"
    },
    {
      "icao": "LQBK",
      "alert": "OK",
      "vis_m": 5000,
      "fzfg": false,
      "metar_trigger": false,
      "taf_trigger": false,
      "metar": "METAR LQBK 061030Z 31004KT 270V350 5000 -SN BR FEW007 BKN014 OVC022 M02/M03 Q1014 TEMPO 3000 SN BKN009",
      "taf": "TAF LQBK 060500Z 0606/0706 33007KT 7000 -SN SCT010 OVC020 TXM00/0613Z TNM05/0705Z"
    },
    {
      "icao": "LQSA",
      "alert": "OK",
      "vis_m": 8000,
      "fzfg": false,
      "metar_trigger": false,
      "taf_trigger": false,
      "metar": "METAR LQSA 061030Z VRB03KT 8000 -FZRA BKN006 M00/M01 Q1009 NOSIG",
      "taf": "TAF LQSA 060500Z 0606/0706 29005KT 7000 SCT010 OVC030 TX00/0606Z TNM04/0706Z"
    },
    {
      "icao": "LQTZ",
      "alert": "OK",
      "vis_m": 2600,
      "fzfg": false,
      "metar_trigger": false,
      "taf_trigger": false,
      "metar": "METAR LQTZ 061030Z VRB03KT 2600 BR BKN004 OVC010 M01/M01 Q1012",
      "taf": ""
    },
    {
      "icao": "LRBC",
      "alert": "OK",
      "vis_m": 400,
      "fzfg": false,
      "metar_trigger": false,
      "taf_trigger": false,
      "metar": "METAR LRBC 061030Z 20004KT 160V260 0400 R16/0500N FG VV002 01/01 Q1009",
      "taf": "TAF LRBC 060800Z 0609/0618 19006KT 0300 FG VV002"
    },
    {
      "icao": "LRBS",
      "alert": "OK",
      "vis_m": 7000,
      "fzfg": false,
      "metar_trigger": false,
      "taf_trigger": false,
      "metar": "METAR LRBS 061030Z VRB01KT 7000 BKN004 04/03 Q1011 BECMG BKN005",
      "taf": ""
    },
    {
      "icao": "LRBV",
      "alert": "OK",
      "vis_m": 9999,
      "fzfg": false,
      "metar_trigger": false,
      "taf_trigger": false,
      "metar": "METAR LRBV 061030Z 36003KT 330V040 9999 BKN085 04/02 Q1009",
      "taf": "TAF LRBV 060800Z 0609/0618 VRB04KT 9999 SCT045"
    },
    {
      "icao": "LRCL",
      "alert": "OK",
      "vis_m": 9999,
      "fzfg": false,
      "metar_trigger": false,
      "taf_trigger": false,
      "metar": "METAR LRCL 061030Z 26001KT 9999 -RA OVC011 03/01 Q1010",
      "taf": "TAF LRCL 060800Z 0609/0618 29005KT 9999 BKN010 OVC040"
    },
    {
      "icao": "LRCV",
      "alert": "OK",
      "vis_m": 8000,
      "fzfg": false,
      "metar_trigger": false,
      "taf_trigger": false,
      "metar": "METAR LRCV 061030Z COR 26003KT 8000 3000W -RA BR BKN005 OVC007 02/02 Q1011",
      "taf": "TAF LRCV 060800Z 0609/0618 VRB04KT 5000 -RA BR BKN005 OVC045"
    },
    {
      "icao": "LRIA",
      "alert": "OK",
      "vis_m": 150,
      "fzfg": false,
      "metar_trigger": false,
      "taf_trigger": false,
      "metar": "METAR LRIA 061030Z 10003KT 0150 R14/0325N FG VV001 02/02 Q1010",
      "taf": "TAF LRIA 060800Z 0609/0618 09004KT 0150 FG VV001"
    },
    {
      "icao": "LROP",
      "alert": "OK",
      "vis_m": 9999,
      "fzfg": false,
      "metar_trigger": false,
      "taf_trigger": false,
      "metar": "METAR LROP 061030Z VRB02KT 9999 SCT005 04/04 Q1011 BECMG BKN005",
      "taf": ""
    },
    {
      "icao": "LRSB",
      "alert": "OK",
      "vis_m": 4000,
      "fzfg": false,
      "metar_trigger": false,
      "taf_trigger": false,
      "metar": "METAR LRSB 061030Z 36003KT 4000 -RA BR SCT027 BKN046 OVC055 02/01 Q1009 NOSIG",
      "taf": "TAF LRSB 060500Z 0606/0706 VRB04KT 5000 BR SCT015 SCT060"
    },
    {
      "icao": "LRSM",
      "alert": "OK",
      "vis_m": 7000,
      "fzfg": false,
      "metar_trigger": false,
      "taf_trigger": false,
      "metar": "METAR LRSM 061030Z 27003KT 240V320 7000 FEW002 BKN004 01/01 Q1011",
      "taf": ""
    },
    {
      "icao": "LRSV",
      "alert": "OK",
      "vis_m": 5000,
      "fzfg": false,
      "metar_trigger": false,
      "taf_trigger": false,
      "metar": "METAR LRSV 061030Z 35004KT 5000 -DZ SCT010 00/M00 Q1008",
      "taf": "TAF LRSV 060800Z 0609/0618 21006KT 3000 BR NSC"
    },
    {
      "icao": "LRTM",
      "alert": "OK",
      "vis_m": 1900,
      "fzfg": false,
      "metar_trigger": false,
      "taf_trigger": false,
      "metar": "METAR LRTM 061030Z 26002KT 1900 -RA BR FEW003 BKN009 BKN034 02/01 Q1010",
      "taf": "TAF LRTM 060800Z 0609/0618 VRB04KT 3000 BR BKN015 BKN035"
    },
    {
      "icao": "LRTR",
      "alert": "OK",
      "vis_m": 3000,
      "fzfg": false,
      "metar_trigger": false,
      "taf_trigger": false,
      "metar": "METAR LRTR 061030Z 20004KT 3000 BR SCT002 BKN003 OVC004 M00/M00 Q1012",
      "taf": "TAF LRTR 060500Z 0606/0706 26006KT 3000 -FZDZ BR BKN005 OVC010"
    },
    {
      "icao": "LTAC",
      "alert": "OK",
      "vis_m": 6000,
      "fzfg": true,
      "metar_trigger": false,
      "taf_trigger": false,
      "metar": "METAR LTAC 061020Z VRB02KT 6000 NSC 05/02 Q1021 NOSIG RMK RWY21C VRB01KT RWY03L VRB02KT RWY21R 00000KT RWY03R 00000KT RWY21L VRB01KT",
      "taf": "TAF LTAC 060440Z 0606/0706 VRB02KT 0200 FZFG VV001"
    },
    {
      "icao": "LTFM",
      "alert": "OK",
      "vis_m": 9999,
      "fzfg": false,
      "metar_trigger": false,
      "taf_trigger": false,
      "metar": "METAR LTFM 061020Z 20014KT 9999 FEW040 17/06 Q1014 NOSIG RMK RWY17L 20016KT RWY34L 18016KT RWY16R 19014KT RWY36 19015KT RWY18 20019KT",
      "taf": "TAF LTFM 060440Z 0606/0712 19012KT 9999 SCT040 BKN090"
    },
    {
      "icao": "LUKK",
      "alert": "OK",
      "vis_m": 250,
      "fzfg": false,
      "metar_trigger": false,
      "taf_trigger": false,
      "metar": "METAR LUKK 061030Z VRB02KT 0250 0200SW R08/0275N FG VV001 04/04 Q1010 NOSIG",
      "taf": "TAF LUKK 060526Z 0606/0706 VRB05KT 0300 -DZ FG VV002"
    },
    {
      "icao": "LWOH",
      "alert": "OK",
      "vis_m": 9999,
      "fzfg": false,
      "metar_trigger": false,
      "taf_trigger": false,
      "metar": "METAR LWOH 061020Z 16003KT 060V210 9999 -RA SCT010 OVC040 09/08 Q1009",
      "taf": "TAF LWOH 060830Z 0609/0709 15010KT 9999 -RA SCT020 OVC040"
    },
    {
      "icao": "LWSK",
      "alert": "OK",
      "vis_m": null,
      "fzfg": false,
      "metar_trigger": false,
      "taf_trigger": false,
      "metar": "",
      "taf": "TAF LWSK 060830Z 0609/0709 VRB02KT 9999 SCT020 BKN045 BKN075"
    },
    {
      "icao": "LYBE",
      "alert": "OK",
      "vis_m": 8000,
      "fzfg": false,
      "metar_trigger": false,
      "taf_trigger": false,
      "metar": "METAR LYBE 061030Z 27005KT 210V300 8000 -FZDZ BKN006 M01/M02 Q1013 NOSIG",
      "taf": ""
    },
    {
      "icao": "LYNI",
      "alert": "OK",
      "vis_m": 7000,
      "fzfg": false,
      "metar_trigger": false,
      "taf_trigger": false,
      "metar": "METAR LYNI 061030Z 34012KT 7000 -RASN BKN005 BKN013 OVC050 01/01 Q1011 TEMPO 3000 SNRA",
      "taf": "TAF LYNI 060500Z 0606/0706 33010KT 9999 SCT010 BKN030 OVC070 TX03/0606Z TNM01/0706Z"
    },
    {
      "icao": "LYPG",
      "alert": "OK",
      "vis_m": 9999,
      "fzfg": false,
      "metar_trigger": false,
      "taf_trigger": false,
      "metar": "METAR LYPG 061030Z 00000KT 9999 FEW006 SCT015 BKN034 12/11 Q1006 NOSIG",
      "taf": "TAF LYPG 060500Z 0606/0706 14005KT 8000 RA FEW010 BKN030 OVC070 TX14/0613Z TN09/0705Z"
    },
    {
      "icao": "LZIB",
      "alert": "OK",
      "vis_m": 9999,
      "fzfg": false,
      "metar_trigger": false,
      "taf_trigger": false,
      "metar": "METAR LZIB 061030Z 31008KT 280V340 CAVOK M02/M10 Q1015 NOSIG",
      "taf": "TAF LZIB 060515Z 0606/0706 31015KT CAVOK"
    },
    {
      "icao": "LZKZ",
      "alert": "OK",
      "vis_m": 9999,
      "fzfg": false,
      "metar_trigger": false,
      "taf_trigger": false,
      "metar": "METAR LZKZ 061030Z 01011KT 9999 SCT040 M01/M05 Q1011 NOSIG",
      "taf": ""
    },
    {
      "icao": "LZTT",
      "alert": "OK",
      "vis_m": 9999,
      "fzfg": false,
      "metar_trigger": false,
      "taf_trigger": false,
      "metar": "METAR LZTT 061030Z 28005KT 250V320 9999 SCT016 BKN052 M04/M08 Q1009 NOSIG",
      "taf": ""
    },
    {
      "icao": "OEJN",
      "alert": "OK",
      "vis_m": 7000,
      "fzfg": false,
      "metar_trigger": false,
      "taf_trigger": false,
      "metar": "METAR OEJN 061000Z VRB02KT 7000 NSC 34/07 Q1015 NOSIG",
      "taf": "TAF OEJN 060500Z 0606/0712 VRB03KT 7000 NSC"
    },
    {
      "icao": "OEMA",
      "alert": "OK",
      "vis_m": 6000,
      "fzfg": false,
      "metar_trigger": false,
      "taf_trigger": false,
      "metar": "METAR OEMA 061000Z 07008KT 6000 NSC 23/02 Q1022 NOSIG",
      "taf": "TAF OEMA 060500Z 0606/0712 09010KT 7000 FEW045"
    },
    {
      "icao": "OJAI",
      "alert": "OK",
      "vis_m": 5000,
      "fzfg": false,
      "metar_trigger": false,
      "taf_trigger": false,
      "metar": "METAR OJAI 061000Z 08010KT 5000 HZ NSC 13/02 Q1023 NOSIG",
      "taf": "TAF OJAI 060446Z 0606/0712 12012KT 5000 HZ NSC"
    },
    {
      "icao": "OMAA",
      "alert": "OK",
      "vis_m": 9999,
      "fzfg": false,
      "metar_trigger": false,
      "taf_trigger": false,
      "metar": "METAR OMAA 061000Z 31013KT 9999 FEW045 25/12 Q1019 NOSIG",
      "taf": "TAF OMAA 060500Z 0606/0712 07005KT 8000 FEW025"
    },
    {
      "icao": "OMDB",
      "alert": "OK",
      "vis_m": 9999,
      "fzfg": false,
      "metar_trigger": false,
      "taf_trigger": false,
      "metar": "METAR OMDB 061030Z 33015KT CAVOK 26/10 Q1019 NOSIG",
      "taf": "TAF OMDB 060500Z 0606/0712 07007KT 8000 NSC"
    },
    {
      "icao": "UAAA",
      "alert": "OK",
      "vis_m": 7000,
      "fzfg": false,
      "metar_trigger": false,
      "taf_trigger": false,
      "metar": "METAR UAAA 061030Z 02002MPS 340V040 7000 FEW100 03/M04 Q1028 NOSIG",
      "taf": "TAF UAAA 060503Z 0606/0706 04003MPS 6000 SCT011 BKN050 TX01/0609Z TNM04/0701Z"
    },
    {
      "icao": "UBBB",
      "alert": "OK",
      "vis_m": 9999,
      "fzfg": false,
      "metar_trigger": false,
      "taf_trigger": false,
      "metar": "METAR UBBB 061030Z 16008KT 9999 BKN020 12/07 Q1025 NOSIG",
      "taf": "TAF UBBB 060458Z 0606/0706 35005KT 6000 NSC TX12/0610Z TN04/0702Z"
    },
    {
      "icao": "UDSG",
      "alert": "OK",
      "vis_m": 7000,
      "fzfg": false,
      "metar_trigger": false,
      "taf_trigger": false,
      "metar": "METAR UDSG 061030Z 11001KT 7000 NSC M06/M13 Q1028 NOSIG",
      "taf": "TAF UDSG 060458Z 0606/0706 VRB06KT 9999 FEW040"
    },
    {
      "icao": "UDYZ",
      "alert": "OK",
      "vis_m": 3600,
      "fzfg": false,
      "metar_trigger": false,
      "taf_trigger": false,
      "metar": "METAR UDYZ 061030Z VRB01KT 3600 BR NSC M03/M10 Q1031 NOSIG",
      "taf": "TAF UDYZ 060500Z 0606/0706 VRB06KT 6000 FEW040"
    },
    {
      "icao": "UGKO",
      "alert": "OK",
      "vis_m": 9999,
      "fzfg": false,
      "metar_trigger": false,
      "taf_trigger": false,
      "metar": "METAR UGKO 061030Z 09016KT CAVOK 16/M00 Q1017 NOSIG",
      "taf": "TAF UGKO 060500Z 0606/0706 08007KT CAVOK TX16/0611Z TN02/0703Z"
    }
  ]
}