{
  "ts_utc": "2026-01-18T22:56:44Z",
  "threshold_m": 150,
  "source": "stations_override.txt (ICAO list) + aviationweather.gov (METAR/TAF raw)",
  "station_count": 159,
  "stations": [
    {
      "icao": "BIKF",
      "alert": "OK",
      "vis_m": 9999,
      "fzfg": false,
      "metar_trigger": false,
      "taf_trigger": false,
      "metar": "METAR BIKF 182230Z 17006KT 9999 -DZ SCT010 BKN020 OVC071 03/03 Q0991",
      "taf": "TAF BIKF 182247Z 1900/2000 17008KT 9999 -RA BKN015 TX05/1918Z TN00/1907Z"
    },
    {
      "icao": "BKPR",
      "alert": "OK",
      "vis_m": null,
      "fzfg": false,
      "metar_trigger": false,
      "taf_trigger": false,
      "metar": "",
      "taf": "TAF BKPR 181730Z 1818/1918 02012KT CAVOK"
    },
    {
      "icao": "EBCI",
      "alert": "OK",
      "vis_m": 9999,
      "fzfg": false,
      "metar_trigger": false,
      "taf_trigger": false,
      "metar": "METAR EBCI 182250Z 15005KT CAVOK 02/M01 Q1018 NOSIG",
      "taf": "TAF EBCI 181702Z 1818/1924 17004KT CAVOK"
    },
    {
      "icao": "EDDB",
      "alert": "OK",
      "vis_m": 9999,
      "fzfg": false,
      "metar_trigger": false,
      "taf_trigger": false,
      "metar": "METAR EDDB 182250Z AUTO 11008KT CAVOK M02/M04 Q1027 NOSIG",
      "taf": "TAF EDDB 181700Z 1818/1918 11009KT CAVOK"
    },
    {
      "icao": "EDDH",
      "alert": "OK",
      "vis_m": 9999,
      "fzfg": false,
      "metar_trigger": false,
      "taf_trigger": false,
      "metar": "METAR EDDH 182250Z AUTO 13007KT CAVOK 01/M02 Q1022 NOSIG",
      "taf": "TAF EDDH 181700Z 1818/1924 12009KT CAVOK"
    },
    {
      "icao": "EDDK",
      "alert": "OK",
      "vis_m": 9999,
      "fzfg": false,
      "metar_trigger": false,
      "taf_trigger": false,
      "metar": "METAR EDDK 182250Z AUTO 10005KT 080V140 CAVOK 01/M01 Q1020 NOSIG",
      "taf": ""
    },
    {
      "icao": "EDDN",
      "alert": "OK",
      "vis_m": 9999,
      "fzfg": false,
      "metar_trigger": false,
      "taf_trigger": false,
      "metar": "METAR EDDN 182250Z AUTO 09004KT CAVOK M01/M03 Q1020",
      "taf": "TAF EDDN 181700Z 1818/1918 10007KT CAVOK"
    },
    {
      "icao": "EDDS",
      "alert": "OK",
      "vis_m": 6000,
      "fzfg": false,
      "metar_trigger": false,
      "taf_trigger": false,
      "metar": "METAR EDDS 182250Z AUTO VRB01KT 6000 FEW004 M03/M03 Q1018",
      "taf": "TAF EDDS 181700Z 1818/1918 09005KT 9999 OVC012"
    },
    {
      "icao": "EDFH",
      "alert": "OK",
      "vis_m": 6000,
      "fzfg": false,
      "metar_trigger": false,
      "taf_trigger": false,
      "metar": "METAR EDFH 182250Z 13005KT 6000 OVC005 01/00 Q1018",
      "taf": ""
    },
    {
      "icao": "EDJA",
      "alert": "OK",
      "vis_m": 550,
      "fzfg": false,
      "metar_trigger": false,
      "taf_trigger": false,
      "metar": "METAR EDJA 182250Z AUTO 06003KT 030V100 0550 R06/0700N // VV/// M03/M04 Q1018",
      "taf": "TAF EDJA 181700Z 1818/1903 VRB03KT 1500 BR OVC001"
    },
    {
      "icao": "EDLW",
      "alert": "OK",
      "vis_m": 9999,
      "fzfg": false,
      "metar_trigger": false,
      "taf_trigger": false,
      "metar": "METAR EDLW 182250Z AUTO 05006KT 9999 // NCD M01/M02 Q1019",
      "taf": "TAF EDLW 181700Z 1818/1918 11004KT CAVOK"
    },
    {
      "icao": "EDNY",
      "alert": "OK",
      "vis_m": 9000,
      "fzfg": false,
      "metar_trigger": false,
      "taf_trigger": false,
      "metar": "METAR EDNY 182250Z AUTO 04004KT 010V070 9000 // OVC004/// M01/M02 Q1020",
      "taf": "TAF EDNY 181700Z 1818/1903 03004KT 9999 BKN007"
    },
    {
      "icao": "EDSB",
      "alert": "OK",
      "vis_m": 9999,
      "fzfg": false,
      "metar_trigger": false,
      "taf_trigger": false,
      "metar": "METAR EDSB 182250Z AUTO 19006KT 9999 OVC011/// 02/M00 Q1020",
      "taf": "TAF EDSB 181700Z 1818/1918 VRB03KT 9999 SCT015"
    },
    {
      "icao": "EETN",
      "alert": "OK",
      "vis_m": 2300,
      "fzfg": true,
      "metar_trigger": false,
      "taf_trigger": false,
      "metar": "METAR EETN 182250Z 21006KT 2300 BR OVC002 M04/M04 Q1036",
      "taf": "TAF EETN 181730Z 1818/1918 19005KT 0500 FZFG OVC002"
    },
    {
      "icao": "EFTU",
      "alert": "OK",
      "vis_m": 800,
      "fzfg": false,
      "metar_trigger": false,
      "taf_trigger": false,
      "metar": "METAR EFTU 182250Z AUTO 20006KT 0800 R26/0900N FG VV002 01/01 Q1034",
      "taf": "TAF EFTU 182024Z 1821/1921 17004KT 4000 BR OVC001"
    },
    {
      "icao": "EGBB",
      "alert": "OK",
      "vis_m": 900,
      "fzfg": false,
      "metar_trigger": false,
      "taf_trigger": false,
      "metar": "METAR EGBB 182250Z 12001KT 0900 R15/P1500N RADZ FG BKN002 OVC010 07/07 Q1014",
      "taf": ""
    },
    {
      "icao": "EGGP",
      "alert": "OK",
      "vis_m": 8000,
      "fzfg": false,
      "metar_trigger": false,
      "taf_trigger": false,
      "metar": "METAR EGGP 182250Z 11002KT 8000 SCT006 05/04 Q1014",
      "taf": ""
    },
    {
      "icao": "EGGW",
      "alert": "OK",
      "vis_m": 9999,
      "fzfg": false,
      "metar_trigger": false,
      "taf_trigger": false,
      "metar": "METAR EGGW 182250Z AUTO 15004KT 9999 NCD 07/06 Q1014",
      "taf": "TAF EGGW 181706Z 1818/1918 13006KT 9999 SCT045"
    },
    {
      "icao": "EGKK",
      "alert": "OK",
      "vis_m": 9999,
      "fzfg": false,
      "metar_trigger": false,
      "taf_trigger": false,
      "metar": "METAR EGKK 182250Z 14003KT 100V200 CAVOK 08/06 Q1015",
      "taf": "TAF EGKK 181658Z 1818/1924 14006KT 9999 FEW045"
    },
    {
      "icao": "EGNM",
      "alert": "OK",
      "vis_m": 900,
      "fzfg": false,
      "metar_trigger": false,
      "taf_trigger": false,
      "metar": "METAR EGNM 182220Z VRB02KT 0900 R32/1200U FG VV/// 05/04 Q1014",
      "taf": "TAF EGNM 181702Z 1818/1918 06003KT 0300 FG VV///"
    },
    {
      "icao": "EGPD",
      "alert": "OK",
      "vis_m": 8000,
      "fzfg": false,
      "metar_trigger": false,
      "taf_trigger": false,
      "metar": "METAR EGPD 182250Z COR AUTO 13006KT 8000 -RA BKN004/// //////TCU 07/06 Q1012 TEMPO 4000 RA",
      "taf": ""
    },
    {
      "icao": "EGPF",
      "alert": "OK",
      "vis_m": 3000,
      "fzfg": false,
      "metar_trigger": false,
      "taf_trigger": false,
      "metar": "METAR EGPF 182250Z 00000KT 3000 1000NW R23/0450D BCFG FEW005 SCT038 BKN048 01/01 Q1012",
      "taf": ""
    },
    {
      "icao": "EHBK",
      "alert": "OK",
      "vis_m": 9999,
      "fzfg": false,
      "metar_trigger": false,
      "taf_trigger": false,
      "metar": "METAR EHBK 182225Z AUTO 11004KT 9999 NCD M00/M01 Q1018",
      "taf": "TAF EHBK 181720Z 1818/1924 08006KT CAVOK"
    },
    {
      "icao": "EHEH",
      "alert": "OK",
      "vis_m": 6000,
      "fzfg": false,
      "metar_trigger": false,
      "taf_trigger": false,
      "metar": "METAR EHEH 182225Z AUTO 11006KT 070V150 6000 BR OVC007 02/00 Q1019 GRN",
      "taf": "TAF EHEH 181739Z 1818/1924 10005KT CAVOK"
    },
    {
      "icao": "EKBI",
      "alert": "OK",
      "vis_m": 6000,
      "fzfg": false,
      "metar_trigger": false,
      "taf_trigger": false,
      "metar": "METAR EKBI 182250Z AUTO 11008KT 6000 OVC007/// 01/00 Q1024",
      "taf": "TAF EKBI 182027Z 1821/1921 12010KT 4000 BR BKN005"
    },
    {
      "icao": "EKCH",
      "alert": "OK",
      "vis_m": 9999,
      "fzfg": false,
      "metar_trigger": false,
      "taf_trigger": false,
      "metar": "METAR EKCH 182250Z AUTO 14015KT 9999 NCD 02/M01 Q1028 NOSIG",
      "taf": "TAF EKCH 182027Z 1821/1921 13015KT 9999 SCT020"
    },
    {
      "icao": "ENAL",
      "alert": "OK",
      "vis_m": 9999,
      "fzfg": false,
      "metar_trigger": false,
      "taf_trigger": false,
      "metar": "METAR ENAL 182250Z 29005KT CAVOK 03/01 Q1021",
      "taf": "TAF ENAL 182000Z 1821/1906 08005KT 9999 FEW030 BKN050"
    },
    {
      "icao": "ENBR",
      "alert": "OK",
      "vis_m": 9999,
      "fzfg": false,
      "metar_trigger": false,
      "taf_trigger": false,
      "metar": "METAR ENBR 182250Z 09003KT 9999 SCT010 BKN025 03/03 Q1022 RMK WIND 1200FT 14006KT",
      "taf": ""
    },
    {
      "icao": "ENGM",
      "alert": "OK",
      "vis_m": 9999,
      "fzfg": false,
      "metar_trigger": false,
      "taf_trigger": false,
      "metar": "METAR ENGM 182250Z 08004KT 9999 OVC003 M00/M01 Q1028",
      "taf": ""
    },
    {
      "icao": "ENHD",
      "alert": "OK",
      "vis_m": 9999,
      "fzfg": false,
      "metar_trigger": false,
      "taf_trigger": false,
      "metar": "METAR ENHD 182250Z AUTO 13006KT 9999 BKN041/// 02/02 Q1022",
      "taf": "TAF ENHD 181400Z 1815/1823 15005KT 9999 BKN008"
    },
    {
      "icao": "ENTC",
      "alert": "OK",
      "vis_m": 9999,
      "fzfg": false,
      "metar_trigger": false,
      "taf_trigger": false,
      "metar": "METAR ENTC 182250Z 22008KT 200V260 9999 -RA SCT024 BKN031 BKN041 03/01 Q1029 RMK WIND 2600FT 22010KT",
      "taf": "TAF ENTC 181700Z 1818/1918 21009KT 9999 -SHRA FEW008 BKN018"
    },
    {
      "icao": "ENTO",
      "alert": "OK",
      "vis_m": 3300,
      "fzfg": false,
      "metar_trigger": false,
      "taf_trigger": false,
      "metar": "METAR ENTO 182250Z AUTO 03003KT 360V060 3300 -SN BKN001/// BKN003/// 00/00 Q1028 REDZ",
      "taf": ""
    },
    {
      "icao": "ENVA",
      "alert": "OK",
      "vis_m": 9999,
      "fzfg": false,
      "metar_trigger": false,
      "taf_trigger": false,
      "metar": "METAR ENVA 182250Z VRB01KT CAVOK M03/M04 Q1025 RMK WIND 670FT 09009KT",
      "taf": "TAF ENVA 181700Z 1818/1918 08008KT CAVOK"
    },
    {
      "icao": "ENZV",
      "alert": "OK",
      "vis_m": 9999,
      "fzfg": false,
      "metar_trigger": false,
      "taf_trigger": false,
      "metar": "METAR ENZV 182250Z 15007KT 9999 BKN032 04/M00 Q1023",
      "taf": "TAF ENZV 181700Z 1818/1918 16008KT 9999 BKN035"
    },
    {
      "icao": "EPGD",
      "alert": "OK",
      "vis_m": 9000,
      "fzfg": false,
      "metar_trigger": false,
      "taf_trigger": false,
      "metar": "METAR EPGD 182230Z 18006KT 9000 NSC M09/M11 Q1033",
      "taf": "TAF EPGD 181730Z 1818/1918 17007KT 8000 NSC"
    },
    {
      "icao": "EPKK",
      "alert": "OK",
      "vis_m": 5000,
      "fzfg": false,
      "metar_trigger": false,
      "taf_trigger": false,
      "metar": "METAR EPKK 182230Z 05003KT 5000 BR NSC M11/M14 Q1034",
      "taf": "TAF EPKK 182030Z 1821/1921 06004KT 6000 NSC"
    },
    {
      "icao": "EPKT",
      "alert": "OK",
      "vis_m": 6000,
      "fzfg": false,
      "metar_trigger": false,
      "taf_trigger": false,
      "metar": "METAR EPKT 182230Z 08004KT 6000 NSC M11/M13 Q1032",
      "taf": "TAF EPKT 181730Z 1818/1918 11006KT CAVOK"
    },
    {
      "icao": "EPLB",
      "alert": "OK",
      "vis_m": 5000,
      "fzfg": false,
      "metar_trigger": false,
      "taf_trigger": false,
      "metar": "METAR EPLB 182230Z 08005KT 5000 BR NSC M17/M18 Q1037",
      "taf": "TAF EPLB 181730Z 1818/1918 11008KT 8000 NSC"
    },
    {
      "icao": "EPMO",
      "alert": "OK",
      "vis_m": 5000,
      "fzfg": false,
      "metar_trigger": false,
      "taf_trigger": false,
      "metar": "METAR EPMO 182230Z 09007KT 5000 BR NSC M12/M13 Q1036",
      "taf": "TAF EPMO 181730Z 1818/1918 09008KT 7000 NSC"
    },
    {
      "icao": "EPPO",
      "alert": "OK",
      "vis_m": 9999,
      "fzfg": false,
      "metar_trigger": false,
      "taf_trigger": false,
      "metar": "METAR EPPO 182230Z 10008KT CAVOK M05/M09 Q1031",
      "taf": "TAF EPPO 181730Z 1818/1918 10010KT 8000 NSC"
    },
    {
      "icao": "EPRA",
      "alert": "OK",
      "vis_m": 9999,
      "fzfg": false,
      "metar_trigger": false,
      "taf_trigger": false,
      "metar": "METAR EPRA 182230Z 11009KT CAVOK M12/M14 Q1035",
      "taf": "TAF EPRA 182030Z 1821/1906 14010KT CAVOK"
    },
    {
      "icao": "EPRZ",
      "alert": "OK",
      "vis_m": 9999,
      "fzfg": false,
      "metar_trigger": false,
      "taf_trigger": false,
      "metar": "METAR EPRZ 182230Z 08009KT CAVOK M11/M14 Q1035",
      "taf": "TAF EPRZ 181730Z 1818/1918 08011KT CAVOK"
    },
    {
      "icao": "EPSC",
      "alert": "OK",
      "vis_m": 9000,
      "fzfg": false,
      "metar_trigger": false,
      "taf_trigger": false,
      "metar": "METAR EPSC 182230Z 13011KT 9000 NSC M03/M06 Q1029",
      "taf": "TAF EPSC 181730Z 1818/1918 12007KT 8000 NSC"
    },
    {
      "icao": "EPSY",
      "alert": "OK",
      "vis_m": 9999,
      "fzfg": false,
      "metar_trigger": false,
      "taf_trigger": false,
      "metar": "METAR EPSY 182230Z 12003KT 050V170 CAVOK M13/M15 Q1037",
      "taf": "TAF EPSY 182030Z 1821/1906 13005KT CAVOK"
    },
    {
      "icao": "EPWA",
      "alert": "OK",
      "vis_m": 9999,
      "fzfg": false,
      "metar_trigger": false,
      "taf_trigger": false,
      "metar": "METAR EPWA 182230Z 12010KT CAVOK M10/M13 Q1036 NOSIG",
      "taf": "TAF EPWA 182030Z 1821/1921 11008KT CAVOK"
    },
    {
      "icao": "EPWR",
      "alert": "OK",
      "vis_m": 5000,
      "fzfg": false,
      "metar_trigger": false,
      "taf_trigger": false,
      "metar": "METAR EPWR 182230Z 12010KT 5000 BR NSC M03/M05 Q1031",
      "taf": "TAF EPWR 182030Z 1821/1921 11008KT 4000 BR NSC"
    },
    {
      "icao": "ESGG",
      "alert": "OK",
      "vis_m": 9999,
      "fzfg": false,
      "metar_trigger": false,
      "taf_trigger": false,
      "metar": "METAR ESGG 182250Z 12010KT 9999 OVC005 M00/M01 Q1027",
      "taf": "TAF ESGG 182030Z 1821/1921 11011KT 9999 OVC002"
    },
    {
      "icao": "ESKN",
      "alert": "OK",
      "vis_m": 9999,
      "fzfg": false,
      "metar_trigger": false,
      "taf_trigger": false,
      "metar": "METAR ESKN 182250Z 15008KT 9999 OVC006 02/01 Q1031",
      "taf": ""
    },
    {
      "icao": "ESMS",
      "alert": "OK",
      "vis_m": 9999,
      "fzfg": false,
      "metar_trigger": false,
      "taf_trigger": false,
      "metar": "METAR ESMS 182250Z 12008KT CAVOK 01/M00 Q1027",
      "taf": "TAF ESMS 182027Z 1821/1921 13012KT 9999 SCT020"
    },
    {
      "icao": "ESSA",
      "alert": "OK",
      "vis_m": 9999,
      "fzfg": false,
      "metar_trigger": false,
      "taf_trigger": false,
      "metar": "METAR ESSA 182250Z 17007KT 9999 OVC008 01/M00 Q1032 BECMG BKN010",
      "taf": ""
    },
    {
      "icao": "EYKA",
      "alert": "OK",
      "vis_m": 9999,
      "fzfg": false,
      "metar_trigger": false,
      "taf_trigger": false,
      "metar": "METAR EYKA 182250Z 18003KT 120V250 CAVOK M13/M15 Q1040",
      "taf": "TAF EYKA 181700Z 1818/1918 VRB05KT 9000 NSC"
    },
    {
      "icao": "EYPA",
      "alert": "OK",
      "vis_m": 9999,
      "fzfg": false,
      "metar_trigger": false,
      "taf_trigger": false,
      "metar": "METAR EYPA 182250Z 16011KT 130V190 CAVOK M09/M13 Q1036",
      "taf": "TAF EYPA 181700Z 1818/1918 14010KT CAVOK"
    },
    {
      "icao": "EYVI",
      "alert": "OK",
      "vis_m": 9999,
      "fzfg": false,
      "metar_trigger": false,
      "taf_trigger": false,
      "metar": "METAR EYVI 182250Z 17009KT CAVOK M16/M18 Q1039 NOSIG",
      "taf": "TAF EYVI 181700Z 1818/1918 17010KT 5000 BR NSC"
    },
    {
      "icao": "GCFV",
      "alert": "OK",
      "vis_m": 9999,
      "fzfg": false,
      "metar_trigger": false,
      "taf_trigger": false,
      "metar": "METAR GCFV 182230Z 34013KT 9999 SCT035 16/07 Q1019",
      "taf": "TAF GCFV 182000Z 1821/1921 36014KT 9999 SCT035 TX20/1914Z TN15/1906Z"
    },
    {
      "icao": "GCLP",
      "alert": "OK",
      "vis_m": 9999,
      "fzfg": false,
      "metar_trigger": false,
      "taf_trigger": false,
      "metar": "METAR GCLP 182230Z 01015G25KT 9999 SCT035 17/10 Q1020 NOSIG",
      "taf": "TAF GCLP 182000Z 1821/1921 36023KT 9999 SCT030 TX20/1914Z TN16/1906Z"
    },
    {
      "icao": "GCTS",
      "alert": "OK",
      "vis_m": 9999,
      "fzfg": false,
      "metar_trigger": false,
      "taf_trigger": false,
      "metar": "METAR GCTS 182230Z 06014KT 9999 BKN035 18/09 Q1019 NOSIG",
      "taf": "TAF GCTS 182000Z 1821/1921 06012KT 9999 BKN035 TX23/1914Z TN14/1906Z"
    },
    {
      "icao": "GMAD",
      "alert": "OK",
      "vis_m": 9999,
      "fzfg": false,
      "metar_trigger": false,
      "taf_trigger": false,
      "metar": "METAR GMAD 182230Z 23006KT 200V260 9999 SCT026 11/06 Q1012 NOSIG",
      "taf": "TAF GMAD 181700Z 1818/1924 24008KT 8000 SCT020"
    },
    {
      "icao": "GMMN",
      "alert": "OK",
      "vis_m": 9999,
      "fzfg": false,
      "metar_trigger": false,
      "taf_trigger": false,
      "metar": "METAR GMMN 182230Z VRB02KT 9999 BKN020 07/05 Q1014 NOSIG",
      "taf": "TAF GMMN 181700Z 1818/1924 34004KT 9999 BKN013 SCT023TCU"
    },
    {
      "icao": "GMMX",
      "alert": "OK",
      "vis_m": 6000,
      "fzfg": false,
      "metar_trigger": false,
      "taf_trigger": false,
      "metar": "METAR GMMX 182230Z 25007KT 6000 BKN020 SCT080 08/06 Q1014 NOSIG",
      "taf": "TAF GMMX 181700Z 1818/1924 06006KT 8000 BKN023 SCT080"
    },
    {
      "icao": "HEGN",
      "alert": "OK",
      "vis_m": 9999,
      "fzfg": false,
      "metar_trigger": false,
      "taf_trigger": false,
      "metar": "METAR HEGN 182200Z 28009KT CAVOK 15/04 Q1017 NOSIG",
      "taf": ""
    },
    {
      "icao": "HEMA",
      "alert": "OK",
      "vis_m": 9999,
      "fzfg": false,
      "metar_trigger": false,
      "taf_trigger": false,
      "metar": "METAR HEMA 182200Z 24006KT CAVOK 15/09 Q1016 NOSIG",
      "taf": ""
    },
    {
      "icao": "HESH",
      "alert": "OK",
      "vis_m": 9999,
      "fzfg": false,
      "metar_trigger": false,
      "taf_trigger": false,
      "metar": "METAR HESH 182200Z 33006KT CAVOK 17/05 Q1016 NOSIG",
      "taf": ""
    },
    {
      "icao": "HESX",
      "alert": "OK",
      "vis_m": 6000,
      "fzfg": false,
      "metar_trigger": false,
      "taf_trigger": false,
      "metar": "METAR HESX 182200Z 32002KT 6000 NSC 10/08 Q1018 NOSIG",
      "taf": ""
    },
    {
      "icao": "LATI",
      "alert": "OK",
      "vis_m": 9999,
      "fzfg": false,
      "metar_trigger": false,
      "taf_trigger": false,
      "metar": "METAR LATI 182250Z VRB02KT CAVOK 02/M04 Q1025 NOSIG",
      "taf": "TAF LATI 181700Z 1818/1918 VRB05KT CAVOK TX14/1912Z TNM02/1904Z"
    },
    {
      "icao": "LBPD",
      "alert": "OK",
      "vis_m": 9999,
      "fzfg": false,
      "metar_trigger": false,
      "taf_trigger": false,
      "metar": "METAR LBPD 182230Z AUTO 12007KT 9999 FEW038/// OVC044/// M04/M08 Q1034",
      "taf": "TAF LBPD 181700Z 1818/1918 11010KT CAVOK"
    },
    {
      "icao": "LBSF",
      "alert": "OK",
      "vis_m": 9999,
      "fzfg": false,
      "metar_trigger": false,
      "taf_trigger": false,
      "metar": "METAR LBSF 182230Z AUTO VRB02KT 9999 OVC029/// M07/M10 Q1032 NOSIG",
      "taf": "TAF LBSF 181700Z 1818/1918 06010KT 9999 SCT015"
    },
    {
      "icao": "LBWN",
      "alert": "OK",
      "vis_m": 9999,
      "fzfg": false,
      "metar_trigger": false,
      "taf_trigger": false,
      "metar": "METAR LBWN 182230Z AUTO 36017KT 9999 SCT049/// M07/M09 Q1034 NOSIG",
      "taf": "TAF LBWN 181700Z 1818/1918 32012KT 9999 SCT020 BKN030"
    },
    {
      "icao": "LCLK",
      "alert": "OK",
      "vis_m": 9999,
      "fzfg": false,
      "metar_trigger": false,
      "taf_trigger": false,
      "metar": "METAR LCLK 182230Z 34011KT CAVOK 07/01 Q1019 NOSIG",
      "taf": "TAF LCLK 181730Z 1818/1918 03014KT 9999 FEW025"
    },
    {
      "icao": "LCPH",
      "alert": "OK",
      "vis_m": 9999,
      "fzfg": false,
      "metar_trigger": false,
      "taf_trigger": false,
      "metar": "METAR LCPH 182230Z 07006KT 030V090 CAVOK 07/02 Q1018 NOSIG",
      "taf": "TAF LCPH 181730Z 1818/1918 06009KT 9999 SCT025"
    },
    {
      "icao": "LEAL",
      "alert": "OK",
      "vis_m": 9999,
      "fzfg": false,
      "metar_trigger": false,
      "taf_trigger": false,
      "metar": "METAR LEAL 182230Z 31004KT 280V340 9999 FEW050 09/05 Q1012 NOSIG",
      "taf": "TAF LEAL 181700Z 1818/1918 29004KT 9999 FEW030 TX14/1913Z TN08/1904Z"
    },
    {
      "icao": "LEBB",
      "alert": "OK",
      "vis_m": 9999,
      "fzfg": false,
      "metar_trigger": false,
      "taf_trigger": false,
      "metar": "METAR LEBB 182230Z VRB01KT 9999 SCT023 BKN034 10/08 Q1017 NOSIG",
      "taf": "TAF LEBB 181700Z 1818/1918 24005KT 9999 BKN020 TX13/1914Z TN06/1907Z"
    },
    {
      "icao": "LEBL",
      "alert": "OK",
      "vis_m": 9999,
      "fzfg": false,
      "metar_trigger": false,
      "taf_trigger": false,
      "metar": "METAR LEBL 182230Z 03007KT 9999 FEW015 FEW020TCU BKN040 11/11 Q1013 RESHRA TEMPO 3000 SHRA BKN010",
      "taf": "TAF LEBL 181700Z 1818/1918 05008KT 9999 FEW010 TX14/1912Z TN10/1906Z"
    },
    {
      "icao": "LECH",
      "alert": "OK",
      "vis_m": 9000,
      "fzfg": false,
      "metar_trigger": false,
      "taf_trigger": false,
      "metar": "METAR LECH 182230Z AUTO VRB01KT 9000 OVC039 07/04 Q1013",
      "taf": ""
    },
    {
      "icao": "LEMD",
      "alert": "OK",
      "vis_m": 9999,
      "fzfg": false,
      "metar_trigger": false,
      "taf_trigger": false,
      "metar": "METAR LEMD 182230Z 33005KT 310V010 CAVOK 03/00 Q1015 NOSIG",
      "taf": "TAF LEMD 181700Z 1818/1924 02007KT 9999 FEW040 TX10/1914Z TNM01/1906Z"
    },
    {
      "icao": "LEMG",
      "alert": "OK",
      "vis_m": 9999,
      "fzfg": false,
      "metar_trigger": false,
      "taf_trigger": false,
      "metar": "METAR LEMG 182230Z 30007KT 9999 FEW040 06/05 Q1013 NOSIG",
      "taf": "TAF LEMG 181700Z 1818/1918 VRB03KT 9999 FEW030 TX13/1914Z TN04/1906Z"
    },
    {
      "icao": "LEVC",
      "alert": "OK",
      "vis_m": 9999,
      "fzfg": false,
      "metar_trigger": false,
      "taf_trigger": false,
      "metar": "METAR LEVC 182230Z 31006KT 9999 FEW021 08/06 Q1013 NOSIG",
      "taf": "TAF LEVC 181700Z 1818/1918 06006KT 9999 FEW020 TX16/1913Z TN05/1906Z"
    },
    {
      "icao": "LEXJ",
      "alert": "OK",
      "vis_m": 9999,
      "fzfg": false,
      "metar_trigger": false,
      "taf_trigger": false,
      "metar": "METAR LEXJ 182230Z AUTO 22005KT 190V260 9999 FEW027 OVC033 09/07 Q1018",
      "taf": "TAF LEXJ 182000Z 1821/1921 25009KT 9999 BKN020 TX12/1913Z TN07/1907Z"
    },
    {
      "icao": "LEZG",
      "alert": "OK",
      "vis_m": 9999,
      "fzfg": false,
      "metar_trigger": false,
      "taf_trigger": false,
      "metar": "METAR LEZG 182230Z 27006KT 9999 SCT040 09/08 Q1015 NOSIG",
      "taf": ""
    },
    {
      "icao": "LEZL",
      "alert": "OK",
      "vis_m": 9999,
      "fzfg": false,
      "metar_trigger": false,
      "taf_trigger": false,
      "metar": "METAR LEZL 182230Z 34002KT CAVOK 06/05 Q1015 NOSIG",
      "taf": "TAF LEZL 182000Z 1821/1921 35004KT CAVOK TX14/1915Z TN03/1907Z"
    },
    {
      "icao": "LFBD",
      "alert": "OK",
      "vis_m": 9999,
      "fzfg": false,
      "metar_trigger": false,
      "taf_trigger": false,
      "metar": "METAR LFBD 182230Z AUTO 15005KT 9999 FEW018 OVC054 09/09 Q1016 TEMPO 0500 FG VV///",
      "taf": "TAF LFBD 181700Z 1818/1924 14005KT 9999 BKN020 TX11/1915Z TN08/1903Z"
    },
    {
      "icao": "LFLL",
      "alert": "OK",
      "vis_m": 400,
      "fzfg": false,
      "metar_trigger": false,
      "taf_trigger": false,
      "metar": "METAR LFLL 182230Z VRB03KT 0400 R35L/0450N R17R/0650N R35R/0500N R17L/0450N FG VV/// 04/04 Q1018 NOSIG",
      "taf": "TAF LFLL 181700Z 1818/1924 VRB02KT 0500 FG VV///"
    },
    {
      "icao": "LFLS",
      "alert": "OK",
      "vis_m": 6000,
      "fzfg": false,
      "metar_trigger": false,
      "taf_trigger": false,
      "metar": "METAR LFLS 182230Z AUTO 08005KT 6000 NSC 02/01 Q1017",
      "taf": "TAF LFLS 181400Z 1815/1915 08005KT CAVOK"
    },
    {
      "icao": "LFMN",
      "alert": "OK",
      "vis_m": 9999,
      "fzfg": false,
      "metar_trigger": false,
      "taf_trigger": false,
      "metar": "METAR LFMN 182230Z 07016KT 9999 BKN063 15/07 Q1018 NOSIG",
      "taf": "TAF LFMN 182000Z 1821/2003 07015KT 9999 BKN070"
    },
    {
      "icao": "LFOB",
      "alert": "OK",
      "vis_m": 4900,
      "fzfg": false,
      "metar_trigger": false,
      "taf_trigger": false,
      "metar": "METAR LFOB 182230Z AUTO 12006KT 4900 BR NSC 03/03 Q1017 TEMPO 0800 FG",
      "taf": "TAF LFOB 181700Z 1818/1918 13005KT CAVOK"
    },
    {
      "icao": "LFPO",
      "alert": "OK",
      "vis_m": 8000,
      "fzfg": false,
      "metar_trigger": false,
      "taf_trigger": false,
      "metar": "METAR LFPO 182230Z 08003KT 8000 NSC 04/03 Q1017 NOSIG",
      "taf": "TAF LFPO 181700Z 1818/1924 VRB03KT CAVOK"
    },
    {
      "icao": "LFSB",
      "alert": "OK",
      "vis_m": 9999,
      "fzfg": true,
      "metar_trigger": false,
      "taf_trigger": false,
      "metar": "METAR LFSB 182230Z AUTO 10006KT 9999 OVC009 01/M01 Q1019 TEMPO 0300 FZFG VV///",
      "taf": ""
    },
    {
      "icao": "LGAV",
      "alert": "OK",
      "vis_m": 9999,
      "fzfg": false,
      "metar_trigger": false,
      "taf_trigger": false,
      "metar": "METAR LGAV 182250Z 36011KT 9999 BKN035 06/01 Q1028 NOSIG",
      "taf": "TAF LGAV 181700Z 1818/1918 03016KT 9999 FEW020 SCT030"
    },
    {
      "icao": "LGTS",
      "alert": "OK",
      "vis_m": 9999,
      "fzfg": false,
      "metar_trigger": false,
      "taf_trigger": false,
      "metar": "METAR LGTS 182250Z 13005KT 9999 FEW025 BKN040 04/M02 Q1031 NOSIG",
      "taf": "TAF LGTS 181700Z 1818/1918 09007KT 9999 FEW015 BKN035"
    },
    {
      "icao": "LHBP",
      "alert": "OK",
      "vis_m": 1700,
      "fzfg": false,
      "metar_trigger": false,
      "taf_trigger": false,
      "metar": "METAR LHBP 182230Z 36004KT 1700 -SG BR BKN002 OVC007 M06/M07 Q1036 TEMPO 3000 BR",
      "taf": ""
    },
    {
      "icao": "LHDC",
      "alert": "OK",
      "vis_m": 9000,
      "fzfg": false,
      "metar_trigger": false,
      "taf_trigger": false,
      "metar": "METAR LHDC 182215Z AUTO VRB01KT 9000 OVC007 M03/M04 Q1037",
      "taf": "TAF LHDC 182015Z 1821/1906 VRB03KT 8000 OVC006"
    },
    {
      "icao": "LIBD",
      "alert": "OK",
      "vis_m": 9999,
      "fzfg": false,
      "metar_trigger": false,
      "taf_trigger": false,
      "metar": "METAR LIBD 182250Z 13003KT 9999 FEW045 10/08 Q1023",
      "taf": "TAF LIBD 181700Z 1818/1918 16007KT 7000 SCT020"
    },
    {
      "icao": "LIBG",
      "alert": "OK",
      "vis_m": null,
      "fzfg": false,
      "metar_trigger": false,
      "taf_trigger": false,
      "metar": "",
      "taf": "TAF LIBG 181700Z 1818/1903 VRB06KT 9999 SCT010 BKN020"
    },
    {
      "icao": "LIBP",
      "alert": "OK",
      "vis_m": 3700,
      "fzfg": false,
      "metar_trigger": false,
      "taf_trigger": false,
      "metar": "METAR LIBP 182250Z AUTO 33003KT 290V090 3700 BR BKN230/// 07/07 Q1023",
      "taf": "TAF LIBP 181700Z 1818/1918 VRB06KT 9999 SCT010 BKN040"
    },
    {
      "icao": "LIBR",
      "alert": "OK",
      "vis_m": 9999,
      "fzfg": false,
      "metar_trigger": false,
      "taf_trigger": false,
      "metar": "METAR LIBR 182250Z 11002KT CAVOK 08/05 Q1023",
      "taf": "TAF LIBR 181700Z 1818/1918 17006KT 9999 SCT030"
    },
    {
      "icao": "LICA",
      "alert": "OK",
      "vis_m": 9999,
      "fzfg": false,
      "metar_trigger": false,
      "taf_trigger": false,
      "metar": "METAR LICA 182250Z AUTO 08016KT 9999 -DZ BKN031/// OVC088/// 11/09 Q1020",
      "taf": "TAF LICA 181700Z 1818/1918 08018G28KT 9999 BKN020"
    },
    {
      "icao": "LICC",
      "alert": "OK",
      "vis_m": 9999,
      "fzfg": false,
      "metar_trigger": false,
      "taf_trigger": false,
      "metar": "METAR LICC 182250Z 14014KT 9999 RA SCT020 SCT050 15/13 Q1017",
      "taf": "TAF LICC 181700Z 1818/1918 08015KT 9999 SCT015 BKN040"
    },
    {
      "icao": "LICJ",
      "alert": "OK",
      "vis_m": 9999,
      "fzfg": false,
      "metar_trigger": false,
      "taf_trigger": false,
      "metar": "METAR LICJ 182250Z 09007KT 060V120 CAVOK 15/08 Q1015",
      "taf": "TAF LICJ 181700Z 1818/1918 06012KT 9999 SCT040"
    },
    {
      "icao": "LIMC",
      "alert": "OK",
      "vis_m": 9999,
      "fzfg": false,
      "metar_trigger": false,
      "taf_trigger": false,
      "metar": "METAR LIMC 182250Z 02003KT 9999 BKN045 06/04 Q1025 NOSIG",
      "taf": "TAF LIMC 181700Z 1818/1924 VRB05KT 8000 BKN050"
    },
    {
      "icao": "LIME",
      "alert": "OK",
      "vis_m": 9999,
      "fzfg": false,
      "metar_trigger": false,
      "taf_trigger": false,
      "metar": "METAR LIME 182250Z VRB02KT 9999 FEW070 06/03 Q1025 NOSIG",
      "taf": "TAF LIME 181700Z 1818/1918 VRB04KT 8000 FEW025 BKN050"
    },
    {
      "icao": "LIMF",
      "alert": "OK",
      "vis_m": 9999,
      "fzfg": false,
      "metar_trigger": false,
      "taf_trigger": false,
      "metar": "METAR LIMF 182250Z 02004KT 9999 OVC070 07/03 Q1025",
      "taf": "TAF LIMF 181700Z 1818/1918 34007KT 4000 -RA OVC030"
    },
    {
      "icao": "LIMJ",
      "alert": "OK",
      "vis_m": 9999,
      "fzfg": false,
      "metar_trigger": false,
      "taf_trigger": false,
      "metar": "METAR LIMJ 182250Z 02010KT CAVOK 10/05 Q1021",
      "taf": "TAF LIMJ 181700Z 1818/1918 03012KT 9999 FEW040"
    },
    {
      "icao": "LIPE",
      "alert": "OK",
      "vis_m": 9000,
      "fzfg": false,
      "metar_trigger": false,
      "taf_trigger": false,
      "metar": "METAR LIPE 182250Z 29003KT 9000 BKN035 06/05 Q1025",
      "taf": "TAF LIPE 181700Z 1818/1918 VRB05KT 7000 BKN035"
    },
    {
      "icao": "LIPH",
      "alert": "OK",
      "vis_m": 9999,
      "fzfg": false,
      "metar_trigger": false,
      "taf_trigger": false,
      "metar": "METAR LIPH 182250Z AUTO 04004KT 9999 OVC053/// 06/M01 Q1026",
      "taf": "TAF LIPH 181700Z 1818/1918 04007KT 9999 SCT060"
    },
    {
      "icao": "LIPQ",
      "alert": "OK",
      "vis_m": 9999,
      "fzfg": false,
      "metar_trigger": false,
      "taf_trigger": false,
      "metar": "METAR LIPQ 182250Z AUTO 08004KT 040V100 9999 NCD 04/M08 Q1026",
      "taf": "TAF LIPQ 181700Z 1818/1918 08009KT 9999 SCT060"
    },
    {
      "icao": "LIPR",
      "alert": "OK",
      "vis_m": 9999,
      "fzfg": false,
      "metar_trigger": false,
      "taf_trigger": false,
      "metar": "METAR LIPR 182250Z AUTO 11007KT 9999 BKN029/// 10/07 Q1024",
      "taf": "TAF LIPR 181700Z 1818/1918 09012KT 7000 SCT025"
    },
    {
      "icao": "LIPX",
      "alert": "OK",
      "vis_m": 9999,
      "fzfg": false,
      "metar_trigger": false,
      "taf_trigger": false,
      "metar": "METAR LIPX 182250Z 10006KT 9999 -RA BKN040 08/00 Q1025",
      "taf": "TAF LIPX 181700Z 1818/1918 09007KT 9999 BKN050"
    },
    {
      "icao": "LIPY",
      "alert": "OK",
      "vis_m": 9999,
      "fzfg": false,
      "metar_trigger": false,
      "taf_trigger": false,
      "metar": "METAR LIPY 182250Z AUTO 09005KT 9999 -RA OVC029/// 11/10 Q1023 RERA",
      "taf": ""
    },
    {
      "icao": "LIPZ",
      "alert": "OK",
      "vis_m": 9999,
      "fzfg": false,
      "metar_trigger": false,
      "taf_trigger": false,
      "metar": "METAR LIPZ 182250Z 06009KT 9999 BKN070 06/M01 Q1026 NOSIG",
      "taf": "TAF LIPZ 181700Z 1818/1924 05010KT 9999 SCT050"
    },
    {
      "icao": "LIRF",
      "alert": "OK",
      "vis_m": 9999,
      "fzfg": false,
      "metar_trigger": false,
      "taf_trigger": false,
      "metar": "METAR LIRF 182250Z 08006KT CAVOK 12/06 Q1018 NOSIG",
      "taf": "TAF LIRF 181700Z 1818/1924 06009KT 9999 SCT040"
    },
    {
      "icao": "LIRN",
      "alert": "OK",
      "vis_m": 9999,
      "fzfg": false,
      "metar_trigger": false,
      "taf_trigger": false,
      "metar": "METAR LIRN 182250Z 04006KT 9999 BKN050 11/08 Q1019 NOSIG",
      "taf": "TAF LIRN 181700Z 1818/1918 05010KT 9999 SCT040"
    },
    {
      "icao": "LIRP",
      "alert": "OK",
      "vis_m": 9999,
      "fzfg": false,
      "metar_trigger": false,
      "taf_trigger": false,
      "metar": "METAR LIRP 182215Z 08011KT CAVOK 11/05 Q1020 NOSIG",
      "taf": "TAF LIRP 181700Z 1818/1918 11010KT 9999 BKN080"
    },
    {
      "icao": "LIRZ",
      "alert": "OK",
      "vis_m": 9999,
      "fzfg": false,
      "metar_trigger": false,
      "taf_trigger": false,
      "metar": "METAR LIRZ 182250Z AUTO 03009KT 9999 FEW110/// 10/04 Q1020",
      "taf": "TAF LIRZ 181700Z 1818/1918 03012KT CAVOK"
    },
    {
      "icao": "LJLJ",
      "alert": "OK",
      "vis_m": 9999,
      "fzfg": false,
      "metar_trigger": false,
      "taf_trigger": false,
      "metar": "METAR LJLJ 182230Z 12007KT 9999 OVC015 M02/M05 Q1031 NOSIG",
      "taf": "TAF LJLJ 181700Z 1818/1918 20003KT 9999 FEW025"
    },
    {
      "icao": "LKMT",
      "alert": "OK",
      "vis_m": 1200,
      "fzfg": true,
      "metar_trigger": false,
      "taf_trigger": false,
      "metar": "METAR LKMT 182230Z 00000KT 1200 R22/0600U R04/P2000N BR BCFG SCT003 M10/M11 Q1032 TEMPO 2000 BR NSC",
      "taf": "TAF LKMT 181700Z 1818/1918 VRB02KT 0300 FZFG VV002"
    },
    {
      "icao": "LKPR",
      "alert": "OK",
      "vis_m": 9999,
      "fzfg": false,
      "metar_trigger": false,
      "taf_trigger": false,
      "metar": "METAR LKPR 182230Z 10009KT CAVOK M03/M05 Q1026 NOSIG",
      "taf": "TAF LKPR 182000Z 1821/2003 12010KT CAVOK"
    },
    {
      "icao": "LLBG",
      "alert": "OK",
      "vis_m": 6000,
      "fzfg": false,
      "metar_trigger": false,
      "taf_trigger": false,
      "metar": "METAR LLBG 182250Z 33012KT 6000 RA FEW015 SCT035 12/11 Q1016 BECMG NSW",
      "taf": "TAF LLBG 181706Z 1818/1918 VRB04KT 9999 SCT040"
    },
    {
      "icao": "LMML",
      "alert": "OK",
      "vis_m": 9999,
      "fzfg": false,
      "metar_trigger": false,
      "taf_trigger": false,
      "metar": "METAR LMML 182245Z 12022KT 9999 SCT015 15/13 Q1015 NOSIG",
      "taf": "TAF LMML 181700Z 1818/1918 12015KT 9999 SCT015"
    },
    {
      "icao": "LOWW",
      "alert": "OK",
      "vis_m": 9999,
      "fzfg": false,
      "metar_trigger": false,
      "taf_trigger": false,
      "metar": "METAR LOWW 182250Z 14012KT CAVOK M04/M06 Q1033 NOSIG",
      "taf": "TAF LOWW 182015Z 1821/2003 14013KT 9999 FEW020 SCT030 TXM03/1821Z TNM07/2003Z"
    },
    {
      "icao": "LPFR",
      "alert": "OK",
      "vis_m": 9999,
      "fzfg": false,
      "metar_trigger": false,
      "taf_trigger": false,
      "metar": "METAR LPFR 182230Z 36007KT 290V010 CAVOK 09/03 Q1016",
      "taf": "TAF LPFR 181700Z 1818/1918 35008KT CAVOK"
    },
    {
      "icao": "LPMA",
      "alert": "OK",
      "vis_m": 9999,
      "fzfg": false,
      "metar_trigger": false,
      "taf_trigger": false,
      "metar": "METAR LPMA 182230Z 01012G23KT 340V050 9999 SCT015 16/08 Q1023",
      "taf": "TAF LPMA 181700Z 1818/1918 01010KT 9999 SCT015"
    },
    {
      "icao": "LPPR",
      "alert": "OK",
      "vis_m": 9999,
      "fzfg": false,
      "metar_trigger": false,
      "taf_trigger": false,
      "metar": "METAR LPPR 182230Z VRB02KT CAVOK 07/06 Q1018",
      "taf": "TAF LPPR 181700Z 1818/1918 33007KT CAVOK"
    },
    {
      "icao": "LPPS",
      "alert": "OK",
      "vis_m": 9999,
      "fzfg": false,
      "metar_trigger": false,
      "taf_trigger": false,
      "metar": "METAR LPPS 182230Z 01015KT 9999 SCT015 15/08 Q1023",
      "taf": "TAF LPPS 181700Z 1818/1924 01015KT 9999 SCT015"
    },
    {
      "icao": "LPPT",
      "alert": "OK",
      "vis_m": 9999,
      "fzfg": false,
      "metar_trigger": false,
      "taf_trigger": false,
      "metar": "METAR LPPT 182230Z 31006KT 9999 FEW020 08/05 Q1018",
      "taf": "TAF LPPT 181700Z 1818/1924 36010KT 9999 FEW035"
    },
    {
      "icao": "LQBK",
      "alert": "OK",
      "vis_m": 9999,
      "fzfg": false,
      "metar_trigger": false,
      "taf_trigger": false,
      "metar": "METAR LQBK 182230Z 35003KT 9999 BKN017 OVC030 M00/M02 Q1033 NOSIG",
      "taf": "TAF LQBK 181700Z 1818/1918 34006KT 9999 BKN025 TX00/1914Z TNM07/1906Z"
    },
    {
      "icao": "LQSA",
      "alert": "OK",
      "vis_m": 1500,
      "fzfg": false,
      "metar_trigger": false,
      "taf_trigger": false,
      "metar": "METAR LQSA 182230Z 13004KT 1500 BR SCT018 M05/M05 Q1029",
      "taf": "TAF LQSA 181700Z 1818/1918 VRB02KT 4000 BR FEW030 TX00/1913Z TNM07/1906Z"
    },
    {
      "icao": "LQTZ",
      "alert": "OK",
      "vis_m": 9999,
      "fzfg": false,
      "metar_trigger": false,
      "taf_trigger": false,
      "metar": "METAR LQTZ 182230Z 10003KT CAVOK M03/M05 Q1032",
      "taf": "TAF LQTZ 181700Z 1818/1918 10006KT 9999 BKN025 TX03/1913Z TNM03/1906Z"
    },
    {
      "icao": "LRBC",
      "alert": "OK",
      "vis_m": 9999,
      "fzfg": false,
      "metar_trigger": false,
      "taf_trigger": false,
      "metar": "METAR LRBC 182230Z 03006KT 9999 OVC016 M08/M13 Q1039",
      "taf": "TAF LRBC 182000Z 1821/1906 35010KT 9999 BKN025"
    },
    {
      "icao": "LRBS",
      "alert": "OK",
      "vis_m": 5000,
      "fzfg": false,
      "metar_trigger": false,
      "taf_trigger": false,
      "metar": "METAR LRBS 182230Z 04004KT 5000 -SN BR BKN039 M06/M08 Q1038 NOSIG",
      "taf": "TAF LRBS 181700Z 1818/1918 VRB04KT 7000 BKN025"
    },
    {
      "icao": "LRBV",
      "alert": "OK",
      "vis_m": 9999,
      "fzfg": false,
      "metar_trigger": false,
      "taf_trigger": false,
      "metar": "METAR LRBV 182230Z AUTO 22009KT 9999 FEW026/// OVC036/// M09/M12 Q1034",
      "taf": "TAF LRBV 182000Z 1821/1906 VRB04KT CAVOK"
    },
    {
      "icao": "LRCL",
      "alert": "OK",
      "vis_m": 6000,
      "fzfg": false,
      "metar_trigger": false,
      "taf_trigger": false,
      "metar": "METAR LRCL 182230Z 08008KT 6000 NSC M12/M14 Q1036",
      "taf": "TAF LRCL 182000Z 1821/1906 06007KT CAVOK"
    },
    {
      "icao": "LRCV",
      "alert": "OK",
      "vis_m": 6000,
      "fzfg": false,
      "metar_trigger": false,
      "taf_trigger": false,
      "metar": "METAR LRCV 182230Z 31004KT 6000 FEW034 M11/M12 Q1037",
      "taf": "TAF LRCV 182000Z 1821/1906 VRB03KT 7000 NSC"
    },
    {
      "icao": "LRIA",
      "alert": "OK",
      "vis_m": 9999,
      "fzfg": false,
      "metar_trigger": false,
      "taf_trigger": false,
      "metar": "METAR LRIA 182230Z 27004KT 220V300 9999 OVC014 M10/M13 Q1040",
      "taf": "TAF LRIA 182000Z 1821/1906 32006KT 9999 BKN010 BKN030"
    },
    {
      "icao": "LROP",
      "alert": "OK",
      "vis_m": 5000,
      "fzfg": false,
      "metar_trigger": false,
      "taf_trigger": false,
      "metar": "METAR LROP 182230Z 06004KT 5000 -SN BR BKN037 M06/M08 Q1038 NOSIG",
      "taf": "TAF LROP 181700Z 1818/1918 VRB04KT 7000 BKN025"
    },
    {
      "icao": "LRSB",
      "alert": "OK",
      "vis_m": 9999,
      "fzfg": false,
      "metar_trigger": false,
      "taf_trigger": false,
      "metar": "METAR LRSB 182230Z COR 28002KT CAVOK M13/M14 Q1034",
      "taf": "TAF LRSB 181700Z 1818/1918 VRB04KT CAVOK"
    },
    {
      "icao": "LRSM",
      "alert": "OK",
      "vis_m": 250,
      "fzfg": true,
      "metar_trigger": false,
      "taf_trigger": false,
      "metar": "METAR LRSM 182230Z AUTO 21003KT 0250 R19/0275N FZFG FEW001/// M12/M13 Q1037",
      "taf": "TAF LRSM 181400Z 1815/1824 11005KT CAVOK"
    },
    {
      "icao": "LRSV",
      "alert": "OK",
      "vis_m": 9999,
      "fzfg": false,
      "metar_trigger": false,
      "taf_trigger": false,
      "metar": "METAR LRSV 182230Z 21003KT CAVOK M11/M13 Q1037",
      "taf": "TAF LRSV 182000Z 1821/1906 VRB04KT CAVOK"
    },
    {
      "icao": "LRTM",
      "alert": "OK",
      "vis_m": 5000,
      "fzfg": false,
      "metar_trigger": false,
      "taf_trigger": false,
      "metar": "METAR LRTM 182230Z AUTO 00000KT 5000 BR NCD M16/M18 Q1036",
      "taf": "TAF LRTM 181700Z 1818/1903 VRB04KT 7000 NSC"
    },
    {
      "icao": "LRTR",
      "alert": "OK",
      "vis_m": 9999,
      "fzfg": false,
      "metar_trigger": false,
      "taf_trigger": false,
      "metar": "METAR LRTR 182230Z VRB01KT CAVOK M08/M09 Q1036 NOSIG",
      "taf": "TAF LRTR 181700Z 1818/1918 VRB04KT 7000 NSC"
    },
    {
      "icao": "LTAC",
      "alert": "OK",
      "vis_m": 9999,
      "fzfg": false,
      "metar_trigger": false,
      "taf_trigger": false,
      "metar": "METAR LTAC 182250Z 13003KT 090V160 9999 FEW040 SCT100 M06/M09 Q1021 NOSIG",
      "taf": "TAF LTAC 181640Z 1818/1918 VRB02KT 9999 SCT040 SCT100"
    },
    {
      "icao": "LTFM",
      "alert": "OK",
      "vis_m": 6000,
      "fzfg": false,
      "metar_trigger": false,
      "taf_trigger": false,
      "metar": "METAR LTFM 182250Z 35019KT 6000 2500N SHSN BLSN BKN009 BKN022 M00/M02 Q1031 BECMG TL2320 NSW",
      "taf": "TAF LTFM 181640Z 1818/1924 35023G33KT 8000 -SHSN BKN012 BKN025"
    },
    {
      "icao": "LUKK",
      "alert": "OK",
      "vis_m": 9999,
      "fzfg": false,
      "metar_trigger": false,
      "taf_trigger": false,
      "metar": "METAR LUKK 182230Z 01009KT 9999 -SN OVC007 M08/M10 Q1039 TEMPO OVC006",
      "taf": "TAF LUKK 181712Z 1818/1918 34008KT 9999 BKN015"
    },
    {
      "icao": "LWOH",
      "alert": "OK",
      "vis_m": null,
      "fzfg": false,
      "metar_trigger": false,
      "taf_trigger": false,
      "metar": "",
      "taf": "TAF LWOH 182040Z 1821/1921 35006KT 9999 FEW040"
    },
    {
      "icao": "LWSK",
      "alert": "OK",
      "vis_m": 9999,
      "fzfg": false,
      "metar_trigger": false,
      "taf_trigger": false,
      "metar": "METAR LWSK 182250Z VRB02KT 9999 FEW050 M03/M07 Q1031 NOSIG",
      "taf": "TAF LWSK 182040Z 1821/1921 02005KT 9999 FEW050"
    },
    {
      "icao": "LYBE",
      "alert": "OK",
      "vis_m": 9999,
      "fzfg": false,
      "metar_trigger": false,
      "taf_trigger": false,
      "metar": "METAR LYBE 182230Z 09009KT CAVOK M05/M09 Q1035 NOSIG",
      "taf": "TAF LYBE 181700Z 1818/1918 10012KT CAVOK TX01/1913Z TNM06/1906Z"
    },
    {
      "icao": "LYNI",
      "alert": "OK",
      "vis_m": 9999,
      "fzfg": false,
      "metar_trigger": false,
      "taf_trigger": false,
      "metar": "METAR LYNI 182230Z 34002KT CAVOK M06/M10 Q1034 NOSIG",
      "taf": "TAF LYNI 181700Z 1818/1918 05007KT CAVOK TX01/1913Z TNM08/1906Z"
    },
    {
      "icao": "LYPG",
      "alert": "OK",
      "vis_m": 9999,
      "fzfg": false,
      "metar_trigger": false,
      "taf_trigger": false,
      "metar": "METAR LYPG 182230Z VRB01KT CAVOK 03/M02 Q1026 NOSIG",
      "taf": "TAF LYPG 181700Z 1818/1918 35005KT CAVOK TX08/1912Z TNM02/1906Z"
    },
    {
      "icao": "LZIB",
      "alert": "OK",
      "vis_m": 9999,
      "fzfg": false,
      "metar_trigger": false,
      "taf_trigger": false,
      "metar": "METAR LZIB 182230Z 11006KT CAVOK M05/M06 Q1034 NOSIG",
      "taf": "TAF LZIB 181715Z 1818/1918 09005KT 9999 FEW020"
    },
    {
      "icao": "LZKZ",
      "alert": "OK",
      "vis_m": 9999,
      "fzfg": false,
      "metar_trigger": false,
      "taf_trigger": false,
      "metar": "METAR LZKZ 182230Z 33002KT CAVOK M09/M11 Q1036 NOSIG",
      "taf": "TAF LZKZ 181715Z 1818/1918 VRB02KT CAVOK"
    },
    {
      "icao": "LZTT",
      "alert": "OK",
      "vis_m": 9999,
      "fzfg": false,
      "metar_trigger": false,
      "taf_trigger": false,
      "metar": "METAR LZTT 182230Z 28005KT CAVOK M14/M15 Q1032",
      "taf": "TAF LZTT 181715Z 1818/1918 VRB02KT CAVOK"
    },
    {
      "icao": "OEJN",
      "alert": "OK",
      "vis_m": 9999,
      "fzfg": false,
      "metar_trigger": false,
      "taf_trigger": false,
      "metar": "METAR OEJN 182200Z 02004KT 9999 FEW040 23/14 Q1013 NOSIG",
      "taf": "TAF OEJN 181700Z 1818/1924 03007KT 7000 FEW040"
    },
    {
      "icao": "OEMA",
      "alert": "OK",
      "vis_m": 9999,
      "fzfg": false,
      "metar_trigger": false,
      "taf_trigger": false,
      "metar": "METAR OEMA 182200Z 26005KT CAVOK 19/04 Q1016 NOSIG",
      "taf": "TAF OEMA 181700Z 1818/1924 30008KT CAVOK"
    },
    {
      "icao": "OJAI",
      "alert": "OK",
      "vis_m": 4000,
      "fzfg": false,
      "metar_trigger": false,
      "taf_trigger": false,
      "metar": "METAR OJAI 182200Z 21006KT 4000 BR SCT025 07/06 Q1017 NOSIG",
      "taf": ""
    },
    {
      "icao": "OMAA",
      "alert": "OK",
      "vis_m": 9999,
      "fzfg": false,
      "metar_trigger": false,
      "taf_trigger": false,
      "metar": "METAR OMAA 182200Z 00000KT CAVOK 17/14 Q1015 NOSIG",
      "taf": "TAF OMAA 181700Z 1818/2000 25005KT 8000 NSC"
    },
    {
      "icao": "OMDB",
      "alert": "OK",
      "vis_m": 9999,
      "fzfg": false,
      "metar_trigger": false,
      "taf_trigger": false,
      "metar": "METAR OMDB 182230Z 19005KT 9999 FEW040 18/12 Q1015 NOSIG",
      "taf": "TAF OMDB 181700Z 1818/2000 27010KT 8000 FEW040"
    },
    {
      "icao": "UAAA",
      "alert": "OK",
      "vis_m": 1500,
      "fzfg": false,
      "metar_trigger": false,
      "taf_trigger": false,
      "metar": "SPECI UAAA 182243Z 13001MPS 1500 R05R/P2000D BR FU SCT007 BKN200 M17/M19 Q1026 NOSIG",
      "taf": "TAF UAAA 181702Z 1818/1918 30003MPS 1100 BR FU BKN011 OVC030 TXM09/1908Z TNM19/1903Z"
    },
    {
      "icao": "UBBB",
      "alert": "OK",
      "vis_m": 9999,
      "fzfg": false,
      "metar_trigger": false,
      "taf_trigger": false,
      "metar": "METAR UBBB 182230Z 05012KT 9999 SCT019 04/00 Q1028 NOSIG",
      "taf": "TAF UBBB 182253Z 1900/1924 04010KT 9999 BKN030 TX04/1910Z TN02/1901Z"
    },
    {
      "icao": "UDSG",
      "alert": "OK",
      "vis_m": 9999,
      "fzfg": false,
      "metar_trigger": false,
      "taf_trigger": false,
      "metar": "METAR UDSG 182230Z 07016KT 9999 BKN033 M04/M09 Q1015 NOSIG",
      "taf": "TAF UDSG 181658Z 1818/1918 VRB06KT 5000 BR BKN030"
    },
    {
      "icao": "UDYZ",
      "alert": "OK",
      "vis_m": 1000,
      "fzfg": false,
      "metar_trigger": false,
      "taf_trigger": false,
      "metar": "METAR UDYZ 182230Z 03001KT 1000 0900E R08/P2000U -SN BCFG FEW005 OVC016 M00/M01 Q1017 NOSIG",
      "taf": "TAF UDYZ 181700Z 1818/1918 VRB04KT 1500 BR BKN020"
    },
    {
      "icao": "UGKO",
      "alert": "OK",
      "vis_m": 9999,
      "fzfg": false,
      "metar_trigger": false,
      "taf_trigger": false,
      "metar": "METAR UGKO 182230Z VRB04KT 9999 BKN050 00/M00 Q1020 NOSIG",
      "taf": "TAF UGKO 181700Z 1818/1918 26007KT 9999 SCT023 BKN050 TX04/1911Z TNM01/1823Z"
    }
  ]
}