{
  "ts_utc": "2026-05-05T23:10:25Z",
  "threshold_m": 150,
  "source": "stations_override.txt (ICAO list) + aviationweather.gov (METAR/TAF raw)",
  "station_count": 159,
  "stations": [
    {
      "icao": "BIKF",
      "alert": "OK",
      "vis_m": 9999,
      "fzfg": false,
      "metar_trigger": false,
      "taf_trigger": false,
      "metar": "METAR BIKF 052300Z 03022KT 9999 FEW025 SCT060 BKN090 02/M03 Q1022",
      "taf": "TAF BIKF 052237Z 0600/0700 03018G30KT 9999 FEW030 SCT050 TX06/0615Z TN00/0606Z"
    },
    {
      "icao": "BKPR",
      "alert": "OK",
      "vis_m": 9999,
      "fzfg": false,
      "metar_trigger": false,
      "taf_trigger": false,
      "metar": "METAR BKPR 052300Z 03006KT CAVOK 13/02 Q1016 NOSIG",
      "taf": "TAF BKPR 051730Z 0518/0618 24008KT CAVOK"
    },
    {
      "icao": "EBCI",
      "alert": "OK",
      "vis_m": 4000,
      "fzfg": false,
      "metar_trigger": false,
      "taf_trigger": false,
      "metar": "METAR EBCI 052250Z 02010KT 4000 -RADZ BR SCT005 OVC007 09/08 Q1008 TEMPO 2500 RADZ BR BKN003",
      "taf": "TAF EBCI 051700Z 0518/0624 02007KT 4500 BR -DZ SCT004 BKN006"
    },
    {
      "icao": "EDDB",
      "alert": "OK",
      "vis_m": 7000,
      "fzfg": false,
      "metar_trigger": false,
      "taf_trigger": false,
      "metar": "METAR EDDB 052250Z AUTO 03008KT 7000 -RA BKN010 12/11 Q1007 TEMPO 4000 RA BKN004",
      "taf": "TAF EDDB 051700Z 0518/0618 04005KT 9999 BKN025"
    },
    {
      "icao": "EDDH",
      "alert": "OK",
      "vis_m": 9999,
      "fzfg": false,
      "metar_trigger": false,
      "taf_trigger": false,
      "metar": "METAR EDDH 052250Z AUTO 05006KT 360V070 9999 FEW043 10/06 Q1010 NOSIG",
      "taf": "TAF EDDH 051700Z 0518/0624 04007KT 9999 FEW025 BKN040"
    },
    {
      "icao": "EDDK",
      "alert": "OK",
      "vis_m": 6000,
      "fzfg": false,
      "metar_trigger": false,
      "taf_trigger": false,
      "metar": "METAR EDDK 052250Z AUTO 32006KT 6000 -RA BKN005 BKN011 OVC018 11/10 Q1007 TEMPO 4000 RA BKN004",
      "taf": ""
    },
    {
      "icao": "EDDN",
      "alert": "OK",
      "vis_m": 9999,
      "fzfg": false,
      "metar_trigger": false,
      "taf_trigger": false,
      "metar": "METAR EDDN 052250Z AUTO 17003KT 140V200 9999 SCT041 12/10 Q1008",
      "taf": ""
    },
    {
      "icao": "EDDS",
      "alert": "OK",
      "vis_m": 9999,
      "fzfg": false,
      "metar_trigger": false,
      "taf_trigger": false,
      "metar": "METAR EDDS 052250Z AUTO 23003KT 150V280 CAVOK 12/09 Q1008",
      "taf": "TAF EDDS 051700Z 0518/0618 05006KT 9999 SCT035"
    },
    {
      "icao": "EDFH",
      "alert": "OK",
      "vis_m": 9999,
      "fzfg": false,
      "metar_trigger": false,
      "taf_trigger": false,
      "metar": "METAR EDFH 052250Z 22002KT 9999 -RA FEW002 SCT006 BKN012 11/10 Q1006",
      "taf": "TAF EDFH 051700Z 0518/0618 22005KT 9999 SCT020"
    },
    {
      "icao": "EDJA",
      "alert": "OK",
      "vis_m": 9999,
      "fzfg": false,
      "metar_trigger": false,
      "taf_trigger": false,
      "metar": "METAR EDJA 052250Z AUTO 22007KT 9999 // BKN085/// OVC100/// 10/09 Q1009",
      "taf": "TAF EDJA 051700Z 0518/0603 23007KT CAVOK"
    },
    {
      "icao": "EDLW",
      "alert": "OK",
      "vis_m": 4500,
      "fzfg": false,
      "metar_trigger": false,
      "taf_trigger": false,
      "metar": "METAR EDLW 052250Z AUTO 36005KT 4500 // OVC002/// 11/10 Q1006",
      "taf": "TAF EDLW 051700Z 0518/0618 01005KT 7000 OVC006"
    },
    {
      "icao": "EDNY",
      "alert": "OK",
      "vis_m": 1000,
      "fzfg": false,
      "metar_trigger": false,
      "taf_trigger": false,
      "metar": "METAR EDNY 052250Z AUTO 06004KT 1000 0600 R24/1300U // FEW002/// BKN082/// 09/09 Q1009",
      "taf": "TAF EDNY 051700Z 0518/0603 24005KT CAVOK"
    },
    {
      "icao": "EDSB",
      "alert": "OK",
      "vis_m": 9999,
      "fzfg": false,
      "metar_trigger": false,
      "taf_trigger": false,
      "metar": "METAR EDSB 052250Z AUTO 20008KT 9999 BKN041/// BKN055/// 13/12 Q1008",
      "taf": "TAF EDSB 051700Z 0518/0618 22004KT 9999 SCT015 BKN030"
    },
    {
      "icao": "EETN",
      "alert": "OK",
      "vis_m": 9999,
      "fzfg": false,
      "metar_trigger": false,
      "taf_trigger": false,
      "metar": "METAR EETN 052250Z 27009KT CAVOK 03/01 Q1009 NOSIG",
      "taf": "TAF EETN 051730Z 0518/0618 28016KT CAVOK"
    },
    {
      "icao": "EFTU",
      "alert": "OK",
      "vis_m": 9999,
      "fzfg": false,
      "metar_trigger": false,
      "taf_trigger": false,
      "metar": "METAR EFTU 052250Z AUTO 26004KT CAVOK 00/M02 Q1009",
      "taf": "TAF EFTU 052026Z 0521/0621 27004KT CAVOK"
    },
    {
      "icao": "EGBB",
      "alert": "OK",
      "vis_m": 9999,
      "fzfg": false,
      "metar_trigger": false,
      "taf_trigger": false,
      "metar": "METAR EGBB 052250Z 05006KT 010V080 CAVOK 09/04 Q1015",
      "taf": ""
    },
    {
      "icao": "EGGP",
      "alert": "OK",
      "vis_m": 9999,
      "fzfg": false,
      "metar_trigger": false,
      "taf_trigger": false,
      "metar": "METAR EGGP 052250Z 05007KT 9999 FEW038 SCT046 08/02 Q1016",
      "taf": "TAF EGGP 051654Z 0518/0618 32008KT 9999 SCT035"
    },
    {
      "icao": "EGGW",
      "alert": "OK",
      "vis_m": 9999,
      "fzfg": false,
      "metar_trigger": false,
      "taf_trigger": false,
      "metar": "METAR EGGW 052250Z AUTO 03010KT 9999 SCT014 09/06 Q1013",
      "taf": "TAF EGGW 051655Z 0518/0618 03008KT 9999 SCT040"
    },
    {
      "icao": "EGKK",
      "alert": "OK",
      "vis_m": 9999,
      "fzfg": false,
      "metar_trigger": false,
      "taf_trigger": false,
      "metar": "METAR EGKK 052250Z 04007KT 9999 BKN030 11/07 Q1012",
      "taf": "TAF EGKK 051655Z 0518/0624 05006KT 9999 FEW030"
    },
    {
      "icao": "EGNM",
      "alert": "OK",
      "vis_m": 9999,
      "fzfg": false,
      "metar_trigger": false,
      "taf_trigger": false,
      "metar": "METAR EGNM 052250Z 03007KT 9999 FEW017 06/03 Q1016",
      "taf": ""
    },
    {
      "icao": "EGPD",
      "alert": "OK",
      "vis_m": 9999,
      "fzfg": false,
      "metar_trigger": false,
      "taf_trigger": false,
      "metar": "METAR EGPD 052250Z COR AUTO 36003KT 330V030 9999 NCD 02/M01 Q1018 NOSIG",
      "taf": "TAF EGPD 051659Z 0518/0618 36010KT 9999 FEW045"
    },
    {
      "icao": "EGPF",
      "alert": "OK",
      "vis_m": 9999,
      "fzfg": false,
      "metar_trigger": false,
      "taf_trigger": false,
      "metar": "METAR EGPF 052250Z AUTO 08008KT 9999 NCD 08/00 Q1018",
      "taf": "TAF EGPF 051657Z 0518/0618 07012KT 9999 FEW045"
    },
    {
      "icao": "EHBK",
      "alert": "OK",
      "vis_m": 6000,
      "fzfg": false,
      "metar_trigger": false,
      "taf_trigger": false,
      "metar": "METAR EHBK 052255Z AUTO 02011KT 360V060 6000 -RA FEW002/// BKN004/// OVC005/// 10/09 Q1008",
      "taf": "TAF EHBK 051656Z 0518/0624 01007KT 9999 OVC007"
    },
    {
      "icao": "EHEH",
      "alert": "OK",
      "vis_m": 9999,
      "fzfg": false,
      "metar_trigger": false,
      "taf_trigger": false,
      "metar": "METAR EHEH 052255Z AUTO 01007KT 340V050 9999 OVC014 10/07 Q1008 GRN",
      "taf": "TAF EHEH 051733Z 0518/0624 03008KT 9999 OVC015"
    },
    {
      "icao": "EKBI",
      "alert": "OK",
      "vis_m": 9999,
      "fzfg": false,
      "metar_trigger": false,
      "taf_trigger": false,
      "metar": "METAR EKBI 052250Z AUTO 35006KT 9999 NCD 05/02 Q1012",
      "taf": "TAF EKBI 052027Z 0521/0621 01007KT CAVOK"
    },
    {
      "icao": "EKCH",
      "alert": "OK",
      "vis_m": 9999,
      "fzfg": false,
      "metar_trigger": false,
      "taf_trigger": false,
      "metar": "METAR EKCH 052250Z AUTO 01011KT 9999 NCD 10/01 Q1011 NOSIG",
      "taf": "TAF EKCH 052027Z 0521/0621 01010KT CAVOK"
    },
    {
      "icao": "ENAL",
      "alert": "OK",
      "vis_m": 9999,
      "fzfg": false,
      "metar_trigger": false,
      "taf_trigger": false,
      "metar": "METAR ENAL 052250Z AUTO 20009KT 9999 FEW024/// SCT034/// BKN052/// 04/M01 Q1012",
      "taf": "TAF ENAL 052000Z 0521/0606 22012KT 9999 FEW015 SCT030"
    },
    {
      "icao": "ENBR",
      "alert": "OK",
      "vis_m": 9999,
      "fzfg": false,
      "metar_trigger": false,
      "taf_trigger": false,
      "metar": "METAR ENBR 052250Z 09003KT 9999 FEW037 BKN052 01/M01 Q1014 RMK WIND 1200FT 14002KT",
      "taf": "TAF ENBR 051700Z 0518/0618 33007KT 9999 SCT030"
    },
    {
      "icao": "ENGM",
      "alert": "OK",
      "vis_m": 9999,
      "fzfg": false,
      "metar_trigger": false,
      "taf_trigger": false,
      "metar": "METAR ENGM 052250Z 33003KT 310V010 CAVOK 01/M09 Q1011",
      "taf": "TAF ENGM 051700Z 0518/0618 30008KT CAVOK"
    },
    {
      "icao": "ENHD",
      "alert": "OK",
      "vis_m": 9999,
      "fzfg": false,
      "metar_trigger": false,
      "taf_trigger": false,
      "metar": "METAR ENHD 052250Z AUTO 08003KT 9999 SCT030/// 03/M02 Q1015",
      "taf": "TAF ENHD 051400Z 0515/0522 32008KT 9999 FEW015 SCT030"
    },
    {
      "icao": "ENTC",
      "alert": "OK",
      "vis_m": 9999,
      "fzfg": false,
      "metar_trigger": false,
      "taf_trigger": false,
      "metar": "METAR ENTC 052250Z AUTO 04005KT 9999 BKN054/// 02/M02 Q1003 RMK WIND 2600FT 01003KT",
      "taf": "TAF ENTC 051700Z 0518/0618 04008KT 9999 FEW025 BKN040"
    },
    {
      "icao": "ENTO",
      "alert": "OK",
      "vis_m": 9999,
      "fzfg": false,
      "metar_trigger": false,
      "taf_trigger": false,
      "metar": "METAR ENTO 052250Z AUTO 35007KT 9999 NCD 03/M06 Q1012",
      "taf": "TAF ENTO 051700Z 0518/0618 23010KT CAVOK"
    },
    {
      "icao": "ENVA",
      "alert": "OK",
      "vis_m": 9999,
      "fzfg": false,
      "metar_trigger": false,
      "taf_trigger": false,
      "metar": "METAR ENVA 052250Z AUTO 25009KT 9999 NCD 02/M02 Q1011 RMK WIND 670FT 25014KT",
      "taf": "TAF ENVA 051700Z 0518/0618 27015KT 9999 FEW012 BKN035"
    },
    {
      "icao": "ENZV",
      "alert": "OK",
      "vis_m": 9999,
      "fzfg": false,
      "metar_trigger": false,
      "taf_trigger": false,
      "metar": "METAR ENZV 052250Z AUTO 34006KT 9999 NCD 04/M01 Q1015",
      "taf": "TAF ENZV 051700Z 0518/0618 33008KT 9999 SCT030"
    },
    {
      "icao": "EPGD",
      "alert": "OK",
      "vis_m": 9999,
      "fzfg": false,
      "metar_trigger": false,
      "taf_trigger": false,
      "metar": "METAR EPGD 052300Z 03002KT CAVOK 06/05 Q1010",
      "taf": "TAF EPGD 051730Z 0518/0618 04004KT 9999 FEW049"
    },
    {
      "icao": "EPKK",
      "alert": "OK",
      "vis_m": 9999,
      "fzfg": false,
      "metar_trigger": false,
      "taf_trigger": false,
      "metar": "METAR EPKK 052300Z 32002KT CAVOK 14/05 Q1007",
      "taf": "TAF EPKK 052030Z 0521/0621 VRB02KT CAVOK"
    },
    {
      "icao": "EPKT",
      "alert": "OK",
      "vis_m": 9999,
      "fzfg": false,
      "metar_trigger": false,
      "taf_trigger": false,
      "metar": "METAR EPKT 052300Z 19010KT CAVOK 19/05 Q1006",
      "taf": "TAF EPKT 051730Z 0518/0618 21012KT CAVOK"
    },
    {
      "icao": "EPLB",
      "alert": "OK",
      "vis_m": 9999,
      "fzfg": false,
      "metar_trigger": false,
      "taf_trigger": false,
      "metar": "METAR EPLB 052300Z 22012KT CAVOK 18/03 Q1007",
      "taf": "TAF EPLB 051730Z 0518/0618 20007KT CAVOK"
    },
    {
      "icao": "EPMO",
      "alert": "OK",
      "vis_m": 9999,
      "fzfg": false,
      "metar_trigger": false,
      "taf_trigger": false,
      "metar": "METAR EPMO 052300Z 03009KT CAVOK 11/07 Q1006",
      "taf": "TAF EPMO 051730Z 0518/0618 19010KT CAVOK"
    },
    {
      "icao": "EPPO",
      "alert": "OK",
      "vis_m": 9999,
      "fzfg": false,
      "metar_trigger": false,
      "taf_trigger": false,
      "metar": "METAR EPPO 052300Z 04006KT CAVOK 12/09 Q1007",
      "taf": "TAF EPPO 051730Z 0518/0618 02007KT CAVOK"
    },
    {
      "icao": "EPRA",
      "alert": "OK",
      "vis_m": 9999,
      "fzfg": false,
      "metar_trigger": false,
      "taf_trigger": false,
      "metar": "METAR EPRA 052300Z 21008KT CAVOK 14/03 Q1006",
      "taf": "TAF EPRA 052030Z 0521/0606 17008KT CAVOK"
    },
    {
      "icao": "EPRZ",
      "alert": "OK",
      "vis_m": 9999,
      "fzfg": false,
      "metar_trigger": false,
      "taf_trigger": false,
      "metar": "METAR EPRZ 052300Z 16004KT CAVOK 17/01 Q1008",
      "taf": "TAF EPRZ 051730Z 0518/0618 20014KT CAVOK"
    },
    {
      "icao": "EPSC",
      "alert": "OK",
      "vis_m": 9999,
      "fzfg": false,
      "metar_trigger": false,
      "taf_trigger": false,
      "metar": "METAR EPSC 052300Z 01004KT 340V040 9999 SCT005 BKN017 09/09 Q1009",
      "taf": "TAF EPSC 051730Z 0518/0618 02006KT 9999 BKN007"
    },
    {
      "icao": "EPSY",
      "alert": "OK",
      "vis_m": 9999,
      "fzfg": false,
      "metar_trigger": false,
      "taf_trigger": false,
      "metar": "METAR EPSY 052300Z 02007KT CAVOK 08/07 Q1008",
      "taf": "TAF EPSY 052030Z 0521/0606 04006KT CAVOK"
    },
    {
      "icao": "EPWA",
      "alert": "OK",
      "vis_m": 9999,
      "fzfg": false,
      "metar_trigger": false,
      "taf_trigger": false,
      "metar": "METAR EPWA 052300Z 04005KT CAVOK 17/12 Q1006 NOSIG",
      "taf": "TAF EPWA 052030Z 0521/0621 VRB05KT CAVOK"
    },
    {
      "icao": "EPWR",
      "alert": "OK",
      "vis_m": 9999,
      "fzfg": false,
      "metar_trigger": false,
      "taf_trigger": false,
      "metar": "METAR EPWR 052300Z 33005KT CAVOK 15/10 Q1005",
      "taf": "TAF EPWR 052030Z 0521/0621 02007KT CAVOK"
    },
    {
      "icao": "ESGG",
      "alert": "OK",
      "vis_m": 9999,
      "fzfg": false,
      "metar_trigger": false,
      "taf_trigger": false,
      "metar": "METAR ESGG 052250Z 01002KT CAVOK 03/M04 Q1012",
      "taf": "TAF ESGG 052030Z 0521/0621 29005KT CAVOK"
    },
    {
      "icao": "ESKN",
      "alert": "OK",
      "vis_m": 9999,
      "fzfg": false,
      "metar_trigger": false,
      "taf_trigger": false,
      "metar": "METAR ESKN 052250Z VRB01KT CAVOK M01/M05 Q1011",
      "taf": "TAF ESKN 052030Z 0521/0621 VRB03KT CAVOK"
    },
    {
      "icao": "ESMS",
      "alert": "OK",
      "vis_m": 9999,
      "fzfg": false,
      "metar_trigger": false,
      "taf_trigger": false,
      "metar": "METAR ESMS 052250Z 34006KT CAVOK 04/M04 Q1010",
      "taf": "TAF ESMS 052027Z 0521/0621 34008KT CAVOK"
    },
    {
      "icao": "ESSA",
      "alert": "OK",
      "vis_m": 9999,
      "fzfg": false,
      "metar_trigger": false,
      "taf_trigger": false,
      "metar": "METAR ESSA 052250Z 25003KT CAVOK M02/M03 Q1011 NOSIG",
      "taf": "TAF ESSA 052030Z 0521/0621 VRB03KT CAVOK"
    },
    {
      "icao": "EYKA",
      "alert": "OK",
      "vis_m": 9999,
      "fzfg": false,
      "metar_trigger": false,
      "taf_trigger": false,
      "metar": "METAR EYKA 052250Z VRB02KT 9999 BKN078CB 09/09 Q1010",
      "taf": "TAF EYKA 052302Z 0600/0624 VRB03KT 9000 NSC"
    },
    {
      "icao": "EYPA",
      "alert": "OK",
      "vis_m": 9999,
      "fzfg": false,
      "metar_trigger": false,
      "taf_trigger": false,
      "metar": "METAR EYPA 052250Z AUTO 04002KT 9999 NCD 03/02 Q1011",
      "taf": "TAF EYPA 052302Z 0600/0624 VRB03KT 5000 MIFG BR NSC"
    },
    {
      "icao": "EYVI",
      "alert": "OK",
      "vis_m": 9999,
      "fzfg": false,
      "metar_trigger": false,
      "taf_trigger": false,
      "metar": "METAR EYVI 052250Z 02007KT CAVOK 11/07 Q1008 NOSIG",
      "taf": "TAF EYVI 052302Z 0600/0624 VRB03KT 9000 NSC"
    },
    {
      "icao": "GCFV",
      "alert": "OK",
      "vis_m": 9999,
      "fzfg": false,
      "metar_trigger": false,
      "taf_trigger": false,
      "metar": "METAR GCFV 052300Z AUTO 03016KT 9999 BKN015 20/17 Q1015",
      "taf": "TAF GCFV 052000Z 0521/0621 04012KT 9999 FEW025 TX23/0614Z TN18/0606Z"
    },
    {
      "icao": "GCLP",
      "alert": "OK",
      "vis_m": 9999,
      "fzfg": false,
      "metar_trigger": false,
      "taf_trigger": false,
      "metar": "METAR GCLP 052300Z 01014KT 9999 FEW020 20/17 Q1016 NOSIG",
      "taf": ""
    },
    {
      "icao": "GCTS",
      "alert": "OK",
      "vis_m": 9999,
      "fzfg": false,
      "metar_trigger": false,
      "taf_trigger": false,
      "metar": "METAR GCTS 052300Z 08013KT 9999 SCT015 20/16 Q1016 NOSIG",
      "taf": "TAF GCTS 052000Z 0521/0621 05007KT 9999 FEW025 TX24/0614Z TN17/0606Z"
    },
    {
      "icao": "GMAD",
      "alert": "OK",
      "vis_m": 9999,
      "fzfg": false,
      "metar_trigger": false,
      "taf_trigger": false,
      "metar": "METAR GMAD 052300Z 22003KT CAVOK 17/12 Q1012 NOSIG",
      "taf": "TAF GMAD 051700Z 0518/0624 20008KT CAVOK"
    },
    {
      "icao": "GMMN",
      "alert": "OK",
      "vis_m": 9999,
      "fzfg": false,
      "metar_trigger": false,
      "taf_trigger": false,
      "metar": "METAR GMMN 052300Z 04006KT 9999 SCT026 15/11 Q1015 NOSIG",
      "taf": "TAF GMMN 051700Z 0518/0624 35010KT CAVOK"
    },
    {
      "icao": "GMMX",
      "alert": "OK",
      "vis_m": 8000,
      "fzfg": false,
      "metar_trigger": false,
      "taf_trigger": false,
      "metar": "METAR GMMX 052300Z 01005KT 340V050 8000 FEW033 SCT200 16/09 Q1014 NOSIG",
      "taf": "TAF GMMX 051700Z 0518/0624 06006KT 8000 NSC"
    },
    {
      "icao": "HEGN",
      "alert": "OK",
      "vis_m": 9999,
      "fzfg": false,
      "metar_trigger": false,
      "taf_trigger": false,
      "metar": "METAR HEGN 052200Z 29011KT CAVOK 20/02 Q1014 NOSIG",
      "taf": "TAF HEGN 052300Z 0600/0706 29015KT CAVOK"
    },
    {
      "icao": "HEMA",
      "alert": "OK",
      "vis_m": 9999,
      "fzfg": false,
      "metar_trigger": false,
      "taf_trigger": false,
      "metar": "METAR HEMA 052200Z 31010KT CAVOK 21/12 Q1013 NOSIG",
      "taf": "TAF HEMA 052300Z 0600/0706 30015KT CAVOK"
    },
    {
      "icao": "HESH",
      "alert": "OK",
      "vis_m": 9999,
      "fzfg": false,
      "metar_trigger": false,
      "taf_trigger": false,
      "metar": "METAR HESH 052200Z 34011KT CAVOK 23/06 Q1013 NOSIG",
      "taf": "TAF HESH 052300Z 0600/0706 33015KT CAVOK"
    },
    {
      "icao": "HESX",
      "alert": "OK",
      "vis_m": 9999,
      "fzfg": false,
      "metar_trigger": false,
      "taf_trigger": false,
      "metar": "METAR HESX 052200Z 01004KT CAVOK 13/07 Q1017 NOSIG",
      "taf": "TAF HESX 052300Z 0600/0706 35010KT 9999 FEW030"
    },
    {
      "icao": "LATI",
      "alert": "OK",
      "vis_m": 9999,
      "fzfg": false,
      "metar_trigger": false,
      "taf_trigger": false,
      "metar": "METAR LATI 052250Z VRB02KT CAVOK 12/09 Q1017 NOSIG",
      "taf": "TAF LATI 052300Z 0600/0624 VRB03KT CAVOK TX24/0611Z TN08/0604Z"
    },
    {
      "icao": "LBPD",
      "alert": "OK",
      "vis_m": 9999,
      "fzfg": false,
      "metar_trigger": false,
      "taf_trigger": false,
      "metar": "METAR LBPD 052300Z AUTO 11009KT 9999 NCD 12/05 Q1015",
      "taf": "TAF LBPD 051700Z 0518/0618 VRB04KT CAVOK"
    },
    {
      "icao": "LBSF",
      "alert": "OK",
      "vis_m": 9999,
      "fzfg": false,
      "metar_trigger": false,
      "taf_trigger": false,
      "metar": "METAR LBSF 052300Z AUTO 19005KT 9999 NCD 10/05 Q1015 NOSIG",
      "taf": "TAF LBSF 051700Z 0518/0618 10010KT 9999 SCT070"
    },
    {
      "icao": "LBWN",
      "alert": "OK",
      "vis_m": 9999,
      "fzfg": false,
      "metar_trigger": false,
      "taf_trigger": false,
      "metar": "METAR LBWN 052300Z AUTO VRB02KT 9999 NCD 07/03 Q1016 NOSIG",
      "taf": "TAF LBWN 051700Z 0518/0618 12012KT CAVOK"
    },
    {
      "icao": "LCLK",
      "alert": "OK",
      "vis_m": 9999,
      "fzfg": false,
      "metar_trigger": false,
      "taf_trigger": false,
      "metar": "METAR LCLK 052300Z 30006KT CAVOK 12/09 Q1014 NOSIG",
      "taf": "TAF LCLK 051730Z 0518/0618 30007KT 9999 FEW030"
    },
    {
      "icao": "LCPH",
      "alert": "OK",
      "vis_m": 9999,
      "fzfg": false,
      "metar_trigger": false,
      "taf_trigger": false,
      "metar": "METAR LCPH 052300Z 02007KT 010V080 CAVOK 12/08 Q1014 NOSIG",
      "taf": "TAF LCPH 051730Z 0518/0618 30010KT 9999 FEW025"
    },
    {
      "icao": "LEAL",
      "alert": "OK",
      "vis_m": 9999,
      "fzfg": false,
      "metar_trigger": false,
      "taf_trigger": false,
      "metar": "METAR LEAL 052300Z VRB02KT CAVOK 18/14 Q1011 NOSIG",
      "taf": "TAF LEAL 051700Z 0518/0618 VRB04KT CAVOK TX23/0612Z TN12/0605Z"
    },
    {
      "icao": "LEBB",
      "alert": "OK",
      "vis_m": 9999,
      "fzfg": false,
      "metar_trigger": false,
      "taf_trigger": false,
      "metar": "METAR LEBB 052300Z AUTO 11002KT 9999 FEW032 SCT049 BKN060 11/10 Q1014",
      "taf": "TAF LEBB 051700Z 0518/0618 20007KT 9999 FEW010 SCT030 TX16/0611Z TN09/0604Z"
    },
    {
      "icao": "LEBL",
      "alert": "OK",
      "vis_m": 9999,
      "fzfg": false,
      "metar_trigger": false,
      "taf_trigger": false,
      "metar": "METAR LEBL 052300Z 33005KT 9999 SCT040 15/11 Q1011 NOSIG",
      "taf": "TAF LEBL 051700Z 0518/0618 25007KT 9999 SCT040 TX20/0613Z TN12/0605Z"
    },
    {
      "icao": "LECH",
      "alert": "OK",
      "vis_m": 8000,
      "fzfg": false,
      "metar_trigger": false,
      "taf_trigger": false,
      "metar": "METAR LECH 052300Z AUTO 01006KT 330V030 8000 NCD 11/08 Q1013",
      "taf": "TAF LECH 051700Z 0518/0618 09009KT 9999 SCT020 BKN025 TX20/0614Z TN07/0605Z"
    },
    {
      "icao": "LEMD",
      "alert": "OK",
      "vis_m": 9999,
      "fzfg": false,
      "metar_trigger": false,
      "taf_trigger": false,
      "metar": "METAR LEMD 052300Z 36003KT 310V110 CAVOK 10/03 Q1013 NOSIG",
      "taf": ""
    },
    {
      "icao": "LEMG",
      "alert": "OK",
      "vis_m": 9999,
      "fzfg": false,
      "metar_trigger": false,
      "taf_trigger": false,
      "metar": "METAR LEMG 052300Z 29010KT CAVOK 18/06 Q1012 NOSIG",
      "taf": "TAF LEMG 051700Z 0518/0618 29010KT CAVOK TX26/0614Z TN16/0607Z"
    },
    {
      "icao": "LEVC",
      "alert": "OK",
      "vis_m": 9999,
      "fzfg": false,
      "metar_trigger": false,
      "taf_trigger": false,
      "metar": "METAR LEVC 052300Z 02003KT 320V070 9999 BKN044 17/08 Q1012 NOSIG",
      "taf": ""
    },
    {
      "icao": "LEXJ",
      "alert": "OK",
      "vis_m": 9999,
      "fzfg": false,
      "metar_trigger": false,
      "taf_trigger": false,
      "metar": "METAR LEXJ 052300Z AUTO 25006KT 9999 SCT026 SCT044 12/10 Q1015",
      "taf": "TAF LEXJ 052000Z 0521/0621 22008KT 9999 FEW020 BKN025 TX18/0614Z TN11/0605Z"
    },
    {
      "icao": "LEZG",
      "alert": "OK",
      "vis_m": 9999,
      "fzfg": false,
      "metar_trigger": false,
      "taf_trigger": false,
      "metar": "METAR LEZG 052300Z 27007KT CAVOK 12/08 Q1014 NOSIG",
      "taf": "TAF LEZG 051700Z 0518/0618 30010KT 9999 SCT070 TX19/0614Z TN09/0605Z"
    },
    {
      "icao": "LEZL",
      "alert": "OK",
      "vis_m": 9999,
      "fzfg": false,
      "metar_trigger": false,
      "taf_trigger": false,
      "metar": "METAR LEZL 052300Z 31004KT 290V350 CAVOK 17/06 Q1013 NOSIG",
      "taf": "TAF LEZL 052000Z 0521/0621 22010KT CAVOK TX27/0615Z TN11/0607Z"
    },
    {
      "icao": "LFBD",
      "alert": "OK",
      "vis_m": 9999,
      "fzfg": false,
      "metar_trigger": false,
      "taf_trigger": false,
      "metar": "METAR LFBD 052300Z AUTO 22007KT 9999 FEW031/// ///TCU 11/08 Q1011 TEMPO 4000 SHRA BKN010 FEW020CB BKN025TCU",
      "taf": ""
    },
    {
      "icao": "LFLL",
      "alert": "OK",
      "vis_m": 9999,
      "fzfg": false,
      "metar_trigger": false,
      "taf_trigger": false,
      "metar": "METAR LFLL 052300Z 12007KT CAVOK 12/10 Q1010 RERA TEMPO 4000 RA SCT035TCU",
      "taf": ""
    },
    {
      "icao": "LFLS",
      "alert": "OK",
      "vis_m": 9999,
      "fzfg": false,
      "metar_trigger": false,
      "taf_trigger": false,
      "metar": "METAR LFLS 052300Z AUTO 08002KT 9999 RA FEW036/// BKN052/// OVC062/// ///CB 11/10 Q1010",
      "taf": ""
    },
    {
      "icao": "LFMN",
      "alert": "OK",
      "vis_m": 5000,
      "fzfg": false,
      "metar_trigger": false,
      "taf_trigger": false,
      "metar": "METAR LFMN 052300Z 33009KT 5000 RA BKN030 OVC060 15/14 Q1010 NOSIG",
      "taf": ""
    },
    {
      "icao": "LFOB",
      "alert": "OK",
      "vis_m": 9000,
      "fzfg": false,
      "metar_trigger": false,
      "taf_trigger": false,
      "metar": "METAR LFOB 052300Z AUTO 35007KT 9000 -RA SCT022 SCT048 BKN062 10/09 Q1009 TEMPO 4500 RA",
      "taf": "TAF LFOB 051700Z 0518/0618 03009KT 9000 BKN020 OVC035"
    },
    {
      "icao": "LFPO",
      "alert": "OK",
      "vis_m": 3800,
      "fzfg": false,
      "metar_trigger": false,
      "taf_trigger": false,
      "metar": "METAR LFPO 052300Z AUTO 36009KT 3800 -RADZ BR BKN008 OVC012 11/11 Q1008 TEMPO BKN016",
      "taf": "TAF LFPO 051700Z 0518/0624 01010KT 6000 OVC008"
    },
    {
      "icao": "LFSB",
      "alert": "OK",
      "vis_m": 9999,
      "fzfg": false,
      "metar_trigger": false,
      "taf_trigger": false,
      "metar": "METAR LFSB 052300Z AUTO 18003KT CAVOK 11/10 Q1009 TEMPO 3000 BCFG",
      "taf": ""
    },
    {
      "icao": "LGAV",
      "alert": "OK",
      "vis_m": 9999,
      "fzfg": false,
      "metar_trigger": false,
      "taf_trigger": false,
      "metar": "METAR LGAV 052250Z 28003KT CAVOK 11/07 Q1016 NOSIG",
      "taf": "TAF LGAV 052300Z 0600/0624 VRB03KT 9999 FEW025"
    },
    {
      "icao": "LGTS",
      "alert": "OK",
      "vis_m": 9999,
      "fzfg": false,
      "metar_trigger": false,
      "taf_trigger": false,
      "metar": "METAR LGTS 052250Z VRB03KT CAVOK 17/13 Q1015 NOSIG",
      "taf": "TAF LGTS 052300Z 0600/0624 VRB03KT 9999 FEW025"
    },
    {
      "icao": "LHBP",
      "alert": "OK",
      "vis_m": 9999,
      "fzfg": false,
      "metar_trigger": false,
      "taf_trigger": false,
      "metar": "METAR LHBP 052300Z 20004KT CAVOK 16/08 Q1011 NOSIG",
      "taf": "TAF LHBP 051715Z 0518/0618 22009KT CAVOK"
    },
    {
      "icao": "LHDC",
      "alert": "OK",
      "vis_m": 9999,
      "fzfg": false,
      "metar_trigger": false,
      "taf_trigger": false,
      "metar": "METAR LHDC 052245Z AUTO 23006KT CAVOK 11/03 Q1011",
      "taf": "TAF LHDC 051415Z 0515/0524 18008KT CAVOK"
    },
    {
      "icao": "LIBD",
      "alert": "OK",
      "vis_m": 9999,
      "fzfg": false,
      "metar_trigger": false,
      "taf_trigger": false,
      "metar": "METAR LIBD 052250Z VRB01KT CAVOK 17/13 Q1015",
      "taf": "TAF LIBD 051700Z 0518/0618 VRB05KT 9999 FEW030"
    },
    {
      "icao": "LIBG",
      "alert": "OK",
      "vis_m": null,
      "fzfg": false,
      "metar_trigger": false,
      "taf_trigger": false,
      "metar": "",
      "taf": "TAF LIBG 051400Z 0515/0524 17008KT 9999 FEW020"
    },
    {
      "icao": "LIBP",
      "alert": "OK",
      "vis_m": 9000,
      "fzfg": false,
      "metar_trigger": false,
      "taf_trigger": false,
      "metar": "METAR LIBP 052250Z AUTO VRB01KT 9000 FEW098/// 14/14 Q1014",
      "taf": "TAF LIBP 051700Z 0518/0618 VRB05KT 9999 SCT070"
    },
    {
      "icao": "LIBR",
      "alert": "OK",
      "vis_m": 9999,
      "fzfg": false,
      "metar_trigger": false,
      "taf_trigger": false,
      "metar": "METAR LIBR 052250Z 18006KT CAVOK 16/16 Q1015",
      "taf": "TAF LIBR 051700Z 0518/0618 19012KT 9999 FEW030"
    },
    {
      "icao": "LICA",
      "alert": "OK",
      "vis_m": 9999,
      "fzfg": false,
      "metar_trigger": false,
      "taf_trigger": false,
      "metar": "METAR LICA 052250Z AUTO 06009KT 9999 BKN150/// 18/13 Q1015",
      "taf": "TAF LICA 051700Z 0518/0618 VRB05KT 9999 FEW020"
    },
    {
      "icao": "LICC",
      "alert": "OK",
      "vis_m": 9999,
      "fzfg": false,
      "metar_trigger": false,
      "taf_trigger": false,
      "metar": "METAR LICC 052250Z 04006KT CAVOK 18/13 Q1016",
      "taf": "TAF LICC 051700Z 0518/0618 08010KT 9999 FEW030"
    },
    {
      "icao": "LICJ",
      "alert": "OK",
      "vis_m": 9999,
      "fzfg": false,
      "metar_trigger": false,
      "taf_trigger": false,
      "metar": "METAR LICJ 052250Z 15003KT CAVOK 18/14 Q1014",
      "taf": "TAF LICJ 051700Z 0518/0618 VRB05KT CAVOK"
    },
    {
      "icao": "LIMC",
      "alert": "OK",
      "vis_m": 6000,
      "fzfg": false,
      "metar_trigger": false,
      "taf_trigger": false,
      "metar": "METAR LIMC 052250Z 33004KT 6000 -RA SCT005 BKN015 13/13 Q1012 NOSIG",
      "taf": "TAF LIMC 051700Z 0518/0624 35005KT 9999 BKN010"
    },
    {
      "icao": "LIME",
      "alert": "OK",
      "vis_m": 9999,
      "fzfg": false,
      "metar_trigger": false,
      "taf_trigger": false,
      "metar": "METAR LIME 052250Z VRB02KT 9999 BKN013 13/13 Q1012 NOSIG",
      "taf": "TAF LIME 051700Z 0518/0618 VRB05KT 9999 BKN030"
    },
    {
      "icao": "LIMF",
      "alert": "OK",
      "vis_m": 3000,
      "fzfg": false,
      "metar_trigger": false,
      "taf_trigger": false,
      "metar": "METAR LIMF 052250Z VRB02KT 3000 BR SCT020 BKN030 13/12 Q1012",
      "taf": "TAF LIMF 051700Z 0518/0618 VRB05KT 9999 BKN020"
    },
    {
      "icao": "LIMJ",
      "alert": "OK",
      "vis_m": 9999,
      "fzfg": false,
      "metar_trigger": false,
      "taf_trigger": false,
      "metar": "METAR LIMJ 052250Z 30005KT 9999 FEW017 SCT024 17/14 Q1011",
      "taf": "TAF LIMJ 051700Z 0518/0618 15010KT 9999 BKN030"
    },
    {
      "icao": "LIPE",
      "alert": "OK",
      "vis_m": 4000,
      "fzfg": false,
      "metar_trigger": false,
      "taf_trigger": false,
      "metar": "METAR LIPE 052250Z 05003KT 020V090 4000 BR BKN005 15/14 Q1012",
      "taf": "TAF LIPE 051700Z 0518/0618 03006KT 9999 BKN030"
    },
    {
      "icao": "LIPH",
      "alert": "OK",
      "vis_m": 9999,
      "fzfg": false,
      "metar_trigger": false,
      "taf_trigger": false,
      "metar": "METAR LIPH 052250Z AUTO 02003KT 9999 OVC011/// 14/13 Q1013",
      "taf": "TAF LIPH 051700Z 0518/0618 06007KT 4000 BR BKN020"
    },
    {
      "icao": "LIPQ",
      "alert": "OK",
      "vis_m": 9999,
      "fzfg": false,
      "metar_trigger": false,
      "taf_trigger": false,
      "metar": "METAR LIPQ 052250Z AUTO 16006KT 9999 BKN020/// 15/13 Q1013",
      "taf": "TAF LIPQ 051700Z 0518/0618 VRB05KT 9999 BKN020"
    },
    {
      "icao": "LIPR",
      "alert": "OK",
      "vis_m": 9999,
      "fzfg": false,
      "metar_trigger": false,
      "taf_trigger": false,
      "metar": "METAR LIPR 052250Z AUTO 17003KT 140V210 9999 SCT084/// BKN140/// 15/13 Q1013",
      "taf": "TAF LIPR 051700Z 0518/0618 17010KT 9999 SCT030"
    },
    {
      "icao": "LIPX",
      "alert": "OK",
      "vis_m": 9999,
      "fzfg": false,
      "metar_trigger": false,
      "taf_trigger": false,
      "metar": "METAR LIPX 052250Z 34002KT CAVOK 11/11 Q1012",
      "taf": "TAF LIPX 051700Z 0518/0618 VRB05KT 9999 BKN020"
    },
    {
      "icao": "LIPY",
      "alert": "OK",
      "vis_m": 9999,
      "fzfg": false,
      "metar_trigger": false,
      "taf_trigger": false,
      "metar": "METAR LIPY 052250Z AUTO 22003KT 9999 BKN055/// OVC094/// 16/15 Q1013",
      "taf": "TAF LIPY 051700Z 0518/0618 15007KT 9999 SCT030"
    },
    {
      "icao": "LIPZ",
      "alert": "OK",
      "vis_m": 9999,
      "fzfg": false,
      "metar_trigger": false,
      "taf_trigger": false,
      "metar": "METAR LIPZ 052250Z 02008KT 9999 BKN010 14/13 Q1012 NOSIG",
      "taf": "TAF LIPZ 051700Z 0518/0624 04007KT 9999 SCT010 BKN020"
    },
    {
      "icao": "LIRF",
      "alert": "OK",
      "vis_m": 9999,
      "fzfg": false,
      "metar_trigger": false,
      "taf_trigger": false,
      "metar": "METAR LIRF 052250Z 12007KT 9999 FEW013 SCT040 17/14 Q1015 NOSIG",
      "taf": "TAF LIRF 051700Z 0518/0624 16016KT 9999 BKN030"
    },
    {
      "icao": "LIRN",
      "alert": "OK",
      "vis_m": 9999,
      "fzfg": false,
      "metar_trigger": false,
      "taf_trigger": false,
      "metar": "METAR LIRN 052250Z 05004KT CAVOK 15/11 Q1016 NOSIG",
      "taf": "TAF LIRN 051700Z 0518/0618 VRB05KT 9999 SCT050"
    },
    {
      "icao": "LIRP",
      "alert": "OK",
      "vis_m": 4000,
      "fzfg": false,
      "metar_trigger": false,
      "taf_trigger": false,
      "metar": "METAR LIRP 052245Z 18008KT 4000 TSRA FEW020CB BKN025 15/14 Q1012 NOSIG",
      "taf": "TAF LIRP 051700Z 0518/0618 26007KT 9999 SCT020 BKN040"
    },
    {
      "icao": "LIRZ",
      "alert": "OK",
      "vis_m": 9999,
      "fzfg": false,
      "metar_trigger": false,
      "taf_trigger": false,
      "metar": "METAR LIRZ 052250Z AUTO 21007KT 9999 OVC032/// 16/12 Q1014",
      "taf": "TAF LIRZ 051700Z 0518/0618 19010KT 9999 BKN030"
    },
    {
      "icao": "LJLJ",
      "alert": "OK",
      "vis_m": 9999,
      "fzfg": false,
      "metar_trigger": false,
      "taf_trigger": false,
      "metar": "METAR LJLJ 052300Z 00000KT 9999 FEW010 SCT027 BKN043 13/10 Q1013 NOSIG",
      "taf": "TAF LJLJ 052300Z 0600/0700 VRB02KT 9999 FEW007 SCT025 BKN045"
    },
    {
      "icao": "LKMT",
      "alert": "OK",
      "vis_m": 9999,
      "fzfg": false,
      "metar_trigger": false,
      "taf_trigger": false,
      "metar": "METAR LKMT 052300Z 20009KT CAVOK 17/07 Q1006 NOSIG",
      "taf": "TAF LKMT 051700Z 0518/0618 20013KT CAVOK"
    },
    {
      "icao": "LKPR",
      "alert": "OK",
      "vis_m": 9999,
      "fzfg": false,
      "metar_trigger": false,
      "taf_trigger": false,
      "metar": "METAR LKPR 052300Z 25003KT 9999 -SHRA FEW045 12/12 Q1006 NOSIG",
      "taf": "TAF LKPR 052000Z 0521/0703 03006KT CAVOK"
    },
    {
      "icao": "LLBG",
      "alert": "OK",
      "vis_m": 9999,
      "fzfg": false,
      "metar_trigger": false,
      "taf_trigger": false,
      "metar": "METAR LLBG 052250Z VRB03KT 9999 FEW033 SCT047 17/10 Q1015 NOSIG RMK BKN070",
      "taf": "TAF LLBG 052301Z 0600/0624 VRB04KT 9999 SCT030 BKN050 TX22/0611Z TN16/0603Z"
    },
    {
      "icao": "LMML",
      "alert": "OK",
      "vis_m": 9999,
      "fzfg": false,
      "metar_trigger": false,
      "taf_trigger": false,
      "metar": "METAR LMML 052245Z 13010KT 9999 FEW006 17/16 Q1016 NOSIG",
      "taf": "TAF LMML 052300Z 0600/0624 13012KT 9999 FEW012"
    },
    {
      "icao": "LOWW",
      "alert": "OK",
      "vis_m": 9999,
      "fzfg": false,
      "metar_trigger": false,
      "taf_trigger": false,
      "metar": "METAR LOWW 052250Z 17010KT CAVOK 14/08 Q1006 NOSIG",
      "taf": "TAF LOWW 052015Z 0521/0703 16012KT CAVOK TX26/0613Z TN15/0603Z"
    },
    {
      "icao": "LPFR",
      "alert": "OK",
      "vis_m": 9999,
      "fzfg": false,
      "metar_trigger": false,
      "taf_trigger": false,
      "metar": "METAR LPFR 052300Z 33010KT CAVOK 15/10 Q1015",
      "taf": "TAF LPFR 051700Z 0518/0618 33012KT 9999 FEW020"
    },
    {
      "icao": "LPMA",
      "alert": "OK",
      "vis_m": 8000,
      "fzfg": false,
      "metar_trigger": false,
      "taf_trigger": false,
      "metar": "METAR LPMA 052300Z 02016KT 8000 -RA FEW006 BKN012 15/13 Q1019",
      "taf": "TAF LPMA 051700Z 0518/0618 03012KT 8000 SCT008 BKN015"
    },
    {
      "icao": "LPPR",
      "alert": "OK",
      "vis_m": 9999,
      "fzfg": false,
      "metar_trigger": false,
      "taf_trigger": false,
      "metar": "METAR LPPR 052300Z 34004KT 310V010 9999 FEW018 12/10 Q1017",
      "taf": "TAF LPPR 051700Z 0518/0618 32012KT 9999 SCT025"
    },
    {
      "icao": "LPPS",
      "alert": "OK",
      "vis_m": 8000,
      "fzfg": false,
      "metar_trigger": false,
      "taf_trigger": false,
      "metar": "METAR LPPS 052300Z 06012KT 030V090 8000 -RA FEW008 BKN014 15/12 Q1019",
      "taf": "TAF LPPS 051700Z 0518/0624 07015KT 8000 SCT008 BKN015"
    },
    {
      "icao": "LPPT",
      "alert": "OK",
      "vis_m": 9999,
      "fzfg": false,
      "metar_trigger": false,
      "taf_trigger": false,
      "metar": "METAR LPPT 052300Z 34011KT 9999 FEW012 13/10 Q1016",
      "taf": "TAF LPPT 051700Z 0518/0624 32013KT 9999 FEW030"
    },
    {
      "icao": "LQBK",
      "alert": "OK",
      "vis_m": 9999,
      "fzfg": false,
      "metar_trigger": false,
      "taf_trigger": false,
      "metar": "METAR LQBK 052300Z 15004KT 050V180 CAVOK 12/07 Q1013 NOSIG",
      "taf": "TAF LQBK 052300Z 0600/0624 20005KT CAVOK TX25/0613Z TN09/0603Z"
    },
    {
      "icao": "LQSA",
      "alert": "OK",
      "vis_m": 9999,
      "fzfg": false,
      "metar_trigger": false,
      "taf_trigger": false,
      "metar": "METAR LQSA 052300Z VRB01KT CAVOK 11/07 Q1015",
      "taf": "TAF LQSA 052300Z 0600/0624 VRB02KT CAVOK TX25/0614Z TN08/0604Z"
    },
    {
      "icao": "LQTZ",
      "alert": "OK",
      "vis_m": 9999,
      "fzfg": false,
      "metar_trigger": false,
      "taf_trigger": false,
      "metar": "METAR LQTZ 052300Z 32005KT 270V350 CAVOK 12/06 Q1013",
      "taf": "TAF LQTZ 052300Z 0600/0624 10005KT CAVOK TX26/0612Z TN05/0604Z"
    },
    {
      "icao": "LRBC",
      "alert": "OK",
      "vis_m": 9999,
      "fzfg": false,
      "metar_trigger": false,
      "taf_trigger": false,
      "metar": "METAR LRBC 052300Z 18011KT CAVOK 11/06 Q1014",
      "taf": "TAF LRBC 052000Z 0521/0606 16007KT CAVOK"
    },
    {
      "icao": "LRBS",
      "alert": "OK",
      "vis_m": 9999,
      "fzfg": false,
      "metar_trigger": false,
      "taf_trigger": false,
      "metar": "METAR LRBS 052300Z 03004KT CAVOK 13/09 Q1014 NOSIG",
      "taf": "TAF LRBS 051700Z 0518/0618 VRB04KT CAVOK"
    },
    {
      "icao": "LRBV",
      "alert": "OK",
      "vis_m": 9999,
      "fzfg": false,
      "metar_trigger": false,
      "taf_trigger": false,
      "metar": "METAR LRBV 052300Z AUTO 09004KT 060V130 9999 NCD 12/06 Q1014",
      "taf": "TAF LRBV 051700Z 0518/0603 21010KT CAVOK"
    },
    {
      "icao": "LRCL",
      "alert": "OK",
      "vis_m": 9999,
      "fzfg": false,
      "metar_trigger": false,
      "taf_trigger": false,
      "metar": "METAR LRCL 052300Z 25004KT CAVOK 09/03 Q1013",
      "taf": "TAF LRCL 052000Z 0521/0606 VRB04KT CAVOK"
    },
    {
      "icao": "LRCV",
      "alert": "OK",
      "vis_m": 9999,
      "fzfg": false,
      "metar_trigger": false,
      "taf_trigger": false,
      "metar": "METAR LRCV 052300Z 07006KT CAVOK 11/09 Q1014",
      "taf": "TAF LRCV 052000Z 0521/0606 VRB04KT CAVOK"
    },
    {
      "icao": "LRIA",
      "alert": "OK",
      "vis_m": 9999,
      "fzfg": false,
      "metar_trigger": false,
      "taf_trigger": false,
      "metar": "METAR LRIA 052300Z 11010KT CAVOK 12/06 Q1013",
      "taf": "TAF LRIA 052000Z 0521/0606 VRB04KT CAVOK"
    },
    {
      "icao": "LROP",
      "alert": "OK",
      "vis_m": 9999,
      "fzfg": false,
      "metar_trigger": false,
      "taf_trigger": false,
      "metar": "METAR LROP 052300Z 05004KT CAVOK 13/10 Q1014 NOSIG",
      "taf": "TAF LROP 051700Z 0518/0618 VRB04KT CAVOK"
    },
    {
      "icao": "LRSB",
      "alert": "OK",
      "vis_m": 9999,
      "fzfg": false,
      "metar_trigger": false,
      "taf_trigger": false,
      "metar": "METAR LRSB 052300Z VRB02KT CAVOK 09/06 Q1013",
      "taf": "TAF LRSB 051700Z 0518/0618 VRB04KT CAVOK"
    },
    {
      "icao": "LRSM",
      "alert": "OK",
      "vis_m": 9999,
      "fzfg": false,
      "metar_trigger": false,
      "taf_trigger": false,
      "metar": "METAR LRSM 052300Z AUTO 09002KT 9999 NCD 10/04 Q1011",
      "taf": "TAF LRSM 051400Z 0515/0524 VRB04KT CAVOK"
    },
    {
      "icao": "LRSV",
      "alert": "OK",
      "vis_m": 9999,
      "fzfg": false,
      "metar_trigger": false,
      "taf_trigger": false,
      "metar": "METAR LRSV 052300Z 19008KT CAVOK 14/06 Q1012",
      "taf": "TAF LRSV 052000Z 0521/0606 16007KT CAVOK"
    },
    {
      "icao": "LRTM",
      "alert": "OK",
      "vis_m": 9999,
      "fzfg": false,
      "metar_trigger": false,
      "taf_trigger": false,
      "metar": "METAR LRTM 052300Z 10004KT CAVOK 09/05 Q1013",
      "taf": "TAF LRTM 052000Z 0521/0606 VRB04KT CAVOK"
    },
    {
      "icao": "LRTR",
      "alert": "OK",
      "vis_m": 9999,
      "fzfg": false,
      "metar_trigger": false,
      "taf_trigger": false,
      "metar": "METAR LRTR 052300Z VRB01KT CAVOK 11/06 Q1013",
      "taf": "TAF LRTR 051700Z 0518/0618 21007KT CAVOK"
    },
    {
      "icao": "LTAC",
      "alert": "OK",
      "vis_m": 9999,
      "fzfg": false,
      "metar_trigger": false,
      "taf_trigger": false,
      "metar": "METAR LTAC 052250Z VRB02KT 9999 SCT040 BKN080 06/03 Q1014 NOSIG RMK RWY21C VRB02KT RWY03L 34002KT RWY21R VRB01KT RWY03R 27003KT RWY21L 10005KT",
      "taf": "TAF LTAC 052240Z 0600/0624 VRB02KT 9999 SCT035 BKN100"
    },
    {
      "icao": "LTFM",
      "alert": "OK",
      "vis_m": 9999,
      "fzfg": false,
      "metar_trigger": false,
      "taf_trigger": false,
      "metar": "METAR LTFM 052250Z 05003KT 320V080 CAVOK 11/09 Q1016 NOSIG RMK RWY17L VRB02KT RWY34L 00000KT RWY16R 00000KT RWY36 07003KT 010V110 RWY18 00000KT",
      "taf": "TAF LTFM 052240Z 0600/0706 VRB02KT CAVOK"
    },
    {
      "icao": "LUKK",
      "alert": "OK",
      "vis_m": 9999,
      "fzfg": false,
      "metar_trigger": false,
      "taf_trigger": false,
      "metar": "METAR LUKK 052300Z 25005KT 210V310 CAVOK 11/02 Q1014 NOSIG",
      "taf": "TAF LUKK 052304Z 0600/0624 21008KT CAVOK"
    },
    {
      "icao": "LWOH",
      "alert": "OK",
      "vis_m": null,
      "fzfg": false,
      "metar_trigger": false,
      "taf_trigger": false,
      "metar": "",
      "taf": "TAF LWOH 052045Z 0521/0621 33005KT 9999 FEW040 SCT100"
    },
    {
      "icao": "LWSK",
      "alert": "OK",
      "vis_m": 9999,
      "fzfg": false,
      "metar_trigger": false,
      "taf_trigger": false,
      "metar": "METAR LWSK 052250Z VRB01KT CAVOK 10/05 Q1015 NOSIG",
      "taf": "TAF LWSK 052045Z 0521/0621 VRB02KT CAVOK"
    },
    {
      "icao": "LYBE",
      "alert": "OK",
      "vis_m": 9999,
      "fzfg": false,
      "metar_trigger": false,
      "taf_trigger": false,
      "metar": "METAR LYBE 052300Z 26003KT CAVOK 14/08 Q1013 NOSIG",
      "taf": "TAF LYBE 051700Z 0518/0618 19006KT CAVOK TX28/0613Z TN10/0604Z"
    },
    {
      "icao": "LYNI",
      "alert": "OK",
      "vis_m": 9999,
      "fzfg": false,
      "metar_trigger": false,
      "taf_trigger": false,
      "metar": "METAR LYNI 052300Z 13003KT 090V190 CAVOK 12/05 Q1015 NOSIG",
      "taf": "TAF LYNI 051700Z 0518/0618 10005KT CAVOK TX28/0614Z TN08/0604Z"
    },
    {
      "icao": "LYPG",
      "alert": "OK",
      "vis_m": 9999,
      "fzfg": false,
      "metar_trigger": false,
      "taf_trigger": false,
      "metar": "METAR LYPG 052300Z 05006KT CAVOK 14/07 Q1017 NOSIG",
      "taf": "TAF LYPG 051700Z 0518/0618 36005KT CAVOK TX24/0613Z TN12/0604Z"
    },
    {
      "icao": "LZIB",
      "alert": "OK",
      "vis_m": 9999,
      "fzfg": false,
      "metar_trigger": false,
      "taf_trigger": false,
      "metar": "METAR LZIB 052300Z 18011KT CAVOK 16/09 Q1007 NOSIG",
      "taf": ""
    },
    {
      "icao": "LZKZ",
      "alert": "OK",
      "vis_m": 9999,
      "fzfg": false,
      "metar_trigger": false,
      "taf_trigger": false,
      "metar": "METAR LZKZ 052300Z VRB01KT CAVOK 11/05 Q1010 NOSIG",
      "taf": ""
    },
    {
      "icao": "LZTT",
      "alert": "OK",
      "vis_m": 9999,
      "fzfg": false,
      "metar_trigger": false,
      "taf_trigger": false,
      "metar": "METAR LZTT 052300Z 26012KT CAVOK 14/03 Q1010",
      "taf": ""
    },
    {
      "icao": "OEJN",
      "alert": "OK",
      "vis_m": 9999,
      "fzfg": false,
      "metar_trigger": false,
      "taf_trigger": false,
      "metar": "METAR OEJN 052300Z 35012KT 9999 FEW040 26/18 Q1008 NOSIG",
      "taf": "TAF OEJN 052300Z 0600/0706 36005KT 7000 FEW040"
    },
    {
      "icao": "OEMA",
      "alert": "OK",
      "vis_m": 9999,
      "fzfg": false,
      "metar_trigger": false,
      "taf_trigger": false,
      "metar": "METAR OEMA 052300Z 32007KT CAVOK 28/M05 Q1012 NOSIG",
      "taf": "TAF OEMA 052300Z 0600/0706 VRB03KT CAVOK"
    },
    {
      "icao": "OJAI",
      "alert": "OK",
      "vis_m": 5000,
      "fzfg": false,
      "metar_trigger": false,
      "taf_trigger": false,
      "metar": "METAR OJAI 052300Z 25003KT 5000 HZ NSC 09/05 Q1017 NOSIG",
      "taf": "TAF OJAI 051653Z 0518/0624 28012KT 5000 HZ SCT030"
    },
    {
      "icao": "OMAA",
      "alert": "OK",
      "vis_m": 9999,
      "fzfg": false,
      "metar_trigger": false,
      "taf_trigger": false,
      "metar": "METAR OMAA 052300Z 09007KT 040V110 CAVOK 28/19 Q1005 NOSIG",
      "taf": "TAF OMAA 052300Z 0600/0706 09005KT 8000 NSC"
    },
    {
      "icao": "OMDB",
      "alert": "OK",
      "vis_m": 9999,
      "fzfg": false,
      "metar_trigger": false,
      "taf_trigger": false,
      "metar": "METAR OMDB 052300Z 06004KT 020V100 CAVOK 31/19 Q1005 NOSIG",
      "taf": "TAF OMDB 052300Z 0600/0706 10005KT 8000 NSC"
    },
    {
      "icao": "UAAA",
      "alert": "OK",
      "vis_m": 9999,
      "fzfg": false,
      "metar_trigger": false,
      "taf_trigger": false,
      "metar": "METAR UAAA 052300Z 19001MPS 9999 FEW100 12/07 Q1017 NOSIG",
      "taf": "TAF UAAA 051700Z 0518/0618 16003MPS 9999 SCT050CB BKN100 TX25/0608Z TN10/0601Z"
    },
    {
      "icao": "UBBB",
      "alert": "OK",
      "vis_m": 9999,
      "fzfg": false,
      "metar_trigger": false,
      "taf_trigger": false,
      "metar": "METAR UBBB 052300Z 34008KT CAVOK 12/10 Q1012 NOSIG",
      "taf": "TAF UBBB 052255Z 0600/0624 33010KT 9999 SCT010 FEW040CB TX15/0610Z TN10/0601Z"
    },
    {
      "icao": "UDSG",
      "alert": "OK",
      "vis_m": 9999,
      "fzfg": false,
      "metar_trigger": false,
      "taf_trigger": false,
      "metar": "METAR UDSG 052300Z 26004KT 9999 FEW049CB 05/02 Q1012 NOSIG",
      "taf": "TAF UDSG 051700Z 0518/0618 06006KT 9999 SCT040"
    },
    {
      "icao": "UDYZ",
      "alert": "OK",
      "vis_m": 9999,
      "fzfg": false,
      "metar_trigger": false,
      "taf_trigger": false,
      "metar": "METAR UDYZ 052300Z 24002KT 9999 FEW046 10/04 Q1009 NOSIG",
      "taf": "TAF UDYZ 051700Z 0518/0618 04006KT 9999 SCT040"
    },
    {
      "icao": "UGKO",
      "alert": "OK",
      "vis_m": 9999,
      "fzfg": false,
      "metar_trigger": false,
      "taf_trigger": false,
      "metar": "METAR UGKO 052300Z 21003KT 9999 FEW018 SCT023 BKN026 11/11 Q1013 NOSIG",
      "taf": "TAF UGKO 052300Z 0600/0624 25007KT 9999 SCT017 BKN050 TX14/0611Z TN11/0602Z"
    }
  ]
}