{
  "ts_utc": "2026-07-12T09:18:47Z",
  "threshold_m": 150,
  "source": "stations_override.txt (ICAO list) + aviationweather.gov (METAR/TAF raw)",
  "station_count": 159,
  "stations": [
    {
      "icao": "BIKF",
      "alert": "OK",
      "vis_m": 9999,
      "fzfg": false,
      "metar_trigger": false,
      "taf_trigger": false,
      "metar": "METAR BIKF 120900Z 17023KT 9999 -DZ BKN008 OVC018 11/10 Q1022",
      "taf": "TAF BIKF 120738Z 1209/1309 17025G35KT 9999 -DZ BKN007 OVC012 TX11/1215Z TN10/1306Z"
    },
    {
      "icao": "BKPR",
      "alert": "OK",
      "vis_m": 9999,
      "fzfg": false,
      "metar_trigger": false,
      "taf_trigger": false,
      "metar": "METAR BKPR 120900Z 33004KT 280V010 9999 FEW050 27/14 Q1018 NOSIG",
      "taf": "TAF BKPR 120530Z 1206/1306 35008KT 9999 SCT050"
    },
    {
      "icao": "EBCI",
      "alert": "OK",
      "vis_m": 9999,
      "fzfg": false,
      "metar_trigger": false,
      "taf_trigger": false,
      "metar": "METAR EBCI 120850Z 08009KT 040V100 CAVOK 26/13 Q1022 NOSIG",
      "taf": "TAF EBCI 120512Z 1206/1312 06007KT CAVOK"
    },
    {
      "icao": "EDDB",
      "alert": "OK",
      "vis_m": 9999,
      "fzfg": false,
      "metar_trigger": false,
      "taf_trigger": false,
      "metar": "METAR EDDB 120850Z AUTO 35010KT 330V040 CAVOK 27/15 Q1019 NOSIG",
      "taf": "TAF EDDB 120500Z 1206/1306 30008KT CAVOK"
    },
    {
      "icao": "EDDH",
      "alert": "OK",
      "vis_m": 9999,
      "fzfg": false,
      "metar_trigger": false,
      "taf_trigger": false,
      "metar": "METAR EDDH 120850Z AUTO 31006KT 260V350 CAVOK 23/15 Q1022 NOSIG",
      "taf": "TAF EDDH 120500Z 1206/1312 31011KT CAVOK"
    },
    {
      "icao": "EDDK",
      "alert": "OK",
      "vis_m": 9999,
      "fzfg": false,
      "metar_trigger": false,
      "taf_trigger": false,
      "metar": "METAR EDDK 120850Z AUTO VRB05KT CAVOK 28/13 Q1022 NOSIG",
      "taf": "TAF EDDK 120500Z 1206/1312 VRB02KT CAVOK"
    },
    {
      "icao": "EDDN",
      "alert": "OK",
      "vis_m": 9999,
      "fzfg": false,
      "metar_trigger": false,
      "taf_trigger": false,
      "metar": "METAR EDDN 120850Z AUTO 07009KT 030V100 CAVOK 25/09 Q1022 NOSIG",
      "taf": "TAF EDDN 120500Z 1206/1306 VRB02KT CAVOK"
    },
    {
      "icao": "EDDS",
      "alert": "OK",
      "vis_m": 9999,
      "fzfg": false,
      "metar_trigger": false,
      "taf_trigger": false,
      "metar": "METAR EDDS 120850Z AUTO 07009KT 030V100 CAVOK 26/09 Q1022 NOSIG",
      "taf": "TAF EDDS 120500Z 1206/1306 VRB03KT CAVOK"
    },
    {
      "icao": "EDFH",
      "alert": "OK",
      "vis_m": 9999,
      "fzfg": false,
      "metar_trigger": false,
      "taf_trigger": false,
      "metar": "METAR EDFH 120850Z 12007KT 030V200 CAVOK 26/10 Q1023",
      "taf": "TAF EDFH 120500Z 1206/1306 09007KT CAVOK"
    },
    {
      "icao": "EDJA",
      "alert": "OK",
      "vis_m": 9999,
      "fzfg": false,
      "metar_trigger": false,
      "taf_trigger": false,
      "metar": "METAR EDJA 120850Z 06010KT 030V090 CAVOK 23/11 Q1023",
      "taf": "TAF EDJA 120800Z 1209/1218 06009KT CAVOK"
    },
    {
      "icao": "EDLW",
      "alert": "OK",
      "vis_m": 9999,
      "fzfg": false,
      "metar_trigger": false,
      "taf_trigger": false,
      "metar": "METAR EDLW 120850Z 02005KT 330V060 CAVOK 26/14 Q1023",
      "taf": "TAF EDLW 120500Z 1206/1306 VRB02KT CAVOK"
    },
    {
      "icao": "EDNY",
      "alert": "OK",
      "vis_m": 9999,
      "fzfg": false,
      "metar_trigger": false,
      "taf_trigger": false,
      "metar": "METAR EDNY 120850Z 02008KT CAVOK 25/12 Q1021",
      "taf": "TAF EDNY 120800Z 1209/1218 04010KT CAVOK"
    },
    {
      "icao": "EDSB",
      "alert": "OK",
      "vis_m": 9999,
      "fzfg": false,
      "metar_trigger": false,
      "taf_trigger": false,
      "metar": "METAR EDSB 120850Z 06011KT 020V100 CAVOK 29/09 Q1020",
      "taf": "TAF EDSB 120500Z 1206/1306 02007KT CAVOK"
    },
    {
      "icao": "EETN",
      "alert": "OK",
      "vis_m": 9999,
      "fzfg": false,
      "metar_trigger": false,
      "taf_trigger": false,
      "metar": "METAR EETN 120850Z 03005KT 330V080 CAVOK 24/16 Q1016 TEMPO FEW035CB",
      "taf": "TAF EETN 120530Z 1206/1306 04008KT CAVOK"
    },
    {
      "icao": "EFTU",
      "alert": "OK",
      "vis_m": 9999,
      "fzfg": false,
      "metar_trigger": false,
      "taf_trigger": false,
      "metar": "METAR EFTU 120850Z AUTO 34005KT 290V030 9999 //////CB 24/19 Q1018",
      "taf": "TAF EFTU 120832Z 1209/1309 02005KT CAVOK"
    },
    {
      "icao": "EGBB",
      "alert": "OK",
      "vis_m": 9999,
      "fzfg": false,
      "metar_trigger": false,
      "taf_trigger": false,
      "metar": "METAR EGBB 120850Z 05010KT 020V110 CAVOK 21/14 Q1027",
      "taf": ""
    },
    {
      "icao": "EGGP",
      "alert": "OK",
      "vis_m": 9999,
      "fzfg": false,
      "metar_trigger": false,
      "taf_trigger": false,
      "metar": "METAR EGGP 120850Z 08010KT CAVOK 22/12 Q1027",
      "taf": "TAF EGGP 120456Z 1206/1306 07008KT CAVOK"
    },
    {
      "icao": "EGGW",
      "alert": "OK",
      "vis_m": 9999,
      "fzfg": false,
      "metar_trigger": false,
      "taf_trigger": false,
      "metar": "METAR EGGW 120850Z AUTO 06011KT 010V100 9999 NCD 21/15 Q1025",
      "taf": "TAF EGGW 120456Z 1206/1306 05010KT 9999 BKN012"
    },
    {
      "icao": "EGKK",
      "alert": "OK",
      "vis_m": 9999,
      "fzfg": false,
      "metar_trigger": false,
      "taf_trigger": false,
      "metar": "METAR EGKK 120850Z 05014KT 9999 SCT014 21/16 Q1024",
      "taf": "TAF EGKK 120455Z 1206/1312 04010KT 9999 BKN009"
    },
    {
      "icao": "EGNM",
      "alert": "OK",
      "vis_m": 9999,
      "fzfg": false,
      "metar_trigger": false,
      "taf_trigger": false,
      "metar": "METAR EGNM 120850Z 05009KT 020V100 9999 FEW008 19/13 Q1029",
      "taf": "TAF EGNM 120458Z 1206/1306 05010KT 9999 FEW012"
    },
    {
      "icao": "EGPD",
      "alert": "OK",
      "vis_m": 9999,
      "fzfg": false,
      "metar_trigger": false,
      "taf_trigger": false,
      "metar": "METAR EGPD 120850Z AUTO 06005KT 020V110 9999 OVC032 16/09 Q1033",
      "taf": "TAF EGPD 120459Z 1206/1306 02006KT 9999 BKN025"
    },
    {
      "icao": "EGPF",
      "alert": "OK",
      "vis_m": 9999,
      "fzfg": false,
      "metar_trigger": false,
      "taf_trigger": false,
      "metar": "METAR EGPF 120850Z 08010KT 9999 OVC012 16/14 Q1031",
      "taf": ""
    },
    {
      "icao": "EHBK",
      "alert": "OK",
      "vis_m": 9999,
      "fzfg": false,
      "metar_trigger": false,
      "taf_trigger": false,
      "metar": "METAR EHBK 120855Z AUTO 06007KT 010V110 9999 NCD 28/14 Q1022 NOSIG",
      "taf": "TAF EHBK 120457Z 1206/1312 05007KT CAVOK"
    },
    {
      "icao": "EHEH",
      "alert": "OK",
      "vis_m": 9999,
      "fzfg": false,
      "metar_trigger": false,
      "taf_trigger": false,
      "metar": "METAR EHEH 120855Z AUTO 05005KT 360V100 9999 FEW260 26/17 Q1023 BLU NOSIG RMK TREND REMOTE BY EHWX",
      "taf": "TAF EHEH 120511Z 1206/1312 04007KT CAVOK"
    },
    {
      "icao": "EKBI",
      "alert": "OK",
      "vis_m": 9999,
      "fzfg": false,
      "metar_trigger": false,
      "taf_trigger": false,
      "metar": "METAR EKBI 120850Z AUTO 30006KT 9999 NCD 20/14 Q1023",
      "taf": "TAF EKBI 120827Z 1209/1309 34006KT CAVOK"
    },
    {
      "icao": "EKCH",
      "alert": "OK",
      "vis_m": 9999,
      "fzfg": false,
      "metar_trigger": false,
      "taf_trigger": false,
      "metar": "METAR EKCH 120850Z AUTO 36006KT 9999 NCD 25/13 Q1021 NOSIG",
      "taf": "TAF EKCH 120827Z 1209/1309 35008KT CAVOK"
    },
    {
      "icao": "ENAL",
      "alert": "OK",
      "vis_m": 9999,
      "fzfg": false,
      "metar_trigger": false,
      "taf_trigger": false,
      "metar": "METAR ENAL 120850Z 04008KT 9999 FEW015 15/10 Q1031",
      "taf": "TAF ENAL 120800Z 1209/1218 05010KT 9999 FEW015"
    },
    {
      "icao": "ENBR",
      "alert": "OK",
      "vis_m": 9999,
      "fzfg": false,
      "metar_trigger": false,
      "taf_trigger": false,
      "metar": "METAR ENBR 120850Z 31006KT 280V340 CAVOK 16/11 Q1027 BECMG 35015KT RMK WIND 1200FT 34006KT",
      "taf": "TAF ENBR 120500Z 1206/1306 36005KT 9999 FEW008"
    },
    {
      "icao": "ENGM",
      "alert": "OK",
      "vis_m": 9999,
      "fzfg": false,
      "metar_trigger": false,
      "taf_trigger": false,
      "metar": "METAR ENGM 120850Z 04010KT 360V060 CAVOK 18/08 Q1027 NOSIG",
      "taf": "TAF ENGM 120500Z 1206/1306 01010KT CAVOK"
    },
    {
      "icao": "ENHD",
      "alert": "OK",
      "vis_m": 9999,
      "fzfg": false,
      "metar_trigger": false,
      "taf_trigger": false,
      "metar": "METAR ENHD 120850Z 34014KT CAVOK 14/11 Q1027",
      "taf": "TAF ENHD 120800Z 1209/1218 34018KT CAVOK"
    },
    {
      "icao": "ENTC",
      "alert": "OK",
      "vis_m": 9999,
      "fzfg": false,
      "metar_trigger": false,
      "taf_trigger": false,
      "metar": "METAR ENTC 120850Z 19006KT 9999 BKN054 13/07 Q1026 NOSIG RMK WIND 2600FT 19015KT",
      "taf": "TAF ENTC 120500Z 1206/1306 22009KT 9999 FEW020 BKN045"
    },
    {
      "icao": "ENTO",
      "alert": "OK",
      "vis_m": 9999,
      "fzfg": false,
      "metar_trigger": false,
      "taf_trigger": false,
      "metar": "METAR ENTO 120850Z 01011KT CAVOK 18/12 Q1026 NOSIG",
      "taf": "TAF ENTO 120500Z 1206/1306 02008KT 9999 FEW030CB"
    },
    {
      "icao": "ENVA",
      "alert": "OK",
      "vis_m": 9999,
      "fzfg": false,
      "metar_trigger": false,
      "taf_trigger": false,
      "metar": "METAR ENVA 120850Z 25005KT 9999 SCT025 15/08 Q1031 NOSIG RMK WIND 670FT 32003KT",
      "taf": "TAF ENVA 120500Z 1206/1306 10007KT 9999 FEW012 SCT030"
    },
    {
      "icao": "ENZV",
      "alert": "OK",
      "vis_m": 9999,
      "fzfg": false,
      "metar_trigger": false,
      "taf_trigger": false,
      "metar": "METAR ENZV 120850Z 29009KT CAVOK 17/12 Q1027 NOSIG",
      "taf": "TAF ENZV 120500Z 1206/1306 34005KT CAVOK"
    },
    {
      "icao": "EPGD",
      "alert": "OK",
      "vis_m": 9999,
      "fzfg": false,
      "metar_trigger": false,
      "taf_trigger": false,
      "metar": "METAR EPGD 120900Z 35008KT 9999 BKN006 18/16 Q1017",
      "taf": "TAF EPGD 120530Z 1206/1306 31010KT 9999 BKN005"
    },
    {
      "icao": "EPKK",
      "alert": "OK",
      "vis_m": 9999,
      "fzfg": false,
      "metar_trigger": false,
      "taf_trigger": false,
      "metar": "METAR EPKK 120900Z 25011KT 9999 BKN013 16/13 Q1017",
      "taf": "TAF EPKK 120830Z 1209/1309 25012KT 9999 BKN045"
    },
    {
      "icao": "EPKT",
      "alert": "OK",
      "vis_m": 9999,
      "fzfg": false,
      "metar_trigger": false,
      "taf_trigger": false,
      "metar": "METAR EPKT 120900Z 26010KT 9999 FEW008 OVC011 14/13 Q1017",
      "taf": ""
    },
    {
      "icao": "EPLB",
      "alert": "OK",
      "vis_m": 9999,
      "fzfg": false,
      "metar_trigger": false,
      "taf_trigger": false,
      "metar": "METAR EPLB 120900Z 27009KT 9999 -SHRA FEW021CB SCT025 18/13 Q1015",
      "taf": "TAF EPLB 120530Z 1206/1306 18004KT CAVOK"
    },
    {
      "icao": "EPMO",
      "alert": "OK",
      "vis_m": 8000,
      "fzfg": false,
      "metar_trigger": false,
      "taf_trigger": false,
      "metar": "METAR EPMO 120900Z 26006KT 8000 OVC005 16/16 Q1014",
      "taf": "TAF EPMO 120530Z 1206/1306 25008KT 9999 BKN005"
    },
    {
      "icao": "EPPO",
      "alert": "OK",
      "vis_m": 9999,
      "fzfg": false,
      "metar_trigger": false,
      "taf_trigger": false,
      "metar": "METAR EPPO 120900Z 32008KT 290V360 9999 FEW038 24/15 Q1016",
      "taf": "TAF EPPO 120530Z 1206/1306 29006KT CAVOK"
    },
    {
      "icao": "EPRA",
      "alert": "OK",
      "vis_m": 8000,
      "fzfg": false,
      "metar_trigger": false,
      "taf_trigger": false,
      "metar": "METAR EPRA 120900Z 23006KT 8000 -RA SCT007 BKN016 15/14 Q1015",
      "taf": "TAF EPRA 120830Z 1209/1218 24008KT 9999 BKN012 OVC026"
    },
    {
      "icao": "EPRZ",
      "alert": "OK",
      "vis_m": 9999,
      "fzfg": false,
      "metar_trigger": false,
      "taf_trigger": false,
      "metar": "METAR EPRZ 120900Z 24005KT 9999 FEW011 SCT050CB 17/14 Q1016",
      "taf": "TAF EPRZ 120530Z 1206/1306 28006KT 9999 BKN040"
    },
    {
      "icao": "EPSC",
      "alert": "OK",
      "vis_m": 9999,
      "fzfg": false,
      "metar_trigger": false,
      "taf_trigger": false,
      "metar": "METAR EPSC 120900Z 01008KT 330V040 CAVOK 24/14 Q1019",
      "taf": "TAF EPSC 120530Z 1206/1306 30006KT CAVOK"
    },
    {
      "icao": "EPSY",
      "alert": "OK",
      "vis_m": 9999,
      "fzfg": false,
      "metar_trigger": false,
      "taf_trigger": false,
      "metar": "METAR EPSY 120900Z 02007KT 9999 SCT007 BKN011 OVC016 16/15 Q1014",
      "taf": "TAF EPSY 120830Z 1209/1218 03006KT 9999 BKN007"
    },
    {
      "icao": "EPWA",
      "alert": "OK",
      "vis_m": 9999,
      "fzfg": false,
      "metar_trigger": false,
      "taf_trigger": false,
      "metar": "METAR EPWA 120900Z 24005KT 9999 BKN008 16/14 Q1014 TEMPO 4000 DZ BKN004",
      "taf": "TAF EPWA 120830Z 1209/1309 24006KT 9999 BKN007 BKN010"
    },
    {
      "icao": "EPWR",
      "alert": "OK",
      "vis_m": 9999,
      "fzfg": false,
      "metar_trigger": false,
      "taf_trigger": false,
      "metar": "METAR EPWR 120900Z 30013KT 9999 FEW043CB 21/14 Q1017",
      "taf": "TAF EPWR 120830Z 1209/1309 30012KT 9999 BKN040"
    },
    {
      "icao": "ESGG",
      "alert": "OK",
      "vis_m": 9999,
      "fzfg": false,
      "metar_trigger": false,
      "taf_trigger": false,
      "metar": "METAR ESGG 120850Z 02010KT CAVOK 21/16 Q1023",
      "taf": "TAF ESGG 120830Z 1209/1309 02010KT 9999 FEW012"
    },
    {
      "icao": "ESKN",
      "alert": "OK",
      "vis_m": 9999,
      "fzfg": false,
      "metar_trigger": false,
      "taf_trigger": false,
      "metar": "METAR ESKN 120850Z 33011KT 300V360 CAVOK 21/15 Q1021",
      "taf": "TAF ESKN 120830Z 1209/1309 34012KT CAVOK"
    },
    {
      "icao": "ESMS",
      "alert": "OK",
      "vis_m": 9999,
      "fzfg": false,
      "metar_trigger": false,
      "taf_trigger": false,
      "metar": "METAR ESMS 120850Z 03010KT CAVOK 26/14 Q1020",
      "taf": "TAF ESMS 120827Z 1209/1309 01008KT CAVOK"
    },
    {
      "icao": "ESSA",
      "alert": "OK",
      "vis_m": 9999,
      "fzfg": false,
      "metar_trigger": false,
      "taf_trigger": false,
      "metar": "METAR ESSA 120850Z 36014KT CAVOK 17/11 Q1022 NOSIG",
      "taf": "TAF ESSA 120830Z 1209/1309 01015KT CAVOK"
    },
    {
      "icao": "EYKA",
      "alert": "OK",
      "vis_m": 9999,
      "fzfg": false,
      "metar_trigger": false,
      "taf_trigger": false,
      "metar": "METAR EYKA 120850Z 35004KT 290V050 9999 SCT022 BKN030 19/14 Q1014",
      "taf": "TAF EYKA 120520Z 1206/1306 VRB03KT 9000 BKN010 BKN020"
    },
    {
      "icao": "EYPA",
      "alert": "OK",
      "vis_m": 4100,
      "fzfg": false,
      "metar_trigger": false,
      "taf_trigger": false,
      "metar": "METAR EYPA 120850Z 33004KT 240V020 4100 BR OVC002 18/17 Q1016",
      "taf": ""
    },
    {
      "icao": "EYVI",
      "alert": "OK",
      "vis_m": 9999,
      "fzfg": false,
      "metar_trigger": false,
      "taf_trigger": false,
      "metar": "METAR EYVI 120850Z VRB04KT 9999 BKN015 BKN021 18/14 Q1014 NOSIG",
      "taf": "TAF EYVI 120522Z 1206/1306 32008KT 9000 BKN005"
    },
    {
      "icao": "GCFV",
      "alert": "OK",
      "vis_m": 9999,
      "fzfg": false,
      "metar_trigger": false,
      "taf_trigger": false,
      "metar": "METAR GCFV 120900Z 03006KT 350V070 9999 FEW022 SCT030 23/17 Q1017",
      "taf": "TAF GCFV 120800Z 1209/1309 06010KT 9999 FEW025 TX25/1214Z TN20/1306Z"
    },
    {
      "icao": "GCLP",
      "alert": "OK",
      "vis_m": 9999,
      "fzfg": false,
      "metar_trigger": false,
      "taf_trigger": false,
      "metar": "METAR GCLP 120900Z 02015KT 350V050 9999 FEW030 25/13 Q1017 NOSIG",
      "taf": "TAF GCLP 120800Z 1209/1309 01018KT 9999 SCT030 TX25/1214Z TN19/1306Z"
    },
    {
      "icao": "GCTS",
      "alert": "OK",
      "vis_m": 9999,
      "fzfg": false,
      "metar_trigger": false,
      "taf_trigger": false,
      "metar": "METAR GCTS 120900Z 11009KT 060V150 9999 SCT030 24/16 Q1018 NOSIG",
      "taf": "TAF GCTS 120800Z 1209/1309 11010KT 9999 SCT030 TX26/1214Z TN19/1306Z"
    },
    {
      "icao": "GMAD",
      "alert": "OK",
      "vis_m": 9999,
      "fzfg": false,
      "metar_trigger": false,
      "taf_trigger": false,
      "metar": "METAR GMAD 120900Z 23004KT 190V310 9999 SCT026 24/18 Q1015 NOSIG",
      "taf": "TAF GMAD 120500Z 1206/1312 20004KT 8000 SCT010 BKN016"
    },
    {
      "icao": "GMMN",
      "alert": "OK",
      "vis_m": 9999,
      "fzfg": false,
      "metar_trigger": false,
      "taf_trigger": false,
      "metar": "METAR GMMN 120900Z VRB03KT 9999 FEW020 26/18 Q1015 NOSIG",
      "taf": "TAF GMMN 120500Z 1206/1312 22003KT 9999 SCT020"
    },
    {
      "icao": "GMMX",
      "alert": "OK",
      "vis_m": 8000,
      "fzfg": false,
      "metar_trigger": false,
      "taf_trigger": false,
      "metar": "METAR GMMX 120900Z 36003KT 8000 BKN040 24/17 Q1016 NOSIG",
      "taf": "TAF GMMX 120500Z 1206/1312 06006KT 8000 SCT030"
    },
    {
      "icao": "HEGN",
      "alert": "OK",
      "vis_m": 9999,
      "fzfg": false,
      "metar_trigger": false,
      "taf_trigger": false,
      "metar": "METAR HEGN 120800Z 35010KT CAVOK 33/09 Q1009 NOSIG",
      "taf": "TAF HEGN 120500Z 1206/1312 35016KT CAVOK"
    },
    {
      "icao": "HEMA",
      "alert": "OK",
      "vis_m": 9999,
      "fzfg": false,
      "metar_trigger": false,
      "taf_trigger": false,
      "metar": "METAR HEMA 120800Z 33022KT CAVOK 35/06 Q1007 NOSIG",
      "taf": "TAF HEMA 120500Z 1206/1312 34012G25KT CAVOK"
    },
    {
      "icao": "HESH",
      "alert": "OK",
      "vis_m": 9999,
      "fzfg": false,
      "metar_trigger": false,
      "taf_trigger": false,
      "metar": "METAR HESH 120800Z 01017KT CAVOK 32/18 Q1006 NOSIG",
      "taf": "TAF HESH 120500Z 1206/1312 01014KT CAVOK"
    },
    {
      "icao": "HESX",
      "alert": "OK",
      "vis_m": 9999,
      "fzfg": false,
      "metar_trigger": false,
      "taf_trigger": false,
      "metar": "METAR HESX 120800Z 01009KT CAVOK 30/13 Q1011 NOSIG",
      "taf": "TAF HESX 120500Z 1206/1312 34010KT CAVOK"
    },
    {
      "icao": "LATI",
      "alert": "OK",
      "vis_m": null,
      "fzfg": false,
      "metar_trigger": false,
      "taf_trigger": false,
      "metar": "",
      "taf": "TAF LATI 120500Z 1206/1306 VRB05KT CAVOK TX35/1212Z TN18/1304Z"
    },
    {
      "icao": "LBPD",
      "alert": "OK",
      "vis_m": 9999,
      "fzfg": false,
      "metar_trigger": false,
      "taf_trigger": false,
      "metar": "METAR LBPD 120900Z AUTO VRB04KT 9999 NCD 27/13 Q1016 NOSIG",
      "taf": "TAF LBPD 120500Z 1206/1306 34010KT 9999 SCT070"
    },
    {
      "icao": "LBSF",
      "alert": "OK",
      "vis_m": 9999,
      "fzfg": false,
      "metar_trigger": false,
      "taf_trigger": false,
      "metar": "METAR LBSF 120900Z VRB04KT CAVOK 27/13 Q1017 NOSIG",
      "taf": "TAF LBSF 120500Z 1206/1306 VRB03KT 9999 SCT060"
    },
    {
      "icao": "LBWN",
      "alert": "OK",
      "vis_m": 9999,
      "fzfg": false,
      "metar_trigger": false,
      "taf_trigger": false,
      "metar": "METAR LBWN 120900Z AUTO 15006KT 110V240 9999 NCD 29/16 Q1015 NOSIG",
      "taf": "TAF LBWN 120500Z 1206/1306 VRB04KT CAVOK"
    },
    {
      "icao": "LCLK",
      "alert": "OK",
      "vis_m": 9999,
      "fzfg": false,
      "metar_trigger": false,
      "taf_trigger": false,
      "metar": "METAR LCLK 120900Z 16011KT CAVOK 31/25 Q1008 NOSIG",
      "taf": "TAF LCLK 120530Z 1206/1306 32004KT 9999 FEW010"
    },
    {
      "icao": "LCPH",
      "alert": "OK",
      "vis_m": 9999,
      "fzfg": false,
      "metar_trigger": false,
      "taf_trigger": false,
      "metar": "METAR LCPH 120900Z 27011KT 250V320 9999 FEW017 29/25 Q1009 NOSIG",
      "taf": "TAF LCPH 120530Z 1206/1306 02006KT 9999 FEW012"
    },
    {
      "icao": "LEAL",
      "alert": "OK",
      "vis_m": 9999,
      "fzfg": false,
      "metar_trigger": false,
      "taf_trigger": false,
      "metar": "METAR LEAL 120900Z 08012KT 040V100 9999 SCT035 30/22 Q1013 NOSIG",
      "taf": "TAF LEAL 120500Z 1206/1306 VRB03KT 9999 FEW015 TX33/1212Z TN22/1306Z"
    },
    {
      "icao": "LEBB",
      "alert": "OK",
      "vis_m": 9999,
      "fzfg": false,
      "metar_trigger": false,
      "taf_trigger": false,
      "metar": "METAR LEBB 120900Z 11004KT 080V190 9999 FEW030 32/15 Q1010 NOSIG",
      "taf": "TAF LEBB 120500Z 1206/1306 12008KT CAVOK TX38/1212Z TN21/1306Z"
    },
    {
      "icao": "LEBL",
      "alert": "OK",
      "vis_m": 9999,
      "fzfg": false,
      "metar_trigger": false,
      "taf_trigger": false,
      "metar": "METAR LEBL 120900Z 07012KT 040V100 9999 SCT015 28/22 Q1015 NOSIG",
      "taf": "TAF LEBL 120500Z 1206/1306 07009KT 9999 FEW020 TX31/1212Z TN24/1206Z"
    },
    {
      "icao": "LECH",
      "alert": "OK",
      "vis_m": 9999,
      "fzfg": false,
      "metar_trigger": false,
      "taf_trigger": false,
      "metar": "METAR LECH 120900Z AUTO 06010KT 030V100 9999 FEW024 27/19 Q1015",
      "taf": "TAF LECH 120500Z 1206/1306 VRB04KT CAVOK TX34/1212Z TN19/1206Z"
    },
    {
      "icao": "LEMD",
      "alert": "OK",
      "vis_m": 9999,
      "fzfg": false,
      "metar_trigger": false,
      "taf_trigger": false,
      "metar": "METAR LEMD 120900Z 18006KT 140V220 CAVOK 27/13 Q1014 NOSIG",
      "taf": "TAF LEMD 120500Z 1206/1312 VRB05KT CAVOK TX35/1216Z TN19/1305Z"
    },
    {
      "icao": "LEMG",
      "alert": "OK",
      "vis_m": 9999,
      "fzfg": false,
      "metar_trigger": false,
      "taf_trigger": false,
      "metar": "METAR LEMG 120900Z 28007KT 250V320 CAVOK 27/15 Q1013 NOSIG",
      "taf": "TAF LEMG 120500Z 1206/1306 29012KT CAVOK TX33/1214Z TN21/1305Z"
    },
    {
      "icao": "LEVC",
      "alert": "OK",
      "vis_m": 9999,
      "fzfg": false,
      "metar_trigger": false,
      "taf_trigger": false,
      "metar": "METAR LEVC 120900Z 06009KT 020V100 9999 BKN023 28/21 Q1014 NOSIG",
      "taf": "TAF LEVC 120500Z 1206/1306 VRB03KT 9999 FEW015 TX32/1214Z TN22/1306Z"
    },
    {
      "icao": "LEXJ",
      "alert": "OK",
      "vis_m": 9999,
      "fzfg": false,
      "metar_trigger": false,
      "taf_trigger": false,
      "metar": "METAR LEXJ 120900Z 33004KT 280V010 CAVOK 25/22 Q1009",
      "taf": ""
    },
    {
      "icao": "LEZG",
      "alert": "OK",
      "vis_m": 9999,
      "fzfg": false,
      "metar_trigger": false,
      "taf_trigger": false,
      "metar": "METAR LEZG 120900Z 09008KT 050V120 CAVOK 29/18 Q1014 NOSIG",
      "taf": "TAF LEZG 120500Z 1206/1306 10010KT CAVOK TX38/1215Z TN22/1306Z"
    },
    {
      "icao": "LEZL",
      "alert": "OK",
      "vis_m": 9999,
      "fzfg": false,
      "metar_trigger": false,
      "taf_trigger": false,
      "metar": "METAR LEZL 120900Z 16002KT 9999 FEW030 24/16 Q1014 NOSIG",
      "taf": "TAF LEZL 120800Z 1209/1309 VRB03KT CAVOK TX30/1215Z TN18/1305Z"
    },
    {
      "icao": "LFBD",
      "alert": "OK",
      "vis_m": 9999,
      "fzfg": false,
      "metar_trigger": false,
      "taf_trigger": false,
      "metar": "METAR LFBD 120900Z AUTO 12010KT CAVOK 32/16 Q1013 NOSIG",
      "taf": "TAF LFBD 120500Z 1206/1312 10008KT CAVOK TX41/1215Z TN24/1305Z"
    },
    {
      "icao": "LFLL",
      "alert": "OK",
      "vis_m": 9999,
      "fzfg": false,
      "metar_trigger": false,
      "taf_trigger": false,
      "metar": "METAR LFLL 120900Z 14007KT 090V200 CAVOK 30/15 Q1017 NOSIG",
      "taf": "TAF LFLL 120500Z 1206/1312 14005KT CAVOK"
    },
    {
      "icao": "LFLS",
      "alert": "OK",
      "vis_m": 9999,
      "fzfg": false,
      "metar_trigger": false,
      "taf_trigger": false,
      "metar": "METAR LFLS 120900Z AUTO 14003KT 070V230 CAVOK 29/14 Q1018 NOSIG",
      "taf": "TAF LFLS 120800Z 1209/1309 09007KT CAVOK"
    },
    {
      "icao": "LFMN",
      "alert": "OK",
      "vis_m": 9999,
      "fzfg": false,
      "metar_trigger": false,
      "taf_trigger": false,
      "metar": "METAR LFMN 120900Z 10007KT 9999 FEW020 29/21 Q1016 NOSIG",
      "taf": "TAF LFMN 120800Z 1209/1315 12007KT 9999 FEW020"
    },
    {
      "icao": "LFOB",
      "alert": "OK",
      "vis_m": 9999,
      "fzfg": false,
      "metar_trigger": false,
      "taf_trigger": false,
      "metar": "METAR LFOB 120900Z AUTO 05010KT 030V090 CAVOK 29/15 Q1020 NOSIG",
      "taf": "TAF LFOB 120500Z 1206/1306 VRB03KT CAVOK"
    },
    {
      "icao": "LFPO",
      "alert": "OK",
      "vis_m": 9999,
      "fzfg": false,
      "metar_trigger": false,
      "taf_trigger": false,
      "metar": "METAR LFPO 120900Z 06009KT 030V090 CAVOK 29/13 Q1018 NOSIG",
      "taf": "TAF LFPO 120500Z 1206/1312 04010KT CAVOK"
    },
    {
      "icao": "LFSB",
      "alert": "OK",
      "vis_m": 9999,
      "fzfg": false,
      "metar_trigger": false,
      "taf_trigger": false,
      "metar": "METAR LFSB 120900Z AUTO VRB03KT CAVOK 29/11 Q1019 NOSIG",
      "taf": "TAF LFSB 120507Z 1206/1306 34005KT CAVOK"
    },
    {
      "icao": "LGAV",
      "alert": "OK",
      "vis_m": 9999,
      "fzfg": false,
      "metar_trigger": false,
      "taf_trigger": false,
      "metar": "METAR LGAV 120850Z 05009KT 010V090 CAVOK 31/10 Q1015 NOSIG",
      "taf": "TAF LGAV 120500Z 1206/1306 05010KT 9999 FEW025"
    },
    {
      "icao": "LGTS",
      "alert": "OK",
      "vis_m": 9999,
      "fzfg": false,
      "metar_trigger": false,
      "taf_trigger": false,
      "metar": "METAR LGTS 120850Z 27007KT 9999 FEW018 28/22 Q1015 NOSIG",
      "taf": "TAF LGTS 120500Z 1206/1306 13003KT CAVOK"
    },
    {
      "icao": "LHBP",
      "alert": "OK",
      "vis_m": 9999,
      "fzfg": false,
      "metar_trigger": false,
      "taf_trigger": false,
      "metar": "METAR LHBP 120900Z 33012KT 300V010 CAVOK 25/08 Q1017 NOSIG",
      "taf": "TAF LHBP 120515Z 1206/1306 36004KT CAVOK"
    },
    {
      "icao": "LHDC",
      "alert": "OK",
      "vis_m": 9999,
      "fzfg": false,
      "metar_trigger": false,
      "taf_trigger": false,
      "metar": "METAR LHDC 120845Z AUTO VRB05KT CAVOK 25/11 Q1016 NOSIG",
      "taf": "TAF LHDC 120815Z 1209/1218 05008KT CAVOK"
    },
    {
      "icao": "LIBD",
      "alert": "OK",
      "vis_m": 9999,
      "fzfg": false,
      "metar_trigger": false,
      "taf_trigger": false,
      "metar": "METAR LIBD 120850Z 06012KT 9999 FEW030 28/21 Q1015",
      "taf": "TAF LIBD 120500Z 1206/1306 21005KT CAVOK"
    },
    {
      "icao": "LIBG",
      "alert": "OK",
      "vis_m": 9999,
      "fzfg": false,
      "metar_trigger": false,
      "taf_trigger": false,
      "metar": "METAR LIBG 120850Z AUTO VRB04KT 9999 NCD 33/21 Q1015",
      "taf": "TAF LIBG 120500Z 1206/1306 VRB05KT CAVOK"
    },
    {
      "icao": "LIBP",
      "alert": "OK",
      "vis_m": 9999,
      "fzfg": false,
      "metar_trigger": false,
      "taf_trigger": false,
      "metar": "METAR LIBP 120850Z AUTO VRB03KT 9999 NCD 29/17 Q1016",
      "taf": "TAF LIBP 120500Z 1206/1306 VRB05KT CAVOK"
    },
    {
      "icao": "LIBR",
      "alert": "OK",
      "vis_m": 9999,
      "fzfg": false,
      "metar_trigger": false,
      "taf_trigger": false,
      "metar": "METAR LIBR 120850Z 09009KT CAVOK 30/22 Q1014",
      "taf": "TAF LIBR 120500Z 1206/1306 18007KT CAVOK"
    },
    {
      "icao": "LICA",
      "alert": "OK",
      "vis_m": 9999,
      "fzfg": false,
      "metar_trigger": false,
      "taf_trigger": false,
      "metar": "METAR LICA 120850Z AUTO 27005KT 240V300 9999 NCD 33/15 Q1015",
      "taf": "TAF LICA 120500Z 1206/1306 08006KT CAVOK"
    },
    {
      "icao": "LICC",
      "alert": "OK",
      "vis_m": 9999,
      "fzfg": false,
      "metar_trigger": false,
      "taf_trigger": false,
      "metar": "METAR LICC 120850Z 25014KT CAVOK 35/26 Q1015",
      "taf": "TAF LICC 120500Z 1206/1306 26008KT CAVOK"
    },
    {
      "icao": "LICJ",
      "alert": "OK",
      "vis_m": 9999,
      "fzfg": false,
      "metar_trigger": false,
      "taf_trigger": false,
      "metar": "METAR LICJ 120850Z 21015KT CAVOK 35/08 Q1014 WS R20",
      "taf": "TAF LICJ 120500Z 1206/1306 VRB05KT CAVOK"
    },
    {
      "icao": "LIMC",
      "alert": "OK",
      "vis_m": 9999,
      "fzfg": false,
      "metar_trigger": false,
      "taf_trigger": false,
      "metar": "METAR LIMC 120850Z VRB03KT CAVOK 28/17 Q1018 NOSIG",
      "taf": "TAF LIMC 120500Z 1206/1312 VRB04KT CAVOK"
    },
    {
      "icao": "LIME",
      "alert": "OK",
      "vis_m": 9999,
      "fzfg": false,
      "metar_trigger": false,
      "taf_trigger": false,
      "metar": "METAR LIME 120850Z 19005KT 140V240 CAVOK 27/16 Q1017 NOSIG",
      "taf": "TAF LIME 120500Z 1206/1306 VRB04KT CAVOK"
    },
    {
      "icao": "LIMF",
      "alert": "OK",
      "vis_m": 9999,
      "fzfg": false,
      "metar_trigger": false,
      "taf_trigger": false,
      "metar": "METAR LIMF 120850Z 13004KT 060V170 CAVOK 27/18 Q1018",
      "taf": "TAF LIMF 120500Z 1206/1306 VRB05KT CAVOK"
    },
    {
      "icao": "LIMJ",
      "alert": "OK",
      "vis_m": 9999,
      "fzfg": false,
      "metar_trigger": false,
      "taf_trigger": false,
      "metar": "METAR LIMJ 120850Z 23005KT CAVOK 28/22 Q1016",
      "taf": "TAF LIMJ 120500Z 1206/1306 VRB06KT CAVOK"
    },
    {
      "icao": "LIPE",
      "alert": "OK",
      "vis_m": 9999,
      "fzfg": false,
      "metar_trigger": false,
      "taf_trigger": false,
      "metar": "METAR LIPE 120850Z VRB03KT CAVOK 28/19 Q1016",
      "taf": "TAF LIPE 120500Z 1206/1306 VRB06KT CAVOK"
    },
    {
      "icao": "LIPH",
      "alert": "OK",
      "vis_m": 9999,
      "fzfg": false,
      "metar_trigger": false,
      "taf_trigger": false,
      "metar": "METAR LIPH 120850Z 06005KT 360V120 CAVOK 29/18 Q1016",
      "taf": "TAF LIPH 120500Z 1206/1306 VRB06KT CAVOK"
    },
    {
      "icao": "LIPQ",
      "alert": "OK",
      "vis_m": 9999,
      "fzfg": false,
      "metar_trigger": false,
      "taf_trigger": false,
      "metar": "METAR LIPQ 120850Z AUTO 24008KT 190V270 9999 NCD 28/17 Q1016",
      "taf": "TAF LIPQ 120500Z 1206/1306 VRB05KT CAVOK"
    },
    {
      "icao": "LIPR",
      "alert": "OK",
      "vis_m": 9999,
      "fzfg": false,
      "metar_trigger": false,
      "taf_trigger": false,
      "metar": "METAR LIPR 120850Z 06005KT 020V080 CAVOK 27/19 Q1016",
      "taf": "TAF LIPR 120500Z 1206/1306 30006KT CAVOK"
    },
    {
      "icao": "LIPX",
      "alert": "OK",
      "vis_m": 9999,
      "fzfg": false,
      "metar_trigger": false,
      "taf_trigger": false,
      "metar": "METAR LIPX 120850Z VRB03KT CAVOK 28/21 Q1017",
      "taf": "TAF LIPX 120500Z 1206/1306 VRB04KT CAVOK"
    },
    {
      "icao": "LIPY",
      "alert": "OK",
      "vis_m": 9999,
      "fzfg": false,
      "metar_trigger": false,
      "taf_trigger": false,
      "metar": "METAR LIPY 120850Z AUTO 05008KT 9999 NCD 28/18 Q1016",
      "taf": "TAF LIPY 120500Z 1206/1306 33006KT CAVOK"
    },
    {
      "icao": "LIPZ",
      "alert": "OK",
      "vis_m": 9999,
      "fzfg": false,
      "metar_trigger": false,
      "taf_trigger": false,
      "metar": "METAR LIPZ 120850Z 09007KT CAVOK 27/21 Q1016 NOSIG",
      "taf": "TAF LIPZ 120500Z 1206/1312 VRB05KT CAVOK"
    },
    {
      "icao": "LIRF",
      "alert": "OK",
      "vis_m": 9999,
      "fzfg": false,
      "metar_trigger": false,
      "taf_trigger": false,
      "metar": "METAR LIRF 120850Z VRB03KT CAVOK 32/16 Q1015 NOSIG",
      "taf": "TAF LIRF 120500Z 1206/1312 VRB05KT CAVOK"
    },
    {
      "icao": "LIRN",
      "alert": "OK",
      "vis_m": 9999,
      "fzfg": false,
      "metar_trigger": false,
      "taf_trigger": false,
      "metar": "METAR LIRN 120850Z 08003KT 010V160 CAVOK 32/12 Q1015 NOSIG",
      "taf": "TAF LIRN 120500Z 1206/1306 VRB05KT CAVOK"
    },
    {
      "icao": "LIRP",
      "alert": "OK",
      "vis_m": 9999,
      "fzfg": false,
      "metar_trigger": false,
      "taf_trigger": false,
      "metar": "METAR LIRP 120845Z 10005KT CAVOK 30/18 Q1015 NOSIG",
      "taf": "TAF LIRP 120500Z 1206/1306 VRB03KT CAVOK"
    },
    {
      "icao": "LIRZ",
      "alert": "OK",
      "vis_m": 9999,
      "fzfg": false,
      "metar_trigger": false,
      "taf_trigger": false,
      "metar": "METAR LIRZ 120850Z AUTO VRB02KT 9999 NCD 29/16 Q1016",
      "taf": "TAF LIRZ 120500Z 1206/1306 VRB05KT 9999 FEW040"
    },
    {
      "icao": "LJLJ",
      "alert": "OK",
      "vis_m": 9999,
      "fzfg": false,
      "metar_trigger": false,
      "taf_trigger": false,
      "metar": "METAR LJLJ 120900Z 15004KT 100V200 9999 FEW013 23/18 Q1019 NOSIG",
      "taf": ""
    },
    {
      "icao": "LKMT",
      "alert": "OK",
      "vis_m": 9999,
      "fzfg": false,
      "metar_trigger": false,
      "taf_trigger": false,
      "metar": "METAR LKMT 120900Z 32007KT 300V360 9999 OVC032 18/11 Q1019 NOSIG",
      "taf": "TAF LKMT 120500Z 1206/1306 22003KT CAVOK"
    },
    {
      "icao": "LKPR",
      "alert": "OK",
      "vis_m": 9999,
      "fzfg": false,
      "metar_trigger": false,
      "taf_trigger": false,
      "metar": "METAR LKPR 120900Z 32011KT 9999 FEW045 23/12 Q1021 NOSIG",
      "taf": "TAF LKPR 120800Z 1209/1315 32009KT CAVOK"
    },
    {
      "icao": "LLBG",
      "alert": "OK",
      "vis_m": 9999,
      "fzfg": false,
      "metar_trigger": false,
      "taf_trigger": false,
      "metar": "METAR LLBG 120850Z 29009KT 240V330 CAVOK 30/19 Q1009 NOSIG",
      "taf": "TAF LLBG 120503Z 1206/1306 VRB04KT 9999 SCT023 TX32/1211Z TN23/1304Z"
    },
    {
      "icao": "LMML",
      "alert": "OK",
      "vis_m": 9999,
      "fzfg": false,
      "metar_trigger": false,
      "taf_trigger": false,
      "metar": "METAR LMML 120915Z 18007KT 150V230 9999 FEW010 29/22 Q1017 NOSIG",
      "taf": "TAF LMML 120500Z 1206/1306 19009KT 9999 FEW015"
    },
    {
      "icao": "LOWW",
      "alert": "OK",
      "vis_m": 9999,
      "fzfg": false,
      "metar_trigger": false,
      "taf_trigger": false,
      "metar": "METAR LOWW 120850Z 31013G23KT 280V350 9999 FEW050 25/10 Q1018 NOSIG",
      "taf": "TAF LOWW 120815Z 1209/1315 34012KT CAVOK TX30/1314Z TN19/1303Z"
    },
    {
      "icao": "LPFR",
      "alert": "OK",
      "vis_m": 9999,
      "fzfg": false,
      "metar_trigger": false,
      "taf_trigger": false,
      "metar": "METAR LPFR 120900Z 24005KT 210V270 9999 FEW012 23/17 Q1014",
      "taf": "TAF LPFR 120500Z 1206/1306 09005KT 9999 FEW020"
    },
    {
      "icao": "LPMA",
      "alert": "OK",
      "vis_m": 9999,
      "fzfg": false,
      "metar_trigger": false,
      "taf_trigger": false,
      "metar": "METAR LPMA 120900Z 08004KT 010V150 9999 FEW016 24/17 Q1017",
      "taf": "TAF LPMA 120500Z 1206/1306 VRB05KT 9999 SCT015"
    },
    {
      "icao": "LPPR",
      "alert": "OK",
      "vis_m": 9999,
      "fzfg": false,
      "metar_trigger": false,
      "taf_trigger": false,
      "metar": "METAR LPPR 120900Z 18011KT 150V210 9999 FEW018 SCT040 21/15 Q1013",
      "taf": "TAF LPPR 120500Z 1206/1306 19010KT 9999 BKN030"
    },
    {
      "icao": "LPPS",
      "alert": "OK",
      "vis_m": 9999,
      "fzfg": false,
      "metar_trigger": false,
      "taf_trigger": false,
      "metar": "METAR LPPS 120900Z 28011KT 9999 FEW012 22/18 Q1017",
      "taf": "TAF LPPS 120500Z 1206/1312 30012KT 9999 SCT015"
    },
    {
      "icao": "LPPT",
      "alert": "OK",
      "vis_m": 9999,
      "fzfg": false,
      "metar_trigger": false,
      "taf_trigger": false,
      "metar": "METAR LPPT 120900Z 15005G15KT 080V200 9999 FEW010 BKN016 21/17 Q1013 NOSIG",
      "taf": "TAF LPPT 120500Z 1206/1312 14005KT 9999 SCT030"
    },
    {
      "icao": "LQBK",
      "alert": "OK",
      "vis_m": 9999,
      "fzfg": false,
      "metar_trigger": false,
      "taf_trigger": false,
      "metar": "METAR LQBK 120900Z 29007KT 260V330 9999 FEW035 27/16 Q1017 NOSIG",
      "taf": "TAF LQBK 120500Z 1206/1306 24005KT CAVOK TX28/1214Z TN15/1303Z"
    },
    {
      "icao": "LQSA",
      "alert": "OK",
      "vis_m": 9999,
      "fzfg": false,
      "metar_trigger": false,
      "taf_trigger": false,
      "metar": "METAR LQSA 120900Z VRB02KT 9999 FEW025 21/16 Q1018 NOSIG",
      "taf": "TAF LQSA 120500Z 1206/1306 VRB02KT 9999 BKN050 TX25/1212Z TN14/1303Z"
    },
    {
      "icao": "LQTZ",
      "alert": "OK",
      "vis_m": 9999,
      "fzfg": false,
      "metar_trigger": false,
      "taf_trigger": false,
      "metar": "METAR LQTZ 120900Z VRB03KT 9999 SCT055 24/17 Q1017",
      "taf": "TAF LQTZ 120500Z 1206/1306 27005KT 9999 SCT045 TX29/1213Z TN11/1303Z"
    },
    {
      "icao": "LRBC",
      "alert": "OK",
      "vis_m": 9999,
      "fzfg": false,
      "metar_trigger": false,
      "taf_trigger": false,
      "metar": "METAR LRBC 120900Z 14004KT 9999 SCT066 21/13 Q1016",
      "taf": "TAF LRBC 120800Z 1209/1218 VRB04KT CAVOK"
    },
    {
      "icao": "LRBS",
      "alert": "OK",
      "vis_m": 9999,
      "fzfg": false,
      "metar_trigger": false,
      "taf_trigger": false,
      "metar": "METAR LRBS 120900Z 07005KT 040V110 CAVOK 26/16 Q1015 NOSIG",
      "taf": "TAF LRBS 120500Z 1206/1306 07010KT CAVOK"
    },
    {
      "icao": "LRBV",
      "alert": "OK",
      "vis_m": 9999,
      "fzfg": false,
      "metar_trigger": false,
      "taf_trigger": false,
      "metar": "METAR LRBV 120900Z VRB02KT 9999 FEW057 22/14 Q1016",
      "taf": "TAF LRBV 120800Z 1209/1218 VRB04KT 9999 SCT040"
    },
    {
      "icao": "LRCL",
      "alert": "OK",
      "vis_m": 9999,
      "fzfg": false,
      "metar_trigger": false,
      "taf_trigger": false,
      "metar": "METAR LRCL 120900Z AUTO 08003KT 360V160 9999 NCD 24/14 Q1015",
      "taf": "TAF LRCL 120800Z 1209/1218 VRB04KT CAVOK"
    },
    {
      "icao": "LRCV",
      "alert": "OK",
      "vis_m": 9999,
      "fzfg": false,
      "metar_trigger": false,
      "taf_trigger": false,
      "metar": "METAR LRCV 120900Z VRB03KT CAVOK 27/15 Q1015",
      "taf": "TAF LRCV 120800Z 1209/1218 VRB04KT CAVOK"
    },
    {
      "icao": "LRIA",
      "alert": "OK",
      "vis_m": 9999,
      "fzfg": false,
      "metar_trigger": false,
      "taf_trigger": false,
      "metar": "METAR LRIA 120900Z VRB03KT CAVOK 23/11 Q1016",
      "taf": "TAF LRIA 120800Z 1209/1218 VRB04KT CAVOK"
    },
    {
      "icao": "LROP",
      "alert": "OK",
      "vis_m": 9999,
      "fzfg": false,
      "metar_trigger": false,
      "taf_trigger": false,
      "metar": "METAR LROP 120900Z VRB05KT CAVOK 26/15 Q1015 NOSIG",
      "taf": "TAF LROP 120500Z 1206/1306 07010KT CAVOK"
    },
    {
      "icao": "LRSB",
      "alert": "OK",
      "vis_m": 9999,
      "fzfg": false,
      "metar_trigger": false,
      "taf_trigger": false,
      "metar": "METAR LRSB 120900Z 19004KT 130V220 9999 FEW040 27/12 Q1015",
      "taf": "TAF LRSB 120500Z 1206/1306 VRB04KT CAVOK"
    },
    {
      "icao": "LRSM",
      "alert": "OK",
      "vis_m": 9999,
      "fzfg": false,
      "metar_trigger": false,
      "taf_trigger": false,
      "metar": "METAR LRSM 120900Z AUTO 03006KT 330V070 9999 FEW065/// BKN110/// 23/11 Q1016",
      "taf": ""
    },
    {
      "icao": "LRSV",
      "alert": "OK",
      "vis_m": 9999,
      "fzfg": false,
      "metar_trigger": false,
      "taf_trigger": false,
      "metar": "METAR LRSV 120900Z 06005KT 320V120 9999 SCT040 20/13 Q1016",
      "taf": "TAF LRSV 120800Z 1209/1218 VRB04KT CAVOK"
    },
    {
      "icao": "LRTM",
      "alert": "OK",
      "vis_m": 9999,
      "fzfg": false,
      "metar_trigger": false,
      "taf_trigger": false,
      "metar": "METAR LRTM 120900Z VRB02KT CAVOK 25/17 Q1015",
      "taf": "TAF LRTM 120800Z 1209/1218 VRB04KT CAVOK"
    },
    {
      "icao": "LRTR",
      "alert": "OK",
      "vis_m": 9999,
      "fzfg": false,
      "metar_trigger": false,
      "taf_trigger": false,
      "metar": "METAR LRTR 120900Z 27010KT CAVOK 22/17 Q1016 NOSIG",
      "taf": "TAF LRTR 120500Z 1206/1306 33010KT 9999 SCT045"
    },
    {
      "icao": "LTAC",
      "alert": "OK",
      "vis_m": 9999,
      "fzfg": false,
      "metar_trigger": false,
      "taf_trigger": false,
      "metar": "METAR LTAC 120850Z 04010KT 340V090 CAVOK 28/09 Q1016 NOSIG RMK RWY21C VRB04KT RWY03L 35005KT 270V050 RWY21R 19005KT 090V230 RWY03R 22005KT 130V290 RWY21L VRB04KT",
      "taf": "TAF LTAC 120440Z 1206/1306 VRB02KT CAVOK"
    },
    {
      "icao": "LTFM",
      "alert": "OK",
      "vis_m": 9999,
      "fzfg": false,
      "metar_trigger": false,
      "taf_trigger": false,
      "metar": "METAR LTFM 120850Z 05011KT 010V080 CAVOK 25/17 Q1016 NOSIG RMK RWY17L 04010KT 360V070 RWY34L 04011KT 360V090 RWY16R 03011KT RWY36 04012KT 360V080 RWY18 05009KT 360V090",
      "taf": "TAF LTFM 120440Z 1206/1312 VRB02KT 9999 FEW013"
    },
    {
      "icao": "LUKK",
      "alert": "OK",
      "vis_m": 9999,
      "fzfg": false,
      "metar_trigger": false,
      "taf_trigger": false,
      "metar": "METAR LUKK 120900Z VRB04KT CAVOK 24/12 Q1016 NOSIG",
      "taf": "TAF LUKK 120515Z 1206/1306 VRB06KT CAVOK"
    },
    {
      "icao": "LWOH",
      "alert": "OK",
      "vis_m": null,
      "fzfg": false,
      "metar_trigger": false,
      "taf_trigger": false,
      "metar": "",
      "taf": "TAF LWOH 120830Z 1209/1309 16006KT 9999 FEW040"
    },
    {
      "icao": "LWSK",
      "alert": "OK",
      "vis_m": null,
      "fzfg": false,
      "metar_trigger": false,
      "taf_trigger": false,
      "metar": "",
      "taf": "TAF LWSK 120830Z 1209/1309 VRB02KT CAVOK"
    },
    {
      "icao": "LYBE",
      "alert": "OK",
      "vis_m": 9999,
      "fzfg": false,
      "metar_trigger": false,
      "taf_trigger": false,
      "metar": "METAR LYBE 120900Z 12005KT 9999 FEW007 SCT026 21/19 Q1017 NOSIG",
      "taf": "TAF LYBE 120500Z 1206/1306 24006KT CAVOK TX28/1214Z TN16/1303Z"
    },
    {
      "icao": "LYNI",
      "alert": "OK",
      "vis_m": 9999,
      "fzfg": false,
      "metar_trigger": false,
      "taf_trigger": false,
      "metar": "METAR LYNI 120900Z VRB02KT 9999 FEW033 27/18 Q1016 NOSIG",
      "taf": "TAF LYNI 120500Z 1206/1306 35005KT CAVOK TX28/1214Z TN15/1303Z"
    },
    {
      "icao": "LYPG",
      "alert": "OK",
      "vis_m": 9999,
      "fzfg": false,
      "metar_trigger": false,
      "taf_trigger": false,
      "metar": "METAR LYPG 120900Z 23009KT 9999 FEW050 SCT080 24/18 Q1016 NOSIG",
      "taf": "TAF LYPG 120500Z 1206/1306 18007KT 9999 FEW040 SCT080 TX32/1213Z TN24/1303Z"
    },
    {
      "icao": "LZIB",
      "alert": "OK",
      "vis_m": 9999,
      "fzfg": false,
      "metar_trigger": false,
      "taf_trigger": false,
      "metar": "METAR LZIB 120900Z 31015KT CAVOK 25/10 Q1017 NOSIG",
      "taf": "TAF LZIB 120515Z 1206/1306 01005KT CAVOK"
    },
    {
      "icao": "LZKZ",
      "alert": "OK",
      "vis_m": 9999,
      "fzfg": false,
      "metar_trigger": false,
      "taf_trigger": false,
      "metar": "METAR LZKZ 120900Z 03008KT 9999 FEW034 18/14 Q1017 TEMPO SHRA FEW035TCU",
      "taf": ""
    },
    {
      "icao": "LZTT",
      "alert": "OK",
      "vis_m": 9999,
      "fzfg": false,
      "metar_trigger": false,
      "taf_trigger": false,
      "metar": "METAR LZTT 120900Z 28012KT 9999 FEW010 SCT053 BKN080 16/12 Q1018 NOSIG",
      "taf": ""
    },
    {
      "icao": "OEJN",
      "alert": "OK",
      "vis_m": 9999,
      "fzfg": false,
      "metar_trigger": false,
      "taf_trigger": false,
      "metar": "METAR OEJN 120900Z 28008KT CAVOK 35/22 Q1005 NOSIG",
      "taf": "TAF OEJN 120500Z 1206/1312 32016KT 9999 FEW040"
    },
    {
      "icao": "OEMA",
      "alert": "OK",
      "vis_m": 9999,
      "fzfg": false,
      "metar_trigger": false,
      "taf_trigger": false,
      "metar": "METAR OEMA 120900Z 14005KT CAVOK 42/M03 Q1010 NOSIG",
      "taf": "TAF OEMA 120500Z 1206/1312 12006KT CAVOK"
    },
    {
      "icao": "OJAI",
      "alert": "OK",
      "vis_m": 5000,
      "fzfg": false,
      "metar_trigger": false,
      "taf_trigger": false,
      "metar": "METAR OJAI 120900Z 27010KT 5000 HZ NSC 31/08 Q1013 NOSIG",
      "taf": "TAF OJAI 120500Z 1206/1312 29010KT 5000 HZ NSC"
    },
    {
      "icao": "OMAA",
      "alert": "OK",
      "vis_m": 9999,
      "fzfg": false,
      "metar_trigger": false,
      "taf_trigger": false,
      "metar": "METAR OMAA 120900Z 28005KT 250V320 CAVOK 42/10 Q0998 NOSIG",
      "taf": "TAF OMAA 120500Z 1206/1312 20005KT 8000 NSC"
    },
    {
      "icao": "OMDB",
      "alert": "OK",
      "vis_m": 9999,
      "fzfg": false,
      "metar_trigger": false,
      "taf_trigger": false,
      "metar": "METAR OMDB 120900Z 28011KT 250V320 CAVOK 40/19 Q0998 NOSIG",
      "taf": "TAF OMDB 120500Z 1206/1312 22008KT 8000 NSC"
    },
    {
      "icao": "UAAA",
      "alert": "OK",
      "vis_m": 9999,
      "fzfg": false,
      "metar_trigger": false,
      "taf_trigger": false,
      "metar": "METAR UAAA 120900Z 31003MPS 9999 SCT050CB BKN200 36/04 Q1003 NOSIG",
      "taf": "TAF UAAA 120502Z 1206/1306 32003G08MPS 9999 FEW050CB SCT100 TX36/1210Z TN20/1301Z"
    },
    {
      "icao": "UBBB",
      "alert": "OK",
      "vis_m": 9999,
      "fzfg": false,
      "metar_trigger": false,
      "taf_trigger": false,
      "metar": "METAR UBBB 120900Z 34020KT CAVOK 30/20 Q1012 NOSIG",
      "taf": "TAF UBBB 120501Z 1206/1306 33018G28KT 9999 FEW015 TX31/1210Z TN24/1301Z"
    },
    {
      "icao": "UDSG",
      "alert": "OK",
      "vis_m": 9999,
      "fzfg": false,
      "metar_trigger": false,
      "taf_trigger": false,
      "metar": "METAR UDSG 120900Z 07017KT 9999 SCT049CB 25/16 Q1018 NOSIG",
      "taf": "TAF UDSG 120500Z 1206/1306 05006KT 9999 FEW050"
    },
    {
      "icao": "UDYZ",
      "alert": "OK",
      "vis_m": 9999,
      "fzfg": false,
      "metar_trigger": false,
      "taf_trigger": false,
      "metar": "METAR UDYZ 120900Z 21005KT 140V250 9999 FEW046TCU 32/16 Q1011 NOSIG",
      "taf": "TAF UDYZ 120500Z 1206/1306 22006KT 9999 FEW040"
    },
    {
      "icao": "UGKO",
      "alert": "OK",
      "vis_m": 9999,
      "fzfg": false,
      "metar_trigger": false,
      "taf_trigger": false,
      "metar": "METAR UGKO 120900Z 34005KT 310V010 9999 BKN053 25/19 Q1013 NOSIG",
      "taf": "TAF UGKO 120500Z 1206/1306 26006KT 9999 SCT030 BKN070 TX28/1211Z TN21/1302Z"
    }
  ]
}