{
  "ts_utc": "2026-02-14T23:58:19Z",
  "threshold_m": 150,
  "source": "stations_override.txt (ICAO list) + aviationweather.gov (METAR/TAF raw)",
  "station_count": 159,
  "stations": [
    {
      "icao": "BIKF",
      "alert": "OK",
      "vis_m": 9999,
      "fzfg": false,
      "metar_trigger": false,
      "taf_trigger": false,
      "metar": "METAR BIKF 142330Z 07021KT CAVOK M03/M11 Q0997",
      "taf": "TAF BIKF 142225Z 1500/1600 09015G25KT CAVOK TXM02/1515Z TNM06/1522Z"
    },
    {
      "icao": "BKPR",
      "alert": "OK",
      "vis_m": null,
      "fzfg": false,
      "metar_trigger": false,
      "taf_trigger": false,
      "metar": "",
      "taf": "TAF BKPR 142330Z 1500/1524 15006KT 9999 BKN030"
    },
    {
      "icao": "EBCI",
      "alert": "OK",
      "vis_m": 9999,
      "fzfg": false,
      "metar_trigger": false,
      "taf_trigger": false,
      "metar": "METAR EBCI 142350Z 19003KT CAVOK M02/M04 Q1019 NOSIG",
      "taf": "TAF EBCI 142306Z 1500/1606 14005KT CAVOK"
    },
    {
      "icao": "EDDB",
      "alert": "OK",
      "vis_m": 9999,
      "fzfg": false,
      "metar_trigger": false,
      "taf_trigger": false,
      "metar": "METAR EDDB 142350Z AUTO 36008KT 9999 OVC036 M01/M04 Q1017 NOSIG",
      "taf": "TAF EDDB 142300Z 1500/1524 36009KT 9999 SCT015 OVC035"
    },
    {
      "icao": "EDDH",
      "alert": "OK",
      "vis_m": 5000,
      "fzfg": true,
      "metar_trigger": false,
      "taf_trigger": false,
      "metar": "METAR EDDH 142350Z AUTO 00000KT 5000 0400 R05/0800D R15/P2000N BCFG NCD M09/M09 Q1019 TEMPO 0500 FZFG",
      "taf": "TAF EDDH 142300Z 1500/1606 VRB02KT 7000 NSC"
    },
    {
      "icao": "EDDK",
      "alert": "OK",
      "vis_m": 9999,
      "fzfg": false,
      "metar_trigger": false,
      "taf_trigger": false,
      "metar": "METAR EDDK 142350Z AUTO VRB02KT 9999 BKN032 M00/M03 Q1019 NOSIG",
      "taf": "TAF EDDK 142300Z 1500/1606 VRB03KT 9999 SCT030"
    },
    {
      "icao": "EDDN",
      "alert": "OK",
      "vis_m": 9999,
      "fzfg": false,
      "metar_trigger": false,
      "taf_trigger": false,
      "metar": "METAR EDDN 142350Z AUTO 01010KT 9999 OVC018 M00/M04 Q1015",
      "taf": "TAF EDDN 142300Z 1500/1524 34005KT 9999 BKN020"
    },
    {
      "icao": "EDDS",
      "alert": "OK",
      "vis_m": 9999,
      "fzfg": false,
      "metar_trigger": false,
      "taf_trigger": false,
      "metar": "METAR EDDS 142350Z AUTO 36005KT 320V030 9999 SCT010 OVC017 00/M01 Q1014",
      "taf": "TAF EDDS 142300Z 1500/1524 35007KT 9999 BKN015"
    },
    {
      "icao": "EDFH",
      "alert": "OK",
      "vis_m": 9999,
      "fzfg": false,
      "metar_trigger": false,
      "taf_trigger": false,
      "metar": "METAR EDFH 142350Z 35006KT 310V010 9999 SCT007 OVC020 M02/M03 Q1016",
      "taf": "TAF EDFH 142300Z 1500/1524 01005KT 8000 BKN010"
    },
    {
      "icao": "EDJA",
      "alert": "OK",
      "vis_m": 8000,
      "fzfg": false,
      "metar_trigger": false,
      "taf_trigger": false,
      "metar": "METAR EDJA 142350Z AUTO 03006KT 8000 // FEW004/// SCT012/// OVC027/// M01/M02 Q1012",
      "taf": "TAF EDJA 141700Z 1418/1503 36008KT 7000 SNRA BKN006"
    },
    {
      "icao": "EDLW",
      "alert": "OK",
      "vis_m": 9999,
      "fzfg": false,
      "metar_trigger": false,
      "taf_trigger": false,
      "metar": "METAR EDLW 142350Z AUTO 15003KT 9999 // NCD M03/M04 Q1019",
      "taf": "TAF EDLW 141700Z 1418/1518 35007KT 9999 OVC013"
    },
    {
      "icao": "EDNY",
      "alert": "OK",
      "vis_m": 9999,
      "fzfg": false,
      "metar_trigger": false,
      "taf_trigger": false,
      "metar": "METAR EDNY 142350Z AUTO VRB02KT 9999 // FEW017/// BKN037/// OVC043/// 01/00 Q1014",
      "taf": "TAF EDNY 141700Z 1418/1503 02006KT 9000 SCT012 BKN025"
    },
    {
      "icao": "EDSB",
      "alert": "OK",
      "vis_m": 9999,
      "fzfg": false,
      "metar_trigger": false,
      "taf_trigger": false,
      "metar": "METAR EDSB 142350Z AUTO 01007KT 9999 // FEW018/// OVC027/// 02/M01 Q1017",
      "taf": "TAF EDSB 142300Z 1500/1524 02007KT 9999 BKN025"
    },
    {
      "icao": "EETN",
      "alert": "OK",
      "vis_m": 9999,
      "fzfg": false,
      "metar_trigger": false,
      "taf_trigger": false,
      "metar": "METAR EETN 142350Z VRB02KT CAVOK M21/M23 Q1016",
      "taf": "TAF EETN 142330Z 1500/1524 VRB02KT CAVOK"
    },
    {
      "icao": "EFTU",
      "alert": "OK",
      "vis_m": 9999,
      "fzfg": false,
      "metar_trigger": false,
      "taf_trigger": false,
      "metar": "METAR EFTU 142350Z AUTO 12002KT 9999 BKN016 M17/M19 Q1014",
      "taf": "TAF EFTU 142326Z 1500/1524 11002KT CAVOK"
    },
    {
      "icao": "EGBB",
      "alert": "OK",
      "vis_m": 4900,
      "fzfg": false,
      "metar_trigger": false,
      "taf_trigger": false,
      "metar": "METAR EGBB 142350Z 19008KT 160V230 4900 -SN SCT016 BKN022 02/M01 Q1014",
      "taf": "TAF EGBB 142254Z 1500/1524 17010KT 9999 FEW030"
    },
    {
      "icao": "EGGP",
      "alert": "OK",
      "vis_m": 9999,
      "fzfg": false,
      "metar_trigger": false,
      "taf_trigger": false,
      "metar": "METAR EGGP 142350Z 16012KT 9999 -RA SCT040 BKN048 01/M01 Q1010",
      "taf": "TAF EGGP 142255Z 1500/1524 16012KT 9999 SCT025"
    },
    {
      "icao": "EGGW",
      "alert": "OK",
      "vis_m": 9999,
      "fzfg": false,
      "metar_trigger": false,
      "taf_trigger": false,
      "metar": "METAR EGGW 142350Z AUTO 19006KT 160V220 9999 NCD 02/M02 Q1015",
      "taf": "TAF EGGW 142315Z 1500/1524 18010KT 9999 SCT025"
    },
    {
      "icao": "EGKK",
      "alert": "OK",
      "vis_m": 9999,
      "fzfg": false,
      "metar_trigger": false,
      "taf_trigger": false,
      "metar": "METAR EGKK 142350Z 16003KT 140V200 CAVOK 02/M02 Q1017",
      "taf": "TAF EGKK 142300Z 1500/1606 16002KT 9999 SCT030"
    },
    {
      "icao": "EGNM",
      "alert": "OK",
      "vis_m": 9999,
      "fzfg": false,
      "metar_trigger": false,
      "taf_trigger": false,
      "metar": "METAR EGNM 142250Z 16008KT CAVOK 02/M01 Q1011",
      "taf": "TAF EGNM 142255Z 1500/1524 17009KT 9999 FEW030"
    },
    {
      "icao": "EGPD",
      "alert": "OK",
      "vis_m": 9999,
      "fzfg": false,
      "metar_trigger": false,
      "taf_trigger": false,
      "metar": "METAR EGPD 142350Z COR AUTO 17013KT 9999 SCT018 03/00 Q1005 NOSIG",
      "taf": "TAF EGPD 142254Z 1500/1524 17012KT 9999 FEW020"
    },
    {
      "icao": "EGPF",
      "alert": "OK",
      "vis_m": 4400,
      "fzfg": false,
      "metar_trigger": false,
      "taf_trigger": false,
      "metar": "METAR EGPF 142350Z AUTO 13008KT 4400 +RASN BKN008/// OVC014/// //////TCU 02/00 Q1004",
      "taf": "TAF EGPF 142259Z 1500/1524 14011KT 9999 FEW015 SCT030"
    },
    {
      "icao": "EHBK",
      "alert": "OK",
      "vis_m": 9999,
      "fzfg": false,
      "metar_trigger": false,
      "taf_trigger": false,
      "metar": "METAR EHBK 142325Z AUTO 10002KT 9999 FEW020 M04/M04 Q1019",
      "taf": "TAF EHBK 142312Z 1500/1606 VRB01KT CAVOK"
    },
    {
      "icao": "EHEH",
      "alert": "OK",
      "vis_m": 9999,
      "fzfg": false,
      "metar_trigger": false,
      "taf_trigger": false,
      "metar": "SPECI EHEH 142342Z AUTO 11001KT 9999 OVC200 M05/M06 Q1020 BLU",
      "taf": "TAF EHEH 141714Z 1418/1524 01006KT CAVOK"
    },
    {
      "icao": "EKBI",
      "alert": "OK",
      "vis_m": 9999,
      "fzfg": false,
      "metar_trigger": false,
      "taf_trigger": false,
      "metar": "METAR EKBI 142350Z AUTO 15005KT 9999 BKN059/// M04/M07 Q1018",
      "taf": "TAF EKBI 142327Z 1500/1524 15002KT 9999 BKN048"
    },
    {
      "icao": "EKCH",
      "alert": "OK",
      "vis_m": 9999,
      "fzfg": false,
      "metar_trigger": false,
      "taf_trigger": false,
      "metar": "METAR EKCH 142350Z AUTO 32004KT 9999 BKN044/// M04/M10 Q1019 NOSIG",
      "taf": "TAF EKCH 142327Z 1500/1524 VRB03KT 9999 BKN045"
    },
    {
      "icao": "ENAL",
      "alert": "OK",
      "vis_m": 9999,
      "fzfg": false,
      "metar_trigger": false,
      "taf_trigger": false,
      "metar": "METAR ENAL 142350Z AUTO 14012KT 9999 NCD M00/M08 Q1009",
      "taf": "TAF ENAL 142300Z 1500/1509 15010KT CAVOK"
    },
    {
      "icao": "ENBR",
      "alert": "OK",
      "vis_m": 9999,
      "fzfg": false,
      "metar_trigger": false,
      "taf_trigger": false,
      "metar": "METAR ENBR 142350Z 13005KT 9999 FEW023 BKN037 M02/M03 Q1011 RMK WIND 1200FT 17017KT",
      "taf": "TAF ENBR 142300Z 1500/1524 14008KT 9999 SCT015"
    },
    {
      "icao": "ENGM",
      "alert": "OK",
      "vis_m": 9999,
      "fzfg": false,
      "metar_trigger": false,
      "taf_trigger": false,
      "metar": "METAR ENGM 142350Z 36002KT 9999 FEW001 M20/M22 Q1015",
      "taf": "TAF ENGM 142300Z 1500/1524 VRB03KT 9999 FEW002"
    },
    {
      "icao": "ENHD",
      "alert": "OK",
      "vis_m": 9999,
      "fzfg": false,
      "metar_trigger": false,
      "taf_trigger": false,
      "metar": "METAR ENHD 142350Z 13006KT 9999 BKN030 M01/M03 Q1012",
      "taf": "TAF ENHD 141400Z 1415/1423 10008KT 9999 FEW006 BKN025"
    },
    {
      "icao": "ENTC",
      "alert": "OK",
      "vis_m": 450,
      "fzfg": false,
      "metar_trigger": false,
      "taf_trigger": false,
      "metar": "METAR ENTC 142350Z 21024KT 0450 R36/P2000D R18/P2000D -SHSN OVC024 M03/M04 Q0999 RESN RMK WIND 2600FT 21015KT",
      "taf": "TAF ENTC 142300Z 1500/1524 21020KT 9999 -SHSN FEW015 SCT030CB"
    },
    {
      "icao": "ENTO",
      "alert": "OK",
      "vis_m": 9999,
      "fzfg": false,
      "metar_trigger": false,
      "taf_trigger": false,
      "metar": "METAR ENTO 142350Z AUTO VRB02KT 9999 OVC023/// M09/M12 Q1017",
      "taf": "TAF ENTO 142300Z 1500/1524 VRB03KT 9999 BKN020"
    },
    {
      "icao": "ENVA",
      "alert": "OK",
      "vis_m": 9999,
      "fzfg": false,
      "metar_trigger": false,
      "taf_trigger": false,
      "metar": "METAR ENVA 142350Z 10006KT CAVOK M10/M11 Q1011 RMK WIND 670FT 14014KT",
      "taf": "TAF ENVA 142300Z 1500/1524 10008KT 9999 FEW015 SCT025"
    },
    {
      "icao": "ENZV",
      "alert": "OK",
      "vis_m": 9999,
      "fzfg": false,
      "metar_trigger": false,
      "taf_trigger": false,
      "metar": "METAR ENZV 142350Z 17003KT 130V210 9999 FEW035 M01/M06 Q1012",
      "taf": ""
    },
    {
      "icao": "EPGD",
      "alert": "OK",
      "vis_m": 9999,
      "fzfg": false,
      "metar_trigger": false,
      "taf_trigger": false,
      "metar": "METAR EPGD 142330Z 06006KT 9999 -SN BKN009 M05/M06 Q1014",
      "taf": "TAF EPGD 142330Z 1500/1524 06007KT 9999 BKN012"
    },
    {
      "icao": "EPKK",
      "alert": "OK",
      "vis_m": 1000,
      "fzfg": false,
      "metar_trigger": false,
      "taf_trigger": false,
      "metar": "METAR EPKK 142330Z VRB02KT 1000 R25/1900N SN BR FEW003 BKN010 M02/M02 Q1010",
      "taf": "TAF EPKK 142330Z 1500/1524 36004KT 1500 SN BR BKN010"
    },
    {
      "icao": "EPKT",
      "alert": "OK",
      "vis_m": 5000,
      "fzfg": false,
      "metar_trigger": false,
      "taf_trigger": false,
      "metar": "METAR EPKT 142330Z 35007KT 5000 -SN BR BKN007 OVC020 M03/M04 Q1011",
      "taf": "TAF EPKT 142330Z 1500/1524 34008KT 5000 -SN BR BKN015"
    },
    {
      "icao": "EPLB",
      "alert": "OK",
      "vis_m": 9999,
      "fzfg": false,
      "metar_trigger": false,
      "taf_trigger": false,
      "metar": "METAR EPLB 142330Z 35004KT 330V040 9999 OVC009 M03/M04 Q1010",
      "taf": "TAF EPLB 142330Z 1500/1524 01010KT 9999 BKN006 OVC012"
    },
    {
      "icao": "EPMO",
      "alert": "OK",
      "vis_m": 8000,
      "fzfg": false,
      "metar_trigger": false,
      "taf_trigger": false,
      "metar": "METAR EPMO 142330Z 03008KT 8000 OVC008 M06/M07 Q1012",
      "taf": "TAF EPMO 142330Z 1500/1524 34007KT 9999 OVC012"
    },
    {
      "icao": "EPPO",
      "alert": "OK",
      "vis_m": 9999,
      "fzfg": false,
      "metar_trigger": false,
      "taf_trigger": false,
      "metar": "METAR EPPO 142330Z 35006KT 9999 OVC016 M02/M05 Q1014",
      "taf": "TAF EPPO 142330Z 1500/1524 35006KT 9999 BKN020"
    },
    {
      "icao": "EPRA",
      "alert": "OK",
      "vis_m": 9999,
      "fzfg": false,
      "metar_trigger": false,
      "taf_trigger": false,
      "metar": "METAR EPRA 142330Z 01007KT 9999 OVC007 M04/M06 Q1011",
      "taf": "TAF EPRA 142330Z 1500/1509 35008KT 8000 OVC008"
    },
    {
      "icao": "EPRZ",
      "alert": "OK",
      "vis_m": 1800,
      "fzfg": false,
      "metar_trigger": false,
      "taf_trigger": false,
      "metar": "METAR EPRZ 142330Z 34008KT 1800 SN BR BKN002 M01/M01 Q1009",
      "taf": "TAF EPRZ 142330Z 1500/1524 34008KT 2000 -SN BR BKN005"
    },
    {
      "icao": "EPSC",
      "alert": "OK",
      "vis_m": 9999,
      "fzfg": false,
      "metar_trigger": false,
      "taf_trigger": false,
      "metar": "METAR EPSC 142330Z 34006KT 9999 BKN036 M01/M08 Q1016",
      "taf": "TAF EPSC 142330Z 1500/1524 35005KT 9999 BKN030"
    },
    {
      "icao": "EPSY",
      "alert": "OK",
      "vis_m": 9999,
      "fzfg": false,
      "metar_trigger": false,
      "taf_trigger": false,
      "metar": "METAR EPSY 142330Z 04007KT 9999 BKN013 M08/M10 Q1013",
      "taf": "TAF EPSY 142330Z 1500/1509 01008KT 9999 BKN011"
    },
    {
      "icao": "EPWA",
      "alert": "OK",
      "vis_m": 9999,
      "fzfg": false,
      "metar_trigger": false,
      "taf_trigger": false,
      "metar": "METAR EPWA 142330Z 36004KT 330V030 9999 BKN011 M05/M06 Q1012 TEMPO BKN009",
      "taf": "TAF EPWA 142330Z 1500/1524 36008KT 9999 BKN012"
    },
    {
      "icao": "EPWR",
      "alert": "OK",
      "vis_m": 9999,
      "fzfg": false,
      "metar_trigger": false,
      "taf_trigger": false,
      "metar": "METAR EPWR 142330Z 34006KT 9999 FEW016 BKN023 M01/M03 Q1013",
      "taf": "TAF EPWR 142330Z 1500/1524 35006KT 9999 BKN020"
    },
    {
      "icao": "ESGG",
      "alert": "OK",
      "vis_m": 9999,
      "fzfg": false,
      "metar_trigger": false,
      "taf_trigger": false,
      "metar": "METAR ESGG 142350Z 14005KT CAVOK M12/M13 Q1017",
      "taf": "TAF ESGG 142330Z 1500/1524 16005KT CAVOK"
    },
    {
      "icao": "ESKN",
      "alert": "OK",
      "vis_m": 9999,
      "fzfg": false,
      "metar_trigger": false,
      "taf_trigger": false,
      "metar": "METAR ESKN 142350Z 27002KT CAVOK M16/M17 Q1018",
      "taf": "TAF ESKN 142330Z 1500/1524 26003KT CAVOK"
    },
    {
      "icao": "ESMS",
      "alert": "OK",
      "vis_m": 9999,
      "fzfg": false,
      "metar_trigger": false,
      "taf_trigger": false,
      "metar": "METAR ESMS 142350Z 01002KT CAVOK M09/M10 Q1018",
      "taf": "TAF ESMS 142327Z 1500/1524 VRB03KT 9999 BKN042"
    },
    {
      "icao": "ESSA",
      "alert": "OK",
      "vis_m": 9999,
      "fzfg": false,
      "metar_trigger": false,
      "taf_trigger": false,
      "metar": "METAR ESSA 142350Z 25006KT CAVOK M15/M16 Q1016 NOSIG",
      "taf": "TAF ESSA 142330Z 1500/1524 25005KT CAVOK"
    },
    {
      "icao": "EYKA",
      "alert": "OK",
      "vis_m": 9999,
      "fzfg": false,
      "metar_trigger": false,
      "taf_trigger": false,
      "metar": "METAR EYKA 142350Z AUTO 34003KT 9999 BKN140/// M13/M16 Q1014",
      "taf": "TAF EYKA 142300Z 1500/1524 VRB04KT 8000 SCT030"
    },
    {
      "icao": "EYPA",
      "alert": "OK",
      "vis_m": 9999,
      "fzfg": false,
      "metar_trigger": false,
      "taf_trigger": false,
      "metar": "METAR EYPA 142350Z AUTO 04004KT 9999 NCD M14/M18 Q1017",
      "taf": "TAF EYPA 142300Z 1500/1524 VRB04KT 8000 NSC"
    },
    {
      "icao": "EYVI",
      "alert": "OK",
      "vis_m": 9999,
      "fzfg": false,
      "metar_trigger": false,
      "taf_trigger": false,
      "metar": "METAR EYVI 142350Z 01008KT 9999 -SN OVC016 M11/M13 Q1012 NOSIG",
      "taf": "TAF EYVI 142300Z 1500/1524 VRB05KT 8000 BKN015"
    },
    {
      "icao": "GCFV",
      "alert": "OK",
      "vis_m": 9999,
      "fzfg": false,
      "metar_trigger": false,
      "taf_trigger": false,
      "metar": "METAR GCFV 142330Z AUTO 36024KT 9999 FEW031 17/09 Q1026",
      "taf": ""
    },
    {
      "icao": "GCLP",
      "alert": "OK",
      "vis_m": 9999,
      "fzfg": false,
      "metar_trigger": false,
      "taf_trigger": false,
      "metar": "METAR GCLP 142330Z 01027KT 9999 SCT030 17/09 Q1026 NOSIG",
      "taf": "TAF GCLP 142000Z 1421/1521 02020KT 9999 FEW035 TX20/1514Z TN16/1506Z"
    },
    {
      "icao": "GCTS",
      "alert": "OK",
      "vis_m": 9999,
      "fzfg": false,
      "metar_trigger": false,
      "taf_trigger": false,
      "metar": "METAR GCTS 142330Z 06018G29KT 010V080 9999 FEW030 17/09 Q1026 NOSIG",
      "taf": ""
    },
    {
      "icao": "GMAD",
      "alert": "OK",
      "vis_m": 9999,
      "fzfg": false,
      "metar_trigger": false,
      "taf_trigger": false,
      "metar": "METAR GMAD 142330Z 35004KT CAVOK 11/10 Q1020 NOSIG",
      "taf": "TAF GMAD 142300Z 1500/1606 07004KT CAVOK"
    },
    {
      "icao": "GMMN",
      "alert": "OK",
      "vis_m": 9999,
      "fzfg": false,
      "metar_trigger": false,
      "taf_trigger": false,
      "metar": "METAR GMMN 142330Z 16003KT 9999 BKN026 07/05 Q1031 NOSIG",
      "taf": "TAF GMMN 142300Z 1500/1606 16004KT 9999 SCT016"
    },
    {
      "icao": "GMMX",
      "alert": "OK",
      "vis_m": 9999,
      "fzfg": false,
      "metar_trigger": false,
      "taf_trigger": false,
      "metar": "METAR GMMX 142330Z 07009KT CAVOK 09/04 Q1029 NOSIG",
      "taf": "TAF GMMX 142300Z 1500/1606 06006KT CAVOK"
    },
    {
      "icao": "HEGN",
      "alert": "OK",
      "vis_m": 9999,
      "fzfg": false,
      "metar_trigger": false,
      "taf_trigger": false,
      "metar": "METAR HEGN 142300Z 27006KT CAVOK 18/M02 Q1017 NOSIG",
      "taf": "TAF HEGN 142300Z 1500/1606 27012KT 6000 NSC"
    },
    {
      "icao": "HEMA",
      "alert": "OK",
      "vis_m": 9999,
      "fzfg": false,
      "metar_trigger": false,
      "taf_trigger": false,
      "metar": "METAR HEMA 142300Z 25005KT CAVOK 18/10 Q1017 NOSIG",
      "taf": "TAF HEMA 142300Z 1500/1606 31012KT 6000 NSC"
    },
    {
      "icao": "HESH",
      "alert": "OK",
      "vis_m": 9999,
      "fzfg": false,
      "metar_trigger": false,
      "taf_trigger": false,
      "metar": "METAR HESH 142300Z 18006KT CAVOK 15/M01 Q1017 NOSIG",
      "taf": "TAF HESH 142300Z 1500/1606 33012KT 6000 NSC"
    },
    {
      "icao": "HESX",
      "alert": "OK",
      "vis_m": 9999,
      "fzfg": false,
      "metar_trigger": false,
      "taf_trigger": false,
      "metar": "METAR HESX 142300Z 00000KT CAVOK 19/04 Q1018 NOSIG",
      "taf": "TAF HESX 142300Z 1500/1606 14008KT CAVOK"
    },
    {
      "icao": "LATI",
      "alert": "OK",
      "vis_m": 9999,
      "fzfg": false,
      "metar_trigger": false,
      "taf_trigger": false,
      "metar": "METAR LATI 142350Z 15018G29KT 9999 RA FEW042 BKN062 14/08 Q0997 NOSIG",
      "taf": "TAF LATI 142300Z 1500/1524 15010G20KT 9999 -RA FEW020 SCT035 BKN070 TX14/1512Z TN10/1505Z"
    },
    {
      "icao": "LBPD",
      "alert": "OK",
      "vis_m": 3500,
      "fzfg": false,
      "metar_trigger": false,
      "taf_trigger": false,
      "metar": "METAR LBPD 142330Z AUTO 25006KT 3500 BR FEW007/// 04/04 Q1006",
      "taf": "TAF LBPD 142300Z 1500/1524 VRB03KT 4000 BR SCT015 BKN030"
    },
    {
      "icao": "LBSF",
      "alert": "OK",
      "vis_m": 8000,
      "fzfg": false,
      "metar_trigger": false,
      "taf_trigger": false,
      "metar": "METAR LBSF 142330Z AUTO 00000KT 8000 NSC 04/04 Q1005 NOSIG",
      "taf": "TAF LBSF 142300Z 1500/1524 VRB03KT 6000 BKN030"
    },
    {
      "icao": "LBWN",
      "alert": "OK",
      "vis_m": 9999,
      "fzfg": false,
      "metar_trigger": false,
      "taf_trigger": false,
      "metar": "METAR LBWN 142330Z AUTO 14006KT 9999 -RA BKN029/// 10/07 Q1009 NOSIG",
      "taf": "TAF LBWN 142300Z 1500/1524 09010KT 9999 SCT045"
    },
    {
      "icao": "LCLK",
      "alert": "OK",
      "vis_m": 9999,
      "fzfg": false,
      "metar_trigger": false,
      "taf_trigger": false,
      "metar": "METAR LCLK 142330Z 28004KT CAVOK 11/10 Q1018 NOSIG",
      "taf": "TAF LCLK 142330Z 1500/1600 30007KT 9999 FEW020"
    },
    {
      "icao": "LCPH",
      "alert": "OK",
      "vis_m": 9999,
      "fzfg": false,
      "metar_trigger": false,
      "taf_trigger": false,
      "metar": "METAR LCPH 142330Z 02007KT 010V080 9999 FEW023 12/11 Q1019 NOSIG",
      "taf": "TAF LCPH 142330Z 1500/1600 02007KT 8000 SCT018"
    },
    {
      "icao": "LEAL",
      "alert": "OK",
      "vis_m": 9999,
      "fzfg": false,
      "metar_trigger": false,
      "taf_trigger": false,
      "metar": "METAR LEAL 142330Z 31028G38KT CAVOK 14/M01 Q1018 NOSIG",
      "taf": "TAF LEAL 142300Z 1500/1524 31020KT 9999 FEW040 TX20/1513Z TN09/1506Z"
    },
    {
      "icao": "LEBB",
      "alert": "OK",
      "vis_m": 9999,
      "fzfg": false,
      "metar_trigger": false,
      "taf_trigger": false,
      "metar": "METAR LEBB 142330Z AUTO 09003KT 060V130 9999 FEW038 05/04 Q1025",
      "taf": "TAF LEBB 142300Z 1500/1524 18005KT 9999 SCT040 TX15/1512Z TN07/1501Z"
    },
    {
      "icao": "LEBL",
      "alert": "OK",
      "vis_m": 9999,
      "fzfg": false,
      "metar_trigger": false,
      "taf_trigger": false,
      "metar": "METAR LEBL 142330Z 28015KT 9999 FEW030 11/01 Q1012 NOSIG",
      "taf": "TAF LEBL 142300Z 1500/1524 32008KT 9999 FEW035 TX15/1513Z TN07/1506Z"
    },
    {
      "icao": "LECH",
      "alert": "OK",
      "vis_m": 9999,
      "fzfg": false,
      "metar_trigger": false,
      "taf_trigger": false,
      "metar": "METAR LECH 142330Z AUTO 31026G37KT 280V340 CAVOK 10/M03 Q1016",
      "taf": ""
    },
    {
      "icao": "LEMD",
      "alert": "OK",
      "vis_m": 9999,
      "fzfg": false,
      "metar_trigger": false,
      "taf_trigger": false,
      "metar": "METAR LEMD 142330Z 00000KT CAVOK 02/M03 Q1024 NOSIG",
      "taf": "TAF LEMD 142300Z 1500/1606 VRB04KT 9999 FEW040 TX13/1515Z TNM00/1507Z"
    },
    {
      "icao": "LEMG",
      "alert": "OK",
      "vis_m": 9999,
      "fzfg": false,
      "metar_trigger": false,
      "taf_trigger": false,
      "metar": "METAR LEMG 142330Z 28008KT 230V320 CAVOK 12/01 Q1027 NOSIG",
      "taf": "TAF LEMG 142300Z 1500/1524 30012KT CAVOK TX18/1514Z TN09/1507Z"
    },
    {
      "icao": "LEVC",
      "alert": "OK",
      "vis_m": 9999,
      "fzfg": false,
      "metar_trigger": false,
      "taf_trigger": false,
      "metar": "METAR LEVC 142330Z 29016KT 260V330 CAVOK 13/M03 Q1018 NOSIG",
      "taf": "TAF LEVC 142300Z 1500/1524 30015KT 9999 FEW060 TX19/1514Z TN10/1506Z"
    },
    {
      "icao": "LEXJ",
      "alert": "OK",
      "vis_m": 9999,
      "fzfg": false,
      "metar_trigger": false,
      "taf_trigger": false,
      "metar": "METAR LEXJ 142330Z AUTO 23006KT 200V260 9999 2900E BKN080 08/02 Q1025",
      "taf": "TAF LEXJ 142000Z 1421/1521 22009KT 9999 SCT020 BKN040 TX15/1514Z TN08/1423Z"
    },
    {
      "icao": "LEZG",
      "alert": "OK",
      "vis_m": 9999,
      "fzfg": false,
      "metar_trigger": false,
      "taf_trigger": false,
      "metar": "METAR LEZG 142330Z 29024KT 9999 FEW035 07/01 Q1021 NOSIG",
      "taf": "TAF LEZG 142300Z 1500/1524 30020KT 9999 FEW040 TX16/1512Z TN06/1506Z"
    },
    {
      "icao": "LEZL",
      "alert": "OK",
      "vis_m": 9999,
      "fzfg": false,
      "metar_trigger": false,
      "taf_trigger": false,
      "metar": "METAR LEZL 142330Z 25003KT 170V270 CAVOK 09/05 Q1028 NOSIG",
      "taf": "TAF LEZL 142000Z 1421/1521 27005KT 9999 FEW040 TX18/1515Z TN06/1507Z"
    },
    {
      "icao": "LFBD",
      "alert": "OK",
      "vis_m": 9999,
      "fzfg": false,
      "metar_trigger": false,
      "taf_trigger": false,
      "metar": "METAR LFBD 142330Z AUTO 22003KT 9999 BKN044 03/02 Q1023 NOSIG",
      "taf": "TAF LFBD 142300Z 1500/1606 21005KT 9999 BKN020 TX13/1516Z TN04/1504Z"
    },
    {
      "icao": "LFLL",
      "alert": "OK",
      "vis_m": 9999,
      "fzfg": false,
      "metar_trigger": false,
      "taf_trigger": false,
      "metar": "METAR LFLL 142330Z 33012KT 9999 BKN014 OVC026 02/M01 Q1017 NOSIG",
      "taf": "TAF LFLL 142300Z 1500/1606 34012KT 9999 BKN016"
    },
    {
      "icao": "LFLS",
      "alert": "OK",
      "vis_m": 9999,
      "fzfg": false,
      "metar_trigger": false,
      "taf_trigger": false,
      "metar": "METAR LFLS 142330Z AUTO 34019KT 9999 OVC012 01/M01 Q1015",
      "taf": ""
    },
    {
      "icao": "LFMN",
      "alert": "OK",
      "vis_m": 9999,
      "fzfg": false,
      "metar_trigger": false,
      "taf_trigger": false,
      "metar": "METAR LFMN 142330Z 32009KT CAVOK 09/07 Q1001 NOSIG",
      "taf": "TAF LFMN 142000Z 1421/1603 34010KT CAVOK"
    },
    {
      "icao": "LFOB",
      "alert": "OK",
      "vis_m": 9999,
      "fzfg": false,
      "metar_trigger": false,
      "taf_trigger": false,
      "metar": "METAR LFOB 142330Z AUTO 28001KT CAVOK M01/M02 Q1019 NOSIG",
      "taf": "TAF LFOB 142300Z 1500/1524 35006KT 9999 OVC025"
    },
    {
      "icao": "LFPO",
      "alert": "OK",
      "vis_m": 9999,
      "fzfg": false,
      "metar_trigger": false,
      "taf_trigger": false,
      "metar": "METAR LFPO 142330Z VRB02KT CAVOK M01/M03 Q1020 NOSIG",
      "taf": "TAF LFPO 142300Z 1500/1606 18005KT CAVOK"
    },
    {
      "icao": "LFSB",
      "alert": "OK",
      "vis_m": 9999,
      "fzfg": false,
      "metar_trigger": false,
      "taf_trigger": false,
      "metar": "METAR LFSB 142330Z AUTO 33008KT 9999 OVC011 02/01 Q1015 TEMPO OVC005",
      "taf": "TAF LFSB 142300Z 1500/1524 34008KT 9999 FEW007 BKN017"
    },
    {
      "icao": "LGAV",
      "alert": "OK",
      "vis_m": 9999,
      "fzfg": false,
      "metar_trigger": false,
      "taf_trigger": false,
      "metar": "METAR LGAV 142350Z VRB03KT 9999 FEW020 13/10 Q1008 NOSIG",
      "taf": "TAF LGAV 142300Z 1500/1524 16012KT 9999 SCT025"
    },
    {
      "icao": "LGTS",
      "alert": "OK",
      "vis_m": 9999,
      "fzfg": false,
      "metar_trigger": false,
      "taf_trigger": false,
      "metar": "METAR LGTS 142350Z VRB03KT 9999 FEW025 08/08 Q1005 NOSIG",
      "taf": "TAF LGTS 142300Z 1500/1524 13013KT 9999 SCT025"
    },
    {
      "icao": "LHBP",
      "alert": "OK",
      "vis_m": 9999,
      "fzfg": false,
      "metar_trigger": false,
      "taf_trigger": false,
      "metar": "METAR LHBP 142330Z VRB02KT CAVOK 07/05 Q1003 NOSIG",
      "taf": "TAF LHBP 142315Z 1500/1524 01007KT CAVOK"
    },
    {
      "icao": "LHDC",
      "alert": "OK",
      "vis_m": 9999,
      "fzfg": false,
      "metar_trigger": false,
      "taf_trigger": false,
      "metar": "METAR LHDC 142315Z AUTO 06004KT 030V100 CAVOK 07/04 Q1003",
      "taf": "TAF LHDC 141415Z 1415/1424 16004KT CAVOK"
    },
    {
      "icao": "LIBD",
      "alert": "OK",
      "vis_m": 4500,
      "fzfg": false,
      "metar_trigger": false,
      "taf_trigger": false,
      "metar": "METAR LIBD 142350Z 25006KT 4500 RA BR BKN010 10/09 Q0995",
      "taf": "TAF LIBD 142300Z 1500/1524 26015KT 9999 BKN030"
    },
    {
      "icao": "LIBG",
      "alert": "OK",
      "vis_m": null,
      "fzfg": false,
      "metar_trigger": false,
      "taf_trigger": false,
      "metar": "",
      "taf": "TAF LIBG 141700Z 1418/1503 31016KT 9999 BKN030"
    },
    {
      "icao": "LIBP",
      "alert": "OK",
      "vis_m": 9999,
      "fzfg": false,
      "metar_trigger": false,
      "taf_trigger": false,
      "metar": "METAR LIBP 142350Z AUTO 20003KT 9999 -RA BKN019/// OVC065/// 10/10 Q0997 RERA",
      "taf": "TAF LIBP 142300Z 1500/1524 31015KT 9999 BKN030"
    },
    {
      "icao": "LIBR",
      "alert": "OK",
      "vis_m": 9999,
      "fzfg": false,
      "metar_trigger": false,
      "taf_trigger": false,
      "metar": "METAR LIBR 142350Z 24007KT CAVOK 11/10 Q0994",
      "taf": "TAF LIBR 142300Z 1500/1524 16018G32KT 9999 BKN030"
    },
    {
      "icao": "LICA",
      "alert": "OK",
      "vis_m": 9999,
      "fzfg": false,
      "metar_trigger": false,
      "taf_trigger": false,
      "metar": "METAR LICA 142350Z AUTO VRB01KT 9999 BKN048/// 11/10 Q0997",
      "taf": "TAF LICA 142300Z 1500/1524 26010KT 9999 FEW020 SCT050"
    },
    {
      "icao": "LICC",
      "alert": "OK",
      "vis_m": 9999,
      "fzfg": false,
      "metar_trigger": false,
      "taf_trigger": false,
      "metar": "METAR LICC 142350Z 26010KT CAVOK 09/06 Q0998",
      "taf": "TAF LICC 142300Z 1500/1524 26007KT 9999 SCT020"
    },
    {
      "icao": "LICJ",
      "alert": "OK",
      "vis_m": 9999,
      "fzfg": false,
      "metar_trigger": false,
      "taf_trigger": false,
      "metar": "METAR LICJ 142350Z AUTO 19015KT 9999 BKN030/// BKN110/// 12/09 Q0996",
      "taf": "TAF LICJ 142300Z 1500/1524 20016G28KT 9999 SCT030"
    },
    {
      "icao": "LIMC",
      "alert": "OK",
      "vis_m": 7000,
      "fzfg": false,
      "metar_trigger": false,
      "taf_trigger": false,
      "metar": "METAR LIMC 142350Z 02004KT 300V070 7000 BCFG NSC 03/03 Q1002 NOSIG",
      "taf": "TAF LIMC 142300Z 1500/1606 VRB05KT 8000 NSC"
    },
    {
      "icao": "LIME",
      "alert": "OK",
      "vis_m": 9999,
      "fzfg": false,
      "metar_trigger": false,
      "taf_trigger": false,
      "metar": "METAR LIME 142350Z 02003KT 9999 MIFG FEW025 06/06 Q1002 NOSIG",
      "taf": "TAF LIME 142300Z 1500/1524 VRB05KT 9000 FEW070"
    },
    {
      "icao": "LIMF",
      "alert": "OK",
      "vis_m": 9999,
      "fzfg": false,
      "metar_trigger": false,
      "taf_trigger": false,
      "metar": "METAR LIMF 142350Z AUTO 33003KT 9999 NCD 03/01 Q1003",
      "taf": "TAF LIMF 142300Z 1500/1524 VRB05KT CAVOK"
    },
    {
      "icao": "LIMJ",
      "alert": "OK",
      "vis_m": 9999,
      "fzfg": false,
      "metar_trigger": false,
      "taf_trigger": false,
      "metar": "METAR LIMJ 142350Z 05007KT CAVOK 12/05 Q1001",
      "taf": "TAF LIMJ 142300Z 1500/1524 03014KT 9999 FEW050"
    },
    {
      "icao": "LIPE",
      "alert": "OK",
      "vis_m": 2700,
      "fzfg": false,
      "metar_trigger": false,
      "taf_trigger": false,
      "metar": "METAR LIPE 142350Z 35005KT 2700 DZ BR BKN003 09/09 Q1001",
      "taf": "TAF LIPE 142300Z 1500/1524 29008KT 7000 BKN020"
    },
    {
      "icao": "LIPH",
      "alert": "OK",
      "vis_m": 9999,
      "fzfg": false,
      "metar_trigger": false,
      "taf_trigger": false,
      "metar": "METAR LIPH 142350Z AUTO 02003KT 350V060 9999 BKN052/// BKN087/// 10/07 Q1001",
      "taf": "TAF LIPH 142300Z 1500/1524 04007KT 8000 BKN030"
    },
    {
      "icao": "LIPQ",
      "alert": "OK",
      "vis_m": 9999,
      "fzfg": false,
      "metar_trigger": false,
      "taf_trigger": false,
      "metar": "METAR LIPQ 142350Z AUTO 31005KT 9999 -RA OVC053/// 08/08 Q1001",
      "taf": "TAF LIPQ 142300Z 1500/1524 04012KT 9999 BKN030"
    },
    {
      "icao": "LIPR",
      "alert": "OK",
      "vis_m": 9999,
      "fzfg": false,
      "metar_trigger": false,
      "taf_trigger": false,
      "metar": "METAR LIPR 142350Z AUTO 28010KT 9999 BKN005/// 10/09 Q0999",
      "taf": "TAF LIPR 142300Z 1500/1524 33014KT 8000 BKN030"
    },
    {
      "icao": "LIPX",
      "alert": "OK",
      "vis_m": 9999,
      "fzfg": false,
      "metar_trigger": false,
      "taf_trigger": false,
      "metar": "METAR LIPX 142350Z VRB02KT 9999 SCT030 BKN085 08/07 Q1002",
      "taf": "TAF LIPX 142300Z 1500/1524 VRB05KT 8000 SCT040"
    },
    {
      "icao": "LIPY",
      "alert": "OK",
      "vis_m": 9999,
      "fzfg": false,
      "metar_trigger": false,
      "taf_trigger": false,
      "metar": "METAR LIPY 142350Z AUTO 26004KT 9999 BKN006/// 09/08 Q0998",
      "taf": "TAF LIPY 142300Z 1500/1524 33016KT 7000 BKN040"
    },
    {
      "icao": "LIPZ",
      "alert": "OK",
      "vis_m": 9999,
      "fzfg": false,
      "metar_trigger": false,
      "taf_trigger": false,
      "metar": "METAR LIPZ 142350Z 05011KT 9999 BKN040 10/07 Q1001 NOSIG",
      "taf": "TAF LIPZ 142300Z 1500/1606 04016KT 8000 BKN030"
    },
    {
      "icao": "LIRF",
      "alert": "OK",
      "vis_m": 9999,
      "fzfg": false,
      "metar_trigger": false,
      "taf_trigger": false,
      "metar": "METAR LIRF 142350Z 32003KT 210V020 CAVOK 08/08 Q0997 NOSIG",
      "taf": "TAF LIRF 142300Z 1500/1606 04007KT 9999 SCT020"
    },
    {
      "icao": "LIRN",
      "alert": "OK",
      "vis_m": 6000,
      "fzfg": false,
      "metar_trigger": false,
      "taf_trigger": false,
      "metar": "METAR LIRN 142350Z 02003KT 360V080 6000 RA FEW025 BKN040 10/09 Q0997 NOSIG",
      "taf": "TAF LIRN 142300Z 1500/1524 VRB05KT 9999 SCT040"
    },
    {
      "icao": "LIRP",
      "alert": "OK",
      "vis_m": 9999,
      "fzfg": false,
      "metar_trigger": false,
      "taf_trigger": false,
      "metar": "METAR LIRP 142345Z VRB02KT 9999 SCT080 08/08 Q0999 NOSIG",
      "taf": "TAF LIRP 142300Z 1500/1524 29005KT 9999 FEW030 SCT060"
    },
    {
      "icao": "LIRZ",
      "alert": "OK",
      "vis_m": 9999,
      "fzfg": false,
      "metar_trigger": false,
      "taf_trigger": false,
      "metar": "METAR LIRZ 142350Z AUTO 01005KT 9999 NCD 07/06 Q0998",
      "taf": "TAF LIRZ 142300Z 1500/1524 VRB06KT 9000 SCT030"
    },
    {
      "icao": "LJLJ",
      "alert": "OK",
      "vis_m": 7000,
      "fzfg": false,
      "metar_trigger": false,
      "taf_trigger": false,
      "metar": "METAR LJLJ 142330Z 27003KT 7000 -RA FEW003 SCT027 BKN063 06/05 Q1002 NOSIG",
      "taf": "TAF LJLJ 142300Z 1500/1600 27004KT 9999 FEW003 SCT030 BKN050"
    },
    {
      "icao": "LKMT",
      "alert": "OK",
      "vis_m": 2500,
      "fzfg": false,
      "metar_trigger": false,
      "taf_trigger": false,
      "metar": "METAR LKMT 142330Z 36009KT 2500 -SN BR BKN007 OVC015 M01/M01 Q1011 NOSIG",
      "taf": "TAF LKMT 142300Z 1500/1524 01012KT 3500 -SN BR BKN005 OVC012"
    },
    {
      "icao": "LKPR",
      "alert": "OK",
      "vis_m": 9999,
      "fzfg": false,
      "metar_trigger": false,
      "taf_trigger": false,
      "metar": "METAR LKPR 142330Z 32009KT 9999 BKN023 OVC028 M01/M04 Q1013 NOSIG",
      "taf": "TAF LKPR 142300Z 1500/1606 35010KT 9999 BKN017"
    },
    {
      "icao": "LLBG",
      "alert": "OK",
      "vis_m": 4500,
      "fzfg": false,
      "metar_trigger": false,
      "taf_trigger": false,
      "metar": "METAR LLBG 142350Z VRB03KT 4500 DU NSC 13/10 Q1019 NOSIG",
      "taf": "TAF LLBG 142320Z 1500/1524 VRB04KT 5000 DU NSC"
    },
    {
      "icao": "LMML",
      "alert": "OK",
      "vis_m": 9999,
      "fzfg": false,
      "metar_trigger": false,
      "taf_trigger": false,
      "metar": "METAR LMML 142345Z 24005KT 9999 FEW017 13/10 Q1001 NOSIG",
      "taf": "TAF LMML 142300Z 1500/1524 25008KT 9999 FEW018"
    },
    {
      "icao": "LOWW",
      "alert": "OK",
      "vis_m": 9999,
      "fzfg": false,
      "metar_trigger": false,
      "taf_trigger": false,
      "metar": "METAR LOWW 142350Z 34016KT 9999 FEW007 BKN010 01/M00 Q1009 TEMPO SCT010 BKN025",
      "taf": "TAF LOWW 142315Z 1500/1606 34010KT 9999 BKN020 TX02/1500Z TNM04/1602Z"
    },
    {
      "icao": "LPFR",
      "alert": "OK",
      "vis_m": 9999,
      "fzfg": false,
      "metar_trigger": false,
      "taf_trigger": false,
      "metar": "METAR LPFR 142330Z 26005KT 220V320 CAVOK 10/06 Q1030",
      "taf": "TAF LPFR 142300Z 1500/1524 30005KT CAVOK"
    },
    {
      "icao": "LPMA",
      "alert": "OK",
      "vis_m": 9999,
      "fzfg": false,
      "metar_trigger": false,
      "taf_trigger": false,
      "metar": "METAR LPMA 142330Z 01010KT 9999 FEW016 15/09 Q1032",
      "taf": "TAF LPMA 142300Z 1500/1524 02012KT 9999 SCT015"
    },
    {
      "icao": "LPPR",
      "alert": "OK",
      "vis_m": 9999,
      "fzfg": false,
      "metar_trigger": false,
      "taf_trigger": false,
      "metar": "METAR LPPR 142330Z 14003KT 9999 SCT022 10/08 Q1030",
      "taf": "TAF LPPR 142300Z 1500/1524 VRB02KT 9999 FEW012 BKN025"
    },
    {
      "icao": "LPPS",
      "alert": "OK",
      "vis_m": 9999,
      "fzfg": false,
      "metar_trigger": false,
      "taf_trigger": false,
      "metar": "METAR LPPS 142330Z 05007KT 9999 FEW015 14/09 Q1033",
      "taf": "TAF LPPS 142300Z 1500/1606 06010KT 9999 SCT015"
    },
    {
      "icao": "LPPT",
      "alert": "OK",
      "vis_m": 9999,
      "fzfg": false,
      "metar_trigger": false,
      "taf_trigger": false,
      "metar": "METAR LPPT 142330Z 32003KT 280V350 9999 FEW022 11/08 Q1030",
      "taf": "TAF LPPT 142300Z 1500/1606 29005KT 9999 SCT025"
    },
    {
      "icao": "LQBK",
      "alert": "OK",
      "vis_m": 9999,
      "fzfg": false,
      "metar_trigger": false,
      "taf_trigger": false,
      "metar": "METAR LQBK 142330Z VRB02KT CAVOK 06/06 Q1000 NOSIG",
      "taf": "TAF LQBK 142300Z 1500/1524 29005KT 9999 BKN045 TX06/1500Z TNM03/1524Z"
    },
    {
      "icao": "LQSA",
      "alert": "OK",
      "vis_m": 9999,
      "fzfg": false,
      "metar_trigger": false,
      "taf_trigger": false,
      "metar": "METAR LQSA 142330Z 29004KT 9999 -RA FEW035 BKN050 06/06 Q0998",
      "taf": "TAF LQSA 142300Z 1500/1524 12005KT 9999 BKN045 TX05/1500Z TNM03/1524Z"
    },
    {
      "icao": "LQTZ",
      "alert": "OK",
      "vis_m": 9999,
      "fzfg": false,
      "metar_trigger": false,
      "taf_trigger": false,
      "metar": "METAR LQTZ 142330Z VRB01KT 9999 SCT063 08/05 Q0999",
      "taf": "TAF LQTZ 142300Z 1500/1524 16005KT 9999 SCT025 BKN045 TX07/1500Z TNM02/1524Z"
    },
    {
      "icao": "LRBC",
      "alert": "OK",
      "vis_m": 3000,
      "fzfg": false,
      "metar_trigger": false,
      "taf_trigger": false,
      "metar": "METAR LRBC 142330Z 18009KT 3000 BR OVC002 06/06 Q1007",
      "taf": "TAF LRBC 142300Z 1500/1509 16008KT 1500 BR BKN002"
    },
    {
      "icao": "LRBS",
      "alert": "OK",
      "vis_m": 2000,
      "fzfg": false,
      "metar_trigger": false,
      "taf_trigger": false,
      "metar": "METAR LRBS 142330Z 04006KT 360V080 2000 BCFG BR BKN001 BKN003 06/05 Q1006 TEMPO 0800 FG",
      "taf": "TAF LRBS 142300Z 1500/1524 05010KT 1500 BR BKN005"
    },
    {
      "icao": "LRBV",
      "alert": "OK",
      "vis_m": 9999,
      "fzfg": false,
      "metar_trigger": false,
      "taf_trigger": false,
      "metar": "METAR LRBV 142330Z AUTO 14009KT 9999 OVC110/// 08/01 Q1005",
      "taf": "TAF LRBV 142000Z 1421/1506 VRB04KT CAVOK"
    },
    {
      "icao": "LRCL",
      "alert": "OK",
      "vis_m": 9999,
      "fzfg": false,
      "metar_trigger": false,
      "taf_trigger": false,
      "metar": "METAR LRCL 142330Z 00000KT CAVOK 04/02 Q1005",
      "taf": "TAF LRCL 142300Z 1500/1509 VRB04KT CAVOK"
    },
    {
      "icao": "LRCV",
      "alert": "OK",
      "vis_m": 4700,
      "fzfg": false,
      "metar_trigger": false,
      "taf_trigger": false,
      "metar": "METAR LRCV 142330Z 11007KT 4700 RA BR OVC048 07/06 Q1006",
      "taf": "TAF LRCV 142300Z 1500/1509 07014KT 5000 -RA BR SCT015 BKN040"
    },
    {
      "icao": "LRIA",
      "alert": "OK",
      "vis_m": 7000,
      "fzfg": false,
      "metar_trigger": false,
      "taf_trigger": false,
      "metar": "METAR LRIA 142330Z COR 10007KT 7000 NSC 05/04 Q1008",
      "taf": "TAF LRIA 142300Z 1500/1509 10010KT CAVOK"
    },
    {
      "icao": "LROP",
      "alert": "OK",
      "vis_m": 1800,
      "fzfg": false,
      "metar_trigger": false,
      "taf_trigger": false,
      "metar": "METAR LROP 142330Z 06006KT 1800 BR NSC 05/05 Q1006 NOSIG",
      "taf": "TAF LROP 142300Z 1500/1524 05010KT 1500 BR BKN005"
    },
    {
      "icao": "LRSB",
      "alert": "OK",
      "vis_m": 9999,
      "fzfg": false,
      "metar_trigger": false,
      "taf_trigger": false,
      "metar": "METAR LRSB 142330Z 14011KT 9999 FEW055 10/02 Q1003",
      "taf": "TAF LRSB 142300Z 1500/1524 VRB04KT CAVOK"
    },
    {
      "icao": "LRSM",
      "alert": "OK",
      "vis_m": 9999,
      "fzfg": false,
      "metar_trigger": false,
      "taf_trigger": false,
      "metar": "METAR LRSM 142330Z AUTO 08005KT 9999 SCT110/// BKN240/// 05/02 Q1004",
      "taf": ""
    },
    {
      "icao": "LRSV",
      "alert": "OK",
      "vis_m": 7000,
      "fzfg": false,
      "metar_trigger": false,
      "taf_trigger": false,
      "metar": "METAR LRSV 142330Z 33003KT 7000 NSC 02/02 Q1006",
      "taf": "TAF LRSV 142300Z 1500/1509 VRB04KT 7000 NSC"
    },
    {
      "icao": "LRTM",
      "alert": "OK",
      "vis_m": 9999,
      "fzfg": false,
      "metar_trigger": false,
      "taf_trigger": false,
      "metar": "METAR LRTM 142330Z AUTO 07005KT 9999 NCD 04/02 Q1005",
      "taf": "TAF LRTM 142300Z 1500/1509 VRB04KT CAVOK"
    },
    {
      "icao": "LRTR",
      "alert": "OK",
      "vis_m": 9999,
      "fzfg": false,
      "metar_trigger": false,
      "taf_trigger": false,
      "metar": "METAR LRTR 142330Z 10006KT CAVOK 08/05 Q1002",
      "taf": "TAF LRTR 142300Z 1500/1524 10007KT 9999 BKN045"
    },
    {
      "icao": "LTAC",
      "alert": "OK",
      "vis_m": 9999,
      "fzfg": false,
      "metar_trigger": false,
      "taf_trigger": false,
      "metar": "METAR LTAC 142350Z VRB02KT CAVOK 01/M01 Q1018 NOSIG",
      "taf": "TAF LTAC 142240Z 1500/1524 VRB02KT CAVOK"
    },
    {
      "icao": "LTFM",
      "alert": "OK",
      "vis_m": 9999,
      "fzfg": false,
      "metar_trigger": false,
      "taf_trigger": false,
      "metar": "METAR LTFM 142350Z 18010KT CAVOK 12/07 Q1010 NOSIG",
      "taf": "TAF LTFM 142240Z 1500/1606 16012KT CAVOK"
    },
    {
      "icao": "LUKK",
      "alert": "OK",
      "vis_m": 5000,
      "fzfg": false,
      "metar_trigger": false,
      "taf_trigger": false,
      "metar": "METAR LUKK 142330Z 12004KT 090V160 5000 BR NSC 03/03 Q1009 TEMPO 2000 BR BKN008",
      "taf": "TAF LUKK 142329Z 1500/1524 14006KT 3000 BR BKN008"
    },
    {
      "icao": "LWOH",
      "alert": "OK",
      "vis_m": null,
      "fzfg": false,
      "metar_trigger": false,
      "taf_trigger": false,
      "metar": "",
      "taf": "TAF LWOH 142330Z 1500/1524 VRB03KT 9999 -RA SCT015 OVC035"
    },
    {
      "icao": "LWSK",
      "alert": "OK",
      "vis_m": 9999,
      "fzfg": false,
      "metar_trigger": false,
      "taf_trigger": false,
      "metar": "METAR LWSK 142350Z 13003KT 080V180 9999 SCT040 OVC085 08/07 Q1002 NOSIG",
      "taf": "TAF LWSK 142330Z 1500/1524 VRB02KT 7000 SCT015 OVC070"
    },
    {
      "icao": "LYBE",
      "alert": "OK",
      "vis_m": 9999,
      "fzfg": false,
      "metar_trigger": false,
      "taf_trigger": false,
      "metar": "METAR LYBE 142330Z 12011KT CAVOK 10/05 Q1000 NOSIG",
      "taf": "TAF LYBE 142300Z 1500/1524 08008KT 9999 BKN035 TX08/1500Z TNM01/1524Z"
    },
    {
      "icao": "LYNI",
      "alert": "OK",
      "vis_m": 9999,
      "fzfg": false,
      "metar_trigger": false,
      "taf_trigger": false,
      "metar": "METAR LYNI 142330Z 09006KT 9999 -RA FEW017 BKN040 OVC080 09/08 Q1002 NOSIG",
      "taf": "TAF LYNI 142300Z 1500/1524 10006KT 9999 BKN035 BKN070 TX13/1511Z TN01/1524Z"
    },
    {
      "icao": "LYPG",
      "alert": "OK",
      "vis_m": 6000,
      "fzfg": false,
      "metar_trigger": false,
      "taf_trigger": false,
      "metar": "METAR LYPG 142330Z 27012KT 6000 SHRA FEW010 FEW027TCU SCT040 BKN070 09/09 Q0999 TEMPO 4000 TSRA FEW010 FEW030CB BKN040",
      "taf": "TAF LYPG 142300Z 1500/1524 36005KT 9999 FEW010 BKN034 OVC070 TX11/1512Z TN07/1518Z"
    },
    {
      "icao": "LZIB",
      "alert": "OK",
      "vis_m": 9999,
      "fzfg": false,
      "metar_trigger": false,
      "taf_trigger": false,
      "metar": "METAR LZIB 142330Z 34006KT 290V010 9999 -RASN SCT015 BKN034 03/00 Q1007 NOSIG",
      "taf": ""
    },
    {
      "icao": "LZKZ",
      "alert": "OK",
      "vis_m": 9999,
      "fzfg": false,
      "metar_trigger": false,
      "taf_trigger": false,
      "metar": "METAR LZKZ 142330Z 02011KT CAVOK 04/03 Q1005 NOSIG",
      "taf": "TAF LZKZ 142315Z 1500/1600 01010KT CAVOK"
    },
    {
      "icao": "LZTT",
      "alert": "OK",
      "vis_m": 9999,
      "fzfg": false,
      "metar_trigger": false,
      "taf_trigger": false,
      "metar": "METAR LZTT 142330Z 07004KT 040V100 9999 OVC009 01/00 Q1005",
      "taf": "TAF LZTT 142315Z 1500/1600 08005KT 9999 OVC023"
    },
    {
      "icao": "OEJN",
      "alert": "OK",
      "vis_m": 9999,
      "fzfg": false,
      "metar_trigger": false,
      "taf_trigger": false,
      "metar": "METAR OEJN 142300Z 36006KT CAVOK 24/16 Q1013 NOSIG",
      "taf": "TAF OEJN 142300Z 1500/1606 VRB03KT 7000 NSC"
    },
    {
      "icao": "OEMA",
      "alert": "OK",
      "vis_m": 9999,
      "fzfg": false,
      "metar_trigger": false,
      "taf_trigger": false,
      "metar": "METAR OEMA 142300Z 02007KT CAVOK 20/M07 Q1019 NOSIG",
      "taf": "TAF OEMA 142300Z 1500/1606 VRB03KT CAVOK"
    },
    {
      "icao": "OJAI",
      "alert": "OK",
      "vis_m": 3000,
      "fzfg": false,
      "metar_trigger": false,
      "taf_trigger": false,
      "metar": "METAR OJAI 142300Z 07005KT 3000 DU NSC 06/04 Q1021 NOSIG",
      "taf": "TAF OJAI 142300Z 1500/1606 22010KT 2000 DU NSC"
    },
    {
      "icao": "OMAA",
      "alert": "OK",
      "vis_m": 9999,
      "fzfg": false,
      "metar_trigger": false,
      "taf_trigger": false,
      "metar": "METAR OMAA 142330Z 11005KT 060V150 CAVOK 21/13 Q1014 NOSIG",
      "taf": "TAF OMAA 142300Z 1500/1606 17007KT 8000 NSC"
    },
    {
      "icao": "OMDB",
      "alert": "OK",
      "vis_m": 9999,
      "fzfg": false,
      "metar_trigger": false,
      "taf_trigger": false,
      "metar": "METAR OMDB 142300Z 11004KT 080V140 CAVOK 22/13 Q1014 NOSIG",
      "taf": "TAF OMDB 142300Z 1500/1606 14005KT CAVOK"
    },
    {
      "icao": "UAAA",
      "alert": "CRITICAL",
      "vis_m": 50,
      "fzfg": true,
      "metar_trigger": true,
      "taf_trigger": false,
      "metar": "METAR UAAA 142330Z VRB01MPS 0050 R23L/0325N FZFG VV001 M03/M03 Q1022 NOSIG RMK QBB050",
      "taf": "TAF UAAA 142306Z 1500/1524 34003MPS 0600 FZFG VV003 TX03/1509Z TNM04/1502Z"
    },
    {
      "icao": "UBBB",
      "alert": "OK",
      "vis_m": 9999,
      "fzfg": false,
      "metar_trigger": false,
      "taf_trigger": false,
      "metar": "METAR UBBB 142330Z 31014KT CAVOK 08/05 Q1009 NOSIG",
      "taf": "TAF UBBB 142257Z 1500/1524 31022G32KT 9999 BKN010 OVC030 TX12/1510Z TN07/1501Z"
    },
    {
      "icao": "UDSG",
      "alert": "OK",
      "vis_m": 1800,
      "fzfg": false,
      "metar_trigger": false,
      "taf_trigger": false,
      "metar": "METAR UDSG 142330Z 11004KT 1800 R02/P2000D BR OVC010 00/00 Q1016 NOSIG",
      "taf": "TAF UDSG 142300Z 1500/1524 VRB06KT 1200 BR BKN010"
    },
    {
      "icao": "UDYZ",
      "alert": "OK",
      "vis_m": 9999,
      "fzfg": false,
      "metar_trigger": false,
      "taf_trigger": false,
      "metar": "METAR UDYZ 142330Z VRB02KT 9999 FEW046 02/00 Q1015 NOSIG",
      "taf": "TAF UDYZ 142300Z 1500/1524 VRB04KT 3500 BR FEW040"
    },
    {
      "icao": "UGKO",
      "alert": "OK",
      "vis_m": 9999,
      "fzfg": false,
      "metar_trigger": false,
      "taf_trigger": false,
      "metar": "METAR UGKO 142330Z 25009KT 9999 FEW028 SCT032 BKN037 10/10 Q1016 NOSIG",
      "taf": "TAF UGKO 142300Z 1500/1524 25007KT 9999 BKN050 TX18/1511Z TN10/1504Z"
    }
  ]
}