{
  "ts_utc": "2026-05-27T21:26:03Z",
  "threshold_m": 150,
  "source": "stations_override.txt (ICAO list) + aviationweather.gov (METAR/TAF raw)",
  "station_count": 159,
  "stations": [
    {
      "icao": "BIKF",
      "alert": "OK",
      "vis_m": 9999,
      "fzfg": false,
      "metar_trigger": false,
      "taf_trigger": false,
      "metar": "METAR BIKF 272100Z 22009KT 190V250 9999 SCT015 BKN033 07/03 Q1019",
      "taf": "TAF BIKF 271935Z 2721/2821 23005KT 9999 FEW018 BKN030 TX09/2816Z TN05/2805Z"
    },
    {
      "icao": "BKPR",
      "alert": "OK",
      "vis_m": 9999,
      "fzfg": false,
      "metar_trigger": false,
      "taf_trigger": false,
      "metar": "METAR BKPR 272100Z 28003KT CAVOK 19/13 Q1017 NOSIG",
      "taf": ""
    },
    {
      "icao": "EBCI",
      "alert": "OK",
      "vis_m": 9999,
      "fzfg": false,
      "metar_trigger": false,
      "taf_trigger": false,
      "metar": "METAR EBCI 272050Z 06007KT CAVOK 21/12 Q1025 NOSIG",
      "taf": "TAF EBCI 271724Z 2718/2824 06008KT CAVOK"
    },
    {
      "icao": "EDDB",
      "alert": "OK",
      "vis_m": 9999,
      "fzfg": false,
      "metar_trigger": false,
      "taf_trigger": false,
      "metar": "METAR EDDB 272120Z AUTO 34005KT CAVOK 14/01 Q1023 NOSIG",
      "taf": "TAF EDDB 271700Z 2718/2818 34008KT CAVOK"
    },
    {
      "icao": "EDDH",
      "alert": "OK",
      "vis_m": 9999,
      "fzfg": false,
      "metar_trigger": false,
      "taf_trigger": false,
      "metar": "METAR EDDH 272120Z AUTO 30007KT CAVOK 11/06 Q1025 NOSIG",
      "taf": "TAF EDDH 271700Z 2718/2824 31010KT CAVOK"
    },
    {
      "icao": "EDDK",
      "alert": "OK",
      "vis_m": 9999,
      "fzfg": false,
      "metar_trigger": false,
      "taf_trigger": false,
      "metar": "METAR EDDK 272120Z AUTO 06003KT CAVOK 16/10 Q1025 NOSIG",
      "taf": "TAF EDDK 271700Z 2718/2824 35009KT CAVOK"
    },
    {
      "icao": "EDDN",
      "alert": "OK",
      "vis_m": 9999,
      "fzfg": false,
      "metar_trigger": false,
      "taf_trigger": false,
      "metar": "METAR EDDN 272120Z AUTO 35005KT CAVOK 19/10 Q1023",
      "taf": "TAF EDDN 271700Z 2718/2818 35010KT CAVOK"
    },
    {
      "icao": "EDDS",
      "alert": "OK",
      "vis_m": 9999,
      "fzfg": false,
      "metar_trigger": false,
      "taf_trigger": false,
      "metar": "METAR EDDS 272120Z AUTO 36005KT 330V030 CAVOK 22/13 Q1022",
      "taf": "TAF EDDS 271700Z 2718/2818 34010KT CAVOK"
    },
    {
      "icao": "EDFH",
      "alert": "OK",
      "vis_m": 9999,
      "fzfg": false,
      "metar_trigger": false,
      "taf_trigger": false,
      "metar": "METAR EDFH 272050Z 35006KT CAVOK 18/10 Q1025",
      "taf": "TAF EDFH 271700Z 2718/2818 01010KT CAVOK"
    },
    {
      "icao": "EDJA",
      "alert": "OK",
      "vis_m": 9999,
      "fzfg": false,
      "metar_trigger": false,
      "taf_trigger": false,
      "metar": "METAR EDJA 272050Z 05004KT CAVOK 19/11 Q1024",
      "taf": "TAF EDJA 271700Z 2718/2803 36009KT CAVOK"
    },
    {
      "icao": "EDLW",
      "alert": "OK",
      "vis_m": 9999,
      "fzfg": false,
      "metar_trigger": false,
      "taf_trigger": false,
      "metar": "METAR EDLW 272050Z 03004KT CAVOK 16/07 Q1025",
      "taf": "TAF EDLW 271700Z 2718/2818 35007KT CAVOK"
    },
    {
      "icao": "EDNY",
      "alert": "OK",
      "vis_m": 9999,
      "fzfg": false,
      "metar_trigger": false,
      "taf_trigger": false,
      "metar": "METAR EDNY 272050Z AUTO VRB02KT 9999 // BKN093/// 20/14 Q1022",
      "taf": "TAF EDNY 271700Z 2718/2803 04004KT 9999 FEW055"
    },
    {
      "icao": "EDSB",
      "alert": "OK",
      "vis_m": 9999,
      "fzfg": false,
      "metar_trigger": false,
      "taf_trigger": false,
      "metar": "METAR EDSB 272050Z 03005KT CAVOK 23/13 Q1022",
      "taf": "TAF EDSB 271700Z 2718/2818 02007KT CAVOK"
    },
    {
      "icao": "EETN",
      "alert": "OK",
      "vis_m": 9999,
      "fzfg": false,
      "metar_trigger": false,
      "taf_trigger": false,
      "metar": "METAR EETN 272120Z 32009KT CAVOK 10/03 Q1006 NOSIG",
      "taf": "TAF EETN 271730Z 2718/2818 31012KT 9999 SCT035"
    },
    {
      "icao": "EFTU",
      "alert": "OK",
      "vis_m": 9999,
      "fzfg": false,
      "metar_trigger": false,
      "taf_trigger": false,
      "metar": "METAR EFTU 272120Z AUTO 31006KT 280V340 CAVOK 09/04 Q1010",
      "taf": "TAF EFTU 272035Z 2721/2821 32009KT CAVOK"
    },
    {
      "icao": "EGBB",
      "alert": "OK",
      "vis_m": 9999,
      "fzfg": false,
      "metar_trigger": false,
      "taf_trigger": false,
      "metar": "METAR EGBB 272120Z 09010KT CAVOK 19/10 Q1024",
      "taf": "TAF EGBB 271703Z 2718/2818 08011KT 9999 FEW040"
    },
    {
      "icao": "EGGP",
      "alert": "OK",
      "vis_m": 9999,
      "fzfg": false,
      "metar_trigger": false,
      "taf_trigger": false,
      "metar": "METAR EGGP 272120Z 06007KT CAVOK 17/10 Q1024",
      "taf": ""
    },
    {
      "icao": "EGGW",
      "alert": "OK",
      "vis_m": 9999,
      "fzfg": false,
      "metar_trigger": false,
      "taf_trigger": false,
      "metar": "METAR EGGW 272120Z AUTO 11010KT 9999 NCD 16/09 Q1024",
      "taf": "TAF EGGW 271653Z 2718/2818 10010KT CAVOK"
    },
    {
      "icao": "EGKK",
      "alert": "OK",
      "vis_m": 9999,
      "fzfg": false,
      "metar_trigger": false,
      "taf_trigger": false,
      "metar": "METAR EGKK 272120Z 07009KT CAVOK 16/12 Q1023",
      "taf": "TAF EGKK 271655Z 2718/2824 07010KT CAVOK"
    },
    {
      "icao": "EGNM",
      "alert": "OK",
      "vis_m": 9999,
      "fzfg": false,
      "metar_trigger": false,
      "taf_trigger": false,
      "metar": "METAR EGNM 272120Z 08005KT 030V100 9999 FEW045 11/09 Q1027",
      "taf": "TAF EGNM 271655Z 2718/2818 10010KT 9999 SCT045"
    },
    {
      "icao": "EGPD",
      "alert": "OK",
      "vis_m": 9999,
      "fzfg": false,
      "metar_trigger": false,
      "taf_trigger": false,
      "metar": "METAR EGPD 272120Z COR AUTO 16010KT 9999 NCD 10/08 Q1028 NOSIG",
      "taf": "TAF EGPD 271655Z 2718/2818 16010KT 9999 FEW015"
    },
    {
      "icao": "EGPF",
      "alert": "OK",
      "vis_m": 9999,
      "fzfg": false,
      "metar_trigger": false,
      "taf_trigger": false,
      "metar": "METAR EGPF 272120Z AUTO 07011KT 9999 NCD 13/09 Q1026",
      "taf": "TAF EGPF 271655Z 2718/2818 06012KT 9999 BKN040"
    },
    {
      "icao": "EHBK",
      "alert": "OK",
      "vis_m": 9999,
      "fzfg": false,
      "metar_trigger": false,
      "taf_trigger": false,
      "metar": "METAR EHBK 272055Z COR AUTO 05007KT 9999 NCD 18/10 Q1025",
      "taf": "TAF EHBK 271657Z 2718/2824 05007KT CAVOK"
    },
    {
      "icao": "EHEH",
      "alert": "OK",
      "vis_m": 9999,
      "fzfg": false,
      "metar_trigger": false,
      "taf_trigger": false,
      "metar": "METAR EHEH 272055Z AUTO 05006KT 010V080 9999 NCD 19/09 Q1025 BLU NOSIG RMK TREND REMOTE BY EHWX",
      "taf": "TAF EHEH 271714Z 2718/2824 03008KT CAVOK"
    },
    {
      "icao": "EKBI",
      "alert": "OK",
      "vis_m": 9999,
      "fzfg": false,
      "metar_trigger": false,
      "taf_trigger": false,
      "metar": "METAR EKBI 272120Z AUTO 28008KT 9999 NCD 08/06 Q1025",
      "taf": "TAF EKBI 272027Z 2721/2821 30010KT CAVOK"
    },
    {
      "icao": "EKCH",
      "alert": "OK",
      "vis_m": 9999,
      "fzfg": false,
      "metar_trigger": false,
      "taf_trigger": false,
      "metar": "METAR EKCH 272120Z AUTO 30007KT 9999 NCD 12/05 Q1022 NOSIG",
      "taf": "TAF EKCH 272027Z 2721/2821 31010KT CAVOK"
    },
    {
      "icao": "ENAL",
      "alert": "OK",
      "vis_m": 9999,
      "fzfg": false,
      "metar_trigger": false,
      "taf_trigger": false,
      "metar": "METAR ENAL 272050Z 21004KT 9999 SCT039 BKN052 09/05 Q1027",
      "taf": "TAF ENAL 272000Z 2721/2806 30008KT 9999 SCT025"
    },
    {
      "icao": "ENBR",
      "alert": "OK",
      "vis_m": 9999,
      "fzfg": false,
      "metar_trigger": false,
      "taf_trigger": false,
      "metar": "METAR ENBR 272050Z 32006KT CAVOK 08/05 Q1028 RMK WIND 1200FT 34016KT",
      "taf": "TAF ENBR 271700Z 2718/2818 31011KT 9999 SCT020 SCT030"
    },
    {
      "icao": "ENGM",
      "alert": "OK",
      "vis_m": 9999,
      "fzfg": false,
      "metar_trigger": false,
      "taf_trigger": false,
      "metar": "METAR ENGM 272050Z 01011KT CAVOK 11/M03 Q1022 NOSIG",
      "taf": "TAF ENGM 271700Z 2718/2818 36010KT CAVOK"
    },
    {
      "icao": "ENHD",
      "alert": "OK",
      "vis_m": 9999,
      "fzfg": false,
      "metar_trigger": false,
      "taf_trigger": false,
      "metar": "METAR ENHD 272050Z AUTO 34013KT 9999 NCD 10/06 Q1028",
      "taf": "TAF ENHD 271400Z 2715/2722 30012KT 9999 FEW015"
    },
    {
      "icao": "ENTC",
      "alert": "OK",
      "vis_m": 9999,
      "fzfg": false,
      "metar_trigger": false,
      "taf_trigger": false,
      "metar": "METAR ENTC 272050Z 31005KT 9999 SCT031 07/01 Q1016 NOSIG RMK WIND 2600FT 31017KT",
      "taf": "TAF ENTC 271700Z 2718/2818 33007KT 9999 -SHRA SCT030 BKN045"
    },
    {
      "icao": "ENTO",
      "alert": "OK",
      "vis_m": 9999,
      "fzfg": false,
      "metar_trigger": false,
      "taf_trigger": false,
      "metar": "METAR ENTO 272050Z 33007KT CAVOK 13/00 Q1021 NOSIG",
      "taf": "TAF ENTO 271700Z 2718/2818 35007KT CAVOK"
    },
    {
      "icao": "ENVA",
      "alert": "OK",
      "vis_m": 9999,
      "fzfg": false,
      "metar_trigger": false,
      "taf_trigger": false,
      "metar": "METAR ENVA 272050Z 27016KT 9999 SCT017 BKN027 07/05 Q1025 RMK WIND 670FT 27016KT",
      "taf": "TAF ENVA 271700Z 2718/2818 26015KT 9999 -SHRA SCT015 BKN025"
    },
    {
      "icao": "ENZV",
      "alert": "OK",
      "vis_m": 9999,
      "fzfg": false,
      "metar_trigger": false,
      "taf_trigger": false,
      "metar": "METAR ENZV 272050Z 34011KT CAVOK 10/05 Q1027",
      "taf": "TAF ENZV 271700Z 2718/2818 32015KT CAVOK"
    },
    {
      "icao": "EPGD",
      "alert": "OK",
      "vis_m": 9999,
      "fzfg": false,
      "metar_trigger": false,
      "taf_trigger": false,
      "metar": "METAR EPGD 272100Z 30008KT CAVOK 11/05 Q1018",
      "taf": "TAF EPGD 271730Z 2718/2818 31015KT CAVOK"
    },
    {
      "icao": "EPKK",
      "alert": "OK",
      "vis_m": 9999,
      "fzfg": false,
      "metar_trigger": false,
      "taf_trigger": false,
      "metar": "METAR EPKK 272100Z 33007KT CAVOK 16/00 Q1018",
      "taf": "TAF EPKK 272030Z 2721/2821 32003KT CAVOK"
    },
    {
      "icao": "EPKT",
      "alert": "OK",
      "vis_m": 9999,
      "fzfg": false,
      "metar_trigger": false,
      "taf_trigger": false,
      "metar": "METAR EPKT 272100Z 32003KT CAVOK 11/02 Q1019",
      "taf": "TAF EPKT 271730Z 2718/2818 32014KT CAVOK"
    },
    {
      "icao": "EPLB",
      "alert": "OK",
      "vis_m": 9999,
      "fzfg": false,
      "metar_trigger": false,
      "taf_trigger": false,
      "metar": "METAR EPLB 272100Z 35007KT 330V040 CAVOK 13/03 Q1016",
      "taf": "TAF EPLB 271730Z 2718/2818 32015KT CAVOK"
    },
    {
      "icao": "EPMO",
      "alert": "OK",
      "vis_m": 9999,
      "fzfg": false,
      "metar_trigger": false,
      "taf_trigger": false,
      "metar": "METAR EPMO 272100Z 30003KT CAVOK 10/02 Q1018",
      "taf": "TAF EPMO 271730Z 2718/2818 34013KT CAVOK"
    },
    {
      "icao": "EPPO",
      "alert": "OK",
      "vis_m": 9999,
      "fzfg": false,
      "metar_trigger": false,
      "taf_trigger": false,
      "metar": "METAR EPPO 272100Z 35006KT CAVOK 13/03 Q1021",
      "taf": "TAF EPPO 271730Z 2718/2818 33013KT CAVOK"
    },
    {
      "icao": "EPRA",
      "alert": "OK",
      "vis_m": 9999,
      "fzfg": false,
      "metar_trigger": false,
      "taf_trigger": false,
      "metar": "METAR EPRA 272100Z 36006KT CAVOK 14/02 Q1018",
      "taf": "TAF EPRA 272030Z 2721/2806 29006KT CAVOK"
    },
    {
      "icao": "EPRZ",
      "alert": "OK",
      "vis_m": 9999,
      "fzfg": false,
      "metar_trigger": false,
      "taf_trigger": false,
      "metar": "METAR EPRZ 272100Z 31004KT CAVOK 15/03 Q1017",
      "taf": "TAF EPRZ 271730Z 2718/2818 33014KT CAVOK"
    },
    {
      "icao": "EPSC",
      "alert": "OK",
      "vis_m": 9999,
      "fzfg": false,
      "metar_trigger": false,
      "taf_trigger": false,
      "metar": "METAR EPSC 272100Z 29004KT CAVOK 11/06 Q1022",
      "taf": "TAF EPSC 271730Z 2718/2818 33010KT CAVOK"
    },
    {
      "icao": "EPSY",
      "alert": "OK",
      "vis_m": 9999,
      "fzfg": false,
      "metar_trigger": false,
      "taf_trigger": false,
      "metar": "METAR EPSY 272100Z 23003KT CAVOK 07/02 Q1017",
      "taf": "TAF EPSY 272030Z 2721/2806 30006KT CAVOK"
    },
    {
      "icao": "EPWA",
      "alert": "OK",
      "vis_m": 9999,
      "fzfg": false,
      "metar_trigger": false,
      "taf_trigger": false,
      "metar": "METAR EPWA 272100Z 35007KT CAVOK 14/00 Q1018 NOSIG",
      "taf": "TAF EPWA 272030Z 2721/2821 34012KT CAVOK"
    },
    {
      "icao": "EPWR",
      "alert": "OK",
      "vis_m": 9999,
      "fzfg": false,
      "metar_trigger": false,
      "taf_trigger": false,
      "metar": "METAR EPWR 272100Z 32006KT CAVOK 16/02 Q1021",
      "taf": "TAF EPWR 272030Z 2721/2821 33012KT CAVOK"
    },
    {
      "icao": "ESGG",
      "alert": "OK",
      "vis_m": 9999,
      "fzfg": false,
      "metar_trigger": false,
      "taf_trigger": false,
      "metar": "METAR ESGG 272120Z 27003KT CAVOK 09/04 Q1020",
      "taf": "TAF ESGG 272030Z 2721/2821 VRB03KT CAVOK"
    },
    {
      "icao": "ESKN",
      "alert": "OK",
      "vis_m": 9999,
      "fzfg": false,
      "metar_trigger": false,
      "taf_trigger": false,
      "metar": "METAR ESKN 272120Z 28005KT CAVOK 09/02 Q1017",
      "taf": "TAF ESKN 272030Z 2721/2821 32006KT CAVOK"
    },
    {
      "icao": "ESMS",
      "alert": "OK",
      "vis_m": 9999,
      "fzfg": false,
      "metar_trigger": false,
      "taf_trigger": false,
      "metar": "METAR ESMS 272120Z 31006KT CAVOK 08/05 Q1022",
      "taf": "TAF ESMS 272027Z 2721/2821 31012KT CAVOK"
    },
    {
      "icao": "ESSA",
      "alert": "OK",
      "vis_m": 9999,
      "fzfg": false,
      "metar_trigger": false,
      "taf_trigger": false,
      "metar": "METAR ESSA 272120Z 30005KT CAVOK 08/04 Q1016 NOSIG",
      "taf": "TAF ESSA 272030Z 2721/2821 31005KT CAVOK"
    },
    {
      "icao": "EYKA",
      "alert": "OK",
      "vis_m": 9999,
      "fzfg": false,
      "metar_trigger": false,
      "taf_trigger": false,
      "metar": "METAR EYKA 272120Z 30008KT 270V330 9999 FEW048 11/03 Q1012",
      "taf": "TAF EYKA 271700Z 2718/2818 30008KT 8000 SCT045"
    },
    {
      "icao": "EYPA",
      "alert": "OK",
      "vis_m": 9999,
      "fzfg": false,
      "metar_trigger": false,
      "taf_trigger": false,
      "metar": "METAR EYPA 272120Z 33005KT 230V030 CAVOK 10/06 Q1015",
      "taf": "TAF EYPA 271700Z 2718/2818 31006KT 6000 SCT045"
    },
    {
      "icao": "EYVI",
      "alert": "OK",
      "vis_m": 9999,
      "fzfg": false,
      "metar_trigger": false,
      "taf_trigger": false,
      "metar": "METAR EYVI 272120Z 34008KT 310V030 9999 -SHRA SCT043CB 10/03 Q1011 NOSIG",
      "taf": "TAF EYVI 271700Z 2718/2818 30010KT 8000 SCT045"
    },
    {
      "icao": "GCFV",
      "alert": "OK",
      "vis_m": 9999,
      "fzfg": false,
      "metar_trigger": false,
      "taf_trigger": false,
      "metar": "METAR GCFV 272100Z 01013KT 9999 FEW015 21/15 Q1020",
      "taf": "TAF GCFV 272000Z 2721/2821 01014KT 9999 FEW020 TX25/2814Z TN20/2806Z"
    },
    {
      "icao": "GCLP",
      "alert": "OK",
      "vis_m": 9999,
      "fzfg": false,
      "metar_trigger": false,
      "taf_trigger": false,
      "metar": "METAR GCLP 272100Z 02020KT 9999 FEW020 20/15 Q1020 NOSIG",
      "taf": "TAF GCLP 272000Z 2721/2821 01020KT 9999 FEW020 TX24/2814Z TN19/2806Z"
    },
    {
      "icao": "GCTS",
      "alert": "OK",
      "vis_m": 9999,
      "fzfg": false,
      "metar_trigger": false,
      "taf_trigger": false,
      "metar": "METAR GCTS 272100Z 07010KT 9999 FEW025 21/16 Q1020 NOSIG",
      "taf": "TAF GCTS 272000Z 2721/2821 06009KT 9999 FEW025 TX25/2814Z TN19/2806Z"
    },
    {
      "icao": "GMAD",
      "alert": "OK",
      "vis_m": 6000,
      "fzfg": false,
      "metar_trigger": false,
      "taf_trigger": false,
      "metar": "METAR GMAD 272100Z 23009KT 6000 BKN004 20/17 Q1018 NOSIG",
      "taf": "TAF GMAD 271700Z 2718/2824 25014KT 8000 NSC"
    },
    {
      "icao": "GMMN",
      "alert": "OK",
      "vis_m": 9999,
      "fzfg": false,
      "metar_trigger": false,
      "taf_trigger": false,
      "metar": "METAR GMMN 272100Z 28004KT 250V320 CAVOK 22/17 Q1017 NOSIG",
      "taf": "TAF GMMN 271700Z 2718/2824 32012KT CAVOK"
    },
    {
      "icao": "GMMX",
      "alert": "OK",
      "vis_m": 8000,
      "fzfg": false,
      "metar_trigger": false,
      "taf_trigger": false,
      "metar": "METAR GMMX 272100Z 25006KT 220V280 8000 SCT033 FEW040TCU 26/13 Q1019 NOSIG",
      "taf": "TAF GMMX 271700Z 2718/2824 26006KT 8000 SCT033 FEW040TCU"
    },
    {
      "icao": "HEGN",
      "alert": "OK",
      "vis_m": 9999,
      "fzfg": false,
      "metar_trigger": false,
      "taf_trigger": false,
      "metar": "METAR HEGN 272100Z 29010KT CAVOK 26/04 Q1012 NOSIG",
      "taf": "TAF HEGN 271700Z 2718/2824 33008G20KT CAVOK"
    },
    {
      "icao": "HEMA",
      "alert": "OK",
      "vis_m": 9999,
      "fzfg": false,
      "metar_trigger": false,
      "taf_trigger": false,
      "metar": "METAR HEMA 272100Z 00000KT CAVOK 25/10 Q1011 NOSIG",
      "taf": "TAF HEMA 271700Z 2718/2824 32008G20KT CAVOK"
    },
    {
      "icao": "HESH",
      "alert": "OK",
      "vis_m": 9999,
      "fzfg": false,
      "metar_trigger": false,
      "taf_trigger": false,
      "metar": "METAR HESH 272000Z 36004KT CAVOK 28/14 Q1010 NOSIG",
      "taf": "TAF HESH 271700Z 2718/2824 04012KT CAVOK"
    },
    {
      "icao": "HESX",
      "alert": "OK",
      "vis_m": 9999,
      "fzfg": false,
      "metar_trigger": false,
      "taf_trigger": false,
      "metar": "METAR HESX 272100Z 01005KT CAVOK 22/15 Q1015 NOSIG",
      "taf": "TAF HESX 271700Z 2718/2824 36010KT CAVOK"
    },
    {
      "icao": "LATI",
      "alert": "OK",
      "vis_m": 9999,
      "fzfg": false,
      "metar_trigger": false,
      "taf_trigger": false,
      "metar": "METAR LATI 272120Z 17003KT CAVOK 20/13 Q1014 NOSIG",
      "taf": "TAF LATI 271700Z 2718/2818 VRB05KT CAVOK TX34/2812Z TN16/2804Z"
    },
    {
      "icao": "LBPD",
      "alert": "OK",
      "vis_m": 9999,
      "fzfg": false,
      "metar_trigger": false,
      "taf_trigger": false,
      "metar": "METAR LBPD 272100Z AUTO 27004KT 9999 SCT096/// 21/14 Q1013 NOSIG",
      "taf": "TAF LBPD 271700Z 2718/2818 VRB03KT CAVOK"
    },
    {
      "icao": "LBSF",
      "alert": "OK",
      "vis_m": 9999,
      "fzfg": false,
      "metar_trigger": false,
      "taf_trigger": false,
      "metar": "METAR LBSF 272100Z AUTO VRB02KT 9999 NCD 18/13 Q1016 NOSIG",
      "taf": "TAF LBSF 271700Z 2718/2818 02010KT CAVOK"
    },
    {
      "icao": "LBWN",
      "alert": "OK",
      "vis_m": 9999,
      "fzfg": false,
      "metar_trigger": false,
      "taf_trigger": false,
      "metar": "METAR LBWN 272100Z AUTO 00000KT 9999 NCD 20/15 Q1012 NOSIG",
      "taf": "TAF LBWN 271700Z 2718/2818 VRB04KT 9999 SCT040"
    },
    {
      "icao": "LCLK",
      "alert": "OK",
      "vis_m": 9999,
      "fzfg": false,
      "metar_trigger": false,
      "taf_trigger": false,
      "metar": "METAR LCLK 272100Z VRB03KT CAVOK 22/18 Q1011 NOSIG",
      "taf": "TAF LCLK 271730Z 2718/2818 30006KT 9999 FEW025"
    },
    {
      "icao": "LCPH",
      "alert": "OK",
      "vis_m": 9999,
      "fzfg": false,
      "metar_trigger": false,
      "taf_trigger": false,
      "metar": "METAR LCPH 272100Z 33005KT 9999 FEW012 20/19 Q1012 NOSIG",
      "taf": "TAF LCPH 271730Z 2718/2818 32012KT 9999 FEW020"
    },
    {
      "icao": "LEAL",
      "alert": "OK",
      "vis_m": 9999,
      "fzfg": false,
      "metar_trigger": false,
      "taf_trigger": false,
      "metar": "METAR LEAL 272100Z VRB01KT CAVOK 23/14 Q1021 NOSIG",
      "taf": "TAF LEAL 271700Z 2718/2818 10009KT CAVOK TX29/2812Z TN16/2806Z"
    },
    {
      "icao": "LEBB",
      "alert": "OK",
      "vis_m": 9999,
      "fzfg": false,
      "metar_trigger": false,
      "taf_trigger": false,
      "metar": "METAR LEBB 272100Z 00000KT CAVOK 23/18 Q1020 NOSIG",
      "taf": "TAF LEBB 271700Z 2718/2818 12005KT CAVOK TX36/2813Z TN17/2804Z"
    },
    {
      "icao": "LEBL",
      "alert": "OK",
      "vis_m": 9999,
      "fzfg": false,
      "metar_trigger": false,
      "taf_trigger": false,
      "metar": "METAR LEBL 272030Z 24012KT CAVOK 23/16 Q1020 NOSIG",
      "taf": "TAF LEBL 271700Z 2718/2818 23013KT CAVOK TX30/2812Z TN20/2806Z"
    },
    {
      "icao": "LECH",
      "alert": "OK",
      "vis_m": 9999,
      "fzfg": false,
      "metar_trigger": false,
      "taf_trigger": false,
      "metar": "METAR LECH 272100Z AUTO 22004KT CAVOK 20/10 Q1022",
      "taf": "TAF LECH 271700Z 2718/2818 VRB04KT CAVOK TX33/2813Z TN15/2806Z"
    },
    {
      "icao": "LEMD",
      "alert": "OK",
      "vis_m": 9999,
      "fzfg": false,
      "metar_trigger": false,
      "taf_trigger": false,
      "metar": "METAR LEMD 272100Z 11006KT 050V160 CAVOK 28/04 Q1021 NOSIG",
      "taf": "TAF LEMD 271700Z 2718/2824 VRB04KT CAVOK TX35/2816Z TN14/2806Z"
    },
    {
      "icao": "LEMG",
      "alert": "OK",
      "vis_m": 9999,
      "fzfg": false,
      "metar_trigger": false,
      "taf_trigger": false,
      "metar": "METAR LEMG 272100Z 21002KT CAVOK 20/11 Q1021 NOSIG",
      "taf": "TAF LEMG 271700Z 2718/2818 13010KT CAVOK TX28/2814Z TN17/2807Z"
    },
    {
      "icao": "LEVC",
      "alert": "OK",
      "vis_m": 9999,
      "fzfg": false,
      "metar_trigger": false,
      "taf_trigger": false,
      "metar": "METAR LEVC 272100Z 03004KT 350V080 CAVOK 23/15 Q1021 NOSIG",
      "taf": "TAF LEVC 271700Z 2718/2818 12009KT CAVOK TX33/2812Z TN16/2806Z"
    },
    {
      "icao": "LEXJ",
      "alert": "OK",
      "vis_m": 7000,
      "fzfg": false,
      "metar_trigger": false,
      "taf_trigger": false,
      "metar": "METAR LEXJ 272100Z 00000KT 7000 NSC 22/18 Q1020",
      "taf": "TAF LEXJ 272000Z 2721/2821 VRB03KT CAVOK TX33/2812Z TN15/2805Z"
    },
    {
      "icao": "LEZG",
      "alert": "OK",
      "vis_m": 9999,
      "fzfg": false,
      "metar_trigger": false,
      "taf_trigger": false,
      "metar": "METAR LEZG 272100Z 23008KT CAVOK 28/05 Q1019 NOSIG",
      "taf": "TAF LEZG 271700Z 2718/2818 VRB04KT CAVOK TX37/2815Z TN20/2806Z"
    },
    {
      "icao": "LEZL",
      "alert": "OK",
      "vis_m": 9999,
      "fzfg": false,
      "metar_trigger": false,
      "taf_trigger": false,
      "metar": "METAR LEZL 272100Z 23006KT 200V260 CAVOK 28/12 Q1017 NOSIG",
      "taf": "TAF LEZL 272000Z 2721/2821 22005KT CAVOK TX38/2815Z TN16/2807Z"
    },
    {
      "icao": "LFBD",
      "alert": "OK",
      "vis_m": 9999,
      "fzfg": false,
      "metar_trigger": false,
      "taf_trigger": false,
      "metar": "METAR LFBD 272100Z AUTO 01003KT 9999 // NSC 25/18 Q1020",
      "taf": "TAF LFBD 271700Z 2718/2824 33005KT CAVOK TX38/2814Z TN21/2805Z"
    },
    {
      "icao": "LFLL",
      "alert": "OK",
      "vis_m": 9999,
      "fzfg": false,
      "metar_trigger": false,
      "taf_trigger": false,
      "metar": "METAR LFLL 272100Z 35005KT CAVOK 24/14 Q1020 NOSIG",
      "taf": "TAF LFLL 271700Z 2718/2824 36008KT CAVOK"
    },
    {
      "icao": "LFLS",
      "alert": "OK",
      "vis_m": 9999,
      "fzfg": false,
      "metar_trigger": false,
      "taf_trigger": false,
      "metar": "METAR LFLS 272100Z AUTO 14004KT CAVOK 20/11 Q1021",
      "taf": "TAF LFLS 271400Z 2715/2815 36008KT CAVOK"
    },
    {
      "icao": "LFMN",
      "alert": "OK",
      "vis_m": 9999,
      "fzfg": false,
      "metar_trigger": false,
      "taf_trigger": false,
      "metar": "METAR LFMN 272100Z 08005KT CAVOK 23/20 Q1016 NOSIG",
      "taf": "TAF LFMN 272000Z 2721/2903 VRB05KT CAVOK"
    },
    {
      "icao": "LFOB",
      "alert": "OK",
      "vis_m": 9999,
      "fzfg": false,
      "metar_trigger": false,
      "taf_trigger": false,
      "metar": "METAR LFOB 272100Z AUTO 05008KT CAVOK 20/16 Q1022 NOSIG",
      "taf": "TAF LFOB 271700Z 2718/2818 VRB04KT CAVOK"
    },
    {
      "icao": "LFPO",
      "alert": "OK",
      "vis_m": 9999,
      "fzfg": false,
      "metar_trigger": false,
      "taf_trigger": false,
      "metar": "METAR LFPO 272100Z AUTO VRB02KT CAVOK 20/15 Q1022 NOSIG",
      "taf": "TAF LFPO 271700Z 2718/2824 10005KT CAVOK"
    },
    {
      "icao": "LFSB",
      "alert": "OK",
      "vis_m": 9999,
      "fzfg": false,
      "metar_trigger": false,
      "taf_trigger": false,
      "metar": "METAR LFSB 272100Z AUTO 33005KT CAVOK 22/11 Q1021 NOSIG",
      "taf": "TAF LFSB 271700Z 2718/2818 35007KT CAVOK"
    },
    {
      "icao": "LGAV",
      "alert": "OK",
      "vis_m": 9999,
      "fzfg": false,
      "metar_trigger": false,
      "taf_trigger": false,
      "metar": "METAR LGAV 272120Z VRB01KT CAVOK 16/12 Q1014 NOSIG",
      "taf": "TAF LGAV 271700Z 2718/2818 04010KT 9999 FEW025"
    },
    {
      "icao": "LGTS",
      "alert": "OK",
      "vis_m": 9999,
      "fzfg": false,
      "metar_trigger": false,
      "taf_trigger": false,
      "metar": "METAR LGTS 272050Z 11004KT 9999 FEW020 21/15 Q1013 NOSIG",
      "taf": "TAF LGTS 271700Z 2718/2818 VRB03KT 9999 FEW025"
    },
    {
      "icao": "LHBP",
      "alert": "OK",
      "vis_m": 9999,
      "fzfg": false,
      "metar_trigger": false,
      "taf_trigger": false,
      "metar": "METAR LHBP 272100Z 34008KT CAVOK 22/12 Q1016 NOSIG",
      "taf": "TAF LHBP 271715Z 2718/2818 32007KT CAVOK"
    },
    {
      "icao": "LHDC",
      "alert": "OK",
      "vis_m": 9999,
      "fzfg": false,
      "metar_trigger": false,
      "taf_trigger": false,
      "metar": "METAR LHDC 272045Z AUTO 02014KT 350V060 CAVOK 20/13 Q1015",
      "taf": "TAF LHDC 271415Z 2715/2724 28014G24KT CAVOK"
    },
    {
      "icao": "LIBD",
      "alert": "OK",
      "vis_m": 9999,
      "fzfg": false,
      "metar_trigger": false,
      "taf_trigger": false,
      "metar": "METAR LIBD 272050Z 21004KT CAVOK 20/14 Q1016",
      "taf": "TAF LIBD 271700Z 2718/2818 26007KT CAVOK"
    },
    {
      "icao": "LIBG",
      "alert": "OK",
      "vis_m": 9999,
      "fzfg": false,
      "metar_trigger": false,
      "taf_trigger": false,
      "metar": "METAR LIBG 272050Z AUTO 26003KT 240V300 9999 NCD 22/14 Q1015",
      "taf": "TAF LIBG 271700Z 2718/2818 35012KT 9999 SCT030"
    },
    {
      "icao": "LIBP",
      "alert": "OK",
      "vis_m": 9999,
      "fzfg": false,
      "metar_trigger": false,
      "taf_trigger": false,
      "metar": "METAR LIBP 272050Z AUTO 22006KT 9999 SCT140/// 21/16 Q1016",
      "taf": "TAF LIBP 271700Z 2718/2818 VRB04KT 9999 SCT030"
    },
    {
      "icao": "LIBR",
      "alert": "OK",
      "vis_m": 9999,
      "fzfg": false,
      "metar_trigger": false,
      "taf_trigger": false,
      "metar": "METAR LIBR 272050Z 31005KT CAVOK 20/18 Q1015",
      "taf": "TAF LIBR 271700Z 2718/2818 33016KT CAVOK"
    },
    {
      "icao": "LICA",
      "alert": "OK",
      "vis_m": 9999,
      "fzfg": false,
      "metar_trigger": false,
      "taf_trigger": false,
      "metar": "METAR LICA 272050Z AUTO 22004KT 9999 BKN015/// 21/20 Q1018",
      "taf": "TAF LICA 271700Z 2718/2818 26010KT 9999 FEW020"
    },
    {
      "icao": "LICC",
      "alert": "OK",
      "vis_m": 9999,
      "fzfg": false,
      "metar_trigger": false,
      "taf_trigger": false,
      "metar": "METAR LICC 272050Z VRB02KT CAVOK 21/13 Q1017",
      "taf": "TAF LICC 271700Z 2718/2818 09013KT 9999 FEW070"
    },
    {
      "icao": "LICJ",
      "alert": "OK",
      "vis_m": 9999,
      "fzfg": false,
      "metar_trigger": false,
      "taf_trigger": false,
      "metar": "METAR LICJ 272050Z 21003KT CAVOK 21/20 Q1018",
      "taf": "TAF LICJ 271700Z 2718/2818 VRB05KT CAVOK"
    },
    {
      "icao": "LIMC",
      "alert": "OK",
      "vis_m": 9999,
      "fzfg": false,
      "metar_trigger": false,
      "taf_trigger": false,
      "metar": "METAR LIMC 272050Z 14003KT CAVOK 27/15 Q1017 NOSIG",
      "taf": "TAF LIMC 271700Z 2718/2824 20010KT CAVOK"
    },
    {
      "icao": "LIME",
      "alert": "OK",
      "vis_m": 9999,
      "fzfg": false,
      "metar_trigger": false,
      "taf_trigger": false,
      "metar": "METAR LIME 272050Z 33004KT CAVOK 27/18 Q1016 NOSIG",
      "taf": "TAF LIME 271700Z 2718/2818 19010KT 9999 FEW040"
    },
    {
      "icao": "LIMF",
      "alert": "OK",
      "vis_m": 9999,
      "fzfg": false,
      "metar_trigger": false,
      "taf_trigger": false,
      "metar": "METAR LIMF 272050Z AUTO 24003KT 200V300 9999 NCD 26/18 Q1016",
      "taf": "TAF LIMF 271700Z 2718/2818 VRB05KT CAVOK"
    },
    {
      "icao": "LIMJ",
      "alert": "OK",
      "vis_m": 9999,
      "fzfg": false,
      "metar_trigger": false,
      "taf_trigger": false,
      "metar": "METAR LIMJ 272050Z AUTO 09004KT 9999 NCD 23/19 Q1017",
      "taf": "TAF LIMJ 271700Z 2718/2818 VRB05KT CAVOK"
    },
    {
      "icao": "LIPE",
      "alert": "OK",
      "vis_m": 9999,
      "fzfg": false,
      "metar_trigger": false,
      "taf_trigger": false,
      "metar": "METAR LIPE 272050Z 19008KT CAVOK 27/17 Q1015",
      "taf": "TAF LIPE 271700Z 2718/2818 VRB05KT 9999 SCT050"
    },
    {
      "icao": "LIPH",
      "alert": "OK",
      "vis_m": 9999,
      "fzfg": false,
      "metar_trigger": false,
      "taf_trigger": false,
      "metar": "METAR LIPH 272050Z 03003KT 360V060 CAVOK 24/20 Q1016",
      "taf": "TAF LIPH 271700Z 2718/2818 VRB05KT 9999 SCT050"
    },
    {
      "icao": "LIPQ",
      "alert": "OK",
      "vis_m": 9999,
      "fzfg": false,
      "metar_trigger": false,
      "taf_trigger": false,
      "metar": "METAR LIPQ 272050Z AUTO 03006KT 010V070 9999 SCT140/// 22/17 Q1016",
      "taf": "TAF LIPQ 271700Z 2718/2818 04010KT 9999 SCT060"
    },
    {
      "icao": "LIPR",
      "alert": "OK",
      "vis_m": 9999,
      "fzfg": false,
      "metar_trigger": false,
      "taf_trigger": false,
      "metar": "METAR LIPR 272050Z 20004KT CAVOK 25/16 Q1016",
      "taf": "TAF LIPR 271700Z 2718/2818 12010KT 9999 SCT040"
    },
    {
      "icao": "LIPX",
      "alert": "OK",
      "vis_m": 9999,
      "fzfg": false,
      "metar_trigger": false,
      "taf_trigger": false,
      "metar": "METAR LIPX 272050Z 07007KT 040V100 9999 VCTS FEW050CB SCT090 28/19 Q1016",
      "taf": "TAF LIPX 271700Z 2718/2818 VRB05KT CAVOK"
    },
    {
      "icao": "LIPY",
      "alert": "OK",
      "vis_m": 9999,
      "fzfg": false,
      "metar_trigger": false,
      "taf_trigger": false,
      "metar": "METAR LIPY 272050Z AUTO 17002KT 9999 NCD 23/16 Q1016",
      "taf": "TAF LIPY 271700Z 2718/2818 VRB05KT 9999 SCT060"
    },
    {
      "icao": "LIPZ",
      "alert": "OK",
      "vis_m": 9999,
      "fzfg": false,
      "metar_trigger": false,
      "taf_trigger": false,
      "metar": "METAR LIPZ 272050Z 06004KT 9999 FEW070 25/22 Q1016 NOSIG",
      "taf": "TAF LIPZ 271700Z 2718/2824 04010KT 9999 SCT060"
    },
    {
      "icao": "LIRF",
      "alert": "OK",
      "vis_m": 9999,
      "fzfg": false,
      "metar_trigger": false,
      "taf_trigger": false,
      "metar": "METAR LIRF 272050Z VRB01KT CAVOK 21/19 Q1017 NOSIG",
      "taf": "TAF LIRF 271700Z 2718/2824 28010KT CAVOK"
    },
    {
      "icao": "LIRN",
      "alert": "OK",
      "vis_m": 9999,
      "fzfg": false,
      "metar_trigger": false,
      "taf_trigger": false,
      "metar": "METAR LIRN 272050Z VRB02KT CAVOK 21/20 Q1018 NOSIG",
      "taf": "TAF LIRN 271700Z 2718/2818 VRB05KT CAVOK"
    },
    {
      "icao": "LIRP",
      "alert": "OK",
      "vis_m": 9999,
      "fzfg": false,
      "metar_trigger": false,
      "taf_trigger": false,
      "metar": "METAR LIRP 272045Z 19002KT CAVOK 20/18 Q1018 NOSIG",
      "taf": "TAF LIRP 271700Z 2718/2818 28013KT CAVOK"
    },
    {
      "icao": "LIRZ",
      "alert": "OK",
      "vis_m": 9999,
      "fzfg": false,
      "metar_trigger": false,
      "taf_trigger": false,
      "metar": "METAR LIRZ 272050Z AUTO 02003KT 330V040 9999 NCD 21/18 Q1017",
      "taf": "TAF LIRZ 271700Z 2718/2818 VRB05KT 9999 FEW070"
    },
    {
      "icao": "LJLJ",
      "alert": "OK",
      "vis_m": 9999,
      "fzfg": false,
      "metar_trigger": false,
      "taf_trigger": false,
      "metar": "METAR LJLJ 272100Z 11003KT 9999 FEW060 SCT130 17/16 Q1020 NOSIG",
      "taf": "TAF LJLJ 271700Z 2718/2818 30004KT 9999 FEW060"
    },
    {
      "icao": "LKMT",
      "alert": "OK",
      "vis_m": 9999,
      "fzfg": false,
      "metar_trigger": false,
      "taf_trigger": false,
      "metar": "METAR LKMT 272100Z 33005KT CAVOK 13/06 Q1020 NOSIG",
      "taf": "TAF LKMT 271700Z 2718/2818 36008KT CAVOK"
    },
    {
      "icao": "LKPR",
      "alert": "OK",
      "vis_m": 9999,
      "fzfg": false,
      "metar_trigger": false,
      "taf_trigger": false,
      "metar": "METAR LKPR 272100Z 31007KT CAVOK 14/04 Q1023 NOSIG",
      "taf": "TAF LKPR 272000Z 2721/2903 33008KT CAVOK"
    },
    {
      "icao": "LLBG",
      "alert": "OK",
      "vis_m": 9999,
      "fzfg": false,
      "metar_trigger": false,
      "taf_trigger": false,
      "metar": "METAR LLBG 272120Z 21004KT 9999 FEW020 BKN030 22/18 Q1013 NOSIG",
      "taf": "TAF LLBG 271702Z 2718/2818 VRB03KT 9999 FEW025 TX26/2812Z TN18/2803Z"
    },
    {
      "icao": "LMML",
      "alert": "OK",
      "vis_m": 9999,
      "fzfg": false,
      "metar_trigger": false,
      "taf_trigger": false,
      "metar": "METAR LMML 272115Z 24005KT CAVOK 22/12 Q1018 NOSIG",
      "taf": "TAF LMML 271700Z 2718/2818 28009KT CAVOK"
    },
    {
      "icao": "LOWW",
      "alert": "OK",
      "vis_m": 9999,
      "fzfg": false,
      "metar_trigger": false,
      "taf_trigger": false,
      "metar": "METAR LOWW 272050Z 34009KT CAVOK 21/10 Q1019 NOSIG",
      "taf": "TAF LOWW 272015Z 2721/2903 34012KT 9999 FEW050 TX24/2813Z TN11/2903Z"
    },
    {
      "icao": "LPFR",
      "alert": "OK",
      "vis_m": 9999,
      "fzfg": false,
      "metar_trigger": false,
      "taf_trigger": false,
      "metar": "METAR LPFR 272100Z 09006KT CAVOK 24/11 Q1017",
      "taf": "TAF LPFR 271700Z 2718/2818 08008KT CAVOK"
    },
    {
      "icao": "LPMA",
      "alert": "OK",
      "vis_m": 9999,
      "fzfg": false,
      "metar_trigger": false,
      "taf_trigger": false,
      "metar": "METAR LPMA 272100Z VRB02KT 9999 FEW016 18/14 Q1022",
      "taf": "TAF LPMA 271700Z 2718/2818 VRB05KT 9999 SCT015"
    },
    {
      "icao": "LPPR",
      "alert": "OK",
      "vis_m": 9999,
      "fzfg": false,
      "metar_trigger": false,
      "taf_trigger": false,
      "metar": "METAR LPPR 272100Z 35004KT CAVOK 20/14 Q1019",
      "taf": "TAF LPPR 271700Z 2718/2818 32008KT CAVOK"
    },
    {
      "icao": "LPPS",
      "alert": "OK",
      "vis_m": 9999,
      "fzfg": false,
      "metar_trigger": false,
      "taf_trigger": false,
      "metar": "METAR LPPS 272100Z 31008KT 9999 FEW015 18/14 Q1022",
      "taf": "TAF LPPS 271700Z 2718/2824 31012KT 9999 FEW015 BKN030"
    },
    {
      "icao": "LPPT",
      "alert": "OK",
      "vis_m": 9999,
      "fzfg": false,
      "metar_trigger": false,
      "taf_trigger": false,
      "metar": "METAR LPPT 272100Z 32006KT 270V350 CAVOK 21/13 Q1019",
      "taf": "TAF LPPT 271700Z 2718/2824 26013KT CAVOK"
    },
    {
      "icao": "LQBK",
      "alert": "OK",
      "vis_m": 9999,
      "fzfg": false,
      "metar_trigger": false,
      "taf_trigger": false,
      "metar": "METAR LQBK 272100Z 28015KT 9999 SCT047 23/14 Q1017 TEMPO SHRA FEW035TCU SCT045",
      "taf": "TAF LQBK 271700Z 2718/2818 30005KT 9999 SCT045 TX26/2814Z TN16/2803Z"
    },
    {
      "icao": "LQSA",
      "alert": "OK",
      "vis_m": 9999,
      "fzfg": false,
      "metar_trigger": false,
      "taf_trigger": false,
      "metar": "METAR LQSA 272100Z 12005KT CAVOK 18/09 Q1018 NOSIG",
      "taf": "TAF LQSA 271700Z 2718/2818 29005KT 9999 FEW060 TX25/2814Z TN16/2804Z"
    },
    {
      "icao": "LQTZ",
      "alert": "OK",
      "vis_m": 9999,
      "fzfg": false,
      "metar_trigger": false,
      "taf_trigger": false,
      "metar": "METAR LQTZ 272100Z VRB01KT CAVOK 17/15 Q1016",
      "taf": "TAF LQTZ 271700Z 2718/2818 29006KT 9999 SCT040 TX25/2813Z TN14/2803Z"
    },
    {
      "icao": "LRBC",
      "alert": "OK",
      "vis_m": 9999,
      "fzfg": false,
      "metar_trigger": false,
      "taf_trigger": false,
      "metar": "METAR LRBC 272100Z 30003KT 9999 -SHRA FEW038CB FEW052 17/16 Q1014",
      "taf": "TAF LRBC 272000Z 2721/2806 35010KT CAVOK"
    },
    {
      "icao": "LRBS",
      "alert": "OK",
      "vis_m": 9999,
      "fzfg": false,
      "metar_trigger": false,
      "taf_trigger": false,
      "metar": "METAR LRBS 272100Z 28004KT 250V310 CAVOK 23/17 Q1011 BECMG 06012KT",
      "taf": "TAF LRBS 271700Z 2718/2818 26008KT CAVOK"
    },
    {
      "icao": "LRBV",
      "alert": "OK",
      "vis_m": 9999,
      "fzfg": false,
      "metar_trigger": false,
      "taf_trigger": false,
      "metar": "METAR LRBV 272100Z AUTO 21017KT 9999 OVC110/// 17/12 Q1014",
      "taf": "TAF LRBV 271700Z 2718/2803 26006KT CAVOK"
    },
    {
      "icao": "LRCL",
      "alert": "OK",
      "vis_m": 9999,
      "fzfg": false,
      "metar_trigger": false,
      "taf_trigger": false,
      "metar": "METAR LRCL 272100Z 31005KT 280V360 9999 SCT025 19/12 Q1014",
      "taf": "TAF LRCL 272000Z 2721/2806 30010KT CAVOK"
    },
    {
      "icao": "LRCV",
      "alert": "OK",
      "vis_m": 9999,
      "fzfg": false,
      "metar_trigger": false,
      "taf_trigger": false,
      "metar": "METAR LRCV 272100Z 29007KT CAVOK 20/15 Q1012",
      "taf": "TAF LRCV 272000Z 2721/2806 28008KT CAVOK"
    },
    {
      "icao": "LRIA",
      "alert": "OK",
      "vis_m": 9999,
      "fzfg": false,
      "metar_trigger": false,
      "taf_trigger": false,
      "metar": "METAR LRIA 272100Z 29006KT CAVOK 17/14 Q1013",
      "taf": "TAF LRIA 272000Z 2721/2806 28009KT CAVOK"
    },
    {
      "icao": "LROP",
      "alert": "OK",
      "vis_m": 9999,
      "fzfg": false,
      "metar_trigger": false,
      "taf_trigger": false,
      "metar": "METAR LROP 272100Z 26005KT CAVOK 20/17 Q1011 BECMG 06012KT",
      "taf": "TAF LROP 271700Z 2718/2818 26008KT CAVOK"
    },
    {
      "icao": "LRSB",
      "alert": "OK",
      "vis_m": 9999,
      "fzfg": false,
      "metar_trigger": false,
      "taf_trigger": false,
      "metar": "METAR LRSB 272100Z 25008KT CAVOK 19/12 Q1013",
      "taf": "TAF LRSB 271700Z 2718/2818 28012KT CAVOK"
    },
    {
      "icao": "LRSM",
      "alert": "OK",
      "vis_m": 9999,
      "fzfg": false,
      "metar_trigger": false,
      "taf_trigger": false,
      "metar": "METAR LRSM 272100Z AUTO 28004KT 9999 FEW100/// 16/15 Q1014",
      "taf": "TAF LRSM 271400Z 2715/2724 28014KT CAVOK"
    },
    {
      "icao": "LRSV",
      "alert": "OK",
      "vis_m": 9999,
      "fzfg": false,
      "metar_trigger": false,
      "taf_trigger": false,
      "metar": "METAR LRSV 272100Z 28010KT CAVOK 15/14 Q1014",
      "taf": "TAF LRSV 272000Z 2721/2806 30009KT CAVOK"
    },
    {
      "icao": "LRTM",
      "alert": "OK",
      "vis_m": 9999,
      "fzfg": false,
      "metar_trigger": false,
      "taf_trigger": false,
      "metar": "METAR LRTM 272100Z 32015KT 290V350 9999 FEW030CB 22/13 Q1013",
      "taf": "TAF LRTM 272000Z 2721/2806 33012KT CAVOK"
    },
    {
      "icao": "LRTR",
      "alert": "OK",
      "vis_m": 9999,
      "fzfg": false,
      "metar_trigger": false,
      "taf_trigger": false,
      "metar": "METAR LRTR 272100Z 35009KT CAVOK 23/13 Q1014",
      "taf": "TAF LRTR 271700Z 2718/2818 30006KT CAVOK"
    },
    {
      "icao": "LTAC",
      "alert": "OK",
      "vis_m": 9999,
      "fzfg": false,
      "metar_trigger": false,
      "taf_trigger": false,
      "metar": "METAR LTAC 272050Z 08004KT CAVOK 15/09 Q1017 NOSIG RMK RWY21C 12003KT 080V140 RWY03L 06003KT RWY21R 10004KT RWY03R 05004KT RWY21L 07003KT",
      "taf": "TAF LTAC 271640Z 2718/2818 VRB02KT CAVOK"
    },
    {
      "icao": "LTFM",
      "alert": "OK",
      "vis_m": 9999,
      "fzfg": false,
      "metar_trigger": false,
      "taf_trigger": false,
      "metar": "METAR LTFM 272050Z 14003KT 100V190 CAVOK 20/07 Q1013 NOSIG RMK RWY17L 16004KT RWY34L 16003KT 120V190 RWY16R 12006KT RWY36 17004KT 120V180 RWY18 13006KT",
      "taf": "TAF LTFM 271640Z 2718/2824 VRB02KT CAVOK"
    },
    {
      "icao": "LUKK",
      "alert": "OK",
      "vis_m": 9999,
      "fzfg": false,
      "metar_trigger": false,
      "taf_trigger": false,
      "metar": "METAR LUKK 272100Z 29007KT 9999 -RA NSC 17/14 Q1012 NOSIG",
      "taf": "TAF LUKK 271719Z 2718/2818 33014KT 9999 SCT040"
    },
    {
      "icao": "LWOH",
      "alert": "OK",
      "vis_m": null,
      "fzfg": false,
      "metar_trigger": false,
      "taf_trigger": false,
      "metar": "",
      "taf": "TAF LWOH 271720Z 2718/2818 16010KT 9999 FEW040"
    },
    {
      "icao": "LWSK",
      "alert": "OK",
      "vis_m": 9999,
      "fzfg": false,
      "metar_trigger": false,
      "taf_trigger": false,
      "metar": "METAR LWSK 272120Z VRB02KT CAVOK 19/13 Q1015 NOSIG",
      "taf": "TAF LWSK 271720Z 2718/2818 02010KT CAVOK"
    },
    {
      "icao": "LYBE",
      "alert": "OK",
      "vis_m": 9999,
      "fzfg": false,
      "metar_trigger": false,
      "taf_trigger": false,
      "metar": "METAR LYBE 272100Z 29005KT CAVOK 21/14 Q1015 NOSIG",
      "taf": "TAF LYBE 271700Z 2718/2818 28008KT CAVOK TX28/2813Z TN19/2804Z"
    },
    {
      "icao": "LYNI",
      "alert": "OK",
      "vis_m": 9999,
      "fzfg": false,
      "metar_trigger": false,
      "taf_trigger": false,
      "metar": "METAR LYNI 272100Z 07003KT 040V110 CAVOK 20/14 Q1015 NOSIG",
      "taf": "TAF LYNI 271700Z 2718/2818 04006KT CAVOK TX27/2814Z TN14/2804Z"
    },
    {
      "icao": "LYPG",
      "alert": "OK",
      "vis_m": 9999,
      "fzfg": false,
      "metar_trigger": false,
      "taf_trigger": false,
      "metar": "METAR LYPG 272100Z 14003KT 070V170 CAVOK 24/15 Q1014 NOSIG",
      "taf": "TAF LYPG 271700Z 2718/2818 36008KT 9999 FEW040 TX33/2813Z TN20/2803Z"
    },
    {
      "icao": "LZIB",
      "alert": "OK",
      "vis_m": 9999,
      "fzfg": false,
      "metar_trigger": false,
      "taf_trigger": false,
      "metar": "METAR LZIB 272100Z 03007KT CAVOK 21/11 Q1018 NOSIG",
      "taf": "TAF LZIB 271715Z 2718/2818 33009KT CAVOK"
    },
    {
      "icao": "LZKZ",
      "alert": "OK",
      "vis_m": 9999,
      "fzfg": false,
      "metar_trigger": false,
      "taf_trigger": false,
      "metar": "METAR LZKZ 272100Z 33004KT CAVOK 18/05 Q1017 NOSIG",
      "taf": "TAF LZKZ 271715Z 2718/2818 01009KT CAVOK"
    },
    {
      "icao": "LZTT",
      "alert": "OK",
      "vis_m": 9999,
      "fzfg": false,
      "metar_trigger": false,
      "taf_trigger": false,
      "metar": "METAR LZTT 272100Z 07003KT 030V110 9999 FEW060 13/02 Q1019",
      "taf": "TAF LZTT 271715Z 2718/2818 04005KT 9999 SCT060"
    },
    {
      "icao": "OEJN",
      "alert": "OK",
      "vis_m": 9999,
      "fzfg": false,
      "metar_trigger": false,
      "taf_trigger": false,
      "metar": "METAR OEJN 272100Z 33006KT CAVOK 28/20 Q1008 NOSIG",
      "taf": "TAF OEJN 271700Z 2718/2824 01008KT CAVOK"
    },
    {
      "icao": "OEMA",
      "alert": "OK",
      "vis_m": 9999,
      "fzfg": false,
      "metar_trigger": false,
      "taf_trigger": false,
      "metar": "METAR OEMA 272100Z 31007KT CAVOK 36/M04 Q1012 NOSIG",
      "taf": "TAF OEMA 271700Z 2718/2824 29010KT CAVOK"
    },
    {
      "icao": "OJAI",
      "alert": "OK",
      "vis_m": 5000,
      "fzfg": false,
      "metar_trigger": false,
      "taf_trigger": false,
      "metar": "METAR OJAI 272100Z 26005KT 5000 HZ NSC 17/14 Q1016 NOSIG",
      "taf": "TAF OJAI 271700Z 2718/2824 29012KT 5000 HZ NSC"
    },
    {
      "icao": "OMAA",
      "alert": "OK",
      "vis_m": 9999,
      "fzfg": false,
      "metar_trigger": false,
      "taf_trigger": false,
      "metar": "METAR OMAA 272100Z 20004KT CAVOK 30/22 Q1006 NOSIG",
      "taf": "TAF OMAA 271700Z 2718/2900 27007KT 8000 NSC"
    },
    {
      "icao": "OMDB",
      "alert": "OK",
      "vis_m": 9999,
      "fzfg": false,
      "metar_trigger": false,
      "taf_trigger": false,
      "metar": "METAR OMDB 272100Z 19007KT 150V230 CAVOK 30/24 Q1005 NOSIG",
      "taf": "TAF OMDB 271700Z 2718/2900 18005KT 8000 NSC"
    },
    {
      "icao": "UAAA",
      "alert": "OK",
      "vis_m": 9999,
      "fzfg": false,
      "metar_trigger": false,
      "taf_trigger": false,
      "metar": "METAR UAAA 272100Z VRB01MPS 9999 SCT050CB BKN100 14/12 Q1015 NOSIG",
      "taf": "TAF UAAA 271702Z 2718/2818 23003G08MPS 9999 BKN050CB OVC100 TX24/2810Z TN11/2801Z"
    },
    {
      "icao": "UBBB",
      "alert": "OK",
      "vis_m": 9999,
      "fzfg": false,
      "metar_trigger": false,
      "taf_trigger": false,
      "metar": "METAR UBBB 272100Z 15004KT CAVOK 16/13 Q1015 NOSIG",
      "taf": "TAF UBBB 271702Z 2718/2818 12005KT CAVOK TX27/2810Z TN17/2801Z"
    },
    {
      "icao": "UDSG",
      "alert": "OK",
      "vis_m": 9999,
      "fzfg": false,
      "metar_trigger": false,
      "taf_trigger": false,
      "metar": "METAR UDSG 272100Z 06003KT 020V120 9999 NSC 07/05 Q1021 NOSIG",
      "taf": "TAF UDSG 271658Z 2718/2818 VRB06KT 9999 FEW050"
    },
    {
      "icao": "UDYZ",
      "alert": "OK",
      "vis_m": 9999,
      "fzfg": false,
      "metar_trigger": false,
      "taf_trigger": false,
      "metar": "METAR UDYZ 272100Z 04009KT 9999 NSC 17/08 Q1016 NOSIG",
      "taf": "TAF UDYZ 271700Z 2718/2818 14006KT 9999 NSC"
    },
    {
      "icao": "UGKO",
      "alert": "OK",
      "vis_m": 9999,
      "fzfg": false,
      "metar_trigger": false,
      "taf_trigger": false,
      "metar": "METAR UGKO 272100Z AUTO 10006KT CAVOK 15/13 Q1015 NOSIG",
      "taf": "TAF UGKO 271700Z 2718/2818 08007KT CAVOK TX29/2812Z TN12/2802Z"
    }
  ]
}