{
  "ts_utc": "2026-02-15T13:11:09Z",
  "threshold_m": 150,
  "source": "stations_override.txt (ICAO list) + aviationweather.gov (METAR/TAF raw)",
  "station_count": 159,
  "stations": [
    {
      "icao": "BIKF",
      "alert": "OK",
      "vis_m": 9999,
      "fzfg": false,
      "metar_trigger": false,
      "taf_trigger": false,
      "metar": "METAR BIKF 151300Z 05007KT CAVOK M03/M13 Q1000",
      "taf": "TAF BIKF 151056Z 1512/1612 07015KT CAVOK TXM02/1515Z TNM06/1522Z"
    },
    {
      "icao": "BKPR",
      "alert": "OK",
      "vis_m": 9999,
      "fzfg": false,
      "metar_trigger": false,
      "taf_trigger": false,
      "metar": "METAR BKPR 151300Z 25015KT 9999 SCT030 10/07 Q0999 TEMPO 4000 -SHRA",
      "taf": "TAF BKPR 151130Z 1512/1612 35010KT 9999 BKN030"
    },
    {
      "icao": "EBCI",
      "alert": "OK",
      "vis_m": 9999,
      "fzfg": false,
      "metar_trigger": false,
      "taf_trigger": false,
      "metar": "METAR EBCI 151250Z 17016KT 9999 FEW024 01/M04 Q1007 TEMPO 2500 SN BKN004",
      "taf": "TAF EBCI 151100Z 1512/1618 17014KT CAVOK"
    },
    {
      "icao": "EDDB",
      "alert": "OK",
      "vis_m": 9999,
      "fzfg": false,
      "metar_trigger": false,
      "taf_trigger": false,
      "metar": "METAR EDDB 151250Z AUTO VRB04KT CAVOK 01/M08 Q1017 NOSIG",
      "taf": "TAF EDDB 151100Z 1512/1612 02004KT 9999 FEW030"
    },
    {
      "icao": "EDDH",
      "alert": "OK",
      "vis_m": 9999,
      "fzfg": false,
      "metar_trigger": false,
      "taf_trigger": false,
      "metar": "METAR EDDH 151250Z AUTO 15013KT 9999 FEW019 M01/M06 Q1015 NOSIG",
      "taf": "TAF EDDH 151100Z 1512/1618 14012KT CAVOK"
    },
    {
      "icao": "EDDK",
      "alert": "OK",
      "vis_m": 9999,
      "fzfg": false,
      "metar_trigger": false,
      "taf_trigger": false,
      "metar": "METAR EDDK 151250Z AUTO 15016KT 9999 SCT035 04/M04 Q1011 TEMPO 16015G25KT",
      "taf": "TAF EDDK 151100Z 1512/1618 14012KT 9999 SCT020"
    },
    {
      "icao": "EDDN",
      "alert": "OK",
      "vis_m": 9999,
      "fzfg": false,
      "metar_trigger": false,
      "taf_trigger": false,
      "metar": "METAR EDDN 151250Z AUTO VRB02KT 9999 BKN038 01/M07 Q1015 NOSIG",
      "taf": "TAF EDDN 151100Z 1512/1612 24003KT 9999 BKN025"
    },
    {
      "icao": "EDDS",
      "alert": "OK",
      "vis_m": 9999,
      "fzfg": false,
      "metar_trigger": false,
      "taf_trigger": false,
      "metar": "METAR EDDS 151250Z AUTO 17004KT 130V210 9999 FEW018 BKN030 OVC039 02/M02 Q1013 NOSIG",
      "taf": "TAF EDDS 151100Z 1512/1612 13004KT 9999 BKN030"
    },
    {
      "icao": "EDFH",
      "alert": "OK",
      "vis_m": 9999,
      "fzfg": false,
      "metar_trigger": false,
      "taf_trigger": false,
      "metar": "METAR EDFH 151250Z 16011KT 130V200 9999 BKN024 00/M05 Q1010",
      "taf": "TAF EDFH 151100Z 1512/1612 16012KT 9999 BKN025"
    },
    {
      "icao": "EDJA",
      "alert": "OK",
      "vis_m": 9999,
      "fzfg": false,
      "metar_trigger": false,
      "taf_trigger": false,
      "metar": "METAR EDJA 151250Z VRB01KT 9999 SCT013 BKN016 OVC021 00/M02 Q1013",
      "taf": "TAF EDJA 151100Z 1512/1521 11004KT 9999 FEW010 OVC030"
    },
    {
      "icao": "EDLW",
      "alert": "OK",
      "vis_m": 9999,
      "fzfg": false,
      "metar_trigger": false,
      "taf_trigger": false,
      "metar": "METAR EDLW 151250Z 13013KT 100V160 CAVOK 03/M05 Q1011",
      "taf": "TAF EDLW 151100Z 1512/1612 15010KT CAVOK"
    },
    {
      "icao": "EDNY",
      "alert": "OK",
      "vis_m": 9999,
      "fzfg": false,
      "metar_trigger": false,
      "taf_trigger": false,
      "metar": "METAR EDNY 151250Z 15003KT 080V190 9999 FEW019 BKN025 OVC038 03/M02 Q1014",
      "taf": "TAF EDNY 151100Z 1512/1521 VRB03KT 9999 FEW025 BKN035"
    },
    {
      "icao": "EDSB",
      "alert": "OK",
      "vis_m": 9999,
      "fzfg": false,
      "metar_trigger": false,
      "taf_trigger": false,
      "metar": "METAR EDSB 151250Z 18006KT 9999 OVC049 04/M02 Q1014",
      "taf": "TAF EDSB 151100Z 1512/1612 17004KT 9999 BKN040"
    },
    {
      "icao": "EETN",
      "alert": "OK",
      "vis_m": 9999,
      "fzfg": false,
      "metar_trigger": false,
      "taf_trigger": false,
      "metar": "METAR EETN 151250Z 23004KT 9999 BKN025 M05/M09 Q1015 NOSIG",
      "taf": "TAF EETN 151130Z 1512/1612 26007KT 9999 BKN020"
    },
    {
      "icao": "EFTU",
      "alert": "OK",
      "vis_m": 9999,
      "fzfg": false,
      "metar_trigger": false,
      "taf_trigger": false,
      "metar": "METAR EFTU 151250Z AUTO VRB02KT 9999 BKN010 M07/M10 Q1014",
      "taf": ""
    },
    {
      "icao": "EGBB",
      "alert": "OK",
      "vis_m": 9999,
      "fzfg": false,
      "metar_trigger": false,
      "taf_trigger": false,
      "metar": "METAR EGBB 151250Z 18005KT 160V220 9999 OVC005 05/04 Q0996",
      "taf": ""
    },
    {
      "icao": "EGGP",
      "alert": "OK",
      "vis_m": 9999,
      "fzfg": false,
      "metar_trigger": false,
      "taf_trigger": false,
      "metar": "METAR EGGP 151250Z 17009KT 9999 FEW039 BKN049 06/05 Q0994",
      "taf": "TAF EGGP 151059Z 1512/1612 17010KT 9999 FEW025"
    },
    {
      "icao": "EGGW",
      "alert": "OK",
      "vis_m": 9999,
      "fzfg": false,
      "metar_trigger": false,
      "taf_trigger": false,
      "metar": "METAR EGGW 151250Z AUTO 17009KT 9999 -RA BKN006/// //////CB 04/04 Q0997",
      "taf": "TAF EGGW 151102Z 1512/1612 17012KT 9999 BKN006"
    },
    {
      "icao": "EGKK",
      "alert": "OK",
      "vis_m": 7000,
      "fzfg": false,
      "metar_trigger": false,
      "taf_trigger": false,
      "metar": "METAR EGKK 151250Z 19005KT 150V210 7000 -RA BKN007 06/05 Q0999",
      "taf": "TAF EGKK 151054Z 1512/1618 17012KT 9999 SCT018"
    },
    {
      "icao": "EGNM",
      "alert": "OK",
      "vis_m": 9999,
      "fzfg": false,
      "metar_trigger": false,
      "taf_trigger": false,
      "metar": "METAR EGNM 151250Z 16004KT 120V190 9999 BKN010 03/03 Q0994",
      "taf": "TAF EGNM 151058Z 1512/1612 17008KT 9999 SCT015"
    },
    {
      "icao": "EGPD",
      "alert": "OK",
      "vis_m": 9999,
      "fzfg": false,
      "metar_trigger": false,
      "taf_trigger": false,
      "metar": "METAR EGPD 151250Z AUTO 20011KT 9999 NCD 07/03 Q0990 TEMPO BKN014",
      "taf": "TAF EGPD 151107Z 1512/1612 17008KT 9999 SCT020"
    },
    {
      "icao": "EGPF",
      "alert": "OK",
      "vis_m": 6000,
      "fzfg": false,
      "metar_trigger": false,
      "taf_trigger": false,
      "metar": "METAR EGPF 151250Z COR 31007KT 6000 RA FEW008CB BKN012 OVC021 06/05 Q0989",
      "taf": "TAF EGPF 151058Z 1512/1612 16006KT 9999 FEW015 SCT030"
    },
    {
      "icao": "EHBK",
      "alert": "OK",
      "vis_m": 9999,
      "fzfg": false,
      "metar_trigger": false,
      "taf_trigger": false,
      "metar": "METAR EHBK 151255Z AUTO 18016KT 130V220 9999 NSC 03/M03 Q1009 NOSIG",
      "taf": "TAF EHBK 151110Z 1512/1618 17010KT CAVOK"
    },
    {
      "icao": "EHEH",
      "alert": "OK",
      "vis_m": 9999,
      "fzfg": false,
      "metar_trigger": false,
      "taf_trigger": false,
      "metar": "METAR EHEH 151255Z AUTO 17016KT 120V200 9999 FEW031 OVC120 04/M03 Q1009 BLU TEMPO SCT030 RMK TREND REMOTE BY EHWX",
      "taf": "TAF EHEH 151124Z 1512/1618 16010G20KT CAVOK"
    },
    {
      "icao": "EKBI",
      "alert": "OK",
      "vis_m": 9999,
      "fzfg": false,
      "metar_trigger": false,
      "taf_trigger": false,
      "metar": "METAR EKBI 151250Z AUTO 14008KT 9999 FEW140/// M02/M07 Q1013",
      "taf": "TAF EKBI 151127Z 1512/1612 15015KT 9999 BKN030"
    },
    {
      "icao": "EKCH",
      "alert": "OK",
      "vis_m": 9999,
      "fzfg": false,
      "metar_trigger": false,
      "taf_trigger": false,
      "metar": "METAR EKCH 151250Z AUTO 16011KT 9999 FEW032/// M01/M09 Q1018 NOSIG",
      "taf": "TAF EKCH 151127Z 1512/1612 15012KT CAVOK"
    },
    {
      "icao": "ENAL",
      "alert": "OK",
      "vis_m": 9999,
      "fzfg": false,
      "metar_trigger": false,
      "taf_trigger": false,
      "metar": "METAR ENAL 151250Z 18012KT CAVOK 04/M07 Q0999",
      "taf": "TAF ENAL 151100Z 1512/1521 17015KT CAVOK"
    },
    {
      "icao": "ENBR",
      "alert": "OK",
      "vis_m": 9999,
      "fzfg": false,
      "metar_trigger": false,
      "taf_trigger": false,
      "metar": "METAR ENBR 151250Z 14018G28KT 9999 BKN034 03/M03 Q1001 NOSIG RMK WIND 1200FT 14034KT",
      "taf": "TAF ENBR 151100Z 1512/1612 14018KT 9999 SCT012 BKN020"
    },
    {
      "icao": "ENGM",
      "alert": "OK",
      "vis_m": 4400,
      "fzfg": false,
      "metar_trigger": false,
      "taf_trigger": false,
      "metar": "METAR ENGM 151250Z 35002KT 4400 -SN FEW003 OVC010 M13/M15 Q1011 TEMPO 2000 -SN BKN006",
      "taf": ""
    },
    {
      "icao": "ENHD",
      "alert": "OK",
      "vis_m": 9999,
      "fzfg": false,
      "metar_trigger": false,
      "taf_trigger": false,
      "metar": "METAR ENHD 151250Z 15019G29KT 9999 -SHRASN SCT010 BKN022 02/00 Q1002",
      "taf": "TAF ENHD 151100Z 1512/1521 14018KT 9999 SCT010 BKN030"
    },
    {
      "icao": "ENTC",
      "alert": "OK",
      "vis_m": 3300,
      "fzfg": false,
      "metar_trigger": false,
      "taf_trigger": false,
      "metar": "METAR ENTC 151250Z 18014KT 3300 -SHSN VV008 M03/M05 Q1001 TEMPO 0700 SHSN BKN006 RMK WIND 2600FT 21018KT",
      "taf": "TAF ENTC 151100Z 1512/1612 21020KT 9999 FEW012 BKN030"
    },
    {
      "icao": "ENTO",
      "alert": "OK",
      "vis_m": 9999,
      "fzfg": false,
      "metar_trigger": false,
      "taf_trigger": false,
      "metar": "METAR ENTO 151250Z 17015KT 9999 OVC006 M02/M02 Q1011 RESN NOSIG",
      "taf": ""
    },
    {
      "icao": "ENVA",
      "alert": "OK",
      "vis_m": 9999,
      "fzfg": false,
      "metar_trigger": false,
      "taf_trigger": false,
      "metar": "METAR ENVA 151250Z 13006KT 100V170 CAVOK M01/M13 Q1004 NOSIG RMK WIND 670FT 16016KT",
      "taf": "TAF ENVA 151100Z 1512/1612 08008KT CAVOK"
    },
    {
      "icao": "ENZV",
      "alert": "OK",
      "vis_m": 9999,
      "fzfg": false,
      "metar_trigger": false,
      "taf_trigger": false,
      "metar": "METAR ENZV 151250Z 15018KT 9999 VCSH FEW007 SCT021 03/00 Q1003 TEMPO 2000 SHRASN VV012",
      "taf": "TAF ENZV 151100Z 1512/1612 17018KT 9999 SCT015CB BKN035"
    },
    {
      "icao": "EPGD",
      "alert": "OK",
      "vis_m": 9999,
      "fzfg": false,
      "metar_trigger": false,
      "taf_trigger": false,
      "metar": "METAR EPGD 151300Z 04006KT CAVOK M04/M10 Q1018",
      "taf": "TAF EPGD 151130Z 1512/1612 06010KT CAVOK"
    },
    {
      "icao": "EPKK",
      "alert": "OK",
      "vis_m": 9999,
      "fzfg": false,
      "metar_trigger": false,
      "taf_trigger": false,
      "metar": "METAR EPKK 151300Z 35007KT 310V040 9999 BKN014 M03/M06 Q1013",
      "taf": "TAF EPKK 151130Z 1512/1612 35007KT 6000 OVC030"
    },
    {
      "icao": "EPKT",
      "alert": "OK",
      "vis_m": 9999,
      "fzfg": false,
      "metar_trigger": false,
      "taf_trigger": false,
      "metar": "METAR EPKT 151300Z 35010KT 9999 OVC020 M04/M08 Q1013",
      "taf": "TAF EPKT 151130Z 1512/1612 35012KT 9999 OVC020"
    },
    {
      "icao": "EPLB",
      "alert": "OK",
      "vis_m": 3800,
      "fzfg": false,
      "metar_trigger": false,
      "taf_trigger": false,
      "metar": "METAR EPLB 151300Z 35007KT 320V030 3800 -SN BR SCT011 BKN027 OVC041 M07/M09 Q1013",
      "taf": "TAF EPLB 151130Z 1512/1612 01010KT 4000 -SN BR SCT010 BKN020"
    },
    {
      "icao": "EPMO",
      "alert": "OK",
      "vis_m": 9999,
      "fzfg": false,
      "metar_trigger": false,
      "taf_trigger": false,
      "metar": "METAR EPMO 151300Z 02009KT 9999 FEW021 M06/M09 Q1016",
      "taf": "TAF EPMO 151130Z 1512/1612 02010KT 9999 BKN020"
    },
    {
      "icao": "EPPO",
      "alert": "OK",
      "vis_m": 9999,
      "fzfg": false,
      "metar_trigger": false,
      "taf_trigger": false,
      "metar": "METAR EPPO 151300Z 01008KT 9999 -SN OVC032 M02/M08 Q1017",
      "taf": "TAF EPPO 151130Z 1512/1612 35010KT 9999 BKN040"
    },
    {
      "icao": "EPRA",
      "alert": "OK",
      "vis_m": 9999,
      "fzfg": false,
      "metar_trigger": false,
      "taf_trigger": false,
      "metar": "METAR EPRA 151300Z 34011KT 9999 OVC014 M06/M11 Q1013",
      "taf": "TAF EPRA 151130Z 1512/1521 35010KT 9999 OVC012"
    },
    {
      "icao": "EPRZ",
      "alert": "OK",
      "vis_m": 3000,
      "fzfg": false,
      "metar_trigger": false,
      "taf_trigger": false,
      "metar": "METAR EPRZ 151300Z 32011KT 3000 -SN BR FEW006 BKN020 M05/M07 Q1012",
      "taf": ""
    },
    {
      "icao": "EPSC",
      "alert": "OK",
      "vis_m": 9999,
      "fzfg": false,
      "metar_trigger": false,
      "taf_trigger": false,
      "metar": "METAR EPSC 151300Z 05003KT 020V100 9999 BKN039 M00/M09 Q1018",
      "taf": "TAF EPSC 151130Z 1512/1612 36007KT 9999 BKN035"
    },
    {
      "icao": "EPSY",
      "alert": "OK",
      "vis_m": 9999,
      "fzfg": false,
      "metar_trigger": false,
      "taf_trigger": false,
      "metar": "METAR EPSY 151300Z 36009KT CAVOK M06/M11 Q1016",
      "taf": "TAF EPSY 151130Z 1512/1521 01010KT CAVOK"
    },
    {
      "icao": "EPWA",
      "alert": "OK",
      "vis_m": 9999,
      "fzfg": false,
      "metar_trigger": false,
      "taf_trigger": false,
      "metar": "METAR EPWA 151300Z 36008KT 330V050 9999 BKN020 M06/M10 Q1015 NOSIG",
      "taf": "TAF EPWA 151130Z 1512/1612 01010KT 9999 BKN020"
    },
    {
      "icao": "EPWR",
      "alert": "OK",
      "vis_m": 9999,
      "fzfg": false,
      "metar_trigger": false,
      "taf_trigger": false,
      "metar": "METAR EPWR 151300Z 32009G19KT 9999 OVC033 M02/M10 Q1017",
      "taf": "TAF EPWR 151130Z 1512/1612 34010KT 9999 BKN030"
    },
    {
      "icao": "ESGG",
      "alert": "OK",
      "vis_m": 9999,
      "fzfg": false,
      "metar_trigger": false,
      "taf_trigger": false,
      "metar": "METAR ESGG 151250Z 19011KT 9999 BKN046 M03/M07 Q1014",
      "taf": "TAF ESGG 151130Z 1512/1612 17012KT 9999 SCT030 BKN045"
    },
    {
      "icao": "ESKN",
      "alert": "OK",
      "vis_m": 9999,
      "fzfg": false,
      "metar_trigger": false,
      "taf_trigger": false,
      "metar": "METAR ESKN 151250Z 24008KT 9999 FEW017 M05/M09 Q1017",
      "taf": "TAF ESKN 151130Z 1512/1612 22007KT 9999 FEW020"
    },
    {
      "icao": "ESMS",
      "alert": "OK",
      "vis_m": 9999,
      "fzfg": false,
      "metar_trigger": false,
      "taf_trigger": false,
      "metar": "METAR ESMS 151250Z 16009KT 9999 FEW034 M02/M09 Q1017",
      "taf": "TAF ESMS 151127Z 1512/1612 15008KT CAVOK"
    },
    {
      "icao": "ESSA",
      "alert": "OK",
      "vis_m": 9999,
      "fzfg": false,
      "metar_trigger": false,
      "taf_trigger": false,
      "metar": "METAR ESSA 151250Z 27011KT 9999 BKN010 M08/M10 Q1016 NOSIG",
      "taf": "TAF ESSA 151130Z 1512/1612 24009KT 9999 SCT020"
    },
    {
      "icao": "EYKA",
      "alert": "OK",
      "vis_m": 9999,
      "fzfg": false,
      "metar_trigger": false,
      "taf_trigger": false,
      "metar": "METAR EYKA 151250Z 34005KT CAVOK M11/M16 Q1018",
      "taf": "TAF EYKA 151100Z 1512/1612 VRB04KT 9000 NSC"
    },
    {
      "icao": "EYPA",
      "alert": "OK",
      "vis_m": 9999,
      "fzfg": false,
      "metar_trigger": false,
      "taf_trigger": false,
      "metar": "METAR EYPA 151250Z 03002KT CAVOK M04/M21 Q1019",
      "taf": "TAF EYPA 151100Z 1512/1612 VRB02KT 9000 NSC"
    },
    {
      "icao": "EYVI",
      "alert": "OK",
      "vis_m": 9999,
      "fzfg": false,
      "metar_trigger": false,
      "taf_trigger": false,
      "metar": "METAR EYVI 151250Z 35008KT CAVOK M09/M15 Q1016 NOSIG",
      "taf": "TAF EYVI 151100Z 1512/1612 VRB05KT 9000 NSC"
    },
    {
      "icao": "GCFV",
      "alert": "OK",
      "vis_m": 9000,
      "fzfg": false,
      "metar_trigger": false,
      "taf_trigger": false,
      "metar": "METAR GCFV 151300Z 04021KT 9000 FEW025 20/12 Q1025",
      "taf": "TAF GCFV 150800Z 1509/1609 03022KT 9999 FEW025 TX20/1514Z TN15/1606Z"
    },
    {
      "icao": "GCLP",
      "alert": "OK",
      "vis_m": 9999,
      "fzfg": false,
      "metar_trigger": false,
      "taf_trigger": false,
      "metar": "METAR GCLP 151300Z 01024KT 9999 SCT030 20/12 Q1026 NOSIG",
      "taf": "TAF GCLP 150800Z 1509/1609 02024KT 9999 FEW025 TX20/1514Z TN16/1606Z"
    },
    {
      "icao": "GCTS",
      "alert": "OK",
      "vis_m": 9999,
      "fzfg": false,
      "metar_trigger": false,
      "taf_trigger": false,
      "metar": "METAR GCTS 151300Z 07026KT 9999 FEW030 22/07 Q1025 NOSIG",
      "taf": "TAF GCTS 150800Z 1509/1609 08025KT 9999 FEW025 TX24/1514Z TN18/1606Z"
    },
    {
      "icao": "GMAD",
      "alert": "OK",
      "vis_m": 9999,
      "fzfg": false,
      "metar_trigger": false,
      "taf_trigger": false,
      "metar": "METAR GMAD 151300Z 00000KT CAVOK 24/11 Q1024 NOSIG",
      "taf": "TAF GMAD 151100Z 1512/1618 26008KT CAVOK"
    },
    {
      "icao": "GMMN",
      "alert": "OK",
      "vis_m": 9999,
      "fzfg": false,
      "metar_trigger": false,
      "taf_trigger": false,
      "metar": "METAR GMMN 151300Z 05008KT 350V100 CAVOK 16/09 Q1032 NOSIG",
      "taf": "TAF GMMN 151100Z 1512/1618 06009KT CAVOK"
    },
    {
      "icao": "GMMX",
      "alert": "OK",
      "vis_m": 9999,
      "fzfg": false,
      "metar_trigger": false,
      "taf_trigger": false,
      "metar": "METAR GMMX 151300Z 05008KT 360V100 CAVOK 18/04 Q1028 NOSIG",
      "taf": "TAF GMMX 151100Z 1512/1618 24008KT 8000 NSC"
    },
    {
      "icao": "HEGN",
      "alert": "OK",
      "vis_m": 9999,
      "fzfg": false,
      "metar_trigger": false,
      "taf_trigger": false,
      "metar": "METAR HEGN 151200Z 36005KT CAVOK 27/01 Q1016 NOSIG",
      "taf": "TAF HEGN 151100Z 1512/1618 04012KT 6000 NSC"
    },
    {
      "icao": "HEMA",
      "alert": "OK",
      "vis_m": 9999,
      "fzfg": false,
      "metar_trigger": false,
      "taf_trigger": false,
      "metar": "METAR HEMA 151200Z 35018KT CAVOK 27/08 Q1016 NOSIG",
      "taf": "TAF HEMA 151100Z 1512/1618 35010G20KT 6000 NSC"
    },
    {
      "icao": "HESH",
      "alert": "OK",
      "vis_m": 6000,
      "fzfg": false,
      "metar_trigger": false,
      "taf_trigger": false,
      "metar": "METAR HESH 151200Z 01010KT 6000 NSC 27/09 Q1017 NOSIG",
      "taf": "TAF HESH 151100Z 1512/1618 09012KT 6000 NSC"
    },
    {
      "icao": "HESX",
      "alert": "OK",
      "vis_m": 9999,
      "fzfg": false,
      "metar_trigger": false,
      "taf_trigger": false,
      "metar": "METAR HESX 151200Z 11010KT CAVOK 26/M06 Q1017 NOSIG",
      "taf": "TAF HESX 151100Z 1512/1618 20010KT 6000 NSC"
    },
    {
      "icao": "LATI",
      "alert": "OK",
      "vis_m": 9999,
      "fzfg": false,
      "metar_trigger": false,
      "taf_trigger": false,
      "metar": "METAR LATI 151250Z 21007KT 170V250 9999 -RA FEW036 BKN064 14/07 Q1000 NOSIG",
      "taf": "TAF LATI 151100Z 1512/1612 23010KT 9999 -RA SCT030 BKN050 TX15/1612Z TN07/1605Z"
    },
    {
      "icao": "LBPD",
      "alert": "OK",
      "vis_m": 4100,
      "fzfg": false,
      "metar_trigger": false,
      "taf_trigger": false,
      "metar": "METAR LBPD 151300Z AUTO 29020KT 4100 +RA FEW006/// BKN014/// OVC035/// 10/10 Q0999 TEMPO 2000 +RA SCT002 OVC012",
      "taf": ""
    },
    {
      "icao": "LBSF",
      "alert": "OK",
      "vis_m": 9999,
      "fzfg": false,
      "metar_trigger": false,
      "taf_trigger": false,
      "metar": "METAR LBSF 151300Z 10007KT 050V140 9999 SCT040 BKN051 11/08 Q0997 NOSIG",
      "taf": "TAF LBSF 151100Z 1512/1612 18008KT 8000 BKN040"
    },
    {
      "icao": "LBWN",
      "alert": "OK",
      "vis_m": 9999,
      "fzfg": false,
      "metar_trigger": false,
      "taf_trigger": false,
      "metar": "METAR LBWN 151300Z 09009KT 9999 SCT040 14/07 Q1000 NOSIG",
      "taf": "TAF LBWN 151100Z 1512/1612 10010KT 9999 SCT040"
    },
    {
      "icao": "LCLK",
      "alert": "OK",
      "vis_m": 9999,
      "fzfg": false,
      "metar_trigger": false,
      "taf_trigger": false,
      "metar": "METAR LCLK 151300Z 09005KT 050V110 9999 FEW025 20/15 Q1020 NOSIG",
      "taf": "TAF LCLK 151130Z 1512/1612 16010KT 9999 FEW025"
    },
    {
      "icao": "LCPH",
      "alert": "OK",
      "vis_m": 9999,
      "fzfg": false,
      "metar_trigger": false,
      "taf_trigger": false,
      "metar": "METAR LCPH 151300Z 15014KT 9999 FEW030 19/13 Q1019 NOSIG",
      "taf": "TAF LCPH 151130Z 1512/1612 14016KT 9999 FEW020"
    },
    {
      "icao": "LEAL",
      "alert": "OK",
      "vis_m": 9999,
      "fzfg": false,
      "metar_trigger": false,
      "taf_trigger": false,
      "metar": "METAR LEAL 151300Z 29011KT 240V340 CAVOK 18/00 Q1022 NOSIG",
      "taf": "TAF LEAL 151100Z 1512/1612 31020KT CAVOK TX20/1513Z TN13/1606Z"
    },
    {
      "icao": "LEBB",
      "alert": "OK",
      "vis_m": 9999,
      "fzfg": false,
      "metar_trigger": false,
      "taf_trigger": false,
      "metar": "METAR LEBB 151300Z 21010KT 160V260 9999 FEW070 14/05 Q1021 NOSIG",
      "taf": "TAF LEBB 151100Z 1512/1612 20008KT 9999 FEW030 BKN050 TX15/1513Z TN09/1520Z"
    },
    {
      "icao": "LEBL",
      "alert": "OK",
      "vis_m": 9999,
      "fzfg": false,
      "metar_trigger": false,
      "taf_trigger": false,
      "metar": "METAR LEBL 151300Z 20010KT 170V230 CAVOK 12/04 Q1017 NOSIG",
      "taf": "TAF LEBL 151100Z 1512/1612 34008KT 9999 FEW035 TX16/1513Z TN13/1606Z"
    },
    {
      "icao": "LECH",
      "alert": "OK",
      "vis_m": 9999,
      "fzfg": false,
      "metar_trigger": false,
      "taf_trigger": false,
      "metar": "METAR LECH 151300Z AUTO 31014G26KT 260V350 CAVOK 17/01 Q1019",
      "taf": ""
    },
    {
      "icao": "LEMD",
      "alert": "OK",
      "vis_m": 9999,
      "fzfg": false,
      "metar_trigger": false,
      "taf_trigger": false,
      "metar": "METAR LEMD 151300Z 27014G24KT 240V310 CAVOK 13/03 Q1024 NOSIG",
      "taf": "TAF LEMD 151100Z 1512/1618 28012KT 9999 FEW040 TX13/1515Z TNM00/1607Z"
    },
    {
      "icao": "LEMG",
      "alert": "OK",
      "vis_m": 9999,
      "fzfg": false,
      "metar_trigger": false,
      "taf_trigger": false,
      "metar": "METAR LEMG 151300Z 30016KT 270V330 CAVOK 16/04 Q1027 NOSIG",
      "taf": "TAF LEMG 151100Z 1512/1612 30012KT CAVOK TX18/1514Z TN12/1607Z"
    },
    {
      "icao": "LEVC",
      "alert": "OK",
      "vis_m": 9999,
      "fzfg": false,
      "metar_trigger": false,
      "taf_trigger": false,
      "metar": "METAR LEVC 151300Z 27023KT CAVOK 16/00 Q1020 NOSIG",
      "taf": "TAF LEVC 151100Z 1512/1612 30015KT CAVOK TX19/1514Z TN13/1606Z"
    },
    {
      "icao": "LEXJ",
      "alert": "OK",
      "vis_m": 9999,
      "fzfg": false,
      "metar_trigger": false,
      "taf_trigger": false,
      "metar": "METAR LEXJ 151300Z 27009KT 230V300 9999 FEW050 16/05 Q1019",
      "taf": "TAF LEXJ 150800Z 1509/1609 24009KT 9999 SCT050 BKN080 TX15/1513Z TN11/1601Z"
    },
    {
      "icao": "LEZG",
      "alert": "OK",
      "vis_m": 9999,
      "fzfg": false,
      "metar_trigger": false,
      "taf_trigger": false,
      "metar": "METAR LEZG 151300Z 32009KT 290V350 CAVOK 13/03 Q1021 NOSIG",
      "taf": "TAF LEZG 151100Z 1512/1612 30012KT 9999 FEW040 TX16/1512Z TN11/1606Z"
    },
    {
      "icao": "LEZL",
      "alert": "OK",
      "vis_m": 9999,
      "fzfg": false,
      "metar_trigger": false,
      "taf_trigger": false,
      "metar": "METAR LEZL 151300Z 29004KT CAVOK 16/06 Q1030 NOSIG",
      "taf": "TAF LEZL 150800Z 1509/1609 21005KT CAVOK TX18/1515Z TN06/1607Z"
    },
    {
      "icao": "LFBD",
      "alert": "OK",
      "vis_m": 5000,
      "fzfg": false,
      "metar_trigger": false,
      "taf_trigger": false,
      "metar": "METAR LFBD 151300Z AUTO 27016KT 5000 -DZ BR BKN010 OVC016 12/11 Q1015 TEMPO RA BECMG 24015G25KT",
      "taf": "TAF LFBD 151100Z 1512/1618 24010KT 9999 BKN010 TX13/1612Z TN10/1512Z"
    },
    {
      "icao": "LFLL",
      "alert": "OK",
      "vis_m": 9999,
      "fzfg": false,
      "metar_trigger": false,
      "taf_trigger": false,
      "metar": "METAR LFLL 151300Z VRB02KT 9999 SCT046 SCT056 BKN100 05/M03 Q1015 NOSIG",
      "taf": "TAF LFLL 151100Z 1512/1618 16008KT 9999 FEW030 BKN070"
    },
    {
      "icao": "LFLS",
      "alert": "OK",
      "vis_m": 9999,
      "fzfg": false,
      "metar_trigger": false,
      "taf_trigger": false,
      "metar": "METAR LFLS 151300Z AUTO VRB03KT 9999 OVC016 03/M01 Q1015 TEMPO 4000 RA",
      "taf": ""
    },
    {
      "icao": "LFMN",
      "alert": "OK",
      "vis_m": 9999,
      "fzfg": false,
      "metar_trigger": false,
      "taf_trigger": false,
      "metar": "METAR LFMN 151300Z 19006KT CAVOK 15/05 Q1007 NOSIG",
      "taf": "TAF LFMN 150800Z 1509/1615 34010KT CAVOK"
    },
    {
      "icao": "LFOB",
      "alert": "OK",
      "vis_m": 6000,
      "fzfg": false,
      "metar_trigger": false,
      "taf_trigger": false,
      "metar": "METAR LFOB 151300Z AUTO 16013KT 6000 -RA OVC006 02/02 Q1004 TEMPO 2000 RASN",
      "taf": "TAF LFOB 151100Z 1512/1612 17012KT 9999 OVC010"
    },
    {
      "icao": "LFPO",
      "alert": "OK",
      "vis_m": 3500,
      "fzfg": false,
      "metar_trigger": false,
      "taf_trigger": false,
      "metar": "METAR LFPO 151300Z 17011KT 3500 -RADZ BKN006 02/01 Q1006 NOSIG",
      "taf": "TAF LFPO 151100Z 1512/1618 17011KT 8000 BKN007"
    },
    {
      "icao": "LFSB",
      "alert": "OK",
      "vis_m": 9999,
      "fzfg": false,
      "metar_trigger": false,
      "taf_trigger": false,
      "metar": "METAR LFSB 151300Z AUTO 14003KT 080V210 9999 SCT021 SCT031 BKN045 05/M00 Q1013 NOSIG",
      "taf": "TAF LFSB 151100Z 1512/1612 VRB03KT 9999 BKN040"
    },
    {
      "icao": "LGAV",
      "alert": "OK",
      "vis_m": 4000,
      "fzfg": false,
      "metar_trigger": false,
      "taf_trigger": false,
      "metar": "METAR LGAV 151250Z 21023KT 4000 DU FEW020 18/13 Q1003 NOSIG",
      "taf": "TAF LGAV 151100Z 1512/1612 19028G40KT 9000 FEW020 SCT070"
    },
    {
      "icao": "LGTS",
      "alert": "OK",
      "vis_m": 9999,
      "fzfg": false,
      "metar_trigger": false,
      "taf_trigger": false,
      "metar": "METAR LGTS 151250Z 15008KT 9999 FEW018 18/12 Q0998 NOSIG",
      "taf": "TAF LGTS 151100Z 1512/1612 20013KT 9999 FEW025"
    },
    {
      "icao": "LHBP",
      "alert": "OK",
      "vis_m": 9999,
      "fzfg": false,
      "metar_trigger": false,
      "taf_trigger": false,
      "metar": "METAR LHBP 151300Z 33016KT 9999 VCSH BKN029 04/M04 Q1006 NOSIG",
      "taf": "TAF LHBP 151115Z 1512/1612 31015G25KT CAVOK"
    },
    {
      "icao": "LHDC",
      "alert": "OK",
      "vis_m": 9999,
      "fzfg": false,
      "metar_trigger": false,
      "taf_trigger": false,
      "metar": "METAR LHDC 151245Z AUTO 01021G31KT 340V050 9999 -DZ OVC037 01/M03 Q1003 NOSIG",
      "taf": "TAF LHDC 151115Z 1512/1521 01020G32KT 9999 BKN040"
    },
    {
      "icao": "LIBD",
      "alert": "OK",
      "vis_m": 9999,
      "fzfg": false,
      "metar_trigger": false,
      "taf_trigger": false,
      "metar": "METAR LIBD 151250Z 31009KT 270V350 9999 SCT020 BKN035 11/09 Q1000",
      "taf": "TAF LIBD 151100Z 1512/1612 27015KT 9999 SCT030"
    },
    {
      "icao": "LIBG",
      "alert": "OK",
      "vis_m": 9999,
      "fzfg": false,
      "metar_trigger": false,
      "taf_trigger": false,
      "metar": "METAR LIBG 151250Z 29009KT 9999 SCT030 14/08 Q1000",
      "taf": "TAF LIBG 151100Z 1512/1521 31012KT 9999 SCT040"
    },
    {
      "icao": "LIBP",
      "alert": "OK",
      "vis_m": 9999,
      "fzfg": false,
      "metar_trigger": false,
      "taf_trigger": false,
      "metar": "METAR LIBP 151250Z AUTO 31007KT 280V010 9999 -RA OVC049/// 11/08 Q1005",
      "taf": "TAF LIBP 151100Z 1512/1612 31012KT 9999 BKN030"
    },
    {
      "icao": "LIBR",
      "alert": "OK",
      "vis_m": 9999,
      "fzfg": false,
      "metar_trigger": false,
      "taf_trigger": false,
      "metar": "METAR LIBR 151250Z 24013KT 9999 FEW045 14/07 Q1000",
      "taf": "TAF LIBR 151100Z 1512/1612 29015KT 9999 SCT030"
    },
    {
      "icao": "LICA",
      "alert": "OK",
      "vis_m": 9999,
      "fzfg": false,
      "metar_trigger": false,
      "taf_trigger": false,
      "metar": "METAR LICA 151250Z AUTO 26010KT 9999 OVC074/// 15/11 Q1001",
      "taf": "TAF LICA 151100Z 1512/1612 28014KT 9999 OVC060"
    },
    {
      "icao": "LICC",
      "alert": "OK",
      "vis_m": 9999,
      "fzfg": false,
      "metar_trigger": false,
      "taf_trigger": false,
      "metar": "METAR LICC 151250Z 27005KT 9999 -RA FEW020 BKN050 14/11 Q1001",
      "taf": "TAF LICC 151100Z 1512/1612 27010KT 9999 SCT020"
    },
    {
      "icao": "LICJ",
      "alert": "OK",
      "vis_m": 9999,
      "fzfg": false,
      "metar_trigger": false,
      "taf_trigger": false,
      "metar": "METAR LICJ 151250Z 32014KT 9999 FEW020 BKN030 15/11 Q1005",
      "taf": "TAF LICJ 151100Z 1512/1612 31016KT 9999 RA SCT030"
    },
    {
      "icao": "LIMC",
      "alert": "OK",
      "vis_m": 9999,
      "fzfg": false,
      "metar_trigger": false,
      "taf_trigger": false,
      "metar": "METAR LIMC 151250Z VRB03KT CAVOK 16/M10 Q1006 NOSIG",
      "taf": "TAF LIMC 151100Z 1512/1618 01012KT CAVOK"
    },
    {
      "icao": "LIME",
      "alert": "OK",
      "vis_m": 9999,
      "fzfg": false,
      "metar_trigger": false,
      "taf_trigger": false,
      "metar": "METAR LIME 151250Z AUTO 18004KT 140V220 9999 NCD 14/01 Q1006",
      "taf": "TAF LIME 151100Z 1512/1612 VRB05KT CAVOK"
    },
    {
      "icao": "LIMF",
      "alert": "OK",
      "vis_m": null,
      "fzfg": false,
      "metar_trigger": false,
      "taf_trigger": false,
      "metar": "METAR LIMF 151250Z AUTO 20008KT //// // NCD 14/M01 Q1006",
      "taf": "TAF LIMF 151100Z 1512/1612 VRB05KT CAVOK"
    },
    {
      "icao": "LIMJ",
      "alert": "OK",
      "vis_m": 9999,
      "fzfg": false,
      "metar_trigger": false,
      "taf_trigger": false,
      "metar": "METAR LIMJ 151250Z 04010KT 360V070 CAVOK 17/M06 Q1006",
      "taf": "TAF LIMJ 151100Z 1512/1612 03013KT CAVOK"
    },
    {
      "icao": "LIPE",
      "alert": "OK",
      "vis_m": 9999,
      "fzfg": false,
      "metar_trigger": false,
      "taf_trigger": false,
      "metar": "METAR LIPE 151250Z 27007KT 240V310 9999 FEW020 14/07 Q1007",
      "taf": "TAF LIPE 151100Z 1512/1612 VRB05KT 9999 SCT040"
    },
    {
      "icao": "LIPH",
      "alert": "OK",
      "vis_m": 9999,
      "fzfg": false,
      "metar_trigger": false,
      "taf_trigger": false,
      "metar": "METAR LIPH 151250Z 36005KT 300V080 CAVOK 16/02 Q1005",
      "taf": "TAF LIPH 151100Z 1512/1612 08008KT 9999 SCT020"
    },
    {
      "icao": "LIPQ",
      "alert": "OK",
      "vis_m": 9999,
      "fzfg": false,
      "metar_trigger": false,
      "taf_trigger": false,
      "metar": "METAR LIPQ 151250Z AUTO 18004KT 150V220 9999 OVC096/// 14/01 Q1006",
      "taf": "TAF LIPQ 151100Z 1512/1612 VRB05KT 9999 SCT040"
    },
    {
      "icao": "LIPR",
      "alert": "OK",
      "vis_m": 9999,
      "fzfg": false,
      "metar_trigger": false,
      "taf_trigger": false,
      "metar": "METAR LIPR 151250Z 31008KT 9999 FEW010 BKN070 12/09 Q1006",
      "taf": "TAF LIPR 151100Z 1512/1612 35010KT 9999 BKN030"
    },
    {
      "icao": "LIPX",
      "alert": "OK",
      "vis_m": 9999,
      "fzfg": false,
      "metar_trigger": false,
      "taf_trigger": false,
      "metar": "METAR LIPX 151250Z 25005KT 190V290 CAVOK 16/M05 Q1006",
      "taf": "TAF LIPX 151100Z 1512/1612 VRB05KT 9999 FEW050"
    },
    {
      "icao": "LIPY",
      "alert": "OK",
      "vis_m": 9999,
      "fzfg": false,
      "metar_trigger": false,
      "taf_trigger": false,
      "metar": "METAR LIPY 151250Z AUTO 33009KT 9999 FEW022/// BKN028/// BKN100/// 11/09 Q1006",
      "taf": "TAF LIPY 151100Z 1512/1612 01016KT 9999 SCT040"
    },
    {
      "icao": "LIPZ",
      "alert": "OK",
      "vis_m": 9999,
      "fzfg": false,
      "metar_trigger": false,
      "taf_trigger": false,
      "metar": "METAR LIPZ 151250Z 14008KT 9999 FEW030 13/02 Q1006 NOSIG",
      "taf": "TAF LIPZ 151100Z 1512/1618 VRB05KT 9999 SCT030"
    },
    {
      "icao": "LIRF",
      "alert": "OK",
      "vis_m": 9999,
      "fzfg": false,
      "metar_trigger": false,
      "taf_trigger": false,
      "metar": "METAR LIRF 151250Z 34013KT 9999 FEW045 16/07 Q1003 NOSIG",
      "taf": "TAF LIRF 151100Z 1512/1618 35012KT CAVOK"
    },
    {
      "icao": "LIRN",
      "alert": "OK",
      "vis_m": 9999,
      "fzfg": false,
      "metar_trigger": false,
      "taf_trigger": false,
      "metar": "METAR LIRN 151250Z 31004KT 240V360 9999 SCT070 14/09 Q1003 NOSIG",
      "taf": "TAF LIRN 151100Z 1512/1612 VRB06KT 9999 BKN080"
    },
    {
      "icao": "LIRP",
      "alert": "OK",
      "vis_m": 9999,
      "fzfg": false,
      "metar_trigger": false,
      "taf_trigger": false,
      "metar": "METAR LIRP 151245Z 22004KT 9999 FEW040 16/05 Q1006 NOSIG",
      "taf": "TAF LIRP 151100Z 1512/1612 VRB03KT 9999 FEW080"
    },
    {
      "icao": "LIRZ",
      "alert": "OK",
      "vis_m": 9999,
      "fzfg": false,
      "metar_trigger": false,
      "taf_trigger": false,
      "metar": "METAR LIRZ 151250Z AUTO 05015KT 9999 BKN043/// 12/04 Q1005",
      "taf": "TAF LIRZ 150500Z 1506/1606 02011KT 9999 FEW030"
    },
    {
      "icao": "LJLJ",
      "alert": "OK",
      "vis_m": 9999,
      "fzfg": false,
      "metar_trigger": false,
      "taf_trigger": false,
      "metar": "METAR LJLJ 151300Z 34007KT 310V040 9999 FEW035 BKN110 09/M04 Q1007 NOSIG",
      "taf": "TAF LJLJ 151100Z 1512/1612 02006KT 9999 FEW065"
    },
    {
      "icao": "LKMT",
      "alert": "OK",
      "vis_m": 9999,
      "fzfg": false,
      "metar_trigger": false,
      "taf_trigger": false,
      "metar": "METAR LKMT 151300Z 36012KT 9999 -SN OVC015 M03/M05 Q1014 NOSIG",
      "taf": "TAF LKMT 151100Z 1512/1612 01012KT 9999 SCT015 OVC022"
    },
    {
      "icao": "LKPR",
      "alert": "OK",
      "vis_m": 9999,
      "fzfg": false,
      "metar_trigger": false,
      "taf_trigger": false,
      "metar": "METAR LKPR 151300Z 30004KT 260V330 9999 BKN030 M02/M08 Q1015 NOSIG",
      "taf": "TAF LKPR 151100Z 1512/1618 34010KT 9999 OVC035"
    },
    {
      "icao": "LLBG",
      "alert": "OK",
      "vis_m": 8000,
      "fzfg": false,
      "metar_trigger": false,
      "taf_trigger": false,
      "metar": "METAR LLBG 151250Z VRB04KT 8000 NSC 25/10 Q1018 NOSIG",
      "taf": "TAF LLBG 151104Z 1512/1612 34010KT 7000 NSC"
    },
    {
      "icao": "LMML",
      "alert": "OK",
      "vis_m": 9999,
      "fzfg": false,
      "metar_trigger": false,
      "taf_trigger": false,
      "metar": "METAR LMML 151245Z 26019G29KT 9999 -SHRA FEW010 SCT018 14/12 Q1005 NOSIG",
      "taf": "TAF LMML 151100Z 1512/1612 25020G30KT 9999 SCT020"
    },
    {
      "icao": "LOWW",
      "alert": "OK",
      "vis_m": 9999,
      "fzfg": false,
      "metar_trigger": false,
      "taf_trigger": false,
      "metar": "METAR LOWW 151250Z 32020KT 9999 FEW030 SCT034 BKN038 00/M07 Q1014 NOSIG",
      "taf": "TAF LOWW 151115Z 1512/1618 34010KT 9999 FEW030 BKN040 TX00/1512Z TNM06/1602Z"
    },
    {
      "icao": "LPFR",
      "alert": "OK",
      "vis_m": 9999,
      "fzfg": false,
      "metar_trigger": false,
      "taf_trigger": false,
      "metar": "METAR LPFR 151300Z 30011KT 9999 FEW028 16/09 Q1032",
      "taf": "TAF LPFR 151100Z 1512/1612 30008KT 9999 SCT025"
    },
    {
      "icao": "LPMA",
      "alert": "OK",
      "vis_m": 9999,
      "fzfg": false,
      "metar_trigger": false,
      "taf_trigger": false,
      "metar": "METAR LPMA 151300Z 02016KT 9999 FEW020 18/09 Q1032",
      "taf": "TAF LPMA 151100Z 1512/1612 02015KT 9999 SCT015"
    },
    {
      "icao": "LPPR",
      "alert": "OK",
      "vis_m": 9999,
      "fzfg": false,
      "metar_trigger": false,
      "taf_trigger": false,
      "metar": "METAR LPPR 151300Z 24009KT 9999 FEW007 BKN040 14/12 Q1029",
      "taf": "TAF LPPR 151100Z 1512/1612 22010KT 9999 SCT012 BKN025"
    },
    {
      "icao": "LPPS",
      "alert": "OK",
      "vis_m": 9999,
      "fzfg": false,
      "metar_trigger": false,
      "taf_trigger": false,
      "metar": "METAR LPPS 151300Z 07015KT 9999 SCT015 17/11 Q1033",
      "taf": "TAF LPPS 151100Z 1512/1618 06012KT 9999 SCT015"
    },
    {
      "icao": "LPPT",
      "alert": "OK",
      "vis_m": 9999,
      "fzfg": false,
      "metar_trigger": false,
      "taf_trigger": false,
      "metar": "METAR LPPT 151300Z 29006KT 260V320 9999 FEW020 SCT025 BKN035 15/09 Q1032",
      "taf": "TAF LPPT 151100Z 1512/1618 29012KT 9999 SCT025"
    },
    {
      "icao": "LQBK",
      "alert": "OK",
      "vis_m": 5000,
      "fzfg": false,
      "metar_trigger": false,
      "taf_trigger": false,
      "metar": "METAR LQBK 151300Z 27010KT 5000 -SN BR BKN013 OVC027 02/01 Q1010 NOSIG",
      "taf": "TAF LQBK 151100Z 1512/1612 36010KT 6000 SCT012 BKN025 TX04/1612Z TNM05/1606Z"
    },
    {
      "icao": "LQSA",
      "alert": "OK",
      "vis_m": 9999,
      "fzfg": false,
      "metar_trigger": false,
      "taf_trigger": false,
      "metar": "METAR LQSA 151300Z 31008KT 280V340 9999 -RA SCT013 BKN018 OVC030 02/02 Q1006 NOSIG",
      "taf": "TAF LQSA 151100Z 1512/1612 28007KT 5000 -SN BR SCT018 BKN035 TX04/1612Z TNM04/1605Z"
    },
    {
      "icao": "LQTZ",
      "alert": "OK",
      "vis_m": 2500,
      "fzfg": false,
      "metar_trigger": false,
      "taf_trigger": false,
      "metar": "METAR LQTZ 151300Z 29009KT 2500 -SN OVC005 01/01 Q1007",
      "taf": ""
    },
    {
      "icao": "LRBC",
      "alert": "OK",
      "vis_m": 2500,
      "fzfg": false,
      "metar_trigger": false,
      "taf_trigger": false,
      "metar": "METAR LRBC 151300Z 34008KT 2500 RA BR OVC003 05/04 Q1001",
      "taf": "TAF LRBC 151100Z 1512/1521 33010KT 3000 -RA BR BKN005 OVC020"
    },
    {
      "icao": "LRBS",
      "alert": "OK",
      "vis_m": 3000,
      "fzfg": false,
      "metar_trigger": false,
      "taf_trigger": false,
      "metar": "METAR LRBS 151300Z 06005KT 3000 -RA BR NSC 09/09 Q0998 NOSIG",
      "taf": "TAF LRBS 151100Z 1512/1612 05005KT 5000 -RA SCT010 SCT045"
    },
    {
      "icao": "LRBV",
      "alert": "OK",
      "vis_m": 9999,
      "fzfg": false,
      "metar_trigger": false,
      "taf_trigger": false,
      "metar": "METAR LRBV 151300Z 16003KT 9999 -RA BKN043 OVC055 07/06 Q0998",
      "taf": "TAF LRBV 151100Z 1512/1521 VRB04KT 9999 SCT035 BKN055"
    },
    {
      "icao": "LRCL",
      "alert": "OK",
      "vis_m": 5000,
      "fzfg": false,
      "metar_trigger": false,
      "taf_trigger": false,
      "metar": "METAR LRCL 151300Z 23001KT 5000 -RA BR BKN005 OVC023 06/05 Q1000",
      "taf": "TAF LRCL 151100Z 1512/1521 VRB04KT 9999 BKN035"
    },
    {
      "icao": "LRCV",
      "alert": "OK",
      "vis_m": 6000,
      "fzfg": false,
      "metar_trigger": false,
      "taf_trigger": false,
      "metar": "METAR LRCV 151300Z 08005KT 6000 BKN004 BKN040 09/09 Q0998",
      "taf": "TAF LRCV 151100Z 1512/1521 08010KT 3000 -RA BR BKN040"
    },
    {
      "icao": "LRIA",
      "alert": "OK",
      "vis_m": 2000,
      "fzfg": false,
      "metar_trigger": false,
      "taf_trigger": false,
      "metar": "METAR LRIA 151300Z 30003KT 270V330 2000 -RA BR OVC002 05/05 Q1001 RERA",
      "taf": ""
    },
    {
      "icao": "LROP",
      "alert": "OK",
      "vis_m": 4000,
      "fzfg": false,
      "metar_trigger": false,
      "taf_trigger": false,
      "metar": "METAR LROP 151300Z 06006KT 4000 -RA BR OVC049 09/09 Q0998 NOSIG",
      "taf": "TAF LROP 151100Z 1512/1612 05010KT 3000 -RA SCT010 SCT035"
    },
    {
      "icao": "LRSB",
      "alert": "OK",
      "vis_m": 9999,
      "fzfg": false,
      "metar_trigger": false,
      "taf_trigger": false,
      "metar": "METAR LRSB 151300Z 31006KT 9999 BKN010 SCT078 07/06 Q0998",
      "taf": "TAF LRSB 151100Z 1512/1612 32010KT 9999 BKN050"
    },
    {
      "icao": "LRSM",
      "alert": "OK",
      "vis_m": 9999,
      "fzfg": false,
      "metar_trigger": false,
      "taf_trigger": false,
      "metar": "METAR LRSM 151300Z 34012KT 9999 -RA OVC033 05/02 Q1002",
      "taf": "TAF LRSM 151100Z 1512/1521 34013KT 9999 BKN040"
    },
    {
      "icao": "LRSV",
      "alert": "OK",
      "vis_m": 2000,
      "fzfg": false,
      "metar_trigger": false,
      "taf_trigger": false,
      "metar": "METAR LRSV 151300Z AUTO 31016KT 2000 R16////// R34/P2000 -SN FEW006/// OVC025/// 00/M00 Q1001",
      "taf": ""
    },
    {
      "icao": "LRTM",
      "alert": "OK",
      "vis_m": 5000,
      "fzfg": false,
      "metar_trigger": false,
      "taf_trigger": false,
      "metar": "METAR LRTM 151300Z 25005KT 230V300 5000 -RA BR SCT007 BKN042 BKN048 06/06 Q0999",
      "taf": "TAF LRTM 151100Z 1512/1521 VRB04KT 9999 BKN045"
    },
    {
      "icao": "LRTR",
      "alert": "OK",
      "vis_m": 9999,
      "fzfg": false,
      "metar_trigger": false,
      "taf_trigger": false,
      "metar": "METAR LRTR 151300Z 36018KT 9999 -RA FEW006 BKN009 BKN035 04/04 Q1000",
      "taf": "TAF LRTR 151100Z 1512/1612 36015KT 9999 BKN045"
    },
    {
      "icao": "LTAC",
      "alert": "OK",
      "vis_m": 9999,
      "fzfg": false,
      "metar_trigger": false,
      "taf_trigger": false,
      "metar": "METAR LTAC 151250Z 15006KT 120V190 CAVOK 14/04 Q1015 NOSIG RMK RWY21C 14009KT RWY03L 14009KT RWY21R 13009KT RWY03R 13008KT 100V160 RWY21L 14008KT",
      "taf": "TAF LTAC 151040Z 1512/1612 VRB02KT CAVOK"
    },
    {
      "icao": "LTFM",
      "alert": "OK",
      "vis_m": 9999,
      "fzfg": false,
      "metar_trigger": false,
      "taf_trigger": false,
      "metar": "METAR LTFM 151250Z 19015KT CAVOK 22/04 Q1002 NOSIG RMK RWY17L 19016KT RWY34L 18015KT RWY16R 19014KT RWY36 19014KT RWY18 20016KT",
      "taf": "TAF LTFM 151040Z 1512/1618 18022G38KT CAVOK"
    },
    {
      "icao": "LUKK",
      "alert": "OK",
      "vis_m": 650,
      "fzfg": false,
      "metar_trigger": false,
      "taf_trigger": false,
      "metar": "METAR LUKK 151300Z 12003KT 0650 0350S R08/0550N RA FG VV006 06/06 Q1001 TEMPO 0600 -RA FG VV002",
      "taf": "TAF LUKK 151129Z 1512/1612 VRB05KT 2000 -RA BR OVC005"
    },
    {
      "icao": "LWOH",
      "alert": "OK",
      "vis_m": 9999,
      "fzfg": false,
      "metar_trigger": false,
      "taf_trigger": false,
      "metar": "METAR LWOH 151250Z 23009KT 9999 -RA FEW020 BKN040 08/06 Q1000",
      "taf": "TAF LWOH 151110Z 1512/1612 22010KT 9999 FEW020 BKN040"
    },
    {
      "icao": "LWSK",
      "alert": "OK",
      "vis_m": 9999,
      "fzfg": false,
      "metar_trigger": false,
      "taf_trigger": false,
      "metar": "METAR LWSK 151250Z VRB02KT 9999 SCT050 13/08 Q0998 NOSIG",
      "taf": "TAF LWSK 151110Z 1512/1612 31008KT 9999 SCT020 BKN050"
    },
    {
      "icao": "LYBE",
      "alert": "OK",
      "vis_m": 8000,
      "fzfg": false,
      "metar_trigger": false,
      "taf_trigger": false,
      "metar": "METAR LYBE 151300Z 32018KT 8000 -RA BKN006 BKN026 05/04 Q1002 NOSIG",
      "taf": "TAF LYBE 151100Z 1512/1612 34015KT 8000 RA BKN006 BKN025 TX07/1512Z TNM03/1606Z"
    },
    {
      "icao": "LYNI",
      "alert": "OK",
      "vis_m": 9999,
      "fzfg": false,
      "metar_trigger": false,
      "taf_trigger": false,
      "metar": "METAR LYNI 151300Z 28006KT 240V320 9999 FEW027TCU BKN040 14/09 Q0997 BECMG 33018KT",
      "taf": "TAF LYNI 151100Z 1512/1612 16004KT 9999 FEW010 BKN040 BKN070 TX12/1512Z TN01/1606Z"
    },
    {
      "icao": "LYPG",
      "alert": "OK",
      "vis_m": 9999,
      "fzfg": false,
      "metar_trigger": false,
      "taf_trigger": false,
      "metar": "METAR LYPG 151300Z 10010KT 9999 -RA FEW013 BKN040 OVC073 11/10 Q1000 NOSIG",
      "taf": "TAF LYPG 151100Z 1512/1612 15007KT 9999 FEW010 SCT034 OVC080 TX12/1512Z TN07/1605Z"
    },
    {
      "icao": "LZIB",
      "alert": "OK",
      "vis_m": 9999,
      "fzfg": false,
      "metar_trigger": false,
      "taf_trigger": false,
      "metar": "METAR LZIB 151300Z 33015KT 9999 FEW035 BKN037 02/M07 Q1012 NOSIG",
      "taf": "TAF LZIB 151115Z 1512/1612 35017KT 9999 FEW025 BKN035"
    },
    {
      "icao": "LZKZ",
      "alert": "OK",
      "vis_m": 9999,
      "fzfg": false,
      "metar_trigger": false,
      "taf_trigger": false,
      "metar": "METAR LZKZ 151300Z 01023KT CAVOK M00/M05 Q1006 NOSIG",
      "taf": "TAF LZKZ 151115Z 1512/1612 36022KT 9999 FEW030"
    },
    {
      "icao": "LZTT",
      "alert": "OK",
      "vis_m": 8000,
      "fzfg": false,
      "metar_trigger": false,
      "taf_trigger": false,
      "metar": "METAR LZTT 151300Z VRB03KT 8000 -SN BKN008 OVC016 M03/M05 Q1006 NOSIG",
      "taf": ""
    },
    {
      "icao": "OEJN",
      "alert": "OK",
      "vis_m": 9999,
      "fzfg": false,
      "metar_trigger": false,
      "taf_trigger": false,
      "metar": "METAR OEJN 151300Z 27008KT CAVOK 30/17 Q1011 NOSIG",
      "taf": "TAF OEJN 151100Z 1512/1618 28012KT CAVOK"
    },
    {
      "icao": "OEMA",
      "alert": "OK",
      "vis_m": 9999,
      "fzfg": false,
      "metar_trigger": false,
      "taf_trigger": false,
      "metar": "METAR OEMA 151300Z 10008KT CAVOK 32/M02 Q1018 NOSIG",
      "taf": "TAF OEMA 151100Z 1512/1618 06013KT 7000 NSC"
    },
    {
      "icao": "OJAI",
      "alert": "OK",
      "vis_m": 3000,
      "fzfg": false,
      "metar_trigger": false,
      "taf_trigger": false,
      "metar": "METAR OJAI 151300Z 13008KT 3000 DU NSC 22/M03 Q1022 NOSIG",
      "taf": "TAF OJAI 151031Z 1512/1618 10010KT 2000 DU NSC"
    },
    {
      "icao": "OMAA",
      "alert": "OK",
      "vis_m": 9999,
      "fzfg": false,
      "metar_trigger": false,
      "taf_trigger": false,
      "metar": "METAR OMAA 151300Z 29011KT CAVOK 29/08 Q1013 NOSIG",
      "taf": "TAF OMAA 151100Z 1512/1618 30013KT 8000 NSC"
    },
    {
      "icao": "OMDB",
      "alert": "OK",
      "vis_m": 9999,
      "fzfg": false,
      "metar_trigger": false,
      "taf_trigger": false,
      "metar": "METAR OMDB 151300Z 25009KT 200V290 CAVOK 29/04 Q1013 NOSIG",
      "taf": "TAF OMDB 151100Z 1512/1618 28012KT CAVOK"
    },
    {
      "icao": "UAAA",
      "alert": "OK",
      "vis_m": 2700,
      "fzfg": false,
      "metar_trigger": false,
      "taf_trigger": false,
      "metar": "METAR UAAA 151300Z 25004MPS 2700 BR SCT100 OVC200 02/00 Q1018 NOSIG",
      "taf": "TAF UAAA 151110Z 1512/1612 24003MPS 1100 BR FU FEW003 BKN011 TX03/1609Z TNM02/1602Z"
    },
    {
      "icao": "UBBB",
      "alert": "OK",
      "vis_m": 9999,
      "fzfg": false,
      "metar_trigger": false,
      "taf_trigger": false,
      "metar": "METAR UBBB 151300Z 34016KT 9999 SCT007 09/07 Q1021 NOSIG",
      "taf": "TAF UBBB 151056Z 1512/1612 32014KT CAVOK TX12/1512Z TN06/1601Z"
    },
    {
      "icao": "UDSG",
      "alert": "OK",
      "vis_m": 9999,
      "fzfg": false,
      "metar_trigger": false,
      "taf_trigger": false,
      "metar": "METAR UDSG 151300Z 13002KT 9999 NSC 06/M00 Q1023 NOSIG",
      "taf": "TAF UDSG 151058Z 1512/1612 VRB06KT 9999 FEW040"
    },
    {
      "icao": "UDYZ",
      "alert": "OK",
      "vis_m": 9999,
      "fzfg": false,
      "metar_trigger": false,
      "taf_trigger": false,
      "metar": "METAR UDYZ 151300Z 21005KT 9999 NSC 15/M00 Q1021 NOSIG",
      "taf": "TAF UDYZ 151100Z 1512/1612 VRB04KT 9999 FEW040"
    },
    {
      "icao": "UGKO",
      "alert": "OK",
      "vis_m": 9999,
      "fzfg": false,
      "metar_trigger": false,
      "taf_trigger": false,
      "metar": "METAR UGKO 151300Z 10011KT CAVOK 17/08 Q1018 NOSIG",
      "taf": "TAF UGKO 151100Z 1512/1612 08010KT CAVOK TX24/1611Z TN11/1603Z"
    }
  ]
}