{
  "ts_utc": "2026-01-13T03:19:50Z",
  "threshold_m": 150,
  "source": "stations_override.txt (ICAO list) + aviationweather.gov (METAR/TAF raw)",
  "station_count": 159,
  "stations": [
    {
      "icao": "BIKF",
      "alert": "OK",
      "vis_m": 9999,
      "fzfg": false,
      "metar_trigger": false,
      "taf_trigger": false,
      "metar": "METAR BIKF 130300Z 36021KT 9999 BKN034 M02/M09 Q0999",
      "taf": "TAF BIKF 130133Z 1303/1403 36022KT 9999 BKN025 TXM02/1303Z TNM03/1322Z"
    },
    {
      "icao": "BKPR",
      "alert": "OK",
      "vis_m": 9999,
      "fzfg": false,
      "metar_trigger": false,
      "taf_trigger": false,
      "metar": "METAR BKPR 130300Z VRB01KT 9999 SCT070 M06/M08 Q1022 NOSIG",
      "taf": "TAF BKPR 122330Z 1300/1324 VRB05KT CAVOK"
    },
    {
      "icao": "EBCI",
      "alert": "OK",
      "vis_m": 9999,
      "fzfg": false,
      "metar_trigger": false,
      "taf_trigger": false,
      "metar": "METAR EBCI 130250Z 20010KT 9999 BKN009 09/07 Q1010 NOSIG",
      "taf": "TAF EBCI 122318Z 1300/1406 20009KT 9999 SCT012 BKN020"
    },
    {
      "icao": "EDDB",
      "alert": "OK",
      "vis_m": 3200,
      "fzfg": false,
      "metar_trigger": false,
      "taf_trigger": false,
      "metar": "METAR EDDB 130250Z AUTO 12003KT 3200 -FZRADZ BR BKN004 M00/M00 Q1010 TEMPO 2500 FZRA BR BKN005",
      "taf": "TAF EDDB 122300Z 1300/1324 14005KT 7000 SCT004 BKN015"
    },
    {
      "icao": "EDDH",
      "alert": "OK",
      "vis_m": 1300,
      "fzfg": false,
      "metar_trigger": false,
      "taf_trigger": false,
      "metar": "METAR EDDH 130250Z AUTO 15004KT 1300 0350 R23/P2000N R15/1100U BCFG OVC001 01/01 Q1008 TEMPO 0500 FG",
      "taf": "TAF EDDH 122300Z 1300/1406 19005KT 6000 BKN007"
    },
    {
      "icao": "EDDK",
      "alert": "OK",
      "vis_m": 9999,
      "fzfg": false,
      "metar_trigger": false,
      "taf_trigger": false,
      "metar": "METAR EDDK 130250Z AUTO 16006KT 130V200 9999 BKN020 BKN047 08/06 Q1011 NOSIG",
      "taf": "TAF EDDK 122300Z 1300/1406 15007KT 9999 BKN020"
    },
    {
      "icao": "EDDN",
      "alert": "OK",
      "vis_m": 7000,
      "fzfg": false,
      "metar_trigger": false,
      "taf_trigger": false,
      "metar": "METAR EDDN 130250Z AUTO 16004KT 7000 OVC021 03/03 Q1013",
      "taf": "TAF EDDN 122300Z 1300/1324 13005KT 6000 SCT006 BKN025"
    },
    {
      "icao": "EDDS",
      "alert": "OK",
      "vis_m": 9999,
      "fzfg": false,
      "metar_trigger": false,
      "taf_trigger": false,
      "metar": "METAR EDDS 130250Z AUTO 23003KT 170V290 CAVOK 06/02 Q1013",
      "taf": "TAF EDDS 122300Z 1300/1324 VRB03KT CAVOK"
    },
    {
      "icao": "EDFH",
      "alert": "OK",
      "vis_m": 9999,
      "fzfg": false,
      "metar_trigger": false,
      "taf_trigger": false,
      "metar": "METAR EDFH 130250Z 26006KT 230V290 9999 OVC007 07/06 Q1012",
      "taf": "TAF EDFH 122300Z 1300/1324 23010KT 9999 SCT010"
    },
    {
      "icao": "EDJA",
      "alert": "OK",
      "vis_m": 9999,
      "fzfg": false,
      "metar_trigger": false,
      "taf_trigger": false,
      "metar": "METAR EDJA 130250Z AUTO 23006KT 9999 // FEW130/// 03/01 Q1015",
      "taf": "TAF EDJA 130200Z 1303/1312 22008KT CAVOK"
    },
    {
      "icao": "EDLW",
      "alert": "OK",
      "vis_m": 9999,
      "fzfg": false,
      "metar_trigger": false,
      "taf_trigger": false,
      "metar": "METAR EDLW 130250Z AUTO 19009KT 9999 // FEW016/// OVC030/// 08/07 Q1010",
      "taf": "TAF EDLW 121700Z 1218/1318 19010KT 9999 BKN020"
    },
    {
      "icao": "EDNY",
      "alert": "OK",
      "vis_m": 4400,
      "fzfg": false,
      "metar_trigger": false,
      "taf_trigger": false,
      "metar": "METAR EDNY 130250Z AUTO VRB02KT 4400 1800 BKN120/// M01/M01 Q1016",
      "taf": "TAF EDNY 130200Z 1303/1312 VRB03KT 2500 BR NSC"
    },
    {
      "icao": "EDSB",
      "alert": "OK",
      "vis_m": 9999,
      "fzfg": false,
      "metar_trigger": false,
      "taf_trigger": false,
      "metar": "METAR EDSB 130250Z AUTO 22007KT 9999 FEW039/// BKN130/// 07/03 Q1014",
      "taf": "TAF EDSB 122300Z 1300/1324 21009KT CAVOK"
    },
    {
      "icao": "EETN",
      "alert": "OK",
      "vis_m": 9999,
      "fzfg": false,
      "metar_trigger": false,
      "taf_trigger": false,
      "metar": "METAR EETN 130250Z 10011KT 9999 BKN009 M09/M11 Q1019",
      "taf": "TAF EETN 122330Z 1300/1324 10010KT 9999 SCT015 BKN040"
    },
    {
      "icao": "EFTU",
      "alert": "OK",
      "vis_m": 9999,
      "fzfg": false,
      "metar_trigger": false,
      "taf_trigger": false,
      "metar": "METAR EFTU 130250Z AUTO 09005KT 9999 -SHSN BKN033 M07/M08 Q1019",
      "taf": "TAF EFTU 130227Z 1303/1403 08004KT 9999 -SN BKN025 BKN040"
    },
    {
      "icao": "EGBB",
      "alert": "OK",
      "vis_m": 9999,
      "fzfg": false,
      "metar_trigger": false,
      "taf_trigger": false,
      "metar": "METAR EGBB 130250Z 18005KT CAVOK 07/06 Q1002",
      "taf": "TAF EGBB 122256Z 1300/1324 18008KT 9999 SCT040"
    },
    {
      "icao": "EGGP",
      "alert": "OK",
      "vis_m": 9999,
      "fzfg": false,
      "metar_trigger": false,
      "taf_trigger": false,
      "metar": "METAR EGGP 130250Z AUTO 16005KT 110V190 9999 NCD 08/05 Q1000",
      "taf": "TAF EGGP 122258Z 1300/1324 13010KT 9999 BKN030"
    },
    {
      "icao": "EGGW",
      "alert": "OK",
      "vis_m": 9999,
      "fzfg": false,
      "metar_trigger": false,
      "taf_trigger": false,
      "metar": "METAR EGGW 130250Z AUTO 19006KT 160V230 9999 BKN009 08/07 Q1004",
      "taf": ""
    },
    {
      "icao": "EGKK",
      "alert": "OK",
      "vis_m": 9999,
      "fzfg": false,
      "metar_trigger": false,
      "taf_trigger": false,
      "metar": "METAR EGKK 130250Z 21007KT 9999 FEW007 BKN030 10/09 Q1005",
      "taf": "TAF EGKK 122304Z 1300/1406 20010KT 9999 SCT008"
    },
    {
      "icao": "EGNM",
      "alert": "OK",
      "vis_m": null,
      "fzfg": false,
      "metar_trigger": false,
      "taf_trigger": false,
      "metar": "",
      "taf": "TAF EGNM 121702Z 1218/1318 21009KT 9999 SCT025"
    },
    {
      "icao": "EGPD",
      "alert": "OK",
      "vis_m": 9999,
      "fzfg": false,
      "metar_trigger": false,
      "taf_trigger": false,
      "metar": "METAR EGPD 130250Z COR AUTO VRB01KT 9999 NCD 04/04 Q0995 NOSIG",
      "taf": "TAF EGPD 122257Z 1300/1324 VRB03KT 9999 SCT035"
    },
    {
      "icao": "EGPF",
      "alert": "OK",
      "vis_m": 9999,
      "fzfg": false,
      "metar_trigger": false,
      "taf_trigger": false,
      "metar": "METAR EGPF 130250Z 24003KT 9999 BKN042 05/05 Q0996",
      "taf": "TAF EGPF 122258Z 1300/1324 VRB03KT 9999 FEW015 SCT025"
    },
    {
      "icao": "EHBK",
      "alert": "OK",
      "vis_m": 9999,
      "fzfg": false,
      "metar_trigger": false,
      "taf_trigger": false,
      "metar": "METAR EHBK 130255Z AUTO 20011KT 9999 OVC012/// 08/08 Q1010",
      "taf": "TAF EHBK 122313Z 1300/1406 21008KT 9999 BKN018"
    },
    {
      "icao": "EHEH",
      "alert": "OK",
      "vis_m": 9999,
      "fzfg": false,
      "metar_trigger": false,
      "taf_trigger": false,
      "metar": "METAR EHEH 130255Z AUTO 19007KT 9999 OVC033 09/08 Q1009 BLU",
      "taf": "TAF EHEH 122350Z 1300/1406 20004KT 9000 SCT015 BKN020"
    },
    {
      "icao": "EKBI",
      "alert": "OK",
      "vis_m": 350,
      "fzfg": false,
      "metar_trigger": false,
      "taf_trigger": false,
      "metar": "METAR EKBI 130250Z AUTO 14007KT 0350 R09/1000N R27/1000N FG VV003 01/01 Q1005",
      "taf": "TAF EKBI 130227Z 1303/1403 15007KT 4000 RA BR OVC006"
    },
    {
      "icao": "EKCH",
      "alert": "OK",
      "vis_m": 8000,
      "fzfg": false,
      "metar_trigger": false,
      "taf_trigger": false,
      "metar": "METAR EKCH 130250Z 15012KT 8000 -SN OVC006 00/M00 Q1009 TEMPO 4000 BKN004",
      "taf": "TAF EKCH 130227Z 1303/1403 14012KT 2000 -SNRA BR OVC004"
    },
    {
      "icao": "ENAL",
      "alert": "OK",
      "vis_m": 9999,
      "fzfg": false,
      "metar_trigger": false,
      "taf_trigger": false,
      "metar": "METAR ENAL 130250Z AUTO 14011KT 9999 BKN053/// 06/M03 Q0996",
      "taf": "TAF ENAL 130200Z 1303/1312 12012KT 9999 BKN050"
    },
    {
      "icao": "ENBR",
      "alert": "OK",
      "vis_m": 9999,
      "fzfg": false,
      "metar_trigger": false,
      "taf_trigger": false,
      "metar": "METAR ENBR 130250Z AUTO 12017KT 9999 -RA OVC028/// 02/M00 Q0999 RMK WIND 1200FT 13027KT",
      "taf": "TAF ENBR 122300Z 1300/1324 13015KT 9999 BKN035"
    },
    {
      "icao": "ENGM",
      "alert": "OK",
      "vis_m": 9999,
      "fzfg": false,
      "metar_trigger": false,
      "taf_trigger": false,
      "metar": "METAR ENGM 130250Z 03005KT 9999 -SN OVC017 M07/M09 Q1012",
      "taf": ""
    },
    {
      "icao": "ENHD",
      "alert": "OK",
      "vis_m": 9999,
      "fzfg": false,
      "metar_trigger": false,
      "taf_trigger": false,
      "metar": "METAR ENHD 130250Z AUTO 11024KT 9999 R13///// R31/P2000N BKN040/// 03/M03 Q0999",
      "taf": "TAF ENHD 130200Z 1303/1312 13020KT 9999 BKN040"
    },
    {
      "icao": "ENTC",
      "alert": "OK",
      "vis_m": 9999,
      "fzfg": false,
      "metar_trigger": false,
      "taf_trigger": false,
      "metar": "METAR ENTC 130250Z AUTO 18021G32KT 9999 NCD M03/M12 Q1010 RMK WIND 2600FT 18041KT",
      "taf": ""
    },
    {
      "icao": "ENTO",
      "alert": "OK",
      "vis_m": 6000,
      "fzfg": false,
      "metar_trigger": false,
      "taf_trigger": false,
      "metar": "METAR ENTO 130250Z AUTO 01006KT 6000 -SN SCT003/// BKN009/// BKN012/// M04/M04 Q1010",
      "taf": "TAF ENTO 122300Z 1300/1324 36010KT 8000 -SN SCT008 BKN015"
    },
    {
      "icao": "ENVA",
      "alert": "OK",
      "vis_m": 9999,
      "fzfg": false,
      "metar_trigger": false,
      "taf_trigger": false,
      "metar": "METAR ENVA 130250Z AUTO 12010KT 090V160 9999 NCD M01/M10 Q1004 RMK WIND 670FT 15027G39KT",
      "taf": ""
    },
    {
      "icao": "ENZV",
      "alert": "OK",
      "vis_m": 9999,
      "fzfg": false,
      "metar_trigger": false,
      "taf_trigger": false,
      "metar": "METAR ENZV 130250Z AUTO 12018KT 9999 NCD 03/M04 Q1000",
      "taf": "TAF ENZV 122300Z 1300/1324 13020KT 9999 SCT040"
    },
    {
      "icao": "EPGD",
      "alert": "OK",
      "vis_m": 9999,
      "fzfg": false,
      "metar_trigger": false,
      "taf_trigger": false,
      "metar": "METAR EPGD 130300Z 15002KT CAVOK M05/M07 Q1014",
      "taf": "TAF EPGD 122330Z 1300/1324 19005KT CAVOK"
    },
    {
      "icao": "EPKK",
      "alert": "OK",
      "vis_m": 8000,
      "fzfg": false,
      "metar_trigger": false,
      "taf_trigger": false,
      "metar": "METAR EPKK 130300Z 04002KT 8000 -SN NSC M08/M11 Q1014",
      "taf": "TAF EPKK 130230Z 1303/1403 04004KT 8000 NSC"
    },
    {
      "icao": "EPKT",
      "alert": "OK",
      "vis_m": 900,
      "fzfg": false,
      "metar_trigger": false,
      "taf_trigger": false,
      "metar": "METAR EPKT 130300Z 14006KT 0900 R26/P2000N +SN VV009 M06/M08 Q1013",
      "taf": "TAF EPKT 122330Z 1300/1324 15005KT 9000 NSC"
    },
    {
      "icao": "EPLB",
      "alert": "OK",
      "vis_m": 2200,
      "fzfg": false,
      "metar_trigger": false,
      "taf_trigger": false,
      "metar": "METAR EPLB 130300Z VRB01KT 2200 BR SCT007 OVC024 M07/M08 Q1016",
      "taf": "TAF EPLB 122330Z 1300/1324 VRB02KT 3000 BR OVC020"
    },
    {
      "icao": "EPMO",
      "alert": "OK",
      "vis_m": 3900,
      "fzfg": false,
      "metar_trigger": false,
      "taf_trigger": false,
      "metar": "METAR EPMO 130300Z 08004KT 3900 BR NSC M11/M12 Q1016",
      "taf": ""
    },
    {
      "icao": "EPPO",
      "alert": "OK",
      "vis_m": 9999,
      "fzfg": false,
      "metar_trigger": false,
      "taf_trigger": false,
      "metar": "METAR EPPO 130300Z 11009KT 9999 -SN FEW032 M04/M08 Q1012",
      "taf": "TAF EPPO 122330Z 1300/1324 14007KT CAVOK"
    },
    {
      "icao": "EPRA",
      "alert": "OK",
      "vis_m": 9999,
      "fzfg": false,
      "metar_trigger": false,
      "taf_trigger": false,
      "metar": "METAR EPRA 130300Z 15004KT CAVOK M08/M10 Q1016",
      "taf": "TAF EPRA 130230Z 1303/1312 13008KT 8000 SCT030"
    },
    {
      "icao": "EPRZ",
      "alert": "OK",
      "vis_m": 9999,
      "fzfg": false,
      "metar_trigger": false,
      "taf_trigger": false,
      "metar": "METAR EPRZ 130300Z 19003KT CAVOK M10/M12 Q1016",
      "taf": "TAF EPRZ 122330Z 1300/1324 22008KT CAVOK"
    },
    {
      "icao": "EPSC",
      "alert": "OK",
      "vis_m": 5000,
      "fzfg": false,
      "metar_trigger": false,
      "taf_trigger": false,
      "metar": "METAR EPSC 130300Z 12010KT 5000 -SN BR BKN010 M04/M05 Q1011",
      "taf": "TAF EPSC 122330Z 1300/1324 13012KT 9999 OVC013"
    },
    {
      "icao": "EPSY",
      "alert": "OK",
      "vis_m": 3700,
      "fzfg": false,
      "metar_trigger": false,
      "taf_trigger": false,
      "metar": "METAR EPSY 130300Z VRB01KT 3700 BR OVC001 M10/M11 Q1016",
      "taf": "TAF EPSY 130230Z 1303/1312 15005KT 4000 BR OVC005"
    },
    {
      "icao": "EPWA",
      "alert": "OK",
      "vis_m": 5000,
      "fzfg": false,
      "metar_trigger": false,
      "taf_trigger": false,
      "metar": "METAR EPWA 130300Z 12005KT 5000 BR NSC M09/M10 Q1016 TEMPO 3000 BR",
      "taf": "TAF EPWA 130230Z 1303/1403 13005KT 4500 BR BKN025"
    },
    {
      "icao": "EPWR",
      "alert": "OK",
      "vis_m": 1700,
      "fzfg": false,
      "metar_trigger": false,
      "taf_trigger": false,
      "metar": "METAR EPWR 130300Z 12008KT 1700 SN BR OVC017 M03/M03 Q1011",
      "taf": "TAF EPWR 130230Z 1303/1403 14010KT 1000 SN BR FEW006 BKN015"
    },
    {
      "icao": "ESGG",
      "alert": "OK",
      "vis_m": 9999,
      "fzfg": false,
      "metar_trigger": false,
      "taf_trigger": false,
      "metar": "METAR ESGG 130250Z 12009KT 9999 -SN FEW007 SCT027 BKN031 M03/M04 Q1008",
      "taf": "TAF ESGG 130230Z 1303/1403 12009KT 9999 -SN SCT008 BKN020"
    },
    {
      "icao": "ESKN",
      "alert": "OK",
      "vis_m": 9999,
      "fzfg": false,
      "metar_trigger": false,
      "taf_trigger": false,
      "metar": "METAR ESKN 130250Z 08005KT 9999 SCT027 OVC034 M02/M04 Q1015",
      "taf": "TAF ESKN 130230Z 1303/1403 09006KT 9999 BKN025"
    },
    {
      "icao": "ESMS",
      "alert": "OK",
      "vis_m": 4000,
      "fzfg": false,
      "metar_trigger": false,
      "taf_trigger": false,
      "metar": "METAR ESMS 130250Z 13009KT 4000 -SN OVC004 M00/M00 Q1009",
      "taf": "TAF ESMS 130227Z 1303/1403 13011KT 6000 -SN OVC008"
    },
    {
      "icao": "ESSA",
      "alert": "OK",
      "vis_m": 9999,
      "fzfg": false,
      "metar_trigger": false,
      "taf_trigger": false,
      "metar": "METAR ESSA 130250Z 10004KT 9999 BKN042 M04/M06 Q1016 NOSIG",
      "taf": "TAF ESSA 130230Z 1303/1403 09006KT 9999 BKN040"
    },
    {
      "icao": "EYKA",
      "alert": "OK",
      "vis_m": 5000,
      "fzfg": false,
      "metar_trigger": false,
      "taf_trigger": false,
      "metar": "METAR EYKA 130250Z VRB01KT 5000 BR OVC003 M15/M17 Q1017",
      "taf": "TAF EYKA 122303Z 1300/1324 VRB03KT 3000 BR BKN003"
    },
    {
      "icao": "EYPA",
      "alert": "OK",
      "vis_m": 9999,
      "fzfg": false,
      "metar_trigger": false,
      "taf_trigger": false,
      "metar": "METAR EYPA 130250Z 13005KT 110V180 9999 FEW005 M10/M11 Q1017",
      "taf": "TAF EYPA 122303Z 1300/1324 VRB05KT 6000 OVC005"
    },
    {
      "icao": "EYVI",
      "alert": "OK",
      "vis_m": 8000,
      "fzfg": false,
      "metar_trigger": false,
      "taf_trigger": false,
      "metar": "METAR EYVI 130250Z 34004KT 320V020 8000 -SN OVC005 M12/M13 Q1015 NOSIG",
      "taf": "TAF EYVI 122303Z 1300/1324 VRB05KT 5000 BR BKN005"
    },
    {
      "icao": "GCFV",
      "alert": "OK",
      "vis_m": 9999,
      "fzfg": false,
      "metar_trigger": false,
      "taf_trigger": false,
      "metar": "METAR GCFV 130300Z AUTO VRB02KT CAVOK 13/06 Q1018",
      "taf": "TAF GCFV 130200Z 1303/1403 27005KT 9999 SCT018 TX21/1314Z TN12/1306Z"
    },
    {
      "icao": "GCLP",
      "alert": "OK",
      "vis_m": 9999,
      "fzfg": false,
      "metar_trigger": false,
      "taf_trigger": false,
      "metar": "METAR GCLP 130300Z 26003KT 230V290 CAVOK 14/11 Q1018 NOSIG",
      "taf": "TAF GCLP 130200Z 1303/1403 28005KT 9999 FEW025 TX21/1314Z TN14/1306Z"
    },
    {
      "icao": "GCTS",
      "alert": "OK",
      "vis_m": 9999,
      "fzfg": false,
      "metar_trigger": false,
      "taf_trigger": false,
      "metar": "METAR GCTS 130300Z 02006KT 9999 FEW030 14/11 Q1019 NOSIG",
      "taf": "TAF GCTS 130200Z 1303/1403 34005KT 9999 FEW030 TX23/1314Z TN14/1306Z"
    },
    {
      "icao": "GMAD",
      "alert": "OK",
      "vis_m": 9999,
      "fzfg": false,
      "metar_trigger": false,
      "taf_trigger": false,
      "metar": "METAR GMAD 130300Z 06007KT CAVOK 08/07 Q1019 NOSIG",
      "taf": "TAF GMAD 122300Z 1300/1406 07006KT CAVOK"
    },
    {
      "icao": "GMMN",
      "alert": "OK",
      "vis_m": 9999,
      "fzfg": false,
      "metar_trigger": false,
      "taf_trigger": false,
      "metar": "METAR GMMN 130300Z 15010KT CAVOK 08/05 Q1017 NOSIG",
      "taf": "TAF GMMN 122300Z 1300/1406 17005KT CAVOK"
    },
    {
      "icao": "GMMX",
      "alert": "OK",
      "vis_m": 8000,
      "fzfg": false,
      "metar_trigger": false,
      "taf_trigger": false,
      "metar": "METAR GMMX 130300Z 10003KT 070V140 8000 NSC 08/05 Q1018 NOSIG",
      "taf": "TAF GMMX 122300Z 1300/1406 14006KT 8000 NSC"
    },
    {
      "icao": "HEGN",
      "alert": "OK",
      "vis_m": 6000,
      "fzfg": false,
      "metar_trigger": false,
      "taf_trigger": false,
      "metar": "METAR HEGN 130200Z 31012KT 6000 NSC 15/02 Q1019 NOSIG",
      "taf": "TAF HEGN 122300Z 1300/1406 29015G25KT 6000 SCT025"
    },
    {
      "icao": "HEMA",
      "alert": "OK",
      "vis_m": 9999,
      "fzfg": false,
      "metar_trigger": false,
      "taf_trigger": false,
      "metar": "METAR HEMA 130200Z 29007KT CAVOK 15/01 Q1018 NOSIG",
      "taf": "TAF HEMA 122300Z 1300/1406 30010G20KT 9999 FEW025"
    },
    {
      "icao": "HESH",
      "alert": "OK",
      "vis_m": 9999,
      "fzfg": false,
      "metar_trigger": false,
      "taf_trigger": false,
      "metar": "METAR HESH 130200Z 25011KT CAVOK 16/03 Q1016 NOSIG",
      "taf": "TAF HESH 122300Z 1300/1406 34010G20KT 9999 SCT025"
    },
    {
      "icao": "HESX",
      "alert": "OK",
      "vis_m": 9999,
      "fzfg": false,
      "metar_trigger": false,
      "taf_trigger": false,
      "metar": "METAR HESX 130200Z 21008KT CAVOK 07/03 Q1018 NOSIG",
      "taf": "TAF HESX 122300Z 1300/1406 24012G22KT 6000 FEW025 SCT100"
    },
    {
      "icao": "LATI",
      "alert": "OK",
      "vis_m": null,
      "fzfg": false,
      "metar_trigger": false,
      "taf_trigger": false,
      "metar": "",
      "taf": "TAF LATI 122300Z 1300/1324 VRB05KT 9999 SCT040 BKN070 TX10/1312Z TNM01/1300Z"
    },
    {
      "icao": "LBPD",
      "alert": "OK",
      "vis_m": 9999,
      "fzfg": false,
      "metar_trigger": false,
      "taf_trigger": false,
      "metar": "METAR LBPD 130300Z AUTO 00000KT 9999 NCD M05/M12 Q1021",
      "taf": "TAF LBPD 122300Z 1300/1324 29010KT 9999 SCT050"
    },
    {
      "icao": "LBSF",
      "alert": "OK",
      "vis_m": 9999,
      "fzfg": false,
      "metar_trigger": false,
      "taf_trigger": false,
      "metar": "METAR LBSF 130300Z AUTO 21003KT 9999 SCT069/// M07/M11 Q1021 NOSIG",
      "taf": "TAF LBSF 122300Z 1300/1324 VRB03KT 9999 SCT050 BKN070"
    },
    {
      "icao": "LBWN",
      "alert": "OK",
      "vis_m": 9999,
      "fzfg": false,
      "metar_trigger": false,
      "taf_trigger": false,
      "metar": "METAR LBWN 130300Z AUTO 28008KT 9999 NCD M07/M10 Q1021 NOSIG",
      "taf": "TAF LBWN 122300Z 1300/1324 27010KT 9999 SCT050"
    },
    {
      "icao": "LCLK",
      "alert": "OK",
      "vis_m": 9999,
      "fzfg": false,
      "metar_trigger": false,
      "taf_trigger": false,
      "metar": "METAR LCLK 130300Z 30006KT 9999 VCTS FEW020 FEW025CB SCT045 10/07 Q1006 NOSIG RMK CB N-S",
      "taf": "TAF LCLK 122330Z 1300/1400 25008KT 9999 FEW020CB SCT040"
    },
    {
      "icao": "LCPH",
      "alert": "OK",
      "vis_m": 9999,
      "fzfg": false,
      "metar_trigger": false,
      "taf_trigger": false,
      "metar": "METAR LCPH 130300Z AUTO 34011G26KT 310V020 9999 SCT037 BKN045 11/08 Q1008 TEMPO 3000 TSRA",
      "taf": "TAF LCPH 122330Z 1300/1400 30023KT 9999 -SHRA FEW025CB SCT040"
    },
    {
      "icao": "LEAL",
      "alert": "OK",
      "vis_m": 4000,
      "fzfg": false,
      "metar_trigger": false,
      "taf_trigger": false,
      "metar": "METAR LEAL 130300Z 29005KT 4000 BR NSC 08/08 Q1018 NOSIG",
      "taf": "TAF LEAL 122300Z 1300/1324 VRB04KT CAVOK TX16/1313Z TN06/1306Z"
    },
    {
      "icao": "LEBB",
      "alert": "OK",
      "vis_m": 9999,
      "fzfg": false,
      "metar_trigger": false,
      "taf_trigger": false,
      "metar": "METAR LEBB 130300Z AUTO 17017KT 130V230 CAVOK 14/05 Q1010",
      "taf": "TAF LEBB 122300Z 1300/1324 17009KT CAVOK TX16/1300Z TN11/1308Z"
    },
    {
      "icao": "LEBL",
      "alert": "OK",
      "vis_m": 7000,
      "fzfg": false,
      "metar_trigger": false,
      "taf_trigger": false,
      "metar": "METAR LEBL 130300Z 33006KT 7000 FEW019 BKN027 10/08 Q1018 NOSIG",
      "taf": "TAF LEBL 122300Z 1300/1324 34007KT 9999 SCT015 TX16/1312Z TN07/1306Z"
    },
    {
      "icao": "LECH",
      "alert": "OK",
      "vis_m": 2300,
      "fzfg": false,
      "metar_trigger": false,
      "taf_trigger": false,
      "metar": "METAR LECH 130300Z AUTO 00000KT 2300 BR BCFG NCD 04/03 Q1017",
      "taf": ""
    },
    {
      "icao": "LEMD",
      "alert": "OK",
      "vis_m": 1500,
      "fzfg": false,
      "metar_trigger": false,
      "taf_trigger": false,
      "metar": "METAR LEMD 130300Z VRB02KT 1500 0800 R32R/0750N BR BCFG FEW001 00/00 Q1016 NOSIG",
      "taf": ""
    },
    {
      "icao": "LEMG",
      "alert": "OK",
      "vis_m": 9999,
      "fzfg": false,
      "metar_trigger": false,
      "taf_trigger": false,
      "metar": "METAR LEMG 130300Z 30006KT 9999 SCT012 05/05 Q1018 NOSIG",
      "taf": "TAF LEMG 122300Z 1300/1324 29005KT 9999 FEW020 TX16/1314Z TN05/1307Z"
    },
    {
      "icao": "LEVC",
      "alert": "OK",
      "vis_m": 9999,
      "fzfg": false,
      "metar_trigger": false,
      "taf_trigger": false,
      "metar": "METAR LEVC 130300Z VRB02KT CAVOK 04/04 Q1017 NOSIG",
      "taf": "TAF LEVC 122300Z 1300/1324 VRB04KT CAVOK TX17/1314Z TN04/1306Z"
    },
    {
      "icao": "LEXJ",
      "alert": "OK",
      "vis_m": 9999,
      "fzfg": false,
      "metar_trigger": false,
      "taf_trigger": false,
      "metar": "METAR LEXJ 130300Z AUTO 18017G27KT 150V220 9999 3900E NSC 15/05 Q1009",
      "taf": "TAF LEXJ 130200Z 1303/1403 20009KT CAVOK TX17/1316Z TN12/1308Z"
    },
    {
      "icao": "LEZG",
      "alert": "OK",
      "vis_m": 9999,
      "fzfg": false,
      "metar_trigger": false,
      "taf_trigger": false,
      "metar": "METAR LEZG 130230Z 11004KT CAVOK 03/03 Q1016 NOSIG",
      "taf": "TAF LEZG 122300Z 1300/1324 VRB04KT CAVOK TX13/1315Z TN05/1306Z"
    },
    {
      "icao": "LEZL",
      "alert": "OK",
      "vis_m": 9000,
      "fzfg": false,
      "metar_trigger": false,
      "taf_trigger": false,
      "metar": "METAR LEZL 130300Z AUTO 18006KT 150V210 9000 FEW021 SCT043 12/10 Q1016",
      "taf": "TAF LEZL 130200Z 1303/1403 16006KT 9999 SCT030 TX18/1315Z TN10/1307Z"
    },
    {
      "icao": "LFBD",
      "alert": "OK",
      "vis_m": 9999,
      "fzfg": false,
      "metar_trigger": false,
      "taf_trigger": false,
      "metar": "METAR LFBD 130300Z AUTO 15012KT CAVOK 07/05 Q1011",
      "taf": "TAF LFBD 122300Z 1300/1406 14010KT CAVOK TX14/1314Z TN04/1304Z"
    },
    {
      "icao": "LFLL",
      "alert": "OK",
      "vis_m": 9999,
      "fzfg": false,
      "metar_trigger": false,
      "taf_trigger": false,
      "metar": "METAR LFLL 130300Z 14012KT CAVOK 09/05 Q1016 TEMPO 18015G25KT",
      "taf": "TAF LFLL 122300Z 1300/1406 17015KT CAVOK"
    },
    {
      "icao": "LFLS",
      "alert": "OK",
      "vis_m": 9999,
      "fzfg": false,
      "metar_trigger": false,
      "taf_trigger": false,
      "metar": "METAR LFLS 130300Z AUTO 07005KT 040V100 9999 FEW035 BKN220 01/M01 Q1018 NOSIG",
      "taf": "TAF LFLS 130200Z 1303/1403 VRB03KT CAVOK"
    },
    {
      "icao": "LFMN",
      "alert": "OK",
      "vis_m": 9999,
      "fzfg": false,
      "metar_trigger": false,
      "taf_trigger": false,
      "metar": "METAR LFMN 130300Z 32013KT 9999 BKN043 08/M02 Q1021 NOSIG",
      "taf": "TAF LFMN 130200Z 1303/1409 32010KT 9999 BKN040"
    },
    {
      "icao": "LFOB",
      "alert": "OK",
      "vis_m": 9999,
      "fzfg": false,
      "metar_trigger": false,
      "taf_trigger": false,
      "metar": "METAR LFOB 130300Z AUTO 20005KT 170V240 9999 FEW011 BKN022 BKN030 10/08 Q1010 TEMPO 4000 SHRA BKN008 BKN013TCU OVC020",
      "taf": "TAF LFOB 122300Z 1300/1324 20011KT 9999 BKN025"
    },
    {
      "icao": "LFPO",
      "alert": "OK",
      "vis_m": 9999,
      "fzfg": false,
      "metar_trigger": false,
      "taf_trigger": false,
      "metar": "METAR LFPO 130300Z AUTO 20006KT 9999 SCT041 BKN056 BKN070 09/06 Q1011 NOSIG",
      "taf": "TAF LFPO 122300Z 1300/1406 20009KT 9999 BKN035"
    },
    {
      "icao": "LFSB",
      "alert": "OK",
      "vis_m": 9999,
      "fzfg": false,
      "metar_trigger": false,
      "taf_trigger": false,
      "metar": "METAR LFSB 130300Z AUTO 17007KT CAVOK 02/01 Q1016 TEMPO 4000 BR",
      "taf": ""
    },
    {
      "icao": "LGAV",
      "alert": "OK",
      "vis_m": 9999,
      "fzfg": false,
      "metar_trigger": false,
      "taf_trigger": false,
      "metar": "METAR LGAV 130250Z 30008KT CAVOK 04/M09 Q1023 NOSIG",
      "taf": "TAF LGAV 122300Z 1300/1324 VRB05KT 9999 FEW025"
    },
    {
      "icao": "LGTS",
      "alert": "OK",
      "vis_m": 9999,
      "fzfg": false,
      "metar_trigger": false,
      "taf_trigger": false,
      "metar": "METAR LGTS 130250Z VRB03KT CAVOK 01/M08 Q1024 NOSIG",
      "taf": "TAF LGTS 122300Z 1300/1324 34015KT 9999 FEW025"
    },
    {
      "icao": "LHBP",
      "alert": "OK",
      "vis_m": 9999,
      "fzfg": false,
      "metar_trigger": false,
      "taf_trigger": false,
      "metar": "METAR LHBP 130300Z 12005KT 9999 -SN BKN025 OVC050 M05/M08 Q1019 TEMPO 1400 SN OVC008",
      "taf": "TAF LHBP 122315Z 1300/1324 VRB03KT CAVOK"
    },
    {
      "icao": "LHDC",
      "alert": "OK",
      "vis_m": 9999,
      "fzfg": false,
      "metar_trigger": false,
      "taf_trigger": false,
      "metar": "METAR LHDC 130245Z AUTO 09004KT 060V120 CAVOK M11/M13 Q1021",
      "taf": ""
    },
    {
      "icao": "LIBD",
      "alert": "OK",
      "vis_m": 9999,
      "fzfg": false,
      "metar_trigger": false,
      "taf_trigger": false,
      "metar": "METAR LIBD 130250Z 25009KT CAVOK 05/M02 Q1024",
      "taf": "TAF LIBD 122300Z 1300/1324 23007KT CAVOK"
    },
    {
      "icao": "LIBG",
      "alert": "OK",
      "vis_m": null,
      "fzfg": false,
      "metar_trigger": false,
      "taf_trigger": false,
      "metar": "",
      "taf": "TAF LIBG 121700Z 1218/1303 VRB05KT 9999 FEW040"
    },
    {
      "icao": "LIBP",
      "alert": "OK",
      "vis_m": 9999,
      "fzfg": false,
      "metar_trigger": false,
      "taf_trigger": false,
      "metar": "METAR LIBP 130250Z AUTO 26003KT 9999 NCD 03/02 Q1023",
      "taf": "TAF LIBP 122300Z 1300/1324 23007KT CAVOK"
    },
    {
      "icao": "LIBR",
      "alert": "OK",
      "vis_m": 9999,
      "fzfg": false,
      "metar_trigger": false,
      "taf_trigger": false,
      "metar": "METAR LIBR 130220Z 25009KT CAVOK 00/M04 Q1025",
      "taf": "TAF LIBR 122300Z 1300/1324 22008KT CAVOK"
    },
    {
      "icao": "LICA",
      "alert": "OK",
      "vis_m": 9999,
      "fzfg": false,
      "metar_trigger": false,
      "taf_trigger": false,
      "metar": "METAR LICA 130250Z AUTO VRB01KT 9999 NCD 02/01 Q1027",
      "taf": ""
    },
    {
      "icao": "LICC",
      "alert": "OK",
      "vis_m": 9999,
      "fzfg": false,
      "metar_trigger": false,
      "taf_trigger": false,
      "metar": "METAR LICC 130250Z 25010KT CAVOK 01/M03 Q1027",
      "taf": "TAF LICC 122300Z 1300/1324 26008KT CAVOK"
    },
    {
      "icao": "LICJ",
      "alert": "OK",
      "vis_m": 9999,
      "fzfg": false,
      "metar_trigger": false,
      "taf_trigger": false,
      "metar": "METAR LICJ 130250Z 19008KT CAVOK 10/04 Q1027",
      "taf": "TAF LICJ 122300Z 1300/1324 19010KT CAVOK"
    },
    {
      "icao": "LIMC",
      "alert": "OK",
      "vis_m": 9999,
      "fzfg": false,
      "metar_trigger": false,
      "taf_trigger": false,
      "metar": "METAR LIMC 130250Z 02002KT 9999 BKN040 04/M03 Q1021 NOSIG",
      "taf": "TAF LIMC 122300Z 1300/1406 VRB05KT 9999 SCT045"
    },
    {
      "icao": "LIME",
      "alert": "OK",
      "vis_m": 9999,
      "fzfg": false,
      "metar_trigger": false,
      "taf_trigger": false,
      "metar": "METAR LIME 130250Z 05003KT 360V080 9999 SCT040 03/M01 Q1021 NOSIG",
      "taf": "TAF LIME 122300Z 1300/1324 VRB04KT 9999 SCT035"
    },
    {
      "icao": "LIMF",
      "alert": "OK",
      "vis_m": 9999,
      "fzfg": false,
      "metar_trigger": false,
      "taf_trigger": false,
      "metar": "METAR LIMF 130250Z VRB01KT CAVOK M01/M06 Q1021",
      "taf": "TAF LIMF 122300Z 1300/1324 VRB03KT CAVOK"
    },
    {
      "icao": "LIMJ",
      "alert": "OK",
      "vis_m": 9999,
      "fzfg": false,
      "metar_trigger": false,
      "taf_trigger": false,
      "metar": "METAR LIMJ 130250Z 15012KT 9999 SCT017 BKN060 14/11 Q1021",
      "taf": "TAF LIMJ 122300Z 1300/1324 18013KT 9999 BKN020"
    },
    {
      "icao": "LIPE",
      "alert": "OK",
      "vis_m": 9999,
      "fzfg": false,
      "metar_trigger": false,
      "taf_trigger": false,
      "metar": "METAR LIPE 130250Z AUTO VRB02KT 9999 FEW200/// 00/M01 Q1022",
      "taf": "TAF LIPE 122300Z 1300/1324 VRB04KT 9999 SCT040"
    },
    {
      "icao": "LIPH",
      "alert": "OK",
      "vis_m": 9999,
      "fzfg": false,
      "metar_trigger": false,
      "taf_trigger": false,
      "metar": "METAR LIPH 130250Z AUTO VRB01KT 9999 FEW051/// BKN160/// 00/M02 Q1022",
      "taf": "TAF LIPH 122300Z 1300/1324 VRB04KT 9999 SCT040"
    },
    {
      "icao": "LIPQ",
      "alert": "OK",
      "vis_m": 7000,
      "fzfg": false,
      "metar_trigger": false,
      "taf_trigger": false,
      "metar": "METAR LIPQ 130250Z AUTO 36002KT 7000 BKN180/// M01/M01 Q1022",
      "taf": "TAF LIPQ 122300Z 1300/1324 VRB04KT 9999 SCT040"
    },
    {
      "icao": "LIPR",
      "alert": "OK",
      "vis_m": 9999,
      "fzfg": false,
      "metar_trigger": false,
      "taf_trigger": false,
      "metar": "METAR LIPR 130250Z AUTO 23001KT 9999 FEW180/// BKN200/// M00/M01 Q1021",
      "taf": "TAF LIPR 122300Z 1300/1324 VRB05KT 9999 FEW040"
    },
    {
      "icao": "LIPX",
      "alert": "OK",
      "vis_m": 9999,
      "fzfg": false,
      "metar_trigger": false,
      "taf_trigger": false,
      "metar": "METAR LIPX 130250Z 35002KT 9999 SCT045 01/M00 Q1022",
      "taf": "TAF LIPX 122300Z 1300/1324 VRB03KT 9999 SCT040"
    },
    {
      "icao": "LIPY",
      "alert": "OK",
      "vis_m": 9999,
      "fzfg": false,
      "metar_trigger": false,
      "taf_trigger": false,
      "metar": "METAR LIPY 130250Z AUTO 19003KT 160V240 9999 OVC210/// 03/02 Q1022",
      "taf": "TAF LIPY 122300Z 1300/1324 19007KT 9999 FEW050"
    },
    {
      "icao": "LIPZ",
      "alert": "OK",
      "vis_m": 9000,
      "fzfg": false,
      "metar_trigger": false,
      "taf_trigger": false,
      "metar": "METAR LIPZ 130250Z 30002KT 9000 SCT050 01/M01 Q1022 NOSIG",
      "taf": "TAF LIPZ 122300Z 1300/1406 VRB05KT 9999 SCT040"
    },
    {
      "icao": "LIRF",
      "alert": "OK",
      "vis_m": 9999,
      "fzfg": false,
      "metar_trigger": false,
      "taf_trigger": false,
      "metar": "METAR LIRF 130250Z 08005KT 9999 SCT040 07/03 Q1025 NOSIG",
      "taf": "TAF LIRF 122300Z 1300/1406 09008KT 9999 SCT050"
    },
    {
      "icao": "LIRN",
      "alert": "OK",
      "vis_m": 9999,
      "fzfg": false,
      "metar_trigger": false,
      "taf_trigger": false,
      "metar": "METAR LIRN 130250Z VRB01KT CAVOK 06/02 Q1025 NOSIG",
      "taf": "TAF LIRN 122300Z 1300/1324 VRB05KT 9999 SCT040"
    },
    {
      "icao": "LIRP",
      "alert": "OK",
      "vis_m": 9999,
      "fzfg": false,
      "metar_trigger": false,
      "taf_trigger": false,
      "metar": "METAR LIRP 130245Z 13004KT 9999 FEW030 SCT050 07/07 Q1023 NOSIG",
      "taf": "TAF LIRP 122300Z 1300/1324 14005KT 9999 SCT020 BKN040"
    },
    {
      "icao": "LIRZ",
      "alert": "OK",
      "vis_m": 9999,
      "fzfg": false,
      "metar_trigger": false,
      "taf_trigger": false,
      "metar": "METAR LIRZ 130250Z AUTO 04003KT 9999 SCT028/// BKN062/// 05/02 Q1024",
      "taf": "TAF LIRZ 122300Z 1300/1324 VRB04KT 9999 SCT050"
    },
    {
      "icao": "LJLJ",
      "alert": "OK",
      "vis_m": 9999,
      "fzfg": false,
      "metar_trigger": false,
      "taf_trigger": false,
      "metar": "METAR LJLJ 130300Z 29005KT 9999 SCT100 BKN180 M06/M07 Q1019 NOSIG",
      "taf": "TAF LJLJ 122300Z 1300/1400 VRB02KT 9999 FEW070"
    },
    {
      "icao": "LKMT",
      "alert": "OK",
      "vis_m": 2000,
      "fzfg": false,
      "metar_trigger": false,
      "taf_trigger": false,
      "metar": "METAR LKMT 130300Z 24011KT 2000 SN OVC031 M04/M05 Q1013 NOSIG",
      "taf": "TAF LKMT 122300Z 1300/1324 23010KT 9999 BKN020 OVC035"
    },
    {
      "icao": "LKPR",
      "alert": "OK",
      "vis_m": 2100,
      "fzfg": false,
      "metar_trigger": false,
      "taf_trigger": false,
      "metar": "METAR LKPR 130300Z 31003KT 280V350 2100 -FZRA BR BKN002 OVC007 M04/M05 Q1011 NOSIG",
      "taf": "TAF LKPR 130200Z 1303/1409 24010KT 7000 BKN008 OVC020"
    },
    {
      "icao": "LLBG",
      "alert": "OK",
      "vis_m": 9999,
      "fzfg": false,
      "metar_trigger": false,
      "taf_trigger": false,
      "metar": "METAR LLBG 130250Z 22010KT 9999 -RA BKN033 14/07 Q1013 TEMPO 27020G35KT 3000 TSRA FEW020CB",
      "taf": "TAF LLBG 122306Z 1300/1324 25015G25KT 9999 SCT030 BKN040"
    },
    {
      "icao": "LMML",
      "alert": "OK",
      "vis_m": 9999,
      "fzfg": false,
      "metar_trigger": false,
      "taf_trigger": false,
      "metar": "METAR LMML 130315Z VRB01KT CAVOK 06/02 Q1027 NOSIG",
      "taf": "TAF LMML 122300Z 1300/1324 26006KT 9999 FEW025"
    },
    {
      "icao": "LOWW",
      "alert": "OK",
      "vis_m": 5000,
      "fzfg": false,
      "metar_trigger": false,
      "taf_trigger": false,
      "metar": "METAR LOWW 130250Z 14010KT 5000 -FZRA FEW004 BKN006 M03/M04 Q1016 REFZRA TEMPO FZRA",
      "taf": "TAF LOWW 130215Z 1303/1409 15008KT 7000 -FZRA FEW009 BKN020 TX00/1314Z TNM03/1303Z"
    },
    {
      "icao": "LPFR",
      "alert": "OK",
      "vis_m": 9999,
      "fzfg": false,
      "metar_trigger": false,
      "taf_trigger": false,
      "metar": "METAR LPFR 130300Z 18018KT 9999 FEW020 BKN040 16/12 Q1012",
      "taf": "TAF LPFR 122300Z 1300/1324 19015KT 9999 SCT020 BKN040"
    },
    {
      "icao": "LPMA",
      "alert": "OK",
      "vis_m": 9999,
      "fzfg": false,
      "metar_trigger": false,
      "taf_trigger": false,
      "metar": "METAR LPMA 130300Z 29009KT 260V320 9999 FEW015 16/06 Q1015",
      "taf": "TAF LPMA 122300Z 1300/1324 32010KT 9999 SCT015"
    },
    {
      "icao": "LPPR",
      "alert": "OK",
      "vis_m": 9999,
      "fzfg": false,
      "metar_trigger": false,
      "taf_trigger": false,
      "metar": "METAR LPPR 130300Z 15021KT 9999 -RA FEW030 SCT040 12/10 Q1006",
      "taf": "TAF LPPR 122300Z 1300/1324 17018KT 6000 -RA SCT008 BKN018"
    },
    {
      "icao": "LPPS",
      "alert": "OK",
      "vis_m": 9999,
      "fzfg": false,
      "metar_trigger": false,
      "taf_trigger": false,
      "metar": "METAR LPPS 130300Z 32013KT 9999 FEW015 SCT030 15/11 Q1015",
      "taf": "TAF LPPS 122300Z 1300/1406 31015KT 9999 SCT015"
    },
    {
      "icao": "LPPT",
      "alert": "OK",
      "vis_m": 9999,
      "fzfg": false,
      "metar_trigger": false,
      "taf_trigger": false,
      "metar": "METAR LPPT 130300Z 17018KT 9999 -RA FEW004 BKN008 13/12 Q1008",
      "taf": "TAF LPPT 122300Z 1300/1406 18015KT 9999 SCT020 BKN035"
    },
    {
      "icao": "LQBK",
      "alert": "OK",
      "vis_m": 9999,
      "fzfg": false,
      "metar_trigger": false,
      "taf_trigger": false,
      "metar": "METAR LQBK 130300Z VRB01KT CAVOK M02/M05 Q1019 NOSIG",
      "taf": "TAF LQBK 122300Z 1300/1324 15005KT CAVOK TX06/1313Z TNM06/1303Z"
    },
    {
      "icao": "LQSA",
      "alert": "OK",
      "vis_m": 5000,
      "fzfg": false,
      "metar_trigger": false,
      "taf_trigger": false,
      "metar": "METAR LQSA 130300Z VRB02KT 5000 BR NSC M06/M07 Q1021",
      "taf": "TAF LQSA 122300Z 1300/1324 VRB02KT 6000 NSC TX04/1314Z TNM08/1300Z"
    },
    {
      "icao": "LQTZ",
      "alert": "OK",
      "vis_m": 4700,
      "fzfg": false,
      "metar_trigger": false,
      "taf_trigger": false,
      "metar": "METAR LQTZ 130300Z VRB02KT 4700 BR SCT052 BKN063 M05/M05 Q1020",
      "taf": "TAF LQTZ 122300Z 1300/1324 09005KT CAVOK TX06/1313Z TNM06/1300Z"
    },
    {
      "icao": "LRBC",
      "alert": "OK",
      "vis_m": 9999,
      "fzfg": false,
      "metar_trigger": false,
      "taf_trigger": false,
      "metar": "METAR LRBC 130300Z 12002KT 9999 OVC068 M05/M08 Q1020",
      "taf": "TAF LRBC 130200Z 1303/1312 30006KT CAVOK"
    },
    {
      "icao": "LRBS",
      "alert": "OK",
      "vis_m": 8000,
      "fzfg": false,
      "metar_trigger": false,
      "taf_trigger": false,
      "metar": "METAR LRBS 130300Z COR 29003KT 260V340 8000 NSC M10/M11 Q1022 NOSIG",
      "taf": "TAF LRBS 122300Z 1300/1324 VRB04KT 5000 BR NSC"
    },
    {
      "icao": "LRBV",
      "alert": "OK",
      "vis_m": 7000,
      "fzfg": false,
      "metar_trigger": false,
      "taf_trigger": false,
      "metar": "METAR LRBV 130300Z AUTO 00000KT 7000 NCD M12/M13 Q1019",
      "taf": "TAF LRBV 130200Z 1303/1312 VRB04KT 9999 BKN045"
    },
    {
      "icao": "LRCL",
      "alert": "OK",
      "vis_m": 1500,
      "fzfg": false,
      "metar_trigger": false,
      "taf_trigger": false,
      "metar": "METAR LRCL 130300Z 00000KT 1500 R25/0900D BCFG BR BKN007 M15/M17 Q1021",
      "taf": "TAF LRCL 130200Z 1303/1312 VRB02KT 1500 BR SCT010"
    },
    {
      "icao": "LRCV",
      "alert": "OK",
      "vis_m": 9999,
      "fzfg": false,
      "metar_trigger": false,
      "taf_trigger": false,
      "metar": "METAR LRCV 130300Z VRB02KT CAVOK M11/M12 Q1021",
      "taf": "TAF LRCV 130200Z 1303/1312 VRB04KT CAVOK"
    },
    {
      "icao": "LRIA",
      "alert": "OK",
      "vis_m": 9999,
      "fzfg": false,
      "metar_trigger": false,
      "taf_trigger": false,
      "metar": "METAR LRIA 130300Z VRB01KT 9999 FEW040 M07/M09 Q1021",
      "taf": "TAF LRIA 130200Z 1303/1312 VRB04KT 9999 BKN040"
    },
    {
      "icao": "LROP",
      "alert": "OK",
      "vis_m": 5000,
      "fzfg": false,
      "metar_trigger": false,
      "taf_trigger": false,
      "metar": "METAR LROP 130300Z 25004KT 5000 BR NSC M11/M13 Q1022 NOSIG",
      "taf": "TAF LROP 122300Z 1300/1324 VRB04KT 5000 BR NSC"
    },
    {
      "icao": "LRSB",
      "alert": "OK",
      "vis_m": 7000,
      "fzfg": false,
      "metar_trigger": false,
      "taf_trigger": false,
      "metar": "METAR LRSB 130300Z 24003KT 190V280 7000 NSC M17/M18 Q1019",
      "taf": "TAF LRSB 122300Z 1300/1324 VRB04KT 9999 SCT050"
    },
    {
      "icao": "LRSM",
      "alert": "OK",
      "vis_m": 9999,
      "fzfg": false,
      "metar_trigger": false,
      "taf_trigger": false,
      "metar": "METAR LRSM 130300Z AUTO 09005KT 9999 FEW001/// M16/M18 Q1022",
      "taf": "TAF LRSM 130200Z 1303/1312 12007KT CAVOK"
    },
    {
      "icao": "LRSV",
      "alert": "OK",
      "vis_m": 9999,
      "fzfg": false,
      "metar_trigger": false,
      "taf_trigger": false,
      "metar": "METAR LRSV 130300Z 17004KT 9999 BKN048 M07/M08 Q1017",
      "taf": "TAF LRSV 130200Z 1303/1312 33006KT 9999 BKN040"
    },
    {
      "icao": "LRTM",
      "alert": "OK",
      "vis_m": 9999,
      "fzfg": false,
      "metar_trigger": false,
      "taf_trigger": false,
      "metar": "METAR LRTM 130300Z AUTO 00000KT 9999 NCD M17/M19 Q1021",
      "taf": "TAF LRTM 130200Z 1303/1312 VRB02KT 7000 NSC"
    },
    {
      "icao": "LRTR",
      "alert": "OK",
      "vis_m": 9999,
      "fzfg": false,
      "metar_trigger": false,
      "taf_trigger": false,
      "metar": "METAR LRTR 130300Z 10011KT 9999 FEW042 M08/M11 Q1021",
      "taf": "TAF LRTR 122300Z 1300/1324 10010KT 9999 BKN020 OVC040"
    },
    {
      "icao": "LTAC",
      "alert": "OK",
      "vis_m": 9999,
      "fzfg": false,
      "metar_trigger": false,
      "taf_trigger": false,
      "metar": "METAR LTAC 130250Z 33003KT 290V350 9999 SCT036 BKN100 M02/M06 Q1011 NOSIG",
      "taf": "TAF LTAC 122240Z 1300/1324 02008KT 9999 SCT040 BKN100"
    },
    {
      "icao": "LTFM",
      "alert": "OK",
      "vis_m": 9999,
      "fzfg": false,
      "metar_trigger": false,
      "taf_trigger": false,
      "metar": "METAR LTFM 130250Z 30011KT 9999 BKN032 BKN070 M01/M05 Q1021 NOSIG",
      "taf": "TAF LTFM 122240Z 1300/1406 34012KT 9999 -SHSN BKN032 BKN080"
    },
    {
      "icao": "LUKK",
      "alert": "OK",
      "vis_m": 9999,
      "fzfg": false,
      "metar_trigger": false,
      "taf_trigger": false,
      "metar": "METAR LUKK 130300Z 01006KT CAVOK M09/M11 Q1020 NOSIG",
      "taf": "TAF LUKK 122316Z 1300/1324 30009KT CAVOK"
    },
    {
      "icao": "LWOH",
      "alert": "OK",
      "vis_m": null,
      "fzfg": false,
      "metar_trigger": false,
      "taf_trigger": false,
      "metar": "",
      "taf": ""
    },
    {
      "icao": "LWSK",
      "alert": "OK",
      "vis_m": 9999,
      "fzfg": false,
      "metar_trigger": false,
      "taf_trigger": false,
      "metar": "METAR LWSK 130250Z VRB01KT 9999 BKN072 M07/M09 Q1025 NOSIG",
      "taf": ""
    },
    {
      "icao": "LYBE",
      "alert": "OK",
      "vis_m": 9999,
      "fzfg": false,
      "metar_trigger": false,
      "taf_trigger": false,
      "metar": "METAR LYBE 130300Z 15002KT CAVOK M02/M05 Q1020 NOSIG",
      "taf": "TAF LYBE 122300Z 1300/1324 12005KT 9999 SCT040 TX03/1313Z TNM03/1224Z"
    },
    {
      "icao": "LYNI",
      "alert": "OK",
      "vis_m": 9999,
      "fzfg": false,
      "metar_trigger": false,
      "taf_trigger": false,
      "metar": "METAR LYNI 130300Z VRB02KT 9999 BKN073 M05/M07 Q1023 NOSIG",
      "taf": "TAF LYNI 122300Z 1300/1324 10003KT 9999 BKN080 TX01/1313Z TNM05/1300Z"
    },
    {
      "icao": "LYPG",
      "alert": "OK",
      "vis_m": 9999,
      "fzfg": false,
      "metar_trigger": false,
      "taf_trigger": false,
      "metar": "METAR LYPG 130300Z 33004KT 9999 SCT050 BKN070 01/M06 Q1026 NOSIG",
      "taf": "TAF LYPG 122300Z 1300/1324 36005KT 9999 SCT050 BKN080 TX05/1313Z TNM02/1303Z"
    },
    {
      "icao": "LZIB",
      "alert": "OK",
      "vis_m": 6000,
      "fzfg": false,
      "metar_trigger": false,
      "taf_trigger": false,
      "metar": "METAR LZIB 130300Z 03005KT 6000 -FZRA OVC016 M05/M05 Q1017 RESN NOSIG",
      "taf": "TAF LZIB 122315Z 1300/1400 09004KT 6000 -FZRA SCT013 OVC016"
    },
    {
      "icao": "LZKZ",
      "alert": "OK",
      "vis_m": 7000,
      "fzfg": false,
      "metar_trigger": false,
      "taf_trigger": false,
      "metar": "METAR LZKZ 130300Z 21004KT 7000 FEW006 M10/M12 Q1020 NOSIG",
      "taf": "TAF LZKZ 122315Z 1300/1400 VRB02KT CAVOK"
    },
    {
      "icao": "LZTT",
      "alert": "OK",
      "vis_m": 5000,
      "fzfg": false,
      "metar_trigger": false,
      "taf_trigger": false,
      "metar": "METAR LZTT 130300Z 33002KT 5000 -SN OVC023 M11/M13 Q1014",
      "taf": "TAF LZTT 122315Z 1300/1400 VRB02KT 9999 SCT050"
    },
    {
      "icao": "OEJN",
      "alert": "OK",
      "vis_m": 9999,
      "fzfg": false,
      "metar_trigger": false,
      "taf_trigger": false,
      "metar": "METAR OEJN 130300Z 34002KT 9999 FEW040 24/17 Q1015 NOSIG",
      "taf": "TAF OEJN 122300Z 1300/1406 02005KT 7000 SCT040"
    },
    {
      "icao": "OEMA",
      "alert": "OK",
      "vis_m": 9999,
      "fzfg": false,
      "metar_trigger": false,
      "taf_trigger": false,
      "metar": "METAR OEMA 130300Z 22010KT CAVOK 21/11 Q1018 NOSIG",
      "taf": "TAF OEMA 122300Z 1300/1406 25005KT 7000 FEW040"
    },
    {
      "icao": "OJAI",
      "alert": "OK",
      "vis_m": 2000,
      "fzfg": false,
      "metar_trigger": false,
      "taf_trigger": false,
      "metar": "METAR OJAI 130200Z 23019KT 2000 BR SCT030 SCT035 07/04 Q1012 NOSIG",
      "taf": "TAF OJAI 122258Z 1300/1406 25014KT 2000 RA FEW025TCU SCT035"
    },
    {
      "icao": "OMAA",
      "alert": "OK",
      "vis_m": 2500,
      "fzfg": false,
      "metar_trigger": false,
      "taf_trigger": false,
      "metar": "METAR OMAA 130300Z 10004KT 2500 HZ NSC 15/13 Q1021 NOSIG",
      "taf": "TAF OMAA 122300Z 1300/1406 VRB02KT 8000 NSC"
    },
    {
      "icao": "OMDB",
      "alert": "OK",
      "vis_m": 6000,
      "fzfg": false,
      "metar_trigger": false,
      "taf_trigger": false,
      "metar": "METAR OMDB 130300Z VRB02KT 6000 NSC 17/13 Q1021 TEMPO 4000 HZ",
      "taf": "TAF OMDB 122300Z 1300/1406 12005KT 7000 NSC"
    },
    {
      "icao": "UAAA",
      "alert": "OK",
      "vis_m": 150,
      "fzfg": true,
      "metar_trigger": false,
      "taf_trigger": false,
      "metar": "METAR UAAA 130300Z VRB01MPS 0150 R23L/0200N FZFG VV002 M03/M03 Q1030 NOSIG RMK QBB060",
      "taf": ""
    },
    {
      "icao": "UBBB",
      "alert": "OK",
      "vis_m": 9999,
      "fzfg": false,
      "metar_trigger": false,
      "taf_trigger": false,
      "metar": "METAR UBBB 130300Z 33012KT 9999 SCT011 06/05 Q1012 NOSIG",
      "taf": "TAF UBBB 122309Z 1300/1324 33014KT 9999 SCT014 BKN020 TX09/1310Z TN06/1301Z"
    },
    {
      "icao": "UDSG",
      "alert": "OK",
      "vis_m": 9999,
      "fzfg": false,
      "metar_trigger": false,
      "taf_trigger": false,
      "metar": "METAR UDSG 130300Z 31003KT 9999 BKN049 M01/M04 Q1009 NOSIG",
      "taf": "TAF UDSG 122300Z 1300/1324 VRB06KT 9999 BKN030"
    },
    {
      "icao": "UDYZ",
      "alert": "OK",
      "vis_m": 9999,
      "fzfg": false,
      "metar_trigger": false,
      "taf_trigger": false,
      "metar": "METAR UDYZ 130300Z 06003KT 9999 FEW046 02/M04 Q1008 NOSIG",
      "taf": "TAF UDYZ 122300Z 1300/1324 18006KT 2000 BR FEW040"
    },
    {
      "icao": "UGKO",
      "alert": "OK",
      "vis_m": 9999,
      "fzfg": false,
      "metar_trigger": false,
      "taf_trigger": false,
      "metar": "METAR UGKO 130300Z 24005KT 9999 SCT012 BKN040 07/06 Q1009 NOSIG",
      "taf": "TAF UGKO 122300Z 1300/1324 26007KT 9999 SCT015 OVC040 TX08/1300Z TN06/1304Z"
    }
  ]
}