{
  "ts_utc": "2026-02-09T05:13:57Z",
  "threshold_m": 150,
  "source": "stations_override.txt (ICAO list) + aviationweather.gov (METAR/TAF raw)",
  "station_count": 159,
  "stations": [
    {
      "icao": "BIKF",
      "alert": "OK",
      "vis_m": 9999,
      "fzfg": false,
      "metar_trigger": false,
      "taf_trigger": false,
      "metar": "METAR BIKF 090500Z 03016KT CAVOK 01/M02 Q1007",
      "taf": "TAF BIKF 090455Z 0906/1006 04014KT CAVOK TX03/0915Z TNM01/0909Z"
    },
    {
      "icao": "BKPR",
      "alert": "OK",
      "vis_m": 6000,
      "fzfg": false,
      "metar_trigger": false,
      "taf_trigger": false,
      "metar": "METAR BKPR 090500Z 02002KT 6000 SCT080 04/04 Q1007 NOSIG",
      "taf": "TAF BKPR 082330Z 0900/0924 VRB05KT 9999 BKN030"
    },
    {
      "icao": "EBCI",
      "alert": "OK",
      "vis_m": 9999,
      "fzfg": false,
      "metar_trigger": false,
      "taf_trigger": false,
      "metar": "METAR EBCI 090450Z 15008KT 9999 BKN009 04/02 Q1005 NOSIG",
      "taf": "TAF EBCI 082316Z 0900/1006 16006KT 8000 FEW004"
    },
    {
      "icao": "EDDB",
      "alert": "OK",
      "vis_m": 4100,
      "fzfg": false,
      "metar_trigger": false,
      "taf_trigger": false,
      "metar": "METAR EDDB 090450Z AUTO 09006KT 060V120 4100 BR OVC004 M01/M01 Q1012 NOSIG",
      "taf": ""
    },
    {
      "icao": "EDDH",
      "alert": "OK",
      "vis_m": 7000,
      "fzfg": false,
      "metar_trigger": false,
      "taf_trigger": false,
      "metar": "METAR EDDH 090450Z AUTO 11008KT 7000 OVC008 00/M01 Q1011 TEMPO 4500 -FZDZ",
      "taf": "TAF EDDH 082300Z 0900/1006 11008KT 9999 BKN013"
    },
    {
      "icao": "EDDK",
      "alert": "OK",
      "vis_m": 9999,
      "fzfg": false,
      "metar_trigger": false,
      "taf_trigger": false,
      "metar": "METAR EDDK 090450Z AUTO 10006KT 060V130 9999 FEW007 02/01 Q1007 NOSIG",
      "taf": "TAF EDDK 082300Z 0900/1006 11005KT 9999 FEW025"
    },
    {
      "icao": "EDDN",
      "alert": "OK",
      "vis_m": 9999,
      "fzfg": false,
      "metar_trigger": false,
      "taf_trigger": false,
      "metar": "METAR EDDN 090450Z AUTO 12002KT 9999 OVC011 03/02 Q1008",
      "taf": "TAF EDDN 082300Z 0900/0924 11004KT 9000 SCT010 BKN030"
    },
    {
      "icao": "EDDS",
      "alert": "OK",
      "vis_m": 9999,
      "fzfg": false,
      "metar_trigger": false,
      "taf_trigger": false,
      "metar": "METAR EDDS 090450Z AUTO 11003KT 070V200 9999 OVC017 02/01 Q1006",
      "taf": "TAF EDDS 082300Z 0900/0924 VRB03KT 9999 BKN020"
    },
    {
      "icao": "EDFH",
      "alert": "OK",
      "vis_m": 500,
      "fzfg": false,
      "metar_trigger": false,
      "taf_trigger": false,
      "metar": "METAR EDFH 090450Z 14007KT 110V170 0500 R21/0350N FG VV/// 01/00 Q1006",
      "taf": "TAF EDFH 082300Z 0900/0924 13010KT 8000 BKN005"
    },
    {
      "icao": "EDJA",
      "alert": "OK",
      "vis_m": 3000,
      "fzfg": false,
      "metar_trigger": false,
      "taf_trigger": false,
      "metar": "METAR EDJA 090450Z 05006KT 3000 BR SCT002 BKN008 01/01 Q1006",
      "taf": "TAF EDJA 090200Z 0903/0912 VRB03KT 5000 BR OVC002"
    },
    {
      "icao": "EDLW",
      "alert": "OK",
      "vis_m": 9999,
      "fzfg": false,
      "metar_trigger": false,
      "taf_trigger": false,
      "metar": "METAR EDLW 090450Z 00000KT CAVOK M02/M02 Q1007",
      "taf": "TAF EDLW 090420Z 0905/0924 07004KT 9999 FEW035"
    },
    {
      "icao": "EDNY",
      "alert": "OK",
      "vis_m": 9999,
      "fzfg": false,
      "metar_trigger": false,
      "taf_trigger": false,
      "metar": "METAR EDNY 090450Z 07002KT 9999 SCT009 BKN012 OVC023 04/03 Q1006",
      "taf": "TAF EDNY 090200Z 0903/0912 VRB03KT 9999 SCT010 OVC025"
    },
    {
      "icao": "EDSB",
      "alert": "OK",
      "vis_m": 900,
      "fzfg": false,
      "metar_trigger": false,
      "taf_trigger": false,
      "metar": "METAR EDSB 090450Z 04005KT 0900 R21/1100D FG VV/// 03/02 Q1007",
      "taf": "TAF EDSB 082300Z 0900/0924 VRB03KT 1200 BR FEW002 BKN005"
    },
    {
      "icao": "EETN",
      "alert": "OK",
      "vis_m": 9999,
      "fzfg": false,
      "metar_trigger": false,
      "taf_trigger": false,
      "metar": "METAR EETN 090450Z 22008KT 9999 -SG OVC004 M11/M12 Q1019 NOSIG",
      "taf": "TAF EETN 082330Z 0900/0924 20005KT 9999 SCT004 OVC008"
    },
    {
      "icao": "EFTU",
      "alert": "OK",
      "vis_m": 9999,
      "fzfg": false,
      "metar_trigger": false,
      "taf_trigger": false,
      "metar": "METAR EFTU 090450Z AUTO 26013KT 240V300 9999 OVC013 M06/M08 Q1016",
      "taf": "TAF EFTU 090232Z 0903/1003 24009KT 9999 BKN018"
    },
    {
      "icao": "EGBB",
      "alert": "OK",
      "vis_m": 9999,
      "fzfg": false,
      "metar_trigger": false,
      "taf_trigger": false,
      "metar": "METAR EGBB 090450Z 15009KT 9999 -RA SCT006 BKN046 07/06 Q1000",
      "taf": "TAF EGBB 090454Z 0906/1006 15008KT 9999 SCT010"
    },
    {
      "icao": "EGGP",
      "alert": "OK",
      "vis_m": 9999,
      "fzfg": false,
      "metar_trigger": false,
      "taf_trigger": false,
      "metar": "METAR EGGP 090450Z AUTO 15009KT 9999 FEW015/// BKN045/// 07/05 Q0999",
      "taf": "TAF EGGP 090452Z 0906/1006 14008KT 9999 FEW010 SCT045"
    },
    {
      "icao": "EGGW",
      "alert": "OK",
      "vis_m": 3800,
      "fzfg": false,
      "metar_trigger": false,
      "taf_trigger": false,
      "metar": "METAR EGGW 090450Z AUTO 14005KT 3800 BR BKN002 06/06 Q1001",
      "taf": "TAF EGGW 090458Z 0906/1006 15007KT 9999 SCT005"
    },
    {
      "icao": "EGKK",
      "alert": "OK",
      "vis_m": 9999,
      "fzfg": false,
      "metar_trigger": false,
      "taf_trigger": false,
      "metar": "METAR EGKK 090450Z 15004KT 120V180 CAVOK 07/06 Q1002",
      "taf": "TAF EGKK 090456Z 0906/1012 15006KT 9999 SCT015"
    },
    {
      "icao": "EGNM",
      "alert": "OK",
      "vis_m": null,
      "fzfg": false,
      "metar_trigger": false,
      "taf_trigger": false,
      "metar": "",
      "taf": "TAF EGNM 082255Z 0900/0924 16005KT 9999 SCT003"
    },
    {
      "icao": "EGPD",
      "alert": "OK",
      "vis_m": 4600,
      "fzfg": false,
      "metar_trigger": false,
      "taf_trigger": false,
      "metar": "METAR EGPD 090450Z AUTO 14008KT 4600 RA BKN006/// BKN020/// OVC037/// //////CB 07/06 Q1000 TEMPO 2500 RADZ BKN004",
      "taf": "TAF EGPD 090455Z 0906/1006 15009KT 9999 SCT002 BKN006"
    },
    {
      "icao": "EGPF",
      "alert": "OK",
      "vis_m": 6000,
      "fzfg": false,
      "metar_trigger": false,
      "taf_trigger": false,
      "metar": "METAR EGPF 090450Z AUTO 07004KT 6000 FEW012/// SCT017/// BKN021/// //////TCU 05/05 Q0998 RERA REDZ",
      "taf": "TAF EGPF 090456Z 0906/1006 07006KT 9999 SCT020"
    },
    {
      "icao": "EHBK",
      "alert": "OK",
      "vis_m": 9999,
      "fzfg": false,
      "metar_trigger": false,
      "taf_trigger": false,
      "metar": "METAR EHBK 090455Z COR AUTO 10006KT 9999 NSC M00/M01 Q1006 NOSIG",
      "taf": "TAF EHBK 082317Z 0900/1006 11005KT CAVOK"
    },
    {
      "icao": "EHEH",
      "alert": "OK",
      "vis_m": 2600,
      "fzfg": false,
      "metar_trigger": false,
      "taf_trigger": false,
      "metar": "METAR EHEH 090455Z AUTO 12004KT 100V160 2600 BR SCT001 BKN002 OVC003 01/01 Q1006 AMB",
      "taf": "TAF EHEH 082323Z 0900/1006 08005KT 6000 NSC"
    },
    {
      "icao": "EKBI",
      "alert": "OK",
      "vis_m": 5000,
      "fzfg": false,
      "metar_trigger": false,
      "taf_trigger": false,
      "metar": "METAR EKBI 090450Z AUTO 09008KT 5000 -SN OVC007/// M01/M01 Q1013",
      "taf": "TAF EKBI 090227Z 0903/1003 09012KT 9999 BKN009"
    },
    {
      "icao": "EKCH",
      "alert": "OK",
      "vis_m": 9999,
      "fzfg": false,
      "metar_trigger": false,
      "taf_trigger": false,
      "metar": "METAR EKCH 090450Z 09010KT 9999 BKN009 M01/M03 Q1016 TEMPO BKN010",
      "taf": "TAF EKCH 090227Z 0903/1003 09013KT 9999 BKN016"
    },
    {
      "icao": "ENAL",
      "alert": "OK",
      "vis_m": 9999,
      "fzfg": false,
      "metar_trigger": false,
      "taf_trigger": false,
      "metar": "METAR ENAL 090450Z 15006KT 9999 SCT030 02/M05 Q1013",
      "taf": "TAF ENAL 090200Z 0903/0912 15008KT CAVOK"
    },
    {
      "icao": "ENBR",
      "alert": "OK",
      "vis_m": 9999,
      "fzfg": false,
      "metar_trigger": false,
      "taf_trigger": false,
      "metar": "METAR ENBR 090450Z 00000KT CAVOK M01/M08 Q1013 RMK WIND 1200FT 12011KT",
      "taf": "TAF ENBR 082300Z 0900/0924 09005KT CAVOK"
    },
    {
      "icao": "ENGM",
      "alert": "OK",
      "vis_m": 9999,
      "fzfg": false,
      "metar_trigger": false,
      "taf_trigger": false,
      "metar": "METAR ENGM 090450Z VRB02KT 9999 OVC020 M10/M11 Q1017 NOSIG",
      "taf": "TAF ENGM 082300Z 0900/0924 01005KT 9999 -SN BKN020"
    },
    {
      "icao": "ENHD",
      "alert": "OK",
      "vis_m": null,
      "fzfg": false,
      "metar_trigger": false,
      "taf_trigger": false,
      "metar": "",
      "taf": ""
    },
    {
      "icao": "ENTC",
      "alert": "OK",
      "vis_m": 9999,
      "fzfg": false,
      "metar_trigger": false,
      "taf_trigger": false,
      "metar": "METAR ENTC 090450Z 20005KT 9999 -SN FEW003 SCT009 BKN033 M02/M03 Q1010 RMK WIND 2600FT 01021KT",
      "taf": ""
    },
    {
      "icao": "ENTO",
      "alert": "OK",
      "vis_m": 9999,
      "fzfg": false,
      "metar_trigger": false,
      "taf_trigger": false,
      "metar": "METAR ENTO 090450Z 03004KT 9999 BKN009 M09/M10 Q1018",
      "taf": "TAF ENTO 082300Z 0900/0924 01008KT 9999 BKN020"
    },
    {
      "icao": "ENVA",
      "alert": "OK",
      "vis_m": 9999,
      "fzfg": false,
      "metar_trigger": false,
      "taf_trigger": false,
      "metar": "METAR ENVA 090450Z 09004KT 9999 BKN043 M07/M12 Q1014 RMK WIND 670FT 17006KT",
      "taf": "TAF ENVA 082300Z 0900/0924 10005KT 9999 FEW030 BKN050"
    },
    {
      "icao": "ENZV",
      "alert": "OK",
      "vis_m": 9999,
      "fzfg": false,
      "metar_trigger": false,
      "taf_trigger": false,
      "metar": "METAR ENZV 090450Z 12010KT 9999 BKN030 01/M05 Q1013",
      "taf": "TAF ENZV 082300Z 0900/0924 12010KT 9999 FEW030"
    },
    {
      "icao": "EPGD",
      "alert": "OK",
      "vis_m": 1800,
      "fzfg": false,
      "metar_trigger": false,
      "taf_trigger": false,
      "metar": "METAR EPGD 090500Z 14007KT 1800 -SG BR OVC002 M10/M11 Q1017",
      "taf": ""
    },
    {
      "icao": "EPKK",
      "alert": "OK",
      "vis_m": 9000,
      "fzfg": false,
      "metar_trigger": false,
      "taf_trigger": false,
      "metar": "METAR EPKK 090500Z 08013KT 9000 FEW008 OVC009 M03/M05 Q1013",
      "taf": "TAF EPKK 090230Z 0903/1003 07012KT 9999 OVC008"
    },
    {
      "icao": "EPKT",
      "alert": "OK",
      "vis_m": 9000,
      "fzfg": false,
      "metar_trigger": false,
      "taf_trigger": false,
      "metar": "METAR EPKT 090500Z 08013KT 9000 OVC007 M03/M05 Q1012",
      "taf": "TAF EPKT 082330Z 0900/0924 07010KT 8000 -SN BKN008"
    },
    {
      "icao": "EPLB",
      "alert": "OK",
      "vis_m": 9999,
      "fzfg": false,
      "metar_trigger": false,
      "taf_trigger": false,
      "metar": "METAR EPLB 090500Z 13013KT 9999 -SN OVC010 M08/M10 Q1018",
      "taf": "TAF EPLB 082330Z 0900/0924 08012KT 9999 OVC010"
    },
    {
      "icao": "EPMO",
      "alert": "OK",
      "vis_m": 9999,
      "fzfg": false,
      "metar_trigger": false,
      "taf_trigger": false,
      "metar": "METAR EPMO 090500Z 09008KT 9999 OVC010 M08/M09 Q1018",
      "taf": "TAF EPMO 082330Z 0900/0924 08012KT 9999 BKN011"
    },
    {
      "icao": "EPPO",
      "alert": "OK",
      "vis_m": 9999,
      "fzfg": false,
      "metar_trigger": false,
      "taf_trigger": false,
      "metar": "METAR EPPO 090500Z 10010KT 9999 OVC012 M02/M04 Q1014",
      "taf": "TAF EPPO 082330Z 0900/0924 10011KT 6000 OVC012"
    },
    {
      "icao": "EPRA",
      "alert": "OK",
      "vis_m": 9999,
      "fzfg": false,
      "metar_trigger": false,
      "taf_trigger": false,
      "metar": "METAR EPRA 090500Z 11012KT 9999 OVC009 M05/M07 Q1017",
      "taf": "TAF EPRA 090230Z 0903/0912 10012KT 9999 OVC013"
    },
    {
      "icao": "EPRZ",
      "alert": "OK",
      "vis_m": 9999,
      "fzfg": false,
      "metar_trigger": false,
      "taf_trigger": false,
      "metar": "METAR EPRZ 090500Z 08019KT 9999 OVC008 M05/M06 Q1016",
      "taf": "TAF EPRZ 082330Z 0900/0924 07012KT 9000 -SN OVC010"
    },
    {
      "icao": "EPSC",
      "alert": "OK",
      "vis_m": 9999,
      "fzfg": false,
      "metar_trigger": false,
      "taf_trigger": false,
      "metar": "METAR EPSC 090500Z 11009KT 9999 OVC013 M01/M04 Q1014",
      "taf": "TAF EPSC 082330Z 0900/0924 09009KT 9999 BKN012"
    },
    {
      "icao": "EPSY",
      "alert": "OK",
      "vis_m": 9999,
      "fzfg": false,
      "metar_trigger": false,
      "taf_trigger": false,
      "metar": "METAR EPSY 090500Z 12004KT 060V170 9999 -SN OVC003 M12/M13 Q1019",
      "taf": "TAF EPSY 090230Z 0903/0912 10006KT 9999 BKN005"
    },
    {
      "icao": "EPWA",
      "alert": "OK",
      "vis_m": 9999,
      "fzfg": false,
      "metar_trigger": false,
      "taf_trigger": false,
      "metar": "METAR EPWA 090500Z 10011KT 9999 OVC008 M07/M09 Q1018 NOSIG",
      "taf": "TAF EPWA 090230Z 0903/1003 10010KT 9999 OVC013"
    },
    {
      "icao": "EPWR",
      "alert": "OK",
      "vis_m": 8000,
      "fzfg": false,
      "metar_trigger": false,
      "taf_trigger": false,
      "metar": "METAR EPWR 090500Z 09010KT 8000 OVC009 M01/M02 Q1013",
      "taf": "TAF EPWR 090230Z 0903/1003 08010KT 7000 OVC006"
    },
    {
      "icao": "ESGG",
      "alert": "OK",
      "vis_m": 9999,
      "fzfg": false,
      "metar_trigger": false,
      "taf_trigger": false,
      "metar": "METAR ESGG 090450Z 10006KT 9999 BKN039 M08/M09 Q1017",
      "taf": "TAF ESGG 090230Z 0903/1003 12010KT 9999 SCT040"
    },
    {
      "icao": "ESKN",
      "alert": "OK",
      "vis_m": 9999,
      "fzfg": false,
      "metar_trigger": false,
      "taf_trigger": false,
      "metar": "METAR ESKN 090450Z 28003KT CAVOK M15/M16 Q1019",
      "taf": "TAF ESKN 090230Z 0903/1003 30003KT 9999 BKN023"
    },
    {
      "icao": "ESMS",
      "alert": "OK",
      "vis_m": 9999,
      "fzfg": false,
      "metar_trigger": false,
      "taf_trigger": false,
      "metar": "METAR ESMS 090450Z 10011KT 9999 OVC007 M02/M03 Q1015",
      "taf": ""
    },
    {
      "icao": "ESSA",
      "alert": "OK",
      "vis_m": 6000,
      "fzfg": true,
      "metar_trigger": false,
      "taf_trigger": false,
      "metar": "METAR ESSA 090450Z 20002KT 6000 SCT003 BKN021 M13/M14 Q1018 TEMPO 2000 BCFG BKN002",
      "taf": "TAF ESSA 090230Z 0903/1003 25003KT 0200 FZFG OVC002"
    },
    {
      "icao": "EYKA",
      "alert": "OK",
      "vis_m": 9999,
      "fzfg": false,
      "metar_trigger": false,
      "taf_trigger": false,
      "metar": "METAR EYKA 090450Z VRB01KT CAVOK M20/M23 Q1022",
      "taf": "TAF EYKA 090508Z 0906/1006 VRB04KT 8000 NSC"
    },
    {
      "icao": "EYPA",
      "alert": "OK",
      "vis_m": 9999,
      "fzfg": false,
      "metar_trigger": false,
      "taf_trigger": false,
      "metar": "METAR EYPA 090450Z 10003KT CAVOK M18/M19 Q1021",
      "taf": "TAF EYPA 090508Z 0906/1006 VRB04KT 8000 SCT015"
    },
    {
      "icao": "EYVI",
      "alert": "OK",
      "vis_m": 9999,
      "fzfg": false,
      "metar_trigger": false,
      "taf_trigger": false,
      "metar": "METAR EYVI 090450Z 10003KT 050V130 9999 -SN OVC003 M16/M18 Q1021 NOSIG",
      "taf": "TAF EYVI 090503Z 0906/1006 VRB03KT 9000 BKN002"
    },
    {
      "icao": "GCFV",
      "alert": "OK",
      "vis_m": 9999,
      "fzfg": false,
      "metar_trigger": false,
      "taf_trigger": false,
      "metar": "METAR GCFV 090500Z AUTO 33008KT CAVOK 17/13 Q1023",
      "taf": "TAF GCFV 090200Z 0903/1003 31005KT 9999 FEW025 TX22/0914Z TN16/0906Z"
    },
    {
      "icao": "GCLP",
      "alert": "OK",
      "vis_m": 9999,
      "fzfg": false,
      "metar_trigger": false,
      "taf_trigger": false,
      "metar": "METAR GCLP 090500Z 34011KT 9999 FEW030 17/12 Q1023 NOSIG",
      "taf": "TAF GCLP 090200Z 0903/1003 34008KT 9999 FEW030 TX22/0914Z TN16/0906Z"
    },
    {
      "icao": "GCTS",
      "alert": "OK",
      "vis_m": 9999,
      "fzfg": false,
      "metar_trigger": false,
      "taf_trigger": false,
      "metar": "METAR GCTS 090500Z 36004KT 9999 FEW035 14/08 Q1024 NOSIG",
      "taf": "TAF GCTS 090200Z 0903/1003 36005KT 9999 FEW035 TX22/0914Z TN14/0906Z"
    },
    {
      "icao": "GMAD",
      "alert": "OK",
      "vis_m": 4000,
      "fzfg": false,
      "metar_trigger": false,
      "taf_trigger": false,
      "metar": "METAR GMAD 090500Z 36004KT 4000 BR SCT005 11/09 Q1020 BECMG 1500 BR BKN003",
      "taf": "TAF GMAD 082300Z 0900/1006 22004KT 6000 SCT016"
    },
    {
      "icao": "GMMN",
      "alert": "OK",
      "vis_m": 2000,
      "fzfg": false,
      "metar_trigger": false,
      "taf_trigger": false,
      "metar": "SPECI GMMN 090504Z 20006KT 170V230 2000 DZ BKN006 14/13 Q1020 BECMG 5000 -DZ",
      "taf": "TAF GMMN 082300Z 0900/1006 22014KT 9999 BKN020"
    },
    {
      "icao": "GMMX",
      "alert": "OK",
      "vis_m": 8000,
      "fzfg": false,
      "metar_trigger": false,
      "taf_trigger": false,
      "metar": "METAR GMMX 090500Z VRB02KT 8000 BKN020 13/12 Q1022 NOSIG",
      "taf": "TAF GMMX 082300Z 0900/1006 22006KT 8000 SCT020 SCT080"
    },
    {
      "icao": "HEGN",
      "alert": "OK",
      "vis_m": 9999,
      "fzfg": false,
      "metar_trigger": false,
      "taf_trigger": false,
      "metar": "METAR HEGN 090400Z 00000KT CAVOK 14/04 Q1013 NOSIG",
      "taf": "TAF HEGN 090500Z 0906/1012 33008KT CAVOK"
    },
    {
      "icao": "HEMA",
      "alert": "OK",
      "vis_m": 9999,
      "fzfg": false,
      "metar_trigger": false,
      "taf_trigger": false,
      "metar": "METAR HEMA 090400Z 24007KT CAVOK 19/M04 Q1012 NOSIG",
      "taf": "TAF HEMA 090500Z 0906/1012 32008KT CAVOK"
    },
    {
      "icao": "HESH",
      "alert": "OK",
      "vis_m": 6000,
      "fzfg": false,
      "metar_trigger": false,
      "taf_trigger": false,
      "metar": "METAR HESH 090400Z 00000KT 6000 NSC 19/17 Q1014 NOSIG",
      "taf": "TAF HESH 090500Z 0906/1012 36008KT 6000 NSC"
    },
    {
      "icao": "HESX",
      "alert": "OK",
      "vis_m": 4000,
      "fzfg": false,
      "metar_trigger": false,
      "taf_trigger": false,
      "metar": "METAR HESX 090400Z 27003KT 4000 SCT030 14/07 Q1010 NOSIG",
      "taf": "TAF HESX 090500Z 0906/1012 27008KT 6000 NSC"
    },
    {
      "icao": "LATI",
      "alert": "OK",
      "vis_m": 6000,
      "fzfg": false,
      "metar_trigger": false,
      "taf_trigger": false,
      "metar": "METAR LATI 090450Z 33007KT 310V010 6000 RA FEW030CB OVC040 09/07 Q1007 NOSIG",
      "taf": "TAF LATI 090500Z 0906/1006 VRB05KT 9999 SCT040 BKN080 TX13/0912Z TN07/1005Z"
    },
    {
      "icao": "LBPD",
      "alert": "OK",
      "vis_m": 9999,
      "fzfg": false,
      "metar_trigger": false,
      "taf_trigger": false,
      "metar": "METAR LBPD 090500Z AUTO 32005KT 9999 BKN068/// OVC094/// 05/05 Q1009 NOSIG",
      "taf": "TAF LBPD 082300Z 0900/0924 VRB03KT 5000 BR BKN015"
    },
    {
      "icao": "LBSF",
      "alert": "OK",
      "vis_m": 4000,
      "fzfg": false,
      "metar_trigger": false,
      "taf_trigger": false,
      "metar": "METAR LBSF 090500Z 07003KT 4000 BR NSC M01/M01 Q1009 TEMPO 2000 BR SCT012",
      "taf": "TAF LBSF 082300Z 0900/0924 VRB03KT 5000 BR BKN015"
    },
    {
      "icao": "LBWN",
      "alert": "OK",
      "vis_m": 3900,
      "fzfg": false,
      "metar_trigger": false,
      "taf_trigger": false,
      "metar": "METAR LBWN 090500Z AUTO 08007KT 040V130 3900 DZ OVC005/// 02/02 Q1013 TEMPO 3000 DZ BKN005",
      "taf": "TAF LBWN 082300Z 0900/0924 VRB03KT 3000 BR BKN002 OVC025"
    },
    {
      "icao": "LCLK",
      "alert": "OK",
      "vis_m": 9999,
      "fzfg": false,
      "metar_trigger": false,
      "taf_trigger": false,
      "metar": "METAR LCLK 090500Z 26002KT 9999 FEW030 12/10 Q1009 NOSIG",
      "taf": "TAF LCLK 082330Z 0900/1000 30006KT 9999 FEW025"
    },
    {
      "icao": "LCPH",
      "alert": "OK",
      "vis_m": 9999,
      "fzfg": false,
      "metar_trigger": false,
      "taf_trigger": false,
      "metar": "METAR LCPH 090500Z 01005KT 9999 SCT020 13/12 Q1009 NOSIG",
      "taf": "TAF LCPH 082330Z 0900/1000 02007KT 9999 FEW020"
    },
    {
      "icao": "LEAL",
      "alert": "OK",
      "vis_m": 9999,
      "fzfg": false,
      "metar_trigger": false,
      "taf_trigger": false,
      "metar": "METAR LEAL 090500Z COR 29003KT 240V320 9999 OVC062 10/09 Q1011 RERA NOSIG",
      "taf": "TAF LEAL 082300Z 0900/0924 26005KT 9999 FEW040 TX21/0914Z TN06/0906Z"
    },
    {
      "icao": "LEBB",
      "alert": "OK",
      "vis_m": 9999,
      "fzfg": false,
      "metar_trigger": false,
      "taf_trigger": false,
      "metar": "METAR LEBB 090500Z VRB03KT 9999 BKN059 12/05 Q1004 NOSIG",
      "taf": "TAF LEBB 082300Z 0900/0924 20008KT 9999 FEW040 SCT060 TX16/0913Z TN09/0900Z"
    },
    {
      "icao": "LEBL",
      "alert": "OK",
      "vis_m": 9999,
      "fzfg": false,
      "metar_trigger": false,
      "taf_trigger": false,
      "metar": "METAR LEBL 090500Z 34007KT 9999 FEW027 07/05 Q1008 NOSIG",
      "taf": "TAF LEBL 082300Z 0900/0924 34009KT 9999 FEW025 TX14/0913Z TN07/0906Z"
    },
    {
      "icao": "LECH",
      "alert": "OK",
      "vis_m": 9000,
      "fzfg": false,
      "metar_trigger": false,
      "taf_trigger": false,
      "metar": "METAR LECH 090500Z AUTO 15003KT 9000 FEW060 08/01 Q1007",
      "taf": ""
    },
    {
      "icao": "LEMD",
      "alert": "OK",
      "vis_m": 5000,
      "fzfg": false,
      "metar_trigger": false,
      "taf_trigger": false,
      "metar": "METAR LEMD 090500Z 18005KT 5000 -RA BR BKN005 06/06 Q1009 REDZ NOSIG",
      "taf": ""
    },
    {
      "icao": "LEMG",
      "alert": "OK",
      "vis_m": 4000,
      "fzfg": false,
      "metar_trigger": false,
      "taf_trigger": false,
      "metar": "SPECI LEMG 090508Z 30006KT 270V330 4000 RA SCT010 BKN030 10/09 Q1013 NOSIG",
      "taf": "TAF LEMG 082300Z 0900/0924 VRB03KT 9999 FEW040 TX22/0914Z TN13/0907Z"
    },
    {
      "icao": "LEVC",
      "alert": "OK",
      "vis_m": 9999,
      "fzfg": false,
      "metar_trigger": false,
      "taf_trigger": false,
      "metar": "METAR LEVC 090500Z 15003KT 130V290 9999 -RA BKN050 09/07 Q1009 NOSIG",
      "taf": "TAF LEVC 082300Z 0900/0924 25006KT 9999 FEW040 TX20/0914Z TN07/0906Z"
    },
    {
      "icao": "LEXJ",
      "alert": "OK",
      "vis_m": 9999,
      "fzfg": false,
      "metar_trigger": false,
      "taf_trigger": false,
      "metar": "METAR LEXJ 090500Z 22008KT 190V250 9999 OVC066 13/04 Q1003",
      "taf": "TAF LEXJ 090200Z 0903/1003 20009KT 9999 SCT060 TX16/0913Z TN09/0903Z"
    },
    {
      "icao": "LEZG",
      "alert": "OK",
      "vis_m": 9999,
      "fzfg": false,
      "metar_trigger": false,
      "taf_trigger": false,
      "metar": "METAR LEZG 090500Z VRB02KT 9999 -RA BKN040 07/05 Q1008 NOSIG",
      "taf": ""
    },
    {
      "icao": "LEZL",
      "alert": "OK",
      "vis_m": 9999,
      "fzfg": false,
      "metar_trigger": false,
      "taf_trigger": false,
      "metar": "METAR LEZL 090500Z 24007KT 9999 OVC008 15/15 Q1012 NOSIG",
      "taf": "TAF LEZL 090200Z 0903/1003 24010KT 9999 FEW015 TX20/0915Z TN12/0907Z"
    },
    {
      "icao": "LFBD",
      "alert": "OK",
      "vis_m": 9999,
      "fzfg": false,
      "metar_trigger": false,
      "taf_trigger": false,
      "metar": "METAR LFBD 090500Z AUTO 17003KT 9999 FEW020 OVC098 07/07 Q1004 TEMPO 4000 BR VV///",
      "taf": "TAF LFBD 082300Z 0900/1006 15005KT 9999 SCT040 TX12/0914Z TN06/0903Z"
    },
    {
      "icao": "LFLL",
      "alert": "OK",
      "vis_m": 9000,
      "fzfg": false,
      "metar_trigger": false,
      "taf_trigger": false,
      "metar": "METAR LFLL 090500Z 15009KT 9000 1300N R35L/P2000 R17R/0900U R35R/P2000 R17L/P2000 BR NSC 03/02 Q1006 TEMPO 0500 BCFG",
      "taf": ""
    },
    {
      "icao": "LFLS",
      "alert": "OK",
      "vis_m": 9000,
      "fzfg": false,
      "metar_trigger": false,
      "taf_trigger": false,
      "metar": "METAR LFLS 090500Z AUTO 09006KT 9000 NSC 00/M00 Q1005 NOSIG",
      "taf": "TAF LFLS 090200Z 0903/1003 08006KT CAVOK"
    },
    {
      "icao": "LFMN",
      "alert": "OK",
      "vis_m": 9999,
      "fzfg": false,
      "metar_trigger": false,
      "taf_trigger": false,
      "metar": "METAR LFMN 090500Z 33010KT 9999 FEW033 BKN110 09/06 Q1005 NOSIG",
      "taf": "TAF LFMN 090200Z 0903/1009 33010KT 9999 BKN080"
    },
    {
      "icao": "LFOB",
      "alert": "OK",
      "vis_m": 3500,
      "fzfg": false,
      "metar_trigger": false,
      "taf_trigger": false,
      "metar": "METAR LFOB 090500Z AUTO 12008KT 3500 BR VV/// 04/04 Q1004 TEMPO 0600 FG",
      "taf": "TAF LFOB 082300Z 0900/0924 13005KT CAVOK"
    },
    {
      "icao": "LFPO",
      "alert": "OK",
      "vis_m": 900,
      "fzfg": false,
      "metar_trigger": false,
      "taf_trigger": false,
      "metar": "METAR LFPO 090500Z 10005KT 0900 R02/1900N R25/1900D R07/1800D R24/1900N R06/1400U FG VV/// 04/04 Q1004 NOSIG",
      "taf": ""
    },
    {
      "icao": "LFSB",
      "alert": "OK",
      "vis_m": 7000,
      "fzfg": false,
      "metar_trigger": false,
      "taf_trigger": false,
      "metar": "METAR LFSB 090500Z AUTO VRB01KT 7000 OVC004 03/03 Q1006 TEMPO 0300 FG VV///",
      "taf": ""
    },
    {
      "icao": "LGAV",
      "alert": "OK",
      "vis_m": 9999,
      "fzfg": false,
      "metar_trigger": false,
      "taf_trigger": false,
      "metar": "METAR LGAV 090450Z VRB03KT 9999 FEW020 BKN060 10/06 Q1009 NOSIG",
      "taf": "TAF LGAV 090500Z 0906/1006 27006KT 9999 SCT025 SCT070"
    },
    {
      "icao": "LGTS",
      "alert": "OK",
      "vis_m": 9999,
      "fzfg": false,
      "metar_trigger": false,
      "taf_trigger": false,
      "metar": "METAR LGTS 090450Z VRB02KT 9999 FEW025 08/06 Q1008 NOSIG",
      "taf": "TAF LGTS 090500Z 0906/1006 VRB03KT 9999 FEW010 BKN025"
    },
    {
      "icao": "LHBP",
      "alert": "OK",
      "vis_m": 5000,
      "fzfg": false,
      "metar_trigger": false,
      "taf_trigger": false,
      "metar": "METAR LHBP 090500Z 07002KT 5000 BR OVC004 05/04 Q1010 NOSIG",
      "taf": ""
    },
    {
      "icao": "LHDC",
      "alert": "OK",
      "vis_m": 9999,
      "fzfg": false,
      "metar_trigger": false,
      "taf_trigger": false,
      "metar": "METAR LHDC 090445Z AUTO 04008KT 9999 OVC014 03/02 Q1010 NOSIG",
      "taf": "TAF LHDC 090215Z 0903/0912 04007KT 9999 OVC018"
    },
    {
      "icao": "LIBD",
      "alert": "OK",
      "vis_m": 9999,
      "fzfg": false,
      "metar_trigger": false,
      "taf_trigger": false,
      "metar": "METAR LIBD 090450Z VRB02KT 9999 -DZRA FEW030 SCT040 09/09 Q1005",
      "taf": "TAF LIBD 082300Z 0900/0924 VRB05KT 9999 SCT040"
    },
    {
      "icao": "LIBG",
      "alert": "OK",
      "vis_m": null,
      "fzfg": false,
      "metar_trigger": false,
      "taf_trigger": false,
      "metar": "",
      "taf": ""
    },
    {
      "icao": "LIBP",
      "alert": "OK",
      "vis_m": 2300,
      "fzfg": false,
      "metar_trigger": false,
      "taf_trigger": false,
      "metar": "METAR LIBP 090450Z AUTO 23002KT 2300 BCFG OVC016/// 07/07 Q1005",
      "taf": "TAF LIBP 082300Z 0900/0924 VRB05KT 8000 BKN020"
    },
    {
      "icao": "LIBR",
      "alert": "OK",
      "vis_m": 7000,
      "fzfg": false,
      "metar_trigger": false,
      "taf_trigger": false,
      "metar": "METAR LIBR 090450Z 21016KT 7000 -RA NSC 11/08 Q1005",
      "taf": "TAF LIBR 082300Z 0900/0924 15010KT 9999 SCT040"
    },
    {
      "icao": "LICA",
      "alert": "OK",
      "vis_m": 9999,
      "fzfg": false,
      "metar_trigger": false,
      "taf_trigger": false,
      "metar": "METAR LICA 090450Z AUTO 07006KT 9999 OVC054/// 10/09 Q1004",
      "taf": "TAF LICA 082300Z 0900/0924 07006KT 9999 FEW020 SCT080"
    },
    {
      "icao": "LICC",
      "alert": "OK",
      "vis_m": 9999,
      "fzfg": false,
      "metar_trigger": false,
      "taf_trigger": false,
      "metar": "METAR LICC 090450Z 25010KT CAVOK 08/05 Q1005",
      "taf": "TAF LICC 082300Z 0900/0924 VRB06KT 9999 SCT030 SCT080"
    },
    {
      "icao": "LICJ",
      "alert": "OK",
      "vis_m": 9999,
      "fzfg": false,
      "metar_trigger": false,
      "taf_trigger": false,
      "metar": "METAR LICJ 090450Z 19013KT 9999 SCT040 SCT070 11/09 Q1004",
      "taf": "TAF LICJ 082300Z 0900/0924 20015KT 9999 FEW020 SCT040"
    },
    {
      "icao": "LIMC",
      "alert": "OK",
      "vis_m": 8000,
      "fzfg": false,
      "metar_trigger": false,
      "taf_trigger": false,
      "metar": "METAR LIMC 090450Z 01006KT 8000 NSC 05/05 Q1006 NOSIG",
      "taf": "TAF LIMC 082300Z 0900/1006 VRB04KT 4000 BR BKN040"
    },
    {
      "icao": "LIME",
      "alert": "OK",
      "vis_m": 9999,
      "fzfg": false,
      "metar_trigger": false,
      "taf_trigger": false,
      "metar": "METAR LIME 090450Z 02003KT 9999 SCT070 06/05 Q1006 NOSIG",
      "taf": "TAF LIME 082300Z 0900/0924 VRB04KT 3000 BR BKN040"
    },
    {
      "icao": "LIMF",
      "alert": "OK",
      "vis_m": 7000,
      "fzfg": false,
      "metar_trigger": false,
      "taf_trigger": false,
      "metar": "METAR LIMF 090450Z 28003KT 7000 BKN040 07/05 Q1007",
      "taf": "TAF LIMF 082300Z 0900/0924 VRB04KT 7000 BKN030"
    },
    {
      "icao": "LIMJ",
      "alert": "OK",
      "vis_m": 9999,
      "fzfg": false,
      "metar_trigger": false,
      "taf_trigger": false,
      "metar": "METAR LIMJ 090450Z AUTO 03012KT 9999 OVC160/// 10/06 Q1005",
      "taf": "TAF LIMJ 082300Z 0900/0924 02008KT 9999 BKN030"
    },
    {
      "icao": "LIPE",
      "alert": "OK",
      "vis_m": 300,
      "fzfg": false,
      "metar_trigger": false,
      "taf_trigger": false,
      "metar": "METAR LIPE 090450Z VRB01KT 0300 R12/0800N R30/1000D -DZ FG VV001 08/08 Q1006",
      "taf": "TAF LIPE 082300Z 0900/0924 VRB05KT 6000 SCT010"
    },
    {
      "icao": "LIPH",
      "alert": "OK",
      "vis_m": 9999,
      "fzfg": false,
      "metar_trigger": false,
      "taf_trigger": false,
      "metar": "METAR LIPH 090450Z AUTO 02002KT 9999 OVC100/// 07/06 Q1006",
      "taf": "TAF LIPH 082300Z 0900/0924 VRB05KT 7000 SCT060"
    },
    {
      "icao": "LIPQ",
      "alert": "OK",
      "vis_m": 9999,
      "fzfg": false,
      "metar_trigger": false,
      "taf_trigger": false,
      "metar": "METAR LIPQ 090450Z AUTO 36003KT 9999 OVC075/// 07/06 Q1007",
      "taf": "TAF LIPQ 082300Z 0900/0924 VRB05KT 9999 BKN050"
    },
    {
      "icao": "LIPR",
      "alert": "OK",
      "vis_m": 1300,
      "fzfg": false,
      "metar_trigger": false,
      "taf_trigger": false,
      "metar": "METAR LIPR 090450Z AUTO 25003KT 1300 R30/P2000N -RA BR OVC005/// 08/08 Q1006",
      "taf": "TAF LIPR 082300Z 0900/0924 VRB05KT 6000 SCT010 SCT040"
    },
    {
      "icao": "LIPX",
      "alert": "OK",
      "vis_m": 9000,
      "fzfg": false,
      "metar_trigger": false,
      "taf_trigger": false,
      "metar": "METAR LIPX 090450Z 32005KT 9000 NSC 05/05 Q1006",
      "taf": "TAF LIPX 082300Z 0900/0924 VRB04KT 6000 BKN040"
    },
    {
      "icao": "LIPY",
      "alert": "OK",
      "vis_m": 7000,
      "fzfg": false,
      "metar_trigger": false,
      "taf_trigger": false,
      "metar": "METAR LIPY 090450Z AUTO 23003KT 7000 -RA BKN036/// OVC100/// 09/08 Q1006",
      "taf": "TAF LIPY 082300Z 0900/0924 VRB05KT 7000 SCT060"
    },
    {
      "icao": "LIPZ",
      "alert": "OK",
      "vis_m": 9999,
      "fzfg": false,
      "metar_trigger": false,
      "taf_trigger": false,
      "metar": "METAR LIPZ 090450Z 03007KT 9999 SCT070 06/05 Q1006 NOSIG",
      "taf": "TAF LIPZ 082300Z 0900/1006 05006KT 9999 SCT060"
    },
    {
      "icao": "LIRF",
      "alert": "OK",
      "vis_m": 9999,
      "fzfg": false,
      "metar_trigger": false,
      "taf_trigger": false,
      "metar": "METAR LIRF 090450Z 05004KT 9999 -RA FEW030 09/08 Q1003 NOSIG",
      "taf": "TAF LIRF 082300Z 0900/1006 08010KT 9999 SCT020 BKN040"
    },
    {
      "icao": "LIRN",
      "alert": "OK",
      "vis_m": 9999,
      "fzfg": false,
      "metar_trigger": false,
      "taf_trigger": false,
      "metar": "METAR LIRN 090450Z 05006KT 9999 SCT035 09/08 Q1004 NOSIG",
      "taf": "TAF LIRN 082300Z 0900/0924 VRB05KT 9999 BKN040"
    },
    {
      "icao": "LIRP",
      "alert": "OK",
      "vis_m": 9999,
      "fzfg": false,
      "metar_trigger": false,
      "taf_trigger": false,
      "metar": "METAR LIRP 090445Z VRB02KT 9999 FEW040 07/07 Q1005 NOSIG",
      "taf": "TAF LIRP 082300Z 0900/0924 06005KT 9999 SCT020 SCT050"
    },
    {
      "icao": "LIRZ",
      "alert": "OK",
      "vis_m": 9999,
      "fzfg": false,
      "metar_trigger": false,
      "taf_trigger": false,
      "metar": "METAR LIRZ 090450Z AUTO 36008KT 9999 FEW047/// BKN052/// 08/06 Q1004",
      "taf": "TAF LIRZ 082300Z 0900/0924 VRB05KT 9999 BKN030"
    },
    {
      "icao": "LJLJ",
      "alert": "OK",
      "vis_m": 4000,
      "fzfg": false,
      "metar_trigger": false,
      "taf_trigger": false,
      "metar": "METAR LJLJ 090500Z 26003KT 4000 BR FEW006 SCT011 OVC036 04/04 Q1007 NOSIG",
      "taf": "TAF LJLJ 090500Z 0906/1006 VRB02KT 8000 SCT020 BKN040"
    },
    {
      "icao": "LKMT",
      "alert": "OK",
      "vis_m": 1500,
      "fzfg": false,
      "metar_trigger": false,
      "taf_trigger": false,
      "metar": "METAR LKMT 090500Z 03008KT 1500 SN BR OVC005 M01/M02 Q1011 TEMPO 2500 -SN BR",
      "taf": "TAF LKMT 082300Z 0900/0924 02005KT 3000 -SN BR OVC008"
    },
    {
      "icao": "LKPR",
      "alert": "OK",
      "vis_m": 1500,
      "fzfg": true,
      "metar_trigger": false,
      "taf_trigger": false,
      "metar": "METAR LKPR 090500Z 07004KT 1500 -SG BR OVC002 M00/M00 Q1009 TEMPO 0800 FZFG",
      "taf": "TAF LKPR 090200Z 0903/1009 VRB02KT 0600 -FZDZ FZFG BKN001"
    },
    {
      "icao": "LLBG",
      "alert": "OK",
      "vis_m": 9999,
      "fzfg": false,
      "metar_trigger": false,
      "taf_trigger": false,
      "metar": "METAR LLBG 090450Z 32007KT CAVOK 16/06 Q1011 NOSIG",
      "taf": "TAF LLBG 090500Z 0906/1006 16005KT CAVOK"
    },
    {
      "icao": "LMML",
      "alert": "OK",
      "vis_m": 9999,
      "fzfg": false,
      "metar_trigger": false,
      "taf_trigger": false,
      "metar": "METAR LMML 090445Z 28007KT CAVOK 11/08 Q1007 NOSIG",
      "taf": "TAF LMML 090500Z 0906/1006 29010KT 9999 FEW020"
    },
    {
      "icao": "LOWW",
      "alert": "OK",
      "vis_m": 9999,
      "fzfg": false,
      "metar_trigger": false,
      "taf_trigger": false,
      "metar": "METAR LOWW 090450Z 01004KT 9999 FEW028 BKN030 02/00 Q1010 NOSIG",
      "taf": "TAF LOWW 090215Z 0903/1009 02005KT 9999 BKN030 TX04/0913Z TN02/0906Z"
    },
    {
      "icao": "LPFR",
      "alert": "OK",
      "vis_m": 8000,
      "fzfg": false,
      "metar_trigger": false,
      "taf_trigger": false,
      "metar": "METAR LPFR 090500Z 26014KT 8000 BKN003 OVC010 15/15 Q1013",
      "taf": "TAF LPFR 082300Z 0900/0924 24010KT 8000 SCT006 BKN012"
    },
    {
      "icao": "LPMA",
      "alert": "OK",
      "vis_m": 9999,
      "fzfg": false,
      "metar_trigger": false,
      "taf_trigger": false,
      "metar": "METAR LPMA 090500Z 00000KT 9999 FEW015 17/11 Q1022",
      "taf": "TAF LPMA 082300Z 0900/0924 VRB05KT 9999 SCT015"
    },
    {
      "icao": "LPPR",
      "alert": "OK",
      "vis_m": 4500,
      "fzfg": false,
      "metar_trigger": false,
      "taf_trigger": false,
      "metar": "METAR LPPR 090500Z 21006KT 4500 VCSH BR BKN003 BKN030 14/13 Q1009",
      "taf": "TAF LPPR 082300Z 0900/0924 18013KT 6000 -RA SCT006 BKN012"
    },
    {
      "icao": "LPPS",
      "alert": "OK",
      "vis_m": 9999,
      "fzfg": false,
      "metar_trigger": false,
      "taf_trigger": false,
      "metar": "METAR LPPS 090500Z 28012KT 9999 SCT010 17/16 Q1022",
      "taf": "TAF LPPS 082300Z 0900/1006 27015KT 9999 SCT012"
    },
    {
      "icao": "LPPT",
      "alert": "OK",
      "vis_m": 5000,
      "fzfg": false,
      "metar_trigger": false,
      "taf_trigger": false,
      "metar": "METAR LPPT 090500Z 27008KT 230V300 5000 -DZ BR FEW005 BKN008 15/15 Q1012",
      "taf": "TAF LPPT 082300Z 0900/1006 26012KT 6000 -RADZ SCT003 SCT008"
    },
    {
      "icao": "LQBK",
      "alert": "OK",
      "vis_m": 6000,
      "fzfg": false,
      "metar_trigger": false,
      "taf_trigger": false,
      "metar": "METAR LQBK 090500Z 31003KT 6000 -RA SCT013 OVC025 07/06 Q1008 NOSIG",
      "taf": "TAF LQBK 090500Z 0906/1006 06005KT 7000 SCT010 BKN025 TX10/0914Z TN04/1005Z"
    },
    {
      "icao": "LQSA",
      "alert": "OK",
      "vis_m": 9999,
      "fzfg": false,
      "metar_trigger": false,
      "taf_trigger": false,
      "metar": "METAR LQSA 090500Z 00000KT 9999 BKN005 BKN025 05/05 Q1006 NOSIG",
      "taf": "TAF LQSA 090500Z 0906/1006 VRB02KT 8000 BKN005 TX09/0913Z TN03/1005Z"
    },
    {
      "icao": "LQTZ",
      "alert": "OK",
      "vis_m": 300,
      "fzfg": false,
      "metar_trigger": false,
      "taf_trigger": false,
      "metar": "METAR LQTZ 090500Z VRB01KT 0300 R09/0375N FG OVC002 07/07 Q1007",
      "taf": "TAF LQTZ 090500Z 0906/1006 04005KT 9999 BKN020 TX10/0913Z TN03/1005Z"
    },
    {
      "icao": "LRBC",
      "alert": "OK",
      "vis_m": 5000,
      "fzfg": false,
      "metar_trigger": false,
      "taf_trigger": false,
      "metar": "METAR LRBC 090500Z 34010KT 5000 -SN BR FEW009 SCT024 BKN036 M03/M05 Q1017",
      "taf": "TAF LRBC 090200Z 0903/0912 36008KT 9999 SCT015 OVC040"
    },
    {
      "icao": "LRBS",
      "alert": "OK",
      "vis_m": 9000,
      "fzfg": false,
      "metar_trigger": false,
      "taf_trigger": false,
      "metar": "METAR LRBS 090500Z 07015KT 9000 -SN BKN010 OVC015 00/M02 Q1015 NOSIG",
      "taf": "TAF LRBS 082300Z 0900/0924 07010KT 9999 BKN015"
    },
    {
      "icao": "LRBV",
      "alert": "OK",
      "vis_m": 9999,
      "fzfg": false,
      "metar_trigger": false,
      "taf_trigger": false,
      "metar": "METAR LRBV 090500Z 09009KT 9999 OVC014 M00/M02 Q1010",
      "taf": "TAF LRBV 090200Z 0903/0912 09008KT 9999 BKN020"
    },
    {
      "icao": "LRCL",
      "alert": "OK",
      "vis_m": 2500,
      "fzfg": false,
      "metar_trigger": false,
      "taf_trigger": false,
      "metar": "METAR LRCL 090500Z 06004KT 2500 BR OVC005 04/04 Q1010",
      "taf": "TAF LRCL 090200Z 0903/0912 VRB04KT 5000 -RA BR BKN010 OVC020"
    },
    {
      "icao": "LRCV",
      "alert": "OK",
      "vis_m": 5000,
      "fzfg": false,
      "metar_trigger": false,
      "taf_trigger": false,
      "metar": "METAR LRCV 090500Z 10013KT 5000 BR OVC008 02/01 Q1012",
      "taf": "TAF LRCV 090200Z 0903/0912 09016KT 3000 -DZ BR OVC005"
    },
    {
      "icao": "LRIA",
      "alert": "OK",
      "vis_m": 9999,
      "fzfg": false,
      "metar_trigger": false,
      "taf_trigger": false,
      "metar": "METAR LRIA 090500Z 36009KT 9999 BKN013 OVC015 M05/M08 Q1018",
      "taf": "TAF LRIA 090200Z 0903/0912 36008KT 9999 BKN020"
    },
    {
      "icao": "LROP",
      "alert": "OK",
      "vis_m": 8000,
      "fzfg": false,
      "metar_trigger": false,
      "taf_trigger": false,
      "metar": "METAR LROP 090500Z 08015KT 8000 -SN OVC012 00/M02 Q1015 NOSIG",
      "taf": "TAF LROP 082300Z 0900/0924 08010KT 9999 BKN015"
    },
    {
      "icao": "LRSB",
      "alert": "OK",
      "vis_m": 9000,
      "fzfg": false,
      "metar_trigger": false,
      "taf_trigger": false,
      "metar": "METAR LRSB 090500Z VRB02KT 9000 FEW032 BKN055 03/03 Q1009",
      "taf": "TAF LRSB 082300Z 0900/0924 VRB04KT 9999 BKN050"
    },
    {
      "icao": "LRSM",
      "alert": "OK",
      "vis_m": 1000,
      "fzfg": false,
      "metar_trigger": false,
      "taf_trigger": false,
      "metar": "METAR LRSM 090500Z 10002KT 1000 R19/P2000 BR BKN001 05/04 Q1010",
      "taf": "TAF LRSM 090200Z 0903/0912 VRB04KT 3000 BR BKN005"
    },
    {
      "icao": "LRSV",
      "alert": "OK",
      "vis_m": 9999,
      "fzfg": false,
      "metar_trigger": false,
      "taf_trigger": false,
      "metar": "METAR LRSV 090500Z 05006KT 9999 -SN BKN009 M07/M08 Q1016",
      "taf": "TAF LRSV 090200Z 0903/0912 07008KT 5000 -SN BR BKN005 OVC015"
    },
    {
      "icao": "LRTM",
      "alert": "OK",
      "vis_m": 4000,
      "fzfg": false,
      "metar_trigger": false,
      "taf_trigger": false,
      "metar": "METAR LRTM 090500Z 12002KT 4000 -DZ BR FEW007 SCT012 BKN024 04/03 Q1010",
      "taf": "TAF LRTM 090200Z 0903/0912 VRB04KT 5000 BR OVC015"
    },
    {
      "icao": "LRTR",
      "alert": "OK",
      "vis_m": 1500,
      "fzfg": false,
      "metar_trigger": false,
      "taf_trigger": false,
      "metar": "METAR LRTR 090500Z 09005KT 1500 0600E R11/1100U PRFG BR FEW035 01/01 Q1009 TEMPO 0800 FG",
      "taf": "TAF LRTR 082300Z 0900/0924 VRB04KT 3000 BR BKN020"
    },
    {
      "icao": "LTAC",
      "alert": "OK",
      "vis_m": 9999,
      "fzfg": false,
      "metar_trigger": false,
      "taf_trigger": false,
      "metar": "METAR LTAC 090450Z 20005KT 150V260 9999 BKN035 BKN100 05/02 Q1009 NOSIG RMK RWY21C 20004KT 140V270 RWY03L VRB02KT RWY21R 19004KT 160V220 RWY03R 18003KT 140V290 RWY21L 18005KT",
      "taf": "TAF LTAC 090440Z 0906/1006 VRB02KT 9999 SCT035 BKN090"
    },
    {
      "icao": "LTFM",
      "alert": "OK",
      "vis_m": 1800,
      "fzfg": false,
      "metar_trigger": false,
      "taf_trigger": false,
      "metar": "METAR LTFM 090450Z 06009KT 1800 0900NE R35R/1100U R17L/P1500N R34L/0900N R36/1100D BCFG BKN002 BKN020 07/07 Q1011 NOSIG RMK RWY17L 06008KT RWY34L 05006KT RWY16R 06008KT RWY36 05008KT RWY18 06007KT",
      "taf": ""
    },
    {
      "icao": "LUKK",
      "alert": "OK",
      "vis_m": 9999,
      "fzfg": false,
      "metar_trigger": false,
      "taf_trigger": false,
      "metar": "METAR LUKK 090500Z 04014KT 9999 OVC014 M06/M09 Q1017 NOSIG",
      "taf": "TAF LUKK 090513Z 0906/1006 04010KT 9999 BKN012"
    },
    {
      "icao": "LWOH",
      "alert": "OK",
      "vis_m": null,
      "fzfg": false,
      "metar_trigger": false,
      "taf_trigger": false,
      "metar": "",
      "taf": "TAF LWOH 090240Z 0903/1003 VRB02KT 9999 SCT040"
    },
    {
      "icao": "LWSK",
      "alert": "OK",
      "vis_m": 9999,
      "fzfg": false,
      "metar_trigger": false,
      "taf_trigger": false,
      "metar": "METAR LWSK 090450Z 10002KT CAVOK 02/02 Q1009 NOSIG",
      "taf": "TAF LWSK 090240Z 0903/1003 VRB02KT 9999 SCT080"
    },
    {
      "icao": "LYBE",
      "alert": "OK",
      "vis_m": 4000,
      "fzfg": false,
      "metar_trigger": false,
      "taf_trigger": false,
      "metar": "METAR LYBE 090500Z 04004KT 010V100 4000 BR NSC 03/03 Q1009 TEMPO 0600 FG",
      "taf": ""
    },
    {
      "icao": "LYNI",
      "alert": "OK",
      "vis_m": 9999,
      "fzfg": false,
      "metar_trigger": false,
      "taf_trigger": false,
      "metar": "METAR LYNI 090500Z VRB02KT 9999 SCT050 BKN083 06/04 Q1008 NOSIG",
      "taf": "TAF LYNI 082300Z 0900/0924 32004KT CAVOK TX08/0912Z TN01/0924Z"
    },
    {
      "icao": "LYPG",
      "alert": "OK",
      "vis_m": 9999,
      "fzfg": false,
      "metar_trigger": false,
      "taf_trigger": false,
      "metar": "METAR LYPG 090500Z 13005KT 9999 -RA FEW026 SCT040 BKN070 08/08 Q1007 NOSIG",
      "taf": "TAF LYPG 082300Z 0900/0924 VRB02KT 9999 FEW030 SCT040 BKN070 TX11/0912Z TN08/0905Z"
    },
    {
      "icao": "LZIB",
      "alert": "OK",
      "vis_m": 9999,
      "fzfg": false,
      "metar_trigger": false,
      "taf_trigger": false,
      "metar": "METAR LZIB 090500Z VRB02KT 9999 -RA FEW010 SCT032 BKN038 03/02 Q1009 NOSIG",
      "taf": ""
    },
    {
      "icao": "LZKZ",
      "alert": "OK",
      "vis_m": 9999,
      "fzfg": false,
      "metar_trigger": false,
      "taf_trigger": false,
      "metar": "METAR LZKZ 090500Z 01016KT CAVOK 00/M04 Q1011 NOSIG",
      "taf": ""
    },
    {
      "icao": "LZTT",
      "alert": "OK",
      "vis_m": 9999,
      "fzfg": false,
      "metar_trigger": false,
      "taf_trigger": false,
      "metar": "METAR LZTT 090500Z 06007KT 9999 OVC005 M02/M03 Q1009",
      "taf": ""
    },
    {
      "icao": "OEJN",
      "alert": "OK",
      "vis_m": 9999,
      "fzfg": false,
      "metar_trigger": false,
      "taf_trigger": false,
      "metar": "METAR OEJN 090500Z VRB02KT CAVOK 23/06 Q1013 NOSIG",
      "taf": "TAF OEJN 082300Z 0900/1006 VRB03KT CAVOK"
    },
    {
      "icao": "OEMA",
      "alert": "OK",
      "vis_m": 9999,
      "fzfg": false,
      "metar_trigger": false,
      "taf_trigger": false,
      "metar": "METAR OEMA 090500Z 02003KT CAVOK 16/M05 Q1019 NOSIG",
      "taf": "TAF OEMA 082300Z 0900/1006 VRB03KT CAVOK"
    },
    {
      "icao": "OJAI",
      "alert": "OK",
      "vis_m": 4000,
      "fzfg": false,
      "metar_trigger": false,
      "taf_trigger": false,
      "metar": "METAR OJAI 090500Z 24012KT 4000 HZ NSC 14/05 Q1013 NOSIG",
      "taf": "TAF OJAI 090500Z 0906/1012 22012KT 4000 DU NSC"
    },
    {
      "icao": "OMAA",
      "alert": "OK",
      "vis_m": 9999,
      "fzfg": false,
      "metar_trigger": false,
      "taf_trigger": false,
      "metar": "METAR OMAA 090500Z 35005KT 300V070 CAVOK 21/11 Q1015 NOSIG",
      "taf": "TAF OMAA 090500Z 0906/1012 VRB02KT 8000 NSC"
    },
    {
      "icao": "OMDB",
      "alert": "OK",
      "vis_m": 9999,
      "fzfg": false,
      "metar_trigger": false,
      "taf_trigger": false,
      "metar": "METAR OMDB 090500Z 19003KT 110V250 CAVOK 23/12 Q1015 NOSIG",
      "taf": "TAF OMDB 090500Z 0906/1012 17005KT CAVOK"
    },
    {
      "icao": "UAAA",
      "alert": "OK",
      "vis_m": 5000,
      "fzfg": false,
      "metar_trigger": false,
      "taf_trigger": false,
      "metar": "METAR UAAA 090500Z 23003MPS 5000 BR BKN100 OVC200 M01/M04 Q1006 NOSIG",
      "taf": "TAF UAAA 082302Z 0900/0924 02003G08MPS 3100 BR FU SCT011 BKN030 TX04/0909Z TNM05/0902Z"
    },
    {
      "icao": "UBBB",
      "alert": "OK",
      "vis_m": 9999,
      "fzfg": false,
      "metar_trigger": false,
      "taf_trigger": false,
      "metar": "METAR UBBB 090500Z 31008KT 9999 OVC015 06/04 Q1005 NOSIG",
      "taf": "TAF UBBB 082304Z 0900/0924 33010KT 9999 BKN010 BKN030 TX07/0910Z TN04/0901Z"
    },
    {
      "icao": "UDSG",
      "alert": "OK",
      "vis_m": 2000,
      "fzfg": false,
      "metar_trigger": false,
      "taf_trigger": false,
      "metar": "METAR UDSG 090500Z 36001KT 2000 SN BR OVC010 00/00 Q1005 NOSIG",
      "taf": "TAF UDSG 082258Z 0900/0924 VRB06KT 2000 BR BKN020"
    },
    {
      "icao": "UDYZ",
      "alert": "OK",
      "vis_m": 9000,
      "fzfg": false,
      "metar_trigger": false,
      "taf_trigger": false,
      "metar": "METAR UDYZ 090500Z 10003KT 9000 -RA OVC028 05/03 Q1005 NOSIG",
      "taf": "TAF UDYZ 082300Z 0900/0924 VRB06KT 2300 BR BKN030"
    },
    {
      "icao": "UGKO",
      "alert": "OK",
      "vis_m": 5000,
      "fzfg": false,
      "metar_trigger": false,
      "taf_trigger": false,
      "metar": "METAR UGKO 090500Z 25007KT 5000 RA BR BKN017 OVC052 07/07 Q1007 NOSIG",
      "taf": ""
    }
  ]
}