{
  "ts_utc": "2025-12-23T12:36:48Z",
  "threshold_m": 150,
  "source": "stations_override.txt (ICAO list) + aviationweather.gov (METAR/TAF raw)",
  "station_count": 159,
  "stations": [
    {
      "icao": "BIKF",
      "alert": "OK",
      "vis_m": 9999,
      "fzfg": false,
      "metar_trigger": false,
      "taf_trigger": false,
      "metar": "METAR BIKF 231230Z 18022G33KT 9999 VCSH FEW008 BKN012 BKN080 05/03 Q1010",
      "taf": "TAF BIKF 231044Z 2312/2412 18020G30KT 9999 RA BKN020 OVC030 TX09/2412Z TN05/2312Z"
    },
    {
      "icao": "BKPR",
      "alert": "OK",
      "vis_m": 8000,
      "fzfg": false,
      "metar_trigger": false,
      "taf_trigger": false,
      "metar": "METAR BKPR 231230Z 30006KT 8000 BKN007 02/01 Q1017 NOSIG",
      "taf": "TAF BKPR 231130Z 2312/2412 VRB05KT 9999 BKN010 BKN030"
    },
    {
      "icao": "EBCI",
      "alert": "OK",
      "vis_m": 9999,
      "fzfg": false,
      "metar_trigger": false,
      "taf_trigger": false,
      "metar": "METAR EBCI 231220Z 06010KT 9999 BKN014 03/00 Q1015 BECMG BKN015",
      "taf": "TAF EBCI 231111Z 2312/2418 08012KT 9999 BKN020"
    },
    {
      "icao": "EDDB",
      "alert": "OK",
      "vis_m": 9999,
      "fzfg": false,
      "metar_trigger": false,
      "taf_trigger": false,
      "metar": "METAR EDDB 231220Z AUTO 08012KT 9999 OVC020 02/M02 Q1025 NOSIG",
      "taf": "TAF EDDB 231100Z 2312/2412 06011KT 9999 OVC025"
    },
    {
      "icao": "EDDH",
      "alert": "OK",
      "vis_m": 9999,
      "fzfg": false,
      "metar_trigger": false,
      "taf_trigger": false,
      "metar": "METAR EDDH 231220Z AUTO 08012KT 9999 SCT020 02/M02 Q1026 TEMPO 08015G25KT",
      "taf": "TAF EDDH 231100Z 2312/2418 08013KT 9999 SCT020"
    },
    {
      "icao": "EDDK",
      "alert": "OK",
      "vis_m": 9999,
      "fzfg": false,
      "metar_trigger": false,
      "taf_trigger": false,
      "metar": "METAR EDDK 231220Z AUTO 10011KT 050V140 9999 OVC020 05/00 Q1017 NOSIG",
      "taf": "TAF EDDK 231100Z 2312/2418 10008KT 9999 OVC020"
    },
    {
      "icao": "EDDN",
      "alert": "OK",
      "vis_m": 9999,
      "fzfg": false,
      "metar_trigger": false,
      "taf_trigger": false,
      "metar": "METAR EDDN 231220Z AUTO 09008KT 060V120 9999 SCT022 OVC028 04/M01 Q1015 NOSIG",
      "taf": "TAF EDDN 231100Z 2312/2412 08007KT 9999 OVC020"
    },
    {
      "icao": "EDDS",
      "alert": "OK",
      "vis_m": 9999,
      "fzfg": false,
      "metar_trigger": false,
      "taf_trigger": false,
      "metar": "METAR EDDS 231220Z AUTO 09007KT 060V120 9999 OVC011 02/M00 Q1013 NOSIG",
      "taf": "TAF EDDS 231100Z 2312/2412 07008KT 9999 OVC009"
    },
    {
      "icao": "EDFH",
      "alert": "OK",
      "vis_m": 9999,
      "fzfg": false,
      "metar_trigger": false,
      "taf_trigger": false,
      "metar": "METAR EDFH 231220Z 08011KT 9999 OVC008 01/M00 Q1014",
      "taf": "TAF EDFH 231100Z 2312/2412 08012KT 9999 OVC007"
    },
    {
      "icao": "EDJA",
      "alert": "OK",
      "vis_m": 3500,
      "fzfg": false,
      "metar_trigger": false,
      "taf_trigger": false,
      "metar": "METAR EDJA 231220Z 07008KT 050V110 3500 BR OVC003 M01/M01 Q1012",
      "taf": "TAF EDJA 231100Z 2312/2321 06010KT 3500 BR OVC002"
    },
    {
      "icao": "EDLW",
      "alert": "OK",
      "vis_m": 9999,
      "fzfg": false,
      "metar_trigger": false,
      "taf_trigger": false,
      "metar": "METAR EDLW 231220Z 05016KT 9999 OVC024 05/M00 Q1018",
      "taf": "TAF EDLW 231100Z 2312/2412 06011KT 9999 OVC020"
    },
    {
      "icao": "EDNY",
      "alert": "OK",
      "vis_m": 8000,
      "fzfg": false,
      "metar_trigger": false,
      "taf_trigger": false,
      "metar": "METAR EDNY 231220Z COR 06009KT 8000 OVC013 01/M01 Q1012",
      "taf": "TAF EDNY 231100Z 2312/2321 06008KT 9000 OVC012"
    },
    {
      "icao": "EDSB",
      "alert": "OK",
      "vis_m": 9999,
      "fzfg": false,
      "metar_trigger": false,
      "taf_trigger": false,
      "metar": "METAR EDSB 231220Z 05014KT 9999 BKN022 04/00 Q1013",
      "taf": "TAF EDSB 231100Z 2312/2412 05013KT 9999 OVC025"
    },
    {
      "icao": "EETN",
      "alert": "OK",
      "vis_m": 9999,
      "fzfg": false,
      "metar_trigger": false,
      "taf_trigger": false,
      "metar": "METAR EETN 231220Z 36004KT 320V030 9999 OVC036 M02/M08 Q1035 NOSIG",
      "taf": "TAF EETN 231130Z 2312/2412 02005KT 9999 BKN035"
    },
    {
      "icao": "EFTU",
      "alert": "OK",
      "vis_m": 9999,
      "fzfg": false,
      "metar_trigger": false,
      "taf_trigger": false,
      "metar": "METAR EFTU 231220Z AUTO 36002KT CAVOK M07/M10 Q1036",
      "taf": "TAF EFTU 231122Z 2312/2412 VRB02KT CAVOK"
    },
    {
      "icao": "EGBB",
      "alert": "OK",
      "vis_m": 8000,
      "fzfg": false,
      "metar_trigger": false,
      "taf_trigger": false,
      "metar": "METAR EGBB 231220Z 05009KT 8000 OVC013 07/04 Q1020",
      "taf": ""
    },
    {
      "icao": "EGGP",
      "alert": "OK",
      "vis_m": 9000,
      "fzfg": false,
      "metar_trigger": false,
      "taf_trigger": false,
      "metar": "METAR EGGP 231220Z 08008KT 9000 FEW016 OVC020 07/04 Q1021",
      "taf": "TAF EGGP 231055Z 2312/2412 09009KT 9999 SCT012 BKN025"
    },
    {
      "icao": "EGGW",
      "alert": "OK",
      "vis_m": 8000,
      "fzfg": false,
      "metar_trigger": false,
      "taf_trigger": false,
      "metar": "METAR EGGW 231220Z AUTO 04010KT 8000 OVC011 06/04 Q1018",
      "taf": "TAF EGGW 231057Z 2312/2412 06009KT 9999 BKN016"
    },
    {
      "icao": "EGKK",
      "alert": "OK",
      "vis_m": 9999,
      "fzfg": false,
      "metar_trigger": false,
      "taf_trigger": false,
      "metar": "METAR EGKK 231220Z 06013KT 9999 BKN015 07/05 Q1017",
      "taf": "TAF EGKK 231055Z 2312/2418 05010KT 9999 BKN016"
    },
    {
      "icao": "EGNM",
      "alert": "OK",
      "vis_m": 6000,
      "fzfg": false,
      "metar_trigger": false,
      "taf_trigger": false,
      "metar": "METAR EGNM 231220Z 06006KT 030V090 6000 SCT007 BKN013 06/05 Q1022",
      "taf": "TAF EGNM 231055Z 2312/2412 07008KT 9999 SCT012 BKN020"
    },
    {
      "icao": "EGPD",
      "alert": "OK",
      "vis_m": 9999,
      "fzfg": false,
      "metar_trigger": false,
      "taf_trigger": false,
      "metar": "METAR EGPD 231220Z AUTO 16009KT 9999 -RA FEW010 OVC016 08/06 Q1026 TEMPO BKN014",
      "taf": "TAF EGPD 231057Z 2312/2412 15009KT 9999 SCT014 BKN016"
    },
    {
      "icao": "EGPF",
      "alert": "OK",
      "vis_m": 9999,
      "fzfg": false,
      "metar_trigger": false,
      "taf_trigger": false,
      "metar": "METAR EGPF 231220Z AUTO 05009KT 9999 OVC022 08/06 Q1024",
      "taf": "TAF EGPF 231058Z 2312/2412 06006KT 9999 FEW015 BKN025"
    },
    {
      "icao": "EHBK",
      "alert": "OK",
      "vis_m": 9999,
      "fzfg": false,
      "metar_trigger": false,
      "taf_trigger": false,
      "metar": "METAR EHBK 231225Z AUTO 08011KT 320V130 9999 OVC018 05/01 Q1016 NOSIG",
      "taf": "TAF EHBK 231059Z 2312/2418 08012KT 9999 BKN017"
    },
    {
      "icao": "EHEH",
      "alert": "OK",
      "vis_m": 9999,
      "fzfg": false,
      "metar_trigger": false,
      "taf_trigger": false,
      "metar": "METAR EHEH 231225Z AUTO 07012KT 030V110 9999 OVC020 06/01 Q1018 WHT NOSIG RMK TREND REMOTE BY EHWX",
      "taf": "TAF EHEH 231139Z 2312/2418 07012G22KT 9999 OVC018"
    },
    {
      "icao": "EKBI",
      "alert": "OK",
      "vis_m": 9999,
      "fzfg": false,
      "metar_trigger": false,
      "taf_trigger": false,
      "metar": "METAR EKBI 231220Z AUTO 07014KT 9999 OVC031/// 04/01 Q1030",
      "taf": "TAF EKBI 231127Z 2312/2412 07012KT 9999 OVC025"
    },
    {
      "icao": "EKCH",
      "alert": "OK",
      "vis_m": 9999,
      "fzfg": false,
      "metar_trigger": false,
      "taf_trigger": false,
      "metar": "METAR EKCH 231220Z AUTO 05012KT 9999 NCD 04/00 Q1031 NOSIG",
      "taf": ""
    },
    {
      "icao": "ENAL",
      "alert": "OK",
      "vis_m": 9999,
      "fzfg": false,
      "metar_trigger": false,
      "taf_trigger": false,
      "metar": "METAR ENAL 231220Z 15012KT CAVOK 04/M04 Q1032",
      "taf": "TAF ENAL 231100Z 2312/2321 15012KT CAVOK"
    },
    {
      "icao": "ENBR",
      "alert": "OK",
      "vis_m": 9999,
      "fzfg": false,
      "metar_trigger": false,
      "taf_trigger": false,
      "metar": "METAR ENBR 231220Z 00000KT 9999 FEW030 03/M02 Q1033 NOSIG RMK WIND 1200FT 20006KT",
      "taf": "TAF ENBR 231100Z 2312/2412 VRB03KT CAVOK"
    },
    {
      "icao": "ENGM",
      "alert": "OK",
      "vis_m": 9999,
      "fzfg": false,
      "metar_trigger": false,
      "taf_trigger": false,
      "metar": "METAR ENGM 231220Z 30003KT 260V010 9999 OVC015 M02/M05 Q1036 NOSIG",
      "taf": "TAF ENGM 231100Z 2312/2412 02003KT 9999 BKN020"
    },
    {
      "icao": "ENHD",
      "alert": "OK",
      "vis_m": 9999,
      "fzfg": false,
      "metar_trigger": false,
      "taf_trigger": false,
      "metar": "METAR ENHD 231220Z 18006KT CAVOK 05/00 Q1033",
      "taf": "TAF ENHD 231100Z 2312/2321 17008KT CAVOK"
    },
    {
      "icao": "ENTC",
      "alert": "OK",
      "vis_m": 9999,
      "fzfg": false,
      "metar_trigger": false,
      "taf_trigger": false,
      "metar": "METAR ENTC 231220Z 16004KT 120V180 9999 -SHRA FEW006 BKN018 03/02 Q1028 TEMPO 4000 RADZ BKN012 RMK WIND 2600FT 27012KT",
      "taf": "TAF ENTC 231100Z 2312/2412 18009KT 9999 -RADZ SCT012 BKN018"
    },
    {
      "icao": "ENTO",
      "alert": "OK",
      "vis_m": 9999,
      "fzfg": false,
      "metar_trigger": false,
      "taf_trigger": false,
      "metar": "METAR ENTO 231220Z 01005KT 9999 FEW012 SCT017 OVC021 M01/M01 Q1037 RESN NOSIG",
      "taf": "TAF ENTO 231100Z 2312/2412 36005KT 9999 BKN020"
    },
    {
      "icao": "ENVA",
      "alert": "OK",
      "vis_m": 9999,
      "fzfg": false,
      "metar_trigger": false,
      "taf_trigger": false,
      "metar": "METAR ENVA 231220Z 09003KT CAVOK M04/M06 Q1033 NOSIG RMK WIND 670FT 14006KT",
      "taf": "TAF ENVA 231100Z 2312/2412 10008KT CAVOK"
    },
    {
      "icao": "ENZV",
      "alert": "OK",
      "vis_m": 9999,
      "fzfg": false,
      "metar_trigger": false,
      "taf_trigger": false,
      "metar": "METAR ENZV 231220Z 00000KT CAVOK 05/M02 Q1033 NOSIG",
      "taf": "TAF ENZV 231100Z 2312/2412 16003KT CAVOK"
    },
    {
      "icao": "EPGD",
      "alert": "OK",
      "vis_m": 9999,
      "fzfg": false,
      "metar_trigger": false,
      "taf_trigger": false,
      "metar": "METAR EPGD 231230Z 07009KT 040V100 9999 FEW019 BKN043 02/M01 Q1028",
      "taf": "TAF EPGD 231130Z 2312/2412 07010KT 9999 BKN020"
    },
    {
      "icao": "EPKK",
      "alert": "OK",
      "vis_m": 3500,
      "fzfg": false,
      "metar_trigger": false,
      "taf_trigger": false,
      "metar": "METAR EPKK 231230Z 05009KT 3500 -DZ BR OVC004 00/M00 Q1020",
      "taf": ""
    },
    {
      "icao": "EPKT",
      "alert": "OK",
      "vis_m": 9999,
      "fzfg": false,
      "metar_trigger": false,
      "taf_trigger": false,
      "metar": "METAR EPKT 231230Z 06009KT 020V090 9999 OVC008 00/M01 Q1020",
      "taf": "TAF EPKT 231130Z 2312/2412 07010KT 9999 BKN006"
    },
    {
      "icao": "EPLB",
      "alert": "OK",
      "vis_m": 9999,
      "fzfg": false,
      "metar_trigger": false,
      "taf_trigger": false,
      "metar": "METAR EPLB 231230Z 06005KT 9999 OVC034 01/M01 Q1023",
      "taf": "TAF EPLB 231130Z 2312/2412 06008KT 9999 OVC030"
    },
    {
      "icao": "EPMO",
      "alert": "OK",
      "vis_m": 9999,
      "fzfg": false,
      "metar_trigger": false,
      "taf_trigger": false,
      "metar": "METAR EPMO 231230Z 04009KT 9999 SCT021 03/M00 Q1025",
      "taf": "TAF EPMO 231130Z 2312/2412 07010KT 9999 BKN030"
    },
    {
      "icao": "EPPO",
      "alert": "OK",
      "vis_m": 9999,
      "fzfg": false,
      "metar_trigger": false,
      "taf_trigger": false,
      "metar": "METAR EPPO 231230Z 07008KT 9999 OVC036 03/M02 Q1025",
      "taf": "TAF EPPO 231130Z 2312/2412 07008KT 9999 OVC030"
    },
    {
      "icao": "EPRA",
      "alert": "OK",
      "vis_m": 9999,
      "fzfg": false,
      "metar_trigger": false,
      "taf_trigger": false,
      "metar": "METAR EPRA 231230Z 05005KT 9999 BKN033 01/M01 Q1023",
      "taf": "TAF EPRA 231130Z 2312/2321 07008KT 9999 BKN030"
    },
    {
      "icao": "EPRZ",
      "alert": "OK",
      "vis_m": 9999,
      "fzfg": false,
      "metar_trigger": false,
      "taf_trigger": false,
      "metar": "METAR EPRZ 231230Z 07006KT 9999 OVC016 01/M01 Q1021",
      "taf": "TAF EPRZ 231130Z 2312/2412 07010KT 9999 BKN015"
    },
    {
      "icao": "EPSC",
      "alert": "OK",
      "vis_m": 9999,
      "fzfg": false,
      "metar_trigger": false,
      "taf_trigger": false,
      "metar": "METAR EPSC 231230Z 05006KT 340V080 9999 SCT038 04/M01 Q1027",
      "taf": "TAF EPSC 231130Z 2312/2412 07007KT 9999 BKN040"
    },
    {
      "icao": "EPSY",
      "alert": "OK",
      "vis_m": 9999,
      "fzfg": false,
      "metar_trigger": false,
      "taf_trigger": false,
      "metar": "METAR EPSY 231230Z 06008KT 020V090 9999 -RASN BKN012 BKN031 02/M01 Q1026",
      "taf": "TAF EPSY 231130Z 2312/2321 06008KT 9999 BKN030"
    },
    {
      "icao": "EPWA",
      "alert": "OK",
      "vis_m": 9999,
      "fzfg": false,
      "metar_trigger": false,
      "taf_trigger": false,
      "metar": "METAR EPWA 231230Z 06008KT 030V100 9999 FEW019 BKN040 03/M01 Q1024 NOSIG",
      "taf": "TAF EPWA 231130Z 2312/2412 07010KT 9999 BKN030"
    },
    {
      "icao": "EPWR",
      "alert": "OK",
      "vis_m": 9999,
      "fzfg": false,
      "metar_trigger": false,
      "taf_trigger": false,
      "metar": "METAR EPWR 231230Z 06008KT 9999 OVC011 02/M00 Q1022",
      "taf": "TAF EPWR 231130Z 2312/2412 06008KT 5000 BR OVC011"
    },
    {
      "icao": "ESGG",
      "alert": "OK",
      "vis_m": 9999,
      "fzfg": false,
      "metar_trigger": false,
      "taf_trigger": false,
      "metar": "METAR ESGG 231220Z 07008KT 9999 BKN014 M00/M02 Q1034",
      "taf": "TAF ESGG 231130Z 2312/2412 06008KT 9999 SCT010 BKN016"
    },
    {
      "icao": "ESKN",
      "alert": "OK",
      "vis_m": 9999,
      "fzfg": false,
      "metar_trigger": false,
      "taf_trigger": false,
      "metar": "METAR ESKN 231220Z 04006KT 9999 BKN046 M01/M03 Q1035",
      "taf": "TAF ESKN 231130Z 2312/2412 02005KT 9999 FEW020"
    },
    {
      "icao": "ESMS",
      "alert": "OK",
      "vis_m": 9999,
      "fzfg": false,
      "metar_trigger": false,
      "taf_trigger": false,
      "metar": "METAR ESMS 231220Z 05013KT 9999 FEW015 SCT021 03/01 Q1030",
      "taf": "TAF ESMS 231127Z 2312/2412 05008KT 9999 SCT008 BKN020"
    },
    {
      "icao": "ESSA",
      "alert": "OK",
      "vis_m": 9999,
      "fzfg": false,
      "metar_trigger": false,
      "taf_trigger": false,
      "metar": "METAR ESSA 231220Z 01005KT CAVOK M03/M06 Q1036 NOSIG",
      "taf": "TAF ESSA 231130Z 2312/2412 02008KT 9999 FEW030"
    },
    {
      "icao": "EYKA",
      "alert": "OK",
      "vis_m": 9999,
      "fzfg": false,
      "metar_trigger": false,
      "taf_trigger": false,
      "metar": "METAR EYKA 231220Z 06012KT 020V090 CAVOK M05/M12 Q1030",
      "taf": "TAF EYKA 231100Z 2312/2412 05010KT 9000 NSC"
    },
    {
      "icao": "EYPA",
      "alert": "OK",
      "vis_m": 9999,
      "fzfg": false,
      "metar_trigger": false,
      "taf_trigger": false,
      "metar": "METAR EYPA 231220Z 08010KT 050V120 9999 OVC025 M03/M09 Q1032",
      "taf": "TAF EYPA 231100Z 2312/2412 07010KT 9000 BKN020"
    },
    {
      "icao": "EYVI",
      "alert": "OK",
      "vis_m": 9999,
      "fzfg": false,
      "metar_trigger": false,
      "taf_trigger": false,
      "metar": "METAR EYVI 231220Z 05011KT CAVOK M07/M12 Q1028 NOSIG",
      "taf": "TAF EYVI 231102Z 2312/2412 05014KT 9000 NSC"
    },
    {
      "icao": "GCFV",
      "alert": "OK",
      "vis_m": 9999,
      "fzfg": false,
      "metar_trigger": false,
      "taf_trigger": false,
      "metar": "METAR GCFV 231230Z 01019KT 9999 SCT040 21/09 Q1021",
      "taf": "TAF GCFV 230800Z 2309/2409 02012KT 9999 SCT025 TX22/2314Z TN15/2406Z"
    },
    {
      "icao": "GCLP",
      "alert": "OK",
      "vis_m": 9999,
      "fzfg": false,
      "metar_trigger": false,
      "taf_trigger": false,
      "metar": "METAR GCLP 231230Z 02024KT 9999 SCT038 21/11 Q1021 NOSIG",
      "taf": "TAF GCLP 230800Z 2309/2409 36018KT 9999 BKN020 TX21/2314Z TN15/2406Z"
    },
    {
      "icao": "GCTS",
      "alert": "OK",
      "vis_m": 9999,
      "fzfg": false,
      "metar_trigger": false,
      "taf_trigger": false,
      "metar": "METAR GCTS 231230Z 08013KT 050V110 9999 FEW035 22/10 Q1022 NOSIG",
      "taf": "TAF GCTS 230800Z 2309/2409 07012KT 9999 SCT030 TX24/2314Z TN15/2406Z"
    },
    {
      "icao": "GMAD",
      "alert": "OK",
      "vis_m": 9999,
      "fzfg": false,
      "metar_trigger": false,
      "taf_trigger": false,
      "metar": "METAR GMAD 231230Z 28003KT 220V330 CAVOK 17/10 Q1017 NOSIG",
      "taf": "TAF GMAD 231100Z 2312/2418 28008KT CAVOK"
    },
    {
      "icao": "GMMN",
      "alert": "OK",
      "vis_m": 9999,
      "fzfg": false,
      "metar_trigger": false,
      "taf_trigger": false,
      "metar": "METAR GMMN 231230Z 22012KT 200V260 9999 FEW020 SCT100 16/13 Q1017 NOSIG",
      "taf": "TAF GMMN 231100Z 2312/2418 22012KT 9999 FEW020 SCT100"
    },
    {
      "icao": "GMMX",
      "alert": "OK",
      "vis_m": 9999,
      "fzfg": false,
      "metar_trigger": false,
      "taf_trigger": false,
      "metar": "METAR GMMX 231230Z 22003KT 130V290 9999 SCT090 15/07 Q1018 NOSIG",
      "taf": "TAF GMMX 231100Z 2312/2418 16006KT 8000 SCT090"
    },
    {
      "icao": "HEGN",
      "alert": "OK",
      "vis_m": 9999,
      "fzfg": false,
      "metar_trigger": false,
      "taf_trigger": false,
      "metar": "METAR HEGN 231200Z 36010KT CAVOK 22/06 Q1015 NOSIG",
      "taf": "TAF HEGN 231100Z 2312/2418 35013KT CAVOK"
    },
    {
      "icao": "HEMA",
      "alert": "OK",
      "vis_m": 9999,
      "fzfg": false,
      "metar_trigger": false,
      "taf_trigger": false,
      "metar": "METAR HEMA 231200Z 01013KT 9999 SCT020 BKN200 23/09 Q1014 NOSIG",
      "taf": "TAF HEMA 231100Z 2312/2418 01012KT 9999 SCT25"
    },
    {
      "icao": "HESH",
      "alert": "OK",
      "vis_m": 9999,
      "fzfg": false,
      "metar_trigger": false,
      "taf_trigger": false,
      "metar": "METAR HESH 231200Z 06007KT CAVOK 24/10 Q1014 NOSIG",
      "taf": "TAF HESH 231100Z 2312/2418 03010KT CAVOK"
    },
    {
      "icao": "HESX",
      "alert": "OK",
      "vis_m": 9999,
      "fzfg": false,
      "metar_trigger": false,
      "taf_trigger": false,
      "metar": "METAR HESX 231200Z 26007KT CAVOK 20/05 Q1016 NOSIG",
      "taf": "TAF HESX 231100Z 2312/2418 24009KT CAVOK"
    },
    {
      "icao": "LATI",
      "alert": "OK",
      "vis_m": 9999,
      "fzfg": false,
      "metar_trigger": false,
      "taf_trigger": false,
      "metar": "METAR LATI 231220Z VRB02KT 9999 BKN072 12/06 Q1013 NOSIG",
      "taf": "TAF LATI 231100Z 2312/2412 VRB05KT 9999 SCT060 OVC090 TX14/2312Z TN05/2405Z"
    },
    {
      "icao": "LBPD",
      "alert": "OK",
      "vis_m": 9999,
      "fzfg": false,
      "metar_trigger": false,
      "taf_trigger": false,
      "metar": "METAR LBPD 231230Z AUTO 07004KT 020V100 9999 FEW012/// OVC024/// 07/07 Q1019 NOSIG",
      "taf": "TAF LBPD 231100Z 2312/2412 VRB04KT 8000 BKN005 OVC010"
    },
    {
      "icao": "LBSF",
      "alert": "OK",
      "vis_m": 9999,
      "fzfg": false,
      "metar_trigger": false,
      "taf_trigger": false,
      "metar": "METAR LBSF 231230Z 10010KT 9999 FEW024 08/03 Q1017 NOSIG",
      "taf": "TAF LBSF 231100Z 2312/2412 10010KT 9999 SCT020 BKN060"
    },
    {
      "icao": "LBWN",
      "alert": "OK",
      "vis_m": 8000,
      "fzfg": false,
      "metar_trigger": false,
      "taf_trigger": false,
      "metar": "METAR LBWN 231230Z 27007KT 8000 SCT012 06/04 Q1019 NOSIG",
      "taf": "TAF LBWN 231100Z 2312/2412 VRB03KT 9999 SCT004 BKN010"
    },
    {
      "icao": "LCLK",
      "alert": "OK",
      "vis_m": 8000,
      "fzfg": false,
      "metar_trigger": false,
      "taf_trigger": false,
      "metar": "METAR LCLK 231230Z 06007KT 8000 -TSRA FEW020CB FEW025TCU SCT030 18/14 Q1014 TEMPO 3000 TSRA SCT025CB RMK CB TO SE NW",
      "taf": "TAF LCLK 231130Z 2312/2412 07012KT 9999 FEW025 SCT040"
    },
    {
      "icao": "LCPH",
      "alert": "OK",
      "vis_m": 9999,
      "fzfg": false,
      "metar_trigger": false,
      "taf_trigger": false,
      "metar": "METAR LCPH 231230Z 17007KT 9999 FEW025 FEW030CB 20/13 Q1014 NOSIG",
      "taf": "TAF LCPH 231130Z 2312/2412 15012KT 9999 FEW025"
    },
    {
      "icao": "LEAL",
      "alert": "OK",
      "vis_m": 9999,
      "fzfg": false,
      "metar_trigger": false,
      "taf_trigger": false,
      "metar": "METAR LEAL 231230Z 30012KT 260V340 9999 FEW030 15/02 Q1007 NOSIG",
      "taf": "TAF LEAL 231100Z 2312/2412 28012KT 9999 FEW030 TX15/2312Z TN05/2406Z"
    },
    {
      "icao": "LEBB",
      "alert": "OK",
      "vis_m": 9999,
      "fzfg": false,
      "metar_trigger": false,
      "taf_trigger": false,
      "metar": "METAR LEBB 231230Z 24004KT 190V290 9999 SCT028 BKN047 13/08 Q1009 NOSIG",
      "taf": "TAF LEBB 231100Z 2312/2412 VRB03KT 9999 SCT020 TX12/2313Z TN07/2322Z"
    },
    {
      "icao": "LEBL",
      "alert": "OK",
      "vis_m": 7000,
      "fzfg": false,
      "metar_trigger": false,
      "taf_trigger": false,
      "metar": "METAR LEBL 231230Z 32012KT 7000 -RA FEW045 BKN050 08/06 Q1002 NOSIG",
      "taf": "TAF LEBL 231100Z 2312/2412 34012KT 9999 SCT030 TX11/2313Z TN08/2406Z"
    },
    {
      "icao": "LECH",
      "alert": "OK",
      "vis_m": 9000,
      "fzfg": false,
      "metar_trigger": false,
      "taf_trigger": false,
      "metar": "METAR LECH 231230Z AUTO 12008KT 080V150 9000 NSC 10/01 Q1004",
      "taf": ""
    },
    {
      "icao": "LEMD",
      "alert": "OK",
      "vis_m": 9999,
      "fzfg": false,
      "metar_trigger": false,
      "taf_trigger": false,
      "metar": "METAR LEMD 231230Z 34001KT 9999 BKN009 04/02 Q1009 BECMG BKN010",
      "taf": "TAF LEMD 231100Z 2312/2418 VRB03KT 9999 SCT020 TX07/2315Z TNM00/2403Z"
    },
    {
      "icao": "LEMG",
      "alert": "OK",
      "vis_m": 9999,
      "fzfg": false,
      "metar_trigger": false,
      "taf_trigger": false,
      "metar": "METAR LEMG 231230Z 00000KT 9999 -DZ FEW020 OVC065 13/07 Q1012 NOSIG",
      "taf": "TAF LEMG 231100Z 2312/2412 32006KT 9999 FEW040 SCT050 TX15/2314Z TN07/2406Z"
    },
    {
      "icao": "LEVC",
      "alert": "OK",
      "vis_m": 9999,
      "fzfg": false,
      "metar_trigger": false,
      "taf_trigger": false,
      "metar": "METAR LEVC 231230Z 29014KT 260V320 CAVOK 15/01 Q1005 NOSIG",
      "taf": "TAF LEVC 231100Z 2312/2412 27012KT CAVOK TX14/2312Z TN05/2406Z"
    },
    {
      "icao": "LEXJ",
      "alert": "OK",
      "vis_m": 9999,
      "fzfg": false,
      "metar_trigger": false,
      "taf_trigger": false,
      "metar": "METAR LEXJ 231230Z 26005KT 210V320 9999 FEW026 SCT055 13/06 Q1010",
      "taf": "TAF LEXJ 230800Z 2309/2409 22009KT 9999 FEW030 SCT050 TX12/2313Z TN08/2309Z"
    },
    {
      "icao": "LEZG",
      "alert": "OK",
      "vis_m": 9999,
      "fzfg": false,
      "metar_trigger": false,
      "taf_trigger": false,
      "metar": "METAR LEZG 231230Z 30021G31KT 9999 FEW080 12/03 Q1006 NOSIG",
      "taf": "TAF LEZG 231100Z 2312/2412 30012KT 9999 FEW080 TX11/2314Z TN03/2406Z"
    },
    {
      "icao": "LEZL",
      "alert": "OK",
      "vis_m": 4000,
      "fzfg": false,
      "metar_trigger": false,
      "taf_trigger": false,
      "metar": "SPECI LEZL 231232Z 34005KT 300V010 4000 RA OVC008 12/12 Q1011 NOSIG",
      "taf": "TAF LEZL 230800Z 2309/2409 22005KT 9999 SCT040 TX15/2315Z TN08/2407Z"
    },
    {
      "icao": "LFBD",
      "alert": "OK",
      "vis_m": 9999,
      "fzfg": false,
      "metar_trigger": false,
      "taf_trigger": false,
      "metar": "METAR LFBD 231230Z AUTO 06010KT 9999 BKN012 BKN110 BKN230 09/07 Q1009 BECMG NSC",
      "taf": "TAF LFBD 231100Z 2312/2418 07005KT CAVOK TX09/2314Z TN03/2418Z"
    },
    {
      "icao": "LFLL",
      "alert": "OK",
      "vis_m": 8000,
      "fzfg": false,
      "metar_trigger": false,
      "taf_trigger": false,
      "metar": "METAR LFLL 231230Z 01007KT 8000 OVC004 04/04 Q1009 NOSIG",
      "taf": "TAF LFLL 231100Z 2312/2418 35006KT 6000 OVC006"
    },
    {
      "icao": "LFLS",
      "alert": "OK",
      "vis_m": 9999,
      "fzfg": false,
      "metar_trigger": false,
      "taf_trigger": false,
      "metar": "METAR LFLS 231230Z AUTO 34009KT 9999 OVC009 05/05 Q1008 NOSIG",
      "taf": "TAF LFLS 230800Z 2309/2409 34008KT 9999 OVC007"
    },
    {
      "icao": "LFMN",
      "alert": "OK",
      "vis_m": 9999,
      "fzfg": false,
      "metar_trigger": false,
      "taf_trigger": false,
      "metar": "METAR LFMN 231230Z 04011KT 9999 BKN050 BKN260 16/06 Q1006 NOSIG",
      "taf": "TAF LFMN 230800Z 2309/2415 03015KT 9999 BKN040"
    },
    {
      "icao": "LFOB",
      "alert": "OK",
      "vis_m": 7000,
      "fzfg": false,
      "metar_trigger": false,
      "taf_trigger": false,
      "metar": "METAR LFOB 231230Z AUTO 07009KT 010V110 7000 OVC006 03/02 Q1014 TEMPO 3000 BR BKN012",
      "taf": "TAF LFOB 231100Z 2312/2412 07009KT 8000 BKN008"
    },
    {
      "icao": "LFPO",
      "alert": "OK",
      "vis_m": 8000,
      "fzfg": false,
      "metar_trigger": false,
      "taf_trigger": false,
      "metar": "METAR LFPO 231230Z 06011KT 8000 OVC010 04/02 Q1013 NOSIG",
      "taf": "TAF LFPO 231100Z 2312/2418 05008KT 9999 BKN012"
    },
    {
      "icao": "LFSB",
      "alert": "OK",
      "vis_m": 9999,
      "fzfg": false,
      "metar_trigger": false,
      "taf_trigger": false,
      "metar": "METAR LFSB 231230Z AUTO 36007KT 9999 FEW012 OVC018 02/01 Q1012 TEMPO BKN009",
      "taf": "TAF LFSB 231105Z 2312/2412 36005KT 9999 FEW009 OVC015"
    },
    {
      "icao": "LGAV",
      "alert": "OK",
      "vis_m": 9999,
      "fzfg": false,
      "metar_trigger": false,
      "taf_trigger": false,
      "metar": "METAR LGAV 231220Z 05010KT 9999 FEW020 SCT030 16/08 Q1017 NOSIG",
      "taf": "TAF LGAV 231100Z 2312/2412 02010KT 9999 FEW020 SCT030"
    },
    {
      "icao": "LGTS",
      "alert": "OK",
      "vis_m": 8000,
      "fzfg": false,
      "metar_trigger": false,
      "taf_trigger": false,
      "metar": "METAR LGTS 231220Z 31005KT 8000 4000SE -DZ SCT008 BKN030 11/11 Q1018 NOSIG",
      "taf": "TAF LGTS 231100Z 2312/2412 VRB03KT 9000 FEW012 BKN025"
    },
    {
      "icao": "LHBP",
      "alert": "OK",
      "vis_m": 8000,
      "fzfg": false,
      "metar_trigger": false,
      "taf_trigger": false,
      "metar": "METAR LHBP 231230Z 10007KT 8000 OVC006 04/03 Q1018 NOSIG",
      "taf": "TAF LHBP 231115Z 2312/2412 09005KT 9999 OVC030"
    },
    {
      "icao": "LHDC",
      "alert": "OK",
      "vis_m": 8000,
      "fzfg": false,
      "metar_trigger": false,
      "taf_trigger": false,
      "metar": "METAR LHDC 231215Z AUTO 06006KT 030V090 8000 SCT008 BKN044 05/03 Q1018 NOSIG",
      "taf": "TAF LHDC 231115Z 2312/2321 05007KT 8000 SCT006 BKN040"
    },
    {
      "icao": "LIBD",
      "alert": "OK",
      "vis_m": 9999,
      "fzfg": false,
      "metar_trigger": false,
      "taf_trigger": false,
      "metar": "METAR LIBD 231220Z 13010KT 9999 SCT020 16/13 Q1009",
      "taf": "TAF LIBD 231100Z 2312/2412 14013KT 9999 BKN040"
    },
    {
      "icao": "LIBG",
      "alert": "OK",
      "vis_m": 9999,
      "fzfg": false,
      "metar_trigger": false,
      "taf_trigger": false,
      "metar": "METAR LIBG 231150Z 14009KT 9999 SCT010 SCT020 16/16 Q1010 RESHRA",
      "taf": "TAF LIBG 231100Z 2312/2321 14013KT 9999 SCT035"
    },
    {
      "icao": "LIBP",
      "alert": "OK",
      "vis_m": 9999,
      "fzfg": false,
      "metar_trigger": false,
      "taf_trigger": false,
      "metar": "METAR LIBP 231220Z AUTO 08003KT 040V130 9999 NCD 13/10 Q1009",
      "taf": "TAF LIBP 231100Z 2312/2412 VRB05KT 9999 BKN020"
    },
    {
      "icao": "LIBR",
      "alert": "OK",
      "vis_m": 9999,
      "fzfg": false,
      "metar_trigger": false,
      "taf_trigger": false,
      "metar": "METAR LIBR 231220Z 14009KT 9999 FEW008 BKN015 16/14 Q1010 RERA",
      "taf": "TAF LIBR 231100Z 2312/2412 15013KT 9999 BKN040"
    },
    {
      "icao": "LICA",
      "alert": "OK",
      "vis_m": 9999,
      "fzfg": false,
      "metar_trigger": false,
      "taf_trigger": false,
      "metar": "METAR LICA 231220Z AUTO 06010KT 9999 BKN087/// 17/15 Q1008",
      "taf": "TAF LICA 231100Z 2312/2412 07015KT 9999 SCT040"
    },
    {
      "icao": "LICC",
      "alert": "OK",
      "vis_m": 9999,
      "fzfg": false,
      "metar_trigger": false,
      "taf_trigger": false,
      "metar": "METAR LICC 231220Z 29006KT 9999 FEW020TCU SCT050 18/17 Q1008",
      "taf": "TAF LICC 231100Z 2312/2412 25014KT 9999 SCT030"
    },
    {
      "icao": "LICJ",
      "alert": "OK",
      "vis_m": 9999,
      "fzfg": false,
      "metar_trigger": false,
      "taf_trigger": false,
      "metar": "METAR LICJ 231220Z 15011KT 9999 -TSRA BKN035CB 13/08 Q1007",
      "taf": "TAF LICJ 231100Z 2312/2412 21018G28KT 9999 SCT040"
    },
    {
      "icao": "LIMC",
      "alert": "OK",
      "vis_m": 9999,
      "fzfg": false,
      "metar_trigger": false,
      "taf_trigger": false,
      "metar": "METAR LIMC 231220Z VRB01KT 9999 BKN030 09/07 Q1012 NOSIG",
      "taf": "TAF LIMC 231100Z 2312/2418 VRB05KT 6000 BKN040"
    },
    {
      "icao": "LIME",
      "alert": "OK",
      "vis_m": 9999,
      "fzfg": false,
      "metar_trigger": false,
      "taf_trigger": false,
      "metar": "METAR LIME 231220Z 20003KT 140V240 9999 BKN040 08/06 Q1012 NOSIG",
      "taf": "TAF LIME 231100Z 2312/2412 VRB05KT 8000 BKN050"
    },
    {
      "icao": "LIMF",
      "alert": "OK",
      "vis_m": 3500,
      "fzfg": false,
      "metar_trigger": false,
      "taf_trigger": false,
      "metar": "METAR LIMF 231220Z 19003KT 3500 RA BR OVC025 08/06 Q1012",
      "taf": "TAF LIMF 231100Z 2312/2412 VRB05KT 6000 RA BKN030"
    },
    {
      "icao": "LIMJ",
      "alert": "OK",
      "vis_m": 9999,
      "fzfg": false,
      "metar_trigger": false,
      "taf_trigger": false,
      "metar": "METAR LIMJ 231220Z 03018KT 9999 SCT042 BKN060 09/06 Q1009",
      "taf": "TAF LIMJ 231100Z 2312/2412 03018KT 9999 BKN040"
    },
    {
      "icao": "LIPE",
      "alert": "OK",
      "vis_m": 1800,
      "fzfg": false,
      "metar_trigger": false,
      "taf_trigger": false,
      "metar": "METAR LIPE 231220Z 27007KT 1800 BR SCT003 BKN005 08/08 Q1011",
      "taf": "TAF LIPE 231100Z 2312/2412 VRB05KT 4000 BR BKN016"
    },
    {
      "icao": "LIPH",
      "alert": "OK",
      "vis_m": 9999,
      "fzfg": false,
      "metar_trigger": false,
      "taf_trigger": false,
      "metar": "METAR LIPH 231220Z 05004KT 020V080 9999 BKN040 11/05 Q1012",
      "taf": "TAF LIPH 231100Z 2312/2412 05010KT 9999 SCT050"
    },
    {
      "icao": "LIPQ",
      "alert": "OK",
      "vis_m": 4700,
      "fzfg": false,
      "metar_trigger": false,
      "taf_trigger": false,
      "metar": "METAR LIPQ 231220Z AUTO VRB01KT 4700 RA OVC032/// 10/09 Q1012",
      "taf": "TAF LIPQ 231100Z 2312/2412 06010KT 9999 BKN050"
    },
    {
      "icao": "LIPR",
      "alert": "OK",
      "vis_m": 4000,
      "fzfg": false,
      "metar_trigger": false,
      "taf_trigger": false,
      "metar": "METAR LIPR 231220Z 31004KT 4000 BR BKN006 11/10 Q1010",
      "taf": "TAF LIPR 231100Z 2312/2412 VRB05KT 4000 BR BKN016"
    },
    {
      "icao": "LIPX",
      "alert": "OK",
      "vis_m": 9999,
      "fzfg": false,
      "metar_trigger": false,
      "taf_trigger": false,
      "metar": "METAR LIPX 231220Z 01003KT 9999 BKN045 10/06 Q1011",
      "taf": "TAF LIPX 231100Z 2312/2412 VRB05KT 8000 BKN040"
    },
    {
      "icao": "LIPY",
      "alert": "OK",
      "vis_m": 4500,
      "fzfg": false,
      "metar_trigger": false,
      "taf_trigger": false,
      "metar": "METAR LIPY 231220Z AUTO 33005KT 4500 BR OVC007/// 11/10 Q1010",
      "taf": "TAF LIPY 231100Z 2312/2412 VRB05KT 3000 BR BKN012"
    },
    {
      "icao": "LIPZ",
      "alert": "OK",
      "vis_m": 9999,
      "fzfg": false,
      "metar_trigger": false,
      "taf_trigger": false,
      "metar": "METAR LIPZ 231220Z 05007KT 9999 BKN035 10/07 Q1011 NOSIG",
      "taf": "TAF LIPZ 231100Z 2312/2418 03008KT 9999 SCT050"
    },
    {
      "icao": "LIRF",
      "alert": "OK",
      "vis_m": 8000,
      "fzfg": false,
      "metar_trigger": false,
      "taf_trigger": false,
      "metar": "METAR LIRF 231220Z 07011KT 8000 -RA NSC 13/11 Q1007 NOSIG",
      "taf": "TAF LIRF 231100Z 2312/2418 10012KT 9999 BKN030"
    },
    {
      "icao": "LIRN",
      "alert": "OK",
      "vis_m": 8000,
      "fzfg": false,
      "metar_trigger": false,
      "taf_trigger": false,
      "metar": "METAR LIRN 231220Z 29009KT 260V330 8000 -RA BKN030 14/11 Q1008 TEMPO TSRA",
      "taf": "TAF LIRN 231100Z 2312/2412 05005KT 9999 SCT040"
    },
    {
      "icao": "LIRP",
      "alert": "OK",
      "vis_m": 9999,
      "fzfg": false,
      "metar_trigger": false,
      "taf_trigger": false,
      "metar": "METAR LIRP 231215Z 13006KT 9999 -RA SCT030 SCT050 13/12 Q1007 NOSIG",
      "taf": "TAF LIRP 231100Z 2312/2412 11008KT 9999 FEW030 SCT050"
    },
    {
      "icao": "LIRZ",
      "alert": "OK",
      "vis_m": 9999,
      "fzfg": false,
      "metar_trigger": false,
      "taf_trigger": false,
      "metar": "METAR LIRZ 231220Z AUTO VRB02KT 9999 BKN068/// 10/09 Q1008",
      "taf": "TAF LIRZ 231100Z 2312/2412 VRB05KT 9999 BKN050"
    },
    {
      "icao": "LJLJ",
      "alert": "OK",
      "vis_m": 9999,
      "fzfg": false,
      "metar_trigger": false,
      "taf_trigger": false,
      "metar": "METAR LJLJ 231230Z 12003KT 9999 FEW005 OVC015 03/02 Q1014 NOSIG",
      "taf": "TAF LJLJ 231100Z 2312/2412 VRB02KT 8000 BKN010 OVC020"
    },
    {
      "icao": "LKMT",
      "alert": "OK",
      "vis_m": 2300,
      "fzfg": false,
      "metar_trigger": false,
      "taf_trigger": false,
      "metar": "METAR LKMT 231230Z 05010KT 2300 -DZ BR OVC004 02/02 Q1019 NOSIG",
      "taf": "TAF LKMT 231100Z 2312/2412 03008KT 7000 OVC020"
    },
    {
      "icao": "LKPR",
      "alert": "OK",
      "vis_m": 6000,
      "fzfg": false,
      "metar_trigger": false,
      "taf_trigger": false,
      "metar": "METAR LKPR 231230Z 07010KT 6000 -DZ BKN006 OVC013 03/02 Q1018 NOSIG",
      "taf": "TAF LKPR 231100Z 2312/2418 09010KT 9999 BKN008 OVC013"
    },
    {
      "icao": "LLBG",
      "alert": "OK",
      "vis_m": 9999,
      "fzfg": false,
      "metar_trigger": false,
      "taf_trigger": false,
      "metar": "METAR LLBG 231220Z 20012KT 9999 SCT039 SCT045 20/10 Q1015 TEMPO RA FEW025TCU BKN030",
      "taf": "TAF LLBG 231104Z 2312/2412 23012KT 9999 SCT035"
    },
    {
      "icao": "LMML",
      "alert": "OK",
      "vis_m": 9999,
      "fzfg": false,
      "metar_trigger": false,
      "taf_trigger": false,
      "metar": "METAR LMML 231215Z 24015KT 9999 FEW020 BKN035 15/11 Q1010 NOSIG",
      "taf": "TAF LMML 231100Z 2312/2412 24017KT 9999 FEW025"
    },
    {
      "icao": "LOWW",
      "alert": "OK",
      "vis_m": 4000,
      "fzfg": false,
      "metar_trigger": false,
      "taf_trigger": false,
      "metar": "METAR LOWW 231220Z 13006KT 4000 -DZ BR FEW003 BKN007 03/02 Q1017 TEMPO 2500 DZ",
      "taf": "TAF LOWW 231115Z 2312/2418 14010KT 5000 -RADZ OVC006 TX03/2312Z TNM01/2418Z"
    },
    {
      "icao": "LPFR",
      "alert": "OK",
      "vis_m": 9999,
      "fzfg": false,
      "metar_trigger": false,
      "taf_trigger": false,
      "metar": "METAR LPFR 231230Z 27013KT 9999 VCSH FEW012 SCT020 BKN035 16/14 Q1011",
      "taf": "TAF LPFR 231100Z 2312/2412 27010KT 9999 SCT020"
    },
    {
      "icao": "LPMA",
      "alert": "OK",
      "vis_m": 9999,
      "fzfg": false,
      "metar_trigger": false,
      "taf_trigger": false,
      "metar": "METAR LPMA 231230Z 20008KT 9999 FEW015 19/11 Q1022",
      "taf": "TAF LPMA 231100Z 2312/2412 21010KT 9999 SCT015"
    },
    {
      "icao": "LPPR",
      "alert": "OK",
      "vis_m": 9999,
      "fzfg": false,
      "metar_trigger": false,
      "taf_trigger": false,
      "metar": "METAR LPPR 231230Z 35010KT 9999 FEW013 BKN017 13/09 Q1010",
      "taf": "TAF LPPR 231100Z 2312/2412 34008KT 9999 SCT020"
    },
    {
      "icao": "LPPS",
      "alert": "OK",
      "vis_m": 9999,
      "fzfg": false,
      "metar_trigger": false,
      "taf_trigger": false,
      "metar": "METAR LPPS 231230Z 29019KT 9999 FEW015 SCT030 19/11 Q1022",
      "taf": "TAF LPPS 231100Z 2312/2418 30015KT 9999 SCT015 SCT030"
    },
    {
      "icao": "LPPT",
      "alert": "OK",
      "vis_m": 9999,
      "fzfg": false,
      "metar_trigger": false,
      "taf_trigger": false,
      "metar": "METAR LPPT 231230Z 28006KT 9999 VCSH SCT016 FEW020TCU 15/12 Q1011",
      "taf": "TAF LPPT 231100Z 2312/2418 29008KT 9999 SCT020"
    },
    {
      "icao": "LQBK",
      "alert": "OK",
      "vis_m": 7000,
      "fzfg": false,
      "metar_trigger": false,
      "taf_trigger": false,
      "metar": "METAR LQBK 231230Z 03004KT 7000 OVC013 05/03 Q1016 NOSIG",
      "taf": "TAF LQBK 231100Z 2312/2412 03004KT 4000 BR BKN012 TX06/2313Z TN01/2405Z"
    },
    {
      "icao": "LQSA",
      "alert": "OK",
      "vis_m": 8000,
      "fzfg": false,
      "metar_trigger": false,
      "taf_trigger": false,
      "metar": "METAR LQSA 231230Z VRB02KT 8000 FEW055 04/01 Q1015 NOSIG",
      "taf": "TAF LQSA 231100Z 2312/2412 VRB02KT 9999 BKN012 TX05/2314Z TN02/2405Z"
    },
    {
      "icao": "LQTZ",
      "alert": "OK",
      "vis_m": 9999,
      "fzfg": false,
      "metar_trigger": false,
      "taf_trigger": false,
      "metar": "METAR LQTZ 231230Z 24003KT 210V270 CAVOK 08/03 Q1015",
      "taf": "TAF LQTZ 231100Z 2312/2412 10005KT 9999 SCT040 TX06/2313Z TN01/2406Z"
    },
    {
      "icao": "LRBC",
      "alert": "OK",
      "vis_m": 9999,
      "fzfg": false,
      "metar_trigger": false,
      "taf_trigger": false,
      "metar": "METAR LRBC 231230Z 16005KT 9999 BKN016 OVC032 04/02 Q1020",
      "taf": "TAF LRBC 231100Z 2312/2321 15008KT 9999 BKN015"
    },
    {
      "icao": "LRBS",
      "alert": "OK",
      "vis_m": 9000,
      "fzfg": false,
      "metar_trigger": false,
      "taf_trigger": false,
      "metar": "METAR LRBS 231230Z VRB02KT 9000 OVC007 02/01 Q1020 NOSIG",
      "taf": "TAF LRBS 231100Z 2312/2412 VRB04KT 9999 OVC005"
    },
    {
      "icao": "LRBV",
      "alert": "OK",
      "vis_m": 1800,
      "fzfg": false,
      "metar_trigger": false,
      "taf_trigger": false,
      "metar": "METAR LRBV 231230Z VRB01KT 1800 BR OVC002 M00/M01 Q1017",
      "taf": "TAF LRBV 231100Z 2312/2321 VRB04KT 1500 BR VV002"
    },
    {
      "icao": "LRCL",
      "alert": "OK",
      "vis_m": 9999,
      "fzfg": false,
      "metar_trigger": false,
      "taf_trigger": false,
      "metar": "METAR LRCL 231230Z 07003KT 9999 OVC005 01/M01 Q1019",
      "taf": "TAF LRCL 231100Z 2312/2321 VRB04KT 9999 OVC005"
    },
    {
      "icao": "LRCV",
      "alert": "OK",
      "vis_m": 9999,
      "fzfg": false,
      "metar_trigger": false,
      "taf_trigger": false,
      "metar": "METAR LRCV 231230Z 11005KT 9999 FEW003 BKN005 OVC010 04/03 Q1019",
      "taf": "TAF LRCV 231100Z 2312/2321 10008KT 1500 BR OVC002"
    },
    {
      "icao": "LRIA",
      "alert": "OK",
      "vis_m": 9999,
      "fzfg": false,
      "metar_trigger": false,
      "taf_trigger": false,
      "metar": "METAR LRIA 231230Z 10008KT 9999 SCT005 OVC012 02/01 Q1020",
      "taf": "TAF LRIA 231100Z 2312/2321 10008KT 9999 OVC005"
    },
    {
      "icao": "LROP",
      "alert": "OK",
      "vis_m": 9999,
      "fzfg": false,
      "metar_trigger": false,
      "taf_trigger": false,
      "metar": "METAR LROP 231230Z 05003KT 020V080 9999 OVC005 02/02 Q1020 NOSIG",
      "taf": "TAF LROP 231100Z 2312/2412 VRB04KT 9999 OVC005"
    },
    {
      "icao": "LRSB",
      "alert": "OK",
      "vis_m": 1200,
      "fzfg": true,
      "metar_trigger": false,
      "taf_trigger": false,
      "metar": "METAR LRSB 231230Z 24003KT 210V270 1200 R27/1600U BR BKN002 M01/M01 Q1018",
      "taf": "TAF LRSB 231100Z 2312/2412 VRB04KT 0600 FZFG VV002"
    },
    {
      "icao": "LRSM",
      "alert": "OK",
      "vis_m": 9999,
      "fzfg": false,
      "metar_trigger": false,
      "taf_trigger": false,
      "metar": "METAR LRSM 231230Z 06002KT 9999 FEW012 BKN046 05/02 Q1019",
      "taf": "TAF LRSM 231100Z 2312/2321 VRB04KT 9999 BKN010"
    },
    {
      "icao": "LRSV",
      "alert": "CRITICAL",
      "vis_m": 100,
      "fzfg": true,
      "metar_trigger": true,
      "taf_trigger": true,
      "metar": "METAR LRSV 231230Z 06006KT 0100 R34/0300N FZFG VV001 M00/M00 Q1018",
      "taf": "TAF LRSV 231100Z 2312/2321 09006KT 0100 FZFG VV001"
    },
    {
      "icao": "LRTM",
      "alert": "OK",
      "vis_m": 9000,
      "fzfg": false,
      "metar_trigger": false,
      "taf_trigger": false,
      "metar": "METAR LRTM 231230Z VRB02KT 9000 FEW004 BKN007 OVC010 00/M01 Q1019",
      "taf": "TAF LRTM 231100Z 2312/2321 VRB04KT 9999 OVC010"
    },
    {
      "icao": "LRTR",
      "alert": "OK",
      "vis_m": 9999,
      "fzfg": false,
      "metar_trigger": false,
      "taf_trigger": false,
      "metar": "METAR LRTR 231230Z 08005KT 9999 FEW037 07/03 Q1017",
      "taf": "TAF LRTR 231100Z 2312/2412 08006KT 9999 SCT035"
    },
    {
      "icao": "LTAC",
      "alert": "OK",
      "vis_m": 9999,
      "fzfg": false,
      "metar_trigger": false,
      "taf_trigger": false,
      "metar": "METAR LTAC 231220Z VRB02KT 9999 -RA FEW009 BKN025 BKN080 05/04 Q1016 NOSIG RMK RWY21C VRB01KT RWY03L VRB01KT RWY21R 00000KT RWY03R 00000KT RWY21L 00000KT",
      "taf": "TAF LTAC 231040Z 2312/2412 VRB02KT 9999 SCT035 BKN090"
    },
    {
      "icao": "LTFM",
      "alert": "OK",
      "vis_m": 9999,
      "fzfg": false,
      "metar_trigger": false,
      "taf_trigger": false,
      "metar": "METAR LTFM 231220Z 36016KT 9999 -SHRA SCT005 BKN020 09/09 Q1018 NOSIG RMK RWY17L 36014KT RWY34L 35015KT RWY16R 36012KT RWY36 36016KT RWY18 36015KT",
      "taf": "TAF LTFM 231040Z 2312/2418 34015KT 9999 SCT004 BKN020"
    },
    {
      "icao": "LUKK",
      "alert": "OK",
      "vis_m": 9999,
      "fzfg": false,
      "metar_trigger": false,
      "taf_trigger": false,
      "metar": "METAR LUKK 231230Z 08004KT 9999 OVC020 02/M02 Q1021 NOSIG",
      "taf": "TAF LUKK 231127Z 2312/2412 VRB05KT 9999 OVC015"
    },
    {
      "icao": "LWOH",
      "alert": "OK",
      "vis_m": 9999,
      "fzfg": false,
      "metar_trigger": false,
      "taf_trigger": false,
      "metar": "METAR LWOH 231220Z VRB02KT 9999 SCT020 OVC040 09/06 Q1015",
      "taf": "TAF LWOH 231140Z 2312/2412 VRB02KT 9999 SCT020 OVC040"
    },
    {
      "icao": "LWSK",
      "alert": "OK",
      "vis_m": 4000,
      "fzfg": false,
      "metar_trigger": false,
      "taf_trigger": false,
      "metar": "METAR LWSK 231220Z VRB02KT 4000 BR OVC003 03/02 Q1018 NOSIG",
      "taf": "TAF LWSK 231140Z 2312/2412 VRB02KT 4000 BR OVC003"
    },
    {
      "icao": "LYBE",
      "alert": "OK",
      "vis_m": 9999,
      "fzfg": false,
      "metar_trigger": false,
      "taf_trigger": false,
      "metar": "METAR LYBE 231230Z 17003KT 120V220 CAVOK 08/02 Q1016 NOSIG",
      "taf": "TAF LYBE 231100Z 2312/2412 10007KT CAVOK TX09/2313Z TN03/2318Z"
    },
    {
      "icao": "LYNI",
      "alert": "OK",
      "vis_m": 9999,
      "fzfg": false,
      "metar_trigger": false,
      "taf_trigger": false,
      "metar": "METAR LYNI 231230Z 18003KT 120V240 9999 BKN007 04/03 Q1017 BECMG SCT010",
      "taf": "TAF LYNI 231100Z 2312/2412 08005KT 8000 BKN012 TX08/2412Z TN03/2406Z"
    },
    {
      "icao": "LYPG",
      "alert": "OK",
      "vis_m": 9999,
      "fzfg": false,
      "metar_trigger": false,
      "taf_trigger": false,
      "metar": "METAR LYPG 231230Z 29002KT 9999 -RA SCT050 BKN070 08/04 Q1015 NOSIG",
      "taf": "TAF LYPG 231100Z 2312/2412 16005KT 9999 SCT040 BKN070 TX11/2313Z TN06/2405Z"
    },
    {
      "icao": "LZIB",
      "alert": "OK",
      "vis_m": 4800,
      "fzfg": false,
      "metar_trigger": false,
      "taf_trigger": false,
      "metar": "METAR LZIB 231230Z 09005KT 4800 -DZ BR SCT004 OVC009 04/04 Q1017 BECMG SCT007 OVC012",
      "taf": "TAF LZIB 231115Z 2312/2412 07007KT 2000 -RADZ BR SCT003 BKN006 OVC013"
    },
    {
      "icao": "LZKZ",
      "alert": "OK",
      "vis_m": 9999,
      "fzfg": false,
      "metar_trigger": false,
      "taf_trigger": false,
      "metar": "METAR LZKZ 231230Z 24003KT 9999 OVC010 05/03 Q1018 NOSIG",
      "taf": "TAF LZKZ 231115Z 2312/2412 18005KT 7000 -DZ BR SCT004 OVC011"
    },
    {
      "icao": "LZTT",
      "alert": "OK",
      "vis_m": 9999,
      "fzfg": false,
      "metar_trigger": false,
      "taf_trigger": false,
      "metar": "METAR LZTT 231230Z 07003KT 9999 FEW008 OVC013 02/M01 Q1016 TEMPO OVC016",
      "taf": ""
    },
    {
      "icao": "OEJN",
      "alert": "OK",
      "vis_m": 8000,
      "fzfg": false,
      "metar_trigger": false,
      "taf_trigger": false,
      "metar": "METAR OEJN 231200Z 27008KT 8000 FEW040 30/21 Q1011 NOSIG",
      "taf": "TAF OEJN 231100Z 2312/2418 28010KT 9999 FEW040"
    },
    {
      "icao": "OEMA",
      "alert": "OK",
      "vis_m": 9999,
      "fzfg": false,
      "metar_trigger": false,
      "taf_trigger": false,
      "metar": "METAR OEMA 231200Z VRB02KT 9999 FEW045 27/10 Q1016 NOSIG",
      "taf": "TAF OEMA 231100Z 2312/2418 25010KT 9999 SCT040"
    },
    {
      "icao": "OJAI",
      "alert": "OK",
      "vis_m": 5000,
      "fzfg": false,
      "metar_trigger": false,
      "taf_trigger": false,
      "metar": "METAR OJAI 231200Z 24009KT 5000 HZ FEW030 15/07 Q1016 NOSIG",
      "taf": ""
    },
    {
      "icao": "OMAA",
      "alert": "OK",
      "vis_m": 9999,
      "fzfg": false,
      "metar_trigger": false,
      "taf_trigger": false,
      "metar": "METAR OMAA 231200Z 34013KT CAVOK 23/12 Q1017 NOSIG",
      "taf": "TAF OMAA 231100Z 2312/2418 35011KT CAVOK"
    },
    {
      "icao": "OMDB",
      "alert": "OK",
      "vis_m": 9999,
      "fzfg": false,
      "metar_trigger": false,
      "taf_trigger": false,
      "metar": "METAR OMDB 231230Z 36011KT CAVOK 23/10 Q1018 NOSIG",
      "taf": "TAF OMDB 231100Z 2312/2418 01010KT CAVOK"
    },
    {
      "icao": "UAAA",
      "alert": "OK",
      "vis_m": 1900,
      "fzfg": false,
      "metar_trigger": false,
      "taf_trigger": false,
      "metar": "METAR UAAA 231230Z VRB01MPS 1900 R05R/P2000 BR OVC006 M03/M04 Q1026 NOSIG RMK QBB200",
      "taf": "TAF UAAA 231102Z 2312/2412 04003MPS 1000 BR FU BKN011 OVC020 TX02/2408Z TNM06/2401Z"
    },
    {
      "icao": "UBBB",
      "alert": "OK",
      "vis_m": 9999,
      "fzfg": false,
      "metar_trigger": false,
      "taf_trigger": false,
      "metar": "METAR UBBB 231230Z 35008KT 9999 SCT025 09/05 Q1022 NOSIG",
      "taf": "TAF UBBB 231112Z 2312/2412 33008KT 9999 BKN025 TX10/2312Z TN04/2400Z"
    },
    {
      "icao": "UDSG",
      "alert": "OK",
      "vis_m": 9999,
      "fzfg": false,
      "metar_trigger": false,
      "taf_trigger": false,
      "metar": "METAR UDSG 231230Z 24008KT 9999 FEW049 04/M05 Q1020 NOSIG",
      "taf": "TAF UDSG 231058Z 2312/2412 VRB06KT 9999 FEW050"
    },
    {
      "icao": "UDYZ",
      "alert": "OK",
      "vis_m": 5000,
      "fzfg": false,
      "metar_trigger": false,
      "taf_trigger": false,
      "metar": "METAR UDYZ 231230Z 21001KT 5000 HZ NSC 06/M03 Q1021 NOSIG",
      "taf": "TAF UDYZ 231100Z 2312/2412 VRB04KT 5000 BR NSC"
    },
    {
      "icao": "UGKO",
      "alert": "OK",
      "vis_m": 9999,
      "fzfg": false,
      "metar_trigger": false,
      "taf_trigger": false,
      "metar": "METAR UGKO 231230Z 08003KT CAVOK 18/03 Q1016 NOSIG",
      "taf": "TAF UGKO 231100Z 2312/2412 08007KT 9999 SCT022 BKN050 TX17/2312Z TN05/2403Z"
    }
  ]
}