{
  "ts_utc": "2026-05-03T14:37:58Z",
  "threshold_m": 150,
  "source": "stations_override.txt (ICAO list) + aviationweather.gov (METAR/TAF raw)",
  "station_count": 159,
  "stations": [
    {
      "icao": "BIKF",
      "alert": "OK",
      "vis_m": 9999,
      "fzfg": false,
      "metar_trigger": false,
      "taf_trigger": false,
      "metar": "METAR BIKF 031430Z 31012KT 270V340 CAVOK 05/M03 Q1011",
      "taf": "TAF BIKF 031359Z 0315/0415 33015KT 9999 FEW030 TX06/0315Z TNM01/0406Z"
    },
    {
      "icao": "BKPR",
      "alert": "OK",
      "vis_m": 9999,
      "fzfg": false,
      "metar_trigger": false,
      "taf_trigger": false,
      "metar": "METAR BKPR 031430Z 02014KT CAVOK 15/M02 Q1018 NOSIG",
      "taf": "TAF BKPR 031130Z 0312/0412 01008KT 9999 FEW050"
    },
    {
      "icao": "EBCI",
      "alert": "OK",
      "vis_m": 9999,
      "fzfg": false,
      "metar_trigger": false,
      "taf_trigger": false,
      "metar": "METAR EBCI 031420Z 18010KT 9999 SCT010 BKN045 15/13 Q1011 NOSIG",
      "taf": "TAF EBCI 031110Z 0312/0418 23006KT 9999 SCT035"
    },
    {
      "icao": "EDDB",
      "alert": "OK",
      "vis_m": 9999,
      "fzfg": false,
      "metar_trigger": false,
      "taf_trigger": false,
      "metar": "METAR EDDB 031420Z AUTO 26012KT 230V300 CAVOK 28/04 Q1011 NOSIG",
      "taf": "TAF EDDB 031100Z 0312/0412 19007KT CAVOK"
    },
    {
      "icao": "EDDH",
      "alert": "OK",
      "vis_m": 9999,
      "fzfg": false,
      "metar_trigger": false,
      "taf_trigger": false,
      "metar": "METAR EDDH 031420Z AUTO 22004KT CAVOK 24/13 Q1008 RETSRA NOSIG",
      "taf": "TAF EDDH 031100Z 0312/0418 VRB03KT 9999 FEW035"
    },
    {
      "icao": "EDDK",
      "alert": "OK",
      "vis_m": 9999,
      "fzfg": false,
      "metar_trigger": false,
      "taf_trigger": false,
      "metar": "METAR EDDK 031420Z AUTO 16003KT 130V190 9999 -RA NSC 19/12 Q1012 NOSIG",
      "taf": "TAF EDDK 031100Z 0312/0418 20010KT CAVOK"
    },
    {
      "icao": "EDDN",
      "alert": "OK",
      "vis_m": 9999,
      "fzfg": false,
      "metar_trigger": false,
      "taf_trigger": false,
      "metar": "METAR EDDN 031420Z AUTO 30007KT 260V340 CAVOK 26/06 Q1012 NOSIG",
      "taf": "TAF EDDN 031100Z 0312/0412 28005KT CAVOK"
    },
    {
      "icao": "EDDS",
      "alert": "OK",
      "vis_m": 9999,
      "fzfg": false,
      "metar_trigger": false,
      "taf_trigger": false,
      "metar": "METAR EDDS 031420Z AUTO VRB02KT CAVOK 24/06 Q1013 NOSIG",
      "taf": "TAF EDDS 031100Z 0312/0412 32005KT CAVOK"
    },
    {
      "icao": "EDFH",
      "alert": "OK",
      "vis_m": 9999,
      "fzfg": false,
      "metar_trigger": false,
      "taf_trigger": false,
      "metar": "METAR EDFH 031420Z 23011KT 190V260 CAVOK 19/06 Q1013",
      "taf": "TAF EDFH 031100Z 0312/0412 22012KT CAVOK"
    },
    {
      "icao": "EDJA",
      "alert": "OK",
      "vis_m": 9999,
      "fzfg": false,
      "metar_trigger": false,
      "taf_trigger": false,
      "metar": "METAR EDJA 031420Z 28005KT 250V320 CAVOK 22/04 Q1014",
      "taf": "TAF EDJA 031400Z 0315/0324 27007KT CAVOK"
    },
    {
      "icao": "EDLW",
      "alert": "OK",
      "vis_m": 9999,
      "fzfg": false,
      "metar_trigger": false,
      "taf_trigger": false,
      "metar": "METAR EDLW 031420Z 23011KT CAVOK 19/09 Q1011",
      "taf": "TAF EDLW 031100Z 0312/0412 22012KT CAVOK"
    },
    {
      "icao": "EDNY",
      "alert": "OK",
      "vis_m": 9999,
      "fzfg": false,
      "metar_trigger": false,
      "taf_trigger": false,
      "metar": "METAR EDNY 031420Z 22007KT CAVOK 24/08 Q1013",
      "taf": "TAF EDNY 031400Z 0315/0324 24006KT CAVOK"
    },
    {
      "icao": "EDSB",
      "alert": "OK",
      "vis_m": 9999,
      "fzfg": false,
      "metar_trigger": false,
      "taf_trigger": false,
      "metar": "METAR EDSB 031420Z 25005KT 170V310 CAVOK 24/07 Q1013",
      "taf": "TAF EDSB 031100Z 0312/0412 23006KT CAVOK"
    },
    {
      "icao": "EETN",
      "alert": "OK",
      "vis_m": 9999,
      "fzfg": false,
      "metar_trigger": false,
      "taf_trigger": false,
      "metar": "METAR EETN 031420Z 32007KT CAVOK 15/06 Q1008 NOSIG",
      "taf": "TAF EETN 031130Z 0312/0412 29009KT CAVOK"
    },
    {
      "icao": "EFTU",
      "alert": "OK",
      "vis_m": 9999,
      "fzfg": false,
      "metar_trigger": false,
      "taf_trigger": false,
      "metar": "METAR EFTU 031420Z AUTO 33006KT 300V030 CAVOK 13/00 Q1008",
      "taf": "TAF EFTU 031125Z 0312/0412 32008KT 9999 FEW030"
    },
    {
      "icao": "EGBB",
      "alert": "OK",
      "vis_m": 9999,
      "fzfg": false,
      "metar_trigger": false,
      "taf_trigger": false,
      "metar": "METAR EGBB 031420Z 31009KT 9999 BKN031 16/09 Q1009",
      "taf": "TAF EGBB 031053Z 0312/0412 30010KT 9999 SCT020"
    },
    {
      "icao": "EGGP",
      "alert": "OK",
      "vis_m": 9999,
      "fzfg": false,
      "metar_trigger": false,
      "taf_trigger": false,
      "metar": "METAR EGGP 031420Z 04005KT 020V080 9999 SCT017 BKN021 13/09 Q1010",
      "taf": "TAF EGGP 031100Z 0312/0412 02008KT 9999 BKN030"
    },
    {
      "icao": "EGGW",
      "alert": "OK",
      "vis_m": 9999,
      "fzfg": false,
      "metar_trigger": false,
      "taf_trigger": false,
      "metar": "METAR EGGW 031420Z AUTO 28009KT 9999 BKN035 17/08 Q1009",
      "taf": "TAF EGGW 031059Z 0312/0412 25010KT 9999 BKN020"
    },
    {
      "icao": "EGKK",
      "alert": "OK",
      "vis_m": 9999,
      "fzfg": false,
      "metar_trigger": false,
      "taf_trigger": false,
      "metar": "METAR EGKK 031420Z 23008KT 190V270 9999 SCT029 SCT034 19/11 Q1009",
      "taf": "TAF EGKK 031057Z 0312/0418 24008KT 9999 SCT025"
    },
    {
      "icao": "EGNM",
      "alert": "OK",
      "vis_m": 6000,
      "fzfg": false,
      "metar_trigger": false,
      "taf_trigger": false,
      "metar": "METAR EGNM 031420Z 03007KT 6000 -RADZ SCT003 BKN004 09/09 Q1010",
      "taf": ""
    },
    {
      "icao": "EGPD",
      "alert": "OK",
      "vis_m": 9999,
      "fzfg": false,
      "metar_trigger": false,
      "taf_trigger": false,
      "metar": "METAR EGPD 031420Z COR AUTO 14004KT 090V190 9999 OVC024 09/03 Q1014 NOSIG",
      "taf": "TAF EGPD 031056Z 0312/0412 12006KT 9999 SCT020"
    },
    {
      "icao": "EGPF",
      "alert": "OK",
      "vis_m": 9999,
      "fzfg": false,
      "metar_trigger": false,
      "taf_trigger": false,
      "metar": "METAR EGPF 031420Z AUTO 05008KT 9999 SCT023 BKN027 BKN040 12/07 Q1014",
      "taf": ""
    },
    {
      "icao": "EHBK",
      "alert": "OK",
      "vis_m": 9999,
      "fzfg": false,
      "metar_trigger": false,
      "taf_trigger": false,
      "metar": "METAR EHBK 031425Z AUTO 20010KT 9999 -DZ FEW006/// BKN022/// OVC026/// 14/13 Q1012 REDZ TEMPO 7000 -RADZ -SHRA FEW010 FEW020CB",
      "taf": "TAF EHBK 031118Z 0312/0418 20010KT 9999 BKN040"
    },
    {
      "icao": "EHEH",
      "alert": "OK",
      "vis_m": 9999,
      "fzfg": false,
      "metar_trigger": false,
      "taf_trigger": false,
      "metar": "METAR EHEH 031425Z AUTO 18009KT 140V210 9999 SCT006 SCT008 BKN009 15/14 Q1011 GRN BECMG SCT015 OVC020",
      "taf": "TAF EHEH 031121Z 0312/0418 21005KT 9999 SCT020 BKN030"
    },
    {
      "icao": "EKBI",
      "alert": "OK",
      "vis_m": 9999,
      "fzfg": false,
      "metar_trigger": false,
      "taf_trigger": false,
      "metar": "METAR EKBI 031420Z AUTO 31004KT 270V330 9999 FEW052/// SCT083/// BKN120/// 17/09 Q1010",
      "taf": "TAF EKBI 031427Z 0315/0415 33008KT 9999 SCT008"
    },
    {
      "icao": "EKCH",
      "alert": "OK",
      "vis_m": 9999,
      "fzfg": false,
      "metar_trigger": false,
      "taf_trigger": false,
      "metar": "METAR EKCH 031420Z AUTO 07005KT 040V100 9999 FEW093/// 17/10 Q1010 NOSIG",
      "taf": "TAF EKCH 031427Z 0315/0415 19008KT CAVOK"
    },
    {
      "icao": "ENAL",
      "alert": "OK",
      "vis_m": 9999,
      "fzfg": false,
      "metar_trigger": false,
      "taf_trigger": false,
      "metar": "METAR ENAL 031420Z 26017KT 9999 FEW046 06/M02 Q1010",
      "taf": "TAF ENAL 031400Z 0315/0324 24015KT 9999 SCT045"
    },
    {
      "icao": "ENBR",
      "alert": "OK",
      "vis_m": 9999,
      "fzfg": false,
      "metar_trigger": false,
      "taf_trigger": false,
      "metar": "METAR ENBR 031420Z 32011KT CAVOK 08/M00 Q1011 NOSIG RMK WIND 1200FT 31015KT",
      "taf": "TAF ENBR 031100Z 0312/0412 31010KT 9999 FEW025"
    },
    {
      "icao": "ENGM",
      "alert": "OK",
      "vis_m": 9999,
      "fzfg": false,
      "metar_trigger": false,
      "taf_trigger": false,
      "metar": "METAR ENGM 031420Z 18005KT 130V210 CAVOK 10/01 Q1009 NOSIG",
      "taf": "TAF ENGM 031100Z 0312/0412 16008KT 9999 SCT025"
    },
    {
      "icao": "ENHD",
      "alert": "OK",
      "vis_m": 9999,
      "fzfg": false,
      "metar_trigger": false,
      "taf_trigger": false,
      "metar": "METAR ENHD 031420Z 33016KT CAVOK 08/02 Q1011",
      "taf": "TAF ENHD 031400Z 0315/0322 34015KT CAVOK"
    },
    {
      "icao": "ENTC",
      "alert": "OK",
      "vis_m": 9999,
      "fzfg": false,
      "metar_trigger": false,
      "taf_trigger": false,
      "metar": "METAR ENTC 031420Z 21017KT 9999 SCT026 03/M02 Q1002 TEMPO 2000 -SHSNRA VV012 RMK WIND 2600FT 23017KT",
      "taf": "TAF ENTC 031100Z 0312/0412 20015KT 9999 -SHSNRA SCT020 BKN030"
    },
    {
      "icao": "ENTO",
      "alert": "OK",
      "vis_m": 9999,
      "fzfg": false,
      "metar_trigger": false,
      "taf_trigger": false,
      "metar": "METAR ENTO 031420Z 09006KT 060V120 9999 FEW035 12/06 Q1009 NOSIG",
      "taf": "TAF ENTO 031100Z 0312/0412 04010KT 9999 SCT025"
    },
    {
      "icao": "ENVA",
      "alert": "OK",
      "vis_m": 9999,
      "fzfg": false,
      "metar_trigger": false,
      "taf_trigger": false,
      "metar": "METAR ENVA 031420Z 27005KT CAVOK 09/M02 Q1009 RMK WIND 670FT 31006KT",
      "taf": "TAF ENVA 031100Z 0312/0412 33005KT 9999 FEW020 BKN030"
    },
    {
      "icao": "ENZV",
      "alert": "OK",
      "vis_m": 9999,
      "fzfg": false,
      "metar_trigger": false,
      "taf_trigger": false,
      "metar": "METAR ENZV 031420Z 32014KT CAVOK 09/03 Q1011 NOSIG",
      "taf": "TAF ENZV 031100Z 0312/0412 31012KT 9999 FEW022"
    },
    {
      "icao": "EPGD",
      "alert": "OK",
      "vis_m": 9999,
      "fzfg": false,
      "metar_trigger": false,
      "taf_trigger": false,
      "metar": "METAR EPGD 031430Z 27010KT CAVOK 28/02 Q1010",
      "taf": ""
    },
    {
      "icao": "EPKK",
      "alert": "OK",
      "vis_m": 9999,
      "fzfg": false,
      "metar_trigger": false,
      "taf_trigger": false,
      "metar": "METAR EPKK 031430Z VRB02KT CAVOK 26/06 Q1016",
      "taf": "TAF EPKK 031430Z 0315/0415 VRB04KT CAVOK"
    },
    {
      "icao": "EPKT",
      "alert": "OK",
      "vis_m": 9999,
      "fzfg": false,
      "metar_trigger": false,
      "taf_trigger": false,
      "metar": "METAR EPKT 031430Z 22009KT 190V250 CAVOK 24/03 Q1016",
      "taf": "TAF EPKT 031130Z 0312/0412 20012KT CAVOK"
    },
    {
      "icao": "EPLB",
      "alert": "OK",
      "vis_m": 9999,
      "fzfg": false,
      "metar_trigger": false,
      "taf_trigger": false,
      "metar": "METAR EPLB 031430Z 22010KT CAVOK 25/04 Q1016",
      "taf": "TAF EPLB 031130Z 0312/0412 22010KT CAVOK"
    },
    {
      "icao": "EPMO",
      "alert": "OK",
      "vis_m": 9999,
      "fzfg": false,
      "metar_trigger": false,
      "taf_trigger": false,
      "metar": "METAR EPMO 031430Z 23012KT 190V260 CAVOK 27/M01 Q1014",
      "taf": "TAF EPMO 031130Z 0312/0412 21013KT CAVOK"
    },
    {
      "icao": "EPPO",
      "alert": "OK",
      "vis_m": 9999,
      "fzfg": false,
      "metar_trigger": false,
      "taf_trigger": false,
      "metar": "METAR EPPO 031430Z 23011KT CAVOK 28/02 Q1012",
      "taf": "TAF EPPO 031130Z 0312/0412 21012KT CAVOK"
    },
    {
      "icao": "EPRA",
      "alert": "OK",
      "vis_m": 9999,
      "fzfg": false,
      "metar_trigger": false,
      "taf_trigger": false,
      "metar": "METAR EPRA 031430Z 23013KT CAVOK 25/00 Q1015",
      "taf": "TAF EPRA 031430Z 0315/0324 23010KT CAVOK"
    },
    {
      "icao": "EPRZ",
      "alert": "OK",
      "vis_m": 9999,
      "fzfg": false,
      "metar_trigger": false,
      "taf_trigger": false,
      "metar": "METAR EPRZ 031430Z 23010KT CAVOK 23/03 Q1017",
      "taf": "TAF EPRZ 031130Z 0312/0412 19010KT CAVOK"
    },
    {
      "icao": "EPSC",
      "alert": "OK",
      "vis_m": 9999,
      "fzfg": false,
      "metar_trigger": false,
      "taf_trigger": false,
      "metar": "METAR EPSC 031430Z 23008KT 190V260 CAVOK 28/05 Q1010",
      "taf": "TAF EPSC 031130Z 0312/0412 23012KT CAVOK"
    },
    {
      "icao": "EPSY",
      "alert": "OK",
      "vis_m": 9999,
      "fzfg": false,
      "metar_trigger": false,
      "taf_trigger": false,
      "metar": "METAR EPSY 031430Z 21012KT 170V260 CAVOK 26/M02 Q1013",
      "taf": "TAF EPSY 031430Z 0315/0324 21012KT CAVOK"
    },
    {
      "icao": "EPWA",
      "alert": "OK",
      "vis_m": 9999,
      "fzfg": false,
      "metar_trigger": false,
      "taf_trigger": false,
      "metar": "METAR EPWA 031430Z 20010KT 160V240 CAVOK 26/M00 Q1014 NOSIG",
      "taf": "TAF EPWA 031430Z 0315/0415 21012KT CAVOK"
    },
    {
      "icao": "EPWR",
      "alert": "OK",
      "vis_m": 9999,
      "fzfg": false,
      "metar_trigger": false,
      "taf_trigger": false,
      "metar": "METAR EPWR 031430Z 22009KT 190V250 CAVOK 27/04 Q1013",
      "taf": "TAF EPWR 031430Z 0315/0415 22012KT CAVOK"
    },
    {
      "icao": "ESGG",
      "alert": "OK",
      "vis_m": 9999,
      "fzfg": false,
      "metar_trigger": false,
      "taf_trigger": false,
      "metar": "METAR ESGG 031420Z 23007KT 190V260 9999 FEW023 13/07 Q1009",
      "taf": "TAF ESGG 031430Z 0315/0415 23008KT 9999 SCT025"
    },
    {
      "icao": "ESKN",
      "alert": "OK",
      "vis_m": 9999,
      "fzfg": false,
      "metar_trigger": false,
      "taf_trigger": false,
      "metar": "METAR ESKN 031420Z 15009KT CAVOK 12/05 Q1009",
      "taf": "TAF ESKN 031430Z 0315/0415 14010KT CAVOK"
    },
    {
      "icao": "ESMS",
      "alert": "OK",
      "vis_m": 9999,
      "fzfg": false,
      "metar_trigger": false,
      "taf_trigger": false,
      "metar": "METAR ESMS 031420Z 30005KT 260V330 CAVOK 19/08 Q1010",
      "taf": "TAF ESMS 031427Z 0315/0415 27008KT CAVOK"
    },
    {
      "icao": "ESSA",
      "alert": "OK",
      "vis_m": 9999,
      "fzfg": false,
      "metar_trigger": false,
      "taf_trigger": false,
      "metar": "METAR ESSA 031420Z 07005KT 9999 SCT007 BKN010 BKN017 06/04 Q1010 TEMPO BKN009",
      "taf": "TAF ESSA 031430Z 0315/0415 07006KT 9999 BKN015"
    },
    {
      "icao": "EYKA",
      "alert": "OK",
      "vis_m": 9999,
      "fzfg": false,
      "metar_trigger": false,
      "taf_trigger": false,
      "metar": "METAR EYKA 031420Z 26014KT 210V290 CAVOK 26/03 Q1012",
      "taf": "TAF EYKA 031100Z 0312/0412 27014KT 9000 NSC"
    },
    {
      "icao": "EYPA",
      "alert": "OK",
      "vis_m": 9999,
      "fzfg": false,
      "metar_trigger": false,
      "taf_trigger": false,
      "metar": "METAR EYPA 031420Z 19005KT CAVOK 17/06 Q1011",
      "taf": "TAF EYPA 031100Z 0312/0412 VRB04KT 9000 NSC"
    },
    {
      "icao": "EYVI",
      "alert": "OK",
      "vis_m": 9999,
      "fzfg": false,
      "metar_trigger": false,
      "taf_trigger": false,
      "metar": "METAR EYVI 031420Z 26010KT 230V290 CAVOK 25/02 Q1013 NOSIG",
      "taf": ""
    },
    {
      "icao": "GCFV",
      "alert": "OK",
      "vis_m": 9999,
      "fzfg": false,
      "metar_trigger": false,
      "taf_trigger": false,
      "metar": "METAR GCFV 031430Z 04013KT 9999 FEW025 22/15 Q1016",
      "taf": "TAF GCFV 031400Z 0315/0415 04010KT 9999 FEW025 TX22/0414Z TN18/0406Z"
    },
    {
      "icao": "GCLP",
      "alert": "OK",
      "vis_m": 9999,
      "fzfg": false,
      "metar_trigger": false,
      "taf_trigger": false,
      "metar": "METAR GCLP 031430Z 02015KT 350V050 9999 FEW025 23/16 Q1016 NOSIG",
      "taf": "TAF GCLP 031400Z 0315/0415 03015KT 9999 FEW025 TX24/0414Z TN18/0406Z"
    },
    {
      "icao": "GCTS",
      "alert": "OK",
      "vis_m": 9999,
      "fzfg": false,
      "metar_trigger": false,
      "taf_trigger": false,
      "metar": "METAR GCTS 031430Z 11013KT 080V140 9999 FEW025 22/15 Q1017 NOSIG",
      "taf": "TAF GCTS 031400Z 0315/0415 09015KT 9999 FEW025 TX25/0414Z TN18/0406Z"
    },
    {
      "icao": "GMAD",
      "alert": "OK",
      "vis_m": 9999,
      "fzfg": false,
      "metar_trigger": false,
      "taf_trigger": false,
      "metar": "METAR GMAD 031430Z 25013KT CAVOK 23/12 Q1012 NOSIG",
      "taf": "TAF GMAD 031100Z 0312/0418 26016G36KT CAVOK"
    },
    {
      "icao": "GMMN",
      "alert": "OK",
      "vis_m": 9999,
      "fzfg": false,
      "metar_trigger": false,
      "taf_trigger": false,
      "metar": "METAR GMMN 031430Z 35011KT 320V030 9999 SCT023 23/16 Q1015 NOSIG",
      "taf": "TAF GMMN 031100Z 0312/0418 34012KT 9999 SCT023"
    },
    {
      "icao": "GMMX",
      "alert": "OK",
      "vis_m": 9999,
      "fzfg": false,
      "metar_trigger": false,
      "taf_trigger": false,
      "metar": "METAR GMMX 031430Z VRB05KT CAVOK 27/14 Q1014 NOSIG",
      "taf": "TAF GMMX 031100Z 0312/0418 30006KT CAVOK"
    },
    {
      "icao": "HEGN",
      "alert": "OK",
      "vis_m": 9999,
      "fzfg": false,
      "metar_trigger": false,
      "taf_trigger": false,
      "metar": "METAR HEGN 031400Z 36006KT 9999 SCT025 31/12 Q1008 NOSIG",
      "taf": "TAF HEGN 031100Z 0312/0418 35008G22KT 9999 SCT025"
    },
    {
      "icao": "HEMA",
      "alert": "OK",
      "vis_m": 6000,
      "fzfg": false,
      "metar_trigger": false,
      "taf_trigger": false,
      "metar": "METAR HEMA 031400Z 05008KT 6000 NSC 34/15 Q1008 NOSIG",
      "taf": "TAF HEMA 031100Z 0312/0418 01008G22KT 9999 SCT025"
    },
    {
      "icao": "HESH",
      "alert": "OK",
      "vis_m": 6000,
      "fzfg": false,
      "metar_trigger": false,
      "taf_trigger": false,
      "metar": "METAR HESH 031400Z 24012KT 6000 SCT030 27/10 Q1007 NOSIG",
      "taf": "TAF HESH 031100Z 0312/0418 28008G22KT 6000 SCT025"
    },
    {
      "icao": "HESX",
      "alert": "OK",
      "vis_m": 9999,
      "fzfg": false,
      "metar_trigger": false,
      "taf_trigger": false,
      "metar": "METAR HESX 031400Z 31016KT 9999 BKN020 21/13 Q1013 NOSIG",
      "taf": "TAF HESX 031100Z 0312/0418 30013KT CAVOK"
    },
    {
      "icao": "LATI",
      "alert": "OK",
      "vis_m": 9999,
      "fzfg": false,
      "metar_trigger": false,
      "taf_trigger": false,
      "metar": "METAR LATI 031420Z VRB03KT CAVOK 23/M02 Q1016 NOSIG",
      "taf": "TAF LATI 031100Z 0312/0412 36013KT CAVOK TX23/0412Z TN08/0404Z"
    },
    {
      "icao": "LBPD",
      "alert": "OK",
      "vis_m": 9999,
      "fzfg": false,
      "metar_trigger": false,
      "taf_trigger": false,
      "metar": "METAR LBPD 031430Z AUTO 33007KT 300V020 9999 FEW068/// BKN088/// 13/00 Q1019 NOSIG",
      "taf": "TAF LBPD 031100Z 0312/0412 28010KT 9999 BKN060"
    },
    {
      "icao": "LBSF",
      "alert": "OK",
      "vis_m": 9999,
      "fzfg": false,
      "metar_trigger": false,
      "taf_trigger": false,
      "metar": "METAR LBSF 031430Z 03011KT 360V070 9999 BKN067 11/M02 Q1020 NOSIG",
      "taf": "TAF LBSF 031100Z 0312/0412 04012KT 9999 SCT050"
    },
    {
      "icao": "LBWN",
      "alert": "OK",
      "vis_m": 9999,
      "fzfg": false,
      "metar_trigger": false,
      "taf_trigger": false,
      "metar": "METAR LBWN 031430Z 06009KT 020V100 9999 SCT048 13/00 Q1018 NOSIG",
      "taf": "TAF LBWN 031100Z 0312/0412 05012KT 9999 SCT030 BKN040"
    },
    {
      "icao": "LCLK",
      "alert": "OK",
      "vis_m": 9999,
      "fzfg": false,
      "metar_trigger": false,
      "taf_trigger": false,
      "metar": "METAR LCLK 031430Z 23018KT 9999 FEW017 19/11 Q1006 NOSIG",
      "taf": ""
    },
    {
      "icao": "LCPH",
      "alert": "OK",
      "vis_m": 9999,
      "fzfg": false,
      "metar_trigger": false,
      "taf_trigger": false,
      "metar": "METAR LCPH 031430Z 27018KT 250V320 9999 FEW025 BKN060 18/09 Q1008 NOSIG",
      "taf": "TAF LCPH 031130Z 0312/0412 29022KT 9999 FEW020 SCT035"
    },
    {
      "icao": "LEAL",
      "alert": "OK",
      "vis_m": 9999,
      "fzfg": false,
      "metar_trigger": false,
      "taf_trigger": false,
      "metar": "METAR LEAL 031430Z 10010KT 080V150 CAVOK 22/14 Q1013 NOSIG",
      "taf": "TAF LEAL 031100Z 0312/0412 VRB07KT 9999 FEW010 TX23/0312Z TN15/0405Z"
    },
    {
      "icao": "LEBB",
      "alert": "OK",
      "vis_m": 9999,
      "fzfg": false,
      "metar_trigger": false,
      "taf_trigger": false,
      "metar": "METAR LEBB 031430Z 07005KT 020V140 9999 FEW025 21/14 Q1010 NOSIG",
      "taf": "TAF LEBB 031100Z 0312/0412 30009KT 9999 FEW020 SCT040 TX20/0314Z TN12/0412Z"
    },
    {
      "icao": "LEBL",
      "alert": "OK",
      "vis_m": 9999,
      "fzfg": false,
      "metar_trigger": false,
      "taf_trigger": false,
      "metar": "METAR LEBL 031430Z 10010KT 9999 -DZ FEW016 BKN020 18/15 Q1014 NOSIG",
      "taf": ""
    },
    {
      "icao": "LECH",
      "alert": "OK",
      "vis_m": 9000,
      "fzfg": false,
      "metar_trigger": false,
      "taf_trigger": false,
      "metar": "METAR LECH 031430Z AUTO VRB02KT 9000 SCT034 BKN043 BKN065 18/11 Q1014",
      "taf": "TAF LECH 031100Z 0312/0412 14008KT 9999 SCT010 TX21/0313Z TN12/0405Z"
    },
    {
      "icao": "LEMD",
      "alert": "OK",
      "vis_m": 9999,
      "fzfg": false,
      "metar_trigger": false,
      "taf_trigger": false,
      "metar": "METAR LEMD 031430Z 23014G32KT 170V290 9999 FEW050 21/09 Q1012 NOSIG",
      "taf": "TAF LEMD 031100Z 0312/0418 23010KT 9999 FEW040 TX20/0316Z TN08/0405Z"
    },
    {
      "icao": "LEMG",
      "alert": "OK",
      "vis_m": 9999,
      "fzfg": false,
      "metar_trigger": false,
      "taf_trigger": false,
      "metar": "METAR LEMG 031430Z 14012KT 110V170 9999 SCT030 21/15 Q1014 NOSIG",
      "taf": "TAF LEMG 031100Z 0312/0412 15010KT 9999 FEW030 TX24/0314Z TN15/0407Z"
    },
    {
      "icao": "LEVC",
      "alert": "OK",
      "vis_m": 9999,
      "fzfg": false,
      "metar_trigger": false,
      "taf_trigger": false,
      "metar": "METAR LEVC 031430Z 08006KT 030V120 9999 SCT023 BKN029 20/14 Q1013 NOSIG",
      "taf": "TAF LEVC 031100Z 0312/0412 10009KT 9999 SCT020 TX21/0312Z TN14/0405Z"
    },
    {
      "icao": "LEXJ",
      "alert": "OK",
      "vis_m": 9999,
      "fzfg": false,
      "metar_trigger": false,
      "taf_trigger": false,
      "metar": "METAR LEXJ 031430Z 04007KT 330V100 9999 -RA SCT014 BKN032 16/14 Q1011",
      "taf": "TAF LEXJ 031400Z 0315/0415 28009KT 9999 FEW010 BKN040 TX19/0315Z TN12/0406Z"
    },
    {
      "icao": "LEZG",
      "alert": "OK",
      "vis_m": 9999,
      "fzfg": false,
      "metar_trigger": false,
      "taf_trigger": false,
      "metar": "METAR LEZG 031430Z 09007KT 050V120 9999 FEW007 BKN009 17/15 Q1012 NOSIG",
      "taf": "TAF LEZG 031100Z 0312/0412 10009KT 9999 SCT010 TX21/0314Z TN12/0405Z"
    },
    {
      "icao": "LEZL",
      "alert": "OK",
      "vis_m": 9999,
      "fzfg": false,
      "metar_trigger": false,
      "taf_trigger": false,
      "metar": "METAR LEZL 031430Z 23012KT 200V260 9999 BKN049 26/11 Q1013 NOSIG",
      "taf": "TAF LEZL 031400Z 0315/0415 23009KT 9999 FEW030 TX27/0415Z TN13/0407Z"
    },
    {
      "icao": "LFBD",
      "alert": "OK",
      "vis_m": 9999,
      "fzfg": false,
      "metar_trigger": false,
      "taf_trigger": false,
      "metar": "METAR LFBD 031430Z AUTO 22005KT 180V280 9999 ///CB 20/15 Q1011 TEMPO VRB20G30KT 4000 SHRA",
      "taf": ""
    },
    {
      "icao": "LFLL",
      "alert": "OK",
      "vis_m": 9999,
      "fzfg": false,
      "metar_trigger": false,
      "taf_trigger": false,
      "metar": "METAR LFLL 031430Z 19010KT CAVOK 18/05 Q1016 NOSIG",
      "taf": "TAF LFLL 031100Z 0312/0418 18009KT CAVOK"
    },
    {
      "icao": "LFLS",
      "alert": "OK",
      "vis_m": 9999,
      "fzfg": false,
      "metar_trigger": false,
      "taf_trigger": false,
      "metar": "METAR LFLS 031430Z AUTO 24007KT 9999 ///TCU 16/08 Q1017 BECMG NSC",
      "taf": "TAF LFLS 031400Z 0315/0415 24010KT CAVOK"
    },
    {
      "icao": "LFMN",
      "alert": "OK",
      "vis_m": 9999,
      "fzfg": false,
      "metar_trigger": false,
      "taf_trigger": false,
      "metar": "METAR LFMN 031430Z 12006KT CAVOK 19/12 Q1018 NOSIG",
      "taf": "TAF LFMN 031400Z 0315/0421 12005KT CAVOK"
    },
    {
      "icao": "LFOB",
      "alert": "OK",
      "vis_m": 9999,
      "fzfg": false,
      "metar_trigger": false,
      "taf_trigger": false,
      "metar": "METAR LFOB 031430Z AUTO 24007KT 210V280 9999 FEW021/// BKN027/// BKN034/// ///CB 19/14 Q1010 TEMPO 4000 SHRA",
      "taf": "TAF LFOB 031100Z 0312/0412 19007KT 9999 BKN020 BKN060"
    },
    {
      "icao": "LFPO",
      "alert": "OK",
      "vis_m": 9999,
      "fzfg": false,
      "metar_trigger": false,
      "taf_trigger": false,
      "metar": "METAR LFPO 031430Z 22010KT 190V250 9999 SCT025 FEW093TCU SCT140 20/13 Q1011 NOSIG",
      "taf": ""
    },
    {
      "icao": "LFSB",
      "alert": "OK",
      "vis_m": 9999,
      "fzfg": false,
      "metar_trigger": false,
      "taf_trigger": false,
      "metar": "METAR LFSB 031430Z AUTO 28012KT 9999 ///TCU 21/06 Q1015 NOSIG",
      "taf": ""
    },
    {
      "icao": "LGAV",
      "alert": "OK",
      "vis_m": 9999,
      "fzfg": false,
      "metar_trigger": false,
      "taf_trigger": false,
      "metar": "METAR LGAV 031420Z 34015G25KT 9999 SCT025 15/01 Q1016 NOSIG",
      "taf": "TAF LGAV 031100Z 0312/0412 03012KT 9999 SCT025 BKN070"
    },
    {
      "icao": "LGTS",
      "alert": "OK",
      "vis_m": 9999,
      "fzfg": false,
      "metar_trigger": false,
      "taf_trigger": false,
      "metar": "METAR LGTS 031420Z 28008KT 9999 FEW020 18/02 Q1017 NOSIG",
      "taf": "TAF LGTS 031100Z 0312/0412 VRB03KT 9999 FEW025"
    },
    {
      "icao": "LHBP",
      "alert": "OK",
      "vis_m": 9999,
      "fzfg": false,
      "metar_trigger": false,
      "taf_trigger": false,
      "metar": "METAR LHBP 031430Z 14006KT 100V180 CAVOK 22/M00 Q1019 NOSIG",
      "taf": "TAF LHBP 031115Z 0312/0412 11008KT CAVOK"
    },
    {
      "icao": "LHDC",
      "alert": "OK",
      "vis_m": 9999,
      "fzfg": false,
      "metar_trigger": false,
      "taf_trigger": false,
      "metar": "METAR LHDC 031415Z AUTO VRB02KT CAVOK 22/01 Q1019 NOSIG",
      "taf": "TAF LHDC 031415Z 0315/0324 VRB04KT CAVOK"
    },
    {
      "icao": "LIBD",
      "alert": "OK",
      "vis_m": 9999,
      "fzfg": false,
      "metar_trigger": false,
      "taf_trigger": false,
      "metar": "METAR LIBD 031420Z 05006KT 340V090 CAVOK 21/10 Q1018",
      "taf": "TAF LIBD 031100Z 0312/0412 31010KT CAVOK"
    },
    {
      "icao": "LIBG",
      "alert": "OK",
      "vis_m": 9999,
      "fzfg": false,
      "metar_trigger": false,
      "taf_trigger": false,
      "metar": "METAR LIBG 031350Z 36011KT CAVOK 23/08 Q1017",
      "taf": "TAF LIBG 031400Z 0315/0324 35015KT CAVOK"
    },
    {
      "icao": "LIBP",
      "alert": "OK",
      "vis_m": 9999,
      "fzfg": false,
      "metar_trigger": false,
      "taf_trigger": false,
      "metar": "METAR LIBP 031420Z AUTO 06007KT 9999 NCD 23/07 Q1018",
      "taf": "TAF LIBP 031100Z 0312/0412 06011KT 9999 FEW050"
    },
    {
      "icao": "LIBR",
      "alert": "OK",
      "vis_m": 9999,
      "fzfg": false,
      "metar_trigger": false,
      "taf_trigger": false,
      "metar": "METAR LIBR 031420Z 03006KT CAVOK 18/10 Q1018",
      "taf": "TAF LIBR 031100Z 0312/0412 01018KT CAVOK"
    },
    {
      "icao": "LICA",
      "alert": "OK",
      "vis_m": 9999,
      "fzfg": false,
      "metar_trigger": false,
      "taf_trigger": false,
      "metar": "METAR LICA 031420Z AUTO 25014KT 220V280 9999 NCD 20/11 Q1019",
      "taf": "TAF LICA 031100Z 0312/0412 27015KT CAVOK"
    },
    {
      "icao": "LICC",
      "alert": "OK",
      "vis_m": 9999,
      "fzfg": false,
      "metar_trigger": false,
      "taf_trigger": false,
      "metar": "METAR LICC 031420Z 11010KT 9999 FEW050 21/13 Q1019",
      "taf": "TAF LICC 031100Z 0312/0412 09013KT CAVOK"
    },
    {
      "icao": "LICJ",
      "alert": "OK",
      "vis_m": 9999,
      "fzfg": false,
      "metar_trigger": false,
      "taf_trigger": false,
      "metar": "METAR LICJ 031420Z 04014KT CAVOK 19/08 Q1020",
      "taf": "TAF LICJ 031100Z 0312/0412 04013KT CAVOK"
    },
    {
      "icao": "LIMC",
      "alert": "OK",
      "vis_m": 9999,
      "fzfg": false,
      "metar_trigger": false,
      "taf_trigger": false,
      "metar": "METAR LIMC 031420Z 16003KT 130V220 CAVOK 23/05 Q1018 NOSIG",
      "taf": "TAF LIMC 031100Z 0312/0418 VRB05KT CAVOK"
    },
    {
      "icao": "LIME",
      "alert": "OK",
      "vis_m": 9999,
      "fzfg": false,
      "metar_trigger": false,
      "taf_trigger": false,
      "metar": "METAR LIME 031420Z 26010KT CAVOK 23/02 Q1018 NOSIG",
      "taf": "TAF LIME 031100Z 0312/0412 VRB05KT CAVOK"
    },
    {
      "icao": "LIMF",
      "alert": "OK",
      "vis_m": 9999,
      "fzfg": false,
      "metar_trigger": false,
      "taf_trigger": false,
      "metar": "METAR LIMF 031420Z VRB02KT 9999 SCT100 21/06 Q1018",
      "taf": "TAF LIMF 031100Z 0312/0412 VRB05KT 9999 SCT070"
    },
    {
      "icao": "LIMJ",
      "alert": "OK",
      "vis_m": 9999,
      "fzfg": false,
      "metar_trigger": false,
      "taf_trigger": false,
      "metar": "METAR LIMJ 031420Z 16004KT CAVOK 18/10 Q1019",
      "taf": "TAF LIMJ 031100Z 0312/0412 18012KT CAVOK"
    },
    {
      "icao": "LIPE",
      "alert": "OK",
      "vis_m": 9999,
      "fzfg": false,
      "metar_trigger": false,
      "taf_trigger": false,
      "metar": "METAR LIPE 031420Z 08004KT 040V120 CAVOK 25/05 Q1017",
      "taf": "TAF LIPE 031100Z 0312/0412 VRB05KT CAVOK"
    },
    {
      "icao": "LIPH",
      "alert": "OK",
      "vis_m": 9999,
      "fzfg": false,
      "metar_trigger": false,
      "taf_trigger": false,
      "metar": "METAR LIPH 031420Z 16009KT 110V200 CAVOK 24/08 Q1017",
      "taf": "TAF LIPH 031100Z 0312/0412 VRB05KT CAVOK"
    },
    {
      "icao": "LIPQ",
      "alert": "OK",
      "vis_m": 9999,
      "fzfg": false,
      "metar_trigger": false,
      "taf_trigger": false,
      "metar": "METAR LIPQ 031420Z AUTO 24008KT 210V270 9999 NCD 24/05 Q1017",
      "taf": "TAF LIPQ 031100Z 0312/0412 19010KT CAVOK"
    },
    {
      "icao": "LIPR",
      "alert": "OK",
      "vis_m": 9999,
      "fzfg": false,
      "metar_trigger": false,
      "taf_trigger": false,
      "metar": "METAR LIPR 031420Z AUTO 11010KT 080V140 9999 NCD 20/14 Q1017",
      "taf": "TAF LIPR 031100Z 0312/0412 07012KT CAVOK"
    },
    {
      "icao": "LIPX",
      "alert": "OK",
      "vis_m": 9999,
      "fzfg": false,
      "metar_trigger": false,
      "taf_trigger": false,
      "metar": "METAR LIPX 031420Z 25010KT 210V280 CAVOK 26/05 Q1017",
      "taf": "TAF LIPX 031100Z 0312/0412 VRB05KT CAVOK"
    },
    {
      "icao": "LIPY",
      "alert": "OK",
      "vis_m": 9999,
      "fzfg": false,
      "metar_trigger": false,
      "taf_trigger": false,
      "metar": "METAR LIPY 031420Z AUTO 07010KT 9999 NCD 21/13 Q1017",
      "taf": "TAF LIPY 031100Z 0312/0412 07011KT CAVOK"
    },
    {
      "icao": "LIPZ",
      "alert": "OK",
      "vis_m": 9999,
      "fzfg": false,
      "metar_trigger": false,
      "taf_trigger": false,
      "metar": "METAR LIPZ 031420Z 14009KT CAVOK 21/11 Q1017 NOSIG",
      "taf": "TAF LIPZ 031100Z 0312/0418 15011KT CAVOK"
    },
    {
      "icao": "LIRF",
      "alert": "OK",
      "vis_m": 9999,
      "fzfg": false,
      "metar_trigger": false,
      "taf_trigger": false,
      "metar": "METAR LIRF 031420Z 27012KT CAVOK 19/13 Q1020 NOSIG",
      "taf": "TAF LIRF 031100Z 0312/0418 27012KT CAVOK"
    },
    {
      "icao": "LIRN",
      "alert": "OK",
      "vis_m": 9999,
      "fzfg": false,
      "metar_trigger": false,
      "taf_trigger": false,
      "metar": "METAR LIRN 031420Z 28015KT CAVOK 20/08 Q1019 NOSIG",
      "taf": "TAF LIRN 031100Z 0312/0412 25010KT CAVOK"
    },
    {
      "icao": "LIRP",
      "alert": "OK",
      "vis_m": 9999,
      "fzfg": false,
      "metar_trigger": false,
      "taf_trigger": false,
      "metar": "METAR LIRP 031415Z 30005KT CAVOK 21/09 Q1019 NOSIG",
      "taf": "TAF LIRP 031100Z 0312/0412 27008KT 9999 SCT080"
    },
    {
      "icao": "LIRZ",
      "alert": "OK",
      "vis_m": 9999,
      "fzfg": false,
      "metar_trigger": false,
      "taf_trigger": false,
      "metar": "METAR LIRZ 031420Z AUTO 29008KT 260V330 9999 NCD 25/02 Q1018",
      "taf": "TAF LIRZ 031100Z 0312/0412 VRB05KT CAVOK"
    },
    {
      "icao": "LJLJ",
      "alert": "OK",
      "vis_m": 9999,
      "fzfg": false,
      "metar_trigger": false,
      "taf_trigger": false,
      "metar": "METAR LJLJ 031430Z 13007KT 090V170 9999 FEW075 25/05 Q1016 NOSIG",
      "taf": "TAF LJLJ 031100Z 0312/0412 VRB02KT CAVOK"
    },
    {
      "icao": "LKMT",
      "alert": "OK",
      "vis_m": 9999,
      "fzfg": false,
      "metar_trigger": false,
      "taf_trigger": false,
      "metar": "METAR LKMT 031430Z 22012KT 190V260 CAVOK 23/03 Q1016 NOSIG",
      "taf": "TAF LKMT 031100Z 0312/0412 20013KT CAVOK"
    },
    {
      "icao": "LKPR",
      "alert": "OK",
      "vis_m": 9999,
      "fzfg": false,
      "metar_trigger": false,
      "taf_trigger": false,
      "metar": "METAR LKPR 031430Z 16005KT 120V210 CAVOK 25/03 Q1013 NOSIG",
      "taf": "TAF LKPR 031400Z 0315/0421 16007KT CAVOK"
    },
    {
      "icao": "LLBG",
      "alert": "OK",
      "vis_m": 9999,
      "fzfg": false,
      "metar_trigger": false,
      "taf_trigger": false,
      "metar": "METAR LLBG 031420Z 30016KT 9999 FEW018 BKN025 20/15 Q1011 NOSIG",
      "taf": "TAF LLBG 031102Z 0312/0412 25015KT 8000 SCT020 BKN050 TX24/0312Z TN15/0404Z"
    },
    {
      "icao": "LMML",
      "alert": "OK",
      "vis_m": 9999,
      "fzfg": false,
      "metar_trigger": false,
      "taf_trigger": false,
      "metar": "METAR LMML 031415Z 26015KT 9999 SCT030 20/10 Q1021 NOSIG",
      "taf": "TAF LMML 031100Z 0312/0412 25013KT 9999 FEW017"
    },
    {
      "icao": "LOWW",
      "alert": "OK",
      "vis_m": 9999,
      "fzfg": false,
      "metar_trigger": false,
      "taf_trigger": false,
      "metar": "METAR LOWW 031420Z 14016KT CAVOK 24/06 Q1016 NOSIG",
      "taf": "TAF LOWW 031415Z 0315/0421 14015KT CAVOK TX27/0414Z TN13/0404Z"
    },
    {
      "icao": "LPFR",
      "alert": "OK",
      "vis_m": 9999,
      "fzfg": false,
      "metar_trigger": false,
      "taf_trigger": false,
      "metar": "METAR LPFR 031430Z 24013KT 9999 FEW030 20/13 Q1015",
      "taf": "TAF LPFR 031100Z 0312/0412 24015KT 9999 FEW025"
    },
    {
      "icao": "LPMA",
      "alert": "OK",
      "vis_m": 9999,
      "fzfg": false,
      "metar_trigger": false,
      "taf_trigger": false,
      "metar": "METAR LPMA 031430Z 20014KT 9999 SCT013 19/16 Q1016",
      "taf": "TAF LPMA 031100Z 0312/0412 20015KT 9999 SCT013 SCT030"
    },
    {
      "icao": "LPPR",
      "alert": "OK",
      "vis_m": 9999,
      "fzfg": false,
      "metar_trigger": false,
      "taf_trigger": false,
      "metar": "METAR LPPR 031430Z 32011KT 270V350 9999 SCT015 17/12 Q1013",
      "taf": "TAF LPPR 031100Z 0312/0412 31010KT 9999 SCT015"
    },
    {
      "icao": "LPPS",
      "alert": "OK",
      "vis_m": 9999,
      "fzfg": false,
      "metar_trigger": false,
      "taf_trigger": false,
      "metar": "METAR LPPS 031430Z 18011KT 9999 SCT012 20/14 Q1016",
      "taf": "TAF LPPS 031100Z 0312/0418 17010KT 9999 SCT012"
    },
    {
      "icao": "LPPT",
      "alert": "OK",
      "vis_m": 9999,
      "fzfg": false,
      "metar_trigger": false,
      "taf_trigger": false,
      "metar": "METAR LPPT 031430Z 26009KT 210V300 9999 FEW034 19/11 Q1014",
      "taf": "TAF LPPT 031100Z 0312/0418 25010KT 9999 SCT035"
    },
    {
      "icao": "LQBK",
      "alert": "OK",
      "vis_m": 9999,
      "fzfg": false,
      "metar_trigger": false,
      "taf_trigger": false,
      "metar": "METAR LQBK 031430Z 08006KT 040V130 CAVOK 23/04 Q1017 NOSIG",
      "taf": "TAF LQBK 031100Z 0312/0412 VRB02KT CAVOK TX23/0313Z TN06/0404Z"
    },
    {
      "icao": "LQSA",
      "alert": "OK",
      "vis_m": 9999,
      "fzfg": false,
      "metar_trigger": false,
      "taf_trigger": false,
      "metar": "METAR LQSA 031430Z 02005KT 320V100 CAVOK 21/M01 Q1017 NOSIG",
      "taf": "TAF LQSA 031100Z 0312/0412 31005KT CAVOK TX24/0412Z TN04/0404Z"
    },
    {
      "icao": "LQTZ",
      "alert": "OK",
      "vis_m": 9999,
      "fzfg": false,
      "metar_trigger": false,
      "taf_trigger": false,
      "metar": "METAR LQTZ 031430Z 14006KT 090V220 CAVOK 20/04 Q1018",
      "taf": "TAF LQTZ 031100Z 0312/0412 34005KT CAVOK TX21/0313Z TN01/0404Z"
    },
    {
      "icao": "LRBC",
      "alert": "OK",
      "vis_m": 9999,
      "fzfg": false,
      "metar_trigger": false,
      "taf_trigger": false,
      "metar": "METAR LRBC 031430Z VRB03KT CAVOK 17/M03 Q1019",
      "taf": "TAF LRBC 031400Z 0315/0324 VRB04KT CAVOK"
    },
    {
      "icao": "LRBS",
      "alert": "OK",
      "vis_m": 9999,
      "fzfg": false,
      "metar_trigger": false,
      "taf_trigger": false,
      "metar": "METAR LRBS 031430Z 04006KT 360V100 CAVOK 16/M00 Q1019 NOSIG",
      "taf": "TAF LRBS 031100Z 0312/0412 07007KT CAVOK"
    },
    {
      "icao": "LRBV",
      "alert": "OK",
      "vis_m": 9999,
      "fzfg": false,
      "metar_trigger": false,
      "taf_trigger": false,
      "metar": "METAR LRBV 031430Z 25003KT CAVOK 14/M04 Q1019",
      "taf": "TAF LRBV 031400Z 0315/0324 VRB04KT CAVOK"
    },
    {
      "icao": "LRCL",
      "alert": "OK",
      "vis_m": 9999,
      "fzfg": false,
      "metar_trigger": false,
      "taf_trigger": false,
      "metar": "METAR LRCL 031430Z 26004KT 150V320 CAVOK 18/M00 Q1019",
      "taf": "TAF LRCL 031400Z 0315/0324 VRB04KT CAVOK"
    },
    {
      "icao": "LRCV",
      "alert": "OK",
      "vis_m": 9999,
      "fzfg": false,
      "metar_trigger": false,
      "taf_trigger": false,
      "metar": "METAR LRCV 031430Z 14004KT 100V260 CAVOK 15/01 Q1020",
      "taf": "TAF LRCV 031400Z 0315/0324 VRB04KT CAVOK"
    },
    {
      "icao": "LRIA",
      "alert": "OK",
      "vis_m": 9999,
      "fzfg": false,
      "metar_trigger": false,
      "taf_trigger": false,
      "metar": "METAR LRIA 031430Z 31004KT 240V360 CAVOK 16/M01 Q1019",
      "taf": "TAF LRIA 031400Z 0315/0324 VRB04KT CAVOK"
    },
    {
      "icao": "LROP",
      "alert": "OK",
      "vis_m": 9999,
      "fzfg": false,
      "metar_trigger": false,
      "taf_trigger": false,
      "metar": "METAR LROP 031430Z 08007KT 060V120 CAVOK 16/M00 Q1019 NOSIG",
      "taf": "TAF LROP 031100Z 0312/0412 07007KT CAVOK"
    },
    {
      "icao": "LRSB",
      "alert": "OK",
      "vis_m": 9999,
      "fzfg": false,
      "metar_trigger": false,
      "taf_trigger": false,
      "metar": "METAR LRSB 031430Z 30004KT 220V010 CAVOK 16/M06 Q1019",
      "taf": "TAF LRSB 031100Z 0312/0412 VRB04KT CAVOK"
    },
    {
      "icao": "LRSM",
      "alert": "OK",
      "vis_m": 9999,
      "fzfg": false,
      "metar_trigger": false,
      "taf_trigger": false,
      "metar": "METAR LRSM 031430Z AUTO 25003KT 170V310 9999 NCD 21/01 Q1019",
      "taf": ""
    },
    {
      "icao": "LRSV",
      "alert": "OK",
      "vis_m": 9999,
      "fzfg": false,
      "metar_trigger": false,
      "taf_trigger": false,
      "metar": "METAR LRSV 031430Z 11004KT 020V170 CAVOK 17/02 Q1019",
      "taf": "TAF LRSV 031400Z 0315/0324 VRB04KT CAVOK"
    },
    {
      "icao": "LRTM",
      "alert": "OK",
      "vis_m": 9999,
      "fzfg": false,
      "metar_trigger": false,
      "taf_trigger": false,
      "metar": "METAR LRTM 031430Z 25006KT 180V310 CAVOK 18/01 Q1019",
      "taf": "TAF LRTM 031400Z 0315/0324 VRB04KT CAVOK"
    },
    {
      "icao": "LRTR",
      "alert": "OK",
      "vis_m": 9999,
      "fzfg": false,
      "metar_trigger": false,
      "taf_trigger": false,
      "metar": "METAR LRTR 031430Z COR VRB04KT CAVOK 20/01 Q1019",
      "taf": "TAF LRTR 031100Z 0312/0412 VRB04KT CAVOK"
    },
    {
      "icao": "LTAC",
      "alert": "OK",
      "vis_m": 9999,
      "fzfg": false,
      "metar_trigger": false,
      "taf_trigger": false,
      "metar": "METAR LTAC 031420Z 09011KT 9999 SCT015 BKN025 BKN080 08/04 Q1005 NOSIG RMK RWY21C 06015KT RWY03L 07014KT RWY21R 06014KT RWY03R 08012KT RWY21L 06013KT",
      "taf": "TAF LTAC 031040Z 0312/0412 04014KT 9999 SCT030 BKN080"
    },
    {
      "icao": "LTFM",
      "alert": "OK",
      "vis_m": 9999,
      "fzfg": false,
      "metar_trigger": false,
      "taf_trigger": false,
      "metar": "METAR LTFM 031420Z 04031KT 9999 BKN025 BKN070 11/05 Q1013 NOSIG RMK RWY17L 03027KT RWY34L 02025G35KT RWY16R 03028KT RWY36 03031KT RWY18 04027KT",
      "taf": "TAF LTFM 031040Z 0312/0418 03030G42KT 9999 BKN020 BKN070"
    },
    {
      "icao": "LUKK",
      "alert": "OK",
      "vis_m": 9999,
      "fzfg": false,
      "metar_trigger": false,
      "taf_trigger": false,
      "metar": "METAR LUKK 031430Z VRB03KT CAVOK 17/M03 Q1018 NOSIG",
      "taf": "TAF LUKK 031103Z 0312/0412 VRB06KT CAVOK"
    },
    {
      "icao": "LWOH",
      "alert": "OK",
      "vis_m": 9999,
      "fzfg": false,
      "metar_trigger": false,
      "taf_trigger": false,
      "metar": "METAR LWOH 031420Z 02012KT 340V050 9999 FEW035 16/M03 Q1016",
      "taf": "TAF LWOH 031410Z 0315/0415 01010KT CAVOK"
    },
    {
      "icao": "LWSK",
      "alert": "OK",
      "vis_m": 9999,
      "fzfg": false,
      "metar_trigger": false,
      "taf_trigger": false,
      "metar": "METAR LWSK 031420Z 01013KT 9999 FEW098 18/M00 Q1017 NOSIG",
      "taf": "TAF LWSK 031410Z 0315/0415 02010KT CAVOK"
    },
    {
      "icao": "LYBE",
      "alert": "OK",
      "vis_m": 9999,
      "fzfg": false,
      "metar_trigger": false,
      "taf_trigger": false,
      "metar": "METAR LYBE 031430Z 06007KT 020V100 CAVOK 18/01 Q1019 NOSIG",
      "taf": "TAF LYBE 031100Z 0312/0412 10008KT CAVOK TX24/0412Z TN06/0404Z"
    },
    {
      "icao": "LYNI",
      "alert": "OK",
      "vis_m": 9999,
      "fzfg": false,
      "metar_trigger": false,
      "taf_trigger": false,
      "metar": "METAR LYNI 031430Z 03008KT 360V070 CAVOK 16/M02 Q1020 NOSIG",
      "taf": "TAF LYNI 031100Z 0312/0412 04008KT 9999 SCT050 TX22/0412Z TN03/0404Z"
    },
    {
      "icao": "LYPG",
      "alert": "OK",
      "vis_m": 9999,
      "fzfg": false,
      "metar_trigger": false,
      "taf_trigger": false,
      "metar": "METAR LYPG 031430Z 16009KT 120V200 9999 FEW080 22/04 Q1015 NOSIG",
      "taf": "TAF LYPG 031100Z 0312/0412 18010KT CAVOK TX24/0412Z TN09/0404Z"
    },
    {
      "icao": "LZIB",
      "alert": "OK",
      "vis_m": 9999,
      "fzfg": false,
      "metar_trigger": false,
      "taf_trigger": false,
      "metar": "METAR LZIB 031430Z 14009KT 100V170 CAVOK 24/05 Q1017 NOSIG",
      "taf": "TAF LZIB 031115Z 0312/0412 15013KT CAVOK"
    },
    {
      "icao": "LZKZ",
      "alert": "OK",
      "vis_m": 9999,
      "fzfg": false,
      "metar_trigger": false,
      "taf_trigger": false,
      "metar": "METAR LZKZ 031430Z 25008KT 220V280 CAVOK 22/02 Q1019 NOSIG",
      "taf": "TAF LZKZ 031115Z 0312/0412 22009KT CAVOK"
    },
    {
      "icao": "LZTT",
      "alert": "OK",
      "vis_m": 9999,
      "fzfg": false,
      "metar_trigger": false,
      "taf_trigger": false,
      "metar": "METAR LZTT 031430Z 16010KT 120V180 CAVOK 20/00 Q1018 NOSIG",
      "taf": "TAF LZTT 031115Z 0312/0412 16008KT CAVOK"
    },
    {
      "icao": "OEJN",
      "alert": "OK",
      "vis_m": 9999,
      "fzfg": false,
      "metar_trigger": false,
      "taf_trigger": false,
      "metar": "METAR OEJN 031400Z 23009KT CAVOK 36/06 Q1007 NOSIG",
      "taf": "TAF OEJN 031100Z 0312/0418 25010KT CAVOK"
    },
    {
      "icao": "OEMA",
      "alert": "OK",
      "vis_m": 9999,
      "fzfg": false,
      "metar_trigger": false,
      "taf_trigger": false,
      "metar": "METAR OEMA 031400Z 22007KT CAVOK 39/M05 Q1011 NOSIG",
      "taf": "TAF OEMA 031100Z 0312/0418 28010KT CAVOK"
    },
    {
      "icao": "OJAI",
      "alert": "OK",
      "vis_m": 3000,
      "fzfg": false,
      "metar_trigger": false,
      "taf_trigger": false,
      "metar": "METAR OJAI 031400Z 27022KT 3000 BLDU FEW030 21/10 Q1011 NOSIG",
      "taf": "TAF OJAI 031100Z 0312/0418 24018KT 2000 BLDU SCT035"
    },
    {
      "icao": "OMAA",
      "alert": "OK",
      "vis_m": 9999,
      "fzfg": false,
      "metar_trigger": false,
      "taf_trigger": false,
      "metar": "METAR OMAA 031430Z 33013KT CAVOK 35/13 Q1005 NOSIG",
      "taf": "TAF OMAA 031100Z 0312/0418 34011KT 8000 NSC"
    },
    {
      "icao": "OMDB",
      "alert": "OK",
      "vis_m": 9999,
      "fzfg": false,
      "metar_trigger": false,
      "taf_trigger": false,
      "metar": "METAR OMDB 031430Z 29015KT CAVOK 35/15 Q1005 NOSIG",
      "taf": "TAF OMDB 031100Z 0312/0418 33010KT CAVOK"
    },
    {
      "icao": "UAAA",
      "alert": "OK",
      "vis_m": 9999,
      "fzfg": false,
      "metar_trigger": false,
      "taf_trigger": false,
      "metar": "METAR UAAA 031430Z 22005MPS 9999 -SHRA VCTS BKN050CB OVC100 16/14 Q1014 NOSIG",
      "taf": "TAF UAAA 031106Z 0312/0412 28003G08MPS 9999 -SHRA BKN040CB OVC100 TX19/0408Z TN13/0401Z"
    },
    {
      "icao": "UBBB",
      "alert": "OK",
      "vis_m": 9999,
      "fzfg": false,
      "metar_trigger": false,
      "taf_trigger": false,
      "metar": "METAR UBBB 031430Z 34008KT 9999 BKN012 11/08 Q1016 NOSIG",
      "taf": "TAF UBBB 031055Z 0312/0412 35012KT 9999 SCT012 BKN040 TX13/0312Z TN09/0401Z"
    },
    {
      "icao": "UDSG",
      "alert": "OK",
      "vis_m": 9999,
      "fzfg": false,
      "metar_trigger": false,
      "taf_trigger": false,
      "metar": "METAR UDSG 031430Z 14007KT 9999 BKN040CB 15/06 Q1014 NOSIG",
      "taf": "TAF UDSG 031058Z 0312/0412 24006KT 9999 BKN040"
    },
    {
      "icao": "UDYZ",
      "alert": "OK",
      "vis_m": 9999,
      "fzfg": false,
      "metar_trigger": false,
      "taf_trigger": false,
      "metar": "METAR UDYZ 031430Z 13010KT 9999 SCT043CB 19/09 Q1012 NOSIG",
      "taf": "TAF UDYZ 031100Z 0312/0412 14008KT 9999 BKN040"
    },
    {
      "icao": "UGKO",
      "alert": "OK",
      "vis_m": 9999,
      "fzfg": false,
      "metar_trigger": false,
      "taf_trigger": false,
      "metar": "METAR UGKO 031430Z 27006KT 9999 SCT012 OVC020 12/10 Q1010 NOSIG",
      "taf": "TAF UGKO 031100Z 0312/0412 25007KT 9999 SCT030 OVC045 TX20/0411Z TN09/0322Z"
    }
  ]
}