{
  "ts_utc": "2025-12-21T11:23:30Z",
  "threshold_m": 150,
  "source": "stations_override.txt (ICAO list) + aviationweather.gov (METAR/TAF raw)",
  "station_count": 114,
  "stations": [
    {
      "icao": "BIKF",
      "alert": "OK",
      "vis_m": 9999,
      "fzfg": false,
      "metar_trigger": false,
      "taf_trigger": false,
      "metar": "METAR BIKF 211100Z 12017KT 9999 -RA BKN010 OVC030 09/07 Q1009",
      "taf": "TAF BIKF 211037Z 2112/2212 11018G28KT 9999 BKN025 TX08/2112Z TN06/2205Z"
    },
    {
      "icao": "BKPR",
      "alert": "OK",
      "vis_m": null,
      "fzfg": false,
      "metar_trigger": false,
      "taf_trigger": false,
      "metar": "",
      "taf": ""
    },
    {
      "icao": "EBBR",
      "alert": "OK",
      "vis_m": 9999,
      "fzfg": false,
      "metar_trigger": false,
      "taf_trigger": false,
      "metar": "METAR EBBR 211050Z 10006KT CAVOK 11/09 Q1010 NOSIG",
      "taf": "TAF EBBR 210516Z 2106/2212 10005KT CAVOK"
    },
    {
      "icao": "EBCI",
      "alert": "OK",
      "vis_m": 9999,
      "fzfg": false,
      "metar_trigger": false,
      "taf_trigger": false,
      "metar": "METAR EBCI 211050Z 11007KT CAVOK 11/09 Q1010 NOSIG",
      "taf": "TAF EBCI 210516Z 2106/2212 12005KT 9999 SCT040"
    },
    {
      "icao": "EDDB",
      "alert": "OK",
      "vis_m": 8000,
      "fzfg": false,
      "metar_trigger": false,
      "taf_trigger": false,
      "metar": "METAR EDDB 211050Z AUTO 10009KT 8000 OVC005 06/06 Q1019 NOSIG",
      "taf": "TAF EDDB 210500Z 2106/2206 09008KT 4000 BR OVC002"
    },
    {
      "icao": "EDDH",
      "alert": "OK",
      "vis_m": 9999,
      "fzfg": false,
      "metar_trigger": false,
      "taf_trigger": false,
      "metar": "METAR EDDH 211050Z AUTO 10010KT 9999 OVC005 06/06 Q1017 NOSIG",
      "taf": "TAF EDDH 210500Z 2106/2212 09010KT 9999 FEW007 BKN025"
    },
    {
      "icao": "EDDK",
      "alert": "OK",
      "vis_m": 9999,
      "fzfg": false,
      "metar_trigger": false,
      "taf_trigger": false,
      "metar": "METAR EDDK 211050Z AUTO 12005KT 070V150 CAVOK 10/06 Q1012 NOSIG",
      "taf": "TAF EDDK 210500Z 2106/2212 11007KT CAVOK"
    },
    {
      "icao": "EDDN",
      "alert": "OK",
      "vis_m": 9999,
      "fzfg": false,
      "metar_trigger": false,
      "taf_trigger": false,
      "metar": "METAR EDDN 211050Z AUTO 11008KT CAVOK 03/M00 Q1014 NOSIG",
      "taf": "TAF EDDN 210500Z 2106/2206 10006KT 6000 FEW005"
    },
    {
      "icao": "EDFH",
      "alert": "OK",
      "vis_m": 9999,
      "fzfg": false,
      "metar_trigger": false,
      "taf_trigger": false,
      "metar": "METAR EDFH 211050Z 12007KT CAVOK 07/05 Q1011",
      "taf": "TAF EDFH 210500Z 2106/2206 14012KT 0800 FG BKN001"
    },
    {
      "icao": "EDJA",
      "alert": "OK",
      "vis_m": 1000,
      "fzfg": true,
      "metar_trigger": false,
      "taf_trigger": false,
      "metar": "METAR EDJA 211050Z 05008KT 1000 R06/1300D FZFG SCT001 OVC005 M02/M02 Q1011",
      "taf": "TAF EDJA 210800Z 2109/2118 06006KT 0800 FZFG VV001"
    },
    {
      "icao": "EDLW",
      "alert": "OK",
      "vis_m": 9999,
      "fzfg": false,
      "metar_trigger": false,
      "taf_trigger": false,
      "metar": "METAR EDLW 211050Z 02002KT CAVOK 09/07 Q1012",
      "taf": "TAF EDLW 210500Z 2106/2206 08007KT CAVOK"
    },
    {
      "icao": "EDSB",
      "alert": "OK",
      "vis_m": 9999,
      "fzfg": false,
      "metar_trigger": false,
      "taf_trigger": false,
      "metar": "METAR EDSB 211050Z 11003KT 090V160 CAVOK 06/04 Q1011",
      "taf": ""
    },
    {
      "icao": "EETN",
      "alert": "OK",
      "vis_m": 9999,
      "fzfg": false,
      "metar_trigger": false,
      "taf_trigger": false,
      "metar": "METAR EETN 211120Z 32013KT 290V350 9999 OVC015 04/02 Q1010 NOSIG",
      "taf": "TAF EETN 210530Z 2106/2206 32014KT 9999 BKN015 BKN025"
    },
    {
      "icao": "EFHK",
      "alert": "OK",
      "vis_m": 9999,
      "fzfg": false,
      "metar_trigger": false,
      "taf_trigger": false,
      "metar": "METAR EFHK 211120Z 31013KT 9999 BKN014 03/00 Q1010 TEMPO BKN016",
      "taf": "TAF EFHK 210857Z 2109/2209 32012KT 9999 SCT012 BKN020"
    },
    {
      "icao": "EFTU",
      "alert": "OK",
      "vis_m": 9999,
      "fzfg": false,
      "metar_trigger": false,
      "taf_trigger": false,
      "metar": "METAR EFTU 211120Z AUTO 31006KT 280V340 9999 BKN014 05/03 Q1013",
      "taf": "TAF EFTU 210858Z 2109/2209 33008KT 9999 SCT016"
    },
    {
      "icao": "EGGW",
      "alert": "OK",
      "vis_m": 5000,
      "fzfg": false,
      "metar_trigger": false,
      "taf_trigger": false,
      "metar": "METAR EGGW 211050Z AUTO 10006KT 5000 BR BKN003 OVC012 09/08 Q1008",
      "taf": "TAF EGGW 211102Z 2112/2212 11008KT 3000 -RA BR BKN002"
    },
    {
      "icao": "EGKK",
      "alert": "OK",
      "vis_m": 8000,
      "fzfg": false,
      "metar_trigger": false,
      "taf_trigger": false,
      "metar": "METAR EGKK 211050Z 08006KT 8000 FEW008 BKN025 10/10 Q1008",
      "taf": "TAF EGKK 211057Z 2112/2218 10005KT 9999 BKN018"
    },
    {
      "icao": "EHEH",
      "alert": "OK",
      "vis_m": 9999,
      "fzfg": false,
      "metar_trigger": false,
      "taf_trigger": false,
      "metar": "METAR EHEH 211055Z AUTO 10004KT 040V130 9999 OVC096 09/08 Q1011 BLU NOSIG RMK TREND REMOTE BY EHWX",
      "taf": "TAF EHEH 210537Z 2106/2212 10005KT 4800 BR FEW020"
    },
    {
      "icao": "EKBI",
      "alert": "OK",
      "vis_m": 9999,
      "fzfg": false,
      "metar_trigger": false,
      "taf_trigger": false,
      "metar": "METAR EKBI 211050Z AUTO 09010KT 9999 OVC007/// 05/04 Q1020",
      "taf": "TAF EKBI 210827Z 2109/2209 10010KT 9999 BKN007"
    },
    {
      "icao": "EKCH",
      "alert": "OK",
      "vis_m": 9999,
      "fzfg": false,
      "metar_trigger": false,
      "taf_trigger": false,
      "metar": "METAR EKCH 211050Z AUTO 08005KT 050V110 9999 BKN017/// 06/04 Q1022 NOSIG",
      "taf": "TAF EKCH 210827Z 2109/2209 08006KT 9999 BKN018"
    },
    {
      "icao": "ENTO",
      "alert": "OK",
      "vis_m": 9999,
      "fzfg": false,
      "metar_trigger": false,
      "taf_trigger": false,
      "metar": "METAR ENTO 211050Z 36008KT CAVOK 01/M01 Q1023 NOSIG",
      "taf": "TAF ENTO 210500Z 2106/2206 02008KT CAVOK"
    },
    {
      "icao": "EPGD",
      "alert": "OK",
      "vis_m": 9999,
      "fzfg": false,
      "metar_trigger": false,
      "taf_trigger": false,
      "metar": "METAR EPGD 211100Z 30006KT 270V330 9999 BKN020 06/02 Q1021",
      "taf": "TAF EPGD 210530Z 2106/2206 26005KT 9999 OVC020"
    },
    {
      "icao": "EPKK",
      "alert": "OK",
      "vis_m": 2400,
      "fzfg": false,
      "metar_trigger": false,
      "taf_trigger": false,
      "metar": "METAR EPKK 211100Z 07007KT 2400 BR BKN003 OVC004 05/04 Q1020",
      "taf": "TAF EPKK 210830Z 2109/2209 07003KT 1200 BR OVC003"
    },
    {
      "icao": "EPKT",
      "alert": "OK",
      "vis_m": 1000,
      "fzfg": false,
      "metar_trigger": false,
      "taf_trigger": false,
      "metar": "METAR EPKT 211100Z 07005KT 1000 0800N R26/1100N PRFG BR OVC002 05/05 Q1019",
      "taf": ""
    },
    {
      "icao": "EPWA",
      "alert": "OK",
      "vis_m": 9999,
      "fzfg": false,
      "metar_trigger": false,
      "taf_trigger": false,
      "metar": "METAR EPWA 211100Z VRB02KT 9999 BKN014 03/01 Q1021 BECMG BKN015",
      "taf": "TAF EPWA 210830Z 2109/2209 VRB04KT 9999 BKN013"
    },
    {
      "icao": "EPWR",
      "alert": "OK",
      "vis_m": 5000,
      "fzfg": false,
      "metar_trigger": false,
      "taf_trigger": false,
      "metar": "METAR EPWR 211100Z 10005KT 5000 BR BKN006 06/05 Q1019",
      "taf": "TAF EPWR 210830Z 2109/2209 09006KT 5000 BR SCT005 BKN045"
    },
    {
      "icao": "ESGG",
      "alert": "OK",
      "vis_m": 9999,
      "fzfg": false,
      "metar_trigger": false,
      "taf_trigger": false,
      "metar": "METAR ESGG 211050Z VRB02KT 9999 BKN003 03/03 Q1022",
      "taf": "TAF ESGG 210830Z 2109/2209 23003KT 8000 BKN006"
    },
    {
      "icao": "ESKN",
      "alert": "OK",
      "vis_m": 9999,
      "fzfg": false,
      "metar_trigger": false,
      "taf_trigger": false,
      "metar": "METAR ESKN 211050Z 28006KT CAVOK 03/01 Q1020",
      "taf": "TAF ESKN 210830Z 2109/2209 28008KT CAVOK"
    },
    {
      "icao": "ESMX",
      "alert": "OK",
      "vis_m": 9999,
      "fzfg": false,
      "metar_trigger": false,
      "taf_trigger": false,
      "metar": "METAR ESMX 211050Z AUTO 01006KT 9999 OVC003/// 03/03 Q1021",
      "taf": ""
    },
    {
      "icao": "EVRA",
      "alert": "OK",
      "vis_m": 9999,
      "fzfg": false,
      "metar_trigger": false,
      "taf_trigger": false,
      "metar": "METAR EVRA 211120Z 30006KT 250V040 9999 OVC019 07/04 Q1014 NOSIG",
      "taf": "TAF EVRA 211101Z 2112/2212 30010KT 9999 BKN020"
    },
    {
      "icao": "EYKA",
      "alert": "OK",
      "vis_m": 9999,
      "fzfg": false,
      "metar_trigger": false,
      "taf_trigger": false,
      "metar": "METAR EYKA 211120Z 27009KT 9999 OVC023 06/04 Q1017",
      "taf": "TAF EYKA 211110Z 2112/2212 28008KT 9000 BKN020"
    },
    {
      "icao": "EYVI",
      "alert": "OK",
      "vis_m": 9999,
      "fzfg": false,
      "metar_trigger": false,
      "taf_trigger": false,
      "metar": "METAR EYVI 211120Z 28009KT 9999 BKN009 04/03 Q1016 NOSIG",
      "taf": "TAF EYVI 211100Z 2112/2212 29010KT 9000 BKN010 OVC015"
    },
    {
      "icao": "GCLP",
      "alert": "OK",
      "vis_m": 9999,
      "fzfg": false,
      "metar_trigger": false,
      "taf_trigger": false,
      "metar": "METAR GCLP 211100Z 34014KT 310V010 9999 SCT045 19/09 Q1022 NOSIG",
      "taf": "TAF GCLP 210800Z 2109/2209 01015KT 9999 FEW035 TX21/2114Z TN15/2206Z"
    },
    {
      "icao": "GCTS",
      "alert": "OK",
      "vis_m": 9999,
      "fzfg": false,
      "metar_trigger": false,
      "taf_trigger": false,
      "metar": "METAR GCTS 211100Z 25007KT 200V330 9999 SCT045 20/09 Q1022 NOSIG",
      "taf": ""
    },
    {
      "icao": "HECA",
      "alert": "OK",
      "vis_m": 4000,
      "fzfg": false,
      "metar_trigger": false,
      "taf_trigger": false,
      "metar": "METAR HECA 211100Z 19014KT 4000 SA NSC 22/00 Q1012 NOSIG",
      "taf": "TAF HECA 211100Z 2112/2218 19012KT CAVOK"
    },
    {
      "icao": "HEGN",
      "alert": "OK",
      "vis_m": 9999,
      "fzfg": false,
      "metar_trigger": false,
      "taf_trigger": false,
      "metar": "METAR HEGN 211000Z 13008KT CAVOK 24/10 Q1014 NOSIG",
      "taf": "TAF HEGN 211100Z 2112/2218 14008KT CAVOK"
    },
    {
      "icao": "HESH",
      "alert": "OK",
      "vis_m": 9999,
      "fzfg": false,
      "metar_trigger": false,
      "taf_trigger": false,
      "metar": "METAR HESH 211000Z 16004KT CAVOK 25/11 Q1015 NOSIG",
      "taf": "TAF HESH 211100Z 2112/2218 19008KT CAVOK"
    },
    {
      "icao": "HESX",
      "alert": "OK",
      "vis_m": 9999,
      "fzfg": false,
      "metar_trigger": false,
      "taf_trigger": false,
      "metar": "METAR HESX 211000Z 18012KT CAVOK 19/02 Q1013 NOSIG",
      "taf": "TAF HESX 211100Z 2112/2218 18009KT CAVOK"
    },
    {
      "icao": "LATI",
      "alert": "OK",
      "vis_m": 9999,
      "fzfg": false,
      "metar_trigger": false,
      "taf_trigger": false,
      "metar": "METAR LATI 211120Z VRB02KT CAVOK 16/05 Q1015 NOSIG",
      "taf": "TAF LATI 211100Z 2112/2212 VRB05KT CAVOK TX17/2112Z TN01/2205Z"
    },
    {
      "icao": "LBSF",
      "alert": "OK",
      "vis_m": 5000,
      "fzfg": false,
      "metar_trigger": false,
      "taf_trigger": false,
      "metar": "METAR LBSF 211100Z 30003KT 260V010 5000 BR FEW006 BKN033 05/03 Q1018 TEMPO 4000 BR",
      "taf": "TAF LBSF 211100Z 2112/2212 VRB03KT 9999 SCT030"
    },
    {
      "icao": "LBWN",
      "alert": "OK",
      "vis_m": 9999,
      "fzfg": false,
      "metar_trigger": false,
      "taf_trigger": false,
      "metar": "METAR LBWN 211100Z AUTO 26004KT 9999 FEW009/// BKN033/// OVC039/// 07/07 Q1018 TEMPO 3000 DZ BR",
      "taf": "TAF LBWN 211100Z 2112/2212 35008KT 7000 BKN015 OVC035"
    },
    {
      "icao": "LCLK",
      "alert": "OK",
      "vis_m": 9999,
      "fzfg": false,
      "metar_trigger": false,
      "taf_trigger": false,
      "metar": "METAR LCLK 211030Z 11011KT 9999 FEW030 BKN060 22/14 Q1012 NOSIG",
      "taf": "TAF LCLK 210530Z 2106/2206 05012KT 9999 SCT030"
    },
    {
      "icao": "LDDU",
      "alert": "OK",
      "vis_m": 9999,
      "fzfg": false,
      "metar_trigger": false,
      "taf_trigger": false,
      "metar": "METAR LDDU 211100Z 29005KT 9999 FEW040 15/06 Q1015 NOSIG",
      "taf": "TAF LDDU 210525Z 2106/2206 05004KT CAVOK TX15/2112Z TN10/2106Z"
    },
    {
      "icao": "LDSP",
      "alert": "OK",
      "vis_m": 9999,
      "fzfg": false,
      "metar_trigger": false,
      "taf_trigger": false,
      "metar": "METAR LDSP 211100Z 08003KT 020V160 CAVOK 14/03 Q1015 NOSIG",
      "taf": "TAF LDSP 210525Z 2106/2206 VRB02KT CAVOK TX16/2113Z TN06/2106Z"
    },
    {
      "icao": "LDZA",
      "alert": "OK",
      "vis_m": 3500,
      "fzfg": false,
      "metar_trigger": false,
      "taf_trigger": false,
      "metar": "METAR LDZA 211100Z VRB02KT 3500 BR OVC003 04/03 Q1020 BECMG 6000 NSW OVC005",
      "taf": "TAF LDZA 210525Z 2106/2206 VRB02KT 2000 -DZ BR OVC003 TX05/2113Z TN03/2106Z"
    },
    {
      "icao": "LEAL",
      "alert": "OK",
      "vis_m": 9999,
      "fzfg": false,
      "metar_trigger": false,
      "taf_trigger": false,
      "metar": "METAR LEAL 211100Z 23003KT 180V260 CAVOK 13/06 Q1008 NOSIG",
      "taf": "TAF LEAL 210500Z 2106/2206 24005KT 9999 FEW014 TX15/2112Z TN08/2106Z"
    },
    {
      "icao": "LEBL",
      "alert": "OK",
      "vis_m": 9999,
      "fzfg": false,
      "metar_trigger": false,
      "taf_trigger": false,
      "metar": "METAR LEBL 211100Z 36003KT 300V070 9999 FEW020 15/12 Q1006 NOSIG",
      "taf": "TAF LEBL 210500Z 2106/2206 33008KT 9999 SCT010 BKN050 TX16/2112Z TN09/2106Z"
    },
    {
      "icao": "LECH",
      "alert": "OK",
      "vis_m": 8000,
      "fzfg": false,
      "metar_trigger": false,
      "taf_trigger": false,
      "metar": "METAR LECH 211100Z AUTO 24006KT 200V260 8000 NSC 10/06 Q1005",
      "taf": ""
    },
    {
      "icao": "LEMD",
      "alert": "OK",
      "vis_m": 9999,
      "fzfg": false,
      "metar_trigger": false,
      "taf_trigger": false,
      "metar": "METAR LEMD 211100Z 22012KT 9999 FEW015 SCT020 BKN025 06/03 Q1005 NOSIG",
      "taf": ""
    },
    {
      "icao": "LEMG",
      "alert": "OK",
      "vis_m": 9999,
      "fzfg": false,
      "metar_trigger": false,
      "taf_trigger": false,
      "metar": "METAR LEMG 211100Z 28003KT 250V320 9999 FEW015 SCT031 BKN050 13/10 Q1010 NOSIG",
      "taf": "TAF LEMG 210500Z 2106/2206 30007KT 9999 FEW020 SCT035 TX14/2114Z TN07/2106Z"
    },
    {
      "icao": "LERS",
      "alert": "OK",
      "vis_m": 9999,
      "fzfg": false,
      "metar_trigger": false,
      "taf_trigger": false,
      "metar": "METAR LERS 211100Z 02003KT 330V050 9999 SCT014 BKN025 13/10 Q1005",
      "taf": "TAF LERS 210800Z 2109/2209 VRB04KT 9999 FEW015 TX16/2112Z TN06/2206Z"
    },
    {
      "icao": "LEVC",
      "alert": "OK",
      "vis_m": 9999,
      "fzfg": false,
      "metar_trigger": false,
      "taf_trigger": false,
      "metar": "METAR LEVC 211100Z 23006KT CAVOK 12/05 Q1006 NOSIG",
      "taf": "TAF LEVC 210500Z 2106/2206 21005KT 9999 FEW040 TX16/2112Z TN06/2107Z"
    },
    {
      "icao": "LFLL",
      "alert": "OK",
      "vis_m": 9999,
      "fzfg": false,
      "metar_trigger": false,
      "taf_trigger": false,
      "metar": "METAR LFLL 211100Z 13009KT CAVOK 12/06 Q1008 NOSIG",
      "taf": "TAF LFLL 211100Z 2112/2218 14006KT CAVOK"
    },
    {
      "icao": "LFMN",
      "alert": "OK",
      "vis_m": 9999,
      "fzfg": false,
      "metar_trigger": false,
      "taf_trigger": false,
      "metar": "METAR LFMN 211100Z 09021KT 9999 BKN043 16/10 Q1011 TEMPO 09025G35KT",
      "taf": "TAF LFMN 210800Z 2109/2215 08020KT 9999 BKN035"
    },
    {
      "icao": "LFOB",
      "alert": "OK",
      "vis_m": 6000,
      "fzfg": false,
      "metar_trigger": false,
      "taf_trigger": false,
      "metar": "METAR LFOB 211100Z AUTO 09008KT 6000 -RA OVC003/// ///TCU 09/09 Q1007 TEMPO 4500 RA BKN006",
      "taf": ""
    },
    {
      "icao": "LFPO",
      "alert": "OK",
      "vis_m": 9999,
      "fzfg": false,
      "metar_trigger": false,
      "taf_trigger": false,
      "metar": "METAR LFPO 211100Z AUTO 12006KT 9999 3600 -RA FEW008/// BKN064/// OVC074/// ///TCU 10/10 Q1006 TEMPO 4500 -RA BECMG NSC",
      "taf": "TAF LFPO 210500Z 2106/2212 12005KT 8000 NSC"
    },
    {
      "icao": "LFSB",
      "alert": "OK",
      "vis_m": 9999,
      "fzfg": false,
      "metar_trigger": false,
      "taf_trigger": false,
      "metar": "METAR LFSB 211100Z AUTO VRB02KT CAVOK 08/04 Q1010 NOSIG",
      "taf": ""
    },
    {
      "icao": "LGAV",
      "alert": "OK",
      "vis_m": 9999,
      "fzfg": false,
      "metar_trigger": false,
      "taf_trigger": false,
      "metar": "METAR LGAV 211050Z 02011KT 9999 FEW025 16/09 Q1015 NOSIG",
      "taf": "TAF LGAV 211100Z 2112/2212 02012KT 9999 SCT025 SCT070"
    },
    {
      "icao": "LGIR",
      "alert": "OK",
      "vis_m": 9999,
      "fzfg": false,
      "metar_trigger": false,
      "taf_trigger": false,
      "metar": "METAR LGIR 211050Z 00000KT 9999 SCT020 17/11 Q1014 NOSIG",
      "taf": "TAF LGIR 211100Z 2112/2212 33010KT 9999 SCT020 SCT080"
    },
    {
      "icao": "LGKR",
      "alert": "OK",
      "vis_m": 9999,
      "fzfg": false,
      "metar_trigger": false,
      "taf_trigger": false,
      "metar": "METAR LGKR 211050Z VRB01KT 9999 FEW025 17/09 Q1014 NOSIG",
      "taf": "TAF LGKR 211100Z 2112/2212 VRB03KT 9999 SCT015"
    },
    {
      "icao": "LGRP",
      "alert": "OK",
      "vis_m": 9999,
      "fzfg": false,
      "metar_trigger": false,
      "taf_trigger": false,
      "metar": "METAR LGRP 211050Z 04006KT 9999 SCT020 17/13 Q1012 NOSIG",
      "taf": "TAF LGRP 211100Z 2112/2212 14010KT 9999 FEW018 SCT020"
    },
    {
      "icao": "LGTS",
      "alert": "OK",
      "vis_m": 9000,
      "fzfg": false,
      "metar_trigger": false,
      "taf_trigger": false,
      "metar": "METAR LGTS 211050Z 31003KT 9000 4500S BR FEW008 11/10 Q1018 NOSIG",
      "taf": "TAF LGTS 211100Z 2112/2212 VRB03KT 9999 FEW020"
    },
    {
      "icao": "LGZA",
      "alert": "OK",
      "vis_m": 9999,
      "fzfg": false,
      "metar_trigger": false,
      "taf_trigger": false,
      "metar": "METAR LGZA 211050Z VRB03KT 9999 FEW025 BKN080 16/10 Q1014",
      "taf": "TAF LGZA 211100Z 2112/2121 03008KT 9999 FEW020 SCT080"
    },
    {
      "icao": "LHBP",
      "alert": "OK",
      "vis_m": 3000,
      "fzfg": false,
      "metar_trigger": false,
      "taf_trigger": false,
      "metar": "SPECI LHBP 211107Z VRB02KT 3000 BR OVC004 05/04 Q1020 NOSIG",
      "taf": "TAF LHBP 210515Z 2106/2206 VRB03KT 8000 OVC010"
    },
    {
      "icao": "LHDC",
      "alert": "OK",
      "vis_m": 4900,
      "fzfg": false,
      "metar_trigger": false,
      "taf_trigger": false,
      "metar": "METAR LHDC 211045Z AUTO 22003KT 180V240 4900 BR BKN019 06/05 Q1020 NOSIG",
      "taf": "TAF LHDC 210815Z 2109/2118 VRB03KT 2000 BR OVC006"
    },
    {
      "icao": "LIBD",
      "alert": "OK",
      "vis_m": 9999,
      "fzfg": false,
      "metar_trigger": false,
      "taf_trigger": false,
      "metar": "METAR LIBD 211050Z VRB02KT CAVOK 14/10 Q1015",
      "taf": "TAF LIBD 211100Z 2112/2212 VRB04KT 9999 SCT040"
    },
    {
      "icao": "LICC",
      "alert": "OK",
      "vis_m": 8000,
      "fzfg": false,
      "metar_trigger": false,
      "taf_trigger": false,
      "metar": "METAR LICC 211050Z 09006KT 8000 -RA BKN035 15/14 Q1012 RERA",
      "taf": "TAF LICC 211100Z 2112/2212 07012KT 6000 RA BKN010 BKN060"
    },
    {
      "icao": "LICJ",
      "alert": "OK",
      "vis_m": 9999,
      "fzfg": false,
      "metar_trigger": false,
      "taf_trigger": false,
      "metar": "METAR LICJ 211050Z 24004KT 9999 SCT050 16/12 Q1010",
      "taf": "TAF LICJ 211100Z 2112/2212 10010KT 9999 SCT040"
    },
    {
      "icao": "LIEO",
      "alert": "OK",
      "vis_m": 9999,
      "fzfg": false,
      "metar_trigger": false,
      "taf_trigger": false,
      "metar": "METAR LIEO 211050Z 36002KT 9999 -RA BKN020 14/13 Q1011",
      "taf": "TAF LIEO 211100Z 2112/2212 10010KT 6000 RA BKN010"
    },
    {
      "icao": "LIMC",
      "alert": "OK",
      "vis_m": 4000,
      "fzfg": false,
      "metar_trigger": false,
      "taf_trigger": false,
      "metar": "METAR LIMC 211050Z 16004KT 4000 BR SCT010 10/07 Q1016 NOSIG",
      "taf": "TAF LIMC 211100Z 2112/2218 VRB03KT 7000 SCT040"
    },
    {
      "icao": "LIME",
      "alert": "OK",
      "vis_m": 9999,
      "fzfg": false,
      "metar_trigger": false,
      "taf_trigger": false,
      "metar": "METAR LIME 211050Z 16003KT CAVOK 09/05 Q1016 NOSIG",
      "taf": "TAF LIME 211100Z 2112/2212 VRB03KT 9000 SCT080"
    },
    {
      "icao": "LIPH",
      "alert": "OK",
      "vis_m": 9999,
      "fzfg": false,
      "metar_trigger": false,
      "taf_trigger": false,
      "metar": "METAR LIPH 211050Z VRB01KT CAVOK 11/06 Q1017",
      "taf": "TAF LIPH 211100Z 2112/2212 VRB04KT 8000 FEW030"
    },
    {
      "icao": "LIPQ",
      "alert": "OK",
      "vis_m": 9999,
      "fzfg": false,
      "metar_trigger": false,
      "taf_trigger": false,
      "metar": "METAR LIPQ 211050Z AUTO 10006KT 050V160 9999 NCD 14/05 Q1016",
      "taf": "TAF LIPQ 211100Z 2112/2212 VRB04KT CAVOK"
    },
    {
      "icao": "LIPX",
      "alert": "OK",
      "vis_m": 9999,
      "fzfg": false,
      "metar_trigger": false,
      "taf_trigger": false,
      "metar": "METAR LIPX 211050Z VRB02KT CAVOK 10/06 Q1017",
      "taf": "TAF LIPX 211100Z 2112/2212 VRB03KT 9999 FEW040"
    },
    {
      "icao": "LIPY",
      "alert": "OK",
      "vis_m": 5000,
      "fzfg": false,
      "metar_trigger": false,
      "taf_trigger": false,
      "metar": "METAR LIPY 211050Z VRB02KT 5000 BR SCT010 12/10 Q1016",
      "taf": "TAF LIPY 211100Z 2112/2212 VRB05KT 4000 BR OVC020"
    },
    {
      "icao": "LIPZ",
      "alert": "OK",
      "vis_m": 9999,
      "fzfg": false,
      "metar_trigger": false,
      "taf_trigger": false,
      "metar": "METAR LIPZ 211050Z 36005KT CAVOK 11/05 Q1017 NOSIG",
      "taf": "TAF LIPZ 211100Z 2112/2218 02005KT 9999 FEW020"
    },
    {
      "icao": "LIRA",
      "alert": "OK",
      "vis_m": 9999,
      "fzfg": false,
      "metar_trigger": false,
      "taf_trigger": false,
      "metar": "METAR LIRA 211050Z 02005KT CAVOK 13/07 Q1013",
      "taf": "TAF LIRA 211100Z 2112/2212 04005KT 9999 FEW060"
    },
    {
      "icao": "LIRN",
      "alert": "OK",
      "vis_m": 9999,
      "fzfg": false,
      "metar_trigger": false,
      "taf_trigger": false,
      "metar": "METAR LIRN 211050Z 04004KT 330V100 CAVOK 16/05 Q1013 NOSIG",
      "taf": "TAF LIRN 211100Z 2112/2212 05006KT 9999 SCT060"
    },
    {
      "icao": "LLBG",
      "alert": "OK",
      "vis_m": 9999,
      "fzfg": false,
      "metar_trigger": false,
      "taf_trigger": false,
      "metar": "METAR LLBG 211120Z 18007KT CAVOK 21/06 Q1012 NOSIG",
      "taf": "TAF LLBG 211102Z 2112/2212 25010KT CAVOK"
    },
    {
      "icao": "LMML",
      "alert": "OK",
      "vis_m": 9999,
      "fzfg": false,
      "metar_trigger": false,
      "taf_trigger": false,
      "metar": "METAR LMML 211115Z 18006KT 150V210 9999 VCSH FEW020TCU SCT032 17/14 Q1010 NOSIG",
      "taf": "TAF LMML 211100Z 2112/2212 24008KT 9999 FEW015 SCT020"
    },
    {
      "icao": "LOWW",
      "alert": "OK",
      "vis_m": 800,
      "fzfg": false,
      "metar_trigger": false,
      "taf_trigger": false,
      "metar": "METAR LOWW 211050Z 12009KT 0800 R16/0650N R29/0650N FG VV002 01/01 Q1019 TEMPO 1500 BR BCFG",
      "taf": "TAF LOWW 211115Z 2112/2218 14007KT 0800 FG SCT001 OVC002 TX04/2214Z TN02/2112Z"
    },
    {
      "icao": "LPFR",
      "alert": "OK",
      "vis_m": 9999,
      "fzfg": false,
      "metar_trigger": false,
      "taf_trigger": false,
      "metar": "METAR LPFR 211100Z 26003KT 9999 FEW015 11/09 Q1011",
      "taf": "TAF LPFR 211100Z 2112/2212 27010KT 9999 FEW015 SCT030"
    },
    {
      "icao": "LPPR",
      "alert": "OK",
      "vis_m": 9999,
      "fzfg": false,
      "metar_trigger": false,
      "taf_trigger": false,
      "metar": "METAR LPPR 211100Z 12007KT 080V140 9999 FEW022 SCT034 BKN042 08/06 Q1007",
      "taf": "TAF LPPR 211100Z 2112/2212 13010KT 9999 FEW012 SCT035"
    },
    {
      "icao": "LPPT",
      "alert": "OK",
      "vis_m": 9999,
      "fzfg": false,
      "metar_trigger": false,
      "taf_trigger": false,
      "metar": "METAR LPPT 211100Z 22006KT 190V250 9999 -SHRA FEW020 FEW025TCU SCT035 09/06 Q1010",
      "taf": "TAF LPPT 211100Z 2112/2218 29007KT 9999 SCT035"
    },
    {
      "icao": "LQSA",
      "alert": "OK",
      "vis_m": 9999,
      "fzfg": false,
      "metar_trigger": false,
      "taf_trigger": false,
      "metar": "METAR LQSA 211100Z 26003KT 200V310 9999 SCT010 OVC020 03/01 Q1018 NOSIG",
      "taf": "TAF LQSA 211100Z 2112/2212 VRB02KT 8000 BKN010 OVC020 TX04/2113Z TNM02/2205Z"
    },
    {
      "icao": "LQTZ",
      "alert": "OK",
      "vis_m": 5000,
      "fzfg": false,
      "metar_trigger": false,
      "taf_trigger": false,
      "metar": "METAR LQTZ 211100Z 12002KT 5000 BR OVC006 05/05 Q1019",
      "taf": "TAF LQTZ 211100Z 2112/2212 12005KT 4000 BR OVC006 TX06/2113Z TN02/2205Z"
    },
    {
      "icao": "LRCL",
      "alert": "OK",
      "vis_m": 9999,
      "fzfg": false,
      "metar_trigger": false,
      "taf_trigger": false,
      "metar": "METAR LRCL 211100Z 36005KT 320V020 9999 BKN007 05/03 Q1019",
      "taf": "TAF LRCL 210800Z 2109/2118 VRB04KT 5000 BR BKN005"
    },
    {
      "icao": "LRCV",
      "alert": "OK",
      "vis_m": 6000,
      "fzfg": false,
      "metar_trigger": false,
      "taf_trigger": false,
      "metar": "METAR LRCV 211100Z 31005KT 280V340 6000 BKN005 OVC019 05/05 Q1020",
      "taf": "TAF LRCV 210800Z 2109/2118 VRB04KT 1500 BR BKN002"
    },
    {
      "icao": "LRIA",
      "alert": "OK",
      "vis_m": 5000,
      "fzfg": false,
      "metar_trigger": false,
      "taf_trigger": false,
      "metar": "METAR LRIA 211100Z 27003KT 250V310 5000 BR OVC002 02/02 Q1020",
      "taf": ""
    },
    {
      "icao": "LROP",
      "alert": "OK",
      "vis_m": 7000,
      "fzfg": false,
      "metar_trigger": false,
      "taf_trigger": false,
      "metar": "METAR LROP 211100Z 24005KT 7000 BKN007 BKN010 06/06 Q1020 NOSIG",
      "taf": "TAF LROP 210500Z 2106/2206 VRB04KT 0800 FG OVC002"
    },
    {
      "icao": "LRSB",
      "alert": "OK",
      "vis_m": 1400,
      "fzfg": true,
      "metar_trigger": false,
      "taf_trigger": false,
      "metar": "METAR LRSB 211100Z 10003KT 1400 0800SE R27/1600D BCFG BR BKN003 02/02 Q1018",
      "taf": "TAF LRSB 210500Z 2106/2206 VRB04KT 0200 FZFG VV001"
    },
    {
      "icao": "LRTR",
      "alert": "OK",
      "vis_m": 8000,
      "fzfg": false,
      "metar_trigger": false,
      "taf_trigger": false,
      "metar": "METAR LRTR 211100Z 14005KT 8000 1600E R29/1600U BCFG BKN006 OVC010 06/06 Q1020",
      "taf": "TAF LRTR 210500Z 2106/2206 02006KT 1500 BR OVC003"
    },
    {
      "icao": "LTAF",
      "alert": "OK",
      "vis_m": 9999,
      "fzfg": false,
      "metar_trigger": false,
      "taf_trigger": false,
      "metar": "METAR LTAF 211050Z 03010KT CAVOK 20/00 Q1015 NOSIG RMK RWY23 06010KT 4CI200",
      "taf": "TAF LTAF 211040Z 2112/2212 05009KT CAVOK"
    },
    {
      "icao": "LTAI",
      "alert": "OK",
      "vis_m": 4800,
      "fzfg": false,
      "metar_trigger": false,
      "taf_trigger": false,
      "metar": "METAR LTAI 211050Z 15004KT 4800 -SHRA BR BKN030 13/13 Q1016 NOSIG RMK RWY18C 14004KT 090V180 RWY36R VRB02KT RWY18L VRB02KT",
      "taf": "TAF LTAI 211040Z 2112/2212 34009KT 4000 SHRA BR FEW015CB BKN025"
    },
    {
      "icao": "LTFM",
      "alert": "OK",
      "vis_m": 9999,
      "fzfg": false,
      "metar_trigger": false,
      "taf_trigger": false,
      "metar": "METAR LTFM 211050Z 02008KT 9999 FEW016 SCT025 BKN120 13/08 Q1017 NOSIG RMK RWY17L 01008KT RWY34L 36008KT RWY16R 36008KT RWY36 01008KT RWY18 01007KT",
      "taf": "TAF LTFM 211040Z 2112/2218 05008KT 9999 SCT015 BKN025"
    },
    {
      "icao": "LUBL",
      "alert": "OK",
      "vis_m": null,
      "fzfg": false,
      "metar_trigger": false,
      "taf_trigger": false,
      "metar": "",
      "taf": ""
    },
    {
      "icao": "LUKK",
      "alert": "OK",
      "vis_m": 1100,
      "fzfg": false,
      "metar_trigger": false,
      "taf_trigger": false,
      "metar": "METAR LUKK 211100Z 00000KT 1100 0800S R08/1100U BR PRFG OVC002 01/01 Q1020 NOSIG",
      "taf": ""
    },
    {
      "icao": "LWSK",
      "alert": "OK",
      "vis_m": 1500,
      "fzfg": false,
      "metar_trigger": false,
      "taf_trigger": false,
      "metar": "METAR LWSK 211120Z VRB02KT 1500 BR OVC003 01/01 Q1020 NOSIG",
      "taf": "TAF LWSK 211105Z 2112/2212 VRB02KT 1500 BR OVC003"
    },
    {
      "icao": "LYBE",
      "alert": "OK",
      "vis_m": 5000,
      "fzfg": false,
      "metar_trigger": false,
      "taf_trigger": false,
      "metar": "METAR LYBE 211100Z 08004KT 5000 BR OVC008 05/03 Q1020 NOSIG",
      "taf": "TAF LYBE 211100Z 2112/2212 07006KT 5000 BR OVC008 TX05/2113Z TN02/2206Z"
    },
    {
      "icao": "LZIB",
      "alert": "OK",
      "vis_m": 700,
      "fzfg": false,
      "metar_trigger": false,
      "taf_trigger": false,
      "metar": "METAR LZIB 211100Z 10003KT 0700 R31/1100U R22/1300N -DZ FG SCT001 OVC002 03/03 Q1020 TEMPO 0400 FG OVC001",
      "taf": "TAF LZIB 211115Z 2112/2212 14005KT 0800 FG OVC002"
    },
    {
      "icao": "LZKZ",
      "alert": "OK",
      "vis_m": 9999,
      "fzfg": false,
      "metar_trigger": false,
      "taf_trigger": false,
      "metar": "METAR LZKZ 211100Z 00000KT 9999 OVC007 05/03 Q1020 NOSIG",
      "taf": "TAF LZKZ 211115Z 2112/2212 VRB02KT 9999 OVC007"
    },
    {
      "icao": "LZTT",
      "alert": "OK",
      "vis_m": 9999,
      "fzfg": false,
      "metar_trigger": false,
      "taf_trigger": false,
      "metar": "METAR LZTT 211100Z VRB02KT 9999 FEW002 SCT053 01/00 Q1018 NOSIG",
      "taf": "TAF LZTT 211115Z 2112/2212 VRB02KT 9999 FEW033"
    },
    {
      "icao": "OEJN",
      "alert": "OK",
      "vis_m": 9999,
      "fzfg": false,
      "metar_trigger": false,
      "taf_trigger": false,
      "metar": "METAR OEJN 211100Z 14004KT 9999 FEW040 31/12 Q1011 NOSIG",
      "taf": "TAF OEJN 211100Z 2112/2218 27012KT 9999 FEW040"
    },
    {
      "icao": "OEMA",
      "alert": "OK",
      "vis_m": 9999,
      "fzfg": false,
      "metar_trigger": false,
      "taf_trigger": false,
      "metar": "METAR OEMA 211100Z 12010KT 9999 FEW045 SCT100 21/M05 Q1018 NOSIG",
      "taf": "TAF OEMA 211100Z 2112/2218 14012KT 9999 FEW040"
    },
    {
      "icao": "OERK",
      "alert": "OK",
      "vis_m": 9999,
      "fzfg": false,
      "metar_trigger": false,
      "taf_trigger": false,
      "metar": "METAR OERK 211100Z 03003KT 9999 FEW040 16/M02 Q1021 NOSIG",
      "taf": "TAF OERK 211100Z 2112/2218 10010KT 9999 FEW040"
    },
    {
      "icao": "OJAI",
      "alert": "OK",
      "vis_m": 4000,
      "fzfg": false,
      "metar_trigger": false,
      "taf_trigger": false,
      "metar": "METAR OJAI 211100Z 13012KT 4000 BLDU FEW030 FEW080 16/02 Q1016 NOSIG",
      "taf": "TAF OJAI 211035Z 2112/2218 12010KT 5000 HZ NSC"
    },
    {
      "icao": "OKBK",
      "alert": "OK",
      "vis_m": null,
      "fzfg": false,
      "metar_trigger": false,
      "taf_trigger": false,
      "metar": "",
      "taf": ""
    },
    {
      "icao": "OMAA",
      "alert": "OK",
      "vis_m": 9999,
      "fzfg": false,
      "metar_trigger": false,
      "taf_trigger": false,
      "metar": "METAR OMAA 211100Z 35006KT 9999 FEW035 22/10 Q1018 NOSIG",
      "taf": "TAF OMAA 211100Z 2112/2218 33008KT 8000 FEW040"
    },
    {
      "icao": "UAAA",
      "alert": "OK",
      "vis_m": 1500,
      "fzfg": false,
      "metar_trigger": false,
      "taf_trigger": false,
      "metar": "METAR UAAA 211100Z 00000MPS 1500 R23L/1700 -SN BR BKN009 OVC027 M00/M01 Q1026 NOSIG",
      "taf": "TAF UAAA 211102Z 2112/2212 19003MPS 3100 BR SCT011 BKN020CB OVC050 TXM00/2207Z TNM06/2201Z"
    },
    {
      "icao": "UCFM",
      "alert": "OK",
      "vis_m": 2300,
      "fzfg": true,
      "metar_trigger": false,
      "taf_trigger": false,
      "metar": "METAR UCFM 211100Z 25002MPS 2300 1200E R07/P1500U -SN BR BKN004 OVC030 00/M00 Q1026 NOSIG",
      "taf": "TAF UCFM 211056Z 2112/2212 12003MPS 0800 FZFG FEW003 OVC030CB"
    },
    {
      "icao": "UDYZ",
      "alert": "OK",
      "vis_m": 7000,
      "fzfg": false,
      "metar_trigger": false,
      "taf_trigger": false,
      "metar": "METAR UDYZ 211100Z 00000KT 7000 NSC 06/M04 Q1024 NOSIG",
      "taf": "TAF UDYZ 211100Z 2112/2212 VRB04KT 6000 NSC"
    },
    {
      "icao": "UGTB",
      "alert": "OK",
      "vis_m": 6000,
      "fzfg": false,
      "metar_trigger": false,
      "taf_trigger": false,
      "metar": "METAR UGTB 211100Z 00000KT 6000 FEW017 OVC024 03/M00 Q1025 NOSIG",
      "taf": "TAF UGTB 211100Z 2112/2212 VRB02KT 6000 SCT014 OVC025 TX09/2212Z TNM02/2203Z"
    },
    {
      "icao": "UKKK",
      "alert": "OK",
      "vis_m": null,
      "fzfg": false,
      "metar_trigger": false,
      "taf_trigger": false,
      "metar": "",
      "taf": ""
    },
    {
      "icao": "UTTT",
      "alert": "OK",
      "vis_m": null,
      "fzfg": false,
      "metar_trigger": false,
      "taf_trigger": false,
      "metar": "",
      "taf": ""
    }
  ]
}