{
  "ts_utc": "2026-05-25T08:58:38Z",
  "threshold_m": 150,
  "source": "stations_override.txt (ICAO list) + aviationweather.gov (METAR/TAF raw)",
  "station_count": 159,
  "stations": [
    {
      "icao": "BIKF",
      "alert": "OK",
      "vis_m": 9999,
      "fzfg": false,
      "metar_trigger": false,
      "taf_trigger": false,
      "metar": "METAR BIKF 250831Z 11011KT 9999 FEW024 BKN048 BKN160 09/05 Q1004",
      "taf": "TAF BIKF 250734Z 2509/2609 10010KT 9999 -SHRA SCT015TCU BKN025 TX10/2516Z TN06/2601Z"
    },
    {
      "icao": "BKPR",
      "alert": "OK",
      "vis_m": null,
      "fzfg": false,
      "metar_trigger": false,
      "taf_trigger": false,
      "metar": "",
      "taf": "TAF BKPR 250530Z 2506/2606 02008KT 9999 FEW050"
    },
    {
      "icao": "EBCI",
      "alert": "OK",
      "vis_m": 9999,
      "fzfg": false,
      "metar_trigger": false,
      "taf_trigger": false,
      "metar": "METAR EBCI 250850Z 05006KT 020V090 CAVOK 25/12 Q1033 NOSIG",
      "taf": "TAF EBCI 250500Z 2506/2612 04004KT CAVOK"
    },
    {
      "icao": "EDDB",
      "alert": "OK",
      "vis_m": 9999,
      "fzfg": false,
      "metar_trigger": false,
      "taf_trigger": false,
      "metar": "METAR EDDB 250850Z AUTO 29005KT 240V360 CAVOK 21/12 Q1033 NOSIG",
      "taf": "TAF EDDB 250500Z 2506/2606 29005KT CAVOK"
    },
    {
      "icao": "EDDH",
      "alert": "OK",
      "vis_m": 9999,
      "fzfg": false,
      "metar_trigger": false,
      "taf_trigger": false,
      "metar": "METAR EDDH 250850Z AUTO VRB04KT CAVOK 20/11 Q1033 NOSIG",
      "taf": "TAF EDDH 250500Z 2506/2612 30003KT CAVOK"
    },
    {
      "icao": "EDDK",
      "alert": "OK",
      "vis_m": 9999,
      "fzfg": false,
      "metar_trigger": false,
      "taf_trigger": false,
      "metar": "METAR EDDK 250850Z AUTO VRB02KT CAVOK 24/13 Q1032 NOSIG",
      "taf": "TAF EDDK 250500Z 2506/2612 VRB03KT CAVOK"
    },
    {
      "icao": "EDDN",
      "alert": "OK",
      "vis_m": 9999,
      "fzfg": false,
      "metar_trigger": false,
      "taf_trigger": false,
      "metar": "METAR EDDN 250850Z AUTO VRB04KT CAVOK 25/12 Q1032 NOSIG",
      "taf": "TAF EDDN 250500Z 2506/2606 01005KT CAVOK"
    },
    {
      "icao": "EDDS",
      "alert": "OK",
      "vis_m": 9999,
      "fzfg": false,
      "metar_trigger": false,
      "taf_trigger": false,
      "metar": "METAR EDDS 250850Z AUTO VRB02KT CAVOK 25/16 Q1031 NOSIG",
      "taf": "TAF EDDS 250500Z 2506/2606 VRB03KT CAVOK"
    },
    {
      "icao": "EDFH",
      "alert": "OK",
      "vis_m": 9999,
      "fzfg": false,
      "metar_trigger": false,
      "taf_trigger": false,
      "metar": "METAR EDFH 250850Z 06004KT 330V120 CAVOK 22/12 Q1033",
      "taf": "TAF EDFH 250500Z 2506/2606 10005KT CAVOK"
    },
    {
      "icao": "EDJA",
      "alert": "OK",
      "vis_m": 9999,
      "fzfg": false,
      "metar_trigger": false,
      "taf_trigger": false,
      "metar": "METAR EDJA 250850Z 01004KT 320V070 CAVOK 23/14 Q1032",
      "taf": "TAF EDJA 250800Z 2509/2518 02006KT CAVOK"
    },
    {
      "icao": "EDLW",
      "alert": "OK",
      "vis_m": 9999,
      "fzfg": false,
      "metar_trigger": false,
      "taf_trigger": false,
      "metar": "METAR EDLW 250850Z VRB02KT CAVOK 23/13 Q1032",
      "taf": "TAF EDLW 250500Z 2506/2606 VRB03KT CAVOK"
    },
    {
      "icao": "EDNY",
      "alert": "OK",
      "vis_m": 9999,
      "fzfg": false,
      "metar_trigger": false,
      "taf_trigger": false,
      "metar": "METAR EDNY 250850Z 05003KT 320V130 CAVOK 25/14 Q1031",
      "taf": "TAF EDNY 250800Z 2509/2518 03006KT CAVOK"
    },
    {
      "icao": "EDSB",
      "alert": "OK",
      "vis_m": 9999,
      "fzfg": false,
      "metar_trigger": false,
      "taf_trigger": false,
      "metar": "METAR EDSB 250850Z 02007KT 350V050 CAVOK 23/16 Q1031",
      "taf": "TAF EDSB 250500Z 2506/2606 02006KT CAVOK"
    },
    {
      "icao": "EETN",
      "alert": "OK",
      "vis_m": 9999,
      "fzfg": false,
      "metar_trigger": false,
      "taf_trigger": false,
      "metar": "METAR EETN 250850Z 29016KT CAVOK 14/04 Q1015 TEMPO 30018G30KT",
      "taf": "TAF EETN 250530Z 2506/2606 28006KT CAVOK"
    },
    {
      "icao": "EFTU",
      "alert": "OK",
      "vis_m": 9999,
      "fzfg": false,
      "metar_trigger": false,
      "taf_trigger": false,
      "metar": "METAR EFTU 250850Z AUTO 32012KT 280V340 9999 FEW044 14/03 Q1017",
      "taf": "TAF EFTU 250835Z 2509/2609 31014KT CAVOK"
    },
    {
      "icao": "EGBB",
      "alert": "OK",
      "vis_m": 9999,
      "fzfg": false,
      "metar_trigger": false,
      "taf_trigger": false,
      "metar": "METAR EGBB 250850Z 16003KT 100V210 CAVOK 26/15 Q1031",
      "taf": "TAF EGBB 250452Z 2506/2606 VRB02KT CAVOK"
    },
    {
      "icao": "EGGP",
      "alert": "OK",
      "vis_m": 9999,
      "fzfg": false,
      "metar_trigger": false,
      "taf_trigger": false,
      "metar": "METAR EGGP 250850Z 10004KT CAVOK 22/15 Q1030",
      "taf": "TAF EGGP 250455Z 2506/2606 16005KT CAVOK"
    },
    {
      "icao": "EGGW",
      "alert": "OK",
      "vis_m": 9999,
      "fzfg": false,
      "metar_trigger": false,
      "taf_trigger": false,
      "metar": "METAR EGGW 250850Z AUTO 16005KT 9999 NCD 26/15 Q1032",
      "taf": "TAF EGGW 250457Z 2506/2606 14005KT CAVOK"
    },
    {
      "icao": "EGKK",
      "alert": "OK",
      "vis_m": 9999,
      "fzfg": false,
      "metar_trigger": false,
      "taf_trigger": false,
      "metar": "METAR EGKK 250850Z 07004KT 030V150 CAVOK 26/18 Q1031",
      "taf": "TAF EGKK 250451Z 2506/2612 VRB03KT CAVOK"
    },
    {
      "icao": "EGNM",
      "alert": "OK",
      "vis_m": 9999,
      "fzfg": false,
      "metar_trigger": false,
      "taf_trigger": false,
      "metar": "METAR EGNM 250850Z 19005KT 160V240 CAVOK 23/14 Q1031",
      "taf": "TAF EGNM 250454Z 2506/2606 23007KT CAVOK"
    },
    {
      "icao": "EGPD",
      "alert": "OK",
      "vis_m": 9999,
      "fzfg": false,
      "metar_trigger": false,
      "taf_trigger": false,
      "metar": "METAR EGPD 250850Z COR AUTO 34013KT 9999 NCD 21/12 Q1027 NOSIG",
      "taf": "TAF EGPD 250455Z 2506/2606 20005KT 9999 FEW045"
    },
    {
      "icao": "EGPF",
      "alert": "OK",
      "vis_m": 9999,
      "fzfg": false,
      "metar_trigger": false,
      "taf_trigger": false,
      "metar": "METAR EGPF 250850Z AUTO 22009KT 9999 NCD 18/12 Q1029",
      "taf": "TAF EGPF 250454Z 2506/2606 22008KT 9999 SCT030"
    },
    {
      "icao": "EHBK",
      "alert": "OK",
      "vis_m": 9999,
      "fzfg": false,
      "metar_trigger": false,
      "taf_trigger": false,
      "metar": "METAR EHBK 250825Z AUTO 04004KT 010V080 9999 NCD 24/13 Q1032 NOSIG",
      "taf": "TAF EHBK 250501Z 2506/2612 06003KT CAVOK"
    },
    {
      "icao": "EHEH",
      "alert": "OK",
      "vis_m": 9999,
      "fzfg": false,
      "metar_trigger": false,
      "taf_trigger": false,
      "metar": "METAR EHEH 250825Z AUTO VRB02KT 9999 ////// 24/13 Q1032 BLU NOSIG",
      "taf": "TAF EHEH 250518Z 2506/2612 06005KT CAVOK"
    },
    {
      "icao": "EKBI",
      "alert": "OK",
      "vis_m": 9999,
      "fzfg": false,
      "metar_trigger": false,
      "taf_trigger": false,
      "metar": "METAR EKBI 250850Z AUTO 24011KT 200V270 9999 NCD 19/12 Q1032",
      "taf": "TAF EKBI 250827Z 2509/2609 25014KT CAVOK"
    },
    {
      "icao": "EKCH",
      "alert": "OK",
      "vis_m": 9999,
      "fzfg": false,
      "metar_trigger": false,
      "taf_trigger": false,
      "metar": "METAR EKCH 250850Z AUTO 27009KT 9999 NCD 19/11 Q1031 NOSIG",
      "taf": "TAF EKCH 250827Z 2509/2609 28010KT CAVOK"
    },
    {
      "icao": "ENAL",
      "alert": "OK",
      "vis_m": 9999,
      "fzfg": false,
      "metar_trigger": false,
      "taf_trigger": false,
      "metar": "METAR ENAL 250850Z 16005KT 9999 -RA SCT030 BKN053 09/07 Q1022",
      "taf": "TAF ENAL 250800Z 2509/2518 22012KT 9999 -RA SCT020 BKN040"
    },
    {
      "icao": "ENBR",
      "alert": "OK",
      "vis_m": 6000,
      "fzfg": false,
      "metar_trigger": false,
      "taf_trigger": false,
      "metar": "METAR ENBR 250850Z 18005KT 6000 -DZRA OVC003 10/10 Q1025 TEMPO 2500 DZRA BR RMK WIND 1200FT 25007KT",
      "taf": "TAF ENBR 250500Z 2506/2606 18010KT 9999 -RA SCT006 BKN015"
    },
    {
      "icao": "ENGM",
      "alert": "OK",
      "vis_m": 9999,
      "fzfg": false,
      "metar_trigger": false,
      "taf_trigger": false,
      "metar": "METAR ENGM 250850Z 23008KT CAVOK 15/06 Q1023 NOSIG",
      "taf": "TAF ENGM 250500Z 2506/2606 26009KT 9999 SCT040"
    },
    {
      "icao": "ENHD",
      "alert": "OK",
      "vis_m": 9999,
      "fzfg": false,
      "metar_trigger": false,
      "taf_trigger": false,
      "metar": "METAR ENHD 250850Z 19009KT 9999 BKN040 12/10 Q1026",
      "taf": "TAF ENHD 250800Z 2509/2518 18010KT 9999 FEW020 BKN030"
    },
    {
      "icao": "ENTC",
      "alert": "OK",
      "vis_m": 9999,
      "fzfg": false,
      "metar_trigger": false,
      "taf_trigger": false,
      "metar": "METAR ENTC 250850Z 21017KT 9999 SCT015 BKN035 09/05 Q1009 NOSIG RMK WIND 2600FT 20019KT",
      "taf": "TAF ENTC 250500Z 2506/2606 18012KT 9999 -RA SCT008 BKN018"
    },
    {
      "icao": "ENTO",
      "alert": "OK",
      "vis_m": 9999,
      "fzfg": false,
      "metar_trigger": false,
      "taf_trigger": false,
      "metar": "METAR ENTO 250850Z 23010KT CAVOK 17/10 Q1025 NOSIG",
      "taf": "TAF ENTO 250500Z 2506/2606 26008KT CAVOK"
    },
    {
      "icao": "ENVA",
      "alert": "OK",
      "vis_m": 9999,
      "fzfg": false,
      "metar_trigger": false,
      "taf_trigger": false,
      "metar": "METAR ENVA 250850Z VRB02KT 9999 -RA OVC036CB 10/08 Q1022 TEMPO SHRA RMK WIND 670FT 27004KT",
      "taf": ""
    },
    {
      "icao": "ENZV",
      "alert": "OK",
      "vis_m": 9999,
      "fzfg": false,
      "metar_trigger": false,
      "taf_trigger": false,
      "metar": "METAR ENZV 250850Z 20011KT 9999 FEW015 14/11 Q1027 NOSIG",
      "taf": "TAF ENZV 250500Z 2506/2606 18007KT 9999 BKN040"
    },
    {
      "icao": "EPGD",
      "alert": "OK",
      "vis_m": 9999,
      "fzfg": false,
      "metar_trigger": false,
      "taf_trigger": false,
      "metar": "METAR EPGD 250830Z 28016KT CAVOK 19/10 Q1028",
      "taf": "TAF EPGD 250530Z 2506/2606 29012KT 9999 FEW030"
    },
    {
      "icao": "EPKK",
      "alert": "OK",
      "vis_m": 9999,
      "fzfg": false,
      "metar_trigger": false,
      "taf_trigger": false,
      "metar": "METAR EPKK 250830Z 30009KT 270V330 CAVOK 21/08 Q1030",
      "taf": "TAF EPKK 250830Z 2509/2609 30010KT CAVOK"
    },
    {
      "icao": "EPKT",
      "alert": "OK",
      "vis_m": 9999,
      "fzfg": false,
      "metar_trigger": false,
      "taf_trigger": false,
      "metar": "METAR EPKT 250830Z 29009KT 240V350 CAVOK 19/08 Q1031",
      "taf": "TAF EPKT 250530Z 2506/2606 34008KT CAVOK"
    },
    {
      "icao": "EPLB",
      "alert": "OK",
      "vis_m": 9999,
      "fzfg": false,
      "metar_trigger": false,
      "taf_trigger": false,
      "metar": "METAR EPLB 250830Z 32007KT 300V010 CAVOK 19/10 Q1028",
      "taf": "TAF EPLB 250530Z 2506/2606 32012KT CAVOK"
    },
    {
      "icao": "EPMO",
      "alert": "OK",
      "vis_m": 9999,
      "fzfg": false,
      "metar_trigger": false,
      "taf_trigger": false,
      "metar": "METAR EPMO 250830Z 27009KT 240V310 CAVOK 21/12 Q1028",
      "taf": "TAF EPMO 250530Z 2506/2606 30010KT CAVOK"
    },
    {
      "icao": "EPPO",
      "alert": "OK",
      "vis_m": 9999,
      "fzfg": false,
      "metar_trigger": false,
      "taf_trigger": false,
      "metar": "METAR EPPO 250830Z 33008KT CAVOK 20/09 Q1031",
      "taf": "TAF EPPO 250530Z 2506/2606 30008KT CAVOK"
    },
    {
      "icao": "EPRA",
      "alert": "OK",
      "vis_m": 9999,
      "fzfg": false,
      "metar_trigger": false,
      "taf_trigger": false,
      "metar": "METAR EPRA 250830Z 33009KT 300V010 CAVOK 19/09 Q1029",
      "taf": "TAF EPRA 250830Z 2509/2518 29010KT CAVOK"
    },
    {
      "icao": "EPRZ",
      "alert": "OK",
      "vis_m": 9999,
      "fzfg": false,
      "metar_trigger": false,
      "taf_trigger": false,
      "metar": "METAR EPRZ 250830Z 31010KT 270V340 9999 FEW033 21/10 Q1028",
      "taf": "TAF EPRZ 250530Z 2506/2606 34008KT CAVOK"
    },
    {
      "icao": "EPSC",
      "alert": "OK",
      "vis_m": 9999,
      "fzfg": false,
      "metar_trigger": false,
      "taf_trigger": false,
      "metar": "METAR EPSC 250830Z 28009KT 250V320 CAVOK 20/12 Q1032",
      "taf": "TAF EPSC 250530Z 2506/2606 25005KT 9999 FEW030"
    },
    {
      "icao": "EPSY",
      "alert": "OK",
      "vis_m": 9999,
      "fzfg": false,
      "metar_trigger": false,
      "taf_trigger": false,
      "metar": "METAR EPSY 250830Z 30012KT 240V350 CAVOK 21/08 Q1027",
      "taf": "TAF EPSY 250830Z 2509/2518 30010KT CAVOK"
    },
    {
      "icao": "EPWA",
      "alert": "OK",
      "vis_m": 9999,
      "fzfg": false,
      "metar_trigger": false,
      "taf_trigger": false,
      "metar": "METAR EPWA 250830Z 29009KT CAVOK 20/11 Q1028 NOSIG",
      "taf": "TAF EPWA 250830Z 2509/2609 30010KT CAVOK"
    },
    {
      "icao": "EPWR",
      "alert": "OK",
      "vis_m": 9999,
      "fzfg": false,
      "metar_trigger": false,
      "taf_trigger": false,
      "metar": "METAR EPWR 250830Z 32010KT CAVOK 20/09 Q1032",
      "taf": "TAF EPWR 250830Z 2509/2609 28010KT CAVOK"
    },
    {
      "icao": "ESGG",
      "alert": "OK",
      "vis_m": 9999,
      "fzfg": false,
      "metar_trigger": false,
      "taf_trigger": false,
      "metar": "METAR ESGG 250850Z 27009KT 230V300 CAVOK 16/10 Q1028",
      "taf": "TAF ESGG 250830Z 2509/2609 26009KT CAVOK"
    },
    {
      "icao": "ESKN",
      "alert": "OK",
      "vis_m": 9999,
      "fzfg": false,
      "metar_trigger": false,
      "taf_trigger": false,
      "metar": "METAR ESKN 250850Z 28013KT 240V300 9999 FEW048 18/07 Q1023",
      "taf": "TAF ESKN 250830Z 2509/2609 30012KT CAVOK"
    },
    {
      "icao": "ESMS",
      "alert": "OK",
      "vis_m": 9999,
      "fzfg": false,
      "metar_trigger": false,
      "taf_trigger": false,
      "metar": "METAR ESMS 250850Z 26012KT CAVOK 18/11 Q1030",
      "taf": "TAF ESMS 250827Z 2509/2609 29012KT CAVOK"
    },
    {
      "icao": "ESSA",
      "alert": "OK",
      "vis_m": 9999,
      "fzfg": false,
      "metar_trigger": false,
      "taf_trigger": false,
      "metar": "METAR ESSA 250850Z 29005KT 230V350 CAVOK 14/03 Q1022 NOSIG",
      "taf": "TAF ESSA 250830Z 2509/2609 28011KT 9999 BKN045"
    },
    {
      "icao": "EYKA",
      "alert": "OK",
      "vis_m": 9999,
      "fzfg": false,
      "metar_trigger": false,
      "taf_trigger": false,
      "metar": "METAR EYKA 250850Z 30012KT 270V340 CAVOK 20/10 Q1023",
      "taf": "TAF EYKA 250500Z 2506/2606 VRB03KT 9000 SCT040"
    },
    {
      "icao": "EYPA",
      "alert": "OK",
      "vis_m": 9999,
      "fzfg": false,
      "metar_trigger": false,
      "taf_trigger": false,
      "metar": "METAR EYPA 250850Z 28005KT 190V350 CAVOK 15/10 Q1024",
      "taf": "TAF EYPA 250500Z 2506/2606 29008KT 9000 NSC"
    },
    {
      "icao": "EYVI",
      "alert": "OK",
      "vis_m": 9999,
      "fzfg": false,
      "metar_trigger": false,
      "taf_trigger": false,
      "metar": "METAR EYVI 250850Z 28011KT 250V310 9999 FEW036 19/08 Q1023 NOSIG",
      "taf": "TAF EYVI 250500Z 2506/2606 VRB03KT 9000 NSC"
    },
    {
      "icao": "GCFV",
      "alert": "OK",
      "vis_m": 9999,
      "fzfg": false,
      "metar_trigger": false,
      "taf_trigger": false,
      "metar": "METAR GCFV 250830Z 14007KT 110V200 9999 FEW008 24/19 Q1016",
      "taf": "TAF GCFV 250800Z 2509/2609 32008KT 9999 FEW010 TX32/2514Z TN22/2606Z"
    },
    {
      "icao": "GCLP",
      "alert": "OK",
      "vis_m": 9999,
      "fzfg": false,
      "metar_trigger": false,
      "taf_trigger": false,
      "metar": "METAR GCLP 250830Z 01014KT 9999 FEW020 22/17 Q1017 NOSIG",
      "taf": "TAF GCLP 250800Z 2509/2609 02019KT 9999 FEW020 TX29/2514Z TN22/2606Z"
    },
    {
      "icao": "GCTS",
      "alert": "OK",
      "vis_m": 9999,
      "fzfg": false,
      "metar_trigger": false,
      "taf_trigger": false,
      "metar": "METAR GCTS 250830Z 25007KT 9999 FEW015 21/17 Q1018 NOSIG",
      "taf": "TAF GCTS 250800Z 2509/2609 09013KT CAVOK TX29/2514Z TN21/2606Z"
    },
    {
      "icao": "GMAD",
      "alert": "OK",
      "vis_m": 9999,
      "fzfg": false,
      "metar_trigger": false,
      "taf_trigger": false,
      "metar": "METAR GMAD 250830Z 08009KT 050V110 CAVOK 34/08 Q1016 NOSIG",
      "taf": "TAF GMAD 250500Z 2506/2612 12006KT CAVOK"
    },
    {
      "icao": "GMMN",
      "alert": "OK",
      "vis_m": 9999,
      "fzfg": false,
      "metar_trigger": false,
      "taf_trigger": false,
      "metar": "METAR GMMN 250830Z 10004KT 060V140 CAVOK 32/15 Q1019 NOSIG",
      "taf": "TAF GMMN 250500Z 2506/2612 11005KT CAVOK"
    },
    {
      "icao": "GMMX",
      "alert": "OK",
      "vis_m": 9999,
      "fzfg": false,
      "metar_trigger": false,
      "taf_trigger": false,
      "metar": "METAR GMMX 250830Z VRB02KT 9999 SCT100 32/10 Q1020 NOSIG",
      "taf": "TAF GMMX 250500Z 2506/2612 06006KT 8000 NSC"
    },
    {
      "icao": "HEGN",
      "alert": "OK",
      "vis_m": 9999,
      "fzfg": false,
      "metar_trigger": false,
      "taf_trigger": false,
      "metar": "METAR HEGN 250800Z 34021KT CAVOK 30/09 Q1015 NOSIG",
      "taf": "TAF HEGN 250500Z 2506/2612 34018KT CAVOK"
    },
    {
      "icao": "HEMA",
      "alert": "OK",
      "vis_m": 9999,
      "fzfg": false,
      "metar_trigger": false,
      "taf_trigger": false,
      "metar": "METAR HEMA 250800Z 34029KT CAVOK 30/11 Q1013 NOSIG",
      "taf": "TAF HEMA 250500Z 2506/2612 02018KT CAVOK"
    },
    {
      "icao": "HESH",
      "alert": "OK",
      "vis_m": 9999,
      "fzfg": false,
      "metar_trigger": false,
      "taf_trigger": false,
      "metar": "METAR HESH 250800Z 35012KT CAVOK 29/14 Q1014 NOSIG",
      "taf": "TAF HESH 250500Z 2506/2612 02015KT CAVOK"
    },
    {
      "icao": "HESX",
      "alert": "OK",
      "vis_m": 9999,
      "fzfg": false,
      "metar_trigger": false,
      "taf_trigger": false,
      "metar": "METAR HESX 250800Z 03006KT CAVOK 24/12 Q1019 NOSIG",
      "taf": "TAF HESX 250500Z 2506/2612 01005KT CAVOK"
    },
    {
      "icao": "LATI",
      "alert": "OK",
      "vis_m": 9999,
      "fzfg": false,
      "metar_trigger": false,
      "taf_trigger": false,
      "metar": "METAR LATI 250850Z 32004KT 260V030 CAVOK 27/11 Q1025 NOSIG",
      "taf": "TAF LATI 250500Z 2506/2606 VRB05KT CAVOK TX31/2512Z TN15/2604Z"
    },
    {
      "icao": "LBPD",
      "alert": "OK",
      "vis_m": 9999,
      "fzfg": false,
      "metar_trigger": false,
      "taf_trigger": false,
      "metar": "METAR LBPD 250830Z AUTO 31010KT 280V340 9999 NCD 25/15 Q1024 NOSIG",
      "taf": "TAF LBPD 250500Z 2506/2606 VRB03KT 9999 SCT060"
    },
    {
      "icao": "LBSF",
      "alert": "OK",
      "vis_m": 9999,
      "fzfg": false,
      "metar_trigger": false,
      "taf_trigger": false,
      "metar": "METAR LBSF 250830Z 29006KT 260V340 9999 FEW056 22/12 Q1027 NOSIG",
      "taf": "TAF LBSF 250500Z 2506/2606 VRB03KT 9999 SCT040"
    },
    {
      "icao": "LBWN",
      "alert": "OK",
      "vis_m": 9999,
      "fzfg": false,
      "metar_trigger": false,
      "taf_trigger": false,
      "metar": "METAR LBWN 250830Z 32013KT 290V350 9999 FEW036 24/13 Q1023 NOSIG",
      "taf": "TAF LBWN 250500Z 2506/2606 35010KT 9999 SCT040"
    },
    {
      "icao": "LCLK",
      "alert": "OK",
      "vis_m": 9999,
      "fzfg": false,
      "metar_trigger": false,
      "taf_trigger": false,
      "metar": "METAR LCLK 250830Z 19009KT 9999 FEW020 25/17 Q1018 NOSIG",
      "taf": "TAF LCLK 250530Z 2506/2606 22005KT 9999 FEW025"
    },
    {
      "icao": "LCPH",
      "alert": "OK",
      "vis_m": 9999,
      "fzfg": false,
      "metar_trigger": false,
      "taf_trigger": false,
      "metar": "METAR LCPH 250830Z 25007KT 230V300 9999 FEW025 23/17 Q1018 NOSIG",
      "taf": "TAF LCPH 250530Z 2506/2606 05007KT 9999 FEW020"
    },
    {
      "icao": "LEAL",
      "alert": "OK",
      "vis_m": 9999,
      "fzfg": false,
      "metar_trigger": false,
      "taf_trigger": false,
      "metar": "METAR LEAL 250830Z 10006KT 060V140 CAVOK 27/09 Q1027 NOSIG",
      "taf": "TAF LEAL 250500Z 2506/2606 VRB04KT CAVOK TX28/2512Z TN15/2605Z"
    },
    {
      "icao": "LEBB",
      "alert": "OK",
      "vis_m": 9999,
      "fzfg": false,
      "metar_trigger": false,
      "taf_trigger": false,
      "metar": "METAR LEBB 250830Z 13005KT 080V200 CAVOK 30/08 Q1024 NOSIG",
      "taf": "TAF LEBB 250500Z 2506/2606 13009KT CAVOK TX35/2515Z TN18/2605Z"
    },
    {
      "icao": "LEBL",
      "alert": "OK",
      "vis_m": 9999,
      "fzfg": false,
      "metar_trigger": false,
      "taf_trigger": false,
      "metar": "METAR LEBL 250830Z 08007KT CAVOK 26/15 Q1028 NOSIG",
      "taf": "TAF LEBL 250500Z 2506/2606 VRB03KT CAVOK TX26/2512Z TN19/2605Z"
    },
    {
      "icao": "LECH",
      "alert": "OK",
      "vis_m": 9999,
      "fzfg": false,
      "metar_trigger": false,
      "taf_trigger": false,
      "metar": "METAR LECH 250830Z AUTO 06004KT 320V110 CAVOK 24/06 Q1029",
      "taf": "TAF LECH 250500Z 2506/2606 VRB04KT CAVOK TX31/2513Z TN14/2605Z"
    },
    {
      "icao": "LEMD",
      "alert": "OK",
      "vis_m": 9999,
      "fzfg": false,
      "metar_trigger": false,
      "taf_trigger": false,
      "metar": "METAR LEMD 250830Z 07004KT CAVOK 23/06 Q1028 NOSIG",
      "taf": "TAF LEMD 250500Z 2506/2612 VRB04KT CAVOK TX33/2516Z TN14/2605Z"
    },
    {
      "icao": "LEMG",
      "alert": "OK",
      "vis_m": 9999,
      "fzfg": false,
      "metar_trigger": false,
      "taf_trigger": false,
      "metar": "METAR LEMG 250830Z 01002KT CAVOK 24/09 Q1026 NOSIG",
      "taf": "TAF LEMG 250500Z 2506/2606 29007KT CAVOK TX27/2514Z TN15/2506Z"
    },
    {
      "icao": "LEVC",
      "alert": "OK",
      "vis_m": 9999,
      "fzfg": false,
      "metar_trigger": false,
      "taf_trigger": false,
      "metar": "METAR LEVC 250830Z VRB03KT CAVOK 26/10 Q1028 NOSIG",
      "taf": "TAF LEVC 250500Z 2506/2606 VRB04KT CAVOK TX29/2512Z TN15/2605Z"
    },
    {
      "icao": "LEXJ",
      "alert": "OK",
      "vis_m": 9999,
      "fzfg": false,
      "metar_trigger": false,
      "taf_trigger": false,
      "metar": "METAR LEXJ 250830Z 04003KT 300V080 CAVOK 26/17 Q1022",
      "taf": "TAF LEXJ 250800Z 2509/2609 16008KT CAVOK TX35/2515Z TN17/2604Z"
    },
    {
      "icao": "LEZG",
      "alert": "OK",
      "vis_m": 9999,
      "fzfg": false,
      "metar_trigger": false,
      "taf_trigger": false,
      "metar": "METAR LEZG 250830Z VRB02KT CAVOK 23/10 Q1028 NOSIG",
      "taf": "TAF LEZG 250500Z 2506/2606 11007KT CAVOK TX34/2515Z TN17/2605Z"
    },
    {
      "icao": "LEZL",
      "alert": "OK",
      "vis_m": 9999,
      "fzfg": false,
      "metar_trigger": false,
      "taf_trigger": false,
      "metar": "METAR LEZL 250830Z 05004KT CAVOK 27/10 Q1021 NOSIG",
      "taf": "TAF LEZL 250800Z 2509/2609 14010KT CAVOK TX36/2515Z TN15/2606Z"
    },
    {
      "icao": "LFBD",
      "alert": "OK",
      "vis_m": 9999,
      "fzfg": false,
      "metar_trigger": false,
      "taf_trigger": false,
      "metar": "METAR LFBD 250830Z AUTO 12010KT CAVOK 27/14 Q1026 NOSIG",
      "taf": "TAF LFBD 250500Z 2506/2612 11005KT CAVOK TX36/2515Z TN20/2605Z"
    },
    {
      "icao": "LFLL",
      "alert": "OK",
      "vis_m": 9999,
      "fzfg": false,
      "metar_trigger": false,
      "taf_trigger": false,
      "metar": "METAR LFLL 250830Z VRB02KT CAVOK 26/16 Q1029 NOSIG",
      "taf": "TAF LFLL 250500Z 2506/2612 VRB03KT CAVOK"
    },
    {
      "icao": "LFLS",
      "alert": "OK",
      "vis_m": 9999,
      "fzfg": false,
      "metar_trigger": false,
      "taf_trigger": false,
      "metar": "METAR LFLS 250830Z AUTO 11005KT 070V140 CAVOK 26/17 Q1030 NOSIG",
      "taf": "TAF LFLS 250800Z 2509/2609 09008KT CAVOK"
    },
    {
      "icao": "LFMN",
      "alert": "OK",
      "vis_m": 9999,
      "fzfg": false,
      "metar_trigger": false,
      "taf_trigger": false,
      "metar": "METAR LFMN 250830Z 13006KT CAVOK 25/17 Q1028 NOSIG",
      "taf": "TAF LFMN 250800Z 2509/2615 13004KT CAVOK"
    },
    {
      "icao": "LFOB",
      "alert": "OK",
      "vis_m": 9999,
      "fzfg": false,
      "metar_trigger": false,
      "taf_trigger": false,
      "metar": "METAR LFOB 250830Z AUTO 08005KT 050V130 CAVOK 25/19 Q1031 NOSIG",
      "taf": "TAF LFOB 250500Z 2506/2606 05006KT CAVOK"
    },
    {
      "icao": "LFPO",
      "alert": "OK",
      "vis_m": 9999,
      "fzfg": false,
      "metar_trigger": false,
      "taf_trigger": false,
      "metar": "METAR LFPO 250830Z 10007KT 060V130 CAVOK 27/17 Q1030 NOSIG",
      "taf": "TAF LFPO 250500Z 2506/2612 06008KT CAVOK"
    },
    {
      "icao": "LFSB",
      "alert": "OK",
      "vis_m": 9999,
      "fzfg": false,
      "metar_trigger": false,
      "taf_trigger": false,
      "metar": "METAR LFSB 250830Z AUTO 02003KT 320V060 CAVOK 25/17 Q1031 NOSIG",
      "taf": "TAF LFSB 250500Z 2506/2606 VRB03KT CAVOK"
    },
    {
      "icao": "LGAV",
      "alert": "OK",
      "vis_m": 9999,
      "fzfg": false,
      "metar_trigger": false,
      "taf_trigger": false,
      "metar": "METAR LGAV 250850Z 04016KT 9999 SCT030 25/11 Q1024 NOSIG",
      "taf": "TAF LGAV 250500Z 2506/2606 02014KT 9999 SCT025"
    },
    {
      "icao": "LGTS",
      "alert": "OK",
      "vis_m": 9999,
      "fzfg": false,
      "metar_trigger": false,
      "taf_trigger": false,
      "metar": "METAR LGTS 250850Z 25004KT 9999 SCT020 23/17 Q1025 NOSIG",
      "taf": "TAF LGTS 250500Z 2506/2606 33010KT 9999 SCT025"
    },
    {
      "icao": "LHBP",
      "alert": "OK",
      "vis_m": 9999,
      "fzfg": false,
      "metar_trigger": false,
      "taf_trigger": false,
      "metar": "METAR LHBP 250830Z VRB05KT CAVOK 28/12 Q1027 NOSIG",
      "taf": "TAF LHBP 250515Z 2506/2606 34004KT CAVOK"
    },
    {
      "icao": "LHDC",
      "alert": "OK",
      "vis_m": 9999,
      "fzfg": false,
      "metar_trigger": false,
      "taf_trigger": false,
      "metar": "METAR LHDC 250815Z AUTO 03010KT 340V060 CAVOK 27/12 Q1026 NOSIG",
      "taf": "TAF LHDC 250815Z 2509/2518 02011KT CAVOK"
    },
    {
      "icao": "LIBD",
      "alert": "OK",
      "vis_m": 9999,
      "fzfg": false,
      "metar_trigger": false,
      "taf_trigger": false,
      "metar": "METAR LIBD 250850Z 34008KT 300V020 CAVOK 23/14 Q1026",
      "taf": "TAF LIBD 250500Z 2506/2606 33013KT CAVOK"
    },
    {
      "icao": "LIBG",
      "alert": "OK",
      "vis_m": 9999,
      "fzfg": false,
      "metar_trigger": false,
      "taf_trigger": false,
      "metar": "METAR LIBG 250850Z AUTO VRB04KT 9999 NCD 28/13 Q1025",
      "taf": ""
    },
    {
      "icao": "LIBP",
      "alert": "OK",
      "vis_m": 9999,
      "fzfg": false,
      "metar_trigger": false,
      "taf_trigger": false,
      "metar": "METAR LIBP 250850Z AUTO 04007KT 340V090 9999 NCD 26/14 Q1028",
      "taf": "TAF LIBP 250500Z 2506/2606 VRB05KT CAVOK"
    },
    {
      "icao": "LIBR",
      "alert": "OK",
      "vis_m": 9999,
      "fzfg": false,
      "metar_trigger": false,
      "taf_trigger": false,
      "metar": "METAR LIBR 250850Z 34012KT CAVOK 21/18 Q1025",
      "taf": "TAF LIBR 250500Z 2506/2606 33013KT CAVOK"
    },
    {
      "icao": "LICA",
      "alert": "OK",
      "vis_m": 9999,
      "fzfg": false,
      "metar_trigger": false,
      "taf_trigger": false,
      "metar": "METAR LICA 250850Z AUTO 22006KT 170V260 9999 FEW130/// 23/18 Q1026",
      "taf": "TAF LICA 250500Z 2506/2606 VRB05KT 9999 SCT070"
    },
    {
      "icao": "LICC",
      "alert": "OK",
      "vis_m": 9999,
      "fzfg": false,
      "metar_trigger": false,
      "taf_trigger": false,
      "metar": "METAR LICC 250850Z 09004KT 060V130 CAVOK 25/17 Q1025",
      "taf": "TAF LICC 250500Z 2506/2606 27006KT 9999 FEW070"
    },
    {
      "icao": "LICJ",
      "alert": "OK",
      "vis_m": 9999,
      "fzfg": false,
      "metar_trigger": false,
      "taf_trigger": false,
      "metar": "METAR LICJ 250850Z 03008KT CAVOK 22/19 Q1026",
      "taf": "TAF LICJ 250500Z 2506/2606 VRB05KT CAVOK"
    },
    {
      "icao": "LIMC",
      "alert": "OK",
      "vis_m": 9999,
      "fzfg": false,
      "metar_trigger": false,
      "taf_trigger": false,
      "metar": "METAR LIMC 250850Z VRB02KT CAVOK 29/15 Q1029 NOSIG",
      "taf": "TAF LIMC 250500Z 2506/2612 VRB05KT CAVOK"
    },
    {
      "icao": "LIME",
      "alert": "OK",
      "vis_m": 9999,
      "fzfg": false,
      "metar_trigger": false,
      "taf_trigger": false,
      "metar": "METAR LIME 250850Z 28004KT 200V340 CAVOK 28/15 Q1029 NOSIG",
      "taf": "TAF LIME 250500Z 2506/2606 VRB05KT 9999 FEW055"
    },
    {
      "icao": "LIMF",
      "alert": "OK",
      "vis_m": 9999,
      "fzfg": false,
      "metar_trigger": false,
      "taf_trigger": false,
      "metar": "METAR LIMF 250850Z 13004KT 090V170 CAVOK 27/14 Q1030",
      "taf": "TAF LIMF 250500Z 2506/2606 VRB04KT 9999 FEW040"
    },
    {
      "icao": "LIMJ",
      "alert": "OK",
      "vis_m": 9999,
      "fzfg": false,
      "metar_trigger": false,
      "taf_trigger": false,
      "metar": "METAR LIMJ 250850Z 28005KT CAVOK 25/16 Q1028",
      "taf": "TAF LIMJ 250500Z 2506/2606 VRB05KT 9999 FEW030"
    },
    {
      "icao": "LIPE",
      "alert": "OK",
      "vis_m": 9999,
      "fzfg": false,
      "metar_trigger": false,
      "taf_trigger": false,
      "metar": "METAR LIPE 250850Z 32004KT 270V020 CAVOK 28/15 Q1028",
      "taf": "TAF LIPE 250500Z 2506/2606 VRB05KT CAVOK"
    },
    {
      "icao": "LIPH",
      "alert": "OK",
      "vis_m": 9999,
      "fzfg": false,
      "metar_trigger": false,
      "taf_trigger": false,
      "metar": "METAR LIPH 250850Z VRB02KT CAVOK 28/17 Q1028",
      "taf": "TAF LIPH 250500Z 2506/2606 VRB05KT CAVOK"
    },
    {
      "icao": "LIPQ",
      "alert": "OK",
      "vis_m": 9999,
      "fzfg": false,
      "metar_trigger": false,
      "taf_trigger": false,
      "metar": "METAR LIPQ 250850Z AUTO 03003KT 340V090 9999 NCD 29/16 Q1028",
      "taf": "TAF LIPQ 250500Z 2506/2606 VRB05KT CAVOK"
    },
    {
      "icao": "LIPR",
      "alert": "OK",
      "vis_m": 9999,
      "fzfg": false,
      "metar_trigger": false,
      "taf_trigger": false,
      "metar": "METAR LIPR 250850Z 36006KT CAVOK 26/15 Q1028",
      "taf": "TAF LIPR 250500Z 2506/2606 VRB05KT CAVOK"
    },
    {
      "icao": "LIPX",
      "alert": "OK",
      "vis_m": 9999,
      "fzfg": false,
      "metar_trigger": false,
      "taf_trigger": false,
      "metar": "METAR LIPX 250850Z 22003KT 130V260 CAVOK 27/16 Q1028",
      "taf": "TAF LIPX 250500Z 2506/2606 VRB05KT 9999 FEW050"
    },
    {
      "icao": "LIPY",
      "alert": "OK",
      "vis_m": 9999,
      "fzfg": false,
      "metar_trigger": false,
      "taf_trigger": false,
      "metar": "METAR LIPY 250850Z AUTO 36007KT 9999 NCD 24/18 Q1028",
      "taf": "TAF LIPY 250500Z 2506/2606 VRB05KT CAVOK"
    },
    {
      "icao": "LIPZ",
      "alert": "OK",
      "vis_m": 9999,
      "fzfg": false,
      "metar_trigger": false,
      "taf_trigger": false,
      "metar": "METAR LIPZ 250850Z VRB02KT CAVOK 27/18 Q1028 NOSIG",
      "taf": "TAF LIPZ 250500Z 2506/2612 VRB05KT CAVOK"
    },
    {
      "icao": "LIRF",
      "alert": "OK",
      "vis_m": 9999,
      "fzfg": false,
      "metar_trigger": false,
      "taf_trigger": false,
      "metar": "METAR LIRF 250850Z 31004KT 240V030 CAVOK 28/10 Q1026 NOSIG",
      "taf": "TAF LIRF 250500Z 2506/2612 VRB05KT CAVOK"
    },
    {
      "icao": "LIRN",
      "alert": "OK",
      "vis_m": 9999,
      "fzfg": false,
      "metar_trigger": false,
      "taf_trigger": false,
      "metar": "METAR LIRN 250850Z 04004KT 350V090 CAVOK 28/12 Q1026 NOSIG",
      "taf": "TAF LIRN 250500Z 2506/2606 VRB05KT CAVOK"
    },
    {
      "icao": "LIRP",
      "alert": "OK",
      "vis_m": 9999,
      "fzfg": false,
      "metar_trigger": false,
      "taf_trigger": false,
      "metar": "METAR LIRP 250845Z 10004KT 050V120 CAVOK 26/15 Q1028 NOSIG",
      "taf": "TAF LIRP 250500Z 2506/2606 12003KT CAVOK"
    },
    {
      "icao": "LIRZ",
      "alert": "OK",
      "vis_m": 9999,
      "fzfg": false,
      "metar_trigger": false,
      "taf_trigger": false,
      "metar": "METAR LIRZ 250850Z AUTO 31005KT 210V020 9999 NCD 26/14 Q1028",
      "taf": "TAF LIRZ 250500Z 2506/2606 VRB05KT CAVOK"
    },
    {
      "icao": "LJLJ",
      "alert": "OK",
      "vis_m": 9999,
      "fzfg": false,
      "metar_trigger": false,
      "taf_trigger": false,
      "metar": "METAR LJLJ 250830Z 11003KT 070V150 9999 FEW070 25/16 Q1029 NOSIG",
      "taf": "TAF LJLJ 250500Z 2506/2606 30003KT 9999 FEW080"
    },
    {
      "icao": "LKMT",
      "alert": "OK",
      "vis_m": 9999,
      "fzfg": false,
      "metar_trigger": false,
      "taf_trigger": false,
      "metar": "METAR LKMT 250830Z 03009KT 350V080 CAVOK 19/10 Q1032 NOSIG",
      "taf": "TAF LKMT 250500Z 2506/2606 02010KT CAVOK"
    },
    {
      "icao": "LKPR",
      "alert": "OK",
      "vis_m": 9999,
      "fzfg": false,
      "metar_trigger": false,
      "taf_trigger": false,
      "metar": "METAR LKPR 250830Z 32008KT 300V360 CAVOK 21/09 Q1032 NOSIG",
      "taf": "TAF LKPR 250800Z 2509/2615 34008KT CAVOK"
    },
    {
      "icao": "LLBG",
      "alert": "OK",
      "vis_m": 9999,
      "fzfg": false,
      "metar_trigger": false,
      "taf_trigger": false,
      "metar": "METAR LLBG 250850Z 29008KT 250V340 9999 SCT035 25/16 Q1018 NOSIG",
      "taf": "TAF LLBG 250403Z 2506/2606 VRB04KT 9999 SCT020 TX26/2512Z TN17/2603Z"
    },
    {
      "icao": "LMML",
      "alert": "OK",
      "vis_m": 9999,
      "fzfg": false,
      "metar_trigger": false,
      "taf_trigger": false,
      "metar": "METAR LMML 250845Z 03012KT CAVOK 23/16 Q1025 NOSIG",
      "taf": "TAF LMML 250500Z 2506/2606 VRB08KT 9999 FEW049"
    },
    {
      "icao": "LOWW",
      "alert": "OK",
      "vis_m": 9999,
      "fzfg": false,
      "metar_trigger": false,
      "taf_trigger": false,
      "metar": "METAR LOWW 250850Z 33010KT 310V010 CAVOK 26/16 Q1030 NOSIG",
      "taf": "TAF LOWW 250815Z 2509/2615 35012KT CAVOK TX31/2614Z TN16/2603Z"
    },
    {
      "icao": "LPFR",
      "alert": "OK",
      "vis_m": 9999,
      "fzfg": false,
      "metar_trigger": false,
      "taf_trigger": false,
      "metar": "METAR LPFR 250830Z 09014KT CAVOK 24/09 Q1021",
      "taf": "TAF LPFR 250500Z 2506/2606 06010KT CAVOK"
    },
    {
      "icao": "LPMA",
      "alert": "OK",
      "vis_m": 9999,
      "fzfg": false,
      "metar_trigger": false,
      "taf_trigger": false,
      "metar": "METAR LPMA 250830Z 04008KT 9999 SCT014 19/15 Q1020",
      "taf": "TAF LPMA 250500Z 2506/2606 02012KT 9999 SCT015"
    },
    {
      "icao": "LPPR",
      "alert": "OK",
      "vis_m": 6000,
      "fzfg": false,
      "metar_trigger": false,
      "taf_trigger": false,
      "metar": "METAR LPPR 250830Z 23004KT 190V280 6000 BKN005 18/17 Q1022",
      "taf": "TAF LPPR 250500Z 2506/2606 VRB02KT 9999 SCT008"
    },
    {
      "icao": "LPPS",
      "alert": "OK",
      "vis_m": 9999,
      "fzfg": false,
      "metar_trigger": false,
      "taf_trigger": false,
      "metar": "METAR LPPS 250830Z 07007KT 040V100 9999 SCT014 SCT030 18/15 Q1021",
      "taf": "TAF LPPS 250500Z 2506/2612 05010KT 9999 SCT015 BKN030"
    },
    {
      "icao": "LPPT",
      "alert": "OK",
      "vis_m": 9999,
      "fzfg": false,
      "metar_trigger": false,
      "taf_trigger": false,
      "metar": "METAR LPPT 250830Z 09004KT 350V160 CAVOK 22/15 Q1022",
      "taf": "TAF LPPT 250500Z 2506/2612 VRB02KT CAVOK"
    },
    {
      "icao": "LQBK",
      "alert": "OK",
      "vis_m": 9999,
      "fzfg": false,
      "metar_trigger": false,
      "taf_trigger": false,
      "metar": "METAR LQBK 250830Z VRB03KT CAVOK 25/16 Q1028 NOSIG",
      "taf": "TAF LQBK 250500Z 2506/2606 16005KT CAVOK TX28/2513Z TN14/2604Z"
    },
    {
      "icao": "LQSA",
      "alert": "OK",
      "vis_m": 9999,
      "fzfg": false,
      "metar_trigger": false,
      "taf_trigger": false,
      "metar": "METAR LQSA 250830Z VRB03KT CAVOK 20/12 Q1029 NOSIG",
      "taf": "TAF LQSA 250500Z 2506/2606 VRB02KT 9999 SCT055 TX28/2514Z TN11/2604Z"
    },
    {
      "icao": "LQTZ",
      "alert": "OK",
      "vis_m": 9999,
      "fzfg": false,
      "metar_trigger": false,
      "taf_trigger": false,
      "metar": "METAR LQTZ 250830Z 29005KT 240V340 CAVOK 23/14 Q1028",
      "taf": "TAF LQTZ 250500Z 2506/2606 27005KT CAVOK TX28/2514Z TN11/2604Z"
    },
    {
      "icao": "LRBC",
      "alert": "OK",
      "vis_m": 9999,
      "fzfg": false,
      "metar_trigger": false,
      "taf_trigger": false,
      "metar": "METAR LRBC 250830Z COR 01007KT 330V050 9999 SCT050 25/15 Q1023",
      "taf": "TAF LRBC 250800Z 2509/2518 34008KT CAVOK"
    },
    {
      "icao": "LRBS",
      "alert": "OK",
      "vis_m": 9999,
      "fzfg": false,
      "metar_trigger": false,
      "taf_trigger": false,
      "metar": "METAR LRBS 250830Z VRB04KT CAVOK 25/12 Q1024 NOSIG",
      "taf": "TAF LRBS 250500Z 2506/2606 29008KT CAVOK"
    },
    {
      "icao": "LRBV",
      "alert": "OK",
      "vis_m": 9999,
      "fzfg": false,
      "metar_trigger": false,
      "taf_trigger": false,
      "metar": "METAR LRBV 250830Z 29009KT 260V320 CAVOK 21/10 Q1026",
      "taf": "TAF LRBV 250800Z 2509/2518 29010KT CAVOK"
    },
    {
      "icao": "LRCL",
      "alert": "OK",
      "vis_m": 9999,
      "fzfg": false,
      "metar_trigger": false,
      "taf_trigger": false,
      "metar": "METAR LRCL 250830Z 32006KT 260V350 9999 SCT062 24/11 Q1026",
      "taf": "TAF LRCL 250800Z 2509/2518 VRB04KT CAVOK"
    },
    {
      "icao": "LRCV",
      "alert": "OK",
      "vis_m": 9999,
      "fzfg": false,
      "metar_trigger": false,
      "taf_trigger": false,
      "metar": "METAR LRCV 250830Z 23003KT 160V330 CAVOK 24/16 Q1025",
      "taf": "TAF LRCV 250800Z 2509/2518 VRB04KT CAVOK"
    },
    {
      "icao": "LRIA",
      "alert": "OK",
      "vis_m": 9999,
      "fzfg": false,
      "metar_trigger": false,
      "taf_trigger": false,
      "metar": "METAR LRIA 250830Z 31010KT 280V340 CAVOK 22/14 Q1023",
      "taf": "TAF LRIA 250800Z 2509/2518 32010KT CAVOK"
    },
    {
      "icao": "LROP",
      "alert": "OK",
      "vis_m": 9999,
      "fzfg": false,
      "metar_trigger": false,
      "taf_trigger": false,
      "metar": "METAR LROP 250830Z 32006KT 280V360 CAVOK 26/15 Q1024 NOSIG",
      "taf": "TAF LROP 250500Z 2506/2606 29008KT CAVOK"
    },
    {
      "icao": "LRSB",
      "alert": "OK",
      "vis_m": 9999,
      "fzfg": false,
      "metar_trigger": false,
      "taf_trigger": false,
      "metar": "METAR LRSB 250830Z 34005KT 260V020 CAVOK 23/12 Q1026",
      "taf": "TAF LRSB 250500Z 2506/2606 VRB04KT CAVOK"
    },
    {
      "icao": "LRSM",
      "alert": "OK",
      "vis_m": 9999,
      "fzfg": false,
      "metar_trigger": false,
      "taf_trigger": false,
      "metar": "METAR LRSM 250830Z 33007KT 290V030 CAVOK 27/14 Q1025",
      "taf": "TAF LRSM 250800Z 2509/2518 35010KT CAVOK"
    },
    {
      "icao": "LRSV",
      "alert": "OK",
      "vis_m": 9999,
      "fzfg": false,
      "metar_trigger": false,
      "taf_trigger": false,
      "metar": "METAR LRSV 250830Z 31017KT 9999 FEW034 22/14 Q1024",
      "taf": "TAF LRSV 250800Z 2509/2518 31018KT CAVOK"
    },
    {
      "icao": "LRTM",
      "alert": "OK",
      "vis_m": 9999,
      "fzfg": false,
      "metar_trigger": false,
      "taf_trigger": false,
      "metar": "METAR LRTM 250830Z VRB02KT CAVOK 23/16 Q1026",
      "taf": "TAF LRTM 250800Z 2509/2518 VRB04KT CAVOK"
    },
    {
      "icao": "LRTR",
      "alert": "OK",
      "vis_m": 9999,
      "fzfg": false,
      "metar_trigger": false,
      "taf_trigger": false,
      "metar": "METAR LRTR 250830Z 35006KT 300V050 CAVOK 27/12 Q1026",
      "taf": "TAF LRTR 250500Z 2506/2606 VRB04KT CAVOK"
    },
    {
      "icao": "LTAC",
      "alert": "OK",
      "vis_m": 9999,
      "fzfg": false,
      "metar_trigger": false,
      "taf_trigger": false,
      "metar": "METAR LTAC 250850Z 03009KT 330V070 9999 SCT040 SCT100 19/09 Q1021 NOSIG",
      "taf": "TAF LTAC 250440Z 2506/2606 VRB02KT 9999 SCT040 SCT100"
    },
    {
      "icao": "LTFM",
      "alert": "OK",
      "vis_m": 9999,
      "fzfg": false,
      "metar_trigger": false,
      "taf_trigger": false,
      "metar": "METAR LTFM 250850Z 36014KT CAVOK 21/14 Q1023 NOSIG",
      "taf": "TAF LTFM 250440Z 2506/2612 31011KT 9999 FEW040 BKN080"
    },
    {
      "icao": "LUKK",
      "alert": "OK",
      "vis_m": 9999,
      "fzfg": false,
      "metar_trigger": false,
      "taf_trigger": false,
      "metar": "METAR LUKK 250830Z 34009KT 300V010 CAVOK 25/14 Q1021 NOSIG",
      "taf": "TAF LUKK 250516Z 2506/2606 32006KT CAVOK"
    },
    {
      "icao": "LWOH",
      "alert": "OK",
      "vis_m": 9999,
      "fzfg": false,
      "metar_trigger": false,
      "taf_trigger": false,
      "metar": "METAR LWOH 250850Z 16006KT 130V190 9999 FEW040 18/13 Q1028",
      "taf": "TAF LWOH 250840Z 2509/2609 16006KT 9999 FEW040"
    },
    {
      "icao": "LWSK",
      "alert": "OK",
      "vis_m": 9999,
      "fzfg": false,
      "metar_trigger": false,
      "taf_trigger": false,
      "metar": "METAR LWSK 250850Z VRB05KT CAVOK 26/11 Q1026 NOSIG",
      "taf": "TAF LWSK 250840Z 2509/2609 VRB02KT CAVOK"
    },
    {
      "icao": "LYBE",
      "alert": "OK",
      "vis_m": 9999,
      "fzfg": false,
      "metar_trigger": false,
      "taf_trigger": false,
      "metar": "METAR LYBE 250830Z 27006KT 230V310 CAVOK 25/16 Q1027 NOSIG",
      "taf": "TAF LYBE 250500Z 2506/2606 28005KT CAVOK TX30/2513Z TN16/2604Z"
    },
    {
      "icao": "LYNI",
      "alert": "OK",
      "vis_m": 9999,
      "fzfg": false,
      "metar_trigger": false,
      "taf_trigger": false,
      "metar": "METAR LYNI 250830Z VRB03KT CAVOK 22/16 Q1027 BECMG FM0900 32013KT",
      "taf": "TAF LYNI 250500Z 2506/2606 27004KT CAVOK TX29/2513Z TN13/2604Z"
    },
    {
      "icao": "LYPG",
      "alert": "OK",
      "vis_m": 9999,
      "fzfg": false,
      "metar_trigger": false,
      "taf_trigger": false,
      "metar": "METAR LYPG 250830Z 14005KT 110V200 CAVOK 27/13 Q1025 NOSIG",
      "taf": ""
    },
    {
      "icao": "LZIB",
      "alert": "OK",
      "vis_m": 9999,
      "fzfg": false,
      "metar_trigger": false,
      "taf_trigger": false,
      "metar": "METAR LZIB 250830Z 28007KT 230V330 9999 FEW040 26/16 Q1028 NOSIG",
      "taf": "TAF LZIB 250515Z 2506/2606 31004KT CAVOK"
    },
    {
      "icao": "LZKZ",
      "alert": "OK",
      "vis_m": 9999,
      "fzfg": false,
      "metar_trigger": false,
      "taf_trigger": false,
      "metar": "METAR LZKZ 250830Z 02013KT CAVOK 25/14 Q1027 NOSIG",
      "taf": "TAF LZKZ 250515Z 2506/2606 VRB02KT CAVOK"
    },
    {
      "icao": "LZTT",
      "alert": "OK",
      "vis_m": 9999,
      "fzfg": false,
      "metar_trigger": false,
      "taf_trigger": false,
      "metar": "METAR LZTT 250830Z 18005KT 130V220 9999 FEW040 22/14 Q1029 NOSIG",
      "taf": "TAF LZTT 250515Z 2506/2606 27006KT 9999 FEW050"
    },
    {
      "icao": "OEJN",
      "alert": "OK",
      "vis_m": 9999,
      "fzfg": false,
      "metar_trigger": false,
      "taf_trigger": false,
      "metar": "METAR OEJN 250800Z 33012KT CAVOK 34/19 Q1009 NOSIG",
      "taf": "TAF OEJN 250500Z 2506/2612 30018KT CAVOK"
    },
    {
      "icao": "OEMA",
      "alert": "OK",
      "vis_m": 3000,
      "fzfg": false,
      "metar_trigger": false,
      "taf_trigger": false,
      "metar": "METAR OEMA 250800Z 13007KT 3000 DU NSC 37/00 Q1015 NOSIG",
      "taf": "TAF OEMA 250500Z 2506/2612 09006KT 7000 FEW040"
    },
    {
      "icao": "OJAI",
      "alert": "OK",
      "vis_m": 5000,
      "fzfg": false,
      "metar_trigger": false,
      "taf_trigger": false,
      "metar": "METAR OJAI 250800Z 25007KT 5000 HZ NSC 24/01 Q1020 NOSIG",
      "taf": "TAF OJAI 250500Z 2506/2612 28012KT 5000 HZ FEW035"
    },
    {
      "icao": "OMAA",
      "alert": "OK",
      "vis_m": 9999,
      "fzfg": false,
      "metar_trigger": false,
      "taf_trigger": false,
      "metar": "METAR OMAA 250830Z 31009KT 280V340 CAVOK 38/22 Q1007 NOSIG",
      "taf": "TAF OMAA 250500Z 2506/2612 18006KT 8000 NSC"
    },
    {
      "icao": "OMDB",
      "alert": "OK",
      "vis_m": 9999,
      "fzfg": false,
      "metar_trigger": false,
      "taf_trigger": false,
      "metar": "METAR OMDB 250830Z 30012KT CAVOK 36/24 Q1007 NOSIG",
      "taf": "TAF OMDB 250500Z 2506/2612 19007KT 8000 NSC"
    },
    {
      "icao": "UAAA",
      "alert": "OK",
      "vis_m": 9999,
      "fzfg": false,
      "metar_trigger": false,
      "taf_trigger": false,
      "metar": "METAR UAAA 250830Z 02003MPS 270V070 9999 FEW050 25/03 Q1016 NOSIG",
      "taf": "TAF UAAA 250502Z 2506/2606 02002MPS 9999 FEW050CB SCT100 TX26/2510Z TN11/2601Z"
    },
    {
      "icao": "UBBB",
      "alert": "OK",
      "vis_m": 9999,
      "fzfg": false,
      "metar_trigger": false,
      "taf_trigger": false,
      "metar": "METAR UBBB 250830Z 03010KT 9999 FEW042CB BKN042 22/17 Q1009 NOSIG",
      "taf": "TAF UBBB 250501Z 2506/2606 32010KT 9999 FEW040 TX23/2509Z TN16/6501Z"
    },
    {
      "icao": "UDSG",
      "alert": "OK",
      "vis_m": 9999,
      "fzfg": false,
      "metar_trigger": false,
      "taf_trigger": false,
      "metar": "METAR UDSG 250830Z 27007KT 9999 SCT040CB 16/08 Q1019 NOSIG",
      "taf": "TAF UDSG 250500Z 2506/2606 22006KT 9999 SCT040"
    },
    {
      "icao": "UDYZ",
      "alert": "OK",
      "vis_m": 9999,
      "fzfg": false,
      "metar_trigger": false,
      "taf_trigger": false,
      "metar": "METAR UDYZ 250830Z 08003KT 040V120 9999 FEW046 17/09 Q1017 NOSIG",
      "taf": "TAF UDYZ 250500Z 2506/2606 24006KT 9999 SCT040"
    },
    {
      "icao": "UGKO",
      "alert": "OK",
      "vis_m": 9999,
      "fzfg": false,
      "metar_trigger": false,
      "taf_trigger": false,
      "metar": "METAR UGKO 250830Z 26013KT 9999 SCT017CB BKN053 17/14 Q1017 NOSIG",
      "taf": "TAF UGKO 242300Z 2500/2524 27010KT 9999 -RA SCT020 BKN040 TX19/2512Z TN14/2502Z"
    }
  ]
}