{
  "ts_utc": "2026-02-11T07:42:15Z",
  "threshold_m": 150,
  "source": "stations_override.txt (ICAO list) + aviationweather.gov (METAR/TAF raw)",
  "station_count": 159,
  "stations": [
    {
      "icao": "BIKF",
      "alert": "OK",
      "vis_m": 9999,
      "fzfg": false,
      "metar_trigger": false,
      "taf_trigger": false,
      "metar": "METAR BIKF 110730Z 06009KT CAVOK M02/M08 Q1006",
      "taf": "TAF BIKF 110733Z 1109/1209 08012KT CAVOK TXM00/1114Z TNM06/1206Z"
    },
    {
      "icao": "BKPR",
      "alert": "OK",
      "vis_m": 9999,
      "fzfg": false,
      "metar_trigger": false,
      "taf_trigger": false,
      "metar": "METAR BKPR 110730Z 20006KT 9999 SCT020 BKN035 05/04 Q1005 NOSIG",
      "taf": "TAF BKPR 110530Z 1106/1206 17008KT 9999 BKN050"
    },
    {
      "icao": "EBCI",
      "alert": "OK",
      "vis_m": 4000,
      "fzfg": false,
      "metar_trigger": false,
      "taf_trigger": false,
      "metar": "METAR EBCI 110720Z 23010KT 4000 -RADZ BR SCT003 BKN004 10/09 Q0984 TEMPO 1400 RADZ BR BKN002",
      "taf": "TAF EBCI 110508Z 1106/1212 25010KT 4000 -DZ -RADZ SCT003 BKN005"
    },
    {
      "icao": "EDDB",
      "alert": "OK",
      "vis_m": 9999,
      "fzfg": false,
      "metar_trigger": false,
      "taf_trigger": false,
      "metar": "METAR EDDB 110720Z AUTO 17007KT 9999 SHRA FEW022 BKN031 BKN042 SCT///TCU 04/02 Q0986 TEMPO NSW",
      "taf": "TAF EDDB 110500Z 1106/1206 15006KT 9999 BKN025"
    },
    {
      "icao": "EDDH",
      "alert": "OK",
      "vis_m": 2000,
      "fzfg": false,
      "metar_trigger": false,
      "taf_trigger": false,
      "metar": "METAR EDDH 110720Z AUTO 06007KT 2000 DZ BR OVC003 02/01 Q0985 TEMPO 3000 -DZ BR",
      "taf": "TAF EDDH 110500Z 1106/1212 08007KT 4000 BR OVC003"
    },
    {
      "icao": "EDDK",
      "alert": "OK",
      "vis_m": 6000,
      "fzfg": false,
      "metar_trigger": false,
      "taf_trigger": false,
      "metar": "METAR EDDK 110720Z AUTO 28004KT 200V330 6000 SHRA BKN005 FEW///CB 09/08 Q0983 TEMPO 4000 NSW",
      "taf": "TAF EDDK 110500Z 1106/1212 13008KT 9999 BKN020"
    },
    {
      "icao": "EDDN",
      "alert": "OK",
      "vis_m": 7000,
      "fzfg": false,
      "metar_trigger": false,
      "taf_trigger": false,
      "metar": "METAR EDDN 110720Z AUTO 16007KT 7000 -RA SCT005 BKN018 BKN023 06/05 Q0987 TEMPO BKN005 BKN010",
      "taf": "TAF EDDN 110500Z 1106/1206 14010KT 9999 BKN020"
    },
    {
      "icao": "EDDS",
      "alert": "OK",
      "vis_m": 9999,
      "fzfg": false,
      "metar_trigger": false,
      "taf_trigger": false,
      "metar": "METAR EDDS 110720Z AUTO 21007KT 160V280 9999 FEW048 09/06 Q0987 NOSIG",
      "taf": "TAF EDDS 110500Z 1106/1206 17007KT 9999 SCT020 BKN035"
    },
    {
      "icao": "EDFH",
      "alert": "OK",
      "vis_m": 6000,
      "fzfg": false,
      "metar_trigger": false,
      "taf_trigger": false,
      "metar": "METAR EDFH 110720Z 25015KT 6000 -RA OVC004 08/07 Q0984 RERA",
      "taf": "TAF EDFH 110500Z 1106/1206 23011KT 9000 SCT005 BKN012"
    },
    {
      "icao": "EDJA",
      "alert": "OK",
      "vis_m": 9999,
      "fzfg": false,
      "metar_trigger": false,
      "taf_trigger": false,
      "metar": "METAR EDJA 110720Z COR 21010KT 9999 SCT030 BKN040 BKN053 06/03 Q0990",
      "taf": "TAF EDJA 110500Z 1106/1115 23012KT 9999 BKN030"
    },
    {
      "icao": "EDLW",
      "alert": "OK",
      "vis_m": 9999,
      "fzfg": false,
      "metar_trigger": false,
      "taf_trigger": false,
      "metar": "METAR EDLW 110720Z 17007KT 9999 -DZ FEW013 BKN016 OVC024 08/08 Q0982",
      "taf": "TAF EDLW 110500Z 1106/1206 16005KT 9999 BKN020"
    },
    {
      "icao": "EDNY",
      "alert": "OK",
      "vis_m": 9999,
      "fzfg": false,
      "metar_trigger": false,
      "taf_trigger": false,
      "metar": "METAR EDNY 110720Z 24009KT 9999 FEW039 SCT047 OVC057 09/05 Q0991",
      "taf": "TAF EDNY 110500Z 1106/1115 VRB03KT 9999 BKN030"
    },
    {
      "icao": "EDSB",
      "alert": "OK",
      "vis_m": 9999,
      "fzfg": false,
      "metar_trigger": false,
      "taf_trigger": false,
      "metar": "METAR EDSB 110720Z 20019KT 9999 FEW030 OVC034 10/08 Q0988",
      "taf": "TAF EDSB 110500Z 1106/1206 20015KT 9999 SCT020 OVC030"
    },
    {
      "icao": "EETN",
      "alert": "OK",
      "vis_m": 8000,
      "fzfg": false,
      "metar_trigger": false,
      "taf_trigger": false,
      "metar": "METAR EETN 110720Z 17006KT 8000 -SN OVC039 M08/M09 Q0996 TEMPO 2000 SHSN SCT020CB",
      "taf": "TAF EETN 110530Z 1106/1206 17010KT 9999 SCT010 OVC035"
    },
    {
      "icao": "EFTU",
      "alert": "OK",
      "vis_m": 9999,
      "fzfg": false,
      "metar_trigger": false,
      "taf_trigger": false,
      "metar": "METAR EFTU 110720Z AUTO 08006KT 9999 BKN007 OVC039 M06/M07 Q0994",
      "taf": "TAF EFTU 110535Z 1106/1206 10005KT 9999 -SN OVC006"
    },
    {
      "icao": "EGBB",
      "alert": "OK",
      "vis_m": 9999,
      "fzfg": false,
      "metar_trigger": false,
      "taf_trigger": false,
      "metar": "METAR EGBB 110720Z 20004KT 170V240 9999 BKN007 09/09 Q0980",
      "taf": "TAF EGBB 110456Z 1106/1206 17004KT 1400 RADZ BR BKN003"
    },
    {
      "icao": "EGGP",
      "alert": "OK",
      "vis_m": 5000,
      "fzfg": false,
      "metar_trigger": false,
      "taf_trigger": false,
      "metar": "METAR EGGP 110720Z 13004KT 090V170 5000 -RADZ OVC002 07/07 Q0979",
      "taf": "TAF EGGP 110456Z 1106/1206 09006KT 9999 BKN006"
    },
    {
      "icao": "EGGW",
      "alert": "OK",
      "vis_m": 9999,
      "fzfg": false,
      "metar_trigger": false,
      "taf_trigger": false,
      "metar": "METAR EGGW 110720Z AUTO 21006KT 9999 OVC011 09/09 Q0981",
      "taf": "TAF EGGW 110457Z 1106/1206 24010KT 1200 BR BKN002"
    },
    {
      "icao": "EGKK",
      "alert": "OK",
      "vis_m": 9999,
      "fzfg": false,
      "metar_trigger": false,
      "taf_trigger": false,
      "metar": "METAR EGKK 110720Z 23008KT 9999 SCT006 BKN018 10/10 Q0983",
      "taf": "TAF EGKK 110453Z 1106/1212 22010KT 9999 SCT015"
    },
    {
      "icao": "EGNM",
      "alert": "OK",
      "vis_m": 300,
      "fzfg": false,
      "metar_trigger": false,
      "taf_trigger": false,
      "metar": "METAR EGNM 110720Z 07006KT 0300 R14/0800D -RA FG VV/// 05/05 Q0980",
      "taf": "TAF EGNM 110457Z 1106/1206 05009KT 0300 FG BKN000"
    },
    {
      "icao": "EGPD",
      "alert": "OK",
      "vis_m": 9999,
      "fzfg": false,
      "metar_trigger": false,
      "taf_trigger": false,
      "metar": "METAR EGPD 110720Z COR AUTO 10012KT 9999 SCT022 OVC031 04/00 Q0988 NOSIG",
      "taf": "TAF EGPD 110453Z 1106/1206 08012KT 9999 BKN016"
    },
    {
      "icao": "EGPF",
      "alert": "OK",
      "vis_m": 9999,
      "fzfg": false,
      "metar_trigger": false,
      "taf_trigger": false,
      "metar": "METAR EGPF 110720Z AUTO 07014KT 9999 -RA BKN012 OVC018 05/03 Q0983",
      "taf": "TAF EGPF 110452Z 1106/1206 07009KT 9999 BKN016"
    },
    {
      "icao": "EHBK",
      "alert": "OK",
      "vis_m": 8000,
      "fzfg": false,
      "metar_trigger": false,
      "taf_trigger": false,
      "metar": "METAR EHBK 110725Z AUTO 23008KT 8000 FEW004 BKN006 BKN007 10/10 Q0984 TEMPO 7000 -DZ",
      "taf": "TAF EHBK 110503Z 1106/1212 24007KT 2500 BR -DZRA OVC001"
    },
    {
      "icao": "EHEH",
      "alert": "OK",
      "vis_m": 2900,
      "fzfg": false,
      "metar_trigger": false,
      "taf_trigger": false,
      "metar": "METAR EHEH 110725Z AUTO 22007KT 2900 R21/P3000N BR BKN003 OVC004 10/09 Q0982 YLO 0800 FG RMK TREND REMOTE BY EHWX",
      "taf": "TAF EHEH 110554Z 1106/1212 18003KT 1500 BR OVC002"
    },
    {
      "icao": "EKBI",
      "alert": "OK",
      "vis_m": 9999,
      "fzfg": false,
      "metar_trigger": false,
      "taf_trigger": false,
      "metar": "METAR EKBI 110720Z AUTO 07013KT 9999 OVC005/// M00/M01 Q0989",
      "taf": "TAF EKBI 110539Z 1106/1206 07012KT 5000 BKN006"
    },
    {
      "icao": "EKCH",
      "alert": "OK",
      "vis_m": 4500,
      "fzfg": false,
      "metar_trigger": false,
      "taf_trigger": false,
      "metar": "METAR EKCH 110720Z 05009KT 4500 -SN SCT007 BKN037 00/M00 Q0990 TEMPO BKN007",
      "taf": "TAF EKCH 110527Z 1106/1206 07010KT 6000 SCT007 BKN030"
    },
    {
      "icao": "ENAL",
      "alert": "OK",
      "vis_m": 9999,
      "fzfg": false,
      "metar_trigger": false,
      "taf_trigger": false,
      "metar": "METAR ENAL 110720Z 07011KT CAVOK M02/M06 Q0995",
      "taf": "TAF ENAL 110500Z 1106/1115 07012KT CAVOK"
    },
    {
      "icao": "ENBR",
      "alert": "OK",
      "vis_m": 9999,
      "fzfg": false,
      "metar_trigger": false,
      "taf_trigger": false,
      "metar": "METAR ENBR 110720Z VRB02KT CAVOK M06/M07 Q0994 NOSIG RMK WIND 1200FT 26005KT",
      "taf": "TAF ENBR 110500Z 1106/1206 VRB03KT CAVOK"
    },
    {
      "icao": "ENGM",
      "alert": "OK",
      "vis_m": 9999,
      "fzfg": false,
      "metar_trigger": false,
      "taf_trigger": false,
      "metar": "METAR ENGM 110720Z 01006KT 9999 BKN045 M05/M10 Q0995 NOSIG",
      "taf": "TAF ENGM 110500Z 1106/1206 01005KT 9999 BKN025"
    },
    {
      "icao": "ENHD",
      "alert": "OK",
      "vis_m": 9999,
      "fzfg": false,
      "metar_trigger": false,
      "taf_trigger": false,
      "metar": "METAR ENHD 110720Z 09008KT CAVOK M04/M10 Q0993",
      "taf": "TAF ENHD 110500Z 1106/1115 09008KT CAVOK"
    },
    {
      "icao": "ENTC",
      "alert": "OK",
      "vis_m": 9999,
      "fzfg": false,
      "metar_trigger": false,
      "taf_trigger": false,
      "metar": "METAR ENTC 110720Z 19013KT 9999 FEW031 BKN058 M06/M11 Q0996 NOSIG RMK WIND 2600FT 16014KT",
      "taf": "TAF ENTC 110500Z 1106/1206 21009KT 9999 FEW020 SCT040"
    },
    {
      "icao": "ENTO",
      "alert": "OK",
      "vis_m": 9999,
      "fzfg": false,
      "metar_trigger": false,
      "taf_trigger": false,
      "metar": "METAR ENTO 110720Z 01005KT 9999 OVC019 M07/M08 Q0995 NOSIG",
      "taf": "TAF ENTO 110500Z 1106/1206 36008KT 9999 FEW015 BKN025"
    },
    {
      "icao": "ENVA",
      "alert": "OK",
      "vis_m": 9999,
      "fzfg": false,
      "metar_trigger": false,
      "taf_trigger": false,
      "metar": "METAR ENVA 110720Z 09006KT CAVOK M09/M10 Q0997 NOSIG RMK WIND 670FT 08008KT",
      "taf": "TAF ENVA 110500Z 1106/1206 09005KT 9999 BKN040"
    },
    {
      "icao": "ENZV",
      "alert": "OK",
      "vis_m": 9999,
      "fzfg": false,
      "metar_trigger": false,
      "taf_trigger": false,
      "metar": "METAR ENZV 110720Z 09008KT CAVOK M02/M09 Q0993 NOSIG",
      "taf": "TAF ENZV 110500Z 1106/1206 09008KT 9999 BKN040"
    },
    {
      "icao": "EPGD",
      "alert": "OK",
      "vis_m": 1400,
      "fzfg": false,
      "metar_trigger": false,
      "taf_trigger": false,
      "metar": "METAR EPGD 110730Z 14004KT 1400 R29/1900N SN BR BKN007 M04/M04 Q0990",
      "taf": "TAF EPGD 110530Z 1106/1206 14008KT 3000 -SN BR OVC002"
    },
    {
      "icao": "EPKK",
      "alert": "OK",
      "vis_m": 9999,
      "fzfg": false,
      "metar_trigger": false,
      "taf_trigger": false,
      "metar": "METAR EPKK 110730Z 04004KT CAVOK M01/M03 Q0993",
      "taf": "TAF EPKK 110530Z 1106/1206 VRB02KT 4000 BR NSC"
    },
    {
      "icao": "EPKT",
      "alert": "OK",
      "vis_m": 5000,
      "fzfg": false,
      "metar_trigger": false,
      "taf_trigger": false,
      "metar": "METAR EPKT 110730Z 18005KT 150V220 5000 BR NSC 00/M01 Q0992",
      "taf": "TAF EPKT 110530Z 1106/1206 20004KT CAVOK"
    },
    {
      "icao": "EPLB",
      "alert": "OK",
      "vis_m": 9999,
      "fzfg": false,
      "metar_trigger": false,
      "taf_trigger": false,
      "metar": "METAR EPLB 110730Z 18006KT CAVOK 01/M01 Q0995",
      "taf": "TAF EPLB 110530Z 1106/1206 17008KT CAVOK"
    },
    {
      "icao": "EPMO",
      "alert": "OK",
      "vis_m": 9999,
      "fzfg": false,
      "metar_trigger": false,
      "taf_trigger": false,
      "metar": "METAR EPMO 110730Z 15005KT CAVOK M00/M01 Q0993",
      "taf": "TAF EPMO 110530Z 1106/1206 16006KT 4500 BR BKN025"
    },
    {
      "icao": "EPPO",
      "alert": "OK",
      "vis_m": 9999,
      "fzfg": false,
      "metar_trigger": false,
      "taf_trigger": false,
      "metar": "METAR EPPO 110730Z 16005KT 9999 BKN029 OVC047 01/M01 Q0989",
      "taf": "TAF EPPO 110530Z 1106/1206 14006KT 8000 BKN040"
    },
    {
      "icao": "EPRA",
      "alert": "OK",
      "vis_m": 9999,
      "fzfg": false,
      "metar_trigger": false,
      "taf_trigger": false,
      "metar": "METAR EPRA 110730Z 17009KT CAVOK 00/M02 Q0993",
      "taf": "TAF EPRA 110530Z 1106/1115 16010KT CAVOK"
    },
    {
      "icao": "EPRZ",
      "alert": "OK",
      "vis_m": 9999,
      "fzfg": false,
      "metar_trigger": false,
      "taf_trigger": false,
      "metar": "METAR EPRZ 110730Z 19012KT 9999 BKN015 03/M00 Q0996",
      "taf": "TAF EPRZ 110530Z 1106/1206 18012KT CAVOK"
    },
    {
      "icao": "EPSC",
      "alert": "OK",
      "vis_m": 1800,
      "fzfg": false,
      "metar_trigger": false,
      "taf_trigger": false,
      "metar": "METAR EPSC 110730Z 13007KT 1800 -RA BR SCT004 BKN007 01/01 Q0987 RERA",
      "taf": "TAF EPSC 110530Z 1106/1206 14008KT 5000 BR BKN006 OVC030"
    },
    {
      "icao": "EPSY",
      "alert": "OK",
      "vis_m": 1400,
      "fzfg": false,
      "metar_trigger": false,
      "taf_trigger": false,
      "metar": "METAR EPSY 110730Z VRB03KT 1400 R01/1600N BR BKN001 OVC002 M02/M02 Q0992",
      "taf": "TAF EPSY 110530Z 1106/1115 14006KT 5000 BR OVC005"
    },
    {
      "icao": "EPWA",
      "alert": "OK",
      "vis_m": 9999,
      "fzfg": false,
      "metar_trigger": false,
      "taf_trigger": false,
      "metar": "METAR EPWA 110730Z 15009KT CAVOK M01/M02 Q0993 NOSIG",
      "taf": "TAF EPWA 110530Z 1106/1206 16006KT CAVOK"
    },
    {
      "icao": "EPWR",
      "alert": "OK",
      "vis_m": 9999,
      "fzfg": false,
      "metar_trigger": false,
      "taf_trigger": false,
      "metar": "METAR EPWR 110730Z 17008KT CAVOK 03/00 Q0990",
      "taf": "TAF EPWR 110530Z 1106/1206 16007KT CAVOK"
    },
    {
      "icao": "ESGG",
      "alert": "OK",
      "vis_m": 4500,
      "fzfg": false,
      "metar_trigger": false,
      "taf_trigger": false,
      "metar": "METAR ESGG 110720Z 02007KT 4500 BR BKN003 OVC005 M04/M05 Q0992",
      "taf": ""
    },
    {
      "icao": "ESKN",
      "alert": "OK",
      "vis_m": 9999,
      "fzfg": false,
      "metar_trigger": false,
      "taf_trigger": false,
      "metar": "METAR ESKN 110720Z 29003KT 9999 BKN049 M10/M11 Q0995",
      "taf": "TAF ESKN 110530Z 1106/1206 01004KT CAVOK"
    },
    {
      "icao": "ESMS",
      "alert": "OK",
      "vis_m": 2600,
      "fzfg": false,
      "metar_trigger": false,
      "taf_trigger": false,
      "metar": "METAR ESMS 110720Z 06008KT 2600 SG OVC003 01/01 Q0989",
      "taf": ""
    },
    {
      "icao": "ESSA",
      "alert": "OK",
      "vis_m": 3000,
      "fzfg": false,
      "metar_trigger": false,
      "taf_trigger": false,
      "metar": "METAR ESSA 110720Z 30002KT 3000 BR OVC003 M06/M06 Q0994 TEMPO 4000 -FZDZ BKN006",
      "taf": ""
    },
    {
      "icao": "EYKA",
      "alert": "OK",
      "vis_m": 2100,
      "fzfg": false,
      "metar_trigger": false,
      "taf_trigger": false,
      "metar": "METAR EYKA 110720Z 10004KT 2100 BR OVC004 M06/M07 Q0995",
      "taf": "TAF EYKA 110516Z 1106/1206 VRB04KT 5000 BR OVC005"
    },
    {
      "icao": "EYPA",
      "alert": "OK",
      "vis_m": 8000,
      "fzfg": false,
      "metar_trigger": false,
      "taf_trigger": false,
      "metar": "METAR EYPA 110720Z 10006KT 070V130 8000 BKN009 OVC012 M07/M09 Q0994",
      "taf": "TAF EYPA 110516Z 1106/1206 VRB05KT 6000 SCT010 OVC015"
    },
    {
      "icao": "EYVI",
      "alert": "OK",
      "vis_m": 5000,
      "fzfg": false,
      "metar_trigger": false,
      "taf_trigger": false,
      "metar": "METAR EYVI 110720Z 16007KT 5000 BR OVC004 M05/M06 Q0995 NOSIG",
      "taf": "TAF EYVI 110515Z 1106/1206 17010KT 5000 BR BKN005 OVC015"
    },
    {
      "icao": "GCFV",
      "alert": "OK",
      "vis_m": 9999,
      "fzfg": false,
      "metar_trigger": false,
      "taf_trigger": false,
      "metar": "METAR GCFV 110730Z 03010KT 9999 OVC011 18/16 Q1024",
      "taf": "TAF GCFV 110200Z 1103/1203 04013KT 9999 FEW010 TX24/1114Z TN17/1106Z"
    },
    {
      "icao": "GCLP",
      "alert": "OK",
      "vis_m": 9999,
      "fzfg": false,
      "metar_trigger": false,
      "taf_trigger": false,
      "metar": "METAR GCLP 110730Z 36011KT 9999 FEW018 18/15 Q1024 NOSIG",
      "taf": "TAF GCLP 110200Z 1103/1203 02018KT 9999 FEW020 TX24/1114Z TN17/1106Z"
    },
    {
      "icao": "GCTS",
      "alert": "OK",
      "vis_m": 9999,
      "fzfg": false,
      "metar_trigger": false,
      "taf_trigger": false,
      "metar": "METAR GCTS 110730Z 04004KT 9999 SCT015 17/15 Q1024 NOSIG",
      "taf": "TAF GCTS 110200Z 1103/1203 04005KT 9999 FEW025 TX25/1114Z TN17/1106Z"
    },
    {
      "icao": "GMAD",
      "alert": "OK",
      "vis_m": 100,
      "fzfg": false,
      "metar_trigger": false,
      "taf_trigger": false,
      "metar": "METAR GMAD 110730Z 12003KT 0100 R27/0200N FG OVC001 12/12 Q1022 BECMG 3000 BR OVC002",
      "taf": "TAF GMAD 110500Z 1106/1212 06005KT 0200 FG OVC002"
    },
    {
      "icao": "GMMN",
      "alert": "OK",
      "vis_m": 200,
      "fzfg": false,
      "metar_trigger": false,
      "taf_trigger": false,
      "metar": "METAR GMMN 110730Z COR VRB01KT 0200 R35L/0400N FG 14/14 Q1024 NOSIG",
      "taf": "TAF GMMN 110500Z 1106/1212 34005KT 0400 FG BKN002"
    },
    {
      "icao": "GMMX",
      "alert": "OK",
      "vis_m": 9999,
      "fzfg": false,
      "metar_trigger": false,
      "taf_trigger": false,
      "metar": "METAR GMMX 110730Z 10003KT 070V140 CAVOK 12/11 Q1023 NOSIG",
      "taf": "TAF GMMX 110500Z 1106/1212 24008KT 8000 SCT030"
    },
    {
      "icao": "HEGN",
      "alert": "OK",
      "vis_m": 9999,
      "fzfg": false,
      "metar_trigger": false,
      "taf_trigger": false,
      "metar": "METAR HEGN 110700Z 34011KT CAVOK 23/04 Q1016 NOSIG",
      "taf": "TAF HEGN 110500Z 1106/1212 31012KT 6000 SCT025"
    },
    {
      "icao": "HEMA",
      "alert": "OK",
      "vis_m": 9999,
      "fzfg": false,
      "metar_trigger": false,
      "taf_trigger": false,
      "metar": "METAR HEMA 110700Z 33011KT CAVOK 23/18 Q1016 NOSIG",
      "taf": "TAF HEMA 110500Z 1106/1212 36008KT 6000 SCT025"
    },
    {
      "icao": "HESH",
      "alert": "OK",
      "vis_m": 9999,
      "fzfg": false,
      "metar_trigger": false,
      "taf_trigger": false,
      "metar": "METAR HESH 110700Z 00000KT CAVOK 22/19 Q1015 NOSIG",
      "taf": "TAF HESH 110500Z 1106/1212 33006KT 6000 SCT025"
    },
    {
      "icao": "HESX",
      "alert": "OK",
      "vis_m": 9999,
      "fzfg": false,
      "metar_trigger": false,
      "taf_trigger": false,
      "metar": "METAR HESX 110700Z 21009KT CAVOK 15/10 Q1017 NOSIG",
      "taf": "TAF HESX 110500Z 1106/1212 22012G22KT 6000 NSC"
    },
    {
      "icao": "LATI",
      "alert": "OK",
      "vis_m": 9999,
      "fzfg": false,
      "metar_trigger": false,
      "taf_trigger": false,
      "metar": "METAR LATI 110720Z 17002KT 9999 FEW042 BKN080 10/08 Q1005 NOSIG",
      "taf": "TAF LATI 110500Z 1106/1206 VRB05KT 9999 SCT030 BKN070 TX15/1112Z TN07/1205Z"
    },
    {
      "icao": "LBPD",
      "alert": "OK",
      "vis_m": 9999,
      "fzfg": false,
      "metar_trigger": false,
      "taf_trigger": false,
      "metar": "METAR LBPD 110730Z AUTO VRB01KT 9999 SCT013/// OVC015/// 03/00 Q1009 NOSIG",
      "taf": "TAF LBPD 110500Z 1106/1206 VRB04KT 9999 BKN020"
    },
    {
      "icao": "LBSF",
      "alert": "OK",
      "vis_m": 9999,
      "fzfg": false,
      "metar_trigger": false,
      "taf_trigger": false,
      "metar": "METAR LBSF 110730Z 10008KT 9999 SCT042 SCT088 02/M02 Q1006 NOSIG",
      "taf": "TAF LBSF 110500Z 1106/1206 11012KT 9999 SCT030 BKN050"
    },
    {
      "icao": "LBWN",
      "alert": "OK",
      "vis_m": 9999,
      "fzfg": false,
      "metar_trigger": false,
      "taf_trigger": false,
      "metar": "METAR LBWN 110730Z 17005KT 140V200 9999 OVC020 05/02 Q1008 NOSIG",
      "taf": "TAF LBWN 110500Z 1106/1206 VRB03KT 9999 BKN025"
    },
    {
      "icao": "LCLK",
      "alert": "OK",
      "vis_m": 9999,
      "fzfg": false,
      "metar_trigger": false,
      "taf_trigger": false,
      "metar": "METAR LCLK 110730Z 22013KT 9999 FEW030 FEW035CB 19/13 Q1011 NOSIG",
      "taf": "TAF LCLK 110530Z 1106/1206 24008KT 9999 FEW025"
    },
    {
      "icao": "LCPH",
      "alert": "OK",
      "vis_m": 9999,
      "fzfg": false,
      "metar_trigger": false,
      "taf_trigger": false,
      "metar": "METAR LCPH 110730Z 26009KT 250V320 9999 FEW025 SCT035 18/12 Q1012 NOSIG",
      "taf": "TAF LCPH 110530Z 1106/1206 28015KT 9999 FEW020 SCT045"
    },
    {
      "icao": "LEAL",
      "alert": "OK",
      "vis_m": 9999,
      "fzfg": false,
      "metar_trigger": false,
      "taf_trigger": false,
      "metar": "METAR LEAL 110730Z 16004KT 110V200 CAVOK 21/10 Q1012 NOSIG",
      "taf": "TAF LEAL 110500Z 1106/1206 24015KT 9999 FEW030 TX24/1112Z TN15/1106Z"
    },
    {
      "icao": "LEBB",
      "alert": "OK",
      "vis_m": 9999,
      "fzfg": false,
      "metar_trigger": false,
      "taf_trigger": false,
      "metar": "METAR LEBB 110730Z 11004KT CAVOK 10/09 Q1006 NOSIG",
      "taf": "TAF LEBB 110500Z 1106/1206 20009KT 9999 FEW040 TX19/1118Z TN10/1205Z"
    },
    {
      "icao": "LEBL",
      "alert": "OK",
      "vis_m": 9999,
      "fzfg": false,
      "metar_trigger": false,
      "taf_trigger": false,
      "metar": "METAR LEBL 110730Z 28016G28KT CAVOK 17/06 Q1005 NOSIG",
      "taf": ""
    },
    {
      "icao": "LECH",
      "alert": "OK",
      "vis_m": 9999,
      "fzfg": false,
      "metar_trigger": false,
      "taf_trigger": false,
      "metar": "METAR LECH 110730Z AUTO 28015KT CAVOK 18/01 Q1009",
      "taf": ""
    },
    {
      "icao": "LEMD",
      "alert": "OK",
      "vis_m": 9999,
      "fzfg": false,
      "metar_trigger": false,
      "taf_trigger": false,
      "metar": "METAR LEMD 110730Z 22006KT 180V290 9999 SCT019 BKN060 11/10 Q1014 NOSIG",
      "taf": "TAF LEMD 110500Z 1106/1212 24010KT 9999 FEW015 TX15/1114Z TN07/1207Z"
    },
    {
      "icao": "LEMG",
      "alert": "OK",
      "vis_m": 9999,
      "fzfg": false,
      "metar_trigger": false,
      "taf_trigger": false,
      "metar": "METAR LEMG 110730Z 00000KT 9999 FEW075 14/13 Q1019 NOSIG",
      "taf": "TAF LEMG 110500Z 1106/1206 VRB02KT 9999 SCT040 TX22/1114Z TN16/1107Z"
    },
    {
      "icao": "LEVC",
      "alert": "OK",
      "vis_m": 9999,
      "fzfg": false,
      "metar_trigger": false,
      "taf_trigger": false,
      "metar": "METAR LEVC 110730Z 30026G38KT CAVOK 19/07 Q1011 NOSIG",
      "taf": "TAF LEVC 110500Z 1106/1206 28017KT 9999 FEW045 TX24/1114Z TN17/1106Z"
    },
    {
      "icao": "LEXJ",
      "alert": "OK",
      "vis_m": 9999,
      "fzfg": false,
      "metar_trigger": false,
      "taf_trigger": false,
      "metar": "METAR LEXJ 110730Z VRB02KT 9999 FEW040 11/07 Q1005",
      "taf": ""
    },
    {
      "icao": "LEZG",
      "alert": "OK",
      "vis_m": 9999,
      "fzfg": false,
      "metar_trigger": false,
      "taf_trigger": false,
      "metar": "METAR LEZG 110730Z 25019KT 9999 FEW080 15/07 Q1009 NOSIG",
      "taf": "TAF LEZG 110500Z 1106/1206 25015KT 9999 FEW050 TX19/1112Z TN13/1106Z"
    },
    {
      "icao": "LEZL",
      "alert": "OK",
      "vis_m": 7000,
      "fzfg": false,
      "metar_trigger": false,
      "taf_trigger": false,
      "metar": "METAR LEZL 110730Z 22014KT 7000 OVC004 16/16 Q1020 NOSIG",
      "taf": ""
    },
    {
      "icao": "LFBD",
      "alert": "OK",
      "vis_m": 9999,
      "fzfg": false,
      "metar_trigger": false,
      "taf_trigger": false,
      "metar": "METAR LFBD 110730Z AUTO 27016KT 9999 BKN025 BKN038 BKN056 13/10 Q1003 TEMPO 26015G25KT 2500 SHRA BKN013 BKN020TCU SCT025CB",
      "taf": "TAF LFBD 110500Z 1106/1212 27010G20KT 9999 SCT020 BKN025 TX14/1121Z TN10/1205Z"
    },
    {
      "icao": "LFLL",
      "alert": "OK",
      "vis_m": 9000,
      "fzfg": false,
      "metar_trigger": false,
      "taf_trigger": false,
      "metar": "METAR LFLL 110730Z 15005KT 120V180 9000 -RA FEW036TCU BKN040 09/08 Q0997 TEMPO 4000 RA",
      "taf": "TAF LFLL 110500Z 1106/1212 20010KT CAVOK"
    },
    {
      "icao": "LFLS",
      "alert": "OK",
      "vis_m": 9999,
      "fzfg": false,
      "metar_trigger": false,
      "taf_trigger": false,
      "metar": "METAR LFLS 110730Z AUTO 22004KT 160V290 9999 OVC038 10/07 Q0998 TEMPO RA",
      "taf": "TAF LFLS 110200Z 1103/1203 21012KT 9999 SCT050"
    },
    {
      "icao": "LFMN",
      "alert": "OK",
      "vis_m": 9999,
      "fzfg": false,
      "metar_trigger": false,
      "taf_trigger": false,
      "metar": "METAR LFMN 110730Z 33007KT 9999 FEW026 BKN230 09/06 Q0995 WS L04 WS R04 BECMG 24015KT",
      "taf": ""
    },
    {
      "icao": "LFOB",
      "alert": "OK",
      "vis_m": 9999,
      "fzfg": false,
      "metar_trigger": false,
      "taf_trigger": false,
      "metar": "METAR LFOB 110730Z AUTO 24010KT 9999 BKN010 BKN015 BKN043 11/10 Q0987 TEMPO 24020G30KT 3000 RA BKN007 BKN013TCU",
      "taf": "TAF LFOB 110500Z 1106/1206 24012KT 9999 BKN015"
    },
    {
      "icao": "LFPO",
      "alert": "OK",
      "vis_m": 9999,
      "fzfg": false,
      "metar_trigger": false,
      "taf_trigger": false,
      "metar": "METAR LFPO 110730Z 25013KT 9999 BKN016 BKN093 BKN260 11/09 Q0990 NOSIG",
      "taf": "TAF LFPO 110500Z 1106/1212 24015KT 9999 BKN025"
    },
    {
      "icao": "LFSB",
      "alert": "OK",
      "vis_m": 9999,
      "fzfg": false,
      "metar_trigger": false,
      "taf_trigger": false,
      "metar": "METAR LFSB 110730Z AUTO 22008KT 190V250 9999 BKN026 BKN032 BKN041 10/07 Q0991 TEMPO 24015G25KT 4000 -SHRA FEW030CB",
      "taf": "TAF LFSB 110500Z 1106/1206 22010KT 9999 SCT030 BKN050"
    },
    {
      "icao": "LGAV",
      "alert": "OK",
      "vis_m": 9999,
      "fzfg": false,
      "metar_trigger": false,
      "taf_trigger": false,
      "metar": "METAR LGAV 110720Z VRB01KT 9999 SCT020 BKN050 12/07 Q1010 NOSIG",
      "taf": "TAF LGAV 110500Z 1106/1206 VRB03KT 9999 FEW025 BKN070"
    },
    {
      "icao": "LGTS",
      "alert": "OK",
      "vis_m": 9999,
      "fzfg": false,
      "metar_trigger": false,
      "taf_trigger": false,
      "metar": "METAR LGTS 110720Z VRB02KT 9999 SCT018 BKN025 10/07 Q1009 NOSIG",
      "taf": "TAF LGTS 110500Z 1106/1206 VRB03KT 9999 FEW010 SCT025"
    },
    {
      "icao": "LHBP",
      "alert": "OK",
      "vis_m": 6000,
      "fzfg": false,
      "metar_trigger": false,
      "taf_trigger": false,
      "metar": "METAR LHBP 110730Z 10006KT 6000 OVC007 01/00 Q0998 NOSIG",
      "taf": "TAF LHBP 110515Z 1106/1206 12008KT 9999 BKN015"
    },
    {
      "icao": "LHDC",
      "alert": "OK",
      "vis_m": 9999,
      "fzfg": false,
      "metar_trigger": false,
      "taf_trigger": false,
      "metar": "METAR LHDC 110715Z AUTO 13006KT 100V160 9999 BKN022 OVC043 03/02 Q1000 NOSIG",
      "taf": "TAF LHDC 110515Z 1106/1115 16006KT 9999 BKN040 BKN060"
    },
    {
      "icao": "LIBD",
      "alert": "OK",
      "vis_m": 9999,
      "fzfg": false,
      "metar_trigger": false,
      "taf_trigger": false,
      "metar": "METAR LIBD 110720Z 20008KT 9999 SCT045 10/07 Q1001",
      "taf": "TAF LIBD 110500Z 1106/1206 22013KT 9999 FEW040"
    },
    {
      "icao": "LIBG",
      "alert": "OK",
      "vis_m": 9999,
      "fzfg": false,
      "metar_trigger": false,
      "taf_trigger": false,
      "metar": "SPECI LIBG 110657Z 01003KT 320V050 9999 FEW020 SCT030 08/07 Q1003",
      "taf": "TAF LIBG 110712Z 1108/1115 VRB05KT 9999 FEW020 SCT050"
    },
    {
      "icao": "LIBP",
      "alert": "OK",
      "vis_m": 9999,
      "fzfg": false,
      "metar_trigger": false,
      "taf_trigger": false,
      "metar": "METAR LIBP 110720Z AUTO 20009KT 160V220 9999 BKN120/// 14/04 Q0997",
      "taf": "TAF LIBP 110500Z 1106/1206 21013KT 6000 BKN060"
    },
    {
      "icao": "LIBR",
      "alert": "OK",
      "vis_m": 9999,
      "fzfg": false,
      "metar_trigger": false,
      "taf_trigger": false,
      "metar": "METAR LIBR 110720Z 19007KT CAVOK 11/08 Q1003",
      "taf": "TAF LIBR 110500Z 1106/1206 22012KT 9999 FEW040"
    },
    {
      "icao": "LICA",
      "alert": "OK",
      "vis_m": 9000,
      "fzfg": false,
      "metar_trigger": false,
      "taf_trigger": false,
      "metar": "METAR LICA 110720Z AUTO 07007KT 9000 -RA OVC033/// 10/10 Q1004",
      "taf": "TAF LICA 110500Z 1106/1206 VRB05KT 9999 BKN020"
    },
    {
      "icao": "LICC",
      "alert": "OK",
      "vis_m": 9999,
      "fzfg": false,
      "metar_trigger": false,
      "taf_trigger": false,
      "metar": "METAR LICC 110720Z 22006KT 9999 FEW015 BKN020 13/10 Q1005",
      "taf": "TAF LICC 110500Z 1106/1206 26013KT 9999 SCT030"
    },
    {
      "icao": "LICJ",
      "alert": "OK",
      "vis_m": 9999,
      "fzfg": false,
      "metar_trigger": false,
      "taf_trigger": false,
      "metar": "METAR LICJ 110720Z 22016KT 9999 BKN020 16/14 Q1002",
      "taf": "TAF LICJ 110500Z 1106/1206 21015KT 9999 SCT020"
    },
    {
      "icao": "LIMC",
      "alert": "OK",
      "vis_m": 8000,
      "fzfg": false,
      "metar_trigger": false,
      "taf_trigger": false,
      "metar": "METAR LIMC 110720Z 34005KT 8000 -RA BKN030 07/06 Q0997 NOSIG",
      "taf": "TAF LIMC 110500Z 1106/1212 VRB04KT 3000 -RA BR SCT015"
    },
    {
      "icao": "LIME",
      "alert": "OK",
      "vis_m": 9999,
      "fzfg": false,
      "metar_trigger": false,
      "taf_trigger": false,
      "metar": "METAR LIME 110720Z VRB02KT 9999 SCT035 BKN050 07/07 Q0996 NOSIG",
      "taf": "TAF LIME 110500Z 1106/1206 VRB04KT 2000 -RA BR BKN007"
    },
    {
      "icao": "LIMF",
      "alert": "OK",
      "vis_m": 9999,
      "fzfg": false,
      "metar_trigger": false,
      "taf_trigger": false,
      "metar": "METAR LIMF 110720Z 28004KT 9999 BKN020 06/05 Q0997",
      "taf": "TAF LIMF 110500Z 1106/1206 VRB03KT 8000 BKN035"
    },
    {
      "icao": "LIMJ",
      "alert": "OK",
      "vis_m": 9999,
      "fzfg": false,
      "metar_trigger": false,
      "taf_trigger": false,
      "metar": "METAR LIMJ 110720Z 03012KT 9999 FEW010 SCT024 BKN040 10/07 Q0995",
      "taf": "TAF LIMJ 110500Z 1106/1206 VRB05KT 8000 BKN020"
    },
    {
      "icao": "LIPE",
      "alert": "OK",
      "vis_m": 2000,
      "fzfg": false,
      "metar_trigger": false,
      "taf_trigger": false,
      "metar": "METAR LIPE 110720Z 25008KT 2000 BR BKN004 09/08 Q0995",
      "taf": ""
    },
    {
      "icao": "LIPH",
      "alert": "OK",
      "vis_m": 1000,
      "fzfg": false,
      "metar_trigger": false,
      "taf_trigger": false,
      "metar": "METAR LIPH 110720Z 05004KT 1000 R07/P2000N -RA BR BKN002 BKN010 08/08 Q0997 RERA",
      "taf": ""
    },
    {
      "icao": "LIPQ",
      "alert": "OK",
      "vis_m": 1900,
      "fzfg": false,
      "metar_trigger": false,
      "taf_trigger": false,
      "metar": "METAR LIPQ 110720Z AUTO 11002KT 1900 RA BR OVC020/// 09/09 Q0997",
      "taf": "TAF LIPQ 110500Z 1106/1206 VRB05KT 6000 SCT020 BKN040"
    },
    {
      "icao": "LIPR",
      "alert": "OK",
      "vis_m": 9999,
      "fzfg": false,
      "metar_trigger": false,
      "taf_trigger": false,
      "metar": "METAR LIPR 110720Z 17008KT 9999 SCT025 BKN040 13/08 Q0996",
      "taf": "TAF LIPR 110500Z 1106/1206 16010KT 9999 BKN030"
    },
    {
      "icao": "LIPX",
      "alert": "OK",
      "vis_m": 9999,
      "fzfg": false,
      "metar_trigger": false,
      "taf_trigger": false,
      "metar": "METAR LIPX 110720Z VRB01KT 9999 -DZ SCT015 BKN030 08/08 Q0996",
      "taf": "TAF LIPX 110500Z 1106/1206 VRB05KT 2000 -RA BR BKN035"
    },
    {
      "icao": "LIPY",
      "alert": "OK",
      "vis_m": 9999,
      "fzfg": false,
      "metar_trigger": false,
      "taf_trigger": false,
      "metar": "METAR LIPY 110720Z AUTO 14003KT 090V200 9999 BKN050/// BKN110/// 13/06 Q0997",
      "taf": "TAF LIPY 110500Z 1106/1206 13008KT 9999 SCT050"
    },
    {
      "icao": "LIPZ",
      "alert": "OK",
      "vis_m": 2500,
      "fzfg": false,
      "metar_trigger": false,
      "taf_trigger": false,
      "metar": "METAR LIPZ 110720Z 04007KT 2500 BR BKN030 08/08 Q0997 NOSIG",
      "taf": "TAF LIPZ 110500Z 1106/1212 VRB05KT 4000 RA BKN015"
    },
    {
      "icao": "LIRF",
      "alert": "OK",
      "vis_m": 8000,
      "fzfg": false,
      "metar_trigger": false,
      "taf_trigger": false,
      "metar": "METAR LIRF 110720Z 13010KT 8000 -SHRA SCT005 BKN015 OVC035 11/10 Q0999 TEMPO SHRA",
      "taf": "TAF LIRF 110500Z 1106/1212 16012KT 9999 SCT020"
    },
    {
      "icao": "LIRN",
      "alert": "OK",
      "vis_m": 8000,
      "fzfg": false,
      "metar_trigger": false,
      "taf_trigger": false,
      "metar": "METAR LIRN 110720Z 08003KT 050V110 8000 -RA SCT020 BKN040 11/10 Q1001 NOSIG",
      "taf": "TAF LIRN 110500Z 1106/1206 19007KT 9999 SCT015"
    },
    {
      "icao": "LIRP",
      "alert": "OK",
      "vis_m": 6000,
      "fzfg": false,
      "metar_trigger": false,
      "taf_trigger": false,
      "metar": "METAR LIRP 110715Z 25011KT 6000 -RA SCT012 FEW015TCU BKN025 13/12 Q0995 TEMPO 3000",
      "taf": "TAF LIRP 110500Z 1106/1206 09005KT 7000 -RA BKN020"
    },
    {
      "icao": "LIRZ",
      "alert": "OK",
      "vis_m": 9999,
      "fzfg": false,
      "metar_trigger": false,
      "taf_trigger": false,
      "metar": "METAR LIRZ 110720Z AUTO 15005KT 9999 -RA BKN024/// 10/07 Q0998",
      "taf": "TAF LIRZ 110500Z 1106/1206 19008KT 4000 RA SCT020 BKN030"
    },
    {
      "icao": "LJLJ",
      "alert": "OK",
      "vis_m": 9999,
      "fzfg": false,
      "metar_trigger": false,
      "taf_trigger": false,
      "metar": "METAR LJLJ 110730Z VRB02KT 9999 FEW003 SCT035 BKN047 05/05 Q0996 NOSIG",
      "taf": "TAF LJLJ 110500Z 1106/1206 20003KT 9999 FEW003 OVC030"
    },
    {
      "icao": "LKMT",
      "alert": "OK",
      "vis_m": 9999,
      "fzfg": false,
      "metar_trigger": false,
      "taf_trigger": false,
      "metar": "METAR LKMT 110730Z 24013KT 9999 BKN019 04/02 Q0993 NOSIG",
      "taf": "TAF LKMT 110500Z 1106/1206 22012KT 9999 BKN025"
    },
    {
      "icao": "LKPR",
      "alert": "OK",
      "vis_m": 9999,
      "fzfg": false,
      "metar_trigger": false,
      "taf_trigger": false,
      "metar": "METAR LKPR 110730Z 13008KT 9999 FEW011 02/00 Q0989 NOSIG",
      "taf": "TAF LKPR 110500Z 1106/1212 17006KT 9999 SCT030"
    },
    {
      "icao": "LLBG",
      "alert": "OK",
      "vis_m": 9999,
      "fzfg": false,
      "metar_trigger": false,
      "taf_trigger": false,
      "metar": "METAR LLBG 110720Z 20009KT 9999 FEW032 18/12 Q1015 NOSIG",
      "taf": "TAF LLBG 110506Z 1106/1206 VRB04KT 9999 SCT030"
    },
    {
      "icao": "LMML",
      "alert": "OK",
      "vis_m": 9999,
      "fzfg": false,
      "metar_trigger": false,
      "taf_trigger": false,
      "metar": "METAR LMML 110715Z 19007KT 160V230 9999 FEW012 15/14 Q1008 NOSIG",
      "taf": "TAF LMML 110500Z 1106/1206 26010KT 9999 SCT018 SCT045"
    },
    {
      "icao": "LOWW",
      "alert": "OK",
      "vis_m": 9000,
      "fzfg": false,
      "metar_trigger": false,
      "taf_trigger": false,
      "metar": "METAR LOWW 110720Z 14010KT 9000 FEW006 BKN008 05/03 Q0992 BECMG BKN020",
      "taf": "TAF LOWW 110515Z 1106/1212 13014KT 8000 OVC006 TX08/1114Z TN04/1106Z"
    },
    {
      "icao": "LPFR",
      "alert": "OK",
      "vis_m": 2800,
      "fzfg": false,
      "metar_trigger": false,
      "taf_trigger": false,
      "metar": "METAR LPFR 110730Z 25011KT 2800 -DZ BR OVC002 15/15 Q1020",
      "taf": "TAF LPFR 110500Z 1106/1206 25012KT 8000 SCT004 BKN008"
    },
    {
      "icao": "LPMA",
      "alert": "OK",
      "vis_m": 9999,
      "fzfg": false,
      "metar_trigger": false,
      "taf_trigger": false,
      "metar": "METAR LPMA 110730Z 00000KT 9999 FEW015 BKN025 16/12 Q1025",
      "taf": "TAF LPMA 110500Z 1106/1206 VRB05KT 9999 SCT015"
    },
    {
      "icao": "LPPR",
      "alert": "OK",
      "vis_m": 3000,
      "fzfg": false,
      "metar_trigger": false,
      "taf_trigger": false,
      "metar": "METAR LPPR 110730Z 19016KT 3000 R17/1200U -RADZ BR BKN002 14/14 Q1010",
      "taf": "TAF LPPR 110500Z 1106/1206 19010KT 6000 SCT004 BKN008"
    },
    {
      "icao": "LPPS",
      "alert": "OK",
      "vis_m": 9999,
      "fzfg": false,
      "metar_trigger": false,
      "taf_trigger": false,
      "metar": "METAR LPPS 110730Z 25006KT 220V300 9999 FEW012 BKN030 17/12 Q1024",
      "taf": "TAF LPPS 110500Z 1106/1212 27007KT 9999 FEW015 SCT030"
    },
    {
      "icao": "LPPT",
      "alert": "OK",
      "vis_m": 2500,
      "fzfg": false,
      "metar_trigger": false,
      "taf_trigger": false,
      "metar": "METAR LPPT 110730Z 23016KT 2500 DZ BR FEW001 BKN003 15/15 Q1016",
      "taf": ""
    },
    {
      "icao": "LQBK",
      "alert": "OK",
      "vis_m": 800,
      "fzfg": false,
      "metar_trigger": false,
      "taf_trigger": false,
      "metar": "METAR LQBK 110730Z VRB02KT 0800 R16/P2000N FG BKN002 04/04 Q0997 BECMG 21010KT 9999 NSW",
      "taf": "TAF LQBK 110500Z 1106/1206 15005KT 7000 SCT045 TX13/1113Z TN04/1106Z"
    },
    {
      "icao": "LQSA",
      "alert": "OK",
      "vis_m": 9999,
      "fzfg": false,
      "metar_trigger": false,
      "taf_trigger": false,
      "metar": "METAR LQSA 110730Z VRB01KT CAVOK 03/03 Q1000 NOSIG",
      "taf": "TAF LQSA 110500Z 1106/1206 11006KT 9999 SCT050 TX13/1113Z TN02/1106Z"
    },
    {
      "icao": "LQTZ",
      "alert": "OK",
      "vis_m": 9999,
      "fzfg": false,
      "metar_trigger": false,
      "taf_trigger": false,
      "metar": "METAR LQTZ 110730Z 11006KT CAVOK 08/08 Q0999",
      "taf": "TAF LQTZ 110500Z 1106/1206 VRB03KT 7000 SCT045 TX12/1113Z TN02/1106Z"
    },
    {
      "icao": "LRBC",
      "alert": "OK",
      "vis_m": 9999,
      "fzfg": false,
      "metar_trigger": false,
      "taf_trigger": false,
      "metar": "METAR LRBC 110730Z 16012KT 9999 OVC003 M01/M01 Q1004",
      "taf": "TAF LRBC 110500Z 1106/1115 17010KT 9999 OVC005"
    },
    {
      "icao": "LRBS",
      "alert": "OK",
      "vis_m": 4000,
      "fzfg": false,
      "metar_trigger": false,
      "taf_trigger": false,
      "metar": "METAR LRBS 110730Z 25004KT 4000 -SN OVC004 00/M00 Q1007 TEMPO 1500 -SN BR",
      "taf": "TAF LRBS 110500Z 1106/1206 VRB04KT 3000 BR BKN005 OVC020"
    },
    {
      "icao": "LRBV",
      "alert": "OK",
      "vis_m": 9999,
      "fzfg": false,
      "metar_trigger": false,
      "taf_trigger": false,
      "metar": "METAR LRBV 110730Z 10005KT 060V140 9999 SCT071 01/M03 Q1002",
      "taf": "TAF LRBV 110500Z 1106/1115 VRB04KT 9999 SCT065"
    },
    {
      "icao": "LRCL",
      "alert": "OK",
      "vis_m": 9999,
      "fzfg": false,
      "metar_trigger": false,
      "taf_trigger": false,
      "metar": "METAR LRCL 110730Z 10007KT 9999 FEW057 02/M02 Q1001",
      "taf": "TAF LRCL 110500Z 1106/1115 VRB04KT 9999 BKN060"
    },
    {
      "icao": "LRCV",
      "alert": "OK",
      "vis_m": 4500,
      "fzfg": false,
      "metar_trigger": false,
      "taf_trigger": false,
      "metar": "METAR LRCV 110730Z 04001KT 4500 BR BKN004 OVC030 M01/M01 Q1007",
      "taf": "TAF LRCV 110500Z 1106/1115 VRB04KT 5000 BR OVC035"
    },
    {
      "icao": "LRIA",
      "alert": "OK",
      "vis_m": 9999,
      "fzfg": false,
      "metar_trigger": false,
      "taf_trigger": false,
      "metar": "METAR LRIA 110730Z 16008KT 9999 SCT015 02/M02 Q1004",
      "taf": "TAF LRIA 110500Z 1106/1115 17010KT 9999 BKN015"
    },
    {
      "icao": "LROP",
      "alert": "OK",
      "vis_m": 3000,
      "fzfg": false,
      "metar_trigger": false,
      "taf_trigger": false,
      "metar": "METAR LROP 110730Z 26005KT 3000 -RASN BR BKN002 OVC004 00/00 Q1007 TEMPO 1500 -SN BR",
      "taf": "TAF LROP 110500Z 1106/1206 VRB04KT 3000 BR BKN005 OVC020"
    },
    {
      "icao": "LRSB",
      "alert": "OK",
      "vis_m": 9999,
      "fzfg": false,
      "metar_trigger": false,
      "taf_trigger": false,
      "metar": "METAR LRSB 110730Z VRB02KT CAVOK 02/M01 Q1002",
      "taf": "TAF LRSB 110500Z 1106/1206 VRB04KT 9999 SCT060"
    },
    {
      "icao": "LRSM",
      "alert": "OK",
      "vis_m": 9999,
      "fzfg": false,
      "metar_trigger": false,
      "taf_trigger": false,
      "metar": "METAR LRSM 110730Z 13006KT 9999 -RA BKN024 03/01 Q1001",
      "taf": "TAF LRSM 110500Z 1106/1115 VRB03KT 9999 BKN040"
    },
    {
      "icao": "LRSV",
      "alert": "OK",
      "vis_m": 9999,
      "fzfg": false,
      "metar_trigger": false,
      "taf_trigger": false,
      "metar": "METAR LRSV 110730Z 22009KT CAVOK M03/M04 Q1000",
      "taf": "TAF LRSV 110500Z 1106/1115 22008KT CAVOK"
    },
    {
      "icao": "LRTM",
      "alert": "OK",
      "vis_m": 9999,
      "fzfg": false,
      "metar_trigger": false,
      "taf_trigger": false,
      "metar": "METAR LRTM 110730Z 07005KT 9999 FEW035 03/M01 Q1003",
      "taf": "TAF LRTM 110500Z 1106/1115 VRB04KT 9999 BKN040"
    },
    {
      "icao": "LRTR",
      "alert": "OK",
      "vis_m": 9999,
      "fzfg": false,
      "metar_trigger": false,
      "taf_trigger": false,
      "metar": "METAR LRTR 110730Z 11009KT CAVOK 03/02 Q1001 NOSIG",
      "taf": "TAF LRTR 110500Z 1106/1206 10007KT 9999 BKN045"
    },
    {
      "icao": "LTAC",
      "alert": "OK",
      "vis_m": 6000,
      "fzfg": false,
      "metar_trigger": false,
      "taf_trigger": false,
      "metar": "METAR LTAC 110720Z 02003KT 350V060 6000 FEW013 SCT021 BKN100 04/02 Q1009 NOSIG RMK RWY21C 01003KT RWY03L VRB02KT RWY21R 01002KT RWY03R 33002KT RWY21L 36004KT",
      "taf": "TAF LTAC 110440Z 1106/1206 VRB02KT 9999 SCT025 BKN080"
    },
    {
      "icao": "LTFM",
      "alert": "OK",
      "vis_m": 9999,
      "fzfg": false,
      "metar_trigger": false,
      "taf_trigger": false,
      "metar": "METAR LTFM 110720Z VRB02KT 9999 BKN022 06/02 Q1010 NOSIG RMK RWY17L VRB02KT RWY34L 25003KT 180V290 RWY16R VRB02KT RWY36 VRB03KT RWY18 28003KT",
      "taf": "TAF LTFM 110440Z 1106/1212 VRB02KT 9999 BKN022"
    },
    {
      "icao": "LUKK",
      "alert": "OK",
      "vis_m": 9999,
      "fzfg": false,
      "metar_trigger": false,
      "taf_trigger": false,
      "metar": "METAR LUKK 110730Z 17011KT 9999 OVC029 M00/M02 Q1006 NOSIG",
      "taf": "TAF LUKK 110518Z 1106/1206 16012KT 9999 BKN020"
    },
    {
      "icao": "LWOH",
      "alert": "OK",
      "vis_m": 9999,
      "fzfg": false,
      "metar_trigger": false,
      "taf_trigger": false,
      "metar": "METAR LWOH 110720Z 15005KT 9999 FEW014 SCT039 07/05 Q1005",
      "taf": "TAF LWOH 110535Z 1106/1206 17010KT 9999 BKN020 OVC035"
    },
    {
      "icao": "LWSK",
      "alert": "OK",
      "vis_m": 9999,
      "fzfg": false,
      "metar_trigger": false,
      "taf_trigger": false,
      "metar": "METAR LWSK 110720Z 15009KT 120V180 9999 SCT010 BKN020 06/04 Q1007 NOSIG",
      "taf": "TAF LWSK 110535Z 1106/1206 14005KT 9999 BKN015 OVC035"
    },
    {
      "icao": "LYBE",
      "alert": "OK",
      "vis_m": 9999,
      "fzfg": false,
      "metar_trigger": false,
      "taf_trigger": false,
      "metar": "METAR LYBE 110730Z 13009KT CAVOK 05/02 Q1000 NOSIG",
      "taf": "TAF LYBE 110500Z 1106/1206 13007KT CAVOK TX14/1113Z TN01/1106Z"
    },
    {
      "icao": "LYNI",
      "alert": "OK",
      "vis_m": 9999,
      "fzfg": false,
      "metar_trigger": false,
      "taf_trigger": false,
      "metar": "METAR LYNI 110730Z 13007KT 9999 FEW037 05/02 Q1005 NOSIG",
      "taf": "TAF LYNI 110500Z 1106/1206 10008KT 9999 SCT040 BKN080 TX12/1113Z TN03/1106Z"
    },
    {
      "icao": "LYPG",
      "alert": "OK",
      "vis_m": 9999,
      "fzfg": false,
      "metar_trigger": false,
      "taf_trigger": false,
      "metar": "METAR LYPG 110730Z 01003KT 340V040 9999 FEW004 SCT040 OVC070 08/08 Q1005 NOSIG",
      "taf": "TAF LYPG 110500Z 1106/1206 16005KT 9999 FEW010 BKN040 BKN070 TX11/1113Z TN08/1106Z"
    },
    {
      "icao": "LZIB",
      "alert": "OK",
      "vis_m": 4000,
      "fzfg": false,
      "metar_trigger": false,
      "taf_trigger": false,
      "metar": "METAR LZIB 110730Z 10012KT 4000 -DZ BR BKN005 OVC006 02/01 Q0994 NOSIG",
      "taf": "TAF LZIB 110515Z 1106/1206 12010KT 5000 -DZ BR SCT004 OVC009"
    },
    {
      "icao": "LZKZ",
      "alert": "OK",
      "vis_m": 9999,
      "fzfg": false,
      "metar_trigger": false,
      "taf_trigger": false,
      "metar": "METAR LZKZ 110730Z 20013KT 9999 -SG OVC009 01/M00 Q0999 TEMPO OVC011",
      "taf": "TAF LZKZ 110515Z 1106/1206 21011KT 9999 SCT004 OVC015"
    },
    {
      "icao": "LZTT",
      "alert": "OK",
      "vis_m": 9999,
      "fzfg": false,
      "metar_trigger": false,
      "taf_trigger": false,
      "metar": "METAR LZTT 110730Z 16005KT 120V200 9999 SCT030 00/M02 Q0995 NOSIG",
      "taf": "TAF LZTT 110515Z 1106/1206 11007KT 9999 FEW005 BKN020"
    },
    {
      "icao": "OEJN",
      "alert": "OK",
      "vis_m": 8000,
      "fzfg": false,
      "metar_trigger": false,
      "taf_trigger": false,
      "metar": "METAR OEJN 110700Z 00000KT 8000 NSC 30/16 Q1014 NOSIG",
      "taf": "TAF OEJN 110500Z 1106/1212 27010KT 7000 NSC"
    },
    {
      "icao": "OEMA",
      "alert": "OK",
      "vis_m": 9999,
      "fzfg": false,
      "metar_trigger": false,
      "taf_trigger": false,
      "metar": "METAR OEMA 110700Z 13003KT CAVOK 24/08 Q1019 NOSIG",
      "taf": "TAF OEMA 110500Z 1106/1212 26010KT CAVOK"
    },
    {
      "icao": "OJAI",
      "alert": "OK",
      "vis_m": 4000,
      "fzfg": false,
      "metar_trigger": false,
      "taf_trigger": false,
      "metar": "METAR OJAI 110700Z 27009KT 4000 HZ NSC 13/08 Q1016 NOSIG",
      "taf": "TAF OJAI 110441Z 1106/1212 27010KT 5000 HZ FEW035"
    },
    {
      "icao": "OMAA",
      "alert": "OK",
      "vis_m": 9999,
      "fzfg": false,
      "metar_trigger": false,
      "taf_trigger": false,
      "metar": "METAR OMAA 110730Z 10003KT 040V140 CAVOK 23/18 Q1019 NOSIG",
      "taf": "TAF OMAA 110500Z 1106/1212 VRB02KT 1500 BR NSC"
    },
    {
      "icao": "OMDB",
      "alert": "OK",
      "vis_m": 9999,
      "fzfg": false,
      "metar_trigger": false,
      "taf_trigger": false,
      "metar": "METAR OMDB 110730Z 09008KT 060V120 CAVOK 27/09 Q1019 NOSIG",
      "taf": "TAF OMDB 110500Z 1106/1212 08005KT 4000 HZ NSC"
    },
    {
      "icao": "UAAA",
      "alert": "OK",
      "vis_m": 9999,
      "fzfg": false,
      "metar_trigger": false,
      "taf_trigger": false,
      "metar": "METAR UAAA 110730Z 28008MPS 9999 BKN036CB OVC100 04/01 Q1019 TEMPO 34010G18MPS",
      "taf": "TAF UAAA 110509Z 1106/1206 26003G08MPS 3100 -SHRA BR BKN050CB OVC100 TX10/1106Z TNM03/1203Z"
    },
    {
      "icao": "UBBB",
      "alert": "OK",
      "vis_m": 9999,
      "fzfg": false,
      "metar_trigger": false,
      "taf_trigger": false,
      "metar": "METAR UBBB 110730Z 11008KT 9999 SCT008 02/01 Q1019 NOSIG",
      "taf": "TAF UBBB 110459Z 1106/1206 13008KT 9999 SCT015 OVC030 TX04/1110Z TN02/1202Z"
    },
    {
      "icao": "UDSG",
      "alert": "OK",
      "vis_m": 9000,
      "fzfg": false,
      "metar_trigger": false,
      "taf_trigger": false,
      "metar": "METAR UDSG 110730Z 02002KT 9000 -SN OVC016 M01/M03 Q1010 NOSIG",
      "taf": "TAF UDSG 110458Z 1106/1206 VRB06KT 3000 BR OVC020"
    },
    {
      "icao": "UDYZ",
      "alert": "OK",
      "vis_m": 5000,
      "fzfg": false,
      "metar_trigger": false,
      "taf_trigger": false,
      "metar": "METAR UDYZ 110730Z 26001KT 5000 BR BKN020 01/00 Q1011 NOSIG",
      "taf": "TAF UDYZ 110500Z 1106/1206 16006KT 2300 BR BKN020"
    },
    {
      "icao": "UGKO",
      "alert": "OK",
      "vis_m": 9999,
      "fzfg": false,
      "metar_trigger": false,
      "taf_trigger": false,
      "metar": "METAR UGKO 110730Z 09025KT CAVOK 06/M01 Q1010 NOSIG",
      "taf": "TAF UGKO 110500Z 1106/1206 08017KT 9999 BKN050 TX08/1111Z TN04/1202Z"
    }
  ]
}