{
  "ts_utc": "2026-05-27T14:01:08Z",
  "threshold_m": 150,
  "source": "stations_override.txt (ICAO list) + aviationweather.gov (METAR/TAF raw)",
  "station_count": 159,
  "stations": [
    {
      "icao": "BIKF",
      "alert": "OK",
      "vis_m": 9999,
      "fzfg": false,
      "metar_trigger": false,
      "taf_trigger": false,
      "metar": "METAR BIKF 271330Z 23016KT 9999 FEW026 BKN041 09/03 Q1020",
      "taf": "TAF BIKF 271331Z 2715/2815 22015KT 9999 FEW018 BKN032 TX08/2715Z TN05/2803Z"
    },
    {
      "icao": "BKPR",
      "alert": "OK",
      "vis_m": 9999,
      "fzfg": false,
      "metar_trigger": false,
      "taf_trigger": false,
      "metar": "METAR BKPR 271400Z 02005KT 330V120 9999 FEW040 29/09 Q1017 NOSIG",
      "taf": "TAF BKPR 271130Z 2712/2812 01008KT 9999 FEW050"
    },
    {
      "icao": "EBCI",
      "alert": "OK",
      "vis_m": 9999,
      "fzfg": false,
      "metar_trigger": false,
      "taf_trigger": false,
      "metar": "METAR EBCI 271350Z 06010KT 020V100 CAVOK 27/15 Q1025 NOSIG",
      "taf": "TAF EBCI 271120Z 2712/2818 06008KT CAVOK"
    },
    {
      "icao": "EDDB",
      "alert": "OK",
      "vis_m": 9999,
      "fzfg": false,
      "metar_trigger": false,
      "taf_trigger": false,
      "metar": "METAR EDDB 271350Z AUTO 28010KT 250V330 CAVOK 23/06 Q1022 NOSIG",
      "taf": "TAF EDDB 271100Z 2712/2812 32012KT CAVOK"
    },
    {
      "icao": "EDDH",
      "alert": "OK",
      "vis_m": 9999,
      "fzfg": false,
      "metar_trigger": false,
      "taf_trigger": false,
      "metar": "METAR EDDH 271350Z AUTO 29012KT 260V320 CAVOK 20/08 Q1025 NOSIG",
      "taf": "TAF EDDH 271100Z 2712/2818 31011KT CAVOK"
    },
    {
      "icao": "EDDK",
      "alert": "OK",
      "vis_m": 9999,
      "fzfg": false,
      "metar_trigger": false,
      "taf_trigger": false,
      "metar": "METAR EDDK 271350Z AUTO 02008KT 340V050 CAVOK 27/12 Q1024 NOSIG",
      "taf": "TAF EDDK 271100Z 2712/2818 35009KT CAVOK"
    },
    {
      "icao": "EDDN",
      "alert": "OK",
      "vis_m": 9999,
      "fzfg": false,
      "metar_trigger": false,
      "taf_trigger": false,
      "metar": "METAR EDDN 271350Z AUTO 32010KT 280V360 CAVOK 30/11 Q1021 NOSIG",
      "taf": "TAF EDDN 271100Z 2712/2812 34009KT CAVOK"
    },
    {
      "icao": "EDDS",
      "alert": "OK",
      "vis_m": 9999,
      "fzfg": false,
      "metar_trigger": false,
      "taf_trigger": false,
      "metar": "METAR EDDS 271350Z AUTO 01011KT 320V060 CAVOK 29/12 Q1022 NOSIG",
      "taf": "TAF EDDS 271100Z 2712/2812 36007KT CAVOK"
    },
    {
      "icao": "EDFH",
      "alert": "OK",
      "vis_m": 9999,
      "fzfg": false,
      "metar_trigger": false,
      "taf_trigger": false,
      "metar": "METAR EDFH 271350Z 35011KT 320V020 9999 FEW042 26/15 Q1025",
      "taf": "TAF EDFH 271100Z 2712/2812 01008KT CAVOK"
    },
    {
      "icao": "EDJA",
      "alert": "OK",
      "vis_m": 9999,
      "fzfg": false,
      "metar_trigger": false,
      "taf_trigger": false,
      "metar": "METAR EDJA 271350Z 01009KT 330V040 CAVOK 27/11 Q1023",
      "taf": "TAF EDJA 271100Z 2712/2721 31007KT CAVOK"
    },
    {
      "icao": "EDLW",
      "alert": "OK",
      "vis_m": 9999,
      "fzfg": false,
      "metar_trigger": false,
      "taf_trigger": false,
      "metar": "METAR EDLW 271350Z 03007KT 340V060 CAVOK 22/09 Q1026",
      "taf": "TAF EDLW 271100Z 2712/2812 03006KT CAVOK"
    },
    {
      "icao": "EDNY",
      "alert": "OK",
      "vis_m": 9999,
      "fzfg": false,
      "metar_trigger": false,
      "taf_trigger": false,
      "metar": "METAR EDNY 271350Z VRB02KT 9999 FEW050 29/13 Q1022",
      "taf": ""
    },
    {
      "icao": "EDSB",
      "alert": "OK",
      "vis_m": 9999,
      "fzfg": false,
      "metar_trigger": false,
      "taf_trigger": false,
      "metar": "METAR EDSB 271350Z 02010KT CAVOK 30/13 Q1021",
      "taf": "TAF EDSB 271100Z 2712/2812 01008KT CAVOK"
    },
    {
      "icao": "EETN",
      "alert": "OK",
      "vis_m": 9999,
      "fzfg": false,
      "metar_trigger": false,
      "taf_trigger": false,
      "metar": "METAR EETN 271350Z 32004KT 9999 -SHRA SCT026CB BKN041 09/08 Q1006 TEMPO 5000 SHRA",
      "taf": "TAF EETN 271130Z 2712/2812 28019KT 9999 FEW030CB BKN045"
    },
    {
      "icao": "EFTU",
      "alert": "OK",
      "vis_m": 9999,
      "fzfg": false,
      "metar_trigger": false,
      "taf_trigger": false,
      "metar": "METAR EFTU 271350Z AUTO 01011KT 340V040 9999 BKN039 //////CB 10/03 Q1007",
      "taf": "TAF EFTU 271131Z 2712/2812 31013KT 9999 BKN040"
    },
    {
      "icao": "EGBB",
      "alert": "OK",
      "vis_m": 9999,
      "fzfg": false,
      "metar_trigger": false,
      "taf_trigger": false,
      "metar": "METAR EGBB 271350Z 11010KT 060V130 CAVOK 25/14 Q1025",
      "taf": "TAF EGBB 271055Z 2712/2812 08009KT 9999 FEW030"
    },
    {
      "icao": "EGGP",
      "alert": "OK",
      "vis_m": 9999,
      "fzfg": false,
      "metar_trigger": false,
      "taf_trigger": false,
      "metar": "METAR EGGP 271320Z 11013KT CAVOK 23/13 Q1025",
      "taf": "TAF EGGP 271053Z 2712/2812 11010KT 9999 FEW045"
    },
    {
      "icao": "EGGW",
      "alert": "OK",
      "vis_m": 9999,
      "fzfg": false,
      "metar_trigger": false,
      "taf_trigger": false,
      "metar": "METAR EGGW 271350Z AUTO 13010KT 9999 NCD 26/13 Q1025",
      "taf": "TAF EGGW 271057Z 2712/2812 10010KT CAVOK"
    },
    {
      "icao": "EGKK",
      "alert": "OK",
      "vis_m": 9999,
      "fzfg": false,
      "metar_trigger": false,
      "taf_trigger": false,
      "metar": "METAR EGKK 271350Z 07012KT 030V120 CAVOK 27/16 Q1024",
      "taf": "TAF EGKK 271056Z 2712/2818 07010KT CAVOK"
    },
    {
      "icao": "EGNM",
      "alert": "OK",
      "vis_m": 9999,
      "fzfg": false,
      "metar_trigger": false,
      "taf_trigger": false,
      "metar": "METAR EGNM 271350Z 08009KT 030V100 CAVOK 17/10 Q1028",
      "taf": "TAF EGNM 271054Z 2712/2812 08008KT 9999 SCT035"
    },
    {
      "icao": "EGPD",
      "alert": "OK",
      "vis_m": 9999,
      "fzfg": false,
      "metar_trigger": false,
      "taf_trigger": false,
      "metar": "METAR EGPD 271350Z COR AUTO 14013KT 9999 NCD 15/06 Q1030 NOSIG",
      "taf": "TAF EGPD 271054Z 2712/2812 16010KT 9999 SCT025"
    },
    {
      "icao": "EGPF",
      "alert": "OK",
      "vis_m": 9999,
      "fzfg": false,
      "metar_trigger": false,
      "taf_trigger": false,
      "metar": "METAR EGPF 271350Z AUTO 06013KT 9999 OVC041 19/11 Q1027",
      "taf": "TAF EGPF 271055Z 2712/2812 06012KT 9999 BKN040"
    },
    {
      "icao": "EHBK",
      "alert": "OK",
      "vis_m": 9999,
      "fzfg": false,
      "metar_trigger": false,
      "taf_trigger": false,
      "metar": "METAR EHBK 271355Z AUTO 05010KT 360V090 9999 NCD 26/13 Q1025 NOSIG",
      "taf": "TAF EHBK 271048Z 2712/2818 03007KT CAVOK"
    },
    {
      "icao": "EHEH",
      "alert": "OK",
      "vis_m": 9999,
      "fzfg": false,
      "metar_trigger": false,
      "taf_trigger": false,
      "metar": "METAR EHEH 271325Z AUTO 03008KT 330V060 9999 NCD 25/12 Q1026 BLU NOSIG RMK TREND REMOTE BY EHWX",
      "taf": "TAF EHEH 271104Z 2712/2818 05007KT CAVOK"
    },
    {
      "icao": "EKBI",
      "alert": "OK",
      "vis_m": 9999,
      "fzfg": false,
      "metar_trigger": false,
      "taf_trigger": false,
      "metar": "METAR EKBI 271350Z AUTO 31017KT 9999 NCD 16/04 Q1026",
      "taf": "TAF EKBI 271127Z 2712/2812 31012KT CAVOK"
    },
    {
      "icao": "EKCH",
      "alert": "OK",
      "vis_m": 9999,
      "fzfg": false,
      "metar_trigger": false,
      "taf_trigger": false,
      "metar": "METAR EKCH 271350Z AUTO 31017KT 280V350 9999 NCD 17/02 Q1023 NOSIG",
      "taf": "TAF EKCH 271127Z 2712/2812 32012KT CAVOK"
    },
    {
      "icao": "ENAL",
      "alert": "OK",
      "vis_m": 9999,
      "fzfg": false,
      "metar_trigger": false,
      "taf_trigger": false,
      "metar": "METAR ENAL 271350Z 30008KT 270V340 9999 SCT021 SCT032 10/05 Q1028",
      "taf": "TAF ENAL 271100Z 2712/2721 30008KT 9999 FEW015 BKN030"
    },
    {
      "icao": "ENBR",
      "alert": "OK",
      "vis_m": 9999,
      "fzfg": false,
      "metar_trigger": false,
      "taf_trigger": false,
      "metar": "METAR ENBR 271350Z 31011KT 9999 FEW026 SCT032 12/05 Q1028 NOSIG RMK WIND 1200FT 32016KT",
      "taf": "TAF ENBR 271100Z 2712/2812 31008KT 9999 SCT020 BKN030"
    },
    {
      "icao": "ENGM",
      "alert": "OK",
      "vis_m": 9999,
      "fzfg": false,
      "metar_trigger": false,
      "taf_trigger": false,
      "metar": "METAR ENGM 271350Z 04009KT CAVOK 15/M03 Q1020 NOSIG",
      "taf": "TAF ENGM 271100Z 2712/2812 35007KT CAVOK"
    },
    {
      "icao": "ENHD",
      "alert": "OK",
      "vis_m": 9999,
      "fzfg": false,
      "metar_trigger": false,
      "taf_trigger": false,
      "metar": "METAR ENHD 271350Z 30015KT 9999 FEW015 13/07 Q1029",
      "taf": "TAF ENHD 271100Z 2712/2721 32012KT 9999 FEW012 SCT045"
    },
    {
      "icao": "ENTC",
      "alert": "OK",
      "vis_m": 9999,
      "fzfg": false,
      "metar_trigger": false,
      "taf_trigger": false,
      "metar": "METAR ENTC 271350Z 32011KT 9999 SCT030 BKN045 10/03 Q1014 NOSIG RMK WIND 2600FT 31018KT",
      "taf": "TAF ENTC 271100Z 2712/2812 35007KT 9999 BKN045"
    },
    {
      "icao": "ENTO",
      "alert": "OK",
      "vis_m": 9999,
      "fzfg": false,
      "metar_trigger": false,
      "taf_trigger": false,
      "metar": "METAR ENTO 271350Z 15010KT 120V180 CAVOK 17/03 Q1021 NOSIG",
      "taf": "TAF ENTO 271100Z 2712/2812 33010KT CAVOK"
    },
    {
      "icao": "ENVA",
      "alert": "OK",
      "vis_m": 9999,
      "fzfg": false,
      "metar_trigger": false,
      "taf_trigger": false,
      "metar": "METAR ENVA 271350Z 26019KT 9999 FEW018 SCT026 BKN034 09/06 Q1024 NOSIG RMK WIND 670FT 27019G32KT",
      "taf": "TAF ENVA 271100Z 2712/2812 26015KT 9999 -SHRA SCT015 BKN030"
    },
    {
      "icao": "ENZV",
      "alert": "OK",
      "vis_m": 9999,
      "fzfg": false,
      "metar_trigger": false,
      "taf_trigger": false,
      "metar": "METAR ENZV 271350Z 31019KT CAVOK 12/06 Q1029 NOSIG",
      "taf": "TAF ENZV 271100Z 2712/2812 32015KT 9999 SCT018"
    },
    {
      "icao": "EPGD",
      "alert": "OK",
      "vis_m": 9999,
      "fzfg": false,
      "metar_trigger": false,
      "taf_trigger": false,
      "metar": "METAR EPGD 271330Z 32012KT 300V010 9999 SCT045 17/06 Q1019",
      "taf": "TAF EPGD 271130Z 2712/2812 31015KT CAVOK"
    },
    {
      "icao": "EPKK",
      "alert": "OK",
      "vis_m": 9999,
      "fzfg": false,
      "metar_trigger": false,
      "taf_trigger": false,
      "metar": "METAR EPKK 271330Z 30015KT 9999 FEW066 25/09 Q1016",
      "taf": "TAF EPKK 271130Z 2712/2812 32015KT CAVOK"
    },
    {
      "icao": "EPKT",
      "alert": "OK",
      "vis_m": 9999,
      "fzfg": false,
      "metar_trigger": false,
      "taf_trigger": false,
      "metar": "METAR EPKT 271330Z 33013KT 290V350 CAVOK 23/06 Q1017",
      "taf": "TAF EPKT 271130Z 2712/2812 32014KT CAVOK"
    },
    {
      "icao": "EPLB",
      "alert": "OK",
      "vis_m": 9999,
      "fzfg": false,
      "metar_trigger": false,
      "taf_trigger": false,
      "metar": "METAR EPLB 271330Z 33010KT 280V010 CAVOK 23/05 Q1013",
      "taf": "TAF EPLB 271130Z 2712/2812 31015KT CAVOK"
    },
    {
      "icao": "EPMO",
      "alert": "OK",
      "vis_m": 9999,
      "fzfg": false,
      "metar_trigger": false,
      "taf_trigger": false,
      "metar": "METAR EPMO 271330Z 30014KT 260V340 CAVOK 22/03 Q1016",
      "taf": "TAF EPMO 271130Z 2712/2812 30015KT CAVOK"
    },
    {
      "icao": "EPPO",
      "alert": "OK",
      "vis_m": 9999,
      "fzfg": false,
      "metar_trigger": false,
      "taf_trigger": false,
      "metar": "METAR EPPO 271330Z 32010KT 290V360 CAVOK 23/03 Q1019",
      "taf": "TAF EPPO 271130Z 2712/2812 32012KT CAVOK"
    },
    {
      "icao": "EPRA",
      "alert": "OK",
      "vis_m": 9999,
      "fzfg": false,
      "metar_trigger": false,
      "taf_trigger": false,
      "metar": "METAR EPRA 271330Z 33016KT 290V350 CAVOK 22/01 Q1015",
      "taf": "TAF EPRA 271130Z 2712/2721 32013KT CAVOK"
    },
    {
      "icao": "EPRZ",
      "alert": "OK",
      "vis_m": 9999,
      "fzfg": false,
      "metar_trigger": false,
      "taf_trigger": false,
      "metar": "METAR EPRZ 271330Z 34015KT 300V360 CAVOK 23/06 Q1014",
      "taf": "TAF EPRZ 271130Z 2712/2812 30016KT CAVOK"
    },
    {
      "icao": "EPSC",
      "alert": "OK",
      "vis_m": 9999,
      "fzfg": false,
      "metar_trigger": false,
      "taf_trigger": false,
      "metar": "METAR EPSC 271330Z 29017KT CAVOK 18/04 Q1022",
      "taf": "TAF EPSC 271130Z 2712/2812 31015KT CAVOK"
    },
    {
      "icao": "EPSY",
      "alert": "OK",
      "vis_m": 9999,
      "fzfg": false,
      "metar_trigger": false,
      "taf_trigger": false,
      "metar": "METAR EPSY 271330Z 33016G28KT 300V010 CAVOK 18/05 Q1016",
      "taf": "TAF EPSY 271130Z 2712/2721 33012KT CAVOK"
    },
    {
      "icao": "EPWA",
      "alert": "OK",
      "vis_m": 9999,
      "fzfg": false,
      "metar_trigger": false,
      "taf_trigger": false,
      "metar": "METAR EPWA 271330Z 31018KT 270V340 CAVOK 21/02 Q1015 NOSIG",
      "taf": "TAF EPWA 271130Z 2712/2812 30015KT CAVOK"
    },
    {
      "icao": "EPWR",
      "alert": "OK",
      "vis_m": 9999,
      "fzfg": false,
      "metar_trigger": false,
      "taf_trigger": false,
      "metar": "METAR EPWR 271330Z 33017KT CAVOK 24/01 Q1019",
      "taf": "TAF EPWR 271130Z 2712/2812 32013KT CAVOK"
    },
    {
      "icao": "ESGG",
      "alert": "OK",
      "vis_m": 9999,
      "fzfg": false,
      "metar_trigger": false,
      "taf_trigger": false,
      "metar": "METAR ESGG 271350Z 29012KT 260V320 CAVOK 15/00 Q1021",
      "taf": "TAF ESGG 271130Z 2712/2812 33012G25KT CAVOK"
    },
    {
      "icao": "ESKN",
      "alert": "OK",
      "vis_m": 9999,
      "fzfg": false,
      "metar_trigger": false,
      "taf_trigger": false,
      "metar": "METAR ESKN 271350Z 30018G29KT 270V350 CAVOK 17/00 Q1015",
      "taf": "TAF ESKN 271130Z 2712/2812 32018G28KT 9999 FEW030"
    },
    {
      "icao": "ESMS",
      "alert": "OK",
      "vis_m": 9999,
      "fzfg": false,
      "metar_trigger": false,
      "taf_trigger": false,
      "metar": "METAR ESMS 271350Z 30019KT CAVOK 16/03 Q1022",
      "taf": "TAF ESMS 271127Z 2712/2812 29015KT CAVOK"
    },
    {
      "icao": "ESSA",
      "alert": "OK",
      "vis_m": 9999,
      "fzfg": false,
      "metar_trigger": false,
      "taf_trigger": false,
      "metar": "METAR ESSA 271350Z 29010KT 9999 SHRA FEW035CB 12/07 Q1014 TEMPO SHRA FEW050CB",
      "taf": ""
    },
    {
      "icao": "EYKA",
      "alert": "OK",
      "vis_m": 9999,
      "fzfg": false,
      "metar_trigger": false,
      "taf_trigger": false,
      "metar": "METAR EYKA 271350Z 32013G27KT 280V020 CAVOK 17/02 Q1011",
      "taf": ""
    },
    {
      "icao": "EYPA",
      "alert": "OK",
      "vis_m": 9999,
      "fzfg": false,
      "metar_trigger": false,
      "taf_trigger": false,
      "metar": "METAR EYPA 271350Z 32006KT 260V360 CAVOK 13/06 Q1016",
      "taf": ""
    },
    {
      "icao": "EYVI",
      "alert": "OK",
      "vis_m": 9999,
      "fzfg": false,
      "metar_trigger": false,
      "taf_trigger": false,
      "metar": "METAR EYVI 271350Z 33017G28KT CAVOK 15/01 Q1009 NOSIG",
      "taf": "TAF EYVI 271100Z 2712/2812 32015KT 9000 SCT045"
    },
    {
      "icao": "GCFV",
      "alert": "OK",
      "vis_m": 9999,
      "fzfg": false,
      "metar_trigger": false,
      "taf_trigger": false,
      "metar": "METAR GCFV 271330Z 05016KT CAVOK 26/18 Q1018",
      "taf": ""
    },
    {
      "icao": "GCLP",
      "alert": "OK",
      "vis_m": 9999,
      "fzfg": false,
      "metar_trigger": false,
      "taf_trigger": false,
      "metar": "METAR GCLP 271330Z 03027KT 9999 FEW020 24/17 Q1019 NOSIG",
      "taf": "TAF GCLP 270800Z 2709/2809 03023KT CAVOK TX30/2714Z TN20/2806Z"
    },
    {
      "icao": "GCTS",
      "alert": "OK",
      "vis_m": 9999,
      "fzfg": false,
      "metar_trigger": false,
      "taf_trigger": false,
      "metar": "METAR GCTS 271330Z 10017KT CAVOK 24/17 Q1020 NOSIG",
      "taf": "TAF GCTS 270800Z 2709/2809 12017KT CAVOK TX30/2714Z TN20/2806Z"
    },
    {
      "icao": "GMAD",
      "alert": "OK",
      "vis_m": 8000,
      "fzfg": false,
      "metar_trigger": false,
      "taf_trigger": false,
      "metar": "METAR GMAD 271330Z 24013KT 8000 NSC 27/18 Q1017 NOSIG",
      "taf": "TAF GMAD 271100Z 2712/2818 26010KT 8000 NSC"
    },
    {
      "icao": "GMMN",
      "alert": "OK",
      "vis_m": 9999,
      "fzfg": false,
      "metar_trigger": false,
      "taf_trigger": false,
      "metar": "METAR GMMN 271330Z 31015KT CAVOK 33/17 Q1016 NOSIG",
      "taf": "TAF GMMN 271100Z 2712/2818 35014KT CAVOK"
    },
    {
      "icao": "GMMX",
      "alert": "OK",
      "vis_m": 9999,
      "fzfg": false,
      "metar_trigger": false,
      "taf_trigger": false,
      "metar": "METAR GMMX 271330Z 35004KT 290V070 9999 FEW033 SCT100 38/05 Q1017 NOSIG",
      "taf": "TAF GMMX 271100Z 2712/2818 24006KT 8000 NSC"
    },
    {
      "icao": "HEGN",
      "alert": "OK",
      "vis_m": 9999,
      "fzfg": false,
      "metar_trigger": false,
      "taf_trigger": false,
      "metar": "METAR HEGN 271300Z 36016KT CAVOK 30/11 Q1010 NOSIG",
      "taf": "TAF HEGN 271100Z 2712/2818 36010G22KT CAVOK"
    },
    {
      "icao": "HEMA",
      "alert": "OK",
      "vis_m": 9999,
      "fzfg": false,
      "metar_trigger": false,
      "taf_trigger": false,
      "metar": "METAR HEMA 271300Z 36014KT CAVOK 29/13 Q1010 NOSIG",
      "taf": "TAF HEMA 271100Z 2712/2818 35012G24KT CAVOK"
    },
    {
      "icao": "HESH",
      "alert": "OK",
      "vis_m": 9999,
      "fzfg": false,
      "metar_trigger": false,
      "taf_trigger": false,
      "metar": "METAR HESH 271300Z 02008KT CAVOK 31/15 Q1010 NOSIG",
      "taf": "TAF HESH 271100Z 2712/2818 02014KT CAVOK"
    },
    {
      "icao": "HESX",
      "alert": "OK",
      "vis_m": 9999,
      "fzfg": false,
      "metar_trigger": false,
      "taf_trigger": false,
      "metar": "METAR HESX 271300Z 06006KT CAVOK 29/11 Q1014 NOSIG",
      "taf": "TAF HESX 271100Z 2712/2818 01006KT CAVOK"
    },
    {
      "icao": "LATI",
      "alert": "OK",
      "vis_m": 9999,
      "fzfg": false,
      "metar_trigger": false,
      "taf_trigger": false,
      "metar": "METAR LATI 271350Z 33008KT 260V360 CAVOK 31/17 Q1014 NOSIG",
      "taf": "TAF LATI 271100Z 2712/2812 34012KT CAVOK TX33/2712Z TN15/2804Z"
    },
    {
      "icao": "LBPD",
      "alert": "OK",
      "vis_m": 9999,
      "fzfg": false,
      "metar_trigger": false,
      "taf_trigger": false,
      "metar": "METAR LBPD 271330Z AUTO 08005KT 050V120 9999 NCD 30/11 Q1014 NOSIG",
      "taf": "TAF LBPD 271100Z 2712/2812 VRB03KT 9999 SCT070"
    },
    {
      "icao": "LBSF",
      "alert": "OK",
      "vis_m": 9999,
      "fzfg": false,
      "metar_trigger": false,
      "taf_trigger": false,
      "metar": "METAR LBSF 271330Z VRB05KT 9999 FEW065 29/12 Q1016 NOSIG",
      "taf": "TAF LBSF 271100Z 2712/2812 32006KT 9999 SCT060"
    },
    {
      "icao": "LBWN",
      "alert": "OK",
      "vis_m": 9999,
      "fzfg": false,
      "metar_trigger": false,
      "taf_trigger": false,
      "metar": "METAR LBWN 271330Z AUTO VRB03KT 9999 NSC 30/16 Q1013 NOSIG",
      "taf": "TAF LBWN 271100Z 2712/2812 23010KT CAVOK"
    },
    {
      "icao": "LCLK",
      "alert": "OK",
      "vis_m": 9999,
      "fzfg": false,
      "metar_trigger": false,
      "taf_trigger": false,
      "metar": "METAR LCLK 271330Z 19010KT 160V220 9999 FEW035 28/20 Q1012 NOSIG",
      "taf": "TAF LCLK 271130Z 2712/2812 21014KT 9999 FEW035"
    },
    {
      "icao": "LCPH",
      "alert": "OK",
      "vis_m": 9999,
      "fzfg": false,
      "metar_trigger": false,
      "taf_trigger": false,
      "metar": "METAR LCPH 271330Z 31015KT 250V320 9999 FEW020 24/20 Q1012 NOSIG",
      "taf": "TAF LCPH 271130Z 2712/2812 31015KT 9999 FEW020"
    },
    {
      "icao": "LEAL",
      "alert": "OK",
      "vis_m": 9999,
      "fzfg": false,
      "metar_trigger": false,
      "taf_trigger": false,
      "metar": "METAR LEAL 271330Z 11008KT 070V140 CAVOK 28/08 Q1022 NOSIG",
      "taf": "TAF LEAL 271100Z 2712/2812 09009KT CAVOK TX28/2712Z TN16/2806Z"
    },
    {
      "icao": "LEBB",
      "alert": "OK",
      "vis_m": 9999,
      "fzfg": false,
      "metar_trigger": false,
      "taf_trigger": false,
      "metar": "METAR LEBB 271330Z 29007KT 240V320 CAVOK 32/20 Q1019 NOSIG",
      "taf": "TAF LEBB 271100Z 2712/2812 12005KT CAVOK TX36/2713Z TN17/2804Z"
    },
    {
      "icao": "LEBL",
      "alert": "OK",
      "vis_m": 9999,
      "fzfg": false,
      "metar_trigger": false,
      "taf_trigger": false,
      "metar": "METAR LEBL 271330Z 22017KT CAVOK 26/19 Q1021 NOSIG",
      "taf": "TAF LEBL 271100Z 2712/2812 23013KT CAVOK TX28/2712Z TN20/2806Z"
    },
    {
      "icao": "LECH",
      "alert": "OK",
      "vis_m": 9999,
      "fzfg": false,
      "metar_trigger": false,
      "taf_trigger": false,
      "metar": "METAR LECH 271330Z AUTO 12012KT 080V150 CAVOK 29/06 Q1022",
      "taf": ""
    },
    {
      "icao": "LEMD",
      "alert": "OK",
      "vis_m": 9999,
      "fzfg": false,
      "metar_trigger": false,
      "taf_trigger": false,
      "metar": "METAR LEMD 271330Z 14003KT CAVOK 33/08 Q1022 NOSIG",
      "taf": "TAF LEMD 271100Z 2712/2818 VRB04KT CAVOK TX35/2716Z TN14/2805Z"
    },
    {
      "icao": "LEMG",
      "alert": "OK",
      "vis_m": 9999,
      "fzfg": false,
      "metar_trigger": false,
      "taf_trigger": false,
      "metar": "METAR LEMG 271330Z 12008KT 070V170 CAVOK 25/13 Q1022 NOSIG",
      "taf": "TAF LEMG 271100Z 2712/2812 13010KT CAVOK TX27/2714Z TN17/2807Z"
    },
    {
      "icao": "LEVC",
      "alert": "OK",
      "vis_m": 9999,
      "fzfg": false,
      "metar_trigger": false,
      "taf_trigger": false,
      "metar": "METAR LEVC 271330Z 13011KT 090V150 CAVOK 29/11 Q1021 NOSIG",
      "taf": "TAF LEVC 271100Z 2712/2812 12009KT CAVOK TX31/2712Z TN16/2806Z"
    },
    {
      "icao": "LEXJ",
      "alert": "OK",
      "vis_m": 9999,
      "fzfg": false,
      "metar_trigger": false,
      "taf_trigger": false,
      "metar": "METAR LEXJ 271330Z 06005KT 340V150 CAVOK 24/19 Q1019",
      "taf": "TAF LEXJ 270800Z 2709/2809 05008KT CAVOK TX32/2713Z TN15/2805Z"
    },
    {
      "icao": "LEZG",
      "alert": "OK",
      "vis_m": 9999,
      "fzfg": false,
      "metar_trigger": false,
      "taf_trigger": false,
      "metar": "METAR LEZG 271330Z 01003KT CAVOK 33/07 Q1020 NOSIG",
      "taf": "TAF LEZG 271100Z 2712/2812 VRB04KT CAVOK TX36/2715Z TN20/2806Z"
    },
    {
      "icao": "LEZL",
      "alert": "OK",
      "vis_m": 9999,
      "fzfg": false,
      "metar_trigger": false,
      "taf_trigger": false,
      "metar": "METAR LEZL 271330Z 13014KT CAVOK 35/03 Q1018 NOSIG",
      "taf": "TAF LEZL 270800Z 2709/2809 09012KT CAVOK TX37/2715Z TN16/2807Z"
    },
    {
      "icao": "LFBD",
      "alert": "OK",
      "vis_m": 9999,
      "fzfg": false,
      "metar_trigger": false,
      "taf_trigger": false,
      "metar": "METAR LFBD 271330Z AUTO VRB04KT CAVOK 36/11 Q1020 NOSIG",
      "taf": "TAF LFBD 271100Z 2712/2818 12005KT CAVOK TX39/2814Z TN21/2805Z"
    },
    {
      "icao": "LFLL",
      "alert": "OK",
      "vis_m": 9999,
      "fzfg": false,
      "metar_trigger": false,
      "taf_trigger": false,
      "metar": "METAR LFLL 271330Z 36009KT CAVOK 32/15 Q1021 NOSIG",
      "taf": "TAF LFLL 271100Z 2712/2818 36006KT CAVOK"
    },
    {
      "icao": "LFLS",
      "alert": "OK",
      "vis_m": 9999,
      "fzfg": false,
      "metar_trigger": false,
      "taf_trigger": false,
      "metar": "METAR LFLS 271330Z AUTO 35007KT 300V030 CAVOK 30/16 Q1022 NOSIG",
      "taf": "TAF LFLS 270800Z 2709/2809 09006KT CAVOK"
    },
    {
      "icao": "LFMN",
      "alert": "OK",
      "vis_m": 9999,
      "fzfg": false,
      "metar_trigger": false,
      "taf_trigger": false,
      "metar": "METAR LFMN 271330Z 17005KT CAVOK 26/19 Q1018 NOSIG",
      "taf": "TAF LFMN 270800Z 2709/2815 09007KT CAVOK"
    },
    {
      "icao": "LFOB",
      "alert": "OK",
      "vis_m": 9999,
      "fzfg": false,
      "metar_trigger": false,
      "taf_trigger": false,
      "metar": "METAR LFOB 271330Z AUTO 06007KT 010V090 CAVOK 31/16 Q1023 NOSIG",
      "taf": "TAF LFOB 271100Z 2712/2812 07007KT CAVOK"
    },
    {
      "icao": "LFPO",
      "alert": "OK",
      "vis_m": 9999,
      "fzfg": false,
      "metar_trigger": false,
      "taf_trigger": false,
      "metar": "METAR LFPO 271330Z VRB03KT CAVOK 31/14 Q1023 NOSIG",
      "taf": "TAF LFPO 271100Z 2712/2818 07005KT CAVOK"
    },
    {
      "icao": "LFSB",
      "alert": "OK",
      "vis_m": 9999,
      "fzfg": false,
      "metar_trigger": false,
      "taf_trigger": false,
      "metar": "METAR LFSB 271330Z AUTO VRB05KT CAVOK 32/09 Q1021 TEMPO FEW070TCU",
      "taf": "TAF LFSB 271125Z 2712/2812 34007KT CAVOK"
    },
    {
      "icao": "LGAV",
      "alert": "OK",
      "vis_m": 9999,
      "fzfg": false,
      "metar_trigger": false,
      "taf_trigger": false,
      "metar": "METAR LGAV 271350Z COR 05011KT 9999 FEW025 27/10 Q1015 NOSIG",
      "taf": "TAF LGAV 271100Z 2712/2812 04017KT 9999 FEW025"
    },
    {
      "icao": "LGTS",
      "alert": "OK",
      "vis_m": 9999,
      "fzfg": false,
      "metar_trigger": false,
      "taf_trigger": false,
      "metar": "METAR LGTS 271350Z 19010KT 9999 FEW020 31/14 Q1014 NOSIG",
      "taf": "TAF LGTS 271100Z 2712/2812 VRB03KT 9999 FEW025"
    },
    {
      "icao": "LHBP",
      "alert": "OK",
      "vis_m": 9999,
      "fzfg": false,
      "metar_trigger": false,
      "taf_trigger": false,
      "metar": "METAR LHBP 271330Z 32012KT 9999 FEW075CB SCT110 31/10 Q1014 TEMPO 20020G35KT",
      "taf": "TAF LHBP 271115Z 2712/2812 30012KT CAVOK"
    },
    {
      "icao": "LHDC",
      "alert": "OK",
      "vis_m": 9999,
      "fzfg": false,
      "metar_trigger": false,
      "taf_trigger": false,
      "metar": "METAR LHDC 271315Z AUTO 27011KT 210V310 CAVOK 32/06 Q1013 NOSIG",
      "taf": "TAF LHDC 271115Z 2712/2721 25008KT CAVOK"
    },
    {
      "icao": "LIBD",
      "alert": "OK",
      "vis_m": 9999,
      "fzfg": false,
      "metar_trigger": false,
      "taf_trigger": false,
      "metar": "METAR LIBD 271350Z 35006KT 310V080 CAVOK 27/15 Q1017",
      "taf": "TAF LIBD 271100Z 2712/2812 01012KT CAVOK"
    },
    {
      "icao": "LIBG",
      "alert": "OK",
      "vis_m": 9999,
      "fzfg": false,
      "metar_trigger": false,
      "taf_trigger": false,
      "metar": "METAR LIBG 271350Z AUTO 02012KT 9999 NCD 33/12 Q1015",
      "taf": "TAF LIBG 271100Z 2712/2812 35012KT 9999 SCT030"
    },
    {
      "icao": "LIBP",
      "alert": "OK",
      "vis_m": 9999,
      "fzfg": false,
      "metar_trigger": false,
      "taf_trigger": false,
      "metar": "METAR LIBP 271350Z AUTO 04007KT 010V070 9999 NCD 28/16 Q1017",
      "taf": "TAF LIBP 271100Z 2712/2812 04012KT 9999 SCT030"
    },
    {
      "icao": "LIBR",
      "alert": "OK",
      "vis_m": 9999,
      "fzfg": false,
      "metar_trigger": false,
      "taf_trigger": false,
      "metar": "METAR LIBR 271350Z 32013KT CAVOK 23/19 Q1016",
      "taf": "TAF LIBR 271100Z 2712/2812 33016KT CAVOK"
    },
    {
      "icao": "LICA",
      "alert": "OK",
      "vis_m": 9999,
      "fzfg": false,
      "metar_trigger": false,
      "taf_trigger": false,
      "metar": "METAR LICA 271350Z AUTO 23013KT 9999 NCD 24/20 Q1018",
      "taf": "TAF LICA 271100Z 2712/2812 26012KT 9999 SCT030"
    },
    {
      "icao": "LICC",
      "alert": "OK",
      "vis_m": 9999,
      "fzfg": false,
      "metar_trigger": false,
      "taf_trigger": false,
      "metar": "METAR LICC 271350Z 06010KT 9999 FEW060 28/18 Q1017",
      "taf": "TAF LICC 271100Z 2712/2812 09013KT 9999 FEW040"
    },
    {
      "icao": "LICJ",
      "alert": "OK",
      "vis_m": 9999,
      "fzfg": false,
      "metar_trigger": false,
      "taf_trigger": false,
      "metar": "METAR LICJ 271350Z 34007KT CAVOK 25/18 Q1019",
      "taf": "TAF LICJ 271100Z 2712/2812 34010KT CAVOK"
    },
    {
      "icao": "LIMC",
      "alert": "OK",
      "vis_m": 9999,
      "fzfg": false,
      "metar_trigger": false,
      "taf_trigger": false,
      "metar": "METAR LIMC 271350Z 26008KT CAVOK 32/14 Q1017 NOSIG",
      "taf": "TAF LIMC 271100Z 2712/2818 VRB05KT CAVOK"
    },
    {
      "icao": "LIME",
      "alert": "OK",
      "vis_m": 9999,
      "fzfg": false,
      "metar_trigger": false,
      "taf_trigger": false,
      "metar": "METAR LIME 271350Z VRB04KT CAVOK 33/13 Q1017 NOSIG",
      "taf": "TAF LIME 271100Z 2712/2812 VRB05KT 9999 FEW040"
    },
    {
      "icao": "LIMF",
      "alert": "OK",
      "vis_m": 9999,
      "fzfg": false,
      "metar_trigger": false,
      "taf_trigger": false,
      "metar": "METAR LIMF 271350Z 05004KT 300V110 CAVOK 33/16 Q1018",
      "taf": "TAF LIMF 271100Z 2712/2812 VRB05KT CAVOK"
    },
    {
      "icao": "LIMJ",
      "alert": "OK",
      "vis_m": 9999,
      "fzfg": false,
      "metar_trigger": false,
      "taf_trigger": false,
      "metar": "METAR LIMJ 271350Z 14006KT CAVOK 24/22 Q1019",
      "taf": "TAF LIMJ 271100Z 2712/2812 18010KT 9999 FEW040"
    },
    {
      "icao": "LIPE",
      "alert": "OK",
      "vis_m": 9999,
      "fzfg": false,
      "metar_trigger": false,
      "taf_trigger": false,
      "metar": "METAR LIPE 271350Z VRB03KT CAVOK 34/15 Q1016",
      "taf": "TAF LIPE 271100Z 2712/2812 VRB05KT 9999 SCT050"
    },
    {
      "icao": "LIPH",
      "alert": "OK",
      "vis_m": 9999,
      "fzfg": false,
      "metar_trigger": false,
      "taf_trigger": false,
      "metar": "METAR LIPH 271350Z 11004KT 080V150 CAVOK 29/22 Q1016",
      "taf": "TAF LIPH 271100Z 2712/2812 VRB05KT 9999 SCT050"
    },
    {
      "icao": "LIPQ",
      "alert": "OK",
      "vis_m": 9999,
      "fzfg": false,
      "metar_trigger": false,
      "taf_trigger": false,
      "metar": "METAR LIPQ 271350Z AUTO 24009KT 210V270 9999 NCD 31/17 Q1016",
      "taf": "TAF LIPQ 271100Z 2712/2812 22012KT 9999 SCT060"
    },
    {
      "icao": "LIPR",
      "alert": "OK",
      "vis_m": 9999,
      "fzfg": false,
      "metar_trigger": false,
      "taf_trigger": false,
      "metar": "METAR LIPR 271350Z 09007KT CAVOK 29/17 Q1017",
      "taf": "TAF LIPR 271100Z 2712/2812 06010KT 9999 SCT040"
    },
    {
      "icao": "LIPX",
      "alert": "OK",
      "vis_m": 9999,
      "fzfg": false,
      "metar_trigger": false,
      "taf_trigger": false,
      "metar": "METAR LIPX 271350Z 25008KT 210V290 CAVOK 34/15 Q1016",
      "taf": "TAF LIPX 271100Z 2712/2812 VRB05KT CAVOK"
    },
    {
      "icao": "LIPY",
      "alert": "OK",
      "vis_m": 9999,
      "fzfg": false,
      "metar_trigger": false,
      "taf_trigger": false,
      "metar": "METAR LIPY 271350Z AUTO 04006KT 9999 NCD 29/15 Q1017",
      "taf": "TAF LIPY 271100Z 2712/2812 VRB05KT 9999 SCT060"
    },
    {
      "icao": "LIPZ",
      "alert": "OK",
      "vis_m": 9999,
      "fzfg": false,
      "metar_trigger": false,
      "taf_trigger": false,
      "metar": "METAR LIPZ 271350Z 17004KT 150V210 CAVOK 28/22 Q1016 NOSIG",
      "taf": "TAF LIPZ 271100Z 2712/2818 17010KT 9999 SCT060"
    },
    {
      "icao": "LIRF",
      "alert": "OK",
      "vis_m": 9999,
      "fzfg": false,
      "metar_trigger": false,
      "taf_trigger": false,
      "metar": "METAR LIRF 271350Z 27008KT 240V300 CAVOK 26/17 Q1018 NOSIG",
      "taf": "TAF LIRF 271100Z 2712/2818 27013KT CAVOK"
    },
    {
      "icao": "LIRN",
      "alert": "OK",
      "vis_m": 9999,
      "fzfg": false,
      "metar_trigger": false,
      "taf_trigger": false,
      "metar": "METAR LIRN 271350Z 18008KT CAVOK 26/19 Q1018 NOSIG",
      "taf": "TAF LIRN 271100Z 2712/2812 24010KT 9999 FEW040"
    },
    {
      "icao": "LIRP",
      "alert": "OK",
      "vis_m": 9999,
      "fzfg": false,
      "metar_trigger": false,
      "taf_trigger": false,
      "metar": "METAR LIRP 271345Z 27008KT CAVOK 28/15 Q1019 NOSIG",
      "taf": "TAF LIRP 271100Z 2712/2812 27010KT CAVOK"
    },
    {
      "icao": "LIRZ",
      "alert": "OK",
      "vis_m": 9999,
      "fzfg": false,
      "metar_trigger": false,
      "taf_trigger": false,
      "metar": "METAR LIRZ 271350Z AUTO 32005KT 250V020 9999 NCD 33/14 Q1017",
      "taf": "TAF LIRZ 271100Z 2712/2812 VRB06KT CAVOK"
    },
    {
      "icao": "LJLJ",
      "alert": "OK",
      "vis_m": 9999,
      "fzfg": false,
      "metar_trigger": false,
      "taf_trigger": false,
      "metar": "METAR LJLJ 271330Z 08005KT 360V110 9999 VCSH FEW050TCU 31/17 Q1016 NOSIG",
      "taf": "TAF LJLJ 271100Z 2712/2812 12004KT 9999 FEW060"
    },
    {
      "icao": "LKMT",
      "alert": "OK",
      "vis_m": 9999,
      "fzfg": false,
      "metar_trigger": false,
      "taf_trigger": false,
      "metar": "METAR LKMT 271330Z 35012KT 320V030 CAVOK 24/14 Q1017 NOSIG",
      "taf": "TAF LKMT 271100Z 2712/2812 36010KT CAVOK"
    },
    {
      "icao": "LKPR",
      "alert": "OK",
      "vis_m": 9999,
      "fzfg": false,
      "metar_trigger": false,
      "taf_trigger": false,
      "metar": "METAR LKPR 271330Z 34014G24KT CAVOK 24/11 Q1021 NOSIG",
      "taf": "TAF LKPR 271100Z 2712/2818 34016KT CAVOK"
    },
    {
      "icao": "LLBG",
      "alert": "OK",
      "vis_m": 9999,
      "fzfg": false,
      "metar_trigger": false,
      "taf_trigger": false,
      "metar": "METAR LLBG 271350Z 29009KT 260V320 9999 SCT029 24/16 Q1012 NOSIG",
      "taf": "TAF LLBG 271102Z 2712/2812 30012KT 9999 SCT035 TX26/2712Z TN18/2803Z"
    },
    {
      "icao": "LMML",
      "alert": "OK",
      "vis_m": 9999,
      "fzfg": false,
      "metar_trigger": false,
      "taf_trigger": false,
      "metar": "METAR LMML 271345Z 19008KT 140V240 9999 FEW015 28/16 Q1019 NOSIG",
      "taf": "TAF LMML 271100Z 2712/2812 27009KT 9999 FEW030"
    },
    {
      "icao": "LOWW",
      "alert": "OK",
      "vis_m": 9999,
      "fzfg": false,
      "metar_trigger": false,
      "taf_trigger": false,
      "metar": "METAR LOWW 271350Z 34007KT 9999 VCTS FEW040CB 28/18 Q1016 RETS TEMPO VRB15G25KT TSRAGR",
      "taf": "TAF LOWW 271115Z 2712/2818 34010KT 9999 FEW050 TX32/2713Z TN14/2804Z"
    },
    {
      "icao": "LPFR",
      "alert": "OK",
      "vis_m": 9999,
      "fzfg": false,
      "metar_trigger": false,
      "taf_trigger": false,
      "metar": "METAR LPFR 271330Z 10015KT CAVOK 28/11 Q1019",
      "taf": "TAF LPFR 271100Z 2712/2812 11015KT CAVOK"
    },
    {
      "icao": "LPMA",
      "alert": "OK",
      "vis_m": 9999,
      "fzfg": false,
      "metar_trigger": false,
      "taf_trigger": false,
      "metar": "METAR LPMA 271330Z 20007KT 170V230 9999 SCT016 SCT030 22/14 Q1021",
      "taf": "TAF LPMA 271100Z 2712/2812 VRB05KT 9999 SCT015"
    },
    {
      "icao": "LPPR",
      "alert": "OK",
      "vis_m": 9999,
      "fzfg": false,
      "metar_trigger": false,
      "taf_trigger": false,
      "metar": "METAR LPPR 271330Z 27007KT 220V320 CAVOK 29/11 Q1019",
      "taf": "TAF LPPR 271100Z 2712/2812 26008KT CAVOK"
    },
    {
      "icao": "LPPS",
      "alert": "OK",
      "vis_m": 9999,
      "fzfg": false,
      "metar_trigger": false,
      "taf_trigger": false,
      "metar": "METAR LPPS 271330Z 33010KT 9999 FEW015 20/12 Q1022",
      "taf": "TAF LPPS 271100Z 2712/2818 31012KT 9999 FEW015 BKN030"
    },
    {
      "icao": "LPPT",
      "alert": "OK",
      "vis_m": 9999,
      "fzfg": false,
      "metar_trigger": false,
      "taf_trigger": false,
      "metar": "METAR LPPT 271330Z 17007KT 110V250 CAVOK 33/11 Q1018",
      "taf": "TAF LPPT 271100Z 2712/2818 11005KT CAVOK"
    },
    {
      "icao": "LQBK",
      "alert": "OK",
      "vis_m": 9999,
      "fzfg": false,
      "metar_trigger": false,
      "taf_trigger": false,
      "metar": "METAR LQBK 271330Z VRB03KT CAVOK 30/14 Q1016 NOSIG",
      "taf": "TAF LQBK 271100Z 2712/2812 30005KT CAVOK TX31/2714Z TN16/2803Z"
    },
    {
      "icao": "LQSA",
      "alert": "OK",
      "vis_m": 9999,
      "fzfg": false,
      "metar_trigger": false,
      "taf_trigger": false,
      "metar": "METAR LQSA 271330Z 31008KT 270V350 9999 FEW065 28/11 Q1018 NOSIG",
      "taf": "TAF LQSA 271100Z 2712/2812 29005KT CAVOK TX30/2714Z TN15/2804Z"
    },
    {
      "icao": "LQTZ",
      "alert": "OK",
      "vis_m": 9999,
      "fzfg": false,
      "metar_trigger": false,
      "taf_trigger": false,
      "metar": "METAR LQTZ 271330Z VRB04KT 9999 FEW065 30/13 Q1017",
      "taf": "TAF LQTZ 271100Z 2712/2812 06006KT CAVOK TX30/2713Z TN15/2803Z"
    },
    {
      "icao": "LRBC",
      "alert": "OK",
      "vis_m": 9999,
      "fzfg": false,
      "metar_trigger": false,
      "taf_trigger": false,
      "metar": "METAR LRBC 271330Z 15012KT CAVOK 30/14 Q1010",
      "taf": "TAF LRBC 271100Z 2712/2721 19006KT CAVOK"
    },
    {
      "icao": "LRBS",
      "alert": "OK",
      "vis_m": 9999,
      "fzfg": false,
      "metar_trigger": false,
      "taf_trigger": false,
      "metar": "METAR LRBS 271330Z 26008KT 220V330 CAVOK 30/15 Q1013 NOSIG",
      "taf": "TAF LRBS 271100Z 2712/2812 24010KT CAVOK"
    },
    {
      "icao": "LRBV",
      "alert": "OK",
      "vis_m": 9999,
      "fzfg": false,
      "metar_trigger": false,
      "taf_trigger": false,
      "metar": "METAR LRBV 271330Z 31012KT 280V340 CAVOK 26/10 Q1015",
      "taf": "TAF LRBV 271100Z 2712/2721 30012KT CAVOK"
    },
    {
      "icao": "LRCL",
      "alert": "OK",
      "vis_m": 9999,
      "fzfg": false,
      "metar_trigger": false,
      "taf_trigger": false,
      "metar": "METAR LRCL 271330Z 30010KT 260V340 9999 FEW047 30/09 Q1014",
      "taf": "TAF LRCL 271100Z 2712/2721 31010KT CAVOK"
    },
    {
      "icao": "LRCV",
      "alert": "OK",
      "vis_m": 9999,
      "fzfg": false,
      "metar_trigger": false,
      "taf_trigger": false,
      "metar": "METAR LRCV 271330Z 27008KT 240V300 CAVOK 29/16 Q1014",
      "taf": "TAF LRCV 271100Z 2712/2721 26007KT CAVOK"
    },
    {
      "icao": "LRIA",
      "alert": "OK",
      "vis_m": 9999,
      "fzfg": false,
      "metar_trigger": false,
      "taf_trigger": false,
      "metar": "METAR LRIA 271330Z 23009KT 190V280 CAVOK 29/11 Q1009",
      "taf": "TAF LRIA 271100Z 2712/2721 25012KT CAVOK"
    },
    {
      "icao": "LROP",
      "alert": "OK",
      "vis_m": 9999,
      "fzfg": false,
      "metar_trigger": false,
      "taf_trigger": false,
      "metar": "METAR LROP 271330Z 27011KT CAVOK 30/15 Q1013 NOSIG",
      "taf": "TAF LROP 271100Z 2712/2812 24010KT CAVOK"
    },
    {
      "icao": "LRSB",
      "alert": "OK",
      "vis_m": 9999,
      "fzfg": false,
      "metar_trigger": false,
      "taf_trigger": false,
      "metar": "METAR LRSB 271330Z 01008KT 330V040 9999 FEW058 28/14 Q1015 NOSIG",
      "taf": "TAF LRSB 271100Z 2712/2812 32012KT CAVOK"
    },
    {
      "icao": "LRSM",
      "alert": "OK",
      "vis_m": 9999,
      "fzfg": false,
      "metar_trigger": false,
      "taf_trigger": false,
      "metar": "METAR LRSM 271330Z 27014KT CAVOK 32/08 Q1012",
      "taf": "TAF LRSM 271100Z 2712/2721 29014KT CAVOK"
    },
    {
      "icao": "LRSV",
      "alert": "OK",
      "vis_m": 9999,
      "fzfg": false,
      "metar_trigger": false,
      "taf_trigger": false,
      "metar": "METAR LRSV 271330Z 28012KT 240V310 CAVOK 29/08 Q1011",
      "taf": "TAF LRSV 271100Z 2712/2721 29014KT CAVOK"
    },
    {
      "icao": "LRTM",
      "alert": "OK",
      "vis_m": 9999,
      "fzfg": false,
      "metar_trigger": false,
      "taf_trigger": false,
      "metar": "METAR LRTM 271330Z 29007KT 240V360 9999 FEW047 30/15 Q1014",
      "taf": "TAF LRTM 271100Z 2712/2721 33007KT CAVOK"
    },
    {
      "icao": "LRTR",
      "alert": "OK",
      "vis_m": 9999,
      "fzfg": false,
      "metar_trigger": false,
      "taf_trigger": false,
      "metar": "METAR LRTR 271330Z 29006KT 240V360 CAVOK 32/08 Q1014",
      "taf": "TAF LRTR 271100Z 2712/2812 28009KT CAVOK"
    },
    {
      "icao": "LTAC",
      "alert": "OK",
      "vis_m": 9999,
      "fzfg": false,
      "metar_trigger": false,
      "taf_trigger": false,
      "metar": "METAR LTAC 271350Z 08005KT 360V150 9999 SCT040 24/10 Q1017 NOSIG RMK RWY21C 01003KT 310V090 RWY03L 09004KT 020V150 RWY21R VRB01KT RWY03R 07005KT 350V130 RWY21L VRB02KT",
      "taf": "TAF LTAC 271040Z 2712/2812 VRB02KT 9999 SCT040"
    },
    {
      "icao": "LTFM",
      "alert": "OK",
      "vis_m": 9999,
      "fzfg": false,
      "metar_trigger": false,
      "taf_trigger": false,
      "metar": "METAR LTFM 271350Z 05009KT 020V080 CAVOK 23/09 Q1015 NOSIG RMK RWY17L 07008KT RWY34L 04009KT RWY16R 05008KT RWY36 06009KT 020V080 RWY18 07007KT",
      "taf": "TAF LTFM 271040Z 2712/2818 05010KT CAVOK"
    },
    {
      "icao": "LUKK",
      "alert": "OK",
      "vis_m": 9999,
      "fzfg": false,
      "metar_trigger": false,
      "taf_trigger": false,
      "metar": "METAR LUKK 271330Z 27016KT CAVOK 29/11 Q1009 TEMPO 29016G28KT",
      "taf": "TAF LUKK 271054Z 2712/2812 28016KT CAVOK"
    },
    {
      "icao": "LWOH",
      "alert": "OK",
      "vis_m": 9999,
      "fzfg": false,
      "metar_trigger": false,
      "taf_trigger": false,
      "metar": "METAR LWOH 271350Z 14007KT 9999 FEW035 25/12 Q1018",
      "taf": "TAF LWOH 271138Z 2712/2812 16010KT 9999 FEW040"
    },
    {
      "icao": "LWSK",
      "alert": "OK",
      "vis_m": 9999,
      "fzfg": false,
      "metar_trigger": false,
      "taf_trigger": false,
      "metar": "METAR LWSK 271350Z VRB05KT 9999 FEW060 32/14 Q1015 NOSIG",
      "taf": "TAF LWSK 271138Z 2712/2812 VRB02KT CAVOK"
    },
    {
      "icao": "LYBE",
      "alert": "OK",
      "vis_m": 9999,
      "fzfg": false,
      "metar_trigger": false,
      "taf_trigger": false,
      "metar": "METAR LYBE 271330Z 26008KT 220V300 CAVOK 30/13 Q1016 NOSIG",
      "taf": "TAF LYBE 271100Z 2712/2812 28008KT CAVOK TX32/2713Z TN19/2804Z"
    },
    {
      "icao": "LYNI",
      "alert": "OK",
      "vis_m": 9999,
      "fzfg": false,
      "metar_trigger": false,
      "taf_trigger": false,
      "metar": "METAR LYNI 271330Z 30006KT 230V010 9999 FEW040 30/14 Q1016 NOSIG",
      "taf": "TAF LYNI 271100Z 2712/2812 32010KT CAVOK TX31/2714Z TN14/2804Z"
    },
    {
      "icao": "LYPG",
      "alert": "OK",
      "vis_m": 9999,
      "fzfg": false,
      "metar_trigger": false,
      "taf_trigger": false,
      "metar": "METAR LYPG 271330Z 16005KT 110V210 9999 FEW040 32/12 Q1014 NOSIG",
      "taf": "TAF LYPG 271100Z 2712/2812 16007KT 9999 FEW040 TX33/2713Z TN20/2803Z"
    },
    {
      "icao": "LZIB",
      "alert": "OK",
      "vis_m": 9999,
      "fzfg": false,
      "metar_trigger": false,
      "taf_trigger": false,
      "metar": "METAR LZIB 271330Z 33015KT CAVOK 32/12 Q1015 NOSIG",
      "taf": "TAF LZIB 271115Z 2712/2812 23005KT CAVOK"
    },
    {
      "icao": "LZKZ",
      "alert": "OK",
      "vis_m": 9999,
      "fzfg": false,
      "metar_trigger": false,
      "taf_trigger": false,
      "metar": "METAR LZKZ 271330Z 34011KT 9999 FEW060CB 30/09 Q1012 NOSIG",
      "taf": "TAF LZKZ 271115Z 2712/2812 21006KT CAVOK"
    },
    {
      "icao": "LZTT",
      "alert": "OK",
      "vis_m": 9999,
      "fzfg": false,
      "metar_trigger": false,
      "taf_trigger": false,
      "metar": "METAR LZTT 271330Z 31011KT 9999 FEW060CB SCT066 24/09 Q1015 TEMPO SHRA",
      "taf": "TAF LZTT 271115Z 2712/2812 26013KT 9999 SCT060"
    },
    {
      "icao": "OEJN",
      "alert": "OK",
      "vis_m": 9999,
      "fzfg": false,
      "metar_trigger": false,
      "taf_trigger": false,
      "metar": "METAR OEJN 271300Z 29012KT CAVOK 32/20 Q1006 NOSIG",
      "taf": "TAF OEJN 271100Z 2712/2818 34015KT CAVOK"
    },
    {
      "icao": "OEMA",
      "alert": "OK",
      "vis_m": 9999,
      "fzfg": false,
      "metar_trigger": false,
      "taf_trigger": false,
      "metar": "METAR OEMA 271300Z 02004KT CAVOK 43/M02 Q1010 NOSIG",
      "taf": "TAF OEMA 271100Z 2712/2818 23008KT CAVOK"
    },
    {
      "icao": "OJAI",
      "alert": "OK",
      "vis_m": 5000,
      "fzfg": false,
      "metar_trigger": false,
      "taf_trigger": false,
      "metar": "METAR OJAI 271300Z 29009KT 5000 HZ NSC 29/12 Q1014 NOSIG",
      "taf": "TAF OJAI 271100Z 2712/2818 30010KT 5000 HZ NSC"
    },
    {
      "icao": "OMAA",
      "alert": "OK",
      "vis_m": 9999,
      "fzfg": false,
      "metar_trigger": false,
      "taf_trigger": false,
      "metar": "METAR OMAA 271330Z 31011KT CAVOK 35/21 Q1005 NOSIG",
      "taf": "TAF OMAA 271100Z 2712/2818 30012KT 8000 NSC"
    },
    {
      "icao": "OMDB",
      "alert": "OK",
      "vis_m": 9999,
      "fzfg": false,
      "metar_trigger": false,
      "taf_trigger": false,
      "metar": "METAR OMDB 271330Z 27009KT CAVOK 37/23 Q1004 NOSIG",
      "taf": "TAF OMDB 271100Z 2712/2818 28012KT 8000 NSC"
    },
    {
      "icao": "UAAA",
      "alert": "OK",
      "vis_m": 9999,
      "fzfg": false,
      "metar_trigger": false,
      "taf_trigger": false,
      "metar": "METAR UAAA 271330Z 09001MPS 9999 SCT050CB BKN100 24/13 Q1011 NOSIG",
      "taf": "TAF UAAA 271101Z 2712/2812 22003MPS 9999 BKN050CB OVC100 TX24/2810Z TN11/2801Z"
    },
    {
      "icao": "UBBB",
      "alert": "OK",
      "vis_m": 9999,
      "fzfg": false,
      "metar_trigger": false,
      "taf_trigger": false,
      "metar": "METAR UBBB 271330Z 03012KT CAVOK 20/10 Q1016 NOSIG",
      "taf": "TAF UBBB 271049Z 2712/2812 04012KT 9999 SCT040 TX21/2712Z TN17/2801Z"
    },
    {
      "icao": "UDSG",
      "alert": "OK",
      "vis_m": 9999,
      "fzfg": false,
      "metar_trigger": false,
      "taf_trigger": false,
      "metar": "METAR UDSG 271330Z 30011KT 9999 FEW049 20/05 Q1021 NOSIG",
      "taf": "TAF UDSG 271058Z 2712/2812 24006KT 9999 FEW050"
    },
    {
      "icao": "UDYZ",
      "alert": "OK",
      "vis_m": 9999,
      "fzfg": false,
      "metar_trigger": false,
      "taf_trigger": false,
      "metar": "METAR UDYZ 271330Z 25005KT 180V290 9999 NSC 26/05 Q1016 NOSIG",
      "taf": "TAF UDYZ 271100Z 2712/2812 03006KT 9999 FEW040"
    },
    {
      "icao": "UGKO",
      "alert": "OK",
      "vis_m": 9999,
      "fzfg": false,
      "metar_trigger": false,
      "taf_trigger": false,
      "metar": "METAR UGKO 271330Z 34005KT 310V020 CAVOK 22/14 Q1018 NOSIG",
      "taf": "TAF UGKO 271100Z 2712/2812 26007KT CAVOK TX29/2812Z TN12/2802Z"
    }
  ]
}