{
  "ts_utc": "2026-01-25T19:34:06Z",
  "threshold_m": 150,
  "source": "stations_override.txt (ICAO list) + aviationweather.gov (METAR/TAF raw)",
  "station_count": 159,
  "stations": [
    {
      "icao": "BIKF",
      "alert": "OK",
      "vis_m": 9999,
      "fzfg": false,
      "metar_trigger": false,
      "taf_trigger": false,
      "metar": "METAR BIKF 251900Z 08017KT CAVOK 03/M01 Q1005",
      "taf": "TAF BIKF 251919Z 2521/2621 08015KT 9999 FEW025 TX05/2615Z TN02/2602Z"
    },
    {
      "icao": "BKPR",
      "alert": "OK",
      "vis_m": 9999,
      "fzfg": false,
      "metar_trigger": false,
      "taf_trigger": false,
      "metar": "METAR BKPR 251930Z 15022KT CAVOK 09/06 Q1005 NOSIG",
      "taf": "TAF BKPR 251730Z 2518/2618 17008KT 9999 FEW012 SCT030 BKN070"
    },
    {
      "icao": "EBCI",
      "alert": "OK",
      "vis_m": 9999,
      "fzfg": false,
      "metar_trigger": false,
      "taf_trigger": false,
      "metar": "METAR EBCI 251920Z 08005KT 9999 BKN034 02/01 Q0995 NOSIG",
      "taf": "TAF EBCI 251710Z 2518/2624 10004KT 8000 BKN018"
    },
    {
      "icao": "EDDB",
      "alert": "OK",
      "vis_m": 4500,
      "fzfg": false,
      "metar_trigger": false,
      "taf_trigger": false,
      "metar": "METAR EDDB 251920Z AUTO 07010KT 4500 BR OVC004 M03/M04 Q1001 TEMPO 2500 -FZDZ",
      "taf": "TAF EDDB 251700Z 2518/2618 06010KT 3000 BR BKN006"
    },
    {
      "icao": "EDDH",
      "alert": "OK",
      "vis_m": 7000,
      "fzfg": false,
      "metar_trigger": false,
      "taf_trigger": false,
      "metar": "METAR EDDH 251920Z AUTO 07008KT 040V100 7000 OVC007 M01/M03 Q1002 TEMPO 4500 BR",
      "taf": "TAF EDDH 251700Z 2518/2624 09009KT 6000 OVC012"
    },
    {
      "icao": "EDDK",
      "alert": "OK",
      "vis_m": 9999,
      "fzfg": false,
      "metar_trigger": false,
      "taf_trigger": false,
      "metar": "METAR EDDK 251920Z AUTO 10004KT 070V130 CAVOK M00/M03 Q0997 NOSIG",
      "taf": "TAF EDDK 251700Z 2518/2624 VRB03KT CAVOK"
    },
    {
      "icao": "EDDN",
      "alert": "OK",
      "vis_m": 2500,
      "fzfg": false,
      "metar_trigger": false,
      "taf_trigger": false,
      "metar": "METAR EDDN 251920Z AUTO 33003KT 2500 -SN BR SCT005 BKN018 BKN022 M01/M02 Q0994 RESN TEMPO 0800 +SN BKN004 OVC006",
      "taf": "TAF EDDN 251700Z 2518/2618 26004KT 6000 OVC010"
    },
    {
      "icao": "EDDS",
      "alert": "OK",
      "vis_m": 1600,
      "fzfg": false,
      "metar_trigger": false,
      "taf_trigger": false,
      "metar": "METAR EDDS 251920Z AUTO 03003KT 010V070 1600 1400 R07/1800U SN BR BKN004 BKN009 M01/M01 Q0994 TEMPO 1200 -SN",
      "taf": "TAF EDDS 251700Z 2518/2618 VRB03KT 6000 OVC010"
    },
    {
      "icao": "EDFH",
      "alert": "OK",
      "vis_m": 3000,
      "fzfg": false,
      "metar_trigger": false,
      "taf_trigger": false,
      "metar": "METAR EDFH 251920Z 15010KT 3000 BR BKN002 M04/M04 Q0995",
      "taf": "TAF EDFH 251700Z 2518/2618 14013KT 3000 BR OVC003"
    },
    {
      "icao": "EDJA",
      "alert": "OK",
      "vis_m": 2600,
      "fzfg": false,
      "metar_trigger": false,
      "taf_trigger": false,
      "metar": "METAR EDJA 251920Z 23008KT 2600 SN OVC003 00/M00 Q0994",
      "taf": "TAF EDJA 251700Z 2518/2603 26003KT 0800 +SN OVC002"
    },
    {
      "icao": "EDLW",
      "alert": "OK",
      "vis_m": 7000,
      "fzfg": false,
      "metar_trigger": false,
      "taf_trigger": false,
      "metar": "METAR EDLW 251920Z 01003KT 330V040 7000 NSC M00/M03 Q0996",
      "taf": "TAF EDLW 251700Z 2518/2618 05004KT 7000 FEW015"
    },
    {
      "icao": "EDNY",
      "alert": "OK",
      "vis_m": 4600,
      "fzfg": false,
      "metar_trigger": false,
      "taf_trigger": false,
      "metar": "METAR EDNY 251920Z AUTO VRB02KT 4600 // FEW013/// OVC024/// 02/01 Q0996",
      "taf": "TAF EDNY 251700Z 2518/2603 25002KT 9999 OVC030"
    },
    {
      "icao": "EDSB",
      "alert": "OK",
      "vis_m": 5000,
      "fzfg": false,
      "metar_trigger": false,
      "taf_trigger": false,
      "metar": "METAR EDSB 251920Z VRB02KT 5000 OVC008 00/M02 Q0997",
      "taf": "TAF EDSB 251700Z 2518/2618 03004KT 6000 OVC010"
    },
    {
      "icao": "EETN",
      "alert": "OK",
      "vis_m": 9999,
      "fzfg": false,
      "metar_trigger": false,
      "taf_trigger": false,
      "metar": "METAR EETN 251920Z 14006KT 9999 -SN FEW048 M11/M13 Q1016 TEMPO 3000 SN",
      "taf": "TAF EETN 251730Z 2518/2618 17008KT 9999 BKN040"
    },
    {
      "icao": "EFTU",
      "alert": "OK",
      "vis_m": 9999,
      "fzfg": false,
      "metar_trigger": false,
      "taf_trigger": false,
      "metar": "METAR EFTU 251920Z AUTO 09004KT CAVOK M11/M13 Q1015",
      "taf": "TAF EFTU 251733Z 2518/2618 10005KT 9999 SCT025"
    },
    {
      "icao": "EGBB",
      "alert": "OK",
      "vis_m": 7000,
      "fzfg": false,
      "metar_trigger": false,
      "taf_trigger": false,
      "metar": "METAR EGBB 251920Z 08007KT 7000 FEW010 BKN016 05/04 Q0997",
      "taf": "TAF EGBB 251654Z 2518/2618 07007KT 9999 BKN010"
    },
    {
      "icao": "EGGP",
      "alert": "OK",
      "vis_m": 9999,
      "fzfg": false,
      "metar_trigger": false,
      "taf_trigger": false,
      "metar": "METAR EGGP 251920Z 09009KT 9999 OVC015 05/03 Q0998",
      "taf": "TAF EGGP 251658Z 2518/2618 08010KT 9999 SCT015"
    },
    {
      "icao": "EGGW",
      "alert": "OK",
      "vis_m": 3600,
      "fzfg": false,
      "metar_trigger": false,
      "taf_trigger": false,
      "metar": "METAR EGGW 251920Z AUTO 06007KT 3600 BR OVC004 04/04 Q0996",
      "taf": "TAF EGGW 251657Z 2518/2618 07008KT 6000 BKN005"
    },
    {
      "icao": "EGKK",
      "alert": "OK",
      "vis_m": 9999,
      "fzfg": false,
      "metar_trigger": false,
      "taf_trigger": false,
      "metar": "METAR EGKK 251920Z 07005KT 020V080 9999 BKN012 05/04 Q0996",
      "taf": "TAF EGKK 251655Z 2518/2624 06009KT 9999 SCT010 BKN030"
    },
    {
      "icao": "EGNM",
      "alert": "OK",
      "vis_m": 3000,
      "fzfg": false,
      "metar_trigger": false,
      "taf_trigger": false,
      "metar": "METAR EGNM 251920Z 07009KT 3000 BR OVC009 02/01 Q0999",
      "taf": "TAF EGNM 251704Z 2518/2618 09010KT 6000 BKN014"
    },
    {
      "icao": "EGPD",
      "alert": "OK",
      "vis_m": 9999,
      "fzfg": false,
      "metar_trigger": false,
      "taf_trigger": false,
      "metar": "METAR EGPD 251920Z AUTO 11012KT 9999 -RA FEW012 BKN018 BKN023 04/02 Q1005 TEMPO RA BKN014",
      "taf": "TAF EGPD 251656Z 2518/2618 11009KT 9999 SCT014 BKN025"
    },
    {
      "icao": "EGPF",
      "alert": "OK",
      "vis_m": 9999,
      "fzfg": false,
      "metar_trigger": false,
      "taf_trigger": false,
      "metar": "METAR EGPF 251920Z AUTO 08016KT 9999 BKN025 OVC029 06/03 Q1001",
      "taf": "TAF EGPF 251701Z 2518/2618 08015KT 9999 SCT025"
    },
    {
      "icao": "EHBK",
      "alert": "OK",
      "vis_m": 5000,
      "fzfg": false,
      "metar_trigger": false,
      "taf_trigger": false,
      "metar": "METAR EHBK 251925Z AUTO 07004KT 5000 BR NSC M02/M03 Q0996 NOSIG",
      "taf": "TAF EHBK 251724Z 2518/2624 07008KT 6000 NSC"
    },
    {
      "icao": "EHEH",
      "alert": "OK",
      "vis_m": null,
      "fzfg": false,
      "metar_trigger": false,
      "taf_trigger": false,
      "metar": "",
      "taf": "TAF EHEH 251711Z 2518/2624 09006KT 6000 NSC"
    },
    {
      "icao": "EKBI",
      "alert": "OK",
      "vis_m": 9999,
      "fzfg": false,
      "metar_trigger": false,
      "taf_trigger": false,
      "metar": "METAR EKBI 251920Z AUTO 09014KT 9999 OVC010/// 01/M01 Q1006",
      "taf": "TAF EKBI 251727Z 2518/2618 08012KT 7000 BKN007"
    },
    {
      "icao": "EKCH",
      "alert": "OK",
      "vis_m": 9999,
      "fzfg": false,
      "metar_trigger": false,
      "taf_trigger": false,
      "metar": "METAR EKCH 251920Z AUTO 08016KT 9999 NCD 01/M03 Q1008 NOSIG",
      "taf": "TAF EKCH 251727Z 2518/2618 10011KT 9999 OVC015"
    },
    {
      "icao": "ENAL",
      "alert": "OK",
      "vis_m": 9999,
      "fzfg": false,
      "metar_trigger": false,
      "taf_trigger": false,
      "metar": "METAR ENAL 251920Z 08013KT 9999 BKN030 00/M05 Q1012",
      "taf": "TAF ENAL 251700Z 2518/2603 06008KT 9999 BKN040"
    },
    {
      "icao": "ENBR",
      "alert": "OK",
      "vis_m": 9999,
      "fzfg": false,
      "metar_trigger": false,
      "taf_trigger": false,
      "metar": "METAR ENBR 251920Z 10002KT 9999 BKN036 M02/M09 Q1011 NOSIG RMK WIND 1200FT 14003KT",
      "taf": "TAF ENBR 251700Z 2518/2618 07004KT 9999 BKN045"
    },
    {
      "icao": "ENGM",
      "alert": "OK",
      "vis_m": 9999,
      "fzfg": false,
      "metar_trigger": false,
      "taf_trigger": false,
      "metar": "METAR ENGM 251920Z 33004KT 9999 FEW034 BKN039 M07/M09 Q1013 NOSIG",
      "taf": "TAF ENGM 251700Z 2518/2618 02005KT 9999 BKN040"
    },
    {
      "icao": "ENHD",
      "alert": "OK",
      "vis_m": 9999,
      "fzfg": false,
      "metar_trigger": false,
      "taf_trigger": false,
      "metar": "METAR ENHD 251920Z /////KT CAVOK M03/M13 Q1012 RMK WIND RWY 31 07007KT",
      "taf": "TAF ENHD 251400Z 2515/2523 11009KT CAVOK"
    },
    {
      "icao": "ENTC",
      "alert": "OK",
      "vis_m": 9999,
      "fzfg": false,
      "metar_trigger": false,
      "taf_trigger": false,
      "metar": "METAR ENTC 251920Z 36016KT 9999 -SHSN FEW040 BKN052 BKN064 M02/M06 Q1012 TEMPO 1000 BKN008TCU RMK WIND 2600FT 02017KT",
      "taf": "TAF ENTC 251700Z 2518/2618 03008KT 9999 SCT015 BKN030"
    },
    {
      "icao": "ENTO",
      "alert": "OK",
      "vis_m": 9999,
      "fzfg": false,
      "metar_trigger": false,
      "taf_trigger": false,
      "metar": "METAR ENTO 251920Z 01005KT 9999 BKN018 M05/M07 Q1014 NOSIG",
      "taf": "TAF ENTO 251700Z 2518/2618 02008KT 9999 -SN SCT020 BKN040"
    },
    {
      "icao": "ENVA",
      "alert": "OK",
      "vis_m": 9999,
      "fzfg": false,
      "metar_trigger": false,
      "taf_trigger": false,
      "metar": "METAR ENVA 251920Z 11009KT CAVOK M12/M15 Q1015 RMK WIND 670FT 15008KT",
      "taf": "TAF ENVA 251700Z 2518/2618 10006KT 9999 FEW035"
    },
    {
      "icao": "ENZV",
      "alert": "OK",
      "vis_m": 9999,
      "fzfg": false,
      "metar_trigger": false,
      "taf_trigger": false,
      "metar": "METAR ENZV 251920Z 04003KT CAVOK M03/M10 Q1011 NOSIG",
      "taf": "TAF ENZV 251700Z 2518/2618 07007KT CAVOK"
    },
    {
      "icao": "EPGD",
      "alert": "OK",
      "vis_m": 9999,
      "fzfg": false,
      "metar_trigger": false,
      "taf_trigger": false,
      "metar": "METAR EPGD 251930Z 11010KT 9999 OVC010 M06/M08 Q1007",
      "taf": "TAF EPGD 251730Z 2518/2618 10010KT 9999 OVC013"
    },
    {
      "icao": "EPKK",
      "alert": "OK",
      "vis_m": 6000,
      "fzfg": false,
      "metar_trigger": false,
      "taf_trigger": false,
      "metar": "METAR EPKK 251930Z 06011KT 6000 BKN060 02/00 Q1001",
      "taf": "TAF EPKK 251730Z 2518/2618 06010KT 5000 BR FEW005 BKN030"
    },
    {
      "icao": "EPKT",
      "alert": "OK",
      "vis_m": 5000,
      "fzfg": false,
      "metar_trigger": false,
      "taf_trigger": false,
      "metar": "METAR EPKT 251930Z 08010KT 5000 BR FEW025 02/01 Q1001",
      "taf": "TAF EPKT 251730Z 2518/2618 09009KT 5000 BR BKN040"
    },
    {
      "icao": "EPLB",
      "alert": "OK",
      "vis_m": 5000,
      "fzfg": false,
      "metar_trigger": false,
      "taf_trigger": false,
      "metar": "METAR EPLB 251930Z 10014KT 5000 BR OVC007 M04/M05 Q1008",
      "taf": "TAF EPLB 251730Z 2518/2618 10012KT 8000 BKN010 BKN030"
    },
    {
      "icao": "EPMO",
      "alert": "OK",
      "vis_m": 6000,
      "fzfg": false,
      "metar_trigger": false,
      "taf_trigger": false,
      "metar": "METAR EPMO 251930Z 09008KT 6000 OVC013 M04/M06 Q1008",
      "taf": "TAF EPMO 251730Z 2518/2618 09010KT 5000 BR BKN010 BKN020"
    },
    {
      "icao": "EPPO",
      "alert": "OK",
      "vis_m": 4100,
      "fzfg": false,
      "metar_trigger": false,
      "taf_trigger": false,
      "metar": "METAR EPPO 251930Z 08012KT 4100 -FZRA BR BKN006 M02/M04 Q1003",
      "taf": "TAF EPPO 251730Z 2518/2618 08010KT 4000 BR OVC007"
    },
    {
      "icao": "EPRA",
      "alert": "OK",
      "vis_m": 9000,
      "fzfg": false,
      "metar_trigger": false,
      "taf_trigger": false,
      "metar": "METAR EPRA 251930Z 10011KT 9000 OVC006 M03/M05 Q1006",
      "taf": "TAF EPRA 251730Z 2518/2603 10010KT 8000 OVC007"
    },
    {
      "icao": "EPRZ",
      "alert": "OK",
      "vis_m": 6000,
      "fzfg": false,
      "metar_trigger": false,
      "taf_trigger": false,
      "metar": "METAR EPRZ 251930Z 09019KT 6000 OVC005 M01/M02 Q1006",
      "taf": "TAF EPRZ 251730Z 2518/2618 09015KT 6000 BKN007"
    },
    {
      "icao": "EPSC",
      "alert": "OK",
      "vis_m": 9999,
      "fzfg": false,
      "metar_trigger": false,
      "taf_trigger": false,
      "metar": "METAR EPSC 251930Z 07007KT 030V100 9999 OVC013 M02/M05 Q1004",
      "taf": "TAF EPSC 251730Z 2518/2618 09009KT 9999 OVC013"
    },
    {
      "icao": "EPSY",
      "alert": "OK",
      "vis_m": 7000,
      "fzfg": false,
      "metar_trigger": false,
      "taf_trigger": false,
      "metar": "METAR EPSY 251930Z 11006KT 060V150 7000 OVC007 M06/M07 Q1009",
      "taf": "TAF EPSY 251730Z 2518/2603 12006KT 9999 BKN012"
    },
    {
      "icao": "EPWA",
      "alert": "OK",
      "vis_m": 9999,
      "fzfg": false,
      "metar_trigger": false,
      "taf_trigger": false,
      "metar": "METAR EPWA 251930Z 10010KT 9999 OVC014 M04/M06 Q1007 NOSIG",
      "taf": "TAF EPWA 251730Z 2518/2618 10012KT 8000 BKN012 BKN025"
    },
    {
      "icao": "EPWR",
      "alert": "OK",
      "vis_m": 5000,
      "fzfg": false,
      "metar_trigger": false,
      "taf_trigger": false,
      "metar": "METAR EPWR 251930Z 10006KT 5000 -RA SCT044 02/01 Q1000",
      "taf": "TAF EPWR 251730Z 2518/2618 08007KT 7000 OVC010"
    },
    {
      "icao": "ESGG",
      "alert": "OK",
      "vis_m": 9999,
      "fzfg": false,
      "metar_trigger": false,
      "taf_trigger": false,
      "metar": "METAR ESGG 251920Z 06007KT 9999 FEW017 BKN021 M03/M08 Q1010",
      "taf": "TAF ESGG 251730Z 2518/2618 07008KT 9999 OVC018"
    },
    {
      "icao": "ESKN",
      "alert": "OK",
      "vis_m": 9999,
      "fzfg": false,
      "metar_trigger": false,
      "taf_trigger": false,
      "metar": "METAR ESKN 251920Z 02003KT 340V070 9999 -SN BKN006 OVC022 M04/M05 Q1012",
      "taf": ""
    },
    {
      "icao": "ESMS",
      "alert": "OK",
      "vis_m": 9999,
      "fzfg": false,
      "metar_trigger": false,
      "taf_trigger": false,
      "metar": "METAR ESMS 251920Z 08013KT 9999 OVC019 00/M03 Q1007",
      "taf": "TAF ESMS 251727Z 2518/2618 08015KT 9000 OVC018"
    },
    {
      "icao": "ESSA",
      "alert": "OK",
      "vis_m": 7000,
      "fzfg": false,
      "metar_trigger": false,
      "taf_trigger": false,
      "metar": "METAR ESSA 251920Z 02006KT 7000 -SN BKN007 M05/M06 Q1012 TEMPO 4000 BKN020",
      "taf": ""
    },
    {
      "icao": "EYKA",
      "alert": "OK",
      "vis_m": 9999,
      "fzfg": false,
      "metar_trigger": false,
      "taf_trigger": false,
      "metar": "METAR EYKA 251920Z 11011KT 9999 OVC046 M09/M12 Q1014",
      "taf": "TAF EYKA 251700Z 2518/2618 12009KT 8000 SCT025"
    },
    {
      "icao": "EYPA",
      "alert": "OK",
      "vis_m": 9999,
      "fzfg": false,
      "metar_trigger": false,
      "taf_trigger": false,
      "metar": "METAR EYPA 251920Z 13006KT 100V160 9999 SCT019 BKN046 M06/M10 Q1012",
      "taf": "TAF EYPA 251700Z 2518/2618 11007KT 8000 BKN015"
    },
    {
      "icao": "EYVI",
      "alert": "OK",
      "vis_m": 9999,
      "fzfg": false,
      "metar_trigger": false,
      "taf_trigger": false,
      "metar": "METAR EYVI 251920Z 14012KT 9999 BKN041 M10/M13 Q1015 NOSIG",
      "taf": "TAF EYVI 251707Z 2518/2618 13009KT 8000 SCT015"
    },
    {
      "icao": "GCFV",
      "alert": "OK",
      "vis_m": 9999,
      "fzfg": false,
      "metar_trigger": false,
      "taf_trigger": false,
      "metar": "METAR GCFV 251900Z 36009KT 9999 FEW035 18/10 Q1026",
      "taf": "TAF GCFV 251400Z 2515/2615 04010KT 9999 FEW035 TX20/2614Z TN14/2606Z"
    },
    {
      "icao": "GCLP",
      "alert": "OK",
      "vis_m": 9999,
      "fzfg": false,
      "metar_trigger": false,
      "taf_trigger": false,
      "metar": "METAR GCLP 251900Z 02012KT 9999 FEW035 17/10 Q1026 NOSIG",
      "taf": "TAF GCLP 251400Z 2515/2615 05012KT 9999 FEW030 TX20/2614Z TN13/2606Z"
    },
    {
      "icao": "GCTS",
      "alert": "OK",
      "vis_m": 9999,
      "fzfg": false,
      "metar_trigger": false,
      "taf_trigger": false,
      "metar": "METAR GCTS 251900Z 09009KT 9999 SCT040 18/10 Q1027 NOSIG",
      "taf": "TAF GCTS 251400Z 2515/2615 11010KT 9999 SCT035 TX22/2614Z TN14/2606Z"
    },
    {
      "icao": "GMAD",
      "alert": "OK",
      "vis_m": 9999,
      "fzfg": false,
      "metar_trigger": false,
      "taf_trigger": false,
      "metar": "METAR GMAD 251930Z 16005KT 9999 FEW033 13/12 Q1024 NOSIG",
      "taf": "TAF GMAD 251700Z 2518/2624 20007KT 9999 FEW033"
    },
    {
      "icao": "GMMN",
      "alert": "OK",
      "vis_m": 9999,
      "fzfg": false,
      "metar_trigger": false,
      "taf_trigger": false,
      "metar": "METAR GMMN 251900Z 20008KT 9999 BKN030 12/10 Q1025 NOSIG",
      "taf": "TAF GMMN 251700Z 2518/2624 22010KT 9999 BKN030"
    },
    {
      "icao": "GMMX",
      "alert": "OK",
      "vis_m": 9999,
      "fzfg": false,
      "metar_trigger": false,
      "taf_trigger": false,
      "metar": "METAR GMMX 251930Z 31004KT 280V350 CAVOK 12/07 Q1025 NOSIG",
      "taf": "TAF GMMX 251100Z 2512/2618 12006KT 8000 NSC"
    },
    {
      "icao": "HEGN",
      "alert": "OK",
      "vis_m": 9999,
      "fzfg": false,
      "metar_trigger": false,
      "taf_trigger": false,
      "metar": "METAR HEGN 251900Z 00000KT CAVOK 16/05 Q1020 NOSIG",
      "taf": "TAF HEGN 251700Z 2518/2624 28010KT CAVOK"
    },
    {
      "icao": "HEMA",
      "alert": "OK",
      "vis_m": 9999,
      "fzfg": false,
      "metar_trigger": false,
      "taf_trigger": false,
      "metar": "METAR HEMA 251900Z 32006KT CAVOK 18/06 Q1019 NOSIG",
      "taf": "TAF HEMA 251700Z 2518/2624 29010KT CAVOK"
    },
    {
      "icao": "HESH",
      "alert": "OK",
      "vis_m": 9999,
      "fzfg": false,
      "metar_trigger": false,
      "taf_trigger": false,
      "metar": "METAR HESH 251900Z 24002KT CAVOK 17/M01 Q1019 NOSIG",
      "taf": "TAF HESH 251700Z 2518/2624 35008KT CAVOK"
    },
    {
      "icao": "HESX",
      "alert": "OK",
      "vis_m": 9999,
      "fzfg": false,
      "metar_trigger": false,
      "taf_trigger": false,
      "metar": "METAR HESX 251900Z 06007KT CAVOK 15/07 Q1018 NOSIG",
      "taf": "TAF HESX 251700Z 2518/2624 17006KT 8000 NSC"
    },
    {
      "icao": "LATI",
      "alert": "OK",
      "vis_m": 9999,
      "fzfg": false,
      "metar_trigger": false,
      "taf_trigger": false,
      "metar": "METAR LATI 251920Z 14007KT 9999 FEW078 BKN120 16/03 Q1003 NOSIG",
      "taf": "TAF LATI 251700Z 2518/2618 16012KT 9999 SCT040 BKN080 TX14/2612Z TN08/2605Z"
    },
    {
      "icao": "LBPD",
      "alert": "OK",
      "vis_m": 6000,
      "fzfg": false,
      "metar_trigger": false,
      "taf_trigger": false,
      "metar": "METAR LBPD 251930Z AUTO 29003KT 260V320 6000 SCT005/// OVC007/// 04/04 Q1013 NOSIG",
      "taf": "TAF LBPD 251700Z 2518/2618 VRB04KT 8000 OVC010"
    },
    {
      "icao": "LBSF",
      "alert": "OK",
      "vis_m": 9999,
      "fzfg": false,
      "metar_trigger": false,
      "taf_trigger": false,
      "metar": "METAR LBSF 251930Z AUTO 10009KT 9999 FEW014/// 04/02 Q1009 NOSIG",
      "taf": "TAF LBSF 251700Z 2518/2618 09010KT 9999 SCT015 BKN070"
    },
    {
      "icao": "LBWN",
      "alert": "OK",
      "vis_m": 6000,
      "fzfg": false,
      "metar_trigger": false,
      "taf_trigger": false,
      "metar": "METAR LBWN 251930Z AUTO 11007KT 6000 SCT018/// 08/08 Q1012 NOSIG",
      "taf": "TAF LBWN 251700Z 2518/2618 13008KT 9999 SCT015 BKN045"
    },
    {
      "icao": "LCLK",
      "alert": "OK",
      "vis_m": 9999,
      "fzfg": false,
      "metar_trigger": false,
      "taf_trigger": false,
      "metar": "METAR LCLK 251930Z 34005KT 9999 FEW017 12/11 Q1021 NOSIG",
      "taf": "TAF LCLK 251730Z 2518/2618 35007KT 9999 FEW030"
    },
    {
      "icao": "LCPH",
      "alert": "OK",
      "vis_m": 9999,
      "fzfg": false,
      "metar_trigger": false,
      "taf_trigger": false,
      "metar": "METAR LCPH 251930Z 08006KT 020V080 CAVOK 12/10 Q1020 NOSIG",
      "taf": "TAF LCPH 251730Z 2518/2618 06009KT 9999 FEW030"
    },
    {
      "icao": "LEAL",
      "alert": "OK",
      "vis_m": 9999,
      "fzfg": false,
      "metar_trigger": false,
      "taf_trigger": false,
      "metar": "METAR LEAL 251900Z 27018KT 9999 FEW015 BKN050 17/06 Q1007 NOSIG",
      "taf": "TAF LEAL 251700Z 2518/2618 29018KT CAVOK TX20/2613Z TN11/2606Z"
    },
    {
      "icao": "LEBB",
      "alert": "OK",
      "vis_m": 9999,
      "fzfg": false,
      "metar_trigger": false,
      "taf_trigger": false,
      "metar": "METAR LEBB 251900Z 26012G22KT 200V300 9999 FEW023 SCT028 BKN034 09/06 Q1004 WS ALL RWY NOSIG",
      "taf": "TAF LEBB 251700Z 2518/2618 28012KT 9999 FEW020 BKN035 TX14/2618Z TN07/2605Z"
    },
    {
      "icao": "LEBL",
      "alert": "OK",
      "vis_m": 9999,
      "fzfg": false,
      "metar_trigger": false,
      "taf_trigger": false,
      "metar": "METAR LEBL 251900Z VRB02KT 9999 SCT040 SCT050 10/06 Q0999 NOSIG",
      "taf": "TAF LEBL 251700Z 2518/2618 26012KT 9999 SCT050 TX16/2612Z TN09/2606Z"
    },
    {
      "icao": "LECH",
      "alert": "OK",
      "vis_m": 9999,
      "fzfg": false,
      "metar_trigger": false,
      "taf_trigger": false,
      "metar": "METAR LECH 251900Z AUTO 29013KT 240V320 CAVOK 12/00 Q1003",
      "taf": ""
    },
    {
      "icao": "LEMD",
      "alert": "OK",
      "vis_m": 9999,
      "fzfg": false,
      "metar_trigger": false,
      "taf_trigger": false,
      "metar": "METAR LEMD 251900Z 29022KT 270V330 9999 FEW055 10/M01 Q1009 NOSIG",
      "taf": "TAF LEMD 251700Z 2518/2624 27010KT 9999 FEW050 TX11/2616Z TN03/2606Z"
    },
    {
      "icao": "LEMG",
      "alert": "OK",
      "vis_m": 9999,
      "fzfg": false,
      "metar_trigger": false,
      "taf_trigger": false,
      "metar": "METAR LEMG 251900Z 34002KT 9999 FEW025 SCT050 13/09 Q1015 NOSIG",
      "taf": "TAF LEMG 251700Z 2518/2618 27004KT 9999 BKN045 TX20/2614Z TN12/2607Z"
    },
    {
      "icao": "LEVC",
      "alert": "OK",
      "vis_m": 9999,
      "fzfg": false,
      "metar_trigger": false,
      "taf_trigger": false,
      "metar": "METAR LEVC 251900Z 27014KT 240V300 9999 FEW047 BKN062 15/06 Q1003 NOSIG",
      "taf": "TAF LEVC 251700Z 2518/2618 27017KT 9999 SCT050 TX19/2613Z TN11/2606Z"
    },
    {
      "icao": "LEXJ",
      "alert": "OK",
      "vis_m": 8000,
      "fzfg": false,
      "metar_trigger": false,
      "taf_trigger": false,
      "metar": "METAR LEXJ 251900Z 28021KT 250V320 8000 -RA FEW012 BKN022 10/07 Q1005 RERA",
      "taf": ""
    },
    {
      "icao": "LEZG",
      "alert": "OK",
      "vis_m": 9999,
      "fzfg": false,
      "metar_trigger": false,
      "taf_trigger": false,
      "metar": "METAR LEZG 251900Z 27013KT 9999 SCT070 07/04 Q1004 NOSIG",
      "taf": ""
    },
    {
      "icao": "LEZL",
      "alert": "OK",
      "vis_m": 9999,
      "fzfg": false,
      "metar_trigger": false,
      "taf_trigger": false,
      "metar": "METAR LEZL 251900Z 24011KT 210V270 9999 FEW043 15/13 Q1017 NOSIG",
      "taf": ""
    },
    {
      "icao": "LFBD",
      "alert": "OK",
      "vis_m": 9999,
      "fzfg": false,
      "metar_trigger": false,
      "taf_trigger": false,
      "metar": "METAR LFBD 251930Z AUTO 26004KT 220V290 9999 FEW018/// BKN026/// BKN036/// ///TCU 07/06 Q0996 TEMPO 26015G25KT 4500 -SHRA BKN025TCU SCT030CB",
      "taf": "TAF LFBD 251700Z 2518/2624 21010KT 9999 BKN035 TX12/2614Z TN05/2606Z"
    },
    {
      "icao": "LFLL",
      "alert": "OK",
      "vis_m": 9999,
      "fzfg": false,
      "metar_trigger": false,
      "taf_trigger": false,
      "metar": "METAR LFLL 251930Z 19012KT CAVOK 06/04 Q0996 NOSIG",
      "taf": "TAF LFLL 251700Z 2518/2624 18010KT 9999 BKN040"
    },
    {
      "icao": "LFLS",
      "alert": "OK",
      "vis_m": 9999,
      "fzfg": false,
      "metar_trigger": false,
      "taf_trigger": false,
      "metar": "METAR LFLS 251930Z AUTO 33004KT 270V010 9999 FEW019 OVC043 06/03 Q0996 TEMPO 3000 BR BKN008",
      "taf": "TAF LFLS 251400Z 2515/2615 24008KT 9999 SCT050 BKN080"
    },
    {
      "icao": "LFMN",
      "alert": "OK",
      "vis_m": 9999,
      "fzfg": false,
      "metar_trigger": false,
      "taf_trigger": false,
      "metar": "METAR LFMN 251930Z 31008KT 9999 FEW043 BKN170 08/05 Q0996 NOSIG",
      "taf": "TAF LFMN 251400Z 2515/2621 21010KT 9999 FEW036"
    },
    {
      "icao": "LFOB",
      "alert": "OK",
      "vis_m": 9000,
      "fzfg": false,
      "metar_trigger": false,
      "taf_trigger": false,
      "metar": "METAR LFOB 251930Z AUTO 08007KT 9000 BKN005 OVC009 05/04 Q0994 BECMG 4000 BR",
      "taf": ""
    },
    {
      "icao": "LFPO",
      "alert": "OK",
      "vis_m": 8000,
      "fzfg": false,
      "metar_trigger": false,
      "taf_trigger": false,
      "metar": "METAR LFPO 251930Z VRB02KT 8000 BKN007 BKN023 06/06 Q0994 NOSIG",
      "taf": ""
    },
    {
      "icao": "LFSB",
      "alert": "OK",
      "vis_m": 1700,
      "fzfg": false,
      "metar_trigger": false,
      "taf_trigger": false,
      "metar": "METAR LFSB 251930Z AUTO 02004KT 350V080 1700 BR VV/// 02/02 Q0996 TEMPO 0600 FG",
      "taf": "TAF LFSB 251708Z 2518/2618 34005KT 6000 SCT004"
    },
    {
      "icao": "LGAV",
      "alert": "OK",
      "vis_m": 9999,
      "fzfg": false,
      "metar_trigger": false,
      "taf_trigger": false,
      "metar": "METAR LGAV 251920Z VRB02KT 9999 SCT025 12/10 Q1013 NOSIG",
      "taf": "TAF LGAV 251700Z 2518/2618 17015KT 9999 FEW018 SCT040"
    },
    {
      "icao": "LGTS",
      "alert": "OK",
      "vis_m": 9999,
      "fzfg": false,
      "metar_trigger": false,
      "taf_trigger": false,
      "metar": "METAR LGTS 251920Z VRB01KT 9999 FEW012 BKN030 09/09 Q1012 NOSIG",
      "taf": "TAF LGTS 251700Z 2518/2618 14005KT 9999 FEW008 BKN025"
    },
    {
      "icao": "LHBP",
      "alert": "OK",
      "vis_m": 9999,
      "fzfg": false,
      "metar_trigger": false,
      "taf_trigger": false,
      "metar": "METAR LHBP 251930Z 08008KT CAVOK 05/03 Q1000 NOSIG",
      "taf": "TAF LHBP 251715Z 2518/2618 07010KT 9999 -RA FEW020 BKN060"
    },
    {
      "icao": "LHDC",
      "alert": "OK",
      "vis_m": 9999,
      "fzfg": false,
      "metar_trigger": false,
      "taf_trigger": false,
      "metar": "METAR LHDC 251915Z AUTO 08008KT CAVOK 05/02 Q1002 NOSIG",
      "taf": "TAF LHDC 251715Z 2518/2603 06008KT 8000 SCT045 BKN080"
    },
    {
      "icao": "LIBD",
      "alert": "OK",
      "vis_m": 9000,
      "fzfg": false,
      "metar_trigger": false,
      "taf_trigger": false,
      "metar": "METAR LIBD 251920Z 22007KT 9000 NSC 09/06 Q1000",
      "taf": "TAF LIBD 251700Z 2518/2618 19008KT 9999 SCT030"
    },
    {
      "icao": "LIBG",
      "alert": "OK",
      "vis_m": 7000,
      "fzfg": false,
      "metar_trigger": false,
      "taf_trigger": false,
      "metar": "METAR LIBG 251850Z 31003KT 7000 -RA BKN040 10/09 Q1002",
      "taf": "TAF LIBG 251700Z 2518/2603 29007KT 7000 BKN020"
    },
    {
      "icao": "LIBP",
      "alert": "OK",
      "vis_m": 9999,
      "fzfg": false,
      "metar_trigger": false,
      "taf_trigger": false,
      "metar": "METAR LIBP 251920Z AUTO VRB02KT 9999 BKN086/// 11/08 Q0999",
      "taf": "TAF LIBP 251700Z 2518/2618 23014KT 9999 FEW040"
    },
    {
      "icao": "LIBR",
      "alert": "OK",
      "vis_m": 8000,
      "fzfg": false,
      "metar_trigger": false,
      "taf_trigger": false,
      "metar": "METAR LIBR 251920Z 29003KT 220V330 8000 -RA SCT045 11/09 Q1002",
      "taf": "TAF LIBR 251700Z 2518/2618 27008KT 8000 SCT020"
    },
    {
      "icao": "LICA",
      "alert": "OK",
      "vis_m": 9999,
      "fzfg": false,
      "metar_trigger": false,
      "taf_trigger": false,
      "metar": "METAR LICA 251920Z AUTO 19005KT 9999 BKN060/// OVC096/// 10/08 Q1004",
      "taf": "TAF LICA 251700Z 2518/2618 26013KT 9999 SCT015 BKN030"
    },
    {
      "icao": "LICC",
      "alert": "OK",
      "vis_m": 9999,
      "fzfg": false,
      "metar_trigger": false,
      "taf_trigger": false,
      "metar": "METAR LICC 251920Z 27008KT 9999 FEW030 11/09 Q1004",
      "taf": "TAF LICC 251700Z 2518/2618 26015KT 9999 SCT030"
    },
    {
      "icao": "LICJ",
      "alert": "OK",
      "vis_m": 9999,
      "fzfg": false,
      "metar_trigger": false,
      "taf_trigger": false,
      "metar": "METAR LICJ 251920Z 21010KT 9999 SCT030 SCT060 12/08 Q1004",
      "taf": "TAF LICJ 251700Z 2518/2618 26018KT 9999 BKN025"
    },
    {
      "icao": "LIMC",
      "alert": "OK",
      "vis_m": 9999,
      "fzfg": false,
      "metar_trigger": false,
      "taf_trigger": false,
      "metar": "METAR LIMC 251920Z VRB01KT 9999 SCT010 BKN025 05/04 Q0996 NOSIG",
      "taf": "TAF LIMC 251700Z 2518/2624 VRB05KT 3000 BR BKN006"
    },
    {
      "icao": "LIME",
      "alert": "OK",
      "vis_m": 8000,
      "fzfg": false,
      "metar_trigger": false,
      "taf_trigger": false,
      "metar": "METAR LIME 251920Z VRB02KT 8000 BKN070 05/04 Q0997 NOSIG",
      "taf": "TAF LIME 251700Z 2518/2618 VRB05KT 6000 BKN010"
    },
    {
      "icao": "LIMF",
      "alert": "OK",
      "vis_m": 9999,
      "fzfg": false,
      "metar_trigger": false,
      "taf_trigger": false,
      "metar": "METAR LIMF 251920Z 08003KT 9999 BKN130 04/03 Q0996",
      "taf": "TAF LIMF 251700Z 2518/2618 VRB04KT 7000 FEW010 BKN030"
    },
    {
      "icao": "LIMJ",
      "alert": "OK",
      "vis_m": 9999,
      "fzfg": false,
      "metar_trigger": false,
      "taf_trigger": false,
      "metar": "METAR LIMJ 251920Z 05006KT 9999 -RA SCT028 BKN035 08/07 Q0997",
      "taf": "TAF LIMJ 251700Z 2518/2618 15008KT 9999 SCT020"
    },
    {
      "icao": "LIPE",
      "alert": "OK",
      "vis_m": 7000,
      "fzfg": false,
      "metar_trigger": false,
      "taf_trigger": false,
      "metar": "METAR LIPE 251920Z 28003KT 7000 BKN010 05/04 Q0998",
      "taf": "TAF LIPE 251700Z 2518/2618 VRB05KT 7000 BKN006"
    },
    {
      "icao": "LIPH",
      "alert": "OK",
      "vis_m": 7000,
      "fzfg": false,
      "metar_trigger": false,
      "taf_trigger": false,
      "metar": "METAR LIPH 251920Z 17003KT 130V210 7000 BKN005 06/06 Q0998",
      "taf": "TAF LIPH 251700Z 2518/2618 VRB05KT 8000 BKN030"
    },
    {
      "icao": "LIPQ",
      "alert": "OK",
      "vis_m": 9999,
      "fzfg": false,
      "metar_trigger": false,
      "taf_trigger": false,
      "metar": "METAR LIPQ 251920Z AUTO 09003KT 9999 FEW021/// BKN026/// 06/06 Q0998",
      "taf": "TAF LIPQ 251700Z 2518/2618 VRB06KT 8000 BKN015"
    },
    {
      "icao": "LIPR",
      "alert": "OK",
      "vis_m": 9999,
      "fzfg": false,
      "metar_trigger": false,
      "taf_trigger": false,
      "metar": "METAR LIPR 251920Z 30007KT 9999 4000E FEW070 08/07 Q0998",
      "taf": "TAF LIPR 251700Z 2518/2618 VRB06KT 9000 SCT020"
    },
    {
      "icao": "LIPX",
      "alert": "OK",
      "vis_m": 6000,
      "fzfg": false,
      "metar_trigger": false,
      "taf_trigger": false,
      "metar": "METAR LIPX 251920Z 23004KT 210V270 6000 OVC010 06/05 Q0997",
      "taf": "TAF LIPX 251700Z 2518/2618 VRB05KT 6000 BKN005"
    },
    {
      "icao": "LIPY",
      "alert": "OK",
      "vis_m": 9999,
      "fzfg": false,
      "metar_trigger": false,
      "taf_trigger": false,
      "metar": "METAR LIPY 251920Z AUTO 19007KT 9999 RA BKN043/// OVC085/// 10/07 Q0998",
      "taf": "TAF LIPY 251700Z 2518/2618 VRB06KT 8000 SCT050"
    },
    {
      "icao": "LIPZ",
      "alert": "OK",
      "vis_m": 7000,
      "fzfg": false,
      "metar_trigger": false,
      "taf_trigger": false,
      "metar": "METAR LIPZ 251920Z 24007KT 7000 BKN005 06/05 Q0998 NOSIG",
      "taf": "TAF LIPZ 251700Z 2518/2624 VRB05KT 7000 SCT010"
    },
    {
      "icao": "LIRF",
      "alert": "OK",
      "vis_m": 8000,
      "fzfg": false,
      "metar_trigger": false,
      "taf_trigger": false,
      "metar": "METAR LIRF 251920Z 25010KT 8000 -SHRA SCT015TCU SCT030 10/06 Q0998 RESHRA WS R16L TEMPO 4000 SHRA",
      "taf": "TAF LIRF 251700Z 2518/2624 21014KT 9999 SCT030"
    },
    {
      "icao": "LIRN",
      "alert": "OK",
      "vis_m": 9999,
      "fzfg": false,
      "metar_trigger": false,
      "taf_trigger": false,
      "metar": "METAR LIRN 251920Z VRB02KT 9999 -RA FEW015 SCT035 10/07 Q1001 NOSIG",
      "taf": "TAF LIRN 251700Z 2518/2618 19012KT 9999 BKN020"
    },
    {
      "icao": "LIRP",
      "alert": "OK",
      "vis_m": 9999,
      "fzfg": false,
      "metar_trigger": false,
      "taf_trigger": false,
      "metar": "METAR LIRP 251915Z 03003KT 9999 FEW070 07/07 Q0998 NOSIG",
      "taf": "TAF LIRP 251700Z 2518/2618 10005KT 9999 SCT030"
    },
    {
      "icao": "LIRZ",
      "alert": "OK",
      "vis_m": 9999,
      "fzfg": false,
      "metar_trigger": false,
      "taf_trigger": false,
      "metar": "METAR LIRZ 251920Z AUTO VRB02KT 9999 SCT037/// BKN074/// BKN099/// 07/05 Q0998",
      "taf": "TAF LIRZ 251700Z 2518/2618 19012KT 9999 BKN030"
    },
    {
      "icao": "LJLJ",
      "alert": "OK",
      "vis_m": 2000,
      "fzfg": false,
      "metar_trigger": false,
      "taf_trigger": false,
      "metar": "METAR LJLJ 251900Z 10002KT 2000 BR SCT003 BKN020 03/02 Q0997 NOSIG",
      "taf": "TAF LJLJ 251700Z 2518/2618 30003KT 6000 SCT007 BKN015"
    },
    {
      "icao": "LKMT",
      "alert": "OK",
      "vis_m": 4000,
      "fzfg": false,
      "metar_trigger": false,
      "taf_trigger": false,
      "metar": "METAR LKMT 251930Z VRB01KT 4000 BR SCT040 01/00 Q1000 NOSIG",
      "taf": "TAF LKMT 251700Z 2518/2618 02006KT 3500 BR SCT006 BKN027"
    },
    {
      "icao": "LKPR",
      "alert": "OK",
      "vis_m": 2300,
      "fzfg": false,
      "metar_trigger": false,
      "taf_trigger": false,
      "metar": "METAR LKPR 251930Z 08010KT 2300 -RA BR FEW001 BKN002 OVC004 03/03 Q0994 NOSIG",
      "taf": "TAF LKPR 251700Z 2518/2624 06006KT 4000 -RA BR OVC008"
    },
    {
      "icao": "LLBG",
      "alert": "OK",
      "vis_m": 9999,
      "fzfg": false,
      "metar_trigger": false,
      "taf_trigger": false,
      "metar": "METAR LLBG 251920Z VRB02KT CAVOK 13/09 Q1020 NOSIG",
      "taf": "TAF LLBG 251705Z 2518/2618 VRB03KT CAVOK"
    },
    {
      "icao": "LMML",
      "alert": "OK",
      "vis_m": 9999,
      "fzfg": false,
      "metar_trigger": false,
      "taf_trigger": false,
      "metar": "METAR LMML 251915Z 27014KT 9999 FEW031 12/07 Q1007 TEMPO 8000 SHRA SCT029TCU",
      "taf": "TAF LMML 251700Z 2518/2618 28020G30KT 9999 SCT020"
    },
    {
      "icao": "LOWW",
      "alert": "OK",
      "vis_m": 5000,
      "fzfg": false,
      "metar_trigger": false,
      "taf_trigger": false,
      "metar": "METAR LOWW 251920Z 10007KT 050V130 5000 BR FEW003 BKN005 04/03 Q0997 TEMPO 4000 BR BKN004",
      "taf": "TAF LOWW 251715Z 2518/2624 14012KT 2000 BR FEW002 BKN005 TX05/2614Z TN00/2607Z"
    },
    {
      "icao": "LPFR",
      "alert": "OK",
      "vis_m": 9999,
      "fzfg": false,
      "metar_trigger": false,
      "taf_trigger": false,
      "metar": "METAR LPFR 251900Z 24017KT 9999 -RADZ BKN006 15/14 Q1016",
      "taf": "TAF LPFR 251700Z 2518/2618 24012KT 9999 SCT008 BKN015"
    },
    {
      "icao": "LPMA",
      "alert": "OK",
      "vis_m": 9999,
      "fzfg": false,
      "metar_trigger": false,
      "taf_trigger": false,
      "metar": "METAR LPMA 251900Z 33006KT 9999 FEW016 16/10 Q1025",
      "taf": "TAF LPMA 251700Z 2518/2618 VRB05KT 9999 SCT015"
    },
    {
      "icao": "LPPR",
      "alert": "OK",
      "vis_m": 8000,
      "fzfg": false,
      "metar_trigger": false,
      "taf_trigger": false,
      "metar": "METAR LPPR 251900Z 22002KT 8000 FEW020 BKN036 11/09 Q1013",
      "taf": "TAF LPPR 251700Z 2518/2618 26008KT 9999 FEW020 BKN030"
    },
    {
      "icao": "LPPS",
      "alert": "OK",
      "vis_m": 9999,
      "fzfg": false,
      "metar_trigger": false,
      "taf_trigger": false,
      "metar": "METAR LPPS 251900Z 28012KT 9999 FEW015 17/12 Q1025",
      "taf": "TAF LPPS 251700Z 2518/2624 27013KT 9999 FEW015 SCT030"
    },
    {
      "icao": "LPPT",
      "alert": "OK",
      "vis_m": 9999,
      "fzfg": false,
      "metar_trigger": false,
      "taf_trigger": false,
      "metar": "METAR LPPT 251900Z 25005KT 9999 FEW008 13/12 Q1014",
      "taf": "TAF LPPT 251700Z 2518/2624 25008KT 9999 SCT008 BKN015"
    },
    {
      "icao": "LQBK",
      "alert": "OK",
      "vis_m": 1300,
      "fzfg": false,
      "metar_trigger": false,
      "taf_trigger": false,
      "metar": "METAR LQBK 251900Z 14005KT 1300 0600S R16/P2000N PRFG NSC 06/06 Q0997 NOSIG",
      "taf": ""
    },
    {
      "icao": "LQSA",
      "alert": "OK",
      "vis_m": 8000,
      "fzfg": false,
      "metar_trigger": false,
      "taf_trigger": false,
      "metar": "METAR LQSA 251900Z 11005KT 060V150 8000 -RA FEW025 BKN035 05/04 Q1001 TEMPO 3000 SHRA SCT010 FEW035TCU BKN045",
      "taf": "TAF LQSA 251700Z 2518/2618 11006KT 9999 BKN050 TX09/2613Z TN01/2606Z"
    },
    {
      "icao": "LQTZ",
      "alert": "OK",
      "vis_m": 9999,
      "fzfg": false,
      "metar_trigger": false,
      "taf_trigger": false,
      "metar": "METAR LQTZ 251900Z 20010G21KT 170V270 9999 -RA FEW045 OVC055 10/07 Q0999",
      "taf": "TAF LQTZ 251700Z 2518/2618 12005KT 9999 BKN050 TX10/2518Z TN03/2605Z"
    },
    {
      "icao": "LRBC",
      "alert": "OK",
      "vis_m": 6000,
      "fzfg": false,
      "metar_trigger": false,
      "taf_trigger": false,
      "metar": "METAR LRBC 251900Z 18006KT 6000 OVC003 M00/M00 Q1013",
      "taf": "TAF LRBC 251700Z 2518/2603 18007KT 5000 BR OVC005"
    },
    {
      "icao": "LRBS",
      "alert": "OK",
      "vis_m": 1500,
      "fzfg": true,
      "metar_trigger": false,
      "taf_trigger": false,
      "metar": "METAR LRBS 251900Z 02005KT 350V050 1500 BR OVC001 M00/M00 Q1012 TEMPO 0800 FZFG",
      "taf": "TAF LRBS 251700Z 2518/2618 06010KT 0200 FG VV001"
    },
    {
      "icao": "LRBV",
      "alert": "OK",
      "vis_m": 9999,
      "fzfg": false,
      "metar_trigger": false,
      "taf_trigger": false,
      "metar": "METAR LRBV 251900Z 12007KT CAVOK 04/01 Q1008",
      "taf": "TAF LRBV 251700Z 2518/2603 16010KT CAVOK"
    },
    {
      "icao": "LRCL",
      "alert": "OK",
      "vis_m": 9999,
      "fzfg": false,
      "metar_trigger": false,
      "taf_trigger": false,
      "metar": "METAR LRCL 251900Z 08009KT CAVOK 05/01 Q1006",
      "taf": "TAF LRCL 251700Z 2518/2603 08006KT 9999 SCT060"
    },
    {
      "icao": "LRCV",
      "alert": "OK",
      "vis_m": 350,
      "fzfg": true,
      "metar_trigger": false,
      "taf_trigger": false,
      "metar": "METAR LRCV 251900Z 16007KT 0350 R26/0500N FZFG VV002 M00/M00 Q1011",
      "taf": "TAF LRCV 251700Z 2518/2603 09007KT 0600 FG VV002"
    },
    {
      "icao": "LRIA",
      "alert": "OK",
      "vis_m": 400,
      "fzfg": false,
      "metar_trigger": false,
      "taf_trigger": false,
      "metar": "METAR LRIA 251900Z 10010KT 0400 R14/1400N FG OVC001 00/M00 Q1014",
      "taf": "TAF LRIA 251700Z 2518/2603 11010KT 0800 FG OVC001"
    },
    {
      "icao": "LROP",
      "alert": "OK",
      "vis_m": 600,
      "fzfg": true,
      "metar_trigger": false,
      "taf_trigger": false,
      "metar": "METAR LROP 251900Z 03008KT 0600 R08R/0800D R08L/1000U FZFG VV001 M00/M00 Q1012 NOSIG",
      "taf": "TAF LROP 251700Z 2518/2618 07010KT 0200 FG VV001"
    },
    {
      "icao": "LRSB",
      "alert": "OK",
      "vis_m": 9999,
      "fzfg": false,
      "metar_trigger": false,
      "taf_trigger": false,
      "metar": "METAR LRSB 251900Z 09009KT CAVOK 09/03 Q1006",
      "taf": "TAF LRSB 251700Z 2518/2618 13012KT 9999 SCT070"
    },
    {
      "icao": "LRSM",
      "alert": "OK",
      "vis_m": 9999,
      "fzfg": false,
      "metar_trigger": false,
      "taf_trigger": false,
      "metar": "METAR LRSM 251900Z AUTO 11002KT 9999 OVC170/// 05/00 Q1004",
      "taf": "TAF LRSM 251400Z 2515/2524 12006KT 9999 BKN045"
    },
    {
      "icao": "LRSV",
      "alert": "OK",
      "vis_m": 200,
      "fzfg": true,
      "metar_trigger": false,
      "taf_trigger": false,
      "metar": "METAR LRSV 251900Z 15010KT 0200 R34/0550D FZFG VV001 M01/M01 Q1011",
      "taf": "TAF LRSV 251700Z 2518/2603 14012KT 0150 FZFG VV001"
    },
    {
      "icao": "LRTM",
      "alert": "OK",
      "vis_m": 6000,
      "fzfg": false,
      "metar_trigger": false,
      "taf_trigger": false,
      "metar": "METAR LRTM 251900Z AUTO 09007KT 6000 NCD 03/01 Q1007",
      "taf": "TAF LRTM 251400Z 2515/2524 VRB04KT 5000 BR NSC"
    },
    {
      "icao": "LRTR",
      "alert": "OK",
      "vis_m": 9999,
      "fzfg": false,
      "metar_trigger": false,
      "taf_trigger": false,
      "metar": "METAR LRTR 251900Z 11011KT CAVOK 07/03 Q1002",
      "taf": "TAF LRTR 251700Z 2518/2618 10010KT 9999 BKN045"
    },
    {
      "icao": "LTAC",
      "alert": "OK",
      "vis_m": 8000,
      "fzfg": false,
      "metar_trigger": false,
      "taf_trigger": false,
      "metar": "METAR LTAC 251920Z 04004KT 010V080 8000 SCT040 06/04 Q1019 NOSIG",
      "taf": "TAF LTAC 251640Z 2518/2618 VRB02KT 9999 SCT040"
    },
    {
      "icao": "LTFM",
      "alert": "OK",
      "vis_m": 9999,
      "fzfg": false,
      "metar_trigger": false,
      "taf_trigger": false,
      "metar": "METAR LTFM 251920Z 19005KT CAVOK 11/08 Q1015 NOSIG",
      "taf": "TAF LTFM 251640Z 2518/2624 18010KT CAVOK"
    },
    {
      "icao": "LUKK",
      "alert": "OK",
      "vis_m": 4000,
      "fzfg": true,
      "metar_trigger": false,
      "taf_trigger": false,
      "metar": "METAR LUKK 251900Z 11009KT 4000 -FZDZ BR OVC001 M00/M00 Q1015 TEMPO 0800 -FZDZ FZFG",
      "taf": "TAF LUKK 251706Z 2518/2618 11009KT 1500 FZDZ BR OVC002"
    },
    {
      "icao": "LWOH",
      "alert": "OK",
      "vis_m": 9999,
      "fzfg": false,
      "metar_trigger": false,
      "taf_trigger": false,
      "metar": "METAR LWOH 251920Z 36003KT 310V030 9999 FEW040 SCT090 06/04 Q1007",
      "taf": "TAF LWOH 251730Z 2518/2618 16010KT 9999 FEW040 SCT090"
    },
    {
      "icao": "LWSK",
      "alert": "OK",
      "vis_m": 9999,
      "fzfg": false,
      "metar_trigger": false,
      "taf_trigger": false,
      "metar": "METAR LWSK 251920Z 13010KT 090V180 9999 SCT020 11/08 Q1008 NOSIG",
      "taf": "TAF LWSK 251730Z 2518/2618 15012KT 9999 SCT020"
    },
    {
      "icao": "LYBE",
      "alert": "OK",
      "vis_m": 9999,
      "fzfg": false,
      "metar_trigger": false,
      "taf_trigger": false,
      "metar": "METAR LYBE 251900Z 14021KT CAVOK 10/03 Q1001 NOSIG",
      "taf": "TAF LYBE 251700Z 2518/2618 12014KT CAVOK TX10/2613Z TN05/2606Z"
    },
    {
      "icao": "LYNI",
      "alert": "OK",
      "vis_m": 9999,
      "fzfg": false,
      "metar_trigger": false,
      "taf_trigger": false,
      "metar": "METAR LYNI 251900Z 13012KT 100V160 CAVOK 11/05 Q1005 NOSIG",
      "taf": "TAF LYNI 251700Z 2518/2618 10008KT 9999 SCT040 SCT090 TX10/2613Z TN06/2606Z"
    },
    {
      "icao": "LYPG",
      "alert": "OK",
      "vis_m": 9999,
      "fzfg": false,
      "metar_trigger": false,
      "taf_trigger": false,
      "metar": "METAR LYPG 251900Z 15021KT 9999 -RA FEW033 SCT050 OVC080 16/09 Q1001 TEMPO 15032KT 5000 SHRA FEW027 SCT030TCU BKN050",
      "taf": "TAF LYPG 251700Z 2518/2618 15012KT 9999 FEW030 SCT040 OVC080 TX12/2613Z TN08/2605Z"
    },
    {
      "icao": "LZIB",
      "alert": "OK",
      "vis_m": 6000,
      "fzfg": false,
      "metar_trigger": false,
      "taf_trigger": false,
      "metar": "METAR LZIB 251930Z 06008KT 6000 -RA FEW004 SCT006 04/03 Q0998 NOSIG",
      "taf": "TAF LZIB 251715Z 2518/2618 06010KT 9999 FEW007 BKN010 OVC017"
    },
    {
      "icao": "LZKZ",
      "alert": "OK",
      "vis_m": 9999,
      "fzfg": false,
      "metar_trigger": false,
      "taf_trigger": false,
      "metar": "METAR LZKZ 251930Z 35009KT CAVOK 05/02 Q1004 NOSIG",
      "taf": "TAF LZKZ 251715Z 2518/2618 36008KT 9999 BKN028"
    },
    {
      "icao": "LZTT",
      "alert": "OK",
      "vis_m": 8000,
      "fzfg": false,
      "metar_trigger": false,
      "taf_trigger": false,
      "metar": "METAR LZTT 251930Z VRB01KT 8000 FEW006 SCT013 BKN030 02/01 Q1003",
      "taf": "TAF LZTT 251715Z 2518/2618 18004KT 9999 FEW005 OVC020"
    },
    {
      "icao": "OEJN",
      "alert": "OK",
      "vis_m": 9999,
      "fzfg": false,
      "metar_trigger": false,
      "taf_trigger": false,
      "metar": "METAR OEJN 251900Z 02004KT CAVOK 24/13 Q1015 NOSIG",
      "taf": "TAF OEJN 251700Z 2518/2624 VRB03KT CAVOK"
    },
    {
      "icao": "OEMA",
      "alert": "OK",
      "vis_m": 9999,
      "fzfg": false,
      "metar_trigger": false,
      "taf_trigger": false,
      "metar": "METAR OEMA 251900Z 11006KT CAVOK 18/M05 Q1022 NOSIG",
      "taf": "TAF OEMA 251700Z 2518/2624 07008KT 9999 FEW045"
    },
    {
      "icao": "OJAI",
      "alert": "OK",
      "vis_m": 5000,
      "fzfg": false,
      "metar_trigger": false,
      "taf_trigger": false,
      "metar": "METAR OJAI 251900Z 10006KT 5000 HZ NSC 08/03 Q1023 NOSIG",
      "taf": "TAF OJAI 251700Z 2518/2624 13010KT 5000 HZ NSC"
    },
    {
      "icao": "OMAA",
      "alert": "OK",
      "vis_m": 9999,
      "fzfg": false,
      "metar_trigger": false,
      "taf_trigger": false,
      "metar": "METAR OMAA 251930Z 28015KT CAVOK 21/14 Q1014 NOSIG",
      "taf": "TAF OMAA 251700Z 2518/2700 20008KT 8000 FEW035"
    },
    {
      "icao": "OMDB",
      "alert": "OK",
      "vis_m": 9999,
      "fzfg": false,
      "metar_trigger": false,
      "taf_trigger": false,
      "metar": "METAR OMDB 251930Z 22003KT 160V290 9999 SCT045 20/15 Q1013 BECMG 28015KT",
      "taf": "TAF OMDB 251700Z 2518/2700 VRB02KT 8000 FEW030"
    },
    {
      "icao": "UAAA",
      "alert": "OK",
      "vis_m": 400,
      "fzfg": true,
      "metar_trigger": false,
      "taf_trigger": false,
      "metar": "METAR UAAA 251900Z 13001MPS 0400 R05R/1100 FZFG FEW100 SCT200 M07/M09 Q1023 NOSIG",
      "taf": "TAF UAAA 251701Z 2518/2618 17003MPS 1500 BR FU SCT030 BKN100 TX01/2608Z TNM07/2602Z"
    },
    {
      "icao": "UBBB",
      "alert": "OK",
      "vis_m": 9999,
      "fzfg": false,
      "metar_trigger": false,
      "taf_trigger": false,
      "metar": "METAR UBBB 251930Z 31006KT 9999 FEW015 OVC030 06/05 Q1022 NOSIG",
      "taf": "TAF UBBB 251704Z 2518/2618 31008KT 9999 SCT012 BKN030 TX08/2610Z TN02/2601Z"
    },
    {
      "icao": "UDSG",
      "alert": "OK",
      "vis_m": 1400,
      "fzfg": true,
      "metar_trigger": false,
      "taf_trigger": false,
      "metar": "METAR UDSG 251900Z 08001KT 1400 R02/P2000U BR VV006 M11/M12 Q1023 NOSIG",
      "taf": "TAF UDSG 251700Z 2518/2618 VRB06KT 0800 FZFG OVC005"
    },
    {
      "icao": "UDYZ",
      "alert": "OK",
      "vis_m": 2000,
      "fzfg": false,
      "metar_trigger": false,
      "taf_trigger": false,
      "metar": "METAR UDYZ 251900Z VRB01KT 2000 R08/P2000U BR BKN007 M03/M05 Q1026 NOSIG",
      "taf": "TAF UDYZ 251700Z 2518/2618 VRB04KT 2000 BR BKN010"
    },
    {
      "icao": "UGKO",
      "alert": "OK",
      "vis_m": 9999,
      "fzfg": false,
      "metar_trigger": false,
      "taf_trigger": false,
      "metar": "METAR UGKO 251900Z 09005KT 9999 SCT048 BKN053 06/05 Q1022 NOSIG",
      "taf": "TAF UGKO 251700Z 2518/2618 08007KT 9999 BKN050 TX15/2611Z TN03/2604Z"
    }
  ]
}