{
  "ts_utc": "2026-01-05T06:54:55Z",
  "threshold_m": 150,
  "source": "stations_override.txt (ICAO list) + aviationweather.gov (METAR/TAF raw)",
  "station_count": 159,
  "stations": [
    {
      "icao": "BIKF",
      "alert": "OK",
      "vis_m": 9999,
      "fzfg": false,
      "metar_trigger": false,
      "taf_trigger": false,
      "metar": "METAR BIKF 050630Z 36001KT 9999 -RA BKN010 BKN034 01/00 Q1020",
      "taf": "TAF BIKF 050447Z 0506/0606 20006KT 9999 SCT012 BKN020 TX01/0511Z TNM03/0606Z"
    },
    {
      "icao": "BKPR",
      "alert": "OK",
      "vis_m": null,
      "fzfg": false,
      "metar_trigger": false,
      "taf_trigger": false,
      "metar": "",
      "taf": "TAF BKPR 050530Z 0506/0606 19010KT 9999 SCT020 BKN040"
    },
    {
      "icao": "EBCI",
      "alert": "OK",
      "vis_m": 5000,
      "fzfg": false,
      "metar_trigger": false,
      "taf_trigger": false,
      "metar": "METAR EBCI 050620Z 19010KT 5000 -SN SCT030 M04/M06 Q1011 TEMPO 2000 -SHSN BKN006",
      "taf": "TAF EBCI 050515Z 0506/0612 21009KT 9999 SCT030"
    },
    {
      "icao": "EDDB",
      "alert": "OK",
      "vis_m": 9999,
      "fzfg": false,
      "metar_trigger": false,
      "taf_trigger": false,
      "metar": "METAR EDDB 050650Z AUTO 18007KT CAVOK M01/M04 Q1012 NOSIG",
      "taf": "TAF EDDB 050500Z 0506/0606 19005KT 9999 BKN040"
    },
    {
      "icao": "EDDH",
      "alert": "OK",
      "vis_m": 9999,
      "fzfg": false,
      "metar_trigger": false,
      "taf_trigger": false,
      "metar": "METAR EDDH 050650Z AUTO 21011KT 9999 FEW011 OVC028 M00/M02 Q1008 TEMPO BKN011",
      "taf": "TAF EDDH 050500Z 0506/0612 18007KT 9999 BKN015"
    },
    {
      "icao": "EDDK",
      "alert": "OK",
      "vis_m": 9999,
      "fzfg": false,
      "metar_trigger": false,
      "taf_trigger": false,
      "metar": "METAR EDDK 050650Z AUTO 14006KT 9999 FEW037 M05/M07 Q1012 NOSIG",
      "taf": "TAF EDDK 050500Z 0506/0612 16005KT 9999 SCT025"
    },
    {
      "icao": "EDDN",
      "alert": "OK",
      "vis_m": 9999,
      "fzfg": false,
      "metar_trigger": false,
      "taf_trigger": false,
      "metar": "METAR EDDN 050650Z AUTO VRB01KT 9999 OVC034 M03/M09 Q1013 NOSIG",
      "taf": "TAF EDDN 050500Z 0506/0606 23004KT 9999 OVC035"
    },
    {
      "icao": "EDDS",
      "alert": "OK",
      "vis_m": 9999,
      "fzfg": false,
      "metar_trigger": false,
      "taf_trigger": false,
      "metar": "METAR EDDS 050650Z AUTO VRB02KT CAVOK M09/M11 Q1012 NOSIG",
      "taf": "TAF EDDS 050500Z 0506/0606 VRB03KT 9999 BKN030"
    },
    {
      "icao": "EDFH",
      "alert": "OK",
      "vis_m": 6000,
      "fzfg": false,
      "metar_trigger": false,
      "taf_trigger": false,
      "metar": "METAR EDFH 050620Z 26007KT 220V300 6000 SCT001 OVC002 M06/M07 Q1010",
      "taf": "TAF EDFH 050500Z 0506/0606 23006KT 9999 BKN005"
    },
    {
      "icao": "EDJA",
      "alert": "OK",
      "vis_m": 9999,
      "fzfg": false,
      "metar_trigger": false,
      "taf_trigger": false,
      "metar": "METAR EDJA 050620Z 20004KT 9999 OVC028 M09/M11 Q1011",
      "taf": "TAF EDJA 050500Z 0506/0515 20003KT 9999 BKN030"
    },
    {
      "icao": "EDLW",
      "alert": "OK",
      "vis_m": 9999,
      "fzfg": false,
      "metar_trigger": false,
      "taf_trigger": false,
      "metar": "METAR EDLW 050620Z COR 18011KT CAVOK M03/M07 Q1010",
      "taf": "TAF EDLW 050500Z 0506/0606 19009KT 9999 SCT020"
    },
    {
      "icao": "EDNY",
      "alert": "OK",
      "vis_m": 9999,
      "fzfg": false,
      "metar_trigger": false,
      "taf_trigger": false,
      "metar": "METAR EDNY 050620Z AUTO 06004KT 9999 // OVC029/// M08/M09 Q1013",
      "taf": "TAF EDNY 050500Z 0506/0515 VRB02KT 9999 FEW009"
    },
    {
      "icao": "EDSB",
      "alert": "OK",
      "vis_m": 4000,
      "fzfg": false,
      "metar_trigger": false,
      "taf_trigger": false,
      "metar": "METAR EDSB 050620Z 20003KT 180V240 4000 BR OVC002 M06/M06 Q1015",
      "taf": ""
    },
    {
      "icao": "EETN",
      "alert": "OK",
      "vis_m": 9999,
      "fzfg": false,
      "metar_trigger": false,
      "taf_trigger": false,
      "metar": "METAR EETN 050650Z 07004KT 9999 FEW014 BKN018 M09/M11 Q1012 NOSIG",
      "taf": "TAF EETN 050530Z 0506/0606 05010KT 9999 BKN015"
    },
    {
      "icao": "EFTU",
      "alert": "OK",
      "vis_m": 9999,
      "fzfg": false,
      "metar_trigger": false,
      "taf_trigger": false,
      "metar": "METAR EFTU 050650Z AUTO VRB01KT CAVOK M23/M25 Q1013",
      "taf": "TAF EFTU 050526Z 0506/0606 VRB02KT CAVOK"
    },
    {
      "icao": "EGBB",
      "alert": "OK",
      "vis_m": 9999,
      "fzfg": false,
      "metar_trigger": false,
      "taf_trigger": false,
      "metar": "METAR EGBB 050650Z 28004KT CAVOK M03/M05 Q1011",
      "taf": "TAF EGBB 050454Z 0506/0606 34005KT 9999 FEW025"
    },
    {
      "icao": "EGGP",
      "alert": "OK",
      "vis_m": 9999,
      "fzfg": false,
      "metar_trigger": false,
      "taf_trigger": false,
      "metar": "METAR EGGP 050620Z VRB01KT 9999 FEW029 M03/M05 Q1012",
      "taf": "TAF EGGP 050455Z 0506/0606 31005KT 9999 FEW030"
    },
    {
      "icao": "EGGW",
      "alert": "OK",
      "vis_m": 9999,
      "fzfg": false,
      "metar_trigger": false,
      "taf_trigger": false,
      "metar": "METAR EGGW 050620Z AUTO 31011KT 9999 NCD M02/M03 Q1010",
      "taf": "TAF EGGW 050456Z 0506/0606 31009KT 9999 BKN010"
    },
    {
      "icao": "EGKK",
      "alert": "OK",
      "vis_m": 9999,
      "fzfg": false,
      "metar_trigger": false,
      "taf_trigger": false,
      "metar": "METAR EGKK 050650Z 32005KT 9999 SCT017 M01/M02 Q1011",
      "taf": "TAF EGKK 050503Z 0506/0612 24005KT 9999 FEW035"
    },
    {
      "icao": "EGNM",
      "alert": "OK",
      "vis_m": 9999,
      "fzfg": false,
      "metar_trigger": false,
      "taf_trigger": false,
      "metar": "METAR EGNM 050620Z 30014KT CAVOK M04/M08 Q1010",
      "taf": "TAF EGNM 050522Z 0506/0606 31006KT CAVOK"
    },
    {
      "icao": "EGPD",
      "alert": "OK",
      "vis_m": 9999,
      "fzfg": false,
      "metar_trigger": false,
      "taf_trigger": false,
      "metar": "METAR EGPD 050620Z AUTO 31013KT 9999 FEW044 M00/M02 Q1011 TEMPO 4000 -SHSN",
      "taf": "TAF EGPD 050456Z 0506/0606 30009KT 9999 FEW012"
    },
    {
      "icao": "EGPF",
      "alert": "OK",
      "vis_m": 9999,
      "fzfg": false,
      "metar_trigger": false,
      "taf_trigger": false,
      "metar": "METAR EGPF 050650Z AUTO 20003KT 9999 NCD M06/M07 Q1014",
      "taf": "TAF EGPF 050453Z 0506/0606 27008KT CAVOK"
    },
    {
      "icao": "EHBK",
      "alert": "OK",
      "vis_m": 9999,
      "fzfg": false,
      "metar_trigger": false,
      "taf_trigger": false,
      "metar": "METAR EHBK 050625Z AUTO 20014KT 9999 BKN028/// M04/M07 Q1011 NOSIG",
      "taf": "TAF EHBK 050515Z 0506/0612 20007KT 9999 BKN025"
    },
    {
      "icao": "EHEH",
      "alert": "OK",
      "vis_m": 9999,
      "fzfg": false,
      "metar_trigger": false,
      "taf_trigger": false,
      "metar": "METAR EHEH 050625Z AUTO 19006KT 9999 FEW041 OVC085 M02/M06 Q1010 BLU NOSIG RMK TREND REMOTE BY EHWX",
      "taf": "TAF EHEH 050538Z 0506/0612 20008KT CAVOK"
    },
    {
      "icao": "EKBI",
      "alert": "OK",
      "vis_m": 9999,
      "fzfg": false,
      "metar_trigger": false,
      "taf_trigger": false,
      "metar": "METAR EKBI 050650Z AUTO 07009KT 9999 OVC017/// M03/M06 Q1006",
      "taf": "TAF EKBI 050527Z 0506/0606 07008KT 9999 OVC020"
    },
    {
      "icao": "EKCH",
      "alert": "OK",
      "vis_m": 9999,
      "fzfg": false,
      "metar_trigger": false,
      "taf_trigger": false,
      "metar": "METAR EKCH 050650Z 09006KT 9999 BKN030 M03/M06 Q1009 NOSIG",
      "taf": "TAF EKCH 050527Z 0506/0606 02001KT 9999 FEW020"
    },
    {
      "icao": "ENAL",
      "alert": "OK",
      "vis_m": 9999,
      "fzfg": false,
      "metar_trigger": false,
      "taf_trigger": false,
      "metar": "METAR ENAL 050620Z 14012KT CAVOK M04/M10 Q1009",
      "taf": "TAF ENAL 050500Z 0506/0515 13012KT CAVOK"
    },
    {
      "icao": "ENBR",
      "alert": "OK",
      "vis_m": 9999,
      "fzfg": false,
      "metar_trigger": false,
      "taf_trigger": false,
      "metar": "METAR ENBR 050620Z 11005KT 9999 FEW049 M06/M13 Q1009 NOSIG RMK WIND 1200FT 12016KT",
      "taf": ""
    },
    {
      "icao": "ENGM",
      "alert": "OK",
      "vis_m": 9999,
      "fzfg": false,
      "metar_trigger": false,
      "taf_trigger": false,
      "metar": "METAR ENGM 050620Z 05006KT 9999 BKN027 M08/M12 Q1012 NOSIG",
      "taf": "TAF ENGM 050500Z 0506/0606 04008KT 9999 -SN BKN030"
    },
    {
      "icao": "ENHD",
      "alert": "OK",
      "vis_m": 9999,
      "fzfg": false,
      "metar_trigger": false,
      "taf_trigger": false,
      "metar": "METAR ENHD 050620Z 10011KT 9999 FEW039 M04/M10 Q1009",
      "taf": ""
    },
    {
      "icao": "ENTC",
      "alert": "OK",
      "vis_m": 9999,
      "fzfg": false,
      "metar_trigger": false,
      "taf_trigger": false,
      "metar": "METAR ENTC 050620Z 02008KT 350V050 9999 FEW015 M04/M10 Q1005 NOSIG RMK WIND 2600FT 36016KT",
      "taf": ""
    },
    {
      "icao": "ENTO",
      "alert": "OK",
      "vis_m": 9000,
      "fzfg": false,
      "metar_trigger": false,
      "taf_trigger": false,
      "metar": "METAR ENTO 050620Z 01008KT 9000 -SN OVC022 M08/M09 Q1011 NOSIG",
      "taf": "TAF ENTO 050500Z 0506/0606 02008KT 9000 -SN BKN020"
    },
    {
      "icao": "ENVA",
      "alert": "OK",
      "vis_m": 9999,
      "fzfg": false,
      "metar_trigger": false,
      "taf_trigger": false,
      "metar": "METAR ENVA 050620Z 10008KT CAVOK M14/M17 Q1012 NOSIG RMK WIND 670FT 13012KT",
      "taf": "TAF ENVA 050500Z 0506/0606 11010KT CAVOK"
    },
    {
      "icao": "ENZV",
      "alert": "OK",
      "vis_m": 9999,
      "fzfg": false,
      "metar_trigger": false,
      "taf_trigger": false,
      "metar": "METAR ENZV 050620Z 11007KT CAVOK M07/M12 Q1009 NOSIG",
      "taf": ""
    },
    {
      "icao": "EPGD",
      "alert": "OK",
      "vis_m": 9999,
      "fzfg": false,
      "metar_trigger": false,
      "taf_trigger": false,
      "metar": "METAR EPGD 050630Z 25007KT CAVOK M05/M08 Q1010",
      "taf": "TAF EPGD 050530Z 0506/0606 25010KT CAVOK"
    },
    {
      "icao": "EPKK",
      "alert": "OK",
      "vis_m": 9999,
      "fzfg": false,
      "metar_trigger": false,
      "taf_trigger": false,
      "metar": "METAR EPKK 050630Z VRB02KT CAVOK M09/M11 Q1015",
      "taf": "TAF EPKK 050530Z 0506/0606 07005KT CAVOK"
    },
    {
      "icao": "EPKT",
      "alert": "OK",
      "vis_m": 9999,
      "fzfg": false,
      "metar_trigger": false,
      "taf_trigger": false,
      "metar": "METAR EPKT 050630Z 10006KT CAVOK M11/M13 Q1014",
      "taf": "TAF EPKT 050530Z 0506/0606 14004KT CAVOK"
    },
    {
      "icao": "EPLB",
      "alert": "OK",
      "vis_m": 9999,
      "fzfg": false,
      "metar_trigger": false,
      "taf_trigger": false,
      "metar": "METAR EPLB 050630Z 24008KT CAVOK M06/M09 Q1016",
      "taf": "TAF EPLB 050530Z 0506/0606 22010KT CAVOK"
    },
    {
      "icao": "EPMO",
      "alert": "OK",
      "vis_m": 9999,
      "fzfg": false,
      "metar_trigger": false,
      "taf_trigger": false,
      "metar": "METAR EPMO 050630Z 21009KT 9999 SCT028 M03/M05 Q1014",
      "taf": "TAF EPMO 050530Z 0506/0606 21010KT 9999 BKN030"
    },
    {
      "icao": "EPPO",
      "alert": "OK",
      "vis_m": 9999,
      "fzfg": false,
      "metar_trigger": false,
      "taf_trigger": false,
      "metar": "METAR EPPO 050630Z 22006KT 9999 -SN BKN023 M02/M05 Q1013",
      "taf": "TAF EPPO 050530Z 0506/0606 20006KT 9999 BKN030"
    },
    {
      "icao": "EPRA",
      "alert": "OK",
      "vis_m": 9999,
      "fzfg": false,
      "metar_trigger": false,
      "taf_trigger": false,
      "metar": "METAR EPRA 050630Z 20010KT CAVOK M05/M09 Q1015",
      "taf": "TAF EPRA 050530Z 0506/0515 18010KT CAVOK"
    },
    {
      "icao": "EPRZ",
      "alert": "OK",
      "vis_m": 9999,
      "fzfg": false,
      "metar_trigger": false,
      "taf_trigger": false,
      "metar": "METAR EPRZ 050630Z VRB02KT CAVOK M07/M08 Q1016",
      "taf": "TAF EPRZ 050530Z 0506/0606 16004KT CAVOK"
    },
    {
      "icao": "EPSC",
      "alert": "OK",
      "vis_m": 7000,
      "fzfg": false,
      "metar_trigger": false,
      "taf_trigger": false,
      "metar": "METAR EPSC 050630Z 14004KT 7000 -SN FEW004 SCT020 M02/M02 Q1011",
      "taf": "TAF EPSC 050530Z 0506/0606 17007KT 9999 BKN012"
    },
    {
      "icao": "EPSY",
      "alert": "OK",
      "vis_m": 9999,
      "fzfg": false,
      "metar_trigger": false,
      "taf_trigger": false,
      "metar": "METAR EPSY 050630Z 21007KT 9999 BKN006 M08/M09 Q1012",
      "taf": "TAF EPSY 050530Z 0506/0515 21008KT CAVOK"
    },
    {
      "icao": "EPWA",
      "alert": "OK",
      "vis_m": 9999,
      "fzfg": false,
      "metar_trigger": false,
      "taf_trigger": false,
      "metar": "METAR EPWA 050630Z 18004KT 9999 FEW026 M07/M08 Q1014 NOSIG",
      "taf": "TAF EPWA 050530Z 0506/0606 22007KT 9999 SCT040"
    },
    {
      "icao": "EPWR",
      "alert": "OK",
      "vis_m": 9999,
      "fzfg": false,
      "metar_trigger": false,
      "taf_trigger": false,
      "metar": "METAR EPWR 050630Z 11002KT CAVOK M07/M09 Q1014",
      "taf": "TAF EPWR 050530Z 0506/0606 VRB02KT CAVOK"
    },
    {
      "icao": "ESGG",
      "alert": "OK",
      "vis_m": 4300,
      "fzfg": false,
      "metar_trigger": false,
      "taf_trigger": false,
      "metar": "METAR ESGG 050620Z 06005KT 4300 -SN FEW012 BKN030 M06/M08 Q1008",
      "taf": "TAF ESGG 050530Z 0506/0606 06004KT 9999 -SN BKN018"
    },
    {
      "icao": "ESKN",
      "alert": "OK",
      "vis_m": 9999,
      "fzfg": false,
      "metar_trigger": false,
      "taf_trigger": false,
      "metar": "METAR ESKN 050620Z 02009KT 350V050 9999 BKN033 M08/M10 Q1011",
      "taf": "TAF ESKN 050530Z 0506/0606 01008KT 9999 BKN030"
    },
    {
      "icao": "ESMS",
      "alert": "OK",
      "vis_m": 9999,
      "fzfg": false,
      "metar_trigger": false,
      "taf_trigger": false,
      "metar": "METAR ESMS 050620Z 09005KT 9999 FEW029 M12/M13 Q1008",
      "taf": "TAF ESMS 050527Z 0506/0606 10004KT 9999 FEW020"
    },
    {
      "icao": "ESSA",
      "alert": "OK",
      "vis_m": 9999,
      "fzfg": false,
      "metar_trigger": false,
      "taf_trigger": false,
      "metar": "METAR ESSA 050620Z 03006KT CAVOK M14/M16 Q1012 NOSIG",
      "taf": ""
    },
    {
      "icao": "EYKA",
      "alert": "OK",
      "vis_m": 9000,
      "fzfg": false,
      "metar_trigger": false,
      "taf_trigger": false,
      "metar": "METAR EYKA 050650Z 21008KT 160V240 9000 OVC019 M04/M07 Q1009",
      "taf": "TAF EYKA 050509Z 0506/0606 22014KT 9000 SCT010 OVC015"
    },
    {
      "icao": "EYPA",
      "alert": "OK",
      "vis_m": 9999,
      "fzfg": false,
      "metar_trigger": false,
      "taf_trigger": false,
      "metar": "METAR EYPA 050650Z 05005KT 9999 OVC007 M03/M03 Q1007",
      "taf": "TAF EYPA 050508Z 0506/0606 VRB04KT 6000 BKN005 OVC010"
    },
    {
      "icao": "EYVI",
      "alert": "OK",
      "vis_m": 9999,
      "fzfg": false,
      "metar_trigger": false,
      "taf_trigger": false,
      "metar": "METAR EYVI 050650Z 20012KT 9999 BKN007 BKN041 M07/M08 Q1010 NOSIG",
      "taf": "TAF EYVI 050503Z 0506/0606 20012KT 8000 BKN010 OVC015"
    },
    {
      "icao": "GCFV",
      "alert": "OK",
      "vis_m": 9999,
      "fzfg": false,
      "metar_trigger": false,
      "taf_trigger": false,
      "metar": "METAR GCFV 050630Z 30003KT 260V350 9999 FEW035TCU 16/13 Q1013",
      "taf": "TAF GCFV 050200Z 0503/0603 30007KT 9999 SCT020 TX21/0514Z TN15/0506Z"
    },
    {
      "icao": "GCLP",
      "alert": "OK",
      "vis_m": 9999,
      "fzfg": false,
      "metar_trigger": false,
      "taf_trigger": false,
      "metar": "METAR GCLP 050630Z 28003KT 9999 FEW025 16/13 Q1014 NOSIG",
      "taf": "TAF GCLP 050200Z 0503/0603 33007KT 9999 SCT020 TX21/0514Z TN15/0506Z"
    },
    {
      "icao": "GCTS",
      "alert": "OK",
      "vis_m": 9999,
      "fzfg": false,
      "metar_trigger": false,
      "taf_trigger": false,
      "metar": "METAR GCTS 050630Z 01006KT 350V060 9999 FEW025 SCT060 17/13 Q1014 NOSIG",
      "taf": "TAF GCTS 050200Z 0503/0603 36005KT 9999 FEW025 TX22/0514Z TN16/0506Z"
    },
    {
      "icao": "GMAD",
      "alert": "OK",
      "vis_m": 8000,
      "fzfg": false,
      "metar_trigger": false,
      "taf_trigger": false,
      "metar": "METAR GMAD 050630Z 20005KT 8000 SCT020TCU SCT023 14/14 Q1009 TEMPO 2000 SHRA",
      "taf": "TAF GMAD 050500Z 0506/0612 30012KT 8000 SCT020 SCT030TCU"
    },
    {
      "icao": "GMMN",
      "alert": "OK",
      "vis_m": 6000,
      "fzfg": false,
      "metar_trigger": false,
      "taf_trigger": false,
      "metar": "METAR GMMN 050630Z 23007KT 6000 BKN002 BKN020TCU 12/12 Q1009 TEMPO 6000 RA",
      "taf": "TAF GMMN 050500Z 0506/0612 24006KT 3000 BR BKN002 BKN020TCU"
    },
    {
      "icao": "GMMX",
      "alert": "OK",
      "vis_m": 4000,
      "fzfg": false,
      "metar_trigger": false,
      "taf_trigger": false,
      "metar": "METAR GMMX 050630Z 26006KT 4000 RA SCT016 BKN040 12/12 Q1009 BECMG 6000",
      "taf": "TAF GMMX 050500Z 0506/0612 24012KT 8000 SCT023 SCT090"
    },
    {
      "icao": "HEGN",
      "alert": "OK",
      "vis_m": 9999,
      "fzfg": false,
      "metar_trigger": false,
      "taf_trigger": false,
      "metar": "METAR HEGN 050600Z 30006KT CAVOK 16/01 Q1019 NOSIG",
      "taf": "TAF HEGN 050500Z 0506/0612 34015KT CAVOK"
    },
    {
      "icao": "HEMA",
      "alert": "OK",
      "vis_m": 9999,
      "fzfg": false,
      "metar_trigger": false,
      "taf_trigger": false,
      "metar": "METAR HEMA 050600Z 29010KT CAVOK 20/09 Q1018 NOSIG",
      "taf": "TAF HEMA 050500Z 0506/0612 36015KT CAVOK"
    },
    {
      "icao": "HESH",
      "alert": "OK",
      "vis_m": 9999,
      "fzfg": false,
      "metar_trigger": false,
      "taf_trigger": false,
      "metar": "METAR HESH 050600Z 34008KT CAVOK 21/05 Q1018 NOSIG",
      "taf": "TAF HESH 050500Z 0506/0612 02012KT CAVOK"
    },
    {
      "icao": "HESX",
      "alert": "OK",
      "vis_m": 100,
      "fzfg": false,
      "metar_trigger": false,
      "taf_trigger": false,
      "metar": "METAR HESX 050600Z 26003KT 0100 R34R0100 FG NSC 04/03 Q1020 NOSIG",
      "taf": "TAF HESX 050512Z 0506/0612 VRB04KT 6000 NSC"
    },
    {
      "icao": "LATI",
      "alert": "OK",
      "vis_m": 9999,
      "fzfg": false,
      "metar_trigger": false,
      "taf_trigger": false,
      "metar": "METAR LATI 050650Z 15008KT 9999 SCT042 OVC095 13/07 Q1010 NOSIG",
      "taf": "TAF LATI 050500Z 0506/0606 15010KT 9999 BKN080 OVC130 TX16/0512Z TN10/0605Z"
    },
    {
      "icao": "LBPD",
      "alert": "OK",
      "vis_m": 9999,
      "fzfg": false,
      "metar_trigger": false,
      "taf_trigger": false,
      "metar": "METAR LBPD 050630Z AUTO VRB01KT 9999 BKN110/// OVC130/// 07/06 Q1013 NOSIG",
      "taf": "TAF LBPD 050500Z 0506/0606 VRB04KT 9999 SCT070"
    },
    {
      "icao": "LBSF",
      "alert": "OK",
      "vis_m": 9999,
      "fzfg": false,
      "metar_trigger": false,
      "taf_trigger": false,
      "metar": "METAR LBSF 050630Z 11012KT 9999 BKN086 10/03 Q1012 WS ALL RWY NOSIG",
      "taf": "TAF LBSF 050500Z 0506/0606 12010KT 9999 SCT040 BKN060"
    },
    {
      "icao": "LBWN",
      "alert": "OK",
      "vis_m": 9999,
      "fzfg": false,
      "metar_trigger": false,
      "taf_trigger": false,
      "metar": "METAR LBWN 050630Z 08005KT 9999 OVC011 07/07 Q1017 NOSIG",
      "taf": "TAF LBWN 050500Z 0506/0606 VRB04KT 9999 OVC010"
    },
    {
      "icao": "LCLK",
      "alert": "OK",
      "vis_m": 9999,
      "fzfg": false,
      "metar_trigger": false,
      "taf_trigger": false,
      "metar": "METAR LCLK 050630Z 35007KT CAVOK 14/09 Q1024 NOSIG",
      "taf": "TAF LCLK 050530Z 0506/0606 35009KT CAVOK"
    },
    {
      "icao": "LCPH",
      "alert": "OK",
      "vis_m": 9999,
      "fzfg": false,
      "metar_trigger": false,
      "taf_trigger": false,
      "metar": "METAR LCPH 050630Z 04006KT 010V080 CAVOK 12/05 Q1023 NOSIG",
      "taf": "TAF LCPH 050530Z 0506/0606 08008KT 9999 FEW040"
    },
    {
      "icao": "LEAL",
      "alert": "OK",
      "vis_m": 9999,
      "fzfg": false,
      "metar_trigger": false,
      "taf_trigger": false,
      "metar": "METAR LEAL 050630Z 03007KT 350V060 9999 -RA FEW018 BKN030 11/10 Q1006 RERA NOSIG",
      "taf": "TAF LEAL 050500Z 0506/0606 05012KT 9999 SCT020 TX12/0514Z TN09/0606Z"
    },
    {
      "icao": "LEBB",
      "alert": "OK",
      "vis_m": 9999,
      "fzfg": false,
      "metar_trigger": false,
      "taf_trigger": false,
      "metar": "METAR LEBB 050630Z 00000KT 9999 FEW016 SCT043 BKN060 02/01 Q1016 NOSIG",
      "taf": "TAF LEBB 050500Z 0506/0606 VRB03KT 9999 BKN050 TX07/0514Z TNM00/0507Z"
    },
    {
      "icao": "LEBL",
      "alert": "OK",
      "vis_m": 9999,
      "fzfg": false,
      "metar_trigger": false,
      "taf_trigger": false,
      "metar": "METAR LEBL 050630Z 33013G28KT 290V360 9999 BKN049 04/01 Q1008 NOSIG",
      "taf": "TAF LEBL 050500Z 0506/0606 34010KT 9999 BKN030 TX09/0512Z TN04/0506Z"
    },
    {
      "icao": "LECH",
      "alert": "OK",
      "vis_m": 9999,
      "fzfg": false,
      "metar_trigger": false,
      "taf_trigger": false,
      "metar": "METAR LECH 050630Z AUTO 03006KT 360V070 9999 -UP SCT022 OVC027 02/00 Q1007",
      "taf": ""
    },
    {
      "icao": "LEMD",
      "alert": "OK",
      "vis_m": 9999,
      "fzfg": false,
      "metar_trigger": false,
      "taf_trigger": false,
      "metar": "METAR LEMD 050630Z 00000KT 9999 OVC033 M01/M02 Q1009",
      "taf": "TAF LEMD 050500Z 0506/0612 VRB03KT 9999 SCT025 TX06/0514Z TNM03/0608Z"
    },
    {
      "icao": "LEMG",
      "alert": "OK",
      "vis_m": 9999,
      "fzfg": false,
      "metar_trigger": false,
      "taf_trigger": false,
      "metar": "METAR LEMG 050630Z 27004KT CAVOK 11/10 Q1004 NOSIG",
      "taf": "TAF LEMG 050500Z 0506/0606 27010KT 9999 FEW050 TX18/0514Z TN04/0606Z"
    },
    {
      "icao": "LEVC",
      "alert": "OK",
      "vis_m": 9999,
      "fzfg": false,
      "metar_trigger": false,
      "taf_trigger": false,
      "metar": "METAR LEVC 050630Z 04006KT 360V070 9999 -RA FEW018 BKN030 07/05 Q1008 NOSIG",
      "taf": "TAF LEVC 050500Z 0506/0606 VRB04KT 9999 BKN015 TX10/0514Z TN05/0606Z"
    },
    {
      "icao": "LEXJ",
      "alert": "OK",
      "vis_m": 5000,
      "fzfg": false,
      "metar_trigger": false,
      "taf_trigger": false,
      "metar": "METAR LEXJ 050630Z 24004KT 200V280 5000 BR SCT050 OVC060 04/M00 Q1016",
      "taf": ""
    },
    {
      "icao": "LEZG",
      "alert": "OK",
      "vis_m": 9999,
      "fzfg": false,
      "metar_trigger": false,
      "taf_trigger": false,
      "metar": "METAR LEZG 050630Z 29019KT CAVOK 02/M04 Q1010 NOSIG",
      "taf": "TAF LEZG 050500Z 0506/0606 31020G30KT 9999 BKN050 TX05/0515Z TN00/0606Z"
    },
    {
      "icao": "LEZL",
      "alert": "OK",
      "vis_m": 9999,
      "fzfg": false,
      "metar_trigger": false,
      "taf_trigger": false,
      "metar": "METAR LEZL 050630Z 09001KT CAVOK 08/07 Q1006 NOSIG",
      "taf": "TAF LEZL 050200Z 0503/0603 VRB03KT CAVOK TX14/0515Z TN07/0507Z"
    },
    {
      "icao": "LFBD",
      "alert": "OK",
      "vis_m": 9999,
      "fzfg": false,
      "metar_trigger": false,
      "taf_trigger": false,
      "metar": "METAR LFBD 050630Z AUTO 29001KT 9999 FEW002 SCT240 M07/M08 Q1016 TEMPO 2000 BR VV///",
      "taf": "TAF LFBD 050500Z 0506/0612 VRB03KT CAVOK TX05/0514Z TNM07/0506Z"
    },
    {
      "icao": "LFLL",
      "alert": "OK",
      "vis_m": 9999,
      "fzfg": false,
      "metar_trigger": false,
      "taf_trigger": false,
      "metar": "METAR LFLL 050600Z 08003KT 9999 BKN033 M06/M07 Q1013 NOSIG",
      "taf": "TAF LFLL 050500Z 0506/0612 34009KT 9999 BKN030"
    },
    {
      "icao": "LFLS",
      "alert": "OK",
      "vis_m": 9999,
      "fzfg": false,
      "metar_trigger": false,
      "taf_trigger": false,
      "metar": "METAR LFLS 050630Z AUTO 02005KT 350V090 9999 FEW037 M05/M08 Q1012 TEMPO BKN006",
      "taf": "TAF LFLS 050200Z 0503/0603 35008KT 9999 BKN025"
    },
    {
      "icao": "LFMN",
      "alert": "OK",
      "vis_m": 9999,
      "fzfg": false,
      "metar_trigger": false,
      "taf_trigger": false,
      "metar": "METAR LFMN 050630Z 34010KT CAVOK 05/M03 Q1005 NOSIG",
      "taf": "TAF LFMN 050200Z 0503/0609 33010KT CAVOK"
    },
    {
      "icao": "LFOB",
      "alert": "OK",
      "vis_m": 9999,
      "fzfg": true,
      "metar_trigger": false,
      "taf_trigger": false,
      "metar": "METAR LFOB 050630Z AUTO 15003KT 9999 SCT008 BKN033 BKN068 M02/M03 Q1012 TEMPO 0700 FZFG VV///",
      "taf": "TAF LFOB 050500Z 0506/0606 26005KT 9999 FEW009"
    },
    {
      "icao": "LFPO",
      "alert": "OK",
      "vis_m": 6000,
      "fzfg": false,
      "metar_trigger": false,
      "taf_trigger": false,
      "metar": "METAR LFPO 050630Z AUTO 19007KT 160V220 6000 OVC003 M04/M04 Q1014 TEMPO 2500",
      "taf": "TAF LFPO 050500Z 0506/0612 20005KT 4000 BR BKN003"
    },
    {
      "icao": "LFSB",
      "alert": "OK",
      "vis_m": 9999,
      "fzfg": false,
      "metar_trigger": false,
      "taf_trigger": false,
      "metar": "METAR LFSB 050630Z AUTO 23002KT 9999 SCT037 M08/M10 Q1014 TEMPO 4000 BR BKN012",
      "taf": "TAF LFSB 050500Z 0506/0606 VRB02KT 9999 SCT040"
    },
    {
      "icao": "LGAV",
      "alert": "OK",
      "vis_m": 9999,
      "fzfg": false,
      "metar_trigger": false,
      "taf_trigger": false,
      "metar": "METAR LGAV 050620Z 21009KT 9999 FEW018 SCT040 14/09 Q1019 NOSIG",
      "taf": "TAF LGAV 050500Z 0506/0606 22014KT 9999 SCT025 SCT070"
    },
    {
      "icao": "LGTS",
      "alert": "OK",
      "vis_m": 9999,
      "fzfg": false,
      "metar_trigger": false,
      "taf_trigger": false,
      "metar": "METAR LGTS 050620Z 13010KT 9999 SCT030 16/07 Q1014 NOSIG",
      "taf": "TAF LGTS 050500Z 0506/0606 14010KT 9999 SCT030"
    },
    {
      "icao": "LHBP",
      "alert": "OK",
      "vis_m": 9999,
      "fzfg": false,
      "metar_trigger": false,
      "taf_trigger": false,
      "metar": "METAR LHBP 050630Z VRB02KT CAVOK M04/M07 Q1015 NOSIG",
      "taf": "TAF LHBP 050515Z 0506/0606 06007KT CAVOK"
    },
    {
      "icao": "LHDC",
      "alert": "OK",
      "vis_m": 9999,
      "fzfg": false,
      "metar_trigger": false,
      "taf_trigger": false,
      "metar": "METAR LHDC 050615Z AUTO 05010KT CAVOK M03/M05 Q1015 NOSIG",
      "taf": "TAF LHDC 050515Z 0506/0515 05010KT CAVOK"
    },
    {
      "icao": "LIBD",
      "alert": "OK",
      "vis_m": 9999,
      "fzfg": false,
      "metar_trigger": false,
      "taf_trigger": false,
      "metar": "METAR LIBD 050620Z 15005KT CAVOK 13/12 Q1006",
      "taf": "TAF LIBD 050500Z 0506/0606 VRB05KT 9999 FEW040"
    },
    {
      "icao": "LIBG",
      "alert": "OK",
      "vis_m": null,
      "fzfg": false,
      "metar_trigger": false,
      "taf_trigger": false,
      "metar": "",
      "taf": ""
    },
    {
      "icao": "LIBP",
      "alert": "OK",
      "vis_m": 6000,
      "fzfg": false,
      "metar_trigger": false,
      "taf_trigger": false,
      "metar": "METAR LIBP 050620Z AUTO 30001KT 6000 -RA BKN006/// OVC026/// 07/07 Q1007",
      "taf": "TAF LIBP 050500Z 0506/0606 34006KT 3000 RA OVC008"
    },
    {
      "icao": "LIBR",
      "alert": "OK",
      "vis_m": 9999,
      "fzfg": false,
      "metar_trigger": false,
      "taf_trigger": false,
      "metar": "METAR LIBR 050620Z 19016KT 9999 SCT020 16/13 Q1007",
      "taf": "TAF LIBR 050500Z 0506/0606 17015KT 9999 SCT020"
    },
    {
      "icao": "LICA",
      "alert": "OK",
      "vis_m": 9999,
      "fzfg": false,
      "metar_trigger": false,
      "taf_trigger": false,
      "metar": "METAR LICA 050620Z AUTO 07012KT 9999 BKN090/// 16/13 Q1007",
      "taf": "TAF LICA 050500Z 0506/0606 08012KT 9999 FEW050"
    },
    {
      "icao": "LICC",
      "alert": "OK",
      "vis_m": 8000,
      "fzfg": false,
      "metar_trigger": false,
      "taf_trigger": false,
      "metar": "METAR LICC 050620Z 04007KT 8000 -DZ SCT020 BKN080 16/14 Q1005",
      "taf": "TAF LICC 050500Z 0506/0606 VRB05KT 9999 SCT030"
    },
    {
      "icao": "LICJ",
      "alert": "OK",
      "vis_m": 9999,
      "fzfg": false,
      "metar_trigger": false,
      "taf_trigger": false,
      "metar": "METAR LICJ 050620Z 04011KT 9999 SCT060 16/10 Q1002 RERA",
      "taf": "TAF LICJ 050500Z 0506/0606 21016KT 9999 FEW030"
    },
    {
      "icao": "LIMC",
      "alert": "OK",
      "vis_m": 9999,
      "fzfg": false,
      "metar_trigger": false,
      "taf_trigger": false,
      "metar": "METAR LIMC 050620Z 03003KT CAVOK M06/M08 Q1009 NOSIG",
      "taf": "TAF LIMC 050500Z 0506/0612 VRB04KT CAVOK"
    },
    {
      "icao": "LIME",
      "alert": "OK",
      "vis_m": 9999,
      "fzfg": false,
      "metar_trigger": false,
      "taf_trigger": false,
      "metar": "METAR LIME 050620Z 36004KT 260V030 CAVOK M02/M05 Q1009 NOSIG",
      "taf": "TAF LIME 050500Z 0506/0606 VRB04KT CAVOK"
    },
    {
      "icao": "LIMF",
      "alert": "OK",
      "vis_m": 9999,
      "fzfg": false,
      "metar_trigger": false,
      "taf_trigger": false,
      "metar": "METAR LIMF 050620Z 32004KT CAVOK M03/M09 Q1009",
      "taf": "TAF LIMF 050500Z 0506/0606 VRB04KT CAVOK"
    },
    {
      "icao": "LIMJ",
      "alert": "OK",
      "vis_m": 9999,
      "fzfg": false,
      "metar_trigger": false,
      "taf_trigger": false,
      "metar": "METAR LIMJ 050620Z 05011KT CAVOK 04/M05 Q1006",
      "taf": "TAF LIMJ 050500Z 0506/0606 03016KT CAVOK"
    },
    {
      "icao": "LIPE",
      "alert": "OK",
      "vis_m": 9999,
      "fzfg": false,
      "metar_trigger": false,
      "taf_trigger": false,
      "metar": "METAR LIPE 050620Z 27003KT 9999 BKN063 01/M02 Q1009",
      "taf": "TAF LIPE 050500Z 0506/0606 28007KT 4000 BR SCT030 SCT060"
    },
    {
      "icao": "LIPH",
      "alert": "OK",
      "vis_m": 9999,
      "fzfg": false,
      "metar_trigger": false,
      "taf_trigger": false,
      "metar": "METAR LIPH 050620Z 01003KT 340V050 CAVOK 01/M08 Q1009",
      "taf": "TAF LIPH 050500Z 0506/0606 02006KT CAVOK"
    },
    {
      "icao": "LIPQ",
      "alert": "OK",
      "vis_m": 9999,
      "fzfg": false,
      "metar_trigger": false,
      "taf_trigger": false,
      "metar": "METAR LIPQ 050620Z AUTO 01005KT 9999 OVC081/// 02/M06 Q1009",
      "taf": "TAF LIPQ 050500Z 0506/0606 08008KT CAVOK"
    },
    {
      "icao": "LIPR",
      "alert": "OK",
      "vis_m": 9999,
      "fzfg": false,
      "metar_trigger": false,
      "taf_trigger": false,
      "metar": "METAR LIPR 050620Z 29007KT 9999 -RA BKN020 SCT040 03/02 Q1008",
      "taf": "TAF LIPR 050500Z 0506/0606 29009KT 4000 -RA OVC020"
    },
    {
      "icao": "LIPX",
      "alert": "OK",
      "vis_m": 9999,
      "fzfg": false,
      "metar_trigger": false,
      "taf_trigger": false,
      "metar": "METAR LIPX 050620Z 35003KT CAVOK M02/M10 Q1009",
      "taf": "TAF LIPX 050500Z 0506/0606 VRB04KT CAVOK"
    },
    {
      "icao": "LIPY",
      "alert": "OK",
      "vis_m": 5000,
      "fzfg": false,
      "metar_trigger": false,
      "taf_trigger": false,
      "metar": "METAR LIPY 050620Z AUTO 30004KT 270V340 5000 -RA OVC007/// 05/04 Q1008",
      "taf": "TAF LIPY 050500Z 0506/0606 28006KT 4000 RA OVC015"
    },
    {
      "icao": "LIPZ",
      "alert": "OK",
      "vis_m": 9999,
      "fzfg": false,
      "metar_trigger": false,
      "taf_trigger": false,
      "metar": "METAR LIPZ 050620Z 36008KT 9999 BKN070 00/M07 Q1009 NOSIG",
      "taf": "TAF LIPZ 050500Z 0506/0612 02008KT CAVOK"
    },
    {
      "icao": "LIRF",
      "alert": "OK",
      "vis_m": 7000,
      "fzfg": false,
      "metar_trigger": false,
      "taf_trigger": false,
      "metar": "METAR LIRF 050620Z 03003KT 340V070 7000 -RA FEW010CB SCT045 12/11 Q1002 RESHRA TEMPO TSRA",
      "taf": "TAF LIRF 050500Z 0506/0612 10010KT 8000 RA SCT020"
    },
    {
      "icao": "LIRN",
      "alert": "OK",
      "vis_m": 9999,
      "fzfg": false,
      "metar_trigger": false,
      "taf_trigger": false,
      "metar": "METAR LIRN 050620Z VRB03KT 9999 BKN050 14/10 Q1004 NOSIG",
      "taf": "TAF LIRN 050500Z 0506/0606 17010KT 8000 RA BKN020"
    },
    {
      "icao": "LIRP",
      "alert": "OK",
      "vis_m": 9999,
      "fzfg": false,
      "metar_trigger": false,
      "taf_trigger": false,
      "metar": "METAR LIRP 050615Z 13010KT 9999 SCT040 BKN070 06/03 Q1004 NOSIG",
      "taf": "TAF LIRP 050500Z 0506/0606 12006KT 9999 SCT030 BKN050"
    },
    {
      "icao": "LIRZ",
      "alert": "OK",
      "vis_m": 9999,
      "fzfg": false,
      "metar_trigger": false,
      "taf_trigger": false,
      "metar": "METAR LIRZ 050620Z AUTO 01013KT 9999 -RA OVC032/// 05/03 Q1004 REDZ RERA",
      "taf": "TAF LIRZ 050500Z 0506/0606 01010KT 6000 RA BKN020"
    },
    {
      "icao": "LJLJ",
      "alert": "OK",
      "vis_m": 9999,
      "fzfg": false,
      "metar_trigger": false,
      "taf_trigger": false,
      "metar": "METAR LJLJ 050630Z 28002KT 9999 FEW013 BKN043 M03/M05 Q1011 NOSIG",
      "taf": "TAF LJLJ 050500Z 0506/0606 VRB02KT 9999 BKN040"
    },
    {
      "icao": "LKMT",
      "alert": "OK",
      "vis_m": 9999,
      "fzfg": false,
      "metar_trigger": false,
      "taf_trigger": false,
      "metar": "METAR LKMT 050630Z 19003KT 150V210 CAVOK M09/M11 Q1014 NOSIG",
      "taf": "TAF LKMT 050500Z 0506/0606 20005KT CAVOK"
    },
    {
      "icao": "LKPR",
      "alert": "OK",
      "vis_m": 9999,
      "fzfg": false,
      "metar_trigger": false,
      "taf_trigger": false,
      "metar": "METAR LKPR 050630Z 16005KT CAVOK M08/M10 Q1012 NOSIG",
      "taf": "TAF LKPR 050500Z 0506/0612 20006KT 9999 FEW040"
    },
    {
      "icao": "LLBG",
      "alert": "OK",
      "vis_m": 9999,
      "fzfg": false,
      "metar_trigger": false,
      "taf_trigger": false,
      "metar": "METAR LLBG 050620Z VRB01KT CAVOK 16/05 Q1020 NOSIG",
      "taf": "TAF LLBG 050503Z 0506/0606 VRB03KT CAVOK"
    },
    {
      "icao": "LMML",
      "alert": "OK",
      "vis_m": 9999,
      "fzfg": false,
      "metar_trigger": false,
      "taf_trigger": false,
      "metar": "METAR LMML 050645Z 20008KT 160V230 9999 SCT020 17/14 Q1005 NOSIG",
      "taf": "TAF LMML 050500Z 0506/0606 21015KT 9999 FEW020"
    },
    {
      "icao": "LOWW",
      "alert": "OK",
      "vis_m": 9999,
      "fzfg": false,
      "metar_trigger": false,
      "taf_trigger": false,
      "metar": "METAR LOWW 050620Z 13003KT CAVOK M07/M09 Q1014 TEMPO 13010KT",
      "taf": "TAF LOWW 050515Z 0506/0612 15008KT 9999 FEW050 TXM02/0518Z TNM08/0506Z"
    },
    {
      "icao": "LPFR",
      "alert": "OK",
      "vis_m": 9999,
      "fzfg": false,
      "metar_trigger": false,
      "taf_trigger": false,
      "metar": "METAR LPFR 050630Z 25005KT 9999 FEW030 11/08 Q1007",
      "taf": "TAF LPFR 050500Z 0506/0606 30008KT 9999 SCT030"
    },
    {
      "icao": "LPMA",
      "alert": "OK",
      "vis_m": 9999,
      "fzfg": false,
      "metar_trigger": false,
      "taf_trigger": false,
      "metar": "METAR LPMA 050630Z VRB07KT 9999 -SHRA BKN015 FEW018CB 15/11 Q1016",
      "taf": "TAF LPMA 050500Z 0506/0606 01017KT 9999 SCT015"
    },
    {
      "icao": "LPPR",
      "alert": "OK",
      "vis_m": 9999,
      "fzfg": false,
      "metar_trigger": false,
      "taf_trigger": false,
      "metar": "METAR LPPR 050630Z 02006KT 340V070 9999 FEW048 04/00 Q1014",
      "taf": "TAF LPPR 050500Z 0506/0606 01008KT 9999 BKN045"
    },
    {
      "icao": "LPPS",
      "alert": "OK",
      "vis_m": 9999,
      "fzfg": false,
      "metar_trigger": false,
      "taf_trigger": false,
      "metar": "METAR LPPS 050630Z 02018KT 9999 SCT014 14/11 Q1016",
      "taf": "TAF LPPS 050500Z 0506/0612 02017KT 9999 SCT015"
    },
    {
      "icao": "LPPT",
      "alert": "OK",
      "vis_m": 9999,
      "fzfg": false,
      "metar_trigger": false,
      "taf_trigger": false,
      "metar": "METAR LPPT 050630Z 34016KT 9999 FEW048 08/01 Q1010",
      "taf": "TAF LPPT 050500Z 0506/0612 33010KT CAVOK"
    },
    {
      "icao": "LQBK",
      "alert": "OK",
      "vis_m": 5000,
      "fzfg": false,
      "metar_trigger": false,
      "taf_trigger": false,
      "metar": "METAR LQBK 050630Z 32004KT 5000 -SN BR SCT004 OVC010 M02/M02 Q1012 NOSIG",
      "taf": "TAF LQBK 050500Z 0506/0606 33005KT 3000 -SN SCT010 BKN015 TX00/0513Z TNM02/0605Z"
    },
    {
      "icao": "LQSA",
      "alert": "OK",
      "vis_m": 7000,
      "fzfg": false,
      "metar_trigger": false,
      "taf_trigger": false,
      "metar": "METAR LQSA 050630Z 00000KT 7000 -FZDZ FEW006 SCT012 BKN045 M01/M01 Q1009 NOSIG",
      "taf": "TAF LQSA 050500Z 0506/0606 VRB02KT 9999 SCT010 BKN035 TX04/0514Z TNM02/0506Z"
    },
    {
      "icao": "LQTZ",
      "alert": "OK",
      "vis_m": 9999,
      "fzfg": false,
      "metar_trigger": false,
      "taf_trigger": false,
      "metar": "METAR LQTZ 050630Z 11003KT 9999 BKN007 OVC015 M01/M01 Q1011",
      "taf": "TAF LQTZ 050500Z 0506/0606 30006KT 9999 SCT005 BKN015 OVC025 TX00/0513Z TNM03/0605Z"
    },
    {
      "icao": "LRBC",
      "alert": "OK",
      "vis_m": 5000,
      "fzfg": false,
      "metar_trigger": false,
      "taf_trigger": false,
      "metar": "METAR LRBC 050630Z 17005KT 5000 -SN OVC055 M01/M03 Q1021",
      "taf": "TAF LRBC 050500Z 0506/0515 VRB04KT 5000 -SN SCT015 OVC025"
    },
    {
      "icao": "LRBS",
      "alert": "OK",
      "vis_m": 9999,
      "fzfg": false,
      "metar_trigger": false,
      "taf_trigger": false,
      "metar": "METAR LRBS 050630Z 05013G23KT 9999 OVC005 M00/M01 Q1018 TEMPO -FZDZ",
      "taf": "TAF LRBS 050500Z 0506/0606 05020KT 9999 -RA BKN010 OVC020"
    },
    {
      "icao": "LRBV",
      "alert": "OK",
      "vis_m": 9999,
      "fzfg": false,
      "metar_trigger": false,
      "taf_trigger": false,
      "metar": "METAR LRBV 050630Z 10006KT 070V130 9999 FEW007 OVC043 M01/M02 Q1014",
      "taf": "TAF LRBV 050500Z 0506/0515 08010KT 9999 BKN010 OVC025"
    },
    {
      "icao": "LRCL",
      "alert": "OK",
      "vis_m": 2000,
      "fzfg": false,
      "metar_trigger": false,
      "taf_trigger": false,
      "metar": "METAR LRCL 050630Z 07003KT 2000 -SN BR OVC034 M03/M04 Q1015",
      "taf": "TAF LRCL 050500Z 0506/0515 VRB04KT 3000 -SN BR BKN010 OVC025"
    },
    {
      "icao": "LRCV",
      "alert": "OK",
      "vis_m": 7000,
      "fzfg": false,
      "metar_trigger": false,
      "taf_trigger": false,
      "metar": "METAR LRCV 050630Z 08012KT 7000 -RA BKN003 OVC006 00/00 Q1016",
      "taf": "TAF LRCV 050500Z 0506/0515 08012KT 3000 -DZ BR OVC002"
    },
    {
      "icao": "LRIA",
      "alert": "OK",
      "vis_m": 9999,
      "fzfg": false,
      "metar_trigger": false,
      "taf_trigger": false,
      "metar": "METAR LRIA 050630Z 11003KT CAVOK M02/M03 Q1021",
      "taf": "TAF LRIA 050500Z 0506/0515 VRB04KT CAVOK"
    },
    {
      "icao": "LROP",
      "alert": "OK",
      "vis_m": 9999,
      "fzfg": false,
      "metar_trigger": false,
      "taf_trigger": false,
      "metar": "METAR LROP 050630Z 05020KT 9999 BKN007 OVC024 00/00 Q1018 TEMPO -FZDZ",
      "taf": "TAF LROP 050500Z 0506/0606 05020KT 9999 -RA BKN010 OVC020"
    },
    {
      "icao": "LRSB",
      "alert": "OK",
      "vis_m": 6000,
      "fzfg": false,
      "metar_trigger": false,
      "taf_trigger": false,
      "metar": "METAR LRSB 050630Z 30005KT 6000 SCT003 OVC007 M02/M03 Q1013",
      "taf": ""
    },
    {
      "icao": "LRSM",
      "alert": "OK",
      "vis_m": 9999,
      "fzfg": false,
      "metar_trigger": false,
      "taf_trigger": false,
      "metar": "METAR LRSM 050630Z 08006KT CAVOK M05/M07 Q1016",
      "taf": "TAF LRSM 050500Z 0506/0515 VRB04KT 9999 BKN035"
    },
    {
      "icao": "LRSV",
      "alert": "OK",
      "vis_m": 9999,
      "fzfg": false,
      "metar_trigger": false,
      "taf_trigger": false,
      "metar": "METAR LRSV 050630Z 15007KT CAVOK M03/M06 Q1018",
      "taf": "TAF LRSV 050500Z 0506/0515 VRB04KT 9999 BKN045"
    },
    {
      "icao": "LRTM",
      "alert": "OK",
      "vis_m": 4800,
      "fzfg": false,
      "metar_trigger": false,
      "taf_trigger": false,
      "metar": "METAR LRTM 050630Z 08005KT 4800 -SN BR FEW007 SCT016 BKN027 M03/M04 Q1015",
      "taf": "TAF LRTM 050500Z 0506/0515 VRB04KT 5000 -SN BKN010 OVC025"
    },
    {
      "icao": "LRTR",
      "alert": "OK",
      "vis_m": 5000,
      "fzfg": false,
      "metar_trigger": false,
      "taf_trigger": false,
      "metar": "METAR LRTR 050630Z COR 02006KT 5000 -SN BKN010 OVC035 M00/M00 Q1013",
      "taf": "TAF LRTR 050500Z 0506/0606 03008KT 1500 -SN BKN010 OVC025"
    },
    {
      "icao": "LTAC",
      "alert": "OK",
      "vis_m": 2600,
      "fzfg": false,
      "metar_trigger": false,
      "taf_trigger": false,
      "metar": "METAR LTAC 050620Z VRB01KT 2600 BR SCT040 BKN100 01/M00 Q1025 BECMG 4000 RMK RWY21C 06002KT RWY03L 02002KT RWY21R VRB02KT RWY03R VRB01KT RWY21L 04002KT",
      "taf": "TAF LTAC 050440Z 0506/0606 VRB02KT 4000 BR SCT040 SCT100"
    },
    {
      "icao": "LTFM",
      "alert": "OK",
      "vis_m": 9999,
      "fzfg": false,
      "metar_trigger": false,
      "taf_trigger": false,
      "metar": "METAR LTFM 050620Z 20017KT CAVOK 14/06 Q1019 NOSIG RMK RWY17L 20015KT RWY34L 19015KT RWY16R 20013KT RWY36 19015KT RWY18 20018KT",
      "taf": "TAF LTFM 050440Z 0506/0612 21018G28KT CAVOK"
    },
    {
      "icao": "LUKK",
      "alert": "OK",
      "vis_m": 9999,
      "fzfg": false,
      "metar_trigger": false,
      "taf_trigger": false,
      "metar": "METAR LUKK 050630Z 05003KT CAVOK M01/M04 Q1022 NOSIG",
      "taf": "TAF LUKK 050523Z 0506/0606 09010KT 9999 BKN025"
    },
    {
      "icao": "LWOH",
      "alert": "OK",
      "vis_m": 9999,
      "fzfg": false,
      "metar_trigger": false,
      "taf_trigger": false,
      "metar": "METAR LWOH 050650Z 15012KT 9999 -RA FEW010 BKN035 09/07 Q1013",
      "taf": "TAF LWOH 050555Z 0506/0606 15006KT 9999 RA FEW010 OVC045"
    },
    {
      "icao": "LWSK",
      "alert": "OK",
      "vis_m": 9999,
      "fzfg": false,
      "metar_trigger": false,
      "taf_trigger": false,
      "metar": "METAR LWSK 050650Z 13012KT 9999 SCT050 BKN090 13/05 Q1012 NOSIG",
      "taf": "TAF LWSK 050555Z 0506/0606 13015KT 9999 FEW050 BKN070"
    },
    {
      "icao": "LYBE",
      "alert": "OK",
      "vis_m": 5000,
      "fzfg": false,
      "metar_trigger": false,
      "taf_trigger": false,
      "metar": "METAR LYBE 050630Z VRB02KT 5000 -FZRA BR BKN004 M01/M01 Q1013 NOSIG",
      "taf": "TAF LYBE 050500Z 0506/0606 05006KT 7000 BKN006 BKN025 TX01/0512Z TNM01/0606Z"
    },
    {
      "icao": "LYNI",
      "alert": "OK",
      "vis_m": 9999,
      "fzfg": false,
      "metar_trigger": false,
      "taf_trigger": false,
      "metar": "METAR LYNI 050630Z 00000KT 9999 SCT005 OVC070 00/M01 Q1013 NOSIG",
      "taf": "TAF LYNI 050500Z 0506/0606 22006KT 9999 BKN080 TX06/0513Z TN01/0506Z"
    },
    {
      "icao": "LYPG",
      "alert": "OK",
      "vis_m": 8000,
      "fzfg": false,
      "metar_trigger": false,
      "taf_trigger": false,
      "metar": "METAR LYPG 050630Z 08007KT 8000 -TSRA SCT026CB BKN050 12/11 Q1009 RETSRA TEMPO 13017KT 4000 TSRA",
      "taf": "TAF LYPG 050500Z 0506/0606 14009KT 9999 RA FEW015 SCT030 OVC070 TX14/0513Z TN11/0605Z"
    },
    {
      "icao": "LZIB",
      "alert": "OK",
      "vis_m": 9999,
      "fzfg": false,
      "metar_trigger": false,
      "taf_trigger": false,
      "metar": "METAR LZIB 050630Z 03007KT 9999 FEW012 M07/M09 Q1015 NOSIG",
      "taf": "TAF LZIB 050515Z 0506/0606 06005KT CAVOK"
    },
    {
      "icao": "LZKZ",
      "alert": "OK",
      "vis_m": 9999,
      "fzfg": false,
      "metar_trigger": false,
      "taf_trigger": false,
      "metar": "METAR LZKZ 050630Z 36011KT 9999 SCT003 M07/M09 Q1016 TEMPO BKN003",
      "taf": "TAF LZKZ 050515Z 0506/0606 02007KT CAVOK"
    },
    {
      "icao": "LZTT",
      "alert": "OK",
      "vis_m": 9999,
      "fzfg": false,
      "metar_trigger": false,
      "taf_trigger": false,
      "metar": "METAR LZTT 050630Z 30004KT CAVOK M15/M17 Q1013 NOSIG",
      "taf": "TAF LZTT 050515Z 0506/0606 VRB02KT CAVOK"
    },
    {
      "icao": "OEJN",
      "alert": "OK",
      "vis_m": 7000,
      "fzfg": false,
      "metar_trigger": false,
      "taf_trigger": false,
      "metar": "METAR OEJN 050600Z 12003KT 7000 NSC 26/M01 Q1016 NOSIG",
      "taf": "TAF OEJN 050500Z 0506/0612 22015KT 7000 FEW040"
    },
    {
      "icao": "OEMA",
      "alert": "OK",
      "vis_m": 9999,
      "fzfg": false,
      "metar_trigger": false,
      "taf_trigger": false,
      "metar": "METAR OEMA 050600Z 06007KT CAVOK 15/01 Q1025 NOSIG",
      "taf": "TAF OEMA 050500Z 0506/0612 09015KT 7000 NSC"
    },
    {
      "icao": "OJAI",
      "alert": "OK",
      "vis_m": 4500,
      "fzfg": false,
      "metar_trigger": false,
      "taf_trigger": false,
      "metar": "METAR OJAI 050600Z 09012KT 4500 HZ NSC 05/M00 Q1026 NOSIG",
      "taf": "TAF OJAI 050500Z 0506/0612 14012KT 5000 HZ NSC"
    },
    {
      "icao": "OMAA",
      "alert": "OK",
      "vis_m": 9999,
      "fzfg": false,
      "metar_trigger": false,
      "taf_trigger": false,
      "metar": "METAR OMAA 050600Z 31005KT 270V010 CAVOK 22/13 Q1023 NOSIG",
      "taf": "TAF OMAA 050500Z 0506/0612 33008KT 8000 FEW045"
    },
    {
      "icao": "OMDB",
      "alert": "OK",
      "vis_m": 9999,
      "fzfg": false,
      "metar_trigger": false,
      "taf_trigger": false,
      "metar": "METAR OMDB 050630Z 16003KT 120V200 CAVOK 22/13 Q1023 NOSIG",
      "taf": "TAF OMDB 050500Z 0506/0612 16006KT 8000 NSC"
    },
    {
      "icao": "UAAA",
      "alert": "OK",
      "vis_m": 550,
      "fzfg": true,
      "metar_trigger": false,
      "taf_trigger": false,
      "metar": "SPECI UAAA 050648Z 02003MPS 0550 R23L/0550 FZFG VV001 M00/M01 Q1037 NOSIG RMK QBB050",
      "taf": "TAF UAAA 050506Z 0506/0606 04002MPS 2100 BR BKN011 OVC030 TX02/0509Z TNM03/0602Z"
    },
    {
      "icao": "UBBB",
      "alert": "OK",
      "vis_m": 9999,
      "fzfg": false,
      "metar_trigger": false,
      "taf_trigger": false,
      "metar": "METAR UBBB 050630Z 17014KT CAVOK 10/01 Q1024 NOSIG",
      "taf": "TAF UBBB 050458Z 0506/0606 17014G24KT CAVOK TX12/0510Z TN02/0300Z"
    },
    {
      "icao": "UDSG",
      "alert": "OK",
      "vis_m": 9000,
      "fzfg": false,
      "metar_trigger": false,
      "taf_trigger": false,
      "metar": "METAR UDSG 050630Z 04002KT 9000 NSC M16/M19 Q1032 NOSIG",
      "taf": "TAF UDSG 050500Z 0506/0606 VRB06KT 9999 FEW050"
    },
    {
      "icao": "UDYZ",
      "alert": "OK",
      "vis_m": 2500,
      "fzfg": false,
      "metar_trigger": false,
      "taf_trigger": false,
      "metar": "METAR UDYZ 050630Z VRB01KT 2500 BR NSC M09/M13 Q1036 NOSIG",
      "taf": "TAF UDYZ 050500Z 0506/0606 VRB04KT 6000 NSC"
    },
    {
      "icao": "UGKO",
      "alert": "OK",
      "vis_m": 9999,
      "fzfg": false,
      "metar_trigger": false,
      "taf_trigger": false,
      "metar": "METAR UGKO 050630Z 09007KT CAVOK 07/M00 Q1024 NOSIG",
      "taf": "TAF UGKO 050500Z 0506/0606 09007KT CAVOK TX09/0511Z TN03/0603Z"
    }
  ]
}