{
  "ts_utc": "2025-12-20T15:10:21Z",
  "threshold_m": 150,
  "source": "stations_override.txt (ICAO list) + aviationweather.gov (METAR/TAF raw)",
  "station_count": 114,
  "stations": [
    {
      "icao": "BIKF",
      "alert": "OK",
      "vis_m": 9999,
      "fzfg": false,
      "metar_trigger": false,
      "taf_trigger": false,
      "metar": "METAR BIKF 201500Z 16015KT 9999 BKN018 BKN046 06/04 Q0991",
      "taf": "TAF BIKF 201348Z 2015/2115 12020G30KT 9999 -RA BKN015 OVC025 TX09/2015Z TN04/2019Z"
    },
    {
      "icao": "BKPR",
      "alert": "OK",
      "vis_m": 100,
      "fzfg": false,
      "metar_trigger": false,
      "taf_trigger": false,
      "metar": "METAR BKPR 201500Z VRB01KT 0100 R17/0275N R35/0250N FG OVC001 01/01 Q1018 NOSIG",
      "taf": ""
    },
    {
      "icao": "EBBR",
      "alert": "OK",
      "vis_m": 9999,
      "fzfg": false,
      "metar_trigger": false,
      "taf_trigger": false,
      "metar": "METAR EBBR 201450Z 08004KT CAVOK 07/06 Q1013 NOSIG",
      "taf": "TAF EBBR 201103Z 2012/2118 08005KT 6000 FEW018"
    },
    {
      "icao": "EBCI",
      "alert": "OK",
      "vis_m": 4500,
      "fzfg": false,
      "metar_trigger": false,
      "taf_trigger": false,
      "metar": "METAR EBCI 201450Z 09007KT 4500 -RADZ FEW002 BKN012 BKN020 07/06 Q1012 TEMPO BKN008",
      "taf": "TAF EBCI 201103Z 2012/2118 11004KT 8000 FEW018"
    },
    {
      "icao": "EDDB",
      "alert": "OK",
      "vis_m": 7000,
      "fzfg": false,
      "metar_trigger": false,
      "taf_trigger": false,
      "metar": "METAR EDDB 201450Z AUTO 07003KT 7000 0600 R06L/P2000N R06R/1500D BCFG NSC 06/05 Q1019 TEMPO 2000 BR BKN009",
      "taf": ""
    },
    {
      "icao": "EDDH",
      "alert": "OK",
      "vis_m": 400,
      "fzfg": false,
      "metar_trigger": false,
      "taf_trigger": false,
      "metar": "METAR EDDH 201450Z AUTO 14004KT 100V180 0400 0250 R23/0900U R15/0600N FG VV003 04/04 Q1018 TEMPO 0600 OVC001",
      "taf": "TAF EDDH 201124Z 2012/2118 VRB03KT 0500 FG VV003"
    },
    {
      "icao": "EDDK",
      "alert": "OK",
      "vis_m": 9999,
      "fzfg": false,
      "metar_trigger": false,
      "taf_trigger": false,
      "metar": "METAR EDDK 201450Z AUTO 10004KT 060V140 9999 FEW017 BKN022 BKN029 09/08 Q1014 NOSIG",
      "taf": "TAF EDDK 201100Z 2012/2118 11007KT 9999 BKN020"
    },
    {
      "icao": "EDDN",
      "alert": "OK",
      "vis_m": 9999,
      "fzfg": false,
      "metar_trigger": false,
      "taf_trigger": false,
      "metar": "METAR EDDN 201450Z AUTO 31003KT CAVOK 07/04 Q1017 NOSIG",
      "taf": ""
    },
    {
      "icao": "EDFH",
      "alert": "OK",
      "vis_m": 350,
      "fzfg": false,
      "metar_trigger": false,
      "taf_trigger": false,
      "metar": "METAR EDFH 201450Z 14008KT 0350 R21/0500N FG VV/// 07/07 Q1014",
      "taf": "TAF EDFH 201100Z 2012/2112 12007KT 0800 FG BKN003"
    },
    {
      "icao": "EDJA",
      "alert": "OK",
      "vis_m": 9999,
      "fzfg": false,
      "metar_trigger": false,
      "taf_trigger": false,
      "metar": "METAR EDJA 201450Z 27002KT CAVOK 06/03 Q1015",
      "taf": "TAF EDJA 201400Z 2015/2024 04003KT CAVOK"
    },
    {
      "icao": "EDLW",
      "alert": "OK",
      "vis_m": 9999,
      "fzfg": false,
      "metar_trigger": false,
      "taf_trigger": false,
      "metar": "METAR EDLW 201450Z 01003KT CAVOK 06/05 Q1015",
      "taf": "TAF EDLW 201100Z 2012/2112 VRB03KT 9999 BKN030"
    },
    {
      "icao": "EDSB",
      "alert": "OK",
      "vis_m": 9999,
      "fzfg": false,
      "metar_trigger": false,
      "taf_trigger": false,
      "metar": "METAR EDSB 201450Z 01002KT CAVOK 09/08 Q1015",
      "taf": "TAF EDSB 201100Z 2012/2112 VRB03KT 9999 SCT004 BKN045"
    },
    {
      "icao": "EETN",
      "alert": "OK",
      "vis_m": 9999,
      "fzfg": false,
      "metar_trigger": false,
      "taf_trigger": false,
      "metar": "METAR EETN 201450Z 23011KT 9999 -RA OVC011 07/05 Q1007 TEMPO 5000 SHRA FEW020CB",
      "taf": "TAF EETN 201130Z 2012/2112 22012KT 9999 BKN012 BKN035"
    },
    {
      "icao": "EFHK",
      "alert": "OK",
      "vis_m": 9999,
      "fzfg": false,
      "metar_trigger": false,
      "taf_trigger": false,
      "metar": "METAR EFHK 201450Z 21008KT 9999 FEW008 SCT015 BKN030 06/05 Q1004 NOSIG",
      "taf": "TAF EFHK 201433Z 2015/2115 23009KT 9999 SCT010 BKN018"
    },
    {
      "icao": "EFTU",
      "alert": "OK",
      "vis_m": 9999,
      "fzfg": false,
      "metar_trigger": false,
      "taf_trigger": false,
      "metar": "METAR EFTU 201450Z AUTO 25009KT 9999 SCT010 OVC033 06/05 Q1004",
      "taf": "TAF EFTU 201433Z 2015/2115 25010KT 9999 -RA SCT010 BKN015"
    },
    {
      "icao": "EGGW",
      "alert": "OK",
      "vis_m": 9999,
      "fzfg": false,
      "metar_trigger": false,
      "taf_trigger": false,
      "metar": "METAR EGGW 201450Z AUTO 13009KT 9999 SCT021 08/05 Q1010",
      "taf": "TAF EGGW 201104Z 2012/2112 13007KT 9999 FEW025"
    },
    {
      "icao": "EGKK",
      "alert": "OK",
      "vis_m": 9999,
      "fzfg": false,
      "metar_trigger": false,
      "taf_trigger": false,
      "metar": "METAR EGKK 201450Z 11005KT 9999 FEW022 09/06 Q1010",
      "taf": "TAF EGKK 201055Z 2012/2118 13007KT 9999 FEW025"
    },
    {
      "icao": "EHEH",
      "alert": "OK",
      "vis_m": 9999,
      "fzfg": false,
      "metar_trigger": false,
      "taf_trigger": false,
      "metar": "METAR EHEH 201455Z AUTO 07006KT 9999 OVC100 07/05 Q1014 BLU NOSIG RMK TREND REMOTE BY EHWX",
      "taf": "TAF EHEH 201114Z 2012/2118 08007KT CAVOK"
    },
    {
      "icao": "EKBI",
      "alert": "OK",
      "vis_m": 9999,
      "fzfg": false,
      "metar_trigger": false,
      "taf_trigger": false,
      "metar": "METAR EKBI 201450Z 19003KT 9999 SCT009 07/06 Q1017",
      "taf": "TAF EKBI 201427Z 2015/2115 20005KT 9999 SCT010"
    },
    {
      "icao": "EKCH",
      "alert": "OK",
      "vis_m": 9999,
      "fzfg": false,
      "metar_trigger": false,
      "taf_trigger": false,
      "metar": "METAR EKCH 201450Z AUTO 24007KT 9999 OVC018/// 07/05 Q1018 TEMPO BKN012",
      "taf": "TAF EKCH 201427Z 2015/2115 24010KT 9999 SCT010 BKN018"
    },
    {
      "icao": "ENTO",
      "alert": "OK",
      "vis_m": 9999,
      "fzfg": false,
      "metar_trigger": false,
      "taf_trigger": false,
      "metar": "METAR ENTO 201450Z 18005KT CAVOK 04/02 Q1012 NOSIG",
      "taf": "TAF ENTO 201100Z 2012/2112 24010KT CAVOK"
    },
    {
      "icao": "EPGD",
      "alert": "OK",
      "vis_m": 9999,
      "fzfg": false,
      "metar_trigger": false,
      "taf_trigger": false,
      "metar": "METAR EPGD 201500Z 29010KT 9999 BKN014 06/03 Q1019",
      "taf": "TAF EPGD 201130Z 2012/2112 29012KT 9999 BKN015"
    },
    {
      "icao": "EPKK",
      "alert": "OK",
      "vis_m": 250,
      "fzfg": false,
      "metar_trigger": false,
      "taf_trigger": false,
      "metar": "METAR EPKK 201500Z 19003KT 0250 R25/0650N FG OVC001 03/02 Q1020",
      "taf": "TAF EPKK 201430Z 2015/2115 19002KT 0600 FG SCT001 OVC002"
    },
    {
      "icao": "EPKT",
      "alert": "OK",
      "vis_m": 2600,
      "fzfg": false,
      "metar_trigger": false,
      "taf_trigger": false,
      "metar": "METAR EPKT 201500Z 20004KT 2600 BR BKN002 OVC004 04/04 Q1020",
      "taf": "TAF EPKT 201130Z 2012/2112 18005KT 0300 FG OVC001"
    },
    {
      "icao": "EPWA",
      "alert": "OK",
      "vis_m": 7000,
      "fzfg": false,
      "metar_trigger": false,
      "taf_trigger": false,
      "metar": "METAR EPWA 201500Z 25004KT 7000 BKN007 05/05 Q1019 BECMG 4000 BR BKN004",
      "taf": "TAF EPWA 201430Z 2015/2115 VRB03KT 6000 OVC006"
    },
    {
      "icao": "EPWR",
      "alert": "OK",
      "vis_m": 2700,
      "fzfg": false,
      "metar_trigger": false,
      "taf_trigger": false,
      "metar": "METAR EPWR 201500Z 14004KT 2700 BR BKN003 BKN031 04/04 Q1019",
      "taf": "TAF EPWR 201430Z 2015/2115 VRB02KT 3000 BR OVC003"
    },
    {
      "icao": "ESGG",
      "alert": "OK",
      "vis_m": 9999,
      "fzfg": false,
      "metar_trigger": false,
      "taf_trigger": false,
      "metar": "METAR ESGG 201450Z 25010KT 9999 BKN011 07/05 Q1014",
      "taf": "TAF ESGG 201430Z 2015/2115 26012KT 9999 BKN012"
    },
    {
      "icao": "ESKN",
      "alert": "OK",
      "vis_m": 9999,
      "fzfg": false,
      "metar_trigger": false,
      "taf_trigger": false,
      "metar": "METAR ESKN 201450Z 25010KT 9999 BKN031 07/06 Q1009",
      "taf": "TAF ESKN 201430Z 2015/2115 26010KT 9999 BKN040"
    },
    {
      "icao": "ESMX",
      "alert": "OK",
      "vis_m": 9999,
      "fzfg": false,
      "metar_trigger": false,
      "taf_trigger": false,
      "metar": "METAR ESMX 201450Z AUTO 26009KT 9999 BKN019/// OVC024/// 07/05 Q1014",
      "taf": "TAF ESMX 201130Z 2012/2015 23011KT 9999 OVC035"
    },
    {
      "icao": "EVRA",
      "alert": "OK",
      "vis_m": 9999,
      "fzfg": false,
      "metar_trigger": false,
      "taf_trigger": false,
      "metar": "METAR EVRA 201450Z 20003KT 170V230 9999 BKN017 05/05 Q1013 NOSIG",
      "taf": "TAF EVRA 201409Z 2015/2115 21007KT 9000 BKN015"
    },
    {
      "icao": "EYKA",
      "alert": "OK",
      "vis_m": 3600,
      "fzfg": false,
      "metar_trigger": false,
      "taf_trigger": false,
      "metar": "METAR EYKA 201450Z 23005KT 3600 BR OVC002 04/04 Q1017",
      "taf": ""
    },
    {
      "icao": "EYVI",
      "alert": "OK",
      "vis_m": 700,
      "fzfg": false,
      "metar_trigger": false,
      "taf_trigger": false,
      "metar": "METAR EYVI 201450Z 19005KT 0700 R01/1700N FG VV001 02/01 Q1017 TEMPO 1500 RA BR",
      "taf": "TAF EYVI 201100Z 2012/2112 21010KT 0600 DZ FG OVC002"
    },
    {
      "icao": "GCLP",
      "alert": "OK",
      "vis_m": 9999,
      "fzfg": false,
      "metar_trigger": false,
      "taf_trigger": false,
      "metar": "METAR GCLP 201500Z 03022KT 9999 FEW035 SCT045 20/11 Q1021 NOSIG",
      "taf": "TAF GCLP 201400Z 2015/2115 02019KT 9999 SCT035 TX21/2114Z TN15/2106Z"
    },
    {
      "icao": "GCTS",
      "alert": "OK",
      "vis_m": 9999,
      "fzfg": false,
      "metar_trigger": false,
      "taf_trigger": false,
      "metar": "METAR GCTS 201500Z 08018KT 9999 SCT035 21/11 Q1022 NOSIG",
      "taf": "TAF GCTS 201400Z 2015/2115 08019KT 9999 SCT035 TX22/2114Z TN15/2106Z"
    },
    {
      "icao": "HECA",
      "alert": "OK",
      "vis_m": 9999,
      "fzfg": false,
      "metar_trigger": false,
      "taf_trigger": false,
      "metar": "METAR HECA 201500Z 04008KT CAVOK 21/04 Q1015 NOSIG",
      "taf": "TAF HECA 201100Z 2012/2118 08010KT 9999 SCT020"
    },
    {
      "icao": "HEGN",
      "alert": "OK",
      "vis_m": 9999,
      "fzfg": false,
      "metar_trigger": false,
      "taf_trigger": false,
      "metar": "METAR HEGN 201400Z 09004KT CAVOK 22/13 Q1016 NOSIG",
      "taf": "TAF HEGN 201100Z 2012/2118 35010KT CAVOK"
    },
    {
      "icao": "HESH",
      "alert": "OK",
      "vis_m": 9999,
      "fzfg": false,
      "metar_trigger": false,
      "taf_trigger": false,
      "metar": "METAR HESH 201400Z 03008KT CAVOK 21/09 Q1016 NOSIG",
      "taf": "TAF HESH 201100Z 2012/2118 02010KT CAVOK"
    },
    {
      "icao": "HESX",
      "alert": "OK",
      "vis_m": 9999,
      "fzfg": false,
      "metar_trigger": false,
      "taf_trigger": false,
      "metar": "METAR HESX 201400Z 11005KT CAVOK 19/07 Q1017 NOSIG",
      "taf": "TAF HESX 201100Z 2012/2118 05008KT 9999 SCT020"
    },
    {
      "icao": "LATI",
      "alert": "OK",
      "vis_m": 9999,
      "fzfg": false,
      "metar_trigger": false,
      "taf_trigger": false,
      "metar": "METAR LATI 201450Z 29004KT 250V330 CAVOK 15/08 Q1015 NOSIG",
      "taf": "TAF LATI 201100Z 2012/2112 VRB05KT CAVOK TX17/2012Z TN02/2105Z"
    },
    {
      "icao": "LBSF",
      "alert": "OK",
      "vis_m": 8000,
      "fzfg": false,
      "metar_trigger": false,
      "taf_trigger": false,
      "metar": "METAR LBSF 201500Z 04003KT 8000 FEW030 06/02 Q1018 NOSIG",
      "taf": "TAF LBSF 201100Z 2012/2112 10010KT 7000 SCT030"
    },
    {
      "icao": "LBWN",
      "alert": "OK",
      "vis_m": 7000,
      "fzfg": false,
      "metar_trigger": false,
      "taf_trigger": false,
      "metar": "METAR LBWN 201500Z AUTO 08008KT 050V120 7000 SCT008/// BKN017/// OVC029/// 08/08 Q1020 NOSIG",
      "taf": ""
    },
    {
      "icao": "LCLK",
      "alert": "OK",
      "vis_m": 9999,
      "fzfg": false,
      "metar_trigger": false,
      "taf_trigger": false,
      "metar": "METAR LCLK 201500Z 21003KT 9999 FEW025 18/12 Q1017 NOSIG",
      "taf": "TAF LCLK 201130Z 2012/2112 19010KT 9999 FEW030"
    },
    {
      "icao": "LDDU",
      "alert": "OK",
      "vis_m": 9999,
      "fzfg": false,
      "metar_trigger": false,
      "taf_trigger": false,
      "metar": "METAR LDDU 201500Z VRB01KT 9999 FEW035 14/10 Q1015 NOSIG",
      "taf": "TAF LDDU 201125Z 2012/2112 19006KT 9999 FEW040 TX16/2012Z TN09/2103Z"
    },
    {
      "icao": "LDSP",
      "alert": "OK",
      "vis_m": 9999,
      "fzfg": false,
      "metar_trigger": false,
      "taf_trigger": false,
      "metar": "METAR LDSP 201500Z 24005KT CAVOK 14/08 Q1015 NOSIG",
      "taf": "TAF LDSP 201125Z 2012/2112 32005KT CAVOK TX17/2012Z TN07/2106Z"
    },
    {
      "icao": "LDZA",
      "alert": "OK",
      "vis_m": 3500,
      "fzfg": false,
      "metar_trigger": false,
      "taf_trigger": false,
      "metar": "METAR LDZA 201500Z 09003KT 040V120 3500 BR OVC003 03/02 Q1021 TEMPO 1500 BCFG",
      "taf": "TAF LDZA 201125Z 2012/2112 VRB02KT 0600 FG VV002 TX04/2111Z TN02/2012Z"
    },
    {
      "icao": "LEAL",
      "alert": "OK",
      "vis_m": 9999,
      "fzfg": false,
      "metar_trigger": false,
      "taf_trigger": false,
      "metar": "METAR LEAL 201500Z 18007KT 160V220 9999 FEW030 18/11 Q1013 NOSIG",
      "taf": "TAF LEAL 201100Z 2012/2112 22008KT 9999 FEW015 TX17/2012Z TN08/2106Z"
    },
    {
      "icao": "LEBL",
      "alert": "OK",
      "vis_m": 4000,
      "fzfg": false,
      "metar_trigger": false,
      "taf_trigger": false,
      "metar": "METAR LEBL 201500Z 32011KT 260V340 4000 SHRA BR FEW010 FEW014TCU BKN015 12/12 Q1012 NOSIG",
      "taf": "TAF LEBL 201100Z 2012/2112 33009KT 8000 FEW030 BKN040 TX12/2012Z TN09/2106Z"
    },
    {
      "icao": "LECH",
      "alert": "OK",
      "vis_m": 9999,
      "fzfg": false,
      "metar_trigger": false,
      "taf_trigger": false,
      "metar": "METAR LECH 201500Z AUTO 11006KT CAVOK 13/08 Q1013",
      "taf": ""
    },
    {
      "icao": "LEMD",
      "alert": "OK",
      "vis_m": 9000,
      "fzfg": false,
      "metar_trigger": false,
      "taf_trigger": false,
      "metar": "METAR LEMD 201500Z 19006KT 150V220 9000 FEW012 SCT020 BKN040 09/08 Q1013 NOSIG",
      "taf": "TAF LEMD 201100Z 2012/2118 VRB04KT 9999 SCT045 TX11/2014Z TN05/2107Z"
    },
    {
      "icao": "LEMG",
      "alert": "OK",
      "vis_m": 9999,
      "fzfg": false,
      "metar_trigger": false,
      "taf_trigger": false,
      "metar": "METAR LEMG 201500Z 31011G21KT 9999 SCT060 15/07 Q1017 NOSIG",
      "taf": "TAF LEMG 201100Z 2012/2112 30009KT 9999 FEW030 TX16/2014Z TN08/2106Z"
    },
    {
      "icao": "LERS",
      "alert": "OK",
      "vis_m": 9999,
      "fzfg": false,
      "metar_trigger": false,
      "taf_trigger": false,
      "metar": "METAR LERS 201500Z 02003KT 350V070 9999 FEW040 16/09 Q1012",
      "taf": "TAF LERS 201400Z 2015/2115 VRB04KT 9999 FEW040 TX15/2112Z TN06/2106Z"
    },
    {
      "icao": "LEVC",
      "alert": "OK",
      "vis_m": 9999,
      "fzfg": false,
      "metar_trigger": false,
      "taf_trigger": false,
      "metar": "METAR LEVC 201500Z 13003KT 090V150 CAVOK 17/08 Q1012 NOSIG",
      "taf": "TAF LEVC 201100Z 2012/2112 VRB04KT 9999 FEW015 TX17/2012Z TN06/2107Z"
    },
    {
      "icao": "LFLL",
      "alert": "OK",
      "vis_m": 9999,
      "fzfg": false,
      "metar_trigger": false,
      "taf_trigger": false,
      "metar": "METAR LFLL 201500Z 18008KT 9999 FEW025 BKN120 14/10 Q1013 NOSIG",
      "taf": "TAF LFLL 201100Z 2012/2118 16008KT CAVOK"
    },
    {
      "icao": "LFMN",
      "alert": "OK",
      "vis_m": 9999,
      "fzfg": false,
      "metar_trigger": false,
      "taf_trigger": false,
      "metar": "METAR LFMN 201500Z 31004KT 9999 SCT040 BKN063 BKN100 14/11 Q1015 NOSIG",
      "taf": "TAF LFMN 201400Z 2015/2121 VRB03KT 9999 BKN040"
    },
    {
      "icao": "LFOB",
      "alert": "OK",
      "vis_m": 3800,
      "fzfg": false,
      "metar_trigger": false,
      "taf_trigger": false,
      "metar": "METAR LFOB 201500Z AUTO 10007KT 080V150 3800 -RA BR OVC003 08/08 Q1011 TEMPO 2000 -DZRA",
      "taf": "TAF LFOB 201100Z 2012/2112 11008KT 9999 OVC015"
    },
    {
      "icao": "LFPO",
      "alert": "OK",
      "vis_m": 4000,
      "fzfg": false,
      "metar_trigger": false,
      "taf_trigger": false,
      "metar": "METAR LFPO 201500Z 13005KT 4000 -DZRA OVC004 09/09 Q1011 TEMPO 6000 -RADZ BKN005",
      "taf": "TAF LFPO 201100Z 2012/2118 10005KT 9999 BKN008"
    },
    {
      "icao": "LFSB",
      "alert": "OK",
      "vis_m": 9999,
      "fzfg": false,
      "metar_trigger": false,
      "taf_trigger": false,
      "metar": "METAR LFSB 201500Z AUTO 00000KT CAVOK 11/05 Q1014 NOSIG",
      "taf": "TAF LFSB 201100Z 2012/2112 15005KT CAVOK"
    },
    {
      "icao": "LGAV",
      "alert": "OK",
      "vis_m": 9999,
      "fzfg": false,
      "metar_trigger": false,
      "taf_trigger": false,
      "metar": "METAR LGAV 201450Z 01008KT 9999 FEW020 14/09 Q1016 NOSIG",
      "taf": "TAF LGAV 201100Z 2012/2112 02012KT 9999 SCT020 BKN070"
    },
    {
      "icao": "LGIR",
      "alert": "OK",
      "vis_m": 9999,
      "fzfg": false,
      "metar_trigger": false,
      "taf_trigger": false,
      "metar": "METAR LGIR 201450Z 08006KT 9999 FEW018 BKN080 16/13 Q1015 NOSIG",
      "taf": "TAF LGIR 201100Z 2012/2112 09010KT 9999 SCT020 BKN080"
    },
    {
      "icao": "LGKR",
      "alert": "OK",
      "vis_m": 9999,
      "fzfg": false,
      "metar_trigger": false,
      "taf_trigger": false,
      "metar": "METAR LGKR 201450Z 00000KT 9999 FEW018 15/12 Q1015 NOSIG",
      "taf": "TAF LGKR 201100Z 2012/2112 VRB05KT 9999 SCT020"
    },
    {
      "icao": "LGRP",
      "alert": "OK",
      "vis_m": 9999,
      "fzfg": false,
      "metar_trigger": false,
      "taf_trigger": false,
      "metar": "METAR LGRP 201450Z 12004KT 060V170 9999 SCT020 16/12 Q1014 NOSIG",
      "taf": "TAF LGRP 201100Z 2012/2112 VRB05KT 9999 SCT020"
    },
    {
      "icao": "LGTS",
      "alert": "OK",
      "vis_m": 9999,
      "fzfg": false,
      "metar_trigger": false,
      "taf_trigger": false,
      "metar": "METAR LGTS 201450Z VRB01KT 9999 FEW010 11/07 Q1018 NOSIG",
      "taf": "TAF LGTS 201100Z 2012/2112 VRB03KT 9999 FEW020"
    },
    {
      "icao": "LGZA",
      "alert": "OK",
      "vis_m": 9999,
      "fzfg": false,
      "metar_trigger": false,
      "taf_trigger": false,
      "metar": "METAR LGZA 201450Z 00000KT 9999 FEW020 BKN080 15/12 Q1015",
      "taf": "TAF LGZA 201400Z 2015/2024 08010KT 9999 SCT020 BKN070"
    },
    {
      "icao": "LHBP",
      "alert": "OK",
      "vis_m": 9999,
      "fzfg": false,
      "metar_trigger": false,
      "taf_trigger": false,
      "metar": "METAR LHBP 201500Z 22002KT 9999 OVC012 06/04 Q1020 NOSIG",
      "taf": "TAF LHBP 201115Z 2012/2112 VRB03KT 9000 OVC016"
    },
    {
      "icao": "LHDC",
      "alert": "OK",
      "vis_m": 400,
      "fzfg": false,
      "metar_trigger": false,
      "taf_trigger": false,
      "metar": "METAR LHDC 201445Z AUTO VRB01KT 0400 -DZ FG VV002 06/06 Q1020 NOSIG",
      "taf": "TAF LHDC 201415Z 2015/2024 VRB02KT 0300 FG VV001"
    },
    {
      "icao": "LIBD",
      "alert": "OK",
      "vis_m": 9999,
      "fzfg": false,
      "metar_trigger": false,
      "taf_trigger": false,
      "metar": "METAR LIBD 201450Z 32005KT 280V340 9999 SCT040 13/11 Q1016",
      "taf": "TAF LIBD 201100Z 2012/2112 VRB04KT 9999 SCT040"
    },
    {
      "icao": "LICC",
      "alert": "OK",
      "vis_m": 9999,
      "fzfg": false,
      "metar_trigger": false,
      "taf_trigger": false,
      "metar": "METAR LICC 201450Z 07010KT 9999 SCT050 16/15 Q1013",
      "taf": "TAF LICC 201100Z 2012/2112 08008KT 9999 SCT015 BKN040"
    },
    {
      "icao": "LICJ",
      "alert": "OK",
      "vis_m": 9999,
      "fzfg": false,
      "metar_trigger": false,
      "taf_trigger": false,
      "metar": "METAR LICJ 201450Z AUTO 05011KT 9999 NCD 17/12 Q1012",
      "taf": "TAF LICJ 201100Z 2012/2112 VRB05KT 9999 SCT040"
    },
    {
      "icao": "LIEO",
      "alert": "OK",
      "vis_m": 9999,
      "fzfg": false,
      "metar_trigger": false,
      "taf_trigger": false,
      "metar": "METAR LIEO 201450Z 06006KT 9999 SCT020 16/14 Q1014",
      "taf": "TAF LIEO 201100Z 2012/2112 06010KT 9999 SCT012"
    },
    {
      "icao": "LIMC",
      "alert": "OK",
      "vis_m": 7000,
      "fzfg": false,
      "metar_trigger": false,
      "taf_trigger": false,
      "metar": "METAR LIMC 201450Z 23004KT 7000 FEW010 10/08 Q1018 NOSIG",
      "taf": "TAF LIMC 201100Z 2012/2118 VRB03KT 4000 -RA BR SCT012"
    },
    {
      "icao": "LIME",
      "alert": "OK",
      "vis_m": 8000,
      "fzfg": false,
      "metar_trigger": false,
      "taf_trigger": false,
      "metar": "METAR LIME 201450Z 22004KT 8000 SCT010 BKN070 10/07 Q1018 NOSIG",
      "taf": "TAF LIME 201100Z 2012/2112 VRB03KT 7000 BKN070"
    },
    {
      "icao": "LIPH",
      "alert": "OK",
      "vis_m": 9999,
      "fzfg": false,
      "metar_trigger": false,
      "taf_trigger": false,
      "metar": "METAR LIPH 201450Z 24003KT CAVOK 11/07 Q1018",
      "taf": "TAF LIPH 201100Z 2012/2112 VRB04KT CAVOK"
    },
    {
      "icao": "LIPQ",
      "alert": "OK",
      "vis_m": 9999,
      "fzfg": false,
      "metar_trigger": false,
      "taf_trigger": false,
      "metar": "METAR LIPQ 201450Z AUTO 33003KT 9999 NCD 12/08 Q1017",
      "taf": "TAF LIPQ 201100Z 2012/2112 VRB04KT CAVOK"
    },
    {
      "icao": "LIPX",
      "alert": "OK",
      "vis_m": 9999,
      "fzfg": false,
      "metar_trigger": false,
      "taf_trigger": false,
      "metar": "METAR LIPX 201450Z 27003KT 9999 FEW070 10/06 Q1018",
      "taf": "TAF LIPX 201100Z 2012/2112 VRB03KT 6000 BKN060"
    },
    {
      "icao": "LIPY",
      "alert": "OK",
      "vis_m": 9999,
      "fzfg": false,
      "metar_trigger": false,
      "taf_trigger": false,
      "metar": "METAR LIPY 201450Z AUTO 33003KT 290V010 9999 OVC007/// 11/10 Q1018",
      "taf": "TAF LIPY 201100Z 2012/2112 VRB05KT 8000 OVC013"
    },
    {
      "icao": "LIPZ",
      "alert": "OK",
      "vis_m": 9999,
      "fzfg": false,
      "metar_trigger": false,
      "taf_trigger": false,
      "metar": "METAR LIPZ 201450Z 22003KT 9999 FEW025 10/08 Q1018 NOSIG",
      "taf": "TAF LIPZ 201100Z 2012/2118 VRB04KT CAVOK"
    },
    {
      "icao": "LIRA",
      "alert": "OK",
      "vis_m": 9999,
      "fzfg": false,
      "metar_trigger": false,
      "taf_trigger": false,
      "metar": "METAR LIRA 201450Z 36003KT CAVOK 15/06 Q1015",
      "taf": "TAF LIRA 201100Z 2012/2112 VRB05KT CAVOK"
    },
    {
      "icao": "LIRN",
      "alert": "OK",
      "vis_m": 9999,
      "fzfg": false,
      "metar_trigger": false,
      "taf_trigger": false,
      "metar": "METAR LIRN 201450Z 07004KT 030V100 CAVOK 16/07 Q1014 NOSIG",
      "taf": "TAF LIRN 201100Z 2012/2112 05007KT CAVOK"
    },
    {
      "icao": "LLBG",
      "alert": "OK",
      "vis_m": 9999,
      "fzfg": false,
      "metar_trigger": false,
      "taf_trigger": false,
      "metar": "METAR LLBG 201450Z 36005KT CAVOK 19/11 Q1017 NOSIG",
      "taf": "TAF LLBG 201103Z 2012/2112 33006KT 9999 SCT040"
    },
    {
      "icao": "LMML",
      "alert": "OK",
      "vis_m": 9999,
      "fzfg": false,
      "metar_trigger": false,
      "taf_trigger": false,
      "metar": "METAR LMML 201445Z 11006KT 080V140 9999 FEW018 15/13 Q1012 NOSIG",
      "taf": "TAF LMML 201100Z 2012/2112 09010KT 9999 SCT015"
    },
    {
      "icao": "LOWW",
      "alert": "OK",
      "vis_m": 3600,
      "fzfg": false,
      "metar_trigger": false,
      "taf_trigger": false,
      "metar": "METAR LOWW 201450Z 14003KT 100V200 3600 -DZ BR SCT001 BKN002 02/02 Q1020 TEMPO 2000 BR",
      "taf": "TAF LOWW 201415Z 2015/2121 14005KT 2000 BR SCT001 BKN002 TX03/2121Z TN02/2101Z"
    },
    {
      "icao": "LPFR",
      "alert": "OK",
      "vis_m": 9999,
      "fzfg": false,
      "metar_trigger": false,
      "taf_trigger": false,
      "metar": "METAR LPFR 201500Z 25014KT 9999 FEW018 15/10 Q1018",
      "taf": "TAF LPFR 201100Z 2012/2112 VRB02KT 9999 SCT030"
    },
    {
      "icao": "LPPR",
      "alert": "OK",
      "vis_m": 9999,
      "fzfg": false,
      "metar_trigger": false,
      "taf_trigger": false,
      "metar": "METAR LPPR 201500Z 27007KT 230V320 9999 FEW015 BKN038 13/07 Q1012",
      "taf": "TAF LPPR 201100Z 2012/2112 21010KT 9999 SCT030"
    },
    {
      "icao": "LPPT",
      "alert": "OK",
      "vis_m": 9999,
      "fzfg": false,
      "metar_trigger": false,
      "taf_trigger": false,
      "metar": "METAR LPPT 201500Z 29004KT 240V330 9999 FEW016 BKN040 14/12 Q1015",
      "taf": "TAF LPPT 201100Z 2012/2118 23010KT 9999 BKN030"
    },
    {
      "icao": "LQSA",
      "alert": "OK",
      "vis_m": 3500,
      "fzfg": false,
      "metar_trigger": false,
      "taf_trigger": false,
      "metar": "METAR LQSA 201500Z VRB01KT 3500 BR BKN004 03/03 Q1019 NOSIG",
      "taf": "TAF LQSA 201100Z 2012/2112 VRB02KT 2000 BR BKN004 BKN020 TX05/2013Z TNM01/2105Z"
    },
    {
      "icao": "LQTZ",
      "alert": "OK",
      "vis_m": 100,
      "fzfg": false,
      "metar_trigger": false,
      "taf_trigger": false,
      "metar": "METAR LQTZ 201500Z VRB02KT 0100 R09/0250N FG VV002 04/04 Q1019",
      "taf": ""
    },
    {
      "icao": "LRCL",
      "alert": "OK",
      "vis_m": 9999,
      "fzfg": false,
      "metar_trigger": false,
      "taf_trigger": false,
      "metar": "METAR LRCL 201500Z 04002KT CAVOK 06/04 Q1020",
      "taf": "TAF LRCL 201400Z 2015/2024 08007KT CAVOK"
    },
    {
      "icao": "LRCV",
      "alert": "OK",
      "vis_m": 4900,
      "fzfg": false,
      "metar_trigger": false,
      "taf_trigger": false,
      "metar": "METAR LRCV 201500Z 12004KT 4900 BR NSC 05/04 Q1021",
      "taf": "TAF LRCV 201400Z 2015/2024 10007KT CAVOK"
    },
    {
      "icao": "LRIA",
      "alert": "OK",
      "vis_m": 500,
      "fzfg": true,
      "metar_trigger": false,
      "taf_trigger": false,
      "metar": "METAR LRIA 201500Z 14005KT 0500 R14/1500D FG OVC001 01/01 Q1022",
      "taf": "TAF LRIA 201400Z 2015/2024 12006KT 0150 FZFG VV001"
    },
    {
      "icao": "LROP",
      "alert": "OK",
      "vis_m": 3000,
      "fzfg": false,
      "metar_trigger": false,
      "taf_trigger": false,
      "metar": "METAR LROP 201500Z 03005KT 360V060 3000 BR SCT002 OVC004 04/04 Q1022 BECMG 1500 BR OVC002",
      "taf": "TAF LROP 201100Z 2012/2112 VRB04KT 0800 FG OVC002"
    },
    {
      "icao": "LRSB",
      "alert": "OK",
      "vis_m": 9000,
      "fzfg": false,
      "metar_trigger": false,
      "taf_trigger": false,
      "metar": "METAR LRSB 201500Z 26003KT 9000 MIFG NSC 03/03 Q1019 NOSIG",
      "taf": "TAF LRSB 201100Z 2012/2112 VRB04KT CAVOK"
    },
    {
      "icao": "LRTR",
      "alert": "OK",
      "vis_m": 8000,
      "fzfg": false,
      "metar_trigger": false,
      "taf_trigger": false,
      "metar": "METAR LRTR 201500Z 32006KT 8000 NSC 08/08 Q1020 BECMG 5000 BR",
      "taf": "TAF LRTR 201100Z 2012/2112 10005KT CAVOK"
    },
    {
      "icao": "LTAF",
      "alert": "OK",
      "vis_m": 9999,
      "fzfg": false,
      "metar_trigger": false,
      "taf_trigger": false,
      "metar": "METAR LTAF 201450Z 18002KT CAVOK 15/09 Q1018 NOSIG RMK RWY23 22002KT 4CI200",
      "taf": "TAF LTAF 201040Z 2012/2112 01008KT CAVOK"
    },
    {
      "icao": "LTAI",
      "alert": "OK",
      "vis_m": 9999,
      "fzfg": false,
      "metar_trigger": false,
      "taf_trigger": false,
      "metar": "METAR LTAI 201450Z VRB02KT 9999 FEW025 BKN080 16/09 Q1017 NOSIG RMK RWY18C VRB02KT RWY36R 29002KT RWY18L 31002KT",
      "taf": "TAF LTAI 201040Z 2012/2112 12008KT 9999 SCT030 BKN100"
    },
    {
      "icao": "LTFM",
      "alert": "OK",
      "vis_m": 9999,
      "fzfg": false,
      "metar_trigger": false,
      "taf_trigger": false,
      "metar": "METAR LTFM 201450Z 04013KT 9999 BKN026 12/08 Q1018 NOSIG RMK RWY17L 04012KT RWY34L 03010KT RWY16R 04011KT RWY36 04014KT RWY18 05011KT",
      "taf": "TAF LTFM 201040Z 2012/2118 04012KT 9999 BKN026"
    },
    {
      "icao": "LUBL",
      "alert": "OK",
      "vis_m": null,
      "fzfg": false,
      "metar_trigger": false,
      "taf_trigger": false,
      "metar": "",
      "taf": ""
    },
    {
      "icao": "LUKK",
      "alert": "OK",
      "vis_m": 4400,
      "fzfg": false,
      "metar_trigger": false,
      "taf_trigger": false,
      "metar": "METAR LUKK 201500Z VRB03KT 4400 BR OVC002 01/01 Q1023 NOSIG",
      "taf": "TAF LUKK 201122Z 2012/2112 VRB05KT 3000 BR OVC004"
    },
    {
      "icao": "LWSK",
      "alert": "OK",
      "vis_m": 100,
      "fzfg": false,
      "metar_trigger": false,
      "taf_trigger": false,
      "metar": "METAR LWSK 201450Z VRB01KT 0100 R34/0275N FG VV002 01/00 Q1019 NOSIG",
      "taf": "TAF LWSK 201425Z 2015/2115 VRB02KT 0300 FG VV002"
    },
    {
      "icao": "LYBE",
      "alert": "OK",
      "vis_m": 250,
      "fzfg": false,
      "metar_trigger": false,
      "taf_trigger": false,
      "metar": "METAR LYBE 201500Z 24003KT 210V280 0250 R12L/0325N R30R/0250N FG VV002 04/04 Q1020 NOSIG",
      "taf": "TAF LYBE 201100Z 2012/2112 26004KT 1500 BR NSC TX05/2013Z TN03/2106Z"
    },
    {
      "icao": "LZIB",
      "alert": "OK",
      "vis_m": 7000,
      "fzfg": false,
      "metar_trigger": false,
      "taf_trigger": false,
      "metar": "METAR LZIB 201500Z VRB01KT 7000 OVC004 04/04 Q1020 NOSIG",
      "taf": "TAF LZIB 201115Z 2012/2112 22004KT 4000 BR BKN008 OVC014"
    },
    {
      "icao": "LZKZ",
      "alert": "OK",
      "vis_m": 8000,
      "fzfg": false,
      "metar_trigger": false,
      "taf_trigger": false,
      "metar": "METAR LZKZ 201500Z 27002KT 8000 BCFG FEW013 SCT030 06/05 Q1019 NOSIG",
      "taf": ""
    },
    {
      "icao": "LZTT",
      "alert": "OK",
      "vis_m": 1100,
      "fzfg": false,
      "metar_trigger": false,
      "taf_trigger": false,
      "metar": "METAR LZTT 201500Z 00000KT 1100 R27/P2000N BR OVC002 01/01 Q1019 NOSIG",
      "taf": ""
    },
    {
      "icao": "OEJN",
      "alert": "OK",
      "vis_m": 9999,
      "fzfg": false,
      "metar_trigger": false,
      "taf_trigger": false,
      "metar": "METAR OEJN 201500Z 34006KT CAVOK 28/M01 Q1011 NOSIG",
      "taf": "TAF OEJN 201100Z 2012/2118 09014KT 7000 NSC"
    },
    {
      "icao": "OEMA",
      "alert": "OK",
      "vis_m": 9999,
      "fzfg": false,
      "metar_trigger": false,
      "taf_trigger": false,
      "metar": "METAR OEMA 201500Z 08006KT CAVOK 19/M11 Q1019 NOSIG",
      "taf": "TAF OEMA 201100Z 2012/2118 10008KT CAVOK"
    },
    {
      "icao": "OERK",
      "alert": "OK",
      "vis_m": 9999,
      "fzfg": false,
      "metar_trigger": false,
      "taf_trigger": false,
      "metar": "METAR OERK 201500Z 31007KT CAVOK 14/M01 Q1019 NOSIG",
      "taf": "TAF OERK 201100Z 2012/2118 33014KT 7000 NSC"
    },
    {
      "icao": "OJAI",
      "alert": "OK",
      "vis_m": 5000,
      "fzfg": false,
      "metar_trigger": false,
      "taf_trigger": false,
      "metar": "METAR OJAI 201500Z 12008KT 5000 HZ NSC 13/05 Q1019 NOSIG",
      "taf": "TAF OJAI 201100Z 2012/2118 13010KT 5000 HZ FEW035"
    },
    {
      "icao": "OKBK",
      "alert": "OK",
      "vis_m": null,
      "fzfg": false,
      "metar_trigger": false,
      "taf_trigger": false,
      "metar": "",
      "taf": ""
    },
    {
      "icao": "OMAA",
      "alert": "OK",
      "vis_m": 9999,
      "fzfg": false,
      "metar_trigger": false,
      "taf_trigger": false,
      "metar": "METAR OMAA 201500Z 25005KT 230V290 CAVOK 18/05 Q1017 NOSIG",
      "taf": "TAF OMAA 201100Z 2012/2118 27012KT 9999 FEW040"
    },
    {
      "icao": "UAAA",
      "alert": "OK",
      "vis_m": 2800,
      "fzfg": false,
      "metar_trigger": false,
      "taf_trigger": false,
      "metar": "METAR UAAA 201500Z 03001MPS 2800 BR BKN100 M02/M04 Q1013 NOSIG",
      "taf": "TAF UAAA 201105Z 2012/2112 32003MPS 1200 BR FU SCT005 BKN011 OVC050 TXM01/2100Z TNM05/2102Z"
    },
    {
      "icao": "UCFM",
      "alert": "OK",
      "vis_m": 800,
      "fzfg": true,
      "metar_trigger": false,
      "taf_trigger": false,
      "metar": "METAR UCFM 201500Z VRB01MPS 0800 0700E R07/P1500D FZFG NSC M02/M02 Q1015 NOSIG",
      "taf": "TAF UCFM 201046Z 2012/2112 25003MPS 1000 BR BKN003"
    },
    {
      "icao": "UDYZ",
      "alert": "OK",
      "vis_m": 4200,
      "fzfg": false,
      "metar_trigger": false,
      "taf_trigger": false,
      "metar": "METAR UDYZ 201500Z 35001KT 4200 BR NSC 00/M05 Q1024 NOSIG",
      "taf": "TAF UDYZ 201100Z 2012/2112 VRB04KT 6000 NSC"
    },
    {
      "icao": "UGTB",
      "alert": "OK",
      "vis_m": 9999,
      "fzfg": false,
      "metar_trigger": false,
      "taf_trigger": false,
      "metar": "METAR UGTB 201500Z 05004KT 040V110 CAVOK 03/M02 Q1023 NOSIG",
      "taf": "TAF UGTB 201100Z 2012/2112 VRB02KT CAVOK TX09/2012Z TNM03/2102Z"
    },
    {
      "icao": "UKKK",
      "alert": "OK",
      "vis_m": null,
      "fzfg": false,
      "metar_trigger": false,
      "taf_trigger": false,
      "metar": "",
      "taf": ""
    },
    {
      "icao": "UTTT",
      "alert": "OK",
      "vis_m": null,
      "fzfg": false,
      "metar_trigger": false,
      "taf_trigger": false,
      "metar": "",
      "taf": ""
    }
  ]
}