{
  "ts_utc": "2026-02-15T11:48:24Z",
  "threshold_m": 150,
  "source": "stations_override.txt (ICAO list) + aviationweather.gov (METAR/TAF raw)",
  "station_count": 159,
  "stations": [
    {
      "icao": "BIKF",
      "alert": "OK",
      "vis_m": 9999,
      "fzfg": false,
      "metar_trigger": false,
      "taf_trigger": false,
      "metar": "METAR BIKF 151130Z 07012KT CAVOK M04/M14 Q0999",
      "taf": "TAF BIKF 151056Z 1512/1612 07015KT CAVOK TXM02/1515Z TNM06/1522Z"
    },
    {
      "icao": "BKPR",
      "alert": "OK",
      "vis_m": 9999,
      "fzfg": false,
      "metar_trigger": false,
      "taf_trigger": false,
      "metar": "METAR BKPR 151130Z 05003KT 010V120 9999 SCT040 11/08 Q0999 NOSIG",
      "taf": "TAF BKPR 151130Z 1512/1612 35010KT 9999 BKN030"
    },
    {
      "icao": "EBCI",
      "alert": "OK",
      "vis_m": 9999,
      "fzfg": false,
      "metar_trigger": false,
      "taf_trigger": false,
      "metar": "METAR EBCI 151120Z 18016KT 9999 FEW024 02/M04 Q1010 NOSIG",
      "taf": "TAF EBCI 151100Z 1512/1618 17014KT CAVOK"
    },
    {
      "icao": "EDDB",
      "alert": "OK",
      "vis_m": 9999,
      "fzfg": false,
      "metar_trigger": false,
      "taf_trigger": false,
      "metar": "METAR EDDB 151120Z AUTO VRB02KT 9999 SCT036 M01/M09 Q1019 NOSIG",
      "taf": "TAF EDDB 151100Z 1512/1612 02004KT 9999 FEW030"
    },
    {
      "icao": "EDDH",
      "alert": "OK",
      "vis_m": 9999,
      "fzfg": false,
      "metar_trigger": false,
      "taf_trigger": false,
      "metar": "METAR EDDH 151120Z AUTO 15012KT CAVOK M02/M07 Q1017 NOSIG",
      "taf": "TAF EDDH 151100Z 1512/1618 14012KT CAVOK"
    },
    {
      "icao": "EDDK",
      "alert": "OK",
      "vis_m": 9999,
      "fzfg": false,
      "metar_trigger": false,
      "taf_trigger": false,
      "metar": "METAR EDDK 151120Z AUTO 16015KT 9999 BKN033 03/M04 Q1015 NOSIG",
      "taf": "TAF EDDK 151100Z 1512/1618 14012KT 9999 SCT020"
    },
    {
      "icao": "EDDN",
      "alert": "OK",
      "vis_m": 9999,
      "fzfg": false,
      "metar_trigger": false,
      "taf_trigger": false,
      "metar": "METAR EDDN 151120Z AUTO 26005KT 240V310 9999 OVC036 00/M08 Q1016 NOSIG",
      "taf": "TAF EDDN 151100Z 1512/1612 24003KT 9999 BKN025"
    },
    {
      "icao": "EDDS",
      "alert": "OK",
      "vis_m": 9999,
      "fzfg": false,
      "metar_trigger": false,
      "taf_trigger": false,
      "metar": "METAR EDDS 151120Z AUTO 11004KT 060V160 9999 FEW012 BKN040 02/M02 Q1014 NOSIG",
      "taf": "TAF EDDS 151100Z 1512/1612 13004KT 9999 BKN030"
    },
    {
      "icao": "EDFH",
      "alert": "OK",
      "vis_m": 9999,
      "fzfg": false,
      "metar_trigger": false,
      "taf_trigger": false,
      "metar": "METAR EDFH 151120Z 17011KT 130V200 9999 FEW023 OVC026 M00/M05 Q1013",
      "taf": "TAF EDFH 151100Z 1512/1612 16012KT 9999 BKN025"
    },
    {
      "icao": "EDJA",
      "alert": "OK",
      "vis_m": 9999,
      "fzfg": false,
      "metar_trigger": false,
      "taf_trigger": false,
      "metar": "METAR EDJA 151120Z 06004KT 030V090 9999 FEW030 OVC043 M01/M03 Q1014",
      "taf": "TAF EDJA 151100Z 1512/1521 11004KT 9999 FEW010 OVC030"
    },
    {
      "icao": "EDLW",
      "alert": "OK",
      "vis_m": 9999,
      "fzfg": false,
      "metar_trigger": false,
      "taf_trigger": false,
      "metar": "METAR EDLW 151120Z 16010KT 100V190 CAVOK 02/M04 Q1014",
      "taf": "TAF EDLW 151100Z 1512/1612 15010KT CAVOK"
    },
    {
      "icao": "EDNY",
      "alert": "OK",
      "vis_m": 9999,
      "fzfg": false,
      "metar_trigger": false,
      "taf_trigger": false,
      "metar": "METAR EDNY 151120Z 06004KT 030V090 9999 FEW011 SCT036 BKN060 02/M01 Q1015",
      "taf": "TAF EDNY 151100Z 1512/1521 VRB03KT 9999 FEW025 BKN035"
    },
    {
      "icao": "EDSB",
      "alert": "OK",
      "vis_m": 9999,
      "fzfg": false,
      "metar_trigger": false,
      "taf_trigger": false,
      "metar": "METAR EDSB 151120Z VRB02KT 9999 FEW018 04/M03 Q1016",
      "taf": "TAF EDSB 151100Z 1512/1612 17004KT 9999 BKN040"
    },
    {
      "icao": "EETN",
      "alert": "OK",
      "vis_m": 9999,
      "fzfg": false,
      "metar_trigger": false,
      "taf_trigger": false,
      "metar": "METAR EETN 151120Z 23008KT 190V250 9999 FEW025 M06/M11 Q1016 NOSIG",
      "taf": "TAF EETN 151130Z 1512/1612 26007KT 9999 BKN020"
    },
    {
      "icao": "EFTU",
      "alert": "OK",
      "vis_m": 9999,
      "fzfg": false,
      "metar_trigger": false,
      "taf_trigger": false,
      "metar": "METAR EFTU 151120Z AUTO 22003KT 190V280 9999 OVC008 M08/M10 Q1015",
      "taf": ""
    },
    {
      "icao": "EGBB",
      "alert": "OK",
      "vis_m": 5000,
      "fzfg": false,
      "metar_trigger": false,
      "taf_trigger": false,
      "metar": "METAR EGBB 151120Z 19005KT 160V230 5000 RA OVC007 04/03 Q0999",
      "taf": "TAF EGBB 151054Z 1512/1612 18011KT 9999 BKN014"
    },
    {
      "icao": "EGGP",
      "alert": "OK",
      "vis_m": 9999,
      "fzfg": false,
      "metar_trigger": false,
      "taf_trigger": false,
      "metar": "METAR EGGP 151120Z 17009KT 9999 VCSH SCT038 05/03 Q0996",
      "taf": "TAF EGGP 151059Z 1512/1612 17010KT 9999 FEW025"
    },
    {
      "icao": "EGGW",
      "alert": "OK",
      "vis_m": 9000,
      "fzfg": false,
      "metar_trigger": false,
      "taf_trigger": false,
      "metar": "METAR EGGW 151120Z AUTO 17010KT 9000 -RA BKN008/// OVC011/// //////CB 03/03 Q1000",
      "taf": "TAF EGGW 151102Z 1512/1612 17012KT 9999 BKN006"
    },
    {
      "icao": "EGKK",
      "alert": "OK",
      "vis_m": 4500,
      "fzfg": false,
      "metar_trigger": false,
      "taf_trigger": false,
      "metar": "METAR EGKK 151120Z 17007KT 130V200 4500 -RADZ BKN006 05/05 Q1002",
      "taf": "TAF EGKK 151054Z 1512/1618 17012KT 9999 SCT018"
    },
    {
      "icao": "EGNM",
      "alert": "OK",
      "vis_m": 9999,
      "fzfg": false,
      "metar_trigger": false,
      "taf_trigger": false,
      "metar": "METAR EGNM 151120Z 16008KT 9999 BKN010 03/02 Q0996",
      "taf": "TAF EGNM 151058Z 1512/1612 17008KT 9999 SCT015"
    },
    {
      "icao": "EGPD",
      "alert": "OK",
      "vis_m": 9999,
      "fzfg": false,
      "metar_trigger": false,
      "taf_trigger": false,
      "metar": "METAR EGPD 151120Z 19007KT 150V240 9999 BKN012 04/02 Q0991 TEMPO SCT012",
      "taf": "TAF EGPD 151107Z 1512/1612 17008KT 9999 SCT020"
    },
    {
      "icao": "EGPF",
      "alert": "OK",
      "vis_m": 9999,
      "fzfg": false,
      "metar_trigger": false,
      "taf_trigger": false,
      "metar": "METAR EGPF 151120Z AUTO 16007KT 120V190 9999 BKN023 07/05 Q0991",
      "taf": "TAF EGPF 151058Z 1512/1612 16006KT 9999 FEW015 SCT030"
    },
    {
      "icao": "EHBK",
      "alert": "OK",
      "vis_m": 9999,
      "fzfg": false,
      "metar_trigger": false,
      "taf_trigger": false,
      "metar": "METAR EHBK 151125Z AUTO 17016KT 140V200 9999 NSC 03/M03 Q1012 NOSIG",
      "taf": "TAF EHBK 151110Z 1512/1618 17010KT CAVOK"
    },
    {
      "icao": "EHEH",
      "alert": "OK",
      "vis_m": 9999,
      "fzfg": false,
      "metar_trigger": false,
      "taf_trigger": false,
      "metar": "METAR EHEH 151125Z AUTO 18014KT 140V210 9999 OVC140 03/M03 Q1011 BLU NOSIG RMK TREND REMOTE BY EHWX",
      "taf": "TAF EHEH 150503Z 1506/1612 15005KT CAVOK"
    },
    {
      "icao": "EKBI",
      "alert": "OK",
      "vis_m": 9999,
      "fzfg": false,
      "metar_trigger": false,
      "taf_trigger": false,
      "metar": "METAR EKBI 151120Z AUTO 16011KT 130V190 9999 BKN052/// M02/M07 Q1015",
      "taf": "TAF EKBI 151127Z 1512/1612 15015KT 9999 BKN030"
    },
    {
      "icao": "EKCH",
      "alert": "OK",
      "vis_m": 9999,
      "fzfg": false,
      "metar_trigger": false,
      "taf_trigger": false,
      "metar": "METAR EKCH 151120Z AUTO 18010KT 9999 BKN032/// M01/M08 Q1019 NOSIG",
      "taf": "TAF EKCH 151127Z 1512/1612 15012KT CAVOK"
    },
    {
      "icao": "ENAL",
      "alert": "OK",
      "vis_m": 9999,
      "fzfg": false,
      "metar_trigger": false,
      "taf_trigger": false,
      "metar": "METAR ENAL 151120Z 17010KT CAVOK 04/M08 Q1000",
      "taf": "TAF ENAL 151100Z 1512/1521 17015KT CAVOK"
    },
    {
      "icao": "ENBR",
      "alert": "OK",
      "vis_m": 9999,
      "fzfg": false,
      "metar_trigger": false,
      "taf_trigger": false,
      "metar": "METAR ENBR 151120Z 14020KT 9999 BKN027 02/M03 Q1003 NOSIG RMK WIND 1200FT 14035G45KT",
      "taf": "TAF ENBR 151100Z 1512/1612 14018KT 9999 SCT012 BKN020"
    },
    {
      "icao": "ENGM",
      "alert": "OK",
      "vis_m": 9999,
      "fzfg": false,
      "metar_trigger": false,
      "taf_trigger": false,
      "metar": "METAR ENGM 151120Z VRB02KT 9999 2400NW -SN BR FEW002 OVC005 M14/M16 Q1012 TEMPO 2000 -SN BKN004",
      "taf": "TAF ENGM 151100Z 1512/1612 02003KT 9999 OVC007"
    },
    {
      "icao": "ENHD",
      "alert": "OK",
      "vis_m": 9999,
      "fzfg": false,
      "metar_trigger": false,
      "taf_trigger": false,
      "metar": "METAR ENHD 151120Z 13020KT 9999 FEW010 SCT032 BKN040 02/M00 Q1003",
      "taf": "TAF ENHD 151100Z 1512/1521 14018KT 9999 SCT010 BKN030"
    },
    {
      "icao": "ENTC",
      "alert": "OK",
      "vis_m": 4300,
      "fzfg": false,
      "metar_trigger": false,
      "taf_trigger": false,
      "metar": "METAR ENTC 151120Z 19015KT 4300 -SHSN VV019 M03/M05 Q1001 TEMPO 0700 SHSN BKN006 RMK WIND 2600FT 22015KT",
      "taf": "TAF ENTC 151100Z 1512/1612 21020KT 9999 FEW012 BKN030"
    },
    {
      "icao": "ENTO",
      "alert": "OK",
      "vis_m": 2700,
      "fzfg": false,
      "metar_trigger": false,
      "taf_trigger": false,
      "metar": "METAR ENTO 151120Z 01004KT 2700 -SN FEW001 BKN005 BKN007 M07/M07 Q1012 TEMPO BKN004",
      "taf": ""
    },
    {
      "icao": "ENVA",
      "alert": "OK",
      "vis_m": 9999,
      "fzfg": false,
      "metar_trigger": false,
      "taf_trigger": false,
      "metar": "METAR ENVA 151120Z 11005KT 070V140 CAVOK M02/M13 Q1004 NOSIG RMK WIND 670FT 15010KT",
      "taf": "TAF ENVA 151100Z 1512/1612 08008KT CAVOK"
    },
    {
      "icao": "ENZV",
      "alert": "OK",
      "vis_m": 9999,
      "fzfg": false,
      "metar_trigger": false,
      "taf_trigger": false,
      "metar": "METAR ENZV 151120Z 15014KT 9999 -SHRA SCT015 BKN033 BKN045 02/M00 Q1005 TEMPO 2000 SHRASN VV012",
      "taf": "TAF ENZV 151100Z 1512/1612 17018KT 9999 SCT015CB BKN035"
    },
    {
      "icao": "EPGD",
      "alert": "OK",
      "vis_m": 9999,
      "fzfg": false,
      "metar_trigger": false,
      "taf_trigger": false,
      "metar": "METAR EPGD 151130Z 06008KT 9999 FEW021 M04/M09 Q1018",
      "taf": "TAF EPGD 151130Z 1512/1612 06010KT CAVOK"
    },
    {
      "icao": "EPKK",
      "alert": "OK",
      "vis_m": 3100,
      "fzfg": false,
      "metar_trigger": false,
      "taf_trigger": false,
      "metar": "METAR EPKK 151130Z 35010KT 3100 -SN BR FEW007 OVC023 M03/M05 Q1013",
      "taf": "TAF EPKK 151130Z 1512/1612 35007KT 6000 OVC030"
    },
    {
      "icao": "EPKT",
      "alert": "OK",
      "vis_m": 9999,
      "fzfg": false,
      "metar_trigger": false,
      "taf_trigger": false,
      "metar": "METAR EPKT 151130Z 35009KT 9999 FEW017 OVC020 M04/M09 Q1014",
      "taf": "TAF EPKT 151130Z 1512/1612 35012KT 9999 OVC020"
    },
    {
      "icao": "EPLB",
      "alert": "OK",
      "vis_m": 2400,
      "fzfg": false,
      "metar_trigger": false,
      "taf_trigger": false,
      "metar": "METAR EPLB 151130Z 36004KT 330V050 2400 -SN BR BKN013 OVC030 M07/M08 Q1013",
      "taf": "TAF EPLB 151130Z 1512/1612 01010KT 4000 -SN BR SCT010 BKN020"
    },
    {
      "icao": "EPMO",
      "alert": "OK",
      "vis_m": 9999,
      "fzfg": false,
      "metar_trigger": false,
      "taf_trigger": false,
      "metar": "METAR EPMO 151130Z 02008KT 350V050 9999 BKN018 M07/M09 Q1016",
      "taf": "TAF EPMO 151130Z 1512/1612 02010KT 9999 BKN020"
    },
    {
      "icao": "EPPO",
      "alert": "OK",
      "vis_m": 9999,
      "fzfg": false,
      "metar_trigger": false,
      "taf_trigger": false,
      "metar": "METAR EPPO 151130Z 03007KT 340V040 9999 BKN038 M02/M11 Q1018",
      "taf": "TAF EPPO 151130Z 1512/1612 35010KT 9999 BKN040"
    },
    {
      "icao": "EPRA",
      "alert": "OK",
      "vis_m": 9000,
      "fzfg": false,
      "metar_trigger": false,
      "taf_trigger": false,
      "metar": "METAR EPRA 151130Z 34009KT 9000 OVC011 M05/M08 Q1014",
      "taf": "TAF EPRA 151130Z 1512/1521 35010KT 9999 OVC012"
    },
    {
      "icao": "EPRZ",
      "alert": "OK",
      "vis_m": 2500,
      "fzfg": false,
      "metar_trigger": false,
      "taf_trigger": false,
      "metar": "METAR EPRZ 151130Z 33007KT 2500 -SN BR SCT005 BKN016 M04/M06 Q1012 RESN",
      "taf": "TAF EPRZ 151130Z 1512/1612 34010KT 3000 -SN BR SCT008 BKN014"
    },
    {
      "icao": "EPSC",
      "alert": "OK",
      "vis_m": 9999,
      "fzfg": false,
      "metar_trigger": false,
      "taf_trigger": false,
      "metar": "METAR EPSC 151130Z 34005KT 310V060 9999 BKN038 M00/M10 Q1018",
      "taf": "TAF EPSC 151130Z 1512/1612 36007KT 9999 BKN035"
    },
    {
      "icao": "EPSY",
      "alert": "OK",
      "vis_m": 9999,
      "fzfg": false,
      "metar_trigger": false,
      "taf_trigger": false,
      "metar": "METAR EPSY 151130Z 36009KT CAVOK M07/M11 Q1016",
      "taf": "TAF EPSY 151130Z 1512/1521 01010KT CAVOK"
    },
    {
      "icao": "EPWA",
      "alert": "OK",
      "vis_m": 9999,
      "fzfg": false,
      "metar_trigger": false,
      "taf_trigger": false,
      "metar": "METAR EPWA 151130Z 34008KT 310V020 9999 BKN020 M06/M10 Q1015 NOSIG",
      "taf": "TAF EPWA 151130Z 1512/1612 01010KT 9999 BKN020"
    },
    {
      "icao": "EPWR",
      "alert": "OK",
      "vis_m": 9999,
      "fzfg": false,
      "metar_trigger": false,
      "taf_trigger": false,
      "metar": "METAR EPWR 151130Z 32012KT 9999 OVC031 M02/M09 Q1017",
      "taf": "TAF EPWR 151130Z 1512/1612 34010KT 9999 BKN030"
    },
    {
      "icao": "ESGG",
      "alert": "OK",
      "vis_m": 9999,
      "fzfg": false,
      "metar_trigger": false,
      "taf_trigger": false,
      "metar": "METAR ESGG 151120Z 18011KT 9999 FEW039 M04/M08 Q1015",
      "taf": "TAF ESGG 151130Z 1512/1612 17012KT 9999 SCT030 BKN045"
    },
    {
      "icao": "ESKN",
      "alert": "OK",
      "vis_m": 9999,
      "fzfg": false,
      "metar_trigger": false,
      "taf_trigger": false,
      "metar": "METAR ESKN 151120Z 25007KT 9999 FEW020 M06/M09 Q1017",
      "taf": "TAF ESKN 151130Z 1512/1612 22007KT 9999 FEW020"
    },
    {
      "icao": "ESMS",
      "alert": "OK",
      "vis_m": 9999,
      "fzfg": false,
      "metar_trigger": false,
      "taf_trigger": false,
      "metar": "METAR ESMS 151120Z 16007KT CAVOK M02/M10 Q1018",
      "taf": "TAF ESMS 151127Z 1512/1612 15008KT CAVOK"
    },
    {
      "icao": "ESSA",
      "alert": "OK",
      "vis_m": 9999,
      "fzfg": false,
      "metar_trigger": false,
      "taf_trigger": false,
      "metar": "METAR ESSA 151050Z 24013KT CAVOK M08/M11 Q1016 NOSIG",
      "taf": "TAF ESSA 151130Z 1512/1612 24009KT 9999 SCT020"
    },
    {
      "icao": "EYKA",
      "alert": "OK",
      "vis_m": 9999,
      "fzfg": false,
      "metar_trigger": false,
      "taf_trigger": false,
      "metar": "METAR EYKA 151120Z 34006KT CAVOK M12/M16 Q1018",
      "taf": "TAF EYKA 151100Z 1512/1612 VRB04KT 9000 NSC"
    },
    {
      "icao": "EYPA",
      "alert": "OK",
      "vis_m": 9999,
      "fzfg": false,
      "metar_trigger": false,
      "taf_trigger": false,
      "metar": "METAR EYPA 151120Z VRB02KT CAVOK M05/M23 Q1020",
      "taf": "TAF EYPA 151100Z 1512/1612 VRB02KT 9000 NSC"
    },
    {
      "icao": "EYVI",
      "alert": "OK",
      "vis_m": 9999,
      "fzfg": false,
      "metar_trigger": false,
      "taf_trigger": false,
      "metar": "METAR EYVI 151120Z 03010KT CAVOK M09/M16 Q1016 NOSIG",
      "taf": "TAF EYVI 151100Z 1512/1612 VRB05KT 9000 NSC"
    },
    {
      "icao": "GCFV",
      "alert": "OK",
      "vis_m": 9999,
      "fzfg": false,
      "metar_trigger": false,
      "taf_trigger": false,
      "metar": "METAR GCFV 151130Z 03024KT 9999 FEW028 19/11 Q1026",
      "taf": "TAF GCFV 150800Z 1509/1609 03022KT 9999 FEW025 TX20/1514Z TN15/1606Z"
    },
    {
      "icao": "GCLP",
      "alert": "OK",
      "vis_m": 9999,
      "fzfg": false,
      "metar_trigger": false,
      "taf_trigger": false,
      "metar": "METAR GCLP 151130Z 02027KT 9999 FEW030 20/11 Q1027 NOSIG",
      "taf": "TAF GCLP 150800Z 1509/1609 02024KT 9999 FEW025 TX20/1514Z TN16/1606Z"
    },
    {
      "icao": "GCTS",
      "alert": "OK",
      "vis_m": 9999,
      "fzfg": false,
      "metar_trigger": false,
      "taf_trigger": false,
      "metar": "METAR GCTS 151130Z 07023KT 9999 FEW030 21/08 Q1025 NOSIG",
      "taf": "TAF GCTS 150800Z 1509/1609 08025KT 9999 FEW025 TX24/1514Z TN18/1606Z"
    },
    {
      "icao": "GMAD",
      "alert": "OK",
      "vis_m": 9999,
      "fzfg": false,
      "metar_trigger": false,
      "taf_trigger": false,
      "metar": "METAR GMAD 151130Z 00000KT CAVOK 20/12 Q1025 NOSIG",
      "taf": "TAF GMAD 151100Z 1512/1618 26008KT CAVOK"
    },
    {
      "icao": "GMMN",
      "alert": "OK",
      "vis_m": 9999,
      "fzfg": false,
      "metar_trigger": false,
      "taf_trigger": false,
      "metar": "METAR GMMN 151130Z 06007KT 040V100 CAVOK 15/09 Q1032 NOSIG",
      "taf": "TAF GMMN 151100Z 1512/1618 06009KT CAVOK"
    },
    {
      "icao": "GMMX",
      "alert": "OK",
      "vis_m": 9999,
      "fzfg": false,
      "metar_trigger": false,
      "taf_trigger": false,
      "metar": "METAR GMMX 151130Z 08009KT 040V110 CAVOK 15/05 Q1029 NOSIG",
      "taf": "TAF GMMX 151100Z 1512/1618 24008KT 8000 NSC"
    },
    {
      "icao": "HEGN",
      "alert": "OK",
      "vis_m": 9999,
      "fzfg": false,
      "metar_trigger": false,
      "taf_trigger": false,
      "metar": "METAR HEGN 151100Z 01006KT CAVOK 26/02 Q1017 NOSIG",
      "taf": "TAF HEGN 151100Z 1512/1618 04012KT 6000 NSC"
    },
    {
      "icao": "HEMA",
      "alert": "OK",
      "vis_m": 9999,
      "fzfg": false,
      "metar_trigger": false,
      "taf_trigger": false,
      "metar": "METAR HEMA 151100Z 33017KT CAVOK 27/09 Q1018 NOSIG",
      "taf": "TAF HEMA 151100Z 1512/1618 35010G20KT 6000 NSC"
    },
    {
      "icao": "HESH",
      "alert": "OK",
      "vis_m": 6000,
      "fzfg": false,
      "metar_trigger": false,
      "taf_trigger": false,
      "metar": "METAR HESH 151100Z 34014KT 6000 NSC 26/09 Q1018 NOSIG",
      "taf": "TAF HESH 151100Z 1512/1618 09012KT 6000 NSC"
    },
    {
      "icao": "HESX",
      "alert": "OK",
      "vis_m": 9999,
      "fzfg": false,
      "metar_trigger": false,
      "taf_trigger": false,
      "metar": "METAR HESX 151100Z 12010KT CAVOK 25/M06 Q1018 NOSIG",
      "taf": "TAF HESX 151100Z 1512/1618 20010KT 6000 NSC"
    },
    {
      "icao": "LATI",
      "alert": "OK",
      "vis_m": null,
      "fzfg": false,
      "metar_trigger": false,
      "taf_trigger": false,
      "metar": "",
      "taf": "TAF LATI 151100Z 1512/1612 23010KT 9999 -RA SCT030 BKN050 TX15/1612Z TN07/1605Z"
    },
    {
      "icao": "LBPD",
      "alert": "OK",
      "vis_m": 7000,
      "fzfg": false,
      "metar_trigger": false,
      "taf_trigger": false,
      "metar": "METAR LBPD 151130Z AUTO 29011KT 7000 RA SCT005/// BKN072/// OVC082/// 11/11 Q0998 NOSIG",
      "taf": "TAF LBPD 151100Z 1512/1612 10010KT 9999 SCT005 BKN050"
    },
    {
      "icao": "LBSF",
      "alert": "OK",
      "vis_m": 9999,
      "fzfg": false,
      "metar_trigger": false,
      "taf_trigger": false,
      "metar": "METAR LBSF 151130Z VRB06KT 9999 -RA FEW014 SCT050 OVC078 10/06 Q0999 NOSIG",
      "taf": "TAF LBSF 151100Z 1512/1612 18008KT 8000 BKN040"
    },
    {
      "icao": "LBWN",
      "alert": "OK",
      "vis_m": 9999,
      "fzfg": false,
      "metar_trigger": false,
      "taf_trigger": false,
      "metar": "METAR LBWN 151130Z 10012KT CAVOK 14/07 Q1001 NOSIG",
      "taf": "TAF LBWN 151100Z 1512/1612 10010KT 9999 SCT040"
    },
    {
      "icao": "LCLK",
      "alert": "OK",
      "vis_m": 9999,
      "fzfg": false,
      "metar_trigger": false,
      "taf_trigger": false,
      "metar": "METAR LCLK 151130Z 11005KT 090V150 9999 FEW025 SCT040 20/15 Q1021 NOSIG",
      "taf": "TAF LCLK 151130Z 1512/1612 16010KT 9999 FEW025"
    },
    {
      "icao": "LCPH",
      "alert": "OK",
      "vis_m": 9999,
      "fzfg": false,
      "metar_trigger": false,
      "taf_trigger": false,
      "metar": "METAR LCPH 151130Z 15012KT 9999 FEW030 20/13 Q1020 NOSIG",
      "taf": "TAF LCPH 151130Z 1512/1612 14016KT 9999 FEW020"
    },
    {
      "icao": "LEAL",
      "alert": "OK",
      "vis_m": 9999,
      "fzfg": false,
      "metar_trigger": false,
      "taf_trigger": false,
      "metar": "METAR LEAL 151130Z COR 30018KT CAVOK 17/M01 Q1023 NOSIG",
      "taf": "TAF LEAL 151100Z 1512/1612 31020KT CAVOK TX20/1513Z TN13/1606Z"
    },
    {
      "icao": "LEBB",
      "alert": "OK",
      "vis_m": 9999,
      "fzfg": false,
      "metar_trigger": false,
      "taf_trigger": false,
      "metar": "METAR LEBB 151130Z 21007KT 150V300 9999 SCT059 12/04 Q1022 NOSIG",
      "taf": "TAF LEBB 151100Z 1512/1612 20008KT 9999 FEW030 BKN050 TX15/1513Z TN09/1520Z"
    },
    {
      "icao": "LEBL",
      "alert": "OK",
      "vis_m": 9999,
      "fzfg": false,
      "metar_trigger": false,
      "taf_trigger": false,
      "metar": "METAR LEBL 151130Z 34002KT CAVOK 13/03 Q1018 NOSIG",
      "taf": "TAF LEBL 151100Z 1512/1612 34008KT 9999 FEW035 TX16/1513Z TN13/1606Z"
    },
    {
      "icao": "LECH",
      "alert": "OK",
      "vis_m": 9999,
      "fzfg": false,
      "metar_trigger": false,
      "taf_trigger": false,
      "metar": "METAR LECH 151130Z AUTO 27009KT CAVOK 14/03 Q1020",
      "taf": ""
    },
    {
      "icao": "LEMD",
      "alert": "OK",
      "vis_m": 9999,
      "fzfg": false,
      "metar_trigger": false,
      "taf_trigger": false,
      "metar": "METAR LEMD 151130Z 33006KT 280V030 CAVOK 11/02 Q1025 NOSIG",
      "taf": "TAF LEMD 151100Z 1512/1618 28012KT 9999 FEW040 TX13/1515Z TNM00/1607Z"
    },
    {
      "icao": "LEMG",
      "alert": "OK",
      "vis_m": 9999,
      "fzfg": false,
      "metar_trigger": false,
      "taf_trigger": false,
      "metar": "METAR LEMG 151130Z 29022KT 270V330 CAVOK 15/04 Q1028 NOSIG",
      "taf": "TAF LEMG 151100Z 1512/1612 30012KT CAVOK TX18/1514Z TN12/1607Z"
    },
    {
      "icao": "LEVC",
      "alert": "OK",
      "vis_m": 9999,
      "fzfg": false,
      "metar_trigger": false,
      "taf_trigger": false,
      "metar": "METAR LEVC 151130Z 29018KT CAVOK 15/M01 Q1021 NOSIG",
      "taf": "TAF LEVC 151100Z 1512/1612 30015KT CAVOK TX19/1514Z TN13/1606Z"
    },
    {
      "icao": "LEXJ",
      "alert": "OK",
      "vis_m": 9999,
      "fzfg": false,
      "metar_trigger": false,
      "taf_trigger": false,
      "metar": "METAR LEXJ 151130Z 23006KT 190V270 9999 FEW050 BKN067 14/06 Q1021",
      "taf": "TAF LEXJ 150800Z 1509/1609 24009KT 9999 SCT050 BKN080 TX15/1513Z TN11/1601Z"
    },
    {
      "icao": "LEZG",
      "alert": "OK",
      "vis_m": 9999,
      "fzfg": false,
      "metar_trigger": false,
      "taf_trigger": false,
      "metar": "METAR LEZG 151130Z 31010KT CAVOK 12/02 Q1022 NOSIG",
      "taf": "TAF LEZG 151100Z 1512/1612 30012KT 9999 FEW040 TX16/1512Z TN11/1606Z"
    },
    {
      "icao": "LEZL",
      "alert": "OK",
      "vis_m": 9999,
      "fzfg": false,
      "metar_trigger": false,
      "taf_trigger": false,
      "metar": "METAR LEZL 151130Z 23003KT CAVOK 13/07 Q1031 NOSIG",
      "taf": "TAF LEZL 150800Z 1509/1609 21005KT CAVOK TX18/1515Z TN06/1607Z"
    },
    {
      "icao": "LFBD",
      "alert": "OK",
      "vis_m": 3300,
      "fzfg": false,
      "metar_trigger": false,
      "taf_trigger": false,
      "metar": "METAR LFBD 151130Z AUTO 25017KT 3300 RA BR OVC007/// ///TCU 12/11 Q1016 BECMG 24015G25KT",
      "taf": "TAF LFBD 151100Z 1512/1618 24010KT 9999 BKN010 TX13/1612Z TN10/1512Z"
    },
    {
      "icao": "LFLL",
      "alert": "OK",
      "vis_m": 9999,
      "fzfg": false,
      "metar_trigger": false,
      "taf_trigger": false,
      "metar": "METAR LFLL 151130Z VRB02KT 9999 FEW023 OVC230 04/M02 Q1017 BECMG 16010KT",
      "taf": "TAF LFLL 151100Z 1512/1618 16008KT 9999 FEW030 BKN070"
    },
    {
      "icao": "LFLS",
      "alert": "OK",
      "vis_m": 9999,
      "fzfg": false,
      "metar_trigger": false,
      "taf_trigger": false,
      "metar": "METAR LFLS 151130Z AUTO 03003KT 340V100 9999 OVC015 02/M02 Q1016 NOSIG",
      "taf": "TAF LFLS 150800Z 1509/1609 VRB03KT CAVOK"
    },
    {
      "icao": "LFMN",
      "alert": "OK",
      "vis_m": 9999,
      "fzfg": false,
      "metar_trigger": false,
      "taf_trigger": false,
      "metar": "METAR LFMN 151130Z 19005KT CAVOK 15/07 Q1007 NOSIG",
      "taf": "TAF LFMN 150800Z 1509/1615 34010KT CAVOK"
    },
    {
      "icao": "LFOB",
      "alert": "OK",
      "vis_m": 6000,
      "fzfg": false,
      "metar_trigger": false,
      "taf_trigger": false,
      "metar": "METAR LFOB 151130Z AUTO 15013KT 6000 -RA OVC008/// ///TCU 02/01 Q1007 TEMPO 2000 SN OVC006",
      "taf": "TAF LFOB 151100Z 1512/1612 17012KT 9999 OVC010"
    },
    {
      "icao": "LFPO",
      "alert": "OK",
      "vis_m": 8000,
      "fzfg": false,
      "metar_trigger": false,
      "taf_trigger": false,
      "metar": "METAR LFPO 151130Z 17014G24KT 8000 -RA BKN008 01/00 Q1009 NOSIG",
      "taf": "TAF LFPO 151100Z 1512/1618 17011KT 8000 BKN007"
    },
    {
      "icao": "LFSB",
      "alert": "OK",
      "vis_m": 9999,
      "fzfg": false,
      "metar_trigger": false,
      "taf_trigger": false,
      "metar": "METAR LFSB 151130Z AUTO 18003KT 140V230 9999 FEW014 BKN040 OVC046 03/M00 Q1015 NOSIG",
      "taf": "TAF LFSB 151100Z 1512/1612 VRB03KT 9999 BKN040"
    },
    {
      "icao": "LGAV",
      "alert": "OK",
      "vis_m": 5000,
      "fzfg": false,
      "metar_trigger": false,
      "taf_trigger": false,
      "metar": "METAR LGAV 151120Z 20027KT 5000 DU FEW020 SCT030 19/11 Q1002 NOSIG",
      "taf": "TAF LGAV 151100Z 1512/1612 19028G40KT 9000 FEW020 SCT070"
    },
    {
      "icao": "LGTS",
      "alert": "OK",
      "vis_m": 7000,
      "fzfg": false,
      "metar_trigger": false,
      "taf_trigger": false,
      "metar": "METAR LGTS 151120Z VRB02KT 7000 -RA SCT005 BKN020 13/13 Q1000 RERA NOSIG",
      "taf": "TAF LGTS 151100Z 1512/1612 20013KT 9999 FEW025"
    },
    {
      "icao": "LHBP",
      "alert": "OK",
      "vis_m": 9999,
      "fzfg": false,
      "metar_trigger": false,
      "taf_trigger": false,
      "metar": "METAR LHBP 151130Z 32013KT 9999 -SHSN BKN022 OVC032 04/M02 Q1006 NOSIG",
      "taf": "TAF LHBP 151115Z 1512/1612 31015G25KT CAVOK"
    },
    {
      "icao": "LHDC",
      "alert": "OK",
      "vis_m": 9999,
      "fzfg": false,
      "metar_trigger": false,
      "taf_trigger": false,
      "metar": "METAR LHDC 151115Z AUTO 01019G32KT 340V040 9999 BKN039 02/M02 Q1003 NOSIG",
      "taf": "TAF LHDC 151115Z 1512/1521 01020G32KT 9999 BKN040"
    },
    {
      "icao": "LIBD",
      "alert": "OK",
      "vis_m": 9999,
      "fzfg": false,
      "metar_trigger": false,
      "taf_trigger": false,
      "metar": "METAR LIBD 151120Z 27012KT 9999 BKN035 12/09 Q1000",
      "taf": "TAF LIBD 151100Z 1512/1612 27015KT 9999 SCT030"
    },
    {
      "icao": "LIBG",
      "alert": "OK",
      "vis_m": 9999,
      "fzfg": false,
      "metar_trigger": false,
      "taf_trigger": false,
      "metar": "METAR LIBG 151050Z 25006KT 220V290 CAVOK 14/09 Q1000",
      "taf": "TAF LIBG 151100Z 1512/1521 31012KT 9999 SCT040"
    },
    {
      "icao": "LIBP",
      "alert": "OK",
      "vis_m": 9999,
      "fzfg": false,
      "metar_trigger": false,
      "taf_trigger": false,
      "metar": "METAR LIBP 151120Z AUTO 34009KT 290V020 9999 OVC054/// 12/09 Q1004",
      "taf": "TAF LIBP 151100Z 1512/1612 31012KT 9999 BKN030"
    },
    {
      "icao": "LIBR",
      "alert": "OK",
      "vis_m": 9999,
      "fzfg": false,
      "metar_trigger": false,
      "taf_trigger": false,
      "metar": "METAR LIBR 151120Z 24012KT 9999 FEW045 15/08 Q1000",
      "taf": "TAF LIBR 151100Z 1512/1612 29015KT 9999 SCT030"
    },
    {
      "icao": "LICA",
      "alert": "OK",
      "vis_m": 9999,
      "fzfg": false,
      "metar_trigger": false,
      "taf_trigger": false,
      "metar": "METAR LICA 151120Z AUTO 27010KT 9999 FEW047/// BKN072/// 16/09 Q1001",
      "taf": "TAF LICA 151100Z 1512/1612 28014KT 9999 OVC060"
    },
    {
      "icao": "LICC",
      "alert": "OK",
      "vis_m": 9999,
      "fzfg": false,
      "metar_trigger": false,
      "taf_trigger": false,
      "metar": "METAR LICC 151120Z 25012KT 9999 SCT020 BKN070 16/13 Q1000",
      "taf": "TAF LICC 151100Z 1512/1612 27010KT 9999 SCT020"
    },
    {
      "icao": "LICJ",
      "alert": "OK",
      "vis_m": 9999,
      "fzfg": false,
      "metar_trigger": false,
      "taf_trigger": false,
      "metar": "METAR LICJ 151120Z 33015KT 9999 SCT030 15/11 Q1005",
      "taf": "TAF LICJ 151100Z 1512/1612 31016KT 9999 RA SCT030"
    },
    {
      "icao": "LIMC",
      "alert": "OK",
      "vis_m": 9999,
      "fzfg": false,
      "metar_trigger": false,
      "taf_trigger": false,
      "metar": "METAR LIMC 151120Z 02011KT CAVOK 14/M11 Q1007 NOSIG",
      "taf": "TAF LIMC 151100Z 1512/1618 01012KT CAVOK"
    },
    {
      "icao": "LIME",
      "alert": "OK",
      "vis_m": 9999,
      "fzfg": false,
      "metar_trigger": false,
      "taf_trigger": false,
      "metar": "METAR LIME 151120Z AUTO 21005KT 170V250 9999 NCD 13/01 Q1006",
      "taf": "TAF LIME 151100Z 1512/1612 VRB05KT CAVOK"
    },
    {
      "icao": "LIMF",
      "alert": "OK",
      "vis_m": 9999,
      "fzfg": false,
      "metar_trigger": false,
      "taf_trigger": false,
      "metar": "METAR LIMF 151120Z 21007KT CAVOK 13/01 Q1007",
      "taf": "TAF LIMF 151100Z 1512/1612 VRB05KT CAVOK"
    },
    {
      "icao": "LIMJ",
      "alert": "OK",
      "vis_m": 9999,
      "fzfg": false,
      "metar_trigger": false,
      "taf_trigger": false,
      "metar": "METAR LIMJ 151120Z 03013KT CAVOK 16/M05 Q1006",
      "taf": "TAF LIMJ 151100Z 1512/1612 03013KT CAVOK"
    },
    {
      "icao": "LIPE",
      "alert": "OK",
      "vis_m": 9999,
      "fzfg": false,
      "metar_trigger": false,
      "taf_trigger": false,
      "metar": "METAR LIPE 151120Z 27008KT 240V300 9999 FEW020 13/08 Q1007",
      "taf": "TAF LIPE 151100Z 1512/1612 VRB05KT 9999 SCT040"
    },
    {
      "icao": "LIPH",
      "alert": "OK",
      "vis_m": 9999,
      "fzfg": false,
      "metar_trigger": false,
      "taf_trigger": false,
      "metar": "METAR LIPH 151120Z 22004KT CAVOK 14/06 Q1005",
      "taf": "TAF LIPH 151100Z 1512/1612 08008KT 9999 SCT020"
    },
    {
      "icao": "LIPQ",
      "alert": "OK",
      "vis_m": 9999,
      "fzfg": false,
      "metar_trigger": false,
      "taf_trigger": false,
      "metar": "METAR LIPQ 151120Z AUTO 18006KT 9999 BKN100/// 14/02 Q1005",
      "taf": "TAF LIPQ 151100Z 1512/1612 VRB05KT 9999 SCT040"
    },
    {
      "icao": "LIPR",
      "alert": "OK",
      "vis_m": 9999,
      "fzfg": false,
      "metar_trigger": false,
      "taf_trigger": false,
      "metar": "METAR LIPR 151120Z 30011KT 9999 FEW010 BKN070 12/09 Q1006",
      "taf": "TAF LIPR 151100Z 1512/1612 35010KT 9999 BKN030"
    },
    {
      "icao": "LIPX",
      "alert": "OK",
      "vis_m": 9999,
      "fzfg": false,
      "metar_trigger": false,
      "taf_trigger": false,
      "metar": "METAR LIPX 151120Z VRB02KT CAVOK 14/06 Q1006",
      "taf": "TAF LIPX 151100Z 1512/1612 VRB05KT 9999 FEW050"
    },
    {
      "icao": "LIPY",
      "alert": "OK",
      "vis_m": 9999,
      "fzfg": false,
      "metar_trigger": false,
      "taf_trigger": false,
      "metar": "METAR LIPY 151120Z AUTO 04011KT 9999 OVC050/// 12/07 Q1006",
      "taf": "TAF LIPY 151100Z 1512/1612 01016KT 9999 SCT040"
    },
    {
      "icao": "LIPZ",
      "alert": "OK",
      "vis_m": 9999,
      "fzfg": false,
      "metar_trigger": false,
      "taf_trigger": false,
      "metar": "METAR LIPZ 151120Z 18004KT CAVOK 14/07 Q1005 NOSIG",
      "taf": "TAF LIPZ 151100Z 1512/1618 VRB05KT 9999 SCT030"
    },
    {
      "icao": "LIRF",
      "alert": "OK",
      "vis_m": 9999,
      "fzfg": false,
      "metar_trigger": false,
      "taf_trigger": false,
      "metar": "METAR LIRF 151120Z 35014KT CAVOK 16/08 Q1003 NOSIG",
      "taf": "TAF LIRF 151100Z 1512/1618 35012KT CAVOK"
    },
    {
      "icao": "LIRN",
      "alert": "OK",
      "vis_m": 9999,
      "fzfg": false,
      "metar_trigger": false,
      "taf_trigger": false,
      "metar": "METAR LIRN 151120Z 32004KT 250V010 9999 FEW030 SCT065 14/08 Q1003 NOSIG",
      "taf": "TAF LIRN 151100Z 1512/1612 VRB06KT 9999 BKN080"
    },
    {
      "icao": "LIRP",
      "alert": "OK",
      "vis_m": 9999,
      "fzfg": false,
      "metar_trigger": false,
      "taf_trigger": false,
      "metar": "METAR LIRP 151115Z 12003KT CAVOK 15/07 Q1006 NOSIG",
      "taf": "TAF LIRP 151100Z 1512/1612 VRB03KT 9999 FEW080"
    },
    {
      "icao": "LIRZ",
      "alert": "OK",
      "vis_m": 9999,
      "fzfg": false,
      "metar_trigger": false,
      "taf_trigger": false,
      "metar": "METAR LIRZ 151120Z AUTO 04009KT 9999 BKN038/// 12/06 Q1005",
      "taf": "TAF LIRZ 150500Z 1506/1606 02011KT 9999 FEW030"
    },
    {
      "icao": "LJLJ",
      "alert": "OK",
      "vis_m": 9999,
      "fzfg": false,
      "metar_trigger": false,
      "taf_trigger": false,
      "metar": "METAR LJLJ 151130Z VRB02KT 9999 FEW065 BKN110 09/00 Q1007 NOSIG",
      "taf": "TAF LJLJ 151100Z 1512/1612 02006KT 9999 FEW065"
    },
    {
      "icao": "LKMT",
      "alert": "OK",
      "vis_m": 9999,
      "fzfg": false,
      "metar_trigger": false,
      "taf_trigger": false,
      "metar": "METAR LKMT 151130Z 36012KT 9999 -SN OVC011 M03/M05 Q1014 NOSIG",
      "taf": "TAF LKMT 151100Z 1512/1612 01012KT 9999 SCT015 OVC022"
    },
    {
      "icao": "LKPR",
      "alert": "OK",
      "vis_m": 9999,
      "fzfg": false,
      "metar_trigger": false,
      "taf_trigger": false,
      "metar": "METAR LKPR 151130Z 30008KT 270V330 9999 BKN031 M02/M08 Q1016 NOSIG",
      "taf": "TAF LKPR 151100Z 1512/1618 34010KT 9999 OVC035"
    },
    {
      "icao": "LLBG",
      "alert": "OK",
      "vis_m": 9999,
      "fzfg": false,
      "metar_trigger": false,
      "taf_trigger": false,
      "metar": "METAR LLBG 151120Z 33005KT 300V010 CAVOK 24/06 Q1019 NOSIG",
      "taf": "TAF LLBG 151104Z 1512/1612 34010KT 7000 NSC"
    },
    {
      "icao": "LMML",
      "alert": "OK",
      "vis_m": 9999,
      "fzfg": false,
      "metar_trigger": false,
      "taf_trigger": false,
      "metar": "METAR LMML 151145Z 26023KT 9999 -RA FEW014CB 13/11 Q1005 NOSIG",
      "taf": "TAF LMML 151100Z 1512/1612 25020G30KT 9999 SCT020"
    },
    {
      "icao": "LOWW",
      "alert": "OK",
      "vis_m": 9999,
      "fzfg": false,
      "metar_trigger": false,
      "taf_trigger": false,
      "metar": "METAR LOWW 151120Z 33019KT 9999 FEW024 OVC038 01/M05 Q1014 NOSIG",
      "taf": "TAF LOWW 151115Z 1512/1618 34010KT 9999 FEW030 BKN040 TX00/1512Z TNM06/1602Z"
    },
    {
      "icao": "LPFR",
      "alert": "OK",
      "vis_m": 9999,
      "fzfg": false,
      "metar_trigger": false,
      "taf_trigger": false,
      "metar": "METAR LPFR 151130Z 32011KT 300V360 9999 FEW028 15/09 Q1032",
      "taf": "TAF LPFR 151100Z 1512/1612 30008KT 9999 SCT025"
    },
    {
      "icao": "LPMA",
      "alert": "OK",
      "vis_m": 9999,
      "fzfg": false,
      "metar_trigger": false,
      "taf_trigger": false,
      "metar": "METAR LPMA 151130Z 03017KT 9999 FEW020 18/09 Q1032",
      "taf": "TAF LPMA 151100Z 1512/1612 02015KT 9999 SCT015"
    },
    {
      "icao": "LPPR",
      "alert": "OK",
      "vis_m": 9999,
      "fzfg": false,
      "metar_trigger": false,
      "taf_trigger": false,
      "metar": "METAR LPPR 151130Z 21007KT 190V250 9999 FEW007 BKN040 14/12 Q1029",
      "taf": "TAF LPPR 151100Z 1512/1612 22010KT 9999 SCT012 BKN025"
    },
    {
      "icao": "LPPS",
      "alert": "OK",
      "vis_m": 9999,
      "fzfg": false,
      "metar_trigger": false,
      "taf_trigger": false,
      "metar": "METAR LPPS 151130Z 07009KT 030V110 9999 FEW015 17/11 Q1033",
      "taf": "TAF LPPS 151100Z 1512/1618 06012KT 9999 SCT015"
    },
    {
      "icao": "LPPT",
      "alert": "OK",
      "vis_m": 9999,
      "fzfg": false,
      "metar_trigger": false,
      "taf_trigger": false,
      "metar": "METAR LPPT 151130Z 31008KT 280V340 9999 SCT012 SCT022 13/11 Q1032",
      "taf": "TAF LPPT 151100Z 1512/1618 29012KT 9999 SCT025"
    },
    {
      "icao": "LQBK",
      "alert": "OK",
      "vis_m": 3000,
      "fzfg": false,
      "metar_trigger": false,
      "taf_trigger": false,
      "metar": "METAR LQBK 151130Z 29011KT 3000 SN BR BKN007 OVC020 02/00 Q1009 NOSIG",
      "taf": "TAF LQBK 151100Z 1512/1612 36010KT 6000 SCT012 BKN025 TX04/1612Z TNM05/1606Z"
    },
    {
      "icao": "LQSA",
      "alert": "OK",
      "vis_m": 9999,
      "fzfg": false,
      "metar_trigger": false,
      "taf_trigger": false,
      "metar": "METAR LQSA 151130Z 31009KT 9999 -RA SCT015 BKN021 OVC030 03/02 Q1004 NOSIG",
      "taf": "TAF LQSA 151100Z 1512/1612 28007KT 5000 -SN BR SCT018 BKN035 TX04/1612Z TNM04/1605Z"
    },
    {
      "icao": "LQTZ",
      "alert": "OK",
      "vis_m": 1700,
      "fzfg": false,
      "metar_trigger": false,
      "taf_trigger": false,
      "metar": "METAR LQTZ 151130Z 29010KT 1700 -SN BR OVC003 00/00 Q1006",
      "taf": ""
    },
    {
      "icao": "LRBC",
      "alert": "OK",
      "vis_m": 1800,
      "fzfg": false,
      "metar_trigger": false,
      "taf_trigger": false,
      "metar": "METAR LRBC 151130Z 34005KT 1800 -RA BR OVC005 05/05 Q1002",
      "taf": "TAF LRBC 151100Z 1512/1521 33010KT 3000 -RA BR BKN005 OVC020"
    },
    {
      "icao": "LRBS",
      "alert": "OK",
      "vis_m": 4000,
      "fzfg": false,
      "metar_trigger": false,
      "taf_trigger": false,
      "metar": "METAR LRBS 151130Z 06005KT 020V080 4000 -RA BR FEW010 08/08 Q0999 NOSIG",
      "taf": "TAF LRBS 151100Z 1512/1612 05005KT 5000 -RA SCT010 SCT045"
    },
    {
      "icao": "LRBV",
      "alert": "OK",
      "vis_m": 9999,
      "fzfg": false,
      "metar_trigger": false,
      "taf_trigger": false,
      "metar": "METAR LRBV 151130Z VRB02KT 9999 -RA FEW035 OVC059 07/05 Q0999",
      "taf": "TAF LRBV 151100Z 1512/1521 VRB04KT 9999 SCT035 BKN055"
    },
    {
      "icao": "LRCL",
      "alert": "OK",
      "vis_m": 6000,
      "fzfg": false,
      "metar_trigger": false,
      "taf_trigger": false,
      "metar": "METAR LRCL 151130Z 13002KT 6000 -RA OVC030 05/04 Q1000",
      "taf": "TAF LRCL 151100Z 1512/1521 VRB04KT 9999 BKN035"
    },
    {
      "icao": "LRCV",
      "alert": "OK",
      "vis_m": 2100,
      "fzfg": false,
      "metar_trigger": false,
      "taf_trigger": false,
      "metar": "METAR LRCV 151130Z 10012KT 2100 +RA BR FEW005 BKN038 08/08 Q0998",
      "taf": "TAF LRCV 151100Z 1512/1521 08010KT 3000 -RA BR BKN040"
    },
    {
      "icao": "LRIA",
      "alert": "OK",
      "vis_m": 3500,
      "fzfg": false,
      "metar_trigger": false,
      "taf_trigger": false,
      "metar": "METAR LRIA 151130Z 09005KT 3500 -RA BR OVC002 05/05 Q1002",
      "taf": "TAF LRIA 151100Z 1512/1521 10010KT 3000 -RA BR BKN001 OVC035"
    },
    {
      "icao": "LROP",
      "alert": "OK",
      "vis_m": 5000,
      "fzfg": false,
      "metar_trigger": false,
      "taf_trigger": false,
      "metar": "METAR LROP 151130Z 06008KT 5000 -RA BR NSC 09/09 Q0999 NOSIG",
      "taf": "TAF LROP 151100Z 1512/1612 05010KT 3000 -RA SCT010 SCT035"
    },
    {
      "icao": "LRSB",
      "alert": "OK",
      "vis_m": 9999,
      "fzfg": false,
      "metar_trigger": false,
      "taf_trigger": false,
      "metar": "METAR LRSB 151130Z 32006KT 9999 SCT010 SCT015 BKN083 07/06 Q0998",
      "taf": "TAF LRSB 151100Z 1512/1612 32010KT 9999 BKN050"
    },
    {
      "icao": "LRSM",
      "alert": "OK",
      "vis_m": 9999,
      "fzfg": false,
      "metar_trigger": false,
      "taf_trigger": false,
      "metar": "METAR LRSM 151130Z 35012KT 9999 -RA OVC040 05/03 Q1002",
      "taf": "TAF LRSM 151100Z 1512/1521 34013KT 9999 BKN040"
    },
    {
      "icao": "LRSV",
      "alert": "OK",
      "vis_m": 3000,
      "fzfg": false,
      "metar_trigger": false,
      "taf_trigger": false,
      "metar": "METAR LRSV 151130Z 31013KT 3000 -RA BR OVC004 01/01 Q1002",
      "taf": "TAF LRSV 151100Z 1512/1521 32010KT 3000 -RA BR OVC002"
    },
    {
      "icao": "LRTM",
      "alert": "OK",
      "vis_m": 6000,
      "fzfg": false,
      "metar_trigger": false,
      "taf_trigger": false,
      "metar": "METAR LRTM 151130Z VRB02KT 6000 -RA FEW008 BKN042 BKN048 05/05 Q0999",
      "taf": "TAF LRTM 151100Z 1512/1521 VRB04KT 9999 BKN045"
    },
    {
      "icao": "LRTR",
      "alert": "OK",
      "vis_m": 7000,
      "fzfg": false,
      "metar_trigger": false,
      "taf_trigger": false,
      "metar": "METAR LRTR 151130Z 35013KT 7000 RA SCT004 BKN010 BKN035 07/07 Q1000",
      "taf": "TAF LRTR 151100Z 1512/1612 36015KT 9999 BKN045"
    },
    {
      "icao": "LTAC",
      "alert": "OK",
      "vis_m": 9999,
      "fzfg": false,
      "metar_trigger": false,
      "taf_trigger": false,
      "metar": "METAR LTAC 151120Z 16009KT 130V190 CAVOK 14/04 Q1016 NOSIG RMK RWY21C 14010KT RWY03L 14007KT 090V180 RWY21R 13009KT 090V160 RWY03R 15010KT RWY21L 15009KT",
      "taf": "TAF LTAC 151040Z 1512/1612 VRB02KT CAVOK"
    },
    {
      "icao": "LTFM",
      "alert": "OK",
      "vis_m": 9999,
      "fzfg": false,
      "metar_trigger": false,
      "taf_trigger": false,
      "metar": "METAR LTFM 151120Z 20020KT CAVOK 22/03 Q1004 NOSIG RMK RWY17L 20020KT RWY34L 18017KT RWY16R 19016KT RWY36 21020KT RWY18 21021KT",
      "taf": "TAF LTFM 151040Z 1512/1618 18022G38KT CAVOK"
    },
    {
      "icao": "LUKK",
      "alert": "OK",
      "vis_m": 450,
      "fzfg": false,
      "metar_trigger": false,
      "taf_trigger": false,
      "metar": "METAR LUKK 151130Z 07004KT 0450 0350SW R08/0400N FG VV002 05/05 Q1002 TEMPO 0800 FG",
      "taf": "TAF LUKK 151129Z 1512/1612 VRB05KT 2000 -RA BR OVC005"
    },
    {
      "icao": "LWOH",
      "alert": "OK",
      "vis_m": null,
      "fzfg": false,
      "metar_trigger": false,
      "taf_trigger": false,
      "metar": "",
      "taf": "TAF LWOH 151110Z 1512/1612 22010KT 9999 FEW020 BKN040"
    },
    {
      "icao": "LWSK",
      "alert": "OK",
      "vis_m": null,
      "fzfg": false,
      "metar_trigger": false,
      "taf_trigger": false,
      "metar": "",
      "taf": "TAF LWSK 151110Z 1512/1612 31008KT 9999 SCT020 BKN050"
    },
    {
      "icao": "LYBE",
      "alert": "OK",
      "vis_m": 6000,
      "fzfg": false,
      "metar_trigger": false,
      "taf_trigger": false,
      "metar": "METAR LYBE 151130Z 34014KT 6000 -RA BKN005 BKN026 08/07 Q1001 RERA NOSIG",
      "taf": "TAF LYBE 151100Z 1512/1612 34015KT 8000 RA BKN006 BKN025 TX07/1512Z TNM03/1606Z"
    },
    {
      "icao": "LYNI",
      "alert": "OK",
      "vis_m": 9999,
      "fzfg": false,
      "metar_trigger": false,
      "taf_trigger": false,
      "metar": "METAR LYNI 151130Z 12003KT 080V160 9999 FEW013 SCT025 12/10 Q0998 BECMG 33018KT",
      "taf": "TAF LYNI 151100Z 1512/1612 16004KT 9999 FEW010 BKN040 BKN070 TX12/1512Z TN01/1606Z"
    },
    {
      "icao": "LYPG",
      "alert": "OK",
      "vis_m": 9999,
      "fzfg": false,
      "metar_trigger": false,
      "taf_trigger": false,
      "metar": "METAR LYPG 151130Z 12009KT 9999 -RA FEW010 SCT026 BKN040 12/11 Q0999 NOSIG",
      "taf": "TAF LYPG 151100Z 1512/1612 15007KT 9999 FEW010 SCT034 OVC080 TX12/1512Z TN07/1605Z"
    },
    {
      "icao": "LZIB",
      "alert": "OK",
      "vis_m": 9999,
      "fzfg": false,
      "metar_trigger": false,
      "taf_trigger": false,
      "metar": "METAR LZIB 151130Z 35018KT 9999 BKN033 02/M05 Q1012 NOSIG",
      "taf": "TAF LZIB 151115Z 1512/1612 35017KT 9999 FEW025 BKN035"
    },
    {
      "icao": "LZKZ",
      "alert": "OK",
      "vis_m": 9999,
      "fzfg": false,
      "metar_trigger": false,
      "taf_trigger": false,
      "metar": "METAR LZKZ 151130Z 02024KT CAVOK 00/M05 Q1007 NOSIG",
      "taf": "TAF LZKZ 151115Z 1512/1612 36022KT 9999 FEW030"
    },
    {
      "icao": "LZTT",
      "alert": "OK",
      "vis_m": 4000,
      "fzfg": false,
      "metar_trigger": false,
      "taf_trigger": false,
      "metar": "METAR LZTT 151130Z 24006KT 210V270 4000 -SN BKN008 OVC015 M03/M05 Q1007 NOSIG",
      "taf": "TAF LZTT 151115Z 1512/1612 24005KT 9999 SCT022 BKN030"
    },
    {
      "icao": "OEJN",
      "alert": "OK",
      "vis_m": 9999,
      "fzfg": false,
      "metar_trigger": false,
      "taf_trigger": false,
      "metar": "METAR OEJN 151100Z 27008KT CAVOK 30/18 Q1012 NOSIG",
      "taf": "TAF OEJN 151100Z 1512/1618 28012KT CAVOK"
    },
    {
      "icao": "OEMA",
      "alert": "OK",
      "vis_m": 9999,
      "fzfg": false,
      "metar_trigger": false,
      "taf_trigger": false,
      "metar": "METAR OEMA 151100Z 07011KT CAVOK 31/M02 Q1019 NOSIG",
      "taf": "TAF OEMA 151100Z 1512/1618 06013KT 7000 NSC"
    },
    {
      "icao": "OJAI",
      "alert": "OK",
      "vis_m": 3000,
      "fzfg": false,
      "metar_trigger": false,
      "taf_trigger": false,
      "metar": "METAR OJAI 151100Z 12005KT 3000 DU NSC 19/M01 Q1023 NOSIG",
      "taf": "TAF OJAI 151031Z 1512/1618 10010KT 2000 DU NSC"
    },
    {
      "icao": "OMAA",
      "alert": "OK",
      "vis_m": 9999,
      "fzfg": false,
      "metar_trigger": false,
      "taf_trigger": false,
      "metar": "METAR OMAA 151130Z 29013KT CAVOK 31/06 Q1013 NOSIG",
      "taf": "TAF OMAA 151100Z 1512/1618 30013KT 8000 NSC"
    },
    {
      "icao": "OMDB",
      "alert": "OK",
      "vis_m": 9999,
      "fzfg": false,
      "metar_trigger": false,
      "taf_trigger": false,
      "metar": "METAR OMDB 151130Z 28012KT 190V300 CAVOK 30/02 Q1013 NOSIG",
      "taf": "TAF OMDB 151100Z 1512/1618 28012KT CAVOK"
    },
    {
      "icao": "UAAA",
      "alert": "OK",
      "vis_m": 3800,
      "fzfg": false,
      "metar_trigger": false,
      "taf_trigger": false,
      "metar": "METAR UAAA 151130Z 27002MPS 3800 BR SCT100 OVC200 03/01 Q1017 NOSIG",
      "taf": "TAF UAAA 151110Z 1512/1612 24003MPS 1100 BR FU FEW003 BKN011 TX03/1609Z TNM02/1602Z"
    },
    {
      "icao": "UBBB",
      "alert": "OK",
      "vis_m": 9999,
      "fzfg": false,
      "metar_trigger": false,
      "taf_trigger": false,
      "metar": "METAR UBBB 151130Z 34023G33KT CAVOK 11/07 Q1019 WS R35 NOSIG",
      "taf": "TAF UBBB 151056Z 1512/1612 32014KT CAVOK TX12/1512Z TN06/1601Z"
    },
    {
      "icao": "UDSG",
      "alert": "OK",
      "vis_m": 9999,
      "fzfg": false,
      "metar_trigger": false,
      "taf_trigger": false,
      "metar": "METAR UDSG 151130Z 10004KT 9999 NSC 06/M01 Q1023 NOSIG",
      "taf": "TAF UDSG 151058Z 1512/1612 VRB06KT 9999 FEW040"
    },
    {
      "icao": "UDYZ",
      "alert": "OK",
      "vis_m": 9999,
      "fzfg": false,
      "metar_trigger": false,
      "taf_trigger": false,
      "metar": "METAR UDYZ 151130Z VRB02KT 9999 NSC 15/03 Q1021 NOSIG",
      "taf": "TAF UDYZ 151100Z 1512/1612 VRB04KT 9999 FEW040"
    },
    {
      "icao": "UGKO",
      "alert": "OK",
      "vis_m": 9999,
      "fzfg": false,
      "metar_trigger": false,
      "taf_trigger": false,
      "metar": "METAR UGKO 151130Z 10010KT CAVOK 16/08 Q1019 NOSIG",
      "taf": "TAF UGKO 151100Z 1512/1612 08010KT CAVOK TX24/1611Z TN11/1603Z"
    }
  ]
}